Time_recorded,METAR
2026-05-02 15:20:00,METAR EGTK 021520Z 07006KT 050V120 9999 FEW040 19/09 Q1012
2026-05-02 14:50:00,METAR EGTK 021450Z 18004KT 120V230 9999 FEW040 19/08 Q1013
2026-05-02 14:20:00,METAR EGTK 021420Z 17004KT 090V250 9999 FEW040 19/08 Q1013
2026-05-02 13:50:00,METAR EGTK 021350Z 15004KT 100V270 9999 FEW040 19/08 Q1014
2026-05-02 13:20:00,METAR EGTK 021320Z VRB04KT 9999 FEW040 18/08 Q1014
2026-05-02 12:50:00,METAR EGTK 021250Z 21003KT 140V260 9999 FEW037 19/07 Q1015
2026-05-02 12:20:00,METAR EGTK 021220Z 22006KT 160V280 9999 FEW037 18/07 Q1015
2026-05-02 11:50:00,METAR EGTK 021150Z VRB04KT 9999 FEW036 18/08 Q1015
2026-05-02 11:20:00,METAR EGTK 021120Z VRB04KT 9999 FEW029 17/08 Q1016
2026-05-02 10:50:00,METAR EGTK 021050Z 20006KT 150V240 9999 FEW029 17/07 Q1016
2026-05-02 10:20:00,METAR EGTK 021020Z 17007KT 110V240 9999 FEW029 17/08 Q1017
2026-05-02 09:50:00,METAR EGTK 020950Z VRB02KT CAVOK 15/08 Q1017
2026-05-02 09:20:00,METAR EGTK 020920Z VRB02KT CAVOK 15/09 Q1017
2026-05-02 08:50:00,METAR EGTK 020850Z VRB01KT CAVOK 14/09 Q1017
2026-05-02 08:20:00,METAR EGTK 020820Z VRB02KT CAVOK 14/10 Q1017
2026-05-02 07:50:00,METAR EGTK 020750Z VRB02KT 9000 NSC 12/09 Q1018
2026-05-02 07:20:00,METAR EGTK 020720Z VRB02KT 9000 NSC 11/09 Q1018
2026-05-02 06:50:00,METAR EGTK 020650Z 26002KT 9000 FEW040 10/08 Q1018
2026-05-02 06:20:00,METAR EGTK 020620Z 22001KT 8000 FEW042 08/08 Q1018
2026-05-02 05:50:00,METAR EGTK 020550Z 19002KT 8000 FEW042 08/07 Q1018
2026-05-02 05:20:00,METAR EGTK 020520Z 22001KT 7000 SCT042 06/06 Q1017
2026-05-02 04:50:00,METAR EGTK 020450Z 24003KT 6000 SCT042 07/07 Q1017
2026-05-01 21:20:00,METAR EGTK 012120Z 24005KT 9999 BKN037 14/11 Q1019
2026-05-01 20:50:00,METAR EGTK 012050Z 24005KT 9999 BKN037 14/11 Q1019
2026-05-01 20:20:00,METAR EGTK 012020Z 24006KT 9999 SCT040 13/11 Q1019
2026-05-01 19:50:00,METAR EGTK 011950Z 25005KT CAVOK 14/11 Q1019
2026-05-01 19:20:00,METAR EGTK 011920Z 24005KT CAVOK 15/11 Q1018
2026-05-01 18:50:00,METAR EGTK 011850Z 24008KT 9999 FEW045 16/12 Q1018
2026-05-01 18:20:00,METAR EGTK 011820Z 24009KT 9999 SCT042 17/12 Q1018
2026-05-01 17:50:00,METAR EGTK 011750Z 25011KT 9999 SCT039 18/12 Q1018
2026-05-01 17:20:00,METAR EGTK 011720Z 24010KT 9999 SCT034 19/13 Q1018
2026-05-01 16:50:00,METAR EGTK 011650Z 23010KT 9999 SCT029 20/13 Q1018
2026-05-01 16:20:00,METAR EGTK 011620Z 22013KT 190V250 9999 FEW035 20/13 Q1018
2026-05-01 15:50:00,METAR EGTK 011550Z 23014KT 9999 FEW035 21/13 Q1018
2026-05-01 15:20:00,METAR EGTK 011520Z 22014KT 9999 FEW035 22/13 Q1018
2026-05-01 14:50:00,METAR EGTK 011450Z 19013KT CAVOK 22/10 Q1018
2026-05-01 14:20:00,METAR EGTK 011420Z 20012KT 160V230 CAVOK 24/10 Q1018
2026-05-01 13:50:00,METAR EGTK 011350Z 19011KT 140V220 CAVOK 24/09 Q1018
2026-05-01 13:20:00,METAR EGTK 011320Z 19012KT CAVOK 24/08 Q1018
2026-05-01 12:50:00,METAR EGTK 011250Z 17011KT CAVOK 24/08 Q1018
2026-05-01 12:20:00,METAR EGTK 011220Z 17013KT CAVOK 23/07 Q1018
2026-05-01 11:50:00,METAR EGTK 011150Z 14010KT 120V180 CAVOK 23/07 Q1019
2026-05-01 11:20:00,METAR EGTK 011120Z 16007KT 130V200 CAVOK 22/08 Q1019
2026-05-01 10:50:00,METAR EGTK 011050Z 14008KT 100V190 CAVOK 21/08 Q1019
2026-05-01 10:20:00,METAR EGTK 011020Z 12006KT 080V160 CAVOK 21/07 Q1019
2026-05-01 09:50:00,METAR EGTK 010950Z 11003KT 070V210 CAVOK 19/06 Q1019
2026-05-01 09:20:00,METAR EGTK 010920Z 13006KT 080V160 CAVOK 18/05 Q1020
2026-05-01 08:50:00,METAR EGTK 010850Z 14006KT 080V180 CAVOK 18/05 Q1020
2026-05-01 08:20:00,METAR EGTK 010820Z 12005KT 080V180 CAVOK 16/05 Q1020
2026-05-01 07:50:00,METAR EGTK 010750Z 10003KT 070V130 CAVOK 14/05 Q1020
2026-05-01 07:20:00,METAR EGTK 010720Z 08004KT 050V120 CAVOK 13/05 Q1020
2026-05-01 06:50:00,METAR EGTK 010650Z VRB02KT CAVOK 12/05 Q1020
2026-05-01 06:20:00,METAR EGTK 010620Z 02004KT CAVOK 10/04 Q1020
2026-05-01 05:50:00,METAR EGTK 010550Z 36005KT CAVOK 08/04 Q1019
2026-05-01 05:20:00,METAR EGTK 010520Z 33004KT CAVOK 06/03 Q1019
2026-05-01 04:50:00,METAR EGTK 010450Z 33003KT CAVOK 05/03 Q1019
2026-04-30 21:20:00,METAR EGTK 302120Z 07007KT CAVOK 11/02 Q1020
2026-04-30 20:50:00,METAR EGTK 302050Z 06008KT CAVOK 11/02 Q1020
2026-04-30 20:20:00,METAR EGTK 302020Z 07008KT CAVOK 12/02 Q1020
2026-04-30 19:50:00,METAR EGTK 301950Z 07006KT CAVOK 13/03 Q1020
2026-04-30 19:20:00,METAR EGTK 301920Z 07005KT CAVOK 14/03 Q1020
2026-04-30 18:50:00,METAR EGTK 301850Z 08009KT CAVOK 16/02 Q1020
2026-04-30 18:20:00,METAR EGTK 301820Z 09012KT CAVOK 17/02 Q1020
2026-04-30 17:50:00,METAR EGTK 301750Z 09013KT CAVOK 18/03 Q1019
2026-04-30 17:20:00,METAR EGTK 301720Z 09013KT CAVOK 19/02 Q1019
2026-04-30 16:50:00,METAR EGTK 301650Z 07014KT CAVOK 20/02 Q1019
2026-04-30 16:20:00,METAR EGTK 301620Z 08013KT CAVOK 20/02 Q1019
2026-04-30 14:50:00,METAR EGTK 301450Z 08015KT CAVOK 21/01 Q1020
2026-04-30 14:20:00,METAR EGTK 301420Z 08015KT 060V120 CAVOK 21/01 Q1020
2026-04-30 13:50:00,METAR EGTK 301350Z 08016KT CAVOK 21/01 Q1020
2026-04-30 13:20:00,METAR EGTK 301320Z 09016KT CAVOK 21/M00 Q1020
2026-04-30 12:50:00,METAR EGTK 301250Z 09017KT CAVOK 21/M01 Q1021
2026-04-30 12:20:00,METAR EGTK 301220Z 09015KT 060V120 CAVOK 21/02 Q1021
2026-04-30 11:50:00,METAR EGTK 301150Z 08015KT CAVOK 20/03 Q1021
2026-04-30 11:20:00,METAR EGTK 301120Z 09016KT CAVOK 20/02 Q1021
2026-04-30 10:50:00,METAR EGTK 301050Z 08017KT CAVOK 19/03 Q1021
2026-04-30 10:20:00,METAR EGTK 301020Z 08015KT CAVOK 18/04 Q1021
2026-04-30 09:50:00,METAR EGTK 300950Z 09015KT CAVOK 17/05 Q1022
2026-04-30 09:20:00,METAR EGTK 300920Z 08017KT CAVOK 16/04 Q1022
2026-04-30 08:50:00,METAR EGTK 300850Z 08015KT CAVOK 15/05 Q1022
2026-04-30 08:20:00,METAR EGTK 300820Z 09013KT CAVOK 15/05 Q1022
2026-04-30 07:50:00,METAR EGTK 300750Z 06014KT CAVOK 13/05 Q1022
2026-04-30 07:20:00,METAR EGTK 300720Z 06012KT CAVOK 11/06 Q1022
2026-04-30 06:50:00,METAR EGTK 300650Z 06013KT CAVOK 10/05 Q1022
2026-04-30 06:20:00,METAR EGTK 300620Z 06013KT CAVOK 09/04 Q1022
2026-04-30 05:50:00,METAR EGTK 300550Z 06013KT CAVOK 07/04 Q1022
2026-04-30 05:20:00,METAR EGTK 300520Z 05010KT CAVOK 07/04 Q1022
2026-04-30 04:50:00,METAR EGTK 300450Z 05009KT CAVOK 06/04 Q1022
2026-04-29 21:20:00,METAR EGTK 292120Z 06012KT CAVOK 10/02 Q1024
2026-04-29 20:50:00,METAR EGTK 292050Z 05013KT CAVOK 11/02 Q1024
2026-04-29 20:20:00,METAR EGTK 292020Z 05012KT 020V080 CAVOK 11/01 Q1023
2026-04-29 19:50:00,METAR EGTK 291950Z 05011KT CAVOK 12/01 Q1023
2026-04-29 19:20:00,METAR EGTK 291920Z 06013KT CAVOK 13/01 Q1023
2026-04-29 18:50:00,METAR EGTK 291850Z 06014KT CAVOK 13/01 Q1023
2026-04-29 18:20:00,METAR EGTK 291820Z 07019KT CAVOK 14/00 Q1022
2026-04-29 17:50:00,METAR EGTK 291750Z 06018G29KT 030V090 CAVOK 15/M00 Q1022
2026-04-29 17:20:00,METAR EGTK 291720Z 06020KT CAVOK 16/M01 Q1022
2026-04-29 16:50:00,METAR EGTK 291650Z 06020KT 020V080 CAVOK 16/M02 Q1022
2026-04-29 16:20:00,METAR EGTK 291620Z 05021KT CAVOK 17/M03 Q1022
2026-04-29 15:50:00,METAR EGTK 291550Z 07021KT CAVOK 17/M02 Q1022
2026-04-29 15:20:00,METAR EGTK 291520Z 06021KT CAVOK 18/M01 Q1022
2026-04-29 14:50:00,METAR EGTK 291450Z 06022KT CAVOK 18/M01 Q1023
2026-04-29 14:20:00,METAR EGTK 291420Z 06020KT CAVOK 18/M00 Q1023
2026-04-29 13:50:00,METAR EGTK 291350Z 07019KT CAVOK 18/00 Q1023
2026-04-29 13:20:00,METAR EGTK 291320Z 06020KT CAVOK 18/00 Q1023
2026-04-29 12:50:00,METAR EGTK 291250Z 07021KT CAVOK 18/01 Q1024
2026-04-29 12:20:00,METAR EGTK 291220Z 06019KT CAVOK 18/01 Q1024
2026-04-29 11:50:00,METAR EGTK 291150Z 06019G29KT 030V100 CAVOK 18/01 Q1024
2026-04-29 11:20:00,METAR EGTK 291120Z 07019KT CAVOK 17/01 Q1024
2026-04-29 10:50:00,METAR EGTK 291050Z 06020KT CAVOK 17/02 Q1024
2026-04-29 10:20:00,METAR EGTK 291020Z 06019KT 030V090 CAVOK 16/03 Q1024
2026-04-29 09:50:00,METAR EGTK 290950Z 06021KT CAVOK 15/03 Q1024
2026-04-29 09:20:00,METAR EGTK 290920Z 06020G30KT CAVOK 15/03 Q1024
2026-04-29 08:50:00,METAR EGTK 290850Z 06016KT CAVOK 14/04 Q1024
2026-04-29 08:20:00,METAR EGTK 290820Z 06017KT CAVOK 13/04 Q1024
2026-04-29 07:50:00,METAR EGTK 290750Z 05014KT CAVOK 12/05 Q1025
2026-04-29 07:20:00,METAR EGTK 290720Z 04015KT CAVOK 10/05 Q1025
2026-04-29 06:50:00,METAR EGTK 290650Z 04015KT CAVOK 09/05 Q1024
2026-04-29 06:20:00,METAR EGTK 290620Z 03014KT CAVOK 08/05 Q1024
2026-04-29 05:50:00,METAR EGTK 290550Z 03014KT CAVOK 07/04 Q1024
2026-04-29 05:20:00,METAR EGTK 290520Z 03015KT CAVOK 07/04 Q1024
2026-04-28 21:20:00,METAR EGTK 282120Z 02012KT CAVOK 08/02 Q1025
2026-04-28 20:50:00,METAR EGTK 282050Z 02014KT CAVOK 08/02 Q1025
2026-04-28 20:20:00,METAR EGTK 282020Z 02013KT CAVOK 09/02 Q1025
2026-04-28 19:50:00,METAR EGTK 281950Z 03014KT CAVOK 10/02 Q1025
2026-04-28 19:20:00,METAR EGTK 281920Z 02014KT CAVOK 10/03 Q1025
2026-04-28 18:50:00,METAR EGTK 281850Z 02017KT CAVOK 11/04 Q1025
2026-04-28 18:20:00,METAR EGTK 281820Z 03014KT CAVOK 12/04 Q1025
2026-04-28 17:50:00,METAR EGTK 281750Z 03018KT CAVOK 12/04 Q1024
2026-04-28 17:20:00,METAR EGTK 281720Z 02018KT CAVOK 13/04 Q1024
2026-04-28 16:50:00,METAR EGTK 281650Z 02018KT CAVOK 13/04 Q1024
2026-04-28 16:20:00,METAR EGTK 281620Z 03017KT 360V060 9999 FEW036 14/04 Q1024
2026-04-28 15:50:00,METAR EGTK 281550Z 02016KT 350V050 9999 FEW036 14/04 Q1024
2026-04-28 15:20:00,METAR EGTK 281520Z 03018KT 9999 FEW036 14/05 Q1024
2026-04-28 14:50:00,METAR EGTK 281450Z 02018KT 9999 SCT034 14/05 Q1024
2026-04-28 14:20:00,METAR EGTK 281420Z 02019KT 9999 FEW024 SCT032 14/05 Q1025
2026-04-28 13:50:00,METAR EGTK 281350Z 03018KT 9999 FEW024 BKN032 14/06 Q1025
2026-04-28 13:20:00,METAR EGTK 281320Z 03017G27KT 360V060 9999 VCSH SCT016 BKN024 13/06 Q1025
2026-04-28 12:50:00,METAR EGTK 281250Z 03014KT 9999 VCSH SCT016 BKN025 12/06 Q1025
2026-04-28 12:20:00,METAR EGTK 281220Z 03014KT 9999 VCSH SCT016 BKN022 11/06 Q1026
2026-04-28 11:50:00,METAR EGTK 281150Z 03013KT 9999 VCSH SCT016 BKN022 09/06 Q1026
2026-04-28 11:20:00,METAR EGTK 281120Z 04014KT 9999 BKN010 09/07 Q1026
2026-04-28 10:50:00,METAR EGTK 281050Z 03017KT 8000 OVC011 09/07 Q1026
2026-04-28 10:20:00,METAR EGTK 281020Z 03015KT 9999 VCSH BKN011 09/07 Q1026
2026-04-28 09:50:00,METAR EGTK 280950Z 03015KT 9999 VCSH BKN011 09/07 Q1026
2026-04-28 09:20:00,METAR EGTK 280920Z 03017KT 9999 VCSH BKN009 09/07 Q1026
2026-04-28 08:50:00,METAR EGTK 280850Z 03016KT 9999 BKN011 09/07 Q1026
2026-04-28 08:20:00,METAR EGTK 280820Z 04013KT 9999 BKN012 09/07 Q1025
2026-04-28 07:50:00,METAR EGTK 280750Z 03013KT 9999 VCSH BKN014 09/07 Q1025
2026-04-28 07:20:00,METAR EGTK 280720Z 02013KT 9999 SCT014 BKN020 09/07 Q1025
2026-04-28 06:50:00,METAR EGTK 280650Z 02014KT 9999 VCSH SCT013 BKN019 09/07 Q1025
2026-04-28 06:20:00,METAR EGTK 280620Z 02014KT 9999 VCSH SCT014 SCT032 09/06 Q1025
2026-04-28 05:50:00,METAR EGTK 280550Z 04014KT 8000 -RA BKN012 BKN017 09/07 Q1025
2026-04-28 05:20:00,METAR EGTK 280520Z 03011KT 5000 -RADZ BKN007 OVC011 09/08 Q1024
2026-04-27 21:20:00,METAR EGTK 272120Z 02007KT 9999 FEW035 11/08 Q1024
2026-04-27 20:50:00,METAR EGTK 272050Z 02009KT 9999 VCSH FEW045CB 12/08 Q1024
2026-04-27 20:20:00,METAR EGTK 272020Z 02010KT 9999 VCSH FEW045CB 12/09 Q1024
2026-04-27 19:50:00,METAR EGTK 271950Z 03013KT 9999 VCSH FEW045CB 12/09 Q1024
2026-04-27 19:20:00,METAR EGTK 271920Z 02022G33KT 9999 VCSH FEW045CB 14/08 Q1023
2026-04-27 18:50:00,METAR EGTK 271850Z 35008KT 9999 FEW045CB 17/07 Q1022
2026-04-27 18:20:00,METAR EGTK 271820Z 02009KT CAVOK 18/07 Q1022
2026-04-27 17:50:00,METAR EGTK 271750Z 01009KT CAVOK 18/08 Q1022
2026-04-27 17:20:00,METAR EGTK 271720Z 34011KT CAVOK 18/07 Q1022
2026-04-27 16:50:00,METAR EGTK 271650Z 33007KT 290V350 CAVOK 19/07 Q1022
2026-04-27 16:20:00,METAR EGTK 271620Z 33009KT CAVOK 18/07 Q1022
2026-04-27 15:50:00,METAR EGTK 271550Z 33008KT CAVOK 19/05 Q1022
2026-04-27 15:20:00,METAR EGTK 271520Z 34009KT CAVOK 19/05 Q1022
2026-04-27 14:50:00,METAR EGTK 271450Z 36007KT 330V030 CAVOK 20/05 Q1022
2026-04-27 14:20:00,METAR EGTK 271420Z 33007KT 290V010 CAVOK 20/06 Q1023
2026-04-27 13:50:00,METAR EGTK 271350Z 33009KT CAVOK 19/07 Q1023
2026-04-27 13:20:00,METAR EGTK 271320Z 31006KT 260V360 9999 FEW047 20/07 Q1023
2026-04-27 12:50:00,METAR EGTK 271250Z 35007KT 310V030 9999 FEW047 20/05 Q1023
2026-04-27 12:20:00,METAR EGTK 271220Z 35008KT 320V020 9999 FEW040 20/06 Q1024
2026-04-27 11:50:00,METAR EGTK 271150Z 32006KT 280V070 9999 FEW040 20/05 Q1024
2026-04-27 11:20:00,METAR EGTK 271120Z 27006KT 210V360 CAVOK 19/05 Q1024
2026-04-27 10:50:00,METAR EGTK 271050Z VRB02KT CAVOK 19/06 Q1024
2026-04-27 10:20:00,METAR EGTK 271020Z VRB01KT CAVOK 19/06 Q1024
2026-04-27 09:50:00,METAR EGTK 270950Z 18003KT 140V220 CAVOK 18/05 Q1024
2026-04-27 09:20:00,METAR EGTK 270920Z VRB02KT CAVOK 17/05 Q1024
2026-04-27 08:50:00,METAR EGTK 270850Z VRB02KT CAVOK 16/06 Q1024
2026-04-27 08:20:00,METAR EGTK 270820Z VRB02KT CAVOK 14/07 Q1025
2026-04-27 07:50:00,METAR EGTK 270750Z VRB02KT CAVOK 13/07 Q1025
2026-04-27 07:20:00,METAR EGTK 270720Z 11001KT CAVOK 11/06 Q1025
2026-04-27 06:50:00,METAR EGTK 270650Z 31001KT CAVOK 09/06 Q1025
2026-04-27 06:20:00,METAR EGTK 270620Z 31001KT CAVOK 08/05 Q1025
2026-04-27 05:50:00,METAR EGTK 270550Z 31001KT CAVOK 05/04 Q1024
2026-04-27 05:20:00,METAR EGTK 270520Z 33002KT CAVOK 04/04 Q1024
2026-04-26 21:20:00,METAR EGTK 262120Z 12003KT CAVOK 12/05 Q1024
2026-04-26 20:50:00,METAR EGTK 262050Z 11003KT 060V130 CAVOK 12/06 Q1024
2026-04-26 20:20:00,METAR EGTK 262020Z 35004KT CAVOK 13/06 Q1024
2026-04-26 19:50:00,METAR EGTK 261950Z 35004KT CAVOK 13/04 Q1023
2026-04-26 19:20:00,METAR EGTK 261920Z 02003KT CAVOK 15/03 Q1023
2026-04-26 18:50:00,METAR EGTK 261850Z 01003KT CAVOK 15/03 Q1023
2026-04-26 18:20:00,METAR EGTK 261820Z 20001KT CAVOK 17/00 Q1023
2026-04-26 17:50:00,METAR EGTK 261750Z 20001KT CAVOK 17/02 Q1023
2026-04-26 17:20:00,METAR EGTK 261720Z 12004KT 070V150 CAVOK 18/01 Q1023
2026-04-26 16:50:00,METAR EGTK 261650Z 08006KT CAVOK 18/00 Q1023
2026-04-26 16:20:00,METAR EGTK 261620Z 14004KT 090V180 CAVOK 19/01 Q1023
2026-04-26 15:50:00,METAR EGTK 261550Z 17005KT 120V220 CAVOK 18/01 Q1023
2026-04-26 15:20:00,METAR EGTK 261520Z 16003KT 100V220 CAVOK 19/01 Q1023
2026-04-26 14:50:00,METAR EGTK 261450Z 18006KT 120V210 CAVOK 18/02 Q1024
2026-04-26 14:20:00,METAR EGTK 261420Z 08006KT 030V120 CAVOK 18/03 Q1024
2026-04-26 13:50:00,METAR EGTK 261350Z 11007KT 060V150 CAVOK 18/02 Q1024
2026-04-26 13:20:00,METAR EGTK 261320Z COR 16005KT 090V210 9999 R19/0600D NSC 18/03 Q1024
2026-04-26 12:50:00,METAR EGTK 261250Z 16005KT 110V210 CAVOK 18/03 Q1024
2026-04-26 12:20:00,METAR EGTK 261220Z 11005KT 070V220 CAVOK 17/03 Q1024
2026-04-26 11:50:00,METAR EGTK 261150Z 13003KT 030V190 CAVOK 17/04 Q1025
2026-04-26 11:20:00,METAR EGTK 261120Z 08005KT 020V110 CAVOK 16/03 Q1025
2026-04-26 10:50:00,METAR EGTK 261050Z 10004KT 030V180 CAVOK 15/04 Q1025
2026-04-26 10:20:00,METAR EGTK 261020Z 11004KT 040V150 CAVOK 14/06 Q1025
2026-04-26 09:50:00,METAR EGTK 260950Z 07007KT 030V120 CAVOK 12/07 Q1025
2026-04-26 09:20:00,METAR EGTK 260920Z 08006KT 030V110 9000 NSC 11/07 Q1025
2026-04-26 08:50:00,METAR EGTK 260850Z COR 07005KT 030V100 8000 NSC 10/07 Q1025
2026-04-26 08:20:00,METAR EGTK 260820Z 05006KT 010V080 6000 BKN005 08/07 Q1025
2026-04-26 07:50:00,METAR EGTK 260750Z 07008KT 040V100 6000 BKN003 07/06 Q1025
2026-04-26 07:20:00,METAR EGTK 260720Z 06006KT 5000 BR BKN001 06/06 Q1025
2026-04-26 06:50:00,METAR EGTK 260650Z 06007KT 6000 BKN001 06/06 Q1025
2026-04-26 06:20:00,METAR EGTK 260620Z 05006KT 6000 BKN002 06/05 Q1025
2026-04-26 05:50:00,METAR EGTK 260550Z 03004KT 6000 BKN002 04/04 Q1024
2026-04-26 05:20:00,METAR EGTK 260520Z 02004KT 7000 NSC 03/03 Q1024
2026-04-26 04:50:00,METAR EGTK 260450Z 02004KT 8000 NSC 03/03 Q1024
2026-04-25 21:20:00,METAR EGTK 252120Z 02008KT CAVOK 06/01 Q1022
2026-04-25 20:50:00,METAR EGTK 252050Z 33003KT CAVOK 10/M00 Q1021
2026-04-25 20:20:00,METAR EGTK 252020Z 15001KT CAVOK 14/M02 Q1021
2026-04-25 19:50:00,METAR EGTK 251950Z 15001KT CAVOK 13/M01 Q1021
2026-04-25 19:20:00,METAR EGTK 251920Z 07004KT CAVOK 15/M01 Q1021
2026-04-25 18:50:00,METAR EGTK 251850Z 08004KT CAVOK 16/00 Q1020
2026-04-25 18:20:00,METAR EGTK 251820Z 07003KT CAVOK 18/M01 Q1020
2026-04-25 17:50:00,METAR EGTK 251750Z 07003KT 040V150 CAVOK 19/M02 Q1020
2026-04-25 17:20:00,METAR EGTK 251720Z 35003KT 330V030 CAVOK 20/M06 Q1020
2026-04-25 16:50:00,METAR EGTK 251650Z VRB01KT CAVOK 20/M07 Q1020
2026-04-25 16:20:00,METAR EGTK 251620Z VRB02KT CAVOK 20/M06 Q1020
2026-04-25 15:50:00,METAR EGTK 251550Z 19004KT 150V230 CAVOK 20/M06 Q1020
2026-04-25 15:20:00,METAR EGTK 251520Z VRB02KT CAVOK 20/M06 Q1020
2026-04-25 14:50:00,METAR EGTK 251450Z 27005KT 230V300 CAVOK 20/M05 Q1020
2026-04-25 14:20:00,METAR EGTK 251420Z VRB02KT CAVOK 20/M05 Q1020
2026-04-25 13:50:00,METAR EGTK 251350Z 30003KT 210V020 CAVOK 20/M03 Q1021
2026-04-25 13:20:00,METAR EGTK 251320Z VRB03KT CAVOK 19/M05 Q1021
2026-04-25 12:50:00,METAR EGTK 251250Z 20005KT 150V270 CAVOK 19/M04 Q1021
2026-04-25 12:20:00,METAR EGTK 251220Z 23004KT 130V280 CAVOK 18/M04 Q1021
2026-04-25 11:50:00,METAR EGTK 251150Z VRB03KT CAVOK 18/M06 Q1021
2026-04-25 11:20:00,METAR EGTK 251120Z VRB03KT CAVOK 17/M06 Q1021
2026-04-25 10:50:00,METAR EGTK 251050Z 22004KT 150V290 CAVOK 16/M04 Q1021
2026-04-25 10:20:00,METAR EGTK 251020Z VRB03KT CAVOK 16/M04 Q1022
2026-04-25 09:50:00,METAR EGTK 250950Z 17004KT 120V210 CAVOK 15/M04 Q1022
2026-04-25 09:20:00,METAR EGTK 250920Z VRB02KT CAVOK 14/M04 Q1022
2026-04-25 08:50:00,METAR EGTK 250850Z VRB01KT CAVOK 12/M01 Q1021
2026-04-25 08:20:00,METAR EGTK 250820Z 18001KT CAVOK 10/03 Q1021
2026-04-25 07:50:00,METAR EGTK 250750Z 35001KT CAVOK 08/02 Q1022
2026-04-25 07:20:00,METAR EGTK 250720Z 01002KT CAVOK 07/02 Q1022
2026-04-25 06:50:00,METAR EGTK 250650Z 25002KT CAVOK 03/01 Q1022
2026-04-25 06:20:00,METAR EGTK 250620Z 32002KT CAVOK 01/M00 Q1022
2026-04-25 05:50:00,METAR EGTK 250550Z 29002KT CAVOK 01/M01 Q1021
2026-04-25 05:20:00,METAR EGTK 250520Z 33004KT CAVOK M01/M02 Q1021
2026-04-25 04:50:00,METAR EGTK 250450Z 32003KT 280V340 CAVOK M02/M03 Q1021
2026-04-24 21:20:00,METAR EGTK 242120Z 06003KT CAVOK 09/02 Q1023
2026-04-24 20:50:00,METAR EGTK 242050Z 10003KT 050V140 CAVOK 12/01 Q1023
2026-04-24 20:20:00,METAR EGTK 242020Z VRB02KT CAVOK 11/02 Q1023
2026-04-24 19:50:00,METAR EGTK 241950Z 03004KT CAVOK 12/02 Q1022
2026-04-24 19:20:00,METAR EGTK 241920Z 03005KT CAVOK 14/03 Q1022
2026-04-24 18:50:00,METAR EGTK 241850Z 05004KT CAVOK 15/03 Q1022
2026-04-24 18:20:00,METAR EGTK 241820Z 05006KT CAVOK 16/03 Q1022
2026-04-24 17:50:00,METAR EGTK 241750Z 06008KT CAVOK 17/03 Q1022
2026-04-24 17:20:00,METAR EGTK 241720Z 05008KT CAVOK 18/03 Q1022
2026-04-24 16:50:00,METAR EGTK 241650Z 06008KT 030V090 CAVOK 18/03 Q1022
2026-04-24 16:20:00,METAR EGTK 241620Z 05008KT CAVOK 18/02 Q1022
2026-04-24 15:50:00,METAR EGTK 241550Z 06009KT CAVOK 19/03 Q1023
2026-04-24 15:20:00,METAR EGTK 241520Z 06010KT CAVOK 19/02 Q1023
2026-04-24 14:50:00,METAR EGTK 241450Z 09009KT 050V110 CAVOK 18/02 Q1023
2026-04-24 14:20:00,METAR EGTK 241420Z 07009KT CAVOK 18/02 Q1023
2026-04-24 13:50:00,METAR EGTK 241350Z 06010KT CAVOK 18/01 Q1024
2026-04-24 13:20:00,METAR EGTK 241320Z 05008KT 020V080 CAVOK 18/02 Q1024
2026-04-24 12:50:00,METAR EGTK 241250Z 05010KT 020V080 CAVOK 17/02 Q1024
2026-04-24 12:20:00,METAR EGTK 241220Z 09009KT 050V110 CAVOK 16/02 Q1025
2026-04-24 11:50:00,METAR EGTK 241150Z 06010KT 040V100 CAVOK 16/01 Q1025
2026-04-24 11:20:00,METAR EGTK 241120Z 09011KT CAVOK 15/01 Q1026
2026-04-24 10:50:00,METAR EGTK 241050Z 06011KT CAVOK 14/00 Q1026
2026-04-24 10:20:00,METAR EGTK 241020Z 07010KT CAVOK 13/01 Q1026
2026-04-24 09:50:00,METAR EGTK 240950Z 07009KT 040V100 CAVOK 12/02 Q1026
2026-04-24 09:20:00,METAR EGTK 240920Z 07007KT 030V100 CAVOK 10/03 Q1027
2026-04-24 08:50:00,METAR EGTK 240850Z 06005KT 020V110 CAVOK 08/02 Q1027
2026-04-24 08:20:00,METAR EGTK 240820Z 08006KT CAVOK 07/02 Q1027
2026-04-24 07:50:00,METAR EGTK 240750Z 04007KT CAVOK 05/03 Q1027
2026-04-24 07:20:00,METAR EGTK 240720Z 04007KT 9999 FEW003 04/03 Q1027
2026-04-24 06:50:00,METAR EGTK 240650Z 03007KT 7000 BKN002 02/02 Q1027
2026-04-24 06:20:00,METAR EGTK 240620Z 03006KT 3000 BR OVC002 02/02 Q1027
2026-04-24 05:50:00,METAR EGTK 240550Z 04005KT 0750 R19/1200U FG OVC003 01/01 Q1027
2026-04-24 05:20:00,METAR EGTK 240520Z 03006KT 0400 R01/0600N FG BKN002 00/00 Q1027
2026-04-24 04:50:00,METAR EGTK 240450Z 03005KT 0600 R01/P1500D FG BKN001 M00/M00 Q1027
2026-04-23 21:20:00,METAR EGTK 232120Z 04007KT CAVOK 09/05 Q1028
2026-04-23 20:50:00,METAR EGTK 232050Z 03010KT CAVOK 09/05 Q1028
2026-04-23 20:20:00,METAR EGTK 232020Z 03009KT CAVOK 10/06 Q1028
2026-04-23 19:50:00,METAR EGTK 231950Z 04010KT CAVOK 12/06 Q1027
2026-04-23 19:20:00,METAR EGTK 231920Z 04011KT CAVOK 13/06 Q1027
2026-04-23 18:50:00,METAR EGTK 231850Z 04011KT CAVOK 15/06 Q1027
2026-04-23 18:20:00,METAR EGTK 231820Z 06011KT CAVOK 16/04 Q1027
2026-04-23 17:50:00,METAR EGTK 231750Z 05010KT CAVOK 17/04 Q1027
2026-04-23 17:20:00,METAR EGTK 231720Z 06011KT CAVOK 17/04 Q1027
2026-04-23 16:50:00,METAR EGTK 231650Z 06014KT CAVOK 18/04 Q1027
2026-04-23 16:20:00,METAR EGTK 231620Z 06013KT CAVOK 18/05 Q1027
2026-04-23 15:50:00,METAR EGTK 231550Z 06012KT CAVOK 18/06 Q1027
2026-04-23 15:20:00,METAR EGTK 231520Z 06013KT CAVOK 18/06 Q1028
2026-04-23 14:50:00,METAR EGTK 231450Z 06015KT CAVOK 18/06 Q1028
2026-04-23 14:20:00,METAR EGTK 231420Z 06014KT CAVOK 18/06 Q1029
2026-04-23 13:50:00,METAR EGTK 231350Z 06013KT CAVOK 18/06 Q1029
2026-04-23 13:20:00,METAR EGTK 231320Z 06015KT CAVOK 17/06 Q1029
2026-04-23 12:50:00,METAR EGTK 231250Z 07013KT CAVOK 17/06 Q1030
2026-04-23 12:20:00,METAR EGTK 231220Z 08013KT CAVOK 16/06 Q1030
2026-04-23 11:50:00,METAR EGTK 231150Z 07012KT 030V100 CAVOK 15/06 Q1030
2026-04-23 11:20:00,METAR EGTK 231120Z 06012KT 020V080 CAVOK 14/06 Q1030
2026-04-23 10:50:00,METAR EGTK 231050Z 06011KT 020V080 CAVOK 13/06 Q1030
2026-04-23 10:20:00,METAR EGTK 231020Z 05012KT CAVOK 12/06 Q1030
2026-04-23 09:50:00,METAR EGTK 230950Z 03012KT CAVOK 11/06 Q1031
2026-04-23 09:20:00,METAR EGTK 230920Z 03012KT CAVOK 10/05 Q1031
2026-04-23 08:50:00,METAR EGTK 230850Z 05012KT 9999 FEW012 09/06 Q1031
2026-04-23 08:20:00,METAR EGTK 230820Z 05011KT 9000 SCT010 09/06 Q1031
2026-04-23 07:50:00,METAR EGTK 230750Z 04012KT 8000 BKN008 07/05 Q1031
2026-04-23 07:20:00,METAR EGTK 230720Z 04012KT 6000 BKN005 06/05 Q1030
2026-04-23 06:50:00,METAR EGTK 230650Z 04010KT 6000 BKN005 06/05 Q1030
2026-04-23 06:20:00,METAR EGTK 230620Z 04010KT 4000 BR BKN005 05/05 Q1030
2026-04-23 05:50:00,METAR EGTK 230550Z 05012KT 3000 BR BKN005 05/05 Q1030
2026-04-23 05:20:00,METAR EGTK 230520Z 04008KT 2500 BR OVC003 05/04 Q1030
2026-04-22 21:20:00,METAR EGTK 222120Z 06010KT CAVOK 09/01 Q1027
2026-04-22 20:50:00,METAR EGTK 222050Z 05010KT CAVOK 09/01 Q1027
2026-04-22 20:20:00,METAR EGTK 222020Z 06009KT CAVOK 09/01 Q1027
2026-04-22 19:50:00,METAR EGTK 221950Z 07009KT CAVOK 08/00 Q1027
2026-04-22 19:20:00,METAR EGTK 221920Z 07008KT CAVOK 09/01 Q1026
2026-04-22 18:50:00,METAR EGTK 221850Z 08007KT CAVOK 11/00 Q1026
2026-04-22 18:20:00,METAR EGTK 221820Z 09008KT CAVOK 13/M01 Q1026
2026-04-22 17:50:00,METAR EGTK 221750Z 09012KT CAVOK 14/M01 Q1025
2026-04-22 17:20:00,METAR EGTK 221720Z 09010KT CAVOK 15/M00 Q1025
2026-04-22 16:50:00,METAR EGTK 221650Z 08014KT CAVOK 15/M00 Q1025
2026-04-22 16:20:00,METAR EGTK 221620Z 08016KT CAVOK 16/M01 Q1025
2026-04-22 15:50:00,METAR EGTK 221550Z 09015KT CAVOK 16/00 Q1025
2026-04-22 15:20:00,METAR EGTK 221520Z 09017KT CAVOK 16/00 Q1025
2026-04-22 14:50:00,METAR EGTK 221450Z 07017KT CAVOK 17/01 Q1025
2026-04-22 14:20:00,METAR EGTK 221420Z 08016KT CAVOK 17/01 Q1025
2026-04-22 13:50:00,METAR EGTK 221350Z 08016KT CAVOK 17/02 Q1025
2026-04-22 13:20:00,METAR EGTK 221320Z 07019KT CAVOK 16/02 Q1025
2026-04-22 12:50:00,METAR EGTK 221250Z 07017KT 040V100 CAVOK 16/03 Q1025
2026-04-22 12:20:00,METAR EGTK 221220Z 08018KT CAVOK 16/03 Q1025
2026-04-22 11:50:00,METAR EGTK 221150Z 08020KT CAVOK 15/03 Q1025
2026-04-22 11:20:00,METAR EGTK 221120Z 07018KT CAVOK 15/03 Q1025
2026-04-22 10:50:00,METAR EGTK 221050Z 06018KT CAVOK 14/02 Q1025
2026-04-22 10:20:00,METAR EGTK 221020Z 07017KT 9999 FEW021 14/04 Q1025
2026-04-22 09:50:00,METAR EGTK 220950Z 07017KT 9999 FEW021 13/04 Q1025
2026-04-22 09:20:00,METAR EGTK 220920Z 06015KT CAVOK 13/04 Q1025
2026-04-22 08:50:00,METAR EGTK 220850Z 06013KT CAVOK 11/05 Q1026
2026-04-22 08:20:00,METAR EGTK 220820Z 06013KT 9999 FEW008 10/05 Q1026
2026-04-22 07:50:00,METAR EGTK 220750Z 06013KT 9999 FEW008 09/05 Q1026
2026-04-22 07:20:00,METAR EGTK 220720Z 05012KT 9999 FEW008 08/05 Q1026
2026-04-22 06:50:00,METAR EGTK 220650Z 07011KT 9000 BKN007 06/05 Q1026
2026-04-22 06:20:00,METAR EGTK 220620Z 06012KT 040V100 9000 BKN006 06/05 Q1026
2026-04-22 05:50:00,METAR EGTK 220550Z 06012KT 8000 OVC006 06/05 Q1026
2026-04-22 05:20:00,METAR EGTK 220520Z 06010KT 8000 OVC006 06/05 Q1026
2026-04-21 21:20:00,METAR EGTK 212120Z 05009KT CAVOK 06/M00 Q1026
2026-04-21 20:50:00,METAR EGTK 212050Z 06011KT CAVOK 07/M01 Q1025
2026-04-21 20:20:00,METAR EGTK 212020Z 06011KT CAVOK 08/M01 Q1025
2026-04-21 19:50:00,METAR EGTK 211950Z 06012KT CAVOK 09/M01 Q1025
2026-04-21 19:20:00,METAR EGTK 211920Z 06014KT CAVOK 10/M01 Q1025
2026-04-21 18:50:00,METAR EGTK 211850Z 06015KT CAVOK 10/M02 Q1024
2026-04-21 18:20:00,METAR EGTK 211820Z 07014KT CAVOK 11/M01 Q1024
2026-04-21 17:50:00,METAR EGTK 211750Z 07015KT CAVOK 12/01 Q1024
2026-04-21 17:20:00,METAR EGTK 211720Z 06015KT 9999 FEW048 13/02 Q1024
2026-04-21 16:50:00,METAR EGTK 211650Z 06018KT 020V080 9999 SCT048 13/03 Q1024
2026-04-21 16:20:00,METAR EGTK 211620Z 05017G27KT 9999 SCT046 13/04 Q1024
2026-04-21 15:50:00,METAR EGTK 211550Z 07015KT 9999 SCT045 14/04 Q1024
2026-04-21 15:20:00,METAR EGTK 211520Z 07015KT 9999 SCT044 13/04 Q1024
2026-04-21 14:50:00,METAR EGTK 211450Z 06015KT 9999 SCT044 13/03 Q1024
2026-04-21 14:20:00,METAR EGTK 211420Z 07016KT 030V090 9999 SCT047 13/03 Q1024
2026-04-21 13:50:00,METAR EGTK 211350Z 07016KT 040V100 9999 SCT047 13/03 Q1025
2026-04-21 13:20:00,METAR EGTK 211320Z 06015KT 9999 SCT042 13/04 Q1025
2026-04-21 12:50:00,METAR EGTK 211250Z 07015KT 9999 SCT040 13/03 Q1025
2026-04-21 12:20:00,METAR EGTK 211220Z 05016KT 020V080 9999 SCT040 13/03 Q1025
2026-04-21 11:50:00,METAR EGTK 211150Z 05015KT 9999 SCT038 12/03 Q1025
2026-04-21 11:20:00,METAR EGTK 211120Z 03016KT 9999 SCT033 12/02 Q1025
2026-04-21 10:50:00,METAR EGTK 211050Z 06014KT 020V080 9999 SCT033 11/03 Q1025
2026-04-21 10:20:00,METAR EGTK 211020Z 04015KT 010V070 9999 SCT033 10/02 Q1025
2026-04-21 09:50:00,METAR EGTK 210950Z 05014KT 9999 SCT034 11/02 Q1025
2026-04-21 09:20:00,METAR EGTK 210920Z 04015KT 9999 SCT032 09/02 Q1026
2026-04-21 08:50:00,METAR EGTK 210850Z 05014KT 9999 SCT027 09/03 Q1026
2026-04-21 08:20:00,METAR EGTK 210820Z 05013KT 9999 SCT020 SCT026 09/04 Q1026
2026-04-21 07:50:00,METAR EGTK 210750Z 05012KT 9999 BKN014 08/05 Q1026
2026-04-21 07:20:00,METAR EGTK 210720Z 04012KT 9999 BKN011 07/05 Q1026
2026-04-21 06:50:00,METAR EGTK 210650Z 03011KT 9999 BKN009 BKN046 06/05 Q1026
2026-04-21 06:20:00,METAR EGTK 210620Z 02011KT 9999 FEW010 BKN025 06/05 Q1025
2026-04-21 05:50:00,METAR EGTK 210550Z 01009KT 9999 FEW008 BKN046 05/04 Q1025
2026-04-21 05:20:00,METAR EGTK 210520Z 02008KT 9999 FEW008 BKN027 BKN044 05/04 Q1025
2026-04-21 04:50:00,METAR EGTK 210450Z 36006KT 9999 BKN008 BKN032 04/04 Q1025
2026-04-20 21:20:00,METAR EGTK 202120Z 03009KT CAVOK 07/02 Q1025
2026-04-20 20:50:00,METAR EGTK 202050Z 04008KT CAVOK 07/02 Q1024
2026-04-20 20:20:00,METAR EGTK 202020Z 04009KT 9999 SCT047 08/02 Q1024
2026-04-20 19:50:00,METAR EGTK 201950Z 05011KT 010V070 9999 SCT047 09/02 Q1024
2026-04-20 19:20:00,METAR EGTK 201920Z 05012KT 9999 SCT047 09/02 Q1023
2026-04-20 18:50:00,METAR EGTK 201850Z 04010KT 9999 SCT047 11/02 Q1023
2026-04-20 18:20:00,METAR EGTK 201820Z 06007KT 9999 SCT047 11/02 Q1023
2026-04-20 17:50:00,METAR EGTK 201750Z 06009KT 9999 SCT047 11/02 Q1023
2026-04-20 17:20:00,METAR EGTK 201720Z COR 05008KT 9999 FEW047 12/02 Q1023
2026-04-20 16:50:00,METAR EGTK 201650Z 07008KT 9999 FEW047 12/02 Q1023
2026-04-20 16:20:00,METAR EGTK 201620Z 06011KT 9999 SCT047 12/02 Q1023
2026-04-20 15:50:00,METAR EGTK 201550Z 07010G20KT 050V120 9999 SCT047 13/02 Q1023
2026-04-20 15:20:00,METAR EGTK 201520Z 06010KT 9999 SCT049 13/03 Q1023
2026-04-20 14:50:00,METAR EGTK 201450Z 05008KT 020V100 9999 SCT049 13/02 Q1023
2026-04-20 14:20:00,METAR EGTK 201420Z 07011KT 9999 FEW049 13/02 Q1023
2026-04-20 13:50:00,METAR EGTK 201350Z 10010KT CAVOK 13/02 Q1023
2026-04-20 13:20:00,METAR EGTK 201320Z 07012KT 9999 FEW048 14/01 Q1023
2026-04-20 12:50:00,METAR EGTK 201250Z 08011KT 050V110 9999 FEW049 14/02 Q1023
2026-04-20 12:20:00,METAR EGTK 201220Z 06009KT 030V110 CAVOK 13/02 Q1024
2026-04-20 11:50:00,METAR EGTK 201150Z 08012KT 9999 BKN047 13/02 Q1024
2026-04-20 11:20:00,METAR EGTK 201120Z 10009KT 070V130 9999 SCT045 13/02 Q1024
2026-04-20 10:50:00,METAR EGTK 201050Z 04008KT 340V080 9999 FEW046 13/02 Q1024
2026-04-20 10:20:00,METAR EGTK 201020Z 08010KT 050V110 9999 FEW034 12/01 Q1024
2026-04-20 09:50:00,METAR EGTK 200950Z 07009KT CAVOK 11/02 Q1024
2026-04-20 09:20:00,METAR EGTK 200920Z 07009KT CAVOK 11/02 Q1024
2026-04-20 08:50:00,METAR EGTK 200850Z 04007KT 010V090 CAVOK 10/03 Q1024
2026-04-20 08:20:00,METAR EGTK 200820Z 04006KT 010V070 CAVOK 10/05 Q1024
2026-04-20 07:50:00,METAR EGTK 200750Z 05003KT 010V070 CAVOK 09/05 Q1024
2026-04-20 07:20:00,METAR EGTK 200720Z 02004KT CAVOK 06/04 Q1025
2026-04-20 06:50:00,METAR EGTK 200650Z 36003KT CAVOK 05/03 Q1025
2026-04-20 06:20:00,METAR EGTK 200620Z 34003KT CAVOK 03/01 Q1024
2026-04-20 05:50:00,METAR EGTK 200550Z 33004KT CAVOK 01/00 Q1024
2026-04-20 05:20:00,METAR EGTK 200520Z 33004KT CAVOK M00/M01 Q1024
2026-04-20 04:50:00,METAR EGTK 200450Z 34004KT CAVOK M00/M01 Q1024
2026-04-19 21:20:00,METAR EGTK 192120Z 32006KT CAVOK 06/02 Q1025
2026-04-19 20:50:00,METAR EGTK 192050Z 33007KT CAVOK 06/02 Q1025
2026-04-19 20:20:00,METAR EGTK 192020Z 33005KT CAVOK 08/01 Q1025
2026-04-19 19:50:00,METAR EGTK 191950Z 34004KT CAVOK 08/02 Q1025
2026-04-19 19:20:00,METAR EGTK 191920Z 33005KT CAVOK 08/02 Q1025
2026-04-19 18:50:00,METAR EGTK 191850Z 33006KT CAVOK 10/02 Q1024
2026-04-19 18:20:00,METAR EGTK 191820Z 33006KT CAVOK 11/01 Q1024
2026-04-19 17:50:00,METAR EGTK 191750Z 34007KT 280V010 CAVOK 13/01 Q1024
2026-04-19 17:20:00,METAR EGTK 191720Z 33007KT CAVOK 13/00 Q1024
2026-04-19 16:50:00,METAR EGTK 191650Z 34009KT CAVOK 13/01 Q1025
2026-04-19 16:20:00,METAR EGTK 191620Z 35006KT 320V020 CAVOK 13/01 Q1025
2026-04-19 15:50:00,METAR EGTK 191550Z 33008KT 300V360 CAVOK 13/02 Q1025
2026-04-19 15:20:00,METAR EGTK 191520Z 35007KT 9999 FEW049 12/02 Q1025
2026-04-19 14:50:00,METAR EGTK 191450Z 34007KT CAVOK 12/02 Q1025
2026-04-19 14:20:00,METAR EGTK 191420Z 32007KT 300V360 CAVOK 13/02 Q1025
2026-04-19 13:50:00,METAR EGTK 191350Z 30008KT 9999 SCT048 13/01 Q1025
2026-04-19 13:20:00,METAR EGTK 191320Z 32008KT 280V360 9999 SCT048 13/02 Q1026
2026-04-19 12:50:00,METAR EGTK 191250Z 36010KT 9999 SCT048 13/02 Q1026
2026-04-19 12:20:00,METAR EGTK 191220Z 31009KT 9999 SCT049 12/01 Q1026
2026-04-19 11:50:00,METAR EGTK 191150Z 35009KT 290V010 9999 SCT048 13/02 Q1026
2026-04-19 11:20:00,METAR EGTK 191120Z 34009KT 310V030 9999 SCT047 12/02 Q1026
2026-04-19 10:50:00,METAR EGTK 191050Z 36011KT 320V020 9999 SCT041 11/02 Q1026
2026-04-19 10:20:00,METAR EGTK 191020Z 35010KT 310V010 9999 SCT040 12/02 Q1026
2026-04-19 09:50:00,METAR EGTK 190950Z 34008KT 9999 FEW024 11/03 Q1026
2026-04-19 09:20:00,METAR EGTK 190920Z 35010KT 9999 FEW028 11/03 Q1026
2026-04-19 08:50:00,METAR EGTK 190850Z 34009KT CAVOK 10/04 Q1026
2026-04-19 08:20:00,METAR EGTK 190820Z 34010KT CAVOK 09/04 Q1026
2026-04-19 07:50:00,METAR EGTK 190750Z 35008KT 310V010 CAVOK 08/05 Q1026
2026-04-19 07:20:00,METAR EGTK 190720Z 35006KT 310V020 CAVOK 08/05 Q1026
2026-04-19 06:50:00,METAR EGTK 190650Z 34002KT CAVOK 07/04 Q1026
2026-04-19 06:20:00,METAR EGTK 190620Z VRB01KT CAVOK 05/03 Q1026
2026-04-19 05:50:00,METAR EGTK 190550Z 30004KT CAVOK 04/03 Q1026
2026-04-19 05:20:00,METAR EGTK 190520Z 31003KT CAVOK 04/03 Q1025
2026-04-19 04:50:00,METAR EGTK 190450Z 31004KT CAVOK 04/02 Q1025
2026-04-18 21:20:00,METAR EGTK 182120Z 30005KT CAVOK 07/05 Q1024
2026-04-18 20:50:00,METAR EGTK 182050Z 31005KT CAVOK 08/05 Q1024
2026-04-18 20:20:00,METAR EGTK 182020Z 28004KT CAVOK 09/06 Q1024
2026-04-18 19:50:00,METAR EGTK 181950Z 30004KT CAVOK 09/06 Q1024
2026-04-18 19:20:00,METAR EGTK 181920Z 31007KT 9999 FEW042 10/06 Q1023
2026-04-18 18:50:00,METAR EGTK 181850Z 32009KT 9999 VCSH SCT047 10/07 Q1023
2026-04-18 18:20:00,METAR EGTK 181820Z 33010KT 9999 VCSH FEW045 11/06 Q1023
2026-04-18 17:50:00,METAR EGTK 181750Z 33013KT 9999 VCSH FEW042 11/06 Q1023
2026-04-18 17:20:00,METAR EGTK 181720Z 34014KT 9999 VCSH FEW038 13/06 Q1022
2026-04-18 16:50:00,METAR EGTK 181650Z 28010KT CAVOK 14/05 Q1022
2026-04-18 16:20:00,METAR EGTK 181620Z 30009KT 270V330 CAVOK 14/04 Q1022
2026-04-18 15:50:00,METAR EGTK 181550Z 30010KT CAVOK 15/04 Q1022
2026-04-18 15:20:00,METAR EGTK 181520Z 29011KT 260V330 CAVOK 15/03 Q1022
2026-04-18 14:50:00,METAR EGTK 181450Z 27009KT CAVOK 16/03 Q1022
2026-04-18 14:20:00,METAR EGTK 181420Z 26010KT 230V300 9999 SCT049 16/03 Q1022
2026-04-18 13:50:00,METAR EGTK 181350Z 29012KT 9999 SCT046 14/04 Q1022
2026-04-18 13:20:00,METAR EGTK 181320Z 26011KT 230V290 9999 SCT046 16/04 Q1022
2026-04-18 12:50:00,METAR EGTK 181250Z 27012KT 9999 SCT044 16/04 Q1022
2026-04-18 12:20:00,METAR EGTK 181220Z 27010KT 240V300 9999 SCT039 14/04 Q1022
2026-04-18 11:50:00,METAR EGTK 181150Z 28011KT 250V310 9999 SCT036 15/05 Q1022
2026-04-18 11:20:00,METAR EGTK 181120Z 24008KT 220V280 9999 SCT035 14/05 Q1022
2026-04-18 10:50:00,METAR EGTK 181050Z 28009KT 240V300 9999 SCT035 13/05 Q1022
2026-04-18 10:20:00,METAR EGTK 181020Z 26010KT 230V290 9999 SCT032 13/05 Q1022
2026-04-18 09:50:00,METAR EGTK 180950Z 26009KT 230V300 9999 SCT027 BKN039 13/06 Q1022
2026-04-18 09:20:00,METAR EGTK 180920Z 25008KT 210V280 9999 BKN022 12/07 Q1022
2026-04-18 08:50:00,METAR EGTK 180850Z 25008KT 220V290 9999 SCT016 11/08 Q1022
2026-04-18 08:20:00,METAR EGTK 180820Z 24010KT 9999 FEW013 10/08 Q1021
2026-04-18 07:50:00,METAR EGTK 180750Z 24007KT 9999 FEW003 09/08 Q1021
2026-04-18 07:20:00,METAR EGTK 180720Z 23008KT 9999 FEW003 08/07 Q1021
2026-04-18 06:50:00,METAR EGTK 180650Z 22006KT 9999 FEW004 06/06 Q1021
2026-04-18 06:20:00,METAR EGTK 180620Z 22005KT 9999 FEW004 05/05 Q1021
2026-04-18 05:50:00,METAR EGTK 180550Z 22006KT 9000 SCT005 03/03 Q1021
2026-04-18 05:20:00,METAR EGTK 180520Z 23005KT 9000 MIFG SCT005 04/04 Q1020
2026-04-18 04:50:00,METAR EGTK 180450Z 23004KT 9999 MIFG NSC 04/04 Q1020
2026-04-17 21:20:00,METAR EGTK 172120Z 22006KT 9999 BKN029 10/08 Q1019
2026-04-17 20:50:00,METAR EGTK 172050Z 21005KT 9999 BKN026 10/08 Q1019
2026-04-17 20:20:00,METAR EGTK 172020Z 19005KT 9999 BKN024 10/08 Q1019
2026-04-17 19:50:00,METAR EGTK 171950Z 22007KT 9999 BKN023 10/08 Q1019
2026-04-17 19:20:00,METAR EGTK 171920Z 22008KT 9999 BKN023 10/09 Q1019
2026-04-17 18:50:00,METAR EGTK 171850Z 22008KT 9999 VCSH BKN023 11/09 Q1018
2026-04-17 18:20:00,METAR EGTK 171820Z 23009KT 9000 VCSH BKN017 BKN022 11/10 Q1018
2026-04-17 17:50:00,METAR EGTK 171750Z 24008KT 8000 -RA BKN017 BKN022 11/10 Q1018
2026-04-17 17:20:00,METAR EGTK 171720Z 26013KT 9999 -RA SCT014 SCT019 BKN027 12/10 Q1018
2026-04-17 16:50:00,METAR EGTK 171650Z 22018KT 9999 SCT028 OVC033 14/09 Q1017
2026-04-17 16:20:00,METAR EGTK 171620Z 21014KT 9999 BKN035 15/09 Q1017
2026-04-17 15:50:00,METAR EGTK 171550Z 21015KT 9999 BKN035 16/08 Q1017
2026-04-17 15:20:00,METAR EGTK 171520Z 21014KT 9999 BKN035 15/09 Q1017
2026-04-17 14:50:00,METAR EGTK 171450Z 19018KT 9999 BKN035 16/09 Q1017
2026-04-17 14:20:00,METAR EGTK 171420Z 20018KT 9999 SCT039 16/09 Q1017
2026-04-17 13:50:00,METAR EGTK 171350Z 19016KT 9999 BKN035 BKN041 16/09 Q1017
2026-04-17 13:20:00,METAR EGTK 171320Z 19014KT 9999 BKN036 16/09 Q1017
2026-04-17 12:50:00,METAR EGTK 171250Z 19018KT 9999 BKN035 BKN042 15/09 Q1017
2026-04-17 12:20:00,METAR EGTK 171220Z 19016KT 9999 SCT031 SCT040 16/09 Q1017
2026-04-17 11:50:00,METAR EGTK 171150Z 19018KT 9999 FEW030 BKN035 15/08 Q1017
2026-04-17 11:20:00,METAR EGTK 171120Z 18016KT 9999 FEW029 BKN037 16/09 Q1017
2026-04-17 10:50:00,METAR EGTK 171050Z 18016KT 9999 SCT022 BKN032 15/10 Q1018
2026-04-17 10:20:00,METAR EGTK 171020Z 19015KT 9999 SCT022 BKN027 15/10 Q1018
2026-04-17 09:50:00,METAR EGTK 170950Z 18015KT 9999 SCT020 BKN027 13/09 Q1018
2026-04-17 09:20:00,METAR EGTK 170920Z 19015KT 9999 SCT019 BKN024 13/09 Q1018
2026-04-17 08:50:00,METAR EGTK 170850Z 19013KT 9999 BKN016 13/10 Q1018
2026-04-17 08:20:00,METAR EGTK 170820Z 17012KT 9999 SCT016 12/10 Q1018
2026-04-17 07:50:00,METAR EGTK 170750Z 17010KT 9999 SCT012 BKN049 12/10 Q1018
2026-04-17 07:20:00,METAR EGTK 170720Z 17010KT 9000 FEW015 BKN049 11/10 Q1018
2026-04-17 06:50:00,METAR EGTK 170650Z 16010KT 9000 SCT015 BKN049 11/09 Q1018
2026-04-17 06:20:00,METAR EGTK 170620Z 15010KT 9999 BKN015 10/09 Q1018
2026-04-17 05:50:00,METAR EGTK 170550Z 15007KT 9999 FEW015 BKN020 10/09 Q1018
2026-04-17 05:20:00,METAR EGTK 170520Z 15006KT 9000 FEW014 SCT018 BKN024 10/09 Q1018
2026-04-16 21:20:00,METAR EGTK 162120Z 18009KT CAVOK 11/08 Q1019
2026-04-16 20:50:00,METAR EGTK 162050Z 19010KT CAVOK 11/08 Q1019
2026-04-16 20:20:00,METAR EGTK 162020Z 19009KT CAVOK 12/08 Q1019
2026-04-16 19:50:00,METAR EGTK 161950Z 19010KT CAVOK 12/08 Q1019
2026-04-16 19:20:00,METAR EGTK 161920Z 18010KT CAVOK 12/09 Q1018
2026-04-16 18:50:00,METAR EGTK 161850Z 18010KT 9999 FEW030 13/09 Q1018
2026-04-16 18:20:00,METAR EGTK 161820Z 19010KT 9999 FEW032 13/09 Q1018
2026-04-16 17:50:00,METAR EGTK 161750Z 20010KT 9999 SCT034 14/09 Q1018
2026-04-16 17:20:00,METAR EGTK 161720Z 21009KT 9999 SCT034 14/08 Q1018
2026-04-16 16:50:00,METAR EGTK 161650Z 19011KT 9999 VCSH FEW033CB 15/09 Q1018
2026-04-16 16:20:00,METAR EGTK 161620Z 20009KT 150V240 9999 VCSH FEW033CB 15/08 Q1018
2026-04-16 15:50:00,METAR EGTK 161550Z 20010KT 9999 SCT040 15/07 Q1018
2026-04-16 14:50:00,METAR EGTK 161450Z 21010KT 9999 SCT039 16/07 Q1018
2026-04-16 13:50:00,METAR EGTK 161350Z 24009KT 210V270 9999 SCT039 SCT047 15/07 Q1018
2026-04-16 13:20:00,METAR EGTK 161320Z 22012KT 190V250 9999 FEW038 SCT043 16/07 Q1018
2026-04-16 12:50:00,METAR EGTK 161250Z 22013KT 180V240 9999 FEW038 SCT043 15/07 Q1019
2026-04-16 12:20:00,METAR EGTK 161220Z 21015KT 9999 FEW034 SCT049 14/07 Q1018
2026-04-16 11:50:00,METAR EGTK 161150Z 23013KT 9999 SCT045 14/08 Q1018
2026-04-16 11:20:00,METAR EGTK 161120Z 22015KT 9999 FEW023 BKN036 14/07 Q1018
2026-04-16 10:50:00,METAR EGTK 161050Z 25012KT 9999 FEW023 BKN036 13/07 Q1018
2026-04-16 10:20:00,METAR EGTK 161020Z 24013KT 9999 FEW023 SCT036 13/07 Q1018
2026-04-16 09:20:00,METAR EGTK 160920Z 22014KT 9999 FEW026 SCT034 BKN042 13/08 Q1018
2026-04-16 08:50:00,METAR EGTK 160850Z 22013KT 9999 FEW019 BKN024 13/09 Q1017
2026-04-16 08:20:00,METAR EGTK 160820Z 24011KT 9999 FEW019 BKN024 12/09 Q1017
2026-04-16 07:50:00,METAR EGTK 160750Z 22011KT 9999 FEW016 SCT029 12/09 Q1017
2026-04-16 07:20:00,METAR EGTK 160720Z 22013KT 9999 FEW007 SCT013 11/09 Q1017
2026-04-16 06:50:00,METAR EGTK 160650Z 21010KT 9999 SCT017 11/09 Q1017
2026-04-16 06:20:00,METAR EGTK 160620Z 21010KT 9999 FEW017 SCT022 10/09 Q1016
2026-04-16 05:50:00,METAR EGTK 160550Z 21011KT 9999 SCT010 SCT024 10/09 Q1016
2026-04-16 05:20:00,METAR EGTK 160520Z 20011KT 9999 SCT018 BKN024 10/09 Q1016
2026-04-15 21:20:00,METAR EGTK 152120Z 19010KT 9999 BKN034 10/08 Q1015
2026-04-15 20:50:00,METAR EGTK 152050Z 19011KT 9999 FEW028 SCT034 BKN044 10/08 Q1015
2026-04-15 20:20:00,METAR EGTK 152020Z 19007KT 9999 SCT024 SCT033 10/08 Q1014
2026-04-15 19:50:00,METAR EGTK 151950Z 19008KT 9999 FEW031 09/07 Q1014
2026-04-15 19:20:00,METAR EGTK 151920Z 21007KT CAVOK 09/07 Q1014
2026-04-15 18:50:00,METAR EGTK 151850Z 21011KT 9999 FEW033 10/08 Q1013
2026-04-15 18:20:00,METAR EGTK 151820Z 22012KT 9999 VCSH FEW022 SCT036CB 11/09 Q1013
2026-04-15 17:50:00,METAR EGTK 151750Z 22014KT 9999 -RA FEW022 SCT036CB 10/08 Q1013 RERA
2026-04-15 17:20:00,METAR EGTK 151720Z 24020KT 210V270 6000 +RA SCT029CB BKN034 10/07 Q1013
2026-04-15 16:50:00,METAR EGTK 151650Z 19019G29KT 9999 VCSH SCT033CB 14/09 Q1012
2026-04-15 16:20:00,METAR EGTK 151620Z 19021G31KT 9999 VCSH SCT023 BKN028 BKN034CB 14/10 Q1012
2026-04-15 15:50:00,METAR EGTK 151550Z 19021G32KT 9999 VCSH SCT014 SCT022CB 14/11 Q1012
2026-04-15 15:20:00,METAR EGTK 151520Z 18019KT 7000 -RA SCT015 BKN020 BKN026CB 13/11 Q1012
2026-04-15 14:50:00,METAR EGTK 151450Z 17015KT 9000 -RA FEW022 SCT027 BKN035CB 13/11 Q1012
2026-04-15 14:20:00,METAR EGTK 151420Z 18011KT 9000 -RA FEW022 SCT027 BKN035CB 12/11 Q1012
2026-04-15 13:50:00,METAR EGTK 151350Z 20023KT 7000 VCSH FEW022 SCT027 BKN035CB 13/10 Q1013
2026-04-15 13:20:00,METAR EGTK 151320Z 19019G31KT 9999 VCSH SCT029 BKN040 16/09 Q1012
2026-04-15 12:50:00,METAR EGTK 151250Z 18020G30KT 9999 VCSH SCT029 BKN040 16/09 Q1012
2026-04-15 12:20:00,METAR EGTK 151220Z 20017KT 9999 SCT029 BKN040 16/09 Q1012
2026-04-15 11:50:00,METAR EGTK 151150Z 18021KT 9999 SCT030 BKN041 16/10 Q1013
2026-04-15 11:20:00,METAR EGTK 151120Z 19016KT 9999 SCT022 BKN036 16/11 Q1013
2026-04-15 10:50:00,METAR EGTK 151050Z 19019KT 9999 SCT022 BKN032 15/10 Q1013
2026-04-15 10:20:00,METAR EGTK 151020Z 18018KT 9999 SCT019 BKN025 16/11 Q1013
2026-04-15 09:50:00,METAR EGTK 150950Z 20015KT 9999 SCT017 BKN024 14/11 Q1013
2026-04-15 09:20:00,METAR EGTK 150920Z 19017KT 9999 SCT013 BKN021 15/12 Q1013
2026-04-15 08:50:00,METAR EGTK 150850Z 19017KT 9999 BKN010 14/12 Q1014
2026-04-15 08:20:00,METAR EGTK 150820Z 19013KT 9999 BKN008 OVC011 13/12 Q1014
2026-04-15 07:50:00,METAR EGTK 150750Z 18010KT 9999 BKN010 13/12 Q1014
2026-04-15 07:20:00,METAR EGTK 150720Z 18009KT 9999 FEW009 OVC011 13/11 Q1014
2026-04-15 06:50:00,METAR EGTK 150650Z 16008KT 9999 BKN009 13/11 Q1014
2026-04-15 06:20:00,METAR EGTK 150620Z 16009KT 9999 BKN008 12/11 Q1014
2026-04-15 05:50:00,METAR EGTK 150550Z 16009KT 9999 BKN008 12/11 Q1014
2026-04-15 05:20:00,METAR EGTK 150520Z 18011KT 9999 BKN009 12/11 Q1014
2026-04-15 04:50:00,METAR EGTK 150450Z 17010KT 9999 BKN009 12/11 Q1014
2026-04-14 21:20:00,METAR EGTK 142120Z 15011KT 9999 SCT007 BKN011 11/10 Q1016
2026-04-14 20:50:00,METAR EGTK 142050Z 15011KT 9999 BKN006 OVC011 11/10 Q1016
2026-04-14 20:20:00,METAR EGTK 142020Z 15012KT 9999 OVC006 11/10 Q1016
2026-04-14 19:50:00,METAR EGTK 141950Z 15011KT 9999 OVC006 11/10 Q1016
2026-04-14 19:20:00,METAR EGTK 141920Z 15014KT 9999 OVC008 11/10 Q1016
2026-04-14 18:50:00,METAR EGTK 141850Z 15013KT 9999 OVC011 12/09 Q1016
2026-04-14 18:20:00,METAR EGTK 141820Z 16013KT 9999 BKN013 12/09 Q1016
2026-04-14 17:50:00,METAR EGTK 141750Z 16014KT 9999 BKN015 12/09 Q1016
2026-04-14 17:20:00,METAR EGTK 141720Z 16012KT 9999 BKN018 12/09 Q1016
2026-04-14 16:50:00,METAR EGTK 141650Z 16013KT 9999 BKN018 12/09 Q1016
2026-04-14 16:20:00,METAR EGTK 141620Z 16013KT 9999 BKN018 12/09 Q1016
2026-04-14 15:50:00,METAR EGTK 141550Z 16014KT 9999 BKN019 13/09 Q1016
2026-04-14 15:20:00,METAR EGTK 141520Z 17016KT 9999 -RA BKN020 13/09 Q1016
2026-04-14 14:50:00,METAR EGTK 141450Z 18017KT 9999 BKN036 13/08 Q1016
2026-04-14 13:50:00,METAR EGTK 141350Z 16017KT 9999 BKN036 14/07 Q1016
2026-04-14 13:20:00,METAR EGTK 141320Z 17016KT 9999 SCT037 BKN046 14/06 Q1016
2026-04-14 12:50:00,METAR EGTK 141250Z 16016KT 9999 FEW035 BKN047 15/06 Q1016
2026-04-14 12:20:00,METAR EGTK 141220Z 16016KT 9999 FEW035 14/05 Q1016
2026-04-14 11:50:00,METAR EGTK 141150Z 17018KT 9999 FEW034 14/05 Q1016
2026-04-14 11:20:00,METAR EGTK 141120Z 16017KT 9999 FEW037 14/06 Q1016
2026-04-14 10:50:00,METAR EGTK 141050Z 16014KT 130V190 9999 SCT034 14/06 Q1016
2026-04-14 10:20:00,METAR EGTK 141020Z 16012KT 9999 SCT027 13/07 Q1016
2026-04-14 09:50:00,METAR EGTK 140950Z 16015KT 9999 FEW024 13/07 Q1016
2026-04-14 09:20:00,METAR EGTK 140920Z 15013KT 120V180 9999 FEW012 12/07 Q1016
2026-04-14 08:50:00,METAR EGTK 140850Z 15011KT 9999 FEW012 11/06 Q1016
2026-04-14 08:20:00,METAR EGTK 140820Z 15011KT 120V180 CAVOK 10/07 Q1016
2026-04-14 07:50:00,METAR EGTK 140750Z 15007KT 9999 FEW013 08/06 Q1017
2026-04-14 07:20:00,METAR EGTK 140720Z 14004KT 090V170 9999 FEW010 07/06 Q1016
2026-04-14 06:50:00,METAR EGTK 140650Z VRB02KT CAVOK 06/05 Q1016
2026-04-14 06:20:00,METAR EGTK 140620Z 06002KT CAVOK 03/03 Q1016
2026-04-14 05:50:00,METAR EGTK 140550Z 11003KT CAVOK 02/02 Q1016
2026-04-14 05:20:00,METAR EGTK 140520Z 13002KT 9999 BCFG NSC 01/01 Q1016
2026-04-14 04:50:00,METAR EGTK 140450Z 14002KT 9999 BCFG NSC 01/01 Q1016
2026-04-13 21:20:00,METAR EGTK 132120Z 28001KT CAVOK 06/04 Q1014
2026-04-13 20:50:00,METAR EGTK 132050Z 24003KT 180V300 CAVOK 06/04 Q1014
2026-04-13 20:20:00,METAR EGTK 132020Z 18007KT 9999 FEW042 04/03 Q1014
2026-04-13 19:50:00,METAR EGTK 131950Z 15003KT 9999 FEW042 07/03 Q1014
2026-04-13 19:20:00,METAR EGTK 131920Z 21004KT 9999 VCSH FEW042CB 06/04 Q1014
2026-04-13 18:50:00,METAR EGTK 131850Z 23006KT 9999 VCSH FEW038CB 08/04 Q1013
2026-04-13 18:20:00,METAR EGTK 131820Z 19005KT 9999 VCSH FEW033CB 09/04 Q1013
2026-04-13 17:50:00,METAR EGTK 131750Z 20005KT 9999 VCSH FEW035CB 09/04 Q1013
2026-04-13 17:20:00,METAR EGTK 131720Z 19004KT 160V230 9999 VCSH FEW035CB 11/04 Q1013
2026-04-13 16:50:00,METAR EGTK 131650Z 19004KT 160V230 9999 VCSH FEW040CB 11/04 Q1013
2026-04-13 16:20:00,METAR EGTK 131620Z 24003KT 200V290 9999 VCSH FEW028CB SCT033 11/04 Q1013
2026-04-13 15:50:00,METAR EGTK 131550Z 23008KT 9999 VCSH FEW026CB SCT033 10/05 Q1013
2026-04-13 15:20:00,METAR EGTK 131520Z 16009KT 9999 VCSH FEW028CB BKN033 10/06 Q1013
2026-04-13 14:50:00,METAR EGTK 131450Z 18014KT 7000 -RA SCT028 BKN036 BKN043 08/05 Q1013
2026-04-13 14:20:00,METAR EGTK 131420Z 17013KT 9999 -SHRA SCT030CB SCT038 10/05 Q1013
2026-04-13 13:50:00,METAR EGTK 131350Z VRB01KT 9999 VCSH SCT037CB 11/03 Q1013
2026-04-13 13:20:00,METAR EGTK 131320Z VRB02KT 9999 VCSH SCT032CB 11/04 Q1012
2026-04-13 12:50:00,METAR EGTK 131250Z 10004KT 050V140 9999 VCSH FEW020CB BKN033 11/04 Q1013
2026-04-13 12:20:00,METAR EGTK 131220Z 25011KT 9999 -SHRA FEW028 BKN033CB 10/04 Q1013
2026-04-13 11:50:00,METAR EGTK 131150Z VRB04KT 9999 VCSH FEW028 BKN033CB 12/03 Q1012
2026-04-13 11:20:00,METAR EGTK 131120Z 20006KT 130V260 9999 VCSH FEW028 BKN032CB 11/03 Q1012
2026-04-13 10:50:00,METAR EGTK 131050Z VRB02KT 9999 FEW028 BKN032CB 12/04 Q1012
2026-04-13 10:20:00,METAR EGTK 131020Z 20003KT 150V230 9999 SCT028 10/04 Q1013
2026-04-13 09:50:00,METAR EGTK 130950Z VRB05KT 9999 BKN025 10/04 Q1013
2026-04-13 09:20:00,METAR EGTK 130920Z 17006KT 140V200 9999 FEW018 10/05 Q1013
2026-04-13 08:50:00,METAR EGTK 130850Z 15003KT 090V220 9999 FEW018 09/05 Q1013
2026-04-13 08:20:00,METAR EGTK 130820Z VRB01KT CAVOK 08/05 Q1013
2026-04-13 07:50:00,METAR EGTK 130750Z VRB01KT CAVOK 06/04 Q1013
2026-04-13 07:20:00,METAR EGTK 130720Z 07001KT CAVOK 04/03 Q1013
2026-04-13 06:50:00,METAR EGTK 130650Z 36002KT CAVOK 02/02 Q1013
2026-04-13 06:20:00,METAR EGTK 130620Z 07001KT 8000 0600NW R19/0600N BCFG NSC 00/00 Q1013
2026-04-13 05:50:00,METAR EGTK 130550Z 32001KT 9999 MIFG NSC M00/M01 Q1013
2026-04-13 05:20:00,METAR EGTK 130520Z 00000KT CAVOK 00/M00 Q1012
2026-04-13 04:50:00,METAR EGTK 130450Z 32002KT 9999 MIFG NSC 00/00 Q1012
2026-04-12 21:20:00,METAR EGTK 122120Z 21006KT CAVOK 05/03 Q1012
2026-04-12 20:50:00,METAR EGTK 122050Z 19008KT CAVOK 05/03 Q1012
2026-04-12 20:20:00,METAR EGTK 122020Z 21007KT CAVOK 05/03 Q1012
2026-04-12 19:50:00,METAR EGTK 121950Z 19009KT 9999 FEW036 06/03 Q1011
2026-04-12 19:20:00,METAR EGTK 121920Z 18010KT 9999 VCSH FEW036CB 08/04 Q1011
2026-04-12 18:50:00,METAR EGTK 121850Z 19010KT 9999 -RA FEW036CB SCT047 08/04 Q1011
2026-04-12 18:20:00,METAR EGTK 121820Z 22014KT 9999 VCSH FEW035CB 09/04 Q1011
2026-04-12 17:50:00,METAR EGTK 121750Z 22014KT 9999 FEW035CB 10/04 Q1010
2026-04-12 17:20:00,METAR EGTK 121720Z 21014KT 9999 FEW035CB 11/04 Q1010
2026-04-12 16:50:00,METAR EGTK 121650Z 21013KT 9999 FEW035CB 11/04 Q1010
2026-04-12 16:20:00,METAR EGTK 121620Z 22013KT 9999 VCSH FEW035CB 11/05 Q1009
2026-04-12 15:50:00,METAR EGTK 121550Z 22015KT 9999 VCSH FEW035CB 11/05 Q1009
2026-04-12 14:50:00,METAR EGTK 121450Z 18011KT 9999 VCSH SCT023CB BKN033 10/07 Q1010
2026-04-12 14:20:00,METAR EGTK 121420Z 23008KT 9999 VCSH FEW018CB SCT043 09/07 Q1010 RERA
2026-04-12 13:50:00,METAR EGTK 121350Z 25016KT 9000 RA FEW013CB BKN021 08/05 Q1010
2026-04-12 13:20:00,METAR EGTK 121320Z 26006KT 230V300 9999 VCSH FEW022CB BKN037 10/06 Q1009
2026-04-12 12:50:00,METAR EGTK 121250Z 27014KT 240V300 9999 VCSH SCT030CB BKN041 09/04 Q1009
2026-04-12 12:20:00,METAR EGTK 121220Z 21016KT 9999 VCSH FEW016CB SCT033 11/05 Q1009
2026-04-12 11:50:00,METAR EGTK 121150Z 20014KT 9999 VCSH FEW016CB SCT033 11/08 Q1009
2026-04-12 11:20:00,METAR EGTK 121120Z 19015KT 170V230 9999 VCSH FEW029 SCT046 11/05 Q1009
2026-04-12 10:50:00,METAR EGTK 121050Z 20018KT 9999 FEW030 BKN033 12/04 Q1009
2026-04-12 10:20:00,METAR EGTK 121020Z 21017KT 9999 FEW030 BKN033 11/04 Q1009
2026-04-12 09:50:00,METAR EGTK 120950Z 21019KT 9999 FEW030 BKN033 11/04 Q1009
2026-04-12 09:20:00,METAR EGTK 120920Z 22018KT 9999 FEW027 BKN029 11/04 Q1008
2026-04-12 08:50:00,METAR EGTK 120850Z 22019KT 9999 BKN029 10/04 Q1008
2026-04-12 08:20:00,METAR EGTK 120820Z 20018KT 9999 SCT027 10/04 Q1008
2026-04-12 07:50:00,METAR EGTK 120750Z 20017KT 9000 NSC 09/04 Q1008
2026-04-12 07:20:00,METAR EGTK 120720Z 18015KT 9000 NSC 08/04 Q1008
2026-04-12 06:50:00,METAR EGTK 120650Z 19012KT 9000 NSC 08/04 Q1008
2026-04-12 06:20:00,METAR EGTK 120620Z 18012KT 9999 SCT023 07/03 Q1007
2026-04-12 05:20:00,METAR EGTK 120520Z 20011KT 9999 FEW003 BKN020 06/03 Q1007
2026-04-11 21:20:00,METAR EGTK 112120Z 19017G27KT 9999 FEW036 08/03 Q1006
2026-04-11 20:50:00,METAR EGTK 112050Z 19020G30KT CAVOK 08/02 Q1006
2026-04-11 20:20:00,METAR EGTK 112020Z 19018KT CAVOK 08/02 Q1006
2026-04-11 19:50:00,METAR EGTK 111950Z 19018KT CAVOK 08/02 Q1006
2026-04-11 19:20:00,METAR EGTK 111920Z 19016KT CAVOK 08/02 Q1006
2026-04-11 18:50:00,METAR EGTK 111850Z 19016G26KT 9999 FEW045 08/01 Q1006
2026-04-11 18:20:00,METAR EGTK 111820Z 19017KT 9999 FEW045 09/01 Q1006
2026-04-11 17:50:00,METAR EGTK 111750Z 19017G27KT 9999 FEW047 10/00 Q1005
2026-04-11 17:20:00,METAR EGTK 111720Z 19020KT 9999 FEW047 11/00 Q1005
2026-04-11 16:50:00,METAR EGTK 111650Z 20018KT 170V230 9999 FEW044 10/00 Q1005
2026-04-11 16:20:00,METAR EGTK 111620Z 21018KT 9999 SCT044 11/00 Q1005
2026-04-11 15:50:00,METAR EGTK 111550Z 21020KT 9999 SCT044CB 10/M00 Q1006
2026-04-11 15:20:00,METAR EGTK 111520Z 20022KT 9999 FEW044CB 10/M01 Q1006
2026-04-11 14:50:00,METAR EGTK 111450Z 22024G34KT 200V260 9999 FEW048CB 11/M02 Q1006
2026-04-11 14:20:00,METAR EGTK 111420Z 21017G27KT 180V250 9999 VCSH FEW048CB 10/00 Q1005
2026-04-11 13:50:00,METAR EGTK 111350Z 21016KT 180V250 9999 VCSH SCT048CB 11/M01 Q1005
2026-04-11 13:20:00,METAR EGTK 111320Z 22023G36KT 9999 VCSH SCT048CB 12/M01 Q1005
2026-04-11 12:50:00,METAR EGTK 111250Z 21019G29KT 180V240 9999 SCT048 12/M00 Q1005
2026-04-11 12:20:00,METAR EGTK 111220Z 22018KT 200V260 9999 SCT032 11/M00 Q1005
2026-04-11 11:50:00,METAR EGTK 111150Z 22021KT 9999 SCT030 12/M01 Q1005
2026-04-11 11:20:00,METAR EGTK 111120Z 23019KT 210V270 9999 FEW044 12/M01 Q1004
2026-04-11 10:50:00,METAR EGTK 111050Z 24016KT 9999 SCT027 11/02 Q1004
2026-04-11 10:20:00,METAR EGTK 111020Z 22019KT 9999 BKN027 10/02 Q1004
2026-04-11 09:50:00,METAR EGTK 110950Z 25013KT 9999 SCT027 08/03 Q1004
2026-04-11 09:20:00,METAR EGTK 110920Z 24013KT 9999 FEW026 08/03 Q1004
2026-04-11 08:50:00,METAR EGTK 110850Z 24010KT 210V270 9999 VCSH FEW015 07/04 Q1004
2026-04-11 08:20:00,METAR EGTK 110820Z 24010KT 9999 VCSH FEW013 BKN041 07/04 Q1003
2026-04-11 07:50:00,METAR EGTK 110750Z 24013KT 9000 VCSH SCT007 BKN013 BKN023 07/05 Q1003
2026-04-11 07:20:00,METAR EGTK 110720Z 23011KT 7000 -RA SCT007 BKN013 BKN023 07/06 Q1003
2026-04-11 06:50:00,METAR EGTK 110650Z 23014KT 7000 -RA SCT007 BKN013 BKN023 07/06 Q1002
2026-04-11 06:20:00,METAR EGTK 110620Z COR 25017KT 7000 -RA SCT010 BKN014 08/06 Q1002
2026-04-11 05:50:00,METAR EGTK 110550Z 17016KT 9999 BKN020 BKN032 10/07 Q1001
2026-04-11 05:20:00,METAR EGTK 110520Z 15010KT 9999 BKN033 10/06 Q1001
2026-04-10 21:20:00,METAR EGTK 102120Z 15012KT CAVOK 08/02 Q1010
2026-04-10 20:50:00,METAR EGTK 102050Z 15011KT CAVOK 08/02 Q1010
2026-04-10 20:20:00,METAR EGTK 102020Z 15011KT CAVOK 08/01 Q1011
2026-04-10 19:50:00,METAR EGTK 101950Z 15008KT CAVOK 08/01 Q1011
2026-04-10 19:20:00,METAR EGTK 101920Z 16008KT CAVOK 08/01 Q1012
2026-04-10 18:50:00,METAR EGTK 101850Z 15010KT CAVOK 09/00 Q1011
2026-04-10 18:20:00,METAR EGTK 101820Z 16010KT CAVOK 09/01 Q1012
2026-04-10 17:50:00,METAR EGTK 101750Z 16013KT CAVOK 10/01 Q1012
2026-04-10 17:20:00,METAR EGTK 101720Z 16010KT CAVOK 10/01 Q1012
2026-04-10 16:50:00,METAR EGTK 101650Z 17011KT CAVOK 10/01 Q1013
2026-04-10 16:20:00,METAR EGTK 101620Z 19012KT CAVOK 10/01 Q1014
2026-04-10 15:50:00,METAR EGTK 101550Z 20011KT CAVOK 11/00 Q1015
2026-04-10 15:20:00,METAR EGTK 101520Z 19014KT CAVOK 11/M01 Q1015
2026-04-10 14:50:00,METAR EGTK 101450Z 19014KT 9999 FEW048 11/M01 Q1016
2026-04-10 14:20:00,METAR EGTK 101420Z 19011KT 9999 FEW048 12/00 Q1016
2026-04-10 13:50:00,METAR EGTK 101350Z 20013KT CAVOK 12/M01 Q1016
2026-04-10 13:20:00,METAR EGTK 101320Z 17013KT 140V200 CAVOK 12/M00 Q1017
2026-04-10 12:50:00,METAR EGTK 101250Z 19011KT CAVOK 11/00 Q1017
2026-04-10 12:20:00,METAR EGTK 101220Z 17012KT 9999 FEW035 11/01 Q1018
2026-04-10 11:50:00,METAR EGTK 101150Z 21010KT 9999 FEW035 10/01 Q1018
2026-04-10 11:20:00,METAR EGTK 101120Z 19009KT 160V230 9999 FEW035 10/02 Q1019
2026-04-10 10:50:00,METAR EGTK 101050Z 18008KT 9999 FEW040 09/02 Q1020
2026-04-10 10:20:00,METAR EGTK 101020Z 20007KT 170V240 9999 FEW040 09/02 Q1020
2026-04-10 09:50:00,METAR EGTK 100950Z 20006KT 140V230 9999 FEW040 08/01 Q1020
2026-04-10 09:20:00,METAR EGTK 100920Z 22003KT 150V270 CAVOK 08/02 Q1020
2026-04-10 08:50:00,METAR EGTK 100850Z 24004KT 160V300 CAVOK 08/02 Q1021
2026-04-10 08:20:00,METAR EGTK 100820Z 21006KT CAVOK 07/02 Q1020
2026-04-10 07:50:00,METAR EGTK 100750Z 23005KT CAVOK 06/02 Q1021
2026-04-10 07:20:00,METAR EGTK 100720Z 21004KT CAVOK 06/02 Q1020
2026-04-10 06:50:00,METAR EGTK 100650Z 20003KT CAVOK 05/02 Q1020
2026-04-10 06:20:00,METAR EGTK 100620Z 19005KT CAVOK 04/02 Q1020
2026-04-10 05:50:00,METAR EGTK 100550Z 01003KT CAVOK 05/01 Q1019
2026-04-10 05:20:00,METAR EGTK 100520Z 32003KT 290V360 CAVOK 05/01 Q1020
2026-04-09 21:20:00,METAR EGTK 092120Z 27005KT CAVOK 05/M00 Q1020
2026-04-09 20:50:00,METAR EGTK 092050Z 28005KT 250V310 CAVOK 06/M00 Q1019
2026-04-09 20:20:00,METAR EGTK 092020Z 27009KT CAVOK 07/M00 Q1019
2026-04-09 19:50:00,METAR EGTK 091950Z 28008KT CAVOK 07/01 Q1019
2026-04-09 19:20:00,METAR EGTK 091920Z 28008KT CAVOK 08/01 Q1019
2026-04-09 18:50:00,METAR EGTK 091850Z 27010KT CAVOK 09/01 Q1019
2026-04-09 18:20:00,METAR EGTK 091820Z 29017G28KT 260V340 9999 FEW043 10/01 Q1018
2026-04-09 17:50:00,METAR EGTK 091750Z 28018KT 260V320 9999 FEW043 10/03 Q1017
2026-04-09 17:20:00,METAR EGTK 091720Z 28016KT 9999 FEW043 11/04 Q1017
2026-04-09 16:50:00,METAR EGTK 091650Z 27014KT 9999 BKN043 12/04 Q1016
2026-04-09 16:20:00,METAR EGTK 091620Z 25016KT 9999 VCSH SCT031 13/04 Q1016
2026-04-09 15:50:00,METAR EGTK 091550Z 25015KT 9999 VCSH SCT031 13/06 Q1016
2026-04-09 15:20:00,METAR EGTK 091520Z 23015KT 9999 VCSH SCT022 SCT036 12/07 Q1016
2026-04-09 14:50:00,METAR EGTK 091450Z 25018G28KT 9999 -RA BKN018 BKN022 12/08 Q1016
2026-04-09 14:20:00,METAR EGTK 091420Z 23017KT 9999 SCT028 13/09 Q1016
2026-04-09 13:50:00,METAR EGTK 091350Z 23016KT 200V260 CAVOK 14/08 Q1016
2026-04-09 13:20:00,METAR EGTK 091320Z 22013KT 200V260 CAVOK 14/07 Q1016
2026-04-09 12:50:00,METAR EGTK 091250Z 23013KT CAVOK 14/05 Q1016
2026-04-09 12:20:00,METAR EGTK 091220Z 21014KT CAVOK 14/05 Q1017
2026-04-09 11:50:00,METAR EGTK 091150Z 22016KT CAVOK 15/04 Q1017
2026-04-09 11:20:00,METAR EGTK 091120Z 21015KT CAVOK 14/07 Q1017
2026-04-09 10:50:00,METAR EGTK 091050Z 21013KT CAVOK 15/09 Q1017
2026-04-09 10:20:00,METAR EGTK 091020Z 21011KT CAVOK 15/10 Q1017
2026-04-09 09:50:00,METAR EGTK 090950Z 21010KT CAVOK 15/10 Q1017
2026-04-09 09:20:00,METAR EGTK 090920Z 22010KT CAVOK 14/11 Q1017
2026-04-09 08:50:00,METAR EGTK 090850Z 23010KT CAVOK 14/11 Q1017
2026-04-09 08:20:00,METAR EGTK 090820Z 22007KT CAVOK 12/11 Q1017
2026-04-09 07:50:00,METAR EGTK 090750Z 22008KT CAVOK 12/10 Q1017
2026-04-09 07:20:00,METAR EGTK 090720Z 21006KT CAVOK 11/10 Q1017
2026-04-09 06:50:00,METAR EGTK 090650Z 21007KT CAVOK 10/09 Q1017
2026-04-09 06:20:00,METAR EGTK 090620Z 20005KT CAVOK 10/09 Q1017
2026-04-09 05:50:00,METAR EGTK 090550Z 22007KT CAVOK 10/09 Q1018
2026-04-09 05:20:00,METAR EGTK 090520Z 22006KT CAVOK 09/08 Q1018
2026-04-09 04:50:00,METAR EGTK 090450Z 20006KT CAVOK 09/08 Q1018
2026-04-08 21:20:00,METAR EGTK 082120Z 23006KT CAVOK 13/10 Q1020
2026-04-08 20:50:00,METAR EGTK 082050Z 23005KT 9000 NSC 15/11 Q1020
2026-04-08 20:20:00,METAR EGTK 082020Z 22005KT CAVOK 15/11 Q1020
2026-04-08 19:50:00,METAR EGTK 081950Z 23005KT CAVOK 17/11 Q1021
2026-04-08 19:20:00,METAR EGTK 081920Z 22004KT CAVOK 17/12 Q1020
2026-04-08 18:50:00,METAR EGTK 081850Z 19003KT CAVOK 19/12 Q1020
2026-04-08 18:20:00,METAR EGTK 081820Z 29003KT CAVOK 21/12 Q1020
2026-04-08 17:50:00,METAR EGTK 081750Z 31003KT CAVOK 21/13 Q1020
2026-04-08 17:20:00,METAR EGTK 081720Z 32003KT 270V350 CAVOK 21/14 Q1020
2026-04-08 16:50:00,METAR EGTK 081650Z 26003KT 210V300 CAVOK 23/13 Q1020
2026-04-08 16:20:00,METAR EGTK 081620Z 23003KT 180V330 CAVOK 23/13 Q1021
2026-04-08 15:50:00,METAR EGTK 081550Z VRB04KT CAVOK 23/12 Q1021
2026-04-08 15:20:00,METAR EGTK 081520Z 26006KT 210V300 CAVOK 22/11 Q1021
2026-04-08 14:50:00,METAR EGTK 081450Z 25006KT 220V290 CAVOK 22/12 Q1021
2026-04-08 14:20:00,METAR EGTK 081420Z 26005KT 210V300 CAVOK 22/12 Q1021
2026-04-08 13:50:00,METAR EGTK 081350Z 21006KT 180V240 CAVOK 22/13 Q1021
2026-04-08 13:20:00,METAR EGTK 081320Z 23007KT CAVOK 22/12 Q1022
2026-04-08 12:50:00,METAR EGTK 081250Z 21003KT 140V280 CAVOK 21/12 Q1022
2026-04-08 12:20:00,METAR EGTK 081220Z COR 20004KT 150V240 CAVOK 21/11 Q1022
2026-04-08 11:50:00,METAR EGTK 081150Z 19005KT 150V220 CAVOK 20/11 Q1022
2026-04-08 11:20:00,METAR EGTK 081120Z 19004KT 130V240 CAVOK 19/10 Q1022
2026-04-08 10:50:00,METAR EGTK 081050Z 17004KT 120V220 CAVOK 18/10 Q1022
2026-04-08 10:20:00,METAR EGTK 081020Z 17004KT 100V230 CAVOK 17/09 Q1023
2026-04-08 09:50:00,METAR EGTK 080950Z 12003KT 080V170 CAVOK 16/08 Q1023
2026-04-08 09:20:00,METAR EGTK 080920Z VRB02KT CAVOK 15/07 Q1023
2026-04-08 08:50:00,METAR EGTK 080850Z VRB02KT CAVOK 14/07 Q1023
2026-04-08 08:20:00,METAR EGTK 080820Z VRB02KT CAVOK 12/07 Q1023
2026-04-08 07:50:00,METAR EGTK 080750Z VRB01KT CAVOK 11/06 Q1023
2026-04-08 07:20:00,METAR EGTK 080720Z 35004KT CAVOK 09/06 Q1023
2026-04-08 06:50:00,METAR EGTK 080650Z 35002KT CAVOK 08/05 Q1023
2026-04-08 06:20:00,METAR EGTK 080620Z 32003KT CAVOK 06/04 Q1022
2026-04-08 05:50:00,METAR EGTK 080550Z 32002KT CAVOK 05/03 Q1022
2026-04-08 05:20:00,METAR EGTK 080520Z 34004KT CAVOK 05/03 Q1022
2026-04-08 04:50:00,METAR EGTK 080450Z 34004KT CAVOK 05/03 Q1022
2026-04-07 21:20:00,METAR EGTK 072120Z 04004KT 010V070 CAVOK 10/05 Q1022
2026-04-07 20:50:00,METAR EGTK 072050Z 06006KT CAVOK 11/06 Q1021
2026-04-07 20:20:00,METAR EGTK 072020Z 07007KT CAVOK 11/06 Q1021
2026-04-07 19:50:00,METAR EGTK 071950Z 06006KT CAVOK 11/06 Q1021
2026-04-07 19:20:00,METAR EGTK 071920Z 08006KT CAVOK 13/06 Q1021
2026-04-07 18:50:00,METAR EGTK 071850Z 08008KT CAVOK 14/06 Q1021
2026-04-07 18:20:00,METAR EGTK 071820Z 08007KT CAVOK 15/06 Q1020
2026-04-07 17:50:00,METAR EGTK 071750Z 09010KT CAVOK 17/05 Q1020
2026-04-07 17:20:00,METAR EGTK 071720Z 09009KT CAVOK 18/06 Q1020
2026-04-07 16:50:00,METAR EGTK 071650Z 09012KT CAVOK 19/06 Q1020
2026-04-07 16:20:00,METAR EGTK 071620Z 09011KT CAVOK 20/06 Q1020
2026-04-07 15:50:00,METAR EGTK 071550Z 10013KT CAVOK 20/06 Q1020
2026-04-07 15:20:00,METAR EGTK 071520Z 09011KT CAVOK 20/07 Q1020
2026-04-07 14:50:00,METAR EGTK 071450Z 09012KT CAVOK 21/06 Q1020
2026-04-07 14:20:00,METAR EGTK 071420Z 09012KT 060V120 CAVOK 20/05 Q1020
2026-04-07 13:50:00,METAR EGTK 071350Z 09012KT CAVOK 20/06 Q1020
2026-04-07 13:20:00,METAR EGTK 071320Z 10011KT CAVOK 20/05 Q1021
2026-04-07 12:50:00,METAR EGTK 071250Z 10013KT CAVOK 19/04 Q1021
2026-04-07 12:20:00,METAR EGTK 071220Z 09012KT CAVOK 19/03 Q1021
2026-04-07 11:50:00,METAR EGTK 071150Z 11012KT CAVOK 18/03 Q1021
2026-04-07 11:20:00,METAR EGTK 071120Z 09012KT CAVOK 18/04 Q1022
2026-04-07 10:50:00,METAR EGTK 071050Z 10012KT CAVOK 17/04 Q1022
2026-04-07 10:20:00,METAR EGTK 071020Z 10014KT CAVOK 16/03 Q1022
2026-04-07 09:50:00,METAR EGTK 070950Z 10012KT CAVOK 15/04 Q1022
2026-04-07 09:20:00,METAR EGTK 070920Z 10008KT 070V130 CAVOK 14/05 Q1022
2026-04-07 08:50:00,METAR EGTK 070850Z 07007KT CAVOK 12/06 Q1022
2026-04-07 08:20:00,METAR EGTK 070820Z 08008KT CAVOK 10/06 Q1022
2026-04-07 07:50:00,METAR EGTK 070750Z 07006KT CAVOK 09/05 Q1022
2026-04-07 07:20:00,METAR EGTK 070720Z 07005KT CAVOK 08/05 Q1022
2026-04-07 06:50:00,METAR EGTK 070650Z 06004KT CAVOK 06/04 Q1022
2026-04-07 06:20:00,METAR EGTK 070620Z 36005KT CAVOK 03/02 Q1023
2026-04-07 05:50:00,METAR EGTK 070550Z 03005KT CAVOK 02/01 Q1022
2026-04-07 05:20:00,METAR EGTK 070520Z 02006KT CAVOK 02/01 Q1022
2026-04-06 21:20:00,METAR EGTK 062120Z 09003KT 060V120 CAVOK 06/M01 Q1023
2026-04-06 20:50:00,METAR EGTK 062050Z VRB02KT CAVOK 07/M01 Q1024
2026-04-06 20:20:00,METAR EGTK 062020Z 14006KT CAVOK 08/M01 Q1024
2026-04-06 19:50:00,METAR EGTK 061950Z 17006KT CAVOK 08/M01 Q1023
2026-04-06 19:20:00,METAR EGTK 061920Z 16007KT CAVOK 09/00 Q1023
2026-04-06 18:50:00,METAR EGTK 061850Z 14009KT CAVOK 11/00 Q1023
2026-04-06 18:20:00,METAR EGTK 061820Z 13010KT CAVOK 12/01 Q1023
2026-04-06 17:50:00,METAR EGTK 061750Z 16010KT CAVOK 13/03 Q1023
2026-04-06 17:20:00,METAR EGTK 061720Z 17011KT CAVOK 14/03 Q1023
2026-04-06 16:50:00,METAR EGTK 061650Z 16009KT CAVOK 15/03 Q1023
2026-04-06 16:20:00,METAR EGTK 061620Z 16010KT CAVOK 15/02 Q1023
2026-04-06 15:50:00,METAR EGTK 061550Z 15012KT CAVOK 15/02 Q1023
2026-04-06 14:50:00,METAR EGTK 061450Z 13013KT CAVOK 15/02 Q1024
2026-04-06 14:20:00,METAR EGTK 061420Z 13009KT 090V180 CAVOK 14/02 Q1024
2026-04-06 13:50:00,METAR EGTK 061350Z 17010KT CAVOK 14/02 Q1024
2026-04-06 13:20:00,METAR EGTK 061320Z 16010KT 100V180 CAVOK 14/01 Q1025
2026-04-06 12:50:00,METAR EGTK 061250Z 15012KT 120V180 CAVOK 14/01 Q1025
2026-04-06 12:20:00,METAR EGTK 061220Z 15011KT 110V180 CAVOK 13/01 Q1025
2026-04-06 11:50:00,METAR EGTK 061150Z 14012KT 110V170 CAVOK 13/01 Q1026
2026-04-06 11:20:00,METAR EGTK 061120Z 18011KT CAVOK 12/03 Q1026
2026-04-06 10:50:00,METAR EGTK 061050Z 15011KT 120V180 CAVOK 11/03 Q1026
2026-04-06 10:20:00,METAR EGTK 061020Z 15011KT CAVOK 11/03 Q1026
2026-04-06 09:50:00,METAR EGTK 060950Z 16010KT CAVOK 11/03 Q1026
2026-04-06 09:20:00,METAR EGTK 060920Z 14009KT 110V180 CAVOK 10/03 Q1026
2026-04-06 08:50:00,METAR EGTK 060850Z 14004KT 100V180 CAVOK 08/04 Q1026
2026-04-06 08:20:00,METAR EGTK 060820Z 13004KT 100V160 CAVOK 06/03 Q1026
2026-04-06 07:50:00,METAR EGTK 060750Z 06002KT CAVOK 04/02 Q1027
2026-04-06 07:20:00,METAR EGTK 060720Z 02001KT CAVOK 02/02 Q1026
2026-04-06 06:50:00,METAR EGTK 060650Z 07002KT CAVOK 01/M00 Q1026
2026-04-06 06:20:00,METAR EGTK 060620Z 06001KT CAVOK M00/M01 Q1026
2026-04-06 05:50:00,METAR EGTK 060550Z 06001KT CAVOK M00/M01 Q1026
2026-04-06 05:20:00,METAR EGTK 060520Z 00000KT CAVOK M01/M02 Q1026
2026-04-06 04:50:00,METAR EGTK 060450Z 06001KT CAVOK M00/M00 Q1026
2026-04-05 21:20:00,METAR EGTK 052120Z 21007KT CAVOK 02/M00 Q1024
2026-04-05 20:50:00,METAR EGTK 052050Z 22008KT CAVOK 03/M00 Q1024
2026-04-05 20:20:00,METAR EGTK 052020Z 24008KT CAVOK 06/01 Q1024
2026-04-05 19:50:00,METAR EGTK 051950Z 23010KT CAVOK 07/01 Q1023
2026-04-05 19:20:00,METAR EGTK 051920Z 24009KT CAVOK 08/01 Q1023
2026-04-05 18:50:00,METAR EGTK 051850Z 24011KT CAVOK 09/01 Q1022
2026-04-05 18:20:00,METAR EGTK 051820Z 24011KT CAVOK 09/01 Q1022
2026-04-05 17:50:00,METAR EGTK 051750Z 23014KT CAVOK 09/00 Q1021
2026-04-05 17:20:00,METAR EGTK 051720Z 26012KT CAVOK 11/M01 Q1021
2026-04-05 16:50:00,METAR EGTK 051650Z 25014KT 9999 FEW048 11/M02 Q1020
2026-04-05 16:20:00,METAR EGTK 051620Z 26014KT 9999 FEW048 11/M02 Q1020
2026-04-05 15:50:00,METAR EGTK 051550Z 27013KT 9999 FEW048 11/M02 Q1020
2026-04-05 15:20:00,METAR EGTK 051520Z 26016KT 9999 FEW048 12/M02 Q1020
2026-04-05 14:50:00,METAR EGTK 051450Z 25015KT 9999 SCT047 12/M02 Q1019
2026-04-05 12:50:00,METAR EGTK 051250Z 26015KT 9999 FEW048 12/01 Q1018
2026-04-05 12:20:00,METAR EGTK 051220Z 26016KT 9999 SCT048 11/M00 Q1017
2026-04-05 11:50:00,METAR EGTK 051150Z 25018KT 9999 SCT048 11/M00 Q1017
2026-04-05 11:20:00,METAR EGTK 051120Z 25018KT 9999 SCT048 10/00 Q1017
2026-04-05 10:50:00,METAR EGTK 051050Z 26015KT 9999 SCT048 10/01 Q1016
2026-04-05 10:20:00,METAR EGTK 051020Z 26017KT 9999 FEW046 11/02 Q1016
2026-04-05 09:50:00,METAR EGTK 050950Z 25018KT 220V280 9999 FEW038 SCT046 11/02 Q1015
2026-04-05 09:20:00,METAR EGTK 050920Z 24017KT 9999 SCT029 BKN034 10/03 Q1014
2026-04-05 08:50:00,METAR EGTK 050850Z 24015KT 9999 FEW023 SCT032 09/04 Q1014
2026-04-05 08:20:00,METAR EGTK 050820Z 23015KT 9999 FEW021 SCT028 09/05 Q1013
2026-04-05 07:50:00,METAR EGTK 050750Z 22016KT 9999 FEW041 08/05 Q1013
2026-04-05 07:20:00,METAR EGTK 050720Z 22014KT 9999 SCT041 07/05 Q1012
2026-04-05 06:50:00,METAR EGTK 050650Z 21012KT 9000 SCT041 SCT047 06/04 Q1012
2026-04-05 06:20:00,METAR EGTK 050620Z 21011KT 9999 SCT040 SCT049 06/04 Q1011
2026-04-05 05:50:00,METAR EGTK 050550Z 21012KT 9999 SCT040 SCT049 06/03 Q1011
2026-04-05 05:20:00,METAR EGTK 050520Z 20009KT 9999 BKN019 06/02 Q1010
2026-04-04 21:20:00,METAR EGTK 042120Z 20025G35KT 9999 BKN019 OVC025 12/08 Q1004
2026-04-04 20:50:00,METAR EGTK 042050Z 20024G38KT 9999 BKN021 BKN026 12/07 Q1004
2026-04-04 20:20:00,METAR EGTK 042020Z 20023G34KT 9999 FEW025 OVC036 11/07 Q1004
2026-04-04 19:50:00,METAR EGTK 041950Z 19020G30KT 9999 BKN044 11/07 Q1005
2026-04-04 19:20:00,METAR EGTK 041920Z 20024G34KT 9999 SCT037 12/06 Q1005
2026-04-04 18:50:00,METAR EGTK 041850Z 20023G33KT 9999 BKN032 OVC040 12/06 Q1006
2026-04-04 18:20:00,METAR EGTK 041820Z 20023G36KT 9999 VCSH SCT029 BKN033 12/07 Q1006
2026-04-04 17:50:00,METAR EGTK 041750Z 20023G35KT 9999 SCT028 SCT042 13/07 Q1007
2026-04-04 17:20:00,METAR EGTK 041720Z 19024G37KT 9999 SCT028 SCT042 13/07 Q1008
2026-04-04 16:50:00,METAR EGTK 041650Z 19023G33KT 9999 SCT028 SCT042 13/08 Q1008
2026-04-04 16:20:00,METAR EGTK 041620Z 20021G32KT 9999 SCT019 BKN025 13/08 Q1008
2026-04-04 15:50:00,METAR EGTK 041550Z 19020G30KT 9999 BKN019 OVC025 12/09 Q1009
2026-04-04 15:20:00,METAR EGTK 041520Z 19019KT 9999 BKN021 OVC026 12/09 Q1010
2026-04-04 14:50:00,METAR EGTK 041450Z 19020KT 9999 BKN022 OVC028 12/08 Q1011
2026-04-04 14:20:00,METAR EGTK 041420Z 19022G33KT 9999 BKN027 13/07 Q1011
2026-04-04 13:50:00,METAR EGTK 041350Z 20023G35KT 9999 SCT028 BKN033 14/07 Q1012
2026-04-04 13:20:00,METAR EGTK 041320Z 19019KT 9999 SCT028 BKN033 14/07 Q1012
2026-04-04 12:50:00,METAR EGTK 041250Z 19022KT 9999 BKN026 13/07 Q1013
2026-04-04 12:20:00,METAR EGTK 041220Z 19024G35KT 9999 BKN025 BKN030 13/08 Q1013
2026-04-04 11:50:00,METAR EGTK 041150Z 19022G32KT 9999 BKN025 BKN030 14/08 Q1013
2026-04-04 11:20:00,METAR EGTK 041120Z 20015KT 9999 SCT009 BKN013 BKN017 13/09 Q1014
2026-04-04 10:50:00,METAR EGTK 041050Z 19019KT 9999 SCT009 BKN013 BKN017 13/10 Q1014
2026-04-04 10:20:00,METAR EGTK 041020Z 19016KT 9999 SCT009 BKN013 BKN017 13/10 Q1015
2026-04-04 09:50:00,METAR EGTK 040950Z 17012KT 9999 BKN009 11/09 Q1015
2026-04-04 09:20:00,METAR EGTK 040920Z 16011KT 8000 VCSH BKN011 10/08 Q1015
2026-04-04 08:50:00,METAR EGTK 040850Z 17013KT 9999 BKN013 BKN018 10/08 Q1016
2026-04-04 08:20:00,METAR EGTK 040820Z 19010KT 9999 SCT026 BKN035 10/07 Q1016
2026-04-04 07:50:00,METAR EGTK 040750Z 19009KT 9999 SCT026 BKN035 09/07 Q1016
2026-04-04 07:20:00,METAR EGTK 040720Z 19007KT 9999 SCT030 BKN035 08/07 Q1016
2026-04-04 06:50:00,METAR EGTK 040650Z 19007KT 9999 SCT039 SCT041 08/06 Q1016
2026-04-04 06:20:00,METAR EGTK 040620Z 20007KT 9999 SCT045 07/06 Q1016
2026-04-04 05:50:00,METAR EGTK 040550Z 21006KT 9999 SCT045 06/05 Q1016
2026-04-04 05:20:00,METAR EGTK 040520Z 21007KT CAVOK 06/05 Q1016
2026-04-03 21:20:00,METAR EGTK 032120Z 23013KT CAVOK 10/08 Q1013
2026-04-03 20:50:00,METAR EGTK 032050Z 23012KT CAVOK 10/07 Q1012
2026-04-03 20:20:00,METAR EGTK 032020Z 23013KT CAVOK 10/07 Q1012
2026-04-03 19:50:00,METAR EGTK 031950Z 23012KT CAVOK 10/08 Q1011
2026-04-03 19:20:00,METAR EGTK 031920Z 23015KT CAVOK 11/08 Q1010
2026-04-03 18:50:00,METAR EGTK 031850Z 23018KT 9999 SCT018 11/08 Q1010
2026-04-03 18:20:00,METAR EGTK 031820Z 23019KT 9999 SCT018 12/08 Q1009
2026-04-03 17:50:00,METAR EGTK 031750Z 23022G32KT 9999 SCT018 12/09 Q1009
2026-04-03 17:20:00,METAR EGTK 031720Z 23022G33KT 9999 SCT018 13/10 Q1009
2026-04-03 16:50:00,METAR EGTK 031650Z 23022KT 9999 VCSH SCT018 BKN023 13/10 Q1008
2026-04-03 16:20:00,METAR EGTK 031620Z 23020KT 9999 BKN018 BKN024 14/10 Q1008
2026-04-03 15:50:00,METAR EGTK 031550Z 23022KT 9999 BKN016 BKN022 13/10 Q1008
2026-04-03 15:20:00,METAR EGTK 031520Z 23024G35KT 9999 BKN018 13/10 Q1008
2026-04-03 14:50:00,METAR EGTK 031450Z 22025G35KT 9999 BKN017 BKN023 14/10 Q1008
2026-04-03 14:20:00,METAR EGTK 031420Z 23022G32KT 9999 BKN017 BKN023 14/10 Q1008
2026-04-03 13:50:00,METAR EGTK 031350Z 23021G32KT 9999 BKN016 BKN020 14/10 Q1008
2026-04-03 13:20:00,METAR EGTK 031320Z 23020G31KT 9999 BKN017 BKN021 14/10 Q1008
2026-04-03 12:50:00,METAR EGTK 031250Z 23025KT 9999 BKN015 13/10 Q1008
2026-04-03 12:20:00,METAR EGTK 031220Z 23022KT 9999 BKN014 BKN019 14/11 Q1008
2026-04-03 11:50:00,METAR EGTK 031150Z 22020KT 9999 BKN012 BKN018 14/11 Q1008
2026-04-03 11:20:00,METAR EGTK 031120Z 22022KT 9999 BKN015 13/11 Q1008
2026-04-03 10:50:00,METAR EGTK 031050Z 22020G30KT 9999 BKN015 13/11 Q1008
2026-04-03 10:20:00,METAR EGTK 031020Z 22021KT 9999 BKN016 14/10 Q1009
2026-04-03 09:50:00,METAR EGTK 030950Z 22017KT 190V250 9999 BKN015 13/10 Q1009
2026-04-03 09:20:00,METAR EGTK 030920Z 22018G30KT 9999 BKN012 13/10 Q1009
2026-04-03 08:50:00,METAR EGTK 030850Z 20015KT 9999 BKN011 BKN016 12/10 Q1009
2026-04-03 08:20:00,METAR EGTK 030820Z 19013KT 160V220 9999 BKN011 BKN015 11/09 Q1009
2026-04-03 07:50:00,METAR EGTK 030750Z 19013KT 9999 -RA BKN009 10/09 Q1009
2026-04-03 07:20:00,METAR EGTK 030720Z 19014KT 9999 BKN008 OVC013 10/09 Q1010
2026-04-03 06:50:00,METAR EGTK 030650Z 19011KT 9999 BKN007 09/08 Q1010
2026-04-03 06:20:00,METAR EGTK 030620Z 18014KT 9000 BKN007 09/08 Q1010
2026-04-03 05:50:00,METAR EGTK 030550Z 19014KT 8000 BKN008 09/08 Q1010
2026-04-03 05:20:00,METAR EGTK 030520Z 19013KT 9999 OVC007 08/07 Q1011
2026-04-03 04:50:00,METAR EGTK 030450Z 19014KT 9999 OVC010 08/07 Q1011
2026-04-02 21:20:00,METAR EGTK 022120Z 24007KT 9999 SCT036 08/03 Q1017
2026-04-02 20:50:00,METAR EGTK 022050Z 22008KT 190V250 9999 SCT041 08/03 Q1017
2026-04-02 20:20:00,METAR EGTK 022020Z 19007KT 9999 FEW042 08/04 Q1018
2026-04-02 19:50:00,METAR EGTK 021950Z 19008KT 9999 FEW042 08/04 Q1018
2026-04-02 19:20:00,METAR EGTK 021920Z 18007KT 160V220 9999 FEW042 08/04 Q1018
2026-04-02 18:50:00,METAR EGTK 021850Z 16007KT 9999 FEW035 09/03 Q1018
2026-04-02 18:20:00,METAR EGTK 021820Z 17004KT 9999 FEW035 09/03 Q1019
2026-04-02 17:50:00,METAR EGTK 021750Z 19007KT 9999 FEW035 09/03 Q1019
2026-04-02 17:20:00,METAR EGTK 021720Z 18008KT CAVOK 10/03 Q1019
2026-04-02 16:50:00,METAR EGTK 021650Z 19006KT 160V220 CAVOK 10/03 Q1019
2026-04-02 16:20:00,METAR EGTK 021620Z 21008KT 9999 FEW042 11/02 Q1019
2026-04-02 15:50:00,METAR EGTK 021550Z 21006KT 180V260 9999 FEW040 11/02 Q1020
2026-04-02 15:20:00,METAR EGTK 021520Z 22007KT 170V240 9999 FEW036 11/02 Q1020
2026-04-02 14:50:00,METAR EGTK 021450Z 21008KT 180V250 9999 FEW036 11/02 Q1020
2026-04-02 14:20:00,METAR EGTK 021420Z 35003KT 300V030 9999 SCT037 11/02 Q1021
2026-04-02 13:50:00,METAR EGTK 021350Z 24004KT 170V310 9999 SCT035 10/01 Q1021
2026-04-02 13:20:00,METAR EGTK 021320Z 35003KT 260V070 9999 SCT034 11/02 Q1022
2026-04-02 12:50:00,METAR EGTK 021250Z 23004KT 180V270 9999 SCT032 10/02 Q1022
2026-04-02 12:20:00,METAR EGTK 021220Z 01004KT 330V060 9999 FEW028 SCT030 10/02 Q1022
2026-04-02 11:50:00,METAR EGTK 021150Z VRB02KT 9999 BKN029 08/02 Q1022
2026-04-02 11:20:00,METAR EGTK 021120Z 02004KT 320V070 9999 BKN028 08/02 Q1022
2026-04-02 10:50:00,METAR EGTK 021050Z 02006KT 330V050 9999 BKN026 08/02 Q1022
2026-04-02 10:20:00,METAR EGTK 021020Z 01007KT 340V050 9999 BKN026 07/02 Q1022
2026-04-02 09:50:00,METAR EGTK 020950Z 02008KT 9999 BKN023 07/02 Q1022
2026-04-02 09:20:00,METAR EGTK 020920Z 03009KT 360V060 9999 BKN028 07/02 Q1022
2026-04-02 08:50:00,METAR EGTK 020850Z 01007KT 9999 SCT018 BKN027 06/03 Q1022
2026-04-02 08:20:00,METAR EGTK 020820Z 02010KT 9999 SCT017 BKN025 06/03 Q1022
2026-04-02 07:50:00,METAR EGTK 020750Z 02006KT 350V050 9999 BKN014 BKN019 06/04 Q1022
2026-04-02 07:20:00,METAR EGTK 020720Z 34009KT 9999 SCT010 BKN026 06/04 Q1022
2026-04-02 06:50:00,METAR EGTK 020650Z VRB01KT 9999 SCT010 BKN026 05/04 Q1021
2026-04-02 06:20:00,METAR EGTK 020620Z 12001KT 9999 FEW014 SCT023 BKN031 03/02 Q1021
2026-04-02 05:50:00,METAR EGTK 020550Z 32004KT 9999 BKN031 03/02 Q1021
2026-04-02 05:20:00,METAR EGTK 020520Z 28004KT 9999 SCT019 03/02 Q1020
2026-04-02 04:50:00,METAR EGTK 020450Z 30004KT CAVOK 04/02 Q1020
2026-04-01 21:20:00,METAR EGTK 012120Z 24007KT 9999 SCT035 BKN042 10/07 Q1020
2026-04-01 20:50:00,METAR EGTK 012050Z 24008KT 9999 BKN042 10/07 Q1020
2026-04-01 20:20:00,METAR EGTK 012020Z 22007KT 9999 BKN041 10/07 Q1020
2026-04-01 19:50:00,METAR EGTK 011950Z 22008KT 9999 BKN043 10/07 Q1021
2026-04-01 19:20:00,METAR EGTK 011920Z 22007KT 9999 BKN040 10/07 Q1021
2026-04-01 18:50:00,METAR EGTK 011850Z 23007KT 9999 BKN040 10/06 Q1021
2026-04-01 18:20:00,METAR EGTK 011820Z 22006KT 9999 BKN037 10/06 Q1021
2026-04-01 17:50:00,METAR EGTK 011750Z 25006KT 9999 SCT035 BKN041 11/06 Q1021
2026-04-01 17:20:00,METAR EGTK 011720Z 24006KT 9999 SCT034 BKN039 11/06 Q1021
2026-04-01 16:50:00,METAR EGTK 011650Z 24005KT 9999 BKN035 11/05 Q1021
2026-04-01 16:20:00,METAR EGTK 011620Z 25007KT 220V280 9999 BKN040 12/05 Q1021
2026-04-01 15:50:00,METAR EGTK 011550Z 24008KT 9999 BKN040 12/05 Q1022
2026-04-01 15:20:00,METAR EGTK 011520Z 27009KT 240V300 9999 BKN042 12/05 Q1022
2026-04-01 14:50:00,METAR EGTK 011450Z 28009KT 9999 BKN044 12/05 Q1022
2026-04-01 13:50:00,METAR EGTK 011350Z 28006KT 240V300 9999 BKN045 12/05 Q1023
2026-04-01 13:20:00,METAR EGTK 011320Z 26008KT 9999 FEW029 BKN044 12/05 Q1023
2026-04-01 12:50:00,METAR EGTK 011250Z 28006KT 240V310 9999 SCT028 BKN035 12/06 Q1023
2026-04-01 12:20:00,METAR EGTK 011220Z 27006KT 9999 SCT024 BKN045 12/06 Q1024
2026-04-01 11:50:00,METAR EGTK 011150Z 29007KT 260V330 9999 SCT018 BKN045 12/05 Q1024
2026-04-01 11:20:00,METAR EGTK 011120Z 27006KT 240V320 9999 SCT018 BKN045 12/08 Q1024
2026-04-01 10:50:00,METAR EGTK 011050Z 25005KT 9999 BKN045 11/09 Q1025
2026-04-01 10:20:00,METAR EGTK 011020Z 23005KT 9999 BKN046 11/09 Q1025
2026-04-01 09:50:00,METAR EGTK 010950Z 24004KT 210V280 9000 BKN046 11/09 Q1025
2026-04-01 09:20:00,METAR EGTK 010920Z 22007KT 9999 SCT005 BKN044 10/09 Q1025
2026-04-01 08:50:00,METAR EGTK 010850Z 22006KT 8000 FEW004 BKN044 10/09 Q1025
2026-04-01 08:20:00,METAR EGTK 010820Z 22004KT 8000 FEW003 BKN044 09/09 Q1025
2026-04-01 07:50:00,METAR EGTK 010750Z 22004KT 5000 BR FEW004 OVC043 09/09 Q1026
2026-04-01 07:20:00,METAR EGTK 010720Z 23003KT 3000 BR SCT002 OVC043 08/08 Q1026
2026-04-01 06:50:00,METAR EGTK 010650Z 23004KT 2000 BR SCT002 BKN042 08/08 Q1026
2026-04-01 06:20:00,METAR EGTK 010620Z 23004KT 1800 BR BKN003 08/08 Q1026
2026-04-01 05:50:00,METAR EGTK 010550Z 23003KT 1200 R01/P1500D BR OVC042 08/08 Q1026
2026-04-01 05:20:00,METAR EGTK 010520Z 23003KT 4000 BR SCT003 BKN043 07/07 Q1026
2026-04-01 04:50:00,METAR EGTK 010450Z 23005KT 3100 BR FEW001 BKN042 07/07 Q1026
2026-03-31 21:20:00,METAR EGTK 312120Z 31007KT 9999 SCT040 11/07 Q1029
2026-03-31 20:50:00,METAR EGTK 312050Z 31006KT 9999 FEW043 BKN049 12/07 Q1029
2026-03-31 20:20:00,METAR EGTK 312020Z 29004KT 9999 SCT045 12/06 Q1029
2026-03-31 19:50:00,METAR EGTK 311950Z 31007KT CAVOK 12/07 Q1029
2026-03-31 19:20:00,METAR EGTK 311920Z 30006KT CAVOK 13/07 Q1029
2026-03-31 18:50:00,METAR EGTK 311850Z 31004KT CAVOK 14/07 Q1028
2026-03-31 18:20:00,METAR EGTK 311820Z 30006KT CAVOK 15/07 Q1028
2026-03-31 17:50:00,METAR EGTK 311750Z 29008KT CAVOK 16/06 Q1028
2026-03-31 17:20:00,METAR EGTK 311720Z 29011KT 9999 FEW048 17/06 Q1028
2026-03-31 16:50:00,METAR EGTK 311650Z 30008KT 9999 FEW048 17/08 Q1028
2026-03-31 16:20:00,METAR EGTK 311620Z 31008KT 260V350 9999 FEW040 17/09 Q1028
2026-03-31 15:50:00,METAR EGTK 311550Z 29009KT 260V320 9999 FEW041 17/09 Q1028
2026-03-31 15:20:00,METAR EGTK 311520Z 26012KT 9999 FEW040 18/09 Q1028
2026-03-31 14:50:00,METAR EGTK 311450Z 33009KT 9999 FEW044 17/08 Q1028
2026-03-31 14:20:00,METAR EGTK 311420Z 29011KT 9999 FEW038 17/09 Q1029
2026-03-31 13:50:00,METAR EGTK 311350Z 29011KT 260V320 9999 FEW034 17/09 Q1029
2026-03-31 13:20:00,METAR EGTK 311320Z 29012KT 270V330 9999 FEW034 17/10 Q1029
2026-03-31 12:50:00,METAR EGTK 311250Z 29011KT 260V330 9999 FEW030 17/10 Q1029
2026-03-31 12:20:00,METAR EGTK 311220Z 31011KT CAVOK 17/09 Q1030
2026-03-31 11:50:00,METAR EGTK 311150Z 30012KT 270V330 CAVOK 16/09 Q1030
2026-03-31 11:20:00,METAR EGTK 311120Z 30010KT 270V330 CAVOK 15/09 Q1030
2026-03-31 10:50:00,METAR EGTK 311050Z 30012KT 270V330 CAVOK 16/10 Q1030
2026-03-31 10:20:00,METAR EGTK 311020Z 30012KT 270V330 CAVOK 15/10 Q1030
2026-03-31 09:50:00,METAR EGTK 310950Z 31010KT 9999 SCT017 14/10 Q1030
2026-03-31 09:20:00,METAR EGTK 310920Z 30009KT 270V330 9999 SCT017 13/09 Q1030
2026-03-31 08:50:00,METAR EGTK 310850Z 29007KT 250V330 9999 BKN017 12/09 Q1030
2026-03-31 08:20:00,METAR EGTK 310820Z 28007KT 9999 BKN016 11/08 Q1030
2026-03-31 07:50:00,METAR EGTK 310750Z 28004KT 250V310 9999 BKN016 10/08 Q1030
2026-03-31 07:20:00,METAR EGTK 310720Z 27005KT 9999 BKN016 10/07 Q1030
2026-03-31 06:50:00,METAR EGTK 310650Z 25009KT 9999 BKN016 09/07 Q1029
2026-03-31 06:20:00,METAR EGTK 310620Z 25005KT 210V270 9999 BKN017 08/06 Q1029
2026-03-31 05:50:00,METAR EGTK 310550Z 24004KT 170V280 9999 SCT019 08/06 Q1029
2026-03-31 05:20:00,METAR EGTK 310520Z 23008KT 9999 FEW046 08/06 Q1029
2026-03-31 04:50:00,METAR EGTK 310450Z 23010KT 9999 -RA SCT020 08/06 Q1029
2026-03-30 21:20:00,METAR EGTK 302120Z 27004KT 9999 BKN048 08/03 Q1029
2026-03-30 20:50:00,METAR EGTK 302050Z 27004KT 9999 SCT037 BKN043 09/03 Q1029
2026-03-30 20:20:00,METAR EGTK 302020Z 29006KT 270V330 9999 BKN046 09/02 Q1028
2026-03-30 19:50:00,METAR EGTK 301950Z 30005KT 9999 SCT043 SCT048 08/02 Q1028
2026-03-30 19:20:00,METAR EGTK 301920Z 31004KT 9999 SCT045 08/02 Q1027
2026-03-30 18:50:00,METAR EGTK 301850Z 30009KT CAVOK 10/01 Q1027
2026-03-30 18:20:00,METAR EGTK 301820Z 31006KT 270V330 CAVOK 09/01 Q1027
2026-03-30 17:50:00,METAR EGTK 301750Z 32011KT CAVOK 10/01 Q1027
2026-03-30 17:20:00,METAR EGTK 301720Z 32014KT CAVOK 10/01 Q1026
2026-03-30 16:50:00,METAR EGTK 301650Z 32017KT 290V350 CAVOK 11/01 Q1026
2026-03-30 16:20:00,METAR EGTK 301620Z 32014KT 280V340 CAVOK 12/01 Q1026
2026-03-30 15:50:00,METAR EGTK 301550Z 30017G27KT CAVOK 11/00 Q1025
2026-03-30 15:20:00,METAR EGTK 301520Z 30015G25KT 9999 BKN049 12/01 Q1025
2026-03-30 14:50:00,METAR EGTK 301450Z 32016KT 290V350 9999 SCT049 11/01 Q1025
2026-03-30 14:20:00,METAR EGTK 301420Z 31015KT 270V340 9999 SCT048 12/01 Q1025
2026-03-30 13:50:00,METAR EGTK 301350Z 31017G28KT 270V350 9999 VCSH SCT048 12/02 Q1025
2026-03-30 13:20:00,METAR EGTK 301320Z 32018KT 9999 VCSH SCT048 11/01 Q1025
2026-03-30 12:50:00,METAR EGTK 301250Z 30016KT 9999 VCSH SCT048 11/02 Q1025
2026-03-30 12:20:00,METAR EGTK 301220Z 30015KT 9999 VCSH BKN038 11/02 Q1025
2026-03-30 11:50:00,METAR EGTK 301150Z 30013KT 270V330 9999 VCSH BKN038 10/03 Q1024
2026-03-30 11:20:00,METAR EGTK 301120Z 29016KT 9999 -SHRA BKN038 10/02 Q1024
2026-03-30 10:50:00,METAR EGTK 301050Z 29016KT 270V330 9999 VCSH BKN038 10/03 Q1024
2026-03-30 10:20:00,METAR EGTK 301020Z 28015KT 9999 SCT039 10/03 Q1024
2026-03-30 09:50:00,METAR EGTK 300950Z 27015KT 250V320 9000 FEW037 10/03 Q1024
2026-03-30 09:20:00,METAR EGTK 300920Z 27013KT 9000 FEW037 09/03 Q1024
2026-03-30 08:50:00,METAR EGTK 300850Z 28014KT 9000 NSC 09/03 Q1023
2026-03-30 08:20:00,METAR EGTK 300820Z 27012KT 9000 NSC 09/04 Q1023
2026-03-30 07:50:00,METAR EGTK 300750Z 25011KT 8000 FEW029 08/04 Q1023
2026-03-30 07:20:00,METAR EGTK 300720Z 25010KT 8000 FEW029 BKN048 07/03 Q1022
2026-03-30 06:50:00,METAR EGTK 300650Z 24008KT 9999 FEW029 BKN048 05/03 Q1022
2026-03-30 06:20:00,METAR EGTK 300620Z 24009KT 8000 FEW029 SCT036 04/02 Q1022
2026-03-30 05:50:00,METAR EGTK 300550Z 23011KT 8000 FEW003 04/02 Q1022
2026-03-30 05:20:00,METAR EGTK 300520Z 23011KT CAVOK 03/02 Q1021
2026-03-29 21:20:00,METAR EGTK 292120Z 23009KT CAVOK 08/07 Q1020
2026-03-29 20:50:00,METAR EGTK 292050Z 23011KT 9999 BKN014 08/07 Q1019
2026-03-29 20:20:00,METAR EGTK 292020Z 22011KT 9999 BKN014 09/07 Q1019
2026-03-29 19:50:00,METAR EGTK 291950Z 22014KT 9999 BKN014 09/07 Q1019
2026-03-29 19:20:00,METAR EGTK 291920Z 22015G25KT 9999 BKN014 09/07 Q1020
2026-03-29 18:50:00,METAR EGTK 291850Z 23017KT 9999 BKN014 09/07 Q1019
2026-03-29 18:20:00,METAR EGTK 291820Z 22018KT 9999 BKN013 09/07 Q1020
2026-03-29 17:50:00,METAR EGTK 291750Z 22020KT 9999 BKN013 09/07 Q1020
2026-03-29 17:20:00,METAR EGTK 291720Z 23022G33KT 190V250 9999 BKN013 BKN020 09/07 Q1020
2026-03-29 16:50:00,METAR EGTK 291650Z 23023G33KT 9999 BKN015 BKN020 09/07 Q1021
2026-03-29 16:20:00,METAR EGTK 291620Z 23020KT 9999 -RA BKN017 BKN023 09/07 Q1021
2026-03-29 15:20:00,METAR EGTK 291520Z 22022KT 9999 -RA SCT017 OVC019 08/06 Q1022
2026-03-29 14:50:00,METAR EGTK 291450Z 21019KT 9999 SCT017 OVC020 08/06 Q1023
2026-03-29 14:20:00,METAR EGTK 291420Z 21021KT 9999 VCSH SCT017 OVC022 08/06 Q1024
2026-03-29 13:50:00,METAR EGTK 291350Z 21019KT 9000 -RA BKN019 OVC025 08/06 Q1024
2026-03-29 13:20:00,METAR EGTK 291320Z 21018KT 8000 -RA SCT020 BKN025 08/06 Q1025
2026-03-29 12:50:00,METAR EGTK 291250Z 22016KT 6000 -RA SCT020 BKN025 08/06 Q1026
2026-03-29 12:20:00,METAR EGTK 291220Z 21017KT 9999 BKN021 08/04 Q1026
2026-03-29 11:50:00,METAR EGTK 291150Z 22018KT 9999 BKN021 08/04 Q1027
2026-03-29 11:20:00,METAR EGTK 291120Z 21017KT 9999 SCT023 BKN033 08/04 Q1028
2026-03-29 10:50:00,METAR EGTK 291050Z 22018KT 9999 FEW023 BKN036 08/04 Q1028
2026-03-29 10:20:00,METAR EGTK 291020Z 22015KT 9999 FEW022 08/04 Q1028
2026-03-29 09:50:00,METAR EGTK 290950Z 22012KT CAVOK 08/04 Q1029
2026-03-29 09:20:00,METAR EGTK 290920Z 23014KT CAVOK 07/03 Q1029
2026-03-29 08:50:00,METAR EGTK 290850Z 22012KT CAVOK 06/03 Q1029
2026-03-29 08:20:00,METAR EGTK 290820Z 22011KT CAVOK 05/02 Q1030
2026-03-29 07:50:00,METAR EGTK 290750Z 21009KT CAVOK 04/02 Q1030
2026-03-29 07:20:00,METAR EGTK 290720Z 22007KT CAVOK 04/02 Q1030
2026-03-29 06:50:00,METAR EGTK 290650Z 23008KT CAVOK 02/01 Q1030
2026-03-29 06:20:00,METAR EGTK 290620Z 22009KT CAVOK 02/00 Q1030
2026-03-29 05:50:00,METAR EGTK 290550Z 23008KT CAVOK 02/00 Q1030
2026-03-29 05:20:00,METAR EGTK 290520Z 24005KT CAVOK 01/M00 Q1030
2026-03-28 22:20:00,METAR EGTK 282220Z 28008KT CAVOK 03/M00 Q1031
2026-03-28 21:50:00,METAR EGTK 282150Z 28008KT CAVOK 03/M00 Q1031
2026-03-28 21:20:00,METAR EGTK 282120Z 27007KT CAVOK 04/M01 Q1030
2026-03-28 20:50:00,METAR EGTK 282050Z 27006KT CAVOK 04/M01 Q1030
2026-03-28 20:20:00,METAR EGTK 282020Z 29009KT 260V320 CAVOK 05/M01 Q1030
2026-03-28 19:50:00,METAR EGTK 281950Z 29010KT CAVOK 05/M01 Q1030
2026-03-28 19:20:00,METAR EGTK 281920Z 30011KT CAVOK 05/M01 Q1030
2026-03-28 18:50:00,METAR EGTK 281850Z 30012KT CAVOK 06/M01 Q1029
2026-03-28 18:20:00,METAR EGTK 281820Z 31013G23KT 9999 FEW042 07/M02 Q1029
2026-03-28 17:50:00,METAR EGTK 281750Z 31013KT 9999 SCT045 08/M02 Q1028
2026-03-28 17:20:00,METAR EGTK 281720Z 32015KT 9999 SCT045 08/M03 Q1027
2026-03-28 16:50:00,METAR EGTK 281650Z 30017G29KT 270V330 9999 VCSH SCT045 09/M03 Q1027
2026-03-28 16:20:00,METAR EGTK 281620Z 31014KT 9999 VCSH SCT045CB 09/M01 Q1026
2026-03-28 15:50:00,METAR EGTK 281550Z 31015KT 9999 VCSH SCT045CB 09/M01 Q1026
2026-03-28 15:20:00,METAR EGTK 281520Z 31016KT 270V330 9999 VCSH SCT045CB 09/M00 Q1026
2026-03-28 14:50:00,METAR EGTK 281450Z 29012KT 260V330 9999 VCSH SCT040CB 09/01 Q1026
2026-03-28 14:20:00,METAR EGTK 281420Z 28011KT 260V320 9999 -SHRA SCT025CB SCT040 06/00 Q1026
2026-03-28 13:50:00,METAR EGTK 281350Z 33016KT 300V360 9999 -SHRA FEW018CB 08/M01 Q1025
2026-03-28 13:20:00,METAR EGTK 281320Z 28016KT 250V320 9999 VCSH FEW048TCU 10/M01 Q1025
2026-03-28 12:50:00,METAR EGTK 281250Z 28017KT 9999 FEW048 10/M02 Q1025
2026-03-28 12:20:00,METAR EGTK 281220Z 30015KT 270V330 9999 SCT042 09/M01 Q1025
2026-03-28 11:50:00,METAR EGTK 281150Z 29014KT 250V310 9999 SCT042 10/M01 Q1024
2026-03-28 11:20:00,METAR EGTK 281120Z 29017KT 9999 SCT042 09/M02 Q1024
2026-03-28 10:50:00,METAR EGTK 281050Z 30016KT 9999 SCT040 08/M01 Q1024
2026-03-28 10:20:00,METAR EGTK 281020Z 29016KT 9999 SCT036 08/00 Q1024
2026-03-28 09:50:00,METAR EGTK 280950Z 29014KT 250V310 9999 FEW030 08/00 Q1024
2026-03-28 09:20:00,METAR EGTK 280920Z 28014KT 260V320 9999 FEW033 07/00 Q1024
2026-03-28 08:50:00,METAR EGTK 280850Z 29015KT 9999 FEW020 07/00 Q1024
2026-03-28 08:20:00,METAR EGTK 280820Z 27014KT CAVOK 06/01 Q1023
2026-03-28 07:50:00,METAR EGTK 280750Z 26011KT CAVOK 05/01 Q1023
2026-03-28 07:20:00,METAR EGTK 280720Z 24010KT CAVOK 03/01 Q1023
2026-03-28 06:50:00,METAR EGTK 280650Z 23008KT CAVOK 01/00 Q1023
2026-03-28 06:20:00,METAR EGTK 280620Z 23006KT CAVOK 01/M01 Q1023
2026-03-28 05:50:00,METAR EGTK 280550Z 23009KT CAVOK 00/M01 Q1022
2026-03-27 22:20:00,METAR EGTK 272220Z 28008KT CAVOK 07/02 Q1019
2026-03-27 21:50:00,METAR EGTK 272150Z 27009KT CAVOK 06/02 Q1019
2026-03-27 21:20:00,METAR EGTK 272120Z 27006KT CAVOK 05/01 Q1019
2026-03-27 20:50:00,METAR EGTK 272050Z 27007KT CAVOK 06/01 Q1019
2026-03-27 20:20:00,METAR EGTK 272020Z 27007KT CAVOK 06/01 Q1018
2026-03-27 19:50:00,METAR EGTK 271950Z 27008KT 9999 FEW039 07/02 Q1018
2026-03-27 19:20:00,METAR EGTK 271920Z 28007KT 9999 FEW040 08/02 Q1018
2026-03-27 18:50:00,METAR EGTK 271850Z 28008KT 9999 SCT040 09/03 Q1018
2026-03-27 18:20:00,METAR EGTK 271820Z 29012KT 9999 VCSH SCT030 SCT037 09/04 Q1017
2026-03-27 17:50:00,METAR EGTK 271750Z 28013KT 9999 VCSH FEW037 SCT043 10/05 Q1017
2026-03-27 17:20:00,METAR EGTK 271720Z 28011KT 9999 VCSH FEW021 SCT037 10/07 Q1017
2026-03-27 16:20:00,METAR EGTK 271620Z COR 28013KT 9999 VCSH FEW019 SCT037 11/08 Q1017
2026-03-25 14:50:00,METAR EGTK 251450Z 28017G27KT 9999 VCSH SCT045CB 08/M00 Q1011
2026-03-25 14:20:00,METAR EGTK 251420Z 29017KT 9999 VCSH SCT045CB 08/M01 Q1011
2026-03-25 13:50:00,METAR EGTK 251350Z 29017G30KT 260V320 9999 VCSH FEW024 SCT041CB 07/M01 Q1011
2026-03-25 13:20:00,METAR EGTK 251320Z 29021KT 9999 VCSH FEW037CB SCT047 08/M01 Q1011
2026-03-25 12:50:00,METAR EGTK 251250Z 28016G29KT 9999 VCSH FEW037CB SCT047 08/M01 Q1010
2026-03-25 12:20:00,METAR EGTK 251220Z 28017KT 9999 SCT046 08/M02 Q1010
2026-03-25 11:50:00,METAR EGTK 251150Z 29017G27KT 260V320 9999 SCT046 08/M02 Q1010
2026-03-25 11:20:00,METAR EGTK 251120Z 29020G30KT 9999 SCT046 07/M02 Q1010
2026-03-25 10:50:00,METAR EGTK 251050Z 28019KT 9999 SCT042 08/M01 Q1010
2026-03-25 10:20:00,METAR EGTK 251020Z 28020G30KT 9999 SCT038 SCT045 08/M01 Q1009
2026-03-25 09:50:00,METAR EGTK 250950Z 28017G32KT 9999 SCT020 07/01 Q1009
2026-03-25 09:20:00,METAR EGTK 250920Z 27018KT 9999 SCT022 06/01 Q1009
2026-03-25 08:50:00,METAR EGTK 250850Z 28015KT 9999 FEW022 SCT032 06/02 Q1009
2026-03-25 08:20:00,METAR EGTK 250820Z 29014KT 9999 -RA FEW022 SCT028 BKN044 05/02 Q1008
2026-03-25 07:50:00,METAR EGTK 250750Z 28016KT 9999 VCSH SCT019 BKN024 BKN033 05/02 Q1007
2026-03-25 07:20:00,METAR EGTK 250720Z 27013KT 9999 -RA FEW028 05/02 Q1007
2026-03-25 06:50:00,METAR EGTK 250650Z 26011KT 9999 VCSH FEW019CB 05/02 Q1006
2026-03-25 06:20:00,METAR EGTK 250620Z 27013KT 9999 -RA FEW019 BKN049 05/02 Q1005
2026-03-25 05:50:00,METAR EGTK 250550Z COR 27011KT 9999 FEW023 BKN044 05/03 Q1005
2026-03-25 05:20:00,METAR EGTK 250520Z 29011KT 9999 -RA SCT019 BKN025 BKN031 05/03 Q1004
2026-03-24 22:20:00,METAR EGTK 242220Z 24018KT 9999 FEW046 08/04 Q1002
2026-03-24 21:50:00,METAR EGTK 242150Z 24018KT CAVOK 09/05 Q1001
2026-03-24 21:20:00,METAR EGTK 242120Z 23021KT 9999 FEW020 SCT029 09/07 Q1001
2026-03-24 20:50:00,METAR EGTK 242050Z 23022KT 9999 -RA FEW014 BKN032 10/08 Q1001 RERA
2026-03-24 20:20:00,METAR EGTK 242020Z 21024G37KT 3000 RA SCT011 BKN016 10/09 Q1001
2026-03-24 19:50:00,METAR EGTK 241950Z 21022KT 9000 -RA BKN011 BKN021 10/09 Q1002
2026-03-24 19:20:00,METAR EGTK 241920Z 21023KT 6000 -RA BKN017 11/09 Q1002
2026-03-24 18:50:00,METAR EGTK 241850Z 20020KT 9999 VCSH BKN019 11/09 Q1003
2026-03-24 18:20:00,METAR EGTK 241820Z 20021KT 9999 VCSH SCT018 BKN031 11/09 Q1003
2026-03-24 17:50:00,METAR EGTK 241750Z 20017KT 9999 SCT007 SCT011 11/10 Q1004
2026-03-24 17:20:00,METAR EGTK 241720Z 20015KT 9999 VCSH SCT007 BKN011 11/10 Q1005
2026-03-24 16:50:00,METAR EGTK 241650Z 20016KT 7000 -RA SCT007 BKN010 11/10 Q1006
2026-03-24 16:20:00,METAR EGTK 241620Z 21021G34KT 7000 -RA SCT007 BKN010 11/10 Q1007
2026-03-24 15:50:00,METAR EGTK 241550Z 21020G31KT 9999 OVC017 12/09 Q1007
2026-03-24 15:20:00,METAR EGTK 241520Z 21020KT 9999 BKN018 13/09 Q1008
2026-03-24 14:50:00,METAR EGTK 241450Z 21020KT 9999 BKN015 12/09 Q1009
2026-03-24 14:20:00,METAR EGTK 241420Z 20019G29KT 9999 BKN012 12/09 Q1009
2026-03-24 13:50:00,METAR EGTK 241350Z 20018KT 9999 BKN011 11/09 Q1010
2026-03-24 13:20:00,METAR EGTK 241320Z 20016KT 9999 BKN011 11/09 Q1011
2026-03-24 12:50:00,METAR EGTK 241250Z 20018KT 9999 BKN013 11/09 Q1011
2026-03-24 12:20:00,METAR EGTK 241220Z 21018KT 9999 BKN013 11/09 Q1012
2026-03-24 11:50:00,METAR EGTK 241150Z 21019KT 9999 BKN013 11/09 Q1013
2026-03-24 11:20:00,METAR EGTK 241120Z 21019KT 9999 BKN014 12/09 Q1013
2026-03-24 10:50:00,METAR EGTK 241050Z 21018KT 9999 OVC012 11/08 Q1014
2026-03-24 10:20:00,METAR EGTK 241020Z 21018KT 9999 BKN010 11/08 Q1014
2026-03-24 09:50:00,METAR EGTK 240950Z 21014KT 9999 BKN010 10/08 Q1014
2026-03-24 09:20:00,METAR EGTK 240920Z 21014KT 9999 OVC008 10/08 Q1014
2026-03-24 08:50:00,METAR EGTK 240850Z 21017KT 9000 BKN007 10/09 Q1014
2026-03-24 08:20:00,METAR EGTK 240820Z 22016KT 9999 BKN008 10/08 Q1015
2026-03-24 07:50:00,METAR EGTK 240750Z 22017KT 9999 BKN009 10/08 Q1015
2026-03-24 07:20:00,METAR EGTK 240720Z 22016KT 9999 BKN009 10/08 Q1015
2026-03-24 06:50:00,METAR EGTK 240650Z 21018KT 9000 OVC009 09/07 Q1015
2026-03-24 06:20:00,METAR EGTK 240620Z 21016KT 9000 OVC009 09/07 Q1015
2026-03-23 22:20:00,METAR EGTK 232220Z 21007KT CAVOK 08/07 Q1018
2026-03-23 21:50:00,METAR EGTK 232150Z 21006KT CAVOK 09/06 Q1019
2026-03-23 21:20:00,METAR EGTK 232120Z 21007KT CAVOK 09/06 Q1019
2026-03-23 20:50:00,METAR EGTK 232050Z 22003KT CAVOK 09/05 Q1019
2026-03-23 20:20:00,METAR EGTK 232020Z 21006KT CAVOK 08/05 Q1019
2026-03-23 19:50:00,METAR EGTK 231950Z 24006KT CAVOK 10/06 Q1019
2026-03-23 19:20:00,METAR EGTK 231920Z 24007KT CAVOK 11/06 Q1019
2026-03-23 18:50:00,METAR EGTK 231850Z 23008KT CAVOK 11/06 Q1019
2026-03-23 18:20:00,METAR EGTK 231820Z 22007KT CAVOK 11/06 Q1019
2026-03-23 17:50:00,METAR EGTK 231750Z 21008KT 9999 FEW032 12/06 Q1019
2026-03-23 17:20:00,METAR EGTK 231720Z 21008KT 9999 FEW032 12/07 Q1019
2026-03-23 16:50:00,METAR EGTK 231650Z 22009KT 9999 FEW032 13/07 Q1019
2026-03-23 16:20:00,METAR EGTK 231620Z 23010KT 9999 SCT033 13/07 Q1019
2026-03-23 15:50:00,METAR EGTK 231550Z 23011KT 9999 BKN033 13/07 Q1019
2026-03-23 15:20:00,METAR EGTK 231520Z 24006KT 7000 BKN030 13/07 Q1020
2026-03-23 14:50:00,METAR EGTK 231450Z 21008KT 7000 BKN029 13/07 Q1020
2026-03-23 14:20:00,METAR EGTK 231420Z COR 22007KT 7000 BKN029 13/07 Q1020
2026-03-23 13:50:00,METAR EGTK 231350Z 22007KT 7000 SCT028 13/07 Q1020
2026-03-23 13:20:00,METAR EGTK 231320Z 22006KT 180V250 5000 HZ SCT025 13/08 Q1020
2026-03-23 12:50:00,METAR EGTK 231250Z 18006KT 150V210 5000 HZ SCT031 13/07 Q1020
2026-03-23 12:20:00,METAR EGTK 231220Z 22005KT 170V260 6000 SCT022 12/07 Q1020
2026-03-23 11:50:00,METAR EGTK 231150Z 24004KT 200V270 7000 SCT020 12/07 Q1021
2026-03-23 11:20:00,METAR EGTK 231120Z 19003KT 120V260 7000 FEW014 11/07 Q1021
2026-03-23 10:50:00,METAR EGTK 231050Z 12003KT 080V170 7000 FEW012 11/07 Q1021
2026-03-23 10:20:00,METAR EGTK 231020Z VRB02KT 7000 FEW010 10/07 Q1021
2026-03-23 09:50:00,METAR EGTK 230950Z 08004KT 7000 FEW010 09/07 Q1021
2026-03-23 09:20:00,METAR EGTK 230920Z 02003KT 350V050 7000 SCT010 09/06 Q1021
2026-03-23 08:50:00,METAR EGTK 230850Z VRB01KT 8000 FEW010 08/06 Q1021
2026-03-23 08:20:00,METAR EGTK 230820Z 35001KT 8000 BKN029 07/06 Q1021
2026-03-23 07:50:00,METAR EGTK 230750Z 34001KT 8000 OVC029 07/06 Q1020
2026-03-23 07:20:00,METAR EGTK 230720Z VRB02KT 8000 BKN027 06/05 Q1020
2026-03-23 06:50:00,METAR EGTK 230650Z 32003KT 8000 BKN023 06/05 Q1020
2026-03-23 06:20:00,METAR EGTK 230620Z 31003KT 7000 BKN019 05/04 Q1020
2026-03-22 22:20:00,METAR EGTK 222220Z 32005KT 9999 SCT035 08/05 Q1018
2026-03-22 21:50:00,METAR EGTK 222150Z 34003KT 9999 BKN029 09/05 Q1018
2026-03-22 21:20:00,METAR EGTK 222120Z 35002KT 9999 BKN029 08/05 Q1017
2026-03-22 20:50:00,METAR EGTK 222050Z 36004KT 9999 SCT030 08/06 Q1017
2026-03-22 20:20:00,METAR EGTK 222020Z 35003KT 9999 SCT034 09/05 Q1017
2026-03-22 19:50:00,METAR EGTK 221950Z 34002KT 9999 FEW032 09/05 Q1017
2026-03-22 19:20:00,METAR EGTK 221920Z 34002KT CAVOK 10/05 Q1017
2026-03-22 18:50:00,METAR EGTK 221850Z 01002KT CAVOK 10/05 Q1016
2026-03-22 18:20:00,METAR EGTK 221820Z 06003KT CAVOK 10/05 Q1016
2026-03-22 17:50:00,METAR EGTK 221750Z 08004KT CAVOK 10/05 Q1016
2026-03-22 17:20:00,METAR EGTK 221720Z 09005KT CAVOK 11/06 Q1015
2026-03-22 16:50:00,METAR EGTK 221650Z 09005KT CAVOK 11/05 Q1015
2026-03-22 16:20:00,METAR EGTK 221620Z 09005KT CAVOK 12/05 Q1015
2026-03-22 15:50:00,METAR EGTK 221550Z 09006KT 9999 FEW035 12/05 Q1015
2026-03-22 15:20:00,METAR EGTK 221520Z 09005KT 9999 FEW035 12/05 Q1015
2026-03-22 14:50:00,METAR EGTK 221450Z 10006KT 070V130 CAVOK 12/05 Q1015
2026-03-22 14:20:00,METAR EGTK 221420Z 07004KT 030V110 CAVOK 12/05 Q1015
2026-03-22 13:50:00,METAR EGTK 221350Z 10005KT 060V150 CAVOK 12/05 Q1015
2026-03-22 13:20:00,METAR EGTK 221320Z VRB03KT CAVOK 13/05 Q1016
2026-03-22 12:50:00,METAR EGTK 221250Z VRB02KT CAVOK 13/04 Q1016
2026-03-22 12:20:00,METAR EGTK 221220Z 34004KT 290V040 CAVOK 12/04 Q1016
2026-03-22 11:50:00,METAR EGTK 221150Z VRB01KT CAVOK 12/03 Q1016
2026-03-22 11:20:00,METAR EGTK 221120Z VRB02KT CAVOK 11/03 Q1016
2026-03-22 10:50:00,METAR EGTK 221050Z VRB02KT CAVOK 10/03 Q1016
2026-03-22 10:20:00,METAR EGTK 221020Z VRB01KT 9999 FEW023 09/04 Q1016
2026-03-22 09:50:00,METAR EGTK 220950Z VRB01KT CAVOK 08/04 Q1017
2026-03-22 09:20:00,METAR EGTK 220920Z VRB01KT CAVOK 06/03 Q1016
2026-03-22 08:50:00,METAR EGTK 220850Z 01001KT CAVOK 05/03 Q1017
2026-03-22 08:20:00,METAR EGTK 220820Z VRB02KT CAVOK 03/01 Q1017
2026-03-22 07:50:00,METAR EGTK 220750Z 36001KT CAVOK 02/00 Q1016
2026-03-22 07:20:00,METAR EGTK 220720Z 36002KT CAVOK 01/M00 Q1016
2026-03-22 06:50:00,METAR EGTK 220650Z 36003KT CAVOK M02/M03 Q1016
2026-03-22 06:20:00,METAR EGTK 220620Z 03003KT CAVOK M02/M03 Q1016
2026-03-21 22:20:00,METAR EGTK 212220Z 31002KT CAVOK 01/M01 Q1017
2026-03-21 21:50:00,METAR EGTK 212150Z 33004KT CAVOK 03/M01 Q1018
2026-03-21 21:20:00,METAR EGTK 212120Z 36003KT CAVOK 03/M02 Q1018
2026-03-21 20:50:00,METAR EGTK 212050Z 34004KT CAVOK 05/M02 Q1018
2026-03-21 20:20:00,METAR EGTK 212020Z 35003KT 320V020 CAVOK 07/M02 Q1018
2026-03-21 19:50:00,METAR EGTK 211950Z 01003KT CAVOK 08/M02 Q1018
2026-03-21 19:20:00,METAR EGTK 211920Z 01003KT CAVOK 08/M02 Q1018
2026-03-21 18:50:00,METAR EGTK 211850Z 07003KT CAVOK 09/M02 Q1018
2026-03-21 18:20:00,METAR EGTK 211820Z 06004KT CAVOK 09/M02 Q1018
2026-03-21 17:50:00,METAR EGTK 211750Z 08004KT CAVOK 10/M00 Q1018
2026-03-21 17:20:00,METAR EGTK 211720Z 08004KT CAVOK 11/M01 Q1017
2026-03-21 16:50:00,METAR EGTK 211650Z 07006KT CAVOK 12/M03 Q1017
2026-03-21 16:20:00,METAR EGTK 211620Z 04006KT CAVOK 13/M04 Q1017
2026-03-21 15:50:00,METAR EGTK 211550Z 02006KT 350V080 CAVOK 13/M03 Q1018
2026-03-21 14:50:00,METAR EGTK 211450Z 01005KT 340V060 CAVOK 13/M04 Q1018
2026-03-21 14:20:00,METAR EGTK 211420Z 03006KT 350V070 CAVOK 13/M04 Q1018
2026-03-21 13:50:00,METAR EGTK 211350Z 06006KT 020V120 CAVOK 13/M01 Q1018
2026-03-21 13:20:00,METAR EGTK 211320Z 04006KT 350V100 CAVOK 13/M00 Q1019
2026-03-21 12:50:00,METAR EGTK 211250Z 06006KT 030V140 CAVOK 12/02 Q1019
2026-03-21 12:20:00,METAR EGTK 211220Z 08006KT 030V120 CAVOK 11/04 Q1019
2026-03-21 11:50:00,METAR EGTK 211150Z 08008KT CAVOK 11/04 Q1019
2026-03-21 11:20:00,METAR EGTK 211120Z 06007KT 350V120 CAVOK 11/04 Q1020
2026-03-21 10:50:00,METAR EGTK 211050Z 06005KT 030V100 CAVOK 10/05 Q1020
2026-03-21 10:20:00,METAR EGTK 211020Z 08004KT 010V140 CAVOK 09/05 Q1020
2026-03-21 09:50:00,METAR EGTK 210950Z 03004KT 330V080 CAVOK 08/04 Q1020
2026-03-21 09:20:00,METAR EGTK 210920Z 05003KT 020V080 9999 FEW016 07/04 Q1020
2026-03-21 08:50:00,METAR EGTK 210850Z VRB02KT 9999 FEW017 06/04 Q1020
2026-03-21 08:20:00,METAR EGTK 210820Z 03001KT 9999 SCT018 04/03 Q1020
2026-03-21 07:50:00,METAR EGTK 210750Z 02003KT 9000 SCT017 03/02 Q1020
2026-03-21 07:20:00,METAR EGTK 210720Z 33004KT 9000 FEW018 01/01 Q1020
2026-03-21 06:50:00,METAR EGTK 210650Z 36003KT 9000 MIFG FEW018 M00/M01 Q1020
2026-03-21 06:20:00,METAR EGTK 210620Z 34003KT 8000 MIFG NSC 01/00 Q1020
2026-03-21 05:50:00,METAR EGTK 210550Z 35003KT 8000 R01/1200U MIFG NSC 01/00 Q1020
2026-03-20 22:50:00,METAR EGTK 202250Z 02006KT 7000 FEW016 05/05 Q1020
2026-03-20 22:20:00,METAR EGTK 202220Z 02006KT 7000 FEW016 05/04 Q1020
2026-03-20 21:50:00,METAR EGTK 202150Z 36003KT 8000 NSC 07/05 Q1020
2026-03-20 21:20:00,METAR EGTK 202120Z 36003KT 8000 NSC 07/05 Q1021
2026-03-20 20:50:00,METAR EGTK 202050Z 02003KT 9000 NSC 07/05 Q1020
2026-03-20 20:20:00,METAR EGTK 202020Z 01004KT CAVOK 08/05 Q1020
2026-03-20 19:50:00,METAR EGTK 201950Z 01004KT CAVOK 08/05 Q1020
2026-03-20 19:20:00,METAR EGTK 201920Z 02003KT CAVOK 09/05 Q1020
2026-03-20 18:50:00,METAR EGTK 201850Z 02003KT CAVOK 09/05 Q1020
2026-03-20 18:20:00,METAR EGTK 201820Z 01004KT CAVOK 10/05 Q1020
2026-03-20 17:50:00,METAR EGTK 201750Z 04003KT CAVOK 10/05 Q1020
2026-03-20 17:20:00,METAR EGTK 201720Z 04005KT 020V080 CAVOK 11/05 Q1020
2026-03-20 16:50:00,METAR EGTK 201650Z 04006KT CAVOK 12/05 Q1020
2026-03-20 16:20:00,METAR EGTK 201620Z 05007KT 020V080 CAVOK 12/06 Q1020
2026-03-20 15:50:00,METAR EGTK 201550Z 05006KT 030V090 CAVOK 12/05 Q1020
2026-03-20 15:20:00,METAR EGTK 201520Z 05006KT 010V080 9000 NSC 12/05 Q1021
2026-03-20 14:50:00,METAR EGTK 201450Z 03006KT 350V060 9000 NSC 12/04 Q1021
2026-03-20 14:20:00,METAR EGTK 201420Z 06006KT 030V090 9000 NSC 12/04 Q1021
2026-03-20 13:50:00,METAR EGTK 201350Z 04005KT 350V080 9000 NSC 12/05 Q1022
2026-03-20 13:20:00,METAR EGTK 201320Z 05004KT 340V080 9000 NSC 11/06 Q1022
2026-03-20 12:50:00,METAR EGTK 201250Z 05004KT 360V100 9000 NSC 10/06 Q1022
2026-03-20 12:20:00,METAR EGTK 201220Z 02005KT 340V050 9000 NSC 09/05 Q1023
2026-03-20 11:50:00,METAR EGTK 201150Z 05006KT 010V080 9000 NSC 08/05 Q1023
2026-03-20 11:20:00,METAR EGTK 201120Z 04008KT 360V060 9000 FEW010 07/05 Q1023
2026-03-20 10:50:00,METAR EGTK 201050Z 04006KT 350V070 6000 BKN006 06/05 Q1023
2026-03-20 10:20:00,METAR EGTK 201020Z 02005KT 350V050 4500 BR BKN005 05/05 Q1024
2026-03-20 09:50:00,METAR EGTK 200950Z 03005KT 3900 BR OVC003 04/04 Q1024
2026-03-20 09:20:00,METAR EGTK 200920Z 03007KT 2100 BR BKN002 04/04 Q1024
2026-03-20 08:50:00,METAR EGTK 200850Z 04005KT 0350 R01/0325N FG OVC002 02/02 Q1024
2026-03-20 08:20:00,METAR EGTK 200820Z VRB02KT 0200 R01/0300N FG OVC002 02/02 Q1024
2026-03-20 07:50:00,METAR EGTK 200750Z 01004KT 0200 R01/0325N FG OVC002 01/01 Q1024
2026-03-20 07:20:00,METAR EGTK 200720Z 01004KT 0350 R01/0400N FG BKN002 01/01 Q1024
2026-03-20 06:50:00,METAR EGTK 200650Z 02005KT 0450 R01/P1500N FG 00/00 Q1024
2026-03-20 06:20:00,METAR EGTK 200620Z 01004KT 3000 BR 00/M00 Q1024
2026-03-20 05:50:00,METAR EGTK 200550Z 01004KT 4500 BR 01/00 Q1023
2026-03-19 22:20:00,METAR EGTK 192220Z 02004KT CAVOK 07/02 Q1025
2026-03-19 21:50:00,METAR EGTK 192150Z 01004KT CAVOK 07/02 Q1025
2026-03-19 21:20:00,METAR EGTK 192120Z 03005KT CAVOK 08/02 Q1025
2026-03-19 20:50:00,METAR EGTK 192050Z 03006KT CAVOK 09/03 Q1025
2026-03-19 20:20:00,METAR EGTK 192020Z 04007KT CAVOK 09/04 Q1025
2026-03-19 19:50:00,METAR EGTK 191950Z 04009KT CAVOK 10/05 Q1025
2026-03-19 19:20:00,METAR EGTK 191920Z 02008KT CAVOK 09/04 Q1025
2026-03-19 18:50:00,METAR EGTK 191850Z 02006KT CAVOK 09/04 Q1025
2026-03-19 18:20:00,METAR EGTK 191820Z 03006KT CAVOK 11/04 Q1025
2026-03-19 17:50:00,METAR EGTK 191750Z 04006KT CAVOK 13/04 Q1025
2026-03-19 17:20:00,METAR EGTK 191720Z 05007KT CAVOK 14/04 Q1025
2026-03-19 16:50:00,METAR EGTK 191650Z 06008KT CAVOK 15/05 Q1024
2026-03-19 16:20:00,METAR EGTK 191620Z 06009KT CAVOK 15/04 Q1024
2026-03-19 15:50:00,METAR EGTK 191550Z 07008KT 030V090 CAVOK 16/04 Q1024
2026-03-19 15:20:00,METAR EGTK 191520Z 05009KT 010V080 CAVOK 16/05 Q1025
2026-03-19 14:50:00,METAR EGTK 191450Z 05009KT 010V090 CAVOK 16/04 Q1025
2026-03-19 14:20:00,METAR EGTK 191420Z 06009KT CAVOK 16/05 Q1025
2026-03-19 13:50:00,METAR EGTK 191350Z 07007KT CAVOK 16/04 Q1025
2026-03-19 13:20:00,METAR EGTK 191320Z 08008KT 040V110 CAVOK 15/06 Q1026
2026-03-19 12:50:00,METAR EGTK 191250Z 09010KT 060V130 CAVOK 15/04 Q1026
2026-03-19 12:20:00,METAR EGTK 191220Z 07011KT CAVOK 15/04 Q1026
2026-03-19 11:50:00,METAR EGTK 191150Z 10010KT CAVOK 14/05 Q1027
2026-03-19 11:20:00,METAR EGTK 191120Z 08008KT 040V110 CAVOK 14/05 Q1027
2026-03-19 10:50:00,METAR EGTK 191050Z 08006KT 040V150 CAVOK 13/05 Q1027
2026-03-19 10:20:00,METAR EGTK 191020Z 05005KT 010V080 CAVOK 12/05 Q1027
2026-03-19 09:50:00,METAR EGTK 190950Z 04005KT 360V080 CAVOK 11/06 Q1027
2026-03-19 09:20:00,METAR EGTK 190920Z 01005KT CAVOK 09/05 Q1027
2026-03-19 08:50:00,METAR EGTK 190850Z 03005KT 350V070 CAVOK 08/04 Q1027
2026-03-19 08:20:00,METAR EGTK 190820Z 02004KT CAVOK 06/03 Q1027
2026-03-19 07:50:00,METAR EGTK 190750Z 36005KT CAVOK 04/02 Q1027
2026-03-19 07:20:00,METAR EGTK 190720Z 02005KT CAVOK 02/01 Q1027
2026-03-19 06:50:00,METAR EGTK 190650Z 36004KT CAVOK 02/00 Q1027
2026-03-19 06:20:00,METAR EGTK 190620Z 01004KT CAVOK 02/01 Q1026
2026-03-19 05:50:00,METAR EGTK 190550Z 36004KT CAVOK 02/01 Q1026
2026-03-18 22:20:00,METAR EGTK 182220Z 07005KT CAVOK 06/02 Q1025
2026-03-18 21:50:00,METAR EGTK 182150Z 05006KT CAVOK 07/03 Q1024
2026-03-18 21:20:00,METAR EGTK 182120Z 05008KT CAVOK 08/03 Q1024
2026-03-18 20:50:00,METAR EGTK 182050Z 06007KT CAVOK 08/04 Q1024
2026-03-18 20:20:00,METAR EGTK 182020Z 06009KT CAVOK 09/05 Q1023
2026-03-18 19:50:00,METAR EGTK 181950Z 06010KT CAVOK 11/07 Q1023
2026-03-18 19:20:00,METAR EGTK 181920Z 07009KT CAVOK 12/08 Q1023
2026-03-18 18:50:00,METAR EGTK 181850Z 06008KT CAVOK 13/07 Q1022
2026-03-18 18:20:00,METAR EGTK 181820Z 07007KT CAVOK 13/07 Q1022
2026-03-18 17:50:00,METAR EGTK 181750Z 06009KT CAVOK 15/07 Q1021
2026-03-18 17:20:00,METAR EGTK 181720Z 07007KT CAVOK 16/08 Q1021
2026-03-18 16:50:00,METAR EGTK 181650Z 08007KT 9999 NSC 18/08 Q1021
2026-03-18 16:20:00,METAR EGTK 181620Z 09006KT 060V130 CAVOK 18/08 Q1020
2026-03-18 15:50:00,METAR EGTK 181550Z 08009KT CAVOK 18/08 Q1020
2026-03-18 15:20:00,METAR EGTK 181520Z 10008KT CAVOK 18/08 Q1020
2026-03-18 14:50:00,METAR EGTK 181450Z 11010KT CAVOK 18/08 Q1020
2026-03-18 14:20:00,METAR EGTK 181420Z 11008KT 070V140 CAVOK 18/07 Q1020
2026-03-18 13:50:00,METAR EGTK 181350Z 11010KT CAVOK 18/07 Q1020
2026-03-18 13:20:00,METAR EGTK 181320Z 10009KT 080V150 CAVOK 18/07 Q1020
2026-03-18 12:50:00,METAR EGTK 181250Z 14010KT 090V160 CAVOK 18/08 Q1020
2026-03-18 12:20:00,METAR EGTK 181220Z 11009KT 080V140 CAVOK 17/08 Q1020
2026-03-18 11:50:00,METAR EGTK 181150Z 12009KT 100V170 CAVOK 16/08 Q1020
2026-03-18 11:20:00,METAR EGTK 181120Z 13010KT CAVOK 16/08 Q1020
2026-03-18 10:50:00,METAR EGTK 181050Z 13010KT CAVOK 15/08 Q1020
2026-03-18 10:20:00,METAR EGTK 181020Z 12008KT CAVOK 15/08 Q1020
2026-03-18 09:50:00,METAR EGTK 180950Z 13008KT 100V160 CAVOK 14/08 Q1020
2026-03-18 09:20:00,METAR EGTK 180920Z 12006KT CAVOK 13/08 Q1019
2026-03-18 08:50:00,METAR EGTK 180850Z VRB02KT CAVOK 11/08 Q1019
2026-03-18 08:20:00,METAR EGTK 180820Z VRB02KT 9000 NSC 09/07 Q1019
2026-03-18 07:50:00,METAR EGTK 180750Z 04003KT 9000 NSC 07/06 Q1019
2026-03-18 07:20:00,METAR EGTK 180720Z 03003KT 8000 NSC 04/04 Q1018
2026-03-18 06:50:00,METAR EGTK 180650Z 35003KT 9000 NSC 02/02 Q1018
2026-03-18 06:20:00,METAR EGTK 180620Z 36004KT 9000 NSC 03/03 Q1018
2026-03-17 22:20:00,METAR EGTK 172220Z 18005KT CAVOK 07/05 Q1014
2026-03-17 21:50:00,METAR EGTK 172150Z 17007KT CAVOK 07/05 Q1014
2026-03-17 21:20:00,METAR EGTK 172120Z 16007KT CAVOK 07/05 Q1014
2026-03-17 20:50:00,METAR EGTK 172050Z 16006KT CAVOK 07/05 Q1014
2026-03-17 20:20:00,METAR EGTK 172020Z 17006KT CAVOK 07/05 Q1014
2026-03-17 19:50:00,METAR EGTK 171950Z 17007KT CAVOK 07/05 Q1014
2026-03-17 19:20:00,METAR EGTK 171920Z 17011KT CAVOK 09/06 Q1014
2026-03-17 18:50:00,METAR EGTK 171850Z 18009KT CAVOK 09/06 Q1014
2026-03-17 18:20:00,METAR EGTK 171820Z 16010KT CAVOK 10/06 Q1013
2026-03-17 17:50:00,METAR EGTK 171750Z 16012KT CAVOK 11/07 Q1013
2026-03-17 17:20:00,METAR EGTK 171720Z 16013KT CAVOK 13/07 Q1013
2026-03-17 16:50:00,METAR EGTK 171650Z 18014KT CAVOK 13/07 Q1013
2026-03-17 16:20:00,METAR EGTK 171620Z 18016KT CAVOK 14/07 Q1013
2026-03-17 15:50:00,METAR EGTK 171550Z 17016KT 9999 FEW038 14/08 Q1012
2026-03-17 14:50:00,METAR EGTK 171450Z 17017KT CAVOK 14/08 Q1013
2026-03-17 14:20:00,METAR EGTK 171420Z 18016KT CAVOK 13/08 Q1013
2026-03-17 13:50:00,METAR EGTK 171350Z 16016KT CAVOK 13/08 Q1013
2026-03-17 13:20:00,METAR EGTK 171320Z 17017KT 9999 FEW024 13/08 Q1013
2026-03-17 12:50:00,METAR EGTK 171250Z 17014KT 9999 FEW030 13/08 Q1014
2026-03-17 12:20:00,METAR EGTK 171220Z 17015KT CAVOK 13/08 Q1014
2026-03-17 11:50:00,METAR EGTK 171150Z 20015KT 9999 FEW020 12/07 Q1014
2026-03-17 11:20:00,METAR EGTK 171120Z 18015KT 9999 SCT020 12/07 Q1014
2026-03-17 10:50:00,METAR EGTK 171050Z 19016KT 9999 SCT020 11/07 Q1014
2026-03-17 10:20:00,METAR EGTK 171020Z 19016KT 9999 SCT017 11/07 Q1014
2026-03-17 09:50:00,METAR EGTK 170950Z 19016KT 9999 SCT017 SCT020 10/06 Q1014
2026-03-17 09:20:00,METAR EGTK 170920Z 18017KT 9999 SCT015 SCT018 10/07 Q1015
2026-03-17 08:50:00,METAR EGTK 170850Z 19014KT 9999 SCT015 BKN019 10/07 Q1014
2026-03-17 08:20:00,METAR EGTK 170820Z 19012KT 9999 SCT015 BKN019 10/08 Q1014
2026-03-17 07:50:00,METAR EGTK 170750Z 18015KT 9999 SCT015 BKN018 10/07 Q1014
2026-03-17 07:20:00,METAR EGTK 170720Z 19013KT 9999 BKN018 09/08 Q1014
2026-03-17 06:50:00,METAR EGTK 170650Z 18010KT 9999 BKN013 09/08 Q1014
2026-03-17 06:20:00,METAR EGTK 170620Z 19012KT 9999 BKN013 09/08 Q1014
2026-03-16 22:20:00,METAR EGTK 162220Z 22016KT 9999 OVC013 10/08 Q1015
2026-03-16 21:50:00,METAR EGTK 162150Z 22015KT 9999 BKN008 BKN012 OVC017 10/08 Q1015
2026-03-16 21:20:00,METAR EGTK 162120Z 20012KT 9999 BKN008 BKN012 OVC017 10/08 Q1015
2026-03-16 20:50:00,METAR EGTK 162050Z 20013KT 9999 BKN008 BKN012 OVC017 09/08 Q1015
2026-03-16 20:20:00,METAR EGTK 162020Z 18013KT 9999 BKN008 09/08 Q1015
2026-03-16 19:50:00,METAR EGTK 161950Z 19013KT 9999 VCSH BKN010 09/08 Q1015
2026-03-16 19:20:00,METAR EGTK 161920Z 19009KT 9999 BKN011 09/08 Q1015
2026-03-16 18:50:00,METAR EGTK 161850Z 18009KT 9999 SCT013 09/08 Q1015
2026-03-16 18:20:00,METAR EGTK 161820Z 20011KT 9999 SCT013 09/08 Q1015
2026-03-16 17:50:00,METAR EGTK 161750Z 20012KT 9999 SCT014 BKN020 10/08 Q1015
2026-03-16 17:20:00,METAR EGTK 161720Z 21013KT 9999 -RA SCT014 SCT032 BKN047 10/08 Q1015
2026-03-16 16:50:00,METAR EGTK 161650Z 21013KT 9999 -RA SCT014 SCT032 BKN047 10/08 Q1015
2026-03-16 16:20:00,METAR EGTK 161620Z 20012KT 9999 -RA SCT021 SCT031 BKN037 10/07 Q1015
2026-03-16 15:50:00,METAR EGTK 161550Z 23015KT 9999 FEW023 SCT027 11/07 Q1015
2026-03-16 15:20:00,METAR EGTK 161520Z 22016KT 9999 FEW022 11/07 Q1015
2026-03-16 14:50:00,METAR EGTK 161450Z 23017KT 9999 VCSH FEW022 BKN032 10/06 Q1015
2026-03-16 14:20:00,METAR EGTK 161420Z 23017KT 9999 VCSH FEW022 BKN032 10/08 Q1015
2026-03-16 13:50:00,METAR EGTK 161350Z 22016KT 9999 VCSH FEW022 BKN032 10/06 Q1015
2026-03-16 13:20:00,METAR EGTK 161320Z 21016KT 9999 VCSH FEW022 BKN032 10/07 Q1015
2026-03-16 12:50:00,METAR EGTK 161250Z 22018KT 9999 SCT030 BKN039 10/06 Q1015
2026-03-16 12:20:00,METAR EGTK 161220Z 21017KT 9999 SCT026 BKN037 09/06 Q1015
2026-03-16 11:50:00,METAR EGTK 161150Z 21017KT 9999 FEW028 BKN034 10/06 Q1015
2026-03-16 11:20:00,METAR EGTK 161120Z 21013KT 9999 FEW035 09/06 Q1015
2026-03-16 10:50:00,METAR EGTK 161050Z 22014KT 9999 FEW017 09/06 Q1015
2026-03-16 10:20:00,METAR EGTK 161020Z 21011KT 9999 SCT015 SCT023 08/06 Q1015
2026-03-16 09:50:00,METAR EGTK 160950Z 21014KT 9999 FEW014 08/06 Q1015
2026-03-16 09:20:00,METAR EGTK 160920Z 21011KT 9999 FEW037 08/06 Q1015
2026-03-16 08:50:00,METAR EGTK 160850Z 20010KT CAVOK 07/05 Q1014
2026-03-16 08:20:00,METAR EGTK 160820Z 21008KT CAVOK 07/04 Q1014
2026-03-16 07:50:00,METAR EGTK 160750Z 22009KT CAVOK 06/04 Q1014
2026-03-16 07:20:00,METAR EGTK 160720Z 21010KT CAVOK 05/03 Q1014
2026-03-16 06:50:00,METAR EGTK 160650Z 21009KT 9999 FEW036 05/03 Q1013
2026-03-16 06:20:00,METAR EGTK 160620Z 21010KT 9999 FEW033 05/03 Q1013
2026-03-15 22:20:00,METAR EGTK 152220Z 23009KT 9999 FEW026 SCT046 05/03 Q1010
2026-03-15 21:50:00,METAR EGTK 152150Z 26009KT 210V290 9999 -RA FEW025 BKN033 06/04 Q1010
2026-03-15 21:20:00,METAR EGTK 152120Z 23009KT CAVOK 06/04 Q1009
2026-03-15 20:50:00,METAR EGTK 152050Z 23013KT 9999 FEW035 06/04 Q1009
2026-03-15 20:20:00,METAR EGTK 152020Z 22012KT 9999 FEW035 05/04 Q1009
2026-03-15 19:50:00,METAR EGTK 151950Z 24010KT 9999 FEW035 05/04 Q1008
2026-03-15 19:20:00,METAR EGTK 151920Z 24009KT 9999 FEW035 06/04 Q1008
2026-03-15 18:50:00,METAR EGTK 151850Z 24010KT 9999 FEW035 06/04 Q1008
2026-03-15 18:20:00,METAR EGTK 151820Z 26015KT 9999 -SHRA SCT035CB BKN042 08/05 Q1008
2026-03-15 17:50:00,METAR EGTK 151750Z 26013KT 9999 -SHRA SCT031 BKN040CB 08/05 Q1007
2026-03-15 17:20:00,METAR EGTK 151720Z 26013KT 230V290 9999 -RA SCT017 SCT027 BKN039CB 08/06 Q1007
2026-03-15 16:50:00,METAR EGTK 151650Z 23017KT 7000 -RA FEW007 BKN013 BKN017 09/07 Q1006
2026-03-15 16:20:00,METAR EGTK 151620Z 23017KT 7000 -RA FEW007 BKN013 BKN017 09/08 Q1006 REDZ
2026-03-15 15:50:00,METAR EGTK 151550Z 21019KT 2000 DZ FEW007 BKN013 BKN017 09/08 Q1006 REDZ
2026-03-15 15:20:00,METAR EGTK 151520Z 21019G29KT 9000 -RA BKN012 10/08 Q1006
2026-03-15 14:50:00,METAR EGTK 151450Z 20019KT 9999 BKN015 10/07 Q1006
2026-03-15 14:20:00,METAR EGTK 151420Z 20020KT 9999 -RA BKN017 10/07 Q1007
2026-03-15 13:50:00,METAR EGTK 151350Z 20017G29KT 9999 BKN021 BKN026 10/07 Q1008
2026-03-15 13:20:00,METAR EGTK 151320Z 20024KT 9000 -RA FEW013 BKN029 10/07 Q1008
2026-03-15 12:50:00,METAR EGTK 151250Z COR 20021G33KT 9999 VCSH FEW018 BKN028 12/06 Q1008
2026-03-15 12:20:00,METAR EGTK 151220Z 21019KT 9999 FEW028 SCT033 11/05 Q1009
2026-03-15 11:50:00,METAR EGTK 151150Z 21022KT 9999 FEW028 SCT030 11/05 Q1009
2026-03-15 11:20:00,METAR EGTK 151120Z 20023G33KT 9999 SCT027 11/04 Q1010
2026-03-15 10:50:00,METAR EGTK 151050Z 20017KT 9999 SCT027 11/05 Q1010
2026-03-15 10:20:00,METAR EGTK 151020Z 20019KT 9999 FEW020 09/04 Q1010
2026-03-15 09:50:00,METAR EGTK 150950Z 20018KT 9999 FEW017 08/03 Q1011
2026-03-15 09:20:00,METAR EGTK 150920Z 21018KT CAVOK 08/04 Q1011
2026-03-15 08:50:00,METAR EGTK 150850Z 20013KT CAVOK 07/04 Q1011
2026-03-15 08:20:00,METAR EGTK 150820Z 20012KT CAVOK 06/04 Q1011
