Time_recorded,METAR
2026-05-02 14:53:00,METAR KPSP 021453Z 33006KT 10SM CLR 26/04 A2989 RMK AO2 SLP119 T02610044 53014
2026-05-02 13:53:00,METAR KPSP 021353Z 32005KT 10SM CLR 23/05 A2988 RMK AO2 SLP115 T02330050
2026-05-02 12:53:00,METAR KPSP 021253Z 32012KT 10SM CLR 22/07 A2986 RMK AO2 SLP107 T02170067
2026-05-02 11:53:00,METAR KPSP 021153Z AUTO 36003KT 10SM CLR 22/06 A2985 RMK AO2 SLP104 T02220061 10278 20200 53003
2026-05-02 10:53:00,METAR KPSP 021053Z AUTO 00000KT 10SM CLR 21/09 A2985 RMK AO2 SLP103 T02060094
2026-05-02 09:53:00,METAR KPSP 020953Z AUTO 00000KT 10SM CLR 23/10 A2984 RMK AO2 SLP100 T02280100
2026-05-02 08:53:00,METAR KPSP 020853Z AUTO 00000KT 10SM CLR 23/08 A2984 RMK AO2 SLP101 T02330083 50004
2026-05-02 07:53:00,METAR KPSP 020753Z AUTO 36009KT 10SM CLR 25/09 A2985 RMK AO2 SLP103 T02500094 403670167
2026-05-02 06:53:00,METAR KPSP 020653Z AUTO 00000KT 10SM CLR 26/07 A2984 RMK AO2 SLP100 T02560067
2026-05-02 05:53:00,METAR KPSP 020553Z AUTO 32006KT 10SM CLR 28/07 A2983 RMK AO2 SLP097 T02780072 10361 20278 51024
2026-05-02 04:53:00,METAR KPSP 020453Z 32014G22KT 10SM CLR 29/05 A2983 RMK AO2 SLP095 T02890050
2026-05-02 03:53:00,METAR KPSP 020353Z AUTO 32013G19KT 10SM CLR 31/M01 A2979 RMK AO2 SLP084 T03111011
2026-05-02 02:53:00,METAR KPSP 020253Z AUTO 33017KT 10SM CLR 31/04 A2976 RMK AO2 SLP074 T03110044 53006
2026-05-02 01:53:00,METAR KPSP 020153Z 32014KT 10SM CLR 33/05 A2975 RMK AO2 SLP069 T03280050
2026-05-02 00:53:00,METAR KPSP 020053Z 32014G22KT 10SM CLR 35/04 A2974 RMK AO2 SLP067 T03500039
2026-05-01 23:53:00,METAR KPSP 012353Z 32016G21KT 10SM CLR 36/04 A2974 RMK AO2 SLP068 T03560039 10367 20289 56021
2026-05-01 22:53:00,METAR KPSP 012253Z 10SM CLR 36/01 A2976 RMK AO2 SLP071 T03560006
2026-05-01 21:53:00,METAR KPSP 012153Z 34007KT 10SM CLR 35/01 A2978 RMK AO2 SLP081 T03500006
2026-05-01 20:53:00,METAR KPSP 012053Z VRB06KT 10SM CLR 36/01 A2980 RMK AO2 SLP088 T03560011 56022
2026-05-01 19:53:00,METAR KPSP 011953Z VRB05KT 10SM CLR 33/05 A2982 RMK AO2 SLP095 T03330050
2026-05-01 18:53:00,METAR KPSP 011853Z VRB05KT 10SM CLR 31/07 A2985 RMK AO2 SLP104 T03110067
2026-05-01 17:53:00,METAR KPSP 011753Z 00000KT 10SM CLR 29/08 A2987 RMK AO2 SLP111 T02940078 10294 20167 50006
2026-05-01 16:53:00,METAR KPSP 011653Z VRB04KT 10SM CLR 27/09 A2987 RMK AO2 SLP113 T02720094
2026-05-01 15:53:00,METAR KPSP 011553Z VRB05KT 10SM CLR 26/09 A2986 RMK AO2 SLP109 T02610094
2026-05-01 14:53:00,METAR KPSP 011453Z 30009KT 10SM CLR 22/10 A2985 RMK AO2 SLP105 T02220100 51018
2026-05-01 13:53:00,METAR KPSP 011353Z 00000KT 10SM CLR 19/10 A2984 RMK AO2 SLP101 T01890100
2026-05-01 12:53:00,METAR KPSP 011253Z 00000KT 10SM CLR 18/10 A2981 RMK AO2 SLP093 T01830100
2026-05-01 11:53:00,METAR KPSP 011153Z AUTO 00000KT 10SM CLR 18/11 A2980 RMK AO2 SLP087 T01830106 10244 20178 53007
2026-05-01 10:53:00,METAR KPSP 011053Z AUTO 12004KT 10SM CLR 19/10 A2978 RMK AO2 SLP082 T01940100
2026-05-01 09:53:00,METAR KPSP 010953Z AUTO 21003KT 10SM CLR 19/10 A2977 RMK AO2 SLP079 T01940100
2026-05-01 08:53:00,METAR KPSP 010853Z AUTO 28003KT 10SM CLR 21/09 A2977 RMK AO2 SLP078 T02110089 50004
2026-05-01 07:53:00,METAR KPSP 010753Z AUTO 00000KT 10SM CLR 21/09 A2978 RMK AO2 SLP081 T02110089 403500167
2026-05-01 06:53:00,METAR KPSP 010653Z 31010KT 10SM CLR 23/09 A2977 RMK AO2 SLP078 T02280089
2026-05-01 05:53:00,METAR KPSP 010553Z 31011KT 10SM CLR 24/08 A2976 RMK AO2 PK WND 31027/0510 SLP075 T02440078 10333 20239 51021
2026-05-01 04:53:00,METAR KPSP 010453Z AUTO 32017G24KT 10SM CLR 24/09 A2975 RMK AO2 PK WND 31027/0419 SLP072 T02440089
2026-05-01 03:53:00,METAR KPSP 010353Z 32015G23KT 10SM CLR 26/09 A2974 RMK AO2 PK WND 32026/0305 SLP066 T02560094
2026-05-01 02:53:00,METAR KPSP 010253Z 32020G30KT 10SM CLR 28/09 A2970 RMK AO2 PK WND 33030/0253 SLP053 T02780089 53008
2026-05-01 01:53:00,METAR KPSP 010153Z 32019G29KT 10SM CLR 29/08 A2968 RMK AO2 PK WND 32028/0143 SLP047 T02940078
2026-05-01 00:53:00,METAR KPSP 010053Z 33018G27KT 10SM CLR 32/08 A2968 RMK AO2 PK WND 32026/0021 SLP046 T03170083
2026-04-30 23:53:00,METAR KPSP 302353Z 32015G22KT 10SM CLR 33/06 A2968 RMK AO2 SLP046 T03330061 10350 20289 56016
2026-04-30 22:53:00,METAR KPSP 302253Z 32010KT 10SM CLR 34/01 A2968 RMK AO2 SLP047 T03440011
2026-04-30 21:53:00,METAR KPSP 302153Z VRB05KT 10SM CLR 34/M04 A2970 RMK AO2 SLP054 T03441039
2026-04-30 20:53:00,METAR KPSP 302053Z 35006KT 10SM CLR 34/M04 A2972 RMK AO2 SLP061 T03391039 56025
2026-04-30 19:53:00,METAR KPSP 301953Z VRB05KT 10SM CLR 34/M02 A2974 RMK AO2 SLP068 T03391022
2026-04-30 18:53:00,METAR KPSP 301853Z AUTO 00000KT 10SM CLR 32/01 A2978 RMK AO2 SLP080 T03170006
2026-04-30 17:53:00,METAR KPSP 301753Z AUTO VRB03KT 10SM CLR 29/04 A2980 RMK AO2 SLP088 T02890044 10289 20167 58008
2026-04-30 16:53:00,METAR KPSP 301653Z AUTO VRB03KT 10SM CLR 27/04 A2981 RMK AO2 SLP092 T02670039
2026-04-30 14:53:00,METAR KPSP 301453Z 00000KT 10SM CLR 21/06 A2982 RMK AO2 SLP096 T02110056 53007 $
2026-04-30 13:53:00,METAR KPSP 301353Z 27011KT 10SM CLR 19/06 A2981 RMK AO2 SLP093 T01940061 $
2026-04-30 12:53:00,METAR KPSP 301253Z AUTO VRB04KT 10SM CLR 18/06 A2980 RMK AO2 SLP089 T01830056 $
2026-04-30 11:53:00,METAR KPSP 301153Z AUTO 29005KT 10SM CLR 20/05 A2980 RMK AO2 SLP089 T02000050 10239 20178 56014 $
2026-04-30 10:53:00,METAR KPSP 301053Z AUTO 30006KT 10SM CLR 21/05 A2981 RMK AO2 SLP091 T02060050 $
2026-04-30 09:53:00,METAR KPSP 300953Z AUTO 32009KT 10SM CLR 21/06 A2982 RMK AO2 SLP095 T02060056 $
2026-04-30 08:53:00,METAR KPSP 300853Z AUTO 00000KT 10SM CLR 21/05 A2984 RMK AO2 SLP103 T02110050 58010 $
2026-04-30 07:53:00,METAR KPSP 300753Z AUTO 30006KT 10SM CLR 22/04 A2986 RMK AO2 SLP110 T02220044 403330144 $
2026-04-30 06:53:00,METAR KPSP 300653Z AUTO 31008KT 10SM CLR 23/05 A2987 RMK AO2 SLP111 T02280050 $
2026-04-30 05:53:00,METAR KPSP 300553Z 32012KT 10SM CLR 24/05 A2988 RMK AO2 PK WND 32028/0509 SLP114 T02390050 10328 20239 51018 $
2026-04-30 04:53:00,METAR KPSP 300453Z 32015G23KT 10SM CLR 24/05 A2986 RMK AO2 SLP109 T02440050 $
2026-04-30 03:53:00,METAR KPSP 300353Z 32015G28KT 10SM CLR 26/07 A2985 RMK AO2 PK WND 33028/0349 SLP106 T02560067 $
2026-04-30 02:53:00,METAR KPSP 300253Z 31016G23KT 10SM CLR 27/06 A2982 RMK AO2 SLP095 T02720056 53003 $
2026-04-30 01:53:00,METAR KPSP 300153Z 32013G22KT 10SM CLR 29/04 A2981 RMK AO2 SLP091 T02890039 $
2026-04-30 00:53:00,METAR KPSP 300053Z 34014G23KT 10SM CLR 31/02 A2981 RMK AO2 SLP092 T03110017 $
2026-04-29 23:53:00,METAR KPSP 292353Z 32010G16KT 10SM CLR 32/00 A2981 RMK AO2 PK WND 33026/2317 SLP092 T03220000 10333 20278 56023 $
2026-04-29 22:53:00,METAR KPSP 292253Z VRB05KT 10SM CLR 32/M03 A2982 RMK AO2 SLP096 T03221033 $
2026-04-29 21:53:00,METAR KPSP 292153Z VRB06KT 10SM CLR 32/M04 A2986 RMK AO2 SLP107 T03221039 $
2026-04-29 20:53:00,METAR KPSP 292053Z VRB05KT 10SM CLR 31/M08 A2988 RMK AO2 SLP115 T03061083 56026 $
2026-04-29 19:53:00,METAR KPSP 291953Z 05007KT 020V090 10SM CLR 31/M07 A2990 RMK AO2 SLP121 T03111072 $
2026-04-29 18:53:00,METAR KPSP 291853Z 10005KT 10SM CLR 29/M02 A2993 RMK AO2 SLP133 T02941022 $
2026-04-29 17:53:00,METAR KPSP 291753Z VRB05KT 10SM CLR 28/M01 A2996 RMK AO2 SLP141 T02831006 10283 20144 58007 $
2026-04-29 16:53:00,METAR KPSP 291653Z 35006KT 10SM CLR 27/00 A2997 RMK AO2 SLP145 T02720000 $
2026-04-29 15:53:00,METAR KPSP 291553Z VRB06KT 10SM CLR 24/03 A2997 RMK AO2 SLP146 T02440028
2026-04-29 14:53:00,METAR KPSP 291453Z 29009KT 10SM CLR 21/04 A2998 RMK AO2 SLP149 T02060044 53006
2026-04-29 13:53:00,METAR KPSP 291353Z 31005KT 10SM CLR 19/02 A2997 RMK AO2 SLP148 T01890022 $
2026-04-29 12:53:00,METAR KPSP 291253Z AUTO 00000KT 10SM CLR 14/06 A2996 RMK AO2 SLP144 T01440061 $
2026-04-29 11:53:00,METAR KPSP 291153Z AUTO 36004KT 10SM CLR 17/05 A2996 RMK AO2 SLP143 6//// 7//// T01720050 10228 20161 55000 $
2026-04-29 10:53:00,METAR KPSP 291053Z AUTO VRB03KT 10SM CLR 18/04 A2995 RMK AO2 SLP141 T01830039 $
2026-04-29 09:53:00,METAR KPSP 290953Z AUTO 26003KT 10SM CLR 18/06 A2995 RMK AO2 SLP141 T01780061 $
2026-04-29 08:53:00,METAR KPSP 290853Z AUTO 23003KT 10SM CLR 18/06 A2996 RMK AO2 SLP143 6//// T01780061 $
2026-04-29 07:53:00,METAR KPSP 290753Z AUTO 15003KT 10SM CLR 19/06 A2997 RMK AO2 SLP145 T01890061 402940128 $
2026-04-29 06:53:00,METAR KPSP 290653Z AUTO 13004KT 10SM 21/06 A2997 RMK AO2 SLP148 T02060056 $
2026-04-29 05:53:00,METAR KPSP 290553Z AUTO 32008KT 10SM CLR 23/04 A2996 RMK AO2 SLP143 T02280044 10289 20228 51017
2026-04-29 04:53:00,METAR KPSP 290453Z 32011KT 10SM CLR 23/05 A2996 RMK AO2 SLP143 T02330050
2026-04-29 03:53:00,METAR KPSP 290353Z 30013G19KT 10SM CLR 25/03 A2994 RMK AO2 SLP136 T02500033
2026-04-29 02:53:00,METAR KPSP 290253Z 27009KT 10SM CLR 26/00 A2991 RMK AO2 SLP127 T02610000 53002 $
2026-04-29 01:53:00,METAR KPSP 290153Z VRB06KT 10SM CLR 28/M01 A2990 RMK AO2 SLP122 T02781006 $
2026-04-29 00:53:00,METAR KPSP 290053Z AUTO 13007KT 10SM CLR 29/M01 A2990 RMK AO2 SLP122 T02891006 $
2026-04-28 23:53:00,METAR KPSP 282353Z 17006KT 10SM CLR 29/M01 A2991 RMK AO2 SLP125 T02891006 10294 20244 56018 $
2026-04-28 22:53:00,METAR KPSP 282253Z 07006KT 10SM CLR 29/M01 A2992 RMK AO2 SLP128 T02891011 $
2026-04-28 21:53:00,METAR KPSP 282153Z 09008KT 10SM CLR 29/M01 A2994 RMK AO2 SLP136 T02891011 $
2026-04-28 20:53:00,METAR KPSP 282053Z 11008G16KT 10SM CLR 28/M01 A2996 RMK AO2 SLP143 T02781011 56022 $
2026-04-28 19:53:00,METAR KPSP 281953Z 13010KT 10SM CLR 27/M01 A2998 RMK AO2 SLP150 T02721011 $
2026-04-28 18:53:00,METAR KPSP 281853Z VRB06KT 10SM CLR 27/00 A3000 RMK AO2 SLP158 T02670000 $
2026-04-28 17:53:00,METAR KPSP 281753Z 00000KT 10SM CLR 24/01 A3003 RMK AO2 SLP166 T02440006 10244 20128 51000 $
2026-04-28 16:53:00,METAR KPSP 281653Z 00000KT 10SM CLR 23/02 A3003 RMK AO2 SLP166 T02280017 $
2026-04-28 15:53:00,METAR KPSP 281553Z 00000KT 10SM CLR 21/M01 A3003 RMK AO2 SLP166 T02061006
2026-04-28 14:53:00,METAR KPSP 281453Z 00000KT 10SM CLR 17/03 A3002 RMK AO2 SLP166 T01670033 51017
2026-04-28 13:53:00,METAR KPSP 281353Z 30008KT 10SM CLR 15/03 A3002 RMK AO2 SLP164 T01500033
2026-04-28 12:53:00,METAR KPSP 281253Z 30006KT 10SM CLR 15/03 A2999 RMK AO2 SLP155 T01500028
2026-04-28 11:53:00,METAR KPSP 281153Z 00000KT 10SM CLR 14/03 A2997 RMK AO2 SLP149 T01440028 10183 20144 53001
2026-04-28 10:53:00,METAR KPSP 281053Z VRB03KT 10SM CLR 16/03 A2996 RMK AO2 SLP144 T01560028
2026-04-28 09:53:00,METAR KPSP 280953Z 30004KT 10SM CLR 17/02 A2995 RMK AO2 SLP141 T01670017
2026-04-28 08:53:00,METAR KPSP 280853Z 31008G17KT 10SM CLR 17/03 A2997 RMK AO2 SLP147 T01720028 50008
2026-04-28 07:53:00,METAR KPSP 280753Z 32011KT 10SM CLR 17/03 A2998 RMK AO2 SLP150 T01720028 402500117
2026-04-28 06:53:00,METAR KPSP 280653Z 31011G19KT 10SM CLR 18/03 A2997 RMK AO2 SLP146 T01780033
2026-04-28 05:53:00,METAR KPSP 280553Z 31011G23KT 10SM CLR 18/03 A2995 RMK AO2 SLP141 T01830028 10250 20183 51020
2026-04-28 04:53:00,METAR KPSP 280453Z 32017G24KT 10SM CLR 19/02 A2994 RMK AO2 SLP138 T01940022
2026-04-28 03:53:00,METAR KPSP 280353Z 32011G20KT 10SM CLR 21/01 A2992 RMK AO2 SLP131 T02060011
2026-04-28 02:53:00,METAR KPSP 280253Z 32010G16KT 10SM CLR 21/02 A2989 RMK AO2 PK WND 34027/0243 SLP120 T02110017 53008
2026-04-28 01:53:00,METAR KPSP 280153Z 31018G23KT 10SM CLR 22/02 A2988 RMK AO2 SLP116 T02220017
2026-04-28 00:53:00,METAR KPSP 280053Z 33015G22KT 10SM CLR 23/02 A2987 RMK AO2 SLP114 T02330022
2026-04-27 23:53:00,METAR KPSP 272353Z 35016G24KT 10SM CLR 24/02 A2987 RMK AO2 PK WND 34027/2317 SLP112 T02440017 10250 20206 56015
2026-04-27 22:53:00,METAR KPSP 272253Z 32015G25KT 10SM CLR 25/01 A2987 RMK AO2 PK WND 34028/2237 SLP114 T02500011
2026-04-27 21:53:00,METAR KPSP 272153Z 32017G25KT 10SM CLR 25/01 A2989 RMK AO2 PK WND 34028/2119 SLP119 T02500011
2026-04-27 20:53:00,METAR KPSP 272053Z 33009G24KT 10SM CLR 23/02 A2991 RMK AO2 PK WND 34026/2023 SLP127 T02280017 58014
2026-04-27 19:53:00,METAR KPSP 271953Z 33014G25KT 300V020 10SM CLR 22/02 A2993 RMK AO2 SLP133 T02220017
2026-04-27 18:53:00,METAR KPSP 271853Z 34020G26KT 10SM CLR 22/03 A2994 RMK AO2 PK WND 33026/1846 SLP136 T02170028
2026-04-27 17:53:00,METAR KPSP 271753Z 32008G19KT 10SM CLR 21/02 A2995 RMK AO2 SLP141 T02060017 10211 20117 51004
2026-04-27 16:53:00,METAR KPSP 271653Z 36009G20KT 10SM CLR 19/02 A2995 RMK AO2 SLP141 T01940017
2026-04-27 15:53:00,METAR KPSP 271553Z 17004KT 10SM CLR 18/00 A2994 RMK AO2 SLP139 T01780000
2026-04-27 14:53:00,METAR KPSP 271453Z 21003KT 10SM CLR 16/03 A2994 RMK AO2 SLP137 T01560028 53013
2026-04-27 13:53:00,METAR KPSP 271353Z VRB05KT 10SM CLR 13/03 A2992 RMK AO2 SLP130 T01330028
2026-04-27 12:53:00,METAR KPSP 271253Z 00000KT 10SM CLR 13/03 A2990 RMK AO2 SLP125 T01330028
2026-04-27 11:53:00,METAR KPSP 271153Z AUTO 00000KT 10SM CLR 14/03 A2990 RMK AO2 SLP123 T01390033 10178 20133 58000
2026-04-27 10:53:00,METAR KPSP 271053Z AUTO 00000KT 10SM CLR 13/03 A2990 RMK AO2 SLP125 T01330028
2026-04-27 09:53:00,METAR KPSP 270953Z AUTO 11005KT 10SM CLR 14/03 A2990 RMK AO2 SLP125 T01440028
2026-04-27 08:53:00,METAR KPSP 270853Z AUTO 17003KT 10SM CLR 15/02 A2990 RMK AO2 SLP124 T01500022 50002
2026-04-27 07:53:00,METAR KPSP 270753Z AUTO 32011G17KT 10SM CLR 16/03 A2991 RMK AO2 SLP126 T01610028 402440150
2026-04-27 06:53:00,METAR KPSP 270653Z AUTO 31009G16KT 10SM CLR 18/02 A2990 RMK AO2 SLP124 T01780022
2026-04-27 05:53:00,METAR KPSP 270553Z AUTO 32010G19KT 10SM CLR 18/01 A2989 RMK AO2 SLP121 T01780011 10239 20172 51014
2026-04-27 04:53:00,METAR KPSP 270453Z 30016G22KT 10SM CLR 18/01 A2989 RMK AO2 SLP119 T01830011
2026-04-27 03:53:00,METAR KPSP 270353Z VRB04G16KT 10SM CLR 19/01 A2987 RMK AO2 SLP113 T01890006
2026-04-27 02:53:00,METAR KPSP 270253Z 31016G28KT 10SM CLR 20/01 A2985 RMK AO2 SLP107 T02000006 53013
2026-04-27 01:53:00,METAR KPSP 270153Z 30006G21KT 10SM CLR 21/M01 A2983 RMK AO2 SLP101 T02111006
2026-04-27 00:53:00,METAR KPSP 270053Z 35007KT 10SM CLR 23/01 A2982 RMK AO2 SLP098 T02280006
2026-04-26 23:53:00,METAR KPSP 262353Z 32018G27KT 10SM CLR 24/01 A2981 RMK AO2 SLP093 T02390011 10244 20206 56013
2026-04-26 22:53:00,METAR KPSP 262253Z AUTO 33014G25KT 10SM CLR 23/02 A2981 RMK AO2 PK WND 34036/2225 SLP095 T02330022
2026-04-26 21:53:00,METAR KPSP 262153Z 31014G26KT 10SM CLR 23/03 A2983 RMK AO2 PK WND 32030/2139 SLP099 T02330033
2026-04-26 20:53:00,METAR KPSP 262053Z 32017G28KT 10SM CLR 23/03 A2985 RMK AO2 PK WND 34033/2020 SLP107 T02330033 58008
2026-04-26 19:53:00,METAR KPSP 261953Z 31009G32KT 10SM CLR 22/04 A2987 RMK AO2 PK WND 33032/1944 SLP112 T02220039
2026-04-26 18:53:00,METAR KPSP 261853Z 33016G25KT 10SM CLR 22/04 A2987 RMK AO2 PK WND 34027/1836 SLP114 T02170044
2026-04-26 17:53:00,METAR KPSP 261753Z 31015G26KT 10SM CLR 21/05 A2988 RMK AO2 PK WND 33028/1741 SLP116 T02060050 10206 20150 52019
2026-04-26 16:53:00,METAR KPSP 261653Z 33014G21KT 10SM CLR 20/05 A2986 RMK AO2 WSHFT 1555 SLP110 T02000050
2026-04-26 16:15:00,SPECI KPSP 261615Z 32007KT 10SM CLR 19/06 A2985 RMK AO2 WSHFT 1555 T01890061
2026-04-26 15:53:00,METAR KPSP 261553Z 35009KT 290V030 10SM FEW048 FEW075 SCT100 19/06 A2983 RMK AO2 SLP102 T01890056
2026-04-26 14:53:00,METAR KPSP 261453Z 34009KT 10SM BKN080 17/07 A2982 RMK AO2 SLP096 T01720067 51021
2026-04-26 13:53:00,METAR KPSP 261353Z 00000KT 10SM BKN085 16/07 A2980 RMK AO2 SLP090 T01560067
2026-04-26 12:53:00,METAR KPSP 261253Z 04003KT 10SM OVC070 16/07 A2977 RMK AO2 SLP080 T01560067
2026-04-26 11:53:00,METAR KPSP 261153Z AUTO 14005KT 10SM SCT055 15/06 A2975 RMK AO2 SLP073 T01500061 10178 20150 55000
2026-04-26 10:53:00,METAR KPSP 261053Z AUTO 08003KT 10SM CLR 16/06 A2975 RMK AO2 SLP071 T01560056
2026-04-26 09:53:00,METAR KPSP 260953Z AUTO 05003KT 10SM CLR 16/06 A2975 RMK AO2 SLP071 T01610056
2026-04-26 08:53:00,METAR KPSP 260853Z AUTO 01003KT 10SM CLR 16/06 A2975 RMK AO2 SLP073 T01560061 58008
2026-04-26 07:53:00,METAR KPSP 260753Z AUTO 00000KT 10SM CLR 16/06 A2978 RMK AO2 SLP081 T01610061 402780156
2026-04-26 06:53:00,METAR KPSP 260653Z AUTO 10004KT 10SM CLR 17/07 A2978 RMK AO2 SLP083 T01670067
2026-04-26 05:53:00,METAR KPSP 260553Z AUTO 36004KT 10SM CLR 17/06 A2978 RMK AO2 SLP081 T01720056 10250 20172 50008
2026-04-26 04:53:00,METAR KPSP 260453Z 33012G17KT 10SM BKN100 18/06 A2978 RMK AO2 SLP084 T01830056
2026-04-26 03:53:00,METAR KPSP 260353Z 32007KT 10SM SCT100 19/05 A2977 RMK AO2 SLP080 T01890050
2026-04-26 03:22:00,SPECI KPSP 260322Z 32007KT 10SM BKN100 19/04 A2977 RMK AO2 T01940039
2026-04-26 02:53:00,METAR KPSP 260253Z 09013G21KT 10SM FEW060 OVC110 20/04 A2975 RMK AO2 PK WND 17026/0157 SLP074 T02000039 53013
2026-04-26 01:53:00,METAR KPSP 260153Z 17013G21KT 10SM BKN110 21/03 A2974 RMK AO2 PK WND 02035/0055 WSHFT 0115 SLP069 T02060033
2026-04-26 01:35:00,SPECI KPSP 260135Z 16011G26KT 10SM SCT110 22/04 A2973 RMK AO2 PK WND 02035/0055 WSHFT 0115 T02170039
2026-04-26 00:53:00,METAR KPSP 260053Z 32025G30KT 10SM BKN110 24/03 A2972 RMK AO2 PK WND 34030/0053 WSHFT 0028 SLP061 T02390033
2026-04-26 00:48:00,SPECI KPSP 260048Z VRB04G18KT 10SM BKN110 23/03 A2971 RMK AO2 PK WND 35027/0038 WSHFT 0028
2026-04-25 23:53:00,METAR KPSP 252353Z 34023G29KT 10SM SCT110 25/05 A2971 RMK AO2 PK WND 33029/2353 SLP060 T02500050 10278 20217 56017
2026-04-25 22:53:00,METAR KPSP 252253Z 34021G33KT 10SM BKN100 27/04 A2972 RMK AO2 PK WND 34033/2247 WSHFT 2146 SLP063 T02670039
2026-04-25 22:06:00,SPECI KPSP 252206Z 33011G24KT 10SM SCT110 26/03 A2974 RMK AO2 WSHFT 2146 T02610033
2026-04-25 21:53:00,METAR KPSP 252153Z 33018G25KT 10SM SCT110 27/03 A2974 RMK AO2 SLP069 T02720033
2026-04-25 20:53:00,METAR KPSP 252053Z VRB06KT 10SM CLR 26/02 A2977 RMK AO2 SLP077 T02610022 56019
2026-04-25 19:53:00,METAR KPSP 251953Z VRB06KT 10SM CLR 25/02 A2978 RMK AO2 SLP081 T02500022
2026-04-25 18:53:00,METAR KPSP 251853Z COR VRB05 10SM CLR 22/03 A2980 RMK AO2 SLP090 T02220028
2026-04-25 17:53:00,METAR KPSP 251753Z VRB05KT 10SM FEW120 22/04 A2982 RMK AO2 SLP096 T02220039 10222 20156 51008
2026-04-25 16:53:00,METAR KPSP 251653Z VRB05KT 10SM CLR 21/04 A2981 RMK AO2 SLP093 T02060044
2026-04-25 15:53:00,METAR KPSP 251553Z VRB04KT 10SM CLR 19/06 A2981 RMK AO2 SLP091 T01890056
2026-04-25 14:53:00,METAR KPSP 251453Z 00000KT 10SM CLR 18/07 A2980 RMK AO2 SLP088 T01780072 53018
2026-04-25 13:53:00,METAR KPSP 251353Z 17003KT 10SM CLR 16/07 A2976 RMK AO2 SLP077 T01610067
2026-04-25 12:53:00,METAR KPSP 251253Z 30008KT 10SM CLR 16/07 A2976 RMK AO2 SLP074 T01610067
2026-04-25 11:53:00,METAR KPSP 251153Z AUTO 20003KT 10SM CLR 17/06 A2974 RMK AO2 SLP070 T01670061 10228 20167 53002
2026-04-25 10:53:00,METAR KPSP 251053Z AUTO 13004KT 10SM CLR 17/06 A2974 RMK AO2 SLP069 T01720056
2026-04-25 09:53:00,METAR KPSP 250953Z AUTO 00000KT 10SM CLR 17/06 A2973 RMK AO2 SLP065 T01720056
2026-04-25 08:53:00,METAR KPSP 250853Z AUTO 17006KT 10SM CLR 18/05 A2974 RMK AO2 SLP067 T01780050 58003
2026-04-25 07:53:00,METAR KPSP 250753Z AUTO 12003KT 10SM CLR 19/05 A2975 RMK AO2 SLP070 T01940050 403220156
2026-04-25 06:53:00,METAR KPSP 250653Z AUTO 17005KT 10SM CLR 20/04 A2975 RMK AO2 SLP071 T02000039
2026-04-25 05:53:00,METAR KPSP 250553Z AUTO VRB05G15KT 10SM CLR 23/03 A2975 RMK AO2 SLP071 T02280028 10306 20222 51016
2026-04-25 04:53:00,METAR KPSP 250453Z VRB06KT 10SM CLR 23/04 A2975 RMK AO2 SLP070 T02330039
2026-04-25 03:53:00,METAR KPSP 250353Z VRB06KT 10SM CLR 24/04 A2973 RMK AO2 SLP065 T02440039
2026-04-25 02:53:00,METAR KPSP 250253Z VRB06KT 10SM CLR 26/05 A2970 RMK AO2 SLP056 T02560050 53006
2026-04-25 01:53:00,METAR KPSP 250153Z 31013G25KT 10SM CLR 27/06 A2968 RMK AO2 PK WND 31028/0131 SLP049 T02720056
2026-04-25 00:53:00,METAR KPSP 250053Z 32018G25KT 10SM CLR 29/06 A2968 RMK AO2 PK WND 32029/0041 SLP049 T02940056
2026-04-24 23:53:00,METAR KPSP 242353Z 33014G27KT 10SM CLR 30/06 A2968 RMK AO2 PK WND 32029/2340 SLP049 T03000061 10322 20272 56020
2026-04-24 22:53:00,METAR KPSP 242253Z 33017G22KT 10SM CLR 32/02 A2970 RMK AO2 PK WND 33028/2220 SLP052 T03170022
2026-04-24 21:53:00,METAR KPSP 242153Z 34017G24KT 10SM CLR 32/03 A2972 RMK AO2 SLP061 T03170028
2026-04-24 20:53:00,METAR KPSP 242053Z VRB04KT 10SM CLR 31/03 A2974 RMK AO2 SLP069 T03110028 58028
2026-04-24 19:53:00,METAR KPSP 241953Z 01008KT 10SM CLR 29/03 A2977 RMK AO2 SLP079 T02890033
2026-04-24 18:53:00,METAR KPSP 241853Z 34010KT 10SM CLR 28/03 A2981 RMK AO2 SLP091 T02830033
2026-04-24 17:53:00,METAR KPSP 241753Z 30010G18KT 10SM CLR 27/04 A2983 RMK AO2 SLP098 T02720039 10272 20156 56005
2026-04-24 16:53:00,METAR KPSP 241653Z 31008KT 10SM CLR 26/05 A2983 RMK AO2 SLP098 T02610050
2026-04-24 15:53:00,METAR KPSP 241553Z 00000KT 10SM CLR 23/06 A2984 RMK AO2 SLP101 T02330056
2026-04-24 14:53:00,METAR KPSP 241453Z 12003KT 10SM CLR 20/07 A2984 RMK AO2 SLP103 T02000072 53008
2026-04-24 13:53:00,METAR KPSP 241353Z 00000KT 10SM CLR 17/08 A2984 RMK AO2 SLP103 T01720078
2026-04-24 12:53:00,METAR KPSP 241253Z 00000KT 10SM CLR 16/08 A2982 RMK AO2 SLP097 T01610078
2026-04-24 11:53:00,METAR KPSP 241153Z AUTO 17003KT 10SM CLR 17/08 A2982 RMK AO2 SLP095 T01670078 10233 20161 56003
2026-04-24 10:53:00,METAR KPSP 241053Z AUTO 00000KT 10SM CLR 18/08 A2982 RMK AO2 SLP096 T01830078
2026-04-24 09:53:00,METAR KPSP 240953Z AUTO 20003KT 10SM CLR 19/08 A2983 RMK AO2 SLP097 T01890078
2026-04-24 08:53:00,METAR KPSP 240853Z AUTO 00000KT 10SM CLR 21/07 A2983 RMK AO2 SLP098 T02060067 58006
2026-04-24 07:53:00,METAR KPSP 240753Z AUTO 32010KT 10SM CLR 22/07 A2985 RMK AO2 SLP105 T02170067 403110150
2026-04-24 06:53:00,METAR KPSP 240653Z AUTO 32011KT 10SM CLR 22/07 A2985 RMK AO2 SLP104 T02220072
2026-04-24 05:53:00,METAR KPSP 240553Z 32013KT 10SM CLR 23/08 A2985 RMK AO2 SLP104 T02330078 10311 20233
2026-04-24 04:53:00,METAR KPSP 240453Z 31011KT 10SM CLR 24/07 A2984 RMK AO2 SLP100 T02440072
2026-04-24 03:53:00,METAR KPSP 240353Z AUTO 31013G22KT 10SM 26/06 RMK AO2 SLPNO T02610056 $
2026-04-24 02:53:00,METAR KPSP 240253Z 32011G19KT 10SM CLR 28/02 RMK AO2 SLPNO T02780017 $
2026-04-24 01:53:00,METAR KPSP 240153Z 33011G19KT 10SM CLR 29/M01 RMK AO2 SLPNO T02891011 $
2026-04-24 00:53:00,METAR KPSP 240053Z 30011G20KT 9SM CLR 30/M02 A2979 RMK AO2 SLP074 T03001017 $
2026-04-23 23:53:00,METAR KPSP 232353Z 33012G21KT 10SM CLR 31/00 A2979 RMK AO2 SLP073 T03060000 10311 20256 56040 $
2026-04-23 22:53:00,METAR KPSP 232253Z VRB05KT 10SM CLR 31/M02 A2981 RMK AO2 PRESFR SLP079 T03061022 $
2026-04-23 21:53:00,METAR KPSP 232153Z 32005KT 10SM CLR 29/M04 A2984 RMK AO2 SLP103 T02941039
2026-04-23 20:53:00,METAR KPSP 232053Z 13004KT 10SM CLR 29/M04 A2988 RMK AO2 SLP116 T02891039 58026
2026-04-23 19:53:00,METAR KPSP 231953Z VRB05KT 10SM CLR 28/M04 A2991 RMK AO2 SLP124 T02831039
2026-04-23 18:53:00,METAR KPSP 231853Z 36007KT 10SM CLR 27/M03 A2994 RMK AO2 SLP135 T02721028
2026-04-23 17:53:00,METAR KPSP 231753Z 02004KT 10SM CLR 26/M02 A2996 RMK AO2 SLP141 T02611017 10261 20150 56005
2026-04-23 16:53:00,METAR KPSP 231653Z 32005KT 10SM CLR 24/01 A2996 RMK AO2 SLP143 T02440006
2026-04-23 15:53:00,METAR KPSP 231553Z 33006KT 10SM CLR 22/03 A2996 RMK AO2 SLP143 T02220028
2026-04-23 14:53:00,METAR KPSP 231453Z 34004KT 10SM CLR 19/04 A2997 RMK AO2 SLP147 T01890044 51017
2026-04-23 13:53:00,METAR KPSP 231353Z 15003KT 10SM CLR 16/05 A2997 RMK AO2 SLP146 T01610050
2026-04-23 12:53:00,METAR KPSP 231253Z 32003KT 10SM CLR 17/05 A2994 RMK AO2 SLP136 T01670050
2026-04-23 11:53:00,METAR KPSP 231153Z AUTO 00000KT 10SM CLR 17/04 A2992 RMK AO2 SLP129 T01670039 10211 20150 53011
2026-04-23 10:53:00,METAR KPSP 231053Z AUTO 17004KT 10SM CLR 17/04 A2989 RMK AO2 SLP120 T01670044
2026-04-23 09:53:00,METAR KPSP 230953Z AUTO 28006KT 10SM CLR 18/04 A2989 RMK AO2 SLP120 T01780039
2026-04-23 08:53:00,METAR KPSP 230853Z AUTO 00000KT 10SM CLR 17/04 A2989 RMK AO2 SLP119 T01720039 50003
2026-04-23 07:53:00,METAR KPSP 230753Z AUTO 29008G22KT 10SM CLR 19/03 A2989 RMK AO2 PK WND 32032/0704 SLP120 T01940033 402830150
2026-04-23 06:53:00,METAR KPSP 230653Z AUTO 32014G21KT 10SM CLR 21/02 A2989 RMK AO2 SLP120 T02060022
2026-04-23 05:53:00,METAR KPSP 230553Z AUTO 33018G29KT 10SM CLR 21/03 A2988 RMK AO2 PK WND 32029/0551 SLP116 T02110028 10278 20211 50003
2026-04-23 04:53:00,METAR KPSP 230453Z AUTO 32018G26KT 10SM CLR 22/03 A2990 RMK AO2 PK WND 31027/0432 SLP122 T02170028
2026-04-23 03:53:00,METAR KPSP 230353Z 32020G30KT 10SM CLR 22/04 A2988 RMK AO2 PK WND 31028/0334 SLP117 T02220039
2026-04-23 02:53:00,METAR KPSP 230253Z 33015G25KT 10SM CLR 24/03 A2987 RMK AO2 SLP112 T02390028 55007
2026-04-23 01:53:00,METAR KPSP 230153Z 32014G22KT 10SM CLR 25/01 A2986 RMK AO2 SLP110 T02500011
2026-04-23 00:53:00,METAR KPSP 230053Z 31011KT 10SM CLR 27/00 A2988 RMK AO2 SLP114 T02670000
2026-04-22 23:53:00,METAR KPSP 222353Z 32018G28KT 10SM CLR 27/01 A2989 RMK AO2 PK WND 33028/2353 SLP120 T02720006 10283 20211 56029
2026-04-22 22:53:00,METAR KPSP 222253Z 33014G20KT 10SM CLR 28/02 A2991 RMK AO2 SLP127 T02780017
2026-04-22 21:53:00,METAR KPSP 222153Z 01007G19KT 340V040 10SM CLR 27/02 A2995 RMK AO2 SLP139 T02670017
2026-04-22 20:53:00,METAR KPSP 222053Z 31014G21KT 10SM CLR 26/02 A2998 RMK AO2 PK WND 33029/2002 SLP149 T02610022 58026
2026-04-22 19:53:00,METAR KPSP 221953Z 31019G26KT 10SM CLR 25/03 A3001 RMK AO2 PK WND 32028/1920 SLP161 T02500028
2026-04-22 18:53:00,METAR KPSP 221853Z 24005KT 10SM CLR 23/02 A3003 RMK AO2 SLP169 T02280022
2026-04-22 17:53:00,METAR KPSP 221753Z VRB05KT 10SM CLR 22/03 A3005 RMK AO2 SLP175 T02170028 10217 20150 53005
2026-04-22 16:53:00,METAR KPSP 221653Z VRB03KT 10SM CLR 20/03 A3005 RMK AO2 SLP173 T02000033
2026-04-22 15:53:00,METAR KPSP 221553Z 24004KT 10SM CLR 19/05 A3004 RMK AO2 SLP171 T01890050
2026-04-22 14:53:00,METAR KPSP 221453Z 15003KT 10SM CLR 17/06 A3004 RMK AO2 SLP171 T01670061 53013
2026-04-22 13:53:00,METAR KPSP 221353Z 00000KT 10SM CLR 16/06 A3003 RMK AO2 SLP166 T01560061
2026-04-22 12:53:00,METAR KPSP 221253Z 00000KT 10SM CLR 16/06 A3001 RMK AO2 SLP161 T01610061
2026-04-22 11:53:00,METAR KPSP 221153Z AUTO 13003KT 10SM CLR 16/06 A3000 RMK AO2 SLP158 T01610056 10211 20156 53004
2026-04-22 10:53:00,METAR KPSP 221053Z AUTO 14004KT 10SM CLR 17/06 A2999 RMK AO2 SLP155 T01670056
2026-04-22 09:53:00,METAR KPSP 220953Z AUTO 15003KT 10SM CLR 17/06 A2999 RMK AO2 SLP153 T01720056
2026-04-22 08:53:00,METAR KPSP 220853Z AUTO 33008KT 10SM CLR 19/05 A2999 RMK AO2 SLP152 T01890050 52002
2026-04-22 07:53:00,METAR KPSP 220753Z AUTO 33007KT 10SM CLR 19/07 A2999 RMK AO2 SLP153 T01890067 403110161
2026-04-22 06:53:00,METAR KPSP 220653Z AUTO 32012KT 10SM CLR 20/07 A2998 RMK AO2 SLP149 T02000067
2026-04-22 05:53:00,METAR KPSP 220553Z 07007KT 10SM CLR 21/04 A2998 RMK AO2 SLP150 T02110044 10267 20211 51025
2026-04-22 04:53:00,METAR KPSP 220453Z 11013G17KT 10SM CLR 22/05 A2996 RMK AO2 SLP144 T02170050
2026-04-22 03:53:00,METAR KPSP 220353Z VRB06KT 10SM CLR 22/07 A2994 RMK AO2 SLP137 T02220067
2026-04-22 02:53:00,METAR KPSP 220253Z 34011G21KT 10SM CLR 23/07 A2991 RMK AO2 SLP126 T02330072 53009
2026-04-22 01:53:00,METAR KPSP 220153Z 34012KT 10SM CLR 24/08 A2990 RMK AO2 PK WND 32026/0111 SLP122 T02390083
2026-04-22 00:53:00,METAR KPSP 220053Z 33011G23KT 10SM CLR 25/08 A2989 RMK AO2 PK WND 33034/0009 SLP119 T02500078
2026-04-21 23:53:00,METAR KPSP 212353Z 32020G28KT 10SM CLR 27/08 A2988 RMK AO2 PK WND 34033/2323 SLP116 T02670083 10311 20261 53001
2026-04-21 22:53:00,METAR KPSP 212253Z 35017G36KT 10SM CLR 29/04 A2987 RMK AO2 PK WND 36027/2253 WSHFT 2149 SLP110 T02940044
2026-04-21 22:09:00,SPECI KPSP 212209Z AUTO 33015G25KT 10SM CLR 29/02 A2987 RMK AO2 WSHFT 2149 T02940022
2026-04-21 21:53:00,METAR KPSP 212153Z AUTO 32012G21KT 10SM CLR 31/02 A2987 RMK AO2 PK WND 36026/2102 SLP113 T03060022
2026-04-21 20:53:00,METAR KPSP 212053Z 32011G20KT 10SM CLR 29/M03 A2988 RMK AO2 SLP114 T02941028 58022
2026-04-21 19:53:00,METAR KPSP 211953Z 36004G21KT 10SM CLR 29/M04 A2990 RMK AO2 SLP121 T02941044
2026-04-21 18:53:00,METAR KPSP 211853Z 10SM CLR 28/M02 A2993 RMK AO2 SLP132 T02781022
2026-04-21 17:53:00,METAR KPSP 211753Z 04007KT 10SM CLR 27/01 A2994 RMK AO2 SLP136 T02670006 10272 20161 51009
2026-04-21 16:53:00,METAR KPSP 211653Z 00000KT 10SM CLR 25/02 A2994 RMK AO2 SLP134 T02500017
2026-04-21 15:53:00,METAR KPSP 211553Z 08003KT 10SM CLR 23/03 A2993 RMK AO2 SLP131 T02280033
2026-04-21 14:53:00,METAR KPSP 211453Z 00000KT 10SM CLR 20/04 A2991 RMK AO2 SLP127 T02000044 53013
2026-04-21 13:53:00,METAR KPSP 211353Z 00000KT 10SM CLR 17/05 A2990 RMK AO2 SLP123 T01720050
2026-04-21 12:53:00,METAR KPSP 211253Z 00000KT 10SM CLR 17/06 A2988 RMK AO2 SLP116 T01670061
2026-04-21 11:53:00,METAR KPSP 211153Z AUTO 00000KT 10SM CLR 18/05 A2988 RMK AO2 SLP114 T01780050 10239 20167 56004
2026-04-21 10:53:00,METAR KPSP 211053Z AUTO 04006KT 10SM CLR 18/05 A2988 RMK AO2 SLP114 T01830050
2026-04-21 09:53:00,METAR KPSP 210953Z AUTO 00000KT 10SM CLR 20/04 A2988 RMK AO2 SLP115 T02000044
2026-04-21 08:53:00,METAR KPSP 210853Z AUTO 28003KT 10SM CLR 21/04 A2989 RMK AO2 SLP118 T02060039 50007
2026-04-21 07:53:00,METAR KPSP 210753Z AUTO 30005KT 10SM CLR 22/03 A2989 RMK AO2 SLP120 T02220028 403390178
2026-04-21 06:53:00,METAR KPSP 210653Z AUTO 31011G26KT 10SM CLR 23/03 A2988 RMK AO2 PK WND 31028/0617 SLP114 T02280028
2026-04-21 05:53:00,METAR KPSP 210553Z 32017G23KT 10SM CLR 24/02 A2987 RMK AO2 PK WND 32027/0454 SLP111 T02390022 10328 20239 51016
2026-04-21 04:53:00,METAR KPSP 210453Z 32019G27KT 10SM CLR 25/04 A2986 RMK AO2 PK WND 33027/0451 SLP109 T02500039
2026-04-21 03:53:00,METAR KPSP 210353Z 32015KT 10SM CLR 27/05 A2984 RMK AO2 SLP103 T02670050
2026-04-21 02:53:00,METAR KPSP 210253Z 33013KT 10SM CLR 28/04 A2982 RMK AO2 SLP095 T02830044 56003
2026-04-21 01:53:00,METAR KPSP 210153Z 33014G22KT 10SM CLR 30/04 A2982 RMK AO2 SLP095 T03000039
2026-04-21 00:53:00,METAR KPSP 210053Z 35012G20KT 10SM CLR 32/02 A2982 RMK AO2 SLP095 T03170017
2026-04-20 23:53:00,METAR KPSP 202353Z VRB05G17KT 10SM CLR 32/01 A2983 RMK AO2 SLP098 T03220011 10339 20272 56018
2026-04-20 22:53:00,METAR KPSP 202253Z VRB05KT 10SM CLR 33/03 A2985 RMK AO2 SLP103 T03280028
2026-04-20 21:53:00,METAR KPSP 202153Z VRB05KT 10SM CLR 32/03 A2986 RMK AO2 SLP109 T03220028
2026-04-20 20:53:00,METAR KPSP 202053Z 03005KT 10SM CLR 32/02 A2989 RMK AO2 SLP117 T03170022 58018
2026-04-20 19:53:00,METAR KPSP 201953Z VRB04KT 10SM CLR 31/M01 A2991 RMK AO2 SLP125 T03061006
2026-04-20 18:53:00,METAR KPSP 201853Z VRB05KT 10SM CLR 29/03 A2993 RMK AO2 SLP129 T02940033
2026-04-20 17:53:00,METAR KPSP 201753Z VRB03KT 10SM CLR 27/04 A2994 RMK AO2 SLP135 T02720039 10272 20178 51008
2026-04-20 16:53:00,METAR KPSP 201653Z 11005KT 10SM CLR 26/04 A2994 RMK AO2 SLP135 T02560039 $
2026-04-20 15:53:00,METAR KPSP 201553Z 00000KT 10SM CLR 24/04 A2993 RMK AO2 SLP133 T02390044 $
2026-04-20 14:53:00,METAR KPSP 201453Z 13003KT 10SM CLR 22/04 A2991 RMK AO2 SLP127 T02170039 53024 $
2026-04-20 13:53:00,METAR KPSP 201353Z 00000KT 10SM CLR 19/04 A2988 RMK AO2 SLP116 T01890044 $
2026-04-20 12:53:00,METAR KPSP 201253Z 00000KT 10SM CLR 19/04 A2985 RMK AO2 SLP106 T01890044 $
2026-04-20 11:53:00,METAR KPSP 201153Z AUTO 15004KT 10SM CLR 18/04 A2984 RMK AO2 SLP102 T01830044 10261 20178 55000 $
2026-04-20 10:53:00,METAR KPSP 201053Z AUTO 00000KT 10SM CLR 20/05 A2984 RMK AO2 SLP102 T02000050 $
2026-04-20 09:53:00,METAR KPSP 200953Z AUTO VRB04KT 10SM CLR 20/04 A2984 RMK AO2 SLP103 T02000044 $
2026-04-20 08:53:00,METAR KPSP 200853Z AUTO 00000KT 10SM CLR 22/04 A2984 RMK AO2 SLP103 T02170044 50005 $
2026-04-20 07:53:00,METAR KPSP 200753Z AUTO 00000KT 10SM CLR 23/04 A2985 RMK AO2 SLP102 T02280039 403500178 $
2026-04-20 06:53:00,METAR KPSP 200653Z AUTO 29006KT 10SM CLR 26/03 A2983 RMK AO2 SLP097 T02560028 $
2026-04-20 05:53:00,METAR KPSP 200553Z AUTO 32014KT 10SM CLR 26/03 A2983 RMK AO2 SLP097 T02560033 10339 20256 51019 $
2026-04-20 04:53:00,METAR KPSP 200453Z AUTO 32012KT 10SM CLR 27/02 A2982 RMK AO2 SLP094 T02720022 $
2026-04-20 03:53:00,METAR KPSP 200353Z AUTO 32013G21KT 10SM CLR 28/02 A2980 RMK AO2 SLP089 T02830022 $
2026-04-20 02:53:00,METAR KPSP 200253Z 32015G23KT 10SM CLR 30/03 A2977 RMK AO2 SLP079 T03000028 53004 $
2026-04-20 01:53:00,METAR KPSP 200153Z 31011G21KT 10SM CLR 31/01 A2977 RMK AO2 SLP076 T03060006 $
2026-04-20 00:53:00,METAR KPSP 200053Z 33014G19KT 10SM CLR 32/02 A2976 RMK AO2 SLP074 T03220022 $
2026-04-19 23:53:00,METAR KPSP 192353Z 33016G22KT 10SM CLR 33/01 A2976 RMK AO2 SLP075 T03330006 10350 20294 56020 $
2026-04-19 22:53:00,METAR KPSP 192253Z 33012KT 10SM CLR 34/M01 A2977 RMK AO2 SLP079 T03391011 $
2026-04-19 21:53:00,METAR KPSP 192153Z 32018KT 10SM CLR 34/M02 A2980 RMK AO2 SLP086 T03391022 $
2026-04-19 20:53:00,METAR KPSP 192053Z 00000KT 10SM CLR 33/M08 A2982 RMK AO2 SLP095 T03281083 58017 $
2026-04-19 19:53:00,METAR KPSP 191953Z VRB03KT 10SM CLR 32/M10 A2984 RMK AO2 SLP101 T03221100 $
2026-04-19 18:53:00,METAR KPSP 191853Z 00000KT 10SM CLR 31/M11 A2986 RMK AO2 SLP110 T03061111 $
2026-04-19 17:53:00,METAR KPSP 191753Z 00000KT 10SM CLR 30/M08 A2987 RMK AO2 SLP113 T03001078 10300 20178 50000 $
2026-04-19 16:53:00,METAR KPSP 191653Z 00000KT 10SM CLR 28/M07 A2988 RMK AO2 SLP114 T02781067 $
2026-04-19 15:53:00,METAR KPSP 191553Z 33005KT 10SM CLR 25/M04 A2988 RMK AO2 SLP113 T02501039 $
2026-04-19 14:53:00,METAR KPSP 191453Z 35009KT 10SM CLR 21/M02 A2987 RMK AO2 SLP113 T02111017 53009 $
2026-04-19 13:53:00,METAR KPSP 191353Z 33007KT 10SM CLR 19/01 A2985 RMK AO2 SLP106 T01890006 $
2026-04-19 12:53:00,METAR KPSP 191253Z AUTO 34005KT 10SM CLR 18/M01 A2984 RMK AO2 SLP103 T01781011 $
2026-04-19 11:53:00,METAR KPSP 191153Z AUTO 34008KT 10SM CLR 20/01 A2985 RMK AO2 SLP104 T02000006 10244 20183 58013 $
2026-04-19 10:53:00,METAR KPSP 191053Z AUTO 31004KT 10SM CLR 20/M01 A2986 RMK AO2 SLP108 T02001011 $
2026-04-19 09:53:00,METAR KPSP 190953Z AUTO 34004KT 10SM CLR 22/00 A2988 RMK AO2 SLP114 T02170000 $
2026-04-19 08:53:00,METAR KPSP 190853Z AUTO 05003KT 10SM CLR 21/01 A2989 RMK AO2 SLP117 T02110011 58005 $
2026-04-19 07:53:00,METAR KPSP 190753Z AUTO 00000KT 10SM CLR 23/M05 A2990 RMK AO2 SLP123 T02331050 403110133 $
2026-04-19 06:53:00,METAR KPSP 190653Z AUTO 00000KT 10SM CLR 23/M04 A2991 RMK AO2 SLP124 T02331039 $
2026-04-19 05:53:00,METAR KPSP 190553Z AUTO 02004KT 10SM CLR 24/01 A2990 RMK AO2 SLP122 T02440006 10306 20239 50010 $
2026-04-19 04:53:00,METAR KPSP 190453Z 20003KT 10SM CLR 24/01 A2990 RMK AO2 SLP123 T02390011 $
2026-04-19 03:53:00,METAR KPSP 190353Z 35007KT 10SM CLR 27/01 A2988 RMK AO2 SLP116 T02720011 $
2026-04-19 03:31:00,SPECI KPSP 190331Z 33013G21KT 10SM CLR 27/01 A2988 RMK AO2 T02720011 $
2026-04-19 02:53:00,METAR KPSP 190253Z 00000KT 10SM CLR 27/M11 A2987 RMK AO2 SLP113 T02721106 53003 $
2026-04-19 01:53:00,METAR KPSP 190153Z 14007KT 10SM CLR 29/M12 A2986 RMK AO2 SLP108 T02891117 $
2026-04-19 00:53:00,METAR KPSP 190053Z 12005KT 10SM CLR 30/M13 A2986 RMK AO2 SLP108 T03001133 $
2026-04-18 23:53:00,METAR KPSP 182353Z VRB03KT 10SM CLR 31/M14 A2986 RMK AO2 SLP109 T03061139 10311 20261 56026 $
2026-04-18 22:53:00,METAR KPSP 182253Z 13003G14KT 10SM CLR 30/M13 A2988 RMK AO2 SLP116 T03001133 $
2026-04-18 21:53:00,METAR KPSP 182153Z 16008KT 10SM CLR 31/M12 A2991 RMK AO2 SLP127 T03061117 $
2026-04-18 20:53:00,METAR KPSP 182053Z 14008G16KT 10SM CLR 30/M16 A2994 RMK AO2 SLP136 T03001156 58020 $
2026-04-18 19:54:00,SPECI KPSP 181954Z 13011KT 10SM CLR 29/M18 A2996 RMK AO2 T02941178 $
2026-04-18 19:53:00,METAR KPSP 181953Z VRB06KT 10SM CLR 29/M18 A2996 RMK AO2 SLP143 T02941178 $
2026-04-18 18:53:00,METAR KPSP 181853Z VRB03KT 10SM CLR 27/M19 A2999 RMK AO2 SLP152 T02721194 $
2026-04-18 17:53:00,METAR KPSP 181753Z 32004KT 10SM CLR 26/M20 A3000 RMK AO2 SLP156 T02611200 10272 20133 58000 $
2026-04-18 16:53:00,METAR KPSP 181653Z VRB05KT 10SM CLR 26/M18 A3001 RMK AO2 SLP158 T02561183 $
2026-04-18 15:53:00,METAR KPSP 181553Z 00000KT 10SM CLR 23/M15 A3000 RMK AO2 SLP157 T02331150 $
2026-04-18 14:53:00,METAR KPSP 181453Z 26003KT 10SM CLR 19/M11 A3000 RMK AO2 SLP157 T01941106 53011 $
2026-04-18 13:53:00,METAR KPSP 181353Z 34005KT 10SM CLR 15/M11 A2998 RMK AO2 SLP152 T01501106 $
2026-04-18 12:53:00,METAR KPSP 181253Z 33008KT 10SM CLR 16/M11 A2997 RMK AO2 SLP147 T01561111 $
2026-04-18 11:53:00,METAR KPSP 181153Z AUTO 29005KT 10SM CLR 18/M12 A2997 RMK AO2 SLP146 T01781122 10228 20161 55003 $
2026-04-18 10:53:00,METAR KPSP 181053Z AUTO 33008KT 10SM CLR 18/M13 A2997 RMK AO2 SLP146 T01781128 $
2026-04-18 09:53:00,METAR KPSP 180953Z AUTO 26006KT 10SM CLR 19/M14 A2997 RMK AO2 SLP146 T01891139 $
2026-04-18 08:53:00,METAR KPSP 180853Z AUTO 27005KT 10SM CLR 19/M14 A2998 RMK AO2 SLP149 T01891139 58005 $
2026-04-18 07:53:00,METAR KPSP 180753Z AUTO 31006KT 10SM CLR 21/M19 A2999 RMK AO2 SLP155 T02111194 402780161 $
2026-04-18 06:53:00,METAR KPSP 180653Z AUTO 31006KT 10SM CLR 22/M20 A2999 RMK AO2 SLP155 T02171200 $
2026-04-18 05:53:00,METAR KPSP 180553Z AUTO 31008KT 10SM CLR 23/M21 A2999 RMK AO2 SLP153 T02281211 10278 20222 51020 $
2026-04-18 04:53:00,METAR KPSP 180453Z 31008KT 10SM CLR 23/M19 A2998 RMK AO2 SLP151 T02331194 $
2026-04-18 03:53:00,METAR KPSP 180353Z 32007KT 10SM CLR 24/M18 A2996 RMK AO2 SLP142 T02441178 $
2026-04-18 02:53:00,METAR KPSP 180253Z 29006KT 10SM CLR 25/M14 A2993 RMK AO2 SLP134 T02501144 53001 $
2026-04-18 01:53:00,METAR KPSP 180153Z 02007KT 10SM CLR 26/M13 A2992 RMK AO2 SLP130 T02611128 $
2026-04-18 00:53:00,METAR KPSP 180053Z 27005KT 10SM CLR 27/M12 A2992 RMK AO2 SLP131 T02721122 $
2026-04-17 23:53:00,METAR KPSP 172353Z 03005KT 10SM CLR 28/M12 A2993 RMK AO2 SLP133 T02781122 10278 20239 56024 $
2026-04-17 22:53:00,METAR KPSP 172253Z VRB03KT 10SM CLR 28/M12 A2995 RMK AO2 SLP140 T02781122 $
2026-04-17 21:53:00,METAR KPSP 172153Z 31007G13KT 10SM CLR 26/M13 A2998 RMK AO2 SLP150 T02611128 $
2026-04-17 20:53:00,METAR KPSP 172053Z VRB05G18KT 10SM CLR 26/M13 A3000 RMK AO2 SLP157 T02561128 58014 $
2026-04-17 19:53:00,METAR KPSP 171953Z 31006G16KT 10SM CLR 25/M12 A3002 RMK AO2 SLP164 T02501122 $
2026-04-17 18:53:00,METAR KPSP 171853Z 36009G16KT 10SM CLR 24/M12 A3004 RMK AO2 SLP171 T02391122 $
2026-04-17 17:53:00,METAR KPSP 171753Z 34016G23KT 10SM CLR 24/M12 A3005 RMK AO2 SLP172 T02441122 10244 20161 51018 $
2026-04-17 16:53:00,METAR KPSP 171653Z 34015G22KT 10SM CLR 23/M13 A3003 RMK AO2 SLP168 T02281128 $
2026-04-17 15:53:00,METAR KPSP 171553Z 33012G20KT 10SM CLR 22/M12 A3002 RMK AO2 SLP163 T02171122 $
2026-04-17 14:53:00,METAR KPSP 171453Z 32012G22KT 10SM CLR 21/M08 A2999 RMK AO2 SLP154 T02061083 53045 $
2026-04-17 13:53:00,METAR KPSP 171353Z 31009KT 10SM CLR 18/06 A2993 RMK AO2 SLP134 T01830056 $
2026-04-17 12:53:00,METAR KPSP 171253Z 32010KT 10SM CLR 18/07 A2989 RMK AO2 SLP120 T01780067 $
2026-04-17 11:53:00,METAR KPSP 171153Z AUTO 00000KT 10SM CLR 17/06 A2986 RMK AO2 SLP108 T01720056 10228 20172 53023 $
2026-04-17 10:53:00,METAR KPSP 171053Z AUTO 00000KT 10SM CLR 18/06 A2983 RMK AO2 SLP098 T01830061 $
2026-04-17 09:53:00,METAR KPSP 170953Z AUTO 10004KT 10SM CLR 18/06 A2981 RMK AO2 SLP091 T01830056 $
2026-04-17 08:53:00,METAR KPSP 170853Z AUTO 31006KT 10SM CLR 21/04 A2979 RMK AO2 SLP084 T02060044 53005 $
2026-04-17 07:53:00,METAR KPSP 170753Z AUTO 31011G21KT 10SM CLR 21/05 A2978 RMK AO2 PK WND 32027/0735 SLP082 T02110050 403060167 $
2026-04-17 06:53:00,METAR KPSP 170653Z AUTO 32019G27KT 10SM CLR 21/05 A2977 RMK AO2 PK WND 32027/0651 SLP078 T02110050 $
2026-04-17 05:53:00,METAR KPSP 170553Z 32012G22KT 10SM CLR 22/06 A2977 RMK AO2 SLP079 T02220056 10294 20222 51013 $
2026-04-17 04:53:00,METAR KPSP 170453Z 32014G24KT 10SM CLR 23/06 A2976 RMK AO2 PK WND 32026/0441 SLP075 T02330061 $
2026-04-17 03:53:00,METAR KPSP 170353Z 32015G23KT 10SM CLR 24/05 A2975 RMK AO2 PK WND 33026/0319 SLP071 T02440050 $
2026-04-17 02:53:00,METAR KPSP 170253Z 32018G28KT 10SM CLR 26/04 A2974 RMK AO2 PK WND 31027/0201 SLP067 T02560039 55001 $
2026-04-17 01:53:00,METAR KPSP 170153Z 32014G23KT 10SM CLR 27/07 A2972 RMK AO2 SLP063 T02670067 $
2026-04-17 00:53:00,METAR KPSP 170053Z 32012G18KT 10SM CLR 29/04 A2973 RMK AO2 SLP065 T02890044 $
2026-04-16 23:53:00,METAR KPSP 162353Z 33015G22KT 10SM CLR 29/03 A2974 RMK AO2 SLP068 T02890033 10306 20261 56021 $
2026-04-16 22:53:00,METAR KPSP 162253Z 31011G19KT 10SM CLR 29/02 A2975 RMK AO2 PK WND 36026/2215 SLP070 T02940017 $
2026-04-16 21:53:00,METAR KPSP 162153Z 35015G22KT 10SM CLR 31/02 A2977 RMK AO2 SLP078 T03060017 $
2026-04-16 20:53:00,METAR KPSP 162053Z 00000KT 10SM CLR 28/01 A2980 RMK AO2 SLP088 T02830006 58023 $
2026-04-16 19:53:00,METAR KPSP 161953Z VRB03KT 10SM CLR 28/01 A2983 RMK AO2 SLP099 T02780006 $
2026-04-16 18:53:00,METAR KPSP 161853Z 28007KT 10SM CLR 27/02 A2985 RMK AO2 SLP105 T02720017 $
2026-04-16 17:53:00,METAR KPSP 161753Z 35008KT 290V020 10SM CLR 26/03 A2987 RMK AO2 SLP112 T02610028 10267 20167 51006 $
2026-04-16 16:53:00,METAR KPSP 161653Z COR 31008KT 10SM CLR 24/03 A2987 RMK AO2 SLP111 T02390033 $
2026-04-16 15:53:00,METAR KPSP 161553Z 00000KT 10SM CLR 22/06 A2986 RMK AO2 SLP109 T02220061 $
2026-04-16 14:53:00,METAR KPSP 161453Z 14003KT 10SM CLR 20/07 A2985 RMK AO2 SLP106 T02000072 53008 $
2026-04-16 13:53:00,METAR KPSP 161353Z 19004KT 10SM CLR 18/08 A2983 RMK AO2 SLP100 T01780083 $
2026-04-16 12:53:00,METAR KPSP 161253Z 23003KT 10SM CLR 17/08 A2982 RMK AO2 SLP097 T01720083 $
2026-04-16 11:53:00,METAR KPSP 161153Z AUTO 00000KT 10SM CLR 17/09 A2983 RMK AO2 SLP098 T01670089 10233 20167 56014 $
2026-04-16 10:53:00,METAR KPSP 161053Z AUTO 00000KT 10SM CLR 18/08 A2984 RMK AO2 SLP100 T01780083 $
2026-04-16 09:53:00,METAR KPSP 160953Z AUTO 18003KT 10SM CLR 19/08 A2985 RMK AO2 SLP105 T01890083 $
2026-04-16 08:53:00,METAR KPSP 160853Z AUTO 15004KT 10SM CLR 19/08 A2987 RMK AO2 SLP111 T01890078 58007 $
2026-04-16 07:53:00,METAR KPSP 160753Z AUTO 28004KT 10SM CLR 22/07 A2989 RMK AO2 SLP118 T02170067 403060156 $
2026-04-16 06:53:00,METAR KPSP 160653Z AUTO 30006KT 10SM CLR 23/07 A2989 RMK AO2 SLP118 T02280067 $
2026-04-16 05:53:00,METAR KPSP 160553Z AUTO 31017KT 10SM CLR 23/07 A2989 RMK AO2 SLP119 T02330072 10300 20233 50012 $
2026-04-16 04:53:00,METAR KPSP 160453Z 30012G21KT 10SM CLR 24/07 A2990 RMK AO2 SLP123 T02440067 $
2026-04-16 03:53:00,METAR KPSP 160353Z 31017G23KT 10SM CLR 26/06 A2988 RMK AO2 SLP116 T02560061 $
2026-04-16 02:53:00,METAR KPSP 160253Z 33012G20KT 10SM CLR 27/06 A2986 RMK AO2 WSHFT 0156 SLP108 T02670061 55001 $
2026-04-16 02:16:00,SPECI KPSP 160216Z 33012KT 10SM CLR 27/05 A2985 RMK AO2 WSHFT 0156 T02720050 $
2026-04-16 01:57:00,SPECI KPSP 160157Z 33012KT 10SM CLR 28/01 A2985 RMK AO2 T02780006 $
2026-04-16 01:53:00,METAR KPSP 160153Z 13006KT 10SM CLR 28/01 A2985 RMK AO2 SLP105 T02830006 $
2026-04-16 00:53:00,METAR KPSP 160053Z 14009KT 10SM CLR 29/01 A2985 RMK AO2 SLP105 T02940011 $
2026-04-15 23:53:00,METAR KPSP 152353Z 11005KT 10SM CLR 30/01 A2986 RMK AO2 SLP108 T03000011 10306 20261 56024 $
2026-04-15 22:53:00,METAR KPSP 152253Z 12012KT 10SM CLR 31/01 A2988 RMK AO2 SLP114 T03060011 $
2026-04-15 21:53:00,METAR KPSP 152153Z 13006KT 10SM CLR 30/01 A2991 RMK AO2 SLP125 T03000006 $
2026-04-15 20:53:00,METAR KPSP 152053Z 13004KT 10SM CLR 29/00 A2993 RMK AO2 SLP133 T02940000 58018 $
2026-04-15 19:53:00,METAR KPSP 151953Z 14012G15KT 10SM CLR 29/00 A2996 RMK AO2 SLP140 T02940000 $
2026-04-15 19:09:00,SPECI KPSP 151909Z 12005KT 10SM CLR 28/M01 A2997 RMK AO2 T02781011 $
2026-04-15 18:53:00,METAR KPSP 151853Z VRB05KT 10SM CLR 28/M02 A2998 RMK AO2 SLP148 T02781017 $
2026-04-15 17:53:00,METAR KPSP 151753Z 00000KT 10SM CLR 27/01 A2999 RMK AO2 SLP151 T02670011 10267 20161 56003 $
2026-04-15 16:53:00,METAR KPSP 151653Z VRB03KT 10SM CLR 25/03 A2999 RMK AO2 SLP151 T02500033 $
2026-04-15 15:53:00,METAR KPSP 151553Z 00000KT 10SM CLR 23/04 A2999 RMK AO2 SLP153 T02280044 $
2026-04-15 14:53:00,METAR KPSP 151453Z 33006KT 10SM CLR 20/06 A2999 RMK AO2 SLP155 T02000061 53008 $
2026-04-15 13:53:00,METAR KPSP 151353Z 33008KT 10SM CLR 17/07 A2998 RMK AO2 SLP152 T01720067 $
2026-04-15 12:53:00,METAR KPSP 151253Z AUTO 32006KT 10SM CLR 17/07 A2997 RMK AO2 SLP147 T01670067 $
2026-04-15 11:53:00,METAR KPSP 151153Z AUTO 32005KT 10SM CLR 17/06 A2997 RMK AO2 SLP147 T01720061 10222 20156 56003 $
2026-04-15 10:53:00,METAR KPSP 151053Z AUTO 00000KT 10SM CLR 17/07 A2997 RMK AO2 SLP147 T01670072 $
2026-04-15 09:53:00,METAR KPSP 150953Z AUTO 34009KT 10SM CLR 18/07 A2997 RMK AO2 SLP147 T01830067 $
2026-04-15 08:53:00,METAR KPSP 150853Z AUTO 00000KT 10SM CLR 18/07 A2998 RMK AO2 SLP149 T01780072 50004 $
2026-04-15 07:53:00,METAR KPSP 150753Z AUTO 00000KT 10SM CLR 19/07 A2998 RMK AO2 SLP151 T01940067 402830111 $
2026-04-15 06:53:00,METAR KPSP 150653Z AUTO 28004KT 10SM CLR 21/06 A2997 RMK AO2 SLP147 T02110061 $
2026-04-15 05:53:00,METAR KPSP 150553Z AUTO 32012G16KT 10SM CLR 22/06 A2996 RMK AO2 SLP145 T02220056 10283 20222 51016 $
2026-04-15 04:53:00,METAR KPSP 150453Z 29005G17KT 10SM CLR 23/07 A2996 RMK AO2 SLP145 T02280067 $
2026-04-15 03:53:00,METAR KPSP 150353Z 32016G21KT 10SM CLR 23/07 A2994 RMK AO2 SLP138 T02330067 $
2026-04-15 02:53:00,METAR KPSP 150253Z 33012KT 10SM CLR 24/04 A2992 RMK AO2 SLP129 T02440044 55005 $
2026-04-15 01:53:00,METAR KPSP 150153Z 32012G19KT 10SM CLR 26/04 A2992 RMK AO2 SLP130 T02560039 $
2026-04-15 00:53:00,METAR KPSP 150053Z 32011KT 10SM CLR 28/03 A2992 RMK AO2 SLP130 T02780033 $
2026-04-14 23:53:00,METAR KPSP 142353Z 32012G20KT 10SM CLR 28/03 A2993 RMK AO2 SLP134 T02780028 10283 20211 56023 $
2026-04-14 22:53:00,METAR KPSP 142253Z 31006KT 10SM CLR 28/01 A2995 RMK AO2 SLP138 T02780011 $
2026-04-14 21:53:00,METAR KPSP 142153Z 01003KT 10SM CLR 27/00 A2997 RMK AO2 SLP146 T02670000 $
2026-04-14 20:53:00,METAR KPSP 142053Z VRB03KT 10SM CLR 26/01 A3000 RMK AO2 SLP157 T02610006 58020 $
2026-04-14 19:53:00,METAR KPSP 141953Z 36003KT 10SM CLR 24/03 A3003 RMK AO2 SLP166 T02440028 $
2026-04-14 18:53:00,METAR KPSP 141853Z 00000KT 10SM CLR 22/04 A3005 RMK AO2 SLP175 T02220044 $
2026-04-14 18:03:00,SPECI KPSP 141803Z VRB05KT 10SM CLR 22/04 A3006 RMK AO2 T02170039 $
2026-04-14 17:54:00,SPECI KPSP 141754Z VRB03KT 22/04 A3006 RMK AO2 T02170039 $
2026-04-14 17:53:00,METAR KPSP 141753Z 05003KT 10SM CLR 22/04 A3006 RMK AO2 SLP179 T02170039 10217 20111 51006 $
2026-04-14 16:53:00,METAR KPSP 141653Z 00000KT 10SM CLR 20/03 A3006 RMK AO2 SLP177 T02000028
2026-04-14 15:53:00,METAR KPSP 141553Z 00000KT 10SM CLR 17/04 A3005 RMK AO2 SLP176 T01720039
2026-04-14 14:53:00,METAR KPSP 141453Z 00000KT 10SM CLR 16/05 A3004 RMK AO2 SLP173 T01560050 53013
2026-04-14 13:53:00,METAR KPSP 141353Z 25003KT 10SM CLR 13/04 A3002 RMK AO2 SLP168 T01280044
2026-04-14 12:53:00,METAR KPSP 141253Z 00000KT 10SM CLR 13/03 A3000 RMK AO2 SLP159 T01280033
2026-04-14 11:53:00,METAR KPSP 141153Z 00000KT 10SM CLR 13/04 A3001 RMK AO2 SLP160 T01280044 10161 20117 56004
2026-04-14 10:53:00,METAR KPSP 141053Z 08003KT 10SM CLR 13/04 A3001 RMK AO2 SLP161 T01330044
2026-04-14 09:53:00,METAR KPSP 140953Z 19003KT 10SM CLR 13/05 A3000 RMK AO2 SLP159 T01330050
2026-04-14 08:53:00,METAR KPSP 140853Z 33004KT 10SM CLR 15/05 A3002 RMK AO2 SLP164 T01500050 52008
2026-04-14 07:53:00,METAR KPSP 140753Z 08004KT 10SM CLR 16/05 A3001 RMK AO2 SLP162 T01560050 402280133
2026-04-14 06:53:00,METAR KPSP 140653Z 15005KT 10SM CLR 16/04 A3000 RMK AO2 SLP157 T01560044
2026-04-14 05:53:00,METAR KPSP 140553Z 17004KT 10SM CLR 16/04 A2999 RMK AO2 SLP156 T01610044 10211 20161 51016
2026-04-14 04:53:00,METAR KPSP 140453Z 05007KT 10SM CLR 17/04 A2999 RMK AO2 SLP155 T01720044
2026-04-14 03:53:00,METAR KPSP 140353Z AUTO 33010KT 10SM CLR 18/04 A2997 RMK AO2 SLP149 T01780039
2026-04-14 02:53:00,METAR KPSP 140253Z AUTO 31007G21KT 10SM FEW100 18/04 A2995 RMK AO2 SLP139 T01780039 53009
2026-04-14 01:53:00,METAR KPSP 140153Z AUTO 19012G21KT 10SM CLR 18/03 A2993 RMK AO2 SLP133 T01830033
2026-04-14 00:53:00,METAR KPSP 140053Z 23005KT 10SM BKN100 21/03 A2992 RMK AO2 SLP132 T02060028
2026-04-13 23:53:00,METAR KPSP 132353Z 10SM SCT100 21/02 A2992 RMK AO2 SLP131 60000 T02060017 10228 20194 56017
2026-04-13 22:53:00,METAR KPSP 132253Z 14008KT 10SM FEW070 22/03 A2992 RMK AO2 SLP131 T02170028
2026-04-13 21:53:00,METAR KPSP 132153Z 06006G15KT 10SM SCT080 22/03 A2994 RMK AO2 PK WND 33030/2106 SLP137 T02220028
2026-04-13 20:53:00,METAR KPSP 132053Z 32012KT 10SM SCT090 22/03 A2997 RMK AO2 PK WND 33029/2014 RAE1955 SLP147 P0000 60000 T02220033 58007
2026-04-13 19:53:00,METAR KPSP 131953Z 34017G26KT 10SM -RA BKN070 BKN085 21/04 A2998 RMK AO2 PK WND 33027/1919 RAB42 SLP151 P0000 T02060044
2026-04-13 18:53:00,METAR KPSP 131853Z 34010G18KT 10SM SCT080 BKN095 21/03 A2998 RMK AO2 SLP151 T02110028
2026-04-13 17:53:00,METAR KPSP 131753Z VRB05KT 10SM FEW100 21/02 A2999 RMK AO2 SLP154 T02110017 10211 20133 50002
2026-04-13 16:53:00,METAR KPSP 131653Z VRB05KT 10SM CLR 21/02 A3000 RMK AO2 SLP156 T02060022
2026-04-13 15:53:00,METAR KPSP 131553Z VRB05KT 10SM FEW070 19/04 A2999 RMK AO2 SLP154 T01940044
2026-04-13 14:53:00,METAR KPSP 131453Z VRB04KT 10SM CLR 18/04 A2998 RMK AO2 SLP152 T01780044 53010
2026-04-13 13:53:00,METAR KPSP 131353Z AUTO 12006KT 10SM CLR 16/06 A2997 RMK AO2 SLP149 T01560056
2026-04-13 12:53:00,METAR KPSP 131253Z AUTO 00000KT 10SM CLR 14/07 A2996 RMK AO2 SLP144 T01390067
2026-04-13 11:53:00,METAR KPSP 131153Z AUTO VRB04KT 10SM CLR 14/07 A2995 RMK AO2 SLP142 T01440067 10183 20144 56001
2026-04-13 10:53:00,METAR KPSP 131053Z AUTO VRB03KT 10SM CLR 14/06 A2995 RMK AO2 SLP142 T01440061
2026-04-13 09:53:00,METAR KPSP 130953Z AUTO 08005KT 10SM BKN060 16/06 A2995 RMK AO2 SLP141 T01560061
2026-04-13 08:53:00,METAR KPSP 130853Z AUTO VRB04KT 10SM CLR 16/06 A2995 RMK AO2 SLP142 T01610061 58002
2026-04-13 07:53:00,METAR KPSP 130753Z AUTO 16003KT 10SM CLR 15/06 A2996 RMK AO2 SLP146 T01500056 402330150
2026-04-13 06:53:00,METAR KPSP 130653Z AUTO 07004KT 10SM CLR 17/06 A2996 RMK AO2 SLP143 T01720056
2026-04-13 05:53:00,METAR KPSP 130553Z AUTO VRB03KT 10SM CLR 18/06 A2996 RMK AO2 SLP144 60000 T01780061 10206 20172 51013
2026-04-13 04:53:00,METAR KPSP 130453Z 33006KT 10SM CLR 19/06 A2996 RMK AO2 SLP144 T01890061
2026-04-13 03:53:00,METAR KPSP 130353Z 33013G19KT 10SM BKN080 19/07 A2995 RMK AO2 SLP140 T01940067
2026-04-13 02:53:00,METAR KPSP 130253Z 32009KT 10SM FEW060 SCT075 BKN095 20/07 A2992 RMK AO2 SLP132 60000 T02000072 53008
2026-04-13 01:53:00,METAR KPSP 130153Z 32007KT 10SM FEW055 SCT070 SCT100 20/08 A2991 RMK AO2 SLP129 T02000083
2026-04-13 00:53:00,METAR KPSP 130053Z 31007KT 10SM SCT043 BKN065 BKN090 21/09 A2990 RMK AO2 RAB2355E06B30E49 SLP124 P0000 T02060094
2026-04-12 23:53:00,METAR KPSP 122353Z 33015G23KT 10SM FEW060 BKN095 OVC110 21/10 A2990 RMK AO2 PK WND 32027/2301 RAB04E13 SLP123 P0000 60000 T02060100 10233 20206 56004
2026-04-12 22:53:00,METAR KPSP 122253Z 32015G24KT 10SM BKN080 OVC095 21/10 A2990 RMK AO2 SLP123 T02110100
2026-04-12 21:53:00,METAR KPSP 122153Z 00000KT 10SM FEW048 BKN080 BKN090 23/07 A2991 RMK AO2 SLP126 T02280072
2026-04-12 20:53:00,METAR KPSP 122053Z 34007G17KT 10SM BKN085 22/07 A2991 RMK AO2 SLP127 T02220072 58015
2026-04-12 19:53:00,METAR KPSP 121953Z 34010G17KT 10SM BKN080 22/07 A2993 RMK AO2 SLP133 T02170072
2026-04-12 18:53:00,METAR KPSP 121853Z 08010G18KT 330V170 10SM OVC080 23/05 A2995 RMK AO2 SLP139 T02280050
2026-04-12 17:53:00,METAR KPSP 121753Z 00000KT 10SM FEW100 22/04 A2995 RMK AO2 SLP141 T02220039 10222 20150 50008
2026-04-12 16:53:00,METAR KPSP 121653Z VRB03KT 10SM CLR 20/04 A2996 RMK AO2 SLP142 T02000039
2026-04-12 15:53:00,METAR KPSP 121553Z 00000KT 10SM CLR 19/04 A2994 RMK AO2 SLP137 T01890039
2026-04-12 14:53:00,METAR KPSP 121453Z 21004KT 10SM CLR 17/06 A2993 RMK AO2 SLP133 T01670056 53016
2026-04-12 13:53:00,METAR KPSP 121353Z 36007KT 10SM CLR 18/04 A2991 RMK AO2 SLP126 T01780044
2026-04-12 12:53:00,METAR KPSP 121253Z 00000KT 10SM CLR 16/06 A2989 RMK AO2 SLP119 T01560061
2026-04-12 11:53:00,METAR KPSP 121153Z AUTO 36004KT 10SM CLR 17/04 A2988 RMK AO2 SLP116 T01720044 10211 20172 58000
2026-04-12 10:53:00,METAR KPSP 121053Z AUTO 35013KT 10SM CLR 17/06 A2988 RMK AO2 SLP117 T01720061
2026-04-12 09:53:00,METAR KPSP 120953Z AUTO VRB05KT 10SM CLR 18/05 A2988 RMK AO2 SLP118 T01780050
2026-04-12 08:53:00,METAR KPSP 120853Z AUTO 32007G19KT 10SM CLR 18/05 A2988 RMK AO2 SLP117 T01830050 50006
2026-04-12 07:53:00,METAR KPSP 120753Z AUTO 34013KT 10SM CLR 19/04 A2988 RMK AO2 SLP117 T01890044 402890161
2026-04-12 06:53:00,METAR KPSP 120653Z AUTO 34012KT 10SM CLR 20/05 A2987 RMK AO2 SLP114 T02000050
2026-04-12 05:53:00,METAR KPSP 120553Z 31011G18KT 10SM CLR 21/04 A2986 RMK AO2 SLP111 T02110044 10283 20211 51021
2026-04-12 04:53:00,METAR KPSP 120453Z 33014KT 10SM CLR 22/05 A2985 RMK AO2 PK WND 32029/0357 SLP107 T02170050
2026-04-12 03:53:00,METAR KPSP 120353Z 33016G27KT 10SM CLR 23/06 A2983 RMK AO2 PK WND 32027/0350 SLP101 T02280056
2026-04-12 02:53:00,METAR KPSP 120253Z 32012G20KT 10SM CLR 24/05 A2980 RMK AO2 SLP090 T02440050 55003
2026-04-12 01:53:00,METAR KPSP 120153Z 32013G19KT 10SM CLR 26/05 A2980 RMK AO2 SLP089 T02560050
2026-04-12 00:53:00,METAR KPSP 120053Z 33012G20KT 10SM CLR 27/04 A2980 RMK AO2 PK WND 33028/0002 SLP090 T02720044
2026-04-11 23:53:00,METAR KPSP 112353Z 34016G26KT 10SM CLR 28/05 A2981 RMK AO2 PK WND 35026/2350 SLP093 T02830050 10289 20244 58012
2026-04-11 22:53:00,METAR KPSP 112253Z 00000KT 10SM CLR 29/04 A2982 RMK AO2 SLP095 T02890044
2026-04-11 21:53:00,METAR KPSP 112153Z 33015KT 10SM CLR 28/04 A2985 RMK AO2 WSHFT 2128 SLP104 T02830039
2026-04-11 21:48:00,SPECI KPSP 112148Z 33015KT 10SM CLR 28/04 A2985 RMK AO2 WSHFT 2128
2026-04-11 20:53:00,METAR KPSP 112053Z 34010KT 10SM CLR 28/04 A2987 RMK AO2 SLP112 T02830039 58025
2026-04-11 19:53:00,METAR KPSP 111953Z 00000KT 10SM CLR 27/04 A2990 RMK AO2 SLP122 T02670039
2026-04-11 18:53:00,METAR KPSP 111853Z 23004KT 10SM CLR 25/03 A2992 RMK AO2 SLP131 T02500028
2026-04-11 17:53:00,METAR KPSP 111753Z 30006KT 10SM CLR 24/04 A2995 RMK AO2 SLP137 T02440039 10244 20161 53004
2026-04-11 16:53:00,METAR KPSP 111653Z VRB03KT 10SM CLR 23/04 A2994 RMK AO2 SLP136 T02330044
2026-04-11 15:53:00,METAR KPSP 111553Z VRB03KT 10SM CLR 22/05 A2994 RMK AO2 SLP135 T02170050
2026-04-11 14:53:00,METAR KPSP 111453Z VRB03KT 10SM CLR 19/07 A2993 RMK AO2 SLP134 T01940072 53021
2026-04-11 13:53:00,METAR KPSP 111353Z 00000KT 10SM CLR 18/07 A2991 RMK AO2 SLP127 T01780072
2026-04-11 12:53:00,METAR KPSP 111253Z 00000KT 10SM CLR 17/07 A2989 RMK AO2 SLP118 T01670072
2026-04-11 11:53:00,METAR KPSP 111153Z AUTO 18003KT 10SM CLR 17/07 A2987 RMK AO2 SLP112 T01720067 10228 20172 56002
2026-04-11 10:53:00,METAR KPSP 111053Z AUTO 12005KT 10SM CLR 18/07 A2987 RMK AO2 SLP112 T01830072
2026-04-11 09:53:00,METAR KPSP 110953Z AUTO 32008KT 10SM CLR 19/07 A2987 RMK AO2 SLP112 T01940072
2026-04-11 08:53:00,METAR KPSP 110853Z AUTO 26008G22KT 200V340 10SM CLR 20/08 A2988 RMK AO2 SLP114 T02000078 50003
2026-04-11 07:53:00,METAR KPSP 110753Z AUTO 32014G21KT 10SM CLR 20/08 A2988 RMK AO2 SLP115 T02000083 403280194
2026-04-11 06:53:00,METAR KPSP 110653Z AUTO 01010KT 10SM CLR 22/08 A2987 RMK AO2 SLP111 T02170078
2026-04-11 05:53:00,METAR KPSP 110553Z AUTO 33015G19KT 10SM CLR 23/08 A2987 RMK AO2 SLP112 T02280078 10300 20228 50015
2026-04-11 04:53:00,METAR KPSP 110453Z 00000KT 10SM CLR 23/07 A2987 RMK AO2 SLP113 T02330072
2026-04-11 03:53:00,METAR KPSP 110353Z 27003KT 10SM CLR 24/07 A2986 RMK AO2 SLP107 T02440067
2026-04-11 02:53:00,METAR KPSP 110253Z 21010G22KT 10SM CLR 26/06 A2983 RMK AO2 SLP097 T02560056 53009
2026-04-11 01:53:00,METAR KPSP 110153Z 23011G20KT 10SM CLR 27/06 A2982 RMK AO2 PK WND 20027/0124 SLP095 T02720056
2026-04-11 00:53:00,METAR KPSP 110053Z 20015G26KT 10SM CLR 28/05 A2980 RMK AO2 PK WND 19027/2355 SLP089 T02830050
2026-04-10 23:53:00,METAR KPSP 102353Z 19016G25KT 10SM CLR 31/05 A2980 RMK AO2 PK WND 18026/2255 SLP088 T03060050 10328 20272 56014
2026-04-10 22:53:00,METAR KPSP 102253Z 21015G29KT 10SM CLR 31/04 A2980 RMK AO2 PK WND 19031/2221 SLP088 T03110044
2026-04-10 21:53:00,METAR KPSP 102153Z 21017G30KT 10SM CLR 32/06 A2982 RMK AO2 PK WND 20030/2151 SLP094 T03170056
2026-04-10 20:53:00,METAR KPSP 102053Z 30006G12KT 10SM SCT100 31/05 A2984 RMK AO2 SLP101 T03110050
2026-04-10 19:53:00,METAR KPSP 101953Z 02007KT 10SM CLR 31/06 A2987 RMK AO2 SLP110 T03060061 $
2026-04-10 18:53:00,METAR KPSP 101853Z VRB04KT 10SM CLR 29/07 A2989 RMK AO2 SLP117 T02940072 $
2026-04-10 17:53:00,METAR KPSP 101753Z 00000KT 10SM CLR 27/07 A2991 RMK AO2 SLP126 T02720067 10283 20194 50006 $
2026-04-10 16:53:00,METAR KPSP 101653Z 00000KT 10SM CLR 27/07 A2991 RMK AO2 SLP126 T02670067 $
2026-04-10 15:53:00,METAR KPSP 101553Z 00000KT 10SM CLR 24/08 A2991 RMK AO2 SLP124 T02440078 $
2026-04-10 14:53:00,METAR KPSP 101453Z 00000KT 10SM CLR 22/09 A2989 RMK AO2 SLP119 T02220089 53017 $
2026-04-10 13:53:00,METAR KPSP 101353Z 26003KT 10SM CLR 21/08 A2987 RMK AO2 SLP112 T02060083 $
2026-04-10 12:53:00,METAR KPSP 101253Z 00000KT 10SM CLR 22/08 A2985 RMK AO2 SLP106 T02170078 $
2026-04-10 11:53:00,METAR KPSP 101153Z AUTO 33004KT 10SM CLR 23/08 A2984 RMK AO2 SLP102 T02280078 10267 20222 53001 $
2026-04-10 10:53:00,METAR KPSP 101053Z AUTO 10003KT 10SM CLR 23/07 A2983 RMK AO2 SLP098 T02280072 $
2026-04-10 09:53:00,METAR KPSP 100953Z AUTO 19005KT 10SM CLR 23/07 A2983 RMK AO2 SLP097 T02280072 $
2026-04-10 08:53:00,METAR KPSP 100853Z AUTO 07004KT 10SM CLR 24/07 A2984 RMK AO2 SLP100 T02390067 50000 $
2026-04-10 07:53:00,METAR KPSP 100753Z AUTO 17003KT 10SM CLR 24/07 A2985 RMK AO2 SLP103 T02390067 403330194 $
2026-04-10 06:53:00,METAR KPSP 100653Z AUTO 12007KT 10SM CLR 26/05 A2984 RMK AO2 SLP102 T02560050 $
2026-04-10 05:53:00,METAR KPSP 100553Z 20003KT 10SM CLR 26/05 A2984 RMK AO2 SLP100 T02560050 10317 20256 51011 $
2026-04-10 04:53:00,METAR KPSP 100453Z AUTO 31011G21KT 10SM CLR 27/04 A2983 RMK AO2 SLP097 T02720039 $
2026-04-10 03:53:00,METAR KPSP 100353Z AUTO 33009KT 10SM CLR 28/03 A2982 RMK AO2 SLP095 T02780028 $
2026-04-10 02:53:00,METAR KPSP 100253Z AUTO 33015G22KT 10SM CLR 28/07 A2981 RMK AO2 SLP090 T02830072 53004 $
2026-04-10 01:53:00,METAR KPSP 100153Z AUTO 32016G23KT 10SM CLR 29/09 A2980 RMK AO2 SLP087 T02890089 $
2026-04-10 00:53:00,METAR KPSP 100053Z AUTO 34020G29KT 10SM CLR 30/09 A2980 RMK AO2 PK WND 34029/0053 SLP087 T03000089 $
2026-04-09 23:53:00,METAR KPSP 092353Z 32015G23KT 10SM CLR 31/07 A2979 RMK AO2 PK WND 34029/2302 SLP086 T03110067 10333 20300 57010 $
2026-04-09 22:53:00,METAR KPSP 092253Z 30011G22KT 10SM CLR 32/04 A2981 RMK AO2 PK WND 32026/2252 SLP089 T03220044 $
2026-04-09 21:53:00,METAR KPSP 092153Z 34010G21KT 10SM CLR 33/03 A2981 RMK AO2 SLP092 T03280028 $
2026-04-09 20:53:00,METAR KPSP 092053Z VRB05KT 10SM CLR 33/02 A2983 RMK AO2 SLP095 T03280022 58014 $
2026-04-09 19:53:00,METAR KPSP 091953Z VRB05KT 10SM CLR 32/02 A2984 RMK AO2 SLP100 T03220022 $
2026-04-09 18:53:00,METAR KPSP 091853Z VRB05KT 10SM CLR 31/02 A2986 RMK AO2 SLP107 T03110017 $
2026-04-09 17:53:00,METAR KPSP 091753Z 33008KT 10SM CLR 30/03 A2987 RMK AO2 SLP109 T03000033 10306 20194 53008 $
2026-04-09 16:53:00,METAR KPSP 091653Z 29017G25KT 10SM CLR 29/04 A2985 RMK AO2 SLP105 T02940039 $
2026-04-09 15:53:00,METAR KPSP 091553Z 27008KT 10SM CLR 24/08 A2985 RMK AO2 SLP104 T02390078 $
2026-04-09 14:53:00,METAR KPSP 091453Z 31006KT 10SM CLR 22/09 A2984 RMK AO2 SLP102 T02170089 53013 $
2026-04-09 13:53:00,METAR KPSP 091353Z 00000KT 10SM CLR 21/08 A2983 RMK AO2 SLP097 T02110083 $
2026-04-09 12:53:00,METAR KPSP 091253Z 00000KT 10SM CLR 21/08 A2981 RMK AO2 SLP090 T02110078 $
2026-04-09 11:53:00,METAR KPSP 091153Z AUTO 00000KT 10SM CLR 21/09 A2980 RMK AO2 SLP088 T02110089 10272 20200 53001 $
2026-04-09 10:53:00,METAR KPSP 091053Z AUTO 00000KT 10SM CLR 22/08 A2979 RMK AO2 SLP084 T02170078 $
2026-04-09 09:53:00,METAR KPSP 090953Z AUTO 35004KT 10SM CLR 22/08 A2979 RMK AO2 SLP084 T02220083 $
2026-04-09 08:53:00,METAR KPSP 090853Z AUTO 14004KT 10SM CLR 22/09 A2980 RMK AO2 SLP086 T02220089 50001 $
2026-04-09 07:53:00,METAR KPSP 090753Z AUTO 18003KT 10SM CLR 24/09 A2981 RMK AO2 SLP090 T02390089 403610189 $
2026-04-09 06:53:00,METAR KPSP 090653Z AUTO 29005KT 10SM CLR 27/05 A2980 RMK AO2 SLP087 T02670050 $
2026-04-09 05:53:00,METAR KPSP 090553Z AUTO 32013KT 10SM CLR 27/08 A2979 RMK AO2 SLP085 T02670078 10356 20267 51013 $
2026-04-09 04:53:00,METAR KPSP 090453Z AUTO 32013G23KT 10SM CLR 28/09 A2979 RMK AO2 SLP083 T02780089 $
2026-04-09 03:53:00,METAR KPSP 090353Z AUTO 33015G23KT 10SM CLR 29/08 A2978 RMK AO2 SLP081 T02940083 $
2026-04-09 02:53:00,METAR KPSP 090253Z 32014G24KT 10SM CLR 31/07 A2975 RMK AO2 SLP072 T03060072 53003 $
2026-04-09 01:53:00,METAR KPSP 090153Z 33016G23KT 10SM CLR 32/07 A2975 RMK AO2 SLP070 T03170067 $
2026-04-09 00:53:00,METAR KPSP 090053Z 31010G22KT 10SM CLR 34/05 A2974 RMK AO2 SLP067 T03390050 $
2026-04-08 23:53:00,METAR KPSP 082353Z 32017G25KT 10SM CLR 36/04 A2974 RMK AO2 PK WND 31027/2352 SLP068 T03560044 10361 20306 56018 $
2026-04-08 22:53:00,METAR KPSP 082253Z VRB03KT 10SM CLR 36/02 A2976 RMK AO2 SLP072 T03560022 $
2026-04-08 21:53:00,METAR KPSP 082153Z 00000KT 10SM CLR 35/02 A2978 RMK AO2 SLP080 T03500017 $
2026-04-08 20:53:00,METAR KPSP 082053Z 02005KT 10SM CLR 34/03 A2980 RMK AO2 SLP086 T03440028 58022 $
2026-04-08 19:53:00,METAR KPSP 081953Z VRB04KT 10SM CLR 34/03 A2982 RMK AO2 SLP093 T03390028 $
2026-04-08 18:53:00,METAR KPSP 081853Z VRB03KT 10SM CLR 32/03 A2984 RMK AO2 SLP101 T03220028 $
2026-04-08 17:53:00,METAR KPSP 081753Z 11003KT 10SM CLR 31/03 A2986 RMK AO2 SLP107 T03110033 10311 20189 52003 $
2026-04-08 16:53:00,METAR KPSP 081653Z VRB03KT 10SM CLR 28/05 A2986 RMK AO2 SLP106 T02830050 $
2026-04-08 15:53:00,METAR KPSP 081553Z 18003KT 10SM CLR 25/08 A2985 RMK AO2 SLP106 T02500083 $
2026-04-08 14:53:00,METAR KPSP 081453Z 00000KT 10SM CLR 23/08 A2985 RMK AO2 SLP105 T02280083 53016 $
2026-04-08 13:53:00,METAR KPSP 081353Z 00000KT 10SM CLR 19/11 A2983 RMK AO2 SLP098 T01890106 $
2026-04-08 12:53:00,METAR KPSP 081253Z AUTO 00000KT 10SM CLR 19/11 A2981 RMK AO2 SLP092 T01890106 $
2026-04-08 11:53:00,METAR KPSP 081153Z AUTO 36003KT 10SM CLR 21/09 A2980 RMK AO2 SLP087 T02060094 10272 20200 56006 $
2026-04-08 10:53:00,METAR KPSP 081053Z AUTO 00000KT 10SM CLR 22/10 A2981 RMK AO2 SLP089 T02170100 $
2026-04-08 09:53:00,METAR KPSP 080953Z AUTO 00000KT 10SM CLR 22/09 A2981 RMK AO2 SLP090 T02170094 $
2026-04-08 08:53:00,METAR KPSP 080853Z AUTO 00000KT 10SM CLR 23/10 A2982 RMK AO2 SLP093 T02280100 58003 $
2026-04-08 07:53:00,METAR KPSP 080753Z AUTO 15003KT 10SM CLR 23/09 A2983 RMK AO2 SLP096 T02330089 403560172 $
2026-04-08 06:53:00,METAR KPSP 080653Z AUTO 00000KT 10SM CLR 24/09 A2983 RMK AO2 SLP097 T02440089 $
2026-04-08 05:53:00,METAR KPSP 080553Z 30007KT 10SM CLR 27/08 A2983 RMK AO2 SLP096 T02720078 10350 20272 51016 $
2026-04-08 04:53:00,METAR KPSP 080453Z 32010KT 10SM CLR 28/08 A2983 RMK AO2 SLP095 T02780083 $
2026-04-08 03:53:00,METAR KPSP 080353Z 32011G19KT 10SM CLR 29/08 A2981 RMK AO2 SLP090 T02890083 $
2026-04-08 02:53:00,METAR KPSP 080253Z 32012KT 10SM CLR 30/08 A2978 RMK AO2 SLP081 T03000078 55000 $
2026-04-08 01:53:00,METAR KPSP 080153Z 32012KT 10SM CLR 32/07 A2978 RMK AO2 SLP081 T03170072 $
2026-04-08 00:53:00,METAR KPSP 080053Z 32012KT 10SM CLR 34/06 A2978 RMK AO2 SLP081 T03390056 $
2026-04-07 23:53:00,METAR KPSP 072353Z 34014G22KT 10SM CLR 35/04 A2978 RMK AO2 SLP081 T03500039 10356 20300 56022 $
2026-04-07 22:53:00,METAR KPSP 072253Z VRB06KT 10SM CLR 36/M02 A2980 RMK AO2 SLP086 T03561017 $
2026-04-07 21:53:00,METAR KPSP 072153Z VRB03KT 10SM CLR 34/M02 A2982 RMK AO2 SLP095 T03441022 $
2026-04-07 20:53:00,METAR KPSP 072053Z 15006KT 10SM CLR 34/M01 A2985 RMK AO2 SLP103 T03441006 58024 $
2026-04-07 19:53:00,METAR KPSP 071953Z VRB06KT 10SM CLR 33/M01 A2987 RMK AO2 SLP111 T03281006 $
2026-04-07 18:53:00,METAR KPSP 071853Z 00000KT 10SM CLR 33/02 A2990 RMK AO2 SLP120 T03280017 $
2026-04-07 17:53:00,METAR KPSP 071753Z VRB03KT 10SM CLR 30/02 A2992 RMK AO2 SLP127 T03000017 10300 20172 58000 $
2026-04-07 16:53:00,METAR KPSP 071653Z 00000KT 10SM CLR 27/03 A2992 RMK AO2 SLP128 T02720033 $
2026-04-07 15:53:00,METAR KPSP 071553Z 00000KT 10SM CLR 24/07 A2992 RMK AO2 SLP129 T02440067 $
2026-04-07 14:53:00,METAR KPSP 071453Z 22004KT 10SM CLR 21/07 A2992 RMK AO2 SLP128 T02060067 53013 $
2026-04-07 13:53:00,METAR KPSP 071353Z 00000KT 10SM CLR 19/07 A2990 RMK AO2 SLP123 T01890072 $
2026-04-07 12:53:00,METAR KPSP 071253Z 00000KT 10SM CLR 19/07 A2989 RMK AO2 SLP118 T01890067 $
2026-04-07 11:53:00,METAR KPSP 071153Z AUTO 00000KT 10SM CLR 19/08 A2988 RMK AO2 SLP115 T01890078 10256 20178 56005 $
2026-04-07 10:53:00,METAR KPSP 071053Z AUTO 00000KT 10SM CLR 19/08 A2988 RMK AO2 SLP115 T01890083 $
2026-04-07 09:53:00,METAR KPSP 070953Z AUTO 00000KT 10SM CLR 20/08 A2988 RMK AO2 SLP116 T02000078 $
2026-04-07 08:53:00,METAR KPSP 070853Z AUTO 00000KT 10SM CLR 21/07 A2989 RMK AO2 SLP120 T02110072 50005 $
2026-04-07 07:53:00,METAR KPSP 070753Z AUTO 00000KT 10SM CLR 22/07 A2990 RMK AO2 SLP121 T02170072 403390211 $
2026-04-07 06:53:00,METAR KPSP 070653Z AUTO 00000KT 10SM CLR 24/06 A2988 RMK AO2 SLP115 T02440061 $
2026-04-07 05:53:00,METAR KPSP 070553Z AUTO 32015G27KT 10SM CLR 25/06 A2988 RMK AO2 PK WND 33027/0550 SLP114 T02500061 10328 20250 51013 $
2026-04-07 04:53:00,METAR KPSP 070453Z 33014G23KT 10SM CLR 26/06 A2987 RMK AO2 SLP112 T02610061 $
2026-04-07 03:53:00,METAR KPSP 070353Z 33015G25KT 10SM CLR 27/07 A2986 RMK AO2 PK WND 32027/0318 SLP109 T02720067 $
2026-04-07 02:53:00,METAR KPSP 070253Z 32016G23KT 10SM CLR 28/07 A2984 RMK AO2 PK WND 32028/0210 SLP101 T02780067 53003 $
2026-04-07 01:53:00,METAR KPSP 070153Z 32015G24KT 10SM CLR 30/02 A2982 RMK AO2 SLP095 T03000017 $
2026-04-07 00:53:00,METAR KPSP 070053Z 32014G23KT 10SM CLR 32/00 A2983 RMK AO2 SLP097 T03170000 $
2026-04-06 23:53:00,METAR KPSP 062353Z 33013G22KT 10SM CLR 33/M01 A2983 RMK AO2 PK WND 32026/2316 SLP097 T03281011 10339 20278 56017 $
2026-04-06 22:53:00,METAR KPSP 062253Z 32015G24KT 10SM CLR 33/M01 A2983 RMK AO2 SLP099 T03331011 $
2026-04-06 21:53:00,METAR KPSP 062153Z 32016G24KT 10SM CLR 33/M02 A2986 RMK AO2 SLP106 T03331022 $
2026-04-06 20:53:00,METAR KPSP 062053Z 31012G21KT 10SM CLR 33/M03 A2988 RMK AO2 SLP114 T03281033 58014 $
2026-04-06 19:53:00,METAR KPSP 061953Z 34012G18KT 10SM CLR 31/M06 A2990 RMK AO2 SLP120 T03111056 $
2026-04-06 18:53:00,METAR KPSP 061853Z 31013G22KT 10SM CLR 28/M04 A2991 RMK AO2 SLP127 T02781039 $
2026-04-06 17:53:00,METAR KPSP 061753Z 33007KT 10SM CLR 28/M02 A2992 RMK AO2 SLP128 T02831022 10283 20211 51007 $
2026-04-06 16:53:00,METAR KPSP 061653Z 29010G16KT 10SM CLR 27/00 A2992 RMK AO2 SLP126 T02670000 $
2026-04-06 15:53:00,METAR KPSP 061553Z 30012G20KT 10SM CLR 24/02 A2991 RMK AO2 SLP127 T02440022 $
2026-04-06 14:53:00,METAR KPSP 061453Z VRB03KT 10SM CLR 23/01 A2990 RMK AO2 SLP122 T02330006 53011 $
2026-04-06 13:53:00,METAR KPSP 061353Z 00000KT 10SM CLR 21/04 A2988 RMK AO2 SLP116 T02110044 $
2026-04-06 12:53:00,METAR KPSP 061253Z 00000KT 10SM CLR 23/01 A2987 RMK AO2 SLP110 T02280006 $
2026-04-06 11:53:00,METAR KPSP 061153Z AUTO 00000KT 10SM CLR 22/02 A2987 RMK AO2 SLP110 T02220022 10283 20222 56013 $
2026-04-06 10:53:00,METAR KPSP 061053Z AUTO 00000KT 10SM CLR 23/02 A2988 RMK AO2 SLP114 T02280017 $
2026-04-06 09:53:00,METAR KPSP 060953Z AUTO 00000KT 10SM CLR 22/03 A2989 RMK AO2 SLP118 T02220028 $
2026-04-06 08:53:00,METAR KPSP 060853Z AUTO 21003KT 10SM CLR 25/M01 A2991 RMK AO2 SLP123 T02501006 56003 $
2026-04-06 07:53:00,METAR KPSP 060753Z AUTO 14003KT 10SM CLR 24/M01 A2991 RMK AO2 SLP125 T02441006 403390167 $
2026-04-06 06:53:00,METAR KPSP 060653Z AUTO 23004KT 10SM CLR 26/M02 A2991 RMK AO2 SLP123 T02611022 $
2026-04-06 05:53:00,METAR KPSP 060553Z AUTO 32007KT 10SM CLR 28/M04 A2992 RMK AO2 SLP126 T02831044 10333 20283 51010 $
2026-04-06 04:53:00,METAR KPSP 060453Z 30008KT 10SM CLR 29/M04 A2992 RMK AO2 SLP126 T02891044 $
2026-04-06 03:53:00,METAR KPSP 060353Z 29004KT 10SM CLR 29/M04 A2991 RMK AO2 SLP125 T02891039 $
2026-04-06 02:53:00,METAR KPSP 060253Z 33009KT 10SM CLR 31/M04 A2988 RMK AO2 SLP116 T03061039 55002 $
2026-04-06 01:53:00,METAR KPSP 060153Z VRB04KT 10SM CLR 32/M08 A2988 RMK AO2 SLP116 T03171083 $
2026-04-06 00:53:00,METAR KPSP 060053Z VRB06KT 10SM CLR 33/M11 A2988 RMK AO2 SLP116 T03281106 $
2026-04-05 23:53:00,METAR KPSP 052353Z 16004KT 10SM CLR 33/M11 A2989 RMK AO2 SLP118 T03281111 10339 20306 56019 $
2026-04-05 22:53:00,METAR KPSP 052253Z 18007KT 10SM CLR 34/M11 A2991 RMK AO2 SLP124 T03391111 $
2026-04-05 21:53:00,METAR KPSP 052153Z 36007KT 10SM CLR 33/M13 A2992 RMK AO2 SLP128 T03331128 $
2026-04-05 20:53:00,METAR KPSP 052053Z VRB06KT 10SM CLR 33/M13 A2995 RMK AO2 SLP138 T03281133 58019 $
2026-04-05 19:53:00,METAR KPSP 051953Z VRB05KT 10SM CLR 32/M13 A2997 RMK AO2 SLP145 T03221128 $
2026-04-05 18:53:00,METAR KPSP 051853Z VRB06KT 10SM CLR 32/M12 A2999 RMK AO2 SLP153 T03171117 $
2026-04-05 17:53:00,METAR KPSP 051753Z 00000KT 10SM CLR 31/M11 A3000 RMK AO2 SLP157 T03111111 10311 20167 58001 $
2026-04-05 16:53:00,METAR KPSP 051653Z 00000KT 10SM CLR 28/M04 A3000 RMK AO2 SLP157 T02781044 $
2026-04-05 15:53:00,METAR KPSP 051553Z 36004KT 10SM CLR 25/M06 A3001 RMK AO2 SLP158 T02501061 $
2026-04-05 14:53:00,METAR KPSP 051453Z 34005KT 10SM CLR 20/M06 A3000 RMK AO2 SLP157 T02001061 53008 $
2026-04-05 12:53:00,METAR KPSP 051253Z 34008KT 10SM CLR 18/M08 A2998 RMK AO2 SLP149 T01781078 $
2026-04-05 11:53:00,METAR KPSP 051153Z AUTO 33008KT 10SM CLR 19/M08 A2998 RMK AO2 SLP149 T01941083 10228 20183 56008 $
2026-04-05 10:53:00,METAR KPSP 051053Z AUTO 33009KT 10SM CLR 20/M08 A2999 RMK AO2 SLP151 T02001083 $
2026-04-05 09:53:00,METAR KPSP 050953Z AUTO 33004KT 10SM CLR 22/M09 A2999 RMK AO2 SLP153 T02171089 $
2026-04-05 08:53:00,METAR KPSP 050853Z AUTO 32008KT 10SM CLR 21/M08 A3000 RMK AO2 SLP157 T02061083 58003 $
2026-04-05 07:53:00,METAR KPSP 050753Z AUTO 33006KT 10SM CLR 21/M08 A3001 RMK AO2 SLP160 T02111083 403220183 $
2026-04-05 06:53:00,METAR KPSP 050653Z AUTO 33008KT 10SM CLR 21/M08 A3001 RMK AO2 SLP158 T02061078 $
2026-04-05 05:53:00,METAR KPSP 050553Z AUTO 32005KT 10SM CLR 22/M08 A3001 RMK AO2 SLP160 T02221083 10311 20222 51012 $
2026-04-05 04:53:00,METAR KPSP 050453Z AUTO 33008KT 10SM CLR 23/M08 A3001 RMK AO2 SLP159 T02331083 $
2026-04-05 03:53:00,METAR KPSP 050353Z AUTO 00000KT 10SM CLR 26/M08 A2999 RMK AO2 SLP153 T02611083 $
2026-04-05 02:53:00,METAR KPSP 050253Z 29004KT 10SM CLR 29/M12 A2998 RMK AO2 SLP147 T02891122 53003 $
2026-04-05 01:53:00,METAR KPSP 050153Z 29003KT 10SM CLR 29/M12 A2996 RMK AO2 SLP143 T02941122 $
2026-04-05 00:53:00,METAR KPSP 050053Z 00000KT 10SM CLR 31/M13 A2996 RMK AO2 SLP142 T03111133 $
2026-04-04 23:53:00,METAR KPSP 042353Z 00000KT 10SM CLR 31/M14 A2997 RMK AO2 SLP144 T03111139 10322 20278 56021 $
2026-04-04 22:53:00,METAR KPSP 042253Z VRB03KT 10SM CLR 32/M13 A2998 RMK AO2 SLP149 T03171133 $
2026-04-04 21:53:00,METAR KPSP 042153Z VRB06KT 10SM CLR 31/M13 A3000 RMK AO2 SLP156 T03111133 $
2026-04-04 20:53:00,METAR KPSP 042053Z 01005KT 10SM CLR 31/M13 A3003 RMK AO2 SLP165 T03111133 56023 $
2026-04-04 19:53:00,METAR KPSP 041953Z 30010KT 10SM CLR 31/M13 A3005 RMK AO2 SLP172 T03061128 $
2026-04-04 18:53:00,METAR KPSP 041853Z 33009KT 10SM CLR 29/M12 A3008 RMK AO2 SLP181 T02941122 $
2026-04-04 17:53:00,METAR KPSP 041753Z 31007KT 10SM CLR 28/M12 A3010 RMK AO2 SLP189 T02781122 10283 20183 50003 $
2026-04-04 16:53:00,METAR KPSP 041653Z 34011KT 10SM CLR 27/M13 A3010 RMK AO2 SLP190 T02721128 $
2026-04-04 15:53:00,METAR KPSP 041553Z 32010KT 10SM CLR 26/M10 A3010 RMK AO2 SLP189 T02561100 $
2026-04-04 14:53:00,METAR KPSP 041453Z 30008KT 10SM CLR 23/M11 A3009 RMK AO2 SLP186 T02331106 53010 $
2026-04-04 13:53:00,METAR KPSP 041353Z 27006KT 10SM CLR 19/M11 A3007 RMK AO2 SLP182 T01941106 $
2026-04-04 12:53:00,METAR KPSP 041253Z 28006KT 10SM CLR 18/M11 A3006 RMK AO2 SLP178 T01831106 $
2026-04-04 11:53:00,METAR KPSP 041153Z AUTO 30006KT 10SM CLR 22/M13 A3006 RMK AO2 SLP176 T02221128 10244 20189 56013 $
2026-04-04 10:53:00,METAR KPSP 041053Z AUTO 31008KT 10SM CLR 23/M13 A3007 RMK AO2 SLP180 T02281133 $
2026-04-04 09:53:00,METAR KPSP 040953Z AUTO 29005KT 10SM CLR 20/M11 A3008 RMK AO2 SLP183 T02001111 $
2026-04-04 08:53:00,METAR KPSP 040853Z AUTO 24005KT 10SM CLR 20/M12 A3010 RMK AO2 SLP189 T02001122 58004 $
2026-04-04 07:53:00,METAR KPSP 040753Z AUTO 30004KT 10SM CLR 23/M15 A3011 RMK AO2 SLP192 T02331150 402830161 $
2026-04-04 06:53:00,METAR KPSP 040653Z AUTO 31005KT 10SM CLR 24/M15 A3010 RMK AO2 SLP191 T02391150 $
2026-04-04 05:53:00,METAR KPSP 040553Z AUTO 31007KT 10SM CLR 23/M15 A3011 RMK AO2 SLP193 T02331150 10278 20233 51013 $
2026-04-04 04:53:00,METAR KPSP 040453Z AUTO 31005KT 10SM CLR 24/M15 A3011 RMK AO2 SLP192 T02391150 $
2026-04-04 03:53:00,METAR KPSP 040353Z 31008G17KT 10SM CLR 24/M15 A3009 RMK AO2 SLP187 T02391150 $
2026-04-04 02:53:00,METAR KPSP 040253Z 32007KT 10SM CLR 24/M16 A3007 RMK AO2 SLP180 T02441156 53008 $
2026-04-04 01:53:00,METAR KPSP 040153Z 36012KT 10SM CLR 26/M16 A3005 RMK AO2 SLP175 T02561161 $
2026-04-04 00:53:00,METAR KPSP 040053Z 01014G22KT 10SM CLR 27/M17 A3004 RMK AO2 SLP171 T02671172 $
2026-04-03 23:53:00,METAR KPSP 032353Z 36015G20KT 10SM CLR 28/M16 A3004 RMK AO2 SLP172 T02781161 10283 20244 56011 $
2026-04-03 22:53:00,METAR KPSP 032253Z 36008G17KT 10SM CLR 27/M14 A3005 RMK AO2 SLP174 T02721144 $
2026-04-03 21:53:00,METAR KPSP 032153Z AUTO 36011G18KT 10SM CLR 27/M12 A3006 RMK AO2 PK WND 34027/2118 SLP179 T02721122 $
2026-04-03 20:53:00,METAR KPSP 032053Z 35012G18KT 10SM CLR 28/M11 A3008 RMK AO2 SLP182 T02781111 58013 $
2026-04-03 19:53:00,METAR KPSP 031953Z 01010G16KT 10SM CLR 26/M11 A3010 RMK AO2 SLP190 T02611106 $
2026-04-03 18:53:00,METAR KPSP 031853Z 34015G28KT 10SM CLR 25/M10 A3011 RMK AO2 SLP193 T02501100 $
2026-04-03 17:53:00,METAR KPSP 031753Z 02010G19KT 10SM CLR 25/M09 A3012 RMK AO2 SLP196 T02501094 10250 20167 51021 $
2026-04-03 16:53:00,METAR KPSP 031653Z 35016G23KT 10SM CLR 24/M09 A3010 RMK AO2 PK WND 35027/1626 SLP192 T02391094 $
2026-04-03 15:53:00,METAR KPSP 031553Z 33014G21KT 10SM CLR 22/M06 A3009 RMK AO2 SLP187 T02221061 $
2026-04-03 14:53:00,METAR KPSP 031453Z 33007KT 10SM CLR 22/M06 A3005 RMK AO2 SLP175 T02171061 53037 $
2026-04-03 13:53:00,METAR KPSP 031353Z 34011KT 10SM CLR 21/M04 A3001 RMK AO2 SLP160 T02111044 $
2026-04-03 12:53:00,METAR KPSP 031253Z 33008KT 10SM CLR 19/01 A2997 RMK AO2 SLP147 T01940006 $
2026-04-03 11:53:00,METAR KPSP 031153Z AUTO 34003KT 10SM CLR 17/08 A2994 RMK AO2 SLP138 T01720083 10217 20161 53011 $
2026-04-03 08:53:00,METAR KPSP 030853Z AUTO 31008KT 10SM CLR 19/09 A2991 RMK AO2 SLP126 T01940089 51019 $
2026-04-03 05:53:00,METAR KPSP 030553Z AUTO 27004KT 10SM CLR 22/07 A2985 RMK AO2 PK WND 31027/0502 SLP107 T02170072 10267 20211 51020 $
2026-04-03 04:53:00,METAR KPSP 030453Z 32012G20KT 10SM CLR 22/07 A2985 RMK AO2 SLP105 T02220072 $
2026-04-03 03:53:00,METAR KPSP 030353Z 32018G27KT 10SM CLR 22/07 A2982 RMK AO2 PK WND 32027/0351 SLP095 T02220072 $
2026-04-03 02:53:00,METAR KPSP 030253Z 33015G28KT 10SM CLR 23/07 A2979 RMK AO2 PK WND 32026/0158 SLP087 T02330072 53012 $
2026-04-03 01:53:00,METAR KPSP 030153Z 31015G27KT 10SM CLR 23/08 A2978 RMK AO2 PK WND 32027/0148 SLP082 T02330078 $
2026-04-03 00:53:00,METAR KPSP 030053Z 31011G23KT 10SM CLR 26/07 A2976 RMK AO2 SLP076 T02560067 $
2026-04-02 23:55:00,SPECI KPSP 022355Z 32013G23KT 10SM CLR 27/06 A2976 RMK AO2 T02670061 $
2026-04-02 23:53:00,METAR KPSP 022353Z 32014G23KT 5SM HZ CLR 27/06 A2976 RMK AO2 SLP075 T02670061 10272 20217 56021 $
2026-04-02 22:53:00,METAR KPSP 022253Z 32013G25KT 260V360 10SM CLR 27/06 A2976 RMK AO2 SLP077 T02670061
2026-04-02 21:54:00,SPECI KPSP 022154Z 35010G17KT 10SM CLR 25/06 A2979 RMK AO2 T02500056
2026-04-02 21:53:00,METAR KPSP 022153Z 09004KT 10SM CLR 25/05 A2979 RMK AO2 SLP086 T02500050
2026-04-02 20:53:00,METAR KPSP 022053Z 00000KT 10SM CLR 25/06 A2982 RMK AO2 SLP096 T02500056 58015
2026-04-02 19:53:00,METAR KPSP 021953Z VRB05KT 10SM CLR 24/05 A2984 RMK AO2 SLP103 T02390050
2026-04-02 18:53:00,METAR KPSP 021853Z 29005KT 10SM CLR 22/05 A2987 RMK AO2 SLP111 T02220050
2026-04-02 17:53:00,METAR KPSP 021753Z 32007G14KT 10SM CLR 22/05 A2987 RMK AO2 SLP111 T02170050 10222 20144 53006
2026-04-02 16:53:00,METAR KPSP 021653Z 29009KT 10SM CLR 22/05 A2986 RMK AO2 SLP109 T02220050
2026-04-02 15:53:00,METAR KPSP 021553Z VRB03KT 10SM CLR 21/06 A2985 RMK AO2 SLP105 T02060061
2026-04-02 14:53:00,METAR KPSP 021453Z VRB04KT 10SM CLR 18/07 A2985 RMK AO2 SLP105 T01780067 53009
2026-04-02 13:53:00,METAR KPSP 021353Z VRB04KT 7SM CLR 16/07 A2984 RMK AO2 SLP102 T01560072
2026-04-02 12:53:00,METAR KPSP 021253Z 00000KT 7SM CLR 16/07 A2982 RMK AO2 SLP096 T01610072
2026-04-02 11:53:00,METAR KPSP 021153Z AUTO 00000KT 9SM CLR 17/07 A2982 RMK AO2 SLP095 T01670072 10217 20156 56007
2026-04-02 10:53:00,METAR KPSP 021053Z AUTO 00000KT 10SM CLR 17/07 A2982 RMK AO2 SLP095 T01670067
2026-04-02 09:53:00,METAR KPSP 020953Z AUTO 00000KT 10SM CLR 17/07 A2982 RMK AO2 SLP097 T01720067
2026-04-02 08:53:00,METAR KPSP 020853Z AUTO 18004KT 10SM CLR 18/06 A2984 RMK AO2 SLP102 T01780061 56005
2026-04-02 07:53:00,METAR KPSP 020753Z AUTO 16007KT 10SM CLR 19/06 A2985 RMK AO2 SLP104 T01890056 402890178
2026-04-02 06:53:00,METAR KPSP 020653Z AUTO 29003KT 10SM CLR 21/04 A2984 RMK AO2 SLP101 T02060044
2026-04-02 05:53:00,METAR KPSP 020553Z AUTO 32008KT 10SM CLR 22/04 A2985 RMK AO2 SLP106 T02170044 10278 20217 51010
2026-04-02 04:53:00,METAR KPSP 020453Z 31011G21KT 10SM CLR 22/04 A2984 RMK AO2 SLP102 T02220039
2026-04-02 03:53:00,METAR KPSP 020353Z 33007KT 10SM CLR 23/03 A2984 RMK AO2 SLP102 T02330033
2026-04-02 02:53:00,METAR KPSP 020253Z 32012G20KT 10SM CLR 24/04 A2982 RMK AO2 SLP096 T02390039 53007
2026-04-02 01:53:00,METAR KPSP 020153Z 31010G17KT 10SM CLR 26/04 A2980 RMK AO2 SLP090 T02560044
2026-04-02 00:53:00,METAR KPSP 020053Z 33015G21KT 10SM CLR 27/04 A2979 RMK AO2 SLP086 T02720044
2026-04-01 23:53:00,METAR KPSP 012353Z AUTO 34015G23KT 10SM CLR 28/05 A2980 RMK AO2 SLP089 T02780050 10289 20239 56020
2026-04-01 22:53:00,METAR KPSP 012253Z 33014G20KT 10SM CLR 28/05 A2982 RMK AO2 SLP093 T02830050 $
2026-04-01 21:53:00,METAR KPSP 012153Z 10SM CLR 28/06 A2983 RMK AO2 SLP099 T02830056 $
2026-04-01 20:53:00,METAR KPSP 012053Z 32007G17KT 10SM CLR 28/05 A2986 RMK AO2 SLP108 T02780050 58019 $
2026-04-01 19:53:00,METAR KPSP 011953Z 30005G22KT 10SM CLR 26/05 A2988 RMK AO2 SLP115 T02610050 $
2026-04-01 18:53:00,METAR KPSP 011853Z 32014G25KT 10SM CLR 27/05 A2991 RMK AO2 SLP125 T02670050 $
2026-04-01 17:53:00,METAR KPSP 011753Z 31012G19KT 10SM CLR 26/06 A2992 RMK AO2 SLP127 T02560056 10256 20178 51012 $
2026-04-01 16:53:00,METAR KPSP 011653Z VRB03KT 10SM CLR 24/07 A2991 RMK AO2 SLP124 T02390067
2026-04-01 15:53:00,METAR KPSP 011553Z 29005KT 10SM CLR 22/09 A2990 RMK AO2 SLP122 T02220094
2026-04-01 14:53:00,METAR KPSP 011453Z 00000KT 10SM CLR 20/09 A2988 RMK AO2 SLP117 T02000094 51031
2026-04-01 13:53:00,METAR KPSP 011353Z VRB04KT 10SM FEW110 18/10 A2985 RMK AO2 SLP105 T01780100
2026-04-01 12:53:00,METAR KPSP 011253Z 01004KT 10SM FEW100 19/09 A2983 RMK AO2 SLP098 T01940094
2026-04-01 11:53:00,METAR KPSP 011153Z AUTO 10SM FEW095 19/09 A2979 RMK AO2 SLP085 T01890094 10228 20183 56007
2026-04-01 10:53:00,METAR KPSP 011053Z AUTO 33013KT 10SM BKN100 20/09 A2980 RMK AO2 PK WND 35030/1013 SLP088 T02000089
2026-04-01 09:53:00,METAR KPSP 010953Z AUTO 02007KT 10SM BKN100 21/07 A2980 RMK AO2 SLP087 T02110072
2026-04-01 08:53:00,METAR KPSP 010853Z AUTO 00000KT 10SM BKN100 22/06 A2981 RMK AO2 SLP091 T02170061 58008
2026-04-01 07:53:00,METAR KPSP 010753Z AUTO 03008KT 10SM SCT110 22/07 A2983 RMK AO2 SLP100 T02170067 403110217
2026-04-01 06:53:00,METAR KPSP 010653Z AUTO 33017G28KT 10SM SCT100 22/07 A2985 RMK AO2 PK WND 32030/0642 SLP105 T02170072
2026-04-01 05:53:00,METAR KPSP 010553Z AUTO 30015G27KT 10SM BKN095 23/08 A2983 RMK AO2 SLP100 T02280078 10278 20228 50005
2026-04-01 04:53:00,METAR KPSP 010453Z 28005G18KT 10SM CLR 24/08 A2985 RMK AO2 SLP106 T02390078
2026-04-01 03:53:00,METAR KPSP 010353Z 28012G34KT 10SM CLR 23/09 A2986 RMK AO2 PK WND 31027/0325 SLP107 T02330094
2026-04-01 02:53:00,METAR KPSP 010253Z 26004G17KT 10SM CLR 26/06 A2982 RMK AO2 SLP094 T02560056 50010
2026-04-01 01:53:00,METAR KPSP 010153Z 31017G34KT 10SM CLR 25/09 A2983 RMK AO2 PK WND 31034/0150 SLP097 T02500089
2026-04-01 00:53:00,METAR KPSP 010053Z 33006G22KT 10SM CLR 27/08 A2981 RMK AO2 PK WND 35026/0016 SLP091 T02720078
2026-03-31 23:53:00,METAR KPSP 312353Z 32016G23KT 10SM CLR 27/10 A2979 RMK AO2 SLP084 T02720100 10311 20256 58018
2026-03-31 22:53:00,METAR KPSP 312253Z 32018G24KT 10SM CLR 29/11 A2981 RMK AO2 SLP090 T02890106
2026-03-31 21:53:00,METAR KPSP 312153Z 32009G17KT 10SM CLR 29/07 A2983 RMK AO2 SLP097 T02940072
2026-03-31 20:53:00,METAR KPSP 312053Z 00000KT 10SM CLR 31/03 A2984 RMK AO2 SLP102 T03060028 58020
2026-03-31 19:53:00,METAR KPSP 311953Z 33009G20KT 10SM CLR 31/01 A2987 RMK AO2 SLP112 T03060011
2026-03-31 18:53:00,METAR KPSP 311853Z 00000KT 10SM CLR 28/04 A2989 RMK AO2 SLP119 T02780039
2026-03-31 17:53:00,METAR KPSP 311753Z VRB03KT 10SM CLR 26/07 A2990 RMK AO2 SLP123 T02610072 10261 20217 50006
2026-03-31 16:53:00,METAR KPSP 311653Z 30003KT 10SM CLR 25/07 A2991 RMK AO2 SLP126 T02500072
2026-03-31 15:53:00,METAR KPSP 311553Z 33009KT 10SM CLR 24/08 A2990 RMK AO2 SLP121 T02390078
2026-03-31 14:53:00,METAR KPSP 311453Z 10SM CLR 24/07 A2988 RMK AO2 SLP117 T02390067 53014
2026-03-31 13:53:00,METAR KPSP 311353Z AUTO 00000KT 10SM CLR 24/06 A2987 RMK AO2 SLP113 T02390061
2026-03-31 12:53:00,METAR KPSP 311253Z AUTO 21003KT 10SM CLR 22/08 A2984 RMK AO2 SLP102 T02220078
2026-03-31 11:53:00,METAR KPSP 311153Z AUTO 32008G18KT 10SM CLR 25/07 A2984 RMK AO2 SLP101 T02500067 10256 20217 56003
2026-03-31 10:53:00,METAR KPSP 311053Z AUTO 24004KT 10SM CLR 22/08 A2985 RMK AO2 SLP103 T02220078
2026-03-31 09:53:00,METAR KPSP 310953Z AUTO 00000KT 10SM CLR 23/08 A2984 RMK AO2 SLP102 T02280083
2026-03-31 08:53:00,METAR KPSP 310853Z AUTO 00000KT 10SM CLR 24/07 A2985 RMK AO2 SLP105 T02390072 58007
2026-03-31 07:53:00,METAR KPSP 310753Z AUTO 13003KT 10SM CLR 24/08 A2986 RMK AO2 SLP108 T02390078 403330194
2026-03-31 06:53:00,METAR KPSP 310653Z AUTO 15005KT 10SM CLR 24/07 A2987 RMK AO2 SLP112 T02440067
2026-03-31 05:53:00,METAR KPSP 310553Z AUTO 28005KT 10SM CLR 25/07 A2987 RMK AO2 SLP113 60000 T02500067 10333 20250 50006
2026-03-31 04:53:00,METAR KPSP 310453Z 31009KT 10SM CLR 27/06 A2987 RMK AO2 SLP113 T02670061
2026-03-31 03:53:00,METAR KPSP 310353Z 32014G22KT 10SM CLR 27/07 A2987 RMK AO2 RAB06E17 SLP112 P0000 T02720072
2026-03-31 02:53:00,METAR KPSP 310253Z 32014G22KT 10SM CLR 29/06 A2986 RMK AO2 PK WND 31026/0238 SLP107 60000 T02890061 53003
2026-03-31 01:53:00,METAR KPSP 310153Z 31014G23KT 10SM CLR 30/02 A2985 RMK AO2 SLP105 T03000022
2026-03-31 00:53:00,METAR KPSP 310053Z 33014KT 10SM CLR 32/M02 A2985 RMK AO2 RAB17E48 SLP104 P0000 T03171022
2026-03-30 23:53:00,METAR KPSP 302353Z 32011KT 10SM CLR 33/M06 A2985 RMK AO2 RAB2254E49 SLP103 P0000 60000 T03281061 10333 20272 56018
2026-03-30 22:53:00,METAR KPSP 302253Z 34015KT 10SM CLR 33/M04 A2986 RMK AO2 SLP107 T03331044
2026-03-30 21:53:00,METAR KPSP 302153Z AUTO 00000KT 10SM CLR 33/M04 A2987 RMK AO2 SLP111 T03281044
2026-03-30 20:53:00,METAR KPSP 302053Z 00000KT 10SM CLR 31/03 A2990 RMK AO2 SLP122 T03060033 58022
2026-03-30 19:53:00,METAR KPSP 301953Z 25004KT 10SM CLR 30/05 A2993 RMK AO2 SLP131 T03000050
2026-03-30 18:53:00,METAR KPSP 301853Z 10SM CLR 28/09 A2996 RMK AO2 SLP141 T02830094
2026-03-30 17:53:00,METAR KPSP 301753Z 26003KT 10SM CLR 27/10 A2997 RMK AO2 SLP145 T02720100 10278 20194 51004
2026-03-30 16:53:00,METAR KPSP 301653Z 00000KT 10SM CLR 26/08 A2997 RMK AO2 SLP144 T02560078
2026-03-30 15:53:00,METAR KPSP 301553Z 34006KT 10SM CLR 25/00 A2997 RMK AO2 SLP143 T02500000
2026-03-30 14:53:00,METAR KPSP 301453Z 36005KT 10SM CLR 22/01 A2996 RMK AO2 SLP140 T02170006 53009
2026-03-30 13:53:00,METAR KPSP 301353Z 34004KT 10SM CLR 21/07 A2994 RMK AO2 SLP136 T02060072
2026-03-30 12:53:00,METAR KPSP 301253Z 00000KT 10SM CLR 20/11 A2994 RMK AO2 SLP133 T02000106
2026-03-30 11:53:00,METAR KPSP 301153Z AUTO 33008KT 10SM CLR 22/12 A2993 RMK AO2 SLP131 T02220117 10272 20222 51010
2026-03-30 10:53:00,METAR KPSP 301053Z AUTO 34005KT 10SM CLR 23/12 A2992 RMK AO2 SLP128 T02280117
2026-03-30 09:53:00,METAR KPSP 300953Z AUTO 07005KT 10SM CLR 23/11 A2992 RMK AO2 SLP127 T02330106
2026-03-30 08:53:00,METAR KPSP 300853Z AUTO 18004KT 10SM CLR 23/M04 A2990 RMK AO2 SLP121 T02281039 53015
2026-03-30 07:53:00,METAR KPSP 300753Z AUTO 00000KT 10SM CLR 26/M07 A2987 RMK AO2 SLP111 T02611072 403780228
2026-03-30 06:53:00,METAR KPSP 300653Z AUTO 00000KT 10SM CLR 26/M06 A2986 RMK AO2 SLP107 T02611061
2026-03-30 05:53:00,METAR KPSP 300553Z 00000KT 10SM CLR 27/M07 A2986 RMK AO2 SLP106 T02721072 10372 20267 51017
2026-03-30 04:53:00,METAR KPSP 300453Z 32010KT 10SM CLR 31/M11 A2984 RMK AO2 SLP101 T03061106
2026-03-30 03:53:00,METAR KPSP 300353Z 33011G21KT 10SM CLR 32/M08 A2983 RMK AO2 SLP096 T03171083
2026-03-30 02:53:00,METAR KPSP 300253Z VRB05G23KT 10SM CLR 33/M06 A2981 RMK AO2 SLP088 T03331056 52003 $
2026-03-30 01:55:00,SPECI KPSP 300155Z VRB05KT 10SM CLR 34/M06 A2980 RMK AO2 T03441061 $
2026-03-30 01:53:00,METAR KPSP 300153Z 10006KT 10SM CLR 34/M06 A2980 RMK AO2 SLP087 T03441061 $
2026-03-30 00:53:00,METAR KPSP 300053Z 21011G19KT 10SM CLR 37/M06 A2980 RMK AO2 PK WND 22026/0039 SLP087 T03671056 $
2026-03-29 23:59:00,SPECI KPSP 292359Z 20011G20KT 10SM CLR 37/M06 A2981 RMK AO2 T03721056 $
2026-03-29 23:53:00,METAR KPSP 292353Z 21017G22KT 10SM CLR 37/M06 A2980 RMK AO2 PRESFR SLP085 T03721056 10378 20300 58030 $
2026-03-29 22:53:00,METAR KPSP 292253Z 09007KT 10SM CLR 37/M04 A2983 RMK AO2 SLP097 T03671044 $
2026-03-29 21:53:00,METAR KPSP 292153Z AUTO 00000KT 10SM CLR 35/M03 A2986 RMK AO2 SLP106 T03501028 $
2026-03-29 20:53:00,METAR KPSP 292053Z 07004KT 10SM CLR 34/M02 A2989 RMK AO2 SLP116 T03441017 58020 $
2026-03-29 19:53:00,METAR KPSP 291953Z VRB05KT 10SM CLR 33/M01 A2991 RMK AO2 SLP125 T03331006 $
2026-03-29 18:53:00,METAR KPSP 291853Z 13004KT 10SM CLR 32/M01 A2994 RMK AO2 SLP133 T03171011 $
2026-03-29 17:53:00,METAR KPSP 291753Z 12007KT 10SM CLR 30/06 A2995 RMK AO2 SLP137 T03000056 10306 20228 52024 $
2026-03-29 16:53:00,METAR KPSP 291653Z 11012KT 10SM CLR 29/03 A2993 RMK AO2 SLP131 T02940033 $
2026-03-29 16:38:00,SPECI KPSP 291638Z 13011KT 10SM CLR 31/M01 A2992 RMK AO2 T03061011 $
2026-03-29 14:53:00,METAR KPSP 291453Z 00000KT 10SM CLR 26/01 A2987 RMK AO2 SLP112 T02610011 53012 $
2026-03-29 13:53:00,METAR KPSP 291353Z 00000KT 10SM CLR 23/04 A2986 RMK AO2 SLP106 T02280039 $
2026-03-29 12:53:00,METAR KPSP 291253Z 00000KT 10SM CLR 24/03 A2985 RMK AO2 SLP102 T02390028 $
2026-03-29 11:53:00,METAR KPSP 291153Z AUTO 01003KT 10SM CLR 24/03 A2984 RMK AO2 SLP101 T02390028 10306 20239 56012 $
2026-03-29 10:53:00,METAR KPSP 291053Z AUTO 27004KT 10SM CLR 24/02 A2985 RMK AO2 SLP104 T02390022 $
2026-03-29 09:53:00,METAR KPSP 290953Z AUTO 24003KT 10SM CLR 25/02 A2986 RMK AO2 SLP109 T02500017 $
2026-03-29 08:53:00,METAR KPSP 290853Z AUTO 00000KT 10SM CLR 26/00 A2988 RMK AO2 SLP113 T02560000 58002 $
2026-03-29 07:53:00,METAR KPSP 290753Z AUTO 12003KT 10SM CLR 27/M01 A2989 RMK AO2 SLP116 T02721011 403670217 $
2026-03-29 06:53:00,METAR KPSP 290653Z AUTO 16005KT 10SM CLR 27/M01 A2989 RMK AO2 SLP117 T02721011 $
2026-03-29 05:53:00,METAR KPSP 290553Z AUTO 30008KT 10SM CLR 31/M05 A2988 RMK AO2 SLP115 T03061050 10367 20306 50017 $
2026-03-29 04:53:00,METAR KPSP 290453Z 32013G19KT 10SM CLR 31/M03 A2989 RMK AO2 SLP116 T03111028 $
2026-03-29 03:53:00,METAR KPSP 290353Z 34004KT 10SM CLR 32/01 A2986 RMK AO2 SLP108 T03170011 $
2026-03-29 02:53:00,METAR KPSP 290253Z 33009G15KT 10SM CLR 33/M01 A2983 RMK AO2 SLP098 T03281006 53003 $
2026-03-29 01:53:00,METAR KPSP 290153Z 04008KT 10SM CLR 34/00 A2982 RMK AO2 SLP094 T03390000 $
2026-03-29 00:53:00,METAR KPSP 290053Z VRB06KT 10SM CLR 36/M04 A2982 RMK AO2 SLP093 T03611044 $
2026-03-28 23:53:00,METAR KPSP 282353Z VRB06KT 10SM CLR 36/M05 A2983 RMK AO2 SLP095 T03611050 10367 20294 56021 $
2026-03-28 22:53:00,METAR KPSP 282253Z 16005KT 10SM CLR 36/M06 A2984 RMK AO2 SLP101 T03561056 $
2026-03-28 21:53:00,METAR KPSP 282153Z VRB04KT 10SM CLR 35/M08 A2986 RMK AO2 SLP108 T03501078 $
2026-03-28 20:53:00,METAR KPSP 282053Z 22005KT 10SM CLR 35/M07 A2989 RMK AO2 SLP116 T03501072 58019 $
2026-03-28 19:53:00,METAR KPSP 281953Z 00000KT 10SM CLR 34/M07 A2991 RMK AO2 SLP124 T03391072 $
2026-03-28 18:53:00,METAR KPSP 281853Z 00000KT 10SM CLR 32/M07 A2993 RMK AO2 SLP131 T03221072 $
2026-03-28 17:53:00,METAR KPSP 281753Z 00000KT 10SM CLR 29/M03 A2995 RMK AO2 SLP136 T02891033 10294 20217 50004 $
2026-03-28 16:53:00,METAR KPSP 281653Z VRB03KT 10SM CLR 29/M06 A2995 RMK AO2 SLP137 T02941056 $
2026-03-28 15:53:00,METAR KPSP 281553Z 31004KT 10SM CLR 27/00 A2994 RMK AO2 SLP135 T02670000 $
2026-03-28 14:53:00,METAR KPSP 281453Z 00000KT 10SM CLR 25/M03 A2993 RMK AO2 SLP132 T02501033 53014 $
2026-03-28 13:53:00,METAR KPSP 281353Z AUTO 31004KT 10SM CLR 22/M04 A2991 RMK AO2 SLP126 T02221039
2026-03-28 12:53:00,METAR KPSP 281253Z AUTO 00000KT 10SM CLR 22/M03 A2989 RMK AO2 SLP119 T02221028
2026-03-28 11:53:00,METAR KPSP 281153Z AUTO 24003KT 10SM CLR 23/M01 A2989 RMK AO2 SLP118 T02281006 10283 20217 55003
2026-03-28 10:53:00,METAR KPSP 281053Z AUTO 00000KT 10SM CLR 23/00 A2989 RMK AO2 SLP117 T02280000
2026-03-28 09:53:00,METAR KPSP 280953Z AUTO 00000KT 10SM CLR 24/M01 A2990 RMK AO2 SLP119 T02391006
2026-03-28 08:53:00,METAR KPSP 280853Z AUTO 00000KT 10SM CLR 24/M02 A2990 RMK AO2 SLP121 T02441022 51002
2026-03-28 07:53:00,METAR KPSP 280753Z AUTO 11003KT 10SM CLR 27/M06 A2990 RMK AO2 SLP119 T02721061 403890189
2026-03-28 06:53:00,METAR KPSP 280653Z AUTO 17004KT 10SM CLR 27/M05 A2990 RMK AO2 SLPNO T02671050
2026-03-28 05:53:00,METAR KPSP 280553Z AUTO 19003KT 10SM CLR 28/M06 A2989 RMK AO2 SLP119 T02781056 10378 20278 51018
2026-03-28 04:53:00,METAR KPSP 280453Z 32009G21KT 10SM CLR 30/M07 A2989 RMK AO2 SLP116 T03001072
2026-03-28 03:53:00,METAR KPSP 280353Z 34012G21KT 10SM CLR 31/M10 A2987 RMK AO2 PK WND 33028/0309 SLP109 T03111100
2026-03-28 02:53:00,METAR KPSP 280253Z 32014G28KT 10SM CLR 32/M07 A2984 RMK AO2 PK WND 33028/0237 SLP102 T03221072 53014
2026-03-28 01:53:00,METAR KPSP 280153Z 32011G22KT 10SM CLR 34/M03 A2982 RMK AO2 SLP095 T03441033
2026-03-28 00:53:00,METAR KPSP 280053Z 34008KT 10SM CLR 37/M05 A2981 RMK AO2 SLP089 T03721050
2026-03-28 00:21:00,SPECI KPSP 280021Z 34008KT 10SM CLR 38/M02 A2980 RMK AO2 T03781017
2026-03-27 23:53:00,METAR KPSP 272353Z 10008KT 10SM CLR 38/M01 A2980 RMK AO2 SLP087 T03831011 10389 20311 56015
2026-03-27 22:53:00,METAR KPSP 272253Z 10010G16KT 10SM CLR 38/M01 A2981 RMK AO2 SLP091 T03831006
2026-03-27 21:53:00,METAR KPSP 272153Z 15009KT 10SM CLR 38/M02 A2983 RMK AO2 SLP097 T03831017
2026-03-27 20:53:00,METAR KPSP 272053Z 14008KT 10SM CLR 38/M03 A2985 RMK AO2 SLP101 T03781028 $
2026-03-27 19:53:00,METAR KPSP 271953Z 10009KT 10SM CLR 37/M01 A2987 RMK AO2 SLP108 T03721006 $
2026-03-27 19:01:00,SPECI KPSP 271901Z 00000KT 10SM CLR 36/M02 A2989 RMK AO2 T03611022 $
2026-03-27 17:53:00,METAR KPSP 271753Z 00000KT 10SM CLR 34/02 A2991 RMK AO2 SLP122 T03440022 10344 20189 50003 $
2026-03-27 16:53:00,METAR KPSP 271653Z VRB03KT 10SM CLR 31/02 A2991 RMK AO2 SLP124 T03110022
2026-03-25 14:53:00,METAR KPSP 251453Z 00000KT 10SM CLR 22/07 A2994 RMK AO2 SLP134 T02220072 53008 $
2026-03-25 10:53:00,METAR KPSP 251053Z 34003KT 10SM CLR 23/08 A2991 RMK AO2 SLP125 T02280083 $
2026-03-25 09:53:00,METAR KPSP 250953Z 00000KT 10SM CLR 22/09 A2992 RMK AO2 SLP129 T02220094 $
2026-03-25 08:53:00,METAR KPSP 250853Z 36005KT 10SM CLR 24/07 A2993 RMK AO2 SLP132 T02390072 57001 $
2026-03-25 07:53:00,METAR KPSP 250753Z 36006KT 10SM CLR 25/08 A2993 RMK AO2 SLP133 T02500078 403500206 $
2026-03-25 06:53:00,METAR KPSP 250653Z 00000KT 10SM CLR 26/09 A2994 RMK AO2 SLP133 T02610094 $
2026-03-25 05:53:00,METAR KPSP 250553Z 29003KT 10SM CLR 28/06 A2994 RMK AO2 SLP134 T02780056 10339 20272 51013 $
2026-03-25 04:53:00,METAR KPSP 250453Z AUTO 00000KT 10SM CLR 28/11 A2993 RMK AO2 SLP133 T02780106 $
2026-03-25 03:53:00,METAR KPSP 250353Z AUTO 10003KT 10SM CLR 28/10 A2992 RMK AO2 SLP129 T02830100 $
2026-03-25 02:53:00,METAR KPSP 250253Z 10006KT 10SM CLR 30/12 A2990 RMK AO2 SLP122 T03000117 $
2026-03-25 01:53:00,METAR KPSP 250153Z 11007KT 10SM CLR 32/11 A2988 RMK AO2 SLP114 T03170111 $
2026-03-25 00:53:00,METAR KPSP 250053Z 10007KT 10SM CLR 33/09 A2987 RMK AO2 SLP112 T03330094 $
2026-03-24 23:53:00,METAR KPSP 242353Z 11006KT 10SM CLR 34/10 A2988 RMK AO2 SLP113 T03390100 10350 20272 56021 $
2026-03-24 22:53:00,METAR KPSP 242253Z 10008KT 10SM CLR 34/11 A2989 RMK AO2 SLP117 T03390106 $
2026-03-24 21:53:00,METAR KPSP 242153Z 11008KT 10SM CLR 33/12 A2991 RMK AO2 SLP123 T03330122 $
2026-03-24 20:53:00,METAR KPSP 242053Z 14006KT 10SM CLR 32/13 A2994 RMK AO2 SLP133 T03220128 58019 $
2026-03-24 19:53:00,METAR KPSP 241953Z 08005KT 10SM CLR 31/12 A2996 RMK AO2 SLP142 T03060122 $
2026-03-24 18:53:00,METAR KPSP 241853Z VRB04KT 10SM CLR 30/12 A2998 RMK AO2 SLP148 T03000122 $
2026-03-24 17:53:00,METAR KPSP 241753Z 00000KT 10SM CLR 27/13 A2999 RMK AO2 SLP153 T02720133 10272 20206 50009 $
2026-03-24 16:53:00,METAR KPSP 241653Z VRB03KT 10SM CLR 26/14 A3000 RMK AO2 SLP154 T02560139
2026-03-24 15:53:00,METAR KPSP 241553Z VRB03KT 10SM CLR 24/13 A2998 RMK AO2 SLP150 T02390133
2026-03-24 14:53:00,METAR KPSP 241453Z 00000KT 10SM CLR 22/09 A2997 RMK AO2 SLP145 T02220094 53015 $
2026-03-24 13:53:00,METAR KPSP 241353Z 00000KT 10SM CLR 21/10 A2994 RMK AO2 SLP136 T02110100 $
2026-03-24 12:53:00,METAR KPSP 241253Z 00000KT 10SM CLR 21/11 A2993 RMK AO2 SLP131 T02110106 $
2026-03-24 11:53:00,METAR KPSP 241153Z AUTO 10SM CLR 22/11 A2992 RMK AO2 SLP128 T02170106 10278 20217 55002 $
2026-03-24 10:53:00,METAR KPSP 241053Z AUTO 10SM CLR 23/12 A2992 RMK AO2 SLP127 T02330122 $
2026-03-24 09:53:00,METAR KPSP 240953Z AUTO 10SM CLR 24/11 A2992 RMK AO2 SLP129 T02440106 $
2026-03-24 08:53:00,METAR KPSP 240853Z AUTO 10SM CLR 25/11 A2993 RMK AO2 SLP130 T02500106 53006 $
2026-03-24 07:53:00,METAR KPSP 240753Z AUTO 10SM CLR 26/11 A2992 RMK AO2 SLP128 T02610111 403500200 $
2026-03-24 06:53:00,METAR KPSP 240653Z AUTO 35004KT 10SM CLR 27/11 A2991 RMK AO2 SLP125 T02670111
2026-03-24 05:53:00,METAR KPSP 240553Z AUTO 01004KT 10SM CLR 28/11 A2991 RMK AO2 SLP124 T02780111 10344 20278 51017
2026-03-24 04:53:00,METAR KPSP 240453Z 32005KT 10SM CLR 29/11 A2990 RMK AO2 SLP122 T02940111
2026-03-24 03:53:00,METAR KPSP 240353Z 00000KT 10SM CLR 30/09 A2989 RMK AO2 SLP118 T03000094
2026-03-24 02:53:00,METAR KPSP 240253Z VRB05KT 10SM CLR 31/08 A2986 RMK AO2 SLP108 T03110083 52010
2026-03-24 01:53:00,METAR KPSP 240153Z VRB05KT 10SM CLR 32/09 A2985 RMK AO2 SLP104 T03220089
2026-03-24 00:53:00,METAR KPSP 240053Z 13007KT 10SM CLR 34/09 A2984 RMK AO2 SLP100 T03390089
2026-03-23 23:53:00,METAR KPSP 232353Z 12007KT 10SM CLR 34/08 A2983 RMK AO2 SLP096 T03440078 10350 20300 56012 $
2026-03-23 22:53:00,METAR KPSP 232253Z 11008KT 10SM CLR 34/07 A2983 RMK AO2 SLP097 T03440072 $
2026-03-23 21:53:00,METAR KPSP 232153Z 13008KT 10SM CLR 34/08 A2984 RMK AO2 SLP101 T03440078 $
2026-03-23 20:53:00,METAR KPSP 232053Z 14006KT 10SM CLR 34/07 A2986 RMK AO2 SLP108 T03390072 58016 $
2026-03-23 19:53:00,METAR KPSP 231953Z 11007KT 10SM CLR 33/08 A2988 RMK AO2 SLP115 T03330078 $
2026-03-23 18:57:00,SPECI KPSP 231857Z 11005KT 10SM CLR 32/08 A2990 RMK AO2 T03170083 $
2026-03-23 18:53:00,METAR KPSP 231853Z 12008KT 32/08 A2990 RMK AO2 SLP122 T03170083 $
2026-03-23 17:53:00,METAR KPSP 231753Z VRB05KT 10SM CLR 30/08 A2991 RMK AO2 SLP124 T03000078 10300 20200 51007 $
2026-03-23 16:53:00,METAR KPSP 231653Z 15003KT 10SM CLR 28/08 A2991 RMK AO2 SLP123 T02780078 $
2026-03-23 16:04:00,SPECI KPSP 231604Z 00000KT 10SM CLR 26/07 A2990 RMK AO2 T02560072 $
2026-03-23 15:53:00,METAR KPSP 231553Z AUTO 00000KT 26/07 A2990 RMK AO2 SLP121 T02560072 $
2026-03-23 14:53:00,METAR KPSP 231453Z AUTO 36004KT 10SM CLR 23/09 A2989 RMK AO2 SLP116 T02330089 51026 $
2026-03-23 14:05:00,SPECI KPSP 231405Z 00000KT 10SM CLR 23/08 A2987 RMK AO2 T02280078 $
2026-03-23 13:53:00,METAR KPSP 231353Z 00000KT 22/08 A2987 RMK AO2 SLP110 T02220078 $
2026-03-23 12:53:00,METAR KPSP 231253Z 00000KT 10SM CLR 22/08 A2984 RMK AO2 SLP100 T02220083 $
2026-03-23 11:53:00,METAR KPSP 231153Z AUTO 00000KT 23/07 A2981 RMK AO2 SLP089 T02330072 10272 20211 53004 $
2026-03-23 10:53:00,METAR KPSP 231053Z AUTO 20004KT 22/08 A2980 RMK AO2 SLP086 T02220083 $
2026-03-23 09:53:00,METAR KPSP 230953Z AUTO 00000KT 23/09 A2979 RMK AO2 SLP085 T02280089 $
2026-03-23 08:53:00,METAR KPSP 230853Z AUTO 00000KT 23/09 A2980 RMK AO2 SLP086 T02330089 58002 $
2026-03-23 07:53:00,METAR KPSP 230753Z AUTO 28003KT 26/09 A2980 RMK AO2 SLP088 T02560089 403830183 $
2026-03-23 06:53:00,METAR KPSP 230653Z AUTO 31003KT 26/08 A2980 RMK AO2 SLP088 T02610078 $
2026-03-23 05:53:00,METAR KPSP 230553Z 11004KT 10SM CLR 27/07 A2980 RMK AO2 SLP088 T02720067 10372 20272 51016 $
2026-03-23 04:53:00,METAR KPSP 230453Z 31009KT 10SM CLR 30/07 A2980 RMK AO2 SLP086 T03000067 $
2026-03-23 03:53:00,METAR KPSP 230353Z 32008KT 10SM CLR 31/07 A2978 RMK AO2 SLP080 T03110067 $
2026-03-23 02:53:00,METAR KPSP 230253Z 31010G18KT 10SM CLR 32/07 A2976 RMK AO2 SLP071 T03220067 53007 $
2026-03-23 01:53:00,METAR KPSP 230153Z 32015G25KT 10SM CLR 33/07 A2974 RMK AO2 SLP069 T03330067 $
2026-03-23 00:53:00,METAR KPSP 230053Z 30014G19KT 10SM CLR 36/06 A2974 RMK AO2 SLP065 T03610061 $
2026-03-22 23:53:00,METAR KPSP 222353Z AUTO 33010KT 10SM CLR 37/04 A2974 RMK AO2 SLP065 T03720044 10383 20328 56016 $
2026-03-22 22:53:00,METAR KPSP 222253Z 32009G16KT 290V360 10SM CLR 38/03 A2975 RMK AO2 SLP070 T03830028 $
2026-03-22 21:53:00,METAR KPSP 222153Z 02010G18KT 10SM CLR 37/02 A2976 RMK AO2 SLP073 T03720022 $
2026-03-22 20:53:00,METAR KPSP 222053Z 07003KT 10SM CLR 37/M03 A2978 RMK AO2 SLP081 T03721033 58017 $
2026-03-22 19:53:00,METAR KPSP 221953Z 00000KT 10SM CLR 36/M02 A2981 RMK AO2 SLP088 T03611022 $
2026-03-22 18:53:00,METAR KPSP 221853Z 00000KT 10SM CLR 36/M02 A2982 RMK AO2 SLP093 T03561022
2026-03-22 17:53:00,METAR KPSP 221753Z 00000KT 10SM CLR 33/00 A2983 RMK AO2 SLP097 T03330000 10333 20183 51005 $
2026-03-22 16:53:00,METAR KPSP 221653Z 00000KT 10SM CLR 31/M01 A2983 RMK AO2 SLP098 T03061006 $
2026-03-22 15:53:00,METAR KPSP 221553Z 00000KT 10SM CLR 27/02 A2983 RMK AO2 SLP096 T02720017 $
2026-03-22 14:53:00,METAR KPSP 221453Z 00000KT 10SM CLR 23/05 A2982 RMK AO2 SLP093 T02280050 53012 $
2026-03-22 13:53:00,METAR KPSP 221353Z 00000KT 10SM CLR 19/06 A2980 RMK AO2 SLP088 T01890061 $
2026-03-22 12:53:00,METAR KPSP 221253Z 31003KT 10SM CLR 22/06 A2978 RMK AO2 SLP081 T02220056 $
2026-03-22 11:53:00,METAR KPSP 221153Z AUTO CLR 22/06 A2978 RMK AO2 SLP081 T02220061 10300 20206 55006 $
2026-03-22 10:53:00,METAR KPSP 221053Z AUTO 14003KT 21/06 A2978 RMK AO2 SLP080 T02110061 $
2026-03-22 09:53:00,METAR KPSP 220953Z AUTO 00000KT 24/04 A2979 RMK AO2 SLP082 T02440044 $
2026-03-22 08:53:00,METAR KPSP 220853Z AUTO 00000KT 24/04 A2980 RMK AO2 SLP086 T02440039 55001 $
2026-03-22 07:53:00,METAR KPSP 220753Z AUTO 00000KT 26/03 A2980 RMK AO2 SLP085 T02560033 404060206 $
2026-03-22 06:53:00,METAR KPSP 220653Z AUTO 26003KT 28/02 A2980 RMK AO2 SLP086 T02830022 $
2026-03-22 05:53:00,METAR KPSP 220553Z AUTO 30006KT 30/02 A2980 RMK AO2 SLP086 T03000022 10378 20294 51009 $
2026-03-22 04:53:00,METAR KPSP 220453Z 30010G20KT 10SM CLR 31/00 A2980 RMK AO2 SLP085 T03110000 $
2026-03-22 03:53:00,METAR KPSP 220353Z 30009KT 10SM CLR 33/01 A2979 RMK AO2 SLP083 T03280011 $
2026-03-22 03:16:00,SPECI KPSP 220316Z 28008G20KT 10SM CLR 33/01 A2978 RMK AO2 T03330011 $
2026-03-22 02:53:00,METAR KPSP 220253Z 34/01 A2977 RMK AO2 SLP077 T03390011 53004 $
2026-03-22 01:53:00,METAR KPSP 220153Z 30015G25KT 10SM CLR 35/02 A2976 RMK AO2 SLP073 T03500017 $
2026-03-22 00:53:00,METAR KPSP 220053Z 30013G23KT 10SM CLR 37/01 A2976 RMK AO2 SLP073 T03720006 $
2026-03-21 23:53:00,METAR KPSP 212353Z 28016G20KT 10SM CLR 38/M02 A2976 RMK AO2 SLP074 T03781017 10406 20361 56015 $
2026-03-21 22:53:00,METAR KPSP 212253Z 30013G24KT 10SM CLR 39/M01 A2977 RMK AO2 SLP077 T03891006 $
2026-03-21 21:53:00,METAR KPSP 212153Z 30016G28KT 10SM CLR 40/00 A2979 RMK AO2 SLP081 T04000000 $
2026-03-21 20:53:00,METAR KPSP 212053Z 33014G20KT 10SM CLR 40/M01 A2981 RMK AO2 PK WND 34028/2019 SLP087 T04001011 58016 $
2026-03-21 19:53:00,METAR KPSP 211953Z 34011KT 300V360 10SM CLR 40/M02 A2983 RMK AO2 SLP096 T04001017 $
2026-03-21 18:53:00,METAR KPSP 211853Z 33015G23KT 10SM CLR 38/M02 A2985 RMK AO2 WSHFT 1828 SLP102 T03831017 $
2026-03-21 18:48:00,SPECI KPSP 211848Z 33015G23KT 10SM CLR 39/M02 A2985 RMK AO2 WSHFT 1828 $
2026-03-21 17:53:00,METAR KPSP 211753Z 00000KT 10SM CLR 36/02 A2987 RMK AO2 SLP109 T03610017 10361 20206 50000 $
2026-03-21 16:53:00,METAR KPSP 211653Z VRB03KT 10SM CLR 32/03 A2988 RMK AO2 SLP112 T03220033 $
2026-03-21 15:53:00,METAR KPSP 211553Z 00000KT 10SM CLR 29/04 A2987 RMK AO2 SLP111 T02890039 $
2026-03-21 14:53:00,METAR KPSP 211453Z 00000KT 10SM CLR 24/07 A2987 RMK AO2 SLP110 T02440067 53012 $
2026-03-21 13:53:00,METAR KPSP 211353Z 00000KT 10SM CLR 23/06 A2985 RMK AO2 SLP106 T02280061 $
2026-03-21 12:53:00,METAR KPSP 211253Z 32003KT 10SM CLR 24/06 A2984 RMK AO2 SLP098 T02390056 $
2026-03-21 11:53:00,METAR KPSP 211153Z AUTO 00000KT 10SM 23/07 A2983 RMK AO2 SLP097 T02330072 10311 20222 57007 $
2026-03-21 10:53:00,METAR KPSP 211053Z AUTO 29003KT 10SM 25/07 A2984 RMK AO2 SLP099 T02500072 $
2026-03-21 09:53:00,METAR KPSP 210953Z AUTO 00000KT 10SM 25/07 A2985 RMK AO2 SLP103 T02500072 $
2026-03-21 08:53:00,METAR KPSP 210853Z AUTO 22003KT 10SM 26/07 A2986 RMK AO2 SLP105 T02610067 55000 $
2026-03-21 07:53:00,METAR KPSP 210753Z AUTO 20003KT 10SM 27/07 A2985 RMK AO2 SLP104 T02670067 404220250 $
2026-03-21 06:53:00,METAR KPSP 210653Z AUTO 32004KT 10SM 28/07 A2985 RMK AO2 SLP104 T02830067 $
2026-03-21 05:53:00,METAR KPSP 210553Z AUTO 34003KT 10SM 31/06 A2986 RMK AO2 SLP105 T03110061 10417 20300 51009 $
2026-03-21 04:53:00,METAR KPSP 210453Z AUTO 34003KT 10SM CLR 33/06 A2985 RMK AO2 SLP103 T03280056 $
2026-03-21 03:53:00,METAR KPSP 210353Z 29004KT 10SM CLR 34/02 A2984 RMK AO2 SLP100 T03390022 $
2026-03-21 02:53:00,METAR KPSP 210253Z 03005KT 10SM CLR 36/M01 A2983 RMK AO2 SLP096 T03611006 53003 $
2026-03-21 02:28:00,SPECI KPSP 210228Z 02006KT 10SM CLR 37/01 A2983 RMK AO2 T03670011 $
2026-03-21 01:53:00,METAR KPSP 210153Z 10005KT 10SM CLR 38/01 A2982 RMK AO2 SLP093 T03830006 $
2026-03-21 00:53:00,METAR KPSP 210053Z 12009KT 10SM CLR 41/M02 A2982 RMK AO2 SLP091 T04061017 $
2026-03-20 23:53:00,METAR KPSP 202353Z 13008KT 10SM CLR 42/M02 A2982 RMK AO2 SLP092 T04171017 10422 20367 56025 $
2026-03-20 22:53:00,METAR KPSP 202253Z 11009KT 10SM CLR 42/M01 A2984 RMK AO2 SLP098 T04171011 $
2026-03-20 21:53:00,METAR KPSP 202153Z 11013KT 10SM CLR 42/M01 A2986 RMK AO2 SLP107 T04171011 $
2026-03-20 20:53:00,METAR KPSP 202053Z 12008KT 10SM CLR 42/M02 A2989 RMK AO2 SLP117 T04171022 58019 $
2026-03-20 19:53:00,METAR KPSP 201953Z 13008KT 10SM CLR 41/M02 A2992 RMK AO2 SLP126 T04061022 $
2026-03-20 18:53:00,METAR KPSP 201853Z 00000KT 10SM CLR 39/01 A2993 RMK AO2 SLP131 T03890006 $
2026-03-20 17:53:00,METAR KPSP 201753Z 00000KT 10SM CLR 37/02 A2995 RMK AO2 SLP137 T03720022 10372 20256 50001
2026-03-20 16:53:00,METAR KPSP 201653Z 00000KT 10SM CLR 35/04 A2996 RMK AO2 SLP140 T03500039
2026-03-20 15:53:00,METAR KPSP 201553Z 33007KT 10SM CLR 32/03 A2996 RMK AO2 SLP139 T03170033 $
2026-03-20 14:53:00,METAR KPSP 201453Z 33007KT 10SM CLR 29/02 A2995 RMK AO2 SLP136 T02890022 53007 $
2026-03-20 13:53:00,METAR KPSP 201353Z 32006KT 10SM CLR 27/03 A2994 RMK AO2 SLP132 T02670033 $
2026-03-20 12:53:00,METAR KPSP 201253Z 33008KT 10SM CLR 26/04 A2993 RMK AO2 SLP130 T02560044 $
2026-03-20 11:53:00,METAR KPSP 201153Z AUTO 33007KT 10SM 26/04 A2993 RMK AO2 SLP129 T02560044 10311 20250 56010 $
2026-03-20 10:53:00,METAR KPSP 201053Z AUTO 32005KT 10SM 27/04 A2993 RMK AO2 SLP130 T02720039 $
2026-03-20 09:53:00,METAR KPSP 200953Z AUTO 33008KT 10SM 25/04 A2995 RMK AO2 SLP135 T02500044 $
2026-03-20 08:53:00,METAR KPSP 200853Z AUTO 33009KT 10SM 28/04 A2996 RMK AO2 SLP139 T02830044 50000 $
2026-03-20 07:53:00,METAR KPSP 200753Z AUTO 33007KT 10SM 29/03 A2996 RMK AO2 SLP141 T02890033 404170256 $
2026-03-20 06:53:00,METAR KPSP 200653Z AUTO 33008KT 10SM 29/03 A2996 RMK AO2 SLP140 T02940033 $
2026-03-20 05:53:00,METAR KPSP 200553Z AUTO 33009KT 10SM CLR 31/03 A2996 RMK AO2 SLP139 T03110028 10411 20306 51014 $
2026-03-20 04:53:00,METAR KPSP 200453Z 33005KT 10SM CLR 31/02 A2995 RMK AO2 SLP137 T03060017 $
2026-03-20 03:53:00,METAR KPSP 200353Z 34006KT 10SM CLR 33/02 A2994 RMK AO2 SLP133 T03280017 $
2026-03-20 02:53:00,METAR KPSP 200253Z 00000KT 10SM CLR 36/00 A2992 RMK AO2 SLP125 T03560000 53003 $
2026-03-20 01:53:00,METAR KPSP 200153Z 25003KT 10SM 37/01 A2990 RMK AO2 SLP121 T03670011 $
2026-03-20 00:53:00,METAR KPSP 200053Z 12008KT 10SM CLR 40/M02 A2990 RMK AO2 SLP120 T04001017 $
2026-03-19 23:53:00,METAR KPSP 192353Z 16005KT 10SM CLR 41/M03 A2991 RMK AO2 SLP122 T04111033 10417 20389 56022 $
2026-03-19 22:53:00,METAR KPSP 192253Z 12007KT 10SM CLR 41/M04 A2992 RMK AO2 SLP128 T04111039 $
2026-03-19 21:53:00,METAR KPSP 192153Z AUTO 09005G15KT 10SM CLR 42/M03 A2994 RMK AO2 SLP134 T04171033 $
2026-03-19 20:53:00,METAR KPSP 192053Z 15011KT 10SM CLR 41/M02 A2997 RMK AO2 WSHFT 2027 SLP144 T04111022 58022 $
2026-03-19 20:21:00,SPECI KPSP 192021Z 16010KT 10SM CLR 40/M04 A2999 RMK AO2 T04001044 $
2026-03-19 19:53:00,METAR KPSP 191953Z 20005KT 10SM CLR 40/M04 A3001 RMK AO2 SLP155 T04001039 $
2026-03-19 18:53:00,METAR KPSP 191853Z VRB03KT 10SM CLR 39/M02 A3003 RMK AO2 SLP162 T03891017 $
2026-03-19 17:53:00,METAR KPSP 191753Z 00000KT 10SM CLR 38/01 A3004 RMK AO2 SLP167 T03780006 10378 20256 51005 $
2026-03-19 16:53:00,METAR KPSP 191653Z 00000KT 10SM CLR 34/02 A3004 RMK AO2 SLP167 T03390022 $
2026-03-19 15:53:00,METAR KPSP 191553Z 30003KT 10SM CLR 31/04 A3004 RMK AO2 SLP166 T03110039 $
2026-03-19 14:53:00,METAR KPSP 191453Z 31006KT 10SM CLR 27/04 A3002 RMK AO2 SLP163 T02720039 53016 $
2026-03-19 13:53:00,METAR KPSP 191353Z 32008KT 10SM CLR 26/04 A3000 RMK AO2 SLP154 T02610044 $
2026-03-19 12:53:00,METAR KPSP 191253Z 32008KT 10SM CLR 26/06 A2999 RMK AO2 SLP149 T02610056 $
2026-03-19 11:53:00,METAR KPSP 191153Z AUTO 33007KT 10SM 26/06 A2998 RMK AO2 SLP146 T02610061 10311 20261 56008 $
2026-03-19 10:53:00,METAR KPSP 191053Z AUTO 32007KT 10SM 27/06 A2998 RMK AO2 SLP146 T02720061 $
2026-03-19 09:53:00,METAR KPSP 190953Z AUTO 34009KT 10SM 28/07 A2999 RMK AO2 SLP150 T02830067 $
2026-03-19 08:53:00,METAR KPSP 190853Z AUTO 32005KT 10SM 29/07 A3000 RMK AO2 SLP154 T02890072 51002 $
2026-03-19 07:53:00,METAR KPSP 190753Z AUTO 33007KT 10SM 29/08 A3000 RMK AO2 SLP153 T02940083 404110239 $
2026-03-19 06:53:00,METAR KPSP 190653Z AUTO 33008KT 10SM CLR 30/09 A3000 RMK AO2 SLP154 T03000089 $
2026-03-19 05:53:00,METAR KPSP 190553Z 34011G16KT 10SM CLR 31/08 A3000 RMK AO2 SLP152 T03110083 10411 20306 51022 $
2026-03-19 04:53:00,METAR KPSP 190453Z 00000KT 10SM CLR 31/04 A2998 RMK AO2 SLP148 T03110044 $
2026-03-19 03:53:00,METAR KPSP 190353Z 30006KT 10SM CLR 33/03 A2996 RMK AO2 SLP140 T03330028 $
2026-03-19 03:01:00,SPECI KPSP 190301Z VRB04KT 10SM CLR 34/03 A2993 RMK AO2 T03390028 $
2026-03-19 02:53:00,METAR KPSP 190253Z 17006KT 10SM CLR 33/04 A2993 RMK AO2 SLP131 T03330039 53008 $
2026-03-19 01:53:00,METAR KPSP 190153Z 31006KT 10SM CLR 37/03 A2991 RMK AO2 SLP123 T03720028 $
2026-03-19 00:59:00,SPECI KPSP 190059Z VRB03KT 10SM CLR 39/M01 A2990 RMK AO2 T03941011 $
2026-03-19 00:53:00,METAR KPSP 190053Z 17004KT 10SM 39/M01 A2990 RMK AO2 SLP119 T03941006 $
2026-03-18 23:53:00,METAR KPSP 182353Z 25004KT 10SM CLR 40/M01 A2991 RMK AO2 SLP122 T04001011 10406 20361 56020 $
2026-03-18 22:53:00,METAR KPSP 182253Z AUTO 10SM CLR 41/M01 A2992 RMK AO2 SLP128 T04061011 $
2026-03-18 21:57:00,SPECI KPSP 182157Z 23005KT 10SM CLR 40/M01 A2994 RMK AO2 T04001011 $
2026-03-18 21:53:00,METAR KPSP 182153Z 15004KT 10SM 41/M01 A2994 RMK AO2 SLP133 T04061011 $
2026-03-18 20:53:00,METAR KPSP 182053Z COR VRB06KT 10SM CLR 41/M02 A2997 RMK AO2 SLP142 T04061017 58018 $
2026-03-18 19:53:00,METAR KPSP 181953Z 00000KT 10SM CLR 39/M01 A3000 RMK AO2 SLP152 T03891006 $
2026-03-18 18:53:00,METAR KPSP 181853Z 00000KT 10SM CLR 38/02 A3001 RMK AO2 SLP157 T03780017 $
2026-03-18 17:53:00,METAR KPSP 181753Z VRB04KT 10SM CLR 37/02 A3002 RMK AO2 SLP160 T03670022 10367 20239 50007 $
2026-03-18 16:53:00,METAR KPSP 181653Z 00000KT 10SM CLR 34/02 A3002 RMK AO2 SLP161 T03390022 $
2026-03-18 15:53:00,METAR KPSP 181553Z 33005KT 10SM CLR 31/04 A3001 RMK AO2 SLP160 T03060039 $
2026-03-18 14:53:00,METAR KPSP 181453Z 31005KT 10SM CLR 27/04 A3000 RMK AO2 SLP154 T02670039 53015 $
2026-03-18 13:53:00,METAR KPSP 181353Z 30005KT 10SM CLR 25/03 A2998 RMK AO2 SLP147 T02500033 $
2026-03-18 12:53:00,METAR KPSP 181253Z AUTO 33008KT 10SM CLR 25/03 A2996 RMK AO2 SLP141 T02500033 $
2026-03-18 11:53:00,METAR KPSP 181153Z AUTO 32008KT 10SM CLR 26/03 A2995 RMK AO2 SLP138 7//// T02610033 10300 20244 55002 $
2026-03-18 10:53:00,METAR KPSP 181053Z AUTO 33008KT 10SM CLR 26/03 A2995 RMK AO2 SLP136 T02610033 $
2026-03-18 09:53:00,METAR KPSP 180953Z AUTO 34008KT 10SM CLR 27/03 A2995 RMK AO2 SLP137 T02670033 $
2026-03-18 08:53:00,METAR KPSP 180853Z AUTO 34008KT 10SM CLR 28/04 A2996 RMK AO2 SLP139 T02780039 51002 $
2026-03-18 07:53:00,METAR KPSP 180753Z AUTO 30003KT 10SM CLR 28/04 A2996 RMK AO2 SLP139 T02830044 403940239 $
2026-03-18 06:53:00,METAR KPSP 180653Z AUTO 33008KT 10SM CLR 29/05 A2995 RMK AO2 SLP138 T02940050 $
2026-03-18 05:53:00,METAR KPSP 180553Z 29006KT 10SM CLR 29/04 A2995 RMK AO2 SLP137 T02940039 10389 20294 51022 $
2026-03-18 04:53:00,METAR KPSP 180453Z 00000KT 10SM CLR 31/06 A2993 RMK AO2 SLP130 T03060056 $
2026-03-18 03:53:00,METAR KPSP 180353Z 35010KT 10SM CLR 32/03 A2991 RMK AO2 SLPNO T03170033 $
2026-03-18 02:53:00,METAR KPSP 180253Z 28003KT 10SM CLR 34/03 A2988 RMK AO2 SLP115 T03440033 53008 $
2026-03-18 01:53:00,METAR KPSP 180153Z 21004KT 10SM CLR 34/03 A2986 RMK AO2 SLP108 T03440028 $
2026-03-18 00:53:00,METAR KPSP 180053Z 00000KT 10SM CLR 38/01 A2986 RMK AO2 SLP105 T03780011 $
2026-03-17 23:53:00,METAR KPSP 172353Z VRB05KT 10SM CLR 39/01 A2986 RMK AO2 SLP106 T03890011 10394 20344 56019 $
2026-03-17 22:53:00,METAR KPSP 172253Z 20007KT 10SM CLR 38/01 A2988 RMK AO2 SLP112 T03830011
2026-03-17 21:53:00,METAR KPSP 172153Z VRB05KT 10SM CLR 38/02 A2989 RMK AO2 SLP117 T03830017
2026-03-17 20:53:00,METAR KPSP 172053Z VRB05KT 10SM CLR 37/01 A2992 RMK AO2 SLP125 T03720011 58023
2026-03-17 19:53:00,METAR KPSP 171953Z VRB04KT 10SM CLR 37/01 A2995 RMK AO2 SLP135 T03720006
2026-03-17 18:53:00,METAR KPSP 171853Z AUTO 00000KT 10SM CLR 36/01 A2997 RMK AO2 SLP143 T03560011
2026-03-17 17:53:00,METAR KPSP 171753Z AUTO 00000KT 10SM CLR 34/01 A2999 RMK AO2 SLP150 6//// T03440011
2026-03-17 16:53:00,METAR KPSP 171653Z AUTO 24004KT 10SM 33/02 A3000 RMK AO2 SLP154 T03330022
2026-03-17 14:53:00,METAR KPSP 171453Z 29004KT 10SM CLR 25/02 A2996 RMK AO2 SLP130 T02500022 $
2026-03-17 13:53:00,METAR KPSP 171353Z 00000KT 10SM CLR 25/02 A2996 RMK AO2 PRESRR SLP130 T02500017 $
2026-03-17 12:53:00,METAR KPSP 171253Z 28004KT 10SM CLR 27/01 A2994 RMK AO2 SLP123 T02670011 $
2026-03-17 11:53:00,METAR KPSP 171153Z AUTO 29004KT 10SM CLR 28/01 RMK AO2 SLPNO T02780011 10294 20250 $
2026-03-17 10:53:00,METAR KPSP 171053Z AUTO 31006KT 10SM CLR 29/01 RMK AO2 SLPNO T02890006 $
2026-03-17 09:53:00,METAR KPSP 170953Z AUTO 32008KT 10SM CLR 27/02 RMK AO2 SLPNO T02720017 $
2026-03-17 08:53:00,METAR KPSP 170853Z AUTO 28004KT 10SM CLR 28/01 RMK AO2 SLPNO T02780011 $
2026-03-17 07:53:00,METAR KPSP 170753Z AUTO 24005KT 10SM CLR 28/01 RMK AO2 SLPNO T02780006 403670178 $
2026-03-17 06:53:00,METAR KPSP 170653Z AUTO 34006KT 10SM CLR 28/00 RMK AO2 SLPNO T02780000 $
2026-03-17 05:53:00,METAR KPSP 170553Z AUTO 22006KT 10SM CLR 28/01 RMK AO2 SLPNO T02780006 10356 20278 $
2026-03-17 04:53:00,METAR KPSP 170453Z 25006KT 10SM CLR 28/01 A2996 RMK AO2 SLP130 T02830011 $
2026-03-17 03:53:00,METAR KPSP 170353Z 26003KT 10SM CLR 30/01 A2993 RMK AO2 SLP121 T03000011 $
2026-03-17 02:53:00,METAR KPSP 170253Z VRB05KT 10SM CLR 33/M02 A2991 RMK AO2 SLP114 T03331017 53010 $
2026-03-17 01:53:00,METAR KPSP 170153Z 25007KT 10SM CLR 33/M02 A2988 RMK AO2 SLP104 T03331017 $
2026-03-17 00:53:00,METAR KPSP 170053Z 02008KT 10SM CLR 35/M01 A2989 RMK AO2 SLP107 T03501011 $
2026-03-16 23:53:00,METAR KPSP 162353Z 10SM CLR 36/M01 A2988 RMK AO2 SLP103 T03561011 10367 20328 58020 $
2026-03-16 22:53:00,METAR KPSP 162253Z 03009KT 10SM CLR 36/M02 A2991 RMK AO2 SLP113 T03611017 $
2026-03-16 21:53:00,METAR KPSP 162153Z VRB06KT 10SM CLR 36/M01 A2992 RMK AO2 SLP116 T03611006 $
2026-03-16 20:53:00,METAR KPSP 162053Z VRB06KT 10SM CLR 35/M02 A2994 RMK AO2 SLP123 T03501017 $
2026-03-16 19:53:00,METAR KPSP 161953Z 02013KT 10SM CLR 35/M02 A2999 RMK AO2 SLP140 T03501017 $
2026-03-16 18:53:00,METAR KPSP 161853Z AUTO 00000KT 10SM CLR 33/M06 A3001 RMK AO2 SLP147 T03281061 $
2026-03-16 18:18:00,SPECI KPSP 161818Z 00000KT 10SM CLR 33/M06 A3001 RMK AO2 $
2026-03-16 16:53:00,METAR KPSP 161653Z 21004KT 10SM CLR 30/03 A3002 RMK AO2 SLP160 T03000028 $
2026-03-16 15:53:00,METAR KPSP 161553Z 00000KT 10SM CLR 24/03 A3001 RMK AO2 SLP161 T02440033 $
2026-03-16 14:53:00,METAR KPSP 161453Z 33006KT 10SM CLR 21/00 A3001 RMK AO2 SLP158 T02060000 53010 $
2026-03-16 13:53:00,METAR KPSP 161353Z 31006KT 10SM CLR 20/M01 A2999 RMK AO2 SLP151 T02001006 $
2026-03-16 12:53:00,METAR KPSP 161253Z 35007KT 10SM CLR 19/01 A2998 RMK AO2 SLP149 T01890006 $
2026-03-16 11:53:00,METAR KPSP 161153Z AUTO 33009KT 10SM CLR 20/01 A2998 RMK AO2 SLP147 T02000006 10261 20200 55003 $
2026-03-16 10:53:00,METAR KPSP 161053Z AUTO 33009KT 10SM CLR 21/00 A2997 RMK AO2 SLP145 T02060000 $
2026-03-16 09:53:00,METAR KPSP 160953Z AUTO 33008KT 10SM CLR 21/02 A2998 RMK AO2 SLP149 T02060017 $
2026-03-16 08:53:00,METAR KPSP 160853Z AUTO 32005KT 10SM CLR 23/02 A2999 RMK AO2 SLP150 T02280017 50007 $
2026-03-16 07:53:00,METAR KPSP 160753Z AUTO 28006KT 10SM CLR 24/01 A2999 RMK AO2 SLP151 T02440011 403670172 $
2026-03-16 06:53:00,METAR KPSP 160653Z AUTO 34007KT 10SM CLR 24/02 A2998 RMK AO2 SLP148 T02440017 $
2026-03-16 05:53:00,METAR KPSP 160553Z AUTO 33005KT 10SM CLR 26/M02 A2996 RMK AO2 SLP143 T02561022 10361 20256 51018 $
2026-03-16 04:53:00,METAR KPSP 160453Z 29006KT 10SM CLR 29/M03 A2996 RMK AO2 SLP140 T02941028 $
2026-03-16 03:53:00,METAR KPSP 160353Z 25005KT 10SM CLR 29/M02 A2993 RMK AO2 SLP132 T02941022 $
2026-03-16 02:53:00,METAR KPSP 160253Z 30005KT 10SM CLR 30/M02 A2991 RMK AO2 SLP126 T03001017 53005 $
2026-03-16 01:53:00,METAR KPSP 160153Z 03005KT 10SM CLR 33/M06 A2990 RMK AO2 SLP121 T03281056 $
2026-03-16 00:53:00,METAR KPSP 160053Z 01008KT 10SM CLR 35/M06 A2989 RMK AO2 SLP117 T03501056 $
2026-03-15 23:55:00,SPECI KPSP 152355Z VRB05KT 10SM CLR 36/M06 A2989 RMK AO2 T03611056 $
2026-03-15 23:53:00,METAR KPSP 152353Z 03007KT 10SM CLR 36/M06 A2990 RMK AO2 SLP120 T03611056 10367 20322 56014 $
2026-03-15 22:53:00,METAR KPSP 152253Z 03009G16KT 10SM CLR 37/M04 A2991 RMK AO2 SLP124 T03671039 $
2026-03-15 21:53:00,METAR KPSP 152153Z VRB04KT 10SM CLR 36/M03 A2991 RMK AO2 SLP125 T03561033 $
2026-03-15 20:53:00,METAR KPSP 152053Z 36007G16KT 10SM CLR 35/M01 A2994 RMK AO2 SLP133 T03501011 58017 $
2026-03-15 19:53:00,METAR KPSP 151953Z 33008KT 10SM CLR 34/M01 A2997 RMK AO2 SLP143 T03391006 $
2026-03-15 18:53:00,METAR KPSP 151853Z 34006KT 10SM CLR 33/M01 A2998 RMK AO2 SLP148 T03281011 $
2026-03-15 17:53:00,METAR KPSP 151753Z 29005KT 10SM CLR 32/M01 A2999 RMK AO2 SLP150 T03221006 10328 20172 51015 $
2026-03-15 16:53:00,METAR KPSP 151653Z 30005KT 10SM CLR 31/M01 A2998 RMK AO2 SLP148 T03111006 $
2026-03-15 15:53:00,METAR KPSP 151553Z 31008KT 10SM CLR 29/01 A2996 RMK AO2 SLP141 T02890006 $
2026-03-15 14:53:00,METAR KPSP 151453Z 30007KT 10SM CLR 22/02 A2994 RMK AO2 SLP136 T02170022 53026 $
2026-03-15 13:53:00,METAR KPSP 151353Z 30005KT 10SM CLR 21/02 A2990 RMK AO2 SLP123 T02060017 $
2026-03-15 12:53:00,METAR KPSP 151253Z 00000KT 10SM CLR 17/06 A2989 RMK AO2 SLP117 T01720056 $
2026-03-15 11:53:00,METAR KPSP 151153Z AUTO 00000KT 10SM CLR 18/05 A2986 RMK AO2 SLP110 T01780050 10267 20178 53002 $
2026-03-15 10:53:00,METAR KPSP 151053Z AUTO 00000KT 10SM CLR 19/05 A2986 RMK AO2 SLP108 T01940050 $
2026-03-15 09:53:00,METAR KPSP 150953Z AUTO 00000KT 10SM CLR 22/03 A2986 RMK AO2 SLP108 T02170033 $
2026-03-15 08:53:00,METAR KPSP 150853Z AUTO 00000KT 10SM CLR 21/04 A2986 RMK AO2 SLP108 T02060039 51004 $
