Time_recorded,METAR
2026-05-02 15:30:00,METAR LFMN 021530Z 15003KT 110V210 CAVOK 20/08 Q1023 NOSIG
2026-05-02 15:00:00,METAR LFMN 021500Z 15004KT CAVOK 20/09 Q1023 NOSIG
2026-05-02 14:30:00,METAR LFMN 021430Z 13005KT CAVOK 20/08 Q1023 NOSIG
2026-05-02 14:00:00,METAR LFMN 021400Z 12006KT CAVOK 20/07 Q1024 NOSIG
2026-05-02 13:30:00,METAR LFMN 021330Z 12006KT CAVOK 20/07 Q1024 NOSIG
2026-05-02 13:00:00,METAR LFMN 021300Z 13006KT CAVOK 20/07 Q1024 NOSIG
2026-05-02 12:30:00,METAR LFMN 021230Z 12007KT CAVOK 20/06 Q1025 NOSIG
2026-05-02 12:00:00,METAR LFMN 021200Z 11009KT CAVOK 20/07 Q1025 NOSIG
2026-05-02 11:30:00,METAR LFMN 021130Z 10011KT CAVOK 21/07 Q1025 NOSIG
2026-05-02 11:00:00,METAR LFMN 021100Z 09011KT CAVOK 21/08 Q1025 NOSIG
2026-05-02 10:30:00,METAR LFMN 021030Z 09012KT CAVOK 22/07 Q1025 NOSIG
2026-05-02 10:00:00,METAR LFMN 021000Z 09013KT CAVOK 21/06 Q1026 NOSIG
2026-05-02 09:30:00,METAR LFMN 020930Z 09014KT CAVOK 21/06 Q1025 NOSIG
2026-05-02 09:00:00,METAR LFMN 020900Z 08014KT CAVOK 21/06 Q1026 NOSIG
2026-05-02 08:30:00,METAR LFMN 020830Z 08007KT CAVOK 20/08 Q1026 NOSIG
2026-05-02 08:00:00,METAR LFMN 020800Z 06005KT 030V090 CAVOK 20/03 Q1026 NOSIG
2026-05-02 07:30:00,METAR LFMN 020730Z 06004KT 030V110 CAVOK 20/03 Q1026 NOSIG
2026-05-02 07:00:00,METAR LFMN 020700Z 36005KT 320V030 CAVOK 18/08 Q1026 NOSIG
2026-05-02 06:30:00,METAR LFMN 020630Z 32008KT CAVOK 16/08 Q1026 NOSIG
2026-05-02 06:00:00,METAR LFMN 020600Z 33008KT CAVOK 15/08 Q1026 NOSIG
2026-05-02 05:30:00,METAR LFMN 020530Z 33008KT CAVOK 14/08 Q1026 NOSIG
2026-05-02 05:00:00,METAR LFMN 020500Z 33010KT CAVOK 13/08 Q1025 NOSIG
2026-05-02 04:30:00,METAR LFMN 020430Z 33009KT CAVOK 14/08 Q1025 NOSIG
2026-05-02 04:00:00,METAR LFMN 020400Z 32009KT CAVOK 14/08 Q1025 NOSIG
2026-05-02 03:30:00,METAR LFMN 020330Z 33006KT CAVOK 14/09 Q1025 NOSIG
2026-05-02 03:00:00,METAR LFMN 020300Z 33007KT CAVOK 14/09 Q1025 NOSIG
2026-05-02 02:30:00,METAR LFMN 020230Z 33007KT CAVOK 14/09 Q1025 NOSIG
2026-05-02 02:00:00,METAR LFMN 020200Z 33008KT CAVOK 15/09 Q1025 NOSIG
2026-05-02 01:30:00,METAR LFMN 020130Z 33006KT CAVOK 15/09 Q1025 NOSIG
2026-05-02 01:00:00,METAR LFMN 020100Z 33006KT CAVOK 15/09 Q1025 NOSIG
2026-05-02 00:30:00,METAR LFMN 020030Z 33007KT CAVOK 15/09 Q1025 NOSIG
2026-05-02 00:00:00,METAR LFMN 020000Z 34006KT CAVOK 16/09 Q1025 NOSIG
2026-05-01 23:30:00,METAR LFMN 012330Z 33006KT CAVOK 16/09 Q1025 NOSIG
2026-05-01 23:00:00,METAR LFMN 012300Z 34004KT CAVOK 16/09 Q1025 NOSIG
2026-05-01 22:30:00,METAR LFMN 012230Z 33006KT CAVOK 16/09 Q1025 NOSIG
2026-05-01 22:00:00,METAR LFMN 012200Z 33005KT CAVOK 16/09 Q1025 NOSIG
2026-05-01 21:30:00,METAR LFMN 012130Z 32007KT CAVOK 16/09 Q1025 NOSIG
2026-05-01 21:00:00,METAR LFMN 012100Z 32007KT CAVOK 16/09 Q1025 NOSIG
2026-05-01 20:30:00,METAR LFMN 012030Z 32006KT CAVOK 17/09 Q1025 NOSIG
2026-05-01 20:00:00,METAR LFMN 012000Z 32004KT 260V020 CAVOK 17/09 Q1024 NOSIG
2026-05-01 19:30:00,METAR LFMN 011930Z 27003KT CAVOK 17/09 Q1024 NOSIG
2026-05-01 19:00:00,METAR LFMN 011900Z VRB03KT CAVOK 17/09 Q1024 NOSIG
2026-05-01 18:30:00,METAR LFMN 011830Z 23003KT CAVOK 17/09 Q1024 NOSIG
2026-05-01 18:00:00,METAR LFMN 011800Z 19003KT CAVOK 18/09 Q1023 NOSIG
2026-05-01 17:30:00,METAR LFMN 011730Z VRB03KT CAVOK 18/09 Q1023 NOSIG
2026-05-01 17:00:00,METAR LFMN 011700Z 20003KT 160V240 CAVOK 18/08 Q1024 NOSIG
2026-05-01 16:30:00,METAR LFMN 011630Z 20004KT CAVOK 18/09 Q1024 NOSIG
2026-05-01 16:00:00,METAR LFMN 011600Z 19004KT CAVOK 18/09 Q1024 NOSIG
2026-05-01 15:30:00,METAR LFMN 011530Z 19004KT 160V230 CAVOK 19/09 Q1024 NOSIG
2026-05-01 15:00:00,METAR LFMN 011500Z 16004KT CAVOK 19/09 Q1024 NOSIG
2026-05-01 14:30:00,METAR LFMN 011430Z VRB03KT CAVOK 19/08 Q1024 NOSIG
2026-05-01 14:00:00,METAR LFMN 011400Z 17003KT 140V200 CAVOK 19/09 Q1025 NOSIG
2026-05-01 13:30:00,METAR LFMN 011330Z 15004KT 120V190 CAVOK 19/08 Q1025 NOSIG
2026-05-01 13:00:00,METAR LFMN 011300Z 12006KT CAVOK 19/08 Q1025 NOSIG
2026-05-01 12:30:00,METAR LFMN 011230Z 11008KT CAVOK 19/09 Q1025 NOSIG
2026-05-01 12:00:00,METAR LFMN 011200Z 10010KT CAVOK 19/08 Q1025 NOSIG
2026-05-01 11:30:00,METAR LFMN 011130Z 10011KT CAVOK 19/09 Q1026 NOSIG
2026-05-01 11:00:00,METAR LFMN 011100Z 10012KT CAVOK 19/09 Q1026 NOSIG
2026-05-01 10:30:00,METAR LFMN 011030Z 10013KT CAVOK 19/09 Q1026 NOSIG
2026-05-01 10:00:00,METAR LFMN 011000Z 10014KT CAVOK 19/08 Q1025 NOSIG
2026-05-01 09:30:00,METAR LFMN 010930Z 10014KT CAVOK 19/09 Q1025 NOSIG
2026-05-01 09:00:00,METAR LFMN 010900Z 10014KT CAVOK 18/09 Q1025 NOSIG
2026-05-01 08:30:00,METAR LFMN 010830Z 10015KT CAVOK 18/09 Q1025 NOSIG
2026-05-01 08:00:00,METAR LFMN 010800Z 09014KT 9999 FEW040 SCT260 18/09 Q1025 NOSIG
2026-05-01 07:30:00,METAR LFMN 010730Z 09013KT 9999 FEW040 SCT260 18/09 Q1025 NOSIG
2026-05-01 07:00:00,METAR LFMN 010700Z 10014KT 9999 FEW040 SCT260 18/09 Q1024 NOSIG
2026-05-01 06:30:00,METAR LFMN 010630Z 09012KT CAVOK 18/09 Q1024 NOSIG
2026-05-01 06:00:00,METAR LFMN 010600Z 09012KT CAVOK 17/09 Q1024 NOSIG
2026-05-01 05:30:00,METAR LFMN 010530Z 09012KT 9999 SCT120 17/10 Q1024 NOSIG
2026-05-01 05:00:00,METAR LFMN 010500Z 10014KT 9999 SCT120 17/10 Q1024 NOSIG
2026-05-01 04:30:00,METAR LFMN 010430Z VRB06KT 9999 SCT120 16/11 Q1023 NOSIG
2026-05-01 04:00:00,METAR LFMN 010400Z 35005KT CAVOK 14/10 Q1023 NOSIG
2026-05-01 03:30:00,METAR LFMN 010330Z 33006KT CAVOK 14/10 Q1023 NOSIG
2026-05-01 03:00:00,METAR LFMN 010300Z 35005KT 330V030 CAVOK 15/10 Q1022 NOSIG
2026-05-01 02:30:00,METAR LFMN 010230Z 32008KT CAVOK 15/10 Q1022 NOSIG
2026-05-01 02:00:00,METAR LFMN 010200Z 32005KT CAVOK 15/10 Q1022 NOSIG
2026-05-01 01:30:00,METAR LFMN 010130Z 34005KT CAVOK 16/10 Q1022 NOSIG
2026-05-01 01:00:00,METAR LFMN 010100Z 32004KT CAVOK 15/10 Q1022 NOSIG
2026-05-01 00:30:00,METAR LFMN 010030Z 33005KT CAVOK 16/10 Q1022 NOSIG
2026-05-01 00:00:00,METAR LFMN 010000Z 31005KT CAVOK 16/10 Q1021 NOSIG
2026-04-30 23:30:00,METAR LFMN 302330Z 32006KT CAVOK 17/10 Q1021 NOSIG
2026-04-30 23:00:00,METAR LFMN 302300Z 32005KT CAVOK 17/10 Q1021 NOSIG
2026-04-30 22:30:00,METAR LFMN 302230Z 34005KT CAVOK 17/10 Q1021 NOSIG
2026-04-30 22:00:00,METAR LFMN 302200Z 34007KT CAVOK 17/11 Q1021 NOSIG
2026-04-30 21:30:00,METAR LFMN 302130Z 33006KT CAVOK 18/11 Q1021 NOSIG
2026-04-30 21:00:00,METAR LFMN 302100Z 33006KT CAVOK 18/10 Q1021 NOSIG
2026-04-30 20:30:00,METAR LFMN 302030Z 33006KT CAVOK 19/10 Q1021 NOSIG
2026-04-30 20:00:00,METAR LFMN 302000Z 27003KT 250V320 CAVOK 19/11 Q1020 NOSIG
2026-04-30 19:30:00,METAR LFMN 301930Z 20003KT CAVOK 19/13 Q1020 NOSIG
2026-04-30 19:00:00,METAR LFMN 301900Z VRB02KT 9999 FEW100 BKN150 19/11 Q1020 NOSIG
2026-04-30 18:30:00,METAR LFMN 301830Z VRB02KT 9999 SCT100 BKN150 20/11 Q1020 NOSIG
2026-04-30 18:00:00,METAR LFMN 301800Z VRB02KT 9999 SCT100 BKN150 20/10 Q1020 NOSIG
2026-04-30 17:30:00,METAR LFMN 301730Z VRB02KT 9999 SCT100 BKN150 20/09 Q1020 NOSIG
2026-04-30 17:00:00,METAR LFMN 301700Z 11005KT 060V140 9999 BKN100 21/09 Q1020 NOSIG
2026-04-30 16:30:00,METAR LFMN 301630Z VRB02KT 9999 BKN100 20/10 Q1020 NOSIG
2026-04-30 16:00:00,METAR LFMN 301600Z VRB03KT 9999 BKN100 20/11 Q1020 NOSIG
2026-04-30 15:00:00,METAR LFMN 301500Z VRB03KT 9999 BKN110 20/11 Q1020 NOSIG
2026-04-30 14:30:00,METAR LFMN 301430Z 09006KT 030V130 9999 BKN110 BKN260 20/11 Q1019 NOSIG
2026-04-30 14:00:00,METAR LFMN 301400Z 09012KT 9999 SCT110 BKN260 20/12 Q1019 NOSIG
2026-04-30 13:30:00,METAR LFMN 301330Z 10013KT 9999 FEW110 BKN260 20/13 Q1019 NOSIG
2026-04-30 13:00:00,METAR LFMN 301300Z 09011KT 9999 FEW110 BKN260 21/13 Q1019 NOSIG
2026-04-30 12:30:00,METAR LFMN 301230Z 09013KT CAVOK 21/13 Q1019 NOSIG
2026-04-30 12:00:00,METAR LFMN 301200Z 10012KT CAVOK 21/13 Q1019 NOSIG
2026-04-30 11:30:00,METAR LFMN 301130Z 10013KT CAVOK 20/14 Q1019 NOSIG
2026-04-30 11:00:00,METAR LFMN 301100Z 10016KT CAVOK 20/13 Q1019 NOSIG
2026-04-30 10:30:00,METAR LFMN 301030Z 11013KT CAVOK 20/14 Q1019 NOSIG
2026-04-30 10:00:00,METAR LFMN 301000Z 09011KT CAVOK 20/14 Q1019 NOSIG
2026-04-30 09:30:00,METAR LFMN 300930Z 11009KT CAVOK 20/13 Q1019 NOSIG
2026-04-30 09:12:00,METAR LFMN 300912Z 10008KT CAVOK 20/13 Q1019 NOSIG
2026-04-30 08:30:00,METAR LFMN 300830Z 09012KT CAVOK 20/13 Q1019 NOSIG
2026-04-30 08:00:00,METAR LFMN 300800Z 09014KT CAVOK 20/13 Q1018 NOSIG
2026-04-30 07:30:00,METAR LFMN 300730Z 08017KT CAVOK 20/13 Q1018 NOSIG
2026-04-30 07:00:00,METAR LFMN 300700Z 09013KT CAVOK 19/14 Q1018 NOSIG
2026-04-30 06:30:00,METAR LFMN 300630Z 07008KT 360V100 CAVOK 18/09 Q1018 NOSIG
2026-04-30 06:00:00,METAR LFMN 300600Z 34005KT 290V070 CAVOK 18/09 Q1018 NOSIG
2026-04-30 05:30:00,METAR LFMN 300530Z 32007KT CAVOK 16/08 Q1017 NOSIG
2026-04-30 05:00:00,METAR LFMN 300500Z 32007KT CAVOK 15/08 Q1017 NOSIG
2026-04-30 04:30:00,METAR LFMN 300430Z 33007KT CAVOK 16/08 Q1017 NOSIG
2026-04-30 04:00:00,METAR LFMN 300400Z 34005KT CAVOK 15/08 Q1016 NOSIG
2026-04-30 03:30:00,METAR LFMN 300330Z 34005KT CAVOK 16/08 Q1016 NOSIG
2026-04-30 03:00:00,METAR LFMN 300300Z 34006KT 310V040 CAVOK 16/08 Q1016 NOSIG
2026-04-30 02:30:00,METAR LFMN 300230Z 33007KT CAVOK 16/08 Q1016 NOSIG
2026-04-30 02:00:00,METAR LFMN 300200Z 32007KT CAVOK 16/08 Q1016 NOSIG
2026-04-30 01:30:00,METAR LFMN 300130Z 32005KT CAVOK 16/08 Q1016 NOSIG
2026-04-30 01:00:00,METAR LFMN 300100Z 32005KT CAVOK 16/08 Q1016 NOSIG
2026-04-30 00:30:00,METAR LFMN 300030Z 32005KT CAVOK 17/08 Q1016 NOSIG
2026-04-30 00:00:00,METAR LFMN 300000Z 01003KT CAVOK 17/07 Q1016 NOSIG
2026-04-29 23:30:00,METAR LFMN 292330Z 33006KT CAVOK 16/08 Q1016 NOSIG
2026-04-29 23:00:00,METAR LFMN 292300Z 33007KT CAVOK 16/08 Q1016 NOSIG
2026-04-29 22:30:00,METAR LFMN 292230Z 33007KT CAVOK 17/07 Q1016 NOSIG
2026-04-29 22:00:00,METAR LFMN 292200Z 32008KT CAVOK 17/07 Q1016 NOSIG
2026-04-29 21:30:00,METAR LFMN 292130Z 32007KT 9999 FEW076 BKN150 17/05 Q1016 NOSIG
2026-04-29 21:00:00,METAR LFMN 292100Z 32005KT 9999 FEW076 SCT150 18/05 Q1015 NOSIG
2026-04-29 20:30:00,METAR LFMN 292030Z VRB01KT 9999 FEW076 18/08 Q1015 NOSIG
2026-04-29 20:00:00,METAR LFMN 292000Z VRB02KT 9999 FEW076 19/09 Q1015 NOSIG
2026-04-29 19:30:00,METAR LFMN 291930Z 05004KT 9999 FEW076 19/05 Q1014 NOSIG
2026-04-29 19:00:00,METAR LFMN 291900Z 07003KT 9999 FEW076 SCT260 19/09 Q1014 NOSIG
2026-04-29 18:30:00,METAR LFMN 291830Z 04003KT 9999 FEW110 SCT260 20/04 Q1014 NOSIG
2026-04-29 18:00:00,METAR LFMN 291800Z VRB03KT 9999 FEW110 SCT260 20/04 Q1014 NOSIG
2026-04-29 17:30:00,METAR LFMN 291730Z VRB02KT CAVOK 20/06 Q1014 NOSIG
2026-04-29 17:00:00,METAR LFMN 291700Z 06003KT CAVOK 20/08 Q1014 NOSIG
2026-04-29 16:30:00,METAR LFMN 291630Z 07004KT 040V100 CAVOK 20/09 Q1014 NOSIG
2026-04-29 16:00:00,METAR LFMN 291600Z 09004KT CAVOK 20/10 Q1014 NOSIG
2026-04-29 15:30:00,METAR LFMN 291530Z 10005KT 070V130 CAVOK 20/09 Q1014 NOSIG
2026-04-29 15:00:00,METAR LFMN 291500Z 10009KT CAVOK 21/10 Q1014 NOSIG
2026-04-29 14:30:00,METAR LFMN 291430Z 09010KT CAVOK 21/11 Q1014 NOSIG
2026-04-29 14:00:00,METAR LFMN 291400Z 11007KT CAVOK 21/11 Q1015 NOSIG
2026-04-29 13:30:00,METAR LFMN 291330Z 09008KT CAVOK 21/11 Q1015 NOSIG
2026-04-29 13:00:00,METAR LFMN 291300Z 08005KT 020V130 CAVOK 21/11 Q1015 NOSIG
2026-04-29 12:30:00,METAR LFMN 291230Z 07003KT 350V130 CAVOK 21/12 Q1015 NOSIG
2026-04-29 12:00:00,METAR LFMN 291200Z 10007KT CAVOK 21/12 Q1015 NOSIG
2026-04-29 11:30:00,METAR LFMN 291130Z 10010KT CAVOK 20/13 Q1015 NOSIG
2026-04-29 11:00:00,METAR LFMN 291100Z 09010KT CAVOK 20/14 Q1015 NOSIG
2026-04-29 10:30:00,METAR LFMN 291030Z 09012KT CAVOK 20/14 Q1015 NOSIG
2026-04-29 10:00:00,METAR LFMN 291000Z 08010KT CAVOK 20/13 Q1015 NOSIG
2026-04-29 09:30:00,METAR LFMN 290930Z 08011KT CAVOK 20/13 Q1015 NOSIG
2026-04-29 09:00:00,METAR LFMN 290900Z 08013KT CAVOK 20/13 Q1015 NOSIG
2026-04-29 08:30:00,METAR LFMN 290830Z 07005KT 040V110 CAVOK 20/10 Q1015 NOSIG
2026-04-29 08:00:00,METAR LFMN 290800Z 08005KT CAVOK 19/10 Q1015 NOSIG
2026-04-29 07:30:00,METAR LFMN 290730Z 06003KT 030V110 CAVOK 19/10 Q1015 NOSIG
2026-04-29 07:00:00,METAR LFMN 290700Z 04004KT 010V070 CAVOK 19/10 Q1015 NOSIG
2026-04-29 06:30:00,METAR LFMN 290630Z VRB03KT CAVOK 18/08 Q1015 NOSIG
2026-04-29 06:00:00,METAR LFMN 290600Z 33006KT CAVOK 16/07 Q1015 NOSIG
2026-04-29 05:30:00,METAR LFMN 290530Z 34007KT CAVOK 15/07 Q1014 NOSIG
2026-04-29 05:00:00,METAR LFMN 290500Z 35006KT CAVOK 15/07 Q1014 NOSIG
2026-04-29 04:30:00,METAR LFMN 290430Z 33005KT CAVOK 14/07 Q1014 NOSIG
2026-04-29 04:00:00,METAR LFMN 290400Z 33007KT CAVOK 14/07 Q1014 NOSIG
2026-04-29 03:30:00,METAR LFMN 290330Z 33007KT CAVOK 15/07 Q1014 NOSIG
2026-04-29 03:00:00,METAR LFMN 290300Z 33005KT CAVOK 14/08 Q1015 NOSIG
2026-04-29 02:30:00,METAR LFMN 290230Z 33009KT CAVOK 14/08 Q1015 NOSIG
2026-04-29 02:00:00,METAR LFMN 290200Z 33007KT CAVOK 14/09 Q1015 NOSIG
2026-04-29 01:30:00,METAR LFMN 290130Z 32008KT CAVOK 14/10 Q1015 NOSIG
2026-04-29 01:00:00,METAR LFMN 290100Z 32007KT CAVOK 14/10 Q1015 NOSIG
2026-04-29 00:30:00,METAR LFMN 290030Z 32005KT CAVOK 14/11 Q1015 NOSIG
2026-04-29 00:00:00,METAR LFMN 290000Z 32005KT CAVOK 15/11 Q1015 NOSIG
2026-04-28 23:30:00,METAR LFMN 282330Z 33004KT CAVOK 15/11 Q1015 NOSIG
2026-04-28 23:00:00,METAR LFMN 282300Z 32005KT CAVOK 15/11 Q1015 NOSIG
2026-04-28 22:30:00,METAR LFMN 282230Z 32006KT CAVOK 15/12 Q1014 NOSIG
2026-04-28 22:00:00,METAR LFMN 282200Z 01004KT CAVOK 16/12 Q1014 NOSIG
2026-04-28 21:30:00,METAR LFMN 282130Z 36004KT CAVOK 16/12 Q1014 NOSIG
2026-04-28 21:00:00,METAR LFMN 282100Z 32003KT 290V020 CAVOK 16/13 Q1015 NOSIG
2026-04-28 20:30:00,METAR LFMN 282030Z COR 01003KT CAVOK 17/13 Q1015 NOSIG
2026-04-28 20:00:00,METAR LFMN 282000Z VRB02KT CAVOK 17/14 Q1015 NOSIG
2026-04-28 19:30:00,METAR LFMN 281930Z 00000KT CAVOK 17/13 Q1015 NOSIG
2026-04-28 19:00:00,METAR LFMN 281900Z VRB01KT CAVOK 17/14 Q1014 NOSIG
2026-04-28 18:30:00,METAR LFMN 281830Z VRB02KT CAVOK 17/14 Q1014 NOSIG
2026-04-28 18:00:00,METAR LFMN 281800Z VRB02KT 9999 FEW083 BKN260 18/14 Q1014 NOSIG
2026-04-28 17:30:00,METAR LFMN 281730Z 12003KT 9999 FEW083 BKN260 18/14 Q1014 NOSIG
2026-04-28 17:00:00,METAR LFMN 281700Z 12003KT CAVOK 18/14 Q1014 NOSIG
2026-04-28 16:30:00,METAR LFMN 281630Z 10003KT 070V140 9999 FEW016 BKN260 19/14 Q1014 NOSIG
2026-04-28 16:00:00,METAR LFMN 281600Z 11004KT 9999 FEW016 BKN260 19/14 Q1014 NOSIG
2026-04-28 15:30:00,METAR LFMN 281530Z 13005KT 9999 FEW016 BKN260 19/14 Q1015 NOSIG
2026-04-26 15:00:00,METAR LFMN 261500Z 19003KT 160V230 9999 OVC030 18/14 Q1019 NOSIG
2026-04-26 14:30:00,METAR LFMN 261430Z VRB03KT 9999 OVC028 18/13 Q1019 NOSIG
2026-04-26 14:00:00,METAR LFMN 261400Z 12003KT 080V140 9999 OVC024 17/13 Q1019 NOSIG
2026-04-26 13:30:00,METAR LFMN 261330Z 11004KT 9999 OVC021 17/14 Q1019 NOSIG
2026-04-26 13:00:00,METAR LFMN 261300Z 09004KT 9999 SCT012 OVC021 17/14 Q1019 NOSIG
2026-04-26 12:30:00,METAR LFMN 261230Z 08006KT 040V100 9999 SCT012 OVC021 17/14 Q1019 NOSIG
2026-04-26 12:00:00,METAR LFMN 261200Z 07004KT 040V100 9999 SCT012 OVC021 17/14 Q1020 NOSIG
2026-04-26 11:30:00,METAR LFMN 261130Z 10005KT 080V140 9999 SCT015 OVC021 17/14 Q1020 NOSIG
2026-04-26 11:00:00,METAR LFMN 261100Z 08007KT 9999 FEW010 OVC021 17/14 Q1019 NOSIG
2026-04-26 10:30:00,METAR LFMN 261030Z 09009KT 9999 FEW010 OVC020 17/14 Q1019 NOSIG
2026-04-26 10:00:00,METAR LFMN 261000Z 07010KT 9999 FEW010 OVC020 17/13 Q1019 NOSIG
2026-04-26 09:30:00,METAR LFMN 260930Z 09011KT 9999 FEW010 OVC020 17/13 Q1019 NOSIG
2026-04-26 09:00:00,METAR LFMN 260900Z 09010KT 9999 OVC020 17/13 Q1019 NOSIG
2026-04-26 08:30:00,METAR LFMN 260830Z 09010KT 9999 OVC020 17/13 Q1019 NOSIG
2026-04-26 08:00:00,METAR LFMN 260800Z 09010KT 9999 OVC021 17/13 Q1018 NOSIG
2026-04-26 07:30:00,METAR LFMN 260730Z 09010KT 9999 OVC022 17/13 Q1018 NOSIG
2026-04-26 07:00:00,METAR LFMN 260700Z 04006KT 9999 FEW017 BKN025 17/12 Q1018 NOSIG
2026-04-26 06:30:00,METAR LFMN 260630Z 04008KT 9999 FEW017 BKN025 17/12 Q1018 NOSIG
2026-04-26 06:00:00,METAR LFMN 260600Z 03006KT 9999 FEW017 BKN028 16/12 Q1018 NOSIG
2026-04-26 05:30:00,METAR LFMN 260530Z 01006KT 9999 FEW017 BKN025 16/12 Q1017 NOSIG
2026-04-26 05:00:00,METAR LFMN 260500Z 04006KT 9999 SCT017 BKN023 15/12 Q1017 NOSIG
2026-04-26 04:30:00,METAR LFMN 260430Z 35004KT 280V060 9999 BKN017 15/12 Q1017 NOSIG
2026-04-26 04:00:00,METAR LFMN 260400Z 04005KT 9999 BKN017 15/12 Q1017 NOSIG
2026-04-26 03:30:00,METAR LFMN 260330Z 33004KT 270V020 9999 BKN017 15/12 Q1017 NOSIG
2026-04-26 03:00:00,METAR LFMN 260300Z 34003KT 310V030 9999 BKN017 15/12 Q1017 NOSIG
2026-04-26 02:30:00,METAR LFMN 260230Z 34004KT 300V020 9999 BKN017 15/12 Q1016 NOSIG
2026-04-26 02:00:00,METAR LFMN 260200Z 32005KT 9999 BKN017 15/12 Q1017 NOSIG
2026-04-26 01:30:00,METAR LFMN 260130Z 32005KT 9999 BKN017 15/12 Q1017 NOSIG
2026-04-26 01:00:00,METAR LFMN 260100Z 32005KT 9999 BKN017 15/12 Q1017 NOSIG
2026-04-26 00:30:00,METAR LFMN 260030Z 33005KT 9999 FEW017 15/12 Q1017 NOSIG
2026-04-26 00:00:00,METAR LFMN 260000Z 32005KT 9999 FEW017 15/12 Q1017 NOSIG
2026-04-25 23:30:00,METAR LFMN 252330Z 33004KT 9999 FEW017 15/12 Q1017 NOSIG
2026-04-25 23:00:00,METAR LFMN 252300Z 32006KT 9999 FEW017 15/12 Q1017 NOSIG
2026-04-25 22:30:00,METAR LFMN 252230Z 32005KT 9999 FEW017 15/12 Q1017 NOSIG
2026-04-25 22:00:00,METAR LFMN 252200Z 32006KT 9999 FEW017 15/12 Q1017 NOSIG
2026-04-25 21:30:00,METAR LFMN 252130Z 32004KT 9999 FEW017 16/13 Q1017 NOSIG
2026-04-25 21:00:00,METAR LFMN 252100Z VRB03KT 9999 FEW017 16/13 Q1017 NOSIG
2026-04-25 20:30:00,METAR LFMN 252030Z 00000KT 9999 FEW017 16/13 Q1017 NOSIG
2026-04-25 20:00:00,METAR LFMN 252000Z 21002KT 9999 FEW017 16/13 Q1017 NOSIG
2026-04-25 19:30:00,METAR LFMN 251930Z 20004KT 9999 FEW018 17/13 Q1017 NOSIG
2026-04-25 19:00:00,METAR LFMN 251900Z 18004KT 9999 FEW018 17/13 Q1017 NOSIG
2026-04-25 18:30:00,METAR LFMN 251830Z 18004KT 9999 FEW018 17/14 Q1016 NOSIG
2026-04-25 18:00:00,METAR LFMN 251800Z 19004KT 9999 FEW018 17/13 Q1016 NOSIG
2026-04-25 17:30:00,METAR LFMN 251730Z 18005KT 9999 FEW018 18/13 Q1016 NOSIG
2026-04-25 17:00:00,METAR LFMN 251700Z 18005KT 9999 FEW020 18/13 Q1016 NOSIG
2026-04-25 16:30:00,METAR LFMN 251630Z 17003KT 140V200 9999 FEW020 18/13 Q1016 NOSIG
2026-04-25 16:00:00,METAR LFMN 251600Z 18004KT 9999 FEW020 SCT034 18/13 Q1016 NOSIG
2026-04-25 15:30:00,METAR LFMN 251530Z 18004KT 140V200 9999 FEW020 BKN034 19/13 Q1016 NOSIG
2026-04-25 15:00:00,METAR LFMN 251500Z 17005KT 9999 FEW018 BKN034 18/12 Q1016 NOSIG
2026-04-25 14:30:00,METAR LFMN 251430Z 18004KT 9999 FEW018 BKN033 18/13 Q1016 NOSIG
2026-04-25 14:00:00,METAR LFMN 251400Z 18005KT 9999 FEW018 BKN031 18/13 Q1016 NOSIG
2026-04-25 13:30:00,METAR LFMN 251330Z 18005KT 9999 FEW017 BKN031 18/13 Q1017 NOSIG
2026-04-25 13:00:00,METAR LFMN 251300Z 16006KT 9999 FEW017 BKN031 18/13 Q1017 NOSIG
2026-04-25 12:30:00,METAR LFMN 251230Z 15006KT 9999 FEW017 BKN031 18/13 Q1017 NOSIG
2026-04-25 12:00:00,METAR LFMN 251200Z 14007KT 9999 FEW017 BKN031 18/13 Q1017 NOSIG
2026-04-25 11:30:00,METAR LFMN 251130Z 13007KT 9999 FEW016 BKN031 19/13 Q1017 NOSIG
2026-04-25 11:00:00,METAR LFMN 251100Z 13008KT 9999 FEW016 19/13 Q1017 NOSIG
2026-04-25 10:30:00,METAR LFMN 251030Z 12007KT 9999 FEW020 19/13 Q1017 NOSIG
2026-04-25 10:00:00,METAR LFMN 251000Z 14006KT 9999 FEW020 19/13 Q1017 NOSIG
2026-04-25 09:30:00,METAR LFMN 250930Z 14006KT 9999 FEW018 18/12 Q1017 NOSIG
2026-04-25 09:00:00,METAR LFMN 250900Z 13005KT 9999 FEW023 18/12 Q1017 NOSIG
2026-04-25 08:30:00,METAR LFMN 250830Z 11003KT 080V150 9999 FEW023 18/11 Q1017 NOSIG
2026-04-25 08:00:00,METAR LFMN 250800Z VRB03KT 9999 FEW023 18/11 Q1017 NOSIG
2026-04-25 07:30:00,METAR LFMN 250730Z 32005KT 9999 FEW023 17/09 Q1017 NOSIG
2026-04-25 07:00:00,METAR LFMN 250700Z 33007KT 9999 FEW023 16/09 Q1017 NOSIG
2026-04-25 06:30:00,METAR LFMN 250630Z 34005KT 9999 FEW023 15/09 Q1017 NOSIG
2026-04-25 06:00:00,METAR LFMN 250600Z 34007KT 9999 FEW022 13/08 Q1017 NOSIG
2026-04-25 05:30:00,METAR LFMN 250530Z 34007KT 9999 FEW021 12/08 Q1017 NOSIG
2026-04-25 05:00:00,METAR LFMN 250500Z 33008KT 9999 FEW020 12/08 Q1017 NOSIG
2026-04-25 04:30:00,METAR LFMN 250430Z 33006KT CAVOK 12/08 Q1017 NOSIG
2026-04-25 04:00:00,METAR LFMN 250400Z 33007KT CAVOK 12/08 Q1017 NOSIG
2026-04-25 03:30:00,METAR LFMN 250330Z 32006KT CAVOK 12/08 Q1016 NOSIG
2026-04-25 03:00:00,METAR LFMN 250300Z 33006KT CAVOK 13/08 Q1016 NOSIG
2026-04-25 02:30:00,METAR LFMN 250230Z 33007KT CAVOK 13/08 Q1016 NOSIG
2026-04-25 02:00:00,METAR LFMN 250200Z 32006KT CAVOK 13/08 Q1016 NOSIG
2026-04-25 01:30:00,METAR LFMN 250130Z 32007KT CAVOK 13/08 Q1016 NOSIG
2026-04-25 01:00:00,METAR LFMN 250100Z 33005KT CAVOK 13/09 Q1016 NOSIG
2026-04-25 00:30:00,METAR LFMN 250030Z 32006KT CAVOK 13/09 Q1016 NOSIG
2026-04-25 00:00:00,METAR LFMN 250000Z 31006KT CAVOK 13/09 Q1017 NOSIG
2026-04-24 23:30:00,METAR LFMN 242330Z 32006KT CAVOK 14/09 Q1017 NOSIG
2026-04-24 23:00:00,METAR LFMN 242300Z 33003KT CAVOK 15/09 Q1016 NOSIG
2026-04-24 22:30:00,METAR LFMN 242230Z 33005KT CAVOK 15/09 Q1016 NOSIG
2026-04-24 22:00:00,METAR LFMN 242200Z 32006KT CAVOK 15/09 Q1017 NOSIG
2026-04-24 21:30:00,METAR LFMN 242130Z 02004KT CAVOK 15/10 Q1017 NOSIG
2026-04-24 21:00:00,METAR LFMN 242100Z 03005KT CAVOK 16/10 Q1017 NOSIG
2026-04-24 20:30:00,METAR LFMN 242030Z 03007KT CAVOK 16/11 Q1016 NOSIG
2026-04-24 20:00:00,METAR LFMN 242000Z 06007KT CAVOK 17/12 Q1016 NOSIG
2026-04-24 19:30:00,METAR LFMN 241930Z 07008KT CAVOK 17/12 Q1016 NOSIG
2026-04-24 19:00:00,METAR LFMN 241900Z 07005KT CAVOK 17/12 Q1016 NOSIG
2026-04-24 18:30:00,METAR LFMN 241830Z 09004KT CAVOK 18/12 Q1016 NOSIG
2026-04-24 18:00:00,METAR LFMN 241800Z 13003KT 090V170 CAVOK 18/12 Q1016 NOSIG
2026-04-24 17:30:00,METAR LFMN 241730Z 16006KT CAVOK 18/12 Q1016 NOSIG
2026-04-24 17:00:00,METAR LFMN 241700Z 15006KT CAVOK 19/12 Q1017 NOSIG
2026-04-24 16:30:00,METAR LFMN 241630Z 17006KT CAVOK 19/13 Q1017 NOSIG
2026-04-24 16:00:00,METAR LFMN 241600Z 18004KT CAVOK 19/11 Q1017 NOSIG
2026-04-24 15:30:00,METAR LFMN 241530Z 18006KT CAVOK 20/11 Q1017 NOSIG
2026-04-24 15:00:00,METAR LFMN 241500Z 20008KT CAVOK 19/12 Q1018 NOSIG
2026-04-24 14:30:00,METAR LFMN 241430Z 20008KT CAVOK 19/12 Q1018 NOSIG
2026-04-24 14:00:00,METAR LFMN 241400Z 20009KT CAVOK 19/12 Q1018 NOSIG
2026-04-24 13:30:00,METAR LFMN 241330Z 20011KT CAVOK 19/14 Q1018 NOSIG
2026-04-24 13:00:00,METAR LFMN 241300Z 19010KT CAVOK 19/14 Q1019 NOSIG
2026-04-24 12:30:00,METAR LFMN 241230Z 19010KT CAVOK 18/14 Q1019 NOSIG
2026-04-24 12:00:00,METAR LFMN 241200Z 19010KT CAVOK 19/13 Q1019 NOSIG
2026-04-24 11:30:00,METAR LFMN 241130Z 18008KT CAVOK 19/12 Q1019 NOSIG
2026-04-24 11:00:00,METAR LFMN 241100Z 18007KT CAVOK 19/12 Q1019 NOSIG
2026-04-24 10:30:00,METAR LFMN 241030Z 18008KT CAVOK 19/11 Q1019 NOSIG
2026-04-24 10:00:00,METAR LFMN 241000Z 17006KT CAVOK 19/11 Q1020 NOSIG
2026-04-24 09:30:00,METAR LFMN 240930Z 16006KT CAVOK 19/10 Q1020 NOSIG
2026-04-24 09:00:00,METAR LFMN 240900Z 14005KT CAVOK 18/10 Q1020 NOSIG
2026-04-24 08:30:00,METAR LFMN 240830Z 17004KT CAVOK 18/09 Q1020 NOSIG
2026-04-24 08:00:00,METAR LFMN 240800Z 14004KT CAVOK 18/10 Q1020 NOSIG
2026-04-24 07:30:00,METAR LFMN 240730Z 06003KT 350V100 CAVOK 18/06 Q1020 NOSIG
2026-04-24 07:00:00,METAR LFMN 240700Z 34005KT 310V010 CAVOK 17/06 Q1020 NOSIG
2026-04-24 06:30:00,METAR LFMN 240630Z 33007KT CAVOK 16/07 Q1020 NOSIG
2026-04-24 06:00:00,METAR LFMN 240600Z 32008KT CAVOK 15/07 Q1020 NOSIG
2026-04-24 05:30:00,METAR LFMN 240530Z 34008KT CAVOK 14/07 Q1019 NOSIG
2026-04-24 05:00:00,METAR LFMN 240500Z 33008KT CAVOK 13/07 Q1019 NOSIG
2026-04-24 04:30:00,METAR LFMN 240430Z 33007KT CAVOK 13/07 Q1019 NOSIG
2026-04-24 04:00:00,METAR LFMN 240400Z 34006KT CAVOK 14/07 Q1019 NOSIG
2026-04-24 03:30:00,METAR LFMN 240330Z 34006KT CAVOK 14/07 Q1019 NOSIG
2026-04-24 03:00:00,METAR LFMN 240300Z 34007KT CAVOK 14/07 Q1018 NOSIG
2026-04-24 02:30:00,METAR LFMN 240230Z 34007KT CAVOK 15/07 Q1018 NOSIG
2026-04-24 02:00:00,METAR LFMN 240200Z VRB03KT CAVOK 15/07 Q1018 NOSIG
2026-04-24 01:30:00,METAR LFMN 240130Z 33007KT CAVOK 15/07 Q1018 NOSIG
2026-04-24 01:00:00,METAR LFMN 240100Z 33006KT CAVOK 15/07 Q1019 NOSIG
2026-04-24 00:30:00,METAR LFMN 240030Z 33007KT CAVOK 15/08 Q1019 NOSIG
2026-04-24 00:00:00,METAR LFMN 240000Z 32008KT CAVOK 15/08 Q1019 NOSIG
2026-04-23 23:30:00,METAR LFMN 232330Z 34006KT 310V010 CAVOK 15/08 Q1019 NOSIG
2026-04-23 23:00:00,METAR LFMN 232300Z 31010KT CAVOK 15/08 Q1019 NOSIG
2026-04-23 22:30:00,METAR LFMN 232230Z 30006KT CAVOK 14/09 Q1019 NOSIG
2026-04-23 22:00:00,METAR LFMN 232200Z 31007KT CAVOK 15/09 Q1019 NOSIG
2026-04-23 21:30:00,METAR LFMN 232130Z 31009KT CAVOK 15/09 Q1019 NOSIG
2026-04-23 21:00:00,METAR LFMN 232100Z 33007KT CAVOK 15/07 Q1019 NOSIG
2026-04-23 20:30:00,METAR LFMN 232030Z 31008KT CAVOK 15/08 Q1020 NOSIG
2026-04-23 20:00:00,METAR LFMN 232000Z 32009KT CAVOK 15/07 Q1020 NOSIG
2026-04-23 19:30:00,METAR LFMN 231930Z 32006KT CAVOK 16/07 Q1020 NOSIG
2026-04-23 19:00:00,METAR LFMN 231900Z 28004KT CAVOK 16/08 Q1020 NOSIG
2026-04-23 18:30:00,METAR LFMN 231830Z 27004KT CAVOK 16/07 Q1020 NOSIG
2026-04-23 18:00:00,METAR LFMN 231800Z 23004KT 9999 FEW066 17/07 Q1020 NOSIG
2026-04-23 17:30:00,METAR LFMN 231730Z 21005KT 9999 FEW066 17/07 Q1020 NOSIG
2026-04-23 17:00:00,METAR LFMN 231700Z 20006KT CAVOK 17/08 Q1020 NOSIG
2026-04-23 16:30:00,METAR LFMN 231630Z 20006KT CAVOK 17/07 Q1020 NOSIG
2026-04-23 16:00:00,METAR LFMN 231600Z 19007KT CAVOK 18/09 Q1021 NOSIG
2026-04-23 15:30:00,METAR LFMN 231530Z 18007KT CAVOK 18/07 Q1021 NOSIG
2026-04-23 15:00:00,METAR LFMN 231500Z 17007KT CAVOK 18/08 Q1021 NOSIG
2026-04-23 14:30:00,METAR LFMN 231430Z 19007KT CAVOK 18/07 Q1021 NOSIG
2026-04-23 14:00:00,METAR LFMN 231400Z 19006KT CAVOK 18/06 Q1022 NOSIG
2026-04-23 13:30:00,METAR LFMN 231330Z 17006KT CAVOK 19/07 Q1022 NOSIG
2026-04-23 13:00:00,METAR LFMN 231300Z 16006KT CAVOK 18/05 Q1023 NOSIG
2026-04-23 12:30:00,METAR LFMN 231230Z 14008KT CAVOK 18/07 Q1023 NOSIG
2026-04-23 12:00:00,METAR LFMN 231200Z 13009KT 9999 FEW046 19/07 Q1023 NOSIG
2026-04-23 11:30:00,METAR LFMN 231130Z 13009KT 9999 FEW046 19/08 Q1023 NOSIG
2026-04-23 11:00:00,METAR LFMN 231100Z 13009KT 9999 FEW046 19/08 Q1024 NOSIG
2026-04-23 10:30:00,METAR LFMN 231030Z 12010KT 9999 FEW040 19/06 Q1024 NOSIG
2026-04-23 10:00:00,METAR LFMN 231000Z 12010KT 9999 FEW040 19/08 Q1024 NOSIG
2026-04-23 09:30:00,METAR LFMN 230930Z 11011KT 9999 FEW040 18/07 Q1024 NOSIG
2026-04-23 09:00:00,METAR LFMN 230900Z 09009KT 9999 FEW040 18/09 Q1024 NOSIG
2026-04-23 08:30:00,METAR LFMN 230830Z 08008KT 9999 FEW040 18/09 Q1024 NOSIG
2026-04-23 08:00:00,METAR LFMN 230800Z 09008KT 9999 FEW033 18/08 Q1024 NOSIG
2026-04-23 07:30:00,METAR LFMN 230730Z 05004KT 010V080 9999 FEW033 17/09 Q1023 NOSIG
2026-04-23 07:00:00,METAR LFMN 230700Z 34006KT 310V040 9999 FEW066 16/09 Q1023 NOSIG
2026-04-23 06:30:00,METAR LFMN 230630Z 32007KT 9999 FEW066 15/09 Q1023 NOSIG
2026-04-23 06:00:00,METAR LFMN 230600Z 32009KT CAVOK 14/09 Q1023 NOSIG
2026-04-23 05:30:00,METAR LFMN 230530Z 35006KT 320V050 9999 FEW033 13/09 Q1023 NOSIG
2026-04-23 05:00:00,METAR LFMN 230500Z 04007KT 350V080 CAVOK 13/09 Q1022 NOSIG
2026-04-23 04:30:00,METAR LFMN 230430Z 33006KT 9999 FEW030 13/09 Q1022 NOSIG
2026-04-23 04:00:00,METAR LFMN 230400Z 34004KT 310V100 CAVOK 13/09 Q1022 NOSIG
2026-04-23 03:30:00,METAR LFMN 230330Z 34004KT 300V030 CAVOK 13/09 Q1022 NOSIG
2026-04-23 03:00:00,METAR LFMN 230300Z 33005KT CAVOK 14/10 Q1022 NOSIG
2026-04-23 02:30:00,METAR LFMN 230230Z 35005KT 300V050 CAVOK 14/10 Q1021 NOSIG
2026-04-23 02:00:00,METAR LFMN 230200Z 32006KT 300V040 CAVOK 14/10 Q1021 NOSIG
2026-04-23 01:30:00,METAR LFMN 230130Z 34004KT CAVOK 14/10 Q1021 NOSIG
2026-04-23 01:00:00,METAR LFMN 230100Z 33006KT CAVOK 14/11 Q1021 NOSIG
2026-04-23 00:30:00,METAR LFMN 230030Z 33005KT CAVOK 15/11 Q1021 NOSIG
2026-04-23 00:00:00,METAR LFMN 230000Z 34004KT 320V020 9999 FEW076 BKN130 15/11 Q1021 NOSIG
2026-04-22 23:30:00,METAR LFMN 222330Z 33005KT 9999 BKN076 15/11 Q1021 NOSIG
2026-04-22 23:00:00,METAR LFMN 222300Z 34005KT 9999 SCT076 OVC120 15/11 Q1021 NOSIG
2026-04-22 22:30:00,METAR LFMN 222230Z 33006KT 9999 SCT076 OVC120 15/11 Q1020 NOSIG
2026-04-22 22:00:00,METAR LFMN 222200Z 32005KT 9999 SCT076 OVC120 15/11 Q1020 NOSIG
2026-04-22 21:30:00,METAR LFMN 222130Z 33006KT 9999 BKN066 SCT100 15/12 Q1020 NOSIG
2026-04-22 21:00:00,METAR LFMN 222100Z 33007KT 9999 BKN083 SCT130 15/12 Q1020 NOSIG
2026-04-22 20:30:00,METAR LFMN 222030Z 33005KT 310V010 9999 BKN083 SCT130 16/12 Q1019 NOSIG
2026-04-22 20:00:00,METAR LFMN 222000Z 34005KT 9999 BKN083 SCT130 16/12 Q1019 NOSIG
2026-04-22 19:30:00,METAR LFMN 221930Z 33006KT 300V010 9999 BKN083 SCT130 16/12 Q1019 NOSIG
2026-04-22 19:00:00,METAR LFMN 221900Z 34004KT 330V040 9999 BKN073 BKN140 16/12 Q1018 NOSIG
2026-04-22 18:30:00,METAR LFMN 221830Z 35004KT 9999 BKN073 16/12 Q1018 NOSIG
2026-04-22 18:00:00,METAR LFMN 221800Z 32003KT 9999 BKN073 BKN140 17/11 Q1018 NOSIG
2026-04-22 17:30:00,METAR LFMN 221730Z 31005KT 280V340 9999 FEW076 SCT140 BKN260 17/11 Q1018 NOSIG
2026-04-22 17:00:00,METAR LFMN 221700Z 34004KT 300V010 9999 FEW076 SCT140 BKN260 17/11 Q1018 NOSIG
2026-04-22 16:30:00,METAR LFMN 221630Z 32006KT 290V350 9999 FEW040 SCT076 BKN260 17/11 Q1018 NOSIG
2026-04-22 16:00:00,METAR LFMN 221600Z 33005KT 290V360 9999 FEW040 BKN076 17/11 Q1018 NOSIG
2026-04-22 15:30:00,METAR LFMN 221530Z 35004KT 320V030 9999 -RA FEW040 BKN076 16/11 Q1018 NOSIG
2026-04-22 15:00:00,METAR LFMN 221500Z 04005KT 9999 -RA FEW040 BKN076 16/11 Q1018 NOSIG
2026-04-22 14:30:00,METAR LFMN 221430Z 07007KT 9999 -RA FEW033 BKN076 16/11 Q1018 NOSIG
2026-04-22 14:00:00,METAR LFMN 221400Z 10010KT 9999 -RA FEW033 BKN076 16/10 Q1018 NOSIG
2026-04-22 13:30:00,METAR LFMN 221330Z 10012KT 9999 -RA FEW033 BKN076 16/11 Q1018 NOSIG
2026-04-22 13:00:00,METAR LFMN 221300Z 10013KT 9999 FEW030 BKN070 17/12 Q1018 NOSIG
2026-04-22 12:30:00,METAR LFMN 221230Z 10017KT 9999 FEW030 BKN070 17/11 Q1017 NOSIG
2026-04-22 12:00:00,METAR LFMN 221200Z 09019KT 9999 FEW030 BKN056 17/12 Q1017 NOSIG
2026-04-22 11:30:00,METAR LFMN 221130Z 09018KT 9999 FEW026 BKN056 17/11 Q1017 NOSIG
2026-04-22 11:00:00,METAR LFMN 221100Z 10021KT 9999 FEW026 BKN056 17/11 Q1017 NOSIG
2026-04-22 10:30:00,METAR LFMN 221030Z 10022KT 9999 FEW021 BKN046 16/11 Q1017 NOSIG
2026-04-22 10:00:00,METAR LFMN 221000Z 10021KT 9999 FEW021 BKN046 17/12 Q1016 NOSIG
2026-04-22 09:30:00,METAR LFMN 220930Z 10019KT 9999 FEW021 BKN043 BKN260 17/12 Q1016 NOSIG
2026-04-22 09:00:00,METAR LFMN 220900Z 10021KT 9999 FEW021 BKN043 BKN260 16/12 Q1016 NOSIG
2026-04-22 08:30:00,METAR LFMN 220830Z 10020KT 9999 SCT021 BKN043 17/13 Q1016 NOSIG
2026-04-22 08:00:00,METAR LFMN 220800Z 11018KT 9999 SCT021 BKN043 17/14 Q1015 NOSIG
2026-04-22 07:30:00,METAR LFMN 220730Z 10018KT 9999 SCT021 BKN043 17/14 Q1015 NOSIG
2026-04-22 07:00:00,METAR LFMN 220700Z 09015KT 9999 SCT021 BKN043 18/13 Q1015 NOSIG
2026-04-22 06:30:00,METAR LFMN 220630Z 10015KT 9999 SCT019 BKN036 17/13 Q1015 NOSIG
2026-04-22 06:00:00,METAR LFMN 220600Z 09014KT 9999 SCT019 BKN036 17/13 Q1014 NOSIG
2026-04-22 05:30:00,METAR LFMN 220530Z 08013KT 9999 BKN019 17/14 Q1014 NOSIG
2026-04-22 05:00:00,METAR LFMN 220500Z 04004KT 320V090 9999 BKN019 16/13 Q1014 NOSIG
2026-04-22 04:30:00,METAR LFMN 220430Z 33006KT 9999 BKN022 SCT090 15/11 Q1013 NOSIG
2026-04-22 04:00:00,METAR LFMN 220400Z 33008KT 9999 SCT022 SCT090 15/12 Q1013 NOSIG
2026-04-22 03:30:00,METAR LFMN 220330Z COR 32004KT 9999 SCT019 15/12 Q1013 NOSIG
2026-04-22 03:00:00,METAR LFMN 220300Z 33005KT 9999 SCT022 15/12 Q1013 NOSIG
2026-04-22 02:30:00,METAR LFMN 220230Z 33006KT 9999 FEW014 BKN022 15/12 Q1013 NOSIG
2026-04-22 02:00:00,METAR LFMN 220200Z 32006KT 9999 FEW014 BKN022 15/12 Q1013 NOSIG
2026-04-22 01:30:00,METAR LFMN 220130Z 32006KT 9999 BKN022 16/12 Q1013 NOSIG
2026-04-22 01:00:00,METAR LFMN 220100Z 08007KT 9999 BKN022 16/13 Q1013 NOSIG
2026-04-22 00:30:00,METAR LFMN 220030Z COR 33003KT 290V070 9999 FEW015 BKN023 16/13 Q1013 NOSIG
2026-04-22 00:00:00,METAR LFMN 220000Z COR 11006KT 9999 FEW015 SCT020 16/14 Q1013 NOSIG
2026-04-21 23:30:00,METAR LFMN 212330Z VRB03KT 9999 FEW015 SCT020 16/13 Q1012 NOSIG
2026-04-21 23:00:00,METAR LFMN 212300Z COR 32005KT 9999 FEW015 SCT021 16/13 Q1012 NOSIG
2026-04-21 22:30:00,METAR LFMN 212230Z 03003KT 9999 FEW016 SCT060 16/13 Q1012 NOSIG
2026-04-21 22:00:00,METAR LFMN 212200Z 04003KT 9999 SCT060 16/14 Q1012 NOSIG
2026-04-21 21:30:00,METAR LFMN 212130Z 06003KT 9999 SCT060 17/15 Q1012 NOSIG
2026-04-21 21:00:00,METAR LFMN 212100Z 08002KT 9999 SCT053 17/14 Q1012 NOSIG
2026-04-21 20:30:00,METAR LFMN 212030Z 00000KT 9999 SCT053 17/14 Q1011 NOSIG
2026-04-21 20:00:00,METAR LFMN 212000Z 06002KT 9999 SCT053 17/15 Q1011 NOSIG
2026-04-21 19:30:00,METAR LFMN 211930Z 09002KT 9999 SCT053 17/15 Q1011 NOSIG
2026-04-21 19:00:00,METAR LFMN 211900Z 11002KT 9999 SCT053 17/15 Q1011 NOSIG
2026-04-21 18:30:00,METAR LFMN 211830Z 11003KT 9999 SCT060 18/15 Q1010 NOSIG
2026-04-21 18:00:00,METAR LFMN 211800Z 14003KT 9999 SCT060 18/15 Q1010 NOSIG
2026-04-21 17:30:00,METAR LFMN 211730Z 15003KT 9999 SCT060 SCT260 18/15 Q1010 NOSIG
2026-04-21 17:00:00,METAR LFMN 211700Z 16003KT 9999 SCT060 SCT260 19/15 Q1010 NOSIG
2026-04-21 16:30:00,METAR LFMN 211630Z 16004KT 9999 FEW016 SCT260 19/15 Q1010 NOSIG
2026-04-21 16:00:00,METAR LFMN 211600Z 15004KT 9999 FEW016 SCT260 19/15 Q1010 NOSIG
2026-04-21 15:30:00,METAR LFMN 211530Z 15004KT 9999 FEW016 SCT260 19/15 Q1010 NOSIG
2026-04-21 15:00:00,METAR LFMN 211500Z 16004KT 9999 FEW016 SCT260 19/15 Q1010 NOSIG
2026-04-21 14:30:00,METAR LFMN 211430Z 15004KT 9999 FEW016 SCT056 20/15 Q1010 NOSIG
2026-04-21 14:00:00,METAR LFMN 211400Z 12004KT 9999 FEW016 SCT056 19/15 Q1011 NOSIG
2026-04-21 13:30:00,METAR LFMN 211330Z 11005KT 9999 FEW016 SCT053 19/15 Q1011 NOSIG
2026-04-21 13:00:00,METAR LFMN 211300Z 12005KT 9999 FEW016 SCT050 19/15 Q1011 NOSIG
2026-04-21 12:40:00,METAR LFMN 211240Z 12005KT 9999 FEW016 SCT046 20/15 Q1011 NOSIG
2026-04-21 12:00:00,METAR LFMN 211200Z 12006KT 9999 FEW016 SCT046 20/15 Q1011 NOSIG
2026-04-21 11:30:00,METAR LFMN 211130Z 11006KT 9999 FEW016 SCT046 19/15 Q1011 NOSIG
2026-04-21 11:00:00,METAR LFMN 211100Z 12006KT 9999 FEW016 SCT046 20/15 Q1011 NOSIG
2026-04-21 10:30:00,METAR LFMN 211030Z 11006KT 9999 FEW016 BKN260 20/15 Q1011 NOSIG
2026-04-21 10:00:00,METAR LFMN 211000Z 10004KT 9999 FEW016 BKN260 19/15 Q1011 NOSIG
2026-04-21 09:30:00,METAR LFMN 210930Z 12005KT 9999 FEW016 SCT030 BKN260 20/15 Q1011 NOSIG
2026-04-21 09:00:00,METAR LFMN 210900Z 11004KT 9999 SCT016 BKN030 19/14 Q1011 NOSIG
2026-04-21 08:30:00,METAR LFMN 210830Z 09004KT 9999 SCT016 BKN030 19/14 Q1011 NOSIG
2026-04-21 08:00:00,METAR LFMN 210800Z 07003KT 030V100 9999 SCT020 BKN030 19/12 Q1011 NOSIG
2026-04-21 07:30:00,METAR LFMN 210730Z 33006KT 9999 FEW016 SCT031 18/12 Q1011 NOSIG
2026-04-21 07:00:00,METAR LFMN 210700Z 32007KT 9999 FEW016 BKN027 17/11 Q1011 NOSIG
2026-04-21 06:30:00,METAR LFMN 210630Z 32006KT 9999 FEW016 BKN027 16/11 Q1011 NOSIG
2026-04-21 06:00:00,METAR LFMN 210600Z 33008KT 9999 FEW016 BKN027 15/11 Q1011 NOSIG
2026-04-21 05:30:00,METAR LFMN 210530Z 34006KT 9999 FEW018 BKN027 15/11 Q1011 NOSIG
2026-04-21 05:00:00,METAR LFMN 210500Z 33008KT 9999 SCT018 BKN029 14/11 Q1011 NOSIG
2026-04-21 04:30:00,METAR LFMN 210430Z 33009KT 9999 BKN018 15/11 Q1011 NOSIG
2026-04-21 04:00:00,METAR LFMN 210400Z 32009KT 9999 BKN018 14/11 Q1011 NOSIG
2026-04-21 03:30:00,METAR LFMN 210330Z 32009KT 9999 BKN018 14/11 Q1011 NOSIG
2026-04-21 03:00:00,METAR LFMN 210300Z 33008KT 9999 BKN015 14/11 Q1011 NOSIG
2026-04-21 02:30:00,METAR LFMN 210230Z 32007KT 9999 SCT015 14/12 Q1011 NOSIG
2026-04-21 02:00:00,METAR LFMN 210200Z 32007KT 9999 SCT015 14/12 Q1011 NOSIG
2026-04-21 01:30:00,METAR LFMN 210130Z 32005KT 9999 SCT015 14/12 Q1011 NOSIG
2026-04-21 01:00:00,METAR LFMN 210100Z 34005KT 9999 FEW015 15/12 Q1011 NOSIG
2026-04-21 00:30:00,METAR LFMN 210030Z 32008KT CAVOK 15/12 Q1011 NOSIG
2026-04-21 00:00:00,METAR LFMN 210000Z 32009KT 9999 FEW014 15/12 Q1011 NOSIG
2026-04-20 23:30:00,METAR LFMN 202330Z 32007KT 9999 SCT014 16/13 Q1011 NOSIG
2026-04-20 23:00:00,METAR LFMN 202300Z 32006KT 9999 BKN014 16/13 Q1011 NOSIG
2026-04-20 22:30:00,METAR LFMN 202230Z 32005KT 9999 BKN015 16/13 Q1011 NOSIG
2026-04-20 22:00:00,METAR LFMN 202200Z 32003KT 9999 BKN014 16/14 Q1011 NOSIG
2026-04-20 21:30:00,METAR LFMN 202130Z 00000KT 9999 SCT015 16/14 Q1011 NOSIG
2026-04-20 21:00:00,METAR LFMN 202100Z 18001KT 9999 FEW014 SCT260 17/14 Q1011 NOSIG
2026-04-20 20:30:00,METAR LFMN 202030Z 13001KT 9999 FEW014 SCT260 17/14 Q1011 NOSIG
2026-04-20 20:00:00,METAR LFMN 202000Z 15002KT 9999 FEW014 BKN260 17/14 Q1011 NOSIG
2026-04-20 19:30:00,METAR LFMN 201930Z VRB02KT 9999 FEW014 SCT033 BKN260 17/15 Q1011 NOSIG
2026-04-20 19:00:00,METAR LFMN 201900Z VRB01KT 9999 FEW014 SCT033 BKN260 17/15 Q1011 NOSIG
2026-04-20 18:30:00,METAR LFMN 201830Z VRB02KT 9999 FEW014 BKN033 BKN260 17/14 Q1010 NOSIG
2026-04-20 18:00:00,METAR LFMN 201800Z VRB02KT 9999 SCT014 BKN033 18/14 Q1010 NOSIG
2026-04-20 17:30:00,METAR LFMN 201730Z VRB02KT 9999 FEW016 BKN033 18/14 Q1010 NOSIG
2026-04-20 17:00:00,METAR LFMN 201700Z VRB03KT 9999 FEW016 BKN033 18/14 Q1010 NOSIG
2026-04-20 16:30:00,METAR LFMN 201630Z VRB03KT 9999 FEW016 BKN033 18/15 Q1010 NOSIG
2026-04-20 16:00:00,METAR LFMN 201600Z VRB03KT 9999 FEW016 BKN033 18/15 Q1011 NOSIG
2026-04-20 15:30:00,METAR LFMN 201530Z VRB03KT 9999 FEW016 BKN033 19/15 Q1011 NOSIG
2026-04-20 15:00:00,METAR LFMN 201500Z 17004KT 130V190 9999 FEW016 BKN033 19/15 Q1011 NOSIG
2026-04-20 14:30:00,METAR LFMN 201430Z 16004KT 140V200 9999 FEW016 BKN033 19/14 Q1011 NOSIG
2026-04-20 14:00:00,METAR LFMN 201400Z 16006KT 9999 FEW016 BKN033 19/15 Q1011 NOSIG
2026-04-20 13:30:00,METAR LFMN 201330Z 16006KT 9999 BKN033 19/14 Q1012 NOSIG
2026-04-20 13:00:00,METAR LFMN 201300Z 17007KT 9999 BKN033 20/14 Q1012 NOSIG
2026-04-20 12:30:00,METAR LFMN 201230Z 18007KT 9999 BKN033 19/14 Q1012 NOSIG
2026-04-20 12:00:00,METAR LFMN 201200Z 17009KT 9999 BKN030 20/14 Q1012 NOSIG
2026-04-20 11:30:00,METAR LFMN 201130Z 16006KT 9999 BKN030 20/14 Q1012 NOSIG
2026-04-20 11:00:00,METAR LFMN 201100Z 16006KT 9999 BKN030 20/14 Q1013 NOSIG
2026-04-20 10:30:00,METAR LFMN 201030Z 16005KT 9999 BKN030 20/14 Q1013 NOSIG
2026-04-20 10:00:00,METAR LFMN 201000Z 17005KT 9999 BKN030 20/14 Q1013 NOSIG
2026-04-20 09:30:00,METAR LFMN 200930Z 18005KT 9999 BKN030 19/14 Q1013 NOSIG
2026-04-20 09:00:00,METAR LFMN 200900Z VRB02KT 9999 BKN030 20/13 Q1013 NOSIG
2026-04-20 08:30:00,METAR LFMN 200830Z 19004KT 9999 BKN030 18/13 Q1013 NOSIG
2026-04-20 08:00:00,METAR LFMN 200800Z 20004KT 170V260 9999 BKN030 19/13 Q1013 NOSIG
2026-04-20 07:30:00,METAR LFMN 200730Z 33005KT 9999 BKN030 18/12 Q1013 NOSIG
2026-04-20 07:00:00,METAR LFMN 200700Z 32007KT 9999 FEW016 BKN030 17/11 Q1013 NOSIG
2026-04-20 06:30:00,METAR LFMN 200630Z 32008KT 9999 SCT016 BKN030 16/11 Q1013 NOSIG
2026-04-20 06:00:00,METAR LFMN 200600Z 32008KT 9999 SCT016 BKN025 16/12 Q1013 NOSIG
2026-04-20 05:30:00,METAR LFMN 200530Z 32008KT 9999 SCT016 BKN025 15/11 Q1013 NOSIG
2026-04-20 05:00:00,METAR LFMN 200500Z 32007KT 9999 SCT011 BKN025 15/11 Q1013 NOSIG
2026-04-20 04:30:00,METAR LFMN 200430Z 32006KT 9999 BKN016 15/12 Q1013 NOSIG
2026-04-20 04:00:00,METAR LFMN 200400Z 32006KT 9999 BKN014 15/12 Q1013 NOSIG
2026-04-20 03:30:00,METAR LFMN 200330Z 33004KT 9999 BKN014 15/12 Q1013 NOSIG
2026-04-20 03:00:00,METAR LFMN 200300Z 32005KT 9999 BKN014 16/12 Q1013 NOSIG
2026-04-20 02:30:00,METAR LFMN 200230Z 32005KT 9999 BKN016 15/12 Q1013 NOSIG
2026-04-20 02:00:00,METAR LFMN 200200Z 32005KT 9999 BKN015 15/12 Q1013 NOSIG
2026-04-20 01:30:00,METAR LFMN 200130Z 32006KT 9999 BKN015 15/12 Q1013 NOSIG
2026-04-20 01:00:00,METAR LFMN 200100Z 34004KT 320V020 9999 BKN015 15/13 Q1013 NOSIG
2026-04-20 00:30:00,METAR LFMN 200030Z 32007KT 9999 BKN015 15/13 Q1014 NOSIG
2026-04-20 00:00:00,METAR LFMN 200000Z 32006KT 9999 BKN015 15/13 Q1014 NOSIG
2026-04-19 23:30:00,METAR LFMN 192330Z 32005KT 9999 FEW012 SCT200 15/13 Q1014 NOSIG
2026-04-19 23:00:00,METAR LFMN 192300Z VRB02KT 9999 FEW012 SCT200 16/14 Q1014 NOSIG
2026-04-19 22:30:00,METAR LFMN 192230Z 08005KT 9999 FEW012 BKN200 17/15 Q1014 NOSIG
2026-04-19 22:00:00,METAR LFMN 192200Z VRB03KT CAVOK 16/15 Q1014 NOSIG
2026-04-19 21:30:00,METAR LFMN 192130Z 06004KT CAVOK 17/15 Q1014 NOSIG
2026-04-19 21:00:00,METAR LFMN 192100Z 08005KT CAVOK 17/15 Q1014 NOSIG
2026-04-19 20:30:00,METAR LFMN 192030Z 07005KT CAVOK 17/15 Q1014 NOSIG
2026-04-19 20:00:00,METAR LFMN 192000Z 07005KT CAVOK 17/15 Q1014 NOSIG
2026-04-19 19:30:00,METAR LFMN 191930Z 08003KT CAVOK 17/15 Q1014 NOSIG
2026-04-19 19:00:00,METAR LFMN 191900Z 07003KT 9999 FEW012 BKN260 17/15 Q1014 NOSIG
2026-04-19 18:30:00,METAR LFMN 191830Z 07003KT 9999 FEW012 BKN260 17/15 Q1014 NOSIG
2026-04-19 18:00:00,METAR LFMN 191800Z 07003KT 030V100 9999 FEW012 BKN260 17/15 Q1014 NOSIG
2026-04-19 17:30:00,METAR LFMN 191730Z 08004KT 040V100 9999 FEW012 BKN260 18/15 Q1014 NOSIG
2026-04-19 17:00:00,METAR LFMN 191700Z 09005KT 050V110 9999 FEW012 BKN260 18/15 Q1014 NOSIG
2026-04-19 16:30:00,METAR LFMN 191630Z 12005KT 9999 FEW011 BKN260 18/15 Q1014 NOSIG
2026-04-19 16:00:00,METAR LFMN 191600Z 11004KT 9999 FEW011 BKN260 18/15 Q1014 NOSIG
2026-04-19 15:30:00,METAR LFMN 191530Z 11004KT 9999 FEW011 BKN260 18/15 Q1014 NOSIG
2026-04-19 15:00:00,METAR LFMN 191500Z 10006KT 9999 FEW011 BKN260 18/15 Q1014 NOSIG
2026-04-19 14:30:00,METAR LFMN 191430Z 10010KT 9999 FEW011 SCT260 19/15 Q1015 NOSIG
2026-04-19 14:00:00,METAR LFMN 191400Z 11011KT 9999 FEW011 SCT260 19/15 Q1015 NOSIG
2026-04-19 13:30:00,METAR LFMN 191330Z 10011KT 9999 FEW011 BKN230 19/15 Q1015 NOSIG
2026-04-19 13:00:00,METAR LFMN 191300Z 10009KT 9999 FEW011 BKN230 19/15 Q1015 NOSIG
2026-04-19 12:30:00,METAR LFMN 191230Z 10009KT 9999 FEW011 BKN230 19/15 Q1016 NOSIG
2026-04-19 12:00:00,METAR LFMN 191200Z 10007KT 9999 FEW013 BKN230 19/15 Q1016 NOSIG
2026-04-19 11:30:00,METAR LFMN 191130Z 11008KT 9999 FEW013 BKN230 19/15 Q1016 NOSIG
2026-04-19 11:00:00,METAR LFMN 191100Z 11009KT 9999 FEW011 BKN230 18/15 Q1016 NOSIG
2026-04-19 10:30:00,METAR LFMN 191030Z 10009KT 9999 FEW011 BKN230 18/15 Q1016 NOSIG
2026-04-19 10:00:00,METAR LFMN 191000Z 10009KT 9999 FEW011 BKN230 19/15 Q1016 NOSIG
2026-04-19 09:30:00,METAR LFMN 190930Z 10007KT 9999 FEW011 BKN230 19/14 Q1016 NOSIG
2026-04-19 09:00:00,METAR LFMN 190900Z 10007KT 9999 FEW012 BKN230 19/15 Q1016 NOSIG
2026-04-19 08:30:00,METAR LFMN 190830Z 10008KT 9999 FEW012 BKN230 18/15 Q1016 NOSIG
2026-04-19 08:00:00,METAR LFMN 190800Z 10010KT 9999 FEW010 BKN230 18/15 Q1016 NOSIG
2026-04-19 07:30:00,METAR LFMN 190730Z 09009KT 9999 FEW010 BKN230 18/15 Q1016 NOSIG
2026-04-19 07:00:00,METAR LFMN 190700Z 05004KT 010V080 9999 FEW010 BKN230 18/14 Q1016 NOSIG
2026-04-19 06:30:00,METAR LFMN 190630Z 04005KT 020V080 9999 FEW010 BKN230 17/14 Q1016 NOSIG
2026-04-19 06:00:00,METAR LFMN 190600Z COR 06003KT 030V100 9999 FEW009 BKN230 17/13 Q1016 NOSIG
2026-04-19 05:30:00,METAR LFMN 190530Z 04006KT 9999 FEW008 SCT230 16/14 Q1016 NOSIG
2026-04-19 05:00:00,METAR LFMN 190500Z 05007KT 030V100 9999 FEW008 SCT230 16/14 Q1016 NOSIG
2026-04-19 04:30:00,METAR LFMN 190430Z 07008KT 9999 FEW007 SCT230 16/14 Q1016 NOSIG
2026-04-19 04:00:00,METAR LFMN 190400Z COR 06007KT 030V090 9999 FEW007 SCT230 16/15 Q1015 NOSIG
2026-04-19 03:30:00,METAR LFMN 190330Z 05006KT 030V090 9999 FEW009 15/11 Q1016 NOSIG
2026-04-19 03:00:00,METAR LFMN 190300Z 04005KT 030V090 9999 FEW009 16/12 Q1016 NOSIG
2026-04-19 02:30:00,METAR LFMN 190230Z VRB01KT CAVOK 16/11 Q1016 NOSIG
2026-04-19 02:00:00,METAR LFMN 190200Z VRB01KT CAVOK 17/11 Q1016 NOSIG
2026-04-19 01:30:00,METAR LFMN 190130Z 35004KT CAVOK 17/11 Q1016 NOSIG
2026-04-19 01:00:00,METAR LFMN 190100Z 33007KT CAVOK 16/11 Q1016 NOSIG
2026-04-19 00:30:00,METAR LFMN 190030Z 30006KT CAVOK 16/12 Q1016 NOSIG
2026-04-19 00:00:00,METAR LFMN 190000Z 30007KT CAVOK 16/13 Q1016 NOSIG
2026-04-18 23:30:00,METAR LFMN 182330Z 31008KT CAVOK 16/13 Q1017 NOSIG
2026-04-18 23:00:00,METAR LFMN 182300Z 31006KT CAVOK 16/13 Q1017 NOSIG
2026-04-18 22:30:00,METAR LFMN 182230Z 32006KT CAVOK 17/13 Q1017 NOSIG
2026-04-18 22:00:00,METAR LFMN 182200Z 32006KT CAVOK 17/13 Q1017 NOSIG
2026-04-18 21:30:00,METAR LFMN 182130Z 30004KT CAVOK 17/14 Q1017 NOSIG
2026-04-18 21:00:00,METAR LFMN 182100Z 25004KT CAVOK 17/15 Q1017 NOSIG
2026-04-18 20:30:00,METAR LFMN 182030Z 22004KT CAVOK 18/16 Q1017 NOSIG
2026-04-18 20:00:00,METAR LFMN 182000Z 22004KT CAVOK 18/16 Q1017 NOSIG
2026-04-18 19:30:00,METAR LFMN 181930Z 20003KT CAVOK 18/16 Q1017 NOSIG
2026-04-18 19:00:00,METAR LFMN 181900Z 20002KT CAVOK 18/16 Q1017 NOSIG
2026-04-18 18:30:00,METAR LFMN 181830Z VRB02KT CAVOK 18/16 Q1017 NOSIG
2026-04-18 18:00:00,METAR LFMN 181800Z 20004KT CAVOK 18/16 Q1017 NOSIG
2026-04-18 17:30:00,METAR LFMN 181730Z 19004KT CAVOK 19/16 Q1017 NOSIG
2026-04-18 17:00:00,METAR LFMN 181700Z 16003KT 9999 FEW100 SCT200 19/17 Q1017 NOSIG
2026-04-18 16:30:00,METAR LFMN 181630Z 13004KT CAVOK 20/16 Q1017 NOSIG
2026-04-18 16:00:00,METAR LFMN 181600Z 12003KT CAVOK 20/16 Q1017 NOSIG
2026-04-18 15:00:00,METAR LFMN 181500Z 11005KT 9999 FEW030 20/16 Q1017 NOSIG
2026-04-18 14:30:00,METAR LFMN 181430Z 13005KT 9999 FEW030 21/16 Q1017 NOSIG
2026-04-18 14:00:00,METAR LFMN 181400Z 12003KT 080V140 9999 FEW030 21/16 Q1018 NOSIG
2026-04-18 13:30:00,METAR LFMN 181330Z 11004KT 9999 FEW030 21/15 Q1018 NOSIG
2026-04-18 13:00:00,METAR LFMN 181300Z 13005KT 9999 FEW030 21/15 Q1018 NOSIG
2026-04-18 12:30:00,METAR LFMN 181230Z 13005KT 9999 FEW030 21/15 Q1018 NOSIG
2026-04-18 12:00:00,METAR LFMN 181200Z 15003KT 110V190 9999 FEW030 21/14 Q1018 NOSIG
2026-04-18 11:30:00,METAR LFMN 181130Z 17004KT 9999 FEW030 21/14 Q1018 NOSIG
2026-04-18 11:00:00,METAR LFMN 181100Z 14004KT 9999 FEW030 21/14 Q1019 NOSIG
2026-04-18 10:30:00,METAR LFMN 181030Z 13003KT 9999 FEW030 21/14 Q1019 NOSIG
2026-04-18 10:00:00,METAR LFMN 181000Z 10004KT 9999 FEW030 21/13 Q1019 NOSIG
2026-04-18 09:30:00,METAR LFMN 180930Z 12004KT CAVOK 21/14 Q1019 NOSIG
2026-04-18 09:00:00,METAR LFMN 180900Z 13004KT CAVOK 21/14 Q1019 NOSIG
2026-04-18 08:30:00,METAR LFMN 180830Z VRB03KT CAVOK 21/11 Q1018 NOSIG
2026-04-18 08:00:00,METAR LFMN 180800Z 10003KT CAVOK 21/11 Q1018 NOSIG
2026-04-18 07:30:00,METAR LFMN 180730Z 06003KT CAVOK 21/11 Q1018 NOSIG
2026-04-18 07:00:00,METAR LFMN 180700Z VRB03KT CAVOK 20/10 Q1018 NOSIG
2026-04-18 06:30:00,METAR LFMN 180630Z VRB03KT 9999 FEW110 19/10 Q1018 NOSIG
2026-04-18 06:00:00,METAR LFMN 180600Z 34002KT 9999 FEW110 18/09 Q1018 NOSIG
2026-04-18 05:30:00,METAR LFMN 180530Z 35006KT CAVOK 17/09 Q1018 NOSIG
2026-04-18 05:00:00,METAR LFMN 180500Z 34006KT CAVOK 17/09 Q1017 NOSIG
2026-04-18 04:30:00,METAR LFMN 180430Z 34006KT CAVOK 17/09 Q1017 NOSIG
2026-04-18 04:00:00,METAR LFMN 180400Z 33006KT CAVOK 16/09 Q1017 NOSIG
2026-04-18 03:30:00,METAR LFMN 180330Z 34003KT CAVOK 17/09 Q1017 NOSIG
2026-04-18 03:00:00,METAR LFMN 180300Z VRB03KT 9999 FEW110 16/09 Q1017 NOSIG
2026-04-18 02:30:00,METAR LFMN 180230Z 04005KT 9999 FEW110 17/09 Q1017 NOSIG
2026-04-18 02:00:00,METAR LFMN 180200Z 02003KT 9999 FEW110 17/09 Q1017 NOSIG
2026-04-18 01:30:00,METAR LFMN 180130Z 05004KT 9999 FEW110 18/10 Q1017 NOSIG
2026-04-18 01:00:00,METAR LFMN 180100Z 05006KT 9999 FEW110 18/10 Q1017 NOSIG
2026-04-18 00:30:00,METAR LFMN 180030Z 34005KT 9999 FEW110 18/09 Q1017 NOSIG
2026-04-18 00:00:00,METAR LFMN 180000Z 33006KT 9999 FEW110 SCT260 19/09 Q1017 NOSIG
2026-04-17 23:30:00,METAR LFMN 172330Z 34007KT 9999 FEW110 SCT260 19/09 Q1017 NOSIG
2026-04-17 23:00:00,METAR LFMN 172300Z 34007KT 9999 FEW110 19/09 Q1017 NOSIG
2026-04-17 22:30:00,METAR LFMN 172230Z 33006KT CAVOK 19/09 Q1017 NOSIG
2026-04-17 22:00:00,METAR LFMN 172200Z 34005KT CAVOK 19/09 Q1017 NOSIG
2026-04-17 21:30:00,METAR LFMN 172130Z 32007KT 9999 FEW110 19/10 Q1017 NOSIG
2026-04-17 21:00:00,METAR LFMN 172100Z 33005KT CAVOK 20/11 Q1017 NOSIG
2026-04-17 20:30:00,METAR LFMN 172030Z 23002KT 9999 SCT100 BKN260 19/12 Q1017 NOSIG
2026-04-17 20:00:00,METAR LFMN 172000Z VRB02KT 9999 SCT100 BKN260 19/15 Q1017 NOSIG
2026-04-17 19:30:00,METAR LFMN 171930Z 19002KT 9999 SCT100 BKN260 19/14 Q1017 NOSIG
2026-04-17 19:00:00,METAR LFMN 171900Z VRB01KT 9999 SCT096 BKN260 19/13 Q1017 NOSIG
2026-04-17 18:30:00,METAR LFMN 171830Z VRB01KT 9999 SCT096 BKN260 19/14 Q1017 NOSIG
2026-04-17 18:00:00,METAR LFMN 171800Z VRB03KT 9999 FEW096 BKN260 19/15 Q1017 NOSIG
2026-04-17 17:30:00,METAR LFMN 171730Z VRB02KT 9999 FEW100 BKN260 19/16 Q1017 NOSIG
2026-04-17 17:00:00,METAR LFMN 171700Z 19003KT 140V220 9999 FEW100 BKN260 19/16 Q1017 NOSIG
2026-04-17 16:30:00,METAR LFMN 171630Z VRB03KT 9999 FEW100 BKN260 20/16 Q1017 NOSIG
2026-04-17 16:00:00,METAR LFMN 171600Z VRB02KT CAVOK 20/16 Q1017 NOSIG
2026-04-17 15:30:00,METAR LFMN 171530Z 15003KT CAVOK 20/16 Q1017 NOSIG
2026-04-17 15:00:00,METAR LFMN 171500Z 12003KT CAVOK 20/16 Q1017 NOSIG
2026-04-17 14:30:00,METAR LFMN 171430Z 13003KT CAVOK 20/16 Q1017 NOSIG
2026-04-17 14:00:00,METAR LFMN 171400Z 13004KT CAVOK 21/16 Q1017 NOSIG
2026-04-17 13:30:00,METAR LFMN 171330Z 15005KT CAVOK 20/16 Q1017 NOSIG
2026-04-17 13:00:00,METAR LFMN 171300Z 13004KT CAVOK 21/16 Q1018 NOSIG
2026-04-17 12:30:00,METAR LFMN 171230Z 14004KT CAVOK 20/15 Q1018 NOSIG
2026-04-17 12:00:00,METAR LFMN 171200Z 15004KT CAVOK 20/15 Q1018 NOSIG
2026-04-17 11:30:00,METAR LFMN 171130Z 15004KT CAVOK 21/15 Q1018 NOSIG
2026-04-17 11:00:00,METAR LFMN 171100Z 16005KT CAVOK 21/15 Q1018 NOSIG
2026-04-17 10:30:00,METAR LFMN 171030Z 18005KT CAVOK 21/15 Q1018 NOSIG
2026-04-17 10:00:00,METAR LFMN 171000Z 17006KT CAVOK 20/15 Q1018 NOSIG
2026-04-17 09:30:00,METAR LFMN 170930Z 16005KT CAVOK 20/15 Q1018 NOSIG
2026-04-17 09:00:00,METAR LFMN 170900Z COR 17005KT 9999 FEW083 SCT260 20/13 Q1018 NOSIG
2026-04-17 08:30:00,METAR LFMN 170830Z 18005KT 9999 FEW083 SCT260 20/13 Q1018 NOSIG
2026-04-17 08:00:00,METAR LFMN 170800Z 19003KT 150V210 9999 FEW083 SCT260 20/13 Q1018 NOSIG
2026-04-17 07:30:00,METAR LFMN 170730Z VRB02KT 9999 FEW083 SCT260 20/12 Q1018 NOSIG
2026-04-17 07:00:00,METAR LFMN 170700Z VRB02KT 9999 FEW083 BKN260 20/11 Q1018 NOSIG
2026-04-17 06:30:00,METAR LFMN 170630Z 04004KT 9999 FEW083 SCT260 19/10 Q1018 NOSIG
2026-04-17 06:00:00,METAR LFMN 170600Z 03006KT 9999 FEW120 18/10 Q1018 NOSIG
2026-04-17 05:30:00,METAR LFMN 170530Z 04004KT 360V070 CAVOK 17/09 Q1018 NOSIG
2026-04-17 05:00:00,METAR LFMN 170500Z 34008KT CAVOK 17/09 Q1018 NOSIG
2026-04-17 04:30:00,METAR LFMN 170430Z 34008KT CAVOK 17/09 Q1018 NOSIG
2026-04-17 04:00:00,METAR LFMN 170400Z 34007KT CAVOK 17/09 Q1017 NOSIG
2026-04-17 03:30:00,METAR LFMN 170330Z 33007KT CAVOK 17/09 Q1018 NOSIG
2026-04-17 03:00:00,METAR LFMN 170300Z 32004KT 290V360 CAVOK 17/09 Q1018 NOSIG
2026-04-17 02:30:00,METAR LFMN 170230Z 03004KT 350V050 CAVOK 17/10 Q1018 NOSIG
2026-04-17 02:00:00,METAR LFMN 170200Z VRB02KT CAVOK 17/09 Q1018 NOSIG
2026-04-17 01:30:00,METAR LFMN 170130Z 35005KT 320V050 CAVOK 18/09 Q1018 NOSIG
2026-04-17 01:00:00,METAR LFMN 170100Z 35007KT CAVOK 18/09 Q1018 NOSIG
2026-04-17 00:30:00,METAR LFMN 170030Z 34006KT CAVOK 18/09 Q1018 NOSIG
2026-04-17 00:00:00,METAR LFMN 170000Z 34006KT CAVOK 18/09 Q1018 NOSIG
2026-04-16 23:30:00,METAR LFMN 162330Z 33007KT CAVOK 18/09 Q1018 NOSIG
2026-04-16 23:00:00,METAR LFMN 162300Z 34007KT CAVOK 18/09 Q1018 NOSIG
2026-04-16 22:30:00,METAR LFMN 162230Z 33007KT 9999 FEW083 19/09 Q1018 NOSIG
2026-04-16 22:00:00,METAR LFMN 162200Z 34008KT 9999 FEW083 19/10 Q1018 NOSIG
2026-04-16 21:30:00,METAR LFMN 162130Z 33008KT 9999 FEW083 19/10 Q1018 NOSIG
2026-04-16 21:00:00,METAR LFMN 162100Z 32008KT 9999 SCT083 19/11 Q1018 NOSIG
2026-04-16 20:30:00,METAR LFMN 162030Z 32006KT 9999 SCT083 19/12 Q1018 NOSIG
2026-04-16 20:00:00,METAR LFMN 162000Z 23003KT 9999 SCT083 18/12 Q1018 NOSIG
2026-04-16 19:30:00,METAR LFMN 161930Z 23004KT 9999 FEW083 18/13 Q1018 NOSIG
2026-04-16 19:00:00,METAR LFMN 161900Z 22005KT 9999 BKN083 19/13 Q1017 NOSIG
2026-04-16 18:30:00,METAR LFMN 161830Z 22004KT 9999 BKN083 19/13 Q1017 NOSIG
2026-04-16 18:00:00,METAR LFMN 161800Z 23005KT 9999 BKN100 19/13 Q1017 NOSIG
2026-04-16 17:30:00,METAR LFMN 161730Z 22005KT 9999 BKN100 19/14 Q1017 NOSIG
2026-04-16 17:00:00,METAR LFMN 161700Z 23005KT 9999 SCT086 20/13 Q1017 NOSIG
2026-04-16 16:30:00,METAR LFMN 161630Z 23005KT 9999 FEW086 21/12 Q1017 NOSIG
2026-04-16 16:00:00,METAR LFMN 161600Z 20004KT CAVOK 20/14 Q1017 NOSIG
2026-04-16 15:30:00,METAR LFMN 161530Z 16003KT CAVOK 20/14 Q1017 NOSIG
2026-04-16 15:00:00,METAR LFMN 161500Z 15003KT CAVOK 20/14 Q1017 NOSIG
2026-04-16 14:30:00,METAR LFMN 161430Z 13004KT CAVOK 20/14 Q1018 NOSIG
2026-04-16 14:00:00,METAR LFMN 161400Z 12004KT CAVOK 20/14 Q1018 NOSIG
2026-04-16 13:30:00,METAR LFMN 161330Z 11003KT 080V140 CAVOK 20/14 Q1018 NOSIG
2026-04-16 13:00:00,METAR LFMN 161300Z 12003KT CAVOK 20/14 Q1018 NOSIG
2026-04-16 12:30:00,METAR LFMN 161230Z 15004KT CAVOK 20/14 Q1018 NOSIG
2026-04-16 12:00:00,METAR LFMN 161200Z 16006KT CAVOK 20/14 Q1018 NOSIG
2026-04-16 11:30:00,METAR LFMN 161130Z 16008KT CAVOK 20/14 Q1018 NOSIG
2026-04-16 11:00:00,METAR LFMN 161100Z 17006KT CAVOK 20/14 Q1018 NOSIG
2026-04-16 10:30:00,METAR LFMN 161030Z 18008KT CAVOK 21/13 Q1018 NOSIG
2026-04-16 10:00:00,METAR LFMN 161000Z 19007KT CAVOK 20/13 Q1018 NOSIG
2026-04-16 09:30:00,METAR LFMN 160930Z 20007KT CAVOK 20/13 Q1018 NOSIG
2026-04-16 09:00:00,METAR LFMN 160900Z 20006KT CAVOK 20/11 Q1018 NOSIG
2026-04-16 08:30:00,METAR LFMN 160830Z 27004KT 230V330 CAVOK 22/10 Q1018 NOSIG
2026-04-16 08:00:00,METAR LFMN 160800Z 32006KT CAVOK 21/10 Q1018 NOSIG
2026-04-16 07:30:00,METAR LFMN 160730Z 33007KT CAVOK 20/10 Q1018 NOSIG
2026-04-16 07:00:00,METAR LFMN 160700Z 33007KT CAVOK 18/10 Q1018 NOSIG
2026-04-16 06:30:00,METAR LFMN 160630Z 33008KT CAVOK 17/10 Q1018 NOSIG
2026-04-16 06:00:00,METAR LFMN 160600Z 33007KT CAVOK 16/10 Q1018 NOSIG
2026-04-16 05:30:00,METAR LFMN 160530Z 33006KT CAVOK 16/10 Q1018 NOSIG
2026-04-16 05:00:00,METAR LFMN 160500Z 36005KT 340V050 CAVOK 15/10 Q1018 NOSIG
2026-04-16 04:30:00,METAR LFMN 160430Z 34010KT CAVOK 16/10 Q1017 NOSIG
2026-04-16 04:00:00,METAR LFMN 160400Z 33009KT CAVOK 16/10 Q1017 NOSIG
2026-04-16 03:30:00,METAR LFMN 160330Z 34007KT CAVOK 16/10 Q1017 NOSIG
2026-04-16 03:00:00,METAR LFMN 160300Z 33007KT CAVOK 16/10 Q1017 NOSIG
2026-04-16 02:30:00,METAR LFMN 160230Z 33007KT CAVOK 16/10 Q1017 NOSIG
2026-04-16 02:00:00,METAR LFMN 160200Z 33008KT CAVOK 16/11 Q1017 NOSIG
2026-04-16 01:30:00,METAR LFMN 160130Z 34007KT 310V010 CAVOK 16/10 Q1017 NOSIG
2026-04-16 01:00:00,METAR LFMN 160100Z 34007KT CAVOK 16/10 Q1017 NOSIG
2026-04-16 00:30:00,METAR LFMN 160030Z 34008KT CAVOK 17/10 Q1017 NOSIG
2026-04-16 00:00:00,METAR LFMN 160000Z 33008KT CAVOK 17/10 Q1018 NOSIG
2026-04-15 23:30:00,METAR LFMN 152330Z 34008KT CAVOK 17/10 Q1018 NOSIG
2026-04-15 23:00:00,METAR LFMN 152300Z 34007KT CAVOK 17/10 Q1017 NOSIG
2026-04-15 22:30:00,METAR LFMN 152230Z 32010KT CAVOK 17/10 Q1017 NOSIG
2026-04-15 22:00:00,METAR LFMN 152200Z 34009KT CAVOK 18/10 Q1018 NOSIG
2026-04-15 21:30:00,METAR LFMN 152130Z 32008KT CAVOK 18/10 Q1018 NOSIG
2026-04-15 21:00:00,METAR LFMN 152100Z 32009KT 9999 SCT100 18/10 Q1018 NOSIG
2026-04-15 20:30:00,METAR LFMN 152030Z 32007KT 9999 SCT100 18/10 Q1018 NOSIG
2026-04-15 20:00:00,METAR LFMN 152000Z 33006KT 9999 FEW100 19/10 Q1018 NOSIG
2026-04-15 19:30:00,METAR LFMN 151930Z 32005KT 9999 FEW090 18/10 Q1017 NOSIG
2026-04-15 19:00:00,METAR LFMN 151900Z 27004KT 9999 FEW090 18/10 Q1017 NOSIG
2026-04-15 18:30:00,METAR LFMN 151830Z 25007KT 9999 SCT090 19/12 Q1017 NOSIG
2026-04-15 18:00:00,METAR LFMN 151800Z 23006KT 9999 SCT086 19/12 Q1017 NOSIG
2026-04-15 17:30:00,METAR LFMN 151730Z 24006KT 9999 SCT083 19/12 Q1017 NOSIG
2026-04-15 17:00:00,METAR LFMN 151700Z 24006KT 9999 SCT083 19/13 Q1017 NOSIG
2026-04-15 16:30:00,METAR LFMN 151630Z 23009KT 9999 SCT083 20/12 Q1017 NOSIG
2026-04-15 16:00:00,METAR LFMN 151600Z 22009KT 9999 SCT100 20/12 Q1017 NOSIG
2026-04-15 15:30:00,METAR LFMN 151530Z 22010KT 9999 SCT100 20/12 Q1017 NOSIG
2026-04-15 15:00:00,METAR LFMN 151500Z 21008KT 180V240 9999 SCT083 21/13 Q1016 NOSIG
2026-04-15 14:30:00,METAR LFMN 151430Z 22007KT 9999 FEW100 21/12 Q1016 NOSIG
2026-04-15 14:00:00,METAR LFMN 151400Z 20007KT 180V240 9999 FEW100 19/13 Q1016 NOSIG
2026-04-15 13:30:00,METAR LFMN 151330Z 20007KT 9999 FEW100 20/13 Q1017 NOSIG
2026-04-15 13:00:00,METAR LFMN 151300Z 19005KT CAVOK 19/13 Q1017 NOSIG
2026-04-15 12:30:00,METAR LFMN 151230Z 18005KT CAVOK 20/14 Q1017 NOSIG
2026-04-15 12:00:00,METAR LFMN 151200Z 18005KT CAVOK 20/14 Q1017 NOSIG
2026-04-15 11:30:00,METAR LFMN 151130Z 17006KT CAVOK 20/14 Q1017 NOSIG
2026-04-15 11:00:00,METAR LFMN 151100Z 17005KT CAVOK 19/14 Q1017 NOSIG
2026-04-15 10:30:00,METAR LFMN 151030Z 14004KT CAVOK 19/14 Q1017 NOSIG
2026-04-15 10:00:00,METAR LFMN 151000Z 15005KT CAVOK 19/14 Q1017 NOSIG
2026-04-15 09:30:00,METAR LFMN 150930Z 15004KT CAVOK 18/13 Q1017 NOSIG
2026-04-15 09:00:00,METAR LFMN 150900Z 14005KT CAVOK 18/13 Q1017 NOSIG
2026-04-15 08:30:00,METAR LFMN 150830Z 15003KT CAVOK 18/13 Q1016 NOSIG
2026-04-15 08:00:00,METAR LFMN 150800Z 13003KT CAVOK 18/12 Q1016 NOSIG
2026-04-15 07:30:00,METAR LFMN 150730Z VRB03KT CAVOK 18/09 Q1016 NOSIG
2026-04-15 07:00:00,METAR LFMN 150700Z 35005KT CAVOK 17/09 Q1016 NOSIG
2026-04-15 06:30:00,METAR LFMN 150630Z 33008KT CAVOK 16/09 Q1016 NOSIG
2026-04-15 06:00:00,METAR LFMN 150600Z 33009KT CAVOK 15/09 Q1016 NOSIG
2026-04-15 05:30:00,METAR LFMN 150530Z 33011KT 9999 FEW100 14/09 Q1015 NOSIG
2026-04-15 05:00:00,METAR LFMN 150500Z 32012KT 9999 FEW100 14/09 Q1015 NOSIG
2026-04-15 04:30:00,METAR LFMN 150430Z 32010KT CAVOK 14/09 Q1015 NOSIG
2026-04-15 04:00:00,METAR LFMN 150400Z 32012KT CAVOK 14/09 Q1015 NOSIG
2026-04-15 03:30:00,METAR LFMN 150330Z 33012KT CAVOK 14/09 Q1015 NOSIG
2026-04-15 03:00:00,METAR LFMN 150300Z 33008KT CAVOK 14/09 Q1014 NOSIG
2026-04-15 02:30:00,METAR LFMN 150230Z 35006KT CAVOK 15/10 Q1014 NOSIG
2026-04-15 02:00:00,METAR LFMN 150200Z 34006KT CAVOK 15/10 Q1014 NOSIG
2026-04-15 01:30:00,METAR LFMN 150130Z 33008KT CAVOK 15/10 Q1014 NOSIG
2026-04-15 01:00:00,METAR LFMN 150100Z 33008KT CAVOK 15/10 Q1014 NOSIG
2026-04-15 00:30:00,METAR LFMN 150030Z 34009KT CAVOK 15/10 Q1014 NOSIG
2026-04-15 00:00:00,METAR LFMN 150000Z 34008KT CAVOK 15/10 Q1014 NOSIG
2026-04-14 23:30:00,METAR LFMN 142330Z 33007KT CAVOK 15/11 Q1015 NOSIG
2026-04-14 23:00:00,METAR LFMN 142300Z 33007KT CAVOK 16/11 Q1015 NOSIG
2026-04-14 22:30:00,METAR LFMN 142230Z 33007KT 9999 FEW110 16/11 Q1015 NOSIG
2026-04-14 22:00:00,METAR LFMN 142200Z 32007KT 9999 SCT110 16/11 Q1015 NOSIG
2026-04-14 21:30:00,METAR LFMN 142130Z 31007KT 9999 SCT110 16/11 Q1015 NOSIG
2026-04-14 21:00:00,METAR LFMN 142100Z 03002KT 9999 SCT100 16/11 Q1015 NOSIG
2026-04-14 20:30:00,METAR LFMN 142030Z 31005KT 9999 BKN100 17/11 Q1014 NOSIG
2026-04-14 20:00:00,METAR LFMN 142000Z 32004KT 9999 BKN100 17/11 Q1014 NOSIG
2026-04-14 19:30:00,METAR LFMN 141930Z 29003KT 9999 SCT070 SCT100 17/11 Q1014 NOSIG
2026-04-14 19:00:00,METAR LFMN 141900Z 27005KT 9999 SCT070 SCT100 17/13 Q1014 NOSIG
2026-04-14 18:30:00,METAR LFMN 141830Z 23006KT 9999 SCT073 BKN110 17/13 Q1013 NOSIG
2026-04-14 18:00:00,METAR LFMN 141800Z 21005KT 9999 BKN110 17/12 Q1013 NOSIG
2026-04-14 17:30:00,METAR LFMN 141730Z 22005KT 9999 BKN110 18/12 Q1013 NOSIG
2026-04-14 17:00:00,METAR LFMN 141700Z 22009KT 9999 FEW100 17/12 Q1012 NOSIG
2026-04-14 16:30:00,METAR LFMN 141630Z 21007KT 9999 FEW066 SCT130 18/13 Q1012 NOSIG
2026-04-14 16:00:00,METAR LFMN 141600Z 22007KT CAVOK 18/13 Q1012 NOSIG
2026-04-14 15:30:00,METAR LFMN 141530Z 20008KT 9999 FEW066 BKN130 18/13 Q1012 NOSIG
2026-04-14 15:00:00,METAR LFMN 141500Z 22007KT 9999 FEW050CB BKN110 18/12 Q1011 NOSIG
2026-04-14 14:30:00,METAR LFMN 141430Z COR 20006KT 9999 FEW050CB SCT110 BKN230 18/13 Q1011 NOSIG
2026-04-14 14:00:00,METAR LFMN 141400Z 20006KT 9999 FEW100 18/13 Q1011 NOSIG
2026-04-14 13:30:00,METAR LFMN 141330Z 20006KT 9999 FEW033 SCT100 18/13 Q1011 NOSIG
2026-04-14 13:00:00,METAR LFMN 141300Z COR 19007KT 9999 FEW030 SCT150 19/13 Q1011 NOSIG
2026-04-14 12:30:00,METAR LFMN 141230Z 17007KT 9999 FEW030 19/13 Q1011 NOSIG
2026-04-14 12:00:00,METAR LFMN 141200Z 18006KT 9999 FEW030 SCT140 19/13 Q1011 NOSIG
2026-04-14 11:30:00,METAR LFMN 141130Z 20008KT 9999 FEW030 SCT140 18/13 Q1011 NOSIG
2026-04-14 11:00:00,METAR LFMN 141100Z 19008KT 9999 FEW030 SCT130 18/13 Q1010 NOSIG
2026-04-14 10:30:00,METAR LFMN 141030Z 19010KT 9999 FEW030 18/13 Q1010 NOSIG
2026-04-14 10:00:00,METAR LFMN 141000Z 17007KT 9999 FEW030 19/14 Q1010 NOSIG
2026-04-14 09:30:00,METAR LFMN 140930Z 14007KT 9999 FEW030 18/13 Q1010 NOSIG
2026-04-14 09:00:00,METAR LFMN 140900Z 13006KT 9999 FEW030 19/12 Q1010 NOSIG
2026-04-14 08:30:00,METAR LFMN 140830Z 09004KT CAVOK 18/09 Q1009 NOSIG
2026-04-14 08:00:00,METAR LFMN 140800Z 33004KT 320V020 CAVOK 18/09 Q1009 NOSIG
2026-04-14 07:30:00,METAR LFMN 140730Z 33008KT CAVOK 16/08 Q1009 NOSIG
2026-04-14 07:00:00,METAR LFMN 140700Z 33010KT CAVOK 15/08 Q1009 NOSIG
2026-04-14 06:30:00,METAR LFMN 140630Z 32011KT CAVOK 14/08 Q1008 NOSIG
2026-04-14 06:00:00,METAR LFMN 140600Z 33011KT CAVOK 14/08 Q1008 NOSIG
2026-04-14 05:30:00,METAR LFMN 140530Z 33012KT 9999 FEW100 14/08 Q1007 NOSIG
2026-04-14 05:00:00,METAR LFMN 140500Z 33012KT 9999 FEW100 14/08 Q1007 NOSIG
2026-04-14 04:30:00,METAR LFMN 140430Z 33011KT 9999 FEW100 14/08 Q1007 NOSIG
2026-04-14 04:00:00,METAR LFMN 140400Z 33011KT 9999 FEW100 14/08 Q1007 NOSIG
2026-04-14 03:30:00,METAR LFMN 140330Z 33010KT 9999 FEW100 14/08 Q1006 NOSIG
2026-04-14 03:00:00,METAR LFMN 140300Z 32012KT 9999 FEW100 14/09 Q1006 NOSIG
2026-04-14 02:30:00,METAR LFMN 140230Z 33011KT 9999 FEW100 14/09 Q1006 NOSIG
2026-04-14 02:00:00,METAR LFMN 140200Z 32010KT 9999 FEW100 14/09 Q1006 NOSIG
2026-04-14 01:30:00,METAR LFMN 140130Z 32011KT 9999 FEW100 14/09 Q1006 NOSIG
2026-04-14 01:00:00,METAR LFMN 140100Z 32010KT CAVOK 14/09 Q1006 NOSIG
2026-04-14 00:30:00,METAR LFMN 140030Z 32009KT CAVOK 14/10 Q1006 NOSIG
2026-04-14 00:00:00,METAR LFMN 140000Z 32010KT CAVOK 14/10 Q1006 NOSIG
2026-04-13 23:30:00,METAR LFMN 132330Z 32010KT CAVOK 14/10 Q1006 NOSIG
2026-04-13 23:00:00,METAR LFMN 132300Z 32009KT CAVOK 15/10 Q1006 NOSIG
2026-04-13 22:30:00,METAR LFMN 132230Z 32007KT CAVOK 15/11 Q1006 NOSIG
2026-04-13 22:00:00,METAR LFMN 132200Z 32007KT CAVOK 15/11 Q1006 NOSIG
2026-04-13 21:30:00,METAR LFMN 132130Z 33006KT CAVOK 16/11 Q1006 NOSIG
2026-04-13 21:00:00,METAR LFMN 132100Z VRB03KT 9999 FEW110 BKN180 17/11 Q1005 NOSIG
2026-04-13 20:30:00,METAR LFMN 132030Z VRB03KT 9999 FEW070 SCT110 17/11 Q1005 NOSIG
2026-04-13 20:00:00,METAR LFMN 132000Z VRB02KT 9999 BKN110 17/13 Q1005 NOSIG
2026-04-13 19:30:00,METAR LFMN 131930Z 22005KT 9999 OVC110 17/13 Q1005 NOSIG
2026-04-13 19:00:00,METAR LFMN 131900Z 24006KT 210V270 9999 OVC100 17/12 Q1005 NOSIG
2026-04-13 18:30:00,METAR LFMN 131830Z VRB01KT 9999 OVC100 17/13 Q1004 NOSIG
2026-04-13 18:00:00,METAR LFMN 131800Z 21005KT 190V250 9999 FEW086 BKN100 17/12 Q1004 NOSIG
2026-04-13 17:30:00,METAR LFMN 131730Z 20007KT 9999 FEW086 BKN100 17/13 Q1003 NOSIG
2026-04-13 17:00:00,METAR LFMN 131700Z 18013KT 9999 FEW083 BKN096 17/13 Q1003 NOSIG
2026-04-13 16:30:00,METAR LFMN 131630Z 19006KT 160V220 9999 FEW083 BKN096 18/12 Q1002 NOSIG
2026-04-13 16:00:00,METAR LFMN 131600Z 17003KT 140V200 9999 BKN096 BKN140 BKN260 20/11 Q1002 NOSIG
2026-04-13 15:30:00,METAR LFMN 131530Z VRB02KT 9999 BKN100 BKN260 21/11 Q1002 NOSIG
2026-04-13 15:00:00,METAR LFMN 131500Z 31008KT 290V350 9999 BKN086 21/09 Q1002 NOSIG
2026-04-13 14:30:00,METAR LFMN 131430Z 02008KT 9999 -RA BKN080 21/08 Q1002 NOSIG
2026-04-13 14:00:00,METAR LFMN 131400Z 03010KT 9999 -RA BKN083 21/07 Q1002 NOSIG
2026-04-13 13:30:00,METAR LFMN 131330Z 03011KT 9999 BKN100 BKN260 22/06 Q1002 NOSIG
2026-04-13 13:00:00,METAR LFMN 131300Z 03015KT 9999 SCT090 BKN110 23/07 Q1002 NOSIG
2026-04-13 12:30:00,METAR LFMN 131230Z 05005KT 010V070 9999 BKN100 20/10 Q1002 NOSIG
2026-04-13 12:00:00,METAR LFMN 131200Z 07004KT 010V120 9999 OVC100 21/09 Q1002 NOSIG
2026-04-13 11:30:00,METAR LFMN 131130Z 04003KT 340V100 9999 BKN083 BKN260 22/06 Q1002 NOSIG
2026-04-13 11:00:00,METAR LFMN 131100Z 02009KT 9999 FEW100 BKN120 BKN260 22/07 Q1002 NOSIG
2026-04-13 10:30:00,METAR LFMN 131030Z 01010KT 9999 SCT096 BKN120 BKN260 21/07 Q1002 BECMG 09015KT
2026-04-13 10:00:00,METAR LFMN 131000Z 01013KT 9999 BKN096 BKN260 21/07 Q1002 BECMG 09015KT
2026-04-13 09:30:00,METAR LFMN 130930Z 01013KT 9999 BKN090 BKN260 21/07 Q1002 NOSIG
2026-04-13 09:00:00,METAR LFMN 130900Z 01015KT 9999 BKN080 BKN090 BKN260 20/06 Q1002 NOSIG
2026-04-13 08:30:00,METAR LFMN 130830Z 36017KT 9999 BKN090 BKN260 20/06 Q1002 NOSIG
2026-04-13 08:00:00,METAR LFMN 130800Z 01017KT 9999 BKN090 20/06 Q1001 NOSIG
2026-04-13 07:30:00,METAR LFMN 130730Z 36019KT 9999 FEW073 BKN090 20/06 Q1001 NOSIG
2026-04-13 07:00:00,METAR LFMN 130700Z 36020KT 9999 FEW073 BKN093 20/05 Q1001 NOSIG
2026-04-13 06:30:00,METAR LFMN 130630Z 35020KT 9999 SCT073 BKN093 20/05 Q1001 NOSIG
2026-04-13 06:00:00,METAR LFMN 130600Z 01015KT 9999 -RA SCT073 BKN093 20/05 Q1001 NOSIG
2026-04-13 05:30:00,METAR LFMN 130530Z 01015KT 9999 BKN100 BKN130 20/04 Q1001 NOSIG
2026-04-13 05:00:00,METAR LFMN 130500Z 01011KT 9999 BKN120 BKN130 20/04 Q1001 NOSIG
2026-04-13 04:30:00,METAR LFMN 130430Z 02014KT CAVOK 20/04 Q1001 NOSIG
2026-04-13 04:00:00,METAR LFMN 130400Z 01015KT 9999 SCT093 BKN120 20/04 Q1001 NOSIG
2026-04-13 03:30:00,METAR LFMN 130330Z 02014KT 9999 BKN100 20/05 Q1002 NOSIG
2026-04-13 03:00:00,METAR LFMN 130300Z 34006KT 9999 BKN100 17/07 Q1002 NOSIG
2026-04-13 02:30:00,METAR LFMN 130230Z 05010KT 9999 BKN110 20/07 Q1003 NOSIG
2026-04-13 02:00:00,METAR LFMN 130200Z 07014KT 9999 BKN110 19/09 Q1003 NOSIG
2026-04-13 01:30:00,METAR LFMN 130130Z 07015KT CAVOK 19/10 Q1003 NOSIG
2026-04-13 01:00:00,METAR LFMN 130100Z 07012KT CAVOK 18/11 Q1004 NOSIG
2026-04-13 00:30:00,METAR LFMN 130030Z 08012KT 9999 SCT110 BKN130 18/12 Q1004 NOSIG
2026-04-13 00:00:00,METAR LFMN 130000Z 09013KT 9999 SCT110 BKN130 18/11 Q1005 NOSIG
2026-04-12 23:30:00,METAR LFMN 122330Z 09017KT CAVOK 19/11 Q1005 NOSIG
2026-04-12 23:00:00,METAR LFMN 122300Z 09013KT CAVOK 19/11 Q1005 NOSIG
2026-04-12 22:30:00,METAR LFMN 122230Z 07010KT 9999 SCT120 BKN150 18/12 Q1005 NOSIG
2026-04-12 22:00:00,METAR LFMN 122200Z 11004KT 060V140 CAVOK 18/12 Q1005 NOSIG
2026-04-12 21:30:00,METAR LFMN 122130Z VRB02KT CAVOK 18/11 Q1005 NOSIG
2026-04-12 21:00:00,METAR LFMN 122100Z VRB03KT CAVOK 18/11 Q1006 NOSIG
2026-04-12 20:30:00,METAR LFMN 122030Z 09010KT CAVOK 18/12 Q1006 NOSIG
2026-04-12 20:00:00,METAR LFMN 122000Z 09012KT CAVOK 18/11 Q1006 NOSIG
2026-04-12 19:30:00,METAR LFMN 121930Z 06007KT CAVOK 18/12 Q1006 NOSIG
2026-04-12 19:00:00,METAR LFMN 121900Z 07007KT 040V100 CAVOK 17/13 Q1006 WS R04R WS R04L NOSIG
2026-04-12 18:30:00,METAR LFMN 121830Z 06008KT CAVOK 18/13 Q1006 NOSIG
2026-04-12 18:00:00,METAR LFMN 121800Z 07010KT 030V100 CAVOK 18/13 Q1006 WS R04R WS R04L NOSIG
2026-04-12 17:45:00,METAR LFMN 121745Z 08010KT CAVOK 18/12 Q1006 WS R04R WS R04L NOSIG
2026-04-12 17:30:00,METAR LFMN 121730Z 08014KT CAVOK 19/12 Q1006 NOSIG
2026-04-12 17:00:00,METAR LFMN 121700Z 09020KT 9999 FEW100 OVC160 19/12 Q1006 NOSIG
2026-04-12 16:30:00,METAR LFMN 121630Z 09019KT 9999 FEW100 OVC160 19/12 Q1006 NOSIG
2026-04-12 16:00:00,METAR LFMN 121600Z 09021KT 9999 FEW100 OVC160 19/12 Q1007 NOSIG
2026-04-12 15:00:00,METAR LFMN 121500Z 06013KT 030V090 9999 FEW100 OVC160 19/12 Q1007 NOSIG
2026-04-12 14:30:00,METAR LFMN 121430Z 06013KT 9999 FEW100 OVC180 19/12 Q1007 NOSIG
2026-04-12 14:00:00,METAR LFMN 121400Z 06014KT 9999 SCT100 OVC200 19/13 Q1007 NOSIG
2026-04-12 13:30:00,METAR LFMN 121330Z 07012KT 9999 SCT100 OVC200 19/13 Q1007 NOSIG
2026-04-12 13:00:00,METAR LFMN 121300Z 08022KT CAVOK 19/13 Q1008 NOSIG
2026-04-12 12:30:00,METAR LFMN 121230Z 06014KT CAVOK 20/12 Q1008 NOSIG
2026-04-12 12:00:00,METAR LFMN 121200Z 06015KT CAVOK 20/12 Q1009 BECMG 09025KT
2026-04-12 11:30:00,METAR LFMN 121130Z 07008KT 030V100 CAVOK 20/13 Q1009 BECMG 09025KT
2026-04-12 11:00:00,METAR LFMN 121100Z VRB03KT CAVOK 20/12 Q1010 BECMG 09025KT
2026-04-12 10:30:00,METAR LFMN 121030Z 07004KT 030V100 CAVOK 18/12 Q1010 BECMG 09025KT
2026-04-12 10:00:00,METAR LFMN 121000Z VRB03KT CAVOK 18/12 Q1010 BECMG 09025KT
2026-04-12 09:30:00,METAR LFMN 120930Z VRB02KT CAVOK 18/12 Q1011 NOSIG
2026-04-12 09:00:00,METAR LFMN 120900Z VRB03KT CAVOK 17/12 Q1011 NOSIG
2026-04-12 08:30:00,METAR LFMN 120830Z 36003KT 330V040 CAVOK 16/12 Q1011 NOSIG
2026-04-12 08:00:00,METAR LFMN 120800Z 34006KT 9999 FEW015 OVC260 16/11 Q1011 NOSIG
2026-04-12 07:30:00,METAR LFMN 120730Z 33006KT 9999 SCT015 OVC260 15/11 Q1011 NOSIG
2026-04-12 07:00:00,METAR LFMN 120700Z 34004KT 300V050 9999 SCT015 OVC260 15/11 Q1011 NOSIG
2026-04-12 06:30:00,METAR LFMN 120630Z 05006KT 9999 SCT011 OVC260 16/13 Q1011 NOSIG
2026-04-12 06:00:00,METAR LFMN 120600Z 07009KT 9999 BKN011 OVC260 16/13 Q1011 NOSIG
2026-04-12 05:30:00,METAR LFMN 120530Z 07008KT 9999 SCT011 BKN270 16/14 Q1011 NOSIG
2026-04-12 05:00:00,METAR LFMN 120500Z 07004KT 030V100 9999 FEW008 BKN270 15/12 Q1011 NOSIG
2026-04-12 04:30:00,METAR LFMN 120430Z 03005KT 9999 FEW008 BKN270 14/11 Q1011 NOSIG
2026-04-12 04:00:00,METAR LFMN 120400Z 03005KT CAVOK 14/12 Q1011 NOSIG
2026-04-12 03:30:00,METAR LFMN 120330Z 03004KT CAVOK 14/10 Q1011 NOSIG
2026-04-12 03:00:00,METAR LFMN 120300Z VRB02KT CAVOK 14/11 Q1011 NOSIG
2026-04-12 02:30:00,METAR LFMN 120230Z 32004KT CAVOK 14/11 Q1012 NOSIG
2026-04-12 02:00:00,METAR LFMN 120200Z 01004KT CAVOK 15/12 Q1012 NOSIG
2026-04-12 01:30:00,METAR LFMN 120130Z 05006KT CAVOK 15/13 Q1012 NOSIG
2026-04-12 01:00:00,METAR LFMN 120100Z 30003KT 260V010 CAVOK 14/12 Q1012 NOSIG
2026-04-12 00:30:00,METAR LFMN 120030Z 04002KT CAVOK 14/11 Q1013 NOSIG
2026-04-12 00:00:00,METAR LFMN 120000Z 31003KT CAVOK 15/11 Q1013 NOSIG
2026-04-11 23:30:00,METAR LFMN 112330Z 33006KT CAVOK 15/11 Q1013 NOSIG
2026-04-11 23:00:00,METAR LFMN 112300Z 34006KT CAVOK 15/12 Q1013 NOSIG
2026-04-11 22:30:00,METAR LFMN 112230Z 32007KT CAVOK 15/12 Q1014 NOSIG
2026-04-11 22:00:00,METAR LFMN 112200Z 32006KT 9000 NSC 15/12 Q1014 NOSIG
2026-04-11 21:30:00,METAR LFMN 112130Z 31006KT 9000 NSC 15/12 Q1014 NOSIG
2026-04-11 21:00:00,METAR LFMN 112100Z 32006KT 8000 NSC 15/13 Q1014 NOSIG
2026-04-11 20:30:00,METAR LFMN 112030Z VRB02KT CAVOK 16/13 Q1013 NOSIG
2026-04-11 20:00:00,METAR LFMN 112000Z 00000KT CAVOK 16/13 Q1013 NOSIG
2026-04-11 19:30:00,METAR LFMN 111930Z 06002KT CAVOK 16/14 Q1013 NOSIG
2026-04-11 19:00:00,METAR LFMN 111900Z 07002KT CAVOK 16/14 Q1013 NOSIG
2026-04-11 18:30:00,METAR LFMN 111830Z 06003KT CAVOK 17/14 Q1013 NOSIG
2026-04-11 18:00:00,METAR LFMN 111800Z 07003KT 9999 FEW033 17/14 Q1013 NOSIG
2026-04-11 17:30:00,METAR LFMN 111730Z COR VRB02KT 9999 FEW026 17/14 Q1013 NOSIG
2026-04-11 17:00:00,METAR LFMN 111700Z 13003KT CAVOK 18/14 Q1013 NOSIG
2026-04-11 16:30:00,METAR LFMN 111630Z 16003KT CAVOK 18/14 Q1013 NOSIG
2026-04-11 16:00:00,METAR LFMN 111600Z 16004KT CAVOK 18/14 Q1013 NOSIG
2026-04-11 15:30:00,METAR LFMN 111530Z 14004KT CAVOK 18/14 Q1013 NOSIG
2026-04-11 15:00:00,METAR LFMN 111500Z 13005KT CAVOK 18/14 Q1013 NOSIG
2026-04-11 14:30:00,METAR LFMN 111430Z 13006KT CAVOK 18/14 Q1014 NOSIG
2026-04-11 14:00:00,METAR LFMN 111400Z 12005KT CAVOK 19/14 Q1014 NOSIG
2026-04-11 13:30:00,METAR LFMN 111330Z 12006KT CAVOK 19/14 Q1014 NOSIG
2026-04-11 13:00:00,METAR LFMN 111300Z 15005KT 9999 FEW030 19/14 Q1015 NOSIG
2026-04-11 12:30:00,METAR LFMN 111230Z 14005KT 9999 BKN030 18/13 Q1015 NOSIG
2026-04-11 12:00:00,METAR LFMN 111200Z 13004KT 9999 OVC030 19/13 Q1015 NOSIG
2026-04-11 11:30:00,METAR LFMN 111130Z 12003KT 090V150 9999 OVC030 18/13 Q1015 NOSIG
2026-04-11 11:00:00,METAR LFMN 111100Z VRB02KT 9999 OVC030 18/13 Q1015 NOSIG
2026-04-11 10:30:00,METAR LFMN 111030Z VRB02KT 9999 OVC030 18/12 Q1015 NOSIG
2026-04-11 10:00:00,METAR LFMN 111000Z VRB02KT 9999 OVC030 17/12 Q1015 NOSIG
2026-04-11 09:30:00,METAR LFMN 110930Z VRB02KT 9999 FEW013 BKN025 17/12 Q1015 NOSIG
2026-04-11 09:00:00,METAR LFMN 110900Z 10003KT 9999 FEW013 BKN025 17/13 Q1015 NOSIG
2026-04-11 08:30:00,METAR LFMN 110830Z VRB02KT 9999 FEW013 BKN021 17/12 Q1015 NOSIG
2026-04-11 08:00:00,METAR LFMN 110800Z VRB01KT 9999 FEW013 BKN021 17/11 Q1015 NOSIG
2026-04-11 07:30:00,METAR LFMN 110730Z VRB02KT 9999 FEW013 BKN021 16/12 Q1015 NOSIG
2026-04-11 07:00:00,METAR LFMN 110700Z VRB02KT 9999 FEW013 BKN021 16/12 Q1015 NOSIG
2026-04-11 06:30:00,METAR LFMN 110630Z 07003KT 040V100 9999 FEW013 BKN021 16/13 Q1015 NOSIG
2026-04-11 06:00:00,METAR LFMN 110600Z 06004KT 9999 FEW013 BKN021 16/13 Q1014 NOSIG
2026-04-11 05:30:00,METAR LFMN 110530Z 08006KT 9999 FEW013 BKN021 16/13 Q1014 NOSIG
2026-04-11 05:00:00,METAR LFMN 110500Z 07005KT 9999 FEW013 BKN021 16/13 Q1014 NOSIG
2026-04-11 04:30:00,METAR LFMN 110430Z 06005KT 9999 BKN021 16/13 Q1014 NOSIG
2026-04-11 04:00:00,METAR LFMN 110400Z 06003KT 040V100 9999 BKN021 16/13 Q1014 NOSIG
2026-04-11 03:30:00,METAR LFMN 110330Z 08004KT 9999 BKN020 16/13 Q1014 NOSIG
2026-04-11 03:00:00,METAR LFMN 110300Z 09002KT 9999 BKN020 16/13 Q1014 NOSIG
2026-04-11 02:30:00,METAR LFMN 110230Z VRB02KT 9999 SCT013 BKN019 16/13 Q1014 NOSIG
2026-04-11 02:00:00,METAR LFMN 110200Z VRB01KT 9999 SCT013 BKN019 16/12 Q1014 NOSIG
2026-04-11 01:30:00,METAR LFMN 110130Z 00000KT 9999 SCT014 BKN016 15/13 Q1014 NOSIG
2026-04-11 01:00:00,METAR LFMN 110100Z 00000KT 9999 SCT013 BKN017 15/13 Q1014 NOSIG
2026-04-11 00:30:00,METAR LFMN 110030Z VRB03KT 9999 SCT013 BKN016 15/13 Q1015 NOSIG
2026-04-11 00:00:00,METAR LFMN 110000Z VRB03KT 9999 BKN013 15/13 Q1015 NOSIG
2026-04-10 23:30:00,METAR LFMN 102330Z VRB02KT 9999 -DZ BKN010 15/13 Q1015 NOSIG
2026-04-10 23:00:00,METAR LFMN 102300Z 18003KT 9999 BKN010 15/13 Q1015 NOSIG
2026-04-10 22:30:00,METAR LFMN 102230Z 17005KT 9999 BKN013 15/13 Q1015 NOSIG
2026-04-10 22:00:00,METAR LFMN 102200Z 14005KT 9999 BKN013 16/13 Q1015 NOSIG
2026-04-10 21:30:00,METAR LFMN 102130Z 12006KT 9999 BKN013 16/13 Q1015 NOSIG
2026-04-10 21:00:00,METAR LFMN 102100Z 11005KT 9999 BKN013 16/13 Q1015 NOSIG
2026-04-10 20:30:00,METAR LFMN 102030Z 09003KT 050V120 9999 BKN013 16/13 Q1015 NOSIG
2026-04-10 20:00:00,METAR LFMN 102000Z 11003KT 070V150 9999 BKN013 16/13 Q1015 NOSIG
2026-04-10 19:30:00,METAR LFMN 101930Z 12004KT 9999 BKN014 16/13 Q1014 NOSIG
2026-04-10 19:00:00,METAR LFMN 101900Z 13003KT 9999 BKN014 16/13 Q1014 NOSIG
2026-04-10 18:30:00,METAR LFMN 101830Z 12004KT 9999 BKN014 16/13 Q1014 NOSIG
2026-04-10 18:00:00,METAR LFMN 101800Z 13004KT 090V150 9999 BKN014 BKN260 16/13 Q1014 NOSIG
2026-04-10 17:30:00,METAR LFMN 101730Z 13003KT 100V160 9999 BKN014 BKN260 16/13 Q1014 NOSIG
2026-04-10 17:00:00,METAR LFMN 101700Z 10004KT 050V130 9999 SCT014 BKN260 16/13 Q1014 NOSIG
2026-04-10 16:30:00,METAR LFMN 101630Z 11004KT 9999 SCT014 BKN260 17/13 Q1014 NOSIG
2026-04-10 16:00:00,METAR LFMN 101600Z 15004KT 9999 SCT014 BKN260 17/13 Q1014 NOSIG
2026-04-10 15:30:00,METAR LFMN 101530Z 16005KT 9999 FEW014 BKN260 17/13 Q1014 NOSIG
2026-04-10 15:00:00,METAR LFMN 101500Z 14006KT 9999 FEW014 BKN260 17/13 Q1014 NOSIG
2026-04-10 14:30:00,METAR LFMN 101430Z 14007KT 9999 FEW012 BKN260 17/13 Q1014 NOSIG
2026-04-10 14:00:00,METAR LFMN 101400Z 14007KT 9999 FEW012 BKN260 17/13 Q1014 NOSIG
2026-04-10 13:30:00,METAR LFMN 101330Z 13008KT 9999 FEW012 BKN260 17/13 Q1014 NOSIG
2026-04-10 13:00:00,METAR LFMN 101300Z 13008KT 9999 FEW012 BKN260 17/13 Q1015 NOSIG
2026-04-10 12:30:00,METAR LFMN 101230Z 13008KT 9999 FEW012 BKN260 17/13 Q1015 NOSIG
2026-04-10 12:00:00,METAR LFMN 101200Z 12007KT 9999 SCT012 17/13 Q1015 NOSIG
2026-04-10 11:30:00,METAR LFMN 101130Z 12007KT 9999 SCT012 17/13 Q1015 NOSIG
2026-04-10 11:00:00,METAR LFMN 101100Z 12008KT 9999 FEW013 18/13 Q1016 NOSIG
2026-04-10 10:30:00,METAR LFMN 101030Z 12008KT 9999 FEW013 17/13 Q1016 NOSIG
2026-04-10 10:00:00,METAR LFMN 101000Z 11008KT 9999 FEW013 17/13 Q1016 NOSIG
2026-04-10 09:30:00,METAR LFMN 100930Z 12006KT 9999 FEW013 17/12 Q1016 NOSIG
2026-04-10 09:00:00,METAR LFMN 100900Z 11006KT 9999 SCT020 17/12 Q1016 NOSIG
2026-04-10 08:30:00,METAR LFMN 100830Z VRB03KT 9999 FEW020 17/12 Q1015 NOSIG
2026-04-10 08:00:00,METAR LFMN 100800Z 08003KT 040V110 9999 FEW014 17/12 Q1015 NOSIG
2026-04-10 07:30:00,METAR LFMN 100730Z VRB02KT 9999 FEW014 16/11 Q1015 NOSIG
2026-04-10 07:00:00,METAR LFMN 100700Z 32005KT 9999 BKN014 15/10 Q1015 NOSIG
2026-04-10 06:30:00,METAR LFMN 100630Z 33006KT 9999 BKN014 14/10 Q1015 NOSIG
2026-04-10 06:00:00,METAR LFMN 100600Z 32006KT 9999 BKN014 13/09 Q1015 NOSIG
2026-04-10 05:30:00,METAR LFMN 100530Z 32007KT 9999 OVC014 13/10 Q1015 NOSIG
2026-04-10 05:00:00,METAR LFMN 100500Z 32007KT 9999 OVC014 13/10 Q1014 NOSIG
2026-04-10 04:30:00,METAR LFMN 100430Z 32006KT 9999 OVC014 13/10 Q1014 NOSIG
2026-04-10 04:00:00,METAR LFMN 100400Z 32006KT 9999 OVC014 14/11 Q1014 NOSIG
2026-04-10 03:30:00,METAR LFMN 100330Z 32006KT 9999 OVC013 14/11 Q1014 NOSIG
2026-04-10 03:00:00,METAR LFMN 100300Z 32005KT 9999 OVC012 14/11 Q1014 NOSIG
2026-04-10 02:30:00,METAR LFMN 100230Z 31004KT 9999 OVC015 14/11 Q1014 NOSIG
2026-04-10 02:00:00,METAR LFMN 100200Z 33004KT 9999 OVC015 14/12 Q1014 NOSIG
2026-04-10 01:30:00,METAR LFMN 100130Z 03005KT 9999 OVC015 15/12 Q1014 NOSIG
2026-04-10 01:00:00,METAR LFMN 100100Z 03005KT 9999 OVC015 15/12 Q1015 NOSIG
2026-04-10 00:30:00,METAR LFMN 100030Z 03006KT 9999 BKN015 15/12 Q1015 NOSIG
2026-04-10 00:00:00,METAR LFMN 100000Z 06005KT 030V100 9999 OVC014 16/12 Q1015 NOSIG
2026-04-09 23:30:00,METAR LFMN 092330Z 05003KT 010V080 9999 BKN014 16/12 Q1015 NOSIG
2026-04-09 23:00:00,METAR LFMN 092300Z 07005KT 030V090 9999 BKN014 16/12 Q1015 NOSIG
2026-04-09 22:30:00,METAR LFMN 092230Z 07005KT 030V100 9999 BKN014 16/13 Q1015 NOSIG
2026-04-09 22:00:00,METAR LFMN 092200Z 08006KT 9999 BKN014 16/13 Q1015 NOSIG
2026-04-09 21:30:00,METAR LFMN 092130Z 08006KT 9999 BKN014 16/13 Q1015 NOSIG
2026-04-09 21:00:00,METAR LFMN 092100Z 08006KT 9999 BKN012 16/13 Q1015 NOSIG
2026-04-09 20:30:00,METAR LFMN 092030Z 12003KT 090V150 9999 BKN010 16/14 Q1015 NOSIG
2026-04-09 20:00:00,METAR LFMN 092000Z 13003KT 9999 BKN012 16/14 Q1015 NOSIG
2026-04-09 19:30:00,METAR LFMN 091930Z 15003KT 9999 SCT010 16/14 Q1015 TEMPO BKN010
2026-04-09 19:00:00,METAR LFMN 091900Z 14003KT 9999 FEW012 16/14 Q1015 TEMPO BKN010
2026-04-09 18:30:00,METAR LFMN 091830Z 15003KT 9999 FEW012 16/13 Q1014 NOSIG
2026-04-09 18:00:00,METAR LFMN 091800Z 15004KT 9999 FEW012 16/14 Q1014 NOSIG
2026-04-09 17:30:00,METAR LFMN 091730Z 16003KT 130V190 9999 FEW013 17/13 Q1014 NOSIG
2026-04-09 17:00:00,METAR LFMN 091700Z 18004KT 9999 FEW013 17/13 Q1014 NOSIG
2026-04-09 16:30:00,METAR LFMN 091630Z 18005KT 9999 FEW013 17/13 Q1014 NOSIG
2026-04-09 16:00:00,METAR LFMN 091600Z 18006KT 9999 FEW013 17/13 Q1015 NOSIG
2026-04-09 15:30:00,METAR LFMN 091530Z 19006KT 9999 FEW013 18/13 Q1015 NOSIG
2026-04-09 15:00:00,METAR LFMN 091500Z 18005KT CAVOK 18/13 Q1015 NOSIG
2026-04-09 14:30:00,METAR LFMN 091430Z 17005KT CAVOK 18/13 Q1015 NOSIG
2026-04-09 14:00:00,METAR LFMN 091400Z 17004KT 9999 FEW013 18/13 Q1016 NOSIG
2026-04-09 13:30:00,METAR LFMN 091330Z 17004KT 9999 FEW013 18/13 Q1016 NOSIG
2026-04-09 13:00:00,METAR LFMN 091300Z 17006KT 9999 FEW013 18/13 Q1017 NOSIG
2026-04-09 12:30:00,METAR LFMN 091230Z 17007KT CAVOK 18/13 Q1017 NOSIG
2026-04-09 12:00:00,METAR LFMN 091200Z 15006KT CAVOK 18/13 Q1017 NOSIG
2026-04-09 11:30:00,METAR LFMN 091130Z 14005KT CAVOK 17/13 Q1017 NOSIG
2026-04-09 11:00:00,METAR LFMN 091100Z 14005KT CAVOK 17/13 Q1017 NOSIG
2026-04-09 10:30:00,METAR LFMN 091030Z 14005KT CAVOK 17/13 Q1018 NOSIG
2026-04-09 10:00:00,METAR LFMN 091000Z 14003KT 100V170 9999 FEW013 17/13 Q1018 NOSIG
2026-04-09 09:30:00,METAR LFMN 090930Z VRB03KT 9999 FEW013 17/13 Q1018 NOSIG
2026-04-09 09:00:00,METAR LFMN 090900Z VRB03KT 9999 SCT013 17/12 Q1018 NOSIG
2026-04-09 08:30:00,METAR LFMN 090830Z VRB02KT 9999 SCT013 17/12 Q1019 NOSIG
2026-04-09 08:00:00,METAR LFMN 090800Z VRB01KT 9999 BKN012 16/12 Q1019 BECMG FEW013
2026-04-09 07:30:00,METAR LFMN 090730Z VRB02KT 9999 BKN012 15/12 Q1018 TEMPO FEW010
2026-04-09 07:00:00,METAR LFMN 090700Z 33004KT 290V030 9999 BKN012 14/11 Q1018 TEMPO FEW010
2026-04-09 06:30:00,METAR LFMN 090630Z 33005KT 9999 BKN011 13/11 Q1018 TEMPO FEW010
2026-04-09 06:00:00,METAR LFMN 090600Z 32005KT 9999 BKN012 12/10 Q1018 TEMPO FEW010
2026-04-09 05:30:00,METAR LFMN 090530Z 32006KT 9999 FEW014 12/10 Q1018 NOSIG
2026-04-09 05:00:00,METAR LFMN 090500Z 32006KT 9999 FEW012 12/10 Q1017 NOSIG
2026-04-09 04:30:00,METAR LFMN 090430Z 32007KT 9999 FEW012 12/10 Q1018 NOSIG
2026-04-09 04:00:00,METAR LFMN 090400Z 32006KT 9999 SCT011 12/10 Q1018 TEMPO BKN010
2026-04-09 03:30:00,METAR LFMN 090330Z 32006KT 9999 SCT011 12/10 Q1018 TEMPO BKN010
2026-04-09 03:00:00,METAR LFMN 090300Z 32006KT 9999 SCT011 12/11 Q1018 TEMPO BKN010
2026-04-09 02:30:00,METAR LFMN 090230Z 32006KT 9999 BKN010 12/10 Q1018 NOSIG
2026-04-09 02:00:00,METAR LFMN 090200Z COR 32005KT 9999 BKN010 13/10 Q1018 NOSIG
2026-04-09 01:30:00,METAR LFMN 090130Z 32006KT 9999 SCT010 12/11 Q1018 TEMPO BKN010
2026-04-09 01:00:00,METAR LFMN 090100Z 32005KT 9999 SCT010 12/10 Q1018 TEMPO BKN010
2026-04-09 00:30:00,METAR LFMN 090030Z 32005KT 9999 FEW010 13/10 Q1019 TEMPO BKN010
2026-04-09 00:00:00,METAR LFMN 090000Z 34004KT 9999 FEW009 13/11 Q1019 TEMPO BKN010
2026-04-08 23:30:00,METAR LFMN 082330Z 33003KT 9999 FEW009 13/10 Q1019 NOSIG
2026-04-08 23:00:00,METAR LFMN 082300Z 32003KT CAVOK 13/11 Q1019 NOSIG
2026-04-08 22:30:00,METAR LFMN 082230Z VRB02KT CAVOK 14/11 Q1019 NOSIG
2026-04-08 22:00:00,METAR LFMN 082200Z 33005KT CAVOK 14/11 Q1019 NOSIG
2026-04-08 21:30:00,METAR LFMN 082130Z 32005KT CAVOK 14/11 Q1019 NOSIG
2026-04-08 21:17:00,METAR LFMN 082117Z COR 32005KT CAVOK 14/11 Q1019 NOSIG
2026-04-08 21:00:00,METAR LFMN 082100Z 31005KT CAVOK 14/11 Q1019 NOSIG
2026-04-08 20:30:00,METAR LFMN 082030Z 31003KT CAVOK 15/11 Q1019 NOSIG
2026-04-08 20:00:00,METAR LFMN 082000Z 00000KT CAVOK 15/11 Q1019 NOSIG
2026-04-08 19:30:00,METAR LFMN 081930Z 00000KT CAVOK 15/12 Q1020 NOSIG
2026-04-08 19:00:00,METAR LFMN 081900Z 21001KT CAVOK 15/12 Q1019 NOSIG
2026-04-08 18:30:00,METAR LFMN 081830Z VRB02KT CAVOK 16/12 Q1019 NOSIG
2026-04-08 18:00:00,METAR LFMN 081800Z 18002KT CAVOK 16/12 Q1019 NOSIG
2026-04-08 17:30:00,METAR LFMN 081730Z 16003KT CAVOK 16/12 Q1019 NOSIG
2026-04-08 17:00:00,METAR LFMN 081700Z 16004KT CAVOK 17/12 Q1019 NOSIG
2026-04-08 16:30:00,METAR LFMN 081630Z 14004KT CAVOK 17/12 Q1020 NOSIG
2026-04-08 16:00:00,METAR LFMN 081600Z 14005KT CAVOK 17/12 Q1020 NOSIG
2026-04-08 15:30:00,METAR LFMN 081530Z 13005KT CAVOK 17/12 Q1020 NOSIG
2026-04-08 15:00:00,METAR LFMN 081500Z 13005KT CAVOK 17/12 Q1020 NOSIG
2026-04-08 14:30:00,METAR LFMN 081430Z 13006KT CAVOK 17/12 Q1020 NOSIG
2026-04-08 14:00:00,METAR LFMN 081400Z 13006KT 9999 FEW011 17/12 Q1021 NOSIG
2026-04-08 13:30:00,METAR LFMN 081330Z 13006KT 9999 FEW011 18/12 Q1021 NOSIG
2026-04-08 13:00:00,METAR LFMN 081300Z 13006KT 9999 FEW011 18/12 Q1021 NOSIG
2026-04-08 12:30:00,METAR LFMN 081230Z 12007KT 9999 FEW011 17/12 Q1021 NOSIG
2026-04-08 12:00:00,METAR LFMN 081200Z 12007KT 9999 FEW011 18/13 Q1021 NOSIG
2026-04-08 11:30:00,METAR LFMN 081130Z 13007KT 9999 FEW011 17/13 Q1022 NOSIG
2026-04-08 11:00:00,METAR LFMN 081100Z 12008KT 9999 FEW012 17/13 Q1022 NOSIG
2026-04-08 10:30:00,METAR LFMN 081030Z 12007KT 9999 FEW013 17/13 Q1022 NOSIG
2026-04-08 10:00:00,METAR LFMN 081000Z 13005KT 9999 FEW013 17/13 Q1022 NOSIG
2026-04-08 09:30:00,METAR LFMN 080930Z 12006KT 9999 FEW013 17/12 Q1022 NOSIG
2026-04-08 09:00:00,METAR LFMN 080900Z 10005KT 9999 FEW013 16/12 Q1022 NOSIG
2026-04-08 08:30:00,METAR LFMN 080830Z 11002KT 9999 FEW013 17/12 Q1022 NOSIG
2026-04-08 08:00:00,METAR LFMN 080800Z VRB02KT 9999 FEW013 16/12 Q1021 NOSIG
2026-04-08 07:30:00,METAR LFMN 080730Z 33005KT 310V010 9999 FEW013 15/10 Q1021 NOSIG
2026-04-08 07:00:00,METAR LFMN 080700Z 33006KT 9999 FEW013 14/09 Q1021 NOSIG
2026-04-08 06:30:00,METAR LFMN 080630Z 33008KT 9999 FEW013 13/09 Q1021 NOSIG
2026-04-08 06:00:00,METAR LFMN 080600Z 32009KT 9999 FEW015 12/09 Q1021 NOSIG
2026-04-08 05:30:00,METAR LFMN 080530Z 32009KT 9999 FEW015 11/09 Q1021 NOSIG
2026-04-08 05:00:00,METAR LFMN 080500Z 33006KT 9999 FEW015 11/09 Q1021 NOSIG
2026-04-08 04:30:00,METAR LFMN 080430Z 33007KT CAVOK 11/09 Q1021 NOSIG
2026-04-08 04:00:00,METAR LFMN 080400Z 33007KT CAVOK 11/09 Q1021 NOSIG
2026-04-08 03:30:00,METAR LFMN 080330Z 33006KT CAVOK 12/09 Q1021 NOSIG
2026-04-08 03:00:00,METAR LFMN 080300Z 32007KT CAVOK 12/09 Q1021 NOSIG
2026-04-08 02:30:00,METAR LFMN 080230Z 32007KT CAVOK 11/09 Q1021 NOSIG
2026-04-08 02:00:00,METAR LFMN 080200Z 32007KT CAVOK 12/10 Q1021 NOSIG
2026-04-08 01:30:00,METAR LFMN 080130Z 32006KT CAVOK 12/10 Q1021 NOSIG
2026-04-08 01:00:00,METAR LFMN 080100Z 33006KT CAVOK 12/10 Q1021 NOSIG
2026-04-08 00:30:00,METAR LFMN 080030Z 33006KT CAVOK 12/10 Q1021 NOSIG
2026-04-08 00:00:00,METAR LFMN 080000Z 32006KT CAVOK 13/10 Q1021 NOSIG
2026-04-07 23:30:00,METAR LFMN 072330Z 32006KT CAVOK 13/10 Q1021 NOSIG
2026-04-07 23:00:00,METAR LFMN 072300Z 32006KT CAVOK 13/10 Q1021 NOSIG
2026-04-07 22:30:00,METAR LFMN 072230Z 32007KT CAVOK 13/10 Q1021 NOSIG
2026-04-07 22:00:00,METAR LFMN 072200Z 32007KT CAVOK 13/10 Q1022 NOSIG
2026-04-07 21:30:00,METAR LFMN 072130Z 33005KT CAVOK 14/10 Q1022 NOSIG
2026-04-07 21:00:00,METAR LFMN 072100Z 32005KT CAVOK 14/10 Q1022 NOSIG
2026-04-07 20:30:00,METAR LFMN 072030Z VRB02KT CAVOK 14/10 Q1022 NOSIG
2026-04-07 20:00:00,METAR LFMN 072000Z 13002KT CAVOK 15/12 Q1022 NOSIG
2026-04-07 19:30:00,METAR LFMN 071930Z 13002KT CAVOK 15/12 Q1022 NOSIG
2026-04-07 19:00:00,METAR LFMN 071900Z 13002KT CAVOK 15/12 Q1021 NOSIG
2026-04-07 18:30:00,METAR LFMN 071830Z 14003KT CAVOK 16/12 Q1021 NOSIG
2026-04-07 18:00:00,METAR LFMN 071800Z 16004KT CAVOK 16/11 Q1021 NOSIG
2026-04-07 17:30:00,METAR LFMN 071730Z 16004KT CAVOK 16/11 Q1021 NOSIG
2026-04-07 17:00:00,METAR LFMN 071700Z 15005KT CAVOK 17/11 Q1022 NOSIG
2026-04-07 16:30:00,METAR LFMN 071630Z 13005KT CAVOK 17/11 Q1022 NOSIG
2026-04-07 16:00:00,METAR LFMN 071600Z 13005KT 9999 FEW016 17/12 Q1022 NOSIG
2026-04-07 15:30:00,METAR LFMN 071530Z 12005KT 9999 FEW016 17/12 Q1022 NOSIG
2026-04-07 15:00:00,METAR LFMN 071500Z 14005KT 9999 FEW016 17/13 Q1022 NOSIG
2026-04-07 14:30:00,METAR LFMN 071430Z 14005KT 9999 SCT016 17/13 Q1023 NOSIG
2026-04-07 14:00:00,METAR LFMN 071400Z 15005KT 9999 SCT016 17/13 Q1023 NOSIG
2026-04-07 13:30:00,METAR LFMN 071330Z 15006KT 9999 SCT016 18/13 Q1023 NOSIG
2026-04-07 13:00:00,METAR LFMN 071300Z 16006KT 9999 SCT016 17/13 Q1023 NOSIG
2026-04-07 12:30:00,METAR LFMN 071230Z 15006KT 9999 SCT016 18/13 Q1024 NOSIG
2026-04-07 12:00:00,METAR LFMN 071200Z 15007KT 9999 SCT016 17/13 Q1024 NOSIG
2026-04-07 11:30:00,METAR LFMN 071130Z 14008KT 9999 FEW015 17/13 Q1024 NOSIG
2026-04-07 11:00:00,METAR LFMN 071100Z 14007KT 9999 FEW022 17/13 Q1024 NOSIG
2026-04-07 10:30:00,METAR LFMN 071030Z 13006KT 9999 FEW022 18/13 Q1024 NOSIG
2026-04-07 10:00:00,METAR LFMN 071000Z 11006KT 9999 FEW022 17/12 Q1024 NOSIG
2026-04-07 09:30:00,METAR LFMN 070930Z 13005KT 9999 SCT022 18/12 Q1024 NOSIG
2026-04-07 09:00:00,METAR LFMN 070900Z 17003KT 9999 FEW010 BKN022 18/12 Q1024 NOSIG
2026-04-07 08:30:00,METAR LFMN 070830Z VRB02KT 9999 FEW010 BKN022 17/11 Q1024 NOSIG
2026-04-07 08:00:00,METAR LFMN 070800Z 32003KT 280V360 9999 FEW010 BKN022 17/11 Q1024 NOSIG
2026-04-07 07:30:00,METAR LFMN 070730Z 33004KT 9999 FEW010 BKN021 16/11 Q1024 NOSIG
2026-04-07 07:00:00,METAR LFMN 070700Z 32005KT 9999 FEW010 OVC020 15/10 Q1024 NOSIG
2026-04-07 06:30:00,METAR LFMN 070630Z 32005KT 9999 FEW016 BKN020 15/11 Q1024 NOSIG
2026-04-07 06:00:00,METAR LFMN 070600Z 33004KT 9999 FEW016 BKN023 14/10 Q1024 NOSIG
2026-04-07 05:30:00,METAR LFMN 070530Z 33005KT 9999 FEW016 BKN023 14/11 Q1024 NOSIG
2026-04-07 05:00:00,METAR LFMN 070500Z 34005KT 9999 FEW016 BKN023 14/11 Q1024 NOSIG
2026-04-07 04:30:00,METAR LFMN 070430Z 33003KT 9999 FEW016 BKN024 14/11 Q1024 NOSIG
2026-04-07 04:00:00,METAR LFMN 070400Z 33004KT 9999 FEW016 BKN022 14/11 Q1024 NOSIG
2026-04-07 03:30:00,METAR LFMN 070330Z 34005KT 9999 FEW016 BKN024 14/11 Q1024 NOSIG
2026-04-07 03:00:00,METAR LFMN 070300Z 33005KT 9999 FEW016 BKN024 14/11 Q1024 NOSIG
2026-04-07 02:30:00,METAR LFMN 070230Z 33006KT 9999 FEW016 BKN024 14/11 Q1024 NOSIG
2026-04-07 02:00:00,METAR LFMN 070200Z 33005KT 9999 FEW016 BKN024 14/11 Q1024 NOSIG
2026-04-07 01:30:00,METAR LFMN 070130Z 32006KT 9999 FEW016 BKN024 14/11 Q1024 NOSIG
2026-04-07 01:00:00,METAR LFMN 070100Z 32007KT 9999 FEW016 BKN026 14/11 Q1024 NOSIG
2026-04-07 00:30:00,METAR LFMN 070030Z 32005KT 9999 FEW016 BKN026 13/11 Q1024 NOSIG
2026-04-07 00:00:00,METAR LFMN 070000Z 32006KT 9999 FEW013 13/11 Q1024 NOSIG
2026-04-06 23:30:00,METAR LFMN 062330Z 32005KT 9999 FEW013 13/11 Q1024 NOSIG
2026-04-06 23:00:00,METAR LFMN 062300Z 32005KT 9999 FEW013 13/11 Q1024 NOSIG
2026-04-06 22:30:00,METAR LFMN 062230Z 33004KT 9999 FEW014 14/11 Q1024 NOSIG
2026-04-06 22:00:00,METAR LFMN 062200Z VRB02KT 9999 FEW014 14/11 Q1024 NOSIG
2026-04-06 21:30:00,METAR LFMN 062130Z 00000KT 9999 FEW014 14/12 Q1024 NOSIG
2026-04-06 21:00:00,METAR LFMN 062100Z 10001KT 9999 FEW017 14/12 Q1024 NOSIG
2026-04-06 20:30:00,METAR LFMN 062030Z 09001KT 9999 FEW017 15/13 Q1024 NOSIG
2026-04-06 20:00:00,METAR LFMN 062000Z 08002KT 9999 FEW017 15/13 Q1024 NOSIG
2026-04-06 19:30:00,METAR LFMN 061930Z 00000KT 9999 FEW017 15/13 Q1024 NOSIG
2026-04-06 19:00:00,METAR LFMN 061900Z 00000KT 9999 FEW011 SCT027 15/13 Q1024 NOSIG
2026-04-06 18:30:00,METAR LFMN 061830Z VRB02KT 9999 FEW011 BKN027 15/13 Q1024 NOSIG
2026-04-06 18:00:00,METAR LFMN 061800Z 11004KT 9999 FEW011 BKN028 16/13 Q1024 NOSIG
2026-04-06 17:30:00,METAR LFMN 061730Z 11004KT 9999 FEW011 BKN028 16/13 Q1024 NOSIG
2026-04-06 17:00:00,METAR LFMN 061700Z 12005KT 9999 FEW011 BKN030 16/13 Q1024 NOSIG
2026-04-06 16:30:00,METAR LFMN 061630Z 12005KT 9999 FEW011 BKN033 16/13 Q1024 NOSIG
2026-04-06 16:00:00,METAR LFMN 061600Z COR 11006KT 9999 FEW013 17/13 Q1024 NOSIG
2026-04-06 15:30:00,METAR LFMN 061530Z 12007KT 9999 FEW016 17/12 Q1024 NOSIG
2026-04-06 15:00:00,METAR LFMN 061500Z 12006KT 9999 FEW016 17/13 Q1024 NOSIG
2026-04-06 14:30:00,METAR LFMN 061430Z 11008KT 9999 FEW016 17/13 Q1024 NOSIG
2026-04-06 14:00:00,METAR LFMN 061400Z 11008KT 9999 FEW016 17/13 Q1024 NOSIG
2026-04-06 13:30:00,METAR LFMN 061330Z 11008KT 9999 FEW016 17/13 Q1025 NOSIG
2026-04-06 13:00:00,METAR LFMN 061300Z 12008KT 9999 FEW016 17/13 Q1025 NOSIG
2026-04-06 12:30:00,METAR LFMN 061230Z COR 12006KT 9999 FEW016 17/13 Q1025 NOSIG
2026-04-06 12:00:00,METAR LFMN 061200Z 12006KT 9999 FEW016 17/13 Q1025 NOSIG
2026-04-06 11:30:00,METAR LFMN 061130Z 12006KT 9999 FEW023 17/12 Q1026 NOSIG
2026-04-06 11:00:00,METAR LFMN 061100Z 12006KT 9999 FEW023 17/12 Q1026 NOSIG
2026-04-06 10:30:00,METAR LFMN 061030Z 13006KT 9999 FEW023 17/12 Q1026 NOSIG
2026-04-06 10:00:00,METAR LFMN 061000Z 13005KT 9999 FEW020 SCT200 17/12 Q1026 NOSIG
2026-04-06 09:30:00,METAR LFMN 060930Z 13005KT 9999 FEW020 BKN200 16/12 Q1026 NOSIG
2026-04-06 09:00:00,METAR LFMN 060900Z 15003KT 9999 FEW026 BKN200 17/11 Q1026 NOSIG
2026-04-06 08:30:00,METAR LFMN 060830Z VRB02KT 9999 FEW018 BKN260 17/11 Q1026 NOSIG
2026-04-06 08:00:00,METAR LFMN 060800Z VRB02KT 9999 FEW015 BKN260 16/10 Q1025 NOSIG
2026-04-06 07:30:00,METAR LFMN 060730Z 33005KT 9999 FEW011 BKN260 15/09 Q1025 NOSIG
2026-04-06 07:00:00,METAR LFMN 060700Z 33006KT 9999 FEW011 13/08 Q1025 NOSIG
2026-04-06 06:30:00,METAR LFMN 060630Z 33007KT 9999 FEW011 12/08 Q1025 NOSIG
2026-04-06 06:00:00,METAR LFMN 060600Z 33006KT 9999 FEW011 11/07 Q1025 NOSIG
2026-04-06 05:30:00,METAR LFMN 060530Z 33007KT 9999 FEW017 10/07 Q1025 NOSIG
2026-04-06 05:00:00,METAR LFMN 060500Z 33007KT 9999 FEW015 11/08 Q1024 NOSIG
2026-04-06 04:30:00,METAR LFMN 060430Z 33007KT CAVOK 11/08 Q1024 TEMPO BKN010
2026-04-06 04:00:00,METAR LFMN 060400Z 33007KT CAVOK 11/08 Q1024 TEMPO BKN010
2026-04-06 03:30:00,METAR LFMN 060330Z 32007KT CAVOK 11/08 Q1024 TEMPO BKN010
2026-04-06 03:00:00,METAR LFMN 060300Z 32007KT CAVOK 11/09 Q1024 TEMPO BKN010
2026-04-06 02:30:00,METAR LFMN 060230Z 32006KT CAVOK 11/09 Q1024 TEMPO BKN010
2026-04-06 02:00:00,METAR LFMN 060200Z 32006KT CAVOK 11/09 Q1025 TEMPO BKN010
2026-04-06 01:30:00,METAR LFMN 060130Z 32006KT CAVOK 11/09 Q1024 TEMPO BKN010
2026-04-06 01:00:00,METAR LFMN 060100Z 32007KT CAVOK 12/09 Q1025 TEMPO BKN010
2026-04-06 00:30:00,METAR LFMN 060030Z 32007KT CAVOK 12/10 Q1025 TEMPO BKN010
2026-04-06 00:00:00,METAR LFMN 060000Z 32006KT 9999 FEW020 12/10 Q1025 TEMPO BKN010
2026-04-05 23:30:00,METAR LFMN 052330Z 32006KT 9999 FEW020 12/10 Q1025 TEMPO BKN010
2026-04-05 23:00:00,METAR LFMN 052300Z 32006KT 9999 FEW020 12/10 Q1025 TEMPO BKN010
2026-04-05 22:30:00,METAR LFMN 052230Z 32005KT CAVOK 13/10 Q1025 NOSIG
2026-04-05 22:00:00,METAR LFMN 052200Z 32005KT CAVOK 13/10 Q1024 NOSIG
2026-04-05 21:30:00,METAR LFMN 052130Z VRB02KT CAVOK 14/11 Q1024 NOSIG
2026-04-05 21:00:00,METAR LFMN 052100Z 32003KT CAVOK 14/11 Q1024 NOSIG
2026-04-05 20:30:00,METAR LFMN 052030Z VRB03KT CAVOK 14/11 Q1024 BECMG 33010KT
2026-04-05 20:00:00,METAR LFMN 052000Z 04004KT CAVOK 15/12 Q1024 BECMG 33010KT
2026-04-05 19:30:00,METAR LFMN 051930Z 05007KT CAVOK 15/13 Q1024 NOSIG
2026-04-05 19:00:00,METAR LFMN 051900Z 07006KT 030V090 CAVOK 15/13 Q1024 NOSIG
2026-04-05 18:30:00,METAR LFMN 051830Z 08007KT CAVOK 16/13 Q1024 NOSIG
2026-04-05 18:00:00,METAR LFMN 051800Z 10007KT CAVOK 16/13 Q1023 NOSIG
2026-04-05 17:30:00,METAR LFMN 051730Z 11007KT 9999 FEW009 16/13 Q1024 NOSIG
2026-04-05 17:00:00,METAR LFMN 051700Z 11008KT 9999 FEW009 16/13 Q1024 NOSIG
2026-04-05 16:30:00,METAR LFMN 051630Z 11008KT 9999 FEW009 16/13 Q1024 NOSIG
2026-04-05 16:00:00,METAR LFMN 051600Z 11009KT 9999 FEW009 16/13 Q1024 NOSIG
2026-04-05 15:00:00,METAR LFMN 051500Z 11008KT 9999 FEW009 17/13 Q1024 NOSIG
2026-04-05 13:00:00,METAR LFMN 051300Z 14007KT 9999 FEW009 17/13 Q1025 NOSIG
2026-04-05 12:30:00,METAR LFMN 051230Z 14006KT 9999 FEW009 17/13 Q1025 NOSIG
2026-04-05 12:00:00,METAR LFMN 051200Z 16006KT 9999 FEW009 17/13 Q1025 NOSIG
2026-04-05 11:30:00,METAR LFMN 051130Z 17006KT 9999 FEW009 SCT260 17/13 Q1025 NOSIG
2026-04-05 11:00:00,METAR LFMN 051100Z 16007KT CAVOK 17/13 Q1025 NOSIG
2026-04-05 10:30:00,METAR LFMN 051030Z 15007KT CAVOK 17/12 Q1025 NOSIG
2026-04-05 10:00:00,METAR LFMN 051000Z 13006KT CAVOK 17/13 Q1025 NOSIG
2026-04-05 09:30:00,METAR LFMN 050930Z 13005KT CAVOK 17/12 Q1025 NOSIG
2026-04-05 09:00:00,METAR LFMN 050900Z 13004KT CAVOK 17/10 Q1025 NOSIG
2026-04-05 08:30:00,METAR LFMN 050830Z 11003KT CAVOK 17/09 Q1025 NOSIG
2026-04-05 08:00:00,METAR LFMN 050800Z 08002KT CAVOK 17/09 Q1024 NOSIG
2026-04-05 07:30:00,METAR LFMN 050730Z 33003KT CAVOK 16/05 Q1024 NOSIG
2026-04-05 07:00:00,METAR LFMN 050700Z 32005KT CAVOK 14/05 Q1024 NOSIG
2026-04-05 06:30:00,METAR LFMN 050630Z 33005KT 310V010 CAVOK 13/05 Q1024 NOSIG
2026-04-05 06:00:00,METAR LFMN 050600Z 33005KT CAVOK 12/05 Q1024 NOSIG
2026-04-05 05:30:00,METAR LFMN 050530Z 33004KT CAVOK 12/05 Q1023 NOSIG
2026-04-05 05:00:00,METAR LFMN 050500Z 32006KT CAVOK 11/05 Q1023 NOSIG
2026-04-05 04:30:00,METAR LFMN 050430Z 33006KT CAVOK 11/05 Q1023 NOSIG
2026-04-05 04:00:00,METAR LFMN 050400Z 32006KT CAVOK 11/05 Q1023 NOSIG
2026-04-05 03:30:00,METAR LFMN 050330Z 34003KT CAVOK 12/06 Q1023 NOSIG
2026-04-05 03:00:00,METAR LFMN 050300Z 02003KT CAVOK 12/05 Q1023 NOSIG
2026-04-05 02:30:00,METAR LFMN 050230Z 34004KT CAVOK 13/06 Q1023 NOSIG
2026-04-05 02:00:00,METAR LFMN 050200Z 32005KT CAVOK 13/06 Q1022 NOSIG
2026-04-05 01:30:00,METAR LFMN 050130Z 36003KT CAVOK 12/06 Q1022 NOSIG
2026-04-05 01:00:00,METAR LFMN 050100Z 35004KT CAVOK 13/08 Q1022 NOSIG
2026-04-05 00:30:00,METAR LFMN 050030Z 33003KT CAVOK 13/06 Q1022 NOSIG
2026-04-05 00:00:00,METAR LFMN 050000Z 01004KT CAVOK 13/06 Q1022 NOSIG
2026-04-04 23:30:00,METAR LFMN 042330Z 05006KT CAVOK 14/06 Q1022 NOSIG
2026-04-04 23:00:00,METAR LFMN 042300Z 34004KT CAVOK 13/09 Q1022 NOSIG
2026-04-04 22:30:00,METAR LFMN 042230Z 02003KT CAVOK 14/07 Q1022 NOSIG
2026-04-04 22:00:00,METAR LFMN 042200Z 34005KT CAVOK 15/07 Q1022 NOSIG
2026-04-04 21:30:00,METAR LFMN 042130Z 33004KT CAVOK 14/08 Q1022 NOSIG
2026-04-04 21:00:00,METAR LFMN 042100Z 33005KT CAVOK 14/09 Q1022 NOSIG
2026-04-04 20:30:00,METAR LFMN 042030Z 30003KT CAVOK 14/10 Q1021 NOSIG
2026-04-04 20:00:00,METAR LFMN 042000Z 28003KT CAVOK 15/13 Q1021 NOSIG
2026-04-04 19:30:00,METAR LFMN 041930Z VRB02KT CAVOK 15/13 Q1021 NOSIG
2026-04-04 19:00:00,METAR LFMN 041900Z 00000KT CAVOK 15/13 Q1021 NOSIG
2026-04-04 18:30:00,METAR LFMN 041830Z VRB02KT CAVOK 16/13 Q1021 NOSIG
2026-04-04 18:00:00,METAR LFMN 041800Z VRB02KT CAVOK 16/13 Q1021 NOSIG
2026-04-04 17:30:00,METAR LFMN 041730Z 16003KT CAVOK 17/13 Q1021 NOSIG
2026-04-04 17:00:00,METAR LFMN 041700Z VRB02KT CAVOK 17/13 Q1021 NOSIG
2026-04-04 16:30:00,METAR LFMN 041630Z 17003KT CAVOK 17/14 Q1021 NOSIG
2026-04-04 16:00:00,METAR LFMN 041600Z 14003KT CAVOK 17/14 Q1021 NOSIG
2026-04-04 15:30:00,METAR LFMN 041530Z 14004KT CAVOK 17/14 Q1021 NOSIG
2026-04-04 15:00:00,METAR LFMN 041500Z 16005KT CAVOK 17/13 Q1021 NOSIG
2026-04-04 14:30:00,METAR LFMN 041430Z 15006KT CAVOK 18/13 Q1021 NOSIG
2026-04-04 14:00:00,METAR LFMN 041400Z 13006KT CAVOK 18/13 Q1021 NOSIG
2026-04-04 13:30:00,METAR LFMN 041330Z 13006KT CAVOK 18/12 Q1021 NOSIG
2026-04-04 13:00:00,METAR LFMN 041300Z 12006KT CAVOK 18/12 Q1022 NOSIG
2026-04-04 12:30:00,METAR LFMN 041230Z 11008KT CAVOK 18/11 Q1022 NOSIG
2026-04-04 12:00:00,METAR LFMN 041200Z 11009KT CAVOK 18/11 Q1022 NOSIG
2026-04-04 11:30:00,METAR LFMN 041130Z 11006KT CAVOK 18/10 Q1021 NOSIG
2026-04-04 11:00:00,METAR LFMN 041100Z 10004KT CAVOK 17/11 Q1021 NOSIG
2026-04-04 10:30:00,METAR LFMN 041030Z 10004KT CAVOK 18/10 Q1021 NOSIG
2026-04-04 10:00:00,METAR LFMN 041000Z 12004KT CAVOK 18/09 Q1021 NOSIG
2026-04-04 09:30:00,METAR LFMN 040930Z 15003KT 120V180 CAVOK 17/08 Q1021 NOSIG
2026-04-04 09:00:00,METAR LFMN 040900Z 12003KT CAVOK 17/06 Q1021 NOSIG
2026-04-04 08:30:00,METAR LFMN 040830Z 06003KT 040V100 CAVOK 17/04 Q1021 NOSIG
2026-04-04 08:00:00,METAR LFMN 040800Z 06004KT 030V100 CAVOK 18/03 Q1020 NOSIG
2026-04-04 07:30:00,METAR LFMN 040730Z 04005KT CAVOK 17/01 Q1020 NOSIG
2026-04-04 07:00:00,METAR LFMN 040700Z 01004KT 320V070 CAVOK 16/M00 Q1020 NOSIG
2026-04-04 06:30:00,METAR LFMN 040630Z 34010KT CAVOK 14/00 Q1020 NOSIG
2026-04-04 06:00:00,METAR LFMN 040600Z 33008KT CAVOK 13/00 Q1019 NOSIG
2026-04-04 05:30:00,METAR LFMN 040530Z 34008KT CAVOK 12/00 Q1019 NOSIG
2026-04-04 05:00:00,METAR LFMN 040500Z 35009KT CAVOK 12/00 Q1018 NOSIG
2026-04-04 04:30:00,METAR LFMN 040430Z 35006KT CAVOK 13/M00 Q1018 NOSIG
2026-04-04 04:00:00,METAR LFMN 040400Z 34008KT CAVOK 13/M00 Q1018 NOSIG
2026-04-04 03:30:00,METAR LFMN 040330Z 34011KT CAVOK 14/M00 Q1018 NOSIG
2026-04-04 03:00:00,METAR LFMN 040300Z 33013KT CAVOK 13/00 Q1017 NOSIG
2026-04-04 02:30:00,METAR LFMN 040230Z 34011KT CAVOK 13/00 Q1017 NOSIG
2026-04-04 02:00:00,METAR LFMN 040200Z 34011KT CAVOK 13/01 Q1017 NOSIG
2026-04-04 01:30:00,METAR LFMN 040130Z 01005KT 330V030 CAVOK 14/01 Q1017 NOSIG
2026-04-04 01:00:00,METAR LFMN 040100Z 35005KT CAVOK 14/00 Q1017 NOSIG
2026-04-04 00:30:00,METAR LFMN 040030Z 35005KT 320V020 CAVOK 14/01 Q1017 NOSIG
2026-04-04 00:00:00,METAR LFMN 040000Z 33005KT CAVOK 13/01 Q1017 NOSIG
2026-04-03 23:30:00,METAR LFMN 032330Z 01004KT CAVOK 13/01 Q1017 NOSIG
2026-04-03 23:00:00,METAR LFMN 032300Z 36004KT CAVOK 13/01 Q1017 NOSIG
2026-04-03 22:30:00,METAR LFMN 032230Z 33005KT CAVOK 13/01 Q1016 NOSIG
2026-04-03 22:00:00,METAR LFMN 032200Z 35005KT CAVOK 13/01 Q1016 NOSIG
2026-04-03 21:30:00,METAR LFMN 032130Z 03008KT CAVOK 14/01 Q1016 NOSIG
2026-04-03 21:00:00,METAR LFMN 032100Z 34006KT CAVOK 14/01 Q1016 NOSIG
2026-04-03 20:30:00,METAR LFMN 032030Z 33004KT CAVOK 14/02 Q1016 NOSIG
2026-04-03 20:00:00,METAR LFMN 032000Z 32005KT 310V010 CAVOK 14/02 Q1016 NOSIG
2026-04-03 19:30:00,METAR LFMN 031930Z 04006KT CAVOK 15/04 Q1015 NOSIG
2026-04-03 19:00:00,METAR LFMN 031900Z 04005KT CAVOK 15/08 Q1015 NOSIG
2026-04-03 18:30:00,METAR LFMN 031830Z 05003KT CAVOK 16/09 Q1015 NOSIG
2026-04-03 18:00:00,METAR LFMN 031800Z 11002KT CAVOK 16/10 Q1015 NOSIG
2026-04-03 17:30:00,METAR LFMN 031730Z 14002KT CAVOK 17/09 Q1014 NOSIG
2026-04-03 17:00:00,METAR LFMN 031700Z VRB02KT CAVOK 17/10 Q1014 NOSIG
2026-04-03 16:30:00,METAR LFMN 031630Z 20004KT CAVOK 17/10 Q1014 NOSIG
2026-04-03 16:00:00,METAR LFMN 031600Z 21006KT CAVOK 17/10 Q1014 NOSIG
2026-04-03 15:30:00,METAR LFMN 031530Z 20006KT CAVOK 17/10 Q1014 NOSIG
2026-04-03 15:00:00,METAR LFMN 031500Z 20007KT CAVOK 17/12 Q1014 NOSIG
2026-04-03 14:30:00,METAR LFMN 031430Z 20008KT CAVOK 17/12 Q1014 NOSIG
2026-04-03 14:00:00,METAR LFMN 031400Z 19007KT CAVOK 18/09 Q1013 NOSIG
2026-04-03 13:30:00,METAR LFMN 031330Z 18007KT CAVOK 18/09 Q1013 NOSIG
2026-04-03 13:00:00,METAR LFMN 031300Z 19008KT CAVOK 18/09 Q1014 NOSIG
2026-04-03 12:30:00,METAR LFMN 031230Z 19009KT CAVOK 18/10 Q1013 NOSIG
2026-04-03 12:00:00,METAR LFMN 031200Z 19008KT CAVOK 18/09 Q1014 NOSIG
2026-04-03 11:30:00,METAR LFMN 031130Z 20009KT CAVOK 17/10 Q1013 NOSIG
2026-04-03 11:00:00,METAR LFMN 031100Z 20008KT CAVOK 18/09 Q1013 NOSIG
2026-04-03 10:30:00,METAR LFMN 031030Z 19006KT CAVOK 20/07 Q1013 NOSIG
2026-04-03 10:00:00,METAR LFMN 031000Z 17004KT CAVOK 20/05 Q1013 NOSIG
2026-04-03 09:30:00,METAR LFMN 030930Z 30003KT 210V350 CAVOK 20/M04 Q1013 BECMG 19010KT
2026-04-03 09:00:00,METAR LFMN 030900Z 33008KT 290V360 CAVOK 19/M01 Q1013 BECMG 19010KT
2026-04-03 08:30:00,METAR LFMN 030830Z 32010KT CAVOK 17/M00 Q1013 NOSIG
2026-04-03 08:00:00,METAR LFMN 030800Z 33012KT CAVOK 16/M01 Q1013 NOSIG
2026-04-03 07:30:00,METAR LFMN 030730Z 33009KT CAVOK 14/M01 Q1013 NOSIG
2026-04-03 07:00:00,METAR LFMN 030700Z 34008KT CAVOK 13/M01 Q1012 NOSIG
2026-04-03 06:30:00,METAR LFMN 030630Z 35010KT CAVOK 12/M01 Q1012 NOSIG
2026-04-03 06:00:00,METAR LFMN 030600Z 33015KT CAVOK 11/M01 Q1011 NOSIG
2026-04-03 05:30:00,METAR LFMN 030530Z 32016KT CAVOK 11/M00 Q1011 NOSIG
2026-04-03 05:00:00,METAR LFMN 030500Z 33011KT CAVOK 11/M00 Q1011 NOSIG
2026-04-03 04:30:00,METAR LFMN 030430Z 33012KT CAVOK 11/00 Q1011 NOSIG
2026-04-03 04:00:00,METAR LFMN 030400Z 34010KT CAVOK 11/00 Q1010 NOSIG
2026-04-03 03:30:00,METAR LFMN 030330Z 34009KT CAVOK 11/01 Q1010 NOSIG
2026-04-03 03:00:00,METAR LFMN 030300Z 34011KT CAVOK 11/01 Q1010 NOSIG
2026-04-03 02:30:00,METAR LFMN 030230Z 34010KT CAVOK 11/01 Q1010 NOSIG
2026-04-03 02:00:00,METAR LFMN 030200Z 34010KT CAVOK 11/01 Q1009 NOSIG
2026-04-03 01:30:00,METAR LFMN 030130Z 34009KT CAVOK 12/02 Q1009 NOSIG
2026-04-03 01:00:00,METAR LFMN 030100Z 35008KT CAVOK 12/02 Q1009 NOSIG
2026-04-03 00:30:00,METAR LFMN 030030Z 35008KT CAVOK 12/02 Q1009 NOSIG
2026-04-03 00:00:00,METAR LFMN 030000Z 34010KT CAVOK 12/02 Q1009 NOSIG
2026-04-02 23:30:00,METAR LFMN 022330Z 34008KT CAVOK 12/02 Q1009 NOSIG
2026-04-02 23:00:00,METAR LFMN 022300Z 34007KT CAVOK 12/02 Q1008 NOSIG
2026-04-02 22:30:00,METAR LFMN 022230Z 33007KT CAVOK 12/03 Q1008 NOSIG
2026-04-02 22:00:00,METAR LFMN 022200Z 33009KT CAVOK 13/02 Q1008 NOSIG
2026-04-02 21:30:00,METAR LFMN 022130Z 33008KT CAVOK 12/02 Q1008 NOSIG
2026-04-02 21:00:00,METAR LFMN 022100Z 34007KT CAVOK 13/02 Q1008 NOSIG
2026-04-02 20:30:00,METAR LFMN 022030Z 34008KT CAVOK 12/03 Q1008 NOSIG
2026-04-02 20:00:00,METAR LFMN 022000Z 33007KT CAVOK 13/02 Q1007 NOSIG
2026-04-02 19:30:00,METAR LFMN 021930Z 32010KT CAVOK 13/03 Q1007 NOSIG
2026-04-02 19:00:00,METAR LFMN 021900Z 33004KT CAVOK 14/04 Q1007 NOSIG
2026-04-02 18:30:00,METAR LFMN 021830Z 27003KT 250V330 CAVOK 14/07 Q1007 NOSIG
2026-04-02 18:00:00,METAR LFMN 021800Z 26006KT 230V290 CAVOK 14/05 Q1006 NOSIG
2026-04-02 17:30:00,METAR LFMN 021730Z 21005KT CAVOK 15/04 Q1006 NOSIG
2026-04-02 17:00:00,METAR LFMN 021700Z 21007KT CAVOK 15/05 Q1006 NOSIG
2026-04-02 16:30:00,METAR LFMN 021630Z 22006KT CAVOK 16/04 Q1005 NOSIG
2026-04-02 16:00:00,METAR LFMN 021600Z 21007KT CAVOK 16/06 Q1005 NOSIG
2026-04-02 15:30:00,METAR LFMN 021530Z 19006KT CAVOK 16/05 Q1005 NOSIG
2026-04-02 15:00:00,METAR LFMN 021500Z 18006KT CAVOK 16/06 Q1005 NOSIG
2026-04-02 14:30:00,METAR LFMN 021430Z 18007KT CAVOK 17/05 Q1005 NOSIG
2026-04-02 14:00:00,METAR LFMN 021400Z 17006KT CAVOK 17/06 Q1005 NOSIG
2026-04-02 13:30:00,METAR LFMN 021330Z 19007KT CAVOK 16/07 Q1005 NOSIG
2026-04-02 13:00:00,METAR LFMN 021300Z 19007KT CAVOK 16/07 Q1006 NOSIG
2026-04-02 12:30:00,METAR LFMN 021230Z 17008KT CAVOK 16/06 Q1006 NOSIG
2026-04-02 12:00:00,METAR LFMN 021200Z 19008KT CAVOK 16/05 Q1006 NOSIG
2026-04-02 11:30:00,METAR LFMN 021130Z 18008KT CAVOK 16/05 Q1006 NOSIG
2026-04-02 11:00:00,METAR LFMN 021100Z 18007KT CAVOK 16/03 Q1006 NOSIG
2026-04-02 10:30:00,METAR LFMN 021030Z 19006KT CAVOK 16/03 Q1006 NOSIG
2026-04-02 10:00:00,METAR LFMN 021000Z 20006KT CAVOK 16/02 Q1006 NOSIG
2026-04-02 09:30:00,METAR LFMN 020930Z 21008KT CAVOK 15/01 Q1006 NOSIG
2026-04-02 09:00:00,METAR LFMN 020900Z 32005KT 280V350 CAVOK 17/M04 Q1006 NOSIG
2026-04-02 08:30:00,METAR LFMN 020830Z 32006KT 290V360 CAVOK 16/M03 Q1006 NOSIG
2026-04-02 08:00:00,METAR LFMN 020800Z 33010KT CAVOK 14/M03 Q1006 NOSIG
2026-04-02 07:30:00,METAR LFMN 020730Z 33012KT CAVOK 13/M04 Q1006 NOSIG
2026-04-02 07:00:00,METAR LFMN 020700Z 33011KT CAVOK 11/M04 Q1007 NOSIG
2026-04-02 06:30:00,METAR LFMN 020630Z 34011KT CAVOK 10/M04 Q1007 NOSIG
2026-04-02 06:00:00,METAR LFMN 020600Z 35009KT CAVOK 09/M05 Q1007 NOSIG
2026-04-02 05:30:00,METAR LFMN 020530Z 34010KT CAVOK 09/M05 Q1006 NOSIG
2026-04-02 05:00:00,METAR LFMN 020500Z 35009KT CAVOK 09/M05 Q1006 NOSIG
2026-04-02 04:30:00,METAR LFMN 020430Z 33015KT 9999 FEW110 09/M05 Q1006 NOSIG
2026-04-02 04:00:00,METAR LFMN 020400Z 34012KT 9999 FEW110 09/M05 Q1007 NOSIG
2026-04-02 03:30:00,METAR LFMN 020330Z 34009KT 9999 FEW110 09/M05 Q1007 NOSIG
2026-04-02 03:00:00,METAR LFMN 020300Z 35008KT 9999 FEW110 09/M05 Q1007 NOSIG
2026-04-02 02:30:00,METAR LFMN 020230Z 33010KT 9999 FEW110 09/M05 Q1007 NOSIG
2026-04-02 02:00:00,METAR LFMN 020200Z 33011KT 9999 FEW110 10/M05 Q1008 NOSIG
2026-04-02 01:30:00,METAR LFMN 020130Z 33012KT CAVOK 10/M05 Q1008 NOSIG
2026-04-02 01:00:00,METAR LFMN 020100Z 33009KT CAVOK 10/M05 Q1008 NOSIG
2026-04-02 00:30:00,METAR LFMN 020030Z 33008KT CAVOK 10/M05 Q1008 NOSIG
2026-04-02 00:00:00,METAR LFMN 020000Z 33005KT 290V010 CAVOK 10/M05 Q1009 NOSIG
2026-04-01 23:30:00,METAR LFMN 012330Z 34010KT CAVOK 11/M05 Q1009 NOSIG
2026-04-01 23:00:00,METAR LFMN 012300Z 33010KT CAVOK 11/M05 Q1009 NOSIG
2026-04-01 22:30:00,METAR LFMN 012230Z 34010KT CAVOK 11/M05 Q1009 NOSIG
2026-04-01 22:00:00,METAR LFMN 012200Z 33010KT CAVOK 11/M05 Q1010 NOSIG
2026-04-01 21:30:00,METAR LFMN 012130Z 32011KT 9999 FEW100 11/M01 Q1010 NOSIG
2026-04-01 21:00:00,METAR LFMN 012100Z 31009KT 9999 FEW100 11/M01 Q1010 NOSIG
2026-04-01 20:30:00,METAR LFMN 012030Z 31006KT 9999 FEW110 12/03 Q1010 NOSIG
2026-04-01 20:00:00,METAR LFMN 012000Z 29006KT 9999 FEW110 12/M02 Q1010 NOSIG
2026-04-01 19:30:00,METAR LFMN 011930Z 26005KT 9999 SCT110 13/04 Q1010 NOSIG
2026-04-01 19:00:00,METAR LFMN 011900Z 22004KT 9999 SCT110 14/03 Q1010 NOSIG
2026-04-01 18:30:00,METAR LFMN 011830Z 22005KT 9999 FEW110 14/02 Q1010 NOSIG
2026-04-01 18:00:00,METAR LFMN 011800Z 25006KT 9999 FEW110 14/01 Q1010 NOSIG
2026-04-01 17:30:00,METAR LFMN 011730Z 23007KT 9999 FEW110 15/02 Q1009 NOSIG
2026-04-01 17:00:00,METAR LFMN 011700Z 22006KT CAVOK 15/M01 Q1009 NOSIG
2026-04-01 16:30:00,METAR LFMN 011630Z 23008KT CAVOK 15/01 Q1009 NOSIG
2026-04-01 16:00:00,METAR LFMN 011600Z 23009KT 9999 FEW110 16/M01 Q1009 NOSIG
2026-04-01 15:30:00,METAR LFMN 011530Z 22010KT 9999 FEW110 16/M01 Q1009 NOSIG
2026-04-01 15:00:00,METAR LFMN 011500Z 21009KT CAVOK 16/01 Q1009 NOSIG
2026-04-01 14:00:00,METAR LFMN 011400Z 22010KT 190V250 CAVOK 16/M02 Q1009 NOSIG
2026-04-01 13:30:00,METAR LFMN 011330Z 21010KT CAVOK 16/M03 Q1010 NOSIG
2026-04-01 13:00:00,METAR LFMN 011300Z 21009KT CAVOK 16/M04 Q1010 NOSIG
2026-04-01 12:30:00,METAR LFMN 011230Z 22011KT CAVOK 16/M02 Q1010 NOSIG
2026-04-01 12:00:00,METAR LFMN 011200Z 21010KT CAVOK 15/M04 Q1010 NOSIG
2026-04-01 11:30:00,METAR LFMN 011130Z 20011KT CAVOK 14/M00 Q1011 NOSIG
2026-04-01 11:00:00,METAR LFMN 011100Z 19010KT CAVOK 15/00 Q1011 NOSIG
2026-04-01 10:30:00,METAR LFMN 011030Z 18009KT CAVOK 15/M02 Q1011 NOSIG
2026-04-01 10:00:00,METAR LFMN 011000Z 19007KT CAVOK 15/M03 Q1012 NOSIG
2026-04-01 09:30:00,METAR LFMN 010930Z 17005KT CAVOK 15/M07 Q1012 NOSIG
2026-04-01 09:00:00,METAR LFMN 010900Z 13003KT CAVOK 15/M10 Q1012 NOSIG
2026-04-01 08:30:00,METAR LFMN 010830Z 32005KT CAVOK 14/M10 Q1012 NOSIG
2026-04-01 08:00:00,METAR LFMN 010800Z 33009KT CAVOK 12/M08 Q1012 NOSIG
2026-04-01 07:30:00,METAR LFMN 010730Z 33009KT CAVOK 11/M09 Q1012 NOSIG
2026-04-01 07:00:00,METAR LFMN 010700Z 33009KT CAVOK 09/M08 Q1012 NOSIG
2026-04-01 06:30:00,METAR LFMN 010630Z 33009KT CAVOK 08/M09 Q1013 NOSIG
2026-04-01 06:04:00,METAR LFMN 010604Z COR 33009KT CAVOK 07/M08 Q1013 NOSIG
2026-04-01 06:00:00,METAR LFMN 010600Z 34010KT CAVOK 07/M09 Q1013 NOSIG
2026-04-01 05:30:00,METAR LFMN 010530Z 33010KT CAVOK 06/M08 Q1013 NOSIG
2026-04-01 05:00:00,METAR LFMN 010500Z 33009KT CAVOK 06/M08 Q1013 NOSIG
2026-04-01 04:30:00,METAR LFMN 010430Z 33009KT CAVOK 06/M08 Q1013 NOSIG
2026-04-01 04:00:00,METAR LFMN 010400Z 34008KT CAVOK 07/M08 Q1013 NOSIG
2026-04-01 03:30:00,METAR LFMN 010330Z 35005KT 320V040 CAVOK 06/M07 Q1013 NOSIG
2026-04-01 03:00:00,METAR LFMN 010300Z 32008KT CAVOK 06/M07 Q1013 NOSIG
2026-04-01 02:30:00,METAR LFMN 010230Z 32007KT CAVOK 06/M07 Q1014 NOSIG
2026-04-01 02:00:00,METAR LFMN 010200Z 32006KT CAVOK 07/M06 Q1014 NOSIG
2026-04-01 01:30:00,METAR LFMN 010130Z 32008KT CAVOK 07/M07 Q1014 NOSIG
2026-04-01 01:00:00,METAR LFMN 010100Z 32008KT CAVOK 07/M07 Q1014 NOSIG
2026-04-01 00:30:00,METAR LFMN 010030Z 33006KT CAVOK 08/M08 Q1014 NOSIG
2026-04-01 00:00:00,METAR LFMN 010000Z 32007KT CAVOK 09/M08 Q1015 NOSIG
2026-03-31 23:30:00,METAR LFMN 312330Z 05010KT 010V070 CAVOK 13/M10 Q1015 NOSIG
2026-03-31 23:00:00,METAR LFMN 312300Z 06013KT CAVOK 13/M11 Q1015 NOSIG
2026-03-31 22:30:00,METAR LFMN 312230Z 06012KT CAVOK 13/M12 Q1015 NOSIG
2026-03-31 22:00:00,METAR LFMN 312200Z 06010KT 020V090 CAVOK 13/M10 Q1015 NOSIG
2026-03-31 21:30:00,METAR LFMN 312130Z 02010KT CAVOK 13/M12 Q1015 NOSIG
2026-03-31 21:00:00,METAR LFMN 312100Z 01013KT CAVOK 14/M13 Q1015 NOSIG
2026-03-31 20:30:00,METAR LFMN 312030Z 02013KT CAVOK 14/M13 Q1015 NOSIG
2026-03-31 20:00:00,METAR LFMN 312000Z 03013KT CAVOK 14/M12 Q1014 NOSIG
2026-03-31 19:30:00,METAR LFMN 311930Z 36010KT CAVOK 14/M11 Q1014 NOSIG
2026-03-31 19:00:00,METAR LFMN 311900Z 01010KT CAVOK 15/M11 Q1014 NOSIG
2026-03-31 18:30:00,METAR LFMN 311830Z 01011KT CAVOK 15/M12 Q1013 NOSIG
2026-03-31 18:00:00,METAR LFMN 311800Z 03019KT CAVOK 15/M11 Q1013 NOSIG
2026-03-31 17:30:00,METAR LFMN 311730Z 04021KT CAVOK 16/M08 Q1012 NOSIG
2026-03-31 17:00:00,METAR LFMN 311700Z 05019KT CAVOK 16/M10 Q1012 NOSIG
2026-03-31 16:30:00,METAR LFMN 311630Z 04016KT CAVOK 17/M09 Q1011 NOSIG
2026-03-31 16:00:00,METAR LFMN 311600Z 06016KT CAVOK 18/M09 Q1011 NOSIG
2026-03-31 15:30:00,METAR LFMN 311530Z 07018KT CAVOK 17/M08 Q1011 NOSIG
2026-03-31 15:00:00,METAR LFMN 311500Z 05017KT CAVOK 18/M06 Q1011 NOSIG
2026-03-31 14:30:00,METAR LFMN 311430Z 06013KT CAVOK 18/M02 Q1011 NOSIG
2026-03-31 14:00:00,METAR LFMN 311400Z 08016KT 040V110 CAVOK 18/M03 Q1012 NOSIG
2026-03-31 13:30:00,METAR LFMN 311330Z 04015KT CAVOK 19/M15 Q1012 NOSIG
2026-03-31 13:00:00,METAR LFMN 311300Z 07014KT 360V100 CAVOK 18/M08 Q1012 NOSIG
2026-03-31 12:30:00,METAR LFMN 311230Z 06015KT 9999 FEW120 19/M09 Q1013 NOSIG
2026-03-31 12:00:00,METAR LFMN 311200Z 05012KT 9999 FEW120 18/M13 Q1013 NOSIG
2026-03-31 11:30:00,METAR LFMN 311130Z 04012G23KT 010V080 9999 FEW120 18/M12 Q1013 NOSIG
2026-03-31 11:00:00,METAR LFMN 311100Z 04014KT 360V060 9999 FEW120 18/M12 Q1014 NOSIG
2026-03-31 10:30:00,METAR LFMN 311030Z 04017KT 9999 FEW120 18/M11 Q1014 NOSIG
2026-03-31 10:00:00,METAR LFMN 311000Z 02015KT 350V050 9999 FEW050 16/M10 Q1014 NOSIG
2026-03-31 09:30:00,METAR LFMN 310930Z 01011KT 330V040 9999 FEW050 17/M09 Q1014 NOSIG
2026-03-31 09:00:00,METAR LFMN 310900Z 35017KT 9999 FEW050 17/M09 Q1014 NOSIG
2026-03-31 08:30:00,METAR LFMN 310830Z 01016KT 9999 FEW050 17/M09 Q1014 NOSIG
2026-03-31 08:00:00,METAR LFMN 310800Z 36013KT 330V030 CAVOK 16/M06 Q1013 NOSIG
2026-03-31 07:30:00,METAR LFMN 310730Z 30004KT 260V360 CAVOK 14/M04 Q1013 NOSIG
2026-03-31 07:00:00,METAR LFMN 310700Z 33005KT CAVOK 12/M03 Q1013 NOSIG
2026-03-31 06:30:00,METAR LFMN 310630Z 34005KT CAVOK 11/M03 Q1013 NOSIG
2026-03-31 06:00:00,METAR LFMN 310600Z 33008KT CAVOK 10/M03 Q1013 NOSIG
2026-03-31 05:30:00,METAR LFMN 310530Z 35005KT 320V020 CAVOK 09/M03 Q1013 NOSIG
2026-03-31 05:00:00,METAR LFMN 310500Z 31008KT CAVOK 09/M03 Q1012 NOSIG
2026-03-31 04:30:00,METAR LFMN 310430Z 34006KT CAVOK 09/M02 Q1012 NOSIG
2026-03-31 04:00:00,METAR LFMN 310400Z 33006KT CAVOK 09/M03 Q1012 NOSIG
2026-03-31 03:30:00,METAR LFMN 310330Z 33006KT CAVOK 10/M02 Q1012 NOSIG
2026-03-31 03:00:00,METAR LFMN 310300Z 32008KT CAVOK 09/M01 Q1012 NOSIG
2026-03-31 02:30:00,METAR LFMN 310230Z 33007KT CAVOK 09/M01 Q1012 NOSIG
2026-03-31 02:00:00,METAR LFMN 310200Z 32005KT CAVOK 10/M01 Q1012 NOSIG
2026-03-31 01:30:00,METAR LFMN 310130Z 33008KT CAVOK 10/01 Q1011 NOSIG
2026-03-31 01:00:00,METAR LFMN 310100Z 33010KT CAVOK 10/04 Q1011 NOSIG
2026-03-31 00:30:00,METAR LFMN 310030Z 34006KT CAVOK 10/04 Q1011 NOSIG
2026-03-31 00:00:00,METAR LFMN 310000Z 33007KT CAVOK 10/06 Q1011 NOSIG
2026-03-30 23:30:00,METAR LFMN 302330Z 32009KT CAVOK 10/07 Q1011 NOSIG
2026-03-30 23:00:00,METAR LFMN 302300Z 33010KT CAVOK 10/07 Q1011 NOSIG
2026-03-30 22:30:00,METAR LFMN 302230Z 32010KT CAVOK 11/07 Q1011 NOSIG
2026-03-30 22:00:00,METAR LFMN 302200Z 34007KT CAVOK 11/07 Q1011 NOSIG
2026-03-30 21:30:00,METAR LFMN 302130Z 33007KT CAVOK 12/08 Q1010 NOSIG
2026-03-30 21:00:00,METAR LFMN 302100Z 32005KT CAVOK 12/08 Q1010 NOSIG
2026-03-30 20:30:00,METAR LFMN 302030Z 31006KT CAVOK 13/08 Q1010 NOSIG
2026-03-30 20:00:00,METAR LFMN 302000Z 25008KT CAVOK 13/09 Q1009 NOSIG
2026-03-30 19:30:00,METAR LFMN 301930Z 16006KT CAVOK 14/09 Q1009 NOSIG
2026-03-30 19:00:00,METAR LFMN 301900Z 09006KT CAVOK 14/09 Q1009 NOSIG
2026-03-30 18:30:00,METAR LFMN 301830Z 09010KT CAVOK 14/08 Q1008 NOSIG
2026-03-30 18:00:00,METAR LFMN 301800Z 09013KT CAVOK 14/08 Q1008 NOSIG
2026-03-30 17:30:00,METAR LFMN 301730Z 08012KT CAVOK 15/09 Q1007 NOSIG
2026-03-30 17:00:00,METAR LFMN 301700Z 08015KT CAVOK 15/09 Q1007 NOSIG
2026-03-30 16:30:00,METAR LFMN 301630Z 09015KT CAVOK 15/09 Q1006 NOSIG
2026-03-30 16:00:00,METAR LFMN 301600Z 09015KT 9999 FEW083 16/08 Q1006 NOSIG
2026-03-30 15:30:00,METAR LFMN 301530Z 10010KT 9999 FEW083 16/09 Q1006 NOSIG
2026-03-30 15:00:00,METAR LFMN 301500Z 13008KT 9999 FEW083 16/08 Q1007 NOSIG
2026-03-30 14:30:00,METAR LFMN 301430Z 12008KT 9999 FEW083 17/09 Q1008 NOSIG
2026-03-30 14:00:00,METAR LFMN 301400Z 15009KT 110V170 9999 FEW083 16/08 Q1008 NOSIG
2026-03-30 13:30:00,METAR LFMN 301330Z 09007KT CAVOK 17/06 Q1009 NOSIG
2026-03-30 13:00:00,METAR LFMN 301300Z 12004KT 080V170 CAVOK 18/05 Q1010 NOSIG
2026-03-30 12:30:00,METAR LFMN 301230Z 17005KT CAVOK 17/09 Q1010 BECMG 09010KT
2026-03-30 12:00:00,METAR LFMN 301200Z 19007KT 160V220 CAVOK 17/07 Q1011 BECMG 09010KT
2026-03-30 11:30:00,METAR LFMN 301130Z 18008KT CAVOK 17/06 Q1012 NOSIG
2026-03-30 11:00:00,METAR LFMN 301100Z VRB03KT CAVOK 17/05 Q1013 NOSIG
2026-03-30 10:30:00,METAR LFMN 301030Z 08004KT 050V110 CAVOK 17/07 Q1014 NOSIG
2026-03-30 10:00:00,METAR LFMN 301000Z 17007KT CAVOK 15/07 Q1014 NOSIG
2026-03-30 09:30:00,METAR LFMN 300930Z 17007KT CAVOK 15/06 Q1015 NOSIG
2026-03-30 09:00:00,METAR LFMN 300900Z 20006KT 180V240 CAVOK 15/03 Q1015 NOSIG
2026-03-30 08:30:00,METAR LFMN 300830Z 29007KT 250V340 CAVOK 15/01 Q1016 NOSIG
2026-03-30 08:00:00,METAR LFMN 300800Z 32010KT CAVOK 14/M00 Q1016 NOSIG
2026-03-30 07:30:00,METAR LFMN 300730Z 32011KT CAVOK 13/00 Q1016 NOSIG
2026-03-30 07:00:00,METAR LFMN 300700Z 33010KT 310V040 CAVOK 12/00 Q1016 NOSIG
2026-03-30 06:30:00,METAR LFMN 300630Z 33009KT CAVOK 11/M00 Q1017 NOSIG
2026-03-30 06:00:00,METAR LFMN 300600Z 33011KT CAVOK 11/M00 Q1017 NOSIG
2026-03-30 05:30:00,METAR LFMN 300530Z 34009KT CAVOK 11/M00 Q1017 NOSIG
2026-03-30 05:00:00,METAR LFMN 300500Z 33009KT CAVOK 11/M00 Q1017 NOSIG
2026-03-30 04:30:00,METAR LFMN 300430Z 34009KT CAVOK 11/M00 Q1018 NOSIG
2026-03-30 04:00:00,METAR LFMN 300400Z 35007KT CAVOK 11/M00 Q1018 NOSIG
2026-03-30 03:30:00,METAR LFMN 300330Z 35007KT CAVOK 11/M00 Q1018 NOSIG
2026-03-30 03:00:00,METAR LFMN 300300Z 34011KT CAVOK 11/M00 Q1018 NOSIG
2026-03-30 02:30:00,METAR LFMN 300230Z 34010KT CAVOK 12/00 Q1018 NOSIG
2026-03-30 02:00:00,METAR LFMN 300200Z 34009KT CAVOK 12/00 Q1018 NOSIG
2026-03-30 01:30:00,METAR LFMN 300130Z 34011KT CAVOK 12/00 Q1018 NOSIG
2026-03-30 01:00:00,METAR LFMN 300100Z 34010KT CAVOK 12/M00 Q1019 NOSIG
2026-03-30 00:30:00,METAR LFMN 300030Z 34006KT CAVOK 12/00 Q1019 NOSIG
2026-03-30 00:00:00,METAR LFMN 300000Z 34008KT CAVOK 12/00 Q1019 NOSIG
2026-03-29 23:30:00,METAR LFMN 292330Z 33010KT CAVOK 12/00 Q1019 NOSIG
2026-03-29 23:00:00,METAR LFMN 292300Z 33011KT CAVOK 12/00 Q1019 NOSIG
2026-03-29 22:30:00,METAR LFMN 292230Z 33009KT CAVOK 12/01 Q1019 NOSIG
2026-03-29 22:00:00,METAR LFMN 292200Z 35008KT CAVOK 12/01 Q1019 NOSIG
2026-03-29 21:30:00,METAR LFMN 292130Z 32008KT CAVOK 12/02 Q1019 NOSIG
2026-03-29 21:00:00,METAR LFMN 292100Z 32008KT 300V020 CAVOK 12/02 Q1018 NOSIG
2026-03-29 20:30:00,METAR LFMN 292030Z 32006KT CAVOK 12/02 Q1019 NOSIG
2026-03-29 20:00:00,METAR LFMN 292000Z 33006KT 9999 FEW100 13/02 Q1018 NOSIG
2026-03-29 19:30:00,METAR LFMN 291930Z 32009KT 9999 FEW100 14/02 Q1018 NOSIG
2026-03-29 19:00:00,METAR LFMN 291900Z 31006KT 9999 FEW100 15/02 Q1018 NOSIG
2026-03-29 18:30:00,METAR LFMN 291830Z 28005KT 9999 FEW066 14/07 Q1017 NOSIG
2026-03-29 18:00:00,METAR LFMN 291800Z 23006KT 9999 FEW066 15/08 Q1017 NOSIG
2026-03-29 17:30:00,METAR LFMN 291730Z 23007KT 9999 FEW066 16/06 Q1016 NOSIG
2026-03-29 17:00:00,METAR LFMN 291700Z 22006KT 9999 FEW066 17/05 Q1016 NOSIG
2026-03-29 16:30:00,METAR LFMN 291630Z 24007KT 9999 FEW066 17/07 Q1016 NOSIG
2026-03-29 16:00:00,METAR LFMN 291600Z 20004KT 170V240 9999 FEW066 17/06 Q1015 NOSIG
2026-03-29 15:30:00,METAR LFMN 291530Z 21006KT 170V250 9999 FEW066 17/06 Q1015 NOSIG
2026-03-29 15:00:00,METAR LFMN 291500Z 24007KT 9999 FEW066 17/06 Q1015 NOSIG
2026-03-29 14:30:00,METAR LFMN 291430Z 14008KT 9999 FEW066 18/08 Q1015 NOSIG
2026-03-29 14:00:00,METAR LFMN 291400Z 12009KT 9999 FEW066 SCT260 18/07 Q1015 NOSIG
2026-03-29 13:30:00,METAR LFMN 291330Z 13010KT 9999 FEW066 BKN260 18/05 Q1015 NOSIG
2026-03-29 13:00:00,METAR LFMN 291300Z 15010KT 9999 FEW066 BKN260 17/06 Q1014 NOSIG
2026-03-29 12:30:00,METAR LFMN 291230Z 15011KT 9999 FEW066 BKN260 17/08 Q1014 NOSIG
2026-03-29 12:00:00,METAR LFMN 291200Z 15008KT 9999 FEW066 BKN260 17/08 Q1014 NOSIG
2026-03-29 11:30:00,METAR LFMN 291130Z 14008KT 9999 FEW040 BKN260 17/06 Q1014 NOSIG
2026-03-29 11:00:00,METAR LFMN 291100Z COR 16007KT 090V180 9999 FEW040 BKN260 16/08 Q1014 NOSIG
2026-03-29 10:30:00,METAR LFMN 291030Z 04009KT 9999 FEW040 SCT100 BKN260 18/M01 Q1013 NOSIG
2026-03-29 10:00:00,METAR LFMN 291000Z 04011KT 9999 FEW040 SCT090 BKN260 18/M02 Q1013 NOSIG
2026-03-29 09:30:00,METAR LFMN 290930Z 03013KT 9999 SCT090 BKN260 18/M02 Q1013 NOSIG
2026-03-29 09:00:00,METAR LFMN 290900Z 02006KT 350V060 9999 SCT100 BKN260 17/00 Q1012 NOSIG
2026-03-29 08:30:00,METAR LFMN 290830Z 01009KT 330V030 9999 SCT100 BKN260 15/01 Q1012 NOSIG
2026-03-29 08:00:00,METAR LFMN 290800Z 30004KT 270V330 9999 SCT100 BKN260 13/04 Q1011 NOSIG
2026-03-29 07:30:00,METAR LFMN 290730Z 31006KT 9999 FEW100 SCT130 BKN260 12/04 Q1011 NOSIG
2026-03-29 07:00:00,METAR LFMN 290700Z 32007KT 9999 SCT120 BKN260 12/04 Q1011 NOSIG
2026-03-29 06:30:00,METAR LFMN 290630Z 32007KT 9999 SCT120 BKN260 11/04 Q1010 NOSIG
2026-03-29 06:00:00,METAR LFMN 290600Z 32005KT 9999 SCT120 BKN260 11/04 Q1010 NOSIG
2026-03-29 05:30:00,METAR LFMN 290530Z 33006KT 290V050 9999 BKN120 11/04 Q1010 NOSIG
2026-03-29 05:00:00,METAR LFMN 290500Z 02004KT 300V070 CAVOK 12/05 Q1009 NOSIG
2026-03-29 04:30:00,METAR LFMN 290430Z 03004KT 320V110 CAVOK 12/05 Q1009 NOSIG
2026-03-29 04:00:00,METAR LFMN 290400Z 08011KT CAVOK 14/09 Q1009 NOSIG
2026-03-29 03:30:00,METAR LFMN 290330Z 08010KT CAVOK 14/09 Q1009 NOSIG
2026-03-29 03:00:00,METAR LFMN 290300Z 07006KT CAVOK 14/08 Q1009 NOSIG
2026-03-29 02:30:00,METAR LFMN 290230Z 05004KT 350V080 CAVOK 13/07 Q1009 NOSIG
2026-03-29 02:00:00,METAR LFMN 290200Z 07008KT CAVOK 14/08 Q1009 NOSIG
2026-03-29 01:30:00,METAR LFMN 290130Z 08010KT CAVOK 14/08 Q1009 NOSIG
2026-03-29 01:00:00,METAR LFMN 290100Z 08010KT CAVOK 14/08 Q1009 NOSIG
2026-03-29 00:30:00,METAR LFMN 290030Z 06008KT 030V090 CAVOK 14/07 Q1009 NOSIG
2026-03-29 00:00:00,METAR LFMN 290000Z 03004KT 360V070 CAVOK 13/05 Q1009 NOSIG
2026-03-28 23:30:00,METAR LFMN 282330Z 04006KT 020V080 CAVOK 12/04 Q1009 NOSIG
2026-03-28 23:00:00,METAR LFMN 282300Z 04006KT CAVOK 13/05 Q1009 NOSIG
2026-03-28 22:30:00,METAR LFMN 282230Z 04007KT CAVOK 13/05 Q1009 NOSIG
2026-03-28 22:00:00,METAR LFMN 282200Z 04007KT CAVOK 13/04 Q1009 NOSIG
2026-03-28 21:30:00,METAR LFMN 282130Z 03007KT CAVOK 13/04 Q1009 NOSIG
2026-03-28 21:00:00,METAR LFMN 282100Z 03007KT CAVOK 13/03 Q1009 NOSIG
2026-03-28 20:30:00,METAR LFMN 282030Z 02007KT CAVOK 13/03 Q1009 NOSIG
2026-03-28 20:00:00,METAR LFMN 282000Z 02008KT CAVOK 13/05 Q1009 NOSIG
2026-03-28 19:30:00,METAR LFMN 281930Z 05004KT CAVOK 14/06 Q1009 NOSIG
2026-03-28 19:00:00,METAR LFMN 281900Z 00000KT CAVOK 14/06 Q1009 NOSIG
2026-03-28 18:30:00,METAR LFMN 281830Z 22005KT CAVOK 14/06 Q1009 NOSIG
2026-03-28 18:00:00,METAR LFMN 281800Z 24007KT CAVOK 14/05 Q1009 NOSIG
2026-03-28 17:30:00,METAR LFMN 281730Z 23011KT CAVOK 14/05 Q1009 NOSIG
2026-03-28 17:00:00,METAR LFMN 281700Z COR 23011KT CAVOK 15/05 Q1009 NOSIG
2026-03-28 16:30:00,METAR LFMN 281630Z 22013KT CAVOK 15/06 Q1009 NOSIG
2026-03-28 16:00:00,METAR LFMN 281600Z 21017KT CAVOK 15/04 Q1009 NOSIG
2026-03-28 15:30:00,METAR LFMN 281530Z 21018KT CAVOK 15/04 Q1009 NOSIG
2026-03-28 15:00:00,METAR LFMN 281500Z 21019KT CAVOK 15/07 Q1010 NOSIG
2026-03-28 14:30:00,METAR LFMN 281430Z 20021KT CAVOK 15/05 Q1010 NOSIG
2026-03-28 14:00:00,METAR LFMN 281400Z 20020KT CAVOK 16/06 Q1010 NOSIG
2026-03-28 13:30:00,METAR LFMN 281330Z 20020KT CAVOK 15/07 Q1010 NOSIG
2026-03-28 13:00:00,METAR LFMN 281300Z 21018KT CAVOK 16/06 Q1011 NOSIG
2026-03-28 12:30:00,METAR LFMN 281230Z 20017KT CAVOK 16/07 Q1011 NOSIG
2026-03-28 12:00:00,METAR LFMN 281200Z 20017KT CAVOK 16/07 Q1011 NOSIG
2026-03-28 11:30:00,METAR LFMN 281130Z 20013KT CAVOK 16/05 Q1012 NOSIG
2026-03-28 11:00:00,METAR LFMN 281100Z 17009KT CAVOK 15/05 Q1012 NOSIG
2026-03-28 10:30:00,METAR LFMN 281030Z 19010KT CAVOK 14/05 Q1012 NOSIG
2026-03-28 10:00:00,METAR LFMN 281000Z 20009KT CAVOK 14/02 Q1012 NOSIG
2026-03-28 09:30:00,METAR LFMN 280930Z 22009KT CAVOK 14/02 Q1012 NOSIG
2026-03-28 09:00:00,METAR LFMN 280900Z 32008KT CAVOK 15/M02 Q1012 NOSIG
2026-03-28 08:30:00,METAR LFMN 280830Z 32011KT CAVOK 14/M02 Q1012 NOSIG
2026-03-28 08:00:00,METAR LFMN 280800Z 33010KT CAVOK 12/M02 Q1012 NOSIG
2026-03-28 07:30:00,METAR LFMN 280730Z 33012KT CAVOK 11/M02 Q1012 NOSIG
2026-03-28 07:00:00,METAR LFMN 280700Z 33011KT CAVOK 10/M02 Q1012 NOSIG
2026-03-28 06:30:00,METAR LFMN 280630Z 32015KT CAVOK 09/M02 Q1012 NOSIG
2026-03-28 06:00:00,METAR LFMN 280600Z 33012KT CAVOK 08/M02 Q1012 NOSIG
2026-03-28 05:30:00,METAR LFMN 280530Z 35009KT CAVOK 08/M02 Q1012 NOSIG
2026-03-28 05:00:00,METAR LFMN 280500Z 34010KT CAVOK 08/M02 Q1012 NOSIG
2026-03-28 04:30:00,METAR LFMN 280430Z 34008KT CAVOK 09/M02 Q1012 NOSIG
2026-03-28 04:00:00,METAR LFMN 280400Z 34007KT CAVOK 09/M02 Q1012 NOSIG
2026-03-28 03:30:00,METAR LFMN 280330Z 34008KT CAVOK 09/M02 Q1012 NOSIG
2026-03-28 03:00:00,METAR LFMN 280300Z 34009KT CAVOK 09/M02 Q1012 NOSIG
2026-03-28 02:30:00,METAR LFMN 280230Z 34011KT CAVOK 09/M02 Q1012 NOSIG
2026-03-28 02:00:00,METAR LFMN 280200Z 34011KT CAVOK 09/M02 Q1012 NOSIG
2026-03-28 01:30:00,METAR LFMN 280130Z 34010KT CAVOK 10/M01 Q1012 NOSIG
2026-03-28 01:00:00,METAR LFMN 280100Z 33008KT CAVOK 10/M01 Q1012 NOSIG
2026-03-28 00:30:00,METAR LFMN 280030Z 35009KT CAVOK 10/M01 Q1012 NOSIG
2026-03-28 00:00:00,METAR LFMN 280000Z 35010KT CAVOK 10/M00 Q1012 NOSIG
2026-03-27 23:30:00,METAR LFMN 272330Z 35009KT CAVOK 10/M00 Q1012 NOSIG
2026-03-27 23:00:00,METAR LFMN 272300Z 35008KT CAVOK 10/M00 Q1012 NOSIG
2026-03-27 22:30:00,METAR LFMN 272230Z 35008KT CAVOK 10/00 Q1012 NOSIG
2026-03-27 22:00:00,METAR LFMN 272200Z 35009KT CAVOK 10/01 Q1012 NOSIG
2026-03-27 21:30:00,METAR LFMN 272130Z 34006KT 310V010 CAVOK 10/01 Q1012 NOSIG
2026-03-27 21:00:00,METAR LFMN 272100Z 34007KT 320V020 CAVOK 10/02 Q1012 NOSIG
2026-03-27 20:30:00,METAR LFMN 272030Z 36005KT CAVOK 11/02 Q1012 NOSIG
2026-03-27 20:00:00,METAR LFMN 272000Z 02010KT CAVOK 12/03 Q1011 NOSIG
2026-03-27 19:30:00,METAR LFMN 271930Z 02008KT CAVOK 12/03 Q1011 BECMG 34010KT
2026-03-27 19:00:00,METAR LFMN 271900Z 20006KT CAVOK 14/06 Q1011 BECMG 34010KT
2026-03-27 18:30:00,METAR LFMN 271830Z 22007KT CAVOK 14/04 Q1011 NOSIG
2026-03-27 18:00:00,METAR LFMN 271800Z 22010KT CAVOK 14/04 Q1010 NOSIG
2026-03-27 17:30:00,METAR LFMN 271730Z 21011KT CAVOK 14/04 Q1010 NOSIG
2026-03-27 17:00:00,METAR LFMN 271700Z 22013KT CAVOK 14/04 Q1010 NOSIG
2026-03-27 16:30:00,METAR LFMN 271630Z 22014KT CAVOK 14/05 Q1010 NOSIG
2026-03-27 16:00:00,METAR LFMN 271600Z 21016KT CAVOK 15/05 Q1009 NOSIG
2026-03-25 15:00:00,METAR LFMN 251500Z 25028KT CAVOK 22/04 Q1001 NOSIG
2026-03-25 14:30:00,METAR LFMN 251430Z 25025KT CAVOK 22/06 Q1001 WS ALL RWY NOSIG
2026-03-25 14:00:00,METAR LFMN 251400Z VRB05G16KT CAVOK 22/07 Q1003 WS ALL RWY NOSIG
2026-03-25 13:30:00,METAR LFMN 251330Z 22008KT 190V260 CAVOK 22/07 Q1004 WS ALL RWY NOSIG
2026-03-25 13:00:00,METAR LFMN 251300Z 20021KT CAVOK 18/11 Q1005 WS ALL RWY NOSIG
2026-03-25 12:30:00,METAR LFMN 251230Z VRB06KT 9999 FEW026 SCT260 20/08 Q1006 WS ALL RWY NOSIG
2026-03-25 12:00:00,METAR LFMN 251200Z VRB06KT 9999 FEW026 SCT260 18/11 Q1007 NOSIG
2026-03-25 11:30:00,METAR LFMN 251130Z 09011KT 9999 FEW026 SCT260 16/08 Q1008 NOSIG
2026-03-25 11:00:00,METAR LFMN 251100Z 09009KT 9999 FEW026 SCT260 16/07 Q1009 NOSIG
2026-03-25 10:30:00,METAR LFMN 251030Z 08006KT CAVOK 16/05 Q1010 NOSIG
2026-03-25 10:00:00,METAR LFMN 251000Z 07006KT CAVOK 15/06 Q1011 NOSIG
2026-03-25 09:30:00,METAR LFMN 250930Z 09005KT CAVOK 14/04 Q1012 NOSIG
2026-03-25 09:00:00,METAR LFMN 250900Z 09003KT 040V130 CAVOK 15/04 Q1012 NOSIG
2026-03-25 08:30:00,METAR LFMN 250830Z 02003KT 300V110 CAVOK 14/03 Q1012 NOSIG
2026-03-25 08:00:00,METAR LFMN 250800Z 32009KT CAVOK 13/02 Q1013 NOSIG
2026-03-25 07:30:00,METAR LFMN 250730Z 32009KT CAVOK 12/02 Q1013 NOSIG
2026-03-25 07:00:00,METAR LFMN 250700Z 30007KT 270V330 CAVOK 10/02 Q1014 NOSIG
2026-03-25 06:30:00,METAR LFMN 250630Z 32007KT CAVOK 10/02 Q1014 BECMG VRB05KT
2026-03-25 06:00:00,METAR LFMN 250600Z 33010KT CAVOK 09/02 Q1014 BECMG VRB05KT
2026-03-25 05:30:00,METAR LFMN 250530Z 32008KT CAVOK 09/02 Q1014 BECMG VRB03KT
2026-03-25 05:00:00,METAR LFMN 250500Z 32011KT CAVOK 09/02 Q1014 NOSIG
2026-03-25 04:30:00,METAR LFMN 250430Z 32010KT CAVOK 09/02 Q1015 NOSIG
2026-03-25 04:00:00,METAR LFMN 250400Z 32012KT CAVOK 10/02 Q1015 NOSIG
2026-03-25 03:30:00,METAR LFMN 250330Z 32012KT CAVOK 10/02 Q1015 NOSIG
2026-03-25 03:00:00,METAR LFMN 250300Z 32013KT CAVOK 10/02 Q1016 NOSIG
2026-03-25 02:30:00,METAR LFMN 250230Z 33012KT CAVOK 10/02 Q1016 NOSIG
2026-03-25 02:00:00,METAR LFMN 250200Z 32012KT CAVOK 11/02 Q1016 NOSIG
2026-03-25 01:30:00,METAR LFMN 250130Z 32011KT CAVOK 11/02 Q1017 NOSIG
2026-03-25 01:00:00,METAR LFMN 250100Z 32008KT CAVOK 11/02 Q1018 NOSIG
2026-03-25 00:30:00,METAR LFMN 250030Z 32009KT CAVOK 11/02 Q1018 NOSIG
2026-03-25 00:00:00,METAR LFMN 250000Z 33011KT CAVOK 11/02 Q1018 NOSIG
2026-03-24 23:30:00,METAR LFMN 242330Z 34008KT CAVOK 12/02 Q1019 NOSIG
2026-03-24 23:00:00,METAR LFMN 242300Z 30004KT 260V350 CAVOK 11/02 Q1019 NOSIG
2026-03-24 22:30:00,METAR LFMN 242230Z 32008KT CAVOK 11/03 Q1019 NOSIG
2026-03-24 22:00:00,METAR LFMN 242200Z 34007KT CAVOK 11/03 Q1019 NOSIG
2026-03-24 21:30:00,METAR LFMN 242130Z 33008KT CAVOK 11/04 Q1019 NOSIG
2026-03-24 21:00:00,METAR LFMN 242100Z 33008KT CAVOK 11/05 Q1019 NOSIG
2026-03-24 20:30:00,METAR LFMN 242030Z COR 33006KT CAVOK 12/05 Q1019 NOSIG
2026-03-24 20:00:00,METAR LFMN 242000Z 03006KT CAVOK 12/07 Q1019 NOSIG
2026-03-24 19:30:00,METAR LFMN 241930Z 04007KT CAVOK 13/07 Q1019 NOSIG
2026-03-24 19:00:00,METAR LFMN 241900Z 06002KT CAVOK 14/09 Q1019 NOSIG
2026-03-24 18:30:00,METAR LFMN 241830Z 00000KT CAVOK 14/09 Q1019 NOSIG
2026-03-24 18:00:00,METAR LFMN 241800Z 21004KT CAVOK 15/09 Q1019 NOSIG
2026-03-24 17:30:00,METAR LFMN 241730Z 21005KT 170V230 CAVOK 15/08 Q1019 NOSIG
2026-03-24 17:00:00,METAR LFMN 241700Z 18004KT CAVOK 16/08 Q1019 NOSIG
2026-03-24 16:30:00,METAR LFMN 241630Z 18005KT CAVOK 16/09 Q1019 NOSIG
2026-03-24 16:00:00,METAR LFMN 241600Z 18004KT CAVOK 16/07 Q1019 NOSIG
2026-03-24 15:30:00,METAR LFMN 241530Z 17005KT CAVOK 17/08 Q1020 NOSIG
2026-03-24 15:00:00,METAR LFMN 241500Z 18006KT CAVOK 17/08 Q1020 NOSIG
2026-03-24 14:30:00,METAR LFMN 241430Z 19008KT CAVOK 17/07 Q1020 NOSIG
2026-03-24 14:00:00,METAR LFMN 241400Z 19008KT CAVOK 17/07 Q1020 NOSIG
2026-03-24 13:30:00,METAR LFMN 241330Z 19009KT CAVOK 17/07 Q1020 NOSIG
2026-03-24 13:00:00,METAR LFMN 241300Z 20008KT CAVOK 17/07 Q1020 NOSIG
2026-03-24 12:30:00,METAR LFMN 241230Z 19008KT CAVOK 17/07 Q1021 NOSIG
2026-03-24 12:00:00,METAR LFMN 241200Z 19007KT CAVOK 17/06 Q1021 NOSIG
2026-03-24 11:30:00,METAR LFMN 241130Z 18006KT CAVOK 17/04 Q1021 NOSIG
2026-03-24 11:00:00,METAR LFMN 241100Z 19005KT CAVOK 17/03 Q1021 NOSIG
2026-03-24 10:30:00,METAR LFMN 241030Z 19004KT CAVOK 17/02 Q1021 NOSIG
2026-03-24 10:00:00,METAR LFMN 241000Z 15003KT 110V180 CAVOK 17/02 Q1021 NOSIG
2026-03-24 09:30:00,METAR LFMN 240930Z 32003KT 230V020 CAVOK 17/02 Q1021 NOSIG
2026-03-24 09:00:00,METAR LFMN 240900Z 33007KT CAVOK 15/02 Q1021 NOSIG
2026-03-24 08:30:00,METAR LFMN 240830Z 33010KT CAVOK 14/02 Q1021 NOSIG
2026-03-24 08:00:00,METAR LFMN 240800Z 34011KT CAVOK 13/02 Q1021 NOSIG
2026-03-24 07:30:00,METAR LFMN 240730Z 33012KT CAVOK 12/02 Q1021 NOSIG
2026-03-24 07:00:00,METAR LFMN 240700Z 34012KT CAVOK 10/02 Q1021 NOSIG
2026-03-24 06:30:00,METAR LFMN 240630Z 34014KT CAVOK 10/01 Q1021 NOSIG
2026-03-24 06:00:00,METAR LFMN 240600Z 35013KT CAVOK 10/01 Q1020 NOSIG
2026-03-24 05:30:00,METAR LFMN 240530Z 34014KT CAVOK 09/02 Q1020 NOSIG
2026-03-24 05:00:00,METAR LFMN 240500Z 35009KT CAVOK 09/02 Q1020 NOSIG
2026-03-24 04:30:00,METAR LFMN 240430Z 34010KT CAVOK 10/02 Q1019 NOSIG
2026-03-24 04:00:00,METAR LFMN 240400Z 34012KT CAVOK 10/02 Q1019 NOSIG
2026-03-24 03:30:00,METAR LFMN 240330Z 33009KT CAVOK 10/03 Q1019 NOSIG
2026-03-24 03:00:00,METAR LFMN 240300Z 33010KT CAVOK 10/03 Q1019 NOSIG
2026-03-24 02:30:00,METAR LFMN 240230Z 34010KT CAVOK 10/03 Q1019 NOSIG
2026-03-24 02:00:00,METAR LFMN 240200Z 33010KT CAVOK 10/03 Q1019 NOSIG
2026-03-24 01:30:00,METAR LFMN 240130Z 34009KT CAVOK 10/03 Q1019 NOSIG
2026-03-24 01:00:00,METAR LFMN 240100Z 33010KT CAVOK 10/04 Q1019 NOSIG
2026-03-24 00:30:00,METAR LFMN 240030Z 33009KT CAVOK 10/04 Q1019 NOSIG
2026-03-24 00:00:00,METAR LFMN 240000Z 32010KT CAVOK 10/04 Q1019 NOSIG
2026-03-23 23:30:00,METAR LFMN 232330Z 33008KT CAVOK 10/04 Q1019 NOSIG
2026-03-23 23:00:00,METAR LFMN 232300Z 33010KT CAVOK 10/04 Q1019 NOSIG
2026-03-23 22:30:00,METAR LFMN 232230Z 33012KT CAVOK 10/04 Q1019 NOSIG
2026-03-23 22:00:00,METAR LFMN 232200Z 33012KT CAVOK 10/04 Q1019 NOSIG
2026-03-23 21:30:00,METAR LFMN 232130Z 34007KT CAVOK 10/04 Q1019 NOSIG
2026-03-23 21:00:00,METAR LFMN 232100Z 33009KT CAVOK 10/04 Q1019 NOSIG
2026-03-23 20:30:00,METAR LFMN 232030Z 33007KT CAVOK 10/04 Q1019 NOSIG
2026-03-23 20:00:00,METAR LFMN 232000Z 33004KT CAVOK 11/05 Q1018 NOSIG
2026-03-23 19:30:00,METAR LFMN 231930Z 31007KT CAVOK 11/05 Q1018 NOSIG
2026-03-23 19:00:00,METAR LFMN 231900Z 32005KT CAVOK 12/06 Q1018 NOSIG
2026-03-23 18:30:00,METAR LFMN 231830Z 27003KT CAVOK 12/06 Q1017 NOSIG
2026-03-23 18:00:00,METAR LFMN 231800Z 22003KT CAVOK 13/04 Q1017 NOSIG
2026-03-23 17:30:00,METAR LFMN 231730Z 22003KT CAVOK 14/04 Q1017 NOSIG
2026-03-23 17:00:00,METAR LFMN 231700Z 22003KT 200V260 9999 FEW100 15/05 Q1017 NOSIG
2026-03-23 16:30:00,METAR LFMN 231630Z 21004KT 9999 FEW100 15/04 Q1016 NOSIG
2026-03-23 16:00:00,METAR LFMN 231600Z 19005KT 9999 FEW100 15/05 Q1016 NOSIG
2026-03-23 15:30:00,METAR LFMN 231530Z 17005KT 9999 FEW093 15/04 Q1016 NOSIG
2026-03-23 15:00:00,METAR LFMN 231500Z 17005KT 9999 FEW093 16/05 Q1016 NOSIG
2026-03-23 14:30:00,METAR LFMN 231430Z 15006KT 9999 FEW100 16/04 Q1016 NOSIG
2026-03-23 14:00:00,METAR LFMN 231400Z 16005KT 130V190 9999 FEW100 16/04 Q1016 NOSIG
2026-03-23 13:30:00,METAR LFMN 231330Z 15007KT 9999 FEW096 16/04 Q1016 NOSIG
2026-03-23 13:00:00,METAR LFMN 231300Z 15007KT 9999 FEW100 16/05 Q1016 NOSIG
2026-03-23 12:30:00,METAR LFMN 231230Z 16005KT 130V190 CAVOK 16/03 Q1016 NOSIG
2026-03-23 12:00:00,METAR LFMN 231200Z 18005KT CAVOK 16/03 Q1016 NOSIG
2026-03-23 11:30:00,METAR LFMN 231130Z 16004KT CAVOK 16/03 Q1016 NOSIG
2026-03-23 11:00:00,METAR LFMN 231100Z 11003KT 060V150 CAVOK 16/02 Q1016 NOSIG
2026-03-23 10:30:00,METAR LFMN 231030Z VRB03KT CAVOK 16/01 Q1016 NOSIG
2026-03-23 10:00:00,METAR LFMN 231000Z VRB02KT CAVOK 15/M00 Q1016 BECMG 11010KT
2026-03-23 09:30:00,METAR LFMN 230930Z 34004KT 290V070 CAVOK 15/03 Q1016 BECMG 11010KT
2026-03-23 09:00:00,METAR LFMN 230900Z 33009KT CAVOK 13/03 Q1016 BECMG 11010KT
2026-03-23 08:30:00,METAR LFMN 230830Z 33008KT CAVOK 12/03 Q1015 BECMG 11010KT
2026-03-23 08:00:00,METAR LFMN 230800Z 34008KT CAVOK 11/03 Q1015 BECMG 11010KT
2026-03-23 07:30:00,METAR LFMN 230730Z 34009KT CAVOK 10/03 Q1015 NOSIG
2026-03-23 07:00:00,METAR LFMN 230700Z 35008KT CAVOK 09/03 Q1015 NOSIG
2026-03-23 06:30:00,METAR LFMN 230630Z 35010KT CAVOK 08/03 Q1015 NOSIG
2026-03-23 06:00:00,METAR LFMN 230600Z 34006KT CAVOK 08/03 Q1014 NOSIG
2026-03-23 05:30:00,METAR LFMN 230530Z 34010KT 320V020 CAVOK 07/03 Q1014 NOSIG
2026-03-23 05:00:00,METAR LFMN 230500Z 36010KT CAVOK 08/03 Q1014 NOSIG
2026-03-23 04:30:00,METAR LFMN 230430Z 34009KT CAVOK 08/03 Q1014 NOSIG
2026-03-23 04:00:00,METAR LFMN 230400Z 34010KT 9999 BKN120 08/03 Q1014 NOSIG
2026-03-23 03:30:00,METAR LFMN 230330Z 34009KT 9999 BKN120 09/03 Q1013 NOSIG
2026-03-23 03:00:00,METAR LFMN 230300Z 34009KT 9999 BKN120 09/03 Q1013 NOSIG
2026-03-23 02:30:00,METAR LFMN 230230Z 34008KT 9999 BKN120 09/04 Q1013 NOSIG
2026-03-23 02:00:00,METAR LFMN 230200Z 33008KT 9999 BKN100 09/04 Q1013 NOSIG
2026-03-23 01:30:00,METAR LFMN 230130Z 33009KT 9999 BKN100 09/04 Q1014 NOSIG
2026-03-23 01:00:00,METAR LFMN 230100Z 33008KT 9999 BKN100 09/04 Q1014 NOSIG
2026-03-23 00:30:00,METAR LFMN 230030Z 33011KT 9999 BKN100 09/04 Q1014 NOSIG
2026-03-23 00:00:00,METAR LFMN 230000Z 33009KT 9999 BKN100 09/04 Q1014 NOSIG
2026-03-22 23:30:00,METAR LFMN 222330Z 33007KT 9999 BKN100 09/04 Q1014 NOSIG
2026-03-22 23:00:00,METAR LFMN 222300Z 33008KT 9999 BKN100 09/04 Q1014 NOSIG
2026-03-22 22:30:00,METAR LFMN 222230Z 33009KT 9999 BKN100 09/04 Q1014 NOSIG
2026-03-22 22:00:00,METAR LFMN 222200Z 34010KT 9999 BKN100 09/04 Q1014 NOSIG
2026-03-22 21:30:00,METAR LFMN 222130Z 34010KT 9999 BKN100 10/04 Q1014 NOSIG
2026-03-22 21:00:00,METAR LFMN 222100Z 34010KT 9999 BKN100 10/04 Q1013 NOSIG
2026-03-22 20:30:00,METAR LFMN 222030Z 33010KT 9999 OVC100 10/04 Q1013 NOSIG
2026-03-22 20:00:00,METAR LFMN 222000Z 35009KT 9999 OVC100 10/05 Q1013 NOSIG
2026-03-22 19:30:00,METAR LFMN 221930Z 34009KT 9999 OVC090 10/05 Q1013 NOSIG
2026-03-22 19:00:00,METAR LFMN 221900Z 34011KT 9999 OVC090 10/05 Q1013 NOSIG
2026-03-22 18:30:00,METAR LFMN 221830Z 34009KT 9999 OVC083 10/05 Q1013 NOSIG
2026-03-22 18:00:00,METAR LFMN 221800Z 34009KT 9999 OVC083 10/06 Q1013 NOSIG
2026-03-22 17:30:00,METAR LFMN 221730Z 33008KT 9999 OVC066 10/06 Q1013 NOSIG
2026-03-22 17:00:00,METAR LFMN 221700Z 34009KT 9999 OVC066 10/06 Q1013 NOSIG
2026-03-22 16:30:00,METAR LFMN 221630Z 33009KT 9999 OVC066 11/06 Q1013 NOSIG
2026-03-22 16:00:00,METAR LFMN 221600Z 32010KT 9999 OVC066 10/06 Q1013 NOSIG
2026-03-22 15:30:00,METAR LFMN 221530Z 33011KT 9999 OVC054 11/06 Q1013 NOSIG
2026-03-22 15:00:00,METAR LFMN 221500Z 35009KT 9999 OVC054 11/06 Q1013 NOSIG
2026-03-22 14:30:00,METAR LFMN 221430Z 35008KT 9999 OVC054 10/06 Q1013 NOSIG
2026-03-22 14:00:00,METAR LFMN 221400Z 35010KT 9999 FEW033 BKN054 10/07 Q1013 NOSIG
2026-03-22 13:30:00,METAR LFMN 221330Z 34010KT 9999 FEW033 BKN054 10/07 Q1013 NOSIG
2026-03-22 12:30:00,METAR LFMN 221230Z 32011KT 9999 -RA BKN046 10/07 Q1014 NOSIG
2026-03-22 12:00:00,METAR LFMN 221200Z 33011KT 9999 -RA BKN046 10/07 Q1014 NOSIG
2026-03-22 11:30:00,METAR LFMN 221130Z 34012KT 9999 -RA BKN046 09/07 Q1014 NOSIG
2026-03-22 10:30:00,METAR LFMN 221030Z 33010KT 8000 -RA BKN040 09/07 Q1014 NOSIG
2026-03-22 09:30:00,METAR LFMN 220930Z 01009KT 9999 -RA BKN043 09/06 Q1014 NOSIG
2026-03-22 09:00:00,METAR LFMN 220900Z 02010KT 9999 BKN050 10/06 Q1013 NOSIG
2026-03-22 08:30:00,METAR LFMN 220830Z 02009KT 9999 BKN050 10/06 Q1013 NOSIG
2026-03-22 08:00:00,METAR LFMN 220800Z 01009KT 9999 BKN048 09/06 Q1013 NOSIG
2026-03-22 07:30:00,METAR LFMN 220730Z 02009KT 9999 -RA BKN045 09/06 Q1013 NOSIG
2026-03-22 07:00:00,METAR LFMN 220700Z 34009KT 9999 BKN045 09/05 Q1013 NOSIG
2026-03-22 06:30:00,METAR LFMN 220630Z 36007KT 9999 BKN046 09/06 Q1013 NOSIG
2026-03-22 06:00:00,METAR LFMN 220600Z 01008KT 9999 -RA SCT043 BKN060 09/06 Q1013 NOSIG
2026-03-22 05:30:00,METAR LFMN 220530Z 35006KT 9999 -RA BKN046 08/07 Q1012 NOSIG
2026-03-22 05:00:00,METAR LFMN 220500Z 34010KT 9999 -RA BKN043 09/06 Q1013 NOSIG
2026-03-22 04:30:00,METAR LFMN 220430Z 33009KT 9999 -RA BKN043 09/07 Q1013 NOSIG
2026-03-22 04:00:00,METAR LFMN 220400Z 34010KT 9999 -RA BKN046 09/07 Q1013 NOSIG
2026-03-22 03:30:00,METAR LFMN 220330Z 33009KT 9999 -RA BKN060 09/07 Q1012 NOSIG
2026-03-22 03:00:00,METAR LFMN 220300Z 34009KT 9999 -RA BKN046 09/07 Q1012 NOSIG
2026-03-22 02:30:00,METAR LFMN 220230Z 01010KT 9999 -RA BKN046 09/07 Q1012 NOSIG
2026-03-22 02:00:00,METAR LFMN 220200Z 03012KT 9999 -RA BKN046 09/06 Q1012 NOSIG
2026-03-22 01:30:00,METAR LFMN 220130Z 01009KT 9999 -RA BKN050 10/06 Q1012 NOSIG
2026-03-22 01:00:00,METAR LFMN 220100Z 36005KT 340V040 9999 -RA BKN043 BKN056 10/06 Q1012 NOSIG
2026-03-22 00:30:00,METAR LFMN 220030Z 33009KT 9999 FEW043 BKN063 10/06 Q1012 NOSIG
2026-03-22 00:00:00,METAR LFMN 220000Z 33006KT 9999 BKN066 11/06 Q1012 NOSIG
2026-03-21 23:30:00,METAR LFMN 212330Z 34007KT 9999 BKN060 11/06 Q1012 NOSIG
2026-03-21 23:00:00,METAR LFMN 212300Z 33006KT 9999 BKN060 11/06 Q1012 NOSIG
2026-03-21 22:30:00,METAR LFMN 212230Z 33005KT 9999 BKN060 11/06 Q1012 NOSIG
2026-03-21 22:00:00,METAR LFMN 212200Z 33006KT 9999 BKN060 10/07 Q1012 NOSIG
2026-03-21 21:30:00,METAR LFMN 212130Z 34006KT 9999 BKN060 10/06 Q1013 NOSIG
2026-03-21 21:00:00,METAR LFMN 212100Z 32007KT 9999 BKN066 BKN083 11/07 Q1012 NOSIG
2026-03-21 20:30:00,METAR LFMN 212030Z 34006KT 9999 BKN066 BKN100 11/07 Q1012 NOSIG
2026-03-21 20:00:00,METAR LFMN 212000Z 02007KT 9999 -RA BKN060 BKN100 11/07 Q1012 NOSIG
2026-03-21 19:30:00,METAR LFMN 211930Z 01008KT 9999 -RA SCT060 BKN110 11/07 Q1012 NOSIG
2026-03-21 19:00:00,METAR LFMN 211900Z VRB01KT 9999 -RA BKN060 BKN110 13/06 Q1012 NOSIG
2026-03-21 18:30:00,METAR LFMN 211830Z 23002KT 9999 -RA SCT066 BKN100 13/04 Q1012 NOSIG
2026-03-21 18:00:00,METAR LFMN 211800Z VRB02KT 9999 BKN066 SCT210 13/04 Q1012 NOSIG
2026-03-21 17:30:00,METAR LFMN 211730Z 19002KT 9999 FEW033 SCT066 BKN210 14/04 Q1012 NOSIG
2026-03-21 17:00:00,METAR LFMN 211700Z 20003KT 9999 FEW033 SCT066 BKN210 14/04 Q1012 NOSIG
2026-03-21 16:30:00,METAR LFMN 211630Z 20003KT 9999 FEW033 SCT083 BKN210 14/04 Q1011 NOSIG
2026-03-21 16:00:00,METAR LFMN 211600Z VRB02KT 9999 FEW033 BKN060 BKN210 15/04 Q1012 NOSIG
2026-03-21 15:30:00,METAR LFMN 211530Z VRB02KT 9999 FEW033 BKN060 BKN210 14/05 Q1012 NOSIG
2026-03-21 15:00:00,METAR LFMN 211500Z 18002KT 9999 FEW033 BKN060 BKN210 14/04 Q1012 NOSIG
2026-03-21 14:30:00,METAR LFMN 211430Z VRB03KT 9999 FEW033 BKN060 BKN210 14/04 Q1012 NOSIG
2026-03-21 14:00:00,METAR LFMN 211400Z VRB03KT 9999 FEW033 BKN060 BKN210 14/05 Q1012 NOSIG
2026-03-21 13:30:00,METAR LFMN 211330Z VRB02KT 9999 FEW033 BKN060 BKN210 14/05 Q1013 NOSIG
2026-03-21 13:00:00,METAR LFMN 211300Z VRB02KT 9999 FEW033 BKN063 BKN210 14/05 Q1013 NOSIG
2026-03-21 12:30:00,METAR LFMN 211230Z VRB03KT 9999 FEW033 BKN063 BKN210 14/05 Q1013 NOSIG
2026-03-21 12:00:00,METAR LFMN 211200Z 17002KT 9999 FEW033 BKN063 BKN210 14/05 Q1013 NOSIG
2026-03-21 11:30:00,METAR LFMN 211130Z 15004KT 9999 FEW033 BKN063 BKN210 14/05 Q1013 NOSIG
2026-03-21 11:00:00,METAR LFMN 211100Z 12005KT 9999 FEW033 SCT066 BKN210 14/06 Q1013 NOSIG
2026-03-21 10:30:00,METAR LFMN 211030Z 13005KT 100V160 9999 FEW033 SCT073 BKN210 14/06 Q1014 NOSIG
2026-03-21 10:00:00,METAR LFMN 211000Z 11006KT 9999 FEW033 SCT073 BKN210 14/07 Q1014 NOSIG
2026-03-21 09:30:00,METAR LFMN 210930Z VRB02KT 9999 FEW033 BKN210 15/07 Q1014 NOSIG
2026-03-21 09:00:00,METAR LFMN 210900Z 32004KT 290V360 9999 FEW033 BKN210 14/06 Q1014 NOSIG
2026-03-21 08:30:00,METAR LFMN 210830Z 32007KT 9999 FEW026 BKN210 13/05 Q1014 NOSIG
2026-03-21 08:00:00,METAR LFMN 210800Z 32009KT 9999 FEW026 BKN210 12/04 Q1014 NOSIG
2026-03-21 07:30:00,METAR LFMN 210730Z 33010KT 9999 FEW026 BKN210 11/04 Q1014 NOSIG
2026-03-21 07:00:00,METAR LFMN 210700Z 33010KT 9999 FEW026 BKN210 10/04 Q1014 NOSIG
2026-03-21 06:30:00,METAR LFMN 210630Z 33010KT 9999 FEW026 BKN210 09/03 Q1014 NOSIG
2026-03-21 06:00:00,METAR LFMN 210600Z 33009KT 9999 FEW073 BKN220 09/03 Q1014 NOSIG
2026-03-21 05:30:00,METAR LFMN 210530Z 33008KT 9999 FEW073 BKN220 09/03 Q1014 NOSIG
2026-03-21 05:00:00,METAR LFMN 210500Z 33009KT 9999 FEW070 BKN230 09/03 Q1014 NOSIG
2026-03-21 04:30:00,METAR LFMN 210430Z 34009KT 9999 SCT070 SCT260 09/03 Q1014 NOSIG
2026-03-21 04:00:00,METAR LFMN 210400Z 33010KT 9999 SCT066 SCT260 09/03 Q1014 NOSIG
2026-03-21 03:30:00,METAR LFMN 210330Z 33008KT 9999 FEW063 09/03 Q1014 NOSIG
2026-03-21 03:00:00,METAR LFMN 210300Z 33009KT 9999 SCT053 09/03 Q1014 NOSIG
2026-03-21 02:30:00,METAR LFMN 210230Z 33009KT 9999 SCT053 10/04 Q1014 NOSIG
2026-03-21 02:00:00,METAR LFMN 210200Z 33008KT 9999 FEW053 10/04 Q1014 NOSIG
2026-03-21 01:30:00,METAR LFMN 210130Z 33009KT 9999 FEW053 10/04 Q1015 NOSIG
2026-03-21 01:00:00,METAR LFMN 210100Z 34008KT CAVOK 10/03 Q1015 NOSIG
2026-03-21 00:30:00,METAR LFMN 210030Z 34008KT CAVOK 10/04 Q1015 NOSIG
2026-03-21 00:00:00,METAR LFMN 210000Z 34009KT CAVOK 10/04 Q1015 NOSIG
2026-03-20 23:30:00,METAR LFMN 202330Z 33008KT CAVOK 10/04 Q1015 NOSIG
2026-03-20 23:00:00,METAR LFMN 202300Z 33010KT 9999 FEW060 10/04 Q1015 NOSIG
2026-03-20 22:30:00,METAR LFMN 202230Z 33009KT 9999 FEW060 10/04 Q1015 NOSIG
2026-03-20 22:00:00,METAR LFMN 202200Z 34008KT 9999 FEW060 10/05 Q1015 NOSIG
2026-03-20 21:30:00,METAR LFMN 202130Z 33008KT CAVOK 10/05 Q1015 NOSIG
2026-03-20 21:00:00,METAR LFMN 202100Z 33006KT 9999 FEW050 11/05 Q1015 NOSIG
2026-03-20 20:30:00,METAR LFMN 202030Z 33006KT 9999 FEW050 11/06 Q1015 NOSIG
2026-03-20 20:00:00,METAR LFMN 202000Z 33005KT 9999 FEW050 11/06 Q1014 NOSIG
2026-03-20 19:30:00,METAR LFMN 201930Z 32004KT CAVOK 13/06 Q1014 NOSIG
2026-03-20 19:00:00,METAR LFMN 201900Z 28003KT 240V300 CAVOK 13/06 Q1014 BECMG 34010KT
2026-03-20 18:30:00,METAR LFMN 201830Z 24005KT CAVOK 13/07 Q1014 NOSIG
2026-03-20 18:00:00,METAR LFMN 201800Z 23005KT CAVOK 13/07 Q1014 NOSIG
2026-03-20 17:30:00,METAR LFMN 201730Z 21005KT CAVOK 14/06 Q1014 NOSIG
2026-03-20 17:00:00,METAR LFMN 201700Z 21005KT CAVOK 14/06 Q1014 NOSIG
2026-03-20 16:30:00,METAR LFMN 201630Z 19004KT 160V220 9999 FEW033 15/06 Q1014 NOSIG
2026-03-20 16:00:00,METAR LFMN 201600Z 16005KT 120V200 9999 FEW033 15/06 Q1014 NOSIG
2026-03-20 15:30:00,METAR LFMN 201530Z 16005KT 9999 FEW033 15/05 Q1014 NOSIG
2026-03-20 15:00:00,METAR LFMN 201500Z 16005KT 9999 FEW033 16/06 Q1014 NOSIG
2026-03-20 14:30:00,METAR LFMN 201430Z 17006KT 9999 FEW033 16/05 Q1015 NOSIG
2026-03-20 14:00:00,METAR LFMN 201400Z 16005KT 9999 FEW033 16/05 Q1015 NOSIG
2026-03-20 13:30:00,METAR LFMN 201330Z 16007KT 9999 FEW033 16/04 Q1015 NOSIG
2026-03-20 12:30:00,METAR LFMN 201230Z 16007KT 9999 FEW033 16/07 Q1016 NOSIG
2026-03-20 12:00:00,METAR LFMN 201200Z 17006KT 140V200 9999 FEW033 16/07 Q1016 NOSIG
2026-03-20 11:30:00,METAR LFMN 201130Z 17004KT 9999 FEW033 16/08 Q1017 NOSIG
2026-03-20 11:00:00,METAR LFMN 201100Z 18004KT 150V210 9999 FEW033 16/07 Q1017 NOSIG
2026-03-20 10:30:00,METAR LFMN 201030Z VRB03KT 9999 FEW033 16/07 Q1017 NOSIG
2026-03-20 10:00:00,METAR LFMN 201000Z VRB02KT CAVOK 16/07 Q1017 NOSIG
2026-03-20 09:30:00,METAR LFMN 200930Z VRB02KT CAVOK 16/06 Q1017 NOSIG
2026-03-20 09:00:00,METAR LFMN 200900Z 31006KT CAVOK 15/03 Q1017 NOSIG
2026-03-20 08:30:00,METAR LFMN 200830Z 33009KT CAVOK 13/M00 Q1017 NOSIG
2026-03-20 08:00:00,METAR LFMN 200800Z 33010KT CAVOK 12/00 Q1017 NOSIG
2026-03-20 07:30:00,METAR LFMN 200730Z 33010KT CAVOK 11/M01 Q1017 NOSIG
2026-03-20 07:00:00,METAR LFMN 200700Z 33010KT CAVOK 10/M00 Q1017 NOSIG
2026-03-20 06:30:00,METAR LFMN 200630Z 33010KT CAVOK 09/M00 Q1017 NOSIG
2026-03-20 06:00:00,METAR LFMN 200600Z 34010KT CAVOK 08/M00 Q1017 NOSIG
2026-03-20 05:30:00,METAR LFMN 200530Z COR 34010KT CAVOK 08/M00 Q1017 NOSIG
2026-03-20 05:00:00,METAR LFMN 200500Z 34010KT CAVOK 09/M00 Q1016 NOSIG
2026-03-20 04:30:00,METAR LFMN 200430Z 34008KT CAVOK 09/00 Q1016 NOSIG
2026-03-20 04:00:00,METAR LFMN 200400Z 34010KT CAVOK 09/00 Q1016 NOSIG
2026-03-20 03:30:00,METAR LFMN 200330Z 34009KT CAVOK 09/01 Q1016 NOSIG
2026-03-20 03:00:00,METAR LFMN 200300Z 33011KT CAVOK 09/01 Q1016 NOSIG
2026-03-20 02:30:00,METAR LFMN 200230Z 33010KT CAVOK 09/01 Q1016 NOSIG
2026-03-20 02:00:00,METAR LFMN 200200Z 33010KT CAVOK 10/01 Q1016 NOSIG
2026-03-20 01:30:00,METAR LFMN 200130Z 34009KT CAVOK 10/01 Q1017 NOSIG
2026-03-20 01:00:00,METAR LFMN 200100Z 34008KT CAVOK 10/01 Q1017 NOSIG
2026-03-20 00:30:00,METAR LFMN 200030Z 35008KT CAVOK 11/01 Q1017 NOSIG
2026-03-20 00:00:00,METAR LFMN 200000Z 34009KT CAVOK 11/01 Q1017 NOSIG
2026-03-19 23:30:00,METAR LFMN 192330Z 34007KT CAVOK 11/01 Q1017 NOSIG
2026-03-19 23:00:00,METAR LFMN 192300Z 34008KT CAVOK 11/01 Q1017 NOSIG
2026-03-19 22:30:00,METAR LFMN 192230Z 34010KT CAVOK 11/01 Q1017 NOSIG
2026-03-19 22:00:00,METAR LFMN 192200Z 35007KT CAVOK 11/02 Q1017 NOSIG
2026-03-19 21:30:00,METAR LFMN 192130Z 35007KT 330V030 CAVOK 11/02 Q1017 NOSIG
2026-03-19 21:00:00,METAR LFMN 192100Z 33009KT CAVOK 11/02 Q1017 NOSIG
2026-03-19 20:30:00,METAR LFMN 192030Z 33007KT CAVOK 11/03 Q1017 NOSIG
2026-03-19 20:00:00,METAR LFMN 192000Z 31006KT CAVOK 11/03 Q1016 NOSIG
2026-03-19 19:30:00,METAR LFMN 191930Z 33004KT 310V010 CAVOK 13/02 Q1016 NOSIG
2026-03-19 19:00:00,METAR LFMN 191900Z 33005KT CAVOK 13/01 Q1016 NOSIG
2026-03-19 18:30:00,METAR LFMN 191830Z 29005KT CAVOK 14/04 Q1016 NOSIG
2026-03-19 18:00:00,METAR LFMN 191800Z 26005KT CAVOK 14/03 Q1016 NOSIG
2026-03-19 17:30:00,METAR LFMN 191730Z 27006KT CAVOK 15/05 Q1015 NOSIG
2026-03-19 17:00:00,METAR LFMN 191700Z 26007KT CAVOK 15/06 Q1016 NOSIG
2026-03-19 16:30:00,METAR LFMN 191630Z 22003KT 190V270 CAVOK 16/07 Q1016 NOSIG
2026-03-19 16:00:00,METAR LFMN 191600Z VRB02KT CAVOK 17/06 Q1016 NOSIG
2026-03-19 15:30:00,METAR LFMN 191530Z 10005KT 9999 FEW040 17/06 Q1015 NOSIG
2026-03-19 15:00:00,METAR LFMN 191500Z 11010KT 9999 FEW040 17/06 Q1016 NOSIG
2026-03-19 14:30:00,METAR LFMN 191430Z 11013KT 9999 FEW040 17/06 Q1016 NOSIG
2026-03-19 14:00:00,METAR LFMN 191400Z 11017KT 9999 FEW040 17/06 Q1016 NOSIG
2026-03-19 13:30:00,METAR LFMN 191330Z 11017KT 9999 FEW040 17/06 Q1016 NOSIG
2026-03-19 13:00:00,METAR LFMN 191300Z 11019KT 9999 FEW040 17/06 Q1016 NOSIG
2026-03-19 12:30:00,METAR LFMN 191230Z 11020KT 9999 FEW040 17/06 Q1016 NOSIG
2026-03-19 12:00:00,METAR LFMN 191200Z COR 12017KT 9999 FEW040 17/06 Q1016 NOSIG
2026-03-19 11:30:00,METAR LFMN 191130Z 11019KT CAVOK 17/06 Q1016 NOSIG
2026-03-19 11:00:00,METAR LFMN 191100Z 11016KT CAVOK 17/05 Q1016 NOSIG
2026-03-19 10:30:00,METAR LFMN 191030Z 12011KT CAVOK 18/06 Q1017 NOSIG
2026-03-19 10:00:00,METAR LFMN 191000Z 10010KT CAVOK 17/06 Q1017 NOSIG
2026-03-19 09:30:00,METAR LFMN 190930Z VRB05KT CAVOK 17/02 Q1017 NOSIG
2026-03-19 09:00:00,METAR LFMN 190900Z 32008KT 260V360 CAVOK 15/01 Q1017 NOSIG
2026-03-19 08:30:00,METAR LFMN 190830Z 33010KT CAVOK 13/01 Q1017 NOSIG
2026-03-19 08:00:00,METAR LFMN 190800Z 32010KT CAVOK 11/00 Q1017 NOSIG
2026-03-19 07:30:00,METAR LFMN 190730Z 33013KT CAVOK 10/M00 Q1017 NOSIG
2026-03-19 07:00:00,METAR LFMN 190700Z 33012KT CAVOK 09/M00 Q1017 NOSIG
2026-03-19 06:30:00,METAR LFMN 190630Z 32014KT CAVOK 08/M00 Q1017 NOSIG
2026-03-19 06:00:00,METAR LFMN 190600Z 33014KT CAVOK 08/M00 Q1017 NOSIG
2026-03-19 05:30:00,METAR LFMN 190530Z 33014KT CAVOK 07/M00 Q1016 NOSIG
2026-03-19 05:00:00,METAR LFMN 190500Z 32012KT CAVOK 07/M00 Q1017 NOSIG
2026-03-19 04:30:00,METAR LFMN 190430Z 33013KT CAVOK 08/M00 Q1017 NOSIG
2026-03-19 04:00:00,METAR LFMN 190400Z 33013KT CAVOK 08/M00 Q1017 NOSIG
2026-03-19 03:30:00,METAR LFMN 190330Z 32012KT CAVOK 08/M00 Q1017 NOSIG
2026-03-19 03:00:00,METAR LFMN 190300Z 32011KT CAVOK 08/M00 Q1017 NOSIG
2026-03-19 02:30:00,METAR LFMN 190230Z 32012KT CAVOK 08/00 Q1017 NOSIG
2026-03-19 02:00:00,METAR LFMN 190200Z 32011KT CAVOK 08/00 Q1017 NOSIG
2026-03-19 01:30:00,METAR LFMN 190130Z 32012KT CAVOK 08/00 Q1017 NOSIG
2026-03-19 01:00:00,METAR LFMN 190100Z 32011KT CAVOK 08/00 Q1017 NOSIG
2026-03-19 00:30:00,METAR LFMN 190030Z 32011KT CAVOK 09/01 Q1017 NOSIG
2026-03-19 00:00:00,METAR LFMN 190000Z 33010KT CAVOK 09/00 Q1018 NOSIG
2026-03-18 23:30:00,METAR LFMN 182330Z 32010KT CAVOK 09/01 Q1017 NOSIG
2026-03-18 23:00:00,METAR LFMN 182300Z 32012KT CAVOK 09/01 Q1017 NOSIG
2026-03-18 22:30:00,METAR LFMN 182230Z 32010KT CAVOK 09/01 Q1017 NOSIG
2026-03-18 22:00:00,METAR LFMN 182200Z 32009KT CAVOK 09/01 Q1017 NOSIG
2026-03-18 21:30:00,METAR LFMN 182130Z 32009KT CAVOK 10/01 Q1017 NOSIG
2026-03-18 21:00:00,METAR LFMN 182100Z 32008KT CAVOK 10/01 Q1017 NOSIG
2026-03-18 20:30:00,METAR LFMN 182030Z 03009KT CAVOK 13/00 Q1017 NOSIG
2026-03-18 20:00:00,METAR LFMN 182000Z 07010KT CAVOK 14/03 Q1017 NOSIG
2026-03-18 19:30:00,METAR LFMN 181930Z 07011KT 9999 FEW100 14/03 Q1016 NOSIG
2026-03-18 19:00:00,METAR LFMN 181900Z 06013KT 9999 FEW090 14/04 Q1016 NOSIG
2026-03-18 18:30:00,METAR LFMN 181830Z 08018KT 9999 FEW090 14/02 Q1015 NOSIG
2026-03-18 18:00:00,METAR LFMN 181800Z 08017KT 9999 FEW083 15/03 Q1015 NOSIG
2026-03-18 17:30:00,METAR LFMN 181730Z 06013KT 9999 FEW083 15/01 Q1014 NOSIG
2026-03-18 17:00:00,METAR LFMN 181700Z 33008KT CAVOK 16/01 Q1014 NOSIG
2026-03-18 16:30:00,METAR LFMN 181630Z 04003KT 340V080 CAVOK 16/00 Q1014 NOSIG
2026-03-18 16:00:00,METAR LFMN 181600Z 08012G22KT 030V110 CAVOK 16/01 Q1013 NOSIG
2026-03-18 15:30:00,METAR LFMN 181530Z 09017KT CAVOK 15/01 Q1013 NOSIG
2026-03-18 15:00:00,METAR LFMN 181500Z 12004KT 9999 FEW066 15/00 Q1014 NOSIG
2026-03-18 14:30:00,METAR LFMN 181430Z VRB02KT 9999 FEW066 16/M01 Q1014 NOSIG
2026-03-18 14:00:00,METAR LFMN 181400Z 32004KT 290V010 9999 FEW066 15/02 Q1014 NOSIG
2026-03-18 13:30:00,METAR LFMN 181330Z 00000KT CAVOK 14/04 Q1014 NOSIG
2026-03-18 13:00:00,METAR LFMN 181300Z 10004KT 070V130 CAVOK 13/04 Q1015 NOSIG
2026-03-18 12:30:00,METAR LFMN 181230Z 03006KT 350V070 CAVOK 13/06 Q1015 NOSIG
2026-03-18 12:00:00,METAR LFMN 181200Z 34008KT 9999 BKN110 12/06 Q1015 NOSIG
2026-03-18 11:30:00,METAR LFMN 181130Z 33007KT 9999 BKN100 11/06 Q1015 NOSIG
2026-03-18 10:30:00,METAR LFMN 181030Z 01009KT 340V070 9999 FEW020 OVC066 10/06 Q1016 NOSIG
2026-03-18 10:00:00,METAR LFMN 181000Z 08021KT 9999 FEW020 OVC053 10/07 Q1016 NOSIG
2026-03-18 09:30:00,METAR LFMN 180930Z 09028KT 9999 -RA SCT016 OVC046 10/07 Q1015 NOSIG
2026-03-18 09:00:00,METAR LFMN 180900Z 08031KT 9000 -RA BKN013 OVC043 10/07 Q1015 NOSIG
2026-03-18 08:30:00,METAR LFMN 180830Z 08031KT 9000 -RA BKN013 OVC043 10/08 Q1015 NOSIG
2026-03-18 08:00:00,METAR LFMN 180800Z 10024KT 9999 -RA SCT016 OVC043 13/05 Q1014 NOSIG
2026-03-18 07:30:00,METAR LFMN 180730Z 10021KT 9999 OVC043 13/07 Q1014 NOSIG
2026-03-18 07:00:00,METAR LFMN 180700Z 11020KT 9999 BKN036 13/05 Q1014 NOSIG
2026-03-18 06:30:00,METAR LFMN 180630Z 08016KT 9999 BKN033 BKN080 14/06 Q1013 NOSIG
2026-03-18 06:00:00,METAR LFMN 180600Z 08014KT 9999 SCT033 BKN080 14/06 Q1013 BECMG 09015KT
2026-03-18 05:30:00,METAR LFMN 180530Z 07012KT 9999 SCT033 BKN080 12/05 Q1013 BECMG 09015KT
2026-03-18 05:00:00,METAR LFMN 180500Z 07010KT 9999 SCT033 10/04 Q1013 BECMG 09015KT
2026-03-18 04:30:00,METAR LFMN 180430Z 33010KT 9999 SCT033 09/03 Q1012 BECMG 09015KT
2026-03-18 04:00:00,METAR LFMN 180400Z 33008KT CAVOK 09/03 Q1012 NOSIG
2026-03-18 03:30:00,METAR LFMN 180330Z 33009KT CAVOK 10/03 Q1012 NOSIG
2026-03-18 03:00:00,METAR LFMN 180300Z 33010KT CAVOK 10/03 Q1012 NOSIG
2026-03-18 02:30:00,METAR LFMN 180230Z 33010KT CAVOK 10/03 Q1013 NOSIG
2026-03-18 02:00:00,METAR LFMN 180200Z 33011KT CAVOK 10/03 Q1013 NOSIG
2026-03-18 01:30:00,METAR LFMN 180130Z 33011KT CAVOK 10/03 Q1013 NOSIG
2026-03-18 01:00:00,METAR LFMN 180100Z 33011KT CAVOK 11/04 Q1013 NOSIG
2026-03-18 00:30:00,METAR LFMN 180030Z 33010KT CAVOK 11/03 Q1014 NOSIG
2026-03-18 00:00:00,METAR LFMN 180000Z 34009KT CAVOK 11/04 Q1014 NOSIG
2026-03-17 23:30:00,METAR LFMN 172330Z 33010KT CAVOK 11/04 Q1014 NOSIG
2026-03-17 23:00:00,METAR LFMN 172300Z 33008KT CAVOK 11/04 Q1014 NOSIG
2026-03-17 22:30:00,METAR LFMN 172230Z 34008KT CAVOK 12/04 Q1014 NOSIG
2026-03-17 22:00:00,METAR LFMN 172200Z 33010KT CAVOK 12/04 Q1014 NOSIG
2026-03-17 21:30:00,METAR LFMN 172130Z 33009KT CAVOK 12/04 Q1014 NOSIG
2026-03-17 21:00:00,METAR LFMN 172100Z 32009KT CAVOK 12/04 Q1014 NOSIG
2026-03-17 20:30:00,METAR LFMN 172030Z 01006KT CAVOK 12/05 Q1014 NOSIG
2026-03-17 20:00:00,METAR LFMN 172000Z 33006KT CAVOK 13/05 Q1014 NOSIG
2026-03-17 19:30:00,METAR LFMN 171930Z 34003KT 320V020 CAVOK 13/05 Q1014 NOSIG
2026-03-17 19:00:00,METAR LFMN 171900Z 31004KT CAVOK 14/07 Q1014 NOSIG
2026-03-17 18:30:00,METAR LFMN 171830Z 28003KT 250V310 CAVOK 15/05 Q1014 NOSIG
2026-03-17 18:00:00,METAR LFMN 171800Z 24004KT CAVOK 15/06 Q1014 NOSIG
2026-03-17 17:30:00,METAR LFMN 171730Z VRB02KT CAVOK 16/06 Q1014 NOSIG
2026-03-17 17:00:00,METAR LFMN 171700Z 25004KT CAVOK 17/06 Q1014 NOSIG
2026-03-17 16:30:00,METAR LFMN 171630Z 25004KT CAVOK 18/07 Q1014 NOSIG
2026-03-17 16:00:00,METAR LFMN 171600Z 22003KT 160V260 CAVOK 17/07 Q1014 NOSIG
2026-03-17 15:30:00,METAR LFMN 171530Z 22006KT CAVOK 17/09 Q1014 NOSIG
2026-03-17 15:00:00,METAR LFMN 171500Z 20006KT CAVOK 17/09 Q1014 NOSIG
2026-03-17 14:30:00,METAR LFMN 171430Z 20006KT CAVOK 18/07 Q1015 NOSIG
2026-03-17 14:00:00,METAR LFMN 171400Z 21008KT CAVOK 18/09 Q1015 NOSIG
2026-03-17 13:30:00,METAR LFMN 171330Z 21009KT CAVOK 17/10 Q1015 NOSIG
2026-03-17 13:00:00,METAR LFMN 171300Z 21010KT CAVOK 17/09 Q1015 NOSIG
2026-03-17 12:30:00,METAR LFMN 171230Z 21010KT CAVOK 17/09 Q1015 NOSIG
2026-03-17 12:00:00,METAR LFMN 171200Z 21010KT CAVOK 17/10 Q1015 NOSIG
2026-03-17 11:30:00,METAR LFMN 171130Z 19010KT CAVOK 17/11 Q1015 NOSIG
2026-03-17 11:00:00,METAR LFMN 171100Z 17010KT CAVOK 17/12 Q1015 NOSIG
2026-03-17 10:30:00,METAR LFMN 171030Z 12006KT CAVOK 17/12 Q1015 NOSIG
2026-03-17 10:00:00,METAR LFMN 171000Z 04003KT CAVOK 20/04 Q1015 NOSIG
2026-03-17 09:30:00,METAR LFMN 170930Z 32007KT CAVOK 18/04 Q1015 NOSIG
2026-03-17 09:00:00,METAR LFMN 170900Z 33008KT CAVOK 17/05 Q1015 NOSIG
2026-03-17 08:30:00,METAR LFMN 170830Z 33009KT CAVOK 16/04 Q1015 NOSIG
2026-03-17 08:00:00,METAR LFMN 170800Z 33010KT CAVOK 15/04 Q1015 NOSIG
2026-03-17 07:30:00,METAR LFMN 170730Z 33011KT CAVOK 13/04 Q1015 NOSIG
2026-03-17 07:00:00,METAR LFMN 170700Z 33013KT CAVOK 12/03 Q1015 NOSIG
2026-03-17 06:30:00,METAR LFMN 170630Z 33012KT CAVOK 12/03 Q1015 NOSIG
2026-03-17 06:00:00,METAR LFMN 170600Z 34008KT CAVOK 11/03 Q1014 NOSIG
2026-03-17 05:30:00,METAR LFMN 170530Z 34007KT CAVOK 11/04 Q1014 NOSIG
2026-03-17 05:00:00,METAR LFMN 170500Z 34008KT CAVOK 11/04 Q1014 NOSIG
2026-03-17 04:30:00,METAR LFMN 170430Z 34009KT CAVOK 11/04 Q1014 NOSIG
2026-03-17 04:00:00,METAR LFMN 170400Z 34009KT CAVOK 12/04 Q1014 NOSIG
2026-03-17 03:30:00,METAR LFMN 170330Z 36008KT 330V030 CAVOK 12/05 Q1014 NOSIG
2026-03-17 03:00:00,METAR LFMN 170300Z 35009KT CAVOK 12/05 Q1014 NOSIG
2026-03-17 02:30:00,METAR LFMN 170230Z 35008KT CAVOK 12/05 Q1014 NOSIG
2026-03-17 02:00:00,METAR LFMN 170200Z 34010KT CAVOK 12/05 Q1014 NOSIG
2026-03-17 01:30:00,METAR LFMN 170130Z 34010KT CAVOK 12/06 Q1014 NOSIG
2026-03-17 01:00:00,METAR LFMN 170100Z 34006KT 310V010 CAVOK 12/06 Q1015 NOSIG
2026-03-17 00:30:00,METAR LFMN 170030Z 34008KT CAVOK 13/06 Q1015 NOSIG
2026-03-17 00:00:00,METAR LFMN 170000Z 33010KT CAVOK 13/06 Q1014 NOSIG
2026-03-16 23:30:00,METAR LFMN 162330Z 34009KT CAVOK 13/06 Q1014 NOSIG
2026-03-16 23:00:00,METAR LFMN 162300Z 34008KT CAVOK 13/06 Q1014 NOSIG
2026-03-16 22:30:00,METAR LFMN 162230Z 34009KT CAVOK 13/06 Q1014 NOSIG
2026-03-16 22:00:00,METAR LFMN 162200Z 33010KT CAVOK 13/06 Q1015 NOSIG
2026-03-16 21:30:00,METAR LFMN 162130Z 33008KT CAVOK 12/06 Q1014 NOSIG
2026-03-16 21:00:00,METAR LFMN 162100Z 32012KT CAVOK 13/06 Q1014 NOSIG
2026-03-16 20:30:00,METAR LFMN 162030Z 32011KT CAVOK 13/07 Q1014 NOSIG
2026-03-16 20:00:00,METAR LFMN 162000Z 32009KT CAVOK 13/07 Q1014 NOSIG
2026-03-16 19:30:00,METAR LFMN 161930Z 32008KT CAVOK 13/07 Q1015 NOSIG
2026-03-16 19:00:00,METAR LFMN 161900Z 32005KT CAVOK 14/09 Q1015 NOSIG
2026-03-16 18:30:00,METAR LFMN 161830Z 27004KT CAVOK 14/10 Q1014 NOSIG
2026-03-16 18:00:00,METAR LFMN 161800Z 24006KT CAVOK 15/10 Q1014 NOSIG
2026-03-16 17:30:00,METAR LFMN 161730Z 24007KT CAVOK 15/10 Q1014 NOSIG
2026-03-16 17:00:00,METAR LFMN 161700Z 22003KT CAVOK 16/10 Q1014 NOSIG
2026-03-16 16:30:00,METAR LFMN 161630Z VRB03KT CAVOK 17/11 Q1014 NOSIG
2026-03-16 16:00:00,METAR LFMN 161600Z 19004KT CAVOK 17/11 Q1014 NOSIG
2026-03-16 15:30:00,METAR LFMN 161530Z 19004KT CAVOK 17/10 Q1014 NOSIG
2026-03-16 15:00:00,METAR LFMN 161500Z 19005KT CAVOK 17/10 Q1014 NOSIG
2026-03-16 14:30:00,METAR LFMN 161430Z 19005KT CAVOK 17/10 Q1014 NOSIG
2026-03-16 14:00:00,METAR LFMN 161400Z 20008KT CAVOK 17/10 Q1014 NOSIG
2026-03-16 13:30:00,METAR LFMN 161330Z 20007KT CAVOK 17/10 Q1014 NOSIG
2026-03-16 13:00:00,METAR LFMN 161300Z 20008KT CAVOK 17/10 Q1014 NOSIG
2026-03-16 12:30:00,METAR LFMN 161230Z 20008KT CAVOK 17/10 Q1014 NOSIG
2026-03-16 12:00:00,METAR LFMN 161200Z 19009KT CAVOK 17/10 Q1015 NOSIG
2026-03-16 11:30:00,METAR LFMN 161130Z 19009KT CAVOK 17/11 Q1015 NOSIG
2026-03-16 11:00:00,METAR LFMN 161100Z 19009KT CAVOK 17/10 Q1015 NOSIG
2026-03-16 10:30:00,METAR LFMN 161030Z 20006KT CAVOK 16/09 Q1015 NOSIG
2026-03-16 10:00:00,METAR LFMN 161000Z 24005KT CAVOK 17/04 Q1014 NOSIG
2026-03-16 09:30:00,METAR LFMN 160930Z 32007KT CAVOK 17/04 Q1014 NOSIG
2026-03-16 09:00:00,METAR LFMN 160900Z 32009KT CAVOK 15/04 Q1014 NOSIG
2026-03-16 08:30:00,METAR LFMN 160830Z 33011KT CAVOK 14/04 Q1014 NOSIG
2026-03-16 08:00:00,METAR LFMN 160800Z 33012KT CAVOK 13/04 Q1014 NOSIG
2026-03-16 07:30:00,METAR LFMN 160730Z 33011KT CAVOK 12/03 Q1014 NOSIG
2026-03-16 07:00:00,METAR LFMN 160700Z 33013KT CAVOK 11/03 Q1014 NOSIG
2026-03-16 06:30:00,METAR LFMN 160630Z 33013KT CAVOK 10/03 Q1013 NOSIG
2026-03-16 06:00:00,METAR LFMN 160600Z 33012KT CAVOK 10/03 Q1013 NOSIG
2026-03-16 05:30:00,METAR LFMN 160530Z 34011KT CAVOK 10/03 Q1013 NOSIG
2026-03-16 05:00:00,METAR LFMN 160500Z 33011KT CAVOK 10/03 Q1012 NOSIG
2026-03-16 04:30:00,METAR LFMN 160430Z 33014KT CAVOK 10/03 Q1012 NOSIG
2026-03-16 04:00:00,METAR LFMN 160400Z 33014KT CAVOK 10/03 Q1012 NOSIG
2026-03-16 03:30:00,METAR LFMN 160330Z 33015KT CAVOK 10/04 Q1012 NOSIG
2026-03-16 03:00:00,METAR LFMN 160300Z 34009KT CAVOK 10/04 Q1011 NOSIG
2026-03-16 02:30:00,METAR LFMN 160230Z 33009KT CAVOK 10/04 Q1011 NOSIG
2026-03-16 02:00:00,METAR LFMN 160200Z 33013KT CAVOK 10/04 Q1011 NOSIG
2026-03-16 01:30:00,METAR LFMN 160130Z 33012KT CAVOK 11/04 Q1011 NOSIG
2026-03-16 01:00:00,METAR LFMN 160100Z 33012KT CAVOK 11/04 Q1012 NOSIG
2026-03-16 00:30:00,METAR LFMN 160030Z 33012KT CAVOK 11/04 Q1012 NOSIG
2026-03-16 00:00:00,METAR LFMN 160000Z 33011KT CAVOK 11/05 Q1012 NOSIG
2026-03-15 23:30:00,METAR LFMN 152330Z 33011KT CAVOK 11/05 Q1011 NOSIG
2026-03-15 23:00:00,METAR LFMN 152300Z 33010KT CAVOK 11/05 Q1011 NOSIG
2026-03-15 22:30:00,METAR LFMN 152230Z 33011KT CAVOK 11/05 Q1011 NOSIG
2026-03-15 22:00:00,METAR LFMN 152200Z 33009KT CAVOK 11/06 Q1011 NOSIG
2026-03-15 21:30:00,METAR LFMN 152130Z 34007KT CAVOK 11/06 Q1011 NOSIG
2026-03-15 21:00:00,METAR LFMN 152100Z 33009KT CAVOK 12/07 Q1010 NOSIG
2026-03-15 20:30:00,METAR LFMN 152030Z 33009KT CAVOK 12/07 Q1010 NOSIG
2026-03-15 20:00:00,METAR LFMN 152000Z 32011KT CAVOK 12/08 Q1010 NOSIG
2026-03-15 19:30:00,METAR LFMN 151930Z 31006KT CAVOK 13/08 Q1009 NOSIG
2026-03-15 19:00:00,METAR LFMN 151900Z 30005KT CAVOK 14/07 Q1009 BECMG 34010KT
2026-03-15 18:30:00,METAR LFMN 151830Z 27006KT CAVOK 14/09 Q1008 BECMG 34010KT
2026-03-15 18:00:00,METAR LFMN 151800Z 27008KT CAVOK 15/10 Q1008 BECMG 34010KT
2026-03-15 17:30:00,METAR LFMN 151730Z 26008KT CAVOK 16/09 Q1007 BECMG 34010KT
2026-03-15 17:00:00,METAR LFMN 151700Z 27008KT CAVOK 16/10 Q1007 BECMG 34010KT
2026-03-15 16:30:00,METAR LFMN 151630Z VRB03KT CAVOK 17/10 Q1006 NOSIG
2026-03-15 16:00:00,METAR LFMN 151600Z VRB03KT CAVOK 16/11 Q1006 NOSIG
2026-03-15 15:30:00,METAR LFMN 151530Z 12010KT CAVOK 17/10 Q1005 NOSIG
2026-03-15 15:00:00,METAR LFMN 151500Z 10011KT 9999 FEW090 SCT150 17/09 Q1005 NOSIG
2026-03-15 14:30:00,METAR LFMN 151430Z 10014KT 9999 FEW090 SCT140 17/09 Q1005 NOSIG
2026-03-15 14:00:00,METAR LFMN 151400Z 09020KT 9999 FEW050 SCT130 17/07 Q1004 NOSIG
2026-03-15 13:30:00,METAR LFMN 151330Z 09016KT 9999 FEW050 SCT130 17/09 Q1004 NOSIG
2026-03-15 13:00:00,METAR LFMN 151300Z 08020KT 9999 FEW086 SCT130 17/06 Q1004 NOSIG
2026-03-15 12:30:00,METAR LFMN 151230Z 06014G25KT 030V090 9999 FEW086 BKN110 18/07 Q1004 NOSIG
2026-03-15 12:00:00,METAR LFMN 151200Z 03016KT 9999 FEW070 BKN110 16/06 Q1004 NOSIG
2026-03-15 11:30:00,METAR LFMN 151130Z 03018KT 9999 SCT050 BKN070 BKN110 15/06 Q1004 NOSIG
2026-03-15 11:00:00,METAR LFMN 151100Z 03022KT 9999 -RA BKN050 BKN070 14/06 Q1004 NOSIG
2026-03-15 10:30:00,METAR LFMN 151030Z 04018KT 9999 VCSH BKN050 14/05 Q1003 TEMPO 08025KT
2026-03-15 10:00:00,METAR LFMN 151000Z 04018G28KT 010V070 9999 BKN050 14/05 Q1002 TEMPO 08025KT
2026-03-15 09:30:00,METAR LFMN 150930Z 03017KT 9999 BKN050 13/05 Q1001 TEMPO 08025KT
2026-03-15 09:00:00,METAR LFMN 150900Z 02016KT 9999 BKN050 13/05 Q1000 TEMPO 08025KT
2026-03-15 08:30:00,METAR LFMN 150830Z 02016KT 9999 -RA BKN050 12/05 Q1000 BECMG 08020KT
2026-03-15 08:00:00,METAR LFMN 150800Z 03010KT 9999 -RA BKN053 10/07 Q0999 BECMG 08020KT
