Time_recorded,METAR
2026-05-02 14:56:00,METAR KHDN 021456Z AUTO 10006KT 10SM CLR 07/M04 A3028 RMK AO2 SLP227 T00721044 51008
2026-05-02 13:56:00,METAR KHDN 021356Z AUTO 10008KT 10SM CLR 03/M05 A3028 RMK AO2 SLP230 T00331050
2026-05-02 12:56:00,METAR KHDN 021256Z AUTO 12009KT 10SM CLR 01/M06 A3026 RMK AO2 SLP228 T00061056 FZRANO
2026-05-02 11:56:00,METAR KHDN 021156Z AUTO 09008KT 10SM CLR 00/M05 A3025 RMK AO2 SLP224 T00001050 10033 21006 51003 FZRANO
2026-05-02 10:56:00,METAR KHDN 021056Z AUTO 11010KT 10SM CLR 00/M06 A3025 RMK AO2 SLP223 T00001061 FZRANO
2026-05-02 09:56:00,METAR KHDN 020956Z AUTO 09006KT 10SM CLR 01/M07 A3024 RMK AO2 SLP215 T00111067 FZRANO
2026-05-02 08:56:00,METAR KHDN 020856Z AUTO 10005KT 10SM CLR 02/M07 A3024 RMK AO2 SLP217 T00171072 51002 FZRANO
2026-05-02 07:56:00,METAR KHDN 020756Z AUTO 09006KT 10SM CLR 03/M06 A3024 RMK AO2 SLP217 T00281061
2026-05-02 06:56:00,METAR KHDN 020656Z AUTO 06005KT 10SM CLR 02/M05 A3024 RMK AO2 SLP221 T00221050 FZRANO
2026-05-02 05:56:00,METAR KHDN 020556Z AUTO 20003KT 10SM CLR 01/M06 A3023 RMK AO2 SLP226 T00061056 10133 20006 401391044 51015 FZRANO
2026-05-02 04:56:00,METAR KHDN 020456Z AUTO 20005KT 10SM CLR 03/M06 A3022 RMK AO2 SLP219 T00281061
2026-05-02 03:56:00,METAR KHDN 020356Z AUTO 00000KT 10SM CLR 05/M05 A3021 RMK AO2 SLP215 T00501050
2026-05-02 02:56:00,METAR KHDN 020256Z AUTO 04004KT 10SM CLR 08/M08 A3018 RMK AO2 SLP201 T00831078 53013
2026-05-02 01:56:00,METAR KHDN 020156Z AUTO 05005KT 10SM CLR 11/M08 A3016 RMK AO2 SLP191 T01111083
2026-05-02 00:56:00,METAR KHDN 020056Z AUTO 02006KT 10SM CLR 13/M10 A3014 RMK AO2 SLP187 T01281100
2026-05-01 23:56:00,METAR KHDN 012356Z AUTO 03006KT 10SM SCT100 13/M09 A3013 RMK AO2 SLP191 T01331094 10139 20094 55007
2026-05-01 22:56:00,METAR KHDN 012256Z AUTO 36008KT 10SM SCT100 13/M11 A3013 RMK AO2 SLP192 T01331106
2026-05-01 21:56:00,METAR KHDN 012156Z AUTO 32007KT 270V350 10SM BKN095 14/M07 A3014 RMK AO2 SLP187 T01391067
2026-05-01 20:56:00,METAR KHDN 012056Z AUTO VRB04KT 10SM CLR 12/M07 A3016 RMK AO2 SLP199 T01221072 56009
2026-05-01 19:56:00,METAR KHDN 011956Z AUTO VRB03KT 10SM CLR 12/M06 A3016 RMK AO2 SLP202 T01171061
2026-05-01 18:56:00,METAR KHDN 011856Z AUTO VRB04KT 10SM CLR 11/M07 A3017 RMK AO2 SLP205 T01061067
2026-05-01 17:56:00,METAR KHDN 011756Z AUTO 10004KT 10SM CLR 09/M06 A3019 RMK AO2 SLP208 T00941061 10094 21039 58002
2026-05-01 16:56:00,METAR KHDN 011656Z AUTO 03004KT 10SM CLR 08/M05 A3020 RMK AO2 SLP214 T00831050
2026-05-01 15:56:00,METAR KHDN 011556Z AUTO 00000KT 10SM CLR 06/M04 A3020 RMK AO2 SLP217 T00611044
2026-05-01 14:56:00,METAR KHDN 011456Z AUTO 09004KT 10SM CLR 04/M01 A3020 RMK AO2 SLP219 T00391011 51009
2026-05-01 13:56:00,METAR KHDN 011356Z AUTO 08006KT 10SM CLR 02/M01 A3019 RMK AO2 SLP218 T00171011 FZRANO
2026-05-01 12:56:00,METAR KHDN 011256Z AUTO 10005KT 10SM CLR M01/M02 A3018 RMK AO2 SLP223 T10111022 FZRANO
2026-05-01 11:56:00,METAR KHDN 011156Z AUTO 11003KT 10SM CLR M04/M05 A3017 RMK AO2 SLP223 70001 T10391050 10011 21044 55000 FZRANO
2026-05-01 10:56:00,METAR KHDN 011056Z AUTO 00000KT 10SM CLR M04/M06 A3017 RMK AO2 SLP221 T10441056 FZRANO
2026-05-01 09:56:00,METAR KHDN 010956Z AUTO 11004KT 10SM CLR M02/M03 A3016 RMK AO2 SLP216 T10221033 FZRANO
2026-05-01 08:56:00,METAR KHDN 010856Z AUTO 00000KT 10SM CLR M02/M03 A3016 RMK AO2 SLP217 T10221033 58002 FZRANO
2026-05-01 07:56:00,METAR KHDN 010756Z AUTO 00000KT 10SM CLR M02/M04 A3017 RMK AO2 SLP212 T10171039 FZRANO
2026-05-01 06:56:00,METAR KHDN 010656Z AUTO 10003KT 10SM CLR M01/M02 A3018 RMK AO2 SLP218 T10061022 FZRANO
2026-05-01 05:56:00,METAR KHDN 010556Z AUTO 10006KT 10SM CLR 01/M01 A3017 RMK AO2 SLP204 60000 T00111011 10061 20006 400941028 51006 FZRANO
2026-05-01 04:56:00,METAR KHDN 010456Z AUTO 08003KT 10SM SCT085 02/M01 A3017 RMK AO2 SLP206 T00171006 FZRANO
2026-05-01 03:56:00,METAR KHDN 010356Z AUTO 13009KT 10SM BKN075 03/00 A3017 RMK AO2 SLP209 T00280000
2026-05-01 02:56:00,METAR KHDN 010256Z AUTO 14009KT 10SM OVC060 03/01 A3015 RMK AO2 WSHFT 0149 SLP205 60000 T00330006 53010
2026-05-01 02:09:00,SPECI KHDN 010209Z AUTO 10009KT 10SM BKN042 OVC048 04/01 A3013 RMK AO2 WSHFT 0149
2026-05-01 01:56:00,METAR KHDN 010156Z AUTO 08011KT 10SM BKN042 BKN050 BKN070 06/01 A3013 RMK AO2 SLP197 T00560006
2026-05-01 00:56:00,METAR KHDN 010056Z AUTO 15006KT 10SM FEW042 OVC095 06/01 A3011 RMK AO2 RAE28 SLP194 P0000 T00560006
2026-04-30 23:56:00,METAR KHDN 302356Z AUTO 32009KT 10SM -RA SCT026 OVC036 06/02 A3011 RMK AO2 RAB14 SLP198 P0001 60001 T00560017 10094 20050 53001
2026-04-30 23:38:00,SPECI KHDN 302338Z AUTO 30008KT 10SM -RA FEW015 BKN026 OVC065 06/01 A3011 RMK AO2 RAB14 P0001
2026-04-30 22:56:00,METAR KHDN 302256Z AUTO 00000KT 10SM FEW065 SCT080 07/M01 A3009 RMK AO2 SLP186 T00721011
2026-04-30 21:56:00,METAR KHDN 302156Z AUTO 02007KT 10SM FEW028 SCT065 07/M01 A3009 RMK AO2 SLP185 T00671006
2026-04-30 21:44:00,SPECI KHDN 302144Z AUTO 03010KT 10SM SCT028 BKN065 08/01 A3010 RMK AO2 LTG DSNT N
2026-04-30 21:31:00,SPECI KHDN 302131Z AUTO 32007KT 10SM BKN028 08/00 A3011 RMK AO2
2026-04-30 21:23:00,SPECI KHDN 302123Z AUTO 33007KT 10SM SCT028 08/00 A3010 RMK AO2
2026-04-30 20:56:00,METAR KHDN 302056Z AUTO 32013KT 10SM BKN028 BKN034 07/01 A3011 RMK AO2 SLP193 60000 T00670006 55000
2026-04-30 20:48:00,SPECI KHDN 302048Z AUTO 34014KT 10SM BKN028 07/01 A3010 RMK AO2 LTG DSNT S
2026-04-30 19:56:00,METAR KHDN 301956Z AUTO 29012G17KT 10SM CLR 08/M02 A3009 RMK AO2 SLP179 T00831017
2026-04-30 18:56:00,METAR KHDN 301856Z AUTO 29013KT 10SM SCT050 BKN060 OVC110 06/M01 A3010 RMK AO2 RAB39E56 SLP188 P0000 T00561011
2026-04-30 17:56:00,METAR KHDN 301756Z AUTO VRB04KT 10SM CLR 08/M02 A3011 RMK AO2 SLP184 T00831017 10083 21022 58010
2026-04-30 16:56:00,METAR KHDN 301656Z AUTO VRB04KT 10SM CLR 07/M02 A3013 RMK AO2 SLP189 T00671022
2026-04-30 15:56:00,METAR KHDN 301556Z AUTO 00000KT 10SM BKN075 04/M02 A3014 RMK AO2 SLP195 T00441022
2026-04-30 14:56:00,METAR KHDN 301456Z AUTO 00000KT 10SM FEW090 03/M03 A3014 RMK AO2 SLP201 T00281033 50007
2026-04-30 13:56:00,METAR KHDN 301356Z AUTO 00000KT 10SM SCT055 BKN075 01/M03 A3015 RMK AO2 SLP202 T00061033 FZRANO
2026-04-30 12:56:00,METAR KHDN 301256Z AUTO 00000KT 10SM OVC090 M01/M04 A3013 RMK AO2 SLP188 T10061039 FZRANO
2026-04-30 11:56:00,METAR KHDN 301156Z AUTO 00000KT 10SM OVC090 M02/M04 A3012 RMK AO2 SLP188 T10171039 10017 21028 50001 FZRANO
2026-04-30 10:56:00,METAR KHDN 301056Z AUTO 00000KT 10SM BKN095 M02/M04 A3012 RMK AO2 SLP189 T10221044 FZRANO
2026-04-30 09:56:00,METAR KHDN 300956Z AUTO 00000KT 10SM BKN100 M01/M04 A3012 RMK AO2 SLP186 T10061039 FZRANO
2026-04-30 08:56:00,METAR KHDN 300856Z AUTO 22004KT 10SM CLR M02/M04 A3011 RMK AO2 SLP187 T10171044 58004 FZRANO
2026-04-30 07:56:00,METAR KHDN 300756Z AUTO 13006KT 10SM CLR 00/M04 A3012 RMK AO2 SLP185 T00001039 FZRANO
2026-04-30 06:56:00,METAR KHDN 300656Z AUTO 10007KT 10SM CLR 01/M03 A3013 RMK AO2 SLP188 T00111033 FZRANO
2026-04-30 05:56:00,METAR KHDN 300556Z AUTO 19005KT 10SM CLR 00/M03 A3013 RMK AO2 SLP195 T00001033 10111 20000 401111022 50000 FZRANO
2026-04-30 04:56:00,METAR KHDN 300456Z AUTO 00000KT 10SM CLR 03/M04 A3014 RMK AO2 SLP194 T00281039
2026-04-30 03:56:00,METAR KHDN 300356Z AUTO 06004KT 10SM CLR 04/M04 A3015 RMK AO2 SLP199 T00391039
2026-04-30 02:56:00,METAR KHDN 300256Z AUTO 17004KT 10SM CLR 05/M04 A3013 RMK AO2 SLP195 T00501039 53005
2026-04-30 01:56:00,METAR KHDN 300156Z AUTO 30005KT 10SM CLR 07/M04 A3010 RMK AO2 SLP183 T00721044
2026-04-30 00:56:00,METAR KHDN 300056Z AUTO 30006KT 10SM CLR 10/M07 A3010 RMK AO2 SLP178 T01001067
2026-04-29 23:56:00,METAR KHDN 292356Z AUTO 32007KT 10SM FEW095 11/M06 A3011 RMK AO2 SLP185 T01061056 10111 20072 55004
2026-04-29 22:56:00,METAR KHDN 292256Z AUTO 33010KT 10SM CLR 11/M06 A3009 RMK AO2 SLP177 T01061061
2026-04-29 21:56:00,METAR KHDN 292156Z AUTO 30011G15KT 10SM FEW065 11/M04 A3010 RMK AO2 SLP179 T01061039
2026-04-29 20:56:00,METAR KHDN 292056Z AUTO 34013KT 10SM FEW060 10/M02 A3012 RMK AO2 SLP184 T01001022 56014
2026-04-29 19:56:00,METAR KHDN 291956Z AUTO 33007KT 10SM BKN055 09/M03 A3013 RMK AO2 SLP188 T00941028
2026-04-29 18:56:00,METAR KHDN 291856Z AUTO 29006KT 10SM OVC070 09/M03 A3015 RMK AO2 SLP197 T00891028
2026-04-29 17:56:00,METAR KHDN 291756Z AUTO 23006KT 10SM SCT050 BKN060 07/M03 A3017 RMK AO2 SLP205 T00721033 10072 21017 58007
2026-04-29 16:56:00,METAR KHDN 291656Z AUTO VRB05KT 10SM FEW041 07/M01 A3018 RMK AO2 SLP211 T00671011
2026-04-29 15:56:00,METAR KHDN 291556Z AUTO 00000KT 10SM CLR 05/M01 A3019 RMK AO2 SLP215 T00501011
2026-04-29 14:56:00,METAR KHDN 291456Z AUTO 05003KT 10SM FEW060 OVC080 03/M01 A3020 RMK AO2 SLP223 T00281011 51010
2026-04-29 13:56:00,METAR KHDN 291356Z AUTO 11007KT 10SM OVC055 02/M02 A3020 RMK AO2 SLP217 T00171017 FZRANO
2026-04-29 12:56:00,METAR KHDN 291256Z AUTO 11007KT 10SM OVC075 M01/M02 A3018 RMK AO2 SLP216 T10061022 FZRANO
2026-04-29 11:56:00,METAR KHDN 291156Z AUTO 11004KT 10SM CLR M02/M03 A3017 RMK AO2 SLP211 70043 T10171033 10017 21022 50000 FZRANO
2026-04-29 10:56:00,METAR KHDN 291056Z AUTO 10006KT 10SM CLR M01/M03 A3017 RMK AO2 SLP210 T10061028 FZRANO
2026-04-29 09:56:00,METAR KHDN 290956Z AUTO 09005KT 10SM CLR M01/M02 A3017 RMK AO2 SLP219 T10061022 FZRANO
2026-04-29 08:56:00,METAR KHDN 290856Z AUTO 10008KT 10SM FEW070 BKN095 01/M02 A3017 RMK AO2 SLP214 T00061017 58007 FZRANO
2026-04-29 07:56:00,METAR KHDN 290756Z AUTO 10009KT 10SM BKN095 02/M02 A3018 RMK AO2 SLP215 T00171017 FZRANO
2026-04-29 06:56:00,METAR KHDN 290656Z AUTO 02003KT 10SM OVC095 01/M02 A3020 RMK AO2 SLP222 T00061022 FZRANO
2026-04-29 05:56:00,METAR KHDN 290556Z AUTO 10007KT 10SM SCT090 02/M02 A3019 RMK AO2 SLP218 T00221022 10083 20011 400890000 50004 FZRANO
2026-04-29 04:56:00,METAR KHDN 290456Z AUTO 10006KT 10SM SCT090 02/M03 A3019 RMK AO2 SLP221 T00221028 FZRANO
2026-04-29 03:56:00,METAR KHDN 290356Z AUTO 17004KT 10SM OVC095 03/M02 A3019 RMK AO2 SLP220 T00331022
2026-04-29 02:56:00,METAR KHDN 290256Z AUTO 11004KT 10SM OVC090 04/M01 A3018 RMK AO2 SLP218 T00391006 53012
2026-04-29 01:56:00,METAR KHDN 290156Z AUTO 29005KT 10SM FEW070 BKN095 07/M03 A3015 RMK AO2 SLP204 T00671028
2026-04-29 00:56:00,METAR KHDN 290056Z AUTO 26005KT 10SM BKN100 07/M04 A3014 RMK AO2 SLP200 T00721039
2026-04-28 23:56:00,METAR KHDN 282356Z AUTO 28012KT 10SM SCT095 08/M04 A3013 RMK AO2 SLP194 60001 T00831044 10089 20033 55005
2026-04-28 22:56:00,METAR KHDN 282256Z AUTO 27009G15KT 10SM FEW041 BKN090 08/M03 A3013 RMK AO2 SLP192 T00831033
2026-04-28 21:56:00,METAR KHDN 282156Z AUTO 33005KT 10SM FEW023 BKN060 BKN070 04/M01 A3015 RMK AO2 WSHFT 2106 RAB12E51 SLP211 P0001 T00441006
2026-04-28 21:26:00,SPECI KHDN 282126Z AUTO 30007KT 9SM -RA SCT023 BKN034 OVC055 03/M01 A3017 RMK AO2 WSHFT 2106 RAB12 P0001
2026-04-28 20:56:00,METAR KHDN 282056Z AUTO VRB03KT 10SM FEW027 BKN048 OVC060 04/M01 A3015 RMK AO2 RAE47 SLP212 P0000 60000 T00441006 53002
2026-04-28 19:56:00,METAR KHDN 281956Z AUTO 32009KT 10SM -RA FEW017 BKN041 OVC049 04/M01 A3014 RMK AO2 RAB25 SLP209 P0000 T00441006
2026-04-28 18:56:00,METAR KHDN 281856Z AUTO 22007KT 200V260 10SM SCT044 BKN060 06/M02 A3013 RMK AO2 RAE38 SLPNO P0000 T00611022
2026-04-28 17:56:00,METAR KHDN 281756Z AUTO 28010KT 10SM -RA BKN050 OVC060 05/M02 A3014 RMK AO2 RAB29 SLP205 P0000 60042 T00501022 10050 20000 50008
2026-04-28 16:56:00,METAR KHDN 281656Z AUTO 30006KT 10SM BKN090 04/M01 A3014 RMK AO2 SLP210 P0022 T00391011
2026-04-28 15:56:00,METAR KHDN 281556Z AUTO 27008KT 10SM FEW011 SCT080 03/01 A3013 RMK AO2 UPB1458E18SNE1458 SLP207 P0018 T00330011
2026-04-28 15:40:00,SPECI KHDN 281540Z AUTO 27008KT 10SM FEW010 SCT020 BKN075 03/02 A3013 RMK AO2 UPB1458E18SNE1458 P0011
2026-04-28 15:10:00,SPECI KHDN 281510Z AUTO 28006KT 10SM UP FEW008 BKN017 OVC021 02/01 A3012 RMK AO2 UPB1458SNE1458 P0002 FZRANO
2026-04-28 14:56:00,METAR KHDN 281456Z AUTO 28006KT 8SM -SN FEW004 BKN014 OVC024 01/01 A3011 RMK AO2 RAE35SNB35 SLP204 P0002 60002 T00110006 51022 FZRANO
2026-04-28 14:41:00,SPECI KHDN 281441Z AUTO 28007KT 6SM -SN BR FEW003 BKN011 OVC035 01/01 A3011 RMK AO2 RAE35SNB35 P0002 FZRANO
2026-04-28 14:34:00,SPECI KHDN 281434Z AUTO 28007KT 7SM -RA SCT003 BKN020 OVC035 01/01 A3010 RMK AO2 P0001 FZRANO
2026-04-28 13:56:00,METAR KHDN 281356Z AUTO 27007KT 8SM -RA OVC003 01/01 A3009 RMK AO2 UPE12B38E40RAB12 SLP193 P0000 T00060006 FZRANO
2026-04-28 12:56:00,METAR KHDN 281256Z AUTO 24003KT 7SM UP BKN003 OVC006 00/00 A3006 RMK AO2 SLP185 P0000 T00000000 FZRANO
2026-04-28 12:14:00,SPECI KHDN 281214Z AUTO 26003KT 10SM UP OVC003 00/00 A3004 RMK AO2 P0000 FZRANO
2026-04-28 12:07:00,SPECI KHDN 281207Z AUTO VRB03KT 2SM UP BR OVC003 00/00 A3004 RMK AO2 P0000 FZRANO
2026-04-28 12:05:00,SPECI KHDN 281205Z AUTO 25004KT 1SM UP BR BKN003 00/M01 A3004 RMK AO2 P0000 FZRANO
2026-04-28 11:56:00,METAR KHDN 281156Z AUTO 23004KT 1/2SM UP FG BKN003 BKN011 OVC030 00/M01 A3003 RMK AO2 UPB44SNE44 SLP173 P0001 60003 70033 T00001006 10000 20000 52006 FZRANO
2026-04-28 11:49:00,SPECI KHDN 281149Z AUTO 24003KT 1/2SM UP FG BKN003 BKN011 OVC030 00/M01 A3003 RMK AO2 UPB44SNE44 CIG 001V006 P0001 FZRANO
2026-04-28 11:35:00,SPECI KHDN 281135Z AUTO 00000KT 3/4SM -SN BR SCT003 BKN015 OVC030 00/M01 A3002 RMK AO2 P0001 FZRANO
2026-04-28 11:23:00,SPECI KHDN 281123Z AUTO 00000KT 1/2SM -SN FG BKN003 BKN007 OVC023 00/00 A3003 RMK AO2 P0001 FZRANO
2026-04-28 11:11:00,SPECI KHDN 281111Z AUTO 00000KT 1SM -SN BR BKN003 BKN007 OVC023 00/00 A3003 RMK AO2 P0001 FZRANO
2026-04-28 10:56:00,METAR KHDN 281056Z AUTO 00000KT 1 1/4SM -SN BR BKN005 OVC013 00/00 A3002 RMK AO2 CIG 002V010 SLP166 P0000 T00000000 FZRANO
2026-04-28 10:52:00,SPECI KHDN 281052Z AUTO 00000KT 1 1/4SM -SN BR SCT005 BKN008 OVC013 00/00 A3002 RMK AO2 P0000 FZRANO
2026-04-28 10:41:00,SPECI KHDN 281041Z AUTO 00000KT 1 3/4SM -SN BR SCT005 BKN012 OVC017 00/00 A3002 RMK AO2 P0000 FZRANO
2026-04-28 10:37:00,SPECI KHDN 281037Z AUTO 00000KT 2SM -SN BR SCT005 BKN009 OVC019 00/00 A3002 RMK AO2 CIG 006V011 P0000 FZRANO
2026-04-28 10:23:00,SPECI KHDN 281023Z AUTO 00000KT 1 1/4SM -SN BR SCT007 BKN012 OVC017 00/M01 A3002 RMK AO2 P0000 FZRANO
2026-04-28 10:18:00,SPECI KHDN 281018Z AUTO 00000KT 1SM -SN BR OVC009 00/M01 A3002 RMK AO2 CIG 005V013 P0000 FZRANO
2026-04-28 10:11:00,SPECI KHDN 281011Z AUTO 00000KT 3/4SM -SN BR SCT006 OVC011 00/M01 A3002 RMK AO2 P0000 FZRANO
2026-04-28 09:56:00,METAR KHDN 280956Z AUTO 03004KT 1/2SM -SN FG SCT003 BKN009 OVC023 00/M01 A3001 RMK AO2 CIG 007V012 SLP159 P0000 T00001006 FZRANO
2026-04-28 09:45:00,SPECI KHDN 280945Z AUTO 01003KT 1/4SM -SN FG BKN003 OVC023 00/M01 A3001 RMK AO2 P0000 FZRANO
2026-04-28 09:25:00,SPECI KHDN 280925Z AUTO 00000KT 1/2SM -SN FG BKN003 OVC014 00/00 A3001 RMK AO2 P0000 FZRANO
2026-04-28 09:23:00,SPECI KHDN 280923Z AUTO 00000KT 3/4SM -SN BR SCT003 OVC012 00/00 A3001 RMK AO2 P0000 FZRANO
2026-04-28 09:20:00,SPECI KHDN 280920Z AUTO 34004KT 1 1/2SM -SN BR SCT003 OVC012 00/00 A3001 RMK AO2 P0000 FZRANO
2026-04-28 09:18:00,SPECI KHDN 280918Z AUTO VRB03KT 6SM -SN BR SCT003 BKN012 OVC017 00/00 A3001 RMK AO2 P0000 FZRANO
2026-04-28 09:10:00,SPECI KHDN 280910Z AUTO 00000KT 6SM -SN BR BKN003 OVC015 00/00 A3001 RMK AO2 CIG 001V007 P0000 FZRANO
2026-04-28 09:07:00,SPECI KHDN 280907Z AUTO 00000KT 2 1/2SM -SN BR BKN005 OVC013 00/00 A3000 RMK AO2 CIG 001V007 P0000 FZRANO
2026-04-28 09:04:00,SPECI KHDN 280904Z AUTO 15004KT 1SM -SN BR BKN005 OVC013 00/00 A3000 RMK AO2 CIG 001V007 P0000 FZRANO
2026-04-28 08:56:00,METAR KHDN 280856Z AUTO 15004KT 1/2SM -SN FG BKN005 OVC010 00/00 A3001 RMK AO2 UPE01SNB01 CIG 002V008 SLP154 P0001 60002 T00000000 58002 FZRANO
2026-04-28 08:29:00,SPECI KHDN 280829Z AUTO 17004KT 1/2SM SN FG BKN008 OVC014 00/00 A3002 RMK AO2 UPE01SNB01 CIG 003V009 P0001 FZRANO
2026-04-28 08:23:00,SPECI KHDN 280823Z AUTO 18004KT 1SM -SN BR BKN008 OVC014 00/00 A3003 RMK AO2 UPE01SNB01 CIG 003V011 P0000 FZRANO
2026-04-28 08:06:00,SPECI KHDN 280806Z AUTO 03003KT 1 3/4SM -SN BR FEW003 SCT006 OVC014 00/00 A3003 RMK AO2 VIS 1V5 UPE01SNB01 P0000 FZRANO
2026-04-28 08:03:00,SPECI KHDN 280803Z AUTO 05003KT 4SM -SN BR BKN003 BKN012 OVC020 00/00 A3003 RMK AO2 UPE01SNB01 CIG 002V008 P0000 FZRANO
2026-04-28 07:56:00,METAR KHDN 280756Z AUTO 00000KT 3SM UP BR BKN005 OVC020 00/00 A3003 RMK AO2 UPB52SNE52 CIG 002V008 SLP161 P0001 T00000000 FZRANO
2026-04-28 07:54:00,SPECI KHDN 280754Z AUTO 00000KT 2SM UP BR BKN003 OVC007 00/M01 A3003 RMK AO2 UPB52SNE52 CIG 002V006 P0001 FZRANO
2026-04-28 07:22:00,SPECI KHDN 280722Z AUTO 00000KT 1 1/2SM -SN BR OVC003 00/M01 A3003 RMK AO2 CIG 003V006 P0001 FZRANO
2026-04-28 07:12:00,SPECI KHDN 280712Z AUTO 00000KT 1SM -SN BR OVC005 00/M01 A3003 RMK AO2 CIG 003V009 P0001 FZRANO
2026-04-28 06:56:00,METAR KHDN 280656Z AUTO 22003KT 1/2SM SN BKN005 OVC009 A3003 RMK AO2 UPB15E21SNE15B21 CIG 003V007 SLPNO P0000 FZRANO
2026-04-28 06:42:00,SPECI KHDN 280642Z AUTO 21003KT 1/2SM SN FEW003 BKN009 OVC014 A3004 RMK AO2 UPB15E21SNE15B21 CIG 006V010 P0000 FZRANO
2026-04-28 06:36:00,SPECI KHDN 280636Z AUTO 21004KT 1SM -SN FEW003 BKN009 OVC014 A3004 RMK AO2 UPB15E21SNE15B21 CIG 007V012 P0000 FZRANO
2026-04-28 06:34:00,SPECI KHDN 280634Z AUTO 19003KT 3/4SM -SN FEW003 OVC011 A3003 RMK AO2 UPB15E21SNE15B21 P0000 FZRANO
2026-04-28 06:22:00,SPECI KHDN 280622Z AUTO 00000KT 1/2SM -SN FG FEW003 BKN009 OVC015 00/00 A3002 RMK AO2 UPB15E21SNE15B21 CIG 007V013 P0000 FZRANO
2026-04-28 06:18:00,SPECI KHDN 280618Z AUTO 23005KT 3/4SM UP BR FEW005 BKN011 OVC015 00/00 A3003 RMK AO2 UPB15SNE15 P0000 FZRANO
2026-04-28 05:58:00,SPECI KHDN 280558Z AUTO 00000KT 1SM -SN BR BKN014 BKN020 OVC038 00/00 A3001 RMK AO2 P0000 FZRANO
2026-04-28 05:56:00,METAR KHDN 280556Z AUTO 05003KT 1 1/4SM -SN BR SCT012 BKN018 OVC038 00/00 A3001 RMK AO2 UPB34E36B52E56SNE34B36E52B56 SLP163 P0003 60019 T00000000 10028 20000 400780000 50003 FZRANO
2026-04-28 05:51:00,SPECI KHDN 280551Z AUTO 03003KT 2 1/2SM -SN BR SCT012 BKN016 OVC036 00/00 A3002 RMK AO2 UPB34E36SNE34B36 P0003 400780000 FZRANO
2026-04-28 05:42:00,SPECI KHDN 280542Z AUTO 00000KT 1 1/2SM -SN BR FEW010 BKN018 OVC036 00/00 A3001 RMK AO2 UPB34E36SNE34B36 P0002 FZRANO
2026-04-28 05:35:00,SPECI KHDN 280535Z AUTO 07004KT 1SM UP BR SCT010 BKN016 OVC035 00/00 A3001 RMK AO2 UPB34SNE34 P0002 FZRANO
2026-04-28 05:25:00,SPECI KHDN 280525Z AUTO 06005KT 1 1/4SM -SN BR SCT010 BKN014 OVC035 00/00 A3000 RMK AO2 P0002 FZRANO
2026-04-28 05:16:00,SPECI KHDN 280516Z AUTO 00000KT 2SM -SN BR BKN012 OVC017 00/00 A3001 RMK AO2 P0001 FZRANO
2026-04-28 05:06:00,SPECI KHDN 280506Z AUTO 05003KT 1 1/4SM -SN BR OVC014 00/00 A3001 RMK AO2 P0000 FZRANO
2026-04-28 04:56:00,METAR KHDN 280456Z AUTO 00000KT 3/4SM -SN BR FEW003 BKN011 OVC017 00/00 A3002 RMK AO2 SLP161 P0000 T00000000 FZRANO
2026-04-28 04:52:00,SPECI KHDN 280452Z AUTO 33004KT 3/4SM -SN BR FEW003 OVC015 00/00 A3002 RMK AO2 P0000 FZRANO
2026-04-28 04:47:00,SPECI KHDN 280447Z AUTO 00000KT 3/4SM -SN BR BKN013 OVC019 00/00 A3002 RMK AO2 P0000 FZRANO
2026-04-28 04:40:00,SPECI KHDN 280440Z AUTO 35003KT 3/4SM -SN BR OVC015 00/00 A3001 RMK AO2 P0000 FZRANO
2026-04-28 04:32:00,SPECI KHDN 280432Z AUTO 02004KT 1 1/4SM -SN BR FEW004 OVC013 00/00 A3000 RMK AO2 P0000 FZRANO
2026-04-28 04:22:00,SPECI KHDN 280422Z AUTO 00000KT 2SM -SN BR FEW004 BKN013 OVC024 00/00 A3001 RMK AO2 VIS 1 1/2V3 P0000 FZRANO
2026-04-28 04:12:00,SPECI KHDN 280412Z AUTO 00000KT 1 1/2SM -SN BR SCT004 BKN015 OVC024 00/00 A3001 RMK AO2 P0000 FZRANO
2026-04-28 04:03:00,SPECI KHDN 280403Z AUTO 30003KT 2SM -SN BR FEW004 BKN015 OVC024 00/00 A3000 RMK AO2 VIS 3/4V5 P0000 FZRANO
2026-04-28 03:56:00,METAR KHDN 280356Z AUTO 00000KT 1SM -SN BR SCT004 SCT010 OVC015 00/00 A3000 RMK AO2 VIS 1/2V5 TSE0258B04E19 SLP162 P0003 T00000000 FZRANO
2026-04-28 03:52:00,SPECI KHDN 280352Z AUTO 00000KT 3/4SM -SN BR SCT004 BKN010 OVC015 00/00 A3000 RMK AO2 VIS 1/2V5 TSE0258B04E19 P0003 FZRANO
2026-04-28 03:42:00,SPECI KHDN 280342Z AUTO VRB03KT 1 1/4SM -SN BR FEW004 BKN010 OVC021 00/00 A3000 RMK AO2 TSE0258B04E19 CIG 008V012 P0002 FZRANO
2026-04-28 03:31:00,SPECI KHDN 280331Z AUTO 27003KT 3/4SM -SN BR FEW004 BKN010 OVC021 00/00 A3000 RMK AO2 TSE0258B04E19 CIG 008V013 P0002 FZRANO
2026-04-28 03:28:00,SPECI KHDN 280328Z AUTO 35004KT 1SM -SN BR BKN012 OVC021 01/00 A3000 RMK AO2 TSE0258B04E19 P0002 FZRANO
2026-04-28 03:24:00,SPECI KHDN 280324Z AUTO 35004KT 2 1/2SM -SN BR BKN012 OVC021 01/00 A3000 RMK AO2 LTG DSNT E TSE0258B04E19 P0002 FZRANO
2026-04-28 03:11:00,SPECI KHDN 280311Z AUTO 12003KT 4SM VCTS -SN BR FEW004 OVC012 01/00 A2999 RMK AO2 LTG DSNT E TSE0258B04 P0001 FZRANO
2026-04-28 03:04:00,SPECI KHDN 280304Z AUTO 16004KT 2 1/2SM VCTS -SN BR FEW004 OVC012 01/00 A2999 RMK AO2 VIS 1 1/4V5 LTG DSNT E TSE0258B04 P0000 FZRANO
2026-04-28 02:56:00,METAR KHDN 280256Z AUTO 20004KT 3SM VCTS -SN BR FEW004 BKN010 OVC014 01/00 A2999 RMK AO2 LTG DSNT E TSB09E30B32RAE47UPB07E12B47E48SNB48 CIG 009V012 SLP160 P0005 60013 T00060000 53019 FZRANO
2026-04-28 02:41:00,SPECI KHDN 280241Z AUTO 20005KT 7SM TSRA FEW006 BKN010 OVC020 02/01 A2999 RMK AO2 LTG DSNT S TSB09E30B32UPB07E12 P0003 FZRANO
2026-04-28 02:32:00,SPECI KHDN 280232Z AUTO 24004KT 10SM -TSRA BKN010 BKN015 OVC028 02/01 A2998 RMK AO2 LTG DSNT S AND SW TSB09E30B32UPB07E12 P0001 FZRANO
2026-04-28 02:17:00,SPECI KHDN 280217Z AUTO 05004KT 10SM VCTS -RA BKN010 BKN017 OVC045 02/01 A2996 RMK AO2 LTG DSNT SW TSB09UPB07E12 P0000 FZRANO
2026-04-28 02:09:00,SPECI KHDN 280209Z AUTO 11004KT 10SM VCTS UP FEW010 SCT017 OVC045 02/01 A2996 RMK AO2 LTG DSNT SW TSB09RAE07UPB07 P0000 FZRANO
2026-04-28 01:56:00,METAR KHDN 280156Z AUTO 12005KT 10SM -RA BKN019 OVC045 02/02 A2995 RMK AO2 TSE0059UPE08RAB08E27B54 SLP145 P0000 T00220017 FZRANO
2026-04-28 01:05:00,SPECI KHDN 280105Z AUTO 17003KT 8SM UP SCT015 BKN022 OVC042 02/02 A2995 RMK AO2 TSE0059 P0000 FZRANO
2026-04-28 00:56:00,METAR KHDN 280056Z AUTO 16004KT 5SM VCTS UP BR OVC015 02/02 A2995 RMK AO2 LTG DSNT E TSB04RAE31UPB31 SLP147 P0008 T00170017 FZRANO
2026-04-28 00:10:00,SPECI KHDN 280010Z AUTO 02008KT 10SM -TSRA BKN017 OVC027 03/02 A2993 RMK AO2 LTG DSNT SW TSB04 P0000
2026-04-27 23:56:00,METAR KHDN 272356Z AUTO 05007KT 10SM -RA BKN015 BKN019 OVC032 03/02 A2993 RMK AO2 LTG DSNT SW AND W SLP135 P0005 60009 T00280017 10078 20028 53004
2026-04-27 22:56:00,METAR KHDN 272256Z AUTO 35011KT 10SM -RA OVC019 04/02 A2991 RMK AO2 TSB29E50 SLP122 P0003 T00440022
2026-04-27 22:35:00,SPECI KHDN 272235Z AUTO 36008KT 10SM VCTS -RA BKN019 OVC030 04/02 A2991 RMK AO2 TSB29 P0003
2026-04-27 22:06:00,SPECI KHDN 272206Z AUTO 32008KT 9SM RA SCT019 BKN026 OVC065 05/03 A2990 RMK AO2 P0001
2026-04-27 21:56:00,METAR KHDN 272156Z AUTO 36011KT 10SM RA SCT027 SCT045 BKN070 06/03 A2990 RMK AO2 RAB51 SLP118 P0001 T00560033
2026-04-27 20:56:00,METAR KHDN 272056Z AUTO 01008KT 10SM FEW029 BKN065 OVC085 06/02 A2991 RMK AO2 RAB08E38 SLP121 P0000 60000 T00610022 58013
2026-04-27 20:35:00,SPECI KHDN 272035Z AUTO 28004KT 10SM -RA FEW024 BKN033 OVC070 06/02 A2993 RMK AO2 RAB08 P0000
2026-04-27 20:05:00,SPECI KHDN 272005Z AUTO 00000KT 5SM HZ BKN027 BKN032 BKN070 07/01 A2992 RMK AO2
2026-04-27 19:56:00,METAR KHDN 271956Z AUTO 00000KT 10SM SCT025 SCT030 BKN050 08/01 A2993 RMK AO2 SLP114 T00780011
2026-04-27 18:56:00,METAR KHDN 271856Z AUTO VRB03KT 10SM SCT015 BKN035 OVC042 05/01 A2995 RMK AO2 RAE47 SLP129 P0000 T00500011
2026-04-27 18:49:00,SPECI KHDN 271849Z AUTO 00000KT 10SM SCT015 BKN021 OVC042 05/01 A2995 RMK AO2 RAE47 P0000
2026-04-27 18:15:00,SPECI KHDN 271815Z AUTO 29004KT 10SM -RA 04/01 A2996 RMK AO2 P0000
2026-04-27 17:56:00,METAR KHDN 271756Z AUTO 00000KT 10SM -RA BKN025 OVC032 04/01 A2996 RMK AO2 RAB27 SLP135 P0000 60002 T00390006 10056 20006 53002
2026-04-27 17:34:00,SPECI KHDN 271734Z AUTO 24006KT 10SM -RA BKN023 BKN032 OVC060 04/00 A2996 RMK AO2 RAB27 P0000
2026-04-27 16:56:00,METAR KHDN 271656Z AUTO VRB04KT 10SM SCT020 BKN055 05/00 A2995 RMK AO2 SLP128 T00500000
2026-04-27 16:45:00,SPECI KHDN 271645Z AUTO VRB04KT 10SM BKN020 BKN055 05/00 A2995 RMK AO2
2026-04-27 16:30:00,SPECI KHDN 271630Z AUTO 00000KT 10SM FEW014 SCT020 04/00 A2995 RMK AO2
2026-04-27 16:17:00,SPECI KHDN 271617Z AUTO 28003KT 10SM FEW012 BKN020 04/M01 A2995 RMK AO2
2026-04-27 15:56:00,METAR KHDN 271556Z AUTO 00000KT 10SM BKN010 BKN016 BKN023 03/00 A2995 RMK AO2 CIG 007V013 SLP134 T00330000
2026-04-27 15:04:00,SPECI KHDN 271504Z AUTO 29003KT 10SM BKN009 BKN018 OVC050 03/02 A2995 RMK AO2
2026-04-27 14:56:00,METAR KHDN 271456Z AUTO 00000KT 10SM SCT009 BKN018 OVC050 03/01 A2995 RMK AO2 SLP134 60002 T00280011 51005
2026-04-27 14:53:00,SPECI KHDN 271453Z AUTO 00000KT 10SM SCT009 BKN018 OVC050 02/01 A2995 RMK AO2 FZRANO
2026-04-27 13:56:00,METAR KHDN 271356Z AUTO 19003KT 10SM OVC009 01/01 A2994 RMK AO2 RAB12E29 SLP138 P0001 T00110006 FZRANO
2026-04-27 12:56:00,METAR KHDN 271256Z AUTO 28004KT 10SM OVC009 01/01 A2993 RMK AO2 CIG 008V013 SLP137 P0001 T00060006 FZRANO
2026-04-27 11:56:00,METAR KHDN 271156Z AUTO 27006KT 10SM OVC007 01/01 A2991 RMK AO2 RAB03E51SNE03 CIG 004V010 SLP123 P0002 60005 70013 T00060006 10044 20000 51020 FZRANO
2026-04-27 11:46:00,SPECI KHDN 271146Z AUTO 30006KT 10SM -RA OVC007 01/00 A2990 RMK AO2 RAB03SNE03 P0002 FZRANO
2026-04-27 11:36:00,SPECI KHDN 271136Z AUTO 30006KT 10SM -RA BKN005 OVC010 01/01 A2990 RMK AO2 RAB03SNE03 CIG 004V008 P0001 FZRANO
2026-04-27 10:56:00,METAR KHDN 271056Z AUTO 27007KT 8SM -SN OVC006 01/00 A2989 RMK AO2 CIG 004V009 SLP098 P0001 T00060000 FZRANO
2026-04-27 10:40:00,SPECI KHDN 271040Z AUTO 28007KT 4SM -SN BR OVC006 00/00 A2988 RMK AO2 CIG 003V009 P0001 FZRANO
2026-04-27 10:27:00,SPECI KHDN 271027Z AUTO 26007KT 3SM -SN BR OVC004 00/00 A2988 RMK AO2 CIG 002V008 P0000 FZRANO
2026-04-27 09:56:00,METAR KHDN 270956Z AUTO 27011KT 1 3/4SM -SN BR OVC004 00/00 A2986 RMK AO2 CIG 002V007 SLP092 P0000 T00000000 FZRANO
2026-04-27 09:43:00,SPECI KHDN 270943Z AUTO 27010KT 4SM -SN BR OVC004 00/00 A2985 RMK AO2 CIG 002V009 P0000 FZRANO
2026-04-27 09:34:00,SPECI KHDN 270934Z AUTO 27009KT 2SM -SN BR BKN004 OVC008 00/00 A2985 RMK AO2 VIS 1V4 P0000 FZRANO
2026-04-27 09:29:00,SPECI KHDN 270929Z AUTO 27008KT 1SM -SN BR BKN004 OVC008 00/00 A2985 RMK AO2 VIS 3/4V4 P0000 FZRANO
2026-04-27 09:07:00,SPECI KHDN 270907Z AUTO 27010KT 1/2SM SN FG OVC004 00/M01 A2984 RMK AO2 CIG 002V009 P0000 FZRANO
2026-04-27 09:01:00,SPECI KHDN 270901Z AUTO 27010KT 1SM -SN BR BKN004 OVC010 00/00 A2984 RMK AO2 CIG 002V007 P0000 FZRANO
2026-04-27 08:56:00,METAR KHDN 270856Z AUTO 28011KT 2SM -SN BR BKN004 OVC008 01/00 A2984 RMK AO2 RAE43SNB43 SLP089 P0002 60002 T00060000 52005 FZRANO
2026-04-27 08:52:00,SPECI KHDN 270852Z AUTO 28012KT 2 1/2SM -SN BR BKN004 OVC010 01/00 A2984 RMK AO2 RAE43SNB43 CIG 003V008 P0002 FZRANO
2026-04-27 08:27:00,SPECI KHDN 270827Z AUTO 28012KT 10SM -RA BKN006 OVC010 02/01 A2984 RMK AO2 CIG 004V008 P0002 FZRANO
2026-04-27 08:05:00,SPECI KHDN 270805Z AUTO 27016KT 7SM -RA FEW008 BKN014 OVC021 03/02 A2983 RMK AO2 P0001
2026-04-27 07:56:00,METAR KHDN 270756Z AUTO 28014KT 10SM -RA BKN016 BKN022 OVC033 03/02 A2983 RMK AO2 RAB47 SLP080 P0000 T00330017
2026-04-27 06:56:00,METAR KHDN 270656Z AUTO 00000KT 10SM OVC040 03/02 A2982 RMK AO2 SLP074 T00330022
2026-04-27 05:56:00,METAR KHDN 270556Z AUTO 22003KT 10SM OVC042 03/01 A2981 RMK AO2 RAE26 SLP069 P0000 60004 T00330011 10044 20028 401220028 51007
2026-04-27 04:56:00,METAR KHDN 270456Z AUTO 23003KT 10SM -RA BKN039 OVC049 03/02 A2981 RMK AO2 RAB52 SLP073 P0000 T00330017
2026-04-27 03:56:00,METAR KHDN 270356Z AUTO 07005KT 10SM BKN043 OVC060 03/02 A2980 RMK AO2 SLP072 T00330022
2026-04-27 02:56:00,METAR KHDN 270256Z AUTO 11005KT 10SM BKN050 BKN085 03/02 A2978 RMK AO2 SLP070 60004 T00330017 51021
2026-04-27 01:56:00,METAR KHDN 270156Z AUTO 04007KT 10SM BKN050 BKN065 03/02 A2975 RMK AO2 RAE18 SLP061 P0000 T00280017
2026-04-27 01:21:00,SPECI KHDN 270121Z AUTO 27005KT 10SM SCT018 BKN033 OVC085 04/02 A2976 RMK AO2 RAE18 P0000
2026-04-27 00:56:00,METAR KHDN 270056Z AUTO 24010KT 10SM -RA SCT018 OVC025 03/02 A2975 RMK AO2 PK WND 27030/2359 SLP062 P0004 T00280017
2026-04-27 00:43:00,SPECI KHDN 270043Z AUTO 24016KT 10SM -RA FEW017 BKN025 OVC035 03/02 A2974 RMK AO2 PK WND 27030/2359 P0003
2026-04-26 23:56:00,METAR KHDN 262356Z AUTO 28026G34KT 10SM -RA SCT032 BKN043 BKN049 04/02 A2971 RMK AO2 PK WND 27037/2346 LTG DSNT NE RAB48 PRESRR SLP043 P0000 60004 T00440017 10122 20044 53003
2026-04-26 22:56:00,METAR KHDN 262256Z AUTO 24010G17KT 10SM SCT065 BKN080 11/M01 A2964 RMK AO2 SLP000 T01111011
2026-04-26 21:56:00,METAR KHDN 262156Z AUTO 23013G24KT 10SM BKN060 11/M01 A2965 RMK AO2 SLP007 T01111006
2026-04-26 20:56:00,METAR KHDN 262056Z AUTO 23010KT 10SM FEW070 SCT110 08/02 A2970 RMK AO2 PK WND 23028/2000 LTG DSNT SE RAB04E24 SLP026 P0000 60004 T00780022 53008
2026-04-26 19:56:00,METAR KHDN 261956Z AUTO 24020G27KT 10SM FEW036 BKN065 OVC080 07/01 A2969 RMK AO2 PK WND 22029/1902 LTG DSNT N AND NE SLP027 T00720011
2026-04-26 18:56:00,METAR KHDN 261856Z AUTO 23019G29KT 10SM FEW041 BKN070 09/01 A2966 RMK AO2 PK WND 23029/1854 RAB05E23 SLP014 P0004 T00890011
2026-04-26 17:56:00,METAR KHDN 261756Z AUTO 20006KT 10SM FEW032 SCT046 BKN070 09/02 A2967 RMK AO2 RAB30E50 SLP012 P0000 60000 T00940022 10094 20033 58013
2026-04-26 16:56:00,METAR KHDN 261656Z AUTO 36004KT 10SM SCT041 BKN048 08/03 A2969 RMK AO2 SLP020 T00780028
2026-04-26 16:06:00,SPECI KHDN 261606Z AUTO 02006KT 10SM SCT029 BKN042 OVC049 06/04 A2970 RMK AO2
2026-04-26 15:56:00,METAR KHDN 261556Z AUTO 03004KT 10SM BKN029 BKN034 OVC045 06/03 A2970 RMK AO2 RAE52 SLP023 P0000 T00610033
2026-04-26 15:48:00,SPECI KHDN 261548Z AUTO 01005KT 10SM -RA BKN029 BKN034 OVC040 06/04 A2970 RMK AO2 P0000
2026-04-26 14:56:00,METAR KHDN 261456Z AUTO 06005KT 10SM -RA BKN055 OVC065 05/03 A2972 RMK AO2 RAB05 SLP032 P0000 60000 T00500028 56007
2026-04-26 13:56:00,METAR KHDN 261356Z AUTO 00000KT 10SM BKN042 BKN049 OVC065 05/03 A2973 RMK AO2 SLP037 T00500033
2026-04-26 12:56:00,METAR KHDN 261256Z AUTO 11009KT 10SM FEW070 SCT100 03/02 A2973 RMK AO2 RAE20 SLP032 P0000 T00330022
2026-04-26 11:56:00,METAR KHDN 261156Z AUTO 08007KT 10SM -RA SCT033 OVC046 04/03 A2974 RMK AO2 SLP036 P0001 60005 70005 T00390033 10067 20039 58006
2026-04-26 11:28:00,SPECI KHDN 261128Z AUTO 06005KT 10SM -RA FEW022 BKN030 OVC039 04/03 A2975 RMK AO2 P0001
2026-04-26 10:56:00,METAR KHDN 261056Z AUTO 05003KT 10SM -RA BKN024 BKN031 OVC038 04/03 A2976 RMK AO2 SLP043 P0003 T00440028
2026-04-26 09:56:00,METAR KHDN 260956Z AUTO 23006KT 9SM -RA OVC026 04/03 A2977 RMK AO2 RAB20 SLP041 P0001 T00440033
2026-04-26 09:42:00,SPECI KHDN 260942Z AUTO 00000KT 10SM -RA BKN026 OVC035 05/02 A2977 RMK AO2 RAB20 P0000
2026-04-26 08:56:00,METAR KHDN 260856Z AUTO 00000KT 10SM OVC055 07/M01 A2977 RMK AO2 SLP035 T00671006 58010
2026-04-26 07:56:00,METAR KHDN 260756Z AUTO 13005KT 10SM OVC065 05/M01 A2978 RMK AO2 SLP043 T00501011
2026-04-26 06:56:00,METAR KHDN 260656Z AUTO 12007KT 10SM CLR 04/M01 A2979 RMK AO2 SLP054 T00391006
2026-04-26 05:56:00,METAR KHDN 260556Z AUTO 09007KT 10SM FEW100 06/M01 A2980 RMK AO2 SLP057 60000 T00561006 10128 20056 401501011 58003
2026-04-26 04:56:00,METAR KHDN 260456Z AUTO 13008KT 10SM SCT090 07/M02 A2981 RMK AO2 SLP062 T00721017
2026-04-26 03:56:00,METAR KHDN 260356Z AUTO 33010KT 10SM OVC060 09/M02 A2982 RMK AO2 SLP068 T00941022
2026-04-26 02:56:00,METAR KHDN 260256Z AUTO 34012G18KT 10SM OVC080 09/M01 A2981 RMK AO2 SLP072 60000 T00891011 53007
2026-04-26 01:56:00,METAR KHDN 260156Z AUTO 05007KT 10SM OVC110 09/M03 A2979 RMK AO2 SLP068 T00941028
2026-04-26 00:56:00,METAR KHDN 260056Z AUTO 25006KT 10SM OVC095 12/M04 A2979 RMK AO2 PK WND 23027/0004 RAB11E21 SLP067 P0000 T01221039
2026-04-25 23:56:00,METAR KHDN 252356Z AUTO 27006KT 10SM BKN090 OVC100 13/M04 A2979 RMK AO2 SLP063 T01281039 10150 20111 56004
2026-04-25 22:56:00,METAR KHDN 252256Z AUTO 31012KT 10SM FEW049 BKN075 OVC090 12/M03 A2979 RMK AO2 PK WND 27033/2241 SLP064 T01171033
2026-04-25 21:56:00,METAR KHDN 252156Z AUTO 28010G18KT 10SM BKN090 OVC100 14/M07 A2978 RMK AO2 WSHFT 2110 SLP053 T01391067
2026-04-25 21:30:00,SPECI KHDN 252130Z AUTO 26011KT 10SM SCT075 OVC090 14/M05 A2979 RMK AO2 WSHFT 2110
2026-04-25 20:56:00,METAR KHDN 252056Z AUTO 29010KT 10SM OVC080 13/M06 A2980 RMK AO2 SLP063 T01281056 56015
2026-04-25 19:56:00,METAR KHDN 251956Z AUTO 26016G24KT 10SM FEW034 SCT075 OVC100 13/M05 A2981 RMK AO2 SLP059 T01331050
2026-04-25 18:56:00,METAR KHDN 251856Z AUTO 30010G20KT 10SM CLR 13/M05 A2983 RMK AO2 SLP062 T01281050
2026-04-25 17:56:00,METAR KHDN 251756Z AUTO 27006KT 10SM FEW090 11/M04 A2986 RMK AO2 SLP076 T01111044 10111 21011 58009
2026-04-25 16:56:00,METAR KHDN 251656Z AUTO 29003KT 10SM FEW039 SCT085 08/M04 A2987 RMK AO2 SLP082 T00781044
2026-04-25 15:56:00,METAR KHDN 251556Z AUTO 00000KT 10SM SCT065 OVC080 05/M04 A2988 RMK AO2 SLP091 T00501044
2026-04-25 14:56:00,METAR KHDN 251456Z AUTO 00000KT 10SM BKN085 03/M05 A2989 RMK AO2 SLP094 T00331050 50006
2026-04-25 13:56:00,METAR KHDN 251356Z AUTO 23003KT 10SM OVC095 01/M06 A2990 RMK AO2 SLP099 T00061056 FZRANO
2026-04-25 12:56:00,METAR KHDN 251256Z AUTO 20004KT 10SM BKN110 M01/M06 A2989 RMK AO2 SLP098 T10111056 FZRANO
2026-04-25 11:56:00,METAR KHDN 251156Z AUTO 28003KT 10SM BKN120 M01/M06 A2987 RMK AO2 SLP086 T10061056 10072 21006 51013 FZRANO
2026-04-25 10:56:00,METAR KHDN 251056Z AUTO 00000KT 10SM FEW120 01/M06 A2986 RMK AO2 SLP076 T00061061 FZRANO
2026-04-25 09:56:00,METAR KHDN 250956Z AUTO 36004KT 10SM FEW100 00/M06 A2984 RMK AO2 SLP070 T00001056 FZRANO
2026-04-25 08:56:00,METAR KHDN 250856Z AUTO 28010KT 10SM CLR 01/M07 A2982 RMK AO2 SLP059 T00111067 51009 FZRANO
2026-04-25 07:56:00,METAR KHDN 250756Z AUTO 24009KT 10SM CLR 03/M06 A2982 RMK AO2 SLP056 T00281061
2026-04-25 06:56:00,METAR KHDN 250656Z AUTO 25007KT 10SM CLR 04/M07 A2981 RMK AO2 SLP054 T00441072
2026-04-25 05:56:00,METAR KHDN 250556Z AUTO 35006KT 10SM CLR 06/M08 A2979 RMK AO2 SLP047 T00561083 10150 20056 401721033 50004
2026-04-25 04:56:00,METAR KHDN 250456Z AUTO 18004KT 10SM FEW110 08/M08 A2979 RMK AO2 SLP042 T00831083
2026-04-25 03:56:00,METAR KHDN 250356Z AUTO 18005KT 10SM OVC110 09/M11 A2979 RMK AO2 SLP045 T00941106
2026-04-25 02:56:00,METAR KHDN 250256Z AUTO 28008KT 10SM BKN120 11/M14 A2978 RMK AO2 SLP047 T01111139 53013
2026-04-25 01:56:00,METAR KHDN 250156Z AUTO 24010KT 10SM OVC110 13/M14 A2974 RMK AO2 PK WND 21032/0144 SLP037 T01281144
2026-04-25 00:56:00,METAR KHDN 250056Z AUTO 23017G24KT 10SM FEW120 13/M14 A2973 RMK AO2 SLP044 T01331139
2026-04-24 23:56:00,METAR KHDN 242356Z AUTO 24016G22KT 10SM FEW110 15/M13 A2973 RMK AO2 PK WND 23032/2300 SLP036 T01501133 10172 20139 56007
2026-04-24 22:56:00,METAR KHDN 242256Z AUTO 24019G33KT 10SM FEW120 16/M14 A2973 RMK AO2 PK WND 25048/2223 SLP033 T01611139
2026-04-24 21:56:00,METAR KHDN 242156Z AUTO 24026G34KT 10SM BKN120 16/M12 A2973 RMK AO2 PK WND 24034/2155 SLP035 T01611122
2026-04-24 20:56:00,METAR KHDN 242056Z AUTO 26023G29KT 10SM FEW120 17/M13 A2975 RMK AO2 PK WND 26037/2041 SLP036 T01721133 56019
2026-04-24 19:56:00,METAR KHDN 241956Z AUTO 25024G33KT 10SM SCT110 16/M11 A2977 RMK AO2 PK WND 23036/1857 SLP041 T01561111
2026-04-24 18:56:00,METAR KHDN 241856Z AUTO 24023G34KT 10SM SCT100 14/M11 A2979 RMK AO2 PK WND 24035/1812 SLP054 T01441111
2026-04-24 17:56:00,METAR KHDN 241756Z AUTO 24021G28KT 10SM BKN100 13/M11 A2982 RMK AO2 PK WND 23031/1736 SLP066 T01331106 10139 21033 56026
2026-04-24 16:56:00,METAR KHDN 241656Z AUTO 24013G24KT 10SM SCT090 12/M09 A2986 RMK AO2 PK WND 25033/1618 SLP082 T01221089
2026-04-24 15:56:00,METAR KHDN 241556Z AUTO 25017G28KT 10SM BKN075 10/M08 A2987 RMK AO2 PK WND 27028/1547 SLP088 T01001078
2026-04-24 14:56:00,METAR KHDN 241456Z AUTO 01004KT 10SM CLR 06/M07 A2992 RMK AO2 SLP114 T00561067 58003
2026-04-24 13:56:00,METAR KHDN 241356Z AUTO 08006KT 10SM CLR 03/M07 A2992 RMK AO2 SLP116 T00281067
2026-04-24 12:56:00,METAR KHDN 241256Z AUTO 08006KT 10SM CLR M02/M07 A2992 RMK AO2 SLP123 T10171067 FZRANO
2026-04-24 11:56:00,METAR KHDN 241156Z AUTO 00000KT 10SM CLR M01/M08 A2993 RMK AO2 SLP120 T10111078 10033 21017 58009 FZRANO
2026-04-24 10:56:00,METAR KHDN 241056Z AUTO 11004KT 10SM CLR M01/M06 A2995 RMK AO2 SLP127 T10111061 FZRANO
2026-04-24 09:56:00,METAR KHDN 240956Z AUTO 05004KT 10SM CLR M01/M07 A2995 RMK AO2 SLP130 T10111072 FZRANO
2026-04-24 08:56:00,METAR KHDN 240856Z AUTO 08003KT 10SM CLR 01/M07 A2996 RMK AO2 SLP129 T00061072 50003 FZRANO
2026-04-24 07:56:00,METAR KHDN 240756Z AUTO 00000KT 10SM CLR 02/M07 A2997 RMK AO2 SLP130 T00171072 FZRANO
2026-04-24 06:56:00,METAR KHDN 240656Z AUTO 26003KT 10SM CLR 02/M07 A2996 RMK AO2 SLP130 T00171072 FZRANO
2026-04-24 05:56:00,METAR KHDN 240556Z AUTO 08003KT 10SM BKN085 02/M07 A2995 RMK AO2 SLP128 T00221072 10106 21006 401061028 51005 FZRANO
2026-04-24 04:56:00,METAR KHDN 240456Z AUTO 00000KT 10SM CLR 02/M08 A2995 RMK AO2 SLP125 T00221078 FZRANO
2026-04-24 03:56:00,METAR KHDN 240356Z AUTO 22006KT 10SM CLR 04/M08 A2995 RMK AO2 SLP123 T00391078
2026-04-24 02:56:00,METAR KHDN 240256Z AUTO 19004KT 10SM CLR 04/M07 A2993 RMK AO2 SLP125 T00391072 53003
2026-04-24 01:56:00,METAR KHDN 240156Z AUTO 26004KT 10SM FEW075 07/M07 A2992 RMK AO2 SLP123 T00721067
2026-04-24 00:56:00,METAR KHDN 240056Z AUTO 27012KT 10SM CLR 09/M07 A2992 RMK AO2 SLP120 T00941072
2026-04-23 23:56:00,METAR KHDN 232356Z AUTO 29012G20KT 10SM SCT080 10/M07 A2992 RMK AO2 SLP120 T01001072 10106 20061 56002
2026-04-23 22:56:00,METAR KHDN 232256Z AUTO 27020G25KT 10SM OVC085 09/M07 A2992 RMK AO2 SLP118 T00941072
2026-04-23 21:56:00,METAR KHDN 232156Z AUTO 28016G21KT 10SM FEW070 OVC090 09/M08 A2992 RMK AO2 PK WND 28026/2111 SLP114 T00941078
2026-04-23 20:56:00,METAR KHDN 232056Z AUTO 27019G28KT 10SM SCT060 BKN075 OVC090 09/M07 A2992 RMK AO2 PK WND 27029/2045 SLP114 T00891067 56007
2026-04-23 19:56:00,METAR KHDN 231956Z AUTO 26014G23KT 10SM SCT070 BKN085 BKN100 09/M07 A2992 RMK AO2 PK WND 28029/1857 SLP111 T00941067
2026-04-23 18:56:00,METAR KHDN 231856Z AUTO 27018G26KT 10SM FEW045 BKN060 08/M06 A2994 RMK AO2 PK WND 27026/1856 WSHFT 1805 SLP115 T00831061
2026-04-23 18:25:00,SPECI KHDN 231825Z AUTO 26011G17KT 240V300 10SM FEW046 OVC060 07/M06 A2995 RMK AO2 WSHFT 1805
2026-04-23 17:56:00,METAR KHDN 231756Z AUTO 31017G27KT 6SM HZ FEW032 SCT044 OVC060 06/M06 A2995 RMK AO2 PK WND 31028/1739 SLP123 T00611056 10083 21028 53001
2026-04-23 16:56:00,METAR KHDN 231656Z AUTO 27013G22KT 10SM BKN065 07/M08 A2993 RMK AO2 SLP111 T00721083
2026-04-23 15:56:00,METAR KHDN 231556Z AUTO 27009G19KT 10SM BKN060 07/M09 A2993 RMK AO2 SLP109 T00671089
2026-04-23 14:56:00,METAR KHDN 231456Z AUTO 30007KT 10SM CLR 04/M06 A2995 RMK AO2 SLP122 T00391061 58000
2026-04-23 13:56:00,METAR KHDN 231356Z AUTO 06005KT 10SM SCT075 M01/M03 A2995 RMK AO2 SLP130 T10061033 FZRANO
2026-04-23 12:56:00,METAR KHDN 231256Z AUTO 13004KT 10SM BKN065 M02/M05 A2995 RMK AO2 SLP123 T10221050 FZRANO
2026-04-23 11:56:00,METAR KHDN 231156Z AUTO 17005KT 10SM FEW055 M02/M04 A2995 RMK AO2 SLP113 T10221039 10050 21028 53001 FZRANO
2026-04-23 10:56:00,METAR KHDN 231056Z AUTO 21004KT 10SM CLR M01/M03 A2994 RMK AO2 SLP103 T10111033 FZRANO
2026-04-23 09:56:00,METAR KHDN 230956Z AUTO 03004KT 10SM CLR 01/M03 A2993 RMK AO2 SLP095 T00061033 FZRANO
2026-04-23 08:56:00,METAR KHDN 230856Z AUTO 29003KT 10SM FEW050 OVC070 02/M03 A2995 RMK AO2 SLP090 T00221033 50003 FZRANO
2026-04-23 07:56:00,METAR KHDN 230756Z AUTO 31011KT 10SM OVC070 02/M03 A2995 RMK AO2 SLP096 T00221033 FZRANO
2026-04-23 06:56:00,METAR KHDN 230656Z AUTO 31011KT 10SM OVC070 03/M04 A2995 RMK AO2 SLP095 T00331039
2026-04-23 05:56:00,METAR KHDN 230556Z AUTO 33015KT 10SM OVC050 05/M05 A2993 RMK AO2 PK WND 35027/0532 SLP084 T00501050 10167 20050 402060050 51010
2026-04-23 04:56:00,METAR KHDN 230456Z AUTO 27008KT 10SM OVC070 06/M09 A2992 RMK AO2 SLP079 T00611089
2026-04-23 03:56:00,METAR KHDN 230356Z AUTO 28007KT 10SM BKN075 06/M08 A2992 RMK AO2 SLP082 T00611078
2026-04-23 02:56:00,METAR KHDN 230256Z AUTO 27011KT 10SM FEW100 07/M07 A2990 RMK AO2 SLP074 T00721072 51037
2026-04-23 01:56:00,METAR KHDN 230156Z AUTO 31019G25KT 10SM CLR 09/M07 A2986 RMK AO2 PK WND 29027/0100 SLP071 T00891067
2026-04-23 00:56:00,METAR KHDN 230056Z AUTO 28019G26KT 10SM CLR 13/M07 A2981 RMK AO2 PK WND 27035/0036 SLP046 T01331067
2026-04-22 23:56:00,METAR KHDN 222356Z AUTO 28024G28KT 10SM CLR 17/M08 A2977 RMK AO2 PK WND 26040/2312 SLP025 T01671083 10206 20167 53003
2026-04-22 22:56:00,METAR KHDN 222256Z AUTO 26027G37KT 10SM CLR 19/M14 A2974 RMK AO2 PK WND 25042/2158 SLP010 T01891144
2026-04-22 21:56:00,METAR KHDN 222156Z AUTO 25029G35KT 10SM CLR 19/M12 A2973 RMK AO2 PK WND 24038/2144 SLP000 T01941122
2026-04-22 20:56:00,METAR KHDN 222056Z AUTO 24024G31KT 10SM CLR 21/M11 A2976 RMK AO2 PK WND 24044/2033 SLP005 T02061106 56021
2026-04-22 19:56:00,METAR KHDN 221956Z AUTO 23026G36KT 10SM FEW120 19/M11 A2978 RMK AO2 PK WND 23038/1938 SLP014 T01941106
2026-04-22 18:56:00,METAR KHDN 221856Z AUTO 23025G30KT 10SM FEW120 19/M11 A2980 RMK AO2 PK WND 22030/1856 SLP022 T01891106
2026-04-22 17:56:00,METAR KHDN 221756Z AUTO 21027G35KT 10SM CLR 19/M12 A2983 RMK AO2 PK WND 24045/1744 SLP026 T01891117 10194 20056 56022
2026-04-22 16:56:00,METAR KHDN 221656Z AUTO 21020G28KT 10SM CLR 18/M09 A2986 RMK AO2 PK WND 20029/1626 SLP037 T01831094
2026-04-22 15:56:00,METAR KHDN 221556Z AUTO 21020G27KT 10SM CLR 17/M11 A2988 RMK AO2 PK WND 21027/1554 SLP043 T01721111
2026-04-22 14:56:00,METAR KHDN 221456Z AUTO VRB06KT 10SM CLR 16/M07 A2991 RMK AO2 SLP055 T01561067 58007
2026-04-22 13:56:00,METAR KHDN 221356Z AUTO 06004KT 10SM CLR 10/M02 A2993 RMK AO2 SLP072 T01001017
2026-04-22 12:56:00,METAR KHDN 221256Z AUTO 00000KT 10SM CLR 08/M04 A2994 RMK AO2 SLP074 T00831039
2026-04-22 11:56:00,METAR KHDN 221156Z AUTO 15003KT 10SM CLR 07/M03 A2994 RMK AO2 SLP071 T00721028 10150 20067 55000
2026-04-22 10:56:00,METAR KHDN 221056Z AUTO 11004KT 10SM CLR 09/M02 A2994 RMK AO2 SLP069 T00891017
2026-04-22 09:56:00,METAR KHDN 220956Z AUTO 10005KT 10SM CLR 10/M01 A2993 RMK AO2 SLP066 T01001006
2026-04-22 08:56:00,METAR KHDN 220856Z AUTO 05005KT 10SM CLR 10/M01 A2994 RMK AO2 SLP069 T01001006 56009
2026-04-22 07:56:00,METAR KHDN 220756Z AUTO 13007KT 10SM CLR 12/M01 A2994 RMK AO2 SLP066 T01171006
2026-04-22 06:56:00,METAR KHDN 220656Z AUTO 08007KT 10SM CLR 12/M01 A2996 RMK AO2 SLP072 T01171006
2026-04-22 05:56:00,METAR KHDN 220556Z AUTO 11004KT 10SM CLR 14/M01 A2997 RMK AO2 SLP073 T01441011 10217 20139 402330033 58007
2026-04-22 04:56:00,METAR KHDN 220456Z AUTO 12008KT 10SM CLR 15/M02 A2998 RMK AO2 SLP078 T01501017
2026-04-22 03:56:00,METAR KHDN 220356Z AUTO 14005KT 10SM CLR 16/M02 A3000 RMK AO2 SLP091 T01611022
2026-04-22 02:56:00,METAR KHDN 220256Z AUTO 00000KT 10SM FEW120 17/00 A2999 RMK AO2 SLP094 T01720000 55003
2026-04-22 01:56:00,METAR KHDN 220156Z AUTO 13003KT 10SM BKN110 18/M01 A2999 RMK AO2 SLP101 T01831011
2026-04-22 00:56:00,METAR KHDN 220056Z AUTO VRB04KT 10SM BKN120 20/M02 A2999 RMK AO2 SLP108 T02001017
2026-04-21 23:56:00,METAR KHDN 212356Z AUTO 28013G27KT 250V320 10SM FEW060 SCT095 BKN110 22/M03 A3000 RMK AO2 PK WND 26027/2355 SLP104 T02221033 10233 20200 56013
2026-04-21 22:56:00,METAR KHDN 212256Z AUTO VRB03KT 10SM SCT110 22/M04 A3001 RMK AO2 SLP106 T02171044
2026-04-21 21:56:00,METAR KHDN 212156Z AUTO 27004KT 10SM SCT120 22/M05 A3003 RMK AO2 SLP113 T02221050
2026-04-21 20:56:00,METAR KHDN 212056Z AUTO 07007KT 10SM BKN110 21/M05 A3005 RMK AO2 SLP122 T02111050 57023
2026-04-21 19:56:00,METAR KHDN 211956Z AUTO 24008KT 190V280 10SM SCT110 22/M05 A3008 RMK AO2 SLP126 T02171050
2026-04-21 18:56:00,METAR KHDN 211856Z AUTO VRB06KT 10SM FEW110 21/M05 A3011 RMK AO2 SLP137 T02111050
2026-04-21 17:56:00,METAR KHDN 211756Z AUTO 27006KT 10SM CLR 20/M06 A3013 RMK AO2 SLP143 T02001056 10206 20033 58013
2026-04-21 16:56:00,METAR KHDN 211656Z AUTO 08005KT 10SM CLR 19/M05 A3016 RMK AO2 SLP155 T01891050
2026-04-21 15:56:00,METAR KHDN 211556Z AUTO 12007KT 10SM CLR 15/M02 A3017 RMK AO2 SLP158 T01501022
2026-04-21 14:56:00,METAR KHDN 211456Z AUTO 11009KT 10SM CLR 11/M02 A3018 RMK AO2 SLP171 T01111022 50003
2026-04-21 13:56:00,METAR KHDN 211356Z AUTO 10012KT 10SM CLR 07/M03 A3018 RMK AO2 SLP172 T00721033
2026-04-21 12:56:00,METAR KHDN 211256Z AUTO 11009KT 10SM CLR 03/M04 A3018 RMK AO2 SLP173 T00331039
2026-04-21 11:56:00,METAR KHDN 211156Z AUTO 10011KT 10SM CLR 04/M04 A3017 RMK AO2 SLP167 T00391039 10083 20033 53005
2026-04-21 10:56:00,METAR KHDN 211056Z AUTO 10009KT 10SM CLR 04/M04 A3016 RMK AO2 SLP161 T00391039
2026-04-21 09:56:00,METAR KHDN 210956Z AUTO 09008KT 10SM CLR 04/M04 A3015 RMK AO2 SLP158 T00441039
2026-04-21 08:56:00,METAR KHDN 210856Z AUTO 10009KT 10SM CLR 04/M04 A3015 RMK AO2 SLP157 T00441039 50002
2026-04-21 07:56:00,METAR KHDN 210756Z AUTO 10010KT 10SM CLR 06/M04 A3015 RMK AO2 SLP158 T00611039
2026-04-21 06:56:00,METAR KHDN 210656Z AUTO 11008KT 10SM CLR 07/M03 A3015 RMK AO2 SLP159 T00671033
2026-04-21 05:56:00,METAR KHDN 210556Z AUTO VRB04KT 10SM CLR 08/M04 A3014 RMK AO2 SLP154 T00831039 10206 20072 402171006 51007
2026-04-21 04:56:00,METAR KHDN 210456Z AUTO 15005KT 10SM CLR 08/M04 A3014 RMK AO2 SLP158 T00831044
2026-04-21 03:56:00,METAR KHDN 210356Z AUTO 00000KT 10SM CLR 13/M04 A3013 RMK AO2 SLP157 T01281044
2026-04-21 02:56:00,METAR KHDN 210256Z AUTO 17004KT 10SM CLR 13/M04 A3012 RMK AO2 SLP162 T01331039 53004
2026-04-21 01:56:00,METAR KHDN 210156Z AUTO 30006KT 10SM CLR 17/M06 A3010 RMK AO2 SLP156 T01671056
2026-04-21 00:56:00,METAR KHDN 210056Z AUTO 29008KT 10SM CLR 19/M06 A3010 RMK AO2 SLP154 T01941056
2026-04-20 23:56:00,METAR KHDN 202356Z AUTO 29011KT 10SM CLR 21/M06 A3010 RMK AO2 SLP148 T02061061 10217 20167 56010
2026-04-20 22:56:00,METAR KHDN 202256Z AUTO 27013KT 10SM CLR 21/M07 A3011 RMK AO2 SLP150 T02111067
2026-04-20 21:56:00,METAR KHDN 202156Z AUTO 26015G18KT 10SM CLR 21/M09 A3011 RMK AO2 SLP150 T02111089
2026-04-20 20:56:00,METAR KHDN 202056Z AUTO 27009G16KT 10SM CLR 21/M10 A3014 RMK AO2 SLP158 T02061100 56022
2026-04-20 19:56:00,METAR KHDN 201956Z AUTO 00000KT 10SM CLR 19/M12 A3016 RMK AO2 SLP169 T01941122
2026-04-20 18:56:00,METAR KHDN 201856Z AUTO 30006KT 10SM CLR 18/M12 A3018 RMK AO2 SLP175 T01831122
2026-04-20 17:56:00,METAR KHDN 201756Z AUTO 36005KT 10SM CLR 17/M11 A3022 RMK AO2 SLP189 T01671111 10172 20000 58007
2026-04-20 16:56:00,METAR KHDN 201656Z AUTO 10006KT 10SM CLR 15/M09 A3023 RMK AO2 SLP196 T01501089
2026-04-20 15:56:00,METAR KHDN 201556Z AUTO 11011KT 10SM CLR 11/M08 A3023 RMK AO2 SLP204 T01061078
2026-04-20 14:56:00,METAR KHDN 201456Z AUTO 10009KT 10SM CLR 06/M08 A3024 RMK AO2 SLP217 T00561078 51009
2026-04-20 13:56:00,METAR KHDN 201356Z AUTO 11009KT 10SM CLR 02/M08 A3023 RMK AO2 SLP212 T00221078 FZRANO
2026-04-20 12:56:00,METAR KHDN 201256Z AUTO 12011KT 10SM CLR 00/M08 A3022 RMK AO2 SLP205 T00001078 FZRANO
2026-04-20 11:56:00,METAR KHDN 201156Z AUTO 09012KT 10SM CLR 01/M08 A3021 RMK AO2 SLP197 T00111083 10056 21006 53003 FZRANO
2026-04-20 10:56:00,METAR KHDN 201056Z AUTO 10012KT 10SM CLR 01/M08 A3020 RMK AO2 SLP195 T00061083 FZRANO
2026-04-20 09:56:00,METAR KHDN 200956Z AUTO 10010KT 10SM CLR 02/M08 A3020 RMK AO2 SLP192 T00171083 FZRANO
2026-04-20 08:56:00,METAR KHDN 200856Z AUTO 11010KT 10SM CLR 02/M08 A3020 RMK AO2 SLP193 T00221078 50002 FZRANO
2026-04-20 07:56:00,METAR KHDN 200756Z AUTO 11010KT 10SM CLR 02/M08 A3020 RMK AO2 SLP195 T00221078 FZRANO
2026-04-20 06:56:00,METAR KHDN 200656Z AUTO 11010KT 10SM CLR 04/M08 A3020 RMK AO2 SLP192 T00441078
2026-04-20 05:56:00,METAR KHDN 200556Z AUTO 09010KT 10SM CLR 06/M08 A3019 RMK AO2 SLP188 T00561078 10167 20039 401721044 50005
2026-04-20 04:56:00,METAR KHDN 200456Z AUTO 10010KT 10SM CLR 06/M08 A3019 RMK AO2 SLP194 T00611078
2026-04-20 03:56:00,METAR KHDN 200356Z AUTO 00000KT 10SM CLR 08/M08 A3020 RMK AO2 SLP201 T00781083
2026-04-20 02:56:00,METAR KHDN 200256Z AUTO 20005KT 10SM CLR 09/M08 A3017 RMK AO2 SLP198 T00891083 53005
2026-04-20 01:56:00,METAR KHDN 200156Z AUTO 02004KT 10SM CLR 13/M12 A3015 RMK AO2 SLP188 T01331122
2026-04-20 00:56:00,METAR KHDN 200056Z AUTO 32007KT 10SM CLR 16/M11 A3015 RMK AO2 SLP187 T01611106
2026-04-19 23:56:00,METAR KHDN 192356Z AUTO 31009KT 10SM CLR 17/M12 A3015 RMK AO2 SLP189 T01671122 10172 20122 56013
2026-04-19 22:56:00,METAR KHDN 192256Z AUTO 28012KT 10SM CLR 17/M12 A3015 RMK AO2 SLP187 T01721122
2026-04-19 21:56:00,METAR KHDN 192156Z AUTO 31013G16KT 10SM CLR 17/M11 A3018 RMK AO2 SLP191 T01721106
2026-04-19 20:56:00,METAR KHDN 192056Z AUTO 32008KT 10SM CLR 16/M11 A3020 RMK AO2 SLP203 T01561111 56014
2026-04-19 19:56:00,METAR KHDN 191956Z AUTO 27014G18KT 10SM CLR 16/M12 A3021 RMK AO2 SLP202 T01561117
2026-04-19 18:56:00,METAR KHDN 191856Z AUTO 29010G17KT 10SM CLR 14/M11 A3023 RMK AO2 SLP213 T01441111
2026-04-19 17:56:00,METAR KHDN 191756Z AUTO 00000KT 10SM CLR 13/M12 A3025 RMK AO2 SLP217 T01281122 10128 21039 56009
2026-04-19 16:56:00,METAR KHDN 191656Z AUTO 11005KT 10SM CLR 11/M13 A3026 RMK AO2 SLP230 T01061133
2026-04-19 15:56:00,METAR KHDN 191556Z AUTO 10006KT 10SM CLR 07/M08 A3027 RMK AO2 SLP242 T00671083
2026-04-19 14:56:00,METAR KHDN 191456Z AUTO 10009KT 10SM CLR 03/M08 A3028 RMK AO2 SLP250 T00331083 50006
2026-04-19 13:56:00,METAR KHDN 191356Z AUTO 11009KT 10SM CLR 00/M08 A3028 RMK AO2 SLP253 T00001078 FZRANO
2026-04-19 12:56:00,METAR KHDN 191256Z AUTO 10010KT 10SM CLR M03/M09 A3027 RMK AO2 SLP251 T10281089 FZRANO
2026-04-19 11:56:00,METAR KHDN 191156Z AUTO 11010KT 10SM CLR M04/M08 A3026 RMK AO2 SLP251 T10391083 10022 21044 57003 FZRANO
2026-04-19 10:56:00,METAR KHDN 191056Z AUTO 11008KT 10SM CLR M03/M08 A3027 RMK AO2 SLP253 T10331083 FZRANO
2026-04-19 09:56:00,METAR KHDN 190956Z AUTO 10014KT 10SM CLR M02/M08 A3026 RMK AO2 SLP246 T10171083 FZRANO
2026-04-19 08:56:00,METAR KHDN 190856Z AUTO 09010KT 10SM CLR M01/M08 A3027 RMK AO2 SLP252 T10111078 58003 FZRANO
2026-04-19 07:56:00,METAR KHDN 190756Z AUTO 10008KT 10SM CLR M01/M08 A3028 RMK AO2 SLP257 T10061078 FZRANO
2026-04-19 06:56:00,METAR KHDN 190656Z AUTO 11010KT 10SM CLR M01/M07 A3028 RMK AO2 SLP262 T10061072 FZRANO
2026-04-19 05:56:00,METAR KHDN 190556Z AUTO 09006KT 10SM CLR 02/M09 A3028 RMK AO2 SLP259 T00221089 10083 20006 400891083 58001 FZRANO
2026-04-19 04:56:00,METAR KHDN 190456Z AUTO 10007KT 10SM CLR 02/M09 A3029 RMK AO2 SLP267 T00171089 FZRANO
2026-04-19 03:56:00,METAR KHDN 190356Z AUTO 10004KT 10SM CLR 02/M09 A3030 RMK AO2 SLP268 T00221089 FZRANO
2026-04-19 02:56:00,METAR KHDN 190256Z AUTO 12007KT 10SM CLR 04/M09 A3029 RMK AO2 SLP260 T00441094 53002
2026-04-19 01:56:00,METAR KHDN 190156Z AUTO 02005KT 10SM CLR 06/M11 A3028 RMK AO2 SLP260 T00611111
2026-04-19 00:56:00,METAR KHDN 190056Z AUTO 35005KT 10SM CLR 08/M11 A3028 RMK AO2 SLP267 T00781111
2026-04-18 23:56:00,METAR KHDN 182356Z AUTO 30006KT 10SM CLR 08/M12 A3028 RMK AO2 SLP269 T00831122 10089 20017 56007
2026-04-18 22:56:00,METAR KHDN 182256Z AUTO 00000KT 10SM CLR 08/M12 A3028 RMK AO2 SLP267 T00781117
2026-04-18 21:56:00,METAR KHDN 182156Z AUTO 30007KT 10SM CLR 08/M11 A3029 RMK AO2 SLP271 T00781106
2026-04-18 20:56:00,METAR KHDN 182056Z AUTO VRB03KT 10SM CLR 06/M12 A3031 RMK AO2 SLP276 T00611117 57015
2026-04-18 19:56:00,METAR KHDN 181956Z AUTO 00000KT 10SM CLR 05/M12 A3032 RMK AO2 SLP278 T00501122
2026-04-18 18:56:00,METAR KHDN 181856Z AUTO VRB05KT 10SM CLR 04/M11 A3034 RMK AO2 SLP289 T00391106
2026-04-18 17:56:00,METAR KHDN 181756Z AUTO 21007KT 10SM CLR 02/M09 A3036 RMK AO2 SLP301 T00221094 10022 21083 50003 FZRANO
2026-04-18 16:56:00,METAR KHDN 181656Z AUTO VRB04KT 10SM CLR 01/M11 A3036 RMK AO2 SLP308 T00061111 FZRANO
2026-04-18 15:56:00,METAR KHDN 181556Z AUTO 00000KT 10SM CLR 01/M09 A3036 RMK AO2 SLP300 T00111089 FZRANO
2026-04-18 14:56:00,METAR KHDN 181456Z AUTO 00000KT 10SM CLR M01/M06 A3035 RMK AO2 SLP299 T10061061 53018 FZRANO
2026-04-18 13:56:00,METAR KHDN 181356Z AUTO 08003KT 10SM CLR M03/M07 A3032 RMK AO2 SLP298 T10281067 FZRANO
2026-04-18 12:56:00,METAR KHDN 181256Z AUTO 00000KT 10SM CLR M07/M09 A3030 RMK AO2 SLP292 T10721094 FZRANO
2026-04-18 11:56:00,METAR KHDN 181156Z AUTO 18003KT 10SM CLR M08/M11 A3028 RMK AO2 SLP288 70002 T10831111 11022 21083 53012 FZRANO
2026-04-18 10:56:00,METAR KHDN 181056Z AUTO 22004KT 10SM CLR M07/M09 A3026 RMK AO2 SLP276 T10671094 FZRANO
2026-04-18 09:56:00,METAR KHDN 180956Z AUTO 21006KT 10SM CLR M07/M09 A3025 RMK AO2 SLP281 T10671089 FZRANO
2026-04-18 08:56:00,METAR KHDN 180856Z AUTO 22006KT 10SM BKN110 M06/M08 A3024 RMK AO2 SLP269 T10561083 51006 FZRANO
2026-04-18 07:56:00,METAR KHDN 180756Z AUTO 28010KT 10SM FEW070 OVC090 M03/M08 A3023 RMK AO2 SLP262 T10281083 FZRANO
2026-04-18 06:56:00,METAR KHDN 180656Z AUTO 28005KT 10SM SCT050 BKN070 OVC080 M03/M07 A3022 RMK AO2 SLP260 T10281067 FZRANO
2026-04-18 05:56:00,METAR KHDN 180556Z AUTO 34003KT 10SM FEW038 OVC048 M03/M06 A3021 RMK AO2 SNE12 SLP265 P0000 60001 T10331056 10017 21039 400171067 51017 FZRANO
2026-04-18 05:14:00,SPECI KHDN 180514Z AUTO 24009KT 9SM FEW020 BKN041 OVC060 M04/M05 A3021 RMK AO2 SNE12 P0000 FZRANO
2026-04-18 04:56:00,METAR KHDN 180456Z AUTO 23008KT 5SM -SN BR FEW012 BKN018 OVC030 M04/M05 A3020 RMK AO2 SLP262 P0000 T10391050 FZRANO
2026-04-18 04:44:00,SPECI KHDN 180444Z AUTO 26009KT 2SM -SN BR FEW012 OVC018 M04/M05 A3021 RMK AO2 P0000 FZRANO
2026-04-18 04:33:00,SPECI KHDN 180433Z AUTO 28012G19KT 1 3/4SM -SN BR BKN012 OVC018 M04/M05 A3021 RMK AO2 VIS 1V3 P0000 FZRANO
2026-04-18 04:24:00,SPECI KHDN 180424Z AUTO 30013G18KT 2 1/2SM -SN BR SCT010 OVC016 M03/M05 A3021 RMK AO2 VIS 1 3/4V3 P0000 FZRANO
2026-04-18 04:11:00,SPECI KHDN 180411Z AUTO 31016G24KT 1 3/4SM -SN BR SCT010 BKN014 OVC039 M03/M05 A3020 RMK AO2 P0000 FZRANO
2026-04-18 03:58:00,SPECI KHDN 180358Z AUTO 31022G29KT 2 1/2SM -SN BR FEW013 BKN029 OVC036 M03/M05 A3019 RMK AO2 VIS 1 1/4V5 P0000 FZRANO
2026-04-18 03:56:00,METAR KHDN 180356Z AUTO 32021G29KT 3SM -SN FEW014 BKN029 OVC039 M02/M05 A3019 RMK AO2 PK WND 32029/0354 UPB30E37SNB37 SLP256 P0001 T10221050 FZRANO
2026-04-18 02:56:00,METAR KHDN 180256Z AUTO 28005KT 10SM FEW060 OVC085 M02/M08 A3015 RMK AO2 SLP247 T10171083 53009 FZRANO
2026-04-18 01:56:00,METAR KHDN 180156Z AUTO 24008KT 10SM CLR M02/M09 A3013 RMK AO2 SLP238 T10171089 FZRANO
2026-04-18 00:56:00,METAR KHDN 180056Z AUTO 28012KT 10SM CLR 01/M13 A3012 RMK AO2 SLP226 T00111128 FZRANO
2026-04-17 23:56:00,METAR KHDN 172356Z AUTO 26013G19KT 10SM BKN060 BKN070 01/M12 A3012 RMK AO2 SLP226 60001 T00111117 10017 21039 56004 FZRANO
2026-04-17 22:56:00,METAR KHDN 172256Z AUTO 28014G19KT 10SM BKN050 BKN060 02/M10 A3012 RMK AO2 SNE05 SLP226 P0000 T00171100 FZRANO
2026-04-17 21:56:00,METAR KHDN 172156Z AUTO 26016KT 10SM -SN FEW037 SCT045 M01/M06 A3013 RMK AO2 UPB02E04B49E55RAB45E49SNB04E14B55 SLP235 P0000 T10111061 FZRANO
2026-04-17 20:56:00,METAR KHDN 172056Z AUTO 28013G21KT 10SM FEW033 00/M08 A3014 RMK AO2 UPB1958E00B26E36SNE1958 SLP234 P0001 60001 T00001078 50002 FZRANO
2026-04-17 20:05:00,SPECI KHDN 172005Z AUTO 27016KT 10SM FEW023 SCT029 M01/M06 A3014 RMK AO2 UPB1958E00SNE1958 P0000 FZRANO
2026-04-17 19:56:00,METAR KHDN 171956Z AUTO 28013KT 9SM -SN SCT023 BKN029 M01/M06 A3014 RMK AO2 PK WND 27026/1909 UPB31E49SNE31B35E45B49 SLP236 P0000 T10111056 FZRANO
2026-04-17 19:23:00,SPECI KHDN 171923Z AUTO 28014KT 3SM -SN OVC017 M02/M05 A3013 RMK AO2 PK WND 27026/1909 P0000 FZRANO
2026-04-17 19:12:00,SPECI KHDN 171912Z AUTO 26016G26KT 1 3/4SM -SN OVC017 M02/M05 A3013 RMK AO2 PK WND 27026/1909 P0000 FZRANO
2026-04-17 18:56:00,METAR KHDN 171856Z AUTO 26017KT 9SM -SN BKN017 BKN024 M02/M06 A3013 RMK AO2 SLP232 P0000 T10221061 FZRANO
2026-04-17 18:17:00,SPECI KHDN 171817Z AUTO 26015KT 8SM -SN FEW014 BKN020 OVC027 M03/M07 A3013 RMK AO2 P0000 FZRANO
2026-04-17 18:09:00,SPECI KHDN 171809Z AUTO 26012KT 2SM -SN FEW012 BKN017 OVC026 M03/M07 A3013 RMK AO2 VIS 3/4V5 P0000 FZRANO
2026-04-17 18:02:00,SPECI KHDN 171802Z AUTO 26013G18KT 1SM -SN BKN015 BKN019 OVC026 M04/M07 A3013 RMK AO2 VIS 3/4V2 1/2 P0000 FZRANO
2026-04-17 17:56:00,METAR KHDN 171756Z AUTO 27014KT 2SM -SN SCT013 BKN019 OVC026 M03/M08 A3013 RMK AO2 SLP232 P0000 60000 T10331078 11028 21067 53020 FZRANO
2026-04-17 17:42:00,SPECI KHDN 171742Z AUTO 26014KT 8SM -SN FEW013 BKN017 OVC043 M03/M07 A3012 RMK AO2 P0000 FZRANO
2026-04-17 17:35:00,SPECI KHDN 171735Z AUTO 26012KT 2 1/2SM -SN FEW009 BKN017 OVC038 M04/M07 A3013 RMK AO2 VIS 1V5 P0000 FZRANO
2026-04-17 17:28:00,SPECI KHDN 171728Z AUTO 27017G20KT 3SM -SN FEW009 BKN019 OVC026 M03/M07 A3012 RMK AO2 P0000 FZRANO
2026-04-17 17:17:00,SPECI KHDN 171717Z AUTO 26015KT 2 1/2SM -SN FEW009 BKN019 BKN027 M03/M08 A3012 RMK AO2 VIS 1V5 P0000 FZRANO
2026-04-17 16:56:00,METAR KHDN 171656Z AUTO 27016KT 9SM -SN FEW010 BKN017 OVC028 M04/M08 A3011 RMK AO2 SLP223 P0000 T10391078 FZRANO
2026-04-17 16:41:00,SPECI KHDN 171641Z AUTO 27013KT 4SM -SN FEW010 SCT017 OVC025 M04/M07 A3010 RMK AO2 P0000 FZRANO
2026-04-17 16:23:00,SPECI KHDN 171623Z AUTO 26012KT 1 3/4SM -SN FEW010 SCT018 OVC027 M04/M07 A3009 RMK AO2 P0000 FZRANO
2026-04-17 16:13:00,SPECI KHDN 171613Z AUTO 26014KT 1SM -SN BR FEW009 BKN020 OVC025 M05/M07 A3008 RMK AO2 P0000 FZRANO
2026-04-17 16:03:00,SPECI KHDN 171603Z AUTO 26013KT 1SM -SN BR SCT007 BKN011 OVC027 M05/M07 A3008 RMK AO2 P0000 FZRANO
2026-04-17 15:59:00,SPECI KHDN 171559Z AUTO 26014KT 3/4SM -SN BR SCT009 BKN015 OVC027 M05/M07 A3008 RMK AO2 P0000 FZRANO
2026-04-17 15:56:00,METAR KHDN 171556Z AUTO 26010KT 3/4SM -SN BR BKN009 BKN016 OVC027 M05/M07 A3008 RMK AO2 CIG 006V012 SLP213 P0000 T10501072 FZRANO
2026-04-17 15:53:00,SPECI KHDN 171553Z AUTO 26013KT 3/4SM -SN BR SCT007 BKN012 OVC027 M05/M07 A3007 RMK AO2 P0000 FZRANO
2026-04-17 15:46:00,SPECI KHDN 171546Z AUTO 26013KT 1SM -SN BR BKN007 OVC028 M05/M07 A3007 RMK AO2 P0000 FZRANO
2026-04-17 15:28:00,SPECI KHDN 171528Z AUTO 27014KT 1 1/4SM -SN BR SCT005 BKN018 OVC031 M05/M07 A3007 RMK AO2 P0000 FZRANO
2026-04-17 14:56:00,METAR KHDN 171456Z AUTO 28011KT 3/4SM -SN BR FEW007 BKN021 OVC030 M06/M07 A3006 RMK AO2 SLP190 P0000 60000 T10611072 53020 FZRANO
2026-04-17 14:42:00,SPECI KHDN 171442Z AUTO 28011KT 3/4SM -SN BR SCT007 BKN021 OVC029 M06/M07 A3006 RMK AO2 P0000 FZRANO
2026-04-17 14:23:00,SPECI KHDN 171423Z AUTO 27012KT 3/4SM -SN BR SCT007 BKN013 OVC023 M06/M07 A3005 RMK AO2 P0000 FZRANO
2026-04-17 14:12:00,SPECI KHDN 171412Z AUTO 28014KT 1SM -SN BR SCT005 BKN013 OVC026 M06/M07 A3004 RMK AO2 P0000 FZRANO
2026-04-17 13:56:00,METAR KHDN 171356Z AUTO 27014KT 3/4SM -SN BR SCT005 BKN016 OVC023 M06/M07 A3003 RMK AO2 SLP176 P0000 T10611072 FZRANO
2026-04-17 13:49:00,SPECI KHDN 171349Z AUTO 27014KT 3/4SM -SN BR SCT007 BKN016 OVC021 M06/M07 A3003 RMK AO2 P0000 FZRANO
2026-04-17 13:37:00,SPECI KHDN 171337Z AUTO 27013KT 1/2SM SN FZFG FEW007 BKN016 OVC021 M07/M07 A3001 RMK AO2 P0000 FZRANO
2026-04-17 12:56:00,METAR KHDN 171256Z AUTO 27008KT 3/4SM -SN BR FEW005 OVC018 M06/M07 A3000 RMK AO2 SLP151 P0000 T10611072 FZRANO
2026-04-17 12:31:00,SPECI KHDN 171231Z AUTO 27009KT 3/4SM -SN BR FEW006 OVC020 M07/M07 A2999 RMK AO2 P0000 FZRANO
2026-04-17 12:12:00,SPECI KHDN 171212Z AUTO 26008KT 1 1/2SM -SN BR FEW006 SCT010 OVC016 M07/M07 A2998 RMK AO2 P0000 FZRANO
2026-04-17 12:04:00,SPECI KHDN 171204Z AUTO 27008KT 1 1/2SM -SN BR BKN008 OVC016 M07/M07 A2998 RMK AO2 CIG 005V012 P0000 FZRANO
2026-04-17 11:56:00,METAR KHDN 171156Z AUTO 26009KT 1SM -SN BR BKN008 OVC014 M06/M07 A2999 RMK AO2 CIG 007V012 SLP141 P0000 60000 T10611072 11022 21061 55001 FZRANO
2026-04-17 11:34:00,SPECI KHDN 171134Z AUTO 26009KT 3/4SM -SN BR OVC008 M06/M07 A2998 RMK AO2 CIG 005V011 P0000 FZRANO
2026-04-17 11:29:00,SPECI KHDN 171129Z AUTO 26008KT 1SM -SN BR SCT005 OVC010 M06/M07 A2998 RMK AO2 P0000 FZRANO
2026-04-17 11:19:00,SPECI KHDN 171119Z AUTO 25008KT 1 1/4SM -SN BR OVC007 M06/M07 A2999 RMK AO2 CIG 004V011 P0000 FZRANO
2026-04-17 11:04:00,SPECI KHDN 171104Z AUTO 25010KT 3/4SM -SN BR OVC007 M06/M07 A2999 RMK AO2 CIG 004V009 P0000 FZRANO
2026-04-17 10:56:00,METAR KHDN 171056Z AUTO 26009KT 1SM -SN BR OVC007 M06/M07 A2998 RMK AO2 CIG 004V011 SLP133 P0000 T10611072 FZRANO
2026-04-17 10:41:00,SPECI KHDN 171041Z AUTO 27009KT 1 1/4SM -SN BR BKN007 BKN012 OVC030 M06/M07 A2997 RMK AO2 CIG 004V009 P0000 FZRANO
2026-04-17 10:36:00,SPECI KHDN 171036Z AUTO 27009KT 1SM -SN BR FEW005 BKN010 OVC032 M06/M07 A2998 RMK AO2 CIG 008V014 P0000 FZRANO
2026-04-17 10:27:00,SPECI KHDN 171027Z AUTO 27012KT 1 3/4SM -SN BR FEW012 SCT017 OVC032 M06/M07 A2999 RMK AO2 P0000 FZRANO
2026-04-17 10:04:00,SPECI KHDN 171004Z AUTO 27010KT 8SM -SN SCT028 OVC037 M06/M07 A2998 RMK AO2 P0000 FZRANO
2026-04-17 09:56:00,METAR KHDN 170956Z AUTO 28010KT 9SM -SN BKN028 OVC040 M06/M07 A2998 RMK AO2 SLP132 P0000 T10561072 FZRANO
2026-04-17 09:32:00,SPECI KHDN 170932Z AUTO 27013KT 7SM -SN SCT030 OVC040 M06/M08 A2999 RMK AO2 P0000 FZRANO
2026-04-17 09:04:00,SPECI KHDN 170904Z AUTO 28013KT 6SM -SN SCT013 BKN027 OVC033 M05/M08 A2999 RMK AO2 P0000 FZRANO
2026-04-17 08:56:00,METAR KHDN 170856Z AUTO 27010KT 7SM -SN BKN013 BKN021 OVC027 M06/M08 A2999 RMK AO2 SLP139 P0000 60000 T10561078 53008 FZRANO
2026-04-17 08:50:00,SPECI KHDN 170850Z AUTO 29006KT 3SM -SN BR BKN013 OVC021 M06/M07 A2998 RMK AO2 P0000 FZRANO
2026-04-17 08:28:00,SPECI KHDN 170828Z AUTO 30008G15KT 1 1/4SM -SN BR FEW007 BKN013 OVC022 M06/M07 A2998 RMK AO2 P0000 FZRANO
2026-04-17 08:09:00,SPECI KHDN 170809Z AUTO 28016KT 1 1/2SM -SN BR SCT022 BKN028 OVC038 M05/M07 A2998 RMK AO2 P0000 FZRANO
2026-04-17 07:56:00,METAR KHDN 170756Z AUTO 27018KT 2 1/2SM -SN BR OVC040 M05/M07 A2998 RMK AO2 PK WND 27026/0739 SNB37 SLP129 P0000 T10501067 FZRANO
2026-04-17 06:56:00,METAR KHDN 170656Z AUTO 27019G22KT 10SM FEW025 OVC036 M03/M07 A2995 RMK AO2 PK WND 27026/0602 SLP119 T10331072 FZRANO
2026-04-17 05:56:00,METAR KHDN 170556Z AUTO 26015G19KT 10SM FEW034 OVC043 M02/M06 A2996 RMK AO2 SLP123 T10221056 10150 21022 401781022 51033 FZRANO
2026-04-17 04:56:00,METAR KHDN 170456Z AUTO 26016G24KT 10SM BKN041 OVC090 M02/M06 A2996 RMK AO2 SLP123 T10171056 FZRANO
2026-04-17 03:56:00,METAR KHDN 170356Z AUTO 26016G27KT 10SM SCT040 OVC110 M01/M04 A2993 RMK AO2 PK WND 26031/0344 PRESRR SLP110 T10061044 FZRANO
2026-04-17 02:56:00,METAR KHDN 170256Z AUTO 24011G18KT 10SM OVC095 06/M04 A2984 RMK AO2 PK WND 31029/0224 WSHFT 0143 PRESRR SLP064 T00561039 53037
2026-04-17 02:03:00,SPECI KHDN 170203Z AUTO 31022G29KT 10SM FEW075 BKN095 BKN110 08/M03 A2973 RMK AO2 PK WND 32029/0203 WSHFT 0143
2026-04-17 01:56:00,METAR KHDN 170156Z AUTO 30015G19KT 10SM BKN110 08/M04 A2973 RMK AO2 PK WND 22034/0058 WSHFT 0135 SLP028 T00781039
2026-04-17 00:56:00,METAR KHDN 170056Z AUTO 23024G36KT 10SM CLR 14/M12 A2971 RMK AO2 PK WND 22036/0056 SLP012 T01391117
2026-04-16 23:56:00,METAR KHDN 162356Z AUTO 22021G27KT 10SM CLR 15/M11 A2971 RMK AO2 PK WND 21033/2326 SLP006 T01501106 10178 20139 55017
2026-04-16 22:56:00,METAR KHDN 162256Z AUTO 22017G33KT 10SM FEW110 17/M09 A2970 RMK AO2 PK WND 23036/2240 SLP001 T01671089
2026-04-16 21:56:00,METAR KHDN 162156Z AUTO 21014G25KT 10SM FEW095 SCT120 17/M06 A2974 RMK AO2 PK WND 23037/2101 SLP014 T01721056
2026-04-16 20:56:00,METAR KHDN 162056Z AUTO 22024G38KT 10SM FEW065 BKN095 16/M05 A2977 RMK AO2 PK WND 21038/2053 SLP036 T01561050 55016
2026-04-16 19:56:00,METAR KHDN 161956Z AUTO 23022G31KT 10SM BKN100 17/M07 A2975 RMK AO2 PK WND 22033/1936 SLP031 T01671067
2026-04-16 18:56:00,METAR KHDN 161856Z AUTO 21020G31KT 10SM BKN095 16/M06 A2979 RMK AO2 PK WND 23031/1849 SLP041 T01611056
2026-04-16 17:56:00,METAR KHDN 161756Z AUTO 25014G20KT 10SM OVC090 14/M05 A2983 RMK AO2 SLP054 T01441050 10150 20067 58017
2026-04-16 16:56:00,METAR KHDN 161656Z AUTO 21014G24KT 10SM BKN090 BKN110 13/M06 A2985 RMK AO2 SLP061 T01331056
2026-04-16 15:56:00,METAR KHDN 161556Z AUTO 24013G23KT 10SM BKN090 OVC110 14/M04 A2988 RMK AO2 SLP070 T01391044
2026-04-16 14:56:00,METAR KHDN 161456Z AUTO 20017G22KT 10SM FEW120 13/M05 A2989 RMK AO2 SLP076 T01281050 58005
2026-04-16 13:56:00,METAR KHDN 161356Z AUTO 21009KT 10SM SCT095 10/M04 A2991 RMK AO2 SLP088 T01001044
2026-04-16 12:56:00,METAR KHDN 161256Z AUTO 18007KT 10SM FEW110 07/M06 A2990 RMK AO2 SLP085 T00671056
2026-04-16 11:56:00,METAR KHDN 161156Z AUTO 20010KT 10SM OVC110 08/M06 A2990 RMK AO2 SLP082 T00831056 10083 20028 56008
2026-04-16 10:56:00,METAR KHDN 161056Z AUTO 21010KT 10SM BKN090 08/M05 A2991 RMK AO2 SLP082 T00781050
2026-04-16 09:56:00,METAR KHDN 160956Z AUTO 21012KT 10SM CLR 07/M04 A2992 RMK AO2 SLP090 T00671044
2026-04-16 08:56:00,METAR KHDN 160856Z AUTO 14003KT 10SM CLR 04/M04 A2993 RMK AO2 SLP103 T00441039 58010
2026-04-16 07:56:00,METAR KHDN 160756Z AUTO 11003KT 10SM CLR 03/M03 A2995 RMK AO2 SLP114 T00281033
2026-04-16 06:56:00,METAR KHDN 160656Z AUTO 00000KT 10SM CLR 05/M04 A2997 RMK AO2 SLP116 T00501039
2026-04-16 05:56:00,METAR KHDN 160556Z AUTO 00000KT 10SM FEW095 07/M04 A2997 RMK AO2 SLP118 T00671039 10133 20061 401391022 58001
2026-04-16 04:56:00,METAR KHDN 160456Z AUTO 00000KT 10SM BKN100 08/M05 A2998 RMK AO2 SLP123 T00831050
2026-04-16 03:56:00,METAR KHDN 160356Z AUTO 23003KT 10SM CLR 08/M04 A2999 RMK AO2 SLP131 T00781039
2026-04-16 02:56:00,METAR KHDN 160256Z AUTO 23006KT 10SM OVC075 08/M03 A2997 RMK AO2 SLP128 T00831033 53002
2026-04-16 01:56:00,METAR KHDN 160156Z AUTO 22006KT 10SM BKN075 08/M03 A2996 RMK AO2 SLP130 T00831028
2026-04-16 00:56:00,METAR KHDN 160056Z AUTO 24010KT 10SM SCT080 12/M03 A2996 RMK AO2 SLP128 T01171033
2026-04-15 23:56:00,METAR KHDN 152356Z AUTO 24012KT 10SM SCT075 13/M03 A2996 RMK AO2 SLP128 T01281028 10139 20083 55011
2026-04-15 22:56:00,METAR KHDN 152256Z AUTO 23017G23KT 10SM BKN070 14/M03 A2996 RMK AO2 SLP124 T01391028
2026-04-15 21:56:00,METAR KHDN 152156Z AUTO 25018G24KT 10SM SCT075 13/M04 A2998 RMK AO2 PK WND 26026/2134 SLP132 T01331039
2026-04-15 20:56:00,METAR KHDN 152056Z AUTO 24008G19KT 10SM BKN065 12/M03 A3000 RMK AO2 SLP139 T01171033 56015
2026-04-15 19:56:00,METAR KHDN 151956Z AUTO 22012KT 10SM OVC070 12/M03 A3002 RMK AO2 SLP145 T01171028
2026-04-15 18:56:00,METAR KHDN 151856Z AUTO 25011KT 10SM SCT065 11/M02 A3004 RMK AO2 SLP150 T01111017
2026-04-15 17:56:00,METAR KHDN 151756Z AUTO 22007KT 10SM FEW039 BKN065 OVC080 09/M01 A3006 RMK AO2 SLP164 T00891011 10089 21022 58004
2026-04-15 16:56:00,METAR KHDN 151656Z AUTO 00000KT 10SM SCT060 BKN080 07/M01 A3007 RMK AO2 SLP175 T00721011
2026-04-15 15:56:00,METAR KHDN 151556Z AUTO 09006KT 10SM OVC065 06/00 A3007 RMK AO2 SLP174 T00560000
2026-04-15 14:56:00,METAR KHDN 151456Z AUTO 09006KT 10SM OVC065 04/01 A3007 RMK AO2 SLP178 T00390011 51008
2026-04-15 13:56:00,METAR KHDN 151356Z AUTO 11005KT 10SM CLR 02/M01 A3007 RMK AO2 SLP182 T00171011 FZRANO
2026-04-15 12:56:00,METAR KHDN 151256Z AUTO 00000KT 10SM CLR M01/M02 A3006 RMK AO2 SLP181 T10111017 FZRANO
2026-04-15 11:56:00,METAR KHDN 151156Z AUTO 06004KT 10SM CLR M02/M03 A3004 RMK AO2 SLP179 60000 70003 T10221028 10006 21022 58001 FZRANO
2026-04-15 10:56:00,METAR KHDN 151056Z AUTO 00000KT 10SM OVC075 M02/M02 A3005 RMK AO2 SLP181 T10171022 FZRANO
2026-04-15 09:56:00,METAR KHDN 150956Z AUTO 00000KT 10SM FEW050 M02/M03 A3005 RMK AO2 SLP180 T10171028 FZRANO
2026-04-15 08:56:00,METAR KHDN 150856Z AUTO 09004KT 10SM OVC050 00/M01 A3005 RMK AO2 SLP180 60000 T00001011 58001 FZRANO
2026-04-15 07:56:00,METAR KHDN 150756Z AUTO 09006KT 10SM SCT070 00/M01 A3005 RMK AO2 SLP175 T00001011 FZRANO
2026-04-15 06:56:00,METAR KHDN 150656Z AUTO 12004KT 10SM FEW030 SCT048 OVC080 01/M01 A3005 RMK AO2 RAE15 SLP170 P0000 T00061011 FZRANO
2026-04-15 05:56:00,METAR KHDN 150556Z AUTO 00000KT 10SM -RA OVC043 01/M01 A3005 RMK AO2 UPB45E48RAB48 SLP173 P0000 60000 T00061011 10044 20000 400610000 51009 FZRANO
2026-04-15 04:56:00,METAR KHDN 150456Z AUTO 00000KT 10SM FEW038 OVC070 00/M02 A3005 RMK AO2 SLP172 T00001017 FZRANO
2026-04-15 03:56:00,METAR KHDN 150356Z AUTO 00000KT 10SM FEW070 SCT090 02/M01 A3004 RMK AO2 SLP167 T00171006 FZRANO
2026-04-15 02:56:00,METAR KHDN 150256Z AUTO 34005KT 10SM SCT040 03/M01 A3002 RMK AO2 SLP162 T00281006 53007
2026-04-15 01:56:00,METAR KHDN 150156Z AUTO 25004KT 10SM BKN038 BKN095 03/M01 A3000 RMK AO2 SLP154 T00281011
2026-04-15 01:26:00,SPECI KHDN 150126Z AUTO 25006KT 10SM FEW023 SCT031 OVC090 04/00 A2999 RMK AO2
2026-04-15 00:56:00,METAR KHDN 150056Z AUTO VRB03KT 10SM SCT023 BKN027 OVC046 04/00 A2999 RMK AO2 SLP153 T00390000
2026-04-14 23:56:00,METAR KHDN 142356Z AUTO 26008KT 10SM OVC065 04/01 A2999 RMK AO2 SLP153 60002 T00390006 10061 20011 51006
2026-04-14 22:56:00,METAR KHDN 142256Z AUTO 26011KT 10SM OVC049 04/00 A2999 RMK AO2 SLP151 T00390000
2026-04-14 22:12:00,SPECI KHDN 142212Z AUTO 26011KT 10SM SCT026 BKN036 OVC045 03/01 A2998 RMK AO2
2026-04-14 21:56:00,METAR KHDN 142156Z AUTO 24013G16KT 10SM BKN026 OVC036 03/01 A2998 RMK AO2 RAB02E08SNE02 SLP148 P0000 T00330011
2026-04-14 21:04:00,SPECI KHDN 142104Z AUTO 24016KT 9SM -RA SCT012 SCT019 OVC030 02/01 A2997 RMK AO2 RAB02SNE02 P0000 FZRANO
2026-04-14 20:59:00,SPECI KHDN 142059Z AUTO 24015G20KT 9SM -SN FEW009 BKN013 OVC028 02/01 A2997 RMK AO2 P0000 FZRANO
2026-04-14 20:56:00,METAR KHDN 142056Z AUTO 24015G26KT 8SM -SN SCT013 BKN019 OVC028 02/01 A2997 RMK AO2 PK WND 23028/2045 RAE01B19E50SNB50 SLP145 P0001 60002 T00170006 53009 FZRANO
2026-04-14 20:36:00,SPECI KHDN 142036Z AUTO 22015G20KT 10SM -RA FEW009 BKN012 OVC042 03/01 A2997 RMK AO2 RAE01B19 P0000
2026-04-14 20:28:00,SPECI KHDN 142028Z AUTO 25008KT 10SM -RA FEW012 SCT020 OVC042 04/02 A2997 RMK AO2 RAE01B19 P0000
2026-04-14 20:15:00,SPECI KHDN 142015Z AUTO 27011KT 10SM SCT014 BKN021 OVC065 04/02 A2996 RMK AO2 RAE01 P0000
2026-04-14 19:56:00,METAR KHDN 141956Z AUTO 28010KT 10SM -RA SCT014 BKN036 OVC047 04/02 A2995 RMK AO2 RAB47 SLP127 P0000 T00440017
2026-04-14 19:31:00,SPECI KHDN 141931Z AUTO 29009KT 10SM FEW014 BKN032 OVC039 04/02 A2994 RMK AO2
2026-04-14 18:56:00,METAR KHDN 141856Z AUTO 23007KT 10SM BKN020 BKN028 BKN110 06/01 A2993 RMK AO2 RAE22 SLP123 P0001 T00560011
2026-04-14 18:51:00,SPECI KHDN 141851Z AUTO 22010KT 10SM BKN020 BKN029 BKN037 05/02 A2994 RMK AO2 RAE22 P0001
2026-04-14 18:22:00,SPECI KHDN 141822Z AUTO 21006KT 10SM SCT014 BKN030 OVC042 04/02 A2994 RMK AO2 RAE22 P0001
2026-04-14 18:11:00,SPECI KHDN 141811Z AUTO 24008KT 10SM -RA BKN016 OVC030 04/02 A2994 RMK AO2 P0001
2026-04-14 17:56:00,METAR KHDN 141756Z AUTO 26010KT 10SM -RA FEW014 OVC030 04/01 A2994 RMK AO2 RAB55 SLP128 P0000 60001 T00440011 10056 20017 53006
2026-04-14 17:23:00,SPECI KHDN 141723Z AUTO 27010KT 10SM SCT016 OVC032 04/02 A2992 RMK AO2
2026-04-14 16:56:00,METAR KHDN 141656Z AUTO 27005KT 10SM BKN018 BKN027 OVC050 05/02 A2992 RMK AO2 SLP116 T00500017
2026-04-14 16:47:00,SPECI KHDN 141647Z AUTO 25005KT 10SM BKN018 BKN025 OVC055 05/02 A2993 RMK AO2
2026-04-14 16:23:00,SPECI KHDN 141623Z AUTO VRB04KT 10SM SCT016 BKN055 04/01 A2992 RMK AO2
2026-04-14 15:56:00,METAR KHDN 141556Z AUTO VRB04KT 10SM SCT012 OVC018 04/02 A2992 RMK AO2 SLP113 T00440017
2026-04-14 15:37:00,SPECI KHDN 141537Z AUTO 00000KT 10SM BKN011 OVC018 04/02 A2992 RMK AO2
2026-04-14 15:10:00,SPECI KHDN 141510Z AUTO 00000KT 10SM FEW007 OVC020 03/01 A2992 RMK AO2
2026-04-14 14:56:00,METAR KHDN 141456Z AUTO 00000KT 10SM BKN007 OVC020 03/01 A2992 RMK AO2 CIG 005V011 SLP111 60001 T00280011 56005
2026-04-14 13:56:00,METAR KHDN 141356Z AUTO 00000KT 10SM OVC005 02/01 A2992 RMK AO2 UPE03RAB03E36 SLP108 P0000 T00220011 FZRANO
2026-04-14 13:36:00,SPECI KHDN 141336Z AUTO 00000KT 10SM OVC005 02/01 A2992 RMK AO2 UPE03RAB03E36 P0000 FZRANO
2026-04-14 12:56:00,METAR KHDN 141256Z AUTO 00000KT 10SM UP BKN009 OVC024 02/01 A2993 RMK AO2 RAB14E38UPB47 CIG 007V011 SLP111 P0001 T00170011 FZRANO
2026-04-14 12:31:00,SPECI KHDN 141231Z AUTO 00000KT 10SM -RA OVC007 02/01 A2994 RMK AO2 RAB14 CIG 004V009 P0001 FZRANO
2026-04-14 12:24:00,SPECI KHDN 141224Z AUTO 21004KT 10SM -RA BKN005 OVC009 02/01 A2994 RMK AO2 RAB14 CIG 004V008 P0001 FZRANO
2026-04-14 11:56:00,METAR KHDN 141156Z AUTO 22003KT 10SM OVC009 02/01 A2993 RMK AO2 RAB28E45 SLP109 P0000 60005 70005 T00170006 10050 20011 58001 FZRANO
2026-04-14 11:46:00,SPECI KHDN 141146Z AUTO 00000KT 10SM OVC009 02/01 A2993 RMK AO2 RAB28E45 P0000 FZRANO
2026-04-14 11:12:00,SPECI KHDN 141112Z AUTO 22003KT 10SM SCT005 BKN011 OVC017 01/01 A2994 RMK AO2 FZRANO
2026-04-14 10:56:00,METAR KHDN 141056Z AUTO 25003KT 10SM BKN005 OVC017 01/01 A2994 RMK AO2 RAE45UPB03E18B45E48 SLP112 P0001 T00110006 FZRANO
2026-04-14 10:33:00,SPECI KHDN 141033Z AUTO 25006KT 10SM -RA OVC005 02/01 A2994 RMK AO2 UPB03E18 P0001 FZRANO
2026-04-14 10:07:00,SPECI KHDN 141007Z AUTO 27006KT 7SM UP OVC009 02/01 A2994 RMK AO2 RAE03UPB03 CIG 006V012 P0001 FZRANO
2026-04-14 09:56:00,METAR KHDN 140956Z AUTO 26007KT 9SM RA OVC011 02/01 A2995 RMK AO2 SLP111 P0004 T00170006 FZRANO
2026-04-14 09:38:00,SPECI KHDN 140938Z AUTO 26009KT 10SM -RA OVC014 02/01 A2994 RMK AO2 P0001 FZRANO
2026-04-14 08:56:00,METAR KHDN 140856Z AUTO 24004KT 10SM -RA SCT022 BKN026 OVC033 04/01 A2994 RMK AO2 RAB21 SLP105 P0000 60000 T00390006 55000
2026-04-14 08:47:00,SPECI KHDN 140847Z AUTO 26003KT 9SM -RA BKN026 OVC033 04/01 A2994 RMK AO2 RAB21 P0000
2026-04-14 07:56:00,METAR KHDN 140756Z AUTO 15004KT 10SM FEW050 OVC070 05/M03 A2994 RMK AO2 RAB32E42 SLP102 P0000 T00501028
2026-04-14 06:56:00,METAR KHDN 140656Z AUTO 08005KT 10SM BKN110 03/M03 A2992 RMK AO2 SLP105 T00331028
2026-04-14 05:56:00,METAR KHDN 140556Z AUTO 20005KT 10SM BKN070 OVC090 03/M04 A2994 RMK AO2 SLP116 T00281039 10122 20028 401390028 58001
2026-04-14 04:56:00,METAR KHDN 140456Z AUTO 11003KT 10SM CLR 04/M04 A2994 RMK AO2 SLP113 T00441039
2026-04-14 03:56:00,METAR KHDN 140356Z AUTO 14004KT 10SM CLR 06/M04 A2995 RMK AO2 SLP114 T00611039
2026-04-14 02:56:00,METAR KHDN 140256Z AUTO 28005KT 10SM BKN085 08/M04 A2994 RMK AO2 SLP109 T00831039 52007
2026-04-14 01:56:00,METAR KHDN 140156Z AUTO 28004KT 10SM BKN075 OVC085 10/M05 A2994 RMK AO2 SLP107 T01001050
2026-04-14 00:56:00,METAR KHDN 140056Z AUTO 29006KT 10SM BKN090 OVC110 11/M06 A2992 RMK AO2 SLP100 T01111056
2026-04-13 23:56:00,METAR KHDN 132356Z AUTO 25011G21KT 10SM BKN085 BKN110 12/M07 A2992 RMK AO2 SLP094 T01221067 10139 20094 55008
2026-04-13 22:56:00,METAR KHDN 132256Z AUTO 30011KT 10SM SCT085 BKN110 13/M06 A2992 RMK AO2 SLP088 T01331056
2026-04-13 21:56:00,METAR KHDN 132156Z AUTO 25014G19KT 10SM FEW090 14/M06 A2993 RMK AO2 WSHFT 2043 SLP086 T01391056
2026-04-13 21:03:00,SPECI KHDN 132103Z AUTO 27016G22KT 10SM OVC085 13/M06 A2994 RMK AO2 WSHFT 2043
2026-04-13 20:56:00,METAR KHDN 132056Z AUTO 28017G20KT 10SM BKN085 BKN100 12/M06 A2995 RMK AO2 WSHFT 2041 SLP103 T01221061 56019
2026-04-13 19:56:00,METAR KHDN 131956Z AUTO 27009G21KT 10SM FEW075 SCT090 BKN110 13/M06 A2997 RMK AO2 SLP112 T01281061
2026-04-13 18:56:00,METAR KHDN 131856Z AUTO 29012G16KT 10SM SCT075 BKN100 11/M07 A2999 RMK AO2 SLP115 T01111067
2026-04-13 17:56:00,METAR KHDN 131756Z AUTO 31009G15KT 10SM SCT070 OVC090 09/M07 A3002 RMK AO2 PK WND 27028/1701 SLP129 T00941067 10094 20044 58008
2026-04-13 16:56:00,METAR KHDN 131656Z AUTO 24012KT 10SM OVC070 08/M06 A3003 RMK AO2 SLP137 T00831056
2026-04-13 15:56:00,METAR KHDN 131556Z AUTO 28011KT 10SM OVC065 08/M06 A3004 RMK AO2 SLP138 T00831056
2026-04-13 14:56:00,METAR KHDN 131456Z AUTO VRB03KT 10SM OVC095 07/M04 A3005 RMK AO2 SLP145 T00721039 51028
2026-04-13 13:56:00,METAR KHDN 131356Z AUTO 32003KT 10SM BKN095 05/M04 A3003 RMK AO2 SLP136 T00501039
2026-04-13 12:56:00,METAR KHDN 131256Z AUTO 28012KT 10SM CLR 06/M05 A2998 RMK AO2 SLP109 T00561050
2026-04-13 11:56:00,METAR KHDN 131156Z AUTO 28007KT 10SM FEW090 06/M06 A2995 RMK AO2 SLP090 60000 T00561056 10100 20050 53009
2026-04-13 10:56:00,METAR KHDN 131056Z AUTO 25010KT 10SM CLR 06/M04 A2992 RMK AO2 SLP083 T00611039
2026-04-13 09:56:00,METAR KHDN 130956Z AUTO 23018G27KT 10SM FEW050 SCT065 OVC085 09/M06 A2990 RMK AO2 PK WND 22035/0946 SLP063 T00941056
2026-04-13 08:56:00,METAR KHDN 130856Z AUTO 32004KT 10SM FEW070 07/M02 A2991 RMK AO2 SLP077 60000 T00671017 51002
2026-04-13 07:56:00,METAR KHDN 130756Z AUTO VRB04KT 10SM FEW080 06/M01 A2991 RMK AO2 SLP079 T00611006
2026-04-13 06:56:00,METAR KHDN 130656Z AUTO 21011KT 10SM FEW060 SCT075 OVC100 08/M01 A2993 RMK AO2 PK WND 25026/0617 RAB16E28 SLP079 P0000 T00831011
2026-04-13 05:56:00,METAR KHDN 130556Z AUTO 00000KT 10SM FEW038 BKN090 OVC110 08/M03 A2991 RMK AO2 SLP074 T00831033 10172 20067 401891011 53005
2026-04-13 04:56:00,METAR KHDN 130456Z AUTO 13007KT 10SM FEW100 08/M03 A2990 RMK AO2 SLP077 T00781033
2026-04-13 03:56:00,METAR KHDN 130356Z AUTO 15004KT 10SM FEW080 09/M04 A2989 RMK AO2 PK WND 21030/0309 SLP080 T00941039
2026-04-13 02:56:00,METAR KHDN 130256Z AUTO 20009KT 10SM BKN100 BKN120 08/M07 A2989 RMK AO2 SLP089 T00831067 53018
2026-04-13 01:56:00,METAR KHDN 130156Z AUTO 24011KT 10SM CLR 12/M08 A2986 RMK AO2 PK WND 22026/0059 SLP081 T01171083
2026-04-13 00:56:00,METAR KHDN 130056Z AUTO 23019G26KT 10SM FEW110 15/M09 A2984 RMK AO2 PK WND 21031/2357 SLP072 T01501094
2026-04-12 23:56:00,METAR KHDN 122356Z AUTO 21022G29KT 10SM BKN110 17/M08 A2982 RMK AO2 PK WND 21029/2356 SLP060 T01721078 10189 20156 56004
2026-04-12 22:56:00,METAR KHDN 122256Z AUTO 25013G25KT 10SM FEW120 16/M08 A2984 RMK AO2 PK WND 25032/2203 SLP071 T01611083
2026-04-12 21:56:00,METAR KHDN 122156Z AUTO 24021G33KT 10SM SCT120 18/M09 A2982 RMK AO2 PK WND 25033/2152 SLP059 T01781094
2026-04-12 20:56:00,METAR KHDN 122056Z AUTO 25017G25KT 10SM SCT120 18/M08 A2984 RMK AO2 PK WND 23033/1958 SLP063 T01781083 56016
2026-04-12 19:56:00,METAR KHDN 121956Z AUTO 22018G29KT 10SM SCT100 17/M09 A2986 RMK AO2 PK WND 22029/1947 SLP064 T01721094
2026-04-12 18:56:00,METAR KHDN 121856Z AUTO 22017G28KT 10SM FEW095 17/M07 A2987 RMK AO2 PK WND 23028/1850 SLP068 T01671067
2026-04-12 17:56:00,METAR KHDN 121756Z AUTO 21013G19KT 10SM CLR 16/M04 A2989 RMK AO2 PK WND 23027/1727 SLP080 T01611044 10161 21006 58017
2026-04-12 16:56:00,METAR KHDN 121656Z AUTO 21013G22KT 10SM CLR 14/M04 A2991 RMK AO2 PK WND 22026/1646 WSHFT 1630 SLP091 T01391044
2026-04-12 15:56:00,METAR KHDN 121556Z AUTO 05004KT 10SM CLR 11/02 A2994 RMK AO2 SLP107 T01060017
2026-04-12 14:56:00,METAR KHDN 121456Z AUTO 09004KT 10SM CLR 07/02 A2995 RMK AO2 SLP119 T00720017 51008
2026-04-12 13:56:00,METAR KHDN 121356Z AUTO 09006KT 10SM CLR 03/01 A2995 RMK AO2 SLP131 T00280011
2026-04-12 12:56:00,METAR KHDN 121256Z AUTO 09009KT 10SM CLR 00/M01 A2993 RMK AO2 SLP134 T00001011 FZRANO
2026-04-12 11:56:00,METAR KHDN 121156Z AUTO 07008KT 10SM CLR 00/M01 A2992 RMK AO2 SLP108 70005 T00001011 10039 21011 58002 FZRANO
2026-04-12 10:56:00,METAR KHDN 121056Z AUTO 10008KT 10SM CLR M01/M01 A2993 RMK AO2 SLP111 T10061011 FZRANO
2026-04-12 09:56:00,METAR KHDN 120956Z AUTO 14004KT 10SM CLR M01/M02 A2993 RMK AO2 SLP123 T10061017 FZRANO
2026-04-12 08:56:00,METAR KHDN 120856Z AUTO 11003KT 10SM CLR 01/M01 A2993 RMK AO2 SLP119 T00061006 56001 FZRANO
2026-04-12 07:56:00,METAR KHDN 120756Z AUTO 10005KT 10SM CLR 03/01 A2993 RMK AO2 SLP111 T00330006
2026-04-12 06:56:00,METAR KHDN 120656Z AUTO 10009KT 10SM CLR 04/01 A2993 RMK AO2 SLP088 T00390011
2026-04-12 05:56:00,METAR KHDN 120556Z AUTO 10007KT 10SM CLR 04/01 A2993 RMK AO2 SLP089 60003 T00390011 10139 20033 401890022 58015
2026-04-12 04:56:00,METAR KHDN 120456Z AUTO 12008KT 10SM CLR 03/02 A2996 RMK AO2 SLP106 T00330017
2026-04-12 03:56:00,METAR KHDN 120356Z AUTO 14008KT 10SM FEW080 BKN110 04/02 A2998 RMK AO2 SLP116 T00440022
2026-04-12 02:56:00,METAR KHDN 120256Z AUTO 05009KT 10SM BKN080 OVC100 06/03 A2999 RMK AO2 SLP124 60003 T00560033 51012
2026-04-12 01:56:00,METAR KHDN 120156Z AUTO 06009KT 10SM BKN100 05/03 A2998 RMK AO2 RAE15 SLP132 P0001 T00500033
2026-04-12 00:56:00,METAR KHDN 120056Z AUTO 21020G33KT 6SM -RA BR SCT037 OVC055 04/03 A3000 RMK AO2 PK WND 24039/0032 LTG DSNT NE RAB34 PRESRR SLP144 P0002 T00440028
2026-04-11 23:56:00,METAR KHDN 112356Z AUTO 24007KT 10SM BKN055 OVC080 13/01 A2994 RMK AO2 SLP106 60002 T01280011 10183 20089 55021
2026-04-11 22:56:00,METAR KHDN 112256Z AUTO VRB05KT 10SM CLR 13/02 A2993 RMK AO2 SLP094 T01280017
2026-04-11 21:56:00,METAR KHDN 112156Z AUTO 24007KT 10SM FEW027 09/03 A2998 RMK AO2 PK WND 25027/2131 SLP126 T00890033
2026-04-11 20:56:00,METAR KHDN 112056Z AUTO 27016G20KT 10SM OVC100 09/03 A3002 RMK AO2 PK WND 26033/2021 TSE04 SLP129 60002 T00890033 53016
2026-04-11 20:10:00,SPECI KHDN 112010Z AUTO 26023G32KT 10SM BKN100 11/04 A2998 RMK AO2 PK WND 25032/2006 LTG DSNT NE AND E TSE04
2026-04-11 19:56:00,METAR KHDN 111956Z AUTO 25026G35KT 10SM VCTS FEW055 SCT090 SCT100 10/04 A2997 RMK AO2 PK WND 25045/1934 LTG DSNT N AND NE TSB23RAB34E53 SLP111 P0002 T01000044
2026-04-11 19:29:00,SPECI KHDN 111929Z AUTO 23024G35KT 8SM TS BKN090 BKN120 16/M03 A2993 RMK AO2 PK WND 23035/1929 LTG DSNT W AND NW TSB23
2026-04-11 18:56:00,METAR KHDN 111856Z AUTO 26014KT 10SM OVC090 18/M02 A2991 RMK AO2 PK WND 22027/1809 LTG DSNT SW SLP066 T01781022
2026-04-11 17:56:00,METAR KHDN 111756Z AUTO 24011G22KT 10SM BKN090 BKN110 18/M03 A2996 RMK AO2 SLP082 T01781028 10189 20028 58019
2026-04-11 16:56:00,METAR KHDN 111656Z AUTO 27007KT 10SM OVC090 16/M02 A3000 RMK AO2 SLP103 T01561017
2026-04-11 15:56:00,METAR KHDN 111556Z AUTO 01004KT 10SM BKN085 13/02 A3001 RMK AO2 SLP107 T01280017
2026-04-11 14:56:00,METAR KHDN 111456Z AUTO 06003KT 10SM OVC090 09/00 A3003 RMK AO2 SLP117 T00940000 50003
2026-04-11 13:56:00,METAR KHDN 111356Z AUTO 12007KT 10SM OVC100 07/M01 A3004 RMK AO2 SLP128 T00671006
2026-04-11 12:56:00,METAR KHDN 111256Z AUTO 00000KT 10SM FEW110 05/M03 A3003 RMK AO2 SLP119 T00501033
2026-04-11 11:56:00,METAR KHDN 111156Z AUTO 20005KT 10SM FEW110 03/M03 A3002 RMK AO2 SLP116 T00331033 10111 20022 50000
2026-04-11 10:56:00,METAR KHDN 111056Z AUTO 15003KT 10SM FEW110 07/M04 A3002 RMK AO2 SLP108 T00671044
2026-04-11 09:56:00,METAR KHDN 110956Z AUTO 16003KT 10SM FEW100 05/M03 A3002 RMK AO2 SLP115 T00501033
2026-04-11 08:56:00,METAR KHDN 110856Z AUTO 14004KT 10SM CLR 08/M04 A3002 RMK AO2 SLP105 T00831039 50000
2026-04-11 06:56:00,METAR KHDN 110656Z AUTO 28003KT 10SM CLR 11/M06 A3002 RMK AO2 SLP100 T01061056
2026-04-11 05:56:00,METAR KHDN 110556Z AUTO 00000KT 10SM CLR 11/M04 A3001 RMK AO2 SLP105 T01061039 10194 20094 402000039 58003
2026-04-11 04:56:00,METAR KHDN 110456Z AUTO 23003KT 10SM CLR 10/M03 A3002 RMK AO2 SLP112 T01001033
2026-04-11 03:56:00,METAR KHDN 110356Z AUTO 11006KT 10SM CLR 13/M05 A3004 RMK AO2 SLP117 T01331050
2026-04-11 02:56:00,METAR KHDN 110256Z AUTO 00000KT 10SM CLR 14/M07 A3003 RMK AO2 SLP117 T01441072 52007
2026-04-11 01:56:00,METAR KHDN 110156Z AUTO 22006KT 10SM CLR 14/M07 A3002 RMK AO2 SLP123 T01441072
2026-04-11 00:56:00,METAR KHDN 110056Z AUTO 21015G22KT 10SM CLR 18/M08 A3001 RMK AO2 SLP115 T01781078
2026-04-10 23:56:00,METAR KHDN 102356Z AUTO 22016G21KT 10SM CLR 19/M08 A3000 RMK AO2 WSHFT 2249 SLP110 T01941078 10200 20172 56009
2026-04-10 23:09:00,SPECI KHDN 102309Z AUTO 21014G19KT 10SM CLR 19/M05 A3000 RMK AO2 WSHFT 2249
2026-04-10 22:56:00,METAR KHDN 102256Z AUTO 21014G19KT 10SM FEW110 19/M05 A3000 RMK AO2 SLP111 T01941050
2026-04-10 21:56:00,METAR KHDN 102156Z AUTO 09005KT 10SM BKN110 19/M02 A3002 RMK AO2 SLP114 T01891017
2026-04-10 20:56:00,METAR KHDN 102056Z AUTO 07009KT 10SM SCT110 19/M02 A3003 RMK AO2 SLP116 T01891022 56015
2026-04-10 19:56:00,METAR KHDN 101956Z AUTO VRB05KT 10SM SCT100 19/M03 A3005 RMK AO2 SLP116 T01941028
2026-04-10 18:56:00,METAR KHDN 101856Z AUTO VRB03KT 10SM SCT110 19/M04 A3007 RMK AO2 SLP125 T01891039
2026-04-10 17:56:00,METAR KHDN 101756Z AUTO 01004KT 10SM FEW046 SCT090 17/M02 A3009 RMK AO2 SLP130 T01721022 10183 20039 58009
2026-04-10 16:56:00,METAR KHDN 101656Z AUTO 09007KT 10SM FEW110 16/02 A3010 RMK AO2 SLP140 T01560022
2026-04-10 15:56:00,METAR KHDN 101556Z AUTO 10007KT 10SM CLR 12/01 A3011 RMK AO2 SLP153 T01220011
2026-04-10 14:56:00,METAR KHDN 101456Z AUTO 10010KT 10SM CLR 09/01 A3012 RMK AO2 SLP160 T00940006 50001
2026-04-10 13:56:00,METAR KHDN 101356Z AUTO 11007KT 10SM FEW120 07/01 A3012 RMK AO2 SLP164 T00670006
2026-04-10 12:56:00,METAR KHDN 101256Z AUTO 10009KT 10SM FEW120 04/00 A3011 RMK AO2 SLP163 T00440000
2026-04-10 11:56:00,METAR KHDN 101156Z AUTO 11007KT 10SM CLR 04/00 A3011 RMK AO2 SLP164 T00390000 10100 20039 55001
2026-04-10 10:56:00,METAR KHDN 101056Z AUTO 11009KT 10SM CLR 04/01 A3011 RMK AO2 SLP158 T00390006
2026-04-10 09:56:00,METAR KHDN 100956Z AUTO 10011KT 10SM CLR 06/01 A3012 RMK AO2 SLP151 T00560011
2026-04-10 08:56:00,METAR KHDN 100856Z AUTO 10010KT 10SM SCT120 06/01 A3012 RMK AO2 SLP149 T00610011 58003
2026-04-10 07:56:00,METAR KHDN 100756Z AUTO 13009KT 10SM CLR 08/01 A3014 RMK AO2 SLP152 T00780011
2026-04-10 06:56:00,METAR KHDN 100656Z AUTO 11010KT 10SM BKN110 07/01 A3014 RMK AO2 SLP160 T00720011
2026-04-10 05:56:00,METAR KHDN 100556Z AUTO 09016KT 10SM FEW065 BKN085 10/02 A3013 RMK AO2 SLP153 60000 T01000017 10144 20083 401830011 50000
2026-04-10 04:56:00,METAR KHDN 100456Z AUTO 08006KT 10SM BKN110 09/02 A3015 RMK AO2 SLP164 T00940017
2026-04-10 03:56:00,METAR KHDN 100356Z AUTO 12013KT 10SM FEW110 09/02 A3013 RMK AO2 SLP166 T00940017
2026-04-10 02:56:00,METAR KHDN 100256Z AUTO 10007KT 10SM BKN110 10/01 A3013 RMK AO2 SLP172 60000 T01000011 53008
2026-04-10 01:56:00,METAR KHDN 100156Z AUTO 12009KT 10SM SCT049 SCT060 BKN070 12/01 A3012 RMK AO2 RAB39E52 SLP171 P0000 T01170006
2026-04-10 00:56:00,METAR KHDN 100056Z AUTO 24006KT 10SM BKN070 BKN080 OVC100 13/M01 A3011 RMK AO2 SLP166 T01331006
2026-04-09 23:56:00,METAR KHDN 092356Z AUTO 19006KT 10SM FEW050 BKN080 OVC100 13/02 A3010 RMK AO2 LTG DSNT NE RAB19E36 SLP163 P0000 60000 T01330022 10183 20133 53006
2026-04-09 22:56:00,METAR KHDN 092256Z AUTO 22008KT 10SM FEW070 SCT095 SCT110 16/M03 A3009 RMK AO2 SLP151 T01611028
2026-04-09 21:56:00,METAR KHDN 092156Z AUTO 35009G17KT 10SM SCT095 18/M02 A3007 RMK AO2 LTG DSNT E AND S SLP139 T01781022
2026-04-09 20:56:00,METAR KHDN 092056Z AUTO 33015G21KT 10SM CLR 18/M03 A3008 RMK AO2 PK WND 35027/2026 LTG DSNT S SLP141 T01781028 56013
2026-04-09 19:56:00,METAR KHDN 091956Z AUTO 33020G23KT 10SM CLR 18/M03 A3008 RMK AO2 SLP139 T01781028
2026-04-09 18:56:00,METAR KHDN 091856Z AUTO 31011G18KT 10SM CLR 16/M02 A3011 RMK AO2 SLP147 T01611022
2026-04-09 17:56:00,METAR KHDN 091756Z AUTO 32005KT 10SM BKN110 14/M01 A3013 RMK AO2 SLP152 T01441011 10144 20011 56004
2026-04-09 16:56:00,METAR KHDN 091656Z AUTO 07003KT 10SM BKN100 12/M01 A3013 RMK AO2 SLP162 T01221006
2026-04-09 15:56:00,METAR KHDN 091556Z AUTO 11004KT 10SM OVC090 09/01 A3013 RMK AO2 SLP162 T00940011
2026-04-09 14:56:00,METAR KHDN 091456Z AUTO 04006KT 10SM OVC100 07/01 A3014 RMK AO2 SLP167 T00670006 51016
2026-04-09 13:56:00,METAR KHDN 091356Z AUTO 10007KT 10SM BKN100 04/00 A3013 RMK AO2 SLP172 T00390000
2026-04-09 12:56:00,METAR KHDN 091256Z AUTO 14006KT 10SM FEW080 BKN110 03/M01 A3011 RMK AO2 SLP159 T00281006
2026-04-09 11:56:00,METAR KHDN 091156Z AUTO 10010KT 10SM CLR 03/M01 A3008 RMK AO2 SLP145 T00331006 10100 20017 51002
2026-04-09 10:56:00,METAR KHDN 091056Z AUTO 12006KT 10SM CLR 03/M02 A3008 RMK AO2 SLP142 T00331017
2026-04-09 09:56:00,METAR KHDN 090956Z AUTO 10010KT 10SM CLR 04/M01 A3008 RMK AO2 SLP141 T00441006
2026-04-09 08:56:00,METAR KHDN 090856Z AUTO 12005KT 10SM CLR 04/M01 A3007 RMK AO2 SLP142 T00391011 51000
2026-04-09 07:56:00,METAR KHDN 090756Z AUTO 10009KT 10SM CLR 05/M01 A3007 RMK AO2 SLP136 T00501006
2026-04-09 06:56:00,METAR KHDN 090656Z AUTO 13006KT 10SM SCT110 07/M01 A3008 RMK AO2 SLP134 T00721006
2026-04-09 05:56:00,METAR KHDN 090556Z AUTO 09004KT 10SM FEW100 10/00 A3007 RMK AO2 SLP128 T01000000 10172 20078 401890011 50009
2026-04-09 04:56:00,METAR KHDN 090456Z AUTO 14007KT 10SM FEW060 BKN090 09/00 A3007 RMK AO2 SLP136 T00890000
2026-04-09 03:56:00,METAR KHDN 090356Z AUTO 04004KT 10SM CLR 12/M01 A3007 RMK AO2 WSHFT 0246 SLP135 T01171006
2026-04-09 03:06:00,SPECI KHDN 090306Z AUTO 34013KT 10SM BKN100 12/M01 A3005 RMK AO2 WSHFT 0246
2026-04-09 02:56:00,METAR KHDN 090256Z AUTO 32019G26KT 10SM BKN110 13/M02 A3004 RMK AO2 PK WND 32026/0249 SLP129 T01281017 53008
2026-04-09 01:56:00,METAR KHDN 090156Z AUTO 23005KT 9SM FEW110 13/M03 A3001 RMK AO2 SLP131 T01281033
2026-04-09 00:56:00,METAR KHDN 090056Z AUTO 25007KT 10SM BKN100 OVC120 16/M03 A3001 RMK AO2 SLP128 T01561028
2026-04-08 23:56:00,METAR KHDN 082356Z AUTO 27013KT 10SM BKN100 18/M05 A3001 RMK AO2 SLP119 T01781050 10189 20161 56003
2026-04-08 22:56:00,METAR KHDN 082256Z AUTO 27013G22KT 10SM FEW100 18/M06 A3001 RMK AO2 SLP118 T01831061
2026-04-08 21:56:00,METAR KHDN 082156Z AUTO 28016G21KT 10SM CLR 18/M05 A3002 RMK AO2 SLP116 T01781050
2026-04-08 20:56:00,METAR KHDN 082056Z AUTO 27015G19KT 10SM CLR 17/M06 A3002 RMK AO2 SLP121 T01721056 58009
2026-04-08 19:56:00,METAR KHDN 081956Z AUTO 28017G24KT 10SM FEW095 18/M04 A3003 RMK AO2 SLP116 T01781044
2026-04-08 18:56:00,METAR KHDN 081856Z AUTO 27014G23KT 10SM FEW095 17/M03 A3005 RMK AO2 SLP123 T01671033
2026-04-08 15:56:00,METAR KHDN 081556Z AUTO VRB03KT 10SM CLR 12/M04 A3008 RMK AO2 SLP140 T01171044
2026-04-08 14:56:00,METAR KHDN 081456Z AUTO 06004KT 10SM CLR 08/M02 A3008 RMK AO2 SLP148 T00831022 51010
2026-04-08 13:56:00,METAR KHDN 081356Z AUTO 07006KT 10SM CLR 04/M03 A3007 RMK AO2 SLP150 T00391028
2026-04-08 12:56:00,METAR KHDN 081256Z AUTO 00000KT 10SM CLR 02/M05 A3006 RMK AO2 SLP143 T00221050 FZRANO
2026-04-08 11:56:00,METAR KHDN 081156Z AUTO 08005KT 10SM SCT080 03/M05 A3004 RMK AO2 SLP132 T00281050 10094 20011 53006
2026-04-08 10:56:00,METAR KHDN 081056Z AUTO 12004KT 10SM CLR 04/M05 A3002 RMK AO2 SLP124 T00391050
2026-04-08 09:56:00,METAR KHDN 080956Z AUTO 07006KT 10SM CLR 06/M05 A3002 RMK AO2 SLP117 T00561050
2026-04-08 08:56:00,METAR KHDN 080856Z AUTO 01003KT 10SM CLR 05/M04 A3002 RMK AO2 SLP119 T00501039 51001
2026-04-08 07:56:00,METAR KHDN 080756Z AUTO 22003KT 10SM OVC110 07/M06 A3002 RMK AO2 SLP113 T00721061
2026-04-08 06:56:00,METAR KHDN 080656Z AUTO 20003KT 10SM CLR 08/M04 A3002 RMK AO2 SLP114 T00781044
2026-04-08 05:56:00,METAR KHDN 080556Z AUTO 00000KT 10SM OVC100 09/M05 A3001 RMK AO2 SLP113 T00941050 10178 20089 401830033 51006
2026-04-08 04:56:00,METAR KHDN 080456Z AUTO VRB03KT 10SM FEW100 10/M04 A3001 RMK AO2 SLP114 T01001039
2026-04-08 03:56:00,METAR KHDN 080356Z AUTO 31003KT 10SM BKN100 10/M04 A3000 RMK AO2 SLP116 T01001039
2026-04-08 02:56:00,METAR KHDN 080256Z AUTO 20006KT 10SM BKN100 10/M04 A2999 RMK AO2 SLP121 T01001039 53009
2026-04-08 01:56:00,METAR KHDN 080156Z AUTO 31010G19KT 10SM SCT090 14/M06 A2998 RMK AO2 SLP109 T01391056
2026-04-08 00:56:00,METAR KHDN 080056Z AUTO 31016G22KT 10SM CLR 16/M06 A2997 RMK AO2 PK WND 31026/0025 SLP107 T01561061
2026-04-07 23:56:00,METAR KHDN 072356Z AUTO 28015G22KT 10SM SCT110 17/M08 A2996 RMK AO2 PK WND 27027/2325 SLP099 T01671083 10183 20150 56006
2026-04-07 22:56:00,METAR KHDN 072256Z AUTO 31007G22KT 10SM SCT090 BKN110 17/M07 A2997 RMK AO2 PK WND 27034/2235 SLP101 T01671067
2026-04-07 21:56:00,METAR KHDN 072156Z AUTO 26011KT 10SM FEW070 SCT095 17/M06 A2997 RMK AO2 PK WND 27026/2107 SLP102 T01721061
2026-04-07 20:56:00,METAR KHDN 072056Z AUTO 27018G24KT 10SM SCT100 17/M07 A2998 RMK AO2 PK WND 27026/2000 SLP103 T01721067 56019
2026-04-07 19:56:00,METAR KHDN 071956Z AUTO 27021G29KT 10SM CLR 17/M07 A3000 RMK AO2 PK WND 27029/1955 SLP109 T01721072
2026-04-07 18:56:00,METAR KHDN 071856Z AUTO 27014G17KT 10SM CLR 16/M07 A3002 RMK AO2 SLP118 T01611072
2026-04-07 17:56:00,METAR KHDN 071756Z AUTO 26015KT 10SM CLR 15/M04 A3005 RMK AO2 SLP130 T01501044 10150 20033 58011
2026-04-07 16:56:00,METAR KHDN 071656Z AUTO 27010KT 10SM CLR 13/M03 A3007 RMK AO2 SLP142 T01331028
2026-04-07 15:56:00,METAR KHDN 071556Z AUTO 00000KT 10SM CLR 11/M03 A3008 RMK AO2 SLP149 T01111033
2026-04-07 14:56:00,METAR KHDN 071456Z AUTO 06005KT 10SM CLR 08/M03 A3009 RMK AO2 SLP154 T00781028 51005
2026-04-07 13:56:00,METAR KHDN 071356Z AUTO 11004KT 10SM CLR 06/M03 A3009 RMK AO2 SLP152 T00561028
2026-04-07 12:56:00,METAR KHDN 071256Z AUTO 10006KT 10SM CLR 04/M04 A3008 RMK AO2 SLP145 T00391044
2026-04-07 11:56:00,METAR KHDN 071156Z AUTO 09007KT 10SM OVC090 05/M04 A3007 RMK AO2 SLP137 T00501044 10078 20039 55005
2026-04-07 10:56:00,METAR KHDN 071056Z AUTO 08007KT 10SM BKN090 05/M03 A3006 RMK AO2 SLP133 T00501033
2026-04-07 09:56:00,METAR KHDN 070956Z AUTO 36006KT 10SM FEW075 OVC090 05/M03 A3007 RMK AO2 SLP134 T00501028
2026-04-07 08:56:00,METAR KHDN 070856Z AUTO 26006KT 10SM OVC090 06/M04 A3009 RMK AO2 SLP141 T00561039 53004
2026-04-07 07:56:00,METAR KHDN 070756Z AUTO 09007KT 10SM FEW070 OVC095 07/M03 A3007 RMK AO2 SLP133 T00721033
2026-04-07 06:56:00,METAR KHDN 070656Z AUTO 09005KT 10SM OVC100 07/M05 A3008 RMK AO2 SLP138 T00721050
2026-04-07 05:56:00,METAR KHDN 070556Z AUTO 00000KT 10SM SCT110 07/M05 A3007 RMK AO2 SLP141 T00671050 10172 20056 401831006 53004
2026-04-07 04:56:00,METAR KHDN 070456Z AUTO 08003KT 10SM BKN110 08/M05 A3006 RMK AO2 SLP137 T00781050
2026-04-07 03:56:00,METAR KHDN 070356Z AUTO 23006KT 10SM SCT110 07/M07 A3007 RMK AO2 SLP150 T00721067
2026-04-07 02:56:00,METAR KHDN 070256Z AUTO 21005KT 10SM CLR 10/M07 A3006 RMK AO2 SLP149 T01001072 55003
2026-04-07 01:56:00,METAR KHDN 070156Z AUTO 26003KT 10SM CLR 13/M08 A3005 RMK AO2 SLP145 T01281078
2026-04-07 00:56:00,METAR KHDN 070056Z AUTO 28007KT 10SM CLR 16/M10 A3006 RMK AO2 SLP149 T01561100
2026-04-06 23:56:00,METAR KHDN 062356Z AUTO 28009KT 10SM CLR 17/M12 A3007 RMK AO2 SLP151 T01721117 10183 20139 56010
2026-04-06 21:56:00,METAR KHDN 062156Z AUTO 28014G19KT 10SM CLR 18/M09 A3008 RMK AO2 SLP147 T01831089
2026-04-06 20:56:00,METAR KHDN 062056Z AUTO 29014KT 10SM FEW110 18/M09 A3010 RMK AO2 SLP158 T01781089 56027
2026-04-06 19:56:00,METAR KHDN 061956Z AUTO 30011G21KT 10SM FEW110 17/M07 A3012 RMK AO2 PK WND 28026/1944 SLP162 T01721072
2026-04-06 16:56:00,METAR KHDN 061656Z AUTO 10005KT 10SM CLR 13/M06 A3023 RMK AO2 SLP207 T01281056
2026-04-06 15:56:00,METAR KHDN 061556Z AUTO 10010KT 10SM CLR 09/M04 A3024 RMK AO2 SLP218 T00891044
2026-04-06 14:56:00,METAR KHDN 061456Z AUTO 10008KT 10SM CLR 05/M04 A3026 RMK AO2 SLP230 T00501044 50000
2026-04-06 13:56:00,METAR KHDN 061356Z AUTO 09008KT 10SM CLR 02/M05 A3027 RMK AO2 SLP227 T00221050 FZRANO
2026-04-06 12:56:00,METAR KHDN 061256Z AUTO 11009KT 10SM CLR 00/M04 A3026 RMK AO2 SLP229 T00001044 FZRANO
2026-04-06 11:56:00,METAR KHDN 061156Z AUTO 11008KT 10SM CLR M01/M04 A3026 RMK AO2 SLP224 T10061044 10050 21006 56005 FZRANO
2026-04-06 10:56:00,METAR KHDN 061056Z AUTO 10009KT 10SM CLR 01/M05 A3026 RMK AO2 SLP222 T00111050 FZRANO
2026-04-06 09:56:00,METAR KHDN 060956Z AUTO 10009KT 10SM CLR 01/M05 A3027 RMK AO2 SLP226 T00111050 FZRANO
2026-04-06 08:56:00,METAR KHDN 060856Z AUTO 11009KT 10SM CLR 01/M04 A3028 RMK AO2 SLP231 T00061044 58004 FZRANO
2026-04-06 07:56:00,METAR KHDN 060756Z AUTO 11010KT 10SM CLR 03/M05 A3029 RMK AO2 SLP231 T00281050
2026-04-06 06:56:00,METAR KHDN 060656Z AUTO 10009KT 10SM CLR 04/M04 A3030 RMK AO2 SLP234 T00391044
2026-04-06 05:56:00,METAR KHDN 060556Z AUTO 11008KT 10SM CLR 03/M04 A3029 RMK AO2 SLP240 T00281039 10144 20028 401501028 58003
2026-04-06 04:56:00,METAR KHDN 060456Z AUTO 12006KT 10SM CLR 04/M05 A3030 RMK AO2 SLP244 T00391050
2026-04-06 03:56:00,METAR KHDN 060356Z AUTO 00000KT 10SM CLR 06/M04 A3031 RMK AO2 SLP250 T00561039
2026-04-06 02:56:00,METAR KHDN 060256Z AUTO 22005KT 10SM CLR 07/M04 A3031 RMK AO2 SLP251 T00721044 53003
2026-04-06 01:56:00,METAR KHDN 060156Z AUTO 34003KT 10SM CLR 12/M08 A3029 RMK AO2 SLP240 T01221083
2026-04-06 00:56:00,METAR KHDN 060056Z AUTO 33004KT 10SM CLR 13/M06 A3029 RMK AO2 SLP242 T01331056
2026-04-05 23:56:00,METAR KHDN 052356Z AUTO 34008KT 10SM CLR 14/M08 A3030 RMK AO2 SLP240 T01441078 10150 20100 56013
2026-04-05 19:56:00,METAR KHDN 051956Z AUTO 31006KT 10SM CLR 12/M07 A3036 RMK AO2 SLP266 T01221067
2026-04-05 18:56:00,METAR KHDN 051856Z AUTO VRB03KT 10SM CLR 11/M09 A3039 RMK AO2 SLP278 T01111094
2026-04-05 17:56:00,METAR KHDN 051756Z AUTO 00000KT 10SM CLR 11/M04 A3041 RMK AO2 SLP282 T01061044 10106 21028 58006
2026-04-05 15:56:00,METAR KHDN 051556Z AUTO 08005KT 10SM CLR 05/M03 A3043 RMK AO2 SLP303 T00501028
2026-04-05 14:56:00,METAR KHDN 051456Z AUTO 13008KT 10SM CLR 03/M03 A3043 RMK AO2 SLP306 T00281033 50005
2026-04-05 12:56:00,METAR KHDN 051256Z AUTO 11009KT 10SM CLR M03/M05 A3043 RMK AO2 SLP307 T10281050 FZRANO
2026-04-05 11:56:00,METAR KHDN 051156Z AUTO 11011KT 10SM CLR M02/M05 A3042 RMK AO2 SLP299 T10171050 10017 21028 58002 FZRANO
2026-04-05 10:56:00,METAR KHDN 051056Z AUTO 12010KT 10SM CLR M02/M05 A3042 RMK AO2 SLP302 T10221050 FZRANO
2026-04-05 09:56:00,METAR KHDN 050956Z AUTO 12010KT 10SM CLR M02/M04 A3042 RMK AO2 SLP300 T10171044 FZRANO
2026-04-05 08:56:00,METAR KHDN 050856Z AUTO 10010KT 10SM CLR M01/M04 A3042 RMK AO2 SLP302 T10061039 56001 FZRANO
2026-04-05 07:56:00,METAR KHDN 050756Z AUTO 12009KT 10SM CLR M01/M04 A3042 RMK AO2 SLP302 T10061039 FZRANO
2026-04-05 06:56:00,METAR KHDN 050656Z AUTO 11007KT 10SM CLR 00/M03 A3042 RMK AO2 SLP306 T00001033 FZRANO
2026-04-05 05:56:00,METAR KHDN 050556Z AUTO 09010KT 10SM CLR 02/M04 A3043 RMK AO2 SLP301 T00221039 10089 20017 400891006 50005 FZRANO
2026-04-05 04:56:00,METAR KHDN 050456Z AUTO 08011KT 10SM CLR 03/M04 A3043 RMK AO2 SLP303 T00281039
2026-04-05 03:56:00,METAR KHDN 050356Z AUTO 09003KT 10SM CLR 02/M04 A3042 RMK AO2 SLP309 T00171039 FZRANO
2026-04-05 02:56:00,METAR KHDN 050256Z AUTO 19003KT 10SM CLR 03/M04 A3041 RMK AO2 SLP299 T00331039 53007
2026-04-05 01:56:00,METAR KHDN 050156Z AUTO 00000KT 10SM CLR 08/M06 A3039 RMK AO2 SLP287 T00781061
2026-04-05 00:56:00,METAR KHDN 050056Z AUTO 00000KT 10SM CLR 08/M06 A3038 RMK AO2 SLP286 T00781061
2026-04-04 23:56:00,METAR KHDN 042356Z AUTO VRB04KT 10SM CLR 08/M06 A3038 RMK AO2 SLP282 T00831056 10089 20044 56007
2026-04-04 22:56:00,METAR KHDN 042256Z AUTO VRB06KT 10SM CLR 09/M04 A3039 RMK AO2 SLP283 T00891044
2026-04-04 21:56:00,METAR KHDN 042156Z AUTO 32004KT 10SM BKN050 08/M05 A3039 RMK AO2 SLP289 T00781050
2026-04-04 20:56:00,METAR KHDN 042056Z AUTO 28008KT 10SM OVC050 07/M06 A3041 RMK AO2 SLP297 T00671056 56006
2026-04-04 19:56:00,METAR KHDN 041956Z AUTO 28009G14KT 10SM BKN050 07/M04 A3042 RMK AO2 SLP300 T00671044
2026-04-04 18:56:00,METAR KHDN 041856Z AUTO 29007KT 10SM SCT050 05/M06 A3042 RMK AO2 SLP305 T00501061
2026-04-04 17:56:00,METAR KHDN 041756Z AUTO 23010KT 10SM BKN042 05/M06 A3043 RMK AO2 SLP308 T00501056 10056 21006 58005
2026-04-04 16:56:00,METAR KHDN 041656Z AUTO 24008KT 10SM CLR 04/M04 A3044 RMK AO2 SLP313 T00391044
2026-04-04 15:56:00,METAR KHDN 041556Z AUTO VRB05KT 10SM BKN055 02/M04 A3045 RMK AO2 SLP321 T00221044 FZRANO
2026-04-04 14:56:00,METAR KHDN 041456Z AUTO 08003KT 10SM BKN055 02/M03 A3045 RMK AO2 SLP321 T00221033 53008 FZRANO
2026-04-04 13:56:00,METAR KHDN 041356Z AUTO 00000KT 10SM OVC055 00/M03 A3044 RMK AO2 SLP320 T00001033 FZRANO
2026-04-04 12:56:00,METAR KHDN 041256Z AUTO 08003KT 10SM OVC060 00/M03 A3042 RMK AO2 SLP317 T00001033 FZRANO
2026-04-04 11:56:00,METAR KHDN 041156Z AUTO 00000KT 10SM OVC060 00/M03 A3042 RMK AO2 SLP313 70005 T00001033 10006 21006 52003 FZRANO
2026-04-04 10:56:00,METAR KHDN 041056Z AUTO 07004KT 10SM OVC060 00/M04 A3041 RMK AO2 SLP310 T00001039 FZRANO
2026-04-04 09:56:00,METAR KHDN 040956Z AUTO 00000KT 10SM OVC065 00/M03 A3041 RMK AO2 SLP310 T00001033 FZRANO
2026-04-04 08:56:00,METAR KHDN 040856Z AUTO 29005KT 10SM OVC065 00/M03 A3041 RMK AO2 SLP308 T00001033 50005 FZRANO
2026-04-04 07:56:00,METAR KHDN 040756Z AUTO 22003KT 10SM BKN060 M01/M03 A3041 RMK AO2 SLP312 T10061033 FZRANO
2026-04-04 06:56:00,METAR KHDN 040656Z AUTO 31005KT 10SM OVC040 01/M04 A3040 RMK AO2 SLP311 T00061039 FZRANO
2026-04-04 05:56:00,METAR KHDN 040556Z AUTO 25005KT 10SM OVC042 01/M02 A3039 RMK AO2 SLP305 60000 T00061022 10017 20006 400221094 51015 FZRANO
2026-04-04 04:56:00,METAR KHDN 040456Z AUTO 00000KT 10SM OVC046 01/M02 A3038 RMK AO2 SLP298 T00111022 FZRANO
2026-04-04 03:56:00,METAR KHDN 040356Z AUTO 01004KT 10SM OVC038 01/M02 A3037 RMK AO2 SLP306 T00061017 FZRANO
2026-04-04 02:56:00,METAR KHDN 040256Z AUTO 05005KT 10SM OVC040 01/M02 A3033 RMK AO2 SLP304 60000 T00061017 53016 FZRANO
2026-04-04 01:56:00,METAR KHDN 040156Z AUTO 29004KT 10SM OVC034 02/M03 A3031 RMK AO2 UPE07 SLP297 P0000 T00171033 FZRANO
2026-04-04 00:56:00,METAR KHDN 040056Z AUTO 26008G15KT 10SM UP OVC030 01/M03 A3030 RMK AO2 UPE03B45RAB03E45 SLP297 P0000 T00111033 FZRANO
2026-04-04 00:19:00,SPECI KHDN 040019Z AUTO 24009KT 6SM HZ FEW020 BKN028 OVC033 02/M03 A3028 RMK AO2 UPE03RAB03E17 P0000 FZRANO
2026-04-03 23:56:00,METAR KHDN 032356Z AUTO 27011KT 10SM UP FEW023 BKN030 OVC035 02/M03 A3028 RMK AO2 SLP287 P0000 60000 T00171033 10022 20000 53013 FZRANO
2026-04-03 23:23:00,SPECI KHDN 032323Z AUTO 26013KT 10SM UP OVC033 02/M03 A3027 RMK AO2 P0000 FZRANO
2026-04-03 22:56:00,METAR KHDN 032256Z AUTO 27014KT 10SM UP BKN029 OVC037 02/M04 A3026 RMK AO2 RAE07UPB07 SLP277 P0000 T00171039 FZRANO
2026-04-03 22:39:00,SPECI KHDN 032239Z AUTO 26010G17KT 9SM UP FEW023 BKN029 OVC037 02/M04 A3026 RMK AO2 RAE07UPB07 P0000 FZRANO
2026-04-03 22:20:00,SPECI KHDN 032220Z AUTO 28015G19KT 9SM UP BKN030 OVC036 01/M04 A3025 RMK AO2 RAE07UPB07 P0000 FZRANO
2026-04-03 22:06:00,SPECI KHDN 032206Z AUTO 27014G22KT 9SM -RA BKN028 OVC035 01/M04 A3025 RMK AO2 P0000 FZRANO
2026-04-03 21:56:00,METAR KHDN 032156Z AUTO 27015G23KT 10SM -RA SCT030 OVC035 02/M05 A3025 RMK AO2 RAB56 SLP269 P0000 T00171050 FZRANO
2026-04-03 20:56:00,METAR KHDN 032056Z AUTO 28015G20KT 10SM FEW040 SCT075 02/M04 A3023 RMK AO2 SLP261 60000 T00171044 53005 FZRANO
2026-04-03 19:56:00,METAR KHDN 031956Z AUTO 27013G19KT 10SM SCT033 01/M05 A3022 RMK AO2 SLP262 T00111050 FZRANO
2026-04-03 17:56:00,METAR KHDN 031756Z AUTO 27005KT 10SM BKN040 OVC080 01/M07 A3021 RMK AO2 SLP258 P0002 60005 T00061067 10006 21094 51013 FZRANO
2026-04-03 14:56:00,METAR KHDN 031456Z AUTO 00000KT 10SM OVC044 M06/M07 A3017 RMK AO2 SLP252 T10611067 51019 FZRANO
2026-04-03 13:56:00,METAR KHDN 031356Z AUTO 00000KT 10SM OVC050 M08/M08 A3016 RMK AO2 SLP253 T10781083 FZRANO
2026-04-03 12:56:00,METAR KHDN 031256Z AUTO 00000KT 10SM OVC055 M09/M10 A3013 RMK AO2 SLP240 T10891100 FZRANO
2026-04-03 11:56:00,METAR KHDN 031156Z AUTO 00000KT 10SM OVC055 M09/M10 A3010 RMK AO2 SLP222 60000 70002 T10891100 11050 21089 53013 FZRANO
2026-04-03 08:56:00,METAR KHDN 030856Z AUTO 20006KT 9SM -SN FEW024 BKN047 OVC065 M06/M06 A3006 RMK AO2 SLP170 P0000 60000 T10561061 58002 FZRANO
2026-04-03 08:48:00,SPECI KHDN 030848Z AUTO 20007KT 5SM -SN BR SCT022 SCT028 OVC045 M06/M06 A3005 RMK AO2 P0000 FZRANO
2026-04-03 08:40:00,SPECI KHDN 030840Z AUTO 19007KT 2SM -SN BR BKN020 BKN028 OVC038 M06/M06 A3006 RMK AO2 P0000 FZRANO
2026-04-03 08:22:00,SPECI KHDN 030822Z AUTO 24005KT 4SM -SN BR OVC020 M06/M06 A3007 RMK AO2 P0000 FZRANO
2026-04-03 08:11:00,SPECI KHDN 030811Z AUTO 22006KT 2 1/2SM -SN BR OVC020 M06/M06 A3007 RMK AO2 VIS 2V3 P0000 FZRANO
2026-04-03 06:27:00,SPECI KHDN 030627Z AUTO 24004KT 1SM -SN BR BKN008 OVC012 M05/M06 A3006 RMK AO2 CIG 005V010 P0000 FZRANO
2026-04-03 05:56:00,METAR KHDN 030556Z AUTO 26007KT 1 1/4SM -SN BR SCT008 OVC012 M05/M06 A3005 RMK AO2 SLP171 P0000 60001 T10501056 10022 21050 401441050 51016 FZRANO
2026-04-03 05:46:00,SPECI KHDN 030546Z AUTO 26009KT 1SM -SN BR SCT007 OVC013 M05/M06 A3005 RMK AO2 P0000 FZRANO
2026-04-03 05:37:00,SPECI KHDN 030537Z AUTO 27010KT 1 1/4SM -SN BR SCT007 OVC013 M05/M06 A3004 RMK AO2 P0000 FZRANO
2026-04-03 05:23:00,SPECI KHDN 030523Z AUTO 27011KT 1SM -SN BR SCT007 BKN013 OVC022 M04/M06 A3004 RMK AO2 P0000 FZRANO
2026-04-03 05:16:00,SPECI KHDN 030516Z AUTO 27013G18KT 3/4SM -SN BR SCT005 BKN009 OVC022 M04/M06 A3004 RMK AO2 CIG 006V013 P0000 FZRANO
2026-04-03 05:11:00,SPECI KHDN 030511Z AUTO 27012KT 1SM -SN BR SCT003 BKN010 OVC022 M04/M06 A3004 RMK AO2 CIG 007V011 P0000 FZRANO
2026-04-03 05:05:00,SPECI KHDN 030505Z AUTO 28013G21KT 1 1/2SM -SN BR SCT003 BKN015 OVC022 M04/M06 A3003 RMK AO2 P0000 FZRANO
2026-04-03 05:02:00,SPECI KHDN 030502Z AUTO 28017G21KT 1 1/2SM -SN BR SCT003 BKN008 OVC026 M04/M06 A3002 RMK AO2 CIG 007V010 P0000 FZRANO
2026-04-03 05:00:00,SPECI KHDN 030500Z AUTO 29014G21KT 1SM -SN BR BKN003 BKN008 OVC026 M04/M06 A3002 RMK AO2 P0000 FZRANO
2026-04-03 04:56:00,METAR KHDN 030456Z AUTO 29015G20KT 1/2SM SN FZFG BKN003 BKN008 OVC026 M04/M05 A3002 RMK AO2 SLP158 P0000 T10441050 FZRANO
2026-04-03 04:40:00,SPECI KHDN 030440Z AUTO 28016G20KT 1/2SM SN FZFG BKN003 OVC010 M04/M04 A3000 RMK AO2 CIG 003V006 P0000 FZRANO
2026-04-03 04:30:00,SPECI KHDN 030430Z AUTO 27010KT 3/4SM -SN BR BKN005 OVC010 M03/M04 A3001 RMK AO2 CIG 003V007 P0000 FZRANO
2026-04-03 04:21:00,SPECI KHDN 030421Z AUTO 28010KT 1SM -SN BR BKN005 OVC010 M03/M04 A3000 RMK AO2 P0000 FZRANO
2026-04-03 04:19:00,SPECI KHDN 030419Z AUTO 28008KT 1 1/4SM -SN BR SCT005 BKN010 OVC016 M03/M04 A3001 RMK AO2 CIG 006V011 P0000 FZRANO
2026-04-03 04:01:00,SPECI KHDN 030401Z AUTO 29009KT 2SM -SN BR SCT005 BKN011 OVC020 M03/M04 A3000 RMK AO2 VIS 1 3/4V3 P0000 FZRANO
2026-04-03 03:56:00,METAR KHDN 030356Z AUTO 31013KT 2 1/2SM -SN BR FEW011 BKN020 OVC026 M03/M04 A3000 RMK AO2 VIS 1 3/4V3 SLP154 P0000 T10281039 FZRANO
2026-04-03 03:51:00,SPECI KHDN 030351Z AUTO 30009KT 2 1/2SM -SN BR FEW009 BKN018 OVC026 M03/M04 A3000 RMK AO2 P0000 FZRANO
2026-04-03 03:34:00,SPECI KHDN 030334Z AUTO 30009KT 6SM -SN BR SCT004 BKN024 OVC031 M03/M03 A3000 RMK AO2 P0000 FZRANO
2026-04-03 03:30:00,SPECI KHDN 030330Z AUTO 29010KT 5SM -SN BR SCT004 BKN008 OVC031 M03/M03 A2999 RMK AO2 CIG 006V010 P0000 FZRANO
2026-04-03 03:23:00,SPECI KHDN 030323Z AUTO 28006KT 2SM -SN BR BKN006 OVC010 M03/M03 A2999 RMK AO2 VIS 3/4V3 CIG 003V007 P0000 FZRANO
2026-04-03 03:19:00,SPECI KHDN 030319Z AUTO 27008KT 1SM -SN BR BKN006 OVC010 M03/M03 A2999 RMK AO2 VIS 1/2V3 CIG 003V009 P0000 FZRANO
2026-04-03 03:13:00,SPECI KHDN 030313Z AUTO 27006KT 1/2SM SN FZFG BKN006 OVC010 M03/M03 A2999 RMK AO2 CIG 003V007 P0000 FZRANO
2026-04-03 03:06:00,SPECI KHDN 030306Z AUTO 26006KT 3/4SM -SN BR BKN006 OVC010 M03/M03 A3000 RMK AO2 PRESRR P0000 FZRANO
2026-04-03 02:56:00,METAR KHDN 030256Z AUTO 26006KT 1SM -SN BR BKN006 OVC010 M02/M03 A2998 RMK AO2 CIG 003V010 SLP154 P0000 60001 T10221028 53048 FZRANO
2026-04-03 02:36:00,SPECI KHDN 030236Z AUTO 26010KT 1 1/2SM -SN BR OVC006 M02/M03 A2998 RMK AO2 CIG 003V009 PRESRR P0000 FZRANO
2026-04-03 02:23:00,SPECI KHDN 030223Z AUTO 27007KT 1SM -SN BR OVC006 M02/M03 A2995 RMK AO2 CIG 003V009 PRESRR P0000 FZRANO
2026-04-03 02:11:00,SPECI KHDN 030211Z AUTO 29008G21KT 1/2SM SN FZFG OVC006 M02/M03 A2992 RMK AO2 CIG 003V010 P0000 FZRANO
2026-04-03 02:00:00,SPECI KHDN 030200Z AUTO 32017G22KT 1SM -SN BR OVC006 M02/M03 A2991 RMK AO2 CIG 003V010 P0000 FZRANO
2026-04-03 01:56:00,METAR KHDN 030156Z AUTO 31014G19KT 1/2SM SN FZFG BKN004 OVC009 M02/M03 A2991 RMK AO2 PK WND 28032/0120 SLP135 P0000 T10221028 FZRANO
2026-04-03 01:37:00,SPECI KHDN 030137Z AUTO 30016G27KT 1/4SM +SN FZFG OVC004 M02/M03 A2989 RMK AO2 PK WND 28032/0120 CIG 002V008 PRESRR P0000 FZRANO
2026-04-03 01:12:00,SPECI KHDN 030112Z AUTO 28018G28KT 1/4SM SN FZFG OVC006 M01/M02 A2985 RMK AO2 PK WND 28028/0112 CIG 002V010 PRESRR P0000 FZRANO
2026-04-03 01:06:00,SPECI KHDN 030106Z AUTO 27019G26KT 3/4SM -SN BR BKN006 OVC028 00/M01 A2984 RMK AO2 PK WND 27026/0106 CIG 002V010 PRESRR P0000 FZRANO
2026-04-03 00:56:00,METAR KHDN 030056Z AUTO 27014KT 1 3/4SM -SN BR BKN006 OVC028 00/M01 A2981 RMK AO2 WSHFT 2347 RAE05SNB05 CIG 004V009 PRESRR SLP097 P0001 T00001006 FZRANO
2026-04-03 00:52:00,SPECI KHDN 030052Z AUTO 27015KT 2SM -SN BR SCT006 OVC028 00/M01 A2981 RMK AO2 WSHFT 2347 VIS 1 1/2V3 RAE05SNB05 P0001 FZRANO
2026-04-03 00:30:00,SPECI KHDN 030030Z AUTO 28013G19KT 3SM -SN BR SCT009 BKN023 OVC028 01/M01 A2977 RMK AO2 WSHFT 2347 RAE05SNB05 P0000 FZRANO
2026-04-03 00:13:00,SPECI KHDN 030013Z AUTO 26013KT 3SM -SN BR BKN009 OVC021 01/00 A2977 RMK AO2 WSHFT 2347 RAE05SNB05 CIG 006V013 P0000 FZRANO
2026-04-03 00:01:00,SPECI KHDN 030001Z AUTO 28012G18KT 10SM -RA BKN011 BKN016 OVC023 02/01 A2975 RMK AO2 WSHFT 2347 CIG 008V013 P0000 FZRANO
2026-04-02 23:56:00,METAR KHDN 022356Z AUTO 28011KT 10SM -RA SCT011 BKN016 OVC023 03/01 A2975 RMK AO2 PK WND 32033/2259 WSHFT 2243 RAB01 PRESRR SLP062 P0001 60001 T00280011 10144 20028 53030
2026-04-02 23:46:00,SPECI KHDN 022346Z AUTO 33017G23KT 10SM -RA BKN016 BKN023 OVC043 03/01 A2971 RMK AO2 PK WND 32033/2259 WSHFT 2243 RAB01 P0001
2026-04-02 23:03:00,SPECI KHDN 022303Z AUTO 33025G33KT 10SM -RA FEW033 SCT040 OVC075 06/02 A2966 RMK AO2 PK WND 32033/2259 WSHFT 2243 RAB01 P0000
2026-04-02 22:56:00,METAR KHDN 022256Z AUTO 31025G41KT 10SM FEW055 OVC075 06/01 A2968 RMK AO2 PK WND 33041/2250 WSHFT 2234 PRESRR SLP029 T00610011
2026-04-02 22:54:00,SPECI KHDN 022254Z AUTO 31027G41KT 10SM FEW050 OVC075 07/01 A2967 RMK AO2 PK WND 33041/2250 WSHFT 2234 PRESRR
2026-04-02 21:56:00,METAR KHDN 022156Z AUTO 22021G27KT 10SM SCT075 BKN095 13/M02 A2964 RMK AO2 PK WND 23032/2138 SLP999 T01331022
2026-04-02 20:56:00,METAR KHDN 022056Z AUTO 24019G37KT 10SM SCT070 BKN090 13/M01 A2965 RMK AO2 PK WND 23037/2051 SLP002 T01331006 56017
2026-04-02 19:56:00,METAR KHDN 021956Z AUTO 23018G33KT 10SM BKN065 BKN080 13/M01 A2966 RMK AO2 PK WND 24033/1951 SLP008 T01281006
2026-04-02 18:56:00,METAR KHDN 021856Z AUTO 21029G37KT 10SM BKN060 12/M01 A2967 RMK AO2 PK WND 21037/1856 SLP009 T01221006
2026-04-02 17:56:00,METAR KHDN 021756Z AUTO 24019G28KT 10SM FEW095 12/M02 A2971 RMK AO2 PK WND 23028/1753 SLP026 T01171017 10122 20017 58019
2026-04-02 16:56:00,METAR KHDN 021656Z AUTO 23015G20KT 10SM BKN090 11/00 A2973 RMK AO2 WSHFT 1610 SLP034 T01060000
2026-04-02 16:30:00,SPECI KHDN 021630Z AUTO 23014G23KT 10SM OVC095 10/01 A2974 RMK AO2 WSHFT 1610
2026-04-02 15:56:00,METAR KHDN 021556Z AUTO 05006KT 10SM OVC100 08/03 A2976 RMK AO2 SLP052 T00780028
2026-04-02 14:56:00,METAR KHDN 021456Z AUTO 07005KT 10SM BKN070 OVC080 06/02 A2978 RMK AO2 SLP064 T00560022 56001
2026-04-02 13:56:00,METAR KHDN 021356Z AUTO 09006KT 10SM BKN090 03/02 A2978 RMK AO2 SLP068 T00330017
2026-04-02 12:56:00,METAR KHDN 021256Z AUTO 03005KT 10SM CLR 02/01 A2978 RMK AO2 SLP071 T00170011 FZRANO
2026-04-02 11:56:00,METAR KHDN 021156Z AUTO 07008KT 10SM BKN070 BKN085 03/02 A2978 RMK AO2 SLP069 60001 70039 T00330022 10044 20028 56013
2026-04-02 10:56:00,METAR KHDN 021056Z AUTO 11006KT 10SM OVC070 04/02 A2979 RMK AO2 SLP070 T00390022
2026-04-02 09:56:00,METAR KHDN 020956Z AUTO 07005KT 10SM BKN060 OVC085 03/02 A2981 RMK AO2 SLP075 T00330022
2026-04-02 08:56:00,METAR KHDN 020856Z AUTO 00000KT 10SM CLR 03/02 A2983 RMK AO2 SLP080 60001 T00280022 58001
2026-04-02 07:56:00,METAR KHDN 020756Z AUTO 28003KT 10SM SCT022 SCT049 OVC100 03/03 A2984 RMK AO2 RAB01E53 SLP083 P0001 T00330028
2026-04-02 06:56:00,METAR KHDN 020656Z AUTO 26009KT 10SM BKN023 OVC046 04/03 A2984 RMK AO2 SLP084 T00440028
2026-04-02 06:49:00,SPECI KHDN 020649Z AUTO 26009KT 10SM BKN023 BKN038 OVC046 04/03 A2984 RMK AO2
2026-04-02 06:29:00,SPECI KHDN 020629Z AUTO 28005KT 10SM SCT027 BKN036 OVC044 04/03 A2983 RMK AO2
2026-04-02 05:56:00,METAR KHDN 020556Z AUTO VRB03KT 10SM OVC027 04/03 A2983 RMK AO2 SLP083 60008 T00390028 10061 20039 400940039 51013
2026-04-02 05:47:00,SPECI KHDN 020547Z AUTO 03003KT 10SM BKN027 OVC075 04/03 A2984 RMK AO2
2026-04-02 05:22:00,SPECI KHDN 020522Z AUTO 00000KT 10SM SCT025 OVC070 04/03 A2982 RMK AO2
2026-04-02 04:56:00,METAR KHDN 020456Z AUTO 00000KT 10SM BKN023 OVC029 04/03 A2982 RMK AO2 RAE02 SLP083 P0000 T00440033
2026-04-02 03:56:00,METAR KHDN 020356Z AUTO 24006KT 10SM -RA FEW009 BKN027 OVC040 04/03 A2981 RMK AO2 SLP078 P0003 T00390033
2026-04-02 03:42:00,SPECI KHDN 020342Z AUTO 27010KT 9SM RA SCT009 BKN016 OVC025 04/03 A2981 RMK AO2 P0002
2026-04-02 03:35:00,SPECI KHDN 020335Z AUTO 28007KT 9SM RA SCT009 BKN014 OVC018 04/03 A2981 RMK AO2 P0001
2026-04-02 03:15:00,SPECI KHDN 020315Z AUTO 28008KT 7SM -RA FEW009 OVC018 04/03 A2980 RMK AO2 P0000
2026-04-02 03:12:00,SPECI KHDN 020312Z AUTO 27008KT 9SM -RA OVC015 05/03 A2979 RMK AO2 P0000
2026-04-02 02:56:00,METAR KHDN 020256Z AUTO 28010KT 5SM -RA BR BKN012 OVC018 04/03 A2979 RMK AO2 SLP068 P0004 60005 T00440033 53015
2026-04-02 02:29:00,SPECI KHDN 020229Z AUTO 26007KT 8SM -RA SCT008 BKN014 OVC022 05/04 A2977 RMK AO2 P0002
2026-04-02 02:20:00,SPECI KHDN 020220Z AUTO 26007KT 9SM -RA SCT008 BKN016 OVC027 06/04 A2977 RMK AO2 P0001
2026-04-02 01:56:00,METAR KHDN 020156Z AUTO 26009KT 10SM -RA FEW017 OVC027 06/04 A2976 RMK AO2 RAE10B41 SLP056 P0000 T00560044
2026-04-02 00:56:00,METAR KHDN 020056Z AUTO 27013KT 10SM -RA FEW013 BKN029 OVC046 06/04 A2974 RMK AO2 SLP046 P0001 T00610044
2026-04-02 00:09:00,SPECI KHDN 020009Z AUTO 28014KT 9SM -RA SCT008 BKN021 OVC028 06/04 A2973 RMK AO2 P0000
2026-04-01 23:56:00,METAR KHDN 012356Z AUTO 27012KT 10SM -RA FEW010 BKN023 OVC028 06/05 A2973 RMK AO2 SLP041 P0000 60008 T00560050 10094 20050 53011
2026-04-01 23:18:00,SPECI KHDN 012318Z AUTO 27012KT 10SM -RA FEW012 BKN025 OVC046 06/04 A2972 RMK AO2 P0000
2026-04-01 22:56:00,METAR KHDN 012256Z AUTO 27015KT 10SM -RA FEW013 BKN046 OVC060 06/04 A2971 RMK AO2 SLP033 P0006 T00560039
2026-04-01 22:46:00,SPECI KHDN 012246Z AUTO 27016KT 10SM -RA FEW012 SCT028 OVC046 06/04 A2971 RMK AO2 P0005
2026-04-01 22:25:00,SPECI KHDN 012225Z AUTO 27017G22KT 4SM +RA BR FEW010 BKN024 OVC034 06/04 A2971 RMK AO2 P0004
2026-04-01 21:37:00,SPECI KHDN 012137Z AUTO 27020G23KT 9SM -RA FEW014 SCT020 BKN025 08/04 A2968 RMK AO2 RAB36 P0000
2026-04-01 20:56:00,METAR KHDN 012056Z AUTO 30006KT 10SM BKN018 BKN026 OVC039 08/05 A2970 RMK AO2 RAE46 SLP022 P0000 60001 T00780050 56019
2026-04-01 17:30:00,SPECI KHDN 011730Z AUTO VRB04KT 10SM -RA FEW028 OVC035 04/03 A2977 RMK AO2 P0002
2026-04-01 17:09:00,SPECI KHDN 011709Z AUTO 01006KT 10SM -RA BKN027 OVC033 04/03 A2978 RMK AO2 P0001
2026-04-01 16:56:00,METAR KHDN 011656Z AUTO 01007KT 10SM -RA BKN030 OVC037 04/03 A2978 RMK AO2 SLP057 P0004 T00390028
2026-04-01 16:11:00,SPECI KHDN 011611Z AUTO 02008KT 9SM -RA FEW020 BKN033 OVC040 04/03 A2978 RMK AO2 P0001
2026-04-01 15:56:00,METAR KHDN 011556Z AUTO 02007KT 10SM -RA BKN022 BKN027 OVC033 05/03 A2978 RMK AO2 SLP056 P0004 T00500033
2026-04-01 15:17:00,SPECI KHDN 011517Z AUTO 03006KT 10SM -RA BKN027 OVC035 05/03 A2979 RMK AO2 P0001
2026-04-01 14:56:00,METAR KHDN 011456Z AUTO 03004KT 10SM -RA SCT018 OVC033 05/04 A2980 RMK AO2 SLP060 P0007 60012 T00500039 56003
2026-04-01 13:56:00,METAR KHDN 011356Z AUTO 00000KT 6SM RA BR SCT019 OVC028 06/04 A2980 RMK AO2 SLP056 P0005 T00560039
2026-04-01 13:41:00,SPECI KHDN 011341Z AUTO 00000KT 6SM -RA BR BKN028 OVC034 06/04 A2980 RMK AO2 P0003
2026-04-01 12:56:00,METAR KHDN 011256Z AUTO 20007KT 10SM -RA BKN030 OVC038 06/03 A2980 RMK AO2 RAB33 SLP053 P0000 T00610028
2026-04-01 11:56:00,METAR KHDN 011156Z AUTO 09003KT 10SM FEW034 OVC044 08/02 A2981 RMK AO2 SLP047 60000 T00780022 10089 20067 56017
2026-04-01 00:56:00,METAR KHDN 010056Z AUTO 22008KT 10SM OVC090 12/01 A2991 RMK AO2 SLP098 T01170006
2026-03-31 23:56:00,METAR KHDN 312356Z AUTO 22008KT 10SM OVC100 13/00 A2991 RMK AO2 PK WND 22028/2326 SLP092 T01280000 10172 20128 53004
2026-03-31 22:56:00,METAR KHDN 312256Z AUTO 22021G25KT 10SM SCT120 15/M02 A2989 RMK AO2 PK WND 22028/2220 SLP080 T01501017
2026-03-31 21:56:00,METAR KHDN 312156Z AUTO 22013G26KT 10SM FEW100 17/M06 A2989 RMK AO2 PK WND 23029/2134 SLP077 T01671061
2026-03-31 20:56:00,METAR KHDN 312056Z AUTO 26011G19KT 10SM BKN100 16/M06 A2990 RMK AO2 SLP077 T01611056 58028
2026-03-31 19:56:00,METAR KHDN 311956Z AUTO VRB04KT 10SM SCT100 16/M04 A2993 RMK AO2 SLP087 T01561039
2026-03-31 13:56:00,METAR KHDN 311356Z AUTO 00000KT 10SM BKN110 03/M03 A3002 RMK AO2 SLP126 T00281028
2026-03-31 12:56:00,METAR KHDN 311256Z AUTO VRB03KT 10SM BKN120 04/M03 A3001 RMK AO2 SLP119 T00391028
2026-03-31 11:56:00,METAR KHDN 311156Z AUTO 10009KT 10SM CLR 04/M02 A3000 RMK AO2 SLP108 T00441022 10117 20017 53001
2026-03-31 10:56:00,METAR KHDN 311056Z AUTO 19005KT 10SM BKN120 04/M03 A2998 RMK AO2 SLP101 T00441033
2026-03-31 09:56:00,METAR KHDN 310956Z AUTO 18005KT 10SM FEW110 04/M03 A2998 RMK AO2 SLP100 T00441033
2026-03-31 08:56:00,METAR KHDN 310856Z AUTO 14006KT 10SM CLR 06/M03 A2999 RMK AO2 SLP102 T00561028 58003
2026-03-30 21:56:00,METAR KHDN 302156Z AUTO 29020G26KT 10SM CLR 20/M08 A2994 RMK AO2 PK WND 31031/2116 SLP078 T02001083
2026-03-30 20:56:00,METAR KHDN 302056Z AUTO 28020G28KT 10SM FEW110 20/M08 A2995 RMK AO2 PK WND 26032/2006 SLP079 T02001083 56020
2026-03-30 19:56:00,METAR KHDN 301956Z AUTO 27018KT 10SM BKN110 20/M07 A2997 RMK AO2 PK WND 27026/1905 SLP087 T02001067
2026-03-30 18:56:00,METAR KHDN 301856Z AUTO 27017KT 10SM CLR 21/M07 A3000 RMK AO2 SLP090 T02061067
2026-03-30 13:56:00,METAR KHDN 301356Z AUTO 10009KT 10SM CLR 06/M03 A3005 RMK AO2 SLP131 T00611033 $
2026-03-30 01:56:00,METAR KHDN 300156Z AUTO 23011KT 10SM OVC110 16/M06 A3009 RMK AO2 SLP139 T01611056 $
2026-03-29 23:56:00,METAR KHDN 292356Z AUTO 27015KT 10SM CLR 20/M09 A3007 RMK AO2 PK WND 27029/2316 SLP125 T02001094 10217 20178 55009 $
2026-03-29 22:56:00,METAR KHDN 292256Z AUTO 26021G28KT 10SM CLR 21/M09 A3007 RMK AO2 PK WND 27028/2255 SLP119 T02111089 $
2026-03-29 21:56:00,METAR KHDN 292156Z AUTO 26010KT 10SM CLR 21/M09 A3009 RMK AO2 SLP119 T02061089 $
2026-03-29 20:56:00,METAR KHDN 292056Z AUTO 27015G22KT 10SM CLR 21/M09 A3010 RMK AO2 PK WND 28026/2010 SLP124 T02061089 56020 $
2026-03-29 19:56:00,METAR KHDN 291956Z AUTO 27023G26KT 10SM CLR 21/M07 A3012 RMK AO2 PK WND 27027/1936 SLP132 T02061072 $
2026-03-29 18:56:00,METAR KHDN 291856Z AUTO 27015G23KT 10SM CLR 20/M04 A3014 RMK AO2 SLP135 T02001039 TSNO $
2026-03-29 17:56:00,METAR KHDN 291756Z AUTO 26009KT 10SM CLR 18/M03 A3017 RMK AO2 SLP151 T01781028 10183 20050 50000 $
2026-03-29 15:56:00,METAR KHDN 291556Z AUTO 00000KT 10SM CLR 14/M02 A3018 RMK AO2 SLP162 T01441022 $
2026-03-29 14:56:00,METAR KHDN 291456Z AUTO 10006KT 10SM CLR 11/M02 A3017 RMK AO2 SLP167 T01111022 53008 $
2026-03-29 13:56:00,METAR KHDN 291356Z AUTO 09006KT 10SM CLR 08/M02 A3016 RMK AO2 SLP170 T00781022 $
2026-03-29 12:56:00,METAR KHDN 291256Z AUTO 09006KT 10SM CLR 06/M04 A3014 RMK AO2 SLP158 T00611039 $
2026-03-29 11:56:00,METAR KHDN 291156Z AUTO 07007KT 10SM CLR 07/M03 A3014 RMK AO2 SLP149 T00671028 10139 20067 53002 $
2026-03-29 10:56:00,METAR KHDN 291056Z AUTO 18006KT 10SM CLR 07/M03 A3012 RMK AO2 SLP143 T00721033 $
2026-03-29 09:56:00,METAR KHDN 290956Z AUTO 34006KT 10SM BKN100 12/M04 A3014 RMK AO2 SLP135 T01171039 $
2026-03-29 08:56:00,METAR KHDN 290856Z AUTO 13003KT 10SM SCT080 OVC095 12/M04 A3013 RMK AO2 SLP131 T01171039 58001 $
2026-03-29 07:56:00,METAR KHDN 290756Z AUTO 06007KT 10SM OVC100 11/M03 A3015 RMK AO2 SLP142 T01111033 $
2026-03-29 06:56:00,METAR KHDN 290656Z AUTO 16005KT 10SM OVC095 13/M05 A3015 RMK AO2 SLP143 T01331050 $
2026-03-29 05:56:00,METAR KHDN 290556Z AUTO 25004KT 10SM BKN100 13/M04 A3014 RMK AO2 SLP143 T01331044 10206 20122 402220017 50012 $
2026-03-29 04:56:00,METAR KHDN 290456Z AUTO 29004KT 10SM OVC110 14/M06 A3014 RMK AO2 SLP144 T01441056 $
2026-03-29 03:56:00,METAR KHDN 290356Z AUTO 00000KT 10SM BKN120 13/M04 A3011 RMK AO2 SLP148 T01281044 $
2026-03-29 02:56:00,METAR KHDN 290256Z AUTO 21006KT 10SM CLR 13/M04 A3010 RMK AO2 SLP151 T01281044 53008 $
2026-03-29 01:56:00,METAR KHDN 290156Z AUTO 22007KT 10SM CLR 14/M05 A3008 RMK AO2 SLP151 T01391050 $
2026-03-29 00:56:00,METAR KHDN 290056Z AUTO 23015KT 10SM CLR 18/M05 A3007 RMK AO2 SLP141 T01831050 $
2026-03-28 22:56:00,METAR KHDN 282256Z AUTO 24015G24KT 10SM CLR 21/M06 A3007 RMK AO2 PK WND 24032/2244 SLP131 T02061056 $
2026-03-28 21:56:00,METAR KHDN 282156Z AUTO 26018G24KT 10SM FEW110 21/M04 A3007 RMK AO2 SLP130 T02111039 $
2026-03-28 20:56:00,METAR KHDN 282056Z AUTO 27017G23KT 10SM CLR 22/M03 A3010 RMK AO2 PK WND 26026/2036 SLP136 T02221028 58028 $
2026-03-28 18:56:00,METAR KHDN 281856Z AUTO 29013G23KT 10SM CLR 19/M03 A3017 RMK AO2 SLP162 T01891033 $
2026-03-28 16:56:00,METAR KHDN 281656Z AUTO 04004KT 10SM CLR 15/M06 A3022 RMK AO2 SLP187 T01501056 $
2026-03-28 15:56:00,METAR KHDN 281556Z AUTO 09006KT 10SM CLR 12/M05 A3023 RMK AO2 SLP194 T01171050 $
2026-03-28 14:56:00,METAR KHDN 281456Z AUTO 09008KT 10SM CLR 07/M06 A3025 RMK AO2 SLP211 T00671061 50002 $
2026-03-28 13:56:00,METAR KHDN 281356Z AUTO 10010KT 10SM CLR 04/M07 A3025 RMK AO2 SLP217 T00391067 $
2026-03-28 12:56:00,METAR KHDN 281256Z AUTO 11011KT 10SM CLR 02/M08 A3024 RMK AO2 SLP213 T00171078 FZRANO $
2026-03-28 08:56:00,METAR KHDN 280856Z AUTO 11010KT 10SM CLR 04/M07 A3025 RMK AO2 SLP205 T00441072 58010 $
2026-03-28 07:56:00,METAR KHDN 280756Z AUTO 11009KT 10SM CLR 05/M08 A3027 RMK AO2 SLP212 T00501078 $
2026-03-28 06:56:00,METAR KHDN 280656Z AUTO 10008KT 10SM CLR 07/M08 A3028 RMK AO2 SLP215 T00721078 $
2026-03-28 05:56:00,METAR KHDN 280556Z AUTO 11009KT 10SM CLR 07/M07 A3029 RMK AO2 SLP226 T00671067 10167 20067 401721028 58003 $
2026-03-28 04:56:00,METAR KHDN 280456Z AUTO 11005KT 10SM CLR 08/M07 A3030 RMK AO2 SLP235 T00781072 $
2026-03-28 03:56:00,METAR KHDN 280356Z AUTO 00000KT 10SM CLR 10/M07 A3031 RMK AO2 SLP241 T01001072 $
2026-03-28 00:56:00,METAR KHDN 280056Z AUTO 28005KT 10SM CLR 15/M09 A3029 RMK AO2 SLP233 T01501089 $
2026-03-27 23:56:00,METAR KHDN 272356Z AUTO 30005KT 10SM CLR 16/M11 A3029 RMK AO2 SLP232 T01611111 10172 20106 56013 $
2026-03-27 22:56:00,METAR KHDN 272256Z AUTO 26007KT 10SM CLR 17/M16 A3030 RMK AO2 SLP229 T01671161 $
2026-03-27 21:56:00,METAR KHDN 272156Z AUTO 29006KT 10SM CLR 17/M16 A3032 RMK AO2 SLP235 T01671156 $
2026-03-27 20:56:00,METAR KHDN 272056Z AUTO 28008KT 10SM CLR 17/M11 A3034 RMK AO2 SLP240 T01671106 57020 $
2026-03-27 19:56:00,METAR KHDN 271956Z AUTO 25006KT 10SM CLR 14/M09 A3036 RMK AO2 SLP246 T01441089 $
2026-03-27 18:56:00,METAR KHDN 271856Z AUTO VRB03KT 10SM CLR 13/M12 A3039 RMK AO2 SLP254 T01331122 TSNO $
2026-03-27 17:56:00,METAR KHDN 271756Z AUTO 00000KT 10SM CLR 11/M08 A3041 RMK AO2 SLP272 T01061078 10111 21028 58013 $
2026-03-27 16:56:00,METAR KHDN 271656Z AUTO 00000KT 10SM CLR 08/M07 A3044 RMK AO2 SLP283 T00781067 $
2026-03-25 13:56:00,METAR KHDN 251356Z AUTO 10009KT 10SM CLR 07/01 A3025 RMK AO2 SLP195 T00720006 $
2026-03-25 12:56:00,METAR KHDN 251256Z AUTO 11010KT 10SM CLR 06/M01 A3024 RMK AO2 SLP185 T00561006 $
2026-03-25 11:56:00,METAR KHDN 251156Z AUTO 12011KT 10SM CLR 05/00 A3023 RMK AO2 SLP181 T00500000 10117 20050 53003 $
2026-03-25 10:56:00,METAR KHDN 251056Z AUTO 10010KT 10SM CLR 07/01 A3022 RMK AO2 SLP171 T00670006 $
2026-03-25 09:56:00,METAR KHDN 250956Z AUTO 08008KT 10SM CLR 07/00 A3021 RMK AO2 SLP171 T00720000 $
2026-03-25 08:56:00,METAR KHDN 250856Z AUTO 09005KT 10SM CLR 08/01 A3022 RMK AO2 SLP174 T00780006 50002 $
2026-03-25 07:56:00,METAR KHDN 250756Z AUTO 10003KT 10SM CLR 10/01 A3023 RMK AO2 SLP174 T01000006 $
2026-03-25 06:56:00,METAR KHDN 250656Z AUTO 00000KT 10SM CLR 09/01 A3022 RMK AO2 SLP179 T00890006 $
2026-03-25 05:56:00,METAR KHDN 250556Z AUTO 17006KT 10SM CLR 12/01 A3021 RMK AO2 SLP171 T01170006 10222 20106 402280028 53014 $
2026-03-25 02:56:00,METAR KHDN 250256Z AUTO 24004KT 10SM CLR 16/01 A3016 RMK AO2 SLP170 T01610006 53011 $
2026-03-25 01:56:00,METAR KHDN 250156Z AUTO 27006KT 10SM CLR 17/01 A3014 RMK AO2 SLP165 T01670011 $
2026-03-25 00:56:00,METAR KHDN 250056Z AUTO 27011KT 10SM CLR 21/01 A3014 RMK AO2 SLP155 T02060011 $
2026-03-24 23:56:00,METAR KHDN 242356Z AUTO 29014G21KT 10SM CLR 22/01 A3012 RMK AO2 SLP145 T02220011 10228 20172 55004 $
2026-03-24 22:56:00,METAR KHDN 242256Z AUTO 27017G22KT 10SM CLR 23/01 A3012 RMK AO2 SLP141 T02280011 $
2026-03-24 21:56:00,METAR KHDN 242156Z AUTO 28012G19KT 10SM CLR 22/01 A3013 RMK AO2 SLP147 T02170011 $
2026-03-24 20:56:00,METAR KHDN 242056Z AUTO 28013G17KT 10SM CLR 21/01 A3014 RMK AO2 SLP153 T02110011 58017 $
2026-03-24 19:56:00,METAR KHDN 241956Z AUTO 30012G17KT 10SM CLR 20/01 A3017 RMK AO2 SLP160 T02000006 $
2026-03-24 18:56:00,METAR KHDN 241856Z AUTO 29014G19KT 10SM CLR 19/01 A3018 RMK AO2 SLP164 T01890006 $
2026-03-24 15:56:00,METAR KHDN 241556Z AUTO 07007KT 10SM FEW100 09/03 A3022 RMK AO2 SLP198 T00940033 $
2026-03-24 14:56:00,METAR KHDN 241456Z AUTO VRB03KT 10SM CLR 06/01 A3022 RMK AO2 SLP207 T00560011 53008 $
2026-03-24 13:56:00,METAR KHDN 241356Z AUTO 12007KT 10SM CLR 04/02 A3021 RMK AO2 SLP202 T00440017 $
2026-03-24 12:56:00,METAR KHDN 241256Z AUTO 09008KT 10SM CLR 04/01 A3019 RMK AO2 SLP191 T00390011 $
2026-03-24 11:56:00,METAR KHDN 241156Z AUTO 10008KT 10SM CLR 04/01 A3019 RMK AO2 SLP189 T00440011 10094 20028 53005 $
2026-03-24 10:56:00,METAR KHDN 241056Z AUTO 10009KT 10SM CLR 04/02 A3017 RMK AO2 SLP182 T00440017 $
2026-03-24 09:56:00,METAR KHDN 240956Z AUTO 10010KT 10SM CLR 05/02 A3016 RMK AO2 SLP171 T00500017 $
2026-03-24 08:56:00,METAR KHDN 240856Z AUTO VRB03KT 10SM CLR 04/01 A3018 RMK AO2 SLP180 T00440011 53008 $
2026-03-24 05:56:00,METAR KHDN 240556Z AUTO 08009KT 10SM OVC100 09/03 A3015 RMK AO2 SLP159 60000 T00940028 10144 20089 401610039 58002 $
2026-03-24 04:56:00,METAR KHDN 240456Z AUTO 10006KT 10SM OVC100 09/03 A3016 RMK AO2 SLP169 T00940028 $
2026-03-24 03:56:00,METAR KHDN 240356Z AUTO 10012KT 10SM SCT100 09/03 A3017 RMK AO2 SLP182 T00890033 $
2026-03-24 02:56:00,METAR KHDN 240256Z AUTO 09015KT 10SM OVC100 10/04 A3015 RMK AO2 SLP175 60000 T01000039 58002 $
2026-03-24 01:56:00,METAR KHDN 240156Z AUTO 10009KT 10SM SCT070 BKN095 11/03 A3015 RMK AO2 RAB14E27 SLP181 P0000 T01060028 $
2026-03-24 00:56:00,METAR KHDN 240056Z AUTO 11005KT 10SM BKN060 OVC075 13/01 A3017 RMK AO2 SLP180 T01330011 $
2026-03-23 23:56:00,METAR KHDN 232356Z AUTO 30011G20KT 10SM FEW050 BKN070 OVC085 14/01 A3016 RMK AO2 PK WND 25028/2308 RAE41 SLP177 P0000 60000 T01440006 10161 20139 51005 $
2026-03-23 22:56:00,METAR KHDN 232256Z AUTO 23012G16KT 10SM -RA SCT055 OVC075 14/00 A3015 RMK AO2 PK WND 22029/2245 WSHFT 2233 RAB51 SLP172 P0000 T01440000 $
2026-03-23 22:53:00,SPECI KHDN 232253Z AUTO 24011G29KT 10SM -RA FEW045 BKN060 OVC075 14/01 A3015 RMK AO2 PK WND 22029/2245 WSHFT 2233 RAB51 P0000 $
2026-03-23 21:56:00,METAR KHDN 232156Z AUTO 30009G15KT 10SM FEW049 BKN065 OVC075 16/M01 A3014 RMK AO2 PK WND 26027/2118 SLP167 T01561006 $
2026-03-23 20:56:00,METAR KHDN 232056Z AUTO VRB03KT 10SM OVC090 16/M02 A3012 RMK AO2 SLP154 T01561022 58007 $
2026-03-23 19:56:00,METAR KHDN 231956Z AUTO 14003KT 10SM FEW070 OVC085 16/M06 A3013 RMK AO2 SLP158 T01561056 $
2026-03-23 18:56:00,METAR KHDN 231856Z AUTO 28006KT 10SM BKN085 15/M02 A3015 RMK AO2 SLP164 T01501022 $
2026-03-23 17:56:00,METAR KHDN 231756Z AUTO 05003KT 10SM BKN095 15/M01 A3014 RMK AO2 SLP160 T01501011 10150 20039 58004 $
2026-03-23 16:56:00,METAR KHDN 231656Z AUTO 14006KT 10SM SCT095 13/M02 A3015 RMK AO2 SLP160 T01281022 $
2026-03-23 15:56:00,METAR KHDN 231556Z AUTO 12008KT 10SM FEW065 OVC085 09/M01 A3018 RMK AO2 SLP183 T00891011 $
2026-03-23 14:56:00,METAR KHDN 231456Z AUTO 13008KT 10SM OVC090 08/M03 A3016 RMK AO2 SLP170 T00831028 53008 $
2026-03-23 13:56:00,METAR KHDN 231356Z AUTO 07007KT 10SM OVC100 06/M03 A3014 RMK AO2 SLP167 T00611033 $
2026-03-23 12:56:00,METAR KHDN 231256Z AUTO 11004KT 10SM BKN110 05/M03 A3013 RMK AO2 SLP160 T00501028 $
2026-03-23 11:56:00,METAR KHDN 231156Z AUTO 00000KT 10SM CLR 04/M03 A3012 RMK AO2 SLP157 T00391033 10089 20039 55005 $
2026-03-23 10:56:00,METAR KHDN 231056Z AUTO 07007KT 10SM CLR 05/M03 A3012 RMK AO2 SLP150 T00501033 $
2026-03-23 09:56:00,METAR KHDN 230956Z AUTO 17004KT 10SM CLR 04/M04 A3013 RMK AO2 SLP154 T00441044 $
2026-03-23 08:56:00,METAR KHDN 230856Z AUTO 07003KT 10SM CLR 06/M04 A3014 RMK AO2 SLP158 T00611044 58005 $
2026-03-23 07:56:00,METAR KHDN 230756Z AUTO VRB04KT 10SM CLR 06/M05 A3014 RMK AO2 SLP159 T00611050 $
2026-03-23 06:56:00,METAR KHDN 230656Z AUTO 12004KT 10SM CLR 08/M04 A3017 RMK AO2 SLP163 T00781044 $
2026-03-23 05:56:00,METAR KHDN 230556Z AUTO 11008KT 10SM CLR 08/M04 A3016 RMK AO2 SLP164 T00781044 10178 20072 401940033 56001 $
2026-03-23 04:56:00,METAR KHDN 230456Z AUTO 09006KT 10SM CLR 12/M06 A3016 RMK AO2 SLP158 T01171056 $
2026-03-23 03:56:00,METAR KHDN 230356Z AUTO 00000KT 10SM CLR 10/M05 A3016 RMK AO2 SLP172 T01001050 $
2026-03-23 02:56:00,METAR KHDN 230256Z AUTO 06005KT 10SM CLR 13/M04 A3016 RMK AO2 SLP175 T01281044 53002 $
2026-03-23 01:56:00,METAR KHDN 230156Z AUTO 20006KT 10SM CLR 14/M03 A3015 RMK AO2 SLP175 T01391033 $
2026-03-23 00:56:00,METAR KHDN 230056Z AUTO 34004KT 10SM CLR 17/M06 A3015 RMK AO2 SLP160 T01721061 $
2026-03-22 23:56:00,METAR KHDN 222356Z AUTO 30005KT 10SM CLR 18/M06 A3015 RMK AO2 SLP159 T01781061 10194 20167 57007 TSNO $
2026-03-22 21:56:00,METAR KHDN 222156Z AUTO 25009G16KT 10SM CLR 19/M06 A3017 RMK AO2 SLP154 T01941056 TSNO $
2026-03-22 20:56:00,METAR KHDN 222056Z AUTO 33006G16KT 10SM CLR 18/M08 A3018 RMK AO2 SLP162 T01831078 58014 $
2026-03-22 18:56:00,METAR KHDN 221856Z AUTO 29011KT 10SM CLR 18/M04 A3022 RMK AO2 SLP169 T01781039 $
2026-03-22 17:56:00,METAR KHDN 221756Z AUTO 29007G15KT 10SM CLR 17/M04 A3023 RMK AO2 SLP174 T01671044 10167 20033 50003 $
2026-03-22 15:56:00,METAR KHDN 221556Z AUTO 07003KT 10SM CLR 11/M02 A3023 RMK AO2 SLP190 T01111022 $
2026-03-22 14:56:00,METAR KHDN 221456Z AUTO 07004KT 10SM CLR 07/M03 A3022 RMK AO2 SLP187 T00721028 51026 $
2026-03-22 13:56:00,METAR KHDN 221356Z AUTO 21007KT 10SM SCT120 05/M04 A3019 RMK AO2 SLP175 T00501044 $
2026-03-22 12:56:00,METAR KHDN 221256Z AUTO 04005KT 10SM SCT120 07/M06 A3015 RMK AO2 SLP154 T00721056 $
2026-03-22 11:56:00,METAR KHDN 221156Z AUTO 09004KT 10SM FEW120 08/M05 A3012 RMK AO2 SLP135 T00781050 10144 20061 53010 $
2026-03-22 10:56:00,METAR KHDN 221056Z AUTO 00000KT 10SM SCT120 09/M06 A3011 RMK AO2 SLP121 T00941061 $
2026-03-22 09:56:00,METAR KHDN 220956Z AUTO 17003KT 10SM BKN120 10/M07 A3009 RMK AO2 SLP114 T01001067 $
2026-03-22 08:56:00,METAR KHDN 220856Z AUTO 00000KT 10SM CLR 09/M06 A3009 RMK AO2 SLP114 T00891056 51004 $
2026-03-22 07:56:00,METAR KHDN 220756Z AUTO 14003KT 10SM CLR 12/M08 A3008 RMK AO2 SLP106 T01221078 $
2026-03-22 06:56:00,METAR KHDN 220656Z AUTO 00000KT 10SM CLR 13/M08 A3008 RMK AO2 SLP109 T01281078 $
2026-03-22 05:56:00,METAR KHDN 220556Z AUTO 22003KT 10SM CLR 13/M09 A3007 RMK AO2 SLP109 T01331089 10228 20128 402610033 53008 $
2026-03-22 04:56:00,METAR KHDN 220456Z AUTO 24006KT 10SM CLR 14/M09 A3006 RMK AO2 SLP110 T01441089 $
2026-03-22 03:56:00,METAR KHDN 220356Z AUTO 04005KT 10SM CLR 13/M09 A3005 RMK AO2 SLP123 T01281089 $
2026-03-22 02:56:00,METAR KHDN 220256Z AUTO 23005KT 10SM CLR 16/M12 A3004 RMK AO2 SLP123 T01561117 53009 $
2026-03-22 01:56:00,METAR KHDN 220156Z AUTO 20003KT 10SM CLR 19/M11 A3004 RMK AO2 SLP123 T01891106 $
2026-03-22 00:56:00,METAR KHDN 220056Z AUTO 28006KT 10SM CLR 20/M11 A3002 RMK AO2 SLP113 T02001106 $
2026-03-21 23:56:00,METAR KHDN 212356Z AUTO 29012G20KT 10SM CLR 23/M13 A3001 RMK AO2 PK WND 28029/2314 SLP104 T02331128 10261 20211 55004 $
2026-03-21 22:56:00,METAR KHDN 212256Z AUTO 28018G24KT 10SM CLR 24/M11 A3000 RMK AO2 PK WND 26030/2157 SLP094 T02441111 $
2026-03-21 21:56:00,METAR KHDN 212156Z AUTO 29018G25KT 10SM CLR 26/M11 A3000 RMK AO2 PK WND 28030/2144 SLP093 T02561111 $
2026-03-21 20:56:00,METAR KHDN 212056Z AUTO 28020G32KT 10SM CLR 26/M13 A3003 RMK AO2 PK WND 27032/2049 SLP101 T02561133 56029 $
2026-03-21 19:56:00,METAR KHDN 211956Z AUTO 25017G26KT 10SM CLR 26/M09 A3006 RMK AO2 PK WND 26026/1953 SLP106 T02561089 $
2026-03-21 18:56:00,METAR KHDN 211856Z AUTO 28010G18KT 10SM CLR 24/M07 A3009 RMK AO2 SLP123 T02391067 $
2026-03-21 17:56:00,METAR KHDN 211756Z AUTO VRB03KT 10SM CLR 21/M07 A3013 RMK AO2 SLP140 T02111067 10211 20033 58018 $
2026-03-21 16:56:00,METAR KHDN 211656Z AUTO 08007KT 10SM CLR 17/M04 A3016 RMK AO2 SLP156 T01721044 $
2026-03-21 15:56:00,METAR KHDN 211556Z AUTO 10009KT 10SM CLR 12/M04 A3018 RMK AO2 SLP173 T01221044 $
2026-03-21 14:56:00,METAR KHDN 211456Z AUTO 12008KT 10SM CLR 08/M04 A3020 RMK AO2 SLP187 T00831039 56007 $
2026-03-21 13:56:00,METAR KHDN 211356Z AUTO 11012KT 10SM CLR 04/M05 A3021 RMK AO2 SLP188 T00441050 $
2026-03-21 12:56:00,METAR KHDN 211256Z AUTO 11012KT 10SM CLR 04/M06 A3021 RMK AO2 SLP178 T00391061 $
2026-03-21 11:56:00,METAR KHDN 211156Z AUTO 10009KT 10SM CLR 04/M06 A3022 RMK AO2 SLP178 T00391056 10083 20039 56008 $
2026-03-21 10:56:00,METAR KHDN 211056Z AUTO 10011KT 10SM CLR 05/M06 A3022 RMK AO2 SLP175 T00501061 $
2026-03-21 09:56:00,METAR KHDN 210956Z AUTO 10010KT 10SM CLR 06/M06 A3024 RMK AO2 SLP180 T00561056 $
2026-03-21 08:56:00,METAR KHDN 210856Z AUTO 10009KT 10SM CLR 06/M06 A3025 RMK AO2 SLP188 T00561056 58003 $
2026-03-21 07:56:00,METAR KHDN 210756Z AUTO 10009KT 10SM CLR 07/M06 A3026 RMK AO2 SLP189 T00721056 $
2026-03-21 06:56:00,METAR KHDN 210656Z AUTO 11009KT 10SM CLR 07/M06 A3026 RMK AO2 SLP191 T00671061 $
2026-03-21 05:56:00,METAR KHDN 210556Z AUTO 09010KT 10SM CLR 08/M07 A3026 RMK AO2 SLP195 T00831072 10228 20083 402390011 55001 $
2026-03-21 04:56:00,METAR KHDN 210456Z AUTO 09009KT 10SM CLR 10/M06 A3026 RMK AO2 SLP196 T01001061 $
2026-03-21 03:56:00,METAR KHDN 210356Z AUTO 00000KT 10SM CLR 11/M07 A3027 RMK AO2 SLP207 T01111067 $
2026-03-21 02:56:00,METAR KHDN 210256Z AUTO 00000KT 10SM CLR 11/M07 A3027 RMK AO2 SLP215 T01111067 55004 $
2026-03-21 01:56:00,METAR KHDN 210156Z AUTO 19006KT 10SM CLR 16/M07 A3026 RMK AO2 SLP214 T01611067 $
2026-03-21 00:56:00,METAR KHDN 210056Z AUTO 31006KT 10SM CLR 21/M08 A3027 RMK AO2 SLP206 T02111083 $
2026-03-20 23:56:00,METAR KHDN 202356Z AUTO 28008KT 10SM CLR 23/M09 A3028 RMK AO2 SLP201 T02331089 10239 20178 56015 $
2026-03-20 22:56:00,METAR KHDN 202256Z AUTO 28011G16KT 10SM CLR 23/M11 A3030 RMK AO2 SLP209 T02331111 $
2026-03-20 21:56:00,METAR KHDN 202156Z AUTO 27009KT 10SM CLR 23/M10 A3032 RMK AO2 SLP214 T02281100 $
2026-03-20 20:56:00,METAR KHDN 202056Z AUTO 29012G16KT 10SM CLR 22/M08 A3034 RMK AO2 SLP218 T02221083 58022 $
2026-03-20 19:56:00,METAR KHDN 201956Z AUTO 31011KT 10SM CLR 22/M09 A3037 RMK AO2 SLP225 T02171089 $
2026-03-20 18:56:00,METAR KHDN 201856Z AUTO 27010KT 10SM CLR 21/M08 A3039 RMK AO2 SLP238 T02061083 $
2026-03-20 17:56:00,METAR KHDN 201756Z AUTO 00000KT 10SM CLR 18/M06 A3042 RMK AO2 SLP251 T01781056 10183 20011 58007 $
2026-03-20 16:56:00,METAR KHDN 201656Z AUTO 08004KT 10SM CLR 16/M03 A3043 RMK AO2 SLP253 T01561033 $
2026-03-20 15:56:00,METAR KHDN 201556Z AUTO 11007KT 10SM CLR 11/M03 A3045 RMK AO2 SLP265 T01061033 $
2026-03-20 14:56:00,METAR KHDN 201456Z AUTO 09008KT 10SM CLR 07/M04 A3044 RMK AO2 SLP272 T00721044 51006 $
2026-03-20 13:56:00,METAR KHDN 201356Z AUTO 12011KT 10SM CLR 03/M05 A3044 RMK AO2 SLP277 T00281050 $
2026-03-20 12:56:00,METAR KHDN 201256Z AUTO 11011KT 10SM CLR 02/M06 A3043 RMK AO2 SLP266 T00171056 FZRANO $
2026-03-20 11:56:00,METAR KHDN 201156Z AUTO 10008KT 10SM CLR 03/M06 A3042 RMK AO2 SLP253 T00281056 10106 20011 53001 $
2026-03-20 10:56:00,METAR KHDN 201056Z AUTO 12008KT 10SM CLR 02/M06 A3042 RMK AO2 SLP251 T00171056 FZRANO $
2026-03-20 09:56:00,METAR KHDN 200956Z AUTO 11007KT 10SM CLR 04/M06 A3042 RMK AO2 SLP246 T00391056 $
2026-03-20 08:56:00,METAR KHDN 200856Z AUTO 14005KT 10SM CLR 06/M06 A3042 RMK AO2 SLP242 T00561056 51006 $
2026-03-20 07:56:00,METAR KHDN 200756Z AUTO 09006KT 10SM CLR 07/M06 A3041 RMK AO2 SLP241 T00671056 $
2026-03-20 06:56:00,METAR KHDN 200656Z AUTO 09005KT 10SM CLR 07/M06 A3041 RMK AO2 SLP244 T00721056 $
2026-03-20 05:56:00,METAR KHDN 200556Z AUTO 12006KT 10SM CLR 07/M06 A3040 RMK AO2 SLP244 T00721056 10228 20072 402440011 51010 $
2026-03-20 04:56:00,METAR KHDN 200456Z AUTO 23004KT 10SM CLR 12/M07 A3039 RMK AO2 SLP239 T01221072 $
2026-03-20 03:56:00,METAR KHDN 200356Z AUTO 00000KT 10SM CLR 14/M08 A3038 RMK AO2 SLP243 T01391078 $
2026-03-20 02:56:00,METAR KHDN 200256Z AUTO VRB03KT 10SM CLR 14/M08 A3036 RMK AO2 SLP242 T01391078 53010 $
2026-03-20 01:56:00,METAR KHDN 200156Z AUTO VRB03KT 10SM CLR 16/M07 A3035 RMK AO2 SLP243 T01561072 $
2026-03-20 00:56:00,METAR KHDN 200056Z AUTO 26007KT 10SM CLR 21/M07 A3033 RMK AO2 SLP230 T02061072 $
2026-03-19 23:56:00,METAR KHDN 192356Z AUTO 26013KT 10SM CLR 23/M08 A3032 RMK AO2 SLP216 T02281083 10244 20183 57009 $
2026-03-19 22:56:00,METAR KHDN 192256Z AUTO 28011G17KT 10SM CLR 23/M09 A3034 RMK AO2 SLP224 T02331094 $
2026-03-19 21:56:00,METAR KHDN 192156Z AUTO 28019G23KT 10SM CLR 24/M09 A3034 RMK AO2 SLP219 T02391094 $
2026-03-19 20:56:00,METAR KHDN 192056Z AUTO 29013G20KT 10SM CLR 24/M08 A3036 RMK AO2 SLP219 T02391078 58024 $
2026-03-19 19:56:00,METAR KHDN 191956Z AUTO 27006KT 10SM CLR 22/M07 A3039 RMK AO2 SLP230 T02221067 $
2026-03-19 18:56:00,METAR KHDN 191856Z AUTO 29006KT 10SM CLR 21/M07 A3042 RMK AO2 SLP243 T02061072 $
2026-03-19 17:56:00,METAR KHDN 191756Z AUTO VRB04KT 10SM CLR 18/M06 A3044 RMK AO2 SLP257 T01831056 10183 20011 58006 $
2026-03-19 16:56:00,METAR KHDN 191656Z AUTO 11007KT 10SM CLR 14/M06 A3045 RMK AO2 SLP265 T01441056 $
2026-03-19 15:56:00,METAR KHDN 191556Z AUTO 10009KT 10SM CLR 11/M04 A3046 RMK AO2 SLP270 T01061044 $
2026-03-19 14:56:00,METAR KHDN 191456Z AUTO 11008KT 10SM CLR 07/M05 A3046 RMK AO2 SLP278 T00671050 51008 $
2026-03-19 13:56:00,METAR KHDN 191356Z AUTO 11015KT 10SM CLR 03/M06 A3046 RMK AO2 SLP282 T00331061 $
2026-03-19 12:56:00,METAR KHDN 191256Z AUTO 10009KT 10SM CLR 02/M07 A3045 RMK AO2 SLP273 T00171067 FZRANO $
2026-03-19 11:56:00,METAR KHDN 191156Z AUTO 09012KT 10SM CLR 03/M07 A3043 RMK AO2 SLP260 T00331067 10094 20011 53001 $
2026-03-19 10:56:00,METAR KHDN 191056Z AUTO 11008KT 10SM CLR 02/M07 A3043 RMK AO2 SLP260 T00171072 FZRANO $
2026-03-19 09:56:00,METAR KHDN 190956Z AUTO 09007KT 10SM CLR 04/M07 A3042 RMK AO2 SLP254 T00391072 $
2026-03-19 08:56:00,METAR KHDN 190856Z AUTO 09005KT 10SM CLR 06/M08 A3043 RMK AO2 SLP253 T00561083 51007 $
2026-03-19 07:56:00,METAR KHDN 190756Z AUTO 20004KT 10SM CLR 07/M08 A3042 RMK AO2 SLP247 T00721083 $
2026-03-19 06:56:00,METAR KHDN 190656Z AUTO 00000KT 10SM CLR 08/M09 A3041 RMK AO2 SLP248 T00831094 $
2026-03-19 03:56:00,METAR KHDN 190356Z AUTO 06003KT 10SM CLR 14/M11 A3036 RMK AO2 SLP236 T01391111 $
2026-03-19 02:56:00,METAR KHDN 190256Z AUTO 27005KT 10SM CLR 14/M11 A3032 RMK AO2 SLP232 T01391106 53012 $
2026-03-19 01:56:00,METAR KHDN 190156Z AUTO 25006KT 10SM CLR 15/M10 A3030 RMK AO2 SLP234 T01501100 $
2026-03-19 00:56:00,METAR KHDN 190056Z AUTO 25011KT 10SM CLR 19/M09 A3029 RMK AO2 SLP219 T01891089 $
2026-03-18 23:56:00,METAR KHDN 182356Z AUTO 27016G21KT 10SM CLR 21/M11 A3028 RMK AO2 SLP207 T02111106 10222 20172 55005 $
2026-03-18 22:56:00,METAR KHDN 182256Z AUTO 26021G25KT 10SM CLR 22/M09 A3028 RMK AO2 SLP203 T02171094 $
2026-03-18 21:56:00,METAR KHDN 182156Z AUTO 27019G25KT 10SM CLR 22/M09 A3028 RMK AO2 SLP200 T02171094 $
2026-03-18 20:56:00,METAR KHDN 182056Z AUTO 27015G27KT 10SM CLR 21/M08 A3030 RMK AO2 PK WND 26027/2053 SLP216 T02111083 57016 $
2026-03-18 19:56:00,METAR KHDN 181956Z AUTO 26016G21KT 10SM CLR 21/M08 A3031 RMK AO2 SLP213 T02061078 $
2026-03-18 18:56:00,METAR KHDN 181856Z AUTO 27014KT 10SM CLR 18/M07 A3034 RMK AO2 SLP225 T01831067 $
2026-03-18 15:56:00,METAR KHDN 181556Z AUTO 09006KT 10SM CLR 09/M05 A3038 RMK AO2 SLP254 T00941050 $
2026-03-18 13:56:00,METAR KHDN 181356Z AUTO 09008KT 10SM CLR 02/M07 A3035 RMK AO2 SLP258 T00171072 FZRANO $
2026-03-18 12:56:00,METAR KHDN 181256Z AUTO 11005KT 10SM CLR 01/M08 A3033 RMK AO2 SLP244 T00111083 FZRANO $
2026-03-18 06:56:00,METAR KHDN 180656Z AUTO 28003KT 10SM FEW095 07/M09 A3028 RMK AO2 SLP212 T00721094 $
2026-03-18 05:56:00,METAR KHDN 180556Z AUTO 20004KT 10SM CLR 07/M09 A3028 RMK AO2 SLP215 T00721094 10178 20072 401890011 51022 $
2026-03-18 04:56:00,METAR KHDN 180456Z AUTO 28005KT 10SM CLR 09/M09 A3026 RMK AO2 SLP210 T00941094 $
2026-03-18 03:56:00,METAR KHDN 180356Z AUTO 28006KT 10SM CLR 09/M09 A3024 RMK AO2 SLP206 T00941089 $
2026-03-18 02:56:00,METAR KHDN 180256Z AUTO 25007KT 10SM CLR 11/M08 A3020 RMK AO2 SLP200 T01061083 51019 $
2026-03-18 01:56:00,METAR KHDN 180156Z AUTO 25007KT 10SM CLR 12/M08 A3018 RMK AO2 SLP193 T01171078 $
2026-03-18 00:56:00,METAR KHDN 180056Z AUTO 30014G19KT 10SM CLR 16/M08 A3016 RMK AO2 PK WND 27029/2357 SLP178 T01561078 $
2026-03-17 23:56:00,METAR KHDN 172356Z AUTO 28017G29KT 10SM CLR 18/M06 A3013 RMK AO2 PK WND 27033/2335 SLP165 T01781061 10189 20133 55002 $
2026-03-17 22:56:00,METAR KHDN 172256Z AUTO 29017G25KT 10SM CLR 18/M07 A3013 RMK AO2 PK WND 28031/2158 SLP160 T01781067 $
2026-03-17 21:56:00,METAR KHDN 172156Z AUTO 30017G23KT 10SM CLR 18/M08 A3013 RMK AO2 PK WND 28032/2106 SLP160 T01831078 $
2026-03-17 20:56:00,METAR KHDN 172056Z AUTO 30020G30KT 10SM CLR 17/M08 A3014 RMK AO2 PK WND 29030/2056 WSHFT 2029 SLP165 T01721083 56014 $
2026-03-17 20:49:00,SPECI KHDN 172049Z AUTO 29019G28KT 10SM CLR 17/M08 A3014 RMK AO2 PK WND 32028/2044 WSHFT 2029 $
2026-03-17 19:56:00,METAR KHDN 171956Z AUTO 25017G24KT 10SM FEW095 16/M06 A3014 RMK AO2 PK WND 25029/1915 SLP171 T01611061 $
2026-03-17 18:56:00,METAR KHDN 171856Z AUTO 26018G26KT 10SM FEW090 14/M06 A3017 RMK AO2 PK WND 27027/1837 SLP182 T01441061 $
2026-03-17 17:56:00,METAR KHDN 171756Z AUTO 27019G25KT 10SM CLR 13/M05 A3019 RMK AO2 PK WND 28027/1743 SLP195 P0001 60001 T01331050 10133 20011 58008 $
2026-03-17 16:56:00,METAR KHDN 171656Z AUTO 28016KT 10SM CLR 11/M04 A3022 RMK AO2 SLP209 T01061039 $
2026-03-17 15:56:00,METAR KHDN 171556Z AUTO 27009KT 10SM CLR 08/M01 A3022 RMK AO2 SLP216 T00831011 $
2026-03-17 13:56:00,METAR KHDN 171356Z AUTO 07003KT 10SM CLR 03/M02 A3020 RMK AO2 SLP222 T00331017 $
2026-03-17 01:56:00,METAR KHDN 170156Z AUTO 08007KT 10SM OVC060 04/M04 A3017 RMK AO2 SLP231 T00441044 $
2026-03-17 00:56:00,METAR KHDN 170056Z AUTO 06007KT 10SM OVC060 05/M04 A3016 RMK AO2 SLP225 T00501044 $
2026-03-16 23:56:00,METAR KHDN 162356Z AUTO 02005KT 10SM OVC060 06/M06 A3016 RMK AO2 SLP224 60001 T00611056 10067 20000 56005 $
2026-03-16 22:56:00,METAR KHDN 162256Z AUTO 32003KT 10SM OVC055 07/M06 A3016 RMK AO2 SLP221 T00671061 $
2026-03-16 21:56:00,METAR KHDN 162156Z AUTO 27009KT 10SM OVC055 06/M07 A3017 RMK AO2 SLP227 T00611072 $
2026-03-16 20:56:00,METAR KHDN 162056Z AUTO VRB05KT 10SM OVC060 05/M06 A3018 RMK AO2 SLP234 60001 T00501056 58015 $
2026-03-16 18:56:00,METAR KHDN 161856Z AUTO VRB03KT 10SM OVC050 01/M06 A3023 RMK AO2 SLP260 P0001 T00111056 FZRANO $
2026-03-16 17:56:00,METAR KHDN 161756Z AUTO 04004KT 10SM OVC039 00/M06 A3023 RMK AO2 SLP268 60000 T00001056 10000 21050 58006 FZRANO $
2026-03-16 16:56:00,METAR KHDN 161656Z AUTO 05006KT 10SM BKN045 OVC055 M02/M06 A3024 RMK AO2 UPE21 SLP274 P0000 T10171056 FZRANO $
2026-03-16 15:56:00,METAR KHDN 161556Z AUTO 04003KT 9SM UP OVC045 M02/M04 A3025 RMK AO2 UPB55SNE55 SLP280 P0000 T10221039 FZRANO $
2026-03-16 15:06:00,SPECI KHDN 161506Z AUTO 05004KT 3SM -SN BR FEW028 OVC047 M04/M06 A3026 RMK AO2 P0000 FZRANO $
2026-03-16 14:56:00,METAR KHDN 161456Z AUTO 06003KT 1 1/2SM -SN BR SCT033 OVC049 M05/M06 A3025 RMK AO2 SLP289 P0000 60000 T10501061 53009 FZRANO $
2026-03-16 14:38:00,SPECI KHDN 161438Z AUTO 03003KT 1 1/2SM -SN BR SCT021 BKN035 OVC047 M05/M06 A3025 RMK AO2 VIS 1 1/4V2 P0000 FZRANO $
2026-03-16 14:19:00,SPECI KHDN 161419Z AUTO 06003KT 1 1/4SM -SN BR OVC021 M05/M07 A3024 RMK AO2 P0000 FZRANO $
2026-03-16 14:05:00,SPECI KHDN 161405Z AUTO 00000KT 1SM -SN BR OVC017 M05/M07 A3024 RMK AO2 P0000 FZRANO $
2026-03-16 13:56:00,METAR KHDN 161356Z AUTO 00000KT 3/4SM -SN BR OVC015 M05/M07 A3023 RMK AO2 SLP275 P0000 T10501067 FZRANO $
2026-03-16 13:30:00,SPECI KHDN 161330Z AUTO 00000KT 3/4SM -SN BR BKN017 OVC024 M05/M07 A3022 RMK AO2 P0000 FZRANO $
2026-03-16 13:21:00,SPECI KHDN 161321Z AUTO 26003KT 1 3/4SM -SN BR BKN019 OVC026 M05/M07 A3023 RMK AO2 P0000 FZRANO $
2026-03-16 13:07:00,SPECI KHDN 161307Z AUTO 25004KT 6SM -SN BKN026 BKN035 OVC046 M04/M09 A3022 RMK AO2 P0000 FZRANO $
2026-03-16 12:56:00,METAR KHDN 161256Z AUTO 00000KT 8SM -SN FEW026 BKN035 OVC044 M04/M09 A3022 RMK AO2 SNB13 SLP260 P0000 T10391089 FZRANO $
2026-03-16 00:56:00,METAR KHDN 160056Z AUTO 32014KT 10SM CLR M01/M18 A3018 RMK AO2 SLP260 T10111178 FZRANO $
2026-03-15 23:56:00,METAR KHDN 152356Z AUTO 31013G20KT 10SM SCT080 00/M19 A3018 RMK AO2 PK WND 28026/2312 SLP255 60000 T00001194 10006 21050 58005 FZRANO $
2026-03-15 22:56:00,METAR KHDN 152256Z AUTO 31015G25KT 10SM SCT075 M01/M17 A3019 RMK AO2 PK WND 33027/2237 SLP261 T10061167 FZRANO $
2026-03-15 21:56:00,METAR KHDN 152156Z AUTO 31013G23KT 10SM OVC065 M02/M16 A3021 RMK AO2 PK WND 31029/2128 SLP262 T10221156 FZRANO $
2026-03-15 20:56:00,METAR KHDN 152056Z AUTO 29016G23KT 10SM BKN065 M01/M16 A3020 RMK AO2 SLP249 60000 T10111161 58010 FZRANO $
2026-03-15 19:56:00,METAR KHDN 151956Z AUTO 30011G18KT 9SM FEW018 BKN049 OVC060 M03/M14 A3023 RMK AO2 SNB1858E12B42E52 SLP258 P0000 T10331144 FZRANO $
2026-03-15 18:56:00,METAR KHDN 151856Z AUTO 27014G20KT 10SM BKN044 BKN060 M04/M13 A3024 RMK AO2 SNE19 SLP258 P0000 T10391128 FZRANO $
2026-03-15 13:56:00,METAR KHDN 151356Z AUTO 28014KT 10SM CLR M08/M12 A3014 RMK AO2 SLP214 T10781122 FZRANO $
2026-03-15 12:56:00,METAR KHDN 151256Z AUTO 28010KT 10SM CLR M08/M11 A3008 RMK AO2 PK WND 27029/1219 SLP194 T10831111 FZRANO $
2026-03-15 11:56:00,METAR KHDN 151156Z AUTO 27020KT 10SM CLR M08/M11 A3001 RMK AO2 SLP166 60000 T10781106 10033 21078 53034 FZRANO $
