Time_recorded,METAR
2026-05-02 15:20:00,METAR LIRN 021520Z 29009KT 250V340 9999 FEW080 21/04 Q1021 NOSIG
2026-05-02 14:50:00,METAR LIRN 021450Z 29009KT 250V330 9999 FEW060 20/04 Q1021 NOSIG
2026-05-02 14:20:00,METAR LIRN 021420Z 03008KT 350V070 9999 FEW060 21/02 Q1021 NOSIG
2026-05-02 13:50:00,METAR LIRN 021350Z 01007KT 300V060 9999 FEW060 22/02 Q1021 NOSIG
2026-05-02 13:20:00,METAR LIRN 021320Z 05008KT 360V090 9999 FEW060 21/01 Q1022 NOSIG
2026-05-02 12:50:00,METAR LIRN 021250Z 06011KT 9999 FEW060 21/01 Q1022 NOSIG
2026-05-02 12:20:00,METAR LIRN 021220Z 03010KT 360V070 9999 FEW070 21/02 Q1022 NOSIG
2026-05-02 11:50:00,METAR LIRN 021150Z 02010KT 350V060 9999 FEW070 21/02 Q1022 NOSIG
2026-05-02 11:20:00,METAR LIRN 021120Z 04011KT 360V080 9999 FEW070 20/01 Q1022 NOSIG
2026-05-02 10:50:00,METAR LIRN 021050Z 03011KT 340V070 9999 FEW070 20/02 Q1022 NOSIG
2026-05-02 10:20:00,METAR LIRN 021020Z 05013KT 010V080 9999 FEW070 20/02 Q1022 NOSIG
2026-05-02 09:50:00,METAR LIRN 020950Z 02011G21KT 9999 FEW060 19/02 Q1023 NOSIG
2026-05-02 09:20:00,METAR LIRN 020920Z 02011KT 340V050 9999 FEW060 18/03 Q1023 NOSIG
2026-05-02 08:50:00,METAR LIRN 020850Z 02011KT 9999 FEW060 18/02 Q1023 NOSIG
2026-05-02 08:20:00,METAR LIRN 020820Z 02011KT 350V050 9999 FEW060 17/02 Q1023 NOSIG
2026-05-02 07:50:00,METAR LIRN 020750Z 07008KT 020V110 CAVOK 17/04 Q1023 NOSIG
2026-05-02 07:20:00,METAR LIRN 020720Z 05009KT CAVOK 16/04 Q1023 NOSIG
2026-05-02 06:50:00,METAR LIRN 020650Z 03008KT CAVOK 16/04 Q1023 NOSIG
2026-05-02 06:20:00,METAR LIRN 020620Z 02006KT 340V050 CAVOK 15/04 Q1023 NOSIG
2026-05-02 05:50:00,METAR LIRN 020550Z 02006KT CAVOK 14/03 Q1023 NOSIG
2026-05-02 05:20:00,METAR LIRN 020520Z 02005KT CAVOK 14/02 Q1023 NOSIG
2026-05-02 04:50:00,METAR LIRN 020450Z 01004KT 340V040 9999 FEW060 13/00 Q1023 NOSIG
2026-05-02 04:20:00,METAR LIRN 020420Z 36005KT 320V030 9999 FEW050 12/M01 Q1023 NOSIG
2026-05-02 03:50:00,METAR LIRN 020350Z 01003KT 9999 FEW050 12/M01 Q1023 NOSIG
2026-05-02 03:20:00,METAR LIRN 020320Z VRB02KT 9999 FEW050 12/M01 Q1023 NOSIG
2026-05-02 02:50:00,METAR LIRN 020250Z 31004KT 270V020 CAVOK 13/M02 Q1022 NOSIG
2026-05-02 02:20:00,METAR LIRN 020220Z 32004KT 280V010 CAVOK 13/M03 Q1023 NOSIG
2026-05-02 01:50:00,METAR LIRN 020150Z 29004KT CAVOK 13/M03 Q1023 NOSIG
2026-05-02 01:20:00,METAR LIRN 020120Z 02004KT CAVOK 12/M02 Q1023 NOSIG
2026-05-02 00:50:00,METAR LIRN 020050Z 33003KT 280V030 CAVOK 13/M02 Q1023 NOSIG
2026-05-02 00:20:00,METAR LIRN 020020Z VRB02KT CAVOK 12/M02 Q1023 NOSIG
2026-05-01 23:50:00,METAR LIRN 012350Z VRB02KT CAVOK 12/M02 Q1023 NOSIG
2026-05-01 23:20:00,METAR LIRN 012320Z 25003KT 220V280 CAVOK 13/M02 Q1023 NOSIG
2026-05-01 22:50:00,METAR LIRN 012250Z VRB01KT CAVOK 12/M04 Q1023 NOSIG
2026-05-01 22:20:00,METAR LIRN 012220Z 33002KT CAVOK 13/M03 Q1023 NOSIG
2026-05-01 21:50:00,METAR LIRN 012150Z VRB02KT CAVOK 13/M04 Q1023 NOSIG
2026-05-01 21:20:00,METAR LIRN 012120Z VRB02KT CAVOK 13/M04 Q1023 NOSIG
2026-05-01 20:50:00,METAR LIRN 012050Z 06004KT CAVOK 14/M04 Q1023 NOSIG
2026-05-01 20:20:00,METAR LIRN 012020Z VRB02KT CAVOK 14/M04 Q1023 NOSIG
2026-05-01 19:50:00,METAR LIRN 011950Z VRB02KT CAVOK 14/M05 Q1023 NOSIG
2026-05-01 19:20:00,METAR LIRN 011920Z 04005KT 360V060 CAVOK 14/M05 Q1022 NOSIG
2026-05-01 18:50:00,METAR LIRN 011850Z 05010KT CAVOK 14/M05 Q1022 NOSIG
2026-05-01 18:20:00,METAR LIRN 011820Z 06009KT CAVOK 14/M05 Q1021 NOSIG
2026-05-01 17:50:00,METAR LIRN 011750Z 04010KT 360V070 CAVOK 16/M06 Q1021 NOSIG
2026-05-01 17:20:00,METAR LIRN 011720Z 05012KT CAVOK 16/M04 Q1021 NOSIG
2026-05-01 16:50:00,METAR LIRN 011650Z 03014KT 360V060 CAVOK 17/M06 Q1020 NOSIG
2026-05-01 16:20:00,METAR LIRN 011620Z 05019KT CAVOK 17/M05 Q1020 NOSIG
2026-05-01 15:50:00,METAR LIRN 011550Z 06017KT CAVOK 17/M02 Q1020 NOSIG
2026-05-01 15:20:00,METAR LIRN 011520Z 06017KT CAVOK 18/M02 Q1020 NOSIG
2026-05-01 14:50:00,METAR LIRN 011450Z 05015KT CAVOK 19/M02 Q1020 NOSIG
2026-05-01 14:20:00,METAR LIRN 011420Z 04014KT 360V070 CAVOK 19/M02 Q1020 NOSIG
2026-05-01 13:50:00,METAR LIRN 011350Z 03016G28KT 360V060 CAVOK 19/M03 Q1020 NOSIG
2026-05-01 13:20:00,METAR LIRN 011320Z 04017KT 010V070 CAVOK 19/M03 Q1020 NOSIG
2026-05-01 12:50:00,METAR LIRN 011250Z 04015KT 010V070 CAVOK 19/M02 Q1020 NOSIG
2026-05-01 12:20:00,METAR LIRN 011220Z 03016KT CAVOK 19/M03 Q1021 NOSIG
2026-05-01 11:50:00,METAR LIRN 011150Z 06015KT 020V100 CAVOK 19/M02 Q1021 NOSIG
2026-05-01 11:20:00,METAR LIRN 011120Z 06017KT 030V090 CAVOK 19/M03 Q1021 NOSIG
2026-05-01 10:50:00,METAR LIRN 011050Z 05018KT 020V080 CAVOK 18/M02 Q1021 NOSIG
2026-05-01 10:20:00,METAR LIRN 011020Z 05018KT CAVOK 18/M01 Q1021 NOSIG
2026-05-01 09:50:00,METAR LIRN 010950Z 06020KT CAVOK 18/M01 Q1021 NOSIG
2026-05-01 09:20:00,METAR LIRN 010920Z 05017KT CAVOK 18/M01 Q1021 NOSIG
2026-05-01 08:50:00,METAR LIRN 010850Z 04022G33KT CAVOK 17/M01 Q1021 NOSIG
2026-05-01 08:20:00,METAR LIRN 010820Z 04020KT 010V070 CAVOK 16/M00 Q1020 NOSIG
2026-05-01 07:50:00,METAR LIRN 010750Z 05018KT CAVOK 16/00 Q1020 NOSIG
2026-05-01 07:20:00,METAR LIRN 010720Z 04019KT CAVOK 16/00 Q1020 NOSIG
2026-05-01 06:50:00,METAR LIRN 010650Z 03015KT CAVOK 15/M00 Q1020 NOSIG
2026-05-01 04:50:00,METAR LIRN 010450Z 02008KT CAVOK 13/03 Q1020 NOSIG
2026-05-01 04:20:00,METAR LIRN 010420Z 02007KT CAVOK 12/03 Q1020 NOSIG
2026-05-01 03:50:00,METAR LIRN 010350Z 04008KT 010V070 CAVOK 13/03 Q1020 NOSIG
2026-05-01 03:20:00,METAR LIRN 010320Z 03008KT CAVOK 13/03 Q1020 NOSIG
2026-05-01 02:50:00,METAR LIRN 010250Z 02009KT CAVOK 13/03 Q1020 NOSIG
2026-05-01 00:50:00,METAR LIRN 010050Z 02011KT CAVOK 13/02 Q1020 NOSIG
2026-05-01 00:20:00,METAR LIRN 010020Z 03008KT CAVOK 13/03 Q1020 NOSIG
2026-04-30 23:50:00,METAR LIRN 302350Z 02008KT CAVOK 13/02 Q1020 NOSIG
2026-04-30 23:20:00,METAR LIRN 302320Z 03008KT CAVOK 14/02 Q1020 NOSIG
2026-04-30 22:50:00,METAR LIRN 302250Z 02010KT CAVOK 14/01 Q1020 NOSIG
2026-04-30 22:20:00,METAR LIRN 302220Z 03012KT CAVOK 14/01 Q1020 NOSIG
2026-04-30 21:50:00,METAR LIRN 302150Z 04014KT CAVOK 14/02 Q1020 NOSIG
2026-04-30 21:20:00,METAR LIRN 302120Z 04013KT CAVOK 14/01 Q1020 NOSIG
2026-04-30 20:50:00,METAR LIRN 302050Z 04009KT CAVOK 15/M00 Q1019 NOSIG
2026-04-30 20:20:00,METAR LIRN 302020Z 04010KT CAVOK 15/M00 Q1019 NOSIG
2026-04-30 19:50:00,METAR LIRN 301950Z 04008KT CAVOK 15/02 Q1019 NOSIG
2026-04-30 19:20:00,METAR LIRN 301920Z 04009KT CAVOK 15/03 Q1019 NOSIG
2026-04-30 18:50:00,METAR LIRN 301850Z 05010KT CAVOK 16/04 Q1019 NOSIG
2026-04-30 18:20:00,METAR LIRN 301820Z 05008KT 9999 FEW080 16/03 Q1018 NOSIG
2026-04-30 17:50:00,METAR LIRN 301750Z 06012KT 9999 FEW080 17/03 Q1018 NOSIG
2026-04-30 17:20:00,METAR LIRN 301720Z 07015KT 9999 FEW080 17/04 Q1018 NOSIG
2026-04-30 16:50:00,METAR LIRN 301650Z 05011KT 9999 -DZ SCT080 18/04 Q1018 NOSIG
2026-04-30 16:20:00,METAR LIRN 301620Z 04011KT 360V070 9999 SCT080 18/04 Q1018 NOSIG
2026-04-30 14:50:00,METAR LIRN 301450Z 05012KT 010V090 CAVOK 21/07 Q1017 NOSIG
2026-04-30 14:20:00,METAR LIRN 301420Z 07012KT CAVOK 21/07 Q1017 NOSIG
2026-04-30 13:50:00,METAR LIRN 301350Z 08011KT 050V110 CAVOK 21/08 Q1017 NOSIG
2026-04-30 13:20:00,METAR LIRN 301320Z 03009KT 340V070 CAVOK 21/08 Q1017 NOSIG
2026-04-30 12:50:00,METAR LIRN 301250Z 06010KT 020V090 CAVOK 20/09 Q1017 NOSIG
2026-04-30 12:20:00,METAR LIRN 301220Z 08012KT 050V110 CAVOK 20/09 Q1017 NOSIG
2026-04-30 11:50:00,METAR LIRN 301150Z 06012KT 030V090 9999 FEW040 SCT070 21/11 Q1017 NOSIG
2026-04-30 11:20:00,METAR LIRN 301120Z 04013KT 360V070 9999 FEW040 SCT070 20/10 Q1017 NOSIG
2026-04-30 10:50:00,METAR LIRN 301050Z 06013KT 9999 SCT060 19/10 Q1017 NOSIG
2026-04-30 10:20:00,METAR LIRN 301020Z 07011KT 030V100 9999 SCT060 19/11 Q1018 NOSIG
2026-04-30 09:50:00,METAR LIRN 300950Z 06011KT 9999 SCT060 19/12 Q1018 NOSIG
2026-04-30 09:20:00,METAR LIRN 300920Z 05008KT 9999 SCT060 18/13 Q1018 NOSIG
2026-04-30 08:50:00,METAR LIRN 300850Z 02005KT 9999 -RA BKN070 17/12 Q1018 NOSIG
2026-04-30 08:20:00,METAR LIRN 300820Z 02005KT 360V060 9999 BKN070 17/12 Q1017 NOSIG
2026-04-30 07:50:00,METAR LIRN 300750Z 01005KT 9999 BKN070 17/12 Q1017 NOSIG
2026-04-30 07:20:00,METAR LIRN 300720Z VRB02KT 9999 BKN070 16/12 Q1017 NOSIG
2026-04-30 06:50:00,METAR LIRN 300650Z VRB01KT 9999 BKN070 16/13 Q1017 NOSIG
2026-04-30 06:20:00,METAR LIRN 300620Z 04004KT 010V080 9999 -RA BKN070 15/12 Q1016 NOSIG
2026-04-30 05:50:00,METAR LIRN 300550Z 35003KT 320V030 9999 -RA BKN070 16/11 Q1016 NOSIG
2026-04-30 05:20:00,METAR LIRN 300520Z 34005KT 9999 BKN070 16/11 Q1016 NOSIG
2026-04-30 04:50:00,METAR LIRN 300450Z 35007KT 8000 RA FEW040 BKN070 16/11 Q1016 NOSIG
2026-04-30 04:20:00,METAR LIRN 300420Z 01004KT 9999 SCT080 17/10 Q1016 NOSIG
2026-04-30 03:50:00,METAR LIRN 300350Z 33003KT 300V360 CAVOK 17/10 Q1016 NOSIG
2026-04-30 03:20:00,METAR LIRN 300320Z 32006KT CAVOK 17/11 Q1016 NOSIG
2026-04-30 02:50:00,METAR LIRN 300250Z 34005KT CAVOK 18/08 Q1016 NOSIG
2026-04-30 02:20:00,METAR LIRN 300220Z 31006KT 9999 FEW080 18/08 Q1016 NOSIG
2026-04-30 01:50:00,METAR LIRN 300150Z 30003KT 270V330 9999 FEW070 18/09 Q1016 NOSIG
2026-04-30 01:20:00,METAR LIRN 300120Z 34006KT CAVOK 18/08 Q1016 NOSIG
2026-04-30 00:50:00,METAR LIRN 300050Z 33004KT CAVOK 18/08 Q1015 NOSIG
2026-04-30 00:20:00,METAR LIRN 300020Z 34003KT CAVOK 18/08 Q1015 NOSIG
2026-04-29 23:50:00,METAR LIRN 292350Z VRB02KT CAVOK 17/07 Q1015 NOSIG
2026-04-29 23:20:00,METAR LIRN 292320Z 02005KT CAVOK 18/09 Q1016 NOSIG
2026-04-29 22:50:00,METAR LIRN 292250Z 01004KT 350V060 9999 -RA SCT080 18/11 Q1016 NOSIG
2026-04-29 22:20:00,METAR LIRN 292220Z 05004KT 9999 -RA SCT080 18/12 Q1016 NOSIG
2026-04-29 21:50:00,METAR LIRN 292150Z 07003KT CAVOK 18/11 Q1016 NOSIG
2026-04-29 21:20:00,METAR LIRN 292120Z 06003KT CAVOK 19/11 Q1016 NOSIG
2026-04-29 20:50:00,METAR LIRN 292050Z 06004KT CAVOK 18/11 Q1016 NOSIG
2026-04-29 20:20:00,METAR LIRN 292020Z VRB02KT CAVOK 19/10 Q1016 NOSIG
2026-04-29 19:50:00,METAR LIRN 291950Z 27006KT CAVOK 19/11 Q1016 NOSIG
2026-04-29 19:20:00,METAR LIRN 291920Z 29004KT 250V340 CAVOK 19/10 Q1016 NOSIG
2026-04-29 18:50:00,METAR LIRN 291850Z 29006KT CAVOK 20/09 Q1015 NOSIG
2026-04-29 18:20:00,METAR LIRN 291820Z VRB02KT 9999 SCT070 19/13 Q1015 NOSIG
2026-04-29 17:50:00,METAR LIRN 291750Z 20006KT 180V240 9999 SCT060 20/13 Q1015 NOSIG
2026-04-29 17:20:00,METAR LIRN 291720Z 17005KT 150V210 9999 SCT060 20/13 Q1014 NOSIG
2026-04-29 16:50:00,METAR LIRN 291650Z 15007KT CAVOK 21/10 Q1014 NOSIG
2026-04-29 16:20:00,METAR LIRN 291620Z 16007KT CAVOK 22/08 Q1014 NOSIG
2026-04-29 15:50:00,METAR LIRN 291550Z 18007KT CAVOK 23/09 Q1014 NOSIG
2026-04-29 15:20:00,METAR LIRN 291520Z 19007KT 160V220 CAVOK 23/04 Q1014 NOSIG
2026-04-29 14:50:00,METAR LIRN 291450Z 17007KT 140V220 CAVOK 24/05 Q1015 NOSIG
2026-04-29 14:20:00,METAR LIRN 291420Z 19009KT 150V220 CAVOK 24/05 Q1015 NOSIG
2026-04-29 13:50:00,METAR LIRN 291350Z 19010KT 160V220 CAVOK 23/05 Q1015 NOSIG
2026-04-29 13:20:00,METAR LIRN 291320Z 16009KT CAVOK 23/05 Q1015 NOSIG
2026-04-29 12:50:00,METAR LIRN 291250Z 18010KT 150V210 CAVOK 24/04 Q1016 NOSIG
2026-04-29 12:20:00,METAR LIRN 291220Z 18011KT CAVOK 24/01 Q1016 NOSIG
2026-04-29 11:50:00,METAR LIRN 291150Z 18010KT 150V220 CAVOK 24/04 Q1016 NOSIG
2026-04-29 11:20:00,METAR LIRN 291120Z 20011KT CAVOK 23/07 Q1016 NOSIG
2026-04-29 10:50:00,METAR LIRN 291050Z 18007KT 150V230 CAVOK 24/06 Q1016 NOSIG
2026-04-29 10:20:00,METAR LIRN 291020Z 20007KT 160V260 CAVOK 24/07 Q1016 NOSIG
2026-04-29 09:50:00,METAR LIRN 290950Z 16005KT 130V240 CAVOK 24/07 Q1016 NOSIG
2026-04-29 09:20:00,METAR LIRN 290920Z VRB02KT CAVOK 24/07 Q1016 NOSIG
2026-04-29 08:50:00,METAR LIRN 290850Z VRB02KT CAVOK 22/06 Q1016 NOSIG
2026-04-29 08:20:00,METAR LIRN 290820Z 05004KT 020V080 CAVOK 21/07 Q1016 NOSIG
2026-04-29 07:50:00,METAR LIRN 290750Z 04003KT 330V080 CAVOK 20/07 Q1016 NOSIG
2026-04-29 07:20:00,METAR LIRN 290720Z 02004KT 340V050 CAVOK 19/07 Q1016 NOSIG
2026-04-29 06:50:00,METAR LIRN 290650Z 02003KT CAVOK 18/08 Q1016 NOSIG
2026-04-29 06:20:00,METAR LIRN 290620Z 01003KT 340V050 CAVOK 17/09 Q1016 NOSIG
2026-04-29 05:50:00,METAR LIRN 290550Z VRB02KT CAVOK 16/08 Q1016 NOSIG
2026-04-29 05:20:00,METAR LIRN 290520Z VRB02KT CAVOK 15/08 Q1016 NOSIG
2026-04-29 04:50:00,METAR LIRN 290450Z 36002KT CAVOK 15/07 Q1016 NOSIG
2026-04-29 04:20:00,METAR LIRN 290420Z 36002KT CAVOK 12/08 Q1015 NOSIG
2026-04-29 03:50:00,METAR LIRN 290350Z VRB02KT CAVOK 11/07 Q1015 NOSIG
2026-04-29 03:20:00,METAR LIRN 290320Z 30002KT CAVOK 12/08 Q1016 NOSIG
2026-04-29 02:50:00,METAR LIRN 290250Z VRB02KT CAVOK 10/07 Q1015 NOSIG
2026-04-29 02:20:00,METAR LIRN 290220Z 01003KT CAVOK 12/07 Q1016 NOSIG
2026-04-29 01:50:00,METAR LIRN 290150Z 01003KT CAVOK 13/08 Q1016 NOSIG
2026-04-29 01:20:00,METAR LIRN 290120Z 02004KT CAVOK 13/09 Q1016 NOSIG
2026-04-29 00:20:00,METAR LIRN 290020Z 31001KT CAVOK 13/10 Q1016 NOSIG
2026-04-28 23:50:00,METAR LIRN 282350Z 30001KT CAVOK 14/12 Q1016 NOSIG
2026-04-28 23:20:00,METAR LIRN 282320Z VRB01KT CAVOK 14/12 Q1016 NOSIG
2026-04-28 22:50:00,METAR LIRN 282250Z VRB01KT CAVOK 15/13 Q1016 NOSIG
2026-04-28 22:20:00,METAR LIRN 282220Z 00000KT CAVOK 15/13 Q1016 NOSIG
2026-04-28 21:50:00,METAR LIRN 282150Z 05002KT CAVOK 16/14 Q1016 NOSIG
2026-04-28 21:20:00,METAR LIRN 282120Z 06004KT CAVOK 16/15 Q1016 NOSIG
2026-04-28 20:50:00,METAR LIRN 282050Z 05002KT CAVOK 16/15 Q1016 NOSIG
2026-04-28 20:20:00,METAR LIRN 282020Z VRB01KT CAVOK 16/15 Q1016 NOSIG
2026-04-28 19:50:00,METAR LIRN 281950Z 22003KT 190V250 CAVOK 17/15 Q1016 NOSIG
2026-04-28 19:20:00,METAR LIRN 281920Z 23003KT CAVOK 17/15 Q1016 NOSIG
2026-04-28 18:50:00,METAR LIRN 281850Z 24003KT CAVOK 17/13 Q1015 NOSIG
2026-04-28 18:20:00,METAR LIRN 281820Z 21003KT 160V240 CAVOK 18/14 Q1015 NOSIG
2026-04-28 17:50:00,METAR LIRN 281750Z 16004KT CAVOK 19/13 Q1015 NOSIG
2026-04-28 17:20:00,METAR LIRN 281720Z 14005KT CAVOK 20/13 Q1015 NOSIG
2026-04-28 16:50:00,METAR LIRN 281650Z 14006KT CAVOK 21/11 Q1015 NOSIG
2026-04-28 16:20:00,METAR LIRN 281620Z 14005KT CAVOK 21/12 Q1015 NOSIG
2026-04-28 15:50:00,METAR LIRN 281550Z 16006KT 110V200 CAVOK 21/14 Q1015 NOSIG
2026-04-28 15:20:00,METAR LIRN 281520Z 17006KT CAVOK 21/13 Q1015 NOSIG
2026-04-28 14:50:00,METAR LIRN 281450Z 16008KT CAVOK 21/11 Q1015 NOSIG
2026-04-28 14:20:00,METAR LIRN 281420Z 19008KT 150V220 CAVOK 22/09 Q1015 NOSIG
2026-04-28 13:50:00,METAR LIRN 281350Z 19009KT 150V210 CAVOK 22/10 Q1016 NOSIG
2026-04-28 13:20:00,METAR LIRN 281320Z 18009KT 150V210 CAVOK 22/11 Q1016 NOSIG
2026-04-28 12:50:00,METAR LIRN 281250Z 18010KT CAVOK 22/12 Q1016 NOSIG
2026-04-28 12:20:00,METAR LIRN 281220Z 17009KT CAVOK 22/12 Q1016 NOSIG
2026-04-28 11:50:00,METAR LIRN 281150Z 18011KT 160V220 CAVOK 21/12 Q1016 NOSIG
2026-04-28 11:20:00,METAR LIRN 281120Z 18010KT CAVOK 21/13 Q1016
2026-04-28 10:50:00,METAR LIRN 281050Z 20009KT 160V220 CAVOK 21/14 Q1016 NOSIG
2026-04-28 10:20:00,METAR LIRN 281020Z 19008KT 160V220 9000 NSC 21/11 Q1017 NOSIG
2026-04-28 09:50:00,METAR LIRN 280950Z 19008KT 160V220 9000 NSC 21/11 Q1017 NOSIG
2026-04-28 09:20:00,METAR LIRN 280920Z 19008KT 160V220 8000 NSC 20/13 Q1017 NOSIG
2026-04-28 08:50:00,METAR LIRN 280850Z 17007KT 140V210 8000 NSC 20/14 Q1017 NOSIG
2026-04-28 08:20:00,METAR LIRN 280820Z 20003KT 110V240 8000 NSC 20/12 Q1017 NOSIG
2026-04-28 07:50:00,METAR LIRN 280750Z 20004KT 140V260 8000 NSC 20/13 Q1017 NOSIG
2026-04-28 07:20:00,METAR LIRN 280720Z VRB02KT 8000 NSC 18/13 Q1017 NOSIG
2026-04-28 06:50:00,METAR LIRN 280650Z VRB02KT 8000 NSC 19/13 Q1017 NOSIG
2026-04-28 06:20:00,METAR LIRN 280620Z 06003KT CAVOK 16/13 Q1017 NOSIG
2026-04-28 05:50:00,METAR LIRN 280550Z 05002KT CAVOK 16/12 Q1017 NOSIG
2026-04-28 05:20:00,METAR LIRN 280520Z VRB01KT CAVOK 15/12 Q1017 NOSIG
2026-04-28 04:50:00,METAR LIRN 280450Z 00000KT CAVOK 14/11 Q1016 NOSIG
2026-04-28 04:20:00,METAR LIRN 280420Z VRB01KT CAVOK 11/10 Q1016 NOSIG
2026-04-28 03:50:00,METAR LIRN 280350Z VRB01KT CAVOK 13/12 Q1016 NOSIG
2026-04-28 03:20:00,METAR LIRN 280320Z 00000KT CAVOK 13/11 Q1016 NOSIG
2026-04-28 02:50:00,METAR LIRN 280250Z 00000KT CAVOK 13/12 Q1017 NOSIG
2026-04-28 02:20:00,METAR LIRN 280220Z VRB01KT CAVOK 13/12 Q1017 NOSIG
2026-04-28 01:50:00,METAR LIRN 280150Z 28002KT CAVOK 13/11 Q1017 NOSIG
2026-04-28 01:20:00,METAR LIRN 280120Z VRB01KT CAVOK 13/11 Q1017 NOSIG
2026-04-28 00:50:00,METAR LIRN 280050Z VRB02KT CAVOK 14/11 Q1017 NOSIG
2026-04-27 23:50:00,METAR LIRN 272350Z 06001KT CAVOK 14/11 Q1018 NOSIG
2026-04-27 23:20:00,METAR LIRN 272320Z 08002KT CAVOK 15/12 Q1017 NOSIG
2026-04-27 22:50:00,METAR LIRN 272250Z 08001KT CAVOK 14/11 Q1018 NOSIG
2026-04-27 22:20:00,METAR LIRN 272220Z VRB01KT CAVOK 15/12 Q1018 NOSIG
2026-04-27 21:50:00,METAR LIRN 272150Z VRB01KT CAVOK 16/13 Q1018 NOSIG
2026-04-27 21:20:00,METAR LIRN 272120Z 24003KT CAVOK 16/12 Q1018 NOSIG
2026-04-27 20:50:00,METAR LIRN 272050Z VRB01KT CAVOK 18/11 Q1018 NOSIG
2026-04-27 20:20:00,METAR LIRN 272020Z VRB01KT CAVOK 18/11 Q1018 NOSIG
2026-04-27 19:50:00,METAR LIRN 271950Z 27003KT 210V320 CAVOK 18/12 Q1018 NOSIG
2026-04-27 19:20:00,METAR LIRN 271920Z 24003KT 220V280 CAVOK 17/12 Q1017 NOSIG
2026-04-27 18:50:00,METAR LIRN 271850Z 25004KT CAVOK 18/11 Q1017 NOSIG
2026-04-27 18:20:00,METAR LIRN 271820Z 31003KT 270V330 CAVOK 18/10 Q1017 NOSIG
2026-04-27 17:50:00,METAR LIRN 271750Z 10003KT 040V160 CAVOK 19/13 Q1017 NOSIG
2026-04-27 17:20:00,METAR LIRN 271720Z 14006KT CAVOK 19/13 Q1017 NOSIG
2026-04-27 16:50:00,METAR LIRN 271650Z 15005KT 120V210 CAVOK 21/12 Q1017 NOSIG
2026-04-27 16:20:00,METAR LIRN 271620Z 17006KT 140V220 CAVOK 20/14 Q1017 NOSIG
2026-04-27 15:50:00,METAR LIRN 271550Z 19007KT CAVOK 20/14 Q1017 NOSIG
2026-04-27 15:20:00,METAR LIRN 271520Z 16008KT CAVOK 20/14 Q1017 NOSIG
2026-04-27 14:50:00,METAR LIRN 271450Z 17008KT CAVOK 20/14 Q1017 NOSIG
2026-04-27 14:20:00,METAR LIRN 271420Z 17009KT CAVOK 20/14 Q1017 NOSIG
2026-04-27 13:50:00,METAR LIRN 271350Z 18010KT CAVOK 20/14 Q1018 NOSIG
2026-04-27 13:20:00,METAR LIRN 271320Z 16011KT CAVOK 20/14 Q1018 NOSIG
2026-04-27 12:50:00,METAR LIRN 271250Z 18012KT CAVOK 20/14 Q1018 NOSIG
2026-04-27 12:20:00,METAR LIRN 271220Z 20012KT CAVOK 20/14 Q1018 NOSIG
2026-04-27 11:50:00,METAR LIRN 271150Z 18010KT CAVOK 21/13 Q1019 NOSIG
2026-04-27 11:20:00,METAR LIRN 271120Z 20010KT CAVOK 21/13 Q1019 NOSIG
2026-04-27 10:50:00,METAR LIRN 271050Z 20009KT 170V250 CAVOK 21/14 Q1019 NOSIG
2026-04-27 10:20:00,METAR LIRN 271020Z 15006KT 110V190 CAVOK 20/13 Q1019 NOSIG
2026-04-27 09:50:00,METAR LIRN 270950Z 20005KT 100V240 CAVOK 20/13 Q1019 NOSIG
2026-04-27 09:20:00,METAR LIRN 270920Z 20004KT 120V270 CAVOK 21/13 Q1020 NOSIG
2026-04-27 08:50:00,METAR LIRN 270850Z 20004KT 140V260 CAVOK 19/13 Q1020 NOSIG
2026-04-27 08:20:00,METAR LIRN 270820Z VRB02KT 9999 FEW020 21/13 Q1020 NOSIG
2026-04-27 07:50:00,METAR LIRN 270750Z VRB02KT 9999 FEW020 20/13 Q1020 NOSIG
2026-04-27 07:20:00,METAR LIRN 270720Z VRB01KT 9999 FEW020 18/12 Q1020 NOSIG
2026-04-27 06:50:00,METAR LIRN 270650Z VRB02KT 9999 FEW015 17/12 Q1020 NOSIG
2026-04-27 06:20:00,METAR LIRN 270620Z VRB02KT 9999 FEW015 17/13 Q1020 NOSIG
2026-04-27 05:50:00,METAR LIRN 270550Z 05002KT 9999 FEW015 15/10 Q1020 NOSIG
2026-04-27 05:20:00,METAR LIRN 270520Z VRB01KT 9999 FEW015 14/09 Q1020 NOSIG
2026-04-27 04:50:00,METAR LIRN 270450Z 03002KT 9999 FEW015 13/09 Q1019 NOSIG
2026-04-27 04:20:00,METAR LIRN 270420Z VRB01KT 9999 FEW015 12/10 Q1020 NOSIG
2026-04-27 03:50:00,METAR LIRN 270350Z 00000KT 9999 FEW015 11/09 Q1019 NOSIG
2026-04-27 03:20:00,METAR LIRN 270320Z VRB01KT CAVOK 11/09 Q1019 NOSIG
2026-04-27 02:50:00,METAR LIRN 270250Z 00000KT CAVOK 12/09 Q1019 NOSIG
2026-04-27 02:20:00,METAR LIRN 270220Z 21001KT CAVOK 12/10 Q1019 NOSIG
2026-04-27 01:50:00,METAR LIRN 270150Z VRB01KT CAVOK 12/09 Q1019 NOSIG
2026-04-27 01:20:00,METAR LIRN 270120Z VRB01KT CAVOK 13/11 Q1019 NOSIG
2026-04-27 00:50:00,METAR LIRN 270050Z 00000KT CAVOK 13/08 Q1019 NOSIG
2026-04-27 00:20:00,METAR LIRN 270020Z 00000KT CAVOK 13/07 Q1019 NOSIG
2026-04-26 23:50:00,METAR LIRN 262350Z 24001KT CAVOK 13/07 Q1020 NOSIG
2026-04-26 23:20:00,METAR LIRN 262320Z VRB01KT CAVOK 13/06 Q1020 NOSIG
2026-04-26 22:50:00,METAR LIRN 262250Z 22002KT CAVOK 14/07 Q1020 NOSIG
2026-04-26 22:20:00,METAR LIRN 262220Z 00000KT CAVOK 14/08 Q1020 NOSIG
2026-04-26 21:50:00,METAR LIRN 262150Z VRB01KT CAVOK 14/09 Q1020 NOSIG
2026-04-26 21:20:00,METAR LIRN 262120Z VRB01KT CAVOK 16/08 Q1020 NOSIG
2026-04-26 20:50:00,METAR LIRN 262050Z AUTO 27002KT 9999 NCD 16/07 Q1020
2026-04-26 20:20:00,METAR LIRN 262020Z AUTO 25002KT 9999 NCD 19/06 Q1020
2026-04-26 19:50:00,METAR LIRN 261950Z AUTO VRB01KT 9999 NCD 17/07 Q1020
2026-04-26 19:20:00,METAR LIRN 261920Z AUTO 30003KT 260V330 9999 NCD 16/08 Q1019
2026-04-26 18:50:00,METAR LIRN 261850Z AUTO 25003KT 9999 NCD 17/09 Q1019
2026-04-26 18:20:00,METAR LIRN 261820Z AUTO 30003KT 270V340 9999 NCD 18/09 Q1019
2026-04-26 17:50:00,METAR LIRN 261750Z AUTO 29003KT 240V320 9999 NCD 19/09 Q1019
2026-04-26 17:20:00,METAR LIRN 261720Z AUTO 30007KT 9999 NCD 19/09 Q1018
2026-04-26 16:50:00,METAR LIRN 261650Z AUTO 30008KT 9999 NCD 20/09 Q1018
2026-04-26 16:20:00,METAR LIRN 261620Z AUTO 27008KT 9999 NCD 20/08 Q1018
2026-04-26 15:50:00,METAR LIRN 261550Z AUTO 26009KT 230V290 9999 NCD 21/12 Q1019
2026-04-26 15:20:00,METAR LIRN 261520Z AUTO 27007KT 200V310 9999 NCD 20/13 Q1019
2026-04-26 14:50:00,METAR LIRN 261450Z AUTO 15009KT 9999 NCD 20/13 Q1018
2026-04-26 14:20:00,METAR LIRN 261420Z AUTO 19008KT 150V230 9999 NCD 20/14 Q1018
2026-04-26 13:50:00,METAR LIRN 261350Z AUTO 18009KT 9999 NCD 20/14 Q1019
2026-04-26 13:20:00,METAR LIRN 261320Z AUTO 20011KT 170V240 9999 NCD 20/14 Q1019
2026-04-26 12:50:00,METAR LIRN 261250Z 18011KT CAVOK 20/13 Q1019 NOSIG
2026-04-26 12:20:00,METAR LIRN 261220Z 19010KT CAVOK 20/12 Q1019 NOSIG
2026-04-26 11:50:00,METAR LIRN 261150Z 19010KT 160V220 CAVOK 20/12 Q1019 NOSIG
2026-04-26 11:20:00,METAR LIRN 261120Z 19009KT 150V230 CAVOK 20/13 Q1019 NOSIG
2026-04-26 10:50:00,METAR LIRN 261050Z 20009KT 9999 FEW020 19/12 Q1019 NOSIG
2026-04-26 10:20:00,METAR LIRN 261020Z 20008KT 140V230 9999 FEW020 19/12 Q1019 NOSIG
2026-04-26 09:50:00,METAR LIRN 260950Z 19010KT 160V220 9999 FEW030 19/12 Q1019 NOSIG
2026-04-26 09:20:00,METAR LIRN 260920Z 18008KT 140V220 9999 FEW030 19/13 Q1019 NOSIG
2026-04-26 08:50:00,METAR LIRN 260850Z 19007KT 130V220 9999 SCT030 18/12 Q1019 NOSIG
2026-04-26 08:20:00,METAR LIRN 260820Z 18006KT 140V210 9999 SCT030 18/12 Q1019 NOSIG
2026-04-26 07:50:00,METAR LIRN 260750Z 18005KT 9999 SCT030 18/12 Q1019 NOSIG
2026-04-26 07:20:00,METAR LIRN 260720Z 19006KT 160V230 9999 SCT030 18/12 Q1019 NOSIG
2026-04-26 06:50:00,METAR LIRN 260650Z 16004KT 110V210 9999 FEW030 17/12 Q1019 NOSIG
2026-04-26 06:20:00,METAR LIRN 260620Z VRB02KT 9999 FEW020 16/12 Q1019 NOSIG
2026-04-26 05:50:00,METAR LIRN 260550Z 06003KT 9999 FEW020 14/11 Q1018 NOSIG
2026-04-26 05:20:00,METAR LIRN 260520Z VRB01KT 9999 FEW015 14/11 Q1018 NOSIG
2026-04-26 04:50:00,METAR LIRN 260450Z 02002KT 9999 FEW020 17/12 Q1018 NOSIG
2026-04-26 04:20:00,METAR LIRN 260420Z 08002KT 9999 FEW020 13/11 Q1018 NOSIG
2026-04-26 03:50:00,METAR LIRN 260350Z VRB02KT 9999 FEW020 12/10 Q1018 NOSIG
2026-04-26 03:20:00,METAR LIRN 260320Z 08002KT 9999 FEW020 13/10 Q1017 NOSIG
2026-04-26 02:50:00,METAR LIRN 260250Z VRB01KT CAVOK 12/10 Q1017 NOSIG
2026-04-26 02:20:00,METAR LIRN 260220Z 15002KT CAVOK 12/10 Q1017 NOSIG
2026-04-26 01:50:00,METAR LIRN 260150Z 14003KT CAVOK 13/11 Q1017 NOSIG
2026-04-26 00:50:00,METAR LIRN 260050Z 15004KT CAVOK 13/12 Q1018 NOSIG
2026-04-26 00:20:00,METAR LIRN 260020Z 17004KT CAVOK 14/13 Q1018 NOSIG
2026-04-25 23:50:00,METAR LIRN 252350Z VRB02KT CAVOK 14/13 Q1018 NOSIG
2026-04-25 23:20:00,METAR LIRN 252320Z 24003KT 9999 FEW030 13/12 Q1018 NOSIG
2026-04-25 22:50:00,METAR LIRN 252250Z 22003KT CAVOK 14/13 Q1018 NOSIG
2026-04-25 22:20:00,METAR LIRN 252220Z 16001KT CAVOK 15/13 Q1018 NOSIG
2026-04-25 21:50:00,METAR LIRN 252150Z VRB01KT CAVOK 15/13 Q1018 NOSIG
2026-04-25 21:20:00,METAR LIRN 252120Z 22004KT CAVOK 15/13 Q1018 NOSIG
2026-04-25 20:50:00,METAR LIRN 252050Z 23003KT 190V250 CAVOK 16/14 Q1018 NOSIG
2026-04-25 20:20:00,METAR LIRN 252020Z 16005KT 120V180 CAVOK 16/14 Q1017 NOSIG
2026-04-25 19:50:00,METAR LIRN 251950Z 16005KT 130V210 CAVOK 16/14 Q1017 NOSIG
2026-04-25 19:20:00,METAR LIRN 251920Z 19003KT 130V220 CAVOK 16/14 Q1017 NOSIG
2026-04-25 18:50:00,METAR LIRN 251850Z 16004KT CAVOK 17/14 Q1017 NOSIG
2026-04-25 18:20:00,METAR LIRN 251820Z 16005KT 130V190 CAVOK 17/13 Q1017 NOSIG
2026-04-25 17:50:00,METAR LIRN 251750Z 16005KT 140V200 CAVOK 18/13 Q1016 NOSIG
2026-04-25 17:20:00,METAR LIRN 251720Z 19006KT 140V240 CAVOK 18/13 Q1016 NOSIG
2026-04-25 16:50:00,METAR LIRN 251650Z 17006KT CAVOK 18/13 Q1016 NOSIG
2026-04-25 16:20:00,METAR LIRN 251620Z 17007KT 140V200 CAVOK 19/14 Q1016 NOSIG
2026-04-25 15:50:00,METAR LIRN 251550Z 19009KT 150V230 CAVOK 19/13 Q1016 NOSIG
2026-04-25 15:20:00,METAR LIRN 251520Z 18009KT 150V210 CAVOK 19/13 Q1016 NOSIG
2026-04-25 14:50:00,METAR LIRN 251450Z 18009KT 160V220 CAVOK 19/14 Q1016 NOSIG
2026-04-25 14:20:00,METAR LIRN 251420Z 18011KT CAVOK 19/13 Q1016 NOSIG
2026-04-25 13:50:00,METAR LIRN 251350Z 18011KT CAVOK 19/13 Q1017 NOSIG
2026-04-25 13:20:00,METAR LIRN 251320Z 18012KT CAVOK 19/13 Q1017 NOSIG
2026-04-25 12:50:00,METAR LIRN 251250Z 19011KT 150V220 CAVOK 19/12 Q1017 NOSIG
2026-04-25 12:20:00,METAR LIRN 251220Z 18010KT 150V210 CAVOK 19/12 Q1017 NOSIG
2026-04-25 11:50:00,METAR LIRN 251150Z 19010KT 160V280 CAVOK 20/12 Q1017 NOSIG
2026-04-25 11:20:00,METAR LIRN 251120Z 19012KT CAVOK 19/12 Q1017 NOSIG
2026-04-25 10:50:00,METAR LIRN 251050Z 18010KT 150V210 CAVOK 20/10 Q1017 NOSIG
2026-04-25 10:20:00,METAR LIRN 251020Z 20009KT 150V230 CAVOK 19/10 Q1018 NOSIG
2026-04-25 09:50:00,METAR LIRN 250950Z 19009KT 160V220 CAVOK 19/10 Q1018 NOSIG
2026-04-25 09:20:00,METAR LIRN 250920Z 19009KT 160V220 CAVOK 19/10 Q1018 NOSIG
2026-04-25 08:50:00,METAR LIRN 250850Z 19008KT 160V220 CAVOK 19/10 Q1018 NOSIG
2026-04-25 08:20:00,METAR LIRN 250820Z 18006KT 130V220 CAVOK 18/09 Q1018 NOSIG
2026-04-25 07:50:00,METAR LIRN 250750Z VRB02KT CAVOK 18/09 Q1018 NOSIG
2026-04-25 07:20:00,METAR LIRN 250720Z 05003KT 350V110 CAVOK 17/08 Q1018 NOSIG
2026-04-25 06:50:00,METAR LIRN 250650Z 05003KT 010V080 CAVOK 16/07 Q1018 NOSIG
2026-04-25 06:20:00,METAR LIRN 250620Z VRB02KT CAVOK 17/07 Q1018 NOSIG
2026-04-25 05:50:00,METAR LIRN 250550Z VRB02KT CAVOK 13/06 Q1017 NOSIG
2026-04-25 05:20:00,METAR LIRN 250520Z VRB01KT CAVOK 15/05 Q1017 NOSIG
2026-04-25 04:50:00,METAR LIRN 250450Z VRB01KT CAVOK 13/05 Q1017 NOSIG
2026-04-25 04:20:00,METAR LIRN 250420Z VRB01KT CAVOK 11/05 Q1017 NOSIG
2026-04-25 03:50:00,METAR LIRN 250350Z VRB02KT CAVOK 11/05 Q1017 NOSIG
2026-04-25 03:20:00,METAR LIRN 250320Z 02002KT CAVOK 11/06 Q1017 NOSIG
2026-04-25 02:50:00,METAR LIRN 250250Z VRB01KT CAVOK 11/06 Q1017 NOSIG
2026-04-25 02:20:00,METAR LIRN 250220Z VRB01KT CAVOK 10/05 Q1017 NOSIG
2026-04-25 01:50:00,METAR LIRN 250150Z 33002KT CAVOK 11/06 Q1017 NOSIG
2026-04-25 00:50:00,METAR LIRN 250050Z VRB01KT CAVOK 11/05 Q1017 NOSIG
2026-04-25 00:20:00,METAR LIRN 250020Z 26001KT CAVOK 11/05 Q1017 NOSIG
2026-04-24 23:50:00,METAR LIRN 242350Z VRB01KT CAVOK 12/05 Q1017 NOSIG
2026-04-24 23:20:00,METAR LIRN 242320Z 05002KT CAVOK 13/06 Q1017 NOSIG
2026-04-24 22:50:00,METAR LIRN 242250Z 10003KT CAVOK 13/06 Q1017 NOSIG
2026-04-24 22:20:00,METAR LIRN 242220Z 22003KT CAVOK 14/05 Q1017 NOSIG
2026-04-24 21:50:00,METAR LIRN 242150Z VRB02KT CAVOK 15/05 Q1017 NOSIG
2026-04-24 21:20:00,METAR LIRN 242120Z 23003KT 200V260 CAVOK 16/05 Q1017 NOSIG
2026-04-24 20:50:00,METAR LIRN 242050Z 25004KT 220V280 CAVOK 14/06 Q1017 NOSIG
2026-04-24 20:20:00,METAR LIRN 242020Z 25004KT 210V290 CAVOK 16/06 Q1017 NOSIG
2026-04-24 19:50:00,METAR LIRN 241950Z VRB02KT CAVOK 17/07 Q1017 NOSIG
2026-04-24 19:20:00,METAR LIRN 241920Z VRB02KT CAVOK 16/07 Q1017 NOSIG
2026-04-24 18:50:00,METAR LIRN 241850Z VRB02KT CAVOK 17/06 Q1017 NOSIG
2026-04-24 18:20:00,METAR LIRN 241820Z 28005KT CAVOK 17/07 Q1017 NOSIG
2026-04-24 17:50:00,METAR LIRN 241750Z 28008KT 260V320 CAVOK 18/06 Q1016 NOSIG
2026-04-24 17:20:00,METAR LIRN 241720Z 27011KT CAVOK 18/05 Q1016 NOSIG
2026-04-24 16:50:00,METAR LIRN 241650Z 29012KT 260V320 CAVOK 19/04 Q1016 NOSIG
2026-04-24 16:20:00,METAR LIRN 241620Z 29012KT CAVOK 20/05 Q1016 NOSIG
2026-04-24 15:50:00,METAR LIRN 241550Z 30013KT CAVOK 20/06 Q1016 NOSIG
2026-04-24 15:20:00,METAR LIRN 241520Z 28013KT CAVOK 21/05 Q1016 NOSIG
2026-04-24 14:50:00,METAR LIRN 241450Z 28013KT CAVOK 21/03 Q1016 NOSIG
2026-04-24 14:20:00,METAR LIRN 241420Z 28015KT 260V320 CAVOK 21/03 Q1016 NOSIG
2026-04-24 13:50:00,METAR LIRN 241350Z 30013KT 270V330 CAVOK 21/03 Q1016 NOSIG
2026-04-24 13:20:00,METAR LIRN 241320Z 28013KT CAVOK 22/04 Q1017 NOSIG
2026-04-24 12:50:00,METAR LIRN 241250Z 27010KT 240V310 CAVOK 21/03 Q1017 NOSIG
2026-04-24 12:20:00,METAR LIRN 241220Z 32010KT 300V360 CAVOK 22/01 Q1017 NOSIG
2026-04-24 11:50:00,METAR LIRN 241150Z 03007KT 320V080 CAVOK 22/02 Q1017 NOSIG
2026-04-24 11:20:00,METAR LIRN 241120Z 31006KT 240V010 CAVOK 22/00 Q1018 NOSIG
2026-04-24 10:50:00,METAR LIRN 241050Z VRB08KT CAVOK 21/00 Q1018 NOSIG
2026-04-24 10:20:00,METAR LIRN 241020Z 33006KT 280V030 CAVOK 21/01 Q1018 NOSIG
2026-04-24 09:50:00,METAR LIRN 240950Z 35005KT 270V050 CAVOK 19/M01 Q1019 NOSIG
2026-04-24 09:20:00,METAR LIRN 240920Z VRB04KT CAVOK 19/01 Q1019 NOSIG
2026-04-24 08:50:00,METAR LIRN 240850Z VRB04KT CAVOK 18/M00 Q1019 NOSIG
2026-04-24 08:20:00,METAR LIRN 240820Z VRB03KT CAVOK 17/M00 Q1019 NOSIG
2026-04-24 07:50:00,METAR LIRN 240750Z 35005KT CAVOK 16/M00 Q1019 NOSIG
2026-04-24 07:20:00,METAR LIRN 240720Z 36005KT CAVOK 15/01 Q1019 NOSIG
2026-04-24 06:50:00,METAR LIRN 240650Z 34005KT CAVOK 14/M00 Q1019 NOSIG
2026-04-24 06:20:00,METAR LIRN 240620Z 35004KT 320V020 CAVOK 14/M00 Q1019 NOSIG
2026-04-24 05:50:00,METAR LIRN 240550Z 02003KT 360V060 CAVOK 12/01 Q1019 NOSIG
2026-04-24 05:20:00,METAR LIRN 240520Z 04003KT 020V080 CAVOK 10/01 Q1019 NOSIG
2026-04-24 04:50:00,METAR LIRN 240450Z 02005KT CAVOK 10/M00 Q1019 NOSIG
2026-04-24 04:20:00,METAR LIRN 240420Z 32004KT CAVOK 08/00 Q1018 NOSIG
2026-04-24 03:50:00,METAR LIRN 240350Z 31006KT CAVOK 08/M00 Q1018 NOSIG
2026-04-24 03:20:00,METAR LIRN 240320Z 32005KT CAVOK 09/00 Q1018 NOSIG
2026-04-24 02:20:00,METAR LIRN 240220Z 31003KT 270V350 CAVOK 10/M01 Q1019 NOSIG
2026-04-24 01:50:00,METAR LIRN 240150Z 36002KT CAVOK 09/M01 Q1018 NOSIG
2026-04-24 01:20:00,METAR LIRN 240120Z 34003KT 300V010 CAVOK 10/M01 Q1018 NOSIG
2026-04-24 00:50:00,METAR LIRN 240050Z 28004KT CAVOK 07/M01 Q1018 NOSIG
2026-04-24 00:20:00,METAR LIRN 240020Z 31003KT 290V360 CAVOK 08/M01 Q1018 NOSIG
2026-04-23 23:50:00,METAR LIRN 232350Z VRB02KT CAVOK 09/M02 Q1019 NOSIG
2026-04-23 23:20:00,METAR LIRN 232320Z 04003KT 350V110 CAVOK 11/M02 Q1019 NOSIG
2026-04-23 22:50:00,METAR LIRN 232250Z 36004KT CAVOK 11/M02 Q1019 NOSIG
2026-04-23 22:20:00,METAR LIRN 232220Z 02006KT CAVOK 13/M03 Q1019 NOSIG
2026-04-23 21:50:00,METAR LIRN 232150Z 01005KT CAVOK 12/M02 Q1019 NOSIG
2026-04-23 21:20:00,METAR LIRN 232120Z VRB02KT CAVOK 13/M03 Q1019 NOSIG
2026-04-23 20:50:00,METAR LIRN 232050Z VRB02KT CAVOK 13/M02 Q1019 NOSIG
2026-04-23 20:20:00,METAR LIRN 232020Z 05003KT 360V090 CAVOK 13/M03 Q1019 NOSIG
2026-04-23 19:50:00,METAR LIRN 231950Z 01005KT CAVOK 14/M03 Q1018 NOSIG
2026-04-23 19:20:00,METAR LIRN 231920Z 05008KT CAVOK 15/M02 Q1018 NOSIG
2026-04-23 18:50:00,METAR LIRN 231850Z 05008KT CAVOK 15/M01 Q1018 NOSIG
2026-04-23 18:20:00,METAR LIRN 231820Z 05009KT 010V070 CAVOK 15/M01 Q1018 NOSIG
2026-04-23 17:50:00,METAR LIRN 231750Z 06011KT CAVOK 16/01 Q1017 NOSIG
2026-04-23 17:20:00,METAR LIRN 231720Z 05012KT CAVOK 17/01 Q1017 NOSIG
2026-04-23 16:50:00,METAR LIRN 231650Z 06013KT CAVOK 17/02 Q1017 NOSIG
2026-04-23 16:20:00,METAR LIRN 231620Z 04010KT 360V070 CAVOK 18/00 Q1017 NOSIG
2026-04-23 15:50:00,METAR LIRN 231550Z 05014KT CAVOK 19/M01 Q1017 NOSIG
2026-04-23 15:20:00,METAR LIRN 231520Z 04012KT 010V080 CAVOK 19/M01 Q1017 NOSIG
2026-04-23 14:50:00,METAR LIRN 231450Z 05012KT 020V080 CAVOK 19/M00 Q1017 NOSIG
2026-04-23 14:20:00,METAR LIRN 231420Z 04013KT 360V060 CAVOK 19/M00 Q1017 NOSIG
2026-04-23 13:50:00,METAR LIRN 231350Z 05013KT 010V090 CAVOK 19/00 Q1017 NOSIG
2026-04-23 13:20:00,METAR LIRN 231320Z 01014G24KT 330V040 CAVOK 19/M01 Q1018 NOSIG
2026-04-23 12:50:00,METAR LIRN 231250Z 03014KT 350V050 CAVOK 19/01 Q1018 NOSIG
2026-04-23 12:20:00,METAR LIRN 231220Z 03015KT 360V060 CAVOK 19/M00 Q1018 NOSIG
2026-04-23 11:50:00,METAR LIRN 231150Z 02015KT 350V050 CAVOK 19/M00 Q1018 NOSIG
2026-04-23 11:20:00,METAR LIRN 231120Z 02013KT 360V060 CAVOK 19/M00 Q1018 NOSIG
2026-04-23 10:50:00,METAR LIRN 231050Z 06015KT 030V090 CAVOK 18/01 Q1019 NOSIG
2026-04-23 10:20:00,METAR LIRN 231020Z 04014G24KT 010V080 CAVOK 18/02 Q1019 NOSIG
2026-04-23 09:50:00,METAR LIRN 230950Z 06015KT CAVOK 17/00 Q1019 NOSIG
2026-04-23 09:20:00,METAR LIRN 230920Z 04016KT CAVOK 18/02 Q1019 NOSIG
2026-04-23 08:50:00,METAR LIRN 230850Z 05017KT CAVOK 16/01 Q1019 NOSIG
2026-04-23 08:20:00,METAR LIRN 230820Z 04016KT CAVOK 16/02 Q1019 NOSIG
2026-04-23 07:50:00,METAR LIRN 230750Z 04013KT CAVOK 16/03 Q1019 NOSIG
2026-04-23 07:20:00,METAR LIRN 230720Z 04013KT CAVOK 15/02 Q1019 NOSIG
2026-04-23 06:50:00,METAR LIRN 230650Z 05014KT CAVOK 14/02 Q1019 NOSIG
2026-04-23 06:20:00,METAR LIRN 230620Z 04012KT CAVOK 13/03 Q1019 NOSIG
2026-04-23 05:50:00,METAR LIRN 230550Z 04013KT 010V070 CAVOK 13/02 Q1018 NOSIG
2026-04-23 05:20:00,METAR LIRN 230520Z 04012KT 360V070 CAVOK 12/02 Q1018 NOSIG
2026-04-23 04:50:00,METAR LIRN 230450Z AUTO 04014KT 9999 NCD 12/02 Q1018
2026-04-23 04:20:00,METAR LIRN 230420Z AUTO 04012KT 9999 NCD 12/02 Q1018
2026-04-23 03:50:00,METAR LIRN 230350Z AUTO 03009KT 360V060 9999 NCD 12/02 Q1018
2026-04-23 03:20:00,METAR LIRN 230320Z AUTO 03009KT 9999 NCD 12/02 Q1018
2026-04-23 02:50:00,METAR LIRN 230250Z AUTO 03011KT 010V070 9999 FEW240/// 12/03 Q1018
2026-04-23 02:20:00,METAR LIRN 230220Z AUTO 02009KT 9999 NCD 12/03 Q1018
2026-04-23 01:50:00,METAR LIRN 230150Z AUTO 02010KT 9999 FEW240/// 12/03 Q1018
2026-04-23 01:20:00,METAR LIRN 230120Z AUTO 03007KT 9999 NCD 12/02 Q1018
2026-04-23 00:50:00,METAR LIRN 230050Z AUTO 03007KT 9999 NCD 12/02 Q1018
2026-04-23 00:20:00,METAR LIRN 230020Z AUTO 03010KT 9999 NCD 12/02 Q1018
2026-04-22 23:50:00,METAR LIRN 222350Z AUTO 03012KT 9999 NCD 13/03 Q1018
2026-04-22 23:20:00,METAR LIRN 222320Z AUTO 03011KT 9999 NCD 13/03 Q1018
2026-04-22 22:50:00,METAR LIRN 222250Z AUTO 03008KT 360V060 9999 NCD 13/03 Q1017
2026-04-22 22:20:00,METAR LIRN 222220Z AUTO 04008KT 9999 SCT200/// 13/02 Q1017
2026-04-22 21:50:00,METAR LIRN 222150Z AUTO 05007KT 9999 BKN180/// 14/02 Q1017
2026-04-22 21:20:00,METAR LIRN 222120Z AUTO 04014KT 9999 BKN170/// 14/02 Q1016
2026-04-22 20:50:00,METAR LIRN 222050Z 04011KT CAVOK 15/02 Q1017 NOSIG
2026-04-22 20:20:00,METAR LIRN 222020Z 07007KT CAVOK 14/03 Q1016 NOSIG
2026-04-22 19:50:00,METAR LIRN 221950Z 02009KT CAVOK 15/04 Q1016 NOSIG
2026-04-22 19:20:00,METAR LIRN 221920Z 03008KT CAVOK 15/04 Q1016 NOSIG
2026-04-22 18:50:00,METAR LIRN 221850Z 05007KT CAVOK 15/05 Q1015 NOSIG
2026-04-22 18:20:00,METAR LIRN 221820Z 05010KT CAVOK 15/06 Q1015 NOSIG
2026-04-22 17:50:00,METAR LIRN 221750Z 05009KT CAVOK 16/06 Q1015 NOSIG
2026-04-22 17:20:00,METAR LIRN 221720Z 04010KT CAVOK 16/06 Q1015 NOSIG
2026-04-22 16:50:00,METAR LIRN 221650Z 04014KT CAVOK 16/06 Q1015 NOSIG
2026-04-22 16:20:00,METAR LIRN 221620Z 04016KT 9999 SCT070 16/07 Q1015 NOSIG
2026-04-22 15:50:00,METAR LIRN 221550Z 04013KT 9999 SCT070 17/07 Q1015 NOSIG
2026-04-22 15:20:00,METAR LIRN 221520Z 06012KT 9999 SCT070 18/06 Q1014 NOSIG
2026-04-22 14:50:00,METAR LIRN 221450Z 06012KT 9999 SCT070 18/07 Q1014 NOSIG
2026-04-22 14:20:00,METAR LIRN 221420Z 06014KT 9999 SCT050 17/07 Q1014 NOSIG
2026-04-22 13:50:00,METAR LIRN 221350Z 06009KT 030V100 9999 FEW050 SCT060 16/08 Q1014 NOSIG
2026-04-22 13:20:00,METAR LIRN 221320Z 04012KT 9999 BKN050 16/09 Q1015 NOSIG
2026-04-22 12:50:00,METAR LIRN 221250Z 04012KT 9999 FEW040 SCT070 18/09 Q1015 NOSIG
2026-04-22 12:20:00,METAR LIRN 221220Z 02014KT 9999 FEW040 SCT055 17/08 Q1014 NOSIG
2026-04-22 11:50:00,METAR LIRN 221150Z 02011KT 9999 SCT050 19/09 Q1014 NOSIG
2026-04-22 11:20:00,METAR LIRN 221120Z 02011KT 9999 SCT045 20/09 Q1013 NOSIG
2026-04-22 10:50:00,METAR LIRN 221050Z 01010KT 340V040 9999 SCT050 21/09 Q1013 NOSIG
2026-04-22 10:20:00,METAR LIRN 221020Z 36009KT 330V040 9999 FEW050 21/09 Q1013 NOSIG
2026-04-22 09:50:00,METAR LIRN 220950Z 36007KT 300V050 9999 FEW050 20/09 Q1013 NOSIG
2026-04-22 09:20:00,METAR LIRN 220920Z 01005KT 320V050 9999 FEW050 21/08 Q1013 NOSIG
2026-04-22 08:50:00,METAR LIRN 220850Z 06004KT 350V130 9999 FEW080 20/09 Q1013 NOSIG
2026-04-22 08:20:00,METAR LIRN 220820Z 04005KT 360V080 9999 FEW070 20/09 Q1013 NOSIG
2026-04-22 07:50:00,METAR LIRN 220750Z 07007KT 040V100 9999 FEW075 19/09 Q1013 NOSIG
2026-04-22 07:20:00,METAR LIRN 220720Z 06005KT 030V110 CAVOK 19/09 Q1013 NOSIG
2026-04-22 06:50:00,METAR LIRN 220650Z 03006KT 360V070 CAVOK 17/09 Q1013 NOSIG
2026-04-22 06:20:00,METAR LIRN 220620Z 04007KT CAVOK 16/09 Q1013 NOSIG
2026-04-22 05:50:00,METAR LIRN 220550Z 04005KT 9999 FEW040 16/09 Q1013 NOSIG
2026-04-22 05:20:00,METAR LIRN 220520Z 01004KT 340V050 9999 FEW040 15/09 Q1013 NOSIG
2026-04-22 04:50:00,METAR LIRN 220450Z 35004KT 9999 FEW080 16/09 Q1013 NOSIG
2026-04-22 04:20:00,METAR LIRN 220420Z 31003KT 9999 FEW080 14/09 Q1013 NOSIG
2026-04-22 03:50:00,METAR LIRN 220350Z VRB02KT 9999 FEW080 14/09 Q1012 NOSIG
2026-04-22 03:20:00,METAR LIRN 220320Z 35004KT 9999 FEW080 14/09 Q1012 NOSIG
2026-04-22 02:50:00,METAR LIRN 220250Z 36003KT 340V040 CAVOK 14/09 Q1012 NOSIG
2026-04-22 02:20:00,METAR LIRN 220220Z 32003KT 300V360 CAVOK 13/09 Q1012 NOSIG
2026-04-22 01:50:00,METAR LIRN 220150Z VRB02KT CAVOK 13/09 Q1012 NOSIG
2026-04-22 01:20:00,METAR LIRN 220120Z 35003KT CAVOK 14/10 Q1012 NOSIG
2026-04-22 00:50:00,METAR LIRN 220050Z 33005KT CAVOK 15/10 Q1012 NOSIG
2026-04-22 00:20:00,METAR LIRN 220020Z 32002KT CAVOK 14/09 Q1012 NOSIG
2026-04-21 23:50:00,METAR LIRN 212350Z 35002KT CAVOK 14/10 Q1012 NOSIG
2026-04-21 23:20:00,METAR LIRN 212320Z 34003KT CAVOK 15/10 Q1013 NOSIG
2026-04-21 22:50:00,METAR LIRN 212250Z 01003KT 340V050 CAVOK 15/10 Q1013 NOSIG
2026-04-21 22:20:00,METAR LIRN 212220Z 02004KT CAVOK 16/11 Q1013 NOSIG
2026-04-21 21:50:00,METAR LIRN 212150Z 32003KT CAVOK 16/11 Q1012 NOSIG
2026-04-21 21:20:00,METAR LIRN 212120Z 35006KT 320V030 CAVOK 17/11 Q1012 NOSIG
2026-04-21 20:50:00,METAR LIRN 212050Z 32004KT 290V010 CAVOK 17/13 Q1012 NOSIG
2026-04-21 20:20:00,METAR LIRN 212020Z 36005KT 330V040 CAVOK 17/12 Q1012 NOSIG
2026-04-21 19:50:00,METAR LIRN 211950Z 32003KT 290V360 CAVOK 21/13 Q1012 NOSIG
2026-04-21 19:20:00,METAR LIRN 211920Z 32004KT 300V360 CAVOK 17/12 Q1012 NOSIG
2026-04-21 18:50:00,METAR LIRN 211850Z 31005KT CAVOK 17/09 Q1012 NOSIG
2026-04-21 18:20:00,METAR LIRN 211820Z 25004KT CAVOK 18/11 Q1011 NOSIG
2026-04-21 17:50:00,METAR LIRN 211750Z 21006KT CAVOK 18/10 Q1011 NOSIG
2026-04-21 17:20:00,METAR LIRN 211720Z 18006KT CAVOK 19/08 Q1011 NOSIG
2026-04-21 16:50:00,METAR LIRN 211650Z 19007KT CAVOK 20/06 Q1011 NOSIG
2026-04-21 16:20:00,METAR LIRN 211620Z 20008KT 170V270 CAVOK 20/06 Q1011 NOSIG
2026-04-21 15:50:00,METAR LIRN 211550Z 20010KT CAVOK 20/07 Q1011 NOSIG
2026-04-21 15:20:00,METAR LIRN 211520Z 20010KT CAVOK 20/09 Q1011 NOSIG
2026-04-21 14:50:00,METAR LIRN 211450Z 22009KT CAVOK 21/08 Q1011 NOSIG
2026-04-21 14:20:00,METAR LIRN 211420Z 21008KT 160V260 CAVOK 21/09 Q1011 NOSIG
2026-04-21 13:50:00,METAR LIRN 211350Z 23008KT 160V270 CAVOK 22/07 Q1011 NOSIG
2026-04-21 13:20:00,METAR LIRN 211320Z 19010KT 160V220 9999 FEW080 21/10 Q1012 NOSIG
2026-04-21 12:50:00,METAR LIRN 211250Z 17009KT 140V210 CAVOK 21/10 Q1012 NOSIG
2026-04-21 12:20:00,METAR LIRN 211220Z 18009KT 150V230 CAVOK 21/09 Q1012 NOSIG
2026-04-21 11:50:00,METAR LIRN 211150Z 18009KT 150V240 CAVOK 21/09 Q1012 NOSIG
2026-04-21 11:20:00,METAR LIRN 211120Z 19008KT 150V250 CAVOK 21/10 Q1012 NOSIG
2026-04-21 10:50:00,METAR LIRN 211050Z 17009KT 150V210 CAVOK 21/09 Q1012 NOSIG
2026-04-21 10:20:00,METAR LIRN 211020Z 19008KT 150V240 CAVOK 21/09 Q1012 NOSIG
2026-04-21 09:50:00,METAR LIRN 210950Z 18008KT CAVOK 20/09 Q1013 NOSIG
2026-04-21 09:20:00,METAR LIRN 210920Z 19007KT 160V220 CAVOK 20/09 Q1013 NOSIG
2026-04-21 08:50:00,METAR LIRN 210850Z 19008KT 160V240 CAVOK 19/09 Q1013 NOSIG
2026-04-21 08:20:00,METAR LIRN 210820Z 16006KT 140V220 CAVOK 19/09 Q1013 NOSIG
2026-04-21 07:50:00,METAR LIRN 210750Z 19005KT 150V220 CAVOK 19/11 Q1013 NOSIG
2026-04-21 07:20:00,METAR LIRN 210720Z VRB02KT CAVOK 18/13 Q1013 NOSIG
2026-04-21 06:50:00,METAR LIRN 210650Z VRB01KT CAVOK 19/12 Q1013 NOSIG
2026-04-21 06:20:00,METAR LIRN 210620Z 04003KT 020V080 9999 FEW080 16/10 Q1013 NOSIG
2026-04-21 05:50:00,METAR LIRN 210550Z VRB02KT 9999 FEW080 17/12 Q1013 NOSIG
2026-04-21 05:20:00,METAR LIRN 210520Z 01003KT 350V070 9999 FEW060 14/10 Q1013 NOSIG
2026-04-21 04:50:00,METAR LIRN 210450Z 33002KT 9999 FEW060 15/10 Q1013 NOSIG
2026-04-21 04:20:00,METAR LIRN 210420Z VRB01KT CAVOK 16/12 Q1013 NOSIG
2026-04-21 03:50:00,METAR LIRN 210350Z VRB01KT 9999 FEW070 13/10 Q1013 NOSIG
2026-04-21 03:20:00,METAR LIRN 210320Z 05001KT CAVOK 13/10 Q1013 NOSIG
2026-04-21 02:50:00,METAR LIRN 210250Z VRB01KT CAVOK 13/11 Q1013 NOSIG
2026-04-21 02:20:00,METAR LIRN 210220Z 05002KT CAVOK 14/11 Q1014 NOSIG
2026-04-21 01:50:00,METAR LIRN 210150Z VRB02KT CAVOK 14/11 Q1014 NOSIG
2026-04-21 01:20:00,METAR LIRN 210120Z 00000KT CAVOK 14/12 Q1014 NOSIG
2026-04-21 00:50:00,METAR LIRN 210050Z 03001KT CAVOK 13/12 Q1014 NOSIG
2026-04-21 00:20:00,METAR LIRN 210020Z 07002KT CAVOK 13/12 Q1014 NOSIG
2026-04-20 23:50:00,METAR LIRN 202350Z VRB01KT CAVOK 14/13 Q1014 NOSIG
2026-04-20 23:20:00,METAR LIRN 202320Z 05002KT CAVOK 14/13 Q1014 NOSIG
2026-04-20 22:50:00,METAR LIRN 202250Z VRB02KT CAVOK 15/14 Q1014 NOSIG
2026-04-20 22:20:00,METAR LIRN 202220Z VRB02KT CAVOK 15/13 Q1014 NOSIG
2026-04-20 21:50:00,METAR LIRN 202150Z 23004KT 190V290 CAVOK 16/14 Q1014 NOSIG
2026-04-20 21:20:00,METAR LIRN 202120Z 24004KT 200V270 CAVOK 16/14 Q1014 NOSIG
2026-04-20 20:50:00,METAR LIRN 202050Z 22005KT 180V240 9999 FEW010 16/14 Q1014 NOSIG
2026-04-20 20:20:00,METAR LIRN 202020Z 22008KT 9999 FEW010 17/15 Q1014 NOSIG
2026-04-20 19:50:00,METAR LIRN 201950Z 20010KT 8000 FEW010 SCT080 16/15 Q1014 NOSIG
2026-04-20 19:20:00,METAR LIRN 201920Z 20010KT 170V230 8000 FEW010 SCT080 17/15 Q1014 NOSIG
2026-04-20 18:50:00,METAR LIRN 201850Z 20010KT 8000 FEW010 17/15 Q1014 NOSIG
2026-04-20 18:20:00,METAR LIRN 201820Z 20009KT 180V240 8000 FEW010 17/15 Q1014 NOSIG
2026-04-20 17:50:00,METAR LIRN 201750Z 20011KT 9999 FEW010 17/15 Q1014 NOSIG
2026-04-20 17:20:00,METAR LIRN 201720Z 18007KT 150V220 9999 FEW020 17/14 Q1014 NOSIG
2026-04-20 16:50:00,METAR LIRN 201650Z 19010KT 160V240 CAVOK 18/14 Q1014 NOSIG
2026-04-20 16:20:00,METAR LIRN 201620Z 20011KT CAVOK 18/14 Q1014 NOSIG
2026-04-20 15:50:00,METAR LIRN 201550Z 20013KT 170V240 CAVOK 19/14 Q1014 NOSIG
2026-04-20 15:20:00,METAR LIRN 201520Z 20012KT CAVOK 19/12 Q1014 NOSIG
2026-04-20 14:50:00,METAR LIRN 201450Z 20012KT 160V230 CAVOK 19/12 Q1014 NOSIG
2026-04-20 14:20:00,METAR LIRN 201420Z 21013KT 170V230 9999 FEW020 19/12 Q1014 NOSIG
2026-04-20 13:50:00,METAR LIRN 201350Z 20012KT 170V230 9999 FEW020 20/13 Q1015 NOSIG
2026-04-20 13:20:00,METAR LIRN 201320Z 20013KT 170V230 9999 FEW020 SCT080 19/12 Q1015 NOSIG
2026-04-20 12:50:00,METAR LIRN 201250Z 20012KT 9999 FEW020 SCT080 19/13 Q1015 NOSIG
2026-04-20 12:20:00,METAR LIRN 201220Z 20012KT 9999 FEW020 SCT080 19/13 Q1015 NOSIG
2026-04-20 11:50:00,METAR LIRN 201150Z 21011KT 180V250 CAVOK 20/12 Q1015 NOSIG
2026-04-20 11:20:00,METAR LIRN 201120Z 21013KT CAVOK 20/13 Q1015 NOSIG
2026-04-20 10:50:00,METAR LIRN 201050Z 19010KT 160V220 CAVOK 20/12 Q1016 NOSIG
2026-04-20 10:20:00,METAR LIRN 201020Z 17009KT CAVOK 20/12 Q1016 NOSIG
2026-04-20 09:50:00,METAR LIRN 200950Z 19008KT 140V230 CAVOK 20/12 Q1016 NOSIG
2026-04-20 09:20:00,METAR LIRN 200920Z 19008KT 160V220 CAVOK 20/12 Q1016 NOSIG
2026-04-20 08:50:00,METAR LIRN 200850Z 18006KT 150V220 CAVOK 19/10 Q1016 NOSIG
2026-04-20 08:20:00,METAR LIRN 200820Z 20007KT 150V230 CAVOK 19/12 Q1016 NOSIG
2026-04-20 07:50:00,METAR LIRN 200750Z 21005KT 160V250 CAVOK 19/12 Q1016 NOSIG
2026-04-20 07:20:00,METAR LIRN 200720Z VRB02KT CAVOK 19/11 Q1016 NOSIG
2026-04-20 06:50:00,METAR LIRN 200650Z 07003KT 340V140 9999 FEW050 16/11 Q1016 NOSIG
2026-04-20 06:20:00,METAR LIRN 200620Z VRB03KT 9999 FEW050 16/10 Q1016 NOSIG
2026-04-20 05:50:00,METAR LIRN 200550Z 02005G16KT 300V060 9999 SCT050 17/12 Q1016 NOSIG
2026-04-20 05:20:00,METAR LIRN 200520Z VRB02KT 9999 FEW060 15/11 Q1016 NOSIG
2026-04-20 04:50:00,METAR LIRN 200450Z 02006KT 310V080 7000 SCT060 18/10 Q1016 NOSIG
2026-04-20 04:20:00,METAR LIRN 200420Z 04003KT 7000 NSC 13/10 Q1016 NOSIG
2026-04-20 03:50:00,METAR LIRN 200350Z 06002KT CAVOK 14/11 Q1016 NOSIG
2026-04-20 03:20:00,METAR LIRN 200320Z 03002KT CAVOK 14/12 Q1016 NOSIG
2026-04-20 02:50:00,METAR LIRN 200250Z 03002KT CAVOK 14/12 Q1016 NOSIG
2026-04-20 02:20:00,METAR LIRN 200220Z 05003KT CAVOK 13/11 Q1016 NOSIG
2026-04-20 01:50:00,METAR LIRN 200150Z VRB01KT CAVOK 14/12 Q1016 NOSIG
2026-04-20 01:20:00,METAR LIRN 200120Z VRB01KT CAVOK 14/13 Q1017 NOSIG
2026-04-19 23:50:00,METAR LIRN 192350Z 23004KT CAVOK 15/12 Q1017 NOSIG
2026-04-19 23:20:00,METAR LIRN 192320Z 17002KT CAVOK 15/14 Q1017 NOSIG
2026-04-19 22:50:00,METAR LIRN 192250Z VRB02KT CAVOK 16/15 Q1017 NOSIG
2026-04-19 22:20:00,METAR LIRN 192220Z VRB02KT CAVOK 16/15 Q1017 NOSIG
2026-04-19 21:50:00,METAR LIRN 192150Z VRB02KT CAVOK 16/15 Q1017 NOSIG
2026-04-19 21:20:00,METAR LIRN 192120Z VRB01KT CAVOK 16/15 Q1017 NOSIG
2026-04-19 20:50:00,METAR LIRN 192050Z 18003KT 130V300 CAVOK 16/15 Q1017 NOSIG
2026-04-19 20:20:00,METAR LIRN 192020Z VRB03KT CAVOK 16/15 Q1017 NOSIG
2026-04-19 19:50:00,METAR LIRN 191950Z 17003KT 150V210 CAVOK 16/15 Q1017 NOSIG
2026-04-19 19:20:00,METAR LIRN 191920Z 18003KT 150V210 CAVOK 16/15 Q1017 NOSIG
2026-04-19 18:50:00,METAR LIRN 191850Z VRB04KT CAVOK 17/14 Q1016 NOSIG
2026-04-19 18:20:00,METAR LIRN 191820Z 19004KT CAVOK 17/15 Q1016 NOSIG
2026-04-19 17:50:00,METAR LIRN 191750Z 19005KT 150V220 CAVOK 17/15 Q1016 NOSIG
2026-04-19 17:20:00,METAR LIRN 191720Z 19006KT CAVOK 18/14 Q1016 NOSIG
2026-04-19 16:50:00,METAR LIRN 191650Z 19007KT 160V240 CAVOK 18/13 Q1016 NOSIG
2026-04-19 16:20:00,METAR LIRN 191620Z 19007KT 160V220 CAVOK 19/13 Q1016 NOSIG
2026-04-19 15:50:00,METAR LIRN 191550Z 19006KT 150V240 CAVOK 19/14 Q1016 NOSIG
2026-04-19 15:20:00,METAR LIRN 191520Z 19007KT CAVOK 19/14 Q1016 NOSIG
2026-04-19 14:50:00,METAR LIRN 191450Z 19007KT 130V220 CAVOK 20/13 Q1016 NOSIG
2026-04-19 14:20:00,METAR LIRN 191420Z 19007KT 130V230 CAVOK 20/12 Q1016 NOSIG
2026-04-19 13:50:00,METAR LIRN 191350Z 19007KT 150V220 CAVOK 21/10 Q1016 NOSIG
2026-04-19 13:20:00,METAR LIRN 191320Z 19010KT 160V220 CAVOK 20/09 Q1017 NOSIG
2026-04-19 12:50:00,METAR LIRN 191250Z 18009KT 140V210 CAVOK 20/12 Q1017 NOSIG
2026-04-19 12:20:00,METAR LIRN 191220Z 19009KT 150V230 CAVOK 20/14 Q1017 NOSIG
2026-04-19 11:50:00,METAR LIRN 191150Z 19009KT 120V230 CAVOK 21/12 Q1017 NOSIG
2026-04-19 11:20:00,METAR LIRN 191120Z 19009KT 150V220 CAVOK 20/11 Q1017 NOSIG
2026-04-19 10:50:00,METAR LIRN 191050Z 18008KT 130V220 CAVOK 20/12 Q1017 NOSIG
2026-04-19 10:20:00,METAR LIRN 191020Z 18007KT 140V220 CAVOK 21/11 Q1017 NOSIG
2026-04-19 09:50:00,METAR LIRN 190950Z 18005KT 130V240 CAVOK 22/08 Q1017 NOSIG
2026-04-19 09:20:00,METAR LIRN 190920Z 18004KT 140V230 CAVOK 21/05 Q1017 NOSIG
2026-04-19 08:50:00,METAR LIRN 190850Z 19004KT 130V240 CAVOK 21/04 Q1017 NOSIG
2026-04-19 08:20:00,METAR LIRN 190820Z 20004KT 140V240 CAVOK 20/05 Q1017 NOSIG
2026-04-19 07:50:00,METAR LIRN 190750Z VRB02KT CAVOK 20/06 Q1017 NOSIG
2026-04-19 07:20:00,METAR LIRN 190720Z VRB01KT CAVOK 19/07 Q1017 NOSIG
2026-04-19 06:50:00,METAR LIRN 190650Z VRB02KT CAVOK 18/06 Q1017 NOSIG
2026-04-19 06:20:00,METAR LIRN 190620Z 06003KT 020V090 CAVOK 17/04 Q1017 NOSIG
2026-04-19 05:50:00,METAR LIRN 190550Z VRB02KT CAVOK 16/06 Q1017 NOSIG
2026-04-19 05:20:00,METAR LIRN 190520Z VRB02KT CAVOK 14/05 Q1017 NOSIG
2026-04-19 04:50:00,METAR LIRN 190450Z VRB01KT CAVOK 14/04 Q1016 NOSIG
2026-04-19 04:20:00,METAR LIRN 190420Z 28002KT CAVOK 13/04 Q1016 NOSIG
2026-04-19 03:50:00,METAR LIRN 190350Z 31002KT CAVOK 12/04 Q1016 NOSIG
2026-04-19 03:20:00,METAR LIRN 190320Z VRB01KT CAVOK 14/04 Q1016 NOSIG
2026-04-19 02:50:00,METAR LIRN 190250Z VRB02KT CAVOK 12/04 Q1016 NOSIG
2026-04-19 02:20:00,METAR LIRN 190220Z 32002KT CAVOK 12/04 Q1016 NOSIG
2026-04-19 01:50:00,METAR LIRN 190150Z 31002KT CAVOK 13/04 Q1016 NOSIG
2026-04-19 01:20:00,METAR LIRN 190120Z 33003KT 310V010 CAVOK 14/04 Q1016 NOSIG
2026-04-19 00:50:00,METAR LIRN 190050Z 32002KT CAVOK 14/04 Q1016 NOSIG
2026-04-19 00:20:00,METAR LIRN 190020Z VRB02KT CAVOK 14/05 Q1016 NOSIG
2026-04-18 23:50:00,METAR LIRN 182350Z 00000KT CAVOK 16/03 Q1016 NOSIG
2026-04-18 23:20:00,METAR LIRN 182320Z 36001KT CAVOK 16/03 Q1017 NOSIG
2026-04-18 22:50:00,METAR LIRN 182250Z VRB01KT CAVOK 16/03 Q1017 NOSIG
2026-04-18 22:20:00,METAR LIRN 182220Z VRB02KT CAVOK 17/03 Q1017 NOSIG
2026-04-18 21:50:00,METAR LIRN 182150Z 05003KT CAVOK 17/03 Q1017 NOSIG
2026-04-18 21:20:00,METAR LIRN 182120Z 06004KT 040V100 CAVOK 18/03 Q1017 NOSIG
2026-04-18 20:50:00,METAR LIRN 182050Z 07003KT CAVOK 18/03 Q1016 NOSIG
2026-04-18 20:20:00,METAR LIRN 182020Z 07003KT 040V100 CAVOK 19/02 Q1016 NOSIG
2026-04-18 19:50:00,METAR LIRN 181950Z 07004KT 020V120 CAVOK 19/02 Q1016 NOSIG
2026-04-18 19:20:00,METAR LIRN 181920Z 05003KT CAVOK 19/02 Q1016 NOSIG
2026-04-18 18:50:00,METAR LIRN 181850Z VRB02KT CAVOK 20/02 Q1016 NOSIG
2026-04-18 18:20:00,METAR LIRN 181820Z 07004KT 050V110 CAVOK 21/02 Q1016 NOSIG
2026-04-18 17:50:00,METAR LIRN 181750Z 06007KT 030V090 CAVOK 21/02 Q1015 NOSIG
2026-04-18 17:20:00,METAR LIRN 181720Z 03007KT 330V090 CAVOK 23/02 Q1015 NOSIG
2026-04-18 16:50:00,METAR LIRN 181650Z 30006KT 260V020 CAVOK 26/08 Q1015 NOSIG
2026-04-18 16:20:00,METAR LIRN 181620Z 30007KT 250V020 CAVOK 23/07 Q1015 NOSIG
2026-04-18 15:20:00,METAR LIRN 181520Z 06008KT 030V110 CAVOK 25/02 Q1014 NOSIG
2026-04-18 14:50:00,METAR LIRN 181450Z 05010KT 360V080 CAVOK 25/03 Q1014 NOSIG
2026-04-18 14:20:00,METAR LIRN 181420Z 07009KT 040V120 CAVOK 25/03 Q1014 NOSIG
2026-04-18 13:50:00,METAR LIRN 181350Z 06009KT 030V130 CAVOK 25/05 Q1014 NOSIG
2026-04-18 13:20:00,METAR LIRN 181320Z 06009KT 010V140 CAVOK 25/05 Q1015 NOSIG
2026-04-18 12:50:00,METAR LIRN 181250Z 07007KT 010V160 CAVOK 25/04 Q1015 NOSIG
2026-04-18 12:20:00,METAR LIRN 181220Z 05011KT 020V080 CAVOK 25/05 Q1015 NOSIG
2026-04-18 11:50:00,METAR LIRN 181150Z 07010KT 030V110 CAVOK 25/05 Q1015 NOSIG
2026-04-18 11:20:00,METAR LIRN 181120Z 05010KT 020V090 CAVOK 24/06 Q1016 NOSIG
2026-04-18 10:50:00,METAR LIRN 181050Z 05012KT 020V080 CAVOK 24/06 Q1016 NOSIG
2026-04-18 10:20:00,METAR LIRN 181020Z 04012KT 010V080 CAVOK 24/06 Q1016 NOSIG
2026-04-18 09:50:00,METAR LIRN 180950Z 06009KT 030V190 CAVOK 23/06 Q1016 NOSIG
2026-04-18 09:20:00,METAR LIRN 180920Z 08007KT 030V160 CAVOK 23/06 Q1016 NOSIG
2026-04-18 08:50:00,METAR LIRN 180850Z 06009KT 030V110 CAVOK 22/06 Q1016 NOSIG
2026-04-18 08:20:00,METAR LIRN 180820Z 07008KT 040V110 CAVOK 22/06 Q1016 NOSIG
2026-04-18 07:50:00,METAR LIRN 180750Z VRB05KT CAVOK 21/06 Q1016 NOSIG
2026-04-18 07:20:00,METAR LIRN 180720Z VRB04KT CAVOK 20/07 Q1015 NOSIG
2026-04-18 06:50:00,METAR LIRN 180650Z 03006KT 280V060 CAVOK 20/07 Q1015 NOSIG
2026-04-18 06:20:00,METAR LIRN 180620Z 02007KT CAVOK 18/07 Q1015 NOSIG
2026-04-18 05:50:00,METAR LIRN 180550Z 34005KT 220V010 CAVOK 18/07 Q1015 NOSIG
2026-04-18 05:20:00,METAR LIRN 180520Z 36004KT 260V030 CAVOK 17/06 Q1015 NOSIG
2026-04-18 04:50:00,METAR LIRN 180450Z 01006KT CAVOK 16/06 Q1015 NOSIG
2026-04-18 04:20:00,METAR LIRN 180420Z 02007KT CAVOK 16/06 Q1015 NOSIG
2026-04-18 03:50:00,METAR LIRN 180350Z 01007KT CAVOK 17/06 Q1015 NOSIG
2026-04-18 03:20:00,METAR LIRN 180320Z 36006KT CAVOK 16/06 Q1015 NOSIG
2026-04-18 02:50:00,METAR LIRN 180250Z 01008KT CAVOK 16/06 Q1015 NOSIG
2026-04-18 02:20:00,METAR LIRN 180220Z 36005KT CAVOK 16/07 Q1015 NOSIG
2026-04-18 01:50:00,METAR LIRN 180150Z 01005KT CAVOK 17/07 Q1015 NOSIG
2026-04-18 01:20:00,METAR LIRN 180120Z 02005KT CAVOK 17/08 Q1015 NOSIG
2026-04-18 00:50:00,METAR LIRN 180050Z 01005KT CAVOK 17/08 Q1015 NOSIG
2026-04-18 00:20:00,METAR LIRN 180020Z 01006KT CAVOK 18/08 Q1015 NOSIG
2026-04-17 23:20:00,METAR LIRN 172320Z 03004KT CAVOK 18/08 Q1015 NOSIG
2026-04-17 22:50:00,METAR LIRN 172250Z 02004KT CAVOK 18/08 Q1015 NOSIG
2026-04-17 22:20:00,METAR LIRN 172220Z 05004KT CAVOK 18/08 Q1015 NOSIG
2026-04-17 21:50:00,METAR LIRN 172150Z 06005KT 020V100 CAVOK 20/07 Q1015 NOSIG
2026-04-17 21:20:00,METAR LIRN 172120Z 04004KT CAVOK 19/09 Q1015 NOSIG
2026-04-17 20:50:00,METAR LIRN 172050Z VRB02KT 9999 FEW070 20/09 Q1015 NOSIG
2026-04-17 20:20:00,METAR LIRN 172020Z 07003KT 9999 SCT065 20/10 Q1015 NOSIG
2026-04-17 19:50:00,METAR LIRN 171950Z 06006KT 9999 SCT075 20/10 Q1015 NOSIG
2026-04-17 19:20:00,METAR LIRN 171920Z 04006KT 9999 SCT080 20/11 Q1015 NOSIG
2026-04-17 18:50:00,METAR LIRN 171850Z 02005KT 310V050 9999 SCT070 21/11 Q1014 NOSIG
2026-04-17 18:20:00,METAR LIRN 171820Z 34003KT 280V050 9999 SCT080 21/13 Q1014 NOSIG
2026-04-17 17:50:00,METAR LIRN 171750Z 29007KT 9999 SCT070 22/14 Q1014 NOSIG
2026-04-17 17:20:00,METAR LIRN 171720Z 31010KT 9999 SCT070 21/12 Q1014 NOSIG
2026-04-17 16:50:00,METAR LIRN 171650Z 31011KT 280V340 9999 SCT070 22/11 Q1013 NOSIG
2026-04-17 16:20:00,METAR LIRN 171620Z 30010KT 270V330 9999 SCT060 23/11 Q1013 NOSIG
2026-04-17 15:50:00,METAR LIRN 171550Z 30012KT 9999 FEW065 23/13 Q1013 NOSIG
2026-04-17 15:20:00,METAR LIRN 171520Z 29009KT 250V330 9999 FEW050 23/13 Q1013 BECMG 29012KT
2026-04-17 14:50:00,METAR LIRN 171450Z 04007KT 9999 FEW040 26/10 Q1013
2026-04-17 14:20:00,METAR LIRN 171420Z 05008KT 020V110 9999 FEW040 26/11 Q1013 BECMG 29012KT
2026-04-17 13:50:00,METAR LIRN 171350Z 06008KT 030V100 9999 FEW040 26/11 Q1013 BECMG 29012KT
2026-04-17 13:20:00,METAR LIRN 171320Z 06010KT 030V100 9999 FEW040 25/12 Q1013 BECMG 29012KT
2026-04-17 12:50:00,METAR LIRN 171250Z 05010KT 020V100 9999 FEW040 25/10 Q1014 BCMG 290 12KT
2026-04-17 12:20:00,METAR LIRN 171220Z 06010KT 030V090 9999 FEW040 25/11 Q1014 NOSIG
2026-04-17 11:50:00,METAR LIRN 171150Z 06010KT 020V100 9999 FEW040 25/11 Q1014 NOSIG
2026-04-17 11:20:00,METAR LIRN 171120Z 05012KT 020V080 CAVOK 25/11 Q1015 NOSIG
2026-04-17 10:50:00,METAR LIRN 171050Z 05012KT CAVOK 25/11 Q1015 NOSIG
2026-04-17 10:20:00,METAR LIRN 171020Z 03011KT 340V060 CAVOK 24/11 Q1015 NOSIG
2026-04-17 09:50:00,METAR LIRN 170950Z 03009KT 360V060 CAVOK 23/11 Q1015 NOSIG
2026-04-17 09:20:00,METAR LIRN 170920Z 04008KT CAVOK 23/11 Q1015 NOSIG
2026-04-17 08:50:00,METAR LIRN 170850Z 06006KT 020V100 CAVOK 22/10 Q1016 NOSIG
2026-04-17 08:20:00,METAR LIRN 170820Z 36005KT 250V030 CAVOK 22/10 Q1016 NOSIG
2026-04-17 07:50:00,METAR LIRN 170750Z 36005KT 240V020 CAVOK 21/11 Q1016 NOSIG
2026-04-17 07:20:00,METAR LIRN 170720Z 35004KT 270V040 CAVOK 20/11 Q1016 NOSIG
2026-04-17 06:50:00,METAR LIRN 170650Z 34005KT 250V020 CAVOK 18/11 Q1016 NOSIG
2026-04-17 06:20:00,METAR LIRN 170620Z 33005KT 300V100 CAVOK 17/11 Q1016 NOSIG
2026-04-17 05:50:00,METAR LIRN 170550Z 34006KT 290V360 CAVOK 17/11 Q1016 NOSIG
2026-04-17 05:20:00,METAR LIRN 170520Z 32005KT 250V360 CAVOK 16/11 Q1015 NOSIG
2026-04-17 04:50:00,METAR LIRN 170450Z 32005KT 270V360 CAVOK 16/11 Q1015 NOSIG
2026-04-17 04:20:00,METAR LIRN 170420Z 35005KT CAVOK 15/10 Q1015 NOSIG
2026-04-17 03:50:00,METAR LIRN 170350Z 33005KT CAVOK 16/10 Q1015 NOSIG
2026-04-17 03:20:00,METAR LIRN 170320Z 01006KT CAVOK 17/11 Q1015 NOSIG
2026-04-17 02:50:00,METAR LIRN 170250Z 35005KT CAVOK 16/11 Q1015 NOSIG
2026-04-17 02:20:00,METAR LIRN 170220Z 36007KT CAVOK 16/11 Q1016 NOSIG
2026-04-17 01:50:00,METAR LIRN 170150Z 35005KT CAVOK 16/11 Q1016 NOSIG
2026-04-17 01:20:00,METAR LIRN 170120Z 34005KT CAVOK 16/10 Q1016 NOSIG
2026-04-17 00:50:00,METAR LIRN 170050Z 35004KT CAVOK 16/10 Q1016 NOSIG
2026-04-17 00:20:00,METAR LIRN 170020Z 02005KT CAVOK 16/10 Q1016 NOSIG
2026-04-16 23:50:00,METAR LIRN 162350Z 03004KT CAVOK 16/10 Q1016 NOSIG
2026-04-16 23:20:00,METAR LIRN 162320Z 34003KT CAVOK 16/10 Q1016 NOSIG
2026-04-16 22:50:00,METAR LIRN 162250Z 01005KT CAVOK 17/11 Q1016 NOSIG
2026-04-16 22:20:00,METAR LIRN 162220Z 34004KT CAVOK 17/11 Q1016 NOSIG
2026-04-16 21:50:00,METAR LIRN 162150Z VRB02KT CAVOK 17/11 Q1016 NOSIG
2026-04-16 21:20:00,METAR LIRN 162120Z 36003KT 260V030 CAVOK 18/10 Q1016 NOSIG
2026-04-16 20:50:00,METAR LIRN 162050Z 35003KT 240V050 CAVOK 19/11 Q1016 NOSIG
2026-04-16 20:20:00,METAR LIRN 162020Z 05006KT CAVOK 19/11 Q1016 NOSIG
2026-04-16 19:50:00,METAR LIRN 161950Z 05006KT CAVOK 19/11 Q1016 NOSIG
2026-04-16 19:20:00,METAR LIRN 161920Z 06010KT CAVOK 20/11 Q1016 NOSIG
2026-04-16 18:50:00,METAR LIRN 161850Z 05009KT CAVOK 20/11 Q1016 NOSIG
2026-04-16 18:20:00,METAR LIRN 161820Z 05009KT 9999 SCT080 20/11 Q1015 NOSIG
2026-04-16 17:50:00,METAR LIRN 161750Z 05010KT 9999 SCT080 21/11 Q1015 NOSIG
2026-04-16 17:20:00,METAR LIRN 161720Z 05010KT 9999 SCT080 21/11 Q1015 NOSIG
2026-04-16 16:50:00,METAR LIRN 161650Z 05010KT 020V080 9999 BKN080 22/11 Q1015 NOSIG
2026-04-16 16:20:00,METAR LIRN 161620Z 05011KT 9999 BKN080 22/12 Q1015 NOSIG
2026-04-16 15:50:00,METAR LIRN 161550Z 06009KT 030V100 9999 BKN080 22/12 Q1015 NOSIG
2026-04-16 14:50:00,METAR LIRN 161450Z 06009KT 030V120 9999 BKN070 22/12 Q1015 NOSIG
2026-04-16 14:20:00,METAR LIRN 161420Z 06011KT 9999 BKN080 22/12 Q1015 NOSIG
2026-04-16 13:50:00,METAR LIRN 161350Z 07008KT 010V100 9999 BKN080 22/11 Q1015 NOSIG
2026-04-16 13:20:00,METAR LIRN 161320Z 05009KT 9999 BKN070 22/12 Q1015 NOSIG
2026-04-16 12:50:00,METAR LIRN 161250Z 05010KT 9999 BKN060 21/11 Q1016 NOSIG
2026-04-16 12:20:00,METAR LIRN 161220Z 06010KT 030V090 9999 BKN060 22/11 Q1016 NOSIG
2026-04-16 11:50:00,METAR LIRN 161150Z 04011KT 9999 BKN060 21/11 Q1016 NOSIG
2026-04-16 11:20:00,METAR LIRN 161120Z 04012KT 350V070 9999 FEW045 SCT080 22/11 Q1016 NOSIG
2026-04-16 10:50:00,METAR LIRN 161050Z 05011KT 010V080 9999 FEW040 SCT080 21/12 Q1016 NOSIG
2026-04-16 10:20:00,METAR LIRN 161020Z 05011KT 020V080 9999 FEW040 BKN080 21/12 Q1016 NOSIG
2026-04-16 09:50:00,METAR LIRN 160950Z 07010KT 040V100 9999 FEW040 SCT080 19/12 Q1016 NOSIG
2026-04-16 09:20:00,METAR LIRN 160920Z 05010KT 9999 FEW040 BKN080 19/13 Q1016 NOSIG
2026-04-16 08:50:00,METAR LIRN 160850Z 05010KT 020V080 9999 FEW040 BKN080 19/12 Q1016 NOSIG
2026-04-16 08:20:00,METAR LIRN 160820Z 06008KT 030V090 9999 FEW040 SCT070 18/12 Q1016 NOSIG
2026-04-16 07:50:00,METAR LIRN 160750Z 05014KT 9999 FEW040 SCT070 18/11 Q1016 NOSIG
2026-04-16 07:20:00,METAR LIRN 160720Z 06010KT 030V090 9999 SCT070 18/11 Q1016 NOSIG
2026-04-16 06:50:00,METAR LIRN 160650Z 04007KT 9999 SCT070 18/11 Q1015 NOSIG
2026-04-16 06:20:00,METAR LIRN 160620Z 05008KT 9999 SCT070 17/11 Q1015 NOSIG
2026-04-16 05:50:00,METAR LIRN 160550Z 06009KT 9999 SCT070 17/10 Q1015 NOSIG
2026-04-16 05:20:00,METAR LIRN 160520Z 04009KT 9999 SCT070 17/10 Q1015 NOSIG
2026-04-16 04:50:00,METAR LIRN 160450Z 05010KT 9999 SCT070 17/10 Q1015 NOSIG
2026-04-16 04:20:00,METAR LIRN 160420Z 02006KT 350V050 9999 SCT070 17/10 Q1014 NOSIG
2026-04-16 03:50:00,METAR LIRN 160350Z 04007KT 9999 SCT070 16/10 Q1014 NOSIG
2026-04-16 03:20:00,METAR LIRN 160320Z 02008KT 7000 SCT070 17/10 Q1014 NOSIG
2026-04-16 02:50:00,METAR LIRN 160250Z 04010KT 9999 SCT070 17/11 Q1014 NOSIG
2026-04-16 02:20:00,METAR LIRN 160220Z 04010KT 9999 SCT070 17/10 Q1014 NOSIG
2026-04-16 01:50:00,METAR LIRN 160150Z 04009KT 9999 SCT070 17/10 Q1014 NOSIG
2026-04-16 01:20:00,METAR LIRN 160120Z 04009KT 9999 FEW060 17/10 Q1014 NOSIG
2026-04-16 00:50:00,METAR LIRN 160050Z 05011KT 9999 FEW060 17/10 Q1014 NOSIG
2026-04-16 00:20:00,METAR LIRN 160020Z 02006KT 9999 FEW060 17/11 Q1014 NOSIG
2026-04-15 23:50:00,METAR LIRN 152350Z 04008KT 9999 FEW060 17/11 Q1014 NOSIG
2026-04-15 23:20:00,METAR LIRN 152320Z 05010KT 9999 FEW060 17/11 Q1015 NOSIG
2026-04-15 22:50:00,METAR LIRN 152250Z 04009KT 9999 FEW060 17/12 Q1014 NOSIG
2026-04-15 22:20:00,METAR LIRN 152220Z 05010KT 9999 SCT060 18/12 Q1014 NOSIG
2026-04-15 21:50:00,METAR LIRN 152150Z 05010KT 9999 SCT060 18/12 Q1014 NOSIG
2026-04-15 21:20:00,METAR LIRN 152120Z 05010KT 9999 SCT060 18/12 Q1014 NOSIG
2026-04-15 20:50:00,METAR LIRN 152050Z 03008KT 330V100 9999 SCT060 18/11 Q1014 NOSIG
2026-04-15 20:20:00,METAR LIRN 152020Z 01006KT 280V040 9999 SCT060 18/12 Q1014 NOSIG
2026-04-15 19:50:00,METAR LIRN 151950Z 03007KT 340V070 CAVOK 18/12 Q1014 NOSIG
2026-04-15 19:20:00,METAR LIRN 151920Z 03006KT 290V070 CAVOK 18/12 Q1013 NOSIG
2026-04-15 18:50:00,METAR LIRN 151850Z 03008KT 320V050 CAVOK 18/12 Q1013 NOSIG
2026-04-15 18:20:00,METAR LIRN 151820Z 04007KT 340V060 CAVOK 19/12 Q1013 NOSIG
2026-04-15 17:50:00,METAR LIRN 151750Z 06008KT CAVOK 19/12 Q1012 NOSIG
2026-04-15 17:20:00,METAR LIRN 151720Z 06009KT CAVOK 20/12 Q1012 NOSIG
2026-04-15 16:50:00,METAR LIRN 151650Z 06008KT 9999 FEW080 21/12 Q1012 NOSIG
2026-04-15 16:20:00,METAR LIRN 151620Z 06011KT 9999 FEW080 21/11 Q1012 NOSIG
2026-04-15 15:50:00,METAR LIRN 151550Z 05009KT 9999 SCT080 21/12 Q1012 NOSIG
2026-04-15 15:20:00,METAR LIRN 151520Z 06008KT 030V090 9999 BKN080 21/11 Q1012 RETS NOSIG
2026-04-15 14:50:00,METAR LIRN 151450Z 10003KT 040V170 9999 TS BKN060CB 21/12 Q1012 NOSIG
2026-04-15 14:20:00,METAR LIRN 151420Z 09006KT 030V130 9999 -TSRA BKN050CB 21/11 Q1012 NOSIG
2026-04-15 13:50:00,METAR LIRN 151350Z 07012KT 040V110 9999 BKN070 21/11 Q1012 TEMPO TSRA
2026-04-15 13:20:00,METAR LIRN 151320Z 06013KT 030V120 9999 -RA BKN060 22/11 Q1012 NOSIG
2026-04-15 12:50:00,METAR LIRN 151250Z 07011KT 040V100 9999 BKN055 23/11 Q1012 NOSIG
2026-04-15 12:20:00,METAR LIRN 151220Z 06013KT 030V100 9999 BKN055 24/11 Q1011 NOSIG
2026-04-15 11:50:00,METAR LIRN 151150Z 06011KT 030V100 9999 BKN060 24/11 Q1012 NOSIG
2026-04-15 11:20:00,METAR LIRN 151120Z 06008KT 030V110 9999 BKN060 22/11 Q1012 NOSIG
2026-04-15 10:50:00,METAR LIRN 151050Z 06011KT 9999 BKN060 22/12 Q1012 NOSIG
2026-04-15 10:20:00,METAR LIRN 151020Z 06009KT 9999 SCT060 22/11 Q1012 NOSIG
2026-04-15 09:50:00,METAR LIRN 150950Z 05010KT 9999 SCT060 21/12 Q1012 NOSIG
2026-04-15 09:20:00,METAR LIRN 150920Z 05011KT 9999 SCT060 21/12 Q1012 NOSIG
2026-04-15 08:50:00,METAR LIRN 150850Z 07009KT 040V100 9999 SCT060 21/12 Q1012 NOSIG
2026-04-15 08:20:00,METAR LIRN 150820Z 04008KT 9999 SCT060 20/13 Q1012 NOSIG
2026-04-15 07:50:00,METAR LIRN 150750Z 05008KT 020V110 9999 FEW060 20/13 Q1012 NOSIG
2026-04-15 07:20:00,METAR LIRN 150720Z 06008KT 9999 FEW060 19/13 Q1011 NOSIG
2026-04-15 06:50:00,METAR LIRN 150650Z VRB02KT 9999 FEW060 18/13 Q1011 NOSIG
2026-04-15 06:20:00,METAR LIRN 150620Z 02006KT 290V060 9999 FEW060 17/13 Q1011 NOSIG
2026-04-15 05:50:00,METAR LIRN 150550Z 01007KT 300V040 9999 FEW060 16/13 Q1011 NOSIG
2026-04-15 05:20:00,METAR LIRN 150520Z 02006KT 290V040 9999 SCT060 16/13 Q1011 NOSIG
2026-04-15 04:50:00,METAR LIRN 150450Z 05009KT 9999 SCT075 17/13 Q1011 NOSIG
2026-04-15 04:20:00,METAR LIRN 150420Z 03007KT 9999 BKN075 16/13 Q1011 NOSIG
2026-04-15 03:50:00,METAR LIRN 150350Z 04003KT CAVOK 16/13 Q1011 NOSIG
2026-04-15 03:20:00,METAR LIRN 150320Z 02005KT CAVOK 15/14 Q1010 NOSIG
2026-04-15 02:50:00,METAR LIRN 150250Z 04006KT CAVOK 16/14 Q1011 NOSIG
2026-04-15 02:20:00,METAR LIRN 150220Z 01004KT CAVOK 16/14 Q1011 NOSIG
2026-04-15 01:50:00,METAR LIRN 150150Z VRB02KT CAVOK 15/15 Q1011 NOSIG
2026-04-15 01:20:00,METAR LIRN 150120Z 06003KT CAVOK 15/14 Q1011 NOSIG
2026-04-15 00:50:00,METAR LIRN 150050Z 06005KT 030V100 CAVOK 15/15 Q1011 NOSIG
2026-04-15 00:20:00,METAR LIRN 150020Z 07006KT 040V110 9999 BKN070 15/15 Q1011 NOSIG
2026-04-14 23:50:00,METAR LIRN 142350Z VRB02KT 9999 -RA BKN070 16/15 Q1012 NOSIG
2026-04-14 23:20:00,METAR LIRN 142320Z 20009KT 160V230 9999 -TSRA FEW030CB BKN070 16/15 Q1012 NOSIG
2026-04-14 22:50:00,METAR LIRN 142250Z 18005KT 150V210 9999 -TSRA FEW050CB BKN070 17/14 Q1012 RERA NOSIG
2026-04-14 22:20:00,METAR LIRN 142220Z VRB01KT 8000 RA BKN070 18/13 Q1011 NOSIG
2026-04-14 21:50:00,METAR LIRN 142150Z 31005KT CAVOK 18/13 Q1010 TEMPO 4000 TSRA
2026-04-14 21:20:00,METAR LIRN 142120Z 31006KT 280V340 CAVOK 17/13 Q1010 NOSIG
2026-04-14 20:50:00,METAR LIRN 142050Z 33006KT 280V030 CAVOK 18/12 Q1010 NOSIG
2026-04-14 20:20:00,METAR LIRN 142020Z 31005KT 280V340 CAVOK 18/12 Q1010 NOSIG
2026-04-14 19:50:00,METAR LIRN 141950Z 31005KT 270V350 CAVOK 18/11 Q1010 NOSIG
2026-04-14 19:20:00,METAR LIRN 141920Z 33005KT 290V010 CAVOK 18/12 Q1010 NOSIG
2026-04-14 18:50:00,METAR LIRN 141850Z 32005KT CAVOK 19/12 Q1010 NOSIG
2026-04-14 18:20:00,METAR LIRN 141820Z VRB02KT CAVOK 18/12 Q1010 NOSIG
2026-04-14 17:50:00,METAR LIRN 141750Z VRB02KT CAVOK 18/13 Q1009 NOSIG
2026-04-14 17:20:00,METAR LIRN 141720Z 19004KT CAVOK 18/13 Q1009 NOSIG
2026-04-14 16:50:00,METAR LIRN 141650Z VRB04KT CAVOK 19/13 Q1009 NOSIG
2026-04-14 16:20:00,METAR LIRN 141620Z VRB05KT CAVOK 20/12 Q1009 NOSIG
2026-04-14 15:50:00,METAR LIRN 141550Z 19003KT 120V230 CAVOK 21/11 Q1009 NOSIG
2026-04-14 15:20:00,METAR LIRN 141520Z 20005KT 160V240 CAVOK 20/11 Q1009 NOSIG
2026-04-14 14:50:00,METAR LIRN 141450Z 18008KT 140V210 9999 FEW050 20/12 Q1010 NOSIG
2026-04-14 14:20:00,METAR LIRN 141420Z VRB05KT 9999 FEW050 21/12 Q1010 NOSIG
2026-04-14 13:50:00,METAR LIRN 141350Z 20006KT 130V280 9999 FEW050 21/12 Q1010 NOSIG
2026-04-14 13:20:00,METAR LIRN 141320Z 19006KT 130V230 9999 FEW050 20/11 Q1011 NOSIG
2026-04-14 12:50:00,METAR LIRN 141250Z 20008KT 150V230 9999 FEW050 20/11 Q1011 NOSIG
2026-04-14 12:20:00,METAR LIRN 141220Z 19007KT 130V240 9999 FEW050 20/12 Q1011 NOSIG
2026-04-14 11:50:00,METAR LIRN 141150Z 19009KT 150V230 9999 FEW050 20/12 Q1011 NOSIG
2026-04-14 11:20:00,METAR LIRN 141120Z 20009KT 160V230 9999 FEW040 20/12 Q1011 NOSIG
2026-04-14 10:50:00,METAR LIRN 141050Z 21009KT 180V240 9999 FEW040 19/12 Q1011 NOSIG
2026-04-14 10:20:00,METAR LIRN 141020Z 20008KT 150V240 9999 FEW040 19/12 Q1011 NOSIG
2026-04-14 09:50:00,METAR LIRN 140950Z 20008KT 160V230 9999 FEW040 19/13 Q1011 NOSIG
2026-04-14 09:20:00,METAR LIRN 140920Z 21009KT 180V240 9999 FEW020 SCT040 18/12 Q1011 NOSIG
2026-04-14 08:50:00,METAR LIRN 140850Z 20007KT 160V310 9999 FEW020 BKN045 18/12 Q1011 NOSIG
2026-04-14 08:20:00,METAR LIRN 140820Z 20008KT 130V250 9999 FEW020 BKN045 18/12 Q1010 NOSIG
2026-04-14 07:50:00,METAR LIRN 140750Z 19006KT 130V240 9999 FEW020 BKN045 18/12 Q1010 NOSIG
2026-04-14 07:20:00,METAR LIRN 140720Z 18005KT 130V220 9999 FEW020 BKN045 17/12 Q1010 NOSIG
2026-04-14 06:50:00,METAR LIRN 140650Z VRB04KT 9999 FEW020 BKN040 17/13 Q1010 NOSIG
2026-04-14 06:20:00,METAR LIRN 140620Z 18004KT 140V230 9999 FEW020 BKN040 16/13 Q1009 NOSIG
2026-04-14 05:50:00,METAR LIRN 140550Z 18005KT 110V230 9999 FEW020 SCT040 16/12 Q1009 NOSIG
2026-04-14 05:20:00,METAR LIRN 140520Z 19004KT 140V240 9000 FEW020 SCT040 16/13 Q1009 NOSIG
2026-04-14 04:50:00,METAR LIRN 140450Z VRB02KT 8000 FEW020 SCT030 16/12 Q1008 NOSIG
2026-04-14 04:20:00,METAR LIRN 140420Z 17004KT 080V250 8000 FEW020 SCT030 16/13 Q1008 NOSIG
2026-04-14 03:50:00,METAR LIRN 140350Z 18005KT 130V230 8000 SCT020 16/13 Q1008 NOSIG
2026-04-14 03:20:00,METAR LIRN 140320Z 18003KT 130V250 8000 SCT030 16/13 Q1008 NOSIG
2026-04-14 02:50:00,METAR LIRN 140250Z VRB03KT 8000 SCT030 16/13 Q1008 NOSIG
2026-04-14 02:20:00,METAR LIRN 140220Z VRB04KT 8000 SCT030 16/13 Q1008 NOSIG
2026-04-14 01:50:00,METAR LIRN 140150Z 17004KT 120V260 8000 SCT030 16/13 Q1008 NOSIG
2026-04-14 01:20:00,METAR LIRN 140120Z 19006KT 150V230 8000 SCT020 16/13 Q1008 NOSIG
2026-04-14 00:50:00,METAR LIRN 140050Z 19004KT 110V220 8000 SCT020 16/14 Q1008 NOSIG
2026-04-14 00:20:00,METAR LIRN 140020Z VRB04KT 8000 SCT020 16/14 Q1007 NOSIG
2026-04-13 23:50:00,METAR LIRN 132350Z 19004KT 150V220 8000 SCT020 16/14 Q1007 NOSIG
2026-04-13 23:20:00,METAR LIRN 132320Z 16004KT 110V220 8000 SCT020 16/14 Q1007 NOSIG
2026-04-13 22:50:00,METAR LIRN 132250Z 18004KT 100V230 8000 SCT020 16/14 Q1007 NOSIG
2026-04-13 22:20:00,METAR LIRN 132220Z 16004KT 090V230 8000 FEW020 16/14 Q1007 NOSIG
2026-04-13 21:50:00,METAR LIRN 132150Z 19005KT 160V220 8000 FEW040 16/14 Q1007 NOSIG
2026-04-13 21:20:00,METAR LIRN 132120Z 20006KT 170V230 8000 FEW040 16/14 Q1007 NOSIG
2026-04-13 20:50:00,METAR LIRN 132050Z 21006KT 180V240 8000 FEW040 16/13 Q1007 NOSIG
2026-04-13 20:20:00,METAR LIRN 132020Z VRB03KT 8000 SCT045 17/12 Q1006 NOSIG
2026-04-13 19:50:00,METAR LIRN 131950Z 20005KT 120V240 8000 SCT045 17/12 Q1006 NOSIG
2026-04-13 19:20:00,METAR LIRN 131920Z VRB03KT 8000 FEW030 SCT050 18/13 Q1006 NOSIG
2026-04-13 18:50:00,METAR LIRN 131850Z VRB04KT 8000 FEW030 SCT050 17/13 Q1005 NOSIG
2026-04-13 18:20:00,METAR LIRN 131820Z VRB03KT 8000 FEW030 SCT050 17/13 Q1005 NOSIG
2026-04-13 17:50:00,METAR LIRN 131750Z VRB04KT 8000 FEW025 SCT050 18/14 Q1005 NOSIG
2026-04-13 17:20:00,METAR LIRN 131720Z 18005KT 130V230 8000 FEW025 SCT050 17/13 Q1005 NOSIG
2026-04-13 16:50:00,METAR LIRN 131650Z 18006KT 140V230 8000 FEW030 SCT040 18/14 Q1004 NOSIG
2026-04-13 16:20:00,METAR LIRN 131620Z 18007KT 130V220 8000 FEW030 SCT040 18/14 Q1004 NOSIG
2026-04-13 15:50:00,METAR LIRN 131550Z 18007KT 120V220 8000 FEW030 SCT040 18/13 Q1004 NOSIG
2026-04-13 15:20:00,METAR LIRN 131520Z 17008KT 120V220 8000 FEW030 SCT040 19/13 Q1004 NOSIG
2026-04-13 14:50:00,METAR LIRN 131450Z 19010KT 150V210 8000 FEW030 SCT045 19/13 Q1004 NOSIG
2026-04-13 14:20:00,METAR LIRN 131420Z VRB09KT 8000 FEW030 SCT045 19/13 Q1004 NOSIG
2026-04-13 13:50:00,METAR LIRN 131350Z 17008G19KT 070V240 8000 FEW030 SCT050 19/12 Q1004 NOSIG
2026-04-13 13:20:00,METAR LIRN 131320Z 17009G19KT 100V220 8000 FEW035 SCT050 20/12 Q1004 NOSIG
2026-04-13 12:50:00,METAR LIRN 131250Z 17009G19KT 120V240 8000 FEW045 21/11 Q1004 NOSIG
2026-04-13 12:20:00,METAR LIRN 131220Z 17010G20KT 070V220 8000 FEW045 21/11 Q1004 NOSIG
2026-04-13 11:50:00,METAR LIRN 131150Z 17012G23KT 090V210 8000 FEW045 21/11 Q1004 NOSIG
2026-04-13 11:20:00,METAR LIRN 131120Z VRB10G21KT 8000 SCT045 21/11 Q1004 NOSIG
2026-04-13 10:50:00,METAR LIRN 131050Z VRB08KT 8000 FEW050 22/11 Q1004 NOSIG
2026-04-13 10:20:00,METAR LIRN 131020Z VRB07KT 8000 FEW050 21/10 Q1004 NOSIG
2026-04-13 09:50:00,METAR LIRN 130950Z 17008KT 100V220 9999 FEW050 21/10 Q1005 NOSIG
2026-04-13 09:20:00,METAR LIRN 130920Z VRB08G19KT 9999 FEW050 21/10 Q1005 NOSIG
2026-04-13 08:50:00,METAR LIRN 130850Z VRB09G21KT 9999 FEW050 21/09 Q1005 NOSIG
2026-04-13 08:20:00,METAR LIRN 130820Z VRB07KT CAVOK 21/09 Q1004 NOSIG
2026-04-13 07:50:00,METAR LIRN 130750Z VRB06KT CAVOK 20/09 Q1005 NOSIG
2026-04-13 07:20:00,METAR LIRN 130720Z VRB04KT CAVOK 20/09 Q1005 NOSIG
2026-04-13 06:50:00,METAR LIRN 130650Z VRB05KT CAVOK 20/08 Q1004 NOSIG
2026-04-13 06:20:00,METAR LIRN 130620Z VRB04KT CAVOK 19/06 Q1004 NOSIG
2026-04-13 05:50:00,METAR LIRN 130550Z VRB05KT CAVOK 20/06 Q1004 NOSIG
2026-04-13 05:20:00,METAR LIRN 130520Z VRB02KT CAVOK 16/08 Q1004 NOSIG
2026-04-13 04:50:00,METAR LIRN 130450Z VRB04KT CAVOK 16/08 Q1004 NOSIG
2026-04-13 04:20:00,METAR LIRN 130420Z 31003KT 260V350 CAVOK 15/08 Q1004 NOSIG
2026-04-13 03:50:00,METAR LIRN 130350Z VRB04KT CAVOK 16/07 Q1004 NOSIG
2026-04-13 03:20:00,METAR LIRN 130320Z 26004KT 220V300 CAVOK 15/07 Q1004 NOSIG
2026-04-13 02:50:00,METAR LIRN 130250Z 23005KT 180V280 CAVOK 17/07 Q1004 NOSIG
2026-04-13 02:20:00,METAR LIRN 130220Z 21004KT 180V240 CAVOK 19/06 Q1004 NOSIG
2026-04-13 01:50:00,METAR LIRN 130150Z 27003KT 220V320 CAVOK 16/08 Q1005 NOSIG
2026-04-13 01:20:00,METAR LIRN 130120Z VRB02KT CAVOK 17/09 Q1005 NOSIG
2026-04-13 00:50:00,METAR LIRN 130050Z 29004KT 250V340 CAVOK 18/08 Q1005 NOSIG
2026-04-13 00:20:00,METAR LIRN 130020Z 34003KT CAVOK 18/08 Q1005 NOSIG
2026-04-12 23:50:00,METAR LIRN 122350Z VRB02KT CAVOK 17/10 Q1006 NOSIG
2026-04-12 23:20:00,METAR LIRN 122320Z VRB02KT CAVOK 18/10 Q1006 NOSIG
2026-04-12 22:50:00,METAR LIRN 122250Z 30003KT 270V350 CAVOK 17/10 Q1006 NOSIG
2026-04-12 22:20:00,METAR LIRN 122220Z VRB02KT CAVOK 19/10 Q1006 NOSIG
2026-04-12 21:50:00,METAR LIRN 122150Z 02003KT 340V080 CAVOK 18/11 Q1006 NOSIG
2026-04-12 21:20:00,METAR LIRN 122120Z VRB05KT CAVOK 19/11 Q1006 NOSIG
2026-04-12 20:50:00,METAR LIRN 122050Z 30003KT 240V020 CAVOK 20/11 Q1007 NOSIG
2026-04-12 20:20:00,METAR LIRN 122020Z VRB04KT CAVOK 19/12 Q1007 NOSIG
2026-04-12 19:50:00,METAR LIRN 121950Z 02005KT CAVOK 19/12 Q1007 NOSIG
2026-04-12 19:20:00,METAR LIRN 121920Z 36004KT 330V030 CAVOK 19/12 Q1007 NOSIG
2026-04-12 18:50:00,METAR LIRN 121850Z VRB02KT CAVOK 21/12 Q1008 NOSIG
2026-04-12 18:20:00,METAR LIRN 121820Z 02006KT CAVOK 22/11 Q1007 NOSIG
2026-04-12 17:50:00,METAR LIRN 121750Z 02004KT CAVOK 21/10 Q1007 NOSIG
2026-04-12 17:20:00,METAR LIRN 121720Z 04006KT CAVOK 22/07 Q1007 NOSIG
2026-04-12 16:50:00,METAR LIRN 121650Z 04004KT CAVOK 21/07 Q1008 NOSIG
2026-04-12 16:20:00,METAR LIRN 121620Z 04004KT 340V060 CAVOK 22/07 Q1008 NOSIG
2026-04-12 15:50:00,METAR LIRN 121550Z 03004KT 320V060 CAVOK 28/06 Q1008 NOSIG
2026-04-12 14:50:00,METAR LIRN 121450Z 21003KT 180V240 CAVOK 23/06 Q1009 NOSIG
2026-04-12 14:20:00,METAR LIRN 121420Z 22003KT 160V260 CAVOK 23/06 Q1010 NOSIG
2026-04-12 13:50:00,METAR LIRN 121350Z 23005KT 190V250 CAVOK 23/07 Q1010 NOSIG
2026-04-12 13:20:00,METAR LIRN 121320Z VRB01KT CAVOK 24/05 Q1010 NOSIG
2026-04-12 12:50:00,METAR LIRN 121250Z VRB02KT CAVOK 24/05 Q1010 NOSIG
2026-04-12 12:20:00,METAR LIRN 121220Z VRB03KT CAVOK 24/07 Q1011 NOSIG
2026-04-12 11:50:00,METAR LIRN 121150Z VRB01KT CAVOK 24/06 Q1011 NOSIG
2026-04-12 11:20:00,METAR LIRN 121120Z VRB02KT CAVOK 23/08 Q1012 NOSIG
2026-04-12 10:50:00,METAR LIRN 121050Z VRB01KT CAVOK 22/08 Q1012 NOSIG
2026-04-12 10:20:00,METAR LIRN 121020Z 35003KT 290V040 CAVOK 21/09 Q1012 NOSIG
2026-04-12 09:50:00,METAR LIRN 120950Z 02004KT 280V090 CAVOK 20/09 Q1013 NOSIG
2026-04-12 09:20:00,METAR LIRN 120920Z 36008KT 330V040 CAVOK 19/08 Q1013 NOSIG
2026-04-12 08:50:00,METAR LIRN 120850Z 35006KT 310V050 CAVOK 18/09 Q1013 NOSIG
2026-04-12 08:20:00,METAR LIRN 120820Z 35008KT 320V030 CAVOK 17/09 Q1013 NOSIG
2026-04-12 07:50:00,METAR LIRN 120750Z 01004KT 320V060 CAVOK 16/10 Q1013 NOSIG
2026-04-12 07:20:00,METAR LIRN 120720Z 36006KT 320V030 CAVOK 18/10 Q1013 NOSIG
2026-04-12 06:50:00,METAR LIRN 120650Z 35003KT 310V040 CAVOK 15/10 Q1013 NOSIG
2026-04-12 06:20:00,METAR LIRN 120620Z VRB03KT CAVOK 16/11 Q1013 NOSIG
2026-04-12 05:50:00,METAR LIRN 120550Z 35003KT 300V010 CAVOK 14/10 Q1013 NOSIG
2026-04-12 05:20:00,METAR LIRN 120520Z 33004KT 290V010 8000 NSC 14/10 Q1012 NOSIG
2026-04-12 04:50:00,METAR LIRN 120450Z 33004KT 270V020 CAVOK 15/11 Q1012 NOSIG
2026-04-12 04:20:00,METAR LIRN 120420Z 35002KT CAVOK 11/10 Q1012 NOSIG
2026-04-12 03:50:00,METAR LIRN 120350Z 04002KT CAVOK 12/11 Q1012 NOSIG
2026-04-12 03:20:00,METAR LIRN 120320Z VRB02KT CAVOK 12/11 Q1012 NOSIG
2026-04-12 02:50:00,METAR LIRN 120250Z VRB02KT CAVOK 12/11 Q1013 NOSIG
2026-04-12 02:20:00,METAR LIRN 120220Z 23003KT 190V290 CAVOK 13/11 Q1013 NOSIG
2026-04-12 01:50:00,METAR LIRN 120150Z 33003KT 280V020 CAVOK 13/11 Q1013 NOSIG
2026-04-12 01:20:00,METAR LIRN 120120Z 03005KT CAVOK 13/11 Q1013 NOSIG
2026-04-12 00:50:00,METAR LIRN 120050Z 03004KT CAVOK 13/12 Q1014 NOSIG
2026-04-12 00:20:00,METAR LIRN 120020Z 04005KT CAVOK 12/11 Q1014 NOSIG
2026-04-11 23:50:00,METAR LIRN 112350Z 00000KT CAVOK 13/11 Q1015 NOSIG
2026-04-11 23:20:00,METAR LIRN 112320Z 09003KT CAVOK 14/12 Q1015 NOSIG
2026-04-11 22:50:00,METAR LIRN 112250Z 19002KT CAVOK 15/12 Q1015 NOSIG
2026-04-11 22:20:00,METAR LIRN 112220Z 27003KT 240V300 CAVOK 14/11 Q1015 NOSIG
2026-04-11 21:50:00,METAR LIRN 112150Z VRB01KT CAVOK 15/12 Q1014 NOSIG
2026-04-11 21:20:00,METAR LIRN 112120Z VRB01KT CAVOK 15/12 Q1014 NOSIG
2026-04-11 20:50:00,METAR LIRN 112050Z AUTO VRB02KT 9999 NCD 17/12 Q1014
2026-04-11 20:20:00,METAR LIRN 112020Z AUTO VRB02KT 9999 NCD 16/12 Q1014
2026-04-11 19:50:00,METAR LIRN 111950Z AUTO VRB02KT 9999 NCD 16/13 Q1014
2026-04-11 19:20:00,METAR LIRN 111920Z AUTO 02003G18KT 320V080 9999 NCD 17/12 Q1014
2026-04-11 18:50:00,METAR LIRN 111850Z AUTO VRB02KT 9999 NCD 16/13 Q1014
2026-04-11 18:20:00,METAR LIRN 111820Z AUTO VRB03KT 9999 NCD 17/13 Q1014
2026-04-11 17:50:00,METAR LIRN 111750Z AUTO 18003KT 150V210 9999 NCD 17/12 Q1014
2026-04-11 17:20:00,METAR LIRN 111720Z AUTO 19007KT 9999 NCD 17/13 Q1014
2026-04-11 16:50:00,METAR LIRN 111650Z AUTO 19006KT 9999 NCD 18/13 Q1014
2026-04-11 16:20:00,METAR LIRN 111620Z AUTO 19006KT 160V240 9999 NCD 19/12 Q1014
2026-04-11 15:50:00,METAR LIRN 111550Z AUTO 19008KT 170V230 9999 NCD 20/10 Q1013
2026-04-11 15:20:00,METAR LIRN 111520Z AUTO 19008KT 150V220 9999 NCD 20/09 Q1013
2026-04-11 14:50:00,METAR LIRN 111450Z AUTO 19010KT 9999 NCD 20/09 Q1013
2026-04-11 14:20:00,METAR LIRN 111420Z AUTO 18006KT 140V220 9999 NCD 21/10 Q1013
2026-04-11 13:50:00,METAR LIRN 111350Z AUTO 19007KT 150V230 9999 NCD 21/10 Q1014
2026-04-11 13:20:00,METAR LIRN 111320Z AUTO 21008KT 180V300 9999 NCD 21/10 Q1014
2026-04-11 12:50:00,METAR LIRN 111250Z 20013KT CAVOK 20/10 Q1014 NOSIG
2026-04-11 12:20:00,METAR LIRN 111220Z 18009KT CAVOK 21/08 Q1014 NOSIG
2026-04-11 11:50:00,METAR LIRN 111150Z 21010KT 180V240 CAVOK 22/08 Q1014 NOSIG
2026-04-11 11:20:00,METAR LIRN 111120Z 16004KT 080V210 CAVOK 23/08 Q1014 NOSIG
2026-04-11 10:50:00,METAR LIRN 111050Z VRB03KT CAVOK 22/08 Q1015 NOSIG
2026-04-11 10:20:00,METAR LIRN 111020Z VRB03KT CAVOK 22/07 Q1015 NOSIG
2026-04-11 09:50:00,METAR LIRN 110950Z VRB02KT CAVOK 21/07 Q1015 NOSIG
2026-04-11 09:20:00,METAR LIRN 110920Z VRB03KT CAVOK 20/07 Q1015 NOSIG
2026-04-11 08:50:00,METAR LIRN 110850Z 36004G17KT 280V060 CAVOK 19/06 Q1015 NOSIG
2026-04-11 08:20:00,METAR LIRN 110820Z 35006KT 300V060 CAVOK 22/08 Q1015 NOSIG
2026-04-11 07:50:00,METAR LIRN 110750Z 04004KT CAVOK 17/09 Q1015 NOSIG
2026-04-11 07:20:00,METAR LIRN 110720Z 03005KT CAVOK 16/09 Q1015 NOSIG
2026-04-11 06:50:00,METAR LIRN 110650Z 32003KT 240V010 CAVOK 17/09 Q1015 NOSIG
2026-04-11 06:20:00,METAR LIRN 110620Z VRB01KT CAVOK 15/10 Q1015 NOSIG
2026-04-11 05:50:00,METAR LIRN 110550Z VRB02KT CAVOK 14/09 Q1015 NOSIG
2026-04-11 05:20:00,METAR LIRN 110520Z VRB02KT CAVOK 13/07 Q1015 NOSIG
2026-04-11 04:50:00,METAR LIRN 110450Z 32004G14KT 280V360 7000 NSC 13/08 Q1015 NOSIG
2026-04-11 04:20:00,METAR LIRN 110420Z 36005KT 320V030 6000 NSC 14/08 Q1014 NOSIG
2026-04-11 03:50:00,METAR LIRN 110350Z 35003KT 5000 BCFG NSC 11/09 Q1014 BECMG 2000 BCFG
2026-04-11 03:20:00,METAR LIRN 110320Z 34002KT 5000 BR NSC 11/09 Q1015 NOSIG
2026-04-11 02:50:00,METAR LIRN 110250Z 35003KT 0900 R06/1500U R24/P2000N FG NSC 11/09 Q1015 NOSIG
2026-04-11 02:20:00,METAR LIRN 110220Z 34002KT CAVOK 11/10 Q1015 NOSIG
2026-04-11 01:50:00,METAR LIRN 110150Z 03002KT CAVOK 11/10 Q1015 NOSIG
2026-04-11 01:20:00,METAR LIRN 110120Z 03001KT CAVOK 12/11 Q1015 NOSIG
2026-04-11 00:50:00,METAR LIRN 110050Z 02002KT CAVOK 13/11 Q1015 NOSIG
2026-04-11 00:20:00,METAR LIRN 110020Z VRB02KT CAVOK 13/11 Q1015 NOSIG
2026-04-10 23:50:00,METAR LIRN 102350Z 01003KT CAVOK 13/11 Q1016 NOSIG
2026-04-10 23:20:00,METAR LIRN 102320Z 36002KT CAVOK 13/11 Q1016 NOSIG
2026-04-10 22:50:00,METAR LIRN 102250Z 36003KT 330V040 CAVOK 13/12 Q1016 NOSIG
2026-04-10 22:20:00,METAR LIRN 102220Z 04003KT CAVOK 14/12 Q1016 NOSIG
2026-04-10 21:50:00,METAR LIRN 102150Z 04001KT CAVOK 14/11 Q1016 NOSIG
2026-04-10 21:20:00,METAR LIRN 102120Z 11002KT CAVOK 15/11 Q1016 NOSIG
2026-04-10 20:50:00,METAR LIRN 102050Z VRB02KT CAVOK 15/11 Q1016 NOSIG
2026-04-10 20:20:00,METAR LIRN 102020Z VRB02KT CAVOK 15/11 Q1016 NOSIG
2026-04-10 19:50:00,METAR LIRN 101950Z VRB04KT CAVOK 15/11 Q1016 NOSIG
2026-04-10 19:20:00,METAR LIRN 101920Z 18003KT CAVOK 15/12 Q1016 NOSIG
2026-04-10 18:50:00,METAR LIRN 101850Z 19004KT CAVOK 16/11 Q1016 NOSIG
2026-04-10 18:20:00,METAR LIRN 101820Z VRB03KT CAVOK 17/11 Q1015 NOSIG
2026-04-10 17:50:00,METAR LIRN 101750Z VRB02KT CAVOK 17/10 Q1015 NOSIG
2026-04-10 17:20:00,METAR LIRN 101720Z VRB04KT CAVOK 17/11 Q1015 NOSIG
2026-04-10 16:50:00,METAR LIRN 101650Z 19005KT 130V230 CAVOK 17/10 Q1015 NOSIG
2026-04-10 16:20:00,METAR LIRN 101620Z 19004KT 160V240 CAVOK 18/09 Q1015 NOSIG
2026-04-10 15:50:00,METAR LIRN 101550Z 20005KT 150V260 CAVOK 19/08 Q1015 NOSIG
2026-04-10 15:20:00,METAR LIRN 101520Z 19007KT 160V220 CAVOK 19/10 Q1015 NOSIG
2026-04-10 14:50:00,METAR LIRN 101450Z 19006KT 160V220 CAVOK 19/10 Q1015 NOSIG
2026-04-10 14:20:00,METAR LIRN 101420Z 20008KT 130V230 CAVOK 19/10 Q1015 NOSIG
2026-04-10 13:50:00,METAR LIRN 101350Z 21007KT 160V240 CAVOK 19/10 Q1016 NOSIG
2026-04-10 13:20:00,METAR LIRN 101320Z 21008KT 170V240 CAVOK 19/12 Q1016 NOSIG
2026-04-10 12:50:00,METAR LIRN 101250Z 21010KT CAVOK 19/10 Q1016 NOSIG
2026-04-10 12:20:00,METAR LIRN 101220Z 20008KT 170V230 CAVOK 20/10 Q1016 NOSIG
2026-04-10 11:50:00,METAR LIRN 101150Z 21008KT 170V240 CAVOK 20/11 Q1016 NOSIG
2026-04-10 11:20:00,METAR LIRN 101120Z VRB06KT CAVOK 19/11 Q1016 NOSIG
2026-04-10 10:50:00,METAR LIRN 101050Z 19006KT 120V250 CAVOK 19/10 Q1017 NOSIG
2026-04-10 10:20:00,METAR LIRN 101020Z 21005KT 160V280 9999 FEW040 19/11 Q1017 NOSIG
2026-04-10 09:50:00,METAR LIRN 100950Z 19006KT 150V230 9999 FEW040 18/11 Q1017 NOSIG
2026-04-10 09:20:00,METAR LIRN 100920Z 20006KT 150V240 9999 SCT040 18/11 Q1017 NOSIG
2026-04-10 08:50:00,METAR LIRN 100850Z 21006KT 150V240 9999 SCT040 18/11 Q1017 NOSIG
2026-04-10 08:20:00,METAR LIRN 100820Z 19004KT 100V240 9999 SCT030 17/11 Q1017 NOSIG
2026-04-10 07:50:00,METAR LIRN 100750Z VRB01KT CAVOK 17/11 Q1017 NOSIG
2026-04-10 07:20:00,METAR LIRN 100720Z VRB01KT CAVOK 17/11 Q1017 NOSIG
2026-04-10 06:50:00,METAR LIRN 100650Z VRB03G14KT CAVOK 16/11 Q1016 NOSIG
2026-04-10 06:20:00,METAR LIRN 100620Z VRB02KT CAVOK 14/11 Q1016 NOSIG
2026-04-10 05:50:00,METAR LIRN 100550Z 04002KT CAVOK 13/10 Q1016 NOSIG
2026-04-10 05:20:00,METAR LIRN 100520Z 05004G16KT 330V100 CAVOK 13/10 Q1016 NOSIG
2026-04-10 04:50:00,METAR LIRN 100450Z VRB02KT 7000 NSC 12/10 Q1016 NOSIG
2026-04-10 04:20:00,METAR LIRN 100420Z VRB01KT 7000 NSC 11/10 Q1016 NOSIG
2026-04-10 03:50:00,METAR LIRN 100350Z AUTO 35001KT 9999 NCD 10/09 Q1016
2026-04-10 03:20:00,METAR LIRN 100320Z AUTO 35002KT 9999 NCD 10/09 Q1016
2026-04-10 02:50:00,METAR LIRN 100250Z AUTO VRB01KT 9999 NCD 10/09 Q1016
2026-04-10 02:20:00,METAR LIRN 100220Z AUTO 05002KT 9999 NCD 11/10 Q1016
2026-04-10 01:50:00,METAR LIRN 100150Z AUTO 06003KT 9999 FEW018/// 12/11 Q1016
2026-04-10 01:20:00,METAR LIRN 100120Z AUTO 08002KT 9999 BKN018/// 12/11 Q1017
2026-04-10 00:50:00,METAR LIRN 100050Z AUTO 06002KT 9999 NCD 12/11 Q1017
2026-04-10 00:20:00,METAR LIRN 100020Z AUTO VRB02KT 9999 NCD 12/12 Q1017
2026-04-09 23:50:00,METAR LIRN 092350Z AUTO VRB01KT 9999 NCD 13/12 Q1017
2026-04-09 23:20:00,METAR LIRN 092320Z AUTO VRB01KT 9999 NCD 13/12 Q1017
2026-04-09 22:50:00,METAR LIRN 092250Z AUTO VRB02KT 9999 FEW012/// 14/12 Q1017
2026-04-09 22:20:00,METAR LIRN 092220Z AUTO VRB01KT 9999 SCT012/// 14/13 Q1017
2026-04-09 21:50:00,METAR LIRN 092150Z AUTO 13002KT 9999 FEW010/// 14/13 Q1017
2026-04-09 21:20:00,METAR LIRN 092120Z AUTO VRB02KT 9999 NCD 14/13 Q1017
2026-04-09 20:50:00,METAR LIRN 092050Z VRB03KT 9999 SCT015 15/13 Q1017 NOSIG
2026-04-09 20:20:00,METAR LIRN 092020Z VRB03KT 9999 SCT020 14/13 Q1017 NOSIG
2026-04-09 19:50:00,METAR LIRN 091950Z 18003KT 150V220 9999 SCT015 15/13 Q1017 NOSIG
2026-04-09 19:20:00,METAR LIRN 091920Z VRB04KT 9999 SCT015 15/13 Q1017 NOSIG
2026-04-09 18:50:00,METAR LIRN 091850Z 19004KT 150V230 9999 SCT015 15/13 Q1017 NOSIG
2026-04-09 18:20:00,METAR LIRN 091820Z 20004KT 160V330 9999 SCT020 15/13 Q1016 NOSIG
2026-04-09 17:50:00,METAR LIRN 091750Z 19005KT 150V210 9999 FEW020 15/13 Q1016 NOSIG
2026-04-09 17:20:00,METAR LIRN 091720Z 19006KT 150V210 9999 FEW020 16/13 Q1016 NOSIG
2026-04-09 16:50:00,METAR LIRN 091650Z 19007KT 140V210 9999 FEW020 16/13 Q1016 NOSIG
2026-04-09 16:20:00,METAR LIRN 091620Z 19007KT 160V230 9999 FEW025 17/13 Q1016 NOSIG
2026-04-09 15:50:00,METAR LIRN 091550Z 19008KT 160V220 9999 FEW030 17/12 Q1016 NOSIG
2026-04-09 15:20:00,METAR LIRN 091520Z 19008KT 170V230 CAVOK 17/13 Q1016 NOSIG
2026-04-09 14:50:00,METAR LIRN 091450Z 19008KT 170V230 CAVOK 17/13 Q1017 NOSIG
2026-04-09 14:20:00,METAR LIRN 091420Z 19009KT 170V230 CAVOK 17/12 Q1017 NOSIG
2026-04-09 13:50:00,METAR LIRN 091350Z 19009KT 070V230 CAVOK 17/13 Q1017 NOSIG
2026-04-09 13:20:00,METAR LIRN 091320Z 19009KT 150V230 CAVOK 18/12 Q1017 NOSIG
2026-04-09 12:50:00,METAR LIRN 091250Z 19007KT 150V230 CAVOK 19/12 Q1017 NOSIG
2026-04-09 12:20:00,METAR LIRN 091220Z 18009KT 120V210 CAVOK 18/11 Q1017 NOSIG
2026-04-09 11:50:00,METAR LIRN 091150Z 19008KT 110V230 CAVOK 18/10 Q1018 NOSIG
2026-04-09 11:20:00,METAR LIRN 091120Z 19008KT 150V220 CAVOK 18/10 Q1018 NOSIG
2026-04-09 10:50:00,METAR LIRN 091050Z 18006KT 120V210 CAVOK 18/10 Q1018 NOSIG
2026-04-09 10:20:00,METAR LIRN 091020Z 19006KT 130V230 CAVOK 18/10 Q1018 NOSIG
2026-04-09 09:50:00,METAR LIRN 090950Z VRB05KT 9999 FEW020 19/11 Q1018 NOSIG
2026-04-09 09:20:00,METAR LIRN 090920Z VRB05G16KT 9999 FEW020 18/11 Q1018 NOSIG
2026-04-09 08:50:00,METAR LIRN 090850Z VRB03KT 9999 FEW020 18/12 Q1018 NOSIG
2026-04-09 08:20:00,METAR LIRN 090820Z VRB03KT 7000 FEW020 19/11 Q1018 NOSIG
2026-04-09 07:50:00,METAR LIRN 090750Z VRB02KT 7000 FEW015 16/12 Q1018 NOSIG
2026-04-09 07:20:00,METAR LIRN 090720Z VRB05G17KT 6000 FEW015 16/11 Q1018 NOSIG
2026-04-09 06:50:00,METAR LIRN 090650Z VRB03KT 5000 BR FEW015 15/11 Q1018 NOSIG
2026-04-09 06:20:00,METAR LIRN 090620Z 01004KT 330V050 6000 FEW015 13/09 Q1019 NOSIG
2026-04-09 05:50:00,METAR LIRN 090550Z VRB03KT 6000 FEW015 14/10 Q1018 NOSIG
2026-04-09 05:20:00,METAR LIRN 090520Z 03003G13KT 330V070 7000 NSC 12/09 Q1018 NOSIG
2026-04-09 04:50:00,METAR LIRN 090450Z 04004G15KT 320V070 3000 BR FEW010 12/10 Q1018 NOSIG
2026-04-09 04:20:00,METAR LIRN 090420Z 01003KT 310V070 5000 BR NSC 11/10 Q1018 NOSIG
2026-04-09 03:50:00,METAR LIRN 090350Z VRB01KT 7000 NSC 10/08 Q1018 NOSIG
2026-04-09 03:20:00,METAR LIRN 090320Z VRB01KT 9999 SCT020 11/09 Q1018 NOSIG
2026-04-09 02:50:00,METAR LIRN 090250Z VRB01KT 9999 SCT010 11/09 Q1018 NOSIG
2026-04-09 02:20:00,METAR LIRN 090220Z VRB02KT 9999 SCT010 12/10 Q1019 NOSIG
2026-04-09 01:50:00,METAR LIRN 090150Z VRB01KT 9999 SCT010 12/10 Q1019 NOSIG
2026-04-09 01:20:00,METAR LIRN 090120Z VRB01KT 8000 SCT010 12/10 Q1019 NOSIG
2026-04-09 00:50:00,METAR LIRN 090050Z VRB02KT 8000 SCT010 12/11 Q1019 NOSIG
2026-04-09 00:20:00,METAR LIRN 090020Z VRB01KT 9999 SCT010 12/12 Q1019 NOSIG
2026-04-08 23:50:00,METAR LIRN 082350Z VRB01KT 9999 FEW010 12/11 Q1019 NOSIG
2026-04-08 23:20:00,METAR LIRN 082320Z VRB01KT CAVOK 12/11 Q1019 NOSIG
2026-04-08 22:50:00,METAR LIRN 082250Z VRB01KT CAVOK 12/11 Q1019 NOSIG
2026-04-08 22:20:00,METAR LIRN 082220Z 08002KT CAVOK 13/11 Q1020 NOSIG
2026-04-08 21:50:00,METAR LIRN 082150Z VRB01KT CAVOK 13/12 Q1020 NOSIG
2026-04-08 21:20:00,METAR LIRN 082120Z 21003KT CAVOK 14/12 Q1020 NOSIG
2026-04-08 20:50:00,METAR LIRN 082050Z 16002KT CAVOK 15/12 Q1020 NOSIG
2026-04-08 20:20:00,METAR LIRN 082020Z 17003KT 040V200 CAVOK 15/12 Q1020 NOSIG
2026-04-08 19:50:00,METAR LIRN 081950Z VRB02KT CAVOK 15/12 Q1020 NOSIG
2026-04-08 19:20:00,METAR LIRN 081920Z 19003KT CAVOK 15/12 Q1020 NOSIG
2026-04-08 18:50:00,METAR LIRN 081850Z VRB03KT CAVOK 15/12 Q1020 NOSIG
2026-04-08 18:20:00,METAR LIRN 081820Z VRB03KT CAVOK 16/12 Q1019 NOSIG
2026-04-08 17:50:00,METAR LIRN 081750Z VRB03KT CAVOK 16/11 Q1019 NOSIG
2026-04-08 17:20:00,METAR LIRN 081720Z 19003KT 150V220 CAVOK 17/11 Q1019 NOSIG
2026-04-08 16:50:00,METAR LIRN 081650Z 22006KT CAVOK 17/11 Q1019 NOSIG
2026-04-08 16:20:00,METAR LIRN 081620Z 20007KT 160V230 CAVOK 17/12 Q1019 NOSIG
2026-04-08 15:50:00,METAR LIRN 081550Z 18007KT 140V220 CAVOK 18/12 Q1019 NOSIG
2026-04-08 15:20:00,METAR LIRN 081520Z 18006KT 120V240 CAVOK 19/12 Q1019 NOSIG
2026-04-08 14:50:00,METAR LIRN 081450Z 18007KT 130V260 CAVOK 19/11 Q1019 NOSIG
2026-04-08 14:20:00,METAR LIRN 081420Z 18008KT 150V210 CAVOK 18/10 Q1020 NOSIG
2026-04-08 13:50:00,METAR LIRN 081350Z 18005KT 150V230 CAVOK 19/11 Q1020 NOSIG
2026-04-08 13:20:00,METAR LIRN 081320Z 19008KT 140V230 CAVOK 19/11 Q1020 NOSIG
2026-04-08 12:50:00,METAR LIRN 081250Z 17006KT 130V220 CAVOK 19/11 Q1021 NOSIG
2026-04-08 12:20:00,METAR LIRN 081220Z 18006KT 050V220 CAVOK 19/11 Q1021 NOSIG
2026-04-08 11:50:00,METAR LIRN 081150Z 19007KT 160V240 CAVOK 19/11 Q1021 NOSIG
2026-04-08 11:20:00,METAR LIRN 081120Z 18006KT 100V250 CAVOK 18/11 Q1021 NOSIG
2026-04-08 10:50:00,METAR LIRN 081050Z 20005KT 140V240 CAVOK 18/11 Q1021 NOSIG
2026-04-08 10:20:00,METAR LIRN 081020Z 20005KT 140V300 CAVOK 18/11 Q1021 NOSIG
2026-04-08 09:50:00,METAR LIRN 080950Z VRB03KT 9999 FEW030 17/11 Q1022 NOSIG
2026-04-08 09:20:00,METAR LIRN 080920Z 23003KT 150V310 9999 FEW025 17/12 Q1022 NOSIG
2026-04-08 08:50:00,METAR LIRN 080850Z VRB03G16KT 9999 FEW025 17/10 Q1022 NOSIG
2026-04-08 08:20:00,METAR LIRN 080820Z VRB02KT 9999 SCT030 16/10 Q1022 NOSIG
2026-04-08 07:50:00,METAR LIRN 080750Z VRB03KT 9000 SCT030 16/11 Q1022 NOSIG
2026-04-08 07:20:00,METAR LIRN 080720Z VRB06KT 9000 SCT030 17/11 Q1022 NOSIG
2026-04-08 06:50:00,METAR LIRN 080650Z 09003KT 050V120 9000 FEW035 15/11 Q1022 NOSIG
2026-04-08 06:20:00,METAR LIRN 080620Z VRB02KT 8000 NSC 14/11 Q1022 NOSIG
2026-04-08 05:50:00,METAR LIRN 080550Z VRB01KT 8000 NSC 13/11 Q1022 NOSIG
2026-04-08 05:20:00,METAR LIRN 080520Z VRB01KT 8000 NSC 12/09 Q1022 NOSIG
2026-04-08 04:50:00,METAR LIRN 080450Z VRB02KT 8000 NSC 11/10 Q1022 NOSIG
2026-04-08 04:20:00,METAR LIRN 080420Z VRB01KT 8000 NSC 09/09 Q1022 NOSIG
2026-04-08 03:50:00,METAR LIRN 080350Z VRB01KT CAVOK 09/09 Q1022 NOSIG
2026-04-08 03:20:00,METAR LIRN 080320Z 01001KT CAVOK 09/09 Q1022 NOSIG
2026-04-08 02:50:00,METAR LIRN 080250Z VRB01KT CAVOK 09/09 Q1022 NOSIG
2026-04-08 02:20:00,METAR LIRN 080220Z VRB01KT CAVOK 10/09 Q1022 NOSIG
2026-04-08 01:50:00,METAR LIRN 080150Z 04002KT CAVOK 11/10 Q1022 NOSIG
2026-04-08 01:20:00,METAR LIRN 080120Z 04002KT CAVOK 11/10 Q1022 NOSIG
2026-04-08 00:50:00,METAR LIRN 080050Z 04002KT CAVOK 11/11 Q1023 NOSIG
2026-04-08 00:20:00,METAR LIRN 080020Z 25003KT CAVOK 11/10 Q1029 NOSIG
2026-04-07 23:50:00,METAR LIRN 072350Z 20004KT CAVOK 13/12 Q1023 NOSIG
2026-04-07 23:20:00,METAR LIRN 072320Z 19002KT CAVOK 13/12 Q1023 NOSIG
2026-04-07 22:50:00,METAR LIRN 072250Z 19002KT CAVOK 13/12 Q1023 NOSIG
2026-04-07 22:20:00,METAR LIRN 072220Z 18002KT CAVOK 13/12 Q1023 NOSIG
2026-04-07 21:50:00,METAR LIRN 072150Z VRB02KT CAVOK 13/12 Q1023 NOSIG
2026-04-07 21:20:00,METAR LIRN 072120Z 20003KT 130V220 CAVOK 13/12 Q1023 NOSIG
2026-04-07 20:50:00,METAR LIRN 072050Z VRB02KT 9999 FEW010 14/12 Q1023 NOSIG
2026-04-07 20:20:00,METAR LIRN 072020Z VRB04G16KT 9999 FEW010 15/12 Q1023 NOSIG
2026-04-07 19:50:00,METAR LIRN 071950Z VRB02KT 9999 SCT015 14/12 Q1023 NOSIG
2026-04-07 19:20:00,METAR LIRN 071920Z VRB04G14KT 9999 SCT015 14/12 Q1023 NOSIG
2026-04-07 18:50:00,METAR LIRN 071850Z VRB03KT 9999 FEW020 14/13 Q1023 NOSIG
2026-04-07 18:20:00,METAR LIRN 071820Z 18003KT 140V210 9999 FEW020 14/13 Q1023 NOSIG
2026-04-07 17:50:00,METAR LIRN 071750Z VRB04KT 9999 FEW020 15/13 Q1023 NOSIG
2026-04-07 17:20:00,METAR LIRN 071720Z 19005KT 150V210 9999 FEW020 15/12 Q1023 NOSIG
2026-04-07 16:50:00,METAR LIRN 071650Z 19007KT CAVOK 15/12 Q1023 NOSIG
2026-04-07 16:20:00,METAR LIRN 071620Z 19007KT CAVOK 16/12 Q1023 NOSIG
2026-04-07 15:50:00,METAR LIRN 071550Z 19008KT 160V230 CAVOK 16/12 Q1023 NOSIG
2026-04-07 15:20:00,METAR LIRN 071520Z 19009KT CAVOK 17/11 Q1023 NOSIG
2026-04-07 14:50:00,METAR LIRN 071450Z 19008KT 160V230 CAVOK 17/11 Q1023 NOSIG
2026-04-07 14:20:00,METAR LIRN 071420Z 19008KT 160V220 9999 FEW020 17/12 Q1023 NOSIG
2026-04-07 13:50:00,METAR LIRN 071350Z 19008KT 160V220 CAVOK 17/13 Q1024 NOSIG
2026-04-07 13:20:00,METAR LIRN 071320Z 19008KT 160V220 CAVOK 18/12 Q1024 NOSIG
2026-04-07 12:50:00,METAR LIRN 071250Z 19008KT 160V220 9999 FEW020 18/12 Q1024 NOSIG
2026-04-07 12:20:00,METAR LIRN 071220Z 19008KT 160V230 9999 FEW020 18/11 Q1024 NOSIG
2026-04-07 11:50:00,METAR LIRN 071150Z VRB08KT 9999 FEW020 18/12 Q1025 NOSIG
2026-04-07 11:20:00,METAR LIRN 071120Z 21008KT 9999 FEW030 18/11 Q1025 NOSIG
2026-04-07 10:50:00,METAR LIRN 071050Z 20006KT 130V240 9999 FEW030 18/11 Q1025 NOSIG
2026-04-07 10:20:00,METAR LIRN 071020Z 20006KT 150V230 9999 FEW030 17/10 Q1025 NOSIG
2026-04-07 09:50:00,METAR LIRN 070950Z 18005KT 130V230 9999 FEW020 17/10 Q1026 NOSIG
2026-04-07 09:20:00,METAR LIRN 070920Z 20004KT 140V270 9999 FEW020 18/11 Q1026 NOSIG
2026-04-07 08:50:00,METAR LIRN 070850Z 25005KT 180V320 9999 SCT020 17/11 Q1026 NOSIG
2026-04-07 08:20:00,METAR LIRN 070820Z 24004KT 160V270 9999 SCT020 17/11 Q1026 NOSIG
2026-04-07 07:50:00,METAR LIRN 070750Z VRB03KT 9999 SCT020 16/10 Q1026 NOSIG
2026-04-07 07:20:00,METAR LIRN 070720Z 07004KT 320V110 9999 SCT020 16/11 Q1025 NOSIG
2026-04-07 06:50:00,METAR LIRN 070650Z VRB04G15KT 9999 SCT020 16/10 Q1025 NOSIG
2026-04-07 06:20:00,METAR LIRN 070620Z 07003KT 320V090 8000 FEW015 SCT030 14/11 Q1025 NOSIG
2026-04-07 05:50:00,METAR LIRN 070550Z 06002KT 8000 FEW015 SCT030 13/11 Q1025 NOSIG
2026-04-07 05:20:00,METAR LIRN 070520Z VRB02KT 8000 FEW015 SCT030 14/10 Q1025 NOSIG
2026-04-07 04:50:00,METAR LIRN 070450Z VRB02KT 8000 BKN015 14/10 Q1025 NOSIG
2026-04-07 04:20:00,METAR LIRN 070420Z VRB01KT 9999 BKN015 12/10 Q1025 NOSIG
2026-04-07 03:50:00,METAR LIRN 070350Z 00000KT 9999 BKN015 13/11 Q1025 NOSIG
2026-04-07 03:20:00,METAR LIRN 070320Z 07001KT 9999 BKN015 13/11 Q1025 NOSIG
2026-04-07 02:50:00,METAR LIRN 070250Z 06002KT 9999 BKN015 13/11 Q1025 NOSIG
2026-04-07 02:20:00,METAR LIRN 070220Z VRB02KT 9999 BKN015 14/11 Q1025 NOSIG
2026-04-07 01:50:00,METAR LIRN 070150Z 16004KT 9999 BKN015 14/12 Q1025 NOSIG
2026-04-07 01:20:00,METAR LIRN 070120Z VRB02KT 8000 BKN010 14/11 Q1025 NOSIG
2026-04-07 00:50:00,METAR LIRN 070050Z 20003KT 170V230 8000 BKN080 14/11 Q1025 NOSIG
2026-04-07 00:20:00,METAR LIRN 070020Z 21003KT 180V240 8000 BKN010 14/12 Q1025 NOSIG
2026-04-06 23:50:00,METAR LIRN 062350Z 21004KT 160V240 8000 BKN010 14/12 Q1025 NOSIG
2026-04-06 23:20:00,METAR LIRN 062320Z 20004KT 170V240 8000 BKN010 14/12 Q1025 NOSIG
2026-04-06 22:50:00,METAR LIRN 062250Z 20004KT 180V240 8000 BKN010 14/12 Q1025 NOSIG
2026-04-06 22:20:00,METAR LIRN 062220Z 21005KT 180V240 8000 BKN010 14/12 Q1025 NOSIG
2026-04-06 21:50:00,METAR LIRN 062150Z 21004KT 180V240 8000 BKN010 14/13 Q1025 NOSIG
2026-04-06 21:20:00,METAR LIRN 062120Z 20004KT 8000 BKN010 14/13 Q1025 NOSIG
2026-04-06 20:50:00,METAR LIRN 062050Z 19004KT 170V230 8000 BKN010 14/13 Q1025 NOSIG
2026-04-06 20:20:00,METAR LIRN 062020Z 18004KT 130V210 8000 SCT010 14/13 Q1025 NOSIG
2026-04-06 19:50:00,METAR LIRN 061950Z VRB04KT CAVOK 15/13 Q1025 NOSIG
2026-04-06 19:20:00,METAR LIRN 061920Z 19005KT CAVOK 14/13 Q1025 NOSIG
2026-04-06 18:50:00,METAR LIRN 061850Z 19005KT CAVOK 14/13 Q1025 NOSIG
2026-04-06 18:20:00,METAR LIRN 061820Z VRB05KT CAVOK 14/13 Q1024 NOSIG
2026-04-06 17:50:00,METAR LIRN 061750Z 19004KT 150V230 CAVOK 15/13 Q1024 NOSIG
2026-04-06 17:20:00,METAR LIRN 061720Z 19006KT 170V340 CAVOK 15/13 Q1024 NOSIG
2026-04-06 16:50:00,METAR LIRN 061650Z 19008KT CAVOK 16/13 Q1024 NOSIG
2026-04-06 16:20:00,METAR LIRN 061620Z 19007KT CAVOK 16/13 Q1024 NOSIG
2026-04-06 15:50:00,METAR LIRN 061550Z 19008KT 150V230 CAVOK 16/13 Q1024 NOSIG
2026-04-06 14:50:00,METAR LIRN 061450Z 19008KT 160V220 CAVOK 17/13 Q1024 NOSIG
2026-04-06 14:20:00,METAR LIRN 061420Z 19008KT CAVOK 17/12 Q1024 NOSIG
2026-04-06 13:50:00,METAR LIRN 061350Z 19008KT 150V220 CAVOK 17/12 Q1024 NOSIG
2026-04-06 13:20:00,METAR LIRN 061320Z VRB07KT CAVOK 18/12 Q1025 NOSIG
2026-04-06 12:50:00,METAR LIRN 061250Z 19008KT 160V230 CAVOK 18/10 Q1025 NOSIG
2026-04-06 12:20:00,METAR LIRN 061220Z 19006KT 130V220 CAVOK 18/10 Q1025 NOSIG
2026-04-06 11:50:00,METAR LIRN 061150Z 18007KT 130V220 CAVOK 18/09 Q1026 NOSIG
2026-04-06 11:20:00,METAR LIRN 061120Z 20008KT 160V230 CAVOK 18/10 Q1026 NOSIG
2026-04-06 10:50:00,METAR LIRN 061050Z 19007KT 150V230 CAVOK 18/10 Q1026 NOSIG
2026-04-06 10:20:00,METAR LIRN 061020Z 19006KT 130V240 CAVOK 18/09 Q1026 NOSIG
2026-04-06 09:50:00,METAR LIRN 060950Z 18006KT 120V240 CAVOK 18/08 Q1026 NOSIG
2026-04-06 09:20:00,METAR LIRN 060920Z 20005KT 150V260 CAVOK 17/09 Q1026 NOSIG
2026-04-06 08:50:00,METAR LIRN 060850Z 20006KT 140V240 CAVOK 17/10 Q1026 NOSIG
2026-04-06 08:20:00,METAR LIRN 060820Z VRB06KT CAVOK 17/10 Q1026 NOSIG
2026-04-06 07:50:00,METAR LIRN 060750Z 21004KT 150V240 CAVOK 16/10 Q1026 NOSIG
2026-04-06 07:20:00,METAR LIRN 060720Z 19003KT 140V260 CAVOK 16/10 Q1026 NOSIG
2026-04-06 06:50:00,METAR LIRN 060650Z VRB03KT CAVOK 15/09 Q1026 NOSIG
2026-04-06 06:20:00,METAR LIRN 060620Z VRB01KT CAVOK 14/09 Q1026 NOSIG
2026-04-06 05:50:00,METAR LIRN 060550Z VRB04G19KT CAVOK 13/07 Q1026 NOSIG
2026-04-06 05:20:00,METAR LIRN 060520Z VRB02KT CAVOK 11/06 Q1025 NOSIG
2026-04-06 04:50:00,METAR LIRN 060450Z VRB04KT CAVOK 12/05 Q1025 NOSIG
2026-04-06 04:20:00,METAR LIRN 060420Z 10002KT CAVOK 10/05 Q1025 NOSIG
2026-04-06 03:50:00,METAR LIRN 060350Z 18002KT CAVOK 11/06 Q1025 NOSIG
2026-04-06 03:20:00,METAR LIRN 060320Z VRB02KT CAVOK 09/04 Q1025 NOSIG
2026-04-06 02:50:00,METAR LIRN 060250Z 15002KT CAVOK 10/04 Q1025 NOSIG
2026-04-06 02:20:00,METAR LIRN 060220Z VRB01KT CAVOK 10/05 Q1025 NOSIG
2026-04-06 01:50:00,METAR LIRN 060150Z 17003KT 140V200 CAVOK 12/07 Q1025 NOSIG
2026-04-06 01:20:00,METAR LIRN 060120Z VRB01KT CAVOK 10/05 Q1025 NOSIG
2026-04-06 00:50:00,METAR LIRN 060050Z 24003KT 180V250 CAVOK 11/06 Q1025 NOSIG
2026-04-06 00:20:00,METAR LIRN 060020Z VRB01KT CAVOK 11/05 Q1025 NOSIG
2026-04-05 23:50:00,METAR LIRN 052350Z VRB01KT CAVOK 12/05 Q1025 NOSIG
2026-04-05 23:20:00,METAR LIRN 052320Z VRB02KT CAVOK 11/05 Q1025 NOSIG
2026-04-05 22:50:00,METAR LIRN 052250Z 23003KT 200V260 CAVOK 12/05 Q1025 NOSIG
2026-04-05 22:20:00,METAR LIRN 052220Z 24004KT CAVOK 12/04 Q1025 NOSIG
2026-04-05 21:50:00,METAR LIRN 052150Z 24003KT CAVOK 12/04 Q1025 NOSIG
2026-04-05 21:20:00,METAR LIRN 052120Z VRB02KT CAVOK 14/03 Q1025 NOSIG
2026-04-05 20:50:00,METAR LIRN 052050Z 06004KT 330V110 CAVOK 17/05 Q1025 NOSIG
2026-04-05 20:20:00,METAR LIRN 052020Z VRB01KT CAVOK 15/03 Q1025 NOSIG
2026-04-05 19:50:00,METAR LIRN 051950Z 33003KT 290V050 CAVOK 18/02 Q1025 NOSIG
2026-04-05 19:20:00,METAR LIRN 051920Z VRB02KT CAVOK 16/03 Q1025 NOSIG
2026-04-05 18:50:00,METAR LIRN 051850Z 27004KT CAVOK 16/03 Q1025 NOSIG
2026-04-05 18:20:00,METAR LIRN 051820Z 25003KT 220V340 CAVOK 15/04 Q1025 NOSIG
2026-04-05 17:50:00,METAR LIRN 051750Z 26005KT 200V340 CAVOK 16/04 Q1024 NOSIG
2026-04-05 17:20:00,METAR LIRN 051720Z 28005KT 240V300 CAVOK 17/04 Q1024 NOSIG
2026-04-05 16:50:00,METAR LIRN 051650Z 29009KT CAVOK 18/03 Q1024 NOSIG
2026-04-05 16:20:00,METAR LIRN 051620Z 30008KT CAVOK 19/03 Q1024 NOSIG
2026-04-05 15:50:00,METAR LIRN 051550Z 28007KT 250V330 CAVOK 20/03 Q1024 NOSIG
2026-04-05 15:20:00,METAR LIRN 051520Z 28007KT 250V320 CAVOK 20/04 Q1024 NOSIG
2026-04-05 14:50:00,METAR LIRN 051450Z 29008KT 260V320 CAVOK 20/04 Q1024 NOSIG
2026-04-05 12:50:00,METAR LIRN 051250Z VRB05KT CAVOK 21/04 Q1024 NOSIG
2026-04-05 12:20:00,METAR LIRN 051220Z VRB05KT CAVOK 21/05 Q1024 NOSIG
2026-04-05 11:50:00,METAR LIRN 051150Z 16005KT 070V210 CAVOK 20/03 Q1024 NOSIG
2026-04-05 11:20:00,METAR LIRN 051120Z VRB05KT CAVOK 21/03 Q1024 NOSIG
2026-04-05 10:50:00,METAR LIRN 051050Z 17005KT 110V220 CAVOK 21/02 Q1024 NOSIG
2026-04-05 10:20:00,METAR LIRN 051020Z 17004KT 090V240 CAVOK 20/02 Q1025 NOSIG
2026-04-05 09:50:00,METAR LIRN 050950Z VRB05KT CAVOK 19/03 Q1025 NOSIG
2026-04-05 09:20:00,METAR LIRN 050920Z 19005KT 130V220 CAVOK 19/03 Q1024 NOSIG
2026-04-05 08:50:00,METAR LIRN 050850Z 08003KT 020V120 CAVOK 19/03 Q1024 NOSIG
2026-04-05 08:20:00,METAR LIRN 050820Z VRB03KT CAVOK 18/02 Q1024 NOSIG
2026-04-05 07:50:00,METAR LIRN 050750Z 32003KT 240V030 CAVOK 17/03 Q1024 NOSIG
2026-04-05 07:20:00,METAR LIRN 050720Z 04003KT 350V100 CAVOK 16/03 Q1024 NOSIG
2026-04-05 06:50:00,METAR LIRN 050650Z 36003KT 260V040 CAVOK 15/02 Q1023 NOSIG
2026-04-05 06:20:00,METAR LIRN 050620Z 35004KT 230V020 CAVOK 13/01 Q1023 NOSIG
2026-04-05 05:50:00,METAR LIRN 050550Z 34003KT CAVOK 11/01 Q1023 NOSIG
2026-04-05 05:20:00,METAR LIRN 050520Z 31003KT 240V350 CAVOK 10/01 Q1023 NOSIG
2026-04-05 04:50:00,METAR LIRN 050450Z 31003KT CAVOK 08/01 Q1023 NOSIG
2026-04-05 04:20:00,METAR LIRN 050420Z VRB01KT CAVOK 10/M00 Q1023 NOSIG
2026-04-05 03:50:00,METAR LIRN 050350Z 02005KT CAVOK 09/M00 Q1023 NOSIG
2026-04-05 03:20:00,METAR LIRN 050320Z 33004KT CAVOK 09/M00 Q1023 NOSIG
2026-04-05 02:50:00,METAR LIRN 050250Z VRB02KT CAVOK 12/M02 Q1022 NOSIG
2026-04-05 02:20:00,METAR LIRN 050220Z 26003KT 210V320 CAVOK 10/M01 Q1022 NOSIG
2026-04-05 01:50:00,METAR LIRN 050150Z 04008KT CAVOK 11/M01 Q1022 NOSIG
2026-04-05 01:20:00,METAR LIRN 050120Z 05007KT CAVOK 12/M01 Q1022 NOSIG
2026-04-05 00:50:00,METAR LIRN 050050Z 06007KT CAVOK 13/M01 Q1022 NOSIG
2026-04-05 00:20:00,METAR LIRN 050020Z VRB02KT CAVOK 10/00 Q1022 NOSIG
2026-04-04 23:50:00,METAR LIRN 042350Z VRB01KT CAVOK 11/00 Q1022 NOSIG
2026-04-04 22:50:00,METAR LIRN 042250Z 20003KT 170V230 CAVOK 13/00 Q1022 NOSIG
2026-04-04 22:20:00,METAR LIRN 042220Z 04006KT CAVOK 13/01 Q1022 NOSIG
2026-04-04 21:50:00,METAR LIRN 042150Z 09004KT 060V120 CAVOK 15/01 Q1022 NOSIG
2026-04-04 21:20:00,METAR LIRN 042120Z 07003KT CAVOK 14/03 Q1021 NOSIG
2026-04-04 20:50:00,METAR LIRN 042050Z VRB03G16KT CAVOK 14/05 Q1021 NOSIG
2026-04-04 20:20:00,METAR LIRN 042020Z VRB01KT CAVOK 14/09 Q1021 NOSIG
2026-04-04 19:50:00,METAR LIRN 041950Z 35005G16KT 290V080 CAVOK 15/09 Q1021 NOSIG
2026-04-04 19:20:00,METAR LIRN 041920Z 31004KT 280V340 CAVOK 14/09 Q1020 NOSIG
2026-04-04 18:50:00,METAR LIRN 041850Z 31004KT 290V350 CAVOK 15/09 Q1020 NOSIG
2026-04-04 18:20:00,METAR LIRN 041820Z 30007KT 270V330 CAVOK 16/08 Q1020 NOSIG
2026-04-04 17:50:00,METAR LIRN 041750Z 31007KT 280V340 CAVOK 16/08 Q1019 NOSIG
2026-04-04 17:20:00,METAR LIRN 041720Z 29010KT CAVOK 17/07 Q1019 NOSIG
2026-04-04 16:50:00,METAR LIRN 041650Z 31008KT CAVOK 18/07 Q1019 NOSIG
2026-04-04 16:20:00,METAR LIRN 041620Z 29010KT 260V350 CAVOK 19/07 Q1018 NOSIG
2026-04-04 15:50:00,METAR LIRN 041550Z 28011KT CAVOK 19/07 Q1018 NOSIG
2026-04-04 15:20:00,METAR LIRN 041520Z 28011KT 250V310 CAVOK 20/06 Q1018 NOSIG
2026-04-04 14:50:00,METAR LIRN 041450Z 28010KT CAVOK 20/07 Q1018 NOSIG
2026-04-04 14:20:00,METAR LIRN 041420Z 03005KT 310V100 CAVOK 21/01 Q1018 NOSIG
2026-04-04 13:50:00,METAR LIRN 041350Z 03006KT 300V070 CAVOK 21/03 Q1018 NOSIG
2026-04-04 13:20:00,METAR LIRN 041320Z 05009KT 350V090 CAVOK 21/01 Q1018 NOSIG
2026-04-04 12:50:00,METAR LIRN 041250Z 02009KT 350V060 CAVOK 21/00 Q1018 NOSIG
2026-04-04 12:20:00,METAR LIRN 041220Z 03008KT 360V080 CAVOK 21/02 Q1018 NOSIG
2026-04-04 11:50:00,METAR LIRN 041150Z 04010KT 010V070 CAVOK 20/01 Q1018 NOSIG
2026-04-04 11:20:00,METAR LIRN 041120Z 02004KT 320V080 CAVOK 20/01 Q1018 NOSIG
2026-04-04 10:50:00,METAR LIRN 041050Z 04006KT 350V070 CAVOK 20/03 Q1019 NOSIG
2026-04-04 10:20:00,METAR LIRN 041020Z VRB04KT CAVOK 19/03 Q1019 NOSIG
2026-04-04 09:50:00,METAR LIRN 040950Z VRB04KT CAVOK 19/03 Q1019 NOSIG
2026-04-04 09:20:00,METAR LIRN 040920Z VRB05KT CAVOK 18/03 Q1019 NOSIG
2026-04-04 08:50:00,METAR LIRN 040850Z 06004KT 350V140 CAVOK 17/03 Q1019 NOSIG
2026-04-04 08:20:00,METAR LIRN 040820Z 03006KT 290V070 CAVOK 17/02 Q1018 NOSIG
2026-04-04 07:50:00,METAR LIRN 040750Z 01004KT 340V040 CAVOK 16/03 Q1018 NOSIG
2026-04-04 07:20:00,METAR LIRN 040720Z 33004KT 250V350 CAVOK 15/02 Q1018 NOSIG
2026-04-04 06:50:00,METAR LIRN 040650Z 32004KT 250V360 CAVOK 14/02 Q1017 NOSIG
2026-04-04 06:20:00,METAR LIRN 040620Z 30004KT 220V020 CAVOK 12/05 Q1017 NOSIG
2026-04-04 05:50:00,METAR LIRN 040550Z VRB02KT 9999 FEW055 10/04 Q1017 NOSIG
2026-04-04 05:20:00,METAR LIRN 040520Z 28005KT 250V310 9999 FEW050 09/04 Q1016 NOSIG
2026-04-04 04:50:00,METAR LIRN 040450Z 28004KT 240V320 CAVOK 08/04 Q1016 NOSIG
2026-04-04 04:20:00,METAR LIRN 040420Z 27004KT CAVOK 06/04 Q1016 NOSIG
2026-04-04 03:50:00,METAR LIRN 040350Z VRB02KT CAVOK 07/02 Q1016 NOSIG
2026-04-04 03:20:00,METAR LIRN 040320Z 35002KT CAVOK 08/04 Q1016 NOSIG
2026-04-04 02:50:00,METAR LIRN 040250Z 29003KT CAVOK 08/04 Q1015 NOSIG
2026-04-04 02:20:00,METAR LIRN 040220Z 30003KT CAVOK 06/04 Q1015 NOSIG
2026-04-04 01:50:00,METAR LIRN 040150Z 27002KT CAVOK 08/04 Q1015 NOSIG
2026-04-04 01:20:00,METAR LIRN 040120Z 27004KT CAVOK 06/04 Q1015 NOSIG
2026-04-04 00:50:00,METAR LIRN 040050Z 32002KT CAVOK 07/04 Q1015 NOSIG
2026-04-04 00:20:00,METAR LIRN 040020Z VRB01KT CAVOK 10/04 Q1015 NOSIG
2026-04-03 23:50:00,METAR LIRN 032350Z VRB02KT CAVOK 11/04 Q1015 NOSIG
2026-04-03 23:20:00,METAR LIRN 032320Z 34005KT CAVOK 11/04 Q1015 NOSIG
2026-04-03 22:50:00,METAR LIRN 032250Z 33005KT CAVOK 11/04 Q1015 NOSIG
2026-04-03 22:20:00,METAR LIRN 032220Z 32004KT CAVOK 08/04 Q1014 NOSIG
2026-04-03 21:50:00,METAR LIRN 032150Z VRB02KT CAVOK 11/04 Q1014 NOSIG
2026-04-03 21:20:00,METAR LIRN 032120Z 34004KT CAVOK 10/04 Q1014 NOSIG
2026-04-03 20:50:00,METAR LIRN 032050Z AUTO 01003KT 250V050 9999 FEW150/// 12/04 Q1014
2026-04-03 20:20:00,METAR LIRN 032020Z AUTO VRB05KT 9999 SCT150/// 12/05 Q1013
2026-04-03 19:50:00,METAR LIRN 031950Z AUTO 02006KT 230V030 9999 BKN130/// 13/05 Q1013
2026-04-03 19:20:00,METAR LIRN 031920Z AUTO 35004KT 210V010 9999 SCT130/// 13/05 Q1013
2026-04-03 18:50:00,METAR LIRN 031850Z AUTO VRB03KT 9999 BKN120/// 13/05 Q1012
2026-04-03 18:20:00,METAR LIRN 031820Z AUTO 03005KT 9999 FEW120/// 12/05 Q1012
2026-04-03 17:50:00,METAR LIRN 031750Z AUTO 04006KT 360V060 9999 FEW120/// BKN140/// 13/06 Q1011
2026-04-03 17:20:00,METAR LIRN 031720Z AUTO 04007KT 9999 BKN140/// 14/06 Q1011
2026-04-03 16:50:00,METAR LIRN 031650Z AUTO 03008KT 350V060 9999 SCT140/// 15/06 Q1011
2026-04-03 16:20:00,METAR LIRN 031620Z AUTO 03008KT 290V060 9999 FEW051/// 15/06 Q1010
2026-04-03 15:50:00,METAR LIRN 031550Z AUTO 03010KT 9999 BKN170/// 16/06 Q1010
2026-04-03 15:20:00,METAR LIRN 031520Z AUTO 03010KT 330V040 9999 BKN056/// BKN150/// 15/06 Q1010
2026-04-03 14:50:00,METAR LIRN 031450Z AUTO 03012KT 9999 FEW058/// BKN140/// 16/06 Q1009
2026-04-03 14:20:00,METAR LIRN 031420Z AUTO VRB13KT 9999 SCT060/// BKN150/// 16/06 Q1009
2026-04-03 13:50:00,METAR LIRN 031350Z AUTO 02012KT 350V050 9999 BKN053/// 16/06 Q1009
2026-04-03 13:20:00,METAR LIRN 031320Z AUTO 01012KT 9999 OVC046/// 15/06 Q1009
2026-04-03 12:50:00,METAR LIRN 031250Z 02011KT 9999 BKN050 15/06 Q1009 NOSIG
2026-04-03 12:20:00,METAR LIRN 031220Z 02011KT 340V040 9999 BKN050 15/06 Q1009 NOSIG
2026-04-03 11:50:00,METAR LIRN 031150Z 01013KT 340V040 9999 BKN050 15/06 Q1008 NOSIG
2026-04-03 11:20:00,METAR LIRN 031120Z 03012KT 320V050 9999 BKN060 15/06 Q1008 NOSIG
2026-04-03 10:50:00,METAR LIRN 031050Z 02013KT 340V040 9999 BKN060 15/06 Q1008 NOSIG
2026-04-03 10:20:00,METAR LIRN 031020Z 02013KT 350V050 9999 FEW040 BKN065 15/07 Q1008 NOSIG
2026-04-03 09:50:00,METAR LIRN 030950Z 02014KT 320V040 9999 FEW040 BKN065 15/07 Q1007 NOSIG
2026-04-03 09:20:00,METAR LIRN 030920Z 02011KT 9999 FEW040 BKN065 14/07 Q1007 NOSIG
2026-04-03 08:50:00,METAR LIRN 030850Z 01009KT 9999 FEW040 BKN065 14/08 Q1007 NOSIG
2026-04-03 08:20:00,METAR LIRN 030820Z VRB04KT 9999 FEW040 BKN065 13/08 Q1006 NOSIG
2026-04-03 07:50:00,METAR LIRN 030750Z 33004KT 260V360 9999 FEW040 BKN065 13/08 Q1006 NOSIG
2026-04-03 07:20:00,METAR LIRN 030720Z 36003KT 270V020 9999 -RA FEW040 BKN065 12/08 Q1006 NOSIG
2026-04-03 06:50:00,METAR LIRN 030650Z VRB04KT 9999 -RA FEW040 BKN065 11/08 Q1005 NOSIG
2026-04-03 06:20:00,METAR LIRN 030620Z VRB04KT 9999 FEW040 BKN065 11/08 Q1005 NOSIG
2026-04-03 05:50:00,METAR LIRN 030550Z VRB02KT 9999 FEW040 BKN065 10/08 Q1004 NOSIG
2026-04-03 05:20:00,METAR LIRN 030520Z VRB02KT 9999 FEW030 SCT050 10/08 Q1004 NOSIG
2026-04-03 04:50:00,METAR LIRN 030450Z 09003KT 9999 -RA FEW030 SCT060 10/08 Q1004 NOSIG
2026-04-03 04:20:00,METAR LIRN 030420Z VRB02KT 9999 -RA SCT050 11/07 Q1003 NOSIG
2026-04-03 03:50:00,METAR LIRN 030350Z 31003KT 9999 -RA SCT050 10/07 Q1003 NOSIG
2026-04-03 03:20:00,METAR LIRN 030320Z 31003KT 9999 -RA SCT050 10/07 Q1003 NOSIG
2026-04-03 02:50:00,METAR LIRN 030250Z 32004KT 9999 SCT050 11/07 Q1003 NOSIG
2026-04-03 02:20:00,METAR LIRN 030220Z 32004KT 9999 SCT050 22/07 Q1003 NOSIG
2026-04-03 01:50:00,METAR LIRN 030150Z 32004KT CAVOK 12/05 Q1002 NOSIG
2026-04-03 01:20:00,METAR LIRN 030120Z 04004KT 010V100 CAVOK 12/05 Q1002 NOSIG
2026-04-03 00:50:00,METAR LIRN 030050Z 04006KT 020V080 CAVOK 12/05 Q1002 NOSIG
2026-04-03 00:20:00,METAR LIRN 030020Z 04005KT CAVOK 11/05 Q1002 NOSIG
2026-04-02 23:50:00,METAR LIRN 022350Z 02008KT CAVOK 12/05 Q1002 NOSIG
2026-04-02 23:20:00,METAR LIRN 022320Z 02005KT CAVOK 11/05 Q1001 NOSIG
2026-04-02 22:50:00,METAR LIRN 022250Z 04008KT CAVOK 11/05 Q1001 NOSIG
2026-04-02 22:20:00,METAR LIRN 022220Z 02008KT CAVOK 12/05 Q1001 NOSIG
2026-04-02 21:50:00,METAR LIRN 022150Z 03009KT CAVOK 11/05 Q1001 NOSIG
2026-04-02 21:20:00,METAR LIRN 022120Z VRB06KT CAVOK 12/05 Q1001 NOSIG
2026-04-02 20:50:00,METAR LIRN 022050Z 03007KT 340V090 CAVOK 11/05 Q1001 NOSIG
2026-04-02 20:20:00,METAR LIRN 022020Z AUTO 04008KT 9999 FEW042/// SCT100/// BKN120/// 11/05 Q1000
2026-04-02 19:50:00,METAR LIRN 021950Z AUTO 03008KT 9999 BKN100/// 12/05 Q1000
2026-04-02 19:20:00,METAR LIRN 021920Z AUTO 04009KT 9999 BKN120/// 12/05 Q1000
2026-04-02 18:50:00,METAR LIRN 021850Z AUTO 03009KT 9999 FEW094/// BKN110/// 12/05 Q0999
2026-04-02 18:20:00,METAR LIRN 021820Z AUTO 03012KT 350V050 9999 BKN110/// BKN150/// 12/05 Q0999
2026-04-02 17:50:00,METAR LIRN 021750Z AUTO 03008KT 360V070 9999 FEW052/// OVC100/// 12/05 Q0998
2026-04-02 17:20:00,METAR LIRN 021720Z AUTO 02010KT 9999 OVC089/// 13/05 Q0998
2026-04-02 16:50:00,METAR LIRN 021650Z AUTO 02011KT 310V030 9999 OVC071/// 13/05 Q0998
2026-04-02 16:20:00,METAR LIRN 021620Z AUTO 02013KT 310V050 9999 BKN068/// 13/05 Q0997
2026-04-02 15:50:00,METAR LIRN 021550Z AUTO 02012KT 9999 BKN069/// 13/05 Q0997
2026-04-02 15:20:00,METAR LIRN 021520Z AUTO 03013KT 9999 BKN072/// 13/05 Q0997
2026-04-02 14:50:00,METAR LIRN 021450Z AUTO 03011KT 9999 BKN074/// 14/06 Q0997
2026-04-02 14:20:00,METAR LIRN 021420Z AUTO 03012KT 9999 BKN070/// 14/05 Q0997
2026-04-02 13:50:00,METAR LIRN 021350Z AUTO 03014KT 9999 BKN072/// 14/05 Q0996
2026-04-02 13:20:00,METAR LIRN 021320Z AUTO 02014KT 340V040 9999 FEW036/// SCT100/// 14/06 Q0996
2026-04-02 12:50:00,METAR LIRN 021250Z 03011KT 9999 FEW030 BKN070 14/06 Q0996 NOSIG
2026-04-02 12:20:00,METAR LIRN 021220Z 03012KT 9999 FEW030 BKN070 14/06 Q0996 NOSIG
2026-04-02 11:50:00,METAR LIRN 021150Z 03011KT 9999 FEW030 BKN070 14/06 Q0996 NOSIG
2026-04-02 11:20:00,METAR LIRN 021120Z 02011KT 350V070 9999 FEW030 BKN070 14/06 Q0996 NOSIG
2026-04-02 10:50:00,METAR LIRN 021050Z 02010KT 290V050 9999 FEW030 BKN060 14/07 Q0996 NOSIG
2026-04-02 10:20:00,METAR LIRN 021020Z 03012KT 9999 FEW020 BKN060 14/06 Q0996 NOSIG
2026-04-02 09:50:00,METAR LIRN 020950Z 05013KT 9999 FEW030 BKN060 13/06 Q0996 NOSIG
2026-04-02 09:20:00,METAR LIRN 020920Z 03009KT 9999 FEW040 BKN080 12/07 Q0996 NOSIG
2026-04-02 08:50:00,METAR LIRN 020850Z 04008KT 340V050 9999 SCT040 BKN080 12/07 Q0996 NOSIG
2026-04-02 08:20:00,METAR LIRN 020820Z 03007KT 270V080 9999 SCT040 BKN080 12/07 Q0996 NOSIG
2026-04-02 07:50:00,METAR LIRN 020750Z 02007KT 270V050 9999 SCT040 BKN080 12/07 Q0996 NOSIG
2026-04-02 07:20:00,METAR LIRN 020720Z 02008KT 9999 SCT040 BKN070 11/07 Q0996 NOSIG
2026-04-02 06:50:00,METAR LIRN 020650Z 01007KT 310V030 9999 SCT020 BKN080 11/07 Q0996 NOSIG
2026-04-02 06:20:00,METAR LIRN 020620Z 02007KT 260V050 9999 SCT020 BKN080 11/07 Q0996 NOSIG
2026-04-02 05:50:00,METAR LIRN 020550Z 02009KT 310V040 9999 SCT040 BKN080 11/07 Q0996 NOSIG
2026-04-02 05:20:00,METAR LIRN 020520Z 02008KT 9999 FEW040 BKN080 11/07 Q0995 NOSIG
2026-04-02 04:50:00,METAR LIRN 020450Z 03011KT 9999 FEW040 BKN070 11/06 Q0995 NOSIG
2026-04-02 04:20:00,METAR LIRN 020420Z 04009KT 9999 -RA FEW030 BKN070 11/06 Q0995 NOSIG
2026-04-02 03:50:00,METAR LIRN 020350Z 04013KT 9999 -RA FEW030 BKN060 11/07 Q0995 NOSIG
2026-04-02 03:20:00,METAR LIRN 020320Z 02009KT 9999 -RA BKN060 11/08 Q0996 NOSIG
2026-04-02 02:50:00,METAR LIRN 020250Z 01007KT 9999 -RA BKN060 11/08 Q0996 NOSIG
2026-04-02 02:20:00,METAR LIRN 020220Z 36006KT 9999 -RA BKN050 11/08 Q0996 NOSIG
2026-04-02 01:50:00,METAR LIRN 020150Z 36007KT 9999 -RA BKN050 11/08 Q0996 NOSIG
2026-04-02 01:20:00,METAR LIRN 020120Z 02008KT 350V050 9999 -RA BKN050 11/08 Q0996 NOSIG
2026-04-02 00:50:00,METAR LIRN 020050Z 02011KT 9999 -RA BKN050 11/08 Q0996 NOSIG
2026-04-02 00:20:00,METAR LIRN 020020Z 03015KT 8000 -RA BKN040 11/07 Q0996 NOSIG
2026-04-01 23:50:00,METAR LIRN 012350Z 05011KT 9999 SCT040 12/07 Q0997 NOSIG
2026-04-01 23:20:00,METAR LIRN 012320Z 03011KT 360V070 9999 SCT040 12/06 Q0997 NOSIG
2026-04-01 22:50:00,METAR LIRN 012250Z 03013KT 9999 SCT040 12/06 Q0997 NOSIG
2026-04-01 22:20:00,METAR LIRN 012220Z 03015G25KT 9999 SCT040 12/06 Q0997 NOSIG
2026-04-01 21:50:00,METAR LIRN 012150Z 03015KT 9999 SCT040 12/06 Q0997 NOSIG
2026-04-01 21:20:00,METAR LIRN 012120Z 03016KT 9999 FEW040 11/06 Q0997 NOSIG
2026-04-01 20:50:00,METAR LIRN 012050Z 03013KT 340V040 9999 FEW050 11/06 Q0998 NOSIG
2026-04-01 20:20:00,METAR LIRN 012020Z 04009KT 290V060 9999 SCT060 10/05 Q0998 NOSIG
2026-04-01 19:50:00,METAR LIRN 011950Z 02010KT 340V040 9999 FEW060 11/05 Q0998 NOSIG
2026-04-01 19:20:00,METAR LIRN 011920Z 03011KT 290V050 9999 FEW060 11/05 Q0998 NOSIG
2026-04-01 18:50:00,METAR LIRN 011850Z 02012KT 320V080 9999 FEW050 11/05 Q0998 NOSIG
2026-04-01 18:20:00,METAR LIRN 011820Z 04012KT 020V080 9999 SCT050 11/05 Q0998 NOSIG
2026-04-01 17:50:00,METAR LIRN 011750Z 04009KT 270V060 9999 SCT040 11/06 Q0998 NOSIG
2026-04-01 17:20:00,METAR LIRN 011720Z 03013KT 9999 SCT070 12/06 Q0997 NOSIG
2026-04-01 16:50:00,METAR LIRN 011650Z 03012KT 340V050 9999 SCT070 13/06 Q0997 NOSIG
2026-04-01 16:20:00,METAR LIRN 011620Z 03012KT 9999 SCT040 13/06 Q0997 NOSIG
2026-04-01 15:50:00,METAR LIRN 011550Z 04015KT 9999 SCT050 13/06 Q0997 NOSIG
2026-04-01 15:20:00,METAR LIRN 011520Z 04016KT 9999 SCT040 13/06 Q0997 NOSIG
2026-04-01 14:50:00,METAR LIRN 011450Z 06015KT 9999 SCT050 14/05 Q0997 NOSIG
2026-04-01 13:50:00,METAR LIRN 011350Z 04017KT 9999 SCT050 14/06 Q0997 NOSIG
2026-04-01 13:20:00,METAR LIRN 011320Z 04016KT 9999 SCT050 14/06 Q0998 NOSIG
2026-04-01 12:50:00,METAR LIRN 011250Z 04019KT 9999 SCT050 14/07 Q0998 NOSIG
2026-04-01 12:20:00,METAR LIRN 011220Z 03019KT 9999 SCT060 14/08 Q0998 NOSIG
2026-04-01 11:50:00,METAR LIRN 011150Z 01014KT 9999 SCT060 12/08 Q0998 NOSIG
2026-04-01 11:20:00,METAR LIRN 011120Z 01011KT 300V040 9999 SCT050 12/07 Q0999 NOSIG
2026-04-01 10:50:00,METAR LIRN 011050Z 35012KT 300V020 9999 SCT050 11/07 Q0999 NOSIG
2026-04-01 10:20:00,METAR LIRN 011020Z 02014KT 9999 SCT050 11/06 Q0999 NOSIG
2026-04-01 09:50:00,METAR LIRN 010950Z 03017KT 9999 BKN050 11/06 Q0999 NOSIG
2026-04-01 09:20:00,METAR LIRN 010920Z 02015KT 9999 BKN030 11/07 Q0999 NOSIG
2026-04-01 08:50:00,METAR LIRN 010850Z 01013KT 320V030 9999 BKN030 09/06 Q1000 NOSIG
2026-04-01 08:20:00,METAR LIRN 010820Z 03009KT 340V090 9999 -RA BKN040 09/07 Q1000 NOSIG
2026-04-01 07:50:00,METAR LIRN 010750Z 01012KT 330V030 9999 -RA BKN040 09/06 Q1000 NOSIG
2026-04-01 07:20:00,METAR LIRN 010720Z 03010KT 8000 -RA BKN040 08/06 Q1000 NOSIG
2026-04-01 06:50:00,METAR LIRN 010650Z 03014KT 9999 -RA BKN040 09/05 Q1000 NOSIG
2026-04-01 06:20:00,METAR LIRN 010620Z 03019KT 9999 -RA BKN040 09/05 Q0999 NOSIG
2026-04-01 05:50:00,METAR LIRN 010550Z 03017KT 9999 -RA BKN040 09/05 Q0999 NOSIG
2026-04-01 05:20:00,METAR LIRN 010520Z 04014KT 9999 -RA BKN040 09/05 Q0999 NOSIG
2026-04-01 04:50:00,METAR LIRN 010450Z 04015KT 9999 BKN035 09/04 Q0999 NOSIG
2026-04-01 04:20:00,METAR LIRN 010420Z 05015KT 9999 BKN035 09/05 Q0999 NOSIG
2026-04-01 03:50:00,METAR LIRN 010350Z 04018G28KT 9999 BKN035 09/05 Q0999 NOSIG
2026-04-01 03:20:00,METAR LIRN 010320Z 03017KT 9999 BKN035 09/05 Q0999 NOSIG
2026-04-01 02:50:00,METAR LIRN 010250Z 03014KT 9999 BKN035 09/05 Q0999 NOSIG
2026-04-01 02:20:00,METAR LIRN 010220Z 03016KT 9999 BKN035 08/05 Q0999 NOSIG
2026-04-01 01:50:00,METAR LIRN 010150Z 04018KT 9999 BKN035 09/05 Q1000 NOSIG
2026-04-01 01:20:00,METAR LIRN 010120Z 03013KT 9999 SCT035 10/05 Q1000 NOSIG
2026-04-01 00:50:00,METAR LIRN 010050Z 04010KT 9999 SCT040 10/05 Q1001 NOSIG
2026-04-01 00:20:00,METAR LIRN 010020Z 03011KT 9999 BKN040 10/05 Q1001 NOSIG
2026-03-31 23:50:00,METAR LIRN 312350Z 04015KT 9999 BKN040 10/05 Q1001 NOSIG
2026-03-31 23:20:00,METAR LIRN 312320Z 02010KT 9999 SCT040 BKN070 10/05 Q1002 NOSIG
2026-03-31 22:50:00,METAR LIRN 312250Z 04017KT 9999 SCT040 BKN070 10/04 Q1002 NOSIG
2026-03-31 22:20:00,METAR LIRN 312220Z 04011KT 9999 SCT040 BKN060 10/04 Q1002 NOSIG
2026-03-31 21:50:00,METAR LIRN 312150Z 03011KT 320V050 9999 BKN040 10/04 Q1002 NOSIG
2026-03-31 21:20:00,METAR LIRN 312120Z 03013KT 360V060 9999 BKN040 10/04 Q1002 NOSIG
2026-03-31 20:50:00,METAR LIRN 312050Z 04017KT 010V070 9999 -RA FEW025 BKN040 11/04 Q1002 NOSIG
2026-03-31 20:20:00,METAR LIRN 312020Z 03013KT 350V060 9999 -RA BKN050 10/03 Q1001 NOSIG
2026-03-31 19:50:00,METAR LIRN 311950Z 05009KT 9999 FEW030 BKN050 10/02 Q1002 NOSIG
2026-03-31 19:20:00,METAR LIRN 311920Z 05013KT 9999 BKN040 10/02 Q1001 NOSIG
2026-03-31 18:50:00,METAR LIRN 311850Z 05009KT 9999 SCT060 10/03 Q1001 NOSIG
2026-03-31 18:20:00,METAR LIRN 311820Z 03014KT 9999 BKN050 10/03 Q1001 NOSIG
2026-03-31 17:50:00,METAR LIRN 311750Z 04011KT 310V060 9999 BKN050 10/03 Q1001 NOSIG
2026-03-31 17:20:00,METAR LIRN 311720Z 04014KT 9999 BKN050 10/03 Q1001 NOSIG
2026-03-31 16:50:00,METAR LIRN 311650Z 04010KT 020V080 9999 BKN060 10/03 Q1001 NOSIG
2026-03-31 16:20:00,METAR LIRN 311620Z 04011KT 020V080 9999 BKN050 10/03 Q1001 NOSIG
2026-03-31 15:50:00,METAR LIRN 311550Z 06010KT 9999 BKN060 11/04 Q1001 NOSIG
2026-03-31 15:20:00,METAR LIRN 311520Z 05013KT 9999 BKN050 11/04 Q1001 NOSIG
2026-03-31 14:50:00,METAR LIRN 311450Z 04015KT 9999 FEW040 BKN060 11/04 Q1001 NOSIG
2026-03-31 14:20:00,METAR LIRN 311420Z 05015KT 9999 BKN060 11/04 Q1001 NOSIG
2026-03-31 13:50:00,METAR LIRN 311350Z 05010KT 9999 FEW040 BKN050 10/05 Q1002 NOSIG
2026-03-31 13:20:00,METAR LIRN 311320Z 06010KT 030V090 9999 -RA SCT040 BKN060 10/05 Q1002 NOSIG
2026-03-31 12:50:00,METAR LIRN 311250Z 05012KT 9999 -RA FEW030 BKN070 10/05 Q1002 NOSIG
2026-03-31 12:20:00,METAR LIRN 311220Z 07007KT 040V100 9999 -RA FEW030 BKN070 10/04 Q1002 NOSIG
2026-03-31 11:50:00,METAR LIRN 311150Z 06009KT 9999 FEW030 BKN070 11/05 Q1003 NOSIG
2026-03-31 11:20:00,METAR LIRN 311120Z 06010KT 9999 FEW030 BKN070 10/04 Q1003 NOSIG
2026-03-31 10:50:00,METAR LIRN 311050Z 06010KT 9999 FEW030 BKN070 10/04 Q1003 NOSIG
2026-03-31 10:20:00,METAR LIRN 311020Z 06009KT 030V090 9999 FEW030 BKN070 10/04 Q1003 NOSIG
2026-03-31 09:50:00,METAR LIRN 310950Z 06009KT 030V100 9999 FEW030 BKN060 10/04 Q1003 NOSIG
2026-03-31 09:20:00,METAR LIRN 310920Z 07008KT 040V100 9999 FEW030 BKN060 10/04 Q1003 NOSIG
2026-03-31 08:50:00,METAR LIRN 310850Z 06008KT 030V100 9999 FEW030 BKN060 10/04 Q1003 NOSIG
2026-03-31 08:20:00,METAR LIRN 310820Z 06010KT 030V090 9999 FEW030 BKN060 10/04 Q1003 NOSIG
2026-03-31 07:50:00,METAR LIRN 310750Z 06007KT 9999 FEW040 BKN070 10/04 Q1003 NOSIG
2026-03-31 07:20:00,METAR LIRN 310720Z 05008KT 020V090 9999 FEW030 BKN070 09/04 Q1003 NOSIG
2026-03-31 06:50:00,METAR LIRN 310650Z 05007KT 9999 FEW030 BKN070 09/04 Q1002 NOSIG
2026-03-31 06:20:00,METAR LIRN 310620Z 06007KT 9999 FEW030 BKN070 08/04 Q1002 NOSIG
2026-03-31 05:50:00,METAR LIRN 310550Z 07006KT 9999 FEW030 BKN060 08/04 Q1002 NOSIG
2026-03-31 05:20:00,METAR LIRN 310520Z 07006KT 9999 FEW020 BKN060 08/04 Q1002 NOSIG
2026-03-31 04:50:00,METAR LIRN 310450Z 06006KT 9999 FEW020 BKN060 07/05 Q1003 NOSIG
2026-03-31 04:20:00,METAR LIRN 310420Z 03006KT 9999 -RA BKN050 07/05 Q1003 NOSIG
2026-03-31 03:50:00,METAR LIRN 310350Z 02009KT 9999 -RA BKN040 07/05 Q1003 NOSIG
2026-03-31 03:20:00,METAR LIRN 310320Z 02008KT 9999 -RA BKN040 07/05 Q1003 NOSIG
2026-03-31 02:50:00,METAR LIRN 310250Z 03005KT 9999 -RA BKN040 07/05 Q1004 NOSIG
2026-03-31 02:20:00,METAR LIRN 310220Z 03006KT 9999 -RA BKN040 07/05 Q1004 NOSIG
2026-03-31 01:50:00,METAR LIRN 310150Z 01008KT 9999 -RA BKN050 07/05 Q1004 NOSIG
2026-03-31 01:20:00,METAR LIRN 310120Z 02009KT 9999 -RA BKN050 07/06 Q1005 NOSIG
2026-03-31 00:50:00,METAR LIRN 310050Z 04008KT 9999 -RA BKN060 07/06 Q1005 NOSIG
2026-03-31 00:20:00,METAR LIRN 310020Z 06008KT 030V090 9999 -RA BKN050 07/06 Q1006 NOSIG
2026-03-30 23:50:00,METAR LIRN 302350Z 07008KT 040V100 8000 -RA FEW020 BKN050 07/06 Q1006 NOSIG
2026-03-30 23:20:00,METAR LIRN 302320Z 05007KT 020V080 7000 -RA FEW020 BKN040 07/07 Q1007 RETSRA NOSIG
2026-03-30 22:50:00,METAR LIRN 302250Z 08007KT 040V120 7000 TSRA SCT020CB BKN040 07/06 Q1007 NOSIG
2026-03-30 22:20:00,METAR LIRN 302220Z 02013KT 7000 TSRA SCT020CB BKN040 07/06 Q1007 NOSIG
2026-03-30 21:50:00,METAR LIRN 302150Z 35011KT 7000 TSRA SCT020CB BKN050 11/07 Q1008 TEMPO TSRA
2026-03-30 21:20:00,METAR LIRN 302120Z VRB05KT 9999 SCT020 BKN050 11/08 Q1007 TEMPO TSRA
2026-03-30 20:50:00,METAR LIRN 302050Z VRB04KT 9999 FEW030 SCT050 15/09 Q1007 TEMPO TSRA
2026-03-30 20:20:00,METAR LIRN 302020Z VRB02KT 9999 FEW020 SCT050 12/08 Q1008 NOSIG
2026-03-30 19:50:00,METAR LIRN 301950Z VRB04G15KT 9999 SCT050 12/08 Q1008 NOSIG
2026-03-30 19:20:00,METAR LIRN 301920Z VRB03KT 9999 SCT040 12/07 Q1009 RETS NOSIG
2026-03-30 18:50:00,METAR LIRN 301850Z 24007KT 210V280 9999 -TSRA SCT030CB 12/07 Q1009 NOSIG
2026-03-30 18:20:00,METAR LIRN 301820Z 24007KT 210V270 9999 -TSRA SCT025CB BKN050 12/09 Q1009 NOSIG
2026-03-30 17:50:00,METAR LIRN 301750Z 22006KT 180V330 9999 TS SCT025CB BKN050 14/09 Q1009 NOSIG
2026-03-30 17:20:00,METAR LIRN 301720Z COR 23006KT 9999 TS SCT020CB BKN050 14/09 Q1009 NOSIG
2026-03-30 16:50:00,METAR LIRN 301650Z 24008KT 230V290 9999 SCT030 BKN050 14/08 Q1010 NOSIG
2026-03-30 16:20:00,METAR LIRN 301620Z 25009KT 220V320 9999 FEW025 BKN050 14/07 Q1010 NOSIG
2026-03-30 15:50:00,METAR LIRN 301550Z 25009KT 220V280 9999 SCT050 14/07 Q1010 NOSIG
2026-03-30 15:20:00,METAR LIRN 301520Z 25010KT 210V280 9999 SCT050 14/07 Q1010 NOSIG
2026-03-30 14:50:00,METAR LIRN 301450Z 25012KT 230V300 9999 SCT045 15/06 Q1011 NOSIG
2026-03-30 14:20:00,METAR LIRN 301420Z 26012KT 240V310 9999 SCT060 15/06 Q1011 NOSIG
2026-03-30 13:50:00,METAR LIRN 301350Z 27010KT 240V310 9999 SCT070 16/07 Q1011 NOSIG
2026-03-30 13:20:00,METAR LIRN 301320Z 28010KT 250V330 CAVOK 17/07 Q1012 NOSIG
2026-03-30 12:50:00,METAR LIRN 301250Z 26009KT 190V310 CAVOK 17/06 Q1012 NOSIG
2026-03-30 12:20:00,METAR LIRN 301220Z 28011KT 250V330 CAVOK 16/05 Q1013 NOSIG
2026-03-30 11:50:00,METAR LIRN 301150Z 23008KT 140V280 CAVOK 16/05 Q1013 NOSIG
2026-03-30 11:20:00,METAR LIRN 301120Z 19008KT 150V230 CAVOK 16/05 Q1014 NOSIG
2026-03-30 10:50:00,METAR LIRN 301050Z 21006KT 150V260 CAVOK 16/05 Q1014 NOSIG
2026-03-30 10:20:00,METAR LIRN 301020Z VRB06KT CAVOK 16/05 Q1014 NOSIG
2026-03-30 09:50:00,METAR LIRN 300950Z VRB03KT CAVOK 15/04 Q1015 NOSIG
2026-03-30 09:20:00,METAR LIRN 300920Z 29003KT 220V350 CAVOK 15/04 Q1015 NOSIG
2026-03-30 08:50:00,METAR LIRN 300850Z VRB02KT CAVOK 14/03 Q1015 NOSIG
2026-03-30 08:20:00,METAR LIRN 300820Z 33003KT 280V040 CAVOK 14/04 Q1015 NOSIG
2026-03-30 07:50:00,METAR LIRN 300750Z 34004KT 260V020 CAVOK 14/04 Q1015 NOSIG
2026-03-30 07:20:00,METAR LIRN 300720Z VRB02KT CAVOK 13/04 Q1015 NOSIG
2026-03-30 06:50:00,METAR LIRN 300650Z VRB02KT CAVOK 12/04 Q1015 NOSIG
2026-03-30 06:20:00,METAR LIRN 300620Z 33004KT CAVOK 11/04 Q1015 NOSIG
2026-03-30 05:50:00,METAR LIRN 300550Z 34004KT 260V020 CAVOK 10/04 Q1016 NOSIG
2026-03-30 05:20:00,METAR LIRN 300520Z 35005KT CAVOK 09/03 Q1015 NOSIG
2026-03-30 04:50:00,METAR LIRN 300450Z 35005KT 260V360 CAVOK 10/03 Q1015 NOSIG
2026-03-30 04:20:00,METAR LIRN 300420Z VRB05KT CAVOK 11/03 Q1015 NOSIG
2026-03-30 03:50:00,METAR LIRN 300350Z 02006KT CAVOK 10/03 Q1015 NOSIG
2026-03-30 03:20:00,METAR LIRN 300320Z 02006KT CAVOK 10/03 Q1015 NOSIG
2026-03-30 02:50:00,METAR LIRN 300250Z 34003KT 280V020 CAVOK 09/03 Q1015 NOSIG
2026-03-30 01:50:00,METAR LIRN 300150Z 34005KT 320V030 CAVOK 10/03 Q1015 NOSIG
2026-03-30 01:20:00,METAR LIRN 300120Z 36005KT CAVOK 11/03 Q1015 NOSIG
2026-03-30 00:50:00,METAR LIRN 300050Z 35004KT CAVOK 10/03 Q1015 NOSIG
2026-03-30 00:20:00,METAR LIRN 300020Z 02005KT CAVOK 11/03 Q1015 NOSIG
2026-03-29 23:50:00,METAR LIRN 292350Z 03005KT CAVOK 11/03 Q1016 NOSIG
2026-03-29 23:20:00,METAR LIRN 292320Z 01005KT CAVOK 11/03 Q1016 NOSIG
2026-03-29 22:50:00,METAR LIRN 292250Z 01004KT 350V050 CAVOK 11/03 Q1016 NOSIG
2026-03-29 22:20:00,METAR LIRN 292220Z 05004KT 020V090 CAVOK 11/03 Q1016 NOSIG
2026-03-29 21:50:00,METAR LIRN 292150Z 02004KT CAVOK 11/03 Q1016 NOSIG
2026-03-29 21:20:00,METAR LIRN 292120Z 04004KT 010V070 CAVOK 11/03 Q1015 NOSIG
2026-03-29 20:50:00,METAR LIRN 292050Z 05005KT CAVOK 12/03 Q1015 NOSIG
2026-03-29 20:20:00,METAR LIRN 292020Z 05007KT CAVOK 12/03 Q1015 NOSIG
2026-03-29 19:50:00,METAR LIRN 291950Z 05007KT 030V090 CAVOK 13/03 Q1015 NOSIG
2026-03-29 19:20:00,METAR LIRN 291920Z 06009KT 040V100 CAVOK 13/03 Q1015 NOSIG
2026-03-29 18:50:00,METAR LIRN 291850Z 06005KT 030V100 CAVOK 13/04 Q1014 NOSIG
2026-03-29 18:20:00,METAR LIRN 291820Z 06005KT 030V090 CAVOK 13/04 Q1014 NOSIG
2026-03-29 17:50:00,METAR LIRN 291750Z 07006KT 040V100 CAVOK 14/04 Q1013 NOSIG
2026-03-29 17:20:00,METAR LIRN 291720Z 06007KT 9999 SCT060 14/04 Q1013 NOSIG
2026-03-29 16:50:00,METAR LIRN 291650Z 07008KT 040V110 9999 SCT060 15/04 Q1013 NOSIG
2026-03-29 16:20:00,METAR LIRN 291620Z 06010KT 9999 SCT060 15/04 Q1012 NOSIG
2026-03-29 15:20:00,METAR LIRN 291520Z 07010KT 040V110 9999 SCT060 16/04 Q1012 NOSIG
2026-03-29 14:50:00,METAR LIRN 291450Z 07007KT 040V130 9999 SCT060 17/05 Q1011 NOSIG
2026-03-29 14:20:00,METAR LIRN 291420Z 07007KT 030V110 9999 SCT060 17/04 Q1011 NOSIG
2026-03-29 13:50:00,METAR LIRN 291350Z 06009KT 020V090 9999 SCT060 16/04 Q1011 NOSIG
2026-03-29 13:20:00,METAR LIRN 291320Z 06007KT 350V100 9999 SCT060 17/03 Q1011 NOSIG
2026-03-29 12:50:00,METAR LIRN 291250Z VRB06KT 9999 SCT060 16/03 Q1011 NOSIG
2026-03-29 12:20:00,METAR LIRN 291220Z VRB06KT 9999 FEW070 16/03 Q1011 NOSIG
2026-03-29 11:50:00,METAR LIRN 291150Z 07007KT 030V120 9999 FEW060 16/04 Q1011 NOSIG
2026-03-29 11:20:00,METAR LIRN 291120Z 06007KT 030V110 CAVOK 16/02 Q1011 NOSIG
2026-03-29 10:50:00,METAR LIRN 291050Z VRB07KT CAVOK 15/01 Q1010 NOSIG
2026-03-29 10:20:00,METAR LIRN 291020Z VRB03KT CAVOK 15/01 Q1010 NOSIG
2026-03-29 09:50:00,METAR LIRN 290950Z VRB03KT CAVOK 15/02 Q1010 NOSIG
2026-03-29 09:20:00,METAR LIRN 290920Z VRB04KT CAVOK 15/01 Q1010 NOSIG
2026-03-29 08:50:00,METAR LIRN 290850Z VRB04KT CAVOK 14/02 Q1010 NOSIG
2026-03-29 08:20:00,METAR LIRN 290820Z 04005KT 360V090 CAVOK 13/02 Q1010 NOSIG
2026-03-29 07:50:00,METAR LIRN 290750Z VRB02KT CAVOK 13/01 Q1010 NOSIG
2026-03-29 07:20:00,METAR LIRN 290720Z VRB04KT CAVOK 11/02 Q1009 NOSIG
2026-03-29 06:50:00,METAR LIRN 290650Z VRB04KT CAVOK 10/01 Q1009 NOSIG
2026-03-29 06:20:00,METAR LIRN 290620Z VRB03KT CAVOK 09/02 Q1009 NOSIG
2026-03-29 05:50:00,METAR LIRN 290550Z 30003KT 280V340 CAVOK 07/02 Q1009 NOSIG
2026-03-29 05:20:00,METAR LIRN 290520Z 31005KT 250V320 CAVOK 06/01 Q1009 NOSIG
2026-03-29 04:50:00,METAR LIRN 290450Z 33004KT 270V020 CAVOK 06/00 Q1008 NOSIG
2026-03-29 04:20:00,METAR LIRN 290420Z 30003KT 290V350 CAVOK 06/01 Q1008 NOSIG
2026-03-29 03:50:00,METAR LIRN 290350Z VRB02KT CAVOK 06/00 Q1008 NOSIG
2026-03-29 03:20:00,METAR LIRN 290320Z VRB02KT CAVOK 07/01 Q1008 NOSIG
2026-03-29 02:50:00,METAR LIRN 290250Z VRB01KT CAVOK 07/01 Q1008 NOSIG
2026-03-29 02:20:00,METAR LIRN 290220Z 02004KT CAVOK 07/01 Q1008 NOSIG
2026-03-29 01:50:00,METAR LIRN 290150Z 03003KT CAVOK 07/01 Q1008 NOSIG
2026-03-29 01:20:00,METAR LIRN 290120Z 01003KT CAVOK 07/02 Q1008 NOSIG
2026-03-29 00:50:00,METAR LIRN 290050Z 02004KT CAVOK 07/02 Q1008 NOSIG
2026-03-29 00:20:00,METAR LIRN 290020Z 02004KT 340V060 CAVOK 07/02 Q1008 NOSIG
2026-03-28 23:50:00,METAR LIRN 282350Z 01005KT CAVOK 07/03 Q1008 NOSIG
2026-03-28 23:20:00,METAR LIRN 282320Z 35003KT CAVOK 07/02 Q1008 NOSIG
2026-03-28 22:50:00,METAR LIRN 282250Z 04003KT CAVOK 08/03 Q1008 NOSIG
2026-03-28 22:20:00,METAR LIRN 282220Z 03004KT CAVOK 08/03 Q1008 NOSIG
2026-03-28 21:50:00,METAR LIRN 282150Z 04003KT 300V080 CAVOK 09/03 Q1009 NOSIG
2026-03-28 21:20:00,METAR LIRN 282120Z 07003KT 040V100 CAVOK 09/03 Q1009 NOSIG
2026-03-28 20:50:00,METAR LIRN 282050Z 06003KT CAVOK 09/03 Q1009 NOSIG
2026-03-28 20:20:00,METAR LIRN 282020Z 07004KT CAVOK 10/03 Q1009 NOSIG
2026-03-28 19:50:00,METAR LIRN 281950Z VRB03KT CAVOK 11/03 Q1009 NOSIG
2026-03-28 19:20:00,METAR LIRN 281920Z VRB01KT CAVOK 11/03 Q1009 NOSIG
2026-03-28 18:50:00,METAR LIRN 281850Z 25002KT CAVOK 11/03 Q1008 NOSIG
2026-03-28 18:20:00,METAR LIRN 281820Z 25004KT 230V320 CAVOK 11/03 Q1008 NOSIG
2026-03-28 17:50:00,METAR LIRN 281750Z 26006KT 240V300 9999 FEW060 11/03 Q1008 NOSIG
2026-03-28 17:20:00,METAR LIRN 281720Z 27006KT 9999 FEW060 12/03 Q1008 NOSIG
2026-03-28 16:50:00,METAR LIRN 281650Z 27007KT 9999 FEW060 13/04 Q1008 NOSIG
2026-03-28 16:20:00,METAR LIRN 281620Z 28007KT 240V310 9999 SCT060 14/04 Q1007 NOSIG
2026-03-28 15:50:00,METAR LIRN 281550Z 24006KT 9999 SCT060 13/04 Q1007 NOSIG
2026-03-28 15:20:00,METAR LIRN 281520Z 23005KT 180V260 9999 SCT060 13/03 Q1007 NOSIG
2026-03-28 14:50:00,METAR LIRN 281450Z 07003KT 350V120 9999 SCT060 14/01 Q1007 NOSIG
2026-03-28 14:20:00,METAR LIRN 281420Z VRB02KT 9999 SCT070 14/01 Q1007 NOSIG
2026-03-28 13:50:00,METAR LIRN 281350Z 07007KT 030V180 9999 SCT070 14/01 Q1008 NOSIG
2026-03-28 13:20:00,METAR LIRN 281320Z VRB05KT 9999 SCT070 14/01 Q1008 NOSIG
2026-03-28 12:50:00,METAR LIRN 281250Z 06006KT 040V110 9999 SCT070 13/02 Q1008 NOSIG
2026-03-28 12:20:00,METAR LIRN 281220Z 05007KT 020V080 9999 SCT060 13/03 Q1008 NOSIG
2026-03-28 11:50:00,METAR LIRN 281150Z 04007KT 270V080 9999 SCT060 14/03 Q1008 NOSIG
2026-03-28 11:20:00,METAR LIRN 281120Z VRB04KT 9999 FEW060 14/02 Q1008 NOSIG
2026-03-28 10:50:00,METAR LIRN 281050Z VRB07KT 9999 FEW060 14/03 Q1008 NOSIG
2026-03-28 10:20:00,METAR LIRN 281020Z VRB03KT 9999 FEW060 13/02 Q1009 NOSIG
2026-03-28 09:50:00,METAR LIRN 280950Z 03004KT 330V110 9999 FEW060 12/03 Q1009 NOSIG
2026-03-28 09:20:00,METAR LIRN 280920Z 04004KT 340V110 9999 FEW060 12/02 Q1009 NOSIG
2026-03-28 08:50:00,METAR LIRN 280850Z 03004KT 350V090 9999 SCT060 11/03 Q1009 NOSIG
2026-03-28 08:20:00,METAR LIRN 280820Z 03004KT 010V070 9999 SCT060 10/02 Q1009 NOSIG
2026-03-28 07:50:00,METAR LIRN 280750Z VRB04KT 9999 SCT050 11/03 Q1009 NOSIG
2026-03-28 07:20:00,METAR LIRN 280720Z 36004KT 270V040 9999 SCT060 10/03 Q1008 NOSIG
2026-03-28 06:50:00,METAR LIRN 280650Z 36003KT 9999 BKN060 09/03 Q1008 NOSIG
2026-03-28 06:20:00,METAR LIRN 280620Z 35005KT 320V030 9999 BKN060 09/03 Q1008 NOSIG
2026-03-28 05:50:00,METAR LIRN 280550Z 01003KT 9999 BKN060 08/03 Q1008 NOSIG
2026-03-28 05:20:00,METAR LIRN 280520Z 35004KT 9999 BKN060 08/03 Q1008 NOSIG
2026-03-28 04:50:00,METAR LIRN 280450Z VRB02KT 9999 SCT060 08/03 Q1007 NOSIG
2026-03-28 04:20:00,METAR LIRN 280420Z 03005KT 9999 SCT060 08/03 Q1007 NOSIG
2026-03-28 03:50:00,METAR LIRN 280350Z 03004KT 9999 SCT060 08/03 Q1007 NOSIG
2026-03-28 03:20:00,METAR LIRN 280320Z 01005KT 9999 SCT060 08/02 Q1007 NOSIG
2026-03-28 02:50:00,METAR LIRN 280250Z 34003KT 320V020 9999 SCT060 08/02 Q1007 NOSIG
2026-03-28 02:20:00,METAR LIRN 280220Z 33003KT 300V360 9999 SCT060 08/02 Q1007 NOSIG
2026-03-28 01:50:00,METAR LIRN 280150Z 03004KT 9999 SCT060 08/02 Q1007 NOSIG
2026-03-28 01:20:00,METAR LIRN 280120Z 04005KT 9999 SCT060 08/02 Q1007 NOSIG
2026-03-28 00:50:00,METAR LIRN 280050Z 03006KT 9999 FEW060 08/02 Q1007 NOSIG
2026-03-28 00:20:00,METAR LIRN 280020Z 02006KT 9999 FEW060 08/02 Q1007 NOSIG
2026-03-27 23:50:00,METAR LIRN 272350Z 03006KT 9999 FEW060 08/02 Q1007 NOSIG
2026-03-27 23:20:00,METAR LIRN 272320Z 03006KT 9999 FEW070 08/02 Q1007 NOSIG
2026-03-27 22:50:00,METAR LIRN 272250Z 03007KT 9999 FEW080 08/02 Q1007 NOSIG
2026-03-27 22:20:00,METAR LIRN 272220Z 04006KT 9999 FEW080 08/02 Q1007 NOSIG
2026-03-27 21:50:00,METAR LIRN 272150Z VRB06KT 9999 FEW080 09/02 Q1006 NOSIG
2026-03-27 21:20:00,METAR LIRN 272120Z 01003KT 260V050 9999 FEW080 09/02 Q1006 NOSIG
2026-03-27 20:50:00,METAR LIRN 272050Z 01003KT 220V020 9999 FEW080 09/02 Q1006 NOSIG
2026-03-27 20:20:00,METAR LIRN 272020Z 02004KT CAVOK 09/02 Q1006 NOSIG
2026-03-27 19:50:00,METAR LIRN 271950Z 03006KT 320V060 9999 FEW070 09/02 Q1005 NOSIG
2026-03-27 19:20:00,METAR LIRN 271920Z 36004KT 9999 FEW070 09/02 Q1005 NOSIG
2026-03-27 18:50:00,METAR LIRN 271850Z VRB04KT 9999 FEW070 09/01 Q1005 NOSIG
2026-03-27 18:20:00,METAR LIRN 271820Z 06006KT 9999 FEW070 10/01 Q1004 NOSIG
2026-03-27 17:50:00,METAR LIRN 271750Z 07004KT 030V110 9999 SCT070 10/01 Q1004 NOSIG
2026-03-27 17:20:00,METAR LIRN 271720Z 06006KT 9999 SCT070 10/01 Q1003 NOSIG
2026-03-27 16:50:00,METAR LIRN 271650Z 04008KT 9999 SCT070 11/02 Q1003 NOSIG
2026-03-27 16:20:00,METAR LIRN 271620Z 06007KT 9999 BKN060 12/01 Q1003 NOSIG
2026-03-25 14:50:00,METAR LIRN 251450Z 25012KT CAVOK 16/05 Q1011 NOSIG
2026-03-25 14:20:00,METAR LIRN 251420Z 27011KT 240V310 CAVOK 17/06 Q1012 NOSIG
2026-03-25 13:50:00,METAR LIRN 251350Z 26010KT CAVOK 17/03 Q1012 NOSIG
2026-03-25 13:20:00,METAR LIRN 251320Z 20010KT 160V220 CAVOK 16/07 Q1012 NOSIG
2026-03-25 12:50:00,METAR LIRN 251250Z VRB07G18KT CAVOK 18/05 Q1012 NOSIG
2026-03-25 12:20:00,METAR LIRN 251220Z 25009G23KT 220V310 CAVOK 17/04 Q1013 NOSIG
2026-03-25 11:50:00,METAR LIRN 251150Z 19008KT 160V230 CAVOK 17/05 Q1013 NOSIG
2026-03-25 11:20:00,METAR LIRN 251120Z 20007KT 150V230 CAVOK 17/05 Q1014 NO
2026-03-25 10:50:00,METAR LIRN 251050Z 18006KT 150V230 CAVOK 17/04 Q1014 NOSIG
2026-03-25 10:20:00,METAR LIRN 251020Z 20005KT 160V240 CAVOK 16/02 Q1015 NOSIG
2026-03-25 09:50:00,METAR LIRN 250950Z VRB04KT CAVOK 17/04 Q1015 NOSIG
2026-03-25 09:20:00,METAR LIRN 250920Z VRB03KT CAVOK 16/02 Q1015 NOSIG
2026-03-25 08:50:00,METAR LIRN 250850Z VRB02KT CAVOK 15/03 Q1015 NOSIG
2026-03-25 08:20:00,METAR LIRN 250820Z 03004G16KT 320V080 CAVOK 14/03 Q1016 NOSIG
2026-03-25 07:50:00,METAR LIRN 250750Z 02004KT 330V050 CAVOK 12/02 Q1016 NOSIG
2026-03-25 07:20:00,METAR LIRN 250720Z 03003KT 350V050 CAVOK 11/03 Q1016 NOSIG
2026-03-25 06:50:00,METAR LIRN 250650Z 01004KT 310V040 CAVOK 10/02 Q1016 NOSIG
2026-03-25 06:20:00,METAR LIRN 250620Z 36003KT 310V050 CAVOK 10/02 Q1016 NOSIG
2026-03-25 05:50:00,METAR LIRN 250550Z 34003KT 300V360 8000 NSC 08/02 Q1016 NOSIG
2026-03-25 05:20:00,METAR LIRN 250520Z 35003KT 8000 NSC 06/01 Q1016 NOSIG
2026-03-25 04:50:00,METAR LIRN 250450Z 32003KT CAVOK 05/01 Q1016 NOSIG
2026-03-25 04:20:00,METAR LIRN 250420Z VRB02KT CAVOK 06/02 Q1016 NOSIG
2026-03-25 03:50:00,METAR LIRN 250350Z 01003KT 350V050 CAVOK 07/01 Q1016 NOSIG
2026-03-25 03:20:00,METAR LIRN 250320Z 02003KT CAVOK 07/02 Q1016 NOSIG
2026-03-25 02:50:00,METAR LIRN 250250Z 35002KT CAVOK 07/02 Q1016 NOSIG
2026-03-25 02:20:00,METAR LIRN 250220Z VRB02KT CAVOK 08/02 Q1016 NOSIG
2026-03-25 01:50:00,METAR LIRN 250150Z VRB02KT CAVOK 08/02 Q1017 NOSIG
2026-03-25 01:20:00,METAR LIRN 250120Z VRB02KT CAVOK 08/02 Q1017 NOSIG
2026-03-25 00:50:00,METAR LIRN 250050Z VRB02KT CAVOK 09/02 Q1017 NOSIG
2026-03-25 00:20:00,METAR LIRN 250020Z 31003KT 260V010 CAVOK 07/01 Q1017 NOSIG
2026-03-24 23:50:00,METAR LIRN 242350Z 30004KT CAVOK 07/02 Q1017 NOSIG
2026-03-24 23:20:00,METAR LIRN 242320Z 33003KT CAVOK 09/03 Q1017 NOSIG
2026-03-24 22:50:00,METAR LIRN 242250Z 25002KT CAVOK 11/03 Q1018 NOSIG
2026-03-24 22:20:00,METAR LIRN 242220Z 31003KT 290V360 CAVOK 09/03 Q1018 NOSIG
2026-03-24 21:50:00,METAR LIRN 242150Z VRB01KT CAVOK 10/03 Q1018 NOSIG
2026-03-24 21:20:00,METAR LIRN 242120Z VRB02KT CAVOK 12/03 Q1018 NOSIG
2026-03-24 20:50:00,METAR LIRN 242050Z 34004KT CAVOK 10/03 Q1018 NOSIG
2026-03-24 20:20:00,METAR LIRN 242020Z 03005KT CAVOK 12/03 Q1018 NOSIG
2026-03-24 19:50:00,METAR LIRN 241950Z 30005KT CAVOK 11/06 Q1017 NOSIG
2026-03-24 19:20:00,METAR LIRN 241920Z 30003KT 270V340 CAVOK 13/06 Q1017 NOSIG
2026-03-24 18:50:00,METAR LIRN 241850Z VRB02KT CAVOK 14/07 Q1017 NOSIG
2026-03-24 18:20:00,METAR LIRN 241820Z 29003KT 9999 FEW045 12/06 Q1016 NOSIG
2026-03-24 17:50:00,METAR LIRN 241750Z 29004KT 9999 FEW045 14/07 Q1016 NOSIG
2026-03-24 17:20:00,METAR LIRN 241720Z 28005KT 9999 SCT060 14/07 Q1016 NOSIG
2026-03-24 16:50:00,METAR LIRN 241650Z 30005KT 230V010 9999 SCT070 15/07 Q1016 NOSIG
2026-03-24 16:20:00,METAR LIRN 241620Z 30010KT 9999 BKN060 16/06 Q1016 NOSIG
2026-03-24 15:50:00,METAR LIRN 241550Z 33006KT 9999 SCT060 16/05 Q1016 NOSIG
2026-03-24 15:20:00,METAR LIRN 241520Z 31008KT 260V350 9999 FEW040 BKN070 17/06 Q1016 NOSIG
2026-03-24 14:50:00,METAR LIRN 241450Z 31006KT 280V350 9999 SCT060 17/05 Q1016 NOSIG
2026-03-24 14:20:00,METAR LIRN 241420Z 27009KT 230V300 9999 BKN070 17/07 Q1015 NOSIG
2026-03-24 13:50:00,METAR LIRN 241350Z VRB04KT 9999 BKN050 17/05 Q1016 NOSIG
2026-03-24 13:20:00,METAR LIRN 241320Z 05008KT 010V100 9999 SCT050 18/04 Q1016 NOSIG
2026-03-24 12:50:00,METAR LIRN 241250Z 06005KT 360V160 9999 SCT050 17/03 Q1016 NOSIG
2026-03-24 12:20:00,METAR LIRN 241220Z 05007KT 020V090 9999 SCT050 17/04 Q1016 NOSIG
2026-03-24 11:50:00,METAR LIRN 241150Z VRB06KT 9999 SCT050 16/04 Q1016 NOSIG
2026-03-24 11:20:00,METAR LIRN 241120Z VRB06KT 9999 SCT050 17/04 Q1017 NOSIG
2026-03-24 10:50:00,METAR LIRN 241050Z 06007KT 020V110 9999 SCT050 17/04 Q1017 NOSIG
2026-03-24 10:20:00,METAR LIRN 241020Z 03010KT 9999 FEW050 16/05 Q1017 NOSIG
2026-03-24 09:50:00,METAR LIRN 240950Z 02011KT 340V050 9999 FEW050 16/05 Q1017 NOSIG
2026-03-24 09:20:00,METAR LIRN 240920Z 02010KT 340V070 CAVOK 15/04 Q1017 NOSIG
2026-03-24 08:50:00,METAR LIRN 240850Z 02009KT CAVOK 15/05 Q1017 NOSIG
2026-03-24 08:20:00,METAR LIRN 240820Z 04011KT 360V070 CAVOK 14/05 Q1017 NOSIG
2026-03-24 07:50:00,METAR LIRN 240750Z 02006KT CAVOK 13/05 Q1016 NOSIG
2026-03-24 07:20:00,METAR LIRN 240720Z 34005KT CAVOK 12/04 Q1016 NOSIG
2026-03-24 06:50:00,METAR LIRN 240650Z 34004KT 230V010 CAVOK 11/04 Q1016 NOSIG
2026-03-24 06:20:00,METAR LIRN 240620Z 02003KT 350V050 CAVOK 10/04 Q1016 NOSIG
2026-03-24 05:50:00,METAR LIRN 240550Z 34006KT CAVOK 09/04 Q1016 NOSIG
2026-03-24 05:20:00,METAR LIRN 240520Z 36004KT CAVOK 07/03 Q1015 NOSIG
2026-03-24 04:50:00,METAR LIRN 240450Z 02005KT CAVOK 08/03 Q1015 NOSIG
2026-03-24 04:20:00,METAR LIRN 240420Z 02005KT CAVOK 07/03 Q1015 NOSIG
2026-03-24 03:50:00,METAR LIRN 240350Z 35004KT CAVOK 08/03 Q1015 NOSIG
2026-03-24 03:20:00,METAR LIRN 240320Z 01006KT CAVOK 09/03 Q1015 NOSIG
2026-03-24 02:20:00,METAR LIRN 240220Z 01005KT CAVOK 09/04 Q1015 NOSIG
2026-03-24 01:50:00,METAR LIRN 240150Z 04006KT CAVOK 09/03 Q1015 NOSIG
2026-03-24 01:20:00,METAR LIRN 240120Z 03004KT CAVOK 09/04 Q1016 NOSIG
2026-03-24 00:50:00,METAR LIRN 240050Z 03005KT CAVOK 10/04 Q1016 NOSIG
2026-03-24 00:20:00,METAR LIRN 240020Z 01005KT CAVOK 10/05 Q1016 NOSIG
2026-03-23 23:50:00,METAR LIRN 232350Z 01005KT CAVOK 11/05 Q1016 NOSIG
2026-03-23 23:20:00,METAR LIRN 232320Z 01005KT CAVOK 10/05 Q1016 NOSIG
2026-03-23 22:50:00,METAR LIRN 232250Z 01006KT CAVOK 11/05 Q1015 NOSIG
2026-03-23 22:20:00,METAR LIRN 232220Z 36006KT 340V050 CAVOK 11/05 Q1015 NOSIG
2026-03-23 21:50:00,METAR LIRN 232150Z 36005KT 210V020 9999 FEW080 11/05 Q1015 NOSIG
2026-03-23 21:20:00,METAR LIRN 232120Z 01004KT 260V060 9999 FEW080 11/06 Q1015 NOSIG
2026-03-23 20:50:00,METAR LIRN 232050Z 02006KT 310V110 9999 SCT070 11/06 Q1015 NOSIG
2026-03-23 20:20:00,METAR LIRN 232020Z 02006KT 9999 SCT070 11/06 Q1015 NOSIG
2026-03-23 19:50:00,METAR LIRN 231950Z 02007KT 9999 SCT060 11/06 Q1015 NOSIG
2026-03-23 19:20:00,METAR LIRN 231920Z 06004KT 9999 SCT060 11/05 Q1015 NOSIG
2026-03-23 18:50:00,METAR LIRN 231850Z 06005KT 360V100 8000 SCT050 12/06 Q1014 NOSIG
2026-03-23 18:20:00,METAR LIRN 231820Z 35005KT 290V030 8000 SCT050 17/08 Q1014 NOSIG
2026-03-23 17:50:00,METAR LIRN 231750Z 28005KT 6000 -RA SCT050 11/08 Q1013 NOSIG
2026-03-23 17:20:00,METAR LIRN 231720Z VRB06KT 6000 -RA SCT050 11/08 Q1013 NOSIG
2026-03-23 16:50:00,METAR LIRN 231650Z 29004KT 270V330 7000 -RA SCT050 12/08 Q1013 NOSIG
2026-03-23 16:20:00,METAR LIRN 231620Z 33009KT 9999 SCT050 14/06 Q1013 NOSIG
2026-03-23 15:50:00,METAR LIRN 231550Z 23005KT 190V250 9999 SCT070 14/05 Q1012 TEMPO SHRA
2026-03-23 15:20:00,METAR LIRN 231520Z 19005KT 140V230 9999 SCT070 15/04 Q1012 TEMPO SHRA
2026-03-23 14:50:00,METAR LIRN 231450Z 17004KT 100V220 9999 SCT070 16/04 Q1012 TEMPO SHRA
2026-03-23 14:20:00,METAR LIRN 231420Z 18005KT 120V220 9999 SCT070 15/04 Q1012 TEMPO SHRA
2026-03-23 13:50:00,METAR LIRN 231350Z 19005KT 140V240 9999 SCT075 16/05 Q1012 NOSIG
2026-03-23 13:20:00,METAR LIRN 231320Z VRB06KT 9999 SCT075 16/04 Q1012 NOSIG
2026-03-23 12:50:00,METAR LIRN 231250Z VRB05KT 9999 FEW040 15/03 Q1012 NOSIG
2026-03-23 12:20:00,METAR LIRN 231220Z 20004KT 140V250 9999 SCT055 15/04 Q1013 NOSIG
2026-03-23 11:50:00,METAR LIRN 231150Z VRB03KT 9999 SCT055 15/05 Q1013 NOSIG
2026-03-23 11:20:00,METAR LIRN 231120Z VRB02KT 9999 SCT050 15/05 Q1013 NOSIG
2026-03-23 10:50:00,METAR LIRN 231050Z VRB03KT 9999 SCT050 15/06 Q1013 NOSIG
2026-03-23 10:20:00,METAR LIRN 231020Z VRB02KT 9999 SCT050 14/05 Q1013 NOSIG
2026-03-23 09:50:00,METAR LIRN 230950Z VRB03KT 9999 FEW050 SCT070 14/05 Q1013 NOSIG
2026-03-23 09:20:00,METAR LIRN 230920Z VRB04KT 9999 FEW050 SCT070 16/06 Q1013 NOSIG
2026-03-23 08:50:00,METAR LIRN 230850Z VRB04KT 9999 FEW040 13/05 Q1013 NOSIG
2026-03-23 08:20:00,METAR LIRN 230820Z 17004KT 130V210 9999 FEW040 13/06 Q1013 NOSIG
2026-03-23 07:50:00,METAR LIRN 230750Z 19004KT 100V260 9999 FEW040 12/06 Q1013 NOSIG
2026-03-23 07:20:00,METAR LIRN 230720Z VRB02KT 9999 FEW040 11/05 Q1013 NOSIG
2026-03-23 06:50:00,METAR LIRN 230650Z 34003KT 280V030 9999 FEW040 09/05 Q1012 NOSIG
2026-03-23 06:20:00,METAR LIRN 230620Z 35004KT 300V020 9999 FEW035 10/05 Q1012 NOSIG
2026-03-23 05:50:00,METAR LIRN 230550Z 32003KT 280V360 9999 FEW080 09/05 Q1012 NOSIG
2026-03-23 05:20:00,METAR LIRN 230520Z 35003KT 310V080 9999 FEW080 09/05 Q1012 NOSIG
2026-03-23 04:50:00,METAR LIRN 230450Z VRB02KT 9999 FEW075 08/05 Q1012 NOSIG
2026-03-23 04:20:00,METAR LIRN 230420Z 04004KT 9999 FEW075 08/05 Q1012 NOSIG
2026-03-23 03:50:00,METAR LIRN 230350Z 05003KT 9999 FEW080 10/05 Q1012 NOSIG
2026-03-23 03:20:00,METAR LIRN 230320Z 35004KT 9999 FEW040 10/05 Q1012 NOSIG
2026-03-23 02:50:00,METAR LIRN 230250Z 01004KT 9999 FEW040 10/05 Q1012 NOSIG
2026-03-23 02:20:00,METAR LIRN 230220Z 28004KT 9999 FEW040 10/06 Q1012 NOSIG
2026-03-23 01:50:00,METAR LIRN 230150Z 29006KT 9999 FEW040 10/06 Q1012 NOSIG
2026-03-23 01:20:00,METAR LIRN 230120Z VRB02KT 9999 FEW040 10/04 Q1012 NOSIG
2026-03-23 00:50:00,METAR LIRN 230050Z VRB01KT 9999 FEW080 10/04 Q1012 NOSIG
2026-03-23 00:20:00,METAR LIRN 230020Z VRB01KT 9999 FEW080 10/04 Q1012 NOSIG
2026-03-22 23:50:00,METAR LIRN 222350Z 28002KT CAVOK 09/04 Q1012 NOSIG
2026-03-22 23:20:00,METAR LIRN 222320Z 32002KT CAVOK 09/05 Q1012 NOSIG
2026-03-22 22:50:00,METAR LIRN 222250Z 35002KT CAVOK 10/04 Q1012 NOSIG
2026-03-22 22:20:00,METAR LIRN 222220Z 32003KT 290V360 CAVOK 10/04 Q1012 NOSIG
2026-03-22 21:50:00,METAR LIRN 222150Z 34003KT 280V010 CAVOK 11/05 Q1012 NOSIG
2026-03-22 21:20:00,METAR LIRN 222120Z VRB02KT CAVOK 11/04 Q1012 NOSIG
2026-03-22 20:50:00,METAR LIRN 222050Z VRB02KT CAVOK 11/04 Q1012 NOSIG
2026-03-22 20:20:00,METAR LIRN 222020Z 36003KT 300V040 CAVOK 11/04 Q1012 NOSIG
2026-03-22 19:50:00,METAR LIRN 221950Z 03005G16KT 330V060 CAVOK 11/04 Q1012 NOSIG
2026-03-22 19:20:00,METAR LIRN 221920Z 34005KT 300V010 CAVOK 12/05 Q1012 NOSIG
2026-03-22 18:50:00,METAR LIRN 221850Z VRB02KT CAVOK 12/04 Q1012 NOSIG
2026-03-22 18:20:00,METAR LIRN 221820Z 33004KT 250V360 CAVOK 12/04 Q1011 NOSIG
2026-03-22 17:50:00,METAR LIRN 221750Z VRB02KT CAVOK 11/04 Q1011 NOSIG
2026-03-22 17:20:00,METAR LIRN 221720Z 33003KT 220V010 CAVOK 12/04 Q1011 NOSIG
2026-03-22 16:50:00,METAR LIRN 221650Z VRB02KT 9999 FEW040 12/04 Q1011 NOSIG
2026-03-22 16:20:00,METAR LIRN 221620Z 04006KT 9999 FEW040 12/04 Q1011 NOSIG
2026-03-22 15:50:00,METAR LIRN 221550Z 03004KT 330V050 9999 SCT040 12/04 Q1011 NOSIG
2026-03-22 15:20:00,METAR LIRN 221520Z 04008KT 9999 FEW040 SCT080 12/06 Q1011 NOSIG
2026-03-22 14:50:00,METAR LIRN 221450Z 03010KT 350V050 9999 FEW040 SCT060 12/05 Q1011 NOSIG
2026-03-22 14:20:00,METAR LIRN 221420Z 22004KT 170V250 9999 SCT070 13/04 Q1011 NOSIG
2026-03-22 13:50:00,METAR LIRN 221350Z 20005KT 150V270 9999 FEW040 SCT070 13/05 Q1011 NOSIG
2026-03-22 13:20:00,METAR LIRN 221320Z 22007KT 180V250 9999 FEW040 SCT070 13/06 Q1011 NOSIG
2026-03-22 12:50:00,METAR LIRN 221250Z VRB07KT 9999 FEW040 SCT070 14/06 Q1012 NOSIG
2026-03-22 12:20:00,METAR LIRN 221220Z 20007KT 160V230 9999 FEW040 SCT070 13/06 Q1012 NOSIG
2026-03-22 11:50:00,METAR LIRN 221150Z 18007KT 140V210 9999 SCT050 14/05 Q1012 NOSIG
2026-03-22 11:20:00,METAR LIRN 221120Z 20007KT 150V240 9999 SCT050 14/05 Q1012 NOSIG
2026-03-22 10:50:00,METAR LIRN 221050Z 19007KT 150V230 9999 SCT050 14/05 Q1012 NOSIG
2026-03-22 10:20:00,METAR LIRN 221020Z 18005KT 130V220 9999 SCT050 14/04 Q1012 NOSIG
2026-03-22 09:50:00,METAR LIRN 220950Z 20006KT 170V240 9999 SCT050 14/04 Q1012 NOSIG
2026-03-22 09:20:00,METAR LIRN 220920Z VRB05KT 9999 SCT050 14/04 Q1012 NOSIG
2026-03-22 08:50:00,METAR LIRN 220850Z 12004KT 060V200 9999 SCT060 14/02 Q1012 NOSIG
2026-03-22 08:20:00,METAR LIRN 220820Z 03004KT 350V070 9999 FEW060 14/01 Q1012 NOSIG
2026-03-22 07:50:00,METAR LIRN 220750Z VRB04KT 9999 FEW060 13/01 Q1012 NOSIG
2026-03-22 07:20:00,METAR LIRN 220720Z 36004KT 340V040 9999 FEW060 11/01 Q1011 NOSIG
2026-03-22 06:50:00,METAR LIRN 220650Z 02004KT 9999 FEW060 11/00 Q1011 NOSIG
2026-03-22 06:20:00,METAR LIRN 220620Z 02004KT 9999 SCT060 10/00 Q1011 NOSIG
2026-03-22 05:50:00,METAR LIRN 220550Z 36003KT 270V060 9999 BKN060 09/00 Q1011 NOSIG
2026-03-22 05:20:00,METAR LIRN 220520Z 36004KT 9999 BKN080 08/00 Q1011 NOSIG
2026-03-22 04:50:00,METAR LIRN 220450Z 01004KT 9999 SCT080 09/00 Q1011 NOSIG
2026-03-22 04:20:00,METAR LIRN 220420Z 03003KT 010V070 CAVOK 09/01 Q1011 NOSIG
2026-03-22 03:50:00,METAR LIRN 220350Z 36002KT CAVOK 09/01 Q1011 NOSIG
2026-03-22 03:20:00,METAR LIRN 220320Z 03004KT 9999 FEW080 08/01 Q1011 NOSIG
2026-03-22 02:50:00,METAR LIRN 220250Z 35003KT 9999 FEW080 10/00 Q1011 NOSIG
2026-03-22 02:20:00,METAR LIRN 220220Z 29004KT 9999 SCT080 09/01 Q1011 NOSIG
2026-03-22 01:50:00,METAR LIRN 220150Z VRB01KT 8000 BKN080 10/00 Q1011 NOSIG
2026-03-22 01:20:00,METAR LIRN 220120Z 02004KT 9999 BKN080 10/00 Q1011 NOSIG
2026-03-22 00:50:00,METAR LIRN 220050Z 35004KT 9999 SCT080 10/00 Q1011 NOSIG
2026-03-22 00:20:00,METAR LIRN 220020Z 36004KT CAVOK 11/M00 Q1012 NOSIG
2026-03-21 23:50:00,METAR LIRN 212350Z 36005KT CAVOK 11/M00 Q1012 NOSIG
2026-03-21 23:20:00,METAR LIRN 212320Z 02004KT 9999 SCT080 10/M00 Q1012 NOSIG
2026-03-21 22:50:00,METAR LIRN 212250Z 03004KT 9999 SCT080 10/M00 Q1012 NOSIG
2026-03-21 22:20:00,METAR LIRN 212220Z 06004KT 020V100 9999 SCT080 10/M01 Q1012 NOSIG
2026-03-21 21:50:00,METAR LIRN 212150Z 06005KT CAVOK 11/M01 Q1012 NOSIG
2026-03-21 21:20:00,METAR LIRN 212120Z 07003KT 020V110 9999 SCT080 11/M00 Q1012 NOSIG
2026-03-21 20:50:00,METAR LIRN 212050Z 05005KT 9999 BKN080 11/M01 Q1012 NOSIG
2026-03-21 20:20:00,METAR LIRN 212020Z 06005KT 9999 BKN080 11/M01 Q1012 NOSIG
2026-03-21 19:50:00,METAR LIRN 211950Z 06004KT 040V100 9999 BKN080 11/M01 Q1012 NOSIG
2026-03-21 19:20:00,METAR LIRN 211920Z 04004KT 9999 BKN080 11/M00 Q1012 NOSIG
2026-03-21 18:50:00,METAR LIRN 211850Z 05004KT 9999 BKN080 12/M00 Q1011 NOSIG
2026-03-21 18:20:00,METAR LIRN 211820Z 08003KT 050V120 9999 BKN080 12/M00 Q1011 NOSIG
2026-03-21 17:50:00,METAR LIRN 211750Z 07004KT 040V110 9999 BKN080 12/00 Q1011 NOSIG
2026-03-21 17:20:00,METAR LIRN 211720Z 08004KT 050V120 9999 BKN080 13/00 Q1011 NOSIG
2026-03-21 16:50:00,METAR LIRN 211650Z 09004KT 050V120 9999 BKN080 13/M00 Q1011 NOSIG
2026-03-21 16:20:00,METAR LIRN 211620Z 09006KT 050V130 9999 BKN080 13/M01 Q1011 NOSIG
2026-03-21 15:50:00,METAR LIRN 211550Z 05005KT 030V100 9999 BKN080 14/M00 Q1010 NOSIG
2026-03-21 14:50:00,METAR LIRN 211450Z 02006KT 270V060 9999 BKN075 14/M01 Q1010 NOSIG
2026-03-21 14:20:00,METAR LIRN 211420Z 03006KT 360V060 9999 BKN070 14/M00 Q1010 NOSIG
2026-03-21 13:50:00,METAR LIRN 211350Z VRB04KT 9999 BKN060 14/M01 Q1010 NOSIG
2026-03-21 13:20:00,METAR LIRN 211320Z 02003KT 340V100 9999 BKN060 14/M01 Q1010 NOSIG
2026-03-21 12:50:00,METAR LIRN 211250Z 03007KT 9999 BKN060 14/M00 Q1010 NOSIG
2026-03-21 12:20:00,METAR LIRN 211220Z VRB07KT 9999 BKN055 14/M00 Q1010 NOSIG
2026-03-21 11:50:00,METAR LIRN 211150Z VRB09KT 9999 BKN055 14/M00 Q1011 NOSIG
2026-03-21 11:20:00,METAR LIRN 211120Z 04007KT 9999 BKN055 14/01 Q1011 NOSIG
2026-03-21 10:50:00,METAR LIRN 211050Z 07008KT 020V120 9999 SCT050 15/00 Q1011 NOSIG
2026-03-21 10:20:00,METAR LIRN 211020Z 03008KT 300V050 9999 FEW050 14/03 Q1011 NOSIG
2026-03-21 09:50:00,METAR LIRN 210950Z 04010KT 360V070 9999 FEW050 13/01 Q1011 NOSIG
2026-03-21 09:20:00,METAR LIRN 210920Z 07005KT 010V130 9999 FEW050 14/02 Q1011 NOSIG
2026-03-21 08:50:00,METAR LIRN 210850Z VRB04KT CAVOK 14/02 Q1011 NOSIG
2026-03-21 08:20:00,METAR LIRN 210820Z 01004KT 350V050 CAVOK 12/02 Q1011 NOSIG
2026-03-21 07:50:00,METAR LIRN 210750Z 02005KT 240V050 CAVOK 12/01 Q1011 NOSIG
2026-03-21 07:20:00,METAR LIRN 210720Z 34003KT 300V360 CAVOK 11/01 Q1011 NOSIG
2026-03-21 06:50:00,METAR LIRN 210650Z VRB02KT CAVOK 10/02 Q1011 NOSIG
2026-03-21 06:20:00,METAR LIRN 210620Z 31004KT 260V010 CAVOK 08/01 Q1011 NOSIG
2026-03-21 05:50:00,METAR LIRN 210550Z AUTO VRB02KT 9999 FEW084/// 07/01 Q1011
2026-03-21 05:20:00,METAR LIRN 210520Z AUTO VRB01KT 9999 BKN084/// 06/01 Q1011
2026-03-21 04:50:00,METAR LIRN 210450Z AUTO 31001KT 9999 BKN086/// 06/01 Q1011
2026-03-21 04:20:00,METAR LIRN 210420Z AUTO VRB02KT 9999 SCT085/// 06/00 Q1011
2026-03-21 03:50:00,METAR LIRN 210350Z AUTO 29003KT 9999 BKN086/// 04/M01 Q1011
2026-03-21 03:20:00,METAR LIRN 210320Z AUTO VRB01KT 9999 BKN086/// 07/00 Q1011
2026-03-21 02:50:00,METAR LIRN 210250Z AUTO 31002KT 9999 BKN087/// 04/M00 Q1011
2026-03-21 02:20:00,METAR LIRN 210220Z AUTO VRB01KT 9999 FEW087/// 05/M01 Q1011
2026-03-21 01:50:00,METAR LIRN 210150Z AUTO VRB01KT 9999 NCD 05/M01 Q1011
2026-03-21 01:20:00,METAR LIRN 210120Z AUTO 31002KT 9999 NCD 06/M01 Q1012
2026-03-21 00:50:00,METAR LIRN 210050Z AUTO 27002KT 9999 NCD 06/M01 Q1012
2026-03-21 00:20:00,METAR LIRN 210020Z AUTO 28002KT 9999 NCD 05/M02 Q1012
2026-03-20 23:50:00,METAR LIRN 202350Z AUTO VRB02KT 9999 NCD 07/M01 Q1012
2026-03-20 23:20:00,METAR LIRN 202320Z AUTO VRB01KT 9999 NCD 07/M01 Q1012
2026-03-20 22:50:00,METAR LIRN 202250Z AUTO VRB02KT 9999 NCD 07/M01 Q1012
2026-03-20 22:20:00,METAR LIRN 202220Z AUTO 35004KT 290V010 9999 NCD 08/M02 Q1013
2026-03-20 21:50:00,METAR LIRN 202150Z 31004KT 250V330 CAVOK 08/M02 Q1013 NOSIG
2026-03-20 21:20:00,METAR LIRN 202120Z VRB03KT CAVOK 08/M02 Q1013 NOSIG
2026-03-20 20:50:00,METAR LIRN 202050Z 06004KT 040V100 CAVOK 09/M02 Q1013 NOSIG
2026-03-20 20:20:00,METAR LIRN 202020Z 04006KT CAVOK 09/M01 Q1013 NOSIG
2026-03-20 19:50:00,METAR LIRN 201950Z 03008KT CAVOK 10/M01 Q1012 NOSIG
2026-03-20 19:20:00,METAR LIRN 201920Z 04005KT CAVOK 09/M00 Q1012 NOSIG
2026-03-20 18:50:00,METAR LIRN 201850Z 03009KT 310V060 CAVOK 11/M01 Q1012 NOSIG
2026-03-20 18:20:00,METAR LIRN 201820Z 02008KT 270V070 9999 FEW070 11/M01 Q1012 NOSIG
2026-03-20 17:50:00,METAR LIRN 201750Z 04009KT 9999 FEW070 11/M01 Q1012 NOSIG
2026-03-20 17:20:00,METAR LIRN 201720Z 06004KT 9999 FEW070 12/00 Q1011 NOSIG
2026-03-20 16:50:00,METAR LIRN 201650Z 07006KT 030V110 9999 SCT070 13/M00 Q1011 NOSIG
2026-03-20 16:20:00,METAR LIRN 201620Z 07007KT 040V100 9999 BKN070 13/M00 Q1011 NOSIG
2026-03-20 15:50:00,METAR LIRN 201550Z 07007KT 030V100 9999 BKN070 13/M01 Q1011 NOSIG
2026-03-20 15:20:00,METAR LIRN 201520Z 06011KT 9999 BKN070 14/00 Q1011 NOSIG
2026-03-20 14:50:00,METAR LIRN 201450Z 05011KT 9999 BKN070 14/00 Q1011 NOSIG
2026-03-20 14:20:00,METAR LIRN 201420Z 06011KT 9999 BKN080 14/00 Q1011 NOSIG
2026-03-20 13:50:00,METAR LIRN 201350Z 06011KT 9999 BKN080 15/M00 Q1011 NOSIG
2026-03-20 13:20:00,METAR LIRN 201320Z 06011KT 9999 BKN060 14/M00 Q1011 NOSIG
2026-03-20 12:50:00,METAR LIRN 201250Z 06007KT 030V110 9999 BKN055 15/M00 Q1011 NOSIG
2026-03-20 12:20:00,METAR LIRN 201220Z 06009KT 040V100 9999 BKN050 14/01 Q1011 NOSIG
2026-03-20 11:50:00,METAR LIRN 201150Z VRB04KT 9999 SCT055 15/M01 Q1012 NOSIG
2026-03-20 11:20:00,METAR LIRN 201120Z 03007KT 290V060 9999 SCT050 15/01 Q1012 NOSIG
2026-03-20 10:50:00,METAR LIRN 201050Z 04008KT 360V090 CAVOK 16/02 Q1012 NOSIG
2026-03-20 10:20:00,METAR LIRN 201020Z 05009KT 030V090 9999 FEW050 15/02 Q1012 NOSIG
2026-03-20 09:50:00,METAR LIRN 200950Z 05007KT 290V090 CAVOK 15/02 Q1012 NOSIG
2026-03-20 09:20:00,METAR LIRN 200920Z 06006KT 020V120 CAVOK 14/01 Q1012 NOSIG
2026-03-20 08:50:00,METAR LIRN 200850Z 04005KT 340V080 CAVOK 14/02 Q1013 NOSIG
2026-03-20 08:20:00,METAR LIRN 200820Z 04006KT 300V070 CAVOK 13/03 Q1012 NOSIG
2026-03-20 07:50:00,METAR LIRN 200750Z 36005KT 260V050 CAVOK 13/02 Q1012 NOSIG
2026-03-20 07:20:00,METAR LIRN 200720Z 36004KT 290V030 CAVOK 12/03 Q1012 NOSIG
2026-03-20 06:50:00,METAR LIRN 200650Z VRB02KT CAVOK 09/04 Q1012 NOSIG
2026-03-20 06:20:00,METAR LIRN 200620Z VRB03KT CAVOK 10/03 Q1012 NOSIG
2026-03-20 05:50:00,METAR LIRN 200550Z VRB02KT CAVOK 08/03 Q1012 NOSIG
2026-03-20 05:20:00,METAR LIRN 200520Z VRB02KT CAVOK 08/02 Q1012 NOSIG
2026-03-20 04:50:00,METAR LIRN 200450Z 35003KT CAVOK 08/02 Q1012 NOSIG
2026-03-20 04:20:00,METAR LIRN 200420Z 01004KT CAVOK 08/02 Q1012 NOSIG
2026-03-20 03:50:00,METAR LIRN 200350Z 02005KT 350V060 CAVOK 08/02 Q1012 NOSIG
2026-03-20 02:50:00,METAR LIRN 200250Z 01005KT CAVOK 08/02 Q1012 NOSIG
2026-03-20 02:20:00,METAR LIRN 200220Z 35003KT CAVOK 07/01 Q1012 NOSIG
2026-03-20 01:50:00,METAR LIRN 200150Z VRB02KT CAVOK 06/02 Q1012 NOSIG
2026-03-20 01:20:00,METAR LIRN 200120Z 36002KT CAVOK 08/02 Q1012 NOSIG
2026-03-20 00:50:00,METAR LIRN 200050Z 04004KT 350V070 CAVOK 09/02 Q1012 NOSIG
2026-03-20 00:20:00,METAR LIRN 200020Z 01004KT CAVOK 09/02 Q1013 NOSIG
2026-03-19 23:50:00,METAR LIRN 192350Z 01006KT CAVOK 10/02 Q1013 NOSIG
2026-03-19 23:20:00,METAR LIRN 192320Z 01006KT CAVOK 10/02 Q1013 NOSIG
2026-03-19 22:50:00,METAR LIRN 192250Z 01005KT CAVOK 09/02 Q1013 NOSIG
2026-03-19 22:20:00,METAR LIRN 192220Z 04003KT 350V090 CAVOK 10/02 Q1013 NOSIG
2026-03-19 21:50:00,METAR LIRN 192150Z 36006KT 280V030 CAVOK 10/03 Q1013 NOSIG
2026-03-19 21:20:00,METAR LIRN 192120Z 35005KT 270V010 CAVOK 11/02 Q1013 NOSIG
2026-03-19 20:50:00,METAR LIRN 192050Z 36006KT 260V020 CAVOK 11/02 Q1013 NOSIG
2026-03-19 20:20:00,METAR LIRN 192020Z 36007KT 280V020 CAVOK 11/01 Q1013 NOSIG
2026-03-19 19:50:00,METAR LIRN 191950Z 35005KT CAVOK 10/02 Q1013 NOSIG
2026-03-19 19:20:00,METAR LIRN 191920Z 01005KT CAVOK 11/02 Q1012 NOSIG
2026-03-19 18:50:00,METAR LIRN 191850Z 01004KT CAVOK 11/02 Q1012 NOSIG
2026-03-19 18:20:00,METAR LIRN 191820Z 03005KT CAVOK 10/03 Q1012 NOSIG
2026-03-19 17:50:00,METAR LIRN 191750Z 04003KT 020V080 CAVOK 11/03 Q1012 NOSIG
2026-03-19 17:20:00,METAR LIRN 191720Z 05006KT CAVOK 12/03 Q1012 NOSIG
2026-03-19 16:50:00,METAR LIRN 191650Z 06007KT CAVOK 13/03 Q1012 NOSIG
2026-03-19 16:20:00,METAR LIRN 191620Z 05011KT 9999 FEW060 14/03 Q1011 NOSIG
2026-03-19 15:50:00,METAR LIRN 191550Z 07008KT 040V110 9999 SCT060 14/04 Q1011 NOSIG
2026-03-19 15:20:00,METAR LIRN 191520Z 07009KT 040V120 9999 SCT060 14/03 Q1011 NOSIG
2026-03-19 14:50:00,METAR LIRN 191450Z 07008KT 040V110 9999 BKN050 14/04 Q1011 NOSIG
2026-03-19 14:20:00,METAR LIRN 191420Z 04009KT 350V060 9999 SCT070 15/04 Q1011 NOSIG
2026-03-19 13:50:00,METAR LIRN 191350Z 04008KT 9999 SCT055 15/05 Q1011 NOSIG
2026-03-19 13:20:00,METAR LIRN 191320Z 04007KT 330V070 9999 SCT050 14/04 Q1011 NOSIG
2026-03-19 12:50:00,METAR LIRN 191250Z 04015KT 350V060 9999 SCT045 15/05 Q1011 NOSIG
2026-03-19 12:20:00,METAR LIRN 191220Z 04018KT 9999 SCT050 14/05 Q1011 NOSIG
2026-03-19 11:50:00,METAR LIRN 191150Z 03018KT 9999 SCT050 14/06 Q1011 NOSIG
2026-03-19 11:20:00,METAR LIRN 191120Z 03016KT 9999 SCT050 13/06 Q1011 NOSIG
2026-03-19 10:50:00,METAR LIRN 191050Z 02012KT 9999 SCT045 12/05 Q1012 NOSIG
2026-03-19 10:20:00,METAR LIRN 191020Z 01011KT 270V040 9999 BKN040 12/06 Q1012 NOSIG
2026-03-19 09:50:00,METAR LIRN 190950Z 36008KT 290V020 9999 BKN040 11/06 Q1012 NOSIG
2026-03-19 09:20:00,METAR LIRN 190920Z 34004KT 260V030 9999 BKN040 11/05 Q1012 NOSIG
2026-03-19 08:50:00,METAR LIRN 190850Z VRB02KT 9999 BKN040 10/06 Q1012 NOSIG
2026-03-19 08:20:00,METAR LIRN 190820Z VRB02KT 9999 BKN040 10/06 Q1012 NOSIG
2026-03-19 07:50:00,METAR LIRN 190750Z 14003KT 080V170 9999 BKN040 09/06 Q1011 NOSIG
2026-03-19 07:20:00,METAR LIRN 190720Z VRB02KT 9999 BKN040 09/06 Q1011 NOSIG
2026-03-19 06:50:00,METAR LIRN 190650Z VRB04KT 9999 BKN040 09/06 Q1011 NOSIG
2026-03-19 06:20:00,METAR LIRN 190620Z 35003KT 310V070 9999 BKN040 09/05 Q1011 NOSIG
2026-03-19 05:50:00,METAR LIRN 190550Z VRB04KT 9999 BKN040 08/05 Q1011 NOSIG
2026-03-19 05:20:00,METAR LIRN 190520Z 34003KT 9999 -RA SCT030 SCT060 08/06 Q1011 NOSIG
2026-03-19 04:50:00,METAR LIRN 190450Z 31003KT 9999 -RA FEW020 SCT040 08/06 Q1011 NOSIG
2026-03-19 04:20:00,METAR LIRN 190420Z VRB02KT 9999 -RA SCT050 08/05 Q1011 NOSIG
2026-03-19 03:50:00,METAR LIRN 190350Z 05003KT 9999 SCT050 08/05 Q1011 NOSIG
2026-03-19 03:20:00,METAR LIRN 190320Z 04002KT 9999 SCT050 08/05 Q1011 NOSIG
2026-03-19 02:50:00,METAR LIRN 190250Z 01003KT 350V070 CAVOK 08/04 Q1011 NOSIG
2026-03-19 02:20:00,METAR LIRN 190220Z 36004KT CAVOK 08/04 Q1011 NOSIG
2026-03-19 01:50:00,METAR LIRN 190150Z 29003KT 260V360 CAVOK 07/04 Q1011 NOSIG
2026-03-19 01:20:00,METAR LIRN 190120Z 03004KT CAVOK 07/03 Q1011 NOSIG
2026-03-19 00:50:00,METAR LIRN 190050Z VRB02KT CAVOK 06/03 Q1012 NOSIG
2026-03-19 00:20:00,METAR LIRN 190020Z 02004KT 350V050 CAVOK 06/03 Q1012 NOSIG
2026-03-18 23:50:00,METAR LIRN 182350Z 03005KT 330V070 CAVOK 07/03 Q1012 NOSIG
2026-03-18 23:20:00,METAR LIRN 182320Z 02007KT CAVOK 06/03 Q1012 NOSIG
2026-03-18 22:50:00,METAR LIRN 182250Z 35004KT CAVOK 06/03 Q1012 NOSIG
2026-03-18 22:20:00,METAR LIRN 182220Z 36003KT 260V010 CAVOK 06/04 Q1012 NOSIG
2026-03-18 21:50:00,METAR LIRN 182150Z VRB04KT CAVOK 06/04 Q1012 NOSIG
2026-03-18 21:20:00,METAR LIRN 182120Z 05003KT CAVOK 06/04 Q1011 NOSIG
2026-03-18 20:50:00,METAR LIRN 182050Z 02004KT 350V070 CAVOK 07/04 Q1011 NOSIG
2026-03-18 20:20:00,METAR LIRN 182020Z 01005KT CAVOK 07/04 Q1011 NOSIG
2026-03-18 19:50:00,METAR LIRN 181950Z 01006KT CAVOK 07/04 Q1011 NOSIG
2026-03-18 19:20:00,METAR LIRN 181920Z 36004KT 330V060 CAVOK 07/05 Q1011 NOSIG
2026-03-18 18:50:00,METAR LIRN 181850Z 36005KT 340V040 CAVOK 07/06 Q1011 NOSIG
2026-03-18 18:20:00,METAR LIRN 181820Z 02005KT 9999 SCT070 07/05 Q1010 NOSIG
2026-03-18 17:50:00,METAR LIRN 181750Z 01006KT 240V030 9999 SCT070 08/05 Q1010 NOSIG
2026-03-18 17:20:00,METAR LIRN 181720Z 36003KT 9999 BKN060 08/05 Q1010 NOSIG
2026-03-18 16:50:00,METAR LIRN 181650Z VRB03KT 8000 -RA BKN040 07/05 Q1009 NOSIG
2026-03-18 16:20:00,METAR LIRN 181620Z 10005KT 6000 -RA BKN040 08/06 Q1010 NOSIG
2026-03-18 15:50:00,METAR LIRN 181550Z 05006G16KT 350V080 3000 -DZ BR SCT020 BKN040 07/06 Q1010 NOSIG
2026-03-18 15:20:00,METAR LIRN 181520Z 11004KT 090V150 5000 -DZ BKN040 08/06 Q1009 NOSIG
2026-03-18 14:50:00,METAR LIRN 181450Z 23005KT 200V290 9999 BKN040 09/05 Q1009 NOSIG
2026-03-18 14:20:00,METAR LIRN 181420Z 27005KT 220V320 9999 -RA BKN040 09/04 Q1009 NOSIG
2026-03-18 13:50:00,METAR LIRN 181350Z 28006KT 250V310 8000 -RA FEW020 BKN040 09/04 Q1009 NOSIG
2026-03-18 13:20:00,METAR LIRN 181320Z VRB02KT 8000 -RA FEW020 BKN050 11/03 Q1008 NOSIG
2026-03-18 12:50:00,METAR LIRN 181250Z VRB02KT 9999 -RA FEW020 BKN040 11/03 Q1009 NOSIG
2026-03-18 12:20:00,METAR LIRN 181220Z 08008KT 030V130 8000 -RA FEW020 BKN040 11/03 Q1009 NOSIG
2026-03-18 11:50:00,METAR LIRN 181150Z VRB02KT 9999 SCT050 12/00 Q1009 NOSIG
2026-03-18 11:20:00,METAR LIRN 181120Z 35005KT 300V040 9999 SCT040 13/M00 Q1009 NOSIG
2026-03-18 10:50:00,METAR LIRN 181050Z 33004KT 270V020 9999 FEW040 13/01 Q1009 NOSIG
2026-03-18 10:20:00,METAR LIRN 181020Z 04005KT 320V090 9999 FEW040 13/01 Q1009 NOSIG
2026-03-18 09:50:00,METAR LIRN 180950Z 35005KT 270V040 CAVOK 12/M00 Q1009 NOSIG
2026-03-18 09:20:00,METAR LIRN 180920Z VRB04KT CAVOK 12/M00 Q1009 NOSIG
2026-03-18 08:50:00,METAR LIRN 180850Z 01003KT 280V090 CAVOK 11/M00 Q1009 NOSIG
2026-03-18 08:20:00,METAR LIRN 180820Z VRB02KT CAVOK 12/00 Q1009 NOSIG
2026-03-18 07:50:00,METAR LIRN 180750Z VRB01KT CAVOK 11/00 Q1009 NOSIG
2026-03-18 07:20:00,METAR LIRN 180720Z VRB03KT CAVOK 09/02 Q1009 NOSIG
2026-03-18 06:50:00,METAR LIRN 180650Z 34003KT 320V020 CAVOK 08/02 Q1008 NOSIG
2026-03-18 06:20:00,METAR LIRN 180620Z 36005KT CAVOK 07/02 Q1008 NOSIG
2026-03-18 05:50:00,METAR LIRN 180550Z 34004KT 300V360 CAVOK 06/02 Q1008 NOSIG
2026-03-18 05:20:00,METAR LIRN 180520Z 36004KT 340V040 9999 FEW070 06/01 Q1008 NOSIG
2026-03-18 04:50:00,METAR LIRN 180450Z 35006KT 9999 FEW070 06/01 Q1009 NOSIG
2026-03-18 04:20:00,METAR LIRN 180420Z VRB02KT 9999 FEW080 06/01 Q1009 NOSIG
2026-03-18 03:50:00,METAR LIRN 180350Z 33004KT 9999 FEW080 06/01 Q1009 NOSIG
2026-03-18 03:20:00,METAR LIRN 180320Z 01003KT 340V070 9999 FEW080 05/00 Q1009 NOSIG
2026-03-18 02:50:00,METAR LIRN 180250Z 36004KT 340V040 9999 FEW070 07/01 Q1009 NOSIG
2026-03-18 02:20:00,METAR LIRN 180220Z 01005KT 9999 FEW060 07/01 Q1009 NOSIG
2026-03-18 01:50:00,METAR LIRN 180150Z 01004KT 9999 FEW060 07/01 Q1010 NOSIG
2026-03-18 01:20:00,METAR LIRN 180120Z 02004KT CAVOK 07/01 Q1010 NOSIG
2026-03-18 00:50:00,METAR LIRN 180050Z 02006KT CAVOK 08/01 Q1011 NOSIG
2026-03-18 00:20:00,METAR LIRN 180020Z 04006KT CAVOK 08/01 Q1011 NOSIG
2026-03-17 23:50:00,METAR LIRN 172350Z 03004KT CAVOK 08/01 Q1011 NOSIG
2026-03-17 23:20:00,METAR LIRN 172320Z 02005KT CAVOK 08/01 Q1011 NOSIG
2026-03-17 22:50:00,METAR LIRN 172250Z 01004KT CAVOK 08/02 Q1011 NOSIG
2026-03-17 22:20:00,METAR LIRN 172220Z VRB02KT 9999 FEW080 09/01 Q1011 NOSIG
2026-03-17 21:50:00,METAR LIRN 172150Z 06004KT 040V100 9999 FEW060 10/02 Q1012 NOSIG
2026-03-17 21:20:00,METAR LIRN 172120Z 08004KT 030V160 9999 BKN060 11/02 Q1011 NOSIG
2026-03-17 20:50:00,METAR LIRN 172050Z 06006KT 030V100 9999 BKN060 11/02 Q1012 NOSIG
2026-03-17 20:20:00,METAR LIRN 172020Z 08005KT 040V110 9999 -RA BKN060 11/03 Q1012 NOSIG
2026-03-17 19:50:00,METAR LIRN 171950Z 06007KT 9999 BKN060 12/04 Q1012 NOSIG
2026-03-17 19:20:00,METAR LIRN 171920Z 07006KT 030V110 9999 BKN060 12/04 Q1012 NOSIG
2026-03-17 18:50:00,METAR LIRN 171850Z 04006KT 010V070 9999 -RA BKN060 12/05 Q1012 NOSIG
2026-03-17 18:20:00,METAR LIRN 171820Z 07005KT 030V110 9999 BKN060 12/04 Q1012 NOSIG
2026-03-17 17:50:00,METAR LIRN 171750Z 05009KT 9999 -RA BKN060 12/05 Q1011 NOSIG
2026-03-17 17:20:00,METAR LIRN 171720Z 03009KT 330V060 9999 -RA BKN060 13/05 Q1011 NOSIG
2026-03-17 16:50:00,METAR LIRN 171650Z 04013KT 9999 BKN060 13/04 Q1011 NOSIG
2026-03-17 16:20:00,METAR LIRN 171620Z 05011KT 9999 BKN070 14/03 Q1011 NOSIG
2026-03-17 15:50:00,METAR LIRN 171550Z 06008KT 030V090 9999 BKN060 14/05 Q1011 NOSIG
2026-03-17 14:50:00,METAR LIRN 171450Z 04014KT 9999 SCT050 16/05 Q1011 NOSIG
2026-03-17 14:20:00,METAR LIRN 171420Z 05011KT 020V090 9999 FEW050 16/04 Q1011 NOSIG
2026-03-17 13:50:00,METAR LIRN 171350Z 06009KT 030V100 9999 SCT040 16/05 Q1011 NOSIG
2026-03-17 13:20:00,METAR LIRN 171320Z 05015KT 9999 FEW040 SCT070 14/06 Q1012 NOSIG
2026-03-17 12:50:00,METAR LIRN 171250Z 03014KT 9999 FEW045 SCT070 15/07 Q1012 NOSIG
2026-03-17 12:20:00,METAR LIRN 171220Z 04014KT 9999 FEW045 SCT070 16/06 Q1012 NOSIG
2026-03-17 11:50:00,METAR LIRN 171150Z 06011KT 030V100 9999 SCT065 16/06 Q1012 NOSIG
2026-03-17 11:20:00,METAR LIRN 171120Z 04009KT 9999 SCT065 15/08 Q1013 NOSIG
2026-03-17 10:50:00,METAR LIRN 171050Z 07007KT 040V110 9999 FEW040 SCT070 14/07 Q1013 NOSIG
2026-03-17 10:20:00,METAR LIRN 171020Z 06008KT 9999 FEW040 SCT080 14/08 Q1013 NOSIG
2026-03-17 09:50:00,METAR LIRN 170950Z 07011KT 9999 FEW040 SCT080 14/09 Q1013 NOSIG
2026-03-17 09:20:00,METAR LIRN 170920Z 06008KT 030V090 9999 FEW040 BKN070 13/10 Q1013 NOSIG
2026-03-17 08:50:00,METAR LIRN 170850Z 05007KT 9999 FEW040 BKN070 13/10 Q1013 NOSIG
2026-03-17 08:20:00,METAR LIRN 170820Z 03006KT 260V070 9999 BKN065 13/11 Q1013 NOSIG
2026-03-17 07:50:00,METAR LIRN 170750Z 03007KT 320V060 9999 -RA FEW020 BKN065 12/10 Q1013 NOSIG
2026-03-17 07:20:00,METAR LIRN 170720Z 02007KT 9999 -RA FEW020 BKN070 12/10 Q1012 NOSIG
2026-03-17 06:50:00,METAR LIRN 170650Z 04003KT 010V070 7000 -RA FEW020 BKN070 12/11 Q1012 NOSIG
2026-03-17 06:20:00,METAR LIRN 170620Z 36004KT 340V040 7000 -RA FEW020 OVC060 12/10 Q1012 NOSIG
2026-03-17 05:50:00,METAR LIRN 170550Z 04005KT 6000 -RA BKN060 12/10 Q1012 NOSIG
2026-03-17 05:20:00,METAR LIRN 170520Z 01008KT 9999 SCT070 12/10 Q1012 NOSIG
2026-03-17 04:50:00,METAR LIRN 170450Z 36007KT CAVOK 12/09 Q1011 NOSIG
2026-03-17 04:20:00,METAR LIRN 170420Z 01004KT 9999 -RA FEW080 13/09 Q1011 NOSIG
2026-03-17 03:50:00,METAR LIRN 170350Z 02005KT 9999 -RA FEW080 13/09 Q1011 NOSIG
2026-03-17 03:20:00,METAR LIRN 170320Z 36006KT 9999 -RA SCT080 13/09 Q1010 NOSIG
2026-03-17 02:50:00,METAR LIRN 170250Z 36006KT CAVOK 13/03 Q1010 NOSIG
2026-03-17 02:20:00,METAR LIRN 170220Z 36005KT CAVOK 14/09 Q1011 NOSIG
2026-03-17 01:50:00,METAR LIRN 170150Z 36006KT CAVOK 14/09 Q1010 NOSIG
2026-03-17 01:20:00,METAR LIRN 170120Z 01006KT CAVOK 13/09 Q1011 NOSIG
2026-03-17 00:50:00,METAR LIRN 170050Z 35005KT CAVOK 13/09 Q1011 NOSIG
2026-03-17 00:20:00,METAR LIRN 170020Z 03005KT CAVOK 13/09 Q1011 NOSIG
2026-03-16 23:50:00,METAR LIRN 162350Z 03007KT CAVOK 13/09 Q1011 NOSIG
2026-03-16 23:20:00,METAR LIRN 162320Z 02006KT CAVOK 13/09 Q1011 NOSIG
2026-03-16 22:50:00,METAR LIRN 162250Z 02007KT 9999 FEW080 14/09 Q1012 NOSIG
2026-03-16 22:20:00,METAR LIRN 162220Z 02008KT 320V050 9999 FEW080 14/09 Q1012 NOSIG
2026-03-16 21:50:00,METAR LIRN 162150Z 02007KT 350V050 9999 -DZ SCT070 14/09 Q1012 NOSIG
2026-03-16 21:20:00,METAR LIRN 162120Z 03012KT 9999 SCT070 15/08 Q1011 NOSIG
2026-03-16 20:50:00,METAR LIRN 162050Z 04013KT 9999 FEW070 15/08 Q1011 NOSIG
2026-03-16 20:20:00,METAR LIRN 162020Z 05012KT 9999 FEW080 15/08 Q1011 NOSIG
2026-03-16 19:50:00,METAR LIRN 161950Z 06010KT 9999 FEW080 15/08 Q1011 NOSIG
2026-03-16 19:20:00,METAR LIRN 161920Z 06012KT 9999 SCT080 15/08 Q1011 NOSIG
2026-03-16 18:50:00,METAR LIRN 161850Z 05012KT 9999 SCT075 15/08 Q1011 NOSIG
2026-03-16 18:20:00,METAR LIRN 161820Z 05013KT 9999 SCT075 15/08 Q1011 NOSIG
2026-03-16 17:50:00,METAR LIRN 161750Z 06013KT 9999 FEW045 SCT080 15/08 Q1010 NOSIG
2026-03-16 17:20:00,METAR LIRN 161720Z 05013KT 9999 FEW045 SCT080 15/08 Q1010 NOSIG
2026-03-16 16:50:00,METAR LIRN 161650Z 06014KT 9999 FEW045 16/08 Q1010 NOSIG
2026-03-16 16:20:00,METAR LIRN 161620Z 05015KT 9999 FEW050 16/08 Q1010 NOSIG
2026-03-16 15:50:00,METAR LIRN 161550Z 05015KT 9999 FEW045 17/08 Q1010 NOSIG
2026-03-16 15:20:00,METAR LIRN 161520Z 05015KT 9999 FEW045 17/08 Q1010 NOSIG
2026-03-16 14:50:00,METAR LIRN 161450Z 07012KT 030V110 9999 FEW045 18/07 Q1009 NOSIG
2026-03-16 14:20:00,METAR LIRN 161420Z 05014KT 9999 FEW045 18/08 Q1009 NOSIG
2026-03-16 13:50:00,METAR LIRN 161350Z 04016KT 9999 FEW040 18/08 Q1009 NOSIG
2026-03-16 13:20:00,METAR LIRN 161320Z 05014KT 9999 FEW040 17/08 Q1009 NOSIG
2026-03-16 12:50:00,METAR LIRN 161250Z 05016KT 9999 FEW040 18/08 Q1009 NOSIG
2026-03-16 12:20:00,METAR LIRN 161220Z 05016KT 030V090 9999 FEW040 18/08 Q1009 NOSIG
2026-03-16 11:50:00,METAR LIRN 161150Z 05015KT 020V080 9999 FEW040 18/08 Q1009 NOSIG
2026-03-16 11:20:00,METAR LIRN 161120Z 05014KT 9999 FEW040 18/09 Q1009 NOSIG
2026-03-16 10:50:00,METAR LIRN 161050Z 06012KT 030V100 9999 FEW040 17/08 Q1009 NOSIG
2026-03-16 10:20:00,METAR LIRN 161020Z 05014KT 9999 FEW040 17/08 Q1009 NOSIG
2026-03-16 09:50:00,METAR LIRN 160950Z 03009KT 360V070 9999 FEW050 17/07 Q1009 NOSIG
2026-03-16 09:20:00,METAR LIRN 160920Z 04007KT 9999 FEW050 16/09 Q1009 NOSIG
2026-03-16 08:50:00,METAR LIRN 160850Z 02007KT 280V050 9999 FEW050 15/09 Q1009 NOSIG
2026-03-16 08:20:00,METAR LIRN 160820Z 36008KT 270V040 9999 FEW050 14/09 Q1009 NOSIG
2026-03-16 07:50:00,METAR LIRN 160750Z 35006KT 9999 FEW050 13/09 Q1008 NOSIG
2026-03-16 07:20:00,METAR LIRN 160720Z 04006KT 350V070 9999 FEW040 BKN080 13/08 Q1008 NOSIG
2026-03-16 06:50:00,METAR LIRN 160650Z 06006KT 9999 FEW040 BKN080 13/08 Q1008 NOSIG
2026-03-16 06:20:00,METAR LIRN 160620Z 05006KT 9999 FEW040 BKN060 12/08 Q1007 NOSIG
2026-03-16 05:50:00,METAR LIRN 160550Z 01005KT 9999 BKN060 12/09 Q1007 NOSIG
2026-03-16 05:20:00,METAR LIRN 160520Z 02006KT 320V060 9999 -RA BKN070 12/09 Q1007 NOSIG
2026-03-16 04:50:00,METAR LIRN 160450Z 02007KT 9999 -RA SCT045 12/09 Q1006 NOSIG
2026-03-16 04:20:00,METAR LIRN 160420Z 06005KT 030V100 CAVOK 12/09 Q1006 NOSIG
2026-03-16 03:50:00,METAR LIRN 160350Z 06007KT CAVOK 13/08 Q1006 NOSIG
2026-03-16 02:50:00,METAR LIRN 160250Z 06007KT CAVOK 14/08 Q1005 NOSIG
2026-03-16 02:20:00,METAR LIRN 160220Z 04013KT CAVOK 14/08 Q1005 NOSIG
2026-03-16 01:50:00,METAR LIRN 160150Z 05013KT CAVOK 14/08 Q1005 NOSIG
2026-03-16 01:20:00,METAR LIRN 160120Z 07008KT 050V110 CAVOK 14/08 Q1005 NOSIG
2026-03-16 00:20:00,METAR LIRN 160020Z 04007KT CAVOK 13/08 Q1005 NOSIG
2026-03-15 23:50:00,METAR LIRN 152350Z 02004KT CAVOK 12/07 Q1005 NOSIG
2026-03-15 23:20:00,METAR LIRN 152320Z VRB02KT CAVOK 13/07 Q1005 NOSIG
2026-03-15 22:50:00,METAR LIRN 152250Z VRB02KT CAVOK 13/08 Q1005 NOSIG
2026-03-15 22:20:00,METAR LIRN 152220Z 02005KT 290V060 CAVOK 13/08 Q1005 NOSIG
2026-03-15 21:50:00,METAR LIRN 152150Z 04007KT 360V060 CAVOK 13/08 Q1005 NOSIG
2026-03-15 21:20:00,METAR LIRN 152120Z 04008KT CAVOK 13/08 Q1005 NOSIG
2026-03-15 20:50:00,METAR LIRN 152050Z 05009KT CAVOK 14/08 Q1005 NOSIG
2026-03-15 20:20:00,METAR LIRN 152020Z 03007KT CAVOK 14/08 Q1005 NOSIG
2026-03-15 19:50:00,METAR LIRN 151950Z 03006KT 320V050 9999 SCT080 14/08 Q1004 NOSIG
2026-03-15 19:20:00,METAR LIRN 151920Z 04005KT 9999 SCT070 15/08 Q1004 NOSIG
2026-03-15 18:50:00,METAR LIRN 151850Z 34004KT 310V030 CAVOK 16/06 Q1004 NOSIG
2026-03-15 18:20:00,METAR LIRN 151820Z 30004KT 270V010 CAVOK 15/05 Q1004 NOSIG
2026-03-15 17:50:00,METAR LIRN 151750Z 31003KT 250V350 9999 SCT080 15/05 Q1003 NOSIG
2026-03-15 17:20:00,METAR LIRN 151720Z 22004KT 190V250 9999 SCT070 16/05 Q1003 NOSIG
2026-03-15 16:50:00,METAR LIRN 151650Z 22006KT 9999 BKN070 16/06 Q1003 NOSIG
2026-03-15 16:20:00,METAR LIRN 151620Z 20006KT 170V240 9999 FEW080 16/06 Q1002 NOSIG
2026-03-15 15:50:00,METAR LIRN 151550Z 19007KT 150V240 9999 SCT080 17/06 Q1002 NOSIG
2026-03-15 15:20:00,METAR LIRN 151520Z 21008KT 9999 SCT060 17/06 Q1002 NOSIG
2026-03-15 14:50:00,METAR LIRN 151450Z 20008KT 170V230 9999 SCT060 17/07 Q1002 NOSIG
2026-03-15 14:20:00,METAR LIRN 151420Z 20006KT 170V230 9999 BKN060 17/08 Q1002 NOSIG
2026-03-15 13:50:00,METAR LIRN 151350Z 20008KT 9999 BKN060 17/08 Q1002 NOSIG
2026-03-15 13:20:00,METAR LIRN 151320Z 20006KT 140V240 9999 SCT055 17/07 Q1002 NOSIG
2026-03-15 12:50:00,METAR LIRN 151250Z 19008KT 150V210 9999 SCT055 17/07 Q1002 NOSIG
2026-03-15 12:20:00,METAR LIRN 151220Z 21008KT 170V250 9999 SCT050 17/07 Q1002 NOSIG
2026-03-15 11:50:00,METAR LIRN 151150Z 20006KT 140V240 9999 SCT055 18/06 Q1002 NOSIG
2026-03-15 11:20:00,METAR LIRN 151120Z 22004KT 170V290 9999 SCT050 17/07 Q1002 NOSIG
2026-03-15 10:50:00,METAR LIRN 151050Z 18004KT 120V240 9999 SCT050 17/06 Q1002 NOSIG
2026-03-15 10:20:00,METAR LIRN 151020Z 22006KT 160V260 9999 FEW050 17/07 Q1002 NOSIG
2026-03-15 09:50:00,METAR LIRN 150950Z 18004KT 130V220 9999 FEW050 17/06 Q1002 NOSIG
2026-03-15 09:20:00,METAR LIRN 150920Z VRB05KT 9999 FEW050 17/06 Q1002 NOSIG
2026-03-15 08:50:00,METAR LIRN 150850Z 06006KT 030V100 9999 FEW050 16/08 Q1002 NOSIG
2026-03-15 08:20:00,METAR LIRN 150820Z 01005KT 340V080 9999 FEW050 15/08 Q1002 NOSIG
