Time_recorded,METAR
2026-05-02 15:30:00,METAR VOHS 021530Z 18005KT 6000 SCT020 33/15 Q1008 NOSIG
2026-05-02 15:00:00,METAR VOHS 021500Z 20005KT 6000 SCT015 BKN100 33/15 Q1007 NOSIG
2026-05-02 14:30:00,METAR VOHS 021430Z 20006KT 6000 SCT015 BKN100 33/14 Q1007 NOSIG
2026-05-02 14:00:00,METAR VOHS 021400Z 20005KT 6000 SCT015 BKN100 33/13 Q1007 NOSIG
2026-05-02 13:30:00,METAR VOHS 021330Z 20004KT 6000 SCT015 BKN100 34/13 Q1007 NOSIG
2026-05-02 13:00:00,METAR VOHS 021300Z 21005KT 6000 SCT015 BKN100 35/14 Q1006 NOSIG
2026-05-02 12:30:00,METAR VOHS 021230Z 22005KT 6000 SCT015 BKN100 36/13 Q1006 NOSIG
2026-05-02 12:00:00,METAR VOHS 021200Z 23005KT 6000 SCT015 SCT025 BKN100 37/12 Q1006 NOSIG
2026-05-02 11:30:00,METAR VOHS 021130Z 26007KT 6000 SCT015 BKN100 38/10 Q1006 NOSIG
2026-05-02 11:00:00,METAR VOHS 021100Z 26007KT 6000 SCT015 BKN100 39/11 Q1006 NOSIG
2026-05-02 10:30:00,METAR VOHS 021030Z 26010KT 6000 SCT015 BKN100 39/11 Q1006 NOSIG
2026-05-02 10:00:00,METAR VOHS 021000Z 29013KT 6000 SCT015 BKN100 39/11 Q1007 NOSIG
2026-05-02 09:30:00,METAR VOHS 020930Z 27008KT 6000 SCT015 BKN100 39/10 Q1007 NOSIG
2026-05-02 09:05:00,METAR VOHS 020905Z 30008KT 6000 SCT015 SCT100 39/12 Q1007 NOSIG
2026-05-02 08:30:00,METAR VOHS 020830Z 30008KT 6000 SCT015 38/12 Q1008 NOSIG
2026-05-02 08:00:00,METAR VOHS 020800Z 30010KT 6000 SCT015 38/12 Q1009 NOSIG
2026-05-02 07:30:00,METAR VOHS 020730Z 30010KT 6000 SCT015 38/12 Q1009 NOSIG
2026-05-02 07:00:00,METAR VOHS 020700Z 30007KT 6000 NSC 38/11 Q1010 NOSIG
2026-05-02 06:30:00,METAR VOHS 020630Z 33009KT 6000 NSC 37/12 Q1010 NOSIG
2026-05-02 06:00:00,METAR VOHS 020600Z 33007KT 6000 NSC 36/12 Q1011 NOSIG
2026-05-02 05:30:00,METAR VOHS 020530Z 31010KT 6000 NSC 36/13 Q1011 NOSIG
2026-05-02 05:00:00,METAR VOHS 020500Z 31009KT 6000 NSC 35/12 Q1011 NOSIG
2026-05-02 04:30:00,METAR VOHS 020430Z 30010KT 6000 NSC 35/12 Q1012 NOSIG
2026-05-02 04:00:00,METAR VOHS 020400Z 33008KT 6000 NSC 34/13 Q1012 NOSIG
2026-05-02 03:30:00,METAR VOHS 020330Z 35011KT 6000 NSC 33/13 Q1012 NOSIG
2026-05-02 03:00:00,METAR VOHS 020300Z 35009KT 6000 NSC 31/15 Q1011 NOSIG
2026-05-02 02:30:00,METAR VOHS 020230Z 30008KT 6000 NSC 30/14 Q1011 NOSIG
2026-05-02 02:00:00,METAR VOHS 020200Z 29008KT 6000 NSC 29/13 Q1011 NOSIG
2026-05-02 01:30:00,METAR VOHS 020130Z 27008KT 6000 NSC 27/14 Q1010 NOSIG
2026-05-02 01:00:00,METAR VOHS 020100Z 27008KT 6000 NSC 25/13 Q1010 NOSIG
2026-05-02 00:30:00,METAR VOHS 020030Z 27007KT 6000 NSC 25/14 Q1009 NOSIG
2026-05-02 00:00:00,METAR VOHS 020000Z 26008KT 6000 NSC 25/14 Q1009 NOSIG
2026-05-01 23:30:00,METAR VOHS 012330Z 28008KT 6000 NSC 25/13 Q1009 NOSIG
2026-05-01 23:00:00,METAR VOHS 012300Z 28009KT 6000 NSC 25/13 Q1009 NOSIG
2026-05-01 22:30:00,METAR VOHS 012230Z 28009KT 6000 NSC 25/13 Q1009 NOSIG
2026-05-01 22:00:00,METAR VOHS 012200Z 28010KT 6000 NSC 26/12 Q1009 NOSIG
2026-05-01 21:30:00,METAR VOHS 012130Z 28010KT 6000 NSC 26/12 Q1009 NOSIG
2026-05-01 21:00:00,METAR VOHS 012100Z 29009KT 6000 NSC 26/12 Q1009 NOSIG
2026-05-01 20:30:00,METAR VOHS 012030Z 28010KT 6000 NSC 27/11 Q1009 NOSIG
2026-05-01 20:00:00,METAR VOHS 012000Z 28007KT 6000 NSC 28/12 Q1009 NOSIG
2026-05-01 19:30:00,METAR VOHS 011930Z 27009KT 6000 NSC 28/11 Q1009 NOSIG
2026-05-01 19:00:00,METAR VOHS 011900Z 25007KT 6000 NSC 28/12 Q1009 NOSIG
2026-05-01 18:30:00,METAR VOHS 011830Z 25007KT 6000 NSC 28/12 Q1010 NOSIG
2026-05-01 18:00:00,METAR VOHS 011800Z 24007KT 6000 NSC 29/12 Q1010 NOSIG
2026-05-01 17:30:00,METAR VOHS 011730Z 24006KT 6000 NSC 30/12 Q1010 NOSIG
2026-05-01 17:00:00,METAR VOHS 011700Z 22007KT 6000 NSC 30/13 Q1010 NOSIG
2026-05-01 16:30:00,METAR VOHS 011630Z 22007KT 6000 NSC 31/12 Q1010 NOSIG
2026-05-01 16:00:00,METAR VOHS 011600Z VRB03KT 6000 NSC 30/14 Q1010 NOSIG
2026-05-01 15:30:00,METAR VOHS 011530Z 19004KT 6000 NSC 35/13 Q1009 NOSIG
2026-05-01 15:00:00,METAR VOHS 011500Z 23005KT 6000 NSC 33/12 Q1009 NOSIG
2026-05-01 14:30:00,METAR VOHS 011430Z 24005KT 6000 NSC 34/11 Q1009 NOSIG
2026-05-01 14:00:00,METAR VOHS 011400Z 21007KT 6000 NSC 34/11 Q1008 NOSIG
2026-05-01 13:30:00,METAR VOHS 011330Z 21006KT 6000 NSC 34/12 Q1008 NOSIG
2026-05-01 13:00:00,METAR VOHS 011300Z 22006KT 6000 NSC 35/11 Q1008 NOSIG
2026-05-01 12:30:00,METAR VOHS 011230Z 24010KT 6000 NSC 36/11 Q1008 NOSIG
2026-05-01 12:00:00,METAR VOHS 011200Z 24012G22KT 6000 FEW020 37/11 Q1007 NOSIG
2026-05-01 11:30:00,METAR VOHS 011130Z 24012KT 6000 FEW020 37/11 Q1007 NOSIG
2026-05-01 11:00:00,METAR VOHS 011100Z 26014G24KT 6000 FEW020 38/10 Q1007 NOSIG
2026-05-01 10:30:00,METAR VOHS 011030Z 27010KT 6000 FEW020 37/10 Q1008 NOSIG
2026-05-01 10:00:00,METAR VOHS 011000Z 27015G25KT 6000 FEW020 38/11 Q1008 NOSIG
2026-05-01 09:30:00,METAR VOHS 010930Z 28016G26KT 6000 FEW020 38/11 Q1008 NOSIG
2026-05-01 09:00:00,METAR VOHS 010900Z 27012G22KT 6000 FEW020 37/11 Q1009 NOSIG
2026-05-01 08:30:00,METAR VOHS 010830Z 26018G28KT 6000 FEW020 37/12 Q1009 NOSIG
2026-05-01 08:00:00,METAR VOHS 010800Z 27012G22KT 6000 FEW020 36/12 Q1010 NOSIG
2026-05-01 07:30:00,METAR VOHS 010730Z 26014G24KT 6000 FEW020 35/12 Q1011 NOSIG
2026-05-01 07:00:00,METAR VOHS 010700Z 26016G26KT 6000 NSC 35/12 Q1012 NOSIG
2026-05-01 06:30:00,METAR VOHS 010630Z 28014KT 6000 NSC 34/12 Q1012 NOSIG
2026-05-01 06:00:00,METAR VOHS 010600Z 26013KT 6000 NSC 33/13 Q1013 NOSIG
2026-05-01 05:30:00,METAR VOHS 010530Z 27015G25KT 6000 NSC 33/13 Q1013 NOSIG
2026-05-01 05:00:00,METAR VOHS 010500Z 28016G26KT 6000 NSC 33/13 Q1013 NOSIG
2026-05-01 04:30:00,METAR VOHS 010430Z 28016G26KT 6000 NSC 32/13 Q1013 NOSIG
2026-05-01 04:00:00,METAR VOHS 010400Z 28014G24KT 6000 NSC 32/13 Q1013 NOSIG
2026-05-01 03:30:00,METAR VOHS 010330Z 27015G25KT 6000 NSC 31/13 Q1014 NOSIG
2026-05-01 03:00:00,METAR VOHS 010300Z 25015G25KT 6000 NSC 31/14 Q1013 NOSIG
2026-05-01 02:30:00,METAR VOHS 010230Z 24010KT 6000 NSC 30/15 Q1013 NOSIG
2026-05-01 02:00:00,METAR VOHS 010200Z 24008KT 6000 NSC 28/15 Q1012 NOSIG
2026-05-01 01:30:00,METAR VOHS 010130Z 23007KT 6000 NSC 27/15 Q1012 NOSIG
2026-05-01 01:00:00,METAR VOHS 010100Z 22007KT 6000 NSC 26/14 Q1012 NOSIG
2026-05-01 00:30:00,METAR VOHS 010030Z 22007KT 6000 NSC 26/12 Q1011 NOSIG
2026-05-01 00:00:00,METAR VOHS 010000Z 26006KT 6000 NSC 25/12 Q1010 NOSIG
2026-04-30 23:30:00,METAR VOHS 302330Z 24006KT 6000 NSC 26/12 Q1010 NOSIG
2026-04-30 23:00:00,METAR VOHS 302300Z 24006KT 6000 NSC 28/12 Q1009 NOSIG
2026-04-30 22:30:00,METAR VOHS 302230Z 31006KT 6000 NSC 29/12 Q1009 NOSIG
2026-04-30 22:00:00,METAR VOHS 302200Z 29006KT 6000 NSC 29/11 Q1009 NOSIG
2026-04-30 21:30:00,METAR VOHS 302130Z 25006KT 6000 NSC 27/13 Q1009 NOSIG
2026-04-30 21:00:00,METAR VOHS 302100Z 27007KT 6000 NSC 28/13 Q1009 NOSIG
2026-04-30 20:30:00,METAR VOHS 302030Z 27006KT 6000 NSC 29/12 Q1009 NOSIG
2026-04-30 20:00:00,METAR VOHS 302000Z 26006KT 6000 NSC 29/12 Q1009 NOSIG
2026-04-30 19:30:00,METAR VOHS 301930Z 26005KT 6000 NSC 30/13 Q1010 NOSIG
2026-04-30 19:00:00,METAR VOHS 301900Z 26007KT 6000 FEW020 31/14 Q1010 NOSIG
2026-04-30 18:30:00,METAR VOHS 301830Z 23006KT 6000 FEW020 30/15 Q1011 NOSIG
2026-04-30 18:00:00,METAR VOHS 301800Z 22006KT 6000 FEW020 30/16 Q1011 NOSIG
2026-04-30 17:30:00,METAR VOHS 301730Z 20005KT 6000 FEW020 30/15 Q1011 NOSIG
2026-04-30 17:00:00,METAR VOHS 301700Z 19004KT 6000 FEW020 SCT100 31/12 Q1011 NOSIG
2026-04-30 16:30:00,METAR VOHS 301630Z 21004KT 6000 FEW020 SCT100 32/12 Q1010 NOSIG
2026-04-30 16:00:00,METAR VOHS 301600Z 19004KT 6000 SCT020 SCT100 31/15 Q1010 NOSIG
2026-04-30 15:00:00,METAR VOHS 301500Z 17004KT 6000 SCT020 SCT100 32/14 Q1010 NOSIG
2026-04-30 14:30:00,METAR VOHS 301430Z VRB04KT 6000 FEW020 SCT100 34/13 Q1009 NOSIG
2026-04-30 14:00:00,METAR VOHS 301400Z 20003KT 6000 FEW020 33/12 Q1009 NOSIG
2026-04-30 13:30:00,METAR VOHS 301330Z 20003KT 6000 FEW020 34/12 Q1009 NOSIG
2026-04-30 13:00:00,METAR VOHS 301300Z 24004KT 6000 FEW020 35/12 Q1008 NOSIG
2026-04-30 12:30:00,METAR VOHS 301230Z 29005KT 6000 FEW020 37/10 Q1008 NOSIG
2026-04-30 12:00:00,METAR VOHS 301200Z 32007KT 6000 FEW020 38/10 Q1008 NOSIG
2026-04-30 11:30:00,METAR VOHS 301130Z 33008KT 6000 FEW020 38/10 Q1008 NOSIG
2026-04-30 11:00:00,METAR VOHS 301100Z 33006KT 6000 FEW020 38/10 Q1008 NOSIG
2026-04-30 10:30:00,METAR VOHS 301030Z 27008KT 6000 FEW020 38/10 Q1008 NOSIG
2026-04-30 10:00:00,METAR VOHS 301000Z COR 27010KT 6000 FEW020 39/10 Q1008 NOSIG
2026-04-30 09:30:00,METAR VOHS 300930Z 27010KT 6000 FEW020 38/10 Q1009 NOSIG
2026-04-30 09:00:00,METAR VOHS 300900Z 27010KT 6000 FEW020 38/09 Q1009 NOSIG
2026-04-30 08:30:00,METAR VOHS 300830Z 31011KT 6000 FEW020 39/09 Q1010 NOSIG
2026-04-30 08:00:00,METAR VOHS 300800Z 31011KT 6000 FEW020 38/11 Q1010 NOSIG
2026-04-30 07:30:00,METAR VOHS 300730Z 29011KT 6000 FEW020 37/11 Q1011 NOSIG
2026-04-30 07:00:00,METAR VOHS 300700Z 31010KT 6000 FEW020 37/12 Q1011 NOSIG
2026-04-30 06:30:00,METAR VOHS 300630Z 29012KT 6000 FEW020 37/14 Q1012 NOSIG
2026-04-30 06:00:00,METAR VOHS 300600Z 33008KT 6000 FEW020 37/13 Q1012 NOSIG
2026-04-30 05:30:00,METAR VOHS 300530Z 30010KT 6000 FEW020 36/14 Q1012 NOSIG
2026-04-30 05:00:00,METAR VOHS 300500Z 30008KT 6000 FEW020 35/15 Q1012 NOSIG
2026-04-30 04:30:00,METAR VOHS 300430Z 32010KT 6000 FEW020 34/16 Q1012 NOSIG
2026-04-30 04:00:00,METAR VOHS 300400Z 30013KT 6000 FEW020 33/16 Q1013 NOSIG
2026-04-30 03:30:00,METAR VOHS 300330Z 28014KT 6000 FEW020 31/19 Q1013 NOSIG
2026-04-30 03:03:00,METAR VOHS 300303Z 28014KT 6000 FEW020 31/19 Q1013 NOSIG
2026-04-30 03:00:00,METAR VOHS 300300Z COR 28014KT 6000 FEW020 31/19 Q1013 NOSIG
2026-04-30 02:30:00,METAR VOHS 300230Z 26012KT 6000 NSC 30/19 Q1012 NOSIG
2026-04-30 02:00:00,METAR VOHS 300200Z 25009KT 6000 FEW020 29/19 Q1012 NOSIG
2026-04-30 01:30:00,METAR VOHS 300130Z 25006KT 6000 FEW020 28/19 Q1011 NOSIG
2026-04-30 01:00:00,METAR VOHS 300100Z 26006KT 6000 FEW020 BKN100 27/19 Q1011 NOSIG
2026-04-30 00:30:00,METAR VOHS 300030Z 26006KT 6000 FEW020 28/19 Q1011 NOSIG
2026-04-30 00:00:00,METAR VOHS 300000Z 25008KT 6000 FEW020 28/19 Q1010 NOSIG
2026-04-29 23:30:00,METAR VOHS 292330Z 22008KT 6000 FEW020 28/19 Q1009 NOSIG
2026-04-29 23:00:00,METAR VOHS 292300Z 22008KT 6000 FEW020 29/18 Q1009 NOSIG
2026-04-29 22:30:00,METAR VOHS 292230Z 22007KT 6000 FEW020 29/19 Q1009 NOSIG
2026-04-29 22:00:00,METAR VOHS 292200Z 22007KT 6000 FEW020 29/19 Q1009 NOSIG
2026-04-29 21:30:00,METAR VOHS 292130Z 23007KT 6000 FEW020 29/19 Q1009 NOSIG
2026-04-29 21:00:00,METAR VOHS 292100Z 23007KT 6000 FEW020 29/19 Q1009 NOSIG
2026-04-29 20:30:00,METAR VOHS 292030Z 22006KT 6000 FEW020 29/20 Q1009 NOSIG
2026-04-29 20:00:00,METAR VOHS 292000Z 22006KT 6000 FEW020 29/20 Q1010 NOSIG
2026-04-29 19:30:00,METAR VOHS 291930Z 20004KT 6000 FEW020 29/20 Q1010 NOSIG
2026-04-29 19:00:00,METAR VOHS 291900Z 20006KT 6000 FEW020 30/20 Q1010 NOSIG
2026-04-29 18:30:00,METAR VOHS 291830Z 20005KT 6000 FEW020 30/20 Q1010 NOSIG
2026-04-29 18:00:00,METAR VOHS 291800Z 20007KT 6000 FEW020 30/20 Q1010 NOSIG
2026-04-29 17:30:00,METAR VOHS 291730Z 20006KT 6000 FEW020 30/21 Q1010 NOSIG
2026-04-29 17:00:00,METAR VOHS 291700Z 18005KT 6000 FEW020 31/21 Q1010 NOSIG
2026-04-29 16:30:00,METAR VOHS 291630Z 18005KT 6000 FEW020 31/21 Q1010 NOSIG
2026-04-29 16:00:00,METAR VOHS 291600Z 19006KT 6000 FEW020 31/21 Q1010 NOSIG
2026-04-29 15:30:00,METAR VOHS 291530Z 20005KT 6000 FEW020 31/21 Q1010 NOSIG
2026-04-29 15:00:00,METAR VOHS 291500Z 18005KT 6000 FEW020 31/22 Q1009 NOSIG
2026-04-29 14:30:00,METAR VOHS 291430Z 17004KT 6000 FEW020 32/21 Q1009 NOSIG
2026-04-29 14:00:00,METAR VOHS 291400Z 14005KT 6000 FEW020 33/21 Q1008 NOSIG
2026-04-29 13:30:00,METAR VOHS 291330Z VRB04KT 6000 FEW015 SCT100 33/20 Q1008 NOSIG
2026-04-29 13:00:00,METAR VOHS 291300Z VRB04KT 6000 FEW015 SCT100 34/19 Q1008 NOSIG
2026-04-29 12:30:00,METAR VOHS 291230Z VRB04KT 6000 FEW015 SCT025 FEW030TCU 35/19 Q1007 NOSIG
2026-04-29 12:00:00,METAR VOHS 291200Z VRB04KT 6000 FEW015 SCT025 FEW030TCU 36/19 Q1007 NOSIG
2026-04-29 11:30:00,METAR VOHS 291130Z VRB04KT 6000 FEW015 SCT025 FEW030TCU 36/18 Q1007 NOSIG
2026-04-29 11:00:00,METAR VOHS 291100Z VRB04KT 6000 FEW015 SCT025 FEW030TCU 37/17 Q1007 NOSIG
2026-04-29 10:30:00,METAR VOHS 291030Z VRB04KT 6000 FEW020 38/17 Q1008 NOSIG
2026-04-29 10:00:00,METAR VOHS 291000Z VRB04KT 6000 FEW020 38/17 Q1008 NOSIG
2026-04-29 09:30:00,METAR VOHS 290930Z 33006KT 6000 FEW020 38/17 Q1008 NOSIG
2026-04-29 09:00:00,METAR VOHS 290900Z 26008KT 6000 FEW020 38/19 Q1009 NOSIG
2026-04-29 08:30:00,METAR VOHS 290830Z 29008KT 6000 FEW020 37/19 Q1009 NOSIG
2026-04-29 08:00:00,METAR VOHS 290800Z 29008KT 6000 FEW020 37/19 Q1010 NOSIG
2026-04-29 07:30:00,METAR VOHS 290730Z 31008KT 6000 FEW020 36/19 Q1010 NOSIG
2026-04-29 07:00:00,METAR VOHS 290700Z 30010KT 6000 FEW020 36/20 Q1011 NOSIG
2026-04-29 06:30:00,METAR VOHS 290630Z 32010KT 6000 FEW020 35/19 Q1011 NOSIG
2026-04-29 06:00:00,METAR VOHS 290600Z 28008KT 6000 FEW020 35/20 Q1012 NOSIG
2026-04-29 05:30:00,METAR VOHS 290530Z 26009KT 6000 FEW020 34/20 Q1012 NOSIG
2026-04-29 05:00:00,METAR VOHS 290500Z 28013KT 6000 FEW020 34/20 Q1012 NOSIG
2026-04-29 04:30:00,METAR VOHS 290430Z 26011KT 6000 FEW020 32/20 Q1012 NOSIG
2026-04-29 04:00:00,METAR VOHS 290400Z 27012KT 6000 FEW020 32/19 Q1012 NOSIG
2026-04-29 03:30:00,METAR VOHS 290330Z 27014KT 6000 FEW020 31/19 Q1012 NOSIG
2026-04-29 03:00:00,METAR VOHS 290300Z 25009KT 6000 FEW020 29/18 Q1012 NOSIG
2026-04-29 02:30:00,METAR VOHS 290230Z 25009KT 6000 FEW020 28/17 Q1012 NOSIG
2026-04-29 02:00:00,METAR VOHS 290200Z 23004KT 6000 FEW020 27/17 Q1011 NOSIG
2026-04-29 01:30:00,METAR VOHS 290130Z 23003KT 6000 FEW020 26/17 Q1011 NOSIG
2026-04-29 01:00:00,METAR VOHS 290100Z 26005KT 6000 FEW020 25/16 Q1010 NOSIG
2026-04-29 00:30:00,METAR VOHS 290030Z 28011KT 6000 FEW020 26/16 Q1010 NOSIG
2026-04-29 00:00:00,METAR VOHS 290000Z 28007KT 6000 FEW015 26/16 Q1009 NOSIG
2026-04-28 23:32:00,METAR VOHS 282332Z 27008KT 6000 FEW015 27/15 Q1009 NOSIG
2026-04-28 23:30:00,METAR VOHS 282330Z 22005KT 6000 FEW015 27/15 Q1009 NOSIG
2026-04-28 23:00:00,METAR VOHS 282300Z 22005KT 6000 FEW015 27/15 Q1008 NOSIG
2026-04-28 22:30:00,METAR VOHS 282230Z 22005KT 6000 FEW015 27/15 Q1008 NOSIG
2026-04-28 22:00:00,METAR VOHS 282200Z 22005KT 6000 FEW015 27/15 Q1008 NOSIG
2026-04-28 21:30:00,METAR VOHS 282130Z 22005KT 6000 FEW015 28/16 Q1008 NOSIG
2026-04-28 21:00:00,METAR VOHS 282100Z 22009KT 6000 FEW015 27/15 Q1008 NOSIG
2026-04-28 20:30:00,METAR VOHS 282030Z 22009KT 6000 SCT015 27/15 Q1009 NOSIG
2026-04-28 20:00:00,METAR VOHS 282000Z 21007KT 6000 FEW015 26/16 Q1009 NOSIG
2026-04-28 19:30:00,METAR VOHS 281930Z 20007KT 6000 FEW015 26/15 Q1009 NOSIG
2026-04-28 19:00:00,METAR VOHS 281900Z 20007KT 6000 FEW015 SCT100 27/15 Q1010 NOSIG
2026-04-28 18:30:00,METAR VOHS 281830Z 18008KT 6000 FEW015 SCT100 27/15 Q1010 NOSIG
2026-04-28 18:00:00,METAR VOHS 281800Z 18008KT 6000 FEW015 SCT100 28/15 Q1010 NOSIG
2026-04-28 17:30:00,METAR VOHS 281730Z 17009KT 6000 FEW015 SCT100 28/15 Q1010 NOSIG
2026-04-28 17:00:00,METAR VOHS 281700Z 17010KT 6000 FEW015 SCT100 28/15 Q1011 NOSIG
2026-04-28 16:30:00,METAR VOHS 281630Z 17010KT 6000 FEW015 SCT100 27/16 Q1010 NOSIG
2026-04-28 16:00:00,METAR VOHS 281600Z 17012KT 6000 SCT015 SCT100 26/18 Q1010 NOSIG
2026-04-28 15:30:00,METAR VOHS 281530Z 17012KT 6000 SCT015 BKN100 26/17 Q1010 NOSIG
2026-04-28 15:00:00,METAR VOHS 281500Z 17012KT 6000 SCT015 BKN100 26/18 Q1009 NOSIG
2026-04-28 14:30:00,METAR VOHS 281430Z 16010KT 5000 HZ SCT015 BKN100 27/18 Q1009 NOSIG
2026-04-28 14:02:00,METAR VOHS 281402Z 17010KT 5000 HZ SCT015 BKN100 27/18 Q1009 NOSIG
2026-04-28 13:30:00,METAR VOHS 281330Z 16013KT 5000 HZ SCT015 BKN100 28/19 Q1009 NOSIG
2026-04-28 13:00:00,METAR VOHS 281300Z 17008KT 5000 HZ SCT015 BKN100 FEW030CB 31/20 Q1007 NOSIG
2026-04-28 12:30:00,METAR VOHS 281230Z 13007KT 5000 HZ SCT015 BKN100 FEW030CB 31/19 Q1007 NOSIG
2026-04-28 12:00:00,METAR VOHS 281200Z 14012KT 5000 VCRA SCT015 SCT025 FEW030CB 33/18 Q1006 NOSIG
2026-04-28 11:30:00,METAR VOHS 281130Z 26006KT 5000 VCRA SCT015 SCT025 FEW030CB 38/15 Q1006 NOSIG
2026-04-28 11:00:00,METAR VOHS 281100Z 25006KT 5000 VCRA SCT015 SCT025 FEW030CB 37/16 Q1006 TEMPO 4000 TSRA
2026-04-28 10:30:00,METAR VOHS 281030Z 31008KT 5000 VCRA SCT015 SCT025 FEW030CB 38/16 Q1006 TEMPO 4000 TSRA
2026-04-28 10:00:00,METAR VOHS 281000Z 31006KT 6000 SCT015 SCT025 FEW030CB 38/17 Q1007 NOSIG
2026-04-28 09:30:00,METAR VOHS 280930Z 29006KT 6000 SCT015 SCT025 FEW030CB 37/19 Q1007 NOSIG
2026-04-28 09:00:00,METAR VOHS 280900Z 30006KT 6000 FEW020 FEW030CB 37/19 Q1008 NOSIG
2026-04-28 08:34:00,METAR VOHS 280834Z 27009KT 6000 FEW020 FEW030CB 37/19 Q1008 NOSIG
2026-04-28 08:00:00,METAR VOHS 280800Z 29009KT 6000 FEW020 37/19 Q1009 NOSIG
2026-04-28 07:30:00,METAR VOHS 280730Z 27008KT 6000 FEW020 37/19 Q1010 NOSIG
2026-04-28 07:00:00,METAR VOHS 280700Z 30010KT 6000 FEW020 37/19 Q1010 NOSIG
2026-04-28 06:30:00,METAR VOHS 280630Z 30008KT 6000 FEW020 35/20 Q1011 NOSIG
2026-04-28 06:00:00,METAR VOHS 280600Z 26008KT 6000 FEW020 35/20 Q1011 NOSIG
2026-04-28 05:30:00,METAR VOHS 280530Z 26008KT 6000 FEW020 34/21 Q1011 NOSIG
2026-04-28 05:00:00,METAR VOHS 280500Z 26006KT 6000 FEW020 34/21 Q1011 NOSIG
2026-04-28 04:30:00,METAR VOHS 280430Z 28007KT 6000 FEW020 33/22 Q1012 NOSIG
2026-04-28 04:00:00,METAR VOHS 280400Z 28006KT 6000 FEW020 31/22 Q1012 NOSIG
2026-04-28 03:30:00,METAR VOHS 280330Z 25007KT 6000 FEW020 30/22 Q1012 NOSIG
2026-04-28 03:00:00,METAR VOHS 280300Z 23004KT 5000 HZ FEW020 29/21 Q1012 NOSIG
2026-04-28 02:30:00,METAR VOHS 280230Z 22004KT 5000 HZ SCT020 28/21 Q1011 NOSIG
2026-04-28 02:00:00,METAR VOHS 280200Z 18003KT 5000 HZ SCT020 27/20 Q1011 NOSIG
2026-04-28 01:30:00,METAR VOHS 280130Z VRB02KT 5000 HZ SCT020 26/21 Q1010 NOSIG
2026-04-28 01:00:00,METAR VOHS 280100Z VRB02KT 5000 HZ SCT020 24/20 Q1010 NOSIG
2026-04-28 00:30:00,METAR VOHS 280030Z 30007KT 5000 HZ SCT020 25/19 Q1010 NOSIG
2026-04-28 00:00:00,METAR VOHS 280000Z VRB02KT 6000 SCT020 25/19 Q1009 BECMG 5000 HZ
2026-04-27 23:30:00,METAR VOHS 272330Z 22004KT 6000 SCT020 25/19 Q1009 NOSIG
2026-04-27 23:00:00,METAR VOHS 272300Z 27004KT 6000 SCT020 25/20 Q1009 NOSIG
2026-04-27 22:30:00,METAR VOHS 272230Z 27007KT 6000 SCT020 25/21 Q1009 NOSIG
2026-04-27 22:00:00,METAR VOHS 272200Z VRB02KT 6000 SCT020 26/19 Q1008 NOSIG
2026-04-27 21:30:00,METAR VOHS 272130Z 09004KT 6000 SCT020 25/20 Q1008 NOSIG
2026-04-27 21:02:00,METAR VOHS 272102Z VRB02KT 6000 FEW020 27/19 Q1008 NOSIG
2026-04-27 20:55:00,METAR VOHS 272055Z VRB02KT 6000 FEW020 28/18 Q1008 NOSIG
2026-04-27 20:30:00,METAR VOHS 272030Z VRB02KT 6000 FEW020 SCT025 27/19 Q1008 NOSIG
2026-04-27 20:00:00,METAR VOHS 272000Z VRB02KT 6000 FEW020 SCT025 27/18 Q1008 NOSIG
2026-04-27 19:30:00,METAR VOHS 271930Z 10005KT 6000 FEW020 SCT025 28/20 Q1009 NOSIG
2026-04-27 19:00:00,METAR VOHS 271900Z 10005KT 6000 FEW020 SCT025 28/20 Q1009 NOSIG
2026-04-27 18:30:00,METAR VOHS 271830Z VRB03KT 6000 FEW020 SCT025 28/17 Q1009 NOSIG
2026-04-27 18:00:00,METAR VOHS 271800Z VRB03KT 6000 FEW020 SCT025 28/16 Q1009 NOSIG
2026-04-27 17:30:00,METAR VOHS 271730Z VRB03KT 6000 FEW020 SCT025 29/17 Q1009 NOSIG
2026-04-27 17:00:00,METAR VOHS 271700Z VRB03KT 6000 FEW020 SCT025 29/17 Q1009 NOSIG
2026-04-27 16:30:00,METAR VOHS 271630Z VRB03KT 6000 FEW020 SCT025 30/17 Q1009 NOSIG
2026-04-27 16:00:00,METAR VOHS 271600Z VRB04KT 6000 FEW020 SCT025 30/16 Q1009 NOSIG
2026-04-27 15:30:00,METAR VOHS 271530Z 17005KT 6000 FEW020 SCT025 31/16 Q1009 NOSIG
2026-04-27 15:00:00,METAR VOHS 271500Z 17005KT 6000 FEW020 SCT025 30/16 Q1008 NOSIG
2026-04-27 14:30:00,METAR VOHS 271430Z VRB01KT 6000 FEW020 SCT025 30/16 Q1008 NOSIG
2026-04-27 14:00:00,METAR VOHS 271400Z 19005KT 5000 HZ FEW020 SCT025 30/19 Q1008 BECMG 6000
2026-04-27 13:30:00,METAR VOHS 271330Z VRB04KT 5000 -DZ FEW020 SCT025 31/15 Q1008 NOSIG
2026-04-27 13:00:00,METAR VOHS 271300Z 30005KT 4000 -TSRA FEW020 SCT025 FEW030CB 30/17 Q1009 BECMG 5000 -DZ
2026-04-27 12:30:00,METAR VOHS 271230Z VRB03KT 4000 -TSRA SCT015 SCT025 FEW030CB 26/17 Q1008 NOSIG
2026-04-27 12:00:00,METAR VOHS 271200Z 15010G34KT 4000 -TSRA SCT010 BKN080 FEW030CB 26/15 Q1008 NOSIG
2026-04-27 11:30:00,METAR VOHS 271130Z 25007G34KT 4000 -TSRA SCT010 BKN080 FEW030CB 27/17 Q1008 TEMPO 3000 TSRA
2026-04-27 11:00:00,METAR VOHS 271100Z 01017G34KT 5000 -TSRA SCT010 BKN080 FEW030CB 32/16 Q1007 NOSIG
2026-04-27 10:32:00,METAR VOHS 271032Z 28012G24KT 5000 -TSRA SCT010 BKN080 FEW030CB 34/16 Q1007 NOSIG
2026-04-27 10:00:00,METAR VOHS 271000Z 19005KT 6000 FEW020 SCT025 FEW030CB 38/16 Q1007 TEMPO 5000 -TSRA
2026-04-27 09:30:00,METAR VOHS 270930Z VRB04KT 6000 FEW020 SCT025 FEW030CB 39/15 Q1007 NOSIG
2026-04-27 09:00:00,METAR VOHS 270900Z VRB04KT 6000 FEW020 SCT025 FEW030CB 39/16 Q1007 NOSIG
2026-04-27 08:30:00,METAR VOHS 270830Z 33005KT 6000 FEW020 SCT025 38/16 Q1008 NOSIG
2026-04-27 08:00:00,METAR VOHS 270800Z 33005KT 6000 NSC 38/15 Q1009 NOSIG
2026-04-27 07:30:00,METAR VOHS 270730Z 25006KT 6000 NSC 39/16 Q1010 NOSIG
2026-04-27 07:00:00,METAR VOHS 270700Z 28009KT 6000 NSC 38/16 Q1010 NOSIG
2026-04-27 06:30:00,METAR VOHS 270630Z 23007KT 6000 NSC 38/17 Q1010 NOSIG
2026-04-27 06:00:00,METAR VOHS 270600Z 24007KT 6000 NSC 37/18 Q1011 NOSIG
2026-04-27 05:30:00,METAR VOHS 270530Z 25008KT 6000 NSC 37/17 Q1011 NOSIG
2026-04-27 05:00:00,METAR VOHS 270500Z 23007KT 6000 FEW020 36/17 Q1011 NOSIG
2026-04-27 04:30:00,METAR VOHS 270430Z 23007KT 6000 FEW020 35/18 Q1011 NOSIG
2026-04-27 04:00:00,METAR VOHS 270400Z 25008KT 6000 FEW020 34/18 Q1012 NOSIG
2026-04-27 03:30:00,METAR VOHS 270330Z 25008KT 6000 FEW020 33/17 Q1012 NOSIG
2026-04-27 03:00:00,METAR VOHS 270300Z 24009KT 6000 FEW020 SCT100 31/16 Q1012 NOSIG
2026-04-27 02:30:00,METAR VOHS 270230Z 24008KT 6000 FEW020 SCT100 30/17 Q1011 NOSIG
2026-04-27 02:00:00,METAR VOHS 270200Z 23008KT 6000 FEW020 SCT100 29/17 Q1011 NOSIG
2026-04-27 01:30:00,METAR VOHS 270130Z 24008KT 6000 FEW020 SCT100 28/17 Q1011 NOSIG
2026-04-27 01:00:00,METAR VOHS 270100Z 26008KT 6000 FEW020 SCT100 26/17 Q1010 NOSIG
2026-04-27 00:30:00,METAR VOHS 270030Z 26007KT 6000 FEW020 SCT100 25/18 Q1010 NOSIG
2026-04-27 00:00:00,METAR VOHS 270000Z 24005KT 6000 FEW020 SCT100 25/19 Q1010 NOSIG
2026-04-26 23:30:00,METAR VOHS 262330Z 26005KT 6000 FEW020 SCT100 26/20 Q1009 NOSIG
2026-04-26 23:00:00,METAR VOHS 262300Z 00000KT 6000 FEW020 SCT100 25/20 Q1009 NOSIG
2026-04-26 22:30:00,METAR VOHS 262230Z 11003KT 6000 FEW020 SCT100 26/20 Q1009 NOSIG
2026-04-26 22:00:00,METAR VOHS 262200Z 11004KT 6000 FEW020 SCT100 27/20 Q1008 NOSIG
2026-04-26 21:30:00,METAR VOHS 262130Z 12005KT 6000 FEW020 SCT100 27/20 Q1008 NOSIG
2026-04-26 21:00:00,METAR VOHS 262100Z 12005KT 6000 FEW020 SCT100 27/18 Q1008 NOSIG
2026-04-26 20:30:00,METAR VOHS 262030Z 12004KT 6000 FEW020 SCT100 28/18 Q1009 NOSIG
2026-04-26 20:00:00,METAR VOHS 262000Z 12004KT 6000 FEW020 SCT100 28/17 Q1009 NOSIG
2026-04-26 19:30:00,METAR VOHS 261930Z 13004KT 6000 FEW020 SCT100 29/17 Q1009 NOSIG
2026-04-26 19:00:00,METAR VOHS 261900Z 14005KT 6000 FEW020 SCT100 29/16 Q1009 NOSIG
2026-04-26 18:30:00,METAR VOHS 261830Z 14005KT 6000 FEW020 SCT100 30/16 Q1010 NOSIG
2026-04-26 18:00:00,METAR VOHS 261800Z 14005KT 6000 FEW020 30/16 Q1010 NOSIG
2026-04-26 17:30:00,METAR VOHS 261730Z 14005KT 6000 FEW020 30/15 Q1011 NOSIG
2026-04-26 17:00:00,METAR VOHS 261700Z 14005KT 6000 FEW020 31/15 Q1011 NOSIG
2026-04-26 16:30:00,METAR VOHS 261630Z 14005KT 6000 FEW020 31/15 Q1011 NOSIG
2026-04-26 16:00:00,METAR VOHS 261600Z 14005KT 6000 FEW020 31/16 Q1011 NOSIG
2026-04-26 15:30:00,METAR VOHS 261530Z 12005KT 6000 FEW020 31/16 Q1011 NOSIG
2026-04-26 15:00:00,METAR VOHS 261500Z 16004KT 6000 FEW020 32/15 Q1010 NOSIG
2026-04-26 14:30:00,METAR VOHS 261430Z 18004KT 6000 FEW020 32/16 Q1010 NOSIG
2026-04-26 14:00:00,METAR VOHS 261400Z 17005KT 6000 FEW020 33/16 Q1009 NOSIG
2026-04-26 13:30:00,METAR VOHS 261330Z 19004KT 6000 SCT020 33/16 Q1009 NOSIG
2026-04-26 13:00:00,METAR VOHS 261300Z 17004KT 6000 SCT020 34/15 Q1009 NOSIG
2026-04-26 12:30:00,METAR VOHS 261230Z 18004KT 6000 SCT020 35/15 Q1009 NOSIG
2026-04-26 12:00:00,METAR VOHS 261200Z 20004KT 6000 SCT020 36/15 Q1008 NOSIG
2026-04-26 11:30:00,METAR VOHS 261130Z 16005KT 6000 SCT020 37/15 Q1008 NOSIG
2026-04-26 11:00:00,METAR VOHS 261100Z 19005KT 6000 SCT020 37/15 Q1008 NOSIG
2026-04-26 10:30:00,METAR VOHS 261030Z 22006KT 6000 SCT020 38/16 Q1008 NOSIG
2026-04-26 10:00:00,METAR VOHS 261000Z 20006KT 6000 SCT020 38/15 Q1009 NOSIG
2026-04-26 09:30:00,METAR VOHS 260930Z 18007KT 6000 SCT020 38/16 Q1009 NOSIG
2026-04-26 09:00:00,METAR VOHS 260900Z 25008KT 6000 SCT020 38/16 Q1009 NOSIG
2026-04-26 08:30:00,METAR VOHS 260830Z 25008KT 6000 SCT020 39/16 Q1010 NOSIG
2026-04-26 08:00:00,METAR VOHS 260800Z 22008KT 6000 SCT020 38/16 Q1011 NOSIG
2026-04-26 07:30:00,METAR VOHS 260730Z COR 28009KT 6000 FEW020 37/16 Q1011 NOSIG
2026-04-26 07:00:00,METAR VOHS 260700Z 28008KT 6000 FEW020 37/16 Q1012 NOSIG
2026-04-26 06:30:00,METAR VOHS 260630Z 20007KT 6000 FEW020 37/17 Q1012 NOSIG
2026-04-26 06:00:00,METAR VOHS 260600Z 23009KT 6000 FEW020 36/17 Q1012 NOSIG
2026-04-26 05:30:00,METAR VOHS 260530Z 22009KT 6000 FEW020 35/18 Q1013 NOSIG
2026-04-26 05:00:00,METAR VOHS 260500Z 23010KT 6000 FEW020 34/19 Q1013 NOSIG
2026-04-26 04:30:00,METAR VOHS 260430Z 23008KT 6000 FEW020 34/19 Q1014 NOSIG
2026-04-26 04:00:00,METAR VOHS 260400Z 20009KT 6000 FEW020 33/19 Q1014 NOSIG
2026-04-26 03:30:00,METAR VOHS 260330Z 22009KT 6000 NSC 32/20 Q1014 NOSIG
2026-04-26 03:00:00,METAR VOHS 260300Z 21008KT 6000 NSC 31/19 Q1013 NOSIG
2026-04-26 02:30:00,METAR VOHS 260230Z 20007KT 6000 NSC 30/20 Q1013 NOSIG
2026-04-26 02:00:00,METAR VOHS 260200Z 21006KT 6000 FEW020 29/21 Q1012 NOSIG
2026-04-26 01:30:00,METAR VOHS 260130Z 20005KT 6000 FEW020 28/21 Q1012 NOSIG
2026-04-26 01:00:00,METAR VOHS 260100Z 21004KT 6000 SCT020 27/20 Q1011 NOSIG
2026-04-26 00:30:00,METAR VOHS 260030Z 21005KT 6000 SCT020 27/20 Q1011 NOSIG
2026-04-26 00:00:00,METAR VOHS 260000Z 19004KT 6000 SCT020 26/20 Q1011 NOSIG
2026-04-25 23:30:00,METAR VOHS 252330Z VRB04KT 6000 SCT020 27/20 Q1011 NOSIG
2026-04-25 23:00:00,METAR VOHS 252300Z VRB04KT 6000 SCT020 27/20 Q1010 NOSIG
2026-04-25 22:30:00,METAR VOHS 252230Z VRB04KT 6000 SCT020 27/21 Q1010 NOSIG
2026-04-25 22:00:00,METAR VOHS 252200Z VRB04KT 6000 SCT020 26/22 Q1010 NOSIG
2026-04-25 21:30:00,METAR VOHS 252130Z VRB04KT 6000 SCT020 26/22 Q1010 NOSIG
2026-04-25 21:00:00,METAR VOHS 252100Z 18004KT 6000 SCT020 27/22 Q1010 NOSIG
2026-04-25 20:30:00,METAR VOHS 252030Z 14005KT 6000 SCT020 27/22 Q1011 NOSIG
2026-04-25 20:00:00,METAR VOHS 252000Z 13004KT 6000 SCT020 27/22 Q1011 NOSIG
2026-04-25 19:30:00,METAR VOHS 251930Z 15005KT 6000 SCT020 28/22 Q1011 NOSIG
2026-04-25 19:00:00,METAR VOHS 251900Z 12007KT 6000 SCT020 28/21 Q1012 NOSIG
2026-04-25 18:30:00,METAR VOHS 251830Z 12008KT 6000 SCT020 29/20 Q1012 NOSIG
2026-04-25 18:00:00,METAR VOHS 251800Z 12007KT 6000 FEW020 30/19 Q1012 NOSIG
2026-04-25 17:30:00,METAR VOHS 251730Z 12006KT 6000 FEW020 30/19 Q1013 NOSIG
2026-04-25 17:00:00,METAR VOHS 251700Z 13006KT 6000 FEW020 31/19 Q1013 NOSIG
2026-04-25 16:30:00,METAR VOHS 251630Z 13005KT 6000 FEW020 31/18 Q1013 NOSIG
2026-04-25 16:00:00,METAR VOHS 251600Z 13006KT 6000 FEW020 31/18 Q1013 NOSIG
2026-04-25 15:30:00,METAR VOHS 251530Z 14005KT 6000 FEW020 31/18 Q1012 NOSIG
2026-04-25 15:00:00,METAR VOHS 251500Z 14005KT 6000 FEW020 31/17 Q1012 NOSIG
2026-04-25 14:30:00,METAR VOHS 251430Z 14006KT 6000 FEW020 32/17 Q1012 NOSIG
2026-04-25 14:00:00,METAR VOHS 251400Z 10006KT 6000 FEW020 33/15 Q1011 NOSIG
2026-04-25 13:30:00,METAR VOHS 251330Z 11006KT 6000 FEW020 33/14 Q1011 NOSIG
2026-04-25 13:00:00,METAR VOHS 251300Z 09006KT 6000 FEW020 34/14 Q1011 NOSIG
2026-04-25 12:30:00,METAR VOHS 251230Z 09006KT 6000 FEW020 36/14 Q1011 NOSIG
2026-04-25 12:00:00,METAR VOHS 251200Z 10007KT 6000 FEW020 36/14 Q1011 NOSIG
2026-04-25 11:30:00,METAR VOHS 251130Z 09007KT 6000 FEW015 SCT025 FEW030TCU 37/14 Q1010 NOSIG
2026-04-25 11:00:00,METAR VOHS 251100Z 07007KT 6000 FEW015 SCT025 FEW030TCU 37/14 Q1010 NOSIG
2026-04-25 10:30:00,METAR VOHS 251030Z 06009KT 6000 FEW015 SCT025 FEW030TCU 38/15 Q1010 NOSIG
2026-04-25 10:00:00,METAR VOHS 251000Z VRB04KT 6000 FEW015 SCT025 FEW030TCU 37/16 Q1010 NOSIG
2026-04-25 09:30:00,METAR VOHS 250930Z VRB04KT 6000 FEW015 SCT025 FEW030TCU 37/14 Q1011 NOSIG
2026-04-25 09:00:00,METAR VOHS 250900Z VRB04KT 6000 FEW015 SCT025 37/16 Q1011 NOSIG
2026-04-25 08:30:00,METAR VOHS 250830Z 31007KT 6000 FEW015 SCT025 37/16 Q1011 NOSIG
2026-04-25 08:00:00,METAR VOHS 250800Z 29006KT 6000 FEW015 SCT025 37/17 Q1012 NOSIG
2026-04-25 07:30:00,METAR VOHS 250730Z 29005KT 6000 FEW015 SCT025 36/17 Q1012 NOSIG
2026-04-25 07:00:00,METAR VOHS 250700Z 30007KT 6000 FEW015 36/17 Q1013 NOSIG
2026-04-25 06:30:00,METAR VOHS 250630Z 29009KT 6000 FEW015 36/18 Q1013 NOSIG
2026-04-25 06:00:00,METAR VOHS 250600Z 30005KT 6000 FEW015 35/17 Q1014 NOSIG
2026-04-25 05:30:00,METAR VOHS 250530Z 33007KT 6000 NSC 35/18 Q1014 NOSIG
2026-04-25 05:00:00,METAR VOHS 250500Z 29006KT 6000 NSC 35/19 Q1014 NOSIG
2026-04-25 04:30:00,METAR VOHS 250430Z 27005KT 6000 NSC 34/19 Q1014 NOSIG
2026-04-25 04:00:00,METAR VOHS 250400Z 28005KT 6000 NSC 33/18 Q1014 NOSIG
2026-04-25 03:30:00,METAR VOHS 250330Z 25005KT 6000 NSC 32/18 Q1014 NOSIG
2026-04-25 03:00:00,METAR VOHS 250300Z 24005KT 6000 NSC 30/18 Q1013 NOSIG
2026-04-25 02:30:00,METAR VOHS 250230Z 25005KT 6000 NSC 29/18 Q1013 NOSIG
2026-04-25 02:00:00,METAR VOHS 250200Z 27005KT 6000 NSC 27/18 Q1013 NOSIG
2026-04-25 01:30:00,METAR VOHS 250130Z 25004KT 6000 NSC 26/18 Q1013 NOSIG
2026-04-25 01:00:00,METAR VOHS 250100Z 25005KT 6000 NSC 26/17 Q1012 NOSIG
2026-04-25 00:30:00,METAR VOHS 250030Z 18005KT 6000 FEW020 26/17 Q1012 NOSIG
2026-04-25 00:00:00,METAR VOHS 250000Z 18005KT 6000 FEW020 SCT100 26/17 Q1011 NOSIG
2026-04-24 23:30:00,METAR VOHS 242330Z 17005KT 6000 FEW020 SCT100 26/17 Q1011 NOSIG
2026-04-24 23:00:00,METAR VOHS 242300Z 17005KT 6000 FEW020 SCT100 25/17 Q1010 NOSIG
2026-04-24 22:30:00,METAR VOHS 242230Z 17005KT 6000 FEW020 SCT100 25/18 Q1010 NOSIG
2026-04-24 22:00:00,METAR VOHS 242200Z 15006KT 6000 FEW020 SCT100 25/18 Q1010 NOSIG
2026-04-24 21:30:00,METAR VOHS 242130Z 14005KT 6000 FEW020 SCT100 25/18 Q1010 NOSIG
2026-04-24 21:00:00,METAR VOHS 242100Z 15006KT 6000 FEW020 SCT100 25/18 Q1010 NOSIG
2026-04-24 20:30:00,METAR VOHS 242030Z 14005KT 6000 FEW020 SCT100 26/18 Q1010 NOSIG
2026-04-24 20:00:00,METAR VOHS 242000Z VRB04KT 6000 FEW020 SCT100 26/18 Q1011 NOSIG
2026-04-24 19:30:00,METAR VOHS 241930Z VRB04KT 6000 FEW020 SCT100 27/17 Q1011 NOSIG
2026-04-24 19:00:00,METAR VOHS 241900Z 14005KT 6000 FEW020 SCT100 27/17 Q1011 NOSIG
2026-04-24 18:30:00,METAR VOHS 241830Z 14004KT 6000 FEW020 SCT100 27/17 Q1012 NOSIG
2026-04-24 18:00:00,METAR VOHS 241800Z 12004KT 6000 FEW020 SCT100 27/16 Q1012 NOSIG
2026-04-24 17:30:00,METAR VOHS 241730Z 16004KT 6000 FEW020 SCT100 27/16 Q1012 NOSIG
2026-04-24 17:00:00,METAR VOHS 241700Z 14005KT 6000 FEW020 SCT100 28/16 Q1012 NOSIG
2026-04-24 16:30:00,METAR VOHS 241630Z 15005KT 6000 SCT020 BKN100 29/15 Q1012 NOSIG
2026-04-24 16:00:00,METAR VOHS 241600Z COR 14005KT 5000 HZ SCT020 BKN100 29/15 Q1012 NOSIG
2026-04-24 15:30:00,METAR VOHS 241530Z 14005KT 5000 HZ SCT020 BKN100 29/14 Q1012 BECMG 6000
2026-04-24 15:00:00,METAR VOHS 241500Z 14005KT 5000 HZ SCT020 BKN100 31/13 Q1011 NOSIG
2026-04-24 14:30:00,METAR VOHS 241430Z 13005KT 5000 HZ SCT020 BKN100 31/13 Q1011 NOSIG
2026-04-24 14:00:00,METAR VOHS 241400Z 13005KT 5000 HZ SCT020 BKN100 32/13 Q1011 NOSIG
2026-04-24 13:30:00,METAR VOHS 241330Z 13005KT 5000 HZ SCT020 BKN100 32/12 Q1011 NOSIG
2026-04-24 13:00:00,METAR VOHS 241300Z 10006KT 5000 HZ SCT020 BKN100 33/13 Q1010 NOSIG
2026-04-24 12:30:00,METAR VOHS 241230Z 09010KT 5000 HZ SCT020 SCT025 FEW030CB 32/15 Q1010 NOSIG
2026-04-24 12:00:00,METAR VOHS 241200Z 19007KT 5000 TS SCT020 SCT025 FEW030CB 32/14 Q1009 NOSIG
2026-04-24 11:30:00,METAR VOHS 241130Z 18011KT 5000 TS SCT020 SCT025 FEW030CB 34/12 Q1009 NOSIG
2026-04-24 11:00:00,METAR VOHS 241100Z 17013KT 5000 TSHZ SCT020 SCT025 FEW030CB 33/12 Q1009 NOSIG
2026-04-24 10:32:00,METAR VOHS 241032Z 16011KT 5000 TSHZ SCT020 SCT025 FEW030CB 33/17 Q1009 TEMPO 3000 TSRA
2026-04-24 10:30:00,METAR VOHS 241030Z COR 16011KT 5000 TSHZ SCT020 SCT025 FEW030CB 33/17 Q1009 TEMPO 3000 TSRA
2026-04-24 10:00:00,METAR VOHS 241000Z 07011KT 6000 FEW020 SCT025 FEW030CB 37/13 Q1009 TEMPO 5000 TSRA
2026-04-24 09:30:00,METAR VOHS 240930Z 07009KT 6000 FEW020 SCT025 FEW030CB 37/13 Q1009 NOSIG
2026-04-24 09:00:00,METAR VOHS 240900Z 02007KT 6000 FEW020 SCT025 FEW030CB 38/14 Q1010 NOSIG
2026-04-24 08:30:00,METAR VOHS 240830Z 10005KT 6000 FEW020 37/14 Q1010 NOSIG
2026-04-24 08:00:00,METAR VOHS 240800Z 04007KT 6000 FEW020 37/15 Q1011 NOSIG
2026-04-24 07:30:00,METAR VOHS 240730Z 03004KT 6000 FEW020 36/15 Q1011 NOSIG
2026-04-24 07:00:00,METAR VOHS 240700Z 03006KT 6000 FEW020 36/15 Q1012 NOSIG
2026-04-24 06:30:00,METAR VOHS 240630Z 35010KT 6000 FEW020 36/15 Q1012 NOSIG
2026-04-24 06:00:00,METAR VOHS 240600Z 34006KT 6000 FEW020 35/15 Q1012 NOSIG
2026-04-24 05:30:00,METAR VOHS 240530Z 33009KT 6000 FEW020 35/15 Q1012 NOSIG
2026-04-24 05:00:00,METAR VOHS 240500Z 30006KT 6000 FEW020 34/15 Q1013 NOSIG
2026-04-24 04:30:00,METAR VOHS 240430Z 31010KT 6000 FEW020 33/15 Q1013 NOSIG
2026-04-24 04:00:00,METAR VOHS 240400Z 30007KT 6000 NSC 32/15 Q1013 NOSIG
2026-04-24 03:30:00,METAR VOHS 240330Z 32012KT 6000 NSC 30/17 Q1013 NOSIG
2026-04-24 03:00:00,METAR VOHS 240300Z 23005KT 6000 FEW020 32/17 Q1012 NOSIG
2026-04-24 02:30:00,METAR VOHS 240230Z VRB02KT 6000 FEW020 SCT100 30/17 Q1012 NOSIG
2026-04-24 02:00:00,METAR VOHS 240200Z 20003KT 6000 FEW020 SCT100 28/16 Q1012 NOSIG
2026-04-24 01:30:00,METAR VOHS 240130Z 00000KT 6000 FEW020 SCT100 25/18 Q1011 NOSIG
2026-04-24 01:00:00,METAR VOHS 240100Z 25003KT 6000 FEW020 SCT100 23/17 Q1011 NOSIG
2026-04-24 00:30:00,METAR VOHS 240030Z 24003KT 6000 SCT020 22/17 Q1010 NOSIG
2026-04-24 00:00:00,METAR VOHS 240000Z 25005KT 6000 SCT020 SCT100 24/16 Q1010 NOSIG
2026-04-23 23:30:00,METAR VOHS 232330Z 27004KT 6000 SCT020 SCT100 24/16 Q1010 NOSIG
2026-04-23 23:00:00,METAR VOHS 232300Z 31003KT 6000 SCT020 SCT100 23/18 Q1010 NOSIG
2026-04-23 22:30:00,METAR VOHS 232230Z 27004KT 6000 SCT020 SCT100 23/17 Q1010 NOSIG
2026-04-23 22:00:00,METAR VOHS 232200Z 25005KT 6000 SCT020 SCT100 24/17 Q1010 NOSIG
2026-04-23 21:30:00,METAR VOHS 232130Z 22003KT 6000 SCT020 SCT100 24/18 Q1010 NOSIG
2026-04-23 21:00:00,METAR VOHS 232100Z 26005KT 6000 SCT015 SCT100 26/17 Q1010 NOSIG
2026-04-23 20:30:00,METAR VOHS 232030Z 28005KT 6000 SCT015 SCT100 26/19 Q1011 NOSIG
2026-04-23 20:00:00,METAR VOHS 232000Z 28005KT 6000 SCT015 SCT100 26/19 Q1011 NOSIG
2026-04-23 19:30:00,METAR VOHS 231930Z VRB02KT 6000 SCT015 SCT100 26/17 Q1011 NOSIG
2026-04-23 19:00:00,METAR VOHS 231900Z VRB02KT 6000 SCT015 SCT100 26/18 Q1011 NOSIG
2026-04-23 18:30:00,METAR VOHS 231830Z VRB02KT 6000 SCT015 SCT100 27/18 Q1011 NOSIG
2026-04-23 18:00:00,METAR VOHS 231800Z VRB03KT 6000 SCT015 SCT100 26/19 Q1011 NOSIG
2026-04-23 17:30:00,METAR VOHS 231730Z VRB04KT 6000 SCT015 SCT100 28/18 Q1011 NOSIG
2026-04-23 17:00:00,METAR VOHS 231700Z VRB01KT 6000 SCT015 SCT100 28/18 Q1011 NOSIG
2026-04-23 16:30:00,METAR VOHS 231630Z VRB02KT 6000 SCT015 SCT025 28/18 Q1011 NOSIG
2026-04-23 16:00:00,METAR VOHS 231600Z 19006KT 6000 SCT015 SCT025 27/19 Q1011 NOSIG
2026-04-23 15:30:00,METAR VOHS 231530Z VRB01KT 6000 SCT015 SCT025 29/18 Q1012 NOSIG
2026-04-23 15:00:00,METAR VOHS 231500Z VRB01KT 6000 SCT015 SCT025 30/17 Q1011 NOSIG
2026-04-23 14:30:00,METAR VOHS 231430Z VRB04KT 6000 SCT015 SCT025 29/18 Q1011 NOSIG
2026-04-23 14:00:00,METAR VOHS 231400Z 36006KT 6000 SCT015 SCT025 29/18 Q1011 NOSIG
2026-04-23 13:30:00,METAR VOHS 231330Z 05006KT 6000 SCT015 SCT025 30/17 Q1011 NOSIG
2026-04-23 13:00:00,METAR VOHS 231300Z 03006KT 6000 SCT015 SCT025 29/17 Q1010 NOSIG
2026-04-23 12:30:00,METAR VOHS 231230Z VRB03KT 6000 SCT015 SCT025 29/15 Q1010 NOSIG
2026-04-23 12:00:00,METAR VOHS 231200Z 14007KT 5000 -TSRA SCT015 SCT025 FEW030CB 27/15 Q1009 BECMG 6000
2026-04-23 11:30:00,METAR VOHS 231130Z 17005KT 5000 -TSRA SCT015 SCT025 FEW030CB 29/16 Q1010 NOSIG
2026-04-23 11:00:00,METAR VOHS 231100Z VRB03KT 5000 -TSRA SCT015 SCT025 FEW030CB 30/16 Q1009 NOSIG
2026-04-23 10:30:00,METAR VOHS 231030Z 30014KT 5000 -TSRA SCT010 SCT080 FEW030CB 27/17 Q1010 NOSIG
2026-04-23 10:00:00,METAR VOHS 231000Z 30014KT 5000 -TSRA SCT010 SCT080 FEW030CB 26/17 Q1010 NOSIG
2026-04-23 09:30:00,METAR VOHS 230930Z 32011KT 5000 -TSRA SCT010 SCT080 FEW030CB 33/18 Q1010 NOSIG
2026-04-23 09:00:00,METAR VOHS 230900Z 09009KT 6000 SCT015 SCT025 FEW030CB 36/15 Q1009 TEMPO 4000 -TSRA
2026-04-23 08:30:00,METAR VOHS 230830Z 13007KT 6000 FEW020 SCT025 36/15 Q1009 NOSIG
2026-04-23 08:00:00,METAR VOHS 230800Z 09006KT 6000 FEW020 SCT025 37/16 Q1010 NOSIG
2026-04-23 07:30:00,METAR VOHS 230730Z 04009KT 6000 FEW020 SCT025 38/14 Q1010 NOSIG
2026-04-23 07:00:00,METAR VOHS 230700Z VRB04KT 6000 FEW020 SCT025 37/15 Q1011 NOSIG
2026-04-23 06:30:00,METAR VOHS 230630Z 03006KT 6000 FEW020 37/16 Q1011 NOSIG
2026-04-23 06:00:00,METAR VOHS 230600Z VRB01KT 6000 FEW020 37/16 Q1012 NOSIG
2026-04-23 05:30:00,METAR VOHS 230530Z 32005KT 6000 FEW020 36/17 Q1012 NOSIG
2026-04-23 05:00:00,METAR VOHS 230500Z VRB02KT 6000 FEW020 35/17 Q1012 NOSIG
2026-04-23 04:30:00,METAR VOHS 230430Z VRB04KT 6000 FEW020 35/17 Q1013 NOSIG
2026-04-23 04:00:00,METAR VOHS 230400Z VRB03KT 6000 FEW020 34/17 Q1012 NOSIG
2026-04-23 03:30:00,METAR VOHS 230330Z VRB04KT 6000 FEW020 33/18 Q1013 NOSIG
2026-04-23 03:00:00,METAR VOHS 230300Z VRB04KT 6000 FEW020 32/18 Q1012 NOSIG
2026-04-23 02:30:00,METAR VOHS 230230Z VRB04KT 6000 FEW020 31/18 Q1012 NOSIG
2026-04-23 02:00:00,METAR VOHS 230200Z VRB04KT 6000 FEW020 28/19 Q1012 NOSIG
2026-04-23 01:30:00,METAR VOHS 230130Z VRB03KT 6000 FEW020 27/19 Q1011 NOSIG
2026-04-23 01:00:00,METAR VOHS 230100Z VRB03KT 6000 FEW020 27/18 Q1011 NOSIG
2026-04-23 00:30:00,METAR VOHS 230030Z VRB03KT 6000 FEW020 27/18 Q1011 NOSIG
2026-04-23 00:00:00,METAR VOHS 230000Z VRB03KT 6000 FEW020 26/18 Q1010 NOSIG
2026-04-22 23:30:00,METAR VOHS 222330Z VRB03KT 6000 FEW020 26/18 Q1010 NOSIG
2026-04-22 23:00:00,METAR VOHS 222300Z VRB04KT 6000 FEW020 26/18 Q1010 NOSIG
2026-04-22 22:30:00,METAR VOHS 222230Z 15005KT 6000 FEW020 27/19 Q1010 NOSIG
2026-04-22 22:00:00,METAR VOHS 222200Z 15005KT 6000 FEW020 27/18 Q1010 NOSIG
2026-04-22 21:30:00,METAR VOHS 222130Z 15005KT 6000 FEW020 27/18 Q1010 NOSIG
2026-04-22 21:00:00,METAR VOHS 222100Z 15004KT 6000 FEW020 27/18 Q1010 NOSIG
2026-04-22 20:30:00,METAR VOHS 222030Z 15004KT 6000 FEW020 26/18 Q1010 NOSIG
2026-04-22 20:00:00,METAR VOHS 222000Z VRB03KT 6000 FEW020 SCT100 27/18 Q1011 NOSIG
2026-04-22 19:30:00,METAR VOHS 221930Z VRB03KT 6000 FEW020 SCT100 27/18 Q1011 NOSIG
2026-04-22 19:00:00,METAR VOHS 221900Z VRB02KT 6000 FEW020 27/17 Q1012 NOSIG
2026-04-22 18:30:00,METAR VOHS 221830Z VRB02KT 6000 NSC 27/17 Q1012 NOSIG
2026-04-22 18:00:00,METAR VOHS 221800Z VRB02KT 6000 NSC 28/18 Q1012 NOSIG
2026-04-22 17:30:00,METAR VOHS 221730Z 00000KT 6000 NSC 27/18 Q1012 NOSIG
2026-04-22 17:00:00,METAR VOHS 221700Z 00000KT 6000 FEW020 28/17 Q1012 NOSIG
2026-04-22 16:30:00,METAR VOHS 221630Z 15003KT 6000 FEW020 29/17 Q1012 NOSIG
2026-04-22 16:00:00,METAR VOHS 221600Z 15004KT 6000 FEW020 30/17 Q1012 NOSIG
2026-04-22 15:30:00,METAR VOHS 221530Z 17004KT 6000 FEW020 30/17 Q1011 NOSIG
2026-04-22 15:00:00,METAR VOHS 221500Z 17004KT 6000 FEW020 31/18 Q1011 NOSIG
2026-04-22 14:30:00,METAR VOHS 221430Z 15006KT 6000 FEW020 32/17 Q1010 NOSIG
2026-04-22 14:00:00,METAR VOHS 221400Z 11006KT 6000 FEW020 32/16 Q1010 NOSIG
2026-04-22 13:30:00,METAR VOHS 221330Z 11005KT 6000 FEW020 SCT025 33/16 Q1009 NOSIG
2026-04-22 13:00:00,METAR VOHS 221300Z 11006KT 6000 FEW020 SCT025 34/16 Q1009 NOSIG
2026-04-22 12:30:00,METAR VOHS 221230Z 11006KT 6000 FEW020 35/16 Q1009 NOSIG
2026-04-22 12:00:00,METAR VOHS 221200Z 11005KT 6000 FEW020 36/16 Q1009 NOSIG
2026-04-22 11:30:00,METAR VOHS 221130Z 07006KT 6000 FEW020 36/15 Q1008 NOSIG
2026-04-22 11:00:00,METAR VOHS 221100Z 02006KT 6000 FEW020 37/15 Q1008 NOSIG
2026-04-22 10:30:00,METAR VOHS 221030Z 08005KT 6000 FEW020 36/15 Q1009 NOSIG
2026-04-22 10:00:00,METAR VOHS 221000Z 08005KT 6000 FEW020 36/15 Q1009 NOSIG
2026-04-22 09:30:00,METAR VOHS 220930Z 08006KT 6000 FEW020 SCT100 36/15 Q1009 NOSIG
2026-04-22 09:00:00,METAR VOHS 220900Z 05006KT 6000 SCT020 SCT100 36/15 Q1010 NOSIG
2026-04-22 08:30:00,METAR VOHS 220830Z 01006KT 6000 SCT020 SCT100 36/15 Q1010 NOSIG
2026-04-22 08:00:00,METAR VOHS 220800Z 02005KT 6000 SCT020 SCT100 35/15 Q1011 NOSIG
2026-04-22 07:30:00,METAR VOHS 220730Z 36005KT 6000 SCT020 SCT100 35/15 Q1011 NOSIG
2026-04-22 07:00:00,METAR VOHS 220700Z 06007KT 6000 SCT020 SCT100 35/14 Q1012 NOSIG
2026-04-22 06:30:00,METAR VOHS 220630Z 34007KT 6000 SCT020 SCT100 34/13 Q1013 NOSIG
2026-04-22 06:00:00,METAR VOHS 220600Z 35007KT 6000 SCT020 SCT100 33/13 Q1013 NOSIG
2026-04-22 05:30:00,METAR VOHS 220530Z 35007KT 6000 SCT020 SCT100 32/15 Q1013 NOSIG
2026-04-22 05:00:00,METAR VOHS 220500Z 31008KT 6000 SCT020 SCT100 31/15 Q1014 NOSIG
2026-04-22 04:30:00,METAR VOHS 220430Z 31008KT 6000 SCT020 SCT100 30/14 Q1014 NOSIG
2026-04-22 04:00:00,METAR VOHS 220400Z 31007KT 6000 SCT020 SCT100 30/14 Q1014 NOSIG
2026-04-22 03:30:00,METAR VOHS 220330Z 31008KT 6000 SCT020 SCT100 29/15 Q1014 NOSIG
2026-04-22 03:00:00,METAR VOHS 220300Z 30009KT 6000 SCT020 SCT100 28/15 Q1014 NOSIG
2026-04-22 02:30:00,METAR VOHS 220230Z 30009KT 6000 SCT020 SCT100 27/15 Q1014 NOSIG
2026-04-22 02:00:00,METAR VOHS 220200Z 34008KT 6000 SCT020 SCT100 26/15 Q1013 NOSIG
2026-04-22 01:30:00,METAR VOHS 220130Z 30007KT 6000 SCT020 SCT100 26/15 Q1013 NOSIG
2026-04-22 01:00:00,METAR VOHS 220100Z 27004KT 6000 SCT020 SCT100 25/15 Q1012 NOSIG
2026-04-22 00:30:00,METAR VOHS 220030Z 28005KT 6000 SCT020 SCT100 26/13 Q1011 NOSIG
2026-04-22 00:00:00,METAR VOHS 220000Z VRB03KT 6000 SCT020 SCT100 27/13 Q1011 NOSIG
2026-04-21 23:30:00,METAR VOHS 212330Z VRB02KT 6000 SCT020 SCT100 27/13 Q1011 NOSIG
2026-04-21 23:00:00,METAR VOHS 212300Z 16005KT 6000 SCT020 SCT100 26/14 Q1011 NOSIG
2026-04-21 22:30:00,METAR VOHS 212230Z 20005KT 6000 SCT020 SCT100 27/13 Q1010 NOSIG
2026-04-21 22:00:00,METAR VOHS 212200Z 08006KT 6000 SCT020 SCT100 29/13 Q1010 NOSIG
2026-04-21 21:30:00,METAR VOHS 212130Z 05007KT 6000 SCT020 SCT100 29/12 Q1010 NOSIG
2026-04-21 21:00:00,METAR VOHS 212100Z 20006KT 6000 SCT015 BKN100 29/12 Q1010 NOSIG
2026-04-21 20:30:00,METAR VOHS 212030Z 23008KT 6000 SCT015 BKN100 30/12 Q1010 NOSIG
2026-04-21 20:00:00,METAR VOHS 212000Z 22012KT 6000 SCT015 BKN100 30/11 Q1011 NOSIG
2026-04-21 19:30:00,METAR VOHS 211930Z 24006KT 6000 SCT015 BKN100 29/13 Q1012 NOSIG
2026-04-21 19:00:00,METAR VOHS 211900Z 25004KT 6000 SCT015 BKN100 29/14 Q1012 NOSIG
2026-04-21 18:30:00,METAR VOHS 211830Z 29004KT 6000 FEW015 SCT100 29/15 Q1012 NOSIG
2026-04-21 18:00:00,METAR VOHS 211800Z 27004KT 6000 FEW015 SCT100 30/14 Q1012 NOSIG
2026-04-21 17:30:00,METAR VOHS 211730Z 22006KT 6000 SCT015 BKN100 29/15 Q1012 NOSIG
2026-04-21 17:00:00,METAR VOHS 211700Z 27013KT 6000 SCT015 BKN100 29/15 Q1013 NOSIG
2026-04-21 16:30:00,METAR VOHS 211630Z 25013KT 5000 -TSRA SCT015 FEW030CB BKN100 29/16 Q1013 NOSIG
2026-04-21 15:30:00,METAR VOHS 211530Z 25010KT 6000 SCT015 BKN100 29/17 Q1012 NOSIG
2026-04-21 15:00:00,METAR VOHS 211500Z 26012KT 6000 SCT015 BKN100 28/18 Q1012 NOSIG
2026-04-21 14:30:00,METAR VOHS 211430Z 23006KT 5000 HZ SCT015 BKN100 27/18 Q1011 NOSIG
2026-04-21 14:00:00,METAR VOHS 211400Z COR 20006KT 5000 -DZ SCT015 FEW030CB BKN100 28/17 Q1011 BECMG 6000
2026-04-21 13:31:00,METAR VOHS 211331Z 20008KT 5000 -TSRA SCT015 FEW030CB BKN100 28/15 Q1011 NOSIG
2026-04-21 13:00:00,METAR VOHS 211300Z 16007KT 6000 FEW015 FEW030CB BKN100 28/14 Q1011 NOSIG
2026-04-21 12:30:00,METAR VOHS 211230Z 16010KT 6000 FEW015 FEW030CB BKN100 29/14 Q1010 NOSIG
2026-04-21 12:00:00,METAR VOHS 211200Z 04009KT 6000 FEW015 FEW030CB BKN100 35/14 Q1009 NOSIG
2026-04-21 11:30:00,METAR VOHS 211130Z 04009KT 6000 FEW015 SCT025 FEW030CB 35/14 Q1009 NOSIG
2026-04-21 11:00:00,METAR VOHS 211100Z 03008KT 6000 FEW015 SCT025 FEW030CB 35/13 Q1009 NOSIG
2026-04-21 10:30:00,METAR VOHS 211030Z 36009KT 6000 FEW015 SCT025 FEW030CB 36/14 Q1009 NOSIG
2026-04-21 10:00:00,METAR VOHS 211000Z 35006KT 6000 FEW015 SCT025 FEW030CB 35/14 Q1009 NOSIG
2026-04-21 09:30:00,METAR VOHS 210930Z 02010KT 6000 FEW015 SCT025 FEW030CB 35/14 Q1009 NOSIG
2026-04-21 09:00:00,METAR VOHS 210900Z 04009KT 6000 FEW015 SCT025 FEW030TCU 36/16 Q1010 NOSIG
2026-04-21 08:30:00,METAR VOHS 210830Z 02010KT 6000 FEW015 SCT025 FEW030TCU 36/16 Q1010 NOSIG
2026-04-21 08:00:00,METAR VOHS 210800Z 29004KT 6000 FEW015 SCT025 36/18 Q1011 NOSIG
2026-04-21 07:30:00,METAR VOHS 210730Z 28007KT 6000 FEW015 SCT025 36/18 Q1012 NOSIG
2026-04-21 07:00:00,METAR VOHS 210700Z 26007KT 6000 FEW015 SCT025 36/18 Q1012 NOSIG
2026-04-21 06:30:00,METAR VOHS 210630Z 30005KT 6000 SCT020 35/19 Q1013 NOSIG
2026-04-21 06:00:00,METAR VOHS 210600Z 33006KT 6000 SCT020 34/19 Q1013 NOSIG
2026-04-21 05:30:00,METAR VOHS 210530Z 29006KT 6000 SCT020 33/20 Q1013 NOSIG
2026-04-21 05:00:00,METAR VOHS 210500Z 25006KT 6000 SCT020 33/20 Q1014 NOSIG
2026-04-21 04:30:00,METAR VOHS 210430Z 31010KT 6000 SCT020 33/20 Q1014 NOSIG
2026-04-21 04:00:00,METAR VOHS 210400Z 29007KT 6000 SCT020 31/20 Q1014 NOSIG
2026-04-21 03:30:00,METAR VOHS 210330Z 31007KT 6000 SCT020 30/20 Q1014 NOSIG
2026-04-21 03:00:00,METAR VOHS 210300Z 34007KT 6000 SCT020 29/20 Q1014 NOSIG
2026-04-21 02:30:00,METAR VOHS 210230Z 33007KT 6000 SCT020 29/20 Q1014 NOSIG
2026-04-21 02:00:00,METAR VOHS 210200Z 32009KT 6000 SCT020 28/21 Q1013 NOSIG
2026-04-21 01:30:00,METAR VOHS 210130Z 20004KT 6000 FEW020 27/21 Q1011 NOSIG
2026-04-21 01:00:00,METAR VOHS 210100Z 17004KT 6000 FEW020 27/21 Q1011 NOSIG
2026-04-21 00:30:00,METAR VOHS 210030Z 17004KT 6000 FEW020 26/21 Q1011 NOSIG
2026-04-21 00:00:00,METAR VOHS 210000Z 14004KT 6000 FEW020 25/21 Q1010 NOSIG
2026-04-20 23:30:00,METAR VOHS 202330Z 16004KT 6000 SCT020 26/20 Q1010 NOSIG
2026-04-20 23:00:00,METAR VOHS 202300Z 16005KT 6000 SCT020 26/20 Q1010 NOSIG
2026-04-20 22:30:00,METAR VOHS 202230Z 16005KT 6000 SCT020 26/20 Q1010 NOSIG
2026-04-20 22:00:00,METAR VOHS 202200Z 16005KT 6000 SCT020 26/20 Q1010 NOSIG
2026-04-20 21:30:00,METAR VOHS 202130Z 16005KT 6000 SCT020 27/20 Q1010 NOSIG
2026-04-20 21:00:00,METAR VOHS 202100Z 16005KT 6000 SCT020 27/20 Q1010 NOSIG
2026-04-20 20:30:00,METAR VOHS 202030Z 16005KT 6000 SCT020 28/19 Q1010 NOSIG
2026-04-20 20:00:00,METAR VOHS 202000Z 16005KT 6000 SCT020 28/19 Q1010 NOSIG
2026-04-20 19:30:00,METAR VOHS 201930Z 14005KT 6000 SCT020 28/18 Q1011 NOSIG
2026-04-20 19:00:00,METAR VOHS 201900Z 14005KT 6000 SCT020 28/18 Q1011 NOSIG
2026-04-20 18:30:00,METAR VOHS 201830Z VRB03KT 6000 SCT020 28/18 Q1012 NOSIG
2026-04-20 18:00:00,METAR VOHS 201800Z VRB03KT 6000 SCT020 29/18 Q1012 NOSIG
2026-04-20 17:30:00,METAR VOHS 201730Z VRB04KT 6000 SCT020 29/18 Q1012 NOSIG
2026-04-20 17:00:00,METAR VOHS 201700Z VRB03KT 6000 SCT020 29/17 Q1012 NOSIG
2026-04-20 16:30:00,METAR VOHS 201630Z VRB03KT 6000 SCT020 30/17 Q1012 NOSIG
2026-04-20 16:00:00,METAR VOHS 201600Z VRB04KT 6000 SCT020 30/17 Q1012 NOSIG
2026-04-20 15:30:00,METAR VOHS 201530Z 09005KT 6000 SCT020 30/17 Q1012 NOSIG
2026-04-20 15:00:00,METAR VOHS 201500Z 10006KT 6000 SCT020 32/16 Q1011 NOSIG
2026-04-20 14:30:00,METAR VOHS 201430Z 10006KT 6000 SCT020 32/15 Q1011 NOSIG
2026-04-20 14:00:00,METAR VOHS 201400Z 10008KT 6000 SCT020 32/15 Q1010 NOSIG
2026-04-20 13:30:00,METAR VOHS 201330Z 10006KT 6000 SCT020 34/14 Q1010 NOSIG
2026-04-20 13:00:00,METAR VOHS 201300Z 10006KT 6000 SCT020 34/14 Q1010 NOSIG
2026-04-20 12:30:00,METAR VOHS 201230Z 10007KT 6000 SCT020 36/14 Q1009 NOSIG
2026-04-20 12:00:00,METAR VOHS 201200Z 10008KT 6000 SCT020 36/13 Q1009 NOSIG
2026-04-20 11:30:00,METAR VOHS 201130Z 10009KT 6000 SCT020 36/13 Q1009 NOSIG
2026-04-20 11:00:00,METAR VOHS 201100Z 10008KT 6000 SCT020 37/13 Q1009 NOSIG
2026-04-20 10:30:00,METAR VOHS 201030Z 14007KT 6000 SCT020 36/14 Q1009 NOSIG
2026-04-20 10:00:00,METAR VOHS 201000Z 07010KT 6000 SCT020 37/13 Q1009 NOSIG
2026-04-20 09:30:00,METAR VOHS 200930Z 07011KT 6000 SCT020 37/14 Q1009 NOSIG
2026-04-20 09:00:00,METAR VOHS 200900Z 07011KT 6000 SCT020 37/13 Q1010 NOSIG
2026-04-20 08:30:00,METAR VOHS 200830Z 07011KT 6000 SCT020 37/13 Q1010 NOSIG
2026-04-20 07:30:00,METAR VOHS 200730Z 07011KT 6000 FEW020 37/13 Q1011 NOSIG
2026-04-20 07:00:00,METAR VOHS 200700Z 07010KT 6000 FEW020 37/11 Q1012 NOSIG
2026-04-20 06:30:00,METAR VOHS 200630Z 07010KT 6000 FEW020 36/12 Q1012 NOSIG
2026-04-20 06:00:00,METAR VOHS 200600Z 05010KT 6000 FEW020 36/12 Q1013 NOSIG
2026-04-20 05:30:00,METAR VOHS 200530Z 05010KT 6000 FEW020 36/12 Q1013 NOSIG
2026-04-20 05:00:00,METAR VOHS 200500Z 05011KT 6000 FEW020 35/12 Q1013 NOSIG
2026-04-20 04:30:00,METAR VOHS 200430Z 05005KT 6000 FEW020 33/15 Q1013 NOSIG
2026-04-20 04:01:00,METAR VOHS 200401Z 08008KT 6000 FEW020 31/15 Q1014 NOSIG
2026-04-20 03:30:00,METAR VOHS 200330Z 08008KT 6000 SCT020 30/15 Q1013 NOSIG
2026-04-20 03:00:00,METAR VOHS 200300Z VRB03KT 6000 SCT020 SCT100 28/16 Q1013 NOSIG
2026-04-20 02:30:00,METAR VOHS 200230Z 33004KT 6000 SCT020 SCT100 27/16 Q1013 NOSIG
2026-04-20 02:00:00,METAR VOHS 200200Z 33006KT 6000 SCT020 SCT100 27/16 Q1012 NOSIG
2026-04-20 01:30:00,METAR VOHS 200130Z 30005KT 6000 SCT020 SCT100 25/16 Q1012 NOSIG
2026-04-20 01:00:00,METAR VOHS 200100Z 29007KT 6000 SCT020 SCT100 25/16 Q1012 NOSIG
2026-04-20 00:30:00,METAR VOHS 200030Z 32005KT 6000 SCT020 SCT100 25/16 Q1012 NOSIG
2026-04-20 00:00:00,METAR VOHS 200000Z 33005KT 6000 SCT020 SCT100 25/16 Q1012 NOSIG
2026-04-19 23:30:00,METAR VOHS 192330Z 31007KT 6000 SCT020 SCT100 25/16 Q1012 NOSIG
2026-04-19 23:00:00,METAR VOHS 192300Z 30008KT 6000 SCT020 SCT100 26/16 Q1012 NOSIG
2026-04-19 22:30:00,METAR VOHS 192230Z 31009KT 6000 SCT020 SCT100 26/16 Q1012 NOSIG
2026-04-19 22:00:00,METAR VOHS 192200Z 32013KT 6000 SCT020 SCT100 26/16 Q1012 NOSIG
2026-04-19 21:30:00,METAR VOHS 192130Z 32011KT 6000 SCT020 SCT100 27/15 Q1012 NOSIG
2026-04-19 21:00:00,METAR VOHS 192100Z 32010KT 6000 SCT020 SCT100 27/15 Q1012 NOSIG
2026-04-19 20:30:00,METAR VOHS 192030Z 27014KT 6000 FEW020 SCT100 27/15 Q1012 NOSIG
2026-04-19 20:00:00,METAR VOHS 192000Z 27013KT 6000 FEW020 SCT100 27/13 Q1012 NOSIG
2026-04-19 19:30:00,METAR VOHS 191930Z 29009KT 6000 FEW020 SCT100 27/14 Q1012 NOSIG
2026-04-19 19:00:00,METAR VOHS 191900Z 28004KT 6000 FEW020 SCT100 26/14 Q1012 NOSIG
2026-04-19 18:30:00,METAR VOHS 191830Z 23004KT 6000 FEW020 SCT100 26/14 Q1013 NOSIG
2026-04-19 18:00:00,METAR VOHS 191800Z 25006KT 6000 FEW020 SCT100 27/14 Q1013 NOSIG
2026-04-19 17:30:00,METAR VOHS 191730Z 29008KT 6000 FEW020 SCT100 28/14 Q1013 NOSIG
2026-04-19 17:00:00,METAR VOHS 191700Z 29010KT 6000 SCT020 SCT025 29/13 Q1013 NOSIG
2026-04-19 16:30:00,METAR VOHS 191630Z 30012KT 6000 SCT020 SCT025 29/14 Q1013 NOSIG
2026-04-19 16:00:00,METAR VOHS 191600Z 30008KT 6000 FEW020 SCT025 29/14 Q1013 NOSIG
2026-04-19 15:30:00,METAR VOHS 191530Z 30010KT 6000 FEW020 SCT025 29/15 Q1013 NOSIG
2026-04-19 15:00:00,METAR VOHS 191500Z 29010KT 6000 FEW020 SCT025 30/13 Q1012 NOSIG
2026-04-19 14:30:00,METAR VOHS 191430Z 32008KT 6000 FEW020 SCT025 31/14 Q1012 NOSIG
2026-04-19 14:00:00,METAR VOHS 191400Z 33008KT 6000 FEW020 SCT025 31/14 Q1012 NOSIG
2026-04-19 13:30:00,METAR VOHS 191330Z 35007KT 6000 FEW020 SCT025 32/16 Q1011 NOSIG
2026-04-19 13:00:00,METAR VOHS 191300Z 36007KT 6000 FEW020 SCT025 FEW030CB 33/14 Q1010 NOSIG
2026-04-19 12:30:00,METAR VOHS 191230Z 02008KT 6000 FEW020 SCT025 FEW030CB 33/14 Q1009 NOSIG
2026-04-19 12:00:00,METAR VOHS 191200Z 11008KT 6000 FEW020 SCT025 FEW030CB 35/12 Q1009 NOSIG
2026-04-19 11:30:00,METAR VOHS 191130Z 14008KT 6000 FEW020 SCT025 FEW030CB 34/11 Q1009 TEMPO 4000 -TSRA
2026-04-19 11:00:00,METAR VOHS 191100Z 11014KT 6000 FEW020 SCT025 FEW030CB 32/13 Q1009 NOSIG
2026-04-19 10:30:00,METAR VOHS 191030Z 11012KT 6000 FEW020 SCT025 FEW030CB 38/18 Q1009 NOSIG
2026-04-19 10:03:00,METAR VOHS 191003Z VRB02KT 6000 FEW020 SCT025 FEW030CB 38/15 Q1009 NOSIG
2026-04-19 10:00:00,METAR VOHS 191000Z VRB02KT 6000 FEW020 SCT025 FEW030CB 38/15 Q1009 NOSIG
2026-04-19 09:30:00,METAR VOHS 190930Z VRB04KT 6000 FEW020 SCT025 37/17 Q1010 NOSIG
2026-04-19 09:00:00,METAR VOHS 190900Z VRB02KT 6000 FEW020 SCT025 37/16 Q1010 NOSIG
2026-04-19 08:30:00,METAR VOHS 190830Z VRB02KT 6000 SCT020 37/16 Q1011 NOSIG
2026-04-19 08:00:00,METAR VOHS 190800Z VRB03KT 6000 SCT020 37/17 Q1011 NOSIG
2026-04-19 07:30:00,METAR VOHS 190730Z 30006KT 6000 FEW020 36/18 Q1012 NOSIG
2026-04-19 07:00:00,METAR VOHS 190700Z 11006KT 6000 FEW020 36/19 Q1012 NOSIG
2026-04-19 06:30:00,METAR VOHS 190630Z 27006KT 6000 FEW020 36/19 Q1013 NOSIG
2026-04-19 06:00:00,METAR VOHS 190600Z 25006KT 6000 FEW020 35/19 Q1013 NOSIG
2026-04-19 05:30:00,METAR VOHS 190530Z 18006KT 6000 FEW020 34/20 Q1013 NOSIG
2026-04-19 05:00:00,METAR VOHS 190500Z 26008KT 6000 FEW020 33/21 Q1013 NOSIG
2026-04-19 04:30:00,METAR VOHS 190430Z 28007KT 6000 FEW020 33/20 Q1014 NOSIG
2026-04-19 04:00:00,METAR VOHS 190400Z 27009KT 6000 FEW020 32/21 Q1014 NOSIG
2026-04-19 03:30:00,METAR VOHS 190330Z 24008KT 5000 HZ FEW020 31/22 Q1013 BECMG 6000
2026-04-19 03:00:00,METAR VOHS 190300Z 26009KT 5000 HZ NSC 30/22 Q1013 NOSIG
2026-04-19 02:30:00,METAR VOHS 190230Z 28009KT 5000 HZ NSC 28/22 Q1013 NOSIG
2026-04-19 02:00:00,METAR VOHS 190200Z 28007KT 4000 BR NSC 27/22 Q1012 BECMG 5000 HZ
2026-04-19 01:30:00,METAR VOHS 190130Z 28004KT 4000 BR NSC 26/22 Q1011 NOSIG
2026-04-19 01:00:00,METAR VOHS 190100Z 26004KT 4000 BR FEW020 24/22 Q1011 NOSIG
2026-04-19 00:30:00,METAR VOHS 190030Z VRB03KT 5000 HZ FEW020 24/22 Q1010 TEMPO 3000 BR
2026-04-19 00:00:00,METAR VOHS 190000Z VRB03KT 5000 HZ FEW020 24/22 Q1010 NOSIG
2026-04-18 23:30:00,METAR VOHS 182330Z VRB03KT 6000 FEW020 25/22 Q1010 TEMPO 5000 HZ
2026-04-18 23:00:00,METAR VOHS 182300Z 13005KT 6000 FEW020 26/22 Q1010 NOSIG
2026-04-18 22:30:00,METAR VOHS 182230Z 11005KT 6000 FEW020 26/22 Q1010 NOSIG
2026-04-18 22:00:00,METAR VOHS 182200Z 13005KT 6000 FEW020 26/22 Q1010 NOSIG
2026-04-18 21:30:00,METAR VOHS 182130Z 12004KT 6000 SCT020 27/22 Q1010 NOSIG
2026-04-18 21:00:00,METAR VOHS 182100Z 11006KT 6000 SCT020 27/22 Q1010 NOSIG
2026-04-18 20:30:00,METAR VOHS 182030Z 14006KT 6000 SCT020 27/22 Q1010 NOSIG
2026-04-18 20:00:00,METAR VOHS 182000Z 14006KT 6000 SCT020 27/22 Q1011 NOSIG
2026-04-18 19:30:00,METAR VOHS 181930Z 15006KT 6000 SCT020 28/21 Q1011 NOSIG
2026-04-18 19:00:00,METAR VOHS 181900Z 14006KT 6000 SCT020 28/21 Q1011 NOSIG
2026-04-18 18:30:00,METAR VOHS 181830Z 13008KT 6000 SCT020 29/21 Q1012 NOSIG
2026-04-18 18:00:00,METAR VOHS 181800Z 12007KT 6000 SCT020 29/20 Q1012 NOSIG
2026-04-18 17:30:00,METAR VOHS 181730Z 12006KT 6000 SCT020 29/19 Q1013 NOSIG
2026-04-18 17:00:00,METAR VOHS 181700Z 13005KT 6000 SCT020 29/19 Q1013 NOSIG
2026-04-18 16:30:00,METAR VOHS 181630Z 12006KT 6000 SCT020 30/19 Q1013 NOSIG
2026-04-18 16:00:00,METAR VOHS 181600Z 12006KT 6000 SCT020 30/19 Q1013 NOSIG
2026-04-18 15:00:00,METAR VOHS 181500Z VRB04KT 6000 SCT020 31/21 Q1012 NOSIG
2026-04-18 14:30:00,METAR VOHS 181430Z VRB04KT 6000 SCT020 32/20 Q1012 NOSIG
2026-04-18 14:00:00,METAR VOHS 181400Z VRB04KT 6000 SCT020 33/29 Q1011 NOSIG
2026-04-18 13:30:00,METAR VOHS 181330Z VRB04KT 6000 SCT020 33/21 Q1011 NOSIG
2026-04-18 13:00:00,METAR VOHS 181300Z VRB04KT 6000 FEW020 SCT025 FEW030TCU 33/21 Q1011 NOSIG
2026-04-18 12:30:00,METAR VOHS 181230Z COR VRB03KT 6000 FEW020 SCT025 FEW030TCU 34/21 Q1010 NOSIG
2026-04-18 12:00:00,METAR VOHS 181200Z VRB03KT 6000 FEW015 SCT025 FEW030TCU 35/20 Q1010 NOSIG
2026-04-18 11:30:00,METAR VOHS 181130Z 15005KT 6000 FEW015 SCT025 36/19 Q1010 NOSIG
2026-04-18 11:00:00,METAR VOHS 181100Z 14004KT 6000 FEW015 SCT025 36/18 Q1010 NOSIG
2026-04-18 10:00:00,METAR VOHS 181000Z 14006KT 6000 FEW015 SCT025 FEW030CB 36/18 Q1010 NOSIG
2026-04-18 09:30:00,METAR VOHS 180930Z 18007KT 6000 FEW015 SCT025 FEW030CB 35/17 Q1010 NOSIG
2026-04-18 09:00:00,METAR VOHS 180900Z 20006KT 6000 FEW015 SCT025 FEW030CB 37/16 Q1011 NOSIG
2026-04-18 08:30:00,METAR VOHS 180830Z COR VRB04KT 6000 FEW015 SCT025 FEW030TCU 37/16 Q1011 NOSIG
2026-04-18 08:00:00,METAR VOHS 180800Z VRB05KT 6000 FEW015 SCT025 38/16 Q1012 NOSIG
2026-04-18 07:30:00,METAR VOHS 180730Z VRB05KT 6000 FEW015 SCT025 37/16 Q1012 NOSIG
2026-04-18 07:00:00,METAR VOHS 180700Z VRB04KT 6000 FEW015 SCT025 37/16 Q1013 NOSIG
2026-04-18 06:30:00,METAR VOHS 180630Z 30006KT 6000 NSC 38/17 Q1013 NOSIG
2026-04-18 06:00:00,METAR VOHS 180600Z 26005KT 6000 NSC 37/16 Q1013 NOSIG
2026-04-18 05:30:00,METAR VOHS 180530Z 31005KT 6000 NSC 36/19 Q1014 NOSIG
2026-04-18 05:00:00,METAR VOHS 180500Z 24006KT 6000 NSC 36/19 Q1013 NOSIG
2026-04-18 04:30:00,METAR VOHS 180430Z 25006KT 6000 FEW020 35/20 Q1014 NOSIG
2026-04-18 04:00:00,METAR VOHS 180400Z 25008KT 6000 FEW020 34/20 Q1014 NOSIG
2026-04-18 03:30:00,METAR VOHS 180330Z 25008KT 6000 NSC 33/20 Q1014 NOSIG
2026-04-18 03:00:00,METAR VOHS 180300Z 23007KT 6000 NSC 32/21 Q1013 NOSIG
2026-04-18 02:30:00,METAR VOHS 180230Z 21005KT 6000 NSC 31/20 Q1013 NOSIG
2026-04-18 02:00:00,METAR VOHS 180200Z VRB04KT 6000 FEW020 29/21 Q1012 NOSIG
2026-04-18 01:30:00,METAR VOHS 180130Z VRB02KT 6000 FEW020 27/21 Q1012 NOSIG
2026-04-18 01:00:00,METAR VOHS 180100Z VRB02KT 6000 FEW020 25/20 Q1012 NOSIG
2026-04-18 00:30:00,METAR VOHS 180030Z VRB03KT 6000 FEW020 25/21 Q1011 NOSIG
2026-04-18 00:00:00,METAR VOHS 180000Z VRB04KT 6000 FEW020 25/20 Q1011 NOSIG
2026-04-17 23:30:00,METAR VOHS 172330Z VRB04KT 6000 FEW020 25/21 Q1011 NOSIG
2026-04-17 23:00:00,METAR VOHS 172300Z VRB04KT 6000 FEW020 25/21 Q1010 NOSIG
2026-04-17 22:30:00,METAR VOHS 172230Z VRB04KT 6000 FEW020 24/21 Q1010 NOSIG
2026-04-17 22:00:00,METAR VOHS 172200Z VRB02KT 6000 FEW020 25/20 Q1011 NOSIG
2026-04-17 21:30:00,METAR VOHS 172130Z VRB02KT 6000 FEW020 25/19 Q1011 NOSIG
2026-04-17 21:00:00,METAR VOHS 172100Z VRB02KT 6000 FEW020 25/19 Q1011 NOSIG
2026-04-17 20:30:00,METAR VOHS 172030Z VRB02KT 6000 FEW020 26/20 Q1011 NOSIG
2026-04-17 20:00:00,METAR VOHS 172000Z VRB02KT 6000 FEW020 28/19 Q1012 NOSIG
2026-04-17 19:30:00,METAR VOHS 171930Z 18005KT 6000 FEW020 29/19 Q1012 NOSIG
2026-04-17 19:00:00,METAR VOHS 171900Z 13005KT 6000 FEW020 29/19 Q1012 NOSIG
2026-04-17 18:30:00,METAR VOHS 171830Z 14007KT 6000 FEW020 29/18 Q1012 NOSIG
2026-04-17 18:00:00,METAR VOHS 171800Z 12005KT 6000 FEW020 29/18 Q1013 NOSIG
2026-04-17 17:30:00,METAR VOHS 171730Z 13006KT 6000 FEW020 30/18 Q1013 NOSIG
2026-04-17 17:00:00,METAR VOHS 171700Z 12007KT 6000 FEW020 30/18 Q1013 NOSIG
2026-04-17 16:30:00,METAR VOHS 171630Z 12006KT 6000 FEW020 30/18 Q1013 NOSIG
2026-04-17 16:00:00,METAR VOHS 171600Z 11008KT 6000 FEW020 31/18 Q1013 NOSIG
2026-04-17 15:30:00,METAR VOHS 171530Z 12006KT 6000 FEW015 32/17 Q1012 NOSIG
2026-04-17 15:00:00,METAR VOHS 171500Z 10007KT 6000 FEW015 32/17 Q1012 NOSIG
2026-04-17 14:30:00,METAR VOHS 171430Z 09007KT 6000 FEW015 32/16 Q1011 NOSIG
2026-04-17 14:00:00,METAR VOHS 171400Z 10007KT 6000 SCT015 34/15 Q1011 NOSIG
2026-04-17 13:30:00,METAR VOHS 171330Z 06010KT 6000 SCT015 35/16 Q1011 NOSIG
2026-04-17 13:00:00,METAR VOHS 171300Z 09007KT 6000 SCT015 35/14 Q1010 NOSIG
2026-04-17 12:30:00,METAR VOHS 171230Z 11007KT 6000 SCT015 36/13 Q1010 NOSIG
2026-04-17 12:00:00,METAR VOHS 171200Z 11007KT 6000 SCT015 37/12 Q1010 NOSIG
2026-04-17 11:30:00,METAR VOHS 171130Z 10006KT 6000 FEW015 SCT025 38/13 Q1009 NOSIG
2026-04-17 11:00:00,METAR VOHS 171100Z 12006KT 6000 FEW015 SCT025 FEW030TCU 38/13 Q1009 NOSIG
2026-04-17 10:30:00,METAR VOHS 171030Z 10006KT 6000 FEW015 SCT025 FEW030TCU 38/13 Q1010 NOSIG
2026-04-17 10:00:00,METAR VOHS 171000Z 10009KT 6000 FEW015 SCT025 FEW030TCU 38/13 Q1010 NOSIG
2026-04-17 09:30:00,METAR VOHS 170930Z VRB04KT 6000 FEW015 SCT025 38/13 Q1010 NOSIG
2026-04-17 09:00:00,METAR VOHS 170900Z VRB05KT 6000 FEW015 SCT025 38/14 Q1010 NOSIG
2026-04-17 08:30:00,METAR VOHS 170830Z VRB05KT 6000 FEW015 SCT025 37/14 Q1011 NOSIG
2026-04-17 08:00:00,METAR VOHS 170800Z 08005KT 6000 FEW015 SCT025 38/14 Q1012 NOSIG
2026-04-17 07:30:00,METAR VOHS 170730Z VRB04KT 6000 NSC 38/15 Q1012 NOSIG
2026-04-17 07:00:00,METAR VOHS 170700Z VRB04KT 6000 NSC 38/16 Q1013 NOSIG
2026-04-17 06:30:00,METAR VOHS 170630Z 23006KT 6000 NSC 38/17 Q1013 NOSIG
2026-04-17 06:00:00,METAR VOHS 170600Z 23007KT 6000 NSC 37/17 Q1014 NOSIG
2026-04-17 05:30:00,METAR VOHS 170530Z 22007KT 6000 NSC 36/18 Q1014 NOSIG
2026-04-17 05:00:00,METAR VOHS 170500Z 23006KT 6000 NSC 35/20 Q1014 NOSIG
2026-04-17 04:30:00,METAR VOHS 170430Z 23006KT 6000 NSC 34/20 Q1014 NOSIG
2026-04-17 04:00:00,METAR VOHS 170400Z 22006KT 6000 NSC 33/20 Q1014 NOSIG
2026-04-17 03:30:00,METAR VOHS 170330Z 23006KT 6000 NSC 32/20 Q1014 NOSIG
2026-04-17 03:00:00,METAR VOHS 170300Z 18006KT 6000 NSC 30/23 Q1014 NOSIG
2026-04-17 02:30:00,METAR VOHS 170230Z 16004KT 6000 NSC 29/23 Q1014 NOSIG
2026-04-17 02:00:00,METAR VOHS 170200Z 13004KT 6000 SCT020 28/23 Q1013 NOSIG
2026-04-17 01:30:00,METAR VOHS 170130Z 10005KT 6000 SCT020 27/24 Q1013 NOSIG
2026-04-17 01:00:00,METAR VOHS 170100Z 10005KT 6000 SCT020 26/23 Q1012 NOSIG
2026-04-17 00:30:00,METAR VOHS 170030Z 10005KT 6000 SCT020 26/23 Q1012 NOSIG
2026-04-17 00:00:00,METAR VOHS 170000Z VRB04KT 6000 SCT020 26/24 Q1012 NOSIG
2026-04-16 23:30:00,METAR VOHS 162330Z VRB04KT 6000 SCT020 26/24 Q1011 NOSIG
2026-04-16 23:00:00,METAR VOHS 162300Z 20005KT 6000 SCT020 26/24 Q1010 NOSIG
2026-04-16 22:30:00,METAR VOHS 162230Z 20005KT 6000 SCT020 26/24 Q1010 NOSIG
2026-04-16 22:00:00,METAR VOHS 162200Z 15005KT 6000 SCT020 26/24 Q1011 NOSIG
2026-04-16 21:30:00,METAR VOHS 162130Z 15005KT 6000 SCT020 27/24 Q1011 NOSIG
2026-04-16 21:00:00,METAR VOHS 162100Z 12005KT 6000 SCT020 27/24 Q1011 NOSIG
2026-04-16 20:30:00,METAR VOHS 162030Z 12005KT 6000 FEW020 27/24 Q1011 NOSIG
2026-04-16 20:00:00,METAR VOHS 162000Z 13006KT 6000 FEW020 28/24 Q1011 NOSIG
2026-04-16 19:30:00,METAR VOHS 161930Z 13006KT 6000 FEW020 28/24 Q1012 NOSIG
2026-04-16 19:00:00,METAR VOHS 161900Z 14006KT 6000 FEW020 SCT100 28/23 Q1012 NOSIG
2026-04-16 18:30:00,METAR VOHS 161830Z 12007KT 6000 FEW020 SCT100 29/23 Q1012 NOSIG
2026-04-16 18:00:00,METAR VOHS 161800Z 12007KT 6000 FEW020 SCT100 29/23 Q1012 NOSIG
2026-04-16 17:30:00,METAR VOHS 161730Z 12007KT 6000 FEW020 SCT100 29/22 Q1012 NOSIG
2026-04-16 17:00:00,METAR VOHS 161700Z 12007KT 6000 FEW020 SCT100 30/22 Q1013 NOSIG
2026-04-16 16:30:00,METAR VOHS 161630Z 11007KT 5000 HZ SCT020 BKN100 31/22 Q1012 NOSIG
2026-04-16 16:00:00,METAR VOHS 161600Z 11007KT 5000 HZ SCT020 BKN100 31/21 Q1012 NOSIG
2026-04-16 15:30:00,METAR VOHS 161530Z 12007KT 5000 HZ SCT015 BKN100 31/21 Q1012 NOSIG
2026-04-16 15:00:00,METAR VOHS 161500Z 11007KT 5000 TS SCT015 FEW030CB BKN100 32/20 Q1011 NOSIG
2026-04-16 14:29:00,METAR VOHS 161429Z 13007KT 5000 TS SCT015 BKN100 FEW030CB 32/19 Q1011 NOSIG
2026-04-16 14:00:00,METAR VOHS 161400Z 13006KT 6000 SCT015 SCT100 32/18 Q1010 NOSIG
2026-04-16 13:30:00,METAR VOHS 161330Z 13007KT 6000 SCT015 BKN100 33/17 Q1010 NOSIG
2026-04-16 13:00:00,METAR VOHS 161300Z 13010KT 6000 SCT015 BKN100 34/18 Q1009 NOSIG
2026-04-16 12:30:00,METAR VOHS 161230Z 12010KT 6000 SCT015 FEW030CB BKN100 35/17 Q1009 NOSIG
2026-04-16 12:00:00,METAR VOHS 161200Z 15006KT 6000 SCT015 FEW030CB BKN100 36/15 Q1008 NOSIG
2026-04-16 11:30:00,METAR VOHS 161130Z 15006KT 6000 SCT015 FEW030CB BKN100 37/14 Q1008 NOSIG
2026-04-16 11:00:00,METAR VOHS 161100Z 15007KT 6000 SCT015 FEW030CB BKN100 38/14 Q1008 NOSIG
2026-04-16 10:33:00,METAR VOHS 161033Z 25007KT 6000 SCT015 FEW030TCU BKN100 38/14 Q1008 NOSIG
2026-04-16 10:00:00,METAR VOHS 161000Z 21006KT 6000 SCT015 SCT100 39/14 Q1009 NOSIG
2026-04-16 09:30:00,METAR VOHS 160930Z 20008KT 6000 SCT015 SCT100 38/14 Q1009 NOSIG
2026-04-16 09:00:00,METAR VOHS 160900Z 22006KT 6000 SCT015 SCT100 39/14 Q1009 NOSIG
2026-04-16 08:30:00,METAR VOHS 160830Z 22007KT 6000 SCT015 SCT100 38/15 Q1010 NOSIG
2026-04-16 08:00:00,METAR VOHS 160800Z 24007KT 6000 SCT015 SCT100 38/15 Q1010 NOSIG
2026-04-16 07:30:00,METAR VOHS 160730Z 22007KT 6000 FEW020 38/15 Q1011 NOSIG
2026-04-16 07:00:00,METAR VOHS 160700Z 22006KT 6000 FEW020 38/15 Q1011 NOSIG
2026-04-16 06:30:00,METAR VOHS 160630Z 22008KT 6000 FEW020 38/15 Q1012 NOSIG
2026-04-16 06:00:00,METAR VOHS 160600Z 28010KT 6000 FEW020 37/16 Q1012 NOSIG
2026-04-16 05:30:00,METAR VOHS 160530Z 27010KT 6000 FEW020 36/16 Q1013 NOSIG
2026-04-16 05:00:00,METAR VOHS 160500Z 27006KT 6000 FEW020 35/18 Q1013 NOSIG
2026-04-16 04:30:00,METAR VOHS 160430Z 30007KT 6000 FEW020 34/18 Q1013 NOSIG
2026-04-16 04:00:00,METAR VOHS 160400Z 32006KT 6000 FEW020 33/19 Q1013 NOSIG
2026-04-16 03:30:00,METAR VOHS 160330Z 23007KT 6000 FEW020 33/19 Q1013 NOSIG
2026-04-16 03:00:00,METAR VOHS 160300Z 20007KT 5000 HZ FEW020 32/18 Q1012 NOSIG
2026-04-16 02:30:00,METAR VOHS 160230Z 20006KT 5000 HZ FEW020 30/19 Q1011 NOSIG
2026-04-16 02:00:00,METAR VOHS 160200Z 17005KT 5000 HZ FEW020 28/19 Q1011 NOSIG
2026-04-16 01:30:00,METAR VOHS 160130Z 16004KT 5000 HZ FEW020 26/20 Q1011 NOSIG
2026-04-16 01:00:00,METAR VOHS 160100Z 19004KT 5000 HZ FEW020 25/20 Q1010 NOSIG
2026-04-16 00:30:00,METAR VOHS 160030Z COR 18004KT 5000 HZ FEW020 25/20 Q1010 NOSIG
2026-04-16 00:00:00,METAR VOHS 160000Z VRB02KT 6000 SCT020 24/19 Q1010 NOSIG
2026-04-15 23:30:00,METAR VOHS 152330Z VRB01KT 6000 SCT020 25/19 Q1009 NOSIG
2026-04-15 23:00:00,METAR VOHS 152300Z VRB02KT 6000 SCT020 26/19 Q1009 NOSIG
2026-04-15 22:30:00,METAR VOHS 152230Z 00000KT 6000 SCT020 26/19 Q1009 NOSIG
2026-04-15 22:00:00,METAR VOHS 152200Z 13003KT 6000 SCT020 27/19 Q1009 NOSIG
2026-04-15 21:30:00,METAR VOHS 152130Z 11004KT 6000 SCT020 27/19 Q1009 NOSIG
2026-04-15 21:00:00,METAR VOHS 152100Z 10005KT 6000 SCT020 27/19 Q1009 NOSIG
2026-04-15 20:30:00,METAR VOHS 152030Z 10005KT 6000 SCT020 28/19 Q1010 NOSIG
2026-04-15 20:00:00,METAR VOHS 152000Z 10005KT 6000 SCT020 28/18 Q1010 NOSIG
2026-04-15 19:30:00,METAR VOHS 151930Z 10005KT 6000 SCT020 29/19 Q1010 NOSIG
2026-04-15 18:30:00,METAR VOHS 151830Z 12005KT 6000 SCT020 29/18 Q1011 NOSIG
2026-04-15 18:00:00,METAR VOHS 151800Z 12005KT 6000 SCT020 29/18 Q1011 NOSIG
2026-04-15 17:30:00,METAR VOHS 151730Z 12005KT 6000 SCT020 29/18 Q1011 NOSIG
2026-04-15 17:00:00,METAR VOHS 151700Z 12005KT 6000 SCT020 30/18 Q1011 NOSIG
2026-04-15 16:30:00,METAR VOHS 151630Z 12005KT 6000 SCT020 31/17 Q1011 NOSIG
2026-04-15 16:00:00,METAR VOHS 151600Z 12005KT 6000 SCT020 31/17 Q1011 NOSIG
2026-04-15 15:30:00,METAR VOHS 151530Z 11006KT 6000 SCT020 31/15 Q1011 NOSIG
2026-04-15 15:00:00,METAR VOHS 151500Z VRB04KT 6000 SCT020 32/14 Q1010 NOSIG
2026-04-15 14:30:00,METAR VOHS 151430Z VRB04KT 6000 FEW020 SCT025 32/13 Q1010 NOSIG
2026-04-15 14:00:00,METAR VOHS 151400Z VRB04KT 6000 FEW020 SCT025 32/14 Q1009 NOSIG
2026-04-15 13:30:00,METAR VOHS 151330Z VRB04KT 6000 FEW020 SCT025 33/14 Q1009 NOSIG
2026-04-15 13:00:00,METAR VOHS 151300Z VRB03KT 6000 FEW020 SCT025 34/13 Q1009 NOSIG
2026-04-15 12:30:00,METAR VOHS 151230Z 23005KT 6000 FEW020 SCT025 36/12 Q1009 NOSIG
2026-04-15 12:00:00,METAR VOHS 151200Z 23006KT 6000 FEW020 SCT025 37/12 Q1008 NOSIG
2026-04-15 11:30:00,METAR VOHS 151130Z VRB03KT 6000 FEW020 SCT025 37/12 Q1008 NOSIG
2026-04-15 11:00:00,METAR VOHS 151100Z 23006KT 6000 SCT020 38/12 Q1008 NOSIG
2026-04-15 10:30:00,METAR VOHS 151030Z 15006KT 6000 SCT020 38/11 Q1008 NOSIG
2026-04-15 10:00:00,METAR VOHS 151000Z 16005KT 6000 SCT020 38/11 Q1009 NOSIG
2026-04-15 09:30:00,METAR VOHS 150930Z 24008KT 6000 SCT020 38/11 Q1009 NOSIG
2026-04-15 09:00:00,METAR VOHS 150900Z 23010KT 6000 FEW020 38/12 Q1010 NOSIG
2026-04-15 08:30:00,METAR VOHS 150830Z 24006KT 6000 FEW020 38/12 Q1010 NOSIG
2026-04-15 08:00:00,METAR VOHS 150800Z 24006KT 6000 FEW020 38/12 Q1010 NOSIG
2026-04-15 07:30:00,METAR VOHS 150730Z 26011KT 6000 FEW020 38/13 Q1011 NOSIG
2026-04-15 07:00:00,METAR VOHS 150700Z 25009KT 6000 NSC 38/12 Q1012 NOSIG
2026-04-15 06:30:00,METAR VOHS 150630Z 25009KT 6000 NSC 37/12 Q1012 NOSIG
2026-04-15 06:00:00,METAR VOHS 150600Z 26011KT 6000 FEW020 37/13 Q1012 NOSIG
2026-04-15 05:30:00,METAR VOHS 150530Z 22011KT 6000 FEW020 36/12 Q1012 NOSIG
2026-04-15 05:00:00,METAR VOHS 150500Z 21008KT 6000 FEW020 36/13 Q1012 NOSIG
2026-04-15 04:30:00,METAR VOHS 150430Z 22008KT 6000 SCT020 35/14 Q1013 NOSIG
2026-04-15 04:00:00,METAR VOHS 150400Z 21006KT 6000 SCT020 34/15 Q1012 NOSIG
2026-04-15 03:30:00,METAR VOHS 150330Z 22007KT 6000 SCT020 32/15 Q1012 NOSIG
2026-04-15 03:00:00,METAR VOHS 150300Z 22008KT 6000 SCT020 30/16 Q1012 NOSIG
2026-04-15 02:30:00,METAR VOHS 150230Z 22008KT 6000 SCT020 30/16 Q1012 NOSIG
2026-04-15 02:00:00,METAR VOHS 150200Z 22007KT 6000 SCT020 28/17 Q1012 NOSIG
2026-04-15 01:30:00,METAR VOHS 150130Z 25006KT 6000 SCT020 26/16 Q1012 NOSIG
2026-04-15 01:00:00,METAR VOHS 150100Z 25005KT 6000 SCT020 25/16 Q1011 NOSIG
2026-04-15 00:30:00,METAR VOHS 150030Z 25005KT 6000 SCT020 24/16 Q1011 NOSIG
2026-04-15 00:02:00,METAR VOHS 150002Z 26008KT 6000 SCT020 25/16 Q1010 NOSIG
2026-04-14 23:30:00,METAR VOHS 142330Z 26008KT 6000 SCT020 25/16 Q1010 NOSIG
2026-04-14 23:01:00,METAR VOHS 142301Z VRB04KT 6000 SCT020 25/16 Q1010 NOSIG
2026-04-14 22:30:00,METAR VOHS 142230Z VRB04KT 6000 SCT020 25/16 Q1010 NOSIG
2026-04-14 22:00:00,METAR VOHS 142200Z VRB04KT 6000 SCT020 25/16 Q1010 NOSIG
2026-04-14 21:30:00,METAR VOHS 142130Z VRB04KT 6000 SCT020 26/16 Q1010 NOSIG
2026-04-14 21:00:00,METAR VOHS 142100Z VRB03KT 6000 SCT020 26/16 Q1010 NOSIG
2026-04-14 20:30:00,METAR VOHS 142030Z VRB03KT 6000 SCT020 28/17 Q1011 NOSIG
2026-04-14 20:00:00,METAR VOHS 142000Z VRB03KT 6000 SCT020 28/17 Q1011 NOSIG
2026-04-14 19:30:00,METAR VOHS 141930Z 11005KT 6000 SCT020 28/16 Q1011 NOSIG
2026-04-14 19:00:00,METAR VOHS 141900Z 10006KT 6000 SCT020 29/15 Q1012 NOSIG
2026-04-14 18:30:00,METAR VOHS 141830Z 13006KT 6000 SCT020 29/15 Q1012 NOSIG
2026-04-14 18:01:00,METAR VOHS 141801Z 15006KT 6000 SCT020 30/16 Q1012 NOSIG
2026-04-14 18:00:00,METAR VOHS 141800Z COR 15006KT 6000 SCT020 30/16 Q1012 NOSIG
2026-04-14 17:30:00,METAR VOHS 141730Z 14005KT 6000 SCT020 SCT100 30/16 Q1012 NOSIG
2026-04-14 17:00:00,METAR VOHS 141700Z 14004KT 6000 SCT020 SCT100 30/16 Q1013 NOSIG
2026-04-14 16:30:00,METAR VOHS 141630Z 14006KT 6000 SCT020 SCT100 31/16 Q1012 NOSIG
2026-04-14 16:00:00,METAR VOHS 141600Z 12006KT 6000 SCT020 SCT100 31/16 Q1012 NOSIG
2026-04-14 15:30:00,METAR VOHS 141530Z 12006KT 6000 SCT020 SCT100 33/18 Q1012 NOSIG
2026-04-14 15:00:00,METAR VOHS 141500Z 12006KT 6000 SCT020 SCT100 33/18 Q1012 NOSIG
2026-04-14 14:30:00,METAR VOHS 141430Z VRB04KT 6000 SCT020 SCT100 33/18 Q1012 NOSIG
2026-04-14 14:00:00,METAR VOHS 141400Z 08004KT 6000 SCT020 SCT100 33/18 Q1012 NOSIG
2026-04-14 13:30:00,METAR VOHS 141330Z 08008G18KT 6000 SCT020 FEW030CB BKN100 34/18 Q1011 TEMPO 5000 TSRA
2026-04-14 13:00:00,METAR VOHS 141300Z 20005KT 6000 SCT020 FEW030CB BKN100 34/18 Q1010 NOSIG
2026-04-14 12:30:00,METAR VOHS 141230Z 22006KT 6000 SCT020 FEW030CB BKN100 34/18 Q1010 NOSIG
2026-04-14 12:00:00,METAR VOHS 141200Z 21005KT 6000 SCT020 SCT025 FEW030TCU 35/18 Q1010 NOSIG
2026-04-14 11:30:00,METAR VOHS 141130Z 18006KT 6000 SCT020 SCT025 FEW030TCU 36/18 Q1010 NOSIG
2026-04-14 11:00:00,METAR VOHS 141100Z 18007KT 6000 SCT020 36/17 Q1010 NOSIG
2026-04-14 10:00:00,METAR VOHS 141000Z 21006KT 6000 SCT020 38/17 Q1010 NOSIG
2026-04-14 09:30:00,METAR VOHS 140930Z 20006KT 6000 SCT020 38/17 Q1010 NOSIG
2026-04-14 09:00:00,METAR VOHS 140900Z 24006KT 6000 SCT020 38/18 Q1011 NOSIG
2026-04-14 08:30:00,METAR VOHS 140830Z 24006KT 6000 SCT020 38/18 Q1011 NOSIG
2026-04-14 08:00:00,METAR VOHS 140800Z VRB04KT 6000 SCT020 38/17 Q1012 NOSIG
2026-04-14 07:30:00,METAR VOHS 140730Z 26006KT 6000 NSC 37/17 Q1013 NOSIG
2026-04-14 07:00:00,METAR VOHS 140700Z 20004KT 6000 NSC 37/17 Q1013 NOSIG
2026-04-14 06:30:00,METAR VOHS 140630Z 20008KT 6000 NSC 37/17 Q1014 NOSIG
2026-04-14 06:00:00,METAR VOHS 140600Z 22008KT 6000 FEW020 36/17 Q1014 NOSIG
2026-04-14 05:30:00,METAR VOHS 140530Z 22008KT 6000 FEW020 36/17 Q1014 NOSIG
2026-04-14 05:00:00,METAR VOHS 140500Z 22008KT 6000 FEW020 35/17 Q1014 NOSIG
2026-04-14 04:30:00,METAR VOHS 140430Z 22007KT 6000 FEW020 35/18 Q1015 NOSIG
2026-04-14 04:00:00,METAR VOHS 140400Z 24007KT 6000 FEW020 34/19 Q1015 NOSIG
2026-04-14 03:30:00,METAR VOHS 140330Z 22006KT 6000 FEW020 33/19 Q1015 NOSIG
2026-04-14 03:00:00,METAR VOHS 140300Z 19006KT 5000 HZ FEW020 30/20 Q1015 NOSIG
2026-04-14 02:30:00,METAR VOHS 140230Z 20007KT 5000 HZ FEW020 29/20 Q1014 NOSIG
2026-04-14 02:00:00,METAR VOHS 140200Z 19005KT 5000 HZ FEW020 SCT100 29/21 Q1013 NOSIG
2026-04-14 01:30:00,METAR VOHS 140130Z 21004KT 5000 HZ FEW015 BKN100 28/20 Q1013 NOSIG
2026-04-14 01:00:00,METAR VOHS 140100Z 21005KT 5000 HZ FEW015 BKN100 28/20 Q1013 NOSIG
2026-04-14 00:30:00,METAR VOHS 140030Z 19004KT 5000 HZ FEW015 BKN100 27/19 Q1013 NOSIG
2026-04-14 00:00:00,METAR VOHS 140000Z 20005KT 5000 HZ SCT015 FEW030CB BKN100 27/19 Q1012 NOSIG
2026-04-13 23:30:00,METAR VOHS 132330Z VRB04KT 5000 HZ SCT015 FEW030CB BKN100 27/19 Q1012 NOSIG
2026-04-13 23:00:00,METAR VOHS 132300Z 22004KT 5000 HZ SCT015 FEW030CB BKN100 27/19 Q1012 NOSIG
2026-04-13 22:30:00,METAR VOHS 132230Z 28007KT 5000 HZ SCT015 FEW030CB BKN100 28/20 Q1012 NOSIG
2026-04-13 22:00:00,METAR VOHS 132200Z 16006KT 5000 HZ SCT015 FEW030CB BKN100 28/20 Q1011 NOSIG
2026-04-13 21:30:00,METAR VOHS 132130Z 17005KT 5000 HZ SCT015 FEW030CB BKN100 28/19 Q1012 NOSIG
2026-04-13 21:00:00,METAR VOHS 132100Z 24004KT 5000 HZ SCT020 SCT025 FEW030CB 28/20 Q1012 NOSIG
2026-04-13 20:30:00,METAR VOHS 132030Z VRB03KT 5000 TS SCT020 SCT025 FEW030CB 29/21 Q1013 TEMPO 3000 TSRA
2026-04-13 20:00:00,METAR VOHS 132000Z 33010KT 5000 TS SCT020 SCT025 FEW030CB 28/22 Q1013 TEMPO 3000 TSRA
2026-04-13 19:30:00,METAR VOHS 131930Z 10007KT 5000 HZ SCT020 SCT025 FEW030CB 28/21 Q1012 NOSIG
2026-04-13 19:00:00,METAR VOHS 131900Z 11006KT 5000 HZ SCT020 SCT025 FEW030CB 28/20 Q1013 NOSIG
2026-04-13 18:30:00,METAR VOHS 131830Z 11005KT 5000 HZ SCT020 SCT025 FEW030CB 28/21 Q1013 NOSIG
2026-04-13 18:00:00,METAR VOHS 131800Z 17009KT 5000 -TSRA SCT020 SCT025 FEW030CB 27/21 Q1014 TEMPO 3000 TSRA
2026-04-13 17:30:00,METAR VOHS 131730Z 12008KT 6000 SCT020 FEW030CB 30/19 Q1014 BECMG 5000 HZ
2026-04-13 17:00:00,METAR VOHS 131700Z 11006KT 6000 SCT020 30/19 Q1013 NOSIG
2026-04-13 16:30:00,METAR VOHS 131630Z 12007KT 6000 SCT020 31/19 Q1013 NOSIG
2026-04-13 16:00:00,METAR VOHS 131600Z 12007KT 6000 SCT020 31/18 Q1013 NOSIG
2026-04-13 15:30:00,METAR VOHS 131530Z 12007KT 6000 SCT020 32/17 Q1013 NOSIG
2026-04-13 15:00:00,METAR VOHS 131500Z 11006KT 6000 FEW015 32/18 Q1012 NOSIG
2026-04-13 14:30:00,METAR VOHS 131430Z 16005KT 6000 FEW015 32/18 Q1012 NOSIG
2026-04-13 14:00:00,METAR VOHS 131400Z 17004KT 6000 FEW015 32/18 Q1012 NOSIG
2026-04-13 13:30:00,METAR VOHS 131330Z 17004KT 6000 FEW015 33/18 Q1011 NOSIG
2026-04-13 13:00:00,METAR VOHS 131300Z 19004KT 6000 FEW015 34/17 Q1011 NOSIG
2026-04-13 12:30:00,METAR VOHS 131230Z 19004KT 6000 FEW015 35/17 Q1011 NOSIG
2026-04-13 12:00:00,METAR VOHS 131200Z 21006KT 6000 FEW015 36/16 Q1011 NOSIG
2026-04-13 11:30:00,METAR VOHS 131130Z 20006KT 6000 FEW015 SCT025 36/16 Q1011 NOSIG
2026-04-13 11:00:00,METAR VOHS 131100Z 21007KT 6000 FEW015 SCT025 37/16 Q1011 NOSIG
2026-04-13 10:30:00,METAR VOHS 131030Z 20006KT 6000 FEW015 37/17 Q1011 NOSIG
2026-04-13 10:00:00,METAR VOHS 131000Z 22007KT 6000 FEW015 37/17 Q1011 NOSIG
2026-04-13 09:30:00,METAR VOHS 130930Z 21006KT 6000 FEW015 38/17 Q1011 NOSIG
2026-04-13 09:00:00,METAR VOHS 130900Z 21008KT 6000 NSC 38/16 Q1012 NOSIG
2026-04-13 08:30:00,METAR VOHS 130830Z 21008KT 6000 NSC 37/16 Q1012 NOSIG
2026-04-13 08:00:00,METAR VOHS 130800Z 23007KT 6000 NSC 37/17 Q1013 NOSIG
2026-04-13 07:30:00,METAR VOHS 130730Z 24008KT 6000 NSC 36/16 Q1013 NOSIG
2026-04-13 07:00:00,METAR VOHS 130700Z 23007KT 6000 NSC 36/16 Q1014 NOSIG
2026-04-13 06:30:00,METAR VOHS 130630Z 22008KT 6000 NSC 36/16 Q1014 NOSIG
2026-04-13 06:00:00,METAR VOHS 130600Z 21008KT 6000 NSC 36/17 Q1014 NOSIG
2026-04-13 05:30:00,METAR VOHS 130530Z 24008KT 6000 NSC 35/18 Q1015 NOSIG
2026-04-13 05:00:00,METAR VOHS 130500Z 21010KT 6000 NSC 34/18 Q1015 NOSIG
2026-04-13 04:30:00,METAR VOHS 130430Z 22009KT 6000 NSC 34/18 Q1015 NOSIG
2026-04-13 04:00:00,METAR VOHS 130400Z 23010KT 6000 NSC 33/19 Q1015 NOSIG
2026-04-13 03:30:00,METAR VOHS 130330Z 22010KT 6000 NSC 31/19 Q1015 NOSIG
2026-04-13 03:00:00,METAR VOHS 130300Z 22010KT 5000 HZ NSC 30/20 Q1014 NOSIG
2026-04-13 02:30:00,METAR VOHS 130230Z 22008KT 5000 HZ FEW015 28/21 Q1014 NOSIG
2026-04-13 02:00:00,METAR VOHS 130200Z 21008KT 5000 HZ FEW015 27/21 Q1014 NOSIG
2026-04-13 01:30:00,METAR VOHS 130130Z 20004KT 5000 HZ FEW015 25/21 Q1013 NOSIG
2026-04-13 01:00:00,METAR VOHS 130100Z VRB03KT 5000 HZ FEW015 24/21 Q1013 NOSIG
2026-04-13 00:30:00,METAR VOHS 130030Z VRB03KT 5000 HZ NSC 24/21 Q1012 NOSIG
2026-04-13 00:00:00,METAR VOHS 130000Z VRB03KT 5000 HZ NSC 24/20 Q1012 NOSIG
2026-04-12 23:30:00,METAR VOHS 122330Z VRB03KT 6000 NSC 25/21 Q1012 TEMPO 5000 HZ
2026-04-12 23:00:00,METAR VOHS 122300Z VRB03KT 6000 NSC 24/21 Q1011 NOSIG
2026-04-12 22:30:00,METAR VOHS 122230Z VRB03KT 6000 NSC 24/20 Q1011 NOSIG
2026-04-12 22:00:00,METAR VOHS 122200Z VRB03KT 6000 NSC 25/20 Q1011 NOSIG
2026-04-12 21:30:00,METAR VOHS 122130Z VRB03KT 6000 NSC 26/21 Q1011 NOSIG
2026-04-12 21:00:00,METAR VOHS 122100Z 12006KT 6000 FEW020 26/21 Q1011 NOSIG
2026-04-12 20:30:00,METAR VOHS 122030Z 12006KT 6000 FEW020 26/21 Q1011 NOSIG
2026-04-12 20:00:00,METAR VOHS 122000Z 13005KT 6000 FEW020 27/20 Q1012 NOSIG
2026-04-12 19:30:00,METAR VOHS 121930Z VRB03KT 6000 FEW020 27/20 Q1012 NOSIG
2026-04-12 19:00:00,METAR VOHS 121900Z VRB03KT 6000 FEW020 27/21 Q1012 NOSIG
2026-04-12 18:30:00,METAR VOHS 121830Z 13007KT 6000 FEW020 29/20 Q1013 NOSIG
2026-04-12 18:00:00,METAR VOHS 121800Z 13007KT 6000 FEW020 28/20 Q1013 NOSIG
2026-04-12 17:30:00,METAR VOHS 121730Z 13007KT 6000 FEW020 29/20 Q1013 NOSIG
2026-04-12 17:00:00,METAR VOHS 121700Z 13008KT 6000 NSC 29/19 Q1013 NOSIG
2026-04-12 16:30:00,METAR VOHS 121630Z 12007KT 6000 NSC 29/18 Q1013 NOSIG
2026-04-12 16:00:00,METAR VOHS 121600Z 11007KT 6000 NSC 30/18 Q1012 NOSIG
2026-04-12 15:00:00,METAR VOHS 121500Z 12005KT 6000 NSC 31/16 Q1012 NOSIG
2026-04-12 14:30:00,METAR VOHS 121430Z 11006KT 6000 NSC 31/16 Q1012 NOSIG
2026-04-12 14:00:00,METAR VOHS 121400Z 11006KT 6000 NSC 32/16 Q1011 NOSIG
2026-04-12 13:30:00,METAR VOHS 121330Z 12006KT 6000 FEW020 33/16 Q1011 NOSIG
2026-04-12 13:00:00,METAR VOHS 121300Z 11006KT 6000 FEW020 33/16 Q1011 NOSIG
2026-04-12 12:30:00,METAR VOHS 121230Z 11007KT 6000 FEW020 34/16 Q1010 NOSIG
2026-04-12 12:00:00,METAR VOHS 121200Z 11008KT 6000 FEW020 SCT025 35/15 Q1010 NOSIG
2026-04-12 11:30:00,METAR VOHS 121130Z 11007KT 6000 FEW020 SCT025 36/14 Q1009 NOSIG
2026-04-12 11:00:00,METAR VOHS 121100Z 06008KT 6000 FEW020 SCT025 37/14 Q1009 NOSIG
2026-04-12 10:30:00,METAR VOHS 121030Z 14005KT 6000 FEW020 SCT025 36/13 Q1009 NOSIG
2026-04-12 10:00:00,METAR VOHS 121000Z VRB02KT 6000 FEW020 SCT025 37/14 Q1009 NOSIG
2026-04-12 09:30:00,METAR VOHS 120930Z 36005KT 6000 FEW020 SCT025 36/14 Q1010 NOSIG
2026-04-12 09:00:00,METAR VOHS 120900Z VRB03KT 6000 FEW020 SCT025 36/15 Q1010 NOSIG
2026-04-12 08:30:00,METAR VOHS 120830Z 20007KT 6000 FEW020 SCT025 37/15 Q1010 NOSIG
2026-04-12 08:00:00,METAR VOHS 120800Z 18006KT 6000 FEW020 SCT025 36/16 Q1011 NOSIG
2026-04-12 07:30:00,METAR VOHS 120730Z 19005KT 6000 FEW020 SCT025 36/16 Q1012 NOSIG
2026-04-12 07:00:00,METAR VOHS 120700Z 19005KT 6000 FEW020 35/16 Q1012 NOSIG
2026-04-12 06:30:00,METAR VOHS 120630Z 34005KT 6000 FEW020 35/17 Q1013 NOSIG
2026-04-12 06:00:00,METAR VOHS 120600Z 18006KT 6000 NSC 35/17 Q1013 NOSIG
2026-04-12 05:30:00,METAR VOHS 120530Z 18005KT 6000 NSC 34/18 Q1014 NOSIG
2026-04-12 05:00:00,METAR VOHS 120500Z 19006KT 6000 NSC 33/19 Q1014 NOSIG
2026-04-12 04:30:00,METAR VOHS 120430Z 19007KT 6000 NSC 33/19 Q1014 NOSIG
2026-04-12 04:00:00,METAR VOHS 120400Z 19006KT 6000 NSC 32/19 Q1014 NOSIG
2026-04-12 03:30:00,METAR VOHS 120330Z 19006KT 6000 NSC 31/20 Q1014 NOSIG
2026-04-12 03:00:00,METAR VOHS 120300Z 18006KT 5000 HZ NSC 30/20 Q1014 NOSIG
2026-04-12 02:30:00,METAR VOHS 120230Z 22005KT 5000 HZ NSC 29/21 Q1014 NOSIG
2026-04-12 02:00:00,METAR VOHS 120200Z 17004KT 5000 HZ NSC 28/21 Q1013 NOSIG
2026-04-12 01:30:00,METAR VOHS 120130Z 17004KT 5000 HZ NSC 26/20 Q1013 NOSIG
2026-04-12 01:00:00,METAR VOHS 120100Z 15004KT 5000 HZ FEW020 26/20 Q1012 NOSIG
2026-04-12 00:30:00,METAR VOHS 120030Z 14004KT 5000 HZ FEW020 25/20 Q1012 NOSIG
2026-04-12 00:00:00,METAR VOHS 120000Z 15004KT 5000 HZ FEW020 25/20 Q1012 NOSIG
2026-04-11 23:30:00,METAR VOHS 112330Z 15004KT 6000 FEW020 25/20 Q1011 TEMPO 5000 HZ
2026-04-11 23:00:00,METAR VOHS 112300Z 16004KT 6000 FEW020 25/20 Q1011 NOSIG
2026-04-11 22:30:00,METAR VOHS 112230Z VRB03KT 6000 FEW020 25/20 Q1011 NOSIG
2026-04-11 22:00:00,METAR VOHS 112200Z VRB03KT 6000 FEW020 25/19 Q1011 NOSIG
2026-04-11 21:30:00,METAR VOHS 112130Z VRB03KT 6000 FEW020 25/19 Q1011 NOSIG
2026-04-11 21:00:00,METAR VOHS 112100Z 16003KT 6000 SCT020 26/19 Q1012 NOSIG
2026-04-11 20:30:00,METAR VOHS 112030Z 12004KT 6000 SCT020 27/19 Q1012 NOSIG
2026-04-11 20:00:00,METAR VOHS 112000Z 12004KT 6000 SCT020 28/19 Q1012 NOSIG
2026-04-11 19:30:00,METAR VOHS 111930Z 09005KT 6000 SCT020 27/19 Q1013 NOSIG
2026-04-11 19:00:00,METAR VOHS 111900Z 12005KT 6000 SCT020 28/19 Q1013 NOSIG
2026-04-11 18:30:00,METAR VOHS 111830Z 12005KT 6000 SCT020 28/19 Q1013 NOSIG
2026-04-11 18:00:00,METAR VOHS 111800Z 11006KT 6000 SCT020 28/19 Q1014 NOSIG
2026-04-11 17:30:00,METAR VOHS 111730Z 10006KT 6000 SCT020 29/19 Q1014 NOSIG
2026-04-11 17:00:00,METAR VOHS 111700Z 10006KT 6000 SCT020 29/19 Q1014 NOSIG
2026-04-11 16:30:00,METAR VOHS 111630Z 10006KT 6000 SCT020 29/19 Q1014 NOSIG
2026-04-11 16:00:00,METAR VOHS 111600Z 10006KT 6000 SCT020 30/19 Q1014 NOSIG
2026-04-11 15:30:00,METAR VOHS 111530Z 10008KT 6000 SCT020 30/18 Q1014 NOSIG
2026-04-11 15:00:00,METAR VOHS 111500Z 10008KT 6000 SCT020 31/17 Q1014 NOSIG
2026-04-11 14:30:00,METAR VOHS 111430Z 10010KT 6000 SCT020 SCT025 31/18 Q1013 NOSIG
2026-04-11 14:00:00,METAR VOHS 111400Z 10007KT 6000 SCT020 SCT025 32/17 Q1013 NOSIG
2026-04-11 13:30:00,METAR VOHS 111330Z 07010KT 6000 SCT020 SCT025 33/17 Q1012 NOSIG
2026-04-11 13:00:00,METAR VOHS 111300Z 09008KT 6000 SCT020 SCT025 33/17 Q1012 NOSIG
2026-04-11 12:30:00,METAR VOHS 111230Z 10009KT 6000 SCT020 SCT025 34/17 Q1012 NOSIG
2026-04-11 12:00:00,METAR VOHS 111200Z 10005KT 6000 FEW020 SCT025 35/16 Q1011 NOSIG
2026-04-11 11:30:00,METAR VOHS 111130Z VRB02KT 6000 FEW020 SCT025 36/16 Q1011 NOSIG
2026-04-11 11:00:00,METAR VOHS 111100Z VRB04KT 6000 FEW020 SCT025 36/15 Q1011 NOSIG
2026-04-11 10:30:00,METAR VOHS 111030Z 33006KT 6000 FEW020 SCT025 36/15 Q1011 NOSIG
2026-04-11 10:00:00,METAR VOHS 111000Z VRB04KT 6000 FEW020 SCT025 36/16 Q1011 NOSIG
2026-04-11 09:30:00,METAR VOHS 110930Z 34008KT 6000 FEW020 SCT025 36/15 Q1012 NOSIG
2026-04-11 09:00:00,METAR VOHS 110900Z 32009KT 6000 FEW020 SCT025 36/15 Q1012 NOSIG
2026-04-11 08:30:00,METAR VOHS 110830Z 35007KT 6000 FEW020 SCT025 36/15 Q1013 NOSIG
2026-04-11 08:00:00,METAR VOHS 110800Z VRB01KT 6000 FEW020 SCT025 35/16 Q1013 NOSIG
2026-04-11 07:30:00,METAR VOHS 110730Z 04007KT 6000 FEW020 SCT025 36/16 Q1014 NOSIG
2026-04-11 07:00:00,METAR VOHS 110700Z 03005KT 6000 FEW020 SCT025 35/16 Q1015 NOSIG
2026-04-11 06:30:00,METAR VOHS 110630Z VRB04KT 6000 FEW020 SCT025 35/16 Q1016 NOSIG
2026-04-11 06:00:00,METAR VOHS 110600Z VRB04KT 6000 FEW020 SCT025 34/17 Q1016 NOSIG
2026-04-11 05:31:00,METAR VOHS 110531Z VRB03KT 6000 FEW020 SCT100 34/17 Q1016 NOSIG
2026-04-11 05:30:00,METAR VOHS 110530Z VRB03KT 6000 FEW020 SCT100 34/17 Q1016 NOSIG
2026-04-11 05:00:00,METAR VOHS 110500Z 02005KT 6000 NSC 33/18 Q1016 NOSIG
2026-04-11 04:30:00,METAR VOHS 110430Z VRB02KT 6000 NSC 32/18 Q1017 NOSIG
2026-04-11 04:00:00,METAR VOHS 110400Z VRB03KT 6000 NSC 32/20 Q1017 NOSIG
2026-04-11 03:32:00,METAR VOHS 110332Z VRB04KT 6000 NSC 31/20 Q1017 NOSIG
2026-04-11 03:00:00,METAR VOHS 110300Z VRB04KT 6000 NSC 30/21 Q1017 NOSIG
2026-04-11 02:30:00,METAR VOHS 110230Z VRB03KT 6000 NSC 29/21 Q1016 NOSIG
2026-04-11 02:00:00,METAR VOHS 110200Z VRB04KT 5000 HZ FEW020 27/21 Q1016 NOSIG
2026-04-11 01:30:00,METAR VOHS 110130Z VRB04KT 5000 HZ FEW020 26/20 Q1015 NOSIG
2026-04-11 01:00:00,METAR VOHS 110100Z VRB03KT 5000 BR FEW020 25/20 Q1015 NOSIG
2026-04-11 00:30:00,METAR VOHS 110030Z VRB03KT 5000 BR FEW020 24/20 Q1014 NOSIG
2026-04-11 00:00:00,METAR VOHS 110000Z VRB03KT 6000 FEW020 24/21 Q1014 NOSIG
2026-04-10 23:30:00,METAR VOHS 102330Z VRB03KT 6000 FEW020 24/20 Q1014 NOSIG
2026-04-10 23:00:00,METAR VOHS 102300Z VRB04KT 6000 FEW020 25/20 Q1013 NOSIG
2026-04-10 22:30:00,METAR VOHS 102230Z VRB04KT 6000 FEW020 25/20 Q1013 NOSIG
2026-04-10 22:00:00,METAR VOHS 102200Z VRB04KT 6000 FEW020 25/20 Q1014 NOSIG
2026-04-10 21:30:00,METAR VOHS 102130Z VRB04KT 6000 FEW020 25/20 Q1014 NOSIG
2026-04-10 21:00:00,METAR VOHS 102100Z VRB04KT 6000 FEW020 26/20 Q1014 NOSIG
2026-04-10 20:30:00,METAR VOHS 102030Z VRB04KT 6000 FEW020 26/19 Q1014 NOSIG
2026-04-10 20:00:00,METAR VOHS 102000Z 14004KT 6000 FEW020 27/19 Q1014 NOSIG
2026-04-10 19:30:00,METAR VOHS 101930Z 12005KT 6000 FEW020 27/18 Q1014 NOSIG
2026-04-10 19:00:00,METAR VOHS 101900Z 12005KT 6000 FEW020 27/19 Q1015 NOSIG
2026-04-10 18:30:00,METAR VOHS 101830Z 12005KT 6000 FEW020 28/19 Q1015 NOSIG
2026-04-10 18:00:00,METAR VOHS 101800Z 11005KT 6000 FEW020 28/18 Q1015 NOSIG
2026-04-10 17:30:00,METAR VOHS 101730Z 11005KT 6000 FEW020 28/17 Q1015 NOSIG
2026-04-10 17:00:00,METAR VOHS 101700Z 10006KT 6000 FEW020 29/17 Q1016 NOSIG
2026-04-10 16:30:00,METAR VOHS 101630Z 10005KT 6000 FEW020 29/17 Q1016 NOSIG
2026-04-10 16:00:00,METAR VOHS 101600Z 11005KT 6000 FEW020 29/17 Q1015 NOSIG
2026-04-10 15:30:00,METAR VOHS 101530Z 11006KT 6000 FEW020 30/16 Q1015 NOSIG
2026-04-10 15:00:00,METAR VOHS 101500Z 36004KT 6000 FEW020 30/16 Q1015 NOSIG
2026-04-10 14:30:00,METAR VOHS 101430Z VRB04KT 6000 FEW020 31/15 Q1014 NOSIG
2026-04-10 14:00:00,METAR VOHS 101400Z VRB04KT 6000 FEW020 31/15 Q1014 NOSIG
2026-04-10 13:30:00,METAR VOHS 101330Z 09005KT 6000 FEW020 32/15 Q1014 NOSIG
2026-04-10 13:00:00,METAR VOHS 101300Z 08009KT 6000 FEW020 33/15 Q1013 NOSIG
2026-04-10 12:30:00,METAR VOHS 101230Z 06007KT 6000 FEW020 34/14 Q1013 NOSIG
2026-04-10 12:00:00,METAR VOHS 101200Z 02007KT 6000 FEW020 34/13 Q1012 NOSIG
2026-04-10 11:30:00,METAR VOHS 101130Z 02007KT 6000 FEW020 35/13 Q1012 NOSIG
2026-04-10 11:00:00,METAR VOHS 101100Z 01006KT 6000 FEW020 35/13 Q1012 NOSIG
2026-04-10 10:30:00,METAR VOHS 101030Z VRB06KT 6000 FEW020 36/11 Q1012 NOSIG
2026-04-10 10:00:00,METAR VOHS 101000Z 35006KT 6000 FEW020 36/11 Q1012 NOSIG
2026-04-10 09:30:00,METAR VOHS 100930Z 36008KT 6000 FEW020 36/11 Q1012 NOSIG
2026-04-10 09:00:00,METAR VOHS 100900Z VRB06KT 6000 FEW020 36/11 Q1013 NOSIG
2026-04-10 08:30:00,METAR VOHS 100830Z 33005KT 6000 FEW020 36/12 Q1014 NOSIG
2026-04-10 08:00:00,METAR VOHS 100800Z VRB06KT 6000 FEW020 35/12 Q1014 NOSIG
2026-04-10 07:30:00,METAR VOHS 100730Z 08006KT 6000 FEW020 35/12 Q1015 NOSIG
2026-04-10 07:00:00,METAR VOHS 100700Z 07006KT 6000 FEW020 35/11 Q1015 NOSIG
2026-04-10 06:30:00,METAR VOHS 100630Z 01004KT 6000 FEW020 34/12 Q1016 NOSIG
2026-04-10 06:00:00,METAR VOHS 100600Z 06006KT 6000 FEW020 34/12 Q1016 NOSIG
2026-04-10 05:30:00,METAR VOHS 100530Z 01005KT 6000 FEW020 34/12 Q1016 NOSIG
2026-04-10 05:00:00,METAR VOHS 100500Z 33005KT 6000 FEW020 33/13 Q1017 NOSIG
2026-04-10 04:30:00,METAR VOHS 100430Z 32005KT 6000 FEW020 32/14 Q1017 NOSIG
2026-04-10 04:00:00,METAR VOHS 100400Z 32005KT 6000 FEW020 32/14 Q1017 NOSIG
2026-04-10 03:30:00,METAR VOHS 100330Z 31006KT 5000 HZ FEW020 30/15 Q1017 BECMG 6000
2026-04-10 03:00:00,METAR VOHS 100300Z 31006KT 5000 HZ NSC 29/16 Q1017 NOSIG
2026-04-10 02:30:00,METAR VOHS 100230Z 31006KT 5000 HZ NSC 27/16 Q1017 NOSIG
2026-04-10 02:00:00,METAR VOHS 100200Z 32006KT 5000 HZ NSC 27/17 Q1016 NOSIG
2026-04-10 01:30:00,METAR VOHS 100130Z 30004KT 5000 HZ NSC 25/18 Q1015 NOSIG
2026-04-10 01:00:00,METAR VOHS 100100Z 31003KT 6000 NSC 22/18 Q1015 BECMG 5000 HZ
2026-04-10 00:30:00,METAR VOHS 100030Z 32004KT 6000 NSC 23/17 Q1014 NOSIG
2026-04-10 00:00:00,METAR VOHS 100000Z 29005KT 6000 NSC 23/18 Q1014 NOSIG
2026-04-09 23:30:00,METAR VOHS 092330Z 28006KT 6000 NSC 24/18 Q1014 NOSIG
2026-04-09 23:00:00,METAR VOHS 092300Z 19003KT 6000 NSC 23/18 Q1013 NOSIG
2026-04-09 22:30:00,METAR VOHS 092230Z VRB02KT 6000 NSC 23/18 Q1013 NOSIG
2026-04-09 22:00:00,METAR VOHS 092200Z 14004KT 6000 NSC 24/19 Q1013 NOSIG
2026-04-09 21:30:00,METAR VOHS 092130Z 13004KT 6000 NSC 25/18 Q1013 NOSIG
2026-04-09 21:00:00,METAR VOHS 092100Z 09003KT 6000 NSC 25/17 Q1013 NOSIG
2026-04-09 20:30:00,METAR VOHS 092030Z 09003KT 6000 NSC 25/16 Q1014 NOSIG
2026-04-09 20:00:00,METAR VOHS 092000Z 10004KT 6000 NSC 25/16 Q1014 NOSIG
2026-04-09 19:30:00,METAR VOHS 091930Z 09005KT 6000 NSC 26/15 Q1014 NOSIG
2026-04-09 19:00:00,METAR VOHS 091900Z 11005KT 6000 NSC 27/16 Q1014 NOSIG
2026-04-09 18:30:00,METAR VOHS 091830Z 10005KT 6000 NSC 27/15 Q1015 NOSIG
2026-04-09 18:00:00,METAR VOHS 091800Z 12007KT 6000 NSC 27/15 Q1015 NOSIG
2026-04-09 17:30:00,METAR VOHS 091730Z 10007KT 6000 NSC 28/14 Q1015 NOSIG
2026-04-09 17:00:00,METAR VOHS 091700Z 10005KT 6000 FEW080 29/14 Q1015 NOSIG
2026-04-09 16:30:00,METAR VOHS 091630Z 08005KT 6000 FEW080 29/14 Q1015 NOSIG
2026-04-09 16:00:00,METAR VOHS 091600Z 10005KT 6000 FEW080 30/14 Q1015 NOSIG
2026-04-09 15:30:00,METAR VOHS 091530Z 02005KT 6000 FEW080 31/13 Q1014 NOSIG
2026-04-09 15:00:00,METAR VOHS 091500Z 35006KT 6000 FEW080 31/13 Q1014 NOSIG
2026-04-09 14:30:00,METAR VOHS 091430Z 34004KT 6000 NSC 32/14 Q1014 NOSIG
2026-04-09 14:00:00,METAR VOHS 091400Z 34004KT 6000 NSC 32/13 Q1014 NOSIG
2026-04-09 13:30:00,METAR VOHS 091330Z 34005KT 6000 NSC 33/13 Q1013 NOSIG
2026-04-09 13:00:00,METAR VOHS 091300Z 32005KT 6000 FEW020 33/12 Q1013 NOSIG
2026-04-09 12:30:00,METAR VOHS 091230Z 31004KT 6000 FEW020 34/13 Q1012 NOSIG
2026-04-09 12:00:00,METAR VOHS 091200Z 31004KT 6000 FEW020 34/13 Q1012 NOSIG
2026-04-09 11:30:00,METAR VOHS 091130Z 31008KT 6000 FEW020 34/13 Q1012 NOSIG
2026-04-09 11:00:00,METAR VOHS 091100Z 31006KT 6000 FEW020 34/13 Q1012 NOSIG
2026-04-09 10:30:00,METAR VOHS 091030Z 30008KT 6000 FEW020 35/12 Q1012 NOSIG
2026-04-09 10:00:00,METAR VOHS 091000Z 28008KT 6000 FEW020 35/13 Q1012 NOSIG
2026-04-09 09:30:00,METAR VOHS 090930Z 30006KT 6000 FEW020 35/12 Q1012 NOSIG
2026-04-09 09:00:00,METAR VOHS 090900Z 31008KT 6000 FEW020 36/12 Q1012 NOSIG
2026-04-09 08:30:00,METAR VOHS 090830Z 28008KT 6000 FEW020 35/12 Q1013 NOSIG
2026-04-09 08:00:00,METAR VOHS 090800Z 28008KT 6000 FEW020 35/12 Q1013 NOSIG
2026-04-09 07:30:00,METAR VOHS 090730Z VRB04KT 6000 NSC 34/12 Q1014 NOSIG
2026-04-09 07:00:00,METAR VOHS 090700Z 05008KT 6000 NSC 34/12 Q1014 NOSIG
2026-04-09 06:30:00,METAR VOHS 090630Z 34008KT 6000 NSC 34/12 Q1015 NOSIG
2026-04-09 06:00:00,METAR VOHS 090600Z 01010KT 6000 NSC 34/12 Q1015 NOSIG
2026-04-09 05:30:00,METAR VOHS 090530Z 02010KT 6000 NSC 33/12 Q1015 NOSIG
2026-04-09 05:00:00,METAR VOHS 090500Z 35010KT 6000 NSC 32/12 Q1016 NOSIG
2026-04-09 04:30:00,METAR VOHS 090430Z 03010KT 6000 NSC 32/13 Q1016 NOSIG
2026-04-09 04:00:00,METAR VOHS 090400Z 35008KT 6000 NSC 31/12 Q1016 NOSIG
2026-04-09 03:30:00,METAR VOHS 090330Z 35008KT 6000 NSC 31/14 Q1016 NOSIG
2026-04-09 03:00:00,METAR VOHS 090300Z 30006KT 6000 FEW020 28/16 Q1016 NOSIG
2026-04-09 02:30:00,METAR VOHS 090230Z 26006KT 6000 FEW020 28/16 Q1015 NOSIG
2026-04-09 02:00:00,METAR VOHS 090200Z 26005KT 6000 FEW020 26/17 Q1015 NOSIG
2026-04-09 01:30:00,METAR VOHS 090130Z 27005KT 6000 FEW020 25/18 Q1014 NOSIG
2026-04-09 01:00:00,METAR VOHS 090100Z 30006KT 6000 FEW020 25/18 Q1014 NOSIG
2026-04-09 00:30:00,METAR VOHS 090030Z 30005KT 6000 FEW020 25/18 Q1013 NOSIG
2026-04-09 00:00:00,METAR VOHS 090000Z 30005KT 6000 SCT020 23/17 Q1013 NOSIG
2026-04-08 23:30:00,METAR VOHS 082330Z 30005KT 6000 SCT020 23/17 Q1013 NOSIG
2026-04-08 23:00:00,METAR VOHS 082300Z 30007KT 6000 SCT020 24/19 Q1012 NOSIG
2026-04-08 22:30:00,METAR VOHS 082230Z 30007KT 6000 SCT020 24/18 Q1012 NOSIG
2026-04-08 22:00:00,METAR VOHS 082200Z 14006KT 6000 SCT020 25/18 Q1011 NOSIG
2026-04-08 21:30:00,METAR VOHS 082130Z 14005KT 6000 SCT020 SCT100 25/17 Q1011 NOSIG
2026-04-08 21:00:00,METAR VOHS 082100Z 14005KT 6000 SCT020 SCT100 26/16 Q1011 NOSIG
2026-04-08 20:30:00,METAR VOHS 082030Z 14005KT 6000 SCT020 SCT100 26/16 Q1012 NOSIG
2026-04-08 20:00:00,METAR VOHS 082000Z 14005KT 6000 SCT020 SCT100 26/16 Q1012 NOSIG
2026-04-08 19:30:00,METAR VOHS 081930Z 14004KT 6000 SCT020 SCT100 26/15 Q1012 NOSIG
2026-04-08 19:00:00,METAR VOHS 081900Z 14004KT 6000 SCT020 SCT100 26/16 Q1013 NOSIG
2026-04-08 18:30:00,METAR VOHS 081830Z 16004KT 6000 SCT020 SCT100 26/16 Q1013 NOSIG
2026-04-08 18:00:00,METAR VOHS 081800Z 16004KT 6000 SCT020 SCT100 27/15 Q1013 NOSIG
2026-04-08 17:30:00,METAR VOHS 081730Z VRB04KT 6000 SCT020 SCT100 27/15 Q1013 NOSIG
2026-04-08 17:00:00,METAR VOHS 081700Z VRB03KT 6000 SCT020 SCT100 28/15 Q1013 NOSIG
2026-04-08 16:30:00,METAR VOHS 081630Z 13004KT 6000 SCT020 SCT100 28/13 Q1013 NOSIG
2026-04-08 16:00:00,METAR VOHS 081600Z 12005KT 6000 SCT020 SCT100 28/12 Q1013 NOSIG
2026-04-08 15:30:00,METAR VOHS 081530Z 13005KT 6000 SCT020 SCT100 28/12 Q1013 NOSIG
2026-04-08 15:00:00,METAR VOHS 081500Z 11004KT 6000 SCT020 SCT100 28/12 Q1013 NOSIG
2026-04-08 14:30:00,METAR VOHS 081430Z VRB03KT 6000 SCT020 SCT100 31/09 Q1012 NOSIG
2026-04-08 14:00:00,METAR VOHS 081400Z VRB04KT 6000 SCT020 SCT100 31/11 Q1012 NOSIG
2026-04-08 13:30:00,METAR VOHS 081330Z VRB04KT 6000 SCT015 SCT100 31/10 Q1012 NOSIG
2026-04-08 13:00:00,METAR VOHS 081300Z VRB04KT 6000 SCT015 SCT100 32/11 Q1011 NOSIG
2026-04-08 12:30:00,METAR VOHS 081230Z VRB04KT 6000 SCT015 SCT100 34/10 Q1011 NOSIG
2026-04-08 12:00:00,METAR VOHS 081200Z 03006KT 6000 SCT015 SCT100 34/09 Q1010 NOSIG
2026-04-08 11:30:00,METAR VOHS 081130Z 30005KT 6000 SCT015 SCT100 35/10 Q1010 NOSIG
2026-04-08 11:00:00,METAR VOHS 081100Z 30005KT 6000 SCT015 SCT100 35/09 Q1010 NOSIG
2026-04-08 10:30:00,METAR VOHS 081030Z 30009KT 6000 NSC 35/09 Q1010 NOSIG
2026-04-08 10:00:00,METAR VOHS 081000Z 35008KT 6000 NSC 35/09 Q1011 NOSIG
2026-04-08 09:30:00,METAR VOHS 080930Z 29009KT 6000 NSC 35/09 Q1011 NOSIG
2026-04-08 09:00:00,METAR VOHS 080900Z 29008KT 6000 NSC 35/09 Q1011 NOSIG
2026-04-08 08:30:00,METAR VOHS 080830Z 32009KT 6000 NSC 34/09 Q1012 NOSIG
2026-04-08 08:00:00,METAR VOHS 080800Z 35005KT 6000 NSC 35/09 Q1013 NOSIG
2026-04-08 07:30:00,METAR VOHS 080730Z 35008KT 6000 NSC 35/10 Q1013 NOSIG
2026-04-08 07:00:00,METAR VOHS 080700Z 33008KT 6000 NSC 34/11 Q1013 NOSIG
2026-04-08 06:30:00,METAR VOHS 080630Z 33008KT 6000 NSC 33/10 Q1014 NOSIG
2026-04-08 06:00:00,METAR VOHS 080600Z 33008KT 6000 NSC 33/11 Q1014 NOSIG
2026-04-08 05:30:00,METAR VOHS 080530Z 09007KT 6000 NSC 32/11 Q1015 NOSIG
2026-04-08 05:00:00,METAR VOHS 080500Z 33010KT 6000 NSC 32/12 Q1015 NOSIG
2026-04-08 04:30:00,METAR VOHS 080430Z 33008KT 6000 NSC 30/12 Q1015 NOSIG
2026-04-08 04:00:00,METAR VOHS 080400Z 33010KT 6000 NSC 30/12 Q1015 NOSIG
2026-04-08 03:32:00,METAR VOHS 080332Z 33010KT 6000 NSC 29/12 Q1015 NOSIG
2026-04-08 03:00:00,METAR VOHS 080300Z 32011KT 5000 HZ NSC 29/11 Q1015 NOSIG
2026-04-08 02:30:00,METAR VOHS 080230Z 34010KT 5000 HZ NSC 28/12 Q1015 NOSIG
2026-04-08 02:00:00,METAR VOHS 080200Z 32007KT 5000 HZ NSC 26/14 Q1014 NOSIG
2026-04-08 01:30:00,METAR VOHS 080130Z 31007KT 5000 HZ NSC 25/15 Q1014 NOSIG
2026-04-08 01:00:00,METAR VOHS 080100Z 30006KT 5000 HZ NSC 24/14 Q1013 NOSIG
2026-04-08 00:30:00,METAR VOHS 080030Z 30007KT 5000 HZ NSC 23/14 Q1013 NOSIG
2026-04-08 00:00:00,METAR VOHS 080000Z 29006KT 6000 NSC 23/14 Q1012 TEMPO 5000 HZ
2026-04-07 23:30:00,METAR VOHS 072330Z 29006KT 6000 NSC 23/14 Q1012 NOSIG
2026-04-07 23:00:00,METAR VOHS 072300Z VRB03KT 6000 NSC 25/13 Q1012 NOSIG
2026-04-07 22:30:00,METAR VOHS 072230Z VRB02KT 6000 NSC 25/13 Q1012 NOSIG
2026-04-07 22:00:00,METAR VOHS 072200Z VRB02KT 6000 NSC 25/12 Q1011 NOSIG
2026-04-07 21:30:00,METAR VOHS 072130Z VRB02KT 6000 NSC 26/12 Q1012 NOSIG
2026-04-07 21:00:00,METAR VOHS 072100Z VRB02KT 6000 NSC 26/13 Q1012 NOSIG
2026-04-07 20:30:00,METAR VOHS 072030Z VRB02KT 6000 NSC 26/13 Q1012 NOSIG
2026-04-07 20:00:00,METAR VOHS 072000Z VRB02KT 6000 NSC 25/13 Q1012 NOSIG
2026-04-07 19:30:00,METAR VOHS 071930Z VRB02KT 6000 NSC 26/13 Q1013 NOSIG
2026-04-07 19:00:00,METAR VOHS 071900Z VRB02KT 6000 NSC 27/14 Q1013 NOSIG
2026-04-07 18:30:00,METAR VOHS 071830Z VRB02KT 6000 NSC 27/13 Q1013 NOSIG
2026-04-07 18:00:00,METAR VOHS 071800Z VRB03KT 6000 NSC 26/15 Q1013 NOSIG
2026-04-07 17:58:00,METAR VOHS 071758Z VRB03KT 6000 NSC 26/15 Q1013 NOSIG
2026-04-07 17:30:00,METAR VOHS 071730Z VRB03KT 6000 NSC 27/14 Q1013 NOSIG
2026-04-07 17:00:00,METAR VOHS 071700Z VRB04KT 6000 NSC 29/13 Q1013 NOSIG
2026-04-07 16:30:00,METAR VOHS 071630Z 36005KT 6000 NSC 30/12 Q1013 NOSIG
2026-04-07 16:00:00,METAR VOHS 071600Z 36005KT 6000 NSC 30/13 Q1013 NOSIG
2026-04-07 15:30:00,METAR VOHS 071530Z 35006KT 6000 NSC 30/13 Q1013 NOSIG
2026-04-07 15:00:00,METAR VOHS 071500Z 35006KT 6000 NSC 30/13 Q1012 NOSIG
2026-04-07 14:30:00,METAR VOHS 071430Z 35005KT 6000 NSC 31/12 Q1012 NOSIG
2026-04-07 14:00:00,METAR VOHS 071400Z 34005KT 6000 NSC 31/12 Q1012 NOSIG
2026-04-07 13:30:00,METAR VOHS 071330Z VRB02KT 6000 FEW020 31/13 Q1011 NOSIG
2026-04-07 13:00:00,METAR VOHS 071300Z 33004KT 6000 FEW020 SCT100 31/13 Q1011 NOSIG
2026-04-07 12:30:00,METAR VOHS 071230Z VRB02KT 6000 FEW020 SCT100 33/11 Q1011 NOSIG
2026-04-07 12:00:00,METAR VOHS 071200Z 34004KT 6000 FEW020 SCT100 33/11 Q1010 NOSIG
2026-04-07 11:31:00,METAR VOHS 071131Z 24006KT 6000 FEW020 SCT100 34/11 Q1010 NOSIG
2026-04-07 11:30:00,METAR VOHS 071130Z 24006KT 6000 FEW020 SCT100 34/11 Q1010 NOSIG
2026-04-07 11:00:00,METAR VOHS 071100Z 36005KT 6000 FEW020 SCT100 34/12 Q1011 NOSIG
2026-04-07 10:32:00,METAR VOHS 071032Z 02005KT 6000 FEW020 SCT100 33/12 Q1011 NOSIG
2026-04-07 10:30:00,METAR VOHS 071030Z 02005KT 6000 FEW020 SCT100 33/12 Q1011 NOSIG
2026-04-07 10:00:00,METAR VOHS 071000Z VRB03KT 6000 FEW020 SCT100 34/12 Q1011 NOSIG
2026-04-07 09:30:00,METAR VOHS 070930Z 30007KT 6000 FEW020 33/11 Q1011 NOSIG
2026-04-07 09:00:00,METAR VOHS 070900Z 30006KT 6000 FEW020 33/11 Q1012 NOSIG
2026-04-07 08:30:00,METAR VOHS 070830Z 25008KT 6000 FEW020 33/11 Q1013 NOSIG
2026-04-07 08:00:00,METAR VOHS 070800Z 28006KT 6000 NSC 33/11 Q1013 NOSIG
2026-04-07 07:30:00,METAR VOHS 070730Z 24007KT 6000 NSC 32/11 Q1014 NOSIG
2026-04-07 07:00:00,METAR VOHS 070700Z 33005KT 6000 NSC 33/11 Q1014 NOSIG
2026-04-07 06:30:00,METAR VOHS 070630Z 30007KT 6000 NSC 33/11 Q1014 NOSIG
2026-04-07 06:00:00,METAR VOHS 070600Z 33007KT 6000 NSC 32/11 Q1015 NOSIG
2026-04-07 05:30:00,METAR VOHS 070530Z 36007KT 6000 NSC 31/11 Q1015 NOSIG
2026-04-07 05:00:00,METAR VOHS 070500Z 33008KT 6000 NSC 31/11 Q1015 NOSIG
2026-04-07 04:30:00,METAR VOHS 070430Z 34010KT 6000 NSC 30/11 Q1016 NOSIG
2026-04-07 04:00:00,METAR VOHS 070400Z 32007KT 6000 NSC 28/11 Q1016 NOSIG
2026-04-07 03:30:00,METAR VOHS 070330Z 31006KT 6000 NSC 27/11 Q1016 NOSIG
2026-04-07 03:00:00,METAR VOHS 070300Z 29007KT 6000 NSC 26/10 Q1015 NOSIG
2026-04-07 02:30:00,METAR VOHS 070230Z 28008KT 6000 NSC 26/10 Q1015 NOSIG
2026-04-07 02:00:00,METAR VOHS 070200Z 27007KT 6000 NSC 25/09 Q1014 NOSIG
2026-04-07 01:30:00,METAR VOHS 070130Z 27004KT 6000 NSC 24/09 Q1014 NOSIG
2026-04-07 01:00:00,METAR VOHS 070100Z 27005KT 6000 NSC 22/09 Q1014 NOSIG
2026-04-07 00:30:00,METAR VOHS 070030Z 26005KT 6000 NSC 21/09 Q1013 NOSIG
2026-04-07 00:00:00,METAR VOHS 070000Z 27005KT 6000 NSC 22/09 Q1013 NOSIG
2026-04-06 23:30:00,METAR VOHS 062330Z VRB04KT 6000 NSC 23/09 Q1013 NOSIG
2026-04-06 23:00:00,METAR VOHS 062300Z VRB04KT 6000 NSC 22/10 Q1012 NOSIG
2026-04-06 22:30:00,METAR VOHS 062230Z VRB03KT 6000 NSC 22/14 Q1012 NOSIG
2026-04-06 22:00:00,METAR VOHS 062200Z VRB03KT 6000 NSC 23/11 Q1012 NOSIG
2026-04-06 21:30:00,METAR VOHS 062130Z VRB03KT 6000 NSC 24/10 Q1012 NOSIG
2026-04-06 21:00:00,METAR VOHS 062100Z VRB03KT 6000 NSC 23/11 Q1013 NOSIG
2026-04-06 20:30:00,METAR VOHS 062030Z 30006KT 6000 NSC 24/11 Q1013 NOSIG
2026-04-06 20:00:00,METAR VOHS 062000Z 29005KT 6000 NSC 25/10 Q1013 NOSIG
2026-04-06 19:30:00,METAR VOHS 061930Z 29007KT 6000 NSC 25/10 Q1013 NOSIG
2026-04-06 19:00:00,METAR VOHS 061900Z 27006KT 6000 NSC 26/10 Q1013 NOSIG
2026-04-06 18:30:00,METAR VOHS 061830Z 27006KT 6000 NSC 26/11 Q1013 NOSIG
2026-04-06 18:00:00,METAR VOHS 061800Z 24005KT 6000 NSC 26/11 Q1014 NOSIG
2026-04-06 17:30:00,METAR VOHS 061730Z 23006KT 6000 NSC 26/12 Q1014 NOSIG
2026-04-06 17:00:00,METAR VOHS 061700Z 22006KT 6000 NSC 27/12 Q1014 NOSIG
2026-04-06 16:30:00,METAR VOHS 061630Z 22005KT 6000 FEW020 27/12 Q1014 NOSIG
2026-04-06 16:00:00,METAR VOHS 061600Z 21005KT 6000 FEW020 28/12 Q1013 NOSIG
2026-04-06 15:30:00,METAR VOHS 061530Z 21005KT 6000 FEW020 28/12 Q1013 NOSIG
2026-04-06 15:00:00,METAR VOHS 061500Z VRB04KT 6000 FEW020 28/13 Q1013 NOSIG
2026-04-06 14:30:00,METAR VOHS 061430Z VRB03KT 6000 FEW020 29/13 Q1013 NOSIG
2026-04-06 14:00:00,METAR VOHS 061400Z VRB03KT 6000 FEW020 30/12 Q1013 NOSIG
2026-04-06 13:30:00,METAR VOHS 061330Z VRB04KT 6000 FEW020 30/12 Q1012 NOSIG
2026-04-06 13:00:00,METAR VOHS 061300Z VRB04KT 6000 FEW020 31/12 Q1011 NOSIG
2026-04-06 12:30:00,METAR VOHS 061230Z 25008KT 6000 FEW020 32/11 Q1011 NOSIG
2026-04-06 12:00:00,METAR VOHS 061200Z 25010KT 6000 FEW020 33/10 Q1011 NOSIG
2026-04-06 11:30:00,METAR VOHS 061130Z 23010KT 6000 FEW015 SCT025 34/11 Q1010 NOSIG
2026-04-06 11:00:00,METAR VOHS 061100Z 22008KT 6000 FEW015 SCT025 34/13 Q1010 NOSIG
2026-04-06 10:30:00,METAR VOHS 061030Z 22008KT 6000 FEW015 SCT025 34/13 Q1011 NOSIG
2026-04-06 10:00:00,METAR VOHS 061000Z 23008KT 6000 FEW015 SCT025 33/12 Q1011 NOSIG
2026-04-06 09:30:00,METAR VOHS 060930Z 22007KT 6000 FEW015 SCT025 35/13 Q1011 NOSIG
2026-04-06 09:00:00,METAR VOHS 060900Z 27008KT 6000 FEW015 SCT025 35/13 Q1012 NOSIG
2026-04-06 08:30:00,METAR VOHS 060830Z 28006KT 6000 FEW015 SCT025 34/13 Q1012 NOSIG
2026-04-06 08:00:00,METAR VOHS 060800Z 25009KT 6000 FEW015 SCT025 34/14 Q1013 NOSIG
2026-04-06 07:30:00,METAR VOHS 060730Z 25006KT 6000 FEW020 34/14 Q1013 NOSIG
2026-04-06 07:00:00,METAR VOHS 060700Z 30009KT 6000 FEW020 33/13 Q1014 NOSIG
2026-04-06 06:30:00,METAR VOHS 060630Z 32008KT 6000 NSC 32/13 Q1014 NOSIG
2026-04-06 06:00:00,METAR VOHS 060600Z 27009KT 6000 NSC 32/13 Q1015 NOSIG
2026-04-06 05:30:00,METAR VOHS 060530Z 32008KT 6000 NSC 32/13 Q1015 NOSIG
2026-04-06 05:00:00,METAR VOHS 060500Z 32010KT 6000 NSC 31/12 Q1015 NOSIG
2026-04-06 04:30:00,METAR VOHS 060430Z 34011KT 6000 NSC 30/13 Q1015 NOSIG
2026-04-06 04:00:00,METAR VOHS 060400Z 33012KT 6000 NSC 30/13 Q1015 NOSIG
2026-04-06 03:30:00,METAR VOHS 060330Z 32010KT 6000 NSC 29/14 Q1015 NOSIG
2026-04-06 03:00:00,METAR VOHS 060300Z 30010KT 6000 SCT020 29/14 Q1014 NOSIG
2026-04-06 02:30:00,METAR VOHS 060230Z 31010KT 6000 SCT020 28/14 Q1014 NOSIG
2026-04-06 02:00:00,METAR VOHS 060200Z 31010KT 6000 SCT020 27/14 Q1014 NOSIG
2026-04-06 01:30:00,METAR VOHS 060130Z 29007KT 5000 HZ SCT020 26/15 Q1013 BECMG 6000
2026-04-06 01:00:00,METAR VOHS 060100Z 30008KT 5000 HZ SCT020 25/18 Q1013 NOSIG
2026-04-06 00:30:00,METAR VOHS 060030Z 28008KT 5000 HZ SCT020 24/18 Q1013 NOSIG
2026-04-06 00:00:00,METAR VOHS 060000Z 27007KT 5000 HZ SCT020 24/19 Q1012 NOSIG
2026-04-05 23:30:00,METAR VOHS 052330Z 27009KT 5000 HZ SCT020 24/20 Q1012 NOSIG
2026-04-05 23:00:00,METAR VOHS 052300Z 27004KT 5000 HZ SCT020 24/20 Q1012 NOSIG
2026-04-05 22:30:00,METAR VOHS 052230Z 23004KT 5000 HZ SCT020 25/20 Q1011 NOSIG
2026-04-05 22:00:00,METAR VOHS 052200Z 19003KT 5000 HZ SCT020 25/20 Q1011 NOSIG
2026-04-05 21:30:00,METAR VOHS 052130Z 18004KT 5000 HZ SCT020 24/20 Q1011 NOSIG
2026-04-05 21:00:00,METAR VOHS 052100Z 15004KT 5000 HZ SCT020 SCT025 25/20 Q1011 NOSIG
2026-04-05 20:30:00,METAR VOHS 052030Z 12004KT 5000 HZ SCT020 SCT025 26/19 Q1012 NOSIG
2026-04-05 20:00:00,METAR VOHS 052000Z 13007KT 5000 HZ SCT020 SCT025 26/20 Q1012 NOSIG
2026-04-05 19:30:00,METAR VOHS 051930Z 20005KT 5000 HZ SCT020 SCT025 27/20 Q1013 NOSIG
2026-04-05 19:00:00,METAR VOHS 051900Z 15003KT 5000 HZ SCT020 SCT025 28/20 Q1012 NOSIG
2026-04-05 18:30:00,METAR VOHS 051830Z 10004KT 6000 SCT020 SCT025 28/20 Q1012 BECMG 5000 HZ
2026-04-05 18:00:00,METAR VOHS 051800Z 11004KT 6000 SCT020 28/20 Q1013 NOSIG
2026-04-05 17:30:00,METAR VOHS 051730Z 10004KT 6000 SCT020 28/20 Q1013 NOSIG
2026-04-05 17:00:00,METAR VOHS 051700Z 10004KT 6000 SCT020 29/19 Q1013 NOSIG
2026-04-05 16:30:00,METAR VOHS 051630Z 10004KT 6000 SCT020 28/20 Q1013 NOSIG
2026-04-05 16:00:00,METAR VOHS 051600Z 10004KT 6000 SCT020 29/19 Q1013 NOSIG
2026-04-05 15:30:00,METAR VOHS 051530Z 09006KT 6000 SCT020 30/19 Q1012 NOSIG
2026-04-05 15:00:00,METAR VOHS 051500Z 10005KT 6000 SCT020 30/18 Q1012 NOSIG
2026-04-05 13:00:00,METAR VOHS 051300Z 31007KT 6000 SCT020 32/17 Q1010 NOSIG
2026-04-05 12:30:00,METAR VOHS 051230Z 31008KT 6000 SCT020 33/17 Q1010 NOSIG
2026-04-05 12:00:00,METAR VOHS 051200Z 32008KT 6000 SCT020 33/16 Q1010 NOSIG
2026-04-05 11:30:00,METAR VOHS 051130Z 32008KT 6000 SCT020 34/17 Q1009 NOSIG
2026-04-05 11:00:00,METAR VOHS 051100Z 33008KT 6000 FEW020 SCT025 34/16 Q1009 NOSIG
2026-04-05 10:30:00,METAR VOHS 051030Z 33008KT 6000 FEW020 SCT025 34/17 Q1009 NOSIG
2026-04-05 10:00:00,METAR VOHS 051000Z 34008KT 6000 FEW020 SCT025 34/17 Q1010 NOSIG
2026-04-05 09:30:00,METAR VOHS 050930Z 31008KT 6000 SCT020 SCT025 34/18 Q1010 NOSIG
2026-04-05 09:00:00,METAR VOHS 050900Z VRB08KT 6000 SCT020 SCT025 34/18 Q1010 NOSIG
2026-04-05 08:30:00,METAR VOHS 050830Z VRB08KT 6000 SCT020 SCT025 33/18 Q1011 NOSIG
2026-04-05 08:00:00,METAR VOHS 050800Z VRB06KT 6000 SCT020 SCT025 33/18 Q1011 NOSIG
2026-04-05 07:30:00,METAR VOHS 050730Z 30007KT 6000 SCT020 33/18 Q1012 NOSIG
2026-04-05 07:00:00,METAR VOHS 050700Z 31008KT 6000 FEW020 32/18 Q1013 NOSIG
2026-04-05 06:30:00,METAR VOHS 050630Z 28009KT 6000 FEW020 33/18 Q1013 NOSIG
2026-04-05 06:00:00,METAR VOHS 050600Z 27008KT 6000 FEW020 32/18 Q1014 NOSIG
2026-04-05 05:30:00,METAR VOHS 050530Z 31006KT 6000 FEW020 31/18 Q1014 NOSIG
2026-04-05 05:00:00,METAR VOHS 050500Z 29006KT 6000 FEW020 31/18 Q1014 NOSIG
2026-04-05 04:30:00,METAR VOHS 050430Z 34006KT 6000 FEW020 31/19 Q1015 NOSIG
2026-04-05 04:00:00,METAR VOHS 050400Z 32007KT 6000 FEW020 31/20 Q1015 NOSIG
2026-04-05 03:30:00,METAR VOHS 050330Z VRB04KT 6000 FEW020 30/19 Q1014 NOSIG
2026-04-05 03:00:00,METAR VOHS 050300Z 08004KT 6000 SCT020 SCT100 29/18 Q1014 NOSIG
2026-04-05 02:30:00,METAR VOHS 050230Z VRB04KT 6000 SCT020 SCT100 29/19 Q1014 NOSIG
2026-04-05 02:00:00,METAR VOHS 050200Z VRB04KT 6000 SCT020 27/19 Q1014 NOSIG
2026-04-05 01:30:00,METAR VOHS 050130Z VRB04KT 6000 SCT020 25/18 Q1013 NOSIG
2026-04-05 01:00:00,METAR VOHS 050100Z VRB04KT 6000 SCT020 25/18 Q1012 NOSIG
2026-04-05 00:30:00,METAR VOHS 050030Z 30006KT 6000 SCT020 SCT100 24/19 Q1012 NOSIG
2026-04-05 00:00:00,METAR VOHS 050000Z 30005KT 6000 SCT020 SCT100 24/19 Q1012 NOSIG
2026-04-04 23:30:00,METAR VOHS 042330Z VRB04KT 6000 SCT020 SCT100 25/18 Q1011 NOSIG
2026-04-04 23:00:00,METAR VOHS 042300Z VRB04KT 6000 SCT020 SCT100 25/18 Q1011 NOSIG
2026-04-04 22:30:00,METAR VOHS 042230Z VRB04KT 6000 SCT020 SCT100 25/18 Q1011 NOSIG
2026-04-04 22:00:00,METAR VOHS 042200Z VRB04KT 6000 SCT020 SCT100 25/18 Q1011 NOSIG
2026-04-04 21:30:00,METAR VOHS 042130Z VRB04KT 6000 SCT020 SCT100 25/18 Q1011 NOSIG
2026-04-04 21:00:00,METAR VOHS 042100Z VRB03KT 6000 SCT020 SCT100 26/18 Q1011 NOSIG
2026-04-04 20:30:00,METAR VOHS 042030Z VRB02KT 6000 SCT020 SCT100 26/18 Q1011 NOSIG
2026-04-04 20:00:00,METAR VOHS 042000Z VRB03KT 6000 SCT020 SCT100 26/18 Q1012 NOSIG
2026-04-04 19:30:00,METAR VOHS 041930Z 05005KT 6000 SCT020 SCT100 26/17 Q1012 NOSIG
2026-04-04 19:00:00,METAR VOHS 041900Z VRB02KT 6000 SCT020 SCT100 26/18 Q1012 NOSIG
2026-04-04 18:30:00,METAR VOHS 041830Z 10005KT 6000 SCT020 SCT100 27/18 Q1012 NOSIG
2026-04-04 18:00:00,METAR VOHS 041800Z 13005KT 6000 SCT020 SCT100 26/18 Q1012 NOSIG
2026-04-04 17:30:00,METAR VOHS 041730Z 12005KT 6000 SCT020 SCT100 27/18 Q1013 NOSIG
2026-04-04 17:00:00,METAR VOHS 041700Z 12005KT 6000 SCT020 SCT100 27/18 Q1013 NOSIG
2026-04-04 16:30:00,METAR VOHS 041630Z 12005KT 6000 SCT020 SCT100 28/18 Q1013 NOSIG
2026-04-04 16:00:00,METAR VOHS 041600Z 10007KT 6000 SCT020 SCT100 28/17 Q1012 NOSIG
2026-04-04 15:30:00,METAR VOHS 041530Z 12006KT 6000 SCT020 SCT100 29/17 Q1012 NOSIG
2026-04-04 15:00:00,METAR VOHS 041500Z 11009KT 6000 SCT020 SCT100 30/17 Q1012 NOSIG
2026-04-04 14:30:00,METAR VOHS 041430Z 11008KT 6000 SCT020 SCT100 30/16 Q1012 NOSIG
2026-04-04 14:00:00,METAR VOHS 041400Z 11007KT 6000 SCT020 SCT100 30/17 Q1011 NOSIG
2026-04-04 13:30:00,METAR VOHS 041330Z 11007KT 6000 SCT020 SCT100 31/17 Q1011 NOSIG
2026-04-04 13:00:00,METAR VOHS 041300Z 11006KT 6000 SCT020 SCT100 32/17 Q1010 NOSIG
2026-04-04 12:30:00,METAR VOHS 041230Z 10008KT 6000 SCT020 SCT100 33/17 Q1010 NOSIG
2026-04-04 12:00:00,METAR VOHS 041200Z VRB04KT 6000 SCT020 SCT100 34/14 Q1010 NOSIG
2026-04-04 11:30:00,METAR VOHS 041130Z VRB04KT 6000 SCT020 BKN100 34/15 Q1010 NOSIG
2026-04-04 11:00:00,METAR VOHS 041100Z VRB04KT 6000 SCT020 BKN100 34/14 Q1010 NOSIG
2026-04-04 10:30:00,METAR VOHS 041030Z VRB04KT 6000 SCT020 BKN100 34/16 Q1010 NOSIG
2026-04-04 10:00:00,METAR VOHS 041000Z VRB04KT 6000 SCT020 BKN100 34/15 Q1010 NOSIG
2026-04-04 09:30:00,METAR VOHS 040930Z VRB04KT 6000 SCT020 SCT100 34/15 Q1011 NOSIG
2026-04-04 09:00:00,METAR VOHS 040900Z VRB04KT 6000 SCT020 SCT100 34/15 Q1011 NOSIG
2026-04-04 08:30:00,METAR VOHS 040830Z 28005KT 6000 SCT020 SCT100 33/15 Q1012 NOSIG
2026-04-04 08:00:00,METAR VOHS 040800Z 28006KT 6000 SCT020 SCT100 34/17 Q1012 NOSIG
2026-04-04 07:30:00,METAR VOHS 040730Z 28006KT 6000 SCT020 SCT100 33/17 Q1013 NOSIG
2026-04-04 07:00:00,METAR VOHS 040700Z 29008KT 6000 SCT020 SCT100 33/16 Q1013 NOSIG
2026-04-04 06:30:00,METAR VOHS 040630Z 29008KT 6000 SCT020 SCT100 32/16 Q1014 NOSIG
2026-04-04 06:00:00,METAR VOHS 040600Z 29008KT 6000 SCT020 SCT100 31/17 Q1014 NOSIG
2026-04-04 05:30:00,METAR VOHS 040530Z 29008KT 6000 SCT020 31/18 Q1015 NOSIG
2026-04-04 05:00:00,METAR VOHS 040500Z 28007KT 6000 FEW020 31/18 Q1015 NOSIG
2026-04-04 04:30:00,METAR VOHS 040430Z 34005KT 6000 FEW020 30/18 Q1015 NOSIG
2026-04-04 04:00:00,METAR VOHS 040400Z 35005KT 6000 FEW020 29/19 Q1015 NOSIG
2026-04-04 03:30:00,METAR VOHS 040330Z 28009KT 6000 FEW020 28/18 Q1015 NOSIG
2026-04-04 03:00:00,METAR VOHS 040300Z 28009KT 5000 HZ FEW020 28/18 Q1015 NOSIG
2026-04-04 02:30:00,METAR VOHS 040230Z 25005KT 5000 HZ FEW020 27/18 Q1014 NOSIG
2026-04-04 02:00:00,METAR VOHS 040200Z VRB03KT 5000 HZ FEW020 26/19 Q1014 NOSIG
2026-04-04 01:30:00,METAR VOHS 040130Z VRB02KT 5000 HZ FEW020 25/19 Q1014 NOSIG
2026-04-04 01:00:00,METAR VOHS 040100Z VRB03KT 5000 HZ FEW020 24/19 Q1013 NOSIG
2026-04-04 00:30:00,METAR VOHS 040030Z 31005KT 5000 HZ FEW020 24/19 Q1013 NOSIG
2026-04-04 00:00:00,METAR VOHS 040000Z 28008KT 5000 HZ FEW020 23/20 Q1013 NOSIG
2026-04-03 23:30:00,METAR VOHS 032330Z VRB03KT 6000 FEW020 23/19 Q1012 TEMPO 5000 HZ
2026-04-03 23:00:00,METAR VOHS 032300Z VRB03KT 6000 FEW020 24/19 Q1012 NOSIG
2026-04-03 22:30:00,METAR VOHS 032230Z 11004KT 6000 FEW020 24/19 Q1012 NOSIG
2026-04-03 22:01:00,METAR VOHS 032201Z 12005KT 6000 FEW020 25/19 Q1012 NOSIG
2026-04-03 22:00:00,METAR VOHS 032200Z 12005KT 6000 FEW020 25/19 Q1012 NOSIG
2026-04-03 21:30:00,METAR VOHS 032130Z 13005KT 6000 FEW020 25/20 Q1012 NOSIG
2026-04-03 21:00:00,METAR VOHS 032100Z 12005KT 6000 FEW020 25/20 Q1012 NOSIG
2026-04-03 20:30:00,METAR VOHS 032030Z 12004KT 6000 FEW020 25/20 Q1012 NOSIG
2026-04-03 20:00:00,METAR VOHS 032000Z 12004KT 6000 FEW020 26/20 Q1013 NOSIG
2026-04-03 19:30:00,METAR VOHS 031930Z 12006KT 6000 FEW020 26/20 Q1013 NOSIG
2026-04-03 19:00:00,METAR VOHS 031900Z 12006KT 6000 FEW020 26/20 Q1013 NOSIG
2026-04-03 18:30:00,METAR VOHS 031830Z 11006KT 6000 FEW020 26/20 Q1014 NOSIG
2026-04-03 18:00:00,METAR VOHS 031800Z 12006KT 6000 FEW020 27/20 Q1014 NOSIG
2026-04-03 17:30:00,METAR VOHS 031730Z 14006KT 6000 FEW020 27/19 Q1014 NOSIG
2026-04-03 17:00:00,METAR VOHS 031700Z 13006KT 6000 FEW020 27/19 Q1014 NOSIG
2026-04-03 16:30:00,METAR VOHS 031630Z 13006KT 6000 FEW020 27/19 Q1014 NOSIG
2026-04-03 16:00:00,METAR VOHS 031600Z 13006KT 6000 FEW020 28/19 Q1014 NOSIG
2026-04-03 15:30:00,METAR VOHS 031530Z 13006KT 6000 FEW020 28/18 Q1014 NOSIG
2026-04-03 15:00:00,METAR VOHS 031500Z 12006KT 6000 FEW020 29/18 Q1013 NOSIG
2026-04-03 14:30:00,METAR VOHS 031430Z 11006KT 6000 FEW020 SCT025 29/18 Q1013 NOSIG
2026-04-03 14:00:00,METAR VOHS 031400Z 11006KT 6000 SCT020 SCT025 30/18 Q1012 NOSIG
2026-04-03 13:30:00,METAR VOHS 031330Z 11005KT 6000 SCT020 SCT025 30/18 Q1012 NOSIG
2026-04-03 13:00:00,METAR VOHS 031300Z 11007KT 6000 SCT020 SCT025 31/17 Q1012 NOSIG
2026-04-03 12:30:00,METAR VOHS 031230Z 12005KT 6000 SCT020 SCT025 31/16 Q1011 NOSIG
2026-04-03 12:00:00,METAR VOHS 031200Z 10007KT 6000 SCT020 SCT025 33/16 Q1011 NOSIG
2026-04-03 11:30:00,METAR VOHS 031130Z 12006KT 6000 SCT020 SCT025 33/16 Q1011 NOSIG
2026-04-03 11:00:00,METAR VOHS 031100Z 10007KT 6000 SCT020 SCT025 34/14 Q1011 NOSIG
2026-04-03 10:30:00,METAR VOHS 031030Z VRB03KT 6000 SCT020 SCT025 34/13 Q1012 NOSIG
2026-04-03 10:00:00,METAR VOHS 031000Z 15003KT 6000 SCT020 SCT025 33/14 Q1012 NOSIG
2026-04-03 09:30:00,METAR VOHS 030930Z 09006KT 6000 SCT020 SCT025 34/14 Q1012 NOSIG
2026-04-03 09:00:00,METAR VOHS 030900Z 13005KT 6000 SCT020 SCT025 34/16 Q1013 NOSIG
2026-04-03 08:30:00,METAR VOHS 030830Z VRB02KT 6000 SCT020 SCT025 34/15 Q1013 NOSIG
2026-04-03 08:00:00,METAR VOHS 030800Z 06007KT 6000 FEW020 SCT025 34/16 Q1014 NOSIG
2026-04-03 07:30:00,METAR VOHS 030730Z 02006KT 6000 FEW020 SCT025 33/16 Q1014 NOSIG
2026-04-03 07:00:00,METAR VOHS 030700Z 09005KT 6000 FEW020 SCT025 32/16 Q1015 NOSIG
2026-04-03 06:30:00,METAR VOHS 030630Z 12006KT 6000 FEW020 32/17 Q1015 NOSIG
2026-04-03 06:00:00,METAR VOHS 030600Z 09004KT 6000 FEW020 32/17 Q1016 NOSIG
2026-04-03 05:30:00,METAR VOHS 030530Z VRB02KT 6000 FEW020 31/18 Q1016 NOSIG
2026-04-03 05:00:00,METAR VOHS 030500Z 11004KT 6000 FEW020 29/19 Q1016 NOSIG
2026-04-03 04:30:00,METAR VOHS 030430Z 13003KT 6000 FEW020 29/19 Q1017 NOSIG
2026-04-03 04:00:00,METAR VOHS 030400Z 08004KT 6000 FEW020 28/19 Q1017 NOSIG
2026-04-03 03:30:00,METAR VOHS 030330Z VRB02KT 6000 FEW020 27/19 Q1017 NOSIG
2026-04-03 03:00:00,METAR VOHS 030300Z 28004KT 6000 FEW020 26/19 Q1017 NOSIG
2026-04-03 02:30:00,METAR VOHS 030230Z 28007KT 6000 FEW020 26/19 Q1016 NOSIG
2026-04-03 02:00:00,METAR VOHS 030200Z 28008KT 6000 FEW020 24/19 Q1016 NOSIG
2026-04-03 01:30:00,METAR VOHS 030130Z 30008KT 6000 FEW020 23/19 Q1015 NOSIG
2026-04-03 01:00:00,METAR VOHS 030100Z VRB04KT 6000 FEW020 22/19 Q1014 NOSIG
2026-04-03 00:30:00,METAR VOHS 030030Z VRB03KT 6000 FEW020 21/19 Q1014 NOSIG
2026-04-03 00:00:00,METAR VOHS 030000Z VRB03KT 6000 FEW020 22/19 Q1014 NOSIG
2026-04-02 23:30:00,METAR VOHS 022330Z VRB03KT 6000 FEW020 21/19 Q1013 NOSIG
2026-04-02 23:00:00,METAR VOHS 022300Z VRB03KT 6000 FEW020 22/19 Q1013 NOSIG
2026-04-02 22:30:00,METAR VOHS 022230Z VRB04KT 6000 FEW020 22/19 Q1013 NOSIG
2026-04-02 22:00:00,METAR VOHS 022200Z 13005KT 6000 FEW020 23/19 Q1013 NOSIG
2026-04-02 21:30:00,METAR VOHS 022130Z 11005KT 6000 FEW020 23/19 Q1013 NOSIG
2026-04-02 21:00:00,METAR VOHS 022100Z 12006KT 6000 FEW020 24/19 Q1014 NOSIG
2026-04-02 20:30:00,METAR VOHS 022030Z 11005KT 6000 FEW020 24/19 Q1014 NOSIG
2026-04-02 20:00:00,METAR VOHS 022000Z 12006KT 6000 FEW020 24/19 Q1014 NOSIG
2026-04-02 19:30:00,METAR VOHS 021930Z 12006KT 6000 FEW020 25/19 Q1014 NOSIG
2026-04-02 19:00:00,METAR VOHS 021900Z 12006KT 6000 FEW020 25/19 Q1015 NOSIG
2026-04-02 18:30:00,METAR VOHS 021830Z 11006KT 6000 FEW020 25/19 Q1015 NOSIG
2026-04-02 18:00:00,METAR VOHS 021800Z 11006KT 6000 FEW020 26/19 Q1015 NOSIG
2026-04-02 17:30:00,METAR VOHS 021730Z 12006KT 6000 FEW020 26/19 Q1015 NOSIG
2026-04-02 17:00:00,METAR VOHS 021700Z 10006KT 6000 FEW020 26/18 Q1015 NOSIG
2026-04-02 16:30:00,METAR VOHS 021630Z 10006KT 6000 FEW020 26/18 Q1015 NOSIG
2026-04-02 16:00:00,METAR VOHS 021600Z 10007KT 6000 FEW020 27/18 Q1015 NOSIG
2026-04-02 15:30:00,METAR VOHS 021530Z 10006KT 6000 FEW020 27/18 Q1015 NOSIG
2026-04-02 15:00:00,METAR VOHS 021500Z 10007KT 6000 NSC 27/18 Q1014 NOSIG
2026-04-02 14:30:00,METAR VOHS 021430Z 10005KT 6000 FEW020 28/17 Q1014 NOSIG
2026-04-02 14:00:00,METAR VOHS 021400Z 11006KT 6000 FEW020 28/17 Q1014 NOSIG
2026-04-02 13:30:00,METAR VOHS 021330Z 12005KT 6000 FEW020 29/15 Q1014 NOSIG
2026-04-02 13:00:00,METAR VOHS 021300Z 13005KT 6000 FEW020 30/14 Q1013 NOSIG
2026-04-02 12:31:00,METAR VOHS 021231Z 13006KT 6000 FEW020 31/15 Q1012 NOSIG
2026-04-02 12:00:00,METAR VOHS 021200Z 12006KT 6000 FEW020 32/14 Q1011 NOSIG
2026-04-02 11:30:00,METAR VOHS 021130Z 10006KT 6000 FEW020 32/13 Q1012 NOSIG
2026-04-02 11:00:00,METAR VOHS 021100Z 15006KT 6000 FEW020 33/14 Q1012 NOSIG
2026-04-02 10:30:00,METAR VOHS 021030Z 16006KT 6000 FEW020 33/13 Q1012 NOSIG
2026-04-02 10:00:00,METAR VOHS 021000Z 11005KT 6000 FEW020 33/14 Q1012 NOSIG
2026-04-02 09:30:00,METAR VOHS 020930Z 12006KT 6000 FEW020 33/14 Q1013 NOSIG
2026-04-02 09:00:00,METAR VOHS 020900Z 13008KT 6000 FEW020 33/14 Q1013 NOSIG
2026-04-02 08:30:00,METAR VOHS 020830Z 10010G20KT 6000 FEW020 33/13 Q1014 NOSIG
2026-04-02 08:00:00,METAR VOHS 020800Z 09007KT 6000 FEW020 33/14 Q1015 NOSIG
2026-04-02 07:30:00,METAR VOHS 020730Z 08006KT 6000 FEW020 32/15 Q1015 NOSIG
2026-04-02 07:00:00,METAR VOHS 020700Z COR 10008KT 6000 FEW020 32/13 Q1015 NOSIG
2026-04-02 06:30:00,METAR VOHS 020630Z 09007KT 6000 FEW020 31/13 Q1016 NOSIG
2026-04-02 06:00:00,METAR VOHS 020600Z 10006KT 6000 FEW020 30/13 Q1017 NOSIG
2026-04-02 05:30:00,METAR VOHS 020530Z 10006KT 6000 FEW020 30/13 Q1017 NOSIG
2026-04-02 05:00:00,METAR VOHS 020500Z 09005KT 6000 FEW020 30/16 Q1017 NOSIG
2026-04-02 04:30:00,METAR VOHS 020430Z 08006KT 6000 FEW020 29/16 Q1017 NOSIG
2026-04-02 04:00:00,METAR VOHS 020400Z 04005KT 6000 FEW020 28/17 Q1017 NOSIG
2026-04-02 03:30:00,METAR VOHS 020330Z 04007KT 6000 NSC 28/17 Q1017 NOSIG
2026-04-02 03:00:00,METAR VOHS 020300Z 01006KT 6000 NSC 27/16 Q1017 NOSIG
2026-04-02 02:30:00,METAR VOHS 020230Z VRB04KT 6000 NSC 26/15 Q1016 NOSIG
2026-04-02 02:00:00,METAR VOHS 020200Z VRB04KT 6000 NSC 25/15 Q1016 NOSIG
2026-04-02 01:30:00,METAR VOHS 020130Z VRB03KT 6000 NSC 24/15 Q1015 NOSIG
2026-04-02 01:00:00,METAR VOHS 020100Z VRB04KT 6000 FEW020 23/14 Q1015 NOSIG
2026-04-02 00:30:00,METAR VOHS 020030Z VRB03KT 6000 FEW020 24/13 Q1014 NOSIG
2026-04-02 00:00:00,METAR VOHS 020000Z COR VRB04KT 6000 FEW020 23/13 Q1014 NOSIG
2026-04-01 23:30:00,METAR VOHS 012330Z 11005KT 6000 FEW020 23/13 Q1013 NOSIG
2026-04-01 23:00:00,METAR VOHS 012300Z 11005KT 6000 FEW020 23/12 Q1013 NOSIG
2026-04-01 22:30:00,METAR VOHS 012230Z VRB04KT 6000 FEW020 23/12 Q1013 NOSIG
2026-04-01 22:00:00,METAR VOHS 012200Z VRB04KT 6000 FEW020 23/12 Q1013 NOSIG
2026-04-01 21:30:00,METAR VOHS 012130Z VRB04KT 6000 FEW020 23/13 Q1012 NOSIG
2026-04-01 21:00:00,METAR VOHS 012100Z 14004KT 6000 FEW020 23/14 Q1013 NOSIG
2026-04-01 20:30:00,METAR VOHS 012030Z 12005KT 6000 FEW020 23/16 Q1013 NOSIG
2026-04-01 20:00:00,METAR VOHS 012000Z 12006KT 6000 FEW020 24/17 Q1013 NOSIG
2026-04-01 19:30:00,METAR VOHS 011930Z 13006KT 6000 FEW020 24/18 Q1013 NOSIG
2026-04-01 19:00:00,METAR VOHS 011900Z 12006KT 6000 FEW020 25/18 Q1013 NOSIG
2026-04-01 18:30:00,METAR VOHS 011830Z 13006KT 6000 FEW020 25/19 Q1014 NOSIG
2026-04-01 18:00:00,METAR VOHS 011800Z 13006KT 6000 FEW020 25/19 Q1014 NOSIG
2026-04-01 17:30:00,METAR VOHS 011730Z 13008KT 6000 FEW020 26/19 Q1014 NOSIG
2026-04-01 17:00:00,METAR VOHS 011700Z 12006KT 6000 FEW020 26/18 Q1014 NOSIG
2026-04-01 16:30:00,METAR VOHS 011630Z 11007KT 6000 FEW020 27/18 Q1014 NOSIG
2026-04-01 16:00:00,METAR VOHS 011600Z 11007KT 6000 FEW020 27/18 Q1014 NOSIG
2026-04-01 15:30:00,METAR VOHS 011530Z 11006KT 6000 FEW020 27/18 Q1014 NOSIG
2026-04-01 15:00:00,METAR VOHS 011500Z 12006KT 6000 FEW020 28/17 Q1013 NOSIG
2026-04-01 14:30:00,METAR VOHS 011430Z 11005KT 6000 FEW020 28/18 Q1013 NOSIG
2026-04-01 14:00:00,METAR VOHS 011400Z 10006KT 6000 FEW020 29/17 Q1013 NOSIG
2026-04-01 13:30:00,METAR VOHS 011330Z 09007KT 6000 FEW020 30/17 Q1012 NOSIG
2026-04-01 13:00:00,METAR VOHS 011300Z 09008KT 6000 FEW020 31/17 Q1012 NOSIG
2026-04-01 12:30:00,METAR VOHS 011230Z 11006KT 6000 FEW020 32/17 Q1011 NOSIG
2026-04-01 12:00:00,METAR VOHS 011200Z 10006KT 6000 FEW020 33/16 Q1011 NOSIG
2026-04-01 11:30:00,METAR VOHS 011130Z 12006KT 6000 FEW020 33/16 Q1011 NOSIG
2026-04-01 11:01:00,METAR VOHS 011101Z 11006KT 6000 FEW020 33/16 Q1011 NOSIG
2026-04-01 11:00:00,METAR VOHS 011100Z COR 11006KT 6000 FEW020 33/16 Q1011 NOSIG
2026-04-01 10:30:00,METAR VOHS 011030Z 11006KT 6000 FEW015 SCT025 34/17 Q1011 NOSIG
2026-04-01 10:00:00,METAR VOHS 011000Z 14006KT 6000 FEW015 SCT025 34/17 Q1011 NOSIG
2026-04-01 09:30:00,METAR VOHS 010930Z 08006KT 6000 FEW015 SCT025 33/18 Q1011 NOSIG
2026-04-01 09:00:00,METAR VOHS 010900Z VRB04KT 6000 FEW015 SCT025 33/17 Q1012 NOSIG
2026-04-01 08:30:00,METAR VOHS 010830Z VRB04KT 6000 FEW015 SCT025 33/17 Q1013 NOSIG
2026-04-01 08:00:00,METAR VOHS 010800Z 13006KT 6000 FEW015 SCT025 33/18 Q1013 NOSIG
2026-04-01 07:30:00,METAR VOHS 010730Z VRB04KT 6000 FEW015 SCT025 32/17 Q1013 NOSIG
2026-04-01 07:00:00,METAR VOHS 010700Z VRB04KT 6000 FEW020 32/18 Q1014 NOSIG
2026-04-01 06:30:00,METAR VOHS 010630Z VRB04KT 6000 FEW020 32/19 Q1015 NOSIG
2026-04-01 06:00:00,METAR VOHS 010600Z 22005KT 6000 FEW020 32/19 Q1015 NOSIG
2026-04-01 05:30:00,METAR VOHS 010530Z 16004KT 6000 NSC 31/20 Q1015 NOSIG
2026-04-01 05:00:00,METAR VOHS 010500Z 20004KT 6000 NSC 30/20 Q1016 NOSIG
2026-04-01 04:30:00,METAR VOHS 010430Z 20004KT 6000 FEW020 29/20 Q1016 NOSIG
2026-04-01 04:00:00,METAR VOHS 010400Z 18004KT 6000 FEW020 28/21 Q1016 NOSIG
2026-04-01 03:30:00,METAR VOHS 010330Z 17004KT 6000 FEW020 27/21 Q1016 NOSIG
2026-04-01 03:00:00,METAR VOHS 010300Z 14004KT 6000 FEW020 26/21 Q1016 NOSIG
2026-04-01 02:30:00,METAR VOHS 010230Z 14004KT 6000 FEW015 25/21 Q1015 NOSIG
2026-04-01 02:00:00,METAR VOHS 010200Z 14004KT 6000 FEW015 24/21 Q1015 NOSIG
2026-04-01 01:30:00,METAR VOHS 010130Z 14004KT 6000 FEW015 22/21 Q1014 NOSIG
2026-04-01 01:00:00,METAR VOHS 010100Z 14004KT 6000 FEW015 22/20 Q1014 NOSIG
2026-04-01 00:30:00,METAR VOHS 010030Z 14003KT 6000 SCT015 21/20 Q1014 NOSIG
2026-04-01 00:00:00,METAR VOHS 010000Z 14003KT 6000 SCT015 22/20 Q1013 NOSIG
2026-03-31 23:30:00,METAR VOHS 312330Z 14004KT 6000 SCT015 22/20 Q1013 NOSIG
2026-03-31 23:00:00,METAR VOHS 312300Z 14004KT 6000 SCT015 23/20 Q1013 NOSIG
2026-03-31 22:30:00,METAR VOHS 312230Z 14004KT 6000 SCT015 23/20 Q1013 NOSIG
2026-03-31 22:00:00,METAR VOHS 312200Z 14004KT 6000 SCT015 23/19 Q1012 NOSIG
2026-03-31 21:30:00,METAR VOHS 312130Z 14005KT 6000 SCT015 23/19 Q1012 NOSIG
2026-03-31 21:00:00,METAR VOHS 312100Z 11005KT 6000 SCT015 24/19 Q1013 NOSIG
2026-03-31 20:30:00,METAR VOHS 312030Z 11005KT 6000 SCT015 24/18 Q1013 NOSIG
2026-03-31 20:00:00,METAR VOHS 312000Z 11005KT 6000 SCT015 24/18 Q1013 NOSIG
2026-03-31 19:30:00,METAR VOHS 311930Z 11005KT 6000 SCT015 24/18 Q1013 NOSIG
2026-03-31 19:00:00,METAR VOHS 311900Z 11005KT 6000 SCT015 24/18 Q1013 NOSIG
2026-03-31 18:30:00,METAR VOHS 311830Z 11005KT 6000 SCT015 25/18 Q1014 NOSIG
2026-03-31 18:00:00,METAR VOHS 311800Z 11006KT 6000 SCT015 25/18 Q1014 NOSIG
2026-03-31 17:30:00,METAR VOHS 311730Z 11006KT 6000 SCT015 25/19 Q1014 NOSIG
2026-03-31 17:00:00,METAR VOHS 311700Z 10005KT 6000 SCT015 25/19 Q1014 NOSIG
2026-03-31 16:30:00,METAR VOHS 311630Z 10005KT 6000 SCT015 25/19 Q1014 NOSIG
2026-03-31 16:00:00,METAR VOHS 311600Z VRB03KT 6000 SCT015 25/19 Q1014 NOSIG
2026-03-31 15:30:00,METAR VOHS 311530Z 10004KT 6000 SCT015 26/20 Q1014 NOSIG
2026-03-31 15:00:00,METAR VOHS 311500Z 09007KT 6000 SCT015 26/19 Q1013 NOSIG
2026-03-31 14:30:00,METAR VOHS 311430Z 09007KT 6000 SCT015 26/19 Q1013 NOSIG
2026-03-31 14:00:00,METAR VOHS 311400Z 09009KT 6000 SCT015 28/19 Q1013 NOSIG
2026-03-31 13:30:00,METAR VOHS 311330Z 07009KT 6000 SCT015 28/19 Q1012 NOSIG
2026-03-31 13:00:00,METAR VOHS 311300Z 07008KT 6000 SCT015 BKN100 29/18 Q1012 NOSIG
2026-03-31 12:30:00,METAR VOHS 311230Z 07009KT 6000 SCT015 BKN100 30/18 Q1012 NOSIG
2026-03-31 12:00:00,METAR VOHS 311200Z 10008KT 6000 SCT015 BKN100 31/18 Q1011 NOSIG
2026-03-31 11:30:00,METAR VOHS 311130Z 10008KT 6000 SCT015 BKN100 32/16 Q1011 NOSIG
2026-03-31 11:00:00,METAR VOHS 311100Z 10008KT 6000 SCT015 BKN100 32/17 Q1011 NOSIG
2026-03-31 10:30:00,METAR VOHS 311030Z 10006KT 6000 SCT015 BKN100 32/17 Q1011 NOSIG
2026-03-31 10:00:00,METAR VOHS 311000Z 10010KT 6000 SCT015 BKN100 31/17 Q1012 NOSIG
2026-03-31 09:30:00,METAR VOHS 310930Z 10010KT 6000 SCT015 BKN100 31/17 Q1012 NOSIG
2026-03-31 09:00:00,METAR VOHS 310900Z 10010KT 6000 SCT015 BKN100 31/18 Q1012 NOSIG
2026-03-31 08:30:00,METAR VOHS 310830Z 10010KT 6000 SCT015 BKN100 30/18 Q1013 NOSIG
2026-03-31 08:00:00,METAR VOHS 310800Z 10014KT 6000 SCT020 BKN100 30/18 Q1014 NOSIG
2026-03-31 07:30:00,METAR VOHS 310730Z 10014KT 6000 SCT020 SCT100 30/17 Q1014 NOSIG
2026-03-31 07:00:00,METAR VOHS 310700Z 11014KT 6000 SCT020 SCT100 30/16 Q1015 NOSIG
2026-03-31 06:30:00,METAR VOHS 310630Z 11014KT 6000 SCT020 SCT100 29/17 Q1015 NOSIG
2026-03-31 06:00:00,METAR VOHS 310600Z 08010G20KT 6000 SCT020 SCT100 28/16 Q1016 NOSIG
2026-03-31 05:30:00,METAR VOHS 310530Z 08010G20KT 6000 FEW020 28/16 Q1016 NOSIG
2026-03-31 05:00:00,METAR VOHS 310500Z 08010G20KT 6000 FEW020 27/17 Q1016 NOSIG
2026-03-31 04:30:00,METAR VOHS 310430Z 08010G20KT 6000 FEW020 26/17 Q1017 NOSIG
2026-03-31 04:00:00,METAR VOHS 310400Z 08010G20KT 6000 FEW020 24/18 Q1017 NOSIG
2026-03-31 03:30:00,METAR VOHS 310330Z 07010G20KT 6000 FEW020 24/18 Q1017 NOSIG
2026-03-31 03:00:00,METAR VOHS 310300Z 07016KT 6000 FEW020 SCT100 24/18 Q1016 NOSIG
2026-03-31 02:30:00,METAR VOHS 310230Z COR 06015KT 6000 FEW020 SCT100 23/17 Q1016 NOSIG
2026-03-31 02:15:00,METAR VOHS 310215Z 06012G22KT 6000 FEW020 SCT100 23/17 Q1016 NOSIG
2026-03-31 02:00:00,METAR VOHS 310200Z 05012KT 6000 FEW020 SCT100 23/17 Q1015 NOSIG
2026-03-31 01:30:00,METAR VOHS 310130Z 05012KT 6000 SCT020 BKN100 23/16 Q1015 NOSIG
2026-03-31 01:00:00,METAR VOHS 310100Z 05010KT 6000 SCT020 BKN100 23/17 Q1015 NOSIG
2026-03-31 00:30:00,METAR VOHS 310030Z 04010KT 5000 HZ SCT020 BKN100 23/17 Q1015 NOSIG
2026-03-31 00:00:00,METAR VOHS 310000Z 03008KT 5000 HZ SCT020 BKN100 23/17 Q1014 NOSIG
2026-03-30 23:30:00,METAR VOHS 302330Z 02008KT 5000 HZ SCT020 BKN100 23/17 Q1014 NOSIG
2026-03-30 23:00:00,METAR VOHS 302300Z 02010G20KT 5000 HZ BKN020 BKN100 23/17 Q1014 NOSIG
2026-03-30 22:30:00,METAR VOHS 302230Z 03018KT 5000 HZ SCT020 BKN100 23/17 Q1013 NOSIG
2026-03-30 22:00:00,METAR VOHS 302200Z 36010G20KT 5000 HZ FEW015 SCT020 BKN100 25/20 Q1013 NOSIG
2026-03-30 21:30:00,METAR VOHS 302130Z 36008KT 5000 HZ FEW015 SCT020 BKN100 26/20 Q1013 NOSIG
2026-03-30 21:00:00,METAR VOHS 302100Z 33015KT 5000 HZ SCT020 BKN100 25/21 Q1012 NOSIG
2026-03-30 20:30:00,METAR VOHS 302030Z 09008KT 5000 HZ SCT020 BKN100 25/21 Q1012 NOSIG
2026-03-30 20:00:00,METAR VOHS 302000Z 09008KT 5000 HZ SCT020 BKN100 25/21 Q1012 NOSIG
2026-03-30 19:30:00,METAR VOHS 301930Z 09006KT 5000 HZ SCT020 BKN100 25/20 Q1013 NOSIG
2026-03-30 19:00:00,METAR VOHS 301900Z 09007KT 5000 HZ SCT020 SCT100 26/20 Q1013 NOSIG
2026-03-30 18:30:00,METAR VOHS 301830Z 08010KT 6000 SCT020 SCT100 26/20 Q1013 TEMPO 5000 HZ
2026-03-30 18:00:00,METAR VOHS 301800Z 09006KT 6000 SCT020 SCT100 26/19 Q1013 NOSIG
2026-03-30 17:30:00,METAR VOHS 301730Z 10005KT 6000 FEW020 SCT100 27/19 Q1013 NOSIG
2026-03-30 17:00:00,METAR VOHS 301700Z 12005KT 6000 FEW020 27/18 Q1013 NOSIG
2026-03-30 16:30:00,METAR VOHS 301630Z 12005KT 6000 FEW020 27/18 Q1013 NOSIG
2026-03-30 16:00:00,METAR VOHS 301600Z 11006KT 6000 FEW020 27/17 Q1013 NOSIG
2026-03-30 15:30:00,METAR VOHS 301530Z 12005KT 6000 FEW020 26/16 Q1013 NOSIG
2026-03-30 15:00:00,METAR VOHS 301500Z 10005KT 6000 FEW020 27/16 Q1012 NOSIG
2026-03-30 14:30:00,METAR VOHS 301430Z 14004KT 5000 HZ SCT020 SCT100 27/15 Q1012 NOSIG
2026-03-30 14:00:00,METAR VOHS 301400Z 15004KT 5000 HZ SCT020 SCT100 27/15 Q1011 NOSIG
2026-03-30 13:30:00,METAR VOHS 301330Z 09005KT 5000 HZ SCT020 SCT100 27/15 Q1011 NOSIG
2026-03-30 13:00:00,METAR VOHS 301300Z 09010KT 5000 HZ SCT020 SCT025 28/15 Q1011 NOSIG
2026-03-30 12:30:00,METAR VOHS 301230Z 10011KT 5000 HZ SCT020 SCT025 FEW030CB 27/18 Q1011 NOSIG
2026-03-30 12:00:00,METAR VOHS 301200Z 09011G21KT 5000 TS SCT020 BKN025 FEW030CB 28/18 Q1011 NOSIG
2026-03-30 11:30:00,METAR VOHS 301130Z 19006KT 5000 TS SCT020 BKN025 FEW030CB 32/16 Q1011 TEMPO 3000 TSRA
2026-03-30 11:00:00,METAR VOHS 301100Z 21006KT 6000 SCT020 BKN025 FEW030CB 35/14 Q1011 TEMPO 3000 TSRA
2026-03-30 10:30:00,METAR VOHS 301030Z 19005KT 6000 SCT020 BKN025 FEW030CB 35/15 Q1010 NOSIG
2026-03-30 10:00:00,METAR VOHS 301000Z 17006KT 6000 SCT020 BKN025 FEW030CB 34/15 Q1010 NOSIG
2026-03-30 09:30:00,METAR VOHS 300930Z 21007KT 6000 SCT020 BKN025 FEW030CB 35/14 Q1011 NOSIG
2026-03-30 09:00:00,METAR VOHS 300900Z 17008KT 6000 FEW020 SCT025 FEW030CB 35/15 Q1011 NOSIG
2026-03-30 08:30:00,METAR VOHS 300830Z 20008KT 6000 FEW020 SCT025 35/16 Q1011 NOSIG
2026-03-30 08:00:00,METAR VOHS 300800Z COR 21010KT 6000 FEW020 SCT025 35/17 Q1012 NOSIG
2026-03-30 07:30:00,METAR VOHS 300730Z 19009KT 6000 NSC 35/18 Q1012 NOSIG
2026-03-30 07:00:00,METAR VOHS 300700Z 20008KT 6000 NSC 34/19 Q1013 NOSIG
2026-03-30 06:30:00,METAR VOHS 300630Z 19007KT 6000 NSC 33/18 Q1013 NOSIG
2026-03-30 06:00:00,METAR VOHS 300600Z 22007KT 6000 NSC 33/18 Q1014 NOSIG
2026-03-30 05:30:00,METAR VOHS 300530Z 21006KT 6000 NSC 32/18 Q1014 NOSIG
2026-03-30 05:00:00,METAR VOHS 300500Z 20007KT 6000 NSC 32/18 Q1014 NOSIG
2026-03-30 04:30:00,METAR VOHS 300430Z 21008KT 6000 NSC 31/18 Q1014 NOSIG
2026-03-30 04:00:00,METAR VOHS 300400Z 19007KT 6000 NSC 31/18 Q1014 NOSIG
2026-03-30 03:30:00,METAR VOHS 300330Z 19005KT 5000 HZ NSC 30/17 Q1014 NOSIG
2026-03-30 03:00:00,METAR VOHS 300300Z 19005KT 5000 HZ NSC 28/19 Q1013 NOSIG
2026-03-30 02:30:00,METAR VOHS 300230Z VRB03KT 5000 HZ NSC 27/19 Q1013 NOSIG
2026-03-30 02:00:00,METAR VOHS 300200Z VRB02KT 4000 BR NSC 26/20 Q1012 BECMG 5000 HZ
2026-03-30 01:30:00,METAR VOHS 300130Z VRB02KT 4000 BR NSC 23/20 Q1012 NOSIG
2026-03-30 01:00:00,METAR VOHS 300100Z 10003KT 4000 BR FEW020 22/20 Q1011 NOSIG
2026-03-30 00:30:00,METAR VOHS 300030Z 12003KT 5000 HZ FEW020 23/20 Q1011 TEMPO 3000 BR
2026-03-30 00:00:00,METAR VOHS 300000Z VRB02KT 5000 HZ FEW020 23/19 Q1010 NOSIG
2026-03-29 23:30:00,METAR VOHS 292330Z 14004KT 6000 FEW020 SCT100 23/20 Q1010 TEMPO 5000 HZ
2026-03-29 23:00:00,METAR VOHS 292300Z VRB02KT 6000 FEW020 SCT100 23/20 Q1010 NOSIG
2026-03-29 22:30:00,METAR VOHS 292230Z VRB02KT 6000 FEW020 SCT100 23/20 Q1010 NOSIG
2026-03-29 22:00:00,METAR VOHS 292200Z VRB02KT 6000 FEW020 SCT100 24/20 Q1010 NOSIG
2026-03-29 21:30:00,METAR VOHS 292130Z 00000KT 6000 FEW020 23/20 Q1010 NOSIG
2026-03-29 21:00:00,METAR VOHS 292100Z VRB02KT 6000 FEW020 24/19 Q1010 NOSIG
2026-03-29 20:30:00,METAR VOHS 292030Z VRB04KT 6000 FEW020 25/18 Q1010 NOSIG
2026-03-29 20:00:00,METAR VOHS 292000Z VRB04KT 6000 FEW020 26/19 Q1010 NOSIG
2026-03-29 19:30:00,METAR VOHS 291930Z VRB04KT 6000 FEW020 26/19 Q1011 NOSIG
2026-03-29 19:00:00,METAR VOHS 291900Z VRB04KT 6000 NSC 26/19 Q1011 NOSIG
2026-03-29 18:30:00,METAR VOHS 291830Z 14005KT 6000 NSC 27/20 Q1011 NOSIG
2026-03-29 18:00:00,METAR VOHS 291800Z 13006KT 6000 NSC 27/20 Q1012 NOSIG
2026-03-29 17:30:00,METAR VOHS 291730Z 12006KT 6000 FEW020 27/21 Q1012 NOSIG
2026-03-29 15:30:00,METAR VOHS 291530Z 11006KT 6000 FEW020 SCT100 29/18 Q1012 NOSIG
2026-03-29 15:00:00,METAR VOHS 291500Z 11006KT 6000 FEW020 SCT100 30/18 Q1012 NOSIG
2026-03-29 14:30:00,METAR VOHS 291430Z 09006KT 6000 FEW020 30/17 Q1011 NOSIG
2026-03-29 14:00:00,METAR VOHS 291400Z 09006KT 6000 FEW020 31/17 Q1010 NOSIG
2026-03-29 13:30:00,METAR VOHS 291330Z 08007KT 6000 FEW020 31/16 Q1010 NOSIG
2026-03-29 13:00:00,METAR VOHS 291300Z 06006KT 6000 FEW020 33/13 Q1010 NOSIG
2026-03-29 12:31:00,METAR VOHS 291231Z 06006KT 6000 FEW020 34/13 Q1010 NOSIG
2026-03-29 12:30:00,METAR VOHS 291230Z COR 06006KT 6000 FEW020 34/13 Q1010 NOSIG
2026-03-29 12:00:00,METAR VOHS 291200Z VRB04KT 6000 FEW020 35/12 Q1009 NOSIG
2026-03-29 11:30:00,METAR VOHS 291130Z 34006KT 6000 FEW020 35/12 Q1009 NOSIG
2026-03-29 11:00:00,METAR VOHS 291100Z 35008KT 6000 FEW020 35/12 Q1009 NOSIG
2026-03-29 10:30:00,METAR VOHS 291030Z 35008KT 6000 FEW020 35/12 Q1009 NOSIG
2026-03-29 10:00:00,METAR VOHS 291000Z 02007KT 6000 FEW020 35/11 Q1009 NOSIG
2026-03-29 09:30:00,METAR VOHS 290930Z 34006KT 6000 FEW020 36/11 Q1009 NOSIG
2026-03-29 09:00:00,METAR VOHS 290900Z 34007KT 6000 FEW020 35/12 Q1010 NOSIG
2026-03-29 08:30:00,METAR VOHS 290830Z 30006KT 6000 NSC 35/12 Q1010 NOSIG
2026-03-29 08:00:00,METAR VOHS 290800Z 30006KT 6000 NSC 35/12 Q1011 NOSIG
2026-03-29 07:30:00,METAR VOHS 290730Z 32006KT 6000 NSC 35/12 Q1012 NOSIG
2026-03-29 07:00:00,METAR VOHS 290700Z 34006KT 6000 NSC 34/13 Q1012 NOSIG
2026-03-29 06:30:00,METAR VOHS 290630Z 02006KT 6000 NSC 33/14 Q1013 NOSIG
2026-03-29 06:00:00,METAR VOHS 290600Z 04006KT 6000 NSC 32/15 Q1013 NOSIG
2026-03-29 05:31:00,METAR VOHS 290531Z 33006KT 6000 NSC 32/15 Q1014 NOSIG
2026-03-29 05:30:00,METAR VOHS 290530Z 33006KT 6000 NSC 22/15 Q1014 NOSIG
2026-03-29 05:00:00,METAR VOHS 290500Z 34007KT 6000 NSC 31/14 Q1014 NOSIG
2026-03-29 04:30:00,METAR VOHS 290430Z 34006KT 6000 NSC 30/14 Q1014 NOSIG
2026-03-29 04:00:00,METAR VOHS 290400Z 31008KT 6000 NSC 30/14 Q1014 NOSIG
2026-03-29 03:30:00,METAR VOHS 290330Z 30006KT 6000 NSC 29/13 Q1014 NOSIG
2026-03-29 03:00:00,METAR VOHS 290300Z 26006KT 6000 NSC 28/13 Q1014 NOSIG
2026-03-29 02:30:00,METAR VOHS 290230Z 26005KT 6000 NSC 27/14 Q1013 NOSIG
2026-03-29 02:00:00,METAR VOHS 290200Z 25004KT 5000 HZ NSC 26/14 Q1013 NOSIG
2026-03-29 01:30:00,METAR VOHS 290130Z 26006KT 5000 HZ FEW020 24/14 Q1013 NOSIG
2026-03-29 01:00:00,METAR VOHS 290100Z 23006KT 5000 HZ FEW015 SCT100 24/15 Q1012 NOSIG
2026-03-29 00:30:00,METAR VOHS 290030Z 22007KT 5000 HZ FEW015 SCT100 25/14 Q1011 NOSIG
2026-03-29 00:00:00,METAR VOHS 290000Z 24007KT 5000 HZ FEW015 SCT100 25/14 Q1011 NOSIG
2026-03-28 23:30:00,METAR VOHS 282330Z 24008KT 5000 HZ FEW015 SCT100 25/14 Q1011 NOSIG
2026-03-28 23:00:00,METAR VOHS 282300Z 22006KT 5000 HZ FEW015 SCT100 25/15 Q1010 NOSIG
2026-03-28 22:30:00,METAR VOHS 282230Z 25005KT 5000 HZ FEW015 SCT100 24/15 Q1010 NOSIG
2026-03-28 22:00:00,METAR VOHS 282200Z 22005KT 5000 HZ FEW015 SCT100 24/15 Q1010 NOSIG
2026-03-28 21:30:00,METAR VOHS 282130Z VRB04KT 5000 HZ FEW015 SCT100 24/16 Q1010 NOSIG
2026-03-28 21:00:00,METAR VOHS 282100Z VRB04KT 5000 HZ FEW015 SCT100 24/16 Q1010 NOSIG
2026-03-28 20:30:00,METAR VOHS 282030Z VRB04KT 5000 HZ FEW015 SCT100 24/16 Q1010 NOSIG
2026-03-28 20:00:00,METAR VOHS 282000Z VRB04KT 5000 HZ FEW015 SCT100 25/16 Q1010 NOSIG
2026-03-28 19:30:00,METAR VOHS 281930Z VRB04KT 5000 HZ FEW015 SCT100 25/16 Q1011 NOSIG
2026-03-28 19:00:00,METAR VOHS 281900Z 10004KT 5000 HZ FEW015 SCT100 25/17 Q1011 NOSIG
2026-03-28 18:30:00,METAR VOHS 281830Z 10006KT 5000 HZ FEW015 SCT100 25/17 Q1011 NOSIG
2026-03-28 18:00:00,METAR VOHS 281800Z 19006KT 5000 HZ FEW015 SCT100 26/16 Q1011 NOSIG
2026-03-28 17:30:00,METAR VOHS 281730Z 19006KT 5000 HZ FEW015 SCT100 26/15 Q1011 NOSIG
2026-03-28 17:00:00,METAR VOHS 281700Z 19006KT 6000 FEW015 SCT100 27/15 Q1011 NOSIG
2026-03-28 16:30:00,METAR VOHS 281630Z 19006KT 6000 FEW015 SCT100 27/16 Q1011 NOSIG
2026-03-28 16:00:00,METAR VOHS 281600Z 19005KT 6000 FEW015 SCT100 27/16 Q1011 NOSIG
2026-03-28 15:30:00,METAR VOHS 281530Z 19005KT 6000 FEW015 SCT100 28/16 Q1011 NOSIG
2026-03-28 15:00:00,METAR VOHS 281500Z 19005KT 6000 FEW015 SCT100 28/16 Q1011 NOSIG
2026-03-28 14:30:00,METAR VOHS 281430Z 21005KT 6000 FEW015 FEW030TCU SCT100 29/16 Q1010 NOSIG
2026-03-28 14:00:00,METAR VOHS 281400Z 20004KT 6000 FEW015 FEW030TCU SCT100 29/17 Q1010 NOSIG
2026-03-28 13:30:00,METAR VOHS 281330Z 21005KT 6000 FEW015 FEW030TCU SCT100 30/17 Q1009 NOSIG
2026-03-28 13:00:00,METAR VOHS 281300Z 21005KT 6000 SCT015 FEW030TCU 30/17 Q1009 NOSIG
2026-03-28 12:30:00,METAR VOHS 281230Z 21005KT 6000 FEW015 SCT025 FEW030TCU 31/17 Q1009 NOSIG
2026-03-28 12:00:00,METAR VOHS 281200Z 21005KT 6000 FEW015 SCT025 32/17 Q1008 NOSIG
2026-03-28 11:30:00,METAR VOHS 281130Z 21005KT 6000 FEW015 SCT025 33/16 Q1008 NOSIG
2026-03-28 11:00:00,METAR VOHS 281100Z 23006KT 6000 FEW015 SCT025 34/15 Q1008 NOSIG
2026-03-28 10:30:00,METAR VOHS 281030Z 30004KT 6000 SCT015 34/15 Q1008 NOSIG
2026-03-28 10:00:00,METAR VOHS 281000Z 29005KT 6000 FEW020 34/14 Q1008 NOSIG
2026-03-28 09:30:00,METAR VOHS 280930Z 29005KT 6000 FEW020 34/14 Q1009 NOSIG
2026-03-28 09:00:00,METAR VOHS 280900Z 31009KT 6000 FEW020 34/14 Q1009 NOSIG
2026-03-28 08:30:00,METAR VOHS 280830Z 31008KT 6000 FEW020 34/14 Q1010 NOSIG
2026-03-28 07:30:00,METAR VOHS 280730Z 29009KT 6000 NSC 34/12 Q1011 NOSIG
2026-03-28 07:00:00,METAR VOHS 280700Z 34011KT 6000 NSC 34/11 Q1011 NOSIG
2026-03-28 06:30:00,METAR VOHS 280630Z 29010KT 6000 NSC 33/11 Q1012 NOSIG
2026-03-28 06:00:00,METAR VOHS 280600Z 30010KT 6000 NSC 32/12 Q1013 NOSIG
2026-03-28 05:30:00,METAR VOHS 280530Z 22005KT 6000 FEW020 32/17 Q1013 NOSIG
2026-03-28 05:00:00,METAR VOHS 280500Z 22008KT 6000 FEW020 31/18 Q1014 NOSIG
2026-03-28 04:30:00,METAR VOHS 280430Z 27007KT 6000 FEW020 SCT100 30/17 Q1014 NOSIG
2026-03-28 04:00:00,METAR VOHS 280400Z 27007KT 6000 FEW020 SCT100 29/18 Q1014 NOSIG
2026-03-28 03:30:00,METAR VOHS 280330Z 27006KT 5000 HZ SCT020 SCT100 27/18 Q1014 NOSIG
2026-03-28 03:00:00,METAR VOHS 280300Z 26005KT 5000 HZ SCT020 SCT100 26/18 Q1013 NOSIG
2026-03-28 02:30:00,METAR VOHS 280230Z 26005KT 5000 HZ SCT020 SCT100 26/18 Q1013 NOSIG
2026-03-28 02:00:00,METAR VOHS 280200Z 24006KT 5000 HZ SCT020 SCT100 25/18 Q1013 NOSIG
2026-03-28 01:30:00,METAR VOHS 280130Z 24005KT 5000 HZ SCT020 SCT100 24/18 Q1012 NOSIG
2026-03-28 01:00:00,METAR VOHS 280100Z 24005KT 5000 HZ SCT020 SCT100 24/18 Q1012 NOSIG
2026-03-28 00:30:00,METAR VOHS 280030Z 23006KT 6000 SCT020 SCT100 23/18 Q1012 TEMPO 5000 HZ
2026-03-28 00:00:00,METAR VOHS 280000Z 20003KT 6000 SCT020 SCT100 23/18 Q1012 NOSIG
2026-03-27 23:30:00,METAR VOHS 272330Z 22003KT 6000 SCT020 SCT100 23/18 Q1012 NOSIG
2026-03-27 23:00:00,METAR VOHS 272300Z 17004KT 6000 SCT020 SCT100 24/17 Q1012 NOSIG
2026-03-27 22:30:00,METAR VOHS 272230Z 17004KT 6000 SCT020 SCT100 24/18 Q1012 NOSIG
2026-03-27 22:00:00,METAR VOHS 272200Z 16004KT 6000 SCT015 SCT080 23/18 Q1012 NOSIG
2026-03-27 21:30:00,METAR VOHS 272130Z 19004KT 6000 SCT015 SCT080 22/19 Q1012 NOSIG
2026-03-27 21:00:00,METAR VOHS 272100Z VRB03KT 6000 SCT015 SCT080 22/18 Q1012 NOSIG
2026-03-27 20:30:00,METAR VOHS 272030Z VRB03KT 6000 SCT015 SCT080 23/18 Q1013 NOSIG
2026-03-27 20:00:00,METAR VOHS 272000Z 17008KT 4000 -DZ SCT015 BKN080 24/17 Q1013 NOSIG
2026-03-27 19:31:00,METAR VOHS 271931Z 17008KT 4000 -DZ SCT015 BKN080 24/17 Q1013 BECMG 6000
2026-03-27 18:32:00,METAR VOHS 271832Z 10006KT 4000 -RA SCT015 BKN080 23/20 Q1016 NOSIG
2026-03-27 18:30:00,METAR VOHS 271830Z 10006KT 4000 -RA SCT015 BKN080 24/20 Q1016 NOSIG
2026-03-27 18:02:00,METAR VOHS 271802Z 33005KT 4000 -RA SCT015 FEW030CB BKN080 26/17 Q1016 NOSIG
2026-03-27 18:00:00,METAR VOHS 271800Z 33005KT 4000 -RA SCT015 FEW030CB BKN080 26/17 Q1016 NOSIG
2026-03-27 17:30:00,METAR VOHS 271730Z 26008G20KT 4000 -TSRA SCT015 FEW030CB BKN080 24/19 Q1015 NOSIG
2026-03-27 17:00:00,METAR VOHS 271700Z 26010G20KT 4000 -TSRA SCT015 FEW030CB BKN080 25/18 Q1014 NOSIG
2026-03-27 16:30:00,METAR VOHS 271630Z 35009KT 4000 -TSRA SCT015 FEW030CB BKN080 26/18 Q1014 NOSIG
2026-03-25 15:00:00,METAR VOHS 251500Z 11004KT 5000 HZ FEW020 SCT100 25/17 Q1013 NOSIG
2026-03-25 14:30:00,METAR VOHS 251430Z 11004KT 5000 HZ FEW015 SCT100 26/16 Q1013 NOSIG
2026-03-25 14:00:00,METAR VOHS 251400Z VRB04KT 5000 HZ SCT015 BKN100 26/17 Q1013 NOSIG
2026-03-25 13:30:00,METAR VOHS 251330Z 24005KT 5000 HZ SCT015 BKN100 26/16 Q1013 NOSIG
2026-03-25 13:00:00,METAR VOHS 251300Z 17005KT 5000 HZ SCT015 FEW030CB BKN100 27/15 Q1013 NOSIG
2026-03-25 12:30:00,METAR VOHS 251230Z 14009KT 5000 HZ SCT015 FEW030CB BKN100 27/15 Q1012 NOSIG
2026-03-25 12:00:00,METAR VOHS 251200Z 14011KT 5000 HZ SCT015 FEW030CB BKN100 28/14 Q1012 NOSIG
2026-03-25 11:30:00,METAR VOHS 251130Z 11014KT 4000 HZ SCT015 FEW030CB BKN100 26/16 Q1012 NOSIG
2026-03-25 11:00:00,METAR VOHS 251100Z 08017G27KT 4000 VCRA TS SCT015 FEW030CB BKN080 27/17 Q1012 TEMPO 3000 TSRA
2026-03-25 10:30:00,METAR VOHS 251030Z 13010KT 5000 HZ FEW015 SCT025 FEW030CB 31/16 Q1011 TEMPO 3000 TSRA
2026-03-25 10:00:00,METAR VOHS 251000Z 35005KT 6000 FEW015 SCT025 FEW030CB 34/15 Q1011 TEMPO 5000 HZ
2026-03-25 09:30:00,METAR VOHS 250930Z VRB03KT 6000 FEW015 SCT025 FEW030CB 34/16 Q1012 NOSIG
2026-03-25 09:00:00,METAR VOHS 250900Z 22004KT 6000 FEW015 SCT025 34/16 Q1012 NOSIG
2026-03-25 08:30:00,METAR VOHS 250830Z 20004KT 6000 FEW015 SCT025 34/17 Q1013 NOSIG
2026-03-25 08:00:00,METAR VOHS 250800Z 22006KT 6000 FEW020 34/16 Q1013 NOSIG
2026-03-25 07:30:00,METAR VOHS 250730Z 22006KT 6000 FEW020 33/17 Q1014 NOSIG
2026-03-25 07:00:00,METAR VOHS 250700Z 22008KT 6000 FEW020 33/17 Q1014 NOSIG
2026-03-25 06:30:00,METAR VOHS 250630Z VRB03KT 6000 FEW020 32/18 Q1015 NOSIG
2026-03-25 06:00:00,METAR VOHS 250600Z VRB04KT 6000 FEW020 31/19 Q1016 NOSIG
2026-03-25 05:30:00,METAR VOHS 250530Z 22006KT 6000 FEW020 31/20 Q1016 NOSIG
2026-03-25 05:00:00,METAR VOHS 250500Z 25007KT 6000 FEW020 30/20 Q1016 NOSIG
2026-03-25 04:30:00,METAR VOHS 250430Z 25005KT 6000 FEW020 29/21 Q1016 NOSIG
2026-03-25 04:00:00,METAR VOHS 250400Z 22005KT 6000 FEW020 29/20 Q1016 NOSIG
2026-03-25 03:30:00,METAR VOHS 250330Z VRB03KT 5000 HZ FEW020 SCT100 27/21 Q1016 NOSIG
2026-03-25 03:00:00,METAR VOHS 250300Z VRB02KT 5000 HZ FEW020 SCT100 26/21 Q1015 NOSIG
2026-03-25 02:30:00,METAR VOHS 250230Z VRB02KT 4000 BR SCT020 SCT100 25/22 Q1015 BECMG 5000 HZ
2026-03-25 02:00:00,METAR VOHS 250200Z 12003KT 4000 BR SCT020 SCT100 24/21 Q1014 NOSIG
2026-03-25 01:30:00,METAR VOHS 250130Z 13003KT 4000 BR SCT020 SCT100 23/21 Q1014 NOSIG
2026-03-25 01:00:00,METAR VOHS 250100Z VRB01KT 4000 BR SCT020 SCT100 23/21 Q1013 TEMPO 3000 BR
2026-03-25 00:30:00,METAR VOHS 250030Z 19004KT 4000 BR SCT020 SCT100 22/21 Q1013 TEMPO 3000 BR
2026-03-25 00:00:00,METAR VOHS 250000Z VRB02KT 5000 BR FEW020 SCT100 23/22 Q1012 NOSIG
2026-03-24 23:30:00,METAR VOHS 242330Z 24003KT 5000 BR FEW020 SCT100 23/22 Q1012 NOSIG
2026-03-24 23:00:00,METAR VOHS 242300Z VRB02KT 5000 BR FEW020 SCT100 23/21 Q1012 NOSIG
2026-03-24 22:30:00,METAR VOHS 242230Z 26004KT 5000 BR FEW020 SCT100 23/22 Q1012 NOSIG
2026-03-24 22:00:00,METAR VOHS 242200Z 09005KT 5000 BR FEW020 SCT100 24/21 Q1012 NOSIG
2026-03-24 21:30:00,METAR VOHS 242130Z VRB02KT 5000 BR FEW020 SCT100 24/21 Q1013 NOSIG
2026-03-24 21:00:00,METAR VOHS 242100Z VRB03KT 5000 BR FEW020 SCT100 24/21 Q1013 NOSIG
2026-03-24 20:30:00,METAR VOHS 242030Z VRB03KT 5000 BR FEW020 SCT100 24/22 Q1013 NOSIG
2026-03-24 20:00:00,METAR VOHS 242000Z VRB02KT 5000 BR FEW020 SCT100 24/21 Q1013 NOSIG
2026-03-24 19:30:00,METAR VOHS 241930Z VRB04KT 5000 BR FEW020 SCT100 24/21 Q1013 NOSIG
2026-03-24 19:00:00,METAR VOHS 241900Z 10002KT 5000 BR FEW020 SCT100 24/21 Q1014 NOSIG
2026-03-24 18:30:00,METAR VOHS 241830Z 10004KT 5000 TS FEW020 FEW030CB SCT100 24/21 Q1014 NOSIG
2026-03-24 18:00:00,METAR VOHS 241800Z VRB02KT 5000 BR FEW020 SCT100 25/21 Q1014 NOSIG
2026-03-24 17:30:00,METAR VOHS 241730Z 18003KT 5000 BR FEW020 SCT100 25/21 Q1014 NOSIG
2026-03-24 17:00:00,METAR VOHS 241700Z 12005KT 5000 BR SCT020 BKN100 25/21 Q1014 NOSIG
2026-03-24 16:30:00,METAR VOHS 241630Z 14004KT 5000 BR SCT020 BKN100 25/21 Q1014 NOSIG
2026-03-24 16:00:00,METAR VOHS 241600Z 14003KT 5000 BR SCT020 BKN100 25/21 Q1014 NOSIG
2026-03-24 15:30:00,METAR VOHS 241530Z 16004KT 5000 BR SCT020 BKN100 25/21 Q1013 NOSIG
2026-03-24 15:00:00,METAR VOHS 241500Z VRB04KT 5000 -DZ SCT020 BKN100 25/21 Q1014 NOSIG
2026-03-24 14:30:00,METAR VOHS 241430Z 10008KT 5000 TSRA SCT020 FEW030CB BKN100 26/20 Q1014 NOSIG
2026-03-24 14:00:00,METAR VOHS 241400Z 32012G22KT 5000 TS SCT020 FEW030CB BKN100 26/19 Q1014 TEMPO 3000 TSRA
2026-03-24 13:34:00,METAR VOHS 241334Z VRB04KT 5000 -DZ SCT020 FEW030CB BKN100 28/18 Q1013 BECMG 6000
2026-03-24 13:00:00,METAR VOHS 241300Z 10008KT 5000 -DZ SCT015 FEW030CB BKN100 29/20 Q1012 TEMPO 3000 -TSRA
2026-03-24 12:30:00,METAR VOHS 241230Z 10009KT 6000 SCT020 FEW030CB BKN100 30/19 Q1011 NOSIG
2026-03-24 12:00:00,METAR VOHS 241200Z 10008KT 6000 SCT020 FEW030CB BKN100 31/17 Q1011 NOSIG
2026-03-24 11:30:00,METAR VOHS 241130Z 10006KT 6000 SCT020 FEW030CB BKN100 31/17 Q1011 NOSIG
2026-03-24 11:00:00,METAR VOHS 241100Z VRB04KT 6000 SCT020 FEW030CB BKN100 32/16 Q1011 NOSIG
2026-03-24 10:30:00,METAR VOHS 241030Z COR VRB04KT 6000 SCT020 FEW030TCU BKN100 32/16 Q1011 TEMPO 5000 RA
2026-03-24 10:01:00,METAR VOHS 241001Z 08005KT 6000 SCT020 FEW030TCU SCT100 32/16 Q1011 NOSIG
2026-03-24 09:30:00,METAR VOHS 240930Z 10006KT 6000 SCT020 SCT100 33/17 Q1011 NOSIG
2026-03-24 09:00:00,METAR VOHS 240900Z 24006KT 6000 FEW020 33/17 Q1012 NOSIG
2026-03-24 08:30:00,METAR VOHS 240830Z 24005KT 6000 FEW020 33/17 Q1012 NOSIG
2026-03-24 08:00:00,METAR VOHS 240800Z 23006KT 6000 FEW020 33/17 Q1013 NOSIG
2026-03-24 07:30:00,METAR VOHS 240730Z VRB04KT 6000 FEW020 33/17 Q1013 NOSIG
2026-03-24 07:00:00,METAR VOHS 240700Z 20006KT 6000 FEW020 32/18 Q1014 NOSIG
2026-03-24 06:30:00,METAR VOHS 240630Z 20006KT 6000 NSC 32/18 Q1014 NOSIG
2026-03-24 06:00:00,METAR VOHS 240600Z 18006KT 6000 NSC 31/18 Q1015 NOSIG
2026-03-24 05:30:00,METAR VOHS 240530Z 20007KT 6000 NSC 31/18 Q1015 NOSIG
2026-03-24 05:00:00,METAR VOHS 240500Z 18006KT 6000 NSC 31/18 Q1015 NOSIG
2026-03-24 04:30:00,METAR VOHS 240430Z 20006KT 6000 NSC 30/18 Q1016 NOSIG
2026-03-24 04:00:00,METAR VOHS 240400Z 20006KT 6000 NSC 29/19 Q1016 NOSIG
2026-03-24 03:30:00,METAR VOHS 240330Z 20005KT 6000 NSC 28/20 Q1016 NOSIG
2026-03-24 03:00:00,METAR VOHS 240300Z 10005KT 6000 NSC 26/20 Q1015 NOSIG
2026-03-24 02:30:00,METAR VOHS 240230Z 10005KT 6000 NSC 25/20 Q1015 NOSIG
2026-03-24 02:00:00,METAR VOHS 240200Z 09003KT 6000 NSC 23/20 Q1014 NOSIG
2026-03-24 01:30:00,METAR VOHS 240130Z 19003KT 6000 NSC 22/20 Q1014 NOSIG
2026-03-24 01:00:00,METAR VOHS 240100Z 15005KT 6000 SCT020 22/20 Q1014 NOSIG
2026-03-24 00:30:00,METAR VOHS 240030Z 13005KT 6000 SCT020 22/20 Q1013 NOSIG
2026-03-24 00:00:00,METAR VOHS 240000Z 13004KT 6000 SCT020 22/20 Q1013 NOSIG
2026-03-23 23:30:00,METAR VOHS 232330Z VRB03KT 6000 SCT020 23/20 Q1013 NOSIG
2026-03-23 23:00:00,METAR VOHS 232300Z VRB03KT 6000 SCT020 23/20 Q1013 NOSIG
2026-03-23 22:30:00,METAR VOHS 232230Z VRB03KT 6000 SCT020 23/20 Q1013 NOSIG
2026-03-23 22:00:00,METAR VOHS 232200Z VRB03KT 6000 SCT020 22/20 Q1013 NOSIG
2026-03-23 21:30:00,METAR VOHS 232130Z VRB03KT 6000 SCT020 23/20 Q1013 NOSIG
2026-03-23 21:00:00,METAR VOHS 232100Z VRB02KT 6000 SCT020 23/20 Q1013 NOSIG
2026-03-23 20:30:00,METAR VOHS 232030Z 10005KT 6000 SCT020 24/20 Q1014 NOSIG
2026-03-23 20:00:00,METAR VOHS 232000Z 10005KT 6000 SCT020 24/20 Q1014 NOSIG
2026-03-23 19:30:00,METAR VOHS 231930Z 10005KT 6000 SCT020 24/20 Q1014 NOSIG
2026-03-23 19:00:00,METAR VOHS 231900Z 10005KT 6000 SCT020 25/20 Q1014 NOSIG
2026-03-23 18:30:00,METAR VOHS 231830Z 10005KT 6000 SCT020 25/20 Q1014 NOSIG
2026-03-23 18:00:00,METAR VOHS 231800Z 10007KT 6000 SCT020 25/20 Q1015 NOSIG
2026-03-23 17:30:00,METAR VOHS 231730Z 10007KT 6000 SCT020 26/20 Q1015 NOSIG
2026-03-23 17:00:00,METAR VOHS 231700Z 10006KT 6000 SCT020 25/20 Q1015 NOSIG
2026-03-23 16:30:00,METAR VOHS 231630Z 10006KT 6000 SCT020 26/20 Q1015 NOSIG
2026-03-23 16:00:00,METAR VOHS 231600Z 10007KT 6000 SCT020 26/19 Q1015 NOSIG
2026-03-23 15:30:00,METAR VOHS 231530Z 10007KT 6000 SCT020 27/19 Q1015 NOSIG
2026-03-23 15:00:00,METAR VOHS 231500Z 11006KT 6000 SCT020 27/18 Q1014 NOSIG
2026-03-23 14:30:00,METAR VOHS 231430Z 11006KT 6000 SCT015 27/18 Q1014 NOSIG
2026-03-23 14:00:00,METAR VOHS 231400Z 10008KT 6000 SCT015 28/18 Q1014 NOSIG
2026-03-23 13:30:00,METAR VOHS 231330Z 10008KT 6000 SCT015 28/17 Q1013 NOSIG
2026-03-23 13:00:00,METAR VOHS 231300Z 11006KT 6000 SCT015 29/17 Q1013 NOSIG
2026-03-23 12:30:00,METAR VOHS 231230Z 10008KT 6000 SCT015 30/17 Q1013 NOSIG
2026-03-23 12:00:00,METAR VOHS 231200Z 10010KT 6000 SCT015 BKN100 30/17 Q1013 NOSIG
2026-03-23 11:30:00,METAR VOHS 231130Z 09013KT 6000 SCT015 BKN100 31/17 Q1012 NOSIG
2026-03-23 11:00:00,METAR VOHS 231100Z 08012KT 6000 SCT015 BKN100 31/17 Q1012 NOSIG
2026-03-23 10:30:00,METAR VOHS 231030Z 12006KT 6000 SCT015 BKN100 32/16 Q1012 NOSIG
2026-03-23 10:00:00,METAR VOHS 231000Z 12007KT 6000 SCT015 BKN100 32/16 Q1012 NOSIG
2026-03-23 09:30:00,METAR VOHS 230930Z 12005KT 6000 SCT015 BKN100 33/16 Q1013 NOSIG
2026-03-23 09:00:00,METAR VOHS 230900Z 12004KT 6000 SCT015 BKN100 32/16 Q1013 NOSIG
2026-03-23 08:30:00,METAR VOHS 230830Z 12005KT 6000 SCT015 BKN100 31/15 Q1013 NOSIG
2026-03-23 08:00:00,METAR VOHS 230800Z 17007KT 6000 SCT015 32/15 Q1014 NOSIG
2026-03-23 07:30:00,METAR VOHS 230730Z 17005KT 6000 FEW020 31/15 Q1014 NOSIG
2026-03-23 07:00:00,METAR VOHS 230700Z 18006KT 6000 FEW020 32/15 Q1014 NOSIG
2026-03-23 06:30:00,METAR VOHS 230630Z 15006KT 6000 FEW020 32/16 Q1015 NOSIG
2026-03-23 06:00:00,METAR VOHS 230600Z 17006KT 6000 FEW020 31/16 Q1016 NOSIG
2026-03-23 05:30:00,METAR VOHS 230530Z 13007KT 6000 FEW020 30/17 Q1016 NOSIG
2026-03-23 05:00:00,METAR VOHS 230500Z 15010KT 6000 FEW020 30/17 Q1016 NOSIG
2026-03-23 04:30:00,METAR VOHS 230430Z 15007KT 6000 SCT020 29/17 Q1017 NOSIG
2026-03-23 04:00:00,METAR VOHS 230400Z 15007KT 6000 SCT020 28/16 Q1017 NOSIG
2026-03-23 03:30:00,METAR VOHS 230330Z VRB04KT 6000 SCT020 27/18 Q1017 NOSIG
2026-03-23 03:00:00,METAR VOHS 230300Z VRB04KT 6000 SCT020 25/19 Q1017 NOSIG
2026-03-23 02:30:00,METAR VOHS 230230Z COR VRB04KT 6000 SCT020 24/20 Q1016 NOSIG
2026-03-23 02:00:00,METAR VOHS 230200Z VRB04KT 5000 BR SCT020 SCT100 23/20 Q1016 BECMG 6000
2026-03-23 01:30:00,METAR VOHS 230130Z VRB04KT 5000 BR SCT020 SCT100 23/21 Q1015 NOSIG
2026-03-23 01:00:00,METAR VOHS 230100Z VRB04KT 5000 BR SCT020 SCT100 22/21 Q1015 NOSIG
2026-03-23 00:30:00,METAR VOHS 230030Z VRB04KT 5000 BR SCT020 22/21 Q1015 TEMPO 3000
2026-03-23 00:00:00,METAR VOHS 230000Z VRB04KT 5000 BR SCT020 22/21 Q1014 NOSIG
2026-03-22 23:30:00,METAR VOHS 222330Z VRB04KT 5000 BR SCT020 22/21 Q1014 NOSIG
2026-03-22 23:00:00,METAR VOHS 222300Z 09005KT 5000 BR SCT020 22/21 Q1014 NOSIG
2026-03-22 22:30:00,METAR VOHS 222230Z 09005KT 5000 BR SCT020 23/21 Q1014 NOSIG
2026-03-22 22:00:00,METAR VOHS 222200Z 09005KT 5000 BR SCT020 23/21 Q1014 NOSIG
2026-03-22 21:30:00,METAR VOHS 222130Z 11005KT 5000 BR SCT020 23/21 Q1014 NOSIG
2026-03-22 21:00:00,METAR VOHS 222100Z 10005KT 5000 BR SCT020 23/21 Q1014 NOSIG
2026-03-22 20:30:00,METAR VOHS 222030Z 09006KT 5000 BR SCT020 23/21 Q1015 NOSIG
2026-03-22 20:00:00,METAR VOHS 222000Z COR 09007KT 5000 BR SCT020 24/21 Q1015 NOSIG
2026-03-22 19:30:00,METAR VOHS 221930Z 09006KT 5000 BR SCT020 24/21 Q1015 NOSIG
2026-03-22 19:00:00,METAR VOHS 221900Z 10006KT 6000 SCT020 24/21 Q1016 TEMPO 5000 BR
2026-03-22 18:30:00,METAR VOHS 221830Z 09006KT 6000 SCT020 24/20 Q1016 NOSIG
2026-03-22 18:00:00,METAR VOHS 221800Z 09007KT 6000 SCT020 25/20 Q1016 NOSIG
2026-03-22 17:30:00,METAR VOHS 221730Z 09008KT 6000 SCT020 25/20 Q1016 NOSIG
2026-03-22 17:00:00,METAR VOHS 221700Z 09008KT 6000 FEW020 26/20 Q1016 NOSIG
2026-03-22 16:30:00,METAR VOHS 221630Z 06010KT 6000 FEW020 SCT100 27/20 Q1016 NOSIG
2026-03-22 16:00:00,METAR VOHS 221600Z 06010KT 6000 FEW020 SCT100 27/20 Q1016 NOSIG
2026-03-22 15:30:00,METAR VOHS 221530Z 09007KT 6000 FEW020 SCT100 26/20 Q1015 NOSIG
2026-03-22 15:00:00,METAR VOHS 221500Z 08007KT 6000 FEW020 SCT100 26/20 Q1015 NOSIG
2026-03-22 14:30:00,METAR VOHS 221430Z 06009KT 6000 SCT015 BKN025 27/20 Q1015 NOSIG
2026-03-22 14:00:00,METAR VOHS 221400Z 09007KT 6000 SCT015 BKN025 27/20 Q1014 NOSIG
2026-03-22 13:30:00,METAR VOHS 221330Z 10007KT 6000 SCT015 BKN025 27/20 Q1014 NOSIG
2026-03-22 13:00:00,METAR VOHS 221300Z 10007KT 6000 SCT015 BKN025 28/20 Q1013 NOSIG
2026-03-22 12:30:00,METAR VOHS 221230Z 10007KT 6000 SCT015 BKN025 28/20 Q1013 NOSIG
2026-03-22 12:00:00,METAR VOHS 221200Z 09010KT 6000 SCT015 BKN025 29/19 Q1013 NOSIG
2026-03-22 11:30:00,METAR VOHS 221130Z 09011KT 6000 SCT015 BKN025 30/19 Q1013 NOSIG
2026-03-22 11:00:00,METAR VOHS 221100Z 07010KT 6000 SCT015 BKN025 31/18 Q1013 NOSIG
2026-03-22 10:30:00,METAR VOHS 221030Z VRB03KT 6000 SCT015 BKN025 32/16 Q1012 NOSIG
2026-03-22 10:00:00,METAR VOHS 221000Z 24004KT 6000 SCT015 BKN025 32/16 Q1013 NOSIG
2026-03-22 09:30:00,METAR VOHS 220930Z VRB01KT 6000 SCT015 BKN025 31/16 Q1013 NOSIG
2026-03-22 09:00:00,METAR VOHS 220900Z 09005KT 6000 SCT015 BKN025 30/17 Q1013 NOSIG
2026-03-22 08:30:00,METAR VOHS 220830Z 09005KT 6000 SCT015 BKN025 30/17 Q1014 NOSIG
2026-03-22 08:00:00,METAR VOHS 220800Z 08007KT 6000 SCT015 BKN025 31/17 Q1014 NOSIG
2026-03-22 07:30:00,METAR VOHS 220730Z VRB02KT 6000 SCT015 BKN025 30/17 Q1015 NOSIG
2026-03-22 07:00:00,METAR VOHS 220700Z 12007KT 6000 SCT015 BKN025 31/17 Q1015 NOSIG
2026-03-22 06:30:00,METAR VOHS 220630Z 07005KT 6000 SCT020 BKN025 31/17 Q1016 NOSIG
2026-03-22 06:00:00,METAR VOHS 220600Z 10005KT 6000 SCT020 SCT025 30/17 Q1016 NOSIG
2026-03-22 05:30:00,METAR VOHS 220530Z 11006KT 6000 SCT020 SCT025 30/17 Q1016 NOSIG
2026-03-22 05:00:00,METAR VOHS 220500Z 11005KT 6000 NSC 30/18 Q1017 NOSIG
2026-03-22 04:30:00,METAR VOHS 220430Z 11005KT 6000 NSC 29/18 Q1017 NOSIG
2026-03-22 04:00:00,METAR VOHS 220400Z 12005KT 6000 NSC 29/19 Q1017 NOSIG
2026-03-22 03:30:00,METAR VOHS 220330Z VRB03KT 6000 NSC 27/21 Q1017 NOSIG
2026-03-22 03:00:00,METAR VOHS 220300Z 13004KT 6000 FEW020 SCT100 26/20 Q1016 NOSIG
2026-03-22 02:30:00,METAR VOHS 220230Z 12003KT 4000 HZ FEW020 SCT100 24/20 Q1016 BECMG 6000
2026-03-22 02:00:00,METAR VOHS 220200Z 12003KT 4000 BR FEW020 SCT100 23/21 Q1016 NOSIG
2026-03-22 01:30:00,METAR VOHS 220130Z 09003KT 4000 BR SCT020 BKN100 22/20 Q1015 NOSIG
2026-03-22 01:00:00,METAR VOHS 220100Z 10004KT 5000 BR SCT020 SCT100 21/20 Q1014 TEMPO 3000 BR
2026-03-22 00:30:00,METAR VOHS 220030Z 09003KT 5000 BR SCT020 SCT100 22/20 Q1014 NOSIG
2026-03-22 00:00:00,METAR VOHS 220000Z COR 09003KT 5000 BR SCT020 SCT100 21/20 Q1014 NOSIG
2026-03-21 23:30:00,METAR VOHS 212330Z 12003KT 5000 BR SCT020 SCT100 21/20 Q1013 NOSIG
2026-03-21 23:00:00,METAR VOHS 212300Z 12003KT 5000 BR SCT020 SCT100 21/20 Q1013 NOSIG
2026-03-21 22:30:00,METAR VOHS 212230Z 09003KT 5000 BR SCT020 SCT100 21/20 Q1013 NOSIG
2026-03-21 22:00:00,METAR VOHS 212200Z 08003KT 5000 BR SCT020 SCT100 22/20 Q1013 NOSIG
2026-03-21 21:30:00,METAR VOHS 212130Z 08003KT 5000 BR SCT020 SCT100 22/20 Q1013 NOSIG
2026-03-21 21:00:00,METAR VOHS 212100Z VRB02KT 5000 BR SCT020 SCT100 23/20 Q1013 NOSIG
2026-03-21 20:30:00,METAR VOHS 212030Z VRB02KT 5000 BR SCT020 SCT100 23/21 Q1014 NOSIG
2026-03-21 20:00:00,METAR VOHS 212000Z 13003KT 5000 BR SCT020 SCT100 23/21 Q1014 NOSIG
2026-03-21 19:30:00,METAR VOHS 211930Z 09003KT 5000 BR SCT020 SCT100 22/20 Q1014 NOSIG
2026-03-21 19:00:00,METAR VOHS 211900Z 12003KT 5000 BR SCT020 SCT100 23/20 Q1015 NOSIG
2026-03-21 18:30:00,METAR VOHS 211830Z 11004KT 5000 BR SCT020 SCT100 23/20 Q1015 NOSIG
2026-03-21 18:00:00,METAR VOHS 211800Z 10005KT 5000 BR SCT020 SCT100 24/20 Q1015 NOSIG
2026-03-21 17:30:00,METAR VOHS 211730Z 10008KT 5000 BR SCT020 SCT100 24/20 Q1015 NOSIG
2026-03-21 17:00:00,METAR VOHS 211700Z 09009KT 5000 HZ SCT020 SCT100 25/21 Q1015 NOSIG
2026-03-21 16:30:00,METAR VOHS 211630Z 10006KT 5000 HZ SCT020 SCT100 25/20 Q1015 NOSIG
2026-03-21 16:00:00,METAR VOHS 211600Z 10006KT 5000 HZ SCT020 SCT100 25/20 Q1015 NOSIG
2026-03-21 15:30:00,METAR VOHS 211530Z 11005KT 5000 HZ SCT020 SCT100 25/20 Q1015 NOSIG
2026-03-21 14:30:00,METAR VOHS 211430Z 14007KT 5000 VCTS SCT020 FEW030CB BKN100 26/19 Q1014 NOSIG
2026-03-21 14:00:00,METAR VOHS 211400Z 08008KT 5000 VCTS SCT020 FEW030CB BKN100 27/19 Q1013 NOSIG
2026-03-21 13:30:00,METAR VOHS 211330Z 06009KT 6000 SCT020 FEW030CB BKN100 28/19 Q1013 NOSIG
2026-03-21 13:00:00,METAR VOHS 211300Z 06009KT 6000 SCT020 FEW030CB BKN100 29/18 Q1013 NOSIG
2026-03-21 12:30:00,METAR VOHS 211230Z 06009KT 6000 SCT020 FEW030CB BKN100 30/18 Q1012 NOSIG
2026-03-21 12:00:00,METAR VOHS 211200Z 08006KT 6000 SCT020 SCT100 30/18 Q1012 NOSIG
2026-03-21 11:30:00,METAR VOHS 211130Z 10008KT 6000 SCT020 SCT100 30/18 Q1012 NOSIG
2026-03-21 11:00:00,METAR VOHS 211100Z 11008KT 6000 SCT020 SCT025 30/18 Q1011 NOSIG
2026-03-21 10:30:00,METAR VOHS 211030Z 11007KT 6000 SCT020 SCT025 31/18 Q1011 NOSIG
2026-03-21 10:00:00,METAR VOHS 211000Z 29006KT 6000 SCT020 SCT025 31/18 Q1011 NOSIG
2026-03-21 09:30:00,METAR VOHS 210930Z VRB04KT 6000 SCT020 SCT025 31/16 Q1012 NOSIG
2026-03-21 09:00:00,METAR VOHS 210900Z VRB04KT 6000 SCT020 SCT025 32/16 Q1012 NOSIG
2026-03-21 08:30:00,METAR VOHS 210830Z VRB04KT 6000 SCT020 SCT025 31/16 Q1013 NOSIG
2026-03-21 08:00:00,METAR VOHS 210800Z 33005KT 6000 SCT020 SCT025 30/17 Q1013 NOSIG
2026-03-21 07:00:00,METAR VOHS 210700Z VRB04KT 6000 SCT020 SCT025 31/18 Q1014 NOSIG
2026-03-21 06:30:00,METAR VOHS 210630Z VRB04KT 6000 SCT020 SCT025 28/19 Q1015 NOSIG
2026-03-21 06:00:00,METAR VOHS 210600Z VRB04KT 6000 SCT020 SCT025 29/18 Q1015 NOSIG
2026-03-21 05:30:00,METAR VOHS 210530Z VRB04KT 6000 SCT020 29/18 Q1016 NOSIG
2026-03-21 05:00:00,METAR VOHS 210500Z VRB04KT 6000 SCT020 28/19 Q1016 NOSIG
2026-03-21 04:30:00,METAR VOHS 210430Z VRB04KT 6000 SCT020 BKN080 27/19 Q1016 NOSIG
2026-03-21 04:00:00,METAR VOHS 210400Z COR 36005KT 6000 SCT020 BKN080 26/19 Q1016 NOSIG
2026-03-21 03:30:00,METAR VOHS 210330Z 34006KT 6000 BKN020 25/20 Q1016 NOSIG
2026-03-21 03:00:00,METAR VOHS 210300Z VRB04KT 6000 SCT020 25/20 Q1015 NOSIG
2026-03-21 02:30:00,METAR VOHS 210230Z VRB04KT 6000 SCT020 24/20 Q1015 NOSIG
2026-03-21 02:00:00,METAR VOHS 210200Z VRB04KT 6000 SCT020 23/20 Q1015 NOSIG
2026-03-21 01:30:00,METAR VOHS 210130Z VRB04KT 6000 SCT020 21/19 Q1014 NOSIG
2026-03-21 01:00:00,METAR VOHS 210100Z VRB04KT 6000 SCT020 SCT100 20/19 Q1014 NOSIG
2026-03-21 00:30:00,METAR VOHS 210030Z 14004KT 6000 FEW020 21/19 Q1013 NOSIG
2026-03-20 23:30:00,METAR VOHS 202330Z 13005KT 6000 FEW020 21/19 Q1012 NOSIG
2026-03-20 23:00:00,METAR VOHS 202300Z 13005KT 6000 FEW020 22/19 Q1012 NOSIG
2026-03-20 22:30:00,METAR VOHS 202230Z 13005KT 6000 FEW020 22/19 Q1012 NOSIG
2026-03-20 22:00:00,METAR VOHS 202200Z 13005KT 6000 FEW020 22/19 Q1012 NOSIG
2026-03-20 21:30:00,METAR VOHS 202130Z 13006KT 6000 FEW020 22/19 Q1012 NOSIG
2026-03-20 21:00:00,METAR VOHS 202100Z 13005KT 6000 FEW020 22/19 Q1012 NOSIG
2026-03-20 20:30:00,METAR VOHS 202030Z 12005KT 6000 FEW020 22/19 Q1012 NOSIG
2026-03-20 20:00:00,METAR VOHS 202000Z 12005KT 6000 FEW020 22/19 Q1013 NOSIG
2026-03-20 19:30:00,METAR VOHS 201930Z 12005KT 6000 FEW020 22/19 Q1013 NOSIG
2026-03-20 19:00:00,METAR VOHS 201900Z 12005KT 6000 FEW020 23/19 Q1013 NOSIG
2026-03-20 18:30:00,METAR VOHS 201830Z 12005KT 6000 FEW020 22/19 Q1013 NOSIG
2026-03-20 18:00:00,METAR VOHS 201800Z 12005KT 6000 FEW020 23/19 Q1013 NOSIG
2026-03-20 17:30:00,METAR VOHS 201730Z 12005KT 6000 FEW020 23/19 Q1013 NOSIG
2026-03-20 17:00:00,METAR VOHS 201700Z 12005KT 6000 FEW020 24/19 Q1014 NOSIG
2026-03-20 16:30:00,METAR VOHS 201630Z 13005KT 6000 FEW020 24/18 Q1014 NOSIG
2026-03-20 16:00:00,METAR VOHS 201600Z 13005KT 6000 FEW020 24/18 Q1013 NOSIG
2026-03-20 15:30:00,METAR VOHS 201530Z 13005KT 6000 FEW025 24/18 Q1013 NOSIG
2026-03-20 15:00:00,METAR VOHS 201500Z 08006KT 6000 FEW025 24/18 Q1013 NOSIG
2026-03-20 14:30:00,METAR VOHS 201430Z VRB04KT 6000 FEW025 25/18 Q1012 NOSIG
2026-03-20 14:00:00,METAR VOHS 201400Z VRB02KT 6000 FEW025 28/14 Q1012 NOSIG
2026-03-20 13:30:00,METAR VOHS 201330Z VRB02KT 6000 FEW025 27/19 Q1011 NOSIG
2026-03-20 13:00:00,METAR VOHS 201300Z VRB02KT 6000 FEW025 27/19 Q1011 NOSIG
2026-03-20 12:30:00,METAR VOHS 201230Z 23004KT 6000 FEW025 28/16 Q1011 NOSIG
2026-03-20 12:00:00,METAR VOHS 201200Z 25004KT 6000 FEW020 SCT025 28/16 Q1011 NOSIG
2026-03-20 11:30:00,METAR VOHS 201130Z 25005KT 6000 FEW020 SCT025 29/15 Q1011 NOSIG
2026-03-20 11:00:00,METAR VOHS 201100Z 24006KT 5000 -RA FEW020 SCT025 FEW030CB 29/17 Q1011 NOSIG
2026-03-20 10:30:00,METAR VOHS 201030Z 25004KT 6000 FEW020 SCT025 FEW030TCU 29/16 Q1011 NOSIG
2026-03-20 10:00:00,METAR VOHS 201000Z 28004KT 6000 FEW020 SCT025 30/14 Q1011 NOSIG
2026-03-20 09:30:00,METAR VOHS 200930Z 22005KT 6000 FEW025 31/14 Q1011 NOSIG
2026-03-20 09:00:00,METAR VOHS 200900Z 23004KT 6000 FEW020 30/15 Q1012 NOSIG
2026-03-20 08:30:00,METAR VOHS 200830Z 25007KT 6000 FEW020 30/15 Q1013 NOSIG
2026-03-20 08:00:00,METAR VOHS 200800Z 25006KT 6000 FEW020 30/15 Q1013 NOSIG
2026-03-20 07:30:00,METAR VOHS 200730Z 25006KT 6000 FEW020 30/16 Q1014 NOSIG
2026-03-20 07:00:00,METAR VOHS 200700Z 32005KT 6000 FEW020 29/15 Q1014 NOSIG
2026-03-20 06:30:00,METAR VOHS 200630Z 28005KT 6000 FEW020 28/16 Q1015 NOSIG
2026-03-20 06:00:00,METAR VOHS 200600Z 27004KT 6000 NSC 28/16 Q1015 NOSIG
2026-03-20 05:30:00,METAR VOHS 200530Z 27005KT 6000 NSC 28/16 Q1016 NOSIG
2026-03-20 05:00:00,METAR VOHS 200500Z 35005KT 6000 NSC 27/15 Q1016 NOSIG
2026-03-20 04:30:00,METAR VOHS 200430Z 32005KT 6000 NSC 25/16 Q1016 NOSIG
2026-03-20 04:00:00,METAR VOHS 200400Z 35005KT 6000 NSC 24/18 Q1016 NOSIG
2026-03-20 03:30:00,METAR VOHS 200330Z 35005KT 6000 NSC 23/18 Q1016 NOSIG
2026-03-20 03:00:00,METAR VOHS 200300Z 02005KT 6000 NSC 22/18 Q1016 NOSIG
2026-03-20 02:30:00,METAR VOHS 200230Z 34005KT 5000 BR FEW020 SCT100 21/19 Q1016 NOSIG
2026-03-20 02:00:00,METAR VOHS 200200Z VRB01KT 5000 BR FEW020 SCT100 19/18 Q1015 NOSIG
2026-03-20 01:30:00,METAR VOHS 200130Z 21004KT 5000 BR FEW020 SCT100 18/17 Q1015 NOSIG
2026-03-20 01:00:00,METAR VOHS 200100Z VRB02KT 5000 BR SCT015 SCT100 18/17 Q1015 NOSIG
2026-03-20 00:30:00,METAR VOHS 200030Z 31004KT 5000 BR SCT020 SCT100 18/17 Q1015 NOSIG
2026-03-20 00:00:00,METAR VOHS 200000Z VRB02KT 6000 SCT020 SCT100 18/17 Q1014 BECMG 5000 BR
2026-03-20 00:00:00,METAR VOHS 200000Z 14005KT 6000 FEW020 21/19 Q1012 NOSIG
2026-03-19 23:30:00,METAR VOHS 192330Z 08007KT 6000 SCT020 SCT100 18/17 Q1013 NOSIG
2026-03-19 23:00:00,METAR VOHS 192300Z 10004KT 6000 SCT020 SCT100 18/16 Q1013 NOSIG
2026-03-19 22:30:00,METAR VOHS 192230Z VRB02KT 6000 SCT020 SCT100 18/16 Q1013 NOSIG
2026-03-19 22:00:00,METAR VOHS 192200Z 09005KT 6000 SCT020 SCT100 19/16 Q1013 NOSIG
2026-03-19 21:30:00,METAR VOHS 192130Z 08005KT 6000 FEW020 SCT100 18/16 Q1013 NOSIG
2026-03-19 21:00:00,METAR VOHS 192100Z VRB04KT 6000 FEW020 SCT100 18/15 Q1013 NOSIG
2026-03-19 20:30:00,METAR VOHS 192030Z 18006KT 6000 SCT020 FEW030CB BKN080 18/15 Q1013 NOSIG
2026-03-19 20:00:00,METAR VOHS 192000Z COR 12006KT 6000 BKN010 BKN020 FEW030CB BKN080 20/15 Q1014 NOSIG
2026-03-19 19:30:00,METAR VOHS 191930Z 29008KT 3000 -TSRA BKN010 BKN020 FEW030CB BKN080 18/16 Q1015 BECMG 5000
2026-03-19 19:00:00,METAR VOHS 191900Z 31025G35KT 2000 +TSRA BKN010 BKN020 FEW030CB BKN080 18/16 Q1017 NOSIG
2026-03-19 18:30:00,METAR VOHS 191830Z 14006KT 5000 TS SCT020 FEW030CB BKN080 23/18 Q1015 NOSIG
2026-03-19 18:00:00,METAR VOHS 191800Z 13006KT 5000 TS FEW020 FEW030CB SCT100 24/19 Q1015 NOSIG
2026-03-19 17:30:00,METAR VOHS 191730Z 12006KT 6000 FEW020 SCT100 24/19 Q1015 NOSIG
2026-03-19 17:00:00,METAR VOHS 191700Z 12008KT 6000 FEW020 SCT100 24/19 Q1015 NOSIG
2026-03-19 16:30:00,METAR VOHS 191630Z 10006KT 6000 FEW020 SCT100 25/18 Q1015 NOSIG
2026-03-19 16:00:00,METAR VOHS 191600Z 14005KT 6000 FEW020 SCT100 25/18 Q1015 NOSIG
2026-03-19 15:30:00,METAR VOHS 191530Z 10006KT 6000 FEW020 SCT100 26/18 Q1015 NOSIG
2026-03-19 15:00:00,METAR VOHS 191500Z 10006KT 6000 FEW020 SCT100 26/18 Q1014 NOSIG
2026-03-19 14:30:00,METAR VOHS 191430Z 10006KT 6000 FEW020 SCT100 26/18 Q1014 NOSIG
2026-03-19 14:00:00,METAR VOHS 191400Z 10006KT 6000 FEW020 27/18 Q1013 NOSIG
2026-03-19 13:30:00,METAR VOHS 191330Z 10006KT 6000 FEW020 27/17 Q1013 NOSIG
2026-03-19 13:00:00,METAR VOHS 191300Z 10006KT 6000 FEW020 28/17 Q1012 NOSIG
2026-03-19 12:30:00,METAR VOHS 191230Z 12005KT 6000 FEW020 28/16 Q1012 NOSIG
2026-03-19 12:00:00,METAR VOHS 191200Z 08008KT 6000 FEW020 SCT025 30/14 Q1012 NOSIG
2026-03-19 11:30:00,METAR VOHS 191130Z 09005KT 6000 SCT020 SCT025 30/14 Q1012 NOSIG
2026-03-19 10:30:00,METAR VOHS 191030Z 07007KT 6000 FEW020 SCT025 30/13 Q1012 NOSIG
2026-03-19 10:00:00,METAR VOHS 191000Z 02005KT 6000 FEW020 SCT025 30/14 Q1012 NOSIG
2026-03-19 09:30:00,METAR VOHS 190930Z 03005KT 6000 FEW020 SCT025 30/15 Q1013 NOSIG
2026-03-19 09:00:00,METAR VOHS 190900Z 01005KT 6000 FEW020 SCT025 31/15 Q1014 NOSIG
2026-03-19 08:30:00,METAR VOHS 190830Z 01007KT 6000 FEW020 SCT025 31/15 Q1014 NOSIG
2026-03-19 08:00:00,METAR VOHS 190800Z 35008KT 6000 FEW020 SCT025 30/15 Q1015 NOSIG
2026-03-19 07:30:00,METAR VOHS 190730Z 33006KT 6000 FEW020 SCT025 30/15 Q1015 NOSIG
2026-03-19 07:00:00,METAR VOHS 190700Z 29005KT 6000 FEW020 30/14 Q1016 NOSIG
2026-03-19 06:30:00,METAR VOHS 190630Z 28007KT 6000 FEW020 29/15 Q1017 NOSIG
2026-03-19 06:00:00,METAR VOHS 190600Z 29007KT 6000 FEW020 28/16 Q1017 NOSIG
2026-03-19 05:30:00,METAR VOHS 190530Z 29006KT 6000 FEW020 28/16 Q1017 NOSIG
2026-03-19 05:00:00,METAR VOHS 190500Z 26006KT 6000 FEW020 27/17 Q1017 NOSIG
2026-03-19 04:30:00,METAR VOHS 190430Z 24006KT 6000 FEW020 26/16 Q1018 NOSIG
2026-03-19 04:00:00,METAR VOHS 190400Z 23005KT 5000 HZ FEW020 25/17 Q1018 NOSIG
2026-03-19 03:30:00,METAR VOHS 190330Z 23006KT 5000 HZ FEW020 24/18 Q1018 NOSIG
2026-03-19 03:00:00,METAR VOHS 190300Z 20004KT 5000 HZ SCT020 SCT100 23/18 Q1017 NOSIG
2026-03-19 02:30:00,METAR VOHS 190230Z 20003KT 4000 BR SCT020 SCT100 22/19 Q1017 BECMG 5000 HZ
2026-03-19 02:00:00,METAR VOHS 190200Z 18003KT 4000 BR SCT020 SCT100 20/18 Q1016 NOSIG
2026-03-19 01:30:00,METAR VOHS 190130Z VRB02KT 4000 BR SCT020 SCT100 19/18 Q1016 NOSIG
2026-03-19 01:00:00,METAR VOHS 190100Z 18004KT 4000 BR SCT020 SCT100 19/18 Q1015 TEMPO 3000 BR
2026-03-19 00:30:00,METAR VOHS 190030Z VRB01KT 4000 BR SCT020 SCT100 19/17 Q1016 TEMPO 3000 BR
2026-03-19 00:00:00,METAR VOHS 190000Z VRB01KT 5000 BR SCT020 SCT100 19/17 Q1015 NOSIG
2026-03-18 23:30:00,METAR VOHS 182330Z 17003KT 5000 BR SCT020 SCT100 19/17 Q1015 NOSIG
2026-03-18 23:00:00,METAR VOHS 182300Z 13004KT 5000 BR SCT020 SCT100 19/16 Q1015 NOSIG
2026-03-18 22:30:00,METAR VOHS 182230Z 14003KT 5000 BR SCT020 SCT100 19/16 Q1015 NOSIG
2026-03-18 22:00:00,METAR VOHS 182200Z VRB03KT 5000 BR SCT020 SCT100 18/16 Q1014 NOSIG
2026-03-18 21:30:00,METAR VOHS 182130Z VRB02KT 6000 SCT020 SCT100 19/17 Q1015 BECMG 5000 BR
2026-03-18 21:00:00,METAR VOHS 182100Z VRB02KT 6000 SCT020 SCT100 19/16 Q1015 NOSIG
2026-03-18 20:30:00,METAR VOHS 182030Z VRB03KT 6000 SCT020 SCT100 20/16 Q1015 NOSIG
2026-03-18 20:00:00,METAR VOHS 182000Z VRB03KT 6000 SCT020 SCT100 20/16 Q1015 NOSIG
2026-03-18 19:30:00,METAR VOHS 181930Z VRB04KT 6000 SCT020 SCT100 20/17 Q1015 NOSIG
2026-03-18 19:00:00,METAR VOHS 181900Z VRB03KT 6000 SCT020 SCT100 20/17 Q1015 NOSIG
2026-03-18 18:30:00,METAR VOHS 181830Z VRB03KT 6000 SCT020 SCT100 20/17 Q1016 NOSIG
2026-03-18 18:00:00,METAR VOHS 181800Z VRB02KT 6000 SCT020 SCT100 20/17 Q1016 NOSIG
2026-03-18 17:30:00,METAR VOHS 181730Z 10005KT 6000 SCT020 SCT100 21/16 Q1016 NOSIG
2026-03-18 17:00:00,METAR VOHS 181700Z 10005KT 6000 SCT020 SCT100 21/16 Q1016 NOSIG
2026-03-18 16:30:00,METAR VOHS 181630Z 10007KT 6000 SCT020 SCT100 22/15 Q1016 NOSIG
2026-03-18 16:00:00,METAR VOHS 181600Z 10007KT 6000 SCT020 SCT100 22/15 Q1016 NOSIG
2026-03-18 15:30:00,METAR VOHS 181530Z 10007KT 6000 SCT020 SCT100 22/16 Q1015 NOSIG
2026-03-18 15:00:00,METAR VOHS 181500Z 09009KT 6000 SCT020 SCT100 22/16 Q1015 NOSIG
2026-03-18 14:30:00,METAR VOHS 181430Z 09009KT 6000 SCT020 SCT100 22/16 Q1014 NOSIG
2026-03-18 14:00:00,METAR VOHS 181400Z 09009KT 6000 SCT020 SCT100 23/15 Q1014 NOSIG
2026-03-18 13:30:00,METAR VOHS 181330Z 08009KT 6000 SCT020 SCT100 24/15 Q1014 NOSIG
2026-03-18 13:00:00,METAR VOHS 181300Z 08011KT 6000 SCT020 SCT100 25/14 Q1014 NOSIG
2026-03-18 12:30:00,METAR VOHS 181230Z 09011KT 6000 SCT020 SCT100 25/14 Q1014 NOSIG
2026-03-18 12:00:00,METAR VOHS 181200Z 08013KT 6000 SCT020 SCT100 26/13 Q1014 NOSIG
2026-03-18 11:30:00,METAR VOHS 181130Z 10010KT 6000 SCT020 SCT100 26/14 Q1014 NOSIG
2026-03-18 11:01:00,METAR VOHS 181101Z 10012KT 6000 SCT020 SCT100 27/15 Q1012 NOSIG
2026-03-18 11:00:00,METAR VOHS 181100Z 10012KT 6000 SCT020 SCT100 27/15 Q1012 NOSIG
2026-03-18 10:30:00,METAR VOHS 181030Z 10012KT 6000 SCT020 SCT100 27/15 Q1013 NOSIG
2026-03-18 10:00:00,METAR VOHS 181000Z 08012KT 6000 SCT020 SCT100 27/15 Q1014 NOSIG
2026-03-18 09:30:00,METAR VOHS 180930Z 08012KT 6000 SCT020 SCT100 27/15 Q1014 NOSIG
2026-03-18 09:00:00,METAR VOHS 180900Z 10011G22KT 6000 SCT020 SCT100 26/15 Q1015 NOSIG
2026-03-18 08:30:00,METAR VOHS 180830Z 10012G24KT 6000 SCT020 SCT100 26/16 Q1016 NOSIG
2026-03-18 08:00:00,METAR VOHS 180800Z 10012G24KT 6000 SCT020 SCT100 26/16 Q1016 NOSIG
2026-03-18 07:30:00,METAR VOHS 180730Z 08012G24KT 6000 SCT020 SCT100 26/16 Q1016 NOSIG
2026-03-18 07:00:00,METAR VOHS 180700Z 08012G24KT 6000 SCT020 SCT100 25/15 Q1017 NOSIG
2026-03-18 06:30:00,METAR VOHS 180630Z 06012G24KT 6000 SCT020 SCT100 25/16 Q1017 NOSIG
2026-03-18 06:00:00,METAR VOHS 180600Z 07010G20KT 5000 HZ SCT020 SCT100 25/15 Q1018 BECMG 6000
2026-03-18 05:30:00,METAR VOHS 180530Z 10009KT 5000 HZ SCT015 BKN080 23/16 Q1018 NOSIG
2026-03-18 05:00:00,METAR VOHS 180500Z 08008KT 5000 HZ SCT015 SCT025 BKN080 22/16 Q1017 NOSIG
2026-03-18 04:30:00,METAR VOHS 180430Z 08010KT 5000 HZ SCT015 SCT025 BKN080 22/17 Q1017 NOSIG
2026-03-18 04:00:00,METAR VOHS 180400Z 09008KT 5000 BR SCT015 SCT025 BKN080 21/18 Q1017 NOSIG
2026-03-18 03:30:00,METAR VOHS 180330Z 14005KT 5000 BR SCT015 SCT025 BKN080 21/17 Q1016 NOSIG
2026-03-18 03:00:00,METAR VOHS 180300Z 16006KT 5000 BR SCT015 SCT025 BKN100 21/16 Q1015 NOSIG
2026-03-18 02:30:00,METAR VOHS 180230Z 16004KT 5000 BR SCT015 SCT025 BKN100 21/17 Q1015 NOSIG
2026-03-18 02:00:00,METAR VOHS 180200Z 13004KT 5000 BR SCT015 SCT025 BKN100 20/16 Q1014 NOSIG
2026-03-18 01:30:00,METAR VOHS 180130Z 20005KT 5000 BR SCT015 SCT025 BKN100 19/15 Q1013 NOSIG
2026-03-18 01:00:00,METAR VOHS 180100Z VRB02KT 5000 BR SCT015 SCT025 BKN100 19/17 Q1013 NOSIG
2026-03-18 00:30:00,METAR VOHS 180030Z 12006KT 4000 -RA SCT015 FEW030CB BKN100 19/15 Q1012 BECMG 5000 BR
2026-03-18 00:00:00,METAR VOHS 180000Z 09016KT 4000 -TSRA SCT015 FEW030CB BKN100 20/15 Q1013 NOSIG
2026-03-17 23:30:00,METAR VOHS 172330Z 17010KT 4000 -TSRA SCT015 FEW030CB BKN100 18/15 Q1015 NOSIG
2026-03-17 23:00:00,METAR VOHS 172300Z 23012KT 4000 -TSRA SCT015 FEW030CB BKN100 18/16 Q1015 NOSIG
2026-03-17 22:30:00,METAR VOHS 172230Z 26015KT 4000 TSRA SCT015 FEW030CB BKN100 18/16 Q1015 NOSIG
2026-03-17 22:00:00,METAR VOHS 172200Z 24014KT 4000 TSRA BKN015 FEW030CB BKN100 17/16 Q1015 NOSIG
2026-03-17 21:30:00,METAR VOHS 172130Z 24010G20KT 4000 TSRA BKN015 FEW030CB BKN100 17/16 Q1016 NOSIG
2026-03-17 21:00:00,METAR VOHS 172100Z 26010G20KT 4000 TSRA BKN015 FEW030CB BKN100 18/15 Q1016 NOSIG
2026-03-17 20:30:00,METAR VOHS 172030Z 29015G25KT 4000 TSRA BKN015 FEW030CB BKN100 18/15 Q1015 NOSIG
2026-03-17 20:00:00,METAR VOHS 172000Z 27015G25KT 4000 TSRA BKN015 FEW030CB BKN100 18/15 Q1016 TEMPO 3000 TSRA
2026-03-17 19:30:00,METAR VOHS 171930Z 27020G30KT 4000 TSRA BKN020 FEW030CB BKN100 20/14 Q1017 NOSIG
2026-03-17 19:00:00,METAR VOHS 171900Z 26008G18KT 5000 TS SCT020 FEW030CB BKN100 24/18 Q1016 NOSIG
2026-03-17 18:27:00,METAR VOHS 171827Z 14008G18KT 6000 SCT020 FEW030CB SCT100 24/17 Q1015 TEMPO 5000 TSRA
2026-03-17 18:00:00,METAR VOHS 171800Z 11010KT 6000 SCT020 SCT100 24/17 Q1014 NOSIG
2026-03-17 17:30:00,METAR VOHS 171730Z 12008KT 6000 SCT020 SCT100 25/19 Q1014 NOSIG
2026-03-17 17:00:00,METAR VOHS 171700Z 10008KT 6000 SCT020 SCT100 25/19 Q1014 NOSIG
2026-03-17 16:30:00,METAR VOHS 171630Z 10008KT 6000 SCT020 SCT100 25/19 Q1014 NOSIG
2026-03-17 16:00:00,METAR VOHS 171600Z 12008KT 6000 SCT020 SCT100 25/19 Q1013 NOSIG
2026-03-17 15:30:00,METAR VOHS 171530Z 12008KT 6000 SCT020 SCT100 25/19 Q1013 NOSIG
2026-03-17 15:00:00,METAR VOHS 171500Z 10008KT 6000 SCT020 SCT100 25/19 Q1013 NOSIG
2026-03-17 14:30:00,METAR VOHS 171430Z 10008KT 6000 SCT020 SCT100 26/18 Q1013 NOSIG
2026-03-17 14:00:00,METAR VOHS 171400Z 09010KT 6000 SCT020 SCT100 27/18 Q1013 NOSIG
2026-03-17 13:30:00,METAR VOHS 171330Z 15008KT 6000 SCT020 27/16 Q1012 NOSIG
2026-03-17 13:00:00,METAR VOHS 171300Z 15008KT 6000 SCT020 28/15 Q1011 NOSIG
2026-03-17 12:30:00,METAR VOHS 171230Z 16008KT 6000 SCT015 FEW030CB 29/15 Q1011 NOSIG
2026-03-17 12:00:00,METAR VOHS 171200Z 14006KT 6000 SCT015 FEW030CB 30/15 Q1011 NOSIG
2026-03-17 11:30:00,METAR VOHS 171130Z 14008KT 6000 SCT015 FEW030CB 31/15 Q1011 NOSIG
2026-03-17 11:00:00,METAR VOHS 171100Z 13007KT 6000 SCT015 FEW030CB 31/15 Q1011 TEMPO 5000 -TSRA
2026-03-17 10:30:00,METAR VOHS 171030Z 16006KT 6000 SCT015 FEW030CB 32/16 Q1011 NOSIG
2026-03-17 10:00:00,METAR VOHS 171000Z COR 18006KT 6000 FEW020 FEW030TCU SCT100 32/15 Q1011 NOSIG
2026-03-17 09:30:00,METAR VOHS 170930Z 18006KT 6000 FEW020 SCT100 32/14 Q1011 NOSIG
2026-03-17 09:00:00,METAR VOHS 170900Z 23006KT 6000 FEW020 32/14 Q1012 NOSIG
2026-03-17 08:30:00,METAR VOHS 170830Z 18007KT 6000 FEW020 32/14 Q1012 NOSIG
2026-03-17 08:00:00,METAR VOHS 170800Z 18007KT 6000 FEW020 32/14 Q1013 NOSIG
2026-03-17 07:30:00,METAR VOHS 170730Z 16005KT 6000 FEW020 32/14 Q1013 NOSIG
2026-03-17 07:00:00,METAR VOHS 170700Z 18007KT 6000 FEW020 32/14 Q1014 NOSIG
2026-03-17 06:30:00,METAR VOHS 170630Z 21007KT 6000 FEW020 31/15 Q1014 NOSIG
2026-03-17 06:00:00,METAR VOHS 170600Z 21008KT 6000 FEW020 31/14 Q1015 NOSIG
2026-03-17 05:30:00,METAR VOHS 170530Z 21006KT 6000 FEW020 30/15 Q1015 NOSIG
2026-03-17 05:00:00,METAR VOHS 170500Z 20007KT 6000 FEW020 30/15 Q1016 NOSIG
2026-03-17 04:30:00,METAR VOHS 170430Z 19006KT 6000 FEW020 29/16 Q1016 NOSIG
2026-03-17 04:00:00,METAR VOHS 170400Z 18005KT 6000 FEW020 28/17 Q1016 NOSIG
2026-03-17 03:30:00,METAR VOHS 170330Z VRB03KT 5000 HZ FEW020 25/18 Q1015 BECMG 6000
2026-03-17 03:00:00,METAR VOHS 170300Z VRB03KT 5000 HZ FEW020 24/18 Q1015 NOSIG
2026-03-17 02:30:00,METAR VOHS 170230Z VRB03KT 5000 HZ FEW020 23/18 Q1015 NOSIG
2026-03-17 02:00:00,METAR VOHS 170200Z VRB03KT 5000 BR FEW020 22/18 Q1014 NOSIG
2026-03-17 01:30:00,METAR VOHS 170130Z VRB03KT 5000 BR FEW020 20/18 Q1013 NOSIG
2026-03-17 01:00:00,METAR VOHS 170100Z VRB03KT 5000 BR FEW020 20/18 Q1013 NOSIG
2026-03-17 00:30:00,METAR VOHS 170030Z VRB03KT 5000 BR SCT015 BKN100 21/17 Q1012 NOSIG
2026-03-17 00:00:00,METAR VOHS 170000Z VRB03KT 5000 BR SCT015 BKN100 21/17 Q1012 NOSIG
2026-03-16 23:30:00,METAR VOHS 162330Z 11006KT 5000 HZ SCT015 BKN100 22/17 Q1012 NOSIG
2026-03-16 23:00:00,METAR VOHS 162300Z 12005KT 5000 HZ SCT015 BKN100 22/17 Q1011 NOSIG
2026-03-16 22:30:00,METAR VOHS 162230Z 15004KT 5000 HZ SCT015 BKN100 22/15 Q1011 NOSIG
2026-03-16 22:00:00,METAR VOHS 162200Z 15004KT 5000 HZ SCT015 BKN100 22/15 Q1011 NOSIG
2026-03-16 21:30:00,METAR VOHS 162130Z 16003KT 5000 HZ SCT015 BKN100 22/14 Q1011 NOSIG
2026-03-16 21:00:00,METAR VOHS 162100Z 15005KT 5000 HZ SCT015 BKN100 23/12 Q1012 NOSIG
2026-03-16 20:30:00,METAR VOHS 162030Z 15005KT 5000 HZ SCT015 BKN100 22/12 Q1012 NOSIG
2026-03-16 20:00:00,METAR VOHS 162000Z 15005KT 5000 HZ SCT015 BKN100 22/12 Q1012 NOSIG
2026-03-16 19:30:00,METAR VOHS 161930Z VRB04KT 5000 HZ SCT015 BKN100 23/11 Q1013 NOSIG
2026-03-16 19:00:00,METAR VOHS 161900Z 15006KT 5000 HZ SCT015 BKN100 23/11 Q1013 NOSIG
2026-03-16 18:30:00,METAR VOHS 161830Z 15010KT 5000 TS SCT015 BKN100 24/11 Q1013 NOSIG
2026-03-16 18:00:00,METAR VOHS 161800Z 15010KT 5000 TS SCT015 FEW030CB BKN100 25/11 Q1013 NOSIG
2026-03-16 17:30:00,METAR VOHS 161730Z 10008KT 5000 TS SCT015 FEW030CB BKN100 25/12 Q1015 NOSIG
2026-03-16 17:00:00,METAR VOHS 161700Z 05014KT 5000 TS SCT015 FEW030CB BKN100 25/11 Q1015 NOSIG
2026-03-16 16:30:00,METAR VOHS 161630Z 05015KT 5000 HZ SCT015 FEW030CB BKN100 26/11 Q1015 NOSIG
2026-03-16 15:30:00,METAR VOHS 161530Z 05014G24KT 5000 HZ SCT015 FEW030CB BKN100 26/17 Q1015 NOSIG
2026-03-16 15:00:00,METAR VOHS 161500Z 06014G24KT 5000 HZ SCT015 FEW030CB BKN100 27/19 Q1014 NOSIG
2026-03-16 14:30:00,METAR VOHS 161430Z 07009KT 5000 HZ SCT015 FEW030CB BKN100 28/17 Q1014 NOSIG
2026-03-16 14:00:00,METAR VOHS 161400Z 12007KT 5000 HZ SCT015 FEW030CB BKN100 28/17 Q1013 NOSIG
2026-03-16 13:30:00,METAR VOHS 161330Z 13005KT 5000 HZ SCT015 FEW030CB BKN100 29/15 Q1012 NOSIG
2026-03-16 13:00:00,METAR VOHS 161300Z 18005KT 6000 SCT015 FEW030CB 29/09 Q1011 NOSIG
2026-03-16 12:30:00,METAR VOHS 161230Z 20005KT 6000 SCT015 FEW030CB 30/09 Q1011 TEMPO 5000 HZ
2026-03-16 12:00:00,METAR VOHS 161200Z 18007KT 6000 SCT015 FEW030CB 31/09 Q1011 NOSIG
2026-03-16 11:30:00,METAR VOHS 161130Z 20007KT 6000 SCT015 FEW030CB 32/09 Q1011 NOSIG
2026-03-16 11:00:00,METAR VOHS 161100Z 19006KT 6000 FEW020 32/09 Q1011 NOSIG
2026-03-16 10:30:00,METAR VOHS 161030Z 18009KT 6000 FEW020 33/10 Q1011 NOSIG
2026-03-16 10:00:00,METAR VOHS 161000Z 17006KT 6000 FEW020 33/09 Q1011 NOSIG
2026-03-16 09:30:00,METAR VOHS 160930Z 18009KT 6000 FEW020 33/08 Q1011 NOSIG
2026-03-16 09:00:00,METAR VOHS 160900Z 20006KT 6000 FEW020 34/10 Q1012 NOSIG
2026-03-16 08:30:00,METAR VOHS 160830Z 22006KT 6000 FEW020 34/10 Q1012 NOSIG
2026-03-16 08:00:00,METAR VOHS 160800Z 16009KT 6000 FEW020 34/09 Q1013 NOSIG
2026-03-16 07:30:00,METAR VOHS 160730Z 20006KT 6000 FEW020 34/10 Q1013 NOSIG
2026-03-16 07:00:00,METAR VOHS 160700Z 20008KT 6000 FEW020 33/10 Q1014 NOSIG
2026-03-16 06:30:00,METAR VOHS 160630Z 21008KT 6000 FEW020 33/14 Q1014 NOSIG
2026-03-16 06:00:00,METAR VOHS 160600Z 19006KT 6000 FEW020 32/13 Q1015 NOSIG
2026-03-16 05:30:00,METAR VOHS 160530Z 18008KT 6000 FEW020 31/13 Q1015 NOSIG
2026-03-16 05:00:00,METAR VOHS 160500Z 19008KT 5000 HZ FEW020 31/15 Q1015 NOSIG
2026-03-16 04:30:00,METAR VOHS 160430Z 16006KT 5000 HZ FEW020 28/18 Q1016 NOSIG
2026-03-16 04:00:00,METAR VOHS 160400Z 17004KT 5000 HZ FEW020 27/19 Q1016 NOSIG
2026-03-16 03:30:00,METAR VOHS 160330Z VRB03KT 4000 HZ FEW020 SCT100 26/19 Q1016 NOSIG
2026-03-16 03:00:00,METAR VOHS 160300Z 11003KT 4000 BR FEW020 SCT100 25/20 Q1015 NOSIG
2026-03-16 02:30:00,METAR VOHS 160230Z VRB02KT 3000 BR SCT020 SCT100 23/20 Q1015 NOSIG
2026-03-16 02:00:00,METAR VOHS 160200Z VRB02KT 3000 BR SCT020 SCT100 23/20 Q1014 NOSIG
2026-03-16 01:30:00,METAR VOHS 160130Z 13003KT 3000 BR SCT020 SCT100 23/20 Q1013 NOSIG
2026-03-16 01:00:00,METAR VOHS 160100Z 16008KT 3000 BR SCT020 SCT100 23/20 Q1013 NOSIG
2026-03-16 00:30:00,METAR VOHS 160030Z 17003KT 3000 BR SCT020 SCT100 23/19 Q1013 NOSIG
2026-03-16 00:00:00,METAR VOHS 160000Z VRB02KT 3000 BR SCT020 SCT100 24/18 Q1012 NOSIG
2026-03-15 23:30:00,METAR VOHS 152330Z 08003KT 3000 BR SCT020 SCT100 24/19 Q1012 NOSIG
2026-03-15 23:00:00,METAR VOHS 152300Z 16004KT 3000 BR SCT020 SCT100 23/20 Q1012 NOSIG
2026-03-15 22:30:00,METAR VOHS 152230Z 16003KT 3000 BR SCT020 SCT100 23/20 Q1012 NOSIG
2026-03-15 22:00:00,METAR VOHS 152200Z 13003KT 5000 BR FEW020 SCT100 23/20 Q1012 TEMPO 3000 BR
2026-03-15 21:30:00,METAR VOHS 152130Z 14003KT 5000 BR FEW020 SCT100 23/20 Q1012 TEMPO 3000 BR
2026-03-15 20:58:00,METAR VOHS 152058Z VRB02KT 5000 BR FEW020 SCT100 23/20 Q1013 TEMPO VIS 3000
2026-03-15 20:30:00,METAR VOHS 152030Z VRB02KT 6000 FEW020 SCT100 24/20 Q1013 NOSIG
2026-03-15 20:00:00,METAR VOHS 152000Z VRB04KT 6000 FEW020 SCT100 24/20 Q1014 NOSIG
2026-03-15 19:30:00,METAR VOHS 151930Z VRB04KT 6000 FEW020 SCT100 25/19 Q1014 NOSIG
2026-03-15 19:00:00,METAR VOHS 151900Z VRB04KT 6000 FEW020 SCT100 25/19 Q1015 NOSIG
2026-03-15 18:30:00,METAR VOHS 151830Z 02006KT 6000 SCT020 BKN100 25/19 Q1015 NOSIG
2026-03-15 18:06:00,METAR VOHS 151806Z 04008KT 6000 FEW030 SCT020 BKN100 25/19 Q1015 NOSIG
2026-03-15 17:30:00,METAR VOHS 151730Z 11007KT 6000 SCT020 BKN100 25/19 Q1015 NOSIG
2026-03-15 17:00:00,METAR VOHS 151700Z 12007KT 6000 SCT020 25/18 Q1015 NOSIG
2026-03-15 16:30:00,METAR VOHS 151630Z 11006KT 6000 SCT020 25/18 Q1015 NOSIG
2026-03-15 16:00:00,METAR VOHS 151600Z 10006KT 6000 SCT020 25/18 Q1015 NOSIG
2026-03-15 15:30:00,METAR VOHS 151530Z 12007KT 6000 SCT020 SCT100 26/17 Q1015 NOSIG
2026-03-15 15:00:00,METAR VOHS 151500Z 12006KT 6000 SCT020 SCT100 26/16 Q1014 NOSIG
2026-03-15 14:30:00,METAR VOHS 151430Z 12006KT 6000 FEW020 SCT100 27/15 Q1013 NOSIG
2026-03-15 14:00:00,METAR VOHS 151400Z 13007KT 6000 FEW020 SCT100 27/13 Q1013 NOSIG
2026-03-15 13:30:00,METAR VOHS 151330Z VRB03KT 6000 FEW020 SCT100 28/12 Q1013 NOSIG
2026-03-15 13:00:00,METAR VOHS 151300Z 19004KT 6000 SCT020 SCT100 29/11 Q1012 NOSIG
2026-03-15 12:30:00,METAR VOHS 151230Z 21005KT 6000 SCT020 SCT100 31/11 Q1012 NOSIG
2026-03-15 12:00:00,METAR VOHS 151200Z 20006KT 6000 SCT020 SCT100 32/10 Q1012 NOSIG
2026-03-15 11:30:00,METAR VOHS 151130Z 22006KT 6000 SCT020 SCT100 32/10 Q1012 NOSIG
2026-03-15 11:00:00,METAR VOHS 151100Z 19006KT 6000 SCT020 SCT100 33/10 Q1012 NOSIG
2026-03-15 10:30:00,METAR VOHS 151030Z 20007KT 6000 SCT020 SCT100 33/09 Q1012 NOSIG
2026-03-15 10:00:00,METAR VOHS 151000Z 18007KT 6000 FEW020 SCT100 33/09 Q1012 NOSIG
2026-03-15 09:30:00,METAR VOHS 150930Z 18010KT 6000 FEW020 SCT100 33/09 Q1013 NOSIG
2026-03-15 09:00:00,METAR VOHS 150900Z 18008KT 6000 FEW020 SCT100 34/09 Q1013 NOSIG
2026-03-15 08:30:00,METAR VOHS 150830Z 18009KT 5000 HZ FEW020 SCT100 34/08 Q1014 NOSIG
2026-03-15 08:00:00,METAR VOHS 150800Z 17008KT 5000 HZ FEW020 33/11 Q1014 NOSIG
