Time_recorded,METAR
2026-05-02 15:30:00,METAR YMML 021530Z AUTO 01016KT 9999 // BKN100 18/12 Q1013
2026-05-02 15:00:00,METAR YMML 021500Z AUTO 01017KT 9999 // NCD 19/12 Q1013
2026-05-02 14:30:00,METAR YMML 021430Z AUTO 01018KT 9999 // NCD 19/11 Q1013
2026-05-02 14:00:00,METAR YMML 021400Z AUTO 01009KT 9999 // NCD 19/11 Q1013
2026-05-02 13:30:00,METAR YMML 021330Z AUTO 01008KT 9999 // NCD 19/11 Q1014
2026-05-02 13:00:00,METAR YMML 021300Z AUTO 01019KT 9999 // FEW120 19/11 Q1014
2026-05-02 12:30:00,METAR YMML 021230Z AUTO 01017KT 9999 // NCD 20/11 Q1014
2026-05-02 12:00:00,METAR YMML 021200Z AUTO 35013KT 9999 // NCD 21/09 Q1015
2026-05-02 11:30:00,METAR YMML 021130Z AUTO 01008KT 9999 // NCD 21/08 Q1015
2026-05-02 11:00:00,METAR YMML 021100Z AUTO 01006KT 350V050 9999 // NCD 19/08 Q1015
2026-05-02 10:30:00,METAR YMML 021030Z AUTO 05006KT 9999 // NCD 19/07 Q1014
2026-05-02 10:00:00,METAR YMML 021000Z AUTO 04006KT 9999 // NCD 20/08 Q1014
2026-05-02 09:30:00,METAR YMML 020930Z AUTO 03007KT 9999 // NCD 20/08 Q1015
2026-05-02 09:00:00,METAR YMML 020900Z AUTO 04008KT 9999 // NCD 21/08 Q1015
2026-05-02 08:30:00,METAR YMML 020830Z AUTO 04010KT 9999 // NCD 21/08 Q1015
2026-05-02 08:00:00,METAR YMML 020800Z AUTO 03013KT 9999 // BKN120 22/08 Q1014
2026-05-02 07:30:00,METAR YMML 020730Z AUTO 02015KT 9999 // SCT120 23/08 Q1014
2026-05-02 07:00:00,METAR YMML 020700Z AUTO 02017KT 9999 // FEW125 23/08 Q1014
2026-05-02 06:30:00,METAR YMML 020630Z AUTO 02017KT 9999 // FEW089 24/09 Q1014
2026-05-02 06:09:00,SPECI YMML 020609Z AUTO 03019G29KT 9999 // NCD 24/09 Q1014
2026-05-02 06:00:00,METAR YMML 020600Z AUTO 02020KT 9999 // FEW095 24/09 Q1014
2026-05-02 05:30:00,METAR YMML 020530Z AUTO 02020KT 9999 // NCD 24/09 Q1014
2026-05-02 05:00:00,METAR YMML 020500Z AUTO 01023KT 9999 // NCD 23/09 Q1014
2026-05-02 04:52:00,SPECI YMML 020452Z AUTO 01021G31KT 9999 // NCD 23/09 Q1015
2026-05-02 04:30:00,METAR YMML 020430Z AUTO 01025KT 9999 // NCD 24/08 Q1015
2026-05-02 04:01:00,SPECI YMML 020401Z AUTO 01019G29KT 9999 // NCD 23/09 Q1015
2026-05-02 03:30:00,METAR YMML 020330Z AUTO 01018G28KT 9999 // NCD 22/09 Q1016
2026-05-02 03:03:00,SPECI YMML 020303Z AUTO 02018G30KT 9999 // NCD 22/09 Q1016
2026-05-02 02:30:00,METAR YMML 020230Z AUTO 02016KT 9999 // BKN085 21/09 Q1017
2026-05-02 02:10:00,SPECI YMML 020210Z AUTO 02015G27KT 9999 // SCT088 21/09 Q1017
2026-05-02 02:00:00,METAR YMML 020200Z AUTO 02016KT 9999 // FEW086 21/10 Q1018
2026-05-02 01:30:00,METAR YMML 020130Z AUTO 02019KT 9999 // NCD 20/09 Q1018
2026-05-02 01:04:00,SPECI YMML 020104Z AUTO 02017G27KT 9999 // NCD 20/09 Q1018
2026-05-02 00:30:00,METAR YMML 020030Z AUTO 02017KT 9999 // SCT100 20/09 Q1019
2026-05-02 00:24:00,SPECI YMML 020024Z AUTO 02015G25KT 9999 // BKN100 20/09 Q1019
2026-05-02 00:00:00,METAR YMML 020000Z AUTO 02012KT 9999 // BKN100 20/09 Q1019
2026-05-01 23:30:00,METAR YMML 012330Z AUTO 02015KT 9999 // BKN100 19/09 Q1019
2026-05-01 23:00:00,METAR YMML 012300Z AUTO 02013KT 9999 // BKN100 19/09 Q1019
2026-05-01 22:30:00,METAR YMML 012230Z AUTO 03013KT 9999 // SCT100 18/09 Q1019
2026-05-01 22:00:00,METAR YMML 012200Z AUTO 02014KT 9999 // FEW100 18/09 Q1019
2026-05-01 21:30:00,METAR YMML 012130Z AUTO 02015KT 9999 // BKN097 18/09 Q1019
2026-05-01 21:00:00,METAR YMML 012100Z AUTO 03015KT 9999 // OVC097 18/09 Q1019
2026-05-01 20:30:00,METAR YMML 012030Z AUTO 02017KT 9999 // BKN097 18/09 Q1019
2026-05-01 20:00:00,METAR YMML 012000Z AUTO 02017KT 9999 // SCT095 18/09 Q1018
2026-05-01 19:30:00,METAR YMML 011930Z AUTO 02016KT 9999 // SCT095 18/08 Q1019
2026-05-01 19:00:00,METAR YMML 011900Z AUTO 02014KT 9999 // BKN095 18/09 Q1019
2026-05-01 18:30:00,METAR YMML 011830Z AUTO 01011KT 9999 // SCT093 18/09 Q1019
2026-05-01 18:00:00,METAR YMML 011800Z AUTO 02007KT 9999 // NCD 17/09 Q1019
2026-05-01 17:30:00,METAR YMML 011730Z AUTO 01008KT 9999 // NCD 16/09 Q1019
2026-05-01 17:00:00,METAR YMML 011700Z AUTO 01010KT 9999 // NCD 18/09 Q1019
2026-05-01 16:30:00,METAR YMML 011630Z AUTO 36009KT 9999 // NCD 18/10 Q1019
2026-05-01 16:00:00,METAR YMML 011600Z AUTO 01009KT 9999 // NCD 16/10 Q1020
2026-05-01 15:30:00,METAR YMML 011530Z AUTO 36003KT 9999 // NCD 14/09 Q1020
2026-05-01 15:00:00,METAR YMML 011500Z AUTO 32004KT 9999 // NCD 16/09 Q1020
2026-05-01 14:30:00,METAR YMML 011430Z AUTO 01006KT 9999 // NCD 15/10 Q1020
2026-05-01 14:00:00,METAR YMML 011400Z AUTO 01005KT 9999 // NCD 15/09 Q1021
2026-05-01 13:30:00,METAR YMML 011330Z AUTO 01006KT 9999 // NCD 15/09 Q1021
2026-05-01 13:00:00,METAR YMML 011300Z AUTO 36009KT 9999 // FEW087 16/09 Q1021
2026-05-01 12:30:00,METAR YMML 011230Z AUTO 01007KT 9999 // NCD 15/10 Q1022
2026-05-01 12:00:00,METAR YMML 011200Z AUTO 01005KT 9999 // NCD 15/09 Q1022
2026-05-01 11:30:00,METAR YMML 011130Z AUTO 36004KT 9999 // NCD 16/09 Q1022
2026-05-01 11:00:00,METAR YMML 011100Z AUTO 01006KT 9999 // NCD 17/10 Q1022
2026-05-01 10:30:00,METAR YMML 011030Z AUTO 02007KT 9999 // NCD 18/09 Q1022
2026-05-01 10:00:00,METAR YMML 011000Z AUTO 04008KT 9999 // NCD 19/10 Q1022
2026-05-01 09:30:00,METAR YMML 010930Z AUTO 05011KT 9999 // NCD 21/09 Q1022
2026-05-01 09:00:00,METAR YMML 010900Z AUTO 05010KT 9999 // NCD 21/09 Q1022
2026-05-01 08:30:00,METAR YMML 010830Z AUTO 05009KT 9999 // NCD 21/09 Q1021
2026-05-01 08:00:00,METAR YMML 010800Z AUTO 04008KT 9999 // NCD 22/08 Q1021
2026-05-01 07:30:00,METAR YMML 010730Z AUTO 04009KT 9999 // NCD 23/09 Q1021
2026-05-01 07:00:00,METAR YMML 010700Z AUTO 04012KT 9999 // NCD 24/09 Q1021
2026-05-01 06:30:00,METAR YMML 010630Z AUTO 03016KT 9999 // NCD 25/09 Q1021
2026-05-01 06:00:00,METAR YMML 010600Z AUTO 01016KT 9999 // NCD 25/09 Q1021
2026-05-01 05:30:00,METAR YMML 010530Z AUTO 03016KT 9999 // NCD 26/09 Q1022
2026-05-01 05:00:00,METAR YMML 010500Z AUTO 02015KT 9999 // NCD 26/09 Q1022
2026-05-01 04:30:00,METAR YMML 010430Z AUTO 03015KT 9999 // NCD 27/10 Q1022
2026-05-01 04:00:00,METAR YMML 010400Z AUTO 03016KT 9999 // NCD 26/09 Q1022
2026-05-01 03:30:00,METAR YMML 010330Z AUTO 03016KT 9999 // NCD 26/10 Q1022
2026-05-01 03:00:00,METAR YMML 010300Z AUTO 02017KT 9999 // NCD 26/10 Q1023
2026-05-01 02:30:00,METAR YMML 010230Z AUTO 03017KT 9999 // NCD 25/10 Q1023
2026-05-01 02:00:00,METAR YMML 010200Z AUTO 03017KT 9999 // NCD 24/10 Q1024
2026-05-01 01:30:00,METAR YMML 010130Z AUTO 03018G28KT 9999 // NCD 24/09 Q1024
2026-05-01 01:13:00,SPECI YMML 010113Z AUTO 02018G29KT 9999 // NCD 23/09 Q1024
2026-05-01 01:00:00,METAR YMML 010100Z AUTO 02017KT 9999 // NCD 23/09 Q1024
2026-05-01 00:30:00,METAR YMML 010030Z AUTO 02015KT 9999 // NCD 23/10 Q1025
2026-05-01 00:00:00,METAR YMML 010000Z AUTO 01019KT 9999 // NCD 21/09 Q1025
2026-04-30 23:30:00,METAR YMML 302330Z AUTO 01019KT 9999 // NCD 20/09 Q1025
2026-04-30 23:00:00,METAR YMML 302300Z AUTO 01017KT 9999 // NCD 20/09 Q1025
2026-04-30 22:30:00,METAR YMML 302230Z AUTO 01016KT 9999 // NCD 19/09 Q1025
2026-04-30 22:00:00,METAR YMML 302200Z AUTO 01014KT 9999 // NCD 19/09 Q1025
2026-04-30 21:30:00,METAR YMML 302130Z AUTO 02016KT 9999 // NCD 18/09 Q1024
2026-04-30 21:00:00,METAR YMML 302100Z AUTO 02018KT 9999 // NCD 18/08 Q1024
2026-04-30 20:32:00,SPECI YMML 302032Z AUTO 02017G27KT 9999 // NCD 18/09 Q1024
2026-04-30 20:15:00,SPECI YMML 302015Z AUTO 02015G26KT 9999 // NCD 18/09 Q1024
2026-04-30 20:00:00,METAR YMML 302000Z AUTO 02014KT 9999 // NCD 17/09 Q1024
2026-04-30 19:30:00,METAR YMML 301930Z AUTO 02013KT 9999 // NCD 17/09 Q1024
2026-04-30 19:00:00,METAR YMML 301900Z AUTO 01013KT 9999 // NCD 17/09 Q1023
2026-04-30 18:30:00,METAR YMML 301830Z AUTO 01010KT 9999 // NCD 17/09 Q1023
2026-04-30 18:00:00,METAR YMML 301800Z AUTO 36013KT 9999 // NCD 18/09 Q1023
2026-04-30 17:30:00,METAR YMML 301730Z AUTO 01010KT 9999 // NCD 18/10 Q1023
2026-04-30 17:00:00,METAR YMML 301700Z AUTO 01009KT 9999 // NCD 16/09 Q1023
2026-04-30 16:30:00,METAR YMML 301630Z AUTO 36011KT 9999 // NCD 18/10 Q1024
2026-04-30 16:00:00,METAR YMML 301600Z AUTO 01013KT 9999 // NCD 17/10 Q1024
2026-04-30 15:00:00,METAR YMML 301500Z AUTO 36010KT 9999 // NCD 16/09 Q1024
2026-04-30 14:30:00,METAR YMML 301430Z AUTO 01009KT 9999 // NCD 16/09 Q1024
2026-04-30 14:00:00,METAR YMML 301400Z AUTO 01009KT 9999 // NCD 14/08 Q1024
2026-04-30 13:30:00,METAR YMML 301330Z AUTO 01007KT 9999 // NCD 13/08 Q1024
2026-04-30 13:00:00,METAR YMML 301300Z AUTO 02006KT 9999 // NCD 12/08 Q1025
2026-04-30 12:30:00,METAR YMML 301230Z AUTO 01004KT 9999 // NCD 12/08 Q1025
2026-04-30 12:00:00,METAR YMML 301200Z AUTO 01005KT 9999 // NCD 14/08 Q1025
2026-04-30 11:30:00,METAR YMML 301130Z AUTO 03006KT 9999 // NCD 15/09 Q1025
2026-04-30 11:00:00,METAR YMML 301100Z AUTO 03006KT 9999 // NCD 16/09 Q1025
2026-04-30 10:30:00,METAR YMML 301030Z AUTO 04004KT 9999 // NCD 14/08 Q1025
2026-04-30 10:00:00,METAR YMML 301000Z AUTO 02004KT 9999 // NCD 17/09 Q1025
2026-04-30 09:30:00,METAR YMML 300930Z AUTO 02004KT 9999 // NCD 17/09 Q1025
2026-04-30 09:00:00,METAR YMML 300900Z AUTO 04005KT 9999 // NCD 18/08 Q1025
2026-04-30 08:30:00,METAR YMML 300830Z AUTO 03004KT 9999 // NCD 19/09 Q1024
2026-04-30 08:00:00,METAR YMML 300800Z AUTO 05006KT 9999 // NCD 19/08 Q1024
2026-04-30 07:30:00,METAR YMML 300730Z AUTO 04007KT 9999 // NCD 21/08 Q1024
2026-04-30 07:00:00,METAR YMML 300700Z AUTO 04009KT 9999 // NCD 22/09 Q1024
2026-04-30 06:30:00,METAR YMML 300630Z AUTO 04013KT 9999 // NCD 23/09 Q1024
2026-04-30 06:00:00,METAR YMML 300600Z AUTO 03012KT 9999 // NCD 24/09 Q1024
2026-04-30 05:30:00,METAR YMML 300530Z AUTO 03011KT 9999 // NCD 24/09 Q1024
2026-04-30 05:00:00,METAR YMML 300500Z AUTO 03013KT 9999 // NCD 23/09 Q1024
2026-04-30 04:30:00,METAR YMML 300430Z AUTO 02013KT 9999 // NCD 24/08 Q1025
2026-04-30 04:00:00,METAR YMML 300400Z AUTO 01015KT 9999 // NCD 24/08 Q1025
2026-04-30 03:30:00,METAR YMML 300330Z AUTO 01012KT 9999 // NCD 24/09 Q1025
2026-04-30 03:00:00,METAR YMML 300300Z AUTO 01013KT 9999 // NCD 24/09 Q1025
2026-04-30 02:30:00,METAR YMML 300230Z AUTO 01015KT 9999 // NCD 23/09 Q1026
2026-04-30 02:00:00,METAR YMML 300200Z AUTO 01018KT 9999 // NCD 23/09 Q1026
2026-04-30 01:30:00,METAR YMML 300130Z AUTO 36017KT 9999 // NCD 23/10 Q1027
2026-04-30 01:00:00,METAR YMML 300100Z AUTO 01015KT 9999 // NCD 21/10 Q1027
2026-04-30 00:30:00,METAR YMML 300030Z AUTO 01020KT 9999 // NCD 21/10 Q1027
2026-04-30 00:00:00,METAR YMML 300000Z AUTO 01022KT 9999 // NCD 21/09 Q1027
2026-04-29 23:30:00,METAR YMML 292330Z AUTO 01020KT 9999 // NCD 21/10 Q1028
2026-04-29 23:00:00,METAR YMML 292300Z AUTO 01020KT 9999 // NCD 20/10 Q1028
2026-04-29 22:30:00,METAR YMML 292230Z AUTO 01019KT 9999 // NCD 19/09 Q1027
2026-04-29 22:00:00,METAR YMML 292200Z AUTO 01017KT 9999 // NCD 18/09 Q1027
2026-04-29 21:30:00,METAR YMML 292130Z AUTO 01014KT 9999 // NCD 17/08 Q1027
2026-04-29 21:00:00,METAR YMML 292100Z AUTO 01015KT 9999 // NCD 16/08 Q1027
2026-04-29 20:30:00,METAR YMML 292030Z AUTO 01014KT 9999 // NCD 15/08 Q1026
2026-04-29 20:00:00,METAR YMML 292000Z AUTO 01014KT 9999 // NCD 15/07 Q1026
2026-04-29 19:30:00,METAR YMML 291930Z AUTO 36014KT 9999 // NCD 16/08 Q1026
2026-04-29 19:00:00,METAR YMML 291900Z AUTO 36014KT 9999 // NCD 16/08 Q1026
2026-04-29 18:30:00,METAR YMML 291830Z AUTO 36012KT 9999 // NCD 16/08 Q1026
2026-04-29 18:00:00,METAR YMML 291800Z AUTO 01011KT 9999 // NCD 15/08 Q1026
2026-04-29 17:30:00,METAR YMML 291730Z AUTO 01013KT 9999 // NCD 16/08 Q1026
2026-04-29 17:00:00,METAR YMML 291700Z AUTO 01012KT 9999 // NCD 14/08 Q1026
2026-04-29 16:30:00,METAR YMML 291630Z AUTO 01011KT 9999 // NCD 14/08 Q1026
2026-04-29 16:00:00,METAR YMML 291600Z AUTO 01012KT 9999 // NCD 15/08 Q1026
2026-04-29 15:30:00,METAR YMML 291530Z AUTO 01011KT 9999 // NCD 15/09 Q1026
2026-04-29 15:00:00,METAR YMML 291500Z AUTO 01013KT 9999 // NCD 13/09 Q1026
2026-04-29 14:30:00,METAR YMML 291430Z AUTO 02009KT 9999 // NCD 11/09 Q1027
2026-04-29 14:00:00,METAR YMML 291400Z AUTO 03007KT 9999 // NCD 11/09 Q1027
2026-04-29 13:30:00,METAR YMML 291330Z AUTO 01006KT 9999 // NCD 12/11 Q1027
2026-04-29 13:00:00,METAR YMML 291300Z AUTO 01007KT 9999 // NCD 12/10 Q1027
2026-04-29 12:30:00,METAR YMML 291230Z AUTO 01005KT 9999 // NCD 13/11 Q1027
2026-04-29 12:00:00,METAR YMML 291200Z AUTO 01008KT 9999 // NCD 14/11 Q1028
2026-04-29 11:30:00,METAR YMML 291130Z AUTO 01007KT 9999 // NCD 14/12 Q1027
2026-04-29 11:00:00,METAR YMML 291100Z AUTO 36005KT 9999 // NCD 14/11 Q1027
2026-04-29 10:30:00,METAR YMML 291030Z AUTO 36005KT 9999 // NCD 14/11 Q1027
2026-04-29 10:00:00,METAR YMML 291000Z AUTO 33004KT 9999 // NCD 15/11 Q1027
2026-04-29 09:30:00,METAR YMML 290930Z AUTO 29005KT 9999 // NCD 16/12 Q1027
2026-04-29 09:00:00,METAR YMML 290900Z AUTO 27005KT 9999 // BKN076 16/12 Q1027
2026-04-29 08:30:00,METAR YMML 290830Z AUTO 21004KT 9999 // BKN076 16/12 Q1027
2026-04-29 08:00:00,METAR YMML 290800Z AUTO 21005KT 9999 // SCT075 17/12 Q1027
2026-04-29 07:30:00,METAR YMML 290730Z AUTO 20005KT 9999 // NCD 18/12 Q1027
2026-04-29 07:00:00,METAR YMML 290700Z AUTO 20007KT 9999 // NCD 19/13 Q1026
2026-04-29 06:30:00,METAR YMML 290630Z AUTO 19007KT 9999 // NCD 20/13 Q1026
2026-04-29 06:00:00,METAR YMML 290600Z AUTO 18006KT 9999 // NCD 21/13 Q1026
2026-04-29 05:30:00,METAR YMML 290530Z AUTO 17007KT 9999 // NCD 21/13 Q1026
2026-04-29 05:00:00,METAR YMML 290500Z AUTO 16009KT 9999 // NCD 20/12 Q1026
2026-04-29 04:30:00,METAR YMML 290430Z AUTO 15008KT 9999 // NCD 21/12 Q1026
2026-04-29 04:00:00,METAR YMML 290400Z AUTO 16008KT 9999 // NCD 22/12 Q1027
2026-04-29 03:30:00,METAR YMML 290330Z AUTO 14007KT 9999 // NCD 21/11 Q1027
2026-04-29 03:00:00,METAR YMML 290300Z AUTO 15007KT 9999 // NCD 22/12 Q1027
2026-04-29 02:30:00,METAR YMML 290230Z AUTO 14006KT 9999 // NCD 21/12 Q1028
2026-04-29 02:00:00,METAR YMML 290200Z AUTO 13005KT 100V170 9999 // NCD 21/12 Q1028
2026-04-29 01:30:00,METAR YMML 290130Z AUTO 12004KT 090V160 9999 // NCD 20/12 Q1029
2026-04-29 01:00:00,METAR YMML 290100Z AUTO 12005KT 9999 // NCD 19/12 Q1029
2026-04-29 00:30:00,METAR YMML 290030Z AUTO 11005KT 9999 // NCD 18/12 Q1029
2026-04-29 00:00:00,METAR YMML 290000Z AUTO 09005KT 9999 // NCD 18/12 Q1029
2026-04-28 23:30:00,METAR YMML 282330Z AUTO 09001KT 9999 // FEW011 16/13 Q1029
2026-04-28 23:00:00,METAR YMML 282300Z AUTO 34001KT 9999 // NCD 16/14 Q1029
2026-04-28 22:30:00,METAR YMML 282230Z AUTO 35002KT 9999 // NCD 13/12 Q1029
2026-04-28 22:00:00,METAR YMML 282200Z AUTO 36005KT 9999 // NCD 13/12 Q1029
2026-04-28 21:30:00,METAR YMML 282130Z AUTO 36006KT 9999 // NCD 12/12 Q1028
2026-04-28 21:00:00,METAR YMML 282100Z AUTO 36005KT 9999 // NCD 12/11 Q1028
2026-04-28 20:30:00,METAR YMML 282030Z AUTO 36003KT 9999 // NCD 11/10 Q1028
2026-04-28 20:00:00,METAR YMML 282000Z AUTO 32003KT 9999 // NCD 11/11 Q1028
2026-04-28 19:30:00,METAR YMML 281930Z AUTO 31004KT 9999 // NCD 12/11 Q1027
2026-04-28 19:00:00,METAR YMML 281900Z AUTO 00000KT 9999 // FEW013 12/11 Q1027
2026-04-28 18:30:00,METAR YMML 281830Z AUTO 33001KT 9999 // NCD 12/11 Q1027
2026-04-28 18:15:00,SPECI YMML 281815Z AUTO 33003KT 9999 // SCT018 12/11 Q1027
2026-04-28 18:00:00,METAR YMML 281800Z AUTO 30003KT 9999 // OVC016 13/12 Q1027
2026-04-28 17:30:00,METAR YMML 281730Z AUTO 30003KT 9999 // BKN016 13/12 Q1027
2026-04-28 17:10:00,SPECI YMML 281710Z AUTO 29005KT 9999 // BKN016 13/12 Q1027
2026-04-28 17:00:00,METAR YMML 281700Z AUTO 29006KT 9999 // FEW016 12/12 Q1027
2026-04-28 16:30:00,METAR YMML 281630Z AUTO 29005KT 9999 // NCD 12/11 Q1027
2026-04-28 16:12:00,SPECI YMML 281612Z AUTO 29005KT 9999 // FEW013 13/11 Q1027
2026-04-28 16:00:00,METAR YMML 281600Z AUTO 29005KT 9999 // BKN013 13/11 Q1027
2026-04-28 15:40:00,SPECI YMML 281540Z AUTO 29005KT 9999 // BKN013 BKN078 13/11 Q1027
2026-04-28 15:30:00,METAR YMML 281530Z AUTO 29004KT 9999 // FEW013 SCT078 13/11 Q1027
2026-04-28 15:00:00,METAR YMML 281500Z AUTO 28005KT 9999 // FEW084 13/11 Q1027
2026-04-28 14:30:00,METAR YMML 281430Z AUTO 28004KT 9999 // NCD 13/12 Q1027
2026-04-28 14:00:00,METAR YMML 281400Z AUTO 23005KT 9999 // NCD 14/12 Q1027
2026-04-28 13:30:00,METAR YMML 281330Z AUTO 24004KT 9999 // FEW075 14/11 Q1026
2026-04-28 13:00:00,METAR YMML 281300Z AUTO 22006KT 9999 // NCD 15/12 Q1026
2026-04-28 12:30:00,METAR YMML 281230Z AUTO 24005KT 9999 // NCD 15/12 Q1026
2026-04-28 12:00:00,METAR YMML 281200Z AUTO 20007KT 9999 // NCD 16/12 Q1025
2026-04-28 11:30:00,METAR YMML 281130Z AUTO 19009KT 9999 // NCD 17/12 Q1025
2026-04-28 11:00:00,METAR YMML 281100Z AUTO 28006KT 9999 // NCD 17/09 Q1024
2026-04-28 10:30:00,METAR YMML 281030Z AUTO 36010KT 9999 // NCD 19/09 Q1024
2026-04-28 10:00:00,METAR YMML 281000Z AUTO 36010KT 9999 // NCD 19/09 Q1024
2026-04-28 09:30:00,METAR YMML 280930Z AUTO 01009KT 9999 // NCD 19/09 Q1023
2026-04-28 09:00:00,METAR YMML 280900Z AUTO 01008KT 9999 // NCD 20/09 Q1023
2026-04-28 08:30:00,METAR YMML 280830Z AUTO 01007KT 9999 // FEW093 20/09 Q1023
2026-04-28 08:00:00,METAR YMML 280800Z AUTO 34005KT 9999 // BKN077 OVC091 22/08 Q1023
2026-04-28 07:30:00,METAR YMML 280730Z AUTO 33005KT 9999 // BKN093 21/08 Q1023
2026-04-28 07:00:00,METAR YMML 280700Z AUTO 31008KT 9999 // BKN093 22/08 Q1022
2026-04-28 06:30:00,METAR YMML 280630Z AUTO 31007KT 9999 // SCT079 BKN089 23/08 Q1022
2026-04-28 06:00:00,METAR YMML 280600Z AUTO 34006KT 9999 // FEW081 24/08 Q1022
2026-04-28 05:30:00,METAR YMML 280530Z AUTO 31010KT 9999 // NCD 25/08 Q1022
2026-04-28 05:00:00,METAR YMML 280500Z AUTO 31012KT 9999 // FEW074 25/08 Q1023
2026-04-28 04:30:00,METAR YMML 280430Z AUTO 30011KT 9999 // SCT074 25/09 Q1022
2026-04-28 04:00:00,METAR YMML 280400Z AUTO 30010KT 9999 // FEW068 24/08 Q1022
2026-04-28 03:30:00,METAR YMML 280330Z AUTO 31013KT 9999 // FEW076 25/10 Q1023
2026-04-28 03:00:00,METAR YMML 280300Z AUTO 29014KT 9999 // NCD 26/09 Q1023
2026-04-28 02:30:00,METAR YMML 280230Z AUTO 31012KT 9999 // NCD 25/10 Q1023
2026-04-28 02:00:00,METAR YMML 280200Z AUTO 36011KT 9999 // NCD 24/11 Q1024
2026-04-28 01:30:00,METAR YMML 280130Z AUTO 02013KT 9999 // NCD 23/10 Q1024
2026-04-28 01:00:00,METAR YMML 280100Z AUTO 02014KT 9999 // NCD 23/12 Q1024
2026-04-28 00:30:00,METAR YMML 280030Z AUTO 01013KT 9999 // NCD 23/12 Q1024
2026-04-28 00:00:00,METAR YMML 280000Z AUTO 01015KT 9999 // NCD 21/12 Q1025
2026-04-27 23:30:00,METAR YMML 272330Z AUTO 01014KT 9999 // NCD 19/12 Q1025
2026-04-27 23:00:00,METAR YMML 272300Z AUTO 01013KT 9999 // NCD 17/12 Q1025
2026-04-27 22:30:00,METAR YMML 272230Z AUTO 01013KT 9999 // NCD 16/12 Q1024
2026-04-27 22:00:00,METAR YMML 272200Z AUTO 01008KT 9999 // NCD 14/11 Q1024
2026-04-27 21:30:00,METAR YMML 272130Z AUTO 02007KT 9999 // FEW064 10/09 Q1024
2026-04-27 21:00:00,METAR YMML 272100Z AUTO 02006KT 9999 // BKN064 10/09 Q1024
2026-04-27 20:30:00,METAR YMML 272030Z AUTO 01004KT 9999 // FEW064 09/09 Q1024
2026-04-27 20:00:00,METAR YMML 272000Z AUTO 02005KT 9999 // NCD 09/09 Q1024
2026-04-27 19:39:00,SPECI YMML 271939Z AUTO 02007KT 9999 // NCD 10/09 Q1024
2026-04-27 19:32:00,SPECI YMML 271932Z AUTO 01008KT 8000 // FEW008 10/10 Q1024
2026-04-27 19:30:00,SPECI YMML 271930Z AUTO 01008KT 7000 // FEW008 10/10 Q1024
2026-04-27 19:14:00,SPECI YMML 271914Z AUTO 01008KT 1000 R16/0800V1500U BR FEW001 BKN006 10/10 Q1024
2026-04-27 19:00:00,SPECI YMML 271900Z AUTO 01009KT 0400 R16/0700N FG FEW001 BKN006 10/10 Q1024
2026-04-27 18:52:00,SPECI YMML 271852Z AUTO 01009KT 0500 R16/0750D FG SCT001 BKN005 10/10 Q1024
2026-04-27 18:49:00,SPECI YMML 271849Z AUTO 01009KT 0800 R16/0750D FG FEW001 SCT005 10/10 Q1024
2026-04-27 18:36:00,SPECI YMML 271836Z AUTO 01006KT 6000 // FEW001 10/10 Q1024
2026-04-27 18:30:00,SPECI YMML 271830Z AUTO 01006KT 3900 BR SCT001 10/10 Q1024
2026-04-27 18:00:00,METAR YMML 271800Z AUTO 36006KT 0300 R16/0800V1200U FG OVC001 11/11 Q1024
2026-04-27 17:49:00,SPECI YMML 271749Z AUTO 36007KT 0300 R16/0750D FG OVC001 11/11 Q1024
2026-04-27 17:30:00,SPECI YMML 271730Z AUTO 01008KT 2200 BR BKN001 11/10 Q1024
2026-04-27 17:29:00,SPECI YMML 271729Z AUTO 36007KT 2700 BR BKN002 11/10 Q1024
2026-04-27 17:23:00,SPECI YMML 271723Z AUTO 36006KT 6000 // SCT002 10/10 Q1024
2026-04-27 17:00:00,METAR YMML 271700Z AUTO 36004KT 7000 // NCD 09/08 Q1024
2026-04-27 16:30:00,METAR YMML 271630Z AUTO 01007KT 8000 // NCD 10/09 Q1024
2026-04-27 16:00:00,METAR YMML 271600Z AUTO 01006KT 9999 // NCD 10/10 Q1024
2026-04-27 15:30:00,METAR YMML 271530Z AUTO 34005KT 9999 // NCD 10/10 Q1025
2026-04-27 15:00:00,METAR YMML 271500Z AUTO 33004KT 9999 // NCD 10/09 Q1025
2026-04-27 14:30:00,METAR YMML 271430Z AUTO 33004KT 9999 // NCD 10/09 Q1025
2026-04-27 14:00:00,METAR YMML 271400Z AUTO 32004KT 9999 // NCD 10/09 Q1025
2026-04-27 13:30:00,METAR YMML 271330Z AUTO 30004KT 9999 // SCT017 11/11 Q1026
2026-04-27 13:00:00,METAR YMML 271300Z AUTO 28006KT 9999 // NCD 11/10 Q1026
2026-04-27 12:30:00,METAR YMML 271230Z AUTO 29006KT 9999 // NCD 11/11 Q1026
2026-04-27 12:00:00,METAR YMML 271200Z AUTO 00000KT 9999 // NCD 11/10 Q1026
2026-04-27 11:30:00,METAR YMML 271130Z AUTO 00000KT 9999 // NCD 12/11 Q1026
2026-04-27 11:00:00,METAR YMML 271100Z AUTO 00000KT 9999 // NCD 13/11 Q1026
2026-04-27 10:30:00,METAR YMML 271030Z AUTO 00000KT 9999 // NCD 14/13 Q1026
2026-04-27 10:00:00,METAR YMML 271000Z AUTO 00000KT 9999 // NCD 13/12 Q1025
2026-04-27 09:30:00,METAR YMML 270930Z AUTO 21004KT 9999 // NCD 13/12 Q1025
2026-04-27 09:00:00,METAR YMML 270900Z AUTO 20005KT 9999 // NCD 14/11 Q1025
2026-04-27 08:30:00,METAR YMML 270830Z AUTO 18006KT 9999 // NCD 14/11 Q1025
2026-04-27 08:00:00,METAR YMML 270800Z AUTO 19006KT 9999 // NCD 15/11 Q1024
2026-04-27 07:30:00,METAR YMML 270730Z AUTO 19005KT 9999 // NCD 16/11 Q1024
2026-04-27 07:00:00,METAR YMML 270700Z AUTO 16006KT 9999 // NCD 17/11 Q1024
2026-04-27 06:30:00,METAR YMML 270630Z AUTO 18008KT 9999 // NCD 18/12 Q1024
2026-04-27 06:00:00,METAR YMML 270600Z AUTO 19009KT 9999 // NCD 18/12 Q1024
2026-04-27 05:30:00,METAR YMML 270530Z AUTO 18009KT 9999 // NCD 19/12 Q1024
2026-04-27 05:00:00,METAR YMML 270500Z AUTO 18010KT 9999 // NCD 19/13 Q1024
2026-04-27 04:30:00,METAR YMML 270430Z AUTO 19010KT 9999 // NCD 19/12 Q1024
2026-04-27 04:00:00,METAR YMML 270400Z AUTO 18006KT 150V220 9999 // NCD 20/12 Q1024
2026-04-27 03:30:00,METAR YMML 270330Z AUTO 11005KT 080V180 9999 // NCD 19/12 Q1024
2026-04-27 03:00:00,METAR YMML 270300Z AUTO 20005KT 130V220 9999 // BKN024 19/12 Q1024
2026-04-27 02:30:00,METAR YMML 270230Z AUTO 00000KT 9999 // FEW020 20/13 Q1025
2026-04-27 02:00:00,METAR YMML 270200Z AUTO 17003KT 9999 // OVC020 18/12 Q1025
2026-04-27 01:30:00,METAR YMML 270130Z AUTO 19004KT 9999 // OVC020 17/12 Q1026
2026-04-27 01:00:00,METAR YMML 270100Z AUTO 30004KT 9999 // OVC022 17/12 Q1026
2026-04-27 00:30:00,METAR YMML 270030Z AUTO 23001KT 9999 // OVC022 17/13 Q1026
2026-04-27 00:00:00,METAR YMML 270000Z AUTO 08004KT 9999 // OVC022 16/12 Q1025
2026-04-26 23:30:00,METAR YMML 262330Z AUTO 32001KT 9999 // FEW013 OVC024 16/13 Q1026
2026-04-26 23:25:00,SPECI YMML 262325Z AUTO 31002KT 9999 // FEW013 OVC024 16/13 Q1026
2026-04-26 23:00:00,METAR YMML 262300Z AUTO 06002KT 9999 // OVC013 OVC024 15/12 Q1026
2026-04-26 22:30:00,METAR YMML 262230Z AUTO 00000KT 9999 // OVC013 OVC024 14/12 Q1026
2026-04-26 22:00:00,METAR YMML 262200Z AUTO 32004KT 9999 // BKN013 OVC026 14/12 Q1025
2026-04-26 21:30:00,METAR YMML 262130Z AUTO 30003KT 9999 // SCT013 OVC024 14/12 Q1025
2026-04-26 21:20:00,SPECI YMML 262120Z AUTO 29004KT 9999 // BKN013 OVC024 13/12 Q1025
2026-04-26 21:16:00,SPECI YMML 262116Z AUTO 29004KT 9999 // SCT013 OVC024 13/12 Q1025
2026-04-26 21:00:00,METAR YMML 262100Z AUTO 29004KT 9999 // BKN013 OVC022 13/12 Q1025
2026-04-26 20:30:00,METAR YMML 262030Z AUTO 29004KT 9999 // BKN015 OVC020 13/12 Q1024
2026-04-26 20:00:00,METAR YMML 262000Z AUTO 30001KT 9999 // OVC015 13/12 Q1024
2026-04-26 19:30:00,METAR YMML 261930Z AUTO 30004KT 9999 // OVC013 OVC017 12/11 Q1024
2026-04-26 19:00:00,METAR YMML 261900Z AUTO 01007KT 9999 // FEW010 OVC015 13/12 Q1023
2026-04-26 18:45:00,SPECI YMML 261845Z AUTO 01007KT 9999 // OVC015 12/11 Q1023
2026-04-26 18:30:00,METAR YMML 261830Z AUTO 01006KT 9999 // BKN017 12/11 Q1023
2026-04-26 18:00:00,METAR YMML 261800Z AUTO 01007KT 9999 // FEW008 BKN017 11/11 Q1023
2026-04-26 17:53:00,SPECI YMML 261753Z AUTO 01006KT 9999 // FEW008 OVC017 11/11 Q1023
2026-04-26 17:30:00,METAR YMML 261730Z AUTO 01004KT 9999 // BKN008 OVC021 12/11 Q1023
2026-04-26 17:25:00,SPECI YMML 261725Z AUTO 01004KT 9999 // BKN008 OVC021 11/10 Q1023
2026-04-26 17:00:00,METAR YMML 261700Z AUTO 36005KT 9999 // FEW021 10/09 Q1023
2026-04-26 16:30:00,METAR YMML 261630Z AUTO 36004KT 9999 // NCD 10/09 Q1023
2026-04-26 16:00:00,METAR YMML 261600Z AUTO 00000KT 9999 // NCD 10/09 Q1023
2026-04-26 15:30:00,METAR YMML 261530Z AUTO 34001KT 9999 // NCD 10/09 Q1023
2026-04-26 15:00:00,METAR YMML 261500Z AUTO 36007KT 9999 // NCD 12/11 Q1023
2026-04-26 14:30:00,METAR YMML 261430Z AUTO 01008KT 9999 // NCD 11/10 Q1022
2026-04-26 14:00:00,METAR YMML 261400Z AUTO 34006KT 9999 // NCD 12/10 Q1022
2026-04-26 13:30:00,METAR YMML 261330Z AUTO 27005KT 9999 // NCD 12/11 Q1023
2026-04-26 13:00:00,METAR YMML 261300Z AUTO 28004KT 9999 // NCD 12/10 Q1022
2026-04-26 12:30:00,METAR YMML 261230Z AUTO 28002KT 9999 // NCD 12/10 Q1022
2026-04-26 12:00:00,METAR YMML 261200Z AUTO 26005KT 9999 // NCD 12/10 Q1022
2026-04-26 11:30:00,METAR YMML 261130Z AUTO 33005KT 9999 // NCD 15/12 Q1022
2026-04-26 11:00:00,METAR YMML 261100Z AUTO 35005KT 9999 // NCD 14/12 Q1021
2026-04-26 10:30:00,METAR YMML 261030Z AUTO 26004KT 9999 // NCD 14/11 Q1022
2026-04-26 10:00:00,METAR YMML 261000Z AUTO 20001KT 9999 // FEW100 15/12 Q1022
2026-04-26 09:30:00,METAR YMML 260930Z AUTO 21006KT 9999 // NCD 15/12 Q1022
2026-04-26 09:00:00,METAR YMML 260900Z AUTO 18007KT 9999 // BKN100 BKN120 17/12 Q1021
2026-04-26 08:30:00,METAR YMML 260830Z AUTO 19012KT 9999 // OVC100 17/13 Q1021
2026-04-26 08:00:00,METAR YMML 260800Z AUTO 19016KT 9999 // OVC100 18/12 Q1021
2026-04-26 07:56:00,SPECI YMML 260756Z AUTO 19015KT 9999 // OVC100 19/12 Q1020
2026-04-26 07:30:00,METAR YMML 260730Z AUTO 01008KT 9999 // BKN100 23/06 Q1019
2026-04-26 07:00:00,METAR YMML 260700Z AUTO 02008KT 9999 // NCD 23/07 Q1019
2026-04-26 06:30:00,METAR YMML 260630Z AUTO 01011KT 9999 // NCD 24/07 Q1019
2026-04-26 06:00:00,METAR YMML 260600Z AUTO 02012KT 9999 // NCD 25/08 Q1019
2026-04-26 05:30:00,METAR YMML 260530Z AUTO 36011KT 9999 // NCD 26/05 Q1019
2026-04-26 05:00:00,METAR YMML 260500Z AUTO 35013KT 9999 // NCD 26/04 Q1019
2026-04-26 04:30:00,METAR YMML 260430Z AUTO 36015KT 9999 // NCD 25/05 Q1019
2026-04-26 04:00:00,METAR YMML 260400Z AUTO 01011KT 9999 // NCD 25/07 Q1019
2026-04-26 03:30:00,METAR YMML 260330Z AUTO 01014KT 9999 // NCD 25/07 Q1019
2026-04-26 03:00:00,METAR YMML 260300Z AUTO 01015KT 9999 // NCD 26/06 Q1019
2026-04-26 02:30:00,METAR YMML 260230Z AUTO 01014KT 9999 // NCD 26/07 Q1020
2026-04-26 02:00:00,METAR YMML 260200Z AUTO 01013KT 9999 // NCD 24/07 Q1020
2026-04-26 01:30:00,METAR YMML 260130Z AUTO 01014KT 9999 // NCD 22/09 Q1020
2026-04-26 01:00:00,METAR YMML 260100Z AUTO 01019G29KT 9999 // NCD 21/09 Q1021
2026-04-26 00:56:00,SPECI YMML 260056Z AUTO 01019G29KT 9999 // NCD 20/08 Q1021
2026-04-26 00:30:00,METAR YMML 260030Z AUTO 01020KT 9999 // NCD 20/08 Q1021
2026-04-26 00:00:00,METAR YMML 260000Z AUTO 01023KT 9999 // NCD 20/08 Q1021
2026-04-25 23:30:00,METAR YMML 252330Z AUTO 01021KT 9999 // NCD 20/08 Q1021
2026-04-25 23:00:00,METAR YMML 252300Z AUTO 01023KT 9999 // NCD 19/08 Q1021
2026-04-25 22:30:00,METAR YMML 252230Z AUTO 01021KT 9999 // NCD 18/08 Q1021
2026-04-25 22:00:00,METAR YMML 252200Z AUTO 36018KT 9999 // NCD 18/08 Q1022
2026-04-25 21:30:00,METAR YMML 252130Z AUTO 01020KT 9999 // NCD 18/08 Q1021
2026-04-25 21:00:00,METAR YMML 252100Z AUTO 01020KT 9999 // NCD 18/08 Q1021
2026-04-25 20:30:00,METAR YMML 252030Z AUTO 01019KT 9999 // NCD 17/08 Q1021
2026-04-25 20:00:00,METAR YMML 252000Z AUTO 01018KT 9999 // NCD 17/08 Q1021
2026-04-25 19:30:00,METAR YMML 251930Z AUTO 36019KT 9999 // NCD 18/08 Q1021
2026-04-25 19:00:00,METAR YMML 251900Z AUTO 36018KT 9999 // NCD 18/08 Q1021
2026-04-25 18:30:00,METAR YMML 251830Z AUTO 36018KT 9999 // NCD 17/08 Q1021
2026-04-25 18:00:00,METAR YMML 251800Z AUTO 01018KT 9999 // NCD 17/08 Q1020
2026-04-25 17:30:00,METAR YMML 251730Z AUTO 01017KT 9999 // NCD 17/08 Q1021
2026-04-25 17:00:00,METAR YMML 251700Z AUTO 36016KT 9999 // NCD 17/08 Q1021
2026-04-25 16:30:00,METAR YMML 251630Z AUTO 36017KT 9999 // NCD 17/08 Q1021
2026-04-25 16:00:00,METAR YMML 251600Z AUTO 36015KT 9999 // NCD 17/08 Q1021
2026-04-25 15:30:00,METAR YMML 251530Z AUTO 01017KT 9999 // NCD 17/08 Q1021
2026-04-25 15:00:00,METAR YMML 251500Z AUTO 01017KT 9999 // NCD 17/09 Q1021
2026-04-25 14:30:00,METAR YMML 251430Z AUTO 36015KT 9999 // NCD 17/08 Q1021
2026-04-25 14:00:00,METAR YMML 251400Z AUTO 01014KT 9999 // NCD 17/08 Q1022
2026-04-25 13:48:00,SPECI YMML 251348Z AUTO 01016G26KT 9999 // NCD 18/08 Q1022
2026-04-25 13:30:00,METAR YMML 251330Z AUTO 01015KT 9999 // NCD 18/08 Q1022
2026-04-25 13:00:00,METAR YMML 251300Z AUTO 01015KT 9999 // NCD 18/07 Q1023
2026-04-25 12:30:00,METAR YMML 251230Z AUTO 01014KT 9999 // NCD 18/07 Q1023
2026-04-25 12:00:00,METAR YMML 251200Z AUTO 01011KT 9999 // NCD 17/06 Q1023
2026-04-25 11:30:00,METAR YMML 251130Z AUTO 01010KT 9999 // NCD 18/07 Q1023
2026-04-25 11:00:00,METAR YMML 251100Z AUTO 01011KT 9999 // NCD 18/06 Q1023
2026-04-25 10:30:00,METAR YMML 251030Z AUTO 01009KT 9999 // NCD 16/07 Q1024
2026-04-25 10:00:00,METAR YMML 251000Z AUTO 01007KT 9999 // NCD 17/07 Q1024
2026-04-25 09:30:00,METAR YMML 250930Z AUTO 01005KT 9999 // NCD 18/06 Q1024
2026-04-25 09:00:00,METAR YMML 250900Z AUTO 03007KT 9999 // NCD 18/07 Q1024
2026-04-25 08:30:00,METAR YMML 250830Z AUTO 04008KT 9999 // NCD 20/07 Q1023
2026-04-25 08:00:00,METAR YMML 250800Z AUTO 04007KT 9999 // NCD 20/07 Q1023
2026-04-25 07:30:00,METAR YMML 250730Z AUTO 04008KT 9999 // NCD 22/07 Q1023
2026-04-25 07:00:00,METAR YMML 250700Z AUTO 01010KT 9999 // NCD 22/07 Q1023
2026-04-25 06:30:00,METAR YMML 250630Z AUTO 01011KT 9999 // NCD 24/06 Q1023
2026-04-25 06:00:00,METAR YMML 250600Z AUTO 36012KT 9999 // NCD 24/05 Q1023
2026-04-25 05:30:00,METAR YMML 250530Z AUTO 36014KT 9999 // NCD 25/06 Q1024
2026-04-25 05:00:00,METAR YMML 250500Z AUTO 35016KT 9999 // NCD 25/05 Q1024
2026-04-25 04:30:00,METAR YMML 250430Z AUTO 35016KT 9999 // NCD 25/06 Q1024
2026-04-25 04:00:00,METAR YMML 250400Z AUTO 36017KT 9999 // NCD 25/06 Q1024
2026-04-25 03:30:00,METAR YMML 250330Z AUTO 01016KT 9999 // NCD 25/06 Q1025
2026-04-25 03:00:00,METAR YMML 250300Z AUTO 03016KT 9999 // NCD 24/07 Q1026
2026-04-25 02:30:00,METAR YMML 250230Z AUTO 03017KT 9999 // NCD 23/08 Q1026
2026-04-25 02:25:00,SPECI YMML 250225Z AUTO 03017G27KT 9999 // NCD 23/08 Q1026
2026-04-25 02:00:00,METAR YMML 250200Z AUTO 03018KT 9999 // NCD 22/07 Q1027
2026-04-25 01:30:00,METAR YMML 250130Z AUTO 03019KT 9999 // NCD 22/07 Q1027
2026-04-25 01:13:00,SPECI YMML 250113Z AUTO 02019G29KT 9999 // NCD 21/08 Q1027
2026-04-25 01:00:00,METAR YMML 250100Z AUTO 02022KT 9999 // NCD 21/08 Q1028
2026-04-25 00:30:00,METAR YMML 250030Z AUTO 02022KT 9999 // NCD 21/08 Q1028
2026-04-25 00:00:00,METAR YMML 250000Z AUTO 02023KT 9999 // NCD 19/08 Q1028
2026-04-24 23:30:00,METAR YMML 242330Z AUTO 02017KT 9999 // NCD 19/08 Q1029
2026-04-24 23:00:00,METAR YMML 242300Z AUTO 01015KT 9999 // NCD 17/08 Q1029
2026-04-24 22:30:00,METAR YMML 242230Z AUTO 02011KT 9999 // NCD 16/08 Q1029
2026-04-24 22:00:00,METAR YMML 242200Z AUTO 02005KT 9999 // NCD 14/08 Q1029
2026-04-24 21:30:00,METAR YMML 242130Z AUTO 02009KT 9999 // NCD 13/08 Q1028
2026-04-24 21:00:00,METAR YMML 242100Z AUTO 02007KT 9999 // NCD 12/07 Q1028
2026-04-24 20:30:00,METAR YMML 242030Z AUTO 05005KT 9999 // NCD 10/06 Q1028
2026-04-24 20:00:00,METAR YMML 242000Z AUTO 03006KT 9999 // NCD 09/06 Q1028
2026-04-24 19:30:00,METAR YMML 241930Z AUTO 08006KT 9999 // NCD 11/06 Q1028
2026-04-24 19:00:00,METAR YMML 241900Z AUTO 00000KT 9999 // NCD 11/05 Q1028
2026-04-24 18:30:00,METAR YMML 241830Z AUTO 03003KT 9999 // NCD 12/06 Q1027
2026-04-24 18:00:00,METAR YMML 241800Z AUTO 02006KT 9999 // NCD 12/07 Q1027
2026-04-24 17:30:00,METAR YMML 241730Z AUTO 01008KT 9999 // NCD 13/07 Q1027
2026-04-24 17:00:00,METAR YMML 241700Z AUTO 36005KT 9999 // NCD 13/07 Q1027
2026-04-24 16:30:00,METAR YMML 241630Z AUTO 02007KT 9999 // NCD 12/07 Q1027
2026-04-24 16:00:00,METAR YMML 241600Z AUTO 03006KT 9999 // NCD 10/06 Q1027
2026-04-24 15:30:00,METAR YMML 241530Z AUTO 03004KT 9999 // NCD 12/06 Q1028
2026-04-24 15:00:00,METAR YMML 241500Z AUTO 05005KT 9999 // NCD 09/05 Q1028
2026-04-24 14:30:00,METAR YMML 241430Z AUTO 02006KT 9999 // NCD 11/06 Q1028
2026-04-24 14:00:00,METAR YMML 241400Z AUTO 02007KT 9999 // NCD 11/06 Q1028
2026-04-24 13:30:00,METAR YMML 241330Z AUTO 01009KT 9999 // NCD 12/06 Q1029
2026-04-24 13:00:00,METAR YMML 241300Z AUTO 01007KT 9999 // NCD 12/06 Q1029
2026-04-24 12:30:00,METAR YMML 241230Z AUTO 03008KT 9999 // NCD 10/06 Q1029
2026-04-24 12:00:00,METAR YMML 241200Z AUTO 02008KT 9999 // NCD 11/06 Q1029
2026-04-24 11:30:00,METAR YMML 241130Z AUTO 33004KT 9999 // NCD 12/06 Q1029
2026-04-24 11:00:00,METAR YMML 241100Z AUTO 03007KT 9999 // NCD 13/07 Q1029
2026-04-24 10:30:00,METAR YMML 241030Z AUTO 02007KT 9999 // NCD 13/06 Q1029
2026-04-24 10:00:00,METAR YMML 241000Z AUTO 01005KT 9999 // NCD 14/06 Q1029
2026-04-24 09:30:00,METAR YMML 240930Z AUTO 01006KT 9999 // NCD 16/06 Q1029
2026-04-24 09:00:00,METAR YMML 240900Z AUTO 03006KT 9999 // NCD 16/06 Q1028
2026-04-24 08:30:00,METAR YMML 240830Z AUTO 04004KT 9999 // NCD 18/06 Q1028
2026-04-24 08:00:00,METAR YMML 240800Z AUTO 05005KT 9999 // NCD 19/06 Q1028
2026-04-24 07:30:00,METAR YMML 240730Z AUTO 03007KT 9999 // NCD 20/06 Q1028
2026-04-24 07:00:00,METAR YMML 240700Z AUTO 01006KT 9999 // NCD 21/07 Q1028
2026-04-24 06:30:00,METAR YMML 240630Z AUTO 36008KT 9999 // NCD 21/06 Q1028
2026-04-24 06:00:00,METAR YMML 240600Z AUTO 01014KT 9999 // NCD 22/06 Q1028
2026-04-24 05:30:00,METAR YMML 240530Z AUTO 01014KT 9999 // NCD 23/06 Q1028
2026-04-24 05:00:00,METAR YMML 240500Z AUTO 36015KT 9999 // NCD 22/06 Q1028
2026-04-24 04:30:00,METAR YMML 240430Z AUTO 36015KT 9999 // NCD 23/07 Q1028
2026-04-24 04:00:00,METAR YMML 240400Z AUTO 01015KT 9999 // NCD 23/08 Q1028
2026-04-24 03:30:00,METAR YMML 240330Z AUTO 01015KT 9999 // NCD 23/07 Q1028
2026-04-24 03:00:00,METAR YMML 240300Z AUTO 03018KT 9999 // NCD 22/07 Q1029
2026-04-24 02:30:00,METAR YMML 240230Z AUTO 02017KT 9999 // NCD 22/08 Q1029
2026-04-24 02:00:00,METAR YMML 240200Z AUTO 02018KT 9999 // NCD 21/08 Q1030
2026-04-24 01:30:00,METAR YMML 240130Z AUTO 02016KT 9999 // NCD 20/08 Q1030
2026-04-24 01:00:00,METAR YMML 240100Z AUTO 03019KT 9999 // NCD 20/09 Q1030
2026-04-24 00:30:00,METAR YMML 240030Z AUTO 02022KT 9999 // NCD 19/09 Q1030
2026-04-24 00:08:00,SPECI YMML 240008Z AUTO 02022G32KT 9999 // NCD 18/09 Q1031
2026-04-24 00:00:00,METAR YMML 240000Z AUTO 02023KT 9999 // NCD 18/09 Q1031
2026-04-23 23:30:00,METAR YMML 232330Z AUTO 02019KT 9999 // NCD 17/09 Q1031
2026-04-23 23:00:00,METAR YMML 232300Z AUTO 02017KT 9999 // NCD 17/09 Q1031
2026-04-23 22:30:00,METAR YMML 232230Z AUTO 01010KT 9999 // NCD 16/09 Q1031
2026-04-23 22:00:00,METAR YMML 232200Z AUTO 36007KT 9999 // NCD 14/09 Q1031
2026-04-23 21:30:00,METAR YMML 232130Z AUTO 01006KT 9999 // NCD 12/08 Q1031
2026-04-23 21:00:00,METAR YMML 232100Z AUTO 01009KT 9999 // NCD 12/08 Q1030
2026-04-23 20:30:00,METAR YMML 232030Z AUTO 36010KT 9999 // NCD 13/08 Q1030
2026-04-23 20:00:00,METAR YMML 232000Z AUTO 01009KT 9999 // NCD 12/09 Q1030
2026-04-23 19:30:00,METAR YMML 231930Z AUTO 03008KT 9999 // NCD 10/08 Q1029
2026-04-23 19:00:00,METAR YMML 231900Z AUTO 01009KT 9999 // NCD 11/08 Q1029
2026-04-23 18:30:00,METAR YMML 231830Z AUTO 01010KT 9999 // NCD 13/08 Q1029
2026-04-23 18:00:00,METAR YMML 231800Z AUTO 01010KT 9999 // NCD 11/08 Q1029
2026-04-23 17:30:00,METAR YMML 231730Z AUTO 01010KT 9999 // NCD 11/08 Q1029
2026-04-23 17:00:00,METAR YMML 231700Z AUTO 01010KT 9999 // NCD 12/08 Q1029
2026-04-23 16:30:00,METAR YMML 231630Z AUTO 01010KT 9999 // NCD 14/08 Q1029
2026-04-23 16:00:00,METAR YMML 231600Z AUTO 36012KT 9999 // NCD 14/08 Q1029
2026-04-23 15:30:00,METAR YMML 231530Z AUTO 01011KT 9999 // NCD 15/09 Q1028
2026-04-23 15:00:00,METAR YMML 231500Z AUTO 36012KT 9999 // NCD 15/09 Q1028
2026-04-23 14:30:00,METAR YMML 231430Z AUTO 36013KT 9999 // NCD 15/09 Q1028
2026-04-23 14:00:00,METAR YMML 231400Z AUTO 01012KT 9999 // NCD 15/09 Q1028
2026-04-23 13:30:00,METAR YMML 231330Z AUTO 36011KT 9999 // NCD 16/09 Q1028
2026-04-23 13:00:00,METAR YMML 231300Z AUTO 36011KT 9999 // NCD 16/09 Q1028
2026-04-23 12:30:00,METAR YMML 231230Z AUTO 36011KT 9999 // NCD 16/10 Q1028
2026-04-23 12:00:00,METAR YMML 231200Z AUTO 01010KT 9999 // NCD 17/10 Q1028
2026-04-23 11:30:00,METAR YMML 231130Z AUTO 36010KT 9999 // NCD 17/10 Q1028
2026-04-23 11:00:00,METAR YMML 231100Z AUTO 01011KT 9999 // NCD 17/10 Q1028
2026-04-23 10:30:00,METAR YMML 231030Z AUTO 36009KT 9999 // NCD 18/10 Q1027
2026-04-23 10:00:00,METAR YMML 231000Z AUTO 36008KT 9999 // NCD 18/10 Q1027
2026-04-23 09:30:00,METAR YMML 230930Z AUTO 01008KT 9999 // NCD 19/10 Q1027
2026-04-23 09:00:00,METAR YMML 230900Z AUTO 02009KT 9999 // NCD 18/10 Q1027
2026-04-23 08:30:00,METAR YMML 230830Z AUTO 03007KT 9999 // NCD 18/10 Q1027
2026-04-23 08:00:00,METAR YMML 230800Z AUTO 04007KT 9999 // NCD 20/10 Q1027
2026-04-23 07:30:00,METAR YMML 230730Z AUTO 06007KT 9999 // NCD 21/10 Q1027
2026-04-23 07:00:00,METAR YMML 230700Z AUTO 07008KT 9999 // NCD 23/10 Q1026
2026-04-23 06:30:00,METAR YMML 230630Z AUTO 07009KT 9999 // NCD 24/11 Q1026
2026-04-23 06:00:00,METAR YMML 230600Z AUTO 05007KT 9999 // NCD 25/10 Q1026
2026-04-23 05:30:00,METAR YMML 230530Z AUTO 08006KT 050V110 9999 // NCD 25/10 Q1027
2026-04-23 05:00:00,METAR YMML 230500Z AUTO 04006KT 9999 // NCD 25/09 Q1027
2026-04-23 04:30:00,METAR YMML 230430Z AUTO 05004KT 010V090 9999 // NCD 26/10 Q1027
2026-04-23 04:00:00,METAR YMML 230400Z AUTO 02004KT 360V060 9999 // NCD 26/10 Q1027
2026-04-23 03:30:00,METAR YMML 230330Z AUTO 04008KT 9999 // NCD 25/11 Q1027
2026-04-23 03:00:00,METAR YMML 230300Z AUTO 04009KT 9999 // NCD 24/12 Q1027
2026-04-23 02:30:00,METAR YMML 230230Z AUTO 02011KT 9999 // NCD 24/11 Q1028
2026-04-23 02:00:00,METAR YMML 230200Z AUTO 03012KT 9999 // NCD 23/11 Q1028
2026-04-23 01:30:00,METAR YMML 230130Z AUTO 03015KT 9999 // NCD 22/11 Q1028
2026-04-23 01:00:00,METAR YMML 230100Z AUTO 02016KT 9999 // NCD 22/11 Q1028
2026-04-23 00:30:00,METAR YMML 230030Z AUTO 01016KT 9999 // NCD 21/11 Q1029
2026-04-23 00:00:00,METAR YMML 230000Z AUTO 01016KT 9999 // NCD 21/11 Q1029
2026-04-22 23:30:00,METAR YMML 222330Z AUTO 01014KT 9999 // NCD 20/10 Q1028
2026-04-22 23:00:00,METAR YMML 222300Z AUTO 01011KT 9999 // NCD 19/10 Q1028
2026-04-22 22:30:00,METAR YMML 222230Z AUTO 36009KT 9999 // NCD 18/09 Q1028
2026-04-22 22:00:00,METAR YMML 222200Z AUTO 01012KT 9999 // NCD 16/08 Q1028
2026-04-22 21:30:00,METAR YMML 222130Z AUTO 01011KT 9999 // NCD 14/08 Q1028
2026-04-22 21:00:00,METAR YMML 222100Z AUTO 01010KT 9999 // NCD 14/08 Q1027
2026-04-22 20:30:00,METAR YMML 222030Z AUTO 01011KT 9999 // NCD 13/07 Q1027
2026-04-22 20:00:00,METAR YMML 222000Z AUTO 36009KT 9999 // NCD 13/07 Q1027
2026-04-22 19:30:00,METAR YMML 221930Z AUTO 01009KT 9999 // NCD 13/07 Q1027
2026-04-22 19:00:00,METAR YMML 221900Z AUTO 01010KT 9999 // NCD 12/08 Q1027
2026-04-22 18:30:00,METAR YMML 221830Z AUTO 01009KT 9999 // NCD 12/08 Q1027
2026-04-22 18:00:00,METAR YMML 221800Z AUTO 36007KT 9999 // NCD 13/07 Q1026
2026-04-22 17:30:00,METAR YMML 221730Z AUTO 30007KT 270V330 9999 // NCD 12/08 Q1026
2026-04-22 17:00:00,METAR YMML 221700Z AUTO 27006KT 250V310 9999 // NCD 13/08 Q1026
2026-04-22 16:30:00,METAR YMML 221630Z AUTO 36012KT 9999 // NCD 15/08 Q1026
2026-04-22 16:00:00,METAR YMML 221600Z AUTO 01012KT 9999 // NCD 14/08 Q1026
2026-04-22 15:30:00,METAR YMML 221530Z AUTO 01012KT 9999 // NCD 15/08 Q1026
2026-04-22 15:00:00,METAR YMML 221500Z AUTO 01013KT 9999 // NCD 15/09 Q1026
2026-04-22 14:30:00,METAR YMML 221430Z AUTO 01011KT 9999 // NCD 15/09 Q1026
2026-04-22 14:00:00,METAR YMML 221400Z AUTO 01013KT 9999 // SCT089 16/09 Q1026
2026-04-22 13:30:00,METAR YMML 221330Z AUTO 01013KT 9999 // FEW089 16/09 Q1026
2026-04-22 13:00:00,METAR YMML 221300Z AUTO 01013KT 9999 // NCD 15/09 Q1026
2026-04-22 12:30:00,METAR YMML 221230Z AUTO 01014KT 9999 // BKN089 16/09 Q1026
2026-04-22 12:00:00,METAR YMML 221200Z AUTO 01013KT 9999 // SCT089 16/09 Q1026
2026-04-22 11:30:00,METAR YMML 221130Z AUTO 01012KT 9999 // NCD 17/09 Q1026
2026-04-22 11:00:00,METAR YMML 221100Z AUTO 01011KT 9999 // FEW093 17/10 Q1026
2026-04-22 10:30:00,METAR YMML 221030Z AUTO 01012KT 9999 // FEW091 18/09 Q1026
2026-04-22 10:00:00,METAR YMML 221000Z AUTO 01012KT 9999 // FEW089 18/10 Q1026
2026-04-22 09:30:00,METAR YMML 220930Z AUTO 01011KT 9999 // FEW088 19/10 Q1026
2026-04-22 09:00:00,METAR YMML 220900Z AUTO 01011KT 9999 // NCD 19/10 Q1025
2026-04-22 08:30:00,METAR YMML 220830Z AUTO 02012KT 9999 // FEW086 20/10 Q1025
2026-04-22 08:00:00,METAR YMML 220800Z AUTO 02012KT 9999 // BKN084 20/10 Q1025
2026-04-22 07:30:00,METAR YMML 220730Z AUTO 02011KT 9999 // NCD 21/10 Q1025
2026-04-22 07:00:00,METAR YMML 220700Z AUTO 02011KT 9999 // NCD 21/10 Q1025
2026-04-22 06:30:00,METAR YMML 220630Z AUTO 02011KT 9999 // NCD 22/10 Q1024
2026-04-22 06:00:00,METAR YMML 220600Z AUTO 02012KT 9999 // NCD 23/10 Q1024
2026-04-22 05:30:00,METAR YMML 220530Z AUTO 02012KT 9999 // NCD 23/10 Q1024
2026-04-22 05:00:00,METAR YMML 220500Z AUTO 01015KT 9999 // NCD 24/10 Q1024
2026-04-22 04:30:00,METAR YMML 220430Z AUTO 02013KT 9999 // NCD 24/10 Q1024
2026-04-22 04:00:00,METAR YMML 220400Z AUTO 02014KT 9999 // NCD 23/10 Q1025
2026-04-22 03:30:00,METAR YMML 220330Z AUTO 02014KT 9999 // NCD 23/10 Q1025
2026-04-22 03:00:00,METAR YMML 220300Z AUTO 02014KT 9999 // BKN082 22/10 Q1025
2026-04-22 02:30:00,METAR YMML 220230Z AUTO 02015KT 9999 // BKN080 23/10 Q1025
2026-04-22 02:00:00,METAR YMML 220200Z AUTO 02015KT 9999 // NCD 23/10 Q1025
2026-04-22 01:30:00,METAR YMML 220130Z AUTO 02017KT 9999 // NCD 22/09 Q1026
2026-04-22 01:00:00,METAR YMML 220100Z AUTO 02016KT 9999 // NCD 22/10 Q1026
2026-04-22 00:30:00,METAR YMML 220030Z AUTO 02017KT 9999 // NCD 21/09 Q1025
2026-04-22 00:00:00,METAR YMML 220000Z AUTO 02018KT 9999 // NCD 20/09 Q1025
2026-04-21 23:30:00,METAR YMML 212330Z AUTO 02019KT 9999 // NCD 20/09 Q1026
2026-04-21 23:00:00,METAR YMML 212300Z AUTO 01020KT 9999 // NCD 19/09 Q1026
2026-04-21 22:30:00,METAR YMML 212230Z AUTO 01018KT 9999 // NCD 18/09 Q1026
2026-04-21 22:00:00,METAR YMML 212200Z AUTO 01018G30KT 9999 // NCD 18/09 Q1025
2026-04-21 21:56:00,SPECI YMML 212156Z AUTO 01018G30KT 9999 // NCD 18/09 Q1025
2026-04-21 21:30:00,METAR YMML 212130Z AUTO 01016KT 9999 // NCD 17/09 Q1025
2026-04-21 21:00:00,METAR YMML 212100Z AUTO 01015KT 9999 // NCD 16/08 Q1024
2026-04-21 20:30:00,METAR YMML 212030Z AUTO 01015KT 9999 // NCD 16/08 Q1024
2026-04-21 20:00:00,METAR YMML 212000Z AUTO 01015KT 9999 // NCD 16/09 Q1024
2026-04-21 19:30:00,METAR YMML 211930Z AUTO 01014KT 9999 // NCD 17/09 Q1024
2026-04-21 19:00:00,METAR YMML 211900Z AUTO 36015KT 9999 // NCD 16/08 Q1024
2026-04-21 18:30:00,METAR YMML 211830Z AUTO 36014KT 9999 // NCD 17/09 Q1023
2026-04-21 18:00:00,METAR YMML 211800Z AUTO 36015KT 9999 // NCD 17/09 Q1023
2026-04-21 17:30:00,METAR YMML 211730Z AUTO 01013KT 9999 // NCD 16/09 Q1023
2026-04-21 17:00:00,METAR YMML 211700Z AUTO 01012KT 9999 // NCD 16/09 Q1023
2026-04-21 16:30:00,METAR YMML 211630Z AUTO 01011KT 9999 // NCD 15/09 Q1023
2026-04-21 16:00:00,METAR YMML 211600Z AUTO 01012KT 9999 // NCD 15/09 Q1024
2026-04-21 15:30:00,METAR YMML 211530Z AUTO 01011KT 9999 // SCT081 15/09 Q1024
2026-04-21 15:00:00,METAR YMML 211500Z AUTO 01012KT 9999 // SCT081 16/09 Q1024
2026-04-21 14:30:00,METAR YMML 211430Z AUTO 01011KT 9999 // NCD 15/09 Q1024
2026-04-21 14:00:00,METAR YMML 211400Z AUTO 01013KT 9999 // NCD 16/09 Q1024
2026-04-21 13:30:00,METAR YMML 211330Z AUTO 01013KT 9999 // NCD 17/09 Q1024
2026-04-21 13:00:00,METAR YMML 211300Z AUTO 01012KT 9999 // NCD 16/09 Q1024
2026-04-21 12:30:00,METAR YMML 211230Z AUTO 36012KT 9999 // NCD 18/09 Q1024
2026-04-21 12:00:00,METAR YMML 211200Z AUTO 01012KT 9999 // NCD 17/09 Q1024
2026-04-21 11:30:00,METAR YMML 211130Z AUTO 01012KT 9999 // NCD 17/09 Q1024
2026-04-21 11:00:00,METAR YMML 211100Z AUTO 01011KT 9999 // NCD 17/09 Q1024
2026-04-21 10:30:00,METAR YMML 211030Z AUTO 01010KT 9999 // NCD 18/10 Q1024
2026-04-21 10:00:00,METAR YMML 211000Z AUTO 01010KT 9999 // NCD 19/09 Q1024
2026-04-21 09:30:00,METAR YMML 210930Z AUTO 01010KT 9999 // NCD 18/10 Q1024
2026-04-21 09:00:00,METAR YMML 210900Z AUTO 01008KT 9999 // NCD 19/10 Q1024
2026-04-21 08:30:00,METAR YMML 210830Z AUTO 02007KT 9999 // NCD 19/10 Q1024
2026-04-21 08:00:00,METAR YMML 210800Z AUTO 03007KT 9999 // NCD 20/10 Q1024
2026-04-21 07:30:00,METAR YMML 210730Z AUTO 01009KT 9999 // NCD 22/10 Q1024
2026-04-21 07:00:00,METAR YMML 210700Z AUTO 02010KT 9999 // NCD 24/10 Q1023
2026-04-21 06:30:00,METAR YMML 210630Z AUTO 02011KT 9999 // NCD 25/10 Q1023
2026-04-21 06:00:00,METAR YMML 210600Z AUTO 01011KT 9999 // NCD 25/11 Q1024
2026-04-21 05:30:00,METAR YMML 210530Z AUTO 01011KT 9999 // NCD 26/10 Q1024
2026-04-21 05:00:00,METAR YMML 210500Z AUTO 01013KT 9999 // NCD 26/10 Q1024
2026-04-21 04:30:00,METAR YMML 210430Z AUTO 01012KT 9999 // NCD 26/11 Q1024
2026-04-21 04:00:00,METAR YMML 210400Z AUTO 01013KT 9999 // NCD 26/11 Q1024
2026-04-21 03:30:00,METAR YMML 210330Z AUTO 36011KT 9999 // NCD 26/10 Q1024
2026-04-21 03:00:00,METAR YMML 210300Z AUTO 01013KT 9999 // SCT078 26/10 Q1025
2026-04-21 02:30:00,METAR YMML 210230Z AUTO 02013KT 9999 // SCT080 24/10 Q1025
2026-04-21 02:00:00,METAR YMML 210200Z AUTO 03014KT 9999 // NCD 25/11 Q1026
2026-04-21 01:30:00,METAR YMML 210130Z AUTO 01015KT 9999 // NCD 24/11 Q1026
2026-04-21 01:00:00,METAR YMML 210100Z AUTO 02017KT 9999 // NCD 23/10 Q1026
2026-04-21 00:30:00,METAR YMML 210030Z AUTO 01016KT 9999 // NCD 22/09 Q1026
2026-04-21 00:00:00,METAR YMML 210000Z AUTO 01015KT 9999 // NCD 22/11 Q1026
2026-04-20 23:30:00,METAR YMML 202330Z AUTO 01011KT 9999 // NCD 20/13 Q1027
2026-04-20 23:00:00,METAR YMML 202300Z AUTO 07004KT 9999 // NCD 17/12 Q1027
2026-04-20 22:30:00,METAR YMML 202230Z AUTO 00000KT 9999 // FEW074 14/12 Q1027
2026-04-20 22:00:00,METAR YMML 202200Z AUTO 03004KT 9999 // FEW074 12/12 Q1027
2026-04-20 21:30:00,METAR YMML 202130Z AUTO 03001KT 9999 // NCD 11/10 Q1026
2026-04-20 21:00:00,METAR YMML 202100Z AUTO 36005KT 9999 // NCD 09/08 Q1026
2026-04-20 20:30:00,METAR YMML 202030Z AUTO 01011KT 9999 // NCD 10/09 Q1026
2026-04-20 20:00:00,METAR YMML 202000Z AUTO 01001KT 9999 // NCD 09/09 Q1026
2026-04-20 19:30:00,METAR YMML 201930Z AUTO 01007KT 9999 // NCD 09/08 Q1026
2026-04-20 19:00:00,METAR YMML 201900Z AUTO 01008KT 9999 // NCD 10/09 Q1025
2026-04-20 18:30:00,METAR YMML 201830Z AUTO 01009KT 9999 // NCD 10/10 Q1025
2026-04-20 18:00:00,METAR YMML 201800Z AUTO 01008KT 9999 // NCD 10/10 Q1025
2026-04-20 17:30:00,METAR YMML 201730Z AUTO 01008KT 9999 // NCD 11/10 Q1025
2026-04-20 17:00:00,METAR YMML 201700Z AUTO 01009KT 9000 // NCD 11/10 Q1025
2026-04-20 16:42:00,SPECI YMML 201642Z AUTO 36007KT 8000 // NCD 11/11 Q1025
2026-04-20 16:30:00,METAR YMML 201630Z AUTO 01007KT 6000 // NCD 10/10 Q1025
2026-04-20 16:00:00,SPECI YMML 201600Z AUTO 01007KT 4300 BR FEW010 11/10 Q1025
2026-04-20 15:55:00,SPECI YMML 201555Z AUTO 01006KT 3000 BR FEW010 11/10 Q1026
2026-04-20 15:44:00,SPECI YMML 201544Z AUTO 01005KT 0500 R16/0500D FG FEW010 11/10 Q1026
2026-04-20 15:39:00,SPECI YMML 201539Z AUTO 01005KT 0500 R16/0600V0900U FG FEW010 11/10 Q1026
2026-04-20 15:33:00,SPECI YMML 201533Z AUTO 01005KT 6000 // FEW010 10/10 Q1026
2026-04-20 15:21:00,SPECI YMML 201521Z AUTO 35004KT 9999 // NCD 11/10 Q1026
2026-04-20 15:12:00,SPECI YMML 201512Z AUTO 33003KT 8000 // NCD 11/10 Q1026
2026-04-20 15:00:00,METAR YMML 201500Z AUTO 31003KT 6000 // NCD 11/11 Q1026
2026-04-20 14:30:00,METAR YMML 201430Z AUTO 31005KT 7000 // NCD 12/12 Q1026
2026-04-20 14:05:00,SPECI YMML 201405Z AUTO 31005KT 8000 // FEW003 12/12 Q1026
2026-04-20 14:03:00,SPECI YMML 201403Z AUTO 31005KT 7000 // SCT003 12/12 Q1026
2026-04-20 14:00:00,SPECI YMML 201400Z AUTO 30005KT 7000 // SCT003 12/12 Q1026
2026-04-20 13:42:00,SPECI YMML 201342Z AUTO 30006KT 5000 BR BKN003 12/12 Q1026
2026-04-20 13:30:00,METAR YMML 201330Z AUTO 30006KT 6000 // FEW003 12/12 Q1026
2026-04-20 13:22:00,SPECI YMML 201322Z AUTO 30006KT 6000 // NCD 12/12 Q1026
2026-04-20 13:00:00,METAR YMML 201300Z AUTO 30006KT 9000 // NCD 12/12 Q1026
2026-04-20 12:30:00,METAR YMML 201230Z AUTO 29006KT 9999 // NCD 13/12 Q1026
2026-04-20 12:00:00,METAR YMML 201200Z AUTO 29007KT 9999 // NCD 12/12 Q1026
2026-04-20 11:30:00,METAR YMML 201130Z AUTO 29006KT 9999 // NCD 13/12 Q1026
2026-04-20 11:00:00,METAR YMML 201100Z AUTO 28006KT 9999 // NCD 13/12 Q1026
2026-04-20 10:30:00,METAR YMML 201030Z AUTO 26004KT 9999 // NCD 14/13 Q1026
2026-04-20 10:00:00,METAR YMML 201000Z AUTO 25004KT 9999 // NCD 14/13 Q1026
2026-04-20 09:30:00,METAR YMML 200930Z AUTO 23005KT 9999 // NCD 14/13 Q1026
2026-04-20 09:00:00,METAR YMML 200900Z AUTO 21004KT 9999 // NCD 15/13 Q1025
2026-04-20 08:30:00,METAR YMML 200830Z AUTO 18007KT 9999 // NCD 16/13 Q1025
2026-04-20 08:00:00,METAR YMML 200800Z AUTO 19007KT 9999 // NCD 16/13 Q1025
2026-04-20 07:30:00,METAR YMML 200730Z AUTO 18007KT 9999 // NCD 17/12 Q1024
2026-04-20 07:00:00,METAR YMML 200700Z AUTO 17008KT 9999 // NCD 19/11 Q1024
2026-04-20 06:30:00,METAR YMML 200630Z AUTO 17009KT 9999 // NCD 19/11 Q1024
2026-04-20 06:00:00,METAR YMML 200600Z AUTO 17009KT 9999 // NCD 20/11 Q1024
2026-04-20 05:30:00,METAR YMML 200530Z AUTO 17010KT 9999 // NCD 20/11 Q1024
2026-04-20 05:00:00,METAR YMML 200500Z AUTO 17011KT 9999 // NCD 20/11 Q1024
2026-04-20 04:30:00,METAR YMML 200430Z AUTO 15007KT 9999 // NCD 22/11 Q1024
2026-04-20 04:00:00,METAR YMML 200400Z AUTO 18008KT 9999 // NCD 21/09 Q1024
2026-04-20 03:30:00,METAR YMML 200330Z AUTO 15007KT 110V190 9999 // NCD 22/10 Q1024
2026-04-20 03:00:00,METAR YMML 200300Z AUTO 14006KT 9999 // NCD 21/08 Q1024
2026-04-20 02:30:00,METAR YMML 200230Z AUTO 11004KT 070V160 9999 // NCD 21/09 Q1025
2026-04-20 02:00:00,METAR YMML 200200Z AUTO 17002KT 9999 // NCD 21/07 Q1025
2026-04-20 01:30:00,METAR YMML 200130Z AUTO 17004KT 140V220 9999 // NCD 20/08 Q1025
2026-04-20 01:00:00,METAR YMML 200100Z AUTO 24003KT 9999 // NCD 20/07 Q1025
2026-04-20 00:30:00,METAR YMML 200030Z AUTO 25004KT 220V290 9999 // NCD 19/08 Q1025
2026-04-20 00:00:00,METAR YMML 200000Z AUTO 28003KT 9999 // NCD 18/08 Q1026
2026-04-19 23:30:00,METAR YMML 192330Z AUTO 02004KT 9999 // NCD 17/07 Q1026
2026-04-19 23:00:00,METAR YMML 192300Z AUTO 01002KT 9999 // NCD 16/07 Q1026
2026-04-19 22:30:00,METAR YMML 192230Z AUTO 01002KT 9999 // FEW088 14/07 Q1026
2026-04-19 22:00:00,METAR YMML 192200Z AUTO 01004KT 9999 // FEW088 13/07 Q1025
2026-04-19 21:30:00,METAR YMML 192130Z AUTO 01006KT 9999 // NCD 10/06 Q1025
2026-04-19 21:00:00,METAR YMML 192100Z AUTO 01005KT 9999 // SCT088 09/06 Q1024
2026-04-19 20:30:00,METAR YMML 192030Z AUTO 01008KT 9999 // NCD 10/05 Q1024
2026-04-19 20:00:00,METAR YMML 192000Z AUTO 16001KT 9999 // FEW087 07/05 Q1024
2026-04-19 19:30:00,METAR YMML 191930Z AUTO 36005KT 9999 // FEW089 08/05 Q1024
2026-04-19 19:00:00,METAR YMML 191900Z AUTO 36004KT 9999 // FEW089 10/05 Q1023
2026-04-19 18:30:00,METAR YMML 191830Z AUTO 01007KT 9999 // NCD 10/05 Q1022
2026-04-19 18:00:00,METAR YMML 191800Z AUTO 36009KT 9999 // NCD 11/05 Q1022
2026-04-19 17:30:00,METAR YMML 191730Z AUTO 36007KT 9999 // NCD 11/06 Q1022
2026-04-19 17:00:00,METAR YMML 191700Z AUTO 36005KT 9999 // NCD 11/05 Q1022
2026-04-19 16:30:00,METAR YMML 191630Z AUTO 00000KT 9999 // NCD 10/05 Q1022
2026-04-19 16:00:00,METAR YMML 191600Z AUTO 01010KT 9999 // NCD 13/05 Q1022
2026-04-19 15:30:00,METAR YMML 191530Z AUTO 01011KT 9999 // NCD 13/05 Q1022
2026-04-19 15:00:00,METAR YMML 191500Z AUTO 01010KT 9999 // NCD 12/05 Q1022
2026-04-19 14:30:00,METAR YMML 191430Z AUTO 01011KT 9999 // NCD 13/05 Q1022
2026-04-19 14:00:00,METAR YMML 191400Z AUTO 25006KT 240V010 9999 // NCD 13/05 Q1022
2026-04-19 13:30:00,METAR YMML 191330Z AUTO 01009KT 9999 // SCT120 13/06 Q1022
2026-04-19 13:00:00,METAR YMML 191300Z AUTO 01009KT 9999 // NCD 13/06 Q1022
2026-04-19 12:30:00,METAR YMML 191230Z AUTO 36005KT 9999 // NCD 12/06 Q1022
2026-04-19 12:00:00,METAR YMML 191200Z AUTO 33005KT 300V010 9999 // SCT105 13/06 Q1022
2026-04-19 11:30:00,METAR YMML 191130Z AUTO 01009KT 9999 // SCT115 14/06 Q1022
2026-04-19 11:00:00,METAR YMML 191100Z AUTO 01009KT 9999 // SCT115 15/06 Q1022
2026-04-19 10:30:00,METAR YMML 191030Z AUTO 01010KT 9999 // NCD 15/06 Q1021
2026-04-19 10:00:00,METAR YMML 191000Z AUTO 03008KT 9999 // NCD 14/06 Q1021
2026-04-19 09:30:00,METAR YMML 190930Z AUTO 05005KT 9999 // NCD 14/05 Q1021
2026-04-19 09:00:00,METAR YMML 190900Z AUTO 04004KT 9999 // NCD 14/05 Q1021
2026-04-19 08:30:00,METAR YMML 190830Z AUTO 06006KT 9999 // NCD 15/05 Q1021
2026-04-19 08:00:00,METAR YMML 190800Z AUTO 07006KT 9999 // NCD 17/05 Q1020
2026-04-19 07:30:00,METAR YMML 190730Z AUTO 09006KT 9999 // NCD 18/05 Q1020
2026-04-19 07:00:00,METAR YMML 190700Z AUTO 08006KT 9999 // NCD 19/05 Q1020
2026-04-19 06:30:00,METAR YMML 190630Z AUTO 10006KT 9999 // NCD 20/05 Q1020
2026-04-19 06:00:00,METAR YMML 190600Z AUTO 11007KT 9999 // NCD 20/04 Q1021
2026-04-19 05:30:00,METAR YMML 190530Z AUTO 10006KT 9999 // NCD 20/04 Q1021
2026-04-19 05:00:00,METAR YMML 190500Z AUTO 07006KT 9999 // NCD 20/04 Q1020
2026-04-19 04:30:00,METAR YMML 190430Z AUTO 10006KT 9999 // FEW100 19/05 Q1021
2026-04-19 04:00:00,METAR YMML 190400Z AUTO 10005KT 9999 // NCD 19/05 Q1021
2026-04-19 03:30:00,METAR YMML 190330Z AUTO 14005KT 110V170 9999 // FEW125 18/05 Q1021
2026-04-19 03:00:00,METAR YMML 190300Z AUTO 12004KT 080V170 9999 // NCD 18/06 Q1022
2026-04-19 02:30:00,METAR YMML 190230Z AUTO 08003KT 9999 // NCD 17/06 Q1022
2026-04-19 02:00:00,METAR YMML 190200Z AUTO 10003KT 9999 // NCD 16/07 Q1023
2026-04-19 01:30:00,METAR YMML 190130Z AUTO 05004KT 9999 // NCD 15/06 Q1023
2026-04-19 01:00:00,METAR YMML 190100Z AUTO 01003KT 9999 // NCD 14/07 Q1023
2026-04-19 00:30:00,METAR YMML 190030Z AUTO 02005KT 9999 // NCD 12/06 Q1023
2026-04-19 00:00:00,METAR YMML 190000Z AUTO 01007KT 9999 // NCD 11/07 Q1023
2026-04-18 23:30:00,METAR YMML 182330Z AUTO 01007KT 9999 // NCD 10/06 Q1023
2026-04-18 23:00:00,METAR YMML 182300Z AUTO 01007KT 9999 // NCD 08/06 Q1023
2026-04-18 22:30:00,METAR YMML 182230Z AUTO 02009KT 9999 // NCD 07/05 Q1023
2026-04-18 22:00:00,METAR YMML 182200Z AUTO 01010KT 9999 // NCD 06/04 Q1023
2026-04-18 21:30:00,METAR YMML 182130Z AUTO 01008KT 9999 // NCD 04/03 Q1023
2026-04-18 21:00:00,METAR YMML 182100Z AUTO 01008KT 9999 // NCD 03/02 Q1023
2026-04-18 20:30:00,METAR YMML 182030Z AUTO 01009KT 9999 // NCD 03/02 Q1022
2026-04-18 20:00:00,METAR YMML 182000Z AUTO 01009KT 9999 // NCD 04/03 Q1022
2026-04-18 19:30:00,METAR YMML 181930Z AUTO 01009KT 9999 // NCD 04/03 Q1022
2026-04-18 19:00:00,METAR YMML 181900Z AUTO 01008KT 9999 // NCD 04/03 Q1022
2026-04-18 18:30:00,METAR YMML 181830Z AUTO 01010KT 9999 // NCD 04/03 Q1021
2026-04-18 18:00:00,METAR YMML 181800Z AUTO 01009KT 9999 // NCD 04/03 Q1021
2026-04-18 17:30:00,METAR YMML 181730Z AUTO 01009KT 9999 // NCD 04/03 Q1021
2026-04-18 17:00:00,METAR YMML 181700Z AUTO 01009KT 9999 // NCD 04/03 Q1022
2026-04-18 16:30:00,METAR YMML 181630Z AUTO 01009KT 9999 // NCD 05/04 Q1022
2026-04-18 16:00:00,METAR YMML 181600Z AUTO 01009KT 9999 // NCD 05/04 Q1022
2026-04-18 15:00:00,METAR YMML 181500Z AUTO 01008KT 9999 // NCD 04/03 Q1022
2026-04-18 14:30:00,METAR YMML 181430Z AUTO 01006KT 9999 // NCD 04/03 Q1022
2026-04-18 14:00:00,METAR YMML 181400Z AUTO 33004KT 9999 // NCD 05/04 Q1022
2026-04-18 13:30:00,METAR YMML 181330Z AUTO 02004KT 9999 // NCD 04/03 Q1022
2026-04-18 13:00:00,METAR YMML 181300Z AUTO 04006KT 9999 // NCD 06/04 Q1022
2026-04-18 12:30:00,METAR YMML 181230Z AUTO 05006KT 9999 // NCD 07/05 Q1022
2026-04-18 12:00:00,METAR YMML 181200Z AUTO 36004KT 320V040 9999 // NCD 07/05 Q1023
2026-04-18 11:30:00,METAR YMML 181130Z AUTO 00000KT 9999 // NCD 07/04 Q1023
2026-04-18 11:00:00,METAR YMML 181100Z AUTO 20003KT 9999 // NCD 09/06 Q1023
2026-04-18 10:30:00,METAR YMML 181030Z AUTO 19003KT 9999 // NCD 09/05 Q1023
2026-04-18 10:00:00,METAR YMML 181000Z AUTO 19005KT 9999 // NCD 10/06 Q1023
2026-04-18 09:30:00,METAR YMML 180930Z AUTO 19005KT 9999 // NCD 10/06 Q1023
2026-04-18 09:00:00,METAR YMML 180900Z AUTO 18006KT 9999 // NCD 10/05 Q1023
2026-04-18 08:30:00,METAR YMML 180830Z AUTO 19006KT 9999 // NCD 10/05 Q1023
2026-04-18 08:00:00,METAR YMML 180800Z AUTO 19006KT 9999 // NCD 11/05 Q1022
2026-04-18 07:30:00,METAR YMML 180730Z AUTO 20005KT 9999 // NCD 13/05 Q1022
2026-04-18 07:00:00,METAR YMML 180700Z AUTO 17007KT 9999 // NCD 13/05 Q1022
2026-04-18 06:30:00,METAR YMML 180630Z AUTO 18008KT 9999 // NCD 14/05 Q1022
2026-04-18 06:00:00,METAR YMML 180600Z AUTO 17009KT 9999 // NCD 14/05 Q1022
2026-04-18 05:30:00,METAR YMML 180530Z AUTO 17009KT 140V210 9999 // NCD 15/07 Q1022
2026-04-18 05:00:00,METAR YMML 180500Z AUTO 15009KT 9999 // NCD 15/06 Q1022
2026-04-18 04:30:00,METAR YMML 180430Z AUTO 18010KT 9999 // SCT038 15/06 Q1022
2026-04-18 04:00:00,METAR YMML 180400Z AUTO 18007KT 9999 // SCT038 16/06 Q1022
2026-04-18 03:30:00,METAR YMML 180330Z AUTO 19008KT 160V220 9999 // BKN038 15/06 Q1023
2026-04-18 03:00:00,METAR YMML 180300Z AUTO 19009KT 9999 // OVC036 15/06 Q1023
2026-04-18 02:30:00,METAR YMML 180230Z AUTO 19008KT 9999 // OVC034 14/06 Q1023
2026-04-18 02:00:00,METAR YMML 180200Z AUTO 18009KT 9999 // OVC034 14/06 Q1024
2026-04-18 01:30:00,METAR YMML 180130Z AUTO 17012KT 9999 // OVC038 15/06 Q1024
2026-04-18 01:00:00,METAR YMML 180100Z AUTO 17012KT 9999 // OVC036 14/05 Q1024
2026-04-18 00:30:00,METAR YMML 180030Z AUTO 21011KT 9999 // OVC034 14/06 Q1024
2026-04-18 00:00:00,METAR YMML 180000Z AUTO 22013KT 9999 // OVC036 14/06 Q1024
2026-04-17 23:30:00,METAR YMML 172330Z AUTO 23011KT 9999 // OVC036 13/06 Q1024
2026-04-17 23:00:00,METAR YMML 172300Z AUTO 22009KT 9999 // OVC036 13/06 Q1024
2026-04-17 22:30:00,METAR YMML 172230Z AUTO 23009KT 9999 // OVC036 13/06 Q1024
2026-04-17 22:00:00,METAR YMML 172200Z AUTO 21007KT 9999 // OVC034 12/06 Q1023
2026-04-17 21:30:00,METAR YMML 172130Z AUTO 22008KT 9999 // OVC034 12/06 Q1023
2026-04-17 21:00:00,METAR YMML 172100Z AUTO 23007KT 9999 // OVC036 12/06 Q1023
2026-04-17 20:30:00,METAR YMML 172030Z AUTO 24007KT 9999 // OVC036 12/06 Q1023
2026-04-17 20:00:00,METAR YMML 172000Z AUTO 25008KT 9999 // OVC036 12/06 Q1023
2026-04-17 19:30:00,METAR YMML 171930Z AUTO 23007KT 9999 // OVC038 12/05 Q1022
2026-04-17 19:00:00,METAR YMML 171900Z AUTO 22008KT 9999 // OVC038 11/06 Q1022
2026-04-17 18:30:00,METAR YMML 171830Z AUTO 20007KT 9999 // OVC036 11/06 Q1022
2026-04-17 18:00:00,METAR YMML 171800Z AUTO 22006KT 9999 // OVC036 11/06 Q1022
2026-04-17 17:30:00,METAR YMML 171730Z AUTO 22007KT 9999 // OVC038 12/05 Q1022
2026-04-17 17:00:00,METAR YMML 171700Z AUTO 23009KT 9999 // OVC038 11/06 Q1022
2026-04-17 16:30:00,METAR YMML 171630Z AUTO 25008KT 9999 // OVC040 11/06 Q1022
2026-04-17 16:00:00,METAR YMML 171600Z AUTO 26006KT 9999 // OVC042 11/06 Q1022
2026-04-17 15:30:00,METAR YMML 171530Z AUTO 25005KT 9999 // OVC042 OVC047 11/07 Q1022
2026-04-17 15:00:00,METAR YMML 171500Z AUTO 25005KT 9999 // OVC044 11/07 Q1022
2026-04-17 14:30:00,METAR YMML 171430Z AUTO 23005KT 9999 // OVC044 11/07 Q1022
2026-04-17 14:00:00,METAR YMML 171400Z AUTO 23006KT 9999 // FEW029 SCT036 BKN042 11/07 Q1022
2026-04-17 13:30:00,METAR YMML 171330Z AUTO 24007KT 9999 // FEW031 OVC050 11/07 Q1022
2026-04-17 13:00:00,METAR YMML 171300Z AUTO 23008KT 9999 // FEW038 SCT044 OVC050 11/07 Q1022
2026-04-17 12:30:00,METAR YMML 171230Z AUTO 24009KT 9999 // BKN040 OVC049 11/06 Q1023
2026-04-17 12:00:00,METAR YMML 171200Z AUTO 23008KT 9999 // OVC053 12/06 Q1023
2026-04-17 11:30:00,METAR YMML 171130Z AUTO 24008KT 9999 // SCT049 OVC056 12/06 Q1023
2026-04-17 11:00:00,METAR YMML 171100Z AUTO 24009KT 9999 // SCT049 OVC055 12/06 Q1022
2026-04-17 10:30:00,METAR YMML 171030Z AUTO 24008KT 9999 // OVC059 12/06 Q1022
2026-04-17 10:00:00,METAR YMML 171000Z AUTO 24007KT 9999 // SCT061 10/06 Q1022
2026-04-17 09:30:00,METAR YMML 170930Z AUTO 21007KT 9999 // NCD 11/06 Q1022
2026-04-17 09:00:00,METAR YMML 170900Z AUTO 20008KT 9999 // NCD 12/06 Q1021
2026-04-17 08:30:00,METAR YMML 170830Z AUTO 19011KT 9999 // NCD 12/06 Q1021
2026-04-17 08:00:00,METAR YMML 170800Z AUTO 19011KT 9999 // FEW056 13/06 Q1021
2026-04-17 07:30:00,METAR YMML 170730Z AUTO 19012KT 9999 // BKN054 14/04 Q1020
2026-04-17 07:00:00,METAR YMML 170700Z AUTO 19014KT 9999 // NCD 14/04 Q1020
2026-04-17 06:30:00,METAR YMML 170630Z AUTO 20013KT 9999 // NCD 15/04 Q1020
2026-04-17 06:00:00,METAR YMML 170600Z AUTO 19015KT 9999 // NCD 16/04 Q1019
2026-04-17 05:30:00,METAR YMML 170530Z AUTO 19015KT 9999 // FEW052 16/04 Q1019
2026-04-17 05:00:00,METAR YMML 170500Z AUTO 19014KT 9999 // SCT051 16/04 Q1019
2026-04-17 04:30:00,METAR YMML 170430Z AUTO 19014KT 9999 // SCT049 BKN062 16/05 Q1019
2026-04-17 04:00:00,METAR YMML 170400Z AUTO 20013KT 9999 // FEW047 17/05 Q1019
2026-04-17 03:30:00,METAR YMML 170330Z AUTO 21014KT 9999 // SCT054 SCT065 16/04 Q1019
2026-04-17 03:00:00,METAR YMML 170300Z AUTO 19017KT 9999 // SCT052 BKN067 16/04 Q1019
2026-04-17 02:30:00,METAR YMML 170230Z AUTO 22015KT 9999 // BKN041 BKN053 OVC062 15/05 Q1019
2026-04-17 02:00:00,METAR YMML 170200Z AUTO 21014KT 9999 // BKN039 BKN049 OVC057 14/05 Q1019
2026-04-17 01:30:00,METAR YMML 170130Z AUTO 20012KT 9999 // FEW037 BKN067 16/07 Q1019
2026-04-17 01:00:00,METAR YMML 170100Z AUTO 20014KT 9999 // SCT031 BKN041 OVC065 14/07 Q1019
2026-04-17 00:30:00,METAR YMML 170030Z AUTO 23015G27KT 9999 // BKN031 BKN045 OVC055 14/07 Q1018
2026-04-17 00:00:00,METAR YMML 170000Z AUTO 24015KT 9999 // SCT033 OVC065 14/07 Q1018
2026-04-16 23:30:00,METAR YMML 162330Z AUTO 24012KT 9999 // OVC061 14/08 Q1018
2026-04-16 23:00:00,METAR YMML 162300Z AUTO 26009KT 9999 // OVC063 13/10 Q1018
2026-04-16 22:30:00,METAR YMML 162230Z AUTO 26008KT 9999 // OVC063 12/09 Q1017
2026-04-16 22:00:00,METAR YMML 162200Z AUTO 27008KT 9999 // OVC059 12/09 Q1017
2026-04-16 21:30:00,METAR YMML 162130Z AUTO 27010KT 9999 // OVC059 11/09 Q1016
2026-04-16 21:00:00,METAR YMML 162100Z AUTO 27009KT 9999 // BKN055 10/09 Q1016
2026-04-16 20:30:00,METAR YMML 162030Z AUTO 27007KT 9999 // SCT047 09/08 Q1016
2026-04-16 20:00:00,METAR YMML 162000Z AUTO 28008KT 9999 // FEW025 SCT047 BKN056 10/08 Q1016
2026-04-16 19:30:00,METAR YMML 161930Z AUTO 29008KT 9999 // NCD 09/08 Q1016
2026-04-16 19:00:00,METAR YMML 161900Z AUTO 29009KT 9999 // SCT051 10/08 Q1015
2026-04-16 18:30:00,METAR YMML 161830Z AUTO 29007KT 9999 // NCD 10/09 Q1015
2026-04-16 18:00:00,METAR YMML 161800Z AUTO 28007KT 9999 // FEW030 09/09 Q1015
2026-04-16 17:30:00,METAR YMML 161730Z AUTO 27006KT 9999 // NCD 10/08 Q1015
2026-04-16 17:00:00,METAR YMML 161700Z AUTO 25007KT 9999 // FEW045 12/10 Q1015
2026-04-16 16:30:00,METAR YMML 161630Z AUTO 27005KT 9999 // SCT042 BKN050 12/11 Q1015
2026-04-16 16:00:00,METAR YMML 161600Z AUTO 23010KT 7000 -RA FEW017 BKN022 BKN034 12/11 Q1015
2026-04-16 15:30:00,METAR YMML 161530Z AUTO 27007KT 9999 // SCT024 SCT030 OVC045 14/11 Q1015
2026-04-16 15:00:00,METAR YMML 161500Z AUTO 27009KT 9999 // FEW035 OVC045 14/11 Q1015
2026-04-16 14:30:00,METAR YMML 161430Z AUTO 24013KT 9999 // BKN038 OVC045 14/11 Q1015
2026-04-16 14:00:00,METAR YMML 161400Z AUTO 21011KT 9999 // FEW028 BKN038 BKN044 14/11 Q1015
2026-04-16 13:30:00,METAR YMML 161330Z AUTO 24010KT 9999 // FEW032 BKN046 BKN061 16/10 Q1015
2026-04-16 13:00:00,METAR YMML 161300Z AUTO 23010KT 9999 // SCT046 OVC057 16/10 Q1015
2026-04-16 12:30:00,METAR YMML 161230Z AUTO 26006KT 9999 // OVC048 16/10 Q1015
2026-04-16 12:00:00,METAR YMML 161200Z AUTO 26004KT 9999 // FEW033 SCT044 OVC049 16/10 Q1015
2026-04-16 11:30:00,METAR YMML 161130Z AUTO 24006KT 9999 // SCT030 OVC039 16/10 Q1015
2026-04-16 11:00:00,METAR YMML 161100Z AUTO 23008KT 9999 // SCT033 BKN044 OVC055 16/10 Q1014
2026-04-16 10:30:00,METAR YMML 161030Z AUTO 23010KT 9999 // SCT047 OVC057 OVC065 16/10 Q1014
2026-04-16 10:00:00,METAR YMML 161000Z AUTO 24011KT 9999 // SCT047 BKN056 OVC091 15/10 Q1014
2026-04-16 09:30:00,METAR YMML 160930Z AUTO 23013KT 9999 // OVC058 OVC068 16/11 Q1014
2026-04-16 09:00:00,METAR YMML 160900Z AUTO 22015KT 9999 // OVC068 17/12 Q1013
2026-04-16 08:30:00,METAR YMML 160830Z AUTO 29010KT 9999 // BKN076 OVC096 20/10 Q1013
2026-04-16 08:00:00,METAR YMML 160800Z AUTO 30013KT 9999 // BKN086 20/10 Q1012
2026-04-16 07:30:00,METAR YMML 160730Z AUTO 30016KT 9999 // FEW090 21/10 Q1012
2026-04-16 07:00:00,METAR YMML 160700Z AUTO 32012KT 9999 // BKN125 22/11 Q1012
2026-04-16 06:30:00,METAR YMML 160630Z AUTO 31011KT 9999 // BKN085 OVC110 22/12 Q1011
2026-04-16 06:00:00,SPECI YMML 160600Z AUTO 31022G32KT 9999 VCTS -SHRA FEW038 BKN070 BKN082 22/11 Q1011
2026-04-16 05:36:00,SPECI YMML 160536Z AUTO 32017G27KT 9999 // BKN073 24/09 Q1011
2026-04-16 05:30:00,METAR YMML 160530Z AUTO 32017KT 9999 // BKN075 BKN100 24/10 Q1011
2026-04-16 05:00:00,METAR YMML 160500Z AUTO 34015KT 9999 // FEW070 SCT078 24/11 Q1011
2026-04-16 04:46:00,SPECI YMML 160446Z AUTO 32017G27KT 9999 // NCD 25/12 Q1011
2026-04-16 04:30:00,METAR YMML 160430Z AUTO 33014KT 9999 // NCD 24/10 Q1011
2026-04-16 04:14:00,SPECI YMML 160414Z AUTO 35016G28KT 9999 // FEW110 24/11 Q1012
2026-04-16 04:00:00,METAR YMML 160400Z AUTO 35017KT 9999 // SCT100 23/12 Q1012
2026-04-16 03:45:00,SPECI YMML 160345Z AUTO 35016G26KT 9999 // FEW055 OVC100 23/12 Q1012
2026-04-16 03:30:00,METAR YMML 160330Z AUTO 35017KT 9999 // SCT091 OVC110 22/12 Q1012
2026-04-16 03:04:00,SPECI YMML 160304Z AUTO 35016G26KT 9999 // BKN110 23/12 Q1013
2026-04-16 02:36:00,SPECI YMML 160236Z AUTO 33017G27KT 9999 // SCT110 24/12 Q1013
2026-04-16 02:30:00,METAR YMML 160230Z AUTO 34017KT 9999 // FEW110 24/12 Q1013
2026-04-16 02:06:00,SPECI YMML 160206Z AUTO 33015G29KT 9999 // NCD 22/12 Q1014
2026-04-16 02:00:00,METAR YMML 160200Z AUTO 33015KT 9999 // NCD 22/11 Q1014
2026-04-16 01:44:00,SPECI YMML 160144Z AUTO 32016G29KT 9999 // NCD 22/11 Q1014
2026-04-16 01:30:00,METAR YMML 160130Z AUTO 33013KT 9999 // NCD 22/11 Q1014
2026-04-16 01:00:00,METAR YMML 160100Z AUTO 33017KT 9999 // NCD 22/12 Q1014
2026-04-16 00:30:00,METAR YMML 160030Z AUTO 36018KT 9999 // NCD 19/11 Q1015
2026-04-16 00:00:00,METAR YMML 160000Z AUTO 01018KT 9999 // NCD 18/10 Q1015
2026-04-15 23:30:00,METAR YMML 152330Z AUTO 01016KT 9999 // NCD 17/10 Q1016
2026-04-15 23:00:00,METAR YMML 152300Z AUTO 02018KT 9999 // NCD 16/10 Q1016
2026-04-15 22:30:00,METAR YMML 152230Z AUTO 02019KT 9999 // NCD 15/10 Q1016
2026-04-15 22:23:00,SPECI YMML 152223Z AUTO 02017G27KT 9999 // NCD 15/09 Q1016
2026-04-15 22:00:00,METAR YMML 152200Z AUTO 02017KT 9999 // NCD 14/09 Q1016
2026-04-15 21:30:00,METAR YMML 152130Z AUTO 01020KT 9999 // NCD 15/09 Q1016
2026-04-15 21:00:00,METAR YMML 152100Z AUTO 01018KT 9999 // NCD 14/09 Q1016
2026-04-15 20:30:00,METAR YMML 152030Z AUTO 01018KT 9999 // NCD 14/09 Q1016
2026-04-15 20:00:00,METAR YMML 152000Z AUTO 36018KT 9999 // NCD 13/09 Q1016
2026-04-15 19:30:00,METAR YMML 151930Z AUTO 36018KT 9999 // NCD 14/09 Q1016
2026-04-15 19:00:00,METAR YMML 151900Z AUTO 36016KT 9999 // NCD 14/09 Q1016
2026-04-15 18:30:00,METAR YMML 151830Z AUTO 35011KT 9999 // ////// 13/09 Q1016
2026-04-15 18:00:00,METAR YMML 151800Z AUTO 35010KT 9999 // NCD 14/09 Q1016
2026-04-15 17:30:00,METAR YMML 151730Z AUTO 36007KT 9999 // NCD 12/09 Q1016
2026-04-15 17:00:00,METAR YMML 151700Z AUTO 01007KT 9999 // NCD 12/09 Q1016
2026-04-15 16:30:00,METAR YMML 151630Z AUTO 01009KT 9999 // NCD 11/09 Q1017
2026-04-15 16:00:00,METAR YMML 151600Z AUTO 01010KT 9999 // NCD 12/09 Q1017
2026-04-15 15:30:00,METAR YMML 151530Z AUTO 36012KT 9999 // NCD 12/09 Q1017
2026-04-15 15:00:00,METAR YMML 151500Z AUTO 01012KT 9999 // NCD 12/10 Q1017
2026-04-15 14:30:00,METAR YMML 151430Z AUTO 01009KT 9999 // NCD 12/11 Q1018
2026-04-15 14:00:00,METAR YMML 151400Z AUTO 01007KT 9999 // NCD 12/12 Q1018
2026-04-15 13:30:00,METAR YMML 151330Z AUTO 01008KT 9999 // NCD 12/12 Q1018
2026-04-15 13:00:00,METAR YMML 151300Z AUTO 01006KT 9999 // NCD 13/12 Q1019
2026-04-15 12:30:00,METAR YMML 151230Z AUTO 00000KT 9999 // FEW059 13/12 Q1019
2026-04-15 12:00:00,METAR YMML 151200Z AUTO 00000KT 9999 // BKN059 14/13 Q1019
2026-04-15 11:30:00,METAR YMML 151130Z AUTO 18003KT 9999 // BKN061 14/13 Q1019
2026-04-15 11:00:00,METAR YMML 151100Z AUTO 18005KT 9999 // OVC065 15/14 Q1019
2026-04-15 10:30:00,METAR YMML 151030Z AUTO 18004KT 9999 // FEW051 OVC063 16/14 Q1019
2026-04-15 10:00:00,METAR YMML 151000Z AUTO 19004KT 9999 // OVC059 16/14 Q1019
2026-04-15 09:30:00,METAR YMML 150930Z AUTO 18007KT 9999 // OVC052 17/13 Q1019
2026-04-15 09:00:00,METAR YMML 150900Z AUTO 16006KT 9999 // OVC052 17/12 Q1018
2026-04-15 08:30:00,METAR YMML 150830Z AUTO 23005KT 170V290 9999 // BKN054 OVC071 17/11 Q1018
2026-04-15 08:00:00,METAR YMML 150800Z AUTO 30005KT 9999 // OVC071 19/11 Q1018
2026-04-15 07:30:00,METAR YMML 150730Z AUTO 27006KT 9999 // BKN071 18/11 Q1018
2026-04-15 07:00:00,METAR YMML 150700Z AUTO 27008KT 9999 // OVC071 20/10 Q1018
2026-04-15 06:30:00,METAR YMML 150630Z AUTO 27009KT 9999 // FEW053 OVC067 20/10 Q1018
2026-04-15 06:00:00,METAR YMML 150600Z AUTO 29008KT 9999 // FEW048 OVC072 20/10 Q1018
2026-04-15 05:30:00,METAR YMML 150530Z AUTO 30008KT 9999 // BKN048 OVC068 21/10 Q1018
2026-04-15 05:00:00,METAR YMML 150500Z AUTO 27010KT 9999 // OVC061 21/10 Q1018
2026-04-15 04:33:00,SPECI YMML 150433Z AUTO 18015G27KT 110V250 9999 // OVC061 OVC070 21/10 Q1018
2026-04-15 04:00:00,METAR YMML 150400Z AUTO 28009KT 9999 // SCT045 BKN057 OVC069 21/11 Q1018
2026-04-15 03:30:00,METAR YMML 150330Z AUTO 25009KT 9999 // BKN043 BKN049 OVC070 21/11 Q1019
2026-04-15 03:00:00,METAR YMML 150300Z AUTO 27008KT 9999 // SCT041 BKN046 OVC064 20/11 Q1019
2026-04-15 02:30:00,METAR YMML 150230Z AUTO 28007KT 9999 // OVC054 19/11 Q1019
2026-04-15 02:00:00,METAR YMML 150200Z AUTO 29008KT 9999 // BKN050 OVC063 19/10 Q1019
2026-04-15 01:30:00,METAR YMML 150130Z AUTO 26009KT 9999 // BKN054 OVC066 19/11 Q1020
2026-04-15 00:00:00,METAR YMML 150000Z AUTO 33004KT 300V360 9999 // SCT047 BKN058 OVC074 17/10 Q1021
2026-04-14 23:30:00,METAR YMML 142330Z AUTO 01008KT 9999 // BKN065 OVC074 16/10 Q1021
2026-04-14 23:00:00,METAR YMML 142300Z AUTO 01008KT 9999 // SCT064 OVC075 16/10 Q1021
2026-04-14 22:30:00,METAR YMML 142230Z AUTO 01008KT 9999 // FEW062 OVC073 15/10 Q1021
2026-04-14 22:00:00,METAR YMML 142200Z AUTO 01007KT 9999 // FEW046 OVC073 14/10 Q1020
2026-04-14 21:30:00,METAR YMML 142130Z AUTO 01008KT 9999 // FEW049 OVC073 13/10 Q1020
2026-04-14 21:00:00,METAR YMML 142100Z AUTO 36009KT 9999 // OVC075 13/09 Q1020
2026-04-14 20:30:00,METAR YMML 142030Z AUTO 36008KT 9999 // OVC075 12/09 Q1020
2026-04-14 20:00:00,METAR YMML 142000Z AUTO 36009KT 9999 // OVC075 12/09 Q1020
2026-04-14 19:30:00,METAR YMML 141930Z AUTO 36009KT 9999 // FEW023 OVC073 13/09 Q1019
2026-04-14 19:00:00,METAR YMML 141900Z AUTO 01009KT 9999 // BKN023 OVC073 12/09 Q1020
2026-04-14 18:30:00,METAR YMML 141830Z AUTO 01009KT 9999 // BKN073 13/09 Q1019
2026-04-14 18:00:00,METAR YMML 141800Z AUTO 36009KT 9999 // FEW073 13/09 Q1019
2026-04-14 17:30:00,METAR YMML 141730Z AUTO 33008KT 9999 // NCD 13/09 Q1019
2026-04-14 17:00:00,METAR YMML 141700Z AUTO 34008KT 9999 // NCD 13/09 Q1019
2026-04-14 16:30:00,METAR YMML 141630Z AUTO 33006KT 9999 // NCD 12/10 Q1020
2026-04-14 16:00:00,METAR YMML 141600Z AUTO 33005KT 9999 // NCD 12/09 Q1020
2026-04-14 15:30:00,METAR YMML 141530Z AUTO 31007KT 9999 // NCD 13/11 Q1020
2026-04-14 15:00:00,METAR YMML 141500Z AUTO 31006KT 9999 // NCD 13/10 Q1020
2026-04-14 14:30:00,METAR YMML 141430Z AUTO 31006KT 9999 // BKN028 13/11 Q1020
2026-04-14 14:00:00,METAR YMML 141400Z AUTO 31004KT 9999 // OVC028 13/11 Q1021
2026-04-14 13:30:00,METAR YMML 141330Z AUTO 32005KT 9999 // FEW048 13/11 Q1021
2026-04-14 13:00:00,METAR YMML 141300Z AUTO 32005KT 9999 // SCT046 14/11 Q1021
2026-04-14 12:30:00,METAR YMML 141230Z AUTO 31005KT 9999 // BKN027 BKN041 OVC050 15/11 Q1021
2026-04-14 12:00:00,METAR YMML 141200Z AUTO 31004KT 9999 // BKN029 BKN043 OVC053 15/12 Q1021
2026-04-14 11:30:00,METAR YMML 141130Z AUTO 28004KT 9999 // BKN035 BKN043 OVC053 15/12 Q1021
2026-04-14 11:00:00,METAR YMML 141100Z AUTO 24004KT 9999 // FEW027 BKN035 OVC055 15/11 Q1021
2026-04-14 10:30:00,METAR YMML 141030Z AUTO 25006KT 9999 // FEW027 SCT032 OVC055 15/11 Q1021
2026-04-14 10:00:00,METAR YMML 141000Z AUTO 25005KT 9999 // SCT032 BKN042 BKN048 16/12 Q1021
2026-04-14 09:30:00,METAR YMML 140930Z AUTO 23006KT 9999 // SCT042 OVC060 16/12 Q1021
2026-04-14 09:00:00,METAR YMML 140900Z AUTO 22008KT 9999 // SCT043 OVC060 16/12 Q1020
2026-04-14 08:30:00,METAR YMML 140830Z AUTO 27005KT 9999 // BKN045 OVC055 17/11 Q1020
2026-04-14 08:00:00,METAR YMML 140800Z AUTO 29006KT 9999 // OVC059 18/10 Q1020
2026-04-14 07:30:00,METAR YMML 140730Z AUTO 29006KT 9999 // OVC061 18/10 Q1019
2026-04-14 07:00:00,METAR YMML 140700Z AUTO 29009KT 9999 // FEW042 OVC061 18/10 Q1020
2026-04-14 06:30:00,METAR YMML 140630Z AUTO 29008KT 9999 // OVC059 19/10 Q1020
2026-04-14 06:00:00,METAR YMML 140600Z AUTO 30010KT 9999 // OVC057 19/10 Q1019
2026-04-14 05:30:00,METAR YMML 140530Z AUTO 28014KT 9999 // OVC057 19/10 Q1020
2026-04-14 05:00:00,METAR YMML 140500Z AUTO 27013KT 9999 // FEW049 BKN055 19/10 Q1020
2026-04-14 04:30:00,METAR YMML 140430Z AUTO 26012KT 9999 // BKN035 BKN045 OVC054 19/11 Q1020
2026-04-14 04:00:00,METAR YMML 140400Z AUTO 27008KT 9999 // SCT035 OVC048 18/11 Q1020
2026-04-14 03:30:00,METAR YMML 140330Z AUTO 25011KT 9999 // OVC046 18/11 Q1021
2026-04-14 03:00:00,METAR YMML 140300Z AUTO 27010KT 9999 // OVC044 18/11 Q1021
2026-04-14 02:30:00,METAR YMML 140230Z AUTO 29008KT 250V310 9999 // BKN031 OVC038 18/11 Q1021
2026-04-14 02:00:00,METAR YMML 140200Z AUTO 25007KT 9999 // OVC029 OVC034 17/11 Q1022
2026-04-14 01:30:00,METAR YMML 140130Z AUTO 25007KT 230V300 9999 // OVC029 17/11 Q1022
2026-04-14 01:00:00,METAR YMML 140100Z AUTO 27007KT 9999 // OVC025 OVC030 17/11 Q1022
2026-04-14 00:30:00,METAR YMML 140030Z AUTO 27006KT 9999 // OVC025 16/11 Q1022
2026-04-14 00:00:00,METAR YMML 140000Z AUTO 25008KT 9999 // OVC025 16/11 Q1023
2026-04-13 23:30:00,METAR YMML 132330Z AUTO 28007KT 9999 // OVC023 15/11 Q1023
2026-04-13 23:00:00,METAR YMML 132300Z AUTO 30006KT 9999 // BKN025 OVC031 15/12 Q1023
2026-04-13 22:30:00,METAR YMML 132230Z AUTO 25006KT 9999 // BKN023 OVC031 14/11 Q1023
2026-04-13 22:00:00,METAR YMML 132200Z AUTO 29009KT 9999 // OVC025 14/12 Q1023
2026-04-13 21:30:00,METAR YMML 132130Z AUTO 27005KT 9999 // OVC023 14/12 Q1022
2026-04-13 21:00:00,METAR YMML 132100Z AUTO 27004KT 240V300 9999 // OVC023 13/12 Q1022
2026-04-13 20:30:00,METAR YMML 132030Z AUTO 29005KT 9999 // OVC025 13/12 Q1022
2026-04-13 20:00:00,METAR YMML 132000Z AUTO 31006KT 9999 // OVC025 13/12 Q1022
2026-04-13 19:30:00,METAR YMML 131930Z AUTO 35005KT 9999 // OVC023 13/12 Q1022
2026-04-13 19:00:00,METAR YMML 131900Z AUTO 03005KT 9999 // OVC025 13/13 Q1022
2026-04-13 18:30:00,METAR YMML 131830Z AUTO 00000KT 9999 // FEW003 OVC022 OVC028 13/13 Q1022
2026-04-13 18:00:00,METAR YMML 131800Z AUTO 00000KT 9999 // SCT003 OVC020 13/13 Q1022
2026-04-13 17:39:00,SPECI YMML 131739Z AUTO 21002KT 9999 // FEW004 OVC020 13/13 Q1022
2026-04-13 17:30:00,METAR YMML 131730Z AUTO 19005KT 9999 // SCT004 OVC020 13/13 Q1022
2026-04-13 17:00:00,METAR YMML 131700Z AUTO 17001KT 9999 // OVC005 13/13 Q1022
2026-04-13 16:30:00,METAR YMML 131630Z AUTO 00000KT 9999 // BKN006 OVC024 13/13 Q1022
2026-04-13 16:00:00,SPECI YMML 131600Z AUTO 00000KT 9999 -SHRA BKN006 OVC024 13/13 Q1022
2026-04-13 15:30:00,SPECI YMML 131530Z AUTO 00000KT 5000 DZ BR BKN006 OVC021 13/13 Q1022
2026-04-13 15:26:00,SPECI YMML 131526Z AUTO 00000KT 6000 DZ BKN006 OVC021 13/13 Q1022
2026-04-13 15:00:00,METAR YMML 131500Z AUTO 00000KT 7000 // BKN005 OVC026 13/13 Q1022
2026-04-13 14:30:00,METAR YMML 131430Z AUTO 00000KT 9999 // BKN008 OVC026 13/13 Q1022
2026-04-13 14:11:00,SPECI YMML 131411Z AUTO 23004KT 9999 -SHRA BKN008 OVC015 13/13 Q1022
2026-04-13 14:00:00,SPECI YMML 131400Z AUTO 24005KT 5000 -SHRA BKN010 OVC015 13/13 Q1022
2026-04-13 13:50:00,SPECI YMML 131350Z AUTO 23007KT 3300 -DZ BR SCT010 OVC017 OVC026 13/13 Q1022
2026-04-13 13:43:00,SPECI YMML 131343Z AUTO 22007KT 6000 // FEW010 BKN017 BKN022 13/12 Q1023
2026-04-13 13:30:00,METAR YMML 131330Z AUTO 23005KT 9999 // BKN019 BKN023 OVC027 14/12 Q1023
2026-04-13 13:00:00,METAR YMML 131300Z AUTO 23006KT 9999 // FEW021 BKN029 OVC034 14/12 Q1023
2026-04-13 12:30:00,METAR YMML 131230Z AUTO 23007KT 9999 // FEW021 SCT029 OVC034 14/12 Q1023
2026-04-13 12:00:00,METAR YMML 131200Z AUTO 24006KT 9999 // BKN021 BKN029 OVC036 14/12 Q1023
2026-04-13 11:30:00,METAR YMML 131130Z AUTO 25006KT 9999 // SCT019 OVC035 13/12 Q1023
2026-04-13 11:00:00,METAR YMML 131100Z AUTO 27006KT 9999 // SCT024 BKN037 13/11 Q1023
2026-04-13 10:30:00,METAR YMML 131030Z AUTO 25006KT 9999 // BKN041 14/11 Q1022
2026-04-13 10:00:00,METAR YMML 131000Z AUTO 25007KT 9999 // SCT025 BKN043 15/11 Q1022
2026-04-13 09:30:00,METAR YMML 130930Z AUTO 18003KT 9999 // SCT025 SCT043 14/13 Q1022
2026-04-13 09:00:00,METAR YMML 130900Z AUTO 20005KT 9999 // SCT032 BKN038 BKN045 15/13 Q1022
2026-04-13 08:30:00,METAR YMML 130830Z AUTO 24009KT 9999 // FEW047 OVC060 16/11 Q1021
2026-04-13 08:00:00,METAR YMML 130800Z AUTO 23012KT 9999 // BKN032 BKN038 BKN052 17/11 Q1021
2026-04-13 07:30:00,METAR YMML 130730Z AUTO 24015KT 9999 // FEW039 BKN052 18/11 Q1021
2026-04-13 07:00:00,METAR YMML 130700Z AUTO 24016KT 9999 // FEW039 BKN054 19/11 Q1021
2026-04-13 06:30:00,METAR YMML 130630Z AUTO 23016KT 9999 // SCT041 OVC052 19/10 Q1020
2026-04-13 06:00:00,METAR YMML 130600Z AUTO 23017KT 9999 // SCT039 OVC050 19/10 Q1020
2026-04-13 05:30:00,METAR YMML 130530Z AUTO 24016KT 9999 // FEW035 SCT042 OVC058 19/11 Q1020
2026-04-13 05:00:00,METAR YMML 130500Z AUTO 26015KT 9999 // SCT033 BKN040 BKN055 19/11 Q1020
2026-04-13 04:30:00,METAR YMML 130430Z AUTO 25016KT 9999 // SCT033 BKN046 OVC054 20/12 Q1020
2026-04-13 04:00:00,METAR YMML 130400Z AUTO 25014KT 9999 // SCT028 SCT035 BKN042 19/12 Q1020
2026-04-13 03:30:00,METAR YMML 130330Z AUTO 26015KT 9999 // SCT025 BKN033 BKN041 18/12 Q1021
2026-04-13 03:00:00,METAR YMML 130300Z AUTO 25015KT 9999 // BKN024 BKN033 BKN038 17/12 Q1021
2026-04-13 02:30:00,METAR YMML 130230Z AUTO 26014KT 9999 // BKN022 BKN029 OVC052 18/12 Q1021
2026-04-13 02:00:00,METAR YMML 130200Z AUTO 25013KT 9999 // BKN024 OVC034 17/12 Q1021
2026-04-13 01:30:00,METAR YMML 130130Z AUTO 24015KT 9999 // BKN024 OVC029 16/11 Q1021
2026-04-13 01:00:00,METAR YMML 130100Z AUTO 25013KT 9999 // BKN022 OVC029 17/12 Q1021
2026-04-13 00:30:00,METAR YMML 130030Z AUTO 26015KT 9999 // OVC022 16/11 Q1021
2026-04-13 00:00:00,METAR YMML 130000Z AUTO 25012KT 9999 // BKN022 OVC037 16/11 Q1021
2026-04-12 23:30:00,METAR YMML 122330Z AUTO 25013KT 9999 // BKN020 OVC040 15/11 Q1021
2026-04-12 23:16:00,SPECI YMML 122316Z AUTO 26012KT 9999 // BKN018 BKN038 OVC062 15/11 Q1021
2026-04-12 23:00:00,METAR YMML 122300Z AUTO 26012KT 9999 // BKN016 BKN039 BKN061 15/11 Q1021
2026-04-12 22:30:00,METAR YMML 122230Z AUTO 28007KT 9999 // SCT018 SCT039 BKN056 14/11 Q1021
2026-04-12 22:00:00,METAR YMML 122200Z AUTO 29009KT 9999 // OVC018 12/10 Q1020
2026-04-12 21:30:00,METAR YMML 122130Z AUTO 28007KT 9999 // BKN020 OVC043 12/10 Q1020
2026-04-12 21:00:00,METAR YMML 122100Z AUTO 28008KT 9999 // OVC020 12/10 Q1020
2026-04-12 20:30:00,METAR YMML 122030Z AUTO 29008KT 9999 // OVC018 11/10 Q1020
2026-04-12 20:05:00,SPECI YMML 122005Z AUTO 29006KT 9999 // BKN018 OVC023 OVC071 11/09 Q1019
2026-04-12 20:00:00,SPECI YMML 122000Z AUTO 29006KT 9999 // BKN018 OVC023 OVC071 11/09 Q1019
2026-04-12 19:32:00,SPECI YMML 121932Z AUTO 28007KT 9999 // OVC016 11/10 Q1019
2026-04-12 19:00:00,METAR YMML 121900Z AUTO 27008KT 9999 // SCT018 BKN049 11/09 Q1019
2026-04-12 18:30:00,METAR YMML 121830Z AUTO 29008KT 9999 // FEW022 SCT085 10/08 Q1019
2026-04-12 18:00:00,METAR YMML 121800Z AUTO 29008KT 9999 // FEW020 SCT047 OVC083 11/09 Q1018
2026-04-12 17:30:00,METAR YMML 121730Z AUTO 29007KT 9999 // SCT022 SCT029 OVC043 11/09 Q1018
2026-04-12 17:00:00,METAR YMML 121700Z AUTO 27008KT 9999 // FEW022 SCT029 BKN033 11/09 Q1019
2026-04-12 16:30:00,METAR YMML 121630Z AUTO 28008KT 9999 // SCT026 BKN031 BKN039 11/09 Q1018
2026-04-12 16:00:00,METAR YMML 121600Z AUTO 28009KT 9999 // BKN024 BKN042 OVC051 11/08 Q1018
2026-04-12 15:00:00,METAR YMML 121500Z AUTO 29008KT 9999 // NCD 10/08 Q1018
2026-04-12 14:30:00,METAR YMML 121430Z AUTO 28008KT 9999 // BKN047 10/08 Q1018
2026-04-12 14:00:00,METAR YMML 121400Z AUTO 27011KT 9999 // BKN045 11/09 Q1018
2026-04-12 13:30:00,METAR YMML 121330Z AUTO 27010KT 9999 // FEW038 BKN047 OVC055 11/09 Q1018
2026-04-12 13:00:00,METAR YMML 121300Z AUTO 28010KT 9999 // OVC047 11/09 Q1018
2026-04-12 12:30:00,METAR YMML 121230Z AUTO 27009KT 9999 // BKN045 OVC055 11/09 Q1018
2026-04-12 12:00:00,METAR YMML 121200Z AUTO 26010KT 9999 // FEW040 BKN048 OVC054 11/09 Q1018
2026-04-12 11:30:00,METAR YMML 121130Z AUTO 26011KT 9999 // FEW044 OVC050 11/09 Q1018
2026-04-12 11:00:00,METAR YMML 121100Z AUTO 27009KT 9999 // OVC052 11/10 Q1018
2026-04-12 10:31:00,SPECI YMML 121031Z AUTO 26008KT 9999 // FEW007 BKN023 OVC043 11/10 Q1017
2026-04-12 10:30:00,SPECI YMML 121030Z AUTO 25008KT 9999 // FEW007 BKN023 OVC043 11/10 Q1017
2026-04-12 10:04:00,SPECI YMML 121004Z AUTO 26009KT 6000 -SHRA SCT021 BKN025 OVC031 11/10 Q1017
2026-04-12 09:30:00,METAR YMML 120930Z AUTO 26009KT 9999 // FEW023 SCT042 BKN051 11/09 Q1017
2026-04-12 09:00:00,METAR YMML 120900Z AUTO 24011KT 9999 DZ SCT020 OVC028 12/09 Q1017
2026-04-12 08:30:00,METAR YMML 120830Z AUTO 25012KT 9999 // BKN028 BKN049 OVC061 13/08 Q1016
2026-04-12 08:00:00,METAR YMML 120800Z AUTO 25014KT 9999 // BKN030 BKN035 BKN052 13/08 Q1016
2026-04-12 07:30:00,METAR YMML 120730Z AUTO 27012KT 9999 // SCT030 BKN039 OVC061 14/08 Q1015
2026-04-12 07:00:00,METAR YMML 120700Z AUTO 25014KT 9999 // SCT033 SCT044 BKN054 14/07 Q1015
2026-04-12 06:40:00,SPECI YMML 120640Z AUTO 24015G25KT 9999 -SHRA SCT032 BKN038 BKN056 14/07 Q1015
2026-04-12 06:30:00,METAR YMML 120630Z AUTO 25016KT 9999 -RA SCT032 BKN038 BKN054 14/09 Q1015
2026-04-12 06:00:00,METAR YMML 120600Z AUTO 25015KT 9999 // FEW036 BKN040 BKN052 14/08 Q1014
2026-04-12 05:30:00,METAR YMML 120530Z AUTO 23015KT 9999 // BKN060 14/07 Q1014
2026-04-12 05:00:00,METAR YMML 120500Z AUTO 24014KT 9999 // FEW032 SCT040 OVC052 14/08 Q1014
2026-04-12 04:30:00,METAR YMML 120430Z AUTO 25016KT 9999 // SCT035 SCT045 BKN056 15/07 Q1013
2026-04-12 04:00:00,METAR YMML 120400Z AUTO 27015KT 9999 // FEW038 SCT049 OVC063 15/07 Q1013
2026-04-12 03:30:00,METAR YMML 120330Z AUTO 25017KT 9999 // FEW033 SCT041 BKN048 15/08 Q1013
2026-04-12 03:00:00,METAR YMML 120300Z AUTO 26018KT 9999 -SHRA BKN037 BKN051 OVC063 15/07 Q1013
2026-04-12 02:30:00,METAR YMML 120230Z AUTO 25017KT 9999 // FEW033 SCT040 BKN059 15/07 Q1013
2026-04-12 02:00:00,METAR YMML 120200Z AUTO 26023KT 9999 // FEW036 BKN044 OVC057 14/07 Q1013
2026-04-12 01:45:00,SPECI YMML 120145Z AUTO 26017G27KT 9999 // SCT039 OVC059 14/06 Q1013
2026-04-12 01:30:00,METAR YMML 120130Z AUTO 26019KT 9999 // FEW040 BKN059 14/06 Q1013
2026-04-12 01:22:00,SPECI YMML 120122Z AUTO 26016G26KT 9999 // FEW036 OVC059 14/06 Q1013
2026-04-12 01:00:00,METAR YMML 120100Z AUTO 26019KT 9999 // FEW031 SCT046 BKN061 14/06 Q1013
2026-04-12 00:30:00,METAR YMML 120030Z AUTO 25017KT 9999 // FEW030 OVC063 13/06 Q1013
2026-04-12 00:00:00,METAR YMML 120000Z AUTO 26018KT 9999 // FEW030 BKN065 13/07 Q1013
2026-04-11 23:30:00,METAR YMML 112330Z AUTO 27015KT 9999 // FEW049 OVC065 12/07 Q1013
2026-04-11 23:00:00,METAR YMML 112300Z AUTO 27013KT 9999 // FEW036 SCT057 OVC065 11/08 Q1013
2026-04-11 22:30:00,METAR YMML 112230Z AUTO 28013KT 9999 -SHRA FEW015 SCT027 BKN043 11/07 Q1012
2026-04-11 22:00:00,METAR YMML 112200Z AUTO 28016KT 9999 -RA FEW017 SCT035 BKN044 10/07 Q1012
2026-04-11 21:30:00,METAR YMML 112130Z AUTO 28011KT 9999 // FEW045 SCT052 OVC063 10/06 Q1012
2026-04-11 21:00:00,METAR YMML 112100Z AUTO 27013KT 9999 // FEW035 BKN042 OVC050 10/06 Q1011
2026-04-11 20:30:00,METAR YMML 112030Z AUTO 28013KT 9999 // FEW033 SCT041 BKN051 10/06 Q1011
2026-04-11 20:00:00,METAR YMML 112000Z AUTO 27011KT 9999 // FEW053 OVC068 10/06 Q1011
2026-04-11 19:30:00,METAR YMML 111930Z AUTO 28011KT 9999 // FEW036 SCT041 BKN047 10/06 Q1010
2026-04-11 19:00:00,METAR YMML 111900Z AUTO 29010KT 9999 // SCT037 BKN046 BKN056 10/05 Q1010
2026-04-11 18:30:00,METAR YMML 111830Z AUTO 30010KT 9999 // FEW034 SCT058 OVC075 10/06 Q1010
2026-04-11 18:00:00,METAR YMML 111800Z AUTO 30010KT 9999 // FEW041 SCT064 OVC077 10/06 Q1010
2026-04-11 17:30:00,METAR YMML 111730Z AUTO 30008KT 9999 // SCT033 BKN053 OVC069 10/06 Q1010
2026-04-11 17:00:00,METAR YMML 111700Z AUTO 30009KT 9999 // FEW037 SCT045 OVC069 09/06 Q1010
2026-04-11 16:30:00,METAR YMML 111630Z AUTO 30009KT 9999 // SCT054 BKN068 09/05 Q1010
2026-04-11 16:00:00,METAR YMML 111600Z AUTO 30008KT 9999 // SCT037 BKN067 09/06 Q1010
2026-04-11 15:30:00,METAR YMML 111530Z AUTO 31009KT 9999 // FEW047 BKN058 10/06 Q1010
2026-04-11 15:00:00,METAR YMML 111500Z AUTO 30011KT 9999 // FEW044 09/06 Q1010
2026-04-11 14:30:00,METAR YMML 111430Z AUTO 31010KT 9999 // FEW036 SCT051 10/06 Q1010
2026-04-11 14:00:00,METAR YMML 111400Z AUTO 31010KT 9999 // FEW066 09/06 Q1010
2026-04-11 13:30:00,METAR YMML 111330Z AUTO 31010KT 9999 // FEW034 BKN047 OVC056 10/07 Q1010
2026-04-11 13:00:00,METAR YMML 111300Z AUTO 29011KT 9999 -SHRA FEW034 BKN051 OVC061 11/07 Q1011
2026-04-11 12:30:00,METAR YMML 111230Z AUTO 32007KT 9999 // OVC045 OVC061 11/06 Q1011
2026-04-11 12:00:00,METAR YMML 111200Z AUTO 32008KT 9999 // BKN061 BKN070 10/06 Q1011
2026-04-11 11:30:00,METAR YMML 111130Z AUTO 31008KT 9999 // BKN053 BKN074 10/07 Q1011
2026-04-11 11:00:00,METAR YMML 111100Z AUTO 31008KT 9999 // SCT040 BKN048 BKN055 11/07 Q1011
2026-04-11 10:30:00,METAR YMML 111030Z AUTO 32008KT 9999 // BKN080 11/07 Q1010
2026-04-11 10:00:00,METAR YMML 111000Z AUTO 30008KT 9999 // FEW032 10/07 Q1010
2026-04-11 09:30:00,METAR YMML 110930Z AUTO 28015KT 9999 // FEW062 BKN084 11/07 Q1010
2026-04-11 09:00:00,METAR YMML 110900Z AUTO 28015KT 9999 // FEW038 SCT052 BKN092 11/07 Q1010
2026-04-11 08:30:00,METAR YMML 110830Z AUTO 28012KT 9999 -SHRA FEW032 SCT038 BKN047 12/08 Q1010
2026-04-11 08:00:00,METAR YMML 110800Z AUTO 26013KT 9999 -SHRA FEW036 SCT043 OVC058 12/08 Q1010
2026-04-11 07:30:00,METAR YMML 110730Z AUTO 28008KT 9999 // SCT045 BKN054 OVC066 13/07 Q1009
2026-04-11 07:00:00,METAR YMML 110700Z AUTO 25013KT 9999 -RA FEW038 BKN047 BKN054 12/07 Q1009
2026-04-11 06:30:00,METAR YMML 110630Z AUTO 29017KT 9999 // FEW051 BKN082 15/06 Q1009
2026-04-11 06:08:00,SPECI YMML 110608Z AUTO 30018G28KT 9999 // FEW050 SCT070 OVC089 14/06 Q1009
2026-04-11 06:00:00,METAR YMML 110600Z AUTO 29022KT 9999 // FEW050 SCT070 BKN089 14/06 Q1009
2026-04-11 05:49:00,SPECI YMML 110549Z AUTO 29016G28KT 9999 // SCT052 BKN068 BKN105 15/07 Q1009
2026-04-11 05:30:00,METAR YMML 110530Z AUTO 28019KT 9999 -SHRA FEW046 SCT066 BKN105 15/07 Q1009
2026-04-11 05:21:00,SPECI YMML 110521Z AUTO 28020KT 9999 -SHRA SCT045 BKN065 BKN081 15/07 Q1009
2026-04-11 05:00:00,METAR YMML 110500Z AUTO 31014KT 9999 // SCT074 BKN096 15/07 Q1009
2026-04-11 04:30:00,METAR YMML 110430Z AUTO 29018KT 9999 -SHRA FEW040 BKN052 BKN061 13/09 Q1009
2026-04-11 04:16:00,SPECI YMML 110416Z AUTO 28021KT 9999 -SHRA BKN051 BKN059 13/07 Q1009
2026-04-11 04:00:00,METAR YMML 110400Z AUTO 28010KT 9999 -SHRA SCT043 SCT048 BKN053 16/07 Q1008
2026-04-11 03:30:00,METAR YMML 110330Z AUTO 30017KT 9999 // SCT049 OVC062 OVC073 16/05 Q1009
2026-04-11 03:00:00,METAR YMML 110300Z AUTO 34014KT 300V360 9999 // FEW049 OVC061 15/05 Q1009
2026-04-11 02:31:00,SPECI YMML 110231Z AUTO 30017G27KT 9999 // OVC053 OVC066 14/04 Q1009
2026-04-11 02:00:00,METAR YMML 110200Z AUTO 30019KT 9999 // BKN047 OVC057 15/05 Q1010
2026-04-11 01:34:00,SPECI YMML 110134Z AUTO 30019G29KT 9999 // BKN049 OVC053 14/04 Q1010
2026-04-11 01:22:00,SPECI YMML 110122Z AUTO 31017G28KT 9999 // BKN047 OVC053 14/04 Q1010
2026-04-11 01:00:00,METAR YMML 110100Z AUTO 29018KT 9999 // BKN045 OVC053 15/05 Q1011
2026-04-11 00:45:00,SPECI YMML 110045Z AUTO 31015G27KT 9999 // BKN045 OVC053 13/04 Q1011
2026-04-11 00:30:00,METAR YMML 110030Z AUTO 32013KT 9999 // FEW038 BKN045 13/04 Q1011
2026-04-11 00:00:00,METAR YMML 110000Z AUTO 33013KT 9999 // BKN042 BKN047 13/05 Q1011
2026-04-10 23:30:00,METAR YMML 102330Z AUTO 35015KT 9999 // FEW042 13/05 Q1011
2026-04-10 23:02:00,SPECI YMML 102302Z AUTO 34015G25KT 9999 // FEW054 12/05 Q1011
2026-04-10 22:30:00,METAR YMML 102230Z AUTO 35013KT 9999 // NCD 10/04 Q1011
2026-04-10 22:00:00,METAR YMML 102200Z AUTO 34013KT 9999 // NCD 09/04 Q1011
2026-04-10 21:30:00,METAR YMML 102130Z AUTO 01011KT 9999 // NCD 08/04 Q1011
2026-04-10 21:00:00,METAR YMML 102100Z AUTO 36011KT 9999 // NCD 07/04 Q1011
2026-04-10 20:30:00,METAR YMML 102030Z AUTO 36012KT 9999 // NCD 08/04 Q1011
2026-04-10 20:00:00,METAR YMML 102000Z AUTO 36011KT 9999 // FEW067 08/04 Q1011
2026-04-10 19:30:00,METAR YMML 101930Z AUTO 36010KT 9999 // BKN071 08/04 Q1011
2026-04-10 19:00:00,METAR YMML 101900Z AUTO 36010KT 9999 // NCD 07/04 Q1011
2026-04-10 18:30:00,METAR YMML 101830Z AUTO 01009KT 9999 // NCD 07/04 Q1011
2026-04-10 18:00:00,METAR YMML 101800Z AUTO 36008KT 9999 // NCD 08/04 Q1010
2026-04-10 17:30:00,METAR YMML 101730Z AUTO 35009KT 9999 // NCD 08/04 Q1010
2026-04-10 17:00:00,METAR YMML 101700Z AUTO 01008KT 9999 // NCD 07/05 Q1010
2026-04-10 16:30:00,METAR YMML 101630Z AUTO 01009KT 9999 // NCD 07/05 Q1010
2026-04-10 16:00:00,METAR YMML 101600Z AUTO 36008KT 9999 // NCD 08/05 Q1011
2026-04-10 15:30:00,METAR YMML 101530Z AUTO 36008KT 9999 // NCD 08/05 Q1011
2026-04-10 15:00:00,METAR YMML 101500Z AUTO 35006KT 9999 // FEW105 09/05 Q1011
2026-04-10 14:30:00,METAR YMML 101430Z AUTO 30009KT 9999 // BKN099 09/05 Q1011
2026-04-10 14:00:00,METAR YMML 101400Z AUTO 31009KT 9999 // BKN089 OVC105 10/05 Q1011
2026-04-10 13:30:00,METAR YMML 101330Z AUTO 30011KT 9999 // BKN071 BKN082 OVC105 10/06 Q1011
2026-04-10 13:00:00,METAR YMML 101300Z AUTO 30016KT 9999 -SHRA FEW039 SCT051 OVC062 09/06 Q1011
2026-04-10 12:44:00,SPECI YMML 101244Z AUTO 27021KT 9000 -RA FEW020 SCT031 BKN039 09/06 Q1011
2026-04-10 12:30:00,SPECI YMML 101230Z AUTO 24022KT 9999 -RA FEW027 BKN033 BKN040 11/07 Q1011
2026-04-10 12:00:00,METAR YMML 101200Z AUTO 27005KT 9999 // BKN043 OVC051 12/08 Q1010
2026-04-10 11:30:00,METAR YMML 101130Z AUTO 31008KT 9999 // SCT044 SCT054 12/07 Q1010
2026-04-10 11:00:00,METAR YMML 101100Z AUTO 35012KT 9999 // SCT046 SCT052 BKN063 13/08 Q1009
2026-04-10 10:30:00,METAR YMML 101030Z AUTO 35012KT 9999 // SCT064 13/08 Q1009
2026-04-10 10:00:00,METAR YMML 101000Z AUTO 36011KT 9999 // FEW055 BKN074 OVC087 13/08 Q1009
2026-04-10 09:30:00,METAR YMML 100930Z AUTO 32014KT 9999 // FEW049 OVC060 OVC071 14/08 Q1009
2026-04-10 09:00:00,METAR YMML 100900Z AUTO 33007KT 9999 // SCT070 BKN085 13/08 Q1008
2026-04-10 08:30:00,METAR YMML 100830Z AUTO 33011KT 9999 // FEW047 SCT062 BKN074 14/08 Q1009
2026-04-10 08:00:00,METAR YMML 100800Z AUTO 29007KT 9999 // SCT053 BKN070 OVC090 14/09 Q1008
2026-04-10 07:30:00,METAR YMML 100730Z AUTO 29009KT 9999 // SCT055 BKN067 OVC085 14/10 Q1008
2026-04-10 07:00:00,METAR YMML 100700Z AUTO 27010KT 9999 -SHRA BKN052 BKN062 BKN090 13/10 Q1008
2026-04-10 06:40:00,SPECI YMML 100640Z AUTO 25020KT 9999 -SHRA BKN050 BKN059 OVC087 13/09 Q1008
2026-04-10 06:30:00,METAR YMML 100630Z AUTO 27008KT 9999 // SCT050 BKN059 BKN071 15/08 Q1008
2026-04-10 06:00:00,METAR YMML 100600Z AUTO 28008KT 9999 -SHRA BKN054 BKN065 BKN073 16/07 Q1008
2026-04-10 05:30:00,METAR YMML 100530Z AUTO 29015KT 9999 -SHRA FEW060 SCT070 BKN077 16/08 Q1008
2026-04-10 05:00:00,METAR YMML 100500Z AUTO 26014KT 9999 -RA FEW018 BKN055 OVC072 15/10 Q1008
2026-04-10 04:30:00,METAR YMML 100430Z AUTO 28008KT 9999 // FEW048 SCT059 BKN081 17/09 Q1008
2026-04-10 04:00:00,METAR YMML 100400Z AUTO 26009KT 9999 // FEW039 SCT047 16/08 Q1008
2026-04-10 03:30:00,METAR YMML 100330Z AUTO 31011KT 9999 -SHRA FEW029 BKN044 BKN055 16/11 Q1009
2026-04-10 03:00:00,METAR YMML 100300Z AUTO 26010KT 9999 -SHRA SCT047 BKN057 OVC076 14/09 Q1009
2026-04-10 02:30:00,METAR YMML 100230Z AUTO 27012KT 9999 -SHRA FEW021 SCT045 BKN051 14/09 Q1009
2026-04-10 02:20:00,SPECI YMML 100220Z AUTO 27015KT 9999 -RA SCT045 BKN049 OVC058 14/09 Q1009
2026-04-10 02:00:00,METAR YMML 100200Z AUTO 29007KT 9999 // SCT049 OVC058 OVC079 16/05 Q1009
2026-04-10 01:30:00,METAR YMML 100130Z AUTO 28010KT 9999 // BKN055 OVC070 16/07 Q1009
2026-04-10 01:00:00,METAR YMML 100100Z AUTO 29012KT 9999 // FEW049 SCT057 BKN067 16/06 Q1009
2026-04-10 00:30:00,METAR YMML 100030Z AUTO 30013KT 9999 // FEW051 BKN063 BKN072 17/07 Q1010
2026-04-10 00:00:00,METAR YMML 100000Z AUTO 26010KT 9999 // SCT040 BKN046 OVC057 15/08 Q1010
2026-04-09 23:30:00,METAR YMML 092330Z AUTO 25008KT 9999 // FEW035 SCT041 BKN051 15/08 Q1010
2026-04-09 23:00:00,METAR YMML 092300Z AUTO 28007KT 9999 // FEW038 SCT043 BKN054 15/08 Q1009
2026-04-09 22:30:00,METAR YMML 092230Z AUTO 32008KT 9999 // NCD 15/09 Q1009
2026-04-09 22:00:00,METAR YMML 092200Z AUTO 35006KT 9999 // NCD 14/10 Q1009
2026-04-09 21:30:00,METAR YMML 092130Z AUTO 33005KT 9999 // NCD 13/10 Q1008
2026-04-09 21:00:00,METAR YMML 092100Z AUTO 32006KT 9999 // NCD 13/09 Q1008
2026-04-09 20:30:00,METAR YMML 092030Z AUTO 35005KT 9999 // NCD 12/10 Q1008
2026-04-09 20:00:00,METAR YMML 092000Z AUTO 25008KT 9999 // FEW021 BKN061 12/10 Q1008
2026-04-09 19:40:00,SPECI YMML 091940Z AUTO 24011KT 9999 -SHRA FEW012 OVC021 13/11 Q1007
2026-04-09 19:30:00,SPECI YMML 091930Z AUTO 25013KT 6000 -SHRA FEW012 BKN021 BKN028 12/11 Q1007
2026-04-09 19:19:00,SPECI YMML 091919Z AUTO 25017KT 6000 -SHRA FEW011 SCT014 BKN023 12/12 Q1007
2026-04-09 19:00:00,METAR YMML 091900Z AUTO 24017KT 9999 // FEW019 SCT029 BKN043 14/11 Q1006
2026-04-09 18:30:00,METAR YMML 091830Z AUTO 31014KT 9999 // NCD 16/11 Q1005
2026-04-09 18:00:00,METAR YMML 091800Z AUTO 33008KT 9999 // NCD 16/12 Q1005
2026-04-09 17:30:00,METAR YMML 091730Z AUTO 33009KT 310V010 9999 // BKN035 BKN045 OVC066 18/13 Q1005
2026-04-09 17:00:00,METAR YMML 091700Z AUTO 36010KT 9999 // OVC035 OVC042 18/12 Q1005
2026-04-09 16:30:00,METAR YMML 091630Z AUTO 01014KT 9999 // BKN039 BKN056 18/12 Q1005
2026-04-09 16:00:00,METAR YMML 091600Z AUTO 01017KT 9999 // SCT034 SCT049 18/12 Q1005
2026-04-09 15:30:00,METAR YMML 091530Z AUTO 36015KT 9999 // FEW034 18/12 Q1005
2026-04-09 15:00:00,METAR YMML 091500Z AUTO 36013KT 9999 // NCD 18/12 Q1005
2026-04-09 14:30:00,METAR YMML 091430Z AUTO 34014KT 9999 // NCD 19/12 Q1005
2026-04-09 14:00:00,METAR YMML 091400Z AUTO 34011KT 9999 // FEW035 SCT041 19/15 Q1005
2026-04-09 13:30:00,METAR YMML 091330Z AUTO 34011KT 9999 // NCD 19/15 Q1005
2026-04-09 13:00:00,METAR YMML 091300Z AUTO 34012KT 9999 // FEW036 SCT043 20/15 Q1005
2026-04-09 12:30:00,METAR YMML 091230Z AUTO 33012KT 9999 // SCT028 BKN035 BKN054 19/15 Q1006
2026-04-09 12:00:00,METAR YMML 091200Z AUTO 36011KT 9999 // BKN098 19/15 Q1005
2026-04-09 11:30:00,METAR YMML 091130Z AUTO 36011KT 9999 // FEW031 BKN054 BKN069 19/15 Q1006
2026-04-09 11:00:00,METAR YMML 091100Z AUTO 35012KT 9999 // FEW043 SCT050 BKN100 20/15 Q1006
2026-04-09 10:43:00,SPECI YMML 091043Z AUTO 36015G28KT 9999 // FEW031 SCT038 BKN100 20/15 Q1006
2026-04-09 10:30:00,METAR YMML 091030Z AUTO 35015KT 9999 // SCT031 SCT038 BKN100 20/15 Q1006
2026-04-09 10:00:00,METAR YMML 091000Z AUTO 36016KT 9999 // SCT097 BKN115 20/15 Q1006
2026-04-09 09:49:00,SPECI YMML 090949Z AUTO 36016G27KT 9999 // FEW038 SCT091 OVC115 20/15 Q1006
2026-04-09 09:30:00,METAR YMML 090930Z AUTO 35015KT 9999 // FEW036 BKN115 BKN125 20/15 Q1006
2026-04-09 09:00:00,METAR YMML 090900Z AUTO 34016G27KT 9999 // BKN036 21/15 Q1006
2026-04-09 08:30:00,METAR YMML 090830Z AUTO 35016G27KT 9999 // FEW038 21/15 Q1006
2026-04-09 08:25:00,SPECI YMML 090825Z AUTO 35015G25KT 9999 // FEW038 21/15 Q1006
2026-04-09 08:00:00,METAR YMML 090800Z AUTO 35016KT 9999 // NCD 21/16 Q1005
2026-04-09 07:30:00,METAR YMML 090730Z AUTO 01017KT 9999 // SCT039 SCT048 20/17 Q1005
2026-04-09 07:00:00,METAR YMML 090700Z AUTO 01019KT 9999 // FEW039 19/17 Q1005
2026-04-09 06:30:00,METAR YMML 090630Z AUTO 36017KT 9999 // FEW110 19/18 Q1006
2026-04-09 06:00:00,SPECI YMML 090600Z AUTO 02019G31KT 9999 -RA FEW015 BKN110 18/18 Q1006
2026-04-09 05:48:00,SPECI YMML 090548Z AUTO 03022G34KT 9999 VCTS -RA SCT016 BKN041 BKN078 18/18 Q1006 RETS
2026-04-09 05:43:00,SPECI YMML 090543Z AUTO 03018G28KT 9999 VCTS -RA SCT017 SCT040 BKN064 19/18 Q1006 RETS
2026-04-09 05:36:00,SPECI YMML 090536Z AUTO 03026KT 2900 VCTS +RA FEW012 SCT030 BKN055 18/18 Q1006 RETS
2026-04-09 05:30:00,SPECI YMML 090530Z AUTO 03022KT 2500 +TSRA FEW012 SCT032 BKN063 18/18 Q1006
2026-04-09 05:26:00,SPECI YMML 090526Z AUTO 03024KT 4800 +TSRA FEW012 SCT035 BKN057 18/18 Q1007
2026-04-09 05:18:00,SPECI YMML 090518Z AUTO 03027KT 3400 VCTS +RA SCT027 BKN048 BKN060 19/18 Q1006 RETS
2026-04-09 05:08:00,SPECI YMML 090508Z AUTO 01015G25KT 3800 +TSRA FEW014 BKN029 BKN043 18/18 Q1006
2026-04-09 05:00:00,SPECI YMML 090500Z AUTO 32013KT 300V010 3800 +TSRA FEW013 BKN024 BKN035 18/18 Q1008
2026-04-09 04:54:00,SPECI YMML 090454Z AUTO 32013KT 300V020 4400 +TSRA FEW013 BKN029 BKN043 18/18 Q1008
2026-04-09 04:46:00,SPECI YMML 090446Z AUTO 01020G30KT 0600 R34/P2000N +TSRA BKN015 BKN027 BKN043 18/17 Q1007
2026-04-09 04:42:00,SPECI YMML 090442Z AUTO 01021KT 0700 R34/P2000N +TSRA SCT011 BKN020 BKN043 18/17 Q1007
2026-04-09 04:37:00,SPECI YMML 090437Z AUTO 36020KT 5000 TSRA SCT018 SCT039 BKN060 18/16 Q1008
2026-04-09 04:30:00,SPECI YMML 090430Z AUTO 01023KT 9999 TSRA FEW020 SCT048 BKN079 19/17 Q1008
2026-04-09 04:10:00,SPECI YMML 090410Z AUTO 01023KT 9999 -TSRA SCT095 BKN110 20/16 Q1008
2026-04-09 04:00:00,METAR YMML 090400Z AUTO 01023KT 9999 // BKN092 21/16 Q1007
2026-04-09 03:30:00,METAR YMML 090330Z AUTO 01023KT 9999 // FEW073 23/15 Q1007
2026-04-09 03:16:00,SPECI YMML 090316Z AUTO 01023G33KT 9999 // NCD 22/15 Q1007
2026-04-09 03:00:00,METAR YMML 090300Z AUTO 01023KT 9999 // NCD 23/15 Q1008
2026-04-09 02:30:00,METAR YMML 090230Z AUTO 36022G32KT 9999 // FEW125 23/15 Q1008
2026-04-09 02:00:00,METAR YMML 090200Z AUTO 36022G32KT 9999 // FEW079 SCT100 BKN125 23/15 Q1009
2026-04-09 01:40:00,SPECI YMML 090140Z AUTO 36026G36KT 9999 // FEW079 24/15 Q1009
2026-04-09 01:30:00,METAR YMML 090130Z AUTO 36026KT 9999 // NCD 23/15 Q1009
2026-04-09 01:16:00,SPECI YMML 090116Z AUTO 36024G36KT 9999 // NCD 23/14 Q1009
2026-04-09 01:00:00,METAR YMML 090100Z AUTO 36024KT 9999 // NCD 22/14 Q1009
2026-04-09 00:33:00,SPECI YMML 090033Z AUTO 01022G33KT 9999 // NCD 22/13 Q1010
2026-04-09 00:00:00,METAR YMML 090000Z AUTO 02026KT 9999 // NCD 20/12 Q1010
2026-04-08 23:30:00,METAR YMML 082330Z AUTO 01025KT 9999 // NCD 19/11 Q1010
2026-04-08 23:22:00,SPECI YMML 082322Z AUTO 01026G36KT 9999 // NCD 19/11 Q1010
2026-04-08 23:00:00,METAR YMML 082300Z AUTO 01028KT 9999 // NCD 18/10 Q1010
2026-04-08 22:41:00,SPECI YMML 082241Z AUTO 01027G38KT 9999 // NCD 18/09 Q1010
2026-04-08 22:30:00,METAR YMML 082230Z AUTO 01027KT 9999 // NCD 18/09 Q1010
2026-04-08 22:00:00,METAR YMML 082200Z AUTO 01024G34KT 9999 // NCD 17/10 Q1010
2026-04-08 21:30:00,METAR YMML 082130Z AUTO 01024KT 9999 // NCD 16/10 Q1010
2026-04-08 21:00:00,METAR YMML 082100Z AUTO 01024KT 9999 // NCD 16/10 Q1010
2026-04-08 20:30:00,METAR YMML 082030Z AUTO 01025KT 9999 // BKN115 15/10 Q1010
2026-04-08 20:00:00,METAR YMML 082000Z AUTO 01024KT 9999 // NCD 16/10 Q1010
2026-04-08 19:30:00,METAR YMML 081930Z AUTO 01025KT 9999 -SHRA FEW070 BKN100 OVC125 16/10 Q1010
2026-04-08 19:06:00,SPECI YMML 081906Z AUTO 36021G31KT 9999 -RA FEW073 SCT082 OVC105 18/08 Q1011
2026-04-08 19:00:00,METAR YMML 081900Z AUTO 36018KT 9999 // SCT073 BKN083 OVC110 18/08 Q1011
2026-04-08 18:30:00,METAR YMML 081830Z AUTO 36016KT 9999 // SCT071 BKN087 OVC110 18/08 Q1011
2026-04-08 18:00:00,METAR YMML 081800Z AUTO 36018KT 9999 // BKN100 OVC120 18/07 Q1010
2026-04-08 17:30:00,METAR YMML 081730Z AUTO 36020KT 9999 // SCT120 17/08 Q1010
2026-04-08 17:20:00,SPECI YMML 081720Z AUTO 36018KT 9999 // BKN120 17/09 Q1010
2026-04-08 17:00:00,METAR YMML 081700Z AUTO 01010KT 9999 // NCD 16/09 Q1011
2026-04-08 16:30:00,METAR YMML 081630Z AUTO 01011KT 9999 // NCD 16/09 Q1011
2026-04-08 16:00:00,METAR YMML 081600Z AUTO 03015KT 9999 // NCD 16/09 Q1012
2026-04-08 15:30:00,METAR YMML 081530Z AUTO 02008KT 9999 // NCD 15/09 Q1012
2026-04-08 15:00:00,METAR YMML 081500Z AUTO 01013KT 9999 // FEW046 BKN100 16/08 Q1013
2026-04-08 14:30:00,METAR YMML 081430Z AUTO 01013KT 9999 // FEW060 BKN110 16/09 Q1013
2026-04-08 14:16:00,SPECI YMML 081416Z AUTO 01016G26KT 9999 // BKN060 BKN120 17/09 Q1013
2026-04-08 14:00:00,METAR YMML 081400Z AUTO 01014KT 9999 // SCT064 BKN073 OVC120 17/09 Q1013
2026-04-08 13:30:00,METAR YMML 081330Z AUTO 36013KT 9999 // FEW053 BKN064 OVC073 17/10 Q1014
2026-04-08 13:00:00,METAR YMML 081300Z AUTO 35012KT 9999 // OVC053 17/10 Q1014
2026-04-08 12:30:00,METAR YMML 081230Z AUTO 01010KT 9999 // OVC053 17/09 Q1014
2026-04-08 12:00:00,METAR YMML 081200Z AUTO 01014KT 9999 // SCT053 BKN067 OVC086 17/08 Q1014
2026-04-08 11:32:00,SPECI YMML 081132Z AUTO 01016G26KT 9999 // BKN067 OVC086 17/07 Q1014
2026-04-08 11:00:00,METAR YMML 081100Z AUTO 01014KT 9999 // OVC077 18/07 Q1014
2026-04-08 10:30:00,METAR YMML 081030Z AUTO 36011KT 9999 // FEW070 SCT086 17/07 Q1014
2026-04-08 10:00:00,METAR YMML 081000Z AUTO 36011KT 9999 // SCT100 17/06 Q1014
2026-04-08 09:30:00,METAR YMML 080930Z AUTO 35011KT 9999 // BKN069 BKN080 OVC100 18/06 Q1014
2026-04-08 09:00:00,METAR YMML 080900Z AUTO 36008KT 9999 // OVC071 18/06 Q1014
2026-04-08 08:30:00,METAR YMML 080830Z AUTO 34007KT 9999 // BKN073 OVC100 19/07 Q1014
2026-04-08 08:00:00,METAR YMML 080800Z AUTO 36010KT 9999 // OVC100 19/07 Q1014
2026-04-08 07:30:00,METAR YMML 080730Z AUTO 01011KT 9999 // OVC110 19/07 Q1014
2026-04-08 07:00:00,METAR YMML 080700Z AUTO 01012KT 9999 // FEW110 20/07 Q1014
2026-04-08 06:30:00,METAR YMML 080630Z AUTO 04009KT 9999 // NCD 21/07 Q1014
2026-04-08 06:00:00,METAR YMML 080600Z AUTO 06002KT 9999 // NCD 20/09 Q1014
2026-04-08 05:30:00,METAR YMML 080530Z AUTO 04003KT 9999 // NCD 20/08 Q1014
2026-04-08 05:00:00,METAR YMML 080500Z AUTO 09005KT 050V130 9999 // NCD 20/08 Q1014
2026-04-08 04:30:00,METAR YMML 080430Z AUTO 05004KT 9999 // NCD 19/08 Q1014
2026-04-08 04:00:00,METAR YMML 080400Z AUTO 01005KT 9999 // NCD 19/08 Q1015
2026-04-08 03:30:00,METAR YMML 080330Z AUTO 10006KT 9999 // NCD 19/08 Q1015
2026-04-08 03:00:00,METAR YMML 080300Z AUTO 11005KT 030V170 9999 // NCD 18/07 Q1016
2026-04-08 02:30:00,METAR YMML 080230Z AUTO 09006KT 040V110 9999 // FEW038 18/07 Q1016
2026-04-08 02:00:00,METAR YMML 080200Z AUTO 03002KT 9999 // SCT040 18/08 Q1017
2026-04-08 01:30:00,METAR YMML 080130Z AUTO 12004KT 080V170 9999 // BKN038 18/09 Q1017
2026-04-08 01:00:00,METAR YMML 080100Z AUTO 13005KT 9999 // BKN033 BKN038 17/08 Q1017
2026-04-08 00:30:00,METAR YMML 080030Z AUTO 18003KT 9999 // FEW027 16/08 Q1017
2026-04-08 00:00:00,METAR YMML 080000Z AUTO 15005KT 9999 // NCD 15/09 Q1017
2026-04-07 23:30:00,METAR YMML 072330Z AUTO 24005KT 190V270 9999 // NCD 14/09 Q1017
2026-04-07 23:00:00,METAR YMML 072300Z AUTO 28006KT 9999 // NCD 13/09 Q1018
2026-04-07 22:30:00,METAR YMML 072230Z AUTO 01005KT 9999 // BKN044 12/08 Q1017
2026-04-07 22:00:00,METAR YMML 072200Z AUTO 02004KT 9999 // OVC044 11/08 Q1017
2026-04-07 21:30:00,METAR YMML 072130Z AUTO 36005KT 9999 // OVC042 10/08 Q1017
2026-04-07 21:00:00,METAR YMML 072100Z AUTO 01006KT 9999 // FEW034 OVC042 10/07 Q1017
2026-04-07 20:30:00,METAR YMML 072030Z AUTO 31006KT 9999 // FEW020 BKN028 OVC040 10/07 Q1016
2026-04-07 20:00:00,METAR YMML 072000Z AUTO 32007KT 9999 // BKN024 BKN029 OVC041 10/07 Q1016
2026-04-07 19:30:00,METAR YMML 071930Z AUTO 33005KT 9999 // FEW024 OVC033 10/07 Q1016
2026-04-07 19:00:00,METAR YMML 071900Z AUTO 32005KT 9999 // BKN039 09/07 Q1016
2026-04-07 18:30:00,METAR YMML 071830Z AUTO 31005KT 9999 // FEW037 09/07 Q1016
2026-04-07 18:00:00,METAR YMML 071800Z AUTO 01006KT 9999 // SCT038 09/07 Q1016
2026-04-07 17:30:00,METAR YMML 071730Z AUTO 05003KT 9999 // FEW038 08/07 Q1015
2026-04-07 17:00:00,METAR YMML 071700Z AUTO 27004KT 9999 // NCD 10/07 Q1016
2026-04-07 16:30:00,METAR YMML 071630Z AUTO 28003KT 9999 // SCT043 11/08 Q1016
2026-04-07 16:00:00,METAR YMML 071600Z AUTO 28005KT 9999 // SCT045 10/09 Q1016
2026-04-07 15:30:00,METAR YMML 071530Z AUTO 28006KT 9999 // FEW044 10/08 Q1016
2026-04-07 15:00:00,METAR YMML 071500Z AUTO 27005KT 9999 // BKN042 11/08 Q1016
2026-04-07 14:30:00,METAR YMML 071430Z AUTO 27005KT 9999 // BKN044 OVC053 12/09 Q1016
2026-04-07 14:00:00,METAR YMML 071400Z AUTO 27005KT 9999 // OVC040 12/09 Q1017
2026-04-07 13:30:00,METAR YMML 071330Z AUTO 27004KT 9999 // OVC040 13/10 Q1017
2026-04-07 13:00:00,METAR YMML 071300Z AUTO 25007KT 9999 // BKN040 OVC055 13/09 Q1017
2026-04-07 12:30:00,METAR YMML 071230Z AUTO 25008KT 9999 // SCT035 BKN046 OVC055 13/10 Q1017
2026-04-07 12:00:00,METAR YMML 071200Z AUTO 25008KT 9999 // SCT021 OVC035 13/11 Q1017
2026-04-07 11:30:00,METAR YMML 071130Z AUTO 22006KT 9999 // OVC035 13/11 Q1017
2026-04-07 11:00:00,METAR YMML 071100Z AUTO 27005KT 9999 // OVC037 13/12 Q1016
2026-04-07 10:30:00,METAR YMML 071030Z AUTO 30004KT 9999 // FEW023 BKN029 OVC039 13/12 Q1016
2026-04-07 10:00:00,METAR YMML 071000Z AUTO 20004KT 170V230 9999 // BKN023 OVC029 13/12 Q1016
2026-04-07 09:30:00,SPECI YMML 070930Z AUTO 18006KT 9999 -SHRA FEW015 SCT024 OVC029 13/12 Q1016
2026-04-07 09:29:00,SPECI YMML 070929Z AUTO 19006KT 9999 -SHRA SCT015 SCT024 OVC029 13/12 Q1016
2026-04-07 09:05:00,SPECI YMML 070905Z AUTO 20008KT 4200 -SHRA BKN016 OVC021 13/12 Q1016
2026-04-07 09:00:00,SPECI YMML 070900Z AUTO 20009KT 4900 -SHRA BKN018 OVC021 13/12 Q1016
2026-04-07 08:45:00,SPECI YMML 070845Z AUTO 21009KT 6000 -SHRA OVC020 14/11 Q1016
2026-04-07 08:30:00,METAR YMML 070830Z AUTO 19009KT 9999 -SHRA OVC022 14/11 Q1015
2026-04-07 08:00:00,METAR YMML 070800Z AUTO 18010KT 9999 // OVC020 15/11 Q1015
2026-04-07 07:30:00,METAR YMML 070730Z AUTO 18011KT 9999 // OVC022 OVC025 16/11 Q1014
2026-04-07 07:00:00,METAR YMML 070700Z AUTO 19014KT 9999 // BKN019 OVC025 16/11 Q1014
2026-04-07 06:30:00,METAR YMML 070630Z AUTO 18015KT 9999 // OVC017 16/12 Q1014
2026-04-07 06:27:00,SPECI YMML 070627Z AUTO 18015KT 9999 // OVC017 16/12 Q1014
2026-04-07 06:00:00,METAR YMML 070600Z AUTO 18012KT 9999 // OVC015 16/13 Q1014
2026-04-07 05:30:00,METAR YMML 070530Z AUTO 18013KT 9999 // OVC015 17/13 Q1014
2026-04-07 05:00:00,METAR YMML 070500Z AUTO 18016KT 9999 // OVC013 17/13 Q1013
2026-04-07 04:45:00,SPECI YMML 070445Z AUTO 17017KT 9999 // BKN015 BKN023 BKN029 18/14 Q1013
2026-04-07 04:30:00,METAR YMML 070430Z AUTO 18016KT 9999 // SCT023 BKN029 BKN035 19/14 Q1013
2026-04-07 04:15:00,SPECI YMML 070415Z AUTO 18015KT 9999 // FEW019 BKN028 OVC036 18/14 Q1012
2026-04-07 04:00:00,METAR YMML 070400Z AUTO 17010KT 9999 // FEW030 BKN036 BKN047 20/14 Q1012
2026-04-07 03:30:00,METAR YMML 070330Z AUTO 26007KT 210V270 9999 // FEW028 SCT034 22/14 Q1012
2026-04-07 03:00:00,METAR YMML 070300Z AUTO 27007KT 230V330 9999 // SCT026 BKN031 OVC054 20/14 Q1013
2026-04-07 02:30:00,METAR YMML 070230Z AUTO 26007KT 9999 // SCT034 OVC046 19/13 Q1013
2026-04-07 02:00:00,METAR YMML 070200Z AUTO 23011KT 9999 // BKN032 BKN037 OVC045 18/13 Q1013
2026-04-07 01:30:00,METAR YMML 070130Z AUTO 23013KT 9999 // FEW027 SCT033 BKN039 18/13 Q1013
2026-04-07 01:00:00,METAR YMML 070100Z AUTO 24016KT 9999 -SHRA BKN025 OVC031 OVC037 18/13 Q1013
2026-04-07 00:30:00,METAR YMML 070030Z AUTO 26009KT 9999 // FEW032 SCT058 21/14 Q1013
2026-04-07 00:00:00,METAR YMML 070000Z AUTO 23011KT 9999 // SCT025 BKN029 BKN046 19/13 Q1013
2026-04-06 23:30:00,METAR YMML 062330Z AUTO 25010KT 9999 // BKN023 BKN033 20/14 Q1013
2026-04-06 23:00:00,METAR YMML 062300Z AUTO 26009KT 9999 // FEW021 BKN033 19/14 Q1013
2026-04-06 22:30:00,METAR YMML 062230Z AUTO 26009KT 9999 // FEW026 BKN031 OVC044 18/14 Q1013
2026-04-06 22:00:00,METAR YMML 062200Z AUTO 29008KT 9999 // BKN026 OVC057 18/14 Q1012
2026-04-06 21:30:00,METAR YMML 062130Z AUTO 35007KT 9999 // SCT058 17/15 Q1012
2026-04-06 21:00:00,METAR YMML 062100Z AUTO 01008KT 9999 // FEW049 BKN058 16/14 Q1011
2026-04-06 20:30:00,METAR YMML 062030Z AUTO 01008KT 9999 // SCT027 BKN062 16/15 Q1011
2026-04-06 20:00:00,METAR YMML 062000Z AUTO 01009KT 9999 // FEW060 15/14 Q1011
2026-04-06 19:30:00,METAR YMML 061930Z AUTO 01010KT 9999 // FEW029 16/14 Q1011
2026-04-06 19:00:00,METAR YMML 061900Z AUTO 01012KT 9999 // BKN058 16/14 Q1010
2026-04-06 18:30:00,METAR YMML 061830Z AUTO 36013KT 9999 // BKN058 17/15 Q1010
2026-04-06 18:00:00,METAR YMML 061800Z AUTO 01012KT 9999 // BKN035 OVC054 17/15 Q1010
2026-04-06 17:30:00,METAR YMML 061730Z AUTO 01014KT 9999 // FEW039 SCT052 17/14 Q1010
2026-04-06 17:00:00,METAR YMML 061700Z AUTO 01015KT 9999 // FEW041 17/14 Q1010
2026-04-06 16:30:00,METAR YMML 061630Z AUTO 01016KT 9999 // NCD 17/14 Q1010
2026-04-06 16:00:00,METAR YMML 061600Z AUTO 01017KT 9999 // FEW047 17/14 Q1011
2026-04-06 15:30:00,METAR YMML 061530Z AUTO 01018KT 9999 // SCT049 BKN086 17/14 Q1011
2026-04-06 15:00:00,METAR YMML 061500Z AUTO 01019KT 9999 // SCT086 18/14 Q1011
2026-04-06 14:30:00,METAR YMML 061430Z AUTO 36019KT 9999 // BKN051 BKN092 18/14 Q1011
2026-04-06 14:16:00,SPECI YMML 061416Z AUTO 36019G29KT 9999 // FEW055 BKN096 18/14 Q1011
2026-04-06 14:00:00,METAR YMML 061400Z AUTO 36019KT 9999 // OVC094 18/14 Q1011
2026-04-06 13:30:00,METAR YMML 061330Z AUTO 01018KT 9999 // FEW098 18/14 Q1011
2026-04-06 13:00:00,METAR YMML 061300Z AUTO 01018KT 9999 // NCD 18/14 Q1011
2026-04-06 12:30:00,METAR YMML 061230Z AUTO 01013KT 9999 // FEW067 SCT115 17/15 Q1012
2026-04-06 12:00:00,METAR YMML 061200Z AUTO 35009KT 300V360 9999 -RA FEW055 BKN072 OVC088 18/15 Q1012
2026-04-06 11:50:00,SPECI YMML 061150Z AUTO 31011KT 300V010 9999 -RA FEW032 SCT054 BKN069 18/15 Q1012
2026-04-06 11:41:00,SPECI YMML 061141Z AUTO 01020G30KT 9999 // SCT058 SCT067 BKN080 19/14 Q1012
2026-04-06 11:30:00,METAR YMML 061130Z AUTO 01020KT 9999 // OVC110 19/14 Q1011
2026-04-06 11:00:00,METAR YMML 061100Z AUTO 01019KT 9999 // OVC120 18/14 Q1011
2026-04-06 10:30:00,METAR YMML 061030Z AUTO 01018KT 9999 // NCD 18/14 Q1011
2026-04-06 10:12:00,SPECI YMML 061012Z AUTO 02017G28KT 9999 // NCD 18/14 Q1012
2026-04-06 10:00:00,METAR YMML 061000Z AUTO 02017KT 9999 // NCD 18/14 Q1012
2026-04-06 09:30:00,METAR YMML 060930Z AUTO 02015KT 9999 // NCD 18/14 Q1012
2026-04-06 09:00:00,METAR YMML 060900Z AUTO 03012KT 9999 // SCT120 19/14 Q1012
2026-04-06 08:30:00,METAR YMML 060830Z AUTO 02014KT 9999 // FEW120 19/14 Q1012
2026-04-06 08:00:00,METAR YMML 060800Z AUTO 02015KT 9999 // NCD 19/14 Q1012
2026-04-06 07:30:00,METAR YMML 060730Z AUTO 02014KT 9999 // BKN047 20/14 Q1012
2026-04-06 07:00:00,METAR YMML 060700Z AUTO 02013KT 9999 // BKN049 21/15 Q1013
2026-04-06 06:30:00,METAR YMML 060630Z AUTO 02015KT 9999 // NCD 22/14 Q1012
2026-04-06 06:00:00,METAR YMML 060600Z AUTO 02015KT 9999 // FEW041 BKN049 22/15 Q1013
2026-04-06 05:30:00,METAR YMML 060530Z AUTO 01015KT 9999 // FEW036 BKN046 BKN052 21/15 Q1013
2026-04-06 05:00:00,METAR YMML 060500Z AUTO 01015KT 9999 // BKN040 22/14 Q1013
2026-04-06 04:30:00,METAR YMML 060430Z AUTO 03016KT 9999 // SCT028 BKN040 22/15 Q1013
2026-04-06 04:00:00,METAR YMML 060400Z AUTO 01016KT 9999 // FEW028 BKN070 21/14 Q1014
2026-04-06 03:30:00,METAR YMML 060330Z AUTO 01018KT 9999 // SCT041 BKN072 OVC090 21/15 Q1014
2026-04-06 03:00:00,METAR YMML 060300Z AUTO 02017KT 9999 // SCT045 BKN054 BKN062 19/14 Q1015
2026-04-06 02:30:00,METAR YMML 060230Z AUTO 02018KT 9999 // BKN049 OVC056 18/14 Q1015
2026-04-06 02:00:00,METAR YMML 060200Z AUTO 03017KT 9999 // OVC049 17/14 Q1016
2026-04-06 01:32:00,SPECI YMML 060132Z AUTO 03018KT 9999 -SHRA FEW044 BKN054 OVC063 17/15 Q1016
2026-04-06 01:30:00,SPECI YMML 060130Z AUTO 03018KT 9999 -SHRA FEW044 BKN054 OVC063 16/15 Q1016
2026-04-06 01:14:00,SPECI YMML 060114Z AUTO 01019KT 6000 -SHRA SCT044 BKN056 OVC066 16/14 Q1016
2026-04-06 01:00:00,METAR YMML 060100Z AUTO 01017KT 9999 -SHRA SCT042 BKN052 OVC065 17/14 Q1017
2026-04-06 00:30:00,METAR YMML 060030Z AUTO 02017KT 9999 // FEW054 BKN065 OVC076 18/13 Q1017
2026-04-06 00:00:00,METAR YMML 060000Z AUTO 02015KT 9999 // BKN067 OVC092 18/14 Q1017
2026-04-05 23:30:00,METAR YMML 052330Z AUTO 03010KT 9999 // BKN070 OVC093 18/14 Q1017
2026-04-05 23:00:00,METAR YMML 052300Z AUTO 02008KT 9999 // FEW075 OVC091 OVC105 17/14 Q1017
2026-04-05 22:30:00,METAR YMML 052230Z AUTO 04006KT 9999 // BKN058 OVC093 16/14 Q1018
2026-04-05 22:00:00,METAR YMML 052200Z AUTO 04008KT 9999 // BKN060 BKN078 OVC094 15/14 Q1018
2026-04-05 21:30:00,METAR YMML 052130Z AUTO 05005KT 9999 -RA SCT075 OVC093 15/14 Q1018
2026-04-05 21:00:00,METAR YMML 052100Z AUTO 06006KT 9999 -RA BKN077 OVC091 15/14 Q1018
2026-04-05 20:30:00,METAR YMML 052030Z AUTO 03005KT 9999 -RA OVC087 15/14 Q1017
2026-04-05 20:00:00,METAR YMML 052000Z AUTO 00000KT 9999 -RA OVC093 15/14 Q1017
2026-04-05 19:30:00,METAR YMML 051930Z AUTO 00000KT 9999 -RA OVC097 OVC110 15/13 Q1017
2026-04-05 19:00:00,METAR YMML 051900Z AUTO 00000KT 9999 -RA OVC100 15/13 Q1017
2026-04-05 18:30:00,METAR YMML 051830Z AUTO 00000KT 9999 -DZ OVC100 15/13 Q1017
2026-04-05 18:00:00,METAR YMML 051800Z AUTO 00000KT 9999 -SHRA OVC099 15/13 Q1017
2026-04-05 17:30:00,METAR YMML 051730Z AUTO 00000KT 9999 -SHRA SCT065 SCT075 OVC087 16/13 Q1017
2026-04-05 17:25:00,SPECI YMML 051725Z AUTO 00000KT 9999 SHRA BKN065 OVC085 16/13 Q1017
2026-04-05 17:14:00,SPECI YMML 051714Z AUTO 00000KT 6000 SHRA BKN065 OVC088 16/12 Q1017
2026-04-05 17:00:00,METAR YMML 051700Z AUTO 00000KT 9999 -SHRA SCT065 BKN094 16/12 Q1017
2026-04-05 16:30:00,METAR YMML 051630Z AUTO 00000KT 9999 // SCT068 SCT088 16/12 Q1017
2026-04-05 16:00:00,METAR YMML 051600Z AUTO 02005KT 9999 // BKN070 16/12 Q1018
2026-04-05 15:00:00,METAR YMML 051500Z AUTO 03001KT 9999 // BKN065 OVC078 16/12 Q1018
2026-04-05 13:00:00,METAR YMML 051300Z AUTO 04005KT 9999 // BKN075 17/12 Q1019
2026-04-05 12:30:00,METAR YMML 051230Z AUTO 36001KT 9999 // BKN073 17/12 Q1019
2026-04-05 12:00:00,METAR YMML 051200Z AUTO 02004KT 9999 // OVC071 18/12 Q1019
2026-04-05 11:30:00,METAR YMML 051130Z AUTO 06005KT 9999 // BKN071 17/12 Q1019
2026-04-05 11:00:00,METAR YMML 051100Z AUTO 00000KT 9999 // NCD 17/11 Q1019
2026-04-05 10:30:00,METAR YMML 051030Z AUTO 01006KT 9999 // SCT067 18/12 Q1019
2026-04-05 10:00:00,METAR YMML 051000Z AUTO 02007KT 9999 // SCT074 19/12 Q1019
2026-04-05 09:30:00,METAR YMML 050930Z AUTO 03005KT 9999 // NCD 20/12 Q1020
2026-04-05 09:00:00,METAR YMML 050900Z AUTO 02005KT 9999 // NCD 20/11 Q1019
2026-04-05 08:30:00,METAR YMML 050830Z AUTO 03005KT 9999 // NCD 21/11 Q1019
2026-04-05 08:00:00,METAR YMML 050800Z AUTO 03006KT 9999 // SCT068 21/12 Q1019
2026-04-05 07:30:00,METAR YMML 050730Z AUTO 01009KT 9999 // NCD 23/12 Q1019
2026-04-05 07:00:00,METAR YMML 050700Z AUTO 01010KT 9999 // NCD 24/11 Q1019
2026-04-05 06:30:00,METAR YMML 050630Z AUTO 03008KT 9999 // SCT068 24/11 Q1019
2026-04-05 06:00:00,METAR YMML 050600Z AUTO 03009KT 9999 // SCT068 SCT076 25/12 Q1020
2026-04-05 05:30:00,METAR YMML 050530Z AUTO 02009KT 9999 // NCD 24/12 Q1020
2026-04-05 05:00:00,METAR YMML 050500Z AUTO 02011KT 9999 // NCD 24/12 Q1020
2026-04-05 04:30:00,METAR YMML 050430Z AUTO 01010KT 9999 // NCD 24/12 Q1020
2026-04-05 04:00:00,METAR YMML 050400Z AUTO 04010KT 9999 // NCD 24/12 Q1021
2026-04-05 03:30:00,METAR YMML 050330Z AUTO 01013KT 9999 // NCD 23/12 Q1021
2026-04-05 03:00:00,METAR YMML 050300Z AUTO 02013KT 9999 // NCD 23/11 Q1021
2026-04-05 02:30:00,METAR YMML 050230Z AUTO 02016KT 9999 // NCD 23/12 Q1022
2026-04-05 02:00:00,METAR YMML 050200Z AUTO 03015KT 9999 // NCD 23/11 Q1023
2026-04-05 01:30:00,METAR YMML 050130Z AUTO 02014KT 9999 // NCD 22/11 Q1023
2026-04-05 01:00:00,METAR YMML 050100Z AUTO 02016KT 9999 // NCD 21/11 Q1023
2026-04-05 00:30:00,METAR YMML 050030Z AUTO 01011KT 9999 // NCD 21/11 Q1024
2026-04-05 00:00:00,METAR YMML 050000Z AUTO 01010KT 9999 // NCD 19/11 Q1024
2026-04-04 23:30:00,METAR YMML 042330Z AUTO 13003KT 9999 // NCD 18/11 Q1025
2026-04-04 23:00:00,METAR YMML 042300Z AUTO 10004KT 9999 // NCD 16/10 Q1025
2026-04-04 22:30:00,METAR YMML 042230Z AUTO 06005KT 9999 // NCD 15/10 Q1025
2026-04-04 22:00:00,METAR YMML 042200Z AUTO 03005KT 9999 // NCD 12/09 Q1025
2026-04-04 21:30:00,METAR YMML 042130Z AUTO 02006KT 9999 // NCD 10/08 Q1024
2026-04-04 21:00:00,METAR YMML 042100Z AUTO 02008KT 9999 // NCD 09/07 Q1024
2026-04-04 20:30:00,METAR YMML 042030Z AUTO 01007KT 9999 // NCD 08/06 Q1024
2026-04-04 20:00:00,METAR YMML 042000Z AUTO 01008KT 9999 // NCD 08/06 Q1024
2026-04-04 19:30:00,METAR YMML 041930Z AUTO 01008KT 9999 // NCD 08/07 Q1024
2026-04-04 19:00:00,METAR YMML 041900Z AUTO 01008KT 9999 // NCD 09/07 Q1023
2026-04-04 18:30:00,METAR YMML 041830Z AUTO 01008KT 9999 // NCD 09/07 Q1023
2026-04-04 18:00:00,METAR YMML 041800Z AUTO 01008KT 9999 // NCD 09/07 Q1023
2026-04-04 17:30:00,METAR YMML 041730Z AUTO 36008KT 9999 // NCD 09/07 Q1023
2026-04-04 17:00:00,METAR YMML 041700Z AUTO 01008KT 9999 // NCD 09/07 Q1023
2026-04-04 16:30:00,METAR YMML 041630Z AUTO 36006KT 9999 // NCD 09/07 Q1023
2026-04-04 16:00:00,METAR YMML 041600Z AUTO 36006KT 9999 // NCD 09/07 Q1024
2026-04-04 15:30:00,METAR YMML 041530Z AUTO 01006KT 9999 // NCD 09/07 Q1024
2026-04-04 15:00:00,METAR YMML 041500Z AUTO 35006KT 9999 // NCD 09/07 Q1024
2026-04-04 14:30:00,METAR YMML 041430Z AUTO 30007KT 9999 // NCD 09/08 Q1024
2026-04-04 14:00:00,METAR YMML 041400Z AUTO 31006KT 9999 // NCD 10/08 Q1024
2026-04-04 13:30:00,METAR YMML 041330Z AUTO 30007KT 9999 // NCD 10/08 Q1025
2026-04-04 13:00:00,METAR YMML 041300Z AUTO 29007KT 9999 // NCD 11/08 Q1025
2026-04-04 12:30:00,METAR YMML 041230Z AUTO 29008KT 9999 // NCD 11/08 Q1025
2026-04-04 12:00:00,METAR YMML 041200Z AUTO 29009KT 9999 // NCD 11/08 Q1025
2026-04-04 11:30:00,METAR YMML 041130Z AUTO 30008KT 9999 // NCD 10/08 Q1025
2026-04-04 11:00:00,METAR YMML 041100Z AUTO 29008KT 9999 // NCD 11/08 Q1025
2026-04-04 10:30:00,METAR YMML 041030Z AUTO 28008KT 9999 // NCD 12/09 Q1025
2026-04-04 10:00:00,METAR YMML 041000Z AUTO 25007KT 9999 // NCD 13/09 Q1025
2026-04-04 09:30:00,METAR YMML 040930Z AUTO 23007KT 9999 // NCD 13/09 Q1025
2026-04-04 09:00:00,METAR YMML 040900Z AUTO 22007KT 9999 // NCD 13/09 Q1025
2026-04-04 08:30:00,METAR YMML 040830Z AUTO 21008KT 9999 // NCD 14/09 Q1025
2026-04-04 08:00:00,METAR YMML 040800Z AUTO 20010KT 9999 // NCD 15/09 Q1025
2026-04-04 07:30:00,METAR YMML 040730Z AUTO 20013KT 9999 // NCD 16/09 Q1025
2026-04-04 07:00:00,METAR YMML 040700Z AUTO 19014KT 9999 // NCD 17/09 Q1025
2026-04-04 06:30:00,METAR YMML 040630Z AUTO 19015KT 9999 // NCD 17/08 Q1025
2026-04-04 06:00:00,METAR YMML 040600Z AUTO 19015KT 9999 // NCD 18/07 Q1025
2026-04-04 05:30:00,METAR YMML 040530Z AUTO 19015KT 9999 // NCD 19/07 Q1025
2026-04-04 05:00:00,METAR YMML 040500Z AUTO 18012KT 9999 // NCD 19/07 Q1025
2026-04-04 04:30:00,METAR YMML 040430Z AUTO 19013KT 9999 // NCD 19/07 Q1025
2026-04-04 04:00:00,METAR YMML 040400Z AUTO 18014KT 9999 // NCD 18/06 Q1025
2026-04-04 03:30:00,METAR YMML 040330Z AUTO 17013KT 9999 // NCD 19/06 Q1026
2026-04-04 03:00:00,METAR YMML 040300Z AUTO 17012KT 9999 // NCD 19/06 Q1026
2026-04-04 02:30:00,METAR YMML 040230Z AUTO 15016KT 9999 // NCD 18/05 Q1027
2026-04-04 02:00:00,METAR YMML 040200Z AUTO 14014KT 9999 // NCD 17/05 Q1027
2026-04-04 01:30:00,METAR YMML 040130Z AUTO 15013KT 9999 // NCD 17/05 Q1028
2026-04-04 01:00:00,METAR YMML 040100Z AUTO 16015KT 9999 // NCD 16/05 Q1028
2026-04-04 00:30:00,METAR YMML 040030Z AUTO 16015KT 9999 // NCD 16/06 Q1028
2026-04-04 00:00:00,METAR YMML 040000Z AUTO 14014KT 9999 // NCD 15/06 Q1029
2026-04-03 23:30:00,METAR YMML 032330Z AUTO 16017KT 9999 // NCD 15/05 Q1029
2026-04-03 23:00:00,METAR YMML 032300Z AUTO 15015KT 9999 // NCD 14/05 Q1029
2026-04-03 22:30:00,METAR YMML 032230Z AUTO 16010KT 9999 // NCD 13/06 Q1029
2026-04-03 22:00:00,METAR YMML 032200Z AUTO 19005KT 9999 // NCD 11/06 Q1029
2026-04-03 21:30:00,METAR YMML 032130Z AUTO 23004KT 9999 // NCD 09/05 Q1029
2026-04-03 21:00:00,METAR YMML 032100Z AUTO 22003KT 9999 // NCD 08/04 Q1028
2026-04-03 20:30:00,METAR YMML 032030Z AUTO 22004KT 9999 // NCD 08/04 Q1028
2026-04-03 20:00:00,METAR YMML 032000Z AUTO 23005KT 9999 // NCD 08/04 Q1028
2026-04-03 19:30:00,METAR YMML 031930Z AUTO 22004KT 9999 // NCD 08/04 Q1028
2026-04-03 19:00:00,METAR YMML 031900Z AUTO 19003KT 9999 // NCD 08/04 Q1028
2026-04-03 18:30:00,METAR YMML 031830Z AUTO 17004KT 9999 // NCD 10/05 Q1027
2026-04-03 18:00:00,METAR YMML 031800Z AUTO 18006KT 9999 // NCD 10/05 Q1028
2026-04-03 17:30:00,METAR YMML 031730Z AUTO 18007KT 9999 // NCD 11/05 Q1028
2026-04-03 17:00:00,METAR YMML 031700Z AUTO 18008KT 9999 // NCD 10/05 Q1028
2026-04-03 16:30:00,METAR YMML 031630Z AUTO 19006KT 9999 // NCD 10/05 Q1028
2026-04-03 16:00:00,METAR YMML 031600Z AUTO 16007KT 9999 // NCD 10/05 Q1028
2026-04-03 15:30:00,METAR YMML 031530Z AUTO 15008KT 9999 // NCD 11/05 Q1028
2026-04-03 15:00:00,METAR YMML 031500Z AUTO 15008KT 9999 // NCD 12/04 Q1028
2026-04-03 14:30:00,METAR YMML 031430Z AUTO 16008KT 9999 // NCD 12/05 Q1028
2026-04-03 14:00:00,METAR YMML 031400Z AUTO 15010KT 9999 // SCT044 12/06 Q1028
2026-04-03 13:30:00,METAR YMML 031330Z AUTO 14010KT 9999 // OVC044 13/06 Q1028
2026-04-03 13:00:00,METAR YMML 031300Z AUTO 14010KT 9999 // OVC044 13/06 Q1028
2026-04-03 12:30:00,METAR YMML 031230Z AUTO 14010KT 9999 // BKN044 13/06 Q1028
2026-04-03 12:00:00,METAR YMML 031200Z AUTO 14013KT 9999 // SCT046 13/06 Q1028
2026-04-03 11:30:00,METAR YMML 031130Z AUTO 15012KT 9999 // SCT046 13/06 Q1028
2026-04-03 11:00:00,METAR YMML 031100Z AUTO 15010KT 9999 // NCD 13/06 Q1028
2026-04-03 10:30:00,METAR YMML 031030Z AUTO 16012KT 9999 // BKN045 13/06 Q1028
2026-04-03 10:00:00,METAR YMML 031000Z AUTO 15012KT 9999 // BKN047 14/06 Q1028
2026-04-03 09:30:00,METAR YMML 030930Z AUTO 18008KT 9999 // SCT049 13/05 Q1028
2026-04-03 09:00:00,METAR YMML 030900Z AUTO 18008KT 9999 // SCT053 13/05 Q1028
2026-04-03 08:30:00,METAR YMML 030830Z AUTO 18009KT 9999 // BKN053 14/05 Q1028
2026-04-03 08:00:00,METAR YMML 030800Z AUTO 18011KT 9999 // BKN053 14/06 Q1027
2026-04-03 07:30:00,METAR YMML 030730Z AUTO 18012KT 9999 // OVC053 15/06 Q1028
2026-04-03 07:00:00,METAR YMML 030700Z AUTO 18013KT 9999 // OVC053 15/07 Q1027
2026-04-03 06:30:00,METAR YMML 030630Z AUTO 18014KT 9999 // OVC053 15/07 Q1027
2026-04-03 06:00:00,METAR YMML 030600Z AUTO 19016KT 9999 // BKN053 16/06 Q1027
2026-04-03 05:30:00,METAR YMML 030530Z AUTO 18016KT 9999 // BKN053 16/07 Q1027
2026-04-03 05:00:00,METAR YMML 030500Z AUTO 18015KT 9999 // OVC049 16/07 Q1027
2026-04-03 04:30:00,METAR YMML 030430Z AUTO 18015KT 9999 // SCT045 OVC052 17/07 Q1027
2026-04-03 04:00:00,METAR YMML 030400Z AUTO 18013KT 9999 // FEW045 BKN052 18/07 Q1027
2026-04-03 03:30:00,METAR YMML 030330Z AUTO 18011KT 9999 // FEW039 BKN051 18/07 Q1027
2026-04-03 03:00:00,METAR YMML 030300Z AUTO 17013KT 9999 // FEW037 BKN047 OVC052 17/09 Q1027
2026-04-03 02:30:00,METAR YMML 030230Z AUTO 17013KT 9999 // BKN038 OVC050 17/08 Q1027
2026-04-03 02:00:00,METAR YMML 030200Z AUTO 17012KT 9999 // OVC036 16/09 Q1027
2026-04-03 01:30:00,METAR YMML 030130Z AUTO 17014KT 9999 // OVC032 16/09 Q1027
2026-04-03 01:00:00,METAR YMML 030100Z AUTO 19013KT 9999 // OVC032 OVC038 15/10 Q1027
2026-04-03 00:30:00,METAR YMML 030030Z AUTO 18011KT 9999 // OVC034 16/09 Q1027
2026-04-03 00:00:00,METAR YMML 030000Z AUTO 20011KT 9999 // SCT026 OVC032 15/09 Q1028
2026-04-02 23:30:00,METAR YMML 022330Z AUTO 21007KT 9999 // BKN028 OVC033 15/10 Q1027
2026-04-02 23:00:00,METAR YMML 022300Z AUTO 19011KT 9999 // OVC030 15/09 Q1028
2026-04-02 22:30:00,METAR YMML 022230Z AUTO 22009KT 9999 // OVC028 14/11 Q1028
2026-04-02 22:00:00,METAR YMML 022200Z AUTO 20009KT 9999 // FEW020 OVC026 14/12 Q1027
2026-04-02 21:41:00,SPECI YMML 022141Z AUTO 19010KT 9999 // FEW006 BKN018 OVC026 14/11 Q1027
2026-04-02 21:30:00,METAR YMML 022130Z AUTO 18010KT 9999 // SCT005 BKN012 BKN018 13/13 Q1027
2026-04-02 21:28:00,SPECI YMML 022128Z AUTO 19010KT 9999 // SCT005 BKN012 BKN017 13/13 Q1027
2026-04-02 21:00:00,SPECI YMML 022100Z AUTO 22010KT 5000 BR BKN006 BKN011 BKN019 14/13 Q1026
2026-04-02 20:56:00,SPECI YMML 022056Z AUTO 23010KT 6000 // BKN006 BKN011 BKN019 13/13 Q1026
2026-04-02 20:51:00,SPECI YMML 022051Z AUTO 23009KT 9999 // SCT007 BKN013 BKN019 13/13 Q1026
2026-04-02 20:43:00,SPECI YMML 022043Z AUTO 23008KT 9999 // SCT006 SCT013 BKN019 13/13 Q1026
2026-04-02 20:37:00,SPECI YMML 022037Z AUTO 22008KT 9999 // SCT005 SCT019 BKN026 13/13 Q1026
2026-04-02 20:30:00,SPECI YMML 022030Z AUTO 21009KT 9999 -SHRA BKN005 BKN021 BKN026 13/13 Q1026
2026-04-02 20:00:00,SPECI YMML 022000Z AUTO 22009KT 4100 -SHRA OVC004 13/13 Q1025
2026-04-02 19:30:00,SPECI YMML 021930Z AUTO 25006KT 2400 -SHRA BKN005 OVC011 13/13 Q1025
2026-04-02 19:19:00,SPECI YMML 021919Z AUTO 26006KT 6000 -SHRA BKN007 OVC011 13/12 Q1025
2026-04-02 19:15:00,SPECI YMML 021915Z AUTO 25006KT 9999 // OVC009 13/12 Q1025
2026-04-02 19:00:00,SPECI YMML 021900Z AUTO 25008KT 2900 -SHRA BKN009 OVC012 13/12 Q1025
2026-04-02 18:49:00,SPECI YMML 021849Z AUTO 24008KT 6000 -RA OVC012 14/12 Q1025
2026-04-02 18:30:00,METAR YMML 021830Z AUTO 27006KT 9999 // OVC014 OVC029 14/11 Q1025
2026-04-02 18:00:00,METAR YMML 021800Z AUTO 28007KT 9999 // OVC016 13/11 Q1024
2026-04-02 17:51:00,SPECI YMML 021751Z AUTO 29007KT 9999 // OVC016 13/11 Q1024
2026-04-02 17:30:00,METAR YMML 021730Z AUTO 26005KT 9999 // OVC018 13/11 Q1024
2026-04-02 17:00:00,METAR YMML 021700Z AUTO 30006KT 9999 // SCT018 12/10 Q1024
2026-04-02 16:30:00,METAR YMML 021630Z AUTO 29006KT 9999 // FEW018 12/10 Q1024
2026-04-02 16:00:00,METAR YMML 021600Z AUTO 29005KT 9999 // NCD 12/10 Q1024
2026-04-02 15:30:00,METAR YMML 021530Z AUTO 00000KT 9999 // NCD 13/11 Q1024
2026-04-02 15:00:00,METAR YMML 021500Z AUTO 23002KT 9999 // NCD 13/10 Q1025
2026-04-02 14:30:00,METAR YMML 021430Z AUTO 27008KT 9999 // NCD 13/11 Q1025
2026-04-02 14:00:00,METAR YMML 021400Z AUTO 27009KT 9999 // NCD 13/12 Q1025
2026-04-02 13:30:00,METAR YMML 021330Z AUTO 28008KT 9999 // NCD 13/12 Q1025
2026-04-02 13:00:00,METAR YMML 021300Z AUTO 28007KT 9999 // NCD 13/12 Q1025
2026-04-02 12:30:00,METAR YMML 021230Z AUTO 29006KT 9999 // BKN039 14/12 Q1025
2026-04-02 12:00:00,METAR YMML 021200Z AUTO 26005KT 9999 // BKN037 14/13 Q1025
2026-04-02 11:30:00,METAR YMML 021130Z AUTO 23004KT 9999 // NCD 14/12 Q1024
2026-04-02 11:00:00,METAR YMML 021100Z AUTO 19005KT 9999 // NCD 15/13 Q1024
2026-04-02 10:30:00,METAR YMML 021030Z AUTO 23004KT 9999 // NCD 16/13 Q1023
2026-04-02 10:00:00,METAR YMML 021000Z AUTO 20007KT 9999 // NCD 16/13 Q1023
2026-04-02 09:30:00,METAR YMML 020930Z AUTO 19008KT 9999 // NCD 17/13 Q1023
2026-04-02 09:00:00,METAR YMML 020900Z AUTO 18009KT 9999 // NCD 18/11 Q1022
2026-04-02 08:30:00,METAR YMML 020830Z AUTO 19006KT 9999 // NCD 19/10 Q1022
2026-04-02 08:00:00,METAR YMML 020800Z AUTO 18005KT 9999 // NCD 20/10 Q1021
2026-04-02 07:30:00,METAR YMML 020730Z AUTO 18007KT 9999 // NCD 21/10 Q1021
2026-04-02 07:00:00,METAR YMML 020700Z AUTO 17011KT 9999 // NCD 22/11 Q1021
2026-04-02 06:30:00,METAR YMML 020630Z AUTO 18009KT 9999 // NCD 23/11 Q1020
2026-04-02 06:00:00,METAR YMML 020600Z AUTO 18009KT 9999 // NCD 23/11 Q1020
2026-04-02 05:30:00,METAR YMML 020530Z AUTO 18011KT 9999 // NCD 22/11 Q1020
2026-04-02 05:00:00,METAR YMML 020500Z AUTO 20005KT 9999 // NCD 24/11 Q1020
2026-04-02 04:30:00,METAR YMML 020430Z AUTO 27011KT 9999 // NCD 25/11 Q1020
2026-04-02 04:00:00,METAR YMML 020400Z AUTO 28006KT 240V320 9999 // NCD 25/09 Q1020
2026-04-02 03:30:00,METAR YMML 020330Z AUTO 23007KT 200V270 9999 // NCD 24/10 Q1021
2026-04-02 03:00:00,METAR YMML 020300Z AUTO 25006KT 210V280 9999 // FEW059 23/09 Q1021
2026-04-02 02:30:00,METAR YMML 020230Z AUTO 26010KT 250V310 9999 // NCD 23/09 Q1022
2026-04-02 02:00:00,METAR YMML 020200Z AUTO 23005KT 190V250 9999 // NCD 22/09 Q1022
2026-04-02 01:30:00,METAR YMML 020130Z AUTO 24003KT 9999 // NCD 23/11 Q1022
2026-04-02 01:00:00,METAR YMML 020100Z AUTO 36002KT 9999 // NCD 22/12 Q1023
2026-04-02 00:30:00,METAR YMML 020030Z AUTO 29004KT 250V330 9999 // NCD 20/12 Q1023
2026-04-02 00:00:00,METAR YMML 020000Z AUTO 31004KT 280V360 9999 // NCD 19/12 Q1023
2026-04-01 23:30:00,METAR YMML 012330Z AUTO 25006KT 9999 // NCD 18/14 Q1023
2026-04-01 23:00:00,METAR YMML 012300Z AUTO 27006KT 9999 // NCD 17/14 Q1023
2026-04-01 22:30:00,METAR YMML 012230Z AUTO 29007KT 9999 // NCD 16/13 Q1023
2026-04-01 22:00:00,METAR YMML 012200Z AUTO 31004KT 9999 // NCD 15/13 Q1023
2026-04-01 21:30:00,METAR YMML 012130Z AUTO 01005KT 9999 // NCD 13/12 Q1022
2026-04-01 21:00:00,METAR YMML 012100Z AUTO 01005KT 9999 // NCD 13/11 Q1022
2026-04-01 20:30:00,METAR YMML 012030Z AUTO 35004KT 9999 // NCD 12/11 Q1022
2026-04-01 20:00:00,METAR YMML 012000Z AUTO 35004KT 9999 // NCD 11/10 Q1022
2026-04-01 19:30:00,METAR YMML 011930Z AUTO 36005KT 9999 // NCD 11/10 Q1022
2026-04-01 19:00:00,METAR YMML 011900Z AUTO 36005KT 9999 // NCD 11/11 Q1022
2026-04-01 18:30:00,METAR YMML 011830Z AUTO 36006KT 9999 // NCD 12/11 Q1021
2026-04-01 18:00:00,METAR YMML 011800Z AUTO 35003KT 9999 // NCD 11/11 Q1021
2026-04-01 17:30:00,METAR YMML 011730Z AUTO 02008KT 9999 // NCD 12/11 Q1021
2026-04-01 17:00:00,METAR YMML 011700Z AUTO 01005KT 9999 // NCD 12/11 Q1021
2026-04-01 16:30:00,METAR YMML 011630Z AUTO 02005KT 9999 // NCD 12/11 Q1022
2026-04-01 16:00:00,METAR YMML 011600Z AUTO 02005KT 9999 // NCD 12/11 Q1022
2026-04-01 15:30:00,METAR YMML 011530Z AUTO 00000KT 9999 // NCD 13/12 Q1022
2026-04-01 15:00:00,METAR YMML 011500Z AUTO 01003KT 9999 // NCD 13/12 Q1022
2026-04-01 14:30:00,METAR YMML 011430Z AUTO 02001KT 9999 // NCD 13/12 Q1022
2026-04-01 14:00:00,METAR YMML 011400Z AUTO 00000KT 9999 // FEW011 14/13 Q1022
2026-04-01 13:30:00,METAR YMML 011330Z AUTO 02001KT 9999 // NCD 14/13 Q1022
2026-04-01 13:00:00,METAR YMML 011300Z AUTO 05004KT 9999 // FEW011 15/14 Q1022
2026-04-01 12:30:00,METAR YMML 011230Z AUTO 00000KT 9999 // NCD 15/14 Q1023
2026-04-01 12:00:00,METAR YMML 011200Z AUTO 00000KT 9999 // NCD 15/13 Q1023
2026-04-01 11:30:00,METAR YMML 011130Z AUTO 19004KT 9999 // SCT010 SCT015 BKN037 16/14 Q1023
2026-04-01 11:00:00,METAR YMML 011100Z AUTO 21003KT 9999 // FEW013 SCT017 BKN034 17/14 Q1023
2026-04-01 10:30:00,METAR YMML 011030Z AUTO 21003KT 9999 // FEW017 OVC032 17/15 Q1022
2026-04-01 10:00:00,METAR YMML 011000Z AUTO 19005KT 9999 // FEW017 OVC032 17/15 Q1022
2026-04-01 09:30:00,METAR YMML 010930Z AUTO 19003KT 9999 // BKN028 OVC105 17/15 Q1022
2026-04-01 09:15:00,SPECI YMML 010915Z AUTO 18005KT 9999 // SCT017 BKN028 OVC115 18/15 Q1022
2026-04-01 09:03:00,SPECI YMML 010903Z AUTO 20005KT 9999 // BKN017 OVC115 18/15 Q1022
2026-04-01 09:02:00,SPECI YMML 010902Z AUTO 20005KT 9999 // BKN015 BKN019 OVC115 18/15 Q1021
2026-04-01 09:00:00,SPECI YMML 010900Z AUTO 20005KT 9999 // BKN017 OVC105 18/15 Q1021
2026-04-01 08:43:00,SPECI YMML 010843Z AUTO 20004KT 9999 // BKN015 BKN070 BKN078 18/15 Q1021
2026-04-01 08:30:00,METAR YMML 010830Z AUTO 20005KT 9999 // SCT076 BKN125 18/15 Q1021
2026-04-01 08:06:00,SPECI YMML 010806Z AUTO 21007KT 9999 -SHRA FEW018 BKN100 OVC125 18/15 Q1020
2026-04-01 08:00:00,SPECI YMML 010800Z AUTO 20007KT 9999 -SHRA SCT016 SCT075 OVC100 18/15 Q1020
2026-04-01 07:30:00,SPECI YMML 010730Z AUTO 19012KT 9999 -SHRA BKN015 OVC098 18/16 Q1020
2026-04-01 07:25:00,SPECI YMML 010725Z AUTO 19012KT 9999 -SHRA BKN015 OVC098 19/16 Q1020
2026-04-01 07:00:00,METAR YMML 010700Z AUTO 17010KT 9999 // OVC100 19/15 Q1020
2026-04-01 06:30:00,METAR YMML 010630Z AUTO 18007KT 9999 // OVC110 21/15 Q1019
2026-04-01 06:00:00,METAR YMML 010600Z AUTO 17008KT 9999 -SHRA FEW037 BKN100 OVC120 21/15 Q1019
2026-04-01 05:30:00,METAR YMML 010530Z AUTO 21011KT 9999 // SCT096 BKN110 22/14 Q1019
2026-04-01 05:00:00,METAR YMML 010500Z AUTO 19012KT 9999 // NCD 23/12 Q1018
2026-04-01 04:30:00,METAR YMML 010430Z AUTO 20011KT 9999 // SCT110 25/11 Q1018
2026-04-01 04:00:00,METAR YMML 010400Z AUTO 23011KT 9999 // NCD 26/11 Q1018
2026-04-01 03:30:00,METAR YMML 010330Z AUTO 25010KT 9999 // NCD 26/09 Q1018
2026-04-01 03:00:00,METAR YMML 010300Z AUTO 29008KT 9999 // NCD 27/10 Q1018
2026-04-01 02:30:00,METAR YMML 010230Z AUTO 35009KT 9999 // NCD 26/12 Q1018
2026-04-01 02:00:00,METAR YMML 010200Z AUTO 01013KT 9999 // NCD 27/12 Q1018
2026-04-01 01:30:00,METAR YMML 010130Z AUTO 02017KT 9999 // NCD 26/11 Q1017
2026-04-01 01:00:00,METAR YMML 010100Z AUTO 02017KT 9999 // NCD 25/10 Q1017
2026-04-01 00:30:00,METAR YMML 010030Z AUTO 02017KT 9999 // NCD 24/11 Q1018
2026-04-01 00:00:00,METAR YMML 010000Z AUTO 02017KT 9999 // NCD 24/11 Q1018
2026-03-31 23:30:00,METAR YMML 312330Z AUTO 01019KT 9999 // NCD 23/10 Q1018
2026-03-31 23:00:00,METAR YMML 312300Z AUTO 01020KT 9999 // NCD 21/10 Q1018
2026-03-31 22:30:00,METAR YMML 312230Z AUTO 01020KT 9999 // NCD 20/10 Q1017
2026-03-31 22:00:00,METAR YMML 312200Z AUTO 01018KT 9999 // NCD 19/09 Q1017
2026-03-31 21:30:00,METAR YMML 312130Z AUTO 01018KT 9999 // NCD 19/09 Q1017
2026-03-31 21:00:00,METAR YMML 312100Z AUTO 01020KT 9999 // NCD 19/10 Q1016
2026-03-31 20:46:00,SPECI YMML 312046Z AUTO 36019G29KT 9999 // NCD 19/10 Q1016
2026-03-31 20:30:00,METAR YMML 312030Z AUTO 01020KT 9999 // NCD 18/10 Q1016
2026-03-31 20:00:00,METAR YMML 312000Z AUTO 36019KT 9999 // NCD 19/10 Q1016
2026-03-31 19:30:00,METAR YMML 311930Z AUTO 01020KT 9999 // NCD 19/10 Q1015
2026-03-31 19:00:00,METAR YMML 311900Z AUTO 01022KT 9999 // NCD 19/10 Q1015
2026-03-31 18:30:00,METAR YMML 311830Z AUTO 36018KT 9999 // NCD 19/10 Q1015
2026-03-31 18:00:00,METAR YMML 311800Z AUTO 01016KT 9999 // NCD 19/10 Q1015
2026-03-31 17:30:00,METAR YMML 311730Z AUTO 01018KT 9999 // NCD 19/11 Q1015
2026-03-31 17:00:00,METAR YMML 311700Z AUTO 36015KT 9999 // NCD 20/10 Q1015
2026-03-31 16:30:00,METAR YMML 311630Z AUTO 02016KT 9999 // NCD 20/10 Q1015
2026-03-31 16:14:00,SPECI YMML 311614Z AUTO 01016G30KT 9999 // NCD 20/11 Q1015
2026-03-31 16:00:00,METAR YMML 311600Z AUTO 01014KT 9999 // NCD 20/10 Q1016
2026-03-31 15:30:00,METAR YMML 311530Z AUTO 01009KT 9999 // NCD 20/11 Q1016
2026-03-31 15:00:00,METAR YMML 311500Z AUTO 36005KT 9999 // NCD 17/10 Q1016
2026-03-31 14:30:00,METAR YMML 311430Z AUTO 01008KT 9999 // NCD 17/11 Q1016
2026-03-31 14:00:00,METAR YMML 311400Z AUTO 02009KT 9999 // NCD 18/10 Q1016
2026-03-31 13:30:00,METAR YMML 311330Z AUTO 02007KT 9999 // NCD 18/09 Q1016
2026-03-31 13:00:00,METAR YMML 311300Z AUTO 01008KT 9999 // NCD 17/09 Q1016
2026-03-31 12:30:00,METAR YMML 311230Z AUTO 01009KT 9999 // NCD 17/09 Q1016
2026-03-31 12:00:00,METAR YMML 311200Z AUTO 02010KT 9999 // NCD 18/09 Q1017
2026-03-31 11:30:00,METAR YMML 311130Z AUTO 02008KT 9999 // NCD 19/09 Q1016
2026-03-31 11:00:00,METAR YMML 311100Z AUTO 02007KT 9999 // NCD 18/09 Q1016
2026-03-31 10:30:00,METAR YMML 311030Z AUTO 02007KT 9999 // NCD 19/10 Q1016
2026-03-31 10:00:00,METAR YMML 311000Z AUTO 02008KT 9999 // NCD 20/09 Q1016
2026-03-31 09:30:00,METAR YMML 310930Z AUTO 03006KT 9999 // NCD 21/09 Q1016
2026-03-31 09:00:00,METAR YMML 310900Z AUTO 04006KT 9999 // NCD 23/09 Q1016
2026-03-31 08:30:00,METAR YMML 310830Z AUTO 03004KT 9999 // NCD 23/09 Q1016
2026-03-31 08:00:00,METAR YMML 310800Z AUTO 01006KT 9999 // NCD 25/09 Q1016
2026-03-31 07:30:00,METAR YMML 310730Z AUTO 02010KT 9999 // NCD 27/08 Q1016
2026-03-31 07:00:00,METAR YMML 310700Z AUTO 02013KT 9999 // NCD 28/08 Q1016
2026-03-31 06:30:00,METAR YMML 310630Z AUTO 02014KT 9999 // NCD 28/08 Q1016
2026-03-31 06:00:00,METAR YMML 310600Z AUTO 01015KT 9999 // NCD 28/09 Q1016
2026-03-31 05:30:00,METAR YMML 310530Z AUTO 02013KT 9999 // NCD 28/10 Q1017
2026-03-31 05:00:00,METAR YMML 310500Z AUTO 02016KT 9999 // NCD 27/10 Q1017
2026-03-31 04:30:00,METAR YMML 310430Z AUTO 02018KT 9999 // NCD 28/11 Q1017
2026-03-31 04:00:00,METAR YMML 310400Z AUTO 03017KT 9999 // NCD 27/11 Q1017
2026-03-31 03:30:00,METAR YMML 310330Z AUTO 02018KT 9999 // NCD 27/11 Q1018
2026-03-31 03:00:00,METAR YMML 310300Z AUTO 03016KT 9999 // NCD 27/12 Q1018
2026-03-31 02:30:00,METAR YMML 310230Z AUTO 03014KT 9999 // NCD 26/11 Q1019
2026-03-31 02:00:00,METAR YMML 310200Z AUTO 03015KT 9999 // NCD 25/12 Q1020
2026-03-31 01:30:00,METAR YMML 310130Z AUTO 03014KT 9999 // NCD 25/12 Q1020
2026-03-31 01:00:00,METAR YMML 310100Z AUTO 03013KT 9999 // NCD 25/11 Q1021
2026-03-31 00:30:00,METAR YMML 310030Z AUTO 02012KT 9999 // NCD 24/10 Q1021
2026-03-31 00:00:00,METAR YMML 310000Z AUTO 01013KT 9999 // NCD 23/11 Q1022
2026-03-30 23:30:00,METAR YMML 302330Z AUTO 01014KT 9999 // NCD 23/11 Q1022
2026-03-30 23:00:00,METAR YMML 302300Z AUTO 01016KT 9999 // NCD 21/11 Q1022
2026-03-30 22:30:00,METAR YMML 302230Z AUTO 01014KT 9999 // NCD 20/10 Q1021
2026-03-30 22:00:00,METAR YMML 302200Z AUTO 01013KT 9999 // NCD 19/10 Q1021
2026-03-30 21:30:00,METAR YMML 302130Z AUTO 01013KT 9999 // NCD 17/09 Q1021
2026-03-30 21:00:00,METAR YMML 302100Z AUTO 01013KT 9999 // NCD 16/09 Q1021
2026-03-30 20:30:00,METAR YMML 302030Z AUTO 01014KT 9999 // NCD 15/09 Q1021
2026-03-30 20:00:00,METAR YMML 302000Z AUTO 01013KT 9999 // NCD 15/09 Q1021
2026-03-30 19:30:00,METAR YMML 301930Z AUTO 01012KT 9999 // NCD 16/09 Q1020
2026-03-30 19:00:00,METAR YMML 301900Z AUTO 01011KT 9999 // NCD 16/09 Q1020
2026-03-30 18:30:00,METAR YMML 301830Z AUTO 01012KT 9999 // NCD 15/09 Q1020
2026-03-30 18:00:00,METAR YMML 301800Z AUTO 01011KT 9999 // NCD 14/09 Q1021
2026-03-30 17:30:00,METAR YMML 301730Z AUTO 01013KT 9999 // NCD 15/09 Q1021
2026-03-30 17:00:00,METAR YMML 301700Z AUTO 01012KT 9999 // NCD 14/09 Q1021
2026-03-30 16:30:00,METAR YMML 301630Z AUTO 01012KT 9999 // NCD 16/09 Q1021
2026-03-30 16:00:00,METAR YMML 301600Z AUTO 01013KT 9999 // NCD 15/10 Q1021
2026-03-30 15:30:00,METAR YMML 301530Z AUTO 01012KT 9999 // NCD 16/09 Q1021
2026-03-30 15:00:00,METAR YMML 301500Z AUTO 36012KT 9999 // NCD 17/10 Q1021
2026-03-30 14:30:00,METAR YMML 301430Z AUTO 36012KT 9999 // NCD 17/09 Q1021
2026-03-30 14:00:00,METAR YMML 301400Z AUTO 36011KT 9999 // NCD 17/10 Q1021
2026-03-30 13:30:00,METAR YMML 301330Z AUTO 36011KT 9999 // NCD 17/10 Q1021
2026-03-30 13:00:00,METAR YMML 301300Z AUTO 01011KT 9999 // NCD 17/10 Q1022
2026-03-30 12:30:00,METAR YMML 301230Z AUTO 36011KT 9999 // NCD 18/10 Q1022
2026-03-30 12:00:00,METAR YMML 301200Z AUTO 01011KT 9999 // NCD 18/11 Q1022
2026-03-30 11:30:00,METAR YMML 301130Z AUTO 01010KT 9999 // NCD 17/11 Q1022
2026-03-30 11:00:00,METAR YMML 301100Z AUTO 36008KT 9999 // NCD 18/11 Q1022
2026-03-30 10:30:00,METAR YMML 301030Z AUTO 02008KT 9999 // NCD 17/11 Q1022
2026-03-30 10:00:00,METAR YMML 301000Z AUTO 03010KT 9999 // NCD 19/11 Q1021
2026-03-30 09:30:00,METAR YMML 300930Z AUTO 03008KT 9999 // NCD 19/11 Q1021
2026-03-30 09:00:00,METAR YMML 300900Z AUTO 04008KT 9999 // NCD 20/11 Q1021
2026-03-30 08:30:00,METAR YMML 300830Z AUTO 04008KT 9999 // NCD 21/11 Q1021
2026-03-30 08:00:00,METAR YMML 300800Z AUTO 04007KT 9999 // NCD 22/11 Q1020
2026-03-30 07:30:00,METAR YMML 300730Z AUTO 04010KT 9999 // NCD 24/10 Q1020
2026-03-30 07:00:00,METAR YMML 300700Z AUTO 03010KT 9999 // NCD 25/10 Q1020
2026-03-30 06:30:00,METAR YMML 300630Z AUTO 03009KT 9999 // NCD 25/11 Q1020
2026-03-30 06:00:00,METAR YMML 300600Z AUTO 03009KT 9999 // NCD 26/11 Q1020
2026-03-30 05:30:00,METAR YMML 300530Z AUTO 02008KT 9999 // NCD 25/11 Q1020
2026-03-30 05:00:00,METAR YMML 300500Z AUTO 03008KT 9999 // NCD 25/10 Q1020
2026-03-30 04:30:00,METAR YMML 300430Z AUTO 02010KT 9999 // NCD 25/10 Q1021
2026-03-30 04:00:00,METAR YMML 300400Z AUTO 04007KT 010V080 9999 // NCD 25/10 Q1021
2026-03-30 03:30:00,METAR YMML 300330Z AUTO 36007KT 9999 // NCD 25/10 Q1021
2026-03-30 03:00:00,METAR YMML 300300Z AUTO 35009KT 290V010 9999 // NCD 25/09 Q1021
2026-03-30 02:30:00,METAR YMML 300230Z AUTO 03010KT 330V050 9999 // FEW052 25/10 Q1022
2026-03-30 02:00:00,METAR YMML 300200Z AUTO 03010KT 9999 // NCD 24/11 Q1022
2026-03-30 01:30:00,METAR YMML 300130Z AUTO 03011KT 9999 // NCD 23/12 Q1022
2026-03-30 01:00:00,METAR YMML 300100Z AUTO 03011KT 9999 // NCD 23/12 Q1023
2026-03-30 00:30:00,METAR YMML 300030Z AUTO 01010KT 9999 // NCD 22/12 Q1023
2026-03-30 00:00:00,METAR YMML 300000Z AUTO 01012KT 9999 // NCD 21/13 Q1023
2026-03-29 23:30:00,METAR YMML 292330Z AUTO 01012KT 9999 // NCD 20/13 Q1023
2026-03-29 23:00:00,METAR YMML 292300Z AUTO 01013KT 9999 // NCD 19/12 Q1023
2026-03-29 22:30:00,METAR YMML 292230Z AUTO 01011KT 9999 // NCD 17/13 Q1023
2026-03-29 22:00:00,METAR YMML 292200Z AUTO 01011KT 9999 // NCD 15/12 Q1023
2026-03-29 21:30:00,METAR YMML 292130Z AUTO 02011KT 9999 // NCD 13/11 Q1023
2026-03-29 21:00:00,METAR YMML 292100Z AUTO 02008KT 9999 // NCD 11/09 Q1022
2026-03-29 20:30:00,METAR YMML 292030Z AUTO 01006KT 9999 // NCD 11/09 Q1022
2026-03-29 20:00:00,METAR YMML 292000Z AUTO 03007KT 9999 // NCD 10/09 Q1022
2026-03-29 19:30:00,METAR YMML 291930Z AUTO 31002KT 9999 // NCD 10/09 Q1022
2026-03-29 19:00:00,METAR YMML 291900Z AUTO 01009KT 9999 // NCD 11/10 Q1022
2026-03-29 18:30:00,METAR YMML 291830Z AUTO 36008KT 9999 // NCD 11/10 Q1022
2026-03-29 18:00:00,METAR YMML 291800Z AUTO 01007KT 9999 // NCD 11/10 Q1022
2026-03-29 17:30:00,METAR YMML 291730Z AUTO 36005KT 9999 // NCD 10/10 Q1022
2026-03-29 17:00:00,METAR YMML 291700Z AUTO 36005KT 9999 // NCD 11/10 Q1022
2026-03-29 16:30:00,METAR YMML 291630Z AUTO 36007KT 9999 // NCD 12/11 Q1022
2026-03-29 16:00:00,METAR YMML 291600Z AUTO 01006KT 9999 // NCD 11/10 Q1022
2026-03-29 15:30:00,METAR YMML 291530Z AUTO 01008KT 9999 // NCD 11/10 Q1023
2026-03-29 15:00:00,METAR YMML 291500Z AUTO 33003KT 9999 // NCD 11/10 Q1023
2026-03-29 14:30:00,METAR YMML 291430Z AUTO 30005KT 9999 // NCD 12/11 Q1023
2026-03-29 14:00:00,METAR YMML 291400Z AUTO 30006KT 9999 // NCD 12/11 Q1023
2026-03-29 13:30:00,METAR YMML 291330Z AUTO 32004KT 9999 // NCD 12/11 Q1023
2026-03-29 13:00:00,METAR YMML 291300Z AUTO 33002KT 9999 // NCD 13/11 Q1023
2026-03-29 12:30:00,METAR YMML 291230Z AUTO 26003KT 9999 // NCD 12/11 Q1023
2026-03-29 12:00:00,METAR YMML 291200Z AUTO 25003KT 9999 // NCD 14/12 Q1024
2026-03-29 11:30:00,METAR YMML 291130Z AUTO 19003KT 9999 // NCD 14/12 Q1023
2026-03-29 11:00:00,METAR YMML 291100Z AUTO 16004KT 9999 // NCD 14/12 Q1023
2026-03-29 10:30:00,METAR YMML 291030Z AUTO 18004KT 9999 // NCD 15/12 Q1023
2026-03-29 10:00:00,METAR YMML 291000Z AUTO 19005KT 9999 // NCD 15/12 Q1023
2026-03-29 09:30:00,METAR YMML 290930Z AUTO 19005KT 9999 // NCD 15/12 Q1023
2026-03-29 09:00:00,METAR YMML 290900Z AUTO 19006KT 9999 // NCD 16/13 Q1023
2026-03-29 08:30:00,METAR YMML 290830Z AUTO 18008KT 9999 // NCD 16/13 Q1022
2026-03-29 08:00:00,METAR YMML 290800Z AUTO 16010KT 9999 // NCD 17/12 Q1022
2026-03-29 07:30:00,METAR YMML 290730Z AUTO 16009KT 9999 // NCD 18/12 Q1022
2026-03-29 07:00:00,METAR YMML 290700Z AUTO 16008KT 9999 // NCD 19/12 Q1021
2026-03-29 06:30:00,METAR YMML 290630Z AUTO 16009KT 9999 // NCD 20/12 Q1021
2026-03-29 06:00:00,METAR YMML 290600Z AUTO 19009KT 9999 // NCD 20/12 Q1021
2026-03-29 05:30:00,METAR YMML 290530Z AUTO 18008KT 9999 // NCD 21/12 Q1021
2026-03-29 05:00:00,METAR YMML 290500Z AUTO 19007KT 160V220 9999 // NCD 21/12 Q1021
2026-03-29 04:30:00,METAR YMML 290430Z AUTO 16006KT 9999 // NCD 21/12 Q1021
2026-03-29 04:00:00,METAR YMML 290400Z AUTO 20006KT 170V230 9999 // NCD 21/11 Q1021
2026-03-29 03:30:00,METAR YMML 290330Z AUTO 21006KT 170V250 9999 // FEW031 20/11 Q1022
2026-03-29 03:00:00,METAR YMML 290300Z AUTO 10006KT 070V190 9999 // FEW029 20/12 Q1022
2026-03-29 02:30:00,METAR YMML 290230Z AUTO 15005KT 080V180 9999 // FEW027 19/11 Q1022
2026-03-29 02:00:00,METAR YMML 290200Z AUTO 06007KT 9999 // BKN027 19/12 Q1023
2026-03-29 01:30:00,METAR YMML 290130Z AUTO 17005KT 9999 // SCT027 18/11 Q1023
2026-03-29 01:00:00,METAR YMML 290100Z AUTO 19005KT 9999 // OVC027 17/12 Q1023
2026-03-29 00:30:00,METAR YMML 290030Z AUTO 19005KT 9999 // SCT020 OVC025 17/11 Q1024
2026-03-29 00:00:00,METAR YMML 290000Z AUTO 16005KT 9999 // BKN020 OVC026 16/11 Q1024
2026-03-28 23:30:00,METAR YMML 282330Z AUTO 15004KT 9999 // SCT018 BKN030 17/13 Q1024
2026-03-28 23:00:00,METAR YMML 282300Z AUTO 21005KT 9999 // FEW023 OVC030 15/13 Q1024
2026-03-28 22:30:00,METAR YMML 282230Z AUTO 23005KT 9999 // OVC028 15/13 Q1024
2026-03-28 22:00:00,METAR YMML 282200Z AUTO 23005KT 9999 // OVC028 14/12 Q1024
2026-03-28 21:30:00,METAR YMML 282130Z AUTO 23005KT 9999 // OVC028 13/12 Q1023
2026-03-28 21:00:00,METAR YMML 282100Z AUTO 26004KT 9999 // OVC028 13/12 Q1023
2026-03-28 20:30:00,METAR YMML 282030Z AUTO 26003KT 9999 // OVC026 13/12 Q1023
2026-03-28 20:00:00,METAR YMML 282000Z AUTO 23003KT 9999 // OVC024 13/12 Q1022
2026-03-28 19:30:00,METAR YMML 281930Z AUTO 26004KT 9999 // OVC026 13/12 Q1022
2026-03-28 19:00:00,METAR YMML 281900Z AUTO 25001KT 9999 // OVC028 13/12 Q1022
2026-03-28 18:30:00,METAR YMML 281830Z AUTO 25005KT 9999 // OVC030 13/12 Q1022
2026-03-28 18:00:00,METAR YMML 281800Z AUTO 24006KT 9999 // SCT027 OVC033 13/12 Q1022
2026-03-28 17:30:00,METAR YMML 281730Z AUTO 24007KT 9999 // BKN027 OVC031 13/13 Q1022
2026-03-28 17:00:00,METAR YMML 281700Z AUTO 25005KT 9999 // OVC029 13/13 Q1022
2026-03-28 16:30:00,METAR YMML 281630Z AUTO 23005KT 9999 // OVC029 13/12 Q1022
2026-03-28 16:00:00,METAR YMML 281600Z AUTO 26005KT 9999 // BKN033 13/12 Q1022
2026-03-28 15:30:00,METAR YMML 281530Z AUTO 25005KT 9999 // BKN035 13/12 Q1022
2026-03-28 15:00:00,METAR YMML 281500Z AUTO 24005KT 9999 // SCT037 13/12 Q1022
2026-03-28 14:30:00,METAR YMML 281430Z AUTO 22006KT 9999 // SCT025 OVC035 14/13 Q1022
2026-03-28 14:00:00,METAR YMML 281400Z AUTO 22006KT 9999 // SCT023 OVC033 14/13 Q1022
2026-03-28 13:30:00,METAR YMML 281330Z AUTO 23007KT 9999 // FEW023 OVC031 14/13 Q1022
2026-03-28 13:00:00,METAR YMML 281300Z AUTO 22005KT 9999 // BKN033 14/13 Q1022
2026-03-28 12:30:00,METAR YMML 281230Z AUTO 23007KT 9999 // FEW035 13/12 Q1022
2026-03-28 12:00:00,METAR YMML 281200Z AUTO 22005KT 9999 // SCT035 14/13 Q1022
2026-03-28 11:45:00,SPECI YMML 281145Z AUTO 24008KT 9999 // FEW013 BKN035 14/13 Q1022
2026-03-28 11:30:00,METAR YMML 281130Z AUTO 23007KT 9999 // BKN013 14/13 Q1022
2026-03-28 11:00:00,METAR YMML 281100Z AUTO 22005KT 9999 // OVC013 OVC036 14/13 Q1022
2026-03-28 10:45:00,SPECI YMML 281045Z AUTO 21005KT 9999 // BKN013 OVC036 14/14 Q1022
2026-03-28 10:30:00,METAR YMML 281030Z AUTO 22004KT 9999 // FEW011 OVC036 14/14 Q1022
2026-03-28 10:00:00,METAR YMML 281000Z AUTO 17009KT 9999 -SHRA FEW013 BKN036 OVC044 14/13 Q1022
2026-03-28 09:30:00,METAR YMML 280930Z AUTO 19011KT 9999 -SHRA FEW014 SCT019 BKN027 14/13 Q1022
2026-03-28 09:00:00,METAR YMML 280900Z AUTO 19008KT 9999 // FEW022 OVC033 16/12 Q1022
2026-03-28 08:30:00,METAR YMML 280830Z AUTO 20008KT 9999 // OVC033 16/12 Q1022
2026-03-28 08:00:00,METAR YMML 280800Z AUTO 19013KT 9999 // BKN024 OVC036 16/12 Q1021
2026-03-28 07:30:00,METAR YMML 280730Z AUTO 20013KT 9999 // OVC038 16/12 Q1021
2026-03-28 07:00:00,METAR YMML 280700Z AUTO 19012KT 9999 // SCT040 16/12 Q1021
2026-03-28 06:30:00,METAR YMML 280630Z AUTO 19011KT 9999 // BKN035 17/12 Q1021
2026-03-28 06:00:00,METAR YMML 280600Z AUTO 19013KT 9999 // FEW020 BKN029 OVC035 17/12 Q1020
2026-03-28 05:30:00,METAR YMML 280530Z AUTO 18013KT 9999 // FEW022 BKN029 OVC034 17/12 Q1020
2026-03-28 05:00:00,METAR YMML 280500Z AUTO 18014KT 9999 // FEW024 BKN033 OVC042 17/12 Q1020
2026-03-28 04:30:00,METAR YMML 280430Z AUTO 18015KT 9999 // SCT023 BKN029 OVC035 17/12 Q1020
2026-03-28 04:00:00,METAR YMML 280400Z AUTO 18015KT 9999 // FEW021 OVC029 17/12 Q1020
2026-03-28 03:30:00,METAR YMML 280330Z AUTO 19014KT 9999 // FEW017 BKN021 BKN026 17/13 Q1020
2026-03-28 03:24:00,SPECI YMML 280324Z AUTO 19014KT 9999 // FEW016 BKN022 BKN026 18/13 Q1020
2026-03-28 03:08:00,SPECI YMML 280308Z AUTO 19011KT 9999 // BKN016 BKN025 BKN029 18/14 Q1020
2026-03-28 03:00:00,METAR YMML 280300Z AUTO 20011KT 9999 // FEW016 SCT025 BKN028 17/14 Q1021
2026-03-28 02:30:00,METAR YMML 280230Z AUTO 20012KT 9999 // SCT014 SCT038 BKN043 17/15 Q1021
2026-03-28 02:26:00,SPECI YMML 280226Z AUTO 20012KT 9999 // SCT014 BKN036 BKN043 16/14 Q1021
2026-03-28 02:00:00,SPECI YMML 280200Z AUTO 20010KT 9999 -SHRA BKN009 BKN014 BKN040 16/15 Q1022
2026-03-28 01:30:00,METAR YMML 280130Z AUTO 22011KT 9999 // BKN005 BKN009 BKN013 15/14 Q1022
2026-03-28 01:23:00,SPECI YMML 280123Z AUTO 22009KT 9999 -SHRA BKN005 OVC008 OVC014 15/15 Q1022
2026-03-28 01:08:00,SPECI YMML 280108Z AUTO 22009KT 6000 -SHRA BKN005 BKN010 OVC015 15/15 Q1022
2026-03-28 01:00:00,METAR YMML 280100Z AUTO 22009KT 9999 // BKN006 OVC012 OVC018 15/15 Q1022
2026-03-28 00:54:00,SPECI YMML 280054Z AUTO 22009KT 9999 -SHRA BKN006 OVC014 15/15 Q1022
2026-03-28 00:35:00,SPECI YMML 280035Z AUTO 23011KT 6000 -SHRA BKN006 OVC012 15/14 Q1022
2026-03-28 00:30:00,SPECI YMML 280030Z AUTO 23011KT 9999 // BKN006 OVC012 15/14 Q1022
2026-03-28 00:01:00,SPECI YMML 280001Z AUTO 20008KT 9999 // OVC006 OVC010 14/14 Q1022
2026-03-28 00:00:00,SPECI YMML 280000Z AUTO 20008KT 9999 -SHRA OVC005 OVC010 14/14 Q1022
2026-03-27 23:30:00,SPECI YMML 272330Z AUTO 24012KT 5000 -SHRA BKN006 OVC009 14/13 Q1022
2026-03-27 23:29:00,SPECI YMML 272329Z AUTO 24012KT 6000 -SHRA BKN006 OVC009 14/13 Q1022
2026-03-27 23:20:00,SPECI YMML 272320Z AUTO 24010KT 9999 // BKN006 OVC011 14/13 Q1022
2026-03-27 23:00:00,SPECI YMML 272300Z AUTO 24011KT 6000 -SHRA OVC005 14/13 Q1022
2026-03-27 22:56:00,SPECI YMML 272256Z AUTO 25010KT 9999 -SHRA OVC005 13/13 Q1022
2026-03-27 22:43:00,SPECI YMML 272243Z AUTO 25010KT 6000 -SHRA OVC005 13/13 Q1022
2026-03-27 22:30:00,METAR YMML 272230Z AUTO 23009KT 9999 // OVC005 OVC009 13/13 Q1022
2026-03-27 22:03:00,SPECI YMML 272203Z AUTO 24010KT 9999 -SHRA OVC004 OVC015 13/12 Q1022
2026-03-27 22:00:00,SPECI YMML 272200Z AUTO 24010KT 9999 -SHRA OVC004 OVC015 13/12 Q1022
2026-03-27 21:31:00,SPECI YMML 272131Z AUTO 24010KT 5000 -SHRA OVC004 12/12 Q1022
2026-03-27 21:30:00,SPECI YMML 272130Z AUTO 24010KT 7000 -SHRA OVC004 12/12 Q1022
2026-03-27 21:25:00,SPECI YMML 272125Z AUTO 24009KT 9999 // OVC005 OVC008 12/12 Q1022
2026-03-27 21:00:00,SPECI YMML 272100Z AUTO 24011KT 1900 -DZ BR BKN005 OVC010 OVC014 12/11 Q1021
2026-03-27 20:39:00,SPECI YMML 272039Z AUTO 23010KT 5000 UP OVC004 12/11 Q1021
2026-03-27 20:36:00,SPECI YMML 272036Z AUTO 24010KT 9999 // OVC004 12/11 Q1021
2026-03-27 20:30:00,METAR YMML 272030Z AUTO 24009KT 9000 // OVC004 12/11 Q1021
2026-03-27 20:02:00,SPECI YMML 272002Z AUTO 24010KT 6000 // BKN005 OVC009 12/11 Q1021
2026-03-27 20:00:00,SPECI YMML 272000Z AUTO 24010KT 8000 // BKN005 OVC009 12/11 Q1021
2026-03-27 19:30:00,METAR YMML 271930Z AUTO 24013KT 9999 // SCT004 BKN009 OVC022 12/11 Q1020
2026-03-27 19:00:00,METAR YMML 271900Z AUTO 24012KT 9999 // SCT005 BKN029 BKN034 11/11 Q1020
2026-03-27 18:30:00,METAR YMML 271830Z AUTO 25012KT 9999 // OVC005 11/11 Q1020
2026-03-27 18:00:00,METAR YMML 271800Z AUTO 24011KT 9999 // OVC006 OVC022 11/10 Q1020
2026-03-27 17:30:00,METAR YMML 271730Z AUTO 23011KT 9999 // BKN006 OVC010 11/11 Q1020
2026-03-27 17:00:00,METAR YMML 271700Z AUTO 23011KT 9999 // BKN009 BKN012 OVC016 11/10 Q1020
2026-03-27 16:34:00,SPECI YMML 271634Z AUTO 24011KT 9999 // FEW006 BKN009 OVC022 11/10 Q1020
2026-03-27 16:30:00,SPECI YMML 271630Z AUTO 24013KT 9999 -SHRA FEW007 BKN009 BKN022 11/10 Q1020
2026-03-27 16:19:00,SPECI YMML 271619Z AUTO 23012KT 6000 -SHRA BKN009 OVC024 11/10 Q1020
2026-03-27 16:00:00,SPECI YMML 271600Z AUTO 24009KT 9999 -SHRA BKN006 OVC009 11/10 Q1020
2026-03-27 15:58:00,SPECI YMML 271558Z AUTO 24009KT 9999 -SHRA BKN005 OVC009 11/10 Q1020
2026-03-25 15:00:00,METAR YMML 251500Z AUTO 25006KT 9999 // OVC031 16/14 Q1015
2026-03-25 14:30:00,METAR YMML 251430Z AUTO 26005KT 9999 // OVC029 16/14 Q1015
2026-03-25 14:00:00,METAR YMML 251400Z AUTO 26006KT 9999 // OVC023 16/14 Q1015
2026-03-25 13:30:00,METAR YMML 251330Z AUTO 23007KT 9999 // FEW012 OVC019 16/15 Q1015
2026-03-25 13:27:00,SPECI YMML 251327Z AUTO 23007KT 9999 // FEW009 OVC019 16/15 Q1015
2026-03-25 13:11:00,SPECI YMML 251311Z AUTO 24011KT 9999 -SHRA SCT006 BKN011 OVC017 16/15 Q1016
2026-03-25 13:00:00,SPECI YMML 251300Z AUTO 24009KT 6000 DZ SCT006 BKN011 OVC019 16/15 Q1016
2026-03-25 12:43:00,SPECI YMML 251243Z AUTO 23004KT 6000 // BKN011 OVC019 18/17 Q1016
2026-03-25 12:30:00,METAR YMML 251230Z AUTO 18002KT 9999 // BKN015 OVC019 18/16 Q1016
2026-03-25 12:00:00,METAR YMML 251200Z AUTO 19005KT 9999 // BKN015 OVC027 18/16 Q1016
2026-03-25 11:30:00,SPECI YMML 251130Z AUTO 19006KT 9999 -SHRA OVC015 18/16 Q1016
2026-03-25 11:00:00,METAR YMML 251100Z AUTO 20006KT 9999 // BKN015 OVC023 18/16 Q1015
2026-03-25 10:30:00,METAR YMML 251030Z AUTO 21005KT 9999 // BKN015 OVC023 18/17 Q1015
2026-03-25 10:19:00,SPECI YMML 251019Z AUTO 20005KT 9999 // BKN015 OVC023 17/17 Q1015
2026-03-25 10:08:00,SPECI YMML 251008Z AUTO 18007KT 9999 // FEW012 BKN023 OVC026 17/17 Q1015
2026-03-25 10:00:00,SPECI YMML 251000Z AUTO 19007KT 170V230 9999 -SHRA FEW010 BKN017 OVC023 17/17 Q1015
2026-03-25 09:59:00,SPECI YMML 250959Z AUTO 19007KT 170V240 9999 -SHRA SCT012 BKN017 OVC023 17/17 Q1015
2026-03-25 09:35:00,SPECI YMML 250935Z AUTO 22007KT 4900 +SHRA BKN015 BKN036 OVC044 18/17 Q1014
2026-03-25 09:33:00,SPECI YMML 250933Z AUTO 21007KT 5000 +SHRA FEW007 SCT013 BKN036 17/17 Q1014
2026-03-25 09:31:00,SPECI YMML 250931Z AUTO 21007KT 6000 SHRA FEW007 SCT013 BKN036 17/17 Q1014
2026-03-25 09:30:00,SPECI YMML 250930Z AUTO 20007KT 7000 SHRA FEW007 SCT013 BKN036 17/17 Q1014
2026-03-25 09:00:00,SPECI YMML 250900Z AUTO 18010KT 8000 VCTS SHRA BKN009 OVC055 18/17 Q1013 RETS
2026-03-25 08:52:00,SPECI YMML 250852Z AUTO 20010KT 9000 // BKN009 OVC078 18/17 Q1013 RETS
2026-03-25 08:35:00,SPECI YMML 250835Z AUTO 19012KT 9999 TS BKN011 BKN048 BKN078 19/17 Q1013
2026-03-25 08:32:00,SPECI YMML 250832Z AUTO 18012KT 9999 TS SCT011 BKN048 BKN078 19/17 Q1013
2026-03-25 08:00:00,METAR YMML 250800Z AUTO 19011KT 9999 // BKN051 BKN063 OVC075 21/18 Q1012
2026-03-25 07:30:00,METAR YMML 250730Z AUTO 18011KT 9999 // FEW049 BKN058 BKN067 23/18 Q1012
2026-03-25 07:00:00,METAR YMML 250700Z AUTO 31009KT 9999 // BKN048 BKN054 28/16 Q1011
2026-03-25 06:30:00,METAR YMML 250630Z AUTO 35010KT 290V360 9999 // BKN048 BKN057 OVC071 27/16 Q1011
2026-03-25 06:00:00,METAR YMML 250600Z AUTO 35011KT 9999 // FEW046 BKN053 BKN069 27/16 Q1011
2026-03-25 05:30:00,METAR YMML 250530Z AUTO 34012KT 9999 // SCT088 26/16 Q1012
2026-03-25 05:00:00,METAR YMML 250500Z AUTO 35013KT 9999 // NCD 27/16 Q1012
2026-03-25 04:30:00,METAR YMML 250430Z AUTO 36013KT 9999 // NCD 25/16 Q1012
2026-03-25 04:00:00,METAR YMML 250400Z AUTO 33012KT 9999 // BKN062 BKN079 BKN090 24/16 Q1012
2026-03-25 03:30:00,METAR YMML 250330Z AUTO 29007KT 9999 VCTS -SHRA SCT051 OVC064 23/18 Q1013 RETS
2026-03-25 03:17:00,SPECI YMML 250317Z AUTO 30007KT 250V330 9999 VCTS -SHRA SCT049 BKN063 BKN080 22/18 Q1013 RETS
2026-03-25 03:00:00,SPECI YMML 250300Z AUTO 01012KT 9999 TSRA SCT058 BKN066 BKN083 25/15 Q1013
2026-03-25 02:47:00,SPECI YMML 250247Z AUTO 01014KT 9999 TS SCT066 SCT079 BKN089 26/15 Q1013
2026-03-25 02:30:00,METAR YMML 250230Z AUTO 01014KT 9999 // FEW072 BKN087 26/15 Q1013
2026-03-25 02:00:00,METAR YMML 250200Z AUTO 02012KT 9999 // BKN068 OVC083 25/17 Q1013
2026-03-25 01:30:00,METAR YMML 250130Z AUTO 01010KT 9999 // BKN068 OVC095 25/15 Q1014
2026-03-25 01:00:00,METAR YMML 250100Z AUTO 35009KT 9999 // FEW089 BKN125 26/16 Q1014
2026-03-25 00:30:00,METAR YMML 250030Z AUTO 01014KT 9999 // SCT087 BKN110 BKN125 24/17 Q1014
2026-03-25 00:00:00,METAR YMML 250000Z AUTO 36013KT 9999 // BKN083 BKN110 25/17 Q1014
2026-03-24 23:30:00,METAR YMML 242330Z AUTO 36015KT 9999 // BKN083 23/17 Q1014
2026-03-24 23:00:00,METAR YMML 242300Z AUTO 01015KT 9999 // SCT085 SCT100 BKN120 22/16 Q1014
2026-03-24 22:30:00,METAR YMML 242230Z AUTO 01014KT 9999 // BKN072 BKN082 21/16 Q1014
2026-03-24 22:00:00,METAR YMML 242200Z AUTO 01014KT 9999 // BKN072 BKN115 20/16 Q1014
2026-03-24 21:30:00,METAR YMML 242130Z AUTO 01011KT 9999 // OVC072 19/15 Q1014
2026-03-24 21:00:00,METAR YMML 242100Z AUTO 01010KT 9999 // OVC072 19/15 Q1013
2026-03-24 20:30:00,METAR YMML 242030Z AUTO 01009KT 9999 // BKN070 OVC078 19/15 Q1013
2026-03-24 20:00:00,METAR YMML 242000Z AUTO 36011KT 9999 // BKN076 OVC088 19/15 Q1013
2026-03-24 19:30:00,METAR YMML 241930Z AUTO 36012KT 9999 // SCT078 BKN091 OVC105 19/15 Q1013
2026-03-24 19:00:00,METAR YMML 241900Z AUTO 36011KT 9999 // BKN089 19/15 Q1012
2026-03-24 18:30:00,METAR YMML 241830Z AUTO 01015KT 9999 // BKN089 19/15 Q1012
2026-03-24 18:00:00,METAR YMML 241800Z AUTO 01016KT 9999 // BKN095 19/15 Q1012
2026-03-24 17:30:00,METAR YMML 241730Z AUTO 01016KT 9999 // FEW091 19/15 Q1012
2026-03-24 17:00:00,METAR YMML 241700Z AUTO 01015KT 9999 // FEW089 19/15 Q1012
2026-03-24 16:30:00,METAR YMML 241630Z AUTO 01016KT 9999 // NCD 19/15 Q1012
2026-03-24 16:00:00,METAR YMML 241600Z AUTO 01014KT 9999 // NCD 19/14 Q1013
2026-03-24 15:30:00,METAR YMML 241530Z AUTO 01015KT 9999 // NCD 18/15 Q1013
2026-03-24 15:00:00,METAR YMML 241500Z AUTO 01015KT 9999 // NCD 18/15 Q1013
2026-03-24 14:30:00,METAR YMML 241430Z AUTO 01015KT 9999 // NCD 18/15 Q1013
2026-03-24 14:00:00,METAR YMML 241400Z AUTO 01015KT 9999 // NCD 18/15 Q1013
2026-03-24 13:30:00,METAR YMML 241330Z AUTO 36015KT 9999 // NCD 18/15 Q1013
2026-03-24 13:00:00,METAR YMML 241300Z AUTO 01016KT 9999 // NCD 18/16 Q1014
2026-03-24 12:30:00,METAR YMML 241230Z AUTO 01014KT 9999 // NCD 18/16 Q1014
2026-03-24 12:00:00,METAR YMML 241200Z AUTO 02016KT 9999 // NCD 18/15 Q1014
2026-03-24 11:54:00,SPECI YMML 241154Z AUTO 02015KT 9999 // NCD 18/16 Q1014
2026-03-24 11:30:00,METAR YMML 241130Z AUTO 01008KT 9999 // NCD 17/16 Q1014
2026-03-24 11:00:00,METAR YMML 241100Z AUTO 01007KT 9999 // NCD 17/16 Q1014
2026-03-24 10:30:00,METAR YMML 241030Z AUTO 03007KT 9999 // NCD 17/16 Q1015
2026-03-24 10:00:00,METAR YMML 241000Z AUTO 03008KT 9999 // SCT120 18/17 Q1015
2026-03-24 09:30:00,METAR YMML 240930Z AUTO 03008KT 9999 // BKN110 18/17 Q1015
2026-03-24 09:00:00,METAR YMML 240900Z AUTO 03008KT 9999 // FEW088 OVC110 18/17 Q1015
2026-03-24 08:30:00,METAR YMML 240830Z AUTO 03007KT 9999 // OVC088 19/18 Q1015
2026-03-24 08:00:00,METAR YMML 240800Z AUTO 18003KT 9999 -SHRA FEW079 OVC100 19/17 Q1015
2026-03-24 07:30:00,METAR YMML 240730Z AUTO 19005KT 9999 -SHRA FEW067 OVC098 19/17 Q1015
2026-03-24 07:23:00,SPECI YMML 240723Z AUTO 19005KT 9999 SHRA FEW067 OVC098 19/17 Q1015
2026-03-24 07:10:00,SPECI YMML 240710Z AUTO 24007KT 6000 SHRA FEW027 SCT051 BKN067 19/17 Q1015
2026-03-24 07:00:00,METAR YMML 240700Z AUTO 25010KT 9999 -SHRA SCT028 BKN051 BKN065 20/16 Q1016
2026-03-24 06:30:00,METAR YMML 240630Z AUTO 24015KT 9999 // FEW026 SCT057 21/15 Q1016
2026-03-24 06:00:00,METAR YMML 240600Z AUTO 20009KT 9999 // SCT120 21/15 Q1015
2026-03-24 05:30:00,METAR YMML 240530Z AUTO 20016KT 9999 // FEW120 21/15 Q1015
2026-03-24 05:00:00,METAR YMML 240500Z AUTO 21015KT 9999 // NCD 23/16 Q1015
2026-03-24 04:30:00,METAR YMML 240430Z AUTO 20014KT 9999 // BKN082 BKN100 23/16 Q1015
2026-03-24 04:00:00,METAR YMML 240400Z AUTO VRB03KT 9999 // OVC093 26/12 Q1014
2026-03-24 03:30:00,METAR YMML 240330Z AUTO 01015KT 9999 // FEW051 BKN095 27/12 Q1014
2026-03-24 03:01:00,SPECI YMML 240301Z AUTO 35015G26KT 9999 -SHRA FEW082 OVC105 24/12 Q1015
2026-03-24 02:30:00,METAR YMML 240230Z AUTO 35018G28KT 9999 // BKN099 OVC115 25/13 Q1015
2026-03-24 02:19:00,SPECI YMML 240219Z AUTO 32016G27KT 9999 // BKN097 26/12 Q1015
2026-03-24 02:00:00,METAR YMML 240200Z AUTO 36013KT 9999 // NCD 27/12 Q1015
2026-03-24 01:30:00,METAR YMML 240130Z AUTO 01018KT 9999 // NCD 27/14 Q1015
2026-03-24 01:00:00,METAR YMML 240100Z AUTO 01020KT 9999 // NCD 26/15 Q1016
2026-03-24 00:30:00,METAR YMML 240030Z AUTO 36022KT 9999 // NCD 24/15 Q1016
2026-03-24 00:00:00,METAR YMML 240000Z AUTO 01022KT 9999 // NCD 24/15 Q1016
2026-03-23 23:30:00,METAR YMML 232330Z AUTO 01021KT 9999 // SCT115 23/15 Q1016
2026-03-23 23:00:00,METAR YMML 232300Z AUTO 01023KT 9999 // BKN115 23/14 Q1016
2026-03-23 22:30:00,METAR YMML 232230Z AUTO 01021KT 9999 // NCD 23/14 Q1016
2026-03-23 22:19:00,SPECI YMML 232219Z AUTO 01021G31KT 9999 // NCD 23/13 Q1015
2026-03-23 22:00:00,METAR YMML 232200Z AUTO 01018KT 9999 // FEW110 23/12 Q1016
2026-03-23 21:30:00,METAR YMML 232130Z AUTO 01016KT 9999 // FEW110 22/12 Q1016
2026-03-23 21:00:00,METAR YMML 232100Z AUTO 01015KT 9999 // NCD 21/11 Q1015
2026-03-23 20:30:00,METAR YMML 232030Z AUTO 01016KT 9999 // NCD 20/11 Q1015
2026-03-23 20:00:00,METAR YMML 232000Z AUTO 36016KT 9999 // NCD 21/11 Q1015
2026-03-23 19:30:00,METAR YMML 231930Z AUTO 36015KT 9999 // NCD 20/11 Q1015
2026-03-23 19:00:00,METAR YMML 231900Z AUTO 01015KT 9999 // NCD 20/12 Q1015
2026-03-23 18:30:00,METAR YMML 231830Z AUTO 01014KT 9999 // NCD 20/12 Q1015
2026-03-23 18:00:00,METAR YMML 231800Z AUTO 01013KT 9999 // NCD 19/12 Q1015
2026-03-23 17:30:00,METAR YMML 231730Z AUTO 01013KT 9999 // NCD 19/12 Q1015
2026-03-23 17:00:00,METAR YMML 231700Z AUTO 01011KT 9999 // NCD 18/13 Q1016
2026-03-23 16:30:00,METAR YMML 231630Z AUTO 01010KT 9999 // NCD 17/13 Q1016
2026-03-23 16:00:00,METAR YMML 231600Z AUTO 02008KT 9999 // NCD 16/14 Q1016
2026-03-23 15:30:00,METAR YMML 231530Z AUTO 34001KT 9999 // NCD 16/14 Q1016
2026-03-23 15:00:00,METAR YMML 231500Z AUTO 36005KT 9999 // NCD 16/15 Q1017
2026-03-23 14:30:00,METAR YMML 231430Z AUTO 03007KT 9999 // NCD 16/14 Q1017
2026-03-23 14:00:00,METAR YMML 231400Z AUTO 03005KT 9999 // NCD 17/15 Q1017
2026-03-23 13:30:00,METAR YMML 231330Z AUTO 05004KT 9999 // NCD 16/15 Q1017
2026-03-23 13:00:00,METAR YMML 231300Z AUTO 30004KT 9999 // NCD 17/14 Q1018
2026-03-23 12:30:00,METAR YMML 231230Z AUTO 30003KT 9999 // NCD 18/15 Q1018
2026-03-23 12:00:00,METAR YMML 231200Z AUTO 29006KT 9999 // NCD 17/15 Q1018
2026-03-23 11:30:00,METAR YMML 231130Z AUTO 28007KT 9999 // NCD 18/15 Q1018
2026-03-23 11:00:00,METAR YMML 231100Z AUTO 27009KT 9999 // NCD 19/16 Q1018
2026-03-23 10:30:00,METAR YMML 231030Z AUTO 26007KT 9999 // NCD 20/17 Q1018
2026-03-23 10:00:00,METAR YMML 231000Z AUTO 26007KT 9999 // FEW076 21/17 Q1018
2026-03-23 09:30:00,METAR YMML 230930Z AUTO 24006KT 9999 // NCD 21/15 Q1018
2026-03-23 09:00:00,METAR YMML 230900Z AUTO 25004KT 9999 // NCD 22/14 Q1017
2026-03-23 08:30:00,METAR YMML 230830Z AUTO 27005KT 9999 // NCD 22/15 Q1017
2026-03-23 08:00:00,METAR YMML 230800Z AUTO 16007KT 9999 // SCT081 24/16 Q1017
2026-03-23 07:30:00,METAR YMML 230730Z AUTO 17011KT 9999 // SCT077 26/16 Q1017
2026-03-23 07:00:00,METAR YMML 230700Z AUTO 10008KT 070V150 9999 // FEW080 29/14 Q1017
2026-03-23 06:30:00,METAR YMML 230630Z AUTO 05010KT 9999 // SCT072 29/12 Q1017
2026-03-23 06:00:00,METAR YMML 230600Z AUTO 05006KT 020V090 9999 // BKN074 BKN089 31/12 Q1017
2026-03-23 05:30:00,METAR YMML 230530Z AUTO 36006KT 310V040 9999 // BKN072 30/12 Q1017
2026-03-23 05:00:00,METAR YMML 230500Z AUTO 08006KT 050V110 9999 // FEW074 31/12 Q1017
2026-03-23 04:30:00,METAR YMML 230430Z AUTO 05004KT 9999 // SCT095 30/11 Q1018
2026-03-23 04:00:00,METAR YMML 230400Z AUTO 11004KT 060V160 9999 // BKN066 BKN090 30/14 Q1018
2026-03-23 03:30:00,METAR YMML 230330Z AUTO 05003KT 9999 // FEW073 31/14 Q1019
2026-03-23 03:00:00,METAR YMML 230300Z AUTO 10005KT 020V160 9999 // NCD 29/14 Q1019
2026-03-23 02:30:00,METAR YMML 230230Z AUTO 10005KT 080V140 9999 // NCD 28/16 Q1020
2026-03-23 02:00:00,METAR YMML 230200Z AUTO 14007KT 070V170 9999 // NCD 27/15 Q1020
2026-03-23 01:30:00,METAR YMML 230130Z AUTO 13006KT 090V180 9999 // NCD 26/16 Q1021
2026-03-23 01:00:00,METAR YMML 230100Z AUTO 11005KT 9999 // NCD 26/16 Q1021
2026-03-23 00:30:00,METAR YMML 230030Z AUTO 07003KT 9999 // NCD 24/16 Q1021
2026-03-23 00:00:00,METAR YMML 230000Z AUTO 07005KT 020V090 9999 // NCD 23/16 Q1021
2026-03-22 23:30:00,METAR YMML 222330Z AUTO 08003KT 9999 // NCD 20/16 Q1022
2026-03-22 23:00:00,METAR YMML 222300Z AUTO 21004KT 9999 // NCD 18/16 Q1022
2026-03-22 22:33:00,SPECI YMML 222233Z AUTO 21003KT 9999 // FEW006 18/15 Q1022
2026-03-22 22:30:00,SPECI YMML 222230Z AUTO 07003KT 9999 // FEW006 18/15 Q1022
2026-03-22 22:00:00,METAR YMML 222200Z AUTO 04003KT 9999 // OVC005 17/15 Q1022
2026-03-22 21:35:00,SPECI YMML 222135Z AUTO 36005KT 9999 // BKN005 16/15 Q1022
2026-03-22 21:33:00,SPECI YMML 222133Z AUTO 36005KT 9999 // SCT005 16/15 Q1022
2026-03-22 21:30:00,SPECI YMML 222130Z AUTO 36005KT 9999 // SCT005 16/15 Q1022
2026-03-22 21:03:00,SPECI YMML 222103Z AUTO 36004KT 9999 // BKN005 14/13 Q1022
2026-03-22 20:30:00,METAR YMML 222030Z AUTO 01007KT 9999 // NCD 14/13 Q1021
2026-03-22 20:00:00,METAR YMML 222000Z AUTO 02007KT 9999 // NCD 13/12 Q1021
2026-03-22 19:30:00,METAR YMML 221930Z AUTO 01007KT 9999 // NCD 14/12 Q1021
2026-03-22 19:00:00,METAR YMML 221900Z AUTO 35001KT 9999 // NCD 13/12 Q1021
2026-03-22 18:30:00,METAR YMML 221830Z AUTO 00000KT 9999 // NCD 13/12 Q1021
2026-03-22 18:00:00,METAR YMML 221800Z AUTO 02007KT 9999 // NCD 15/13 Q1020
2026-03-22 17:30:00,METAR YMML 221730Z AUTO 01005KT 9999 // NCD 15/13 Q1020
2026-03-22 17:00:00,METAR YMML 221700Z AUTO 36004KT 9999 // NCD 15/14 Q1020
2026-03-22 16:30:00,METAR YMML 221630Z AUTO 36006KT 9999 // NCD 15/14 Q1020
2026-03-22 16:00:00,METAR YMML 221600Z AUTO 01007KT 9999 // NCD 15/14 Q1021
2026-03-22 15:30:00,METAR YMML 221530Z AUTO 01006KT 9999 // NCD 15/14 Q1021
2026-03-22 15:00:00,METAR YMML 221500Z AUTO 33004KT 9999 // NCD 16/14 Q1021
2026-03-22 14:30:00,METAR YMML 221430Z AUTO 31005KT 9999 // NCD 16/14 Q1021
2026-03-22 14:00:00,METAR YMML 221400Z AUTO 27006KT 9999 // NCD 16/14 Q1021
2026-03-22 13:30:00,METAR YMML 221330Z AUTO 27007KT 9999 // NCD 17/14 Q1021
2026-03-22 13:00:00,METAR YMML 221300Z AUTO 28006KT 9999 // NCD 17/15 Q1021
2026-03-22 12:30:00,METAR YMML 221230Z AUTO 29007KT 9999 // NCD 17/14 Q1021
2026-03-22 12:00:00,METAR YMML 221200Z AUTO 25005KT 9999 // NCD 18/14 Q1021
2026-03-22 11:30:00,METAR YMML 221130Z AUTO 21007KT 9999 // NCD 19/15 Q1021
2026-03-22 11:00:00,METAR YMML 221100Z AUTO 19009KT 9999 // NCD 20/15 Q1021
2026-03-22 10:30:00,METAR YMML 221030Z AUTO 21010KT 9999 // FEW084 22/15 Q1020
2026-03-22 10:00:00,METAR YMML 221000Z AUTO 36009KT 9999 // NCD 25/13 Q1019
2026-03-22 09:30:00,METAR YMML 220930Z AUTO 01010KT 9999 // NCD 24/13 Q1019
2026-03-22 09:00:00,METAR YMML 220900Z AUTO 01009KT 9999 // NCD 25/13 Q1019
2026-03-22 08:30:00,METAR YMML 220830Z AUTO 36008KT 9999 // NCD 26/12 Q1019
2026-03-22 08:00:00,METAR YMML 220800Z AUTO 35008KT 9999 // NCD 28/12 Q1018
2026-03-22 07:30:00,METAR YMML 220730Z AUTO 36010KT 9999 // NCD 28/12 Q1018
2026-03-22 07:00:00,METAR YMML 220700Z AUTO 35010KT 290V360 9999 // NCD 29/11 Q1018
2026-03-22 06:30:00,METAR YMML 220630Z AUTO 32008KT 310V010 9999 // FEW074 29/11 Q1018
2026-03-22 06:00:00,METAR YMML 220600Z AUTO 33011KT 320V030 9999 // SCT074 30/10 Q1018
2026-03-22 05:57:00,SPECI YMML 220557Z AUTO 02016G31KT 9999 // BKN074 30/11 Q1018
2026-03-22 05:30:00,METAR YMML 220530Z AUTO 36010KT 9999 // SCT074 30/11 Q1018
2026-03-22 05:00:00,METAR YMML 220500Z AUTO 35011KT 9999 // FEW072 29/10 Q1018
2026-03-22 04:30:00,METAR YMML 220430Z AUTO 34010KT 310V010 9999 // NCD 29/13 Q1018
2026-03-22 04:00:00,METAR YMML 220400Z AUTO 35011KT 310V010 9999 // SCT069 29/13 Q1019
2026-03-22 03:30:00,METAR YMML 220330Z AUTO 35014KT 310V010 9999 // SCT067 29/12 Q1019
2026-03-22 03:00:00,METAR YMML 220300Z AUTO 35012KT 9999 // SCT069 29/12 Q1019
2026-03-22 02:30:00,METAR YMML 220230Z AUTO 32011KT 310V020 9999 // BKN072 29/13 Q1020
2026-03-22 02:00:00,METAR YMML 220200Z AUTO 01015KT 9999 // BKN072 28/13 Q1020
2026-03-22 01:30:00,METAR YMML 220130Z AUTO 02016KT 9999 // SCT070 28/13 Q1020
2026-03-22 01:00:00,METAR YMML 220100Z AUTO 02015KT 9999 // NCD 27/14 Q1020
2026-03-22 00:30:00,METAR YMML 220030Z AUTO 01016KT 9999 // NCD 27/13 Q1020
2026-03-22 00:00:00,METAR YMML 220000Z AUTO 01016KT 9999 // NCD 25/13 Q1021
2026-03-21 23:30:00,METAR YMML 212330Z AUTO 01017KT 9999 // NCD 24/14 Q1021
2026-03-21 23:00:00,METAR YMML 212300Z AUTO 01015KT 9999 // NCD 23/15 Q1021
2026-03-21 22:30:00,METAR YMML 212230Z AUTO 01010KT 9999 // NCD 20/15 Q1021
2026-03-21 22:00:00,METAR YMML 212200Z AUTO 02011KT 9999 // NCD 17/13 Q1021
2026-03-21 21:30:00,METAR YMML 212130Z AUTO 29006KT 220V010 9999 // NCD 14/12 Q1021
2026-03-21 21:00:00,METAR YMML 212100Z AUTO 03008KT 9999 // NCD 14/12 Q1020
2026-03-21 20:30:00,METAR YMML 212030Z AUTO 02007KT 9999 // NCD 12/11 Q1020
2026-03-21 20:00:00,METAR YMML 212000Z AUTO 01007KT 9999 // NCD 13/12 Q1020
2026-03-21 19:30:00,METAR YMML 211930Z AUTO 01010KT 9999 // NCD 13/12 Q1020
2026-03-21 19:00:00,METAR YMML 211900Z AUTO 01009KT 9999 // NCD 13/12 Q1020
2026-03-21 18:30:00,METAR YMML 211830Z AUTO 01009KT 9999 // NCD 13/13 Q1020
2026-03-21 18:00:00,METAR YMML 211800Z AUTO 01010KT 9999 // NCD 14/13 Q1019
2026-03-21 17:30:00,METAR YMML 211730Z AUTO 34005KT 9999 // NCD 13/12 Q1019
2026-03-21 17:00:00,METAR YMML 211700Z AUTO 33005KT 9999 // NCD 14/13 Q1019
2026-03-21 16:39:00,SPECI YMML 211639Z AUTO 33005KT 9999 // FEW012 14/13 Q1020
2026-03-21 16:30:00,METAR YMML 211630Z AUTO 33004KT 9999 // SCT012 15/13 Q1020
2026-03-21 16:00:00,METAR YMML 211600Z AUTO 32005KT 9999 // OVC012 15/14 Q1020
2026-03-21 15:30:00,METAR YMML 211530Z AUTO 29004KT 9999 // OVC012 16/15 Q1020
2026-03-21 15:00:00,SPECI YMML 211500Z AUTO 29006KT 9999 // OVC012 16/16 Q1020
2026-03-21 14:30:00,METAR YMML 211430Z AUTO 29005KT 9999 // OVC010 17/16 Q1020
2026-03-21 14:00:00,METAR YMML 211400Z AUTO 31005KT 9999 // OVC008 17/16 Q1020
2026-03-21 13:30:00,METAR YMML 211330Z AUTO 31005KT 9999 // BKN006 OVC009 16/16 Q1020
2026-03-21 13:00:00,METAR YMML 211300Z AUTO 30005KT 9999 // BKN011 15/15 Q1020
2026-03-21 12:53:00,SPECI YMML 211253Z AUTO 29006KT 9999 // BKN013 15/14 Q1021
2026-03-21 12:30:00,METAR YMML 211230Z AUTO 29007KT 9999 // NCD 14/14 Q1021
2026-03-21 12:00:00,METAR YMML 211200Z AUTO 29007KT 9999 // NCD 15/14 Q1021
2026-03-21 11:30:00,METAR YMML 211130Z AUTO 28005KT 9999 // NCD 15/14 Q1021
2026-03-21 11:00:00,METAR YMML 211100Z AUTO 27006KT 9999 // NCD 15/14 Q1021
2026-03-21 10:30:00,METAR YMML 211030Z AUTO 26004KT 9999 // NCD 16/14 Q1021
2026-03-21 10:00:00,METAR YMML 211000Z AUTO 22004KT 9999 // NCD 17/15 Q1020
2026-03-21 09:30:00,METAR YMML 210930Z AUTO 21005KT 9999 // NCD 17/15 Q1020
2026-03-21 09:00:00,METAR YMML 210900Z AUTO 20006KT 9999 // NCD 18/14 Q1020
2026-03-21 08:30:00,METAR YMML 210830Z AUTO 21006KT 9999 // NCD 19/15 Q1020
2026-03-21 08:00:00,METAR YMML 210800Z AUTO 19008KT 9999 // NCD 20/14 Q1020
2026-03-21 07:30:00,METAR YMML 210730Z AUTO 18009KT 9999 // NCD 21/14 Q1020
2026-03-21 07:00:00,METAR YMML 210700Z AUTO 19010KT 9999 // NCD 21/14 Q1020
2026-03-21 06:30:00,METAR YMML 210630Z AUTO 18010KT 9999 // NCD 22/13 Q1020
2026-03-21 06:00:00,METAR YMML 210600Z AUTO 19012KT 9999 // NCD 22/13 Q1019
2026-03-21 05:30:00,METAR YMML 210530Z AUTO 17007KT 9999 // NCD 23/11 Q1019
2026-03-21 05:00:00,METAR YMML 210500Z AUTO 17008KT 140V200 9999 // NCD 23/10 Q1020
2026-03-21 04:30:00,METAR YMML 210430Z AUTO 18007KT 160V230 9999 // NCD 23/12 Q1020
2026-03-21 04:00:00,METAR YMML 210400Z AUTO 17009KT 9999 // NCD 22/13 Q1020
2026-03-21 03:30:00,METAR YMML 210330Z AUTO 16007KT 110V190 9999 // NCD 22/12 Q1020
2026-03-21 03:00:00,METAR YMML 210300Z AUTO 17007KT 140V210 9999 // NCD 22/13 Q1020
2026-03-21 02:30:00,METAR YMML 210230Z AUTO 18006KT 140V210 9999 // NCD 22/12 Q1020
2026-03-21 02:00:00,METAR YMML 210200Z AUTO 15006KT 9999 // NCD 21/12 Q1021
2026-03-21 01:30:00,METAR YMML 210130Z AUTO 13006KT 110V180 9999 // FEW029 20/12 Q1021
2026-03-21 01:00:00,METAR YMML 210100Z AUTO 24003KT 9999 // NCD 20/13 Q1021
2026-03-21 00:30:00,METAR YMML 210030Z AUTO 10003KT 9999 // BKN023 19/12 Q1022
2026-03-21 00:00:00,METAR YMML 210000Z AUTO 19004KT 150V230 9999 // OVC021 18/12 Q1022
2026-03-20 23:30:00,METAR YMML 202330Z AUTO 13005KT 9999 // OVC021 17/12 Q1022
2026-03-20 23:00:00,METAR YMML 202300Z AUTO 07005KT 050V110 9999 // OVC021 17/12 Q1022
2026-03-20 22:30:00,METAR YMML 202230Z AUTO 04005KT 9999 // OVC021 16/14 Q1022
2026-03-20 22:00:00,METAR YMML 202200Z AUTO 05005KT 9999 // OVC021 15/14 Q1021
2026-03-20 21:30:00,METAR YMML 202130Z AUTO 06007KT 9999 // OVC021 15/13 Q1021
2026-03-20 21:00:00,METAR YMML 202100Z AUTO 10007KT 9999 // FEW005 OVC019 14/13 Q1021
2026-03-20 20:57:00,SPECI YMML 202057Z AUTO 10007KT 9999 // FEW005 OVC019 14/13 Q1021
2026-03-20 20:31:00,SPECI YMML 202031Z AUTO 16007KT 9999 // BKN006 OVC017 14/13 Q1021
2026-03-20 20:22:00,SPECI YMML 202022Z AUTO 15007KT 9999 // FEW006 OVC017 14/13 Q1021
2026-03-20 20:00:00,METAR YMML 202000Z AUTO 15007KT 9999 // OVC015 15/13 Q1020
2026-03-20 19:30:00,METAR YMML 201930Z AUTO 18006KT 9999 // OVC013 15/14 Q1020
2026-03-20 19:00:00,METAR YMML 201900Z AUTO 24001KT 9999 // OVC013 15/14 Q1020
2026-03-20 18:30:00,METAR YMML 201830Z AUTO 00000KT 9999 // OVC011 15/14 Q1019
2026-03-20 18:00:00,METAR YMML 201800Z AUTO 00000KT 9999 // OVC011 15/14 Q1019
2026-03-20 17:30:00,METAR YMML 201730Z AUTO 25002KT 9999 // OVC011 14/13 Q1019
2026-03-20 17:00:00,METAR YMML 201700Z AUTO 28005KT 9999 // OVC011 14/13 Q1019
2026-03-20 16:30:00,METAR YMML 201630Z AUTO 30006KT 9999 // OVC011 14/13 Q1019
2026-03-20 16:00:00,METAR YMML 201600Z AUTO 00000KT 9999 // BKN013 12/11 Q1019
2026-03-20 15:50:00,SPECI YMML 201550Z AUTO 00000KT 9999 // BKN015 12/12 Q1019
2026-03-20 15:30:00,METAR YMML 201530Z AUTO 00000KT 9999 // NCD 12/11 Q1019
2026-03-20 15:00:00,METAR YMML 201500Z AUTO 36001KT 9999 // NCD 12/11 Q1020
2026-03-20 14:30:00,METAR YMML 201430Z AUTO 31003KT 9999 // NCD 13/12 Q1020
2026-03-20 14:00:00,METAR YMML 201400Z AUTO 30006KT 9999 // NCD 12/11 Q1020
2026-03-20 13:30:00,METAR YMML 201330Z AUTO 29005KT 9999 // NCD 13/12 Q1020
2026-03-20 13:00:00,METAR YMML 201300Z AUTO 29006KT 9999 // NCD 12/11 Q1020
2026-03-20 12:30:00,METAR YMML 201230Z AUTO 19004KT 9999 // NCD 14/12 Q1020
2026-03-20 12:00:00,METAR YMML 201200Z AUTO 19005KT 9999 // NCD 14/12 Q1020
2026-03-20 11:30:00,METAR YMML 201130Z AUTO 17007KT 9999 // NCD 14/12 Q1020
2026-03-20 11:00:00,METAR YMML 201100Z AUTO 22005KT 9999 // NCD 15/13 Q1020
2026-03-20 10:30:00,METAR YMML 201030Z AUTO 22005KT 9999 // NCD 15/13 Q1020
2026-03-20 10:00:00,METAR YMML 201000Z AUTO 22005KT 9999 // NCD 15/13 Q1020
2026-03-20 09:30:00,METAR YMML 200930Z AUTO 21006KT 9999 // NCD 15/13 Q1019
2026-03-20 09:00:00,METAR YMML 200900Z AUTO 20007KT 9999 // NCD 16/13 Q1019
2026-03-20 08:30:00,METAR YMML 200830Z AUTO 19009KT 9999 // NCD 17/13 Q1019
2026-03-20 08:00:00,METAR YMML 200800Z AUTO 18010KT 9999 // NCD 18/13 Q1019
2026-03-20 07:30:00,METAR YMML 200730Z AUTO 18010KT 9999 // NCD 19/13 Q1018
2026-03-20 07:00:00,METAR YMML 200700Z AUTO 17011KT 9999 // NCD 20/13 Q1018
2026-03-20 06:30:00,METAR YMML 200630Z AUTO 17009KT 9999 // NCD 21/13 Q1018
2026-03-20 06:00:00,METAR YMML 200600Z AUTO 19009KT 9999 // NCD 22/12 Q1018
2026-03-20 05:30:00,METAR YMML 200530Z AUTO 18006KT 150V210 9999 // NCD 22/13 Q1018
2026-03-20 05:00:00,METAR YMML 200500Z AUTO 19007KT 9999 // NCD 22/13 Q1018
2026-03-20 04:30:00,METAR YMML 200430Z AUTO 16008KT 130V210 9999 // NCD 22/13 Q1018
2026-03-20 04:00:00,METAR YMML 200400Z AUTO 19008KT 150V220 9999 // NCD 22/12 Q1018
2026-03-20 03:30:00,METAR YMML 200330Z AUTO 18005KT 9999 // NCD 21/11 Q1019
2026-03-20 03:00:00,METAR YMML 200300Z AUTO 18006KT 9999 // NCD 21/11 Q1019
2026-03-20 02:30:00,METAR YMML 200230Z AUTO 21007KT 180V240 9999 // NCD 20/11 Q1019
2026-03-20 02:00:00,METAR YMML 200200Z AUTO 12004KT 050V180 9999 // NCD 20/12 Q1020
2026-03-20 01:30:00,METAR YMML 200130Z AUTO 24004KT 9999 // BKN025 19/12 Q1020
2026-03-20 01:00:00,METAR YMML 200100Z AUTO 14004KT 090V220 9999 // OVC023 19/13 Q1020
2026-03-20 00:30:00,METAR YMML 200030Z AUTO 15004KT 9999 // OVC023 18/11 Q1021
2026-03-20 00:00:00,METAR YMML 200000Z AUTO 16005KT 140V210 9999 // OVC023 17/11 Q1021
2026-03-19 23:30:00,METAR YMML 192330Z AUTO 18005KT 9999 // OVC021 17/12 Q1021
2026-03-19 23:00:00,METAR YMML 192300Z AUTO 15005KT 100V200 9999 // OVC021 16/11 Q1021
2026-03-19 22:30:00,METAR YMML 192230Z AUTO 10004KT 9999 // OVC020 16/12 Q1020
2026-03-19 22:00:00,METAR YMML 192200Z AUTO 09005KT 9999 // OVC020 16/12 Q1020
2026-03-19 21:30:00,METAR YMML 192130Z AUTO 13005KT 110V170 9999 // OVC022 16/11 Q1020
2026-03-19 21:00:00,METAR YMML 192100Z AUTO 15003KT 9999 // OVC022 16/12 Q1019
2026-03-19 20:30:00,METAR YMML 192030Z AUTO 18003KT 9999 // OVC022 15/12 Q1019
2026-03-19 20:00:00,METAR YMML 192000Z AUTO 19003KT 9999 // OVC024 15/12 Q1019
2026-03-19 19:30:00,METAR YMML 191930Z AUTO 17003KT 9999 // OVC024 15/12 Q1018
2026-03-19 19:00:00,METAR YMML 191900Z AUTO 16002KT 9999 // OVC024 15/12 Q1018
2026-03-19 18:30:00,METAR YMML 191830Z AUTO 18002KT 9999 // OVC024 15/12 Q1018
2026-03-19 18:00:00,METAR YMML 191800Z AUTO 16002KT 9999 // OVC024 15/12 Q1018
2026-03-19 17:30:00,METAR YMML 191730Z AUTO 15004KT 9999 // FEW016 OVC024 15/12 Q1018
2026-03-19 17:23:00,SPECI YMML 191723Z AUTO 15004KT 9999 // FEW016 OVC024 15/12 Q1018
2026-03-19 17:00:00,METAR YMML 191700Z AUTO 20003KT 9999 // BKN016 OVC026 15/12 Q1019
2026-03-19 16:30:00,SPECI YMML 191630Z AUTO 16003KT 9999 // BKN016 OVC027 15/12 Q1019
2026-03-19 16:12:00,SPECI YMML 191612Z AUTO 13004KT 9999 // BKN016 OVC025 15/12 Q1019
2026-03-19 16:00:00,METAR YMML 191600Z AUTO 13003KT 9999 // FEW016 OVC025 15/12 Q1019
2026-03-19 15:30:00,METAR YMML 191530Z AUTO 12003KT 9999 // OVC027 15/12 Q1019
2026-03-19 15:00:00,METAR YMML 191500Z AUTO 11003KT 9999 // OVC027 15/12 Q1019
2026-03-19 14:30:00,METAR YMML 191430Z AUTO 13004KT 9999 // OVC027 16/12 Q1020
2026-03-19 14:00:00,METAR YMML 191400Z AUTO 17005KT 9999 // OVC027 16/12 Q1020
2026-03-19 13:30:00,METAR YMML 191330Z AUTO 20005KT 9999 // OVC027 16/13 Q1020
2026-03-19 13:00:00,METAR YMML 191300Z AUTO 17006KT 9999 // OVC023 16/12 Q1020
2026-03-19 12:30:00,METAR YMML 191230Z AUTO 15005KT 9999 // OVC023 17/13 Q1020
2026-03-19 12:00:00,METAR YMML 191200Z AUTO 18006KT 9999 // OVC025 17/12 Q1020
2026-03-19 11:30:00,METAR YMML 191130Z AUTO 16005KT 9999 // OVC025 17/12 Q1020
2026-03-19 11:00:00,METAR YMML 191100Z AUTO 15006KT 9999 // OVC025 17/13 Q1020
2026-03-19 10:30:00,METAR YMML 191030Z AUTO 15007KT 9999 // OVC025 17/13 Q1020
2026-03-19 10:00:00,METAR YMML 191000Z AUTO 16007KT 9999 // OVC025 17/14 Q1020
2026-03-19 09:30:00,METAR YMML 190930Z AUTO 17008KT 9999 // OVC027 17/14 Q1020
2026-03-19 09:00:00,METAR YMML 190900Z AUTO 17007KT 9999 // OVC027 17/14 Q1020
2026-03-19 08:30:00,METAR YMML 190830Z AUTO 17009KT 9999 // FEW017 OVC027 18/14 Q1020
2026-03-19 08:00:00,METAR YMML 190800Z AUTO 18008KT 9999 // OVC029 18/14 Q1019
2026-03-19 07:30:00,METAR YMML 190730Z AUTO 17007KT 9999 // SCT020 OVC029 18/14 Q1019
2026-03-19 07:00:00,METAR YMML 190700Z AUTO 15007KT 9999 // OVC029 18/14 Q1019
2026-03-19 06:30:00,METAR YMML 190630Z AUTO 16008KT 9999 // OVC029 18/14 Q1019
2026-03-19 06:00:00,METAR YMML 190600Z AUTO 17009KT 9999 // FEW020 OVC029 18/15 Q1019
2026-03-19 05:30:00,METAR YMML 190530Z AUTO 17008KT 9999 // FEW020 OVC025 19/14 Q1019
2026-03-19 05:00:00,METAR YMML 190500Z AUTO 18007KT 9999 // OVC025 19/15 Q1019
2026-03-19 04:30:00,METAR YMML 190430Z AUTO 20007KT 9999 // OVC023 18/15 Q1019
2026-03-19 04:19:00,SPECI YMML 190419Z AUTO 20008KT 9999 // BKN019 OVC023 18/15 Q1019
2026-03-19 04:00:00,METAR YMML 190400Z AUTO 19006KT 9999 // BKN016 OVC019 18/15 Q1019
2026-03-19 03:30:00,METAR YMML 190330Z AUTO 18008KT 9999 // OVC016 18/15 Q1020
2026-03-19 03:00:00,METAR YMML 190300Z AUTO 19009KT 9999 // OVC014 17/15 Q1020
2026-03-19 02:30:00,METAR YMML 190230Z AUTO 19009KT 9999 // BKN010 OVC016 17/16 Q1020
2026-03-19 02:00:00,METAR YMML 190200Z AUTO 18007KT 9999 // BKN008 BKN013 OVC018 17/16 Q1020
2026-03-19 01:30:00,METAR YMML 190130Z AUTO 17008KT 9999 // BKN006 BKN011 OVC017 17/16 Q1021
2026-03-19 01:29:00,SPECI YMML 190129Z AUTO 17008KT 9999 // BKN006 BKN011 OVC017 17/16 Q1021
2026-03-19 01:00:00,SPECI YMML 190100Z AUTO 17009KT 5000 BR BKN005 BKN013 OVC018 17/16 Q1021
2026-03-19 00:46:00,SPECI YMML 190046Z AUTO 18009KT 6000 // BKN005 OVC011 17/16 Q1021
2026-03-19 00:30:00,METAR YMML 190030Z AUTO 18009KT 7000 // OVC005 17/16 Q1021
2026-03-19 00:24:00,SPECI YMML 190024Z AUTO 19009KT 7000 // OVC004 17/16 Q1021
2026-03-19 00:07:00,SPECI YMML 190007Z AUTO 19009KT 6000 // OVC004 17/16 Q1021
2026-03-19 00:00:00,METAR YMML 190000Z AUTO 18008KT 8000 // OVC004 17/16 Q1021
2026-03-18 23:49:00,SPECI YMML 182349Z AUTO 19009KT 8000 // BKN004 OVC009 17/16 Q1021
2026-03-18 23:30:00,SPECI YMML 182330Z AUTO 18009KT 5000 BR OVC004 OVC011 17/16 Q1020
2026-03-18 23:08:00,SPECI YMML 182308Z AUTO 19009KT 6000 // OVC004 17/16 Q1021
2026-03-18 23:00:00,METAR YMML 182300Z AUTO 19010KT 8000 // OVC004 16/16 Q1020
2026-03-18 22:30:00,METAR YMML 182230Z AUTO 19008KT 9999 // OVC003 17/16 Q1020
2026-03-18 22:24:00,SPECI YMML 182224Z AUTO 19008KT 9999 // OVC003 17/16 Q1020
2026-03-18 22:10:00,SPECI YMML 182210Z AUTO 20008KT 6000 // OVC003 16/16 Q1020
2026-03-18 22:00:00,METAR YMML 182200Z AUTO 19009KT 7000 // OVC003 16/16 Q1020
2026-03-18 21:55:00,SPECI YMML 182155Z AUTO 19009KT 8000 // OVC003 16/16 Q1020
2026-03-18 21:30:00,SPECI YMML 182130Z AUTO 20010KT 6000 -SHRA OVC003 16/16 Q1020
2026-03-18 21:06:00,SPECI YMML 182106Z AUTO 21008KT 2500 -DZ BR OVC002 16/16 Q1020
2026-03-18 21:00:00,SPECI YMML 182100Z AUTO 22008KT 2800 -DZ BR OVC002 16/16 Q1020
2026-03-18 20:30:00,SPECI YMML 182030Z AUTO 24005KT 2900 BR OVC003 16/16 Q1019
2026-03-18 20:00:00,SPECI YMML 182000Z AUTO 26004KT 4200 BR OVC005 16/16 Q1019
2026-03-18 19:30:00,SPECI YMML 181930Z AUTO 24004KT 4200 BR BKN004 BKN008 OVC018 16/16 Q1019
2026-03-18 19:00:00,SPECI YMML 181900Z AUTO 24005KT 4400 BR BKN006 OVC013 16/16 Q1019
2026-03-18 18:30:00,METAR YMML 181830Z AUTO 27004KT 6000 // BKN007 OVC013 16/15 Q1019
2026-03-18 18:26:00,SPECI YMML 181826Z AUTO 27004KT 6000 // BKN007 OVC013 16/15 Q1019
2026-03-18 18:00:00,METAR YMML 181800Z AUTO 25004KT 9999 // OVC011 16/15 Q1019
2026-03-18 17:30:00,SPECI YMML 181730Z AUTO 23006KT 9999 // BKN009 OVC013 17/15 Q1019
2026-03-18 17:00:00,METAR YMML 181700Z AUTO 22006KT 9999 // OVC009 17/15 Q1019
2026-03-18 16:30:00,METAR YMML 181630Z AUTO 22006KT 9999 // BKN009 OVC013 17/15 Q1019
2026-03-18 16:00:00,METAR YMML 181600Z AUTO 22006KT 9999 // OVC013 17/15 Q1019
2026-03-18 15:30:00,METAR YMML 181530Z AUTO 23004KT 9999 // OVC011 17/15 Q1019
2026-03-18 15:00:00,METAR YMML 181500Z AUTO 22004KT 9999 // OVC011 17/15 Q1020
2026-03-18 14:30:00,METAR YMML 181430Z AUTO 23005KT 9999 // OVC009 17/15 Q1020
2026-03-18 14:00:00,METAR YMML 181400Z AUTO 22008KT 9999 // OVC011 17/15 Q1020
2026-03-18 13:30:00,METAR YMML 181330Z AUTO 21007KT 9999 // OVC011 17/15 Q1020
2026-03-18 13:00:00,METAR YMML 181300Z AUTO 20006KT 9999 // OVC011 17/15 Q1020
2026-03-18 12:30:00,METAR YMML 181230Z AUTO 22005KT 9999 // OVC011 17/15 Q1020
2026-03-18 12:00:00,METAR YMML 181200Z AUTO 22007KT 9999 // OVC011 OVC019 18/15 Q1021
2026-03-18 11:33:00,SPECI YMML 181133Z AUTO 23007KT 9999 // BKN011 OVC019 18/16 Q1021
2026-03-18 11:28:00,SPECI YMML 181128Z AUTO 23007KT 9999 // SCT011 OVC017 18/16 Q1021
2026-03-18 11:00:00,METAR YMML 181100Z AUTO 20009KT 9999 // BKN014 OVC020 18/15 Q1021
2026-03-18 10:30:00,METAR YMML 181030Z AUTO 21009KT 9999 // OVC012 18/15 Q1021
2026-03-18 10:00:00,METAR YMML 181000Z AUTO 21010KT 9999 // BKN012 OVC070 18/16 Q1020
2026-03-18 09:30:00,METAR YMML 180930Z AUTO 20009KT 9999 // BKN014 OVC068 19/16 Q1020
2026-03-18 09:00:00,METAR YMML 180900Z AUTO 19007KT 9999 // OVC070 19/15 Q1019
2026-03-18 08:30:00,METAR YMML 180830Z AUTO 18008KT 9999 // OVC070 19/16 Q1019
2026-03-18 08:00:00,METAR YMML 180800Z AUTO 18006KT 9999 // OVC070 20/15 Q1019
2026-03-18 07:30:00,METAR YMML 180730Z AUTO 18006KT 9999 // OVC066 20/15 Q1018
2026-03-18 07:00:00,METAR YMML 180700Z AUTO 20008KT 9999 // OVC062 20/15 Q1018
2026-03-18 06:30:00,METAR YMML 180630Z AUTO 18009KT 9999 // OVC062 21/15 Q1018
2026-03-18 06:00:00,METAR YMML 180600Z AUTO 19007KT 9999 // BKN060 22/15 Q1018
2026-03-18 05:30:00,METAR YMML 180530Z AUTO 20005KT 170V230 9999 // NCD 23/16 Q1018
2026-03-18 05:00:00,METAR YMML 180500Z AUTO 19005KT 9999 // NCD 23/15 Q1018
2026-03-18 04:30:00,METAR YMML 180430Z AUTO 18006KT 9999 // NCD 22/15 Q1019
2026-03-18 04:00:00,METAR YMML 180400Z AUTO 19005KT 130V210 //// // NCD 22/14 Q1019
2026-03-18 03:30:00,METAR YMML 180330Z AUTO 22003KT //// // NCD 22/15 Q1020
2026-03-18 03:00:00,METAR YMML 180300Z AUTO 19005KT 160V230 9999 // NCD 21/14 Q1020
2026-03-18 02:30:00,METAR YMML 180230Z AUTO 25004KT 220V280 9999 // NCD 20/15 Q1020
2026-03-18 02:00:00,METAR YMML 180200Z AUTO 26004KT 9999 // FEW014 SCT035 19/14 Q1021
2026-03-18 01:55:00,SPECI YMML 180155Z AUTO 28004KT 250V350 9999 // FEW014 SCT035 20/15 Q1021
2026-03-18 01:30:00,METAR YMML 180130Z AUTO 26004KT 230V300 9999 // BKN012 19/15 Q1021
2026-03-18 01:00:00,METAR YMML 180100Z AUTO 32003KT 9999 // OVC012 17/14 Q1022
2026-03-18 00:30:00,METAR YMML 180030Z AUTO 30005KT 9999 // OVC010 17/13 Q1022
2026-03-18 00:00:00,METAR YMML 180000Z AUTO 26005KT 9999 // OVC008 16/14 Q1022
2026-03-17 23:30:00,METAR YMML 172330Z AUTO 23003KT 9999 // OVC006 16/13 Q1022
2026-03-17 23:00:00,METAR YMML 172300Z AUTO 22005KT 9999 // OVC006 15/14 Q1022
2026-03-17 22:30:00,METAR YMML 172230Z AUTO 23004KT 9999 // OVC006 15/13 Q1022
2026-03-17 22:00:00,METAR YMML 172200Z AUTO 23004KT 9999 // OVC006 15/13 Q1022
2026-03-17 21:30:00,METAR YMML 172130Z AUTO 26005KT 9999 // OVC006 14/13 Q1022
2026-03-17 21:00:00,METAR YMML 172100Z AUTO 28006KT 9999 // OVC009 13/13 Q1022
2026-03-17 20:31:00,SPECI YMML 172031Z AUTO 27004KT 9999 // BKN009 12/12 Q1021
2026-03-17 20:00:00,METAR YMML 172000Z AUTO 27007KT 9999 // NCD 13/12 Q1021
2026-03-17 19:30:00,METAR YMML 171930Z AUTO 28007KT 9999 // NCD 12/12 Q1021
2026-03-17 19:00:00,METAR YMML 171900Z AUTO 28006KT 9999 // NCD 12/12 Q1021
2026-03-17 18:30:00,METAR YMML 171830Z AUTO 28006KT 9999 // NCD 12/11 Q1021
2026-03-17 18:00:00,METAR YMML 171800Z AUTO 27006KT 9999 // BKN030 13/12 Q1021
2026-03-17 17:30:00,METAR YMML 171730Z AUTO 25004KT 9999 // OVC030 14/13 Q1021
2026-03-17 17:00:00,METAR YMML 171700Z AUTO 25004KT 9999 // OVC030 14/13 Q1021
2026-03-17 16:30:00,METAR YMML 171630Z AUTO 23005KT 9999 // OVC032 15/13 Q1021
2026-03-17 16:00:00,METAR YMML 171600Z AUTO 28004KT 9999 // OVC032 15/13 Q1021
2026-03-17 15:30:00,METAR YMML 171530Z AUTO 26005KT 9999 // OVC034 15/13 Q1021
2026-03-17 15:00:00,METAR YMML 171500Z AUTO 22004KT 9999 // OVC034 15/12 Q1021
2026-03-17 14:30:00,METAR YMML 171430Z AUTO 21003KT 9999 // OVC034 15/12 Q1022
2026-03-17 14:00:00,METAR YMML 171400Z AUTO 21003KT 9999 // OVC036 15/12 Q1022
2026-03-17 13:30:00,METAR YMML 171330Z AUTO 20004KT 9999 // OVC036 15/12 Q1022
2026-03-17 13:00:00,METAR YMML 171300Z AUTO 20004KT 9999 // OVC038 16/12 Q1022
2026-03-17 12:30:00,METAR YMML 171230Z AUTO 17005KT 9999 // OVC038 16/12 Q1022
2026-03-17 12:00:00,METAR YMML 171200Z AUTO 17007KT 9999 // OVC038 16/12 Q1022
2026-03-17 11:30:00,METAR YMML 171130Z AUTO 16006KT 9999 // OVC038 16/12 Q1022
2026-03-17 11:00:00,METAR YMML 171100Z AUTO 16007KT 9999 // OVC038 17/13 Q1021
2026-03-17 10:30:00,METAR YMML 171030Z AUTO 16008KT 9999 // FEW022 OVC036 17/13 Q1021
2026-03-17 10:00:00,METAR YMML 171000Z AUTO 18007KT 9999 // SCT022 OVC038 18/13 Q1021
2026-03-17 09:30:00,METAR YMML 170930Z AUTO 18009KT 9999 // BKN020 OVC038 18/13 Q1021
2026-03-17 09:00:00,METAR YMML 170900Z AUTO 18009KT 9999 // FEW020 OVC038 18/14 Q1020
2026-03-17 08:30:00,METAR YMML 170830Z AUTO 18011KT 9999 // FEW025 OVC038 18/14 Q1020
2026-03-17 08:00:00,METAR YMML 170800Z AUTO 19010KT 9999 // SCT023 OVC041 18/14 Q1020
2026-03-17 07:30:00,METAR YMML 170730Z AUTO 19011KT 9999 // FEW027 BKN039 OVC047 19/14 Q1019
2026-03-17 07:00:00,METAR YMML 170700Z AUTO 18010KT 9999 // FEW021 BKN037 OVC047 19/15 Q1019
2026-03-17 06:30:00,METAR YMML 170630Z AUTO 16009KT 9999 // BKN021 OVC047 20/14 Q1019
2026-03-17 06:00:00,METAR YMML 170600Z AUTO 19010KT 9999 // FEW021 SCT035 OVC047 20/15 Q1019
2026-03-17 05:30:00,METAR YMML 170530Z AUTO 18011KT 9999 // FEW022 OVC033 OVC047 20/15 Q1019
2026-03-17 05:00:00,METAR YMML 170500Z AUTO 19011KT 9999 // BKN025 OVC033 20/14 Q1019
2026-03-17 04:30:00,METAR YMML 170430Z AUTO 19010KT 9999 // BKN025 OVC033 19/14 Q1019
2026-03-17 04:00:00,METAR YMML 170400Z AUTO 19010KT 9999 // OVC025 19/14 Q1019
2026-03-17 03:30:00,METAR YMML 170330Z AUTO 19010KT 9999 // BKN021 OVC025 19/14 Q1019
2026-03-17 03:00:00,METAR YMML 170300Z AUTO 18010KT 9999 // OVC021 19/14 Q1019
2026-03-17 02:30:00,METAR YMML 170230Z AUTO 19009KT 9999 // OVC019 19/14 Q1019
2026-03-17 02:00:00,METAR YMML 170200Z AUTO 19008KT 9999 // OVC019 19/15 Q1019
2026-03-17 01:39:00,SPECI YMML 170139Z AUTO 19008KT 9999 // OVC019 18/15 Q1019
2026-03-17 01:30:00,METAR YMML 170130Z AUTO 18008KT 9999 // OVC017 18/15 Q1019
2026-03-17 01:00:00,METAR YMML 170100Z AUTO 17007KT 9999 // BKN011 OVC017 18/15 Q1019
2026-03-17 00:30:00,METAR YMML 170030Z AUTO 18009KT 9999 // BKN009 OVC015 17/16 Q1019
2026-03-17 00:00:00,METAR YMML 170000Z AUTO 17009KT 9999 // SCT005 BKN011 OVC042 17/15 Q1019
2026-03-16 23:54:00,SPECI YMML 162354Z AUTO 17008KT 9999 -DZ FEW003 SCT006 BKN011 17/16 Q1019
2026-03-16 23:30:00,SPECI YMML 162330Z AUTO 16009KT 3400 -DZ BR BKN004 OVC011 16/16 Q1019
2026-03-16 23:00:00,SPECI YMML 162300Z AUTO 16008KT 6000 -DZ OVC004 OVC011 16/16 Q1018
2026-03-16 22:30:00,METAR YMML 162230Z AUTO 20005KT 6000 // OVC003 17/16 Q1018
2026-03-16 22:27:00,SPECI YMML 162227Z AUTO 21005KT 6000 // OVC003 16/16 Q1018
2026-03-16 22:06:00,SPECI YMML 162206Z AUTO 21006KT 9999 // OVC004 OVC008 16/16 Q1018
2026-03-16 22:00:00,SPECI YMML 162200Z AUTO 20005KT 9999 -SHRA BKN003 OVC008 16/16 Q1018
2026-03-16 21:30:00,SPECI YMML 162130Z AUTO 21006KT 4300 -RA OVC003 16/16 Q1017
2026-03-16 21:00:00,METAR YMML 162100Z AUTO 22006KT 6000 // BKN003 BKN007 OVC013 16/16 Q1017
2026-03-16 20:30:00,METAR YMML 162030Z AUTO 21007KT 9000 // OVC004 16/16 Q1016
2026-03-16 20:00:00,METAR YMML 162000Z AUTO 21006KT 8000 // BKN003 BKN008 OVC015 16/16 Q1016
2026-03-16 19:30:00,METAR YMML 161930Z AUTO 22004KT 7000 // BKN004 OVC010 17/16 Q1015
2026-03-16 19:00:00,METAR YMML 161900Z AUTO 21004KT 9999 // SCT003 BKN006 OVC010 17/16 Q1015
2026-03-16 18:46:00,SPECI YMML 161846Z AUTO 22003KT 7000 // BKN003 OVC006 17/16 Q1015
2026-03-16 18:30:00,METAR YMML 161830Z AUTO 22004KT 6000 // BKN002 OVC006 17/16 Q1015
2026-03-16 18:00:00,SPECI YMML 161800Z AUTO 24004KT 3700 BR OVC002 17/16 Q1014
2026-03-16 17:30:00,SPECI YMML 161730Z AUTO 25004KT 2900 -DZ BR OVC003 17/16 Q1014
2026-03-16 17:00:00,SPECI YMML 161700Z AUTO 24005KT 2800 -DZ BR OVC003 17/16 Q1014
2026-03-16 16:30:00,METAR YMML 161630Z AUTO 22004KT 6000 // BKN003 OVC007 16/16 Q1014
2026-03-16 16:00:00,SPECI YMML 161600Z AUTO 22006KT 3800 -SHRA OVC002 17/16 Q1014
2026-03-16 15:30:00,SPECI YMML 161530Z AUTO 21004KT 2600 BR OVC003 17/16 Q1014
2026-03-16 15:00:00,SPECI YMML 161500Z AUTO 20006KT 1600 BR OVC001 17/16 Q1014
2026-03-16 14:30:00,METAR YMML 161430Z AUTO 21006KT 1000 R16/1000V1800D BR OVC001 17/16 Q1014
2026-03-16 14:00:00,SPECI YMML 161400Z AUTO 20005KT 4200 -SHRA OVC002 17/17 Q1014
2026-03-16 13:39:00,SPECI YMML 161339Z AUTO 20005KT 3600 -RA SCT001 BKN014 OVC017 18/17 Q1014
2026-03-16 13:30:00,SPECI YMML 161330Z AUTO 21004KT 210V290 5000 -RA OVC017 18/17 Q1014
2026-03-16 13:28:00,SPECI YMML 161328Z AUTO 23004KT 210V330 6000 -RA FEW013 OVC019 18/17 Q1014
2026-03-16 13:00:00,METAR YMML 161300Z AUTO 36005KT 8000 // OVC019 18/17 Q1014
2026-03-16 12:30:00,METAR YMML 161230Z AUTO 36007KT 9999 -SHRA OVC023 18/17 Q1014
2026-03-16 12:00:00,METAR YMML 161200Z AUTO 36007KT 9999 -RA BKN023 BKN035 BKN105 18/17 Q1014
2026-03-16 11:30:00,METAR YMML 161130Z AUTO 36007KT 9999 -RA FEW024 SCT034 BKN092 18/17 Q1014
2026-03-16 11:00:00,METAR YMML 161100Z AUTO 36008KT 9999 -SHRA FEW041 SCT066 BKN079 18/17 Q1014
2026-03-16 10:30:00,METAR YMML 161030Z AUTO 36006KT 9999 // BKN022 BKN056 OVC065 18/17 Q1014
2026-03-16 10:00:00,METAR YMML 161000Z AUTO 36009KT 9999 -RA FEW022 BKN028 BKN051 18/17 Q1014
2026-03-16 09:30:00,METAR YMML 160930Z AUTO 02009KT 9999 -RA SCT047 OVC065 18/17 Q1014
2026-03-16 09:29:00,SPECI YMML 160929Z AUTO 02009KT 9999 -RA SCT047 OVC065 18/17 Q1014
2026-03-16 09:00:00,SPECI YMML 160900Z AUTO 36003KT 4800 RA OVC045 OVC053 18/17 Q1014
2026-03-16 08:30:00,SPECI YMML 160830Z AUTO 02005KT 6000 -RA BKN043 OVC052 18/17 Q1014
2026-03-16 08:29:00,SPECI YMML 160829Z AUTO 02006KT 6000 -RA BKN043 OVC052 18/17 Q1014
2026-03-16 08:25:00,SPECI YMML 160825Z AUTO 03006KT 7000 -RA SCT043 OVC050 OVC062 18/17 Q1014
2026-03-16 08:00:00,SPECI YMML 160800Z AUTO 06006KT 6000 -RA BKN051 OVC072 18/17 Q1013
2026-03-16 07:50:00,SPECI YMML 160750Z AUTO 07004KT 6000 RA FEW053 BKN072 OVC085 18/17 Q1013
2026-03-16 07:30:00,METAR YMML 160730Z AUTO 02005KT 9999 -RA BKN078 OVC093 18/17 Q1013
2026-03-16 07:00:00,METAR YMML 160700Z AUTO 31004KT 260V360 9999 -RA FEW066 BKN091 OVC110 18/16 Q1013
2026-03-16 06:30:00,METAR YMML 160630Z AUTO 26004KT 9999 DZ SCT017 SCT050 BKN068 18/16 Q1013
2026-03-16 06:00:00,METAR YMML 160600Z AUTO 05004KT 030V100 9999 -RA BKN017 OVC100 19/16 Q1013
2026-03-16 05:30:00,METAR YMML 160530Z AUTO 11001KT 9999 -SHRA SCT017 OVC110 19/15 Q1012
2026-03-16 05:13:00,SPECI YMML 160513Z AUTO 10002KT 9999 -SHRA SCT015 OVC110 19/16 Q1012
2026-03-16 05:00:00,SPECI YMML 160500Z AUTO 00000KT 9999 -SHRA BKN015 BKN053 BKN091 19/15 Q1013
2026-03-16 04:30:00,METAR YMML 160430Z AUTO 05005KT 9999 // OVC015 19/15 Q1013
2026-03-16 04:00:00,METAR YMML 160400Z AUTO 15003KT 9999 // OVC015 19/15 Q1014
2026-03-16 03:30:00,METAR YMML 160330Z AUTO 16006KT 9999 // OVC015 19/15 Q1014
2026-03-16 03:00:00,METAR YMML 160300Z AUTO 22006KT 9999 // BKN013 OVC110 18/15 Q1015
2026-03-16 02:30:00,SPECI YMML 160230Z AUTO 19007KT 160V230 9999 -RA OVC011 OVC016 18/15 Q1016
2026-03-16 02:00:00,METAR YMML 160200Z AUTO 21009KT 9999 // OVC009 18/15 Q1016
2026-03-16 01:30:00,METAR YMML 160130Z AUTO 19010KT 9999 // OVC009 17/15 Q1016
2026-03-16 01:00:00,SPECI YMML 160100Z AUTO 20012KT 9999 -DZ BKN011 OVC016 OVC022 18/15 Q1016
2026-03-16 00:30:00,METAR YMML 160030Z AUTO 21010KT 9999 // OVC013 18/15 Q1016
2026-03-16 00:00:00,METAR YMML 160000Z AUTO 20007KT 9999 // OVC011 18/15 Q1015
2026-03-15 23:30:00,SPECI YMML 152330Z AUTO 24003KT 9999 -SHRA OVC009 17/15 Q1016
2026-03-15 23:00:00,SPECI YMML 152300Z AUTO 28007KT 9999 -SHRA OVC009 17/15 Q1016
2026-03-15 22:30:00,METAR YMML 152230Z AUTO 27002KT 9999 // OVC011 17/14 Q1015
2026-03-15 22:00:00,METAR YMML 152200Z AUTO 26006KT 9999 // OVC011 17/14 Q1016
2026-03-15 21:30:00,METAR YMML 152130Z AUTO 23004KT 9999 // OVC011 17/14 Q1016
2026-03-15 21:00:00,METAR YMML 152100Z AUTO 19005KT 9999 // OVC011 16/14 Q1016
2026-03-15 20:30:00,METAR YMML 152030Z AUTO 21004KT 9999 // BKN011 16/14 Q1016
2026-03-15 20:18:00,SPECI YMML 152018Z AUTO 20004KT 9999 // BKN011 16/14 Q1016
2026-03-15 20:00:00,METAR YMML 152000Z AUTO 22003KT 9999 // FEW013 16/14 Q1016
2026-03-15 19:30:00,METAR YMML 151930Z AUTO 25003KT 9999 // FEW013 BKN089 16/14 Q1016
2026-03-15 19:00:00,METAR YMML 151900Z AUTO 00000KT 9999 // OVC089 16/14 Q1016
2026-03-15 18:30:00,METAR YMML 151830Z AUTO 00000KT 9999 // OVC091 16/14 Q1016
2026-03-15 18:00:00,METAR YMML 151800Z AUTO 27003KT 9999 // FEW011 BKN091 16/14 Q1016
2026-03-15 17:30:00,METAR YMML 151730Z AUTO 00000KT 9999 // SCT091 16/14 Q1016
2026-03-15 17:00:00,METAR YMML 151700Z AUTO 30004KT 9999 // FEW013 BKN091 16/14 Q1017
2026-03-15 16:30:00,METAR YMML 151630Z AUTO 29004KT 9999 // BKN013 OVC098 16/14 Q1017
2026-03-15 16:00:00,METAR YMML 151600Z AUTO 29004KT 9999 // OVC013 16/14 Q1018
2026-03-15 15:30:00,METAR YMML 151530Z AUTO 25005KT 9999 // OVC013 17/14 Q1018
2026-03-15 15:00:00,METAR YMML 151500Z AUTO 23005KT 9999 // OVC011 17/14 Q1019
2026-03-15 14:30:00,METAR YMML 151430Z AUTO 24006KT 9999 // OVC011 17/14 Q1019
2026-03-15 14:00:00,METAR YMML 151400Z AUTO 23006KT 9999 // OVC011 17/14 Q1019
2026-03-15 13:30:00,METAR YMML 151330Z AUTO 23006KT 9999 // OVC011 17/14 Q1019
2026-03-15 13:00:00,METAR YMML 151300Z AUTO 22006KT 9999 // OVC011 17/14 Q1019
2026-03-15 12:30:00,METAR YMML 151230Z AUTO 24006KT 9999 // OVC011 17/14 Q1020
2026-03-15 12:00:00,METAR YMML 151200Z AUTO 24007KT 9999 // OVC011 17/15 Q1020
2026-03-15 11:30:00,METAR YMML 151130Z AUTO 23009KT 9999 // OVC011 17/14 Q1020
2026-03-15 11:00:00,SPECI YMML 151100Z AUTO 23010KT 9999 // OVC011 18/15 Q1021
2026-03-15 10:30:00,METAR YMML 151030Z AUTO 22011KT 9999 // BKN013 18/15 Q1020
2026-03-15 10:09:00,SPECI YMML 151009Z AUTO 22010KT 9999 // BKN013 18/15 Q1020
2026-03-15 10:00:00,METAR YMML 151000Z AUTO 21010KT 9999 // FEW013 18/15 Q1020
2026-03-15 09:30:00,METAR YMML 150930Z AUTO 22010KT 9999 // NCD 18/14 Q1020
2026-03-15 09:00:00,METAR YMML 150900Z AUTO 23012KT 9999 // NCD 20/14 Q1019
2026-03-15 08:30:00,METAR YMML 150830Z AUTO 18007KT 9999 // NCD 21/13 Q1019
2026-03-15 08:00:00,METAR YMML 150800Z AUTO 19008KT 9999 // NCD 22/14 Q1019
