Time_recorded,METAR
2026-05-02 14:53:00,METAR KOAK 021453Z 23013KT 9SM BKN015 OVC020 13/11 A2995 RMK AO2 SLP141 T01330106 53007
2026-05-02 14:23:00,SPECI KOAK 021423Z 22010KT 9SM BKN015 OVC020 13/10 A2995 RMK AO2 T01330100
2026-05-02 13:53:00,METAR KOAK 021353Z 21008KT 9SM OVC013 13/11 A2994 RMK AO2 SLP138 T01330106
2026-05-02 12:53:00,METAR KOAK 021253Z 21011KT 10SM OVC013 13/10 A2993 RMK AO2 SLP134 T01330100
2026-05-02 11:53:00,METAR KOAK 021153Z 23008KT 10SM OVC013 13/10 A2993 RMK AO2 SLP134 T01280100 10133 20128 56010
2026-05-02 10:53:00,METAR KOAK 021053Z 23007KT 10SM OVC011 13/10 A2993 RMK AO2 SLP135 T01280100
2026-05-02 09:53:00,METAR KOAK 020953Z 23011KT 10SM OVC012 13/10 A2994 RMK AO2 SLP138 T01280100
2026-05-02 08:53:00,METAR KOAK 020853Z 22010KT 10SM OVC012 13/10 A2996 RMK AO2 SLP144 T01280100 58004
2026-05-02 07:53:00,METAR KOAK 020753Z 22007KT 10SM OVC010 13/10 A2997 RMK AO2 SLP147 T01280100 401720122
2026-05-02 06:53:00,METAR KOAK 020653Z 25005KT 10SM OVC010 13/11 A2996 RMK AO2 SLP146 T01330106
2026-05-02 05:53:00,METAR KOAK 020553Z 00000KT 10SM OVC011 13/11 A2997 RMK AO2 SLP148 T01280106 10167 20128 51013
2026-05-02 04:53:00,METAR KOAK 020453Z 26010KT 10SM FEW007 BKN011 13/11 A2997 RMK AO2 SLP148 T01280106
2026-05-02 03:53:00,METAR KOAK 020353Z 26012KT 10SM FEW007 BKN011 BKN250 13/11 A2994 RMK AO2 SLP139 T01280106
2026-05-02 03:40:00,SPECI KOAK 020340Z 27011KT 10SM FEW007 BKN010 BKN250 13/11 A2994 RMK AO2 BKN010 V SCT T01280106
2026-05-02 02:53:00,METAR KOAK 020253Z 27008KT 10SM FEW007 SCT010 SCT150 BKN250 13/11 A2993 RMK AO2 SLP135 T01330106 55001
2026-05-02 01:53:00,METAR KOAK 020153Z 26014KT 10SM FEW007 SCT012 SCT150 BKN250 14/11 A2992 RMK AO2 SLP133 T01440106
2026-05-02 00:53:00,METAR KOAK 020053Z 27014KT 10SM FEW008 FEW015 SCT120 BKN250 16/11 A2993 RMK AO2 SLP134 T01610111
2026-05-01 23:53:00,METAR KOAK 012353Z 27013KT 10SM FEW010 FEW080 BKN250 17/11 A2993 RMK AO2 SLP135 T01670111 10172 20133 57018
2026-05-01 22:53:00,METAR KOAK 012253Z 28012KT 10SM FEW010 FEW180 BKN250 17/11 A2994 RMK AO2 SLP140 T01670111
2026-05-01 21:53:00,METAR KOAK 012153Z 26009KT 10SM FEW013 BKN250 17/11 A2997 RMK AO2 SLP150 T01670111
2026-05-01 20:53:00,METAR KOAK 012053Z 24006KT 10SM FEW013 BKN250 16/11 A2999 RMK AO2 SLP154 T01610106 58012
2026-05-01 20:31:00,SPECI KOAK 012031Z 28006KT 10SM SCT013 BKN250 16/11 A2999 RMK AO2 T01560111
2026-05-01 19:53:00,METAR KOAK 011953Z 25005KT 10SM BKN011 BKN013 15/11 A3000 RMK AO2 SLP159 T01500111
2026-05-01 18:53:00,METAR KOAK 011853Z 23004KT 10SM FEW008 OVC010 14/11 A3002 RMK AO2 SLP164 T01390111
2026-05-01 17:53:00,METAR KOAK 011753Z 22006KT 10SM SCT008 OVC010 13/11 A3002 RMK AO2 SLP166 T01330106 10139 20122 51009
2026-05-01 16:53:00,METAR KOAK 011653Z 22009KT 10SM SCT008 OVC010 13/11 A3002 RMK AO2 SLP164 T01330111
2026-05-01 15:53:00,METAR KOAK 011553Z 23008G22KT 10SM OVC012 13/11 A3001 RMK AO2 SLP161 T01330106
2026-05-01 14:53:00,METAR KOAK 011453Z 23008KT 10SM OVC012 13/11 A2999 RMK AO2 SLP156 T01330106 53009
2026-05-01 13:53:00,METAR KOAK 011353Z 23008KT 10SM OVC010 13/11 A2998 RMK AO2 SLP152 T01280106
2026-05-01 12:53:00,METAR KOAK 011253Z 22006KT 10SM OVC010 13/10 A2997 RMK AO2 SLP148 T01280100
2026-05-01 11:53:00,METAR KOAK 011153Z 21006KT 10SM OVC010 13/10 A2997 RMK AO2 SLP147 T01280100 10133 20128 55003
2026-05-01 10:53:00,METAR KOAK 011053Z 22011KT 10SM OVC010 13/11 A2997 RMK AO2 SLP146 T01280106
2026-05-01 09:53:00,METAR KOAK 010953Z 29003KT 10SM FEW006 OVC012 13/10 A2997 RMK AO2 SLP147 T01280100
2026-05-01 08:53:00,METAR KOAK 010853Z 23004KT 10SM FEW006 BKN012 13/10 A2998 RMK AO2 SLP151 T01280100 58003
2026-05-01 07:53:00,METAR KOAK 010753Z 21003KT 10SM FEW006 BKN011 13/10 A2999 RMK AO2 SLP155 T01280100 401890111
2026-05-01 06:53:00,METAR KOAK 010653Z 18003KT 10SM FEW006 BKN011 13/10 A2999 RMK AO2 SLP154 T01280100
2026-05-01 05:53:00,METAR KOAK 010553Z 26011KT 10SM FEW007 BKN013 13/11 A2999 RMK AO2 SLP154 T01330106 10172 20128 51012
2026-05-01 04:53:00,METAR KOAK 010453Z 26011KT 10SM FEW007 BKN011 BKN016 13/11 A2998 RMK AO2 SLP153 T01280106
2026-05-01 03:53:00,METAR KOAK 010353Z 26013KT 10SM FEW007 BKN011 13/11 A2996 RMK AO2 SLP146 BKN V SCT T01330106
2026-05-01 03:36:00,SPECI KOAK 010336Z 27011KT 10SM FEW007 BKN011 13/11 A2996 RMK AO2 BKN V SCT T01280106
2026-05-01 02:53:00,METAR KOAK 010253Z 27013KT 10SM FEW008 SCT011 13/11 A2995 RMK AO2 SLP142 T01330106 53003
2026-05-01 01:53:00,METAR KOAK 010153Z 26011KT 10SM FEW009 SCT011 16/11 A2995 RMK AO2 SLP140 T01560106
2026-05-01 00:53:00,METAR KOAK 010053Z 25015KT 10SM FEW010 17/11 A2995 RMK AO2 SLP141 T01670106
2026-04-30 23:53:00,METAR KOAK 302353Z 26013KT 10SM FEW010 FEW045 17/11 A2994 RMK AO2 SLP139 T01720106 10189 20150 56012
2026-04-30 22:53:00,METAR KOAK 302253Z 26011KT 10SM FEW010 FEW045 18/11 A2995 RMK AO2 SLP142 T01830106
2026-04-30 21:53:00,METAR KOAK 302153Z 26014KT 10SM FEW011 FEW045 18/11 A2997 RMK AO2 SLP147 T01830111
2026-04-30 20:53:00,METAR KOAK 302053Z 27013KT 10SM FEW014 19/11 A2998 RMK AO2 SLP150 T01890106 56011
2026-04-30 19:53:00,METAR KOAK 301953Z 29008KT 10SM FEW015 17/11 A2998 RMK AO2 SLP153 T01720106
2026-04-30 18:53:00,METAR KOAK 301853Z VRB05KT 10SM FEW015 17/11 A3000 RMK AO2 SLP159 T01670106
2026-04-30 17:53:00,METAR KOAK 301753Z 24004KT 10SM FEW015 16/11 A3001 RMK AO2 SLP161 T01560106 10156 20111 50002
2026-04-30 16:53:00,METAR KOAK 301653Z 00000KT 10SM SCT015 14/10 A3001 RMK AO2 SLP162 T01440100
2026-04-30 14:53:00,METAR KOAK 301453Z 23009KT 10SM BKN013 BKN017 13/10 A3000 RMK AO2 SLP159 T01280100 53005
2026-04-30 13:53:00,METAR KOAK 301353Z 22008KT 10SM FEW006 BKN013 13/11 A2999 RMK AO2 SLP156 T01280106
2026-04-30 12:53:00,METAR KOAK 301253Z 21005KT 10SM FEW006 BKN013 13/10 A2999 RMK AO2 SLP156 T01280100
2026-04-30 12:12:00,SPECI KOAK 301212Z 30004KT 10SM FEW007 BKN014 12/10 A2999 RMK AO2 T01170100
2026-04-30 11:53:00,METAR KOAK 301153Z 00000KT 10SM FEW008 SCT015 12/10 A2999 RMK AO2 SLP154 T01220100 10133 20117 56012
2026-04-30 11:47:00,SPECI KOAK 301147Z 17003KT 10SM FEW008 BKN015 12/10 A2999 RMK AO2
2026-04-30 11:25:00,SPECI KOAK 301125Z 14004KT 10SM FEW008 BKN014 13/10 A2999 RMK AO2 T01280100
2026-04-30 10:53:00,METAR KOAK 301053Z 26003KT 10SM FEW008 SCT014 12/10 A3000 RMK AO2 SLP158 T01220100
2026-04-30 09:53:00,METAR KOAK 300953Z 22007KT 10SM FEW009 FEW018 12/10 A3000 RMK AO2 SLP158 T01220100
2026-04-30 08:53:00,METAR KOAK 300853Z 24007KT 10SM FEW009 12/10 A3002 RMK AO2 SLP167 T01220100 58005
2026-04-30 07:53:00,METAR KOAK 300753Z 25010KT 10SM FEW009 13/10 A3004 RMK AO2 SLP172 T01280100 402000111
2026-04-30 06:53:00,METAR KOAK 300653Z 24009KT 10SM FEW009 13/11 A3004 RMK AO2 SLP172 T01280106
2026-04-30 05:53:00,METAR KOAK 300553Z 25012KT 10SM FEW009 13/11 A3004 RMK AO2 SLP172 T01330106 10183 20133 51007
2026-04-30 05:09:00,SPECI KOAK 300509Z 25012KT 10SM FEW009 14/10 A3004 RMK AO2 T01390100
2026-04-30 04:53:00,METAR KOAK 300453Z 25012KT 10SM FEW010 14/10 A3003 RMK AO2 SLP170 T01390100
2026-04-30 03:53:00,METAR KOAK 300353Z 27010KT 10SM FEW010 14/10 A3003 RMK AO2 SLP168 T01440100
2026-04-30 02:53:00,METAR KOAK 300253Z 25009KT 10SM FEW010 FEW020 15/11 A3002 RMK AO2 SLP164 T01500106 56004
2026-04-30 01:53:00,METAR KOAK 300153Z 28009KT 10SM FEW010 16/10 A3002 RMK AO2 SLP166 T01610100
2026-04-30 00:53:00,METAR KOAK 300053Z 27013KT 10SM FEW010 FEW050 17/10 A3002 RMK AO2 SLP166 T01720100
2026-04-29 23:53:00,METAR KOAK 292353Z 26015KT 10SM FEW010 FEW040 18/11 A3003 RMK AO2 SLP169 T01830106 10200 20167 58012
2026-04-29 22:53:00,METAR KOAK 292253Z 27015KT 10SM FEW015 FEW040 19/11 A3004 RMK AO2 SLP174 T01890111
2026-04-29 21:53:00,METAR KOAK 292153Z 28012KT 10SM FEW015 FEW040 19/12 A3006 RMK AO2 SLP178 T01940117
2026-04-29 20:53:00,METAR KOAK 292053Z 27014KT 10SM FEW015 19/11 A3006 RMK AO2 SLP180 T01890111 56011
2026-04-29 19:53:00,METAR KOAK 291953Z 26011KT 10SM FEW015 19/12 A3007 RMK AO2 SLP181 T01940117
2026-04-29 18:53:00,METAR KOAK 291853Z 25007KT 10SM FEW013 19/09 A3008 RMK AO2 SLP188 T01890094
2026-04-29 17:53:00,METAR KOAK 291753Z VRB03KT 10SM FEW012 17/11 A3010 RMK AO2 SLP192 T01670106 10167 20111 58002
2026-04-29 16:53:00,METAR KOAK 291653Z 18004KT 10SM FEW012 16/11 A3011 RMK AO2 SLP194 T01610111
2026-04-29 15:53:00,METAR KOAK 291553Z 00000KT 10SM FEW012 15/12 A3011 RMK AO2 SLP196 T01500117
2026-04-29 14:53:00,METAR KOAK 291453Z 16004KT 10SM FEW011 14/11 A3011 RMK AO2 SLP194 T01390111 53004
2026-04-29 14:35:00,SPECI KOAK 291435Z 00000KT 10SM FEW011 14/11 A3010 RMK AO2 T01390111
2026-04-29 14:16:00,SPECI KOAK 291416Z 15003KT 10SM BKN011 13/11 A3010 RMK AO2 T01330111
2026-04-29 13:53:00,METAR KOAK 291353Z 18003KT 10SM SCT011 13/11 A3009 RMK AO2 SLP189 T01280106
2026-04-29 12:53:00,METAR KOAK 291253Z 13003KT 10SM FEW007 FEW015 12/10 A3008 RMK AO2 SLP185 T01170100
2026-04-29 11:53:00,METAR KOAK 291153Z 19004KT 10SM FEW007 SCT013 12/11 A3009 RMK AO2 SLP190 T01220106 10139 20122 56008
2026-04-29 11:27:00,SPECI KOAK 291127Z 21005KT 10SM FEW007 FEW012 13/11 A3010 RMK AO2 T01280106
2026-04-29 10:53:00,METAR KOAK 291053Z 20008KT 10SM FEW006 BKN013 13/11 A3010 RMK AO2 SLP192 T01280106
2026-04-29 10:37:00,SPECI KOAK 291037Z 20009KT 10SM FEW006 BKN014 13/11 A3010 RMK AO2 T01280111
2026-04-29 09:53:00,METAR KOAK 290953Z 22006KT 10SM FEW006 SCT018 13/11 A3009 RMK AO2 SLP190 T01280111
2026-04-29 08:53:00,METAR KOAK 290853Z 27006KT 10SM FEW008 FEW018 13/11 A3012 RMK AO2 SLP198 T01280106 50001
2026-04-29 07:53:00,METAR KOAK 290753Z 26011KT 10SM FEW008 FEW020 13/11 A3012 RMK AO2 SLP200 T01330106 402000122
2026-04-29 06:53:00,METAR KOAK 290653Z 26010KT 10SM FEW007 13/11 A3011 RMK AO2 SLP197 T01330111
2026-04-29 05:53:00,METAR KOAK 290553Z 27009KT 10SM FEW007 14/11 A3011 RMK AO2 SLP196 T01390106 10194 20139 50010
2026-04-29 05:08:00,SPECI KOAK 290508Z 24007KT 10SM FEW009 14/11 A3011 RMK AO2 T01440111
2026-04-29 04:53:00,METAR KOAK 290453Z 24008KT 10SM FEW010 14/11 A3011 RMK AO2 SLP197 T01440111
2026-04-29 03:53:00,METAR KOAK 290353Z 26010KT 10SM FEW010 16/11 A3010 RMK AO2 SLP192 T01560111
2026-04-29 02:53:00,METAR KOAK 290253Z 26009KT 10SM FEW010 16/09 A3008 RMK AO2 SLP186 T01610089 55001
2026-04-29 01:53:00,METAR KOAK 290153Z 25011KT 10SM FEW015 FEW040 18/09 A3008 RMK AO2 SLP185 SCSL SE T01780094
2026-04-29 00:53:00,METAR KOAK 290053Z 25011KT 10SM FEW015 FEW035 18/09 A3008 RMK AO2 SLP187 T01830094
2026-04-28 23:53:00,METAR KOAK 282353Z 26011KT 10SM FEW015 FEW035 19/10 A3008 RMK AO2 SLP187 T01890100 10200 20150 56012
2026-04-28 22:53:00,METAR KOAK 282253Z 27013KT 10SM FEW030 19/11 A3008 RMK AO2 SLP187 T01940106
2026-04-28 21:53:00,METAR KOAK 282153Z 28009KT 10SM FEW035 19/10 A3010 RMK AO2 SLP193 T01940100
2026-04-28 20:53:00,METAR KOAK 282053Z 25007KT 10SM FEW025 19/08 A3012 RMK AO2 SLP198 T01890083 58012
2026-04-28 19:53:00,METAR KOAK 281953Z 23006KT 10SM FEW025 18/09 A3013 RMK AO2 SLP203 T01780094
2026-04-28 18:53:00,METAR KOAK 281853Z 19004KT 10SM FEW025 16/09 A3015 RMK AO2 SLP209 T01610089
2026-04-28 17:53:00,METAR KOAK 281753Z VRB03KT 10SM FEW025 15/08 A3015 RMK AO2 SLP211 T01500083 10150 20122 51007
2026-04-28 16:53:00,METAR KOAK 281653Z VRB03KT 10SM SCT022 14/08 A3015 RMK AO2 SLP209 T01440083
2026-04-28 16:33:00,SPECI KOAK 281633Z VRB03KT 10SM SCT022 14/08 A3015 RMK AO2 T01390083
2026-04-28 15:53:00,METAR KOAK 281553Z 25004KT 10SM BKN022 13/08 A3015 RMK AO2 SLP207 T01330083
2026-04-28 14:53:00,METAR KOAK 281453Z 27006KT 10SM BKN020 13/08 A3013 RMK AO2 SLP203 T01330083 53010
2026-04-28 13:53:00,METAR KOAK 281353Z 25006KT 10SM FEW010 BKN020 13/09 A3012 RMK AO2 SLP198 T01280089
2026-04-28 12:53:00,METAR KOAK 281253Z 25006KT 10SM FEW010 BKN017 13/09 A3011 RMK AO2 SLP194 T01280089 $
2026-04-28 11:53:00,METAR KOAK 281153Z 25008KT 10SM FEW010 BKN018 12/09 A3010 RMK AO2 SLP193 T01220089 10128 20122 55002 $
2026-04-28 10:53:00,METAR KOAK 281053Z 20006KT 10SM FEW011 BKN023 12/09 A3009 RMK AO2 SLP190 T01220089 $
2026-04-28 10:47:00,SPECI KOAK 281047Z 21007KT 10SM FEW011 BKN023 12/09 A3010 RMK AO2 $
2026-04-28 09:53:00,METAR KOAK 280953Z 22005KT 10SM FEW011 SCT026 BKN180 12/09 A3010 RMK AO2 SLP191 T01220089 $
2026-04-28 08:53:00,METAR KOAK 280853Z 22006KT 10SM FEW012 BKN180 12/09 A3011 RMK AO2 SLP195 T01220089 58003 $
2026-04-28 07:53:00,METAR KOAK 280753Z 24008KT 10SM FEW012 BKN180 12/08 A3012 RMK AO2 SLP199 T01220083 401780106 $
2026-04-28 06:53:00,METAR KOAK 280653Z 23008KT 10SM FEW012 BKN200 13/08 A3012 RMK AO2 SLP198 T01280083 $
2026-04-28 05:53:00,METAR KOAK 280553Z 25009KT 10SM FEW013 SCT200 13/08 A3012 RMK AO2 SLP197 T01280083 10167 20128 51014 $
2026-04-28 04:53:00,METAR KOAK 280453Z 25008KT 10SM FEW025 FEW200 13/08 A3011 RMK AO2 SLP196 T01280078 $
2026-04-28 03:53:00,METAR KOAK 280353Z 26011KT 10SM FEW025 SCT150 13/08 A3010 RMK AO2 SLP191 T01330083 $
2026-04-28 02:53:00,METAR KOAK 280253Z 26014KT 10SM FEW025 SCT140 14/08 A3007 RMK AO2 SLP183 T01390083 53008
2026-04-28 01:53:00,METAR KOAK 280153Z 26014KT 10SM FEW030 FEW070 SCT140 15/08 A3006 RMK AO2 SLP179 T01500083
2026-04-28 00:53:00,METAR KOAK 280053Z 25014KT 10SM FEW030 SCT140 16/08 A3006 RMK AO2 SLP177 T01610083
2026-04-27 23:53:00,METAR KOAK 272353Z 25013KT 10SM FEW030 FEW045 SCT065 17/08 A3005 RMK AO2 SLP175 T01720083 10178 20150 57004
2026-04-27 22:53:00,METAR KOAK 272253Z 25014KT 10SM SCT030 SCT045 17/08 A3005 RMK AO2 SLP176 T01720083
2026-04-27 21:53:00,METAR KOAK 272153Z 24014KT 10SM SCT030 SCT045 17/08 A3006 RMK AO2 SLP178 T01720083
2026-04-27 20:53:00,METAR KOAK 272053Z 25012KT 10SM SCT034 17/08 A3006 RMK AO2 SLP179 T01720078 50000
2026-04-27 19:53:00,METAR KOAK 271953Z 23009KT 10SM SCT034 17/08 A3006 RMK AO2 SLP179 T01720078
2026-04-27 18:53:00,METAR KOAK 271853Z 22008KT 10SM SCT032 16/07 A3007 RMK AO2 SLP181 T01610072
2026-04-27 17:53:00,METAR KOAK 271753Z 20005KT 10SM FEW030 SCT060 14/07 A3006 RMK AO2 SLP179 T01440067 10150 20106 53009
2026-04-27 16:53:00,METAR KOAK 271653Z 26006KT 10SM SCT028 SCT080 14/07 A3005 RMK AO2 SLP176 T01440067
2026-04-27 15:53:00,METAR KOAK 271553Z 28006KT 10SM SCT025 SCT080 14/08 A3004 RMK AO2 SLP172 T01390078
2026-04-27 14:53:00,METAR KOAK 271453Z 27007KT 10SM FEW025 SCT065 13/08 A3003 RMK AO2 SLP169 T01280078 53011
2026-04-27 13:53:00,METAR KOAK 271353Z 30003KT 10SM FEW022 SCT065 11/07 A3001 RMK AO2 SLP163 T01110072
2026-04-27 12:53:00,METAR KOAK 271253Z 00000KT 10SM FEW015 SCT065 11/07 A3000 RMK AO2 SLP159 T01110067 $
2026-04-27 11:53:00,METAR KOAK 271153Z 27007KT 10SM FEW015 SCT070 12/07 A3000 RMK AO2 SLP158 T01220072 10133 20122 53001 $
2026-04-27 10:53:00,METAR KOAK 271053Z 26010KT 10SM FEW015 SCT070 13/07 A2999 RMK AO2 SLP156 T01280072 $
2026-04-27 09:53:00,METAR KOAK 270953Z 26009KT 10SM FEW013 BKN070 13/08 A2999 RMK AO2 SLP154 T01280078 $
2026-04-27 08:53:00,METAR KOAK 270853Z 27007KT 10SM FEW012 OVC060 13/08 A2999 RMK AO2 SLP157 T01330078 50000 $
2026-04-27 07:53:00,METAR KOAK 270753Z 26010KT 10SM FEW014 FEW045 BKN065 13/08 A3000 RMK AO2 SLP159 T01330078 401780128 $
2026-04-27 06:53:00,METAR KOAK 270653Z 27007KT 10SM FEW015 SCT035 BKN065 13/08 A3000 RMK AO2 SLP157 T01330078 $
2026-04-27 05:53:00,METAR KOAK 270553Z 26010KT 10SM FEW013 FEW027 BKN065 13/07 A2999 RMK AO2 SLP156 T01330072 10172 20133 51009 $
2026-04-27 04:53:00,METAR KOAK 270453Z 25010KT 10SM FEW013 FEW032 BKN065 13/08 A2999 RMK AO2 SLP155 T01330078 $
2026-04-27 03:53:00,METAR KOAK 270353Z 26010KT 10SM FEW014 FEW036 BKN060 14/07 A2998 RMK AO2 SLP151 T01390072 $
2026-04-27 02:53:00,METAR KOAK 270253Z 25010KT 10SM FEW016 BKN055 14/07 A2997 RMK AO2 SLP147 T01390072 53008 $
2026-04-27 01:53:00,METAR KOAK 270153Z COR 24013G22KT 10SM FEW018 BKN055 14/07 A2995 RMK AO2 SLP143 T01440072 $
2026-04-27 00:53:00,METAR KOAK 270053Z 25013KT 10SM FEW018 SCT055 SCT160 16/06 A2995 RMK AO2 SLP142 T01610061 $
2026-04-26 23:53:00,METAR KOAK 262353Z 25013KT 10SM FEW020 FEW050 SCT100 17/07 A2994 RMK AO2 SLP139 T01670067 10178 20150 52001 $
2026-04-26 22:53:00,METAR KOAK 262253Z 24014KT 10SM FEW020 FEW055 SCT100 17/06 A2994 RMK AO2 SLP137 T01670056 $
2026-04-26 21:53:00,METAR KOAK 262153Z 25014KT 10SM FEW026 BKN065 16/07 A2994 RMK AO2 SLP139 T01610067 $
2026-04-26 20:53:00,METAR KOAK 262053Z 24012KT 10SM FEW012 SCT030 BKN065 17/06 A2994 RMK AO2 SLP138 T01670061 51006 $
2026-04-26 19:53:00,METAR KOAK 261953Z 24012KT 10SM FEW025 SCT060 BKN150 17/06 A2993 RMK AO2 SLP137 T01670056 $
2026-04-26 18:53:00,METAR KOAK 261853Z 26011KT 10SM FEW012 SCT038 BKN060 BKN160 16/05 A2993 RMK AO2 SLP136 T01610050 $
2026-04-26 17:53:00,METAR KOAK 261753Z 23010KT 10SM FEW012 SCT035 BKN150 16/06 A2992 RMK AO2 SLP132 T01610056 10161 20128 52015 $
2026-04-26 16:53:00,METAR KOAK 261653Z 25011KT 10SM FEW012 SCT024 BKN060 15/06 A2991 RMK AO2 SLP127 T01500061 $
2026-04-26 15:53:00,METAR KOAK 261553Z 27013KT 10SM FEW014 SCT030 BKN055 14/07 A2989 RMK AO2 SLP122 T01390072 $
2026-04-26 14:53:00,METAR KOAK 261453Z 28009KT 10SM FEW014 BKN030 OVC055 13/08 A2988 RMK AO2 SLP117 T01330078 53014 $
2026-04-26 13:53:00,METAR KOAK 261353Z 26013KT 10SM FEW010 BKN030 OVC055 13/08 A2986 RMK AO2 SLP110 T01330083 $
2026-04-26 12:53:00,METAR KOAK 261253Z 24010KT 10SM FEW010 BKN037 OVC055 13/10 A2984 RMK AO2 SLP105 T01330100 $
2026-04-26 11:53:00,METAR KOAK 261153Z 23009KT 10SM SCT028 OVC055 13/09 A2984 RMK AO2 SLP103 60000 T01330094 10133 20117 56003 $
2026-04-26 10:53:00,METAR KOAK 261053Z 23008KT 10SM SCT020 OVC048 13/09 A2984 RMK AO2 SLP104 T01330089 $
2026-04-26 09:53:00,METAR KOAK 260953Z 18008KT 10SM SCT022 OVC040 13/10 A2983 RMK AO2 SLP102 T01330100 $
2026-04-26 08:53:00,METAR KOAK 260853Z 19009KT 10SM SCT020 OVC040 13/09 A2985 RMK AO2 SLP106 60000 T01280094 58004 $
2026-04-26 07:53:00,METAR KOAK 260753Z 18011KT 10SM FEW025 BKN037 OVC050 13/09 A2985 RMK AO2 SLP109 T01280094 401560117 $
2026-04-26 06:53:00,METAR KOAK 260653Z 20013KT 10SM FEW010 OVC035 12/09 A2985 RMK AO2 RAB00E12 SLP108 P0000 T01220094 $
2026-04-26 05:53:00,METAR KOAK 260553Z 23008KT 10SM FEW016 SCT025 OVC032 13/09 A2986 RMK AO2 RAB29E41 SLP110 P0000 60000 T01280094 10150 20122 51008 $
2026-04-26 04:53:00,METAR KOAK 260453Z 22012KT 10SM FEW012 SCT025 BKN037 13/08 A2985 RMK AO2 SLP108 T01330083 $
2026-04-26 03:53:00,METAR KOAK 260353Z 25009KT 10SM SCT025 BKN030 OVC050 13/08 A2984 RMK AO2 SLP105 T01330083 $
2026-04-26 02:53:00,METAR KOAK 260253Z 24010KT 10SM SCT024 BKN035 BKN050 14/08 A2983 RMK AO2 SLP102 T01390083 58001 $
2026-04-26 01:53:00,METAR KOAK 260153Z 25010KT 10SM FEW012 SCT025 BKN032 14/08 A2984 RMK AO2 SLP103 T01390083 $
2026-04-26 00:53:00,METAR KOAK 260053Z 23013KT 10SM SCT022 SCT035 BKN050 14/08 A2984 RMK AO2 SLP103 T01440078 $
2026-04-25 23:53:00,METAR KOAK 252353Z 24013KT 10SM SCT015 SCT027 BKN050 15/08 A2984 RMK AO2 SLP103 T01500083 10156 20139 58012 $
2026-04-25 22:53:00,METAR KOAK 252253Z 24012KT 10SM SCT027 BKN033 BKN042 14/08 A2985 RMK AO2 SLP107 T01440078 $
2026-04-25 21:53:00,METAR KOAK 252153Z 22010KT 10SM SCT027 SCT032 OVC048 15/08 A2987 RMK AO2 SLP114 T01500083 $
2026-04-25 20:53:00,METAR KOAK 252053Z 24008KT 10SM OVC044 14/08 A2987 RMK AO2 SLP114 T01440083 58006 $
2026-04-25 19:53:00,METAR KOAK 251953Z 26009KT 10SM FEW021 BKN030 OVC040 14/08 A2988 RMK AO2 SLP117 T01390083 $
2026-04-25 18:53:00,METAR KOAK 251853Z 25008KT 10SM BKN031 OVC040 14/08 A2989 RMK AO2 SLP121 T01440078 $
2026-04-25 17:53:00,METAR KOAK 251753Z 24012KT 10SM BKN034 OVC039 14/08 A2989 RMK AO2 SLP120 T01390078 10139 20128 53005 $
2026-04-25 16:53:00,METAR KOAK 251653Z 24008KT 10SM SCT021 BKN032 OVC037 13/08 A2988 RMK AO2 SLP119 T01330083 $
2026-04-25 15:53:00,METAR KOAK 251553Z 25008KT 10SM FEW022 BKN035 OVC040 13/08 A2987 RMK AO2 SLP116 T01330078 $
2026-04-25 14:53:00,METAR KOAK 251453Z 24010KT 10SM FEW020 BKN034 OVC038 13/08 A2987 RMK AO2 SLP115 T01330078 53002 $
2026-04-25 13:53:00,METAR KOAK 251353Z 25006KT 9SM FEW018 BKN033 OVC040 13/08 A2986 RMK AO2 SLP112 T01280083 $
2026-04-25 12:53:00,METAR KOAK 251253Z 24007KT 10SM FEW020 BKN033 13/08 A2986 RMK AO2 SLP111 T01280083 $
2026-04-25 11:53:00,METAR KOAK 251153Z 24005KT 10SM OVC033 13/08 A2987 RMK AO2 SLP113 T01280083 10133 20128 56008 $
2026-04-25 11:33:00,SPECI KOAK 251133Z 22007KT 10SM FEW020 BKN033 13/08 A2986 RMK AO2 T01280083 $
2026-04-25 10:53:00,METAR KOAK 251053Z 23009KT 10SM OVC026 13/08 A2987 RMK AO2 SLP115 T01280083 $
2026-04-25 09:53:00,METAR KOAK 250953Z 22007KT 10SM OVC027 13/08 A2988 RMK AO2 SLP117 T01280078 $
2026-04-25 08:53:00,METAR KOAK 250853Z 26007KT 10SM BKN028 13/07 A2989 RMK AO2 SLP121 T01280072 58007 $
2026-04-25 07:53:00,METAR KOAK 250753Z 26008KT 10SM BKN028 13/07 A2990 RMK AO2 SLP125 T01280072 401780122 $
2026-04-25 06:53:00,METAR KOAK 250653Z 27009KT 10SM FEW020 BKN028 13/08 A2990 RMK AO2 SLP126 T01280078 $
2026-04-25 06:40:00,SPECI KOAK 250640Z 26010KT 10SM FEW020 BKN028 13/08 A2991 RMK AO2 T01280083 $
2026-04-25 05:53:00,METAR KOAK 250553Z 25011KT 10SM FEW020 SCT033 13/09 A2991 RMK AO2 SLP128 T01280089 10167 20128 50007 $
2026-04-25 04:53:00,METAR KOAK 250453Z 26012KT 10SM FEW010 SCT030 13/08 A2992 RMK AO2 SLP130 T01330083 $
2026-04-25 03:53:00,METAR KOAK 250353Z 25012KT 10SM FEW010 FEW025 13/08 A2990 RMK AO2 SLP125 T01330083 $
2026-04-25 02:53:00,METAR KOAK 250253Z 25013KT 10SM FEW010 FEW025 14/08 A2989 RMK AO2 SLP121 T01390083 58006 $
2026-04-25 01:53:00,METAR KOAK 250153Z 25014KT 10SM FEW025 FEW250 15/09 A2990 RMK AO2 SLP123 T01500089 $
2026-04-25 00:53:00,METAR KOAK 250053Z 24013KT 10SM FEW014 FEW220 16/09 A2990 RMK AO2 SLP125 T01560089 $
2026-04-24 23:53:00,METAR KOAK 242353Z 25014KT 10SM FEW014 FEW220 17/09 A2991 RMK AO2 SLP127 T01670089 10178 20144 58009 $
2026-04-24 22:53:00,METAR KOAK 242253Z 25013KT 10SM FEW014 FEW200 17/09 A2991 RMK AO2 SLP130 T01720089 $
2026-04-24 21:53:00,METAR KOAK 242153Z 26012KT 10SM FEW014 FEW050 SCT200 17/09 A2993 RMK AO2 SLP135 T01720089 $
2026-04-24 20:53:00,METAR KOAK 242053Z 25011KT 10SM FEW024 FEW090 SCT160 17/09 A2993 RMK AO2 SLP136 T01720089 58012 $
2026-04-24 19:53:00,METAR KOAK 241953Z 27009KT 10SM FEW025 FEW090 SCT160 17/09 A2994 RMK AO2 SLP139 T01670089 $
2026-04-24 18:53:00,METAR KOAK 241853Z 25007KT 10SM FEW025 SCT090 BKN180 16/08 A2996 RMK AO2 SLP146 T01610083 $
2026-04-24 18:41:00,SPECI KOAK 241841Z 23005KT 10SM SCT025 SCT090 BKN180 16/08 A2997 RMK AO2 T01560083 $
2026-04-24 17:53:00,METAR KOAK 241753Z 22005KT 10SM FEW014 BKN025 BKN200 14/08 A2997 RMK AO2 SLP148 T01440083 10144 20122 53002 $
2026-04-24 16:53:00,METAR KOAK 241653Z 20006KT 10SM FEW014 BKN021 BKN200 14/08 A2996 RMK AO2 SLP146 T01390083 $
2026-04-24 15:53:00,METAR KOAK 241553Z 24004KT 10SM FEW014 BKN021 BKN200 13/08 A2996 RMK AO2 SLP146 T01280078 $
2026-04-24 14:53:00,METAR KOAK 241453Z 25006KT 10SM FEW013 BKN021 BKN200 13/08 A2996 RMK AO2 SLP146 T01280078 57000 $
2026-04-24 13:53:00,METAR KOAK 241353Z COR 25009KT 10SM FEW013 BKN020 BKN200 12/08 A2996 RMK AO2 SLP146 T01220083 $
2026-04-24 12:53:00,METAR KOAK 241253Z 26010KT 10SM BKN018 BKN220 12/08 A2996 RMK AO2 SLP146 T01220083 $
2026-04-24 11:53:00,METAR KOAK 241153Z 26011KT 10SM SCT018 BKN220 12/09 A2996 RMK AO2 SLP146 T01220089 10128 20122 56009 $
2026-04-24 10:53:00,METAR KOAK 241053Z 25009KT 10SM SCT018 BKN220 12/09 A2996 RMK AO2 SLP146 T01220089 $
2026-04-24 09:53:00,METAR KOAK 240953Z 24004KT 10SM FEW017 BKN220 12/09 A2997 RMK AO2 SLP148 T01220089 $
2026-04-24 08:53:00,METAR KOAK 240853Z 25008KT 10SM FEW015 FEW230 BKN340 12/09 A2999 RMK AO2 SLP156 T01220089 58009 $
2026-04-24 07:53:00,METAR KOAK 240753Z 24009KT 10SM FEW015 BKN200 12/09 A3001 RMK AO2 SLP161 T01220089 402060083 $
2026-04-24 06:53:00,METAR KOAK 240653Z 25010KT 10SM FEW015 SCT200 13/09 A3001 RMK AO2 SLP161 T01280094 $
2026-04-24 05:53:00,METAR KOAK 240553Z 26012KT 10SM FEW013 SCT200 13/09 A3002 RMK AO2 SLP165 T01280094 10194 20128 50005 $
2026-04-24 04:53:00,METAR KOAK 240453Z 26009KT 10SM FEW010 SCT250 13/09 A3003 RMK AO2 SLP167 T01330094 $
2026-04-24 03:53:00,METAR KOAK 240353Z 27010KT 10SM FEW010 BKN250 14/09 A3002 RMK AO2 SLP164 T01390094 $
2026-04-24 02:53:00,METAR KOAK 240253Z 27012KT 10SM FEW010 FEW200 BKN250 14/09 A3000 RMK AO2 SLP160 T01440094 56006 $
2026-04-24 01:53:00,METAR KOAK 240153Z 25012KT 10SM FEW011 BKN250 17/09 A3001 RMK AO2 SLP161 T01670094
2026-04-24 00:53:00,METAR KOAK 240053Z 25012KT 10SM FEW011 FEW045 BKN250 18/08 A3001 RMK AO2 SLP163 T01830083
2026-04-23 23:53:00,METAR KOAK 232353Z 26014KT 10SM FEW045 BKN250 19/07 A3002 RMK AO2 SLP166 T01940072 10206 20161 56015
2026-04-23 22:53:00,METAR KOAK 232253Z 26015KT 10SM FEW045 SCT250 20/08 A3003 RMK AO2 SLP169 T02000083
2026-04-23 21:53:00,METAR KOAK 232153Z 25013KT 10SM FEW030 SCT045 SCT250 21/10 A3005 RMK AO2 SLP175 T02060100
2026-04-23 20:53:00,METAR KOAK 232053Z 25006KT 10SM FEW033 SCT250 19/09 A3006 RMK AO2 SLP180 T01940089 58019
2026-04-23 19:53:00,METAR KOAK 231953Z 22005KT 10SM FEW030 SCT250 19/09 A3009 RMK AO2 SLP188 T01890089
2026-04-23 18:53:00,METAR KOAK 231853Z 21005KT 10SM FEW028 FEW250 17/09 A3011 RMK AO2 SLP195 T01670089
2026-04-23 17:53:00,METAR KOAK 231753Z 23005KT 10SM FEW026 FEW250 16/09 A3012 RMK AO2 SLP199 T01610094 10167 20083 58005
2026-04-23 16:53:00,METAR KOAK 231653Z 22005KT 10SM FEW025 FEW250 16/10 A3013 RMK AO2 SLP201 T01560100
2026-04-23 15:53:00,METAR KOAK 231553Z 00000KT 10SM FEW025 FEW250 14/09 A3014 RMK AO2 SLP204 T01440089
2026-04-23 14:53:00,METAR KOAK 231453Z 00000KT 10SM FEW025 FEW200 12/10 A3013 RMK AO2 SLP204 T01220100 55000
2026-04-23 13:53:00,METAR KOAK 231353Z 00000KT 10SM FEW025 FEW200 09/09 A3014 RMK AO2 SLP204 T00940089
2026-04-23 12:53:00,METAR KOAK 231253Z 00000KT 10SM CLR 10/09 A3013 RMK AO2 SLP203 T01000089
2026-04-23 11:53:00,METAR KOAK 231153Z 00000KT 10SM FEW006 09/09 A3014 RMK AO2 SLP204 70012 T00940089 10133 20089 56006
2026-04-23 10:53:00,METAR KOAK 231053Z 00000KT 10SM FEW005 11/09 A3014 RMK AO2 SLP205 T01060094
2026-04-23 09:53:00,METAR KOAK 230953Z 01003KT 10SM FEW006 11/09 A3014 RMK AO2 SLP206 T01060089
2026-04-23 09:06:00,SPECI KOAK 230906Z 00000KT 10SM FEW007 11/08 A3015 RMK AO2 T01110083
2026-04-23 08:53:00,METAR KOAK 230853Z 33003KT 10SM CLR 12/09 A3015 RMK AO2 SLP210 T01220089 58009
2026-04-23 07:53:00,METAR KOAK 230753Z 00000KT 10SM FEW000 12/09 A3017 RMK AO2 SLP214 FU FEW000 T01220089 401830111
2026-04-23 07:47:00,SPECI KOAK 230747Z 00000KT 10SM FEW000 12/09 A3017 RMK AO2 FU FEW000
2026-04-23 06:53:00,METAR KOAK 230653Z 34005KT 10SM CLR 12/08 A3018 RMK AO2 SLP218 T01220083
2026-04-23 05:53:00,METAR KOAK 230553Z 33006KT 10SM FEW011 FEW020 13/10 A3018 RMK AO2 SLP220 T01330100 10178 20133 50010
2026-04-23 04:53:00,METAR KOAK 230453Z 31005KT 10SM FEW100 FEW250 14/11 A3018 RMK AO2 SLP221 T01390106
2026-04-23 03:53:00,METAR KOAK 230353Z 28008KT 10SM FEW035 14/10 A3016 RMK AO2 SLP214 T01440100
2026-04-23 02:53:00,METAR KOAK 230253Z 28008KT 10SM FEW020 FEW035 14/10 A3015 RMK AO2 SLP210 T01440100 56003
2026-04-23 01:53:00,METAR KOAK 230153Z 26010KT 10SM FEW020 SCT035TCU SCT080 17/10 A3015 RMK AO2 SLP211 TCU NE-E T01670100
2026-04-23 00:53:00,METAR KOAK 230053Z 26010KT 10SM SCT030CB SCT080 17/10 A3016 RMK AO2 SLP212 CB NE TCU N-E T01720100
2026-04-22 23:53:00,METAR KOAK 222353Z 27010KT 10SM FEW025 SCT030CB SCT060 18/09 A3016 RMK AO2 SLP214 CB N T01780094 10183 20144 58007
2026-04-22 22:53:00,METAR KOAK 222253Z 28010KT 10SM SCT030 SCT070 18/11 A3017 RMK AO2 SLP216 TCU DSNT N AND NW T01780106
2026-04-22 21:53:00,METAR KOAK 222153Z 17007KT 10SM FEW025 SCT030 SCT040 18/11 A3018 RMK AO2 SLP219 T01780106
2026-04-22 20:53:00,METAR KOAK 222053Z 14010KT 10SM SCT040 SCT050 17/11 A3018 RMK AO2 SLP221 T01720106 58004
2026-04-22 19:53:00,METAR KOAK 221953Z 13012KT 10SM FEW025 SCT040 SCT050 17/12 A3018 RMK AO2 SLP221 T01670117
2026-04-22 18:53:00,METAR KOAK 221853Z 13012KT 10SM FEW028 BKN048 BKN060 16/11 A3020 RMK AO2 SLP225 T01560111
2026-04-22 18:18:00,SPECI KOAK 221818Z 13012KT 10SM SCT028 BKN048 BKN060 16/11 A3019 RMK AO2 T01560111
2026-04-22 17:53:00,METAR KOAK 221753Z 12012KT 10SM FEW019 BKN028 BKN033 14/11 A3019 RMK AO2 SLP224 60012 T01440111 10150 20111 53016
2026-04-22 17:18:00,SPECI KOAK 221718Z 11013KT 10SM SCT019 BKN024 BKN033 14/11 A3018 RMK AO2 T01390106
2026-04-22 16:53:00,METAR KOAK 221653Z COR 12011KT 10SM FEW011 SCT022 BKN030 13/11 A3018 RMK AO2 SLP218 T01330106
2026-04-22 15:53:00,METAR KOAK 221553Z 12011KT 10SM FEW010 BKN030 BKN055 12/11 A3016 RMK AO2 RAB1459E08 SLP214 P0000 T01220106
2026-04-22 14:53:00,METAR KOAK 221453Z 14009KT 10SM FEW014 BKN039 BKN047 12/10 A3015 RMK AO2 RAE51 SLP209 P0006 60012 T01170100 51014
2026-04-22 14:47:00,SPECI KOAK 221447Z 13012KT 10SM -RA FEW014 BKN039 BKN047 12/10 A3015 RMK AO2 P0006
2026-04-22 13:53:00,METAR KOAK 221353Z 13014KT 6SM RA BR BKN028 BKN039 OVC070 12/10 A3012 RMK AO2 RAB04 SLP200 P0006 T01170100
2026-04-22 12:53:00,METAR KOAK 221253Z 13014KT 10SM FEW012 BKN050 OVC120 12/09 A3011 RMK AO2 RAB26E51 SLP195 P0000 T01170094 $
2026-04-22 11:53:00,METAR KOAK 221153Z 12011KT 10SM FEW015 SCT036 BKN080 12/10 A3011 RMK AO2 SLP195 70007 T01220100 10133 20122 53001 $
2026-04-22 10:53:00,METAR KOAK 221053Z 16008KT 10SM FEW010 FEW017 BKN110 13/08 A3011 RMK AO2 SLP194 T01280083 $
2026-04-22 09:53:00,METAR KOAK 220953Z 17008KT 10SM FEW010 FEW017 FEW044 13/09 A3010 RMK AO2 SLP192 T01280089 $
2026-04-22 08:53:00,METAR KOAK 220853Z 17011KT 10SM FEW012 FEW018 FEW045 13/09 A3011 RMK AO2 SLP194 T01280089 51010 $
2026-04-22 07:53:00,METAR KOAK 220753Z 18009KT 10SM FEW012 FEW019 FEW047 13/08 A3010 RMK AO2 SLP193 T01280083 401720117 $
2026-04-22 06:53:00,METAR KOAK 220653Z 19010KT 10SM FEW012 FEW024 SCT050 13/09 A3009 RMK AO2 SLP189 T01330089 $
2026-04-22 05:53:00,METAR KOAK 220553Z 24009KT 10SM FEW014 SCT026 SCT050 13/08 A3008 RMK AO2 SLP184 60000 T01330083 10167 20133 51024 $
2026-04-22 04:53:00,METAR KOAK 220453Z 24009KT 10SM SCT025 BKN060 13/08 A3007 RMK AO2 SLP181 T01330083 $
2026-04-22 03:53:00,METAR KOAK 220353Z 24012KT 10SM FEW010 FEW030 BKN070 14/08 A3004 RMK AO2 SLP171 T01390078 $
2026-04-22 02:53:00,METAR KOAK 220253Z 23011KT 10SM FEW015 SCT030 SCT040 14/09 A3000 RMK AO2 RAB01E10 SLP160 P0000 60000 T01390089 51015 $
2026-04-22 01:53:00,METAR KOAK 220153Z 27011KT 10SM FEW020 BKN030 BKN042 14/09 A2999 RMK AO2 SLP156 T01390089 $
2026-04-22 00:53:00,METAR KOAK 220053Z 25013KT 10SM FEW020 SCT028 SCT055 16/08 A2998 RMK AO2 SLP152 T01610083 $
2026-04-21 23:53:00,METAR KOAK 212353Z 24014KT 10SM FEW010 BKN040 BKN050 17/09 A2996 RMK AO2 SLP145 60004 T01670094 10172 20139 51005 $
2026-04-21 22:53:00,METAR KOAK 212253Z 24014KT 10SM FEW020 BKN034 BKN050 17/09 A2996 RMK AO2 SLP144 T01670094 $
2026-04-21 21:53:00,METAR KOAK 212153Z 23013KT 10SM SCT025 BKN060 BKN080 16/09 A2995 RMK AO2 RAB2058E40 SLP143 P0000 T01560094 $
2026-04-21 20:53:00,METAR KOAK 212053Z 24015KT 10SM FEW028 BKN045 BKN100 16/11 A2994 RMK AO2 RAB15E28 SLP140 P0000 60004 T01610106 53002 $
2026-04-21 19:53:00,METAR KOAK 211953Z 22014KT 10SM FEW028 BKN040 BKN060 15/11 A2994 RMK AO2 RAB23E50 SLP137 P0004 T01500106 $
2026-04-21 18:53:00,METAR KOAK 211853Z 20009KT 10SM FEW026 SCT060 BKN080 BKN200 16/11 A2994 RMK AO2 SLP139 T01610106 $
2026-04-21 17:53:00,METAR KOAK 211753Z 18011KT 10SM FEW019 SCT036 BKN095 15/11 A2994 RMK AO2 RAB1658E36 SLP137 P0001 60003 T01500111 10150 20122 53012 $
2026-04-21 16:53:00,METAR KOAK 211653Z 16009KT 10SM FEW013 BKN049 BKN110 15/11 A2992 RMK AO2 RAE09 SLP132 P0000 T01500111 $
2026-04-21 16:17:00,SPECI KOAK 211617Z 16008KT 10SM FEW013 BKN049 BKN100 14/12 A2992 RMK AO2 RAE09 P0000 T01390117 $
2026-04-21 15:53:00,METAR KOAK 211553Z 15008KT 7SM -RA SCT012 BKN019 OVC050 13/12 A2992 RMK AO2 RAB1459E09B30 SLP130 P0001 T01330117
2026-04-21 14:53:00,METAR KOAK 211453Z 11006KT 10SM SCT013 BKN020 BKN040 13/12 A2990 RMK AO2 SLP126 60001 T01280122 53006
2026-04-21 14:30:00,SPECI KOAK 211430Z 11006KT 10SM FEW010 BKN016 BKN029 13/12 A2990 RMK AO2 T01280117
2026-04-21 13:53:00,METAR KOAK 211353Z 12005KT 10SM BKN013 BKN023 BKN032 13/12 A2989 RMK AO2 RAE53 SLP122 P0001 T01280117
2026-04-21 13:44:00,SPECI KOAK 211344Z 13005KT 5SM -RA BR BKN013 BKN023 BKN032 13/12 A2989 RMK AO2 P0001 T01280117
2026-04-21 12:53:00,METAR KOAK 211253Z 10006KT 10SM -RA FEW003 BKN017 OVC050 12/12 A2988 RMK AO2 RAE19B53 SLP119 P0000 T01220117 $
2026-04-21 11:53:00,METAR KOAK 211153Z 17004KT 5SM -RA BR FEW003 BKN018 OVC055 12/11 A2989 RMK AO2 RAB1054 SLP120 P0003 60044 70156 T01220111 10133 20117 57004 $
2026-04-21 10:53:00,METAR KOAK 211053Z 22003KT 9SM FEW002 BKN015 OVC100 12/11 A2989 RMK AO2 RAE49 SLP122 P0004 T01170111 $
2026-04-21 09:53:00,METAR KOAK 210953Z 23004KT 3SM -RA BR FEW002 BKN016 OVC050 12/11 A2989 RMK AO2 SLP122 P0008 T01170106 $
2026-04-21 09:34:00,SPECI KOAK 210934Z 20004KT 10SM -RA FEW004 BKN026 OVC060 12/11 A2989 RMK AO2 P0005 T01220106 $
2026-04-21 09:07:00,SPECI KOAK 210907Z 17003KT 6SM RA BR FEW004 BKN032 OVC080 12/11 A2990 RMK AO2 P0003 T01220106 $
2026-04-21 08:53:00,METAR KOAK 210853Z 17006KT 6SM RA BR FEW004 BKN027 OVC065 12/11 A2990 RMK AO2 SLP124 P0011 60029 T01220106 50000 $
2026-04-21 07:53:00,METAR KOAK 210753Z 17004KT 7SM RA FEW005 BKN024 OVC065 13/11 A2990 RMK AO2 SLP125 P0012 T01280106 402000094 $
2026-04-21 06:53:00,METAR KOAK 210653Z 00000KT 6SM -RA BR FEW005 BKN016 OVC055 13/12 A2990 RMK AO2 SLP124 P0006 T01280117 $
2026-04-21 05:53:00,METAR KOAK 210553Z 23003KT 8SM -RA FEW005 BKN020 OVC036 13/12 A2990 RMK AO2 SLP123 P0009 60069 T01280117 10150 20128 50011 $
2026-04-21 05:03:00,SPECI KOAK 210503Z 26006KT 6SM RA BR FEW005 SCT016 BKN027 13/12 A2990 RMK AO2 P0002 T01280117 $
2026-04-21 04:53:00,METAR KOAK 210453Z 22004KT 2 1/2SM -RA BR SCT008 BKN026 OVC039 13/12 A2991 RMK AO2 SLP128 P0009 T01280117 $
2026-04-21 04:50:00,SPECI KOAK 210450Z 24005KT 2 1/2SM -RA BR SCT008 BKN026 OVC039 13/12 A2991 RMK AO2 P0008 $
2026-04-21 04:24:00,SPECI KOAK 210424Z 00000KT 7SM -RA SCT005 OVC055 13/12 A2990 RMK AO2 P0005 T01280117 $
2026-04-21 03:53:00,METAR KOAK 210353Z 25003KT 6SM RA BR SCT007 BKN010 OVC048 13/12 A2990 RMK AO2 SLP124 VIS NE-SE 2 1/2 P0014 T01280122 $
2026-04-21 03:49:00,SPECI KOAK 210349Z 24006KT 6SM RA BR SCT007 BKN010 OVC048 13/12 A2990 RMK AO2 VIS NE-SE 2 1/2 P0013 $
2026-04-21 03:22:00,SPECI KOAK 210322Z 25008KT 2 1/2SM RA BR SCT008 BKN014 OVC030 13/12 A2989 RMK AO2 P0006 T01330122 $
2026-04-21 02:53:00,METAR KOAK 210253Z 24006KT 4SM -RA BR FEW005 BKN014 OVC048 13/12 A2987 RMK AO2 SLP113 P0007 60037 T01330122 58006 $
2026-04-21 02:51:00,SPECI KOAK 210251Z 24006KT 4SM -RA BR FEW005 BKN014 OVC048 13/12 A2986 RMK AO2 P0007 $
2026-04-21 02:12:00,SPECI KOAK 210212Z 23009KT 3SM -RA BR FEW008 SCT027 OVC045 14/13 A2988 RMK AO2 P0003 T01390128 $
2026-04-21 01:53:00,METAR KOAK 210153Z 20010KT 2 1/2SM RA BR SCT012 BKN040 OVC065 14/12 A2988 RMK AO2 SLP118 P0018 T01390122 $
2026-04-21 01:17:00,SPECI KOAK 210117Z 00000KT 2 1/2SM RA BR FEW015 BKN030 OVC041 14/13 A2988 RMK AO2 P0008 T01390128 $
2026-04-21 00:53:00,METAR KOAK 210053Z 00000KT 5SM -RA BR FEW010 BKN030 OVC046 14/13 A2989 RMK AO2 SLP121 P0012 T01390128 $
2026-04-20 23:53:00,METAR KOAK 202353Z COR 17007KT 5SM RA BR FEW015 BKN055 OVC060 14/12 A2988 RMK AO2 SLP119 P0015 60043 T01440122 10200 20144 58008 $
2026-04-20 23:39:00,SPECI KOAK 202339Z COR 17008KT 5SM -RA BR FEW023 BKN055 OVC060 14/12 A2989 RMK AO2 RAEMM P0012 T01440122 $
2026-04-20 23:23:00,SPECI KOAK 202323Z 16015KT 2 1/2SM RA BKN040 BKN055 OVC060 15/12 A2990 RMK AO2 P0009 T01500117
2026-04-20 22:53:00,METAR KOAK 202253Z 17011KT 5SM -RA BR FEW015 BKN055 OVC060 15/13 A2990 RMK AO2 SLP125 P0015 T01500128
2026-04-20 21:53:00,METAR KOAK 202153Z 17011G21KT 7SM RA BKN039 BKN044 OVC055 16/13 A2991 RMK AO2 SLP127 P0006 T01610128
2026-04-20 20:53:00,METAR KOAK 202053Z 17011KT 9SM -RA BKN040 OVC050 16/13 A2990 RMK AO2 SLP126 P0003 60007 T01610128 50003
2026-04-20 19:53:00,METAR KOAK 201953Z 18011KT 4SM RA BR BKN045 OVC065 16/13 A2992 RMK AO2 WSHFT 1925 RAB19 SLP132 P0004 T01560133
2026-04-20 19:42:00,SPECI KOAK 201942Z 20015KT 5SM RA BKN045 OVC065 16/13 A2992 RMK AO2 WSHFT 1925 RAB19 P0001 T01610133
2026-04-20 18:53:00,METAR KOAK 201853Z 13014KT 10SM FEW006 BKN047 19/07 A2990 RMK AO2 SLP124 T01940067
2026-04-20 17:53:00,METAR KOAK 201753Z COR 13014G22KT 10SM FEW030 SCT050 BKN120 20/07 A2990 RMK AO2 SLP123 60000 T02000067 10200 20094 55003
2026-04-20 16:53:00,METAR KOAK 201653Z 12014G26KT 10SM FEW025 SCT070 BKN120 18/06 A2989 RMK AO2 PK WND 12026/1646 RAB14E23 SLP122 P0000 T01780061
2026-04-20 15:53:00,METAR KOAK 201553Z 11015KT 10SM FEW025 SCT038 BKN085 16/08 A2991 RMK AO2 SLP127 T01560078
2026-04-20 14:53:00,METAR KOAK 201453Z 10009KT 10SM BKN038 BKN100 13/06 A2991 RMK AO2 SLP127 T01330056 53009
2026-04-20 13:53:00,METAR KOAK 201353Z 08004KT 10SM FEW020 BKN100 BKN250 11/02 A2989 RMK AO2 SLP121 T01110022 $
2026-04-20 12:53:00,METAR KOAK 201253Z 00000KT 10SM FEW015 SCT120 10/03 A2989 RMK AO2 SLP119 T01000028 $
2026-04-20 11:53:00,METAR KOAK 201153Z 15007KT 10SM SCT120 13/07 A2988 RMK AO2 SLP118 T01330067 10156 20111 55002 $
2026-04-20 10:53:00,METAR KOAK 201053Z 12007KT 10SM SCT110 12/02 A2987 RMK AO2 SLP114 T01170017 $
2026-04-20 09:53:00,METAR KOAK 200953Z COR 08005KT 10SM FEW020 SCT110 12/02 A2988 RMK AO2 SLP118 T01170017 $
2026-04-20 08:53:00,METAR KOAK 200853Z 09008KT 10SM FEW020 BKN200 13/01 A2989 RMK AO2 SLP119 T01280011 58004 $
2026-04-20 07:53:00,METAR KOAK 200753Z 20009KT 10SM FEW022 BKN200 14/03 A2990 RMK AO2 SLP125 T01440028 402110106 $
2026-04-20 06:53:00,METAR KOAK 200653Z 22016KT 10SM FEW006 FEW020 BKN200 14/08 A2990 RMK AO2 SLP123 T01440078 $
2026-04-20 05:53:00,METAR KOAK 200553Z 22015KT 10SM FEW006 FEW020 BKN200 16/00 A2990 RMK AO2 SLP125 T01560000 10189 20150 53015 $
2026-04-20 04:53:00,METAR KOAK 200453Z 20007KT 10SM FEW006 FEW046 SCT140 BKN250 16/01 A2988 RMK AO2 SLP118 T01610006 $
2026-04-20 03:53:00,METAR KOAK 200353Z 27006KT 10SM FEW006 FEW047 SCT140 BKN250 16/01 A2987 RMK AO2 SLP115 T01610011 $
2026-04-20 03:37:00,SPECI KOAK 200337Z 26006KT 10SM FEW007 FEW050 SCT140 BKN250 15/04 A2986 RMK AO2 T01500039 $
2026-04-20 02:53:00,METAR KOAK 200253Z 25010KT 10SM FEW010 FEW050 SCT150 BKN250 17/01 A2985 RMK AO2 SLP109 T01670006 51004 $
2026-04-20 01:53:00,METAR KOAK 200153Z 23008KT 10SM FEW012 FEW070 SCT150 BKN250 18/03 A2985 RMK AO2 SLP108 T01780028 $
2026-04-20 00:53:00,METAR KOAK 200053Z 28012KT 10SM FEW012 FEW060 FEW150 BKN220 17/07 A2985 RMK AO2 SLP109 T01720072 $
2026-04-19 23:53:00,METAR KOAK 192353Z 28013KT 10SM FEW012 FEW075 SCT160 BKN220 18/08 A2984 RMK AO2 SLP105 T01830083 10211 20161 56016 $
2026-04-19 22:53:00,METAR KOAK 192253Z 27014KT 10SM FEW013 FEW075 SCT160 BKN250 20/08 A2985 RMK AO2 SLP108 T02000083 $
2026-04-19 21:53:00,METAR KOAK 192153Z 28011KT 10SM FEW014 FEW080 SCT160 BKN250 21/06 A2986 RMK AO2 SLP111 T02060061 $
2026-04-19 20:53:00,METAR KOAK 192053Z 28009KT 10SM SCT180 BKN200 20/08 A2989 RMK AO2 SLP120 T02000083 58014 $
2026-04-19 19:53:00,METAR KOAK 191953Z 29007KT 10SM SCT180 BKN200 19/08 A2990 RMK AO2 SLP126 T01890078 $
2026-04-19 18:53:00,METAR KOAK 191853Z 30007KT 10SM FEW014 SCT150 BKN200 18/10 A2992 RMK AO2 SLP133 T01780100 $
2026-04-19 17:53:00,METAR KOAK 191753Z 22003KT 10SM FEW014 BKN160 16/10 A2993 RMK AO2 SLP135 T01610100 10161 20106 53001 $
2026-04-19 16:53:00,METAR KOAK 191653Z 25004KT 10SM FEW014 SCT160 16/11 A2992 RMK AO2 SLP130 T01560106 $
2026-04-19 15:53:00,METAR KOAK 191553Z VRB03KT 10SM FEW014 BKN150 15/11 A2991 RMK AO2 SLP129 T01500111 $
2026-04-19 14:53:00,METAR KOAK 191453Z 05003KT 10SM FEW014 BKN150 12/11 A2993 RMK AO2 SLP134 T01220106 53003 $
2026-04-19 13:53:00,METAR KOAK 191353Z 36004KT 10SM FEW010 BKN160 11/09 A2992 RMK AO2 SLP130 T01060094 $
2026-04-19 12:53:00,METAR KOAK 191253Z 00000KT 10SM FEW007 BKN200 11/10 A2992 RMK AO2 SLP130 T01110100 $
2026-04-19 11:53:00,METAR KOAK 191153Z 34003KT 10SM FEW007 BKN230 12/10 A2992 RMK AO2 SLP131 T01170100 10139 20117 51003 $
2026-04-19 10:53:00,METAR KOAK 191053Z 29004KT 10SM FEW007 BKN230 12/11 A2992 RMK AO2 SLP130 T01220106 $
2026-04-19 09:53:00,METAR KOAK 190953Z 32004KT 10SM FEW007 BKN230 12/10 A2993 RMK AO2 SLP133 T01220100 $
2026-04-19 08:53:00,METAR KOAK 190853Z 30003KT 10SM FEW005 BKN200 13/10 A2991 RMK AO2 SLP128 T01280100 58006 $
2026-04-19 07:53:00,METAR KOAK 190753Z 28008KT 10SM FEW005 BKN240 13/11 A2993 RMK AO2 SLP133 T01330106 402390078 $
2026-04-19 06:53:00,METAR KOAK 190653Z 31004KT 10SM FEW005 BKN230 13/10 A2993 RMK AO2 SLP134 T01330100 $
2026-04-19 05:53:00,METAR KOAK 190553Z 34004KT 10SM FEW007 BKN220 14/10 A2993 RMK AO2 SLP135 T01390100 10206 20139 50006 $
2026-04-19 04:53:00,METAR KOAK 190453Z 31006KT 10SM FEW007 BKN200 14/09 A2993 RMK AO2 SLP136 T01440089 $
2026-04-19 03:53:00,METAR KOAK 190353Z 28010KT 10SM FEW008 SCT200 BKN250 14/09 A2992 RMK AO2 SLP131 T01440089 $
2026-04-19 02:53:00,METAR KOAK 190253Z 28009KT 10SM FEW007 SCT200 BKN250 17/10 A2991 RMK AO2 SLP129 FU FEW007 T01670100 58005 $
2026-04-19 02:33:00,SPECI KOAK 190233Z 28008KT 10SM FEW005 SCT200 BKN250 17/09 A2991 RMK AO2 FU FEW005 T01670089 $
2026-04-19 01:53:00,METAR KOAK 190153Z 28007KT 10SM SCT200 BKN250 18/07 A2992 RMK AO2 SLP132 T01830067 $
2026-04-19 00:53:00,METAR KOAK 190053Z 28009KT 10SM FEW180 BKN250 19/07 A2992 RMK AO2 SLP132 T01940072 $
2026-04-18 23:53:00,METAR KOAK 182353Z 27011KT 10SM FEW180 BKN250 21/10 A2992 RMK AO2 SLP133 T02060100 10239 20161 58016 $
2026-04-18 22:53:00,METAR KOAK 182253Z 27011KT 10SM FEW180 BKN250 23/08 A2994 RMK AO2 SLP139 T02280083 $
2026-04-18 21:53:00,METAR KOAK 182153Z 29008KT 10SM BKN250 23/06 A2996 RMK AO2 SLP144 T02330061 $
2026-04-18 20:53:00,METAR KOAK 182053Z 29008KT 10SM BKN250 22/08 A2997 RMK AO2 SLP149 T02170083 58017 $
2026-04-18 19:53:00,METAR KOAK 181953Z 27009KT 10SM BKN250 19/05 A2999 RMK AO2 SLP156 T01940050 $
2026-04-18 18:53:00,METAR KOAK 181853Z 25008KT 10SM BKN230 17/10 A3001 RMK AO2 SLP161 T01720100 $
2026-04-18 17:53:00,METAR KOAK 181753Z 23006KT 10SM BKN250 16/09 A3002 RMK AO2 SLP165 T01610094 10161 20078 58001 $
2026-04-18 16:53:00,METAR KOAK 181653Z 22004KT 10SM BKN250 15/09 A3002 RMK AO2 SLP165 T01500089 $
2026-04-18 15:53:00,METAR KOAK 181553Z 19004KT 10SM BKN250 14/09 A3003 RMK AO2 SLP168 T01390089 $
2026-04-18 14:53:00,METAR KOAK 181453Z 02003KT 10SM SCT250 12/08 A3002 RMK AO2 SLP166 T01170083 53002 $
2026-04-18 13:53:00,METAR KOAK 181353Z 03005KT 10SM SCT150 SCT250 08/06 A3002 RMK AO2 SLP163 T00780061 $
2026-04-18 12:53:00,METAR KOAK 181253Z 00000KT 10SM FEW200 08/07 A3001 RMK AO2 SLP162 T00830067 $
2026-04-18 11:53:00,METAR KOAK 181153Z 05004KT 10SM FEW200 08/07 A3002 RMK AO2 SLP165 T00830067 10139 20078 56009 $
2026-04-18 10:53:00,METAR KOAK 181053Z 04004KT 10SM SCT200 09/06 A3003 RMK AO2 SLP168 T00890061 $
2026-04-18 09:53:00,METAR KOAK 180953Z 05003KT 10SM SCT200 08/05 A3003 RMK AO2 SLP168 T00830050 $
2026-04-18 08:53:00,METAR KOAK 180853Z 07005KT 10SM SCT200 09/07 A3005 RMK AO2 SLP174 SCT V FEW T00890067 56004 $
2026-04-18 07:53:00,METAR KOAK 180753Z 00000KT 10SM BKN200 12/08 A3005 RMK AO2 SLP176 T01170078 402170078 $
2026-04-18 06:53:00,METAR KOAK 180653Z 27005KT 10SM BKN200 12/08 A3005 RMK AO2 SLP176 T01220083 $
2026-04-18 05:53:00,METAR KOAK 180553Z 26007KT 10SM BKN200 13/09 A3006 RMK AO2 SLP178 T01330089 10194 20128 51007 $
2026-04-18 04:53:00,METAR KOAK 180453Z 26006KT 10SM BKN250 14/08 A3006 RMK AO2 SLP177 T01390083 $
2026-04-18 03:53:00,METAR KOAK 180353Z 27006KT 10SM BKN250 14/07 A3004 RMK AO2 SLP172 T01390072 $
2026-04-18 02:53:00,METAR KOAK 180253Z 28007KT 10SM FEW200 BKN250 16/03 A3004 RMK AO2 SLP171 T01560033 55000 $
2026-04-18 01:53:00,METAR KOAK 180153Z 28007KT 10SM SCT200 BKN250 17/04 A3003 RMK AO2 SLP168 T01720039 $
2026-04-18 00:53:00,METAR KOAK 180053Z 27012KT 10SM BKN250 18/02 A3003 RMK AO2 SLP169 T01830022 $
2026-04-17 23:53:00,METAR KOAK 172353Z 24013KT 10SM BKN250 19/05 A3004 RMK AO2 SLP170 T01940050 10217 20172 58012 $
2026-04-17 22:53:00,METAR KOAK 172253Z 24014KT 10SM SCT250 21/06 A3005 RMK AO2 SLP174 T02060056 $
2026-04-17 21:53:00,METAR KOAK 172153Z 27011KT 10SM SCT250 21/M03 A3006 RMK AO2 SLP179 T02111028 $
2026-04-17 20:53:00,METAR KOAK 172053Z 26011KT 10SM SCT200 20/M02 A3007 RMK AO2 SLP182 T02001017 58007 $
2026-04-17 19:53:00,METAR KOAK 171953Z 27012KT 10SM SCT200 19/M01 A3008 RMK AO2 SLP184 T01941011 $
2026-04-17 18:53:00,METAR KOAK 171853Z 26011KT 10SM SCT200 18/M02 A3009 RMK AO2 SLP189 T01831017 $
2026-04-17 17:53:00,METAR KOAK 171753Z 27008KT 10SM FEW200 17/M03 A3009 RMK AO2 SLP190 T01721033 10183 20078 51006 $
2026-04-17 16:53:00,METAR KOAK 171653Z 36007KT 10SM FEW200 18/M05 A3009 RMK AO2 SLP187 T01781050 $
2026-04-17 15:53:00,METAR KOAK 171553Z VRB03KT 10SM FEW200 16/M05 A3008 RMK AO2 SLP186 T01561050 $
2026-04-17 14:53:00,METAR KOAK 171453Z 01008KT 10SM FEW200 13/M01 A3007 RMK AO2 SLP183 T01281011 53007 $
2026-04-17 13:53:00,METAR KOAK 171353Z 04003KT 10SM CLR 08/M02 A3006 RMK AO2 SLP180 T00831022 $
2026-04-17 12:53:00,METAR KOAK 171253Z 00000KT 10SM CLR 08/M02 A3005 RMK AO2 SLP176 T00831022 $
2026-04-17 11:53:00,METAR KOAK 171153Z 00000KT 10SM CLR 13/M05 A3005 RMK AO2 SLP176 T01331050 10156 20128 53004 $
2026-04-17 10:53:00,METAR KOAK 171053Z 32006KT 10SM CLR 13/M03 A3004 RMK AO2 SLP170 T01331028 $
2026-04-17 09:53:00,METAR KOAK 170953Z 30006KT 10SM CLR 14/M04 A3004 RMK AO2 SLP170 T01391039 $
2026-04-17 08:53:00,METAR KOAK 170853Z 31007KT 10SM CLR 14/M04 A3004 RMK AO2 SLP171 T01441044 56003 $
2026-04-17 07:53:00,METAR KOAK 170753Z 28010KT 10SM CLR 15/M04 A3004 RMK AO2 SLP173 T01501039 402170089 $
2026-04-17 06:53:00,METAR KOAK 170653Z 27005KT 10SM CLR 15/M01 A3004 RMK AO2 SLP172 T01501011 $
2026-04-17 05:53:00,METAR KOAK 170553Z 28007KT 10SM CLR 14/04 A3005 RMK AO2 SLP175 T01390044 10211 20139 50008 $
2026-04-17 04:53:00,METAR KOAK 170453Z 28008KT 10SM CLR 15/08 A3005 RMK AO2 SLP177 T01500078 $
2026-04-17 03:53:00,METAR KOAK 170353Z 30005KT 10SM FEW250 16/05 A3004 RMK AO2 SLP171 T01560050 $
2026-04-17 02:53:00,METAR KOAK 170253Z 31008G16KT 10SM FEW250 17/03 A3002 RMK AO2 SLP166 T01720033 53000 $
2026-04-17 01:53:00,METAR KOAK 170153Z 30011G17KT 10SM FEW250 19/03 A3001 RMK AO2 SLP164 T01940028 $
2026-04-17 00:53:00,METAR KOAK 170053Z 26015KT 10SM FEW250 20/08 A3002 RMK AO2 SLP164 T02000078 $
2026-04-16 23:53:00,METAR KOAK 162353Z 26016KT 10SM FEW250 20/06 A3002 RMK AO2 SLP166 T02000061 10217 20150 56017 $
2026-04-16 22:53:00,METAR KOAK 162253Z 26016G28KT 10SM FEW250 20/05 A3003 RMK AO2 PK WND 27028/2250 SLP170 T02000050 $
2026-04-16 21:53:00,METAR KOAK 162153Z 26015KT 10SM SCT250 21/04 A3005 RMK AO2 WSHFT 2100 SLP176 T02060044 $
2026-04-16 21:17:00,SPECI KOAK 162117Z 27017KT 10SM SCT250 20/01 A3006 RMK AO2 WSHFT 2100 T02000011 $
2026-04-16 20:53:00,METAR KOAK 162053Z 36013G18KT 10SM SCT250 21/M04 A3007 RMK AO2 PK WND 28026/2000 SLP182 T02111039 58014 $
2026-04-16 19:53:00,METAR KOAK 161953Z 28016G20KT 10SM SCT250 19/02 A3009 RMK AO2 SLP189 T01890022 $
2026-04-16 18:53:00,METAR KOAK 161853Z 14007KT 100V160 10SM BKN250 18/01 A3010 RMK AO2 SLP194 T01780011 $
2026-04-16 17:53:00,METAR KOAK 161753Z VRB04KT 10SM FEW018 BKN250 16/07 A3011 RMK AO2 SLP197 T01560067 10161 20089 51012 $
2026-04-16 16:53:00,METAR KOAK 161653Z 34005KT 10SM FEW016 SCT250 15/03 A3011 RMK AO2 SLP195 T01500028 $
2026-04-16 15:53:00,METAR KOAK 161553Z 02006KT 10SM FEW016 FEW250 14/03 A3010 RMK AO2 SLP192 T01390033 $
2026-04-16 14:53:00,METAR KOAK 161453Z 02005KT 10SM FEW006 FEW016 SCT250 12/05 A3008 RMK AO2 SLP186 T01220050 53008 $
2026-04-16 13:53:00,METAR KOAK 161353Z 00000KT 10SM FEW006 FEW016 SCT250 09/08 A3007 RMK AO2 SLP182 T00940078 $
2026-04-16 12:53:00,METAR KOAK 161253Z 01004KT 10SM FEW004 FEW016 FEW180 09/08 A3006 RMK AO2 SLP179 T00940078 $
2026-04-16 12:25:00,SPECI KOAK 161225Z 34003KT 10SM FEW006 SCT014 11/08 A3006 RMK AO2 T01060078 $
2026-04-16 11:53:00,METAR KOAK 161153Z 25009KT 10SM FEW007 BKN014 11/08 A3006 RMK AO2 SLP178 T01110078 10139 20111 56010 $
2026-04-16 10:53:00,METAR KOAK 161053Z 27013KT 10SM FEW008 BKN014 12/09 A3006 RMK AO2 SLP178 T01220089 $
2026-04-16 09:53:00,METAR KOAK 160953Z 27011KT 10SM FEW006 BKN011 12/09 A3007 RMK AO2 SLP182 T01220094 $
2026-04-16 09:28:00,SPECI KOAK 160928Z 24011KT 10SM FEW004 BKN010 12/10 A3008 RMK AO2 T01220100 $
2026-04-16 08:53:00,METAR KOAK 160853Z 25012KT 10SM FEW003 BKN009 13/11 A3009 RMK AO2 SLP188 T01280111 56005 $
2026-04-16 08:35:00,SPECI KOAK 160835Z 27013KT 10SM FEW004 BKN009 13/11 A3008 RMK AO2 T01280111 $
2026-04-16 07:53:00,METAR KOAK 160753Z 26010KT 10SM FEW005 BKN011 13/11 A3009 RMK AO2 SLP189 T01330111 401830106 $
2026-04-16 07:35:00,SPECI KOAK 160735Z 27012KT 10SM FEW007 BKN014 13/11 A3009 RMK AO2 T01330111 $
2026-04-16 06:53:00,METAR KOAK 160653Z 26009KT 10SM FEW007 FEW015 13/11 A3009 RMK AO2 SLP190 T01330106 $
2026-04-16 05:53:00,METAR KOAK 160553Z 27012KT 10SM FEW008 FEW015 14/11 A3010 RMK AO2 SLP193 T01390106 10167 20133 51008 $
2026-04-16 05:47:00,SPECI KOAK 160547Z 27011KT 10SM FEW008 FEW015 14/11 A3010 RMK AO2 $
2026-04-16 04:53:00,METAR KOAK 160453Z 27013KT 10SM FEW015 FEW030 14/11 A3010 RMK AO2 SLP192 T01390106 $
2026-04-16 03:53:00,METAR KOAK 160353Z 27015KT 10SM FEW015 FEW030 14/10 A3009 RMK AO2 SLP188 T01390100 $
2026-04-16 02:53:00,METAR KOAK 160253Z 26014KT 10SM FEW015 SCT030 BKN250 14/11 A3008 RMK AO2 SLP186 SCSL N-NE AND NW T01440106 55000 $
2026-04-16 01:53:00,METAR KOAK 160153Z 26019KT 10SM FEW015 FEW030 BKN250 15/10 A3007 RMK AO2 SLP183 SCSL N-E AND NW T01500100 $
2026-04-16 00:53:00,METAR KOAK 160053Z 25020KT 10SM FEW015 FEW030 BKN250 16/09 A3007 RMK AO2 SLP183 SCSL N T01610094 $
2026-04-15 23:53:00,METAR KOAK 152353Z 25016KT 10SM FEW020 FEW040 BKN200 17/09 A3008 RMK AO2 SLP186 T01670094 10183 20150 56012 $
2026-04-15 22:53:00,METAR KOAK 152253Z 26017KT 10SM FEW020 FEW040 BKN200 18/09 A3009 RMK AO2 SLP189 T01780094 $
2026-04-15 21:53:00,METAR KOAK 152153Z 25015KT 10SM FEW015 SCT040 BKN230 18/10 A3010 RMK AO2 SLP192 T01830100 $
2026-04-15 20:53:00,METAR KOAK 152053Z 23013KT 10SM FEW028 BKN200 BKN250 17/09 A3012 RMK AO2 SLP198 T01670094 58006 $
2026-04-15 19:53:00,METAR KOAK 151953Z 25009KT 10SM FEW028 BKN200 BKN250 17/08 A3012 RMK AO2 SLP199 T01670083 $
2026-04-15 18:53:00,METAR KOAK 151853Z 22011KT 10SM FEW025 SCT180 BKN250 16/08 A3013 RMK AO2 SLP204 T01560083 $
2026-04-15 17:53:00,METAR KOAK 151753Z 24011KT 10SM FEW024 FEW180 BKN250 15/08 A3013 RMK AO2 SLP204 T01500078 10150 20106 52008 $
2026-04-15 16:53:00,METAR KOAK 151653Z 26008KT 10SM FEW020 FEW180 BKN250 13/07 A3013 RMK AO2 SLP202 T01330067 $
2026-04-15 15:53:00,METAR KOAK 151553Z 22008G17KT 10SM FEW020 SCT180 BKN250 13/07 A3012 RMK AO2 SLP198 T01280072 $
2026-04-15 14:53:00,METAR KOAK 151453Z 21004KT 10SM FEW018 SCT160 BKN250 12/07 A3011 RMK AO2 SLP196 T01220072 53008 $
2026-04-15 14:32:00,SPECI KOAK 151432Z 20006KT 10SM SCT018 BKN160 12/07 A3011 RMK AO2 T01170072 $
2026-04-15 13:53:00,METAR KOAK 151353Z 23004KT 10SM FEW008 BKN017 12/09 A3010 RMK AO2 SLP191 T01170089 $
2026-04-15 12:53:00,METAR KOAK 151253Z 16003KT 10SM FEW008 BKN017 11/09 A3009 RMK AO2 SLP188 T01110089 $
2026-04-15 12:20:00,SPECI KOAK 151220Z 17003KT 10SM FEW008 BKN016 11/09 A3009 RMK AO2 T01110089 $
2026-04-15 11:53:00,METAR KOAK 151153Z 00000KT 10SM FEW008 SCT016 11/08 A3009 RMK AO2 SLP188 T01110083 10122 20111 56013 $
2026-04-15 10:53:00,METAR KOAK 151053Z 19007KT 10SM FEW009 FEW016 12/08 A3010 RMK AO2 SLP191 T01170083 $
2026-04-15 10:45:00,SPECI KOAK 151045Z 20007KT 10SM FEW009 SCT016 12/08 A3010 RMK AO2 T01170083 $
2026-04-15 09:53:00,METAR KOAK 150953Z 21007KT 10SM FEW011 BKN018 12/08 A3011 RMK AO2 SLP196 T01220083 $
2026-04-15 09:36:00,SPECI KOAK 150936Z 21008KT 10SM FEW011 BKN018 12/08 A3012 RMK AO2 T01220083 $
2026-04-15 08:53:00,METAR KOAK 150853Z 21008KT 10SM FEW014 12/08 A3012 RMK AO2 SLP200 T01170083 56010 $
2026-04-15 07:53:00,METAR KOAK 150753Z 23008KT 10SM FEW014 12/08 A3013 RMK AO2 SLP203 T01170078 401670100 $
2026-04-15 06:53:00,METAR KOAK 150653Z 24010KT 10SM FEW015 12/08 A3014 RMK AO2 SLP206 T01220078 $
2026-04-15 05:53:00,METAR KOAK 150553Z 25011KT 10SM FEW015 12/08 A3015 RMK AO2 SLP210 T01220078 10161 20122 50003 $
2026-04-15 04:53:00,METAR KOAK 150453Z 26014KT 10SM FEW020 12/07 A3016 RMK AO2 SLP211 T01220072 $
2026-04-15 03:53:00,METAR KOAK 150353Z 27016KT 10SM FEW030 FEW250 12/08 A3015 RMK AO2 SLP208 T01220078 $
2026-04-15 02:53:00,METAR KOAK 150253Z 26016KT 10SM FEW025 SCT250 13/07 A3014 RMK AO2 SLP207 T01280072 58009 $
2026-04-15 01:53:00,METAR KOAK 150153Z 26016KT 10SM FEW025 SCT250 14/07 A3015 RMK AO2 SLP210 T01390072 $
2026-04-15 00:53:00,METAR KOAK 150053Z 25018KT 10SM FEW030 SCT250 15/07 A3016 RMK AO2 SLP214 T01500067 $
2026-04-14 23:53:00,METAR KOAK 142353Z 25016KT 10SM FEW027 SCT250 16/07 A3017 RMK AO2 SLP216 T01560067 10167 20144 56015 $
2026-04-14 22:53:00,METAR KOAK 142253Z 25017KT 10SM SCT027 SCT250 16/07 A3018 RMK AO2 SLP219 T01610072 $
2026-04-14 21:53:00,METAR KOAK 142153Z 24015KT 10SM SCT029 SCT250 16/07 A3020 RMK AO2 SLP225 T01610072 $
2026-04-14 20:53:00,METAR KOAK 142053Z 25012KT 10SM SCT030 SCT250 17/08 A3021 RMK AO2 SLP231 T01670078 58006 $
2026-04-14 19:53:00,METAR KOAK 141953Z 24010KT 10SM BKN030 16/08 A3022 RMK AO2 SLP234 T01560078 $
2026-04-14 18:53:00,METAR KOAK 141853Z 23010KT 10SM BKN030 15/07 A3023 RMK AO2 SLP237 T01500072 $
2026-04-14 18:34:00,SPECI KOAK 141834Z 23008KT 10SM BKN030 14/07 A3023 RMK AO2 T01440072 $
2026-04-14 17:53:00,METAR KOAK 141753Z 24008KT 10SM SCT025 BKN029 14/08 A3023 RMK AO2 SLP237 T01390078 10144 20117 52012 $
2026-04-14 16:53:00,METAR KOAK 141653Z 23008KT 10SM SCT022 OVC028 14/08 A3022 RMK AO2 SLP232 T01390083 $
2026-04-14 15:53:00,METAR KOAK 141553Z 25011KT 10SM BKN022 BKN027 13/08 A3021 RMK AO2 SLP229 T01330083 $
2026-04-14 14:53:00,METAR KOAK 141453Z 25005KT 10SM FEW009 BKN017 BKN022 12/09 A3020 RMK AO2 SLP225 T01220089 53013 $
2026-04-14 13:53:00,METAR KOAK 141353Z 22010KT 10SM FEW009 BKN016 BKN022 12/09 A3018 RMK AO2 SLP218 T01220089 $
2026-04-14 12:53:00,METAR KOAK 141253Z 24009KT 10SM FEW009 BKN015 12/09 A3017 RMK AO2 SLP214 T01170089 $
2026-04-14 12:33:00,SPECI KOAK 141233Z 25010KT 10SM FEW009 SCT015 12/09 A3016 RMK AO2 T01170089 $
2026-04-14 12:20:00,SPECI KOAK 141220Z 24009KT 10SM FEW010 SCT015 12/09 A3016 RMK AO2 T01170089 $
2026-04-14 11:53:00,METAR KOAK 141153Z 25010KT 10SM FEW010 BKN015 12/09 A3016 RMK AO2 SLP212 T01220094 10128 20100 53004 $
2026-04-14 11:21:00,SPECI KOAK 141121Z 24006KT 10SM FEW011 BKN018 12/09 A3015 RMK AO2 T01170094 $
2026-04-14 10:53:00,METAR KOAK 141053Z 00000KT 10SM FEW010 12/09 A3014 RMK AO2 SLP207 T01170094 $
2026-04-14 09:53:00,METAR KOAK 140953Z 21006KT 10SM FEW010 12/09 A3014 RMK AO2 SLP205 T01220089 $
2026-04-14 08:53:00,METAR KOAK 140853Z 23006KT 10SM SCT010 12/10 A3015 RMK AO2 SLP208 T01220100 56000 $
2026-04-14 07:53:00,METAR KOAK 140753Z 24006KT 10SM FEW011 12/10 A3015 RMK AO2 SLP209 T01220100 401780083 $
2026-04-14 06:53:00,METAR KOAK 140653Z 22006KT 10SM FEW012 12/09 A3014 RMK AO2 SLP207 T01220094 $
2026-04-14 05:53:00,METAR KOAK 140553Z 26011KT 10SM FEW012 13/09 A3015 RMK AO2 SLP209 T01280094 10172 20128 50012 $
2026-04-14 04:53:00,METAR KOAK 140453Z 26010KT 10SM FEW020 13/09 A3015 RMK AO2 SLP209 T01330089 $
2026-04-14 03:53:00,METAR KOAK 140353Z 27010KT 10SM FEW020 13/09 A3013 RMK AO2 SLP201 T01330089 $
2026-04-14 02:53:00,METAR KOAK 140253Z 27015KT 10SM FEW020 FEW060 14/07 A3011 RMK AO2 SLP197 T01390072 53005 $
2026-04-14 01:53:00,METAR KOAK 140153Z 26015KT 10SM FEW015 FEW040 FEW060 16/08 A3011 RMK AO2 SLP195 T01560078 $
2026-04-14 00:53:00,METAR KOAK 140053Z 27015KT 10SM SCT040 SCT070 16/08 A3010 RMK AO2 SLP193 T01610078 $
2026-04-13 23:53:00,METAR KOAK 132353Z 25014KT 10SM SCT040 SCT060 17/08 A3010 RMK AO2 SLP192 T01720078 10178 20144 57008 $
2026-04-13 22:53:00,METAR KOAK 132253Z 25015KT 10SM SCT040 SCT060 17/09 A3011 RMK AO2 SLP195 T01720089 $
2026-04-13 21:53:00,METAR KOAK 132153Z 24011KT 10SM SCT040 SCT060 17/08 A3012 RMK AO2 SLP198 T01720083 $
2026-04-13 20:53:00,METAR KOAK 132053Z 26012KT 10SM SCT032 17/08 A3012 RMK AO2 SLP201 T01720083 58005 $
2026-04-13 19:53:00,METAR KOAK 131953Z 26009KT 10SM SCT032 17/08 A3014 RMK AO2 SLP206 T01670078 $
2026-04-13 18:53:00,METAR KOAK 131853Z 28008KT 10SM SCT027 16/09 A3014 RMK AO2 SLP207 T01560094 $
2026-04-13 17:53:00,METAR KOAK 131753Z 28008KT 10SM SCT025 14/09 A3014 RMK AO2 SLP206 T01440089 10144 20083 51012 $
2026-04-13 16:53:00,METAR KOAK 131653Z 21003KT 10SM SCT022 13/08 A3013 RMK AO2 SLP203 T01280083 $
2026-04-13 15:53:00,METAR KOAK 131553Z 35005KT 10SM FEW015 SCT044 13/08 A3013 RMK AO2 SLP202 T01280083 $
2026-04-13 14:53:00,METAR KOAK 131453Z 07005KT 10SM FEW015 SCT044 12/10 A3011 RMK AO2 SLP194 T01170100 53014 $
2026-04-13 13:53:00,METAR KOAK 131353Z 33003KT 10SM FEW015 BKN046 BKN110 09/09 A3009 RMK AO2 SLP189 T00940094 $
2026-04-13 12:53:00,METAR KOAK 131253Z 03005KT 10SM SCT012 SCT035 BKN110 09/08 A3008 RMK AO2 SLP184 T00890083 $
2026-04-13 11:53:00,METAR KOAK 131153Z 08005KT 10SM FEW015 FEW045 BKN110 10/09 A3007 RMK AO2 RAB07E29 SLP180 P0000 60000 70024 T01000094 10128 20100 55001 $
2026-04-13 10:53:00,METAR KOAK 131053Z 03003KT 10SM SCT020 BKN050 10/09 A3006 RMK AO2 RAB05E16 SLP178 P0000 T01000094 $
2026-04-13 09:53:00,METAR KOAK 130953Z 04005KT 10SM FEW013 SCT027 BKN100 11/10 A3006 RMK AO2 SLP179 T01110100 $
2026-04-13 08:53:00,METAR KOAK 130853Z 27005KT 10SM SCT016 BKN032 OVC100 12/09 A3007 RMK AO2 SLP181 T01220094 53005 $
2026-04-13 07:53:00,METAR KOAK 130753Z 22005KT 10SM FEW015 BKN035 BKN050 12/09 A3006 RMK AO2 SLP179 T01220094 401560111 $
2026-04-13 06:53:00,METAR KOAK 130653Z 22009KT 10SM FEW016 BKN032 BKN065 12/10 A3005 RMK AO2 SLP175 T01220100 $
2026-04-13 05:53:00,METAR KOAK 130553Z 19008G22KT 10SM FEW015 BKN030 OVC050 12/10 A3005 RMK AO2 RAE00B30E52 SLP175 P0000 60005 T01220100 10144 20117 51021 $
2026-04-13 04:53:00,METAR KOAK 130453Z 25006KT 7SM -RA FEW010 SCT018 BKN032 12/09 A3003 RMK AO2 RAB33 SLP169 P0002 T01220094 $
2026-04-13 03:53:00,METAR KOAK 130353Z 23008KT 10SM FEW012 SCT025 BKN050 13/09 A3001 RMK AO2 SLP161 T01280089 $
2026-04-13 02:53:00,METAR KOAK 130253Z 25009KT 10SM FEW013 SCT025 BKN100 13/08 A2999 RMK AO2 SLP154 60003 T01280083 53015 $
2026-04-13 01:53:00,METAR KOAK 130153Z 23015KT 10SM FEW012 SCT025 BKN055 13/09 A2997 RMK AO2 PK WND 22026/0117 RAE0058B19E28 SLP147 P0000 T01330089 $
2026-04-13 00:53:00,METAR KOAK 130053Z 22014KT 10SM -RA FEW010 SCT023 BKN060 13/11 A2996 RMK AO2 PK WND 24027/0018 RAB2355 SLP143 P0003 T01280106 $
2026-04-12 23:53:00,METAR KOAK 122353Z COR 23017KT 10SM FEW010 SCT023 BKN060 14/09 A2994 RMK AO2 SLP139 60016 T01440089 10156 20117 53001 $
2026-04-12 22:53:00,METAR KOAK 122253Z 23016KT 10SM FEW011 SCT032 BKN100 15/10 A2994 RMK AO2 RAB2159E17 SLP137 P0001 T01500100 $
2026-04-12 21:53:00,METAR KOAK 122153Z 22017KT 10SM FEW011 BKN046 BKN100 14/09 A2994 RMK AO2 RAE06 SLP136 P0000 T01390094 $
2026-04-12 21:25:00,SPECI KOAK 122125Z 18014KT 10SM FEW010 SCT024 BKN050 14/11 A2994 RMK AO2 RAE06 P0000 T01390106 $
2026-04-12 20:53:00,METAR KOAK 122053Z 21015KT 5SM R30/5500VP6000FT RA BR BKN022 BKN050 OVC080 12/10 A2994 RMK AO2 RAE28B44 SLP138 P0007 60015 T01220100 51013 $
2026-04-12 19:53:00,METAR KOAK 121953Z 22015G27KT 5SM R30/3000VP6000FT RA BR BKN024 OVC050 12/09 A2994 RMK AO2 PK WND 17027/1910 RAE09B31 SLP136 P0006 T01170094 $
2026-04-12 18:53:00,METAR KOAK 121853Z 18018G25KT 7SM -RA BKN024 BKN040 OVC100 13/10 A2992 RMK AO2 RAB16 SLP130 OCNL LTG DSNT W CB DSNT W P0002 T01330100 $
2026-04-12 17:53:00,METAR KOAK 121753Z 17014KT 10SM BKN024 BKN044 OVC110 14/09 A2990 RMK AO2 RAB40E50 SLP125 P0000 60003 T01390089 10139 20111 53014 $
2026-04-12 17:03:00,SPECI KOAK 121703Z 16015G19KT 10SM BKN024 BKN040 OVC110 13/09 A2989 RMK AO2 T01330094 $
2026-04-12 16:53:00,METAR KOAK 121653Z 19010G18KT 10SM SCT023 BKN030 BKN110 13/09 A2989 RMK AO2 RAB01E47 SLP119 P0001 T01330089 $
2026-04-12 16:34:00,SPECI KOAK 121634Z 20010KT 7SM -RA SCT023 BKN034 BKN110 12/08 A2988 RMK AO2 RAB01 P0001 T01170083 $
2026-04-12 16:05:00,SPECI KOAK 121605Z COR 18013KT 10SM -RA BKN028 BKN050 13/08 A2988 RMK AO2 RAB01 ONCL LGT DSNT W CB DSNT W P0000 T01330083 $
2026-04-12 15:53:00,METAR KOAK 121553Z COR 16013KT 10SM BKN028 BKN110 13/08 A2988 RMK AO2 RAB1455E17B35E52 SLP116 P0000 T01280083 $
2026-04-12 14:53:00,METAR KOAK 121453Z 17014KT 10SM FEW014 BKN028 BKN100 13/08 A2986 RMK AO2 SLP111 60002 T01280083 53016 $
2026-04-12 13:53:00,METAR KOAK 121353Z 17014KT 10SM BKN028 BKN075 12/08 A2984 RMK AO2 RAB11E29 SLP105 P0002 T01170083 $
2026-04-12 13:09:00,SPECI KOAK 121309Z 20014G22KT 180V240 10SM BKN026 BKN035 12/08 A2982 RMK AO2 T01220083 $
2026-04-12 12:53:00,METAR KOAK 121253Z 18008KT 10SM SCT022 BKN048 12/08 A2982 RMK AO2 SLP098 T01220078 $
2026-04-12 11:53:00,METAR KOAK 121153Z 20014KT 10SM SCT027 BKN045 12/08 A2981 RMK AO2 PK WND 22027/1111 SLP095 60023 70102 T01220078 10128 20111 53012 $
2026-04-12 11:20:00,SPECI KOAK 121120Z 21013G27KT 10SM FEW027 BKN037 BKN045 12/08 A2981 RMK AO2 PK WND 22027/1111 T01220083 $
2026-04-12 10:53:00,METAR KOAK 121053Z 21014KT 10SM SCT020 BKN029 BKN040 12/08 A2980 RMK AO2 RAB09E18 SLP091 P0000 T01220083 $
2026-04-12 09:53:00,METAR KOAK 120953Z 21015KT 10SM BKN027 BKN075 12/09 A2979 RMK AO2 RAB0857E13B33E50 SLP087 P0015 T01220094 $
2026-04-12 08:53:00,METAR KOAK 120853Z 21009KT 10SM BKN026 BKN050 13/09 A2978 RMK AO2 RAB33E41 SLP083 P0000 60008 T01280089 58001 $
2026-04-12 07:53:00,METAR KOAK 120753Z 18014KT 10SM BKN029 BKN060 13/08 A2979 RMK AO2 PK WND 19027/0730 RAB01E42 SLP086 P0002 T01280083 401670106 $
2026-04-12 06:53:00,METAR KOAK 120653Z 17012KT 10SM FEW024 BKN029 BKN045 12/08 A2978 RMK AO2 PK WND 22029/0600 RAB0557E20 SLP084 P0006 T01220083 $
2026-04-12 06:20:00,SPECI KOAK 120620Z 17011G18KT 10SM BKN024 BKN030 OVC045 12/08 A2979 RMK AO2 PK WND 22029/0600 RAB0557E20 P0006 T01170083 $
2026-04-12 05:53:00,METAR KOAK 120553Z 17010KT 10SM BKN030 BKN045 OVC060 13/08 A2978 RMK AO2 RAE17 SLP084 AREA OF RA VC S-SW SLWLY MOV N INTST UNKN P0001 60061 T01280083 10144 20106 50000 $
2026-04-12 04:53:00,METAR KOAK 120453Z 13011G18KT 10SM -RA FEW015 SCT022 BKN030 12/09 A2979 RMK AO2 RAB40 SLP086 P0002 T01170089 $
2026-04-12 03:53:00,METAR KOAK 120353Z 14008KT 10SM FEW015 SCT025 BKN048 12/09 A2979 RMK AO2 SLP086 T01170089 $
2026-04-12 02:53:00,METAR KOAK 120253Z 20009KT 10SM FEW008 SCT017 SCT070 12/07 A2978 RMK AO2 RAE04 SLP084 P0000 60058 T01220072 53002 $
2026-04-12 01:53:00,METAR KOAK 120153Z 24009KT 7SM RA SCT008 SCT035 BKN055 11/09 A2977 RMK AO2 PK WND 25026/0059 WSHFT 0040 SLP082 P0023 T01110089 $
2026-04-12 01:07:00,SPECI KOAK 120107Z 25017G26KT 4SM RA BR FEW015 BKN037 OVC048 11/09 A2978 RMK AO2 PK WND 25026/0059 WSHFT 0040 P0005 T01110094 $
2026-04-12 00:58:00,SPECI KOAK 120058Z 24019KT 1 1/2SM R30/2800VP6000FT RA BR FEW017 OVC030 11/09 A2978 RMK AO2 WSHFT 0040 LTG DSNT NW P0002 T01060094 $
2026-04-12 00:53:00,METAR KOAK 120053Z 25022G36KT 1SM R30/2800VP6000FT +RA BR FEW011 BKN029 OVC040 11/09 A2977 RMK AO2 PK WND 23036/0045 WSHFT 0033 LTG DSNT NW SLP081 P0035 T01060094 $
2026-04-12 00:48:00,SPECI KOAK 120048Z 24025G36KT 1 1/4SM R30/3500VP6000FT +RA BR FEW015 BKN029 OVC037 12/11 A2977 RMK AO2 PK WND 23036/0045 WSHFT 0033 LTG DSNT NW PRESRR P0028 $
2026-04-12 00:45:00,SPECI KOAK 120045Z 23027G36KT 1/2SM R30/P6000FT RA FG FEW015 BKN029 OVC037 14/12 A2976 RMK AO2 PK WND 23036/0045 P0023 T01390122 $
2026-04-12 00:43:00,SPECI KOAK 120043Z 21023G32KT 2 1/2SM RA BR FEW018 BKN029 OVC039 14/12 A2976 RMK AO2 PK WND 22032/0042 VIS 3/4V5 P0019 T01440122 $
2026-04-12 00:10:00,SPECI KOAK 120010Z 15014KT 4SM RA BR FEW009 SCT034 BKN049 14/12 A2975 RMK AO2 PK WND 17026/2355 P0005 T01390117 $
2026-04-11 23:53:00,METAR KOAK 112353Z 16018KT 9SM -RA FEW015 SCT033 BKN047 14/12 A2976 RMK AO2 PK WND 16031/2301 SLP079 P0010 60014 T01390117 10167 20133 56026 $
2026-04-11 22:53:00,METAR KOAK 112253Z 16022KT 8SM -RA SCT028 BKN034 OVC043 16/11 A2978 RMK AO2 PK WND 14031/2222 RAB40 SLP085 P0001 T01560111 $
2026-04-11 21:53:00,METAR KOAK 112153Z 15022G30KT 10SM SCT024 SCT034 BKN065 17/11 A2981 RMK AO2 PK WND 13031/2128 SLP095 T01670111 $
2026-04-11 20:53:00,METAR KOAK 112053Z 14019G24KT 10SM FEW010 BKN044 OVC100 16/12 A2984 RMK AO2 PK WND 17028/2023 SLP105 60003 T01560117 58017 $
2026-04-11 19:53:00,METAR KOAK 111953Z 16015KT 10SM FEW008 BKN034 OVC043 14/11 A2989 RMK AO2 PK WND 20037/1913 RAB14E41 SLP120 P0003 T01440111 $
2026-04-11 19:44:00,SPECI KOAK 111944Z 17016KT 10SM FEW008 BKN030 OVC046 14/12 A2989 RMK AO2 PK WND 20037/1913 RAB14E41 P0003 T01440122 $
2026-04-11 19:22:00,SPECI KOAK 111922Z 20021G37KT 4SM -RA BR FEW018 BKN029 OVC035 14/12 A2989 RMK AO2 PK WND 20037/1913 RAB14 VIS N 2 1/2 P0003 T01390117 $
2026-04-11 18:53:00,METAR KOAK 111853Z 16014KT 10SM FEW015 BKN030 BKN040 OVC150 16/12 A2988 RMK AO2 SLP119 T01610117 $
2026-04-11 18:02:00,SPECI KOAK 111802Z 16014KT 10SM FEW005 SCT010 BKN030 14/12 A2989 RMK AO2 T01440122 $
2026-04-11 17:53:00,METAR KOAK 111753Z 17014KT 10SM SCT011 BKN023 BKN034 14/12 A2989 RMK AO2 RAE50 SLP122 VIS E-SE 2 1/2 P0002 60004 T01440122 10156 20133 53002 $
2026-04-11 17:48:00,SPECI KOAK 111748Z COR 17014KT 10SM -RA SCT011 BKN023 BKN034 14/12 A2989 RMK AO2 VIS E-SE 2 1/2 P0002 $
2026-04-11 17:15:00,SPECI KOAK 111715Z 20013KT 2SM -RA BR BKN025 OVC032 14/13 A2989 RMK AO2 P0001 T01390128 $
2026-04-11 16:53:00,METAR KOAK 111653Z 20012KT 3SM -RA BR BKN023 BKN034 OVC044 13/12 A2988 RMK AO2 RAB19 SLP117 P0002 T01330122 $
2026-04-11 16:48:00,SPECI KOAK 111648Z 20012KT 3SM -RA BR SCT019 BKN026 OVC036 14/12 A2988 RMK AO2 RAB19 P0001 $
2026-04-11 16:38:00,SPECI KOAK 111638Z 18013KT 2 1/2SM -RA BR SCT017 BKN026 OVC047 13/12 A2988 RMK AO2 RAB19 P0001 T01330117 $
2026-04-11 15:53:00,METAR KOAK 111553Z 14013KT 10SM SCT015 BKN045 BKN065 BKN200 16/11 A2987 RMK AO2 SLP116 T01560111 $
2026-04-11 14:53:00,METAR KOAK 111453Z 15012KT 10SM FEW008 FEW027 SCT055 BKN200 14/11 A2989 RMK AO2 SLP120 T01440106 53002 $
2026-04-11 13:53:00,METAR KOAK 111353Z 15009KT 10SM FEW008 SCT032 SCT043 BKN200 14/11 A2988 RMK AO2 SLP118 CB DSNT NW T01390106 $
2026-04-11 13:49:00,SPECI KOAK 111349Z 15010KT 10SM FEW008 SCT032 SCT043 BKN200 14/10 A2988 RMK AO2 CB DSNT NW $
2026-04-11 13:04:00,SPECI KOAK 111304Z 16009KT 10SM FEW010 BKN032 BKN043 14/11 A2988 RMK AO2 T01390106 $
2026-04-11 12:53:00,METAR KOAK 111253Z 17009KT 10SM FEW010 BKN029 14/11 A2988 RMK AO2 SLP119 T01390111 $
2026-04-11 11:53:00,METAR KOAK 111153Z 17011KT 8SM FEW012 BKN028 OVC047 13/12 A2988 RMK AO2 RAB04E39 SLP118 P0001 60003 70043 T01330117 10150 20133 55001 $
2026-04-11 10:53:00,METAR KOAK 111053Z 21010G16KT 9SM FEW018 BKN026 OVC040 14/12 A2988 RMK AO2 SLP117 AREA OF RA DSNT NW MOV N INTST UNKN T01440117 $
2026-04-11 09:53:00,METAR KOAK 110953Z 17010KT 10SM FEW011 BKN023 BKN070 14/12 A2988 RMK AO2 SLP117 T01440117 $
2026-04-11 08:53:00,METAR KOAK 110853Z 22006KT 10SM FEW013 BKN026 BKN060 14/12 A2988 RMK AO2 RAE0759 SLP119 P0000 60002 T01440122 51004 $
2026-04-11 07:53:00,METAR KOAK 110753Z 19007KT 10SM -RA BKN015 OVC022 14/13 A2988 RMK AO2 RAB0656E06B23 SLP119 P0001 T01440128 401940139 $
2026-04-11 06:53:00,METAR KOAK 110653Z 17009KT 10SM FEW013 BKN024 BKN040 14/13 A2988 RMK AO2 RAB17E36 SLP116 P0001 T01440128 $
2026-04-11 05:53:00,METAR KOAK 110553Z 20010KT 10SM SCT015 BKN032 OVC043 15/12 A2987 RMK AO2 SLP116 60003 T01500122 10178 20144 50010 $
2026-04-11 04:53:00,METAR KOAK 110453Z 20008KT 10SM FEW009 SCT015 SCT028 14/13 A2988 RMK AO2 RAE05 SLP117 P0000 T01440128 $
2026-04-11 03:53:00,METAR KOAK 110353Z 20012KT 6SM -RA SCT009 BKN018 BKN025 15/13 A2986 RMK AO2 RAB0254E03B27 SLP110 P0001 T01500133 $
2026-04-11 03:37:00,SPECI KOAK 110337Z 20011KT 10SM -RA FEW008 BKN014 BKN025 15/13 A2985 RMK AO2 RAB0254E03B27 P0000 T01500133 $
2026-04-11 03:13:00,SPECI KOAK 110313Z 16009KT 10SM FEW008 SCT014 BKN027 15/13 A2984 RMK AO2 RAB0254E03 P0000 T01500133 $
2026-04-11 02:53:00,METAR KOAK 110253Z 16009KT 10SM FEW008 SCT018 BKN032 15/13 A2984 RMK AO2 RAB05E46 SLP106 P0002 60002 T01500133 53002 $
2026-04-11 02:27:00,SPECI KOAK 110227Z 18014KT 7SM -RA FEW008 SCT013 BKN035 16/13 A2984 RMK AO2 RAB05 P0001 T01560133 $
2026-04-11 01:53:00,METAR KOAK 110153Z 20014G22KT 10SM SCT012 SCT030 BKN047 16/12 A2984 RMK AO2 RAE10 SLP104 P0000 T01610122 $
2026-04-11 00:53:00,METAR KOAK 110053Z 20013KT 10SM -RA FEW015 SCT044 BKN060 17/13 A2984 RMK AO2 RAB52 SLP105 P0000 T01670128 $
2026-04-10 23:53:00,METAR KOAK 102353Z 22015KT 10SM FEW018 SCT035 BKN070 18/12 A2984 RMK AO2 RAE2258 SLP103 TCU DSNT NE AND SW P0000 60020 T01780117 10194 20139 56012 $
2026-04-10 22:53:00,METAR KOAK 102253Z 21013KT 9SM -RA SCT030 BKN035TCU BKN049 17/13 A2984 RMK AO2 RAB43 SLP106 TCU ALQDS MOV NE P0000 T01720128 $
2026-04-10 21:53:00,METAR KOAK 102153Z 20004KT 10SM FEW008 SCT028 BKN043 17/13 A2987 RMK AO2 RAE21 SLP112 P0000 T01720133 $
2026-04-10 21:25:00,SPECI KOAK 102125Z 00000KT 10SM FEW008 BKN028 BKN039 16/13 A2987 RMK AO2 RAE21 P0000 T01610133 $
2026-04-10 20:53:00,METAR KOAK 102053Z 25004KT 6SM -RA FEW005 SCT015 BKN033 16/13 A2987 RMK AO2 WSHFT 1944 SLP116 P0015 60020 T01560128 58002
2026-04-10 20:23:00,SPECI KOAK 102023Z 00000KT 10SM -RA FEW003 SCT015 BKN044 14/13 A2989 RMK AO2 WSHFT 1944 P0014 T01440128
2026-04-10 20:06:00,SPECI KOAK 102006Z COR 20008KT 3SM R30/2800VP6000FT RA BR FEW003 BKN021 OVC065 14/13 A2989 RMK AO2 WSHFT 1944 P0010 T01390128
2026-04-10 20:01:00,SPECI KOAK 102001Z 19011KT 1 3/4SM R30/2800VP6000FT RA BR FEW003 BKN015 OVC050 14/13 A2989 RMK AO2 WSHFT 1944 P0010 T01440128
2026-04-10 19:58:00,SPECI KOAK 101958Z 20011KT 2SM +RA BR FEW003 BKN016 OVC050 14/13 A2989 RMK AO2 WSHFT 1944 P0008 T01440128
2026-04-10 19:53:00,METAR KOAK 101953Z 21013KT 8SM -RA FEW004 BKN033 OVC100 16/13 A2989 RMK AO2 RAB18 SLP120 P0004 T01560128
2026-04-10 18:53:00,METAR KOAK 101853Z 14010KT 10SM FEW006 SCT016 BKN070 16/13 A2989 RMK AO2 RAE07B36E50 SLP121 P0001 T01610133
2026-04-10 17:53:00,METAR KOAK 101753Z 12008KT 10SM -RA FEW005 SCT014 BKN080 14/13 A2988 RMK AO2 SLP118 P0008 60017 T01440133 10156 20139 55000
2026-04-10 17:15:00,SPECI KOAK 101715Z 12007KT 5SM RA BR FEW005 BKN027 OVC080 14/13 A2988 RMK AO2 P0005 T01440133
2026-04-10 16:53:00,METAR KOAK 101653Z 13007KT 8SM -RA FEW005 SCT012 BKN035 OVC160 14/13 A2988 RMK AO2 RAE00B47 SLP118 P0000 T01440133
2026-04-10 15:53:00,METAR KOAK 101553Z 10005KT 10SM -RA FEW005 SCT012 BKN100 OVC160 14/13 A2988 RMK AO2 SLP117 P0003 T01390133
2026-04-10 15:45:00,SPECI KOAK 101545Z 09005KT 10SM -RA FEW004 SCT012 BKN100 OVC160 14/13 A2987 RMK AO2 P0003 T01390133
2026-04-10 15:30:00,SPECI KOAK 101530Z 08006KT 6SM -RA BR FEW004 BKN020 OVC080 14/13 A2987 RMK AO2 P0002 T01390133
2026-04-10 15:20:00,SPECI KOAK 101520Z 08008KT 2SM R30/5000VP6000FT RA BR FEW003 BKN018 OVC047 14/13 A2987 RMK AO2 P0002 T01390133
2026-04-10 14:53:00,METAR KOAK 101453Z 14008KT 10SM -RA FEW005 BKN021 OVC080 14/13 A2988 RMK AO2 RAB06 SLP118 P0004 60006 T01440133 53005
2026-04-10 14:27:00,SPECI KOAK 101427Z 14008KT 4SM -RA BR FEW006 BKN026 OVC055 14/13 A2987 RMK AO2 RAB06 P0003 T01390128
2026-04-10 13:53:00,METAR KOAK 101353Z 15008KT 10SM FEW006 SCT024 BKN055 OVC160 15/12 A2987 RMK AO2 RAB1259E23 SLP113 P0001 T01500122
2026-04-10 13:44:00,SPECI KOAK 101344Z 18005KT 10SM FEW006 SCT025 BKN055 14/12 A2986 RMK AO2 RAB1259E23 P0001 T01440122
2026-04-10 12:53:00,METAR KOAK 101253Z 17010KT 10SM BKN018 OVC047 14/12 A2986 RMK AO2 RAB24E53 SLP111 P0001 T01440122
2026-04-10 11:53:00,METAR KOAK 101153Z 08005KT 10SM BKN020 BKN045 15/12 A2986 RMK AO2 SLP112 T01500117 10156 20139 56013
2026-04-10 11:05:00,SPECI KOAK 101105Z 09006KT 10SM BKN017 BKN045 15/12 A2987 RMK AO2 T01500117
2026-04-10 10:53:00,METAR KOAK 101053Z 09005KT 10SM SCT017 BKN045 15/12 A2987 RMK AO2 SLP114 T01500117
2026-04-10 09:53:00,METAR KOAK 100953Z 12003KT 10SM FEW026 BKN045 16/12 A2989 RMK AO2 SLP119 T01560117
2026-04-10 09:47:00,SPECI KOAK 100947Z 12003KT 10SM FEW010 SCT026 BKN045 15/12 A2989 RMK AO2
2026-04-10 08:53:00,METAR KOAK 100853Z 18003KT 10SM FEW010 BKN021 BKN033 15/12 A2990 RMK AO2 SLP125 T01500122 57008
2026-04-10 08:33:00,SPECI KOAK 100833Z 00000KT 10SM BKN018 15/12 A2991 RMK AO2 T01500122
2026-04-10 07:53:00,METAR KOAK 100753Z 00000KT 10SM SCT020 SCT035 15/12 A2991 RMK AO2 SLP128 T01500122 402110128
2026-04-10 06:53:00,METAR KOAK 100653Z 27005KT 10SM SCT018 14/12 A2992 RMK AO2 SLP130 SCT V BKN T01440117
2026-04-10 05:53:00,METAR KOAK 100553Z 29004KT 10SM SCT014 SCT050 14/12 A2993 RMK AO2 SLP134 T01390117 10194 20139 50006
2026-04-10 04:53:00,METAR KOAK 100453Z 28007KT 10SM FEW011 SCT015 BKN065 15/12 A2993 RMK AO2 SLP135 T01500117
2026-04-10 04:11:00,SPECI KOAK 100411Z 32003KT 10SM FEW011 SCT015 BKN060 14/12 A2992 RMK AO2 T01440117
2026-04-10 03:53:00,METAR KOAK 100353Z 29004KT 10SM FEW011 BKN017 BKN050 15/12 A2992 RMK AO2 SLP131 T01500117
2026-04-10 03:20:00,SPECI KOAK 100320Z 28009KT 10SM FEW009 BKN017 BKN049 15/12 A2991 RMK AO2 T01500122
2026-04-10 02:53:00,METAR KOAK 100253Z 28008KT 10SM FEW008 BKN014 BKN049 15/12 A2991 RMK AO2 SLP128 T01500122 58002
2026-04-10 02:22:00,SPECI KOAK 100222Z 27009KT 10SM FEW009 SCT015 BKN048 16/12 A2991 RMK AO2 SCT V BKN T01560122
2026-04-10 01:53:00,METAR KOAK 100153Z 26010KT 10SM FEW009 BKN015 BKN050 17/12 A2992 RMK AO2 SLP130 TCU DSNT E T01670122
2026-04-10 01:39:00,SPECI KOAK 100139Z 26011KT 10SM FEW009 BKN015 BKN050 17/12 A2991 RMK AO2 TCU DSNT E T01670122
2026-04-10 00:53:00,METAR KOAK 100053Z 25014KT 10SM FEW008 SCT050 SCT100 BKN250 18/12 A2991 RMK AO2 SLP129 TCU DSNT E T01830122
2026-04-09 23:53:00,METAR KOAK 092353Z 27018KT 10SM FEW010 FEW050 SCT080 BKN220 19/12 A2991 RMK AO2 SLP128 TCU DSNT E-SE T01940122 10211 20161 56015
2026-04-09 22:53:00,METAR KOAK 092253Z 29012KT 10SM FEW010 FEW040 SCT065 19/13 A2992 RMK AO2 SLP132 TCU DSNT E-SE T01940128
2026-04-09 21:53:00,METAR KOAK 092153Z COR 27013KT 10SM FEW010 FEW065 SCT090 BKN220 21/12 A2994 RMK AO2 SLP138 TCU DSNT E-SE T02060122
2026-04-09 20:53:00,METAR KOAK 092053Z 27010KT 10SM FEW013 SCT065 BKN200 20/12 A2996 RMK AO2 SLP143 T02000122 56008
2026-04-09 19:53:00,METAR KOAK 091953Z 26006KT 10SM FEW013 SCT065 BKN200 19/13 A2996 RMK AO2 SLP146 T01940133
2026-04-09 18:53:00,METAR KOAK 091853Z 27009KT 10SM FEW013 BKN200 18/12 A2997 RMK AO2 SLP148 T01830122
2026-04-09 18:26:00,SPECI KOAK 091826Z VRB04KT 10SM SCT013 BKN200 17/12 A2998 RMK AO2 T01720122
2026-04-09 17:53:00,METAR KOAK 091753Z 27006KT 10SM FEW005 BKN013 16/12 A2998 RMK AO2 SLP152 T01610122 10172 20133 51005
2026-04-09 16:53:00,METAR KOAK 091653Z 25006KT 10SM FEW002 FEW005 OVC011 15/12 A2998 RMK AO2 SLP151 T01500122
2026-04-09 16:36:00,SPECI KOAK 091636Z 27006KT 10SM FEW002 FEW005 OVC011 15/12 A2998 RMK AO2 T01500117
2026-04-09 15:53:00,METAR KOAK 091553Z 25007KT 10SM FEW002 SCT005 OVC007 14/12 A2998 RMK AO2 SLP150 T01440122
2026-04-09 14:53:00,METAR KOAK 091453Z 00000KT 10SM FEW002 SCT005 OVC007 14/12 A2997 RMK AO2 SLP147 T01390122 53001
2026-04-09 13:53:00,METAR KOAK 091353Z 21003KT 10SM BKN005 OVC007 14/12 A2997 RMK AO2 SLP147 T01390122
2026-04-09 12:53:00,METAR KOAK 091253Z 00000KT 10SM FEW002 BKN005 OVC010 13/12 A2996 RMK AO2 SLP145 T01330122
2026-04-09 12:45:00,SPECI KOAK 091245Z 00000KT 10SM FEW002 BKN005 OVC010 13/12 A2996 RMK AO2 T01330122
2026-04-09 11:53:00,METAR KOAK 091153Z 00000KT 10SM FEW002 BKN004 13/12 A2996 RMK AO2 SLP145 T01330122 10133 20128 58013
2026-04-09 10:53:00,METAR KOAK 091053Z 15004KT 10SM FEW001 BKN004 OVC010 13/12 A2998 RMK AO2 SLP149 T01330117
2026-04-09 09:53:00,METAR KOAK 090953Z 22003KT 10SM FEW001 BKN004 OVC010 13/12 A2999 RMK AO2 SLP154 T01280117
2026-04-09 08:53:00,METAR KOAK 090853Z VRB03KT 10SM FEW001 BKN004 OVC009 13/12 A3000 RMK AO2 SLP158 T01280117 50000
2026-04-09 07:53:00,METAR KOAK 090753Z 26005KT 10SM FEW001 BKN004 OVC009 13/12 A3001 RMK AO2 SLP161 T01280117 402170111
2026-04-09 07:51:00,SPECI KOAK 090751Z 27007KT 10SM FEW001 BKN004 OVC009 13/12 A3001 RMK AO2
2026-04-09 06:53:00,METAR KOAK 090653Z 24006KT 10SM FEW001 BKN005 OVC010 13/12 A3001 RMK AO2 SLP160 T01280117
2026-04-09 05:53:00,METAR KOAK 090553Z 26009KT 10SM FEW001 BKN006 13/12 A3000 RMK AO2 SLP159 T01330117 10194 20133 51014
2026-04-09 04:53:00,METAR KOAK 090453Z 27007KT 10SM FEW002 BKN005 14/12 A2999 RMK AO2 SLP156 T01390122
2026-04-09 04:25:00,SPECI KOAK 090425Z 26008KT 10SM FEW001 BKN005 14/12 A2999 RMK AO2 T01390122
2026-04-09 03:53:00,METAR KOAK 090353Z 26013KT 10SM FEW001 SCT007 14/12 A2998 RMK AO2 SLP153 T01390122
2026-04-09 02:53:00,METAR KOAK 090253Z 26009KT 10SM FEW005 FEW035 SCT100 SCT200 14/12 A2996 RMK AO2 SLP145 CB DSNT NE T01440122 56004
2026-04-09 01:53:00,METAR KOAK 090153Z 26012KT 10SM FEW005 FEW035 FEW100 16/12 A2997 RMK AO2 SLP147 CB DSNT NE AND SE T01610122
2026-04-09 00:53:00,METAR KOAK 090053Z 25011KT 10SM FEW008 FEW035 SCT200 18/12 A2997 RMK AO2 SLP147 CB DSNT N-NE AND S ACSL N-NE AND SE T01830122
2026-04-09 00:51:00,SPECI KOAK 090051Z 25011KT 10SM FEW008 FEW035 SCT200 18/12 A2997 RMK AO2 CB DSNT N-NE AND S ACSL N-NE AND SE
2026-04-08 23:53:00,METAR KOAK 082353Z COR 27012KT 10SM FEW010 FEW035 SCT130 SCT200 19/13 A2997 RMK AO2 SLP149 CB DSNT N-NE AND S-SW ACSL N-NE T01940128 10217 20167 56009
2026-04-08 22:53:00,METAR KOAK 082253Z 26016KT 10SM FEW010 FEW035 SCT130 SCT200 20/12 A2998 RMK AO2 SLP151 CB DSNT N AND S-SW T02000122
2026-04-08 21:53:00,METAR KOAK 082153Z 27012KT 10SM FEW010 FEW035 BKN130 BKN200 21/12 A2999 RMK AO2 SLP155 CB DSNT N AND S-SW T02110122
2026-04-08 20:53:00,METAR KOAK 082053Z 24008KT 10SM SCT090 21/12 A3000 RMK AO2 SLP158 T02110122 58015
2026-04-08 19:53:00,METAR KOAK 081953Z 26008KT 10SM SCT090 BKN200 19/12 A3001 RMK AO2 SLP163 T01940117
2026-04-08 18:53:00,METAR KOAK 081853Z 22005KT 10SM FEW100 FEW200 17/11 A3004 RMK AO2 SLP172 T01720106
2026-04-08 17:53:00,METAR KOAK 081753Z 21006KT 10SM SCT100 BKN200 17/11 A3005 RMK AO2 SLP174 T01720111 10172 20111 58003
2026-04-08 16:53:00,METAR KOAK 081653Z 18005KT 10SM FEW012 SCT100 BKN200 16/11 A3005 RMK AO2 SLP175 T01560111
2026-04-08 15:53:00,METAR KOAK 081553Z 00000KT 10SM FEW006 SCT012 BKN200 14/11 A3006 RMK AO2 SLP178 T01440111
2026-04-08 14:53:00,METAR KOAK 081453Z 00000KT 10SM FEW006 SCT012 BKN200 13/11 A3005 RMK AO2 SLP177 T01330111 53008
2026-04-08 13:53:00,METAR KOAK 081353Z 00000KT 10SM FEW006 SCT012 BKN200 12/11 A3004 RMK AO2 SLP171 T01220106
2026-04-08 12:53:00,METAR KOAK 081253Z 26007KT 10SM FEW006 BKN012 13/11 A3003 RMK AO2 SLP170 T01280106
2026-04-08 11:53:00,METAR KOAK 081153Z 27006KT 10SM FEW006 BKN012 13/11 A3003 RMK AO2 SLP169 T01280106 10133 20106 56007
2026-04-08 11:33:00,SPECI KOAK 081133Z 20008KT 10SM FEW006 BKN013 13/11 A3003 RMK AO2 T01330106
2026-04-08 10:53:00,METAR KOAK 081053Z 22006KT 10SM FEW006 SCT014 13/11 A3003 RMK AO2 SLP170 T01330106
2026-04-08 09:53:00,METAR KOAK 080953Z 26006KT 10SM FEW006 SCT014 13/11 A3004 RMK AO2 SLP171 T01330106
2026-04-08 08:53:00,METAR KOAK 080853Z 26006KT 10SM FEW006 FEW012 13/11 A3005 RMK AO2 SLP176 T01280106 56005
2026-04-08 07:53:00,METAR KOAK 080753Z 00000KT 10SM FEW006 FEW014 12/10 A3006 RMK AO2 SLP177 T01220100 401830106
2026-04-08 06:53:00,METAR KOAK 080653Z 23003KT 10SM FEW006 FEW015 13/10 A3006 RMK AO2 SLP178 T01280100
2026-04-08 05:53:00,METAR KOAK 080553Z 27007KT 10SM FEW007 FEW015 13/10 A3007 RMK AO2 SLP180 T01330100 10172 20133 50009
2026-04-08 05:14:00,SPECI KOAK 080514Z 25007KT 10SM FEW007 FEW015 13/09 A3007 RMK AO2 T01330094
2026-04-08 04:53:00,METAR KOAK 080453Z 24010KT 10SM FEW010 13/10 A3007 RMK AO2 SLP182 T01330100
2026-04-08 03:53:00,METAR KOAK 080353Z 26012KT 10SM FEW010 14/10 A3005 RMK AO2 SLP175 T01390100
2026-04-08 02:53:00,METAR KOAK 080253Z 25010KT 10SM FEW010 FEW140 SCT200 14/10 A3004 RMK AO2 SLP171 T01390100 56008
2026-04-08 01:53:00,METAR KOAK 080153Z 25012KT 10SM FEW015 FEW140 SCT200 16/10 A3004 RMK AO2 SLP171 T01560100
2026-04-08 00:53:00,METAR KOAK 080053Z 25012KT 10SM FEW015 BKN200 16/09 A3004 RMK AO2 SLP173 T01560094
2026-04-07 23:53:00,METAR KOAK 072353Z 25014KT 10SM FEW015 SCT200 17/09 A3006 RMK AO2 SLP179 T01670094 10183 20144 56010
2026-04-07 22:53:00,METAR KOAK 072253Z 25014KT 10SM FEW015 BKN200 17/09 A3007 RMK AO2 SLP181 T01720094
2026-04-07 21:53:00,METAR KOAK 072153Z 25011KT 10SM FEW015 BKN200 18/09 A3008 RMK AO2 SLP186 T01780094
2026-04-07 20:53:00,METAR KOAK 072053Z 25009KT 10SM FEW020 BKN250 17/09 A3009 RMK AO2 SLP189 T01720089 57015
2026-04-07 19:53:00,METAR KOAK 071953Z 25010KT 10SM FEW020 SCT250 17/09 A3010 RMK AO2 SLP194 T01720089
2026-04-07 18:53:00,METAR KOAK 071853Z VRB03KT 10SM FEW020 BKN250 15/08 A3012 RMK AO2 SLP199 T01500083
2026-04-07 17:53:00,METAR KOAK 071753Z 21005KT 10SM SCT018 SCT250 14/08 A3013 RMK AO2 SLP204 T01440083 10144 20117 50000
2026-04-07 17:34:00,SPECI KOAK 071734Z 24005KT 10SM SCT018 BKN250 14/08 A3013 RMK AO2 T01390083
2026-04-07 16:53:00,METAR KOAK 071653Z 21005KT 10SM BKN019 13/08 A3014 RMK AO2 SLP205 T01330078
2026-04-07 15:53:00,METAR KOAK 071553Z 26007KT 10SM FEW010 BKN017 13/08 A3014 RMK AO2 SLP205 T01280078
2026-04-07 14:53:00,METAR KOAK 071453Z 25005KT 10SM FEW010 BKN017 12/08 A3013 RMK AO2 SLP203 T01220078 53007
2026-04-07 13:53:00,METAR KOAK 071353Z 24009G18KT 10SM FEW008 BKN017 12/08 A3012 RMK AO2 SLP199 T01220078
2026-04-07 12:53:00,METAR KOAK 071253Z 25009KT 10SM FEW008 BKN017 12/08 A3012 RMK AO2 SLP198 T01220078
2026-04-07 11:53:00,METAR KOAK 071153Z 24011KT 10SM FEW007 BKN016 12/08 A3011 RMK AO2 SLP197 T01220078 10128 20122 53001
2026-04-07 10:53:00,METAR KOAK 071053Z 27009KT 10SM FEW008 BKN015 12/08 A3011 RMK AO2 SLP195 T01220083
2026-04-07 09:53:00,METAR KOAK 070953Z 23010KT 10SM FEW008 BKN016 12/08 A3011 RMK AO2 SLP194 T01220083
2026-04-07 08:53:00,METAR KOAK 070853Z 24010KT 10SM FEW009 BKN017 13/08 A3011 RMK AO2 SLP196 T01280083 56002
2026-04-07 07:53:00,METAR KOAK 070753Z 22006KT 10SM FEW009 BKN017 13/08 A3012 RMK AO2 SLP198 T01280083 401780106
2026-04-07 07:24:00,SPECI KOAK 070724Z 24009G17KT 10SM FEW009 BKN016 12/08 A3012 RMK AO2 T01220083
2026-04-07 06:53:00,METAR KOAK 070653Z 25010KT 10SM FEW010 BKN016 13/08 A3011 RMK AO2 SLP195 T01280083
2026-04-07 05:53:00,METAR KOAK 070553Z 25010KT 10SM FEW011 BKN016 13/08 A3012 RMK AO2 SLP198 T01280083 10167 20122 51012
2026-04-07 04:53:00,METAR KOAK 070453Z 27014KT 10SM BKN017 13/08 A3012 RMK AO2 SLP198 T01280083
2026-04-07 04:11:00,SPECI KOAK 070411Z 26015KT 10SM BKN017 13/09 A3011 RMK AO2 T01280089
2026-04-07 03:53:00,METAR KOAK 070353Z 24014KT 10SM SCT015 13/09 A3010 RMK AO2 SLP193 T01280089
2026-04-07 02:53:00,METAR KOAK 070253Z 26014KT 10SM SCT015 SCT200 13/09 A3008 RMK AO2 SLP186 T01280089 53003
2026-04-07 01:53:00,METAR KOAK 070153Z 25014KT 10SM FEW015 FEW200 14/09 A3007 RMK AO2 SLP182 T01390094
2026-04-07 00:53:00,METAR KOAK 070053Z 25015KT 10SM FEW015 FEW200 16/09 A3007 RMK AO2 SLP182 T01560094
2026-04-06 23:53:00,METAR KOAK 062353Z 25016KT 10SM FEW020 FEW200 17/09 A3007 RMK AO2 SLP183 T01670094 10178 20150 56008
2026-04-06 22:53:00,METAR KOAK 062253Z 26018KT 10SM FEW020 17/10 A3008 RMK AO2 SLP186 T01720100
2026-04-06 21:53:00,METAR KOAK 062153Z 26014KT 10SM FEW015 17/09 A3009 RMK AO2 SLP189 T01720094
2026-04-06 20:53:00,METAR KOAK 062053Z 27012KT 10SM FEW015 17/10 A3010 RMK AO2 SLP192 T01670100 58004
2026-04-06 19:53:00,METAR KOAK 061953Z 27009KT 10SM FEW015 17/10 A3010 RMK AO2 SLP193 T01670100
2026-04-06 18:53:00,METAR KOAK 061853Z 27011KT 10SM SCT014 16/09 A3012 RMK AO2 SLP198 T01560094
2026-04-06 18:25:00,SPECI KOAK 061825Z 25009KT 10SM SCT014 15/10 A3011 RMK AO2 T01500100
2026-04-06 17:53:00,METAR KOAK 061753Z 26011KT 10SM BKN013 15/09 A3011 RMK AO2 SLP196 T01500094 10150 20106 51010
2026-04-06 16:53:00,METAR KOAK 061653Z 26006KT 10SM BKN012 13/09 A3010 RMK AO2 SLP193 T01330094
2026-04-06 15:53:00,METAR KOAK 061553Z 22004KT 10SM BKN011 12/09 A3010 RMK AO2 SLP191 T01220089
2026-04-06 14:53:00,METAR KOAK 061453Z 27008KT 10SM BKN010 BKN200 12/09 A3008 RMK AO2 SLP186 T01170089 53014
2026-04-06 13:53:00,METAR KOAK 061353Z 27006KT 10SM BKN010 11/09 A3007 RMK AO2 SLP180 T01060089 $
2026-04-06 13:28:00,SPECI KOAK 061328Z 28007KT 10SM BKN010 11/09 A3006 RMK AO2 T01060089 $
2026-04-06 12:53:00,METAR KOAK 061253Z 26007KT 10SM SCT008 SCT150 11/09 A3005 RMK AO2 SLP175 T01110089 $
2026-04-06 11:53:00,METAR KOAK 061153Z 28011KT 10SM FEW005 FEW009 SCT150 11/09 A3004 RMK AO2 SLP170 T01110094 10139 20111 52004 $
2026-04-06 10:53:00,METAR KOAK 061053Z 27010KT 10SM FEW005 FEW150 11/09 A3004 RMK AO2 SLP169 T01110094 $
2026-04-06 09:53:00,METAR KOAK 060953Z 28010KT 10SM FEW005 FEW150 12/10 A3003 RMK AO2 SLP167 T01170100 $
2026-04-06 08:53:00,METAR KOAK 060853Z 28007KT 10SM FEW005 FEW150 12/11 A3003 RMK AO2 SLP166 T01170106 53006 $
2026-04-06 07:53:00,METAR KOAK 060753Z 28006KT 10SM FEW005 FEW150 13/11 A3002 RMK AO2 SLP164 T01280111 402670111 $
2026-04-06 06:53:00,METAR KOAK 060653Z 29006KT 10SM FEW005 FEW150 13/11 A3001 RMK AO2 SLP161 T01280111 $
2026-04-06 05:53:00,METAR KOAK 060553Z 28006KT 10SM FEW005 FEW150 14/12 A3001 RMK AO2 SLP160 T01390117 10239 20139 51010 $
2026-04-06 04:53:00,METAR KOAK 060453Z 28007KT 10SM FEW005 SCT140 15/12 A3000 RMK AO2 SLP159 T01500122 $
2026-04-06 03:53:00,METAR KOAK 060353Z 28006KT 10SM FEW006 BKN140 17/12 A2999 RMK AO2 SLP153 T01720117 $
2026-04-06 02:53:00,METAR KOAK 060253Z 28010KT 10SM FEW007 FEW050 SCT140 BKN250 17/11 A2998 RMK AO2 SLP151 T01720111 53001 $
2026-04-06 01:53:00,METAR KOAK 060153Z 28006KT 10SM FEW055 SCT150 BKN300 19/11 A2997 RMK AO2 SLP149 T01940111 $
2026-04-06 00:53:00,METAR KOAK 060053Z 29008KT 10SM FEW055 SCT160 BKN250 23/10 A2996 RMK AO2 SLP146 T02330100 $
2026-04-05 23:53:00,METAR KOAK 052353Z 29009KT 10SM FEW050 SCT160 SCT250 23/11 A2997 RMK AO2 SLP149 T02330111 10267 20200 56008 $
2026-04-05 22:53:00,METAR KOAK 052253Z 27010KT 10SM FEW050 SCT160 BKN250 27/09 A2998 RMK AO2 SLP150 T02670094 $
2026-04-05 21:53:00,METAR KOAK 052153Z 29009KT 10SM FEW055 SCT180 BKN250 26/09 A2998 RMK AO2 SLP153 T02610094 $
2026-04-05 20:53:00,METAR KOAK 052053Z 29010KT 10SM FEW025 FEW180 25/10 A3000 RMK AO2 SLP157 T02500100 58014 $
2026-04-05 19:53:00,METAR KOAK 051953Z 26009KT 10SM FEW180 FEW220 23/08 A3001 RMK AO2 SLP162 T02280078 $
2026-04-05 18:53:00,METAR KOAK 051853Z 26008KT 10SM FEW040 FEW180 21/08 A3003 RMK AO2 SLP167 T02110083 $
2026-04-05 17:53:00,METAR KOAK 051753Z 25007KT 10SM FEW050 SCT180 21/09 A3004 RMK AO2 SLP171 T02060094 10206 20111 50002 $
2026-04-05 16:53:00,METAR KOAK 051653Z VRB04KT 10SM FEW050 SCT180 SCT220 18/10 A3004 RMK AO2 SLP173 T01830100 $
2026-04-05 15:53:00,METAR KOAK 051553Z 00000KT 10SM FEW040 SCT180 SCT220 17/08 A3004 RMK AO2 SLP170 T01720083 $
2026-04-05 14:53:00,METAR KOAK 051453Z 00000KT 10SM FEW014 FEW050 SCT200 13/09 A3003 RMK AO2 SLP169 T01330089 53003 $
2026-04-05 12:53:00,METAR KOAK 051253Z 03003KT 10SM SCT200 11/07 A3002 RMK AO2 SLP165 T01110067 $
2026-04-05 11:53:00,METAR KOAK 051153Z 02004KT 10SM SCT200 13/07 A3002 RMK AO2 SLP165 T01280072 10183 20117 56010 $
2026-04-05 10:53:00,METAR KOAK 051053Z 10004KT 10SM BKN200 12/07 A3003 RMK AO2 SLP167 T01220067 $
2026-04-05 09:53:00,METAR KOAK 050953Z 11004KT 10SM SCT200 13/08 A3004 RMK AO2 SLP171 T01330078 $
2026-04-05 08:53:00,METAR KOAK 050853Z 07003KT 10SM SCT200 13/08 A3005 RMK AO2 SLP175 T01330078 58002 $
2026-04-05 07:53:00,METAR KOAK 050753Z 05003KT 10SM FEW200 14/08 A3006 RMK AO2 SLP178 T01440083 402560083 $
2026-04-05 06:53:00,METAR KOAK 050653Z 01003KT 10SM FEW200 14/08 A3006 RMK AO2 SLP177 T01440083 $
2026-04-05 05:53:00,METAR KOAK 050553Z 00000KT 10SM FEW200 17/08 A3006 RMK AO2 SLP177 T01720078 10250 20167 50010
2026-04-05 04:53:00,METAR KOAK 050453Z 28006KT 10SM FEW250 19/09 A3006 RMK AO2 SLP178 T01890089
2026-04-05 03:53:00,METAR KOAK 050353Z 32004KT 10SM SCT280 20/07 A3004 RMK AO2 SLP171 T02000067
2026-04-05 02:53:00,METAR KOAK 050253Z 29009KT 10SM FEW220 BKN280 21/10 A3003 RMK AO2 SLP167 T02060100 53003
2026-04-05 01:53:00,METAR KOAK 050153Z 30005KT 10SM SCT220 BKN280 24/07 A3002 RMK AO2 SLP165 T02390072
2026-04-05 00:53:00,METAR KOAK 050053Z 29007KT 10SM SCT220 BKN280 25/07 A3001 RMK AO2 SLP162 T02500072
2026-04-04 23:53:00,METAR KOAK 042353Z 29008KT 10SM SCT220 BKN280 24/08 A3002 RMK AO2 SLP164 T02440083 10256 20178 56018
2026-04-04 22:53:00,METAR KOAK 042253Z 27008KT 10SM SCT250 BKN280 25/08 A3003 RMK AO2 SLP168 T02500083
2026-04-04 21:53:00,METAR KOAK 042153Z 25006KT 10SM SCT250 BKN280 23/08 A3005 RMK AO2 SLP174 T02330083
2026-04-04 20:53:00,METAR KOAK 042053Z 23006KT 10SM BKN240 22/08 A3007 RMK AO2 SLP183 T02170078 58014
2026-04-04 19:53:00,METAR KOAK 041953Z 22005KT 10SM BKN250 20/07 A3009 RMK AO2 SLP189 T02000067
2026-04-04 18:53:00,METAR KOAK 041853Z 23006KT 10SM BKN250 19/09 A3011 RMK AO2 SLP196 T01890089
2026-04-04 17:53:00,METAR KOAK 041753Z 22004KT 10SM BKN250 18/09 A3011 RMK AO2 SLP197 T01780089 10183 20083 51002
2026-04-04 16:53:00,METAR KOAK 041653Z 19004KT 10SM BKN250 17/08 A3011 RMK AO2 SLP197 T01720078
2026-04-04 15:53:00,METAR KOAK 041553Z 00000KT 10SM BKN250 16/09 A3012 RMK AO2 SLP199 T01610094
2026-04-04 14:53:00,METAR KOAK 041453Z 00000KT 10SM BKN250 13/08 A3011 RMK AO2 SLP195 T01330083 53006
2026-04-04 13:53:00,METAR KOAK 041353Z 00000KT 10SM BKN250 09/06 A3010 RMK AO2 SLP191 T00940056
2026-04-04 12:53:00,METAR KOAK 041253Z 00000KT 10SM BKN200 09/05 A3009 RMK AO2 SLP188 T00940050
2026-04-04 11:53:00,METAR KOAK 041153Z 36003KT 10SM SCT200 10/05 A3009 RMK AO2 SLP189 T01000050 10150 20083 58008
2026-04-04 10:53:00,METAR KOAK 041053Z 05004KT 10SM FEW200 11/06 A3010 RMK AO2 SLP192 T01060056
2026-04-04 09:53:00,METAR KOAK 040953Z 14003KT 10SM FEW200 13/05 A3010 RMK AO2 SLP192 T01280050
2026-04-04 08:53:00,METAR KOAK 040853Z 05005KT 10SM FEW200 11/05 A3012 RMK AO2 SLP196 T01060050 56000
2026-04-04 07:53:00,METAR KOAK 040753Z 08005KT 10SM FEW200 12/07 A3012 RMK AO2 SLP197 T01170072 402440056
2026-04-04 06:53:00,METAR KOAK 040653Z 00000KT 10SM FEW200 12/08 A3011 RMK AO2 SLP195 T01220078
2026-04-04 05:53:00,METAR KOAK 040553Z 00000KT 10SM FEW200 14/07 A3012 RMK AO2 SLP197 T01440072 10222 20128 50014
2026-04-04 04:53:00,METAR KOAK 040453Z 00000KT 10SM FEW250 15/06 A3012 RMK AO2 SLP200 T01500056
2026-04-04 03:53:00,METAR KOAK 040353Z 29005KT 10SM FEW220 16/05 A3010 RMK AO2 SLP193 T01610050
2026-04-04 02:53:00,METAR KOAK 040253Z 29007KT 10SM FEW220 17/04 A3007 RMK AO2 SLP183 T01670044 53005
2026-04-04 01:53:00,METAR KOAK 040153Z 28008KT 10SM FEW220 19/06 A3007 RMK AO2 SLP182 T01890061
2026-04-04 00:53:00,METAR KOAK 040053Z 25008KT 10SM FEW220 21/07 A3006 RMK AO2 SLP178 T02060072
2026-04-03 23:53:00,METAR KOAK 032353Z 23006KT 10SM FEW220 22/04 A3006 RMK AO2 SLP178 T02220044 10244 20172 56016
2026-04-03 22:53:00,METAR KOAK 032253Z 22007KT 10SM FEW220 22/06 A3007 RMK AO2 SLP182 T02220056
2026-04-03 21:53:00,METAR KOAK 032153Z 01011G19KT 320V040 10SM FEW180 24/M02 A3009 RMK AO2 SLP187 T02441017
2026-04-03 20:53:00,METAR KOAK 032053Z 04008G18KT 10SM FEW200 23/M01 A3010 RMK AO2 SLP194 T02331006 58010
2026-04-03 19:53:00,METAR KOAK 031953Z 03013G23KT 10SM FEW200 22/00 A3012 RMK AO2 SLP199 T02220000
2026-04-03 18:53:00,METAR KOAK 031853Z 35007G22KT 320V030 10SM FEW200 21/01 A3013 RMK AO2 SLP204 T02110006
2026-04-03 17:53:00,METAR KOAK 031753Z 02011G15KT 10SM FEW200 19/01 A3013 RMK AO2 SLP204 T01890006 10189 20056 50001
2026-04-03 16:53:00,METAR KOAK 031653Z 22004KT 10SM FEW200 15/04 A3014 RMK AO2 SLP206 T01500044
2026-04-03 15:53:00,METAR KOAK 031553Z 00000KT 10SM CLR 13/06 A3014 RMK AO2 SLP206 T01280061
2026-04-03 14:53:00,METAR KOAK 031453Z 02003KT 10SM CLR 09/06 A3013 RMK AO2 SLP203 T00890061 53007
2026-04-03 13:53:00,METAR KOAK 031353Z 02004KT 10SM CLR 06/04 A3012 RMK AO2 SLP198 T00560044
2026-04-03 12:53:00,METAR KOAK 031253Z 00000KT 10SM CLR 06/05 A3011 RMK AO2 SLP195 T00610050
2026-04-03 11:53:00,METAR KOAK 031153Z 29003KT 10SM CLR 11/06 A3011 RMK AO2 SLP196 T01110061 10122 20078 55006
2026-04-03 08:53:00,METAR KOAK 030853Z 34004KT 10SM CLR 09/07 A3013 RMK AO2 SLP202 T00890067 50001
2026-04-03 05:53:00,METAR KOAK 030553Z 00000KT 10SM CLR 12/07 A3013 RMK AO2 SLP201 T01220067 10178 20106 51011
2026-04-03 04:53:00,METAR KOAK 030453Z 34003KT 10SM CLR 12/07 A3013 RMK AO2 SLP201 T01220072
2026-04-03 03:53:00,METAR KOAK 030353Z 31008KT 10SM CLR 13/06 A3011 RMK AO2 SLP195 T01330061
2026-04-03 02:53:00,METAR KOAK 030253Z 30009KT 10SM FEW015 14/06 A3009 RMK AO2 SLP190 T01390056 53008
2026-04-03 01:53:00,METAR KOAK 030153Z 28012KT 10SM CLR 16/08 A3008 RMK AO2 SLP186 T01610078
2026-04-03 00:53:00,METAR KOAK 030053Z 27016KT 10SM CLR 17/07 A3007 RMK AO2 SLP184 T01720067
2026-04-02 23:53:00,METAR KOAK 022353Z 28015KT 10SM FEW045 18/06 A3007 RMK AO2 SLP182 T01780061 10183 20139 56014
2026-04-02 22:53:00,METAR KOAK 022253Z 27016KT 10SM FEW045 18/05 A3008 RMK AO2 SLP185 T01780050
2026-04-02 21:53:00,METAR KOAK 022153Z 27015KT 10SM SCT045 18/05 A3009 RMK AO2 SLP190 T01780050
2026-04-02 20:53:00,METAR KOAK 022053Z 27015KT 10SM SCT040 17/05 A3011 RMK AO2 SLP196 T01720050 56011
2026-04-02 19:53:00,METAR KOAK 021953Z 27015KT 10SM FEW040 16/06 A3012 RMK AO2 SLP199 T01610061
2026-04-02 18:53:00,METAR KOAK 021853Z 29011KT 10SM FEW035 15/04 A3013 RMK AO2 SLP202 T01500044
2026-04-02 17:53:00,METAR KOAK 021753Z 29009KT 10SM FEW033 14/05 A3015 RMK AO2 SLP208 T01390050 10139 20083 53011
2026-04-02 16:53:00,METAR KOAK 021653Z 34006KT 10SM FEW033 13/06 A3014 RMK AO2 SLP204 T01280056
2026-04-02 15:53:00,METAR KOAK 021553Z 32005KT 10SM FEW015 12/06 A3012 RMK AO2 SLP199 T01220056
2026-04-02 14:53:00,METAR KOAK 021453Z 00000KT 10SM FEW015 FEW050 10/06 A3011 RMK AO2 SLP196 T01000061 53020
2026-04-02 13:53:00,METAR KOAK 021353Z 31007KT 10SM FEW008 FEW055 10/05 A3009 RMK AO2 SLP188 T01000050
2026-04-02 12:53:00,METAR KOAK 021253Z 32004KT 10SM FEW055 10/05 A3007 RMK AO2 SLP183 T01000050
2026-04-02 11:53:00,METAR KOAK 021153Z 31008KT 10SM FEW014 BKN055 11/05 A3005 RMK AO2 SLP177 60004 70005 T01110050 10139 20111 53008
2026-04-02 10:53:00,METAR KOAK 021053Z 31006KT 10SM FEW015 BKN055 12/07 A3004 RMK AO2 SLP170 T01170067
2026-04-02 09:53:00,METAR KOAK 020953Z 31007KT 10SM FEW006 BKN032 OVC100 12/08 A3003 RMK AO2 SLP170 T01220078
2026-04-02 08:53:00,METAR KOAK 020853Z 29007KT 10SM FEW005 SCT016 BKN033 12/10 A3003 RMK AO2 SLP168 60004 T01220100 53014
2026-04-02 08:41:00,SPECI KOAK 020841Z 27013KT 10SM FEW002 SCT016 BKN033 12/10 A3003 RMK AO2 T01220100
2026-04-02 07:53:00,METAR KOAK 020753Z 27015KT 10SM FEW002 SCT012 BKN018 12/11 A3001 RMK AO2 RAE04B29E47 SLP163 P0001 T01220111 401610122
2026-04-02 07:03:00,SPECI KOAK 020703Z 22012KT 8SM -RA FEW001 BKN014 OVC036 14/13 A3000 RMK AO2 P0000 T01390128
2026-04-02 06:53:00,METAR KOAK 020653Z 22013KT 6SM -RA BR FEW001 BKN015 OVC035 14/13 A2999 RMK AO2 SLP157 P0003 T01390128
2026-04-02 05:53:00,METAR KOAK 020553Z 20016KT 9SM -RA FEW002 BKN016 OVC045 14/12 A2999 RMK AO2 RAB02E11B32 SLP154 P0001 60001 T01390122 10150 20139 51008
2026-04-02 05:14:00,SPECI KOAK 020514Z 20015KT 10SM FEW003 BKN026 OVC035 14/12 A2999 RMK AO2 RAB02E11 P0000 T01440117
2026-04-02 04:53:00,METAR KOAK 020453Z 19014KT 10SM FEW015 BKN020 OVC024 14/12 A2998 RMK AO2 RAE03 SLP152 P0000 T01440117
2026-04-02 03:53:00,METAR KOAK 020353Z 18010KT 10SM -RA FEW010 BKN023 OVC070 14/11 A2997 RMK AO2 RAB41 SLP150 P0000 T01440111
2026-04-02 03:34:00,SPECI KOAK 020334Z 17010KT 10SM FEW010 BKN027 OVC070 14/11 A2997 RMK AO2 T01440106
2026-04-02 02:53:00,METAR KOAK 020253Z 19005KT 10SM FEW010 SCT024 OVC070 14/09 A2996 RMK AO2 SLP146 60000 T01440094 50000
2026-04-02 02:30:00,SPECI KOAK 020230Z 20008KT 10SM FEW010 SCT030 BKN075 14/10 A2996 RMK AO2 T01440100
2026-04-02 01:53:00,METAR KOAK 020153Z 22010KT 10SM FEW010 BKN023 BKN032 14/10 A2997 RMK AO2 RAB0058E12 SLP148 P0000 T01440100
2026-04-02 00:53:00,METAR KOAK 020053Z 24011KT 10SM FEW008 BKN025 OVC100 14/10 A2997 RMK AO2 SLP148 T01440100
2026-04-01 23:53:00,METAR KOAK 012353Z 24008KT 10SM FEW008 BKN016 BKN023 15/11 A2996 RMK AO2 SLP146 60000 T01500111 10161 20144 56007
2026-04-01 23:51:00,SPECI KOAK 012351Z 24008KT 10SM FEW008 BKN016 BKN023 15/12 A2996 RMK AO2
2026-04-01 23:28:00,SPECI KOAK 012328Z 23003KT 10SM FEW010 BKN015 BKN020 15/11 A2996 RMK AO2 T01500111
2026-04-01 22:53:00,METAR KOAK 012253Z 25005KT 10SM FEW009 BKN012 BKN021 15/12 A2997 RMK AO2 RAE03 SLP147 P0000 T01500117
2026-04-01 22:24:00,SPECI KOAK 012224Z 23007KT 10SM FEW008 BKN012 OVC100 15/12 A2997 RMK AO2 RAE03 P0000 T01500122
2026-04-01 22:04:00,SPECI KOAK 012204Z 24007KT 10SM SCT009 BKN032 BKN055 15/13 A2998 RMK AO2 RAE03 P0000 T01500128
2026-04-01 21:53:00,METAR KOAK 012153Z 23008KT 8SM -RA SCT009 BKN027 OVC042 14/13 A2998 RMK AO2 RAB46 SLP151 P0000 T01440133
2026-04-01 21:10:00,SPECI KOAK 012110Z 25015KT 9SM FEW009 BKN017 OVC022 14/12 A2999 RMK AO2 T01440122
2026-04-01 20:53:00,METAR KOAK 012053Z 26015KT 10SM BKN016 OVC022 15/12 A2998 RMK AO2 SLP153 60000 T01500122 53006
2026-04-01 19:53:00,METAR KOAK 011953Z 23009KT 10SM SCT018 BKN025 OVC045 16/13 A2997 RMK AO2 RAB05E34 SLP150 P0000 T01560128
2026-04-01 18:53:00,METAR KOAK 011853Z 21016KT 10SM BKN025 OVC030 15/12 A2997 RMK AO2 RAB13E23 SLP148 P0000 T01500117
2026-04-01 17:53:00,METAR KOAK 011753Z 19011KT 10SM SCT032 BKN055 OVC070 16/11 A2996 RMK AO2 SLP146 60000 T01610111 10161 20144 51015
2026-04-01 17:40:00,SPECI KOAK 011740Z 19011KT 10SM SCT032 BKN055 OVC070 16/11 A2996 RMK AO2 T01610111
2026-04-01 16:53:00,METAR KOAK 011653Z 20013G19KT 10SM FEW016 BKN028 OVC060 16/11 A2996 RMK AO2 SLP144 T01560111
2026-04-01 15:53:00,METAR KOAK 011553Z 19013KT 10SM FEW016 BKN028 OVC065 15/12 A2994 RMK AO2 SLP140 T01500117
2026-04-01 15:00:00,SPECI KOAK 011500Z 17010KT 10SM SCT016 BKN023 BKN042 15/12 A2993 RMK AO2 T01500117
2026-04-01 14:53:00,METAR KOAK 011453Z 18008KT 10SM SCT016 BKN042 BKN075 15/12 A2992 RMK AO2 SLP131 60000 T01500122 53005
2026-04-01 14:38:00,SPECI KOAK 011438Z 18006KT 10SM FEW010 BKN042 BKN075 15/12 A2992 RMK AO2 T01500122
2026-04-01 13:53:00,METAR KOAK 011353Z 20010G16KT 10SM FEW005 SCT018 OVC024 14/12 A2992 RMK AO2 RAE09 SLP131 P0000 T01440117
2026-04-01 12:53:00,METAR KOAK 011253Z 19009KT 8SM -RA FEW005 BKN019 OVC040 14/13 A2990 RMK AO2 RAB1158E19B53 SLP126 P0000 T01440128
2026-04-01 11:53:00,METAR KOAK 011153Z 19011KT 10SM FEW002 BKN023 OVC034 15/13 A2991 RMK AO2 SLP126 60000 70018 T01500128 10161 20150 56005
2026-04-01 11:17:00,SPECI KOAK 011117Z 17007KT 10SM FEW007 BKN027 OVC043 15/12 A2991 RMK AO2 T01500117
2026-04-01 10:53:00,METAR KOAK 011053Z 22009KT 10SM FEW005 BKN030 OVC038 15/13 A2991 RMK AO2 RAB41E53 SLP126 P0000 T01500128
2026-04-01 09:53:00,METAR KOAK 010953Z 20009KT 10SM FEW008 BKN033 OVC075 16/12 A2990 RMK AO2 RAB14E23 SLP124 P0000 T01560122
2026-04-01 09:19:00,SPECI KOAK 010919Z 22008KT 10SM -RA FEW009 BKN032 OVC070 15/12 A2992 RMK AO2 RAB14 P0000 T01500122
2026-04-01 08:53:00,METAR KOAK 010853Z 21008KT 10SM FEW010 SCT026 BKN090 16/12 A2992 RMK AO2 SLP131 T01560122 50001
2026-04-01 07:53:00,METAR KOAK 010753Z 19005KT 10SM FEW010 SCT032 BKN100 16/12 A2992 RMK AO2 SLP132 T01560122 401890144
2026-04-01 06:53:00,METAR KOAK 010653Z COR 20006KT 10SM FEW018 SCT050 BKN075 16/13 A2992 RMK AO2 SLP131 T01610128
2026-04-01 05:53:00,METAR KOAK 010553Z 19009KT 10SM FEW020 BKN055 OVC120 16/12 A2992 RMK AO2 SLP129 60004 T01560122 10161 20156 50007
2026-04-01 04:53:00,METAR KOAK 010453Z 14007KT 10SM SCT022 BKN034 OVC041 16/12 A2992 RMK AO2 SLP131 T01610122
2026-04-01 03:53:00,METAR KOAK 010353Z 19010KT 10SM FEW029 SCT040 BKN075 16/13 A2991 RMK AO2 SLP127 T01610128
2026-04-01 02:53:00,METAR KOAK 010253Z 21012KT 10SM FEW008 BKN045 OVC075 16/12 A2990 RMK AO2 RAE25 SLP123 P0001 60004 T01560122 56001
2026-04-01 01:53:00,METAR KOAK 010153Z 22012KT 9SM -RA FEW007 BKN055 BKN080 16/13 A2990 RMK AO2 SLP124 P0001 T01560128
2026-04-01 01:48:00,SPECI KOAK 010148Z 22011KT 9SM -RA FEW007 BKN055 BKN080 16/13 A2990 RMK AO2 P0001
2026-04-01 00:53:00,METAR KOAK 010053Z 21013KT 9SM -RA FEW015 BKN050 BKN070 OVC200 16/13 A2989 RMK AO2 PK WND 21028/2359 SLP123 P0002 T01560133
2026-03-31 23:53:00,METAR KOAK 312353Z 21021G29KT 10SM -RA FEW012 BKN042 OVC060 16/13 A2990 RMK AO2 PK WND 21029/2344 RAB2259 SLP125 P0012 60012 T01610128 10189 20161 56007
2026-03-31 22:53:00,METAR KOAK 312253Z 22011KT 10SM FEW015 BKN032 BKN046 18/13 A2990 RMK AO2 RAB28E53 SLP125 P0000 T01780128
2026-03-31 21:53:00,METAR KOAK 312153Z 23008G16KT 10SM FEW015 BKN040 BKN085 18/12 A2990 RMK AO2 SLP124 T01830122
2026-03-31 20:53:00,METAR KOAK 312053Z 26007KT 10SM FEW018 SCT033 BKN044 BKN160 18/12 A2992 RMK AO2 SLP130 T01830122 50003
2026-03-31 19:53:00,METAR KOAK 311953Z 18006KT 10SM FEW016 BKN095 BKN200 19/12 A2992 RMK AO2 SLP132 T01890122
2026-03-31 18:53:00,METAR KOAK 311853Z 13011KT 10SM SCT090 BKN110 BKN160 17/12 A2992 RMK AO2 SLP131 T01720117
2026-03-31 17:53:00,METAR KOAK 311753Z 11007KT 10SM SCT090 BKN110 BKN140 17/12 A2991 RMK AO2 SLP129 60002 T01720122 10172 20144 53003
2026-03-31 16:53:00,METAR KOAK 311653Z 07006KT 10SM BKN090 BKN100 BKN180 16/13 A2989 RMK AO2 SLP121 T01610128
2026-03-31 15:53:00,METAR KOAK 311553Z 08006KT 10SM FEW016 BKN090 OVC100 15/13 A2991 RMK AO2 RAE06 SLP127 P0000 T01500133
2026-03-31 14:53:00,METAR KOAK 311453Z 06010KT 10SM -RA FEW015 BKN085 OVC100 14/13 A2990 RMK AO2 WSHFT 1410 RAE28B35 SLP126 P0001 60002 T01440128 50003
2026-03-31 14:30:00,SPECI KOAK 311430Z 11010KT 10SM FEW015 SCT085 OVC100 15/13 A2991 RMK AO2 WSHFT 1410 RAE28 P0001 T01500128
2026-03-31 13:53:00,METAR KOAK 311353Z 17012KT 10SM -RA FEW011 BKN065 OVC085 16/13 A2991 RMK AO2 RAB31 SLP127 P0001 T01560128
2026-03-31 12:53:00,METAR KOAK 311253Z 06005KT 10SM FEW011 BKN055 OVC140 15/12 A2989 RMK AO2 SLP120 T01500117
2026-03-31 11:53:00,METAR KOAK 311153Z 16005KT 10SM FEW070 BKN110 OVC200 16/11 A2990 RMK AO2 RAB1055E04 SLP122 P0000 60000 T01610111 10167 20150 58012
2026-03-31 10:53:00,METAR KOAK 311053Z 23010KT 10SM FEW013 BKN100 OVC200 16/12 A2991 RMK AO2 SLP126 T01610122
2026-03-31 09:53:00,METAR KOAK 310953Z 24005KT 10SM FEW005 BKN110 OVC180 16/12 A2993 RMK AO2 SLP132 T01560117
2026-03-31 08:53:00,METAR KOAK 310853Z 31004KT 10SM FEW005 BKN130 OVC200 16/12 A2993 RMK AO2 SLP134 T01560122 51011
2026-03-31 07:53:00,METAR KOAK 310753Z 28006KT 10SM FEW005 FEW016 BKN150 16/12 A2992 RMK AO2 SLP131 T01610117 402280122
2026-03-31 06:53:00,METAR KOAK 310653Z 32006KT 10SM FEW005 BKN130 BKN200 15/12 A2993 RMK AO2 SLP134 T01500122
2026-03-31 05:53:00,METAR KOAK 310553Z 33006KT 10SM FEW004 BKN130 OVC180 14/12 A2990 RMK AO2 SLP122 T01440122 10211 20144 50002
2026-03-31 04:53:00,METAR KOAK 310453Z 35008KT 10SM FEW008 BKN130 OVC200 15/12 A2992 RMK AO2 SLP130 T01500122
2026-03-31 04:48:00,SPECI KOAK 310448Z 33007KT 10SM FEW008 BKN130 OVC200 15/12 A2992 RMK AO2
2026-03-31 03:53:00,METAR KOAK 310353Z 32008KT 10SM BKN150 OVC220 15/12 A2991 RMK AO2 SLP129 T01500122
2026-03-31 02:53:00,METAR KOAK 310253Z 35007KT 10SM FEW008 BKN140 BKN200 16/12 A2989 RMK AO2 SLP121 T01560117 58009
2026-03-31 01:53:00,METAR KOAK 310153Z 32007KT 10SM FEW008 BKN150 BKN200 18/12 A2990 RMK AO2 SLP123 T01780122
2026-03-31 00:53:00,METAR KOAK 310053Z 31004KT 10SM FEW007 BKN160 BKN250 19/12 A2991 RMK AO2 SLP128 T01890117
2026-03-30 23:53:00,METAR KOAK 302353Z 00000KT 10SM FEW005 BKN190 OVC250 21/11 A2992 RMK AO2 SLP130 T02060106 10228 20183 58002
2026-03-30 22:53:00,METAR KOAK 302253Z 30008KT 10SM BKN170 OVC250 19/12 A2993 RMK AO2 SLP133 T01890122
2026-03-30 21:53:00,METAR KOAK 302153Z 28014KT 10SM BKN180 OVC250 21/12 A2991 RMK AO2 SLP129 T02060122
2026-03-30 20:53:00,METAR KOAK 302053Z 29004KT 10SM SCT180 OVC250 22/07 A2992 RMK AO2 SLP131 T02220067 57008
2026-03-30 19:53:00,METAR KOAK 301953Z 23003KT 10SM BKN200 OVC250 21/12 A2993 RMK AO2 SLP135 T02060117
2026-03-30 18:53:00,METAR KOAK 301853Z 21005KT 10SM BKN200 OVC250 20/12 A2994 RMK AO2 SLP136 T02000122
2026-03-30 17:53:00,METAR KOAK 301753Z 19005KT 10SM BKN200 OVC250 19/13 A2995 RMK AO2 SLP140 T01940133 10200 20122 52006
2026-03-30 16:53:00,METAR KOAK 301653Z 00000KT 10SM BKN200 OVC250 19/10 A2994 RMK AO2 SLP138 T01940100
2026-03-30 15:53:00,METAR KOAK 301553Z 00000KT 10SM BKN200 17/10 A2993 RMK AO2 SLP136 T01720100
2026-03-30 14:53:00,METAR KOAK 301453Z 02003KT 10SM BKN200 14/09 A2993 RMK AO2 SLP134 T01390094 53014
2026-03-30 13:53:00,METAR KOAK 301353Z 00000KT 10SM BKN200 14/10 A2990 RMK AO2 SLP125 T01440100
2026-03-30 12:53:00,METAR KOAK 301253Z 31003KT 10SM BKN200 14/07 A2989 RMK AO2 SLP121 T01390067
2026-03-30 11:53:00,METAR KOAK 301153Z 00000KT 10SM BKN200 16/06 A2989 RMK AO2 SLP119 T01560061 10183 20144 58011
2026-03-30 10:53:00,METAR KOAK 301053Z 02004KT 10SM BKN200 14/07 A2990 RMK AO2 SLP123 T01440067
2026-03-30 09:53:00,METAR KOAK 300953Z 05003KT 10SM BKN200 15/08 A2991 RMK AO2 SLP128 T01500078
2026-03-30 08:53:00,METAR KOAK 300853Z 06003KT 10SM BKN200 14/08 A2992 RMK AO2 SLP130 T01440083 58002
2026-03-30 07:53:00,METAR KOAK 300753Z 08003KT 10SM SCT200 15/10 A2992 RMK AO2 SLP132 T01500100 402830106
2026-03-30 06:53:00,METAR KOAK 300653Z 00000KT 10SM SCT200 16/09 A2992 RMK AO2 SLP132 T01610094
2026-03-30 05:53:00,METAR KOAK 300553Z 00000KT 10SM FEW200 16/11 A2993 RMK AO2 SLP132 T01610111 10256 20161 50004
2026-03-30 04:53:00,METAR KOAK 300453Z 35003KT 10SM FEW012 FEW130 FEW200 17/09 A2993 RMK AO2 SLP133 T01720094
2026-03-30 03:53:00,METAR KOAK 300353Z 26003KT 10SM FEW012 FEW150 21/11 A2991 RMK AO2 SLP128 T02060111
2026-03-30 02:53:00,METAR KOAK 300253Z 27007KT 10SM FEW080 FEW150 21/12 A2991 RMK AO2 SLP128 T02110122 55002
2026-03-30 01:53:00,METAR KOAK 300153Z 28004KT 10SM FEW040 FEW100 BKN160 24/08 A2991 RMK AO2 SLP127 T02440083
2026-03-30 00:53:00,METAR KOAK 300053Z 29007KT 10SM FEW040 SCT110 BKN160 25/07 A2991 RMK AO2 SLP128 T02500072
2026-03-29 23:53:00,METAR KOAK 292353Z 29009KT 10SM FEW044 FEW110 BKN160 26/11 A2992 RMK AO2 SLP130 T02560111 10283 20194 56017
2026-03-29 22:53:00,METAR KOAK 292253Z 27009KT 10SM FEW120 SCT180 28/08 A2992 RMK AO2 SLP133 T02780083
2026-03-29 21:53:00,METAR KOAK 292153Z 27011KT 10SM FEW120 FEW180 28/11 A2994 RMK AO2 SLP139 T02780106
2026-03-29 20:53:00,METAR KOAK 292053Z 25005KT 10SM BKN200 24/10 A2997 RMK AO2 SLP147 T02440100 58015
2026-03-29 19:53:00,METAR KOAK 291953Z 25005KT 10SM BKN200 23/09 A2998 RMK AO2 SLP152 T02280094
2026-03-29 18:53:00,METAR KOAK 291853Z 24004KT 10SM BKN200 21/10 A3001 RMK AO2 SLP163 T02110100
2026-03-29 17:53:00,METAR KOAK 291753Z 20005KT 10SM BKN200 19/12 A3001 RMK AO2 SLP162 T01940122 10194 20106 51007
2026-03-29 16:53:00,METAR KOAK 291653Z 19004KT 10SM FEW200 19/12 A3000 RMK AO2 SLP159 T01890122
2026-03-29 14:53:00,METAR KOAK 291453Z 01003KT 10SM FEW200 13/09 A2999 RMK AO2 SLP156 T01280094 53011
2026-03-29 13:53:00,METAR KOAK 291353Z 00000KT 10SM FEW200 12/09 A2997 RMK AO2 SLP150 T01170089
2026-03-29 12:53:00,METAR KOAK 291253Z 04003KT 10SM CLR 12/09 A2996 RMK AO2 SLP145 T01170094
2026-03-29 11:53:00,METAR KOAK 291153Z 04003KT 10SM CLR 12/10 A2996 RMK AO2 SLP144 T01220100 10156 20117 57009
2026-03-29 10:53:00,METAR KOAK 291053Z 00000KT 10SM FEW230 14/11 A2997 RMK AO2 SLP148 T01390106
2026-03-29 09:53:00,METAR KOAK 290953Z 00000KT 10SM FEW230 13/12 A2998 RMK AO2 SLP150 T01280117
2026-03-29 08:53:00,METAR KOAK 290853Z 00000KT 10SM FEW220 14/12 A2999 RMK AO2 SLP153 T01390117 56002
2026-03-29 07:53:00,METAR KOAK 290753Z 00000KT 10SM FEW200 13/11 A2999 RMK AO2 SLP154 T01280106 402440089
2026-03-29 06:53:00,METAR KOAK 290653Z 00000KT 10SM CLR 14/12 A2998 RMK AO2 SLP153 T01440117
2026-03-29 05:53:00,METAR KOAK 290553Z 00000KT 10SM CLR 14/11 A2999 RMK AO2 SLP156 T01440111 10222 20144 50008
2026-03-29 04:53:00,METAR KOAK 290453Z 00000KT 10SM CLR 16/11 A3000 RMK AO2 SLP157 T01560111
2026-03-29 03:53:00,METAR KOAK 290353Z 00000KT 10SM CLR 17/09 A2998 RMK AO2 SLP153 T01670094
2026-03-29 02:53:00,METAR KOAK 290253Z 30004KT 10SM SCT250 18/09 A2997 RMK AO2 SLP148 T01780094 55002
2026-03-29 01:53:00,METAR KOAK 290153Z 28009KT 10SM SCT250 20/09 A2996 RMK AO2 SLP146 T02000094
2026-03-29 00:53:00,METAR KOAK 290053Z 27010KT 10SM BKN250 21/08 A2997 RMK AO2 SLP148 T02110078
2026-03-28 23:53:00,METAR KOAK 282353Z 27011KT 10SM BKN250 23/07 A2997 RMK AO2 SLP150 T02280067 10244 20172 56018
2026-03-28 22:53:00,METAR KOAK 282253Z 28007KT 10SM BKN250 24/03 A2999 RMK AO2 SLP155 T02390033
2026-03-28 21:53:00,METAR KOAK 282153Z 27007KT 10SM BKN250 22/09 A3000 RMK AO2 SLP160 T02220094
2026-03-28 20:53:00,METAR KOAK 282053Z 25007KT 10SM BKN200 21/08 A3003 RMK AO2 SLP167 T02060083 58012
2026-03-28 19:53:00,METAR KOAK 281953Z 28009KT 10SM FEW005 BKN200 19/11 A3005 RMK AO2 SLP177 T01890106
2026-03-28 18:53:00,METAR KOAK 281853Z 28009KT 10SM FEW006 SCT200 18/11 A3006 RMK AO2 SLP180 T01780111
2026-03-28 17:53:00,METAR KOAK 281753Z 28008KT 10SM FEW005 SCT200 17/11 A3006 RMK AO2 SLP180 T01720111 10172 20089 53013
2026-03-28 16:53:00,METAR KOAK 281653Z 29006KT 10SM FEW005 FEW200 15/11 A3005 RMK AO2 SLP176 T01500106
2026-03-28 15:53:00,METAR KOAK 281553Z VRB03KT 10SM FEW005 FEW200 14/11 A3004 RMK AO2 SLP170 T01390106
2026-03-28 14:53:00,METAR KOAK 281453Z 00000KT 10SM FEW003 FEW200 11/09 A3003 RMK AO2 SLP168 T01060094 53011 $
2026-03-28 13:53:00,METAR KOAK 281353Z 00000KT 10SM MIFG FEW003 09/09 A3002 RMK AO2 SLP163 T00940089 $
2026-03-28 12:53:00,METAR KOAK 281253Z 00000KT 10SM MIFG FEW004 10/09 A3000 RMK AO2 SLP158 T01000089 $
2026-03-28 11:53:00,METAR KOAK 281153Z 30005KT 10SM FEW003 12/10 A3000 RMK AO2 SLP156 T01170100 10150 20111 53008 $
2026-03-28 10:53:00,METAR KOAK 281053Z 28008KT 10SM FEW003 12/10 A2999 RMK AO2 SLP152 T01220100 $
2026-03-28 09:53:00,METAR KOAK 280953Z 29003KT 10SM MIFG FEW003 11/09 A2998 RMK AO2 SLP151 T01110094 $
2026-03-28 08:53:00,METAR KOAK 280853Z 28004KT 10SM FEW004 13/11 A2997 RMK AO2 SLP148 T01330111 51002 $
2026-03-28 07:53:00,METAR KOAK 280753Z 29004KT 10SM FEW004 FEW200 13/10 A2997 RMK AO2 SLP148 T01330100 402560100 $
2026-03-28 06:53:00,METAR KOAK 280653Z 28006KT 10SM FEW005 FEW140 BKN200 14/11 A2997 RMK AO2 SLP146 T01390106 $
2026-03-28 05:53:00,METAR KOAK 280553Z 27005KT 10SM FEW005 SCT140 SCT250 15/11 A2997 RMK AO2 SLP146 T01500106 10244 20150 53008 $
2026-03-28 05:46:00,SPECI KOAK 280546Z 27005KT 10SM FEW005 SCT140 SCT250 16/11 A2997 RMK AO2 T01560106
2026-03-28 04:53:00,METAR KOAK 280453Z 29003KT 10SM BKN250 17/06 A2995 RMK AO2 SLP142 T01720061
2026-03-28 03:53:00,METAR KOAK 280353Z 30004KT 10SM BKN250 19/04 A2995 RMK AO2 SLP140 T01890044
2026-03-28 02:53:00,METAR KOAK 280253Z 30005KT 10SM SCT180 BKN250 18/04 A2994 RMK AO2 SLP139 T01830044 53005
2026-03-28 01:53:00,METAR KOAK 280153Z 31008KT 10SM SCT180 BKN250 20/06 A2994 RMK AO2 SLP137 T02000056
2026-03-28 00:53:00,METAR KOAK 280053Z 29009KT 10SM FEW180 SCT250 22/10 A2992 RMK AO2 SLP133 T02170100
2026-03-27 23:53:00,METAR KOAK 272353Z 24010KT 10SM FEW180 BKN250 25/08 A2992 RMK AO2 SLP132 T02500083 10256 20189 56018
2026-03-27 22:53:00,METAR KOAK 272253Z 22007KT 10SM FEW180 BKN250 24/06 A2993 RMK AO2 SLP135 T02440061
2026-03-27 21:53:00,METAR KOAK 272153Z 22008KT 10SM FEW180 BKN250 24/06 A2995 RMK AO2 SLP141 T02390061
2026-03-27 20:53:00,METAR KOAK 272053Z 21006KT 10SM BKN200 24/02 A2997 RMK AO2 SLP150 T02390022 58009
2026-03-27 19:53:00,METAR KOAK 271953Z 23005KT 10SM BKN200 21/09 A2999 RMK AO2 SLP155 T02060089
2026-03-27 18:53:00,METAR KOAK 271853Z 26004KT 10SM BKN200 20/09 A3000 RMK AO2 SLP158 T02000094
2026-03-27 17:53:00,METAR KOAK 271753Z 23005KT 10SM BKN200 19/12 A3000 RMK AO2 SLP159 T01890122 10194 20100 51005
2026-03-27 16:53:00,METAR KOAK 271653Z 00000KT 10SM BKN200 18/10 A3000 RMK AO2 SLP157 T01780100
2026-03-25 14:53:00,METAR KOAK 251453Z 26007KT 10SM FEW007 BKN200 13/11 A3009 RMK AO2 SLP188 T01280106 53011
2026-03-25 13:53:00,METAR KOAK 251353Z 00000KT 10SM FEW007 BKN200 09/07 A3007 RMK AO2 SLP183 T00940072
2026-03-25 12:53:00,METAR KOAK 251253Z 28005KT 10SM FEW007 BKN200 12/08 A3006 RMK AO2 SLP179 T01170083
2026-03-25 12:21:00,SPECI KOAK 251221Z 00000KT 10SM FEW009 SCT200 11/05 A3006 RMK AO2 T01060050
2026-03-25 11:53:00,METAR KOAK 251153Z 36003KT 10SM FEW010 SCT200 09/05 A3005 RMK AO2 SLP175 T00940050 10172 20094 55004
2026-03-25 10:53:00,METAR KOAK 251053Z 00000KT 10SM SCT200 11/06 A3005 RMK AO2 SLP174 T01060056
2026-03-25 09:53:00,METAR KOAK 250953Z 00000KT 10SM SCT200 13/05 A3006 RMK AO2 SLP177 T01280050
2026-03-25 08:53:00,METAR KOAK 250853Z 00000KT 10SM FEW100 SCT200 13/06 A3007 RMK AO2 SLP180 T01280061 51002
2026-03-25 07:53:00,METAR KOAK 250753Z 00000KT 10SM FEW100 SCT200 12/05 A3006 RMK AO2 SLP179 T01220050 402440100
2026-03-25 06:53:00,METAR KOAK 250653Z 21003KT 10SM FEW100 FEW200 17/02 A3006 RMK AO2 SLP179 T01670017
2026-03-25 05:53:00,METAR KOAK 250553Z 00000KT 10SM FEW100 FEW200 16/M02 A3006 RMK AO2 SLP177 T01611017 10233 20161 51013
2026-03-25 04:53:00,METAR KOAK 250453Z 29007KT 10SM FEW200 17/03 A3005 RMK AO2 SLP174 T01720028
2026-03-25 03:53:00,METAR KOAK 250353Z 28007KT 10SM CLR 17/03 A3003 RMK AO2 SLP169 T01720033
2026-03-25 02:53:00,METAR KOAK 250253Z 26010KT 10SM SCT200 19/04 A3002 RMK AO2 SLP166 T01890044 55003
2026-03-25 01:53:00,METAR KOAK 250153Z 27010KT 10SM SCT200 21/05 A3002 RMK AO2 SLP166 T02110050
2026-03-25 00:53:00,METAR KOAK 250053Z 29006KT 10SM SCT200 22/08 A3002 RMK AO2 SLP165 T02220078
2026-03-24 23:53:00,METAR KOAK 242353Z 27011KT 10SM FEW200 23/07 A3003 RMK AO2 SLP168 T02330072 10244 20189 56009
2026-03-24 22:53:00,METAR KOAK 242253Z 25008KT 10SM FEW200 24/07 A3003 RMK AO2 SLP169 T02390067
2026-03-24 21:53:00,METAR KOAK 242153Z 25012KT 10SM FEW200 24/09 A3005 RMK AO2 SLP174 T02390094
2026-03-24 20:53:00,METAR KOAK 242053Z 24010KT 10SM FEW200 23/07 A3006 RMK AO2 SLP178 T02330072 58013
2026-03-24 19:53:00,METAR KOAK 241953Z 23008KT 10SM FEW200 22/08 A3007 RMK AO2 SLP182 T02220083
2026-03-24 18:53:00,METAR KOAK 241853Z 22005KT 10SM CLR 20/11 A3009 RMK AO2 SLP189 T02000111
2026-03-24 17:53:00,METAR KOAK 241753Z 21004KT 10SM CLR 19/11 A3010 RMK AO2 SLP190 T01940111 10194 20100 52009
2026-03-24 16:53:00,METAR KOAK 241653Z 00000KT 9SM CLR 18/10 A3008 RMK AO2 SLP186 T01830100
2026-03-24 15:53:00,METAR KOAK 241553Z 00000KT 10SM CLR 16/09 A3008 RMK AO2 SLP186 T01610089
2026-03-24 14:53:00,METAR KOAK 241453Z 03003KT 10SM CLR 12/08 A3007 RMK AO2 SLP183 T01220078 53007
2026-03-24 13:53:00,METAR KOAK 241353Z 00000KT 10SM FEW020 11/07 A3006 RMK AO2 SLP178 T01060067
2026-03-24 12:53:00,METAR KOAK 241253Z 03003KT 10SM FEW004 11/07 A3005 RMK AO2 SLP175 T01060072
2026-03-24 11:53:00,METAR KOAK 241153Z 02003KT 10SM FEW005 12/08 A3005 RMK AO2 SLP174 T01170078 10167 20111 55005
2026-03-24 11:20:00,SPECI KOAK 241120Z 00000KT 10SM FEW005 12/08 A3005 RMK AO2 T01170078
2026-03-24 10:53:00,METAR KOAK 241053Z 04003KT 10SM CLR 12/08 A3005 RMK AO2 SLP173 T01220078
2026-03-24 09:53:00,METAR KOAK 240953Z 03004KT 10SM CLR 12/08 A3006 RMK AO2 SLP179 T01170078
2026-03-24 08:53:00,METAR KOAK 240853Z 00000KT 10SM CLR 13/08 A3007 RMK AO2 SLP179 T01330083 55000
2026-03-24 07:53:00,METAR KOAK 240753Z 04003KT 10SM CLR 13/08 A3007 RMK AO2 SLP180 T01280083 402440089
2026-03-24 06:53:00,METAR KOAK 240653Z 00000KT 10SM CLR 14/08 A3006 RMK AO2 SLP178 T01390078
2026-03-24 05:53:00,METAR KOAK 240553Z 00000KT 10SM CLR 17/07 A3006 RMK AO2 SLP179 T01670072 10228 20161 51012
2026-03-24 04:53:00,METAR KOAK 240453Z 25003KT 10SM CLR 17/09 A3006 RMK AO2 SLP178 T01720094
2026-03-24 03:53:00,METAR KOAK 240353Z 29006KT 10SM CLR 17/09 A3005 RMK AO2 SLP176 T01720089
2026-03-24 02:53:00,METAR KOAK 240253Z 30008KT 10SM FEW200 19/07 A3003 RMK AO2 SLP169 T01890067 55000
2026-03-24 01:53:00,METAR KOAK 240153Z 28009KT 10SM FEW200 20/07 A3002 RMK AO2 SLP166 T02000067
2026-03-24 00:53:00,METAR KOAK 240053Z 29009KT 10SM FEW200 22/07 A3002 RMK AO2 SLP168 T02170067
2026-03-23 23:53:00,METAR KOAK 232353Z 29009KT 10SM SCT200 23/04 A3003 RMK AO2 SLP169 T02280039 10244 20172 56008
2026-03-23 22:53:00,METAR KOAK 232253Z 29010KT 10SM SCT200 23/03 A3003 RMK AO2 SLP168 T02330028
2026-03-23 21:53:00,METAR KOAK 232153Z 29007KT 10SM SCT200 23/06 A3004 RMK AO2 SLP172 T02330056
2026-03-23 20:53:00,METAR KOAK 232053Z 25007KT 10SM SCT200 22/12 A3005 RMK AO2 SLP176 T02220122 58008
2026-03-23 19:53:00,METAR KOAK 231953Z 23005KT 10SM SCT200 21/06 A3007 RMK AO2 SLP182 T02060061
2026-03-23 18:53:00,METAR KOAK 231853Z 20004KT 10SM SCT200 19/11 A3007 RMK AO2 SLP184 T01890106
2026-03-23 17:53:00,METAR KOAK 231753Z 19004KT 10SM SCT200 17/12 A3008 RMK AO2 SLP185 T01720117 10172 20089 51009
2026-03-23 16:53:00,METAR KOAK 231653Z 16004KT 10SM SCT200 16/12 A3008 RMK AO2 SLP185 T01610117
2026-03-23 15:53:00,METAR KOAK 231553Z 00000KT 10SM FEW200 14/11 A3007 RMK AO2 SLP181 T01440111
2026-03-23 14:53:00,METAR KOAK 231453Z 07004KT 10SM SCT200 12/11 A3005 RMK AO2 SLP177 T01170106 51003
2026-03-23 13:53:00,METAR KOAK 231353Z 07004KT 10SM FEW150 SCT200 09/09 A3006 RMK AO2 SLP177 T00940089
2026-03-23 12:53:00,METAR KOAK 231253Z 06003KT 10SM FEW150 09/08 A3005 RMK AO2 SLP176 T00940083 $
2026-03-23 11:53:00,METAR KOAK 231153Z 04003KT 10SM FEW150 09/08 A3005 RMK AO2 SLP174 T00940083 10128 20089 53003 $
2026-03-23 10:53:00,METAR KOAK 231053Z 00000KT 10SM SCT150 11/09 A3004 RMK AO2 SLP171 T01060094 $
2026-03-23 09:53:00,METAR KOAK 230953Z 03003KT 10SM BKN150 09/08 A3004 RMK AO2 SLP170 T00940083 $
2026-03-23 08:53:00,METAR KOAK 230853Z 00000KT 10SM BKN200 11/09 A3004 RMK AO2 SLP171 T01060089 53009 $
2026-03-23 07:53:00,METAR KOAK 230753Z 30003KT 10SM BKN200 11/09 A3003 RMK AO2 SLP167 T01110089 402220083 $
2026-03-23 06:53:00,METAR KOAK 230653Z 00000KT 10SM BKN200 11/09 A3001 RMK AO2 SLP163 T01110089 $
2026-03-23 05:53:00,METAR KOAK 230553Z 24006KT 10SM FEW009 BKN200 13/09 A3001 RMK AO2 SLP162 T01280094 10194 20128 51013 $
2026-03-23 04:53:00,METAR KOAK 230453Z COR 25010KT 10SM FEW004 FEW110 BKN250 13/09 A3001 RMK AO2 SLP162 T01330094 $
2026-03-23 03:53:00,METAR KOAK 230353Z COR 28008KT 10SM FEW006 FEW120 FEW180 13/09 A3000 RMK AO2 SLP157 T01330094 $
2026-03-23 02:53:00,METAR KOAK 230253Z 27013KT 10SM FEW007 FEW050 SCT130 14/09 A2997 RMK AO2 SLP149 T01390094 53008 $
2026-03-23 01:53:00,METAR KOAK 230153Z 27011KT 10SM FEW008 FEW050 BKN140 15/09 A2995 RMK AO2 SLP143 T01500094 $
2026-03-23 00:53:00,METAR KOAK 230053Z 27017KT 10SM FEW009 FEW050 BKN160 17/10 A2995 RMK AO2 SLP142 T01720100 $
2026-03-22 23:53:00,METAR KOAK 222353Z 28012KT 10SM FEW010 FEW050 BKN160 19/11 A2995 RMK AO2 SLP141 T01890106 10222 20167 56014 $
2026-03-22 22:53:00,METAR KOAK 222253Z 27015KT 10SM FEW010 FEW055 SCT160 19/11 A2995 RMK AO2 SLP142 T01940106 $
2026-03-22 21:53:00,METAR KOAK 222153Z 27010KT 10SM FEW060 FEW200 22/11 A2996 RMK AO2 SLP143 T02220106 $
2026-03-22 20:53:00,METAR KOAK 222053Z 27008KT 10SM FEW050 FEW200 20/11 A2999 RMK AO2 SLP155 T02000111 58010 $
2026-03-22 19:53:00,METAR KOAK 221953Z 29008KT 10SM FEW200 19/11 A3001 RMK AO2 SLP162 T01940111 $
2026-03-22 18:53:00,METAR KOAK 221853Z 25006KT 10SM FEW200 19/09 A3002 RMK AO2 SLP164 T01940089 $
2026-03-22 17:53:00,METAR KOAK 221753Z COR VRB03KT 10SM SCT220 17/11 A3002 RMK AO2 SLP166 T01720111 10172 20083 53004 $
2026-03-22 16:53:00,METAR KOAK 221653Z 22004KT 9SM SCT220 16/11 A3002 RMK AO2 SLP164 T01560111
2026-03-22 15:53:00,METAR KOAK 221553Z 00000KT 9SM FEW220 14/10 A3001 RMK AO2 SLP162 T01390100
2026-03-22 14:53:00,METAR KOAK 221453Z 04004KT 9SM FEW200 10/09 A3001 RMK AO2 SLP161 T01000089 53014
2026-03-22 13:53:00,METAR KOAK 221353Z 04004KT 9SM FEW180 09/08 A2999 RMK AO2 SLP155 T00890078 $
2026-03-22 12:53:00,METAR KOAK 221253Z 00000KT 9SM CLR 10/09 A2997 RMK AO2 SLP149 T01000089 $
2026-03-22 11:53:00,METAR KOAK 221153Z 00000KT 9SM CLR 09/08 A2997 RMK AO2 SLP147 T00940083 10133 20094 56009 $
2026-03-22 10:53:00,METAR KOAK 221053Z 28003KT 9SM CLR 11/09 A2997 RMK AO2 SLP148 T01110094 $
2026-03-22 09:53:00,METAR KOAK 220953Z 00000KT 9SM CLR 11/09 A2999 RMK AO2 SLP152 T01110089 $
2026-03-22 08:53:00,METAR KOAK 220853Z 00000KT 9SM CLR 11/09 A2999 RMK AO2 SLP155 T01110089 58002 $
2026-03-22 07:53:00,METAR KOAK 220753Z 29004KT 10SM CLR 13/09 A3000 RMK AO2 SLP158 T01280094 402280128 $
2026-03-22 06:53:00,METAR KOAK 220653Z 27009KT 9SM CLR 13/10 A3001 RMK AO2 SLP159 T01330100 $
2026-03-22 05:53:00,METAR KOAK 220553Z 26011KT 9SM CLR 13/10 A3000 RMK AO2 SLP158 T01330100 10206 20133 51012 $
2026-03-22 04:53:00,METAR KOAK 220453Z 26013KT 10SM FEW007 14/10 A2999 RMK AO2 SLP155 T01390100 $
2026-03-22 03:53:00,METAR KOAK 220353Z 24011KT 10SM CLR 16/09 A2998 RMK AO2 SLP150 T01560094 $
2026-03-22 02:53:00,METAR KOAK 220253Z 25009KT 10SM FEW200 17/11 A2996 RMK AO2 SLP146 T01720106 55000 $
2026-03-22 01:53:00,METAR KOAK 220153Z 25013KT 10SM FEW110 FEW250 19/11 A2996 RMK AO2 SLP143 T01890106 $
2026-03-22 00:53:00,METAR KOAK 220053Z 25010KT 10SM FEW250 20/11 A2996 RMK AO2 SLP143 T02000111 $
2026-03-21 23:53:00,METAR KOAK 212353Z 24011KT 10SM FEW250 21/13 A2996 RMK AO2 SLP145 T02060128 10228 20189 56008 $
2026-03-21 22:53:00,METAR KOAK 212253Z 26009KT 10SM SCT250 21/12 A2997 RMK AO2 SLP147 T02110122 $
2026-03-21 21:53:00,METAR KOAK 212153Z 26008KT 10SM SCT250 22/12 A2997 RMK AO2 SLP148 T02170122 $
2026-03-21 20:53:00,METAR KOAK 212053Z 25007KT 10SM BKN200 22/13 A2998 RMK AO2 SLP153 T02170128 58006 $
2026-03-21 19:53:00,METAR KOAK 211953Z 24005KT 10SM FEW100 BKN200 21/13 A2999 RMK AO2 SLP155 T02110133 $
2026-03-21 18:53:00,METAR KOAK 211853Z 22005KT 10SM BKN200 20/13 A3000 RMK AO2 SLP159 T02000128 $
2026-03-21 17:53:00,METAR KOAK 211753Z 21003KT 10SM BKN200 19/12 A3000 RMK AO2 SLP159 T01890122 10194 20133 51016 $
2026-03-21 16:53:00,METAR KOAK 211653Z 25004KT 10SM BKN200 18/13 A2999 RMK AO2 SLP154 T01830133 $
2026-03-21 15:53:00,METAR KOAK 211553Z 28006KT 10SM BKN200 17/12 A2998 RMK AO2 SLP152 T01720122 $
2026-03-21 14:53:00,METAR KOAK 211453Z 00000KT 10SM BKN200 14/12 A2996 RMK AO2 SLP143 T01390122 51015 $
2026-03-21 13:53:00,METAR KOAK 211353Z 33003KT 10SM BKN200 14/12 A2995 RMK AO2 SLP139 T01390122 $
2026-03-21 12:53:00,METAR KOAK 211253Z 27009KT 10SM SCT200 14/12 A2993 RMK AO2 SLP134 T01440122 $
2026-03-21 11:53:00,METAR KOAK 211153Z 32004KT 10SM SCT200 14/12 A2992 RMK AO2 SLP129 T01440122 10194 20144 51003 $
2026-03-21 10:53:00,METAR KOAK 211053Z 32004KT 10SM FEW150 14/12 A2991 RMK AO2 SLP128 T01440117 $
2026-03-21 09:53:00,METAR KOAK 210953Z 31005KT 10SM FEW150 15/12 A2991 RMK AO2 SLP128 T01500117 $
2026-03-21 08:53:00,METAR KOAK 210853Z 31004KT 10SM FEW150 15/12 A2991 RMK AO2 SLP126 T01500122 53002 $
2026-03-21 07:53:00,METAR KOAK 210753Z 31003KT 10SM CLR 16/12 A2990 RMK AO2 SLP125 T01610122 403000133 $
2026-03-21 06:53:00,METAR KOAK 210653Z 00000KT 10SM FEW150 18/14 A2990 RMK AO2 SLP124 T01780139
2026-03-21 05:53:00,METAR KOAK 210553Z 00000KT 10SM CLR 19/16 A2990 RMK AO2 SLP124 T01940161 10283 20189 53010
2026-03-21 04:53:00,METAR KOAK 210453Z 28004KT 10SM CLR 19/14 A2989 RMK AO2 SLP120 T01940144
2026-03-21 03:53:00,METAR KOAK 210353Z 29006KT 10SM CLR 22/11 A2987 RMK AO2 SLP115 T02170111
2026-03-21 02:53:00,METAR KOAK 210253Z 27005KT 10SM FEW220 23/14 A2987 RMK AO2 SLP114 T02330144 55002
2026-03-21 01:53:00,METAR KOAK 210153Z 29009KT 10SM FEW180 25/12 A2986 RMK AO2 SLP113 T02500122
2026-03-21 00:53:00,METAR KOAK 210053Z 28008KT 10SM FEW180 26/13 A2986 RMK AO2 SLP111 T02610133
2026-03-20 23:53:00,METAR KOAK 202353Z 24005KT 10SM FEW180 28/11 A2987 RMK AO2 SLP116 T02830106 10300 20206 56025
2026-03-20 22:53:00,METAR KOAK 202253Z 25006KT 10SM FEW120 27/14 A2989 RMK AO2 SLP121 T02720144
2026-03-20 21:53:00,METAR KOAK 202153Z 24005KT 10SM FEW110 27/14 A2991 RMK AO2 SLP130 T02720139
2026-03-20 20:53:00,METAR KOAK 202053Z 26006KT 10SM FEW070 26/14 A2995 RMK AO2 SLP141 T02560144 58017
2026-03-20 19:53:00,METAR KOAK 201953Z 24005KT 10SM FEW070 FEW150 23/14 A2997 RMK AO2 SLP148 T02330139
2026-03-20 18:53:00,METAR KOAK 201853Z 24005KT 10SM FEW070 21/14 A2999 RMK AO2 SLP154 T02110144
2026-03-20 17:53:00,METAR KOAK 201753Z 19004KT 10SM FEW070 21/15 A3000 RMK AO2 SLP158 T02060150 10206 20133 50001
2026-03-20 16:53:00,METAR KOAK 201653Z 25004KT 10SM FEW060 20/14 A3000 RMK AO2 SLP159 T02000144
2026-03-20 15:53:00,METAR KOAK 201553Z 00000KT 10SM FEW060 19/15 A3000 RMK AO2 SLP159 T01890150
2026-03-20 14:53:00,METAR KOAK 201453Z 00000KT 10SM FEW050 14/14 A3000 RMK AO2 SLP156 T01440139 51000
2026-03-20 13:53:00,METAR KOAK 201353Z 00000KT 10SM MIFG CLR 16/13 A3000 RMK AO2 SLP156 T01560133
2026-03-20 12:53:00,METAR KOAK 201253Z 00000KT 10SM CLR 13/12 A3000 RMK AO2 SLP156 T01330122
2026-03-20 11:53:00,METAR KOAK 201153Z 00000KT 10SM CLR 16/14 A2999 RMK AO2 SLP156 T01610139 10206 20144 58011
2026-03-20 10:53:00,METAR KOAK 201053Z 00000KT 10SM CLR 18/13 A3001 RMK AO2 SLP160 T01780133
2026-03-20 09:53:00,METAR KOAK 200953Z 00000KT 10SM CLR 17/15 A3002 RMK AO2 SLP164 T01670150
2026-03-20 08:53:00,METAR KOAK 200853Z 30003KT 10SM CLR 18/15 A3003 RMK AO2 SLP167 T01780150 58002
2026-03-20 07:53:00,METAR KOAK 200753Z 00000KT 10SM CLR 18/16 A3003 RMK AO2 SLP169 T01830156 402830111
2026-03-20 06:53:00,METAR KOAK 200653Z 00000KT 10SM CLR 19/16 A3003 RMK AO2 SLP169 T01940156
2026-03-20 05:53:00,METAR KOAK 200553Z 00000KT 10SM CLR 21/14 A3003 RMK AO2 SLP169 T02060144 10283 20194 50003
2026-03-20 04:53:00,METAR KOAK 200453Z 00000KT 10SM CLR 21/14 A3004 RMK AO2 SLP170 T02110139
2026-03-20 03:53:00,METAR KOAK 200353Z 32004KT 10SM CLR 22/13 A3003 RMK AO2 SLP168 T02220133
2026-03-20 02:53:00,METAR KOAK 200253Z 29004KT 10SM FEW200 24/12 A3002 RMK AO2 SLP166 T02390122 55002
2026-03-20 01:53:00,METAR KOAK 200153Z 29008KT 10SM FEW200 26/12 A3002 RMK AO2 SLP165 T02560122
2026-03-20 00:53:00,METAR KOAK 200053Z 29010KT 10SM CLR 28/14 A3002 RMK AO2 SLP165 T02830144
2026-03-19 23:53:00,METAR KOAK 192353Z 29010KT 10SM CLR 27/17 A3003 RMK AO2 SLP169 T02720167 10278 20200 56024
2026-03-19 22:53:00,METAR KOAK 192253Z 28008KT 10SM CLR 28/17 A3005 RMK AO2 SLP177 T02780167
2026-03-19 21:53:00,METAR KOAK 192153Z 25006KT 10SM CLR 26/16 A3008 RMK AO2 SLP184 T02610156
2026-03-19 20:53:00,METAR KOAK 192053Z 26007KT 10SM CLR 26/14 A3010 RMK AO2 SLP193 T02560144 58016
2026-03-19 19:53:00,METAR KOAK 191953Z 29006KT 10SM CLR 24/13 A3012 RMK AO2 SLP199 T02390133
2026-03-19 18:53:00,METAR KOAK 191853Z 25006KT 10SM CLR 21/13 A3013 RMK AO2 SLP203 T02110133
2026-03-19 17:53:00,METAR KOAK 191753Z 24005KT 10SM CLR 20/13 A3015 RMK AO2 SLP208 T02000133 10200 20111 51009
2026-03-19 16:53:00,METAR KOAK 191653Z 22004KT 10SM CLR 18/13 A3015 RMK AO2 SLP207 T01830133
2026-03-19 15:53:00,METAR KOAK 191553Z 00000KT 10SM CLR 16/12 A3014 RMK AO2 SLP204 T01610122
2026-03-19 14:53:00,METAR KOAK 191453Z 00000KT 10SM FEW015 12/11 A3012 RMK AO2 SLP199 T01220111 53010
2026-03-19 13:53:00,METAR KOAK 191353Z 00000KT 10SM MIFG CLR 13/11 A3011 RMK AO2 SLP195 T01280111
2026-03-19 12:53:00,METAR KOAK 191253Z 00000KT 10SM MIFG FEW005 FEW028 12/11 A3010 RMK AO2 SLP191 T01220106
2026-03-19 11:53:00,METAR KOAK 191153Z 31003KT 10SM MIFG FEW005 FEW028 12/11 A3009 RMK AO2 SLP188 T01220106 10178 20122 55003
2026-03-19 10:53:00,METAR KOAK 191053Z 29003KT 10SM MIFG FEW004 13/11 A3009 RMK AO2 SLP188 T01280111
2026-03-19 09:53:00,METAR KOAK 190953Z 00000KT 10SM FEW006 13/12 A3009 RMK AO2 SLP189 T01330117
2026-03-19 08:53:00,METAR KOAK 190853Z 32003KT 10SM FEW003 13/11 A3010 RMK AO2 SLP191 T01280111 51003
2026-03-19 07:53:00,METAR KOAK 190753Z 31003KT 10SM FEW001 15/12 A3010 RMK AO2 SLP190 T01500122 402940128
2026-03-19 06:53:00,METAR KOAK 190653Z 29005KT 10SM FEW003 16/12 A3010 RMK AO2 SLP192 T01560122
2026-03-19 05:53:00,METAR KOAK 190553Z 36003KT 10SM FEW005 18/13 A3009 RMK AO2 SLP189 T01780128 10256 20178 53015
2026-03-19 05:19:00,SPECI KOAK 190519Z 31004KT 10SM FEW007 18/13 A3008 RMK AO2 HZ FEW007 T01830128
2026-03-19 04:53:00,METAR KOAK 190453Z 31003KT 10SM CLR 19/13 A3007 RMK AO2 SLP183 T01890128
2026-03-19 03:53:00,METAR KOAK 190353Z 00000KT 10SM CLR 21/12 A3006 RMK AO2 SLP178 T02060122
2026-03-19 02:53:00,METAR KOAK 190253Z 32003KT 10SM CLR 22/11 A3004 RMK AO2 SLP173 T02220106 53009
2026-03-19 01:53:00,METAR KOAK 190153Z 29008KT 10SM CLR 24/11 A3002 RMK AO2 SLP166 T02390106
2026-03-19 00:53:00,METAR KOAK 190053Z 29010KT 10SM CLR 24/13 A3002 RMK AO2 SLP164 T02390128
2026-03-18 23:53:00,METAR KOAK 182353Z 28009KT 10SM CLR 26/13 A3002 RMK AO2 SLP164 T02560133 10294 20206 56007
2026-03-18 22:53:00,METAR KOAK 182253Z 29008KT 10SM CLR 29/14 A3002 RMK AO2 SLP165 T02940139
2026-03-18 21:53:00,METAR KOAK 182153Z 29011KT 10SM CLR 28/15 A3002 RMK AO2 SLP167 T02780150
2026-03-18 20:53:00,METAR KOAK 182053Z 25007KT 10SM CLR 26/15 A3004 RMK AO2 SLP172 T02610150 58009
2026-03-18 19:53:00,METAR KOAK 181953Z 26008KT 10SM CLR 24/13 A3006 RMK AO2 SLP179 T02440128
2026-03-18 18:53:00,METAR KOAK 181853Z 25006KT 10SM CLR 23/14 A3006 RMK AO2 SLP179 T02280139
2026-03-18 17:53:00,METAR KOAK 181753Z 26004KT 10SM CLR 21/13 A3007 RMK AO2 SLP181 T02060133 10206 20128 51011
2026-03-18 16:53:00,METAR KOAK 181653Z 20003KT 10SM CLR 20/14 A3006 RMK AO2 SLP178 T02000144
2026-03-18 15:53:00,METAR KOAK 181553Z 00000KT 10SM FEW180 18/14 A3005 RMK AO2 SLP174 T01780139
2026-03-18 14:53:00,METAR KOAK 181453Z 00000KT 10SM FEW180 14/13 A3004 RMK AO2 SLP170 T01390133 53009
2026-03-18 13:53:00,METAR KOAK 181353Z 00000KT 10SM MIFG FEW180 13/12 A3002 RMK AO2 SLP164 T01330122
2026-03-18 12:53:00,METAR KOAK 181253Z 00000KT 10SM MIFG CLR 13/12 A3002 RMK AO2 SLP163 T01330122
2026-03-18 11:53:00,METAR KOAK 181153Z 00000KT 10SM CLR 14/13 A3001 RMK AO2 SLP161 T01440128 10200 20139 51001
2026-03-18 10:53:00,METAR KOAK 181053Z 00000KT 10SM CLR 15/13 A3001 RMK AO2 SLP161 T01500133
2026-03-18 09:53:00,METAR KOAK 180953Z 00000KT 10SM CLR 16/14 A3001 RMK AO2 SLP160 T01610139
2026-03-18 08:53:00,METAR KOAK 180853Z 01003KT 10SM CLR 15/13 A3001 RMK AO2 SLP160 T01500128 53010
2026-03-18 07:53:00,METAR KOAK 180753Z 00000KT 10SM CLR 17/14 A2999 RMK AO2 SLP155 T01720139 402830111
2026-03-18 06:53:00,METAR KOAK 180653Z 21003KT 10SM CLR 19/14 A2999 RMK AO2 SLP153 T01940139
2026-03-18 05:53:00,METAR KOAK 180553Z 01003KT 10SM CLR 19/13 A2998 RMK AO2 SLP150 T01890133 10278 20183 51010
2026-03-18 04:53:00,METAR KOAK 180453Z 31003KT 10SM CLR 21/15 A2997 RMK AO2 SLP148 T02060150
2026-03-18 03:53:00,METAR KOAK 180353Z 30003KT 10SM CLR 23/13 A2996 RMK AO2 SLP144 T02330133
2026-03-18 02:53:00,METAR KOAK 180253Z 29007KT 10SM FEW200 22/14 A2995 RMK AO2 SLP140 T02170144 53004
2026-03-18 01:53:00,METAR KOAK 180153Z 30006KT 10SM FEW200 24/14 A2993 RMK AO2 SLP135 T02390139
2026-03-18 00:53:00,METAR KOAK 180053Z 29011KT 10SM SCT200 27/12 A2993 RMK AO2 SLP134 T02720117
2026-03-17 23:53:00,METAR KOAK 172353Z 29011KT 10SM SCT200 27/13 A2993 RMK AO2 SLP136 T02720128 10283 20200 56022
2026-03-17 22:53:00,METAR KOAK 172253Z 29007KT 10SM FEW000 SCT200 28/14 A2995 RMK AO2 SLP141 FU FEW000 T02780139
2026-03-17 22:48:00,SPECI KOAK 172248Z 28007KT 10SM FEW000 SCT200 28/14 A2995 RMK AO2 FU FEW000
2026-03-17 21:53:00,METAR KOAK 172153Z 29009KT 10SM SCT200 27/15 A2997 RMK AO2 SLP147 T02670150
2026-03-17 20:53:00,METAR KOAK 172053Z 26006KT 10SM SCT200 25/10 A3000 RMK AO2 SLP158 T02500100 58013 $
2026-03-17 19:53:00,METAR KOAK 171953Z 25006KT 10SM BKN200 23/09 A3002 RMK AO2 SLP166 T02280094 $
2026-03-17 18:53:00,METAR KOAK 171853Z 26006KT 10SM BKN200 22/11 A3003 RMK AO2 SLP170 T02220106 $
2026-03-17 17:53:00,METAR KOAK 171753Z 24004KT 10SM BKN200 20/11 A3004 RMK AO2 SLP171 T02000111 10200 20111 51010 $
2026-03-17 16:53:00,METAR KOAK 171653Z 22003KT 10SM SCT200 19/12 A3004 RMK AO2 SLP170 T01890122 $
2026-03-17 15:53:00,METAR KOAK 171553Z 00000KT 10SM FEW200 17/11 A3003 RMK AO2 SLP167 T01720111 $
2026-03-17 14:53:00,METAR KOAK 171453Z 00000KT 10SM FEW200 14/11 A3001 RMK AO2 SLP161 T01390111 53007 $
2026-03-17 13:53:00,METAR KOAK 171353Z 00000KT 10SM FEW200 13/11 A3000 RMK AO2 SLP158 T01330111 $
2026-03-17 12:53:00,METAR KOAK 171253Z 00000KT 10SM CLR 13/11 A3000 RMK AO2 SLP156 T01280111 $
2026-03-17 11:53:00,METAR KOAK 171153Z 00000KT 10SM CLR 15/12 A2999 RMK AO2 SLP155 T01500117 10189 20117 58005 $
2026-03-17 10:53:00,METAR KOAK 171053Z 00000KT 10SM CLR 14/12 A3000 RMK AO2 SLP158 T01440117 $
2026-03-17 09:53:00,METAR KOAK 170953Z 00000KT 10SM CLR 16/11 A3001 RMK AO2 SLP160 T01610106 $
2026-03-17 08:53:00,METAR KOAK 170853Z 01003KT 10SM CLR 14/10 A3001 RMK AO2 SLP160 T01440100 58002 $
2026-03-17 07:53:00,METAR KOAK 170753Z 00000KT 10SM CLR 15/12 A3001 RMK AO2 SLP162 T01500117 402780106 $
2026-03-17 06:53:00,METAR KOAK 170653Z 00000KT 10SM CLR 16/11 A3001 RMK AO2 SLP163 T01610106 $
2026-03-17 05:53:00,METAR KOAK 170553Z 25003KT 10SM CLR 19/13 A3001 RMK AO2 SLP162 T01890128 10278 20172 51009 $
2026-03-17 04:53:00,METAR KOAK 170453Z 00000KT 10SM CLR 20/08 A3001 RMK AO2 SLP160 T02000078 $
2026-03-17 03:53:00,METAR KOAK 170353Z 00000KT 10SM CLR 21/08 A3000 RMK AO2 SLP158 T02060078 $
2026-03-17 02:53:00,METAR KOAK 170253Z 30004KT 10SM FEW150 FEW200 22/07 A2999 RMK AO2 SLP153 T02220067 55001 $
2026-03-17 01:53:00,METAR KOAK 170153Z 30005KT 10SM SCT200 24/09 A2998 RMK AO2 SLP151 T02390089 $
2026-03-17 00:53:00,METAR KOAK 170053Z 25005KT 10SM SCT200 27/09 A2998 RMK AO2 SLP151 T02670089 $
2026-03-16 23:53:00,METAR KOAK 162353Z COR 24006KT 10SM SCT200 27/09 A2999 RMK AO2 SLP154 T02670094 10272 20183 56022 $
2026-03-16 22:53:00,METAR KOAK 162253Z 25006KT 10SM SCT200 26/08 A3000 RMK AO2 SLP160 T02610083 $
2026-03-16 21:53:00,METAR KOAK 162153Z 23005KT 10SM SCT200 25/08 A3003 RMK AO2 SLP167 T02500083 $
2026-03-16 20:53:00,METAR KOAK 162053Z 24005KT 10SM SCT220 25/07 A3005 RMK AO2 SLP177 T02500072 58014
2026-03-16 19:53:00,METAR KOAK 161953Z 26005KT 10SM SCT220 23/08 A3008 RMK AO2 SLP185 T02280083
2026-03-16 18:53:00,METAR KOAK 161853Z 24003KT 10SM FEW180 SCT220 21/12 A3009 RMK AO2 SLP189 T02060122
2026-03-16 17:53:00,METAR KOAK 161753Z 24003KT 10SM FEW180 FEW220 18/13 A3010 RMK AO2 SLP190 T01780128 10178 20106 51008
2026-03-16 16:53:00,METAR KOAK 161653Z 00000KT 10SM FEW180 FEW220 18/12 A3009 RMK AO2 SLP188 T01780117
2026-03-16 15:53:00,METAR KOAK 161553Z 00000KT 10SM FEW150 SCT200 16/11 A3008 RMK AO2 SLP185 T01560106
2026-03-16 14:53:00,METAR KOAK 161453Z 00000KT 10SM FEW150 SCT200 12/08 A3007 RMK AO2 SLP183 T01170083 53008
2026-03-16 13:53:00,METAR KOAK 161353Z 00000KT 10SM SCT200 11/08 A3007 RMK AO2 SLP181 T01060083
2026-03-16 12:53:00,METAR KOAK 161253Z 00000KT 10SM FEW200 12/09 A3005 RMK AO2 SLP175 T01220089 $
2026-03-16 11:53:00,METAR KOAK 161153Z 00000KT 10SM FEW200 12/09 A3005 RMK AO2 SLP174 T01220089 10172 20117 56004 $
2026-03-16 10:53:00,METAR KOAK 161053Z 36003KT 10SM FEW200 12/09 A3005 RMK AO2 SLP174 T01220089 $
2026-03-16 09:53:00,METAR KOAK 160953Z 00000KT 10SM FEW200 13/09 A3006 RMK AO2 SLP177 T01330094 $
2026-03-16 08:53:00,METAR KOAK 160853Z 35003KT 10SM FEW200 13/11 A3006 RMK AO2 SLP178 T01280111 58006 $
2026-03-16 07:53:00,METAR KOAK 160753Z 00000KT 10SM FEW200 14/12 A3007 RMK AO2 SLP180 T01390117 402610089 $
2026-03-16 06:53:00,METAR KOAK 160653Z 29003KT 10SM FEW200 16/13 A3008 RMK AO2 SLP184 T01560128 $
2026-03-16 05:53:00,METAR KOAK 160553Z 00000KT 10SM FEW200 17/12 A3008 RMK AO2 SLP184 T01720117 10244 20161 53007 $
2026-03-16 04:53:00,METAR KOAK 160453Z 00000KT 10SM FEW050 FEW200 17/10 A3007 RMK AO2 SLP182 T01670100
2026-03-16 03:53:00,METAR KOAK 160353Z 00000KT 10SM FEW200 18/12 A3006 RMK AO2 SLP181 T01780122
2026-03-16 02:53:00,METAR KOAK 160253Z 00000KT 10SM FEW140 SCT250 21/08 A3006 RMK AO2 SLP178 T02060083 53003
2026-03-16 01:53:00,METAR KOAK 160153Z 28006KT 10SM FEW150 SCT250 22/06 A3005 RMK AO2 SLP177 T02170061
2026-03-16 00:53:00,METAR KOAK 160053Z 28007KT 10SM FEW150 SCT250 23/10 A3005 RMK AO2 SLP175 T02280100
2026-03-15 23:53:00,METAR KOAK 152353Z COR 26007KT 10SM FEW150 FEW250 24/12 A3005 RMK AO2 SLP174 T02440117 10261 20167 56018
2026-03-15 22:53:00,METAR KOAK 152253Z 29008KT 10SM FEW150 SCT250 25/07 A3005 RMK AO2 SLP177 T02500072
2026-03-15 21:53:00,METAR KOAK 152153Z 23006KT 10SM FEW150 SCT250 23/09 A3007 RMK AO2 SLP183 T02280094
2026-03-15 20:53:00,METAR KOAK 152053Z 25006KT 10SM FEW200 22/11 A3010 RMK AO2 SLP193 T02170106 58015
2026-03-15 19:53:00,METAR KOAK 151953Z 23004KT 10SM FEW200 19/12 A3012 RMK AO2 SLP201 T01940117
2026-03-15 18:53:00,METAR KOAK 151853Z 26005KT 10SM BKN200 18/12 A3014 RMK AO2 SLP207 T01830117
2026-03-15 17:53:00,METAR KOAK 151753Z 21004KT 10SM FEW050 BKN200 17/13 A3015 RMK AO2 SLP209 T01670128 10167 20089 50007
2026-03-15 16:53:00,METAR KOAK 151653Z 00000KT 10SM SCT200 16/13 A3015 RMK AO2 SLP211 T01560128
2026-03-15 15:53:00,METAR KOAK 151553Z 13003KT 10SM FEW070 BKN200 14/12 A3014 RMK AO2 SLP205 T01390122
2026-03-15 14:53:00,METAR KOAK 151453Z 07004KT 10SM BKN200 10/09 A3013 RMK AO2 SLP201 T01000094 53008
2026-03-15 13:53:00,METAR KOAK 151353Z 02003KT 10SM FEW200 09/09 A3011 RMK AO2 SLP196 T00940094
2026-03-15 12:53:00,METAR KOAK 151253Z 06003KT 10SM CLR 10/10 A3011 RMK AO2 SLP194 T01000100
2026-03-15 11:53:00,METAR KOAK 151153Z 03004KT 10SM CLR 10/09 A3010 RMK AO2 SLP193 T01000094 10133 20094 53000
2026-03-15 10:53:00,METAR KOAK 151053Z 00000KT 10SM CLR 11/10 A3010 RMK AO2 SLP191 T01060100
2026-03-15 09:53:00,METAR KOAK 150953Z 06004KT 10SM CLR 11/10 A3010 RMK AO2 SLP193 T01060100
2026-03-15 08:53:00,METAR KOAK 150853Z 00000KT 10SM CLR 11/11 A3010 RMK AO2 SLP192 T01110106 55002
