Time_recorded,METAR
2026-05-02 15:20:00,METAR EDSB 021520Z VRB04KT CAVOK 27/09 Q1016
2026-05-02 14:50:00,METAR EDSB 021450Z VRB06KT CAVOK 27/07 Q1017
2026-05-02 14:20:00,METAR EDSB 021420Z VRB02KT CAVOK 26/08 Q1017
2026-05-02 13:50:00,METAR EDSB 021350Z 32004KT 250V010 CAVOK 26/07 Q1018
2026-05-02 13:20:00,METAR EDSB 021320Z COR VRB04KT CAVOK 26/08 Q1018
2026-05-02 12:50:00,METAR EDSB 021250Z 31004KT 230V020 CAVOK 25/06 Q1019
2026-05-02 12:20:00,METAR EDSB 021220Z 32005KT 270V030 CAVOK 25/09 Q1019
2026-05-02 11:50:00,METAR EDSB 021150Z VRB03KT CAVOK 24/08 Q1019
2026-05-02 11:20:00,METAR EDSB 021120Z COR VRB04KT CAVOK 25/09 Q1019
2026-05-02 10:50:00,METAR EDSB 021050Z COR VRB03KT CAVOK 24/07 Q1020
2026-05-02 10:20:00,METAR EDSB 021020Z VRB02KT CAVOK 23/07 Q1021
2026-05-02 09:50:00,METAR EDSB 020950Z VRB02KT CAVOK 21/08 Q1021
2026-05-02 09:20:00,METAR EDSB 020920Z 23004KT 170V280 CAVOK 20/06 Q1022
2026-05-02 08:50:00,METAR EDSB 020850Z VRB02KT CAVOK 19/06 Q1022
2026-05-02 08:20:00,METAR EDSB 020820Z VRB02KT CAVOK 16/06 Q1022
2026-05-02 07:50:00,METAR EDSB 020750Z VRB02KT CAVOK 16/07 Q1022
2026-05-02 07:20:00,METAR EDSB 020720Z VRB02KT CAVOK 14/06 Q1022
2026-05-02 06:50:00,METAR EDSB 020650Z VRB02KT CAVOK 13/06 Q1022
2026-05-02 06:20:00,METAR EDSB 020620Z 20002KT CAVOK 11/06 Q1022
2026-05-02 05:50:00,METAR EDSB 020550Z 18002KT CAVOK 09/07 Q1022
2026-05-02 05:20:00,METAR EDSB 020520Z 20002KT CAVOK 07/05 Q1022
2026-05-02 04:50:00,METAR EDSB 020450Z 20002KT CAVOK 07/05 Q1022
2026-05-02 04:20:00,METAR EDSB 020420Z 18002KT CAVOK 06/05 Q1022
2026-05-02 03:50:00,METAR EDSB 020350Z 19003KT CAVOK 06/05 Q1022
2026-05-02 03:20:00,METAR EDSB 020320Z 19003KT CAVOK 06/05 Q1022
2026-05-02 02:50:00,METAR EDSB 020250Z 00000KT CAVOK 07/05 Q1022
2026-05-02 02:20:00,METAR EDSB 020220Z AUTO 00000KT 9999 // NCD 08/05 Q1022
2026-05-02 01:50:00,METAR EDSB 020150Z AUTO 14002KT 9999 // NCD 08/05 Q1022
2026-05-02 01:20:00,METAR EDSB 020120Z AUTO 00000KT 9999 3700 // NCD 09/05 Q1022
2026-05-02 00:50:00,METAR EDSB 020050Z AUTO VRB01KT 9999 3400 // NCD 09/06 Q1022
2026-05-02 00:20:00,METAR EDSB 020020Z AUTO VRB01KT 9999 // NCD 10/07 Q1022
2026-05-01 23:50:00,METAR EDSB 012350Z AUTO 00000KT 9999 // NCD 09/07 Q1022
2026-05-01 23:20:00,METAR EDSB 012320Z AUTO 00000KT 9999 // NCD 10/05 Q1022
2026-05-01 22:50:00,METAR EDSB 012250Z AUTO VRB01KT 9999 // NCD 12/07 Q1022
2026-05-01 22:20:00,METAR EDSB 012220Z AUTO 25002KT 9999 // NCD 12/05 Q1022
2026-05-01 21:50:00,METAR EDSB 012150Z 00000KT CAVOK 13/03 Q1022
2026-05-01 21:20:00,METAR EDSB 012120Z VRB02KT CAVOK 14/04 Q1022
2026-05-01 20:50:00,METAR EDSB 012050Z VRB02KT CAVOK 15/04 Q1022
2026-05-01 20:20:00,METAR EDSB 012020Z 03005KT CAVOK 14/03 Q1022
2026-05-01 19:50:00,METAR EDSB 011950Z 03005KT CAVOK 16/03 Q1022
2026-05-01 19:20:00,METAR EDSB 011920Z 02005KT CAVOK 18/03 Q1021
2026-05-01 18:50:00,METAR EDSB 011850Z 07005KT CAVOK 20/02 Q1021
2026-05-01 18:20:00,METAR EDSB 011820Z 08006KT CAVOK 23/M00 Q1021
2026-05-01 17:50:00,METAR EDSB 011750Z 08007KT CAVOK 24/M01 Q1021
2026-05-01 17:20:00,METAR EDSB 011720Z 09007KT 060V140 CAVOK 25/M01 Q1021
2026-05-01 16:50:00,METAR EDSB 011650Z 35006KT CAVOK 25/M01 Q1021
2026-05-01 16:20:00,METAR EDSB 011620Z 35008KT CAVOK 24/02 Q1021
2026-05-01 15:50:00,METAR EDSB 011550Z 35008KT CAVOK 24/02 Q1021
2026-05-01 15:20:00,METAR EDSB 011520Z 35008KT 320V020 CAVOK 24/02 Q1022
2026-05-01 14:50:00,METAR EDSB 011450Z 36007KT 330V030 CAVOK 24/00 Q1022
2026-05-01 14:20:00,METAR EDSB 011420Z 35008KT 320V020 CAVOK 24/M01 Q1022
2026-05-01 13:50:00,METAR EDSB 011350Z 34007KT 300V030 CAVOK 24/M01 Q1023
2026-05-01 13:20:00,METAR EDSB 011320Z 35008KT 310V010 CAVOK 24/M01 Q1023
2026-05-01 12:50:00,METAR EDSB 011250Z VRB05KT CAVOK 23/M02 Q1023
2026-05-01 12:20:00,METAR EDSB 011220Z 36006KT 320V050 CAVOK 23/00 Q1024
2026-05-01 11:50:00,METAR EDSB 011150Z 35005KT 310V030 CAVOK 21/M01 Q1024
2026-05-01 11:20:00,METAR EDSB 011120Z 35005KT 300V090 CAVOK 21/01 Q1024
2026-05-01 10:50:00,METAR EDSB 011050Z 36005KT 300V030 CAVOK 20/M01 Q1025
2026-05-01 10:20:00,METAR EDSB 011020Z VRB05KT CAVOK 19/M00 Q1025
2026-05-01 09:50:00,METAR EDSB 010950Z 32005KT 240V020 CAVOK 18/M01 Q1025
2026-05-01 09:20:00,METAR EDSB 010920Z 33005KT 290V020 CAVOK 17/M00 Q1025
2026-05-01 08:50:00,METAR EDSB 010850Z 33005KT 290V360 CAVOK 16/M00 Q1025
2026-05-01 08:20:00,METAR EDSB 010820Z 36005KT 330V040 CAVOK 14/M00 Q1025
2026-05-01 07:50:00,METAR EDSB 010750Z 35006KT CAVOK 13/M00 Q1025
2026-05-01 07:20:00,METAR EDSB 010720Z VRB03KT CAVOK 12/00 Q1025
2026-05-01 06:50:00,METAR EDSB 010650Z 06003KT 030V090 CAVOK 11/M00 Q1025
2026-05-01 06:20:00,METAR EDSB 010620Z 08004KT 360V140 CAVOK 10/M02 Q1025
2026-05-01 05:50:00,METAR EDSB 010550Z 02006KT 360V060 CAVOK 09/M01 Q1025
2026-05-01 05:20:00,METAR EDSB 010520Z 04004KT CAVOK 08/M02 Q1025
2026-05-01 04:50:00,METAR EDSB 010450Z 01007KT CAVOK 07/M03 Q1025
2026-05-01 04:20:00,METAR EDSB 010420Z 03009KT CAVOK 07/M03 Q1025
2026-05-01 03:50:00,METAR EDSB 010350Z 04012KT CAVOK 07/M03 Q1024
2026-05-01 03:20:00,METAR EDSB 010320Z 04012KT CAVOK 07/M03 Q1024
2026-05-01 02:50:00,METAR EDSB 010250Z 03007KT CAVOK 07/M03 Q1025
2026-05-01 02:20:00,METAR EDSB 010220Z AUTO 03011KT 9999 NCD 08/M03 Q1025
2026-05-01 01:50:00,METAR EDSB 010150Z AUTO 03009KT 9999 NCD 07/M03 Q1025
2026-05-01 01:20:00,METAR EDSB 010120Z AUTO 03009KT 9999 NCD 07/M03 Q1025
2026-05-01 00:50:00,METAR EDSB 010050Z AUTO 03009KT 9999 NCD 09/M03 Q1025
2026-05-01 00:20:00,METAR EDSB 010020Z AUTO 03008KT 9999 NCD 09/M02 Q1025
2026-04-30 23:50:00,METAR EDSB 302350Z AUTO 02009KT 9999 NCD 10/M02 Q1025
2026-04-30 23:20:00,METAR EDSB 302320Z AUTO 35007KT 9999 NCD 11/M02 Q1025
2026-04-30 22:50:00,METAR EDSB 302250Z AUTO 07006KT 030V130 9999 NCD 11/M03 Q1024
2026-04-30 22:20:00,METAR EDSB 302220Z AUTO 07007KT 030V090 9999 NCD 11/M03 Q1024
2026-04-30 21:50:00,METAR EDSB 302150Z AUTO 03006KT 340V080 9999 NCD 13/M03 Q1024
2026-04-30 21:20:00,METAR EDSB 302120Z AUTO 35005KT 320V070 9999 NCD 12/M03 Q1024
2026-04-30 20:50:00,METAR EDSB 302050Z AUTO 35004KT 320V040 9999 NCD 12/M05 Q1024
2026-04-30 20:20:00,METAR EDSB 302020Z 02004KT 340V060 CAVOK 14/M05 Q1024
2026-04-30 19:50:00,METAR EDSB 301950Z 05005KT 010V080 CAVOK 14/M07 Q1024
2026-04-30 19:20:00,METAR EDSB 301920Z 05007KT CAVOK 16/M07 Q1024
2026-04-30 18:50:00,METAR EDSB 301850Z 05009KT CAVOK 16/M07 Q1023
2026-04-30 18:20:00,METAR EDSB 301820Z 06013KT CAVOK 17/M07 Q1023
2026-04-30 17:50:00,METAR EDSB 301750Z 06012KT CAVOK 18/M06 Q1023
2026-04-30 17:20:00,METAR EDSB 301720Z 05012KT CAVOK 19/M05 Q1023
2026-04-30 16:50:00,METAR EDSB 301650Z 04015KT CAVOK 19/M07 Q1023
2026-04-30 16:20:00,METAR EDSB 301620Z 04017KT CAVOK 19/M06 Q1023
2026-04-30 14:50:00,METAR EDSB 301450Z 05018KT CAVOK 20/M05 Q1023
2026-04-30 14:20:00,METAR EDSB 301420Z 05019KT CAVOK 19/M05 Q1023
2026-04-30 13:50:00,METAR EDSB 301350Z 04018KT 010V070 CAVOK 19/M04 Q1023
2026-04-30 13:20:00,METAR EDSB 301320Z 04018KT CAVOK 19/M04 Q1023
2026-04-30 12:50:00,METAR EDSB 301250Z 04019KT CAVOK 18/M05 Q1023
2026-04-30 12:20:00,METAR EDSB 301220Z 03019KT CAVOK 18/M04 Q1024
2026-04-30 11:50:00,METAR EDSB 301150Z 04020KT CAVOK 17/M03 Q1024
2026-04-30 11:20:00,METAR EDSB 301120Z 04018KT CAVOK 17/M03 Q1024
2026-04-30 10:50:00,METAR EDSB 301050Z 04019KT CAVOK 17/M03 Q1024
2026-04-30 10:20:00,METAR EDSB 301020Z 03021KT CAVOK 16/M03 Q1024
2026-04-30 09:50:00,METAR EDSB 300950Z 04018KT CAVOK 15/M03 Q1024
2026-04-30 09:20:00,METAR EDSB 300920Z 03017KT CAVOK 14/M03 Q1024
2026-04-30 08:50:00,METAR EDSB 300850Z 02017KT CAVOK 13/M03 Q1025
2026-04-30 08:20:00,METAR EDSB 300820Z 02015KT CAVOK 12/M03 Q1025
2026-04-30 07:50:00,METAR EDSB 300750Z 02013KT CAVOK 11/M03 Q1025
2026-04-30 07:20:00,METAR EDSB 300720Z 03014KT CAVOK 10/M02 Q1025
2026-04-30 06:50:00,METAR EDSB 300650Z 03014KT CAVOK 09/M02 Q1025
2026-04-30 06:20:00,METAR EDSB 300620Z 02013KT CAVOK 09/M03 Q1025
2026-04-30 05:50:00,METAR EDSB 300550Z 02013KT CAVOK 08/M03 Q1024
2026-04-30 05:20:00,METAR EDSB 300520Z 03012KT CAVOK 07/M04 Q1024
2026-04-30 04:50:00,METAR EDSB 300450Z 02011KT CAVOK 07/M04 Q1024
2026-04-30 04:20:00,METAR EDSB 300420Z 03008KT CAVOK 08/M04 Q1024
2026-04-30 03:50:00,METAR EDSB 300350Z 02009KT CAVOK 08/M04 Q1024
2026-04-30 03:20:00,METAR EDSB 300320Z 02011KT CAVOK 08/M04 Q1024
2026-04-30 02:50:00,METAR EDSB 300250Z 02011KT CAVOK 08/M04 Q1024
2026-04-30 02:20:00,METAR EDSB 300220Z AUTO 01009KT 9999 NCD 08/M03 Q1024
2026-04-30 01:50:00,METAR EDSB 300150Z AUTO 03012KT 9999 NCD 09/M03 Q1024
2026-04-30 01:20:00,METAR EDSB 300120Z AUTO 04015KT 9999 NCD 09/M03 Q1024
2026-04-30 00:50:00,METAR EDSB 300050Z AUTO 04012KT 9999 NCD 10/M02 Q1023
2026-04-30 00:20:00,METAR EDSB 300020Z AUTO 03009KT 9999 NCD 10/M02 Q1023
2026-04-29 23:50:00,METAR EDSB 292350Z AUTO 03013KT 9999 NCD 10/M02 Q1023
2026-04-29 23:20:00,METAR EDSB 292320Z AUTO 03012KT 9999 NCD 11/M02 Q1023
2026-04-29 22:50:00,METAR EDSB 292250Z AUTO 03012KT 9999 NCD 12/M02 Q1023
2026-04-29 22:20:00,METAR EDSB 292220Z AUTO 04012KT 9999 NCD 12/M01 Q1023
2026-04-29 21:50:00,METAR EDSB 292150Z AUTO 03012KT 9999 NCD 13/M01 Q1022
2026-04-29 21:20:00,METAR EDSB 292120Z 04013KT CAVOK 13/M01 Q1022
2026-04-29 20:50:00,METAR EDSB 292050Z 03011KT CAVOK 13/M02 Q1022
2026-04-29 20:20:00,METAR EDSB 292020Z 03011KT CAVOK 13/M02 Q1022
2026-04-29 19:50:00,METAR EDSB 291950Z 03009KT CAVOK 14/M02 Q1022
2026-04-29 19:20:00,METAR EDSB 291920Z 04009KT CAVOK 14/M02 Q1021
2026-04-29 18:50:00,METAR EDSB 291850Z 04012KT CAVOK 17/M03 Q1021
2026-04-29 18:20:00,METAR EDSB 291820Z 04012KT CAVOK 18/M03 Q1020
2026-04-29 17:50:00,METAR EDSB 291750Z 04015KT 9999 18/M02 Q1020
2026-04-29 17:20:00,METAR EDSB 291720Z 04015KT CAVOK 19/M01 Q1020
2026-04-29 16:50:00,METAR EDSB 291650Z 04016KT CAVOK 19/M02 Q1020
2026-04-29 16:20:00,METAR EDSB 291620Z 04017KT 010V070 CAVOK 20/00 Q1020
2026-04-29 15:50:00,METAR EDSB 291550Z 04018KT CAVOK 20/00 Q1020
2026-04-29 15:20:00,METAR EDSB 291520Z 03017KT CAVOK 20/02 Q1020
2026-04-29 14:50:00,METAR EDSB 291450Z 04018KT CAVOK 20/02 Q1020
2026-04-29 14:20:00,METAR EDSB 291420Z 03017KT CAVOK 20/02 Q1020
2026-04-29 13:50:00,METAR EDSB 291350Z 04020KT CAVOK 20/02 Q1020
2026-04-29 13:20:00,METAR EDSB 291320Z 03017KT CAVOK 20/03 Q1020
2026-04-29 12:50:00,METAR EDSB 291250Z 03016KT CAVOK 20/03 Q1020
2026-04-29 12:20:00,METAR EDSB 291220Z 03015KT CAVOK 19/03 Q1020
2026-04-29 11:50:00,METAR EDSB 291150Z 02017KT CAVOK 20/03 Q1020
2026-04-29 11:20:00,METAR EDSB 291120Z 03017KT CAVOK 19/03 Q1020
2026-04-29 10:50:00,METAR EDSB 291050Z 03015KT 360V060 CAVOK 18/03 Q1020
2026-04-29 10:20:00,METAR EDSB 291020Z 03016KT CAVOK 17/03 Q1020
2026-04-29 09:50:00,METAR EDSB 290950Z 03015KT 360V060 CAVOK 16/02 Q1020
2026-04-29 09:20:00,METAR EDSB 290920Z 02016KT CAVOK 15/02 Q1020
2026-04-29 08:50:00,METAR EDSB 290850Z 02016KT CAVOK 14/02 Q1020
2026-04-29 08:20:00,METAR EDSB 290820Z 03015KT CAVOK 14/02 Q1020
2026-04-29 07:50:00,METAR EDSB 290750Z 03015KT CAVOK 13/01 Q1020
2026-04-29 07:20:00,METAR EDSB 290720Z 03014KT CAVOK 12/01 Q1020
2026-04-29 06:50:00,METAR EDSB 290650Z 02011KT CAVOK 11/M00 Q1020
2026-04-29 06:20:00,METAR EDSB 290620Z 03012KT CAVOK 10/M00 Q1020
2026-04-29 05:50:00,METAR EDSB 290550Z 03014KT CAVOK 10/M01 Q1020
2026-04-29 05:20:00,METAR EDSB 290520Z 03016KT CAVOK 09/M00 Q1019
2026-04-29 04:50:00,METAR EDSB 290450Z 03016KT CAVOK 10/M00 Q1019
2026-04-29 04:20:00,METAR EDSB 290420Z 02016KT CAVOK 10/M00 Q1019
2026-04-29 03:50:00,METAR EDSB 290350Z 03015KT CAVOK 10/00 Q1019
2026-04-29 03:20:00,METAR EDSB 290320Z 02014KT CAVOK 10/00 Q1019
2026-04-29 02:50:00,METAR EDSB 290250Z 02013KT CAVOK 11/01 Q1019
2026-04-29 02:20:00,METAR EDSB 290220Z AUTO 02014KT 9999 // SCT190/// 11/01 Q1018
2026-04-29 01:50:00,METAR EDSB 290150Z AUTO 02015KT 9999 // FEW190/// 12/01 Q1018
2026-04-29 01:20:00,METAR EDSB 290120Z AUTO 02014KT 9999 // FEW190/// 12/01 Q1018
2026-04-29 00:50:00,METAR EDSB 290050Z AUTO 02014KT 9999 // SCT190/// BKN230/// 12/02 Q1018
2026-04-29 00:20:00,METAR EDSB 290020Z AUTO 02014KT 9999 // BKN190/// BKN240/// 13/02 Q1018
2026-04-28 23:50:00,METAR EDSB 282350Z AUTO 02012KT 9999 // FEW190/// BKN240/// 14/03 Q1018
2026-04-28 23:20:00,METAR EDSB 282320Z AUTO 03014KT 9999 // FEW190/// BKN230/// 15/03 Q1018
2026-04-28 22:50:00,METAR EDSB 282250Z AUTO 03015KT 9999 // FEW190/// BKN230/// 15/03 Q1018
2026-04-28 22:20:00,METAR EDSB 282220Z AUTO 03015KT 9999 // SCT240/// 15/04 Q1017
2026-04-28 21:50:00,METAR EDSB 282150Z 03015KT CAVOK 16/04 Q1017
2026-04-28 21:20:00,METAR EDSB 282120Z 03015KT CAVOK 17/04 Q1017
2026-04-28 20:50:00,METAR EDSB 282050Z 03013KT CAVOK 17/03 Q1017
2026-04-28 20:20:00,METAR EDSB 282020Z 03011KT CAVOK 17/03 Q1017
2026-04-28 19:50:00,METAR EDSB 281950Z 03011KT CAVOK 17/03 Q1016
2026-04-28 19:20:00,METAR EDSB 281920Z 03012KT CAVOK 18/03 Q1016
2026-04-28 18:50:00,METAR EDSB 281850Z 03012KT CAVOK 19/03 Q1016
2026-04-28 18:20:00,METAR EDSB 281820Z 03011KT CAVOK 19/03 Q1015
2026-04-28 17:50:00,METAR EDSB 281750Z 04011KT CAVOK 19/03 Q1015
2026-04-28 17:20:00,METAR EDSB 281720Z 04012KT CAVOK 20/03 Q1015
2026-04-28 16:50:00,METAR EDSB 281650Z 03011KT CAVOK 21/03 Q1015
2026-04-28 16:20:00,METAR EDSB 281620Z 03014KT CAVOK 21/03 Q1015
2026-04-28 15:50:00,METAR EDSB 281550Z 03011KT CAVOK 22/04 Q1015
2026-04-28 15:20:00,METAR EDSB 281520Z 05013KT 010V070 CAVOK 22/04 Q1015
2026-04-28 14:50:00,METAR EDSB 281450Z 04016KT CAVOK 22/02 Q1015
2026-04-28 14:20:00,METAR EDSB 281420Z 04015KT CAVOK 23/02 Q1015
2026-04-28 13:50:00,METAR EDSB 281350Z 05017KT CAVOK 22/01 Q1015
2026-04-28 13:20:00,METAR EDSB 281320Z 03017KT CAVOK 22/01 Q1015
2026-04-28 12:50:00,METAR EDSB 281250Z 02015KT CAVOK 22/03 Q1015
2026-04-28 12:20:00,METAR EDSB 281220Z 03015KT CAVOK 22/04 Q1015
2026-04-28 11:50:00,METAR EDSB 281150Z 03016KT CAVOK 22/03 Q1015
2026-04-28 11:20:00,METAR EDSB 281120Z 02015KT CAVOK 22/03 Q1015
2026-04-28 10:50:00,METAR EDSB 281050Z 02014KT 350V050 CAVOK 21/04 Q1015
2026-04-28 10:20:00,METAR EDSB 281020Z 01012KT CAVOK 20/05 Q1016
2026-04-28 09:50:00,METAR EDSB 280950Z 01012KT 340V040 CAVOK 19/05 Q1016
2026-04-28 09:20:00,METAR EDSB 280920Z 02014KT CAVOK 18/05 Q1016
2026-04-28 08:50:00,METAR EDSB 280850Z 02011KT CAVOK 17/05 Q1016
2026-04-28 08:20:00,METAR EDSB 280820Z 02009KT 360V060 CAVOK 16/05 Q1016
2026-04-28 07:50:00,METAR EDSB 280750Z 02009KT CAVOK 15/04 Q1016
2026-04-28 07:20:00,METAR EDSB 280720Z 02008KT CAVOK 13/04 Q1016
2026-04-28 06:50:00,METAR EDSB 280650Z 03008KT CAVOK 12/04 Q1016
2026-04-28 06:20:00,METAR EDSB 280620Z 03007KT CAVOK 11/04 Q1016
2026-04-28 05:50:00,METAR EDSB 280550Z 02006KT CAVOK 10/03 Q1016
2026-04-28 05:20:00,METAR EDSB 280520Z 02006KT CAVOK 10/02 Q1016
2026-04-28 04:50:00,METAR EDSB 280450Z 02006KT CAVOK 09/02 Q1016
2026-04-28 04:20:00,METAR EDSB 280420Z 03006KT CAVOK 09/02 Q1016
2026-04-28 03:50:00,METAR EDSB 280350Z 04005KT CAVOK 09/02 Q1016
2026-04-28 03:20:00,METAR EDSB 280320Z 02006KT CAVOK 10/02 Q1016
2026-04-28 02:50:00,METAR EDSB 280250Z 02007KT CAVOK 10/02 Q1016
2026-04-28 02:20:00,METAR EDSB 280220Z AUTO 03007KT 9999 FEW210/// 10/02 Q1016
2026-04-28 01:50:00,METAR EDSB 280150Z AUTO 01006KT 9999 BKN220/// 10/03 Q1016
2026-04-28 01:20:00,METAR EDSB 280120Z AUTO 03007KT 9999 SCT220/// 10/03 Q1016
2026-04-28 00:50:00,METAR EDSB 280050Z AUTO 02004KT 9999 BKN210/// 11/02 Q1016
2026-04-28 00:20:00,METAR EDSB 280020Z AUTO 03006KT 9999 FEW180/// BKN210/// 11/02 Q1016
2026-04-27 23:50:00,METAR EDSB 272350Z AUTO 02007KT 9999 FEW090/// BKN210/// 11/02 Q1016
2026-04-27 23:20:00,METAR EDSB 272320Z AUTO 03006KT 9999 FEW091/// 11/03 Q1017
2026-04-27 22:50:00,METAR EDSB 272250Z AUTO 02006KT 9999 FEW240/// 12/02 Q1017
2026-04-27 22:20:00,METAR EDSB 272220Z AUTO 03008KT 9999 FEW240/// 12/03 Q1017
2026-04-27 21:50:00,METAR EDSB 272150Z AUTO 02005KT 9999 NCD 13/02 Q1017
2026-04-27 21:20:00,METAR EDSB 272120Z 02006KT CAVOK 13/03 Q1017
2026-04-27 20:50:00,METAR EDSB 272050Z 02006KT CAVOK 15/02 Q1017
2026-04-27 20:20:00,METAR EDSB 272020Z 02006KT CAVOK 15/02 Q1018
2026-04-27 19:50:00,METAR EDSB 271950Z 02006KT CAVOK 16/02 Q1018
2026-04-27 19:20:00,METAR EDSB 271920Z 04006KT CAVOK 15/01 Q1018
2026-04-27 18:50:00,METAR EDSB 271850Z 04007KT CAVOK 17/00 Q1017
2026-04-27 18:20:00,METAR EDSB 271820Z 03008KT CAVOK 18/M00 Q1017
2026-04-27 17:50:00,METAR EDSB 271750Z 02008KT CAVOK 18/M02 Q1017
2026-04-27 17:20:00,METAR EDSB 271720Z 02008KT CAVOK 18/M01 Q1017
2026-04-27 16:50:00,METAR EDSB 271650Z 02009KT CAVOK 19/M00 Q1018
2026-04-27 16:20:00,METAR EDSB 271620Z 02010KT CAVOK 20/M00 Q1018
2026-04-27 15:50:00,METAR EDSB 271550Z 03011KT CAVOK 20/01 Q1018
2026-04-27 15:20:00,METAR EDSB 271520Z 01011KT CAVOK 21/03 Q1018
2026-04-27 14:50:00,METAR EDSB 271450Z 01011KT CAVOK 21/03 Q1018
2026-04-27 14:20:00,METAR EDSB 271420Z 01010KT 330V040 CAVOK 20/04 Q1019
2026-04-27 13:50:00,METAR EDSB 271350Z 01012KT CAVOK 20/03 Q1019
2026-04-27 13:20:00,METAR EDSB 271320Z 02011KT 340V040 CAVOK 21/04 Q1019
2026-04-27 12:50:00,METAR EDSB 271250Z 01009KT 340V050 CAVOK 20/04 Q1020
2026-04-27 12:20:00,METAR EDSB 271220Z 36010KT CAVOK 20/04 Q1020
2026-04-27 11:50:00,METAR EDSB 271150Z 01010KT 340V040 CAVOK 19/04 Q1020
2026-04-27 11:20:00,METAR EDSB 271120Z 01010KT 340V040 CAVOK 20/05 Q1020
2026-04-27 10:50:00,METAR EDSB 271050Z 01010KT 340V040 CAVOK 18/04 Q1020
2026-04-27 10:20:00,METAR EDSB 271020Z 01010KT 340V050 CAVOK 18/05 Q1021
2026-04-27 09:50:00,METAR EDSB 270950Z 01006KT 340V050 CAVOK 17/05 Q1021
2026-04-27 09:20:00,METAR EDSB 270920Z 01006KT 330V050 CAVOK 15/05 Q1021
2026-04-27 08:50:00,METAR EDSB 270850Z 01006KT CAVOK 14/04 Q1022
2026-04-27 08:20:00,METAR EDSB 270820Z 03005KT 330V080 CAVOK 13/05 Q1022
2026-04-27 07:50:00,METAR EDSB 270750Z 01005KT 320V060 CAVOK 11/03 Q1022
2026-04-27 07:20:00,METAR EDSB 270720Z 01005KT 330V050 CAVOK 11/03 Q1022
2026-04-27 06:50:00,METAR EDSB 270650Z 03007KT CAVOK 10/03 Q1022
2026-04-27 06:20:00,METAR EDSB 270620Z 04007KT CAVOK 09/03 Q1022
2026-04-27 05:50:00,METAR EDSB 270550Z 03007KT CAVOK 08/03 Q1022
2026-04-27 05:20:00,METAR EDSB 270520Z 03006KT CAVOK 07/03 Q1021
2026-04-27 04:50:00,METAR EDSB 270450Z 02005KT CAVOK 06/01 Q1021
2026-04-27 04:20:00,METAR EDSB 270420Z 03004KT CAVOK 06/02 Q1021
2026-04-27 03:50:00,METAR EDSB 270350Z 04004KT CAVOK 06/01 Q1021
2026-04-27 03:20:00,METAR EDSB 270320Z 04003KT CAVOK 06/02 Q1021
2026-04-27 02:50:00,METAR EDSB 270250Z 04004KT CAVOK 07/01 Q1021
2026-04-27 02:20:00,METAR EDSB 270220Z AUTO 02004KT 9999 // NCD 08/02 Q1021
2026-04-27 01:50:00,METAR EDSB 270150Z AUTO 03005KT 9999 // NCD 08/02 Q1021
2026-04-27 01:20:00,METAR EDSB 270120Z AUTO 04005KT 9999 // NCD 07/01 Q1021
2026-04-27 00:50:00,METAR EDSB 270050Z AUTO 03007KT 9999 // NCD 08/01 Q1021
2026-04-27 00:20:00,METAR EDSB 270020Z AUTO 03005KT 9999 // NCD 09/01 Q1021
2026-04-26 23:50:00,METAR EDSB 262350Z AUTO 01008KT 9999 // NCD 10/01 Q1021
2026-04-26 23:20:00,METAR EDSB 262320Z AUTO 01007KT 9999 // NCD 10/01 Q1022
2026-04-26 22:50:00,METAR EDSB 262250Z AUTO 01006KT 9999 // NCD 11/00 Q1022
2026-04-26 22:20:00,METAR EDSB 262220Z AUTO 02006KT 9999 // NCD 11/00 Q1022
2026-04-26 21:50:00,METAR EDSB 262150Z AUTO 01006KT 9999 // NCD 12/02 Q1022
2026-04-26 21:20:00,METAR EDSB 262120Z AUTO 03004KT 9999 // NCD 11/01 Q1022
2026-04-26 20:50:00,METAR EDSB 262050Z AUTO 01005KT 9999 // NCD 12/01 Q1022
2026-04-26 20:20:00,METAR EDSB 262020Z 04005KT CAVOK 12/01 Q1022
2026-04-26 19:50:00,METAR EDSB 261950Z 03007KT CAVOK 13/M00 Q1022
2026-04-26 19:20:00,METAR EDSB 261920Z 02006KT CAVOK 15/02 Q1021
2026-04-26 18:50:00,METAR EDSB 261850Z 02007KT CAVOK 16/02 Q1021
2026-04-26 18:20:00,METAR EDSB 261820Z 02008KT CAVOK 17/01 Q1021
2026-04-26 17:50:00,METAR EDSB 261750Z 02010KT CAVOK 18/01 Q1020
2026-04-26 17:20:00,METAR EDSB 261720Z 02010KT CAVOK 19/01 Q1020
2026-04-26 16:50:00,METAR EDSB 261650Z 04011KT CAVOK 20/01 Q1020
2026-04-26 16:20:00,METAR EDSB 261620Z 03011KT CAVOK 20/01 Q1020
2026-04-26 15:50:00,METAR EDSB 261550Z 02010KT CAVOK 20/01 Q1020
2026-04-26 15:20:00,METAR EDSB 261520Z 02010KT CAVOK 20/02 Q1020
2026-04-26 14:50:00,METAR EDSB 261450Z 01011KT CAVOK 20/02 Q1021
2026-04-26 14:20:00,METAR EDSB 261420Z 02010KT 350V050 CAVOK 20/04 Q1021
2026-04-26 13:50:00,METAR EDSB 261350Z 02011KT 350V050 CAVOK 20/04 Q1021
2026-04-26 13:20:00,METAR EDSB 261320Z 02010KT 340V040 CAVOK 20/04 Q1021
2026-04-26 12:50:00,METAR EDSB 261250Z 02011KT CAVOK 19/03 Q1021
2026-04-26 12:20:00,METAR EDSB 261220Z 02011KT CAVOK 19/04 Q1022
2026-04-26 11:50:00,METAR EDSB 261150Z 01010KT CAVOK 19/04 Q1022
2026-04-26 11:20:00,METAR EDSB 261120Z 01009KT 330V040 CAVOK 19/06 Q1022
2026-04-26 10:50:00,METAR EDSB 261050Z 36010KT CAVOK 18/04 Q1022
2026-04-26 10:20:00,METAR EDSB 261020Z 01010KT 340V040 CAVOK 18/04 Q1022
2026-04-26 09:50:00,METAR EDSB 260950Z 03011KT CAVOK 17/05 Q1022
2026-04-26 09:20:00,METAR EDSB 260920Z 02011KT CAVOK 16/05 Q1023
2026-04-26 08:50:00,METAR EDSB 260850Z 02011KT CAVOK 15/03 Q1022
2026-04-26 08:20:00,METAR EDSB 260820Z 02010KT CAVOK 15/03 Q1022
2026-04-26 07:50:00,METAR EDSB 260750Z 02010KT CAVOK 14/02 Q1022
2026-04-26 07:20:00,METAR EDSB 260720Z 02010KT CAVOK 13/03 Q1022
2026-04-26 06:50:00,METAR EDSB 260650Z 03009KT CAVOK 11/02 Q1022
2026-04-26 06:20:00,METAR EDSB 260620Z 02010KT CAVOK 10/02 Q1022
2026-04-26 05:50:00,METAR EDSB 260550Z 05006KT CAVOK 09/01 Q1022
2026-04-26 05:20:00,METAR EDSB 260520Z 03006KT CAVOK 06/01 Q1022
2026-04-26 04:50:00,METAR EDSB 260450Z 03005KT CAVOK 07/00 Q1022
2026-04-26 04:20:00,METAR EDSB 260420Z 03005KT CAVOK 08/M00 Q1021
2026-04-26 03:50:00,METAR EDSB 260350Z 05005KT CAVOK 07/M00 Q1021
2026-04-26 03:20:00,METAR EDSB 260320Z 03005KT CAVOK 09/M00 Q1021
2026-04-26 02:50:00,METAR EDSB 260250Z 03006KT CAVOK 08/M01 Q1021
2026-04-26 02:20:00,METAR EDSB 260220Z AUTO 03006KT 9999 // NCD 09/M01 Q1021
2026-04-26 01:50:00,METAR EDSB 260150Z AUTO 04007KT 9999 // NCD 08/M01 Q1020
2026-04-26 01:20:00,METAR EDSB 260120Z AUTO 04006KT 9999 // NCD 09/M01 Q1021
2026-04-26 00:50:00,METAR EDSB 260050Z AUTO 04006KT 9999 // NCD 09/M02 Q1020
2026-04-26 00:20:00,METAR EDSB 260020Z AUTO 04007KT 9999 // NCD 09/M02 Q1020
2026-04-25 23:50:00,METAR EDSB 252350Z AUTO 04006KT 9999 // NCD 09/M01 Q1020
2026-04-25 23:20:00,METAR EDSB 252320Z AUTO 05006KT 9999 // NCD 11/M01 Q1020
2026-04-25 22:50:00,METAR EDSB 252250Z AUTO 04006KT 9999 // NCD 11/01 Q1020
2026-04-25 22:20:00,METAR EDSB 252220Z AUTO 04006KT 9999 // NCD 12/01 Q1019
2026-04-25 21:50:00,METAR EDSB 252150Z AUTO 05005KT 9999 // NCD 11/03 Q1019
2026-04-25 21:20:00,METAR EDSB 252120Z 03005KT CAVOK 13/04 Q1019
2026-04-25 20:50:00,METAR EDSB 252050Z 03006KT CAVOK 12/05 Q1019
2026-04-25 20:20:00,METAR EDSB 252020Z 03005KT CAVOK 13/05 Q1018
2026-04-25 19:50:00,METAR EDSB 251950Z 03004KT CAVOK 14/05 Q1018
2026-04-25 19:20:00,METAR EDSB 251920Z 04004KT CAVOK 15/07 Q1018
2026-04-25 18:50:00,METAR EDSB 251850Z 03004KT CAVOK 17/06 Q1017
2026-04-25 18:20:00,METAR EDSB 251820Z 01003KT CAVOK 18/04 Q1017
2026-04-25 17:50:00,METAR EDSB 251750Z 02003KT CAVOK 20/03 Q1016
2026-04-25 17:20:00,METAR EDSB 251720Z 36003KT CAVOK 22/03 Q1016
2026-04-25 16:50:00,METAR EDSB 251650Z 02003KT 350V080 CAVOK 22/03 Q1016
2026-04-25 16:20:00,METAR EDSB 251620Z 02004KT 340V080 CAVOK 22/03 Q1016
2026-04-25 15:50:00,METAR EDSB 251550Z VRB02KT CAVOK 22/03 Q1016
2026-04-25 15:20:00,METAR EDSB 251520Z 05004KT 020V100 CAVOK 22/M00 Q1016
2026-04-25 14:50:00,METAR EDSB 251450Z VRB03KT CAVOK 22/01 Q1017
2026-04-25 14:20:00,METAR EDSB 251420Z VRB03KT CAVOK 21/02 Q1017
2026-04-25 13:50:00,METAR EDSB 251350Z VRB04KT CAVOK 21/02 Q1017
2026-04-25 13:20:00,METAR EDSB 251320Z VRB04KT CAVOK 20/03 Q1017
2026-04-25 12:50:00,METAR EDSB 251250Z VRB05KT CAVOK 20/03 Q1017
2026-04-25 12:20:00,METAR EDSB 251220Z 01005KT 320V110 CAVOK 20/02 Q1018
2026-04-25 11:50:00,METAR EDSB 251150Z 02005KT 330V080 CAVOK 19/02 Q1018
2026-04-25 11:20:00,METAR EDSB 251120Z 34005KT 260V060 CAVOK 19/00 Q1018
2026-04-25 10:50:00,METAR EDSB 251050Z 02004KT 270V080 CAVOK 19/06 Q1018
2026-04-25 10:20:00,METAR EDSB 251020Z 36004KT 290V060 CAVOK 17/05 Q1019
2026-04-25 09:50:00,METAR EDSB 250950Z VRB04KT CAVOK 17/07 Q1019
2026-04-25 09:20:00,METAR EDSB 250920Z 02004KT 320V130 CAVOK 16/06 Q1019
2026-04-25 08:50:00,METAR EDSB 250850Z 02004KT 310V070 CAVOK 14/06 Q1019
2026-04-25 08:20:00,METAR EDSB 250820Z 01004KT 300V100 CAVOK 13/05 Q1019
2026-04-25 07:50:00,METAR EDSB 250750Z 02003KT 320V070 CAVOK 12/05 Q1019
2026-04-25 07:20:00,METAR EDSB 250720Z 00000KT CAVOK 11/04 Q1019
2026-04-25 06:50:00,METAR EDSB 250650Z 19003KT 160V240 CAVOK 09/04 Q1019
2026-04-25 06:20:00,METAR EDSB 250620Z VRB02KT CAVOK 08/03 Q1019
2026-04-25 05:50:00,METAR EDSB 250550Z VRB01KT CAVOK 07/03 Q1019
2026-04-25 05:20:00,METAR EDSB 250520Z VRB01KT CAVOK 06/02 Q1018
2026-04-25 04:50:00,METAR EDSB 250450Z VRB02KT CAVOK 05/01 Q1018
2026-04-25 04:20:00,METAR EDSB 250420Z 02003KT CAVOK 06/02 Q1018
2026-04-25 03:50:00,METAR EDSB 250350Z 03004KT CAVOK 06/02 Q1018
2026-04-25 03:20:00,METAR EDSB 250320Z 04006KT CAVOK 07/02 Q1018
2026-04-25 02:50:00,METAR EDSB 250250Z 02003KT CAVOK 08/02 Q1018
2026-04-25 02:20:00,METAR EDSB 250220Z AUTO 03005KT 9999 // NCD 07/02 Q1018
2026-04-25 01:50:00,METAR EDSB 250150Z AUTO 03006KT 9999 // NCD 08/02 Q1018
2026-04-25 01:20:00,METAR EDSB 250120Z AUTO 03007KT 9999 // NCD 08/02 Q1018
2026-04-25 00:50:00,METAR EDSB 250050Z AUTO 02008KT 9999 // NCD 09/02 Q1018
2026-04-25 00:20:00,METAR EDSB 250020Z AUTO 02006KT 9999 // NCD 09/02 Q1019
2026-04-24 23:50:00,METAR EDSB 242350Z AUTO 02005KT 9999 // NCD 10/03 Q1019
2026-04-24 23:20:00,METAR EDSB 242320Z AUTO 03005KT 9999 // NCD 09/02 Q1019
2026-04-24 22:50:00,METAR EDSB 242250Z AUTO 03005KT 9999 // NCD 09/02 Q1019
2026-04-24 22:20:00,METAR EDSB 242220Z AUTO 02005KT 9999 // NCD 09/02 Q1019
2026-04-24 21:50:00,METAR EDSB 242150Z AUTO 03006KT 9999 // NCD 09/02 Q1019
2026-04-24 21:20:00,METAR EDSB 242120Z 03005KT CAVOK 11/02 Q1019
2026-04-24 20:50:00,METAR EDSB 242050Z 02005KT CAVOK 11/04 Q1019
2026-04-24 20:20:00,METAR EDSB 242020Z 02004KT CAVOK 13/02 Q1018
2026-04-24 19:50:00,METAR EDSB 241950Z 03004KT CAVOK 14/01 Q1018
2026-04-24 19:20:00,METAR EDSB 241920Z 03005KT CAVOK 15/01 Q1018
2026-04-24 18:50:00,METAR EDSB 241850Z 03006KT CAVOK 16/00 Q1018
2026-04-24 18:20:00,METAR EDSB 241820Z 05007KT CAVOK 18/01 Q1018
2026-04-24 17:50:00,METAR EDSB 241750Z 06008KT CAVOK 19/M01 Q1018
2026-04-24 17:20:00,METAR EDSB 241720Z 04007KT CAVOK 20/M00 Q1018
2026-04-24 16:50:00,METAR EDSB 241650Z 04006KT 360V080 CAVOK 21/M02 Q1018
2026-04-24 16:20:00,METAR EDSB 241620Z 03007KT CAVOK 21/00 Q1019
2026-04-24 15:50:00,METAR EDSB 241550Z 03008KT 360V070 CAVOK 21/M01 Q1019
2026-04-24 15:20:00,METAR EDSB 241520Z 03006KT 350V070 CAVOK 21/M01 Q1019
2026-04-24 14:50:00,METAR EDSB 241450Z 05007KT 360V080 CAVOK 21/M01 Q1019
2026-04-24 14:20:00,METAR EDSB 241420Z 02007KT 340V060 CAVOK 21/M02 Q1019
2026-04-24 13:50:00,METAR EDSB 241350Z 02008KT 330V050 CAVOK 20/M03 Q1020
2026-04-24 13:20:00,METAR EDSB 241320Z 01008KT 310V040 CAVOK 20/M05 Q1020
2026-04-24 12:50:00,METAR EDSB 241250Z 03007KT 360V060 CAVOK 20/M05 Q1020
2026-04-24 12:20:00,METAR EDSB 241220Z 02007KT 340V050 CAVOK 19/M02 Q1021
2026-04-24 11:50:00,METAR EDSB 241150Z 02008KT CAVOK 18/00 Q1021
2026-04-24 11:20:00,METAR EDSB 241120Z 01007KT 340V060 CAVOK 18/M00 Q1021
2026-04-24 10:50:00,METAR EDSB 241050Z 03008KT 350V070 CAVOK 17/01 Q1021
2026-04-24 10:20:00,METAR EDSB 241020Z 02007KT 320V060 CAVOK 17/04 Q1022
2026-04-24 09:50:00,METAR EDSB 240950Z 36006KT 310V020 CAVOK 16/04 Q1022
2026-04-24 09:20:00,METAR EDSB 240920Z 36006KT 320V050 CAVOK 15/03 Q1022
2026-04-24 08:50:00,METAR EDSB 240850Z 36006KT 320V050 CAVOK 14/03 Q1022
2026-04-24 08:20:00,METAR EDSB 240820Z 03007KT 340V050 CAVOK 14/03 Q1022
2026-04-24 07:50:00,METAR EDSB 240750Z 03006KT 360V060 CAVOK 13/03 Q1022
2026-04-24 07:20:00,METAR EDSB 240720Z VRB02KT CAVOK 10/02 Q1022
2026-04-24 06:50:00,METAR EDSB 240650Z VRB02KT CAVOK 10/02 Q1022
2026-04-24 06:20:00,METAR EDSB 240620Z VRB02KT CAVOK 08/01 Q1022
2026-04-24 05:50:00,METAR EDSB 240550Z VRB02KT CAVOK 06/01 Q1023
2026-04-24 05:20:00,METAR EDSB 240520Z 06004KT CAVOK 04/00 Q1022
2026-04-24 04:50:00,METAR EDSB 240450Z 04005KT CAVOK 04/M00 Q1022
2026-04-24 04:20:00,METAR EDSB 240420Z 05004KT CAVOK 05/01 Q1022
2026-04-24 03:50:00,METAR EDSB 240350Z 02005KT CAVOK 06/01 Q1022
2026-04-24 03:20:00,METAR EDSB 240320Z 02004KT CAVOK 06/00 Q1022
2026-04-24 02:50:00,METAR EDSB 240250Z AUTO 03006KT 9999 // NCD 05/01 Q1023
2026-04-24 02:20:00,METAR EDSB 240220Z AUTO 03007KT 9999 // NCD 07/00 Q1023
2026-04-24 01:50:00,METAR EDSB 240150Z AUTO 03006KT 9999 // NCD 07/00 Q1023
2026-04-24 01:20:00,METAR EDSB 240120Z AUTO 02006KT 9999 // NCD 08/00 Q1023
2026-04-24 00:50:00,METAR EDSB 240050Z AUTO 02006KT 9999 // NCD 06/01 Q1023
2026-04-24 00:20:00,METAR EDSB 240020Z AUTO 02004KT 9999 // NCD 08/02 Q1023
2026-04-23 23:50:00,METAR EDSB 232350Z AUTO 02005KT 9999 // NCD 07/02 Q1023
2026-04-23 23:20:00,METAR EDSB 232320Z AUTO 04004KT 9999 // NCD 07/01 Q1023
2026-04-23 22:50:00,METAR EDSB 232250Z AUTO 02004KT 9999 // NCD 07/03 Q1023
2026-04-23 22:20:00,METAR EDSB 232220Z AUTO 03005KT 9999 // NCD 08/02 Q1024
2026-04-23 21:50:00,METAR EDSB 232150Z AUTO VRB02KT 9999 // NCD 07/03 Q1023
2026-04-23 21:20:00,METAR EDSB 232120Z AUTO 00000KT 9999 // NCD 09/03 Q1023
2026-04-23 20:50:00,METAR EDSB 232050Z AUTO VRB01KT 9999 // NCD 09/01 Q1023
2026-04-23 20:20:00,METAR EDSB 232020Z 00000KT CAVOK 10/00 Q1023
2026-04-23 19:50:00,METAR EDSB 231950Z VRB02KT CAVOK 12/M01 Q1023
2026-04-23 19:20:00,METAR EDSB 231920Z 04004KT CAVOK 14/M01 Q1023
2026-04-23 18:50:00,METAR EDSB 231850Z 03006KT CAVOK 16/M03 Q1023
2026-04-23 18:20:00,METAR EDSB 231820Z 03007KT CAVOK 17/M02 Q1023
2026-04-23 17:50:00,METAR EDSB 231750Z 03007KT CAVOK 17/M02 Q1023
2026-04-23 17:20:00,METAR EDSB 231720Z 02008KT CAVOK 18/00 Q1023
2026-04-23 16:50:00,METAR EDSB 231650Z 02008KT CAVOK 19/M02 Q1023
2026-04-23 16:20:00,METAR EDSB 231620Z 01009KT CAVOK 19/M01 Q1023
2026-04-23 15:50:00,METAR EDSB 231550Z 02010KT 350V050 CAVOK 20/M01 Q1024
2026-04-23 15:20:00,METAR EDSB 231520Z 02010KT CAVOK 20/M02 Q1024
2026-04-23 14:50:00,METAR EDSB 231450Z 01010KT CAVOK 20/M03 Q1024
2026-04-23 14:20:00,METAR EDSB 231420Z 02011KT 350V050 CAVOK 19/M01 Q1024
2026-04-23 13:50:00,METAR EDSB 231350Z 01010KT 340V040 CAVOK 19/00 Q1025
2026-04-23 13:20:00,METAR EDSB 231320Z 36010KT 330V030 CAVOK 19/03 Q1025
2026-04-23 12:50:00,METAR EDSB 231250Z 02011KT 350V050 CAVOK 19/02 Q1026
2026-04-23 12:20:00,METAR EDSB 231220Z 01012KT 340V040 CAVOK 18/01 Q1026
2026-04-23 11:50:00,METAR EDSB 231150Z 01011KT 340V040 CAVOK 18/01 Q1026
2026-04-23 11:20:00,METAR EDSB 231120Z 36011KT 330V030 CAVOK 17/01 Q1026
2026-04-23 10:50:00,METAR EDSB 231050Z 01010KT 340V050 CAVOK 17/01 Q1027
2026-04-23 10:20:00,METAR EDSB 231020Z 36010KT 330V040 CAVOK 17/02 Q1027
2026-04-23 09:50:00,METAR EDSB 230950Z 01010KT 340V040 CAVOK 16/02 Q1027
2026-04-23 09:20:00,METAR EDSB 230920Z 01008KT 340V050 CAVOK 15/03 Q1027
2026-04-23 08:50:00,METAR EDSB 230850Z 01007KT CAVOK 14/03 Q1027
2026-04-23 08:20:00,METAR EDSB 230820Z 02009KT CAVOK 13/04 Q1027
2026-04-23 07:50:00,METAR EDSB 230750Z 02008KT CAVOK 11/03 Q1027
2026-04-23 07:20:00,METAR EDSB 230720Z 03007KT CAVOK 10/02 Q1027
2026-04-23 06:50:00,METAR EDSB 230650Z COR 03008KT CAVOK 10/02 Q1027
2026-04-23 06:20:00,METAR EDSB 230620Z 02008KT CAVOK 08/02 Q1027
2026-04-23 05:50:00,METAR EDSB 230550Z 03008KT CAVOK 07/02 Q1027
2026-04-23 05:20:00,METAR EDSB 230520Z 05004KT CAVOK 04/01 Q1026
2026-04-23 04:50:00,METAR EDSB 230450Z 03003KT CAVOK 04/01 Q1026
2026-04-23 04:20:00,METAR EDSB 230420Z VRB02KT CAVOK 04/01 Q1026
2026-04-23 03:50:00,METAR EDSB 230350Z 04006KT CAVOK 05/01 Q1026
2026-04-23 03:20:00,METAR EDSB 230320Z 03005KT CAVOK 05/01 Q1026
2026-04-23 02:50:00,METAR EDSB 230250Z 04006KT CAVOK 03/M00 Q1026
2026-04-23 02:20:00,METAR EDSB 230220Z AUTO 03008KT 9999 // NCD 05/01 Q1026
2026-04-23 01:50:00,METAR EDSB 230150Z AUTO 02007KT 9999 // NCD 06/01 Q1026
2026-04-23 01:20:00,METAR EDSB 230120Z AUTO 02006KT 9999 // NCD 07/01 Q1025
2026-04-23 00:50:00,METAR EDSB 230050Z AUTO 02007KT 9999 // NCD 07/01 Q1025
2026-04-23 00:20:00,METAR EDSB 230020Z AUTO 01006KT 9999 // NCD 07/02 Q1025
2026-04-22 23:50:00,METAR EDSB 222350Z AUTO 01003KT 9999 // NCD 08/02 Q1025
2026-04-22 23:20:00,METAR EDSB 222320Z AUTO VRB02KT 9999 // NCD 06/02 Q1025
2026-04-22 22:50:00,METAR EDSB 222250Z AUTO 30003KT 230V340 9999 // NCD 08/00 Q1025
2026-04-22 22:20:00,METAR EDSB 222220Z AUTO VRB02KT 9999 // NCD 08/00 Q1025
2026-04-22 21:50:00,METAR EDSB 222150Z AUTO 04005KT 9999 // NCD 09/00 Q1025
2026-04-22 21:20:00,METAR EDSB 222120Z AUTO 04004KT 9999 // NCD 08/M00 Q1025
2026-04-22 20:50:00,METAR EDSB 222050Z 01005KT CAVOK 10/00 Q1024
2026-04-22 20:20:00,METAR EDSB 222020Z 03007KT CAVOK 10/M00 Q1024
2026-04-22 19:50:00,METAR EDSB 221950Z 04008KT CAVOK 10/M01 Q1024
2026-04-22 19:20:00,METAR EDSB 221920Z 04008KT CAVOK 12/M00 Q1023
2026-04-22 18:50:00,METAR EDSB 221850Z 03008KT CAVOK 13/M00 Q1023
2026-04-22 18:20:00,METAR EDSB 221820Z 03009KT CAVOK 13/M01 Q1023
2026-04-22 17:50:00,METAR EDSB 221750Z 03011KT CAVOK 15/M01 Q1022
2026-04-22 17:20:00,METAR EDSB 221720Z 04014KT CAVOK 16/M02 Q1022
2026-04-22 16:50:00,METAR EDSB 221650Z 04014KT CAVOK 16/M01 Q1022
2026-04-22 16:20:00,METAR EDSB 221620Z 04016KT CAVOK 17/M02 Q1022
2026-04-22 15:50:00,METAR EDSB 221550Z 04016KT CAVOK 17/M02 Q1022
2026-04-22 15:20:00,METAR EDSB 221520Z 04014KT CAVOK 17/M01 Q1022
2026-04-22 14:50:00,METAR EDSB 221450Z 04016KT CAVOK 17/M00 Q1022
2026-04-22 14:20:00,METAR EDSB 221420Z 05016KT CAVOK 17/M00 Q1022
2026-04-22 13:50:00,METAR EDSB 221350Z 04017KT CAVOK 17/M00 Q1022
2026-04-22 13:20:00,METAR EDSB 221320Z 04017KT 010V070 CAVOK 16/M01 Q1022
2026-04-22 12:50:00,METAR EDSB 221250Z 04017KT CAVOK 17/M00 Q1022
2026-04-22 12:20:00,METAR EDSB 221220Z 04018KT CAVOK 16/M00 Q1022
2026-04-22 11:50:00,METAR EDSB 221150Z 03017KT 010V070 CAVOK 16/M00 Q1022
2026-04-22 11:20:00,METAR EDSB 221120Z 04017KT 010V080 CAVOK 16/01 Q1022
2026-04-22 10:50:00,METAR EDSB 221050Z 05016KT CAVOK 15/M01 Q1022
2026-04-22 10:20:00,METAR EDSB 221020Z 05016G26KT CAVOK 15/01 Q1023
2026-04-22 09:50:00,METAR EDSB 220950Z 04016KT CAVOK 14/01 Q1023
2026-04-22 09:20:00,METAR EDSB 220920Z 03016KT CAVOK 13/02 Q1023
2026-04-22 08:50:00,METAR EDSB 220850Z 03014KT CAVOK 12/02 Q1023
2026-04-22 08:20:00,METAR EDSB 220820Z 03014KT CAVOK 11/02 Q1023
2026-04-22 07:50:00,METAR EDSB 220750Z 03012KT CAVOK 09/03 Q1023
2026-04-22 07:20:00,METAR EDSB 220720Z 01011KT CAVOK 08/02 Q1022
2026-04-22 06:50:00,METAR EDSB 220650Z 01011KT CAVOK 07/02 Q1022
2026-04-22 06:20:00,METAR EDSB 220620Z 03010KT CAVOK 07/02 Q1022
2026-04-22 05:50:00,METAR EDSB 220550Z 03010KT CAVOK 06/02 Q1022
2026-04-22 05:20:00,METAR EDSB 220520Z 03010KT CAVOK 05/02 Q1022
2026-04-22 04:50:00,METAR EDSB 220450Z COR 03010KT CAVOK 05/01 Q1022
2026-04-22 04:20:00,METAR EDSB 220420Z 03009KT CAVOK 05/01 Q1022
2026-04-22 03:50:00,METAR EDSB 220350Z 03007KT CAVOK 05/02 Q1021
2026-04-22 03:20:00,METAR EDSB 220320Z 03008KT CAVOK 05/02 Q1021
2026-04-22 02:50:00,METAR EDSB 220250Z AUTO 03007KT 9999 // NCD 05/02 Q1021
2026-04-22 02:20:00,METAR EDSB 220220Z AUTO 02008KT 9999 // NCD 06/02 Q1021
2026-04-22 01:50:00,METAR EDSB 220150Z AUTO 02006KT 9999 // NCD 05/02 Q1021
2026-04-22 01:20:00,METAR EDSB 220120Z AUTO 02007KT 9999 // NCD 06/02 Q1021
2026-04-22 00:50:00,METAR EDSB 220050Z AUTO 03008KT 9999 // NCD 06/02 Q1021
2026-04-22 00:20:00,METAR EDSB 220020Z AUTO 03008KT 9999 // NCD 06/03 Q1021
2026-04-21 23:50:00,METAR EDSB 212350Z AUTO 03008KT 9999 // NCD 07/03 Q1021
2026-04-21 23:20:00,METAR EDSB 212320Z AUTO 03007KT 9999 // NCD 07/03 Q1021
2026-04-21 22:50:00,METAR EDSB 212250Z AUTO 03008KT 9999 // NCD 07/03 Q1021
2026-04-21 22:20:00,METAR EDSB 212220Z AUTO 03008KT 9999 // NCD 07/03 Q1021
2026-04-21 21:50:00,METAR EDSB 212150Z AUTO 04008KT 9999 // NCD 07/03 Q1021
2026-04-21 21:20:00,METAR EDSB 212120Z AUTO 04008KT 9999 // NCD 06/03 Q1021
2026-04-21 20:50:00,METAR EDSB 212050Z 03008KT CAVOK 07/03 Q1021
2026-04-21 20:20:00,METAR EDSB 212020Z 04007KT CAVOK 07/04 Q1021
2026-04-21 19:50:00,METAR EDSB 211950Z 03007KT CAVOK 08/04 Q1020
2026-04-21 19:20:00,METAR EDSB 211920Z 03006KT CAVOK 09/04 Q1020
2026-04-21 18:50:00,METAR EDSB 211850Z 05007KT 020V080 CAVOK 09/04 Q1020
2026-04-21 18:20:00,METAR EDSB 211820Z 03006KT CAVOK 09/04 Q1020
2026-04-21 17:50:00,METAR EDSB 211750Z 05010KT CAVOK 10/04 Q1019
2026-04-21 17:20:00,METAR EDSB 211720Z 05011KT CAVOK 11/04 Q1019
2026-04-21 16:50:00,METAR EDSB 211650Z 06013KT CAVOK 11/03 Q1019
2026-04-21 16:20:00,METAR EDSB 211620Z 05014KT 9999 FEW041 12/03 Q1019
2026-04-21 15:50:00,METAR EDSB 211550Z 06013KT CAVOK 13/04 Q1019
2026-04-21 15:20:00,METAR EDSB 211520Z 04014KT CAVOK 12/05 Q1019
2026-04-21 14:50:00,METAR EDSB 211450Z 04013KT CAVOK 11/05 Q1019
2026-04-21 14:20:00,METAR EDSB 211420Z 04016KT CAVOK 11/05 Q1019
2026-04-21 13:20:00,METAR EDSB 211320Z 05014KT 9999 FEW044 12/03 Q1020
2026-04-21 12:50:00,METAR EDSB 211250Z 04017KT 9999 BKN043 11/05 Q1020
2026-04-21 12:20:00,METAR EDSB 211220Z 05012KT 9999 BKN041 13/03 Q1019
2026-04-21 11:50:00,METAR EDSB 211150Z 04014KT 010V070 9999 FEW038 13/04 Q1020
2026-04-21 11:20:00,METAR EDSB 211120Z 04013KT 9999 FEW045 SCT049 11/03 Q1020
2026-04-21 10:50:00,METAR EDSB 211050Z 03016KT 9999 FEW032 SCT044 11/04 Q1019
2026-04-21 10:20:00,METAR EDSB 211020Z 03013KT 360V080 9999 SCT033 12/04 Q1019
2026-04-21 09:50:00,METAR EDSB 210950Z 03013KT 9999 FEW033 12/04 Q1020
2026-04-21 09:20:00,METAR EDSB 210920Z 04014KT CAVOK 11/03 Q1020
2026-04-21 08:50:00,METAR EDSB 210850Z 04014KT CAVOK 11/04 Q1020
2026-04-21 08:20:00,METAR EDSB 210820Z 03014KT CAVOK 10/03 Q1019
2026-04-21 07:50:00,METAR EDSB 210750Z 04013KT CAVOK 09/03 Q1019
2026-04-21 07:20:00,METAR EDSB 210720Z 03013KT CAVOK 08/04 Q1019
2026-04-21 06:50:00,METAR EDSB 210650Z 02011KT CAVOK 07/03 Q1019
2026-04-21 06:20:00,METAR EDSB 210620Z 03011KT CAVOK 06/03 Q1019
2026-04-21 05:50:00,METAR EDSB 210550Z 03006KT CAVOK 06/03 Q1019
2026-04-21 05:20:00,METAR EDSB 210520Z 03007KT CAVOK 05/02 Q1019
2026-04-21 04:50:00,METAR EDSB 210450Z 04006KT CAVOK 04/02 Q1019
2026-04-21 04:20:00,METAR EDSB 210420Z 04006KT CAVOK 04/02 Q1019
2026-04-21 03:50:00,METAR EDSB 210350Z 02006KT CAVOK 04/01 Q1019
2026-04-21 03:20:00,METAR EDSB 210320Z 03007KT CAVOK 04/01 Q1019
2026-04-21 02:50:00,METAR EDSB 210250Z 03008KT CAVOK 05/01 Q1019
2026-04-21 02:20:00,METAR EDSB 210220Z AUTO 03009KT 9999 // NCD 05/01 Q1019
2026-04-21 01:50:00,METAR EDSB 210150Z AUTO 02007KT 9999 // NCD 05/01 Q1019
2026-04-21 01:20:00,METAR EDSB 210120Z AUTO 03006KT 9999 // NCD 04/01 Q1019
2026-04-21 00:50:00,METAR EDSB 210050Z AUTO 02007KT 9999 // NCD 04/01 Q1019
2026-04-20 22:50:00,METAR EDSB 202250Z AUTO 03006KT 9999 // NCD 07/01 Q1019
2026-04-20 22:20:00,METAR EDSB 202220Z AUTO 02005KT 9999 // FEW076/// 07/00 Q1019
2026-04-20 21:50:00,METAR EDSB 202150Z 05005KT CAVOK 07/01 Q1019
2026-04-20 21:20:00,METAR EDSB 202120Z 04006KT CAVOK 08/01 Q1018
2026-04-20 20:50:00,METAR EDSB 202050Z 03005KT CAVOK 08/00 Q1018
2026-04-20 20:20:00,METAR EDSB 202020Z 02006KT CAVOK 09/01 Q1018
2026-04-20 19:50:00,METAR EDSB 201950Z 05005KT CAVOK 09/00 Q1018
2026-04-20 19:20:00,METAR EDSB 201920Z 02007KT CAVOK 10/01 Q1018
2026-04-20 18:50:00,METAR EDSB 201850Z 01006KT CAVOK 11/00 Q1017
2026-04-20 18:20:00,METAR EDSB 201820Z 03007KT CAVOK 11/M00 Q1017
2026-04-20 17:50:00,METAR EDSB 201750Z 03009KT CAVOK 12/00 Q1017
2026-04-20 17:20:00,METAR EDSB 201720Z 04009KT CAVOK 14/00 Q1017
2026-04-20 16:50:00,METAR EDSB 201650Z 03007KT CAVOK 14/01 Q1017
2026-04-20 16:20:00,METAR EDSB 201620Z 03008KT 350V070 CAVOK 15/01 Q1017
2026-04-20 15:50:00,METAR EDSB 201550Z 03009KT CAVOK 14/01 Q1017
2026-04-20 15:20:00,METAR EDSB 201520Z 03009KT CAVOK 15/01 Q1017
2026-04-20 14:50:00,METAR EDSB 201450Z 36007KT 330V050 CAVOK 15/01 Q1017
2026-04-20 14:20:00,METAR EDSB 201420Z 36007KT 320V030 CAVOK 15/03 Q1017
2026-04-20 13:50:00,METAR EDSB 201350Z 02009KT 340V050 CAVOK 15/03 Q1017
2026-04-20 13:20:00,METAR EDSB 201320Z 01010KT 330V050 CAVOK 15/03 Q1017
2026-04-20 12:50:00,METAR EDSB 201250Z 04008KT 350V100 CAVOK 15/03 Q1018
2026-04-20 12:20:00,METAR EDSB 201220Z 01008KT 340V070 9999 FEW048 14/02 Q1018
2026-04-20 11:50:00,METAR EDSB 201150Z COR 01009KT 330V040 CAVOK 14/03 Q1018
2026-04-20 11:20:00,METAR EDSB 201120Z 01009KT 320V050 CAVOK 14/04 Q1018
2026-04-20 10:50:00,METAR EDSB 201050Z 36010KT 330V030 9999 FEW038 13/04 Q1018
2026-04-20 10:20:00,METAR EDSB 201020Z 03010KT 360V070 9999 FEW037 13/05 Q1019
2026-04-20 09:50:00,METAR EDSB 200950Z 03011KT 360V070 9999 FEW032 13/04 Q1019
2026-04-20 09:20:00,METAR EDSB 200920Z 03011KT 350V060 9999 FEW032 12/04 Q1019
2026-04-20 08:50:00,METAR EDSB 200850Z 04013KT 9999 FEW026 12/04 Q1019
2026-04-20 08:20:00,METAR EDSB 200820Z 04012KT CAVOK 11/06 Q1019
2026-04-20 07:50:00,METAR EDSB 200750Z 04011KT CAVOK 10/06 Q1019
2026-04-20 07:20:00,METAR EDSB 200720Z 04009KT CAVOK 09/05 Q1019
2026-04-20 06:50:00,METAR EDSB 200650Z 02006KT CAVOK 08/05 Q1019
2026-04-20 06:20:00,METAR EDSB 200620Z 02005KT CAVOK 07/05 Q1019
2026-04-20 05:50:00,METAR EDSB 200550Z 04003KT CAVOK 03/02 Q1019
2026-04-20 05:20:00,METAR EDSB 200520Z 03004KT CAVOK 04/02 Q1019
2026-04-20 04:50:00,METAR EDSB 200450Z 03003KT CAVOK 05/03 Q1019
2026-04-20 04:20:00,METAR EDSB 200420Z 36003KT CAVOK 04/02 Q1018
2026-04-20 03:50:00,METAR EDSB 200350Z 03005KT CAVOK 04/03 Q1018
2026-04-20 03:20:00,METAR EDSB 200320Z VRB01KT CAVOK 04/03 Q1019
2026-04-20 02:50:00,METAR EDSB 200250Z 36003KT CAVOK 04/03 Q1019
2026-04-20 02:20:00,METAR EDSB 200220Z AUTO 03004KT 9999 // NCD 04/03 Q1019
2026-04-20 01:50:00,METAR EDSB 200150Z AUTO 03005KT 9999 // NCD 05/03 Q1019
2026-04-20 01:20:00,METAR EDSB 200120Z AUTO 03005KT 9999 // NCD 05/03 Q1019
2026-04-20 00:50:00,METAR EDSB 200050Z AUTO 01003KT 9999 // NCD 05/04 Q1019
2026-04-20 00:20:00,METAR EDSB 200020Z AUTO 02004KT 9999 // NCD 05/04 Q1020
2026-04-19 23:50:00,METAR EDSB 192350Z AUTO 35004KT 9999 // NCD 06/04 Q1020
2026-04-19 23:20:00,METAR EDSB 192320Z AUTO 02003KT 9999 // FEW070/// 06/04 Q1020
2026-04-19 22:50:00,METAR EDSB 192250Z AUTO 03003KT 9999 // NCD 07/04 Q1020
2026-04-19 22:20:00,METAR EDSB 192220Z AUTO 05004KT 9999 // NCD 07/03 Q1020
2026-04-19 21:50:00,METAR EDSB 192150Z 01004KT CAVOK 08/04 Q1020
2026-04-19 21:20:00,METAR EDSB 192120Z 02004KT CAVOK 08/04 Q1020
2026-04-19 20:50:00,METAR EDSB 192050Z 02004KT CAVOK 09/05 Q1020
2026-04-19 20:20:00,METAR EDSB 192020Z 00000KT CAVOK 07/03 Q1020
2026-04-19 19:50:00,METAR EDSB 191950Z 00000KT CAVOK 09/03 Q1020
2026-04-19 19:20:00,METAR EDSB 191920Z VRB01KT CAVOK 10/03 Q1020
2026-04-19 18:50:00,METAR EDSB 191850Z 35001KT CAVOK 12/02 Q1020
2026-04-19 18:20:00,METAR EDSB 191820Z 03003KT CAVOK 13/01 Q1020
2026-04-19 17:50:00,METAR EDSB 191750Z 02005KT CAVOK 14/01 Q1020
2026-04-19 17:20:00,METAR EDSB 191720Z 02006KT CAVOK 13/02 Q1020
2026-04-19 16:50:00,METAR EDSB 191650Z 02008KT CAVOK 15/02 Q1020
2026-04-19 16:20:00,METAR EDSB 191620Z 02007KT 350V050 CAVOK 15/02 Q1020
2026-04-19 15:50:00,METAR EDSB 191550Z 35006KT CAVOK 16/03 Q1019
2026-04-19 15:20:00,METAR EDSB 191520Z 35009KT CAVOK 16/02 Q1019
2026-04-19 14:50:00,METAR EDSB 191450Z 35008KT 310V030 CAVOK 16/03 Q1019
2026-04-19 14:20:00,METAR EDSB 191420Z 04010KT 010V070 CAVOK 17/05 Q1019
2026-04-19 13:50:00,METAR EDSB 191350Z 01009KT 330V050 CAVOK 16/04 Q1019
2026-04-19 13:20:00,METAR EDSB 191320Z 35006KT 310V030 CAVOK 16/03 Q1020
2026-04-19 12:50:00,METAR EDSB 191250Z VRB07KT CAVOK 16/03 Q1020
2026-04-19 12:20:00,METAR EDSB 191220Z 36010KT 9999 FEW042 16/05 Q1020
2026-04-19 11:50:00,METAR EDSB 191150Z 36009KT 330V040 9999 SCT038 16/09 Q1020
2026-04-19 11:20:00,METAR EDSB 191120Z 35008KT 310V030 9999 FEW024 BKN034 15/07 Q1020
2026-04-19 10:50:00,METAR EDSB 191050Z 01008KT 9999 FEW025 BKN029 14/10 Q1020
2026-04-19 10:20:00,METAR EDSB 191020Z VRB03KT 9999 VCSH FEW023 BKN033 15/09 Q1020
2026-04-19 09:50:00,METAR EDSB 190950Z 31003KT 250V010 9999 FEW019 SCT022 BKN048 14/09 Q1020
2026-04-19 09:20:00,METAR EDSB 190920Z 33003KT 290V360 9999 VCSH BKN024 BKN028 OVC034 13/09 Q1019
2026-04-19 08:50:00,METAR EDSB 190850Z 28004KT 220V340 9999 FEW021 SCT029 14/09 Q1019
2026-04-19 08:20:00,METAR EDSB 190820Z 27004KT 240V300 9999 FEW040 13/10 Q1019
2026-04-19 07:50:00,METAR EDSB 190750Z 25003KT 210V330 9999 BKN035 12/10 Q1019
2026-04-19 07:20:00,METAR EDSB 190720Z VRB02KT 9999 -RA SCT033 BKN038 12/10 Q1018
2026-04-19 06:50:00,METAR EDSB 190650Z VRB02KT 9999 FEW042 13/09 Q1018
2026-04-19 06:20:00,METAR EDSB 190620Z 14003KT 110V180 CAVOK 12/09 Q1018
2026-04-19 05:50:00,METAR EDSB 190550Z VRB02KT CAVOK 11/08 Q1017
2026-04-19 05:20:00,METAR EDSB 190520Z 30004KT 220V340 CAVOK 11/09 Q1017
2026-04-19 04:50:00,METAR EDSB 190450Z 22003KT CAVOK 10/09 Q1016
2026-04-19 04:20:00,METAR EDSB 190420Z 21004KT CAVOK 10/09 Q1016
2026-04-19 03:50:00,METAR EDSB 190350Z 18003KT CAVOK 10/08 Q1016
2026-04-19 03:20:00,METAR EDSB 190320Z 23003KT CAVOK 10/09 Q1016
2026-04-19 02:50:00,METAR EDSB 190250Z 17001KT CAVOK 11/08 Q1016
2026-04-19 02:20:00,METAR EDSB 190220Z AUTO 00000KT 9999 // FEW120/// 11/09 Q1016
2026-04-19 01:50:00,METAR EDSB 190150Z AUTO 30001KT 9999 // FEW140/// 12/09 Q1016
2026-04-19 01:20:00,METAR EDSB 190120Z AUTO 11003KT 080V140 9999 // SCT140/// 12/08 Q1017
2026-04-19 00:50:00,METAR EDSB 190050Z AUTO 06003KT 9999 // BKN150/// BKN190/// 13/09 Q1017
2026-04-19 00:20:00,METAR EDSB 190020Z AUTO 03003KT 360V070 9999 // BKN150/// 14/09 Q1017
2026-04-18 23:50:00,METAR EDSB 182350Z AUTO 03003KT 9999 // OVC150/// 14/09 Q1017
2026-04-18 23:20:00,METAR EDSB 182320Z AUTO 36005KT 9999 // OVC140/// 15/09 Q1018
2026-04-18 22:50:00,METAR EDSB 182250Z AUTO 03008KT 9999 // FEW083/// OVC140/// 15/09 Q1018
2026-04-18 22:20:00,METAR EDSB 182220Z AUTO 04003KT 9999 // FEW083/// BKN140/// 13/10 Q1018
2026-04-18 21:50:00,METAR EDSB 182150Z VRB02KT CAVOK 14/10 Q1018
2026-04-18 21:20:00,METAR EDSB 182120Z 02003KT 350V050 CAVOK 13/11 Q1018
2026-04-18 20:50:00,METAR EDSB 182050Z 03003KT CAVOK 14/10 Q1018
2026-04-18 20:20:00,METAR EDSB 182020Z 05002KT CAVOK 15/10 Q1018
2026-04-18 19:50:00,METAR EDSB 181950Z 00000KT CAVOK 17/09 Q1018
2026-04-18 19:20:00,METAR EDSB 181920Z VRB01KT CAVOK 18/09 Q1018
2026-04-18 18:50:00,METAR EDSB 181850Z VRB01KT CAVOK 18/09 Q1018
2026-04-18 18:20:00,METAR EDSB 181820Z 23002KT CAVOK 20/09 Q1018
2026-04-18 17:50:00,METAR EDSB 181750Z 25003KT 220V280 CAVOK 21/09 Q1018
2026-04-18 17:20:00,METAR EDSB 181720Z 27003KT 230V320 CAVOK 21/09 Q1018
2026-04-18 16:50:00,METAR EDSB 181650Z 32003KT 280V350 CAVOK 22/09 Q1018
2026-04-18 16:20:00,METAR EDSB 181620Z 21005KT CAVOK 23/09 Q1018
2026-04-18 15:50:00,METAR EDSB 181550Z 21004KT 170V250 CAVOK 23/09 Q1018
2026-04-18 15:20:00,METAR EDSB 181520Z 22005KT 190V270 CAVOK 22/09 Q1018
2026-04-18 14:50:00,METAR EDSB 181450Z 22004KT 190V270 CAVOK 22/09 Q1018
2026-04-18 14:20:00,METAR EDSB 181420Z 25004KT 210V300 CAVOK 22/09 Q1018
2026-04-18 13:50:00,METAR EDSB 181350Z VRB04KT CAVOK 22/10 Q1018
2026-04-18 13:20:00,METAR EDSB 181320Z 22003KT 170V280 CAVOK 23/10 Q1018
2026-04-18 12:50:00,METAR EDSB 181250Z 20004KT 150V290 CAVOK 23/10 Q1019
2026-04-18 12:20:00,METAR EDSB 181220Z VRB02KT CAVOK 22/09 Q1019
2026-04-18 11:50:00,METAR EDSB 181150Z VRB03KT CAVOK 21/11 Q1019
2026-04-18 11:20:00,METAR EDSB 181120Z VRB03KT CAVOK 21/10 Q1020
2026-04-18 10:50:00,METAR EDSB 181050Z 18003KT 110V280 CAVOK 20/09 Q1020
2026-04-18 10:20:00,METAR EDSB 181020Z 21004KT 150V280 CAVOK 19/09 Q1020
2026-04-18 09:50:00,METAR EDSB 180950Z 29003KT 230V020 CAVOK 18/09 Q1020
2026-04-18 09:20:00,METAR EDSB 180920Z 23004KT 190V270 CAVOK 17/08 Q1020
2026-04-18 08:50:00,METAR EDSB 180850Z 22006KT CAVOK 17/10 Q1020
2026-04-18 08:20:00,METAR EDSB 180820Z 23005KT 190V270 CAVOK 15/09 Q1020
2026-04-18 07:50:00,METAR EDSB 180750Z 22005KT 180V250 CAVOK 15/09 Q1020
2026-04-18 07:20:00,METAR EDSB 180720Z 21006KT 180V240 CAVOK 14/09 Q1020
2026-04-18 06:50:00,METAR EDSB 180650Z 21006KT CAVOK 12/09 Q1020
2026-04-18 06:20:00,METAR EDSB 180620Z 21004KT CAVOK 11/09 Q1020
2026-04-18 05:50:00,METAR EDSB 180550Z 20004KT CAVOK 09/08 Q1020
2026-04-18 05:20:00,METAR EDSB 180520Z 20003KT CAVOK 09/08 Q1020
2026-04-18 04:50:00,METAR EDSB 180450Z 18002KT CAVOK 09/08 Q1020
2026-04-18 04:20:00,METAR EDSB 180420Z 00000KT CAVOK 08/08 Q1020
2026-04-18 03:50:00,METAR EDSB 180350Z 13001KT CAVOK 09/07 Q1020
2026-04-18 03:20:00,METAR EDSB 180320Z 00000KT CAVOK 09/08 Q1020
2026-04-18 02:50:00,METAR EDSB 180250Z 00000KT CAVOK 09/08 Q1020
2026-04-18 02:20:00,METAR EDSB 180220Z AUTO 00000KT 9999 // NCD 09/08 Q1020
2026-04-18 01:50:00,METAR EDSB 180150Z AUTO 17002KT 9999 // SCT085/// 10/08 Q1020
2026-04-18 01:20:00,METAR EDSB 180120Z AUTO 12002KT 9999 // BKN082/// 10/08 Q1020
2026-04-18 00:50:00,METAR EDSB 180050Z AUTO VRB01KT 9999 // BKN082/// 10/09 Q1020
2026-04-18 00:20:00,METAR EDSB 180020Z AUTO 21002KT 9999 // FEW083/// 11/09 Q1020
2026-04-17 23:50:00,METAR EDSB 172350Z AUTO VRB01KT 9999 // NCD 10/09 Q1020
2026-04-17 23:20:00,METAR EDSB 172320Z AUTO VRB01KT 9999 // NCD 12/09 Q1020
2026-04-17 22:50:00,METAR EDSB 172250Z AUTO VRB02KT 9999 // FEW087/// 12/09 Q1020
2026-04-17 22:20:00,METAR EDSB 172220Z AUTO VRB02KT 9999 // SCT084/// 13/10 Q1020
2026-04-17 21:50:00,METAR EDSB 172150Z AUTO 00000KT 9999 // SCT081/// SCT094/// 13/10 Q1020
2026-04-17 21:20:00,METAR EDSB 172120Z AUTO VRB01KT 9999 // FEW084/// BKN095/// 14/10 Q1020
2026-04-17 20:50:00,METAR EDSB 172050Z VRB02KT CAVOK 13/10 Q1020
2026-04-17 20:20:00,METAR EDSB 172020Z 00000KT CAVOK 14/09 Q1020
2026-04-17 19:50:00,METAR EDSB 171950Z VRB02KT CAVOK 15/09 Q1020
2026-04-17 19:20:00,METAR EDSB 171920Z 00000KT CAVOK 16/09 Q1019
2026-04-17 18:50:00,METAR EDSB 171850Z 00000KT CAVOK 17/10 Q1019
2026-04-17 18:20:00,METAR EDSB 171820Z 32002KT CAVOK 19/08 Q1019
2026-04-17 17:50:00,METAR EDSB 171750Z 32003KT CAVOK 21/09 Q1019
2026-04-17 17:20:00,METAR EDSB 171720Z 32004KT CAVOK 21/09 Q1019
2026-04-17 16:50:00,METAR EDSB 171650Z 36004KT 320V020 CAVOK 22/09 Q1019
2026-04-17 16:20:00,METAR EDSB 171620Z 36004KT CAVOK 22/09 Q1019
2026-04-17 15:50:00,METAR EDSB 171550Z 35006KT 310V020 CAVOK 22/08 Q1019
2026-04-17 15:20:00,METAR EDSB 171520Z 32003KT 260V010 CAVOK 23/08 Q1019
2026-04-17 14:50:00,METAR EDSB 171450Z 35004KT 280V050 CAVOK 22/08 Q1019
2026-04-17 14:20:00,METAR EDSB 171420Z 01004KT 300V050 CAVOK 22/08 Q1019
2026-04-17 13:50:00,METAR EDSB 171350Z VRB03KT CAVOK 22/07 Q1020
2026-04-17 13:20:00,METAR EDSB 171320Z 30003KT 210V360 CAVOK 22/09 Q1020
2026-04-17 12:50:00,METAR EDSB 171250Z 33004KT 250V060 CAVOK 22/09 Q1020
2026-04-17 12:20:00,METAR EDSB 171220Z 34003KT 300V100 CAVOK 21/10 Q1020
2026-04-17 11:50:00,METAR EDSB 171150Z 29003KT 240V350 CAVOK 21/10 Q1020
2026-04-17 11:20:00,METAR EDSB 171120Z 31004KT 240V350 CAVOK 20/10 Q1021
2026-04-17 10:50:00,METAR EDSB 171050Z 35003KT 280V060 CAVOK 19/11 Q1021
2026-04-17 10:20:00,METAR EDSB 171020Z 32004KT 260V360 CAVOK 18/11 Q1021
2026-04-17 09:50:00,METAR EDSB 170950Z VRB02KT CAVOK 17/11 Q1021
2026-04-17 09:20:00,METAR EDSB 170920Z 33003KT 270V030 CAVOK 17/10 Q1022
2026-04-17 08:50:00,METAR EDSB 170850Z VRB01KT CAVOK 16/10 Q1022
2026-04-17 08:20:00,METAR EDSB 170820Z VRB02KT CAVOK 15/10 Q1022
2026-04-17 07:50:00,METAR EDSB 170750Z VRB02KT CAVOK 13/09 Q1022
2026-04-17 07:20:00,METAR EDSB 170720Z VRB02KT CAVOK 13/10 Q1022
2026-04-17 06:50:00,METAR EDSB 170650Z 19003KT 150V230 CAVOK 11/09 Q1022
2026-04-17 06:20:00,METAR EDSB 170620Z VRB01KT CAVOK 09/08 Q1022
2026-04-17 05:50:00,METAR EDSB 170550Z 19001KT 9999 FEW001 08/08 Q1022
2026-04-17 05:20:00,METAR EDSB 170520Z 19001KT CAVOK 07/06 Q1022
2026-04-17 04:50:00,METAR EDSB 170450Z 00000KT 9999 BCFG SCT002 07/06 Q1021
2026-04-17 04:20:00,METAR EDSB 170420Z 00000KT 9999 BCFG SCT002 07/06 Q1021
2026-04-17 03:50:00,METAR EDSB 170350Z 00000KT CAVOK 07/06 Q1021
2026-04-17 03:20:00,METAR EDSB 170320Z VRB01KT CAVOK 07/07 Q1021
2026-04-17 02:50:00,METAR EDSB 170250Z 21001KT CAVOK 07/07 Q1021
2026-04-17 02:20:00,METAR EDSB 170220Z 10001KT CAVOK 08/07 Q1021
2026-04-17 01:50:00,METAR EDSB 170150Z AUTO 00000KT 9000 0900 R21/P2000N NCD 08/07 Q1021
2026-04-17 01:20:00,METAR EDSB 170120Z AUTO 20002KT 9999 NCD 08/07 Q1021
2026-04-17 00:50:00,METAR EDSB 170050Z AUTO VRB02KT 9999 FEW002/// 08/07 Q1022
2026-04-17 00:20:00,METAR EDSB 170020Z AUTO 18002KT 9999 NCD 09/07 Q1022
2026-04-16 23:50:00,METAR EDSB 162350Z AUTO 04002KT 9999 NCD 09/08 Q1022
2026-04-16 23:20:00,METAR EDSB 162320Z AUTO VRB01KT 9999 FEW068/// 09/08 Q1022
2026-04-16 22:50:00,METAR EDSB 162250Z AUTO 33002KT 9999 FEW067/// 09/09 Q1022
2026-04-16 22:20:00,METAR EDSB 162220Z AUTO VRB01KT 9999 NCD 09/08 Q1022
2026-04-16 21:50:00,METAR EDSB 162150Z AUTO 00000KT 9999 NCD 10/08 Q1022
2026-04-16 21:20:00,METAR EDSB 162120Z VRB01KT CAVOK 11/08 Q1022
2026-04-16 20:50:00,METAR EDSB 162050Z 19002KT CAVOK 13/09 Q1021
2026-04-16 20:20:00,METAR EDSB 162020Z VRB02KT CAVOK 13/09 Q1022
2026-04-16 19:50:00,METAR EDSB 161950Z 00000KT CAVOK 14/09 Q1022
2026-04-16 19:20:00,METAR EDSB 161920Z 00000KT CAVOK 14/09 Q1021
2026-04-16 18:50:00,METAR EDSB 161850Z VRB02KT CAVOK 16/09 Q1021
2026-04-16 18:20:00,METAR EDSB 161820Z VRB01KT CAVOK 17/09 Q1021
2026-04-16 17:50:00,METAR EDSB 161750Z VRB01KT 9999 19/09 Q1021
2026-04-16 17:20:00,METAR EDSB 161720Z VRB02KT CAVOK 20/09 Q1021
2026-04-16 16:50:00,METAR EDSB 161650Z 00000KT CAVOK 20/09 Q1021
2026-04-16 16:20:00,METAR EDSB 161620Z VRB02KT CAVOK 20/10 Q1021
2026-04-16 15:50:00,METAR EDSB 161550Z VRB02KT CAVOK 20/10 Q1021
2026-04-16 14:50:00,METAR EDSB 161450Z 28004KT 200V010 CAVOK 21/09 Q1021
2026-04-16 14:20:00,METAR EDSB 161420Z VRB02KT CAVOK 20/10 Q1021
2026-04-16 13:50:00,METAR EDSB 161350Z VRB03KT CAVOK 19/09 Q1022
2026-04-16 13:20:00,METAR EDSB 161320Z 21006KT 170V280 CAVOK 20/09 Q1022
2026-04-16 12:50:00,METAR EDSB 161250Z 22006KT 160V250 CAVOK 20/09 Q1022
2026-04-16 12:20:00,METAR EDSB 161220Z 21006KT 170V260 CAVOK 19/09 Q1022
2026-04-16 11:50:00,METAR EDSB 161150Z 22007KT 170V260 CAVOK 19/09 Q1022
2026-04-16 11:20:00,METAR EDSB 161120Z 24006KT 200V270 CAVOK 19/09 Q1022
2026-04-16 10:50:00,METAR EDSB 161050Z 23006KT 180V270 CAVOK 18/09 Q1023
2026-04-16 10:20:00,METAR EDSB 161020Z 22007KT CAVOK 18/09 Q1023
2026-04-16 09:50:00,METAR EDSB 160950Z 20007KT CAVOK 17/09 Q1023
2026-04-16 09:20:00,METAR EDSB 160920Z 21009KT 180V250 CAVOK 16/09 Q1023
2026-04-16 08:50:00,METAR EDSB 160850Z 21007KT 190V250 CAVOK 16/10 Q1023
2026-04-16 08:20:00,METAR EDSB 160820Z 22005KT 190V250 CAVOK 14/09 Q1023
2026-04-16 07:50:00,METAR EDSB 160750Z 22007KT 190V250 CAVOK 13/09 Q1023
2026-04-16 07:20:00,METAR EDSB 160720Z 22006KT CAVOK 12/08 Q1023
2026-04-16 06:50:00,METAR EDSB 160650Z 22005KT CAVOK 11/08 Q1023
2026-04-16 06:20:00,METAR EDSB 160620Z 20005KT CAVOK 10/08 Q1023
2026-04-16 05:50:00,METAR EDSB 160550Z 20004KT CAVOK 09/08 Q1023
2026-04-16 05:20:00,METAR EDSB 160520Z 22004KT CAVOK 09/07 Q1022
2026-04-16 04:50:00,METAR EDSB 160450Z 21004KT CAVOK 09/07 Q1022
2026-04-16 04:20:00,METAR EDSB 160420Z 22005KT CAVOK 09/07 Q1022
2026-04-16 03:50:00,METAR EDSB 160350Z 22005KT CAVOK 08/06 Q1022
2026-04-16 03:20:00,METAR EDSB 160320Z 22006KT CAVOK 09/07 Q1022
2026-04-16 02:50:00,METAR EDSB 160250Z 23005KT CAVOK 09/07 Q1022
2026-04-16 02:20:00,METAR EDSB 160220Z AUTO 22007KT 9999 NCD 09/07 Q1022
2026-04-16 01:50:00,METAR EDSB 160150Z AUTO 21004KT 9999 NCD 09/07 Q1022
2026-04-16 01:20:00,METAR EDSB 160120Z AUTO 22004KT 9999 FEW065/// 09/07 Q1022
2026-04-16 00:50:00,METAR EDSB 160050Z AUTO 21004KT 9999 SCT054/// BKN063/// 09/07 Q1022
2026-04-16 00:20:00,METAR EDSB 160020Z AUTO 20004KT 9999 FEW056/// BKN066/// BKN160/// 08/06 Q1022
2026-04-15 23:50:00,METAR EDSB 152350Z AUTO 20003KT 9999 FEW160/// 08/06 Q1022
2026-04-15 23:20:00,METAR EDSB 152320Z AUTO 19003KT 9999 NCD 08/07 Q1022
2026-04-15 22:50:00,METAR EDSB 152250Z AUTO 20003KT 9999 NCD 09/07 Q1021
2026-04-15 22:20:00,METAR EDSB 152220Z AUTO 20003KT 9999 NCD 10/07 Q1021
2026-04-15 21:50:00,METAR EDSB 152150Z 21003KT CAVOK 10/08 Q1021
2026-04-15 21:20:00,METAR EDSB 152120Z 21003KT CAVOK 11/08 Q1021
2026-04-15 20:50:00,METAR EDSB 152050Z 15005KT 130V190 CAVOK 11/07 Q1021
2026-04-15 20:20:00,METAR EDSB 152020Z 16003KT 130V200 CAVOK 11/08 Q1021
2026-04-15 19:50:00,METAR EDSB 151950Z 21003KT CAVOK 12/08 Q1021
2026-04-15 19:20:00,METAR EDSB 151920Z 21004KT CAVOK 13/08 Q1021
2026-04-15 18:50:00,METAR EDSB 151850Z 18007KT CAVOK 14/08 Q1020
2026-04-15 18:20:00,METAR EDSB 151820Z 20006KT CAVOK 15/08 Q1020
2026-04-15 17:50:00,METAR EDSB 151750Z 20007KT CAVOK 16/08 Q1020
2026-04-15 17:20:00,METAR EDSB 151720Z 21006KT CAVOK 15/09 Q1020
2026-04-15 16:50:00,METAR EDSB 151650Z 20007KT CAVOK 17/09 Q1020
2026-04-15 16:20:00,METAR EDSB 151620Z 22006KT 170V250 9999 SCT044 17/08 Q1020
2026-04-15 15:50:00,METAR EDSB 151550Z 23006KT 190V270 9999 SCT045 17/09 Q1020
2026-04-15 15:20:00,METAR EDSB 151520Z 21005KT 9999 SCT047 17/07 Q1020
2026-04-15 14:50:00,METAR EDSB 151450Z 21004KT 160V300 9999 SCT046 17/08 Q1020
2026-04-15 14:20:00,METAR EDSB 151420Z 22003KT 150V290 9999 SCT046 17/07 Q1020
2026-04-15 13:50:00,METAR EDSB 151350Z 31003KT 260V010 9999 SCT047 17/07 Q1021
2026-04-15 13:20:00,METAR EDSB 151320Z 33005KT 290V020 9999 SCT046 16/08 Q1021
2026-04-15 12:50:00,METAR EDSB 151250Z VRB05KT CAVOK 16/07 Q1021
2026-04-15 12:20:00,METAR EDSB 151220Z 35004KT 320V030 9999 FEW038 OVC046 16/06 Q1021
2026-04-15 11:50:00,METAR EDSB 151150Z 36004KT 320V050 9999 FEW038 BKN047 16/07 Q1021
2026-04-15 11:20:00,METAR EDSB 151120Z 35004KT 320V040 9999 BKN047 15/08 Q1022
2026-04-15 10:50:00,METAR EDSB 151050Z 32004KT 290V360 9999 BKN047 15/08 Q1022
2026-04-15 10:20:00,METAR EDSB 151020Z 01003KT 300V060 9999 FEW047 14/07 Q1022
2026-04-15 09:50:00,METAR EDSB 150950Z 35005KT 310V030 CAVOK 14/08 Q1022
2026-04-15 09:20:00,METAR EDSB 150920Z 36005KT 320V070 CAVOK 13/08 Q1022
2026-04-15 08:50:00,METAR EDSB 150850Z VRB03KT CAVOK 12/07 Q1023
2026-04-15 08:20:00,METAR EDSB 150820Z VRB02KT CAVOK 11/07 Q1023
2026-04-15 07:50:00,METAR EDSB 150750Z 06003KT 360V100 CAVOK 10/07 Q1023
2026-04-15 07:20:00,METAR EDSB 150720Z 05003KT 010V110 CAVOK 08/06 Q1023
2026-04-15 06:50:00,METAR EDSB 150650Z 04003KT 360V110 9999 FEW006 08/06 Q1023
2026-04-15 06:20:00,METAR EDSB 150620Z VRB02KT CAVOK 07/05 Q1023
2026-04-15 05:50:00,METAR EDSB 150550Z VRB01KT CAVOK 05/04 Q1023
2026-04-15 05:20:00,METAR EDSB 150520Z 00000KT 9999 2000SW BCFG NSC 03/03 Q1023
2026-04-15 04:50:00,METAR EDSB 150450Z VRB02KT 9999 2000SW BCFG NSC 03/02 Q1022
2026-04-15 04:20:00,METAR EDSB 150420Z 00000KT 9999 2000S BCFG SCT002 04/04 Q1022
2026-04-15 03:50:00,METAR EDSB 150350Z VRB01KT 9999 FEW002 03/03 Q1022
2026-04-15 03:20:00,METAR EDSB 150320Z VRB01KT 9999 R03/0900U BCFG FEW001 SCT002 04/03 Q1022
2026-04-15 02:50:00,METAR EDSB 150250Z VRB01KT 9999 R03/1000U BCFG SCT002 04/04 Q1022
2026-04-15 02:20:00,METAR EDSB 150220Z AUTO 00000KT 1400 1200 R03/1400D SCT056/// 04/04 Q1022
2026-04-15 01:50:00,METAR EDSB 150150Z AUTO VRB02KT 9000 FEW055/// 04/04 Q1022
2026-04-15 01:20:00,METAR EDSB 150120Z AUTO 00000KT 7000 2400 FEW003/// 04/04 Q1022
2026-04-15 00:50:00,METAR EDSB 150050Z AUTO 00000KT 9000 1400 R03/1000U FEW003/// 05/04 Q1022
2026-04-15 00:20:00,METAR EDSB 150020Z AUTO 18002KT 9999 NCD 05/04 Q1023
2026-04-14 23:50:00,METAR EDSB 142350Z AUTO 04001KT 7000 3100 NCD 05/05 Q1023
2026-04-14 23:20:00,METAR EDSB 142320Z AUTO 18002KT 9000 2000 NCD 06/05 Q1023
2026-04-14 22:50:00,METAR EDSB 142250Z AUTO 00000KT 9999 SCT059/// 06/05 Q1023
2026-04-14 22:20:00,METAR EDSB 142220Z AUTO VRB01KT 9999 BKN059/// 07/05 Q1023
2026-04-14 21:50:00,METAR EDSB 142150Z AUTO 00000KT 9999 BKN058/// 07/06 Q1023
2026-04-14 21:20:00,METAR EDSB 142120Z AUTO 00000KT 9999 BKN056/// 08/06 Q1023
2026-04-14 20:50:00,METAR EDSB 142050Z VRB01KT CAVOK 08/05 Q1023
2026-04-14 20:20:00,METAR EDSB 142020Z VRB01KT CAVOK 08/06 Q1023
2026-04-14 19:50:00,METAR EDSB 141950Z VRB01KT CAVOK 08/05 Q1023
2026-04-14 19:20:00,METAR EDSB 141920Z VRB01KT CAVOK 09/05 Q1022
2026-04-14 18:50:00,METAR EDSB 141850Z 00000KT CAVOK 10/05 Q1022
2026-04-14 18:20:00,METAR EDSB 141820Z 14003KT 060V190 CAVOK 12/05 Q1022
2026-04-14 17:50:00,METAR EDSB 141750Z 13006KT CAVOK 12/05 Q1022
2026-04-14 17:20:00,METAR EDSB 141720Z 13004KT 070V160 CAVOK 13/05 Q1021
2026-04-14 16:50:00,METAR EDSB 141650Z 10005KT 070V140 CAVOK 13/05 Q1021
2026-04-14 16:20:00,METAR EDSB 141620Z 12005KT 090V150 9999 FEW037 13/05 Q1021
2026-04-14 15:50:00,METAR EDSB 141550Z 11007KT 070V140 9999 FEW033 13/06 Q1021
2026-04-14 15:20:00,METAR EDSB 141520Z VRB02KT 9999 FEW033 SCT049 14/06 Q1021
2026-04-14 14:50:00,METAR EDSB 141450Z 04004KT 340V100 9999 OVC045 12/05 Q1021
2026-04-14 14:20:00,METAR EDSB 141420Z 04006KT 360V090 9999 FEW034 OVC044 12/06 Q1021
2026-04-14 13:50:00,METAR EDSB 141350Z VRB03KT 9999 FEW033 OVC041 12/06 Q1021
2026-04-14 13:20:00,METAR EDSB 141320Z 02006KT 350V060 9999 FEW027 OVC038 12/05 Q1021
2026-04-14 12:50:00,METAR EDSB 141250Z 04004KT 300V090 9999 FEW023 BKN041 12/06 Q1021
2026-04-14 12:20:00,METAR EDSB 141220Z 06004KT 340V130 9999 SCT023 OVC038 11/06 Q1021
2026-04-14 11:50:00,METAR EDSB 141150Z 06004KT 350V110 9999 FEW024 OVC039 11/06 Q1021
2026-04-14 11:20:00,METAR EDSB 141120Z 04003KT 340V100 9999 FEW018 BKN028 OVC039 11/07 Q1021
2026-04-14 10:50:00,METAR EDSB 141050Z 03005KT 9999 SCT024 BKN028 OVC032 10/06 Q1021
2026-04-14 10:20:00,METAR EDSB 141020Z 01004KT 9999 FEW018 BKN022 OVC031 10/07 Q1020
2026-04-14 09:50:00,METAR EDSB 140950Z 34005KT 290V020 9999 SCT016 BKN027 BKN031 10/06 Q1020
2026-04-14 09:20:00,METAR EDSB 140920Z 33004KT 270V050 9999 BKN016 OVC027 10/06 Q1020
2026-04-14 08:50:00,METAR EDSB 140850Z 33003KT 240V030 9999 BKN013 BKN038 10/07 Q1020
2026-04-14 08:20:00,METAR EDSB 140820Z 26003KT 220V320 9999 SCT009 SCT026 BKN030 09/07 Q1020
2026-04-14 07:50:00,METAR EDSB 140750Z 25003KT 210V290 9999 FEW009 BKN025 OVC030 09/07 Q1019
2026-04-14 07:20:00,METAR EDSB 140720Z 24004KT 210V270 9000 FEW009 BKN031 08/07 Q1019
2026-04-14 06:50:00,METAR EDSB 140650Z 24003KT 200V280 9999 OVC031 08/07 Q1019
2026-04-14 06:20:00,METAR EDSB 140620Z 22003KT 9999 OVC031 08/07 Q1019
2026-04-14 05:50:00,METAR EDSB 140550Z 21003KT 9999 OVC031 08/07 Q1018
2026-04-14 05:20:00,METAR EDSB 140520Z 23003KT 210V270 9999 OVC030 08/06 Q1018
2026-04-14 04:50:00,METAR EDSB 140450Z 23003KT 210V270 9999 FEW025 BKN031 08/06 Q1018
2026-04-14 04:20:00,METAR EDSB 140420Z 24004KT 210V280 9999 FEW025 BKN038 08/06 Q1017
2026-04-14 03:50:00,METAR EDSB 140350Z 23004KT 210V270 9999 BKN023 OVC035 08/06 Q1017
2026-04-14 03:20:00,METAR EDSB 140320Z 22004KT 9000 OVC020 08/07 Q1017
2026-04-14 02:50:00,METAR EDSB 140250Z 19005KT 8000 OVC018 08/07 Q1017
2026-04-14 02:20:00,METAR EDSB 140220Z AUTO 19006KT 9999 // OVC018/// 08/07 Q1016
2026-04-14 01:50:00,METAR EDSB 140150Z AUTO 21005KT 9999 // FEW010/// OVC017/// 08/07 Q1016
2026-04-14 01:20:00,METAR EDSB 140120Z AUTO 21005KT 9000 // SCT010/// OVC016/// 08/07 Q1016
2026-04-14 00:50:00,METAR EDSB 140050Z AUTO 20006KT 9000 // BKN008/// OVC016/// 08/07 Q1016
2026-04-14 00:20:00,METAR EDSB 140020Z AUTO 19006KT 9000 // BKN007/// OVC032/// 08/07 Q1016
2026-04-13 23:50:00,METAR EDSB 132350Z AUTO 21005KT 9999 // FEW007/// OVC030/// 08/07 Q1016
2026-04-13 23:20:00,METAR EDSB 132320Z AUTO 24004KT 200V260 9999 // OVC026/// 08/07 Q1015
2026-04-13 22:50:00,METAR EDSB 132250Z AUTO 25005KT 210V290 9000 // BKN021/// OVC030/// 08/07 Q1015
2026-04-13 22:20:00,METAR EDSB 132220Z AUTO 25004KT 210V290 9000 // FEW007/// OVC017/// 09/08 Q1015
2026-04-13 21:50:00,METAR EDSB 132150Z AUTO 25004KT 220V310 5000 // SCT005/// BKN018/// OVC021/// 09/08 Q1015
2026-04-13 21:20:00,METAR EDSB 132120Z AUTO 25005KT 210V280 6000 // FEW006/// BKN015/// OVC022/// 09/08 Q1014
2026-04-13 20:50:00,METAR EDSB 132050Z 24005KT 210V270 6000 -RA SCT004 BKN015 OVC019 09/08 Q1014
2026-04-13 20:20:00,METAR EDSB 132020Z 25005KT 210V280 7000 -RA FEW005 BKN017 OVC024 09/08 Q1014
2026-04-13 19:50:00,METAR EDSB 131950Z 25005KT 220V280 9999 -RA FEW006 BKN019 OVC027 09/08 Q1014
2026-04-13 19:20:00,METAR EDSB 131920Z 23004KT 200V260 9999 -RA FEW007 OVC024 09/08 Q1013
2026-04-13 18:50:00,METAR EDSB 131850Z 22004KT 9999 -RA FEW007 SCT018 OVC022 09/08 Q1013
2026-04-13 18:20:00,METAR EDSB 131820Z 23004KT 190V250 9999 -RA SCT006 BKN024 OVC029 09/09 Q1012
2026-04-13 17:50:00,METAR EDSB 131750Z 24003KT 210V290 9999 FEW005 BKN007 OVC019 09/09 Q1012
2026-04-13 17:20:00,METAR EDSB 131720Z 23003KT 200V270 9999 SCT006 OVC020 09/09 Q1012
2026-04-13 16:50:00,METAR EDSB 131650Z 24004KT 210V270 9999 FEW005 SCT014 OVC016 09/09 Q1012
2026-04-13 16:20:00,METAR EDSB 131620Z 24003KT 210V280 7000 FEW005 SCT008 OVC012 09/09 Q1011
2026-04-13 15:50:00,METAR EDSB 131550Z 22004KT 5000 BR SCT004 BKN010 OVC014 09/09 Q1011
2026-04-13 15:20:00,METAR EDSB 131520Z 21005KT 4000 -DZ BR SCT004 OVC015 10/09 Q1011
2026-04-13 14:50:00,METAR EDSB 131450Z 24003KT 200V270 4600 BR FEW006 SCT010 OVC013 09/08 Q1011
2026-04-13 14:20:00,METAR EDSB 131420Z 25003KT 190V310 9999 VCSH FEW009 OVC012 10/08 Q1011
2026-04-13 13:50:00,METAR EDSB 131350Z 29003KT 260V320 9000 FEW008 OVC012 10/08 Q1011
2026-04-13 13:20:00,METAR EDSB 131320Z 27003KT 230V320 9999 SCT009 OVC011 10/08 Q1011
2026-04-13 12:50:00,METAR EDSB 131250Z VRB02KT 9999 BKN008 OVC010 10/08 Q1011
2026-04-13 12:20:00,METAR EDSB 131220Z VRB02KT 9999 OVC009 10/08 Q1010
2026-04-13 11:50:00,METAR EDSB 131150Z 35003KT 330V040 9999 BKN007 OVC010 09/08 Q1010
2026-04-13 11:20:00,METAR EDSB 131120Z 35005KT 9000 OVC006 09/08 Q1010
2026-04-13 10:50:00,METAR EDSB 131050Z 03006KT 9999 OVC006 09/08 Q1010
2026-04-13 10:20:00,METAR EDSB 131020Z 03006KT 5000 BR OVC005 09/08 Q1011
2026-04-13 09:50:00,METAR EDSB 130950Z 03007KT 5000 BR OVC005 08/07 Q1011
2026-04-13 09:20:00,METAR EDSB 130920Z 03007KT 5000 BR OVC004 08/07 Q1011
2026-04-13 08:50:00,METAR EDSB 130850Z 02007KT 5000 BR OVC004 08/07 Q1011
2026-04-13 08:20:00,METAR EDSB 130820Z 01007KT 5000 -DZ BR OVC004 08/07 Q1010
2026-04-13 07:50:00,METAR EDSB 130750Z 02006KT 5000 -DZ BR OVC004 08/07 Q1010
2026-04-13 07:20:00,METAR EDSB 130720Z 01006KT 7000 -DZ OVC004 07/07 Q1011
2026-04-13 06:50:00,METAR EDSB 130650Z 01008KT 8000 -DZ OVC005 08/07 Q1010
2026-04-13 06:20:00,METAR EDSB 130620Z 02006KT 6000 -DZ OVC005 08/07 Q1011
2026-04-13 05:50:00,METAR EDSB 130550Z 02006KT 6000 -DZ BKN010 BKN014 OVC034 08/07 Q1011
2026-04-13 05:20:00,METAR EDSB 130520Z 02006KT 4800 -DZ BR OVC014 08/07 Q1011
2026-04-13 04:50:00,METAR EDSB 130450Z 02004KT 7000 -RA OVC014 08/07 Q1011
2026-04-13 04:20:00,METAR EDSB 130420Z 03005KT 9000 -DZ OVC016 08/07 Q1011
2026-04-13 03:50:00,METAR EDSB 130350Z 03006KT 9000 OVC016 08/07 Q1011
2026-04-13 03:20:00,METAR EDSB 130320Z 02007KT 9000 BKN019 OVC029 08/07 Q1011
2026-04-13 02:50:00,METAR EDSB 130250Z AUTO 03006KT 9999 // BKN021/// OVC036/// 08/07 Q1011
2026-04-13 02:20:00,METAR EDSB 130220Z AUTO 02008KT 9999 // FEW021/// OVC036/// 08/07 Q1011
2026-04-13 01:50:00,METAR EDSB 130150Z AUTO 02008KT 9999 // FEW023/// OVC034/// 07/06 Q1012
2026-04-13 01:20:00,METAR EDSB 130120Z AUTO 02008KT 9999 // FEW025/// OVC033/// 08/06 Q1012
2026-04-13 00:50:00,METAR EDSB 130050Z AUTO 04007KT 9999 // FEW027/// OVC037/// 08/06 Q1012
2026-04-13 00:20:00,METAR EDSB 130020Z AUTO 03009KT 9999 // SCT028/// SCT032/// OVC044/// 08/06 Q1012
2026-04-12 23:50:00,METAR EDSB 122350Z AUTO 03008KT 9999 // FEW035/// OVC045/// 08/06 Q1013
2026-04-12 23:20:00,METAR EDSB 122320Z AUTO 02008KT 9999 // OVC048/// 08/05 Q1013
2026-04-12 22:50:00,METAR EDSB 122250Z AUTO 03007KT 9999 // OVC053/// 08/05 Q1013
2026-04-12 22:20:00,METAR EDSB 122220Z AUTO 02006KT 9999 // OVC055/// 07/06 Q1013
2026-04-12 21:50:00,METAR EDSB 122150Z 03006KT 9999 OVC059 08/06 Q1014
2026-04-12 21:20:00,METAR EDSB 122120Z 04005KT CAVOK 08/06 Q1014
2026-04-12 20:50:00,METAR EDSB 122050Z 01004KT CAVOK 08/06 Q1014
2026-04-12 20:20:00,METAR EDSB 122020Z 36006KT CAVOK 08/06 Q1014
2026-04-12 19:50:00,METAR EDSB 121950Z 35004KT 9999 -RA NSC 08/05 Q1015
2026-04-12 19:20:00,METAR EDSB 121920Z 36005KT 9999 -RA NSC 08/05 Q1015
2026-04-12 18:50:00,METAR EDSB 121850Z 36004KT CAVOK 07/06 Q1015
2026-04-12 18:20:00,METAR EDSB 121820Z 01005KT 9999 -RA NSC 07/05 Q1015
2026-04-12 17:50:00,METAR EDSB 121750Z 02003KT 350V050 9999 -RA FEW049 07/05 Q1015
2026-04-12 17:20:00,METAR EDSB 121720Z 08005KT 9999 -RA NSC 08/04 Q1015
2026-04-12 16:50:00,METAR EDSB 121650Z 08005KT 9999 -RA OVC049 08/05 Q1015
2026-04-12 16:20:00,METAR EDSB 121620Z 07005KT 040V100 9999 -RA OVC057 09/03 Q1016
2026-04-12 15:50:00,METAR EDSB 121550Z 07004KT 9999 -RA FEW023 09/05 Q1016
2026-04-12 14:50:00,METAR EDSB 121450Z 07003KT 040V120 9999 -RA FEW035 SCT042 10/05 Q1016
2026-04-12 14:20:00,METAR EDSB 121420Z 08005KT 050V110 9999 FEW020 10/05 Q1016
2026-04-12 13:50:00,METAR EDSB 121350Z 08005KT 050V130 9999 SCT020 10/06 Q1016
2026-04-12 13:20:00,METAR EDSB 121320Z 06004KT 360V150 9999 BKN021 10/05 Q1016
2026-04-12 12:50:00,METAR EDSB 121250Z 08004KT 030V120 9999 FEW020 BKN049 10/05 Q1016
2026-04-12 12:20:00,METAR EDSB 121220Z 07004KT 020V100 9999 FEW019 BKN048 10/06 Q1017
2026-04-12 11:50:00,METAR EDSB 121150Z 08004KT 050V110 9999 SCT020 OVC049 10/05 Q1017
2026-04-12 11:20:00,METAR EDSB 121120Z 01003KT 340V070 9999 SCT021 BKN048 09/05 Q1017
2026-04-12 10:50:00,METAR EDSB 121050Z 36003KT 300V040 9999 FEW015 SCT048 09/06 Q1017
2026-04-12 10:20:00,METAR EDSB 121020Z 36003KT 320V040 9999 SCT015 BKN043 09/05 Q1017
2026-04-12 09:50:00,METAR EDSB 120950Z VRB02KT 9999 SCT012 BKN044 09/06 Q1017
2026-04-12 09:20:00,METAR EDSB 120920Z VRB01KT 9999 BKN047 09/06 Q1017
2026-04-12 08:50:00,METAR EDSB 120850Z VRB02KT 9999 OVC045 09/06 Q1018
2026-04-12 08:20:00,METAR EDSB 120820Z 19004KT 160V220 9999 OVC045 08/06 Q1018
2026-04-12 07:50:00,METAR EDSB 120750Z 21003KT 160V250 9999 OVC042 08/07 Q1018
2026-04-12 07:20:00,METAR EDSB 120720Z 21004KT 9999 OVC041 08/07 Q1018
2026-04-12 06:50:00,METAR EDSB 120650Z 16004KT 9999 OVC037 08/07 Q1017
2026-04-12 06:20:00,METAR EDSB 120620Z 12004KT 9999 OVC034 08/07 Q1017
2026-04-12 05:50:00,METAR EDSB 120550Z 20006KT 9999 OVC027 08/06 Q1018
2026-04-12 05:20:00,METAR EDSB 120520Z 20004KT 9999 -RA FEW010 OVC024 08/07 Q1017
2026-04-12 04:50:00,METAR EDSB 120450Z 20005KT 9999 -RA BKN019 OVC026 08/06 Q1017 RERA
2026-04-12 04:20:00,METAR EDSB 120420Z 22005KT 9999 RA FEW010 BKN018 OVC023 08/07 Q1017
2026-04-12 03:50:00,METAR EDSB 120350Z 22005KT 9999 -RA FEW009 BKN017 OVC022 08/07 Q1016
2026-04-12 03:20:00,METAR EDSB 120320Z 23006KT 9999 -RA BKN008 BKN016 OVC046 08/08 Q1016 RERA
2026-04-12 02:50:00,METAR EDSB 120250Z 21008KT 9999 RA BKN008 OVC047 09/08 Q1016
2026-04-12 02:20:00,METAR EDSB 120220Z AUTO 21007KT 9999 // SCT006/// BKN008/// OVC045/// 09/08 Q1016
2026-04-12 01:50:00,METAR EDSB 120150Z AUTO 24006KT 190V290 6000 // FEW006/// OVC038/// 09/08 Q1015
2026-04-12 01:20:00,METAR EDSB 120120Z AUTO 25009KT 210V290 9999 // SCT007/// BKN038/// OVC050/// 10/09 Q1015
2026-04-12 00:50:00,METAR EDSB 120050Z AUTO 24007KT 200V280 9999 // SCT007/// BKN055/// OVC074/// 11/10 Q1014
2026-04-12 00:20:00,METAR EDSB 120020Z AUTO 23005KT 200V290 9999 // FEW009/// SCT022/// OVC036/// 12/11 Q1014
2026-04-11 23:50:00,METAR EDSB 112350Z AUTO 24005KT 210V280 8000 // FEW021/// BKN029/// OVC074/// 12/12 Q1014
2026-04-11 23:20:00,METAR EDSB 112320Z AUTO 24004KT 210V270 9000 // FEW016/// BKN029/// OVC076/// 13/11 Q1013
2026-04-11 22:50:00,METAR EDSB 112250Z AUTO 24005KT 210V270 8000 // SCT009/// BKN015/// OVC022/// 13/12 Q1013
2026-04-11 22:20:00,METAR EDSB 112220Z AUTO 18006KT 9999 // FEW014/// SCT024/// OVC061/// 14/13 Q1013
2026-04-11 21:50:00,METAR EDSB 112150Z AUTO 20005KT 9999 // BKN061/// OVC069/// 14/13 Q1012
2026-04-11 21:20:00,METAR EDSB 112120Z 24005KT 210V270 7000 RA FEW040 BKN049 14/13 Q1012
2026-04-11 20:50:00,METAR EDSB 112050Z 24005KT 210V270 9999 RA BKN047 OVC053 16/12 Q1012
2026-04-11 20:20:00,METAR EDSB 112020Z 25006KT 220V290 9999 SCT047 16/12 Q1012
2026-04-11 19:50:00,METAR EDSB 111950Z 25004KT CAVOK 16/12 Q1011
2026-04-11 19:20:00,METAR EDSB 111920Z 22004KT 180V240 9999 VCSH FEW045 16/12 Q1011
2026-04-11 18:50:00,METAR EDSB 111850Z 19006KT 9999 -RA FEW047 16/13 Q1011
2026-04-11 18:20:00,METAR EDSB 111820Z 18004KT 150V220 9999 -RA FEW043 17/13 Q1011
2026-04-11 17:50:00,METAR EDSB 111750Z 19004KT 9999 -RA FEW042 17/12 Q1010
2026-04-11 17:20:00,METAR EDSB 111720Z 24005KT 210V270 9999 -RA FEW045 18/11 Q1011
2026-04-11 16:50:00,METAR EDSB 111650Z 21004KT 9999 -RA FEW048 20/10 Q1010
2026-04-11 16:20:00,METAR EDSB 111620Z 25003KT 210V290 9999 VCSH FEW045 21/09 Q1010
2026-04-11 15:50:00,METAR EDSB 111550Z 30004KT 270V340 CAVOK 21/09 Q1010
2026-04-11 15:20:00,METAR EDSB 111520Z 33005KT 280V010 CAVOK 22/09 Q1009
2026-04-11 14:50:00,METAR EDSB 111450Z 35006KT CAVOK 22/10 Q1009
2026-04-11 14:20:00,METAR EDSB 111420Z 01005KT 330V050 CAVOK 22/11 Q1009
2026-04-11 13:50:00,METAR EDSB 111350Z 36005KT 320V040 CAVOK 21/09 Q1010
2026-04-11 13:20:00,METAR EDSB 111320Z 36005KT CAVOK 21/10 Q1010
2026-04-11 12:50:00,METAR EDSB 111250Z 35007KT 320V030 CAVOK 20/11 Q1010
2026-04-11 12:20:00,METAR EDSB 111220Z 01007KT 330V030 CAVOK 19/10 Q1010
2026-04-11 11:50:00,METAR EDSB 111150Z 36006KT 330V050 CAVOK 18/10 Q1011
2026-04-11 11:20:00,METAR EDSB 111120Z 01005KT 310V040 CAVOK 17/09 Q1012
2026-04-11 10:50:00,METAR EDSB 111050Z 03004KT 340V090 CAVOK 16/10 Q1012
2026-04-11 10:20:00,METAR EDSB 111020Z 02004KT 320V070 CAVOK 15/08 Q1012
2026-04-11 09:50:00,METAR EDSB 110950Z 02003KT 320V090 CAVOK 14/07 Q1013
2026-04-11 09:20:00,METAR EDSB 110920Z 34003KT 270V030 CAVOK 13/07 Q1013
2026-04-11 08:50:00,METAR EDSB 110850Z 36003KT 260V060 CAVOK 12/06 Q1013
2026-04-11 08:20:00,METAR EDSB 110820Z VRB02KT CAVOK 11/07 Q1013
2026-04-11 07:50:00,METAR EDSB 110750Z VRB02KT CAVOK 10/06 Q1013
2026-04-11 07:20:00,METAR EDSB 110720Z 03004KT 350V070 CAVOK 08/05 Q1014
2026-04-11 06:50:00,METAR EDSB 110650Z 04004KT CAVOK 07/04 Q1014
2026-04-11 06:20:00,METAR EDSB 110620Z 05003KT CAVOK 06/04 Q1014
2026-04-11 05:50:00,METAR EDSB 110550Z 36002KT CAVOK 05/04 Q1014
2026-04-11 05:20:00,METAR EDSB 110520Z VRB01KT CAVOK 04/02 Q1014
2026-04-11 04:50:00,METAR EDSB 110450Z VRB01KT CAVOK 05/03 Q1014
2026-04-11 04:20:00,METAR EDSB 110420Z 34002KT CAVOK 05/03 Q1014
2026-04-11 03:50:00,METAR EDSB 110350Z VRB02KT CAVOK 04/03 Q1014
2026-04-11 03:20:00,METAR EDSB 110320Z VRB01KT CAVOK 04/02 Q1014
2026-04-11 02:50:00,METAR EDSB 110250Z VRB01KT CAVOK 05/04 Q1014
2026-04-11 02:20:00,METAR EDSB 110220Z AUTO VRB01KT 9999 // FEW140/// 06/03 Q1014
2026-04-11 01:50:00,METAR EDSB 110150Z AUTO VRB02KT 9999 // FEW150/// 06/03 Q1014
2026-04-11 01:20:00,METAR EDSB 110120Z AUTO 00000KT 9999 // NCD 07/03 Q1015
2026-04-11 00:50:00,METAR EDSB 110050Z AUTO 00000KT 9999 // NCD 07/04 Q1015
2026-04-11 00:20:00,METAR EDSB 110020Z AUTO 35001KT 9999 // NCD 08/03 Q1015
2026-04-10 23:50:00,METAR EDSB 102350Z AUTO VRB02KT 9999 // SCT140/// 09/03 Q1015
2026-04-10 23:20:00,METAR EDSB 102320Z AUTO 02005KT 9999 // FEW140/// BKN160/// 08/03 Q1016
2026-04-10 22:50:00,METAR EDSB 102250Z AUTO 03006KT 9999 // BKN150/// 09/03 Q1016
2026-04-10 22:20:00,METAR EDSB 102220Z AUTO 04006KT 9999 // SCT100/// 08/03 Q1016
2026-04-10 21:50:00,METAR EDSB 102150Z AUTO 02006KT 9999 // BKN110/// 09/03 Q1016
2026-04-10 21:20:00,METAR EDSB 102120Z AUTO 03007KT 9999 // BKN110/// 09/03 Q1017
2026-04-10 20:50:00,METAR EDSB 102050Z 03006KT CAVOK 09/04 Q1017
2026-04-10 20:20:00,METAR EDSB 102020Z 02007KT CAVOK 09/04 Q1017
2026-04-10 19:50:00,METAR EDSB 101950Z 02005KT CAVOK 10/04 Q1017
2026-04-10 19:20:00,METAR EDSB 101920Z 04003KT 010V070 CAVOK 11/04 Q1017
2026-04-10 18:50:00,METAR EDSB 101850Z 05006KT CAVOK 11/05 Q1017
2026-04-10 18:20:00,METAR EDSB 101820Z 06004KT CAVOK 12/04 Q1017
2026-04-10 17:50:00,METAR EDSB 101750Z 07005KT CAVOK 12/05 Q1017
2026-04-10 17:20:00,METAR EDSB 101720Z 08003KT 040V100 CAVOK 13/05 Q1018
2026-04-10 16:50:00,METAR EDSB 101650Z 03003KT CAVOK 13/06 Q1018
2026-04-10 16:20:00,METAR EDSB 101620Z 01003KT CAVOK 13/06 Q1018
2026-04-10 15:50:00,METAR EDSB 101550Z 04003KT 350V100 9999 FEW035 13/06 Q1018
2026-04-10 15:20:00,METAR EDSB 101520Z VRB01KT CAVOK 13/06 Q1018
2026-04-10 14:50:00,METAR EDSB 101450Z VRB02KT CAVOK 13/05 Q1018
2026-04-10 14:20:00,METAR EDSB 101420Z VRB02KT CAVOK 13/05 Q1018
2026-04-10 13:50:00,METAR EDSB 101350Z VRB02KT CAVOK 13/06 Q1018
2026-04-10 13:20:00,METAR EDSB 101320Z 03003KT 340V080 9999 FEW035 13/05 Q1018
2026-04-10 12:50:00,METAR EDSB 101250Z VRB01KT 9999 FEW033 13/05 Q1019
2026-04-10 12:20:00,METAR EDSB 101220Z 05005KT 340V110 9999 SCT032 13/06 Q1019
2026-04-10 11:50:00,METAR EDSB 101150Z 04006KT 010V080 9999 BKN030 13/06 Q1019
2026-04-10 11:20:00,METAR EDSB 101120Z 06007KT 030V090 9999 BKN030 12/05 Q1019
2026-04-10 10:50:00,METAR EDSB 101050Z 06008KT 030V090 9999 BKN039 12/05 Q1019
2026-04-10 10:20:00,METAR EDSB 101020Z 06006KT 030V090 9999 BKN035 12/05 Q1019
2026-04-10 09:50:00,METAR EDSB 100950Z 08006KT 9999 OVC030 11/07 Q1018
2026-04-10 09:20:00,METAR EDSB 100920Z 09007KT 9999 OVC029 11/07 Q1018
2026-04-10 08:50:00,METAR EDSB 100850Z 09007KT 9999 VCSH FEW020 OVC029 10/08 Q1019
2026-04-10 08:20:00,METAR EDSB 100820Z 03012KT 9999 -RA FEW009 BKN018 OVC022 10/08 Q1019
2026-04-10 07:50:00,METAR EDSB 100750Z 02011KT 320V040 9000 VCSH FEW009 OVC016CB 12/09 Q1018
2026-04-10 07:20:00,METAR EDSB 100720Z 21006KT 9999 FEW012 OVC018 11/10 Q1017
2026-04-10 06:50:00,METAR EDSB 100650Z 21006KT 9999 OVC013 11/10 Q1017
2026-04-10 06:20:00,METAR EDSB 100620Z 21006KT 9999 BKN017 OVC032 11/10 Q1016
2026-04-10 05:50:00,METAR EDSB 100550Z 18006KT 9999 BKN020 OVC032 11/09 Q1016
2026-04-10 05:20:00,METAR EDSB 100520Z 20006KT 9999 BKN018 BKN022 11/09 Q1015
2026-04-10 04:50:00,METAR EDSB 100450Z 24005KT 9999 SCT024 11/08 Q1015
2026-04-10 04:20:00,METAR EDSB 100420Z 27004KT 230V320 CAVOK 11/09 Q1015
2026-04-10 03:50:00,METAR EDSB 100350Z 27003KT 220V320 CAVOK 10/08 Q1014
2026-04-10 03:20:00,METAR EDSB 100320Z 16008KT 9999 -RA NSC 10/08 Q1015
2026-04-10 02:50:00,METAR EDSB 100250Z COR AUTO 17007KT 140V200 CAVOK 10/08 Q1016
2026-04-10 02:20:00,METAR EDSB 100220Z AUTO 17005KT 9999 // FEW062/// BKN070/// OVC081/// 11/07 Q1016
2026-04-10 01:50:00,METAR EDSB 100150Z AUTO 29007KT 240V330 9999 // BKN070/// OVC079/// 12/05 Q1016
2026-04-10 01:20:00,METAR EDSB 100120Z AUTO 23003KT 200V260 9999 // SCT066/// OVC100/// 10/04 Q1015
2026-04-10 00:50:00,METAR EDSB 100050Z AUTO 21003KT 9999 // OVC100/// 10/04 Q1015
2026-04-10 00:20:00,METAR EDSB 100020Z AUTO 22003KT 9999 // BKN110/// BKN190/// 09/04 Q1015
2026-04-09 23:50:00,METAR EDSB 092350Z AUTO 21003KT 9999 // BKN110/// 09/04 Q1015
2026-04-09 23:20:00,METAR EDSB 092320Z AUTO 20003KT 9999 // FEW220/// 09/04 Q1015
2026-04-09 22:50:00,METAR EDSB 092250Z AUTO 21002KT 9999 // FEW220/// 10/03 Q1016
2026-04-09 22:20:00,METAR EDSB 092220Z AUTO 00000KT 9999 // FEW150/// SCT220/// 10/04 Q1016
2026-04-09 21:50:00,METAR EDSB 092150Z AUTO 23003KT 9999 // NCD 10/03 Q1016
2026-04-09 21:20:00,METAR EDSB 092120Z AUTO 20004KT 9999 // NCD 10/02 Q1016
2026-04-09 20:50:00,METAR EDSB 092050Z VRB02KT CAVOK 12/03 Q1016
2026-04-09 20:20:00,METAR EDSB 092020Z 00000KT CAVOK 12/04 Q1016
2026-04-09 19:50:00,METAR EDSB 091950Z 03003KT CAVOK 15/02 Q1016
2026-04-09 19:20:00,METAR EDSB 091920Z 03003KT CAVOK 15/03 Q1016
2026-04-09 18:50:00,METAR EDSB 091850Z 03003KT CAVOK 15/03 Q1016
2026-04-09 18:20:00,METAR EDSB 091820Z 01001KT CAVOK 17/03 Q1016
2026-04-09 17:50:00,METAR EDSB 091750Z 36002KT CAVOK 19/02 Q1016
2026-04-09 17:20:00,METAR EDSB 091720Z 02004KT CAVOK 20/02 Q1016
2026-04-09 16:50:00,METAR EDSB 091650Z 02003KT CAVOK 20/02 Q1016
2026-04-09 16:20:00,METAR EDSB 091620Z 03003KT 360V080 CAVOK 21/00 Q1016
2026-04-09 15:50:00,METAR EDSB 091550Z 03003KT 350V060 CAVOK 20/M00 Q1016
2026-04-09 15:20:00,METAR EDSB 091520Z 03004KT 340V070 CAVOK 20/M00 Q1017
2026-04-09 14:50:00,METAR EDSB 091450Z 04005KT 010V080 CAVOK 20/02 Q1017
2026-04-09 14:20:00,METAR EDSB 091420Z 03004KT 360V080 CAVOK 20/02 Q1017
2026-04-09 13:50:00,METAR EDSB 091350Z 35004KT 320V030 CAVOK 20/04 Q1018
2026-04-09 13:20:00,METAR EDSB 091320Z 36003KT 290V050 CAVOK 19/03 Q1018
2026-04-09 12:50:00,METAR EDSB 091250Z 03003KT 290V100 CAVOK 19/03 Q1018
2026-04-09 12:20:00,METAR EDSB 091220Z 03004KT 320V100 CAVOK 18/03 Q1019
2026-04-09 11:50:00,METAR EDSB 091150Z 34005KT 310V050 CAVOK 16/02 Q1019
2026-04-09 11:20:00,METAR EDSB 091120Z 36004KT 310V070 CAVOK 16/03 Q1019
2026-04-09 10:50:00,METAR EDSB 091050Z 01005KT 330V050 CAVOK 15/03 Q1020
2026-04-09 10:20:00,METAR EDSB 091020Z 36005KT 320V050 CAVOK 14/02 Q1020
2026-04-09 09:50:00,METAR EDSB 090950Z 01006KT CAVOK 13/02 Q1020
2026-04-09 09:20:00,METAR EDSB 090920Z 01005KT CAVOK 13/03 Q1021
2026-04-09 08:50:00,METAR EDSB 090850Z 03006KT 350V050 CAVOK 11/03 Q1021
2026-04-09 08:20:00,METAR EDSB 090820Z 03006KT 360V060 CAVOK 11/01 Q1021
2026-04-09 07:50:00,METAR EDSB 090750Z 03006KT CAVOK 09/01 Q1021
2026-04-09 07:20:00,METAR EDSB 090720Z 03005KT CAVOK 08/01 Q1021
2026-04-09 06:50:00,METAR EDSB 090650Z 00000KT CAVOK 07/01 Q1021
2026-04-09 06:20:00,METAR EDSB 090620Z 03002KT CAVOK 06/00 Q1020
2026-04-09 05:50:00,METAR EDSB 090550Z 00000KT CAVOK 05/M01 Q1020
2026-04-09 05:20:00,METAR EDSB 090520Z 04002KT CAVOK 04/M01 Q1020
2026-04-09 04:50:00,METAR EDSB 090450Z 03003KT CAVOK 04/M00 Q1020
2026-04-09 04:20:00,METAR EDSB 090420Z 00000KT CAVOK 04/M00 Q1020
2026-04-09 03:50:00,METAR EDSB 090350Z 00000KT CAVOK 04/M00 Q1020
2026-04-09 03:20:00,METAR EDSB 090320Z 00000KT CAVOK 05/M00 Q1020
2026-04-09 02:50:00,METAR EDSB 090250Z AUTO 31002KT 9999 // NCD 05/M00 Q1021
2026-04-09 02:20:00,METAR EDSB 090220Z AUTO VRB01KT 9999 // NCD 06/00 Q1021
2026-04-09 01:50:00,METAR EDSB 090150Z AUTO 00000KT 9999 // NCD 07/M01 Q1021
2026-04-09 01:20:00,METAR EDSB 090120Z AUTO 00000KT 9999 // NCD 08/01 Q1021
2026-04-09 00:50:00,METAR EDSB 090050Z AUTO 35002KT 9999 // NCD 08/02 Q1021
2026-04-09 00:20:00,METAR EDSB 090020Z AUTO VRB01KT 9999 // NCD 09/00 Q1021
2026-04-08 23:50:00,METAR EDSB 082350Z AUTO 35003KT 9999 // FEW240/// 10/M00 Q1021
2026-04-08 23:20:00,METAR EDSB 082320Z AUTO VRB02KT 9999 // NCD 10/M02 Q1021
2026-04-08 22:50:00,METAR EDSB 082250Z AUTO 03005KT 9999 // NCD 09/M02 Q1021
2026-04-08 22:20:00,METAR EDSB 082220Z AUTO 02007KT 9999 // NCD 11/M01 Q1021
2026-04-08 21:50:00,METAR EDSB 082150Z AUTO 01007KT 9999 // NCD 12/M02 Q1021
2026-04-08 21:20:00,METAR EDSB 082120Z AUTO 03006KT 9999 // NCD 13/M01 Q1021
2026-04-08 20:50:00,METAR EDSB 082050Z 01008KT CAVOK 14/M01 Q1021
2026-04-08 20:20:00,METAR EDSB 082020Z 03007KT CAVOK 13/00 Q1022
2026-04-08 19:50:00,METAR EDSB 081950Z 04009KT CAVOK 14/M00 Q1022
2026-04-08 19:20:00,METAR EDSB 081920Z 03010KT CAVOK 15/M01 Q1022
2026-04-08 18:50:00,METAR EDSB 081850Z 03010KT CAVOK 16/M01 Q1022
2026-04-08 18:20:00,METAR EDSB 081820Z 02009KT CAVOK 16/M01 Q1021
2026-04-08 17:50:00,METAR EDSB 081750Z 02010KT CAVOK 18/M00 Q1021
2026-04-08 17:20:00,METAR EDSB 081720Z 02009KT CAVOK 19/01 Q1021
2026-04-08 16:50:00,METAR EDSB 081650Z 01009KT CAVOK 20/02 Q1021
2026-04-08 16:20:00,METAR EDSB 081620Z 01010KT CAVOK 20/02 Q1021
2026-04-08 15:50:00,METAR EDSB 081550Z 02011KT CAVOK 20/02 Q1021
2026-04-08 14:50:00,METAR EDSB 081450Z 02012KT CAVOK 20/03 Q1021
2026-04-08 14:20:00,METAR EDSB 081420Z 02013KT CAVOK 21/03 Q1022
2026-04-08 13:50:00,METAR EDSB 081350Z 01012KT CAVOK 21/04 Q1022
2026-04-08 13:20:00,METAR EDSB 081320Z 01013KT CAVOK 20/03 Q1022
2026-04-08 12:50:00,METAR EDSB 081250Z 01012KT CAVOK 20/05 Q1023
2026-04-08 12:20:00,METAR EDSB 081220Z 01012KT 330V040 CAVOK 19/03 Q1023
2026-04-08 11:50:00,METAR EDSB 081150Z 02010KT CAVOK 19/03 Q1023
2026-04-08 11:20:00,METAR EDSB 081120Z 01011KT 340V040 CAVOK 18/03 Q1024
2026-04-08 10:50:00,METAR EDSB 081050Z 01010KT 340V040 CAVOK 18/03 Q1024
2026-04-08 10:20:00,METAR EDSB 081020Z 01009KT 340V050 CAVOK 17/04 Q1024
2026-04-08 09:50:00,METAR EDSB 080950Z 01008KT CAVOK 16/03 Q1024
2026-04-08 09:20:00,METAR EDSB 080920Z 01007KT 340V060 CAVOK 15/03 Q1024
2026-04-08 08:50:00,METAR EDSB 080850Z 01005KT 330V050 CAVOK 14/03 Q1024
2026-04-08 08:20:00,METAR EDSB 080820Z 01007KT CAVOK 12/02 Q1024
2026-04-08 07:50:00,METAR EDSB 080750Z 02007KT CAVOK 11/02 Q1024
2026-04-08 07:20:00,METAR EDSB 080720Z 02007KT CAVOK 10/02 Q1024
2026-04-08 06:50:00,METAR EDSB 080650Z 02007KT CAVOK 10/02 Q1024
2026-04-08 06:20:00,METAR EDSB 080620Z 03006KT CAVOK 08/01 Q1024
2026-04-08 05:50:00,METAR EDSB 080550Z 01004KT CAVOK 08/01 Q1024
2026-04-08 05:20:00,METAR EDSB 080520Z VRB02KT CAVOK 07/01 Q1024
2026-04-08 04:50:00,METAR EDSB 080450Z 02005KT CAVOK 07/01 Q1024
2026-04-08 04:20:00,METAR EDSB 080420Z 01005KT CAVOK 08/02 Q1024
2026-04-08 03:50:00,METAR EDSB 080350Z 35004KT CAVOK 08/01 Q1023
2026-04-08 03:20:00,METAR EDSB 080320Z 02006KT CAVOK 08/01 Q1023
2026-04-08 02:50:00,METAR EDSB 080250Z AUTO 02006KT CAVOK 08/01 Q1023
2026-04-08 02:20:00,METAR EDSB 080220Z AUTO 02007KT CAVOK 08/01 Q1023
2026-04-08 01:50:00,METAR EDSB 080150Z AUTO 02007KT CAVOK 08/02 Q1023
2026-04-08 01:20:00,METAR EDSB 080120Z AUTO 02008KT CAVOK 10/02 Q1023
2026-04-08 00:50:00,METAR EDSB 080050Z AUTO 02007KT CAVOK 09/02 Q1023
2026-04-08 00:20:00,METAR EDSB 080020Z AUTO 02005KT 9999 2100 NCD 10/02 Q1023
2026-04-07 23:50:00,METAR EDSB 072350Z AUTO 03007KT CAVOK 09/02 Q1023
2026-04-07 23:20:00,METAR EDSB 072320Z AUTO 02006KT CAVOK 11/02 Q1023
2026-04-07 22:50:00,METAR EDSB 072250Z AUTO 03006KT CAVOK 11/02 Q1023
2026-04-07 22:20:00,METAR EDSB 072220Z AUTO 02006KT CAVOK 12/02 Q1023
2026-04-07 21:50:00,METAR EDSB 072150Z AUTO 02007KT CAVOK 12/02 Q1023
2026-04-07 21:20:00,METAR EDSB 072120Z 02007KT CAVOK 12/02 Q1023
2026-04-07 20:50:00,METAR EDSB 072050Z 02007KT CAVOK 14/02 Q1023
2026-04-07 20:20:00,METAR EDSB 072020Z 03008KT CAVOK 13/03 Q1023
2026-04-07 19:50:00,METAR EDSB 071950Z 02008KT CAVOK 13/03 Q1023
2026-04-07 19:20:00,METAR EDSB 071920Z 01006KT CAVOK 14/03 Q1023
2026-04-07 18:50:00,METAR EDSB 071850Z 02006KT CAVOK 15/02 Q1022
2026-04-07 18:20:00,METAR EDSB 071820Z 02007KT CAVOK 15/02 Q1022
2026-04-07 17:50:00,METAR EDSB 071750Z 03008KT CAVOK 17/02 Q1022
2026-04-07 17:20:00,METAR EDSB 071720Z 03008KT CAVOK 18/03 Q1022
2026-04-07 16:50:00,METAR EDSB 071650Z 02009KT CAVOK 19/03 Q1022
2026-04-07 16:20:00,METAR EDSB 071620Z 02010KT CAVOK 19/04 Q1022
2026-04-07 15:50:00,METAR EDSB 071550Z 02010KT CAVOK 20/04 Q1022
2026-04-07 15:20:00,METAR EDSB 071520Z 03010KT 360V060 CAVOK 20/05 Q1022
2026-04-07 14:50:00,METAR EDSB 071450Z 01012KT CAVOK 20/05 Q1022
2026-04-07 14:20:00,METAR EDSB 071420Z 02011KT CAVOK 19/05 Q1023
2026-04-07 13:50:00,METAR EDSB 071350Z 01012KT CAVOK 19/05 Q1023
2026-04-07 13:20:00,METAR EDSB 071320Z 02011KT 340V040 CAVOK 19/05 Q1023
2026-04-07 12:50:00,METAR EDSB 071250Z 02011KT 350V050 CAVOK 19/04 Q1023
2026-04-07 12:20:00,METAR EDSB 071220Z 01010KT 340V040 CAVOK 19/05 Q1024
2026-04-07 11:50:00,METAR EDSB 071150Z 36009KT 330V040 CAVOK 18/05 Q1024
2026-04-07 11:20:00,METAR EDSB 071120Z 01009KT 340V040 CAVOK 17/04 Q1024
2026-04-07 10:50:00,METAR EDSB 071050Z 01008KT 330V050 CAVOK 16/05 Q1024
2026-04-07 10:20:00,METAR EDSB 071020Z 36007KT 330V050 CAVOK 15/05 Q1024
2026-04-07 09:50:00,METAR EDSB 070950Z 36005KT 310V050 CAVOK 13/03 Q1025
2026-04-07 09:20:00,METAR EDSB 070920Z 36006KT 310V040 CAVOK 13/04 Q1025
2026-04-07 08:50:00,METAR EDSB 070850Z 01003KT 290V050 CAVOK 12/04 Q1025
2026-04-07 08:20:00,METAR EDSB 070820Z 03004KT 350V080 CAVOK 11/03 Q1025
2026-04-07 07:50:00,METAR EDSB 070750Z 02005KT 320V060 CAVOK 10/03 Q1025
2026-04-07 07:20:00,METAR EDSB 070720Z 03005KT 360V070 CAVOK 09/03 Q1025
2026-04-07 06:50:00,METAR EDSB 070650Z 03006KT CAVOK 08/03 Q1025
2026-04-07 06:20:00,METAR EDSB 070620Z 03005KT CAVOK 07/03 Q1025
2026-04-07 05:50:00,METAR EDSB 070550Z 04005KT CAVOK 05/02 Q1024
2026-04-07 05:20:00,METAR EDSB 070520Z 05004KT CAVOK 05/01 Q1024
2026-04-07 04:50:00,METAR EDSB 070450Z 04006KT CAVOK 05/02 Q1024
2026-04-07 04:20:00,METAR EDSB 070420Z 03006KT CAVOK 06/02 Q1024
2026-04-07 03:50:00,METAR EDSB 070350Z 04006KT CAVOK 06/02 Q1024
2026-04-07 03:20:00,METAR EDSB 070320Z 02006KT CAVOK 06/02 Q1024
2026-04-07 02:50:00,METAR EDSB 070250Z 03006KT CAVOK 06/02 Q1024
2026-04-07 02:20:00,METAR EDSB 070220Z AUTO 03004KT 9999 NCD 07/02 Q1024
2026-04-07 01:50:00,METAR EDSB 070150Z AUTO 02006KT 9999 NCD 06/01 Q1024
2026-04-07 01:20:00,METAR EDSB 070120Z AUTO 03005KT 9999 NCD 07/02 Q1024
2026-04-07 00:50:00,METAR EDSB 070050Z AUTO 03006KT 9999 NCD 08/01 Q1025
2026-04-07 00:20:00,METAR EDSB 070020Z AUTO 02006KT 9999 NCD 09/02 Q1025
2026-04-06 23:50:00,METAR EDSB 062350Z AUTO 01007KT 9999 NCD 09/01 Q1025
2026-04-06 23:20:00,METAR EDSB 062320Z AUTO 01008KT 9999 NCD 09/01 Q1025
2026-04-06 22:50:00,METAR EDSB 062250Z AUTO 01007KT 9999 NCD 10/01 Q1025
2026-04-06 22:20:00,METAR EDSB 062220Z AUTO 02007KT 9999 NCD 10/01 Q1025
2026-04-06 21:50:00,METAR EDSB 062150Z AUTO 03007KT 9999 NCD 09/01 Q1025
2026-04-06 21:20:00,METAR EDSB 062120Z AUTO 02008KT 9999 NCD 10/02 Q1025
2026-04-06 20:50:00,METAR EDSB 062050Z 01008KT CAVOK 11/02 Q1025
2026-04-06 20:20:00,METAR EDSB 062020Z 02008KT CAVOK 11/02 Q1025
2026-04-06 19:50:00,METAR EDSB 061950Z 02006KT CAVOK 11/03 Q1025
2026-04-06 19:20:00,METAR EDSB 061920Z 03006KT CAVOK 12/03 Q1025
2026-04-06 18:50:00,METAR EDSB 061850Z 03006KT CAVOK 12/03 Q1025
2026-04-06 18:20:00,METAR EDSB 061820Z 03007KT CAVOK 12/03 Q1025
2026-04-06 17:50:00,METAR EDSB 061750Z 01004KT CAVOK 15/03 Q1025
2026-04-06 17:20:00,METAR EDSB 061720Z 01005KT CAVOK 16/02 Q1025
2026-04-06 16:50:00,METAR EDSB 061650Z 01004KT CAVOK 17/02 Q1025
2026-04-06 16:20:00,METAR EDSB 061620Z VRB02KT CAVOK 18/01 Q1025
2026-04-06 15:50:00,METAR EDSB 061550Z VRB02KT CAVOK 17/03 Q1025
2026-04-06 14:50:00,METAR EDSB 061450Z VRB04KT CAVOK 17/02 Q1026
2026-04-06 14:20:00,METAR EDSB 061420Z 02004KT 300V070 CAVOK 17/02 Q1026
2026-04-06 13:50:00,METAR EDSB 061350Z 29003KT 210V350 CAVOK 17/02 Q1026
2026-04-06 13:20:00,METAR EDSB 061320Z VRB03KT CAVOK 16/03 Q1027
2026-04-06 12:50:00,METAR EDSB 061250Z VRB03KT CAVOK 16/03 Q1027
2026-04-06 12:20:00,METAR EDSB 061220Z 34004KT 250V060 CAVOK 16/03 Q1027
2026-04-06 11:50:00,METAR EDSB 061150Z VRB03KT CAVOK 15/03 Q1028
2026-04-06 11:20:00,METAR EDSB 061120Z 06004KT 010V120 CAVOK 15/03 Q1028
2026-04-06 10:50:00,METAR EDSB 061050Z 05004KT 010V100 CAVOK 15/02 Q1028
2026-04-06 10:20:00,METAR EDSB 061020Z VRB03KT CAVOK 14/01 Q1028
2026-04-06 09:50:00,METAR EDSB 060950Z VRB02KT CAVOK 14/01 Q1028
2026-04-06 09:20:00,METAR EDSB 060920Z VRB02KT CAVOK 13/M01 Q1028
2026-04-06 08:50:00,METAR EDSB 060850Z 01003KT 290V070 CAVOK 13/00 Q1028
2026-04-06 08:20:00,METAR EDSB 060820Z VRB02KT CAVOK 12/00 Q1028
2026-04-06 07:50:00,METAR EDSB 060750Z VRB02KT CAVOK 12/02 Q1028
2026-04-06 07:20:00,METAR EDSB 060720Z VRB02KT CAVOK 11/02 Q1028
2026-04-06 06:50:00,METAR EDSB 060650Z VRB01KT CAVOK 11/02 Q1028
2026-04-06 06:20:00,METAR EDSB 060620Z 00000KT CAVOK 09/04 Q1028
2026-04-06 05:50:00,METAR EDSB 060550Z 16003KT 120V200 CAVOK 07/03 Q1027
2026-04-06 05:20:00,METAR EDSB 060520Z 00000KT CAVOK 07/03 Q1027
2026-04-06 04:50:00,METAR EDSB 060450Z 13002KT CAVOK 08/04 Q1027
2026-04-06 04:20:00,METAR EDSB 060420Z VRB01KT 9999 SCT049 08/03 Q1027
2026-04-06 03:50:00,METAR EDSB 060350Z 20002KT CAVOK 08/03 Q1027
2026-04-06 03:20:00,METAR EDSB 060320Z VRB02KT CAVOK 10/02 Q1027
2026-04-06 02:50:00,METAR EDSB 060250Z 31004KT 280V340 CAVOK 10/03 Q1027
2026-04-06 02:20:00,METAR EDSB 060220Z AUTO 29005KT 9999 // SCT051/// OVC063/// 11/03 Q1027
2026-04-06 01:50:00,METAR EDSB 060150Z AUTO 26003KT 230V310 9999 // OVC059/// 11/04 Q1027
2026-04-06 01:20:00,METAR EDSB 060120Z AUTO 21004KT 200V260 9999 // BKN059/// 08/04 Q1027
2026-04-06 00:50:00,METAR EDSB 060050Z AUTO 23003KT 9999 // FEW058/// 10/05 Q1026
2026-04-06 00:20:00,METAR EDSB 060020Z AUTO 25002KT 9999 // FEW048/// SCT130/// 11/05 Q1026
2026-04-05 23:50:00,METAR EDSB 052350Z AUTO VRB01KT 9999 // BKN048/// 12/05 Q1026
2026-04-05 23:20:00,METAR EDSB 052320Z AUTO 34003KT 300V010 9999 // BKN045/// BKN140/// 12/07 Q1026
2026-04-05 22:50:00,METAR EDSB 052250Z AUTO 25003KT 9999 // OVC140/// 13/07 Q1025
2026-04-05 22:20:00,METAR EDSB 052220Z AUTO VRB02KT 9999 // FEW046/// OVC140/// 12/07 Q1025
2026-04-05 21:50:00,METAR EDSB 052150Z 26005KT 200V310 9999 SCT036 BKN044 14/07 Q1024
2026-04-05 20:50:00,METAR EDSB 052050Z 22004KT 190V260 9999 SCT045 14/07 Q1024
2026-04-05 20:20:00,METAR EDSB 052020Z 24005KT 190V290 9999 FEW047 14/08 Q1023
2026-04-05 19:50:00,METAR EDSB 051950Z 20006KT CAVOK 13/08 Q1023
2026-04-05 19:20:00,METAR EDSB 051920Z 19005KT 170V240 CAVOK 14/07 Q1023
2026-04-05 18:50:00,METAR EDSB 051850Z 22003KT 170V280 CAVOK 14/07 Q1022
2026-04-05 18:20:00,METAR EDSB 051820Z 25005KT 210V290 CAVOK 15/07 Q1022
2026-04-05 17:50:00,METAR EDSB 051750Z 27007KT 230V310 CAVOK 16/07 Q1022
2026-04-05 17:20:00,METAR EDSB 051720Z 26005KT 210V320 CAVOK 16/08 Q1021
2026-04-05 16:50:00,METAR EDSB 051650Z 26005KT 180V340 CAVOK 16/08 Q1021
2026-04-05 16:20:00,METAR EDSB 051620Z 29008KT 240V330 CAVOK 16/08 Q1021
2026-04-05 15:50:00,METAR EDSB 051550Z 29009G19KT 240V340 CAVOK 16/08 Q1021
2026-04-05 15:20:00,METAR EDSB 051520Z 28008KT 240V330 CAVOK 17/08 Q1020
2026-04-05 14:50:00,METAR EDSB 051450Z 27009KT 230V320 CAVOK 18/08 Q1020
2026-04-05 12:50:00,METAR EDSB 051250Z 26010KT 220V310 CAVOK 19/06 Q1020
2026-04-05 12:20:00,METAR EDSB 051220Z 25012G22KT 220V290 CAVOK 20/06 Q1019
2026-04-05 11:50:00,METAR EDSB 051150Z 26011G21KT 220V300 CAVOK 21/06 Q1019
2026-04-05 11:20:00,METAR EDSB 051120Z 23013KT CAVOK 21/07 Q1019
2026-04-05 10:50:00,METAR EDSB 051050Z 23012G22KT 200V270 CAVOK 20/07 Q1019
2026-04-05 10:20:00,METAR EDSB 051020Z 22015KT CAVOK 20/08 Q1019
2026-04-05 09:50:00,METAR EDSB 050950Z 22015KT 200V260 CAVOK 20/09 Q1019
2026-04-05 09:20:00,METAR EDSB 050920Z 21014KT CAVOK 19/10 Q1019
2026-04-05 08:50:00,METAR EDSB 050850Z 21014KT CAVOK 18/10 Q1019
2026-04-05 08:20:00,METAR EDSB 050820Z 20016KT CAVOK 17/09 Q1018
2026-04-05 07:50:00,METAR EDSB 050750Z 21013KT CAVOK 16/10 Q1018
2026-04-05 07:20:00,METAR EDSB 050720Z 21007KT CAVOK 14/09 Q1018
2026-04-05 06:50:00,METAR EDSB 050650Z 22008KT CAVOK 12/08 Q1018
2026-04-05 06:20:00,METAR EDSB 050620Z 21008KT CAVOK 11/09 Q1018
2026-04-05 05:50:00,METAR EDSB 050550Z 22007KT CAVOK 11/08 Q1018
2026-04-05 05:20:00,METAR EDSB 050520Z 22007KT CAVOK 10/07 Q1018
2026-04-05 04:50:00,METAR EDSB 050450Z 22006KT CAVOK 10/08 Q1017
2026-04-05 04:20:00,METAR EDSB 050420Z 21007KT CAVOK 09/08 Q1017
2026-04-05 03:50:00,METAR EDSB 050350Z 22008KT CAVOK 10/08 Q1018
2026-04-05 03:20:00,METAR EDSB 050320Z 22007KT CAVOK 10/08 Q1018
2026-04-05 02:50:00,METAR EDSB 050250Z AUTO 22007KT 9999 // NCD 10/08 Q1018
2026-04-05 02:20:00,METAR EDSB 050220Z AUTO 24006KT 9999 // NCD 10/08 Q1018
2026-04-05 01:50:00,METAR EDSB 050150Z AUTO 22005KT 9999 // NCD 08/07 Q1018
2026-04-05 01:20:00,METAR EDSB 050120Z AUTO 22005KT 9999 // NCD 08/06 Q1019
2026-04-05 00:50:00,METAR EDSB 050050Z AUTO 23004KT 200V260 9999 // NCD 09/08 Q1019
2026-04-05 00:20:00,METAR EDSB 050020Z AUTO 22004KT 9999 // FEW210/// 09/08 Q1019
2026-04-04 23:50:00,METAR EDSB 042350Z AUTO 23006KT 9999 // SCT230/// 11/08 Q1020
2026-04-04 23:20:00,METAR EDSB 042320Z AUTO 22006KT 9999 // BKN170/// 10/08 Q1020
2026-04-04 22:50:00,METAR EDSB 042250Z AUTO 22006KT 9999 // SCT180/// 10/08 Q1020
2026-04-04 22:20:00,METAR EDSB 042220Z AUTO 22006KT 9999 // SCT190/// 10/08 Q1020
2026-04-04 21:50:00,METAR EDSB 042150Z AUTO 23005KT 9999 // FEW200/// 10/07 Q1020
2026-04-04 21:20:00,METAR EDSB 042120Z 21005KT CAVOK 11/08 Q1020
2026-04-04 20:50:00,METAR EDSB 042050Z 20004KT CAVOK 11/08 Q1021
2026-04-04 20:20:00,METAR EDSB 042020Z 19004KT CAVOK 11/08 Q1021
2026-04-04 19:50:00,METAR EDSB 041950Z 19004KT CAVOK 12/08 Q1021
2026-04-04 19:20:00,METAR EDSB 041920Z 18004KT 9999 FEW042 11/08 Q1021
2026-04-04 18:50:00,METAR EDSB 041850Z 21004KT 9999 SCT044 13/09 Q1022
2026-04-04 18:20:00,METAR EDSB 041820Z 20005KT 9999 SCT046 13/09 Q1021
2026-04-04 17:50:00,METAR EDSB 041750Z 19004KT CAVOK 13/10 Q1022
2026-04-04 17:20:00,METAR EDSB 041720Z 19003KT 9999 BKN049 15/11 Q1022
2026-04-04 16:50:00,METAR EDSB 041650Z VRB02KT 9999 BKN044 15/11 Q1022
2026-04-04 16:20:00,METAR EDSB 041620Z VRB02KT 9999 OVC046 15/11 Q1022
2026-04-04 15:50:00,METAR EDSB 041550Z VRB02KT 9999 SCT038 OVC046 15/11 Q1022
2026-04-04 15:20:00,METAR EDSB 041520Z 24004KT 200V280 9999 OVC035 15/11 Q1023
2026-04-04 14:50:00,METAR EDSB 041450Z 26003KT 210V300 9999 SCT031 BKN037 OVC047 14/11 Q1023
2026-04-04 14:20:00,METAR EDSB 041420Z 24003KT 200V280 9999 BKN028 BKN034 OVC044 14/10 Q1023
2026-04-04 13:50:00,METAR EDSB 041350Z 24005KT 210V280 9999 FEW022 OVC026 14/10 Q1023
2026-04-04 13:20:00,METAR EDSB 041320Z 22008KT 190V250 9999 VCSH OVC024 14/10 Q1023
2026-04-04 12:50:00,METAR EDSB 041250Z 19011KT 9999 OVC027 14/10 Q1023
2026-04-04 12:20:00,METAR EDSB 041220Z 20011KT 9999 FEW025 SCT029 OVC033 14/10 Q1023
2026-04-04 11:50:00,METAR EDSB 041150Z 20011KT 9999 FEW025 SCT029 OVC033 14/10 Q1023
2026-04-04 11:20:00,METAR EDSB 041120Z 20011KT 9999 -RA OVC022 13/09 Q1023
2026-04-04 10:50:00,METAR EDSB 041050Z 20012KT 9999 OVC021 13/09 Q1023
2026-04-04 10:20:00,METAR EDSB 041020Z 19011KT 9000 BKN020 OVC028 12/10 Q1023
2026-04-04 09:50:00,METAR EDSB 040950Z 20012KT 9999 OVC021 12/09 Q1024
2026-04-04 09:20:00,METAR EDSB 040920Z 20012KT 9999 OVC021 12/09 Q1023
2026-04-04 08:50:00,METAR EDSB 040850Z 20014KT 9999 OVC019 12/09 Q1023
2026-04-04 08:20:00,METAR EDSB 040820Z 20011KT 9999 OVC018 11/09 Q1023
2026-04-04 07:50:00,METAR EDSB 040750Z 19012KT 9999 OVC018 11/09 Q1023
2026-04-04 07:20:00,METAR EDSB 040720Z 20011KT 9999 -DZ OVC018 10/09 Q1023
2026-04-04 06:50:00,METAR EDSB 040650Z 20011KT 9999 -DZ OVC017 10/09 Q1022
2026-04-04 06:20:00,METAR EDSB 040620Z 19011KT 9000 -RA FEW008 SCT014 OVC019 10/09 Q1022
2026-04-04 05:50:00,METAR EDSB 040550Z 19012KT 6000 -RA FEW011 BKN018 OVC024 10/08 Q1022
2026-04-04 05:20:00,METAR EDSB 040520Z 19010KT 9000 -RA FEW013 SCT015 OVC018 09/08 Q1021
2026-04-04 04:50:00,METAR EDSB 040450Z 19011KT 8000 -RA SCT015 OVC018 09/08 Q1021
2026-04-04 04:20:00,METAR EDSB 040420Z 20013KT 9999 -RA FEW016 OVC022 10/07 Q1021
2026-04-04 03:50:00,METAR EDSB 040350Z COR 20013KT 9999 -RA OVC024 10/07 Q1021
2026-04-04 03:20:00,METAR EDSB 040320Z 20009KT 9000 -RA OVC021 09/07 Q1021
2026-04-04 02:50:00,METAR EDSB 040250Z 20010KT 9000 -RA OVC025 10/06 Q1021
2026-04-04 02:20:00,METAR EDSB 040220Z AUTO 20009KT 9999 OVC029/// 10/06 Q1021
2026-04-04 01:50:00,METAR EDSB 040150Z AUTO 21008KT 9999 OVC031/// 12/06 Q1020
2026-04-04 01:20:00,METAR EDSB 040120Z AUTO 22010KT 9999 OVC032/// 12/06 Q1020
2026-04-04 00:50:00,METAR EDSB 040050Z AUTO 21009KT 9999 OVC033/// 12/04 Q1020
2026-04-04 00:20:00,METAR EDSB 040020Z AUTO 22008KT 9999 OVC038/// 12/03 Q1020
2026-04-03 23:50:00,METAR EDSB 032350Z AUTO 23006KT 210V270 9999 OVC042/// 12/03 Q1020
2026-04-03 23:20:00,METAR EDSB 032320Z AUTO 21010KT 9999 BKN045/// OVC053/// 12/03 Q1020
2026-04-03 22:50:00,METAR EDSB 032250Z AUTO 20009KT 9999 OVC048/// 12/03 Q1020
2026-04-03 22:20:00,METAR EDSB 032220Z 21008KT 9999 OVC049 12/02 Q1020
2026-04-03 21:50:00,METAR EDSB 032150Z 21008KT CAVOK 12/02 Q1020
2026-04-03 21:20:00,METAR EDSB 032120Z 21010KT 9999 OVC051 13/03 Q1019
2026-04-03 20:50:00,METAR EDSB 032050Z 21009KT CAVOK 12/03 Q1019
2026-04-03 20:20:00,METAR EDSB 032020Z 21007KT CAVOK 12/03 Q1019
2026-04-03 19:50:00,METAR EDSB 031950Z 21006KT CAVOK 11/04 Q1019
2026-04-03 19:20:00,METAR EDSB 031920Z 21006KT CAVOK 11/04 Q1019
2026-04-03 18:50:00,METAR EDSB 031850Z 22005KT CAVOK 12/04 Q1019
2026-04-03 18:20:00,METAR EDSB 031820Z 24004KT 210V270 CAVOK 13/03 Q1018
2026-04-03 17:50:00,METAR EDSB 031750Z 25003KT 220V290 CAVOK 13/03 Q1018
2026-04-03 17:20:00,METAR EDSB 031720Z 26005KT 210V300 CAVOK 14/02 Q1018
2026-04-03 16:50:00,METAR EDSB 031650Z 26007KT 230V290 CAVOK 14/02 Q1018
2026-04-03 16:20:00,METAR EDSB 031620Z 26004KT 220V320 CAVOK 14/03 Q1018
2026-04-03 15:50:00,METAR EDSB 031550Z 25006KT 220V320 CAVOK 14/03 Q1018
2026-04-03 15:20:00,METAR EDSB 031520Z 26006KT 220V300 CAVOK 14/03 Q1018
2026-04-03 14:50:00,METAR EDSB 031450Z 25009KT 210V290 CAVOK 14/02 Q1018
2026-04-03 14:20:00,METAR EDSB 031420Z 25006KT 200V300 CAVOK 15/04 Q1018
2026-04-03 13:50:00,METAR EDSB 031350Z 26008KT 220V310 CAVOK 14/02 Q1018
2026-04-03 13:20:00,METAR EDSB 031320Z 25009KT 190V290 CAVOK 14/03 Q1018
2026-04-03 12:50:00,METAR EDSB 031250Z 24009KT 180V290 9999 SCT049 14/03 Q1019
2026-04-03 12:20:00,METAR EDSB 031220Z 23008KT 200V280 9999 FEW038 SCT047 13/04 Q1019
2026-04-03 11:50:00,METAR EDSB 031150Z 23008KT 200V270 9999 FEW031 BKN040 12/04 Q1019
2026-04-03 11:20:00,METAR EDSB 031120Z 22009KT 9999 FEW031 BKN038 12/05 Q1020
2026-04-03 10:50:00,METAR EDSB 031050Z 24006KT 210V290 9999 BKN028 12/05 Q1020
2026-04-03 10:20:00,METAR EDSB 031020Z 21009KT 170V260 9999 FEW026 12/06 Q1020
2026-04-03 09:50:00,METAR EDSB 030950Z 21006KT 170V270 9999 SCT019 11/05 Q1020
2026-04-03 09:20:00,METAR EDSB 030920Z 22006KT 190V250 9999 FEW026 BKN031 OVC039 09/03 Q1020
2026-04-03 08:50:00,METAR EDSB 030850Z 22006KT 9999 FEW026 BKN034 OVC041 09/04 Q1020
2026-04-03 08:20:00,METAR EDSB 030820Z 22007KT 190V250 9999 BKN035 BKN041 OVC047 08/03 Q1020
2026-04-03 07:50:00,METAR EDSB 030750Z 23005KT 210V270 9999 SCT023 BKN047 08/04 Q1020
2026-04-03 07:20:00,METAR EDSB 030720Z 23005KT 200V260 9999 SCT023 BKN046 07/04 Q1019
2026-04-03 06:50:00,METAR EDSB 030650Z 23003KT CAVOK 06/04 Q1019
2026-04-03 06:20:00,METAR EDSB 030620Z 23003KT 200V260 9999 BKN019 06/04 Q1019
2026-04-03 05:50:00,METAR EDSB 030550Z 22003KT 9999 BKN018 06/04 Q1019
2026-04-03 05:20:00,METAR EDSB 030520Z 22003KT 9999 BKN018 05/04 Q1018
2026-04-03 04:50:00,METAR EDSB 030450Z 20003KT 9999 FEW019 BKN048 OVC055 06/04 Q1019
2026-04-03 04:20:00,METAR EDSB 030420Z 19005KT 9999 FEW036 04/03 Q1018
2026-04-03 03:50:00,METAR EDSB 030350Z 19007KT CAVOK 04/02 Q1018
2026-04-03 03:20:00,METAR EDSB 030320Z 21006KT CAVOK 04/02 Q1018
2026-04-03 02:50:00,METAR EDSB 030250Z 20006KT CAVOK 04/02 Q1018
2026-04-03 02:20:00,METAR EDSB 030220Z AUTO 20007KT 9999 // NCD 04/02 Q1018
2026-04-03 01:50:00,METAR EDSB 030150Z AUTO 19007KT 9999 // NCD 04/02 Q1018
2026-04-03 01:20:00,METAR EDSB 030120Z AUTO 21006KT 9999 // NCD 06/02 Q1018
2026-04-03 00:50:00,METAR EDSB 030050Z AUTO 20006KT 9999 // SCT089/// 06/02 Q1018
2026-04-03 00:20:00,METAR EDSB 030020Z AUTO 21006KT 9999 // OVC090/// 07/03 Q1018
2026-04-02 23:50:00,METAR EDSB 022350Z AUTO 20005KT 9999 // OVC092/// 07/02 Q1018
2026-04-02 23:20:00,METAR EDSB 022320Z AUTO 21004KT 9999 // OVC094/// 08/02 Q1018
2026-04-02 22:50:00,METAR EDSB 022250Z AUTO 20005KT 9999 // OVC095/// 07/02 Q1017
2026-04-02 22:20:00,METAR EDSB 022220Z AUTO 21004KT 9999 // OVC095/// 07/02 Q1017
2026-04-02 21:50:00,METAR EDSB 022150Z AUTO 18005KT 160V220 9999 // BKN098/// 06/01 Q1017
2026-04-02 21:20:00,METAR EDSB 022120Z 17004KT CAVOK 08/01 Q1017
2026-04-02 20:50:00,METAR EDSB 022050Z 19005KT CAVOK 07/01 Q1017
2026-04-02 20:20:00,METAR EDSB 022020Z 18004KT CAVOK 08/01 Q1017
2026-04-02 19:50:00,METAR EDSB 021950Z 20004KT CAVOK 08/01 Q1017
2026-04-02 19:20:00,METAR EDSB 021920Z 19003KT CAVOK 09/01 Q1017
2026-04-02 18:50:00,METAR EDSB 021850Z 18002KT CAVOK 10/01 Q1016
2026-04-02 18:20:00,METAR EDSB 021820Z 16003KT CAVOK 10/01 Q1016
2026-04-02 17:50:00,METAR EDSB 021750Z 18004KT CAVOK 11/00 Q1016
2026-04-02 17:20:00,METAR EDSB 021720Z 19005KT 150V210 CAVOK 12/00 Q1016
2026-04-02 16:50:00,METAR EDSB 021650Z 17005KT 120V210 CAVOK 14/M00 Q1015
2026-04-02 16:20:00,METAR EDSB 021620Z VRB01KT CAVOK 14/M01 Q1015
2026-04-02 15:50:00,METAR EDSB 021550Z VRB02KT CAVOK 14/M00 Q1015
2026-04-02 15:20:00,METAR EDSB 021520Z VRB02KT CAVOK 14/M00 Q1015
2026-04-02 14:50:00,METAR EDSB 021450Z VRB02KT CAVOK 14/00 Q1016
2026-04-02 14:20:00,METAR EDSB 021420Z VRB02KT CAVOK 13/00 Q1016
2026-04-02 13:50:00,METAR EDSB 021350Z 04005KT 340V090 CAVOK 13/00 Q1016
2026-04-02 13:20:00,METAR EDSB 021320Z 07004KT 010V170 CAVOK 13/M00 Q1016
2026-04-02 12:50:00,METAR EDSB 021250Z 04005KT 350V100 CAVOK 12/M00 Q1017
2026-04-02 12:20:00,METAR EDSB 021220Z 02006KT 310V070 CAVOK 11/M01 Q1017
2026-04-02 11:50:00,METAR EDSB 021150Z 36005KT 270V070 CAVOK 11/M00 Q1017
2026-04-02 11:20:00,METAR EDSB 021120Z 35006KT 310V040 CAVOK 11/01 Q1017
2026-04-02 10:50:00,METAR EDSB 021050Z 01006KT 300V060 9999 11/01 Q1017
2026-04-02 10:20:00,METAR EDSB 021020Z 35006KT 310V030 CAVOK 10/01 Q1018
2026-04-02 09:50:00,METAR EDSB 020950Z 01005KT 320V050 CAVOK 10/03 Q1018
2026-04-02 09:20:00,METAR EDSB 020920Z 35005KT 310V040 CAVOK 08/01 Q1018
2026-04-02 08:50:00,METAR EDSB 020850Z 36005KT 320V050 CAVOK 07/01 Q1018
2026-04-02 08:20:00,METAR EDSB 020820Z 35006KT 310V040 CAVOK 06/00 Q1018
2026-04-02 07:50:00,METAR EDSB 020750Z 01004KT 340V050 CAVOK 05/01 Q1018
2026-04-02 07:20:00,METAR EDSB 020720Z 05003KT 360V080 CAVOK 03/00 Q1018
2026-04-02 06:50:00,METAR EDSB 020650Z VRB01KT CAVOK 02/M00 Q1018
2026-04-02 06:20:00,METAR EDSB 020620Z VRB02KT CAVOK 01/M01 Q1018
2026-04-02 05:50:00,METAR EDSB 020550Z 05003KT CAVOK M00/M02 Q1018
2026-04-02 05:20:00,METAR EDSB 020520Z VRB01KT CAVOK 01/M01 Q1018
2026-04-02 04:50:00,METAR EDSB 020450Z 01003KT CAVOK 01/M01 Q1018
2026-04-02 04:20:00,METAR EDSB 020420Z 05003KT CAVOK 00/M01 Q1018
2026-04-02 03:50:00,METAR EDSB 020350Z 03006KT CAVOK 01/M01 Q1018
2026-04-02 03:20:00,METAR EDSB 020320Z 03007KT CAVOK 01/M01 Q1018
2026-04-02 02:50:00,METAR EDSB 020250Z 04007KT CAVOK 00/M01 Q1018
2026-04-02 02:20:00,METAR EDSB 020220Z AUTO 05006KT 9999 // NCD 00/M01 Q1018
2026-04-02 01:50:00,METAR EDSB 020150Z AUTO 04007KT 9999 // NCD 00/M02 Q1018
2026-04-02 01:20:00,METAR EDSB 020120Z AUTO 03006KT 9999 // NCD 01/M01 Q1019
2026-04-02 00:50:00,METAR EDSB 020050Z AUTO 03004KT 9999 // NCD 02/M00 Q1019
2026-04-02 00:20:00,METAR EDSB 020020Z AUTO 01002KT 9999 // NCD 02/00 Q1019
2026-04-01 23:50:00,METAR EDSB 012350Z AUTO VRB01KT 9999 // NCD 03/01 Q1019
2026-04-01 23:20:00,METAR EDSB 012320Z AUTO 03003KT 9999 // NCD 02/M00 Q1020
2026-04-01 22:50:00,METAR EDSB 012250Z AUTO 03004KT 9999 // NCD 03/00 Q1020
2026-04-01 22:20:00,METAR EDSB 012220Z AUTO 36003KT 9999 // NCD 03/01 Q1020
2026-04-01 21:50:00,METAR EDSB 012150Z AUTO 01003KT 9999 // NCD 04/M00 Q1020
2026-04-01 21:20:00,METAR EDSB 012120Z AUTO 36003KT 9999 // NCD 05/01 Q1020
2026-04-01 20:50:00,METAR EDSB 012050Z 36002KT CAVOK 05/00 Q1021
2026-04-01 20:20:00,METAR EDSB 012020Z VRB02KT CAVOK 04/M00 Q1021
2026-04-01 19:50:00,METAR EDSB 011950Z 05006KT CAVOK 06/00 Q1021
2026-04-01 19:20:00,METAR EDSB 011920Z 06006KT CAVOK 07/01 Q1021
2026-04-01 18:50:00,METAR EDSB 011850Z 04005KT CAVOK 07/00 Q1021
2026-04-01 18:20:00,METAR EDSB 011820Z 06005KT CAVOK 07/01 Q1021
2026-04-01 17:50:00,METAR EDSB 011750Z 06007KT CAVOK 09/00 Q1021
2026-04-01 17:20:00,METAR EDSB 011720Z 04011KT CAVOK 10/00 Q1021
2026-04-01 16:50:00,METAR EDSB 011650Z 04009KT CAVOK 10/00 Q1021
2026-04-01 16:20:00,METAR EDSB 011620Z 04009KT CAVOK 11/M01 Q1021
2026-04-01 15:50:00,METAR EDSB 011550Z 04011KT CAVOK 10/00 Q1021
2026-04-01 15:20:00,METAR EDSB 011520Z 07009KT CAVOK 11/M01 Q1021
2026-04-01 14:50:00,METAR EDSB 011450Z 05007KT 010V070 9999 SCT049 12/01 Q1022
2026-04-01 13:50:00,METAR EDSB 011350Z 01009KT 340V040 9999 FEW046 11/M00 Q1022
2026-04-01 13:20:00,METAR EDSB 011320Z 03011KT 9999 FEW048 11/00 Q1022
2026-04-01 12:50:00,METAR EDSB 011250Z 05010KT 9999 SCT045 11/01 Q1023
2026-04-01 12:20:00,METAR EDSB 011220Z 04011KT 9999 FEW042 10/01 Q1023
2026-04-01 11:50:00,METAR EDSB 011150Z 02009KT 350V060 9999 FEW040 10/02 Q1024
2026-04-01 11:20:00,METAR EDSB 011120Z 04011KT 010V070 9999 FEW035 10/02 Q1024
2026-04-01 10:50:00,METAR EDSB 011050Z 01009KT 9999 FEW031 10/03 Q1024
2026-04-01 10:20:00,METAR EDSB 011020Z 02008KT 330V050 9999 FEW025 09/03 Q1024
2026-04-01 09:50:00,METAR EDSB 010950Z 36007KT 310V040 9999 FEW023 09/03 Q1024
2026-04-01 09:20:00,METAR EDSB 010920Z 01006KT 330V050 9999 FEW018 08/03 Q1025
2026-04-01 08:50:00,METAR EDSB 010850Z 03006KT 340V060 9999 FEW014 07/03 Q1025
2026-04-01 08:20:00,METAR EDSB 010820Z 01006KT 330V040 9999 FEW009 06/04 Q1025
2026-04-01 07:50:00,METAR EDSB 010750Z 36004KT 330V030 CAVOK 05/04 Q1025
2026-04-01 07:20:00,METAR EDSB 010720Z 34003KT 310V010 9999 FEW038 04/03 Q1025
2026-04-01 06:50:00,METAR EDSB 010650Z COR 36002KT CAVOK 03/02 Q1025
2026-04-01 06:20:00,METAR EDSB 010620Z 00000KT CAVOK 01/01 Q1025
2026-04-01 05:50:00,METAR EDSB 010550Z VRB02KT CAVOK 00/00 Q1025
2026-04-01 05:20:00,METAR EDSB 010520Z 00000KT CAVOK 01/00 Q1025
2026-04-01 04:50:00,METAR EDSB 010450Z VRB02KT CAVOK 01/00 Q1025
2026-04-01 04:20:00,METAR EDSB 010420Z VRB02KT CAVOK 01/M00 Q1025
2026-04-01 03:50:00,METAR EDSB 010350Z 17002KT CAVOK 02/01 Q1025
2026-04-01 03:20:00,METAR EDSB 010320Z 21002KT CAVOK 03/02 Q1025
2026-04-01 02:50:00,METAR EDSB 010250Z AUTO VRB02KT 9999 // SCT057/// 03/01 Q1025
2026-04-01 02:20:00,METAR EDSB 010220Z AUTO 19002KT 9999 // BKN058/// 03/02 Q1025
2026-04-01 01:50:00,METAR EDSB 010150Z AUTO VRB02KT 9999 // OVC057/// 04/02 Q1026
2026-04-01 01:20:00,METAR EDSB 010120Z AUTO 23004KT 9999 // SCT055/// BKN093/// 04/02 Q1026
2026-04-01 00:50:00,METAR EDSB 010050Z AUTO 20004KT 9999 // FEW042/// BKN051/// OVC093/// 04/02 Q1026
2026-04-01 00:20:00,METAR EDSB 010020Z AUTO 18004KT 140V230 9999 // BKN042/// OVC093/// 04/02 Q1027
2026-03-31 23:50:00,METAR EDSB 312350Z AUTO 19003KT 9999 // BKN044/// BKN054/// BKN091/// 04/02 Q1027
2026-03-31 23:20:00,METAR EDSB 312320Z AUTO 20004KT 9999 // FEW048/// SCT061/// BKN095/// 04/02 Q1027
2026-03-31 22:50:00,METAR EDSB 312250Z AUTO 20004KT 9999 // FEW057/// BKN094/// 04/02 Q1027
2026-03-31 22:20:00,METAR EDSB 312220Z AUTO 21004KT 9999 // FEW055/// BKN063/// OVC077/// 04/02 Q1027
2026-03-31 21:50:00,METAR EDSB 312150Z AUTO 21004KT 9999 // FEW050/// BKN066/// OVC088/// 04/02 Q1027
2026-03-31 21:20:00,METAR EDSB 312120Z 18004KT 150V210 CAVOK 04/03 Q1028
2026-03-31 20:50:00,METAR EDSB 312050Z 17004KT CAVOK 04/02 Q1027
2026-03-31 20:20:00,METAR EDSB 312020Z 20004KT CAVOK 05/02 Q1028
2026-03-31 19:50:00,METAR EDSB 311950Z 20004KT 9999 BKN048 05/03 Q1028
2026-03-31 19:20:00,METAR EDSB 311920Z 25003KT 220V290 9999 BKN049 06/02 Q1028
2026-03-31 18:50:00,METAR EDSB 311850Z VRB02KT CAVOK 05/02 Q1027
2026-03-31 18:20:00,METAR EDSB 311820Z VRB02KT 9999 VCSH FEW042 07/01 Q1027
2026-03-31 17:50:00,METAR EDSB 311750Z 33003KT 9999 VCSH FEW019 SCT049 07/02 Q1027
2026-03-31 17:20:00,METAR EDSB 311720Z VRB02KT 9999 VCSH FEW048 08/02 Q1027
2026-03-31 16:50:00,METAR EDSB 311650Z 25003KT 210V300 9999 VCSH FEW049 08/02 Q1027
2026-03-31 16:20:00,METAR EDSB 311620Z 26004KT 220V310 9999 VCSH FEW049 08/02 Q1027
2026-03-31 15:50:00,METAR EDSB 311550Z VRB02KT 9999 VCSH FEW048 09/01 Q1027
2026-03-31 15:20:00,METAR EDSB 311520Z 30004KT 220V350 9999 VCSH FEW037 SCT047 08/01 Q1027
2026-03-31 14:50:00,METAR EDSB 311450Z 27006KT 220V300 9999 VCSH FEW039 SCT045 08/02 Q1027
2026-03-31 14:20:00,METAR EDSB 311420Z VRB03KT 9999 VCSH FEW047 09/01 Q1027
2026-03-31 13:50:00,METAR EDSB 311350Z VRB02KT 9999 VCSH FEW039 09/01 Q1027
2026-03-31 13:20:00,METAR EDSB 311320Z VRB03KT CAVOK 08/M00 Q1027
2026-03-31 12:50:00,METAR EDSB 311250Z VRB02KT 9999 FEW046 08/02 Q1027
2026-03-31 12:20:00,METAR EDSB 311220Z 11004KT 070V160 9999 FEW023 08/02 Q1028
2026-03-31 11:50:00,METAR EDSB 311150Z 13006KT 110V170 9999 FEW030 SCT041 07/02 Q1028
2026-03-31 11:20:00,METAR EDSB 311120Z 14006KT 120V190 9999 FEW024 SCT038 07/03 Q1028
2026-03-31 10:50:00,METAR EDSB 311050Z 18004KT 120V230 9999 FEW034 07/02 Q1028
2026-03-31 10:20:00,METAR EDSB 311020Z 17003KT 120V220 9999 -RA SCT023 SCT028 06/02 Q1028
2026-03-31 09:50:00,METAR EDSB 310950Z 19004KT 140V230 9999 FEW032 BKN036 06/02 Q1028
2026-03-31 09:20:00,METAR EDSB 310920Z 20004KT 170V230 9999 BKN028 OVC034 05/02 Q1028
2026-03-31 08:50:00,METAR EDSB 310850Z 22003KT 180V250 9999 BKN029 05/02 Q1028
2026-03-31 08:20:00,METAR EDSB 310820Z 22003KT 190V260 9999 BKN031 04/02 Q1028
2026-03-31 07:50:00,METAR EDSB 310750Z 24003KT 220V280 9999 SCT040 OVC048 04/02 Q1027
2026-03-31 07:20:00,METAR EDSB 310720Z VRB01KT 9999 OVC047 04/02 Q1027
2026-03-31 06:50:00,METAR EDSB 310650Z VRB02KT 9999 FEW029 OVC048 04/02 Q1027
2026-03-31 06:20:00,METAR EDSB 310620Z 20002KT 9999 FEW027 OVC048 03/01 Q1026
2026-03-31 05:50:00,METAR EDSB 310550Z VRB02KT 9999 OVC047 03/01 Q1026
2026-03-31 05:20:00,METAR EDSB 310520Z 20003KT 9999 OVC049 02/01 Q1026
2026-03-31 04:50:00,METAR EDSB 310450Z 23002KT 9999 OVC047 02/01 Q1025
2026-03-31 04:20:00,METAR EDSB 310420Z VRB02KT 9999 OVC048 02/01 Q1025
2026-03-31 03:50:00,METAR EDSB 310350Z 10003KT 9999 FEW029 OVC047 02/01 Q1025
2026-03-31 03:20:00,METAR EDSB 310320Z VRB01KT 9999 FEW031 02/00 Q1025
2026-03-31 02:50:00,METAR EDSB 310250Z VRB01KT 9999 FEW030 BKN046 03/01 Q1024
2026-03-31 02:20:00,METAR EDSB 310220Z AUTO VRB02KT 9999 // SCT032/// BKN051/// 03/01 Q1024
2026-03-31 01:50:00,METAR EDSB 310150Z AUTO VRB01KT 9999 // FEW035/// SCT044/// BKN064/// 03/01 Q1024
2026-03-31 01:20:00,METAR EDSB 310120Z AUTO 33003KT 300V360 9999 // FEW035/// BKN058/// 04/01 Q1023
2026-03-31 00:50:00,METAR EDSB 310050Z AUTO VRB02KT 9999 // SCT037/// BKN050/// BKN062/// 04/03 Q1023
2026-03-31 00:20:00,METAR EDSB 310020Z AUTO VRB01KT 9999 // FEW035/// BKN056/// 03/03 Q1023
2026-03-30 23:50:00,METAR EDSB 302350Z AUTO 17002KT 9999 // SCT036/// BKN047/// OVC054/// 03/03 Q1023
2026-03-30 23:20:00,METAR EDSB 302320Z AUTO 17002KT 9999 // FEW039/// SCT048/// BKN059/// 03/03 Q1023
2026-03-30 22:50:00,METAR EDSB 302250Z AUTO 17003KT 9999 // BKN041/// BKN051/// OVC067/// 03/03 Q1022
2026-03-30 22:20:00,METAR EDSB 302220Z AUTO 00000KT 9000 // BKN036/// BKN091/// 03/03 Q1022
2026-03-30 21:50:00,METAR EDSB 302150Z VRB01KT 9999 FEW039 BKN045 03/03 Q1022
2026-03-30 21:20:00,METAR EDSB 302120Z VRB02KT 9999 FEW035 04/03 Q1022
2026-03-30 20:50:00,METAR EDSB 302050Z 18003KT 120V230 9999 SCT037 04/03 Q1021
2026-03-30 20:20:00,METAR EDSB 302020Z 21005KT 9999 BKN044 05/03 Q1021
2026-03-30 19:50:00,METAR EDSB 301950Z 18004KT CAVOK 04/03 Q1021
2026-03-30 19:20:00,METAR EDSB 301920Z 21004KT CAVOK 04/03 Q1020
2026-03-30 18:50:00,METAR EDSB 301850Z 18004KT CAVOK 04/02 Q1019
2026-03-30 18:20:00,METAR EDSB 301820Z 15004KT CAVOK 04/03 Q1019
2026-03-30 17:50:00,METAR EDSB 301750Z 20006KT CAVOK 04/03 Q1019
2026-03-30 17:20:00,METAR EDSB 301720Z 20005KT 9999 VCSH FEW021TCU 06/04 Q1018
2026-03-30 16:50:00,METAR EDSB 301650Z 14003KT 090V210 9999 VCSH FEW019TCU 05/04 Q1018
2026-03-30 16:20:00,METAR EDSB 301620Z 03008KT 010V080 9999 VCTS SCT021CB BKN030 BKN043 05/03 Q1018 RETS
2026-03-30 15:50:00,METAR EDSB 301550Z 13005KT 9999 -TSRA FEW043CB SCT049 08/05 Q1017
2026-03-30 15:20:00,METAR EDSB 301520Z 13004KT 9999 VCSH SCT036 09/05 Q1017
2026-03-30 14:50:00,METAR EDSB 301450Z VRB05KT 9000 -SHRA FEW033TCU OVC041 08/02 Q1017 RESHRA
2026-03-30 14:20:00,METAR EDSB 301420Z VRB03KT 9999 -RA FEW042 BKN048 09/02 Q1017
2026-03-30 13:50:00,METAR EDSB 301350Z 19006KT 150V230 9999 FEW043 10/05 Q1017
2026-03-30 13:20:00,METAR EDSB 301320Z VRB02KT 9999 FEW027 09/04 Q1018
2026-03-30 12:50:00,METAR EDSB 301250Z 20008KT 9000 -RA VCTS BKN021 BKN033CB 08/06 Q1018
2026-03-30 12:20:00,METAR EDSB 301220Z 22006KT 180V270 9999 VCSH SCT012 07/04 Q1018
2026-03-30 11:50:00,METAR EDSB 301150Z 20007KT 150V230 9999 VCSH FEW041 06/05 Q1018 RETS
2026-03-30 11:20:00,METAR EDSB 301120Z COR 33008KT 280V050 2900 -TSRA SCT008CB BKN013 OVC030 04/03 Q1018 RERA
2026-03-30 10:50:00,METAR EDSB 301050Z 12006KT 080V150 9000 -TSRA SCT013CB BKN025 OVC031 06/04 Q1018 RESHRA
2026-03-30 10:20:00,METAR EDSB 301020Z 20009KT 7000 SHRA SCT010TCU BKN023 OVC032 05/03 Q1018
2026-03-30 09:50:00,METAR EDSB 300950Z 20008KT 9999 VCSH SCT009TCU BKN019 BKN033 06/05 Q1019
2026-03-30 09:20:00,METAR EDSB 300920Z 18009KT 9999 VCSH FEW018 06/04 Q1019
2026-03-30 08:50:00,METAR EDSB 300850Z 20011KT CAVOK 06/04 Q1019
2026-03-30 08:20:00,METAR EDSB 300820Z 20008KT 9999 SCT035 04/03 Q1019
2026-03-30 07:50:00,METAR EDSB 300750Z 21010KT 7000 VCSH OVC016 02/01 Q1019 RESHRA
2026-03-30 07:20:00,METAR EDSB 300720Z 19018KT 9999 -SHRA BKN020 OVC027TCU 05/02 Q1019
2026-03-30 06:50:00,METAR EDSB 300650Z 19017KT 9999 OVC022 05/02 Q1019
2026-03-30 06:20:00,METAR EDSB 300620Z 19018KT 9999 OVC022 05/02 Q1019
2026-03-30 05:50:00,METAR EDSB 300550Z 19017KT 9999 OVC023 05/02 Q1019
2026-03-30 05:20:00,METAR EDSB 300520Z 19017KT 9999 -RA OVC023 04/02 Q1020 RERA
2026-03-30 04:50:00,METAR EDSB 300450Z 19015KT 9999 RA OVC024 04/02 Q1020
2026-03-30 04:20:00,METAR EDSB 300420Z 21015KT 9000 RA BKN022 OVC028 04/02 Q1021
2026-03-30 03:50:00,METAR EDSB 300350Z 21013KT 9000 RA FEW023 BKN026 OVC033 05/01 Q1021
2026-03-30 03:20:00,METAR EDSB 300320Z 19015KT 9999 -RA BKN043 BKN050 06/M00 Q1021
2026-03-30 02:50:00,METAR EDSB 300250Z 19015KT 9999 BKN043 BKN050 OVC066 06/M00 Q1021
2026-03-30 02:20:00,METAR EDSB 300220Z AUTO 20013KT 9999 // OVC045/// 05/00 Q1021
2026-03-30 01:50:00,METAR EDSB 300150Z AUTO 21013KT 9999 // OVC066/// 05/M00 Q1022
2026-03-30 01:20:00,METAR EDSB 300120Z AUTO 20013KT 9999 // OVC079/// 06/M01 Q1023
2026-03-30 00:50:00,METAR EDSB 300050Z AUTO 20015KT 9999 // OVC084/// 06/M00 Q1023
2026-03-30 00:20:00,METAR EDSB 300020Z AUTO 20014KT 9999 // OVC092/// 06/M00 Q1024
2026-03-29 23:50:00,METAR EDSB 292350Z AUTO 20013KT 9999 // OVC100/// 06/00 Q1025
2026-03-29 23:20:00,METAR EDSB 292320Z AUTO 20009KT 9999 // FEW054/// OVC100/// 05/00 Q1025
2026-03-29 22:50:00,METAR EDSB 292250Z AUTO 20009KT 9999 // BKN056/// OVC100/// 05/01 Q1026
2026-03-29 22:20:00,METAR EDSB 292220Z AUTO 21007KT 9999 // FEW061/// BKN110/// BKN220/// 05/01 Q1026
2026-03-29 21:50:00,METAR EDSB 292150Z AUTO 20008KT 9999 // BKN210/// 05/00 Q1026
2026-03-29 21:20:00,METAR EDSB 292120Z 19008KT CAVOK 06/00 Q1026
2026-03-29 20:50:00,METAR EDSB 292050Z 20007KT CAVOK 04/01 Q1027
2026-03-29 20:20:00,METAR EDSB 292020Z 20006KT CAVOK 04/01 Q1027
2026-03-29 19:50:00,METAR EDSB 291950Z 20007KT CAVOK 05/01 Q1027
2026-03-29 19:20:00,METAR EDSB 291920Z 19008KT CAVOK 06/01 Q1027
2026-03-29 18:50:00,METAR EDSB 291850Z 20006KT CAVOK 06/01 Q1028
2026-03-29 18:20:00,METAR EDSB 291820Z 18006KT CAVOK 07/00 Q1027
2026-03-29 17:50:00,METAR EDSB 291750Z 19005KT CAVOK 07/00 Q1028
2026-03-29 17:20:00,METAR EDSB 291720Z 20005KT CAVOK 07/01 Q1028
2026-03-29 16:50:00,METAR EDSB 291650Z 19005KT 160V220 CAVOK 08/00 Q1028
2026-03-29 16:20:00,METAR EDSB 291620Z 21004KT 180V250 CAVOK 08/M00 Q1028
2026-03-29 15:20:00,METAR EDSB 291520Z 19003KT 110V230 CAVOK 09/01 Q1028
2026-03-29 14:50:00,METAR EDSB 291450Z VRB02KT CAVOK 08/M01 Q1028
2026-03-29 14:20:00,METAR EDSB 291420Z 30004KT 240V360 9999 OVC048 08/M00 Q1029
2026-03-29 13:50:00,METAR EDSB 291350Z 33004KT 270V030 9999 OVC049 08/M00 Q1029
2026-03-29 13:20:00,METAR EDSB 291320Z VRB03KT 9999 FEW035 OVC048 08/M00 Q1029
2026-03-29 12:50:00,METAR EDSB 291250Z 25004KT 190V300 9999 FEW030 OVC049 08/00 Q1029
2026-03-29 12:20:00,METAR EDSB 291220Z 35004KT 240V030 9999 SCT037 08/M00 Q1029
2026-03-29 11:50:00,METAR EDSB 291150Z VRB03KT 9999 FEW039 08/M01 Q1029
2026-03-29 11:20:00,METAR EDSB 291120Z VRB03KT 9999 FEW034 SCT045 08/M00 Q1029
2026-03-29 10:50:00,METAR EDSB 291050Z 12003KT 040V180 9999 FEW029 BKN042 07/M00 Q1029
2026-03-29 10:20:00,METAR EDSB 291020Z VRB04KT 9999 FEW028 BKN045 07/01 Q1029
2026-03-29 09:50:00,METAR EDSB 290950Z 35004KT 270V050 9999 FEW024 SCT030 BKN039 06/M00 Q1030
2026-03-29 09:20:00,METAR EDSB 290920Z 05003KT 330V130 9999 FEW021 06/01 Q1030
2026-03-29 08:50:00,METAR EDSB 290850Z VRB02KT 9999 FEW013 06/01 Q1029
2026-03-29 08:20:00,METAR EDSB 290820Z 01003KT 330V040 9999 BKN034 05/01 Q1029
2026-03-29 07:50:00,METAR EDSB 290750Z VRB02KT 9999 SCT037 04/02 Q1029
2026-03-29 07:20:00,METAR EDSB 290720Z 00000KT 9999 FEW023 BKN035 BKN042 02/01 Q1029
2026-03-29 06:50:00,METAR EDSB 290650Z VRB01KT 9999 BKN024 01/00 Q1028
2026-03-29 06:20:00,METAR EDSB 290620Z 00000KT 2100 BR FEW001 BKN025 00/M00 Q1028
2026-03-29 05:50:00,METAR EDSB 290550Z 16002KT 9999 R21/1000U BCFG FEW026 M00/M00 Q1027
2026-03-29 05:20:00,METAR EDSB 290520Z 15003KT 9999 R21/1200U BCFG FEW003 SCT039 M01/M01 Q1027
2026-03-29 04:50:00,METAR EDSB 290450Z 18002KT 0600 R21/0650D FG FEW001 SCT003 00/M00 Q1027
2026-03-29 04:20:00,METAR EDSB 290420Z VRB02KT 0800 R21/1000U FG FEW003 01/01 Q1026
2026-03-29 03:50:00,METAR EDSB 290350Z 23002KT 0800 R21/1800U FG VV/// 01/01 Q1026
2026-03-29 03:20:00,METAR EDSB 290320Z 20003KT 2100 BR FEW003 03/02 Q1026
2026-03-29 02:50:00,METAR EDSB 290250Z AUTO 19002KT 3300 // FEW003/// BKN072/// 03/02 Q1026
2026-03-29 02:20:00,METAR EDSB 290220Z AUTO 16002KT 4500 // BKN045/// BKN074/// 03/03 Q1025
2026-03-29 01:50:00,METAR EDSB 290150Z AUTO 18002KT 6000 // BKN043/// OVC063/// 03/03 Q1025
2026-03-29 01:20:00,METAR EDSB 290120Z AUTO 21002KT 6000 // BKN040/// OVC050/// 03/03 Q1025
2026-03-29 00:50:00,METAR EDSB 290050Z AUTO 19003KT 5000 // OVC043/// 03/03 Q1025
2026-03-29 00:20:00,METAR EDSB 290020Z AUTO 20004KT 4700 // FEW036/// OVC043/// 03/03 Q1025
2026-03-28 23:50:00,METAR EDSB 282350Z AUTO 16004KT 7000 // OVC036/// 04/03 Q1025
2026-03-28 23:20:00,METAR EDSB 282320Z AUTO 15004KT 6000 // OVC040/// 04/03 Q1024
2026-03-28 22:50:00,METAR EDSB 282250Z AUTO 21004KT 6000 // FEW029/// BKN036/// OVC057/// 03/03 Q1024
2026-03-28 22:20:00,METAR EDSB 282220Z 22003KT 180V260 9000 -RA FEW010 OVC032 03/03 Q1024
2026-03-28 21:50:00,METAR EDSB 282150Z 19005KT 9999 FEW010 SCT031 OVC039 03/03 Q1024
2026-03-28 21:20:00,METAR EDSB 282120Z 17006KT 9999 -RA FEW019 BKN049 04/03 Q1024
2026-03-28 20:50:00,METAR EDSB 282050Z 18005KT 9999 -RA FEW042 03/03 Q1023
2026-03-28 20:20:00,METAR EDSB 282020Z 24004KT 190V340 9999 FEW010 SCT016 03/02 Q1023
2026-03-28 19:50:00,METAR EDSB 281950Z 20006KT 9999 -RA BKN010 BKN017 OVC020 03/02 Q1023
2026-03-28 19:20:00,METAR EDSB 281920Z 20007KT 9999 -RA BKN010 BKN025 OVC039 03/02 Q1023
2026-03-28 18:50:00,METAR EDSB 281850Z 19007KT 9000 -SNRA BKN011 OVC035 03/02 Q1022
2026-03-28 18:20:00,METAR EDSB 281820Z 18007KT 9999 -RA SCT011 SCT013 OVC028 03/02 Q1022
2026-03-28 17:50:00,METAR EDSB 281750Z 19008KT 9999 -RA SCT011 BKN013 OVC042 03/02 Q1022
2026-03-28 17:20:00,METAR EDSB 281720Z 18007KT 9999 -RA FEW005 SCT010 OVC012 03/02 Q1021 RERA
2026-03-28 16:50:00,METAR EDSB 281650Z 19006KT 7000 RA SCT007 BKN009 OVC012 03/02 Q1021
2026-03-28 16:20:00,METAR EDSB 281620Z 21007KT 7000 RA BKN008 OVC012 03/02 Q1021
2026-03-28 15:50:00,METAR EDSB 281550Z 20009KT 7000 RA SCT009 OVC012 03/02 Q1020
2026-03-28 15:20:00,METAR EDSB 281520Z 21007KT 9999 -RA BKN009 OVC011 03/02 Q1020
2026-03-28 14:50:00,METAR EDSB 281450Z 21006KT 9999 -RA BKN009 BKN020 OVC023 03/02 Q1021
2026-03-28 14:20:00,METAR EDSB 281420Z 23005KT 200V260 9999 -RA FEW009 BKN011 OVC021 03/02 Q1020
2026-03-28 13:50:00,METAR EDSB 281350Z 24007KT 200V290 9999 -RA FEW015 BKN019 OVC022 04/01 Q1021
2026-03-28 13:20:00,METAR EDSB 281320Z 22009KT 7000 RA SCT023 BKN029 OVC037 04/00 Q1020
2026-03-28 12:50:00,METAR EDSB 281250Z 22010KT 9999 -RA OVC039 06/M02 Q1020
2026-03-28 12:20:00,METAR EDSB 281220Z 20011KT 9999 -RA OVC042 07/M02 Q1020
2026-03-28 11:50:00,METAR EDSB 281150Z 19013KT 9999 OVC043 07/M03 Q1020
2026-03-28 11:20:00,METAR EDSB 281120Z 20011KT 9999 BKN043 OVC049 06/M03 Q1020
2026-03-28 10:50:00,METAR EDSB 281050Z 21008KT 190V250 9999 BKN044 OVC049 06/M02 Q1020
2026-03-28 10:20:00,METAR EDSB 281020Z 20010KT CAVOK 06/M02 Q1020
2026-03-28 09:50:00,METAR EDSB 280950Z 21010KT 9999 BKN049 05/M03 Q1021
2026-03-28 09:20:00,METAR EDSB 280920Z 22009KT 190V250 9999 BKN049 04/M02 Q1021
2026-03-28 08:50:00,METAR EDSB 280850Z 19010KT 9999 BKN047 04/M02 Q1021
2026-03-28 08:20:00,METAR EDSB 280820Z 22007KT CAVOK 03/M02 Q1021
2026-03-28 07:50:00,METAR EDSB 280750Z 23006KT CAVOK 02/M02 Q1021
2026-03-28 07:20:00,METAR EDSB 280720Z 22006KT CAVOK 02/M01 Q1021
2026-03-28 06:50:00,METAR EDSB 280650Z 23005KT CAVOK 01/M02 Q1021
2026-03-28 06:20:00,METAR EDSB 280620Z 20003KT CAVOK M01/M02 Q1021
2026-03-28 05:50:00,METAR EDSB 280550Z 21003KT 180V240 CAVOK M01/M03 Q1021
2026-03-28 05:20:00,METAR EDSB 280520Z 17004KT CAVOK M01/M03 Q1021
2026-03-28 04:50:00,METAR EDSB 280450Z 19004KT CAVOK M02/M04 Q1021
2026-03-28 04:20:00,METAR EDSB 280420Z 21003KT CAVOK M02/M03 Q1021
2026-03-28 03:50:00,METAR EDSB 280350Z AUTO 19004KT 9999 // NCD M02/M03 Q1021
2026-03-28 03:20:00,METAR EDSB 280320Z AUTO 17004KT 9999 // NCD M02/M04 Q1022
2026-03-28 02:50:00,METAR EDSB 280250Z AUTO 20003KT 9999 // NCD M02/M03 Q1022
2026-03-28 02:20:00,METAR EDSB 280220Z AUTO 20004KT 9999 // FEW240/// M01/M03 Q1022
2026-03-28 01:50:00,METAR EDSB 280150Z AUTO 17003KT 9999 // NCD M02/M04 Q1022
2026-03-28 01:20:00,METAR EDSB 280120Z AUTO 18003KT 9999 // NCD M01/M04 Q1022
2026-03-28 00:50:00,METAR EDSB 280050Z AUTO 18002KT 9999 R21///// // NCD M01/M03 Q1022
2026-03-28 00:20:00,METAR EDSB 280020Z AUTO VRB01KT 9999 R21///// // NCD M02/M04 Q1023
2026-03-27 23:50:00,METAR EDSB 272350Z AUTO 17003KT 9999 // NCD M01/M05 Q1023
2026-03-27 23:20:00,METAR EDSB 272320Z AUTO 19002KT 9999 // NCD M02/M05 Q1023
2026-03-27 22:50:00,METAR EDSB 272250Z AUTO 19002KT 9999 R21///// // NCD M01/M04 Q1023
2026-03-27 22:20:00,METAR EDSB 272220Z AUTO VRB02KT 9999 NCD M00/M04 Q1023
2026-03-27 21:50:00,METAR EDSB 272150Z VRB01KT CAVOK M00/M05 Q1023
2026-03-27 21:20:00,METAR EDSB 272120Z 23002KT CAVOK 00/M04 Q1023
2026-03-27 20:50:00,METAR EDSB 272050Z 17002KT CAVOK 01/M05 Q1023
2026-03-27 20:20:00,METAR EDSB 272020Z VRB02KT CAVOK 01/M05 Q1023
2026-03-27 19:50:00,METAR EDSB 271950Z 18002KT CAVOK 02/M06 Q1023
2026-03-27 19:20:00,METAR EDSB 271920Z 17002KT CAVOK 04/M06 Q1023
2026-03-27 18:50:00,METAR EDSB 271850Z 16002KT CAVOK 05/M05 Q1023
2026-03-27 18:20:00,METAR EDSB 271820Z 00000KT CAVOK 05/M07 Q1023
2026-03-27 17:50:00,METAR EDSB 271750Z VRB01KT CAVOK 07/M09 Q1023
2026-03-27 17:20:00,METAR EDSB 271720Z VRB01KT CAVOK 08/M08 Q1023
2026-03-27 16:50:00,METAR EDSB 271650Z 04003KT CAVOK 07/M07 Q1023
2026-03-27 16:20:00,METAR EDSB 271620Z 03003KT 340V080 CAVOK 08/M07 Q1023
2026-03-25 14:50:00,METAR EDSB 251450Z 25012G23KT 210V290 9999 SCT034 BKN039 09/02 Q1006
2026-03-25 14:20:00,METAR EDSB 251420Z 24009KT 200V280 9999 SCT033 BKN041 09/02 Q1005
2026-03-25 13:50:00,METAR EDSB 251350Z 27005KT 210V360 9999 FEW032 SCT069 09/03 Q1005
2026-03-25 13:20:00,METAR EDSB 251320Z 25012G24KT 210V300 9000 -RA BKN030 BKN038 08/04 Q1006
2026-03-25 12:50:00,METAR EDSB 251250Z 23007KT 180V290 9999 -RA SCT025 BKN031 08/04 Q1005
2026-03-25 12:20:00,METAR EDSB 251220Z 24009KT 210V280 9999 -RA FEW027 BKN059 08/04 Q1005
2026-03-25 11:50:00,METAR EDSB 251150Z 25010KT 220V290 9999 -RA OVC022 08/04 Q1005
2026-03-25 11:20:00,METAR EDSB 251120Z 24009KT 210V270 9999 -SHRA OVC029CB 08/06 Q1005 RESHRA
2026-03-25 10:50:00,METAR EDSB 251050Z 23010KT 200V270 8000 SHRA FEW028 OVC033CB 09/06 Q1005
2026-03-25 10:20:00,METAR EDSB 251020Z 23008KT 210V270 9000 -RA BKN029 OVC034 09/06 Q1005
2026-03-25 09:50:00,METAR EDSB 250950Z 21007KT 190V250 9000 -RA OVC033 09/06 Q1005
2026-03-25 09:20:00,METAR EDSB 250920Z 22011KT 8000 -RA BKN033 OVC038 09/06 Q1006
2026-03-25 08:50:00,METAR EDSB 250850Z 23012KT 200V270 9999 -RA BKN040 OVC046 10/05 Q1006
2026-03-25 08:20:00,METAR EDSB 250820Z 23012G22KT 9000 -RA OVC042 10/04 Q1006
2026-03-25 07:50:00,METAR EDSB 250750Z 22014KT 200V260 9999 -RA BKN049 12/02 Q1006
2026-03-25 07:20:00,METAR EDSB 250720Z 20020KT CAVOK 12/03 Q1006
2026-03-25 06:50:00,METAR EDSB 250650Z 20021KT CAVOK 12/03 Q1006
2026-03-25 06:20:00,METAR EDSB 250620Z 21017KT CAVOK 11/03 Q1006
2026-03-25 05:50:00,METAR EDSB 250550Z 20018KT CAVOK 10/03 Q1006
2026-03-25 05:20:00,METAR EDSB 250520Z 20019KT CAVOK 11/03 Q1007
2026-03-25 04:50:00,METAR EDSB 250450Z 20017KT CAVOK 11/03 Q1007
2026-03-25 04:20:00,METAR EDSB 250420Z 20016KT CAVOK 10/02 Q1008
2026-03-25 03:50:00,METAR EDSB 250350Z 20016KT CAVOK 11/03 Q1008
2026-03-25 03:20:00,METAR EDSB 250320Z AUTO 19018KT 9999 // NCD 10/03 Q1009
2026-03-25 02:50:00,METAR EDSB 250250Z AUTO 20016KT 9999 // NCD 10/02 Q1010
2026-03-25 02:20:00,METAR EDSB 250220Z AUTO 20017KT 9999 // NCD 10/02 Q1010
2026-03-25 01:50:00,METAR EDSB 250150Z AUTO 21012KT 9999 // NCD 10/02 Q1011
2026-03-25 01:20:00,METAR EDSB 250120Z AUTO 22010KT 9999 // NCD 10/02 Q1011
2026-03-25 00:50:00,METAR EDSB 250050Z AUTO 21011KT 9999 // NCD 10/02 Q1012
2026-03-25 00:20:00,METAR EDSB 250020Z AUTO 20015KT 9999 // SCT180/// 11/02 Q1012
2026-03-24 23:50:00,METAR EDSB 242350Z AUTO 21011KT 9999 // NCD 10/02 Q1013
2026-03-24 23:20:00,METAR EDSB 242320Z AUTO 21010KT 9999 // NCD 10/02 Q1014
2026-03-24 22:50:00,METAR EDSB 242250Z AUTO 20010KT 9999 // FEW160/// SCT180/// BKN210/// 11/02 Q1014
2026-03-24 22:20:00,METAR EDSB 242220Z AUTO 21009KT 9999 // FEW190/// 09/02 Q1015
2026-03-24 21:50:00,METAR EDSB 242150Z 21010KT CAVOK 11/02 Q1015
2026-03-24 21:20:00,METAR EDSB 242120Z 20011KT CAVOK 12/02 Q1015
2026-03-24 20:50:00,METAR EDSB 242050Z 21009KT CAVOK 10/02 Q1015
2026-03-24 20:20:00,METAR EDSB 242020Z 20007KT CAVOK 10/02 Q1016
2026-03-24 19:50:00,METAR EDSB 241950Z 21006KT CAVOK 10/02 Q1016
2026-03-24 19:20:00,METAR EDSB 241920Z 21006KT CAVOK 11/02 Q1016
2026-03-24 18:50:00,METAR EDSB 241850Z 20006KT CAVOK 11/02 Q1016
2026-03-24 18:20:00,METAR EDSB 241820Z 20004KT CAVOK 13/02 Q1016
2026-03-24 17:50:00,METAR EDSB 241750Z 21004KT CAVOK 14/02 Q1017
2026-03-24 17:20:00,METAR EDSB 241720Z 19006KT CAVOK 14/03 Q1017
2026-03-24 16:50:00,METAR EDSB 241650Z 21004KT CAVOK 15/03 Q1017
2026-03-24 16:20:00,METAR EDSB 241620Z 21006KT CAVOK 16/03 Q1018
2026-03-24 15:50:00,METAR EDSB 241550Z 20008KT 170V230 CAVOK 16/03 Q1018
2026-03-24 15:20:00,METAR EDSB 241520Z 20007KT 180V250 CAVOK 16/01 Q1019
2026-03-24 14:50:00,METAR EDSB 241450Z 21007KT 160V250 CAVOK 16/02 Q1019
2026-03-24 14:20:00,METAR EDSB 241420Z 20008KT 160V240 CAVOK 16/01 Q1019
2026-03-24 13:50:00,METAR EDSB 241350Z COR 21005KT 170V270 CAVOK 16/02 Q1020
2026-03-24 13:20:00,METAR EDSB 241320Z VRB05KT CAVOK 16/01 Q1020
2026-03-24 12:50:00,METAR EDSB 241250Z 23005KT 180V290 CAVOK 16/01 Q1021
2026-03-24 12:20:00,METAR EDSB 241220Z 21007KT 180V250 CAVOK 15/01 Q1021
2026-03-24 11:50:00,METAR EDSB 241150Z 23006KT 190V280 CAVOK 15/03 Q1022
2026-03-24 11:20:00,METAR EDSB 241120Z 21007KT 180V270 CAVOK 14/03 Q1022
2026-03-24 10:50:00,METAR EDSB 241050Z 21007KT 170V240 CAVOK 14/03 Q1022
2026-03-24 10:20:00,METAR EDSB 241020Z 21007KT 180V260 CAVOK 13/03 Q1022
2026-03-24 09:50:00,METAR EDSB 240950Z 23006KT 190V280 CAVOK 12/04 Q1023
2026-03-24 09:20:00,METAR EDSB 240920Z 21006KT CAVOK 11/03 Q1023
2026-03-24 08:50:00,METAR EDSB 240850Z 21007KT CAVOK 09/02 Q1023
2026-03-24 08:20:00,METAR EDSB 240820Z 20007KT CAVOK 08/02 Q1023
2026-03-24 07:50:00,METAR EDSB 240750Z 23005KT CAVOK 06/02 Q1023
2026-03-24 07:20:00,METAR EDSB 240720Z 21003KT CAVOK 05/02 Q1023
2026-03-24 06:50:00,METAR EDSB 240650Z 19004KT CAVOK 02/01 Q1023
2026-03-24 06:20:00,METAR EDSB 240620Z 16002KT CAVOK 01/M01 Q1023
2026-03-24 05:50:00,METAR EDSB 240550Z 20002KT CAVOK 01/M00 Q1022
2026-03-24 05:20:00,METAR EDSB 240520Z 20002KT CAVOK 01/M01 Q1022
2026-03-24 04:50:00,METAR EDSB 240450Z 19004KT CAVOK 01/M01 Q1022
2026-03-24 04:20:00,METAR EDSB 240420Z 18003KT CAVOK 01/M01 Q1022
2026-03-24 03:50:00,METAR EDSB 240350Z 18003KT CAVOK 01/M01 Q1022
2026-03-24 03:20:00,METAR EDSB 240320Z AUTO VRB01KT 9999 // NCD 02/M00 Q1022
2026-03-24 02:50:00,METAR EDSB 240250Z AUTO 24001KT 9999 // NCD 01/M01 Q1021
2026-03-24 02:20:00,METAR EDSB 240220Z AUTO 19002KT 9999 R21///// // NCD 02/00 Q1021
2026-03-24 01:50:00,METAR EDSB 240150Z AUTO 18003KT 9999 R21///// // NCD 02/M00 Q1022
2026-03-24 01:20:00,METAR EDSB 240120Z AUTO 20002KT 9999 R21///// // NCD 02/00 Q1022
2026-03-24 00:50:00,METAR EDSB 240050Z AUTO 19002KT 9999 R21///// // NCD 02/00 Q1022
2026-03-24 00:20:00,METAR EDSB 240020Z AUTO VRB02KT 9999 R21///// // NCD 02/M00 Q1022
2026-03-23 23:50:00,METAR EDSB 232350Z AUTO VRB02KT 9999 R21///// // NCD 03/M00 Q1022
2026-03-23 23:20:00,METAR EDSB 232320Z AUTO VRB01KT 9999 R21///// // NCD 04/00 Q1022
2026-03-23 22:50:00,METAR EDSB 232250Z VRB02KT CAVOK 04/00 Q1021
2026-03-23 22:20:00,METAR EDSB 232220Z VRB02KT CAVOK 04/00 Q1021
2026-03-23 21:50:00,METAR EDSB 232150Z VRB01KT CAVOK 04/00 Q1022
2026-03-23 21:20:00,METAR EDSB 232120Z VRB02KT CAVOK 06/01 Q1021
2026-03-23 20:50:00,METAR EDSB 232050Z 18003KT CAVOK 06/00 Q1021
2026-03-23 20:20:00,METAR EDSB 232020Z VRB02KT CAVOK 07/00 Q1021
2026-03-23 19:50:00,METAR EDSB 231950Z 00000KT CAVOK 07/01 Q1021
2026-03-23 19:20:00,METAR EDSB 231920Z VRB02KT CAVOK 09/01 Q1021
2026-03-23 18:50:00,METAR EDSB 231850Z 00000KT CAVOK 10/00 Q1020
2026-03-23 18:20:00,METAR EDSB 231820Z 00000KT CAVOK 11/00 Q1020
2026-03-23 17:50:00,METAR EDSB 231750Z 33001KT CAVOK 13/M00 Q1019
2026-03-23 17:20:00,METAR EDSB 231720Z VRB01KT CAVOK 14/00 Q1019
2026-03-23 16:50:00,METAR EDSB 231650Z 01003KT 340V050 CAVOK 14/M00 Q1019
2026-03-23 16:20:00,METAR EDSB 231620Z VRB02KT CAVOK 15/M00 Q1019
2026-03-23 15:50:00,METAR EDSB 231550Z 03003KT 320V110 CAVOK 15/M00 Q1019
2026-03-23 15:20:00,METAR EDSB 231520Z 36004KT 330V070 CAVOK 15/01 Q1019
2026-03-23 14:50:00,METAR EDSB 231450Z 02005KT 330V070 CAVOK 15/M00 Q1018
2026-03-23 14:20:00,METAR EDSB 231420Z 01007KT CAVOK 15/01 Q1018
2026-03-23 13:50:00,METAR EDSB 231350Z 35003KT 290V040 CAVOK 15/01 Q1018
2026-03-23 13:20:00,METAR EDSB 231320Z VRB02KT CAVOK 14/02 Q1018
2026-03-23 12:50:00,METAR EDSB 231250Z 35003KT 290V060 CAVOK 13/02 Q1019
2026-03-23 12:20:00,METAR EDSB 231220Z 31005KT 260V360 CAVOK 13/03 Q1019
2026-03-23 11:50:00,METAR EDSB 231150Z 30003KT 250V340 CAVOK 12/03 Q1019
2026-03-23 11:20:00,METAR EDSB 231120Z VRB02KT CAVOK 12/04 Q1019
2026-03-23 10:50:00,METAR EDSB 231050Z VRB02KT CAVOK 10/03 Q1019
2026-03-23 10:20:00,METAR EDSB 231020Z 23004KT 150V280 CAVOK 10/04 Q1019
2026-03-23 09:50:00,METAR EDSB 230950Z 22003KT 160V280 CAVOK 09/04 Q1019
2026-03-23 09:20:00,METAR EDSB 230920Z 24003KT 190V280 CAVOK 08/04 Q1018
2026-03-23 08:50:00,METAR EDSB 230850Z 22004KT 160V270 CAVOK 07/04 Q1018
2026-03-23 08:20:00,METAR EDSB 230820Z 19004KT CAVOK 06/04 Q1018
2026-03-23 07:50:00,METAR EDSB 230750Z 18003KT CAVOK 04/03 Q1017
2026-03-23 07:20:00,METAR EDSB 230720Z VRB01KT CAVOK 03/02 Q1017
2026-03-23 06:50:00,METAR EDSB 230650Z 19003KT CAVOK 00/M00 Q1017
2026-03-23 06:20:00,METAR EDSB 230620Z 21002KT CAVOK 00/M01 Q1017
2026-03-23 05:50:00,METAR EDSB 230550Z VRB02KT 9999 BCFG NSC 00/M01 Q1016
2026-03-23 05:20:00,METAR EDSB 230520Z 16002KT 9999 BCFG FEW009 01/M01 Q1016
2026-03-23 04:50:00,METAR EDSB 230450Z 00000KT 8000 BCFG FEW008 00/M00 Q1016
2026-03-23 04:20:00,METAR EDSB 230420Z 09001KT CAVOK 00/M01 Q1016
2026-03-23 03:50:00,METAR EDSB 230350Z AUTO 00000KT 7000 NCD 01/00 Q1015
2026-03-23 03:20:00,METAR EDSB 230320Z AUTO 00000KT 4400 0250 R21/P2000N NCD 00/M00 Q1015
2026-03-23 02:50:00,METAR EDSB 230250Z AUTO 21001KT 6000 0450 R21/P2000N FEW003/// 01/00 Q1015
2026-03-23 02:20:00,METAR EDSB 230220Z AUTO 16002KT 9000 FEW006/// 01/00 Q1014
2026-03-23 01:50:00,METAR EDSB 230150Z AUTO 14001KT 9000 FEW003/// 02/01 Q1014
2026-03-23 01:20:00,METAR EDSB 230120Z AUTO VRB01KT CAVOK 02/01 Q1014
2026-03-23 00:50:00,METAR EDSB 230050Z AUTO VRB01KT CAVOK 02/00 Q1014
2026-03-23 00:20:00,METAR EDSB 230020Z AUTO VRB01KT CAVOK 03/01 Q1014
2026-03-22 23:50:00,METAR EDSB 222350Z AUTO 33002KT CAVOK 03/01 Q1014
2026-03-22 23:20:00,METAR EDSB 222320Z AUTO 18001KT CAVOK 04/01 Q1014
2026-03-22 22:50:00,METAR EDSB 222250Z 00000KT CAVOK 05/02 Q1013
2026-03-22 22:20:00,METAR EDSB 222220Z VRB01KT CAVOK 04/02 Q1013
2026-03-22 21:50:00,METAR EDSB 222150Z 03002KT CAVOK 05/02 Q1013
2026-03-22 21:20:00,METAR EDSB 222120Z 04002KT CAVOK 06/03 Q1013
2026-03-22 20:50:00,METAR EDSB 222050Z VRB02KT CAVOK 06/02 Q1013
2026-03-22 20:20:00,METAR EDSB 222020Z 00000KT CAVOK 07/02 Q1013
2026-03-22 19:50:00,METAR EDSB 221950Z 00000KT CAVOK 08/03 Q1012
2026-03-22 19:20:00,METAR EDSB 221920Z VRB02KT CAVOK 09/03 Q1012
2026-03-22 18:50:00,METAR EDSB 221850Z 03003KT CAVOK 10/03 Q1012
2026-03-22 18:20:00,METAR EDSB 221820Z 36004KT CAVOK 11/03 Q1012
2026-03-22 17:50:00,METAR EDSB 221750Z 36005KT CAVOK 12/03 Q1012
2026-03-22 17:20:00,METAR EDSB 221720Z 01006KT CAVOK 13/03 Q1012
2026-03-22 16:50:00,METAR EDSB 221650Z 02007KT 330V040 CAVOK 13/03 Q1011
2026-03-22 16:20:00,METAR EDSB 221620Z 02008KT CAVOK 14/03 Q1011
2026-03-22 15:50:00,METAR EDSB 221550Z 03010KT CAVOK 14/03 Q1011
2026-03-22 15:20:00,METAR EDSB 221520Z 03010KT CAVOK 14/04 Q1011
2026-03-22 14:50:00,METAR EDSB 221450Z 02010KT CAVOK 14/04 Q1011
2026-03-22 14:20:00,METAR EDSB 221420Z 02010KT 350V050 CAVOK 13/04 Q1011
2026-03-22 13:50:00,METAR EDSB 221350Z 03010KT 360V070 CAVOK 13/04 Q1011
2026-03-22 13:20:00,METAR EDSB 221320Z 02011KT 350V050 CAVOK 12/04 Q1012
2026-03-22 12:50:00,METAR EDSB 221250Z 03011KT 360V060 CAVOK 12/05 Q1012
2026-03-22 12:20:00,METAR EDSB 221220Z 02012KT CAVOK 11/03 Q1012
2026-03-22 11:50:00,METAR EDSB 221150Z 02012KT 360V060 CAVOK 11/04 Q1012
2026-03-22 11:20:00,METAR EDSB 221120Z 03012KT CAVOK 10/04 Q1012
2026-03-22 10:50:00,METAR EDSB 221050Z 03012KT CAVOK 10/03 Q1012
2026-03-22 10:20:00,METAR EDSB 221020Z 03013KT CAVOK 09/03 Q1013
2026-03-22 09:50:00,METAR EDSB 220950Z 04013KT CAVOK 09/04 Q1012
2026-03-22 09:20:00,METAR EDSB 220920Z 02014KT 9999 FEW030 08/04 Q1013
2026-03-22 08:50:00,METAR EDSB 220850Z 04014KT 9999 FEW029 07/03 Q1013
2026-03-22 08:20:00,METAR EDSB 220820Z 03014KT CAVOK 07/03 Q1013
2026-03-22 07:50:00,METAR EDSB 220750Z 03013KT CAVOK 06/03 Q1013
2026-03-22 07:20:00,METAR EDSB 220720Z 03013KT CAVOK 06/03 Q1012
2026-03-22 06:50:00,METAR EDSB 220650Z 04012KT CAVOK 06/03 Q1012
2026-03-22 06:20:00,METAR EDSB 220620Z 04012KT CAVOK 05/03 Q1012
2026-03-22 05:50:00,METAR EDSB 220550Z 04013KT CAVOK 05/03 Q1012
2026-03-22 05:20:00,METAR EDSB 220520Z 04014KT CAVOK 05/03 Q1012
2026-03-22 04:50:00,METAR EDSB 220450Z 04013KT 7000 NSC 05/04 Q1012
2026-03-22 04:20:00,METAR EDSB 220420Z 01007KT 7000 NSC 05/04 Q1012
2026-03-22 03:50:00,METAR EDSB 220350Z AUTO 01006KT 7000 NCD 06/04 Q1012
2026-03-22 03:20:00,METAR EDSB 220320Z AUTO 02009KT 7000 NCD 06/04 Q1012
2026-03-22 02:50:00,METAR EDSB 220250Z AUTO 01007KT 8000 FEW130/// 06/04 Q1012
2026-03-22 02:20:00,METAR EDSB 220220Z AUTO 03008KT 9000 SCT110/// SCT130/// 07/04 Q1012
2026-03-22 01:50:00,METAR EDSB 220150Z AUTO 03009KT 9000 SCT086/// OVC100/// 07/05 Q1012
2026-03-22 01:20:00,METAR EDSB 220120Z AUTO 04011KT 9000 BKN085/// 07/05 Q1012
2026-03-22 00:50:00,METAR EDSB 220050Z AUTO 03010KT 9000 BKN085/// 07/05 Q1012
2026-03-22 00:20:00,METAR EDSB 220020Z AUTO 03010KT 9999 BKN067/// BKN091/// 08/05 Q1012
2026-03-21 23:50:00,METAR EDSB 212350Z AUTO 03008KT 9999 FEW047/// BKN055/// OVC068/// 08/05 Q1013
2026-03-21 23:20:00,METAR EDSB 212320Z AUTO 03008KT 9999 BKN045/// OVC056/// 08/05 Q1013
2026-03-21 22:50:00,METAR EDSB 212250Z 04007KT 9999 VCSH BKN047 08/06 Q1013
2026-03-21 22:20:00,METAR EDSB 212220Z 04007KT 9999 -RA FEW048 08/06 Q1013
2026-03-21 21:50:00,METAR EDSB 212150Z 03007KT CAVOK 08/05 Q1013
2026-03-21 21:20:00,METAR EDSB 212120Z 05006KT CAVOK 09/05 Q1013
2026-03-21 20:50:00,METAR EDSB 212050Z 05007KT CAVOK 08/06 Q1013
2026-03-21 20:20:00,METAR EDSB 212020Z 05006KT 9999 -RA FEW045 09/06 Q1013
2026-03-21 19:50:00,METAR EDSB 211950Z 07007KT 9999 -RA FEW018 SCT045 09/06 Q1013
2026-03-21 19:20:00,METAR EDSB 211920Z 07009KT 9999 -RA FEW047 09/06 Q1013
2026-03-21 18:50:00,METAR EDSB 211850Z 05011KT 9999 -SHRA BKN046TCU 10/05 Q1013 RESHRA
2026-03-21 18:20:00,METAR EDSB 211820Z 09004KT 060V130 9999 SHRA BKN045 BKN051TCU 11/04 Q1013
2026-03-21 17:50:00,METAR EDSB 211750Z 08008KT 050V110 9999 VCSH SCT049 12/03 Q1012
2026-03-21 17:20:00,METAR EDSB 211720Z 02008KT CAVOK 12/03 Q1012
2026-03-21 16:50:00,METAR EDSB 211650Z 03009KT CAVOK 13/03 Q1012
2026-03-21 16:20:00,METAR EDSB 211620Z 03010KT CAVOK 13/03 Q1012
2026-03-21 15:50:00,METAR EDSB 211550Z 04012KT CAVOK 14/03 Q1012
2026-03-21 14:50:00,METAR EDSB 211450Z 08006KT 040V110 CAVOK 15/03 Q1012
2026-03-21 14:20:00,METAR EDSB 211420Z 08005KT 350V140 CAVOK 14/02 Q1012
2026-03-21 13:50:00,METAR EDSB 211350Z 07007KT 030V110 CAVOK 14/02 Q1013
2026-03-21 13:20:00,METAR EDSB 211320Z 04010KT 010V080 CAVOK 14/02 Q1013
2026-03-21 12:50:00,METAR EDSB 211250Z 04011KT CAVOK 14/03 Q1013
2026-03-21 12:20:00,METAR EDSB 211220Z 02011KT 340V050 CAVOK 14/04 Q1014
2026-03-21 11:50:00,METAR EDSB 211150Z 01011KT 340V040 CAVOK 13/04 Q1014
2026-03-21 11:20:00,METAR EDSB 211120Z 36010KT CAVOK 13/04 Q1014
2026-03-21 10:50:00,METAR EDSB 211050Z COR 03010KT CAVOK 12/04 Q1014
2026-03-21 10:20:00,METAR EDSB 211020Z 01008KT CAVOK 11/04 Q1015
2026-03-21 09:50:00,METAR EDSB 210950Z 02009KT 350V050 CAVOK 10/04 Q1015
2026-03-21 09:20:00,METAR EDSB 210920Z 04008KT CAVOK 09/05 Q1015
2026-03-21 08:50:00,METAR EDSB 210850Z 04008KT CAVOK 09/04 Q1015
2026-03-21 08:20:00,METAR EDSB 210820Z 03009KT CAVOK 08/03 Q1015
2026-03-21 07:50:00,METAR EDSB 210750Z 04007KT CAVOK 07/03 Q1015
2026-03-21 07:20:00,METAR EDSB 210720Z 03006KT CAVOK 05/02 Q1015
2026-03-21 06:50:00,METAR EDSB 210650Z 03006KT CAVOK 05/02 Q1015
2026-03-21 06:20:00,METAR EDSB 210620Z 02006KT CAVOK 04/01 Q1015
2026-03-21 05:50:00,METAR EDSB 210550Z 02006KT CAVOK 04/01 Q1015
2026-03-21 05:20:00,METAR EDSB 210520Z 03006KT CAVOK 03/00 Q1015
2026-03-21 04:50:00,METAR EDSB 210450Z 07005KT CAVOK 04/01 Q1015
2026-03-21 04:20:00,METAR EDSB 210420Z 00000KT CAVOK 04/00 Q1015
2026-03-21 03:50:00,METAR EDSB 210350Z AUTO 01001KT 9999 // SCT090/// 05/01 Q1015
2026-03-21 03:20:00,METAR EDSB 210320Z AUTO 07002KT 9999 // BKN091/// 04/00 Q1015
2026-03-21 02:50:00,METAR EDSB 210250Z AUTO 06004KT 9999 // BKN093/// 05/00 Q1015
2026-03-21 02:20:00,METAR EDSB 210220Z AUTO VRB02KT 9999 // BKN095/// 05/00 Q1015
2026-03-21 01:50:00,METAR EDSB 210150Z AUTO 03003KT 9999 // FEW092/// 06/01 Q1015
2026-03-21 01:20:00,METAR EDSB 210120Z AUTO 04006KT 9999 // BKN100/// 06/01 Q1015
2026-03-21 00:50:00,METAR EDSB 210050Z AUTO 03005KT 9999 // OVC110/// 06/01 Q1015
2026-03-21 00:20:00,METAR EDSB 210020Z AUTO 03005KT 9999 // OVC110/// 06/00 Q1015
2026-03-20 23:50:00,METAR EDSB 202350Z AUTO 02005KT 9999 // BKN110/// 06/M00 Q1015
2026-03-20 23:20:00,METAR EDSB 202320Z 03004KT CAVOK 05/M00 Q1016
2026-03-20 22:50:00,METAR EDSB 202250Z 03004KT CAVOK 06/M00 Q1016
2026-03-20 22:20:00,METAR EDSB 202220Z 02005KT CAVOK 06/M01 Q1016
2026-03-20 21:50:00,METAR EDSB 202150Z 02006KT CAVOK 07/M01 Q1016
2026-03-20 21:20:00,METAR EDSB 202120Z 02005KT CAVOK 07/M00 Q1016
2026-03-20 20:50:00,METAR EDSB 202050Z 04004KT CAVOK 09/M01 Q1016
2026-03-20 20:20:00,METAR EDSB 202020Z 04003KT CAVOK 08/M00 Q1016
2026-03-20 19:50:00,METAR EDSB 201950Z 02004KT CAVOK 09/M01 Q1016
2026-03-20 19:20:00,METAR EDSB 201920Z 03005KT CAVOK 10/M01 Q1016
2026-03-20 18:50:00,METAR EDSB 201850Z 05006KT CAVOK 11/M01 Q1016
2026-03-20 18:20:00,METAR EDSB 201820Z 04007KT CAVOK 11/M00 Q1016
2026-03-20 17:50:00,METAR EDSB 201750Z 03007KT CAVOK 11/M00 Q1016
2026-03-20 17:20:00,METAR EDSB 201720Z 03008KT CAVOK 13/00 Q1016
2026-03-20 16:50:00,METAR EDSB 201650Z 03009KT CAVOK 14/M00 Q1016
2026-03-20 16:20:00,METAR EDSB 201620Z 02010KT CAVOK 15/00 Q1016
2026-03-20 15:50:00,METAR EDSB 201550Z 02011KT 350V060 CAVOK 15/M00 Q1016
2026-03-20 15:20:00,METAR EDSB 201520Z 02011KT CAVOK 15/00 Q1016
2026-03-20 14:50:00,METAR EDSB 201450Z 01011KT 340V040 CAVOK 15/M01 Q1016
2026-03-20 14:20:00,METAR EDSB 201420Z 02011KT CAVOK 15/M00 Q1017
2026-03-20 13:50:00,METAR EDSB 201350Z 01011KT CAVOK 15/00 Q1017
2026-03-20 13:20:00,METAR EDSB 201320Z 02011KT 360V060 CAVOK 15/01 Q1017
2026-03-20 12:50:00,METAR EDSB 201250Z 01011KT CAVOK 15/01 Q1018
2026-03-20 12:20:00,METAR EDSB 201220Z 03012KT 360V060 CAVOK 15/01 Q1018
2026-03-20 11:50:00,METAR EDSB 201150Z 01012KT 340V040 CAVOK 14/03 Q1019
2026-03-20 11:20:00,METAR EDSB 201120Z 02012KT CAVOK 13/01 Q1019
2026-03-20 10:50:00,METAR EDSB 201050Z 03010KT CAVOK 13/02 Q1019
2026-03-20 10:20:00,METAR EDSB 201020Z 02010KT CAVOK 12/01 Q1019
2026-03-20 09:50:00,METAR EDSB 200950Z 02008KT CAVOK 11/02 Q1020
2026-03-20 09:20:00,METAR EDSB 200920Z 01006KT 340V050 CAVOK 10/02 Q1020
2026-03-20 08:50:00,METAR EDSB 200850Z 01007KT CAVOK 08/02 Q1020
2026-03-20 08:20:00,METAR EDSB 200820Z 02008KT CAVOK 07/01 Q1020
2026-03-20 07:50:00,METAR EDSB 200750Z 02009KT CAVOK 06/01 Q1020
2026-03-20 07:20:00,METAR EDSB 200720Z 03008KT CAVOK 05/01 Q1020
2026-03-20 06:50:00,METAR EDSB 200650Z 04007KT CAVOK 04/00 Q1020
2026-03-20 06:20:00,METAR EDSB 200620Z 03005KT CAVOK 02/M01 Q1020
2026-03-20 05:50:00,METAR EDSB 200550Z 02005KT CAVOK 03/M00 Q1019
2026-03-20 05:20:00,METAR EDSB 200520Z 02005KT CAVOK 03/M01 Q1019
2026-03-20 04:50:00,METAR EDSB 200450Z 02006KT CAVOK 03/M01 Q1019
2026-03-20 04:20:00,METAR EDSB 200420Z 03007KT CAVOK 03/M01 Q1019
2026-03-20 03:50:00,METAR EDSB 200350Z 02008KT CAVOK 03/M01 Q1019
2026-03-20 03:20:00,METAR EDSB 200320Z AUTO 02008KT 9999 FEW220/// 02/M01 Q1019
2026-03-20 02:50:00,METAR EDSB 200250Z AUTO 02008KT 9999 NCD 03/M01 Q1019
2026-03-20 02:20:00,METAR EDSB 200220Z AUTO 03008KT 9999 NCD 03/M01 Q1019
2026-03-20 01:50:00,METAR EDSB 200150Z AUTO 04007KT 9999 NCD 03/M01 Q1019
2026-03-20 01:20:00,METAR EDSB 200120Z AUTO 03004KT 9999 NCD 02/M02 Q1019
2026-03-20 00:50:00,METAR EDSB 200050Z AUTO VRB02KT 9999 NCD 03/M02 Q1020
2026-03-20 00:20:00,METAR EDSB 200020Z AUTO 03008KT 9999 NCD 03/M02 Q1020
2026-03-19 23:50:00,METAR EDSB 192350Z AUTO 03006KT 9999 NCD 05/M01 Q1020
2026-03-19 23:20:00,METAR EDSB 192320Z 03005KT CAVOK 05/00 Q1020
2026-03-19 22:50:00,METAR EDSB 192250Z 04004KT CAVOK 06/01 Q1020
2026-03-19 22:20:00,METAR EDSB 192220Z 01003KT CAVOK 06/M00 Q1020
2026-03-19 21:50:00,METAR EDSB 192150Z 01004KT CAVOK 05/M01 Q1021
2026-03-19 21:20:00,METAR EDSB 192120Z 03005KT CAVOK 07/M01 Q1021
2026-03-19 20:50:00,METAR EDSB 192050Z 05006KT CAVOK 06/M01 Q1021
2026-03-19 20:20:00,METAR EDSB 192020Z 04007KT CAVOK 08/M01 Q1021
2026-03-19 19:50:00,METAR EDSB 191950Z 05006KT CAVOK 09/M01 Q1021
2026-03-19 19:20:00,METAR EDSB 191920Z 06006KT CAVOK 11/M01 Q1021
2026-03-19 18:50:00,METAR EDSB 191850Z 04006KT CAVOK 11/M01 Q1021
2026-03-19 18:20:00,METAR EDSB 191820Z 04006KT CAVOK 11/M02 Q1020
2026-03-19 17:50:00,METAR EDSB 191750Z 04008KT CAVOK 12/M01 Q1020
2026-03-19 17:20:00,METAR EDSB 191720Z 04010KT CAVOK 13/M02 Q1020
2026-03-19 16:50:00,METAR EDSB 191650Z 03013KT CAVOK 14/M02 Q1020
2026-03-19 16:20:00,METAR EDSB 191620Z 03013KT CAVOK 15/M02 Q1020
2026-03-19 15:50:00,METAR EDSB 191550Z 04015KT CAVOK 15/M03 Q1020
2026-03-19 15:20:00,METAR EDSB 191520Z 04016KT CAVOK 16/M02 Q1020
2026-03-19 14:50:00,METAR EDSB 191450Z 03016KT CAVOK 16/M00 Q1020
2026-03-19 14:20:00,METAR EDSB 191420Z 03015KT CAVOK 15/M00 Q1021
2026-03-19 13:50:00,METAR EDSB 191350Z 02013KT 360V060 CAVOK 15/01 Q1021
2026-03-19 13:20:00,METAR EDSB 191320Z 03013KT 360V060 CAVOK 15/02 Q1021
2026-03-19 12:50:00,METAR EDSB 191250Z 02013KT CAVOK 15/03 Q1021
2026-03-19 12:20:00,METAR EDSB 191220Z 02014KT CAVOK 15/01 Q1022
2026-03-19 11:50:00,METAR EDSB 191150Z 02015KT 350V050 CAVOK 15/02 Q1022
2026-03-19 11:20:00,METAR EDSB 191120Z 01012KT 340V040 CAVOK 13/02 Q1022
2026-03-19 10:50:00,METAR EDSB 191050Z 01013KT CAVOK 13/03 Q1023
2026-03-19 10:20:00,METAR EDSB 191020Z 02013KT 350V050 CAVOK 12/02 Q1023
2026-03-19 09:50:00,METAR EDSB 190950Z 02013KT CAVOK 11/03 Q1023
2026-03-19 09:20:00,METAR EDSB 190920Z 01012KT CAVOK 10/02 Q1023
2026-03-19 08:50:00,METAR EDSB 190850Z 01013KT CAVOK 09/02 Q1023
2026-03-19 08:20:00,METAR EDSB 190820Z 03014KT CAVOK 09/02 Q1023
2026-03-19 07:50:00,METAR EDSB 190750Z 03016KT CAVOK 08/02 Q1023
2026-03-19 07:20:00,METAR EDSB 190720Z 03014KT CAVOK 07/02 Q1023
2026-03-19 06:50:00,METAR EDSB 190650Z 02015KT CAVOK 06/01 Q1023
2026-03-19 06:20:00,METAR EDSB 190620Z 03013KT CAVOK 06/01 Q1022
2026-03-19 05:50:00,METAR EDSB 190550Z 03013KT CAVOK 06/01 Q1022
2026-03-19 05:20:00,METAR EDSB 190520Z 02013KT CAVOK 07/01 Q1022
2026-03-19 04:50:00,METAR EDSB 190450Z 02013KT CAVOK 07/02 Q1022
2026-03-19 04:20:00,METAR EDSB 190420Z 03013KT CAVOK 07/02 Q1022
2026-03-19 03:50:00,METAR EDSB 190350Z 03013KT CAVOK 07/02 Q1022
2026-03-19 03:20:00,METAR EDSB 190320Z AUTO 03012KT 9999 // NCD 07/02 Q1021
2026-03-19 02:50:00,METAR EDSB 190250Z AUTO 03013KT 9999 // NCD 07/02 Q1022
2026-03-19 02:20:00,METAR EDSB 190220Z AUTO 02012KT 9999 // NCD 08/02 Q1022
2026-03-19 01:50:00,METAR EDSB 190150Z AUTO 03011KT 9999 // NCD 08/02 Q1022
2026-03-19 01:20:00,METAR EDSB 190120Z AUTO 03013KT 9999 // NCD 09/03 Q1022
2026-03-19 00:50:00,METAR EDSB 190050Z AUTO 02012KT 9999 // NCD 09/03 Q1022
2026-03-19 00:20:00,METAR EDSB 190020Z AUTO 02010KT 9999 // NCD 09/03 Q1022
2026-03-18 23:50:00,METAR EDSB 182350Z AUTO 03008KT 9999 // NCD 08/03 Q1022
2026-03-18 23:20:00,METAR EDSB 182320Z AUTO 02009KT 9999 // NCD 09/03 Q1022
2026-03-18 22:50:00,METAR EDSB 182250Z AUTO 01009KT 9999 // NCD 10/02 Q1022
2026-03-18 22:20:00,METAR EDSB 182220Z 01008KT 350V050 CAVOK 10/02 Q1022
2026-03-18 21:50:00,METAR EDSB 182150Z 35009KT CAVOK 09/03 Q1022
2026-03-18 21:20:00,METAR EDSB 182120Z 01009KT CAVOK 09/03 Q1022
2026-03-18 20:50:00,METAR EDSB 182050Z 02011KT CAVOK 10/03 Q1022
2026-03-18 20:20:00,METAR EDSB 182020Z 02008KT CAVOK 10/03 Q1022
2026-03-18 19:50:00,METAR EDSB 181950Z 03008KT CAVOK 10/03 Q1022
2026-03-18 19:20:00,METAR EDSB 181920Z COR 02007KT CAVOK 10/03 Q1022
2026-03-18 18:50:00,METAR EDSB 181850Z 02007KT CAVOK 11/02 Q1022
2026-03-18 18:20:00,METAR EDSB 181820Z 04009KT CAVOK 11/02 Q1021
2026-03-18 17:50:00,METAR EDSB 181750Z 05011KT CAVOK 12/02 Q1021
2026-03-18 17:20:00,METAR EDSB 181720Z 05013KT CAVOK 13/02 Q1021
2026-03-18 16:50:00,METAR EDSB 181650Z 05013KT CAVOK 14/02 Q1021
2026-03-18 16:20:00,METAR EDSB 181620Z 06016KT CAVOK 14/02 Q1021
2026-03-18 15:50:00,METAR EDSB 181550Z 05016KT CAVOK 14/02 Q1021
2026-03-18 15:20:00,METAR EDSB 181520Z 05018KT CAVOK 14/02 Q1020
2026-03-18 14:50:00,METAR EDSB 181450Z COR 05020KT CAVOK 14/02 Q1020
2026-03-18 14:20:00,METAR EDSB 181420Z 04019KT CAVOK 14/02 Q1020
2026-03-18 13:50:00,METAR EDSB 181350Z 05018G28KT CAVOK 14/02 Q1020
2026-03-18 13:20:00,METAR EDSB 181320Z 04020KT CAVOK 13/02 Q1021
2026-03-18 12:50:00,METAR EDSB 181250Z 04021KT 020V080 CAVOK 13/02 Q1021
2026-03-18 12:20:00,METAR EDSB 181220Z 05022KT CAVOK 12/01 Q1021
2026-03-18 11:50:00,METAR EDSB 181150Z 04020KT CAVOK 12/01 Q1021
2026-03-18 11:20:00,METAR EDSB 181120Z 05017KT CAVOK 11/02 Q1022
2026-03-18 10:50:00,METAR EDSB 181050Z 05019KT CAVOK 11/01 Q1022
2026-03-18 10:20:00,METAR EDSB 181020Z 04019KT CAVOK 10/01 Q1022
2026-03-18 09:50:00,METAR EDSB 180950Z 04019KT CAVOK 09/01 Q1022
2026-03-18 09:20:00,METAR EDSB 180920Z 05018KT CAVOK 08/M00 Q1022
2026-03-18 08:50:00,METAR EDSB 180850Z 04018KT CAVOK 07/00 Q1022
2026-03-18 08:20:00,METAR EDSB 180820Z 04018KT CAVOK 07/01 Q1022
2026-03-18 07:50:00,METAR EDSB 180750Z 04017KT CAVOK 06/00 Q1022
2026-03-18 07:20:00,METAR EDSB 180720Z 04016KT CAVOK 05/01 Q1022
2026-03-18 06:50:00,METAR EDSB 180650Z 03010KT CAVOK 04/01 Q1022
2026-03-18 06:20:00,METAR EDSB 180620Z 03010KT CAVOK 04/01 Q1022
2026-03-18 05:50:00,METAR EDSB 180550Z 03009KT CAVOK 04/01 Q1022
2026-03-18 05:20:00,METAR EDSB 180520Z 02009KT CAVOK 03/01 Q1022
2026-03-18 04:50:00,METAR EDSB 180450Z 03009KT CAVOK 04/01 Q1022
2026-03-18 04:20:00,METAR EDSB 180420Z 03007KT CAVOK 04/01 Q1021
2026-03-18 03:50:00,METAR EDSB 180350Z 05008KT CAVOK 04/01 Q1021
2026-03-18 03:20:00,METAR EDSB 180320Z AUTO 05008KT 9999 // NCD 05/01 Q1021
2026-03-18 02:50:00,METAR EDSB 180250Z AUTO 04007KT 9999 // NCD 05/02 Q1021
2026-03-18 02:20:00,METAR EDSB 180220Z AUTO 03008KT 9999 // NCD 04/01 Q1021
2026-03-18 01:50:00,METAR EDSB 180150Z AUTO 04007KT 9999 // NCD 04/01 Q1021
2026-03-18 01:20:00,METAR EDSB 180120Z AUTO 04007KT 9999 // NCD 05/02 Q1021
2026-03-18 00:50:00,METAR EDSB 180050Z AUTO 05006KT 9999 // NCD 05/02 Q1021
2026-03-18 00:20:00,METAR EDSB 180020Z AUTO 04006KT 9999 // NCD 06/03 Q1021
2026-03-17 23:50:00,METAR EDSB 172350Z AUTO 04009KT 9999 // NCD 07/03 Q1021
2026-03-17 23:20:00,METAR EDSB 172320Z AUTO 04008KT 9999 // NCD 07/04 Q1021
2026-03-17 22:50:00,METAR EDSB 172250Z AUTO 04008KT 9999 // NCD 07/04 Q1021
2026-03-17 22:20:00,METAR EDSB 172220Z AUTO 05007KT 9999 // FEW073/// 07/04 Q1021
2026-03-17 21:50:00,METAR EDSB 172150Z AUTO 04008KT 9999 // SCT077/// 07/04 Q1021
2026-03-17 21:20:00,METAR EDSB 172120Z AUTO 05007KT 9999 // FEW079/// 08/04 Q1021
2026-03-17 20:50:00,METAR EDSB 172050Z AUTO 04007KT 9999 // FEW058/// 09/04 Q1021
2026-03-17 20:20:00,METAR EDSB 172020Z 06006KT CAVOK 10/05 Q1021
2026-03-17 19:50:00,METAR EDSB 171950Z 04006KT CAVOK 10/05 Q1021
2026-03-17 19:20:00,METAR EDSB 171920Z 05006KT CAVOK 10/05 Q1021
2026-03-17 18:50:00,METAR EDSB 171850Z 05006KT CAVOK 10/05 Q1020
2026-03-17 18:20:00,METAR EDSB 171820Z 05005KT CAVOK 10/05 Q1020
2026-03-17 17:50:00,METAR EDSB 171750Z 06005KT CAVOK 10/05 Q1020
2026-03-17 17:20:00,METAR EDSB 171720Z 05006KT CAVOK 11/05 Q1020
2026-03-17 16:50:00,METAR EDSB 171650Z 07006KT CAVOK 12/05 Q1020
2026-03-17 16:20:00,METAR EDSB 171620Z 07007KT CAVOK 12/05 Q1020
2026-03-17 15:50:00,METAR EDSB 171550Z 04006KT CAVOK 12/05 Q1020
2026-03-17 14:50:00,METAR EDSB 171450Z 02005KT 350V070 CAVOK 12/06 Q1021
2026-03-17 14:20:00,METAR EDSB 171420Z 01004KT 320V050 9999 FEW037 13/05 Q1021
2026-03-17 13:50:00,METAR EDSB 171350Z VRB03KT 9999 FEW046 12/04 Q1021
2026-03-17 13:20:00,METAR EDSB 171320Z COR VRB04KT 9999 FEW033 BKN044 BKN053 13/05 Q1021
2026-03-17 12:50:00,METAR EDSB 171250Z 06003KT 350V150 9999 FEW033 SCT038 12/05 Q1022
2026-03-17 12:20:00,METAR EDSB 171220Z 33004KT 310V010 9999 SCT028 SCT033 12/05 Q1022
2026-03-17 11:50:00,METAR EDSB 171150Z VRB02KT 9999 FEW028 12/06 Q1022
2026-03-17 11:20:00,METAR EDSB 171120Z VRB02KT 9999 SCT024 11/05 Q1022
2026-03-17 10:50:00,METAR EDSB 171050Z VRB02KT 9999 FEW022 11/05 Q1022
2026-03-17 10:20:00,METAR EDSB 171020Z VRB02KT 9999 FEW029 BKN034 10/06 Q1023
2026-03-17 09:50:00,METAR EDSB 170950Z VRB02KT 9999 FEW029 10/06 Q1023
2026-03-17 09:20:00,METAR EDSB 170920Z 24003KT 190V270 CAVOK 09/06 Q1023
2026-03-17 08:50:00,METAR EDSB 170850Z 23004KT 190V260 CAVOK 09/06 Q1022
2026-03-17 08:20:00,METAR EDSB 170820Z 25003KT 210V280 9999 FEW047 08/06 Q1023
2026-03-17 07:50:00,METAR EDSB 170750Z 22002KT 9999 FEW048 08/06 Q1022
2026-03-17 07:20:00,METAR EDSB 170720Z VRB01KT 9999 FEW027 SCT048 07/06 Q1022
2026-03-17 06:50:00,METAR EDSB 170650Z VRB01KT 9999 SCT048 07/06 Q1022
2026-03-17 06:20:00,METAR EDSB 170620Z VRB02KT 9999 SCT049 06/06 Q1022
2026-03-17 05:50:00,METAR EDSB 170550Z 24002KT 9999 BKN048 06/06 Q1022
2026-03-17 05:20:00,METAR EDSB 170520Z 00000KT 9999 FEW030 OVC049 06/06 Q1022
2026-03-17 04:50:00,METAR EDSB 170450Z VRB02KT 9999 OVC026 07/05 Q1022
2026-03-17 04:20:00,METAR EDSB 170420Z VRB02KT 9999 OVC026 07/06 Q1022
2026-03-17 03:50:00,METAR EDSB 170350Z 16005KT 9999 BKN026 OVC032 07/06 Q1022
2026-03-17 03:20:00,METAR EDSB 170320Z 19005KT 9999 FEW022 OVC032 06/06 Q1022
2026-03-17 02:50:00,METAR EDSB 170250Z AUTO 22005KT 190V250 9000 FEW022/// BKN025/// OVC030/// 07/05 Q1022
2026-03-17 02:20:00,METAR EDSB 170220Z AUTO 22004KT 9999 BKN030/// OVC036/// 06/05 Q1022
2026-03-17 01:50:00,METAR EDSB 170150Z AUTO 21005KT 9999 OVC028/// 07/05 Q1022
2026-03-17 01:20:00,METAR EDSB 170120Z AUTO 21006KT 9999 FEW031/// BKN036/// OVC046/// 07/05 Q1023
2026-03-17 00:50:00,METAR EDSB 170050Z AUTO 20007KT 9999 BKN038/// OVC048/// 07/04 Q1023
2026-03-17 00:20:00,METAR EDSB 170020Z AUTO 21005KT 9999 FEW041/// BKN047/// OVC053/// 07/04 Q1023
2026-03-16 23:50:00,METAR EDSB 162350Z AUTO 20005KT 9999 SCT036/// OVC045/// 07/04 Q1022
2026-03-16 23:20:00,METAR EDSB 162320Z AUTO 20006KT 9999 BKN041/// OVC047/// 07/04 Q1023
2026-03-16 22:50:00,METAR EDSB 162250Z AUTO 21006KT 9999 FEW037/// SCT046/// OVC071/// 07/04 Q1022
2026-03-16 22:20:00,METAR EDSB 162220Z AUTO 20007KT 9999 BKN036/// OVC076/// 07/04 Q1023
2026-03-16 21:50:00,METAR EDSB 162150Z 20008KT CAVOK 07/04 Q1022
2026-03-16 21:20:00,METAR EDSB 162120Z 21006KT CAVOK 06/04 Q1022
2026-03-16 20:50:00,METAR EDSB 162050Z 21006KT 9999 FEW042 06/04 Q1022
2026-03-16 20:20:00,METAR EDSB 162020Z 21006KT 9999 FEW042 05/04 Q1022
2026-03-16 19:50:00,METAR EDSB 161950Z 17005KT 9999 FEW029 SCT042 06/05 Q1022
2026-03-16 19:20:00,METAR EDSB 161920Z VRB02KT 9999 SCT029 BKN038 08/04 Q1022
2026-03-16 18:50:00,METAR EDSB 161850Z 21006KT 9999 -RA BKN036 BKN048 08/04 Q1021
2026-03-16 18:20:00,METAR EDSB 161820Z 19007KT 9999 FEW035 08/04 Q1021
2026-03-16 17:50:00,METAR EDSB 161750Z 22007KT CAVOK 08/03 Q1021
2026-03-16 17:20:00,METAR EDSB 161720Z 23008KT CAVOK 09/03 Q1020
2026-03-16 16:50:00,METAR EDSB 161650Z 23008KT CAVOK 10/04 Q1020
2026-03-16 16:20:00,METAR EDSB 161620Z 23006KT 200V270 CAVOK 10/04 Q1020
2026-03-16 15:50:00,METAR EDSB 161550Z 24005KT 200V260 CAVOK 09/04 Q1020
2026-03-16 15:20:00,METAR EDSB 161520Z 22008KT CAVOK 09/04 Q1020
2026-03-16 14:50:00,METAR EDSB 161450Z 23008KT 200V270 9999 VCSH SCT032 BKN039 08/05 Q1020
2026-03-16 14:20:00,METAR EDSB 161420Z 26009KT 220V290 9000 -SHRA FEW024 BKN037TCU BKN046 08/04 Q1019
2026-03-16 13:50:00,METAR EDSB 161350Z 27006KT 210V310 9999 -SHRA FEW024 BKN038 09/04 Q1019
2026-03-16 13:20:00,METAR EDSB 161320Z 24009KT 210V270 9999 -SHRA BKN039 BKN049TCU 10/03 Q1018
2026-03-16 12:50:00,METAR EDSB 161250Z 22013KT 9999 FEW038 BKN046 11/02 Q1018
2026-03-16 12:20:00,METAR EDSB 161220Z 20015KT 9999 VCSH BKN040 OVC048TCU 09/03 Q1018
2026-03-16 11:50:00,METAR EDSB 161150Z 21012KT 9999 BKN040 OVC047 10/04 Q1018
2026-03-16 11:20:00,METAR EDSB 161120Z 22010KT 9999 -SHRA BKN032 OVC041 09/04 Q1018
2026-03-16 10:50:00,METAR EDSB 161050Z 22014KT 9999 -RA SCT029 BKN041 OVC049 08/03 Q1018
2026-03-16 10:20:00,METAR EDSB 161020Z 21015KT 9999 BKN029 OVC037 09/03 Q1018
2026-03-16 09:50:00,METAR EDSB 160950Z 20015KT 9999 BKN030 09/03 Q1018
2026-03-16 09:20:00,METAR EDSB 160920Z 20016KT 9999 BKN028 OVC037 08/03 Q1018
2026-03-16 08:50:00,METAR EDSB 160850Z 20013KT 9999 BKN029 OVC036 08/03 Q1018
2026-03-16 08:20:00,METAR EDSB 160820Z 19014KT 9999 OVC028 07/02 Q1018
2026-03-16 07:50:00,METAR EDSB 160750Z 19015KT 9999 OVC028 06/02 Q1018
2026-03-16 07:20:00,METAR EDSB 160720Z 19014KT 9999 BKN028 OVC034 06/02 Q1017
2026-03-16 06:50:00,METAR EDSB 160650Z 20015KT 9999 BKN027 OVC035 06/01 Q1017
2026-03-16 06:20:00,METAR EDSB 160620Z 20014KT 9999 OVC029 06/01 Q1017
2026-03-16 05:50:00,METAR EDSB 160550Z 21013KT 9999 -RA OVC031 05/02 Q1017
2026-03-16 05:20:00,METAR EDSB 160520Z 20012KT 9999 -RA BKN040 06/01 Q1016
2026-03-16 04:50:00,METAR EDSB 160450Z 20014KT 9999 FEW044 06/01 Q1016
2026-03-16 04:20:00,METAR EDSB 160420Z 19016KT CAVOK 05/01 Q1016
2026-03-16 03:50:00,METAR EDSB 160350Z 19016KT CAVOK 05/01 Q1016
2026-03-16 03:20:00,METAR EDSB 160320Z AUTO 19014KT 9999 R21///// // OVC095/// 04/01 Q1016
2026-03-16 02:50:00,METAR EDSB 160250Z AUTO 20012KT 9999 R21///// // BKN098/// 04/01 Q1016
2026-03-16 02:20:00,METAR EDSB 160220Z AUTO 22010KT 9999 R21///// // FEW099/// 03/01 Q1017
2026-03-16 01:50:00,METAR EDSB 160150Z AUTO 21009KT 9999 R21///// // NCD 04/01 Q1017
2026-03-16 01:20:00,METAR EDSB 160120Z AUTO 21009KT 9999 R21///// // NCD 04/00 Q1017
2026-03-16 00:50:00,METAR EDSB 160050Z AUTO 18012KT 9999 R21///// // SCT220/// 04/01 Q1016
2026-03-16 00:20:00,METAR EDSB 160020Z AUTO 19011KT 9999 R21///// // SCT220/// 04/01 Q1017
2026-03-15 23:50:00,METAR EDSB 152350Z AUTO 22007KT 9999 R21///// // NCD 03/01 Q1018
2026-03-15 23:20:00,METAR EDSB 152320Z AUTO 20007KT 9999 R21///// // NCD 02/00 Q1018
2026-03-15 22:50:00,METAR EDSB 152250Z 22005KT CAVOK 04/01 Q1018
2026-03-15 22:20:00,METAR EDSB 152220Z 20006KT 9999 R21///// BKN047 04/01 Q1018
2026-03-15 21:50:00,METAR EDSB 152150Z 21005KT 9999 R21///// FEW046 04/01 Q1017
2026-03-15 21:20:00,METAR EDSB 152120Z 19007KT CAVOK 05/02 Q1018
2026-03-15 20:50:00,METAR EDSB 152050Z 20006KT CAVOK 05/02 Q1018
2026-03-15 20:20:00,METAR EDSB 152020Z COR 19006KT CAVOK 05/02 Q1018
2026-03-15 19:50:00,METAR EDSB 151950Z 19004KT CAVOK 06/01 Q1018
2026-03-15 19:20:00,METAR EDSB 151920Z COR 18004KT CAVOK 06/01 Q1018
2026-03-15 18:50:00,METAR EDSB 151850Z 19004KT CAVOK 07/01 Q1018
2026-03-15 18:20:00,METAR EDSB 151820Z 20003KT CAVOK 07/01 Q1018
2026-03-15 17:50:00,METAR EDSB 151750Z 21003KT CAVOK 07/01 Q1017
2026-03-15 17:20:00,METAR EDSB 151720Z VRB01KT CAVOK 08/01 Q1017
2026-03-15 16:50:00,METAR EDSB 151650Z 00000KT CAVOK 08/01 Q1017
2026-03-15 16:20:00,METAR EDSB 151620Z VRB02KT CAVOK 08/01 Q1017
2026-03-15 15:50:00,METAR EDSB 151550Z VRB02KT CAVOK 09/00 Q1016
2026-03-15 15:20:00,METAR EDSB 151520Z VRB02KT CAVOK 09/01 Q1016
2026-03-15 14:50:00,METAR EDSB 151450Z VRB02KT CAVOK 08/00 Q1016
2026-03-15 14:20:00,METAR EDSB 151420Z 35004KT 320V040 CAVOK 08/01 Q1016
2026-03-15 13:50:00,METAR EDSB 151350Z 36004KT 320V080 CAVOK 08/01 Q1016
2026-03-15 13:20:00,METAR EDSB 151320Z 03004KT 330V070 9999 SCT043 OVC049 08/M00 Q1016
2026-03-15 12:50:00,METAR EDSB 151250Z 01004KT 340V040 9999 OVC043 08/01 Q1016
2026-03-15 12:20:00,METAR EDSB 151220Z 04004KT 310V080 9999 OVC043 08/01 Q1016
2026-03-15 11:50:00,METAR EDSB 151150Z 36004KT 330V050 9999 FEW037 OVC043 08/01 Q1016
2026-03-15 11:20:00,METAR EDSB 151120Z 06004KT 350V110 9999 FEW025 BKN046 08/01 Q1016
2026-03-15 10:50:00,METAR EDSB 151050Z 36005KT 310V060 9999 FEW023 BKN030 BKN042 08/03 Q1016
2026-03-15 10:20:00,METAR EDSB 151020Z 03004KT 310V080 9999 SCT021 SCT038 07/02 Q1016
2026-03-15 09:50:00,METAR EDSB 150950Z 36004KT 320V040 9999 FEW019 SCT027 06/02 Q1016
2026-03-15 09:20:00,METAR EDSB 150920Z 32003KT 280V020 9999 FEW014 BKN018 06/02 Q1016
2026-03-15 08:50:00,METAR EDSB 150850Z VRB02KT 9999 FEW017 BKN046 06/02 Q1015
2026-03-15 08:20:00,METAR EDSB 150820Z VRB02KT CAVOK 06/03 Q1015
