Time_recorded,METAR
2026-05-02 15:20:00,METAR EDDB 021520Z AUTO 20008KT CAVOK 26/04 Q1017 NOSIG
2026-05-02 14:50:00,METAR EDDB 021450Z AUTO 19008KT 150V230 CAVOK 26/05 Q1018 NOSIG
2026-05-02 14:20:00,METAR EDDB 021420Z AUTO 20010KT 170V230 CAVOK 25/05 Q1018 NOSIG
2026-05-02 13:50:00,METAR EDDB 021350Z AUTO 19012KT 150V220 CAVOK 26/05 Q1019 NOSIG
2026-05-02 13:20:00,METAR EDDB 021320Z AUTO 20008KT 160V240 CAVOK 25/06 Q1019 NOSIG
2026-05-02 12:50:00,METAR EDDB 021250Z AUTO 18011KT CAVOK 25/07 Q1020 NOSIG
2026-05-02 12:20:00,METAR EDDB 021220Z AUTO 20009KT 150V240 CAVOK 25/06 Q1020 NOSIG
2026-05-02 11:50:00,METAR EDDB 021150Z AUTO 20008KT 170V240 CAVOK 24/06 Q1020 NOSIG
2026-05-02 11:20:00,METAR EDDB 021120Z AUTO 20010KT 170V230 CAVOK 24/06 Q1021 NOSIG
2026-05-02 10:50:00,METAR EDDB 021050Z AUTO 18010KT 150V210 CAVOK 24/06 Q1021 NOSIG
2026-05-02 10:20:00,METAR EDDB 021020Z AUTO 20010KT 160V230 CAVOK 23/06 Q1022 NOSIG
2026-05-02 09:50:00,METAR EDDB 020950Z AUTO 20010KT 160V230 CAVOK 23/06 Q1022 NOSIG
2026-05-02 09:20:00,METAR EDDB 020920Z AUTO 20011KT 170V230 CAVOK 23/06 Q1022 NOSIG
2026-05-02 08:50:00,METAR EDDB 020850Z AUTO 19009KT 160V220 CAVOK 22/07 Q1023 NOSIG
2026-05-02 08:20:00,METAR EDDB 020820Z AUTO 20009KT 170V230 CAVOK 21/07 Q1023 NOSIG
2026-05-02 07:50:00,METAR EDDB 020750Z AUTO 21007KT 170V230 CAVOK 19/08 Q1023 NOSIG
2026-05-02 07:20:00,METAR EDDB 020720Z AUTO 20005KT 160V220 CAVOK 18/08 Q1023 NOSIG
2026-05-02 06:50:00,METAR EDDB 020650Z AUTO 18003KT 150V240 CAVOK 17/07 Q1023 NOSIG
2026-05-02 06:20:00,METAR EDDB 020620Z AUTO 18003KT 140V210 CAVOK 15/07 Q1023 NOSIG
2026-05-02 05:50:00,METAR EDDB 020550Z AUTO 16003KT CAVOK 13/06 Q1023 NOSIG
2026-05-02 05:20:00,METAR EDDB 020520Z AUTO 19003KT CAVOK 12/06 Q1024 NOSIG
2026-05-02 04:50:00,METAR EDDB 020450Z AUTO 25003KT CAVOK 10/06 Q1024 NOSIG
2026-05-02 04:20:00,METAR EDDB 020420Z AUTO VRB02KT CAVOK 07/05 Q1023 NOSIG
2026-05-02 03:50:00,METAR EDDB 020350Z AUTO 14002KT CAVOK 06/05 Q1023 NOSIG
2026-05-02 03:20:00,METAR EDDB 020320Z AUTO 11002KT CAVOK 06/05 Q1024 NOSIG
2026-05-02 02:50:00,METAR EDDB 020250Z AUTO 11002KT CAVOK 06/05 Q1024 NOSIG
2026-05-02 02:20:00,METAR EDDB 020220Z AUTO 14002KT CAVOK 06/05 Q1024 NOSIG
2026-05-02 01:50:00,METAR EDDB 020150Z AUTO 11002KT CAVOK 06/04 Q1024 NOSIG
2026-05-02 01:20:00,METAR EDDB 020120Z AUTO 17002KT CAVOK 07/05 Q1024 NOSIG
2026-05-02 00:50:00,METAR EDDB 020050Z AUTO 14003KT 120V180 CAVOK 07/05 Q1024 NOSIG
2026-05-02 00:20:00,METAR EDDB 020020Z AUTO 11004KT CAVOK 08/06 Q1025 NOSIG
2026-05-01 23:50:00,METAR EDDB 012350Z AUTO 12003KT CAVOK 08/05 Q1025 NOSIG
2026-05-01 23:20:00,METAR EDDB 012320Z AUTO 27001KT CAVOK 08/05 Q1025 NOSIG
2026-05-01 22:50:00,METAR EDDB 012250Z AUTO VRB01KT CAVOK 09/05 Q1025 NOSIG
2026-05-01 22:20:00,METAR EDDB 012220Z AUTO VRB01KT CAVOK 10/05 Q1025 NOSIG
2026-05-01 21:50:00,METAR EDDB 012150Z AUTO 25002KT CAVOK 12/05 Q1025 NOSIG
2026-05-01 21:20:00,METAR EDDB 012120Z AUTO VRB02KT CAVOK 11/06 Q1025 NOSIG
2026-05-01 20:50:00,METAR EDDB 012050Z AUTO 03002KT CAVOK 12/06 Q1025 NOSIG
2026-05-01 20:20:00,METAR EDDB 012020Z AUTO VRB01KT CAVOK 13/05 Q1025 NOSIG
2026-05-01 19:50:00,METAR EDDB 011950Z AUTO 31002KT CAVOK 14/05 Q1025 NOSIG
2026-05-01 19:20:00,METAR EDDB 011920Z AUTO 26002KT CAVOK 15/05 Q1025 NOSIG
2026-05-01 18:50:00,METAR EDDB 011850Z AUTO 25003KT CAVOK 18/04 Q1025 NOSIG
2026-05-01 18:20:00,METAR EDDB 011820Z AUTO 26002KT CAVOK 20/05 Q1025 NOSIG
2026-05-01 17:50:00,METAR EDDB 011750Z AUTO VRB02KT CAVOK 22/05 Q1025 NOSIG
2026-05-01 17:20:00,METAR EDDB 011720Z AUTO VRB01KT CAVOK 23/04 Q1025 NOSIG
2026-05-01 16:50:00,METAR EDDB 011650Z AUTO 07003KT 020V110 CAVOK 23/06 Q1025 NOSIG
2026-05-01 16:20:00,METAR EDDB 011620Z AUTO VRB04KT CAVOK 23/04 Q1025 NOSIG
2026-05-01 15:50:00,METAR EDDB 011550Z AUTO VRB02KT CAVOK 24/04 Q1026 NOSIG
2026-05-01 15:20:00,METAR EDDB 011520Z AUTO VRB04KT CAVOK 23/04 Q1026 NOSIG
2026-05-01 14:50:00,METAR EDDB 011450Z AUTO 21004KT 120V280 CAVOK 23/05 Q1026 NOSIG
2026-05-01 14:20:00,METAR EDDB 011420Z AUTO 25006KT 200V290 CAVOK 23/05 Q1026 NOSIG
2026-05-01 13:50:00,METAR EDDB 011350Z AUTO 26004KT CAVOK 23/06 Q1027 NOSIG
2026-05-01 13:20:00,METAR EDDB 011320Z AUTO 23004KT 150V270 CAVOK 23/06 Q1027 NOSIG
2026-05-01 12:50:00,METAR EDDB 011250Z AUTO VRB04KT CAVOK 22/05 Q1027 NOSIG
2026-05-01 12:20:00,METAR EDDB 011220Z AUTO 30003KT CAVOK 22/05 Q1028 NOSIG
2026-05-01 11:50:00,METAR EDDB 011150Z AUTO 33004KT CAVOK 22/05 Q1028 NOSIG
2026-05-01 11:20:00,METAR EDDB 011120Z AUTO 05003KT CAVOK 21/04 Q1028 NOSIG
2026-05-01 10:50:00,METAR EDDB 011050Z AUTO VRB04KT CAVOK 20/04 Q1029 NOSIG
2026-05-01 10:20:00,METAR EDDB 011020Z AUTO VRB03KT CAVOK 20/03 Q1029 NOSIG
2026-05-01 09:50:00,METAR EDDB 010950Z AUTO VRB04KT CAVOK 20/04 Q1029 NOSIG
2026-05-01 09:20:00,METAR EDDB 010920Z AUTO 31005KT 190V350 CAVOK 19/04 Q1029 NOSIG
2026-05-01 08:50:00,METAR EDDB 010850Z AUTO 27006KT 220V340 CAVOK 19/05 Q1029 NOSIG
2026-05-01 08:20:00,METAR EDDB 010820Z AUTO 30005KT 250V330 CAVOK 18/05 Q1029 NOSIG
2026-05-01 07:50:00,METAR EDDB 010750Z AUTO VRB03KT CAVOK 17/04 Q1029 NOSIG
2026-05-01 07:20:00,METAR EDDB 010720Z AUTO 35003KT 280V040 CAVOK 16/05 Q1029 NOSIG
2026-05-01 06:50:00,METAR EDDB 010650Z AUTO VRB02KT CAVOK 15/06 Q1029 NOSIG
2026-05-01 06:20:00,METAR EDDB 010620Z AUTO VRB02KT CAVOK 14/07 Q1029 NOSIG
2026-05-01 05:50:00,METAR EDDB 010550Z AUTO 25003KT CAVOK 12/06 Q1029 NOSIG
2026-05-01 05:20:00,METAR EDDB 010520Z AUTO 24002KT CAVOK 11/05 Q1029 NOSIG
2026-05-01 04:50:00,METAR EDDB 010450Z AUTO 02001KT CAVOK 08/04 Q1029 NOSIG
2026-05-01 04:20:00,METAR EDDB 010420Z AUTO 31002KT CAVOK 06/03 Q1029 NOSIG
2026-05-01 03:50:00,METAR EDDB 010350Z AUTO VRB01KT CAVOK 05/02 Q1029 NOSIG
2026-05-01 03:20:00,METAR EDDB 010320Z AUTO 26003KT CAVOK 05/03 Q1029 NOSIG
2026-05-01 02:50:00,METAR EDDB 010250Z AUTO 22001KT CAVOK 05/03 Q1029 NOSIG
2026-05-01 02:20:00,METAR EDDB 010220Z AUTO 33001KT CAVOK 05/03 Q1029 NOSIG
2026-05-01 01:50:00,METAR EDDB 010150Z AUTO VRB01KT CAVOK 05/03 Q1029 NOSIG
2026-05-01 01:20:00,METAR EDDB 010120Z AUTO 28002KT CAVOK 07/03 Q1029 NOSIG
2026-05-01 00:50:00,METAR EDDB 010050Z AUTO 28003KT CAVOK 07/03 Q1029 NOSIG
2026-05-01 00:20:00,METAR EDDB 010020Z AUTO 27002KT CAVOK 07/03 Q1029 NOSIG
2026-04-30 23:50:00,METAR EDDB 302350Z AUTO VRB01KT CAVOK 06/04 Q1029 NOSIG
2026-04-30 23:20:00,METAR EDDB 302320Z AUTO VRB01KT CAVOK 07/04 Q1029 NOSIG
2026-04-30 22:50:00,METAR EDDB 302250Z AUTO 36002KT CAVOK 08/04 Q1029 NOSIG
2026-04-30 22:20:00,METAR EDDB 302220Z AUTO 34003KT CAVOK 09/04 Q1029 NOSIG
2026-04-30 21:50:00,METAR EDDB 302150Z AUTO 26003KT CAVOK 08/04 Q1029 NOSIG
2026-04-30 21:20:00,METAR EDDB 302120Z AUTO 01002KT CAVOK 09/04 Q1029 NOSIG
2026-04-30 20:50:00,METAR EDDB 302050Z AUTO 08002KT CAVOK 10/04 Q1029 NOSIG
2026-04-30 20:20:00,METAR EDDB 302020Z AUTO 08001KT CAVOK 10/04 Q1029 NOSIG
2026-04-30 19:50:00,METAR EDDB 301950Z AUTO 01002KT CAVOK 11/04 Q1029 NOSIG
2026-04-30 19:20:00,METAR EDDB 301920Z AUTO 04002KT CAVOK 13/04 Q1029 NOSIG
2026-04-30 18:50:00,METAR EDDB 301850Z AUTO 06004KT CAVOK 15/04 Q1029 NOSIG
2026-04-30 18:20:00,METAR EDDB 301820Z AUTO 07004KT CAVOK 16/04 Q1028 NOSIG
2026-04-30 17:50:00,METAR EDDB 301750Z AUTO 07003KT CAVOK 17/04 Q1028 NOSIG
2026-04-30 17:20:00,METAR EDDB 301720Z AUTO 07005KT CAVOK 18/04 Q1028 NOSIG
2026-04-30 16:50:00,METAR EDDB 301650Z AUTO 04007KT 010V070 CAVOK 18/03 Q1029 NOSIG
2026-04-30 16:20:00,METAR EDDB 301620Z AUTO 02005KT 340V080 CAVOK 19/03 Q1029 NOSIG
2026-04-30 15:50:00,METAR EDDB 301550Z AUTO 10004KT 350V160 CAVOK 19/03 Q1029 NOSIG
2026-04-30 14:50:00,METAR EDDB 301450Z AUTO 02005KT 310V120 CAVOK 19/03 Q1029 NOSIG
2026-04-30 14:20:00,METAR EDDB 301420Z AUTO VRB04KT CAVOK 19/03 Q1029 NOSIG
2026-04-30 13:50:00,METAR EDDB 301350Z AUTO 01006KT 280V080 CAVOK 19/03 Q1030 NOSIG
2026-04-30 13:20:00,METAR EDDB 301320Z AUTO VRB07KT CAVOK 19/03 Q1030 NOSIG
2026-04-30 12:50:00,METAR EDDB 301250Z AUTO 04005KT 360V130 CAVOK 17/03 Q1030 NOSIG
2026-04-30 12:20:00,METAR EDDB 301220Z AUTO 06007KT 010V090 CAVOK 18/03 Q1030 NOSIG
2026-04-30 11:50:00,METAR EDDB 301150Z AUTO 02007KT 300V080 CAVOK 18/02 Q1031 NOSIG
2026-04-30 11:20:00,METAR EDDB 301120Z AUTO VRB05KT CAVOK 18/02 Q1031 NOSIG
2026-04-30 10:50:00,METAR EDDB 301050Z AUTO 02004KT CAVOK 17/02 Q1031 NOSIG
2026-04-30 10:20:00,METAR EDDB 301020Z AUTO VRB04KT CAVOK 16/01 Q1032 NOSIG
2026-04-30 09:50:00,METAR EDDB 300950Z AUTO 03005KT 320V100 CAVOK 15/M00 Q1032 NOSIG
2026-04-30 09:20:00,METAR EDDB 300920Z AUTO 30003KT 240V030 CAVOK 16/01 Q1032 NOSIG
2026-04-30 08:50:00,METAR EDDB 300850Z AUTO 32003KT 250V050 CAVOK 15/M01 Q1032 NOSIG
2026-04-30 08:20:00,METAR EDDB 300820Z AUTO 30005KT 250V330 CAVOK 13/M01 Q1032 NOSIG
2026-04-30 07:50:00,METAR EDDB 300750Z AUTO 29006KT 260V320 CAVOK 12/M00 Q1033 NOSIG
2026-04-30 07:20:00,METAR EDDB 300720Z AUTO 27005KT 240V300 CAVOK 11/01 Q1033 NOSIG
2026-04-30 06:50:00,METAR EDDB 300650Z AUTO 28007KT CAVOK 09/00 Q1033 NOSIG
2026-04-30 06:20:00,METAR EDDB 300620Z AUTO 27005KT 230V290 CAVOK 08/00 Q1033 NOSIG
2026-04-30 05:50:00,METAR EDDB 300550Z AUTO 25004KT CAVOK 07/M00 Q1032 NOSIG
2026-04-30 05:20:00,METAR EDDB 300520Z AUTO 24003KT CAVOK 06/M00 Q1032 NOSIG
2026-04-30 04:50:00,METAR EDDB 300450Z AUTO 22003KT 180V240 CAVOK 03/M01 Q1032 NOSIG
2026-04-30 04:20:00,METAR EDDB 300420Z AUTO 33001KT CAVOK 02/M01 Q1032 NOSIG
2026-04-30 03:50:00,METAR EDDB 300350Z AUTO 22001KT CAVOK 00/M02 Q1032 NOSIG
2026-04-30 03:20:00,METAR EDDB 300320Z AUTO 19002KT CAVOK 01/M02 Q1032 NOSIG
2026-04-30 02:50:00,METAR EDDB 300250Z AUTO 26002KT CAVOK 01/M03 Q1032 NOSIG
2026-04-30 02:20:00,METAR EDDB 300220Z AUTO 23003KT CAVOK 01/M02 Q1032 NOSIG
2026-04-30 01:50:00,METAR EDDB 300150Z AUTO 24003KT CAVOK 02/M02 Q1032 NOSIG
2026-04-30 01:20:00,METAR EDDB 300120Z AUTO VRB01KT CAVOK 01/M02 Q1032 NOSIG
2026-04-30 00:50:00,METAR EDDB 300050Z AUTO 16002KT CAVOK 01/M02 Q1032 NOSIG
2026-04-30 00:20:00,METAR EDDB 300020Z AUTO VRB02KT CAVOK 02/M02 Q1032 NOSIG
2026-04-29 23:50:00,METAR EDDB 292350Z AUTO VRB01KT CAVOK 03/M00 Q1032 NOSIG
2026-04-29 23:20:00,METAR EDDB 292320Z AUTO VRB02KT CAVOK 04/M01 Q1031 NOSIG
2026-04-29 22:50:00,METAR EDDB 292250Z AUTO 06005KT CAVOK 03/M01 Q1031 NOSIG
2026-04-29 22:20:00,METAR EDDB 292220Z AUTO 35002KT CAVOK 03/M02 Q1031 NOSIG
2026-04-29 21:50:00,METAR EDDB 292150Z AUTO VRB01KT CAVOK 04/M02 Q1031 NOSIG
2026-04-29 21:20:00,METAR EDDB 292120Z AUTO VRB02KT CAVOK 05/M02 Q1031 NOSIG
2026-04-29 20:50:00,METAR EDDB 292050Z AUTO 00000KT CAVOK 05/M03 Q1031 NOSIG
2026-04-29 20:20:00,METAR EDDB 292020Z AUTO VRB01KT CAVOK 05/M03 Q1031 NOSIG
2026-04-29 19:50:00,METAR EDDB 291950Z AUTO 13002KT CAVOK 07/M03 Q1031 NOSIG
2026-04-29 19:20:00,METAR EDDB 291920Z AUTO 13002KT CAVOK 08/M04 Q1030 NOSIG
2026-04-29 18:50:00,METAR EDDB 291850Z AUTO 11004KT CAVOK 09/M04 Q1030 NOSIG
2026-04-29 18:20:00,METAR EDDB 291820Z AUTO 10005KT CAVOK 10/M04 Q1030 NOSIG
2026-04-29 17:50:00,METAR EDDB 291750Z AUTO 09006KT CAVOK 11/M04 Q1030 NOSIG
2026-04-29 17:20:00,METAR EDDB 291720Z AUTO 11005KT 060V150 CAVOK 12/M04 Q1030 NOSIG
2026-04-29 16:50:00,METAR EDDB 291650Z AUTO 08008KT CAVOK 13/M04 Q1030 NOSIG
2026-04-29 16:20:00,METAR EDDB 291620Z AUTO 06009KT 030V090 CAVOK 13/M04 Q1029 NOSIG
2026-04-29 15:50:00,METAR EDDB 291550Z AUTO 06009KT 030V090 CAVOK 13/M05 Q1029 NOSIG
2026-04-29 15:20:00,METAR EDDB 291520Z AUTO 07011KT 040V100 CAVOK 13/M05 Q1030 NOSIG
2026-04-29 14:50:00,METAR EDDB 291450Z AUTO 09013KT 050V120 CAVOK 13/M04 Q1030 NOSIG
2026-04-29 14:20:00,METAR EDDB 291420Z AUTO 06011KT 030V100 CAVOK 14/M03 Q1030 NOSIG
2026-04-29 13:50:00,METAR EDDB 291350Z AUTO VRB08KT CAVOK 14/M03 Q1030 NOSIG
2026-04-29 13:20:00,METAR EDDB 291320Z AUTO 08009KT 050V120 CAVOK 13/M03 Q1030 NOSIG
2026-04-29 12:50:00,METAR EDDB 291250Z AUTO 05010KT 340V090 CAVOK 13/M03 Q1030 NOSIG
2026-04-29 12:20:00,METAR EDDB 291220Z AUTO 07013KT 050V150 CAVOK 13/M04 Q1030 NOSIG
2026-04-29 11:50:00,METAR EDDB 291150Z AUTO 03008KT 010V090 CAVOK 13/M04 Q1030 NOSIG
2026-04-29 11:20:00,METAR EDDB 291120Z AUTO 06015KT 020V090 CAVOK 12/M05 Q1030 NOSIG
2026-04-29 10:50:00,METAR EDDB 291050Z AUTO 06009KT 360V110 CAVOK 12/M05 Q1030 NOSIG
2026-04-29 10:20:00,METAR EDDB 291020Z AUTO 10009KT 060V140 CAVOK 12/M05 Q1030 NOSIG
2026-04-29 09:50:00,METAR EDDB 290950Z AUTO 08011KT 050V110 CAVOK 12/M04 Q1030 NOSIG
2026-04-29 09:20:00,METAR EDDB 290920Z AUTO 11013KT CAVOK 11/M05 Q1030 NOSIG
2026-04-29 08:50:00,METAR EDDB 290850Z AUTO 06009KT 030V130 CAVOK 11/M05 Q1030 NOSIG
2026-04-29 08:20:00,METAR EDDB 290820Z AUTO 10012KT 060V130 CAVOK 11/M05 Q1030 NOSIG
2026-04-29 07:50:00,METAR EDDB 290750Z AUTO 09012KT 060V120 CAVOK 10/M05 Q1030 NOSIG
2026-04-29 07:20:00,METAR EDDB 290720Z AUTO 09009KT 060V120 CAVOK 09/M05 Q1030 NOSIG
2026-04-29 06:50:00,METAR EDDB 290650Z AUTO 09009KT CAVOK 08/M04 Q1030 NOSIG
2026-04-29 06:20:00,METAR EDDB 290620Z AUTO 10008KT 060V120 CAVOK 07/M03 Q1030 NOSIG
2026-04-29 05:50:00,METAR EDDB 290550Z AUTO 08008KT CAVOK 07/M02 Q1030 NOSIG
2026-04-29 05:20:00,METAR EDDB 290520Z AUTO 07006KT CAVOK 05/M02 Q1029 NOSIG
2026-04-29 04:50:00,METAR EDDB 290450Z AUTO 07006KT CAVOK 04/M02 Q1029 NOSIG
2026-04-29 04:20:00,METAR EDDB 290420Z AUTO 07004KT CAVOK 03/M02 Q1028 NOSIG
2026-04-29 03:50:00,METAR EDDB 290350Z AUTO 06004KT CAVOK 02/M02 Q1028 NOSIG
2026-04-29 03:20:00,METAR EDDB 290320Z AUTO 05004KT CAVOK 02/M02 Q1028 NOSIG
2026-04-29 02:50:00,METAR EDDB 290250Z AUTO 05005KT CAVOK 03/M03 Q1028 NOSIG
2026-04-29 02:20:00,METAR EDDB 290220Z AUTO 04005KT CAVOK 04/M02 Q1028 NOSIG
2026-04-29 01:50:00,METAR EDDB 290150Z AUTO 05005KT CAVOK 04/M03 Q1028 NOSIG
2026-04-29 01:20:00,METAR EDDB 290120Z AUTO 06006KT CAVOK 04/M02 Q1027 NOSIG
2026-04-29 00:50:00,METAR EDDB 290050Z AUTO 05006KT CAVOK 04/M02 Q1027 NOSIG
2026-04-29 00:20:00,METAR EDDB 290020Z AUTO 04007KT CAVOK 05/M02 Q1027 NOSIG
2026-04-28 23:50:00,METAR EDDB 282350Z AUTO 04006KT CAVOK 05/M02 Q1027 NOSIG
2026-04-28 23:20:00,METAR EDDB 282320Z AUTO 04007KT CAVOK 06/M02 Q1027 NOSIG
2026-04-28 22:50:00,METAR EDDB 282250Z AUTO 04006KT CAVOK 06/M02 Q1027 NOSIG
2026-04-28 22:20:00,METAR EDDB 282220Z AUTO 04006KT CAVOK 06/M02 Q1027 NOSIG
2026-04-28 21:50:00,METAR EDDB 282150Z AUTO 04007KT CAVOK 07/M02 Q1026 NOSIG
2026-04-28 21:20:00,METAR EDDB 282120Z AUTO 04007KT CAVOK 08/M02 Q1026 NOSIG
2026-04-28 20:50:00,METAR EDDB 282050Z AUTO 04006KT CAVOK 08/M02 Q1026 NOSIG
2026-04-28 20:20:00,METAR EDDB 282020Z AUTO 04008KT CAVOK 09/M02 Q1026 NOSIG
2026-04-28 19:50:00,METAR EDDB 281950Z AUTO 03010KT CAVOK 10/M02 Q1026 NOSIG
2026-04-28 19:20:00,METAR EDDB 281920Z AUTO 04011KT CAVOK 11/M02 Q1025 NOSIG
2026-04-28 18:50:00,METAR EDDB 281850Z AUTO 05005KT CAVOK 10/M02 Q1025 NOSIG
2026-04-28 18:20:00,METAR EDDB 281820Z AUTO 05006KT CAVOK 12/M03 Q1025 NOSIG
2026-04-28 17:50:00,METAR EDDB 281750Z AUTO 03008KT CAVOK 13/M04 Q1024 NOSIG
2026-04-28 17:20:00,METAR EDDB 281720Z AUTO 03009KT CAVOK 13/M04 Q1024 NOSIG
2026-04-28 16:50:00,METAR EDDB 281650Z AUTO 04010KT CAVOK 14/M04 Q1024 NOSIG
2026-04-28 16:20:00,METAR EDDB 281620Z AUTO 04009KT CAVOK 14/M04 Q1024 NOSIG
2026-04-28 15:50:00,METAR EDDB 281550Z AUTO 05007KT 010V100 CAVOK 15/M04 Q1024 NOSIG
2026-04-28 15:20:00,METAR EDDB 281520Z AUTO 06009KT 020V100 CAVOK 15/M04 Q1024 NOSIG
2026-04-28 14:50:00,METAR EDDB 281450Z AUTO 07009KT CAVOK 15/M05 Q1025 NOSIG
2026-04-28 14:20:00,METAR EDDB 281420Z AUTO 06006KT 030V100 CAVOK 15/M05 Q1025 NOSIG
2026-04-28 13:50:00,METAR EDDB 281350Z AUTO 07010KT 040V100 CAVOK 15/M03 Q1025 NOSIG
2026-04-28 13:20:00,METAR EDDB 281320Z AUTO 07008KT 010V140 CAVOK 15/M04 Q1025 NOSIG
2026-04-28 12:50:00,METAR EDDB 281250Z AUTO 06009KT 020V100 CAVOK 14/M05 Q1025 NOSIG
2026-04-28 12:20:00,METAR EDDB 281220Z AUTO 06013KT 030V090 CAVOK 14/M05 Q1026 NOSIG
2026-04-28 11:50:00,METAR EDDB 281150Z AUTO 05010KT 360V080 CAVOK 14/M04 Q1026 NOSIG
2026-04-28 11:20:00,METAR EDDB 281120Z AUTO 05010KT 360V090 CAVOK 14/M04 Q1026 NOSIG
2026-04-28 10:50:00,METAR EDDB 281050Z AUTO 04012KT CAVOK 13/M05 Q1026 NOSIG
2026-04-28 10:20:00,METAR EDDB 281020Z AUTO 05011KT 020V080 CAVOK 13/M05 Q1026 NOSIG
2026-04-28 09:50:00,METAR EDDB 280950Z AUTO 04009KT 340V100 CAVOK 12/M04 Q1026 NOSIG
2026-04-28 09:20:00,METAR EDDB 280920Z AUTO 07008KT 020V130 CAVOK 12/M04 Q1026 NOSIG
2026-04-28 08:50:00,METAR EDDB 280850Z AUTO 06009KT 030V100 CAVOK 11/M05 Q1026 NOSIG
2026-04-28 08:20:00,METAR EDDB 280820Z AUTO 07009KT 040V110 CAVOK 10/M05 Q1026 NOSIG
2026-04-28 07:50:00,METAR EDDB 280750Z AUTO 07008KT 040V110 CAVOK 10/M03 Q1026 NOSIG
2026-04-28 07:20:00,METAR EDDB 280720Z AUTO 09008KT CAVOK 09/M04 Q1026 NOSIG
2026-04-28 06:50:00,METAR EDDB 280650Z AUTO 09008KT 060V130 CAVOK 08/M03 Q1026 NOSIG
2026-04-28 06:20:00,METAR EDDB 280620Z AUTO 09009KT 060V120 CAVOK 08/M01 Q1026 NOSIG
2026-04-28 05:50:00,METAR EDDB 280550Z AUTO 09009KT CAVOK 07/M02 Q1026 NOSIG
2026-04-28 05:20:00,METAR EDDB 280520Z AUTO 07009KT CAVOK 06/M03 Q1026 NOSIG
2026-04-28 04:50:00,METAR EDDB 280450Z AUTO 07006KT CAVOK 05/M03 Q1025 NOSIG
2026-04-28 04:20:00,METAR EDDB 280420Z AUTO 07007KT CAVOK 04/M03 Q1025 NOSIG
2026-04-28 03:50:00,METAR EDDB 280350Z AUTO 07006KT CAVOK 03/M03 Q1025 NOSIG
2026-04-28 03:20:00,METAR EDDB 280320Z AUTO 07007KT CAVOK 03/M03 Q1025 NOSIG
2026-04-28 02:50:00,METAR EDDB 280250Z AUTO 07007KT CAVOK 04/M03 Q1025 NOSIG
2026-04-28 02:20:00,METAR EDDB 280220Z AUTO 07007KT CAVOK 04/M03 Q1024 NOSIG
2026-04-28 01:50:00,METAR EDDB 280150Z AUTO 07006KT CAVOK 04/M03 Q1024 NOSIG
2026-04-28 01:20:00,METAR EDDB 280120Z AUTO 06008KT CAVOK 05/M03 Q1024 NOSIG
2026-04-28 00:50:00,METAR EDDB 280050Z AUTO 06008KT CAVOK 05/M03 Q1024 NOSIG
2026-04-28 00:20:00,METAR EDDB 280020Z AUTO 06008KT CAVOK 06/M02 Q1024 NOSIG
2026-04-27 23:50:00,METAR EDDB 272350Z AUTO 05007KT CAVOK 06/M02 Q1023 NOSIG
2026-04-27 23:20:00,METAR EDDB 272320Z AUTO 05008KT CAVOK 06/M02 Q1023 NOSIG
2026-04-27 22:50:00,METAR EDDB 272250Z AUTO 04008KT CAVOK 07/M02 Q1023 NOSIG
2026-04-27 22:20:00,METAR EDDB 272220Z AUTO 04008KT CAVOK 08/M01 Q1023 NOSIG
2026-04-27 21:50:00,METAR EDDB 272150Z AUTO 04010KT CAVOK 09/M01 Q1023 NOSIG
2026-04-27 21:20:00,METAR EDDB 272120Z AUTO 04007KT CAVOK 09/00 Q1023 NOSIG
2026-04-27 20:50:00,METAR EDDB 272050Z AUTO 03008KT CAVOK 09/00 Q1023 NOSIG
2026-04-27 20:20:00,METAR EDDB 272020Z AUTO 05009KT CAVOK 10/01 Q1023 NOSIG
2026-04-27 19:50:00,METAR EDDB 271950Z AUTO 04010KT CAVOK 11/01 Q1022 NOSIG
2026-04-27 19:20:00,METAR EDDB 271920Z AUTO 04011KT CAVOK 12/02 Q1022 NOSIG
2026-04-27 18:50:00,METAR EDDB 271850Z AUTO 02010KT CAVOK 12/01 Q1022 BECMG 04005KT
2026-04-27 18:20:00,METAR EDDB 271820Z AUTO 33006KT CAVOK 14/01 Q1021 BECMG 04005KT
2026-04-27 17:50:00,METAR EDDB 271750Z AUTO 31007KT CAVOK 14/02 Q1021 BECMG 04005KT
2026-04-27 17:20:00,METAR EDDB 271720Z AUTO 32006KT 280V350 CAVOK 15/01 Q1021 BECMG 04005KT
2026-04-27 16:50:00,METAR EDDB 271650Z AUTO 33007KT 280V350 CAVOK 15/01 Q1021 BECMG 04005KT
2026-04-27 16:20:00,METAR EDDB 271620Z AUTO 33008KT 300V360 CAVOK 15/02 Q1021 BECMG 04005KT
2026-04-27 15:50:00,METAR EDDB 271550Z AUTO 30006KT CAVOK 16/02 Q1021 NOSIG
2026-04-27 15:20:00,METAR EDDB 271520Z AUTO 30008KT CAVOK 16/01 Q1021 NOSIG
2026-04-27 14:50:00,METAR EDDB 271450Z AUTO 30008KT 260V360 CAVOK 16/01 Q1022 NOSIG
2026-04-27 14:20:00,METAR EDDB 271420Z AUTO 34006KT 280V020 CAVOK 16/01 Q1022 NOSIG
2026-04-27 13:50:00,METAR EDDB 271350Z AUTO 28008KT 230V320 CAVOK 17/01 Q1022 NOSIG
2026-04-27 13:20:00,METAR EDDB 271320Z AUTO 31007KT 280V360 CAVOK 16/M00 Q1022 NOSIG
2026-04-27 12:50:00,METAR EDDB 271250Z AUTO 28009KT 230V320 CAVOK 16/01 Q1022 NOSIG
2026-04-27 12:20:00,METAR EDDB 271220Z AUTO 30009KT 260V350 CAVOK 17/M01 Q1022 NOSIG
2026-04-27 11:50:00,METAR EDDB 271150Z AUTO 27011KT 240V300 CAVOK 17/01 Q1023 NOSIG
2026-04-27 11:20:00,METAR EDDB 271120Z AUTO 25009KT 220V290 CAVOK 16/03 Q1023 NOSIG
2026-04-27 10:50:00,METAR EDDB 271050Z AUTO 29011KT CAVOK 16/02 Q1023 NOSIG
2026-04-27 10:20:00,METAR EDDB 271020Z AUTO 28009KT 250V320 CAVOK 16/02 Q1023 NOSIG
2026-04-27 09:50:00,METAR EDDB 270950Z AUTO 30007KT 230V340 CAVOK 15/02 Q1023 NOSIG
2026-04-27 09:20:00,METAR EDDB 270920Z AUTO 26008KT 210V310 CAVOK 15/01 Q1024 NOSIG
2026-04-27 08:50:00,METAR EDDB 270850Z AUTO 28009KT 250V320 CAVOK 14/01 Q1024 NOSIG
2026-04-27 08:20:00,METAR EDDB 270820Z AUTO 26006KT 220V310 CAVOK 14/02 Q1024 NOSIG
2026-04-27 07:50:00,METAR EDDB 270750Z AUTO 27006KT 240V300 CAVOK 13/00 Q1024 NOSIG
2026-04-27 07:20:00,METAR EDDB 270720Z AUTO 23006KT 200V270 CAVOK 12/00 Q1024 NOSIG
2026-04-27 06:50:00,METAR EDDB 270650Z AUTO 23005KT 190V260 CAVOK 10/00 Q1024 NOSIG
2026-04-27 06:20:00,METAR EDDB 270620Z AUTO 23003KT 160V270 CAVOK 09/M01 Q1024 NOSIG
2026-04-27 05:50:00,METAR EDDB 270550Z AUTO VRB01KT CAVOK 07/00 Q1024 NOSIG
2026-04-27 05:20:00,METAR EDDB 270520Z AUTO 13002KT CAVOK 06/01 Q1024 NOSIG
2026-04-27 04:50:00,METAR EDDB 270450Z AUTO 10003KT CAVOK 03/M01 Q1024 NOSIG
2026-04-27 04:20:00,METAR EDDB 270420Z AUTO VRB02KT CAVOK 01/M02 Q1024 NOSIG
2026-04-27 03:50:00,METAR EDDB 270350Z AUTO 10003KT CAVOK M00/M03 Q1024 NOSIG
2026-04-27 03:20:00,METAR EDDB 270320Z AUTO 10002KT CAVOK 01/M02 Q1024 NOSIG
2026-04-27 02:50:00,METAR EDDB 270250Z AUTO 12003KT CAVOK 01/M02 Q1024 NOSIG
2026-04-27 02:20:00,METAR EDDB 270220Z AUTO 10002KT CAVOK 01/M02 Q1024 NOSIG
2026-04-27 01:50:00,METAR EDDB 270150Z AUTO VRB01KT CAVOK 01/M02 Q1024 NOSIG
2026-04-27 01:20:00,METAR EDDB 270120Z AUTO 17001KT CAVOK 02/M03 Q1024 NOSIG
2026-04-27 00:50:00,METAR EDDB 270050Z AUTO VRB02KT CAVOK 03/M02 Q1024 NOSIG
2026-04-27 00:20:00,METAR EDDB 270020Z AUTO 18001KT CAVOK 03/M02 Q1025 NOSIG
2026-04-26 23:50:00,METAR EDDB 262350Z AUTO VRB01KT CAVOK 04/M02 Q1024 NOSIG
2026-04-26 23:20:00,METAR EDDB 262320Z AUTO 12002KT CAVOK 03/M02 Q1025 NOSIG
2026-04-26 22:50:00,METAR EDDB 262250Z AUTO 11003KT CAVOK 05/M01 Q1025 NOSIG
2026-04-26 22:20:00,METAR EDDB 262220Z AUTO 11003KT CAVOK 05/M01 Q1024 NOSIG
2026-04-26 21:50:00,METAR EDDB 262150Z AUTO 10005KT CAVOK 06/M03 Q1024 NOSIG
2026-04-26 21:20:00,METAR EDDB 262120Z AUTO 09004KT CAVOK 06/M02 Q1025 NOSIG
2026-04-26 20:50:00,METAR EDDB 262050Z AUTO 06006KT CAVOK 07/M02 Q1025 NOSIG
2026-04-26 20:20:00,METAR EDDB 262020Z AUTO 06006KT CAVOK 07/M02 Q1025 NOSIG
2026-04-26 19:50:00,METAR EDDB 261950Z AUTO 03003KT 360V070 CAVOK 08/M02 Q1025 NOSIG
2026-04-26 19:20:00,METAR EDDB 261920Z AUTO VRB02KT CAVOK 10/M04 Q1024 NOSIG
2026-04-26 18:50:00,METAR EDDB 261850Z AUTO 34003KT CAVOK 11/M03 Q1024 NOSIG
2026-04-26 18:20:00,METAR EDDB 261820Z AUTO 29005KT CAVOK 12/M02 Q1024 NOSIG
2026-04-26 17:50:00,METAR EDDB 261750Z AUTO 31005KT CAVOK 12/M03 Q1024 NOSIG
2026-04-26 17:20:00,METAR EDDB 261720Z AUTO 28008KT CAVOK 13/M03 Q1024 NOSIG
2026-04-26 16:50:00,METAR EDDB 261650Z AUTO 30008KT 270V340 CAVOK 13/M04 Q1024 NOSIG
2026-04-26 16:20:00,METAR EDDB 261620Z AUTO 30006KT 260V330 CAVOK 14/M02 Q1024 NOSIG
2026-04-26 15:50:00,METAR EDDB 261550Z AUTO 28007KT 220V360 CAVOK 14/M02 Q1024 NOSIG
2026-04-26 15:20:00,METAR EDDB 261520Z AUTO 35010KT 310V010 CAVOK 14/M03 Q1024 NOSIG
2026-04-26 14:50:00,METAR EDDB 261450Z AUTO VRB04KT CAVOK 14/M05 Q1024 NOSIG
2026-04-26 14:20:00,METAR EDDB 261420Z AUTO 33006KT 270V060 CAVOK 14/M05 Q1024 NOSIG
2026-04-26 13:50:00,METAR EDDB 261350Z AUTO VRB05KT CAVOK 14/M03 Q1024 NOSIG
2026-04-26 13:20:00,METAR EDDB 261320Z AUTO 36004KT CAVOK 14/M03 Q1024 NOSIG
2026-04-26 12:50:00,METAR EDDB 261250Z AUTO 32011KT 290V360 CAVOK 14/M02 Q1024 NOSIG
2026-04-26 12:20:00,METAR EDDB 261220Z AUTO 30008KT 270V330 CAVOK 13/M03 Q1025 NOSIG
2026-04-26 11:50:00,METAR EDDB 261150Z AUTO 01007KT 310V050 CAVOK 13/M03 Q1025 NOSIG
2026-04-26 11:20:00,METAR EDDB 261120Z AUTO VRB04KT CAVOK 12/M02 Q1025 NOSIG
2026-04-26 10:50:00,METAR EDDB 261050Z AUTO 32010KT 280V360 CAVOK 13/M01 Q1025 NOSIG
2026-04-26 10:20:00,METAR EDDB 261020Z AUTO 03010KT 340V060 CAVOK 12/M02 Q1025 NOSIG
2026-04-26 09:50:00,METAR EDDB 260950Z AUTO 35008KT 240V020 CAVOK 12/M02 Q1025 NOSIG
2026-04-26 09:20:00,METAR EDDB 260920Z AUTO 34008KT 280V030 CAVOK 12/M01 Q1024 NOSIG
2026-04-26 08:50:00,METAR EDDB 260850Z AUTO 02007KT 340V070 CAVOK 11/00 Q1024 NOSIG
2026-04-26 08:20:00,METAR EDDB 260820Z AUTO 31006KT 280V020 CAVOK 10/M01 Q1024 NOSIG
2026-04-26 07:50:00,METAR EDDB 260750Z AUTO 34007KT 290V020 CAVOK 10/01 Q1024 NOSIG
2026-04-26 07:20:00,METAR EDDB 260720Z AUTO 36007KT CAVOK 09/01 Q1024 NOSIG
2026-04-26 06:50:00,METAR EDDB 260650Z AUTO 34009KT 310V020 CAVOK 09/02 Q1023 NOSIG
2026-04-26 06:20:00,METAR EDDB 260620Z AUTO 34010KT CAVOK 08/02 Q1023 NOSIG
2026-04-26 05:50:00,METAR EDDB 260550Z AUTO 32009KT 290V350 CAVOK 07/02 Q1023 NOSIG
2026-04-26 05:20:00,METAR EDDB 260520Z AUTO 31010KT CAVOK 06/02 Q1022 NOSIG
2026-04-26 04:50:00,METAR EDDB 260450Z AUTO 32008KT CAVOK 05/01 Q1022 NOSIG
2026-04-26 04:20:00,METAR EDDB 260420Z AUTO 31008KT CAVOK 04/01 Q1021 NOSIG
2026-04-26 03:50:00,METAR EDDB 260350Z AUTO 29008KT CAVOK 04/01 Q1021 NOSIG
2026-04-26 03:20:00,METAR EDDB 260320Z AUTO 30007KT CAVOK 04/01 Q1020 NOSIG
2026-04-26 02:50:00,METAR EDDB 260250Z AUTO 30008KT CAVOK 05/01 Q1020 NOSIG
2026-04-26 02:20:00,METAR EDDB 260220Z AUTO 30010KT CAVOK 05/01 Q1019 NOSIG
2026-04-26 01:50:00,METAR EDDB 260150Z AUTO 29010KT CAVOK 06/01 Q1019 NOSIG
2026-04-26 01:20:00,METAR EDDB 260120Z AUTO 31013KT CAVOK 06/01 Q1018 NOSIG
2026-04-26 00:50:00,METAR EDDB 260050Z AUTO 31013KT CAVOK 06/01 Q1018 NOSIG
2026-04-26 00:20:00,METAR EDDB 260020Z AUTO 31013KT CAVOK 07/01 Q1017 NOSIG
2026-04-25 23:50:00,METAR EDDB 252350Z AUTO 30011KT CAVOK 07/02 Q1017 NOSIG
2026-04-25 23:20:00,METAR EDDB 252320Z AUTO 31015KT CAVOK 07/02 Q1016 NOSIG
2026-04-25 22:50:00,METAR EDDB 252250Z AUTO 31012KT 9999 FEW037 08/02 Q1016 NOSIG
2026-04-25 22:20:00,METAR EDDB 252220Z AUTO 30014KT 270V330 9999 SCT040 08/02 Q1016 TEMPO 29015G25KT
2026-04-25 21:50:00,METAR EDDB 252150Z AUTO 31015KT 9999 BKN040 08/02 Q1015 TEMPO 29015G25KT
2026-04-25 21:20:00,METAR EDDB 252120Z AUTO 31016KT 9999 BKN037 08/02 Q1015 TEMPO 29015G25KT
2026-04-25 20:50:00,METAR EDDB 252050Z AUTO 31017KT 280V350 9999 BKN036 09/02 Q1015 TEMPO 29020G30KT
2026-04-25 20:20:00,METAR EDDB 252020Z AUTO 32021KT 290V360 9999 FEW030 09/02 Q1014 TEMPO 29020G30KT
2026-04-25 19:50:00,METAR EDDB 251950Z AUTO 32018KT CAVOK 09/03 Q1014 TEMPO 29020G30KT
2026-04-25 19:20:00,METAR EDDB 251920Z AUTO 32017KT CAVOK 11/04 Q1013 TEMPO 29020G30KT
2026-04-25 18:50:00,METAR EDDB 251850Z AUTO 31015KT 280V340 CAVOK 12/04 Q1012 TEMPO 29020G30KT
2026-04-25 18:20:00,METAR EDDB 251820Z AUTO 31017G27KT 270V330 CAVOK 13/04 Q1012 TEMPO 29020G30KT
2026-04-25 17:50:00,METAR EDDB 251750Z AUTO 30016KT 270V330 CAVOK 14/03 Q1011 TEMPO 29020G30KT
2026-04-25 17:20:00,METAR EDDB 251720Z AUTO 29019KT CAVOK 15/03 Q1011 TEMPO 29020G30KT
2026-04-25 16:50:00,METAR EDDB 251650Z AUTO 28015KT CAVOK 16/04 Q1011 TEMPO 29020G30KT
2026-04-25 16:20:00,METAR EDDB 251620Z AUTO 29018KT CAVOK 16/04 Q1012 TEMPO 29020G30KT
2026-04-25 15:50:00,METAR EDDB 251550Z AUTO 28021KT CAVOK 16/04 Q1012 TEMPO 29020G30KT
2026-04-25 15:20:00,METAR EDDB 251520Z AUTO 28019KT CAVOK 16/04 Q1012 TEMPO 29015G25KT
2026-04-25 14:50:00,METAR EDDB 251450Z AUTO 29017KT 260V320 CAVOK 16/04 Q1012 TEMPO 29015G25KT
2026-04-25 14:20:00,METAR EDDB 251420Z AUTO 29017G27KT CAVOK 17/05 Q1012 TEMPO 29015G25KT
2026-04-25 13:50:00,METAR EDDB 251350Z AUTO 29019KT CAVOK 16/05 Q1012 TEMPO 29015G25KT
2026-04-25 13:20:00,METAR EDDB 251320Z AUTO 29018KT CAVOK 16/04 Q1012 TEMPO 29015G25KT
2026-04-25 12:50:00,METAR EDDB 251250Z AUTO 29017KT 250V320 CAVOK 16/05 Q1013 TEMPO 29015G25KT
2026-04-25 12:20:00,METAR EDDB 251220Z AUTO 28015KT 250V310 CAVOK 15/04 Q1013 TEMPO 29015G25KT
2026-04-25 11:50:00,METAR EDDB 251150Z AUTO 28017KT CAVOK 14/04 Q1013 TEMPO 29015G25KT
2026-04-25 11:20:00,METAR EDDB 251120Z AUTO 28014KT 250V310 CAVOK 14/05 Q1014 TEMPO 29015G25KT
2026-04-25 10:50:00,METAR EDDB 251050Z AUTO 28015KT CAVOK 13/04 Q1014 NOSIG
2026-04-25 10:20:00,METAR EDDB 251020Z AUTO 28014KT CAVOK 13/05 Q1014 NOSIG
2026-04-25 09:50:00,METAR EDDB 250950Z AUTO 28015KT CAVOK 11/03 Q1014 NOSIG
2026-04-25 09:20:00,METAR EDDB 250920Z AUTO 28015KT CAVOK 11/04 Q1014 NOSIG
2026-04-25 08:50:00,METAR EDDB 250850Z AUTO 27015KT CAVOK 10/04 Q1014 NOSIG
2026-04-25 08:20:00,METAR EDDB 250820Z AUTO 28016KT 9999 FEW021 10/03 Q1014 NOSIG
2026-04-25 07:50:00,METAR EDDB 250750Z AUTO 29016KT 9999 BKN020 09/03 Q1015 NOSIG
2026-04-25 07:20:00,METAR EDDB 250720Z AUTO 29015KT 9999 BKN017 08/03 Q1015 NOSIG
2026-04-25 06:50:00,METAR EDDB 250650Z AUTO 28014KT 9999 BKN016 07/03 Q1015 NOSIG
2026-04-25 06:20:00,METAR EDDB 250620Z AUTO 29016KT 260V320 9999 BKN016 07/03 Q1015 TEMPO BKN014
2026-04-25 05:50:00,METAR EDDB 250550Z AUTO 29016KT 9999 BKN015 06/03 Q1015 TEMPO BKN014
2026-04-25 05:20:00,METAR EDDB 250520Z AUTO 28016KT 9999 BKN015 06/03 Q1015 TEMPO BKN014
2026-04-25 04:50:00,METAR EDDB 250450Z AUTO 29012KT 9999 OVC014 06/03 Q1014 TEMPO BKN015
2026-04-25 04:20:00,METAR EDDB 250420Z AUTO 29012KT 9999 BKN014 06/03 Q1014 TEMPO BKN015
2026-04-25 03:50:00,METAR EDDB 250350Z AUTO 29010KT 9999 OVC015 06/03 Q1014 TEMPO BKN014
2026-04-25 03:20:00,METAR EDDB 250320Z AUTO 29012KT 9999 OVC015 07/04 Q1014 TEMPO BKN014
2026-04-25 02:50:00,METAR EDDB 250250Z AUTO 30013KT 9999 BKN015 07/03 Q1014 TEMPO BKN014
2026-04-25 02:20:00,METAR EDDB 250220Z AUTO 29013KT 9999 OVC012 07/04 Q1015 NOSIG
2026-04-25 01:50:00,METAR EDDB 250150Z AUTO 29013KT 9999 OVC010 07/05 Q1015 TEMPO BKN009
2026-04-25 01:20:00,METAR EDDB 250120Z AUTO 30012KT 9999 OVC009 07/05 Q1015 TEMPO BKN010
2026-04-25 00:50:00,METAR EDDB 250050Z AUTO 29009KT 260V320 9999 OVC009 07/05 Q1015 TEMPO BKN010
2026-04-25 00:20:00,METAR EDDB 250020Z AUTO 29011KT 9999 OVC010 07/05 Q1015 TEMPO BKN009
2026-04-24 23:50:00,METAR EDDB 242350Z AUTO 29011KT 9999 SCT012 07/05 Q1015 BECMG BKN012
2026-04-24 23:20:00,METAR EDDB 242320Z AUTO 28007KT CAVOK 07/05 Q1015 BECMG BKN012
2026-04-24 22:50:00,METAR EDDB 242250Z AUTO 29006KT CAVOK 07/05 Q1016 BECMG BKN012
2026-04-24 22:20:00,METAR EDDB 242220Z AUTO 29007KT CAVOK 08/05 Q1016 NOSIG
2026-04-24 21:50:00,METAR EDDB 242150Z AUTO 29008KT CAVOK 09/05 Q1016 NOSIG
2026-04-24 21:20:00,METAR EDDB 242120Z AUTO 29007KT CAVOK 09/05 Q1016 NOSIG
2026-04-24 20:50:00,METAR EDDB 242050Z AUTO 29005KT 9999 FEW025 09/06 Q1016 NOSIG
2026-04-24 20:20:00,METAR EDDB 242020Z AUTO 29005KT 9999 SCT026 09/06 Q1016 NOSIG
2026-04-24 19:50:00,METAR EDDB 241950Z AUTO 31007KT 9999 SCT030 10/06 Q1017 NOSIG
2026-04-24 19:20:00,METAR EDDB 241920Z AUTO 30011KT CAVOK 11/06 Q1017 NOSIG
2026-04-24 18:50:00,METAR EDDB 241850Z AUTO 30013KT CAVOK 12/06 Q1016 NOSIG
2026-04-24 18:20:00,METAR EDDB 241820Z AUTO 28011KT CAVOK 13/07 Q1016 NOSIG
2026-04-24 17:50:00,METAR EDDB 241750Z AUTO 28011KT CAVOK 14/07 Q1016 NOSIG
2026-04-24 17:20:00,METAR EDDB 241720Z AUTO 29010KT CAVOK 15/07 Q1016 NOSIG
2026-04-24 16:50:00,METAR EDDB 241650Z AUTO 29009KT 9999 SCT040 15/07 Q1016 NOSIG
2026-04-24 16:20:00,METAR EDDB 241620Z AUTO 29012KT 9999 BKN040 16/07 Q1016 NOSIG
2026-04-24 15:50:00,METAR EDDB 241550Z AUTO 29011KT 9999 BKN040 16/07 Q1016 NOSIG
2026-04-24 15:20:00,METAR EDDB 241520Z AUTO 27013KT 9999 BKN038 15/08 Q1017 NOSIG
2026-04-24 14:50:00,METAR EDDB 241450Z AUTO 28011KT 240V320 9999 SCT037 16/08 Q1017 NOSIG
2026-04-24 14:20:00,METAR EDDB 241420Z AUTO 29011KT 260V330 9999 FEW036 15/06 Q1017 NOSIG
2026-04-24 13:50:00,METAR EDDB 241350Z AUTO 28011KT 9999 FEW034 15/07 Q1017 NOSIG
2026-04-24 13:20:00,METAR EDDB 241320Z AUTO 26011KT 230V300 9999 FEW031 15/07 Q1017 NOSIG
2026-04-24 12:50:00,METAR EDDB 241250Z AUTO 27010KT 230V310 9999 SCT027 14/07 Q1018 NOSIG
2026-04-24 12:20:00,METAR EDDB 241220Z AUTO 26010KT 230V290 9999 BKN024 12/06 Q1018 NOSIG
2026-04-24 11:50:00,METAR EDDB 241150Z AUTO 25009KT 9999 BKN021 12/06 Q1018 NOSIG
2026-04-24 11:20:00,METAR EDDB 241120Z AUTO 27011KT 9999 OVC020 11/06 Q1019 NOSIG
2026-04-24 10:50:00,METAR EDDB 241050Z AUTO 28009KT 250V310 9999 OVC019 11/06 Q1019 NOSIG
2026-04-24 10:20:00,METAR EDDB 241020Z AUTO 29010KT 260V320 9999 OVC018 10/06 Q1019 NOSIG
2026-04-24 09:50:00,METAR EDDB 240950Z AUTO 29011KT 270V330 9999 OVC017 10/05 Q1019 NOSIG
2026-04-24 09:20:00,METAR EDDB 240920Z AUTO 29011KT 9999 OVC016 09/05 Q1019 NOSIG
2026-04-24 08:50:00,METAR EDDB 240850Z AUTO 29011KT 9999 OVC016 09/05 Q1019 NOSIG
2026-04-24 08:20:00,METAR EDDB 240820Z AUTO 30010KT 9999 OVC016 09/05 Q1019 NOSIG
2026-04-24 07:50:00,METAR EDDB 240750Z AUTO 30011KT 270V340 9999 OVC016 08/05 Q1019 NOSIG
2026-04-24 07:20:00,METAR EDDB 240720Z AUTO 30011KT 9999 OVC015 08/04 Q1019 TEMPO BKN014
2026-04-24 06:50:00,METAR EDDB 240650Z AUTO 30010KT 9999 OVC014 08/04 Q1019 TEMPO BKN015
2026-04-24 06:20:00,METAR EDDB 240620Z AUTO 29011KT 9999 OVC014 07/04 Q1019 TEMPO BKN015
2026-04-24 05:50:00,METAR EDDB 240550Z AUTO 29009KT 9999 OVC014 07/04 Q1019 TEMPO BKN015
2026-04-24 05:20:00,METAR EDDB 240520Z AUTO 30010KT 270V330 9999 OVC013 07/04 Q1019 NOSIG
2026-04-24 04:50:00,METAR EDDB 240450Z AUTO 30010KT 9999 OVC013 07/04 Q1019 NOSIG
2026-04-24 04:20:00,METAR EDDB 240420Z AUTO 31011KT 280V340 9999 OVC012 07/04 Q1018 NOSIG
2026-04-24 03:50:00,METAR EDDB 240350Z AUTO 31011KT 9999 OVC011 07/04 Q1018 NOSIG
2026-04-24 03:20:00,METAR EDDB 240320Z AUTO 31013KT 9999 OVC011 07/04 Q1018 NOSIG
2026-04-24 02:50:00,METAR EDDB 240250Z AUTO 30010KT 9999 OVC011 07/04 Q1018 TEMPO BKN009
2026-04-24 02:20:00,METAR EDDB 240220Z AUTO 31010KT 9999 OVC011 07/05 Q1018 TEMPO BKN009
2026-04-24 01:50:00,METAR EDDB 240150Z AUTO 30012KT 280V340 9999 BKN012 07/05 Q1018 TEMPO SCT012
2026-04-24 01:20:00,METAR EDDB 240120Z AUTO 30009KT 9999 FEW013 07/05 Q1018 NOSIG
2026-04-24 00:50:00,METAR EDDB 240050Z AUTO 29011KT CAVOK 08/05 Q1018 NOSIG
2026-04-24 00:20:00,METAR EDDB 240020Z AUTO 29009KT CAVOK 08/05 Q1018 NOSIG
2026-04-23 23:50:00,METAR EDDB 232350Z AUTO 30010KT CAVOK 09/06 Q1019 NOSIG
2026-04-23 23:20:00,METAR EDDB 232320Z AUTO 30010KT CAVOK 09/06 Q1019 NOSIG
2026-04-23 22:50:00,METAR EDDB 232250Z AUTO 30007KT CAVOK 10/05 Q1019 NOSIG
2026-04-23 22:20:00,METAR EDDB 232220Z AUTO 30009KT CAVOK 10/05 Q1019 NOSIG
2026-04-23 21:50:00,METAR EDDB 232150Z AUTO 29007KT CAVOK 10/06 Q1019 NOSIG
2026-04-23 21:20:00,METAR EDDB 232120Z AUTO 29006KT CAVOK 11/06 Q1019 NOSIG
2026-04-23 20:50:00,METAR EDDB 232050Z AUTO 29007KT CAVOK 12/07 Q1019 NOSIG
2026-04-23 20:20:00,METAR EDDB 232020Z AUTO 29008KT CAVOK 12/07 Q1019 NOSIG
2026-04-23 19:50:00,METAR EDDB 231950Z AUTO 30007KT CAVOK 13/07 Q1019 NOSIG
2026-04-23 19:20:00,METAR EDDB 231920Z AUTO 29007KT CAVOK 13/07 Q1019 NOSIG
2026-04-23 18:50:00,METAR EDDB 231850Z AUTO 29007KT CAVOK 13/07 Q1019 NOSIG
2026-04-23 18:20:00,METAR EDDB 231820Z AUTO 27008KT CAVOK 13/07 Q1019 NOSIG
2026-04-23 17:50:00,METAR EDDB 231750Z AUTO 28010KT CAVOK 15/07 Q1019 NOSIG
2026-04-23 17:20:00,METAR EDDB 231720Z AUTO 29011KT CAVOK 15/07 Q1020 NOSIG
2026-04-23 16:50:00,METAR EDDB 231650Z AUTO 30011KT CAVOK 16/07 Q1020 NOSIG
2026-04-23 16:20:00,METAR EDDB 231620Z AUTO 29014KT 9999 FEW044 16/07 Q1020 NOSIG
2026-04-23 15:50:00,METAR EDDB 231550Z AUTO 29013KT CAVOK 16/06 Q1020 NOSIG
2026-04-23 15:20:00,METAR EDDB 231520Z AUTO 30011KT CAVOK 16/06 Q1020 NOSIG
2026-04-23 14:50:00,METAR EDDB 231450Z AUTO 29013KT CAVOK 16/06 Q1021 NOSIG
2026-04-23 14:20:00,METAR EDDB 231420Z AUTO 29012KT 270V330 CAVOK 15/05 Q1021 NOSIG
2026-04-23 13:50:00,METAR EDDB 231350Z AUTO 28013KT 260V320 CAVOK 15/05 Q1021 NOSIG
2026-04-23 13:20:00,METAR EDDB 231320Z AUTO 29011KT CAVOK 14/06 Q1022 NOSIG
2026-04-23 12:50:00,METAR EDDB 231250Z AUTO 31011KT 280V350 CAVOK 13/05 Q1022 NOSIG
2026-04-23 12:20:00,METAR EDDB 231220Z AUTO 30011KT 270V330 CAVOK 12/05 Q1023 NOSIG
2026-04-23 11:50:00,METAR EDDB 231150Z AUTO 28010KT 230V310 CAVOK 12/05 Q1023 NOSIG
2026-04-23 11:20:00,METAR EDDB 231120Z AUTO 31011KT 250V330 CAVOK 11/05 Q1023 NOSIG
2026-04-23 10:50:00,METAR EDDB 231050Z AUTO 29013KT CAVOK 10/04 Q1023 NOSIG
2026-04-23 10:20:00,METAR EDDB 231020Z AUTO 28013KT CAVOK 10/04 Q1023 NOSIG
2026-04-23 09:50:00,METAR EDDB 230950Z AUTO 29013KT 9999 FEW018 10/04 Q1024 NOSIG
2026-04-23 09:20:00,METAR EDDB 230920Z AUTO 28014KT CAVOK 09/04 Q1024 NOSIG
2026-04-23 08:50:00,METAR EDDB 230850Z AUTO 30012KT CAVOK 10/04 Q1024 NOSIG
2026-04-23 08:20:00,METAR EDDB 230820Z AUTO 30012KT 280V340 CAVOK 09/04 Q1023 NOSIG
2026-04-23 07:50:00,METAR EDDB 230750Z AUTO 29012KT CAVOK 08/03 Q1023 NOSIG
2026-04-23 07:20:00,METAR EDDB 230720Z AUTO 29012KT CAVOK 08/03 Q1023 NOSIG
2026-04-23 06:50:00,METAR EDDB 230650Z AUTO 29010KT CAVOK 07/03 Q1023 TEMPO BKN012
2026-04-23 06:20:00,METAR EDDB 230620Z AUTO 31012KT CAVOK 07/03 Q1023 TEMPO BKN012
2026-04-23 05:50:00,METAR EDDB 230550Z AUTO 31012KT CAVOK 07/02 Q1023 NOSIG
2026-04-23 05:20:00,METAR EDDB 230520Z AUTO 30012KT CAVOK 06/02 Q1023 NOSIG
2026-04-23 04:50:00,METAR EDDB 230450Z AUTO 30012KT CAVOK 06/01 Q1022 NOSIG
2026-04-23 04:20:00,METAR EDDB 230420Z AUTO 31011KT CAVOK 06/01 Q1022 NOSIG
2026-04-23 03:50:00,METAR EDDB 230350Z AUTO 31010KT CAVOK 07/01 Q1022 NOSIG
2026-04-23 03:20:00,METAR EDDB 230320Z AUTO 30007KT CAVOK 06/02 Q1022 NOSIG
2026-04-23 02:50:00,METAR EDDB 230250Z AUTO 28008KT CAVOK 05/02 Q1022 NOSIG
2026-04-23 02:20:00,METAR EDDB 230220Z AUTO 27008KT CAVOK 04/01 Q1022 NOSIG
2026-04-23 01:50:00,METAR EDDB 230150Z AUTO 28008KT CAVOK 05/01 Q1022 NOSIG
2026-04-23 01:20:00,METAR EDDB 230120Z AUTO 28008KT CAVOK 06/02 Q1022 NOSIG
2026-04-23 00:50:00,METAR EDDB 230050Z AUTO 30006KT CAVOK 06/02 Q1023 NOSIG
2026-04-23 00:20:00,METAR EDDB 230020Z AUTO 27006KT CAVOK 05/01 Q1023 NOSIG
2026-04-22 23:50:00,METAR EDDB 222350Z AUTO 28006KT CAVOK 06/01 Q1023 NOSIG
2026-04-22 23:20:00,METAR EDDB 222320Z AUTO 28007KT CAVOK 05/01 Q1023 NOSIG
2026-04-22 22:50:00,METAR EDDB 222250Z AUTO 28007KT CAVOK 06/01 Q1023 NOSIG
2026-04-22 22:20:00,METAR EDDB 222220Z AUTO 28006KT CAVOK 07/01 Q1023 NOSIG
2026-04-22 21:50:00,METAR EDDB 222150Z AUTO 27005KT CAVOK 07/01 Q1023 NOSIG
2026-04-22 21:20:00,METAR EDDB 222120Z AUTO 29005KT CAVOK 09/01 Q1023 NOSIG
2026-04-22 20:50:00,METAR EDDB 222050Z AUTO 30005KT CAVOK 09/01 Q1023 NOSIG
2026-04-22 20:20:00,METAR EDDB 222020Z AUTO 31005KT CAVOK 11/00 Q1023 NOSIG
2026-04-22 19:50:00,METAR EDDB 221950Z AUTO 31007KT CAVOK 12/01 Q1023 NOSIG
2026-04-22 19:20:00,METAR EDDB 221920Z AUTO 31008KT CAVOK 13/01 Q1023 NOSIG
2026-04-22 18:50:00,METAR EDDB 221850Z AUTO 31009KT CAVOK 14/01 Q1023 NOSIG
2026-04-22 18:20:00,METAR EDDB 221820Z AUTO 31009KT CAVOK 14/01 Q1023 NOSIG
2026-04-22 17:50:00,METAR EDDB 221750Z AUTO 31010KT CAVOK 15/00 Q1023 NOSIG
2026-04-22 17:20:00,METAR EDDB 221720Z AUTO 33012KT CAVOK 16/M00 Q1023 NOSIG
2026-04-22 16:50:00,METAR EDDB 221650Z AUTO 34011KT 310V010 CAVOK 17/M00 Q1023 NOSIG
2026-04-22 16:20:00,METAR EDDB 221620Z AUTO 33012KT CAVOK 17/00 Q1023 NOSIG
2026-04-22 15:50:00,METAR EDDB 221550Z AUTO 32012KT CAVOK 17/01 Q1023 NOSIG
2026-04-22 15:20:00,METAR EDDB 221520Z AUTO 32012KT 290V010 CAVOK 18/01 Q1023 NOSIG
2026-04-22 14:50:00,METAR EDDB 221450Z AUTO 32013KT 300V360 CAVOK 18/00 Q1023 NOSIG
2026-04-22 14:20:00,METAR EDDB 221420Z AUTO 35012KT 320V020 CAVOK 18/00 Q1023 NOSIG
2026-04-22 13:50:00,METAR EDDB 221350Z AUTO 35012KT 290V020 CAVOK 18/01 Q1023 NOSIG
2026-04-22 13:20:00,METAR EDDB 221320Z AUTO 34014KT 310V010 CAVOK 17/01 Q1024 NOSIG
2026-04-22 12:50:00,METAR EDDB 221250Z AUTO 32011KT 250V360 CAVOK 18/02 Q1024 NOSIG
2026-04-22 12:20:00,METAR EDDB 221220Z AUTO 30012KT 270V330 CAVOK 17/02 Q1024 NOSIG
2026-04-22 11:50:00,METAR EDDB 221150Z AUTO 35010KT 320V040 CAVOK 16/01 Q1024 NOSIG
2026-04-22 11:20:00,METAR EDDB 221120Z AUTO 30014KT CAVOK 16/02 Q1024 NOSIG
2026-04-22 10:50:00,METAR EDDB 221050Z AUTO 28013KT 270V340 CAVOK 16/02 Q1025 NOSIG
2026-04-22 10:20:00,METAR EDDB 221020Z AUTO 30012KT CAVOK 15/01 Q1025 NOSIG
2026-04-22 09:50:00,METAR EDDB 220950Z AUTO 31012KT 280V340 CAVOK 15/00 Q1025 NOSIG
2026-04-22 09:20:00,METAR EDDB 220920Z AUTO 31012KT CAVOK 14/M00 Q1025 NOSIG
2026-04-22 08:50:00,METAR EDDB 220850Z AUTO 30012KT 260V340 CAVOK 13/M00 Q1026 NOSIG
2026-04-22 08:20:00,METAR EDDB 220820Z AUTO 30010KT 270V330 CAVOK 12/M01 Q1026 NOSIG
2026-04-22 07:50:00,METAR EDDB 220750Z AUTO 30008KT 280V340 CAVOK 11/M01 Q1026 NOSIG
2026-04-22 07:20:00,METAR EDDB 220720Z AUTO 32008KT CAVOK 11/M02 Q1026 NOSIG
2026-04-22 06:50:00,METAR EDDB 220650Z AUTO 30006KT 260V330 CAVOK 09/M01 Q1026 NOSIG
2026-04-22 06:20:00,METAR EDDB 220620Z AUTO 31005KT 270V340 CAVOK 08/M00 Q1026 NOSIG
2026-04-22 05:50:00,METAR EDDB 220550Z AUTO 29004KT CAVOK 06/M00 Q1026 NOSIG
2026-04-22 05:20:00,METAR EDDB 220520Z AUTO 27003KT CAVOK 03/M00 Q1026 NOSIG
2026-04-22 04:50:00,METAR EDDB 220450Z AUTO VRB02KT CAVOK 04/M01 Q1026 NOSIG
2026-04-22 04:20:00,METAR EDDB 220420Z AUTO 34003KT CAVOK 02/M02 Q1025 NOSIG
2026-04-22 03:50:00,METAR EDDB 220350Z AUTO 33003KT CAVOK 02/M02 Q1025 NOSIG
2026-04-22 03:20:00,METAR EDDB 220320Z AUTO 34004KT CAVOK 02/M02 Q1025 NOSIG
2026-04-22 02:50:00,METAR EDDB 220250Z AUTO 35004KT CAVOK 02/M02 Q1025 NOSIG
2026-04-22 02:20:00,METAR EDDB 220220Z AUTO 35005KT CAVOK 03/M02 Q1025 NOSIG
2026-04-22 01:50:00,METAR EDDB 220150Z AUTO 34004KT CAVOK 03/M02 Q1025 NOSIG
2026-04-22 01:20:00,METAR EDDB 220120Z AUTO 34003KT CAVOK 03/M02 Q1025 NOSIG
2026-04-22 00:50:00,METAR EDDB 220050Z AUTO 36006KT CAVOK 04/M01 Q1025 NOSIG
2026-04-22 00:20:00,METAR EDDB 220020Z AUTO 36006KT CAVOK 04/M01 Q1025 NOSIG
2026-04-21 23:50:00,METAR EDDB 212350Z AUTO 34004KT CAVOK 04/M01 Q1025 NOSIG
2026-04-21 23:20:00,METAR EDDB 212320Z AUTO 36003KT 340V040 CAVOK 05/M01 Q1025 NOSIG
2026-04-21 22:50:00,METAR EDDB 212250Z AUTO 36005KT CAVOK 05/M01 Q1025 NOSIG
2026-04-21 22:20:00,METAR EDDB 212220Z AUTO 36005KT CAVOK 05/M01 Q1025 NOSIG
2026-04-21 21:50:00,METAR EDDB 212150Z AUTO 01006KT CAVOK 06/M01 Q1025 NOSIG
2026-04-21 21:20:00,METAR EDDB 212120Z AUTO 01008KT CAVOK 06/M01 Q1025 NOSIG
2026-04-21 20:50:00,METAR EDDB 212050Z AUTO 01008KT CAVOK 07/M00 Q1025 NOSIG
2026-04-21 20:20:00,METAR EDDB 212020Z AUTO 36008KT CAVOK 07/00 Q1024 NOSIG
2026-04-21 19:50:00,METAR EDDB 211950Z AUTO 01009KT CAVOK 08/00 Q1024 NOSIG
2026-04-21 19:20:00,METAR EDDB 211920Z AUTO 01010KT CAVOK 09/00 Q1024 NOSIG
2026-04-21 18:50:00,METAR EDDB 211850Z AUTO 02010KT CAVOK 10/00 Q1024 NOSIG
2026-04-21 18:20:00,METAR EDDB 211820Z AUTO 03009KT CAVOK 11/M00 Q1023 NOSIG
2026-04-21 17:50:00,METAR EDDB 211750Z AUTO 02011KT CAVOK 12/M00 Q1023 NOSIG
2026-04-21 17:20:00,METAR EDDB 211720Z AUTO 02013KT CAVOK 12/M00 Q1023 NOSIG
2026-04-21 16:50:00,METAR EDDB 211650Z AUTO 01011KT CAVOK 13/M00 Q1023 NOSIG
2026-04-21 16:20:00,METAR EDDB 211620Z AUTO 02007KT 340V050 CAVOK 14/M01 Q1023 NOSIG
2026-04-21 15:50:00,METAR EDDB 211550Z AUTO 03009KT 360V060 CAVOK 14/M01 Q1023 NOSIG
2026-04-21 15:20:00,METAR EDDB 211520Z AUTO 01008KT 320V090 CAVOK 14/M02 Q1023 NOSIG
2026-04-21 14:50:00,METAR EDDB 211450Z AUTO 04008KT 350V080 CAVOK 14/M01 Q1023 NOSIG
2026-04-21 14:20:00,METAR EDDB 211420Z AUTO 01008KT 320V060 CAVOK 14/M01 Q1023 NOSIG
2026-04-21 13:50:00,METAR EDDB 211350Z AUTO 05011KT 020V080 CAVOK 13/M01 Q1023 NOSIG
2026-04-21 13:20:00,METAR EDDB 211320Z AUTO 03007KT 340V080 CAVOK 14/M00 Q1023 NOSIG
2026-04-21 12:50:00,METAR EDDB 211250Z AUTO 36010KT 350V060 CAVOK 14/M01 Q1024 NOSIG
2026-04-21 12:20:00,METAR EDDB 211220Z AUTO 36011KT 330V050 CAVOK 14/M00 Q1024 NOSIG
2026-04-21 11:50:00,METAR EDDB 211150Z AUTO 03008G20KT 310V100 CAVOK 13/M02 Q1024 NOSIG
2026-04-21 11:20:00,METAR EDDB 211120Z AUTO 05006KT 330V130 CAVOK 13/M01 Q1024 NOSIG
2026-04-21 10:50:00,METAR EDDB 211050Z AUTO 07006KT 330V140 CAVOK 13/00 Q1023 NOSIG
2026-04-21 10:20:00,METAR EDDB 211020Z AUTO 05007KT 350V110 CAVOK 12/00 Q1024 NOSIG
2026-04-21 09:50:00,METAR EDDB 210950Z AUTO 04009KT 010V080 CAVOK 12/02 Q1024 NOSIG
2026-04-21 09:20:00,METAR EDDB 210920Z AUTO 01007KT 340V050 CAVOK 10/01 Q1024 NOSIG
2026-04-21 08:50:00,METAR EDDB 210850Z AUTO 02007KT 330V050 CAVOK 10/02 Q1024 NOSIG
2026-04-21 08:20:00,METAR EDDB 210820Z AUTO 02006KT 330V060 CAVOK 09/02 Q1024 NOSIG
2026-04-21 07:50:00,METAR EDDB 210750Z AUTO 02007KT 350V050 CAVOK 08/01 Q1024 NOSIG
2026-04-21 07:20:00,METAR EDDB 210720Z AUTO 04007KT CAVOK 07/01 Q1024 NOSIG
2026-04-21 06:50:00,METAR EDDB 210650Z AUTO 05007KT CAVOK 06/00 Q1024 NOSIG
2026-04-21 06:20:00,METAR EDDB 210620Z AUTO 03008KT CAVOK 05/M00 Q1023 NOSIG
2026-04-21 05:50:00,METAR EDDB 210550Z AUTO 02008KT CAVOK 04/M01 Q1023 NOSIG
2026-04-21 05:20:00,METAR EDDB 210520Z AUTO 02008KT CAVOK 03/M01 Q1023 NOSIG
2026-04-21 04:50:00,METAR EDDB 210450Z AUTO 02007KT CAVOK 02/M01 Q1023 NOSIG
2026-04-21 04:20:00,METAR EDDB 210420Z AUTO 02006KT CAVOK 02/M01 Q1023 NOSIG
2026-04-21 03:50:00,METAR EDDB 210350Z AUTO 02007KT CAVOK 02/M01 Q1022 NOSIG
2026-04-21 03:20:00,METAR EDDB 210320Z AUTO 02007KT CAVOK 02/M01 Q1022 NOSIG
2026-04-21 02:50:00,METAR EDDB 210250Z AUTO 02007KT CAVOK 02/M01 Q1022 NOSIG
2026-04-21 02:20:00,METAR EDDB 210220Z AUTO 02006KT CAVOK 03/M00 Q1022 NOSIG
2026-04-21 01:50:00,METAR EDDB 210150Z AUTO 02007KT CAVOK 03/M00 Q1022 NOSIG
2026-04-21 01:20:00,METAR EDDB 210120Z AUTO 02008KT CAVOK 04/00 Q1022 NOSIG
2026-04-21 00:50:00,METAR EDDB 210050Z AUTO 02007KT CAVOK 04/00 Q1022 NOSIG
2026-04-20 22:50:00,METAR EDDB 202250Z AUTO 04008KT CAVOK 06/01 Q1021 NOSIG
2026-04-20 22:20:00,METAR EDDB 202220Z AUTO 04009KT CAVOK 06/02 Q1020 NOSIG
2026-04-20 21:50:00,METAR EDDB 202150Z AUTO 03010KT CAVOK 07/02 Q1020 NOSIG
2026-04-20 21:20:00,METAR EDDB 202120Z AUTO 02009KT CAVOK 07/03 Q1020 NOSIG
2026-04-20 20:50:00,METAR EDDB 202050Z AUTO 01010KT CAVOK 07/03 Q1019 NOSIG
2026-04-20 20:20:00,METAR EDDB 202020Z AUTO 36010KT CAVOK 07/04 Q1019 NOSIG
2026-04-20 19:50:00,METAR EDDB 201950Z AUTO 36009KT CAVOK 08/04 Q1019 NOSIG
2026-04-20 19:20:00,METAR EDDB 201920Z AUTO 35009KT CAVOK 08/05 Q1019 NOSIG
2026-04-20 18:50:00,METAR EDDB 201850Z AUTO 36009KT CAVOK 09/05 Q1018 NOSIG
2026-04-20 18:20:00,METAR EDDB 201820Z AUTO 01008KT CAVOK 09/06 Q1018 NOSIG
2026-04-20 17:50:00,METAR EDDB 201750Z AUTO 34007KT CAVOK 10/07 Q1018 NOSIG
2026-04-20 17:20:00,METAR EDDB 201720Z AUTO 33005KT CAVOK 10/08 Q1017 NOSIG
2026-04-20 16:50:00,METAR EDDB 201650Z AUTO 35006KT CAVOK 10/08 Q1017 NOSIG
2026-04-20 16:20:00,METAR EDDB 201620Z AUTO 34005KT 9999 FEW015 10/08 Q1017 NOSIG
2026-04-20 15:50:00,METAR EDDB 201550Z AUTO 32003KT 290V350 9999 FEW012 10/08 Q1017 NOSIG
2026-04-20 15:20:00,METAR EDDB 201520Z AUTO 36004KT 330V040 9999 -RADZ FEW037 10/08 Q1017 NOSIG
2026-04-20 14:50:00,METAR EDDB 201450Z AUTO 02004KT 350V050 9999 -RADZ SCT039 10/08 Q1017 NOSIG
2026-04-20 14:20:00,METAR EDDB 201420Z AUTO 02006KT 9999 -RA BKN039 OVC048 09/07 Q1016 NOSIG
2026-04-20 13:50:00,METAR EDDB 201350Z AUTO 05005KT 010V090 9999 -RA BKN037 09/07 Q1016 NOSIG
2026-04-20 13:20:00,METAR EDDB 201320Z AUTO 08007KT 9999 -RA OVC035 08/07 Q1016 NOSIG
2026-04-20 12:50:00,METAR EDDB 201250Z AUTO 07007KT 9999 -RA BKN034 OVC043 08/07 Q1016 NOSIG
2026-04-20 12:20:00,METAR EDDB 201220Z AUTO 07008KT 9999 -RA FEW015 BKN033 OVC045 08/06 Q1016 TEMPO RA BKN010
2026-04-20 11:50:00,METAR EDDB 201150Z AUTO 05009KT 9999 -RA FEW011 SCT021 OVC028 08/06 Q1016 TEMPO RA BKN010
2026-04-20 11:20:00,METAR EDDB 201120Z AUTO 04010KT 010V070 9999 -SHRA FEW010 BKN026 OVC036 FEW///TCU 08/06 Q1015 TEMPO RA BKN010
2026-04-20 10:50:00,METAR EDDB 201050Z AUTO 05012KT 9999 -SHRA SCT012 BKN031 OVC038 FEW///TCU 08/07 Q1015 TEMPO RA BKN010
2026-04-20 10:20:00,METAR EDDB 201020Z AUTO 05011KT 9999 -SHRA FEW012 BKN037 OVC047 FEW///TCU 08/06 Q1014 TEMPO RA BKN010
2026-04-20 09:50:00,METAR EDDB 200950Z AUTO 05011KT 9999 -SHRA FEW010 BKN028 BKN040 FEW///TCU 08/07 Q1014 TEMPO RA BKN010
2026-04-20 09:20:00,METAR EDDB 200920Z AUTO 04012KT 360V080 9999 -SHRA BKN007 BKN011 BKN016 FEW///TCU 08/07 Q1014 RESHRA TEMPO -RA BKN010
2026-04-20 08:50:00,METAR EDDB 200850Z AUTO 02007KT 360V060 9999 -SHRA FEW007 BKN015 BKN030 FEW///TCU 08/07 Q1014 RESHRA TEMPO RA BKN007
2026-04-20 08:20:00,METAR EDDB 200820Z AUTO 01008KT 340V040 9999 -RA SCT006 BKN014 OVC034 08/07 Q1013 TEMPO RA BKN006
2026-04-20 07:50:00,METAR EDDB 200750Z AUTO 02004KT 280V080 9999 -RA BKN005 BKN008 BKN011 07/07 Q1013 TEMPO RA BKN004
2026-04-20 07:20:00,METAR EDDB 200720Z AUTO 30005KT 270V340 9999 -RA BKN005 07/06 Q1013 TEMPO RA BKN004
2026-04-20 06:50:00,METAR EDDB 200650Z AUTO 30006KT 9999 -RA BKN004 OVC009 06/05 Q1012 RESHRA TEMPO RA BKN005
2026-04-20 06:20:00,METAR EDDB 200620Z AUTO 29007KT 260V320 9999 SHRA BKN004 FEW///TCU 06/05 Q1012 TEMPO NSW BKN005
2026-04-20 05:50:00,METAR EDDB 200550Z AUTO 29008KT 9999 -RA OVC005 05/05 Q1012 TEMPO BKN004
2026-04-20 05:20:00,METAR EDDB 200520Z AUTO 28009KT 3200 -RADZ BR OVC005 05/05 Q1012 REDZ TEMPO 6000 BKN004
2026-04-20 04:50:00,METAR EDDB 200450Z AUTO 28010KT 3300 DZ BR OVC005 05/04 Q1012 TEMPO BKN004
2026-04-20 04:20:00,METAR EDDB 200420Z AUTO 28010KT 6000 -DZ OVC005 05/04 Q1012 TEMPO BKN004
2026-04-20 03:50:00,METAR EDDB 200350Z AUTO 28010KT 5000 BR OVC005 05/04 Q1012 TEMPO BKN004
2026-04-20 03:20:00,METAR EDDB 200320Z AUTO 28011KT 9999 -DZ OVC006 05/04 Q1013 TEMPO BKN004
2026-04-20 02:50:00,METAR EDDB 200250Z AUTO 28010KT 9999 OVC006 05/04 Q1013 TEMPO BKN009
2026-04-20 02:20:00,METAR EDDB 200220Z AUTO 28011KT 9999 OVC007 05/04 Q1013 TEMPO BKN009
2026-04-20 01:50:00,METAR EDDB 200150Z AUTO 28012KT 9999 OVC008 05/04 Q1013 TEMPO BKN009
2026-04-20 01:20:00,METAR EDDB 200120Z AUTO 28012KT 9000 BKN008 OVC012 05/04 Q1013 TEMPO BKN009
2026-04-20 00:50:00,METAR EDDB 200050Z AUTO 28011KT 9999 BKN010 OVC016 05/04 Q1013 TEMPO BKN009
2026-04-20 00:20:00,METAR EDDB 200020Z AUTO 29011KT 9999 SCT010 BKN018 OVC024 05/04 Q1013 TEMPO BKN009
2026-04-19 23:50:00,METAR EDDB 192350Z AUTO 29013KT 9999 SCT011 BKN021 BKN030 05/04 Q1013 TEMPO BKN009
2026-04-19 23:20:00,METAR EDDB 192320Z AUTO 29014KT 9999 FEW013 BKN030 BKN041 05/04 Q1013 TEMPO BKN009
2026-04-19 22:50:00,METAR EDDB 192250Z AUTO 29015KT 9999 -DZ FEW011 BKN034 OVC048 05/04 Q1013 TEMPO BKN009
2026-04-19 22:20:00,METAR EDDB 192220Z AUTO 29013KT 9999 -RA FEW012 SCT017 BKN040 06/04 Q1014 TEMPO BKN009
2026-04-19 21:50:00,METAR EDDB 192150Z AUTO 29011KT 9999 -RADZ SCT012 BKN024 OVC039 05/04 Q1014 TEMPO BKN009
2026-04-19 21:20:00,METAR EDDB 192120Z AUTO 29013KT 9999 -RADZ FEW010 BKN025 OVC043 05/04 Q1014 TEMPO 30015G25KT BKN009
2026-04-19 20:50:00,METAR EDDB 192050Z AUTO 30014G24KT 9999 -RA FEW013 BKN025 BKN032 05/03 Q1014 TEMPO 30015G25KT BKN009
2026-04-19 20:20:00,METAR EDDB 192020Z AUTO 30016KT 9999 -RA FEW014 BKN032 BKN039 05/04 Q1014 RESHRA TEMPO 30015G25KT BKN009
2026-04-19 19:50:00,METAR EDDB 191950Z AUTO 29014KT 260V320 9999 RA FEW012 BKN028 BKN032 06/04 Q1014 TEMPO 32015G25KT BKN009
2026-04-19 19:20:00,METAR EDDB 191920Z AUTO 30015KT 9999 RA FEW015 BKN029 BKN035 05/04 Q1015 TEMPO 32015G25KT BKN009
2026-04-19 18:50:00,METAR EDDB 191850Z AUTO 30016G26KT 9999 RA FEW011 BKN028 BKN035 05/04 Q1014 TEMPO 32015G25KT BKN009
2026-04-19 18:20:00,METAR EDDB 191820Z AUTO 30013KT 9999 RA SCT011 BKN033 06/05 Q1014 TEMPO 32015G25KT BKN009
2026-04-19 17:50:00,METAR EDDB 191750Z AUTO 30017KT 9000 RA SCT011 OVC036 06/05 Q1014 TEMPO 32015G30KT 4000 +RA BKN009
2026-04-19 17:20:00,METAR EDDB 191720Z AUTO 30017KT 9999 RA FEW013 OVC041 06/05 Q1014 TEMPO 32015G30KT 4000 +RA BKN009
2026-04-19 16:50:00,METAR EDDB 191650Z AUTO 30020G30KT 9999 RA FEW012 BKN041 07/05 Q1014 TEMPO 34015G30KT 4000 +RA BKN009
2026-04-19 16:20:00,METAR EDDB 191620Z AUTO 31018G28KT 8000 RA SCT010 BKN026 OVC040 07/06 Q1014 TEMPO 34015G30KT 4000 +RA BKN009
2026-04-19 15:50:00,METAR EDDB 191550Z AUTO 31019KT 7000 SHRA FEW008 BKN020 BKN034 FEW///TCU 08/07 Q1013 TEMPO 34015G30KT 2500 +RA BKN009
2026-04-19 15:20:00,METAR EDDB 191520Z AUTO 32017KT 300V360 3700 +RA BR SCT010 BKN027 OVC039 08/08 Q1013 TEMPO 34015G30KT 2500 RA BKN009
2026-04-19 14:50:00,METAR EDDB 191450Z AUTO 33019KT 7000 SHRA FEW009 BKN030 OVC044 FEW///TCU 10/08 Q1013 TEMPO 34015G30KT 4500 +SHRA BKN009
2026-04-19 14:20:00,METAR EDDB 191420Z AUTO 35015KT 9999 SHRA BKN012 BKN016 FEW///TCU 11/10 Q1012 TEMPO 34015G30KT 4500 +SHRA BKN009
2026-04-19 13:50:00,METAR EDDB 191350Z AUTO 35016KT 9000 SHRA SCT016 BKN029 FEW///TCU 12/10 Q1012 TEMPO 34015G30KT 4500 +SHRA BKN010
2026-04-19 13:20:00,METAR EDDB 191320Z AUTO 34016KT 9999 SHRA BKN018 BKN034 FEW///CB 12/10 Q1012 TEMPO 32015G30KT 4500 +SHRA BKN010
2026-04-19 12:50:00,METAR EDDB 191250Z AUTO 34016KT 9999 SHRA BKN018 BKN025 BKN034 SCT///TCU 13/09 Q1012 TEMPO 32015G30KT 4500 +SHRA BKN010
2026-04-19 12:20:00,METAR EDDB 191220Z AUTO 33014KT 9999 VCSH SCT024 BKN032 BKN042 FEW///TCU 15/10 Q1013 TEMPO 32015G30KT SHRA BKN020CB
2026-04-19 11:50:00,METAR EDDB 191150Z AUTO 32012KT 290V350 9999 FEW035 15/09 Q1013 TEMPO 32015G30KT SHRA BKN020CB
2026-04-19 11:20:00,METAR EDDB 191120Z AUTO 33011KT 9999 VCSH FEW035 FEW///TCU 16/09 Q1013 TEMPO SHRA BKN020CB
2026-04-19 10:50:00,METAR EDDB 191050Z AUTO 30008KT 280V340 9999 FEW036 16/08 Q1013 TEMPO SHRA BKN020CB
2026-04-19 10:20:00,METAR EDDB 191020Z AUTO VRB02KT 9999 -SHRA FEW047 FEW///TCU 16/07 Q1013 NOSIG
2026-04-19 09:50:00,METAR EDDB 190950Z AUTO 09004KT 050V130 CAVOK 17/07 Q1014 NOSIG
2026-04-19 09:20:00,METAR EDDB 190920Z AUTO 07004KT 010V130 CAVOK 16/07 Q1014 NOSIG
2026-04-19 08:50:00,METAR EDDB 190850Z AUTO 03006KT CAVOK 16/08 Q1014 NOSIG
2026-04-19 08:20:00,METAR EDDB 190820Z AUTO 05006KT 010V070 CAVOK 15/08 Q1014 NOSIG
2026-04-19 07:50:00,METAR EDDB 190750Z AUTO 04006KT 010V070 CAVOK 15/08 Q1014 NOSIG
2026-04-19 07:20:00,METAR EDDB 190720Z AUTO 03004KT CAVOK 14/08 Q1014 NOSIG
2026-04-19 06:50:00,METAR EDDB 190650Z AUTO 05003KT CAVOK 14/08 Q1014 NOSIG
2026-04-19 06:20:00,METAR EDDB 190620Z AUTO 06004KT CAVOK 13/08 Q1015 NOSIG
2026-04-19 05:50:00,METAR EDDB 190550Z AUTO 05004KT CAVOK 13/07 Q1015 NOSIG
2026-04-19 05:20:00,METAR EDDB 190520Z AUTO VRB02KT CAVOK 12/08 Q1015 NOSIG
2026-04-19 04:50:00,METAR EDDB 190450Z AUTO VRB02KT CAVOK 12/07 Q1015 NOSIG
2026-04-19 04:20:00,METAR EDDB 190420Z AUTO 10005KT CAVOK 11/07 Q1015 NOSIG
2026-04-19 03:50:00,METAR EDDB 190350Z AUTO 08005KT CAVOK 12/07 Q1015 NOSIG
2026-04-19 03:20:00,METAR EDDB 190320Z AUTO 05004KT CAVOK 12/07 Q1015 NOSIG
2026-04-19 02:50:00,METAR EDDB 190250Z AUTO 05003KT CAVOK 13/06 Q1016 NOSIG
2026-04-19 02:20:00,METAR EDDB 190220Z AUTO 07003KT CAVOK 13/07 Q1016 NOSIG
2026-04-19 01:50:00,METAR EDDB 190150Z AUTO 06005KT CAVOK 13/07 Q1016 NOSIG
2026-04-19 01:20:00,METAR EDDB 190120Z AUTO 07003KT CAVOK 13/07 Q1016 NOSIG
2026-04-19 00:50:00,METAR EDDB 190050Z AUTO 07003KT CAVOK 13/07 Q1016 NOSIG
2026-04-19 00:20:00,METAR EDDB 190020Z AUTO 29002KT CAVOK 14/07 Q1016 NOSIG
2026-04-18 23:50:00,METAR EDDB 182350Z AUTO VRB01KT CAVOK 14/07 Q1017 NOSIG
2026-04-18 23:20:00,METAR EDDB 182320Z AUTO 15003KT CAVOK 14/07 Q1017 NOSIG
2026-04-18 22:50:00,METAR EDDB 182250Z AUTO 13005KT CAVOK 14/06 Q1017 NOSIG
2026-04-18 22:20:00,METAR EDDB 182220Z AUTO 12006KT 9999 FEW048 15/07 Q1017 NOSIG
2026-04-18 21:50:00,METAR EDDB 182150Z AUTO 07002KT CAVOK 15/07 Q1017 NOSIG
2026-04-18 21:20:00,METAR EDDB 182120Z AUTO 02005KT CAVOK 16/06 Q1017 NOSIG
2026-04-18 20:50:00,METAR EDDB 182050Z AUTO 03006KT CAVOK 16/06 Q1017 NOSIG
2026-04-18 20:20:00,METAR EDDB 182020Z AUTO 02006KT CAVOK 16/07 Q1017 NOSIG
2026-04-18 19:50:00,METAR EDDB 181950Z AUTO 28005KT 270V330 CAVOK 16/07 Q1018 NOSIG
2026-04-18 19:20:00,METAR EDDB 181920Z AUTO 05005KT CAVOK 17/06 Q1018 NOSIG
2026-04-18 18:50:00,METAR EDDB 181850Z AUTO 06004KT CAVOK 17/07 Q1018 NOSIG
2026-04-18 18:20:00,METAR EDDB 181820Z AUTO 16001KT 9999 -RA NSC 18/05 Q1018 NOSIG
2026-04-18 17:50:00,METAR EDDB 181750Z AUTO 27001KT CAVOK 19/06 Q1017 NOSIG
2026-04-18 17:20:00,METAR EDDB 181720Z AUTO 25002KT CAVOK 19/05 Q1017 NOSIG
2026-04-18 16:50:00,METAR EDDB 181650Z AUTO VRB01KT CAVOK 19/05 Q1018 NOSIG
2026-04-18 16:20:00,METAR EDDB 181620Z AUTO 27004KT CAVOK 20/07 Q1018 NOSIG
2026-04-18 15:50:00,METAR EDDB 181550Z AUTO 27003KT 210V300 CAVOK 20/04 Q1018 NOSIG
2026-04-18 14:50:00,METAR EDDB 181450Z AUTO 27002KT CAVOK 20/04 Q1018 NOSIG
2026-04-18 14:20:00,METAR EDDB 181420Z AUTO 20002KT CAVOK 20/05 Q1018 NOSIG
2026-04-18 13:50:00,METAR EDDB 181350Z AUTO VRB03KT CAVOK 20/05 Q1019 NOSIG
2026-04-18 13:20:00,METAR EDDB 181320Z AUTO 23003KT 150V280 CAVOK 20/06 Q1019 NOSIG
2026-04-18 12:50:00,METAR EDDB 181250Z AUTO 19005KT 140V230 CAVOK 20/05 Q1019 NOSIG
2026-04-18 12:20:00,METAR EDDB 181220Z AUTO VRB04KT CAVOK 20/06 Q1019 NOSIG
2026-04-18 11:50:00,METAR EDDB 181150Z AUTO VRB03KT CAVOK 20/05 Q1020 NOSIG
2026-04-18 11:20:00,METAR EDDB 181120Z AUTO VRB05KT CAVOK 20/05 Q1020 NOSIG
2026-04-18 10:50:00,METAR EDDB 181050Z AUTO 14005KT 100V170 CAVOK 18/05 Q1020 NOSIG
2026-04-18 10:20:00,METAR EDDB 181020Z AUTO VRB04KT CAVOK 18/05 Q1021 NOSIG
2026-04-18 09:50:00,METAR EDDB 180950Z AUTO 11005KT 080V160 CAVOK 17/05 Q1021 NOSIG
2026-04-18 09:20:00,METAR EDDB 180920Z AUTO 12005KT 070V160 CAVOK 17/06 Q1021 NOSIG
2026-04-18 08:50:00,METAR EDDB 180850Z AUTO 10004KT 060V130 CAVOK 17/05 Q1021 NOSIG
2026-04-18 08:20:00,METAR EDDB 180820Z AUTO 09006KT 070V130 CAVOK 16/05 Q1021 NOSIG
2026-04-18 07:50:00,METAR EDDB 180750Z AUTO 09005KT 070V130 CAVOK 14/04 Q1021 NOSIG
2026-04-18 07:20:00,METAR EDDB 180720Z AUTO 10004KT 060V150 CAVOK 14/04 Q1021 NOSIG
2026-04-18 06:50:00,METAR EDDB 180650Z AUTO 11003KT 080V140 CAVOK 12/03 Q1022 NOSIG
2026-04-18 06:20:00,METAR EDDB 180620Z AUTO 10004KT 080V140 CAVOK 11/04 Q1022 NOSIG
2026-04-18 05:50:00,METAR EDDB 180550Z AUTO 09004KT CAVOK 09/03 Q1022 NOSIG
2026-04-18 05:20:00,METAR EDDB 180520Z AUTO 06003KT CAVOK 08/03 Q1022 NOSIG
2026-04-18 04:50:00,METAR EDDB 180450Z AUTO 06003KT CAVOK 08/02 Q1022 NOSIG
2026-04-18 04:20:00,METAR EDDB 180420Z AUTO 08005KT CAVOK 07/02 Q1022 NOSIG
2026-04-18 03:50:00,METAR EDDB 180350Z AUTO 07003KT CAVOK 07/02 Q1022 NOSIG
2026-04-18 03:20:00,METAR EDDB 180320Z AUTO 07005KT CAVOK 07/02 Q1022 NOSIG
2026-04-18 02:50:00,METAR EDDB 180250Z AUTO 07004KT CAVOK 07/02 Q1022 NOSIG
2026-04-18 02:20:00,METAR EDDB 180220Z AUTO 07004KT CAVOK 07/02 Q1022 NOSIG
2026-04-18 01:50:00,METAR EDDB 180150Z AUTO 08004KT CAVOK 07/03 Q1022 NOSIG
2026-04-18 01:20:00,METAR EDDB 180120Z AUTO 07004KT CAVOK 07/03 Q1022 NOSIG
2026-04-18 00:50:00,METAR EDDB 180050Z AUTO 06005KT CAVOK 08/03 Q1022 NOSIG
2026-04-18 00:20:00,METAR EDDB 180020Z AUTO 07006KT CAVOK 08/03 Q1022 NOSIG
2026-04-17 23:50:00,METAR EDDB 172350Z AUTO 07006KT CAVOK 09/04 Q1023 NOSIG
2026-04-17 23:20:00,METAR EDDB 172320Z AUTO 06005KT CAVOK 08/04 Q1023 NOSIG
2026-04-17 22:50:00,METAR EDDB 172250Z AUTO 05005KT CAVOK 08/04 Q1023 NOSIG
2026-04-17 22:20:00,METAR EDDB 172220Z AUTO 05003KT CAVOK 09/04 Q1023 NOSIG
2026-04-17 21:50:00,METAR EDDB 172150Z AUTO 06004KT CAVOK 10/04 Q1023 NOSIG
2026-04-17 21:20:00,METAR EDDB 172120Z AUTO 06004KT CAVOK 11/04 Q1023 NOSIG
2026-04-17 20:50:00,METAR EDDB 172050Z AUTO 06004KT CAVOK 12/04 Q1023 NOSIG
2026-04-17 20:20:00,METAR EDDB 172020Z AUTO 07004KT CAVOK 12/04 Q1023 NOSIG
2026-04-17 19:50:00,METAR EDDB 171950Z AUTO 08004KT CAVOK 12/04 Q1022 NOSIG
2026-04-17 19:20:00,METAR EDDB 171920Z AUTO 07006KT CAVOK 12/04 Q1022 NOSIG
2026-04-17 18:50:00,METAR EDDB 171850Z AUTO 07006KT CAVOK 13/04 Q1022 NOSIG
2026-04-17 18:20:00,METAR EDDB 171820Z AUTO 08006KT CAVOK 14/05 Q1022 NOSIG
2026-04-17 17:50:00,METAR EDDB 171750Z AUTO 07006KT CAVOK 15/05 Q1022 NOSIG
2026-04-17 17:20:00,METAR EDDB 171720Z AUTO 06008KT CAVOK 16/06 Q1022 NOSIG
2026-04-17 16:50:00,METAR EDDB 171650Z AUTO 06009KT CAVOK 17/05 Q1021 NOSIG
2026-04-17 16:20:00,METAR EDDB 171620Z AUTO 35004KT 300V040 CAVOK 19/04 Q1021 NOSIG
2026-04-17 15:50:00,METAR EDDB 171550Z AUTO VRB02KT CAVOK 19/03 Q1021 NOSIG
2026-04-17 15:20:00,METAR EDDB 171520Z AUTO 36007KT 330V040 CAVOK 19/03 Q1022 NOSIG
2026-04-17 14:50:00,METAR EDDB 171450Z AUTO 36006KT 310V050 CAVOK 20/04 Q1022 NOSIG
2026-04-17 14:20:00,METAR EDDB 171420Z AUTO 30007KT 260V350 CAVOK 20/05 Q1022 NOSIG
2026-04-17 13:50:00,METAR EDDB 171350Z AUTO 29008KT 210V320 CAVOK 20/04 Q1022 NOSIG
2026-04-17 13:20:00,METAR EDDB 171320Z AUTO 35005KT 240V040 CAVOK 20/05 Q1022 NOSIG
2026-04-17 12:50:00,METAR EDDB 171250Z AUTO VRB04KT CAVOK 20/05 Q1023 NOSIG
2026-04-17 12:20:00,METAR EDDB 171220Z AUTO 01007KT 300V060 CAVOK 19/05 Q1023 NOSIG
2026-04-17 11:50:00,METAR EDDB 171150Z AUTO 31009KT 290V080 CAVOK 19/06 Q1023 NOSIG
2026-04-17 11:20:00,METAR EDDB 171120Z AUTO 34006KT 300V030 CAVOK 18/05 Q1023 NOSIG
2026-04-17 10:50:00,METAR EDDB 171050Z AUTO VRB07KT CAVOK 18/06 Q1023 NOSIG
2026-04-17 10:20:00,METAR EDDB 171020Z AUTO 34006KT 280V040 CAVOK 18/05 Q1023 NOSIG
2026-04-17 09:50:00,METAR EDDB 170950Z AUTO 33005KT 280V070 CAVOK 17/05 Q1023 NOSIG
2026-04-17 09:20:00,METAR EDDB 170920Z AUTO VRB04KT CAVOK 17/05 Q1023 NOSIG
2026-04-17 08:50:00,METAR EDDB 170850Z AUTO 32005KT 280V050 CAVOK 17/06 Q1023 NOSIG
2026-04-17 08:20:00,METAR EDDB 170820Z AUTO 34004KT 310V040 CAVOK 16/06 Q1023 NOSIG
2026-04-17 07:50:00,METAR EDDB 170750Z AUTO VRB02KT CAVOK 16/06 Q1023 NOSIG
2026-04-17 07:20:00,METAR EDDB 170720Z AUTO 35003KT 300V050 CAVOK 15/07 Q1023 NOSIG
2026-04-17 06:50:00,METAR EDDB 170650Z AUTO VRB02KT CAVOK 14/07 Q1023 NOSIG
2026-04-17 06:20:00,METAR EDDB 170620Z AUTO VRB01KT CAVOK 13/07 Q1023 NOSIG
2026-04-17 05:50:00,METAR EDDB 170550Z AUTO 03003KT 350V050 CAVOK 11/07 Q1023 NOSIG
2026-04-17 05:20:00,METAR EDDB 170520Z AUTO 03004KT CAVOK 11/07 Q1023 NOSIG
2026-04-17 04:50:00,METAR EDDB 170450Z AUTO 34003KT CAVOK 10/07 Q1023 NOSIG
2026-04-17 04:20:00,METAR EDDB 170420Z AUTO 34004KT CAVOK 08/07 Q1022 NOSIG
2026-04-17 03:50:00,METAR EDDB 170350Z AUTO VRB01KT CAVOK 08/07 Q1022 NOSIG
2026-04-17 03:20:00,METAR EDDB 170320Z AUTO 35003KT CAVOK 09/07 Q1022 NOSIG
2026-04-17 02:50:00,METAR EDDB 170250Z AUTO 33003KT CAVOK 10/08 Q1022 NOSIG
2026-04-17 02:20:00,METAR EDDB 170220Z AUTO 31006KT CAVOK 11/08 Q1022 NOSIG
2026-04-17 01:50:00,METAR EDDB 170150Z AUTO 32005KT CAVOK 12/08 Q1022 NOSIG
2026-04-17 01:20:00,METAR EDDB 170120Z AUTO 32005KT CAVOK 13/09 Q1022 NOSIG
2026-04-17 00:50:00,METAR EDDB 170050Z AUTO 32005KT CAVOK 13/09 Q1022 NOSIG
2026-04-17 00:20:00,METAR EDDB 170020Z AUTO 31005KT 9999 VCSH FEW///TCU 13/09 Q1022 NOSIG
2026-04-16 23:50:00,METAR EDDB 162350Z AUTO 32004KT 9999 BKN049 13/09 Q1021 NOSIG
2026-04-16 23:20:00,METAR EDDB 162320Z AUTO 30005KT 9999 FEW046 12/09 Q1021 NOSIG
2026-04-16 22:50:00,METAR EDDB 162250Z AUTO 28006KT CAVOK 11/08 Q1021 NOSIG
2026-04-16 22:20:00,METAR EDDB 162220Z AUTO 28005KT 9999 FEW034 13/09 Q1021 NOSIG
2026-04-16 21:50:00,METAR EDDB 162150Z AUTO 30005KT 9999 FEW035 13/09 Q1021 NOSIG
2026-04-16 21:20:00,METAR EDDB 162120Z AUTO 25004KT CAVOK 14/09 Q1021 NOSIG
2026-04-16 20:50:00,METAR EDDB 162050Z AUTO VRB02KT CAVOK 14/10 Q1021 NOSIG
2026-04-16 20:20:00,METAR EDDB 162020Z AUTO 33003KT CAVOK 14/10 Q1021 NOSIG
2026-04-16 19:50:00,METAR EDDB 161950Z AUTO 32004KT CAVOK 15/09 Q1021 NOSIG
2026-04-16 19:20:00,METAR EDDB 161920Z AUTO 33007KT 9999 VCSH FEW///TCU 16/09 Q1021 NOSIG
2026-04-16 18:50:00,METAR EDDB 161850Z AUTO 31010KT 9999 -SHRA FEW///TCU 17/08 Q1020 TEMPO SHRA
2026-04-16 18:20:00,METAR EDDB 161820Z AUTO 31011KT 9999 VCSH FEW///TCU 17/08 Q1020 TEMPO SHRA
2026-04-16 17:50:00,METAR EDDB 161750Z AUTO 27007KT CAVOK 17/06 Q1020 TEMPO SHRA
2026-04-16 17:20:00,METAR EDDB 161720Z AUTO 29006KT CAVOK 18/06 Q1020 TEMPO SHRA
2026-04-16 16:50:00,METAR EDDB 161650Z AUTO 30006KT CAVOK 19/06 Q1020 TEMPO SHRA
2026-04-16 16:20:00,METAR EDDB 161620Z AUTO 31008KT CAVOK 19/05 Q1019 TEMPO SHRA
2026-04-16 15:50:00,METAR EDDB 161550Z AUTO 30007KT 270V340 CAVOK 20/06 Q1020 TEMPO SHRA
2026-04-16 14:50:00,METAR EDDB 161450Z AUTO 29010KT 260V320 CAVOK 20/05 Q1019 NOSIG
2026-04-16 14:20:00,METAR EDDB 161420Z AUTO 30010KT 260V330 CAVOK 21/05 Q1019 NOSIG
2026-04-16 13:50:00,METAR EDDB 161350Z AUTO 26010KT 240V300 CAVOK 19/04 Q1019 NOSIG
2026-04-16 13:20:00,METAR EDDB 161320Z AUTO 24005KT 150V300 CAVOK 20/05 Q1019 NOSIG
2026-04-16 12:50:00,METAR EDDB 161250Z AUTO 27007KT 240V310 CAVOK 19/04 Q1020 NOSIG
2026-04-16 12:20:00,METAR EDDB 161220Z AUTO VRB04KT CAVOK 20/05 Q1020 NOSIG
2026-04-16 11:50:00,METAR EDDB 161150Z AUTO 25008KT 210V300 CAVOK 19/04 Q1020 NOSIG
2026-04-16 11:20:00,METAR EDDB 161120Z AUTO VRB04KT CAVOK 19/04 Q1020 NOSIG
2026-04-16 10:50:00,METAR EDDB 161050Z AUTO VRB03KT CAVOK 18/04 Q1020 NOSIG
2026-04-16 10:20:00,METAR EDDB 161020Z AUTO 28003KT CAVOK 18/04 Q1020 NOSIG
2026-04-16 09:50:00,METAR EDDB 160950Z AUTO VRB01KT CAVOK 17/02 Q1020 NOSIG
2026-04-16 09:20:00,METAR EDDB 160920Z AUTO VRB02KT CAVOK 16/03 Q1020 NOSIG
2026-04-16 08:50:00,METAR EDDB 160850Z AUTO VRB03KT CAVOK 15/05 Q1020 NOSIG
2026-04-16 08:20:00,METAR EDDB 160820Z AUTO VRB02KT CAVOK 13/05 Q1020 NOSIG
2026-04-16 07:50:00,METAR EDDB 160750Z AUTO 16001KT CAVOK 13/04 Q1020 NOSIG
2026-04-16 07:20:00,METAR EDDB 160720Z AUTO VRB02KT CAVOK 13/04 Q1020 NOSIG
2026-04-16 06:50:00,METAR EDDB 160650Z AUTO VRB02KT CAVOK 12/04 Q1020 NOSIG
2026-04-16 06:20:00,METAR EDDB 160620Z AUTO 12003KT 080V140 CAVOK 10/04 Q1020 NOSIG
2026-04-16 05:50:00,METAR EDDB 160550Z AUTO VRB02KT CAVOK 10/04 Q1020 NOSIG
2026-04-16 05:20:00,METAR EDDB 160520Z AUTO 13003KT CAVOK 07/03 Q1020 NOSIG
2026-04-16 04:50:00,METAR EDDB 160450Z AUTO 08004KT CAVOK 06/03 Q1019 NOSIG
2026-04-16 04:20:00,METAR EDDB 160420Z AUTO 07003KT CAVOK 06/03 Q1020 NOSIG
2026-04-16 03:50:00,METAR EDDB 160350Z AUTO 10003KT CAVOK 07/03 Q1019 NOSIG
2026-04-16 03:20:00,METAR EDDB 160320Z AUTO 08004KT CAVOK 07/03 Q1019 NOSIG
2026-04-16 02:50:00,METAR EDDB 160250Z AUTO 07003KT CAVOK 06/03 Q1020 NOSIG
2026-04-16 02:20:00,METAR EDDB 160220Z AUTO 05002KT CAVOK 07/03 Q1020 NOSIG
2026-04-16 01:50:00,METAR EDDB 160150Z AUTO 18001KT CAVOK 06/02 Q1020 NOSIG
2026-04-16 01:20:00,METAR EDDB 160120Z AUTO 10002KT CAVOK 06/02 Q1020 NOSIG
2026-04-16 00:50:00,METAR EDDB 160050Z AUTO 08003KT CAVOK 05/02 Q1020 NOSIG
2026-04-16 00:20:00,METAR EDDB 160020Z AUTO VRB01KT CAVOK 05/02 Q1020 NOSIG
2026-04-15 23:50:00,METAR EDDB 152350Z AUTO VRB01KT CAVOK 07/02 Q1021 NOSIG
2026-04-15 23:20:00,METAR EDDB 152320Z AUTO 14002KT CAVOK 07/02 Q1021 NOSIG
2026-04-15 22:50:00,METAR EDDB 152250Z AUTO 14001KT CAVOK 07/02 Q1021 NOSIG
2026-04-15 22:20:00,METAR EDDB 152220Z AUTO 05002KT CAVOK 09/02 Q1021 NOSIG
2026-04-15 21:50:00,METAR EDDB 152150Z AUTO 04003KT CAVOK 09/02 Q1021 NOSIG
2026-04-15 21:20:00,METAR EDDB 152120Z AUTO 12004KT CAVOK 10/03 Q1021 NOSIG
2026-04-15 20:50:00,METAR EDDB 152050Z AUTO 12005KT CAVOK 10/03 Q1021 NOSIG
2026-04-15 20:20:00,METAR EDDB 152020Z AUTO 12005KT 080V140 CAVOK 11/03 Q1021 NOSIG
2026-04-15 19:50:00,METAR EDDB 151950Z AUTO 12006KT CAVOK 12/03 Q1021 NOSIG
2026-04-15 19:20:00,METAR EDDB 151920Z AUTO 11003KT CAVOK 13/02 Q1021 NOSIG
2026-04-15 18:50:00,METAR EDDB 151850Z AUTO 10004KT CAVOK 13/02 Q1021 NOSIG
2026-04-15 18:20:00,METAR EDDB 151820Z AUTO 10002KT CAVOK 13/02 Q1021 NOSIG
2026-04-15 17:50:00,METAR EDDB 151750Z AUTO 14002KT CAVOK 14/02 Q1021 NOSIG
2026-04-15 17:20:00,METAR EDDB 151720Z AUTO VRB01KT CAVOK 15/01 Q1021 NOSIG
2026-04-15 16:50:00,METAR EDDB 151650Z AUTO VRB01KT CAVOK 16/01 Q1021 NOSIG
2026-04-15 16:20:00,METAR EDDB 151620Z AUTO VRB02KT CAVOK 17/02 Q1021 NOSIG
2026-04-15 15:50:00,METAR EDDB 151550Z AUTO 17004KT 130V220 CAVOK 17/01 Q1021 NOSIG
2026-04-15 15:20:00,METAR EDDB 151520Z AUTO 15002KT CAVOK 17/03 Q1022 NOSIG
2026-04-15 14:50:00,METAR EDDB 151450Z AUTO 21003KT CAVOK 17/03 Q1022 NOSIG
2026-04-15 14:20:00,METAR EDDB 151420Z AUTO 08002KT CAVOK 17/02 Q1022 NOSIG
2026-04-15 13:50:00,METAR EDDB 151350Z AUTO VRB03KT CAVOK 17/03 Q1022 NOSIG
2026-04-15 13:20:00,METAR EDDB 151320Z AUTO VRB04KT CAVOK 16/03 Q1022 NOSIG
2026-04-15 12:50:00,METAR EDDB 151250Z AUTO 27005KT 220V310 CAVOK 16/04 Q1023 NOSIG
2026-04-15 12:20:00,METAR EDDB 151220Z AUTO VRB05KT CAVOK 16/04 Q1023 NOSIG
2026-04-15 11:50:00,METAR EDDB 151150Z AUTO 21007KT 160V260 9999 FEW047 16/03 Q1023 NOSIG
2026-04-15 11:20:00,METAR EDDB 151120Z AUTO VRB04KT 9999 FEW045 15/04 Q1023 NOSIG
2026-04-15 10:50:00,METAR EDDB 151050Z AUTO 25004KT 9999 FEW039 15/05 Q1024 NOSIG
2026-04-15 10:20:00,METAR EDDB 151020Z AUTO 30004KT 220V020 CAVOK 14/05 Q1024 NOSIG
2026-04-15 09:50:00,METAR EDDB 150950Z AUTO 33003KT CAVOK 14/05 Q1024 NOSIG
2026-04-15 09:20:00,METAR EDDB 150920Z AUTO VRB02KT CAVOK 13/05 Q1025 NOSIG
2026-04-15 08:50:00,METAR EDDB 150850Z AUTO VRB03KT CAVOK 13/05 Q1025 NOSIG
2026-04-15 08:20:00,METAR EDDB 150820Z AUTO VRB02KT CAVOK 12/06 Q1025 NOSIG
2026-04-15 07:50:00,METAR EDDB 150750Z AUTO 24002KT CAVOK 11/05 Q1025 NOSIG
2026-04-15 07:20:00,METAR EDDB 150720Z AUTO VRB02KT CAVOK 10/07 Q1025 NOSIG
2026-04-15 06:50:00,METAR EDDB 150650Z AUTO VRB02KT 4900 0450 R24R/P2000N R24L/1700U BCFG FEW002 08/07 Q1025 BECMG CAVOK
2026-04-15 06:20:00,METAR EDDB 150620Z AUTO VRB01KT 0300 0200 R24R/0450U R24L/0500N FG VV003 05/05 Q1025 BECMG CAVOK
2026-04-15 05:50:00,METAR EDDB 150550Z AUTO 25003KT 0200 R24R/0300N R24L/0375N FG VV002 02/02 Q1025 BECMG 4500 BR FEW003
2026-04-15 05:20:00,METAR EDDB 150520Z AUTO 26003KT 0200 0150 R24R/0200N R24L/0350N FG VV002 01/01 Q1025 BECMG 4500 BR FEW003
2026-04-15 04:50:00,METAR EDDB 150450Z AUTO 00000KT 0200 0100 R24R/0800U R24L/0400N FG VV002 00/00 Q1024 BECMG 4500 BR FEW003
2026-04-15 04:20:00,METAR EDDB 150420Z AUTO 24003KT 0200 R24R/0275N R24L/0225N FG VV002 00/00 Q1024 BECMG 1500 BR BKN003
2026-04-15 03:50:00,METAR EDDB 150350Z AUTO 23002KT 0250 0200 R24R/0300N R24L/0275N FG VV003 01/01 Q1024 TEMPO OVC001
2026-04-15 03:20:00,METAR EDDB 150320Z AUTO 26003KT 0300 0250 R24R/0375N R24L/0450N FG VV004 00/00 Q1024 NOSIG
2026-04-15 02:50:00,METAR EDDB 150250Z AUTO 26003KT 0250 0200 R24R/0300N R24L/0275N FG VV005 02/02 Q1024 TEMPO 1500 BCFG
2026-04-15 02:20:00,METAR EDDB 150220Z AUTO 25001KT 0250 0200 R24R/0375N R24L/0450D FG VV006 01/01 Q1024 TEMPO 1500 BCFG
2026-04-15 01:50:00,METAR EDDB 150150Z AUTO 27002KT 0250 0200 R24R/0300N R24L/0600U FG FEW008 02/02 Q1024 TEMPO 1500 BCFG
2026-04-15 01:20:00,METAR EDDB 150120Z AUTO 29002KT 0350 0300 R24R/0325N R24L/0400N FG NCD 02/02 Q1024 TEMPO 1500 BCFG
2026-04-15 00:50:00,METAR EDDB 150050Z AUTO 27002KT 0400 0300 R24R/0400D R24L/0450N FG NCD 03/03 Q1024 TEMPO 1500 BCFG
2026-04-15 00:20:00,METAR EDDB 150020Z AUTO 27003KT 0550 0250 R24R/P2000N R24L/0300N FG NCD 03/03 Q1024 TEMPO 1500 BCFG
2026-04-14 23:50:00,METAR EDDB 142350Z AUTO 29004KT 1100 0400 R24R/P2000N R24L/1900N BCFG NCD 03/02 Q1024 NOSIG
2026-04-14 23:20:00,METAR EDDB 142320Z AUTO 28004KT 5000 0600 R24R/P2000N R24L/P2000N BCFG NCD 03/03 Q1023 NOSIG
2026-04-14 22:50:00,METAR EDDB 142250Z AUTO 29004KT 7000 NCD 04/03 Q1023 NOSIG
2026-04-14 22:20:00,METAR EDDB 142220Z AUTO 30004KT CAVOK 06/04 Q1023 NOSIG
2026-04-14 21:50:00,METAR EDDB 142150Z AUTO 31005KT CAVOK 07/05 Q1023 NOSIG
2026-04-14 21:20:00,METAR EDDB 142120Z AUTO 31005KT CAVOK 08/06 Q1023 NOSIG
2026-04-14 20:50:00,METAR EDDB 142050Z AUTO 31005KT CAVOK 08/06 Q1023 NOSIG
2026-04-14 20:20:00,METAR EDDB 142020Z AUTO 32006KT CAVOK 09/06 Q1022 NOSIG
2026-04-14 19:50:00,METAR EDDB 141950Z AUTO 31007KT CAVOK 10/07 Q1022 NOSIG
2026-04-14 19:20:00,METAR EDDB 141920Z AUTO 31007KT 9999 OVC049 11/07 Q1022 NOSIG
2026-04-14 18:50:00,METAR EDDB 141850Z AUTO 32008KT 9999 OVC048 11/07 Q1022 NOSIG
2026-04-14 18:20:00,METAR EDDB 141820Z AUTO 32008KT 9999 SCT036 OVC049 11/07 Q1021 NOSIG
2026-04-14 17:50:00,METAR EDDB 141750Z AUTO 31008KT 9999 FEW032 BKN038 OVC048 11/07 Q1021 NOSIG
2026-04-14 17:20:00,METAR EDDB 141720Z AUTO 30010KT 9999 FEW017 BKN037 OVC047 11/07 Q1021 NOSIG
2026-04-14 16:50:00,METAR EDDB 141650Z AUTO 30008KT 9999 FEW020 BKN029 OVC035 11/07 Q1020 NOSIG
2026-04-14 16:20:00,METAR EDDB 141620Z AUTO 29011KT 9999 FEW020 OVC035 12/07 Q1020 NOSIG
2026-04-14 15:50:00,METAR EDDB 141550Z AUTO 29011KT 9999 VCSH FEW019 BKN032 OVC041 FEW///TCU 12/08 Q1020 NOSIG
2026-04-14 15:20:00,METAR EDDB 141520Z AUTO 28009KT 9999 -RA FEW017 BKN036 OVC042 12/08 Q1019 NOSIG
2026-04-14 14:50:00,METAR EDDB 141450Z AUTO 29011KT 9999 FEW017 BKN035 OVC044 12/08 Q1019 NOSIG
2026-04-14 14:20:00,METAR EDDB 141420Z AUTO 28008KT 9999 SCT027 SCT036 BKN045 13/07 Q1019 NOSIG
2026-04-14 13:50:00,METAR EDDB 141350Z AUTO 27008KT 9999 -RADZ FEW031 13/06 Q1019 NOSIG
2026-04-14 13:20:00,METAR EDDB 141320Z AUTO 26006KT CAVOK 13/07 Q1019 NOSIG
2026-04-14 12:50:00,METAR EDDB 141250Z AUTO 26006KT 9999 -RADZ NSC 12/08 Q1018 NOSIG
2026-04-14 12:20:00,METAR EDDB 141220Z AUTO 26006KT 9999 -RADZ NSC 12/07 Q1018 NOSIG
2026-04-14 11:50:00,METAR EDDB 141150Z AUTO 27006KT 9999 -RA NSC 12/06 Q1018 NOSIG
2026-04-14 11:20:00,METAR EDDB 141120Z AUTO 24005KT 190V280 CAVOK 13/05 Q1017 NOSIG
2026-04-14 10:50:00,METAR EDDB 141050Z AUTO VRB02KT 9999 FEW048 12/05 Q1017 NOSIG
2026-04-14 10:20:00,METAR EDDB 141020Z AUTO VRB02KT CAVOK 12/05 Q1017 NOSIG
2026-04-14 09:50:00,METAR EDDB 140950Z AUTO 28003KT 240V340 CAVOK 11/05 Q1017 NOSIG
2026-04-14 09:20:00,METAR EDDB 140920Z AUTO 30003KT 260V330 9999 -RA FEW046 10/05 Q1016 NOSIG
2026-04-14 08:50:00,METAR EDDB 140850Z AUTO 28004KT 230V320 CAVOK 11/03 Q1016 NOSIG
2026-04-14 08:20:00,METAR EDDB 140820Z COR AUTO 21004KT 170V250 9999 FEW041 11/03 Q1016 NOSIG
2026-04-14 07:50:00,METAR EDDB 140750Z AUTO 18004KT 150V210 9999 FEW048 10/02 Q1015 BECMG 25005KT
2026-04-14 07:20:00,METAR EDDB 140720Z AUTO 14004KT CAVOK 11/03 Q1015 BECMG FM0820 23005KT
2026-04-14 06:50:00,METAR EDDB 140650Z AUTO 10003KT CAVOK 10/03 Q1015 NOSIG
2026-04-14 06:20:00,METAR EDDB 140620Z AUTO 10003KT 060V120 CAVOK 10/02 Q1015 NOSIG
2026-04-14 05:50:00,METAR EDDB 140550Z AUTO 06003KT CAVOK 09/03 Q1014 NOSIG
2026-04-14 05:20:00,METAR EDDB 140520Z AUTO 07003KT CAVOK 08/02 Q1014 NOSIG
2026-04-14 04:50:00,METAR EDDB 140450Z AUTO 06004KT CAVOK 08/01 Q1014 NOSIG
2026-04-14 04:20:00,METAR EDDB 140420Z AUTO 07005KT CAVOK 08/01 Q1014 NOSIG
2026-04-14 03:50:00,METAR EDDB 140350Z AUTO 06005KT CAVOK 08/01 Q1014 NOSIG
2026-04-14 03:20:00,METAR EDDB 140320Z AUTO 07005KT CAVOK 08/01 Q1013 NOSIG
2026-04-14 02:50:00,METAR EDDB 140250Z AUTO 06004KT CAVOK 09/01 Q1013 NOSIG
2026-04-14 02:20:00,METAR EDDB 140220Z AUTO 09004KT CAVOK 10/01 Q1013 NOSIG
2026-04-14 01:50:00,METAR EDDB 140150Z AUTO 10006KT CAVOK 10/01 Q1013 NOSIG
2026-04-14 01:20:00,METAR EDDB 140120Z AUTO 10008KT CAVOK 11/01 Q1013 NOSIG
2026-04-14 00:50:00,METAR EDDB 140050Z AUTO 10009KT CAVOK 11/01 Q1013 NOSIG
2026-04-14 00:20:00,METAR EDDB 140020Z AUTO 10010KT CAVOK 11/01 Q1013 NOSIG
2026-04-13 23:50:00,METAR EDDB 132350Z AUTO 11011KT 080V140 CAVOK 12/00 Q1013 NOSIG
2026-04-13 23:20:00,METAR EDDB 132320Z AUTO 11013KT CAVOK 12/01 Q1013 NOSIG
2026-04-13 22:50:00,METAR EDDB 132250Z AUTO 10010KT CAVOK 12/01 Q1013 NOSIG
2026-04-13 22:20:00,METAR EDDB 132220Z AUTO 11011KT CAVOK 12/01 Q1013 NOSIG
2026-04-13 21:50:00,METAR EDDB 132150Z AUTO 10010KT CAVOK 12/02 Q1013 NOSIG
2026-04-13 21:20:00,METAR EDDB 132120Z AUTO 10010KT CAVOK 12/02 Q1013 NOSIG
2026-04-13 20:50:00,METAR EDDB 132050Z AUTO 09010KT CAVOK 12/02 Q1013 NOSIG
2026-04-13 20:20:00,METAR EDDB 132020Z AUTO 09010KT CAVOK 12/02 Q1013 NOSIG
2026-04-13 19:50:00,METAR EDDB 131950Z AUTO 09009KT CAVOK 12/02 Q1014 NOSIG
2026-04-13 19:20:00,METAR EDDB 131920Z AUTO 09010KT CAVOK 13/01 Q1014 NOSIG
2026-04-13 18:50:00,METAR EDDB 131850Z AUTO 09010KT CAVOK 13/01 Q1013 NOSIG
2026-04-13 18:20:00,METAR EDDB 131820Z AUTO 10012KT CAVOK 13/01 Q1013 NOSIG
2026-04-13 17:50:00,METAR EDDB 131750Z AUTO 10011KT CAVOK 13/01 Q1013 NOSIG
2026-04-13 17:20:00,METAR EDDB 131720Z AUTO 10012KT CAVOK 14/01 Q1013 TEMPO 09015G25KT
2026-04-13 16:50:00,METAR EDDB 131650Z AUTO 10013KT 070V130 CAVOK 14/02 Q1013 TEMPO 09015G25KT
2026-04-13 16:20:00,METAR EDDB 131620Z AUTO 09013KT CAVOK 14/02 Q1013 TEMPO 09015G25KT
2026-04-13 15:50:00,METAR EDDB 131550Z AUTO 09013KT 9999 -RA NSC 14/02 Q1013 TEMPO 09015G25KT
2026-04-13 15:20:00,METAR EDDB 131520Z AUTO 11015KT 080V140 CAVOK 14/02 Q1013 TEMPO 09015G25KT
2026-04-13 14:50:00,METAR EDDB 131450Z AUTO 10014KT CAVOK 14/02 Q1013 TEMPO 09015G25KT
2026-04-13 14:20:00,METAR EDDB 131420Z AUTO 11014KT CAVOK 14/02 Q1013 TEMPO 09015G25KT
2026-04-13 13:50:00,METAR EDDB 131350Z AUTO 11017KT CAVOK 14/02 Q1013 TEMPO 09015G25KT
2026-04-13 13:20:00,METAR EDDB 131320Z AUTO 11013KT CAVOK 15/03 Q1013 TEMPO 09015G25KT
2026-04-13 12:50:00,METAR EDDB 131250Z AUTO 11013KT CAVOK 14/03 Q1014 TEMPO 09015G25KT
2026-04-13 12:20:00,METAR EDDB 131220Z AUTO 11012KT 070V130 CAVOK 14/03 Q1014 TEMPO 09015G25KT
2026-04-13 11:50:00,METAR EDDB 131150Z AUTO 11014KT CAVOK 14/03 Q1014 TEMPO 09015G25KT
2026-04-13 11:20:00,METAR EDDB 131120Z AUTO 10013KT 070V130 CAVOK 13/03 Q1014 TEMPO 09015G25KT
2026-04-13 10:50:00,METAR EDDB 131050Z AUTO 10012KT CAVOK 13/03 Q1014 TEMPO 09015G25KT
2026-04-13 10:20:00,METAR EDDB 131020Z AUTO 10013KT 070V130 CAVOK 12/03 Q1014 NOSIG
2026-04-13 09:50:00,METAR EDDB 130950Z AUTO 09013KT CAVOK 12/03 Q1014 NOSIG
2026-04-13 09:20:00,METAR EDDB 130920Z AUTO 10012KT CAVOK 11/03 Q1014 NOSIG
2026-04-13 08:50:00,METAR EDDB 130850Z AUTO 10011KT CAVOK 10/02 Q1015 NOSIG
2026-04-13 08:20:00,METAR EDDB 130820Z AUTO 09011KT 060V120 CAVOK 09/02 Q1015 NOSIG
2026-04-13 07:50:00,METAR EDDB 130750Z AUTO 09010KT CAVOK 09/02 Q1015 NOSIG
2026-04-13 07:20:00,METAR EDDB 130720Z AUTO 08011KT CAVOK 09/03 Q1015 NOSIG
2026-04-13 06:50:00,METAR EDDB 130650Z AUTO 07010KT CAVOK 09/03 Q1015 NOSIG
2026-04-13 06:20:00,METAR EDDB 130620Z AUTO 07008KT CAVOK 09/03 Q1015 NOSIG
2026-04-13 05:50:00,METAR EDDB 130550Z AUTO 07007KT 9999 BKN048 08/04 Q1015 NOSIG
2026-04-13 05:20:00,METAR EDDB 130520Z AUTO 07006KT 9999 BKN039 OVC045 08/04 Q1015 NOSIG
2026-04-13 04:50:00,METAR EDDB 130450Z AUTO 06004KT 9999 OVC038 08/05 Q1015 NOSIG
2026-04-13 04:20:00,METAR EDDB 130420Z AUTO 07005KT 9999 OVC036 08/05 Q1015 NOSIG
2026-04-13 03:50:00,METAR EDDB 130350Z AUTO 07006KT 9999 OVC036 08/05 Q1015 NOSIG
2026-04-13 03:20:00,METAR EDDB 130320Z AUTO 07006KT 9999 OVC040 07/05 Q1016 NOSIG
2026-04-13 02:50:00,METAR EDDB 130250Z AUTO 07006KT 9999 BKN043 07/05 Q1016 NOSIG
2026-04-13 02:20:00,METAR EDDB 130220Z AUTO 07005KT 9999 -RADZ OVC045 07/05 Q1016 NOSIG
2026-04-13 01:50:00,METAR EDDB 130150Z AUTO 06005KT 9999 BKN043 07/05 Q1016 NOSIG
2026-04-13 01:20:00,METAR EDDB 130120Z AUTO 06005KT 9999 BKN041 07/05 Q1016 NOSIG
2026-04-13 00:50:00,METAR EDDB 130050Z AUTO 07004KT 9999 FEW044 07/05 Q1016 NOSIG
2026-04-13 00:20:00,METAR EDDB 130020Z AUTO 08004KT 9999 -RADZ FEW041 07/05 Q1016 NOSIG
2026-04-12 23:50:00,METAR EDDB 122350Z AUTO 09005KT 9999 OVC039 08/05 Q1017 NOSIG
2026-04-12 23:20:00,METAR EDDB 122320Z AUTO 09005KT 9000 BKN033 OVC039 08/06 Q1017 NOSIG
2026-04-12 22:50:00,METAR EDDB 122250Z AUTO 09005KT 8000 OVC034 07/06 Q1017 NOSIG
2026-04-12 22:20:00,METAR EDDB 122220Z AUTO 12003KT 8000 OVC036 07/06 Q1017 NOSIG
2026-04-12 21:50:00,METAR EDDB 122150Z AUTO 13003KT 9999 OVC038 07/06 Q1017 NOSIG
2026-04-12 21:20:00,METAR EDDB 122120Z AUTO 13003KT 100V160 9000 OVC042 08/06 Q1017 NOSIG
2026-04-12 20:50:00,METAR EDDB 122050Z AUTO 27001KT 9000 OVC043 08/06 Q1018 BECMG 09005KT
2026-04-12 20:20:00,METAR EDDB 122020Z AUTO 28002KT 9000 OVC042 08/06 Q1017 BECMG 09005KT
2026-04-12 19:50:00,METAR EDDB 121950Z AUTO 27001KT 9999 OVC042 08/07 Q1017 BECMG 09005KT
2026-04-12 19:20:00,METAR EDDB 121920Z AUTO 27003KT 9999 OVC041 08/07 Q1017 BECMG 09005KT
2026-04-12 18:50:00,METAR EDDB 121850Z AUTO 27003KT 9999 OVC037 08/06 Q1017 BECMG 09005KT
2026-04-12 18:20:00,METAR EDDB 121820Z AUTO VRB02KT 9999 OVC036 08/06 Q1017 BECMG 09005KT
2026-04-12 17:50:00,METAR EDDB 121750Z AUTO 26003KT 9999 OVC036 08/06 Q1017 BECMG 09005KT
2026-04-12 17:20:00,METAR EDDB 121720Z AUTO 27002KT 9999 OVC033 09/06 Q1017 NOSIG
2026-04-12 16:50:00,METAR EDDB 121650Z AUTO VRB02KT 9999 FEW022 OVC030 09/06 Q1017 NOSIG
2026-04-12 16:20:00,METAR EDDB 121620Z AUTO 00000KT 9999 FEW022 OVC028 09/06 Q1017 BECMG 17005KT
2026-04-12 15:50:00,METAR EDDB 121550Z AUTO VRB02KT 9999 BKN023 OVC027 09/06 Q1017 BECMG 17005KT
2026-04-12 14:50:00,METAR EDDB 121450Z AUTO 28003KT 260V320 9999 OVC029 08/06 Q1016 BECMG 17005KT
2026-04-12 14:20:00,METAR EDDB 121420Z AUTO 27006KT 9999 OVC030 09/06 Q1016 BECMG 17005KT
2026-04-12 13:50:00,METAR EDDB 121350Z AUTO 27007KT 9999 OVC031 09/06 Q1016 BECMG 17005KT
2026-04-12 13:20:00,METAR EDDB 121320Z AUTO 26004KT 9999 OVC030 09/05 Q1016 NOSIG
2026-04-12 12:50:00,METAR EDDB 121250Z AUTO 15004KT 110V170 9999 OVC027 10/03 Q1016 NOSIG
2026-04-12 12:20:00,METAR EDDB 121220Z AUTO 13005KT 110V170 9999 BKN023 10/03 Q1016 NOSIG
2026-04-12 11:50:00,METAR EDDB 121150Z AUTO 17005KT 9999 BKN019 OVC025 09/05 Q1016 TEMPO BKN014
2026-04-12 11:20:00,METAR EDDB 121120Z AUTO 15007KT 120V190 9999 -RA BKN016 OVC026 09/05 Q1016 TEMPO BKN014
2026-04-12 10:50:00,METAR EDDB 121050Z AUTO 18006KT 150V210 9999 OVC017 09/05 Q1016 NOSIG
2026-04-12 10:20:00,METAR EDDB 121020Z AUTO 18004KT 140V220 9999 -RA OVC017 09/03 Q1016 NOSIG
2026-04-12 09:50:00,METAR EDDB 120950Z AUTO 20006KT 9999 -RA OVC018 09/03 Q1016 NOSIG
2026-04-12 09:20:00,METAR EDDB 120920Z AUTO 18007KT 9999 -RA OVC019 09/01 Q1016 NOSIG
2026-04-12 08:50:00,METAR EDDB 120850Z AUTO 16008KT 9999 OVC019 09/M01 Q1016 NOSIG
2026-04-12 08:20:00,METAR EDDB 120820Z AUTO 16008KT 9999 BKN022 09/M01 Q1016 NOSIG
2026-04-12 07:50:00,METAR EDDB 120750Z AUTO 15009G19KT 120V250 9999 FEW022 09/M01 Q1015 NOSIG
2026-04-12 07:20:00,METAR EDDB 120720Z AUTO 14009KT CAVOK 09/M01 Q1015 NOSIG
2026-04-12 06:50:00,METAR EDDB 120650Z AUTO 14009KT CAVOK 08/M02 Q1015 NOSIG
2026-04-12 06:20:00,METAR EDDB 120620Z AUTO 14008KT CAVOK 08/M02 Q1015 NOSIG
2026-04-12 05:50:00,METAR EDDB 120550Z AUTO 14010KT CAVOK 08/M02 Q1015 NOSIG
2026-04-12 05:20:00,METAR EDDB 120520Z AUTO 14011KT CAVOK 08/M03 Q1015 NOSIG
2026-04-12 04:50:00,METAR EDDB 120450Z AUTO 13012KT CAVOK 08/M03 Q1014 NOSIG
2026-04-12 04:20:00,METAR EDDB 120420Z AUTO 13010KT CAVOK 08/M03 Q1014 NOSIG
2026-04-12 03:50:00,METAR EDDB 120350Z AUTO 13010KT CAVOK 08/M03 Q1014 NOSIG
2026-04-12 03:20:00,METAR EDDB 120320Z AUTO 13008KT CAVOK 08/M03 Q1014 NOSIG
2026-04-12 02:50:00,METAR EDDB 120250Z AUTO 12011KT CAVOK 07/M03 Q1014 NOSIG
2026-04-12 02:20:00,METAR EDDB 120220Z AUTO 11012KT CAVOK 07/M03 Q1014 NOSIG
2026-04-12 01:50:00,METAR EDDB 120150Z AUTO 12008KT CAVOK 07/M03 Q1015 NOSIG
2026-04-12 01:20:00,METAR EDDB 120120Z AUTO 13009KT CAVOK 07/M03 Q1015 NOSIG
2026-04-12 00:50:00,METAR EDDB 120050Z AUTO 11010KT CAVOK 07/M03 Q1015 NOSIG
2026-04-12 00:20:00,METAR EDDB 120020Z AUTO 12010KT CAVOK 07/M03 Q1015 NOSIG
2026-04-11 23:50:00,METAR EDDB 112350Z AUTO 12009KT CAVOK 07/M03 Q1015 NOSIG
2026-04-11 23:20:00,METAR EDDB 112320Z AUTO 11009KT CAVOK 07/M03 Q1015 NOSIG
2026-04-11 22:50:00,METAR EDDB 112250Z AUTO 13007KT CAVOK 07/M03 Q1016 NOSIG
2026-04-11 22:20:00,METAR EDDB 112220Z AUTO 12008KT CAVOK 07/M03 Q1016 NOSIG
2026-04-11 21:50:00,METAR EDDB 112150Z AUTO 12009KT CAVOK 08/M03 Q1016 NOSIG
2026-04-11 21:20:00,METAR EDDB 112120Z AUTO 12009KT CAVOK 08/M03 Q1016 NOSIG
2026-04-11 20:50:00,METAR EDDB 112050Z AUTO 11010KT CAVOK 08/M03 Q1016 NOSIG
2026-04-11 20:20:00,METAR EDDB 112020Z AUTO 11009KT CAVOK 07/M02 Q1016 NOSIG
2026-04-11 19:50:00,METAR EDDB 111950Z AUTO 13006KT CAVOK 08/M02 Q1017 NOSIG
2026-04-11 19:20:00,METAR EDDB 111920Z AUTO 11007KT CAVOK 08/M03 Q1016 NOSIG
2026-04-11 18:50:00,METAR EDDB 111850Z AUTO 11007KT CAVOK 09/M03 Q1016 NOSIG
2026-04-11 18:20:00,METAR EDDB 111820Z AUTO 12005KT CAVOK 09/M03 Q1016 NOSIG
2026-04-11 17:50:00,METAR EDDB 111750Z AUTO 12007KT CAVOK 10/M03 Q1016 NOSIG
2026-04-11 17:20:00,METAR EDDB 111720Z AUTO 11009KT CAVOK 12/M03 Q1016 NOSIG
2026-04-11 16:50:00,METAR EDDB 111650Z AUTO 12011KT CAVOK 13/M04 Q1016 NOSIG
2026-04-11 16:20:00,METAR EDDB 111620Z AUTO 12010KT 090V160 CAVOK 13/M03 Q1016 NOSIG
2026-04-11 15:50:00,METAR EDDB 111550Z AUTO 13009KT 090V160 CAVOK 13/M03 Q1016 NOSIG
2026-04-11 15:20:00,METAR EDDB 111520Z AUTO 13011KT 100V160 CAVOK 14/M03 Q1017 NOSIG
2026-04-11 14:50:00,METAR EDDB 111450Z AUTO 12011KT 080V160 CAVOK 14/M02 Q1017 NOSIG
2026-04-11 14:20:00,METAR EDDB 111420Z AUTO 13009KT 100V170 CAVOK 14/M02 Q1017 NOSIG
2026-04-11 13:50:00,METAR EDDB 111350Z AUTO 14008KT 110V170 CAVOK 14/M02 Q1017 NOSIG
2026-04-11 13:20:00,METAR EDDB 111320Z AUTO 14009KT 080V170 CAVOK 13/M02 Q1018 NOSIG
2026-04-11 12:50:00,METAR EDDB 111250Z AUTO 15009KT 110V190 CAVOK 13/M01 Q1018 NOSIG
2026-04-11 12:20:00,METAR EDDB 111220Z AUTO 09007KT 050V140 CAVOK 13/M02 Q1018 NOSIG
2026-04-11 11:50:00,METAR EDDB 111150Z AUTO 13006KT 050V200 CAVOK 13/M01 Q1018 NOSIG
2026-04-11 11:20:00,METAR EDDB 111120Z AUTO VRB03KT CAVOK 11/M00 Q1019 NOSIG
2026-04-11 10:50:00,METAR EDDB 111050Z AUTO VRB03KT CAVOK 12/M01 Q1019 NOSIG
2026-04-11 10:20:00,METAR EDDB 111020Z AUTO VRB05KT CAVOK 12/01 Q1019 NOSIG
2026-04-11 09:50:00,METAR EDDB 110950Z AUTO 21005KT 140V270 CAVOK 12/01 Q1019 NOSIG
2026-04-11 09:20:00,METAR EDDB 110920Z AUTO VRB03KT CAVOK 11/00 Q1020 NOSIG
2026-04-11 08:50:00,METAR EDDB 110850Z AUTO 21004KT 160V270 CAVOK 09/02 Q1020 NOSIG
2026-04-11 08:20:00,METAR EDDB 110820Z AUTO VRB03KT CAVOK 08/03 Q1020 NOSIG
2026-04-11 07:50:00,METAR EDDB 110750Z AUTO VRB02KT 9999 FEW001 06/02 Q1020 NOSIG
2026-04-11 07:20:00,METAR EDDB 110720Z AUTO VRB02KT 1600 0300 R06L/1100U R06R/0550N BCFG BKN002 04/02 Q1020 BECMG CAVOK
2026-04-11 06:50:00,METAR EDDB 110650Z AUTO VRB02KT 0250 0200 R06L/0250N R06R/0325N FG VV002 01/01 Q1020 BECMG 1200 BCFG
2026-04-11 06:20:00,METAR EDDB 110620Z AUTO VRB02KT 0200 R06L/0225N R06R/0275N FG VV002 00/M00 Q1020 BECMG 1200 BCFG
2026-04-11 05:50:00,METAR EDDB 110550Z AUTO VRB01KT 0250 0150 R06L/0300N R06R/0225N FZFG VV002 M00/M01 Q1020 BECMG 0800 FG
2026-04-11 05:20:00,METAR EDDB 110520Z AUTO VRB01KT 0450 0250 R06L/0250N R06R/0350N FZFG VV003 M02/M02 Q1020 TEMPO 1500 BCFG
2026-04-11 04:50:00,METAR EDDB 110450Z AUTO VRB01KT 1800 0300 R06L/P2000N R06R/1000U BCFG VV002 M02/M03 Q1019 TEMPO 0500 FZFG
2026-04-11 04:20:00,METAR EDDB 110420Z AUTO VRB01KT 3600 0800 R06L/P2000N R06R/0900U BCFG FEW002 M02/M03 Q1020 TEMPO 1200 BCFG
2026-04-11 03:50:00,METAR EDDB 110350Z AUTO VRB02KT 6000 2000 BR NCD M02/M02 Q1019 TEMPO 1500 BCFG
2026-04-11 03:20:00,METAR EDDB 110320Z AUTO 18003KT 150V210 7000 NCD M02/M03 Q1019 TEMPO 1500 BCFG
2026-04-11 02:50:00,METAR EDDB 110250Z AUTO VRB02KT 7000 3300 BR NCD M03/M03 Q1019 TEMPO 1500 BCFG
2026-04-11 02:20:00,METAR EDDB 110220Z AUTO 10005KT CAVOK M02/M03 Q1019 TEMPO 4500 BR
2026-04-11 01:50:00,METAR EDDB 110150Z AUTO 13005KT 9000 NCD M02/M02 Q1019 TEMPO 4500 BR
2026-04-11 01:20:00,METAR EDDB 110120Z AUTO 12004KT CAVOK M02/M03 Q1019 TEMPO 4500 BR
2026-04-11 00:50:00,METAR EDDB 110050Z AUTO VRB02KT 9000 NCD M02/M02 Q1019 TEMPO 4500 BR
2026-04-11 00:20:00,METAR EDDB 110020Z AUTO 27003KT CAVOK M00/M01 Q1019 NOSIG
2026-04-10 23:50:00,METAR EDDB 102350Z AUTO 27003KT CAVOK M01/M02 Q1020 NOSIG
2026-04-10 23:20:00,METAR EDDB 102320Z AUTO 24002KT CAVOK M00/M01 Q1020 NOSIG
2026-04-10 22:50:00,METAR EDDB 102250Z AUTO 24002KT CAVOK 01/M01 Q1019 NOSIG
2026-04-10 22:20:00,METAR EDDB 102220Z AUTO 23003KT CAVOK 01/M01 Q1019 NOSIG
2026-04-10 21:50:00,METAR EDDB 102150Z AUTO 24004KT CAVOK 01/M01 Q1019 NOSIG
2026-04-10 21:20:00,METAR EDDB 102120Z AUTO 25004KT CAVOK 02/M01 Q1020 NOSIG
2026-04-10 20:50:00,METAR EDDB 102050Z AUTO 26004KT CAVOK 02/M01 Q1020 NOSIG
2026-04-10 20:20:00,METAR EDDB 102020Z AUTO 25005KT CAVOK 02/M01 Q1020 NOSIG
2026-04-10 19:50:00,METAR EDDB 101950Z AUTO 23006KT CAVOK 02/M02 Q1019 NOSIG
2026-04-10 19:20:00,METAR EDDB 101920Z AUTO 24004KT CAVOK 05/M01 Q1019 NOSIG
2026-04-10 18:50:00,METAR EDDB 101850Z AUTO 24004KT CAVOK 04/M02 Q1019 NOSIG
2026-04-10 18:20:00,METAR EDDB 101820Z AUTO 27003KT CAVOK 05/M01 Q1019 NOSIG
2026-04-10 17:50:00,METAR EDDB 101750Z AUTO 26004KT 9999 FEW036 06/M01 Q1019 NOSIG
2026-04-10 17:20:00,METAR EDDB 101720Z AUTO VRB02KT 9999 BKN034 08/M01 Q1018 NOSIG
2026-04-10 16:50:00,METAR EDDB 101650Z AUTO 27004KT 9999 OVC034 07/M01 Q1018 NOSIG
2026-04-10 16:20:00,METAR EDDB 101620Z AUTO 27006KT 9999 FEW029 OVC039 07/M02 Q1018 NOSIG
2026-04-10 15:50:00,METAR EDDB 101550Z AUTO 27009KT 9999 OVC042 07/M02 Q1018 NOSIG
2026-04-10 15:20:00,METAR EDDB 101520Z AUTO 27008KT 9999 OVC042 08/M02 Q1018 NOSIG
2026-04-10 14:50:00,METAR EDDB 101450Z AUTO 26006KT 9999 OVC042 08/M03 Q1017 NOSIG
2026-04-10 14:20:00,METAR EDDB 101420Z AUTO 25004KT 180V290 9999 OVC046 08/M02 Q1017 NOSIG
2026-04-10 13:50:00,METAR EDDB 101350Z AUTO 24004KT 210V280 CAVOK 08/M02 Q1017 NOSIG
2026-04-10 13:20:00,METAR EDDB 101320Z AUTO VRB03KT CAVOK 09/M02 Q1017 NOSIG
2026-04-10 12:50:00,METAR EDDB 101250Z AUTO 13002KT CAVOK 08/M03 Q1017 NOSIG
2026-04-10 12:20:00,METAR EDDB 101220Z AUTO 18003KT 070V240 CAVOK 08/M03 Q1018 NOSIG
2026-04-10 11:50:00,METAR EDDB 101150Z AUTO 19006KT 140V230 CAVOK 07/M03 Q1018 NOSIG
2026-04-10 11:20:00,METAR EDDB 101120Z AUTO 16007KT 130V190 CAVOK 07/M03 Q1018 NOSIG
2026-04-10 10:50:00,METAR EDDB 101050Z AUTO 16009KT 120V190 CAVOK 06/M03 Q1017 NOSIG
2026-04-10 10:20:00,METAR EDDB 101020Z AUTO 14010KT 9999 FEW045 06/M04 Q1017 NOSIG
2026-04-10 09:50:00,METAR EDDB 100950Z AUTO 13008KT 110V170 9999 FEW049 05/M04 Q1018 NOSIG
2026-04-10 09:20:00,METAR EDDB 100920Z AUTO 13008KT 100V170 CAVOK 05/M04 Q1017 NOSIG
2026-04-10 08:50:00,METAR EDDB 100850Z AUTO 12010KT CAVOK 04/M04 Q1017 NOSIG
2026-04-10 08:20:00,METAR EDDB 100820Z AUTO 13008KT 100V160 CAVOK 04/M04 Q1017 NOSIG
2026-04-10 07:50:00,METAR EDDB 100750Z AUTO 13006KT 090V160 CAVOK 03/M04 Q1018 NOSIG
2026-04-10 07:20:00,METAR EDDB 100720Z AUTO 11004KT CAVOK 03/M04 Q1018 NOSIG
2026-04-10 06:50:00,METAR EDDB 100650Z AUTO 12006KT CAVOK 02/M04 Q1017 NOSIG
2026-04-10 06:20:00,METAR EDDB 100620Z AUTO 12008KT CAVOK 02/M04 Q1016 NOSIG
2026-04-10 05:50:00,METAR EDDB 100550Z AUTO 11008KT CAVOK 02/M04 Q1016 NOSIG
2026-04-10 05:20:00,METAR EDDB 100520Z AUTO 10008KT CAVOK 01/M04 Q1017 NOSIG
2026-04-10 04:50:00,METAR EDDB 100450Z AUTO 11008KT 070V130 CAVOK 00/M04 Q1017 NOSIG
2026-04-10 04:20:00,METAR EDDB 100420Z AUTO 11008KT CAVOK 00/M04 Q1017 NOSIG
2026-04-10 03:50:00,METAR EDDB 100350Z AUTO 11007KT CAVOK M00/M04 Q1017 NOSIG
2026-04-10 03:20:00,METAR EDDB 100320Z AUTO 11007KT CAVOK M00/M04 Q1018 NOSIG
2026-04-10 02:50:00,METAR EDDB 100250Z AUTO 11008KT CAVOK M00/M04 Q1018 NOSIG
2026-04-10 02:20:00,METAR EDDB 100220Z AUTO 10007KT CAVOK M01/M04 Q1018 NOSIG
2026-04-10 01:50:00,METAR EDDB 100150Z AUTO 10005KT CAVOK M01/M04 Q1019 NOSIG
2026-04-10 01:20:00,METAR EDDB 100120Z AUTO 10006KT CAVOK M01/M04 Q1018 NOSIG
2026-04-10 00:50:00,METAR EDDB 100050Z AUTO 09005KT CAVOK M00/M04 Q1019 NOSIG
2026-04-10 00:20:00,METAR EDDB 100020Z AUTO 08003KT CAVOK 00/M03 Q1019 NOSIG
2026-04-09 23:50:00,METAR EDDB 092350Z AUTO 09004KT CAVOK 01/M03 Q1019 NOSIG
2026-04-09 23:20:00,METAR EDDB 092320Z AUTO 13005KT CAVOK 02/M03 Q1019 NOSIG
2026-04-09 22:50:00,METAR EDDB 092250Z AUTO 07006KT CAVOK 02/M03 Q1019 NOSIG
2026-04-09 22:20:00,METAR EDDB 092220Z AUTO 07007KT CAVOK 02/M03 Q1020 NOSIG
2026-04-09 21:50:00,METAR EDDB 092150Z AUTO 06005KT CAVOK 02/M03 Q1020 NOSIG
2026-04-09 21:20:00,METAR EDDB 092120Z AUTO 06006KT CAVOK 03/M03 Q1020 NOSIG
2026-04-09 20:50:00,METAR EDDB 092050Z AUTO 07005KT CAVOK 03/M04 Q1020 NOSIG
2026-04-09 20:20:00,METAR EDDB 092020Z AUTO 05006KT 020V090 CAVOK 05/M04 Q1021 NOSIG
2026-04-09 19:50:00,METAR EDDB 091950Z AUTO 10005KT CAVOK 05/M05 Q1021 NOSIG
2026-04-09 19:20:00,METAR EDDB 091920Z AUTO 10006KT CAVOK 05/M05 Q1021 NOSIG
2026-04-09 18:50:00,METAR EDDB 091850Z AUTO 10004KT CAVOK 06/M05 Q1021 NOSIG
2026-04-09 18:20:00,METAR EDDB 091820Z AUTO 09006KT CAVOK 06/M06 Q1021 NOSIG
2026-04-09 17:50:00,METAR EDDB 091750Z AUTO 08007KT CAVOK 08/M07 Q1021 NOSIG
2026-04-09 17:20:00,METAR EDDB 091720Z AUTO 09008KT CAVOK 09/M07 Q1021 NOSIG
2026-04-09 16:50:00,METAR EDDB 091650Z AUTO 09007KT CAVOK 10/M08 Q1021 NOSIG
2026-04-09 16:20:00,METAR EDDB 091620Z AUTO 07008KT 040V130 CAVOK 11/M07 Q1021 NOSIG
2026-04-09 15:50:00,METAR EDDB 091550Z AUTO 10008KT 070V130 CAVOK 12/M07 Q1021 NOSIG
2026-04-09 15:20:00,METAR EDDB 091520Z AUTO 04006KT 350V100 CAVOK 12/M08 Q1022 NOSIG
2026-04-09 14:50:00,METAR EDDB 091450Z AUTO 06008KT 020V100 CAVOK 12/M07 Q1022 NOSIG
2026-04-09 14:20:00,METAR EDDB 091420Z AUTO 05005KT 320V090 CAVOK 12/M05 Q1022 NOSIG
2026-04-09 13:50:00,METAR EDDB 091350Z AUTO VRB06KT CAVOK 12/M04 Q1023 NOSIG
2026-04-09 13:20:00,METAR EDDB 091320Z AUTO 07006KT 010V130 CAVOK 11/M04 Q1023 NOSIG
2026-04-09 12:50:00,METAR EDDB 091250Z AUTO 06009KT 020V120 CAVOK 11/M06 Q1023 NOSIG
2026-04-09 12:20:00,METAR EDDB 091220Z AUTO 04008KT 360V060 CAVOK 10/M04 Q1024 NOSIG
2026-04-09 11:50:00,METAR EDDB 091150Z AUTO 03008KT 340V070 CAVOK 09/M04 Q1024 NOSIG
2026-04-09 11:20:00,METAR EDDB 091120Z AUTO 05010KT 020V090 CAVOK 09/M04 Q1025 NOSIG
2026-04-09 10:50:00,METAR EDDB 091050Z AUTO 05008KT 360V090 CAVOK 09/M04 Q1025 NOSIG
2026-04-09 10:20:00,METAR EDDB 091020Z AUTO 07006KT 030V110 CAVOK 08/M03 Q1025 NOSIG
2026-04-09 09:50:00,METAR EDDB 090950Z AUTO 06006KT 350V120 CAVOK 07/M02 Q1026 NOSIG
2026-04-09 09:20:00,METAR EDDB 090920Z AUTO 05005KT 010V120 CAVOK 06/M00 Q1026 NOSIG
2026-04-09 08:50:00,METAR EDDB 090850Z AUTO 06006KT 030V100 CAVOK 04/M01 Q1026 NOSIG
2026-04-09 08:20:00,METAR EDDB 090820Z AUTO 02006KT 350V050 9999 FEW009 03/M00 Q1027 NOSIG
2026-04-09 07:50:00,METAR EDDB 090750Z AUTO 07009KT 9999 FEW009 03/M01 Q1027 NOSIG
2026-04-09 07:20:00,METAR EDDB 090720Z AUTO 04008KT 360V080 9999 FEW006 01/M01 Q1027 NOSIG
2026-04-09 06:50:00,METAR EDDB 090650Z AUTO 04006KT 9999 BKN004 01/M01 Q1027 BECMG SCT005
2026-04-09 06:20:00,METAR EDDB 090620Z AUTO 05005KT 010V080 8000 BKN003 M00/M01 Q1027 BECMG SCT003
2026-04-09 05:50:00,METAR EDDB 090550Z AUTO 04005KT 010V070 4300 1200 R06L/P2000N R06R/P2000N BR BKN003 00/M01 Q1027 TEMPO 0700 FG BKN001
2026-04-09 05:20:00,METAR EDDB 090520Z AUTO 06006KT 9999 SCT003 M00/M01 Q1027 TEMPO 2500 BR BKN003
2026-04-09 04:50:00,METAR EDDB 090450Z AUTO 04005KT CAVOK M00/M01 Q1027 TEMPO BKN003
2026-04-09 04:20:00,METAR EDDB 090420Z AUTO 04002KT 9999 0550 R06L/P2000N R06R/P2000N BCFG NSC M00/M01 Q1027 TEMPO 0500 FZFG BKN001
2026-04-09 03:50:00,METAR EDDB 090350Z AUTO 08003KT CAVOK M00/M01 Q1027 NOSIG
2026-04-09 03:20:00,METAR EDDB 090320Z AUTO 07004KT CAVOK M00/M01 Q1027 NOSIG
2026-04-09 02:50:00,METAR EDDB 090250Z AUTO 07005KT CAVOK 00/M01 Q1027 NOSIG
2026-04-09 02:20:00,METAR EDDB 090220Z AUTO 08006KT CAVOK 00/M01 Q1027 NOSIG
2026-04-09 01:50:00,METAR EDDB 090150Z AUTO 07006KT CAVOK 01/M01 Q1027 NOSIG
2026-04-09 01:20:00,METAR EDDB 090120Z AUTO 06007KT CAVOK 01/M01 Q1028 NOSIG
2026-04-09 00:50:00,METAR EDDB 090050Z AUTO 07010KT CAVOK 02/M00 Q1028 NOSIG
2026-04-09 00:20:00,METAR EDDB 090020Z AUTO 07009KT CAVOK 03/M00 Q1028 NOSIG
2026-04-08 23:50:00,METAR EDDB 082350Z AUTO 05007KT CAVOK 03/00 Q1028 NOSIG
2026-04-08 23:20:00,METAR EDDB 082320Z AUTO 05007KT CAVOK 03/00 Q1028 NOSIG
2026-04-08 22:50:00,METAR EDDB 082250Z AUTO 05004KT CAVOK 04/00 Q1028 NOSIG
2026-04-08 22:20:00,METAR EDDB 082220Z AUTO 05006KT CAVOK 04/M00 Q1028 NOSIG
2026-04-08 21:50:00,METAR EDDB 082150Z AUTO 06005KT CAVOK 04/M00 Q1028 NOSIG
2026-04-08 21:20:00,METAR EDDB 082120Z AUTO 05006KT CAVOK 05/M00 Q1028 NOSIG
2026-04-08 20:50:00,METAR EDDB 082050Z AUTO 05008KT CAVOK 07/M00 Q1028 NOSIG
2026-04-08 20:20:00,METAR EDDB 082020Z AUTO 05009KT CAVOK 07/M00 Q1028 NOSIG
2026-04-08 19:50:00,METAR EDDB 081950Z AUTO 04007KT CAVOK 08/M00 Q1028 NOSIG
2026-04-08 19:20:00,METAR EDDB 081920Z AUTO 05006KT CAVOK 08/M00 Q1028 NOSIG
2026-04-08 18:50:00,METAR EDDB 081850Z AUTO 06006KT CAVOK 08/M01 Q1027 NOSIG
2026-04-08 18:20:00,METAR EDDB 081820Z AUTO 08008KT CAVOK 09/M00 Q1027 NOSIG
2026-04-08 17:50:00,METAR EDDB 081750Z AUTO 08009KT CAVOK 10/M00 Q1027 NOSIG
2026-04-08 17:20:00,METAR EDDB 081720Z AUTO 05009KT CAVOK 12/M01 Q1027 NOSIG
2026-04-08 16:50:00,METAR EDDB 081650Z AUTO 07008KT CAVOK 13/M01 Q1027 NOSIG
2026-04-08 16:20:00,METAR EDDB 081620Z AUTO 06006KT 020V100 CAVOK 13/M01 Q1027 NOSIG
2026-04-08 15:50:00,METAR EDDB 081550Z AUTO 05007KT 010V080 CAVOK 14/M02 Q1027 NOSIG
2026-04-08 15:20:00,METAR EDDB 081520Z AUTO 34003KT CAVOK 14/M02 Q1027 NOSIG
2026-04-08 14:50:00,METAR EDDB 081450Z AUTO VRB03KT CAVOK 14/M02 Q1027 NOSIG
2026-04-08 14:20:00,METAR EDDB 081420Z AUTO VRB05KT CAVOK 14/M02 Q1027 BECMG 04007KT
2026-04-08 13:50:00,METAR EDDB 081350Z AUTO 35007KT 290V050 CAVOK 14/M04 Q1027 BECMG 04007KT
2026-04-08 13:20:00,METAR EDDB 081320Z AUTO 33007KT 290V010 CAVOK 14/M04 Q1028 BECMG 04007KT
2026-04-08 12:50:00,METAR EDDB 081250Z AUTO 03007KT 290V080 CAVOK 14/M04 Q1028 NOSIG
2026-04-08 12:20:00,METAR EDDB 081220Z AUTO 36004KT 290V060 CAVOK 13/M04 Q1028 NOSIG
2026-04-08 11:50:00,METAR EDDB 081150Z AUTO VRB05KT CAVOK 13/M05 Q1029 NOSIG
2026-04-08 11:20:00,METAR EDDB 081120Z AUTO VRB04KT CAVOK 13/M04 Q1029 NOSIG
2026-04-08 10:50:00,METAR EDDB 081050Z AUTO 26005KT CAVOK 13/M03 Q1029 BECMG 04006KT
2026-04-08 10:20:00,METAR EDDB 081020Z AUTO VRB04KT CAVOK 12/M04 Q1029 NOSIG
2026-04-08 09:50:00,METAR EDDB 080950Z AUTO 28003KT CAVOK 12/M02 Q1029 NOSIG
2026-04-08 09:20:00,METAR EDDB 080920Z AUTO VRB02KT CAVOK 11/M02 Q1030 NOSIG
2026-04-08 08:50:00,METAR EDDB 080850Z AUTO VRB03KT CAVOK 10/M01 Q1030 NOSIG
2026-04-08 08:20:00,METAR EDDB 080820Z AUTO VRB03KT CAVOK 09/M01 Q1030 NOSIG
2026-04-08 07:50:00,METAR EDDB 080750Z AUTO VRB02KT CAVOK 09/M01 Q1030 NOSIG
2026-04-08 07:20:00,METAR EDDB 080720Z AUTO 12003KT 070V180 CAVOK 07/M02 Q1030 NOSIG
2026-04-08 06:50:00,METAR EDDB 080650Z AUTO VRB02KT CAVOK 06/M02 Q1030 NOSIG
2026-04-08 06:20:00,METAR EDDB 080620Z AUTO VRB02KT CAVOK 04/M02 Q1030 NOSIG
2026-04-08 05:50:00,METAR EDDB 080550Z AUTO VRB01KT CAVOK 03/M03 Q1030 NOSIG
2026-04-08 05:20:00,METAR EDDB 080520Z AUTO VRB01KT CAVOK M00/M05 Q1029 NOSIG
2026-04-08 04:50:00,METAR EDDB 080450Z AUTO VRB01KT CAVOK M01/M05 Q1029 NOSIG
2026-04-08 04:20:00,METAR EDDB 080420Z AUTO VRB01KT CAVOK M02/M05 Q1029 NOSIG
2026-04-08 03:50:00,METAR EDDB 080350Z AUTO VRB01KT CAVOK M02/M05 Q1029 NOSIG
2026-04-08 03:20:00,METAR EDDB 080320Z AUTO 23001KT CAVOK M02/M06 Q1029 NOSIG
2026-04-08 02:50:00,METAR EDDB 080250Z AUTO 25001KT CAVOK M01/M05 Q1029 NOSIG
2026-04-08 02:20:00,METAR EDDB 080220Z AUTO 24002KT CAVOK M01/M05 Q1029 NOSIG
2026-04-08 01:50:00,METAR EDDB 080150Z AUTO 23004KT CAVOK M01/M06 Q1029 NOSIG
2026-04-08 01:20:00,METAR EDDB 080120Z AUTO 25003KT CAVOK M00/M05 Q1029 NOSIG
2026-04-08 00:50:00,METAR EDDB 080050Z AUTO VRB01KT CAVOK M01/M05 Q1029 NOSIG
2026-04-08 00:20:00,METAR EDDB 080020Z AUTO 35001KT CAVOK 00/M05 Q1029 NOSIG
2026-04-07 23:50:00,METAR EDDB 072350Z AUTO VRB01KT CAVOK 01/M05 Q1029 NOSIG
2026-04-07 23:20:00,METAR EDDB 072320Z AUTO VRB01KT CAVOK 01/M05 Q1029 NOSIG
2026-04-07 22:50:00,METAR EDDB 072250Z AUTO 35002KT CAVOK 03/M05 Q1029 NOSIG
2026-04-07 22:20:00,METAR EDDB 072220Z AUTO 02003KT CAVOK 03/M05 Q1028 NOSIG
2026-04-07 21:50:00,METAR EDDB 072150Z AUTO 02002KT CAVOK 04/M05 Q1028 NOSIG
2026-04-07 21:20:00,METAR EDDB 072120Z AUTO 04005KT CAVOK 04/M05 Q1028 NOSIG
2026-04-07 20:50:00,METAR EDDB 072050Z AUTO 04003KT CAVOK 05/M06 Q1028 NOSIG
2026-04-07 20:20:00,METAR EDDB 072020Z AUTO 04007KT CAVOK 06/M06 Q1028 NOSIG
2026-04-07 19:50:00,METAR EDDB 071950Z AUTO 04005KT CAVOK 07/M07 Q1027 NOSIG
2026-04-07 19:20:00,METAR EDDB 071920Z AUTO 03006KT CAVOK 08/M07 Q1027 NOSIG
2026-04-07 18:50:00,METAR EDDB 071850Z AUTO 04006KT CAVOK 08/M08 Q1027 NOSIG
2026-04-07 18:20:00,METAR EDDB 071820Z AUTO 05007KT CAVOK 09/M06 Q1027 NOSIG
2026-04-07 17:50:00,METAR EDDB 071750Z AUTO 04007KT CAVOK 10/M05 Q1026 NOSIG
2026-04-07 17:20:00,METAR EDDB 071720Z AUTO 01008KT 340V040 CAVOK 12/M04 Q1026 NOSIG
2026-04-07 16:50:00,METAR EDDB 071650Z AUTO 35010KT CAVOK 12/M03 Q1026 NOSIG
2026-04-07 16:20:00,METAR EDDB 071620Z AUTO 36010KT CAVOK 13/M03 Q1025 NOSIG
2026-04-07 15:50:00,METAR EDDB 071550Z AUTO 02011KT CAVOK 14/M03 Q1025 NOSIG
2026-04-07 15:20:00,METAR EDDB 071520Z AUTO 32011KT 280V350 CAVOK 13/M01 Q1025 NOSIG
2026-04-07 14:50:00,METAR EDDB 071450Z AUTO 35009KT 330V030 CAVOK 14/00 Q1025 NOSIG
2026-04-07 14:20:00,METAR EDDB 071420Z AUTO 35010KT 310V010 CAVOK 13/M00 Q1025 NOSIG
2026-04-07 13:50:00,METAR EDDB 071350Z AUTO 35011KT 310V040 CAVOK 12/M01 Q1025 NOSIG
2026-04-07 13:20:00,METAR EDDB 071320Z AUTO 32008KT 280V010 9999 SCT049 13/00 Q1025 NOSIG
2026-04-07 12:50:00,METAR EDDB 071250Z AUTO VRB09KT 9999 FEW046 12/01 Q1026 NOSIG
2026-04-07 12:20:00,METAR EDDB 071220Z AUTO 32009KT 260V010 CAVOK 11/01 Q1026 NOSIG
2026-04-07 11:50:00,METAR EDDB 071150Z AUTO 31010KT 270V350 CAVOK 11/01 Q1026 NOSIG
2026-04-07 11:20:00,METAR EDDB 071120Z AUTO 30012KT 9999 FEW033 11/02 Q1026 NOSIG
2026-04-07 10:50:00,METAR EDDB 071050Z AUTO 33013KT 9999 SCT030 09/02 Q1026 NOSIG
2026-04-07 10:20:00,METAR EDDB 071020Z AUTO 32013KT 290V360 9999 BKN026 09/01 Q1026 NOSIG
2026-04-07 09:50:00,METAR EDDB 070950Z AUTO 32012KT 290V350 9999 BKN022 08/02 Q1026 NOSIG
2026-04-07 09:20:00,METAR EDDB 070920Z AUTO 31012KT 270V340 9999 BKN020 07/01 Q1026 NOSIG
2026-04-07 08:50:00,METAR EDDB 070850Z AUTO 30014KT 9999 BKN017 06/01 Q1026 NOSIG
2026-04-07 08:20:00,METAR EDDB 070820Z AUTO 31014KT 9999 BKN015 05/01 Q1026 NOSIG
2026-04-07 07:50:00,METAR EDDB 070750Z AUTO 31014KT 9999 OVC013 05/01 Q1026 BECMG BKN015
2026-04-07 07:20:00,METAR EDDB 070720Z AUTO 31013KT 9999 BKN011 04/01 Q1025 BECMG BKN015
2026-04-07 06:50:00,METAR EDDB 070650Z AUTO 31012KT 280V340 9999 OVC012 04/01 Q1025 BECMG BKN015
2026-04-07 06:20:00,METAR EDDB 070620Z AUTO 31013KT 9999 BKN013 04/01 Q1025 BECMG BKN015
2026-04-07 05:50:00,METAR EDDB 070550Z AUTO 28008KT CAVOK 04/01 Q1025 TEMPO BKN010
2026-04-07 05:20:00,METAR EDDB 070520Z AUTO 27008KT CAVOK 02/01 Q1025 NOSIG
2026-04-07 04:50:00,METAR EDDB 070450Z AUTO 26008KT CAVOK M00/M01 Q1025 NOSIG
2026-04-07 04:20:00,METAR EDDB 070420Z AUTO 27006KT CAVOK M00/M02 Q1025 NOSIG
2026-04-07 03:50:00,METAR EDDB 070350Z AUTO 27006KT CAVOK M00/M02 Q1025 NOSIG
2026-04-07 03:20:00,METAR EDDB 070320Z AUTO 28006KT CAVOK 01/M01 Q1025 NOSIG
2026-04-07 02:50:00,METAR EDDB 070250Z AUTO 30007KT CAVOK 03/M00 Q1025 NOSIG
2026-04-07 02:20:00,METAR EDDB 070220Z AUTO 29008KT CAVOK 03/M00 Q1025 NOSIG
2026-04-07 01:50:00,METAR EDDB 070150Z AUTO 30007KT CAVOK 04/M00 Q1025 NOSIG
2026-04-07 01:20:00,METAR EDDB 070120Z AUTO 30008KT CAVOK 04/M01 Q1025 NOSIG
2026-04-07 00:50:00,METAR EDDB 070050Z AUTO 30008KT CAVOK 04/M01 Q1025 NOSIG
2026-04-07 00:20:00,METAR EDDB 070020Z AUTO 30008KT CAVOK 05/M02 Q1025 NOSIG
2026-04-06 23:50:00,METAR EDDB 062350Z AUTO 30010KT CAVOK 06/M02 Q1025 NOSIG
2026-04-06 23:20:00,METAR EDDB 062320Z AUTO 30011KT CAVOK 06/M02 Q1025 NOSIG
2026-04-06 22:50:00,METAR EDDB 062250Z AUTO 30009KT CAVOK 06/M02 Q1025 NOSIG
2026-04-06 22:20:00,METAR EDDB 062220Z AUTO 31009KT CAVOK 06/M03 Q1025 NOSIG
2026-04-06 21:50:00,METAR EDDB 062150Z AUTO 30011KT CAVOK 07/M02 Q1025 NOSIG
2026-04-06 21:20:00,METAR EDDB 062120Z AUTO 29009KT CAVOK 07/M02 Q1025 NOSIG
2026-04-06 20:50:00,METAR EDDB 062050Z AUTO 29010KT CAVOK 07/M03 Q1025 NOSIG
2026-04-06 20:20:00,METAR EDDB 062020Z AUTO 29008KT CAVOK 08/M03 Q1025 NOSIG
2026-04-06 19:50:00,METAR EDDB 061950Z AUTO 31010KT CAVOK 08/M03 Q1025 NOSIG
2026-04-06 19:20:00,METAR EDDB 061920Z AUTO 31011KT CAVOK 09/M03 Q1025 NOSIG
2026-04-06 18:50:00,METAR EDDB 061850Z AUTO 30008KT CAVOK 09/M03 Q1025 NOSIG
2026-04-06 18:20:00,METAR EDDB 061820Z AUTO 30009KT CAVOK 10/M02 Q1024 NOSIG
2026-04-06 17:50:00,METAR EDDB 061750Z AUTO 29013KT CAVOK 11/M02 Q1024 NOSIG
2026-04-06 17:20:00,METAR EDDB 061720Z AUTO 30014KT CAVOK 11/M02 Q1024 TEMPO 30015G25KT
2026-04-06 16:50:00,METAR EDDB 061650Z AUTO 30017G27KT 280V350 CAVOK 12/M02 Q1024 NOSIG
2026-04-06 16:20:00,METAR EDDB 061620Z AUTO 29016KT CAVOK 12/M02 Q1024 TEMPO 29020G30KT
2026-04-06 15:50:00,METAR EDDB 061550Z AUTO 28019KT 260V320 CAVOK 12/M02 Q1024 TEMPO 29020G30KT
2026-04-06 14:50:00,METAR EDDB 061450Z AUTO 28022KT CAVOK 13/M01 Q1023 TEMPO 29020G30KT
2026-04-06 14:20:00,METAR EDDB 061420Z AUTO 30017KT CAVOK 13/M01 Q1023 TEMPO 30020G35KT
2026-04-06 13:50:00,METAR EDDB 061350Z AUTO 29017KT 240V330 CAVOK 13/M01 Q1024 TEMPO 29020G35KT
2026-04-06 13:20:00,METAR EDDB 061320Z AUTO 28022KT CAVOK 12/M01 Q1024 TEMPO 28020G35KT
2026-04-06 12:50:00,METAR EDDB 061250Z AUTO 27021KT 240V300 CAVOK 13/00 Q1024 TEMPO 28020G35KT
2026-04-06 12:20:00,METAR EDDB 061220Z AUTO 28019KT 250V310 CAVOK 12/M01 Q1024 TEMPO 28020G35KT
2026-04-06 11:50:00,METAR EDDB 061150Z AUTO 28018KT CAVOK 12/M01 Q1024 TEMPO 26020G30KT
2026-04-06 11:20:00,METAR EDDB 061120Z AUTO 28019KT CAVOK 12/M01 Q1024 TEMPO 26020G30KT
2026-04-06 10:50:00,METAR EDDB 061050Z AUTO 28019KT 250V310 9999 SCT049 11/00 Q1024 TEMPO 26020G30KT
2026-04-06 10:20:00,METAR EDDB 061020Z AUTO 28019G29KT 9999 SCT047 11/00 Q1024 TEMPO 26020G30KT
2026-04-06 09:50:00,METAR EDDB 060950Z AUTO 28017KT 9999 SCT046 10/00 Q1024 TEMPO 26020G30KT
2026-04-06 09:20:00,METAR EDDB 060920Z AUTO 28022KT 9999 SCT043 10/M00 Q1024 TEMPO 26020G30KT
2026-04-06 08:50:00,METAR EDDB 060850Z AUTO 28021KT 9999 SCT036 BKN045 10/00 Q1024 TEMPO 26020G30KT
2026-04-06 08:20:00,METAR EDDB 060820Z AUTO 28019KT 250V320 9999 BKN034 BKN042 09/02 Q1023 TEMPO 26020G30KT
2026-04-06 07:50:00,METAR EDDB 060750Z AUTO 29019KT 9999 SCT032 08/01 Q1023 TEMPO 26020G30KT
2026-04-06 07:20:00,METAR EDDB 060720Z AUTO 27020KT 240V300 9999 FEW029 08/02 Q1023 TEMPO 26020G30KT
2026-04-06 06:50:00,METAR EDDB 060650Z AUTO 28017KT 9999 FEW028 08/02 Q1023 TEMPO 26020G30KT
2026-04-06 06:20:00,METAR EDDB 060620Z AUTO 27017KT 9999 FEW026 07/02 Q1022 NOSIG
2026-04-06 05:50:00,METAR EDDB 060550Z AUTO 26015KT CAVOK 06/02 Q1022 NOSIG
2026-04-06 05:20:00,METAR EDDB 060520Z AUTO 26013KT 9999 FEW038 06/02 Q1022 NOSIG
2026-04-06 04:50:00,METAR EDDB 060450Z AUTO 26012KT CAVOK 05/01 Q1021 NOSIG
2026-04-06 04:20:00,METAR EDDB 060420Z AUTO 26013KT CAVOK 05/02 Q1021 NOSIG
2026-04-06 03:50:00,METAR EDDB 060350Z AUTO 26013KT CAVOK 06/02 Q1021 NOSIG
2026-04-06 03:20:00,METAR EDDB 060320Z AUTO 26013KT 9999 FEW026 06/02 Q1020 NOSIG
2026-04-06 02:50:00,METAR EDDB 060250Z AUTO 27013KT CAVOK 06/03 Q1020 NOSIG
2026-04-06 02:20:00,METAR EDDB 060220Z AUTO 27016KT 9999 FEW022 06/03 Q1020 NOSIG
2026-04-06 01:50:00,METAR EDDB 060150Z AUTO 27015KT 9999 FEW021 07/04 Q1020 NOSIG
2026-04-06 01:20:00,METAR EDDB 060120Z AUTO 28013KT CAVOK 07/03 Q1019 NOSIG
2026-04-06 00:50:00,METAR EDDB 060050Z AUTO 27015KT CAVOK 07/04 Q1018 NOSIG
2026-04-06 00:20:00,METAR EDDB 060020Z AUTO 27015KT CAVOK 07/04 Q1018 NOSIG
2026-04-05 23:50:00,METAR EDDB 052350Z AUTO 27013KT CAVOK 08/05 Q1018 NOSIG
2026-04-05 23:20:00,METAR EDDB 052320Z AUTO 25009KT 9999 FEW037 06/05 Q1017 NOSIG
2026-04-05 22:50:00,METAR EDDB 052250Z AUTO 28008KT 9999 FEW039 SCT047 07/05 Q1017 NOSIG
2026-04-05 22:20:00,METAR EDDB 052220Z AUTO 31015G26KT 9999 -SHRA FEW020 BKN027 BKN035 FEW///TCU 08/05 Q1017 RESHRA TEMPO 28015KT RA
2026-04-05 21:50:00,METAR EDDB 052150Z AUTO 25012KT 9999 VCSH FEW///TCU 10/04 Q1016 TEMPO 28020G35KT RA
2026-04-05 21:20:00,METAR EDDB 052120Z AUTO 25010KT CAVOK 08/03 Q1016 TEMPO 28015G25KT RA
2026-04-05 20:50:00,METAR EDDB 052050Z AUTO 26010KT CAVOK 09/03 Q1016 TEMPO FM2130 RA
2026-04-05 20:20:00,METAR EDDB 052020Z AUTO 26010KT CAVOK 09/04 Q1015 NOSIG
2026-04-05 19:50:00,METAR EDDB 051950Z AUTO 26012KT CAVOK 10/04 Q1015 NOSIG
2026-04-05 19:20:00,METAR EDDB 051920Z AUTO 25013KT CAVOK 11/04 Q1015 NOSIG
2026-04-05 18:50:00,METAR EDDB 051850Z AUTO 27015KT CAVOK 12/04 Q1015 NOSIG
2026-04-05 18:20:00,METAR EDDB 051820Z AUTO 27015KT 9999 -RA NSC 12/04 Q1015 TEMPO 27015G25KT
2026-04-05 17:50:00,METAR EDDB 051750Z AUTO 27017KT CAVOK 12/04 Q1014 TEMPO 27015G25KT
2026-04-05 17:20:00,METAR EDDB 051720Z AUTO 28019G30KT CAVOK 12/04 Q1014 BECMG 27014KT
2026-04-05 16:50:00,METAR EDDB 051650Z AUTO 29018KT CAVOK 13/05 Q1014 TEMPO 28020G30KT SHRA SCT040TCU
2026-04-05 16:20:00,METAR EDDB 051620Z AUTO 28022KT 9999 SCT045 14/05 Q1013 TEMPO 28020G30KT SHRA SCT040TCU
2026-04-05 15:50:00,METAR EDDB 051550Z AUTO 28018KT CAVOK 15/06 Q1013 TEMPO 28020G30KT SHRA SCT040TCU
2026-04-05 15:20:00,METAR EDDB 051520Z AUTO 28021G32KT 9999 -RADZ FEW040 14/06 Q1013 TEMPO SHRA SCT040TCU
2026-04-05 14:50:00,METAR EDDB 051450Z AUTO 29017KT 9999 -RA FEW043 14/07 Q1013 TEMPO 27020G30KT SHRA SCT040TCU
2026-04-05 14:20:00,METAR EDDB 051420Z AUTO 29018G28KT 270V340 9999 -SHRA FEW///TCU 16/07 Q1012 TEMPO 27020G30KT SHRA SCT040TCU
2026-04-05 12:50:00,METAR EDDB 051250Z AUTO 26018KT 9999 VCSH FEW///TCU 18/07 Q1011 TEMPO 26020G35KT
2026-04-05 12:20:00,METAR EDDB 051220Z AUTO 25018KT CAVOK 18/08 Q1011 TEMPO 25020G35KT
2026-04-05 11:50:00,METAR EDDB 051150Z AUTO 26019KT 9999 SCT042 17/08 Q1011 TEMPO 25020G35KT
2026-04-05 11:20:00,METAR EDDB 051120Z AUTO 25018KT 9999 SCT041 BKN047 17/09 Q1011 TEMPO 25020G35KT
2026-04-05 10:50:00,METAR EDDB 051050Z AUTO 25019KT 9999 SCT038 SCT045 17/09 Q1011 TEMPO 25020G35KT
2026-04-05 10:20:00,METAR EDDB 051020Z AUTO 24019KT 9999 BKN038 17/09 Q1011 TEMPO 25020G30KT
2026-04-05 09:50:00,METAR EDDB 050950Z AUTO 24020KT 9999 FEW036 17/09 Q1011 TEMPO 25020G30KT
2026-04-05 09:20:00,METAR EDDB 050920Z AUTO 24019KT CAVOK 17/09 Q1011 TEMPO 25020G30KT
2026-04-05 08:50:00,METAR EDDB 050850Z AUTO 23018KT CAVOK 17/09 Q1011 TEMPO 25015G30KT
2026-04-05 08:20:00,METAR EDDB 050820Z AUTO 23019KT CAVOK 16/09 Q1011 TEMPO 23015G30KT
2026-04-05 07:50:00,METAR EDDB 050750Z AUTO 22018KT CAVOK 15/09 Q1011 TEMPO 23015G30KT
2026-04-05 07:20:00,METAR EDDB 050720Z AUTO 22018KT CAVOK 14/09 Q1011 TEMPO 23015G30KT
2026-04-05 06:50:00,METAR EDDB 050650Z AUTO 21014KT CAVOK 13/09 Q1011 BECMG 25015G25KT
2026-04-05 06:20:00,METAR EDDB 050620Z AUTO 20010KT CAVOK 12/09 Q1012 BECMG 25015G25KT
2026-04-05 05:50:00,METAR EDDB 050550Z AUTO 19010KT CAVOK 10/08 Q1012 NOSIG
2026-04-05 05:20:00,METAR EDDB 050520Z AUTO 18009KT CAVOK 09/07 Q1012 NOSIG
2026-04-05 04:50:00,METAR EDDB 050450Z AUTO 17008KT CAVOK 09/07 Q1013 NOSIG
2026-04-05 04:20:00,METAR EDDB 050420Z AUTO 17009KT CAVOK 08/07 Q1013 NOSIG
2026-04-05 03:50:00,METAR EDDB 050350Z AUTO 18009KT CAVOK 09/07 Q1013 NOSIG
2026-04-05 03:20:00,METAR EDDB 050320Z AUTO 17009KT CAVOK 08/06 Q1014 NOSIG
2026-04-05 02:50:00,METAR EDDB 050250Z AUTO 17009KT CAVOK 08/06 Q1014 NOSIG
2026-04-05 02:20:00,METAR EDDB 050220Z AUTO 17008KT CAVOK 08/05 Q1015 NOSIG
2026-04-05 01:50:00,METAR EDDB 050150Z AUTO 18008KT 9999 FEW039 BKN047 08/05 Q1015 NOSIG
2026-04-05 01:20:00,METAR EDDB 050120Z AUTO 19007KT 9999 FEW039 BKN048 08/03 Q1015 NOSIG
2026-04-05 00:50:00,METAR EDDB 050050Z AUTO 18006KT 9999 SCT048 08/03 Q1016 NOSIG
2026-04-05 00:20:00,METAR EDDB 050020Z AUTO 16008KT CAVOK 08/02 Q1016 NOSIG
2026-04-04 23:50:00,METAR EDDB 042350Z AUTO 17007KT CAVOK 08/02 Q1017 NOSIG
2026-04-04 23:20:00,METAR EDDB 042320Z AUTO 18007KT CAVOK 09/02 Q1017 NOSIG
2026-04-04 22:50:00,METAR EDDB 042250Z AUTO 18008KT CAVOK 08/02 Q1017 NOSIG
2026-04-04 22:20:00,METAR EDDB 042220Z AUTO 18005KT CAVOK 08/02 Q1017 NOSIG
2026-04-04 21:50:00,METAR EDDB 042150Z AUTO 19005KT CAVOK 07/01 Q1018 NOSIG
2026-04-04 21:20:00,METAR EDDB 042120Z AUTO 18008KT CAVOK 08/01 Q1018 NOSIG
2026-04-04 20:50:00,METAR EDDB 042050Z AUTO 18005KT CAVOK 08/00 Q1018 NOSIG
2026-04-04 20:20:00,METAR EDDB 042020Z AUTO 20004KT CAVOK 08/00 Q1018 NOSIG
2026-04-04 19:50:00,METAR EDDB 041950Z AUTO 23005KT CAVOK 08/M00 Q1018 NOSIG
2026-04-04 19:20:00,METAR EDDB 041920Z AUTO 25005KT CAVOK 08/M00 Q1018 NOSIG
2026-04-04 18:50:00,METAR EDDB 041850Z AUTO 25006KT CAVOK 09/M00 Q1018 NOSIG
2026-04-04 18:20:00,METAR EDDB 041820Z AUTO 27006KT CAVOK 10/01 Q1018 NOSIG
2026-04-04 17:50:00,METAR EDDB 041750Z AUTO 28007KT CAVOK 12/00 Q1018 NOSIG
2026-04-04 17:20:00,METAR EDDB 041720Z AUTO 29010KT CAVOK 13/M00 Q1018 NOSIG
2026-04-04 16:50:00,METAR EDDB 041650Z AUTO 28012KT CAVOK 14/M00 Q1018 NOSIG
2026-04-04 16:20:00,METAR EDDB 041620Z AUTO 29013KT 260V320 CAVOK 14/M01 Q1018 NOSIG
2026-04-04 15:50:00,METAR EDDB 041550Z AUTO 29016KT 270V330 CAVOK 15/00 Q1017 NOSIG
2026-04-04 15:20:00,METAR EDDB 041520Z AUTO 29017KT CAVOK 15/M00 Q1017 TEMPO 29015G25KT
2026-04-04 14:50:00,METAR EDDB 041450Z AUTO 29017KT 270V330 CAVOK 15/M00 Q1017 TEMPO 29015G25KT
2026-04-04 14:20:00,METAR EDDB 041420Z AUTO 30017KT CAVOK 15/00 Q1017 TEMPO 29015G25KT
2026-04-04 13:50:00,METAR EDDB 041350Z AUTO 28020KT CAVOK 15/M01 Q1017 TEMPO 29020G30KT
2026-04-04 13:20:00,METAR EDDB 041320Z AUTO 28019G29KT 250V310 CAVOK 15/M01 Q1017 NOSIG
2026-04-04 12:50:00,METAR EDDB 041250Z AUTO 28018KT CAVOK 15/M01 Q1017 TEMPO 29020G30KT
2026-04-04 12:20:00,METAR EDDB 041220Z AUTO 28020KT CAVOK 14/M00 Q1017 TEMPO 29020G30KT
2026-04-04 11:50:00,METAR EDDB 041150Z AUTO 29018KT CAVOK 14/01 Q1017 TEMPO 29020G30KT
2026-04-04 11:20:00,METAR EDDB 041120Z AUTO 29018KT 250V320 9999 FEW046 14/02 Q1016 TEMPO 30020G30KT
2026-04-04 10:50:00,METAR EDDB 041050Z AUTO 29017KT 260V320 9999 FEW045 14/01 Q1016 TEMPO 30020G30KT
2026-04-04 10:20:00,METAR EDDB 041020Z AUTO 29018KT 9999 SCT042 14/04 Q1016
2026-04-04 09:50:00,METAR EDDB 040950Z AUTO 28019KT 9999 SCT032 BKN045 14/05 Q1015 TEMPO 30020G30KT
2026-04-04 09:20:00,METAR EDDB 040920Z AUTO 28020KT 9999 FEW025 SCT038 14/06 Q1015 TEMPO 30015G25KT
2026-04-04 08:50:00,METAR EDDB 040850Z AUTO 28012KT 240V300 9999 FEW017 SCT024 14/09 Q1014 TEMPO 30015G25KT
2026-04-04 08:20:00,METAR EDDB 040820Z AUTO 28014KT 9999 FEW018 12/09 Q1014 TEMPO 30015G25KT
2026-04-04 07:50:00,METAR EDDB 040750Z AUTO 26012KT 9999 FEW013 11/09 Q1014 TEMPO 30015G25KT
2026-04-04 07:20:00,METAR EDDB 040720Z AUTO 25011KT 9999 FEW029 SCT046 11/09 Q1013 TEMPO 30015G25KT
2026-04-04 06:50:00,METAR EDDB 040650Z AUTO 25008KT 9999 -RA FEW014 BKN040 10/09 Q1013 TEMPO 30015G25KT
2026-04-04 06:20:00,METAR EDDB 040620Z AUTO 33011KT 270V360 9999 -SHRA BKN020 BKN025 FEW///TCU 10/08 Q1013 TEMPO 30015G25KT BKN014
2026-04-04 05:50:00,METAR EDDB 040550Z AUTO 24011KT 9999 SCT022 BKN031 BKN041 10/07 Q1012 TEMPO BKN014
2026-04-04 05:20:00,METAR EDDB 040520Z AUTO 25010KT 9999 -SHRA SCT023 SCT030 BKN044 FEW///TCU 10/07 Q1011 TEMPO BKN014
2026-04-04 04:50:00,METAR EDDB 040450Z AUTO 24011KT 9999 -RADZ BKN022 BKN038 10/06 Q1011 TEMPO BKN014
2026-04-04 04:20:00,METAR EDDB 040420Z AUTO 23012KT 9999 OVC024 10/05 Q1011 NOSIG
2026-04-04 03:50:00,METAR EDDB 040350Z AUTO 23012KT 9999 BKN026 BKN047 10/05 Q1011 NOSIG
2026-04-04 03:20:00,METAR EDDB 040320Z AUTO 23010KT 9999 BKN027 OVC046 10/05 Q1011 NOSIG
2026-04-04 02:50:00,METAR EDDB 040250Z AUTO 23010KT 9999 -RA BKN028 10/04 Q1011 NOSIG
2026-04-04 02:20:00,METAR EDDB 040220Z AUTO 23012KT 9999 -RADZ BKN036 OVC042 10/04 Q1011 NOSIG
2026-04-04 01:50:00,METAR EDDB 040150Z AUTO 23011KT 9999 BKN034 OVC044 10/03 Q1011 NOSIG
2026-04-04 01:20:00,METAR EDDB 040120Z AUTO 23011KT 9999 BKN037 OVC044 10/03 Q1011 NOSIG
2026-04-04 00:50:00,METAR EDDB 040050Z AUTO 23011KT 9999 BKN039 OVC048 10/03 Q1011 NOSIG
2026-04-04 00:20:00,METAR EDDB 040020Z AUTO 22009KT 9999 SCT048 10/03 Q1011 NOSIG
2026-04-03 23:50:00,METAR EDDB 032350Z AUTO 20007KT CAVOK 09/04 Q1012 NOSIG
2026-04-03 23:20:00,METAR EDDB 032320Z AUTO 20008KT CAVOK 08/04 Q1012 NOSIG
2026-04-03 22:50:00,METAR EDDB 032250Z AUTO 20009KT CAVOK 08/04 Q1012 NOSIG
2026-04-03 22:20:00,METAR EDDB 032220Z AUTO 19008KT CAVOK 08/03 Q1012 NOSIG
2026-04-03 21:50:00,METAR EDDB 032150Z AUTO 19007KT CAVOK 07/03 Q1012 NOSIG
2026-04-03 21:20:00,METAR EDDB 032120Z AUTO 17006KT CAVOK 07/02 Q1012 NOSIG
2026-04-03 20:50:00,METAR EDDB 032050Z AUTO 17007KT CAVOK 08/02 Q1013 NOSIG
2026-04-03 20:20:00,METAR EDDB 032020Z AUTO 17006KT CAVOK 08/02 Q1013 NOSIG
2026-04-03 19:50:00,METAR EDDB 031950Z AUTO 17005KT CAVOK 08/01 Q1013 NOSIG
2026-04-03 19:20:00,METAR EDDB 031920Z AUTO 18005KT CAVOK 09/01 Q1014 NOSIG
2026-04-03 18:50:00,METAR EDDB 031850Z AUTO 18005KT CAVOK 08/02 Q1014 NOSIG
2026-04-03 18:20:00,METAR EDDB 031820Z AUTO 21004KT CAVOK 09/01 Q1014 NOSIG
2026-04-03 17:50:00,METAR EDDB 031750Z AUTO 24005KT CAVOK 08/01 Q1014 NOSIG
2026-04-03 17:20:00,METAR EDDB 031720Z AUTO 26006KT CAVOK 09/01 Q1014 NOSIG
2026-04-03 16:50:00,METAR EDDB 031650Z AUTO 25008KT CAVOK 09/01 Q1014 NOSIG
2026-04-03 16:20:00,METAR EDDB 031620Z AUTO 25009KT CAVOK 10/01 Q1014 NOSIG
2026-04-03 15:50:00,METAR EDDB 031550Z AUTO 24010KT 210V270 CAVOK 10/00 Q1014 NOSIG
2026-04-03 15:20:00,METAR EDDB 031520Z AUTO 22011KT 9999 FEW043 10/00 Q1015 NOSIG
2026-04-03 14:50:00,METAR EDDB 031450Z AUTO 25008KT 200V280 9999 FEW041 10/00 Q1015 NOSIG
2026-04-03 14:20:00,METAR EDDB 031420Z AUTO 28006KT 240V340 9999 BKN040 09/01 Q1015 NOSIG
2026-04-03 13:50:00,METAR EDDB 031350Z AUTO 25007KT 210V290 9999 BKN039 09/00 Q1016 NOSIG
2026-04-03 13:20:00,METAR EDDB 031320Z AUTO 24008KT 210V290 9999 OVC038 09/00 Q1016 NOSIG
2026-04-03 12:50:00,METAR EDDB 031250Z AUTO 25011KT 220V300 9999 BKN039 09/00 Q1016 NOSIG
2026-04-03 12:20:00,METAR EDDB 031220Z AUTO 29009KT 9999 OVC038 08/00 Q1016 NOSIG
2026-04-03 11:50:00,METAR EDDB 031150Z AUTO 27011KT 9999 OVC037 08/M00 Q1017 NOSIG
2026-04-03 11:20:00,METAR EDDB 031120Z AUTO 26011KT 9999 OVC037 08/M01 Q1017 NOSIG
2026-04-03 10:50:00,METAR EDDB 031050Z AUTO 26011KT 9999 OVC038 08/M00 Q1017 NOSIG
2026-04-03 10:20:00,METAR EDDB 031020Z AUTO 28009KT 240V320 9999 BKN038 08/M01 Q1017 NOSIG
2026-04-03 09:50:00,METAR EDDB 030950Z AUTO 28009KT 250V310 9999 BKN036 08/M01 Q1017 NOSIG
2026-04-03 09:20:00,METAR EDDB 030920Z AUTO 30010KT 260V330 9999 SCT035 07/M01 Q1017 NOSIG
2026-04-03 08:50:00,METAR EDDB 030850Z AUTO 28009G19KT 240V320 9999 SCT034 08/M01 Q1017 NOSIG
2026-04-03 08:20:00,METAR EDDB 030820Z AUTO 30008KT 270V350 9999 FEW032 08/M00 Q1017 NOSIG
2026-04-03 07:50:00,METAR EDDB 030750Z AUTO 31008KT 280V340 CAVOK 07/M00 Q1016 NOSIG
2026-04-03 07:20:00,METAR EDDB 030720Z AUTO 33009KT 290V010 CAVOK 06/M00 Q1016 NOSIG
2026-04-03 06:50:00,METAR EDDB 030650Z AUTO 32010KT 290V350 9999 FEW018 BKN030 05/00 Q1016 NOSIG
2026-04-03 06:20:00,METAR EDDB 030620Z AUTO 32010KT 9999 FEW021 BKN029 06/01 Q1016 NOSIG
2026-04-03 05:50:00,METAR EDDB 030550Z AUTO 32008KT 280V360 9999 BKN017 05/02 Q1015 NOSIG
2026-04-03 05:20:00,METAR EDDB 030520Z AUTO 31011KT 280V350 9999 BKN011 05/03 Q1015 NOSIG
2026-04-03 04:50:00,METAR EDDB 030450Z AUTO 30009KT 9999 FEW015 BKN021 BKN042 06/03 Q1015 NOSIG
2026-04-03 04:20:00,METAR EDDB 030420Z COR AUTO 29012KT 9999 BKN018 07/04 Q1014 NOSIG
2026-04-03 03:50:00,METAR EDDB 030350Z AUTO 30012KT 270V330 9999 BKN012 OVC017 07/05 Q1014 BECMG SCT020
2026-04-03 03:20:00,METAR EDDB 030320Z AUTO 30010KT 270V330 9999 OVC016 08/05 Q1014 TEMPO BKN014
2026-04-03 02:50:00,METAR EDDB 030250Z AUTO 29007KT 9999 BKN019 BKN029 08/05 Q1014 TEMPO BKN014
2026-04-03 02:20:00,METAR EDDB 030220Z AUTO 30007KT 9999 FEW017 07/04 Q1014 TEMPO BKN014
2026-04-03 01:50:00,METAR EDDB 030150Z AUTO 27006KT 9999 FEW028 BKN046 07/04 Q1013 TEMPO BKN014
2026-04-03 01:20:00,METAR EDDB 030120Z AUTO 28005KT 9999 FEW028 08/04 Q1013 TEMPO BKN014
2026-04-03 00:50:00,METAR EDDB 030050Z AUTO 27007KT 9999 BKN032 08/04 Q1013 TEMPO BKN014
2026-04-03 00:20:00,METAR EDDB 030020Z AUTO 28007KT 9999 SCT027 BKN031 BKN039 08/03 Q1013 TEMPO BKN014
2026-04-02 23:50:00,METAR EDDB 022350Z AUTO 26007KT 9999 FEW028 07/03 Q1014 NOSIG
2026-04-02 23:20:00,METAR EDDB 022320Z AUTO 26006KT CAVOK 07/02 Q1013 NOSIG
2026-04-02 22:50:00,METAR EDDB 022250Z AUTO 26007KT CAVOK 07/02 Q1013 NOSIG
2026-04-02 22:20:00,METAR EDDB 022220Z AUTO 23007KT CAVOK 08/02 Q1013 NOSIG
2026-04-02 21:50:00,METAR EDDB 022150Z AUTO 22007KT CAVOK 07/02 Q1014 NOSIG
2026-04-02 21:20:00,METAR EDDB 022120Z AUTO 20005KT CAVOK 07/02 Q1014 NOSIG
2026-04-02 20:50:00,METAR EDDB 022050Z AUTO 19005KT CAVOK 08/01 Q1014 NOSIG
2026-04-02 20:20:00,METAR EDDB 022020Z AUTO 19005KT CAVOK 08/01 Q1014 NOSIG
2026-04-02 19:50:00,METAR EDDB 021950Z AUTO 18005KT CAVOK 08/01 Q1014 NOSIG
2026-04-02 19:20:00,METAR EDDB 021920Z AUTO 17004KT CAVOK 08/01 Q1014 NOSIG
2026-04-02 18:50:00,METAR EDDB 021850Z AUTO 23003KT CAVOK 08/00 Q1014 NOSIG
2026-04-02 18:20:00,METAR EDDB 021820Z AUTO 26002KT CAVOK 10/01 Q1014 NOSIG
2026-04-02 17:50:00,METAR EDDB 021750Z AUTO 29004KT CAVOK 10/00 Q1014 NOSIG
2026-04-02 17:20:00,METAR EDDB 021720Z AUTO 31004KT CAVOK 11/01 Q1013 NOSIG
2026-04-02 16:50:00,METAR EDDB 021650Z AUTO 30006KT CAVOK 12/01 Q1013 NOSIG
2026-04-02 16:20:00,METAR EDDB 021620Z AUTO 29007KT 270V330 CAVOK 12/01 Q1013 NOSIG
2026-04-02 15:50:00,METAR EDDB 021550Z AUTO 31007KT 270V340 CAVOK 12/01 Q1013 NOSIG
2026-04-02 15:20:00,METAR EDDB 021520Z AUTO 29007KT 240V320 CAVOK 13/01 Q1013 NOSIG
2026-04-02 14:50:00,METAR EDDB 021450Z AUTO 30010KT 260V330 CAVOK 13/02 Q1013 NOSIG
2026-04-02 14:20:00,METAR EDDB 021420Z AUTO 25007KT 210V290 CAVOK 13/01 Q1014 NOSIG
2026-04-02 13:50:00,METAR EDDB 021350Z AUTO 24010KT 210V270 9999 SCT049 13/01 Q1014 NOSIG
2026-04-02 13:20:00,METAR EDDB 021320Z AUTO 28005KT 200V330 9999 FEW049 12/01 Q1015 NOSIG
2026-04-02 12:50:00,METAR EDDB 021250Z AUTO 27010KT 240V320 9999 FEW048 12/01 Q1015 NOSIG
2026-04-02 12:20:00,METAR EDDB 021220Z AUTO 32003KT 9999 FEW045 12/01 Q1015 NOSIG
2026-04-02 11:50:00,METAR EDDB 021150Z AUTO VRB05KT 9999 SCT042 12/02 Q1015 NOSIG
2026-04-02 11:20:00,METAR EDDB 021120Z AUTO 22007KT 180V250 9999 FEW039 12/01 Q1016 NOSIG
2026-04-02 10:50:00,METAR EDDB 021050Z AUTO 26007KT 170V330 9999 SCT037 12/03 Q1016 NOSIG
2026-04-02 10:20:00,METAR EDDB 021020Z AUTO 26008KT 190V290 9999 FEW034 11/02 Q1017 NOSIG
2026-04-02 09:50:00,METAR EDDB 020950Z AUTO 23008KT 200V270 9999 FEW030 09/02 Q1017 NOSIG
2026-04-02 09:20:00,METAR EDDB 020920Z AUTO 20007KT 170V240 CAVOK 09/03 Q1017 NOSIG
2026-04-02 08:50:00,METAR EDDB 020850Z AUTO 20006KT 160V230 CAVOK 09/03 Q1017 NOSIG
2026-04-02 08:20:00,METAR EDDB 020820Z AUTO 19004KT 140V230 CAVOK 07/04 Q1017 NOSIG
2026-04-02 07:50:00,METAR EDDB 020750Z AUTO 18004KT 140V210 9999 FEW001 05/03 Q1018 NOSIG
2026-04-02 07:20:00,METAR EDDB 020720Z AUTO 18003KT 150V230 9000 0550 R24R/P2000N R24L/0900U BCFG SCT001 03/02 Q1018 BECMG CAVOK
2026-04-02 06:50:00,METAR EDDB 020650Z AUTO VRB02KT 2200 0300 R24R/P2000N R24L/0650U BCFG VV004 01/00 Q1018 BECMG CAVOK
2026-04-02 06:20:00,METAR EDDB 020620Z AUTO 17003KT 0500 0250 R24R/1500D R24L/0400N FZFG VV002 M00/M00 Q1018 BECMG CAVOK
2026-04-02 05:50:00,METAR EDDB 020550Z AUTO VRB02KT 0300 0250 R24R/P2000N R24L/0400N FZFG VV004 M01/M02 Q1018 BECMG 3000 BR NSC
2026-04-02 05:20:00,METAR EDDB 020520Z AUTO VRB01KT 0650 0300 R24R/1600U R24L/0600U FZFG VV003 M02/M02 Q1018 BECMG 3000 BR NSC
2026-04-02 04:50:00,METAR EDDB 020450Z AUTO 23001KT 0400 0250 R24R/0275D R24L/0650N FZFG VV003 M02/M02 Q1018 TEMPO BKN001
2026-04-02 04:20:00,METAR EDDB 020420Z AUTO VRB01KT 0650 0300 R24R/0900U R24L/1200D FZFG VV003 M02/M02 Q1018 TEMPO BKN001
2026-04-02 03:50:00,METAR EDDB 020350Z AUTO VRB01KT 0500 0350 R24R/0700D R24L/0900N FZFG VV007 M02/M02 Q1018 TEMPO BKN001
2026-04-02 03:20:00,METAR EDDB 020320Z AUTO VRB01KT 0900 0550 R24R/0800U R24L/1300D FZFG VV007 M02/M02 Q1018 TEMPO BKN001
2026-04-02 02:50:00,METAR EDDB 020250Z AUTO 24003KT 0700 0350 R24R/0400D R24L/0700U FZFG FEW000 M01/M02 Q1019 TEMPO 1200 BCFG
2026-04-02 02:20:00,METAR EDDB 020220Z AUTO 23003KT 0550 0400 R24R/0650N R24L/0600N FZFG FEW000 M00/M01 Q1019 TEMPO 1200 BCFG
2026-04-02 01:50:00,METAR EDDB 020150Z AUTO 23002KT 0800 0350 R24R/0900U R24L/1600D FZFG NCD M01/M01 Q1019 TEMPO 1200 BCFG
2026-04-02 01:20:00,METAR EDDB 020120Z AUTO 24002KT 1000 0900 R24R/P2000N R24L/1200U BCFG NCD M00/M01 Q1020 TEMPO 1500 BCFG
2026-04-02 00:50:00,METAR EDDB 020050Z AUTO 19001KT 2900 0650 R24R/P2000N R24L/1700D BCFG NCD M00/M00 Q1020 TEMPO 1200 BCFG
2026-04-02 00:20:00,METAR EDDB 020020Z AUTO VRB02KT 1400 0800 R24R/P2000N R24L/P2000N BCFG NCD M00/M00 Q1020 TEMPO 1500 BCFG
2026-04-01 23:50:00,METAR EDDB 012350Z AUTO 23003KT 3400 0650 R24R/1700D R24L/1900U BCFG NCD 01/01 Q1021 TEMPO 1200 BCFG
2026-04-01 23:20:00,METAR EDDB 012320Z AUTO 25002KT 6000 NCD 01/01 Q1021 TEMPO 1200 BCFG
2026-04-01 22:50:00,METAR EDDB 012250Z AUTO 27002KT 9999 1700 BR NCD 02/01 Q1021 NOSIG
2026-04-01 22:20:00,METAR EDDB 012220Z AUTO 25003KT CAVOK 03/02 Q1021 NOSIG
2026-04-01 21:50:00,METAR EDDB 012150Z AUTO 26003KT CAVOK 04/02 Q1022 NOSIG
2026-04-01 21:20:00,METAR EDDB 012120Z AUTO 29003KT CAVOK 04/02 Q1022 NOSIG
2026-04-01 20:50:00,METAR EDDB 012050Z AUTO 30003KT CAVOK 04/02 Q1022 NOSIG
2026-04-01 20:20:00,METAR EDDB 012020Z AUTO 30004KT CAVOK 05/02 Q1022 NOSIG
2026-04-01 19:50:00,METAR EDDB 011950Z AUTO 31005KT CAVOK 06/02 Q1022 NOSIG
2026-04-01 19:20:00,METAR EDDB 011920Z AUTO 29005KT CAVOK 06/02 Q1022 NOSIG
2026-04-01 18:50:00,METAR EDDB 011850Z AUTO 30006KT CAVOK 06/02 Q1023 NOSIG
2026-04-01 18:20:00,METAR EDDB 011820Z AUTO 29007KT CAVOK 07/03 Q1023 NOSIG
2026-04-01 17:50:00,METAR EDDB 011750Z AUTO 29006KT CAVOK 08/03 Q1022 NOSIG
2026-04-01 17:20:00,METAR EDDB 011720Z AUTO 28007KT CAVOK 09/03 Q1022 NOSIG
2026-04-01 16:50:00,METAR EDDB 011650Z AUTO 27007KT CAVOK 10/03 Q1023 NOSIG
2026-04-01 16:20:00,METAR EDDB 011620Z AUTO 27007KT 9999 FEW035 11/04 Q1023 NOSIG
2026-04-01 15:50:00,METAR EDDB 011550Z AUTO 26006KT 9999 FEW036 11/03 Q1023 NOSIG
2026-04-01 15:20:00,METAR EDDB 011520Z AUTO 25006KT 230V300 9999 SCT038 11/03 Q1023 NOSIG
2026-04-01 14:50:00,METAR EDDB 011450Z AUTO 25006KT 9999 FEW039 12/02 Q1023 NOSIG
2026-04-01 13:50:00,METAR EDDB 011350Z AUTO 24004KT 150V310 CAVOK 11/02 Q1024 NOSIG
2026-04-01 13:20:00,METAR EDDB 011320Z AUTO VRB03KT 9999 FEW038 11/02 Q1025 NOSIG
2026-04-01 12:50:00,METAR EDDB 011250Z AUTO VRB03KT 9999 FEW036 11/02 Q1025 NOSIG
2026-04-01 12:20:00,METAR EDDB 011220Z AUTO VRB04KT 9999 FEW032 10/03 Q1025 NOSIG
2026-04-01 11:50:00,METAR EDDB 011150Z AUTO VRB04KT 9999 SCT028 10/03 Q1026 NOSIG
2026-04-01 11:20:00,METAR EDDB 011120Z AUTO 25004KT 210V310 9999 FEW021 10/03 Q1026 NOSIG
2026-04-01 10:50:00,METAR EDDB 011050Z COR AUTO VRB03KT 9999 FEW009 09/05 Q1026 NOSIG
2026-04-01 10:20:00,METAR EDDB 011020Z AUTO 20004KT 170V240 9999 BKN005 07/05 Q1026 BECMG SCT010
2026-04-01 09:50:00,METAR EDDB 010950Z AUTO 19004KT 130V230 9999 BKN003 05/05 Q1027 BECMG SCT005
2026-04-01 09:20:00,METAR EDDB 010920Z AUTO 21004KT 170V240 1100 0550 R24R/1100U R24L/1200N BCFG OVC001 04/04 Q1027 BECMG 1500 BR BKN003
2026-04-01 08:50:00,METAR EDDB 010850Z AUTO 19003KT 160V220 0300 0250 R24R/0450N R24L/0375N FG VV003 03/03 Q1027 BECMG 0600 FG
2026-04-01 08:20:00,METAR EDDB 010820Z AUTO VRB02KT 0250 0200 R24R/0350N R24L/0325N FG VV002 03/03 Q1027 BECMG 0600 FG
2026-04-01 07:50:00,METAR EDDB 010750Z AUTO 24001KT 0200 0150 R24R/0275N R24L/0325N FG VV002 02/02 Q1026 BECMG 0600 FG
2026-04-01 07:20:00,METAR EDDB 010720Z AUTO VRB02KT 0200 0150 R24R/0200N R24L/0325N FG VV002 01/01 Q1026 BECMG 0600 FG
2026-04-01 06:50:00,METAR EDDB 010650Z AUTO VRB02KT 0250 0150 R24R/0325N R24L/0300N FG VV002 01/01 Q1026 NOSIG
2026-04-01 06:20:00,METAR EDDB 010620Z AUTO 26003KT 0300 0250 R24R/0300N R24L/0450N FZFG VV003 M00/M00 Q1026 NOSIG
2026-04-01 05:50:00,METAR EDDB 010550Z AUTO 17004KT 0250 0200 R24R/0325N R24L/0450N FZFG VV003 M00/M00 Q1026 NOSIG
2026-04-01 05:20:00,METAR EDDB 010520Z AUTO 16003KT 0350 0300 R24R/0550N R24L/0400D FZFG VV003 M01/M01 Q1026 NOSIG
2026-04-01 04:50:00,METAR EDDB 010450Z AUTO VRB01KT 0450 0400 R24R/0700N R24L/0650N FZFG VV003 M01/M01 Q1025 NOSIG
2026-04-01 04:20:00,METAR EDDB 010420Z AUTO 22003KT 0500 0400 R24R/0600N R24L/0600N FZFG VV003 M01/M01 Q1025 NOSIG
2026-04-01 03:50:00,METAR EDDB 010350Z AUTO 25004KT 0450 0400 R24R/0500N R24L/0600N FZFG VV003 M02/M02 Q1025 NOSIG
2026-04-01 03:20:00,METAR EDDB 010320Z AUTO 28002KT 0400 0300 R24R/0300N R24L/0550N FZFG VV004 M01/M01 Q1025 NOSIG
2026-04-01 02:50:00,METAR EDDB 010250Z AUTO 26002KT 0450 0300 R24R/0600N R24L/0450N FZFG VV005 M00/M00 Q1025 NOSIG
2026-04-01 02:20:00,METAR EDDB 010220Z AUTO 27002KT 0600 0350 R24R/0900U R24L/0650N FZFG VV008 M00/M00 Q1025 NOSIG
2026-04-01 01:50:00,METAR EDDB 010150Z AUTO 27003KT 0550 0400 R24R/0450N R24L/0800U FZFG NCD M01/M01 Q1025 NOSIG
2026-04-01 01:20:00,METAR EDDB 010120Z AUTO 27003KT 0450 0400 R24R/0450D R24L/0800N FZFG NCD M00/M00 Q1025
2026-04-01 00:50:00,METAR EDDB 010050Z AUTO 25004KT 0500 0450 R24R/0500D R24L/0750U FZFG NCD M00/M00 Q1025 TEMPO 0300 FZFG
2026-04-01 00:20:00,METAR EDDB 010020Z AUTO 23005KT 1000 0650 R24R/P2000N R24L/0900N BCFG NCD 01/01 Q1025 TEMPO 0500 FG
2026-03-31 23:50:00,METAR EDDB 312350Z AUTO VRB02KT 1000 0500 R24R/P2000N R24L/0700U BCFG NCD 02/02 Q1024 TEMPO 0500 FG
2026-03-31 23:20:00,METAR EDDB 312320Z AUTO VRB02KT 1000 0550 R24R/P2000N R24L/1300N BCFG NCD 01/01 Q1024 TEMPO 0500 FG
2026-03-31 22:50:00,METAR EDDB 312250Z AUTO VRB01KT 9999 2900 BR NCD 03/03 Q1024 NOSIG
2026-03-31 22:20:00,METAR EDDB 312220Z AUTO 30005KT CAVOK 03/02 Q1024 NOSIG
2026-03-31 21:50:00,METAR EDDB 312150Z AUTO 30006KT 9999 FEW035 03/03 Q1024 NOSIG
2026-03-31 21:20:00,METAR EDDB 312120Z AUTO 29005KT 9999 FEW024 SCT039 03/03 Q1024 NOSIG
2026-03-31 20:50:00,METAR EDDB 312050Z AUTO 28003KT 9999 BKN024 03/03 Q1024 TEMPO SHRA BKN030CB
2026-03-31 20:20:00,METAR EDDB 312020Z AUTO 31005KT CAVOK 04/03 Q1024 TEMPO SHRA BKN030CB
2026-03-31 19:50:00,METAR EDDB 311950Z AUTO 27005KT 9999 FEW046 05/04 Q1023 NOSIG
2026-03-31 19:20:00,METAR EDDB 311920Z AUTO 28005KT CAVOK 05/03 Q1023 NOSIG
2026-03-31 18:50:00,METAR EDDB 311850Z AUTO 29007KT 9999 VCSH FEW029 FEW///TCU 05/03 Q1023 NOSIG
2026-03-31 18:20:00,METAR EDDB 311820Z AUTO 30006KT 9999 FEW034 05/04 Q1022 NOSIG
2026-03-31 17:50:00,METAR EDDB 311750Z AUTO 27008KT CAVOK 05/04 Q1022 NOSIG
2026-03-31 17:20:00,METAR EDDB 311720Z AUTO 28007KT CAVOK 06/03 Q1022 NOSIG
2026-03-31 16:50:00,METAR EDDB 311650Z AUTO 30008KT 9999 -SHRA FEW023 BKN037 FEW///CB 07/03 Q1021 RESHRA NOSIG
2026-03-31 16:20:00,METAR EDDB 311620Z AUTO 30013KT 270V330 9999 -SHRA SCT019 BKN033 FEW///CB 07/03 Q1021 RESHRA TEMPO 29015G25KT SHRA
2026-03-31 15:50:00,METAR EDDB 311550Z AUTO 26012KT 9999 -SHRA SCT021 BKN038 FEW///CB 08/05 Q1021 TEMPO 29015G25KT SHRA
2026-03-31 15:20:00,METAR EDDB 311520Z AUTO 27013KT 9999 VCSH FEW035 SCT047 FEW///TCU 08/04 Q1021 TEMPO 29015G30KT SHRA
2026-03-31 14:50:00,METAR EDDB 311450Z AUTO 27010KT 9999 VCSH FEW018 FEW///TCU 09/04 Q1021 TEMPO FM1510 29015G30KT SHRA
2026-03-31 14:20:00,METAR EDDB 311420Z AUTO 28013KT 9999 -SHRA FEW030 FEW///CB 09/04 Q1021 TEMPO 29015G25KT SHRA
2026-03-31 13:50:00,METAR EDDB 311350Z AUTO 29010KT 260V320 9999 VCSH FEW026 SCT041 FEW///TCU 09/05 Q1021 TEMPO 29015G25KT SHRA
2026-03-31 13:20:00,METAR EDDB 311320Z AUTO 27010KT 9999 -SHRA FEW021 BKN033 BKN043 FEW///TCU 08/05 Q1021 TEMPO 29015G25KT SHRA
2026-03-31 12:50:00,METAR EDDB 311250Z AUTO 28012KT 9999 -SHRA SCT025 BKN036 FEW///CB 08/04 Q1021 TEMPO 29015G25KT SHRA
2026-03-31 12:20:00,METAR EDDB 311220Z AUTO 29012KT 9999 -RADZ FEW023 BKN033 OVC041 08/04 Q1021 TEMPO 29015G25KT TSRA
2026-03-31 11:50:00,METAR EDDB 311150Z AUTO 29013KT 9999 FEW021 BKN049 09/03 Q1022 TEMPO 29015G25KT SHRA
2026-03-31 11:20:00,METAR EDDB 311120Z AUTO 27012KT 9999 FEW023 SCT037 BKN048 08/03 Q1021 TEMPO 29015G25KT SHRA
2026-03-31 10:50:00,METAR EDDB 311050Z AUTO 28012KT 9999 VCSH FEW019 BKN040 BKN047 FEW///TCU 08/04 Q1021 RERA NOSIG
2026-03-31 10:20:00,METAR EDDB 311020Z AUTO 28012KT 9999 -RADZ FEW021 OVC036 07/03 Q1022 NOSIG
2026-03-31 09:50:00,METAR EDDB 310950Z AUTO 28012KT 260V320 9999 FEW019 OVC040 07/03 Q1022 NOSIG
2026-03-31 09:20:00,METAR EDDB 310920Z AUTO 27009KT 9999 FEW013 OVC039 07/04 Q1021 NOSIG
2026-03-31 08:50:00,METAR EDDB 310850Z AUTO 28009KT 9999 BKN012 OVC038 06/04 Q1021 BECMG BKN015
2026-03-31 08:20:00,METAR EDDB 310820Z AUTO 29009KT 9999 BKN011 OVC039 06/04 Q1021 BECMG BKN015
2026-03-31 07:50:00,METAR EDDB 310750Z AUTO 29009KT 260V320 9999 BKN010 BKN034 OVC042 05/03 Q1021 BECMG BKN015
2026-03-31 07:20:00,METAR EDDB 310720Z AUTO 29008KT 260V320 9999 BKN009 OVC039 05/03 Q1021 BECMG BKN012
2026-03-31 06:50:00,METAR EDDB 310650Z AUTO 28007KT 260V320 9999 BKN010 OVC038 04/03 Q1021 BECMG BKN015
2026-03-31 06:20:00,METAR EDDB 310620Z AUTO 29008KT 9999 OVC037 04/02 Q1021 TEMPO BKN010
2026-03-31 05:50:00,METAR EDDB 310550Z AUTO 28008KT 9999 OVC035 04/02 Q1020 NOSIG
2026-03-31 05:20:00,METAR EDDB 310520Z AUTO 28006KT 9999 BKN036 03/02 Q1020 NOSIG
2026-03-31 04:50:00,METAR EDDB 310450Z AUTO 28007KT 9999 BKN036 03/02 Q1020 NOSIG
2026-03-31 04:20:00,METAR EDDB 310420Z AUTO 29007KT 9999 BKN041 04/02 Q1019 NOSIG
2026-03-31 03:50:00,METAR EDDB 310350Z AUTO 30007KT 9999 OVC040 04/03 Q1019 NOSIG
2026-03-31 03:20:00,METAR EDDB 310320Z AUTO 30008KT 9999 OVC038 04/03 Q1019 TEMPO BKN011
2026-03-31 02:50:00,METAR EDDB 310250Z AUTO 30009KT 9999 FEW011 OVC040 04/03 Q1018 TEMPO BKN011
2026-03-31 02:20:00,METAR EDDB 310220Z AUTO 30008KT 9999 FEW011 OVC041 04/03 Q1018 TEMPO BKN011
2026-03-31 01:50:00,METAR EDDB 310150Z AUTO 30008KT 9999 FEW011 OVC043 04/03 Q1018 TEMPO BKN011
2026-03-31 01:20:00,METAR EDDB 310120Z AUTO 30008KT 9999 FEW027 BKN045 04/03 Q1018 NOSIG
2026-03-31 00:50:00,METAR EDDB 310050Z AUTO 29008KT 9999 FEW025 BKN045 04/03 Q1018 NOSIG
2026-03-31 00:20:00,METAR EDDB 310020Z AUTO 29008KT 9999 BKN029 BKN045 04/02 Q1018 NOSIG
2026-03-30 23:50:00,METAR EDDB 302350Z AUTO 29008KT 9999 FEW028 OVC040 03/02 Q1018 NOSIG
2026-03-30 23:20:00,METAR EDDB 302320Z AUTO 29008KT 9999 BKN037 02/02 Q1017 NOSIG
2026-03-30 22:50:00,METAR EDDB 302250Z AUTO 30007KT CAVOK 03/01 Q1017 NOSIG
2026-03-30 22:20:00,METAR EDDB 302220Z AUTO 28007KT CAVOK 02/01 Q1017 NOSIG
2026-03-30 21:50:00,METAR EDDB 302150Z AUTO 29007KT CAVOK 02/01 Q1016 NOSIG
2026-03-30 21:20:00,METAR EDDB 302120Z AUTO 28005KT CAVOK 01/01 Q1016 NOSIG
2026-03-30 20:50:00,METAR EDDB 302050Z AUTO 27004KT CAVOK 02/01 Q1016 NOSIG
2026-03-30 20:20:00,METAR EDDB 302020Z AUTO 28006KT CAVOK 02/01 Q1015 NOSIG
2026-03-30 19:50:00,METAR EDDB 301950Z AUTO 28006KT CAVOK 03/02 Q1015 NOSIG
2026-03-30 19:20:00,METAR EDDB 301920Z AUTO 28006KT CAVOK 04/02 Q1015 NOSIG
2026-03-30 18:50:00,METAR EDDB 301850Z AUTO 30007KT 9999 FEW044 04/02 Q1014 NOSIG
2026-03-30 18:20:00,METAR EDDB 301820Z AUTO 26008KT 9999 FEW037 04/03 Q1014 TEMPO 32015G25KT SHRA BKN014CB
2026-03-30 17:50:00,METAR EDDB 301750Z AUTO 32007KT 260V360 9999 -SHRA FEW017 BKN024 BKN032 FEW///TCU 06/02 Q1013 TEMPO 32015G25KT SHRA BKN015CB
2026-03-30 17:20:00,METAR EDDB 301720Z AUTO VRB01KT 9999 VCSH FEW045 FEW///CB 05/04 Q1013 TEMPO 32015G25KT SHRA BKN015CB
2026-03-30 16:50:00,METAR EDDB 301650Z AUTO 32004KT CAVOK 06/04 Q1013 TEMPO 33015G25KT SHRA BKN015CB
2026-03-30 16:20:00,METAR EDDB 301620Z AUTO 01003KT 330V050 9999 FEW012 07/04 Q1012 TEMPO 31015G25KT SHRA BKN015CB
2026-03-30 15:50:00,METAR EDDB 301550Z AUTO 32004KT 300V010 9999 FEW045 06/04 Q1012 NOSIG
2026-03-30 15:20:00,METAR EDDB 301520Z AUTO 33007KT 9999 -SHRA FEW018 SCT029 BKN040 FEW///TCU 06/04 Q1012 TEMPO 33015G25KT SHRA
2026-03-30 14:50:00,METAR EDDB 301450Z AUTO 31014KT 9999 -SHRA FEW024 SCT036 BKN046 FEW///TCU 06/04 Q1012 TEMPO 33015G25KT SHRA
2026-03-30 14:20:00,METAR EDDB 301420Z AUTO 31008KT 9999 -SHRA FEW018 BKN037 FEW///CB 07/04 Q1011 TEMPO 27015G25KT SHRA BKN020CB
2026-03-30 13:50:00,METAR EDDB 301350Z AUTO 28005KT 9999 -SHRA FEW019 BKN034 BKN043 FEW///CB 07/04 Q1011 RESHRA TEMPO 27015G25KT SHRA BKN020CB
2026-03-30 13:20:00,METAR EDDB 301320Z AUTO 26008KT 9999 -SHRA FEW013 BKN032 BKN040 SCT///TCU 06/05 Q1011 TEMPO 27015G25KT SHRA BKN020CB
2026-03-30 12:50:00,METAR EDDB 301250Z AUTO 27008KT 9999 -SHRA BKN013 BKN032 FEW///TCU 07/04 Q1010 TEMPO 27015G25KT SHRA BKN020CB
2026-03-30 12:20:00,METAR EDDB 301220Z AUTO 26009KT 230V300 9999 -SHRA BKN014 BKN021 BKN034 FEW///TCU 07/04 Q1010 TEMPO 27015G25KT SHRA BKN020CB
2026-03-30 11:50:00,METAR EDDB 301150Z AUTO 24009KT 9999 -SHRA BKN012 BKN020 BKN035 FEW///TCU 07/04 Q1010 TEMPO 27015G25KT SHRA BKN020CB
2026-03-30 11:20:00,METAR EDDB 301120Z AUTO 25010KT 9999 -RADZ SCT012 BKN018 BKN023 06/05 Q1010 TEMPO 27015G25KT SHRA BKN014 BKN020CB
2026-03-30 10:50:00,METAR EDDB 301050Z AUTO 25011KT 9999 -RADZ SCT010 BKN015 BKN022 07/04 Q1010 TEMPO 27015G25KT SHRA BKN014 BKN020CB
2026-03-30 10:20:00,METAR EDDB 301020Z AUTO 25010KT 220V280 9999 -RADZ BKN011 BKN017 06/04 Q1010 TEMPO BKN015
2026-03-30 09:50:00,METAR EDDB 300950Z AUTO 23012KT 9999 -RADZ BKN011 BKN015 06/04 Q1009 TEMPO BKN015
2026-03-30 09:20:00,METAR EDDB 300920Z AUTO 23014KT 9999 -RADZ BKN011 BKN019 05/04 Q1009 TEMPO SCT011
2026-03-30 08:50:00,METAR EDDB 300850Z AUTO 23013KT 9999 -RADZ SCT010 BKN028 BKN039 05/04 Q1009 TEMPO BKN011
2026-03-30 08:20:00,METAR EDDB 300820Z AUTO 23013KT 9999 -RA SCT011 BKN016 OVC025 05/04 Q1009 TEMPO BKN011
2026-03-30 07:50:00,METAR EDDB 300750Z AUTO 22013KT 9999 -RADZ BKN014 BKN019 BKN025 05/03 Q1009 TEMPO BKN015
2026-03-30 07:20:00,METAR EDDB 300720Z AUTO 23015KT 9999 -RADZ BKN016 BKN021 OVC027 05/03 Q1009 TEMPO 22015G25KT
2026-03-30 06:50:00,METAR EDDB 300650Z AUTO 21013KT 9999 SCT018 OVC030 05/03 Q1009 TEMPO 22015G25KT
2026-03-30 06:20:00,METAR EDDB 300620Z AUTO 21012KT 9999 SCT017 BKN032 OVC038 05/02 Q1010 TEMPO 22015G25KT
2026-03-30 05:50:00,METAR EDDB 300550Z AUTO 21012KT 9999 BKN018 BKN026 OVC041 05/02 Q1010 TEMPO 22015G25KT
2026-03-30 05:20:00,METAR EDDB 300520Z AUTO 20012KT 9999 BKN019 BKN028 OVC039 04/02 Q1010 TEMPO 22015G25KT
2026-03-30 04:50:00,METAR EDDB 300450Z AUTO 20013KT 9999 -RA BKN019 04/02 Q1010 TEMPO 22015G25KT
2026-03-30 04:20:00,METAR EDDB 300420Z AUTO 20013KT 9999 -RADZ BKN021 BKN025 BKN041 05/02 Q1011 TEMPO 22015G25KT
2026-03-30 03:50:00,METAR EDDB 300350Z AUTO 20013KT 9999 -RADZ SCT024 SCT032 BKN044 05/01 Q1011 TEMPO 22015G25KT
2026-03-30 03:20:00,METAR EDDB 300320Z AUTO 19011KT 9999 -RA FEW034 BKN043 05/01 Q1012 TEMPO 22015G25KT
2026-03-30 02:50:00,METAR EDDB 300250Z AUTO 21011KT 9999 -RADZ NSC 05/00 Q1013 NOSIG
2026-03-30 02:20:00,METAR EDDB 300220Z AUTO 20011KT CAVOK 05/00 Q1014 NOSIG
2026-03-30 01:50:00,METAR EDDB 300150Z AUTO 22011KT 9999 FEW041 05/00 Q1014 NOSIG
2026-03-30 01:20:00,METAR EDDB 300120Z AUTO 20011KT CAVOK 05/00 Q1015 NOSIG
2026-03-30 00:50:00,METAR EDDB 300050Z AUTO 20011KT CAVOK 05/00 Q1016 NOSIG
2026-03-30 00:20:00,METAR EDDB 300020Z AUTO 19010KT CAVOK 04/00 Q1017 NOSIG
2026-03-29 23:50:00,METAR EDDB 292350Z AUTO 19010KT CAVOK 04/00 Q1018 NOSIG
2026-03-29 23:20:00,METAR EDDB 292320Z AUTO 20010KT CAVOK 04/00 Q1018 NOSIG
2026-03-29 22:50:00,METAR EDDB 292250Z AUTO 20009KT CAVOK 04/00 Q1019 NOSIG
2026-03-29 22:20:00,METAR EDDB 292220Z AUTO 19009KT CAVOK 04/00 Q1020 NOSIG
2026-03-29 21:50:00,METAR EDDB 292150Z AUTO 19010KT 9999 FEW049 04/00 Q1020 NOSIG
2026-03-29 21:20:00,METAR EDDB 292120Z AUTO 20009KT 9999 FEW048 04/00 Q1020 NOSIG
2026-03-29 20:50:00,METAR EDDB 292050Z AUTO 19009KT CAVOK 04/00 Q1021 NOSIG
2026-03-29 20:20:00,METAR EDDB 292020Z AUTO 18007KT 9999 FEW048 04/00 Q1021 NOSIG
2026-03-29 19:50:00,METAR EDDB 291950Z AUTO 21006KT 9999 FEW047 04/M00 Q1022 NOSIG
2026-03-29 19:20:00,METAR EDDB 291920Z AUTO 22009KT CAVOK 05/00 Q1022 NOSIG
2026-03-29 18:50:00,METAR EDDB 291850Z AUTO 21006KT CAVOK 04/00 Q1022 NOSIG
2026-03-29 18:20:00,METAR EDDB 291820Z AUTO 22007KT CAVOK 05/00 Q1023 NOSIG
2026-03-29 17:50:00,METAR EDDB 291750Z AUTO 23007KT CAVOK 05/M00 Q1023 NOSIG
2026-03-29 17:20:00,METAR EDDB 291720Z AUTO 23008KT CAVOK 06/00 Q1023 NOSIG
2026-03-29 16:50:00,METAR EDDB 291650Z AUTO 24008KT 9999 SCT032 07/00 Q1023 NOSIG
2026-03-29 16:20:00,METAR EDDB 291620Z AUTO 26010KT 9999 OVC033 07/01 Q1023 NOSIG
2026-03-29 15:20:00,METAR EDDB 291520Z AUTO 29009KT 260V320 9999 BKN035 08/01 Q1024 NOSIG
2026-03-29 14:50:00,METAR EDDB 291450Z AUTO 29010KT 9999 BKN035 08/00 Q1024 NOSIG
2026-03-29 14:20:00,METAR EDDB 291420Z AUTO 27011KT 9999 BKN035 08/00 Q1024 NOSIG
2026-03-29 13:50:00,METAR EDDB 291350Z AUTO 27015KT 9999 BKN037 09/01 Q1024 NOSIG
2026-03-29 13:20:00,METAR EDDB 291320Z AUTO 28011KT 9999 BKN036 09/00 Q1025 NOSIG
2026-03-29 12:50:00,METAR EDDB 291250Z AUTO 27014KT 230V300 9999 BKN036 10/01 Q1025 NOSIG
2026-03-29 12:20:00,METAR EDDB 291220Z AUTO 28007KT 220V310 9999 BKN036 08/M00 Q1025 NOSIG
2026-03-29 11:50:00,METAR EDDB 291150Z AUTO 28007KT 240V300 9999 BKN034 09/00 Q1025 NOSIG
2026-03-29 11:20:00,METAR EDDB 291120Z AUTO 30009KT 270V340 9999 BKN032 BKN039 08/01 Q1025 NOSIG
2026-03-29 10:50:00,METAR EDDB 291050Z AUTO 29010KT 9999 BKN033 09/01 Q1025 NOSIG
2026-03-29 10:20:00,METAR EDDB 291020Z AUTO 32010KT 280V350 9999 BKN032 BKN039 09/01 Q1025 NOSIG
2026-03-29 09:50:00,METAR EDDB 290950Z AUTO 31011KT 9999 SCT027 BKN032 08/01 Q1025 NOSIG
2026-03-29 09:20:00,METAR EDDB 290920Z AUTO 31008KT 270V330 9999 SCT022 BKN027 08/02 Q1025 NOSIG
2026-03-29 08:50:00,METAR EDDB 290850Z AUTO 32010KT 280V350 9999 SCT018 SCT024 07/02 Q1025 NOSIG
2026-03-29 08:20:00,METAR EDDB 290820Z AUTO 32008KT 290V350 9999 FEW017 07/03 Q1025 NOSIG
2026-03-29 07:50:00,METAR EDDB 290750Z AUTO 31007KT 280V350 9999 FEW014 06/03 Q1024 NOSIG
2026-03-29 07:20:00,METAR EDDB 290720Z AUTO 30007KT 9999 FEW011 05/02 Q1024 NOSIG
2026-03-29 06:50:00,METAR EDDB 290650Z AUTO 30006KT CAVOK 04/03 Q1024 NOSIG
2026-03-29 06:20:00,METAR EDDB 290620Z AUTO 30006KT 9999 FEW027 04/02 Q1024 NOSIG
2026-03-29 05:50:00,METAR EDDB 290550Z AUTO 30006KT 9999 SCT029 03/02 Q1023 NOSIG
2026-03-29 05:20:00,METAR EDDB 290520Z AUTO 31006KT 9999 SCT028 BKN037 03/02 Q1023 TEMPO BKN012
2026-03-29 04:50:00,METAR EDDB 290450Z AUTO 31005KT 9999 SCT025 03/02 Q1023 TEMPO BKN012
2026-03-29 04:20:00,METAR EDDB 290420Z AUTO 31006KT 9999 SCT011 SCT044 04/03 Q1022 TEMPO BKN009
2026-03-29 03:50:00,METAR EDDB 290350Z AUTO 31005KT 9999 BKN011 BKN043 04/03 Q1022 TEMPO BKN009
2026-03-29 03:20:00, EDDB 290320Z AUTO 31005KT 9999 BKN011 BKN034 OVC043 05/04 Q1022 TEMPO BKN009
2026-03-29 02:50:00,METAR EDDB 290250Z AUTO 29004KT 9999 FEW006 OVC012 04/04 Q1021 TEMPO BKN009
2026-03-29 02:20:00,METAR EDDB 290220Z AUTO 29004KT 9000 -DZ SCT006 BKN019 OVC031 04/04 Q1021 TEMPO BKN009
2026-03-29 01:50:00,METAR EDDB 290150Z AUTO 30004KT 9999 -RADZ FEW005 BKN019 OVC028 04/04 Q1021 TEMPO BKN009
2026-03-29 01:20:00,METAR EDDB 290120Z AUTO 29004KT 9999 -RA FEW009 BKN019 BKN041 04/04 Q1021 TEMPO BKN009
2026-03-29 00:50:00,METAR EDDB 290050Z AUTO 30004KT 9999 -RADZ FEW009 BKN020 BKN042 04/04 Q1021 TEMPO BKN009
2026-03-29 00:20:00,METAR EDDB 290020Z AUTO 30004KT 9999 -RADZ BKN008 BKN019 04/04 Q1021 NOSIG
2026-03-28 23:50:00,METAR EDDB 282350Z AUTO 31004KT 9999 -RADZ SCT010 BKN017 BKN028 04/03 Q1021 TEMPO BKN009
2026-03-28 23:20:00,METAR EDDB 282320Z AUTO 33005KT 9999 -RADZ BKN011 BKN018 04/03 Q1020 TEMPO BKN009
2026-03-28 22:50:00,METAR EDDB 282250Z AUTO 35005KT 9999 -RADZ FEW012 BKN018 04/03 Q1020 TEMPO BKN009
2026-03-28 22:20:00,METAR EDDB 282220Z AUTO 34008KT 9999 -RA SCT010 BKN015 BKN020 04/03 Q1020 TEMPO BKN009
2026-03-28 21:50:00,METAR EDDB 282150Z AUTO 33008KT 9999 -RADZ BKN012 BKN046 04/03 Q1019 NOSIG
2026-03-28 21:20:00,METAR EDDB 282120Z AUTO 32010KT 9999 -RADZ SCT008 BKN012 05/03 Q1019 NOSIG
2026-03-28 20:50:00,METAR EDDB 282050Z AUTO 29007KT 9999 -RA BKN008 OVC014 05/04 Q1019 NOSIG
2026-03-28 20:20:00,METAR EDDB 282020Z AUTO 29005KT 9999 -DZ SCT011 OVC017 05/03 Q1018 TEMPO BKN009
2026-03-28 19:50:00,METAR EDDB 281950Z AUTO 30006KT 9999 -DZ FEW012 BKN021 BKN034 05/03 Q1018 TEMPO BKN012
2026-03-28 19:20:00,METAR EDDB 281920Z AUTO 28007KT 9999 -RADZ FEW006 BKN014 BKN024 05/04 Q1018 TEMPO BKN007
2026-03-28 18:50:00,METAR EDDB 281850Z COR AUTO 28008KT 9999 -RADZ FEW007 BKN014 BKN041 05/04 Q1018 NOSIG
2026-03-28 18:20:00,METAR EDDB 281820Z AUTO 29007KT 9999 -RADZ FEW008 BKN023 OVC049 05/03 Q1018 BECMG BKN012
2026-03-28 17:50:00,METAR EDDB 281750Z AUTO 29009KT 9999 -RA OVC016 06/04 Q1017 BECMG BKN012
2026-03-28 17:20:00,METAR EDDB 281720Z AUTO 27009KT 9999 BKN016 BKN021 OVC026 07/03 Q1017 BECMG BKN012
2026-03-28 16:50:00,METAR EDDB 281650Z AUTO 28010KT 9999 BKN017 OVC023 07/03 Q1016 BECMG BKN012
2026-03-28 16:20:00,METAR EDDB 281620Z AUTO 29011KT 9999 BKN019 BKN028 BKN044 07/03 Q1016 BECMG BKN012
2026-03-28 15:50:00,METAR EDDB 281550Z AUTO 28012KT 9999 FEW021 BKN043 08/03 Q1016 NOSIG
2026-03-28 15:20:00,METAR EDDB 281520Z AUTO 31012KT 9999 BKN048 09/03 Q1016 NOSIG
2026-03-28 14:50:00,METAR EDDB 281450Z AUTO 29011KT CAVOK 10/00 Q1015 NOSIG
2026-03-28 14:20:00,METAR EDDB 281420Z AUTO 27011KT 9999 FEW049 11/M00 Q1015 NOSIG
2026-03-28 13:50:00,METAR EDDB 281350Z AUTO 24011KT CAVOK 11/M00 Q1015 NOSIG
2026-03-28 13:20:00,METAR EDDB 281320Z AUTO 25012KT 220V280 CAVOK 11/M01 Q1015 NOSIG
2026-03-28 12:50:00,METAR EDDB 281250Z AUTO 26013KT CAVOK 12/M00 Q1015 NOSIG
2026-03-28 12:20:00,METAR EDDB 281220Z AUTO 22013KT CAVOK 12/M01 Q1015 NOSIG
2026-03-28 11:50:00,METAR EDDB 281150Z AUTO 20012KT CAVOK 11/M01 Q1016 NOSIG
2026-03-28 11:20:00,METAR EDDB 281120Z AUTO 20011KT CAVOK 10/M02 Q1016 NOSIG
2026-03-28 10:50:00,METAR EDDB 281050Z AUTO 21012KT CAVOK 10/M02 Q1016 NOSIG
2026-03-28 10:20:00,METAR EDDB 281020Z AUTO 20012KT 170V250 CAVOK 10/M02 Q1017 NOSIG
2026-03-28 09:50:00,METAR EDDB 280950Z AUTO 20010KT 160V250 CAVOK 09/M02 Q1017 NOSIG
2026-03-28 09:20:00,METAR EDDB 280920Z AUTO 20014KT CAVOK 09/M03 Q1017 NOSIG
2026-03-28 08:50:00,METAR EDDB 280850Z AUTO 20013KT 170V230 CAVOK 08/M03 Q1018 NOSIG
2026-03-28 08:20:00,METAR EDDB 280820Z AUTO 20011KT CAVOK 07/M02 Q1018 NOSIG
2026-03-28 07:50:00,METAR EDDB 280750Z AUTO 19008KT CAVOK 06/M02 Q1018 NOSIG
2026-03-28 07:20:00,METAR EDDB 280720Z AUTO 19007KT CAVOK 04/M02 Q1018 NOSIG
2026-03-28 06:50:00,METAR EDDB 280650Z AUTO 20008KT CAVOK 03/M03 Q1018 NOSIG
2026-03-28 06:20:00,METAR EDDB 280620Z AUTO 19006KT CAVOK 02/M03 Q1018 NOSIG
2026-03-28 05:50:00,METAR EDDB 280550Z AUTO 18006KT CAVOK 01/M04 Q1018 NOSIG
2026-03-28 05:20:00,METAR EDDB 280520Z AUTO 18006KT CAVOK M01/M04 Q1019 NOSIG
2026-03-28 04:50:00,METAR EDDB 280450Z AUTO 18007KT CAVOK M01/M04 Q1019 NOSIG
2026-03-28 04:20:00,METAR EDDB 280420Z AUTO 18005KT CAVOK M01/M04 Q1019 NOSIG
2026-03-28 03:50:00,METAR EDDB 280350Z AUTO 18004KT CAVOK M01/M04 Q1019 NOSIG
2026-03-28 03:20:00,METAR EDDB 280320Z AUTO 18004KT CAVOK M01/M04 Q1019 NOSIG
2026-03-28 02:50:00,METAR EDDB 280250Z AUTO 18004KT CAVOK M02/M04 Q1019 NOSIG
2026-03-28 02:20:00,METAR EDDB 280220Z AUTO 19004KT CAVOK M02/M05 Q1020 NOSIG
2026-03-28 01:50:00,METAR EDDB 280150Z AUTO 18004KT CAVOK M02/M04 Q1020 NOSIG
2026-03-28 01:20:00,METAR EDDB 280120Z AUTO 18004KT CAVOK M01/M04 Q1020 NOSIG
2026-03-28 00:50:00,METAR EDDB 280050Z AUTO 19003KT CAVOK M00/M04 Q1020 NOSIG
2026-03-28 00:20:00,METAR EDDB 280020Z AUTO 18004KT CAVOK 00/M04 Q1021 NOSIG
2026-03-27 23:50:00,METAR EDDB 272350Z AUTO 19003KT 140V220 CAVOK M00/M04 Q1021 NOSIG
2026-03-27 23:20:00,METAR EDDB 272320Z AUTO 23005KT CAVOK 01/M04 Q1021 NOSIG
2026-03-27 22:50:00,METAR EDDB 272250Z AUTO 23004KT CAVOK 01/M04 Q1021 NOSIG
2026-03-27 22:20:00,METAR EDDB 272220Z AUTO 24003KT CAVOK 01/M04 Q1021 NOSIG
2026-03-27 21:50:00,METAR EDDB 272150Z AUTO 24003KT CAVOK 03/M03 Q1021 NOSIG
2026-03-27 21:20:00,METAR EDDB 272120Z AUTO 25004KT CAVOK 04/M03 Q1021 NOSIG
2026-03-27 20:50:00,METAR EDDB 272050Z AUTO 27004KT CAVOK 04/M03 Q1021 NOSIG
2026-03-27 20:20:00,METAR EDDB 272020Z AUTO 28005KT CAVOK 05/M02 Q1021 NOSIG
2026-03-27 19:50:00,METAR EDDB 271950Z AUTO 28004KT CAVOK 06/M02 Q1021 NOSIG
2026-03-27 19:20:00,METAR EDDB 271920Z AUTO 27005KT CAVOK 05/M02 Q1021 NOSIG
2026-03-27 18:50:00,METAR EDDB 271850Z AUTO 26004KT CAVOK 05/M02 Q1021 NOSIG
2026-03-27 18:20:00,METAR EDDB 271820Z AUTO 29004KT CAVOK 07/M03 Q1021 NOSIG
2026-03-27 17:50:00,METAR EDDB 271750Z AUTO 31005KT CAVOK 07/M03 Q1021 NOSIG
2026-03-27 17:20:00,METAR EDDB 271720Z AUTO 31007KT CAVOK 07/M04 Q1021 NOSIG
2026-03-27 16:50:00,METAR EDDB 271650Z AUTO 28005KT CAVOK 08/M04 Q1020 NOSIG
2026-03-27 16:20:00,METAR EDDB 271620Z AUTO 27006KT CAVOK 08/M02 Q1020 NOSIG
2026-03-27 15:50:00,METAR EDDB 271550Z AUTO 29006KT CAVOK 08/M02 Q1020 NOSIG
2026-03-25 14:50:00,METAR EDDB 251450Z AUTO 29014KT 9999 -SHRA FEW035 FEW///TCU 10/02 Q0997 TEMPO 29015G25KT
2026-03-25 14:20:00,METAR EDDB 251420Z AUTO 30017KT CAVOK 11/02 Q0997 TEMPO 29020G30KT SHRA SCT030TCU
2026-03-25 13:50:00,METAR EDDB 251350Z AUTO 29018KT 9999 VCSH FEW041 FEW///TCU 11/02 Q0997 TEMPO 28020G30KT SHRA SCT030TCU
2026-03-25 13:20:00,METAR EDDB 251320Z AUTO 29022KT CAVOK 11/03 Q0997 TEMPO 26020G30KT SHRA SCT030TCU
2026-03-25 12:50:00,METAR EDDB 251250Z AUTO 26021KT CAVOK 12/01 Q0996 TEMPO 26020G30KT SHRA SCT030TCU
2026-03-25 12:20:00,METAR EDDB 251220Z AUTO 24017KT 9999 FEW044 13/05 Q0995 TEMPO 26020G30KT
2026-03-25 11:50:00,METAR EDDB 251150Z AUTO 23020KT 9999 SCT036 12/05 Q0996 TEMPO 26020G30KT
2026-03-25 11:20:00,METAR EDDB 251120Z AUTO 23020KT 9999 FEW040 12/05 Q0995 TEMPO 26020G30KT
2026-03-25 10:50:00,METAR EDDB 251050Z AUTO 25021KT 9999 -SHRA SCT044 FEW///TCU 12/04 Q0996 TEMPO 26020G30KT
2026-03-25 10:20:00,METAR EDDB 251020Z AUTO 22022KT 9999 SCT048 12/05 Q0995 TEMPO 23020G30KT
2026-03-25 09:50:00,METAR EDDB 250950Z AUTO 23017KT 9999 BKN049 12/05 Q0996 TEMPO 23020G30KT
2026-03-25 09:20:00,METAR EDDB 250920Z AUTO 22016KT 9999 FEW039 BKN045 12/06 Q0996 TEMPO 23020G30KT
2026-03-25 08:50:00,METAR EDDB 250850Z AUTO 23018KT 9999 -RA SCT042 BKN049 12/05 Q0996 TEMPO 23020G30KT
2026-03-25 08:20:00,METAR EDDB 250820Z AUTO 23019KT CAVOK 13/03 Q0996 TEMPO 23020G30KT
2026-03-25 07:50:00,METAR EDDB 250750Z AUTO 22018KT CAVOK 13/03 Q0996 TEMPO 23020G30KT
2026-03-25 07:20:00,METAR EDDB 250720Z AUTO 21017KT CAVOK 13/03 Q0996 BECMG 22020G30KT
2026-03-25 06:50:00,METAR EDDB 250650Z AUTO 20016KT 170V230 CAVOK 12/02 Q0997 BECMG 22020G30KT
2026-03-25 06:20:00,METAR EDDB 250620Z AUTO 20015KT CAVOK 12/02 Q0997 TEMPO 21015G25KT
2026-03-25 05:50:00,METAR EDDB 250550Z AUTO 20013KT CAVOK 11/02 Q0998 BECMG 20015G25KT
2026-03-25 05:20:00,METAR EDDB 250520Z AUTO 20013KT CAVOK 11/02 Q0998 BECMG 20015G25KT
2026-03-25 04:50:00,METAR EDDB 250450Z AUTO 21011KT CAVOK 11/02 Q0999 BECMG 20015G25KT
2026-03-25 04:20:00,METAR EDDB 250420Z AUTO 20013KT CAVOK 10/02 Q0999 BECMG 20015G25KT
2026-03-25 03:50:00,METAR EDDB 250350Z AUTO 19012KT CAVOK 10/02 Q1000 NOSIG
2026-03-25 03:20:00,METAR EDDB 250320Z AUTO 20011KT CAVOK 09/01 Q1001 NOSIG
2026-03-25 02:50:00,METAR EDDB 250250Z AUTO 19011KT CAVOK 10/01 Q1002 NOSIG
2026-03-25 02:20:00,METAR EDDB 250220Z AUTO 20010KT CAVOK 10/01 Q1003 NOSIG
2026-03-25 01:50:00,METAR EDDB 250150Z AUTO 20011KT CAVOK 11/01 Q1003 NOSIG
2026-03-25 01:20:00,METAR EDDB 250120Z AUTO 20010KT CAVOK 11/01 Q1004 NOSIG
2026-03-25 00:50:00,METAR EDDB 250050Z AUTO 20011KT CAVOK 11/01 Q1005 NOSIG
2026-03-25 00:20:00,METAR EDDB 250020Z AUTO 21012KT CAVOK 11/01 Q1006 NOSIG
2026-03-24 23:50:00,METAR EDDB 242350Z AUTO 21011KT CAVOK 11/01 Q1006 NOSIG
2026-03-24 23:20:00,METAR EDDB 242320Z AUTO 21012KT CAVOK 11/02 Q1007 NOSIG
2026-03-24 22:50:00,METAR EDDB 242250Z AUTO 21009KT CAVOK 11/02 Q1007 NOSIG
2026-03-24 22:20:00,METAR EDDB 242220Z AUTO 22010KT CAVOK 12/02 Q1008 NOSIG
2026-03-24 21:50:00,METAR EDDB 242150Z AUTO 21010KT CAVOK 12/02 Q1008 NOSIG
2026-03-24 21:20:00,METAR EDDB 242120Z AUTO 21009KT CAVOK 12/02 Q1009 NOSIG
2026-03-24 20:50:00,METAR EDDB 242050Z AUTO 20008KT CAVOK 12/03 Q1009 NOSIG
2026-03-24 20:20:00,METAR EDDB 242020Z AUTO 20008KT CAVOK 12/03 Q1010 NOSIG
2026-03-24 19:50:00,METAR EDDB 241950Z AUTO 20009KT CAVOK 12/03 Q1010 NOSIG
2026-03-24 19:20:00,METAR EDDB 241920Z AUTO 19009KT CAVOK 12/03 Q1011 NOSIG
2026-03-24 18:50:00,METAR EDDB 241850Z AUTO 20010KT CAVOK 13/03 Q1011 NOSIG
2026-03-24 18:20:00,METAR EDDB 241820Z AUTO 20008KT CAVOK 13/03 Q1012 NOSIG
2026-03-24 17:50:00,METAR EDDB 241750Z AUTO 20008KT CAVOK 13/03 Q1012 NOSIG
2026-03-24 17:20:00,METAR EDDB 241720Z AUTO 21009KT CAVOK 14/03 Q1012 NOSIG
2026-03-24 16:50:00,METAR EDDB 241650Z AUTO 22011KT CAVOK 14/02 Q1013 NOSIG
2026-03-24 16:20:00,METAR EDDB 241620Z AUTO 22013KT CAVOK 14/02 Q1013 NOSIG
2026-03-24 15:50:00,METAR EDDB 241550Z AUTO 22013KT CAVOK 15/02 Q1013 NOSIG
2026-03-24 15:20:00,METAR EDDB 241520Z AUTO 23015KT CAVOK 15/02 Q1014 NOSIG
2026-03-24 14:50:00,METAR EDDB 241450Z AUTO 23012KT CAVOK 16/03 Q1014 NOSIG
2026-03-24 14:20:00,METAR EDDB 241420Z AUTO 23014KT CAVOK 16/02 Q1015 NOSIG
2026-03-24 13:50:00,METAR EDDB 241350Z AUTO 24016KT CAVOK 16/03 Q1015 NOSIG
2026-03-24 13:20:00,METAR EDDB 241320Z AUTO 23015KT CAVOK 16/02 Q1015 NOSIG
2026-03-24 12:50:00,METAR EDDB 241250Z AUTO 24014KT CAVOK 16/03 Q1016 NOSIG
2026-03-24 12:20:00,METAR EDDB 241220Z AUTO 25015KT CAVOK 16/03 Q1016 NOSIG
2026-03-24 11:50:00,METAR EDDB 241150Z AUTO 24012KT 200V270 CAVOK 16/03 Q1017 NOSIG
2026-03-24 11:20:00,METAR EDDB 241120Z AUTO 24009KT CAVOK 14/03 Q1017 NOSIG
2026-03-24 10:50:00,METAR EDDB 241050Z AUTO 23009KT CAVOK 14/03 Q1018 NOSIG
2026-03-24 10:20:00,METAR EDDB 241020Z AUTO 22009KT 180V250 CAVOK 13/03 Q1018 NOSIG
2026-03-24 09:50:00,METAR EDDB 240950Z AUTO 21007KT CAVOK 11/03 Q1018 NOSIG
2026-03-24 09:20:00,METAR EDDB 240920Z AUTO 19006KT CAVOK 10/03 Q1018 NOSIG
2026-03-24 08:50:00,METAR EDDB 240850Z AUTO 19005KT CAVOK 08/02 Q1019 NOSIG
2026-03-24 08:20:00,METAR EDDB 240820Z AUTO 19006KT CAVOK 08/02 Q1019 NOSIG
2026-03-24 07:50:00,METAR EDDB 240750Z AUTO 21004KT 180V270 CAVOK 07/01 Q1019 NOSIG
2026-03-24 07:20:00,METAR EDDB 240720Z AUTO 20005KT CAVOK 06/01 Q1019 NOSIG
2026-03-24 06:50:00,METAR EDDB 240650Z AUTO 20009KT CAVOK 06/01 Q1018 NOSIG
2026-03-24 06:20:00,METAR EDDB 240620Z AUTO 19006KT CAVOK 05/00 Q1018 NOSIG
2026-03-24 05:50:00,METAR EDDB 240550Z AUTO 19005KT CAVOK 04/00 Q1019 NOSIG
2026-03-24 05:20:00,METAR EDDB 240520Z AUTO 19004KT CAVOK 04/M00 Q1019 NOSIG
2026-03-24 04:50:00,METAR EDDB 240450Z AUTO 20004KT CAVOK 03/M00 Q1019 NOSIG
2026-03-24 04:20:00,METAR EDDB 240420Z AUTO 19004KT CAVOK 02/M01 Q1019 NOSIG
2026-03-24 03:50:00,METAR EDDB 240350Z AUTO 19004KT CAVOK 03/M01 Q1018 NOSIG
2026-03-24 03:20:00,METAR EDDB 240320Z AUTO 20004KT CAVOK 03/M01 Q1019 NOSIG
2026-03-24 02:50:00,METAR EDDB 240250Z AUTO 20003KT CAVOK 03/M01 Q1019 NOSIG
2026-03-24 02:20:00,METAR EDDB 240220Z AUTO 21003KT CAVOK 03/M01 Q1019 NOSIG
2026-03-24 01:50:00,METAR EDDB 240150Z AUTO 21003KT CAVOK 03/M01 Q1019 NOSIG
2026-03-24 01:20:00,METAR EDDB 240120Z AUTO VRB01KT CAVOK 02/M01 Q1019 NOSIG
2026-03-24 00:50:00,METAR EDDB 240050Z AUTO VRB01KT CAVOK 03/M01 Q1019 NOSIG
2026-03-24 00:20:00,METAR EDDB 240020Z AUTO 19004KT CAVOK 04/M00 Q1019 NOSIG
2026-03-23 23:50:00,METAR EDDB 232350Z AUTO 19003KT CAVOK 05/M01 Q1019 NOSIG
2026-03-23 23:20:00,METAR EDDB 232320Z AUTO 19002KT CAVOK 04/M00 Q1019 NOSIG
2026-03-23 22:50:00,METAR EDDB 232250Z AUTO 17002KT CAVOK 05/M01 Q1019 NOSIG
2026-03-23 22:20:00,METAR EDDB 232220Z AUTO 21002KT CAVOK 06/M00 Q1019 NOSIG
2026-03-23 21:50:00,METAR EDDB 232150Z AUTO 22001KT CAVOK 07/M01 Q1019 NOSIG
2026-03-23 21:20:00,METAR EDDB 232120Z AUTO 18002KT CAVOK 06/M00 Q1019 NOSIG
2026-03-23 20:50:00,METAR EDDB 232050Z AUTO VRB02KT CAVOK 07/M01 Q1019 NOSIG
2026-03-23 20:20:00,METAR EDDB 232020Z AUTO 24004KT CAVOK 08/M01 Q1019 NOSIG
2026-03-23 19:50:00,METAR EDDB 231950Z AUTO 26002KT CAVOK 09/M01 Q1019 NOSIG
2026-03-23 19:20:00,METAR EDDB 231920Z AUTO 25003KT CAVOK 10/M00 Q1019 NOSIG
2026-03-23 18:50:00,METAR EDDB 231850Z AUTO 27003KT CAVOK 08/M00 Q1019 NOSIG
2026-03-23 18:20:00,METAR EDDB 231820Z AUTO 28006KT CAVOK 10/00 Q1019 NOSIG
2026-03-23 17:50:00,METAR EDDB 231750Z AUTO 30006KT CAVOK 11/00 Q1019 NOSIG
2026-03-23 17:20:00,METAR EDDB 231720Z AUTO 26006KT CAVOK 11/00 Q1018 NOSIG
2026-03-23 16:50:00,METAR EDDB 231650Z AUTO 26005KT CAVOK 12/00 Q1018 NOSIG
2026-03-23 16:20:00,METAR EDDB 231620Z AUTO 25004KT CAVOK 15/00 Q1018 NOSIG
2026-03-23 15:50:00,METAR EDDB 231550Z AUTO 27002KT CAVOK 16/M00 Q1018 NOSIG
2026-03-23 15:20:00,METAR EDDB 231520Z AUTO VRB03KT CAVOK 16/00 Q1017 NOSIG
2026-03-23 14:50:00,METAR EDDB 231450Z AUTO VRB03KT CAVOK 16/M00 Q1017 NOSIG
2026-03-23 14:20:00,METAR EDDB 231420Z AUTO 27005KT 210V300 CAVOK 16/01 Q1017 NOSIG
2026-03-23 13:50:00,METAR EDDB 231350Z AUTO 33006KT 280V040 CAVOK 15/M00 Q1018 NOSIG
2026-03-23 13:20:00,METAR EDDB 231320Z AUTO 36004KT 280V050 CAVOK 15/00 Q1018 NOSIG
2026-03-23 12:50:00,METAR EDDB 231250Z AUTO 29006KT 240V350 CAVOK 16/01 Q1018 NOSIG
2026-03-23 12:20:00,METAR EDDB 231220Z AUTO VRB05KT CAVOK 16/01 Q1018 NOSIG
2026-03-23 11:50:00,METAR EDDB 231150Z AUTO 35006KT 270V040 CAVOK 15/02 Q1018 NOSIG
2026-03-23 11:20:00,METAR EDDB 231120Z AUTO 34008KT 320V040 CAVOK 14/01 Q1018 NOSIG
2026-03-23 10:50:00,METAR EDDB 231050Z AUTO 33005KT 280V010 CAVOK 15/02 Q1018 NOSIG
2026-03-23 10:20:00,METAR EDDB 231020Z AUTO 01005KT 300V110 CAVOK 15/02 Q1018 NOSIG
2026-03-23 09:50:00,METAR EDDB 230950Z AUTO 01005KT 320V060 CAVOK 14/01 Q1018 NOSIG
2026-03-23 09:20:00,METAR EDDB 230920Z AUTO 35004KT 290V030 CAVOK 13/02 Q1018 NOSIG
2026-03-23 08:50:00,METAR EDDB 230850Z AUTO VRB02KT CAVOK 11/02 Q1018 NOSIG
2026-03-23 08:20:00,METAR EDDB 230820Z AUTO 27003KT 180V300 CAVOK 10/02 Q1017 NOSIG
2026-03-23 07:50:00,METAR EDDB 230750Z AUTO VRB01KT CAVOK 09/02 Q1017 NOSIG
2026-03-23 07:20:00,METAR EDDB 230720Z AUTO VRB01KT CAVOK 08/02 Q1017 NOSIG
2026-03-23 06:50:00,METAR EDDB 230650Z AUTO VRB01KT CAVOK 06/01 Q1017 NOSIG
2026-03-23 06:20:00,METAR EDDB 230620Z AUTO 29001KT CAVOK 03/00 Q1017 NOSIG
2026-03-23 05:50:00,METAR EDDB 230550Z AUTO 19001KT CAVOK 01/M01 Q1017 NOSIG
2026-03-23 05:20:00,METAR EDDB 230520Z AUTO 00000KT CAVOK M00/M01 Q1017 NOSIG
2026-03-23 04:50:00,METAR EDDB 230450Z AUTO 00000KT CAVOK M00/M01 Q1016 NOSIG
2026-03-23 04:20:00,METAR EDDB 230420Z AUTO 00000KT CAVOK M00/M01 Q1016 NOSIG
2026-03-23 03:50:00,METAR EDDB 230350Z AUTO 00000KT CAVOK 00/M01 Q1016 NOSIG
2026-03-23 03:20:00,METAR EDDB 230320Z AUTO 32001KT CAVOK 00/M01 Q1016 NOSIG
2026-03-23 02:50:00,METAR EDDB 230250Z AUTO 36001KT CAVOK 00/M01 Q1016 NOSIG
2026-03-23 02:20:00,METAR EDDB 230220Z AUTO VRB01KT CAVOK 01/M00 Q1016 NOSIG
2026-03-23 01:50:00,METAR EDDB 230150Z AUTO 06002KT CAVOK 01/M00 Q1016 NOSIG
2026-03-23 01:20:00,METAR EDDB 230120Z AUTO 04002KT CAVOK 02/M00 Q1016 NOSIG
2026-03-23 00:50:00,METAR EDDB 230050Z AUTO 01002KT CAVOK 02/M00 Q1016 NOSIG
2026-03-23 00:20:00,METAR EDDB 230020Z AUTO 02003KT CAVOK 03/M00 Q1016 NOSIG
2026-03-22 23:50:00,METAR EDDB 222350Z AUTO 03003KT CAVOK 04/00 Q1017 NOSIG
2026-03-22 23:20:00,METAR EDDB 222320Z AUTO 03003KT CAVOK 05/00 Q1017 NOSIG
2026-03-22 22:50:00,METAR EDDB 222250Z AUTO 06005KT CAVOK 05/M00 Q1017 NOSIG
2026-03-22 22:20:00,METAR EDDB 222220Z AUTO 06007KT CAVOK 05/M00 Q1017 NOSIG
2026-03-22 21:50:00,METAR EDDB 222150Z AUTO 06006KT CAVOK 05/00 Q1017 NOSIG
2026-03-22 21:20:00,METAR EDDB 222120Z AUTO 06006KT CAVOK 06/00 Q1017 NOSIG
2026-03-22 20:50:00,METAR EDDB 222050Z AUTO 06005KT CAVOK 06/00 Q1017 NOSIG
2026-03-22 20:20:00,METAR EDDB 222020Z AUTO 08006KT CAVOK 07/01 Q1017 NOSIG
2026-03-22 19:50:00,METAR EDDB 221950Z AUTO 08006KT CAVOK 07/01 Q1017 NOSIG
2026-03-22 19:20:00,METAR EDDB 221920Z AUTO 08006KT CAVOK 08/01 Q1017 NOSIG
2026-03-22 18:50:00,METAR EDDB 221850Z AUTO 07006KT CAVOK 08/01 Q1017 NOSIG
2026-03-22 18:20:00,METAR EDDB 221820Z AUTO 06004KT CAVOK 09/01 Q1017 NOSIG
2026-03-22 17:50:00,METAR EDDB 221750Z AUTO 07004KT CAVOK 10/01 Q1017 NOSIG
2026-03-22 17:20:00,METAR EDDB 221720Z AUTO 08005KT CAVOK 11/01 Q1017 NOSIG
2026-03-22 16:50:00,METAR EDDB 221650Z AUTO 10007KT CAVOK 12/01 Q1017 NOSIG
2026-03-22 16:20:00,METAR EDDB 221620Z AUTO 09008KT CAVOK 13/01 Q1017 NOSIG
2026-03-22 15:50:00,METAR EDDB 221550Z AUTO 10007KT CAVOK 14/02 Q1017 NOSIG
2026-03-22 15:20:00,METAR EDDB 221520Z AUTO 13011KT CAVOK 14/01 Q1017 NOSIG
2026-03-22 14:50:00,METAR EDDB 221450Z AUTO 14009KT 100V160 CAVOK 14/01 Q1018 NOSIG
2026-03-22 14:20:00,METAR EDDB 221420Z AUTO 10008KT 070V140 CAVOK 14/01 Q1018 NOSIG
2026-03-22 13:50:00,METAR EDDB 221350Z AUTO 11008KT 080V150 CAVOK 15/01 Q1018 NOSIG
2026-03-22 13:20:00,METAR EDDB 221320Z AUTO 09007KT 040V120 CAVOK 14/M00 Q1018 NOSIG
2026-03-22 12:50:00,METAR EDDB 221250Z AUTO 12009KT 080V150 CAVOK 15/01 Q1019 NOSIG
2026-03-22 12:20:00,METAR EDDB 221220Z AUTO 10009KT 060V140 CAVOK 14/M01 Q1019 NOSIG
2026-03-22 11:50:00,METAR EDDB 221150Z AUTO 12010KT 090V150 CAVOK 14/M01 Q1020 NOSIG
2026-03-22 11:20:00,METAR EDDB 221120Z AUTO 11009KT 070V150 CAVOK 14/M00 Q1020 NOSIG
2026-03-22 10:50:00,METAR EDDB 221050Z AUTO 10009KT 060V140 CAVOK 13/M01 Q1020 NOSIG
2026-03-22 10:20:00,METAR EDDB 221020Z AUTO 09010KT 070V130 CAVOK 12/M00 Q1020 NOSIG
2026-03-22 09:50:00,METAR EDDB 220950Z AUTO 11009KT 080V140 CAVOK 12/M00 Q1021 NOSIG
2026-03-22 09:20:00,METAR EDDB 220920Z AUTO 09009KT CAVOK 11/01 Q1021 NOSIG
2026-03-22 08:50:00,METAR EDDB 220850Z AUTO 10007KT 060V140 CAVOK 10/01 Q1021 NOSIG
2026-03-22 08:20:00,METAR EDDB 220820Z AUTO 09007KT CAVOK 09/01 Q1021 NOSIG
2026-03-22 07:50:00,METAR EDDB 220750Z AUTO 09006KT CAVOK 07/00 Q1021 NOSIG
2026-03-22 07:20:00,METAR EDDB 220720Z AUTO 09006KT CAVOK 06/00 Q1021 NOSIG
2026-03-22 06:50:00,METAR EDDB 220650Z AUTO 09005KT CAVOK 05/M00 Q1021 NOSIG
2026-03-22 06:20:00,METAR EDDB 220620Z AUTO 08004KT CAVOK 03/M01 Q1021 NOSIG
2026-03-22 05:50:00,METAR EDDB 220550Z AUTO 10006KT CAVOK 01/M02 Q1021 NOSIG
2026-03-22 05:20:00,METAR EDDB 220520Z AUTO 06007KT CAVOK 00/M02 Q1021 NOSIG
2026-03-22 04:50:00,METAR EDDB 220450Z AUTO 07006KT CAVOK 00/M02 Q1021 NOSIG
2026-03-22 04:20:00,METAR EDDB 220420Z AUTO 09006KT CAVOK 01/M02 Q1021 NOSIG
2026-03-22 03:50:00,METAR EDDB 220350Z AUTO 08007KT CAVOK 01/M02 Q1021 NOSIG
2026-03-22 03:20:00,METAR EDDB 220320Z AUTO 07006KT CAVOK 01/M02 Q1021 NOSIG
2026-03-22 02:50:00,METAR EDDB 220250Z AUTO 08006KT CAVOK 01/M02 Q1021 NOSIG
2026-03-22 02:20:00,METAR EDDB 220220Z AUTO 06007KT CAVOK 01/M02 Q1021 NOSIG
2026-03-22 01:50:00,METAR EDDB 220150Z AUTO 07008KT CAVOK 02/M02 Q1021 NOSIG
2026-03-22 01:20:00,METAR EDDB 220120Z AUTO 07009KT CAVOK 02/M02 Q1021 NOSIG
2026-03-22 00:50:00,METAR EDDB 220050Z AUTO 06007KT CAVOK 02/M02 Q1021 NOSIG
2026-03-22 00:20:00,METAR EDDB 220020Z AUTO 08007KT CAVOK 03/M02 Q1021 NOSIG
2026-03-21 23:50:00,METAR EDDB 212350Z AUTO 09008KT CAVOK 03/M02 Q1021 NOSIG
2026-03-21 23:20:00,METAR EDDB 212320Z AUTO 08007KT CAVOK 03/M02 Q1021 NOSIG
2026-03-21 22:50:00,METAR EDDB 212250Z AUTO 09007KT CAVOK 03/M02 Q1021 NOSIG
2026-03-21 22:20:00,METAR EDDB 212220Z AUTO 09007KT CAVOK 03/M02 Q1021 NOSIG
2026-03-21 21:50:00,METAR EDDB 212150Z AUTO 08008KT CAVOK 04/M02 Q1021 NOSIG
2026-03-21 21:20:00,METAR EDDB 212120Z AUTO 08008KT CAVOK 05/M01 Q1021 NOSIG
2026-03-21 20:50:00,METAR EDDB 212050Z AUTO 09007KT CAVOK 04/M02 Q1021 NOSIG
2026-03-21 20:20:00,METAR EDDB 212020Z AUTO 08007KT CAVOK 04/M02 Q1021 NOSIG
2026-03-21 19:50:00,METAR EDDB 211950Z AUTO 08006KT CAVOK 05/M02 Q1021 NOSIG
2026-03-21 19:20:00,METAR EDDB 211920Z AUTO 08007KT CAVOK 05/M01 Q1021 NOSIG
2026-03-21 18:50:00,METAR EDDB 211850Z AUTO 08006KT CAVOK 06/M01 Q1020 NOSIG
2026-03-21 18:20:00,METAR EDDB 211820Z AUTO 08006KT CAVOK 06/M01 Q1020 NOSIG
2026-03-21 17:50:00,METAR EDDB 211750Z AUTO 08007KT CAVOK 07/M01 Q1020 NOSIG
2026-03-21 17:20:00,METAR EDDB 211720Z AUTO 07005KT CAVOK 08/00 Q1020 NOSIG
2026-03-21 16:50:00,METAR EDDB 211650Z AUTO 08006KT CAVOK 09/01 Q1019 NOSIG
2026-03-21 16:20:00,METAR EDDB 211620Z AUTO 08006KT CAVOK 10/02 Q1019 NOSIG
2026-03-21 15:50:00,METAR EDDB 211550Z AUTO 09007KT CAVOK 10/03 Q1019 NOSIG
2026-03-21 14:50:00,METAR EDDB 211450Z AUTO 07007KT 030V090 9999 FEW020 09/04 Q1019 NOSIG
2026-03-21 14:20:00,METAR EDDB 211420Z AUTO 10008KT 060V140 CAVOK 09/03 Q1019 NOSIG
2026-03-21 13:50:00,METAR EDDB 211350Z AUTO 10006KT 050V150 CAVOK 09/03 Q1019 NOSIG
2026-03-21 13:20:00,METAR EDDB 211320Z AUTO 10006KT 060V140 CAVOK 08/03 Q1020 NOSIG
2026-03-21 12:50:00,METAR EDDB 211250Z AUTO 11009KT 9999 FEW017 08/03 Q1020 NOSIG
2026-03-21 12:20:00,METAR EDDB 211220Z AUTO 12010KT 080V140 9999 BKN016 08/03 Q1020 NOSIG
2026-03-21 11:50:00,METAR EDDB 211150Z AUTO 08008KT 030V140 9999 BKN014 08/03 Q1020 BECMG BKN015
2026-03-21 11:20:00,METAR EDDB 211120Z AUTO 05008KT 030V090 9999 OVC011 06/03 Q1021 BECMG BKN015
2026-03-21 10:50:00,METAR EDDB 211050Z AUTO 05009KT 8000 OVC011 06/03 Q1021 BECMG BKN015
2026-03-21 10:20:00,METAR EDDB 211020Z AUTO 08008KT 050V110 7000 OVC010 06/04 Q1021 BECMG BKN015
2026-03-21 09:50:00,METAR EDDB 210950Z AUTO 08009KT 050V110 6000 BKN009 OVC012 06/04 Q1020 BECMG BKN015
2026-03-21 09:20:00,METAR EDDB 210920Z AUTO 07009KT 4600 BR BKN008 06/04 Q1021 BECMG 5000 BKN010
2026-03-21 08:50:00,METAR EDDB 210850Z AUTO 06009KT 4700 BR OVC008 07/05 Q1020 BECMG 5000 BKN010
2026-03-21 08:20:00,METAR EDDB 210820Z AUTO 03008KT 4600 BR OVC007 07/05 Q1020 BECMG 5000 BKN010
2026-03-21 07:50:00,METAR EDDB 210750Z AUTO 06006KT 020V080 4700 BR OVC006 07/05 Q1020 BECMG 5000 BKN010
2026-03-21 07:20:00,METAR EDDB 210720Z AUTO 06006KT 3700 BR OVC005 06/05 Q1020 BECMG 5000 BKN010
2026-03-21 06:50:00,METAR EDDB 210650Z AUTO 05006KT 3200 BR OVC004 06/05 Q1020 BECMG 5000 BKN005
2026-03-21 06:20:00,METAR EDDB 210620Z AUTO 04005KT 2700 BR OVC004 06/05 Q1020 TEMPO 3000 BR BKN002
2026-03-21 05:50:00,METAR EDDB 210550Z AUTO 05005KT 020V080 2700 BR BKN004 06/05 Q1020 TEMPO 2000 BR BKN002
2026-03-21 05:20:00,METAR EDDB 210520Z AUTO 06006KT 3500 BR OVC004 06/05 Q1020 TEMPO 2000 BR BKN002
2026-03-21 04:50:00,METAR EDDB 210450Z COR AUTO 05006KT 4000 BR OVC003 06/05 Q1019 TEMPO 1300 BR BKN002
2026-03-21 04:20:00,METAR EDDB 210420Z AUTO 05005KT 3500 BR BKN003 06/05 Q1019 TEMPO 0300 FG BKN002
2026-03-21 03:50:00,METAR EDDB 210350Z AUTO 05004KT 3800 BR BKN003 06/05 Q1020 TEMPO 0300 FG BKN002
2026-03-21 03:20:00,METAR EDDB 210320Z AUTO 05004KT 4000 BR OVC004 06/05 Q1020 TEMPO 0300 FG BKN002
2026-03-21 02:50:00,METAR EDDB 210250Z AUTO 07005KT 3900 BR BKN004 05/05 Q1020 TEMPO 0300 FG BKN002
2026-03-21 02:20:00,METAR EDDB 210220Z AUTO 06004KT 2500 BR OVC002 05/05 Q1020 TEMPO 0300 FG BKN002
2026-03-21 01:50:00,METAR EDDB 210150Z AUTO 07005KT 2700 BR OVC002 05/05 Q1020 TEMPO 0300 FG BKN002
2026-03-21 01:20:00,METAR EDDB 210120Z AUTO 06005KT 040V110 2400 BR OVC002 05/05 Q1020 TEMPO 0300 FG BKN002
2026-03-21 00:50:00,METAR EDDB 210050Z AUTO 06006KT 1600 1100 R06L/P2000N R06R/1900N BR OVC002 05/05 Q1020 TEMPO 0300 FG BKN002
2026-03-21 00:20:00,METAR EDDB 210020Z AUTO 06006KT 030V090 0900 0550 R06L/1500N R06R/1000D FG OVC002 05/05 Q1020 TEMPO 0300 FG BKN002
2026-03-20 23:50:00,METAR EDDB 202350Z AUTO 05005KT 2400 0900 R06L/P2000N R06R/P2000N BCFG BKN002 05/05 Q1020 TEMPO 0300 FG BKN002
2026-03-20 23:20:00,METAR EDDB 202320Z AUTO 04004KT 3500 BR BKN003 OVC028 04/04 Q1020 TEMPO 0300 FG BKN002
2026-03-20 22:50:00,METAR EDDB 202250Z AUTO 05005KT 030V090 5000 BR SCT004 BKN033 04/03 Q1020 TEMPO 0300 FG BKN002
2026-03-20 22:20:00,METAR EDDB 202220Z AUTO 05003KT 5000 1300 R06L/P2000N R06R/P2000N BR NCD 04/03 Q1020 TEMPO 0300 FG BKN007
2026-03-20 21:50:00,METAR EDDB 202150Z AUTO 02005KT 7000 NCD 04/03 Q1020 TEMPO 0300 FG BKN007
2026-03-20 21:20:00,METAR EDDB 202120Z AUTO 03004KT 6000 0450 R06L/P2000N R06R/P2000N BCFG NCD 05/04 Q1020 TEMPO 0300 FG BKN007
2026-03-20 20:50:00,METAR EDDB 202050Z AUTO 04004KT 7000 FEW007 05/04 Q1020 BECMG 4000 BR BKN007
2026-03-20 20:20:00,METAR EDDB 202020Z AUTO 05006KT 7000 SCT007 BKN015 06/05 Q1021 BECMG 4000 BR BKN007
2026-03-20 19:50:00,METAR EDDB 201950Z AUTO 06005KT 7000 FEW008 BKN015 06/05 Q1020 BECMG BKN012
2026-03-20 19:20:00,METAR EDDB 201920Z AUTO 06005KT 8000 SCT015 SCT022 06/05 Q1020 BECMG BKN012
2026-03-20 18:50:00,METAR EDDB 201850Z AUTO 05007KT 9999 FEW011 06/05 Q1020 NOSIG
2026-03-20 18:20:00,METAR EDDB 201820Z AUTO 04006KT 9999 SCT012 BKN043 07/06 Q1020 NOSIG
2026-03-20 17:50:00,METAR EDDB 201750Z AUTO 05006KT 9999 BKN043 06/05 Q1020 NOSIG
2026-03-20 17:20:00,METAR EDDB 201720Z AUTO 05006KT 9999 BKN043 07/05 Q1020 NOSIG
2026-03-20 16:50:00,METAR EDDB 201650Z AUTO 06006KT 9999 FEW036 BKN043 08/05 Q1020 NOSIG
2026-03-20 16:20:00,METAR EDDB 201620Z AUTO 07007KT 9999 -RA FEW015 BKN038 BKN048 09/06 Q1020 NOSIG
2026-03-20 15:50:00,METAR EDDB 201550Z AUTO 05008KT 9999 VCSH BKN038 BKN046 FEW///TCU 10/04 Q1020 NOSIG
2026-03-20 15:20:00,METAR EDDB 201520Z AUTO 05007KT 020V080 9999 BKN039 BKN047 11/04 Q1019 NOSIG
2026-03-20 14:50:00,METAR EDDB 201450Z AUTO 04006KT 360V070 9999 BKN041 11/04 Q1019 NOSIG
2026-03-20 14:20:00,METAR EDDB 201420Z AUTO 35006KT 300V030 9999 FEW037 SCT044 11/03 Q1019 NOSIG
2026-03-20 13:50:00,METAR EDDB 201350Z AUTO VRB04KT 9999 FEW036 11/04 Q1020 NOSIG
2026-03-20 13:20:00,METAR EDDB 201320Z AUTO 07004KT 350V110 9999 FEW036 11/04 Q1020 NOSIG
2026-03-20 12:50:00,METAR EDDB 201250Z AUTO 04006KT 350V100 CAVOK 11/03 Q1020 NOSIG
2026-03-20 12:20:00,METAR EDDB 201220Z AUTO 05006KT 360V080 CAVOK 11/03 Q1020 NOSIG
2026-03-20 11:50:00,METAR EDDB 201150Z AUTO 01008KT 320V040 9999 FEW030 11/02 Q1020 NOSIG
2026-03-20 11:20:00,METAR EDDB 201120Z AUTO 36008KT 330V030 9999 FEW025 SCT029 11/04 Q1021 NOSIG
2026-03-20 10:50:00,METAR EDDB 201050Z AUTO VRB02KT 9999 SCT023 11/05 Q1021 NOSIG
2026-03-20 10:20:00,METAR EDDB 201020Z AUTO 01003KT 300V090 9999 FEW014 10/05 Q1021 BECMG SCT013
2026-03-20 09:50:00,METAR EDDB 200950Z AUTO VRB03KT 9999 SCT011 10/05 Q1021 NOSIG
2026-03-20 09:20:00,METAR EDDB 200920Z AUTO 03006KT 350V080 9999 OVC009 08/05 Q1021 BECMG SCT013
2026-03-20 08:50:00,METAR EDDB 200850Z AUTO 03007KT 360V060 9999 OVC007 07/05 Q1021 BECMG SCT013
2026-03-20 08:20:00,METAR EDDB 200820Z AUTO 03006KT 350V060 9999 OVC008 07/05 Q1021 BECMG SCT013
2026-03-20 07:50:00,METAR EDDB 200750Z AUTO 02007KT 9999 BKN009 07/05 Q1021 BECMG SCT013
2026-03-20 07:20:00,METAR EDDB 200720Z AUTO 01004KT 320V040 9999 FEW009 08/05 Q1021 TEMPO BKN008
2026-03-20 06:50:00,METAR EDDB 200650Z AUTO 01004KT 9999 BKN047 07/05 Q1020 TEMPO SCT005 BKN013
2026-03-20 06:20:00,METAR EDDB 200620Z AUTO 01006KT 9999 OVC048 07/05 Q1020 TEMPO SCT005 BKN013
2026-03-20 05:50:00,METAR EDDB 200550Z AUTO VRB02KT 9999 OVC048 07/04 Q1020 TEMPO SCT005 BKN013
2026-03-20 05:20:00,METAR EDDB 200520Z AUTO VRB02KT 9999 BKN049 07/04 Q1020 TEMPO SCT005 BKN013
2026-03-20 04:50:00,METAR EDDB 200450Z AUTO 35003KT 320V080 9999 FEW033 SCT046 07/04 Q1020 NOSIG
2026-03-20 04:20:00,METAR EDDB 200420Z AUTO 02004KT 350V050 9999 FEW034 07/03 Q1020 NOSIG
2026-03-20 03:50:00,METAR EDDB 200350Z AUTO 35003KT CAVOK 07/03 Q1020 NOSIG
2026-03-20 03:20:00,METAR EDDB 200320Z AUTO 35003KT CAVOK 07/02 Q1020 NOSIG
2026-03-20 02:50:00,METAR EDDB 200250Z COR AUTO 36005KT CAVOK 07/02 Q1020 TEMPO -RA
2026-03-20 02:20:00,METAR EDDB 200220Z AUTO 34004KT 300V360 CAVOK 05/01 Q1020 NOSIG
2026-03-20 01:50:00,METAR EDDB 200150Z AUTO 36003KT CAVOK 03/01 Q1020 NOSIG
2026-03-20 01:20:00,METAR EDDB 200120Z AUTO VRB02KT CAVOK 04/01 Q1020 NOSIG
2026-03-20 00:50:00,METAR EDDB 200050Z AUTO 27002KT CAVOK 05/01 Q1020 NOSIG
2026-03-20 00:20:00,METAR EDDB 200020Z AUTO 29002KT CAVOK 06/02 Q1021 NOSIG
2026-03-19 23:50:00,METAR EDDB 192350Z AUTO 28002KT CAVOK 06/02 Q1021 NOSIG
2026-03-19 23:20:00,METAR EDDB 192320Z AUTO VRB02KT CAVOK 06/02 Q1021 NOSIG
2026-03-19 22:50:00,METAR EDDB 192250Z AUTO 30001KT CAVOK 06/02 Q1021 NOSIG
2026-03-19 22:20:00,METAR EDDB 192220Z AUTO 00000KT CAVOK 06/02 Q1021 NOSIG
2026-03-19 21:50:00,METAR EDDB 192150Z AUTO 29003KT CAVOK 05/01 Q1022 NOSIG
2026-03-19 21:20:00,METAR EDDB 192120Z AUTO 27002KT CAVOK 06/01 Q1022 NOSIG
2026-03-19 20:50:00,METAR EDDB 192050Z AUTO VRB01KT CAVOK 06/01 Q1022 NOSIG
2026-03-19 20:20:00,METAR EDDB 192020Z AUTO 32003KT 300V040 CAVOK 06/01 Q1022 NOSIG
2026-03-19 19:50:00,METAR EDDB 191950Z AUTO 32004KT CAVOK 07/01 Q1022 NOSIG
2026-03-19 19:20:00,METAR EDDB 191920Z AUTO 30003KT CAVOK 08/01 Q1022 NOSIG
2026-03-19 18:50:00,METAR EDDB 191850Z AUTO 29003KT CAVOK 08/01 Q1022 NOSIG
2026-03-19 18:20:00,METAR EDDB 191820Z AUTO 32004KT 270V330 CAVOK 10/00 Q1022 NOSIG
2026-03-19 17:50:00,METAR EDDB 191750Z AUTO 35003KT CAVOK 11/01 Q1022 NOSIG
2026-03-19 17:20:00,METAR EDDB 191720Z AUTO 01004KT CAVOK 12/01 Q1022 NOSIG
2026-03-19 16:50:00,METAR EDDB 191650Z AUTO 03006KT CAVOK 13/01 Q1023 NOSIG
2026-03-19 16:20:00,METAR EDDB 191620Z AUTO 01008KT CAVOK 14/02 Q1023 NOSIG
2026-03-19 15:50:00,METAR EDDB 191550Z AUTO 32006KT 290V360 CAVOK 15/01 Q1023 NOSIG
2026-03-19 15:20:00,METAR EDDB 191520Z AUTO 32005KT 280V080 CAVOK 15/01 Q1023 NOSIG
2026-03-19 14:50:00,METAR EDDB 191450Z AUTO 03004KT CAVOK 15/01 Q1023 NOSIG
2026-03-19 14:20:00,METAR EDDB 191420Z AUTO 28004KT 210V320 CAVOK 16/02 Q1023 NOSIG
2026-03-19 13:50:00,METAR EDDB 191350Z AUTO VRB04KT CAVOK 15/01 Q1024 NOSIG
2026-03-19 13:20:00,METAR EDDB 191320Z AUTO VRB04KT CAVOK 15/01 Q1024 NOSIG
2026-03-19 12:50:00,METAR EDDB 191250Z AUTO 33005KT 270V070 CAVOK 15/01 Q1025 NOSIG
2026-03-19 12:20:00,METAR EDDB 191220Z AUTO VRB02KT CAVOK 15/01 Q1025 NOSIG
2026-03-19 11:50:00,METAR EDDB 191150Z AUTO VRB03KT CAVOK 15/02 Q1026 NOSIG
2026-03-19 11:20:00,METAR EDDB 191120Z AUTO 34006KT 290V020 CAVOK 15/02 Q1026 NOSIG
2026-03-19 10:50:00,METAR EDDB 191050Z AUTO 03003KT CAVOK 14/02 Q1027 NOSIG
2026-03-19 10:20:00,METAR EDDB 191020Z AUTO 02005KT 330V070 CAVOK 14/02 Q1027 NOSIG
2026-03-19 09:50:00,METAR EDDB 190950Z AUTO 35004KT 280V050 CAVOK 13/02 Q1027 NOSIG
2026-03-19 09:20:00,METAR EDDB 190920Z AUTO 36003KT 310V070 CAVOK 13/03 Q1028 NOSIG
2026-03-19 08:50:00,METAR EDDB 190850Z AUTO VRB02KT CAVOK 12/04 Q1028 NOSIG
2026-03-19 08:20:00,METAR EDDB 190820Z AUTO VRB02KT CAVOK 11/03 Q1028 NOSIG
2026-03-19 07:50:00,METAR EDDB 190750Z AUTO VRB02KT CAVOK 08/03 Q1028 NOSIG
2026-03-19 07:20:00,METAR EDDB 190720Z AUTO VRB01KT CAVOK 07/02 Q1028 NOSIG
2026-03-19 06:50:00,METAR EDDB 190650Z AUTO VRB01KT CAVOK 04/02 Q1028 NOSIG
2026-03-19 06:20:00,METAR EDDB 190620Z AUTO 01002KT CAVOK 02/01 Q1028 NOSIG
2026-03-19 05:50:00,METAR EDDB 190550Z AUTO 02001KT CAVOK 01/00 Q1028 NOSIG
2026-03-19 05:20:00,METAR EDDB 190520Z AUTO 03002KT CAVOK M00/M01 Q1028 NOSIG
2026-03-19 04:50:00,METAR EDDB 190450Z AUTO 06002KT 9000 NSC 00/M00 Q1028 NOSIG
2026-03-19 04:20:00,METAR EDDB 190420Z AUTO 08001KT CAVOK 00/M00 Q1028 NOSIG
2026-03-19 03:50:00,METAR EDDB 190350Z AUTO 03001KT CAVOK 01/M00 Q1028 NOSIG
2026-03-19 03:20:00,METAR EDDB 190320Z AUTO 02003KT CAVOK 01/M01 Q1028 NOSIG
2026-03-19 02:50:00,METAR EDDB 190250Z AUTO 36002KT CAVOK 02/00 Q1028 NOSIG
2026-03-19 02:20:00,METAR EDDB 190220Z AUTO 07002KT CAVOK 01/M00 Q1028 NOSIG
2026-03-19 01:50:00,METAR EDDB 190150Z AUTO 05004KT CAVOK 01/M00 Q1029 NOSIG
2026-03-19 01:20:00,METAR EDDB 190120Z AUTO VRB02KT CAVOK 03/01 Q1029 NOSIG
2026-03-19 00:50:00,METAR EDDB 190050Z AUTO VRB01KT CAVOK 03/01 Q1029 NOSIG
2026-03-19 00:20:00,METAR EDDB 190020Z AUTO VRB02KT CAVOK 02/00 Q1029 NOSIG
2026-03-18 23:50:00,METAR EDDB 182350Z AUTO 07003KT CAVOK 03/01 Q1029 NOSIG
2026-03-18 23:20:00,METAR EDDB 182320Z AUTO 06004KT CAVOK 04/01 Q1029 NOSIG
2026-03-18 22:50:00,METAR EDDB 182250Z AUTO 07005KT CAVOK 04/01 Q1029 NOSIG
2026-03-18 22:20:00,METAR EDDB 182220Z AUTO 06006KT CAVOK 05/01 Q1030 NOSIG
2026-03-18 21:50:00,METAR EDDB 182150Z AUTO 06006KT CAVOK 06/01 Q1030 NOSIG
2026-03-18 21:20:00,METAR EDDB 182120Z AUTO 06006KT CAVOK 06/01 Q1030 NOSIG
2026-03-18 20:50:00,METAR EDDB 182050Z AUTO 06005KT CAVOK 07/02 Q1030 NOSIG
2026-03-18 20:20:00,METAR EDDB 182020Z AUTO 07005KT CAVOK 07/02 Q1030 NOSIG
2026-03-18 19:50:00,METAR EDDB 181950Z AUTO 06005KT CAVOK 07/02 Q1030 NOSIG
2026-03-18 19:20:00,METAR EDDB 181920Z AUTO 06005KT CAVOK 07/02 Q1029 NOSIG
2026-03-18 18:50:00,METAR EDDB 181850Z AUTO 07004KT CAVOK 08/02 Q1029 NOSIG
2026-03-18 18:20:00,METAR EDDB 181820Z AUTO 06005KT CAVOK 09/02 Q1029 NOSIG
2026-03-18 17:50:00,METAR EDDB 181750Z AUTO 06004KT CAVOK 09/02 Q1029 NOSIG
2026-03-18 17:20:00,METAR EDDB 181720Z AUTO 06006KT CAVOK 10/02 Q1029 NOSIG
2026-03-18 16:50:00,METAR EDDB 181650Z AUTO 07007KT CAVOK 12/03 Q1029 NOSIG
2026-03-18 16:20:00,METAR EDDB 181620Z AUTO 07007KT CAVOK 13/03 Q1029 NOSIG
2026-03-18 15:50:00,METAR EDDB 181550Z AUTO 07007KT CAVOK 13/03 Q1029 NOSIG
2026-03-18 15:20:00,METAR EDDB 181520Z AUTO 09008KT CAVOK 14/03 Q1029 NOSIG
2026-03-18 14:50:00,METAR EDDB 181450Z AUTO 08007KT 040V120 CAVOK 14/03 Q1029 NOSIG
2026-03-18 14:20:00,METAR EDDB 181420Z AUTO 10007KT 060V150 CAVOK 14/02 Q1029 NOSIG
2026-03-18 13:50:00,METAR EDDB 181350Z AUTO 10008KT 040V140 CAVOK 15/03 Q1030 NOSIG
2026-03-18 13:20:00,METAR EDDB 181320Z AUTO 09008KT 050V130 CAVOK 14/02 Q1030 NOSIG
2026-03-18 12:50:00,METAR EDDB 181250Z AUTO 13008KT CAVOK 14/02 Q1030 NOSIG
2026-03-18 12:20:00,METAR EDDB 181220Z AUTO 12008KT 080V190 CAVOK 14/02 Q1030 NOSIG
2026-03-18 11:50:00,METAR EDDB 181150Z AUTO 12008KT 080V150 CAVOK 14/02 Q1031 NOSIG
2026-03-18 11:20:00,METAR EDDB 181120Z AUTO 10008KT 070V160 CAVOK 13/02 Q1031 NOSIG
2026-03-18 10:50:00,METAR EDDB 181050Z AUTO 09009KT 060V120 CAVOK 13/02 Q1031 NOSIG
2026-03-18 10:20:00,METAR EDDB 181020Z AUTO 09008KT CAVOK 12/02 Q1031 NOSIG
2026-03-18 09:50:00,METAR EDDB 180950Z AUTO 10008KT 050V130 CAVOK 11/02 Q1031 NOSIG
2026-03-18 09:20:00,METAR EDDB 180920Z AUTO 13010KT CAVOK 11/02 Q1031 NOSIG
2026-03-18 08:50:00,METAR EDDB 180850Z AUTO 11007KT 070V140 CAVOK 09/02 Q1031 NOSIG
2026-03-18 08:20:00,METAR EDDB 180820Z AUTO 10006KT CAVOK 07/01 Q1031 NOSIG
2026-03-18 07:50:00,METAR EDDB 180750Z AUTO 10006KT CAVOK 06/01 Q1031 NOSIG
2026-03-18 07:20:00,METAR EDDB 180720Z AUTO 09003KT CAVOK 04/01 Q1031 NOSIG
2026-03-18 06:50:00,METAR EDDB 180650Z AUTO 09004KT CAVOK 02/M00 Q1031 NOSIG
2026-03-18 06:20:00,METAR EDDB 180620Z AUTO 09007KT CAVOK 00/M01 Q1030 NOSIG
2026-03-18 05:50:00,METAR EDDB 180550Z AUTO 10005KT CAVOK M01/M02 Q1030 NOSIG
2026-03-18 05:20:00,METAR EDDB 180520Z AUTO 09003KT CAVOK M02/M03 Q1030 NOSIG
2026-03-18 04:50:00,METAR EDDB 180450Z AUTO 07004KT CAVOK M02/M03 Q1029 NOSIG
2026-03-18 04:20:00,METAR EDDB 180420Z AUTO 08004KT CAVOK M02/M02 Q1029 NOSIG
2026-03-18 03:50:00,METAR EDDB 180350Z AUTO 08004KT CAVOK M02/M03 Q1029 NOSIG
2026-03-18 03:20:00,METAR EDDB 180320Z AUTO 07003KT CAVOK M01/M03 Q1029 NOSIG
2026-03-18 02:50:00,METAR EDDB 180250Z AUTO 09003KT CAVOK M01/M02 Q1029 NOSIG
2026-03-18 02:20:00,METAR EDDB 180220Z AUTO 12003KT CAVOK M01/M02 Q1029 NOSIG
2026-03-18 01:50:00,METAR EDDB 180150Z AUTO VRB02KT CAVOK M01/M02 Q1028 NOSIG
2026-03-18 01:20:00,METAR EDDB 180120Z AUTO 11004KT CAVOK M01/M02 Q1029 NOSIG
2026-03-18 00:50:00,METAR EDDB 180050Z AUTO 09004KT CAVOK M00/M02 Q1029 NOSIG
2026-03-18 00:20:00,METAR EDDB 180020Z AUTO 10003KT CAVOK 00/M01 Q1028 NOSIG
2026-03-17 23:50:00,METAR EDDB 172350Z AUTO 11004KT CAVOK 01/M01 Q1028 NOSIG
2026-03-17 23:20:00,METAR EDDB 172320Z AUTO 11003KT CAVOK 01/M01 Q1028 NOSIG
2026-03-17 22:50:00,METAR EDDB 172250Z AUTO 10005KT CAVOK 01/M01 Q1028 NOSIG
2026-03-17 22:20:00,METAR EDDB 172220Z AUTO 10003KT CAVOK 02/M01 Q1027 NOSIG
2026-03-17 21:50:00,METAR EDDB 172150Z AUTO 09003KT CAVOK 02/M01 Q1027 NOSIG
2026-03-17 21:20:00,METAR EDDB 172120Z AUTO 11004KT CAVOK 03/M01 Q1027 NOSIG
2026-03-17 20:50:00,METAR EDDB 172050Z AUTO 10005KT CAVOK 03/M01 Q1027 NOSIG
2026-03-17 20:20:00,METAR EDDB 172020Z AUTO 10006KT CAVOK 03/M01 Q1027 NOSIG
2026-03-17 19:50:00,METAR EDDB 171950Z AUTO 10005KT CAVOK 03/M01 Q1026 NOSIG
2026-03-17 19:20:00,METAR EDDB 171920Z AUTO 10006KT CAVOK 04/M01 Q1026 NOSIG
2026-03-17 18:50:00,METAR EDDB 171850Z AUTO 10006KT CAVOK 05/M01 Q1026 NOSIG
2026-03-17 18:20:00,METAR EDDB 171820Z AUTO 12004KT CAVOK 06/M01 Q1026 NOSIG
2026-03-17 17:50:00,METAR EDDB 171750Z AUTO 12005KT CAVOK 07/M01 Q1025 NOSIG
2026-03-17 17:20:00,METAR EDDB 171720Z AUTO 13005KT CAVOK 08/M01 Q1025 NOSIG
2026-03-17 16:50:00,METAR EDDB 171650Z AUTO 12007KT CAVOK 09/M02 Q1024 NOSIG
2026-03-17 16:20:00,METAR EDDB 171620Z AUTO 10006KT 070V130 CAVOK 10/M01 Q1024 NOSIG
2026-03-17 15:50:00,METAR EDDB 171550Z AUTO 11006KT 070V160 CAVOK 11/M01 Q1024 NOSIG
2026-03-17 15:20:00,METAR EDDB 171520Z AUTO 18005KT 080V210 CAVOK 11/M00 Q1024 NOSIG
2026-03-17 14:50:00,METAR EDDB 171450Z AUTO VRB02KT CAVOK 11/M01 Q1024 NOSIG
2026-03-17 14:20:00,METAR EDDB 171420Z AUTO VRB04KT CAVOK 12/M00 Q1024 NOSIG
2026-03-17 13:50:00,METAR EDDB 171350Z AUTO 11004KT 020V180 CAVOK 11/M00 Q1024 NOSIG
2026-03-17 13:20:00,METAR EDDB 171320Z AUTO 20005KT 120V240 CAVOK 11/00 Q1024 NOSIG
2026-03-17 12:50:00,METAR EDDB 171250Z AUTO 16004KT 100V250 9999 FEW041 11/M00 Q1024 NOSIG
2026-03-17 12:20:00,METAR EDDB 171220Z AUTO VRB02KT 9999 FEW038 11/02 Q1024 NOSIG
2026-03-17 11:50:00,METAR EDDB 171150Z AUTO 31003KT 260V030 9999 BKN037 11/02 Q1024 NOSIG
2026-03-17 11:20:00,METAR EDDB 171120Z AUTO VRB02KT 9999 SCT035 10/01 Q1024 NOSIG
2026-03-17 10:50:00,METAR EDDB 171050Z AUTO 17003KT 9999 FEW034 10/01 Q1024 NOSIG
2026-03-17 10:20:00,METAR EDDB 171020Z AUTO VRB03KT 9999 FEW031 10/01 Q1024 NOSIG
2026-03-17 09:50:00,METAR EDDB 170950Z AUTO 16003KT 110V260 CAVOK 09/M00 Q1024
2026-03-17 09:20:00,METAR EDDB 170920Z AUTO VRB02KT CAVOK 08/03 Q1024
2026-03-17 08:50:00,METAR EDDB 170850Z AUTO VRB02KT CAVOK 07/03 Q1024
2026-03-17 08:20:00,METAR EDDB 170820Z AUTO VRB02KT CAVOK 06/02 Q1023
2026-03-17 07:50:00,METAR EDDB 170750Z AUTO 17003KT 130V190 9999 FEW036 04/02 Q1024
2026-03-17 07:20:00,METAR EDDB 170720Z AUTO 17003KT 140V230 9999 BKN037 02/01 Q1023
2026-03-17 06:50:00,METAR EDDB 170650Z AUTO 21003KT 9999 BKN036 01/00 Q1023
2026-03-17 06:20:00,METAR EDDB 170620Z COR AUTO 18003KT 140V220 7000 FEW036 00/M00 Q1023 NOSIG
2026-03-17 05:50:00,METAR EDDB 170550Z AUTO 22003KT 1100 0300 R24R/P2000N R24L/1700D BCFG NCD M01/M02 Q1022 BECMG 6000
2026-03-17 05:20:00,METAR EDDB 170520Z AUTO 22004KT 1200 0600 R24R/P2000N R24L/0900D BCFG NCD M01/M02 Q1022 TEMPO 2000 BCFG
2026-03-17 04:50:00,METAR EDDB 170450Z AUTO 20003KT 5000 BR NCD M01/M02 Q1022 TEMPO 2000 BCFG
2026-03-17 04:20:00,METAR EDDB 170420Z AUTO 20003KT 6000 0550 R24R/P2000N R24L/P2000N BCFG NCD M02/M03 Q1022 TEMPO 2000 BCFG
2026-03-17 03:50:00,METAR EDDB 170350Z AUTO VRB02KT 7000 2100 BR NCD M02/M02 Q1021 TEMPO 2000 BCFG
2026-03-17 03:20:00,METAR EDDB 170320Z AUTO 24002KT 1900 0450 R24R/1500U R24L/1000U BCFG NCD M01/M01 Q1021 TEMPO 0900 FZFG
2026-03-17 02:50:00,METAR EDDB 170250Z AUTO 25002KT 4700 0700 R24R/P2000N R24L/1900N BCFG NCD M01/M01 Q1021 NOSIG
2026-03-17 02:20:00,METAR EDDB 170220Z AUTO 24005KT 9999 1600 BR NCD M02/M02 Q1021 NOSIG
2026-03-17 01:50:00,METAR EDDB 170150Z AUTO 25004KT 9999 0900 R24R/P2000N R24L/P2000N BCFG NCD M01/M02 Q1020 NOSIG
2026-03-17 01:20:00,METAR EDDB 170120Z AUTO 26005KT 9999 0700 R24R/P2000N R24L/P2000N BCFG NCD M01/M02 Q1020 NOSIG
2026-03-17 00:50:00,METAR EDDB 170050Z AUTO 24005KT CAVOK M01/M02 Q1020 NOSIG
2026-03-17 00:20:00,METAR EDDB 170020Z AUTO 25007KT CAVOK M01/M02 Q1020 NOSIG
2026-03-16 23:50:00,METAR EDDB 162350Z AUTO 27007KT CAVOK M01/M01 Q1019 NOSIG
2026-03-16 23:20:00,METAR EDDB 162320Z AUTO 26007KT CAVOK 00/M01 Q1019 NOSIG
2026-03-16 22:50:00,METAR EDDB 162250Z AUTO 28008KT CAVOK 01/01 Q1019 NOSIG
2026-03-16 22:20:00,METAR EDDB 162220Z AUTO 27007KT CAVOK 02/01 Q1019 NOSIG
2026-03-16 21:50:00,METAR EDDB 162150Z AUTO 27007KT CAVOK 02/01 Q1018 NOSIG
2026-03-16 21:20:00,METAR EDDB 162120Z AUTO 27008KT CAVOK 02/01 Q1018 NOSIG
2026-03-16 20:50:00,METAR EDDB 162050Z AUTO 26007KT CAVOK 02/01 Q1018 NOSIG
2026-03-16 20:20:00,METAR EDDB 162020Z AUTO 25007KT CAVOK 02/01 Q1017 NOSIG
2026-03-16 19:50:00,METAR EDDB 161950Z AUTO 23007KT CAVOK 04/03 Q1017 NOSIG
2026-03-16 19:20:00,METAR EDDB 161920Z AUTO 24008KT 9999 VCSH FEW019 FEW///TCU 05/03 Q1016 RESHRA NOSIG
2026-03-16 18:50:00,METAR EDDB 161850Z AUTO 23005KT 9999 -SHRA SCT018 BKN035 BKN048 FEW///CB 05/03 Q1016 RESHRA NOSIG
2026-03-16 18:20:00,METAR EDDB 161820Z AUTO 25006KT 9999 VCSH SCT024 BKN031 BKN041 FEW///TCU 04/03 Q1016 NOSIG
2026-03-16 17:50:00,METAR EDDB 161750Z AUTO 26005KT 9999 FEW019 BKN030 05/03 Q1015 NOSIG
2026-03-16 17:20:00,METAR EDDB 161720Z AUTO 28008KT 9999 FEW016 BKN044 05/03 Q1015 NOSIG
2026-03-16 16:50:00,METAR EDDB 161650Z AUTO 28010KT 9999 SCT018 06/03 Q1014 NOSIG
2026-03-16 16:20:00,METAR EDDB 161620Z AUTO 28009KT 9999 FEW039 06/03 Q1014 NOSIG
2026-03-16 15:50:00,METAR EDDB 161550Z AUTO 30012KT 9999 SCT016 BKN032 06/03 Q1013 NOSIG
2026-03-16 15:20:00,METAR EDDB 161520Z AUTO 27014KT 9999 VCSH SCT017 SCT033 FEW///TCU 06/04 Q1013 RESHRA TEMPO 27015G25KT SHRA
2026-03-16 14:50:00,METAR EDDB 161450Z AUTO 27008KT 9999 SHRA SCT026 BKN036 BKN045 SCT///CB 06/04 Q1012 TEMPO 27015G25KT
2026-03-16 14:20:00,METAR EDDB 161420Z AUTO 27008KT 9999 SHRA SCT023 BKN033 BKN045 FEW///CB 08/04 Q1011 TEMPO 27020G30KT BKN013
2026-03-16 13:50:00,METAR EDDB 161350Z AUTO 25010KT 9999 SCT021 SCT026 BKN037 09/06 Q1011 TEMPO 27020G30KT SHRA BKN013CB
2026-03-16 13:20:00,METAR EDDB 161320Z AUTO 25011KT 9999 -SHRA BKN018 BKN024 OVC031 FEW///TCU 07/05 Q1011 TEMPO 25020G30KT SHRA BKN013
2026-03-16 12:50:00,METAR EDDB 161250Z AUTO 25014KT 9999 -SHRA SCT013 BKN018 BKN029 FEW///CB 07/05 Q1011 RESHRA TEMPO 25020G30KT SHRA
2026-03-16 12:20:00,METAR EDDB 161220Z AUTO 23012KT 9999 SHRA SCT012 BKN022 BKN030 FEW///CB 06/05 Q1011 TEMPO 26015G25KT NSW BKN011
2026-03-16 11:50:00,METAR EDDB 161150Z AUTO 22011KT 9000 SHRA FEW011 BKN019 OVC024 SCT///TCU 06/05 Q1011
2026-03-16 11:20:00,METAR EDDB 161120Z AUTO 22011KT 9999 -RA FEW013 OVC022 06/04 Q1011 TEMPO SHRA BKN014
2026-03-16 10:50:00,METAR EDDB 161050Z AUTO 22012KT 9999 -SHRA BKN014 OVC021 FEW///TCU 05/03 Q1010 NOSIG
2026-03-16 10:20:00,METAR EDDB 161020Z AUTO 23013KT 9999 -SHRA SCT015 BKN022 FEW///TCU 05/03 Q1010 RESHRA TEMPO RA
2026-03-16 09:50:00,METAR EDDB 160950Z AUTO 23017KT 9999 -SHRA BKN018 OVC032 FEW///TCU 06/03 Q1010 TEMPO 23015G25KT RA BKN011
2026-03-16 09:20:00,METAR EDDB 160920Z AUTO 23016KT 9999 OVC022 06/02 Q1010 TEMPO 23015G25KT RA BKN014
2026-03-16 08:50:00,METAR EDDB 160850Z AUTO 21016KT 9999 BKN026 BKN034 07/02 Q1010 TEMPO 23015G25KT
2026-03-16 08:20:00,METAR EDDB 160820Z AUTO 20013KT 9999 SCT034 07/02 Q1010 NOSIG
2026-03-16 07:50:00,METAR EDDB 160750Z AUTO 19011KT 9999 FEW037 06/03 Q1010 NOSIG
2026-03-16 07:20:00,METAR EDDB 160720Z AUTO 17013KT CAVOK 06/04 Q1010 NOSIG
2026-03-16 06:50:00,METAR EDDB 160650Z AUTO 17011KT CAVOK 05/04 Q1010 NOSIG
2026-03-16 06:20:00,METAR EDDB 160620Z AUTO 16010KT 9000 FEW001 04/03 Q1010 TEMPO 1200 BCFG BKN002
2026-03-16 05:50:00,METAR EDDB 160550Z AUTO 16009KT 7000 FEW002 03/03 Q1010 TEMPO 1200 BCFG BKN002
2026-03-16 05:20:00,METAR EDDB 160520Z AUTO 16008KT CAVOK 02/02 Q1011 BECMG 20013KT
2026-03-16 04:50:00,METAR EDDB 160450Z AUTO 16007KT CAVOK 02/02 Q1011 TEMPO 4000 BR
2026-03-16 04:20:00,METAR EDDB 160420Z AUTO 16006KT CAVOK 02/02 Q1011 TEMPO 4000 BR
2026-03-16 03:50:00,METAR EDDB 160350Z AUTO 15008KT CAVOK 02/02 Q1011 TEMPO 4000 BR
2026-03-16 03:20:00,METAR EDDB 160320Z AUTO 16006KT 9999 FEW031 02/01 Q1012 TEMPO 4000 BR
2026-03-16 02:50:00,METAR EDDB 160250Z AUTO 16005KT CAVOK 02/02 Q1012 TEMPO 4000 BR
2026-03-16 02:20:00,METAR EDDB 160220Z AUTO 14004KT 9999 FEW041 00/00 Q1013 TEMPO 4000 BR
2026-03-16 01:50:00,METAR EDDB 160150Z AUTO 16005KT 9000 NSC 00/00 Q1013 TEMPO 4000 BR
2026-03-16 01:20:00,METAR EDDB 160120Z AUTO 17004KT 9999 1000 R24R/P2000N R24L/P2000N BR NSC 01/01 Q1014 TEMPO 4000 BR
2026-03-16 00:50:00,METAR EDDB 160050Z AUTO 17006KT CAVOK 02/01 Q1014 NOSIG
2026-03-16 00:20:00,METAR EDDB 160020Z AUTO 18005KT CAVOK 01/01 Q1014 NOSIG
2026-03-15 23:50:00,METAR EDDB 152350Z AUTO 17005KT CAVOK 02/01 Q1015 NOSIG
2026-03-15 23:20:00,METAR EDDB 152320Z AUTO 18006KT CAVOK 03/02 Q1015 NOSIG
2026-03-15 22:50:00,METAR EDDB 152250Z AUTO 18005KT CAVOK 03/02 Q1015 NOSIG
2026-03-15 22:20:00,METAR EDDB 152220Z AUTO 19005KT CAVOK 04/02 Q1015 NOSIG
2026-03-15 21:50:00,METAR EDDB 152150Z AUTO 18004KT CAVOK 04/02 Q1016 NOSIG
2026-03-15 21:20:00,METAR EDDB 152120Z AUTO 17005KT CAVOK 04/02 Q1016 NOSIG
2026-03-15 20:50:00,METAR EDDB 152050Z AUTO 17005KT CAVOK 04/02 Q1016 NOSIG
2026-03-15 20:20:00,METAR EDDB 152020Z AUTO 18005KT CAVOK 05/02 Q1016 NOSIG
2026-03-15 19:50:00,METAR EDDB 151950Z AUTO 18004KT CAVOK 05/02 Q1016 NOSIG
2026-03-15 19:20:00,METAR EDDB 151920Z AUTO 23005KT 9999 SCT044 06/03 Q1016 NOSIG
2026-03-15 18:50:00,METAR EDDB 151850Z AUTO 24005KT 9999 BKN043 06/03 Q1016 NOSIG
2026-03-15 18:20:00,METAR EDDB 151820Z AUTO 24004KT 9999 BKN044 06/03 Q1016 NOSIG
2026-03-15 17:50:00,METAR EDDB 151750Z AUTO 23005KT 9999 FEW044 06/02 Q1016 NOSIG
2026-03-15 17:20:00,METAR EDDB 151720Z AUTO 24003KT 9999 BKN040 06/03 Q1016 NOSIG
2026-03-15 16:50:00,METAR EDDB 151650Z AUTO 27003KT 9999 BKN040 07/03 Q1016 NOSIG
2026-03-15 16:20:00,METAR EDDB 151620Z AUTO 26004KT 9999 BKN039 07/03 Q1016 NOSIG
2026-03-15 15:50:00,METAR EDDB 151550Z AUTO 25005KT 9999 FEW026 BKN039 07/03 Q1015 NOSIG
2026-03-15 15:20:00,METAR EDDB 151520Z AUTO 26005KT 230V290 9999 FEW021 BKN027 OVC036 08/03 Q1015 NOSIG
2026-03-15 14:50:00,METAR EDDB 151450Z AUTO 26004KT 9999 BKN023 BKN034 08/03 Q1015 NOSIG
2026-03-15 14:20:00,METAR EDDB 151420Z AUTO 26004KT 230V290 9999 SCT021 BKN031 08/03 Q1015 NOSIG
2026-03-15 13:50:00,METAR EDDB 151350Z AUTO 28005KT 240V310 9999 FEW018 BKN031 08/03 Q1015 NOSIG
2026-03-15 13:20:00,METAR EDDB 151320Z AUTO 27006KT 9999 FEW020 BKN027 BKN032 08/03 Q1015 NOSIG
2026-03-15 12:50:00,METAR EDDB 151250Z AUTO 28006KT 9999 BKN020 OVC027 08/03 Q1015 NOSIG
2026-03-15 12:20:00,METAR EDDB 151220Z AUTO 27005KT 230V300 9999 BKN020 BKN025 07/03 Q1015 NOSIG
2026-03-15 11:50:00,METAR EDDB 151150Z AUTO 30005KT 9999 BKN019 OVC025 08/03 Q1015 NOSIG
2026-03-15 11:20:00,METAR EDDB 151120Z AUTO 28005KT 250V320 9999 OVC019 07/03 Q1015 NOSIG
2026-03-15 10:50:00,METAR EDDB 151050Z AUTO VRB02KT 9999 OVC018 07/03 Q1015 NOSIG
2026-03-15 10:20:00,METAR EDDB 151020Z AUTO 31003KT 270V040 9999 OVC017 07/03 Q1014 NOSIG
2026-03-15 09:50:00,METAR EDDB 150950Z AUTO 34005KT 9999 OVC018 07/03 Q1014 NOSIG
2026-03-15 09:20:00,METAR EDDB 150920Z AUTO 34005KT 310V010 9999 BKN015 BKN020 06/03 Q1014 NOSIG
2026-03-15 08:50:00,METAR EDDB 150850Z AUTO 35006KT 320V020 9999 FEW012 BKN017 06/03 Q1014 TEMPO BKN013
2026-03-15 08:20:00,METAR EDDB 150820Z AUTO 34006KT 9999 BKN013 BKN017 OVC024 06/03 Q1013 TEMPO SCT015
