Time_recorded,METAR
2026-05-02 14:53:00,METAR KOPF 021453Z 18014G21KT 10SM SCT027 32/22 A2990 RMK AO2 SLP126 T03170217 53002
2026-05-02 13:56:00,SPECI KOPF 021356Z 19009KT 10SM SCT027 30/23 A2990 RMK AO2 T03000233
2026-05-02 13:53:00,METAR KOPF 021353Z 18012KT 10SM BKN027 30/23 A2990 RMK AO2 SLP124 T03000228
2026-05-02 12:53:00,METAR KOPF 021253Z 17011KT 10SM FEW019 28/23 A2990 RMK AO2 SLP125 T02830233
2026-05-02 11:53:00,METAR KOPF 021153Z 18006KT 10SM FEW022 SCT060 27/23 A2990 RMK AO2 SLP124 7//// T02720233 10272 20244 50001
2026-05-02 10:53:00,METAR KOPF 021053Z 18004KT 10SM BKN060 BKN075 26/23 A2990 RMK AO2 SLP125 T02610233
2026-05-02 09:53:00,METAR KOPF 020953Z AUTO 00000KT 10SM SCT026 OVC075 26/23 A2989 RMK AO2 SLP123 T02560233
2026-05-02 09:51:00,SPECI KOPF 020951Z AUTO 19003KT 10SM SCT026 OVC075 26/23 A2989 RMK AO2
2026-05-02 09:40:00,SPECI KOPF 020940Z AUTO 19003KT 10SM BKN026 OVC075 26/23 A2989 RMK AO2 T02560233
2026-05-02 09:25:00,SPECI KOPF 020925Z AUTO 20005KT 10SM FEW021 SCT027 BKN080 26/23 A2989 RMK AO2 T02560228
2026-05-02 09:10:00,SPECI KOPF 020910Z AUTO 19004KT 10SM SCT021 BKN025 OVC080 26/23 A2989 RMK AO2 T02560228
2026-05-02 08:53:00,METAR KOPF 020853Z AUTO 19004KT 10SM SCT020 BKN075 26/23 A2989 RMK AO2 SLP121 T02560228 56003
2026-05-02 07:53:00,METAR KOPF 020753Z AUTO 20004KT 10SM FEW021 BKN075 26/22 A2989 RMK AO2 SLP121 T02560222
2026-05-02 06:53:00,METAR KOPF 020653Z AUTO 21003KT 10SM BKN070 26/22 A2989 RMK AO2 SLP122 T02560222
2026-05-02 05:53:00,METAR KOPF 020553Z AUTO 18004KT 10SM CLR 25/22 A2989 RMK AO2 SLP124 T02500222 10278 20250 58008
2026-05-02 04:53:00,METAR KOPF 020453Z AUTO 18004KT 10SM CLR 25/22 A2991 RMK AO2 SLP128 T02500217 403280217
2026-05-02 03:53:00,METAR KOPF 020353Z AUTO 18003KT 10SM CLR 26/22 A2992 RMK AO2 SLP133 T02560217
2026-05-02 02:53:00,METAR KOPF 020253Z AUTO 20008KT 10SM CLR 26/22 A2992 RMK AO2 SLP132 T02610217 51022
2026-05-02 01:53:00,METAR KOPF 020153Z 18008KT 10SM CLR 27/22 A2990 RMK AO2 SLP126 T02670217
2026-05-02 00:53:00,METAR KOPF 020053Z 18010KT 10SM CLR 27/21 A2988 RMK AO2 SLP118 T02720211
2026-05-01 23:53:00,METAR KOPF 012353Z 17012KT 10SM CLR 28/20 A2985 RMK AO2 SLP110 T02780200 10328 20278 53004
2026-05-01 22:53:00,METAR KOPF 012253Z 16011KT 10SM CLR 29/21 A2985 RMK AO2 SLP109 T02890206
2026-05-01 21:53:00,METAR KOPF 012153Z 16011KT 10SM CLR 30/21 A2984 RMK AO2 SLP105 T03000206
2026-05-01 20:53:00,METAR KOPF 012053Z 14014G20KT 10SM CLR 32/21 A2984 RMK AO2 SLP106 T03170206 56018
2026-05-01 19:53:00,METAR KOPF 011953Z 15007G17KT 130V190 10SM FEW055 31/21 A2985 RMK AO2 SLP110 T03110206
2026-05-01 18:53:00,METAR KOPF 011853Z 23005KT 10SM SCT060 32/18 A2988 RMK AO2 SLP119 T03220178
2026-05-01 17:53:00,METAR KOPF 011753Z AUTO 25009KT 10SM 32/17 A2990 RMK AO2 SLP124 6//// T03170172 10317 20256
2026-05-01 16:53:00,METAR KOPF 011653Z VRB/09KT 10SM CLR 31/20 A2990
2026-05-01 15:53:00,METAR KOPF 011553Z 140/04KT 10SM CLR 30/21 A2992
2026-05-01 14:53:00,METAR KOPF 011453Z 220/04KT 10SM CLR 29/20 A2993
2026-05-01 13:53:00,METAR KOPF 011353Z 020/04KT 10SM CLR 28/20 A2993
2026-05-01 12:53:00,METAR KOPF 011253Z 340/05KT 10SM CLR 26/22 A2994
2026-05-01 11:53:00,METAR KOPF 011153Z 320/05KT 10SM CLR 24/22 A2993
2026-05-01 10:53:00,METAR KOPF 011053Z 270/04KT 10SM CLR 21/21 A2991
2026-05-01 02:53:00,METAR KOPF 010253Z 26007KT 10SM SCT050 26/19 A2991 RMK AO2 SLP128 T02560194 51015 $
2026-05-01 01:53:00,METAR KOPF 010153Z 25010KT 10SM SCT049 27/19 A2990 RMK AO2 SLP126 T02720194 $
2026-05-01 00:53:00,METAR KOPF 010053Z 22009KT 10SM SCT043 28/20 A2988 RMK AO2 SLP118 T02830200 $
2026-04-30 23:53:00,METAR KOPF 302353Z 19008KT 10SM CLR 28/20 A2986 RMK AO2 SLP113 T02780200 10317 20278 53006 $
2026-04-30 22:53:00,METAR KOPF 302253Z 16011KT 10SM SCT060 BKN070 28/20 A2985 RMK AO2 SLP107 T02830200 $
2026-04-30 21:53:00,METAR KOPF 302153Z 16014G19KT 10SM CLR 31/20 A2984 RMK AO2 SLP104 T03060200 $
2026-04-30 20:53:00,METAR KOPF 302053Z 17010KT 10SM FEW045 31/21 A2984 RMK AO2 SLP107 T03110206 58013 $
2026-04-30 19:53:00,METAR KOPF 301953Z 18011KT 10SM FEW047 SCT060 31/21 A2986 RMK AO2 SLP113 T03110206 $
2026-04-30 18:53:00,METAR KOPF 301853Z 16010KT 10SM FEW048 SCT060 31/21 A2988 RMK AO2 SLP118 T03110206 $
2026-04-30 17:53:00,METAR KOPF 301753Z VRB05KT 10SM SCT050 31/19 A2988 RMK AO2 SLP120 T03060194 10317 20239 58021 $
2026-04-30 16:53:00,METAR KOPF 301653Z 26005KT 10SM CLR 30/18 A2991 RMK AO2 SLP128 T03000183 $
2026-04-30 15:53:00,METAR KOPF 301553Z VRB03KT 10SM CLR 29/18 A2994 RMK AO2 SLP138 T02940183 $
2026-04-30 14:53:00,METAR KOPF 301453Z 25007KT 220V280 10SM CLR 28/19 A2995 RMK AO2 SLP141 T02830189 53002 $
2026-04-30 13:53:00,METAR KOPF 301353Z VRB03KT 10SM CLR 26/18 A2994 RMK AO2 SLP138 T02610183 $
2026-04-30 12:53:00,METAR KOPF 301253Z 00000KT 10SM CLR 25/21 A2994 RMK AO2 SLP141 T02500206 $
2026-04-30 11:53:00,METAR KOPF 301153Z 00000KT 10SM CLR 23/21 A2994 RMK AO2 SLP139 T02330206 10239 20217 53009 $
2026-04-30 10:53:00,METAR KOPF 301053Z 27003KT 10SM CLR 22/19 A2993 RMK AO2 SLP135 T02220194 $
2026-04-30 09:53:00,METAR KOPF 300953Z AUTO 28003KT 10SM CLR 22/19 A2991 RMK AO2 SLP130 T02220194 $
2026-04-30 08:53:00,METAR KOPF 300853Z AUTO 29003KT 10SM CLR 23/19 A2991 RMK AO2 SLP130 T02280194 58006 $
2026-04-30 07:53:00,METAR KOPF 300753Z AUTO 27003KT 10SM CLR 23/21 A2991 RMK AO2 SLP130 T02330206 $
2026-04-30 07:38:00,SPECI KOPF 300738Z AUTO 00000KT 10SM SCT026 23/21 A2992 RMK AO2 T02330206 $
2026-04-30 07:03:00,SPECI KOPF 300703Z AUTO 00000KT 10SM BKN025 24/21 A2993 RMK AO2 T02390206 $
2026-04-30 06:53:00,METAR KOPF 300653Z AUTO 28003KT 10SM SCT025 24/21 A2993 RMK AO2 SLP136 T02390206 $
2026-04-30 05:53:00,METAR KOPF 300553Z AUTO 28005KT 10SM CLR 22/21 A2993 RMK AO2 SLP136 T02220211 10267 20222 58010 $
2026-04-30 04:53:00,METAR KOPF 300453Z AUTO 22006KT 10SM OVC055 26/21 A2996 RMK AO2 SLP146 T02560206 403060206 $
2026-04-30 03:53:00,METAR KOPF 300353Z AUTO 23005KT 10SM CLR 25/21 A2997 RMK AO2 SLP148 T02500206 $
2026-04-30 02:53:00,METAR KOPF 300253Z 20006KT 10SM SCT044 26/21 A2996 RMK AO2 SLP146 T02560206 53012 $
2026-04-30 01:53:00,METAR KOPF 300153Z 20006KT 10SM FEW043 25/21 A2995 RMK AO2 SLP144 T02500206 $
2026-04-30 00:53:00,METAR KOPF 300053Z AUTO 17009KT 10SM SCT043 SCT050 26/21 A2993 RMK AO2 SLP136 T02610206 $
2026-04-29 23:53:00,METAR KOPF 292353Z 17006KT 10SM FEW028 BKN048 27/20 A2993 RMK AO2 SLP134 T02670200 10306 20261 53001 $
2026-04-29 22:53:00,METAR KOPF 292253Z 14012KT 10SM CLR 27/19 A2991 RMK AO2 SLP128 T02720194 $
2026-04-29 21:53:00,METAR KOPF 292153Z 14011KT 10SM BKN035 28/20 A2993 RMK AO2 SLP135 T02780200 $
2026-04-29 20:53:00,METAR KOPF 292053Z 14010KT 10SM SCT034 BKN044 28/21 A2992 RMK AO2 SLP134 T02830206 56028 $
2026-04-29 19:53:00,METAR KOPF 291953Z 14015G23KT 10SM BKN036 29/21 A2995 RMK AO2 SLP141 T02940206 $
2026-04-29 18:53:00,METAR KOPF 291853Z 10006G16KT 10SM BKN038 BKN070 28/20 A2998 RMK AO2 SLP151 T02830200 $
2026-04-29 17:53:00,METAR KOPF 291753Z 13005KT 10SM SCT040 SCT046 OVC060 28/20 A3001 RMK AO2 SLP162 T02830200 10300 20228 58010 $
2026-04-29 16:53:00,METAR KOPF 291653Z VRB04KT 10SM SCT037 BKN065 29/20 A3003 RMK AO2 SLP168 T02940200 $
2026-04-29 15:53:00,METAR KOPF 291553Z 11009KT 10SM SCT029 BKN070 28/21 A3004 RMK AO2 SLP173 T02780211 $
2026-04-29 14:53:00,METAR KOPF 291453Z 10009KT 10SM FEW042 BKN070 27/21 A3004 RMK AO2 SLP172 T02720206 53004 $
2026-04-29 13:53:00,METAR KOPF 291353Z 08005KT 10SM SCT029 28/20 A3003 RMK AO2 SLP170 T02780200 $
2026-04-29 12:53:00,METAR KOPF 291253Z 36003KT 10SM CLR 24/21 A3003 RMK AO2 SLP169 T02440206 $
2026-04-29 11:53:00,METAR KOPF 291153Z 33004KT 10SM CLR 24/21 A3002 RMK AO2 SLP168 T02390206 10239 20206 53018 $
2026-04-29 10:53:00,METAR KOPF 291053Z 00000KT 10SM FEW024 22/19 A3000 RMK AO2 SLP158 T02170194 $
2026-04-29 09:53:00,METAR KOPF 290953Z AUTO 00000KT 10SM CLR 21/19 A2999 RMK AO2 SLP155 T02110194 $
2026-04-29 08:53:00,METAR KOPF 290853Z AUTO 00000KT 10SM CLR 21/18 A2997 RMK AO2 SLP150 T02060183 56019 $
2026-04-29 07:53:00,METAR KOPF 290753Z AUTO 00000KT 10SM FEW027 22/19 A2998 RMK AO2 SLP154 T02220189 $
2026-04-29 06:53:00,METAR KOPF 290653Z AUTO 00000KT 10SM CLR 23/19 A3000 RMK AO2 SLP161 T02330189 $
2026-04-29 05:53:00,METAR KOPF 290553Z AUTO 06003KT 10SM CLR 23/19 A3003 RMK AO2 SLP169 T02330189 10256 20228 58012 $
2026-04-29 04:53:00,METAR KOPF 290453Z AUTO 05003KT 10SM CLR 24/19 A3004 RMK AO2 SLP174 T02390189 403060222 $
2026-04-29 03:53:00,METAR KOPF 290353Z AUTO 08005KT 10SM CLR 23/19 A3005 RMK AO2 SLP177 T02330189 $
2026-04-29 02:53:00,METAR KOPF 290253Z 07005KT 10SM CLR 24/19 A3006 RMK AO2 SLP180 T02440189 50008 $
2026-04-29 01:53:00,METAR KOPF 290153Z 07010KT 10SM CLR 25/19 A3006 RMK AO2 SLP181 T02500194 $
2026-04-29 00:53:00,METAR KOPF 290053Z 06009KT 10SM CLR 25/19 A3006 RMK AO2 SLP179 T02500189 $
2026-04-28 23:53:00,METAR KOPF 282353Z 07011KT 10SM CLR 26/19 A3004 RMK AO2 SLP172 T02560194 10306 20256 53003 $
2026-04-28 22:53:00,METAR KOPF 282253Z 06014KT 10SM CLR 27/18 A3004 RMK AO2 SLP172 T02720183 $
2026-04-28 21:53:00,METAR KOPF 282153Z 08015G20KT 10SM CLR 28/18 A3003 RMK AO2 SLP170 T02830183 $
2026-04-28 20:53:00,METAR KOPF 282053Z 07012KT 10SM CLR 29/17 A3003 RMK AO2 SLP170 T02940172 56017 $
2026-04-28 19:53:00,METAR KOPF 281953Z 08012G20KT 10SM CLR 29/19 A3005 RMK AO2 SLP175 T02940189 $
2026-04-28 18:53:00,METAR KOPF 281853Z 06010G18KT 10SM FEW039 30/20 A3006 RMK AO2 SLP180 T03000200 $
2026-04-28 17:53:00,METAR KOPF 281753Z 09013KT 10SM SCT040 SCT049 30/20 A3008 RMK AO2 SLP186 T03000200 10306 20239 58004 $
2026-04-28 16:53:00,METAR KOPF 281653Z 09011G18KT 10SM FEW037 29/20 A3009 RMK AO2 SLP190 T02890200 $
2026-04-28 15:53:00,METAR KOPF 281553Z 10010KT 10SM FEW039 29/20 A3009 RMK AO2 SLP189 T02940200 $
2026-04-28 14:53:00,METAR KOPF 281453Z 08008KT 10SM SCT035 29/19 A3009 RMK AO2 SLP190 T02890194 51006 $
2026-04-28 13:53:00,METAR KOPF 281353Z 05007KT 10SM FEW032 27/19 A3009 RMK AO2 SLP188 T02670189 $
2026-04-28 12:53:00,METAR KOPF 281253Z 06006KT 10SM CLR 26/19 A3008 RMK AO2 SLP186 T02560194 $
2026-04-28 11:53:00,METAR KOPF 281153Z 03004KT 10SM CLR 24/20 A3007 RMK AO2 SLP184 60000 T02390200 10244 20222 53019 $
2026-04-28 10:53:00,METAR KOPF 281053Z 36006KT 10SM CLR 22/20 A3005 RMK AO2 SLP177 T02220200 $
2026-04-28 09:53:00,METAR KOPF 280953Z AUTO 36004KT 10SM CLR 22/20 A3003 RMK AO2 SLP168 T02220200 $
2026-04-28 08:53:00,METAR KOPF 280853Z AUTO 01003KT 10SM CLR 23/21 A3002 RMK AO2 SLP165 60000 T02280206 55007 $
2026-04-28 07:53:00,METAR KOPF 280753Z AUTO 04004KT 10SM CLR 24/20 A3001 RMK AO2 SLP164 T02390200 $
2026-04-28 06:53:00,METAR KOPF 280653Z AUTO 05005KT 10SM FEW025 23/20 A3002 RMK AO2 RAB06E19 SLP166 P0000 T02330200 $
2026-04-28 05:53:00,METAR KOPF 280553Z AUTO 04004KT 10SM FEW032 24/20 A3004 RMK AO2 SLP172 T02440200 10261 20244 58006 $
2026-04-28 04:53:00,METAR KOPF 280453Z AUTO 06007KT 10SM CLR 24/20 A3005 RMK AO2 SLP177 T02440200 403110206 $
2026-04-28 03:53:00,METAR KOPF 280353Z AUTO 05007KT 10SM CLR 25/20 A3005 RMK AO2 SLP178 T02500200 $
2026-04-28 02:53:00,METAR KOPF 280253Z 06009KT 10SM SCT023 26/21 A3005 RMK AO2 SLP178 T02560206 51020 $
2026-04-28 01:53:00,METAR KOPF 280153Z 06010KT 10SM FEW024 26/21 A3004 RMK AO2 SLP172 T02560206 $
2026-04-28 00:53:00,METAR KOPF 280053Z 04011KT 10SM CLR 26/21 A3001 RMK AO2 SLP164 T02560206 $
2026-04-27 23:53:00,METAR KOPF 272353Z 07013KT 10SM FEW026 SCT120 26/21 A2999 RMK AO2 SLP157 T02610206 10311 20261 53007 $
2026-04-27 22:53:00,METAR KOPF 272253Z 05010KT 10SM FEW026 27/20 A2998 RMK AO2 LTG DSNT SW SLP152 T02720200 $
2026-04-27 21:53:00,METAR KOPF 272153Z 05013KT 10SM SCT028 BKN100 28/21 A2998 RMK AO2 SLP152 T02780206 $
2026-04-27 20:53:00,METAR KOPF 272053Z 07012G20KT 10SM SCT032 SCT040 SCT110 29/21 A2997 RMK AO2 LTG DSNT N SLP150 T02890206 55001 $
2026-04-27 19:53:00,METAR KOPF 271953Z 06012KT 10SM FEW035 FEW110 30/21 A2996 RMK AO2 LTG DSNT N AND NW SLP145 T03000211 $
2026-04-27 18:53:00,METAR KOPF 271853Z 08010G19KT 10SM SCT040 30/19 A2997 RMK AO2 LTG DSNT NW SLP148 T03000194 $
2026-04-27 17:53:00,METAR KOPF 271753Z 14010KT 10SM SCT040 BKN070 29/19 A2998 RMK AO2 SLP151 T02890194 10306 20217 58008 $
2026-04-27 16:53:00,METAR KOPF 271653Z 00000KT 10SM FEW049 30/18 A2999 RMK AO2 SLP155 T03000183 $
2026-04-27 15:53:00,METAR KOPF 271553Z 07005KT 10SM FEW037 29/18 A3000 RMK AO2 SLP160 T02890183 $
2026-04-27 14:53:00,METAR KOPF 271453Z 33007KT 10SM CLR 28/19 A3000 RMK AO2 SLP159 T02780194 51012 $
2026-04-27 13:53:00,METAR KOPF 271353Z 33004KT 10SM CLR 26/19 A2998 RMK AO2 SLP154 T02560194 $
2026-04-27 12:53:00,METAR KOPF 271253Z 29005KT 10SM CLR 23/19 A2998 RMK AO2 SLP152 T02330194 $
2026-04-27 11:53:00,METAR KOPF 271153Z 30005KT 10SM CLR 22/19 A2996 RMK AO2 SLP147 70026 T02170194 10228 20206 53023 $
2026-04-27 10:53:00,METAR KOPF 271053Z 30005KT 10SM CLR 21/19 A2994 RMK AO2 SLP139 T02110194 $
2026-04-27 09:53:00,METAR KOPF 270953Z AUTO 30006KT 10SM CLR 21/20 A2991 RMK AO2 SLP128 T02110200 $
2026-04-27 08:53:00,METAR KOPF 270853Z AUTO 28005KT 10SM CLR 22/21 A2990 RMK AO2 SLP124 T02170206 56007 $
2026-04-27 07:53:00,METAR KOPF 270753Z AUTO 30004KT 10SM CLR 22/20 A2990 RMK AO2 SLP125 T02170200 $
2026-04-27 06:53:00,METAR KOPF 270653Z AUTO 28003KT 10SM CLR 22/21 A2990 RMK AO2 SLP126 T02220206 $
2026-04-27 05:53:00,METAR KOPF 270553Z AUTO 29004KT 10SM CLR 23/21 A2992 RMK AO2 SLP131 T02280206 10256 20228 55003 $
2026-04-27 04:53:00,METAR KOPF 270453Z AUTO 27006KT 10SM CLR 23/21 A2991 RMK AO2 SLP130 T02280211 403170206 $
2026-04-27 03:53:00,METAR KOPF 270353Z AUTO 27005KT 10SM CLR 23/21 A2993 RMK AO2 SLP135 T02330211 $
2026-04-27 02:53:00,METAR KOPF 270253Z AUTO 26005KT 10SM CLR 24/21 A2993 RMK AO2 SLP134 T02440211 53015 $
2026-04-27 01:53:00,METAR KOPF 270153Z 24004KT 10SM BKN039 BKN050 BKN055 25/22 A2990 RMK AO2 SLP127 T02500217 $
2026-04-27 00:53:00,METAR KOPF 270053Z 19003KT 10SM SCT047 25/21 A2988 RMK AO2 SLP119 T02500211 $
2026-04-26 23:53:00,METAR KOPF 262353Z 20004KT 10SM SCT050 26/21 A2988 RMK AO2 SLP119 60026 T02560211 10317 20222 53008 $
2026-04-26 22:53:00,METAR KOPF 262253Z 17008KT 10SM CLR 26/21 A2987 RMK AO2 LTG DSNT N SLP116 T02610206 $
2026-04-26 21:53:00,METAR KOPF 262153Z 18011KT 10SM FEW055 26/23 A2986 RMK AO2 PK WND 24028/2108 WSHFT 2056 LTG DSNT N AND NE AND SW RAB2054E32 TSB2057E43 SLP113 P0026 T02560228 $
2026-04-26 21:49:00,SPECI KOPF 262149Z 19010KT 10SM SCT055 25/22 A2986 RMK AO2 PK WND 24028/2108 WSHFT 2056 LTG DSNT ALQDS RAB2054E32 TSB2057E43 P0026 $
2026-04-26 21:28:00,SPECI KOPF 262128Z 20010G20KT 10SM -TSRA SCT018 SCT050 BKN065 23/21 A2987 RMK AO2 PK WND 24028/2108 WSHFT 2056 LTG DSNT ALQDS RAB2054 TSB2057 P0026 T02280206 $
2026-04-26 21:21:00,SPECI KOPF 262121Z 21013KT 2SM TSRA BR SCT020 BKN050 OVC070 23/21 A2987 RMK AO2 PK WND 24028/2108 WSHFT 2056 LTG DSNT ALQDS RAB2054 TSB2057 P0026 T02280211 $
2026-04-26 21:13:00,SPECI KOPF 262113Z 19012G28KT 3/4SM +TSRA BR FEW011 BKN048 OVC070 22/21 A2987 RMK AO2 PK WND 24028/2108 WSHFT 2056 LTG DSNT N AND SW RAB2054 TSB2057 P0023 T02220206 $
2026-04-26 21:03:00,SPECI KOPF 262103Z 23017G24KT 10SM -TSRA SCT048 BKN070 OVC110 26/22 A2986 RMK AO2 LTG DSNT N AND SW RAB2054 TSB2057 PRESRR P0000 T02560222 $
2026-04-26 20:53:00,METAR KOPF 262053Z 18017KT 10SM VCTS BKN047 BKN055 OVC070 27/22 A2984 RMK AO2 LTG DSNT SW AND W SLP104 60000 T02670217 55014 $
2026-04-26 20:28:00,SPECI KOPF 262028Z 18015G24KT 10SM VCTS SCT045 BKN060 28/20 A2983 RMK AO2 LTG DSNT S AND SW T02830200 $
2026-04-26 19:53:00,METAR KOPF 261953Z 16012KT 10SM FEW047 BKN065 31/20 A2983 RMK AO2 LTG DSNT S AND SW SLP103 T03060200 $
2026-04-26 18:53:00,METAR KOPF 261853Z 17006G14KT 10SM FEW045 FEW055 SCT100 31/20 A2986 RMK AO2 RAB43E53 SLP113 P0000 T03060200 $
2026-04-26 17:53:00,METAR KOPF 261753Z 20004G14KT 10SM SCT048 SCT060 31/19 A2988 RMK AO2 SLP118 60000 T03060189 10317 20239 58015 $
2026-04-26 16:53:00,METAR KOPF 261653Z 15010G15KT 10SM SCT048 31/19 A2989 RMK AO2 SLP124 T03060189 $
2026-04-26 15:53:00,METAR KOPF 261553Z 00000KT 10SM SCT048 BKN060 28/18 A2991 RMK AO2 RAB32E33 SLP129 P0000 T02830183 $
2026-04-26 14:53:00,METAR KOPF 261453Z 16004KT 10SM FEW032 29/20 A2992 RMK AO2 SLP132 T02890200 52005 $
2026-04-26 13:53:00,METAR KOPF 261353Z 16007KT 10SM FEW036 28/21 A2992 RMK AO2 SLP131 T02780206 $
2026-04-26 12:53:00,METAR KOPF 261253Z 16007KT 10SM SCT025 26/21 A2991 RMK AO2 SLP129 T02610206 $
2026-04-26 11:53:00,METAR KOPF 261153Z 00000KT 10SM CLR 23/20 A2991 RMK AO2 SLP128 T02330200 10233 20206 52013 $
2026-04-26 10:53:00,METAR KOPF 261053Z 00000KT 10SM CLR 22/19 A2989 RMK AO2 SLP123 T02220194 $
2026-04-26 09:53:00,METAR KOPF 260953Z AUTO 00000KT 10SM CLR 22/19 A2988 RMK AO2 SLP118 T02170194 $
2026-04-26 08:53:00,METAR KOPF 260853Z AUTO 00000KT 10SM CLR 22/19 A2987 RMK AO2 SLP114 T02170194 56006 $
2026-04-26 07:53:00,METAR KOPF 260753Z AUTO 00000KT 10SM CLR 22/19 A2987 RMK AO2 SLP116 T02220189 $
2026-04-26 06:53:00,METAR KOPF 260653Z AUTO 13004KT 10SM CLR 22/19 A2987 RMK AO2 SLP115 T02220194 $
2026-04-26 05:53:00,METAR KOPF 260553Z AUTO 00000KT 10SM CLR 22/19 A2989 RMK AO2 SLP121 T02220189 10250 20211 50003 $
2026-04-26 04:53:00,METAR KOPF 260453Z AUTO 14003KT 10SM CLR 23/19 A2990 RMK AO2 SLP126 T02280194 403000194 $
2026-04-26 03:53:00,METAR KOPF 260353Z AUTO 15005KT 10SM SCT025 23/19 A2990 RMK AO2 SLP127 T02330194 $
2026-04-26 02:53:00,METAR KOPF 260253Z AUTO 12007KT 10SM CLR 24/19 A2988 RMK AO2 SLP118 T02440194 50000 $
2026-04-26 01:53:00,METAR KOPF 260153Z 13008KT 10SM CLR 24/19 A2989 RMK AO2 SLP122 T02440189 $
2026-04-26 00:53:00,METAR KOPF 260053Z 12005KT 10SM CLR 24/19 A2989 RMK AO2 SLP122 T02440189 $
2026-04-25 23:53:00,METAR KOPF 252353Z 13007KT 10SM FEW028 25/19 A2988 RMK AO2 SLP117 T02500189 10300 20250 53006 $
2026-04-25 22:53:00,METAR KOPF 252253Z 13008KT 10SM CLR 26/18 A2985 RMK AO2 SLP108 T02560183 $
2026-04-25 21:53:00,METAR KOPF 252153Z 12010KT 10SM FEW033 28/19 A2985 RMK AO2 SLP109 T02780194 $
2026-04-25 20:53:00,METAR KOPF 252053Z 13010KT 10SM CLR 28/18 A2986 RMK AO2 SLP112 T02830178 56012 $
2026-04-25 19:53:00,METAR KOPF 251953Z 11009G17KT 10SM CLR 29/17 A2986 RMK AO2 SLP113 T02940172 $
2026-04-25 18:53:00,METAR KOPF 251853Z 11008G16KT 10SM CLR 29/16 A2988 RMK AO2 SLP119 T02890161 $
2026-04-25 17:53:00,METAR KOPF 251753Z 12008G18KT 10SM CLR 29/17 A2989 RMK AO2 SLP123 T02940172 10294 20222 56004 $
2026-04-25 16:53:00,METAR KOPF 251653Z 11009G17KT 10SM CLR 29/17 A2990 RMK AO2 SLP124 T02940172 $
2026-04-25 15:53:00,METAR KOPF 251553Z 11006G14KT 10SM CLR 28/17 A2990 RMK AO2 SLP125 T02830172 $
2026-04-25 14:53:00,METAR KOPF 251453Z 10007KT 10SM CLR 28/17 A2991 RMK AO2 SLP127 T02830172 53002 $
2026-04-25 13:53:00,METAR KOPF 251353Z 00000KT 10SM CLR 27/18 A2990 RMK AO2 SLP125 T02720183 $
2026-04-25 12:53:00,METAR KOPF 251253Z 15004KT 10SM CLR 26/19 A2990 RMK AO2 SLP126 T02560194 $
2026-04-25 11:53:00,METAR KOPF 251153Z 00000KT 10SM CLR 22/19 A2990 RMK AO2 SLP125 70001 T02220194 10222 20194 53012 $
2026-04-25 10:53:00,METAR KOPF 251053Z 00000KT 10SM CLR 19/18 A2988 RMK AO2 SLP118 T01940178 $
2026-04-25 09:53:00,METAR KOPF 250953Z AUTO 00000KT 10SM CLR 20/18 A2987 RMK AO2 SLP115 T02000183 $
2026-04-25 08:53:00,METAR KOPF 250853Z AUTO 00000KT 10SM CLR 21/18 A2987 RMK AO2 SLP114 T02060178 55008 $
2026-04-25 07:53:00,METAR KOPF 250753Z AUTO 08003KT 10SM CLR 20/18 A2986 RMK AO2 SLP113 T02000178 $
2026-04-25 06:53:00,METAR KOPF 250653Z AUTO 00000KT 10SM CLR 22/18 A2987 RMK AO2 SLP115 T02170183 $
2026-04-25 05:53:00,METAR KOPF 250553Z AUTO 00000KT 10SM CLR 22/18 A2989 RMK AO2 SLP122 T02220178 10244 20217 58014 $
2026-04-25 04:53:00,METAR KOPF 250453Z AUTO 11004KT 10SM CLR 22/17 A2991 RMK AO2 SLP129 T02220172 402780206 $
2026-04-25 03:53:00,METAR KOPF 250353Z AUTO 11004KT 10SM CLR 23/18 A2992 RMK AO2 SLP132 T02330178 $
2026-04-25 02:53:00,METAR KOPF 250253Z AUTO 08005KT 10SM CLR 23/18 A2993 RMK AO2 SLP135 T02280178 51013 $
2026-04-25 01:53:00,METAR KOPF 250153Z 11006KT 10SM BKN090 24/18 A2992 RMK AO2 SLP132 T02390178 $
2026-04-25 00:53:00,METAR KOPF 250053Z 11004KT 10SM SCT065 OVC080 24/18 A2991 RMK AO2 SLP127 T02390183 $
2026-04-24 23:53:00,METAR KOPF 242353Z 09007KT 10SM BKN065 BKN100 24/19 A2989 RMK AO2 RAE46 SLP123 P0001 60001 T02390194 10278 20239 51006 $
2026-04-24 22:53:00,METAR KOPF 242253Z 11009KT 10SM -RA FEW046 BKN080 BKN110 24/19 A2989 RMK AO2 RAB13 SLP122 P0000 T02440189 $
2026-04-24 21:53:00,METAR KOPF 242153Z 12009KT 10SM FEW030 SCT048 BKN080 25/18 A2988 RMK AO2 SLP121 T02500183 $
2026-04-24 20:53:00,METAR KOPF 242053Z 12012KT 10SM FEW033 SCT120 26/18 A2987 RMK AO2 LTG DSNT W AND NW SLP116 T02560183 56016 $
2026-04-24 19:53:00,METAR KOPF 241953Z 11013G21KT 10SM FEW036 27/18 A2988 RMK AO2 LTG DSNT W AND NW SLP118 T02670183 $
2026-04-24 18:53:00,METAR KOPF 241853Z 13013KT 10SM SCT042 BKN050 26/18 A2990 RMK AO2 LTG DSNT NW SLP125 T02610178 $
2026-04-24 17:53:00,METAR KOPF 241753Z 11013G18KT 10SM FEW031 SCT044 OVC060 26/19 A2992 RMK AO2 RAB15E36 SLP132 P0000 60000 T02610189 10272 20222 58018 $
2026-04-24 16:53:00,METAR KOPF 241653Z 14012G22KT 10SM SCT034 BKN047 27/19 A2994 RMK AO2 SLP139 T02670189 $
2026-04-24 15:53:00,METAR KOPF 241553Z 10012G18KT 10SM FEW029 FEW060 FEW120 26/19 A2997 RMK AO2 RAB07E23 SLP149 P0000 T02610194 $
2026-04-24 14:53:00,METAR KOPF 241453Z 12008KT 080V150 10SM FEW030 FEW049 27/18 A2997 RMK AO2 SLP151 T02670183 53006 $
2026-04-24 13:53:00,METAR KOPF 241353Z 12008G17KT 10SM FEW032 BKN120 26/18 A2996 RMK AO2 SLP146 T02560178 $
2026-04-24 12:53:00,METAR KOPF 241253Z 10005KT 10SM FEW120 24/18 A2996 RMK AO2 SLP147 T02390183 $
2026-04-24 11:53:00,METAR KOPF 241153Z 07003KT 10SM OVC120 22/18 A2996 RMK AO2 SLP145 70005 T02220178 10222 20206 53007 $
2026-04-24 10:53:00,METAR KOPF 241053Z 00000KT 10SM OVC120 21/16 A2995 RMK AO2 SLP141 T02110161 $
2026-04-24 09:53:00,METAR KOPF 240953Z AUTO 00000KT 10SM FEW120 21/16 A2994 RMK AO2 SLP137 T02060156 $
2026-04-24 08:53:00,METAR KOPF 240853Z AUTO 03004KT 10SM CLR 21/16 A2993 RMK AO2 SLP137 T02110156 56017 $
2026-04-24 07:53:00,METAR KOPF 240753Z AUTO 04004KT 10SM CLR 21/15 A2994 RMK AO2 SLP139 T02060150 $
2026-04-24 06:53:00,METAR KOPF 240653Z AUTO 06004KT 10SM CLR 21/15 A2995 RMK AO2 SLP142 T02110150 $
2026-04-24 05:53:00,METAR KOPF 240553Z AUTO 12003KT 10SM CLR 22/13 A2998 RMK AO2 SLP154 T02170133 10222 20211 58011 $
2026-04-24 04:53:00,METAR KOPF 240453Z AUTO 11006KT 10SM CLR 22/14 A3000 RMK AO2 SLP159 T02220139 402670200 $
2026-04-24 03:53:00,METAR KOPF 240353Z AUTO 00000KT 10SM FEW039 21/14 A3001 RMK AO2 SLP163 T02110144 $
2026-04-24 02:53:00,METAR KOPF 240253Z 11005KT 10SM CLR 22/13 A3002 RMK AO2 SLP165 T02170133 53005 $
2026-04-24 01:53:00,METAR KOPF 240153Z 11005KT 10SM FEW080 22/14 A3001 RMK AO2 SLP162 T02170139 $
2026-04-24 00:53:00,METAR KOPF 240053Z 09006KT 10SM OVC075 22/14 A3000 RMK AO2 SLP160 T02170144 $
2026-04-23 23:53:00,METAR KOPF 232353Z 10007KT 10SM FEW080 22/14 A3000 RMK AO2 SLP160 60003 T02220139 10239 20206 55002 $
2026-04-23 22:53:00,METAR KOPF 232253Z 10010KT 10SM FEW042 23/14 A3000 RMK AO2 SLP159 T02330139 $
2026-04-23 21:53:00,METAR KOPF 232153Z 09009KT 10SM FEW055 BKN080 24/14 A3000 RMK AO2 SLP160 T02390139 $
2026-04-23 20:53:00,METAR KOPF 232053Z 11009KT 10SM BKN049 BKN060 OVC080 23/15 A3001 RMK AO2 SLP163 60003 T02330150 58018 $
2026-04-23 19:53:00,METAR KOPF 231953Z 11012KT 10SM BKN039 OVC060 22/17 A3003 RMK AO2 RAE11 SLP169 P0001 T02170167 $
2026-04-23 18:53:00,METAR KOPF 231853Z 08008KT 5SM -RA BR OVC044 21/19 A3005 RMK AO2 RAB18 SLP177 P0002 T02060189 $
2026-04-23 17:53:00,METAR KOPF 231753Z 09015KT 10SM FEW037 SCT050 OVC060 23/18 A3006 RMK AO2 SLP180 60002 T02280178 10267 20217 58006 $
2026-04-23 16:53:00,METAR KOPF 231653Z 09017KT 10SM OVC060 23/19 A3007 RMK AO2 PK WND 09027/1630 RAE03 SLP184 P0000 T02280189 $
2026-04-23 15:53:00,METAR KOPF 231553Z 16004KT 6SM RA BKN036 OVC055 22/18 A3008 RMK AO2 RAB39 SLP188 P0002 T02220178 $
2026-04-23 14:53:00,METAR KOPF 231453Z 12009G16KT 10SM FEW039 BKN055 27/16 A3008 RMK AO2 SLP186 T02670161 53003
2026-04-23 13:53:00,METAR KOPF 231353Z 13007KT 10SM FEW041 FEW050 BKN070 25/16 A3007 RMK AO2 SLP184 T02500161
2026-04-23 12:53:00,METAR KOPF 231253Z 09006KT 10SM SCT075 25/16 A3007 RMK AO2 SLP183 T02500161
2026-04-23 11:53:00,METAR KOPF 231153Z 07004KT 10SM CLR 22/16 A3007 RMK AO2 SLP183 T02170161 10222 20200 53008
2026-04-23 10:53:00,METAR KOPF 231053Z 08004KT 10SM CLR 21/16 A3005 RMK AO2 SLP177 T02060156
2026-04-23 09:53:00,METAR KOPF 230953Z AUTO 08003KT 10SM CLR 21/15 A3006 RMK AO2 SLP179 T02110150
2026-04-23 08:53:00,METAR KOPF 230853Z AUTO 10005KT 10SM CLR 21/16 A3005 RMK AO2 SLP175 T02110156 56013
2026-04-23 07:53:00,METAR KOPF 230753Z AUTO 12003KT 10SM CLR 22/15 A3005 RMK AO2 SLP178 T02170150
2026-04-23 06:53:00,METAR KOPF 230653Z AUTO 10006KT 10SM CLR 21/15 A3006 RMK AO2 SLP179 T02110150
2026-04-23 05:53:00,METAR KOPF 230553Z AUTO 10006KT 10SM CLR 22/14 A3009 RMK AO2 SLP188 T02170139 10233 20200 58012
2026-04-23 04:53:00,METAR KOPF 230453Z AUTO 10004KT 10SM CLR 22/13 A3011 RMK AO2 SLP196 T02170133 402720206
2026-04-23 03:53:00,METAR KOPF 230353Z AUTO 10006KT 10SM CLR 22/13 A3011 RMK AO2 SLP196 T02170133
2026-04-23 02:53:00,METAR KOPF 230253Z 10008KT 10SM CLR 22/13 A3012 RMK AO2 SLP201 T02220133 51007
2026-04-23 01:53:00,METAR KOPF 230153Z 09008KT 10SM FEW070 22/13 A3011 RMK AO2 SLP197 T02220128
2026-04-23 00:53:00,METAR KOPF 230053Z 08009KT 10SM SCT047 BKN065 23/13 A3011 RMK AO2 SLP198 T02280133
2026-04-22 23:53:00,METAR KOPF 222353Z 09009KT 10SM CLR 23/13 A3010 RMK AO2 SLP194 T02330128 10272 20233 56001
2026-04-22 22:53:00,METAR KOPF 222253Z 10011KT 10SM CLR 24/13 A3010 RMK AO2 SLP194 T02440133
2026-04-22 21:53:00,METAR KOPF 222153Z 10012KT 10SM SCT065 24/13 A3010 RMK AO2 SLP192 T02390128
2026-04-22 20:53:00,METAR KOPF 222053Z 10013G18KT 10SM BKN070 25/12 A3010 RMK AO2 SLP195 T02500122 58019
2026-04-22 19:53:00,METAR KOPF 221953Z 12011G22KT 10SM BKN060 BKN070 26/12 A3012 RMK AO2 SLP201 T02610122
2026-04-22 18:53:00,METAR KOPF 221853Z 09015G19KT 10SM BKN050 BKN065 26/13 A3015 RMK AO2 PK WND 10028/1804 SLP209 T02610133
2026-04-22 17:53:00,METAR KOPF 221753Z 09017G29KT 10SM SCT048 BKN060 27/13 A3016 RMK AO2 PK WND 09029/1753 SLP214 T02670133 10272 20217 58013
2026-04-22 16:53:00,METAR KOPF 221653Z 11013G22KT 10SM SCT050 BKN060 26/13 A3018 RMK AO2 PK WND 09027/1615 SLP221 T02610128
2026-04-22 15:53:00,METAR KOPF 221553Z 09014G26KT 10SM BKN055 26/13 A3019 RMK AO2 PK WND 09026/1548 SLP225 T02560133
2026-04-22 14:53:00,METAR KOPF 221453Z 08012G22KT 10SM BKN060 26/13 A3020 RMK AO2 SLP227 T02610128 53008
2026-04-22 13:53:00,METAR KOPF 221353Z 10014G26KT 10SM SCT047 BKN060 25/13 A3019 RMK AO2 PK WND 09026/1349 SLP222 T02500133
2026-04-22 12:53:00,METAR KOPF 221253Z 09016G20KT 10SM FEW060 24/13 A3018 RMK AO2 SLP222 T02390133
2026-04-22 11:53:00,METAR KOPF 221153Z 09010KT 10SM FEW055 22/13 A3018 RMK AO2 SLP219 T02170128 10222 20206 53012
2026-04-22 10:53:00,METAR KOPF 221053Z 09010KT 10SM CLR 21/12 A3015 RMK AO2 SLP211 T02110117
2026-04-22 09:53:00,METAR KOPF 220953Z AUTO 10010KT 10SM CLR 21/11 A3015 RMK AO2 SLP209 T02110111
2026-04-22 08:53:00,METAR KOPF 220853Z AUTO 09011G19KT 10SM SCT046 BKN055 22/13 A3014 RMK AO2 SLP207 T02220128 55009
2026-04-22 07:53:00,METAR KOPF 220753Z AUTO 08009KT 10SM CLR 21/12 A3014 RMK AO2 SLP206 T02060122
2026-04-22 06:53:00,METAR KOPF 220653Z AUTO 09012KT 10SM FEW050 22/11 A3015 RMK AO2 SLP211 T02170106
2026-04-22 05:53:00,METAR KOPF 220553Z AUTO 08012KT 10SM BKN048 22/12 A3017 RMK AO2 SLP216 T02220122 10228 20217 58013
2026-04-22 04:53:00,METAR KOPF 220453Z AUTO 08013KT 10SM CLR 22/11 A3019 RMK AO2 SLP223 T02170111 402670217
2026-04-22 03:53:00,METAR KOPF 220353Z AUTO 07015G20KT 10SM CLR 22/13 A3020 RMK AO2 SLP227 T02170128
2026-04-22 02:53:00,METAR KOPF 220253Z 06014KT 10SM CLR 22/12 A3020 RMK AO2 SLP229 T02170122 50007
2026-04-22 01:53:00,METAR KOPF 220153Z 07012G22KT 10SM CLR 22/12 A3021 RMK AO2 SLP231 T02220117
2026-04-22 00:53:00,METAR KOPF 220053Z 07013G18KT 10SM CLR 22/12 A3020 RMK AO2 SLP226 T02220117
2026-04-21 23:53:00,METAR KOPF 212353Z 06011KT 10SM FEW049 23/12 A3018 RMK AO2 PK WND 07026/2259 SLP222 T02280122 10261 20228 53006
2026-04-21 22:53:00,METAR KOPF 212253Z 06015G26KT 10SM BKN050 23/12 A3017 RMK AO2 PK WND 08027/2206 SLP218 T02330117
2026-04-21 21:53:00,METAR KOPF 212153Z 07020G26KT 10SM SCT050 24/12 A3017 RMK AO2 PK WND 09027/2106 SLP215 T02440122
2026-04-21 20:53:00,METAR KOPF 212053Z 07018G27KT 10SM FEW048 25/12 A3017 RMK AO2 PK WND 06029/2001 SLP215 T02500122 56013
2026-04-21 19:53:00,METAR KOPF 211953Z 06020G29KT 10SM SCT048 26/12 A3017 RMK AO2 PK WND 08031/1903 SLP218 T02560122
2026-04-21 18:53:00,METAR KOPF 211853Z 07016G26KT 10SM SCT048 26/13 A3019 RMK AO2 PK WND 06029/1813 SLP224 T02560128
2026-04-21 17:53:00,METAR KOPF 211753Z 05019G30KT 10SM BKN048 25/13 A3020 RMK AO2 PK WND 07030/1736 SLP229 T02500133 10267 20228 58005
2026-04-21 16:53:00,METAR KOPF 211653Z 05020G28KT 10SM SCT050 26/13 A3022 RMK AO2 PK WND 08030/1635 SLP233 T02610133
2026-04-21 15:53:00,METAR KOPF 211553Z 06017G28KT 10SM BKN047 OVC055 25/14 A3022 RMK AO2 PK WND 07031/1519 SLP235 T02500139
2026-04-21 14:53:00,METAR KOPF 211453Z 06018G29KT 10SM BKN041 OVC055 26/16 A3022 RMK AO2 PK WND 06029/1450 SLP234 T02560156 51018
2026-04-21 13:53:00,METAR KOPF 211353Z 06015G26KT 10SM SCT044 SCT055 26/14 A3020 RMK AO2 PK WND 07029/1319 SLP228 T02560144
2026-04-21 12:53:00,METAR KOPF 211253Z 05015KT 10SM SCT048 23/15 A3019 RMK AO2 PK WND 05026/1232 SLP222 T02330150
2026-04-21 11:53:00,METAR KOPF 211153Z 05014G21KT 10SM BKN047 23/16 A3017 RMK AO2 PK WND 04026/1108 SLP216 60000 70031 T02280156 10228 20222 53020
2026-04-21 10:53:00,METAR KOPF 211053Z 05017G23KT 10SM SCT045 22/16 A3013 RMK AO2 PK WND 03026/0958 SLP204 T02220161
2026-04-21 09:53:00,METAR KOPF 210953Z AUTO 04016G26KT 10SM OVC042 23/17 A3012 RMK AO2 PK WND 06029/0854 SLP199 T02280167
2026-04-21 08:53:00,METAR KOPF 210853Z AUTO 04016G27KT 10SM BKN038 23/17 A3011 RMK AO2 PK WND 04027/0843 SLP196 60000 T02280172 55002
2026-04-21 07:53:00,METAR KOPF 210753Z AUTO 04015G23KT 10SM FEW032 BKN040 OVC049 23/18 A3011 RMK AO2 SLP195 T02280178
2026-04-21 07:09:00,SPECI KOPF 210709Z AUTO 04010KT 10SM FEW026 BKN035 OVC047 23/19 A3011 RMK AO2 T02280194
2026-04-21 06:53:00,METAR KOPF 210653Z AUTO 06006KT 10SM BKN026 OVC033 22/20 A3011 RMK AO2 RAB30E46 SLP196 P0000 T02220200
2026-04-21 06:41:00,SPECI KOPF 210641Z AUTO 06010KT 10SM -RA BKN028 OVC036 22/19 A3011 RMK AO2 RAB30 P0000 T02220194
2026-04-21 05:53:00,METAR KOPF 210553Z AUTO 05011KT 10SM FEW030 BKN050 BKN065 22/20 A3011 RMK AO2 RAB26E49 SLP198 P0000 60023 T02220200 10233 20222 50001
2026-04-21 04:53:00,METAR KOPF 210453Z AUTO 05011G19KT 10SM FEW028 SCT050 BKN060 23/19 A3012 RMK AO2 RAB17E41 SLP200 P0001 T02280194 403060217
2026-04-21 03:53:00,METAR KOPF 210353Z AUTO 05010KT 10SM FEW028 SCT045 BKN055 23/20 A3012 RMK AO2 SLP199 T02330200
2026-04-21 02:53:00,METAR KOPF 210253Z 04006KT 10SM OVC100 23/21 A3011 RMK AO2 RAB09E42 SLP197 P0001 60022 T02280211 51012
2026-04-21 01:53:00,METAR KOPF 210153Z 03009KT 3SM BR FEW022 OVC075 23/21 A3011 RMK AO2 RAE53 SLP195 P0015 T02280206
2026-04-21 00:53:00,METAR KOPF 210053Z 04007KT 4SM +RA BR SCT050 OVC060 23/21 A3009 RMK AO2 RAB07 SLP190 P0006 T02280211
2026-04-21 00:19:00,SPECI KOPF 210019Z 06009KT 10SM -RA FEW015 BKN055 OVC080 23/21 A3008 RMK AO2 RAB07 P0000 T02280206
2026-04-21 00:00:00,SPECI KOPF 210000Z 06014G19KT 10SM BKN015 OVC025 23/21 A3008 RMK AO2 T02330206
2026-04-20 23:53:00,METAR KOPF 202353Z 05008KT 10SM SCT017 SCT025 OVC070 23/21 A3008 RMK AO2 PK WND 06027/2255 RAB04E13 SLP185 P0000 60008 T02330206 10300 20228 51017
2026-04-20 22:53:00,METAR KOPF 202253Z 05014G21KT 10SM SCT026 SCT034 BKN120 25/21 A3006 RMK AO2 RAE14 SLP179 P0001 T02500206
2026-04-20 21:53:00,METAR KOPF 202153Z 05008KT 7SM RA FEW060 BKN090 OVC100 24/21 A3005 RMK AO2 SLP176 P0007 T02390211
2026-04-20 21:34:00,SPECI KOPF 202134Z 04009G19KT 7SM RA FEW065 BKN085 OVC110 24/21 A3005 RMK AO2 P0004 T02440211
2026-04-20 20:53:00,METAR KOPF 202053Z 06011KT 10SM VCTS -RA FEW050 BKN100 OVC120 26/21 A3003 RMK AO2 LTG DSNT S RAB14 SLP169 P0000 60000 T02560211 58004
2026-04-20 20:45:00,SPECI KOPF 202045Z 06013KT 10SM VCTS -RA FEW050 BKN080 OVC120 26/21 A3003 RMK AO2 LTG DSNT S RAB14 P0000 T02560211
2026-04-20 19:53:00,METAR KOPF 201953Z 08012KT 10SM SCT030 BKN080 OVC100 27/20 A3003 RMK AO2 PK WND 07026/1858 SLP171 T02720200
2026-04-20 18:53:00,METAR KOPF 201853Z 06012G22KT 10SM CLR 29/19 A3003 RMK AO2 SLP171 T02940194
2026-04-20 18:21:00,SPECI KOPF 201821Z 06015G22KT 10SM FEW029 SCT085 29/21 A3004 RMK AO2 LTG DSNT S T02940206
2026-04-20 18:06:00,SPECI KOPF 201806Z 07016G21KT 10SM VCTS FEW048 FEW085 29/21 A3003 RMK AO2 LTG DSNT S AND SW T02940211
2026-04-20 17:53:00,METAR KOPF 201753Z 06015KT 10SM SCT048 30/21 A3004 RMK AO2 SLP172 T03000206 10306 20222 58004
2026-04-20 16:53:00,METAR KOPF 201653Z 06012G18KT 10SM SCT032 SCT040 SCT050 30/21 A3005 RMK AO2 SLP175 T03000206
2026-04-20 15:53:00,METAR KOPF 201553Z 04007KT 10SM SCT027 29/21 A3006 RMK AO2 SLP179 T02940206
2026-04-20 14:53:00,METAR KOPF 201453Z 08006KT 10SM SCT025 28/21 A3005 RMK AO2 SLP177 T02830211 53006
2026-04-20 13:53:00,METAR KOPF 201353Z 05006KT 10SM CLR 27/21 A3004 RMK AO2 SLP174 T02670211
2026-04-20 12:53:00,METAR KOPF 201253Z 34003KT 10SM FEW075 24/20 A3004 RMK AO2 SLP171 T02390200 $
2026-04-20 12:14:00,SPECI KOPF 201214Z 00000KT 10SM SCT007 OVC075 23/19 A3003 RMK AO2 T02280194 $
2026-04-20 11:53:00,METAR KOPF 201153Z 00000KT 10SM BKN006 OVC075 22/18 A3003 RMK AO2 SLP171 T02220183 10239 20217 51015 $
2026-04-20 11:44:00,SPECI KOPF 201144Z 00000KT 10SM SCT008 BKN075 22/18 A3003 RMK AO2 T02220183 $
2026-04-20 10:53:00,METAR KOPF 201053Z 02003KT 10SM BKN070 22/18 A3002 RMK AO2 SLP165 T02170178 $
2026-04-20 09:53:00,METAR KOPF 200953Z AUTO 30006KT 10SM SCT070 22/18 A2999 RMK AO2 SLP156 T02170178 $
2026-04-20 08:53:00,METAR KOPF 200853Z AUTO 30006KT 10SM OVC070 22/19 A2999 RMK AO2 SLP156 T02220189 56004 $
2026-04-20 07:53:00,METAR KOPF 200753Z AUTO 27005KT 10SM OVC070 23/19 A2999 RMK AO2 SLP156 T02280189 $
2026-04-20 06:53:00,METAR KOPF 200653Z AUTO 24005KT 10SM BKN070 23/19 A2999 RMK AO2 SLP157 T02330194 $
2026-04-20 05:53:00,METAR KOPF 200553Z AUTO 25003KT 10SM CLR 24/19 A3000 RMK AO2 SLP161 60000 T02390189 10267 20233 58007 $
2026-04-20 04:53:00,METAR KOPF 200453Z AUTO 28005KT 10SM CLR 24/19 A3001 RMK AO2 SLP163 T02390194 403110228 $
2026-04-20 03:53:00,METAR KOPF 200353Z AUTO 23003KT 10SM CLR 25/20 A3002 RMK AO2 SLP166 T02500200 $
2026-04-20 02:53:00,METAR KOPF 200253Z 24010KT 10SM CLR 26/20 A3002 RMK AO2 SLP168 60000 T02610200 53016 $
2026-04-20 01:53:00,METAR KOPF 200153Z 22007KT 10SM SCT055 OVC075 26/21 A3001 RMK AO2 RAB33E44 SLP162 P0000 T02610206 $
2026-04-20 00:53:00,METAR KOPF 200053Z 21004KT 10SM BKN050 OVC070 26/19 A2999 RMK AO2 SLP157 T02610194 $
2026-04-19 23:53:00,METAR KOPF 192353Z 20007KT 10SM BKN070 OVC080 26/18 A2998 RMK AO2 SLP152 60000 T02610178 10311 20256 50007 $
2026-04-19 22:53:00,METAR KOPF 192253Z 26003KT 10SM SCT025 BKN065 OVC080 26/22 A2998 RMK AO2 RAB17E46 SLP153 P0000 T02560217 $
2026-04-19 21:53:00,METAR KOPF 192153Z 18008KT 10SM FEW060 SCT090 OVC110 28/20 A2997 RMK AO2 SLP148 T02780200 $
2026-04-19 20:53:00,METAR KOPF 192053Z 13014KT 10SM BKN055 28/21 A2996 RMK AO2 SLP145 T02830206 56018 $
2026-04-19 19:53:00,METAR KOPF 191953Z 12008KT 10SM FEW110 30/19 A2997 RMK AO2 SLP151 T03000189 $
2026-04-19 18:53:00,METAR KOPF 191853Z 11008KT 10SM FEW049 BKN060 OVC090 31/16 A2999 RMK AO2 SLP156 T03060156 $
2026-04-19 17:53:00,METAR KOPF 191753Z 14009KT 10SM FEW044 BKN095 31/19 A3001 RMK AO2 SLP163 T03060189 10311 20239 58008 $
2026-04-19 16:53:00,METAR KOPF 191653Z 13006KT 10SM SCT035 SCT043 BKN055 31/21 A3002 RMK AO2 SLP165 T03060211 $
2026-04-19 15:53:00,METAR KOPF 191553Z 25004KT 10SM FEW032 BKN041 BKN050 29/21 A3003 RMK AO2 SLP170 T02890206 $
2026-04-19 14:53:00,METAR KOPF 191453Z 26003KT 10SM FEW026 SCT075 28/22 A3003 RMK AO2 SLP171 T02830217 53004 $
2026-04-19 13:53:00,METAR KOPF 191353Z 00000KT 10SM SCT020 SCT026 SCT033 27/22 A3003 RMK AO2 SLP170 T02670217 $
2026-04-19 12:53:00,METAR KOPF 191253Z 00000KT 10SM FEW016 OVC090 26/22 A3003 RMK AO2 SLP169 T02560222 $
2026-04-19 12:07:00,SPECI KOPF 191207Z 32003KT 10SM SCT017 SCT029 BKN090 24/22 A3003 RMK AO2 T02390217 $
2026-04-19 12:00:00,SPECI KOPF 191200Z 31003KT 10SM SCT017 BKN029 BKN090 24/22 A3003 RMK AO2 T02390217 $
2026-04-19 11:53:00,METAR KOPF 191153Z 31003KT 10SM SCT017 SCT021 BKN090 24/22 A3002 RMK AO2 SLP168 T02390222 10250 20228 53014 $
2026-04-19 10:53:00,METAR KOPF 191053Z AUTO 32003KT 10SM SCT017 BKN085 23/22 A3000 RMK AO2 SLP159 T02280217 $
2026-04-19 09:53:00,METAR KOPF 190953Z AUTO 30005KT 10SM CLR 23/21 A2999 RMK AO2 SLP155 T02280211 $
2026-04-19 08:53:00,METAR KOPF 190853Z AUTO 00000KT 10SM SCT021 BKN080 24/22 A2998 RMK AO2 SLP154 T02390217 56008 $
2026-04-19 07:53:00,METAR KOPF 190753Z AUTO 14003KT 10SM OVC075 24/22 A2998 RMK AO2 SLP154 T02390217 $
2026-04-19 06:53:00,METAR KOPF 190653Z AUTO 13004KT 10SM CLR 25/22 A2999 RMK AO2 SLP158 T02500217
2026-04-19 05:53:00,METAR KOPF 190553Z AUTO 13005KT 10SM CLR 24/22 A3001 RMK AO2 SLP162 T02440217 10261 20239 58006
2026-04-19 04:53:00,METAR KOPF 190453Z AUTO 12005KT 10SM CLR 24/22 A3002 RMK AO2 SLP167 T02440217 403060228
2026-04-19 03:53:00,METAR KOPF 190353Z AUTO 10007KT 10SM FEW019 25/22 A3003 RMK AO2 SLP168 T02500217
2026-04-19 02:53:00,METAR KOPF 190253Z AUTO 11009KT 10SM FEW070 25/22 A3003 RMK AO2 SLP168 T02500217 53019
2026-04-19 01:53:00,METAR KOPF 190153Z 09009KT 10SM BKN060 25/22 A3001 RMK AO2 SLP162 T02500217
2026-04-19 00:53:00,METAR KOPF 190053Z 08012KT 10SM CLR 26/22 A2998 RMK AO2 SLP153 T02560217
2026-04-18 23:53:00,METAR KOPF 182353Z 12007KT 10SM CLR 26/21 A2997 RMK AO2 SLP149 T02610211 10306 20261 51002
2026-04-18 22:53:00,METAR KOPF 182253Z 11009KT 10SM FEW070 27/21 A2997 RMK AO2 SLP148 T02720206
2026-04-18 21:53:00,METAR KOPF 182153Z 10010KT 10SM CLR 28/19 A2997 RMK AO2 SLP148 T02830194
2026-04-18 20:53:00,METAR KOPF 182053Z 13008KT 10SM CLR 29/20 A2996 RMK AO2 SLP147 T02940200 56016
2026-04-18 19:53:00,METAR KOPF 181953Z 11009G18KT 10SM CLR 30/20 A2997 RMK AO2 SLP149 T03000200
2026-04-18 18:53:00,METAR KOPF 181853Z 12009G16KT 10SM FEW036 30/21 A2999 RMK AO2 SLP156 T03000206
2026-04-18 17:53:00,METAR KOPF 181753Z 11008G18KT 090V150 10SM SCT032 29/20 A3001 RMK AO2 SLP162 T02940200 10306 20244 58010
2026-04-18 16:53:00,METAR KOPF 181653Z 11008G19KT 080V140 10SM FEW031 29/20 A3002 RMK AO2 SLP167 T02890200
2026-04-18 15:53:00,METAR KOPF 181553Z 10009KT 10SM SCT030 SCT039 29/21 A3004 RMK AO2 SLP172 T02890206
2026-04-18 14:53:00,METAR KOPF 181453Z 10009KT 10SM SCT024 28/21 A3004 RMK AO2 SLP172 T02780206 53006
2026-04-18 13:53:00,METAR KOPF 181353Z 09010KT 10SM SCT023 27/21 A3003 RMK AO2 SLP169 T02720211
2026-04-18 12:53:00,METAR KOPF 181253Z 09008KT 10SM SCT018 27/22 A3002 RMK AO2 SLP167 T02670217
2026-04-18 12:49:00,SPECI KOPF 181249Z 09009KT 10SM BKN018 26/22 A3002 RMK AO2
2026-04-18 11:53:00,METAR KOPF 181153Z 36003KT 10SM FEW016 24/22 A3001 RMK AO2 SLP164 T02440217 10244 20228 53016
2026-04-18 10:53:00,METAR KOPF 181053Z 03003KT 10SM FEW015 23/21 A2998 RMK AO2 SLP154 T02280211
2026-04-18 09:53:00,METAR KOPF 180953Z AUTO 09003KT 10SM CLR 23/21 A2997 RMK AO2 SLP149 T02280211
2026-04-18 08:53:00,METAR KOPF 180853Z AUTO 13005KT 10SM CLR 23/21 A2996 RMK AO2 SLP147 T02330211 55011
2026-04-18 07:53:00,METAR KOPF 180753Z AUTO 10003KT 10SM CLR 23/21 A2996 RMK AO2 SLP146 T02280206
2026-04-18 06:53:00,METAR KOPF 180653Z AUTO 09004KT 10SM CLR 23/21 A2998 RMK AO2 SLP151 T02330211
2026-04-18 05:53:00,METAR KOPF 180553Z AUTO 11005KT 10SM FEW018 24/21 A3000 RMK AO2 SLP158 T02390211 10256 20239 58012
2026-04-18 04:53:00,METAR KOPF 180453Z AUTO 09006KT 10SM CLR 24/21 A3002 RMK AO2 SLP165 T02390211 403000222
2026-04-18 03:53:00,METAR KOPF 180353Z AUTO 08004KT 10SM FEW021 24/21 A3002 RMK AO2 SLP167 T02390211
2026-04-18 02:53:00,METAR KOPF 180253Z AUTO 08007KT 10SM CLR 24/21 A3003 RMK AO2 SLP170 T02440211 51010
2026-04-18 01:53:00,METAR KOPF 180153Z 08008KT 10SM FEW020 25/21 A3003 RMK AO2 SLP169 T02500211
2026-04-18 01:09:00,SPECI KOPF 180109Z 08009KT 10SM SCT020 SCT028 25/21 A3002 RMK AO2 T02500211
2026-04-18 01:01:00,SPECI KOPF 180101Z 08010KT 10SM SCT020 BKN028 26/21 A3001 RMK AO2 T02560211
2026-04-18 00:53:00,METAR KOPF 180053Z 07009KT 10SM FEW020 25/22 A3001 RMK AO2 SLP163 T02500217
2026-04-17 23:53:00,METAR KOPF 172353Z 07010KT 10SM FEW022 26/21 A3000 RMK AO2 SLP160 T02560206 10300 20256 55000
2026-04-17 22:53:00,METAR KOPF 172253Z 09011KT 10SM FEW027 27/21 A3000 RMK AO2 SLP161 T02670206
2026-04-17 21:53:00,METAR KOPF 172153Z 08012KT 10SM FEW029 28/20 A3000 RMK AO2 SLP158 T02830200
2026-04-17 20:53:00,METAR KOPF 172053Z 08009KT 10SM SCT030 29/21 A3000 RMK AO2 SLP160 T02890206 55012
2026-04-17 19:53:00,METAR KOPF 171953Z 10012G19KT 10SM FEW030 29/20 A3000 RMK AO2 SLP159 T02890200
2026-04-17 18:53:00,METAR KOPF 171853Z 11011G18KT 10SM FEW032 29/21 A3002 RMK AO2 SLP166 T02940211
2026-04-17 17:53:00,METAR KOPF 171753Z 11009KT 10SM SCT033 29/21 A3004 RMK AO2 SLP172 60000 T02890206 10300 20228 58013
2026-04-17 16:53:00,METAR KOPF 171653Z 11008G16KT 10SM SCT029 SCT041 29/22 A3006 RMK AO2 SLP179 T02940217
2026-04-17 16:25:00,SPECI KOPF 171625Z 14008KT 10SM SCT028 BKN035 29/21 A3007 RMK AO2 T02890211
2026-04-17 15:53:00,METAR KOPF 171553Z 11008KT 10SM BKN026 BKN036 28/21 A3007 RMK AO2 SLP184 T02780211
2026-04-17 15:36:00,SPECI KOPF 171536Z 07006KT 10SM BKN025 BKN037 BKN060 27/21 A3007 RMK AO2 T02720211
2026-04-17 14:53:00,METAR KOPF 171453Z 09005KT 10SM FEW036 26/22 A3007 RMK AO2 SLP184 60000 T02610217 51010
2026-04-17 13:53:00,METAR KOPF 171353Z 00000KT 10SM FEW017 SCT022 BKN038 26/22 A3006 RMK AO2 SLP181 T02610217
2026-04-17 12:53:00,METAR KOPF 171253Z 35003KT 10SM FEW017 SCT031 BKN060 24/22 A3005 RMK AO2 RAE08 SLP178 P0000 T02440222
2026-04-17 12:13:00,SPECI KOPF 171213Z 36005KT 10SM FEW019 SCT023 BKN060 23/22 A3005 RMK AO2 RAE08 P0000 T02330222
2026-04-17 11:53:00,METAR KOPF 171153Z 35004KT 10SM -RA SCT018 BKN022 OVC060 23/22 A3004 RMK AO2 RAB53 SLP174 P0000 60001 70001 T02280222 10239 20222 53013
2026-04-17 10:53:00,METAR KOPF 171053Z AUTO 33004KT 10SM CLR 22/22 A3002 RMK AO2 SLP165 T02220217
2026-04-17 09:53:00,METAR KOPF 170953Z AUTO 34004KT 10SM FEW014 SCT060 23/22 A3001 RMK AO2 RAB07E30 SLP163 P0001 T02280217
2026-04-17 09:36:00,SPECI KOPF 170936Z AUTO 36004KT 10SM FEW016 SCT021 BKN065 23/22 A3001 RMK AO2 RAB07E30 P0001 T02330222
2026-04-17 09:28:00,SPECI KOPF 170928Z AUTO 01004KT 10SM -RA FEW016 BKN021 BKN032 23/22 A3001 RMK AO2 RAB07 P0001 T02330222
2026-04-17 08:53:00,METAR KOPF 170853Z AUTO 35003KT 10SM FEW016 SCT040 23/22 A3001 RMK AO2 SLP161 60000 T02330217 57005
2026-04-17 07:53:00,METAR KOPF 170753Z AUTO 06004KT 10SM SCT026 BKN050 23/21 A3001 RMK AO2 SLP162 T02330211
2026-04-17 07:38:00,SPECI KOPF 170738Z AUTO 00000KT 10SM BKN028 BKN042 OVC050 24/21 A3001 RMK AO2 T02390211
2026-04-17 06:53:00,METAR KOPF 170653Z AUTO 09006KT 10SM FEW022 SCT029 OVC036 23/22 A3002 RMK AO2 RAE0557B18E35 SLP165 P0000 T02330217
2026-04-17 06:50:00,SPECI KOPF 170650Z AUTO 09005KT 10SM FEW015 SCT023 OVC038 23/22 A3002 RMK AO2 RAE0557B18E35 P0000
2026-04-17 05:53:00,METAR KOPF 170553Z AUTO 00000KT 10SM -RA BKN017 BKN025 OVC050 23/20 A3004 RMK AO2 RAB48 SLP174 P0000 60000 T02330200 10244 20228 58013
2026-04-17 05:41:00,SPECI KOPF 170541Z AUTO 00000KT 10SM BKN019 BKN041 24/21 A3005 RMK AO2 T02390206
2026-04-17 04:53:00,METAR KOPF 170453Z AUTO 05003KT 10SM FEW019 SCT027 24/20 A3007 RMK AO2 SLP182 T02390200 402830200
2026-04-17 04:34:00,SPECI KOPF 170434Z AUTO 05003KT 10SM FEW019 BKN026 OVC046 24/20 A3007 RMK AO2 T02390200
2026-04-17 04:08:00,SPECI KOPF 170408Z AUTO 05005KT 10SM FEW022 SCT044 24/19 A3007 RMK AO2 T02390194
2026-04-17 03:53:00,METAR KOPF 170353Z AUTO 05005KT 10SM BKN026 24/19 A3007 RMK AO2 SLP185 T02390194
2026-04-17 03:34:00,SPECI KOPF 170334Z AUTO 06005KT 10SM BKN026 BKN033 24/19 A3007 RMK AO2 T02390189
2026-04-17 03:13:00,SPECI KOPF 170313Z AUTO 05005KT 10SM OVC030 24/18 A3007 RMK AO2 T02390183
2026-04-17 03:00:00,SPECI KOPF 170300Z AUTO 04004KT 10SM BKN028 24/18 A3008 RMK AO2 T02390183
2026-04-17 02:53:00,METAR KOPF 170253Z 04005KT 10SM SCT028 23/18 A3008 RMK AO2 SLP186 T02330183 51004
2026-04-17 01:53:00,METAR KOPF 170153Z 06006KT 10SM CLR 23/18 A3008 RMK AO2 SLP186 T02330178
2026-04-17 00:53:00,METAR KOPF 170053Z 06006KT 10SM CLR 23/17 A3007 RMK AO2 SLP185 T02330172
2026-04-16 23:53:00,METAR KOPF 162353Z 07010KT 10SM BKN036 24/17 A3007 RMK AO2 SLP182 T02440172 10283 20244 53004
2026-04-16 22:53:00,METAR KOPF 162253Z 08009KT 10SM SCT038 26/17 A3006 RMK AO2 SLP181 T02560167
2026-04-16 21:53:00,METAR KOPF 162153Z 07008G16KT 10SM SCT042 27/16 A3006 RMK AO2 SLP179 T02670161
2026-04-16 20:53:00,METAR KOPF 162053Z 10010G17KT 10SM SCT044 27/16 A3006 RMK AO2 SLP178 T02720161 58017
2026-04-16 19:53:00,METAR KOPF 161953Z 12008G17KT 10SM SCT045 28/16 A3007 RMK AO2 SLP184 T02830156
2026-04-16 18:53:00,METAR KOPF 161853Z 08010G17KT 10SM SCT045 28/16 A3009 RMK AO2 SLP191 T02780161
2026-04-16 17:53:00,METAR KOPF 161753Z 09011G20KT 10SM FEW044 27/16 A3011 RMK AO2 SLP196 T02720156 10278 20217 58007
2026-04-16 16:53:00,METAR KOPF 161653Z 12011G20KT 080V150 10SM BKN043 27/16 A3013 RMK AO2 SLP202 T02720161
2026-04-16 15:53:00,METAR KOPF 161553Z 11010G17KT 10SM CLR 27/16 A3013 RMK AO2 SLP203 T02670156
2026-04-16 14:53:00,METAR KOPF 161453Z 13013G18KT 10SM SCT042 26/16 A3013 RMK AO2 SLP203 T02610156 52006
2026-04-16 13:53:00,METAR KOPF 161353Z 13011KT 10SM BKN043 26/15 A3012 RMK AO2 SLP202 T02560150
2026-04-16 12:53:00,METAR KOPF 161253Z 10008KT 10SM BKN045 25/16 A3012 RMK AO2 SLP199 T02500161 $
2026-04-16 11:53:00,METAR KOPF 161153Z 02003KT 10SM SCT047 22/17 A3011 RMK AO2 SLP198 T02170172 10239 20200 53012 $
2026-04-16 10:53:00,METAR KOPF 161053Z 00000KT 10SM SCT045 21/16 A3009 RMK AO2 SLP190 T02110156 $
2026-04-16 09:53:00,METAR KOPF 160953Z AUTO 02004KT 10SM BKN047 22/16 A3008 RMK AO2 SLP186 T02170156 $
2026-04-16 08:53:00,METAR KOPF 160853Z AUTO 36004KT 10SM CLR 21/15 A3008 RMK AO2 SLP186 T02110150 56008 $
2026-04-16 07:53:00,METAR KOPF 160753Z AUTO 08006KT 10SM FEW046 21/14 A3008 RMK AO2 SLP186 T02110144 $
2026-04-16 06:53:00,METAR KOPF 160653Z AUTO 07004KT 10SM FEW033 OVC042 23/16 A3010 RMK AO2 SLP193 T02330161 $
2026-04-16 05:53:00,METAR KOPF 160553Z AUTO 11005KT 10SM BKN043 23/14 A3010 RMK AO2 SLP194 T02330139 10239 20222 58010 $
2026-04-16 04:53:00,METAR KOPF 160453Z AUTO 09007KT 10SM OVC044 23/14 A3012 RMK AO2 SLP199 T02330144 402720217 $
2026-04-16 03:53:00,METAR KOPF 160353Z AUTO 08009KT 10SM BKN044 23/14 A3013 RMK AO2 SLP203 T02330139 $
2026-04-16 02:53:00,METAR KOPF 160253Z 07007KT 10SM OVC044 23/14 A3013 RMK AO2 SLP203 T02330144 51012 $
2026-04-16 01:53:00,METAR KOPF 160153Z 06008KT 10SM BKN043 23/14 A3012 RMK AO2 SLP201 T02280144 $
2026-04-16 00:53:00,METAR KOPF 160053Z 08007KT 10SM FEW043 23/14 A3011 RMK AO2 SLP198 T02280144 $
2026-04-15 23:53:00,METAR KOPF 152353Z 07011G17KT 10SM SCT043 24/14 A3009 RMK AO2 SLP191 T02390139 10272 20239 58001 $
2026-04-15 22:53:00,METAR KOPF 152253Z 09009KT 10SM BKN043 24/14 A3010 RMK AO2 SLP192 T02440144 $
2026-04-15 21:53:00,METAR KOPF 152153Z 08011KT 10SM OVC044 25/14 A3010 RMK AO2 SLP194 T02500144 $
2026-04-15 20:53:00,METAR KOPF 152053Z 08010G18KT 10SM OVC043 26/16 A3010 RMK AO2 SLP192 T02560161 55013 $
2026-04-15 19:53:00,METAR KOPF 151953Z 08012KT 10SM OVC045 26/15 A3010 RMK AO2 SLP192 T02610150 $
2026-04-15 18:53:00,METAR KOPF 151853Z 08014G20KT 10SM OVC044 26/16 A3011 RMK AO2 PK WND 11026/1832 SLP196 T02610156
2026-04-15 17:53:00,METAR KOPF 151753Z 10012G20KT 10SM OVC046 27/15 A3013 RMK AO2 SLP205 T02670150 10272 20228 58009
2026-04-15 16:53:00,METAR KOPF 151653Z 06012KT 10SM OVC048 26/14 A3015 RMK AO2 SLP211 T02610144
2026-04-15 15:53:00,METAR KOPF 151553Z 07008G17KT 10SM OVC047 26/15 A3016 RMK AO2 SLP213 T02610150
2026-04-15 14:53:00,METAR KOPF 151453Z 07013G18KT 10SM OVC046 25/14 A3016 RMK AO2 SLP214 T02500144 53008
2026-04-15 13:53:00,METAR KOPF 151353Z 09010G16KT 10SM OVC042 24/14 A3015 RMK AO2 SLP211 T02440144
2026-04-15 12:53:00,METAR KOPF 151253Z 11008KT 10SM OVC044 24/14 A3014 RMK AO2 SLP207 T02390139
2026-04-15 11:53:00,METAR KOPF 151153Z 09010KT 10SM BKN043 23/13 A3014 RMK AO2 SLP206 T02280133 10233 20222 53017
2026-04-15 10:53:00,METAR KOPF 151053Z AUTO 09006KT 10SM OVC044 23/13 A3011 RMK AO2 SLP196 T02280133
2026-04-15 09:53:00,METAR KOPF 150953Z AUTO 11006KT 10SM OVC044 23/13 A3009 RMK AO2 SLP191 T02280133
2026-04-15 08:53:00,METAR KOPF 150853Z AUTO 10007KT 10SM BKN044 22/13 A3009 RMK AO2 SLP189 T02220128 55011
2026-04-15 07:53:00,METAR KOPF 150753Z AUTO 11009KT 10SM OVC046 23/14 A3009 RMK AO2 SLP189 T02280139
2026-04-15 06:53:00,METAR KOPF 150653Z AUTO 11009KT 10SM OVC044 23/13 A3010 RMK AO2 SLP195 T02330133
2026-04-15 05:53:00,METAR KOPF 150553Z AUTO 07006KT 10SM BKN045 22/13 A3012 RMK AO2 SLP200 T02220133 10239 20217 58013
2026-04-15 04:53:00,METAR KOPF 150453Z AUTO 09011KT 10SM FEW044 23/13 A3014 RMK AO2 SLP208 T02280128 402830211
2026-04-15 03:53:00,METAR KOPF 150353Z AUTO 08015KT 10SM OVC044 23/15 A3015 RMK AO2 SLP212 T02330150
2026-04-15 02:53:00,METAR KOPF 150253Z 06009KT 10SM BKN047 23/14 A3016 RMK AO2 SLP213 T02330144 51012
2026-04-15 01:53:00,METAR KOPF 150153Z 08011KT 10SM BKN043 BKN050 23/15 A3015 RMK AO2 SLP210 T02330150
2026-04-15 00:53:00,METAR KOPF 150053Z 08011KT 10SM SCT045 23/15 A3014 RMK AO2 SLP206 T02330150
2026-04-14 23:53:00,METAR KOPF 142353Z 08011KT 10SM FEW042 24/15 A3013 RMK AO2 SLP202 T02390150 10278 20239 53001
2026-04-14 22:53:00,METAR KOPF 142253Z 07013KT 10SM SCT041 25/16 A3012 RMK AO2 SLP201 T02500156
2026-04-14 21:53:00,METAR KOPF 142153Z 08013G20KT 10SM SCT040 SCT048 26/16 A3012 RMK AO2 SLP198 T02610161
2026-04-14 20:53:00,METAR KOPF 142053Z 09011G22KT 10SM SCT043 26/16 A3012 RMK AO2 SLP201 T02610161 56020
2026-04-14 19:53:00,METAR KOPF 141953Z 10013G19KT 10SM FEW042 28/16 A3013 RMK AO2 SLP205 T02780161
2026-04-14 18:53:00,METAR KOPF 141853Z 09017G21KT 10SM SCT040 BKN049 27/16 A3016 RMK AO2 SLP213 T02670161
2026-04-14 17:53:00,METAR KOPF 141753Z 10016KT 10SM SCT037 SCT050 BKN060 26/17 A3018 RMK AO2 SLP221 T02610172 10283 20228 58007
2026-04-14 16:53:00,METAR KOPF 141653Z 07017G22KT 10SM FEW046 SCT055 28/16 A3019 RMK AO2 SLP223 T02780161
2026-04-14 15:53:00,METAR KOPF 141553Z 11014KT 10SM SCT042 27/16 A3020 RMK AO2 SLP227 T02720161
2026-04-14 14:53:00,METAR KOPF 141453Z 09010G20KT 10SM FEW041 FEW060 27/16 A3020 RMK AO2 SLP228 T02720161 51010
2026-04-14 13:53:00,METAR KOPF 141353Z 10013KT 10SM BKN037 BKN050 26/17 A3020 RMK AO2 SLP226 T02610172
2026-04-14 12:53:00,METAR KOPF 141253Z 08007KT 10SM CLR 25/16 A3018 RMK AO2 SLP222 T02500156
2026-04-14 11:53:00,METAR KOPF 141153Z 07004KT 10SM CLR 23/15 A3017 RMK AO2 SLP217 T02280150 10233 20211 53010
2026-04-14 10:53:00,METAR KOPF 141053Z 10004KT 10SM FEW050 22/14 A3016 RMK AO2 SLP212 T02170139
2026-04-14 09:53:00,METAR KOPF 140953Z AUTO 10008KT 10SM FEW050 22/14 A3014 RMK AO2 SLP207 T02220139
2026-04-14 08:53:00,METAR KOPF 140853Z AUTO 11007KT 10SM FEW049 22/14 A3014 RMK AO2 SLP207 T02220144 55006
2026-04-14 07:53:00,METAR KOPF 140753Z AUTO 10009KT 10SM SCT050 23/14 A3014 RMK AO2 SLP205 T02280139
2026-04-14 06:53:00,METAR KOPF 140653Z AUTO 09011KT 10SM CLR 22/14 A3015 RMK AO2 SLP209 T02220139
2026-04-14 05:53:00,METAR KOPF 140553Z AUTO 08008KT 10SM FEW050 23/14 A3016 RMK AO2 SLP214 T02280144 10239 20222 58010
2026-04-14 04:53:00,METAR KOPF 140453Z AUTO 08013KT 10SM CLR 23/14 A3017 RMK AO2 SLP217 T02280139 402780211
2026-04-14 03:53:00,METAR KOPF 140353Z AUTO 07014KT 10SM SCT050 23/13 A3019 RMK AO2 SLP223 T02330133
2026-04-14 02:53:00,METAR KOPF 140253Z 08012KT 10SM SCT049 23/14 A3019 RMK AO2 SLP224 T02330144 53007
2026-04-14 01:53:00,METAR KOPF 140153Z 08011KT 10SM FEW043 23/14 A3018 RMK AO2 SLP221 T02330144
2026-04-14 00:53:00,METAR KOPF 140053Z 07015G22KT 10SM FEW043 24/14 A3017 RMK AO2 SLP218 T02390144
2026-04-13 23:53:00,METAR KOPF 132353Z 08013KT 10SM SCT041 BKN048 24/16 A3017 RMK AO2 SLP217 T02390156 10278 20239 57005
2026-04-13 22:53:00,METAR KOPF 132253Z 08014KT 10SM SCT044 25/16 A3017 RMK AO2 SLP218 T02500156
2026-04-13 21:53:00,METAR KOPF 132153Z 08017G24KT 10SM CLR 26/14 A3018 RMK AO2 SLP220 T02610144
2026-04-13 20:53:00,METAR KOPF 132053Z 08017G24KT 10SM FEW043 27/15 A3018 RMK AO2 PK WND 08027/2002 SLP222 T02670150 57017
2026-04-13 19:53:00,METAR KOPF 131953Z 10015G25KT 10SM CLR 27/15 A3020 RMK AO2 SLP227 T02670150
2026-04-13 18:53:00,METAR KOPF 131853Z 07012G23KT 10SM SCT044 27/15 A3021 RMK AO2 PK WND 07026/1821 SLP232 T02670150
2026-04-13 17:53:00,METAR KOPF 131753Z 07016G25KT 10SM FEW045 27/15 A3023 RMK AO2 PK WND 07026/1710 SLP238 T02720150 10272 20222 58010
2026-04-13 16:53:00,METAR KOPF 131653Z 06013G19KT 10SM SCT045 27/15 A3026 RMK AO2 SLP246 T02720150
2026-04-13 15:53:00,METAR KOPF 131553Z 08016G25KT 10SM FEW042 27/14 A3027 RMK AO2 PK WND 08028/1505 SLP249 T02670144
2026-04-13 14:53:00,METAR KOPF 131453Z 09019G25KT 10SM CLR 26/14 A3026 RMK AO2 PK WND 08026/1439 SLP248 T02610139 50006
2026-04-13 13:53:00,METAR KOPF 131353Z 08014G21KT 10SM FEW042 26/14 A3027 RMK AO2 SLP249 T02560144
2026-04-13 12:53:00,METAR KOPF 131253Z 09017G21KT 10SM SCT041 SCT050 24/14 A3025 RMK AO2 SLP245 T02390144 $
2026-04-13 11:53:00,METAR KOPF 131153Z 07010G18KT 10SM FEW042 SCT050 23/14 A3024 RMK AO2 SLP242 70005 T02280144 10228 20211 53014 $
2026-04-13 10:53:00,METAR KOPF 131053Z 08011KT 10SM CLR 22/14 A3023 RMK AO2 SLP237 T02170144 $
2026-04-13 09:53:00,METAR KOPF 130953Z AUTO 08011KT 10SM FEW038 SCT048 22/15 A3021 RMK AO2 SLP230 T02220150 $
2026-04-13 08:53:00,METAR KOPF 130853Z AUTO 08012KT 10SM FEW050 22/14 A3020 RMK AO2 SLP228 T02220139 55007 $
2026-04-13 07:53:00,METAR KOPF 130753Z AUTO 08011KT 10SM FEW049 22/14 A3020 RMK AO2 SLP228 T02220139 $
2026-04-13 06:53:00,METAR KOPF 130653Z AUTO 08009KT 10SM BKN045 22/14 A3021 RMK AO2 SLP230 T02220139 $
2026-04-13 05:53:00,METAR KOPF 130553Z AUTO 09009KT 10SM FEW047 22/14 A3022 RMK AO2 SLP235 60005 T02170139 10239 20217 58007 $
2026-04-13 04:53:00,METAR KOPF 130453Z AUTO 07013G18KT 10SM FEW036 SCT045 BKN050 23/15 A3025 RMK AO2 SLP244 T02280150 402720211 $
2026-04-13 03:53:00,METAR KOPF 130353Z AUTO 06011KT 10SM FEW042 BKN050 22/14 A3026 RMK AO2 SLP247 T02220139 $
2026-04-13 02:53:00,METAR KOPF 130253Z AUTO 07015G22KT 10SM BKN038 BKN050 23/16 A3025 RMK AO2 PK WND 07027/0200 SLP243 60005 T02280156 53013 $
2026-04-13 01:53:00,METAR KOPF 130153Z 07016G23KT 10SM SCT032 SCT045 OVC060 23/18 A3023 RMK AO2 RAE45 SLP238 P0005 T02280178 $
2026-04-13 00:53:00,METAR KOPF 130053Z 07016G21KT 10SM -RA BKN033 BKN041 OVC060 23/18 A3022 RMK AO2 RAB16 SLP233 P0000 T02330183 $
2026-04-12 23:53:00,METAR KOPF 122353Z 06011KT 10SM FEW033 FEW042 BKN060 24/17 A3021 RMK AO2 SLP230 T02390172 10272 20239 53006 $
2026-04-12 22:53:00,METAR KOPF 122253Z 07018G24KT 10SM SCT035 SCT050 24/17 A3020 RMK AO2 SLP227 T02440172 $
2026-04-12 21:53:00,METAR KOPF 122153Z 07017G23KT 10SM BKN038 BKN050 26/17 A3019 RMK AO2 SLP225 T02560167 $
2026-04-12 20:53:00,METAR KOPF 122053Z 07014KT 10SM FEW039 BKN047 BKN055 26/16 A3019 RMK AO2 PK WND 07027/2003 SLP223 T02560156 56017 $
2026-04-12 19:53:00,METAR KOPF 121953Z 07017G24KT 10SM BKN050 27/14 A3021 RMK AO2 PK WND 06027/1902 SLP229 T02670144 $
2026-04-12 18:53:00,METAR KOPF 121853Z 08017G23KT 10SM SCT047 27/16 A3021 RMK AO2 SLP232 T02670156 $
2026-04-12 17:53:00,METAR KOPF 121753Z 07015G24KT 10SM BKN046 BKN055 27/15 A3024 RMK AO2 PK WND 09026/1658 SLP240 T02670150 10272 20222 58010 $
2026-04-12 16:53:00,METAR KOPF 121653Z 06013G21KT 10SM SCT048 27/15 A3026 RMK AO2 SLP247 T02670150 $
2026-04-12 15:53:00,METAR KOPF 121553Z 09016G23KT 10SM SCT047 26/14 A3027 RMK AO2 PK WND 11026/1459 SLP251 T02610139 $
2026-04-12 14:53:00,METAR KOPF 121453Z 07014G21KT 10SM SCT048 25/13 A3027 RMK AO2 SLP251 T02500133 51018 $
2026-04-12 13:53:00,METAR KOPF 121353Z 07014G23KT 10SM SCT045 24/14 A3026 RMK AO2 SLP247 T02390144 $
2026-04-12 12:53:00,METAR KOPF 121253Z 08013KT 10SM FEW048 24/13 A3024 RMK AO2 SLP240 T02390133 $
2026-04-12 11:53:00,METAR KOPF 121153Z 07010KT 10SM SCT049 22/13 A3022 RMK AO2 SLP233 T02220133 10228 20211 53020 $
2026-04-12 10:53:00,METAR KOPF 121053Z 07010KT 10SM FEW045 22/14 A3019 RMK AO2 SLP224 T02170144 $
2026-04-12 09:53:00,METAR KOPF 120953Z AUTO 07009KT 10SM CLR 22/14 A3016 RMK AO2 SLP215 T02170139 $
2026-04-12 08:53:00,METAR KOPF 120853Z AUTO 07010KT 10SM CLR 22/14 A3016 RMK AO2 SLP214 T02170144 56010 $
2026-04-12 07:53:00,METAR KOPF 120753Z AUTO 06007KT 10SM CLR 22/15 A3016 RMK AO2 SLP214 T02170150 $
2026-04-12 06:53:00,METAR KOPF 120653Z AUTO 09012KT 10SM CLR 22/16 A3017 RMK AO2 SLP217 T02220156 $
2026-04-12 05:53:00,METAR KOPF 120553Z AUTO 08007KT 10SM CLR 22/16 A3019 RMK AO2 SLP224 T02220156 10233 20222 58005 $
2026-04-12 04:53:00,METAR KOPF 120453Z AUTO 06009KT 10SM FEW033 BKN050 23/16 A3020 RMK AO2 SLP226 T02280156 402720222 $
2026-04-12 03:53:00,METAR KOPF 120353Z AUTO 07010KT 10SM FEW034 23/16 A3020 RMK AO2 SLP228 T02280161 $
2026-04-12 02:53:00,METAR KOPF 120253Z AUTO 07008KT 10SM CLR 23/16 A3021 RMK AO2 SLP229 T02280161 51008 $
2026-04-12 01:53:00,METAR KOPF 120153Z 07011KT 10SM FEW055 23/16 A3021 RMK AO2 SLP229 T02330156 $
2026-04-12 00:53:00,METAR KOPF 120053Z 06009KT 10SM CLR 23/15 A3020 RMK AO2 SLP227 T02330150 $
2026-04-11 23:53:00,METAR KOPF 112353Z 05012KT 10SM FEW048 23/14 A3018 RMK AO2 SLP221 60000 T02330144 10272 20233 53008 $
2026-04-11 22:53:00,METAR KOPF 112253Z 06015G20KT 10SM SCT049 BKN060 24/14 A3017 RMK AO2 SLP219 T02440144 $
2026-04-11 21:53:00,METAR KOPF 112153Z 05016KT 10SM SCT047 BKN055 26/14 A3016 RMK AO2 SLP215 T02560144 $
2026-04-11 20:53:00,METAR KOPF 112053Z 06013G22KT 10SM FEW049 26/14 A3016 RMK AO2 RAB1955E04 SLP213 P0000 60000 T02610139 56011 $
2026-04-11 19:53:00,METAR KOPF 111953Z 06014G21KT 10SM SCT042 BKN049 OVC055 25/16 A3016 RMK AO2 SLP215 T02500161 $
2026-04-11 18:53:00,METAR KOPF 111853Z 07016G20KT 10SM SCT050 SCT055 26/14 A3018 RMK AO2 SLP220 T02560144 $
2026-04-11 17:53:00,METAR KOPF 111753Z 05017G23KT 10SM SCT050 26/15 A3019 RMK AO2 SLP224 T02610150 10272 20228 58009 $
2026-04-11 16:53:00,METAR KOPF 111653Z 07016G23KT 10SM BKN055 26/13 A3020 RMK AO2 SLP227 T02610133 $
2026-04-11 15:53:00,METAR KOPF 111553Z 07014KT 10SM BKN046 OVC055 24/14 A3022 RMK AO2 SLP234 T02440144 $
2026-04-11 14:53:00,METAR KOPF 111453Z 05012G18KT 10SM OVC055 25/13 A3022 RMK AO2 SLP233 T02500128 51009 $
2026-04-11 13:53:00,METAR KOPF 111353Z 05009KT 10SM FEW055 24/12 A3021 RMK AO2 SLP229 T02390117 $
2026-04-11 12:53:00,METAR KOPF 111253Z 07010KT 10SM BKN060 24/13 A3020 RMK AO2 SLP228 T02390128 $
2026-04-11 11:53:00,METAR KOPF 111153Z 05011KT 10SM OVC055 23/13 A3019 RMK AO2 SLP224 T02280133 10228 20222 53017 $
2026-04-11 10:53:00,METAR KOPF 111053Z AUTO 05009KT 10SM OVC060 22/15 A3016 RMK AO2 SLP214 T02220150 $
2026-04-11 09:53:00,METAR KOPF 110953Z AUTO 07010KT 10SM FEW036 FEW044 BKN060 22/16 A3015 RMK AO2 SLP211 T02220156 $
2026-04-11 08:53:00,METAR KOPF 110853Z AUTO 06008KT 10SM FEW035 BKN060 22/16 A3014 RMK AO2 SLP207 T02220161 56002 $
2026-04-11 07:53:00,METAR KOPF 110753Z AUTO 07008KT 10SM SCT036 SCT043 OVC060 23/16 A3014 RMK AO2 SLP207 T02280161 $
2026-04-11 06:53:00,METAR KOPF 110653Z AUTO 07012KT 10SM BKN060 23/16 A3014 RMK AO2 SLP207 T02280161 $
2026-04-11 05:53:00,METAR KOPF 110553Z AUTO 06010KT 10SM FEW049 OVC060 23/17 A3015 RMK AO2 SLP210 60000 T02280167 10239 20222 58014 $
2026-04-11 04:53:00,METAR KOPF 110453Z AUTO 07013KT 10SM FEW031 OVC065 23/17 A3016 RMK AO2 RAE18 SLP214 P0000 T02330172 402780211 $
2026-04-11 03:53:00,METAR KOPF 110353Z AUTO 08010KT 10SM -RA FEW040 SCT050 BKN070 22/18 A3018 RMK AO2 RAB0256E09B51 SLP219 P0000 T02220178 $
2026-04-11 02:53:00,METAR KOPF 110253Z AUTO 06017G25KT 10SM BKN032 OVC065 23/17 A3019 RMK AO2 SLP223 T02330172 53013 $
2026-04-11 01:53:00,METAR KOPF 110153Z 06015G22KT 10SM FEW026 SCT060 23/18 A3018 RMK AO2 SLP219 T02330178 $
2026-04-11 00:53:00,METAR KOPF 110053Z 06013G21KT 10SM CLR 23/18 A3016 RMK AO2 SLP212 T02330178 $
2026-04-10 23:53:00,METAR KOPF 102353Z 05013G19KT 10SM CLR 24/17 A3015 RMK AO2 SLP210 T02390172 10272 20239 53008 $
2026-04-10 22:53:00,METAR KOPF 102253Z 07016G24KT 10SM SCT035 25/17 A3014 RMK AO2 SLP206 T02500167 $
2026-04-10 21:53:00,METAR KOPF 102153Z 06014G20KT 10SM CLR 26/16 A3013 RMK AO2 SLP202 T02610156 $
2026-04-10 20:53:00,METAR KOPF 102053Z 05016G22KT 10SM FEW040 26/16 A3013 RMK AO2 SLP202 T02610161 56011 $
2026-04-10 20:37:00,SPECI KOPF 102037Z 04015KT 10SM FEW041 FEW060 26/16 A3013 RMK AO2 T02610161 $
2026-04-10 19:53:00,METAR KOPF 101953Z 06015G25KT 10SM FEW041 FEW060 27/17 A3014 RMK AO2 PK WND 08028/1854 SLP206 T02670167 $
2026-04-10 18:53:00,METAR KOPF 101853Z 07016G24KT 10SM BKN036 BKN048 BKN065 27/18 A3015 RMK AO2 PK WND 08026/1755 SLP209 T02670178 $
2026-04-10 17:53:00,METAR KOPF 101753Z 08017G24KT 10SM SCT037 SCT048 BKN065 27/18 A3016 RMK AO2 PK WND 07026/1732 SLP213 T02720178 10278 20228 58001 $
2026-04-10 16:53:00,METAR KOPF 101653Z 07017G26KT 10SM FEW033 SCT044 BKN060 26/18 A3017 RMK AO2 PK WND 07027/1609 SLP216 T02610178 $
2026-04-10 15:53:00,METAR KOPF 101553Z 08018G24KT 10SM SCT032 SCT043 BKN050 27/18 A3017 RMK AO2 PK WND 06026/1534 SLP216 T02670183 $
2026-04-10 14:53:00,METAR KOPF 101453Z 07018KT 10SM FEW032 SCT043 BKN055 26/18 A3016 RMK AO2 SLP214 T02560178 51015 $
2026-04-10 13:53:00,METAR KOPF 101353Z 06011KT 10SM FEW029 FEW045 SCT055 24/18 A3015 RMK AO2 SLP209 T02440183
2026-04-10 12:53:00,METAR KOPF 101253Z 06014KT 10SM FEW027 SCT034 24/18 A3013 RMK AO2 SLP205 T02440183
2026-04-10 11:53:00,METAR KOPF 101153Z 07011KT 10SM SCT050 23/18 A3012 RMK AO2 SLP200 60001 70029 T02280183 10228 20211 53012
2026-04-10 10:53:00,METAR KOPF 101053Z 05008KT 10SM FEW025 BKN032 OVC055 22/18 A3010 RMK AO2 RAB16E30 SLP194 P0000 T02220183
2026-04-10 09:53:00,METAR KOPF 100953Z AUTO 06009KT 10SM SCT027 BKN034 OVC065 22/18 A3009 RMK AO2 RAE05 SLP191 P0000 T02220183
2026-04-10 08:53:00,METAR KOPF 100853Z AUTO 04008KT 10SM -RA SCT027 BKN041 OVC048 21/19 A3009 RMK AO2 RAB06 SLP188 P0000 60001 T02110189 55005
2026-04-10 07:53:00,METAR KOPF 100753Z AUTO 06010KT 10SM FEW028 SCT039 BKN050 22/18 A3008 RMK AO2 RAE03B43E53 SLP188 P0000 T02220183
2026-04-10 06:53:00,METAR KOPF 100653Z AUTO 08012KT 8SM RA FEW025 FEW031 OVC060 22/19 A3009 RMK AO2 RAE0555B18E34B50 SLP189 P0001 T02220189
2026-04-10 05:53:00,METAR KOPF 100553Z AUTO 06015G22KT 10SM -RA SCT028 BKN045 OVC060 22/19 A3010 RMK AO2 PK WND 08026/0540 RAB26 SLP193 P0000 60000 T02220189 10239 20217 58006
2026-04-10 04:53:00,METAR KOPF 100453Z AUTO 07011G25KT 10SM FEW060 23/18 A3011 RMK AO2 RAB12E23 SLP198 P0000 T02330178 402720222
2026-04-10 03:53:00,METAR KOPF 100353Z AUTO 07016G23KT 10SM FEW050 23/18 A3011 RMK AO2 PK WND 07026/0335 RAB11E20 SLP198 P0000 T02330178
2026-04-10 02:53:00,METAR KOPF 100253Z 07013G22KT 10SM FEW025 SCT055 22/18 A3012 RMK AO2 PK WND 08029/0235 RAB06E16B33E44 SLP199 P0000 60000 T02220178 51015
2026-04-10 01:53:00,METAR KOPF 100153Z 06015G22KT 10SM FEW026 SCT037 23/18 A3011 RMK AO2 RAE01B34E43 SLP197 P0000 T02330183
2026-04-10 00:53:00,METAR KOPF 100053Z 06016G28KT 10SM -RA FEW033 SCT042 BKN049 23/19 A3009 RMK AO2 PK WND 06028/0046 RAB50 SLP189 P0000 T02280194
2026-04-09 23:53:00,METAR KOPF 092353Z 06012G25KT 10SM FEW027 FEW034 24/19 A3007 RMK AO2 PK WND 06029/2335 SLP184 60000 T02390189 10272 20239 53009
2026-04-09 22:53:00,METAR KOPF 092253Z 06018G28KT 10SM FEW027 SCT045 24/19 A3006 RMK AO2 PK WND 05028/2231 SLP181 T02440189
2026-04-09 21:53:00,METAR KOPF 092153Z 07013G24KT 10SM FEW025 SCT036 BKN044 25/19 A3005 RMK AO2 PK WND 06027/2134 RAE00 SLP176 P0000 T02500194
2026-04-09 20:53:00,METAR KOPF 092053Z 07015G22KT 10SM -RA FEW028 SCT038 BKN050 24/21 A3005 RMK AO2 PK WND 08026/2027 RAB27 SLP175 P0000 60000 T02440211 58000
2026-04-09 20:20:00,SPECI KOPF 092020Z 07018G24KT 10SM SCT025 27/20 A3004 RMK AO2 PK WND 07026/2004 T02670200
2026-04-09 20:02:00,SPECI KOPF 092002Z 07016G24KT 10SM BKN024 BKN032 BKN040 26/19 A3004 RMK AO2 T02610194
2026-04-09 19:53:00,METAR KOPF 091953Z 06016G25KT 10SM SCT024 BKN031 BKN040 26/20 A3004 RMK AO2 PK WND 07031/1935 RAE00 SLP174 P0000 T02610200
2026-04-09 19:43:00,SPECI KOPF 091943Z 06017G31KT 10SM SCT024 BKN029 BKN040 26/20 A3004 RMK AO2 PK WND 07031/1935 RAE00 P0000 T02610200
2026-04-09 19:12:00,SPECI KOPF 091912Z 08016G22KT 10SM SCT018 SCT037 BKN049 26/21 A3005 RMK AO2 PK WND 07026/1856 RAE00 P0000 T02610211
2026-04-09 18:53:00,METAR KOPF 091853Z 07021G32KT 10SM -RA SCT018 BKN024 BKN028 24/21 A3005 RMK AO2 PK WND 08032/1849 RAB48 SLP177 P0000 T02390211
2026-04-09 18:46:00,SPECI KOPF 091846Z 07024G30KT 10SM SCT022 BKN028 26/21 A3005 RMK AO2 PK WND 07030/1845 T02610206
2026-04-09 17:53:00,METAR KOPF 091753Z 06015KT 10SM FEW016 SCT022 BKN030 27/22 A3005 RMK AO2 RAE28 SLP175 P0000 60028 T02670217 10267 20222 58007
2026-04-09 16:53:00,METAR KOPF 091653Z 04012KT 10SM -RA SCT031 OVC041 23/22 A3007 RMK AO2 WSHFT 1552 RAB02 SLP182 P0013 T02330217
2026-04-09 16:37:00,SPECI KOPF 091637Z 05014G21KT 7SM -RA SCT030 BKN040 OVC060 23/22 A3006 RMK AO2 WSHFT 1552 RAB02 P0013 T02330217
2026-04-09 16:26:00,SPECI KOPF 091626Z 03013KT 5SM -RA BR FEW019 BKN038 OVC050 23/22 A3007 RMK AO2 WSHFT 1552 RAB02 P0012 T02280217
2026-04-09 16:21:00,SPECI KOPF 091621Z 03012G22KT 2SM RA BR FEW016 BKN026 OVC050 23/22 A3007 RMK AO2 WSHFT 1552 RAB02 P0011 T02280217
2026-04-09 16:09:00,SPECI KOPF 091609Z 03015G22KT 4SM RA BR SCT023 BKN037 OVC046 23/21 A3007 RMK AO2 WSHFT 1552 RAB02 P0003 T02330211
2026-04-09 16:04:00,SPECI KOPF 091604Z 02015G23KT 6SM -RA SCT021 BKN026 OVC055 24/21 A3007 RMK AO2 RAB02 P0002 T02390211
2026-04-09 15:53:00,METAR KOPF 091553Z 09013KT 10SM SCT024 BKN042 OVC050 27/21 A3007 RMK AO2 RAB38E48 SLP182 P0000 T02670211
2026-04-09 15:50:00,SPECI KOPF 091550Z 08009G20KT 10SM SCT025 BKN038 OVC050 27/21 A3007 RMK AO2 RAB38E48 P0000
2026-04-09 15:40:00,SPECI KOPF 091540Z 10013KT 10SM -RA SCT023 BKN029 OVC055 25/21 A3007 RMK AO2 RAB38 P0000 T02500211
2026-04-09 14:53:00,METAR KOPF 091453Z 05014G21KT 10SM FEW023 BKN033 OVC049 26/20 A3006 RMK AO2 SLP180 60015 T02560200 52009
2026-04-09 14:39:00,SPECI KOPF 091439Z 05013KT 10SM SCT022 BKN029 OVC041 25/21 A3006 RMK AO2 T02500206
2026-04-09 13:53:00,METAR KOPF 091353Z 05011KT 10SM BKN041 OVC048 24/21 A3005 RMK AO2 SLP177 T02440206
2026-04-09 12:53:00,METAR KOPF 091253Z 04006KT 10SM FEW016 SCT027 OVC065 22/21 A3004 RMK AO2 RAE52 SLP173 P0015 T02220211
2026-04-09 12:45:00,SPECI KOPF 091245Z 04006KT 10SM -RA SCT018 SCT040 OVC065 22/21 A3004 RMK AO2 P0015 T02220211
2026-04-09 12:33:00,SPECI KOPF 091233Z 04007KT 6SM -RA BR FEW013 BKN020 OVC048 22/21 A3004 RMK AO2 P0015 T02220211
2026-04-09 12:20:00,SPECI KOPF 091220Z 04005KT 10SM -RA FEW013 BKN036 OVC065 22/21 A3004 RMK AO2 P0014 T02220211
2026-04-09 12:12:00,SPECI KOPF 091212Z 04005KT 2 1/2SM -RA BR FEW014 BKN033 OVC048 22/21 A3004 RMK AO2 P0014 T02220211
2026-04-09 12:03:00,SPECI KOPF 091203Z 06010G19KT 1 3/4SM +RA BR SCT019 BKN024 OVC036 22/21 A3004 RMK AO2 P0009 T02220206
2026-04-09 11:53:00,METAR KOPF 091153Z 04011KT 8SM -RA FEW017 BKN022 OVC050 22/21 A3003 RMK AO2 RAB48 SLP171 P0000 60001 70029 T02220211 10233 20222 53017
2026-04-09 11:05:00,SPECI KOPF 091105Z 04006KT 10SM BKN021 BKN028 BKN060 23/21 A3002 RMK AO2 T02280206
2026-04-09 10:53:00,METAR KOPF 091053Z 07007KT 10SM SCT019 SCT024 SCT065 23/20 A3001 RMK AO2 SLP163 T02280200
2026-04-09 09:53:00,METAR KOPF 090953Z AUTO 07009KT 10SM FEW022 SCT055 22/20 A2999 RMK AO2 RAE09 SLP156 P0000 T02220200
2026-04-09 09:18:00,SPECI KOPF 090918Z AUTO 06007KT 10SM FEW023 SCT050 BKN060 22/21 A2998 RMK AO2 RAE09 P0000 T02220206
2026-04-09 08:53:00,METAR KOPF 090853Z AUTO 07013G21KT 7SM -RA BKN019 BKN027 OVC050 22/21 A2998 RMK AO2 RAB47 SLP154 P0001 60001 T02220206 55007
2026-04-09 08:45:00,SPECI KOPF 090845Z AUTO 05010KT 10SM BKN019 BKN024 OVC060 23/20 A2998 RMK AO2 T02280200
2026-04-09 07:53:00,METAR KOPF 090753Z AUTO 07012KT 10SM FEW023 23/19 A2998 RMK AO2 SLP151 T02280194
2026-04-09 07:16:00,SPECI KOPF 090716Z AUTO 08015G23KT 10SM FEW021 SCT029 BKN048 23/19 A2998 RMK AO2 T02280194
2026-04-09 06:53:00,METAR KOPF 090653Z AUTO 08015KT 10SM FEW019 BKN024 OVC045 23/20 A2999 RMK AO2 SLP156 T02280200
2026-04-09 06:21:00,SPECI KOPF 090621Z AUTO 06014G22KT 10SM BKN021 BKN031 BKN055 23/19 A3000 RMK AO2 T02280194
2026-04-09 05:53:00,METAR KOPF 090553Z AUTO 07017G24KT 10SM FEW021 FEW028 SCT050 23/19 A3000 RMK AO2 PK WND 08026/0523 SLP161 60006 T02280194 10228 20211 58003
2026-04-09 04:53:00,METAR KOPF 090453Z AUTO 08018G27KT 10SM FEW020 SCT025 OVC060 23/19 A3002 RMK AO2 PK WND 08030/0437 SLP167 T02280194 402830211
2026-04-09 03:53:00,METAR KOPF 090353Z AUTO 08020G33KT 10SM FEW018 SCT049 OVC060 23/19 A3002 RMK AO2 PK WND 09033/0349 SLP165 T02280194
2026-04-09 03:46:00,SPECI KOPF 090346Z AUTO 09023G31KT 10SM FEW018 SCT023 OVC060 23/19 A3001 RMK AO2 PK WND 09031/0346 T02280194
2026-04-09 03:34:00,SPECI KOPF 090334Z AUTO 08019G26KT 10SM SCT018 BKN025 OVC055 23/20 A3002 RMK AO2 PK WND 09029/0258 T02280200
2026-04-09 02:53:00,METAR KOPF 090253Z 08021G28KT 10SM FEW028 SCT040 BKN049 22/20 A3001 RMK AO2 PK WND 07030/0224 RAE00 SLP164 P0000 60006 T02220200 51023
2026-04-09 02:08:00,SPECI KOPF 090208Z 07018G28KT 10SM FEW015 SCT027 BKN036 22/20 A3001 RMK AO2 PK WND 05028/0159 RAE00 P0000 T02220200
2026-04-09 01:53:00,METAR KOPF 090153Z 06021G31KT 10SM -RA SCT015 BKN020 OVC036 22/20 A3000 RMK AO2 PK WND 06033/0138 SLP159 P0001 T02220200
2026-04-09 01:00:00,SPECI KOPF 090100Z 05015G33KT 10SM -RA FEW014 BKN024 OVC036 22/20 A2997 RMK AO2 PK WND 05030/0054 P0000 T02170200
2026-04-09 00:53:00,METAR KOPF 090053Z 05019G33KT 9SM -RA BKN008 BKN020 OVC027 22/20 A2997 RMK AO2 PK WND 02038/0009 RAB00 SLP148 P0005 T02170200
2026-04-08 23:53:00,METAR KOPF 082353Z 03017G37KT 10SM BKN008 22/20 A2994 RMK AO2 PK WND 04037/2344 RAE16 SLP140 P0000 60014 T02170200 10283 20217 51005
2026-04-08 23:48:00,SPECI KOPF 082348Z 02020G37KT 10SM BKN008 22/20 A2994 RMK AO2 PK WND 04037/2344 RAE16 P0000
2026-04-08 23:29:00,SPECI KOPF 082329Z 02014G23KT 10SM BKN011 22/21 A2994 RMK AO2 RAE16 P0000 T02220206
2026-04-08 23:06:00,SPECI KOPF 082306Z 02016G24KT 3SM -RA BR BKN009 22/21 A2994 RMK AO2 P0000 T02220206
2026-04-08 22:53:00,METAR KOPF 082253Z 03018G34KT 2SM +RA BR FEW018 BKN023 OVC038 22/21 A2995 RMK AO2 PK WND 01034/2248 RAB16 SLP142 P0014 T02220206
2026-04-08 22:45:00,SPECI KOPF 082245Z 01018G27KT 3SM -RA SCT020 BKN025 OVC040 23/21 A2994 RMK AO2 PK WND 36027/2244 RAB16 P0005 T02330206
2026-04-08 21:53:00,METAR KOPF 082153Z 08008KT 10SM FEW027 SCT050 SCT065 26/20 A2993 RMK AO2 SLP135 T02610200
2026-04-08 20:53:00,METAR KOPF 082053Z 08007KT 10SM SCT033 SCT042 27/19 A2993 RMK AO2 SLP135 T02670189 56013
2026-04-08 19:53:00,METAR KOPF 081953Z 09012KT 10SM SCT032 28/19 A2993 RMK AO2 SLP136 T02780194
2026-04-08 18:53:00,METAR KOPF 081853Z 09011KT 10SM FEW030 SCT038 SCT046 28/19 A2995 RMK AO2 SLP143 T02780194
2026-04-08 17:53:00,METAR KOPF 081753Z 07011KT 10SM SCT024 BKN033 BKN046 26/19 A2997 RMK AO2 SLP148 60008 T02610194 10272 20217 58006
2026-04-08 17:04:00,SPECI KOPF 081704Z 08010G17KT 10SM BKN020 BKN028 26/21 A2997 RMK AO2 T02610206
2026-04-08 16:53:00,METAR KOPF 081653Z 09008KT 10SM SCT020 26/21 A2998 RMK AO2 SLP152 T02610211
2026-04-08 16:00:00,SPECI KOPF 081600Z 10007KT 10SM FEW009 SCT044 BKN080 23/21 A2999 RMK AO2 T02330211
2026-04-08 15:53:00,METAR KOPF 081553Z 10010KT 10SM BKN009 BKN022 OVC037 23/21 A2999 RMK AO2 RAB09E47 SLP157 P0000 T02330211
2026-04-06 14:53:00,METAR KOPF 061453Z 10009KT 10SM SCT025 SCT041 27/20 A3000 RMK AO2 SLP161 T02670200 53003
2026-04-06 13:53:00,METAR KOPF 061353Z 12009KT 10SM SCT025 27/21 A3000 RMK AO2 SLP159 T02670206 $
2026-04-06 12:53:00,METAR KOPF 061253Z 08007KT 10SM CLR 25/21 A3000 RMK AO2 SLP159 T02500211 $
2026-04-06 11:53:00,METAR KOPF 061153Z 00000KT 10SM FEW022 FEW033 23/21 A2999 RMK AO2 SLP157 60003 70003 T02330211 10239 20222 53002 $
2026-04-06 10:53:00,METAR KOPF 061053Z 20003KT 10SM FEW021 SCT027 SCT045 22/21 A2999 RMK AO2 RAB29E42 SLP155 P0000 T02220206 $
2026-04-06 09:53:00,METAR KOPF 060953Z AUTO 05003KT 10SM CLR 23/21 A2998 RMK AO2 RAE06 SLP154 P0001 T02280211 $
2026-04-06 09:09:00,SPECI KOPF 060909Z AUTO 10004KT 10SM SCT020 SCT040 BKN090 23/21 A2999 RMK AO2 RAE06 P0001 T02330211 $
2026-04-06 08:53:00,METAR KOPF 060853Z AUTO VRB03KT 8SM +RA BKN021 BKN036 BKN044 23/21 A2999 RMK AO2 RAB50 SLP156 P0002 60002 T02330206 56010 $
2026-04-06 07:53:00,METAR KOPF 060753Z AUTO 11005KT 10SM FEW020 FEW029 24/21 A2999 RMK AO2 SLP156 T02390206 $
2026-04-06 06:53:00,METAR KOPF 060653Z AUTO 11006KT 10SM FEW022 SCT030 24/21 A3001 RMK AO2 SLP161 T02390206 $
2026-04-06 05:53:00,METAR KOPF 060553Z AUTO 10007KT 10SM FEW021 23/21 A3002 RMK AO2 SLP166 60000 T02330206 10250 20233 58018 $
2026-04-06 04:53:00,METAR KOPF 060453Z AUTO 10008KT 10SM CLR 24/21 A3004 RMK AO2 SLP173 T02390206 402890233 $
2026-04-06 03:53:00,METAR KOPF 060353Z AUTO 09010KT 10SM CLR 24/20 A3006 RMK AO2 RAB11E21 SLP180 P0000 T02390200 $
2026-04-06 02:53:00,METAR KOPF 060253Z AUTO 08006KT 10SM CLR 24/21 A3007 RMK AO2 SLP184 T02390211 53015 $
2026-04-06 01:53:00,METAR KOPF 060153Z 08006KT 10SM CLR 24/21 A3006 RMK AO2 SLP181 T02390206 $
2026-04-06 00:53:00,METAR KOPF 060053Z 10009KT 10SM SCT022 SCT028 25/21 A3003 RMK AO2 SLP170 T02500206 $
2026-04-05 23:53:00,METAR KOPF 052353Z 11008KT 10SM SCT023 BKN033 25/21 A3003 RMK AO2 SLP169 T02500206 10289 20250 53004 $
2026-04-05 22:53:00,METAR KOPF 052253Z 10010G16KT 10SM SCT026 26/20 A3002 RMK AO2 SLP167 T02610200 $
2026-04-05 21:53:00,METAR KOPF 052153Z 10012G18KT 10SM SCT028 27/20 A3002 RMK AO2 SLP167 T02720200 $
2026-04-05 20:53:00,METAR KOPF 052053Z 10015KT 10SM SCT028 27/20 A3002 RMK AO2 SLP165 T02720200 58012 $
2026-04-05 19:53:00,METAR KOPF 051953Z 10011G22KT 10SM FEW028 SCT037 BKN060 27/20 A3003 RMK AO2 SLP171 T02720200 $
2026-04-05 18:53:00,METAR KOPF 051853Z 09015G23KT 10SM SCT029 BKN038 BKN060 28/19 A3005 RMK AO2 SLP177 T02780194 $
2026-04-05 18:51:00,SPECI KOPF 051851Z 13012G23KT 10SM SCT029 BKN038 BKN060 27/19 A3005 RMK AO2 $
2026-04-05 18:25:00,SPECI KOPF 051825Z 10013G20KT 10SM BKN029 BKN039 BKN055 27/20 A3007 RMK AO2 T02720200 $
2026-04-05 17:53:00,METAR KOPF 051753Z 10013G23KT 10SM SCT030 BKN036 BKN050 27/19 A3008 RMK AO2 SLP186 60000 T02720194 10283 20239 58010 $
2026-04-05 17:28:00,SPECI KOPF 051728Z 11012G22KT 10SM SCT028 BKN033 28/19 A3009 RMK AO2 T02780194 $
2026-04-05 17:18:00,SPECI KOPF 051718Z 13013G20KT 10SM BKN029 BKN040 BKN050 28/19 A3009 RMK AO2 T02780194 $
2026-04-05 16:53:00,METAR KOPF 051653Z 10014G20KT 10SM SCT033 BKN046 28/20 A3010 RMK AO2 SLP193 T02780200 $
2026-04-05 15:53:00,METAR KOPF 051553Z 12010G18KT 10SM SCT030 SCT038 BKN049 28/20 A3011 RMK AO2 SLP196 T02780200 $
2026-04-05 14:53:00,METAR KOPF 051453Z 10014KT 10SM SCT027 BKN036 BKN044 27/20 A3011 RMK AO2 RAB08E21 SLP197 P0000 60000 T02670200 53004 $
2026-04-05 12:53:00,METAR KOPF 051253Z 09013G20KT 10SM SCT023 BKN032 BKN050 26/21 A3010 RMK AO2 SLP193 T02560206 $
2026-04-05 12:50:00,SPECI KOPF 051250Z 10011KT 10SM BKN023 BKN055 26/21 A3010 RMK AO2 $
2026-04-05 11:53:00,METAR KOPF 051153Z 10007KT 10SM FEW022 SCT031 24/21 A3009 RMK AO2 SLP191 60000 70001 T02390206 10244 20233 53006 $
2026-04-05 10:53:00,METAR KOPF 051053Z 10007KT 10SM FEW022 SCT033 SCT045 23/20 A3008 RMK AO2 RAB26E35 SLP188 P0000 T02330200 $
2026-04-05 10:39:00,SPECI KOPF 051039Z AUTO 11008KT 10SM SCT022 BKN031 BKN041 24/21 A3008 RMK AO2 RAB26E35 P0000 T02390206 $
2026-04-05 10:26:00,SPECI KOPF 051026Z AUTO 10011KT 10SM -RA BKN022 BKN029 24/21 A3008 RMK AO2 RAB26 P0000 T02390206 $
2026-04-05 09:53:00,METAR KOPF 050953Z AUTO 10008KT 10SM CLR 23/20 A3008 RMK AO2 SLP185 T02330200 $
2026-04-05 08:53:00,METAR KOPF 050853Z AUTO 10008KT 10SM FEW025 SCT032 SCT040 24/20 A3008 RMK AO2 SLP185 T02390200 56012 $
2026-04-05 07:53:00,METAR KOPF 050753Z AUTO 11009KT 10SM FEW026 24/20 A3008 RMK AO2 SLP185 T02390200 $
2026-04-05 07:39:00,SPECI KOPF 050739Z AUTO 10008KT 10SM FEW022 SCT027 24/20 A3008 RMK AO2 T02390200 $
2026-04-05 07:32:00,SPECI KOPF 050732Z AUTO 10007KT 10SM BKN025 24/20 A3008 RMK AO2 T02390200 $
2026-04-05 06:53:00,METAR KOPF 050653Z AUTO 10012KT 10SM SCT029 24/19 A3008 RMK AO2 SLP188 T02390194 $
2026-04-05 05:53:00,METAR KOPF 050553Z AUTO 11012G20KT 10SM BKN060 BKN080 24/20 A3011 RMK AO2 SLP197 T02440200 10250 20239 58009 $
2026-04-05 04:53:00,METAR KOPF 050453Z AUTO 11009KT 10SM FEW019 SCT060 BKN075 24/21 A3013 RMK AO2 SLP203 T02390206 402830211 $
2026-04-05 03:53:00,METAR KOPF 050353Z AUTO 12010KT 10SM SCT023 BKN085 24/21 A3014 RMK AO2 PK WND 12026/0319 SLP205 T02440206 $
2026-04-05 02:53:00,METAR KOPF 050253Z AUTO 11014KT 10SM FEW022 FEW032 24/20 A3014 RMK AO2 SLP206 T02440200 51011 $
2026-04-05 01:53:00,METAR KOPF 050153Z 10011G20KT 10SM CLR 24/20 A3013 RMK AO2 SLP203 T02440200 $
2026-04-05 00:53:00,METAR KOPF 050053Z 09012KT 10SM CLR 24/20 A3012 RMK AO2 SLP199 T02440200 $
2026-04-04 23:53:00,METAR KOPF 042353Z 09011KT 10SM FEW021 24/21 A3010 RMK AO2 SLP195 60001 T02440206 10283 20244 58002 $
2026-04-04 22:53:00,METAR KOPF 042253Z 09012KT 10SM FEW025 FEW090 24/21 A3011 RMK AO2 RAB30E44 SLP197 P0001 T02440206 $
2026-04-04 21:53:00,METAR KOPF 042153Z 09013KT 10SM FEW027 BKN038 BKN050 26/19 A3011 RMK AO2 SLP196 T02610194 $
2026-04-04 20:53:00,METAR KOPF 042053Z 09012KT 10SM FEW029 SCT049 SCT055 27/19 A3011 RMK AO2 SLP197 T02670189 56017 $
2026-04-04 19:53:00,METAR KOPF 041953Z 09015KT 10SM FEW030 SCT039 28/19 A3013 RMK AO2 SLP202 T02780194 $
2026-04-04 18:53:00,METAR KOPF 041853Z 08014KT 10SM FEW031 28/19 A3014 RMK AO2 SLP206 T02780194 $
2026-04-04 17:53:00,METAR KOPF 041753Z 09014G22KT 10SM SCT032 28/19 A3016 RMK AO2 SLP214 60000 T02830189 10283 20228 58009 $
2026-04-04 16:53:00,METAR KOPF 041653Z 09014G21KT 10SM SCT035 28/19 A3017 RMK AO2 SLP218 T02780189 $
2026-04-04 15:53:00,METAR KOPF 041553Z 11014KT 10SM FEW031 28/18 A3018 RMK AO2 SLP221 T02780183 $
2026-04-04 14:53:00,METAR KOPF 041453Z 10016KT 10SM SCT030 27/19 A3019 RMK AO2 SLP223 60000 T02670189 51008 $
2026-04-04 13:53:00,METAR KOPF 041353Z 10013G21KT 10SM FEW026 SCT032 BKN042 26/19 A3018 RMK AO2 RAB33E44 SLP220 P0000 T02560189 $
2026-04-04 13:50:00,SPECI KOPF 041350Z 11013G23KT 10SM FEW026 BKN031 BKN040 26/19 A3018 RMK AO2 RAB33E44 P0000 $
2026-04-04 13:21:00,SPECI KOPF 041321Z 10014G21KT 10SM BKN026 BKN046 24/19 A3017 RMK AO2 T02440189 $
2026-04-04 12:53:00,METAR KOPF 041253Z 10011KT 10SM FEW024 SCT031 24/19 A3016 RMK AO2 SLP214 T02390194 $
2026-04-04 11:53:00,METAR KOPF 041153Z 07005KT 10SM FEW023 23/19 A3016 RMK AO2 RAB43E53 SLP212 P0000 60000 T02280194 10233 20211 53008 $
2026-04-04 10:53:00,METAR KOPF 041053Z 14004KT 10SM FEW022 SCT047 BKN060 23/20 A3015 RMK AO2 RAB39E50 SLP210 P0000 T02280200 $
2026-04-04 09:53:00,METAR KOPF 040953Z AUTO 08005KT 10SM FEW034 FEW046 SCT055 22/19 A3014 RMK AO2 RAB31E47 SLP206 P0000 T02170194 $
2026-04-04 08:53:00,METAR KOPF 040853Z AUTO 08005KT 10SM CLR 21/18 A3013 RMK AO2 SLP204 T02110183 56014 $
2026-04-04 07:53:00,METAR KOPF 040753Z AUTO 09005KT 10SM FEW026 22/18 A3014 RMK AO2 SLP208 T02220183 $
2026-04-04 06:53:00,METAR KOPF 040653Z AUTO 10008KT 10SM FEW030 23/18 A3015 RMK AO2 SLP210 T02330178 $
2026-04-04 05:53:00,METAR KOPF 040553Z AUTO 11008KT 10SM CLR 23/18 A3017 RMK AO2 SLP218 T02330178 10244 20233 58010 $
2026-04-04 04:53:00,METAR KOPF 040453Z AUTO 09008G19KT 10SM CLR 23/18 A3020 RMK AO2 SLP226 T02330183 402890233 $
2026-04-04 03:53:00,METAR KOPF 040353Z AUTO 10014G21KT 10SM CLR 24/18 A3020 RMK AO2 SLP228 T02390178 $
2026-04-04 02:53:00,METAR KOPF 040253Z AUTO 10016KT 10SM CLR 24/17 A3020 RMK AO2 PK WND 10027/0242 SLP228 T02440167 53015 $
2026-04-04 01:53:00,METAR KOPF 040153Z 11018G23KT 10SM CLR 24/17 A3019 RMK AO2 SLP223 T02440167 $
2026-04-04 00:53:00,METAR KOPF 040053Z 11011G22KT 10SM CLR 24/19 A3017 RMK AO2 SLP217 T02440189 $
2026-04-03 23:53:00,METAR KOPF 032353Z 10012KT 10SM SCT027 24/19 A3016 RMK AO2 SLP214 T02440189 10283 20244 56002 $
2026-04-03 22:53:00,METAR KOPF 032253Z 10016KT 10SM SCT027 SCT034 26/19 A3016 RMK AO2 SLP214 T02560194 $
2026-04-03 21:53:00,METAR KOPF 032153Z 10014KT 10SM FEW027 SCT036 SCT047 26/19 A3016 RMK AO2 SLP214 T02610194 $
2026-04-03 20:53:00,METAR KOPF 032053Z 09013G24KT 10SM SCT028 SCT038 27/21 A3017 RMK AO2 SLP216 T02720206 56008 $
2026-04-03 19:53:00,METAR KOPF 031953Z 10015G22KT 10SM SCT028 SCT036 28/20 A3017 RMK AO2 PK WND 10026/1854 SLP217 T02830200 $
2026-04-03 18:53:00,METAR KOPF 031853Z 10018G29KT 10SM FEW029 SCT036 SCT046 28/19 A3018 RMK AO2 PK WND 10029/1844 SLP220 T02780194 $
2026-04-03 18:40:00,SPECI KOPF 031840Z 10016KT 10SM SCT027 BKN035 28/20 A3018 RMK AO2 PK WND 10027/1824 T02830200 $
2026-04-03 18:27:00,SPECI KOPF 031827Z 09019G27KT 10SM BKN027 BKN033 OVC055 27/20 A3018 RMK AO2 PK WND 10027/1824 T02720200 $
2026-04-03 17:53:00,METAR KOPF 031753Z 10014G26KT 10SM SCT027 BKN034 BKN049 28/20 A3019 RMK AO2 PK WND 09029/1721 SLP223 T02780200 10289 20239 58004 $
2026-04-03 17:38:00,SPECI KOPF 031738Z 10015G26KT 10SM SCT027 BKN035 BKN047 28/19 A3019 RMK AO2 PK WND 09029/1721 T02780194 $
2026-04-03 17:30:00,SPECI KOPF 031730Z 10020G29KT 10SM BKN029 BKN035 BKN047 28/19 A3019 RMK AO2 PK WND 09029/1721 T02780194 $
2026-04-03 17:19:00,SPECI KOPF 031719Z 10017G25KT 10SM SCT027 BKN034 BKN046 28/21 A3019 RMK AO2 PK WND 13026/1705 T02780206 $
2026-04-03 17:10:00,SPECI KOPF 031710Z 10020G26KT 10SM BKN029 BKN037 BKN049 28/20 A3020 RMK AO2 PK WND 13026/1705 T02780200 $
2026-04-03 17:01:00,SPECI KOPF 031701Z 10015G25KT 10SM SCT027 BKN033 BKN040 28/20 A3020 RMK AO2 T02830200 $
2026-04-03 16:53:00,METAR KOPF 031653Z 10017G28KT 10SM BKN027 BKN033 BKN040 28/21 A3020 RMK AO2 PK WND 09028/1645 SLP228 T02780206 $
2026-04-03 16:30:00,SPECI KOPF 031630Z 13016G25KT 10SM BKN027 BKN032 BKN048 28/20 A3021 RMK AO2 PK WND 11027/1558 T02780200 $
2026-04-03 15:53:00,METAR KOPF 031553Z 11016G26KT 10SM SCT025 BKN032 BKN043 27/20 A3021 RMK AO2 PK WND 11028/1458 SLP230 T02670200 $
2026-04-03 14:53:00,METAR KOPF 031453Z 10018G27KT 10SM SCT027 27/20 A3020 RMK AO2 PK WND 11028/1429 SLP227 T02670200 51014 $
2026-04-03 13:53:00,METAR KOPF 031353Z 10019G27KT 10SM SCT025 SCT032 27/20 A3019 RMK AO2 PK WND 10027/1350 SLP223 T02670200 $
2026-04-03 12:53:00,METAR KOPF 031253Z 11015G23KT 10SM SCT025 SCT036 BKN048 26/20 A3018 RMK AO2 SLP219 T02560200 $
2026-04-03 11:53:00,METAR KOPF 031153Z 10010KT 10SM FEW024 23/19 A3016 RMK AO2 SLP213 70029 T02330194 10244 20233 53015 $
2026-04-03 08:53:00,METAR KOPF 030853Z AUTO 10013G19KT 10SM FEW022 24/19 A3011 RMK AO2 SLP198 T02390194 56006 $
2026-04-03 05:53:00,METAR KOPF 030553Z AUTO 11012G18KT 10SM FEW055 24/20 A3015 RMK AO2 SLP211 T02440200 10250 20244 56005 $
2026-04-03 04:53:00,METAR KOPF 030453Z AUTO 10011KT 10SM SCT022 SCT029 BKN035 24/21 A3016 RMK AO2 SLP213 T02440206 402720217 $
2026-04-03 03:53:00,METAR KOPF 030353Z AUTO 10011KT 10SM FEW023 SCT034 SCT060 25/21 A3016 RMK AO2 SLP213 T02500206 $
2026-04-03 03:39:00,SPECI KOPF 030339Z AUTO 10015G20KT 10SM SCT022 SCT035 OVC060 25/21 A3016 RMK AO2 T02500206 $
2026-04-03 03:06:00,SPECI KOPF 030306Z AUTO 10010G18KT 10SM BKN022 BKN039 OVC060 25/21 A3017 RMK AO2 T02500206 $
2026-04-03 02:53:00,METAR KOPF 030253Z 11011G20KT 10SM SCT022 BKN031 OVC055 25/21 A3017 RMK AO2 SLP216 T02500206 51017 $
2026-04-03 02:34:00,SPECI KOPF 030234Z 11009KT 10SM FEW021 BKN028 BKN036 25/21 A3017 RMK AO2 T02500206 $
2026-04-03 01:53:00,METAR KOPF 030153Z 10013KT 10SM FEW024 SCT029 SCT041 25/21 A3016 RMK AO2 LTG DSNT SW SLP214 T02500206 $
2026-04-03 01:33:00,SPECI KOPF 030133Z 11012G20KT 10SM FEW020 BKN032 OVC050 25/21 A3016 RMK AO2 LTG DSNT SW T02500206 $
2026-04-03 01:13:00,SPECI KOPF 030113Z 10013KT 10SM SCT020 BKN026 BKN032 25/21 A3015 RMK AO2 T02500211 $
2026-04-03 00:53:00,METAR KOPF 030053Z 10015KT 10SM FEW021 SCT026 BKN032 25/21 A3014 RMK AO2 LTG DSNT SW SLP207 T02500211 $
2026-04-03 00:00:00,SPECI KOPF 030000Z 10014G20KT 10SM BKN021 BKN028 25/21 A3012 RMK AO2 LTG DSNT SW T02500206 $
2026-04-02 23:53:00,METAR KOPF 022353Z 10011KT 10SM SCT020 BKN030 BKN050 25/21 A3012 RMK AO2 SLP200 60000 T02500206 10272 20250 53005 $
2026-04-02 22:53:00,METAR KOPF 022253Z 10012KT 10SM BKN021 BKN027 25/21 A3010 RMK AO2 SLP193 T02500206 $
2026-04-02 22:04:00,SPECI KOPF 022204Z 11015KT 10SM BKN023 BKN075 26/21 A3010 RMK AO2 T02560206 $
2026-04-02 21:53:00,METAR KOPF 022153Z 09015KT 10SM SCT023 BKN070 26/21 A3010 RMK AO2 SLP192 T02610211 $
2026-04-02 20:53:00,METAR KOPF 022053Z 10015G21KT 10SM SCT023 SCT033 BKN042 27/21 A3011 RMK AO2 SLP195 60000 T02670206 58006 $
2026-04-02 20:22:00,SPECI KOPF 022022Z 11013G20KT 10SM SCT023 BKN034 BKN047 27/21 A3012 RMK AO2 T02670206 $
2026-04-02 19:53:00,METAR KOPF 021953Z 10016KT 10SM BKN023 BKN030 OVC050 26/21 A3012 RMK AO2 RAB10E21 SLP199 P0000 T02610206 $
2026-04-02 19:46:00,SPECI KOPF 021946Z 10015G21KT 10SM SCT023 BKN030 OVC055 27/21 A3012 RMK AO2 RAB10E21 P0000 T02670206 $
2026-04-02 19:20:00,SPECI KOPF 021920Z 10014G21KT 10SM -RA SCT023 BKN027 BKN044 26/21 A3012 RMK AO2 RAB10 P0000 T02610211 $
2026-04-02 19:08:00,SPECI KOPF 021908Z 13017G21KT 10SM SCT023 BKN030 OVC045 27/21 A3012 RMK AO2 T02670206 $
2026-04-02 18:53:00,METAR KOPF 021853Z 11012G19KT 10SM BKN025 BKN031 BKN048 27/21 A3013 RMK AO2 SLP202 T02670206 $
2026-04-02 18:49:00,SPECI KOPF 021849Z 12013KT 10SM BKN025 BKN034 OVC048 27/21 A3012 RMK AO2 $
2026-04-02 17:53:00,METAR KOPF 021753Z 12013G24KT 10SM SCT026 BKN034 27/21 A3014 RMK AO2 SLP208 60029 T02670206 10267 20222 58005 $
2026-04-02 16:53:00,METAR KOPF 021653Z 13010KT 5SM HZ SCT026 SCT034 BKN060 24/21 A3016 RMK AO2 RAE37 SLP214 P0013 T02440211 $
2026-04-02 16:26:00,SPECI KOPF 021626Z 15004KT 5SM -RA BR SCT023 BKN046 OVC060 23/22 A3017 RMK AO2 LTG DSNT W P0013 T02330217 $
2026-04-02 16:18:00,SPECI KOPF 021618Z 15004KT 5SM VCTS -RA BR FEW012 BKN036 OVC050 23/22 A3017 RMK AO2 LTG DSNT W P0013 T02280217 $
2026-04-02 16:06:00,SPECI KOPF 021606Z 16007G18KT 5SM VCTS RA BR FEW012 BKN025 OVC035 22/21 A3018 RMK AO2 P0013 T02220211 $
2026-04-02 16:03:00,SPECI KOPF 021603Z 15008G18KT 1 1/2SM +RA BR FEW011 BKN020 OVC039 22/21 A3018 RMK AO2 P0012 T02220206 $
2026-04-02 15:53:00,METAR KOPF 021553Z 13015G31KT 1 1/2SM VCTS +RA BR BKN020 BKN028 OVC036 23/21 A3018 RMK AO2 PK WND 13031/1549 WSHFT 1512 RAB11E26B47 SLP220 P0013 T02280206 $
2026-04-02 15:51:00,SPECI KOPF 021551Z 14020G31KT 2 1/2SM VCTS -RA SCT020 BKN024 OVC042 23/21 A3017 RMK AO2 PK WND 13031/1549 WSHFT 1512 RAB11E26B47 P0006 $
2026-04-02 15:30:00,SPECI KOPF 021530Z 09010KT 10SM VCTS BKN020 BKN026 OVC060 25/21 A3016 RMK AO2 WSHFT 1512 LTG DSNT SE RAB11E26 P0000 T02500211 $
2026-04-02 15:18:00,SPECI KOPF 021518Z 07011KT 10SM -RA SCT020 BKN026 OVC060 25/21 A3016 RMK AO2 RAB11 P0000 T02500211 $
2026-04-02 14:53:00,METAR KOPF 021453Z 12012G20KT 10SM VCTS FEW021 FEW043 SCT070 25/21 A3016 RMK AO2 LTG DSNT NE AND E RAE1359B07E36 SLP213 P0003 60003 T02500206 53019 $
2026-04-02 14:05:00,SPECI KOPF 021405Z 10011KT 10SM SCT018 SCT029 BKN038 25/22 A3014 RMK AO2 RAE1359 P0000 T02500217 $
2026-04-02 13:53:00,METAR KOPF 021353Z 09014G19KT 8SM -RA BKN021 BKN037 25/22 A3013 RMK AO2 RAB47 SLP204 P0000 T02500222 $
2026-04-02 13:36:00,SPECI KOPF 021336Z 11010G18KT 10SM BKN021 26/21 A3013 RMK AO2 T02560206 $
2026-04-02 12:53:00,METAR KOPF 021253Z 11009KT 10SM CLR 24/21 A3011 RMK AO2 SLP198 T02440206 $
2026-04-02 11:53:00,METAR KOPF 021153Z 11004KT 10SM SCT038 23/20 A3010 RMK AO2 RAB00E13 SLP194 P0000 60000 T02280200 10239 20217 53008 $
2026-04-02 10:53:00,METAR KOPF 021053Z 07005KT 10SM SCT035 SCT043 22/19 A3009 RMK AO2 SLP190 T02220194 $
2026-04-02 09:53:00,METAR KOPF 020953Z AUTO 09005KT 10SM CLR 22/19 A3007 RMK AO2 RAB17E29 SLP185 P0000 T02220194 $
2026-04-02 08:53:00,METAR KOPF 020853Z AUTO 09007KT 10SM CLR 23/19 A3008 RMK AO2 SLP186 T02280189 57012 $
2026-04-02 07:53:00,METAR KOPF 020753Z AUTO 09005KT 10SM FEW024 22/19 A3009 RMK AO2 SLP190 T02220189 $
2026-04-02 06:53:00,METAR KOPF 020653Z AUTO 09009KT 10SM FEW023 FEW028 SCT034 23/19 A3010 RMK AO2 SLP195 T02280189 $
2026-04-02 05:53:00,METAR KOPF 020553Z AUTO 09013KT 10SM FEW025 23/19 A3011 RMK AO2 SLP198 T02330189 10244 20228 58007 $
2026-04-02 04:53:00,METAR KOPF 020453Z AUTO 09011KT 10SM CLR 23/18 A3013 RMK AO2 SLP203 T02330183 402720206 $
2026-04-02 03:53:00,METAR KOPF 020353Z AUTO 09010KT 10SM CLR 23/18 A3013 RMK AO2 SLP204 T02330178 $
2026-04-02 02:53:00,METAR KOPF 020253Z 09011KT 10SM CLR 23/18 A3014 RMK AO2 SLP205 T02330178 51007 $
2026-04-02 01:53:00,METAR KOPF 020153Z 10011KT 10SM FEW043 FEW075 24/17 A3013 RMK AO2 SLP204 T02390172 $
2026-04-02 00:53:00,METAR KOPF 020053Z 10011KT 10SM SCT032 BKN044 BKN060 24/17 A3012 RMK AO2 SLP201 T02390172 $
2026-04-01 23:53:00,METAR KOPF 012353Z 09011KT 10SM FEW031 24/17 A3012 RMK AO2 SLP199 T02390172 10267 20239 55003 $
2026-04-01 22:53:00,METAR KOPF 012253Z 10014KT 10SM FEW032 25/17 A3011 RMK AO2 SLP197 T02500172 $
2026-04-01 21:53:00,METAR KOPF 012153Z 10014KT 10SM SCT033 26/18 A3012 RMK AO2 SLP199 T02560178 $
2026-04-01 20:53:00,METAR KOPF 012053Z 08011KT 10SM SCT036 27/17 A3012 RMK AO2 SLP201 T02670172 58021 $
2026-04-01 19:53:00,METAR KOPF 011953Z 08013G23KT 10SM SCT037 BKN065 OVC075 26/17 A3015 RMK AO2 SLP209 T02610172 $
2026-04-01 18:53:00,METAR KOPF 011853Z 11012KT 10SM OVC060 26/17 A3017 RMK AO2 SLP216 T02610167 $
2026-04-01 17:53:00,METAR KOPF 011753Z 09012G19KT 10SM BKN060 27/17 A3018 RMK AO2 SLP222 60000 T02670172 10272 20206 58006 $
2026-04-01 16:53:00,METAR KOPF 011653Z 08012KT 10SM FEW038 BKN065 26/18 A3020 RMK AO2 SLP226 T02610183 $
2026-04-01 15:53:00,METAR KOPF 011553Z 10014KT 10SM FEW033 BKN044 26/17 A3020 RMK AO2 SLP227 T02610172 $
2026-04-01 14:53:00,METAR KOPF 011453Z 10014G19KT 10SM SCT029 SCT037 26/18 A3020 RMK AO2 SLP228 60000 T02560183 51017 $
2026-04-01 13:53:00,METAR KOPF 011353Z 09012KT 10SM FEW028 SCT047 OVC060 25/18 A3019 RMK AO2 RAE01B28E37 SLP222 P0000 T02500183 $
2026-04-01 12:53:00,METAR KOPF 011253Z 11005KT 10SM -RA FEW029 FEW035 SCT065 24/19 A3017 RMK AO2 RAB52 SLP218 P0000 T02440189 $
2026-04-01 11:53:00,METAR KOPF 011153Z 08003KT 10SM CLR 21/18 A3015 RMK AO2 SLP211 T02060178 10228 20206 53012 $
2026-04-01 10:53:00,METAR KOPF 011053Z 09003KT 10SM CLR 21/17 A3013 RMK AO2 SLP203 T02060172 $
2026-04-01 09:53:00,METAR KOPF 010953Z AUTO 10004KT 10SM CLR 21/17 A3011 RMK AO2 SLP198 T02060172 $
2026-04-01 08:53:00,METAR KOPF 010853Z AUTO 09005KT 10SM CLR 21/17 A3012 RMK AO2 SLP199 T02110172 56014 $
2026-04-01 07:53:00,METAR KOPF 010753Z AUTO 10006KT 10SM CLR 22/17 A3013 RMK AO2 SLP203 T02170172 $
2026-04-01 06:53:00,METAR KOPF 010653Z AUTO 10006KT 10SM CLR 22/17 A3014 RMK AO2 SLP206 T02220172 $
2026-04-01 05:53:00,METAR KOPF 010553Z AUTO 10007KT 10SM CLR 23/17 A3016 RMK AO2 SLP212 T02280172 10239 20217 58011 $
2026-04-01 04:53:00,METAR KOPF 010453Z AUTO 11008KT 10SM CLR 23/18 A3017 RMK AO2 SLP218 T02280178 402780217 $
2026-04-01 03:53:00,METAR KOPF 010353Z AUTO 08006KT 10SM CLR 22/18 A3019 RMK AO2 SLP222 T02220178 $
2026-04-01 02:53:00,METAR KOPF 010253Z 09008KT 10SM CLR 23/17 A3019 RMK AO2 SLP223 T02280172 50009 $
2026-04-01 01:53:00,METAR KOPF 010153Z 08007KT 10SM CLR 23/17 A3019 RMK AO2 SLP223 T02280172 $
2026-04-01 00:53:00,METAR KOPF 010053Z 07007KT 10SM CLR 23/17 A3018 RMK AO2 SLP219 T02280167 $
2026-03-31 23:53:00,METAR KOPF 312353Z 09011KT 10SM FEW033 24/17 A3016 RMK AO2 SLP214 T02390167 10278 20239 55001 $
2026-03-31 22:53:00,METAR KOPF 312253Z 09012KT 10SM FEW039 25/17 A3016 RMK AO2 SLP214 T02500167 $
2026-03-31 21:53:00,METAR KOPF 312153Z 08015KT 10SM SCT041 26/16 A3016 RMK AO2 SLP215 T02610161 $
2026-03-31 20:53:00,METAR KOPF 312053Z 06013G21KT 10SM CLR 27/16 A3017 RMK AO2 SLP216 T02720161 58021 $
2026-03-31 19:53:00,METAR KOPF 311953Z 10016G22KT 10SM FEW038 SCT065 27/17 A3019 RMK AO2 SLP224 T02720167 $
2026-03-31 18:53:00,METAR KOPF 311853Z 09006KT 10SM SCT033 SCT041 BKN065 27/18 A3021 RMK AO2 SLP230 T02720183 $
2026-03-31 17:53:00,METAR KOPF 311753Z 09015KT 10SM FEW036 SCT042 BKN050 27/17 A3023 RMK AO2 SLP237 60000 T02670172 10278 20228 58011 $
2026-03-31 16:53:00,METAR KOPF 311653Z 10014G21KT 10SM SCT038 SCT060 27/18 A3024 RMK AO2 SLP242 T02720178 $
2026-03-31 15:53:00,METAR KOPF 311553Z 08016G20KT 10SM FEW033 BKN046 BKN060 27/18 A3026 RMK AO2 RAB40E49 SLP246 P0000 T02670178 $
2026-03-31 14:53:00,METAR KOPF 311453Z 10013G19KT 10SM FEW032 SCT040 BKN060 25/18 A3026 RMK AO2 SLP248 T02500183 51012 $
2026-03-31 13:53:00,METAR KOPF 311353Z 09012KT 10SM FEW030 26/18 A3025 RMK AO2 SLP245 T02560183 $
2026-03-31 12:53:00,METAR KOPF 311253Z 10011KT 10SM CLR 24/18 A3024 RMK AO2 SLP240 T02440178
2026-03-31 11:53:00,METAR KOPF 311153Z 10008KT 10SM CLR 23/18 A3023 RMK AO2 SLP236 60001 70058 T02280178 10233 20217 51015
2026-03-31 10:53:00,METAR KOPF 311053Z 09009KT 10SM CLR 22/18 A3022 RMK AO2 SLP233 T02170183
2026-03-31 09:53:00,METAR KOPF 310953Z AUTO 10007KT 10SM CLR 23/18 A3020 RMK AO2 SLP226 T02280183
2026-03-31 08:53:00,METAR KOPF 310853Z AUTO 09008KT 10SM CLR 22/18 A3018 RMK AO2 SLP221 60001 T02220183 56010
2026-03-31 07:53:00,METAR KOPF 310753Z AUTO 10008KT 10SM CLR 23/18 A3018 RMK AO2 SLP222 T02280183
2026-03-31 06:53:00,METAR KOPF 310653Z AUTO 10010KT 10SM FEW025 23/19 A3020 RMK AO2 RAB13E27 SLP226 P0001 T02280189
2026-03-31 05:53:00,METAR KOPF 310553Z AUTO 10009KT 10SM SCT029 23/19 A3021 RMK AO2 SLP231 60013 T02330189 10233 20228 58010
2026-03-31 04:53:00,METAR KOPF 310453Z AUTO 10013G19KT 10SM FEW025 SCT039 SCT050 23/19 A3023 RMK AO2 RAB43E53 SLP238 P0000 T02330194 402610200
2026-03-31 03:53:00,METAR KOPF 310353Z AUTO 10011KT 10SM FEW036 FEW044 SCT050 23/19 A3024 RMK AO2 RAB15E25 SLP240 P0000 T02330189
2026-03-31 02:53:00,METAR KOPF 310253Z 10009KT 10SM FEW038 SCT050 SCT070 23/19 A3024 RMK AO2 RAE02B23E52 SLP241 P0000 60013 T02330194 51006
2026-03-31 01:53:00,METAR KOPF 310153Z 09012G20KT 9SM -RA FEW027 BKN046 OVC080 23/19 A3024 RMK AO2 RAB08 SLP241 P0013 T02280194
2026-03-31 01:16:00,SPECI KOPF 310116Z 12007G19KT 3SM +RA BKN025 23/19 A3023 RMK AO2 RAB08 P0011 T02280194
2026-03-31 00:53:00,METAR KOPF 310053Z 09010KT 10SM FEW027 FEW044 23/19 A3022 RMK AO2 SLP235 T02330194
2026-03-30 23:53:00,METAR KOPF 302353Z 09014KT 10SM FEW026 SCT035 BKN043 23/20 A3022 RMK AO2 RAE2259 SLP233 P0000 60025 T02330200 10261 20222 53004
2026-03-30 22:53:00,METAR KOPF 302253Z 08010KT 7SM -RA FEW021 BKN044 OVC090 23/21 A3021 RMK AO2 RAB08E19B36 SLP229 P0002 T02280206
2026-03-30 21:53:00,METAR KOPF 302153Z 07012G16KT 5SM BR FEW022 SCT038 23/21 A3020 RMK AO2 RAE42 SLP226 P0009 T02330211
2026-03-30 21:22:00,SPECI KOPF 302122Z 07007KT 5SM -RA BR SCT037 SCT046 OVC070 23/21 A3020 RMK AO2 P0009 T02280211
2026-03-30 21:11:00,SPECI KOPF 302111Z 08011G24KT 2SM +RA BR SCT025 BKN047 OVC065 22/21 A3020 RMK AO2 P0009 T02220206
2026-03-30 21:04:00,SPECI KOPF 302104Z 09017G24KT 5SM -RA BR FEW020 BKN049 OVC070 23/21 A3021 RMK AO2 P0002 T02280206
2026-03-30 20:53:00,METAR KOPF 302053Z 09016G22KT 4SM -RA BR BKN022 BKN034 OVC060 23/21 A3020 RMK AO2 RAB30 SLP228 P0012 60014 T02330211 56015
2026-03-30 20:35:00,SPECI KOPF 302035Z 09010G19KT 8SM -RA SCT020 BKN027 BKN033 24/21 A3020 RMK AO2 RAB30 P0001 T02440211
2026-03-30 19:53:00,METAR KOPF 301953Z 08019G25KT 10SM SCT023 BKN036 BKN050 25/21 A3021 RMK AO2 RAB12E29 SLP232 P0002 T02500206
2026-03-30 18:53:00,METAR KOPF 301853Z 10018G24KT 10SM FEW019 SCT041 BKN049 24/20 A3023 RMK AO2 RAE1759B25E41 SLP237 P0000 T02440200
2026-03-30 18:42:00,SPECI KOPF 301842Z 09018G23KT 10SM SCT019 BKN046 OVC110 25/21 A3023 RMK AO2 RAE1759B25E41 P0000 T02500206
2026-03-30 18:30:00,SPECI KOPF 301830Z 09018G24KT 10SM -RA BKN017 BKN025 24/22 A3023 RMK AO2 RAE1759B25 P0000 T02440217
2026-03-30 17:53:00,METAR KOPF 301753Z 09008KT 5SM -RA BR FEW023 SCT048 OVC060 23/21 A3025 RMK AO2 PK WND 11031/1707 SLP243 P0014 60019 T02280211 10261 20217 56010
2026-03-30 17:27:00,SPECI KOPF 301727Z 11009G19KT 2SM RA BR FEW014 BKN038 OVC055 22/20 A3025 RMK AO2 PK WND 11031/1707 P0004 T02170200
2026-03-30 17:11:00,SPECI KOPF 301711Z 11017G31KT 2SM RA FEW016 BKN026 OVC034 23/20 A3026 RMK AO2 PK WND 11031/1707 P0001 T02280200
2026-03-30 16:53:00,METAR KOPF 301653Z 09015G28KT 8SM -RA SCT026 BKN037 OVC050 24/20 A3025 RMK AO2 PK WND 11028/1648 RAE1554B23E33B51 SLP244 P0000 T02440200
2026-03-30 16:36:00,SPECI KOPF 301636Z 10017G26KT 10SM SCT023 BKN049 26/20 A3025 RMK AO2 PK WND 08026/1618 RAE1554B23E33 P0000 T02560200
2026-03-30 16:29:00,SPECI KOPF 301629Z 09020G26KT 10SM -RA BKN023 BKN036 BKN047 26/21 A3026 RMK AO2 PK WND 08026/1618 RAE1554B23 P0000 T02560211
2026-03-30 16:00:00,SPECI KOPF 301600Z 09013KT 10SM FEW023 BKN042 OVC055 24/21 A3026 RMK AO2 RAE1554 P0000 T02440211
2026-03-30 15:53:00,METAR KOPF 301553Z 08012KT 5SM -RA BKN012 BKN032 OVC042 24/21 A3026 RMK AO2 SLP249 P0001 T02390211
2026-03-30 15:45:00,SPECI KOPF 301545Z 10014G20KT 5SM -RA BR BKN012 BKN032 OVC042 23/21 A3027 RMK AO2 P0001 T02330211
2026-03-30 15:12:00,SPECI KOPF 301512Z 11010KT 5SM -RA BR FEW019 BKN041 OVC050 23/21 A3027 RMK AO2 P0001 T02280211
2026-03-30 15:07:00,SPECI KOPF 301507Z 10008KT 2SM RA BR FEW019 BKN029 OVC038 23/21 A3028 RMK AO2 P0001 T02280211
2026-03-30 14:53:00,METAR KOPF 301453Z 09014KT 6SM -RA FEW026 BKN040 BKN050 23/20 A3028 RMK AO2 RAE18B48 SLP253 P0001 60004 T02280200 51009
2026-03-30 13:53:00,METAR KOPF 301353Z 11010G21KT 7SM -RA FEW009 BKN036 OVC046 22/21 A3026 RMK AO2 SLP249 P0003 T02170206 $
2026-03-30 13:51:00,SPECI KOPF 301351Z 12012G21KT 7SM -RA FEW009 BKN034 OVC044 22/21 A3026 RMK AO2 P0003 $
2026-03-30 13:37:00,SPECI KOPF 301337Z 11014KT 5SM -RA BR FEW013 BKN037 OVC048 22/20 A3026 RMK AO2 P0002 T02170200 $
2026-03-30 13:00:00,SPECI KOPF 301300Z 11008G22KT 5SM -RA BR SCT019 BKN024 OVC045 22/20 A3025 RMK AO2 P0000 T02220200 $
2026-03-30 12:53:00,METAR KOPF 301253Z 09014G22KT 1SM -RA FEW017 BKN022 OVC044 22/19 A3025 RMK AO2 RAB43 SLP244 P0000 T02220194 $
2026-03-30 11:53:00,METAR KOPF 301153Z 08012G20KT 10SM FEW021 SCT041 SCT060 22/19 A3023 RMK AO2 RAE22 SLP236 P0003 60028 70077 T02220189 10222 20200 53014 $
2026-03-30 11:27:00,SPECI KOPF 301127Z 10010G17KT 10SM SCT021 BKN039 OVC055 22/19 A3022 RMK AO2 RAE22 P0003 T02170194 $
2026-03-30 11:02:00,SPECI KOPF 301102Z 09009KT 4SM -RA BR SCT019 BKN024 OVC047 21/19 A3021 RMK AO2 P0002 T02110194 $
2026-03-30 10:53:00,METAR KOPF 301053Z 10016G23KT 5SM RA SCT020 BKN038 OVC070 22/19 A3021 RMK AO2 RAB51 SLP231 P0004 T02220194 $
2026-03-30 09:53:00,METAR KOPF 300953Z AUTO 08011G21KT 10SM SCT023 BKN033 OVC055 22/19 A3019 RMK AO2 RAB0856E08 SLP225 P0000 T02170194 $
2026-03-30 08:53:00,METAR KOPF 300853Z AUTO 08010KT 10SM FEW027 BKN042 OVC050 21/19 A3019 RMK AO2 PK WND 11026/0802 RAE43 SLP223 P0020 60021 T02110194 56009 $
2026-03-30 08:37:00,SPECI KOPF 300837Z AUTO 08011KT 7SM -RA FEW010 BKN037 OVC047 21/19 A3019 RMK AO2 PK WND 11026/0802 P0020 T02060194 $
2026-03-30 08:26:00,SPECI KOPF 300826Z AUTO 10011G21KT 4SM RA BR FEW008 BKN028 OVC037 21/19 A3019 RMK AO2 PK WND 11026/0802 P0019 T02060194 $
2026-03-30 08:16:00,SPECI KOPF 300816Z AUTO 11010G17KT 2 1/2SM +RA BR SCT019 BKN028 OVC044 20/19 A3019 RMK AO2 PK WND 11026/0802 VIS 1 1/2V5 P0015 T02000189 $
2026-03-30 08:09:00,SPECI KOPF 300809Z AUTO 11008G26KT 4SM +RA FEW019 BKN040 OVC048 21/18 A3019 RMK AO2 PK WND 11026/0802 P0003 T02060178 $
2026-03-30 07:53:00,METAR KOPF 300753Z AUTO 08014G25KT 7SM -RA SCT021 BKN028 OVC050 22/19 A3019 RMK AO2 RAB25 SLP225 P0001 T02170194 $
2026-03-30 06:53:00,METAR KOPF 300653Z AUTO 09014KT 10SM CLR 22/19 A3020 RMK AO2 PK WND 09028/0606 RAB09E21 SLP228 P0000 T02220189 $
2026-03-30 05:53:00,METAR KOPF 300553Z AUTO 08010KT 10SM BKN045 BKN055 OVC070 21/19 A3021 RMK AO2 RAB15E47 SLP231 P0001 60001 T02110194 10228 20211 58010 $
2026-03-30 04:53:00,METAR KOPF 300453Z AUTO 08016G22KT 10SM FEW020 SCT055 BKN070 23/19 A3024 RMK AO2 RAB12E21 SLP239 P0000 T02280194 402670211 $
2026-03-30 04:26:00,SPECI KOPF 300426Z AUTO 08012KT 10SM SCT020 SCT027 BKN038 22/19 A3024 RMK AO2 RAB12E21 P0000 T02220189 $
2026-03-30 04:11:00,SPECI KOPF 300411Z AUTO 08014G23KT 10SM BKN024 BKN042 23/19 A3024 RMK AO2 T02280194 $
2026-03-30 03:53:00,METAR KOPF 300353Z AUTO 07011KT 10SM FEW021 SCT027 BKN042 23/19 A3024 RMK AO2 SLP241 T02280194 $
2026-03-30 02:53:00,METAR KOPF 300253Z AUTO 08012G21KT 10SM FEW024 SCT029 23/19 A3024 RMK AO2 SLP241 60000 T02280189 51008 $
2026-03-30 01:53:00,METAR KOPF 300153Z 09010KT 10SM FEW029 22/19 A3024 RMK AO2 RAB04E15 SLP241 P0000 T02220194 $
2026-03-30 01:23:00,SPECI KOPF 300123Z 07011KT 10SM SCT023 SCT046 BKN060 23/19 A3023 RMK AO2 RAB04E15 P0000 T02280194 $
2026-03-30 01:07:00,SPECI KOPF 300107Z 07011KT 10SM -RA SCT023 BKN027 OVC060 23/19 A3023 RMK AO2 RAB04 P0000 T02280194 $
2026-03-30 00:53:00,METAR KOPF 300053Z 07011KT 10SM SCT023 SCT034 BKN055 23/19 A3023 RMK AO2 SLP236 T02280194 $
2026-03-29 23:53:00,METAR KOPF 292353Z 07013KT 10SM FEW047 FEW055 23/19 A3022 RMK AO2 SLP234 60034 T02280189 10250 20211 53003 $
2026-03-29 22:53:00,METAR KOPF 292253Z 08011KT 10SM FEW030 23/19 A3021 RMK AO2 RAE20 SLP230 P0009 T02280194 $
2026-03-29 22:17:00,SPECI KOPF 292217Z 08008KT 8SM -RA SCT024 BKN035 OVC050 22/20 A3021 RMK AO2 P0009 T02170200 $
2026-03-29 22:08:00,SPECI KOPF 292208Z 11006KT 2 1/2SM +RA BR FEW022 BKN039 OVC070 21/20 A3021 RMK AO2 VIS 1 3/4V4 P0009 T02110200 $
2026-03-29 22:00:00,SPECI KOPF 292200Z 08012KT 3SM +RA BR FEW021 BKN039 OVC070 22/19 A3021 RMK AO2 P0004 T02170194 $
2026-03-29 21:53:00,METAR KOPF 292153Z 11010KT 2SM RA BR SCT025 BKN055 OVC070 21/19 A3021 RMK AO2 PK WND 10030/2134 RAB34 SLP231 P0006 T02110189 $
2026-03-29 21:44:00,SPECI KOPF 292144Z 11011G26KT 2SM RA SCT022 BKN030 BKN043 21/18 A3021 RMK AO2 PK WND 10030/2134 RAB34 P0005 T02110178 $
2026-03-29 21:37:00,SPECI KOPF 292137Z 10015G30KT 2SM +RA BR SCT022 BKN027 BKN060 22/19 A3021 RMK AO2 PK WND 10030/2134 RAB34 P0003 T02170194 $
2026-03-29 20:53:00,METAR KOPF 292053Z 08012KT 10SM OVC060 25/19 A3021 RMK AO2 RAE1958 SLP230 P0000 60019 T02500194 56007 $
2026-03-29 19:53:00,METAR KOPF 291953Z 10007G16KT 8SM -RA SCT044 OVC055 21/20 A3021 RMK AO2 SLP232 P0009 T02110200 $
2026-03-29 19:39:00,SPECI KOPF 291939Z 11007KT 1SM -RA BR BKN040 OVC060 21/20 A3022 RMK AO2 P0009 T02110200 $
2026-03-29 19:25:00,SPECI KOPF 291925Z 11012G22KT 2SM -RA BR FEW029 OVC041 21/19 A3023 RMK AO2 P0002 T02110189 $
2026-03-29 19:10:00,SPECI KOPF 291910Z 11012G20KT 10SM -RA SCT025 BKN031 OVC048 22/20 A3022 RMK AO2 P0001 T02220200 $
2026-03-29 19:00:00,SPECI KOPF 291900Z 11014G22KT 10SM -RA BKN025 BKN031 OVC039 22/19 A3022 RMK AO2 P0000 T02220194 $
2026-03-29 18:53:00,METAR KOPF 291853Z 11010G18KT 4SM -RA SCT023 BKN031 OVC047 23/19 A3022 RMK AO2 RAE01B20 SLP233 P0010 T02280194 $
2026-03-29 18:37:00,SPECI KOPF 291837Z 07010KT 4SM -RA SCT022 BKN033 BKN046 24/21 A3021 RMK AO2 RAE01B20 P0010 T02440206 $
2026-03-29 18:30:00,SPECI KOPF 291830Z 09008KT 2 1/2SM -RA FEW023 SCT032 BKN046 23/21 A3022 RMK AO2 RAE01B20 P0010 T02330206 $
2026-03-29 17:53:00,METAR KOPF 291753Z 05011G22KT 9SM -RA SCT029 BKN040 OVC055 23/20 A3023 RMK AO2 RAB26 SLP237 P0002 60014 T02280200 10267 20211 58008 $
2026-03-29 17:45:00,SPECI KOPF 291745Z 05017G22KT 10SM -RA BKN028 BKN038 OVC045 24/19 A3023 RMK AO2 RAB26 P0001 T02390194 $
2026-03-29 17:12:00,SPECI KOPF 291712Z 07015KT 10SM FEW024 SCT028 BKN033 26/19 A3023 RMK AO2 T02560189 $
2026-03-29 16:53:00,METAR KOPF 291653Z 04014KT 10SM FEW015 BKN024 OVC028 24/20 A3024 RMK AO2 RAB35E46 SLP241 P0000 T02440200 $
2026-03-29 16:32:00,SPECI KOPF 291632Z 02008KT 10SM SCT016 BKN027 OVC036 23/20 A3025 RMK AO2 T02280200 $
2026-03-29 15:24:00,SPECI KOPF 291524Z 36007KT 4SM -RA BR SCT028 BKN035 OVC048 22/19 A3026 RMK AO2 PK WND 06027/1501 RAB09 P0012 T02170194 $
2026-03-29 15:17:00,SPECI KOPF 291517Z 36011KT 4SM +RA BKN028 BKN037 OVC060 22/19 A3026 RMK AO2 PK WND 06027/1501 RAB09 P0012 T02170189 $
2026-03-29 14:53:00,METAR KOPF 291453Z 05013KT 10SM FEW029 SCT035 SCT050 26/18 A3025 RMK AO2 SLP245 T02610183 51019 $
2026-03-29 13:53:00,METAR KOPF 291353Z 07014G19KT 10SM SCT031 26/17 A3024 RMK AO2 SLP241 T02610172 $
2026-03-29 12:53:00,METAR KOPF 291253Z 06007KT 10SM FEW075 BKN095 OVC120 23/18 A3022 RMK AO2 SLP235 T02280183 $
2026-03-29 12:19:00,SPECI KOPF 291219Z 01008KT 10SM SCT023 BKN033 OVC110 22/19 A3020 RMK AO2 T02170189 $
2026-03-29 12:05:00,SPECI KOPF 291205Z 36006KT 10SM BKN024 BKN041 OVC090 22/19 A3020 RMK AO2 T02170189 $
2026-03-29 11:53:00,METAR KOPF 291153Z 36005KT 10SM FEW018 BKN043 OVC090 22/19 A3020 RMK AO2 SLP226 60000 T02170189 10239 20217 53018 $
2026-03-29 10:53:00,METAR KOPF 291053Z 02007KT 10SM BKN031 BKN048 BKN110 22/18 A3017 RMK AO2 RAB02E44 SLP218 P0000 T02170183 $
2026-03-29 09:53:00,METAR KOPF 290953Z AUTO 09007KT 10SM FEW095 23/18 A3015 RMK AO2 SLP209 T02330178 $
2026-03-29 08:53:00,METAR KOPF 290853Z AUTO 09005KT 10SM FEW075 23/18 A3014 RMK AO2 SLP208 T02280178 55007 $
2026-03-29 07:53:00,METAR KOPF 290753Z AUTO 10008KT 10SM FEW028 SCT085 23/18 A3014 RMK AO2 SLP207 T02330183 $
2026-03-29 06:53:00,METAR KOPF 290653Z AUTO 10011KT 10SM CLR 23/18 A3015 RMK AO2 SLP210 T02330183 $
2026-03-29 05:53:00,METAR KOPF 290553Z AUTO 09011KT 10SM CLR 24/18 A3016 RMK AO2 RAE0456 SLP214 P0000 60000 T02390183 10250 20239 58001 $
2026-03-29 05:06:00,SPECI KOPF 290506Z AUTO 08010KT 10SM SCT027 SCT034 BKN041 24/19 A3017 RMK AO2 RAE0456 P0000 T02440189 $
2026-03-29 04:53:00,METAR KOPF 290453Z AUTO 08010KT 10SM -RA BKN027 BKN039 BKN048 24/19 A3016 RMK AO2 RAB47 SLP215 P0000 T02440189 403000194 $
2026-03-29 03:53:00,METAR KOPF 290353Z AUTO 08011KT 10SM FEW028 BKN075 24/19 A3017 RMK AO2 SLP217 T02440189 $
2026-03-29 02:53:00,METAR KOPF 290253Z AUTO 08010KT 10SM FEW029 24/19 A3017 RMK AO2 SLP215 T02440189 51016 $
2026-03-29 01:53:00,METAR KOPF 290153Z 07007KT 10SM CLR 24/19 A3015 RMK AO2 SLP212 T02390189 $
2026-03-29 00:53:00,METAR KOPF 290053Z 07011KT 10SM CLR 24/18 A3014 RMK AO2 SLP205 T02440183 $
2026-03-28 23:53:00,METAR KOPF 282353Z 07010KT 10SM CLR 25/18 A3012 RMK AO2 SLP200 T02500183 10294 20250 53012 $
2026-03-28 22:53:00,METAR KOPF 282253Z 09011KT 10SM CLR 26/18 A3011 RMK AO2 SLP196 T02610183 $
2026-03-28 21:53:00,METAR KOPF 282153Z 09009G16KT 10SM CLR 27/18 A3009 RMK AO2 SLP189 T02720183 $
2026-03-28 20:53:00,METAR KOPF 282053Z 08010KT 10SM CLR 28/18 A3008 RMK AO2 SLP188 T02830178 56020 $
2026-03-28 19:53:00,METAR KOPF 281953Z 09011KT 10SM CLR 28/18 A3010 RMK AO2 SLP194 T02830178 $
2026-03-28 18:53:00,METAR KOPF 281853Z 06011G18KT 10SM CLR 29/17 A3012 RMK AO2 SLP201 T02890172 $
2026-03-28 17:53:00,METAR KOPF 281753Z 05007KT 10SM FEW045 30/18 A3014 RMK AO2 SLP208 T03000178 10300 20206 58010 $
2026-03-28 16:53:00,METAR KOPF 281653Z 07004KT 10SM SCT050 28/18 A3016 RMK AO2 SLP212 T02780178 $
2026-03-28 15:53:00,METAR KOPF 281553Z 00000KT 10SM SCT034 27/18 A3017 RMK AO2 SLP217 T02720178 $
2026-03-28 14:53:00,METAR KOPF 281453Z 06003KT 10SM SCT028 SCT034 26/18 A3017 RMK AO2 SLP218 T02610183 52012 $
2026-03-28 13:53:00,METAR KOPF 281353Z 34003KT 10SM CLR 26/19 A3016 RMK AO2 SLP214 T02560194 $
2026-03-28 12:53:00,METAR KOPF 281253Z 36004KT 10SM CLR 23/18 A3015 RMK AO2 SLP211 T02280183 $
2026-03-28 11:53:00,METAR KOPF 281153Z 00000KT 10SM CLR 20/18 A3014 RMK AO2 SLP207 T02000178 10222 20194 53018 $
2026-03-28 10:53:00,METAR KOPF 281053Z 34004KT 10SM CLR 20/18 A3011 RMK AO2 SLP198 T02000183 $
2026-03-28 09:53:00,METAR KOPF 280953Z AUTO 00000KT 10SM CLR 20/18 A3010 RMK AO2 SLP192 T02000183 $
2026-03-28 08:53:00,METAR KOPF 280853Z AUTO 29003KT 10SM CLR 20/18 A3009 RMK AO2 SLP188 T02000183 56009 $
2026-03-28 07:53:00,METAR KOPF 280753Z AUTO 32005KT 10SM FEW029 20/19 A3009 RMK AO2 SLP191 T02000189 $
2026-03-28 06:53:00,METAR KOPF 280653Z AUTO 32004KT 10SM CLR 21/19 A3010 RMK AO2 SLP194 T02110189 $
2026-03-28 05:53:00,METAR KOPF 280553Z AUTO 00000KT 10SM FEW028 22/19 A3011 RMK AO2 SLP198 T02170189 10250 20211 58005 $
2026-03-28 04:53:00,METAR KOPF 280453Z AUTO 00000KT 10SM CLR 22/19 A3012 RMK AO2 SLP200 T02220189 402890211 $
2026-03-28 03:53:00,METAR KOPF 280353Z AUTO 00000KT 10SM CLR 23/18 A3013 RMK AO2 SLP202 T02280183 $
2026-03-28 02:53:00,METAR KOPF 280253Z AUTO 05003KT 10SM CLR 23/19 A3013 RMK AO2 SLP203 T02330189 51021 $
2026-03-28 01:53:00,METAR KOPF 280153Z 06004KT 10SM CLR 23/19 A3012 RMK AO2 SLP201 T02330189 $
2026-03-28 00:53:00,METAR KOPF 280053Z 09005KT 10SM CLR 24/18 A3010 RMK AO2 SLP193 T02390183 $
2026-03-27 23:53:00,METAR KOPF 272353Z 10007KT 10SM CLR 24/19 A3007 RMK AO2 SLP182 T02440189 10289 20244 53004 $
2026-03-27 22:53:00,METAR KOPF 272253Z 10011KT 10SM CLR 26/18 A3005 RMK AO2 SLP176 T02560183 $
2026-03-27 21:53:00,METAR KOPF 272153Z 09011G18KT 10SM CLR 27/19 A3005 RMK AO2 SLP176 T02720189 $
2026-03-27 20:53:00,METAR KOPF 272053Z 11011G20KT 10SM FEW031 28/18 A3005 RMK AO2 SLP178 T02780183 56019 $
2026-03-27 19:53:00,METAR KOPF 271953Z 09011KT 10SM FEW033 28/18 A3007 RMK AO2 SLP183 T02780183 $
2026-03-27 18:53:00,METAR KOPF 271853Z 10012G18KT 10SM SCT033 28/19 A3009 RMK AO2 SLP190 T02830189 $
2026-03-27 17:53:00,METAR KOPF 271753Z 13012KT 10SM FEW043 FEW055 SCT085 28/20 A3011 RMK AO2 SLP197 60000 T02830200 10283 20222 58008 $
2026-03-27 16:53:00,METAR KOPF 271653Z 10011G18KT 10SM FEW035 28/18 A3012 RMK AO2 RAB43E52 SLP201 P0000 T02830183 $
2026-03-25 14:53:00,METAR KOPF 251453Z 06005KT 10SM CLR 26/16 A3014 RMK AO2 SLP208 T02610156 51017 $
2026-03-25 13:53:00,METAR KOPF 251353Z 00000KT 10SM CLR 25/15 A3014 RMK AO2 SLP206 T02500150 $
2026-03-25 12:53:00,METAR KOPF 251253Z 33003KT 10SM CLR 22/17 A3012 RMK AO2 SLP200 T02170172 $
2026-03-25 11:53:00,METAR KOPF 251153Z 00000KT 10SM CLR 18/17 A3009 RMK AO2 SLP191 7//// T01830167 10200 20172 53010 $
2026-03-25 10:53:00,METAR KOPF 251053Z 00000KT 10SM CLR 18/16 A3008 RMK AO2 SLP187 T01780156 $
2026-03-25 09:53:00,METAR KOPF 250953Z AUTO 32004KT 10SM CLR 18/16 A3007 RMK AO2 SLP184 T01780156 $
2026-03-25 08:53:00,METAR KOPF 250853Z AUTO 00000KT 10SM CLR 17/14 A3006 RMK AO2 SLP181 T01720139 55013 $
2026-03-25 07:53:00,METAR KOPF 250753Z AUTO 00000KT 10SM CLR 19/14 A3006 RMK AO2 SLP180 T01890144 $
2026-03-25 06:53:00,METAR KOPF 250653Z AUTO 23003KT 10SM CLR 19/14 A3008 RMK AO2 SLP185 T01940144 $
2026-03-25 05:53:00,METAR KOPF 250553Z AUTO 28003KT 10SM CLR 20/15 A3010 RMK AO2 SLP193 T02000150 10244 20194 53001 PWINO $
2026-03-25 04:53:00,METAR KOPF 250453Z AUTO 27005KT 10SM CLR 20/14 A3010 RMK AO2 SLP193 T02000144 403000161 $
2026-03-25 03:53:00,METAR KOPF 250353Z AUTO 24006KT 10SM CLR 22/16 A3009 RMK AO2 SLP191 T02170156 PWINO $
2026-03-25 02:53:00,METAR KOPF 250253Z 20005KT 10SM CLR 22/15 A3010 RMK AO2 SLP192 T02220150 51012 $
2026-03-25 01:53:00,METAR KOPF 250153Z 22005KT 10SM CLR 23/14 A3009 RMK AO2 SLP189 T02280139 $
2026-03-25 00:53:00,METAR KOPF 250053Z 18003KT 10SM CLR 23/13 A3007 RMK AO2 SLP185 T02330128 $
2026-03-24 23:53:00,METAR KOPF 242353Z 13007KT 10SM CLR 24/12 A3006 RMK AO2 SLP180 T02440117 10300 20244 53009 $
2026-03-24 22:53:00,METAR KOPF 242253Z 15010KT 10SM CLR 26/11 A3005 RMK AO2 SLP176 T02610111 $
2026-03-24 21:53:00,METAR KOPF 242153Z 13008KT 10SM CLR 27/12 A3003 RMK AO2 SLP171 T02720122 $
2026-03-24 20:53:00,METAR KOPF 242053Z 13006KT 10SM CLR 28/13 A3003 RMK AO2 SLP171 T02830133 56015 $
2026-03-24 19:53:00,METAR KOPF 241953Z 17007KT 10SM CLR 28/14 A3004 RMK AO2 SLP174 T02830139 $
2026-03-24 18:53:00,METAR KOPF 241853Z 15006KT 10SM CLR 29/11 A3005 RMK AO2 SLP178 T02890106
2026-03-24 17:53:00,METAR KOPF 241753Z 34007KT 10SM CLR 29/11 A3008 RMK AO2 RAB33E42 SLP186 P0000 6//// T02890111 10289 20239
2026-03-24 16:53:00,METAR KOPF 241653Z VRB05KT 10SM CLR 28/10 A3010 RMK AO2 SLP195 T02780100
2026-03-24 16:13:00,SPECI KOPF 241613Z VRB04KT 10SM CLR 27/12 A3011 RMK AO2 T02670117
2026-03-24 14:53:00,METAR KOPF 241453Z COR VRB03KT 10SM CLR 25/13 A3011 RMK AO2 SLP197 6//// T02500133
2026-03-24 13:53:00,METAR KOPF 241353Z 020/05KT 10SM CLR 22/16 A3011
2026-03-24 12:53:00,METAR KOPF 241253Z VRB/04KT 10SM CLR 19/17 A3010
2026-03-24 11:53:00,METAR KOPF 241153Z 000/00KT 10SMSM CLR 16/15 A3008
2026-03-24 02:53:00,METAR KOPF 240253Z 270/06KT 10SMSM 26/17 A3010
2026-03-24 01:53:00,METAR KOPF 240153Z 250/09KT 10SMSM CLR 26/17 A3009
2026-03-24 00:53:00,METAR KOPF 240053Z 160/09KT 10SMSM CLR 26/17 A3008
2026-03-23 23:53:00,METAR KOPF 232353Z 160/09KT 10SMSM CLR 26/17 A3006
2026-03-23 22:53:00,METAR KOPF 232253Z 160/09KT 10SMSM CLR 26/17 A3004
2026-03-23 21:53:00,METAR KOPF 232153Z 160/09KT 10SMSM CLR 26/17 A3004
2026-03-23 20:53:00,METAR KOPF 232053Z 130/12KT 10SMSM CLR 26/17 A3004
2026-03-23 19:53:00,METAR KOPF 231953Z 100/08KT 10SMSM CLR 26/17 A3004
2026-03-23 18:53:00,METAR KOPF 231853Z 120/08KT 10SMSM CLR 27/17 A3006
2026-03-23 17:53:00,METAR KOPF 231753Z 04004KT 10SM CLR 28/13 A3009 RMK AO2 SLP190 T02780128 10278 20172 58017
2026-03-23 16:53:00,METAR KOPF 231653Z 27004KT 10SM CLR 26/13 A3012 RMK AO2 SLP199 T02610133
2026-03-23 15:53:00,METAR KOPF 231553Z VRB05KT 10SM CLR 26/13 A3013 RMK AO2 SLP204 T02560133
2026-03-23 14:53:00,METAR KOPF 231453Z 35004KT 10SM CLR 24/13 A3014 RMK AO2 SLP207 T02440133 51016
2026-03-23 13:53:00,METAR KOPF 231353Z 35005KT 10SM CLR 23/12 A3013 RMK AO2 SLP202 T02330117
2026-03-23 12:53:00,METAR KOPF 231253Z 35003KT 10SM CLR 20/12 A3011 RMK AO2 SLP195 T02000117
2026-03-23 11:53:00,METAR KOPF 231153Z 00000KT 10SM CLR 17/12 A3009 RMK AO2 SLP190 T01720117 10194 20161 51007
2026-03-23 10:53:00,METAR KOPF 231053Z 33003KT 10SM CLR 17/11 A3009 RMK AO2 SLP189 T01720111
2026-03-23 09:53:00,METAR KOPF 230953Z AUTO 34003KT 10SM CLR 17/11 A3008 RMK AO2 SLP187 T01720111
2026-03-23 08:53:00,METAR KOPF 230853Z AUTO 33004KT 10SM CLR 17/13 A3007 RMK AO2 SLP184 T01720128 56012
2026-03-23 07:53:00,METAR KOPF 230753Z AUTO 30003KT 10SM CLR 18/13 A3007 RMK AO2 SLP184 T01780133
2026-03-23 06:53:00,METAR KOPF 230653Z AUTO 30003KT 10SM CLR 18/13 A3009 RMK AO2 SLP189 T01830133
2026-03-23 05:53:00,METAR KOPF 230553Z AUTO 30003KT 10SM CLR 19/14 A3011 RMK AO2 SLP196 T01940139 10228 20183 58006
2026-03-23 04:53:00,METAR KOPF 230453Z AUTO 30003KT 10SM CLR 20/16 A3011 RMK AO2 SLP198 T02000156 402780150
2026-03-23 03:53:00,METAR KOPF 230353Z AUTO 27004KT 10SM CLR 20/16 A3012 RMK AO2 SLP201 T02000156
2026-03-23 02:53:00,METAR KOPF 230253Z AUTO 25003KT 10SM CLR 21/15 A3012 RMK AO2 SLP201 T02060150 51016
2026-03-23 01:53:00,METAR KOPF 230153Z 21003KT 10SM CLR 22/15 A3011 RMK AO2 SLP198 T02170150
2026-03-23 00:53:00,METAR KOPF 230053Z 18004KT 10SM CLR 22/15 A3010 RMK AO2 SLP193 T02170150
2026-03-22 23:53:00,METAR KOPF 222353Z 15009KT 10SM CLR 23/15 A3008 RMK AO2 SLP186 T02280150 10278 20228 53003
2026-03-22 22:53:00,METAR KOPF 222253Z 14009KT 10SM CLR 24/15 A3007 RMK AO2 SLP184 T02440150
2026-03-22 21:53:00,METAR KOPF 222153Z 13011KT 10SM CLR 26/14 A3007 RMK AO2 SLP183 T02560144
2026-03-22 20:53:00,METAR KOPF 222053Z 13009KT 10SM CLR 27/15 A3007 RMK AO2 SLP183 T02670150 56011
2026-03-22 19:53:00,METAR KOPF 221953Z 14007KT 10SM CLR 27/15 A3008 RMK AO2 SLP185 T02720150
2026-03-22 18:53:00,METAR KOPF 221853Z 12009KT 10SM CLR 27/14 A3009 RMK AO2 SLP189 T02720144
2026-03-22 17:53:00,METAR KOPF 221753Z 16004KT 10SM CLR 27/14 A3010 RMK AO2 RAB24E28 SLP194 P0000 60000 T02670139 10272 20161 58015
2026-03-22 16:53:00,METAR KOPF 221653Z 15003KT 10SM CLR 26/14 A3013 RMK AO2 RAB24E39 SLP203 P0000 T02560144
2026-03-22 15:53:00,METAR KOPF 221553Z 00000KT 10SM CLR 24/14 A3014 RMK AO2 SLP208 T02440139
2026-03-22 14:53:00,METAR KOPF 221453Z 27003KT 10SM CLR 24/15 A3015 RMK AO2 SLP209 T02390150 51012
2026-03-22 13:53:00,METAR KOPF 221353Z 33005KT 10SM CLR 22/14 A3014 RMK AO2 SLP206 T02220139
2026-03-22 12:53:00,METAR KOPF 221253Z 36004KT 10SM CLR 19/13 A3012 RMK AO2 SLP202 T01890133
2026-03-22 11:53:00,METAR KOPF 221153Z 00000KT 10SM CLR 16/11 A3011 RMK AO2 SLP197 T01610111 10178 20150 51015
2026-03-22 10:53:00,METAR KOPF 221053Z 32004KT 10SM CLR 16/11 A3010 RMK AO2 SLP193 T01560111
2026-03-22 09:53:00,METAR KOPF 220953Z AUTO 32003KT 10SM CLR 16/11 A3008 RMK AO2 SLP187 T01610111
2026-03-22 08:53:00,METAR KOPF 220853Z AUTO 29003KT 10SM CLR 16/14 A3007 RMK AO2 SLP182 T01610139 55003
2026-03-22 07:53:00,METAR KOPF 220753Z AUTO 29004KT 10SM CLR 17/13 A3006 RMK AO2 SLP180 T01670133
2026-03-22 06:53:00,METAR KOPF 220653Z AUTO 27003KT 10SM CLR 18/14 A3007 RMK AO2 SLP182 T01780144
2026-03-22 05:53:00,METAR KOPF 220553Z AUTO 29004KT 10SM CLR 18/15 A3008 RMK AO2 SLP186 T01780150 10222 20178 58003
2026-03-22 04:53:00,METAR KOPF 220453Z AUTO 00000KT 10SM CLR 19/15 A3008 RMK AO2 SLP187 T01890150 402720161
2026-03-22 03:53:00,METAR KOPF 220353Z AUTO 25004KT 10SM CLR 19/15 A3009 RMK AO2 SLP189 T01940150
2026-03-22 02:53:00,METAR KOPF 220253Z AUTO 00000KT 10SM CLR 21/15 A3009 RMK AO2 SLP189 T02060150 51010
2026-03-22 01:53:00,METAR KOPF 220153Z 05003KT 10SM CLR 21/14 A3008 RMK AO2 SLP187 T02060144
2026-03-22 00:53:00,METAR KOPF 220053Z 05003KT 10SM CLR 22/14 A3007 RMK AO2 SLP184 T02170144
2026-03-21 23:53:00,METAR KOPF 212353Z 08007KT 10SM CLR 22/14 A3006 RMK AO2 SLP179 T02220144 10272 20222 53006
2026-03-21 22:53:00,METAR KOPF 212253Z 09009KT 10SM CLR 24/14 A3005 RMK AO2 SLP175 T02390144
2026-03-21 21:53:00,METAR KOPF 212153Z 07009KT 10SM CLR 26/14 A3004 RMK AO2 SLP173 T02560144
2026-03-21 20:53:00,METAR KOPF 212053Z 06012G17KT 10SM CLR 26/14 A3004 RMK AO2 SLP173 T02610144 56013
2026-03-21 19:53:00,METAR KOPF 211953Z 10008KT 10SM SCT050 26/13 A3005 RMK AO2 SLP175 T02610133
2026-03-21 18:53:00,METAR KOPF 211853Z 07008G17KT 10SM FEW050 26/13 A3006 RMK AO2 SLP180 T02560128
2026-03-21 17:53:00,METAR KOPF 211753Z 04009KT 10SM FEW050 26/13 A3008 RMK AO2 SLP186 T02610128 10272 20167 58014
2026-03-21 16:53:00,METAR KOPF 211653Z 04012KT 10SM FEW049 BKN060 27/12 A3011 RMK AO2 SLP195 T02670122
2026-03-21 15:53:00,METAR KOPF 211553Z 03007KT 10SM SCT041 SCT055 26/14 A3011 RMK AO2 SLP197 T02560139
2026-03-21 14:53:00,METAR KOPF 211453Z 32008KT 10SM CLR 23/15 A3012 RMK AO2 SLP200 T02330150 51016
2026-03-21 13:53:00,METAR KOPF 211353Z 33007KT 10SM BKN045 21/15 A3011 RMK AO2 SLP197 T02110150
2026-03-21 12:53:00,METAR KOPF 211253Z 35008KT 10SM FEW041 19/15 A3009 RMK AO2 SLP191 T01890150
2026-03-21 11:53:00,METAR KOPF 211153Z 34006KT 10SM FEW041 17/14 A3007 RMK AO2 SLP183 70001 T01670144 10178 20161 53015
2026-03-21 10:53:00,METAR KOPF 211053Z 34005KT 10SM SCT038 17/14 A3005 RMK AO2 SLP178 T01670144
2026-03-21 09:53:00,METAR KOPF 210953Z AUTO 34006KT 10SM CLR 16/14 A3004 RMK AO2 SLP172 T01610139
2026-03-21 08:53:00,METAR KOPF 210853Z AUTO 35005KT 10SM CLR 17/14 A3003 RMK AO2 SLP169 T01670139 56010
2026-03-21 07:53:00,METAR KOPF 210753Z AUTO 34004KT 10SM CLR 16/14 A3004 RMK AO2 SLP172 T01610139
2026-03-21 06:53:00,METAR KOPF 210653Z AUTO 35008KT 10SM CLR 17/14 A3005 RMK AO2 SLP175 T01720139
2026-03-21 05:53:00,METAR KOPF 210553Z AUTO 35008KT 10SM CLR 18/14 A3006 RMK AO2 SLP179 T01780139 10217 20178 58005
2026-03-21 04:53:00,METAR KOPF 210453Z AUTO 34007KT 10SM CLR 18/13 A3007 RMK AO2 SLP182 T01830133 402560150
2026-03-21 03:53:00,METAR KOPF 210353Z AUTO 36007KT 10SM FEW046 19/13 A3007 RMK AO2 SLP183 T01890128
2026-03-21 02:53:00,METAR KOPF 210253Z AUTO 35006KT 10SM FEW047 19/12 A3007 RMK AO2 SLP183 T01940122 53008
2026-03-21 01:53:00,METAR KOPF 210153Z 36005KT 10SM CLR 20/12 A3006 RMK AO2 SLP180 T02000117
2026-03-21 00:53:00,METAR KOPF 210053Z 36006KT 10SM CLR 21/11 A3005 RMK AO2 SLP177 T02110111
2026-03-20 23:53:00,METAR KOPF 202353Z 03008G16KT 10SM CLR 22/11 A3005 RMK AO2 SLP175 60000 T02170111 10256 20217 53015
2026-03-20 22:53:00,METAR KOPF 202253Z 05015KT 10SM FEW049 23/12 A3003 RMK AO2 PK WND 04026/2208 SLP168 T02280117
2026-03-20 21:53:00,METAR KOPF 202153Z 04015G26KT 10SM CLR 24/12 A3001 RMK AO2 PK WND 06026/2151 SLP164 T02390117
2026-03-20 20:53:00,METAR KOPF 202053Z 05016G25KT 10SM SCT050 24/13 A3000 RMK AO2 PK WND 06026/2027 SLP160 60000 T02440128 56019
2026-03-20 19:53:00,METAR KOPF 201953Z 06015G23KT 10SM FEW035 FEW045 25/14 A3001 RMK AO2 PK WND 06026/1940 RAE00 SLP163 P0000 T02500144
2026-03-20 18:53:00,METAR KOPF 201853Z 03011KT 10SM -RA SCT034 BKN065 OVC080 22/17 A3003 RMK AO2 RAB36 SLP171 P0000 T02220167
2026-03-20 17:53:00,METAR KOPF 201753Z 08013G20KT 10SM SCT030 SCT037 BKN044 24/16 A3006 RMK AO2 RAB1659E18 SLP179 P0000 60001 T02440161 10250 20156 58012
2026-03-20 16:53:00,METAR KOPF 201653Z 07016G23KT 10SM SCT034 BKN042 BKN055 24/16 A3007 RMK AO2 RAE1558 SLP183 P0000 T02440156
2026-03-20 15:53:00,METAR KOPF 201553Z 08007KT 10SM -RA FEW022 SCT030 BKN080 21/17 A3009 RMK AO2 RAB02E25B45 SLP190 P0001 T02110172
2026-03-20 14:53:00,METAR KOPF 201453Z 05010KT 10SM SCT024 SCT030 SCT040 21/16 A3009 RMK AO2 SLP191 60000 T02110156 51016
2026-03-20 13:53:00,METAR KOPF 201353Z 36007KT 10SM SCT060 19/16 A3007 RMK AO2 RAE13 SLP185 P0000 T01940156
2026-03-20 12:53:00,METAR KOPF 201253Z 01006KT 10SM -RA SCT028 BKN036 OVC075 16/14 A3007 RMK AO2 RAB23E32B53 SLP183 P0000 T01610139
2026-03-20 11:53:00,METAR KOPF 201153Z 34008KT 10SM CLR 16/14 A3005 RMK AO2 SLP175 60003 70003 T01560139 10189 20150 52008 $
2026-03-20 10:53:00,METAR KOPF 201053Z 34008KT 10SM FEW033 SCT047 16/13 A3004 RMK AO2 SLP173 T01560133 $
2026-03-20 09:53:00,METAR KOPF 200953Z AUTO 34007KT 10SM SCT035 OVC100 16/14 A3003 RMK AO2 RAE28 SLP168 P0000 T01560139 $
2026-03-20 08:53:00,METAR KOPF 200853Z AUTO 35010KT 10SM -RA SCT035 BKN044 BKN070 17/14 A3002 RMK AO2 RAB51 SLP167 P0000 60003 T01670144 55007 $
2026-03-20 07:53:00,METAR KOPF 200753Z AUTO 34008KT 10SM FEW048 BKN060 17/15 A3002 RMK AO2 RAE13 SLP165 P0001 T01670150 $
2026-03-20 06:53:00,METAR KOPF 200653Z AUTO 34009KT 10SM -RA BKN040 OVC050 18/16 A3003 RMK AO2 RAB09 SLP170 P0002 T01780161 $
2026-03-20 05:53:00,METAR KOPF 200553Z AUTO 35007KT 10SM FEW038 BKN065 BKN080 18/16 A3004 RMK AO2 RAB12E24 SLP174 P0000 60000 T01830156 10217 20172 56007 $
2026-03-20 04:53:00,METAR KOPF 200453Z AUTO 36006KT 10SM CLR 18/15 A3005 RMK AO2 SLP175 T01780150 402560156 $
2026-03-20 03:53:00,METAR KOPF 200353Z AUTO 35008KT 10SM FEW045 FEW055 18/14 A3006 RMK AO2 SLP179 T01780144 $
2026-03-20 02:53:00,METAR KOPF 200253Z 34010KT 10SM CLR 18/14 A3006 RMK AO2 SLP181 T01780144 53011 $
2026-03-20 01:53:00,METAR KOPF 200153Z 35010KT 10SM CLR 19/14 A3005 RMK AO2 SLP176 T01940144 $
2026-03-20 00:53:00,METAR KOPF 200053Z 01012G18KT 10SM OVC065 21/15 A3004 RMK AO2 SLP174 T02060150 $
2026-03-19 23:53:00,METAR KOPF 192353Z 02013G18KT 10SM SCT044 OVC060 22/14 A3003 RMK AO2 SLP170 T02170144 10256 20217 53010 $
2026-03-19 22:53:00,METAR KOPF 192253Z 02012KT 10SM FEW038 23/13 A3001 RMK AO2 SLP164 T02280133 $
2026-03-19 21:53:00,METAR KOPF 192153Z 04016G23KT 10SM FEW041 BKN065 24/14 A3001 RMK AO2 SLP161 T02390139 $
2026-03-19 20:53:00,METAR KOPF 192053Z 04017G25KT 10SM BKN047 BKN060 24/13 A3000 RMK AO2 SLP160 T02390128 55013 $
2026-03-19 19:53:00,METAR KOPF 191953Z 06017KT 10SM SCT050 24/12 A3000 RMK AO2 PK WND 06027/1937 SLP159 T02440122
2026-03-19 18:53:00,METAR KOPF 191853Z 02015G25KT 10SM FEW048 25/11 A3002 RMK AO2 PK WND 04026/1827 SLP167 T02500111
2026-03-19 17:53:00,METAR KOPF 191753Z 03013G23KT 10SM SCT050 24/12 A3004 RMK AO2 PK WND 05026/1713 SLP173 T02440117 10256 20161 58011
2026-03-19 16:53:00,METAR KOPF 191653Z 03014G24KT 10SM BKN050 24/11 A3006 RMK AO2 SLP179 T02390111
2026-03-19 15:53:00,METAR KOPF 191553Z 04012KT 10SM SCT041 24/13 A3007 RMK AO2 SLP182 T02390128
2026-03-19 15:31:00,SPECI KOPF 191531Z 01008KT 10SM FEW037 24/13 A3007 RMK AO2 T02390133
2026-03-19 14:53:00,METAR KOPF 191453Z 02010KT 10SM CLR 23/14 A3007 RMK AO2 SLP184 T02330144 51008
2026-03-19 13:53:00,METAR KOPF 191353Z 01008KT 10SM CLR 21/14 A3007 RMK AO2 SLP183 T02060144
2026-03-19 12:53:00,METAR KOPF 191253Z 36009KT 10SM CLR 18/14 A3006 RMK AO2 SLP179 T01780139
2026-03-19 11:53:00,METAR KOPF 191153Z 36008KT 10SM CLR 16/13 A3005 RMK AO2 SLP175 70007 T01610133 10189 20156 51013
2026-03-19 10:53:00,METAR KOPF 191053Z 35009KT 10SM SCT045 OVC060 16/14 A3004 RMK AO2 SLP173 T01610139
2026-03-19 09:53:00,METAR KOPF 190953Z AUTO 35008KT 10SM OVC035 17/14 A3003 RMK AO2 SLP171 T01670144
2026-03-19 08:53:00,METAR KOPF 190853Z AUTO 35007KT 10SM SCT030 OVC040 18/16 A3001 RMK AO2 SLP163 T01830161 55007
2026-03-19 08:49:00,SPECI KOPF 190849Z AUTO 36009KT 10SM SCT027 BKN033 OVC040 18/16 A3001 RMK AO2
2026-03-19 07:53:00,METAR KOPF 190753Z AUTO 35006KT 10SM OVC027 18/16 A3002 RMK AO2 SLP166 T01830161
2026-03-19 06:53:00,METAR KOPF 190653Z AUTO 02007KT 10SM SCT022 BKN028 OVC035 19/16 A3003 RMK AO2 SLP171 T01890161
2026-03-19 05:53:00,METAR KOPF 190553Z AUTO 01008KT 10SM OVC024 19/17 A3005 RMK AO2 SLP175 60003 T01890172 10189 20183 58012
2026-03-19 05:36:00,SPECI KOPF 190536Z AUTO 01006KT 10SM BKN025 OVC031 19/17 A3006 RMK AO2 T01890172
2026-03-19 05:23:00,SPECI KOPF 190523Z AUTO 36006KT 10SM SCT026 OVC031 19/17 A3006 RMK AO2 T01890172
2026-03-19 04:53:00,METAR KOPF 190453Z AUTO 01008KT 10SM BKN017 OVC022 19/17 A3007 RMK AO2 RAB08E23B36E50 SLP183 P0001 T01890172 402220133
2026-03-19 04:30:00,SPECI KOPF 190430Z AUTO 01005KT 10SM SCT013 OVC021 19/18 A3007 RMK AO2 RAB08E23 P0001 T01890178
2026-03-19 04:15:00,SPECI KOPF 190415Z AUTO 01007KT 10SM -RA BKN014 OVC022 19/18 A3007 RMK AO2 RAB08 P0000 T01890178
2026-03-19 03:53:00,METAR KOPF 190353Z AUTO 01007KT 10SM FEW008 BKN016 OVC025 18/17 A3008 RMK AO2 RAE18B38E51 SLP187 P0000 T01830172
2026-03-19 02:53:00,METAR KOPF 190253Z 01008KT 10SM -RA SCT007 BKN016 OVC028 18/17 A3008 RMK AO2 RAE15B50 SLP187 P0000 60002 T01830172 51010
2026-03-19 02:33:00,SPECI KOPF 190233Z 35008KT 10SM BKN009 OVC018 18/17 A3008 RMK AO2 RAE15 CIG 007V013 P0000 T01830172
2026-03-19 02:12:00,SPECI KOPF 190212Z 36006KT 10SM -RA FEW009 BKN014 OVC022 18/17 A3008 RMK AO2 P0000 T01830172
2026-03-19 02:04:00,SPECI KOPF 190204Z 01007KT 10SM -RA SCT009 BKN016 OVC024 18/17 A3008 RMK AO2 P0000 T01830172
2026-03-19 01:53:00,METAR KOPF 190153Z 36008KT 7SM -RA BKN011 OVC017 18/17 A3008 RMK AO2 CIG 007V013 SLP187 P0001 T01830172
2026-03-19 01:37:00,SPECI KOPF 190137Z 35007KT 9SM -RA OVC012 18/17 A3008 RMK AO2 P0000 T01830172
2026-03-19 00:53:00,METAR KOPF 190053Z 36007KT 9SM -RA BKN011 BKN015 OVC020 18/17 A3006 RMK AO2 RAB31 CIG 008V012 SLP181 P0001 T01830167
2026-03-19 00:26:00,SPECI KOPF 190026Z 36008KT 10SM OVC011 18/17 A3005 RMK AO2 T01830167
2026-03-18 23:53:00,METAR KOPF 182353Z 01007KT 3SM BR OVC008 18/17 A3005 RMK AO2 RAE37 SLP177 P0001 60003 T01830172 10206 20183 53008
2026-03-18 22:53:00,METAR KOPF 182253Z 33013KT 2SM -RA BR OVC006 18/17 A3003 RMK AO2 RAB14 SLP171 P0001 T01830172
2026-03-18 22:16:00,SPECI KOPF 182216Z 35011KT 2SM -RA BR OVC006 19/18 A3003 RMK AO2 RAB14 P0000 T01940178
2026-03-18 21:53:00,METAR KOPF 182153Z 01011KT 10SM OVC006 19/18 A3002 RMK AO2 RAB07E52 SLP167 P0000 T01940178
2026-03-18 20:53:00,METAR KOPF 182053Z 02009KT 10SM OVC009 19/18 A3003 RMK AO2 RAE14 SLP169 P0001 60001 T01940183 56009
2026-03-18 20:50:00,SPECI KOPF 182050Z 01009KT 10SM OVC009 19/18 A3003 RMK AO2 RAE14 P0001
2026-03-18 20:41:00,SPECI KOPF 182041Z 01010KT 10SM OVC010 20/18 A3003 RMK AO2 RAE14 CIG 008V012 P0001 T02000178
2026-03-18 20:25:00,SPECI KOPF 182025Z 02010KT 10SM BKN009 OVC019 20/18 A3003 RMK AO2 RAE14 CIG 007V012 P0001 T02000183
2026-03-18 20:11:00,SPECI KOPF 182011Z 02011KT 10SM -RA FEW009 OVC017 20/18 A3003 RMK AO2 P0001 T02000183
2026-03-18 20:00:00,SPECI KOPF 182000Z 02009KT 4SM -RA BR BKN009 OVC016 20/18 A3003 RMK AO2 CIG 006V012 P0001 T02000183
2026-03-18 19:53:00,METAR KOPF 181953Z 02011KT 2SM -RA BR OVC004 20/18 A3003 RMK AO2 SLP171 P0000 T02000183
2026-03-18 19:11:00,SPECI KOPF 181911Z 36007KT 2SM -RA BR OVC004 20/18 A3005 RMK AO2 P0000 T02000183
2026-03-18 19:00:00,SPECI KOPF 181900Z VRB05KT 4SM -RA BR BKN007 OVC012 19/18 A3005 RMK AO2 P0000 T01940183
2026-03-18 18:53:00,METAR KOPF 181853Z 32006KT 2SM -RA BR OVC005 19/18 A3005 RMK AO2 RAB10 SLP178 P0000 T01890178
2026-03-18 17:53:00,METAR KOPF 181753Z 34008KT 2SM BR BKN005 OVC010 19/18 A3007 RMK AO2 RAE22 SLP183 P0000 60001 T01890178 10222 20144 58009
2026-03-18 16:53:00,METAR KOPF 181653Z 34010KT 2SM -RA BR BKN005 OVC015 18/17 A3009 RMK AO2 RAB15 SLP190 P0001 T01830172
2026-03-18 16:00:00,SPECI KOPF 181600Z 36007KT 9SM BKN009 OVC014 22/19 A3010 RMK AO2 T02170189
2026-03-18 15:53:00,METAR KOPF 181553Z 35009KT 2SM HZ BKN008 BKN016 OVC024 22/19 A3010 RMK AO2 RAB40E50 SLP193 P0000 T02170189 $
2026-03-18 15:45:00,SPECI KOPF 181545Z 36007KT 2SM -RA BKN005 BKN016 OVC024 22/19 A3010 RMK AO2 RAB40 P0000 T02170189 $
2026-03-18 14:53:00,METAR KOPF 181453Z 02007KT 10SM BKN008 19/17 A3010 RMK AO2 RAB1356E09 SLP192 P0000 60000 T01890167 51017 $
2026-03-18 14:04:00,SPECI KOPF 181404Z 35007KT 2SM -RA BR OVC005 15/14 A3009 RMK AO2 RAB1356 P0000 T01500139 $
2026-03-18 13:53:00,METAR KOPF 181353Z 35010KT 8SM OVC008 15/13 A3009 RMK AO2 RAB25E34 SLP190 P0000 T01500133 $
2026-03-18 12:53:00,METAR KOPF 181253Z 35010KT 10SM OVC008 14/13 A3008 RMK AO2 SLP185 T01440128 $
2026-03-18 11:53:00,METAR KOPF 181153Z 35010KT 10SM OVC008 14/12 A3005 RMK AO2 SLP176 70010 T01440117 10150 20133 53003 $
2026-03-18 11:10:00,SPECI KOPF 181110Z 33012KT 10SM OVC008 14/12 A3005 RMK AO2 T01440117 $
2026-03-18 10:53:00,METAR KOPF 181053Z 34012KT 10SM OVC010 14/12 A3004 RMK AO2 SLP174 T01440117 $
2026-03-18 09:53:00,METAR KOPF 180953Z AUTO 34011KT 10SM OVC013 14/12 A3004 RMK AO2 SLP172 T01440117 $
2026-03-18 08:53:00,METAR KOPF 180853Z AUTO 35008KT 10SM OVC013 14/12 A3004 RMK AO2 SLP173 T01440117 58016 $
2026-03-18 08:17:00,SPECI KOPF 180817Z AUTO 35012KT 10SM OVC014 14/12 A3004 RMK AO2 T01390117 $
2026-03-18 07:53:00,METAR KOPF 180753Z AUTO 34011KT 10SM OVC015 13/12 A3005 RMK AO2 SLP178 T01330117 $
2026-03-18 07:25:00,SPECI KOPF 180725Z AUTO 34012KT 10SM OVC015 14/12 A3006 RMK AO2 T01390122 $
2026-03-18 06:53:00,METAR KOPF 180653Z AUTO 34012KT 10SM OVC014 13/12 A3008 RMK AO2 SLP186 T01330117 $
2026-03-18 05:53:00,METAR KOPF 180553Z AUTO 35012G20KT 10SM OVC010 14/12 A3009 RMK AO2 RAE08B12E38 CIG 008V013 SLP189 P0001 60010 T01390122 10156 20133 58007 $
2026-03-18 05:10:00,SPECI KOPF 180510Z AUTO 34010KT 10SM OVC011 14/13 A3011 RMK AO2 RAE08 P0000 T01390128 $
2026-03-18 04:53:00,METAR KOPF 180453Z AUTO 35009KT 10SM -RA BKN009 OVC014 13/12 A3011 RMK AO2 RAB05 CIG 007V011 SLP196 P0008 T01330122 402170133 $
2026-03-18 03:53:00,METAR KOPF 180353Z AUTO 36011KT 10SM OVC009 14/13 A3011 RMK AO2 RAE0259B28E43 CIG 007V012 SLP196 P0000 T01440128 $
2026-03-18 03:41:00,SPECI KOPF 180341Z AUTO 35013G19KT 10SM -RA OVC009 14/13 A3011 RMK AO2 RAE0259B28 CIG 007V012 P0000 T01440128 $
2026-03-18 02:53:00,METAR KOPF 180253Z 35011KT 10SM -RA OVC012 14/13 A3011 RMK AO2 RAB30 SLP196 P0001 60001 T01440128 50009 $
2026-03-18 02:00:00,SPECI KOPF 180200Z 34009KT 10SM OVC013 15/13 A3012 RMK AO2 T01500128 $
2026-03-18 01:53:00,METAR KOPF 180153Z 36009KT 10SM OVC009 15/13 A3011 RMK AO2 SLP198 T01500128 $
2026-03-18 00:53:00,METAR KOPF 180053Z 36012G19KT 10SM OVC009 15/13 A3009 RMK AO2 SLP190 T01500128 $
2026-03-18 00:23:00,SPECI KOPF 180023Z 35011KT 10SM OVC009 15/13 A3009 RMK AO2 T01500128 $
2026-03-17 23:53:00,METAR KOPF 172353Z 35012KT 10SM OVC011 15/13 A3008 RMK AO2 SLP187 T01500128 10189 20150 53008 $
2026-03-17 23:05:00,SPECI KOPF 172305Z 35009KT 10SM OVC013 16/13 A3008 RMK AO2 T01610128 $
2026-03-17 22:53:00,METAR KOPF 172253Z 35013KT 10SM BKN015 OVC019 16/13 A3007 RMK AO2 SLP184 T01610128 $
2026-03-17 21:53:00,METAR KOPF 172153Z 34013KT 10SM BKN021 OVC039 17/12 A3006 RMK AO2 SLP179 T01720122 $
2026-03-17 21:51:00,SPECI KOPF 172151Z 34014KT 10SM BKN021 OVC039 17/12 A3006 RMK AO2 $
2026-03-17 20:53:00,METAR KOPF 172053Z 32010KT 10SM OVC037 18/13 A3006 RMK AO2 SLP180 T01780128 55003 $
2026-03-17 19:53:00,METAR KOPF 171953Z 35008KT 10SM SCT022 18/12 A3005 RMK AO2 SLP175 T01830122 $
2026-03-17 18:53:00,METAR KOPF 171853Z 33010KT 10SM SCT022 19/13 A3006 RMK AO2 SLP179 T01890128 $
2026-03-17 18:27:00,SPECI KOPF 171827Z 33013KT 10SM BKN022 OVC110 18/13 A3006 RMK AO2 T01830128 $
2026-03-17 18:19:00,SPECI KOPF 171819Z 35013KT 10SM SCT022 BKN031 BKN110 18/13 A3006 RMK AO2 T01830128 $
2026-03-17 17:53:00,METAR KOPF 171753Z 34009KT 10SM BKN022 BKN037 OVC100 18/13 A3007 RMK AO2 SLP183 T01830128 10200 20178 53001 $
2026-03-17 17:15:00,SPECI KOPF 171715Z 01010KT 10SM BKN022 19/13 A3007 RMK AO2 T01890133 $
2026-03-17 16:53:00,METAR KOPF 171653Z 36010KT 10SM FEW024 20/14 A3006 RMK AO2 SLP180 T02000144 $
2026-03-17 16:34:00,SPECI KOPF 171634Z 35008KT 10SM SCT023 19/14 A3006 RMK AO2 T01940144 $
2026-03-17 15:53:00,METAR KOPF 171553Z 35012KT 10SM BKN019 OVC025 18/14 A3006 RMK AO2 SLP181 T01830144 $
2026-03-17 15:00:00,SPECI KOPF 171500Z 35011G19KT 10SM OVC019 18/15 A3007 RMK AO2 T01830150 $
2026-03-17 14:53:00,METAR KOPF 171453Z 34014KT 10SM SCT022 18/15 A3007 RMK AO2 SLP182 T01830150 53014 $
2026-03-17 13:53:00,METAR KOPF 171353Z 36009KT 10SM FEW016 SCT022 19/16 A3004 RMK AO2 SLP175 T01890156 $
2026-03-17 13:10:00,SPECI KOPF 171310Z 34010KT 10SM OVC014 19/16 A3005 RMK AO2 T01890161 $
2026-03-17 12:53:00,METAR KOPF 171253Z 36009KT 10SM OVC016 20/18 A3004 RMK AO2 SLP172 T02000183 $
2026-03-17 12:07:00,SPECI KOPF 171207Z 34005KT 10SM FEW009 OVC016 20/19 A3003 RMK AO2 T02000189 $
2026-03-17 11:53:00,METAR KOPF 171153Z 31006KT 10SM BKN007 OVC012 20/19 A3002 RMK AO2 SLP167 60026 70032 T02000189 10217 20200 53011 $
2026-03-17 11:26:00,SPECI KOPF 171126Z 00000KT 10SM BKN007 OVC013 20/19 A3000 RMK AO2 CIG 006V009 T02000194 $
2026-03-17 11:07:00,SPECI KOPF 171107Z 00000KT 10SM SCT009 BKN012 20/19 A3000 RMK AO2 T02000194 $
2026-03-17 10:53:00,METAR KOPF 171053Z 00000KT 10SM FEW120 20/19 A3000 RMK AO2 SLP160 P0002 T02000194 $
2026-03-17 10:32:00,SPECI KOPF 171032Z AUTO 00000KT 10SM SCT016 BKN095 BKN120 20/19 A3000 RMK AO2 P0002 T02000194 PWINO $
2026-03-17 10:13:00,SPECI KOPF 171013Z AUTO 17006KT 10SM SCT009 BKN020 OVC110 20/19 A3002 RMK AO2 P0001 T02000194 $
2026-03-17 10:00:00,SPECI KOPF 171000Z AUTO 23005KT 10SM BKN009 BKN100 OVC120 20/19 A3003 RMK AO2 CIG 005V013 PRESRR P0001 T02000189 PWINO $
2026-03-17 09:53:00,METAR KOPF 170953Z AUTO 23003KT 10SM SCT011 BKN075 OVC110 20/19 A3001 RMK AO2 RAB16RAEMMB33RAEMM SLP163 P0005 T02000194 PWINO $
2026-03-17 08:53:00,METAR KOPF 170853Z AUTO 00000KT 10SM FEW085 OVC110 20/19 A2999 RMK AO2 SLP156 60019 T02000194 50001 PWINO $
2026-03-17 07:53:00,METAR KOPF 170753Z AUTO 00000KT 6SM BR FEW065 BKN090 OVC110 21/19 A3000 RMK AO2 RAEMMB0656RAEMM SLP159 P0014 T02060194 PWINO $
2026-03-17 06:53:00,METAR KOPF 170653Z AUTO 25005KT 8SM RA SCT009 BKN032 OVC065 22/21 A3001 RMK AO2 LTG DSNT SE RAB24RAEMMB45 SLP164 P0005 T02170206 $
2026-03-17 05:53:00,METAR KOPF 170553Z AUTO 18003KT 10SM FEW060 BKN080 21/20 A2999 RMK AO2 LTG DSNT E-SW SLP155 60001 T02110200 10278 20206 53007 PWINO $
2026-03-17 04:53:00,METAR KOPF 170453Z AUTO 17009KT 10SM BKN100 21/18 A2995 RMK AO2 LTG DSNT E AND SE RAB0355RAEMM SLP143 P0001 T02060183 403110206 PWINO $
2026-03-17 03:53:00,METAR KOPF 170353Z AUTO 30005KT 10SM BKN090 OVC110 21/18 A2994 RMK AO2 LTG DSNT S AND SW SLP140 T02110178 PWINO $
2026-03-17 02:53:00,METAR KOPF 170253Z 29017G42KT 9SM FEW021 BKN043 BKN110 22/18 A2997 RMK AO2 PK WND 29042/0244 LTG DSNT SW AND NW SLP149 T02220183 53023 $
2026-03-17 01:53:00,METAR KOPF 170153Z 27006KT 10SM FEW120 26/21 A2993 RMK AO2 LTG DSNT W SLP135 T02560206 $
2026-03-17 00:53:00,METAR KOPF 170053Z 24007KT 10SM SCT110 27/20 A2992 RMK AO2 SLP133 T02670200 $
2026-03-16 23:53:00,METAR KOPF 162353Z 22008KT 10SM CLR 28/19 A2990 RMK AO2 SLP126 T02780194 10311 20278 51018 $
2026-03-16 22:53:00,METAR KOPF 162253Z 24011G20KT 10SM BKN120 29/19 A2989 RMK AO2 SLP121 T02890189 $
2026-03-16 21:53:00,METAR KOPF 162153Z 23011KT 10SM CLR 30/19 A2986 RMK AO2 SLP114 T03000194 $
2026-03-16 20:53:00,METAR KOPF 162053Z 21014KT 10SM FEW046 SCT055 29/19 A2985 RMK AO2 SLP108 T02940194 56017 $
2026-03-16 19:53:00,METAR KOPF 161953Z 20013G23KT 10SM SCT040 SCT050 31/20 A2986 RMK AO2 SLP111 T03060200 $
2026-03-16 18:53:00,METAR KOPF 161853Z 18015G23KT 10SM FEW030 SCT042 SCT060 29/22 A2988 RMK AO2 SLP118 T02940217 $
2026-03-16 17:53:00,METAR KOPF 161753Z 18014KT 10SM BKN032 29/22 A2990 RMK AO2 RAE1659 TSE1654 SLP124 P0000 60005 T02940217 10294 20256 $
2026-03-16 17:25:00,SPECI KOPF 161725Z 10SM SCT028 SCT080 29/22 A2991 RMK AO2 LTG DSNT N RAE1659 TSE1654 P0000 T02890222 $
2026-03-16 17:01:00,SPECI KOPF 161701Z 18018G23KT 10SM VCTS SCT028 BKN039 BKN070 27/23 A2991 RMK AO2 RAE1659 TSE1654 P0000 T02720228 $
2026-03-16 16:58:00,SPECI KOPF 161658Z 18014G20KT 10SM -RA BKN028 BKN039 BKN065 27/23 A2992 RMK AO2 TSE54 P0000 T02720233 $
2026-03-16 16:53:00,METAR KOPF 161653Z 20008G20KT 10SM -TSRA BKN032 BKN050 BKN090 27/24 A2992 RMK AO2 RAB40 TSB39 SLP132 P0002 T02720239 $
2026-03-16 16:45:00,SPECI KOPF 161645Z 18015G25KT 7SM TSRA SCT028 SCT039 BKN055 27/22 A2993 RMK AO2 RAB40 TSB39 P0002 T02670222 $
2026-03-16 15:53:00,METAR KOPF 161553Z 19010G18KT 10SM SCT028 BKN034 28/23 A2993 RMK AO2 RAB01E15B32E52 SLP137 P0003 T02780233 $
2026-03-16 15:35:00,SPECI KOPF 161535Z 18012G23KT 9SM +RA SCT028 BKN034 27/22 A2994 RMK AO2 RAB01E15B32 P0003 T02670222 $
2026-03-16 15:24:00,SPECI KOPF 161524Z 10SM SCT024 SCT032 BKN044 28/22 A2994 RMK AO2 RAB01E15 P0000 T02780217
2026-03-16 15:01:00,SPECI KOPF 161501Z 18016G21KT 10SM -RA BKN023 BKN031 BKN075 28/22 A2994 RMK AO2 RAB01 P0000 T02780222
2026-03-16 14:53:00,METAR KOPF 161453Z 17017KT 10SM SCT023 BKN037 BKN075 28/22 A2994 RMK AO2 PK WND 16026/1428 SLP140 T02780222 51004
2026-03-16 14:17:00,SPECI KOPF 161417Z 18017G23KT 10SM BKN023 BKN055 27/22 A2994 RMK AO2 T02670222
2026-03-16 13:53:00,METAR KOPF 161353Z 18015G22KT 10SM SCT022 27/22 A2994 RMK AO2 SLP139 T02720217
2026-03-16 12:53:00,METAR KOPF 161253Z 18010KT 10SM CLR 26/23 A2995 RMK AO2 SLP141 T02560228
2026-03-16 11:53:00,METAR KOPF 161153Z 17007KT 10SM CLR 24/22 A2993 RMK AO2 SLP136 70101 T02390217 10239 20222 53003 $
2026-03-16 10:53:00,METAR KOPF 161053Z 18007KT 10SM CLR 24/22 A2992 RMK AO2 LTG DSNT NE SLP133 T02390217 $
2026-03-16 10:12:00,SPECI KOPF 161012Z AUTO 18008KT 10SM CLR 24/22 A2991 RMK AO2 LTG DSNT E T02390222 PWINO $
2026-03-16 09:53:00,METAR KOPF 160953Z AUTO 18007KT 10SM VCTS FEW046 FEW090 24/22 A2992 RMK AO2 LTG DSNT E SLP131 T02390222 PWINO $
2026-03-16 08:53:00,METAR KOPF 160853Z AUTO 16006KT 10SM FEW022 23/22 A2992 RMK AO2 SLP132 T02330217 56018 PWINO $
2026-03-16 07:53:00,METAR KOPF 160753Z AUTO 16008KT 10SM FEW036 24/22 A2993 RMK AO2 SLP134 T02390217 PWINO $
2026-03-16 06:53:00,METAR KOPF 160653Z AUTO 15008KT 10SM CLR 23/22 A2994 RMK AO2 SLP139 T02330217 PWINO $
2026-03-16 05:53:00,METAR KOPF 160553Z AUTO 14004KT 10SM FEW024 SCT100 22/21 A2997 RMK AO2 SLP151 T02220211 10228 20211 58011 PWINO $
2026-03-16 04:53:00,METAR KOPF 160453Z AUTO 00000KT 10SM SCT095 22/22 A2999 RMK AO2 SLP157 T02220217 402720211 PWINO $
2026-03-16 03:53:00,METAR KOPF 160353Z AUTO 13003KT 10SM CLR 21/20 A2999 RMK AO2 SLP157 T02110200 PWINO $
2026-03-16 02:53:00,METAR KOPF 160253Z 00000KT 10SM FEW110 22/20 A3001 RMK AO2 SLP162 T02170200 53005 $
2026-03-16 01:53:00,METAR KOPF 160153Z 00000KT 10SM CLR 21/20 A3001 RMK AO2 SLP161 T02110200 $
2026-03-16 00:53:00,METAR KOPF 160053Z 15005KT 10SM CLR 22/20 A2998 RMK AO2 SLP153 T02170200 $
2026-03-15 23:53:00,METAR KOPF 152353Z 17009KT 10SM FEW120 22/21 A2999 RMK AO2 LTG DSNT SE RAB19RAEMMB24RAEMMB36RAEMMB42RAEMMB50RAEMM SLP157 P0000 60013 T02220206 10244 20222 54000 $
2026-03-15 23:22:00,SPECI KOPF 152322Z 15016KT 10SM SCT040 BKN080 OVC120 22/21 A2999 RMK AO2 LTG DSNT E-S RAB19RAEMM P0000 T02220211 $
2026-03-15 23:07:00,SPECI KOPF 152307Z 15014KT 9SM VCTS FEW080 BKN095 OVC120 22/21 A2998 RMK AO2 LTG DSNT E-S T02220211 $
2026-03-15 22:53:00,METAR KOPF 152253Z 17007KT 10SM SCT090 BKN120 22/21 A2999 RMK AO2 LTG DSNT SE AND S SLP156 T02220211 $
2026-03-15 22:30:00,SPECI KOPF 152230Z 14011KT 10SM FEW050 SCT070 BKN120 22/21 A2999 RMK AO2 LTG DSNT E-SW T02220211 $
2026-03-15 22:04:00,SPECI KOPF 152204Z 16011KT 7SM VCTS FEW012 SCT080 OVC100 22/21 A2999 RMK AO2 LTG DSNT E-SW T02220211 $
2026-03-15 21:53:00,METAR KOPF 152153Z 15007KT 7SM FEW080 BKN100 OVC120 22/21 A2999 RMK AO2 LTG DSNT E-SW SLP157 P0004 T02220211 $
2026-03-15 21:38:00,SPECI KOPF 152138Z 17007KT 10SM FEW085 OVC110 22/21 A3000 RMK AO2 LTG DSNT NE-S P0004 T02220211 $
2026-03-15 20:53:00,METAR KOPF 152053Z 19005KT 7SM VCTS FEW049 BKN090 OVC110 23/22 A2999 RMK AO2 LTG DSNT ALQDS RAB11RAEMM TSE1957B29E44 SLP156 P0009 60009 T02280217 55013 $
2026-03-15 20:46:00,SPECI KOPF 152046Z 19008KT 7SM FEW012 BKN095 OVC110 23/22 A3000 RMK AO2 LTG DSNT NE-S RAB11RAEMM TSE1957B29E44 P0007 T02280217 $
2026-03-15 20:35:00,SPECI KOPF 152035Z 19012KT 7SM TS FEW012 SCT090 OVC110 23/22 A3000 RMK AO2 LTG DSNT ALQDS RAB11RAEMM TSE1957B29 P0005 T02280217 $
2026-03-15 20:01:00,SPECI KOPF 152001Z 17013KT 10SM BKN110 22/20 A2999 RMK AO2 LTG DSNT E-SW TSE1957 T02220200 $
2026-03-15 19:53:00,METAR KOPF 151953Z 16014KT 10SM TS SCT120 23/20 A2999 RMK AO2 LTG DSNT E-SW TSB30 SLP155 T02280200 $
2026-03-15 19:36:00,SPECI KOPF 151936Z 16016KT 10SM TS FEW075 FEW090 BKN110 23/21 A2999 RMK AO2 LTG DSNT ALQDS TSB30 T02280206 $
2026-03-15 19:26:00,SPECI KOPF 151926Z 15012G18KT 10SM VCTS FEW023 SCT090 BKN110 23/20 A2999 RMK AO2 LTG DSNT ALQDS T02280200 $
2026-03-15 19:16:00,SPECI KOPF 151916Z 12007KT 10SM FEW075 FEW090 OVC110 23/20 A2999 RMK AO2 LTG DSNT S AND SW PRESFR T02280200 $
2026-03-15 18:53:00,METAR KOPF 151853Z 12005KT 10SM VCTS FEW075 OVC100 24/22 A3003 RMK AO2 LTG DSNT E-SW TSE22B23E45 SLP169 T02440222 $
2026-03-15 18:51:00,SPECI KOPF 151851Z 11005KT 10SM VCTS FEW075 OVC100 24/22 A3003 RMK AO2 LTG DSNT E-SW TSE22B23E45 $
2026-03-15 17:53:00,METAR KOPF 151753Z 18007KT 10SM TS BKN035 BKN100 OVC120 23/22 A3004 RMK AO2 LTG DSNT ALQDS SLP174 60088 T02280217 10272 20211 56006 $
2026-03-15 17:22:00,SPECI KOPF 151722Z 20011KT 2SM TS BR FEW012 BKN042 OVC120 23/22 A3005 RMK AO2 LTG DSNT ALQDS T02280217 $
2026-03-15 16:53:00,METAR KOPF 151653Z 14010KT 10SM TS FEW085 OVC120 24/23 A3004 RMK AO2 LTG DSNT ALQDS TSB52 SLP174 T02440228 $
2026-03-15 16:12:00,SPECI KOPF 151612Z 14010G17KT 10SM VCTS FEW030 BKN100 OVC120 23/22 A3004 RMK AO2 LTG DSNT ALQDS T02330222 $
2026-03-15 15:53:00,METAR KOPF 151553Z 15005KT 10SM FEW018 BKN090 OVC110 23/22 A3006 RMK AO2 PK WND 16035/1515 LTG DSNT ALQDS RAEMM TSB1458E44 SLP180 P0085 T02280222 $
2026-03-15 15:47:00,SPECI KOPF 151547Z 16006KT 10SM FEW015 SCT024 BKN041 23/22 A3006 RMK AO2 PK WND 16035/1515 LTG DSNT SW-NW RAEMM TSB1458E44 P0085 $
2026-03-15 15:32:00,SPECI KOPF 151532Z 14011KT 3SM TS BR BKN015 BKN033 OVC047 22/22 A3007 RMK AO2 PK WND 16035/1515 LTG DSNT SW RAEMM TSB1458 P0084 T02220217 $
2026-03-15 15:30:00,SPECI KOPF 151530Z 13013G20KT 1 3/4SM TS BR BKN015 BKN026 OVC047 22/22 A3007 RMK AO2 PK WND 16035/1515 LTG DSNT SW RAEMM TSB1458 P0083 T02220217 $
2026-03-15 15:20:00,SPECI KOPF 151520Z 14022G35KT 1/2SM TS FG BKN011 BKN021 OVC050 21/20 A3008 RMK AO2 PK WND 16035/1515 LTG DSNT SE-SW RAEMM TSB1458 P0072 T02110200 $
2026-03-15 15:10:00,SPECI KOPF 151510Z 18016G29KT 1/2SM TS FG SCT024 BKN039 OVC100 22/20 A3008 RMK AO2 PK WND 16029/1504 LTG DSNT SE-SW RAEMM TSB1458 P0011 T02170200 $
2026-03-15 15:04:00,SPECI KOPF 151504Z 16018G29KT 10SM TS SCT022 BKN035 OVC100 23/20 A3007 RMK AO2 PK WND 16029/1504 LTG DSNT SE-SW RAEMM TSB1458 P0002 T02280200 $
2026-03-15 14:53:00,METAR KOPF 151453Z 13016KT 10SM VCTS -RA FEW022 SCT038 BKN100 26/22 A3006 RMK AO2 LTG DSNT SE AND S SLP180 P0000 60003 T02610217 53016 $
2026-03-15 14:43:00,SPECI KOPF 151443Z 13013KT 10SM VCTS -RA SCT023 BKN032 BKN042 26/22 A3005 RMK AO2 LTG DSNT SE AND S P0000 T02610217 $
2026-03-15 14:15:00,SPECI KOPF 151415Z 12011G22KT 10SM RA FEW018 BKN025 OVC047 27/23 A3004 RMK AO2 LTG DSNT SE AND S P0000 T02670228 $
2026-03-15 13:53:00,METAR KOPF 151353Z 15008KT 7SM RA FEW018 BKN043 26/23 A3004 RMK AO2 RAB43 SLP173 P0003 T02560228 $
2026-03-15 13:02:00,SPECI KOPF 151302Z 15006KT 10SM FEW030 SCT080 24/21 A3003 RMK AO2 T02440211 $
2026-03-15 12:53:00,METAR KOPF 151253Z 16008KT 10SM FEW017 BKN028 BKN080 24/21 A3003 RMK AO2 SLP170 T02390211 $
2026-03-15 11:53:00,METAR KOPF 151153Z 13006KT 10SM CLR 24/22 A3001 RMK AO2 SLP164 T02440222 10244 20228 52008 $
2026-03-15 10:53:00,METAR KOPF 151053Z 11004KT 10SM CLR 23/22 A3001 RMK AO2 SLP163 T02330217 $
2026-03-15 09:53:00,METAR KOPF 150953Z AUTO 10003KT 10SM CLR 23/22 A2999 RMK AO2 SLP158 T02330217 PWINO $
2026-03-15 08:53:00,METAR KOPF 150853Z AUTO 12003KT 10SM CLR 24/22 A2999 RMK AO2 SLP156 T02390217 58018 PWINO $
