Time_recorded,METAR
2026-04-30 15:00:00,METAR LJLJ 301500Z 13011KT CAVOK 14/M02 Q1024 NOSIG
2026-04-30 14:30:00,METAR LJLJ 301430Z 14009KT CAVOK 14/M03 Q1024 NOSIG
2026-04-30 14:00:00,METAR LJLJ 301400Z 14009KT 100V180 CAVOK 14/M04 Q1025 NOSIG
2026-04-30 13:30:00,METAR LJLJ 301330Z 13009KT CAVOK 14/M02 Q1025 NOSIG
2026-04-30 13:00:00,METAR LJLJ 301300Z 13010KT CAVOK 14/M02 Q1025 NOSIG
2026-04-30 12:30:00,METAR LJLJ 301230Z 13010KT CAVOK 14/M01 Q1025 NOSIG
2026-04-30 12:00:00,METAR LJLJ 301200Z 13010KT 100V160 CAVOK 13/M01 Q1026 NOSIG
2026-04-30 11:30:00,METAR LJLJ 301130Z 13010KT 100V160 CAVOK 13/M02 Q1026 NOSIG
2026-04-30 11:00:00,METAR LJLJ 301100Z 13008KT 080V160 9999 FEW065 12/M02 Q1026 NOSIG
2026-04-30 10:30:00,METAR LJLJ 301030Z 12009KT 9999 FEW060 12/M03 Q1026 NOSIG
2026-04-30 10:00:00,METAR LJLJ 301000Z 13010KT 9999 FEW060 11/M02 Q1027 NOSIG
2026-04-30 09:30:00,METAR LJLJ 300930Z 12008KT 040V150 9999 FEW040 11/M02 Q1027 NOSIG
2026-04-30 09:00:00,METAR LJLJ 300900Z 09006KT 050V170 9999 FEW033 11/M02 Q1027 NOSIG
2026-04-30 08:30:00,METAR LJLJ 300830Z 09008KT 060V130 9999 FEW033 10/M06 Q1027 NOSIG
2026-04-30 08:00:00,METAR LJLJ 300800Z 10007KT 010V170 9999 FEW033 10/M06 Q1027 NOSIG
2026-04-30 07:30:00,METAR LJLJ 300730Z VRB02KT 9999 FEW033 09/M02 Q1027 NOSIG
2026-04-30 07:00:00,METAR LJLJ 300700Z VRB01KT 9999 FEW033 08/M01 Q1027 NOSIG
2026-04-30 06:30:00,METAR LJLJ 300630Z VRB02KT 9999 FEW033 06/01 Q1027 NOSIG
2026-04-30 06:00:00,METAR LJLJ 300600Z 34003KT 300V010 9999 FEW013 05/01 Q1027 NOSIG
2026-04-30 05:30:00,METAR LJLJ 300530Z 29003KT 260V320 9999 FEW013 03/02 Q1027 NOSIG
2026-04-30 05:00:00,METAR LJLJ 300500Z VRB01KT 9999 MIFG FEW013 02/01 Q1026 NOSIG
2026-04-30 04:30:00,METAR LJLJ 300430Z 36002KT 9999 MIFG FEW001 M00/M01 Q1026 NOSIG
2026-04-30 04:00:00,METAR LJLJ 300400Z VRB02KT 9999 MIFG FEW001 00/M00 Q1026 NOSIG
2026-04-30 03:30:00,METAR LJLJ 300330Z 28001KT 9999 MIFG FEW001 01/00 Q1026 NOSIG
2026-04-30 03:00:00,METAR LJLJ 300300Z 28001KT 9999 MIFG FEW001 01/01 Q1026 NOSIG
2026-04-30 02:30:00,METAR LJLJ 300230Z 36001KT 9999 MIFG FEW001 02/01 Q1026 NOSIG
2026-04-30 02:00:00,METAR LJLJ 300200Z 36001KT 9999 MIFG FEW001 02/01 Q1026 NOSIG
2026-04-30 01:30:00,METAR LJLJ 300130Z VRB02KT 9999 MIFG FEW001 02/02 Q1025 NOSIG
2026-04-30 01:00:00,METAR LJLJ 300100Z VRB02KT 9999 MIFG FEW001 03/02 Q1025 NOSIG
2026-04-30 00:30:00,METAR LJLJ 300030Z VRB02KT 9999 MIFG FEW001 03/03 Q1025 NOSIG
2026-04-30 00:00:00,METAR LJLJ 300000Z VRB02KT 9999 MIFG FEW001 04/03 Q1025 NOSIG
2026-04-29 23:30:00,METAR LJLJ 292330Z 12004KT 9999 MIFG FEW001 SCT010 04/04 Q1025 NOSIG
2026-04-29 23:00:00,METAR LJLJ 292300Z 12004KT 9999 MIFG FEW001 SCT010 05/04 Q1025 NOSIG
2026-04-29 22:30:00,METAR LJLJ 292230Z VRB01KT 9999 MIFG FEW001 SCT010 04/03 Q1024 NOSIG
2026-04-29 22:00:00,METAR LJLJ 292200Z VRB01KT 9999 MIFG FEW001 SCT010 04/03 Q1024 NOSIG
2026-04-29 21:30:00,METAR LJLJ 292130Z VRB01KT 9999 MIFG FEW001 SCT010 04/04 Q1024 NOSIG
2026-04-29 21:00:00,METAR LJLJ 292100Z VRB01KT 9999 MIFG FEW001 SCT010 05/04 Q1024 NOSIG
2026-04-29 20:30:00,METAR LJLJ 292030Z VRB01KT 9999 MIFG FEW001 SCT015 06/05 Q1024 NOSIG
2026-04-29 20:00:00,METAR LJLJ 292000Z VRB02KT 9999 MIFG FEW001 SCT015 06/06 Q1023 NOSIG
2026-04-29 19:30:00,METAR LJLJ 291930Z VRB01KT 9999 FEW010 SCT040 07/06 Q1023 NOSIG
2026-04-29 19:00:00,METAR LJLJ 291900Z VRB01KT 9999 FEW010 BKN040 08/06 Q1023 NOSIG
2026-04-29 18:30:00,METAR LJLJ 291830Z VRB02KT 9999 FEW010 BKN015 OVC040 08/06 Q1022 NOSIG
2026-04-29 18:00:00,METAR LJLJ 291800Z 15003KT 120V200 9999 FEW010 BKN015 OVC040 08/07 Q1022 NOSIG
2026-04-29 17:30:00,METAR LJLJ 291730Z 15004KT 110V200 9999 FEW010 SCT017 OVC040 08/06 Q1022 NOSIG
2026-04-29 17:00:00,METAR LJLJ 291700Z 15006KT 9999 FEW010 SCT017 OVC040 08/06 Q1021 NOSIG
2026-04-29 16:30:00,METAR LJLJ 291630Z 14006KT 110V170 9999 FEW010 SCT017 OVC040 09/07 Q1021 NOSIG
2026-04-29 16:00:00,METAR LJLJ 291600Z 14004KT 9999 SCT010 OVC040 09/07 Q1021 NOSIG
2026-04-29 15:30:00,METAR LJLJ 291530Z 16004KT 9999 -RA BKN007 OVC040 09/07 Q1021 NOSIG
2026-04-29 15:00:00,METAR LJLJ 291500Z 14005KT 110V170 9999 -RA BKN007 OVC040 09/08 Q1021 NOSIG
2026-04-29 14:30:00,METAR LJLJ 291430Z 12003KT 080V170 9999 -RA BKN007 OVC040 09/08 Q1021 NOSIG
2026-04-29 14:00:00,METAR LJLJ 291400Z 14005KT 9999 -RA BKN007 OVC045 09/08 Q1021 NOSIG
2026-04-29 13:30:00,METAR LJLJ 291330Z 13004KT 080V170 9999 -RA FEW002 BKN010 OVC040 09/08 Q1022 NOSIG
2026-04-29 13:00:00,METAR LJLJ 291300Z 14004KT 110V170 9999 -RA FEW004 BKN010 OVC040 09/08 Q1022 NOSIG
2026-04-29 12:30:00,METAR LJLJ 291230Z 18004KT 9999 -RA BKN010 OVC040 10/08 Q1022 NOSIG
2026-04-29 12:00:00,METAR LJLJ 291200Z 15004KT 100V200 9999 -RA SCT010 OVC040 10/08 Q1022 NOSIG
2026-04-29 11:30:00,METAR LJLJ 291130Z 15006KT 9999 -RA SCT010 OVC040 10/08 Q1022 NOSIG
2026-04-29 11:00:00,METAR LJLJ 291100Z 14007KT 9999 -RA SCT015 OVC045 10/08 Q1022 NOSIG
2026-04-29 10:30:00,METAR LJLJ 291030Z 13006KT 9999 -RA SCT015 SCT033 BKN045 10/09 Q1021 NOSIG
2026-04-29 10:00:00,METAR LJLJ 291000Z 17005KT 9999 -RA FEW002 SCT015 BKN045 11/08 Q1021 NOSIG
2026-04-29 09:30:00,METAR LJLJ 290930Z 15006KT 9999 -RA FEW002 SCT015 BKN045 11/08 Q1021 NOSIG
2026-04-29 09:00:00,METAR LJLJ 290900Z 14006KT 110V170 9999 -RA FEW002 BKN015 BKN045 11/08 Q1021 NOSIG
2026-04-29 08:30:00,METAR LJLJ 290830Z 16005KT 120V190 9999 FEW002 BKN015 BKN045 11/08 Q1021 NOSIG
2026-04-29 08:00:00,METAR LJLJ 290800Z 15007KT 9999 -RA FEW002 SCT010 BKN045 11/09 Q1021 NOSIG
2026-04-29 07:30:00,METAR LJLJ 290730Z 16005KT 120V180 9999 -RA FEW002 SCT010 BKN045 11/10 Q1020 NOSIG
2026-04-29 07:00:00,METAR LJLJ 290700Z 14004KT 110V170 9999 -RA FEW002 SCT010 BKN045 11/10 Q1020 NOSIG
2026-04-29 06:30:00,METAR LJLJ 290630Z COR 15003KT 120V190 9999 FEW003 BKN045 BKN110 11/10 Q1020 NOSIG
2026-04-29 06:00:00,METAR LJLJ 290600Z 12002KT 9999 FEW003 SCT050 BKN110 11/10 Q1020 NOSIG
2026-04-29 05:30:00,METAR LJLJ 290530Z 11003KT 9999 FEW003 SCT065 BKN110 11/10 Q1020 NOSIG
2026-04-29 05:00:00,METAR LJLJ 290500Z VRB01KT 9999 -RA FEW003 SCT010 BKN070 11/10 Q1019 NOSIG
2026-04-29 04:30:00,METAR LJLJ 290430Z VRB01KT 9999 -RA FEW003 SCT010 BKN070 11/10 Q1019 NOSIG
2026-04-29 04:00:00,METAR LJLJ 290400Z 11002KT 9999 -RA FEW003 SCT010 BKN060 11/10 Q1019 NOSIG
2026-04-29 03:30:00,METAR LJLJ 290330Z 13003KT 8000 FEW003 SCT010 BKN060 11/10 Q1019 NOSIG
2026-04-29 03:00:00,METAR LJLJ 290300Z 13002KT 8000 FEW003 SCT010 BKN060 11/10 Q1019 NOSIG
2026-04-29 02:30:00,METAR LJLJ 290230Z 15004KT 8000 -RA FEW003 SCT010 BKN060 11/11 Q1019 NOSIG
2026-04-29 02:00:00,METAR LJLJ 290200Z 15004KT 8000 -RA FEW003 SCT010 BKN060 11/11 Q1019 NOSIG
2026-04-29 01:30:00,METAR LJLJ 290130Z 26001KT 8000 -RA FEW003 SCT008 BKN060 12/11 Q1019 NOSIG
2026-04-29 01:00:00,METAR LJLJ 290100Z 26001KT 8000 -RA FEW003 SCT028 BKN060 12/11 Q1019 NOSIG
2026-04-29 00:30:00,METAR LJLJ 290030Z VRB01KT 8000 -RA FEW003 SCT028 BKN060 12/11 Q1019 NOSIG
2026-04-29 00:00:00,METAR LJLJ 290000Z VRB02KT 6000 -RA FEW002 SCT028 BKN055 12/11 Q1019 NOSIG
2026-04-28 23:30:00,METAR LJLJ 282330Z 09004KT 070V130 7000 -RA FEW003 SCT028 OVC065 12/12 Q1019 NOSIG
2026-04-28 23:00:00,METAR LJLJ 282300Z 05002KT 8000 -RA FEW004 SCT033 OVC065 12/11 Q1019 NOSIG
2026-04-28 22:30:00,METAR LJLJ 282230Z 25003KT 9999 -RA FEW004 SCT033 BKN065 12/12 Q1020 NOSIG
2026-04-28 22:00:00,METAR LJLJ 282200Z 30003KT 9999 -RA FEW004 BKN065 BKN088 12/12 Q1019 NOSIG
2026-04-28 21:30:00,METAR LJLJ 282130Z 24001KT 9999 -RA FEW004 BKN065 BKN088 12/12 Q1019 NOSIG
2026-04-28 21:00:00,METAR LJLJ 282100Z 00000KT 9999 -SHRA FEW004 FEW050TCU BKN067 BKN100 12/12 Q1019 NOSIG
2026-04-28 20:30:00,METAR LJLJ 282030Z 00000KT 9999 -SHRA FEW004 FEW050TCU BKN070 BKN095 12/12 Q1019 NOSIG
2026-04-28 20:00:00,METAR LJLJ 282000Z VRB01KT 9999 -SHRA FEW003 FEW043TCU SCT065 BKN080 12/12 Q1019 NOSIG
2026-04-28 19:30:00,METAR LJLJ 281930Z 36004KT 330V050 7000 -SHRA FEW003 FEW043TCU BKN063 OVC075 12/11 Q1019 NOSIG
2026-04-28 19:00:00,METAR LJLJ 281900Z 34004KT 8000 -SHRA FEW003 FEW043TCU BKN060 OVC073 13/11 Q1019 NOSIG
2026-04-28 18:30:00,METAR LJLJ 281830Z 33005KT 9999 -SHRA FEW035 SCT047TCU BKN065 OVC090 13/11 Q1018 RESHRA NOSIG
2026-04-28 18:00:00,METAR LJLJ 281800Z 20006KT 9999 -RA FEW045 BKN058 OVC090 14/10 Q1017 NOSIG
2026-04-28 17:30:00,METAR LJLJ 281730Z 19007KT 9999 -RA FEW053 BKN065 OVC090 17/07 Q1017 NOSIG
2026-04-28 17:00:00,METAR LJLJ 281700Z 13006KT 9999 FEW053 BKN075 BKN090 18/06 Q1016 BECMG -SHRA
2026-04-28 16:30:00,METAR LJLJ 281630Z 11005KT 9999 FEW053 SCT085 BKN100 18/06 Q1016 NOSIG
2026-04-28 16:00:00,METAR LJLJ 281600Z 12006KT 090V150 9999 FEW060 SCT085 BKN100 19/05 Q1016 NOSIG
2026-04-28 15:30:00,METAR LJLJ 281530Z 14006KT 9999 FEW060 SCT085 BKN110 20/05 Q1016 NOSIG
2026-04-28 15:00:00,METAR LJLJ 281500Z 14008KT 9999 FEW056 BKN110 20/06 Q1016 NOSIG
2026-04-28 14:30:00,METAR LJLJ 281430Z 12007KT 9999 FEW055 SCT110 21/05 Q1016 NOSIG
2026-04-28 14:00:00,METAR LJLJ 281400Z 13007KT 080V170 9999 FEW055 SCT110 20/05 Q1016 NOSIG
2026-04-28 13:30:00,METAR LJLJ 281330Z 07005KT 010V110 9999 FEW055 SCT110 21/06 Q1016 NOSIG
2026-04-28 13:00:00,METAR LJLJ 281300Z 14007KT 110V190 9999 FEW055 SCT085 BKN110 20/06 Q1017 NOSIG
2026-04-28 12:30:00,METAR LJLJ 281230Z 12006KT 9999 FEW055 BKN085 BKN100 20/05 Q1017 NOSIG
2026-04-28 12:00:00,METAR LJLJ 281200Z 13007KT 100V160 9999 FEW055 BKN085 BKN230 19/05 Q1017 NOSIG
2026-04-28 11:30:00,METAR LJLJ 281130Z 11007KT 070V190 9999 FEW055 BKN085 BKN230 19/06 Q1017 NOSIG
2026-04-28 11:00:00,METAR LJLJ 281100Z 12007KT 090V160 9999 FEW060 SCT090 BKN230 19/05 Q1018 NOSIG
2026-04-28 10:30:00,METAR LJLJ 281030Z 12007KT 090V150 9999 FEW060 SCT090 BKN230 18/04 Q1018 NOSIG
2026-04-28 10:00:00,METAR LJLJ 281000Z 12006KT 060V200 9999 FEW060 SCT090 BKN230 18/06 Q1018 NOSIG
2026-04-28 09:30:00,METAR LJLJ 280930Z VRB01KT 9999 FEW060 BKN090 18/05 Q1019 NOSIG
2026-04-28 09:00:00,METAR LJLJ 280900Z VRB02KT 9999 FEW060 BKN090 17/04 Q1019 NOSIG
2026-04-28 08:30:00,METAR LJLJ 280830Z VRB03KT 9999 FEW050 BKN080 16/05 Q1019 NOSIG
2026-04-28 08:00:00,METAR LJLJ 280800Z 12003KT 040V200 9999 FEW050 BKN080 15/05 Q1019 NOSIG
2026-04-28 07:30:00,METAR LJLJ 280730Z VRB02KT 9999 FEW050 BKN080 14/07 Q1019 NOSIG
2026-04-28 07:00:00,METAR LJLJ 280700Z VRB01KT 9999 FEW033 BKN080 BKN120 12/07 Q1019 NOSIG
2026-04-28 06:30:00,METAR LJLJ 280630Z 28003KT 9999 FEW033 SCT075 BKN120 11/07 Q1019 NOSIG
2026-04-28 06:00:00,METAR LJLJ 280600Z COR VRB02KT 9999 FEW033 SCT075 BKN120 11/07 Q1019 NOSIG
2026-04-28 05:30:00,METAR LJLJ 280530Z 00000KT 9999 SCT080 BKN120 10/07 Q1018 NOSIG
2026-04-28 05:00:00,METAR LJLJ 280500Z VRB02KT 9999 SCT080 BKN120 10/07 Q1018 NOSIG
2026-04-28 04:30:00,METAR LJLJ 280430Z VRB01KT 9999 FEW080 SCT100 BKN170 07/06 Q1018 NOSIG
2026-04-28 04:00:00,METAR LJLJ 280400Z 29002KT 9999 FEW080 SCT100 BKN170 07/05 Q1018 NOSIG
2026-04-28 03:30:00,METAR LJLJ 280330Z VRB01KT 9999 FEW080 SCT100 BKN170 07/05 Q1018 NOSIG
2026-04-28 03:00:00,METAR LJLJ 280300Z VRB01KT 9999 FEW080 SCT100 BKN170 07/05 Q1018 NOSIG
2026-04-28 02:30:00,METAR LJLJ 280230Z VRB01KT 9999 FEW080 SCT110 BKN170 07/05 Q1018 NOSIG
2026-04-28 02:00:00,METAR LJLJ 280200Z VRB01KT 9999 FEW080 SCT110 BKN170 08/05 Q1018 NOSIG
2026-04-28 01:30:00,METAR LJLJ 280130Z VRB02KT 9999 FEW080 SCT110 09/05 Q1018 NOSIG
2026-04-28 01:00:00,METAR LJLJ 280100Z 29002KT 9999 FEW080 SCT110 09/06 Q1018 NOSIG
2026-04-28 00:30:00,METAR LJLJ 280030Z VRB02KT 9999 FEW080 BKN110 10/06 Q1018 NOSIG
2026-04-28 00:00:00,METAR LJLJ 280000Z 09002KT 9999 FEW080 BKN130 10/06 Q1018 NOSIG
2026-04-27 23:30:00,METAR LJLJ 272330Z VRB02KT 9999 FEW080 BKN130 11/07 Q1019 NOSIG
2026-04-27 23:00:00,METAR LJLJ 272300Z 28002KT 9999 FEW080 BKN130 12/07 Q1019 NOSIG
2026-04-27 22:30:00,METAR LJLJ 272230Z VRB01KT 9999 FEW080 BKN130 12/06 Q1019 NOSIG
2026-04-27 22:00:00,METAR LJLJ 272200Z VRB01KT 9999 FEW080 BKN120 12/07 Q1019 NOSIG
2026-04-27 21:30:00,METAR LJLJ 272130Z VRB01KT 9999 FEW080 BKN120 13/08 Q1019 NOSIG
2026-04-27 21:00:00,METAR LJLJ 272100Z VRB02KT 9999 FEW080 BKN120 12/07 Q1019 NOSIG
2026-04-27 20:30:00,METAR LJLJ 272030Z VRB01KT 9999 FEW080 BKN120 12/07 Q1019 NOSIG
2026-04-27 20:00:00,METAR LJLJ 272000Z VRB02KT 9999 FEW080 BKN120 13/06 Q1019 NOSIG
2026-04-27 19:30:00,METAR LJLJ 271930Z 13004KT 9999 FEW080 SCT120 14/06 Q1018 NOSIG
2026-04-27 19:00:00,METAR LJLJ 271900Z 12005KT 9999 FEW080 SCT120 15/06 Q1018 NOSIG
2026-04-27 18:30:00,METAR LJLJ 271830Z 11007KT 9999 FEW080 SCT250 15/05 Q1018 NOSIG
2026-04-27 18:00:00,METAR LJLJ 271800Z 11005KT 9999 FEW080 SCT250 16/06 Q1017 NOSIG
2026-04-27 17:30:00,METAR LJLJ 271730Z 13007KT CAVOK 18/06 Q1017 NOSIG
2026-04-27 17:00:00,METAR LJLJ 271700Z 11007KT CAVOK 19/06 Q1017 NOSIG
2026-04-27 16:30:00,METAR LJLJ 271630Z 12005KT CAVOK 20/05 Q1017 NOSIG
2026-04-27 16:00:00,METAR LJLJ 271600Z 11005KT 080V170 9999 FEW075 20/04 Q1017 NOSIG
2026-04-27 15:30:00,METAR LJLJ 271530Z 13006KT 110V170 9999 FEW075 20/03 Q1017 NOSIG
2026-04-27 15:00:00,METAR LJLJ 271500Z 13007KT 9999 FEW075 20/04 Q1017 NOSIG
2026-04-27 14:30:00,METAR LJLJ 271430Z 13005KT 100V200 9999 FEW100 20/03 Q1018 NOSIG
2026-04-27 14:00:00,METAR LJLJ 271400Z 10006KT 040V140 9999 FEW100 20/03 Q1018 NOSIG
2026-04-27 13:30:00,METAR LJLJ 271330Z 16004KT 110V240 9999 FEW090 20/04 Q1018 NOSIG
2026-04-27 13:00:00,METAR LJLJ 271300Z 12003KT 030V170 9999 FEW090 20/03 Q1019 NOSIG
2026-04-27 12:30:00,METAR LJLJ 271230Z 11001KT 9999 SCT095 19/03 Q1019 NOSIG
2026-04-27 12:00:00,METAR LJLJ 271200Z 18005KT 110V210 9999 SCT095 19/02 Q1019 NOSIG
2026-04-27 11:30:00,METAR LJLJ 271130Z VRB02KT 9999 BKN095 19/03 Q1020 NOSIG
2026-04-27 11:00:00,METAR LJLJ 271100Z 09004KT 010V150 9999 BKN095 18/01 Q1020 NOSIG
2026-04-27 10:30:00,METAR LJLJ 271030Z 15007KT 110V180 9999 SCT095 18/00 Q1020 NOSIG
2026-04-27 10:00:00,METAR LJLJ 271000Z 07004KT 340V110 9999 SCT095 18/02 Q1021 NOSIG
2026-04-27 09:30:00,METAR LJLJ 270930Z 07004KT 010V110 9999 FEW090 17/03 Q1021 NOSIG
2026-04-27 09:00:00,METAR LJLJ 270900Z 07004KT 020V130 9999 FEW090 16/01 Q1022 NOSIG
2026-04-27 08:30:00,METAR LJLJ 270830Z 11001KT CAVOK 16/02 Q1022 NOSIG
2026-04-27 08:00:00,METAR LJLJ 270800Z VRB02KT CAVOK 15/01 Q1022 NOSIG
2026-04-27 07:30:00,METAR LJLJ 270730Z VRB02KT CAVOK 14/02 Q1022 NOSIG
2026-04-27 07:00:00,METAR LJLJ 270700Z 00000KT 9999 FEW100 13/01 Q1023 NOSIG
2026-04-27 06:30:00,METAR LJLJ 270630Z VRB01KT 9999 FEW100 12/03 Q1023 NOSIG
2026-04-27 06:00:00,METAR LJLJ 270600Z 00000KT 9999 FEW100 10/04 Q1023 NOSIG
2026-04-27 05:30:00,METAR LJLJ 270530Z 00000KT 9999 FEW100 09/03 Q1023 NOSIG
2026-04-27 05:00:00,METAR LJLJ 270500Z VRB02KT 9999 FEW100 06/03 Q1023 NOSIG
2026-04-27 04:30:00,METAR LJLJ 270430Z 28002KT 9999 FEW070 05/02 Q1023 NOSIG
2026-04-27 04:00:00,METAR LJLJ 270400Z 32004KT 310V130 9999 FEW070 04/01 Q1022 NOSIG
2026-04-27 03:30:00,METAR LJLJ 270330Z VRB01KT CAVOK 06/02 Q1023 NOSIG
2026-04-27 03:00:00,METAR LJLJ 270300Z 29001KT CAVOK 06/02 Q1023 NOSIG
2026-04-27 02:30:00,METAR LJLJ 270230Z VRB01KT 9999 FEW075 SCT170 BKN220 06/02 Q1023 NOSIG
2026-04-27 02:00:00,METAR LJLJ 270200Z VRB02KT 9999 FEW075 BKN170 07/03 Q1023 NOSIG
2026-04-27 01:30:00,METAR LJLJ 270130Z VRB01KT 9999 FEW075 BKN200 07/02 Q1023 NOSIG
2026-04-27 01:00:00,METAR LJLJ 270100Z 28001KT 9999 FEW075 BKN200 08/03 Q1023 NOSIG
2026-04-27 00:30:00,METAR LJLJ 270030Z 28003KT 250V310 9999 FEW075 SCT200 09/01 Q1023 NOSIG
2026-04-27 00:00:00,METAR LJLJ 270000Z VRB02KT 9999 FEW075 SCT200 10/03 Q1023 NOSIG
2026-04-26 23:30:00,METAR LJLJ 262330Z VRB01KT 9999 FEW075 SCT200 10/01 Q1023 NOSIG
2026-04-26 23:00:00,METAR LJLJ 262300Z VRB03KT 9999 FEW075 SCT220 12/01 Q1023 NOSIG
2026-04-26 22:30:00,METAR LJLJ 262230Z 13006KT 9999 FEW075 SCT220 12/01 Q1023 NOSIG
2026-04-26 22:00:00,METAR LJLJ 262200Z 14007KT 9999 SCT075 SCT230 13/01 Q1022 NOSIG
2026-04-26 21:30:00,METAR LJLJ 262130Z 14008KT 9999 SCT080 SCT250 14/02 Q1022 NOSIG
2026-04-26 21:00:00,METAR LJLJ 262100Z 15010KT 9999 FEW080 SCT250 14/02 Q1022 NOSIG
2026-04-26 20:30:00,METAR LJLJ 262030Z 13011KT 9999 FEW070 SCT250 14/02 Q1021 NOSIG
2026-04-26 20:00:00,METAR LJLJ 262000Z 12012KT 9999 FEW070 SCT250 15/03 Q1021 NOSIG
2026-04-26 19:30:00,METAR LJLJ 261930Z 12013KT 9999 FEW070 16/04 Q1020 NOSIG
2026-04-26 19:00:00,METAR LJLJ 261900Z 12012KT 9999 FEW070 16/04 Q1019 NOSIG
2026-04-26 18:30:00,METAR LJLJ 261830Z 11012KT 9999 FEW070 17/05 Q1018 NOSIG
2026-04-26 18:00:00,METAR LJLJ 261800Z 11011KT 9999 FEW070 19/05 Q1018 NOSIG
2026-04-26 17:30:00,METAR LJLJ 261730Z 09009KT 9999 FEW070 20/06 Q1017 NOSIG
2026-04-26 17:00:00,METAR LJLJ 261700Z 10013KT 9999 FEW070 22/06 Q1016 NOSIG
2026-04-26 16:30:00,METAR LJLJ 261630Z 12006KT 9999 FEW070 24/04 Q1016 NOSIG
2026-04-26 16:00:00,METAR LJLJ 261600Z 14005KT 110V200 9999 FEW070 24/05 Q1016 NOSIG
2026-04-26 15:30:00,METAR LJLJ 261530Z 12006KT 090V150 9999 FEW070 25/03 Q1016 NOSIG
2026-04-26 15:00:00,METAR LJLJ 261500Z VRB01KT 9999 FEW070 25/02 Q1016 NOSIG
2026-04-26 14:30:00,METAR LJLJ 261430Z 13005KT 080V170 9999 FEW070 25/M00 Q1016 NOSIG
2026-04-26 14:00:00,METAR LJLJ 261400Z 17005KT 110V240 9999 FEW070 25/02 Q1016 NOSIG
2026-04-26 13:30:00,METAR LJLJ 261330Z 13004KT 020V190 9999 FEW070 25/05 Q1016 NOSIG
2026-04-26 13:00:00,METAR LJLJ 261300Z 09004KT 030V140 9999 FEW070 24/04 Q1016 NOSIG
2026-04-26 12:30:00,METAR LJLJ 261230Z 14002KT 9999 FEW070 24/04 Q1017 NOSIG
2026-04-26 12:00:00,METAR LJLJ 261200Z 10003KT 010V140 9999 FEW070 24/05 Q1017 NOSIG
2026-04-26 11:30:00,METAR LJLJ 261130Z 12005KT 050V160 9999 FEW060 23/05 Q1017 NOSIG
2026-04-26 11:00:00,METAR LJLJ 261100Z 12004KT 020V170 9999 FEW060 23/07 Q1018 NOSIG
2026-04-26 10:30:00,METAR LJLJ 261030Z 12004KT 9999 FEW060 22/05 Q1018 NOSIG
2026-04-26 10:00:00,METAR LJLJ 261000Z 12005KT 080V190 9999 FEW060 21/07 Q1018 NOSIG
2026-04-26 09:30:00,METAR LJLJ 260930Z VRB02KT CAVOK 20/08 Q1018 NOSIG
2026-04-26 09:00:00,METAR LJLJ 260900Z 08004KT 050V140 CAVOK 20/07 Q1018 NOSIG
2026-04-26 08:30:00,METAR LJLJ 260830Z 16002KT CAVOK 18/08 Q1018 NOSIG
2026-04-26 08:00:00,METAR LJLJ 260800Z 10003KT 040V130 CAVOK 17/07 Q1018 NOSIG
2026-04-26 07:30:00,METAR LJLJ 260730Z VRB01KT CAVOK 16/08 Q1018 NOSIG
2026-04-26 07:00:00,METAR LJLJ 260700Z VRB02KT CAVOK 14/06 Q1018 NOSIG
2026-04-26 06:30:00,METAR LJLJ 260630Z 00000KT CAVOK 12/07 Q1017 NOSIG
2026-04-26 06:00:00,METAR LJLJ 260600Z VRB02KT CAVOK 11/07 Q1017 NOSIG
2026-04-26 05:30:00,METAR LJLJ 260530Z 05001KT CAVOK 08/06 Q1017 NOSIG
2026-04-26 05:00:00,METAR LJLJ 260500Z 00000KT CAVOK 05/05 Q1017 NOSIG
2026-04-26 04:30:00,METAR LJLJ 260430Z VRB01KT CAVOK 04/04 Q1016 NOSIG
2026-04-26 04:00:00,METAR LJLJ 260400Z 27002KT CAVOK 05/04 Q1016 NOSIG
2026-04-26 03:30:00,METAR LJLJ 260330Z 28004KT 220V310 CAVOK 04/03 Q1015 NOSIG
2026-04-26 03:00:00,METAR LJLJ 260300Z 28004KT 220V310 CAVOK 04/03 Q1015 NOSIG
2026-04-26 02:30:00,METAR LJLJ 260230Z 29002KT CAVOK 06/05 Q1015 NOSIG
2026-04-26 02:00:00,METAR LJLJ 260200Z 29002KT CAVOK 06/05 Q1015 NOSIG
2026-04-26 01:30:00,METAR LJLJ 260130Z VRB01KT CAVOK 06/05 Q1015 NOSIG
2026-04-26 01:00:00,METAR LJLJ 260100Z VRB01KT CAVOK 06/05 Q1015 NOSIG
2026-04-26 00:30:00,METAR LJLJ 260030Z 00000KT CAVOK 07/06 Q1015 NOSIG
2026-04-26 00:00:00,METAR LJLJ 260000Z 00000KT CAVOK 07/05 Q1015 NOSIG
2026-04-25 23:30:00,METAR LJLJ 252330Z 29004KT CAVOK 08/06 Q1015 NOSIG
2026-04-25 23:00:00,METAR LJLJ 252300Z 29004KT CAVOK 08/06 Q1015 NOSIG
2026-04-25 22:30:00,METAR LJLJ 252230Z VRB01KT CAVOK 09/06 Q1015 NOSIG
2026-04-25 22:00:00,METAR LJLJ 252200Z VRB01KT CAVOK 09/06 Q1015 NOSIG
2026-04-25 21:30:00,METAR LJLJ 252130Z VRB02KT CAVOK 10/06 Q1015 NOSIG
2026-04-25 21:00:00,METAR LJLJ 252100Z VRB02KT CAVOK 11/06 Q1015 NOSIG
2026-04-25 20:30:00,METAR LJLJ 252030Z VRB01KT CAVOK 12/06 Q1015 NOSIG
2026-04-25 20:00:00,METAR LJLJ 252000Z VRB01KT CAVOK 12/08 Q1014 NOSIG
2026-04-25 19:30:00,METAR LJLJ 251930Z VRB01KT CAVOK 14/06 Q1014 NOSIG
2026-04-25 19:00:00,METAR LJLJ 251900Z 08004KT CAVOK 15/06 Q1014 NOSIG
2026-04-25 18:30:00,METAR LJLJ 251830Z 16003KT 110V220 CAVOK 17/06 Q1013 NOSIG
2026-04-25 18:00:00,METAR LJLJ 251800Z 20003KT 140V250 CAVOK 19/06 Q1013 NOSIG
2026-04-25 17:30:00,METAR LJLJ 251730Z 21008KT 170V240 CAVOK 20/06 Q1012 NOSIG
2026-04-25 17:00:00,METAR LJLJ 251700Z 23008KT 190V250 CAVOK 22/07 Q1012 NOSIG
2026-04-25 16:30:00,METAR LJLJ 251630Z 24010KT 210V270 9999 FEW060 22/06 Q1012 NOSIG
2026-04-25 16:00:00,METAR LJLJ 251600Z 24011KT 9999 FEW060 23/06 Q1012 NOSIG
2026-04-25 15:30:00,METAR LJLJ 251530Z 24011KT 210V270 9999 FEW060 24/05 Q1012 NOSIG
2026-04-25 15:00:00,METAR LJLJ 251500Z 24007KT 160V280 9999 FEW060 24/07 Q1012 NOSIG
2026-04-25 14:30:00,METAR LJLJ 251430Z 19005KT 160V300 9999 FEW060 24/06 Q1012 NOSIG
2026-04-25 14:00:00,METAR LJLJ 251400Z 20006KT 110V260 9999 FEW060 25/06 Q1012 NOSIG
2026-04-25 13:30:00,METAR LJLJ 251330Z 07003KT 340V160 9999 FEW060 24/03 Q1013 NOSIG
2026-04-25 13:00:00,METAR LJLJ 251300Z 18005KT 080V250 CAVOK 24/04 Q1013 NOSIG
2026-04-25 12:30:00,METAR LJLJ 251230Z 15006KT 100V240 CAVOK 23/05 Q1013 NOSIG
2026-04-25 12:00:00,METAR LJLJ 251200Z 13004KT 040V200 CAVOK 23/02 Q1014 NOSIG
2026-04-25 11:30:00,METAR LJLJ 251130Z 10004KT 030V200 CAVOK 22/05 Q1014 NOSIG
2026-04-25 11:00:00,METAR LJLJ 251100Z 10005KT 360V150 CAVOK 22/03 Q1015 NOSIG
2026-04-25 10:30:00,METAR LJLJ 251030Z 07004KT 030V120 CAVOK 21/03 Q1015 NOSIG
2026-04-25 10:00:00,METAR LJLJ 251000Z 07003KT 330V150 CAVOK 20/02 Q1016 NOSIG
2026-04-25 09:30:00,METAR LJLJ 250930Z 08002KT CAVOK 19/07 Q1016 NOSIG
2026-04-25 09:00:00,METAR LJLJ 250900Z VRB02KT CAVOK 18/08 Q1016 NOSIG
2026-04-25 08:30:00,METAR LJLJ 250830Z 05002KT CAVOK 16/06 Q1017 NOSIG
2026-04-25 08:00:00,METAR LJLJ 250800Z 08001KT CAVOK 15/06 Q1017 NOSIG
2026-04-25 07:30:00,METAR LJLJ 250730Z VRB02KT CAVOK 13/04 Q1017 NOSIG
2026-04-25 07:00:00,METAR LJLJ 250700Z VRB02KT CAVOK 11/04 Q1017 NOSIG
2026-04-25 06:30:00,METAR LJLJ 250630Z VRB02KT CAVOK 10/05 Q1017 NOSIG
2026-04-25 06:00:00,METAR LJLJ 250600Z 00000KT CAVOK 08/05 Q1017 NOSIG
2026-04-25 05:30:00,METAR LJLJ 250530Z VRB02KT CAVOK 05/04 Q1017 NOSIG
2026-04-25 05:00:00,METAR LJLJ 250500Z VRB01KT CAVOK 04/03 Q1017 NOSIG
2026-04-25 04:30:00,METAR LJLJ 250430Z 34001KT CAVOK 02/02 Q1017 NOSIG
2026-04-25 04:00:00,METAR LJLJ 250400Z 30004KT CAVOK 03/02 Q1017 NOSIG
2026-04-25 03:30:00,METAR LJLJ 250330Z VRB01KT CAVOK 03/02 Q1017 NOSIG
2026-04-25 03:00:00,METAR LJLJ 250300Z VRB01KT CAVOK 03/02 Q1017 NOSIG
2026-04-25 02:30:00,METAR LJLJ 250230Z VRB01KT CAVOK 04/03 Q1016 NOSIG
2026-04-25 02:00:00,METAR LJLJ 250200Z VRB01KT CAVOK 04/03 Q1016 NOSIG
2026-04-25 01:30:00,METAR LJLJ 250130Z VRB01KT CAVOK 05/04 Q1016 NOSIG
2026-04-25 01:00:00,METAR LJLJ 250100Z VRB01KT CAVOK 05/04 Q1016 NOSIG
2026-04-25 00:30:00,METAR LJLJ 250030Z VRB02KT CAVOK 05/03 Q1016 NOSIG
2026-04-25 00:00:00,METAR LJLJ 250000Z VRB02KT CAVOK 05/04 Q1017 NOSIG
2026-04-24 23:30:00,METAR LJLJ 242330Z 28002KT CAVOK 06/04 Q1016 NOSIG
2026-04-24 23:00:00,METAR LJLJ 242300Z VRB02KT CAVOK 06/05 Q1016 NOSIG
2026-04-24 22:30:00,METAR LJLJ 242230Z VRB02KT CAVOK 08/06 Q1016 NOSIG
2026-04-24 22:00:00,METAR LJLJ 242200Z VRB02KT CAVOK 08/06 Q1016 NOSIG
2026-04-24 21:30:00,METAR LJLJ 242130Z 00000KT CAVOK 09/06 Q1016 NOSIG
2026-04-24 21:00:00,METAR LJLJ 242100Z VRB01KT CAVOK 10/06 Q1016 NOSIG
2026-04-24 20:30:00,METAR LJLJ 242030Z VRB01KT CAVOK 11/06 Q1016 NOSIG
2026-04-24 20:00:00,METAR LJLJ 242000Z 14001KT CAVOK 12/06 Q1015 NOSIG
2026-04-24 19:30:00,METAR LJLJ 241930Z VRB01KT CAVOK 12/06 Q1015 NOSIG
2026-04-24 19:00:00,METAR LJLJ 241900Z 12002KT CAVOK 14/07 Q1015 NOSIG
2026-04-24 18:30:00,METAR LJLJ 241830Z 17003KT 140V260 CAVOK 15/06 Q1015 NOSIG
2026-04-24 18:00:00,METAR LJLJ 241800Z 22002KT CAVOK 18/05 Q1014 NOSIG
2026-04-24 17:30:00,METAR LJLJ 241730Z 23006KT CAVOK 20/05 Q1014 NOSIG
2026-04-24 17:00:00,METAR LJLJ 241700Z 23007KT 200V270 CAVOK 21/05 Q1013 NOSIG
2026-04-24 16:30:00,METAR LJLJ 241630Z 24008KT 200V270 CAVOK 21/04 Q1013 NOSIG
2026-04-24 16:00:00,METAR LJLJ 241600Z 23009KT 200V260 CAVOK 22/04 Q1013 NOSIG
2026-04-24 15:30:00,METAR LJLJ 241530Z 25008KT 210V280 CAVOK 23/01 Q1013 NOSIG
2026-04-24 15:00:00,METAR LJLJ 241500Z 27006KT 190V320 CAVOK 23/M00 Q1014 NOSIG
2026-04-24 14:30:00,METAR LJLJ 241430Z 29007KT CAVOK 24/00 Q1014 NOSIG
2026-04-24 14:00:00,METAR LJLJ 241400Z 25006KT 210V290 CAVOK 24/M04 Q1014 NOSIG
2026-04-24 13:30:00,METAR LJLJ 241330Z 26006KT 190V320 CAVOK 24/01 Q1014 NOSIG
2026-04-24 13:00:00,METAR LJLJ 241300Z 02001KT CAVOK 23/M01 Q1015 NOSIG
2026-04-24 12:30:00,METAR LJLJ 241230Z 13001KT CAVOK 23/M01 Q1015 NOSIG
2026-04-24 12:00:00,METAR LJLJ 241200Z 35004KT 300V030 CAVOK 22/01 Q1016 NOSIG
2026-04-24 11:30:00,METAR LJLJ 241130Z 06004KT 350V120 CAVOK 21/04 Q1016 NOSIG
2026-04-24 11:00:00,METAR LJLJ 241100Z 08006KT 020V120 CAVOK 20/01 Q1016 NOSIG
2026-04-24 10:30:00,METAR LJLJ 241030Z 08005KT 040V140 CAVOK 19/02 Q1017 NOSIG
2026-04-24 10:00:00,METAR LJLJ 241000Z 07004KT 030V160 CAVOK 18/01 Q1017 NOSIG
2026-04-24 09:30:00,METAR LJLJ 240930Z 08003KT 010V120 CAVOK 17/01 Q1018 NOSIG
2026-04-24 09:00:00,METAR LJLJ 240900Z VRB02KT CAVOK 16/M01 Q1018 NOSIG
2026-04-24 08:30:00,METAR LJLJ 240830Z 09003KT 040V130 CAVOK 14/00 Q1018 NOSIG
2026-04-24 08:00:00,METAR LJLJ 240800Z VRB02KT CAVOK 13/00 Q1019 NOSIG
2026-04-24 07:30:00,METAR LJLJ 240730Z 00000KT CAVOK 11/00 Q1019 NOSIG
2026-04-24 07:00:00,METAR LJLJ 240700Z VRB02KT CAVOK 09/00 Q1019 NOSIG
2026-04-24 06:30:00,METAR LJLJ 240630Z VRB02KT CAVOK 08/M00 Q1019 NOSIG
2026-04-24 06:00:00,METAR LJLJ 240600Z 31003KT 280V360 CAVOK 06/02 Q1019 NOSIG
2026-04-24 05:30:00,METAR LJLJ 240530Z VRB01KT CAVOK 03/01 Q1019 NOSIG
2026-04-24 05:00:00,METAR LJLJ 240500Z 09002KT CAVOK 02/00 Q1019 NOSIG
2026-04-24 04:30:00,METAR LJLJ 240430Z 28004KT CAVOK M00/M02 Q1019 NOSIG
2026-04-24 04:00:00,METAR LJLJ 240400Z VRB01KT CAVOK M00/M02 Q1019 NOSIG
2026-04-24 03:30:00,METAR LJLJ 240330Z 31003KT 280V350 CAVOK 01/M00 Q1019 NOSIG
2026-04-24 03:00:00,METAR LJLJ 240300Z 27001KT CAVOK 01/M00 Q1019 NOSIG
2026-04-24 02:30:00,METAR LJLJ 240230Z 29004KT 260V340 CAVOK 01/00 Q1019 NOSIG
2026-04-24 02:00:00,METAR LJLJ 240200Z 27002KT CAVOK 02/M00 Q1019 NOSIG
2026-04-24 01:30:00,METAR LJLJ 240130Z VRB01KT CAVOK 02/M00 Q1019 NOSIG
2026-04-24 01:00:00,METAR LJLJ 240100Z VRB02KT CAVOK 02/M00 Q1019 NOSIG
2026-04-24 00:30:00,METAR LJLJ 240030Z 30002KT CAVOK 03/M00 Q1019 NOSIG
2026-04-24 00:00:00,METAR LJLJ 240000Z VRB01KT CAVOK 04/01 Q1019 NOSIG
2026-04-23 23:30:00,METAR LJLJ 232330Z VRB01KT CAVOK 04/01 Q1019 NOSIG
2026-04-23 23:00:00,METAR LJLJ 232300Z 32002KT CAVOK 04/02 Q1019 NOSIG
2026-04-23 22:30:00,METAR LJLJ 232230Z 24001KT CAVOK 05/02 Q1019 NOSIG
2026-04-23 22:00:00,METAR LJLJ 232200Z 17001KT CAVOK 05/02 Q1019 NOSIG
2026-04-23 21:30:00,METAR LJLJ 232130Z VRB02KT CAVOK 06/02 Q1018 NOSIG
2026-04-23 21:00:00,METAR LJLJ 232100Z 00000KT CAVOK 07/02 Q1018 NOSIG
2026-04-23 20:30:00,METAR LJLJ 232030Z 00000KT CAVOK 08/03 Q1018 NOSIG
2026-04-23 19:30:00,METAR LJLJ 231930Z VRB01KT CAVOK 10/03 Q1018 NOSIG
2026-04-23 19:00:00,METAR LJLJ 231900Z VRB03KT CAVOK 12/03 Q1017 NOSIG
2026-04-23 18:30:00,METAR LJLJ 231830Z VRB02KT CAVOK 13/04 Q1017 NOSIG
2026-04-23 18:00:00,METAR LJLJ 231800Z 21004KT CAVOK 15/03 Q1017 NOSIG
2026-04-23 17:30:00,METAR LJLJ 231730Z 17004KT CAVOK 17/04 Q1016 NOSIG
2026-04-23 17:00:00,METAR LJLJ 231700Z 17003KT 090V210 CAVOK 18/04 Q1016 NOSIG
2026-04-23 16:30:00,METAR LJLJ 231630Z 12003KT 090V160 CAVOK 18/01 Q1016 NOSIG
2026-04-23 16:00:00,METAR LJLJ 231600Z 07004KT 020V120 CAVOK 18/02 Q1016 NOSIG
2026-04-23 15:30:00,METAR LJLJ 231530Z 01006KT 320V080 CAVOK 20/M05 Q1016 NOSIG
2026-04-23 15:00:00,METAR LJLJ 231500Z 10006KT 030V150 CAVOK 19/02 Q1016 NOSIG
2026-04-23 14:30:00,METAR LJLJ 231430Z 08004KT 010V180 CAVOK 21/M01 Q1017 NOSIG
2026-04-23 14:00:00,METAR LJLJ 231400Z VRB02KT CAVOK 21/M04 Q1017 NOSIG
2026-04-23 13:30:00,METAR LJLJ 231330Z VRB03KT CAVOK 20/M03 Q1017 NOSIG
2026-04-23 13:00:00,METAR LJLJ 231300Z 13005KT 100V170 CAVOK 20/01 Q1018 NOSIG
2026-04-23 12:30:00,METAR LJLJ 231230Z 12006KT 070V160 CAVOK 19/M02 Q1018 NOSIG
2026-04-23 12:00:00,METAR LJLJ 231200Z 12006KT 080V150 CAVOK 18/00 Q1019 NOSIG
2026-04-23 11:30:00,METAR LJLJ 231130Z 11007KT 070V170 CAVOK 18/02 Q1020 NOSIG
2026-04-23 11:00:00,METAR LJLJ 231100Z 08007KT 050V120 CAVOK 17/02 Q1020 NOSIG
2026-04-23 10:30:00,METAR LJLJ 231030Z 11005KT 060V150 CAVOK 16/02 Q1021 NOSIG
2026-04-23 10:00:00,METAR LJLJ 231000Z 10005KT 060V140 CAVOK 15/02 Q1021 NOSIG
2026-04-23 09:30:00,METAR LJLJ 230930Z 09004KT 040V130 CAVOK 14/00 Q1022 NOSIG
2026-04-23 09:00:00,METAR LJLJ 230900Z 09004KT 030V150 CAVOK 12/03 Q1022 NOSIG
2026-04-23 08:30:00,METAR LJLJ 230830Z 07003KT 330V100 CAVOK 11/M00 Q1023 NOSIG
2026-04-23 08:00:00,METAR LJLJ 230800Z 08004KT 040V110 CAVOK 10/02 Q1023 NOSIG
2026-04-23 07:30:00,METAR LJLJ 230730Z 08005KT 050V110 CAVOK 08/02 Q1023 NOSIG
2026-04-23 07:00:00,METAR LJLJ 230700Z 11002KT CAVOK 07/02 Q1023 NOSIG
2026-04-23 06:30:00,METAR LJLJ 230630Z 00000KT CAVOK 05/02 Q1023 NOSIG
2026-04-23 06:00:00,METAR LJLJ 230600Z VRB02KT CAVOK 03/00 Q1024 NOSIG
2026-04-23 05:30:00,METAR LJLJ 230530Z VRB01KT CAVOK 00/M01 Q1024 NOSIG
2026-04-23 05:00:00,METAR LJLJ 230500Z VRB01KT CAVOK M01/M02 Q1024 NOSIG
2026-04-23 04:30:00,METAR LJLJ 230430Z VRB01KT CAVOK M02/M02 Q1023 NOSIG
2026-04-23 04:00:00,METAR LJLJ 230400Z VRB01KT CAVOK M02/M03 Q1023 NOSIG
2026-04-23 03:30:00,METAR LJLJ 230330Z VRB01KT CAVOK M02/M02 Q1023 NOSIG
2026-04-23 03:00:00,METAR LJLJ 230300Z 31001KT 9999 FEW070 M02/M02 Q1023 NOSIG
2026-04-23 02:30:00,METAR LJLJ 230230Z VRB01KT CAVOK M01/M02 Q1023 NOSIG
2026-04-23 02:00:00,METAR LJLJ 230200Z VRB01KT CAVOK M02/M03 Q1023 NOSIG
2026-04-23 01:30:00,METAR LJLJ 230130Z 34002KT CAVOK M01/M02 Q1023 NOSIG
2026-04-23 01:00:00,METAR LJLJ 230100Z VRB01KT CAVOK M00/M01 Q1023 NOSIG
2026-04-23 00:30:00,METAR LJLJ 230030Z 29002KT 9999 FEW075 00/M00 Q1023 NOSIG
2026-04-23 00:00:00,METAR LJLJ 230000Z 25001KT 9999 FEW075 01/M00 Q1023 NOSIG
2026-04-22 23:30:00,METAR LJLJ 222330Z 00000KT 9999 FEW075 01/M00 Q1023 NOSIG
2026-04-22 23:00:00,METAR LJLJ 222300Z 13001KT 9999 FEW075 01/M01 Q1023 NOSIG
2026-04-22 22:30:00,METAR LJLJ 222230Z VRB01KT 9999 FEW075 02/M00 Q1023 NOSIG
2026-04-22 22:00:00,METAR LJLJ 222200Z 27004KT 250V010 9999 FEW075 02/00 Q1023 NOSIG
2026-04-22 21:30:00,METAR LJLJ 222130Z VRB01KT 9999 FEW075 02/M00 Q1023 NOSIG
2026-04-22 21:00:00,METAR LJLJ 222100Z 22001KT 9999 FEW075 03/02 Q1022 NOSIG
2026-04-22 20:30:00,METAR LJLJ 222030Z 29003KT 230V340 9999 FEW075 04/01 Q1022 NOSIG
2026-04-22 20:00:00,METAR LJLJ 222000Z VRB02KT 9999 FEW075 05/02 Q1022 NOSIG
2026-04-22 19:30:00,METAR LJLJ 221930Z 30002KT 9999 FEW075 05/01 Q1021 NOSIG
2026-04-22 19:00:00,METAR LJLJ 221900Z VRB02KT 9999 FEW075 07/02 Q1021 NOSIG
2026-04-22 18:30:00,METAR LJLJ 221830Z VRB01KT 9999 FEW075 09/01 Q1021 NOSIG
2026-04-22 18:00:00,METAR LJLJ 221800Z 13004KT 9999 FEW075 10/02 Q1020 NOSIG
2026-04-22 17:30:00,METAR LJLJ 221730Z 13006KT 9999 FEW085 11/01 Q1020 NOSIG
2026-04-22 17:00:00,METAR LJLJ 221700Z 15006KT 9999 FEW085 13/M02 Q1020 NOSIG
2026-04-22 16:30:00,METAR LJLJ 221630Z 15008KT 9999 FEW080 13/M01 Q1019 NOSIG
2026-04-22 16:00:00,METAR LJLJ 221600Z 14009KT 110V170 9999 FEW080 14/M02 Q1019 NOSIG
2026-04-22 15:30:00,METAR LJLJ 221530Z 15010KT 9999 FEW080 14/M03 Q1019 NOSIG
2026-04-22 15:00:00,METAR LJLJ 221500Z 11006KT 070V170 9999 FEW080 15/M02 Q1019 NOSIG
2026-04-22 14:30:00,METAR LJLJ 221430Z 16004KT 020V190 9999 FEW080 14/M02 Q1019 NOSIG
2026-04-22 14:00:00,METAR LJLJ 221400Z 12004KT 070V250 9999 FEW080 14/M04 Q1019 NOSIG
2026-04-22 13:30:00,METAR LJLJ 221330Z 15006KT 110V200 9999 SCT075 14/M04 Q1020 NOSIG
2026-04-22 13:00:00,METAR LJLJ 221300Z 12003KT 050V190 9999 SCT075 14/M02 Q1020 NOSIG
2026-04-22 12:30:00,METAR LJLJ 221230Z 11003KT 9999 SCT075 13/M03 Q1020 NOSIG
2026-04-22 12:00:00,METAR LJLJ 221200Z 22003KT 170V250 9999 BKN075 13/M04 Q1020 NOSIG
2026-04-22 11:30:00,METAR LJLJ 221130Z 18004KT 140V240 9999 BKN070 12/M02 Q1020 NOSIG
2026-04-22 11:00:00,METAR LJLJ 221100Z 18002KT 9999 BKN070 12/M04 Q1020 NOSIG
2026-04-22 10:30:00,METAR LJLJ 221030Z 10007KT 050V140 9999 FEW055 BKN070 11/M04 Q1021 NOSIG
2026-04-22 10:00:00,METAR LJLJ 221000Z 11005KT 060V160 9999 FEW055 BKN070 11/M02 Q1021 NOSIG
2026-04-22 09:30:00,METAR LJLJ 220930Z 10008KT 070V130 9999 FEW055 BKN070 11/M01 Q1021 NOSIG
2026-04-22 09:00:00,METAR LJLJ 220900Z VRB02KT 9999 FEW060 BKN075 10/M00 Q1021 NOSIG
2026-04-22 08:30:00,METAR LJLJ 220830Z 33003KT 9999 FEW060 BKN075 10/M00 Q1021 NOSIG
2026-04-22 08:00:00,METAR LJLJ 220800Z 18002KT 9999 FEW070 10/00 Q1021 NOSIG
2026-04-22 07:30:00,METAR LJLJ 220730Z 24002KT 9999 FEW070 09/03 Q1021 NOSIG
2026-04-22 07:00:00,METAR LJLJ 220700Z VRB01KT 9999 FEW070 08/06 Q1020 NOSIG
2026-04-22 06:30:00,METAR LJLJ 220630Z VRB02KT 9999 FEW070 07/06 Q1021 NOSIG
2026-04-22 06:00:00,METAR LJLJ 220600Z VRB02KT 9999 FEW001 SCT080 05/04 Q1021 NOSIG
2026-04-22 05:30:00,METAR LJLJ 220530Z VRB01KT 9999 MIFG FEW001 SCT070 03/03 Q1020 NOSIG
2026-04-22 05:00:00,METAR LJLJ 220500Z 00000KT 9999 MIFG VCFG FEW001 SCT070 03/02 Q1020 NOSIG
2026-04-22 04:30:00,METAR LJLJ 220430Z VRB01KT 9999 0500SE R30/1500D PRFG FEW070 03/02 Q1020 NOSIG
2026-04-22 04:00:00,METAR LJLJ 220400Z VRB01KT 9999 0500SE R30/1200U PRFG SCT001 SCT080 02/02 Q1020 NOSIG
2026-04-22 03:30:00,METAR LJLJ 220330Z VRB01KT 9999 MIFG FEW002 SCT080 02/01 Q1019 NOSIG
2026-04-22 03:00:00,METAR LJLJ 220300Z 00000KT 9999 MIFG FEW050 SCT082 02/02 Q1019 NOSIG
2026-04-22 02:30:00,METAR LJLJ 220230Z VRB01KT 9999 MIFG FEW050 SCT082 02/02 Q1020 NOSIG
2026-04-22 02:00:00,METAR LJLJ 220200Z 00000KT 9999 MIFG FEW050 SCT082 03/03 Q1020 NOSIG
2026-04-22 01:30:00,METAR LJLJ 220130Z VRB01KT 9999 SCT050 04/03 Q1020 NOSIG
2026-04-22 01:00:00,METAR LJLJ 220100Z VRB01KT 9999 SCT050 04/03 Q1020 NOSIG
2026-04-22 00:30:00,METAR LJLJ 220030Z VRB01KT 9999 SCT030 BKN100 04/03 Q1020 NOSIG
2026-04-22 00:00:00,METAR LJLJ 220000Z VRB01KT 9999 SCT030 BKN100 04/04 Q1020 NOSIG
2026-04-21 23:30:00,METAR LJLJ 212330Z VRB01KT 9999 SCT050 BKN110 06/05 Q1019 NOSIG
2026-04-21 23:00:00,METAR LJLJ 212300Z VRB01KT 9999 SCT050 BKN110 06/05 Q1019 NOSIG
2026-04-21 22:30:00,METAR LJLJ 212230Z 06003KT 020V080 9999 FEW040 SCT050 BKN110 06/04 Q1019 NOSIG
2026-04-21 22:00:00,METAR LJLJ 212200Z 06003KT 020V080 9999 FEW040 SCT050 BKN110 06/04 Q1019 NOSIG
2026-04-21 21:30:00,METAR LJLJ 212130Z VRB02KT 9999 FEW040TCU SCT050 BKN110 06/05 Q1019 NOSIG
2026-04-21 21:00:00,METAR LJLJ 212100Z VRB02KT 9999 FEW040TCU SCT050 BKN110 07/05 Q1019 NOSIG
2026-04-21 20:30:00,METAR LJLJ 212030Z 12003KT 070V190 9999 FEW040TCU SCT050 BKN110 07/05 Q1019 NOSIG
2026-04-21 20:00:00,METAR LJLJ 212000Z 00000KT 9999 VCSH FEW040TCU BKN050 07/07 Q1018 NOSIG
2026-04-21 19:30:00,METAR LJLJ 211930Z 00000KT 9999 -SHRA FEW040TCU BKN050 08/07 Q1018 NOSIG
2026-04-21 19:00:00,METAR LJLJ 211900Z VRB02KT 9999 VCSH FEW040TCU BKN050 08/07 Q1018 NOSIG
2026-04-21 18:30:00,METAR LJLJ 211830Z VRB02KT 9999 VCSH FEW040TCU BKN050 08/06 Q1017 NOSIG
2026-04-21 18:00:00,METAR LJLJ 211800Z 17006KT 9999 -SHRA FEW040TCU BKN050 08/06 Q1017 NOSIG
2026-04-21 17:30:00,METAR LJLJ 211730Z 14009KT 9999 -SHRA SCT043TCU BKN060 BKN100 08/06 Q1016 NOSIG
2026-04-21 17:00:00,METAR LJLJ 211700Z 11011KT 9999 -SHRA SCT043TCU BKN060 BKN100 10/05 Q1016 NOSIG
2026-04-21 16:30:00,METAR LJLJ 211630Z 12013KT 9999 FEW040TCU BKN065 BKN100 10/05 Q1015 NOSIG
2026-04-21 16:00:00,METAR LJLJ 211600Z 12013KT 9999 -SHRA FEW040CB BKN065 BKN100 11/04 Q1015 NOSIG
2026-04-21 15:30:00,METAR LJLJ 211530Z 14009KT 9999 FEW040 SCT070 BKN100 13/05 Q1014 NOSIG
2026-04-21 15:00:00,METAR LJLJ 211500Z 12010KT 9999 FEW033TCU FEW050 BKN100 13/05 Q1014 NOSIG
2026-04-21 14:30:00,METAR LJLJ 211430Z 13011KT 9999 VCSH FEW033CB FEW050 BKN100 13/05 Q1014 NOSIG
2026-04-21 14:00:00,METAR LJLJ 211400Z 11012KT 9999 FEW033TCU FEW050 BKN100 13/04 Q1014 NOSIG
2026-04-21 13:30:00,METAR LJLJ 211330Z 10007KT 060V130 9999 FEW033CB FEW050 SCT100 15/05 Q1014 NOSIG
2026-04-21 13:00:00,METAR LJLJ 211300Z 13004KT 070V200 9999 FEW023 FEW030TCU SCT045 15/06 Q1014 NOSIG
2026-04-21 12:30:00,METAR LJLJ 211230Z 13004KT 090V180 9999 FEW030TCU SCT045 14/07 Q1014 NOSIG
2026-04-21 12:00:00,METAR LJLJ 211200Z 11004KT 060V140 9999 FEW030TCU SCT045 BKN100 13/06 Q1014 NOSIG
2026-04-21 11:30:00,METAR LJLJ 211130Z 10003KT 050V150 9999 VCSH FEW030TCU SCT060 BKN100 14/07 Q1014 NOSIG
2026-04-21 11:00:00,METAR LJLJ 211100Z VRB02KT 9999 FEW023TCU SCT027 BKN035 13/06 Q1015 NOSIG
2026-04-21 10:30:00,METAR LJLJ 211030Z VRB02KT 9999 FEW020 SCT027 BKN035 13/06 Q1015 NOSIG
2026-04-21 10:00:00,METAR LJLJ 211000Z VRB02KT 9999 FEW010 SCT025 BKN035 12/07 Q1015 NOSIG
2026-04-21 09:30:00,METAR LJLJ 210930Z 28003KT 200V340 9999 FEW010 SCT025 BKN035 12/08 Q1015 NOSIG
2026-04-21 09:00:00,METAR LJLJ 210900Z VRB02KT 9999 FEW010 SCT017 BKN035 11/07 Q1015 NOSIG
2026-04-21 08:30:00,METAR LJLJ 210830Z VRB02KT 9999 FEW007 SCT013 BKN027 10/07 Q1016 NOSIG
2026-04-21 08:00:00,METAR LJLJ 210800Z VRB02KT 9999 FEW002 SCT007 BKN013 09/07 Q1016 NOSIG
2026-04-21 07:30:00,METAR LJLJ 210730Z VRB02KT 9999 FEW002 SCT007 BKN013 09/07 Q1016 NOSIG
2026-04-21 07:00:00,METAR LJLJ 210700Z 33003KT 290V360 9999 FEW002 SCT007 BKN013 09/07 Q1016 NOSIG
2026-04-21 06:30:00,METAR LJLJ 210630Z VRB01KT 9999 FEW002 SCT007 BKN013 08/07 Q1016 NOSIG
2026-04-21 06:00:00,METAR LJLJ 210600Z VRB02KT 9999 FEW002 SCT007 BKN013 08/07 Q1015 NOSIG
2026-04-21 05:30:00,METAR LJLJ 210530Z 00000KT 9999 FEW001 SCT007 BKN013 07/07 Q1015 NOSIG
2026-04-21 05:00:00,METAR LJLJ 210500Z VRB02KT 9999 FEW001 BKN013 07/06 Q1015 NOSIG
2026-04-21 04:30:00,METAR LJLJ 210430Z VRB02KT 9999 FEW003 BKN013 06/06 Q1015 NOSIG
2026-04-21 04:00:00,METAR LJLJ 210400Z VRB01KT 9999 FEW003 BKN013 06/06 Q1015 NOSIG
2026-04-21 03:30:00,METAR LJLJ 210330Z 35001KT 9999 FEW002 BKN012 07/06 Q1015 NOSIG
2026-04-21 03:00:00,METAR LJLJ 210300Z VRB01KT 9000 FEW002 SCT004 BKN012 07/06 Q1015 NOSIG
2026-04-21 02:30:00,METAR LJLJ 210230Z 27004KT 5000 BR FEW002 SCT004 BKN012 08/08 Q1015 NOSIG
2026-04-21 02:00:00,METAR LJLJ 210200Z 27004KT 5000 BR FEW002 SCT004 BKN012 08/08 Q1015 NOSIG
2026-04-21 01:30:00,METAR LJLJ 210130Z VRB01KT 5000 BR FEW002 SCT004 BKN012 08/08 Q1015 NOSIG
2026-04-21 01:00:00,METAR LJLJ 210100Z VRB01KT 6000 FEW002 BKN004 08/08 Q1015 NOSIG
2026-04-21 00:30:00,METAR LJLJ 210030Z 34003KT 6000 3000SE FEW002 BKN004 08/08 Q1015 NOSIG
2026-04-21 00:00:00,METAR LJLJ 210000Z 32002KT 5000 2500SE BR FEW002 BKN005 08/08 Q1015 NOSIG
2026-04-20 23:30:00,METAR LJLJ 202330Z 00000KT 3000 1500SE BR FEW001 BKN005 08/08 Q1015 NOSIG
2026-04-20 23:00:00,METAR LJLJ 202300Z VRB01KT 3000 0800SE R30/0900D BCFG BR FEW001 BKN004 08/08 Q1015 NOSIG
2026-04-20 22:30:00,METAR LJLJ 202230Z VRB01KT 3000 1500SE R30/1200N BR FEW001 BKN004 08/08 Q1015 NOSIG
2026-04-20 22:00:00,METAR LJLJ 202200Z 31003KT 5000 BR FEW001 SCT003 BKN100 08/08 Q1015 NOSIG
2026-04-20 21:30:00,METAR LJLJ 202130Z 19003KT 8000 FEW001 SCT004 BKN090 09/08 Q1015 NOSIG
2026-04-20 21:00:00,METAR LJLJ 202100Z 06002KT 8000 -SHRA FEW007 FEW043TCU SCT050 BKN068 09/08 Q1015 NOSIG
2026-04-20 20:30:00,METAR LJLJ 202030Z 02002KT 7000 -SHRA FEW004 SCT018 FEW037TCU OVC048 09/08 Q1015 RESHRA NOSIG
2026-04-20 20:00:00,METAR LJLJ 202000Z 34002KT 7000 SHRA FEW004 SCT018 FEW037TCU OVC045 09/08 Q1015 NOSIG
2026-04-20 19:30:00,METAR LJLJ 201930Z 30003KT 9999 -RA FEW004 BKN015 OVC033 09/08 Q1015 NOSIG
2026-04-20 19:00:00,METAR LJLJ 201900Z VRB02KT 9999 FEW004 SCT017 BKN075 09/08 Q1015 NOSIG
2026-04-20 18:30:00,METAR LJLJ 201830Z 17003KT 140V280 9999 -SHRA FEW004 FEW040TCU SCT055 BKN075 09/08 Q1014 NOSIG
2026-04-20 18:00:00,METAR LJLJ 201800Z 18005KT 9999 -SHRA FEW005 FEW040TCU SCT045 BKN055 09/08 Q1014 NOSIG
2026-04-20 17:30:00,METAR LJLJ 201730Z 14004KT 080V170 9999 -SHRA FEW005 FEW035TCU BKN065 09/08 Q1014 RESHRA NOSIG
2026-04-20 17:00:00,METAR LJLJ 201700Z 08004KT 9999 -SHRA FEW005 SCT035TCU BKN045 09/08 Q1014 RESHRA NOSIG
2026-04-20 16:30:00,METAR LJLJ 201630Z 11004KT 060V140 9999 SHRA FEW007 SCT035TCU BKN050 09/08 Q1014 NOSIG
2026-04-20 16:00:00,METAR LJLJ 201600Z 11006KT 9999 VCSH FEW007 FEW030TCU BKN060 09/08 Q1014 NOSIG
2026-04-20 15:30:00,METAR LJLJ 201530Z 14009KT 110V170 9999 -SHRA VCTS FEW007 SCT025CB BKN045 09/08 Q1013 RETSRA NOSIG
2026-04-20 15:00:00,METAR LJLJ 201500Z 13012KT 9999 TSRA FEW007 BKN025CB BKN045 10/08 Q1012 RETSRA NOSIG
2026-04-20 14:30:00,METAR LJLJ 201430Z 13013KT 9999 +TSRA FEW007 BKN025CB OVC035 10/08 Q1012 NOSIG
2026-04-20 14:00:00,METAR LJLJ 201400Z 10009KT 9999 VCTS BKN017 FEW030CB OVC035 12/10 Q1012 NOSIG
2026-04-20 13:30:00,METAR LJLJ 201330Z 10008KT 9999 -SHRA FEW017 SCT023TCU BKN045 13/10 Q1012 NOSIG
2026-04-20 13:00:00,METAR LJLJ 201300Z COR 11009KT 9999 VCSH FEW017 SCT030TCU BKN045 13/10 Q1012 NOSIG
2026-04-20 12:30:00,METAR LJLJ 201230Z 11010KT 9999 SCT017 FEW035TCU BKN045 14/10 Q1013 NOSIG
2026-04-20 12:00:00,METAR LJLJ 201200Z 11008KT 080V140 9999 SCT017 FEW035CB BKN045 14/10 Q1013 NOSIG
2026-04-20 11:30:00,METAR LJLJ 201130Z 11007KT 9999 VCTS FEW013 FEW035CB BKN200 14/10 Q1013 NOSIG
2026-04-20 11:00:00,METAR LJLJ 201100Z 09006KT 070V130 9999 FEW010 FEW035CB BKN200 13/11 Q1014 RESHRA NOSIG
2026-04-20 10:30:00,METAR LJLJ 201030Z 11007KT 9999 -SHRA FEW010 FEW021TCU BKN040 12/10 Q1014 RESHRA NOSIG
2026-04-20 10:00:00,METAR LJLJ 201000Z 09007KT 9999 -SHRA FEW017 SCT030TCU BKN035 14/09 Q1014 NOSIG
2026-04-20 09:30:00,METAR LJLJ 200930Z 11007KT 070V140 9999 -RA FEW017 FEW030CB BKN035 14/10 Q1014 NOSIG
2026-04-20 09:00:00,METAR LJLJ 200900Z 10007KT 060V140 9999 FEW017 SCT033 BKN065 14/09 Q1014 NOSIG
2026-04-20 08:30:00,METAR LJLJ 200830Z 07004KT 050V110 9999 FEW010 BKN037 13/10 Q1015 NOSIG
2026-04-20 08:00:00,METAR LJLJ 200800Z 12003KT 080V200 9999 FEW007 BKN037 12/09 Q1015 NOSIG
2026-04-20 07:30:00,METAR LJLJ 200730Z VRB02KT 9999 FEW007 BKN037 11/09 Q1015 NOSIG
2026-04-20 07:00:00,METAR LJLJ 200700Z VRB02KT 9999 FEW027CB BKN035 BKN065 10/08 Q1015 NOSIG
2026-04-20 06:30:00,METAR LJLJ 200630Z VRB01KT 9999 -RA FEW027 BKN040 BKN070 10/08 Q1015 NOSIG
2026-04-20 06:00:00,METAR LJLJ 200600Z VRB02KT 9999 -RA FEW025 BKN040 BKN100 09/08 Q1015 NOSIG
2026-04-20 05:30:00,METAR LJLJ 200530Z VRB01KT 9999 FEW025 SCT040 BKN100 08/07 Q1015 NOSIG
2026-04-20 05:00:00,METAR LJLJ 200500Z VRB01KT 9999 SCT060 BKN100 07/06 Q1015 NOSIG
2026-04-20 04:30:00,METAR LJLJ 200430Z VRB01KT 9999 BKN065 07/06 Q1015 NOSIG
2026-04-20 04:00:00,METAR LJLJ 200400Z VRB01KT 9999 BKN065 06/06 Q1015 NOSIG
2026-04-20 03:30:00,METAR LJLJ 200330Z VRB01KT 9999 SCT070 BKN240 07/06 Q1015 NOSIG
2026-04-20 03:00:00,METAR LJLJ 200300Z 31003KT 9999 SCT080 BKN240 07/06 Q1015 NOSIG
2026-04-20 02:30:00,METAR LJLJ 200230Z 30002KT 9999 SCT080 BKN240 08/07 Q1015 NOSIG
2026-04-20 02:00:00,METAR LJLJ 200200Z 30002KT 9999 SCT080 BKN240 08/07 Q1015 NOSIG
2026-04-20 01:30:00,METAR LJLJ 200130Z VRB01KT 9999 SCT080 BKN150 09/08 Q1015 NOSIG
2026-04-20 01:00:00,METAR LJLJ 200100Z 21001KT 9999 SCT080 BKN150 09/08 Q1015 NOSIG
2026-04-20 00:30:00,METAR LJLJ 200030Z 24003KT 9999 SCT070 BKN170 10/08 Q1015 NOSIG
2026-04-20 00:00:00,METAR LJLJ 200000Z 24003KT 210V270 9999 SCT070 BKN170 10/08 Q1015 NOSIG
2026-04-19 23:30:00,METAR LJLJ 192330Z VRB03KT 9999 SCT070 BKN170 09/08 Q1016 NOSIG
2026-04-19 23:00:00,METAR LJLJ 192300Z 30003KT 280V360 9999 SCT070 BKN170 09/08 Q1016 NOSIG
2026-04-19 22:30:00,METAR LJLJ 192230Z VRB02KT 9999 SCT070 BKN180 10/08 Q1015 NOSIG
2026-04-19 22:00:00,METAR LJLJ 192200Z 31002KT 9999 SCT070 BKN210 10/08 Q1015 NOSIG
2026-04-19 21:30:00,METAR LJLJ 192130Z 31003KT 260V350 9999 BKN080 11/09 Q1016 NOSIG
2026-04-19 21:00:00,METAR LJLJ 192100Z 31005KT 9999 BKN080 11/08 Q1015 NOSIG
2026-04-19 20:30:00,METAR LJLJ 192030Z 29004KT 9999 BKN090 12/09 Q1015 NOSIG
2026-04-19 20:00:00,METAR LJLJ 192000Z 28005KT 9999 FEW050 BKN090 12/09 Q1015 NOSIG
2026-04-19 19:30:00,METAR LJLJ 191930Z 28005KT 9999 FEW050 BKN090 13/09 Q1015 NOSIG
2026-04-19 19:00:00,METAR LJLJ 191900Z 29008KT 9999 FEW050 SCT090 BKN130 13/08 Q1015 NOSIG
2026-04-19 18:30:00,METAR LJLJ 191830Z 29007KT 9999 FEW047 SCT075 BKN110 13/09 Q1015 NOSIG
2026-04-19 18:00:00,METAR LJLJ 191800Z 31009KT 9999 FEW047 SCT075 BKN110 13/09 Q1014 NOSIG
2026-04-19 17:30:00,METAR LJLJ 191730Z 22004KT 180V270 9999 FEW047 SCT065 BKN250 14/08 Q1014 NOSIG
2026-04-19 17:00:00,METAR LJLJ 191700Z 29006KT 9999 FEW043 SCT070 BKN250 14/09 Q1014 NOSIG
2026-04-19 16:30:00,METAR LJLJ 191630Z 30010KT 9999 -RA FEW043 SCT083 BKN250 14/08 Q1014 NOSIG
2026-04-19 16:00:00,METAR LJLJ 191600Z 30010KT 9999 FEW043 SCT100 BKN250 15/08 Q1014 NOSIG
2026-04-19 15:30:00,METAR LJLJ 191530Z 32010KT 9999 FEW030 SCT110 BKN250 16/08 Q1015 NOSIG
2026-04-19 15:00:00,METAR LJLJ 191500Z 32017KT 9999 -RA FEW033 SCT068 BKN240 17/08 Q1014 NOSIG
2026-04-19 14:30:00,METAR LJLJ 191430Z 26012G24KT 9999 FEW043 FEW060CB SCT075 BKN240 19/06 Q1014 NOSIG
2026-04-19 14:00:00,METAR LJLJ 191400Z 25006G17KT 200V300 9999 FEW043 FEW055CB SCT075 BKN250 19/07 Q1014 NOSIG
2026-04-19 13:30:00,METAR LJLJ 191330Z 24014KT 210V270 9999 VCTS FEW043 FEW055CB BKN250 19/07 Q1014 NOSIG
2026-04-19 13:00:00,METAR LJLJ 191300Z 23016KT 190V260 9999 VCTS FEW050CB SCT060 BKN250 20/06 Q1013 NOSIG
2026-04-19 12:30:00,METAR LJLJ 191230Z 26013KT 210V290 9999 FEW050 SCT060 BKN250 23/08 Q1013 NOSIG
2026-04-19 12:00:00,METAR LJLJ 191200Z 21009KT 150V260 9999 FEW055 SCT250 23/08 Q1014 NOSIG
2026-04-19 11:30:00,METAR LJLJ 191130Z 26002KT 9999 FEW055 SCT250 22/09 Q1014 NOSIG
2026-04-19 11:00:00,METAR LJLJ 191100Z 11002KT 9999 FEW060 21/09 Q1015 NOSIG
2026-04-19 10:30:00,METAR LJLJ 191030Z 09006KT 050V110 9999 FEW070 SCT250 20/08 Q1015 NOSIG
2026-04-19 10:00:00,METAR LJLJ 191000Z VRB03KT 9999 FEW070 SCT250 20/08 Q1015 NOSIG
2026-04-19 09:30:00,METAR LJLJ 190930Z 08003KT 030V120 9999 FEW070 SCT250 18/08 Q1016 NOSIG
2026-04-19 09:00:00,METAR LJLJ 190900Z 09003KT 040V150 9999 FEW070 SCT250 17/08 Q1016 NOSIG
2026-04-19 08:30:00,METAR LJLJ 190830Z 10003KT 050V160 9999 FEW070 SCT250 16/09 Q1016 NOSIG
2026-04-19 08:00:00,METAR LJLJ 190800Z VRB01KT 9999 FEW070 SCT250 15/08 Q1017 NOSIG
2026-04-19 07:30:00,METAR LJLJ 190730Z VRB02KT 9999 FEW070 SCT250 14/08 Q1017 NOSIG
2026-04-19 07:00:00,METAR LJLJ 190700Z VRB01KT 9999 FEW070 SCT250 12/07 Q1017 NOSIG
2026-04-19 06:30:00,METAR LJLJ 190630Z 28001KT CAVOK 10/07 Q1017 NOSIG
2026-04-19 06:00:00,METAR LJLJ 190600Z VRB02KT CAVOK 09/06 Q1018 NOSIG
2026-04-19 05:30:00,METAR LJLJ 190530Z VRB01KT CAVOK 06/05 Q1018 NOSIG
2026-04-19 05:00:00,METAR LJLJ 190500Z VRB01KT CAVOK 05/04 Q1018 NOSIG
2026-04-19 04:30:00,METAR LJLJ 190430Z VRB01KT CAVOK 04/04 Q1018 NOSIG
2026-04-19 04:00:00,METAR LJLJ 190400Z VRB01KT CAVOK 04/03 Q1018 NOSIG
2026-04-19 03:30:00,METAR LJLJ 190330Z 30002KT CAVOK 05/04 Q1018 NOSIG
2026-04-19 03:00:00,METAR LJLJ 190300Z VRB02KT CAVOK 05/04 Q1018 NOSIG
2026-04-19 02:30:00,METAR LJLJ 190230Z VRB01KT CAVOK 05/04 Q1018 NOSIG
2026-04-19 02:00:00,METAR LJLJ 190200Z 29003KT CAVOK 05/04 Q1018 NOSIG
2026-04-19 01:30:00,METAR LJLJ 190130Z 29002KT CAVOK 06/05 Q1018 NOSIG
2026-04-19 01:00:00,METAR LJLJ 190100Z 28002KT 9999 FEW070 06/05 Q1018 NOSIG
2026-04-19 00:30:00,METAR LJLJ 190030Z 29002KT 9999 FEW070 07/05 Q1019 NOSIG
2026-04-19 00:00:00,METAR LJLJ 190000Z 26002KT 9999 FEW070 07/06 Q1019 NOSIG
2026-04-18 23:30:00,METAR LJLJ 182330Z VRB01KT 9999 FEW070 08/06 Q1019 NOSIG
2026-04-18 23:00:00,METAR LJLJ 182300Z VRB02KT 9999 FEW070 08/06 Q1019 NOSIG
2026-04-18 22:30:00,METAR LJLJ 182230Z 27002KT 9999 FEW070 09/06 Q1019 NOSIG
2026-04-18 22:00:00,METAR LJLJ 182200Z 35002KT 9999 FEW070 09/06 Q1019 NOSIG
2026-04-18 21:30:00,METAR LJLJ 182130Z 30002KT 9999 FEW080 10/06 Q1019 NOSIG
2026-04-18 21:00:00,METAR LJLJ 182100Z 27003KT 220V290 9999 FEW080 11/07 Q1019 NOSIG
2026-04-18 20:30:00,METAR LJLJ 182030Z 30003KT 260V320 CAVOK 11/07 Q1019 NOSIG
2026-04-18 20:00:00,METAR LJLJ 182000Z VRB01KT CAVOK 13/08 Q1019 NOSIG
2026-04-18 19:30:00,METAR LJLJ 181930Z 07001KT CAVOK 14/08 Q1018 NOSIG
2026-04-18 19:00:00,METAR LJLJ 181900Z VRB01KT CAVOK 15/07 Q1018 NOSIG
2026-04-18 18:30:00,METAR LJLJ 181830Z 10005KT 9999 FEW060 15/07 Q1018 NOSIG
2026-04-18 18:00:00,METAR LJLJ 181800Z 12004KT 090V150 9999 FEW060 SCT110 17/07 Q1017 NOSIG
2026-04-18 17:30:00,METAR LJLJ 181730Z 10005KT 9999 FEW060 BKN110 18/09 Q1017 NOSIG
2026-04-18 17:00:00,METAR LJLJ 181700Z 09004KT 9999 FEW060 BKN110 19/09 Q1017 NOSIG
2026-04-18 16:30:00,METAR LJLJ 181630Z 10004KT 9999 FEW070 BKN110 19/09 Q1017 NOSIG
2026-04-18 16:00:00,METAR LJLJ 181600Z 08004KT 9999 FEW070 SCT085 BKN110 19/08 Q1017 NOSIG
2026-04-18 15:00:00,METAR LJLJ 181500Z 12007KT 9999 FEW055 BKN100 20/07 Q1017 NOSIG
2026-04-18 14:30:00,METAR LJLJ 181430Z 12003KT 060V170 9999 FEW055 SCT095 21/06 Q1017 NOSIG
2026-04-18 14:00:00,METAR LJLJ 181400Z 11007KT 080V140 9999 FEW055 SCT095 21/05 Q1017 NOSIG
2026-04-18 13:30:00,METAR LJLJ 181330Z 07006KT 020V100 9999 FEW055 SCT095 21/07 Q1018 NOSIG
2026-04-18 13:00:00,METAR LJLJ 181300Z 08007KT 9999 FEW055 SCT095 21/06 Q1018 NOSIG
2026-04-18 12:30:00,METAR LJLJ 181230Z 10003KT 9999 FEW055 SCT200 21/06 Q1018 NOSIG
2026-04-18 12:00:00,METAR LJLJ 181200Z 11005KT 010V150 9999 FEW055 SCT200 21/07 Q1019 NOSIG
2026-04-18 11:30:00,METAR LJLJ 181130Z 16005KT 110V200 9999 FEW050 21/08 Q1019 NOSIG
2026-04-18 11:00:00,METAR LJLJ 181100Z 13004KT 070V200 9999 FEW050 20/08 Q1019 NOSIG
2026-04-18 10:30:00,METAR LJLJ 181030Z VRB03KT 9999 FEW070 19/06 Q1019 NOSIG
2026-04-18 10:00:00,METAR LJLJ 181000Z 11005KT 070V170 9999 FEW070 19/07 Q1020 NOSIG
2026-04-18 09:30:00,METAR LJLJ 180930Z 08003KT 350V120 9999 FEW070 18/08 Q1020 NOSIG
2026-04-18 09:00:00,METAR LJLJ 180900Z 09003KT 030V150 9999 FEW070 18/06 Q1020 NOSIG
2026-04-18 08:30:00,METAR LJLJ 180830Z VRB02KT 9999 FEW070 17/06 Q1020 NOSIG
2026-04-18 08:00:00,METAR LJLJ 180800Z VRB01KT 9999 FEW070 15/06 Q1021 NOSIG
2026-04-18 07:30:00,METAR LJLJ 180730Z VRB01KT 9999 FEW070 13/07 Q1021 NOSIG
2026-04-18 07:00:00,METAR LJLJ 180700Z 31004KT 280V340 9999 FEW070 12/07 Q1021 NOSIG
2026-04-18 06:30:00,METAR LJLJ 180630Z VRB02KT 9999 FEW070 11/07 Q1021 NOSIG
2026-04-18 06:00:00,METAR LJLJ 180600Z VRB02KT 9999 FEW070 09/07 Q1021 NOSIG
2026-04-18 05:30:00,METAR LJLJ 180530Z 30003KT 260V320 9999 FEW070 06/06 Q1021 NOSIG
2026-04-18 05:00:00,METAR LJLJ 180500Z VRB01KT 9999 MIFG FEW060 05/05 Q1021 NOSIG
2026-04-18 04:30:00,METAR LJLJ 180430Z 29003KT 9999 FEW060 04/03 Q1020 NOSIG
2026-04-18 04:00:00,METAR LJLJ 180400Z 00000KT 9999 FEW080 05/04 Q1020 NOSIG
2026-04-18 03:30:00,METAR LJLJ 180330Z 23001KT 9999 FEW080 06/05 Q1020 NOSIG
2026-04-18 03:00:00,METAR LJLJ 180300Z 23001KT 9999 FEW080 06/05 Q1020 NOSIG
2026-04-18 02:30:00,METAR LJLJ 180230Z 00000KT 9999 FEW080 06/05 Q1020 NOSIG
2026-04-18 02:00:00,METAR LJLJ 180200Z 00000KT 9999 FEW080 06/05 Q1020 NOSIG
2026-04-18 01:30:00,METAR LJLJ 180130Z VRB02KT 9999 SCT070 07/05 Q1020 NOSIG
2026-04-18 01:00:00,METAR LJLJ 180100Z VRB02KT 9999 SCT070 07/05 Q1020 NOSIG
2026-04-18 00:30:00,METAR LJLJ 180030Z 31004KT 290V010 9999 SCT060 08/06 Q1020 NOSIG
2026-04-18 00:00:00,METAR LJLJ 180000Z 31004KT 290V010 9999 SCT060 08/06 Q1021 NOSIG
2026-04-17 23:30:00,METAR LJLJ 172330Z 26001KT 9999 SCT060 08/06 Q1021 NOSIG
2026-04-17 23:00:00,METAR LJLJ 172300Z 26001KT 9999 SCT060 08/06 Q1020 NOSIG
2026-04-17 22:30:00,METAR LJLJ 172230Z 31003KT 290V360 9999 FEW060 08/06 Q1020 NOSIG
2026-04-17 22:00:00,METAR LJLJ 172200Z 31003KT 290V360 9999 FEW060 09/06 Q1020 NOSIG
2026-04-17 21:30:00,METAR LJLJ 172130Z 29003KT 9999 SCT060 10/06 Q1020 NOSIG
2026-04-17 21:00:00,METAR LJLJ 172100Z 27004KT 9999 SCT060 11/07 Q1020 NOSIG
2026-04-17 20:30:00,METAR LJLJ 172030Z 30005KT 9999 FEW060 10/06 Q1020 NOSIG
2026-04-17 20:00:00,METAR LJLJ 172000Z 30005KT 9999 FEW060 12/07 Q1020 NOSIG
2026-04-17 19:30:00,METAR LJLJ 171930Z 08006KT 9999 FEW060 14/06 Q1019 NOSIG
2026-04-17 19:00:00,METAR LJLJ 171900Z 10007KT 9999 FEW060 16/05 Q1019 NOSIG
2026-04-17 18:30:00,METAR LJLJ 171830Z 13009KT 9999 FEW060 16/06 Q1019 NOSIG
2026-04-17 18:00:00,METAR LJLJ 171800Z 13004KT 9999 FEW060 16/07 Q1018 NOSIG
2026-04-17 17:30:00,METAR LJLJ 171730Z 11004KT 9999 FEW060 17/06 Q1018 NOSIG
2026-04-17 17:00:00,METAR LJLJ 171700Z 11010KT 9999 FEW060 SCT100 19/06 Q1018 NOSIG
2026-04-17 16:30:00,METAR LJLJ 171630Z 13005KT 9999 FEW060 SCT100 20/07 Q1018 NOSIG
2026-04-17 16:00:00,METAR LJLJ 171600Z 12006KT 100V160 9999 FEW060 SCT095 20/06 Q1018 NOSIG
2026-04-17 15:30:00,METAR LJLJ 171530Z 11004KT 040V210 9999 FEW060 SCT095 21/06 Q1018 NOSIG
2026-04-17 15:00:00,METAR LJLJ 171500Z 11007KT 070V150 9999 FEW060 SCT095 20/05 Q1018 NOSIG
2026-04-17 14:30:00,METAR LJLJ 171430Z VRB02KT 9999 SCT060 SCT090 22/06 Q1018 NOSIG
2026-04-17 14:00:00,METAR LJLJ 171400Z 11004KT 080V140 9999 SCT060 SCT090 21/06 Q1018 NOSIG
2026-04-17 13:30:00,METAR LJLJ 171330Z VRB02KT 9999 SCT060 SCT090 21/06 Q1019 NOSIG
2026-04-17 13:00:00,METAR LJLJ 171300Z 10005KT 030V150 9999 FEW047 SCT060 21/06 Q1019 NOSIG
2026-04-17 12:30:00,METAR LJLJ 171230Z 10005KT 070V150 9999 FEW047 SCT060 21/08 Q1019 NOSIG
2026-04-17 12:00:00,METAR LJLJ 171200Z 12006KT 080V170 9999 FEW040 SCT055 20/06 Q1019 NOSIG
2026-04-17 11:30:00,METAR LJLJ 171130Z 12005KT 070V170 9999 FEW040 SCT055 21/07 Q1019 NOSIG
2026-04-17 11:00:00,METAR LJLJ 171100Z 17004KT 110V200 9999 FEW040 SCT057 19/07 Q1020 NOSIG
2026-04-17 10:30:00,METAR LJLJ 171030Z 20003KT 9999 FEW040 SCT057 20/08 Q1020 NOSIG
2026-04-17 10:00:00,METAR LJLJ 171000Z VRB04KT 9999 FEW040 SCT057 20/08 Q1021 NOSIG
2026-04-17 09:30:00,METAR LJLJ 170930Z VRB02KT 9999 FEW060 19/10 Q1021 NOSIG
2026-04-17 09:00:00,METAR LJLJ 170900Z 11003KT 9999 FEW060 18/09 Q1021 NOSIG
2026-04-17 08:30:00,METAR LJLJ 170830Z 00000KT 9999 FEW060 17/09 Q1021 NOSIG
2026-04-17 08:00:00,METAR LJLJ 170800Z VRB01KT 9999 FEW060 16/11 Q1021 NOSIG
2026-04-17 07:30:00,METAR LJLJ 170730Z VRB01KT 9999 FEW060 15/08 Q1021 NOSIG
2026-04-17 07:00:00,METAR LJLJ 170700Z VRB02KT 9999 FEW060 13/09 Q1021 NOSIG
2026-04-17 06:30:00,METAR LJLJ 170630Z VRB02KT 9999 FEW060 11/09 Q1022 NOSIG
2026-04-17 06:00:00,METAR LJLJ 170600Z VRB01KT 9999 FEW060 10/09 Q1022 NOSIG
2026-04-17 05:30:00,METAR LJLJ 170530Z VRB01KT 9999 FEW001 08/07 Q1022 NOSIG
2026-04-17 05:00:00,METAR LJLJ 170500Z VRB01KT 9999 MIFG FEW001 06/06 Q1021 NOSIG
2026-04-17 04:30:00,METAR LJLJ 170430Z 30002KT 9999 MIFG FEW001 06/05 Q1021 NOSIG
2026-04-17 04:00:00,METAR LJLJ 170400Z VRB02KT 9999 0500S BCFG MIFG FEW001 06/05 Q1021 NOSIG
2026-04-17 03:30:00,METAR LJLJ 170330Z VRB02KT 9999 MIFG FEW065 06/06 Q1021 NOSIG
2026-04-17 03:00:00,METAR LJLJ 170300Z 05001KT 9999 MIFG FEW065 07/06 Q1021 NOSIG
2026-04-17 02:30:00,METAR LJLJ 170230Z 15002KT 9999 MIFG FEW065 08/07 Q1021 NOSIG
2026-04-17 02:00:00,METAR LJLJ 170200Z 15002KT 9999 SCT065 08/07 Q1021 NOSIG
2026-04-17 01:30:00,METAR LJLJ 170130Z VRB01KT 9999 BKN065 08/08 Q1021 NOSIG
2026-04-17 01:00:00,METAR LJLJ 170100Z VRB01KT 9999 BKN065 08/08 Q1021 NOSIG
2026-04-17 00:30:00,METAR LJLJ 170030Z VRB02KT 9999 BKN065 08/08 Q1022 NOSIG
2026-04-17 00:00:00,METAR LJLJ 170000Z VRB02KT 9999 BKN065 08/08 Q1022 NOSIG
2026-04-16 23:30:00,METAR LJLJ 162330Z VRB01KT 9999 BKN065 10/09 Q1022 NOSIG
2026-04-16 23:00:00,METAR LJLJ 162300Z 30003KT 9999 BKN060 10/09 Q1022 NOSIG
2026-04-16 22:30:00,METAR LJLJ 162230Z VRB01KT 9999 BKN060 10/09 Q1022 NOSIG
2026-04-16 22:00:00,METAR LJLJ 162200Z 00000KT 9999 BKN060 10/09 Q1022 NOSIG
2026-04-16 21:30:00,METAR LJLJ 162130Z 33003KT 9999 BKN060 10/10 Q1022 NOSIG
2026-04-16 21:00:00,METAR LJLJ 162100Z VRB02KT 9999 SCT060 11/10 Q1022 NOSIG
2026-04-16 20:30:00,METAR LJLJ 162030Z 30004KT 9999 SCT060 11/10 Q1021 NOSIG
2026-04-16 20:00:00,METAR LJLJ 162000Z VRB02KT 9999 BKN060 12/10 Q1021 NOSIG
2026-04-16 19:30:00,METAR LJLJ 161930Z VRB01KT 9999 BKN060 13/10 Q1021 NOSIG
2026-04-16 19:00:00,METAR LJLJ 161900Z 00000KT 9999 FEW050 SCT090 BKN120 13/10 Q1021 NOSIG
2026-04-16 18:30:00,METAR LJLJ 161830Z 00000KT 9999 FEW050 SCT090 BKN120 14/11 Q1020 NOSIG
2026-04-16 18:00:00,METAR LJLJ 161800Z 10003KT 060V150 9999 FEW050 SCT090 BKN120 16/10 Q1020 NOSIG
2026-04-16 17:30:00,METAR LJLJ 161730Z 07003KT 020V100 9999 FEW050 SCT090 BKN120 16/10 Q1020 NOSIG
2026-04-16 17:00:00,METAR LJLJ 161700Z 06003KT 010V100 9999 FEW043 SCT085 BKN120 17/11 Q1020 NOSIG
2026-04-16 16:30:00,METAR LJLJ 161630Z 36003KT 9999 FEW047 SCT080 BKN120 16/12 Q1020 NOSIG
2026-04-16 16:00:00,METAR LJLJ 161600Z 04003KT 360V110 9999 -SHRA FEW033TCU BKN060 16/12 Q1020 NOSIG
2026-04-16 15:30:00,METAR LJLJ 161530Z 01006KT 340V040 9999 -SHRA FEW033TCU BKN060 17/13 Q1020 NOSIG
2026-04-16 15:00:00,METAR LJLJ 161500Z 02006KT 340V070 9999 -SHRA FEW033TCU BKN060 18/11 Q1020 NOSIG
2026-04-16 14:30:00,METAR LJLJ 161430Z 08007KT 050V120 9999 VCSH FEW027TCU SCT070 19/10 Q1019 NOSIG
2026-04-16 14:00:00,METAR LJLJ 161400Z 08010KT 9999 VCSH FEW027TCU SCT060 18/11 Q1019 NOSIG
2026-04-16 13:30:00,METAR LJLJ 161330Z 04005KT 360V070 9999 -SHRA FEW027TCU BKN050 17/12 Q1020 NOSIG
2026-04-16 13:00:00,METAR LJLJ 161300Z 07007KT 010V120 9999 -SHRA FEW033TCU BKN050 19/09 Q1020 NOSIG
2026-04-16 12:30:00,METAR LJLJ 161230Z 12010KT 080V150 9999 VCSH FEW036TCU SCT065 20/10 Q1020 NOSIG
2026-04-16 12:00:00,METAR LJLJ 161200Z 12009KT 9999 VCSH FEW036TCU SCT065 20/10 Q1020 NOSIG
2026-04-16 11:30:00,METAR LJLJ 161130Z 11009KT 090V150 9999 FEW040 SCT065 20/10 Q1020 NOSIG
2026-04-16 11:00:00,METAR LJLJ 161100Z 11006KT 060V180 9999 FEW040 SCT065 19/10 Q1020 NOSIG
2026-04-16 10:30:00,METAR LJLJ 161030Z 10004KT 340V150 9999 FEW030 BKN060 19/11 Q1020 NOSIG
2026-04-16 10:00:00,METAR LJLJ 161000Z 11004KT 050V180 9999 FEW030 BKN056 18/11 Q1020 NOSIG
2026-04-16 09:30:00,METAR LJLJ 160930Z 12004KT 080V160 9999 FEW050 SCT210 18/09 Q1020 NOSIG
2026-04-16 09:00:00,METAR LJLJ 160900Z VRB02KT 9999 FEW046 SCT100 17/10 Q1020 NOSIG
2026-04-16 08:30:00,METAR LJLJ 160830Z VRB01KT 9999 FEW046 SCT100 16/10 Q1020 NOSIG
2026-04-16 08:00:00,METAR LJLJ 160800Z VRB02KT 9999 FEW046 SCT100 14/11 Q1021 NOSIG
2026-04-16 07:30:00,METAR LJLJ 160730Z VRB02KT 9999 FEW046 SCT100 13/11 Q1020 NOSIG
2026-04-16 07:00:00,METAR LJLJ 160700Z VRB02KT 9999 FEW003 BKN046 11/11 Q1021 NOSIG
2026-04-16 06:30:00,METAR LJLJ 160630Z VRB01KT 9000 FEW003 BKN046 10/10 Q1021 NOSIG
2026-04-16 06:00:00,METAR LJLJ 160600Z VRB01KT 8000 FEW003 OVC046 09/09 Q1021 NOSIG
2026-04-16 05:30:00,METAR LJLJ 160530Z VRB01KT 8000 FEW003 OVC043 08/08 Q1021 NOSIG
2026-04-16 05:00:00,METAR LJLJ 160500Z VRB01KT 7000 FEW003 OVC043 08/08 Q1021 NOSIG
2026-04-16 04:30:00,METAR LJLJ 160430Z 25002KT 7000 FEW003 OVC043 08/08 Q1020 NOSIG
2026-04-16 04:00:00,METAR LJLJ 160400Z 30003KT 6000 MIFG FEW002 BKN043 08/08 Q1020 NOSIG
2026-04-16 03:30:00,METAR LJLJ 160330Z VRB01KT 1600 BR BKN002 BKN043 08/07 Q1020 NOSIG
2026-04-16 03:00:00,METAR LJLJ 160300Z 30003KT 0400 R30/0900U FG VV001 08/07 Q1020 NOSIG
2026-04-16 02:30:00,METAR LJLJ 160230Z 30002KT 0400 R30/0300N FG BKN001 07/07 Q1020 NOSIG
2026-04-16 02:00:00,METAR LJLJ 160200Z VRB01KT 3000 0400SE R30/0250N PRFG BR FEW001 07/07 Q1020 NOSIG
2026-04-16 01:30:00,METAR LJLJ 160130Z 28002KT 5000 0600SE R30/0400N PRFG BR FEW001 06/06 Q1020 NOSIG
2026-04-16 01:00:00,METAR LJLJ 160100Z 28002KT 5000 0500SE R30/0400N PRFG BR FEW001 06/06 Q1020 NOSIG
2026-04-16 00:30:00,METAR LJLJ 160030Z VRB01KT 4000 0500SE R30/0450N PRFG BR FEW001 07/07 Q1020 NOSIG
2026-04-16 00:00:00,METAR LJLJ 160000Z 11001KT 5000 0500SE R30/0500D BCFG BR FEW001 07/06 Q1020 NOSIG
2026-04-15 23:30:00,METAR LJLJ 152330Z 09001KT 5000 2000SE MIFG BR FEW001 08/07 Q1020 NOSIG
2026-04-15 23:00:00,METAR LJLJ 152300Z 09001KT 6000 2000SE MIFG FEW001 08/07 Q1020 NOSIG
2026-04-15 22:30:00,METAR LJLJ 152230Z 00000KT 8000 MIFG FEW003 07/07 Q1021 NOSIG
2026-04-15 22:00:00,METAR LJLJ 152200Z 25002KT 9999 MIFG FEW003 08/08 Q1020 NOSIG
2026-04-15 21:30:00,METAR LJLJ 152130Z 29003KT 9999 MIFG FEW003 09/08 Q1021 NOSIG
2026-04-15 21:00:00,METAR LJLJ 152100Z VRB01KT 9999 MIFG FEW003 09/08 Q1021 NOSIG
2026-04-15 20:30:00,METAR LJLJ 152030Z 28002KT 9999 MIFG FEW043 10/09 Q1021 NOSIG
2026-04-15 20:00:00,METAR LJLJ 152000Z VRB01KT 9999 MIFG FEW043 11/10 Q1021 NOSIG
2026-04-15 19:30:00,METAR LJLJ 151930Z VRB01KT 9999 FEW043 SCT075 12/10 Q1021 NOSIG
2026-04-15 19:00:00,METAR LJLJ 151900Z VRB01KT 9999 FEW043 BKN075 13/11 Q1020 NOSIG
2026-04-15 18:30:00,METAR LJLJ 151830Z 00000KT 9999 FEW043 BKN075 13/12 Q1020 NOSIG
2026-04-15 18:00:00,METAR LJLJ 151800Z 31001KT 9999 FEW043 BKN075 14/12 Q1020 NOSIG
2026-04-15 17:30:00,METAR LJLJ 151730Z VRB01KT 9999 FEW028 SCT045 BKN075 15/11 Q1020 NOSIG
2026-04-15 17:00:00,METAR LJLJ 151700Z 36003KT 9999 FEW028 SCT045 BKN070 15/11 Q1020 NOSIG
2026-04-15 16:30:00,METAR LJLJ 151630Z 36003KT 9999 FEW026 BKN045 BKN065 15/11 Q1020 NOSIG
2026-04-15 16:00:00,METAR LJLJ 151600Z VRB02KT 9999 FEW026 BKN043 BKN075 15/11 Q1020 NOSIG
2026-04-15 15:30:00,METAR LJLJ 151530Z 00000KT 9999 FEW024 SCT040 BKN075 16/10 Q1020 NOSIG
2026-04-15 15:00:00,METAR LJLJ 151500Z VRB02KT 9999 SCT025 SCT042 BKN075 16/11 Q1020 NOSIG
2026-04-15 14:30:00,METAR LJLJ 151430Z VRB02KT 9999 SCT025 BKN076 17/11 Q1020 NOSIG
2026-04-15 14:00:00,METAR LJLJ 151400Z VRB02KT 9999 FEW017 SCT025 BKN075 16/09 Q1020 NOSIG
2026-04-15 13:30:00,METAR LJLJ 151330Z 28003KT 200V360 9999 SCT016 BKN045 15/10 Q1021 NOSIG
2026-04-15 13:00:00,METAR LJLJ 151300Z 29003KT 260V350 9999 SCT015 BKN050 15/10 Q1021 NOSIG
2026-04-15 12:30:00,METAR LJLJ 151230Z VRB02KT 9999 SCT015 BKN048 14/10 Q1021 NOSIG
2026-04-15 12:00:00,METAR LJLJ 151200Z 03002KT 9999 SCT013 BKN026 14/09 Q1021 NOSIG
2026-04-15 11:30:00,METAR LJLJ 151130Z 00000KT 9999 SCT011 BKN022 13/10 Q1022 NOSIG
2026-04-15 11:00:00,METAR LJLJ 151100Z VRB02KT 9999 OVC011 12/09 Q1022 NOSIG
2026-04-15 10:30:00,METAR LJLJ 151030Z VRB02KT 9999 OVC013 12/10 Q1022 NOSIG
2026-04-15 10:00:00,METAR LJLJ 151000Z VRB02KT 9999 BKN013 BKN045 12/10 Q1022 NOSIG
2026-04-15 09:30:00,METAR LJLJ 150930Z 00000KT 9999 BKN012 BKN045 12/10 Q1022 NOSIG
2026-04-15 09:00:00,METAR LJLJ 150900Z 27003KT 220V300 9999 BKN010 BKN045 11/10 Q1022 NOSIG
2026-04-15 08:30:00,METAR LJLJ 150830Z VRB02KT 8000 FEW004 BKN016 BKN043 11/10 Q1022 NOSIG
2026-04-15 08:00:00,METAR LJLJ 150800Z VRB02KT 6000 SCT006 BKN015 BKN040 11/10 Q1022 NOSIG
2026-04-15 07:30:00,METAR LJLJ 150730Z VRB01KT 6000 FEW004 BKN013 BKN040 11/10 Q1022 NOSIG
2026-04-15 07:00:00,METAR LJLJ 150700Z VRB01KT 4000 BR SCT003 BKN010 BKN040 10/10 Q1021 NOSIG
2026-04-15 06:30:00,METAR LJLJ 150630Z 36001KT 3000 BR BKN003 BKN042 10/09 Q1021 NOSIG
2026-04-15 06:00:00,METAR LJLJ 150600Z VRB02KT 2000 -RA BR FEW003 BKN012 10/09 Q1021 NOSIG
2026-04-15 05:30:00,METAR LJLJ 150530Z VRB01KT 2000 -RA BR FEW004 BKN012 10/09 Q1021 NOSIG
2026-04-15 05:00:00,METAR LJLJ 150500Z 00000KT 2000 -RA BR FEW006 BKN012 BKN040 10/09 Q1021 NOSIG
2026-04-15 04:30:00,METAR LJLJ 150430Z VRB02KT 2000 -RA BR FEW005 SCT020 BKN040 10/09 Q1020 NOSIG
2026-04-15 04:00:00,METAR LJLJ 150400Z VRB02KT 3000 -RA BR FEW002 SCT007 BKN040 10/09 Q1020 NOSIG
2026-04-15 03:30:00,METAR LJLJ 150330Z VRB01KT 3000 -RA BR FEW002 SCT007 BKN040 09/09 Q1020 NOSIG
2026-04-15 03:00:00,METAR LJLJ 150300Z VRB01KT 3000 BR FEW001 SCT022 BKN040 10/09 Q1020 NOSIG
2026-04-15 02:30:00,METAR LJLJ 150230Z VRB01KT 3000 -RA BR FEW001 SCT022 BKN040 10/09 Q1020 NOSIG
2026-04-15 02:00:00,METAR LJLJ 150200Z 00000KT 3000 -RA BR FEW001 SCT022 BKN040 10/09 Q1020 NOSIG
2026-04-15 01:30:00,METAR LJLJ 150130Z 00000KT 3000 BR FEW001 SCT022 BKN037 10/09 Q1020 NOSIG
2026-04-15 01:00:00,METAR LJLJ 150100Z VRB02KT 3000 BR FEW001 BKN035 BKN043 10/09 Q1020 NOSIG
2026-04-15 00:30:00,METAR LJLJ 150030Z VRB01KT 3000 BR FEW002 BKN035 BKN043 10/09 Q1020 NOSIG
2026-04-15 00:00:00,METAR LJLJ 150000Z VRB02KT 3000 -RA BR FEW002 BKN035 BKN043 10/09 Q1020 NOSIG
2026-04-14 23:30:00,METAR LJLJ 142330Z VRB01KT 4000 -RA BR FEW002 BKN030 OVC043 10/09 Q1020 NOSIG
2026-04-14 23:00:00,METAR LJLJ 142300Z 25001KT 4000 -RA BR FEW002 BKN030 OVC043 10/09 Q1020 NOSIG
2026-04-14 22:30:00,METAR LJLJ 142230Z VRB01KT 5000 -RA BR FEW002 BKN030 OVC043 10/09 Q1020 NOSIG
2026-04-14 22:00:00,METAR LJLJ 142200Z 00000KT 6000 -RA SCT014 SCT030 OVC043 10/09 Q1020 NOSIG
2026-04-14 21:30:00,METAR LJLJ 142130Z 25001KT 6000 -RA SCT014 SCT035 OVC043 10/09 Q1020 NOSIG
2026-04-14 21:00:00,METAR LJLJ 142100Z 22003KT 190V250 9999 -RA FEW014 SCT035 OVC043 10/09 Q1020 NOSIG
2026-04-14 20:30:00,METAR LJLJ 142030Z 24002KT 9999 FEW014 SCT035 OVC043 10/09 Q1020 NOSIG
2026-04-14 20:00:00,METAR LJLJ 142000Z 22003KT 200V260 9999 FEW014 OVC043 10/09 Q1019 NOSIG
2026-04-14 19:30:00,METAR LJLJ 141930Z 29002KT 9999 FEW014 OVC043 10/09 Q1019 NOSIG
2026-04-14 19:00:00,METAR LJLJ 141900Z 36001KT 9999 FEW014 OVC043 10/09 Q1019 NOSIG
2026-04-14 18:30:00,METAR LJLJ 141830Z VRB01KT 9999 FEW014 BKN040 BKN055 11/09 Q1018 NOSIG
2026-04-14 18:00:00,METAR LJLJ 141800Z 16004KT 130V210 9999 FEW023 BKN043 BKN055 11/09 Q1018 NOSIG
2026-04-14 17:30:00,METAR LJLJ 141730Z 21002KT 9999 FEW023 BKN043 BKN055 11/09 Q1018 NOSIG
2026-04-14 17:00:00,METAR LJLJ 141700Z VRB02KT 9999 BKN043 OVC055 11/08 Q1017 NOSIG
2026-04-14 16:30:00,METAR LJLJ 141630Z 19005KT 160V220 9999 BKN043 12/08 Q1017 NOSIG
2026-04-14 16:00:00,METAR LJLJ 141600Z 18007KT 9999 OVC043 12/08 Q1017 NOSIG
2026-04-14 15:30:00,METAR LJLJ 141530Z 16004KT 9999 FEW017 BKN040 13/08 Q1016 NOSIG
2026-04-14 15:00:00,METAR LJLJ 141500Z 16005KT 9999 FEW017 BKN040 14/08 Q1016 NOSIG
2026-04-14 14:30:00,METAR LJLJ 141430Z 11003KT 9999 FEW017 BKN040 14/08 Q1016 NOSIG
2026-04-14 14:00:00,METAR LJLJ 141400Z VRB02KT 9999 FEW017 SCT038 OVC053 14/07 Q1016 NOSIG
2026-04-14 13:30:00,METAR LJLJ 141330Z 24001KT 9999 FEW017 OVC055 13/08 Q1016 NOSIG
2026-04-14 13:00:00,METAR LJLJ 141300Z 28003KT 250V310 9999 FEW017 OVC060 13/08 Q1015 NOSIG
2026-04-14 12:30:00,METAR LJLJ 141230Z 32004KT 290V360 9999 FEW013 SCT042 OVC060 13/08 Q1016 NOSIG
2026-04-14 12:00:00,METAR LJLJ 141200Z VRB02KT 9999 FEW013 BKN042 12/07 Q1015 NOSIG
2026-04-14 11:30:00,METAR LJLJ 141130Z VRB02KT 9999 FEW013 BKN042 12/08 Q1015 NOSIG
2026-04-14 11:00:00,METAR LJLJ 141100Z VRB02KT 9999 FEW010 OVC040 12/07 Q1015 NOSIG
2026-04-14 10:30:00,METAR LJLJ 141030Z VRB01KT 9999 FEW010 OVC045 12/07 Q1015 NOSIG
2026-04-14 10:00:00,METAR LJLJ 141000Z VRB02KT 9999 FEW010 OVC045 12/08 Q1015 NOSIG
2026-04-14 09:30:00,METAR LJLJ 140930Z 00000KT 9999 FEW010 OVC045 12/07 Q1015 NOSIG
2026-04-14 09:00:00,METAR LJLJ 140900Z 25001KT 9999 FEW010 OVC045 11/07 Q1015 NOSIG
2026-04-14 08:30:00,METAR LJLJ 140830Z VRB01KT 9999 FEW010 OVC045 10/08 Q1015 NOSIG
2026-04-14 08:00:00,METAR LJLJ 140800Z VRB02KT 9999 FEW007 OVC045 10/08 Q1014 NOSIG
2026-04-14 07:30:00,METAR LJLJ 140730Z 13002KT 9999 -RA FEW020 OVC047 10/09 Q1014 NOSIG
2026-04-14 07:00:00,METAR LJLJ 140700Z 10001KT 9999 OVC047 10/09 Q1014 NOSIG
2026-04-14 06:30:00,METAR LJLJ 140630Z VRB01KT 9999 -RA FEW045 OVC055 10/09 Q1013 NOSIG
2026-04-14 06:00:00,METAR LJLJ 140600Z 24003KT 200V260 9999 -RA FEW045 OVC055 09/08 Q1013 NOSIG
2026-04-14 05:30:00,METAR LJLJ 140530Z 34003KT 300V360 9999 -RA BKN045 OVC060 09/08 Q1013 NOSIG
2026-04-14 05:00:00,METAR LJLJ 140500Z VRB02KT 9999 -RA BKN045 OVC065 09/08 Q1013 NOSIG
2026-04-14 04:30:00,METAR LJLJ 140430Z 28004KT 240V300 9999 -RA BKN050 OVC075 09/08 Q1012 NOSIG
2026-04-14 04:00:00,METAR LJLJ 140400Z 36003KT 9999 -RA OVC050 10/08 Q1012 NOSIG
2026-04-14 03:30:00,METAR LJLJ 140330Z 20001KT 9999 -RA OVC050 10/07 Q1012 NOSIG
2026-04-14 03:00:00,METAR LJLJ 140300Z VRB02KT 9999 OVC050 10/06 Q1012 NOSIG
2026-04-14 02:30:00,METAR LJLJ 140230Z 26002KT 9999 BKN050 BKN100 11/06 Q1011 NOSIG
2026-04-14 02:00:00,METAR LJLJ 140200Z 26002KT 9999 BKN050 BKN100 11/06 Q1011 NOSIG
2026-04-14 01:30:00,METAR LJLJ 140130Z 32001KT 9999 BKN050 BKN100 11/06 Q1011 NOSIG
2026-04-14 01:00:00,METAR LJLJ 140100Z 32001KT 9999 BKN050 BKN100 11/05 Q1011 NOSIG
2026-04-14 00:30:00,METAR LJLJ 140030Z VRB02KT 9999 BKN050 BKN100 11/06 Q1011 NOSIG
2026-04-14 00:00:00,METAR LJLJ 140000Z VRB02KT 9999 BKN050 OVC100 11/06 Q1011 NOSIG
2026-04-13 23:30:00,METAR LJLJ 132330Z 00000KT 9999 BKN050 OVC100 12/05 Q1011 NOSIG
2026-04-13 23:00:00,METAR LJLJ 132300Z 00000KT 9999 BKN050 OVC100 12/06 Q1011 NOSIG
2026-04-13 22:30:00,METAR LJLJ 132230Z VRB02KT 9999 BKN050 OVC100 12/06 Q1012 NOSIG
2026-04-13 22:00:00,METAR LJLJ 132200Z 30001KT 9999 BKN050 OVC100 12/06 Q1011 NOSIG
2026-04-13 21:30:00,METAR LJLJ 132130Z 31003KT 9999 BKN050 OVC100 12/05 Q1012 NOSIG
2026-04-13 21:00:00,METAR LJLJ 132100Z VRB02KT 9999 BKN050 OVC100 12/06 Q1011 NOSIG
2026-04-13 20:30:00,METAR LJLJ 132030Z 33002KT 9999 BKN050 13/05 Q1012 NOSIG
2026-04-13 20:00:00,METAR LJLJ 132000Z VRB01KT 9999 BKN050 13/04 Q1011 NOSIG
2026-04-13 19:30:00,METAR LJLJ 131930Z 08005KT 050V110 9999 FEW050 BKN085 12/04 Q1012 NOSIG
2026-04-13 19:00:00,METAR LJLJ 131900Z VRB02KT 9999 FEW070 BKN085 13/04 Q1011 NOSIG
2026-04-13 18:30:00,METAR LJLJ 131830Z VRB02KT 9999 FEW070 BKN085 14/04 Q1011 NOSIG
2026-04-13 18:00:00,METAR LJLJ 131800Z VRB01KT 9999 FEW070 BKN085 14/03 Q1011 NOSIG
2026-04-13 17:30:00,METAR LJLJ 131730Z 00000KT 9999 FEW070 BKN110 BKN170 14/03 Q1010 NOSIG
2026-04-13 17:00:00,METAR LJLJ 131700Z 13006KT 020V160 9999 FEW070 BKN110 BKN170 14/03 Q1010 NOSIG
2026-04-13 16:30:00,METAR LJLJ 131630Z 15010KT 9999 FEW070 BKN120 BKN200 15/03 Q1010 NOSIG
2026-04-13 16:00:00,METAR LJLJ 131600Z 15010KT 9999 FEW070 BKN120 BKN200 15/04 Q1010 NOSIG
2026-04-13 15:30:00,METAR LJLJ 131530Z 15010KT 9999 FEW070 BKN120 BKN200 16/04 Q1010 NOSIG
2026-04-13 15:00:00,METAR LJLJ 131500Z 13011KT 9999 FEW070 BKN120 BKN200 16/04 Q1010 NOSIG
2026-04-13 14:30:00,METAR LJLJ 131430Z 13010KT 9999 FEW070 BKN120 BKN200 16/05 Q1010 NOSIG
2026-04-13 14:00:00,METAR LJLJ 131400Z 14009KT 110V170 9999 FEW070 BKN120 BKN200 16/05 Q1010 NOSIG
2026-04-13 13:30:00,METAR LJLJ 131330Z 14013KT 9999 FEW070 BKN120 BKN200 16/04 Q1011 NOSIG
2026-04-13 13:00:00,METAR LJLJ 131300Z 14012KT 9999 FEW070 BKN120 BKN200 16/04 Q1011 NOSIG
2026-04-13 12:30:00,METAR LJLJ 131230Z 13010KT 9999 FEW070 BKN110 BKN200 16/04 Q1011 NOSIG
2026-04-13 12:00:00,METAR LJLJ 131200Z 13011KT 9999 FEW070 BKN110 BKN200 16/03 Q1011 NOSIG
2026-04-13 11:30:00,METAR LJLJ 131130Z 12011KT 9999 FEW070 SCT100 BKN200 16/04 Q1012 NOSIG
2026-04-13 11:00:00,METAR LJLJ 131100Z VRB02KT 9999 FEW070 SCT100 BKN200 16/05 Q1012 NOSIG
2026-04-13 10:30:00,METAR LJLJ 131030Z VRB02KT 9999 FEW070 SCT100 BKN200 15/05 Q1012 NOSIG
2026-04-13 10:00:00,METAR LJLJ 131000Z 12003KT 040V170 9999 FEW060 SCT075 BKN100 14/05 Q1012 NOSIG
2026-04-13 09:30:00,METAR LJLJ 130930Z 09004KT 070V150 9999 FEW060 SCT075 BKN100 14/04 Q1013 NOSIG
2026-04-13 09:00:00,METAR LJLJ 130900Z 07003KT 020V100 9999 FEW060 SCT075 BKN100 13/05 Q1013 NOSIG
2026-04-13 08:30:00,METAR LJLJ 130830Z 09004KT 040V140 9999 FEW060 SCT075 BKN120 13/05 Q1013 NOSIG
2026-04-13 08:00:00,METAR LJLJ 130800Z 11004KT 090V150 9999 FEW060 SCT075 BKN120 12/05 Q1013 NOSIG
2026-04-13 07:30:00,METAR LJLJ 130730Z 14004KT 100V170 9999 FEW060 SCT075 BKN120 11/05 Q1013 NOSIG
2026-04-13 07:00:00,METAR LJLJ 130700Z 11003KT 9999 FEW060 BKN120 11/07 Q1013 NOSIG
2026-04-13 06:30:00,METAR LJLJ 130630Z 09002KT 9999 FEW060 BKN120 10/08 Q1013 NOSIG
2026-04-13 06:00:00,METAR LJLJ 130600Z VRB01KT 9999 FEW060 BKN120 09/07 Q1013 NOSIG
2026-04-13 05:30:00,METAR LJLJ 130530Z VRB01KT 9999 FEW060 BKN160 08/06 Q1013 NOSIG
2026-04-13 05:00:00,METAR LJLJ 130500Z VRB01KT 9999 FEW065 BKN160 08/06 Q1013 NOSIG
2026-04-13 04:30:00,METAR LJLJ 130430Z VRB01KT 9999 FEW065 BKN160 08/06 Q1013 NOSIG
2026-04-13 04:00:00,METAR LJLJ 130400Z 00000KT 9999 SCT065 BKN150 09/06 Q1013 NOSIG
2026-04-13 03:30:00,METAR LJLJ 130330Z VRB01KT 9999 SCT065 BKN200 10/07 Q1013 NOSIG
2026-04-13 03:00:00,METAR LJLJ 130300Z 00000KT 9999 SCT065 BKN200 10/07 Q1013 NOSIG
2026-04-13 02:30:00,METAR LJLJ 130230Z VRB02KT 9999 SCT065 BKN200 10/07 Q1013 NOSIG
2026-04-13 02:00:00,METAR LJLJ 130200Z VRB02KT 9999 SCT065 BKN200 10/07 Q1013 NOSIG
2026-04-13 01:30:00,METAR LJLJ 130130Z VRB04KT 9999 SCT065 BKN220 11/07 Q1013 NOSIG
2026-04-13 01:00:00,METAR LJLJ 130100Z 15004KT 9999 BKN065 BKN220 12/07 Q1013 NOSIG
2026-04-13 00:30:00,METAR LJLJ 130030Z VRB04KT 9999 BKN055 12/08 Q1014 NOSIG
2026-04-13 00:00:00,METAR LJLJ 130000Z 08004KT 9999 BKN055 12/08 Q1014 NOSIG
2026-04-12 23:30:00,METAR LJLJ 122330Z VRB02KT 9999 BKN055 12/08 Q1014 NOSIG
2026-04-12 23:00:00,METAR LJLJ 122300Z 00000KT 9999 BKN055 12/08 Q1014 NOSIG
2026-04-12 22:30:00,METAR LJLJ 122230Z 14004KT 9999 BKN055 13/07 Q1014 NOSIG
2026-04-12 22:00:00,METAR LJLJ 122200Z 14004KT 9999 BKN055 13/07 Q1014 NOSIG
2026-04-12 21:30:00,METAR LJLJ 122130Z 13003KT 110V170 9999 BKN055 12/08 Q1014 NOSIG
2026-04-12 21:00:00,METAR LJLJ 122100Z 13003KT 9999 BKN055 12/08 Q1014 NOSIG
2026-04-12 20:30:00,METAR LJLJ 122030Z 11003KT 9999 SCT065 BKN250 13/08 Q1014 NOSIG
2026-04-12 20:00:00,METAR LJLJ 122000Z 10005KT 9999 BKN070 BKN250 12/08 Q1014 NOSIG
2026-04-12 19:30:00,METAR LJLJ 121930Z 11003KT 9999 BKN060 BKN250 13/08 Q1014 NOSIG
2026-04-12 19:00:00,METAR LJLJ 121900Z 10002KT 9999 BKN060 BKN250 14/08 Q1014 NOSIG
2026-04-12 18:30:00,METAR LJLJ 121830Z 10003KT 9999 SCT060 BKN250 14/08 Q1014 NOSIG
2026-04-12 18:00:00,METAR LJLJ 121800Z 13004KT 9999 SCT060 BKN250 15/08 Q1013 NOSIG
2026-04-12 17:30:00,METAR LJLJ 121730Z 13004KT 090V190 9999 FEW060 SCT100 BKN250 16/09 Q1013 NOSIG
2026-04-12 17:00:00,METAR LJLJ 121700Z 15003KT 120V190 9999 FEW060 SCT100 BKN250 17/09 Q1013 NOSIG
2026-04-12 16:30:00,METAR LJLJ 121630Z 08003KT 9999 FEW060 BKN250 18/08 Q1013 NOSIG
2026-04-12 16:00:00,METAR LJLJ 121600Z 08004KT 9999 FEW060 BKN250 18/09 Q1013 NOSIG
2026-04-12 15:00:00,METAR LJLJ 121500Z 10005KT 060V120 9999 FEW050 BKN200 19/08 Q1013 NOSIG
2026-04-12 14:30:00,METAR LJLJ 121430Z VRB02KT 9999 FEW050 BKN200 19/08 Q1013 NOSIG
2026-04-12 14:00:00,METAR LJLJ 121400Z 09004KT 040V140 9999 FEW050 BKN200 19/07 Q1013 NOSIG
2026-04-12 13:30:00,METAR LJLJ 121330Z 08004KT 030V120 9999 FEW050 BKN200 18/06 Q1013 NOSIG
2026-04-12 13:00:00,METAR LJLJ 121300Z 06005KT 020V090 9999 FEW050 BKN200 18/07 Q1014 NOSIG
2026-04-12 12:30:00,METAR LJLJ 121230Z 08004KT CAVOK 18/06 Q1014 NOSIG
2026-04-12 12:00:00,METAR LJLJ 121200Z 06003KT 340V120 CAVOK 17/06 Q1015 NOSIG
2026-04-12 11:30:00,METAR LJLJ 121130Z 07004KT 360V100 CAVOK 16/06 Q1015 NOSIG
2026-04-12 11:00:00,METAR LJLJ 121100Z 07004KT 330V110 CAVOK 16/05 Q1015 NOSIG
2026-04-12 10:30:00,METAR LJLJ 121030Z 08004KT 360V160 CAVOK 16/06 Q1016 NOSIG
2026-04-12 10:00:00,METAR LJLJ 121000Z 08003KT CAVOK 14/05 Q1016 NOSIG
2026-04-12 09:30:00,METAR LJLJ 120930Z 07003KT 350V120 CAVOK 14/05 Q1016 NOSIG
2026-04-12 09:00:00,METAR LJLJ 120900Z 09004KT 040V150 CAVOK 13/05 Q1016 NOSIG
2026-04-12 08:30:00,METAR LJLJ 120830Z 11003KT 060V150 9999 FEW040 BKN130 12/06 Q1017 NOSIG
2026-04-12 08:00:00,METAR LJLJ 120800Z 09001KT 9999 FEW040 BKN130 12/06 Q1017 NOSIG
2026-04-12 07:30:00,METAR LJLJ 120730Z 10003KT 060V160 CAVOK 10/06 Q1017 NOSIG
2026-04-12 07:00:00,METAR LJLJ 120700Z VRB01KT CAVOK 08/06 Q1017 NOSIG
2026-04-12 06:30:00,METAR LJLJ 120630Z VRB02KT CAVOK 06/05 Q1017 NOSIG
2026-04-12 06:00:00,METAR LJLJ 120600Z 00000KT CAVOK 05/04 Q1017 NOSIG
2026-04-12 05:30:00,METAR LJLJ 120530Z 00000KT CAVOK 04/03 Q1017 NOSIG
2026-04-12 05:00:00,METAR LJLJ 120500Z 28002KT CAVOK 03/02 Q1016 NOSIG
2026-04-12 04:30:00,METAR LJLJ 120430Z 00000KT CAVOK 02/01 Q1016 NOSIG
2026-04-12 04:00:00,METAR LJLJ 120400Z 28004KT CAVOK 03/02 Q1016 NOSIG
2026-04-12 03:30:00,METAR LJLJ 120330Z 32003KT 290V020 CAVOK 03/02 Q1016 NOSIG
2026-04-12 03:00:00,METAR LJLJ 120300Z VRB01KT CAVOK 04/03 Q1016 NOSIG
2026-04-12 02:30:00,METAR LJLJ 120230Z VRB01KT CAVOK 04/03 Q1016 NOSIG
2026-04-12 02:00:00,METAR LJLJ 120200Z VRB01KT CAVOK 04/03 Q1016 NOSIG
2026-04-12 01:30:00,METAR LJLJ 120130Z 28002KT CAVOK 05/03 Q1016 NOSIG
2026-04-12 01:00:00,METAR LJLJ 120100Z 28002KT CAVOK 05/03 Q1016 NOSIG
2026-04-12 00:30:00,METAR LJLJ 120030Z 29002KT CAVOK 06/04 Q1016 NOSIG
2026-04-12 00:00:00,METAR LJLJ 120000Z 29002KT CAVOK 06/04 Q1016 NOSIG
2026-04-11 23:30:00,METAR LJLJ 112330Z 36003KT CAVOK 06/04 Q1016 NOSIG
2026-04-11 23:00:00,METAR LJLJ 112300Z 27002KT CAVOK 07/04 Q1016 NOSIG
2026-04-11 22:30:00,METAR LJLJ 112230Z 14001KT CAVOK 08/05 Q1016 NOSIG
2026-04-11 22:00:00,METAR LJLJ 112200Z 14004KT CAVOK 09/05 Q1016 NOSIG
2026-04-11 21:30:00,METAR LJLJ 112130Z 11003KT CAVOK 10/05 Q1016 NOSIG
2026-04-11 21:00:00,METAR LJLJ 112100Z 11005KT CAVOK 10/06 Q1016 NOSIG
2026-04-11 20:30:00,METAR LJLJ 112030Z 10005KT CAVOK 11/06 Q1016 NOSIG
2026-04-11 20:00:00,METAR LJLJ 112000Z 10004KT CAVOK 11/06 Q1016 NOSIG
2026-04-11 19:30:00,METAR LJLJ 111930Z 09006KT 9999 FEW065 10/05 Q1016 NOSIG
2026-04-11 19:00:00,METAR LJLJ 111900Z 09007KT 9999 FEW065 11/06 Q1015 NOSIG
2026-04-11 18:30:00,METAR LJLJ 111830Z 12001KT 9999 FEW065 12/06 Q1015 NOSIG
2026-04-11 18:00:00,METAR LJLJ 111800Z VRB02KT 9999 FEW060 12/06 Q1014 NOSIG
2026-04-11 17:30:00,METAR LJLJ 111730Z VRB01KT 9999 FEW060 14/07 Q1014 NOSIG
2026-04-11 17:00:00,METAR LJLJ 111700Z 07002KT 9999 FEW050 16/06 Q1013 NOSIG
2026-04-11 16:30:00,METAR LJLJ 111630Z 08003KT 010V100 9999 FEW050 17/05 Q1013 NOSIG
2026-04-11 16:00:00,METAR LJLJ 111600Z 06004KT 9999 FEW040 17/05 Q1013 NOSIG
2026-04-11 15:30:00,METAR LJLJ 111530Z 07003KT 040V100 9999 FEW040 18/05 Q1013 NOSIG
2026-04-11 15:00:00,METAR LJLJ 111500Z 06004KT 010V080 9999 FEW040 SCT250 17/05 Q1014 NOSIG
2026-04-11 14:30:00,METAR LJLJ 111430Z 01003KT 320V080 9999 FEW040 SCT250 17/05 Q1014 NOSIG
2026-04-11 14:00:00,METAR LJLJ 111400Z 07004KT 350V130 9999 FEW040 SCT250 16/05 Q1014 NOSIG
2026-04-11 13:30:00,METAR LJLJ 111330Z 07004KT 030V110 9999 FEW040 SCT250 16/04 Q1015 NOSIG
2026-04-11 13:00:00,METAR LJLJ 111300Z 09002KT 9999 FEW040 BKN250 15/06 Q1015 NOSIG
2026-04-11 12:30:00,METAR LJLJ 111230Z 05003KT 340V120 9999 FEW040 BKN250 15/06 Q1016 NOSIG
2026-04-11 12:00:00,METAR LJLJ 111200Z VRB02KT 9999 FEW030 BKN250 14/05 Q1016 NOSIG
2026-04-11 11:30:00,METAR LJLJ 111130Z 08002KT 9999 FEW030 BKN250 13/05 Q1017 NOSIG
2026-04-11 11:00:00,METAR LJLJ 111100Z 09001KT 9999 FEW030 BKN250 12/04 Q1017 NOSIG
2026-04-11 10:30:00,METAR LJLJ 111030Z 07004KT 030V100 9999 FEW030 BKN250 11/04 Q1018 NOSIG
2026-04-11 10:00:00,METAR LJLJ 111000Z VRB03KT 9999 FEW030 SCT100 BKN250 11/04 Q1018 NOSIG
2026-04-11 09:30:00,METAR LJLJ 110930Z 07003KT 360V150 9999 FEW030 BKN090 10/03 Q1019 NOSIG
2026-04-11 09:00:00,METAR LJLJ 110900Z 16002KT 9999 FEW030 BKN090 09/04 Q1019 NOSIG
2026-04-11 08:30:00,METAR LJLJ 110830Z 08004KT 040V110 9999 FEW030 BKN090 08/03 Q1019 NOSIG
2026-04-11 08:00:00,METAR LJLJ 110800Z 12005KT 9999 FEW055 BKN090 08/03 Q1019 NOSIG
2026-04-11 07:30:00,METAR LJLJ 110730Z 10004KT 070V130 9999 FEW055 BKN090 07/03 Q1019 NOSIG
2026-04-11 07:00:00,METAR LJLJ 110700Z VRB02KT 9999 FEW055 BKN100 07/03 Q1019 NOSIG
2026-04-11 06:30:00,METAR LJLJ 110630Z VRB01KT 9999 FEW055 BKN120 06/03 Q1019 NOSIG
2026-04-11 06:00:00,METAR LJLJ 110600Z VRB01KT 9999 FEW055 SCT120 05/03 Q1019 NOSIG
2026-04-11 05:30:00,METAR LJLJ 110530Z 28003KT 9999 FEW055 SCT100 03/02 Q1019 NOSIG
2026-04-11 05:00:00,METAR LJLJ 110500Z 30002KT 9999 FEW055 SCT100 02/01 Q1019 NOSIG
2026-04-11 04:30:00,METAR LJLJ 110430Z VRB01KT 9999 FEW055 SCT250 02/01 Q1018 NOSIG
2026-04-11 04:00:00,METAR LJLJ 110400Z VRB01KT 9999 FEW055 SCT250 02/01 Q1018 NOSIG
2026-04-11 03:30:00,METAR LJLJ 110330Z VRB01KT 9999 FEW055 SCT250 02/01 Q1018 NOSIG
2026-04-11 03:00:00,METAR LJLJ 110300Z 08003KT CAVOK 02/01 Q1018 NOSIG
2026-04-11 02:30:00,METAR LJLJ 110230Z 00000KT CAVOK 02/01 Q1017 NOSIG
2026-04-11 02:00:00,METAR LJLJ 110200Z 28002KT CAVOK 03/02 Q1017 NOSIG
2026-04-11 01:30:00,METAR LJLJ 110130Z 12002KT CAVOK 03/02 Q1017 NOSIG
2026-04-11 01:00:00,METAR LJLJ 110100Z VRB01KT CAVOK 04/02 Q1017 NOSIG
2026-04-11 00:30:00,METAR LJLJ 110030Z VRB01KT CAVOK 04/02 Q1017 NOSIG
2026-04-11 00:00:00,METAR LJLJ 110000Z VRB01KT CAVOK 05/02 Q1017 NOSIG
2026-04-10 23:30:00,METAR LJLJ 102330Z VRB01KT CAVOK 05/02 Q1017 NOSIG
2026-04-10 23:00:00,METAR LJLJ 102300Z VRB01KT CAVOK 06/02 Q1017 NOSIG
2026-04-10 22:30:00,METAR LJLJ 102230Z 29003KT CAVOK 06/03 Q1017 NOSIG
2026-04-10 22:00:00,METAR LJLJ 102200Z 16002KT CAVOK 06/03 Q1017 NOSIG
2026-04-10 21:30:00,METAR LJLJ 102130Z VRB01KT 9999 FEW060 BKN120 07/03 Q1017 NOSIG
2026-04-10 21:00:00,METAR LJLJ 102100Z 29002KT 9999 FEW060 BKN120 07/03 Q1017 NOSIG
2026-04-10 20:30:00,METAR LJLJ 102030Z 29001KT 9999 FEW055 BKN100 07/04 Q1017 NOSIG
2026-04-10 20:00:00,METAR LJLJ 102000Z 35002KT 9999 FEW055 BKN100 08/03 Q1017 NOSIG
2026-04-10 19:30:00,METAR LJLJ 101930Z 01003KT 9999 FEW055 SCT075 BKN100 08/03 Q1017 NOSIG
2026-04-10 19:00:00,METAR LJLJ 101900Z 11004KT 060V170 9999 FEW055 SCT075 BKN100 09/01 Q1017 NOSIG
2026-04-10 18:30:00,METAR LJLJ 101830Z 10004KT 070V130 9999 -RA FEW055 BKN075 BKN100 09/02 Q1017 NOSIG
2026-04-10 18:00:00,METAR LJLJ 101800Z 11007KT 080V140 9999 -RA SCT060 BKN080 BKN100 09/02 Q1016 NOSIG
2026-04-10 17:30:00,METAR LJLJ 101730Z 13006KT 9999 -RA BKN055 BKN070 11/04 Q1016 NOSIG
2026-04-10 17:00:00,METAR LJLJ 101700Z 09005KT 9999 -RA SCT055 BKN070 12/03 Q1015 NOSIG
2026-04-10 16:30:00,METAR LJLJ 101630Z 11008KT 9999 FEW085 BKN100 13/02 Q1015 NOSIG
2026-04-10 16:00:00,METAR LJLJ 101600Z 08006KT 9999 SCT095 BKN130 14/03 Q1014 NOSIG
2026-04-10 15:30:00,METAR LJLJ 101530Z 12010KT 9999 FEW095 BKN140 14/03 Q1014 NOSIG
2026-04-10 15:00:00,METAR LJLJ 101500Z 12005KT 9999 BKN095 15/02 Q1014 NOSIG
2026-04-10 14:30:00,METAR LJLJ 101430Z 10004KT 060V120 9999 BKN095 15/04 Q1014 NOSIG
2026-04-10 14:00:00,METAR LJLJ 101400Z 04003KT 350V070 9999 BKN095 15/01 Q1014 NOSIG
2026-04-10 13:30:00,METAR LJLJ 101330Z 09005KT 9999 BKN100 15/01 Q1014 NOSIG
2026-04-10 13:00:00,METAR LJLJ 101300Z 08006KT 030V110 9999 BKN100 15/M00 Q1014 NOSIG
2026-04-10 12:30:00,METAR LJLJ 101230Z 08005KT 9999 BKN100 14/M00 Q1014 NOSIG
2026-04-10 12:00:00,METAR LJLJ 101200Z 08005KT 9999 BKN100 14/01 Q1015 NOSIG
2026-04-10 11:30:00,METAR LJLJ 101130Z 13004KT 090V170 CAVOK 15/01 Q1015 NOSIG
2026-04-10 11:00:00,METAR LJLJ 101100Z 12002KT 060V150 9999 CAVOK 14/01 Q1016 NOSIG
2026-04-10 10:30:00,METAR LJLJ 101030Z 09004KT 060V150 9999 FEW070 BKN150 13/01 Q1016 NOSIG
2026-04-10 10:00:00,METAR LJLJ 101000Z 09004KT 060V150 9999 FEW070 BKN150 13/01 Q1016 NOSIG
2026-04-10 09:30:00,METAR LJLJ 100930Z 10004KT 070V130 CAVOK 12/01 Q1016 NOSIG
2026-04-10 09:00:00,METAR LJLJ 100900Z VRB02KT CAVOK 12/02 Q1016 NOSIG
2026-04-10 08:30:00,METAR LJLJ 100830Z VRB02KT CAVOK 11/03 Q1016 NOSIG
2026-04-10 08:00:00,METAR LJLJ 100800Z VRB02KT 9999 FEW070 SCT200 10/02 Q1016 NOSIG
2026-04-10 07:30:00,METAR LJLJ 100730Z 34001KT 9999 FEW070 SCT200 08/02 Q1016 NOSIG
2026-04-10 07:00:00,METAR LJLJ 100700Z VRB01KT 9999 FEW060 BKN200 06/02 Q1016 NOSIG
2026-04-10 06:30:00,METAR LJLJ 100630Z VRB01KT 9999 FEW060 BKN200 05/02 Q1017 NOSIG
2026-04-10 06:00:00,METAR LJLJ 100600Z 29001KT 9999 FEW060 BKN200 03/01 Q1017 NOSIG
2026-04-10 05:30:00,METAR LJLJ 100530Z VRB01KT 9999 FEW060 BKN200 01/M00 Q1017 NOSIG
2026-04-10 05:00:00,METAR LJLJ 100500Z VRB01KT 9999 FEW060 BKN200 M00/M02 Q1016 NOSIG
2026-04-10 04:30:00,METAR LJLJ 100430Z 34002KT 9999 FEW060 SCT200 M01/M02 Q1017 NOSIG
2026-04-10 04:00:00,METAR LJLJ 100400Z 25001KT 9999 FEW060 SCT200 M00/M02 Q1016 NOSIG
2026-04-10 03:30:00,METAR LJLJ 100330Z VRB01KT 9999 FEW095 M00/M02 Q1016 NOSIG
2026-04-10 03:00:00,METAR LJLJ 100300Z VRB01KT 9999 FEW095 M00/M02 Q1016 NOSIG
2026-04-10 02:30:00,METAR LJLJ 100230Z 30003KT CAVOK 00/M02 Q1017 NOSIG
2026-04-10 02:00:00,METAR LJLJ 100200Z 30003KT CAVOK 00/M02 Q1017 NOSIG
2026-04-10 01:30:00,METAR LJLJ 100130Z 33002KT CAVOK 01/M01 Q1017 NOSIG
2026-04-10 01:00:00,METAR LJLJ 100100Z 33002KT CAVOK 01/M01 Q1017 NOSIG
2026-04-10 00:30:00,METAR LJLJ 100030Z VRB01KT CAVOK 01/M01 Q1017 NOSIG
2026-04-10 00:00:00,METAR LJLJ 100000Z 30003KT CAVOK 01/M01 Q1017 NOSIG
2026-04-09 23:30:00,METAR LJLJ 092330Z 28005KT CAVOK 02/M02 Q1017 NOSIG
2026-04-09 23:00:00,METAR LJLJ 092300Z 28005KT CAVOK 02/M01 Q1017 NOSIG
2026-04-09 22:30:00,METAR LJLJ 092230Z VRB02KT CAVOK 03/M00 Q1017 NOSIG
2026-04-09 22:00:00,METAR LJLJ 092200Z VRB02KT CAVOK 03/M00 Q1017 NOSIG
2026-04-09 21:30:00,METAR LJLJ 092130Z VRB01KT CAVOK 05/00 Q1017 NOSIG
2026-04-09 21:00:00,METAR LJLJ 092100Z VRB01KT CAVOK 05/00 Q1017 NOSIG
2026-04-09 20:30:00,METAR LJLJ 092030Z 04001KT CAVOK 06/01 Q1017 NOSIG
2026-04-09 20:00:00,METAR LJLJ 092000Z 12003KT CAVOK 07/01 Q1016 NOSIG
2026-04-09 19:30:00,METAR LJLJ 091930Z 13005KT CAVOK 08/00 Q1016 NOSIG
2026-04-09 19:00:00,METAR LJLJ 091900Z 12005KT CAVOK 09/00 Q1016 NOSIG
2026-04-09 18:30:00,METAR LJLJ 091830Z 14006KT 120V190 CAVOK 10/01 Q1016 NOSIG
2026-04-09 18:00:00,METAR LJLJ 091800Z 12004KT CAVOK 10/02 Q1015 NOSIG
2026-04-09 17:30:00,METAR LJLJ 091730Z 10003KT 070V160 CAVOK 12/01 Q1015 NOSIG
2026-04-09 17:00:00,METAR LJLJ 091700Z 08004KT CAVOK 14/02 Q1015 NOSIG
2026-04-09 16:30:00,METAR LJLJ 091630Z 09004KT CAVOK 14/03 Q1015 NOSIG
2026-04-09 16:00:00,METAR LJLJ 091600Z 10005KT CAVOK 15/02 Q1015 NOSIG
2026-04-09 15:30:00,METAR LJLJ 091530Z 08005KT 040V120 CAVOK 15/M00 Q1015 NOSIG
2026-04-09 15:00:00,METAR LJLJ 091500Z 07005KT 030V100 CAVOK 15/00 Q1015 NOSIG
2026-04-09 14:30:00,METAR LJLJ 091430Z 10004KT CAVOK 15/00 Q1016 NOSIG
2026-04-09 14:00:00,METAR LJLJ 091400Z 10004KT 060V200 CAVOK 15/M00 Q1016 NOSIG
2026-04-09 13:30:00,METAR LJLJ 091330Z 07005KT 350V140 CAVOK 15/M00 Q1017 NOSIG
2026-04-09 13:00:00,METAR LJLJ 091300Z 12005KT 060V190 CAVOK 15/00 Q1017 NOSIG
2026-04-09 12:30:00,METAR LJLJ 091230Z 11005KT 040V150 CAVOK 14/M01 Q1018 NOSIG
2026-04-09 12:00:00,METAR LJLJ 091200Z 09005KT 060V160 CAVOK 13/M01 Q1018 NOSIG
2026-04-09 11:30:00,METAR LJLJ 091130Z 08005KT 060V120 CAVOK 13/M00 Q1019 NOSIG
2026-04-09 11:00:00,METAR LJLJ 091100Z 09004KT 040V140 CAVOK 12/M00 Q1019 NOSIG
2026-04-09 10:30:00,METAR LJLJ 091030Z 08005KT 360V130 CAVOK 12/M00 Q1020 NOSIG
2026-04-09 10:00:00,METAR LJLJ 091000Z 06003KT 320V120 CAVOK 11/M00 Q1021 NOSIG
2026-04-09 09:30:00,METAR LJLJ 090930Z VRB04KT CAVOK 10/M02 Q1021 NOSIG
2026-04-09 09:00:00,METAR LJLJ 090900Z 10003KT 050V170 CAVOK 10/M01 Q1021 NOSIG
2026-04-09 08:30:00,METAR LJLJ 090830Z COR VRB03KT 9999 NCD 09/M01 Q1022
2026-04-09 08:00:00,METAR LJLJ 090800Z 10004KT 060V140 CAVOK 09/M02 Q1022 NOSIG
2026-04-09 07:30:00,METAR LJLJ 090730Z VRB02KT CAVOK 08/M02 Q1022 NOSIG
2026-04-09 07:00:00,METAR LJLJ 090700Z VRB02KT CAVOK 08/M01 Q1022 NOSIG
2026-04-09 06:30:00,METAR LJLJ 090630Z VRB02KT CAVOK 06/M01 Q1022 NOSIG
2026-04-09 06:00:00,METAR LJLJ 090600Z 30003KT CAVOK 03/M00 Q1022 NOSIG
2026-04-09 05:30:00,METAR LJLJ 090530Z 30003KT CAVOK 00/M02 Q1022 NOSIG
2026-04-09 05:00:00,METAR LJLJ 090500Z 28002KT CAVOK M01/M04 Q1022 NOSIG
2026-04-09 04:30:00,METAR LJLJ 090430Z 28003KT 220V300 CAVOK M01/M03 Q1022 NOSIG
2026-04-09 04:00:00,METAR LJLJ 090400Z VRB02KT CAVOK M01/M03 Q1022 NOSIG
2026-04-09 03:30:00,METAR LJLJ 090330Z 27002KT CAVOK 00/M03 Q1022 NOSIG
2026-04-09 03:00:00,METAR LJLJ 090300Z 27002KT CAVOK 00/M03 Q1022 NOSIG
2026-04-09 02:30:00,METAR LJLJ 090230Z 30004KT CAVOK 00/M03 Q1023 NOSIG
2026-04-09 02:00:00,METAR LJLJ 090200Z 30004KT CAVOK 00/M03 Q1023 NOSIG
2026-04-09 01:30:00,METAR LJLJ 090130Z 29004KT CAVOK 02/M02 Q1023 NOSIG
2026-04-09 01:00:00,METAR LJLJ 090100Z 30004KT CAVOK 02/M02 Q1023 NOSIG
2026-04-09 00:30:00,METAR LJLJ 090030Z 31003KT CAVOK 03/M03 Q1023 NOSIG
2026-04-09 00:00:00,METAR LJLJ 090000Z 32003KT CAVOK 05/M03 Q1023 NOSIG
2026-04-08 23:30:00,METAR LJLJ 082330Z 07003KT 010V110 CAVOK 08/M04 Q1023 NOSIG
2026-04-08 23:00:00,METAR LJLJ 082300Z 10004KT CAVOK 08/M04 Q1023 NOSIG
2026-04-08 22:30:00,METAR LJLJ 082230Z 13008KT CAVOK 08/M04 Q1023 NOSIG
2026-04-08 22:00:00,METAR LJLJ 082200Z 12011KT CAVOK 09/M04 Q1023 NOSIG
2026-04-08 21:30:00,METAR LJLJ 082130Z 13010KT CAVOK 09/M04 Q1022 NOSIG
2026-04-08 21:00:00,METAR LJLJ 082100Z 13009KT CAVOK 10/M03 Q1022 NOSIG
2026-04-08 20:30:00,METAR LJLJ 082030Z 13010KT CAVOK 10/M02 Q1022 NOSIG
2026-04-08 20:00:00,METAR LJLJ 082000Z 14006KT CAVOK 10/M00 Q1022 NOSIG
2026-04-08 19:30:00,METAR LJLJ 081930Z VRB02KT CAVOK 10/00 Q1021 NOSIG
2026-04-08 19:00:00,METAR LJLJ 081900Z 00000KT CAVOK 09/02 Q1021 NOSIG
2026-04-08 18:30:00,METAR LJLJ 081830Z VRB02KT CAVOK 09/02 Q1021 NOSIG
2026-04-08 18:00:00,METAR LJLJ 081800Z 12003KT CAVOK 11/02 Q1020 NOSIG
2026-04-08 17:30:00,METAR LJLJ 081730Z 13004KT CAVOK 13/01 Q1020 NOSIG
2026-04-08 17:00:00,METAR LJLJ 081700Z 13005KT CAVOK 15/M00 Q1020 NOSIG
2026-04-08 16:30:00,METAR LJLJ 081630Z 12004KT 070V150 CAVOK 16/01 Q1020 NOSIG
2026-04-08 16:00:00,METAR LJLJ 081600Z 13004KT 100V160 CAVOK 16/M02 Q1020 NOSIG
2026-04-08 15:30:00,METAR LJLJ 081530Z 17004KT 140V210 CAVOK 17/M01 Q1020 NOSIG
2026-04-08 15:00:00,METAR LJLJ 081500Z VRB04KT CAVOK 17/M01 Q1020 NOSIG
2026-04-08 14:30:00,METAR LJLJ 081430Z 11004KT 020V160 CAVOK 17/M02 Q1020 NOSIG
2026-04-08 14:00:00,METAR LJLJ 081400Z 15005KT 080V190 CAVOK 17/M01 Q1021 NOSIG
2026-04-08 13:30:00,METAR LJLJ 081330Z 20002KT CAVOK 17/M01 Q1021 NOSIG
2026-04-08 13:00:00,METAR LJLJ 081300Z 16004KT 040V200 CAVOK 16/M00 Q1022 NOSIG
2026-04-08 12:30:00,METAR LJLJ 081230Z 15007KT 100V200 CAVOK 15/M02 Q1022 NOSIG
2026-04-08 12:00:00,METAR LJLJ 081200Z 11005KT 050V170 CAVOK 16/M01 Q1022 NOSIG
2026-04-08 11:30:00,METAR LJLJ 081130Z 13006KT 080V180 CAVOK 15/M02 Q1023 NOSIG
2026-04-08 11:00:00,METAR LJLJ 081100Z 11007KT 080V150 CAVOK 14/M02 Q1023 NOSIG
2026-04-08 10:30:00,METAR LJLJ 081030Z 13004KT 070V210 CAVOK 14/M02 Q1024 NOSIG
2026-04-08 10:00:00,METAR LJLJ 081000Z 12006KT 030V170 CAVOK 13/M03 Q1024 NOSIG
2026-04-08 09:30:00,METAR LJLJ 080930Z 11005KT 070V160 CAVOK 13/M03 Q1025 NOSIG
2026-04-08 09:00:00,METAR LJLJ 080900Z 10005KT 070V200 CAVOK 11/M05 Q1025 NOSIG
2026-04-08 08:30:00,METAR LJLJ 080830Z 08005KT 030V140 CAVOK 11/M05 Q1025 NOSIG
2026-04-08 08:00:00,METAR LJLJ 080800Z 13006KT 100V170 CAVOK 10/M04 Q1025 NOSIG
2026-04-08 07:30:00,METAR LJLJ 080730Z 14008KT 100V160 CAVOK 10/M05 Q1026 NOSIG
2026-04-08 07:00:00,METAR LJLJ 080700Z 11010KT CAVOK 09/M04 Q1026 NOSIG
2026-04-08 06:30:00,METAR LJLJ 080630Z 13010KT CAVOK 09/M04 Q1026 NOSIG
2026-04-08 06:00:00,METAR LJLJ 080600Z 12009KT CAVOK 08/M04 Q1026 NOSIG
2026-04-08 05:30:00,METAR LJLJ 080530Z 11008KT CAVOK 07/M04 Q1026 NOSIG
2026-04-08 05:00:00,METAR LJLJ 080500Z 12007KT CAVOK 06/M04 Q1025 NOSIG
2026-04-08 04:30:00,METAR LJLJ 080430Z 12010KT 9999 FEW050 07/M04 Q1025 NOSIG
2026-04-08 04:00:00,METAR LJLJ 080400Z 13010KT 9999 FEW050 07/M05 Q1024 NOSIG
2026-04-08 03:30:00,METAR LJLJ 080330Z 11006KT 030V140 CAVOK 09/M04 Q1024 NOSIG
2026-04-08 03:00:00,METAR LJLJ 080300Z 11006KT 030V140 CAVOK 09/M04 Q1024 NOSIG
2026-04-08 02:30:00,METAR LJLJ 080230Z VRB02KT CAVOK 09/M02 Q1023 NOSIG
2026-04-08 02:00:00,METAR LJLJ 080200Z VRB02KT CAVOK 09/M02 Q1023 NOSIG
2026-04-08 01:30:00,METAR LJLJ 080130Z VRB04KT CAVOK 09/01 Q1022 NOSIG
2026-04-08 01:00:00,METAR LJLJ 080100Z 09004KT 060V120 CAVOK 09/01 Q1022 NOSIG
2026-04-08 00:30:00,METAR LJLJ 080030Z VRB05KT CAVOK 09/03 Q1022 NOSIG
2026-04-08 00:00:00,METAR LJLJ 080000Z VRB06KT CAVOK 10/03 Q1022 NOSIG
2026-04-07 23:30:00,METAR LJLJ 072330Z VRB02KT CAVOK 08/04 Q1021 NOSIG
2026-04-07 23:00:00,METAR LJLJ 072300Z 30003KT 260V320 CAVOK 08/05 Q1021 NOSIG
2026-04-07 22:30:00,METAR LJLJ 072230Z VRB01KT CAVOK 09/05 Q1020 NOSIG
2026-04-07 22:00:00,METAR LJLJ 072200Z VRB01KT CAVOK 09/05 Q1020 NOSIG
2026-04-07 21:30:00,METAR LJLJ 072130Z 14003KT 080V160 CAVOK 10/06 Q1020 NOSIG
2026-04-07 21:00:00,METAR LJLJ 072100Z VRB01KT CAVOK 11/06 Q1020 NOSIG
2026-04-07 20:30:00,METAR LJLJ 072030Z VRB02KT CAVOK 11/07 Q1019 NOSIG
2026-04-07 20:00:00,METAR LJLJ 072000Z 06002KT CAVOK 12/07 Q1019 NOSIG
2026-04-07 19:30:00,METAR LJLJ 071930Z 09003KT 060V120 CAVOK 12/07 Q1018 NOSIG
2026-04-07 19:00:00,METAR LJLJ 071900Z VRB01KT CAVOK 14/07 Q1018 NOSIG
2026-04-07 18:30:00,METAR LJLJ 071830Z 07003KT 290V090 9999 FEW075 13/07 Q1017 NOSIG
2026-04-07 18:00:00,METAR LJLJ 071800Z VRB01KT 9999 FEW075 16/07 Q1017 NOSIG
2026-04-07 17:30:00,METAR LJLJ 071730Z VRB02KT 9999 FEW075 18/06 Q1017 NOSIG
2026-04-07 17:00:00,METAR LJLJ 071700Z VRB01KT 9999 FEW075 20/07 Q1017 NOSIG
2026-04-07 16:30:00,METAR LJLJ 071630Z 04003KT 9999 FEW075 21/08 Q1017 NOSIG
2026-04-07 16:00:00,METAR LJLJ 071600Z 03003KT 350V070 9999 FEW075 21/06 Q1017 NOSIG
2026-04-07 15:30:00,METAR LJLJ 071530Z 06004KT 020V090 9999 FEW075 21/06 Q1017 NOSIG
2026-04-07 15:00:00,METAR LJLJ 071500Z 07004KT 030V100 9999 FEW075 21/06 Q1017 NOSIG
2026-04-07 14:30:00,METAR LJLJ 071430Z 05004KT 340V100 9999 FEW075 21/06 Q1018 NOSIG
2026-04-07 14:00:00,METAR LJLJ 071400Z 09005KT 040V120 9999 FEW075 21/06 Q1018 NOSIG
2026-04-07 13:30:00,METAR LJLJ 071330Z 10004KT 030V150 9999 FEW075 20/05 Q1019 NOSIG
2026-04-07 13:00:00,METAR LJLJ 071300Z VRB04KT 9999 FEW075 20/05 Q1019 NOSIG
2026-04-07 12:30:00,METAR LJLJ 071230Z 15003KT 100V230 CAVOK 19/04 Q1020 NOSIG
2026-04-07 12:00:00,METAR LJLJ 071200Z 12006KT 070V160 CAVOK 19/04 Q1021 NOSIG
2026-04-07 11:30:00,METAR LJLJ 071130Z 13006KT 060V190 CAVOK 19/04 Q1021 NOSIG
2026-04-07 11:00:00,METAR LJLJ 071100Z 09005KT CAVOK 18/03 Q1021 NOSIG
2026-04-07 10:30:00,METAR LJLJ 071030Z VRB02KT CAVOK 17/03 Q1022 NOSIG
2026-04-07 10:00:00,METAR LJLJ 071000Z VRB02KT CAVOK 17/03 Q1023 NOSIG
2026-04-07 09:30:00,METAR LJLJ 070930Z VRB03KT CAVOK 16/04 Q1023 NOSIG
2026-04-07 09:00:00,METAR LJLJ 070900Z 06002KT CAVOK 16/03 Q1023 NOSIG
2026-04-07 08:30:00,METAR LJLJ 070830Z 06001KT CAVOK 16/04 Q1024 NOSIG
2026-04-07 08:00:00,METAR LJLJ 070800Z VRB02KT CAVOK 15/03 Q1024 NOSIG
2026-04-07 07:30:00,METAR LJLJ 070730Z 00000KT CAVOK 14/04 Q1024 NOSIG
2026-04-07 07:00:00,METAR LJLJ 070700Z 31002KT CAVOK 12/05 Q1024 NOSIG
2026-04-07 06:30:00,METAR LJLJ 070630Z VRB01KT 9999 FEW048 SCT250 09/06 Q1024 NOSIG
2026-04-07 06:00:00,METAR LJLJ 070600Z 28001KT 9999 FEW048 SCT250 06/04 Q1024 NOSIG
2026-04-07 05:30:00,METAR LJLJ 070530Z 29003KT 9999 FEW048 SCT250 05/04 Q1024 NOSIG
2026-04-07 05:00:00,METAR LJLJ 070500Z 31002KT 9999 FEW048 SCT250 04/03 Q1024 NOSIG
2026-04-07 04:30:00,METAR LJLJ 070430Z 26001KT 9999 FEW055 04/03 Q1024 NOSIG
2026-04-07 04:00:00,METAR LJLJ 070400Z 28004KT 9999 FEW055 05/04 Q1024 NOSIG
2026-04-07 03:30:00,METAR LJLJ 070330Z 28002KT 9999 SCT055 06/04 Q1024 NOSIG
2026-04-07 03:00:00,METAR LJLJ 070300Z 28003KT 9999 SCT055 06/04 Q1024 NOSIG
2026-04-07 02:30:00,METAR LJLJ 070230Z 28004KT 9999 FEW055 06/04 Q1024 NOSIG
2026-04-07 02:00:00,METAR LJLJ 070200Z 28002KT CAVOK 07/05 Q1024 NOSIG
2026-04-07 01:30:00,METAR LJLJ 070130Z 28004KT CAVOK 07/04 Q1024 NOSIG
2026-04-07 01:00:00,METAR LJLJ 070100Z 27002KT CAVOK 08/05 Q1024 NOSIG
2026-04-07 00:30:00,METAR LJLJ 070030Z VRB01KT CAVOK 09/05 Q1024 NOSIG
2026-04-07 00:00:00,METAR LJLJ 070000Z VRB01KT CAVOK 09/05 Q1023 NOSIG
2026-04-06 23:30:00,METAR LJLJ 062330Z VRB02KT 9999 FEW100 10/05 Q1023 NOSIG
2026-04-06 23:00:00,METAR LJLJ 062300Z 29005KT 9999 FEW100 10/05 Q1023 NOSIG
2026-04-06 22:30:00,METAR LJLJ 062230Z VRB01KT 9999 FEW090 12/05 Q1023 NOSIG
2026-04-06 22:00:00,METAR LJLJ 062200Z 09004KT 9999 FEW090 13/05 Q1022 NOSIG
2026-04-06 21:30:00,METAR LJLJ 062130Z 11006KT 9999 FEW090 14/05 Q1022 NOSIG
2026-04-06 21:00:00,METAR LJLJ 062100Z 10003KT 080V210 9999 FEW090 13/05 Q1022 NOSIG
2026-04-06 20:30:00,METAR LJLJ 062030Z 10004KT 060V150 9999 FEW090 14/06 Q1022 NOSIG
2026-04-06 20:00:00,METAR LJLJ 062000Z 17003KT 140V200 9999 FEW090 15/06 Q1021 NOSIG
2026-04-06 19:30:00,METAR LJLJ 061930Z 13004KT 070V170 9999 FEW090 16/05 Q1021 NOSIG
2026-04-06 19:00:00,METAR LJLJ 061900Z VRB02KT 9999 SCT090 17/05 Q1021 NOSIG
2026-04-06 18:30:00,METAR LJLJ 061830Z 36003KT 250V030 CAVOK 17/05 Q1020 NOSIG
2026-04-06 18:00:00,METAR LJLJ 061800Z 22006KT CAVOK 20/04 Q1020 NOSIG
2026-04-06 17:30:00,METAR LJLJ 061730Z 23006KT CAVOK 21/04 Q1020 NOSIG
2026-04-06 17:00:00,METAR LJLJ 061700Z 25008KT 210V270 CAVOK 22/04 Q1019 NOSIG
2026-04-06 16:30:00,METAR LJLJ 061630Z 23006KT 9999 FEW085 SCT220 24/05 Q1019 NOSIG
2026-04-06 16:00:00,METAR LJLJ 061600Z 14005KT 100V200 9999 FEW087 SCT120 24/04 Q1019 NOSIG
2026-04-06 15:30:00,METAR LJLJ 061530Z 07003KT 350V110 9999 FEW074 SCT120 24/04 Q1019 NOSIG
2026-04-06 15:00:00,METAR LJLJ 061500Z 06004KT 030V100 9999 FEW073 SCT200 23/04 Q1019 NOSIG
2026-04-06 14:30:00,METAR LJLJ 061430Z 09004KT 020V140 9999 FEW073 SCT200 24/04 Q1020 NOSIG
2026-04-06 14:00:00,METAR LJLJ 061400Z 07005KT 030V100 9999 FEW070 SCT200 23/05 Q1020 NOSIG
2026-04-06 13:30:00,METAR LJLJ 061330Z 12004KT 020V160 9999 FEW070 SCT130 23/05 Q1020 NOSIG
2026-04-06 13:00:00,METAR LJLJ 061300Z 10004KT 030V140 9999 FEW070 24/05 Q1021 NOSIG
2026-04-06 12:30:00,METAR LJLJ 061230Z VRB03KT 9999 FEW070 23/05 Q1021 NOSIG
2026-04-06 12:00:00,METAR LJLJ 061200Z 07005KT 350V110 9999 FEW070 23/06 Q1022 NOSIG
2026-04-06 11:30:00,METAR LJLJ 061130Z 11004KT 060V150 9999 FEW060 22/06 Q1022 NOSIG
2026-04-06 11:00:00,METAR LJLJ 061100Z 08004KT 360V100 9999 FEW060 21/05 Q1022 NOSIG
2026-04-06 10:30:00,METAR LJLJ 061030Z VRB02KT 9999 FEW060 21/07 Q1023 NOSIG
2026-04-06 10:00:00,METAR LJLJ 061000Z 06004KT 020V110 9999 FEW060 19/06 Q1023 NOSIG
2026-04-06 09:30:00,METAR LJLJ 060930Z 07004KT 050V110 CAVOK 18/07 Q1023 NOSIG
2026-04-06 09:00:00,METAR LJLJ 060900Z 14002KT CAVOK 18/06 Q1023 NOSIG
2026-04-06 08:30:00,METAR LJLJ 060830Z VRB01KT CAVOK 16/06 Q1023 NOSIG
2026-04-06 08:00:00,METAR LJLJ 060800Z 29002KT CAVOK 15/06 Q1023 NOSIG
2026-04-06 07:30:00,METAR LJLJ 060730Z VRB02KT CAVOK 13/05 Q1023 NOSIG
2026-04-06 07:00:00,METAR LJLJ 060700Z VRB01KT CAVOK 11/05 Q1023 NOSIG
2026-04-06 06:30:00,METAR LJLJ 060630Z 30003KT CAVOK 09/05 Q1023 NOSIG
2026-04-06 06:00:00,METAR LJLJ 060600Z VRB01KT CAVOK 06/03 Q1023 NOSIG
2026-04-06 05:30:00,METAR LJLJ 060530Z 28002KT CAVOK 04/02 Q1023 NOSIG
2026-04-06 05:00:00,METAR LJLJ 060500Z 30002KT CAVOK 03/01 Q1023 NOSIG
2026-04-06 04:30:00,METAR LJLJ 060430Z 34002KT CAVOK 04/02 Q1023 NOSIG
2026-04-06 04:00:00,METAR LJLJ 060400Z VRB01KT CAVOK 04/02 Q1022 NOSIG
2026-04-06 03:30:00,METAR LJLJ 060330Z VRB02KT CAVOK 04/02 Q1022 NOSIG
2026-04-06 03:00:00,METAR LJLJ 060300Z VRB01KT CAVOK 04/02 Q1022 NOSIG
2026-04-06 02:30:00,METAR LJLJ 060230Z VRB02KT CAVOK 05/02 Q1022 NOSIG
2026-04-06 02:00:00,METAR LJLJ 060200Z VRB02KT CAVOK 05/02 Q1022 NOSIG
2026-04-06 01:30:00,METAR LJLJ 060130Z 31002KT CAVOK 05/02 Q1023 NOSIG
2026-04-06 01:00:00,METAR LJLJ 060100Z 28003KT 240V300 CAVOK 05/02 Q1023 NOSIG
2026-04-06 00:30:00,METAR LJLJ 060030Z 30004KT CAVOK 06/03 Q1022 NOSIG
2026-04-06 00:00:00,METAR LJLJ 060000Z VRB01KT CAVOK 06/03 Q1023 NOSIG
2026-04-05 23:30:00,METAR LJLJ 052330Z VRB01KT CAVOK 07/03 Q1023 NOSIG
2026-04-05 23:00:00,METAR LJLJ 052300Z 29002KT CAVOK 07/03 Q1023 NOSIG
2026-04-05 22:30:00,METAR LJLJ 052230Z VRB01KT CAVOK 08/03 Q1023 NOSIG
2026-04-05 22:00:00,METAR LJLJ 052200Z 00000KT CAVOK 08/03 Q1022 NOSIG
2026-04-05 21:30:00,METAR LJLJ 052130Z VRB01KT CAVOK 09/03 Q1022 NOSIG
2026-04-05 21:00:00,METAR LJLJ 052100Z VRB02KT CAVOK 09/04 Q1022 NOSIG
2026-04-05 20:30:00,METAR LJLJ 052030Z 08003KT CAVOK 09/03 Q1022 NOSIG
2026-04-05 20:00:00,METAR LJLJ 052000Z VRB02KT CAVOK 11/04 Q1022 NOSIG
2026-04-05 19:30:00,METAR LJLJ 051930Z VRB02KT CAVOK 11/04 Q1022 NOSIG
2026-04-05 19:00:00,METAR LJLJ 051900Z VRB02KT CAVOK 13/04 Q1022 NOSIG
2026-04-05 18:30:00,METAR LJLJ 051830Z 09003KT CAVOK 14/04 Q1022 NOSIG
2026-04-05 18:00:00,METAR LJLJ 051800Z 17004KT 110V200 CAVOK 16/04 Q1021 NOSIG
2026-04-05 17:30:00,METAR LJLJ 051730Z 21004KT 150V240 CAVOK 18/03 Q1021 NOSIG
2026-04-05 17:00:00,METAR LJLJ 051700Z 24008KT CAVOK 20/03 Q1021 NOSIG
2026-04-05 16:30:00,METAR LJLJ 051630Z 24007KT CAVOK 22/02 Q1021 NOSIG
2026-04-05 16:00:00,METAR LJLJ 051600Z 24009KT 200V260 CAVOK 22/02 Q1020 NOSIG
2026-04-05 15:00:00,METAR LJLJ 051500Z 24009KT 190V280 CAVOK 24/02 Q1020 NOSIG
2026-04-05 13:00:00,METAR LJLJ 051300Z 05004KT 330V090 CAVOK 22/06 Q1021 NOSIG
2026-04-05 12:30:00,METAR LJLJ 051230Z 08004KT 030V110 CAVOK 22/07 Q1022 NOSIG
2026-04-05 12:00:00,METAR LJLJ 051200Z 08004KT 040V110 CAVOK 21/06 Q1022 NOSIG
2026-04-05 11:30:00,METAR LJLJ 051130Z 08004KT 010V120 CAVOK 20/05 Q1022 NOSIG
2026-04-05 11:00:00,METAR LJLJ 051100Z 14002KT CAVOK 20/04 Q1023 NOSIG
2026-04-05 10:30:00,METAR LJLJ 051030Z 07004KT 030V100 CAVOK 19/05 Q1023 NOSIG
2026-04-05 10:00:00,METAR LJLJ 051000Z 08003KT 340V120 CAVOK 17/05 Q1023 NOSIG
2026-04-05 09:30:00,METAR LJLJ 050930Z 07003KT 350V100 CAVOK 16/05 Q1024 NOSIG
2026-04-05 09:00:00,METAR LJLJ 050900Z VRB02KT CAVOK 15/04 Q1024 NOSIG
2026-04-05 08:30:00,METAR LJLJ 050830Z VRB02KT CAVOK 14/05 Q1024 NOSIG
2026-04-05 08:00:00,METAR LJLJ 050800Z 07001KT CAVOK 13/04 Q1024 NOSIG
2026-04-05 07:30:00,METAR LJLJ 050730Z VRB01KT CAVOK 10/04 Q1024 NOSIG
2026-04-05 07:00:00,METAR LJLJ 050700Z 29001KT CAVOK 09/03 Q1024 NOSIG
2026-04-05 06:30:00,METAR LJLJ 050630Z 00000KT CAVOK 07/04 Q1024 NOSIG
2026-04-05 06:00:00,METAR LJLJ 050600Z 00000KT CAVOK 05/02 Q1024 NOSIG
2026-04-05 05:30:00,METAR LJLJ 050530Z 30003KT CAVOK 02/00 Q1024 NOSIG
2026-04-05 05:00:00,METAR LJLJ 050500Z VRB01KT CAVOK 01/M00 Q1024 NOSIG
2026-04-05 04:30:00,METAR LJLJ 050430Z VRB02KT CAVOK 01/M00 Q1024 NOSIG
2026-04-05 04:00:00,METAR LJLJ 050400Z 29001KT CAVOK 01/M00 Q1024 NOSIG
2026-04-05 03:30:00,METAR LJLJ 050330Z 00000KT CAVOK 02/00 Q1024 NOSIG
2026-04-05 03:00:00,METAR LJLJ 050300Z 00000KT 9999 FEW075 02/00 Q1024 NOSIG
2026-04-05 02:30:00,METAR LJLJ 050230Z VRB02KT 9999 FEW075 02/00 Q1024 NOSIG
2026-04-05 02:00:00,METAR LJLJ 050200Z VRB02KT 9999 FEW075 02/00 Q1024 NOSIG
2026-04-05 01:30:00,METAR LJLJ 050130Z VRB02KT 9999 FEW075 03/01 Q1024 NOSIG
2026-04-05 01:00:00,METAR LJLJ 050100Z VRB02KT 9999 FEW075 03/01 Q1024 NOSIG
2026-04-05 00:30:00,METAR LJLJ 050030Z 00000KT 9999 FEW080 03/01 Q1023 NOSIG
2026-04-05 00:00:00,METAR LJLJ 050000Z 30003KT 9999 FEW080 04/01 Q1024 NOSIG
2026-04-04 23:30:00,METAR LJLJ 042330Z 33002KT 9999 FEW080 04/01 Q1023 NOSIG
2026-04-04 23:00:00,METAR LJLJ 042300Z VRB01KT 9999 FEW080 05/01 Q1023 NOSIG
2026-04-04 22:30:00,METAR LJLJ 042230Z VRB02KT 9999 FEW080 05/02 Q1023 NOSIG
2026-04-04 22:00:00,METAR LJLJ 042200Z 30004KT 9999 FEW080 06/02 Q1023 NOSIG
2026-04-04 21:30:00,METAR LJLJ 042130Z VRB02KT 9999 FEW080 07/02 Q1022 NOSIG
2026-04-04 21:00:00,METAR LJLJ 042100Z VRB02KT 9999 FEW080 07/02 Q1022 NOSIG
2026-04-04 20:30:00,METAR LJLJ 042030Z VRB01KT 9999 FEW080 SCT250 08/03 Q1022 NOSIG
2026-04-04 20:00:00,METAR LJLJ 042000Z VRB02KT 9999 FEW080 SCT250 09/03 Q1022 NOSIG
2026-04-04 19:30:00,METAR LJLJ 041930Z 29004KT 9999 FEW080 SCT220 10/03 Q1022 NOSIG
2026-04-04 19:00:00,METAR LJLJ 041900Z 26003KT 9999 FEW080 SCT090 12/03 Q1021 NOSIG
2026-04-04 18:30:00,METAR LJLJ 041830Z VRB01KT 9999 FEW080 SCT090 12/04 Q1021 NOSIG
2026-04-04 18:00:00,METAR LJLJ 041800Z VRB01KT 9999 SCT080 BKN095 13/05 Q1020 NOSIG
2026-04-04 17:30:00,METAR LJLJ 041730Z 06002KT 9999 SCT085 BKN095 15/04 Q1020 NOSIG
2026-04-04 17:00:00,METAR LJLJ 041700Z VRB01KT 9999 BKN085 16/06 Q1020 NOSIG
2026-04-04 16:30:00,METAR LJLJ 041630Z 07003KT 9999 BKN085 17/03 Q1020 NOSIG
2026-04-04 16:00:00,METAR LJLJ 041600Z 09004KT 9999 BKN090 17/03 Q1020 NOSIG
2026-04-04 15:30:00,METAR LJLJ 041530Z 10004KT 9999 FEW085 SCT100 18/04 Q1020 NOSIG
2026-04-04 15:00:00,METAR LJLJ 041500Z 07006KT 9999 FEW085 18/01 Q1020 NOSIG
2026-04-04 14:30:00,METAR LJLJ 041430Z 08005KT 9999 FEW085 18/01 Q1020 NOSIG
2026-04-04 14:00:00,METAR LJLJ 041400Z 08005KT 020V110 9999 SCT085 18/01 Q1020 NOSIG
2026-04-04 13:30:00,METAR LJLJ 041330Z 06004KT 9999 FEW085 SCT120 17/00 Q1020 NOSIG
2026-04-04 13:00:00,METAR LJLJ 041300Z 08006KT CAVOK 17/00 Q1020 NOSIG
2026-04-04 12:30:00,METAR LJLJ 041230Z 10005KT 050V140 CAVOK 17/01 Q1020 NOSIG
2026-04-04 12:00:00,METAR LJLJ 041200Z 11005KT 030V150 9999 SCT100 17/00 Q1020 NOSIG
2026-04-04 11:30:00,METAR LJLJ 041130Z 09003KT 030V150 9999 BKN100 16/M00 Q1021 NOSIG
2026-04-04 11:00:00,METAR LJLJ 041100Z 07004KT 020V110 9999 BKN100 15/01 Q1021 NOSIG
2026-04-04 10:30:00,METAR LJLJ 041030Z 08004KT 040V120 9999 BKN100 15/M00 Q1021 NOSIG
2026-04-04 10:00:00,METAR LJLJ 041000Z 06003KT 010V110 9999 BKN100 14/M00 Q1022 NOSIG
2026-04-04 09:30:00,METAR LJLJ 040930Z VRB02KT 9999 SCT100 14/00 Q1022 NOSIG
2026-04-04 09:00:00,METAR LJLJ 040900Z VRB02KT 9999 SCT100 13/00 Q1022 NOSIG
2026-04-04 08:30:00,METAR LJLJ 040830Z 00000KT CAVOK 12/00 Q1022 NOSIG
2026-04-04 08:00:00,METAR LJLJ 040800Z VRB01KT CAVOK 10/M00 Q1021 NOSIG
2026-04-04 07:30:00,METAR LJLJ 040730Z VRB01KT CAVOK 09/00 Q1021 NOSIG
2026-04-04 07:00:00,METAR LJLJ 040700Z 29001KT CAVOK 06/M01 Q1021 NOSIG
2026-04-04 06:30:00,METAR LJLJ 040630Z VRB01KT CAVOK 03/M00 Q1021 NOSIG
2026-04-04 06:00:00,METAR LJLJ 040600Z 04001KT CAVOK 01/M02 Q1021 NOSIG
2026-04-04 05:30:00,METAR LJLJ 040530Z 27004KT CAVOK M00/M02 Q1021 NOSIG
2026-04-04 05:00:00,METAR LJLJ 040500Z VRB01KT CAVOK M00/M03 Q1021 NOSIG
2026-04-04 04:30:00,METAR LJLJ 040430Z VRB01KT CAVOK M01/M03 Q1020 NOSIG
2026-04-04 04:00:00,METAR LJLJ 040400Z 30003KT 260V320 CAVOK M01/M03 Q1020 NOSIG
2026-04-04 03:30:00,METAR LJLJ 040330Z VRB01KT CAVOK M01/M03 Q1020 NOSIG
2026-04-04 03:00:00,METAR LJLJ 040300Z 28004KT CAVOK M00/M03 Q1020 NOSIG
2026-04-04 02:30:00,METAR LJLJ 040230Z 00000KT CAVOK 00/M03 Q1020 NOSIG
2026-04-04 02:00:00,METAR LJLJ 040200Z 00000KT CAVOK 00/M03 Q1020 NOSIG
2026-04-04 01:30:00,METAR LJLJ 040130Z VRB03KT CAVOK 02/M02 Q1020 NOSIG
2026-04-04 01:00:00,METAR LJLJ 040100Z VRB04KT CAVOK 02/M02 Q1020 NOSIG
2026-04-04 00:30:00,METAR LJLJ 040030Z VRB01KT CAVOK 02/M02 Q1019 NOSIG
2026-04-04 00:00:00,METAR LJLJ 040000Z VRB01KT CAVOK 02/M02 Q1019 NOSIG
2026-04-03 23:30:00,METAR LJLJ 032330Z 29004KT 270V330 CAVOK 03/M02 Q1019 NOSIG
2026-04-03 23:00:00,METAR LJLJ 032300Z 29004KT 270V330 CAVOK 03/M02 Q1019 NOSIG
2026-04-03 22:30:00,METAR LJLJ 032230Z VRB04KT CAVOK 04/M02 Q1018 NOSIG
2026-04-03 22:00:00,METAR LJLJ 032200Z 28004KT 150V300 CAVOK 04/M02 Q1018 NOSIG
2026-04-03 21:30:00,METAR LJLJ 032130Z 30005KT CAVOK 04/M02 Q1018 NOSIG
2026-04-03 21:00:00,METAR LJLJ 032100Z 29004KT 250V320 CAVOK 05/M01 Q1017 NOSIG
2026-04-03 20:30:00,METAR LJLJ 032030Z 26004KT 240V300 CAVOK 07/M01 Q1017 NOSIG
2026-04-03 20:00:00,METAR LJLJ 032000Z VRB02KT CAVOK 08/M01 Q1017 NOSIG
2026-04-03 19:30:00,METAR LJLJ 031930Z VRB02KT CAVOK 08/M00 Q1016 NOSIG
2026-04-03 19:00:00,METAR LJLJ 031900Z 00000KT 9999 FEW080 09/M00 Q1016 NOSIG
2026-04-03 18:30:00,METAR LJLJ 031830Z 14003KT 080V220 9999 FEW080 11/M01 Q1015 NOSIG
2026-04-03 18:00:00,METAR LJLJ 031800Z 14006KT 090V190 9999 FEW080 12/M01 Q1015 NOSIG
2026-04-03 17:30:00,METAR LJLJ 031730Z 13005KT 110V200 9999 FEW080 14/M02 Q1014 NOSIG
2026-04-03 17:00:00,METAR LJLJ 031700Z 36004KT 330V030 9999 FEW080 15/M00 Q1013 NOSIG
2026-04-03 16:30:00,METAR LJLJ 031630Z 34004KT 300V040 9999 FEW080 17/M03 Q1013 NOSIG
2026-04-03 16:00:00,METAR LJLJ 031600Z 36004KT 320V060 9999 FEW080 18/M06 Q1013 NOSIG
2026-04-03 15:30:00,METAR LJLJ 031530Z 01004KT 290V070 9999 FEW080 18/M05 Q1012 NOSIG
2026-04-03 15:00:00,METAR LJLJ 031500Z 10004KT 050V150 9999 FEW080 18/M04 Q1012 NOSIG
2026-04-03 14:30:00,METAR LJLJ 031430Z 09004KT 350V120 9999 FEW080 18/M04 Q1012 NOSIG
2026-04-03 14:00:00,METAR LJLJ 031400Z 25003KT 200V010 9999 FEW080 18/M04 Q1012 NOSIG
2026-04-03 13:30:00,METAR LJLJ 031330Z 08004KT 350V120 9999 FEW080 18/M04 Q1012 NOSIG
2026-04-03 13:00:00,METAR LJLJ 031300Z 09003KT 350V120 9999 FEW075 17/M02 Q1012 NOSIG
2026-04-03 12:30:00,METAR LJLJ 031230Z 09004KT 350V140 9999 FEW070 18/M02 Q1012 NOSIG
2026-04-03 12:00:00,METAR LJLJ 031200Z COR 12006KT 070V190 9999 FEW070 17/M02 Q1013 NOSIG
2026-04-03 11:30:00,METAR LJLJ 031130Z 11004KT 070V190 9999 FEW070 SCT250 17/M02 Q1013 NOSIG
2026-04-03 11:00:00,METAR LJLJ 031100Z 00000KT 9999 FEW070 SCT250 16/M03 Q1013 NOSIG
2026-04-03 10:30:00,METAR LJLJ 031030Z COR 22004KT 140V300 9999 FEW060 16/M02 Q1013 NOSIG
2026-04-03 10:00:00,METAR LJLJ 031000Z 34003KT 9999 FEW060 SCT250 15/M02 Q1013 NOSIG
2026-04-03 09:30:00,METAR LJLJ 030930Z 36004KT 310V060 9999 FEW060 SCT200 16/00 Q1013 NOSIG
2026-04-03 09:00:00,METAR LJLJ 030900Z VRB02KT 9999 FEW060 SCT200 15/M01 Q1013 NOSIG
2026-04-03 08:30:00,METAR LJLJ 030830Z 10004KT 030V140 9999 FEW060 SCT200 14/M03 Q1013 NOSIG
2026-04-03 08:00:00,METAR LJLJ 030800Z VRB02KT 9999 FEW060 SCT200 14/M01 Q1013 NOSIG
2026-04-03 07:30:00,METAR LJLJ 030730Z 16001KT 9999 FEW055 SCT210 13/M01 Q1013 NOSIG
2026-04-03 07:00:00,METAR LJLJ 030700Z 09003KT 050V150 9999 FEW055 SCT250 11/M01 Q1012 NOSIG
2026-04-03 06:30:00,METAR LJLJ 030630Z VRB02KT 9999 FEW055 SCT250 09/01 Q1012 NOSIG
2026-04-03 06:00:00,METAR LJLJ 030600Z 04004KT 010V080 9999 FEW055 SCT250 06/00 Q1012 NOSIG
2026-04-03 05:30:00,METAR LJLJ 030530Z 32011KT 9999 FEW055 SCT250 08/M01 Q1011 NOSIG
2026-04-03 05:00:00,METAR LJLJ 030500Z 32011KT 9999 FEW055 SCT100 09/M02 Q1011 NOSIG
2026-04-03 04:30:00,METAR LJLJ 030430Z 32011KT 9999 FEW055 SCT100 09/M02 Q1010 NOSIG
2026-04-03 04:00:00,METAR LJLJ 030400Z 32011KT 9999 FEW055 SCT100 10/M02 Q1010 NOSIG
2026-04-03 03:30:00,METAR LJLJ 030330Z VRB02KT 9999 FEW055 BKN100 08/M00 Q1010 NOSIG
2026-04-03 03:00:00,METAR LJLJ 030300Z 33005KT 280V080 9999 FEW055 BKN100 08/M00 Q1010 NOSIG
2026-04-03 02:30:00,METAR LJLJ 030230Z 33005KT 290V010 9999 FEW055 BKN100 08/M00 Q1009 NOSIG
2026-04-03 02:00:00,METAR LJLJ 030200Z VRB02KT 9999 FEW055 SCT090 BKN200 09/M01 Q1009 NOSIG
2026-04-03 01:30:00,METAR LJLJ 030130Z 10001KT 9999 FEW055 SCT090 BKN200 10/M01 Q1009 NOSIG
2026-04-03 01:00:00,METAR LJLJ 030100Z 33008KT 310V020 9999 FEW055 SCT090 BKN200 10/M01 Q1009 NOSIG
2026-04-03 00:30:00,METAR LJLJ 030030Z 34008KT 320V020 9999 FEW055 SCT090 BKN200 10/M01 Q1009 NOSIG
2026-04-03 00:00:00,METAR LJLJ 030000Z 32009KT 9999 FEW055 SCT090 BKN200 09/01 Q1009 NOSIG
2026-04-02 23:30:00,METAR LJLJ 022330Z VRB02KT 9999 FEW055 SCT090 BKN200 06/01 Q1009 NOSIG
2026-04-02 23:00:00,METAR LJLJ 022300Z VRB02KT 9999 FEW055 SCT090 BKN200 06/01 Q1009 NOSIG
2026-04-02 22:30:00,METAR LJLJ 022230Z 33003KT 300V030 9999 FEW055 SCT090 BKN200 07/01 Q1009 NOSIG
2026-04-02 22:00:00,METAR LJLJ 022200Z 33005KT 9999 FEW055 SCT090 BKN200 07/01 Q1009 NOSIG
2026-04-02 21:30:00,METAR LJLJ 022130Z 32005KT 9999 FEW055 BKN200 05/02 Q1009 NOSIG
2026-04-02 21:00:00,METAR LJLJ 022100Z VRB02KT 9999 FEW055 BKN200 05/01 Q1009 NOSIG
2026-04-02 20:30:00,METAR LJLJ 022030Z VRB02KT 9999 FEW055 BKN200 06/01 Q1009 NOSIG
2026-04-02 20:00:00,METAR LJLJ 022000Z VRB02KT 9999 FEW055 BKN200 06/01 Q1009 NOSIG
2026-04-02 19:30:00,METAR LJLJ 021930Z VRB02KT 9999 FEW055 BKN200 06/02 Q1008 NOSIG
2026-04-02 19:00:00,METAR LJLJ 021900Z 29004KT 240V330 9999 FEW055 BKN200 06/02 Q1008 NOSIG
2026-04-02 18:30:00,METAR LJLJ 021830Z VRB02KT 9999 FEW055 BKN200 07/02 Q1008 NOSIG
2026-04-02 18:00:00,METAR LJLJ 021800Z VRB02KT 9999 FEW055 BKN200 08/02 Q1007 NOSIG
2026-04-02 17:30:00,METAR LJLJ 021730Z VRB01KT 9999 FEW055 BKN200 09/02 Q1007 NOSIG
2026-04-02 17:00:00,METAR LJLJ 021700Z 32005KT 9999 FEW055 BKN200 11/01 Q1006 NOSIG
2026-04-02 16:30:00,METAR LJLJ 021630Z 32006KT 300V360 9999 FEW055 BKN200 12/01 Q1006 NOSIG
2026-04-02 16:00:00,METAR LJLJ 021600Z 34006KT 300V010 9999 FEW055 BKN200 12/00 Q1006 NOSIG
2026-04-02 15:30:00,METAR LJLJ 021530Z 33007KT 300V030 9999 SCT050 BKN070 12/00 Q1006 NOSIG
2026-04-02 15:00:00,METAR LJLJ 021500Z 34006KT 320V020 9999 SCT050 BKN070 12/01 Q1006 NOSIG
2026-04-02 14:30:00,METAR LJLJ 021430Z 34006KT 310V020 9999 BKN055 12/01 Q1006 NOSIG
2026-04-02 14:00:00,METAR LJLJ 021400Z 34007KT 9999 BKN055 12/00 Q1006 NOSIG
2026-04-02 13:30:00,METAR LJLJ 021330Z 33011KT 9999 BKN060 12/00 Q1006 NOSIG
2026-04-02 13:00:00,METAR LJLJ 021300Z 33009KT 310V010 9999 BKN060 12/M00 Q1006 NOSIG
2026-04-02 12:30:00,METAR LJLJ 021230Z 35008KT 290V010 9999 BKN055 BKN220 12/00 Q1006 NOSIG
2026-04-02 12:00:00,METAR LJLJ 021200Z VRB02KT 9999 BKN055 BKN220 13/M00 Q1006 NOSIG
2026-04-02 11:30:00,METAR LJLJ 021130Z 31005KT 220V010 9999 SCT055 BKN220 13/M01 Q1007 NOSIG
2026-04-02 11:00:00,METAR LJLJ 021100Z 26004KT 210V310 9999 BKN055 SCT220 12/M01 Q1007 NOSIG
2026-04-02 10:30:00,METAR LJLJ 021030Z 13004KT 9999 BKN055 12/01 Q1007 NOSIG
2026-04-02 10:00:00,METAR LJLJ 021000Z 30005KT 250V340 9999 BKN055 12/M01 Q1008 NOSIG
2026-04-02 09:30:00,METAR LJLJ 020930Z 26004KT 210V290 9999 BKN055 11/M00 Q1008 NOSIG
2026-04-02 09:00:00,METAR LJLJ 020900Z 24003KT 120V270 9999 BKN055 11/M01 Q1008 NOSIG
2026-04-02 08:30:00,METAR LJLJ 020830Z 13003KT 080V160 9999 BKN055 10/M00 Q1008 NOSIG
2026-04-02 08:00:00,METAR LJLJ 020800Z VRB02KT 9999 BKN055 08/M00 Q1008 NOSIG
2026-04-02 07:30:00,METAR LJLJ 020730Z VRB02KT 9999 BKN055 06/01 Q1009 NOSIG
2026-04-02 07:00:00,METAR LJLJ 020700Z 27001KT 9999 BKN055 04/00 Q1009 NOSIG
2026-04-02 06:30:00,METAR LJLJ 020630Z 28003KT 230V330 9999 BKN055 SCT220 02/M00 Q1009 NOSIG
2026-04-02 06:00:00,METAR LJLJ 020600Z 30003KT 9999 BKN055 SCT220 01/M01 Q1009 NOSIG
2026-04-02 05:30:00,METAR LJLJ 020530Z 00000KT 9999 SCT055 BKN220 M00/M02 Q1009 NOSIG
2026-04-02 05:00:00,METAR LJLJ 020500Z 17001KT 9999 FEW055 BKN220 M00/M02 Q1009 NOSIG
2026-04-02 04:30:00,METAR LJLJ 020430Z VRB01KT 9999 FEW055 BKN220 00/M02 Q1009 NOSIG
2026-04-02 04:00:00,METAR LJLJ 020400Z 28006KT 9999 SCT055 BKN210 00/M02 Q1009 NOSIG
2026-04-02 03:30:00,METAR LJLJ 020330Z 29004KT 9999 SCT055 BKN210 M00/M02 Q1009 NOSIG
2026-04-02 03:00:00,METAR LJLJ 020300Z 31001KT 9999 SCT055 BKN220 M01/M03 Q1010 NOSIG
2026-04-02 02:30:00,METAR LJLJ 020230Z VRB01KT 9999 SCT055 BKN220 M01/M03 Q1010 NOSIG
2026-04-02 02:00:00,METAR LJLJ 020200Z 32001KT 9999 FEW055 BKN230 M01/M03 Q1010 NOSIG
2026-04-02 01:30:00,METAR LJLJ 020130Z VRB02KT 9999 FEW060 SCT240 M01/M03 Q1010 NOSIG
2026-04-02 01:00:00,METAR LJLJ 020100Z VRB01KT 9999 FEW060 M01/M04 Q1011 NOSIG
2026-04-02 00:30:00,METAR LJLJ 020030Z 22001KT 9999 FEW060 M01/M03 Q1011 NOSIG
2026-04-02 00:00:00,METAR LJLJ 020000Z 35003KT 270V020 9999 FEW060 M01/M03 Q1011 NOSIG
2026-04-01 23:30:00,METAR LJLJ 012330Z VRB01KT 9999 FEW060 M00/M04 Q1011 NOSIG
2026-04-01 23:00:00,METAR LJLJ 012300Z VRB01KT 9999 FEW060 M00/M03 Q1012 NOSIG
2026-04-01 22:30:00,METAR LJLJ 012230Z 36002KT 9999 FEW060 01/M03 Q1012 NOSIG
2026-04-01 22:00:00,METAR LJLJ 012200Z VRB02KT 9999 FEW060 SCT220 01/M02 Q1012 NOSIG
2026-04-01 21:30:00,METAR LJLJ 012130Z 28002KT 9999 FEW060 SCT220 01/M03 Q1013 NOSIG
2026-04-01 21:00:00,METAR LJLJ 012100Z 31002KT 9999 FEW060 BKN240 02/M02 Q1013 NOSIG
2026-04-01 20:30:00,METAR LJLJ 012030Z VRB02KT 9999 FEW060 BKN240 04/M02 Q1013 NOSIG
2026-04-01 20:00:00,METAR LJLJ 012000Z VRB04KT 9999 FEW060 BKN240 07/M02 Q1013 NOSIG
2026-04-01 19:30:00,METAR LJLJ 011930Z 11009KT 090V150 9999 FEW060 SCT240 07/M02 Q1013 NOSIG
2026-04-01 19:00:00,METAR LJLJ 011900Z 10007KT 9999 FEW060 SCT240 07/M02 Q1013 NOSIG
2026-04-01 18:30:00,METAR LJLJ 011830Z 11007KT 9999 FEW060 SCT240 08/M02 Q1013 NOSIG
2026-04-01 18:00:00,METAR LJLJ 011800Z 09004KT 9999 FEW060 SCT240 08/M01 Q1013 NOSIG
2026-04-01 17:30:00,METAR LJLJ 011730Z 11001KT 9999 FEW060 SCT220 09/M02 Q1013 NOSIG
2026-04-01 17:00:00,METAR LJLJ 011700Z 04003KT 310V100 9999 FEW060 SCT220 11/M02 Q1013 NOSIG
2026-04-01 16:30:00,METAR LJLJ 011630Z 28005KT 260V320 9999 FEW060 SCT100 11/M01 Q1013 NOSIG
2026-04-01 16:00:00,METAR LJLJ 011600Z 08009KT 9999 FEW060 SCT100 12/M01 Q1013 NOSIG
2026-04-01 15:30:00,METAR LJLJ 011530Z VRB02KT 9999 FEW060 SCT100 12/M02 Q1013 NOSIG
2026-04-01 15:00:00,METAR LJLJ 011500Z 06006G17KT 300V090 9999 FEW060 SCT090 12/M02 Q1013 NOSIG
2026-04-01 14:00:00,METAR LJLJ 011400Z 30007KT 9999 FEW060 BKN065 12/M01 Q1014 NOSIG
2026-04-01 13:30:00,METAR LJLJ 011330Z 30010KT 270V330 9999 FEW060 BKN065 13/M00 Q1014 NOSIG
2026-04-01 13:00:00,METAR LJLJ 011300Z VRB03KT 9999 FEW060 BKN065 12/00 Q1015 NOSIG
2026-04-01 12:30:00,METAR LJLJ 011230Z 10007KT 060V150 9999 SCT060 SCT075 BKN100 10/M02 Q1015 NOSIG
2026-04-01 12:00:00,METAR LJLJ 011200Z 00000KT 9999 SCT060 SCT075 BKN100 10/M02 Q1016 NOSIG
2026-04-01 11:30:00,METAR LJLJ 011130Z VRB01KT 9999 SCT060 SCT075 BKN100 09/M02 Q1016 NOSIG
2026-04-01 11:00:00,METAR LJLJ 011100Z 11011KT 9999 SCT060 SCT075 BKN100 09/M02 Q1016 NOSIG
2026-04-01 10:30:00,METAR LJLJ 011030Z 11008KT 040V180 9999 SCT060 SCT075 BKN100 09/M02 Q1017 NOSIG
2026-04-01 10:00:00,METAR LJLJ 011000Z 06007KT 020V110 9999 SCT060 SCT075 BKN100 10/M03 Q1017 NOSIG
2026-04-01 09:30:00,METAR LJLJ 010930Z 07009KT 030V110 9999 FEW060 SCT075 BKN100 10/M02 Q1017 NOSIG
2026-04-01 09:00:00,METAR LJLJ 010900Z 11008KT 040V150 9999 FEW060 SCT077 BKN100 10/M04 Q1017 NOSIG
2026-04-01 08:30:00,METAR LJLJ 010830Z 14007KT 070V190 9999 FEW060 SCT077 BKN100 09/M03 Q1017 NOSIG
2026-04-01 08:00:00,METAR LJLJ 010800Z 24007KT 9999 FEW060 SCT077 BKN100 08/M04 Q1017 NOSIG
2026-04-01 07:30:00,METAR LJLJ 010730Z 02005KT 9999 FEW060 BKN077 08/M04 Q1017 NOSIG
2026-04-01 07:00:00,METAR LJLJ 010700Z 26007KT 220V280 9999 FEW060 BKN077 07/M02 Q1017 NOSIG
2026-04-01 06:30:00,METAR LJLJ 010630Z 22004KT 190V260 9999 FEW060 BKN077 06/M04 Q1017 NOSIG
2026-04-01 06:00:00,METAR LJLJ 010600Z 19003KT 140V230 9999 FEW060 BKN077 06/M03 Q1017 NOSIG
2026-04-01 05:30:00,METAR LJLJ 010530Z 22006KT 200V260 9999 FEW070 BKN077 05/M04 Q1017 NOSIG
2026-04-01 05:00:00,METAR LJLJ 010500Z 21005KT 9999 FEW070 BKN077 BKN100 04/M02 Q1017 NOSIG
2026-04-01 04:30:00,METAR LJLJ 010430Z 20006KT 150V220 9999 FEW070 BKN077 BKN100 05/M05 Q1016 NOSIG
2026-04-01 04:00:00,METAR LJLJ 010400Z 21006KT 9999 FEW070 BKN077 BKN100 04/M04 Q1017 NOSIG
2026-04-01 03:30:00,METAR LJLJ 010330Z VRB02KT 9999 FEW070 BKN075 OVC100 02/M02 Q1017 NOSIG
2026-04-01 03:00:00,METAR LJLJ 010300Z VRB02KT 9999 FEW070 BKN077 OVC100 02/M02 Q1017 NOSIG
2026-04-01 02:30:00,METAR LJLJ 010230Z 11005KT 9999 SCT070 BKN100 01/M02 Q1016 NOSIG
2026-04-01 02:00:00,METAR LJLJ 010200Z VRB02KT 9999 SCT070 BKN100 02/M03 Q1017 NOSIG
2026-04-01 01:30:00,METAR LJLJ 010130Z 26001KT 9999 FEW070 BKN100 01/M02 Q1017 WS ALL RWY NOSIG
2026-04-01 01:00:00,METAR LJLJ 010100Z 26001KT 9999 FEW070 BKN100 01/M02 Q1017 WS ALL RWY NOSIG
2026-04-01 00:30:00,METAR LJLJ 010030Z 18001KT 9999 FEW070 BKN100 02/M03 Q1017 WS ALL RWY NOSIG
2026-04-01 00:00:00,METAR LJLJ 010000Z VRB02KT 9999 FEW070 BKN100 02/M04 Q1017 WS ALL RWY NOSIG
2026-03-31 23:30:00,METAR LJLJ 312330Z VRB02KT 9999 FEW070 BKN100 01/M04 Q1017 WS ALL RWY NOSIG
2026-03-31 23:00:00,METAR LJLJ 312300Z 36001KT 9999 FEW070 BKN100 01/M04 Q1017 WS ALL RWY NOSIG
2026-03-31 22:30:00,METAR LJLJ 312230Z 21005KT 9999 FEW070 SCT110 02/M05 Q1017 WS ALL RWY NOSIG
2026-03-31 22:00:00,METAR LJLJ 312200Z 23005KT 210V290 9999 FEW070 SCT110 02/M05 Q1017 WS ALL RWY NOSIG
2026-03-31 21:30:00,METAR LJLJ 312130Z VRB02KT 9999 FEW070 BKN250 01/M05 Q1017 WS ALL RWY NOSIG
2026-03-31 21:00:00,METAR LJLJ 312100Z 18004KT 120V210 9999 FEW070 BKN250 01/M05 Q1017 WS ALL RWY NOSIG
2026-03-31 20:30:00,METAR LJLJ 312030Z 24003KT 200V280 9999 FEW070 BKN250 01/M05 Q1017 WS ALL RWY NOSIG
2026-03-31 20:00:00,METAR LJLJ 312000Z 18003KT 140V260 9999 FEW070 SCT250 02/M04 Q1017 WS ALL RWY NOSIG
2026-03-31 19:30:00,METAR LJLJ 311930Z VRB01KT 9999 FEW070 SCT250 02/M04 Q1017 WS ALL RWY NOSIG
2026-03-31 19:00:00,METAR LJLJ 311900Z 13004KT 9999 FEW070 SCT250 03/M05 Q1017 WS ALL RWY NOSIG
2026-03-31 18:30:00,METAR LJLJ 311830Z VRB02KT 9999 FEW070 SCT250 04/M05 Q1016 WS ALL RWY NOSIG
2026-03-31 18:00:00,METAR LJLJ 311800Z VRB03KT 9999 FEW070 SCT250 06/M05 Q1016 WS ALL RWY NOSIG
2026-03-31 17:30:00,METAR LJLJ 311730Z 36007KT 320V050 9999 FEW070 SCT220 08/M07 Q1015 WS ALL RWY NOSIG
2026-03-31 17:00:00,METAR LJLJ 311700Z 35007KT 320V030 9999 FEW070 SCT220 09/M07 Q1015 WS ALL RWY NOSIG
2026-03-31 16:30:00,METAR LJLJ 311630Z 35010KT 330V030 9999 FEW070 SCT220 09/M06 Q1014 WS ALL RWY NOSIG
2026-03-31 16:00:00,METAR LJLJ 311600Z 35007KT 300V020 9999 FEW070 BKN220 10/M07 Q1014 WS ALL RWY NOSIG
2026-03-31 15:30:00,METAR LJLJ 311530Z 36012KT 320V040 9999 FEW070 BKN200 10/M07 Q1014 WS ALL RWY NOSIG
2026-03-31 15:00:00,METAR LJLJ 311500Z 35012KT 9999 FEW070 BKN200 10/M06 Q1014 WS ALL RWY NOSIG
2026-03-31 14:30:00,METAR LJLJ 311430Z 35010KT 320V040 9999 FEW070 BKN200 11/M07 Q1014 WS ALL RWY NOSIG
2026-03-31 14:00:00,METAR LJLJ 311400Z 35013KT 320V030 9999 FEW070 SCT090 BKN170 12/M06 Q1014 WS ALL RWY NOSIG
2026-03-31 13:30:00,METAR LJLJ 311330Z 35011KT 320V030 9999 SCT080 BKN170 11/M06 Q1014 WS ALL RWY NOSIG
2026-03-31 13:00:00,METAR LJLJ 311300Z 36008KT 320V040 9999 SCT070 BKN170 11/M06 Q1014 WS ALL RWY NOSIG
2026-03-31 12:30:00,METAR LJLJ 311230Z 36010KT 330V040 9999 SCT070 BKN170 11/M05 Q1014 WS ALL RWY NOSIG
2026-03-31 12:00:00,METAR LJLJ 311200Z 34012G23KT 310V030 9999 SCT070 BKN170 11/M06 Q1014 WS ALL RWY NOSIG
2026-03-31 11:30:00,METAR LJLJ 311130Z 35013KT 320V030 9999 SCT070 BKN180 10/M06 Q1014 WS ALL RWY NOSIG
2026-03-31 11:00:00,METAR LJLJ 311100Z 35013G23KT 320V030 9999 SCT070 SCT200 11/M06 Q1014 WS ALL RWY NOSIG
2026-03-31 10:30:00,METAR LJLJ 311030Z 35012G24KT 320V020 9999 SCT070 SCT200 11/M05 Q1013 WS ALL RWY NOSIG
2026-03-31 10:00:00,METAR LJLJ 311000Z VRB04KT 9999 SCT070 11/M05 Q1013 WS ALL RWY NOSIG
2026-03-31 09:30:00,METAR LJLJ 310930Z 13003G15KT 9999 FEW065 11/M05 Q1013 WS ALL RWY NOSIG
2026-03-31 09:00:00,METAR LJLJ 310900Z VRB05KT 9999 FEW065 10/M04 Q1013 WS ALL RWY NOSIG
2026-03-31 08:30:00,METAR LJLJ 310830Z 14004KT 060V180 9999 FEW060 08/01 Q1013 WS ALL RWY NOSIG
2026-03-31 08:00:00,METAR LJLJ 310800Z 14006KT 100V190 9999 FEW060 07/01 Q1013 NOSIG
2026-03-31 07:30:00,METAR LJLJ 310730Z 11003KT 040V190 9999 FEW060 SCT160 06/02 Q1013 NOSIG
2026-03-31 07:00:00,METAR LJLJ 310700Z VRB02KT 9999 FEW002 SCT160 03/02 Q1013 NOSIG
2026-03-31 06:30:00,METAR LJLJ 310630Z 14003KT 080V220 9999 SCT002 BKN200 02/01 Q1013 NOSIG
2026-03-31 06:00:00,METAR LJLJ 310600Z 14002KT 7000 VCFG BKN002 01/00 Q1013 NOSIG
2026-03-31 05:30:00,METAR LJLJ 310530Z 10003KT 300V120 1500 VCFG BR BKN002 00/00 Q1013 NOSIG
2026-03-31 05:00:00,METAR LJLJ 310500Z VRB04KT 0800 R30/0700D FG BKN002 00/M00 Q1013 TEMPO 0600 FZFG
2026-03-31 04:30:00,METAR LJLJ 310430Z VRB02KT 1500 R30/P2000U BR BKN002 M00/M01 Q1013 NOSIG
2026-03-31 04:00:00,METAR LJLJ 310400Z VRB02KT 0400 R30/1500D FZFG VV001 M00/M01 Q1012 NOSIG
2026-03-31 03:30:00,METAR LJLJ 310330Z 07001KT 9999 BKN002 BKN190 M01/M01 Q1012 NOSIG
2026-03-31 03:00:00,METAR LJLJ 310300Z COR 22003KT 190V010 9999 BKN002 BKN190 M02/M02 Q1012 NOSIG
2026-03-31 02:30:00,METAR LJLJ 310230Z VRB01KT 9999 FEW003 BKN200 M03/M04 Q1012 NOSIG
2026-03-31 02:00:00,METAR LJLJ 310200Z VRB01KT 9999 FEW003 BKN200 M03/M04 Q1012 NOSIG
2026-03-31 01:30:00,METAR LJLJ 310130Z VRB01KT 9999 FEW006 BKN200 M02/M03 Q1012 NOSIG
2026-03-31 01:00:00,METAR LJLJ 310100Z 05001KT 9999 FEW025 M02/M03 Q1012 NOSIG
2026-03-31 00:30:00,METAR LJLJ 310030Z VRB02KT 9999 FEW025 M02/M02 Q1012 NOSIG
2026-03-31 00:00:00,METAR LJLJ 310000Z VRB02KT 9999 FEW025 M02/M02 Q1012 NOSIG
2026-03-30 23:30:00,METAR LJLJ 302330Z VRB01KT 9999 FEW025 00/M01 Q1012 NOSIG
2026-03-30 23:00:00,METAR LJLJ 302300Z 30001KT 9999 FEW025 00/M01 Q1012 NOSIG
2026-03-30 22:30:00,METAR LJLJ 302230Z VRB01KT 9999 FEW025 00/M01 Q1012 NOSIG
2026-03-30 22:00:00,METAR LJLJ 302200Z VRB01KT 9999 FEW025 00/M01 Q1012 NOSIG
2026-03-30 21:30:00,METAR LJLJ 302130Z VRB02KT 9999 FEW060 SCT250 02/M00 Q1012 NOSIG
2026-03-30 21:00:00,METAR LJLJ 302100Z 19002KT 9999 FEW030 SCT080 BKN190 03/01 Q1012 NOSIG
2026-03-30 20:30:00,METAR LJLJ 302030Z VRB01KT 9999 FEW030 SCT080 BKN190 03/02 Q1012 NOSIG
2026-03-30 20:00:00,METAR LJLJ 302000Z 00000KT 9999 SCT030 SCT070 BKN190 04/02 Q1012 NOSIG
2026-03-30 19:30:00,METAR LJLJ 301930Z 07001KT 9999 -RA SCT030 SCT070 BKN190 04/02 Q1012 NOSIG
2026-03-30 19:00:00,METAR LJLJ 301900Z VRB02KT 9999 SCT030 SCT090 BKN190 05/02 Q1012 NOSIG
2026-03-30 18:30:00,METAR LJLJ 301830Z 09003KT 070V150 9999 SCT030 BKN100 06/02 Q1011 NOSIG
2026-03-30 18:00:00,METAR LJLJ 301800Z 16005KT 9999 BKN030 07/02 Q1011 NOSIG
2026-03-30 17:30:00,METAR LJLJ 301730Z 16007KT 9999 FEW030 SCT130 07/02 Q1011 NOSIG
2026-03-30 17:00:00,METAR LJLJ 301700Z 12005KT 9999 FEW030 SCT130 08/02 Q1010 NOSIG
2026-03-30 16:30:00,METAR LJLJ 301630Z 14004KT 9999 FEW033 BKN130 09/02 Q1010 NOSIG
2026-03-30 16:00:00,METAR LJLJ 301600Z 13005KT 9999 FEW033 BKN130 09/02 Q1010 NOSIG
2026-03-30 15:30:00,METAR LJLJ 301530Z 13006KT 9999 FEW033 BKN130 09/01 Q1011 NOSIG
2026-03-30 15:00:00,METAR LJLJ 301500Z 10007KT 9999 FEW033 BKN130 09/01 Q1011 NOSIG
2026-03-30 14:30:00,METAR LJLJ 301430Z 09006KT 060V140 9999 FEW033 SCT120 BKN220 09/01 Q1011 NOSIG
2026-03-30 14:00:00,METAR LJLJ 301400Z 10004KT 050V160 9999 FEW033 BKN120 09/01 Q1011 NOSIG
2026-03-30 13:30:00,METAR LJLJ 301330Z 12005KT 080V150 9999 FEW033 BKN100 09/M00 Q1012 NOSIG
2026-03-30 13:00:00,METAR LJLJ 301300Z 11003KT 040V160 9999 FEW033 BKN100 08/00 Q1012 NOSIG
2026-03-30 12:30:00,METAR LJLJ 301230Z VRB02KT 9999 FEW027 SCT065 BKN080 08/00 Q1013 NOSIG
2026-03-30 12:00:00,METAR LJLJ 301200Z VRB01KT 9999 FEW023 SCT037 BKN070 08/00 Q1013 NOSIG
2026-03-30 11:30:00,METAR LJLJ 301130Z 31007KT 9999 -RA FEW023 OVC045 07/02 Q1014 NOSIG
2026-03-30 11:00:00,METAR LJLJ 301100Z COR 36001KT 9999 -RA FEW018 BKN033 08/M01 Q1014 NOSIG
2026-03-30 10:30:00,METAR LJLJ 301030Z 36002KT 9999 BKN045 08/M01 Q1014 NOSIG
2026-03-30 10:00:00,METAR LJLJ 301000Z 09003KT 040V120 9999 FEW045 BKN065 08/M01 Q1015 NOSIG
2026-03-30 09:30:00,METAR LJLJ 300930Z 09001KT 9999 FEW045 BKN065 08/M01 Q1015 NOSIG
2026-03-30 09:00:00,METAR LJLJ 300900Z VRB01KT 9999 FEW045 BKN100 BKN210 08/M02 Q1016 NOSIG
2026-03-30 08:30:00,METAR LJLJ 300830Z VRB01KT 9999 FEW045 BKN095 BKN210 08/M02 Q1016 NOSIG
2026-03-30 08:00:00,METAR LJLJ 300800Z VRB02KT 9999 FEW045 BKN230 08/M02 Q1016 NOSIG
2026-03-30 07:30:00,METAR LJLJ 300730Z 28004KT 9999 FEW045 BKN230 06/M02 Q1016 NOSIG
2026-03-30 07:00:00,METAR LJLJ 300700Z 27004KT 9999 FEW080 BKN230 05/M02 Q1017 NOSIG
2026-03-30 06:30:00,METAR LJLJ 300630Z VRB02KT 9999 FEW085 BKN240 03/M01 Q1017 NOSIG
2026-03-30 06:00:00,METAR LJLJ 300600Z VRB01KT 9999 FEW085 BKN240 02/M02 Q1016 NOSIG
2026-03-30 05:30:00,METAR LJLJ 300530Z 29004KT 260V320 9999 FEW085 SCT250 M01/M04 Q1017 NOSIG
2026-03-30 05:00:00,METAR LJLJ 300500Z 00000KT 9999 FEW085 M02/M04 Q1017 NOSIG
2026-03-30 04:30:00,METAR LJLJ 300430Z 27001KT 9999 FEW085 M02/M04 Q1017 NOSIG
2026-03-30 04:00:00,METAR LJLJ 300400Z 29004KT 9999 FEW085 M02/M05 Q1017 NOSIG
2026-03-30 03:30:00,METAR LJLJ 300330Z VRB01KT 9999 FEW085 M01/M03 Q1017 NOSIG
2026-03-30 03:00:00,METAR LJLJ 300300Z 29003KT 260V320 9999 FEW085 M00/M03 Q1018 NOSIG
2026-03-30 02:30:00,METAR LJLJ 300230Z VRB01KT 9999 FEW090 00/M03 Q1018 NOSIG
2026-03-30 02:00:00,METAR LJLJ 300200Z 00000KT 9999 FEW090 00/M03 Q1018 NOSIG
2026-03-30 01:30:00,METAR LJLJ 300130Z VRB01KT 9999 SCT080 01/M03 Q1018 NOSIG
2026-03-30 01:00:00,METAR LJLJ 300100Z 18002KT 9999 FEW080 SCT090 02/M02 Q1019 NOSIG
2026-03-30 00:30:00,METAR LJLJ 300030Z 00000KT 9999 FEW085 01/M03 Q1019 NOSIG
2026-03-30 00:00:00,METAR LJLJ 300000Z VRB02KT 9999 FEW070 02/M02 Q1019 NOSIG
2026-03-29 23:30:00,METAR LJLJ 292330Z 22003KT 180V260 9999 FEW070 03/M03 Q1019 NOSIG
2026-03-29 23:00:00,METAR LJLJ 292300Z 09003KT 040V120 9999 FEW070 04/M03 Q1020 NOSIG
2026-03-29 22:30:00,METAR LJLJ 292230Z 34006KT 310V080 9999 FEW070 07/M04 Q1019 NOSIG
2026-03-29 22:00:00,METAR LJLJ 292200Z 34010KT 9999 FEW070 08/M05 Q1020 NOSIG
2026-03-29 21:30:00,METAR LJLJ 292130Z 35008KT 320V030 9999 FEW070 08/M04 Q1020 NOSIG
2026-03-29 21:00:00,METAR LJLJ 292100Z 30007KT 9999 FEW070 SCT100 07/M03 Q1020 NOSIG
2026-03-29 20:30:00,METAR LJLJ 292030Z VRB02KT 9999 FEW070 SCT100 06/M03 Q1019 NOSIG
2026-03-29 20:00:00,METAR LJLJ 292000Z 32006KT 280V360 9999 FEW070 07/M04 Q1019 NOSIG
2026-03-29 19:30:00,METAR LJLJ 291930Z 34005KT 9999 FEW070 06/M03 Q1019 NOSIG
2026-03-29 19:00:00,METAR LJLJ 291900Z 32005KT 9999 FEW070 08/M03 Q1019 NOSIG
2026-03-29 18:30:00,METAR LJLJ 291830Z 30007KT 9999 FEW070 08/M03 Q1018 NOSIG
2026-03-29 18:00:00,METAR LJLJ 291800Z 31005KT 270V360 9999 FEW070 09/M04 Q1018 NOSIG
2026-03-29 17:30:00,METAR LJLJ 291730Z 35005KT 300V060 9999 FEW070 10/M04 Q1018 NOSIG
2026-03-29 17:00:00,METAR LJLJ 291700Z 34008KT 310V040 9999 FEW070 11/M04 Q1017 NOSIG
2026-03-29 16:30:00,METAR LJLJ 291630Z 34008KT 300V020 9999 FEW070 12/M04 Q1017 NOSIG
2026-03-29 16:00:00,METAR LJLJ 291600Z 36007KT 330V040 9999 FEW070 12/M02 Q1016 NOSIG
2026-03-29 15:30:00,METAR LJLJ 291530Z 35009KT 320V040 9999 FEW070 13/M02 Q1016 NOSIG
2026-03-29 15:00:00,METAR LJLJ 291500Z VRB04KT 9999 FEW070 14/M03 Q1016 NOSIG
2026-03-29 14:30:00,METAR LJLJ 291430Z 35010KT 330V030 9999 FEW070 14/M02 Q1016 NOSIG
2026-03-29 14:00:00,METAR LJLJ 291400Z 36010KT 340V040 9999 FEW070 SCT110 14/M02 Q1016 NOSIG
2026-03-29 13:30:00,METAR LJLJ 291330Z 34010KT 320V020 9999 FEW070 SCT110 13/M02 Q1016 NOSIG
2026-03-29 13:00:00,METAR LJLJ 291300Z 34010KT 320V020 9999 SCT070 BKN130 13/M03 Q1016 NOSIG
2026-03-29 12:30:00,METAR LJLJ 291230Z 33011KT 300V010 9999 SCT070 BKN130 12/M02 Q1016 NOSIG
2026-03-29 12:00:00,METAR LJLJ 291200Z 34013G25KT 320V020 9999 SCT070 BKN130 11/M02 Q1016 NOSIG
2026-03-29 11:30:00,METAR LJLJ 291130Z 34010KT 310V030 9999 BKN070 11/M02 Q1016 NOSIG
2026-03-29 11:00:00,METAR LJLJ 291100Z 34011KT 300V010 9999 BKN065 11/M02 Q1016 NOSIG
2026-03-29 10:30:00,METAR LJLJ 291030Z 34016KT 320V030 9999 BKN065 10/M02 Q1015 NOSIG
2026-03-29 10:00:00,METAR LJLJ 291000Z 34014KT 9999 BKN070 10/M02 Q1015 NOSIG
2026-03-29 09:30:00,METAR LJLJ 290930Z 35010KT 9999 BKN070 10/M02 Q1015 NOSIG
2026-03-29 09:00:00,METAR LJLJ 290900Z 36011G24KT 330V060 9999 BKN065 10/M02 Q1014 NOSIG
2026-03-29 08:30:00,METAR LJLJ 290830Z 36001KT 9999 FEW060 BKN080 07/M00 Q1014 NOSIG
2026-03-29 08:00:00,METAR LJLJ 290800Z 06004KT 020V150 9999 FEW060 BKN080 06/01 Q1014 NOSIG
2026-03-29 07:30:00,METAR LJLJ 290730Z 09004KT 060V140 9999 SCT080 SCT120 06/00 Q1014 NOSIG
2026-03-29 07:00:00,METAR LJLJ 290700Z VRB02KT 9999 FEW080 SCT120 07/M00 Q1013 NOSIG
2026-03-29 06:30:00,METAR LJLJ 290630Z 10003KT 030V160 9999 FEW080 SCT120 05/M01 Q1013 NOSIG
2026-03-29 06:00:00,METAR LJLJ 290600Z VRB01KT 9999 FEW080 SCT120 02/M01 Q1013 NOSIG
2026-03-29 05:30:00,METAR LJLJ 290530Z 08001KT 9999 FEW080 M00/M02 Q1012 NOSIG
2026-03-29 05:00:00,METAR LJLJ 290500Z 26001KT 9999 FEW080 M00/M04 Q1012 NOSIG
2026-03-29 04:30:00,METAR LJLJ 290430Z 06003KT 010V150 9999 FEW080 00/M02 Q1012 NOSIG
2026-03-29 04:00:00,METAR LJLJ 290400Z VRB02KT 9999 FEW080 02/M02 Q1012 NOSIG
2026-03-29 03:30:00,METAR LJLJ 290330Z VRB01KT 9999 FEW070 SCT095 03/M01 Q1011 NOSIG
2026-03-29 03:00:00,METAR LJLJ 290300Z 08002KT 9999 FEW070 SCT095 04/M02 Q1011 NOSIG
2026-03-29 02:30:00,METAR LJLJ 290230Z 08001KT 9999 SCT080 05/M02 Q1011 NOSIG
2026-03-29 02:00:00,METAR LJLJ 290200Z 33010KT 9999 SCT070 08/M04 Q1011 NOSIG
2026-03-29 01:30:00,METAR LJLJ 290130Z 33008KT 300V010 9999 BKN070 08/M05 Q1011 NOSIG
2026-03-29 01:00:00,METAR LJLJ 290100Z 04004KT 320V090 9999 BKN070 BKN100 05/M01 Q1011 NOSIG
2026-03-29 00:30:00,METAR LJLJ 290030Z 36001KT 9999 BKN070 BKN100 06/M01 Q1011 NOSIG
2026-03-29 00:00:00,METAR LJLJ 290000Z VRB02KT 9999 BKN070 05/M00 Q1011 NOSIG
2026-03-28 23:30:00,METAR LJLJ 282330Z 00000KT 9999 BKN075 05/M01 Q1011 NOSIG
2026-03-28 23:00:00,METAR LJLJ 282300Z 00000KT 9999 BKN075 05/M01 Q1011 NOSIG
2026-03-28 22:30:00,METAR LJLJ 282230Z VRB02KT 9999 BKN080 04/M01 Q1011 NOSIG
2026-03-28 22:00:00,METAR LJLJ 282200Z VRB02KT 9999 BKN080 05/M02 Q1011 NOSIG
2026-03-28 21:30:00,METAR LJLJ 282130Z 12001KT 9999 SCT080 BKN100 04/M02 Q1011 NOSIG
2026-03-28 21:00:00,METAR LJLJ 282100Z VRB02KT 9999 FEW080 SCT100 03/M03 Q1011 NOSIG
2026-03-28 20:30:00,METAR LJLJ 282030Z 07003KT 290V090 9999 FEW080 05/M03 Q1011 NOSIG
2026-03-28 20:00:00,METAR LJLJ 282000Z 29003KT 210V340 9999 FEW080 06/M04 Q1011 NOSIG
2026-03-28 19:30:00,METAR LJLJ 281930Z VRB03KT 9999 FEW080 06/M03 Q1010 NOSIG
2026-03-28 19:00:00,METAR LJLJ 281900Z 32008KT 9999 FEW080 08/M03 Q1010 NOSIG
2026-03-28 18:30:00,METAR LJLJ 281830Z 32008KT 9999 FEW080 08/M04 Q1010 NOSIG
2026-03-28 18:00:00,METAR LJLJ 281800Z 33008KT 310V020 9999 FEW080 10/M04 Q1010 NOSIG
2026-03-28 17:30:00,METAR LJLJ 281730Z 34009KT 320V060 9999 FEW080 11/M05 Q1009 NOSIG
2026-03-28 17:00:00,METAR LJLJ 281700Z 33010KT 9999 FEW080 11/M04 Q1009 NOSIG
2026-03-28 16:30:00,METAR LJLJ 281630Z 34009KT 320V020 9999 FEW080 12/M05 Q1008 NOSIG
2026-03-28 16:00:00,METAR LJLJ 281600Z 33009KT 300V020 9999 FEW080 13/M05 Q1008 NOSIG
2026-03-28 15:30:00,METAR LJLJ 281530Z 32010KT 9999 FEW080 14/M04 Q1008 NOSIG
2026-03-28 15:00:00,METAR LJLJ 281500Z 32009KT 290V350 9999 FEW080 14/M04 Q1008 NOSIG
2026-03-28 14:30:00,METAR LJLJ 281430Z 33011KT 300V360 9999 FEW080 14/M05 Q1008 NOSIG
2026-03-28 14:00:00,METAR LJLJ 281400Z 33007KT 300V070 9999 FEW080 15/M04 Q1008 NOSIG
2026-03-28 13:30:00,METAR LJLJ 281330Z 32012KT 300V360 9999 FEW080 15/M04 Q1008 NOSIG
2026-03-28 13:00:00,METAR LJLJ 281300Z 32010KT 290V350 9999 FEW075 15/M04 Q1009 NOSIG
2026-03-28 12:30:00,METAR LJLJ 281230Z VRB02KT 9999 FEW075 14/M04 Q1009 NOSIG
2026-03-28 12:00:00,METAR LJLJ 281200Z 25005KT 200V340 9999 FEW075 14/M05 Q1009 NOSIG
2026-03-28 11:30:00,METAR LJLJ 281130Z VRB01KT 9999 FEW075 13/M05 Q1010 NOSIG
2026-03-28 11:00:00,METAR LJLJ 281100Z VRB02KT 9999 FEW075 13/M04 Q1010 NOSIG
2026-03-28 10:30:00,METAR LJLJ 281030Z 13004KT 020V190 9999 FEW075 12/M05 Q1010 NOSIG
2026-03-28 10:00:00,METAR LJLJ 281000Z 12007KT 080V150 9999 FEW075 12/M05 Q1011 NOSIG
2026-03-28 09:30:00,METAR LJLJ 280930Z 11007KT 070V140 9999 FEW070 12/M03 Q1011 NOSIG
2026-03-28 09:00:00,METAR LJLJ 280900Z 09002KT 9999 FEW070 11/M04 Q1011 NOSIG
2026-03-28 08:30:00,METAR LJLJ 280830Z 15003KT 120V200 9999 FEW070 10/M06 Q1011 NOSIG
2026-03-28 08:00:00,METAR LJLJ 280800Z 12005KT 080V150 9999 FEW060 08/M04 Q1011 NOSIG
2026-03-28 07:30:00,METAR LJLJ 280730Z 07004KT 040V110 9999 FEW055 07/M04 Q1012 NOSIG
2026-03-28 07:00:00,METAR LJLJ 280700Z 11004KT 070V150 9999 FEW055 06/M05 Q1012 NOSIG
2026-03-28 06:30:00,METAR LJLJ 280630Z VRB02KT 9999 FEW055 04/M04 Q1012 NOSIG
2026-03-28 06:00:00,METAR LJLJ 280600Z 08004KT 030V110 9999 SCT065 BKN090 02/M04 Q1012 NOSIG
2026-03-28 05:30:00,METAR LJLJ 280530Z 23001KT 9999 BKN065 SCT100 01/M04 Q1012 NOSIG
2026-03-28 05:00:00,METAR LJLJ 280500Z 13004KT 010V160 9999 SCT075 SCT100 01/M05 Q1012 NOSIG
2026-03-28 04:30:00,METAR LJLJ 280430Z 24001KT 9999 FEW075 SCT100 M00/M05 Q1012 NOSIG
2026-03-28 04:00:00,METAR LJLJ 280400Z VRB02KT 9999 FEW075 SCT120 01/M05 Q1011 NOSIG
2026-03-28 03:30:00,METAR LJLJ 280330Z VRB03KT 9999 FEW075 SCT130 02/M06 Q1011 NOSIG
2026-03-28 03:00:00,METAR LJLJ 280300Z VRB02KT 9999 FEW075 SCT130 M00/M05 Q1011 NOSIG
2026-03-28 02:30:00,METAR LJLJ 280230Z VRB01KT 9999 FEW075 03/M06 Q1012 NOSIG
2026-03-28 02:00:00,METAR LJLJ 280200Z VRB01KT 9999 FEW075 03/M06 Q1012 NOSIG
2026-03-28 01:30:00,METAR LJLJ 280130Z 33010KT 9999 FEW075 05/M07 Q1011 NOSIG
2026-03-28 01:00:00,METAR LJLJ 280100Z 33010KT 9999 FEW075 05/M07 Q1011 NOSIG
2026-03-28 00:30:00,METAR LJLJ 280030Z 33013KT 9999 SCT075 07/M08 Q1011 NOSIG
2026-03-28 00:00:00,METAR LJLJ 280000Z 33015KT 9999 SCT075 07/M08 Q1011 NOSIG
2026-03-27 23:30:00,METAR LJLJ 272330Z 32013KT 9999 SCT075 07/M08 Q1012 NOSIG
2026-03-27 23:00:00,METAR LJLJ 272300Z 33014KT 9999 SCT075 07/M08 Q1012 NOSIG
2026-03-27 22:30:00,METAR LJLJ 272230Z 33014KT 300V010 9999 SCT080 SCT150 07/M08 Q1012 NOSIG
2026-03-27 22:00:00,METAR LJLJ 272200Z 34016KT 9999 SCT080 SCT150 07/M08 Q1012 NOSIG
2026-03-27 21:30:00,METAR LJLJ 272130Z 33014KT 9999 SCT080 SCT150 07/M08 Q1011 NOSIG
2026-03-27 21:00:00,METAR LJLJ 272100Z 33017G28KT 9999 FEW060 SCT150 07/M08 Q1011 NOSIG
2026-03-27 20:30:00,METAR LJLJ 272030Z 33014KT 300V010 9999 FEW060 SCT080 07/M08 Q1011 WS ALL RWY NOSIG
2026-03-27 20:00:00,METAR LJLJ 272000Z 33014KT 9999 FEW060 SCT080 07/M08 Q1011 WS ALL RWY NOSIG
2026-03-27 19:30:00,METAR LJLJ 271930Z 33011KT 290V010 9999 FEW060 BKN080 07/M08 Q1010 WS ALL RWY NOSIG
2026-03-27 19:00:00,METAR LJLJ 271900Z 33012KT 300V360 9999 FEW060 BKN080 08/M07 Q1010 WS ALL RWY NOSIG
2026-03-27 18:30:00,METAR LJLJ 271830Z 32012G23KT 290V360 9999 FEW060 BKN095 08/M07 Q1010 WS ALL RWY NOSIG
2026-03-27 18:00:00,METAR LJLJ 271800Z 33015KT 9999 FEW060 BKN095 08/M08 Q1009 WS ALL RWY NOSIG
2026-03-27 17:30:00,METAR LJLJ 271730Z 33017G27KT 310V010 9999 FEW060 SCT120 08/M08 Q1009 WS ALL RWY NOSIG
2026-03-27 17:00:00,METAR LJLJ 271700Z 34019G29KT 9999 FEW060 SCT120 09/M08 Q1008 WS ALL RWY NOSIG
2026-03-27 16:30:00,METAR LJLJ 271630Z 34018G28KT 300V010 9999 FEW060 SCT120 09/M07 Q1008 WS ALL RWY NOSIG
2026-03-27 16:00:00,METAR LJLJ 271600Z 33014G25KT 290V360 9999 FEW060 SCT120 10/M07 Q1008 WS ALL RWY NOSIG
2026-03-25 15:00:00,METAR LJLJ 251500Z 26011KT 9999 FEW060 BKN200 15/00 Q1003 NOSIG
2026-03-25 14:30:00,METAR LJLJ 251430Z 28013KT 240V300 9999 FEW070 BKN200 15/00 Q1003 NOSIG
2026-03-25 14:00:00,METAR LJLJ 251400Z 26012KT 220V290 9999 FEW070 BKN200 16/00 Q1004 NOSIG
2026-03-25 13:30:00,METAR LJLJ 251330Z 26010KT 210V290 9999 FEW070 BKN200 16/00 Q1004 NOSIG
2026-03-25 13:00:00,METAR LJLJ 251300Z 25011KT 220V280 9999 FEW070 BKN200 16/00 Q1004 NOSIG
2026-03-25 12:30:00,METAR LJLJ 251230Z 24012KT 210V280 9999 FEW070 BKN200 16/01 Q1005 NOSIG
2026-03-25 12:00:00,METAR LJLJ 251200Z 23012KT 200V270 9999 FEW070 BKN200 16/M01 Q1006 NOSIG
2026-03-25 11:30:00,METAR LJLJ 251130Z 26013KT 230V300 9999 FEW070 BKN200 16/M01 Q1007 NOSIG
2026-03-25 11:00:00,METAR LJLJ 251100Z 24008G21KT 9999 FEW060 BKN200 16/M01 Q1007 NOSIG
2026-03-25 10:30:00,METAR LJLJ 251030Z 09004KT 010V130 CAVOK 14/02 Q1008 NOSIG
2026-03-25 10:00:00,METAR LJLJ 251000Z 07004KT 030V140 CAVOK 13/01 Q1009 NOSIG
2026-03-25 09:30:00,METAR LJLJ 250930Z 07004KT 030V100 CAVOK 11/01 Q1010 NOSIG
2026-03-25 09:00:00,METAR LJLJ 250900Z 07001KT CAVOK 10/02 Q1011 NOSIG
2026-03-25 08:30:00,METAR LJLJ 250830Z VRB01KT CAVOK 07/02 Q1011 NOSIG
2026-03-25 08:00:00,METAR LJLJ 250800Z 07001KT CAVOK 06/01 Q1012 NOSIG
2026-03-25 07:30:00,METAR LJLJ 250730Z VRB01KT CAVOK 04/00 Q1012 NOSIG
2026-03-25 07:00:00,METAR LJLJ 250700Z VRB01KT CAVOK 02/01 Q1013 NOSIG
2026-03-25 06:30:00,METAR LJLJ 250630Z 30002KT CAVOK 00/M01 Q1013 NOSIG
2026-03-25 06:00:00,METAR LJLJ 250600Z VRB02KT CAVOK M01/M02 Q1013 NOSIG
2026-03-25 05:30:00,METAR LJLJ 250530Z VRB01KT CAVOK M02/M03 Q1014 NOSIG
2026-03-25 05:00:00,METAR LJLJ 250500Z VRB01KT CAVOK M02/M03 Q1014 NOSIG
2026-03-25 04:30:00,METAR LJLJ 250430Z 28004KT CAVOK M02/M03 Q1014 NOSIG
2026-03-25 04:00:00,METAR LJLJ 250400Z 29002KT CAVOK M02/M04 Q1014 NOSIG
2026-03-25 03:30:00,METAR LJLJ 250330Z VRB01KT CAVOK M01/M03 Q1015 NOSIG
2026-03-25 03:00:00,METAR LJLJ 250300Z VRB01KT CAVOK M01/M03 Q1015 NOSIG
2026-03-25 02:30:00,METAR LJLJ 250230Z 27002KT CAVOK M00/M02 Q1016 NOSIG
2026-03-25 02:00:00,METAR LJLJ 250200Z 27002KT CAVOK M00/M02 Q1016 NOSIG
2026-03-25 01:30:00,METAR LJLJ 250130Z VRB02KT CAVOK 00/M02 Q1016 NOSIG
2026-03-25 01:00:00,METAR LJLJ 250100Z VRB02KT CAVOK 00/M02 Q1016 NOSIG
2026-03-25 00:30:00,METAR LJLJ 250030Z VRB01KT CAVOK 01/M01 Q1017 NOSIG
2026-03-25 00:00:00,METAR LJLJ 250000Z VRB01KT CAVOK 01/M01 Q1017 NOSIG
2026-03-24 23:30:00,METAR LJLJ 242330Z VRB02KT CAVOK 02/M00 Q1017 NOSIG
2026-03-24 23:00:00,METAR LJLJ 242300Z 25002KT CAVOK 02/M00 Q1017 NOSIG
2026-03-24 22:30:00,METAR LJLJ 242230Z 29003KT CAVOK 02/M00 Q1017 NOSIG
2026-03-24 22:00:00,METAR LJLJ 242200Z 28002KT CAVOK 03/00 Q1018 NOSIG
2026-03-24 21:30:00,METAR LJLJ 242130Z 28003KT CAVOK 03/00 Q1018 NOSIG
2026-03-24 21:00:00,METAR LJLJ 242100Z 28003KT CAVOK 04/00 Q1018 NOSIG
2026-03-24 20:30:00,METAR LJLJ 242030Z 28003KT CAVOK 04/01 Q1018 NOSIG
2026-03-24 20:00:00,METAR LJLJ 242000Z 28004KT 9999 FEW085 05/01 Q1018 NOSIG
2026-03-24 19:30:00,METAR LJLJ 241930Z VRB01KT 9999 SCT085 05/02 Q1018 NOSIG
2026-03-24 19:00:00,METAR LJLJ 241900Z 27003KT 230V300 9999 FEW085 06/01 Q1018 NOSIG
2026-03-24 18:30:00,METAR LJLJ 241830Z VRB02KT 9999 FEW085 06/02 Q1018 NOSIG
2026-03-24 18:00:00,METAR LJLJ 241800Z VRB01KT 9999 FEW085 08/02 Q1018 NOSIG
2026-03-24 17:30:00,METAR LJLJ 241730Z VRB01KT 9999 FEW080 10/02 Q1018 NOSIG
2026-03-24 17:00:00,METAR LJLJ 241700Z VRB01KT 9999 FEW075 SCT085 12/04 Q1018 NOSIG
2026-03-24 16:30:00,METAR LJLJ 241630Z 11003KT 9999 FEW075 SCT085 15/02 Q1018 NOSIG
2026-03-24 16:00:00,METAR LJLJ 241600Z VRB02KT 9999 FEW075 BKN085 15/01 Q1018 NOSIG
2026-03-24 15:30:00,METAR LJLJ 241530Z VRB02KT 9999 FEW077 BKN087 16/M01 Q1018 NOSIG
2026-03-24 15:00:00,METAR LJLJ 241500Z VRB01KT 9999 FEW077 BKN087 15/M03 Q1018 NOSIG
2026-03-24 14:30:00,METAR LJLJ 241430Z VRB02KT 9999 FEW077 SCT085 BKN250 15/M01 Q1018 NOSIG
2026-03-24 14:00:00,METAR LJLJ 241400Z 17002KT 9999 FEW077 SCT087 BKN250 16/M02 Q1018 NOSIG
2026-03-24 13:30:00,METAR LJLJ 241330Z 00000KT 9999 FEW077 SCT087 BKN250 15/M02 Q1019 NOSIG
2026-03-24 13:00:00,METAR LJLJ 241300Z 08003KT 350V120 9999 FEW077 BKN087 15/M01 Q1019 NOSIG
2026-03-24 12:30:00,METAR LJLJ 241230Z 12003KT 060V190 9999 FEW077 BKN087 14/M01 Q1019 NOSIG
2026-03-24 12:00:00,METAR LJLJ 241200Z 03001KT 9999 FEW077 BKN087 15/01 Q1019 NOSIG
2026-03-24 11:30:00,METAR LJLJ 241130Z 14004KT 060V210 9999 FEW077 SCT087 16/02 Q1020 NOSIG
2026-03-24 11:00:00,METAR LJLJ 241100Z 13002KT 9999 FEW077 15/M01 Q1020 NOSIG
2026-03-24 10:30:00,METAR LJLJ 241030Z 12005KT 020V160 9999 FEW070 14/M00 Q1020 NOSIG
2026-03-24 10:00:00,METAR LJLJ 241000Z 11004KT 070V200 9999 FEW070 14/01 Q1020 NOSIG
2026-03-24 09:30:00,METAR LJLJ 240930Z 13005KT 9999 FEW070 13/03 Q1021 NOSIG
2026-03-24 09:00:00,METAR LJLJ 240900Z 09003KT 050V130 9999 FEW070 12/04 Q1021 NOSIG
2026-03-24 08:30:00,METAR LJLJ 240830Z VRB01KT 9999 FEW065 10/04 Q1021 NOSIG
2026-03-24 08:00:00,METAR LJLJ 240800Z VRB02KT 9999 FEW065 08/02 Q1021 NOSIG
2026-03-24 07:30:00,METAR LJLJ 240730Z VRB02KT 9999 FEW065 04/02 Q1021 NOSIG
2026-03-24 07:00:00,METAR LJLJ 240700Z 28003KT 250V330 9999 FEW065 03/02 Q1021 NOSIG
2026-03-24 06:30:00,METAR LJLJ 240630Z 00000KT 9999 FEW060 02/01 Q1021 NOSIG
2026-03-24 06:00:00,METAR LJLJ 240600Z VRB01KT 9999 FEW060 M00/M01 Q1021 NOSIG
2026-03-24 05:30:00,METAR LJLJ 240530Z 26001KT 9999 FEW060 M01/M02 Q1021 NOSIG
2026-03-24 05:00:00,METAR LJLJ 240500Z 00000KT 9999 FEW060 M01/M02 Q1021 NOSIG
2026-03-24 04:30:00,METAR LJLJ 240430Z VRB02KT 9999 FEW060 M01/M01 Q1020 NOSIG
2026-03-24 04:00:00,METAR LJLJ 240400Z 06002KT 9999 FEW060 M01/M01 Q1020 NOSIG
2026-03-24 03:30:00,METAR LJLJ 240330Z VRB03KT 9999 FEW060 M01/M02 Q1019 NOSIG
2026-03-24 03:00:00,METAR LJLJ 240300Z VRB02KT 9999 FEW060 M01/M01 Q1020 NOSIG
2026-03-24 02:30:00,METAR LJLJ 240230Z 28005KT 9999 FEW060 M00/M01 Q1020 NOSIG
2026-03-24 02:00:00,METAR LJLJ 240200Z 27003KT 9999 FEW060 00/M00 Q1019 NOSIG
2026-03-24 01:30:00,METAR LJLJ 240130Z VRB01KT 9999 FEW060 01/00 Q1020 NOSIG
2026-03-24 01:00:00,METAR LJLJ 240100Z VRB02KT 9999 FEW060 00/M01 Q1020 NOSIG
2026-03-24 00:30:00,METAR LJLJ 240030Z VRB02KT 9999 FEW060 02/00 Q1020 NOSIG
2026-03-24 00:00:00,METAR LJLJ 240000Z 36002KT 9999 FEW060 SCT100 02/01 Q1020 NOSIG
2026-03-23 23:30:00,METAR LJLJ 232330Z 30003KT 260V320 9999 FEW060 SCT100 04/02 Q1020 NOSIG
2026-03-23 23:00:00,METAR LJLJ 232300Z VRB01KT 9999 FEW060 BKN100 05/03 Q1019 NOSIG
2026-03-23 22:30:00,METAR LJLJ 232230Z 28003KT 230V330 9999 FEW060 BKN100 05/03 Q1019 NOSIG
2026-03-23 22:00:00,METAR LJLJ 232200Z 29005KT 9999 FEW060 BKN100 06/04 Q1019 NOSIG
2026-03-23 21:30:00,METAR LJLJ 232130Z 18004KT 140V290 9999 FEW060 BKN100 07/03 Q1019 NOSIG
2026-03-23 21:00:00,METAR LJLJ 232100Z 30001KT 9999 FEW060 BKN090 07/04 Q1019 NOSIG
2026-03-23 20:30:00,METAR LJLJ 232030Z VRB02KT 9999 FEW060 BKN090 07/04 Q1019 NOSIG
2026-03-23 20:00:00,METAR LJLJ 232000Z VRB02KT 9999 FEW060 BKN090 07/04 Q1019 NOSIG
2026-03-23 19:30:00,METAR LJLJ 231930Z VRB02KT 9999 FEW055 BKN090 08/03 Q1019 NOSIG
2026-03-23 19:00:00,METAR LJLJ 231900Z 15003KT 120V190 9999 FEW055 BKN090 09/03 Q1018 NOSIG
2026-03-23 18:30:00,METAR LJLJ 231830Z 11006KT 9999 FEW055 BKN090 09/03 Q1018 NOSIG
2026-03-23 18:00:00,METAR LJLJ 231800Z 11009KT 9999 VCSH FEW055TCU BKN085 10/03 Q1017 NOSIG
2026-03-23 17:30:00,METAR LJLJ 231730Z 14005KT 9999 VCSH SCT055TCU BKN085 10/01 Q1017 NOSIG
2026-03-23 17:00:00,METAR LJLJ 231700Z 15003KT 120V180 9999 SCT065 10/04 Q1017 NOSIG
2026-03-23 16:30:00,METAR LJLJ 231630Z 12006KT 9999 FEW061 SCT083 11/02 Q1016 NOSIG
2026-03-23 16:00:00,METAR LJLJ 231600Z 12008KT 9999 FEW070 SCT090 12/02 Q1016 NOSIG
2026-03-23 15:30:00,METAR LJLJ 231530Z 12008KT 9999 FEW060 SCT090 12/01 Q1016 NOSIG
2026-03-23 15:00:00,METAR LJLJ 231500Z 12008KT 9999 SCT060 BKN075 11/01 Q1015 NOSIG
2026-03-23 14:30:00,METAR LJLJ 231430Z 10008KT 070V130 9999 SCT060 BKN075 12/02 Q1015 NOSIG
2026-03-23 14:00:00,METAR LJLJ 231400Z 09002KT 9999 SCT060 BKN095 13/01 Q1015 NOSIG
2026-03-23 13:30:00,METAR LJLJ 231330Z 11005KT 060V150 9999 FEW060 SCT075 12/02 Q1016 NOSIG
2026-03-23 13:00:00,METAR LJLJ 231300Z 11008KT 9999 VCSH SCT055TCU BKN070 11/01 Q1016 NOSIG
2026-03-23 12:30:00,METAR LJLJ 231230Z 10009KT 9999 -SHRA FEW040TCU SCT050 BKN070 11/02 Q1016 NOSIG
2026-03-23 12:00:00,METAR LJLJ 231200Z 09012KT 9999 SCT050 BKN080 11/02 Q1016 NOSIG
2026-03-23 11:30:00,METAR LJLJ 231130Z 09011KT 9999 FEW030 SCT050 BKN100 12/02 Q1016 NOSIG
2026-03-23 11:00:00,METAR LJLJ 231100Z 08005KT 030V150 9999 SCT060 BKN070 12/03 Q1016 NOSIG
2026-03-23 10:30:00,METAR LJLJ 231030Z 11002KT 9999 SCT060 12/02 Q1016 NOSIG
2026-03-23 10:00:00,METAR LJLJ 231000Z VRB02KT 9999 FEW050 11/02 Q1016 NOSIG
2026-03-23 09:30:00,METAR LJLJ 230930Z VRB02KT 9999 FEW050 SCT100 10/02 Q1016 NOSIG
2026-03-23 09:00:00,METAR LJLJ 230900Z 00000KT 9999 FEW050 SCT100 09/02 Q1016 NOSIG
2026-03-23 08:30:00,METAR LJLJ 230830Z 28003KT 230V340 9999 FEW050 SCT065 BKN100 08/01 Q1016 NOSIG
2026-03-23 08:00:00,METAR LJLJ 230800Z 25004KT 220V280 9999 FEW030 BKN060 06/01 Q1016 NOSIG
2026-03-23 07:30:00,METAR LJLJ 230730Z 27005KT 230V290 9999 VCSH FEW040TCU BKN050 04/01 Q1015 NOSIG
2026-03-23 07:00:00,METAR LJLJ 230700Z 28004KT 9999 -SHRA FEW035TCU BKN044 03/M00 Q1015 NOSIG
2026-03-23 06:30:00,METAR LJLJ 230630Z 30001KT 9999 SCT044 BKN050 02/M00 Q1015 NOSIG
2026-03-23 06:00:00,METAR LJLJ 230600Z 26002KT 9999 BKN045 00/M01 Q1015 NOSIG
2026-03-23 05:30:00,METAR LJLJ 230530Z VRB01KT 9999 SCT045 BKN060 M00/M02 Q1015 NOSIG
2026-03-23 05:00:00,METAR LJLJ 230500Z 29003KT 9999 SCT055 M01/M02 Q1015 NOSIG
2026-03-23 04:30:00,METAR LJLJ 230430Z VRB01KT 9999 SCT055 M02/M02 Q1015 NOSIG
2026-03-23 04:00:00,METAR LJLJ 230400Z VRB02KT 9999 SCT055 M01/M02 Q1015 NOSIG
2026-03-23 03:30:00,METAR LJLJ 230330Z 00000KT 9999 FEW050 M02/M02 Q1015 NOSIG
2026-03-23 03:00:00,METAR LJLJ 230300Z VRB01KT 9999 FEW050 M01/M02 Q1014 NOSIG
2026-03-23 02:30:00,METAR LJLJ 230230Z VRB02KT 9999 FEW050 M00/M02 Q1014 NOSIG
2026-03-23 02:00:00,METAR LJLJ 230200Z 28004KT 200V300 9999 SCT050 M01/M02 Q1014 NOSIG
2026-03-23 01:30:00,METAR LJLJ 230130Z VRB02KT 9999 BKN046 01/M01 Q1014 NOSIG
2026-03-23 01:00:00,METAR LJLJ 230100Z 32001KT 9999 BKN046 01/M01 Q1015 NOSIG
2026-03-23 00:30:00,METAR LJLJ 230030Z 30006KT 9999 BKN046 01/M01 Q1015 NOSIG
2026-03-23 00:00:00,METAR LJLJ 230000Z 30004KT 270V340 9999 SCT050 02/M00 Q1015 NOSIG
2026-03-22 23:30:00,METAR LJLJ 222330Z 30009KT 9999 SCT050 02/M00 Q1015 NOSIG
2026-03-22 23:00:00,METAR LJLJ 222300Z 30006KT 9999 BKN050 04/M00 Q1015 NOSIG
2026-03-22 22:30:00,METAR LJLJ 222230Z 28009KT 9999 SCT050 BKN065 03/00 Q1015 NOSIG
2026-03-22 22:00:00,METAR LJLJ 222200Z 29009KT 9999 SCT060 03/M00 Q1015 NOSIG
2026-03-22 21:30:00,METAR LJLJ 222130Z 29007KT 9999 FEW060 03/M00 Q1015 NOSIG
2026-03-22 21:00:00,METAR LJLJ 222100Z 29006KT 9999 FEW060 03/M00 Q1015 NOSIG
2026-03-22 20:30:00,METAR LJLJ 222030Z 29009KT 9999 FEW060 SCT070 03/00 Q1015 NOSIG
2026-03-22 20:00:00,METAR LJLJ 222000Z 30007KT 9999 SCT060 02/M00 Q1015 NOSIG
2026-03-22 19:30:00,METAR LJLJ 221930Z 28004KT 9999 FEW060 04/00 Q1015 NOSIG
2026-03-22 19:00:00,METAR LJLJ 221900Z 28004KT 9999 FEW060 05/01 Q1015 NOSIG
2026-03-22 18:30:00,METAR LJLJ 221830Z VRB02KT 9999 SCT060 06/01 Q1015 NOSIG
2026-03-22 18:00:00,METAR LJLJ 221800Z 06003KT 330V100 9999 FEW060 08/M01 Q1015 NOSIG
2026-03-22 17:30:00,METAR LJLJ 221730Z VRB04KT 9999 FEW060 08/M01 Q1014 NOSIG
2026-03-22 17:00:00,METAR LJLJ 221700Z VRB02KT 9999 FEW055 09/M00 Q1014 NOSIG
2026-03-22 16:30:00,METAR LJLJ 221630Z 35004KT 320V020 9999 FEW045 SCT057 10/M00 Q1014 NOSIG
2026-03-22 16:00:00,METAR LJLJ 221600Z 32006KT 9999 FEW045 BKN057 11/M00 Q1014 NOSIG
2026-03-22 15:30:00,METAR LJLJ 221530Z 32008KT 9999 FEW045 SCT057 BKN075 11/M00 Q1014 NOSIG
2026-03-22 15:00:00,METAR LJLJ 221500Z 32007KT 9999 FEW045 BKN060 11/01 Q1014 NOSIG
2026-03-22 14:30:00,METAR LJLJ 221430Z 34007KT 9999 FEW045 BKN060 10/00 Q1014 NOSIG
2026-03-22 14:00:00,METAR LJLJ 221400Z 05003KT 330V140 9999 FEW045 BKN060 10/M01 Q1014 NOSIG
2026-03-22 13:30:00,METAR LJLJ 221330Z 13007KT 110V170 9999 FEW045 BKN060 11/M02 Q1014 NOSIG
2026-03-22 12:30:00,METAR LJLJ 221230Z 12011KT 090V150 9999 FEW045 SCT055 BKN070 11/M02 Q1014 NOSIG
2026-03-22 12:00:00,METAR LJLJ 221200Z 13009KT 9999 FEW055 SCT070 BKN100 11/M02 Q1014 NOSIG
2026-03-22 11:30:00,METAR LJLJ 221130Z 10009KT 070V130 9999 FEW055 BKN100 11/M02 Q1015 NOSIG
2026-03-22 10:30:00,METAR LJLJ 221030Z 12008KT 070V160 9999 VCSH FEW045TCU BKN055 BKN100 11/M02 Q1015 NOSIG
2026-03-22 10:00:00,METAR LJLJ 221000Z 12005KT 100V190 9999 BKN055 BKN100 11/M01 Q1015 NOSIG
2026-03-22 09:30:00,METAR LJLJ 220930Z 07005KT 340V140 9999 FEW045 SCT060 BKN100 12/M00 Q1015 NOSIG
2026-03-22 08:30:00,METAR LJLJ 220830Z 07008KT 9999 FEW045 BKN065 10/M01 Q1016 NOSIG
2026-03-22 08:00:00,METAR LJLJ 220800Z 09003KT 030V120 9999 FEW045 BKN065 BKN095 09/M00 Q1015 NOSIG
2026-03-22 07:30:00,METAR LJLJ 220730Z VRB02KT 9999 FEW045 SCT065 BKN095 08/01 Q1016 NOSIG
2026-03-22 07:00:00,METAR LJLJ 220700Z 25004KT 9999 FEW045 SCT065 BKN095 06/01 Q1015 NOSIG
2026-03-22 06:30:00,METAR LJLJ 220630Z 30003KT 240V040 9999 FEW045 SCT065 BKN095 06/01 Q1015 NOSIG
2026-03-22 06:00:00,METAR LJLJ 220600Z 30004KT 280V350 9999 FEW055 SCT065 BKN095 05/01 Q1015 NOSIG
2026-03-22 05:30:00,METAR LJLJ 220530Z 29005KT 260V320 9999 FEW055 SCT065 BKN095 04/01 Q1015 NOSIG
2026-03-22 05:00:00,METAR LJLJ 220500Z 23003KT 200V260 9999 FEW055 SCT065 BKN093 04/01 Q1015 NOSIG
2026-03-22 04:30:00,METAR LJLJ 220430Z 28005KT 9999 FEW005 SCT068 BKN090 04/02 Q1015 NOSIG
2026-03-22 04:00:00,METAR LJLJ 220400Z 28005KT 9999 FEW005 SCT068 BKN090 04/02 Q1015 NOSIG
2026-03-22 03:30:00,METAR LJLJ 220330Z 28004KT 9999 FEW010 SCT068 BKN090 04/02 Q1015 NOSIG
2026-03-22 03:00:00,METAR LJLJ 220300Z 28004KT 9999 FEW005 SCT068 BKN090 04/02 Q1015 NOSIG
2026-03-22 02:30:00,METAR LJLJ 220230Z 30006KT 9999 FEW005 SCT065 BKN085 05/02 Q1015 NOSIG
2026-03-22 02:00:00,METAR LJLJ 220200Z 30006KT 9999 FEW005 SCT065 BKN085 05/02 Q1015 NOSIG
2026-03-22 01:30:00,METAR LJLJ 220130Z 28005KT 9999 FEW005 SCT065 BKN085 05/02 Q1015 NOSIG
2026-03-22 01:00:00,METAR LJLJ 220100Z 28005KT 9999 FEW005 SCT063 BKN085 05/02 Q1015 NOSIG
2026-03-22 00:30:00,METAR LJLJ 220030Z 30003KT 260V030 9999 FEW005 BKN085 06/02 Q1015 NOSIG
2026-03-22 00:00:00,METAR LJLJ 220000Z 29006KT 9999 FEW005 BKN090 06/02 Q1015 NOSIG
2026-03-21 23:30:00,METAR LJLJ 212330Z 30006KT 9999 FEW007 BKN087 05/02 Q1015 NOSIG
2026-03-21 23:00:00,METAR LJLJ 212300Z 29005KT 9999 FEW007 BKN087 05/02 Q1015 NOSIG
2026-03-21 22:30:00,METAR LJLJ 212230Z 28003KT 250V310 9999 FEW007 BKN090 04/01 Q1015 NOSIG
2026-03-21 22:00:00,METAR LJLJ 212200Z 26003KT 200V330 9999 FEW035 BKN097 04/01 Q1015 NOSIG
2026-03-21 21:30:00,METAR LJLJ 212130Z 00000KT 9999 FEW035 SCT055 BKN097 05/01 Q1015 NOSIG
2026-03-21 21:00:00,METAR LJLJ 212100Z VRB02KT 9999 FEW035 SCT055 BKN100 06/02 Q1015 NOSIG
2026-03-21 20:30:00,METAR LJLJ 212030Z 28002KT 9999 FEW045 SCT055 BKN100 06/01 Q1015 NOSIG
2026-03-21 19:30:00,METAR LJLJ 211930Z 09005KT 9999 FEW007 SCT075 BKN100 08/M01 Q1015 NOSIG
2026-03-21 19:00:00,METAR LJLJ 211900Z VRB02KT 9999 FEW007 SCT068 BKN100 08/M01 Q1015 NOSIG
2026-03-21 18:30:00,METAR LJLJ 211830Z 06006KT 020V080 9999 -RA SCT050 BKN100 08/00 Q1015 NOSIG
2026-03-21 18:00:00,METAR LJLJ 211800Z 10008KT 9999 FEW045 BKN060 BKN100 08/M00 Q1014 NOSIG
2026-03-21 17:30:00,METAR LJLJ 211730Z 09008KT 9999 FEW045 BKN060 BKN100 08/M00 Q1014 NOSIG
2026-03-21 17:00:00,METAR LJLJ 211700Z 08005KT 9999 FEW045 SCT060 BKN075 09/M00 Q1014 NOSIG
2026-03-21 16:30:00,METAR LJLJ 211630Z 08006KT 9999 FEW045 BKN060 09/M00 Q1014 NOSIG
2026-03-21 16:00:00,METAR LJLJ 211600Z 30010KT 9999 FEW045 BKN060 10/01 Q1013 NOSIG
2026-03-21 15:30:00,METAR LJLJ 211530Z 30010KT 9999 FEW045 SCT060 BKN130 10/01 Q1013 NOSIG
2026-03-21 15:00:00,METAR LJLJ 211500Z 34004KT 290V030 9999 FEW045 SCT070 BKN120 10/M02 Q1013 NOSIG
2026-03-21 14:30:00,METAR LJLJ 211430Z 35004KT 290V030 9999 FEW035 SCT050 BKN065 11/M01 Q1013 NOSIG
2026-03-21 14:00:00,METAR LJLJ 211400Z 03005KT 330V120 9999 FEW035 SCT050 BKN065 11/M01 Q1013 NOSIG
2026-03-21 13:30:00,METAR LJLJ 211330Z 06005KT 340V100 9999 FEW035 SCT050 BKN065 11/M02 Q1013 NOSIG
2026-03-21 13:00:00,METAR LJLJ 211300Z 07006KT 340V100 9999 FEW035 SCT050 BKN065 10/M01 Q1013 NOSIG
2026-03-21 12:30:00,METAR LJLJ 211230Z 34005KT 290V010 9999 SCT050 BKN070 10/M00 Q1013 NOSIG
2026-03-21 12:00:00,METAR LJLJ 211200Z 34006KT 9999 FEW050 BKN070 10/00 Q1013 NOSIG
2026-03-21 11:30:00,METAR LJLJ 211130Z VRB02KT 9999 FEW050 BKN065 11/M01 Q1014 NOSIG
2026-03-21 11:00:00,METAR LJLJ 211100Z 12005KT 9999 FEW050 BKN070 11/M00 Q1014 NOSIG
2026-03-21 10:30:00,METAR LJLJ 211030Z 06003KT 020V100 9999 FEW047 BKN070 09/02 Q1014 NOSIG
2026-03-21 10:00:00,METAR LJLJ 211000Z VRB02KT 9999 FEW047 BKN075 09/02 Q1014 NOSIG
2026-03-21 09:30:00,METAR LJLJ 210930Z VRB02KT 9999 FEW055 BKN075 08/01 Q1014 NOSIG
2026-03-21 09:00:00,METAR LJLJ 210900Z 27001KT 9999 FEW050 BKN075 07/00 Q1014 NOSIG
2026-03-21 08:30:00,METAR LJLJ 210830Z VRB02KT 9999 FEW050 BKN075 05/00 Q1014 NOSIG
2026-03-21 08:00:00,METAR LJLJ 210800Z VRB01KT 9999 FEW060 BKN075 04/M01 Q1014 NOSIG
2026-03-21 07:30:00,METAR LJLJ 210730Z 00000KT 9999 FEW065 BKN085 03/M01 Q1014 NOSIG
2026-03-21 07:00:00,METAR LJLJ 210700Z 08003KT 9999 FEW065 BKN085 02/00 Q1014 NOSIG
2026-03-21 06:30:00,METAR LJLJ 210630Z 00000KT 9999 FEW065 BKN085 01/M01 Q1014 NOSIG
2026-03-21 06:00:00,METAR LJLJ 210600Z 15002KT 9999 FEW065 SCT085 BKN120 01/M01 Q1014 NOSIG
2026-03-21 05:30:00,METAR LJLJ 210530Z VRB01KT 9999 FEW065 BKN085 00/M02 Q1014 NOSIG
2026-03-21 05:00:00,METAR LJLJ 210500Z VRB01KT 9999 FEW065 BKN085 00/M01 Q1014 NOSIG
2026-03-21 04:30:00,METAR LJLJ 210430Z VRB02KT 9999 FEW065 BKN080 M00/M02 Q1014 NOSIG
2026-03-21 04:00:00,METAR LJLJ 210400Z VRB01KT 9999 FEW065 SCT085 M00/M02 Q1014 NOSIG
2026-03-21 03:30:00,METAR LJLJ 210330Z 30003KT 9999 FEW065 SCT085 00/M02 Q1014 NOSIG
2026-03-21 03:00:00,METAR LJLJ 210300Z VRB01KT 9999 SCT065 BKN085 01/M01 Q1014 NOSIG
2026-03-21 02:30:00,METAR LJLJ 210230Z 06002KT 9999 SCT065 BKN085 01/M01 Q1015 NOSIG
2026-03-21 02:00:00,METAR LJLJ 210200Z 25001KT 9999 FEW070 BKN085 01/M01 Q1015 NOSIG
2026-03-21 01:30:00,METAR LJLJ 210130Z VRB01KT 9999 FEW070 BKN085 01/M01 Q1015 NOSIG
2026-03-21 01:00:00,METAR LJLJ 210100Z 26003KT 9999 BKN080 01/M01 Q1015 NOSIG
2026-03-21 00:30:00,METAR LJLJ 210030Z 28004KT 9999 BKN080 01/M02 Q1015 NOSIG
2026-03-21 00:00:00,METAR LJLJ 210000Z 28002KT 9999 FEW080 M00/M02 Q1016 NOSIG
2026-03-20 23:30:00,METAR LJLJ 202330Z VRB02KT 9999 SCT080 01/M01 Q1016 NOSIG
2026-03-20 23:00:00,METAR LJLJ 202300Z 29003KT 9999 BKN080 01/M01 Q1016 NOSIG
2026-03-20 22:30:00,METAR LJLJ 202230Z 28003KT 9999 BKN080 02/M00 Q1016 NOSIG
2026-03-20 22:00:00,METAR LJLJ 202200Z 28004KT 9999 BKN080 02/M01 Q1016 NOSIG
2026-03-20 21:30:00,METAR LJLJ 202130Z 28003KT 9999 BKN080 02/M01 Q1016 NOSIG
2026-03-20 21:00:00,METAR LJLJ 202100Z 28005KT 9999 BKN080 02/M01 Q1016 NOSIG
2026-03-20 20:30:00,METAR LJLJ 202030Z 31003KT 9999 SCT080 01/M02 Q1016 NOSIG
2026-03-20 20:00:00,METAR LJLJ 202000Z 30004KT 9999 FEW085 02/M01 Q1016 NOSIG
2026-03-20 19:30:00,METAR LJLJ 201930Z 36001KT 9999 FEW070 03/M02 Q1016 NOSIG
2026-03-20 19:00:00,METAR LJLJ 201900Z 28002KT 9999 FEW070 03/M01 Q1015 NOSIG
2026-03-20 18:30:00,METAR LJLJ 201830Z 30001KT 9999 FEW075 05/M01 Q1015 NOSIG
2026-03-20 18:00:00,METAR LJLJ 201800Z 34001KT 9999 FEW075 06/M00 Q1015 NOSIG
2026-03-20 17:30:00,METAR LJLJ 201730Z 18004KT 150V220 9999 FEW075 08/M02 Q1015 NOSIG
2026-03-20 17:00:00,METAR LJLJ 201700Z 13007KT 9999 FEW073 10/M03 Q1015 NOSIG
2026-03-20 16:30:00,METAR LJLJ 201630Z 13007KT 9999 FEW073 11/M03 Q1015 NOSIG
2026-03-20 16:00:00,METAR LJLJ 201600Z 18007KT 9999 FEW073 12/M04 Q1014 NOSIG
2026-03-20 15:30:00,METAR LJLJ 201530Z 14006KT 110V170 9999 FEW073 12/M03 Q1014 NOSIG
2026-03-20 15:00:00,METAR LJLJ 201500Z 16007KT 140V200 9999 FEW073 SCT080 13/M04 Q1014 NOSIG
2026-03-20 14:30:00,METAR LJLJ 201430Z 16006KT 9999 FEW073 SCT080 12/M04 Q1015 NOSIG
2026-03-20 14:00:00,METAR LJLJ 201400Z 21001KT 9999 FEW073 SCT080 13/M04 Q1015 NOSIG
2026-03-20 13:30:00,METAR LJLJ 201330Z 15003KT 040V220 9999 FEW068 BKN075 12/M04 Q1015 NOSIG
2026-03-20 12:30:00,METAR LJLJ 201230Z 30005KT 9999 FEW068 BKN077 12/M04 Q1016 NOSIG
2026-03-20 11:30:00,METAR LJLJ 201130Z 05002KT 9999 FEW068 BKN077 12/M05 Q1016 NOSIG
2026-03-20 11:00:00,METAR LJLJ 201100Z VRB01KT 9999 FEW070 BKN077 12/M03 Q1017 NOSIG
2026-03-20 10:30:00,METAR LJLJ 201030Z 19003KT 090V260 9999 FEW070 BKN077 12/M04 Q1017 NOSIG
2026-03-20 10:00:00,METAR LJLJ 201000Z 26003KT 210V350 9999 FEW070 BKN077 12/M03 Q1017 NOSIG
2026-03-20 09:30:00,METAR LJLJ 200930Z VRB02KT 9999 FEW070 SCT075 10/M02 Q1017 NOSIG
2026-03-20 09:00:00,METAR LJLJ 200900Z 27003KT 210V350 9999 FEW070 SCT075 10/M01 Q1017 NOSIG
2026-03-20 08:30:00,METAR LJLJ 200830Z VRB02KT 9999 FEW070 SCT077 BKN250 07/M01 Q1018 NOSIG
2026-03-20 08:00:00,METAR LJLJ 200800Z 27004KT 9999 FEW070 SCT077 BKN250 05/M01 Q1018 NOSIG
2026-03-20 07:30:00,METAR LJLJ 200730Z 30001KT 9999 SCT075 BKN250 05/M00 Q1018 NOSIG
2026-03-20 06:30:00,METAR LJLJ 200630Z VRB02KT 9999 FEW060 BKN250 01/M01 Q1018 NOSIG
2026-03-20 06:00:00,METAR LJLJ 200600Z VRB01KT 9999 FEW060 SCT250 M02/M03 Q1018 NOSIG
2026-03-20 05:30:00,METAR LJLJ 200530Z VRB01KT 9999 FEW060 SCT250 M03/M04 Q1018 NOSIG
2026-03-20 05:00:00,METAR LJLJ 200500Z 30002KT 9999 FEW060 M04/M05 Q1017 NOSIG
2026-03-20 04:30:00,METAR LJLJ 200430Z VRB01KT 9999 FEW060 M03/M04 Q1017 NOSIG
2026-03-20 04:00:00,METAR LJLJ 200400Z VRB01KT 9999 FEW060 M03/M04 Q1017 NOSIG
2026-03-20 03:30:00,METAR LJLJ 200330Z 32001KT 9999 FEW060 M03/M05 Q1017 NOSIG
2026-03-20 03:00:00,METAR LJLJ 200300Z 32001KT 9999 FEW060 M03/M05 Q1017 NOSIG
2026-03-20 02:30:00,METAR LJLJ 200230Z 29002KT 9999 SCT060 M01/M03 Q1017 NOSIG
2026-03-20 02:00:00,METAR LJLJ 200200Z 29002KT 9999 SCT060 M01/M03 Q1017 NOSIG
2026-03-20 01:30:00,METAR LJLJ 200130Z 36001KT 9999 SCT060 00/M03 Q1018 NOSIG
2026-03-20 01:00:00,METAR LJLJ 200100Z 36001KT 9999 SCT060 00/M03 Q1018 NOSIG
2026-03-20 00:30:00,METAR LJLJ 200030Z 25002KT 9999 SCT060 01/M02 Q1019 NOSIG
2026-03-20 00:00:00,METAR LJLJ 200000Z 25002KT 9999 FEW060 01/M02 Q1019 NOSIG
2026-03-19 23:30:00,METAR LJLJ 192330Z VRB02KT 9999 FEW060 01/M02 Q1019 NOSIG
2026-03-19 23:00:00,METAR LJLJ 192300Z VRB02KT 9999 FEW060 01/M03 Q1019 NOSIG
2026-03-19 22:30:00,METAR LJLJ 192230Z 31003KT 9999 FEW060 02/M03 Q1019 NOSIG
2026-03-19 22:00:00,METAR LJLJ 192200Z 34004KT 320V060 9999 FEW060 04/M02 Q1019 NOSIG
2026-03-19 21:30:00,METAR LJLJ 192130Z 07004KT 340V110 9999 FEW060 07/M03 Q1019 NOSIG
2026-03-19 21:00:00,METAR LJLJ 192100Z 11012KT 9999 FEW060 07/M03 Q1019 NOSIG
2026-03-19 20:30:00,METAR LJLJ 192030Z 11013KT 9999 FEW060 08/M02 Q1019 NOSIG
2026-03-19 20:00:00,METAR LJLJ 192000Z 11015KT 9999 FEW060 08/M03 Q1019 NOSIG
2026-03-19 19:30:00,METAR LJLJ 191930Z 11014KT 9999 FEW060 08/M03 Q1019 NOSIG
2026-03-19 19:00:00,METAR LJLJ 191900Z 11015KT 9999 FEW060 08/M02 Q1018 NOSIG
2026-03-19 18:30:00,METAR LJLJ 191830Z 11014KT 9999 FEW060 09/M03 Q1018 NOSIG
2026-03-19 18:00:00,METAR LJLJ 191800Z 11015KT 9999 FEW060 09/M03 Q1018 NOSIG
2026-03-19 17:30:00,METAR LJLJ 191730Z 10013KT 9999 FEW060 10/M03 Q1018 NOSIG
2026-03-19 17:00:00,METAR LJLJ 191700Z 11011KT 9999 FEW060 10/M02 Q1018 NOSIG
2026-03-19 16:30:00,METAR LJLJ 191630Z 10011KT 9999 FEW070 11/M03 Q1018 NOSIG
2026-03-19 16:00:00,METAR LJLJ 191600Z 09012KT 9999 FEW075 12/M03 Q1017 NOSIG
2026-03-19 15:30:00,METAR LJLJ 191530Z 09013KT 9999 FEW075 12/M02 Q1017 NOSIG
2026-03-19 15:00:00,METAR LJLJ 191500Z 10014KT 9999 FEW075 12/M03 Q1017 NOSIG
2026-03-19 14:30:00,METAR LJLJ 191430Z 09014KT 060V120 9999 FEW077 13/M02 Q1017 NOSIG
2026-03-19 14:00:00,METAR LJLJ 191400Z 08016KT 9999 FEW078 13/M03 Q1017 NOSIG
2026-03-19 13:30:00,METAR LJLJ 191330Z 09013KT 060V120 9999 FEW075 13/M03 Q1018 NOSIG
2026-03-19 13:00:00,METAR LJLJ 191300Z 10016KT 9999 FEW070 13/M02 Q1018 NOSIG
2026-03-19 12:30:00,METAR LJLJ 191230Z 11016KT 9999 FEW070 13/M04 Q1018 NOSIG
2026-03-19 12:00:00,METAR LJLJ 191200Z 10016KT 9999 FEW069 13/M03 Q1018 NOSIG
2026-03-19 11:30:00,METAR LJLJ 191130Z 10015KT 9999 FEW064 13/M03 Q1019 NOSIG
2026-03-19 11:00:00,METAR LJLJ 191100Z 04007KT 340V090 9999 FEW065 13/M03 Q1019 NOSIG
2026-03-19 10:30:00,METAR LJLJ 191030Z 29005KT 240V360 9999 FEW060 13/M02 Q1019 NOSIG
2026-03-19 10:00:00,METAR LJLJ 191000Z VRB04KT 9999 FEW060 12/M03 Q1020 NOSIG
2026-03-19 09:30:00,METAR LJLJ 190930Z 08007KT 050V110 9999 FEW060 11/M02 Q1020 NOSIG
2026-03-19 09:00:00,METAR LJLJ 190900Z 09007KT 9999 FEW060 11/M02 Q1020 NOSIG
2026-03-19 08:30:00,METAR LJLJ 190830Z 09006KT 060V120 9999 FEW060 10/M01 Q1020 NOSIG
2026-03-19 08:00:00,METAR LJLJ 190800Z 36003KT 300V060 9999 FEW060 09/00 Q1020 NOSIG
2026-03-19 07:30:00,METAR LJLJ 190730Z VRB01KT 9999 FEW060 09/M00 Q1021 NOSIG
2026-03-19 07:00:00,METAR LJLJ 190700Z 30004KT 9999 FEW060 06/M00 Q1020 NOSIG
2026-03-19 06:30:00,METAR LJLJ 190630Z 32004KT 270V340 9999 FEW070 07/M00 Q1021 NOSIG
2026-03-19 06:00:00,METAR LJLJ 190600Z 31004KT 270V050 9999 FEW070 04/M01 Q1021 NOSIG
2026-03-19 05:30:00,METAR LJLJ 190530Z 29005KT 260V320 9999 FEW070 06/M02 Q1021 NOSIG
2026-03-19 05:00:00,METAR LJLJ 190500Z 07008KT 9999 FEW070 08/M03 Q1020 NOSIG
2026-03-19 04:30:00,METAR LJLJ 190430Z 09006KT 9999 FEW070 06/M03 Q1020 NOSIG
2026-03-19 04:00:00,METAR LJLJ 190400Z 09007KT 9999 FEW070 06/M03 Q1020 NOSIG
2026-03-19 03:30:00,METAR LJLJ 190330Z 08007KT 040V100 9999 FEW070 08/M03 Q1021 NOSIG
2026-03-19 03:00:00,METAR LJLJ 190300Z 08007KT 040V110 9999 FEW070 08/M03 Q1021 NOSIG
2026-03-19 02:30:00,METAR LJLJ 190230Z 08005KT 040V100 9999 FEW070 09/M03 Q1021 NOSIG
2026-03-19 02:00:00,METAR LJLJ 190200Z 08005KT 040V100 9999 FEW070 09/M03 Q1021 NOSIG
2026-03-19 01:30:00,METAR LJLJ 190130Z 10009KT 9999 FEW070 08/M02 Q1021 NOSIG
2026-03-19 01:00:00,METAR LJLJ 190100Z 09009KT 9999 FEW075 08/M02 Q1021 NOSIG
2026-03-19 00:30:00,METAR LJLJ 190030Z 07005KT 030V130 9999 FEW075 09/M02 Q1021 NOSIG
2026-03-19 00:00:00,METAR LJLJ 190000Z 07006KT 020V110 9999 FEW075 09/M02 Q1021 NOSIG
2026-03-18 23:30:00,METAR LJLJ 182330Z VRB03KT 9999 FEW075 09/M04 Q1021 NOSIG
2026-03-18 23:00:00,METAR LJLJ 182300Z 09003KT 040V120 9999 FEW075 10/M04 Q1021 NOSIG
2026-03-18 22:30:00,METAR LJLJ 182230Z 08006KT 020V130 9999 FEW075 SCT220 11/M04 Q1021 NOSIG
2026-03-18 22:00:00,METAR LJLJ 182200Z 10008KT 070V130 9999 FEW075 SCT220 11/M03 Q1021 NOSIG
2026-03-18 21:30:00,METAR LJLJ 182130Z 09006KT 060V140 9999 FEW065 SCT220 11/M03 Q1021 NOSIG
2026-03-18 21:00:00,METAR LJLJ 182100Z 08008KT 040V120 9999 FEW065 SCT220 11/M03 Q1021 NOSIG
2026-03-18 20:30:00,METAR LJLJ 182030Z 08008KT 020V150 9999 FEW065 SCT220 12/M03 Q1021 NOSIG
2026-03-18 20:00:00,METAR LJLJ 182000Z 06014G26KT 350V090 9999 SCT065 BKN220 11/M02 Q1020 NOSIG
2026-03-18 19:30:00,METAR LJLJ 181930Z 09004KT 340V130 9999 SCT065 BKN220 10/M01 Q1020 NOSIG
2026-03-18 19:00:00,METAR LJLJ 181900Z 10009KT 060V130 9999 FEW050 BKN060 11/M00 Q1020 NOSIG
2026-03-18 18:30:00,METAR LJLJ 181830Z 08007KT 010V120 9999 FEW050 BKN060 11/M00 Q1020 NOSIG
2026-03-18 18:00:00,METAR LJLJ 181800Z 09011KT 060V120 9999 FEW050 BKN060 11/00 Q1020 NOSIG
2026-03-18 17:30:00,METAR LJLJ 181730Z 09013KT 9999 FEW050 SCT110 11/M00 Q1019 NOSIG
2026-03-18 17:00:00,METAR LJLJ 181700Z 07013KT 030V110 9999 SCT050 BKN110 11/M01 Q1019 NOSIG
2026-03-18 16:30:00,METAR LJLJ 181630Z 06016G25KT 030V100 9999 SCT050 BKN110 12/M01 Q1019 NOSIG
2026-03-18 16:00:00,METAR LJLJ 181600Z 06016G25KT 030V100 9999 SCT050 BKN110 12/M02 Q1018 NOSIG
2026-03-18 15:30:00,METAR LJLJ 181530Z 08013KT 030V110 9999 SCT050 BKN110 12/M00 Q1018 NOSIG
2026-03-18 15:00:00,METAR LJLJ 181500Z 06014KT 010V090 9999 SCT040 BKN110 12/M01 Q1018 NOSIG
2026-03-18 14:30:00,METAR LJLJ 181430Z 06016KT 010V090 9999 SCT040 BKN110 12/01 Q1018 NOSIG
2026-03-18 14:00:00,METAR LJLJ 181400Z 06014G29KT 010V080 9999 SCT040 BKN110 13/01 Q1019 NOSIG
2026-03-18 13:30:00,METAR LJLJ 181330Z 06014KT 9999 SCT040 BKN110 12/M01 Q1018 NOSIG
2026-03-18 13:00:00,METAR LJLJ 181300Z 08011G22KT 020V110 9999 BKN040 12/00 Q1019 NOSIG
2026-03-18 12:30:00,METAR LJLJ 181230Z 07011KT 9999 BKN040 12/00 Q1019 NOSIG
2026-03-18 12:00:00,METAR LJLJ 181200Z 08013KT 040V110 9999 BKN040 12/01 Q1019 NOSIG
2026-03-18 11:30:00,METAR LJLJ 181130Z 10014KT 070V130 9999 BKN040 12/01 Q1019 NOSIG
2026-03-18 11:00:00,METAR LJLJ 181100Z 09014G29KT 060V120 9999 BKN040 10/01 Q1020 NOSIG
2026-03-18 10:30:00,METAR LJLJ 181030Z 09015G26KT 9999 SCT040 11/02 Q1020 NOSIG
2026-03-18 10:00:00,METAR LJLJ 181000Z 08015G27KT 9999 FEW020 BKN040 10/02 Q1020 NOSIG
2026-03-18 09:30:00,METAR LJLJ 180930Z 09014KT 070V130 9999 FEW020 BKN040 09/02 Q1020 NOSIG
2026-03-18 09:00:00,METAR LJLJ 180900Z 08011KT 9999 FEW020 BKN040 09/02 Q1020 NOSIG
2026-03-18 08:30:00,METAR LJLJ 180830Z 10009KT 9999 FEW020 OVC040 07/03 Q1020 NOSIG
2026-03-18 08:00:00,METAR LJLJ 180800Z 33002KT 9999 -RA FEW020 OVC040 06/02 Q1019 NOSIG
2026-03-18 07:30:00,METAR LJLJ 180730Z 11007KT 070V130 9999 -RA FEW020 OVC040 06/02 Q1019 NOSIG
2026-03-18 07:00:00,METAR LJLJ 180700Z 11007KT 070V130 9999 -RA FEW020 OVC040 06/02 Q1019 NOSIG
2026-03-18 06:30:00,METAR LJLJ 180630Z 36003KT 9999 -RA FEW020 OVC040 05/02 Q1019 NOSIG
2026-03-18 06:00:00,METAR LJLJ 180600Z 13003KT 060V190 9999 -RA FEW020 OVC040 05/02 Q1018 NOSIG
2026-03-18 05:30:00,METAR LJLJ 180530Z 22003KT 9999 -RA FEW020 OVC040 03/02 Q1018 NOSIG
2026-03-18 05:00:00,METAR LJLJ 180500Z 18004KT 150V270 9999 -RA FEW005 BKN038 OVC055 03/01 Q1017 NOSIG
2026-03-18 04:30:00,METAR LJLJ 180430Z VRB02KT 9999 -RA FEW003 BKN045 OVC065 03/M00 Q1017 NOSIG
2026-03-18 04:00:00,METAR LJLJ 180400Z VRB02KT 9999 -RA FEW003 SCT045 BKN065 03/M00 Q1017 NOSIG
2026-03-18 03:30:00,METAR LJLJ 180330Z VRB02KT 9999 -RA FEW003 SCT048 BKN075 03/M01 Q1016 NOSIG
2026-03-18 03:00:00,METAR LJLJ 180300Z VRB02KT 9999 FEW003 SCT055 BKN093 03/M01 Q1016 NOSIG
2026-03-18 02:30:00,METAR LJLJ 180230Z VRB02KT 9999 FEW065 BKN110 BKN250 01/M01 Q1016 NOSIG
2026-03-18 02:00:00,METAR LJLJ 180200Z VRB02KT 9999 FEW065 BKN110 BKN250 01/M01 Q1016 NOSIG
2026-03-18 01:30:00,METAR LJLJ 180130Z VRB01KT 9999 FEW065 BKN110 BKN250 01/M02 Q1017 NOSIG
2026-03-18 01:00:00,METAR LJLJ 180100Z VRB01KT 9999 FEW065 BKN100 BKN250 01/M02 Q1017 NOSIG
2026-03-18 00:30:00,METAR LJLJ 180030Z 34001KT 9999 FEW065 BKN100 BKN250 01/M01 Q1017 NOSIG
2026-03-18 00:00:00,METAR LJLJ 180000Z VRB01KT 9999 FEW065 BKN100 BKN250 01/M01 Q1018 NOSIG
2026-03-17 23:30:00,METAR LJLJ 172330Z VRB02KT 9999 FEW065 BKN098 BKN250 01/M02 Q1018 NOSIG
2026-03-17 23:00:00,METAR LJLJ 172300Z VRB02KT 9999 FEW065 BKN098 BKN250 00/M02 Q1018 NOSIG
2026-03-17 22:30:00,METAR LJLJ 172230Z 27003KT 230V320 9999 FEW070 SCT120 BKN250 M00/M02 Q1018 NOSIG
2026-03-17 22:00:00,METAR LJLJ 172200Z 29003KT 280V350 9999 FEW070 SCT250 M00/M02 Q1019 NOSIG
2026-03-17 21:30:00,METAR LJLJ 172130Z COR 25002KT 9999 FEW070 SCT250 M00/M02 Q1019 NOSIG
2026-03-17 21:00:00,METAR LJLJ 172100Z VRB02KT 9999 FEW070 M00/M02 Q1019 NOSIG
2026-03-17 20:30:00,METAR LJLJ 172030Z VRB01KT 9999 FEW075 00/M02 Q1019 NOSIG
2026-03-17 20:00:00,METAR LJLJ 172000Z 29003KT 250V320 9999 FEW075 01/M01 Q1019 NOSIG
2026-03-17 19:30:00,METAR LJLJ 171930Z VRB02KT 9999 FEW075 02/M01 Q1019 NOSIG
2026-03-17 19:00:00,METAR LJLJ 171900Z 27002KT 9999 FEW075 02/00 Q1019 NOSIG
2026-03-17 18:30:00,METAR LJLJ 171830Z VRB01KT 9999 FEW077 SCT085 03/00 Q1019 NOSIG
2026-03-17 18:00:00,METAR LJLJ 171800Z 32001KT 9999 FEW080 04/00 Q1018 NOSIG
2026-03-17 17:30:00,METAR LJLJ 171730Z 00000KT 9999 FEW075 04/00 Q1018 NOSIG
2026-03-17 17:00:00,METAR LJLJ 171700Z VRB03KT 9999 FEW045 06/M02 Q1018 NOSIG
2026-03-17 16:30:00,METAR LJLJ 171630Z 12009KT 9999 VCSH FEW045TCU FEW090 08/M03 Q1018 NOSIG
2026-03-17 16:00:00,METAR LJLJ 171600Z 12010KT 9999 VCSH FEW050TCU FEW120 09/M02 Q1017 NOSIG
2026-03-17 15:30:00,METAR LJLJ 171530Z 12006KT 080V160 9999 VCSH FEW043TCU SCT070 09/M02 Q1017 NOSIG
2026-03-17 15:00:00,METAR LJLJ 171500Z 09011KT 9999 VCSH FEW043TCU SCT070 10/M04 Q1018 NOSIG
2026-03-17 14:30:00,METAR LJLJ 171430Z 10013KT 070V130 9999 VCSH FEW043TCU SCT070 10/M03 Q1018 NOSIG
2026-03-17 14:00:00,METAR LJLJ 171400Z 07012KT 040V100 9999 VCSH FEW043TCU SCT075 09/M03 Q1018 NOSIG
2026-03-17 13:30:00,METAR LJLJ 171330Z 08011KT 040V110 9999 VCSH FEW045TCU BKN075 10/M02 Q1018 NOSIG
2026-03-17 13:00:00,METAR LJLJ 171300Z 06008G20KT 340V150 9999 VCSH FEW050TCU BKN070 09/M02 Q1018 NOSIG
2026-03-17 12:30:00,METAR LJLJ 171230Z 35008KT 320V020 9999 FEW060 SCT075 10/M06 Q1018 NOSIG
2026-03-17 12:00:00,METAR LJLJ 171200Z 07007KT 060V120 9999 BKN070 11/M04 Q1019 NOSIG
2026-03-17 11:30:00,METAR LJLJ 171130Z 10007KT 050V130 9999 FEW047 SCT065 11/M04 Q1019 NOSIG
2026-03-17 11:00:00,METAR LJLJ 171100Z 33008KT 290V010 9999 FEW047 SCT065 11/M03 Q1019 NOSIG
2026-03-17 10:30:00,METAR LJLJ 171030Z 16004G17KT 9999 FEW047 SCT065 10/02 Q1019 NOSIG
2026-03-17 10:00:00,METAR LJLJ 171000Z 13007KT 050V170 9999 FEW036 SCT065 09/03 Q1020 NOSIG
2026-03-17 09:30:00,METAR LJLJ 170930Z 15005KT 100V260 9999 FEW017 BKN065 09/04 Q1020 NOSIG
2026-03-17 09:00:00,METAR LJLJ 170900Z VRB02KT 9999 FEW017 BKN070 08/03 Q1020 NOSIG
2026-03-17 08:30:00,METAR LJLJ 170830Z 15003KT 030V180 9999 SCT014 BKN070 08/04 Q1020 NOSIG
2026-03-17 08:00:00,METAR LJLJ 170800Z VRB02KT 9999 SCT010 07/02 Q1020 NOSIG
2026-03-17 07:30:00,METAR LJLJ 170730Z VRB02KT 9999 FEW008 06/03 Q1020 NOSIG
2026-03-17 07:00:00,METAR LJLJ 170700Z VRB02KT 9999 SCT010 06/04 Q1020 NOSIG
2026-03-17 06:30:00,METAR LJLJ 170630Z 00000KT 9999 FEW007 SCT013 05/04 Q1020 NOSIG
2026-03-17 06:00:00,METAR LJLJ 170600Z VRB01KT 9999 MIFG FEW005 SCT013 04/03 Q1020 NOSIG
2026-03-17 05:30:00,METAR LJLJ 170530Z VRB02KT 9999 FEW005 SCT013 BKN033 04/03 Q1020 NOSIG
2026-03-17 05:00:00,METAR LJLJ 170500Z 22003KT 9999 FEW005 SCT010 BKN018 04/04 Q1020 NOSIG
2026-03-17 04:30:00,METAR LJLJ 170430Z 19005KT 9999 FEW003 BKN008 05/04 Q1020 NOSIG
2026-03-17 04:00:00,METAR LJLJ 170400Z 19004KT 9999 FEW003 BKN008 05/04 Q1020 NOSIG
2026-03-17 03:30:00,METAR LJLJ 170330Z VRB02KT 9999 FEW003 BKN008 05/04 Q1019 NOSIG
2026-03-17 03:00:00,METAR LJLJ 170300Z VRB02KT 9999 FEW003 BKN010 05/04 Q1019 NOSIG
2026-03-17 02:30:00,METAR LJLJ 170230Z 13004KT 9999 FEW003 BKN010 BKN090 05/04 Q1019 NOSIG
2026-03-17 02:00:00,METAR LJLJ 170200Z 13005KT 090V150 9999 FEW003 SCT010 BKN060 05/04 Q1019 NOSIG
2026-03-17 01:30:00,METAR LJLJ 170130Z 08003KT 040V100 8000 FEW003 SCT017 BKN025 05/05 Q1019 NOSIG
2026-03-17 01:00:00,METAR LJLJ 170100Z 08003KT 040V100 8000 FEW003 SCT017 BKN025 05/05 Q1019 NOSIG
2026-03-17 00:30:00,METAR LJLJ 170030Z VRB02KT 6000 FEW003 BKN018 05/05 Q1019 NOSIG
2026-03-17 00:00:00,METAR LJLJ 170000Z COR VRB01KT 6000 FEW002 BKN015 05/05 Q1019 NOSIG
2026-03-16 23:30:00,METAR LJLJ 162330Z VRB01KT 4000 BR FEW002 SCT013 05/05 Q1019 NOSIG
2026-03-16 23:00:00,METAR LJLJ 162300Z 07002KT 0500 R30/0900U FG SCT001 SCT088 04/04 Q1019 NOSIG
2026-03-16 22:30:00,METAR LJLJ 162230Z 14004KT 080V160 0600 R30/1300U FG SCT001 SCT210 04/04 Q1019 NOSIG
2026-03-16 22:00:00,METAR LJLJ 162200Z VRB02KT 9999 MIFG FEW003 BKN220 05/04 Q1019 NOSIG
2026-03-16 21:30:00,METAR LJLJ 162130Z VRB02KT 9999 MIFG FEW007 BKN210 05/04 Q1018 NOSIG
2026-03-16 21:00:00,METAR LJLJ 162100Z VRB02KT 9999 MIFG FEW007 BKN210 05/05 Q1018 NOSIG
2026-03-16 20:30:00,METAR LJLJ 162030Z 23002KT 9999 MIFG FEW013 BKN230 06/05 Q1018 NOSIG
2026-03-16 20:00:00,METAR LJLJ 162000Z VRB02KT 9999 FEW013 SCT077 BKN140 06/05 Q1018 NOSIG
2026-03-16 19:30:00,METAR LJLJ 161930Z VRB01KT 9999 FEW010 FEW035TCU BKN075 OVC100 06/06 Q1018 NOSIG
2026-03-16 19:00:00,METAR LJLJ 161900Z 15002G14KT 9999 -SHRA FEW003 SCT035TCU BKN068 OVC087 07/05 Q1017 RESHRA NOSIG
2026-03-16 18:30:00,METAR LJLJ 161830Z 15006KT 100V180 7000 +SHRA SCT023 BKN033TCU OVC048 06/06 Q1017 NOSIG
2026-03-16 18:00:00,METAR LJLJ 161800Z 33005KT 310V020 6000 SHRA SCT020TCU OVC035 07/05 Q1017 RESHRA NOSIG
2026-03-16 17:30:00,METAR LJLJ 161730Z 34010KT 320V020 9999 -SHRA SCT033TCU OVC040 07/04 Q1017 RESHRA NOSIG
2026-03-16 17:00:00,METAR LJLJ 161700Z 34009KT 6000 SHRA SCT033TCU OVC040 07/05 Q1016 NOSIG
2026-03-16 16:30:00,METAR LJLJ 161630Z 34010KT 6000 SHRA SCT033TCU OVC055 08/05 Q1016 RESHRA NOSIG
2026-03-16 16:00:00,METAR LJLJ 161600Z 32021KT 9999 +SHRA FEW040TCU BKN055 BKN120 09/06 Q1015 BECMG SHRA
2026-03-16 15:30:00,METAR LJLJ 161530Z 07003KT 330V100 9999 VCSH FEW040TCU BKN060 BKN120 14/02 Q1014 BECMG SHRA
2026-03-16 15:00:00,METAR LJLJ 161500Z 10005KT 9999 FEW050TCU BKN070 BKN120 14/02 Q1013 NOSIG
2026-03-16 14:30:00,METAR LJLJ 161430Z 12005KT 9999 FEW050 BKN070 BKN120 14/02 Q1013 NOSIG
2026-03-16 14:00:00,METAR LJLJ 161400Z 10004KT 060V190 9999 FEW050 SCT085 BKN120 15/01 Q1014 NOSIG
2026-03-16 13:30:00,METAR LJLJ 161330Z 08004KT 020V120 9999 FEW050 SCT085 BKN120 15/01 Q1014 NOSIG
2026-03-16 13:00:00,METAR LJLJ 161300Z 08005KT 040V140 9999 FEW050 SCT085 BKN120 14/01 Q1014 NOSIG
2026-03-16 12:30:00,METAR LJLJ 161230Z VRB02KT 9999 FEW050 SCT090 BKN120 14/01 Q1014 NOSIG
2026-03-16 12:00:00,METAR LJLJ 161200Z 09004KT 050V160 9999 FEW050 SCT090 BKN120 14/03 Q1014 NOSIG
2026-03-16 11:30:00,METAR LJLJ 161130Z 10005KT 060V120 9999 FEW050 BKN120 14/02 Q1015 NOSIG
2026-03-16 11:00:00,METAR LJLJ 161100Z 09006KT 070V130 9999 FEW050 BKN120 13/02 Q1015 NOSIG
2026-03-16 10:30:00,METAR LJLJ 161030Z 08004KT 350V140 9999 FEW050 SCT120 14/05 Q1015 NOSIG
2026-03-16 10:00:00,METAR LJLJ 161000Z 07003KT 020V140 9999 FEW050 SCT250 12/04 Q1015 NOSIG
2026-03-16 09:30:00,METAR LJLJ 160930Z VRB01KT 9999 FEW050 SCT250 12/05 Q1016 NOSIG
2026-03-16 09:00:00,METAR LJLJ 160900Z VRB02KT CAVOK 10/05 Q1015 NOSIG
2026-03-16 08:30:00,METAR LJLJ 160830Z VRB01KT CAVOK 09/05 Q1015 NOSIG
2026-03-16 08:00:00,METAR LJLJ 160800Z VRB02KT 9999 FEW050 SCT200 08/05 Q1015 NOSIG
2026-03-16 07:30:00,METAR LJLJ 160730Z VRB02KT 9999 FEW050 SCT200 05/04 Q1015 NOSIG
2026-03-16 07:00:00,METAR LJLJ 160700Z VRB01KT 9999 FEW050 SCT200 02/02 Q1015 NOSIG
2026-03-16 06:30:00,METAR LJLJ 160630Z 31004KT 9999 FEW050 SCT200 01/01 Q1015 NOSIG
2026-03-16 06:00:00,METAR LJLJ 160600Z 29004KT 9999 FEW050 SCT200 01/00 Q1015 NOSIG
2026-03-16 05:30:00,METAR LJLJ 160530Z 29004KT 9999 FEW050 SCT200 01/01 Q1015 NOSIG
2026-03-16 05:00:00,METAR LJLJ 160500Z VRB01KT 9999 FEW050 SCT200 01/00 Q1015 NOSIG
2026-03-16 04:30:00,METAR LJLJ 160430Z 27001KT 9999 MIFG FEW040 01/00 Q1014 NOSIG
2026-03-16 04:00:00,METAR LJLJ 160400Z 00000KT 9999 MIFG FEW040 00/M00 Q1014 NOSIG
2026-03-16 03:30:00,METAR LJLJ 160330Z VRB01KT 9999 MIFG FEW040 01/00 Q1014 NOSIG
2026-03-16 03:00:00,METAR LJLJ 160300Z VRB01KT 9999 FEW040 01/00 Q1014 NOSIG
2026-03-16 02:30:00,METAR LJLJ 160230Z VRB02KT 9999 FEW040 01/00 Q1014 NOSIG
2026-03-16 02:00:00,METAR LJLJ 160200Z VRB02KT 9999 FEW040 01/00 Q1014 NOSIG
2026-03-16 01:30:00,METAR LJLJ 160130Z VRB01KT 9999 FEW040 02/01 Q1014 NOSIG
2026-03-16 01:00:00,METAR LJLJ 160100Z VRB01KT 9999 FEW040 02/01 Q1014 NOSIG
2026-03-16 00:30:00,METAR LJLJ 160030Z VRB01KT 9999 FEW040 02/02 Q1014 NOSIG
2026-03-16 00:00:00,METAR LJLJ 160000Z VRB01KT 9999 FEW040 02/01 Q1014 NOSIG
2026-03-15 23:30:00,METAR LJLJ 152330Z 29003KT 9999 FEW040 03/02 Q1014 NOSIG
2026-03-15 23:00:00,METAR LJLJ 152300Z 29003KT 9999 FEW040 02/02 Q1014 NOSIG
2026-03-15 22:30:00,METAR LJLJ 152230Z 28002KT 9999 FEW040 03/02 Q1014 NOSIG
2026-03-15 22:00:00,METAR LJLJ 152200Z 29002KT 9999 FEW040 04/03 Q1014 NOSIG
2026-03-15 21:30:00,METAR LJLJ 152130Z VRB02KT 9999 FEW040 04/03 Q1014 NOSIG
2026-03-15 21:00:00,METAR LJLJ 152100Z VRB01KT 9999 FEW040 05/04 Q1014 NOSIG
2026-03-15 20:30:00,METAR LJLJ 152030Z 29005KT 9999 FEW040 SCT100 05/04 Q1013 NOSIG
2026-03-15 20:00:00,METAR LJLJ 152000Z 28004KT 9999 FEW040 SCT100 06/05 Q1013 NOSIG
2026-03-15 19:30:00,METAR LJLJ 151930Z 29004KT 9999 FEW040 SCT100 07/05 Q1013 NOSIG
2026-03-15 19:00:00,METAR LJLJ 151900Z VRB02KT 9999 FEW045 SCT090 07/05 Q1012 NOSIG
2026-03-15 18:30:00,METAR LJLJ 151830Z 30004KT 9999 FEW045 SCT090 08/06 Q1012 NOSIG
2026-03-15 18:00:00,METAR LJLJ 151800Z VRB01KT 9999 FEW045 SCT090 09/06 Q1011 NOSIG
2026-03-15 17:30:00,METAR LJLJ 151730Z 00000KT 9999 FEW045 SCT100 09/06 Q1011 NOSIG
2026-03-15 17:00:00,METAR LJLJ 151700Z 00000KT 9999 FEW045 SCT100 10/07 Q1011 NOSIG
2026-03-15 16:30:00,METAR LJLJ 151630Z 02002KT 9999 FEW045 SCT060 BKN100 12/08 Q1010 NOSIG
2026-03-15 16:00:00,METAR LJLJ 151600Z 20001KT 9999 FEW045 SCT060 BKN100 13/07 Q1010 NOSIG
2026-03-15 15:30:00,METAR LJLJ 151530Z 15009KT 9999 VCSH FEW050TCU SCT060 BKN100 14/04 Q1010 NOSIG
2026-03-15 15:00:00,METAR LJLJ 151500Z VRB02KT 9999 VCSH FEW050TCU BKN100 15/06 Q1010 NOSIG
2026-03-15 14:30:00,METAR LJLJ 151430Z 17004KT 9999 FEW050TCU BKN100 15/05 Q1009 NOSIG
2026-03-15 14:00:00,METAR LJLJ 151400Z 16004KT 120V180 9999 FEW050TCU BKN100 15/03 Q1009 NOSIG
2026-03-15 13:30:00,METAR LJLJ 151330Z VRB02KT 9999 FEW045TCU BKN100 15/04 Q1009 NOSIG
2026-03-15 13:00:00,METAR LJLJ 151300Z 07002KT 9999 FEW045TCU BKN095 16/04 Q1009 NOSIG
2026-03-15 12:30:00,METAR LJLJ 151230Z 03004KT 360V080 9999 VCSH SCT045TCU BKN095 15/04 Q1010 NOSIG
2026-03-15 12:00:00,METAR LJLJ 151200Z VRB04KT 9999 VCSH FEW037TCU SCT095 SCT200 15/05 Q1010 NOSIG
2026-03-15 11:30:00,METAR LJLJ 151130Z VRB03KT 9999 FEW037 SCT200 16/06 Q1010 NOSIG
2026-03-15 11:00:00,METAR LJLJ 151100Z 14003KT 090V240 9999 FEW037 SCT200 15/05 Q1010 NOSIG
2026-03-15 10:30:00,METAR LJLJ 151030Z 19002KT 9999 FEW030 SCT200 15/08 Q1010 NOSIG
2026-03-15 10:00:00,METAR LJLJ 151000Z 28001KT 9999 FEW025 SCT200 14/07 Q1010 NOSIG
2026-03-15 09:30:00,METAR LJLJ 150930Z VRB02KT 9999 FEW020 SCT200 12/08 Q1010 NOSIG
2026-03-15 09:00:00,METAR LJLJ 150900Z 00000KT 9999 FEW003 SCT200 11/08 Q1010 NOSIG
2026-03-15 08:30:00,METAR LJLJ 150830Z VRB01KT 9999 FEW001 BKN180 08/07 Q1009 NOSIG
2026-03-15 08:00:00,METAR LJLJ 150800Z 14004KT 110V170 9999 VCFG SCT001 SCT085 BKN180 08/07 Q1009 NOSIG
