Time_recorded,METAR
2026-05-02 15:30:00,METAR LPPR 021530Z 21010KT 9999 FEW012 FEW025CB 17/14 Q1015
2026-05-02 15:00:00,METAR LPPR 021500Z 21013KT 9999 FEW014 FEW025CB 17/14 Q1015
2026-05-02 14:30:00,METAR LPPR 021430Z 21013KT 9999 FEW014 FEW025CB 18/14 Q1015
2026-05-02 14:00:00,METAR LPPR 021400Z 21013KT 9999 FEW017 FEW025CB 18/14 Q1016
2026-05-02 13:30:00,METAR LPPR 021330Z 21011KT 9999 FEW020 FEW030CB 18/13 Q1016
2026-05-02 13:00:00,METAR LPPR 021300Z 20013KT 170V230 9999 SCT020 17/13 Q1016
2026-05-02 12:30:00,METAR LPPR 021230Z 20011KT 170V250 9999 SCT020 18/13 Q1016
2026-05-02 12:00:00,METAR LPPR 021200Z 19010KT 170V230 9999 SCT024 19/12 Q1016
2026-05-02 11:30:00,METAR LPPR 021130Z 19009KT 160V230 9999 SCT020 BKN030 18/11 Q1016
2026-05-02 11:00:00,METAR LPPR 021100Z 17011KT 9999 SCT020 BKN030 18/12 Q1017
2026-05-02 10:30:00,METAR LPPR 021030Z 16011KT 9999 SCT019 BKN030 18/12 Q1017
2026-05-02 10:00:00,METAR LPPR 021000Z 17011KT 9999 FEW014 BKN025 17/13 Q1017
2026-05-02 09:30:00,METAR LPPR 020930Z 14007KT 100V170 9999 FEW030 17/13 Q1017
2026-05-02 09:00:00,METAR LPPR 020900Z 17007KT 9999 FEW014 BKN040 16/13 Q1016
2026-05-02 08:30:00,METAR LPPR 020830Z 15007KT 9999 FEW012 BKN040 15/13 Q1017
2026-05-02 08:00:00,METAR LPPR 020800Z 11005KT 070V130 9999 -RA FEW012 BKN040 14/12 Q1016
2026-05-02 07:30:00,METAR LPPR 020730Z 11004KT 070V150 9999 FEW014 BKN040 14/12 Q1017
2026-05-02 07:00:00,METAR LPPR 020700Z VRB01KT 9999 -RA FEW017 BKN040 14/11 Q1016
2026-05-02 06:30:00,METAR LPPR 020630Z 12008KT 070V140 9999 -RA FEW020 BKN040 14/11 Q1016
2026-05-02 06:00:00,METAR LPPR 020600Z 13006KT 100V160 9999 BKN046 13/10 Q1016
2026-05-02 05:30:00,METAR LPPR 020530Z 12006KT 9999 FEW040 13/10 Q1016
2026-05-02 05:00:00,METAR LPPR 020500Z 12006KT 9999 FEW040 12/10 Q1016
2026-05-02 04:30:00,METAR LPPR 020430Z 14004KT CAVOK 12/10 Q1016
2026-05-02 04:00:00,METAR LPPR 020400Z 00000KT CAVOK 12/10 Q1017
2026-05-02 03:30:00,METAR LPPR 020330Z VRB02KT CAVOK 13/11 Q1016
2026-05-02 03:00:00,METAR LPPR 020300Z VRB02KT 9999 FEW040 12/11 Q1017
2026-05-02 02:30:00,METAR LPPR 020230Z 00000KT 9999 SCT040 13/11 Q1017
2026-05-02 02:00:00,METAR LPPR 020200Z 00000KT 9999 FEW040 13/12 Q1017
2026-05-02 01:30:00,METAR LPPR 020130Z 00000KT 9999 FEW044 13/11 Q1017
2026-05-02 01:00:00,METAR LPPR 020100Z 00000KT 9999 FEW044 13/12 Q1017
2026-05-02 00:30:00,METAR LPPR 020030Z 00000KT 9999 FEW044 13/12 Q1018
2026-05-02 00:00:00,METAR LPPR 020000Z 00000KT 9999 SCT044 14/12 Q1018
2026-05-01 23:30:00,METAR LPPR 012330Z 09002KT CAVOK 14/12 Q1018
2026-05-01 23:00:00,METAR LPPR 012300Z 08003KT 060V130 CAVOK 14/12 Q1018
2026-05-01 22:30:00,METAR LPPR 012230Z 00000KT 9999 FEW046 14/12 Q1018
2026-05-01 22:00:00,METAR LPPR 012200Z 35002KT 9999 SCT046 14/12 Q1019
2026-05-01 21:30:00,METAR LPPR 012130Z VRB02KT CAVOK 15/12 Q1019
2026-05-01 21:00:00,METAR LPPR 012100Z 36002KT CAVOK 15/12 Q1019
2026-05-01 20:30:00,METAR LPPR 012030Z 36003KT 330V040 CAVOK 15/12 Q1018
2026-05-01 20:00:00,METAR LPPR 012000Z 35003KT 320V030 CAVOK 16/12 Q1018
2026-05-01 19:30:00,METAR LPPR 011930Z 31005KT 270V330 CAVOK 16/12 Q1019
2026-05-01 19:00:00,METAR LPPR 011900Z 31006KT 280V340 CAVOK 17/12 Q1018
2026-05-01 18:30:00,METAR LPPR 011830Z 32006KT 280V340 9999 FEW025 17/11 Q1018
2026-05-01 18:00:00,METAR LPPR 011800Z 31006KT CAVOK 18/10 Q1018
2026-05-01 17:30:00,METAR LPPR 011730Z 28004KT 230V330 CAVOK 18/11 Q1018
2026-05-01 17:00:00,METAR LPPR 011700Z 29005KT 240V330 CAVOK 18/11 Q1018
2026-05-01 16:30:00,METAR LPPR 011630Z 29006KT 240V320 CAVOK 19/11 Q1018
2026-05-01 16:00:00,METAR LPPR 011600Z 29006KT 270V330 9999 FEW032 19/09 Q1018
2026-05-01 15:30:00,METAR LPPR 011530Z 28005KT 230V330 9999 FEW035 20/09 Q1018
2026-05-01 15:00:00,METAR LPPR 011500Z 30006KT 250V320 9999 FEW035 19/11 Q1018
2026-05-01 14:30:00,METAR LPPR 011430Z 30006KT 250V330 9999 FEW030 19/11 Q1018
2026-05-01 14:00:00,METAR LPPR 011400Z 29006KT 250V320 9999 FEW030 19/10 Q1019
2026-05-01 13:30:00,METAR LPPR 011330Z 27006KT 210V320 9999 FEW030 19/11 Q1019
2026-05-01 13:00:00,METAR LPPR 011300Z 28006KT 220V320 9999 FEW027 19/10 Q1019
2026-05-01 12:30:00,METAR LPPR 011230Z 26006KT 220V320 9999 FEW027 18/12 Q1019
2026-05-01 12:00:00,METAR LPPR 011200Z 24006KT 210V300 9999 FEW027 19/11 Q1019
2026-05-01 11:30:00,METAR LPPR 011130Z VRB05KT 9999 SCT025 19/11 Q1019
2026-05-01 11:00:00,METAR LPPR 011100Z VRB04KT 9999 FEW016 SCT020 18/13 Q1019
2026-05-01 10:30:00,METAR LPPR 011030Z 29004KT 230V010 9999 FEW012 SCT015 18/14 Q1020
2026-05-01 10:00:00,METAR LPPR 011000Z 28004KT 230V340 9999 SCT010 17/14 Q1020
2026-05-01 09:30:00,METAR LPPR 010930Z 25006KT 220V290 9999 SCT010 17/13 Q1020
2026-05-01 09:00:00,METAR LPPR 010900Z 25004KT 220V310 9999 FEW009 SCT013 17/14 Q1019
2026-05-01 08:30:00,METAR LPPR 010830Z VRB02KT 9000 FEW009 SCT013 16/13 Q1019
2026-05-01 08:00:00,METAR LPPR 010800Z 25003KT 200V300 9999 FEW018 16/14 Q1019
2026-05-01 07:30:00,METAR LPPR 010730Z VRB01KT CAVOK 17/14 Q1019
2026-05-01 07:00:00,METAR LPPR 010700Z 11003KT 050V150 CAVOK 14/12 Q1018
2026-05-01 06:30:00,METAR LPPR 010630Z 13003KT 9000 NSC 13/12 Q1018
2026-05-01 06:00:00,METAR LPPR 010600Z VRB02KT 9000 4200N BCFG NSC 12/11 Q1018
2026-05-01 05:30:00,METAR LPPR 010530Z VRB02KT 9000 4200N BCFG NSC 12/11 Q1018
2026-05-01 05:00:00,METAR LPPR 010500Z 00000KT CAVOK 13/12 Q1018
2026-05-01 04:30:00,METAR LPPR 010430Z 12003KT 080V140 CAVOK 13/12 Q1018
2026-05-01 04:00:00,METAR LPPR 010400Z VRB02KT 9999 FEW048 13/12 Q1018
2026-05-01 03:30:00,METAR LPPR 010330Z 06003KT 9999 FEW048 14/13 Q1018
2026-05-01 03:00:00,METAR LPPR 010300Z 04003KT 9999 FEW048 14/13 Q1018
2026-05-01 02:30:00,METAR LPPR 010230Z 00000KT 9999 FEW048 14/13 Q1018
2026-05-01 02:00:00,METAR LPPR 010200Z 00000KT 9999 FEW048 14/13 Q1018
2026-05-01 01:30:00,METAR LPPR 010130Z 00000KT 9999 FEW048 13/12 Q1019
2026-05-01 01:00:00,METAR LPPR 010100Z 01002KT 9999 FEW048 13/12 Q1019
2026-05-01 00:30:00,METAR LPPR 010030Z 00000KT 9999 FEW048 14/13 Q1019
2026-05-01 00:00:00,METAR LPPR 010000Z 00000KT 9999 FEW048 14/13 Q1019
2026-04-30 23:30:00,METAR LPPR 302330Z 00000KT CAVOK 13/12 Q1019
2026-04-30 23:00:00,METAR LPPR 302300Z VRB02KT CAVOK 14/13 Q1019
2026-04-30 22:30:00,METAR LPPR 302230Z 03003KT CAVOK 14/13 Q1019
2026-04-30 22:00:00,METAR LPPR 302200Z 00000KT 9999 FEW012 14/13 Q1019
2026-04-30 21:30:00,METAR LPPR 302130Z 00000KT 9999 FEW012 14/13 Q1019
2026-04-30 21:00:00,METAR LPPR 302100Z 22002KT 9999 FEW012 15/13 Q1019
2026-04-30 20:30:00,METAR LPPR 302030Z VRB02KT 9999 FEW012 15/13 Q1019
2026-04-30 20:00:00,METAR LPPR 302000Z VRB01KT 9999 SCT012 16/14 Q1018
2026-04-30 19:30:00,METAR LPPR 301930Z 26003KT 230V290 9999 SCT015 16/13 Q1018
2026-04-30 19:00:00,METAR LPPR 301900Z 26004KT 210V290 9999 SCT015 16/14 Q1018
2026-04-30 18:30:00,METAR LPPR 301830Z 24003KT 170V280 9999 SCT017 17/13 Q1018
2026-04-30 18:00:00,METAR LPPR 301800Z 24006KT 200V290 9999 SCT017 17/13 Q1018
2026-04-30 17:30:00,METAR LPPR 301730Z 23006KT 190V270 9999 FEW017 17/13 Q1018
2026-04-30 17:00:00,METAR LPPR 301700Z 22006KT 200V260 9999 FEW017 18/12 Q1017
2026-04-30 16:30:00,METAR LPPR 301630Z 23006KT 200V300 9999 FEW017 18/12 Q1017
2026-04-30 16:00:00,METAR LPPR 301600Z 23007KT 200V270 9999 FEW017 19/13 Q1017
2026-04-30 15:00:00,METAR LPPR 301500Z 22008KT 190V260 9999 FEW017 18/12 Q1017
2026-04-30 14:30:00,METAR LPPR 301430Z 23011KT 200V270 9999 FEW017 17/12 Q1018
2026-04-30 14:00:00,METAR LPPR 301400Z 22011KT 190V260 9999 FEW040 17/12 Q1017
2026-04-30 13:30:00,METAR LPPR 301330Z 22009KT 190V250 9999 FEW040 18/13 Q1017
2026-04-30 13:00:00,METAR LPPR 301300Z 22008KT 180V270 9999 FEW040 18/12 Q1017
2026-04-30 12:30:00,METAR LPPR 301230Z 22010KT 200V260 9999 FEW040 18/12 Q1017
2026-04-30 12:00:00,METAR LPPR 301200Z 22010KT 190V260 9999 FEW019 SCT040 18/12 Q1017
2026-04-30 11:30:00,METAR LPPR 301130Z 21009KT 180V250 9999 FEW019 SCT040 18/11 Q1017
2026-04-30 11:00:00,METAR LPPR 301100Z 20009KT 9999 FEW019 BKN040 17/11 Q1017
2026-04-30 10:30:00,METAR LPPR 301030Z 20009KT 9999 FEW019 BKN040 17/12 Q1017
2026-04-30 10:00:00,METAR LPPR 301000Z 20009KT 9999 SCT019 BKN040 17/13 Q1016
2026-04-30 09:30:00,METAR LPPR 300930Z 20008KT 170V230 9999 SCT019 BKN040 17/12 Q1016
2026-04-30 09:00:00,METAR LPPR 300900Z 19009KT 9999 SCT017 16/12 Q1016
2026-04-30 08:30:00,METAR LPPR 300830Z 18011KT 150V210 9999 FEW013 16/13 Q1016
2026-04-30 08:00:00,METAR LPPR 300800Z 18011KT 9999 FEW013 SCT032 16/13 Q1015
2026-04-30 07:30:00,METAR LPPR 300730Z 18011KT 9999 FEW011 BKN040 15/13 Q1015
2026-04-30 07:00:00,METAR LPPR 300700Z 18008KT 9999 FEW011 BKN040 15/13 Q1015
2026-04-30 06:30:00,METAR LPPR 300630Z 17008KT 9999 FEW011 BKN040 15/13 Q1014
2026-04-30 06:00:00,METAR LPPR 300600Z 17009KT 9999 VCSH FEW008 SCT011 BKN040 15/13 Q1014
2026-04-30 05:30:00,METAR LPPR 300530Z 18010KT 9999 FEW006 SCT011 BKN040 15/13 Q1014
2026-04-30 05:00:00,METAR LPPR 300500Z 18009KT 9999 FEW006 SCT011 BKN040 15/13 Q1014
2026-04-30 04:30:00,METAR LPPR 300430Z COR 18009KT 9999 VCSH FEW006 SCT011 BKN040 15/13 Q1014
2026-04-30 04:00:00,METAR LPPR 300400Z 18010KT 9999 VCSH FEW006 SCT011 BKN040 15/13 Q1013
2026-04-30 03:30:00,METAR LPPR 300330Z 18012KT 9999 VCSH FEW006 SCT011 BKN040 15/13 Q1013
2026-04-30 03:00:00,METAR LPPR 300300Z 18010KT 9999 -SHRA FEW006 SCT011 BKN040 15/13 Q1013
2026-04-30 02:30:00,METAR LPPR 300230Z 18010KT 9999 -SHRA FEW008 SCT011 BKN040 15/13 Q1013
2026-04-30 02:00:00,METAR LPPR 300200Z 18011KT 9999 -SHRA FEW009 SCT011 BKN040 15/13 Q1013
2026-04-30 01:30:00,METAR LPPR 300130Z 18011KT 9999 -SHRA FEW009 SCT011 BKN040 15/13 Q1013
2026-04-30 01:00:00,METAR LPPR 300100Z 18010KT 9999 -SHRA FEW009 SCT011 BKN040 15/13 Q1013
2026-04-30 00:30:00,METAR LPPR 300030Z 20009KT 9999 VCSH FEW009 SCT011 BKN040 16/13 Q1012
2026-04-30 00:00:00,METAR LPPR 300000Z 20010KT 9999 -SHRA FEW009 BKN011 BKN040 16/14 Q1012
2026-04-29 23:30:00,METAR LPPR 292330Z 20006KT 170V230 9999 -SHRA FEW009 SCT011 BKN040 16/14 Q1012
2026-04-29 23:00:00,METAR LPPR 292300Z 20007KT 9999 VCSH SCT011 BKN040 16/13 Q1012
2026-04-29 22:30:00,METAR LPPR 292230Z 21008KT 190V250 9999 VCSH SCT011 BKN040 16/13 Q1012
2026-04-29 22:00:00,METAR LPPR 292200Z 19011KT 9999 BKN011 BKN040 16/14 Q1011
2026-04-29 21:30:00,METAR LPPR 292130Z 19009KT 9999 BKN011 BKN040 16/13 Q1011
2026-04-29 21:00:00,METAR LPPR 292100Z 19008KT 9999 SCT011 BKN040 16/14 Q1011
2026-04-29 20:30:00,METAR LPPR 292030Z 19007KT 9999 VCSH FEW011 BKN040 16/13 Q1010
2026-04-29 20:00:00,METAR LPPR 292000Z 20007KT 9999 VCSH FEW011 BKN035 16/13 Q1010
2026-04-29 19:30:00,METAR LPPR 291930Z 21007KT 9999 SCT011 16/13 Q1009
2026-04-29 19:00:00,METAR LPPR 291900Z 22009KT 9999 BKN011 16/13 Q1009
2026-04-29 18:30:00,METAR LPPR 291830Z 22009KT 9999 SCT012 SCT023 16/13 Q1009
2026-04-29 18:00:00,METAR LPPR 291800Z 21009KT 190V250 9999 SCT012 SCT020 17/13 Q1008
2026-04-29 17:30:00,METAR LPPR 291730Z 21009KT 190V250 9999 SCT011 SCT020 17/14 Q1008
2026-04-29 17:00:00,METAR LPPR 291700Z 21009KT 9999 SCT011 SCT020 17/14 Q1008
2026-04-29 16:30:00,METAR LPPR 291630Z 21009KT 170V250 9999 SCT008 SCT012 17/14 Q1008
2026-04-29 16:00:00,METAR LPPR 291600Z 23011KT 200V260 9999 SCT008 SCT012 18/14 Q1008
2026-04-29 15:30:00,METAR LPPR 291530Z 22011KT 200V270 9999 BKN008 BKN012 17/15 Q1007
2026-04-29 15:00:00,METAR LPPR 291500Z 24011KT 200V270 9999 SCT009 BKN012 18/15 Q1007
2026-04-29 14:30:00,METAR LPPR 291430Z 22010KT 190V260 9999 FEW015 SCT018 18/15 Q1007
2026-04-29 14:00:00,METAR LPPR 291400Z 27004KT 190V320 9999 FEW015 SCT018 19/14 Q1007
2026-04-29 13:30:00,METAR LPPR 291330Z 21007KT 180V250 9999 FEW012 SCT015 18/15 Q1007
2026-04-29 13:00:00,METAR LPPR 291300Z 24005KT 200V290 9999 FEW009 SCT012 19/16 Q1007
2026-04-29 12:30:00,METAR LPPR 291230Z 22007KT 190V250 9999 BKN009 BKN012 18/15 Q1007
2026-04-29 12:00:00,METAR LPPR 291200Z 23005KT 9999 -SHRA FEW007 SCT010 17/15 Q1007
2026-04-29 11:30:00,METAR LPPR 291130Z 21004KT 140V280 9999 SCT007 SCT010 17/15 Q1007
2026-04-29 11:00:00,METAR LPPR 291100Z 20005KT 9999 SCT005 BKN008 17/15 Q1007
2026-04-29 10:30:00,METAR LPPR 291030Z 25004KT 200V300 9999 BKN005 BKN020 16/15 Q1007
2026-04-29 10:00:00,METAR LPPR 291000Z 23003KT 180V280 8000 -SHRA SCT005 BKN022 FEW025CB 16/15 Q1007 RESHRA
2026-04-29 09:30:00,METAR LPPR 290930Z 22005KT 5000 SHRA BR SCT005 BKN010 FEW025CB 16/15 Q1007
2026-04-29 09:00:00,METAR LPPR 290900Z 22007KT 190V250 6000 -SHRA BKN007 BKN010 FEW025CB 16/15 Q1007
2026-04-29 08:30:00,METAR LPPR 290830Z 20008KT 9000 -SHRA BKN007 BKN010 FEW025CB 16/14 Q1007
2026-04-29 08:00:00,METAR LPPR 290800Z 18008KT 9000 FEW008 FEW025CB BKN035 16/14 Q1007
2026-04-29 07:30:00,METAR LPPR 290730Z 20006KT 160V220 8000 -DZRA SCT005 BKN008 FEW025CB 16/15 Q1007
2026-04-29 07:00:00,METAR LPPR 290700Z 23008KT 190V250 5000 -DZRA BR BKN005 BKN010 FEW025CB 16/15 Q1007
2026-04-29 06:30:00,METAR LPPR 290630Z 20006KT 170V230 9999 BKN005 BKN011 16/15 Q1006
2026-04-29 06:00:00,METAR LPPR 290600Z 21006KT 9999 BKN005 BKN011 16/15 Q1006
2026-04-29 05:30:00,METAR LPPR 290530Z 21005KT 180V240 9999 FEW005 SCT011 16/15 Q1006
2026-04-29 05:00:00,METAR LPPR 290500Z 21007KT 9999 SCT005 SCT011 16/15 Q1006
2026-04-29 04:30:00,METAR LPPR 290430Z 19009KT 9999 -DZ SCT005 SCT011 16/15 Q1006
2026-04-29 04:00:00,METAR LPPR 290400Z 17007KT 9999 SCT005 SCT011 16/15 Q1006
2026-04-29 03:30:00,METAR LPPR 290330Z 17006KT 9999 SCT005 SCT011 16/15 Q1006
2026-04-29 03:00:00,METAR LPPR 290300Z 19007KT 9999 SCT005 SCT011 16/15 Q1006
2026-04-29 02:30:00,METAR LPPR 290230Z 20006KT 9999 SCT005 SCT011 16/15 Q1007
2026-04-29 02:00:00,METAR LPPR 290200Z 19008KT 9999 SCT005 16/15 Q1007
2026-04-29 01:30:00,METAR LPPR 290130Z 19008KT 9999 FEW005 16/15 Q1007
2026-04-29 01:00:00,METAR LPPR 290100Z 19008KT 9999 FEW005 17/15 Q1007
2026-04-29 00:30:00,METAR LPPR 290030Z 19005KT 160V220 CAVOK 18/12 Q1007
2026-04-29 00:00:00,METAR LPPR 290000Z 12008KT CAVOK 19/11 Q1006
2026-04-28 23:30:00,METAR LPPR 282330Z 10009KT CAVOK 20/11 Q1007
2026-04-28 23:00:00,METAR LPPR 282300Z 12010KT CAVOK 20/12 Q1007
2026-04-28 22:30:00,METAR LPPR 282230Z 13008KT CAVOK 19/12 Q1007
2026-04-28 22:00:00,METAR LPPR 282200Z 13006KT 090V150 CAVOK 19/12 Q1007
2026-04-28 21:30:00,METAR LPPR 282130Z VRB03KT CAVOK 18/12 Q1007
2026-04-28 21:00:00,METAR LPPR 282100Z 05004KT 010V090 CAVOK 20/12 Q1007
2026-04-28 20:30:00,METAR LPPR 282030Z 01007KT CAVOK 19/12 Q1007
2026-04-28 20:00:00,METAR LPPR 282000Z 36007KT 320V030 CAVOK 20/12 Q1007
2026-04-28 19:30:00,METAR LPPR 281930Z 01007KT 340V050 CAVOK 21/12 Q1007
2026-04-28 19:00:00,METAR LPPR 281900Z 03008KT 340V110 CAVOK 22/11 Q1007
2026-04-28 18:30:00,METAR LPPR 281830Z 02008KT CAVOK 23/11 Q1007
2026-04-28 18:00:00,METAR LPPR 281800Z 02009KT 350V050 9999 VCSH FEW030CB 23/11 Q1007
2026-04-28 17:30:00,METAR LPPR 281730Z 02012KT 9999 VCSH FEW030CB 23/11 Q1007
2026-04-28 17:00:00,METAR LPPR 281700Z 35010KT CAVOK 24/13 Q1007
2026-04-28 16:30:00,METAR LPPR 281630Z 34009KT CAVOK 23/13 Q1007
2026-04-28 16:00:00,METAR LPPR 281600Z 30007KT 270V330 9999 FEW030CB 22/14 Q1007
2026-04-28 15:30:00,METAR LPPR 281530Z 30007KT 260V330 9999 FEW030CB 22/14 Q1008
2026-04-28 15:00:00,METAR LPPR 281500Z 27007KT 240V340 9999 FEW030CB 22/14 Q1008
2026-04-28 14:30:00,METAR LPPR 281430Z 28005KT 240V320 9999 FEW030CB 21/15 Q1008
2026-04-28 14:00:00,METAR LPPR 281400Z 25007KT 220V300 9999 FEW030CB 23/13 Q1008
2026-04-28 13:30:00,METAR LPPR 281330Z 24007KT 220V290 9999 FEW030CB 22/14 Q1008
2026-04-28 13:00:00,METAR LPPR 281300Z 23006KT 200V280 9999 FEW025 22/14 Q1008
2026-04-28 12:30:00,METAR LPPR 281230Z VRB05KT 9999 FEW025 22/15 Q1009
2026-04-28 12:00:00,METAR LPPR 281200Z 22007KT 190V260 9999 FEW025 21/16 Q1009
2026-04-28 11:30:00,METAR LPPR 281130Z 24007KT 200V270 9999 FEW025 22/16 Q1009
2026-04-28 11:00:00,METAR LPPR 281100Z 24007KT 210V270 9999 FEW025 22/16 Q1009
2026-04-28 10:30:00,METAR LPPR 281030Z 25006KT 200V280 9999 FEW025 22/17 Q1009
2026-04-28 10:00:00,METAR LPPR 281000Z 27003KT 220V310 9999 FEW025 21/16 Q1009
2026-04-28 09:30:00,METAR LPPR 280930Z 16005KT 110V220 9999 FEW025 22/15 Q1009
2026-04-28 09:00:00,METAR LPPR 280900Z 12004KT 080V160 9999 FEW025 23/12 Q1009
2026-04-28 08:30:00,METAR LPPR 280830Z 10006KT 050V150 9999 FEW025 22/12 Q1009
2026-04-28 08:00:00,METAR LPPR 280800Z 06003KT 010V110 9999 FEW025 21/14 Q1009
2026-04-28 07:30:00,METAR LPPR 280730Z VRB03KT 9999 FEW025 19/13 Q1009
2026-04-28 07:00:00,METAR LPPR 280700Z 01004KT 340V050 9999 FEW025 17/12 Q1009
2026-04-28 06:30:00,METAR LPPR 280630Z 04004KT 020V100 9999 FEW025 15/11 Q1009
2026-04-28 06:00:00,METAR LPPR 280600Z VRB02KT CAVOK 16/11 Q1009
2026-04-28 05:30:00,METAR LPPR 280530Z 02005KT 340V070 9999 FEW025 15/11 Q1009
2026-04-28 05:00:00,METAR LPPR 280500Z 36003KT CAVOK 15/11 Q1009
2026-04-28 04:30:00,METAR LPPR 280430Z 02003KT 330V050 CAVOK 17/11 Q1009
2026-04-28 04:00:00,METAR LPPR 280400Z VRB02KT CAVOK 17/11 Q1009
2026-04-28 03:30:00,METAR LPPR 280330Z 04005KT CAVOK 15/12 Q1009
2026-04-28 03:00:00,METAR LPPR 280300Z 04006KT CAVOK 16/12 Q1010
2026-04-28 02:30:00,METAR LPPR 280230Z 00000KT CAVOK 15/13 Q1010
2026-04-28 02:00:00,METAR LPPR 280200Z 00000KT CAVOK 15/14 Q1010
2026-04-28 01:30:00,METAR LPPR 280130Z VRB01KT CAVOK 16/14 Q1010
2026-04-28 01:00:00,METAR LPPR 280100Z 18003KT 150V210 CAVOK 16/14 Q1011
2026-04-28 00:30:00,METAR LPPR 280030Z 00000KT CAVOK 17/15 Q1011
2026-04-28 00:00:00,METAR LPPR 280000Z 17004KT 9000 NSC 17/15 Q1011
2026-04-27 23:30:00,METAR LPPR 272330Z 00000KT 9999 FEW030 16/14 Q1011
2026-04-27 23:00:00,METAR LPPR 272300Z 00000KT CAVOK 17/15 Q1011
2026-04-27 22:30:00,METAR LPPR 272230Z VRB01KT CAVOK 16/14 Q1011
2026-04-27 22:00:00,METAR LPPR 272200Z 24003KT 220V280 CAVOK 16/14 Q1011
2026-04-27 21:30:00,METAR LPPR 272130Z 00000KT CAVOK 16/14 Q1011
2026-04-27 21:00:00,METAR LPPR 272100Z 00000KT CAVOK 16/14 Q1011
2026-04-27 20:30:00,METAR LPPR 272030Z 00000KT CAVOK 16/14 Q1011
2026-04-27 20:00:00,METAR LPPR 272000Z 28003KT 250V310 CAVOK 17/14 Q1011
2026-04-27 19:30:00,METAR LPPR 271930Z 27003KT 240V300 CAVOK 19/15 Q1011
2026-04-27 19:00:00,METAR LPPR 271900Z 29003KT 240V330 CAVOK 20/15 Q1011
2026-04-27 18:30:00,METAR LPPR 271830Z 32006KT CAVOK 20/15 Q1011
2026-04-27 18:00:00,METAR LPPR 271800Z 29004KT 260V330 9999 FEW020 21/15 Q1011
2026-04-27 17:30:00,METAR LPPR 271730Z 32005KT 290V350 9999 FEW020 22/15 Q1011
2026-04-27 17:00:00,METAR LPPR 271700Z 33008KT 300V360 9999 FEW020 23/15 Q1012
2026-04-27 16:30:00,METAR LPPR 271630Z 32008KT 9999 FEW020 22/15 Q1012
2026-04-27 16:00:00,METAR LPPR 271600Z 32008KT 280V350 9999 FEW020 23/15 Q1012
2026-04-27 15:30:00,METAR LPPR 271530Z 32008KT 290V360 9999 FEW020 23/15 Q1012
2026-04-27 15:00:00,METAR LPPR 271500Z 30008KT 9999 FEW020 23/15 Q1013
2026-04-27 14:30:00,METAR LPPR 271430Z 32008KT 280V350 9999 FEW020 22/15 Q1013
2026-04-27 14:00:00,METAR LPPR 271400Z 30006KT 270V340 9999 FEW020 22/15 Q1013
2026-04-27 13:30:00,METAR LPPR 271330Z 31007KT 9999 FEW020 22/14 Q1013
2026-04-27 13:00:00,METAR LPPR 271300Z 29005KT 240V350 9999 FEW020 22/14 Q1014
2026-04-27 12:30:00,METAR LPPR 271230Z 30006KT 270V330 9999 FEW020 22/15 Q1014
2026-04-27 12:00:00,METAR LPPR 271200Z 29006KT 250V320 CAVOK 22/15 Q1014
2026-04-27 11:30:00,METAR LPPR 271130Z 27006KT 240V300 CAVOK 22/15 Q1014
2026-04-27 11:00:00,METAR LPPR 271100Z 29005KT 240V320 CAVOK 21/16 Q1014
2026-04-27 10:30:00,METAR LPPR 271030Z 26005KT 230V290 CAVOK 22/16 Q1014
2026-04-27 10:00:00,METAR LPPR 271000Z 28004KT 250V320 CAVOK 24/17 Q1015
2026-04-27 09:30:00,METAR LPPR 270930Z 36003KT 290V090 CAVOK 24/16 Q1015
2026-04-27 09:00:00,METAR LPPR 270900Z VRB02KT CAVOK 23/16 Q1015
2026-04-27 08:30:00,METAR LPPR 270830Z 12003KT 070V150 CAVOK 22/16 Q1015
2026-04-27 08:00:00,METAR LPPR 270800Z 00000KT CAVOK 20/15 Q1015
2026-04-27 07:30:00,METAR LPPR 270730Z 00000KT CAVOK 19/15 Q1015
2026-04-27 07:00:00,METAR LPPR 270700Z VRB01KT 8000 NSC 17/15 Q1015
2026-04-27 06:30:00,METAR LPPR 270630Z VRB01KT 8000 NSC 14/13 Q1015
2026-04-27 06:00:00,METAR LPPR 270600Z VRB02KT 9000 NSC 13/12 Q1015
2026-04-27 05:30:00,METAR LPPR 270530Z 00000KT 9000 NSC 13/12 Q1015
2026-04-27 05:00:00,METAR LPPR 270500Z 00000KT CAVOK 13/12 Q1015
2026-04-27 04:30:00,METAR LPPR 270430Z 36003KT 330V030 CAVOK 12/11 Q1015
2026-04-27 04:00:00,METAR LPPR 270400Z 00000KT CAVOK 13/12 Q1015
2026-04-27 03:30:00,METAR LPPR 270330Z 36003KT CAVOK 13/12 Q1015
2026-04-27 03:00:00,METAR LPPR 270300Z 00000KT CAVOK 13/12 Q1015
2026-04-27 02:30:00,METAR LPPR 270230Z 13002KT CAVOK 14/13 Q1015
2026-04-27 02:00:00,METAR LPPR 270200Z 05002KT CAVOK 14/13 Q1015
2026-04-27 01:30:00,METAR LPPR 270130Z 00000KT CAVOK 14/13 Q1016
2026-04-27 01:00:00,METAR LPPR 270100Z 00000KT CAVOK 14/13 Q1016
2026-04-27 00:30:00,METAR LPPR 270030Z VRB02KT CAVOK 15/14 Q1016
2026-04-27 00:00:00,METAR LPPR 270000Z 00000KT CAVOK 14/13 Q1016
2026-04-26 23:30:00,METAR LPPR 262330Z VRB02KT CAVOK 14/14 Q1016
2026-04-26 23:00:00,METAR LPPR 262300Z 29002KT CAVOK 15/14 Q1016
2026-04-26 22:30:00,METAR LPPR 262230Z 00000KT CAVOK 15/14 Q1017
2026-04-26 22:00:00,METAR LPPR 262200Z 35003KT CAVOK 15/14 Q1016
2026-04-26 21:30:00,METAR LPPR 262130Z 33003KT CAVOK 15/14 Q1017
2026-04-26 21:00:00,METAR LPPR 262100Z 33004KT CAVOK 15/14 Q1017
2026-04-26 20:30:00,METAR LPPR 262030Z 31006KT CAVOK 16/14 Q1017
2026-04-26 20:00:00,METAR LPPR 262000Z 31003KT 280V360 CAVOK 17/13 Q1016
2026-04-26 19:30:00,METAR LPPR 261930Z 01004KT 340V060 9999 FEW025 18/13 Q1016
2026-04-26 19:00:00,METAR LPPR 261900Z 32005KT 290V350 CAVOK 18/14 Q1016
2026-04-26 18:30:00,METAR LPPR 261830Z 31005KT 9999 FEW025 19/14 Q1016
2026-04-26 18:00:00,METAR LPPR 261800Z 28005KT 240V310 9999 FEW025 20/14 Q1016
2026-04-26 17:30:00,METAR LPPR 261730Z 32004KT 270V030 9999 FEW025 21/13 Q1016
2026-04-26 17:00:00,METAR LPPR 261700Z 31008KT 280V340 9999 FEW025 19/14 Q1016
2026-04-26 16:30:00,METAR LPPR 261630Z 29005KT 260V330 9999 FEW027 21/14 Q1016
2026-04-26 16:00:00,METAR LPPR 261600Z 32008KT 9999 FEW030 21/13 Q1016
2026-04-26 15:30:00,METAR LPPR 261530Z 31007KT 270V350 9999 FEW030 21/14 Q1016
2026-04-26 15:00:00,METAR LPPR 261500Z 30005KT 270V350 9999 FEW027 21/13 Q1017
2026-04-26 14:30:00,METAR LPPR 261430Z 32008KT 9999 FEW023 20/15 Q1017
2026-04-26 14:00:00,METAR LPPR 261400Z 29005KT 260V330 9999 FEW020 20/15 Q1017
2026-04-26 13:30:00,METAR LPPR 261330Z 29005KT 260V330 9999 FEW020 20/15 Q1017
2026-04-26 13:00:00,METAR LPPR 261300Z 29005KT 230V330 9999 FEW020 21/15 Q1017
2026-04-26 12:30:00,METAR LPPR 261230Z 29004KT 200V340 9999 FEW003 19/15 Q1017
2026-04-26 12:00:00,METAR LPPR 261200Z 27005KT 190V320 9999 4500W VCFG FEW003 18/16 Q1018
2026-04-26 11:30:00,METAR LPPR 261130Z 27005KT 210V320 9000 4000W VCFG SCT003 18/15 Q1018
2026-04-26 11:00:00,METAR LPPR 261100Z 25006KT 220V300 9999 VCFG FEW003 18/15 Q1018
2026-04-26 10:30:00,METAR LPPR 261030Z 26005KT 210V310 9000 VCFG FEW004 17/15 Q1018
2026-04-26 10:00:00,METAR LPPR 261000Z 25005KT 210V300 9000 VCFG FEW004 18/15 Q1018
2026-04-26 09:30:00,METAR LPPR 260930Z 28003KT 210V360 9999 VCFG FEW003 18/16 Q1018
2026-04-26 09:00:00,METAR LPPR 260900Z 00000KT 5000 BR BKN002 16/15 Q1018
2026-04-26 08:30:00,METAR LPPR 260830Z VRB02KT 0700 R17/1400D FG BKN002 14/14 Q1018
2026-04-26 08:00:00,METAR LPPR 260800Z VRB01KT 0600 R17/0700N FG BKN002 14/14 Q1018
2026-04-26 07:30:00,METAR LPPR 260730Z VRB01KT 0600 R17/1000 FG BKN001 14/13 Q1018
2026-04-26 07:00:00,METAR LPPR 260700Z VRB01KT 0300 0200S R17/0350N FG VV001 14/13 Q1017
2026-04-26 06:30:00,METAR LPPR 260630Z 00000KT 0250 R17/0250D FG BKN002 BKN004 13/13 Q1017
2026-04-26 06:00:00,METAR LPPR 260600Z VRB02KT 1500 0300S PRFG BKN001 12/12 Q1017
2026-04-26 05:30:00,METAR LPPR 260530Z VRB01KT CAVOK 12/11 Q1016
2026-04-26 05:00:00,METAR LPPR 260500Z VRB02KT CAVOK 12/12 Q1016
2026-04-26 04:30:00,METAR LPPR 260430Z VRB02KT CAVOK 13/13 Q1016
2026-04-26 04:00:00,METAR LPPR 260400Z 17003KT CAVOK 13/12 Q1016
2026-04-26 03:30:00,METAR LPPR 260330Z 18005KT CAVOK 15/14 Q1016
2026-04-26 03:00:00,METAR LPPR 260300Z 16004KT CAVOK 14/13 Q1016
2026-04-26 02:30:00,METAR LPPR 260230Z 23004KT CAVOK 14/13 Q1016
2026-04-26 02:00:00,METAR LPPR 260200Z VRB02KT CAVOK 14/13 Q1016
2026-04-26 01:30:00,METAR LPPR 260130Z 11003KT CAVOK 14/13 Q1016
2026-04-26 01:00:00,METAR LPPR 260100Z 00000KT CAVOK 14/13 Q1016
2026-04-26 00:30:00,METAR LPPR 260030Z 00000KT 9999 FEW009 14/14 Q1016
2026-04-26 00:00:00,METAR LPPR 260000Z 00000KT 9999 FEW009 14/13 Q1016
2026-04-25 23:30:00,METAR LPPR 252330Z VRB02KT 9999 FEW009 14/13 Q1016
2026-04-25 23:00:00,METAR LPPR 252300Z 00000KT CAVOK 15/14 Q1017
2026-04-25 22:30:00,METAR LPPR 252230Z 24004KT CAVOK 15/13 Q1017
2026-04-25 22:00:00,METAR LPPR 252200Z VRB02KT CAVOK 15/13 Q1017
2026-04-25 21:30:00,METAR LPPR 252130Z VRB02KT CAVOK 15/14 Q1017
2026-04-25 21:00:00,METAR LPPR 252100Z 26003KT 210V340 9999 FEW025CB 16/14 Q1017
2026-04-25 20:30:00,METAR LPPR 252030Z 34006KT 9999 VCTS FEW020 FEW025CB 16/13 Q1016
2026-04-25 20:00:00,METAR LPPR 252000Z 34006KT 9999 VCTS FEW020 FEW025CB 16/13 Q1016
2026-04-25 19:30:00,METAR LPPR 251930Z 34006KT 9999 FEW020 FEW025CB 16/14 Q1016
2026-04-25 19:00:00,METAR LPPR 251900Z 31007KT 9999 FEW020 FEW025CB 17/14 Q1016
2026-04-25 18:30:00,METAR LPPR 251830Z 33009KT 9999 FEW020 18/14 Q1015
2026-04-25 18:00:00,METAR LPPR 251800Z 31010KT 9999 FEW020 18/14 Q1016
2026-04-25 17:30:00,METAR LPPR 251730Z 33010KT 9999 FEW020 19/14 Q1015
2026-04-25 17:00:00,METAR LPPR 251700Z 32010KT 9999 FEW020 19/14 Q1015
2026-04-25 16:30:00,METAR LPPR 251630Z 32011KT 9999 FEW020 19/14 Q1015
2026-04-25 16:00:00,METAR LPPR 251600Z 31010KT 9999 FEW020 19/14 Q1015
2026-04-25 15:30:00,METAR LPPR 251530Z 32011KT 9999 FEW020 19/14 Q1015
2026-04-25 15:00:00,METAR LPPR 251500Z 31010KT 9999 FEW020 20/14 Q1016
2026-04-25 14:30:00,METAR LPPR 251430Z 32011KT 9999 FEW020 20/14 Q1016
2026-04-25 14:00:00,METAR LPPR 251400Z 32011KT CAVOK 19/13 Q1016
2026-04-25 13:30:00,METAR LPPR 251330Z 31010KT CAVOK 20/13 Q1016
2026-04-25 13:00:00,METAR LPPR 251300Z 31008KT CAVOK 20/14 Q1017
2026-04-25 12:30:00,METAR LPPR 251230Z 31008KT 270V350 CAVOK 19/13 Q1017
2026-04-25 12:00:00,METAR LPPR 251200Z 31007KT 280V340 CAVOK 19/14 Q1017
2026-04-25 11:30:00,METAR LPPR 251130Z 33009KT CAVOK 18/14 Q1017
2026-04-25 11:00:00,METAR LPPR 251100Z 28006KT 260V330 CAVOK 18/13 Q1018
2026-04-25 10:30:00,METAR LPPR 251030Z 28005KT 250V310 CAVOK 19/13 Q1018
2026-04-25 10:00:00,METAR LPPR 251000Z 36006KT 320V050 CAVOK 19/13 Q1018
2026-04-25 09:30:00,METAR LPPR 250930Z 35005KT 310V020 CAVOK 18/13 Q1018
2026-04-25 09:00:00,METAR LPPR 250900Z 33005KT 290V010 CAVOK 17/13 Q1018
2026-04-25 08:30:00,METAR LPPR 250830Z 36003KT 320V080 CAVOK 17/14 Q1018
2026-04-25 08:00:00,METAR LPPR 250800Z 35003KT 320V020 9000 VCFG NSC 14/13 Q1018
2026-04-25 07:30:00,METAR LPPR 250730Z 01003KT 330V100 9999 VCFG FEW004 13/12 Q1018
2026-04-25 07:00:00,METAR LPPR 250700Z 00000KT 9000 4000N VCFG FEW004 12/12 Q1018
2026-04-25 06:30:00,METAR LPPR 250630Z 00000KT 8000 3600N BCFG FEW004 12/11 Q1018
2026-04-25 06:00:00,METAR LPPR 250600Z VRB02KT 8000 3600N BCFG FEW004 11/10 Q1017
2026-04-25 05:30:00,METAR LPPR 250530Z 09003KT 050V130 9000 4200N BCFG FEW004 11/09 Q1017
2026-04-25 05:00:00,METAR LPPR 250500Z 04003KT 010V070 9999 FEW004 11/10 Q1017
2026-04-25 04:30:00,METAR LPPR 250430Z 00000KT 9999 FEW004 11/11 Q1017
2026-04-25 04:00:00,METAR LPPR 250400Z 03003KT 9999 FEW004 10/10 Q1017
2026-04-25 03:30:00,METAR LPPR 250330Z 02003KT 9999 FEW004 11/11 Q1018
2026-04-25 03:00:00,METAR LPPR 250300Z VRB02KT 9999 FEW001 10/10 Q1018
2026-04-25 02:30:00,METAR LPPR 250230Z 00000KT 9999 FEW001 10/10 Q1018
2026-04-25 02:00:00,METAR LPPR 250200Z 00000KT 9999 FEW006 11/11 Q1018
2026-04-25 01:30:00,METAR LPPR 250130Z 00000KT 9999 FEW006 12/11 Q1019
2026-04-25 01:00:00,METAR LPPR 250100Z 36002KT 9999 FEW006 12/11 Q1019
2026-04-25 00:30:00,METAR LPPR 250030Z 34003KT 9999 FEW006 13/12 Q1019
2026-04-25 00:00:00,METAR LPPR 250000Z 36003KT 330V050 9999 SCT006 13/12 Q1019
2026-04-24 23:30:00,METAR LPPR 242330Z 35002KT 9999 SCT006 13/12 Q1019
2026-04-24 23:00:00,METAR LPPR 242300Z 35003KT 330V030 9999 SCT006 13/13 Q1020
2026-04-24 22:30:00,METAR LPPR 242230Z 36003KT 320V040 9999 SCT006 14/13 Q1020
2026-04-24 22:00:00,METAR LPPR 242200Z 34005KT 9999 SCT007 14/12 Q1020
2026-04-24 21:30:00,METAR LPPR 242130Z 34005KT 9999 SCT008 14/12 Q1019
2026-04-24 21:00:00,METAR LPPR 242100Z 33007KT 9999 SCT009 14/13 Q1019
2026-04-24 20:30:00,METAR LPPR 242030Z 33006KT 9999 BKN009 15/13 Q1019
2026-04-24 20:00:00,METAR LPPR 242000Z 33007KT 9999 SCT008 SCT010 15/13 Q1019
2026-04-24 19:30:00,METAR LPPR 241930Z 33008KT 9999 FEW009 SCT011 15/13 Q1019
2026-04-24 19:00:00,METAR LPPR 241900Z 32010KT 9999 FEW009 SCT011 16/14 Q1018
2026-04-24 18:30:00,METAR LPPR 241830Z 32009KT 290V360 9999 SCT012 16/13 Q1019
2026-04-24 18:00:00,METAR LPPR 241800Z 32011KT 290V350 9999 SCT012 17/13 Q1018
2026-04-24 17:30:00,METAR LPPR 241730Z 32010KT 280V350 9999 SCT012 17/13 Q1018
2026-04-24 17:00:00,METAR LPPR 241700Z 32010KT 280V360 9999 SCT012 FEW025TCU 17/14 Q1018
2026-04-24 16:30:00,METAR LPPR 241630Z 32011KT 9999 FEW025TCU 17/13 Q1018
2026-04-24 16:00:00,METAR LPPR 241600Z 32010KT 280V340 9999 FEW025TCU 17/13 Q1018
2026-04-24 15:30:00,METAR LPPR 241530Z 31010KT 270V330 9999 FEW025 18/14 Q1018
2026-04-24 15:00:00,METAR LPPR 241500Z 32010KT 290V350 9999 FEW025 18/12 Q1018
2026-04-24 14:30:00,METAR LPPR 241430Z 31009KT 9999 FEW025 18/12 Q1018
2026-04-24 14:00:00,METAR LPPR 241400Z 29008KT 9999 FEW025 18/12 Q1018
2026-04-24 13:30:00,METAR LPPR 241330Z 32008KT 280V350 9999 FEW025 18/13 Q1018
2026-04-24 13:00:00,METAR LPPR 241300Z 30006KT 270V330 9999 FEW022 17/12 Q1018
2026-04-24 12:30:00,METAR LPPR 241230Z 29006KT 240V330 9999 FEW020 18/13 Q1018
2026-04-24 12:00:00,METAR LPPR 241200Z 30007KT 230V330 9999 FEW020 18/13 Q1018
2026-04-24 11:30:00,METAR LPPR 241130Z 30007KT 270V330 9999 FEW020 18/13 Q1018
2026-04-24 11:00:00,METAR LPPR 241100Z 29006KT 250V320 9999 FEW020 18/12 Q1018
2026-04-24 10:30:00,METAR LPPR 241030Z 29006KT 250V320 9999 FEW020 17/12 Q1018
2026-04-24 10:00:00,METAR LPPR 241000Z 02004KT 270V080 9999 FEW020 18/12 Q1018
2026-04-24 09:30:00,METAR LPPR 240930Z VRB04KT 9999 SCT015 17/11 Q1018
2026-04-24 09:00:00,METAR LPPR 240900Z VRB03KT 9999 SCT014 17/12 Q1018
2026-04-24 08:30:00,METAR LPPR 240830Z 12004KT 060V200 9999 FEW015 16/13 Q1018
2026-04-24 08:00:00,METAR LPPR 240800Z 12005KT 9000 FEW015 15/12 Q1018
2026-04-24 07:30:00,METAR LPPR 240730Z 12005KT 090V150 8000 FEW015 14/12 Q1017
2026-04-24 07:00:00,METAR LPPR 240700Z VRB02KT 9000 FEW015 12/11 Q1017
2026-04-24 06:30:00,METAR LPPR 240630Z 10004KT 9000 FEW012 12/11 Q1017
2026-04-24 06:00:00,METAR LPPR 240600Z 12005KT 070V160 8000 FEW007 BKN015 13/12 Q1017
2026-04-24 05:30:00,METAR LPPR 240530Z 11003KT 070V140 8000 FEW008 BKN010 11/10 Q1016
2026-04-24 05:00:00,METAR LPPR 240500Z 00000KT 8000 SCT007 11/11 Q1016
2026-04-24 04:30:00,METAR LPPR 240430Z 00000KT 8000 FEW005 12/11 Q1016
2026-04-24 04:00:00,METAR LPPR 240400Z 00000KT 8000 FEW005 SCT007 11/11 Q1016
2026-04-24 03:30:00,METAR LPPR 240330Z 00000KT 8000 FEW004 BKN006 12/11 Q1016
2026-04-24 03:00:00,METAR LPPR 240300Z 00000KT 6000 FEW006 SCT008 12/11 Q1015
2026-04-24 02:30:00,METAR LPPR 240230Z 00000KT 6000 FEW005 SCT007 12/11 Q1015
2026-04-24 02:00:00,METAR LPPR 240200Z 00000KT 6000 FEW007 BKN010 12/12 Q1015
2026-04-24 01:30:00,METAR LPPR 240130Z 00000KT 6000 SCT009 11/11 Q1015
2026-04-24 01:00:00,METAR LPPR 240100Z 00000KT 6000 SCT009 BKN012 12/11 Q1015
2026-04-24 00:30:00,METAR LPPR 240030Z 00000KT 6000 SCT008 12/11 Q1015
2026-04-24 00:00:00,METAR LPPR 240000Z 24003KT 9000 FEW009 13/13 Q1015
2026-04-23 23:30:00,METAR LPPR 232330Z 25003KT 230V290 9000 FEW007 SCT009 13/12 Q1015
2026-04-23 23:00:00,METAR LPPR 232300Z 21002KT 9000 FEW007 14/13 Q1015
2026-04-23 22:30:00,METAR LPPR 232230Z 22003KT 9999 FEW008 14/12 Q1015
2026-04-23 22:00:00,METAR LPPR 232200Z 00000KT 9999 FEW008 13/12 Q1015
2026-04-23 21:30:00,METAR LPPR 232130Z 00000KT 9999 FEW008 13/12 Q1015
2026-04-23 21:00:00,METAR LPPR 232100Z 22002KT 9999 FEW008 14/12 Q1015
2026-04-23 20:30:00,METAR LPPR 232030Z VRB01KT 9999 FEW008 14/12 Q1015
2026-04-23 20:00:00,METAR LPPR 232000Z VRB02KT 9999 FEW008 14/13 Q1014
2026-04-23 19:30:00,METAR LPPR 231930Z 28003KT 240V310 9999 FEW008 15/12 Q1014
2026-04-23 19:00:00,METAR LPPR 231900Z 28004KT 250V310 9999 FEW008 15/12 Q1014
2026-04-23 18:30:00,METAR LPPR 231830Z 29004KT 250V320 9999 FEW008 15/12 Q1014
2026-04-23 18:00:00,METAR LPPR 231800Z 28005KT 230V310 CAVOK 16/11 Q1014
2026-04-23 17:30:00,METAR LPPR 231730Z 28006KT 220V330 CAVOK 16/10 Q1013
2026-04-23 17:00:00,METAR LPPR 231700Z 29006KT CAVOK 17/10 Q1013
2026-04-23 16:30:00,METAR LPPR 231630Z 31009KT CAVOK 17/08 Q1013
2026-04-23 16:00:00,METAR LPPR 231600Z 30008KT 260V330 CAVOK 17/09 Q1013
2026-04-23 15:30:00,METAR LPPR 231530Z 30008KT 260V340 CAVOK 17/11 Q1013
2026-04-23 15:00:00,METAR LPPR 231500Z 30008KT 260V330 CAVOK 17/10 Q1013
2026-04-23 14:30:00,METAR LPPR 231430Z 30008KT 270V340 CAVOK 17/10 Q1013
2026-04-23 14:00:00,METAR LPPR 231400Z 30009KT CAVOK 17/10 Q1013
2026-04-23 13:30:00,METAR LPPR 231330Z 31009KT 270V330 CAVOK 17/12 Q1013
2026-04-23 13:00:00,METAR LPPR 231300Z 32010KT 280V340 CAVOK 17/12 Q1013
2026-04-23 12:30:00,METAR LPPR 231230Z 30007KT CAVOK 17/12 Q1013
2026-04-23 12:00:00,METAR LPPR 231200Z 31010KT CAVOK 17/12 Q1013
2026-04-23 11:30:00,METAR LPPR 231130Z 29006KT 260V350 CAVOK 17/12 Q1014
2026-04-23 11:00:00,METAR LPPR 231100Z 29006KT 240V320 CAVOK 17/11 Q1014
2026-04-23 10:30:00,METAR LPPR 231030Z 30006KT 270V340 CAVOK 18/11 Q1014
2026-04-23 10:00:00,METAR LPPR 231000Z 28004KT 230V310 CAVOK 17/11 Q1014
2026-04-23 09:30:00,METAR LPPR 230930Z 27005KT 230V310 CAVOK 17/11 Q1014
2026-04-23 09:00:00,METAR LPPR 230900Z VRB02KT CAVOK 17/11 Q1014
2026-04-23 08:30:00,METAR LPPR 230830Z VRB02KT CAVOK 15/12 Q1014
2026-04-23 08:00:00,METAR LPPR 230800Z VRB01KT CAVOK 15/11 Q1014
2026-04-23 07:30:00,METAR LPPR 230730Z VRB01KT CAVOK 14/11 Q1014
2026-04-23 07:00:00,METAR LPPR 230700Z VRB02KT CAVOK 12/10 Q1013
2026-04-23 06:30:00,METAR LPPR 230630Z 04003KT 360V070 CAVOK 11/09 Q1013
2026-04-23 06:00:00,METAR LPPR 230600Z 09003KT 050V120 CAVOK 09/08 Q1013
2026-04-23 05:30:00,METAR LPPR 230530Z VRB02KT CAVOK 09/08 Q1013
2026-04-23 05:00:00,METAR LPPR 230500Z 36002KT CAVOK 09/08 Q1012
2026-04-23 04:30:00,METAR LPPR 230430Z VRB03KT CAVOK 10/08 Q1012
2026-04-23 04:00:00,METAR LPPR 230400Z VRB01KT CAVOK 10/09 Q1013
2026-04-23 03:30:00,METAR LPPR 230330Z 09003KT CAVOK 10/09 Q1013
2026-04-23 03:00:00,METAR LPPR 230300Z 09003KT CAVOK 10/09 Q1013
2026-04-23 02:30:00,METAR LPPR 230230Z VRB02KT CAVOK 10/09 Q1013
2026-04-23 02:00:00,METAR LPPR 230200Z 04001KT CAVOK 10/09 Q1013
2026-04-23 01:30:00,METAR LPPR 230130Z VRB01KT CAVOK 11/09 Q1013
2026-04-23 01:00:00,METAR LPPR 230100Z 01001KT CAVOK 10/09 Q1014
2026-04-23 00:30:00,METAR LPPR 230030Z 00000KT CAVOK 11/10 Q1014
2026-04-23 00:00:00,METAR LPPR 230000Z VRB01KT CAVOK 11/10 Q1014
2026-04-22 23:30:00,METAR LPPR 222330Z 03002KT CAVOK 11/10 Q1014
2026-04-22 23:00:00,METAR LPPR 222300Z 03002KT CAVOK 12/10 Q1014
2026-04-22 22:30:00,METAR LPPR 222230Z 00000KT CAVOK 12/10 Q1014
2026-04-22 22:00:00,METAR LPPR 222200Z 00000KT CAVOK 12/10 Q1014
2026-04-22 21:30:00,METAR LPPR 222130Z 00000KT CAVOK 13/10 Q1014
2026-04-22 21:00:00,METAR LPPR 222100Z 34003KT 310V050 CAVOK 14/10 Q1014
2026-04-22 20:30:00,METAR LPPR 222030Z 01003KT CAVOK 13/11 Q1014
2026-04-22 20:00:00,METAR LPPR 222000Z 35004KT CAVOK 13/11 Q1014
2026-04-22 19:30:00,METAR LPPR 221930Z 35005KT 330V040 CAVOK 14/11 Q1013
2026-04-22 19:00:00,METAR LPPR 221900Z 32006KT CAVOK 15/11 Q1013
2026-04-22 18:30:00,METAR LPPR 221830Z 30005KT CAVOK 15/11 Q1013
2026-04-22 18:00:00,METAR LPPR 221800Z 29005KT 260V320 CAVOK 16/10 Q1013
2026-04-22 17:30:00,METAR LPPR 221730Z 29005KT 260V330 CAVOK 16/10 Q1013
2026-04-22 17:00:00,METAR LPPR 221700Z 30006KT 270V330 CAVOK 17/10 Q1013
2026-04-22 16:30:00,METAR LPPR 221630Z 27005KT 230V320 CAVOK 17/11 Q1014
2026-04-22 16:00:00,METAR LPPR 221600Z 29006KT 250V330 CAVOK 17/11 Q1014
2026-04-22 15:30:00,METAR LPPR 221530Z 29006KT 260V330 9999 FEW020 17/11 Q1014
2026-04-22 15:00:00,METAR LPPR 221500Z 25006KT 210V320 9999 FEW020 17/11 Q1014
2026-04-22 14:30:00,METAR LPPR 221430Z 26007KT 220V300 9999 FEW020 17/11 Q1014
2026-04-22 14:00:00,METAR LPPR 221400Z COR 23008KT 210V290 9999 FEW020 18/11 Q1014
2026-04-22 13:30:00,METAR LPPR 221330Z 26007KT 210V300 9999 FEW020 17/11 Q1014
2026-04-22 13:00:00,METAR LPPR 221300Z 24008KT 200V270 9999 FEW020 17/11 Q1014
2026-04-22 12:30:00,METAR LPPR 221230Z 23008KT 200V280 9999 FEW020 17/11 Q1014
2026-04-22 12:00:00,METAR LPPR 221200Z 23008KT 200V260 9999 FEW020 17/11 Q1014
2026-04-22 11:30:00,METAR LPPR 221130Z 22009KT 180V260 9999 FEW020 17/11 Q1014
2026-04-22 11:00:00,METAR LPPR 221100Z 21009KT 160V260 9999 SCT020 17/10 Q1015
2026-04-22 10:30:00,METAR LPPR 221030Z 20008KT 160V230 9999 SCT020 17/11 Q1015
2026-04-22 10:00:00,METAR LPPR 221000Z 19011KT 160V220 9999 SCT020 16/10 Q1014
2026-04-22 09:30:00,METAR LPPR 220930Z 19011KT 9999 SCT025 16/11 Q1014
2026-04-22 09:00:00,METAR LPPR 220900Z 19011KT 9999 SCT020 16/10 Q1014
2026-04-22 08:30:00,METAR LPPR 220830Z 18012KT 9999 SCT020 15/11 Q1014
2026-04-22 08:00:00,METAR LPPR 220800Z 17009KT 9999 SCT020 15/11 Q1013
2026-04-22 07:30:00,METAR LPPR 220730Z 17008KT 9999 BKN020 14/11 Q1013
2026-04-22 07:00:00,METAR LPPR 220700Z 17007KT 9999 FEW019 SCT025 13/11 Q1013
2026-04-22 06:30:00,METAR LPPR 220630Z 15006KT 9999 SCT018 13/11 Q1013
2026-04-22 06:00:00,METAR LPPR 220600Z 17008KT 9999 SCT018 BKN030 13/11 Q1012
2026-04-22 05:30:00,METAR LPPR 220530Z 17007KT 9999 SCT020 SCT033 13/11 Q1012
2026-04-22 05:00:00,METAR LPPR 220500Z 16006KT 9999 FEW017 SCT022 12/10 Q1011
2026-04-22 04:30:00,METAR LPPR 220430Z 19006KT 9999 FEW018 BKN022 BKN033 13/10 Q1011
2026-04-22 04:00:00,METAR LPPR 220400Z 20004KT 9999 SCT022 BKN035 13/10 Q1011
2026-04-22 03:30:00,METAR LPPR 220330Z 20005KT 9999 FEW020 SCT040 13/10 Q1011
2026-04-22 03:00:00,METAR LPPR 220300Z 19005KT 9999 FEW018 BKN040 13/11 Q1010
2026-04-22 02:30:00,METAR LPPR 220230Z 19004KT 9999 FEW016 BKN035 13/12 Q1010
2026-04-22 02:00:00,METAR LPPR 220200Z 19004KT 9999 FEW018 BKN035 13/12 Q1010
2026-04-22 01:30:00,METAR LPPR 220130Z 19003KT 160V230 9999 BKN025 BKN040 13/12 Q1010
2026-04-22 01:00:00,METAR LPPR 220100Z 26003KT 210V300 9000 SCT009 BKN015 13/12 Q1010
2026-04-22 00:30:00,METAR LPPR 220030Z 25005KT 220V300 9999 SCT015 BKN020 13/11 Q1010
2026-04-22 00:00:00,METAR LPPR 220000Z 27004KT 180V310 9999 -RA FEW008 SCT011 BKN020 14/12 Q1009
2026-04-21 23:30:00,METAR LPPR 212330Z 24006KT 210V280 9999 FEW014 SCT018 BKN028 14/11 Q1009
2026-04-21 23:00:00,METAR LPPR 212300Z 23003KT 190V280 9999 FEW015 BKN033 14/11 Q1009
2026-04-21 22:30:00,METAR LPPR 212230Z 26003KT 180V340 9999 FEW016 SCT027 BKN037 14/11 Q1009
2026-04-21 22:00:00,METAR LPPR 212200Z 28003KT 230V320 9999 FEW016 SCT023 BKN027 14/11 Q1008
2026-04-21 21:30:00,METAR LPPR 212130Z 30005KT 9999 FEW016 BKN023 14/11 Q1008
2026-04-21 21:00:00,METAR LPPR 212100Z 34004KT 300V020 9999 FEW024 BKN032 OVC049 15/11 Q1007
2026-04-21 20:30:00,METAR LPPR 212030Z 31006KT 290V350 9999 FEW014 BKN022 BKN029 15/12 Q1007
2026-04-21 20:00:00,METAR LPPR 212000Z 29006KT 260V330 9999 BKN010 BKN020 15/13 Q1007
2026-04-21 19:30:00,METAR LPPR 211930Z 29005KT 250V320 9999 FEW008 SCT012 BKN019 15/13 Q1006
2026-04-21 19:00:00,METAR LPPR 211900Z 29004KT 230V340 9999 FEW008 SCT012 BKN015 15/14 Q1006
2026-04-21 18:30:00,METAR LPPR 211830Z 25006KT 190V320 9999 BKN009 BKN012 16/13 Q1005
2026-04-21 18:00:00,METAR LPPR 211800Z 21008KT 180V240 9000 BKN012 BKN020 17/14 Q1005
2026-04-21 17:30:00,METAR LPPR 211730Z 21009KT 9000 BKN012 BKN025 17/14 Q1005
2026-04-21 17:00:00,METAR LPPR 211700Z 20010KT 9000 BKN015 BKN040 17/14 Q1005
2026-04-21 16:30:00,METAR LPPR 211630Z 20012KT 9999 FEW020 SCT040 18/14 Q1005
2026-04-21 16:00:00,METAR LPPR 211600Z 20011KT 9999 FEW040 18/14 Q1004
2026-04-21 15:30:00,METAR LPPR 211530Z 20011KT 9999 FEW020 18/14 Q1004
2026-04-21 15:00:00,METAR LPPR 211500Z 20010KT 9999 FEW020 19/14 Q1004
2026-04-21 14:30:00,METAR LPPR 211430Z 21009KT 170V270 9999 FEW016 19/14 Q1004
2026-04-21 14:00:00,METAR LPPR 211400Z 20011KT 170V260 9999 FEW040 18/14 Q1004
2026-04-21 13:30:00,METAR LPPR 211330Z 21010KT 180V250 9999 FEW025 18/14 Q1004
2026-04-21 13:00:00,METAR LPPR 211300Z 20008KT 160V220 9999 FEW040 18/14 Q1004
2026-04-21 12:30:00,METAR LPPR 211230Z 19009KT 160V230 9999 FEW025 18/14 Q1004
2026-04-21 12:00:00,METAR LPPR 211200Z 19012KT 9999 FEW020 19/15 Q1003
2026-04-21 11:30:00,METAR LPPR 211130Z 18016KT 9999 FEW020 19/14 Q1003
2026-04-21 11:00:00,METAR LPPR 211100Z 19015KT 9999 FEW020 19/15 Q1004
2026-04-21 10:30:00,METAR LPPR 211030Z 19014KT 9999 SCT018 18/15 Q1003
2026-04-21 10:00:00,METAR LPPR 211000Z 19016KT 9999 FEW040 19/14 Q1004
2026-04-21 09:30:00,METAR LPPR 210930Z 20013KT 170V230 CAVOK 20/14 Q1003
2026-04-21 09:00:00,METAR LPPR 210900Z 21010KT CAVOK 19/12 Q1003
2026-04-21 08:30:00,METAR LPPR 210830Z 24014G25KT 200V310 CAVOK 21/10 Q1002
2026-04-21 08:00:00,METAR LPPR 210800Z 12015KT CAVOK 25/08 Q1000
2026-04-21 07:30:00,METAR LPPR 210730Z 11014KT CAVOK 24/08 Q1000
2026-04-21 07:00:00,METAR LPPR 210700Z 11013KT CAVOK 24/08 Q1000
2026-04-21 06:30:00,METAR LPPR 210630Z 11014KT CAVOK 24/08 Q1000
2026-04-21 06:00:00,METAR LPPR 210600Z 12014KT CAVOK 24/08 Q1000
2026-04-21 05:30:00,METAR LPPR 210530Z 12013KT CAVOK 24/09 Q1001
2026-04-21 05:00:00,METAR LPPR 210500Z 11012KT CAVOK 23/09 Q1001
2026-04-21 04:30:00,METAR LPPR 210430Z 12014KT CAVOK 24/09 Q1001
2026-04-21 04:00:00,METAR LPPR 210400Z 11013KT CAVOK 23/09 Q1002
2026-04-21 03:30:00,METAR LPPR 210330Z 11012KT CAVOK 23/10 Q1003
2026-04-21 03:00:00,METAR LPPR 210300Z 11010KT CAVOK 22/10 Q1003
2026-04-21 02:30:00,METAR LPPR 210230Z 11009KT CAVOK 21/11 Q1004
2026-04-21 02:00:00,METAR LPPR 210200Z 10009KT CAVOK 21/10 Q1004
2026-04-21 01:30:00,METAR LPPR 210130Z 11009KT CAVOK 21/10 Q1004
2026-04-21 01:00:00,METAR LPPR 210100Z 11008KT CAVOK 20/10 Q1005
2026-04-21 00:30:00,METAR LPPR 210030Z 10008KT CAVOK 20/10 Q1005
2026-04-21 00:00:00,METAR LPPR 210000Z 11009KT CAVOK 20/10 Q1006
2026-04-20 23:30:00,METAR LPPR 202330Z 11008KT CAVOK 20/10 Q1006
2026-04-20 23:00:00,METAR LPPR 202300Z 09008G21KT 350V110 CAVOK 18/10 Q1007
2026-04-20 22:30:00,METAR LPPR 202230Z 10006KT CAVOK 18/10 Q1008
2026-04-20 22:00:00,METAR LPPR 202200Z 09005KT CAVOK 18/10 Q1008
2026-04-20 21:30:00,METAR LPPR 202130Z 08004KT 060V120 CAVOK 17/11 Q1008
2026-04-20 21:00:00,METAR LPPR 202100Z 07003KT CAVOK 15/12 Q1009
2026-04-20 20:30:00,METAR LPPR 202030Z VRB03KT CAVOK 15/12 Q1009
2026-04-20 20:00:00,METAR LPPR 202000Z VRB02KT CAVOK 16/13 Q1010
2026-04-20 19:30:00,METAR LPPR 201930Z VRB02KT CAVOK 16/12 Q1010
2026-04-20 19:00:00,METAR LPPR 201900Z 00000KT CAVOK 16/12 Q1010
2026-04-20 18:30:00,METAR LPPR 201830Z 29004KT CAVOK 17/11 Q1010
2026-04-20 18:00:00,METAR LPPR 201800Z 27004KT 250V310 CAVOK 19/11 Q1010
2026-04-20 17:30:00,METAR LPPR 201730Z 30003KT CAVOK 20/10 Q1010
2026-04-20 17:00:00,METAR LPPR 201700Z 29005KT CAVOK 20/12 Q1010
2026-04-20 16:30:00,METAR LPPR 201630Z 33004KT 290V070 CAVOK 21/10 Q1010
2026-04-20 16:00:00,METAR LPPR 201600Z 33004KT 290V350 CAVOK 20/13 Q1010
2026-04-20 15:30:00,METAR LPPR 201530Z 29004KT 260V320 CAVOK 19/13 Q1010
2026-04-20 15:00:00,METAR LPPR 201500Z 33004KT 280V030 CAVOK 21/12 Q1011
2026-04-20 14:30:00,METAR LPPR 201430Z VRB05KT CAVOK 19/12 Q1011
2026-04-20 14:00:00,METAR LPPR 201400Z 33007KT CAVOK 19/13 Q1011
2026-04-20 13:30:00,METAR LPPR 201330Z 32007KT CAVOK 16/12 Q1011
2026-04-20 13:00:00,METAR LPPR 201300Z 29005KT CAVOK 17/11 Q1012
2026-04-20 12:30:00,METAR LPPR 201230Z 28004KT 240V320 CAVOK 18/11 Q1012
2026-04-20 12:00:00,METAR LPPR 201200Z VRB04KT CAVOK 18/11 Q1012
2026-04-20 11:30:00,METAR LPPR 201130Z 28005KT 240V340 CAVOK 16/11 Q1012
2026-04-20 11:00:00,METAR LPPR 201100Z 29005KT CAVOK 16/12 Q1013
2026-04-20 10:30:00,METAR LPPR 201030Z 29006KT 260V320 CAVOK 16/12 Q1012
2026-04-20 10:00:00,METAR LPPR 201000Z 26003KT 210V300 CAVOK 18/13 Q1012
2026-04-20 09:30:00,METAR LPPR 200930Z VRB03KT CAVOK 18/13 Q1012
2026-04-20 09:00:00,METAR LPPR 200900Z 13004KT 090V160 CAVOK 18/10 Q1012
2026-04-20 08:30:00,METAR LPPR 200830Z VRB01KT 9999 FEW003 16/11 Q1012
2026-04-20 08:00:00,METAR LPPR 200800Z 10005KT 050V150 9999 FEW003 14/10 Q1012
2026-04-20 07:30:00,METAR LPPR 200730Z VRB03KT 9999 FEW002 12/10 Q1012
2026-04-20 07:00:00,METAR LPPR 200700Z VRB02KT 9999 FEW002 SCT004 10/10 Q1012
2026-04-20 06:30:00,METAR LPPR 200630Z 05004KT 020V090 3000 0500N R17/0500 PRFG SCT001 BKN004 09/09 Q1013
2026-04-20 06:00:00,METAR LPPR 200600Z 02004KT 360V120 4200 1600N BR BCFG SCT001 BKN004 09/09 Q1013
2026-04-20 05:30:00,METAR LPPR 200530Z VRB02KT 4000 1200N BR BCFG BKN001 10/09 Q1013
2026-04-20 05:00:00,METAR LPPR 200500Z 07005KT 020V090 2000 0900N PRFG OVC001 10/10 Q1013
2026-04-20 04:30:00,METAR LPPR 200430Z 01004KT 5000 BR OVC002 10/10 Q1013
2026-04-20 04:00:00,METAR LPPR 200400Z 06004KT 030V100 7000 VCFG BKN004 11/10 Q1014
2026-04-20 03:30:00,METAR LPPR 200330Z 08004KT 9999 4000W BCFG BKN005 11/11 Q1014
2026-04-20 03:00:00,METAR LPPR 200300Z VRB02KT 9999 4000W BCFG BKN006 12/11 Q1014
2026-04-20 02:30:00,METAR LPPR 200230Z 10004KT 9999 3800W BCFG BKN006 12/11 Q1015
2026-04-20 02:00:00,METAR LPPR 200200Z 00000KT 9999 3800W BCFG OVC005 12/11 Q1015
2026-04-20 01:30:00,METAR LPPR 200130Z 00000KT 8000 3500W BCFG OVC003 12/11 Q1016
2026-04-20 01:00:00,METAR LPPR 200100Z VRB02KT 5000 2400W BR BCFG BKN001 OVC004 11/11 Q1016
2026-04-20 00:30:00,METAR LPPR 200030Z VRB02KT 0800 R17/1700U FG VV001 12/11 Q1016
2026-04-20 00:00:00,METAR LPPR 200000Z VRB02KT 0400 R17/0450 FG VV001 11/11 Q1016
2026-04-19 23:30:00,METAR LPPR 192330Z VRB02KT 0500 R17/0600D FG VV001 11/11 Q1016
2026-04-19 23:00:00,METAR LPPR 192300Z VRB01KT 0600 R17/0800 FG VV001 11/11 Q1016
2026-04-19 22:30:00,METAR LPPR 192230Z VRB02KT 0500 R17/0500N FG VV001 12/12 Q1016
2026-04-19 22:00:00,METAR LPPR 192200Z 34004KT 0500 R17/0450N FG VV001 12/11 Q1016
2026-04-19 21:30:00,METAR LPPR 192130Z 31005KT 0400 R17/0900D FG VV001 12/12 Q1016
2026-04-19 21:00:00,METAR LPPR 192100Z 29003KT 6000 2800NW BCFG SCT001 12/11 Q1016
2026-04-19 20:30:00,METAR LPPR 192030Z VRB02KT 9999 4100W BCFG FEW007 13/12 Q1015
2026-04-19 20:00:00,METAR LPPR 192000Z 00000KT 9999 4100W BCFG FEW007 12/11 Q1015
2026-04-19 19:30:00,METAR LPPR 191930Z VRB02KT 9999 4100W BCFG FEW007 13/12 Q1015
2026-04-19 19:00:00,METAR LPPR 191900Z 34003KT 9999 4000W BCFG FEW007 14/12 Q1015
2026-04-19 18:30:00,METAR LPPR 191830Z 35004KT 9999 4000W BCFG FEW007 15/13 Q1015
2026-04-19 18:00:00,METAR LPPR 191800Z 29003KT 260V340 9999 3000W BCFG FEW005 FEW020TCU 15/13 Q1015
2026-04-19 17:30:00,METAR LPPR 191730Z 29004KT 260V320 9999 VCFG FEW005 FEW020TCU 15/13 Q1015
2026-04-19 17:00:00,METAR LPPR 191700Z 30003KT 280V360 9999 3000W BCFG SCT003 FEW020TCU 15/13 Q1015
2026-04-19 16:30:00,METAR LPPR 191630Z VRB03KT 7000 2500NW BCFG SCT002 BKN004 FEW020TCU 15/13 Q1015
2026-04-19 16:00:00,METAR LPPR 191600Z 25005KT 180V330 7000 1500NW BCFG BKN002 BKN004 15/13 Q1015
2026-04-19 15:30:00,METAR LPPR 191530Z 23005KT 190V280 9999 2000W BCFG SCT004 16/14 Q1015
2026-04-19 15:00:00,METAR LPPR 191500Z 23005KT 160V290 9999 2000W BCFG SCT002 17/14 Q1015
2026-04-19 14:30:00,METAR LPPR 191430Z 24006KT 200V290 9999 2000NW BCFG SCT004 16/14 Q1016
2026-04-19 14:00:00,METAR LPPR 191400Z 24006KT 200V280 9999 2000W BCFG SCT007 17/14 Q1016
2026-04-19 13:30:00,METAR LPPR 191330Z 23005KT 180V310 9999 2000W BCFG SCT007 17/14 Q1016
2026-04-19 13:00:00,METAR LPPR 191300Z 24006KT 210V290 9999 2000W BCFG SCT007 16/14 Q1016
2026-04-19 12:30:00,METAR LPPR 191230Z 23007KT 9999 2000W BCFG FEW007 18/15 Q1016
2026-04-19 12:00:00,METAR LPPR 191200Z 23006KT 210V270 9999 3000W VCFG FEW007 19/15 Q1016
2026-04-19 11:30:00,METAR LPPR 191130Z 24006KT 190V270 9999 2500W VCFG FEW007 19/15 Q1016
2026-04-19 11:00:00,METAR LPPR 191100Z 24005KT 200V280 9999 3500W FEW007 18/15 Q1016
2026-04-19 10:30:00,METAR LPPR 191030Z 23004KT 170V270 9999 2500W VCFG FEW007 17/14 Q1016
2026-04-19 10:00:00,METAR LPPR 191000Z 24006KT 200V270 9999 3000W VCFG FEW007 17/14 Q1016
2026-04-19 09:30:00,METAR LPPR 190930Z 19008KT 9999 3500W VCFG FEW008 17/13 Q1016
2026-04-19 09:00:00,METAR LPPR 190900Z 19007KT 9999 3500W VCFG FEW008 16/13 Q1016
2026-04-19 08:30:00,METAR LPPR 190830Z 24005KT 9999 VCFG FEW008 16/14 Q1016
2026-04-19 08:00:00,METAR LPPR 190800Z 18004KT 160V220 9999 VCFG FEW008 16/11 Q1016
2026-04-19 07:30:00,METAR LPPR 190730Z 14003KT 060V190 CAVOK 15/10 Q1016
2026-04-19 07:00:00,METAR LPPR 190700Z 15006KT 110V170 CAVOK 14/11 Q1015
2026-04-19 06:30:00,METAR LPPR 190630Z VRB01KT 9999 FEW020 11/10 Q1015
2026-04-19 06:00:00,METAR LPPR 190600Z VRB02KT 9999 FEW020 12/11 Q1015
2026-04-19 05:30:00,METAR LPPR 190530Z 13004KT 8000 FEW001 12/12 Q1015
2026-04-19 05:00:00,METAR LPPR 190500Z 00000KT 1500 R17/1000 BCFG FEW001 SCT003 12/12 Q1015
2026-04-19 04:30:00,METAR LPPR 190430Z 16004KT 0700 R17/0550N FG FEW001 BKN003 13/13 Q1015
2026-04-19 04:00:00,METAR LPPR 190400Z 18004KT 0500 R17/0375N FG BKN001 13/12 Q1015
2026-04-19 03:30:00,METAR LPPR 190330Z 20002KT 0600 R17/0550 FG SCT001 BKN003 12/11 Q1015
2026-04-19 03:00:00,METAR LPPR 190300Z 23003KT CAVOK 13/11 Q1015
2026-04-19 02:30:00,METAR LPPR 190230Z 20004KT 160V230 CAVOK 14/10 Q1015
2026-04-19 02:00:00,METAR LPPR 190200Z 00000KT CAVOK 12/11 Q1015
2026-04-19 01:30:00,METAR LPPR 190130Z 00000KT CAVOK 12/11 Q1015
2026-04-19 01:00:00,METAR LPPR 190100Z 00000KT CAVOK 12/11 Q1015
2026-04-19 00:30:00,METAR LPPR 190030Z 00000KT CAVOK 12/11 Q1015
2026-04-19 00:00:00,METAR LPPR 190000Z 02001KT CAVOK 13/11 Q1015
2026-04-18 23:30:00,METAR LPPR 182330Z 00000KT CAVOK 13/12 Q1016
2026-04-18 23:00:00,METAR LPPR 182300Z 00000KT CAVOK 14/12 Q1016
2026-04-18 22:30:00,METAR LPPR 182230Z 00000KT CAVOK 14/12 Q1016
2026-04-18 22:00:00,METAR LPPR 182200Z 00000KT CAVOK 14/12 Q1016
2026-04-18 21:30:00,METAR LPPR 182130Z VRB01KT CAVOK 15/13 Q1016
2026-04-18 21:00:00,METAR LPPR 182100Z 00000KT CAVOK 15/13 Q1016
2026-04-18 20:30:00,METAR LPPR 182030Z 35002KT CAVOK 15/13 Q1016
2026-04-18 20:00:00,METAR LPPR 182000Z 00000KT CAVOK 16/13 Q1016
2026-04-18 19:30:00,METAR LPPR 181930Z 29003KT CAVOK 17/12 Q1015
2026-04-18 19:00:00,METAR LPPR 181900Z 29002KT CAVOK 19/11 Q1015
2026-04-18 18:30:00,METAR LPPR 181830Z 34005KT CAVOK 20/12 Q1015
2026-04-18 18:00:00,METAR LPPR 181800Z 34004KT 310V020 CAVOK 21/13 Q1016
2026-04-18 17:30:00,METAR LPPR 181730Z 32006KT CAVOK 20/13 Q1016
2026-04-18 17:00:00,METAR LPPR 181700Z 32005KT 290V350 CAVOK 22/12 Q1016
2026-04-18 16:30:00,METAR LPPR 181630Z 32006KT CAVOK 21/11 Q1016
2026-04-18 16:00:00,METAR LPPR 181600Z 32008KT CAVOK 21/12 Q1016
2026-04-18 15:00:00,METAR LPPR 181500Z 33007KT CAVOK 21/12 Q1016
2026-04-18 14:30:00,METAR LPPR 181430Z 31006KT 270V340 CAVOK 21/12 Q1017
2026-04-18 14:00:00,METAR LPPR 181400Z 30007KT 270V330 CAVOK 21/12 Q1017
2026-04-18 13:30:00,METAR LPPR 181330Z 31009KT 270V340 CAVOK 20/12 Q1017
2026-04-18 13:00:00,METAR LPPR 181300Z 31007KT CAVOK 20/12 Q1017
2026-04-18 12:30:00,METAR LPPR 181230Z 29006KT CAVOK 19/12 Q1017
2026-04-18 12:00:00,METAR LPPR 181200Z 29005KT 270V330 CAVOK 20/13 Q1017
2026-04-18 11:30:00,METAR LPPR 181130Z 28005KT 240V320 CAVOK 19/13 Q1017
2026-04-18 11:00:00,METAR LPPR 181100Z 29005KT 250V320 CAVOK 20/14 Q1017
2026-04-18 10:30:00,METAR LPPR 181030Z VRB02KT CAVOK 22/15 Q1017
2026-04-18 10:00:00,METAR LPPR 181000Z 00000KT CAVOK 21/13 Q1017
2026-04-18 09:30:00,METAR LPPR 180930Z 00000KT CAVOK 20/13 Q1017
2026-04-18 09:00:00,METAR LPPR 180900Z VRB02KT CAVOK 18/12 Q1017
2026-04-18 08:30:00,METAR LPPR 180830Z VRB02KT CAVOK 16/12 Q1018
2026-04-18 08:00:00,METAR LPPR 180800Z VRB03KT CAVOK 15/12 Q1018
2026-04-18 07:30:00,METAR LPPR 180730Z VRB02KT CAVOK 14/11 Q1018
2026-04-18 07:00:00,METAR LPPR 180700Z 06004KT 360V100 CAVOK 10/09 Q1017
2026-04-18 06:30:00,METAR LPPR 180630Z VRB02KT 9999 3100NW BCFG NSC 08/08 Q1017
2026-04-18 06:00:00,METAR LPPR 180600Z VRB02KT 9999 2900NW BCFG NSC 08/07 Q1017
2026-04-18 05:30:00,METAR LPPR 180530Z 10003KT 020V130 CAVOK 08/07 Q1017
2026-04-18 05:00:00,METAR LPPR 180500Z VRB02KT CAVOK 09/08 Q1017
2026-04-18 04:30:00,METAR LPPR 180430Z VRB03KT CAVOK 08/07 Q1017
2026-04-18 04:00:00,METAR LPPR 180400Z VRB02KT CAVOK 09/09 Q1017
2026-04-18 03:30:00,METAR LPPR 180330Z 00000KT CAVOK 08/08 Q1018
2026-04-18 03:00:00,METAR LPPR 180300Z 03003KT CAVOK 08/08 Q1018
2026-04-18 02:30:00,METAR LPPR 180230Z VRB01KT CAVOK 09/08 Q1018
2026-04-18 02:00:00,METAR LPPR 180200Z 00000KT CAVOK 09/09 Q1018
2026-04-18 01:30:00,METAR LPPR 180130Z 00000KT CAVOK 09/09 Q1018
2026-04-18 01:00:00,METAR LPPR 180100Z 00000KT CAVOK 09/09 Q1018
2026-04-18 00:30:00,METAR LPPR 180030Z 01002KT CAVOK 09/08 Q1018
2026-04-18 00:00:00,METAR LPPR 180000Z VRB01KT CAVOK 10/09 Q1018
2026-04-17 23:30:00,METAR LPPR 172330Z 08004KT CAVOK 10/09 Q1019
2026-04-17 23:00:00,METAR LPPR 172300Z 02003KT CAVOK 10/10 Q1019
2026-04-17 22:30:00,METAR LPPR 172230Z 27003KT 180V290 CAVOK 12/11 Q1019
2026-04-17 22:00:00,METAR LPPR 172200Z 05003KT 360V120 CAVOK 12/11 Q1019
2026-04-17 21:30:00,METAR LPPR 172130Z 35005KT 320V020 CAVOK 11/10 Q1019
2026-04-17 21:00:00,METAR LPPR 172100Z 33004KT CAVOK 12/11 Q1019
2026-04-17 20:30:00,METAR LPPR 172030Z 33004KT 310V020 CAVOK 12/11 Q1019
2026-04-17 20:00:00,METAR LPPR 172000Z 34004KT CAVOK 13/11 Q1019
2026-04-17 19:30:00,METAR LPPR 171930Z 33007KT CAVOK 13/11 Q1019
2026-04-17 19:00:00,METAR LPPR 171900Z 33007KT CAVOK 14/11 Q1019
2026-04-17 18:30:00,METAR LPPR 171830Z 33009KT CAVOK 15/11 Q1019
2026-04-17 18:00:00,METAR LPPR 171800Z 32009KT CAVOK 15/11 Q1019
2026-04-17 17:30:00,METAR LPPR 171730Z 31009KT CAVOK 16/11 Q1019
2026-04-17 17:00:00,METAR LPPR 171700Z 32010KT 290V350 CAVOK 16/11 Q1019
2026-04-17 16:30:00,METAR LPPR 171630Z 32011KT CAVOK 15/11 Q1019
2026-04-17 16:00:00,METAR LPPR 171600Z 32010KT CAVOK 16/11 Q1019
2026-04-17 15:30:00,METAR LPPR 171530Z 32010KT CAVOK 17/11 Q1019
2026-04-17 15:00:00,METAR LPPR 171500Z 32010KT CAVOK 17/10 Q1019
2026-04-17 14:30:00,METAR LPPR 171430Z 32009KT 290V350 CAVOK 17/11 Q1019
2026-04-17 14:00:00,METAR LPPR 171400Z 32009KT 290V350 CAVOK 17/11 Q1019
2026-04-17 13:30:00,METAR LPPR 171330Z 33011KT CAVOK 16/11 Q1019
2026-04-17 13:00:00,METAR LPPR 171300Z 30009KT 270V330 CAVOK 16/11 Q1019
2026-04-17 12:30:00,METAR LPPR 171230Z 28007KT CAVOK 16/11 Q1020
2026-04-17 12:00:00,METAR LPPR 171200Z 29006KT 270V330 9000 FEW025 17/11 Q1020
2026-04-17 11:30:00,METAR LPPR 171130Z 30006KT 270V350 9000 FEW015 17/12 Q1020
2026-04-17 11:00:00,METAR LPPR 171100Z 32005KT 270V020 8000 FEW012 17/13 Q1020
2026-04-17 10:30:00,METAR LPPR 171030Z 34005KT 290V030 9999 FEW009 SCT012 15/12 Q1020
2026-04-17 10:00:00,METAR LPPR 171000Z 02003KT 330V100 9999 SCT007 14/12 Q1020
2026-04-17 09:30:00,METAR LPPR 170930Z 01004KT 330V070 8000 FEW002 SCT006 13/12 Q1020
2026-04-17 09:00:00,METAR LPPR 170900Z 01003KT 310V060 5000 BR SCT001 BKN004 12/12 Q1020
2026-04-17 08:30:00,METAR LPPR 170830Z 10004KT 040V130 4000 BCFG SCT001 BKN004 12/11 Q1020
2026-04-17 08:00:00,METAR LPPR 170800Z 11004KT 040V120 3500 1500N BCFG SCT001 BKN003 11/11 Q1020
2026-04-17 07:30:00,METAR LPPR 170730Z 10004KT 060V130 4500 1500N PRFG SCT001 BKN003 10/10 Q1020
2026-04-17 07:00:00,METAR LPPR 170700Z 09003KT 060V130 5000 2400N BCFG SCT001 BKN003 10/09 Q1020
2026-04-17 06:30:00,METAR LPPR 170630Z 08003KT 010V160 0800 R17/1100 FG BKN001 09/09 Q1020
2026-04-17 06:00:00,METAR LPPR 170600Z 09003KT 030V130 0400 R17/1700D FG VV001 09/09 Q1020
2026-04-17 05:30:00,METAR LPPR 170530Z 10004KT 070V140 0900 0500N R17/2000U FG BKN001 10/09 Q1019
2026-04-17 05:00:00,METAR LPPR 170500Z 10004KT 060V130 0900 0500N R17/1300D FG BKN001 09/09 Q1019
2026-04-17 04:30:00,METAR LPPR 170430Z VRB02KT 9000 MIFG SCT002 09/08 Q1019
2026-04-17 04:00:00,METAR LPPR 170400Z 04002KT 5000 BR MIFG FEW002 09/09 Q1019
2026-04-17 03:30:00,METAR LPPR 170330Z 01003KT 3000 0500N BR BCFG FEW002 SCT005 09/09 Q1019
2026-04-17 03:00:00,METAR LPPR 170300Z 08003KT 7000 FEW002 SCT005 10/10 Q1019
2026-04-17 02:30:00,METAR LPPR 170230Z 11004KT 8000 FEW003 10/09 Q1020
2026-04-17 02:00:00,METAR LPPR 170200Z VRB02KT 8000 FEW007 10/10 Q1020
2026-04-17 01:30:00,METAR LPPR 170130Z 01003KT 330V030 7000 FEW009 11/10 Q1020
2026-04-17 01:00:00,METAR LPPR 170100Z 33003KT 7000 FEW006 11/10 Q1020
2026-04-17 00:30:00,METAR LPPR 170030Z 34003KT 9000 FEW006 11/10 Q1021
2026-04-17 00:00:00,METAR LPPR 170000Z 34004KT 9999 FEW010 11/10 Q1021
2026-04-16 23:30:00,METAR LPPR 162330Z 32005KT 9999 BKN010 11/11 Q1021
2026-04-16 23:00:00,METAR LPPR 162300Z VRB02KT 9000 BKN009 11/10 Q1021
2026-04-16 22:30:00,METAR LPPR 162230Z 35002KT 9999 FEW006 SCT010 11/10 Q1021
2026-04-16 22:00:00,METAR LPPR 162200Z VRB02KT 9999 FEW006 SCT009 12/11 Q1021
2026-04-16 21:30:00,METAR LPPR 162130Z 35003KT 8000 FEW005 11/11 Q1021
2026-04-16 21:00:00,METAR LPPR 162100Z 35004KT 8000 FEW011 12/11 Q1021
2026-04-16 20:30:00,METAR LPPR 162030Z 32005KT 9999 FEW011 12/11 Q1021
2026-04-16 20:00:00,METAR LPPR 162000Z 32005KT 9999 FEW011 13/11 Q1021
2026-04-16 19:30:00,METAR LPPR 161930Z 33006KT 9999 FEW011 13/11 Q1021
2026-04-16 19:00:00,METAR LPPR 161900Z 33007KT 9999 FEW011 14/12 Q1021
2026-04-16 18:30:00,METAR LPPR 161830Z 32007KT 9999 FEW011 14/11 Q1021
2026-04-16 18:00:00,METAR LPPR 161800Z 32009KT 9999 FEW013 14/12 Q1021
2026-04-16 17:30:00,METAR LPPR 161730Z 32008KT 290V350 9999 FEW013 15/12 Q1020
2026-04-16 17:00:00,METAR LPPR 161700Z 32008KT 9999 FEW013 15/12 Q1020
2026-04-16 16:30:00,METAR LPPR 161630Z 32008KT 290V350 9999 SCT013 15/12 Q1021
2026-04-16 16:00:00,METAR LPPR 161600Z 31009KT 9999 FEW015 16/12 Q1021
2026-04-16 15:30:00,METAR LPPR 161530Z 30007KT 270V340 9999 FEW015 16/13 Q1021
2026-04-16 15:00:00,METAR LPPR 161500Z 30008KT 270V340 9999 FEW015 16/12 Q1021
2026-04-16 14:30:00,METAR LPPR 161430Z 30007KT 260V340 9999 FEW015 16/12 Q1021
2026-04-16 14:00:00,METAR LPPR 161400Z 30007KT 270V330 9999 FEW015 17/12 Q1021
2026-04-16 13:30:00,METAR LPPR 161330Z 31007KT 240V340 9999 SCT015 16/12 Q1022
2026-04-16 13:00:00,METAR LPPR 161300Z 30007KT 250V340 9999 SCT015 17/12 Q1022
2026-04-16 12:30:00,METAR LPPR 161230Z 28006KT 230V320 9999 FEW010 SCT015 17/13 Q1022
2026-04-16 12:00:00,METAR LPPR 161200Z 29005KT 220V330 9999 SCT010 BKN015 16/12 Q1022
2026-04-16 11:30:00,METAR LPPR 161130Z 29006KT 240V320 9999 SCT010 SCT013 16/13 Q1022
2026-04-16 11:00:00,METAR LPPR 161100Z 28005KT 240V320 9999 FEW011 SCT024 16/13 Q1022
2026-04-16 10:30:00,METAR LPPR 161030Z VRB05KT 9999 FEW013 SCT024 16/13 Q1022
2026-04-16 10:00:00,METAR LPPR 161000Z 25006KT 220V310 8000 SCT015 SCT023 16/13 Q1022
2026-04-16 09:30:00,METAR LPPR 160930Z 24003KT 180V310 9999 SCT015 SCT023 16/11 Q1022
2026-04-16 09:00:00,METAR LPPR 160900Z 20003KT 130V260 9999 FEW009 BKN020 16/12 Q1022
2026-04-16 08:30:00,METAR LPPR 160830Z VRB03KT 9999 FEW009 BKN020 15/12 Q1022
2026-04-16 08:00:00,METAR LPPR 160800Z VRB02KT 9999 SCT020 SCT030 15/12 Q1022
2026-04-16 07:30:00,METAR LPPR 160730Z 11003KT 070V190 9999 FEW020 SCT030 14/12 Q1022
2026-04-16 07:00:00,METAR LPPR 160700Z 14004KT 9999 FEW022 SCT030 13/12 Q1022
2026-04-16 06:30:00,METAR LPPR 160630Z 19003KT 9999 FEW022 SCT029 12/11 Q1022
2026-04-16 06:00:00,METAR LPPR 160600Z 12003KT 060V180 9999 FEW022 SCT029 13/11 Q1022
2026-04-16 05:30:00,METAR LPPR 160530Z VRB02KT 9999 FEW019 BKN025 13/12 Q1022
2026-04-16 05:00:00,METAR LPPR 160500Z 15004KT 9999 FEW019 12/11 Q1022
2026-04-16 04:30:00,METAR LPPR 160430Z 12005KT 9999 FEW012 BKN024 13/12 Q1022
2026-04-16 04:00:00,METAR LPPR 160400Z 15003KT 9999 SCT012 BKN024 14/13 Q1022
2026-04-16 03:30:00,METAR LPPR 160330Z 09003KT 9999 SCT012 BKN026 14/13 Q1022
2026-04-16 03:00:00,METAR LPPR 160300Z 12003KT 9999 SCT012 BKN021 14/13 Q1022
2026-04-16 02:30:00,METAR LPPR 160230Z 05002KT 9999 FEW012 BKN021 14/13 Q1023
2026-04-16 02:00:00,METAR LPPR 160200Z 00000KT 9999 SCT012 OVC021 14/13 Q1023
2026-04-16 01:30:00,METAR LPPR 160130Z 07002KT 9999 FEW010 OVC018 14/13 Q1023
2026-04-16 01:00:00,METAR LPPR 160100Z 33003KT 9999 FEW007 BKN009 14/13 Q1023
2026-04-16 00:30:00,METAR LPPR 160030Z 34002KT 9999 OVC008 14/13 Q1023
2026-04-16 00:00:00,METAR LPPR 160000Z 00000KT 9999 OVC008 14/13 Q1024
2026-04-15 23:30:00,METAR LPPR 152330Z 08003KT 050V110 9999 BKN007 OVC038 14/13 Q1024
2026-04-15 23:00:00,METAR LPPR 152300Z 00000KT 9999 BKN007 BKN038 14/13 Q1024
2026-04-15 22:30:00,METAR LPPR 152230Z VRB02KT 9999 SCT008 14/13 Q1024
2026-04-15 22:00:00,METAR LPPR 152200Z VRB02KT 9999 BKN006 14/13 Q1024
2026-04-15 21:30:00,METAR LPPR 152130Z 34003KT 300V030 9999 BKN006 14/13 Q1024
2026-04-15 21:00:00,METAR LPPR 152100Z 02003KT 330V080 9999 BKN007 14/13 Q1024
2026-04-15 20:30:00,METAR LPPR 152030Z 35003KT 9999 FEW008 SCT012 13/12 Q1024
2026-04-15 20:00:00,METAR LPPR 152000Z VRB02KT 9999 FEW008 SCT036 14/12 Q1024
2026-04-15 19:30:00,METAR LPPR 151930Z 29003KT 9999 BKN036 14/13 Q1024
2026-04-15 19:00:00,METAR LPPR 151900Z 28003KT 9999 BKN036 15/13 Q1024
2026-04-15 18:30:00,METAR LPPR 151830Z 29004KT 270V330 9999 BKN036 15/13 Q1024
2026-04-15 18:00:00,METAR LPPR 151800Z 30005KT 9999 BKN036 15/12 Q1024
2026-04-15 17:30:00,METAR LPPR 151730Z 28005KT 260V330 9999 FEW015 BKN038 16/12 Q1024
2026-04-15 17:00:00,METAR LPPR 151700Z 30005KT 260V340 9999 FEW013 BKN038 16/12 Q1023
2026-04-15 16:30:00,METAR LPPR 151630Z VRB05KT 9999 FEW020 SCT040 16/12 Q1023
2026-04-15 16:00:00,METAR LPPR 151600Z 29006KT 250V320 9999 FEW015 16/12 Q1024
2026-04-15 15:30:00,METAR LPPR 151530Z 23008KT 9999 FEW015 16/12 Q1023
2026-04-15 15:00:00,METAR LPPR 151500Z 24006KT 210V290 9999 FEW028 SCT040 17/10 Q1024
2026-04-15 14:30:00,METAR LPPR 151430Z 25006KT 210V290 9999 FEW025 17/11 Q1024
2026-04-15 14:00:00,METAR LPPR 151400Z 24007KT 200V300 9999 FEW020 17/12 Q1024
2026-04-15 13:30:00,METAR LPPR 151330Z 22007KT 190V260 9999 FEW020 17/12 Q1024
2026-04-15 13:00:00,METAR LPPR 151300Z 23008KT 200V280 9999 FEW020 SCT040 17/12 Q1024
2026-04-15 12:30:00,METAR LPPR 151230Z 23007KT 200V280 9999 FEW021 SCT042 17/12 Q1024
2026-04-15 12:00:00,METAR LPPR 151200Z 24007KT 210V300 9999 FEW021 SCT042 17/12 Q1024
2026-04-15 11:30:00,METAR LPPR 151130Z 24006KT 210V300 9999 SCT021 17/11 Q1025
2026-04-15 11:00:00,METAR LPPR 151100Z 21007KT 170V260 9999 FEW018 SCT030 17/12 Q1024
2026-04-15 10:30:00,METAR LPPR 151030Z 23006KT 190V260 9999 FEW015 SCT020 17/12 Q1025
2026-04-15 10:00:00,METAR LPPR 151000Z 20005KT 150V250 9999 FEW010 BKN016 16/12 Q1024
2026-04-15 09:30:00,METAR LPPR 150930Z 18006KT 140V220 9999 SCT007 SCT012 BKN033 15/14 Q1024
2026-04-15 09:00:00,METAR LPPR 150900Z 17006KT 9000 SCT007 BKN020 14/13 Q1024
2026-04-15 08:30:00,METAR LPPR 150830Z 17005KT 8000 BKN005 BKN013 13/13 Q1024
2026-04-15 08:00:00,METAR LPPR 150800Z 17004KT 140V210 5000 BR BKN005 BKN010 13/12 Q1024
2026-04-15 07:30:00,METAR LPPR 150730Z 12004KT 060V150 2500 -DZ BR BKN005 BKN009 12/12 Q1024
2026-04-15 07:00:00,METAR LPPR 150700Z 14004KT 090V170 2300 -DZRA BR SCT003 BKN007 12/11 Q1024
2026-04-15 06:30:00,METAR LPPR 150630Z 15004KT 110V170 2400 -DZRA BR SCT003 BKN005 12/11 Q1023
2026-04-15 06:00:00,METAR LPPR 150600Z 13005KT 100V160 9999 FEW008 BKN020 OVC030 12/11 Q1023
2026-04-15 05:30:00,METAR LPPR 150530Z 13006KT 090V150 9999 FEW011 SCT020 BKN040 12/11 Q1023
2026-04-15 05:00:00,METAR LPPR 150500Z 12006KT 9999 SCT011 BKN035 12/11 Q1023
2026-04-15 04:30:00,METAR LPPR 150430Z 13007KT 9999 FEW010 SCT015 12/11 Q1023
2026-04-15 04:00:00,METAR LPPR 150400Z 13006KT 9999 FEW009 SCT015 BKN030 12/11 Q1023
2026-04-15 03:30:00,METAR LPPR 150330Z 13006KT 9999 FEW013 SCT022 BKN035 12/11 Q1023
2026-04-15 03:00:00,METAR LPPR 150300Z 14005KT 9999 BKN011 BKN020 12/12 Q1023
2026-04-15 02:30:00,METAR LPPR 150230Z 14004KT 9000 FEW002 SCT012 12/11 Q1023
2026-04-15 02:00:00,METAR LPPR 150200Z 11003KT 060V140 8000 FEW003 12/11 Q1023
2026-04-15 01:30:00,METAR LPPR 150130Z 13004KT 9999 FEW005 12/12 Q1023
2026-04-15 01:00:00,METAR LPPR 150100Z 16005KT 9000 FEW005 SCT009 11/11 Q1023
2026-04-15 00:30:00,METAR LPPR 150030Z 17003KT 9999 SCT004 SCT006 13/12 Q1024
2026-04-15 00:00:00,METAR LPPR 150000Z 16004KT 9000 SCT002 SCT004 13/12 Q1024
2026-04-14 23:30:00,METAR LPPR 142330Z 16004KT 8000 SCT003 SCT006 13/12 Q1024
2026-04-14 23:00:00,METAR LPPR 142300Z 19003KT 8000 SCT003 SCT006 13/12 Q1024
2026-04-14 22:30:00,METAR LPPR 142230Z 17005KT 9000 FEW003 SCT015 13/12 Q1024
2026-04-14 22:00:00,METAR LPPR 142200Z 19004KT 9999 FEW006 SCT016 13/13 Q1024
2026-04-14 21:30:00,METAR LPPR 142130Z 20003KT 9999 SCT006 SCT010 14/13 Q1024
2026-04-14 21:00:00,METAR LPPR 142100Z 23003KT 200V260 9999 SCT005 SCT012 14/13 Q1024
2026-04-14 20:30:00,METAR LPPR 142030Z VRB02KT 9000 SCT004 BKN005 BKN014 14/13 Q1024
2026-04-14 20:00:00,METAR LPPR 142000Z 23003KT 200V270 8000 BKN004 BKN008 14/13 Q1023
2026-04-14 19:30:00,METAR LPPR 141930Z 25004KT 220V280 8000 BKN004 15/13 Q1023
2026-04-14 19:00:00,METAR LPPR 141900Z 25004KT 210V290 9000 FEW004 BKN005 15/14 Q1023
2026-04-14 18:30:00,METAR LPPR 141830Z 23005KT 210V270 9999 FEW006 BKN010 15/13 Q1023
2026-04-14 18:00:00,METAR LPPR 141800Z 25004KT 200V290 9999 FEW008 BKN012 16/13 Q1023
2026-04-14 17:30:00,METAR LPPR 141730Z 24005KT 200V260 9999 SCT008 BKN012 16/13 Q1023
2026-04-14 17:00:00,METAR LPPR 141700Z 25006KT 210V310 9999 FEW009 SCT013 16/13 Q1023
2026-04-14 16:30:00,METAR LPPR 141630Z 24006KT 210V300 9999 FEW010 SCT013 17/13 Q1023
2026-04-14 16:00:00,METAR LPPR 141600Z 25006KT 210V280 9999 SCT010 17/13 Q1023
2026-04-14 15:30:00,METAR LPPR 141530Z 26006KT 190V320 9999 SCT010 17/13 Q1023
2026-04-14 15:00:00,METAR LPPR 141500Z 25006KT 210V310 9999 SCT010 17/13 Q1023
2026-04-14 14:30:00,METAR LPPR 141430Z 24007KT 220V290 9999 BKN010 17/14 Q1023
2026-04-14 14:00:00,METAR LPPR 141400Z 23006KT 190V270 9999 BKN010 17/14 Q1023
2026-04-14 13:30:00,METAR LPPR 141330Z 23007KT 200V280 9999 BKN010 17/14 Q1023
2026-04-14 13:00:00,METAR LPPR 141300Z 23007KT 200V270 9999 BKN008 16/14 Q1023
2026-04-14 12:30:00,METAR LPPR 141230Z 24007KT 9999 BKN007 16/14 Q1023
2026-04-14 12:00:00,METAR LPPR 141200Z 21007KT 9999 SCT006 BKN008 16/14 Q1023
2026-04-14 11:30:00,METAR LPPR 141130Z 23007KT 200V260 9000 BKN005 16/14 Q1024
2026-04-14 11:00:00,METAR LPPR 141100Z 22006KT 190V260 8000 OVC005 16/15 Q1023
2026-04-14 10:30:00,METAR LPPR 141030Z 22005KT 190V270 6000 OVC004 15/14 Q1023
2026-04-14 10:00:00,METAR LPPR 141000Z 20007KT 5000 BR OVC004 15/14 Q1023
2026-04-14 09:30:00,METAR LPPR 140930Z 22005KT 180V250 5000 BR OVC004 15/14 Q1023
2026-04-14 09:00:00,METAR LPPR 140900Z 19005KT 5000 BR OVC004 14/14 Q1023
2026-04-14 08:30:00,METAR LPPR 140830Z 20004KT 5000 BR OVC003 14/14 Q1023
2026-04-14 08:00:00,METAR LPPR 140800Z 21005KT 5000 -DZ BR OVC003 14/13 Q1022
2026-04-14 07:30:00,METAR LPPR 140730Z 19006KT 5000 -DZ BR OVC003 13/13 Q1022
2026-04-14 07:00:00,METAR LPPR 140700Z 20005KT 5000 -DZ BR OVC003 13/13 Q1022
2026-04-14 06:30:00,METAR LPPR 140630Z 21004KT 170V230 5000 BR OVC003 13/13 Q1022
2026-04-14 06:00:00,METAR LPPR 140600Z 20005KT 5000 -DZRA BR OVC004 13/13 Q1022 REDZ
2026-04-14 05:30:00,METAR LPPR 140530Z 19006KT 7000 -DZRA BKN004 BKN009 13/12 Q1021
2026-04-14 05:00:00,METAR LPPR 140500Z 18007KT 7000 -DZRA BKN004 BKN009 13/12 Q1021
2026-04-14 04:30:00,METAR LPPR 140430Z 18007KT 7000 -DZRA SCT003 BKN005 13/12 Q1021
2026-04-14 04:00:00,METAR LPPR 140400Z 18007KT 7000 -DZRA BKN003 BKN005 13/12 Q1021
2026-04-14 03:30:00,METAR LPPR 140330Z 19005KT 6000 -DZRA SCT003 BKN005 13/12 Q1021
2026-04-14 03:00:00,METAR LPPR 140300Z 17005KT 9999 SCT003 BKN005 13/12 Q1021
2026-04-14 02:30:00,METAR LPPR 140230Z 18006KT 9999 BKN003 12/12 Q1021
2026-04-14 02:00:00,METAR LPPR 140200Z 19006KT 9999 -DZRA OVC003 12/12 Q1021
2026-04-14 01:30:00,METAR LPPR 140130Z 20006KT 9000 -DZRA OVC003 12/12 Q1021
2026-04-14 01:00:00,METAR LPPR 140100Z 20005KT 170V230 9000 -DZRA OVC003 12/12 Q1021
2026-04-14 00:30:00,METAR LPPR 140030Z 19005KT 160V220 9999 -DZRA OVC003 12/12 Q1021
2026-04-14 00:00:00,METAR LPPR 140000Z 19007KT 5000 -DZRA BR OVC004 12/12 Q1021
2026-04-13 23:30:00,METAR LPPR 132330Z 18007KT 5000 -DZRA BR OVC004 12/12 Q1021
2026-04-13 23:00:00,METAR LPPR 132300Z 17008KT 9999 -DZRA OVC004 12/12 Q1021
2026-04-13 22:30:00,METAR LPPR 132230Z 16009KT 4500 -DZRA BR OVC004 12/11 Q1022
2026-04-13 22:00:00,METAR LPPR 132200Z 17008KT 4500 -DZRA BR OVC004 12/11 Q1021
2026-04-13 21:30:00,METAR LPPR 132130Z 19008KT 7000 -DZRA OVC004 12/11 Q1021
2026-04-13 21:00:00,METAR LPPR 132100Z 18008KT 3500 -RADZ BR OVC004 12/11 Q1021
2026-04-13 20:30:00,METAR LPPR 132030Z 18008KT 5000 -DZRA BR OVC004 12/11 Q1021
2026-04-13 20:00:00,METAR LPPR 132000Z 18008KT 4500 -RADZ BR OVC004 12/11 Q1021
2026-04-13 19:30:00,METAR LPPR 131930Z 19008KT 4500 -RADZ BR BKN004 BKN012 11/11 Q1021
2026-04-13 19:00:00,METAR LPPR 131900Z 19008KT 2800 -RADZ BR BKN004 BKN012 11/11 Q1021
2026-04-13 18:30:00,METAR LPPR 131830Z 22006KT 190V250 2400 -RADZ BR BKN004 BKN012 12/11 Q1021
2026-04-13 18:00:00,METAR LPPR 131800Z 23007KT 200V260 4100 -RADZ BR BKN004 BKN011 12/11 Q1020
2026-04-13 17:30:00,METAR LPPR 131730Z 24005KT 190V300 3800 -RADZ BR BKN004 BKN012 12/11 Q1021
2026-04-13 17:00:00,METAR LPPR 131700Z 24005KT 210V270 4800 -RADZ BR FEW006 BKN008 OVC015 12/11 Q1020
2026-04-13 16:30:00,METAR LPPR 131630Z 22007KT 180V260 3300 -DZRA BR BKN008 BKN020 13/11 Q1020
2026-04-13 16:00:00,METAR LPPR 131600Z 21007KT 9000 -RA SCT012 BKN038 13/11 Q1021
2026-04-13 15:30:00,METAR LPPR 131530Z 22006KT 190V250 9999 -SHRA SCT012 SCT027 BKN042 13/11 Q1021
2026-04-13 15:00:00,METAR LPPR 131500Z 22005KT 190V250 9999 SCT014 SCT030 BKN048 13/11 Q1021
2026-04-13 14:30:00,METAR LPPR 131430Z 23008KT 210V280 3900 -RADZ BR SCT010 BKN017 BKN040 13/10 Q1021
2026-04-13 14:00:00,METAR LPPR 131400Z 24007KT 210V270 9999 VCSH SCT017 BKN040 14/10 Q1021
2026-04-13 13:30:00,METAR LPPR 131330Z 24008KT 210V270 9999 VCSH SCT020 BKN045 15/09 Q1021
2026-04-13 13:00:00,METAR LPPR 131300Z 25006KT 180V310 9999 VCSH SCT018 SCT045 15/11 Q1021
2026-04-13 12:30:00,METAR LPPR 131230Z 26007KT 230V300 9999 SCT014 SCT030 15/11 Q1021
2026-04-13 12:00:00,METAR LPPR 131200Z 21007KT 170V270 9999 FEW009 SCT012 14/11 Q1021
2026-04-13 11:30:00,METAR LPPR 131130Z 22007KT 190V270 9999 SCT006 BKN018 13/11 Q1021
2026-04-13 11:00:00,METAR LPPR 131100Z 20006KT 170V230 9999 VCSH SCT008 BKN018 FEW020TCU 13/11 Q1021
2026-04-13 10:30:00,METAR LPPR 131030Z 19009KT 170V240 9000 -SHRA SCT009 BKN020 BKN032 12/11 Q1021
2026-04-13 10:00:00,METAR LPPR 131000Z 19007KT 9000 VCSH SCT007 BKN015 BKN030 12/11 Q1021
2026-04-13 09:30:00,METAR LPPR 130930Z 16005KT 140V200 9000 SCT006 BKN014 BKN035 12/10 Q1021
2026-04-13 09:00:00,METAR LPPR 130900Z COR 15005KT 6000 -SHRA SCT006 BKN015 BKN035 11/10 Q1021 RESHRA
2026-04-13 08:30:00,METAR LPPR 130830Z COR 18006KT 9999 VCSH FEW009 SCT015 BKN030 11/10 Q1020
2026-04-13 08:00:00,METAR LPPR 130800Z 16006KT 9000 -SHRA SCT015 SCT025 11/10 Q1020
2026-04-13 07:30:00,METAR LPPR 130730Z 13005KT 090V170 9999 VCSH SCT014 SCT020 10/09 Q1020
2026-04-13 07:00:00,METAR LPPR 130700Z 14006KT 090V160 9999 -SHRA FEW015 SCT024 10/09 Q1020
2026-04-13 06:30:00,METAR LPPR 130630Z 13005KT 9999 FEW009 SCT020 BKN026 09/08 Q1020
2026-04-13 06:00:00,METAR LPPR 130600Z 14005KT 9999 VCSH SCT009 BKN018 FEW025TCU 09/08 Q1020 RESHRA
2026-04-13 05:30:00,METAR LPPR 130530Z 17004KT 110V220 7000 SHRA SCT015 BKN020 FEW025TCU 10/08 Q1020
2026-04-13 05:00:00,METAR LPPR 130500Z 13005KT 9999 -SHRA FEW016 BKN019 FEW025TCU 09/07 Q1020
2026-04-13 04:30:00,METAR LPPR 130430Z 14004KT 9999 VCSH FEW022 FEW025TCU 09/07 Q1020
2026-04-13 04:00:00,METAR LPPR 130400Z 14005KT 9999 FEW044 09/07 Q1020
2026-04-13 03:30:00,METAR LPPR 130330Z 13005KT 060V140 9999 FEW017 10/07 Q1020
2026-04-13 03:00:00,METAR LPPR 130300Z 12003KT 9999 FEW017 10/07 Q1020
2026-04-13 02:30:00,METAR LPPR 130230Z VRB03KT 9999 SCT017 09/07 Q1020
2026-04-13 02:00:00,METAR LPPR 130200Z VRB02KT 9999 SCT020 08/07 Q1020
2026-04-13 01:30:00,METAR LPPR 130130Z VRB01KT 9999 FEW020 SCT035 09/07 Q1021
2026-04-13 01:00:00,METAR LPPR 130100Z 11004KT 080V140 9999 SCT020 BKN040 09/08 Q1021
2026-04-13 00:30:00,METAR LPPR 130030Z 11003KT 9999 SCT023 BKN035 09/07 Q1021
2026-04-13 00:00:00,METAR LPPR 130000Z VRB02KT 9999 SCT023 BKN031 08/07 Q1021
2026-04-12 23:30:00,METAR LPPR 122330Z VRB02KT 9999 FEW020 SCT035 08/06 Q1021
2026-04-12 23:00:00,METAR LPPR 122300Z 00000KT 9999 FEW020 09/07 Q1021
2026-04-12 22:30:00,METAR LPPR 122230Z 06003KT 020V100 9999 SCT022 09/07 Q1021
2026-04-12 22:00:00,METAR LPPR 122200Z 35003KT 320V050 9999 FEW022 09/07 Q1022
2026-04-12 21:30:00,METAR LPPR 122130Z 35006KT 9999 FEW022 09/07 Q1021
2026-04-12 21:00:00,METAR LPPR 122100Z 34005KT 320V030 9999 FEW020 BKN027 11/07 Q1022
2026-04-12 20:30:00,METAR LPPR 122030Z 33007KT 9999 FEW022 BKN045 11/07 Q1021
2026-04-12 20:00:00,METAR LPPR 122000Z 33009KT 9999 FEW025 11/06 Q1021
2026-04-12 19:30:00,METAR LPPR 121930Z 33011KT 9999 FEW025 11/06 Q1021
2026-04-12 19:00:00,METAR LPPR 121900Z 33013KT 9999 FEW025 11/06 Q1021
2026-04-12 18:30:00,METAR LPPR 121830Z 33012KT 9999 FEW025 SCT032 12/06 Q1021
2026-04-12 18:00:00,METAR LPPR 121800Z 33016KT 9999 SCT032 12/06 Q1020
2026-04-12 17:30:00,METAR LPPR 121730Z 33017KT 9999 FEW030 SCT035 13/06 Q1020
2026-04-12 17:00:00,METAR LPPR 121700Z 33017KT 9999 FEW030 13/05 Q1020
2026-04-12 16:30:00,METAR LPPR 121630Z 33017KT 300V360 9999 SCT030 14/05 Q1020
2026-04-12 16:00:00,METAR LPPR 121600Z 32017G27KT 9999 SCT030 13/05 Q1020
2026-04-12 15:00:00,METAR LPPR 121500Z 32020KT 9999 SCT030 13/05 Q1019
2026-04-12 14:30:00,METAR LPPR 121430Z 33019KT 9999 SCT030 14/06 Q1020
2026-04-12 14:00:00,METAR LPPR 121400Z 33018G29KT 9999 SCT030 14/07 Q1020
2026-04-12 13:30:00,METAR LPPR 121330Z 32017G27KT 9999 SCT030 13/07 Q1020
2026-04-12 13:00:00,METAR LPPR 121300Z 33015G25KT 290V360 9999 FEW030 SCT048 14/07 Q1020
2026-04-12 12:30:00,METAR LPPR 121230Z 33014KT 300V360 9999 FEW030 SCT048 14/07 Q1020
2026-04-12 12:00:00,METAR LPPR 121200Z 32016KT 290V350 9999 FEW030 SCT048 14/06 Q1020
2026-04-12 11:30:00,METAR LPPR 121130Z 33015KT 290V360 9999 FEW025 SCT030 13/06 Q1020
2026-04-12 11:00:00,METAR LPPR 121100Z 35011KT 310V020 9999 SCT025 SCT030 14/07 Q1021
2026-04-12 10:30:00,METAR LPPR 121030Z 32011KT 290V350 9999 SCT025 SCT032 13/06 Q1021
2026-04-12 10:00:00,METAR LPPR 121000Z 33011KT 9999 SCT025 SCT032 13/07 Q1021
2026-04-12 09:30:00,METAR LPPR 120930Z 03007KT 350V060 9999 FEW025 SCT032 12/06 Q1021
2026-04-12 09:00:00,METAR LPPR 120900Z 01008KT 9999 FEW032 11/04 Q1021
2026-04-12 08:30:00,METAR LPPR 120830Z 02007KT 340V060 9999 FEW034 SCT042 11/04 Q1020
2026-04-12 08:00:00,METAR LPPR 120800Z 05006KT 020V080 9999 FEW036 SCT043 10/03 Q1020
2026-04-12 07:30:00,METAR LPPR 120730Z 05006KT 020V080 9999 FEW045 09/03 Q1020
2026-04-12 07:00:00,METAR LPPR 120700Z 02003KT 350V050 9999 FEW045 08/03 Q1020
2026-04-12 06:30:00,METAR LPPR 120630Z 01005KT 320V050 CAVOK 06/01 Q1020
2026-04-12 06:00:00,METAR LPPR 120600Z 01005KT CAVOK 06/01 Q1019
2026-04-12 05:30:00,METAR LPPR 120530Z 01006KT 300V060 CAVOK 06/01 Q1019
2026-04-12 05:00:00,METAR LPPR 120500Z 01005KT CAVOK 05/01 Q1019
2026-04-12 04:30:00,METAR LPPR 120430Z 35006KT CAVOK 06/00 Q1019
2026-04-12 04:00:00,METAR LPPR 120400Z 36005KT CAVOK 06/00 Q1019
2026-04-12 03:30:00,METAR LPPR 120330Z 01004KT CAVOK 06/00 Q1019
2026-04-12 03:00:00,METAR LPPR 120300Z 35006KT CAVOK 06/M00 Q1019
2026-04-12 02:30:00,METAR LPPR 120230Z 36006KT CAVOK 06/00 Q1019
2026-04-12 02:00:00,METAR LPPR 120200Z 35010KT CAVOK 07/00 Q1019
2026-04-12 01:30:00,METAR LPPR 120130Z 34009KT CAVOK 07/01 Q1019
2026-04-12 01:00:00,METAR LPPR 120100Z 34012KT CAVOK 08/01 Q1019
2026-04-12 00:30:00,METAR LPPR 120030Z 35011KT CAVOK 08/01 Q1019
2026-04-12 00:00:00,METAR LPPR 120000Z 35010KT CAVOK 08/01 Q1019
2026-04-11 23:30:00,METAR LPPR 112330Z 35010KT CAVOK 09/01 Q1019
2026-04-11 23:00:00,METAR LPPR 112300Z 35012KT CAVOK 09/01 Q1020
2026-04-11 22:30:00,METAR LPPR 112230Z 34015KT CAVOK 09/01 Q1019
2026-04-11 22:00:00,METAR LPPR 112200Z 35013KT CAVOK 10/01 Q1019
2026-04-11 21:30:00,METAR LPPR 112130Z 34014KT CAVOK 10/02 Q1019
2026-04-11 21:00:00,METAR LPPR 112100Z 35014KT CAVOK 11/03 Q1019
2026-04-11 20:30:00,METAR LPPR 112030Z 35018KT CAVOK 11/04 Q1018
2026-04-11 20:00:00,METAR LPPR 112000Z 34020G30KT CAVOK 11/04 Q1018
2026-04-11 19:30:00,METAR LPPR 111930Z 34020G32KT CAVOK 11/05 Q1018
2026-04-11 19:00:00,METAR LPPR 111900Z 34023KT CAVOK 11/05 Q1017
2026-04-11 18:30:00,METAR LPPR 111830Z 34021G31KT CAVOK 12/06 Q1017
2026-04-11 18:00:00,METAR LPPR 111800Z 34022G33KT CAVOK 12/05 Q1017
2026-04-11 17:30:00,METAR LPPR 111730Z 34025G36KT CAVOK 13/06 Q1017
2026-04-11 17:00:00,METAR LPPR 111700Z 34026G36KT 9999 FEW015 13/05 Q1016
2026-04-11 16:30:00,METAR LPPR 111630Z 34021G36KT 9999 FEW048 13/06 Q1016
2026-04-11 16:00:00,METAR LPPR 111600Z 33021G34KT 9999 FEW048 14/07 Q1016
2026-04-11 15:30:00,METAR LPPR 111530Z 33018G29KT 9999 FEW048 14/07 Q1016
2026-04-11 15:00:00,METAR LPPR 111500Z 34021G32KT 9999 FEW048 15/08 Q1016
2026-04-11 14:30:00,METAR LPPR 111430Z 33017G27KT 9999 SCT048 15/07 Q1016
2026-04-11 14:00:00,METAR LPPR 111400Z 33018KT 9999 FEW045 15/08 Q1016
2026-04-11 13:30:00,METAR LPPR 111330Z 32017G27KT 9999 SCT040 15/07 Q1016
2026-04-11 13:00:00,METAR LPPR 111300Z 32017KT 9999 SCT032 15/08 Q1016
2026-04-11 12:30:00,METAR LPPR 111230Z 32016KT 9999 SCT028 15/08 Q1016
2026-04-11 12:00:00,METAR LPPR 111200Z 35016KT 9999 FEW025 15/08 Q1017
2026-04-11 11:30:00,METAR LPPR 111130Z 33014KT 9999 FEW028 13/08 Q1017
2026-04-11 11:00:00,METAR LPPR 111100Z 35018KT 9999 FEW025 15/09 Q1016
2026-04-11 10:30:00,METAR LPPR 111030Z 34016KT 9999 FEW020 14/09 Q1016
2026-04-11 10:00:00,METAR LPPR 111000Z 34016KT 9999 FEW018 SCT024 13/09 Q1016
2026-04-11 09:30:00,METAR LPPR 110930Z 35018KT 9999 FEW013 BKN022 13/09 Q1016
2026-04-11 09:00:00,METAR LPPR 110900Z 34018KT 9999 FEW013 BKN018 13/09 Q1016
2026-04-11 08:30:00,METAR LPPR 110830Z 34016KT 9999 FEW010 SCT022 12/10 Q1016
2026-04-11 08:00:00,METAR LPPR 110800Z 34016KT 9999 FEW010 BKN022 12/10 Q1016
2026-04-11 07:30:00,METAR LPPR 110730Z 34016KT 9999 SCT007 SCT016 BKN022 12/10 Q1016
2026-04-11 07:00:00,METAR LPPR 110700Z 33009KT 9999 SCT007 SCT011 BKN016 13/11 Q1015
2026-04-11 06:30:00,METAR LPPR 110630Z 34008KT 9999 FEW007 SCT017 BKN025 13/11 Q1015
2026-04-11 06:00:00,METAR LPPR 110600Z 34007KT 9999 FEW015 BKN025 12/10 Q1015
2026-04-11 05:30:00,METAR LPPR 110530Z 34010KT 9999 FEW013 12/10 Q1015
2026-04-11 05:00:00,METAR LPPR 110500Z 34008KT 9999 FEW013 12/11 Q1015
2026-04-11 04:30:00,METAR LPPR 110430Z 36007KT 330V040 9999 SCT015 12/11 Q1015
2026-04-11 04:00:00,METAR LPPR 110400Z 34013KT 9999 SCT012 BKN014 13/11 Q1014
2026-04-11 03:30:00,METAR LPPR 110330Z 34013G23KT 9999 SCT011 SCT014 13/11 Q1014
2026-04-11 03:00:00,METAR LPPR 110300Z 34015KT 9999 BKN011 13/11 Q1014
2026-04-11 02:30:00,METAR LPPR 110230Z 34013KT 9999 OVC011 13/11 Q1014
2026-04-11 02:00:00,METAR LPPR 110200Z 34009KT 9999 OVC011 13/11 Q1014
2026-04-11 01:30:00,METAR LPPR 110130Z 35010KT 9999 BKN011 13/11 Q1014
2026-04-11 01:00:00,METAR LPPR 110100Z 33011KT 9999 SCT010 13/11 Q1014
2026-04-11 00:30:00,METAR LPPR 110030Z 33010KT 9999 FEW008 SCT011 13/11 Q1014
2026-04-11 00:00:00,METAR LPPR 110000Z 32010KT 9999 BKN008 13/11 Q1014
2026-04-10 23:30:00,METAR LPPR 102330Z 31009KT 9000 OVC007 13/11 Q1015
2026-04-10 23:00:00,METAR LPPR 102300Z 31009KT 250V330 9000 OVC007 13/12 Q1015
2026-04-10 22:30:00,METAR LPPR 102230Z 30006KT 260V320 8000 OVC007 13/12 Q1015
2026-04-10 22:00:00,METAR LPPR 102200Z VRB03KT 8000 OVC006 13/12 Q1015
2026-04-10 21:30:00,METAR LPPR 102130Z 33010KT 8000 OVC005 13/12 Q1014
2026-04-10 21:00:00,METAR LPPR 102100Z 33011KT 9000 OVC006 14/13 Q1013
2026-04-10 20:30:00,METAR LPPR 102030Z 33009KT 290V350 9000 BKN006 14/12 Q1013
2026-04-10 20:00:00,METAR LPPR 102000Z 33008KT 9000 BKN006 14/13 Q1013
2026-04-10 19:30:00,METAR LPPR 101930Z 33006KT 8000 SCT006 14/13 Q1012
2026-04-10 19:00:00,METAR LPPR 101900Z 34009KT 8000 FEW006 14/13 Q1012
2026-04-10 18:30:00,METAR LPPR 101830Z 32008KT 8000 FEW007 15/13 Q1012
2026-04-10 18:00:00,METAR LPPR 101800Z 32007KT CAVOK 16/13 Q1012
2026-04-10 17:30:00,METAR LPPR 101730Z 32010KT CAVOK 16/14 Q1012
2026-04-10 17:00:00,METAR LPPR 101700Z 30009KT CAVOK 17/14 Q1012
2026-04-10 16:30:00,METAR LPPR 101630Z 33007KT 300V360 CAVOK 19/14 Q1012
2026-04-10 16:00:00,METAR LPPR 101600Z 32006KT 280V350 CAVOK 20/15 Q1012
2026-04-10 15:30:00,METAR LPPR 101530Z 31008KT CAVOK 19/14 Q1012
2026-04-10 15:00:00,METAR LPPR 101500Z 29006KT 260V320 CAVOK 21/15 Q1012
2026-04-10 14:30:00,METAR LPPR 101430Z 31005KT 270V350 CAVOK 23/15 Q1012
2026-04-10 14:00:00,METAR LPPR 101400Z 31006KT 280V350 CAVOK 21/15 Q1013
2026-04-10 13:30:00,METAR LPPR 101330Z 29005KT 260V320 CAVOK 24/14 Q1013
2026-04-10 13:00:00,METAR LPPR 101300Z 26006KT 240V300 CAVOK 25/14 Q1013
2026-04-10 12:30:00,METAR LPPR 101230Z VRB03KT CAVOK 28/11 Q1013
2026-04-10 12:00:00,METAR LPPR 101200Z 13005KT 090V170 CAVOK 28/13 Q1013
2026-04-10 11:30:00,METAR LPPR 101130Z VRB05KT CAVOK 27/11 Q1013
2026-04-10 11:00:00,METAR LPPR 101100Z 10007KT 070V140 CAVOK 26/10 Q1013
2026-04-10 10:30:00,METAR LPPR 101030Z 10009KT 070V130 CAVOK 26/11 Q1013
2026-04-10 10:00:00,METAR LPPR 101000Z 08006KT 030V150 CAVOK 25/12 Q1013
2026-04-10 09:30:00,METAR LPPR 100930Z 06006KT CAVOK 24/11 Q1013
2026-04-10 09:00:00,METAR LPPR 100900Z 03007KT 350V060 CAVOK 22/11 Q1013
2026-04-10 08:30:00,METAR LPPR 100830Z 01006KT 280V060 CAVOK 20/12 Q1014
2026-04-10 08:00:00,METAR LPPR 100800Z VRB05KT CAVOK 19/14 Q1014
2026-04-10 07:30:00,METAR LPPR 100730Z 05006KT CAVOK 19/10 Q1014
2026-04-10 07:00:00,METAR LPPR 100700Z 05005KT 020V090 CAVOK 18/10 Q1014
2026-04-10 06:30:00,METAR LPPR 100630Z 02005KT 320V130 CAVOK 17/10 Q1013
2026-04-10 06:00:00,METAR LPPR 100600Z 03006KT 010V070 CAVOK 16/10 Q1013
2026-04-10 05:30:00,METAR LPPR 100530Z 06005KT 360V150 CAVOK 14/11 Q1013
2026-04-10 05:00:00,METAR LPPR 100500Z VRB02KT CAVOK 14/11 Q1013
2026-04-10 04:30:00,METAR LPPR 100430Z 03004KT 320V050 CAVOK 14/11 Q1013
2026-04-10 04:00:00,METAR LPPR 100400Z VRB01KT CAVOK 15/11 Q1013
2026-04-10 03:30:00,METAR LPPR 100330Z VRB01KT CAVOK 19/11 Q1014
2026-04-10 03:00:00,METAR LPPR 100300Z VRB01KT CAVOK 19/11 Q1014
2026-04-10 02:30:00,METAR LPPR 100230Z 35003KT 310V020 CAVOK 18/12 Q1014
2026-04-10 02:00:00,METAR LPPR 100200Z 03006KT CAVOK 15/12 Q1014
2026-04-10 01:30:00,METAR LPPR 100130Z 01004KT CAVOK 14/13 Q1015
2026-04-10 01:00:00,METAR LPPR 100100Z VRB02KT CAVOK 15/13 Q1015
2026-04-10 00:30:00,METAR LPPR 100030Z 00000KT CAVOK 16/14 Q1015
2026-04-10 00:00:00,METAR LPPR 100000Z VRB02KT CAVOK 16/13 Q1015
2026-04-09 23:30:00,METAR LPPR 092330Z 01004KT CAVOK 17/13 Q1016
2026-04-09 23:00:00,METAR LPPR 092300Z VRB01KT CAVOK 18/14 Q1016
2026-04-09 22:30:00,METAR LPPR 092230Z 09007KT CAVOK 23/12 Q1015
2026-04-09 22:00:00,METAR LPPR 092200Z 07009KT CAVOK 23/13 Q1015
2026-04-09 21:30:00,METAR LPPR 092130Z 06009KT CAVOK 23/14 Q1015
2026-04-09 21:00:00,METAR LPPR 092100Z 05008KT 020V080 CAVOK 24/14 Q1015
2026-04-09 20:30:00,METAR LPPR 092030Z 03007KT CAVOK 21/15 Q1015
2026-04-09 20:00:00,METAR LPPR 092000Z 02005KT 9000 NSC 19/16 Q1015
2026-04-09 19:30:00,METAR LPPR 091930Z 02004KT 350V050 CAVOK 21/17 Q1014
2026-04-09 19:00:00,METAR LPPR 091900Z 35004KT 310V050 CAVOK 21/17 Q1014
2026-04-09 18:30:00,METAR LPPR 091830Z 34004KT 310V020 CAVOK 23/18 Q1014
2026-04-09 18:00:00,METAR LPPR 091800Z 34005KT 320V020 CAVOK 24/18 Q1014
2026-04-09 17:30:00,METAR LPPR 091730Z 01006KT CAVOK 25/18 Q1014
2026-04-09 17:00:00,METAR LPPR 091700Z 36008KT CAVOK 24/18 Q1014
2026-04-09 16:30:00,METAR LPPR 091630Z 36008KT 330V030 CAVOK 23/17 Q1014
2026-04-09 16:00:00,METAR LPPR 091600Z 34010KT 9000 FEW009 21/16 Q1015
2026-04-09 15:30:00,METAR LPPR 091530Z 34012KT 8000 FEW009 19/15 Q1015
2026-04-09 15:00:00,METAR LPPR 091500Z 32015KT 8000 FEW009 17/14 Q1016
2026-04-09 14:30:00,METAR LPPR 091430Z 29006KT 9000 NSC 20/16 Q1016
2026-04-09 14:00:00,METAR LPPR 091400Z 34007KT 290V010 CAVOK 20/15 Q1017
2026-04-09 13:30:00,METAR LPPR 091330Z 33009KT CAVOK 19/15 Q1017
2026-04-09 13:00:00,METAR LPPR 091300Z 30008KT 270V360 CAVOK 19/14 Q1017
2026-04-09 12:30:00,METAR LPPR 091230Z 33008KT 300V360 CAVOK 20/14 Q1018
2026-04-09 12:00:00,METAR LPPR 091200Z 34010KT 300V360 CAVOK 19/15 Q1018
2026-04-09 11:30:00,METAR LPPR 091130Z 32009KT CAVOK 17/13 Q1019
2026-04-09 11:00:00,METAR LPPR 091100Z 31007KT 280V340 CAVOK 18/14 Q1019
2026-04-09 10:30:00,METAR LPPR 091030Z 32007KT CAVOK 17/13 Q1019
2026-04-09 10:00:00,METAR LPPR 091000Z 31008KT 9000 NSC 16/13 Q1019
2026-04-09 09:30:00,METAR LPPR 090930Z VRB03KT CAVOK 17/12 Q1019
2026-04-09 09:00:00,METAR LPPR 090900Z 09004KT 050V130 CAVOK 16/12 Q1020
2026-04-09 08:30:00,METAR LPPR 090830Z VRB03KT CAVOK 15/12 Q1020
2026-04-09 08:00:00,METAR LPPR 090800Z 11005KT 070V160 CAVOK 13/11 Q1020
2026-04-09 07:30:00,METAR LPPR 090730Z 03003KT 320V090 CAVOK 12/11 Q1020
2026-04-09 07:00:00,METAR LPPR 090700Z 05004KT 350V090 CAVOK 11/10 Q1020
2026-04-09 06:30:00,METAR LPPR 090630Z 06006KT 360V110 9999 FEW030 11/10 Q1019
2026-04-09 06:00:00,METAR LPPR 090600Z 07005KT 040V130 9000 FEW040 11/10 Q1019
2026-04-09 05:30:00,METAR LPPR 090530Z 11004KT 010V180 8000 NSC 11/11 Q1019
2026-04-09 05:00:00,METAR LPPR 090500Z 36003KT 5000 BR NSC 11/10 Q1019
2026-04-09 04:30:00,METAR LPPR 090430Z 04004KT 010V070 5000 BR FEW004 11/10 Q1019
2026-04-09 04:00:00,METAR LPPR 090400Z 11003KT 080V140 5000 BR FEW004 10/10 Q1020
2026-04-09 03:30:00,METAR LPPR 090330Z 11003KT 080V140 6000 FEW004 10/10 Q1020
2026-04-09 03:00:00,METAR LPPR 090300Z VRB02KT 6000 NSC 10/09 Q1020
2026-04-09 02:30:00,METAR LPPR 090230Z 02004KT 6000 FEW004 10/09 Q1020
2026-04-09 02:00:00,METAR LPPR 090200Z 06003KT 7000 FEW049 09/09 Q1021
2026-04-09 01:30:00,METAR LPPR 090130Z VRB02KT 9000 FEW049 11/10 Q1021
2026-04-09 01:00:00,METAR LPPR 090100Z 00000KT 9999 FEW049 11/10 Q1021
2026-04-09 00:30:00,METAR LPPR 090030Z 12003KT 9000 NSC 11/10 Q1021
2026-04-09 00:00:00,METAR LPPR 090000Z VRB02KT 7000 NSC 11/10 Q1021
2026-04-08 23:30:00,METAR LPPR 082330Z 00000KT 7000 NSC 12/11 Q1021
2026-04-08 23:00:00,METAR LPPR 082300Z 35003KT 7000 NSC 12/11 Q1021
2026-04-08 22:30:00,METAR LPPR 082230Z 01004KT 8000 NSC 13/12 Q1021
2026-04-08 22:00:00,METAR LPPR 082200Z 01004KT 7000 NSC 13/12 Q1021
2026-04-08 21:30:00,METAR LPPR 082130Z 35003KT 7000 NSC 13/12 Q1021
2026-04-08 21:00:00,METAR LPPR 082100Z 32003KT 7000 NSC 13/12 Q1021
2026-04-08 20:30:00,METAR LPPR 082030Z 02003KT 340V100 8000 NSC 13/12 Q1021
2026-04-08 20:00:00,METAR LPPR 082000Z 00000KT 9000 NSC 13/12 Q1021
2026-04-08 19:30:00,METAR LPPR 081930Z VRB01KT 9000 NSC 14/12 Q1020
2026-04-08 19:00:00,METAR LPPR 081900Z VRB02KT 8000 FEW049 14/12 Q1020
2026-04-08 18:30:00,METAR LPPR 081830Z 33004KT 6000 FEW048 14/12 Q1020
2026-04-08 18:00:00,METAR LPPR 081800Z 32005KT 6000 FEW048 14/12 Q1020
2026-04-08 17:30:00,METAR LPPR 081730Z 34004KT 320V030 9000 FEW048 14/12 Q1019
2026-04-08 17:00:00,METAR LPPR 081700Z VRB02KT 9000 VCSH FEW015 SCT048 14/11 Q1019
2026-04-08 16:30:00,METAR LPPR 081630Z 26004KT 230V300 9000 VCSH FEW015 SCT048 15/11 Q1019
2026-04-08 16:00:00,METAR LPPR 081600Z 35004KT 320V060 9999 FEW048 14/11 Q1019
2026-04-08 15:30:00,METAR LPPR 081530Z 35004KT 310V030 9999 FEW048 14/11 Q1019
2026-04-08 15:00:00,METAR LPPR 081500Z 36007KT 9999 SCT048 14/11 Q1019
2026-04-08 14:30:00,METAR LPPR 081430Z 01003KT 340V060 9999 FEW020 SCT048 14/10 Q1019
2026-04-08 14:00:00,METAR LPPR 081400Z VRB02KT 9999 FEW020 14/10 Q1019
2026-04-08 13:30:00,METAR LPPR 081330Z 02004KT 330V050 9999 FEW040 14/11 Q1019
2026-04-08 13:00:00,METAR LPPR 081300Z 35006KT 9999 FEW030 SCT040 13/10 Q1019
2026-04-08 12:30:00,METAR LPPR 081230Z 30004KT 260V330 9999 -SHRA SCT030 SCT038 13/10 Q1019
2026-04-08 12:00:00,METAR LPPR 081200Z 01004KT 340V060 9999 -SHRA FEW020 SCT030 BKN038 13/10 Q1019
2026-04-08 11:30:00,METAR LPPR 081130Z 36004KT 340V070 9000 -SHRA FEW020 SCT025 BKN035 13/10 Q1019
2026-04-08 11:00:00,METAR LPPR 081100Z 35006KT 320V040 8000 -SHRA FEW020CB SCT025 BKN035 12/10 Q1019
2026-04-08 10:30:00,METAR LPPR 081030Z 36004KT 310V030 9000 -SHRA FEW020TCU SCT030 BKN038 13/10 Q1019
2026-04-08 10:00:00,METAR LPPR 081000Z 01007KT 9999 -SHRA FEW020TCU FEW030 SCT038 13/10 Q1018
2026-04-08 09:30:00,METAR LPPR 080930Z 01006KT 9999 -SHRA FEW020TCU SCT040 13/09 Q1018
2026-04-08 09:00:00,METAR LPPR 080900Z 02005KT 320V070 9999 SCT045 13/09 Q1018
2026-04-08 08:30:00,METAR LPPR 080830Z 01006KT 340V040 9999 SCT045 12/10 Q1018
2026-04-08 08:00:00,METAR LPPR 080800Z 02005KT 340V090 9999 SCT042 12/09 Q1018
2026-04-08 07:30:00,METAR LPPR 080730Z 03005KT 330V060 9999 FEW042 11/09 Q1018
2026-04-08 07:00:00,METAR LPPR 080700Z 04004KT 010V080 9999 FEW040 10/09 Q1017
2026-04-08 06:30:00,METAR LPPR 080630Z 03004KT 320V080 9999 FEW040 09/08 Q1017
2026-04-08 06:00:00,METAR LPPR 080600Z 04003KT 350V090 9999 FEW040 10/08 Q1016
2026-04-08 05:30:00,METAR LPPR 080530Z VRB02KT 9999 FEW046 10/09 Q1016
2026-04-08 05:00:00,METAR LPPR 080500Z VRB02KT 9999 SCT046 10/09 Q1016
2026-04-08 04:30:00,METAR LPPR 080430Z 00000KT 9999 BKN046 11/09 Q1016
2026-04-08 04:00:00,METAR LPPR 080400Z 11003KT 9999 BKN048 11/09 Q1016
2026-04-08 03:30:00,METAR LPPR 080330Z 00000KT 9999 BKN048 11/09 Q1016
2026-04-08 03:00:00,METAR LPPR 080300Z 09005KT 9999 FEW040 11/09 Q1015
2026-04-08 02:30:00,METAR LPPR 080230Z 12003KT 9999 FEW040 11/09 Q1016
2026-04-08 02:00:00,METAR LPPR 080200Z 10005KT 9999 FEW040 10/09 Q1016
2026-04-08 01:30:00,METAR LPPR 080130Z 11006KT 9999 FEW040 11/09 Q1016
2026-04-08 01:00:00,METAR LPPR 080100Z 12005KT 9999 FEW040 10/09 Q1015
2026-04-08 00:30:00,METAR LPPR 080030Z 10005KT 9999 FEW040 10/08 Q1015
2026-04-08 00:00:00,METAR LPPR 080000Z 11003KT 9999 FEW040 11/09 Q1015
2026-04-07 23:30:00,METAR LPPR 072330Z 07003KT 020V100 9999 FEW040 11/09 Q1015
2026-04-07 23:00:00,METAR LPPR 072300Z 10005KT 9999 FEW021 12/09 Q1015
2026-04-07 22:30:00,METAR LPPR 072230Z 09004KT 050V130 9999 FEW021 12/08 Q1015
2026-04-07 22:00:00,METAR LPPR 072200Z 08005KT 030V120 9999 FEW021 12/08 Q1015
2026-04-07 21:30:00,METAR LPPR 072130Z 11006KT 9999 FEW021 12/08 Q1015
2026-04-07 21:00:00,METAR LPPR 072100Z 15008KT 120V180 9999 FEW021 12/08 Q1014
2026-04-07 20:30:00,METAR LPPR 072030Z 12006KT 9999 FEW021 12/08 Q1014
2026-04-07 20:00:00,METAR LPPR 072000Z 14008KT 9999 -SHRA FEW021 12/08 Q1014
2026-04-07 19:30:00,METAR LPPR 071930Z 13009KT 9999 FEW021 12/08 Q1013
2026-04-07 19:00:00,METAR LPPR 071900Z 12007KT 9999 FEW021 12/08 Q1013
2026-04-07 18:30:00,METAR LPPR 071830Z 13008KT 9999 FEW021 FEW025TCU 13/09 Q1013
2026-04-07 18:00:00,METAR LPPR 071800Z 15008KT 9999 VCSH FEW021 FEW025TCU 13/10 Q1013
2026-04-07 17:30:00,METAR LPPR 071730Z 16011KT 9999 -RA FEW019 13/10 Q1013
2026-04-07 17:00:00,METAR LPPR 071700Z 19012G22KT 9999 VCSH SCT016 13/09 Q1013
2026-04-07 16:30:00,METAR LPPR 071630Z 19013KT 9999 SCT015 BKN027 13/11 Q1012
2026-04-07 16:00:00,METAR LPPR 071600Z 18013KT 9000 -SHRA FEW015 SCT025 BKN040 13/11 Q1012
2026-04-07 15:30:00,METAR LPPR 071530Z 19011KT 9999 SCT020 SCT027 BKN045 14/09 Q1012
2026-04-07 15:00:00,METAR LPPR 071500Z 18012KT 9999 -SHRA FEW020 FEW025TCU BKN049 14/10 Q1012
2026-04-07 14:30:00,METAR LPPR 071430Z 19011KT 9999 VCSH FEW019 BKN045 14/11 Q1012
2026-04-07 14:00:00,METAR LPPR 071400Z 17011KT 9999 FEW017 BKN042 14/10 Q1012
2026-04-07 13:30:00,METAR LPPR 071330Z 19012KT 9999 SCT017 BKN042 14/11 Q1012
2026-04-07 13:00:00,METAR LPPR 071300Z 20011KT 9999 FEW009 SCT014 BKN040 15/10 Q1012
2026-04-07 12:30:00,METAR LPPR 071230Z 19011KT 9999 SCT006 BKN014 14/13 Q1011
2026-04-07 12:00:00,METAR LPPR 071200Z 20011KT 9999 BKN006 14/13 Q1011
2026-04-07 11:30:00,METAR LPPR 071130Z 21009KT 9999 -SHRA BKN004 FEW020CB 14/13 Q1011 RESHRA
2026-04-07 11:00:00,METAR LPPR 071100Z 23007KT 200V270 6000 SHRA BKN004 SCT020CB 14/13 Q1010 RETSRA
2026-04-07 10:30:00,METAR LPPR 071030Z 22010KT 9999 -SHRA SCT008 FEW020CB BKN033 15/13 Q1010
2026-04-07 10:00:00,METAR LPPR 071000Z 18012KT 9999 VCSH FEW020 BKN036 19/13 Q1009
2026-04-07 09:30:00,METAR LPPR 070930Z 18007KT 9999 FEW022 BKN040 17/14 Q1009
2026-04-07 09:00:00,METAR LPPR 070900Z 20007KT 160V230 9999 VCSH FEW022 FEW025CB BKN045 17/14 Q1009
2026-04-07 08:30:00,METAR LPPR 070830Z 19008KT 9999 -RA FEW022 FEW025CB BKN045 16/14 Q1008
2026-04-07 08:00:00,METAR LPPR 070800Z 16009KT 9999 -SHRA FEW022 FEW025CB BKN044 17/13 Q1009
2026-04-07 07:30:00,METAR LPPR 070730Z 14012KT 9999 VCSH FEW022 FEW025CB 18/12 Q1008
2026-04-07 07:00:00,METAR LPPR 070700Z 15010KT 9999 VCSH FEW022 FEW025TCU 18/12 Q1008
2026-04-07 06:30:00,METAR LPPR 070630Z 13007KT 090V150 9999 -RA FEW022 18/12 Q1008
2026-04-07 06:00:00,METAR LPPR 070600Z 13006KT 070V150 9999 FEW020 FEW027TCU 18/13 Q1008
2026-04-07 05:30:00,METAR LPPR 070530Z 12005KT 070V160 9999 -RA FEW025 FEW027TCU SCT049 18/13 Q1009 RESHRA
2026-04-07 05:00:00,METAR LPPR 070500Z 13003KT 9999 -RA FEW020 FEW025CB SCT032 16/13 Q1009 RESHRA
2026-04-07 04:30:00,METAR LPPR 070430Z 10008KT 9999 -RA FEW030CB 17/13 Q1008
2026-04-07 04:00:00,METAR LPPR 070400Z 12007KT CAVOK 17/13 Q1009
2026-04-07 03:30:00,METAR LPPR 070330Z 11007KT CAVOK 17/13 Q1009
2026-04-07 03:00:00,METAR LPPR 070300Z 11007KT CAVOK 17/13 Q1010
2026-04-07 02:30:00,METAR LPPR 070230Z 14006KT CAVOK 17/13 Q1010
2026-04-07 02:00:00,METAR LPPR 070200Z 13007KT CAVOK 16/13 Q1011
2026-04-07 01:30:00,METAR LPPR 070130Z 12008KT CAVOK 17/13 Q1011
2026-04-07 01:00:00,METAR LPPR 070100Z 12009KT 9999 SCT049 17/14 Q1011
2026-04-07 00:30:00,METAR LPPR 070030Z 13009KT 9999 -RA SCT035 16/14 Q1012
2026-04-07 00:00:00,METAR LPPR 070000Z 13011KT 9999 -RA SCT049 16/14 Q1012
2026-04-06 23:30:00,METAR LPPR 062330Z 14011KT 9999 -RA FEW014 BKN049 16/14 Q1013
2026-04-06 23:00:00,METAR LPPR 062300Z 16014KT 9999 -RA FEW014 SCT025 BKN035 16/14 Q1013
2026-04-06 22:30:00,METAR LPPR 062230Z 17015KT 9999 -RA SCT012 BKN024 BKN030 16/14 Q1014
2026-04-06 22:00:00,METAR LPPR 062200Z 16013KT 9999 -RA SCT027 BKN035 16/14 Q1014
2026-04-06 21:30:00,METAR LPPR 062130Z 16013KT 9999 -RA SCT025 FEW030CB BKN037 16/14 Q1014
2026-04-06 21:00:00,METAR LPPR 062100Z 17015KT 9999 -RA SCT022 FEW030CB BKN037 16/15 Q1014
2026-04-06 20:30:00,METAR LPPR 062030Z 17014KT 9999 -RA FEW030CB BKN047 16/15 Q1014
2026-04-06 20:00:00,METAR LPPR 062000Z 17016KT 9999 -RA FEW007 FEW030CB BKN047 16/15 Q1014
2026-04-06 19:30:00,METAR LPPR 061930Z 18015KT 9999 -SHRA SCT008 FEW030CB SCT035 BKN045 16/15 Q1015
2026-04-06 19:00:00,METAR LPPR 061900Z 20016G26KT 5000 -SHRA SCT030CB BKN040 16/14 Q1015 RESHRA
2026-04-06 18:30:00,METAR LPPR 061830Z 18012KT 9999 -SHRA FEW030CB SCT035 19/13 Q1014
2026-04-06 18:00:00,METAR LPPR 061800Z 16012KT 9999 -SHRA SCT048 19/14 Q1014
2026-04-06 17:30:00,METAR LPPR 061730Z 16010KT 9999 -SHRA FEW038 20/13 Q1013
2026-04-06 17:00:00,METAR LPPR 061700Z 17013KT 9999 FEW038 20/14 Q1014
2026-04-06 16:30:00,METAR LPPR 061630Z 19017G29KT 160V220 9999 -SHRA FEW030TCU 21/11 Q1014
2026-04-06 16:00:00,METAR LPPR 061600Z 20011KT 9999 VCSH FEW037 23/10 Q1013
2026-04-06 15:30:00,METAR LPPR 061530Z 20014KT 9999 -RA FEW037 24/09 Q1013
2026-04-06 15:00:00,METAR LPPR 061500Z 19013KT CAVOK 26/07 Q1013
2026-04-06 14:30:00,METAR LPPR 061430Z 19011KT CAVOK 25/08 Q1013
2026-04-06 14:00:00,METAR LPPR 061400Z 19013KT CAVOK 25/09 Q1013
2026-04-06 13:30:00,METAR LPPR 061330Z 20013KT CAVOK 25/07 Q1014
2026-04-06 13:00:00,METAR LPPR 061300Z 20014KT CAVOK 26/06 Q1014
2026-04-06 12:30:00,METAR LPPR 061230Z 18014KT CAVOK 26/07 Q1014
2026-04-06 12:00:00,METAR LPPR 061200Z 19014KT CAVOK 27/07 Q1014
2026-04-06 11:30:00,METAR LPPR 061130Z 15012KT 120V180 CAVOK 27/10 Q1015
2026-04-06 11:00:00,METAR LPPR 061100Z 12009KT 090V150 CAVOK 26/09 Q1015
2026-04-06 10:30:00,METAR LPPR 061030Z 15006KT 110V170 CAVOK 25/09 Q1015
2026-04-06 10:00:00,METAR LPPR 061000Z 20006KT 170V230 CAVOK 23/11 Q1016
2026-04-06 09:30:00,METAR LPPR 060930Z 17007KT 130V220 CAVOK 24/09 Q1016
2026-04-06 09:00:00,METAR LPPR 060900Z 13006KT CAVOK 22/10 Q1016
2026-04-06 08:30:00,METAR LPPR 060830Z 13007KT CAVOK 21/10 Q1016
2026-04-06 08:00:00,METAR LPPR 060800Z 12011KT CAVOK 19/09 Q1016
2026-04-06 07:30:00,METAR LPPR 060730Z 12011KT CAVOK 18/09 Q1016
2026-04-06 07:00:00,METAR LPPR 060700Z 12009KT CAVOK 18/09 Q1016
2026-04-06 06:30:00,METAR LPPR 060630Z 12011KT 080V140 CAVOK 17/09 Q1015
2026-04-06 06:00:00,METAR LPPR 060600Z 12011KT CAVOK 18/09 Q1015
2026-04-06 05:30:00,METAR LPPR 060530Z 11010KT CAVOK 19/09 Q1015
2026-04-06 05:00:00,METAR LPPR 060500Z 11010KT CAVOK 18/09 Q1015
2026-04-06 04:30:00,METAR LPPR 060430Z 11011KT CAVOK 18/09 Q1016
2026-04-06 04:00:00,METAR LPPR 060400Z 11011KT CAVOK 18/09 Q1016
2026-04-06 03:30:00,METAR LPPR 060330Z 11010KT CAVOK 17/09 Q1016
2026-04-06 03:00:00,METAR LPPR 060300Z 11010KT CAVOK 17/09 Q1016
2026-04-06 02:30:00,METAR LPPR 060230Z 11010KT CAVOK 17/09 Q1017
2026-04-06 02:00:00,METAR LPPR 060200Z 11007KT CAVOK 15/09 Q1017
2026-04-06 01:30:00,METAR LPPR 060130Z 08005KT CAVOK 16/08 Q1017
2026-04-06 01:00:00,METAR LPPR 060100Z 07005KT CAVOK 15/08 Q1018
2026-04-06 00:30:00,METAR LPPR 060030Z 07004KT CAVOK 16/07 Q1018
2026-04-06 00:00:00,METAR LPPR 060000Z 00000KT CAVOK 17/07 Q1018
2026-04-05 23:30:00,METAR LPPR 052330Z 06003KT CAVOK 17/07 Q1019
2026-04-05 23:00:00,METAR LPPR 052300Z VRB02KT CAVOK 14/08 Q1019
2026-04-05 22:30:00,METAR LPPR 052230Z 00000KT CAVOK 14/08 Q1019
2026-04-05 22:00:00,METAR LPPR 052200Z 00000KT CAVOK 14/07 Q1019
2026-04-05 21:30:00,METAR LPPR 052130Z VRB02KT CAVOK 14/07 Q1019
2026-04-05 21:00:00,METAR LPPR 052100Z 02002KT CAVOK 14/08 Q1019
2026-04-05 20:30:00,METAR LPPR 052030Z 01003KT CAVOK 15/07 Q1019
2026-04-05 20:00:00,METAR LPPR 052000Z 36004KT 330V030 CAVOK 16/07 Q1019
2026-04-05 19:30:00,METAR LPPR 051930Z 35005KT CAVOK 17/05 Q1019
2026-04-05 19:00:00,METAR LPPR 051900Z 35005KT CAVOK 18/04 Q1019
2026-04-05 18:30:00,METAR LPPR 051830Z 35006KT CAVOK 19/06 Q1019
2026-04-05 18:00:00,METAR LPPR 051800Z 35007KT 330V040 CAVOK 20/05 Q1019
2026-04-05 17:30:00,METAR LPPR 051730Z 32005KT 300V360 CAVOK 21/09 Q1019
2026-04-05 17:00:00,METAR LPPR 051700Z 31006KT 9999 FEW030 21/07 Q1019
2026-04-05 16:30:00,METAR LPPR 051630Z 31007KT 9999 FEW030 22/07 Q1020
2026-04-05 16:00:00,METAR LPPR 051600Z 32007KT 9999 FEW030 21/07 Q1020
2026-04-05 15:00:00,METAR LPPR 051500Z 32007KT CAVOK 22/08 Q1020
2026-04-05 13:00:00,METAR LPPR 051300Z 28005KT CAVOK 21/11 Q1022
2026-04-05 12:30:00,METAR LPPR 051230Z 28004KT 250V320 CAVOK 21/12 Q1022
2026-04-05 12:00:00,METAR LPPR 051200Z 29004KT 260V330 CAVOK 19/12 Q1022
2026-04-05 11:30:00,METAR LPPR 051130Z 28005KT 250V310 CAVOK 19/12 Q1022
2026-04-05 11:00:00,METAR LPPR 051100Z 28004KT 250V310 CAVOK 19/12 Q1022
2026-04-05 10:30:00,METAR LPPR 051030Z 29004KT 260V320 CAVOK 18/12 Q1022
2026-04-05 10:00:00,METAR LPPR 051000Z 30003KT 250V320 CAVOK 18/12 Q1022
2026-04-05 09:30:00,METAR LPPR 050930Z VRB01KT CAVOK 17/10 Q1022
2026-04-05 09:00:00,METAR LPPR 050900Z 00000KT CAVOK 16/10 Q1022
2026-04-05 08:30:00,METAR LPPR 050830Z VRB02KT CAVOK 15/10 Q1022
2026-04-05 08:00:00,METAR LPPR 050800Z 36004KT CAVOK 11/10 Q1022
2026-04-05 07:30:00,METAR LPPR 050730Z 35001KT 8000 NSC 09/08 Q1022
2026-04-05 07:00:00,METAR LPPR 050700Z 00000KT CAVOK 08/08 Q1022
2026-04-05 06:30:00,METAR LPPR 050630Z VRB02KT 7000 NSC 07/06 Q1022
2026-04-05 06:00:00,METAR LPPR 050600Z VRB01KT CAVOK 08/07 Q1021
2026-04-05 05:30:00,METAR LPPR 050530Z 09003KT 020V190 CAVOK 08/08 Q1021
2026-04-05 05:00:00,METAR LPPR 050500Z 00000KT 9999 FEW004 09/08 Q1021
2026-04-05 04:30:00,METAR LPPR 050430Z 00000KT 9999 MIFG NSC 08/08 Q1021
2026-04-05 04:00:00,METAR LPPR 050400Z 00000KT 9999 MIFG FEW002 09/08 Q1021
2026-04-05 03:30:00,METAR LPPR 050330Z 00000KT 5000 MIFG BR FEW004 09/08 Q1021
2026-04-05 03:00:00,METAR LPPR 050300Z 00000KT 9000 MIFG FEW003 08/08 Q1021
2026-04-05 02:30:00,METAR LPPR 050230Z 00000KT 9000 FEW003 10/09 Q1021
2026-04-05 02:00:00,METAR LPPR 050200Z 00000KT 9000 FEW005 10/09 Q1022
2026-04-05 01:30:00,METAR LPPR 050130Z 00000KT 9000 SCT005 11/10 Q1022
2026-04-05 01:00:00,METAR LPPR 050100Z 00000KT 8000 FEW006 10/09 Q1022
2026-04-05 00:30:00,METAR LPPR 050030Z 36003KT 8000 FEW006 10/10 Q1022
2026-04-05 00:00:00,METAR LPPR 050000Z 36003KT 7000 FEW005 10/10 Q1023
2026-04-04 23:30:00,METAR LPPR 042330Z 36003KT CAVOK 11/10 Q1023
2026-04-04 23:00:00,METAR LPPR 042300Z 34003KT CAVOK 11/10 Q1023
2026-04-04 22:30:00,METAR LPPR 042230Z 35005KT CAVOK 11/11 Q1022
2026-04-04 22:00:00,METAR LPPR 042200Z 35005KT CAVOK 11/10 Q1022
2026-04-04 21:30:00,METAR LPPR 042130Z 34005KT CAVOK 12/11 Q1022
2026-04-04 21:00:00,METAR LPPR 042100Z 34005KT 9000 NSC 12/11 Q1022
2026-04-04 20:30:00,METAR LPPR 042030Z 35006KT 9000 NSC 12/11 Q1022
2026-04-04 20:00:00,METAR LPPR 042000Z 32005KT 9000 NSC 13/12 Q1022
2026-04-04 19:30:00,METAR LPPR 041930Z 33006KT 300V360 CAVOK 13/12 Q1022
2026-04-04 19:00:00,METAR LPPR 041900Z 29003KT CAVOK 15/12 Q1021
2026-04-04 18:30:00,METAR LPPR 041830Z VRB01KT CAVOK 17/12 Q1021
2026-04-04 18:00:00,METAR LPPR 041800Z VRB02KT CAVOK 18/12 Q1021
2026-04-04 17:30:00,METAR LPPR 041730Z 31006KT CAVOK 18/11 Q1021
2026-04-04 17:00:00,METAR LPPR 041700Z 31008KT CAVOK 19/08 Q1021
2026-04-04 16:30:00,METAR LPPR 041630Z 30005KT 250V330 CAVOK 21/07 Q1021
2026-04-04 16:00:00,METAR LPPR 041600Z 29005KT 260V320 CAVOK 22/06 Q1021
2026-04-04 15:30:00,METAR LPPR 041530Z 28003KT 220V340 CAVOK 22/07 Q1021
2026-04-04 15:00:00,METAR LPPR 041500Z 29005KT CAVOK 20/11 Q1022
2026-04-04 14:30:00,METAR LPPR 041430Z 29006KT 260V320 CAVOK 20/11 Q1022
2026-04-04 14:00:00,METAR LPPR 041400Z 28005KT 240V320 CAVOK 20/10 Q1022
2026-04-04 13:30:00,METAR LPPR 041330Z 28005KT 240V320 CAVOK 21/11 Q1022
2026-04-04 13:00:00,METAR LPPR 041300Z 29006KT 260V320 CAVOK 20/11 Q1022
2026-04-04 12:30:00,METAR LPPR 041230Z 27005KT CAVOK 22/11 Q1022
2026-04-04 12:00:00,METAR LPPR 041200Z 26005KT 220V290 CAVOK 22/11 Q1022
2026-04-04 11:30:00,METAR LPPR 041130Z 21005KT 160V250 CAVOK 23/13 Q1022
2026-04-04 11:00:00,METAR LPPR 041100Z 27004KT 200V310 CAVOK 22/13 Q1022
2026-04-04 10:30:00,METAR LPPR 041030Z 18004KT 130V250 CAVOK 22/10 Q1023
2026-04-04 10:00:00,METAR LPPR 041000Z 18004KT 150V210 CAVOK 21/10 Q1023
2026-04-04 09:30:00,METAR LPPR 040930Z 20003KT 160V240 CAVOK 19/09 Q1023
2026-04-04 09:00:00,METAR LPPR 040900Z VRB02KT CAVOK 17/08 Q1023
2026-04-04 08:30:00,METAR LPPR 040830Z 25004KT CAVOK 16/09 Q1023
2026-04-04 08:00:00,METAR LPPR 040800Z 21003KT 180V240 CAVOK 16/10 Q1023
2026-04-04 07:30:00,METAR LPPR 040730Z VRB02KT CAVOK 12/08 Q1022
2026-04-04 07:00:00,METAR LPPR 040700Z 00000KT CAVOK 11/07 Q1022
2026-04-04 06:30:00,METAR LPPR 040630Z VRB02KT CAVOK 09/06 Q1022
2026-04-04 06:00:00,METAR LPPR 040600Z 00000KT CAVOK 09/06 Q1022
2026-04-04 05:30:00,METAR LPPR 040530Z VRB02KT CAVOK 10/06 Q1022
2026-04-04 05:00:00,METAR LPPR 040500Z 20003KT CAVOK 10/06 Q1021
2026-04-04 04:30:00,METAR LPPR 040430Z 13004KT 100V170 CAVOK 14/05 Q1021
2026-04-04 04:00:00,METAR LPPR 040400Z 10006KT 060V120 CAVOK 09/06 Q1021
2026-04-04 03:30:00,METAR LPPR 040330Z VRB01KT CAVOK 09/07 Q1021
2026-04-04 03:00:00,METAR LPPR 040300Z 12003KT CAVOK 10/07 Q1022
2026-04-04 02:30:00,METAR LPPR 040230Z VRB02KT CAVOK 09/07 Q1022
2026-04-04 02:00:00,METAR LPPR 040200Z 00000KT CAVOK 09/08 Q1022
2026-04-04 01:30:00,METAR LPPR 040130Z 00000KT CAVOK 09/08 Q1022
2026-04-04 01:00:00,METAR LPPR 040100Z VRB01KT CAVOK 10/08 Q1022
2026-04-04 00:30:00,METAR LPPR 040030Z 00000KT CAVOK 10/09 Q1023
2026-04-04 00:00:00,METAR LPPR 040000Z 04002KT CAVOK 09/08 Q1023
2026-04-03 23:30:00,METAR LPPR 032330Z VRB02KT CAVOK 10/09 Q1023
2026-04-03 23:00:00,METAR LPPR 032300Z 00000KT CAVOK 11/09 Q1023
2026-04-03 22:30:00,METAR LPPR 032230Z 00000KT CAVOK 11/09 Q1023
2026-04-03 22:00:00,METAR LPPR 032200Z 21003KT CAVOK 11/09 Q1023
2026-04-03 21:30:00,METAR LPPR 032130Z VRB01KT CAVOK 11/09 Q1023
2026-04-03 21:00:00,METAR LPPR 032100Z 00000KT CAVOK 12/10 Q1023
2026-04-03 20:30:00,METAR LPPR 032030Z 34003KT CAVOK 12/10 Q1023
2026-04-03 20:00:00,METAR LPPR 032000Z VRB02KT CAVOK 12/10 Q1023
2026-04-03 19:30:00,METAR LPPR 031930Z 32005KT 300V360 CAVOK 13/11 Q1023
2026-04-03 19:00:00,METAR LPPR 031900Z 31006KT CAVOK 14/11 Q1023
2026-04-03 18:30:00,METAR LPPR 031830Z 30004KT 270V330 CAVOK 15/11 Q1023
2026-04-03 18:00:00,METAR LPPR 031800Z 31006KT CAVOK 16/11 Q1022
2026-04-03 17:30:00,METAR LPPR 031730Z 31006KT 280V340 CAVOK 17/11 Q1022
2026-04-03 17:00:00,METAR LPPR 031700Z 31007KT CAVOK 17/11 Q1022
2026-04-03 16:30:00,METAR LPPR 031630Z 31008KT CAVOK 17/11 Q1022
2026-04-03 16:00:00,METAR LPPR 031600Z 31009KT CAVOK 17/09 Q1023
2026-04-03 15:30:00,METAR LPPR 031530Z 31008KT CAVOK 18/10 Q1023
2026-04-03 15:00:00,METAR LPPR 031500Z 31008KT 280V340 CAVOK 18/10 Q1023
2026-04-03 14:30:00,METAR LPPR 031430Z 30007KT 270V330 CAVOK 18/09 Q1023
2026-04-03 14:00:00,METAR LPPR 031400Z 32007KT 280V340 CAVOK 19/08 Q1023
2026-04-03 13:30:00,METAR LPPR 031330Z 31006KT 270V340 CAVOK 20/07 Q1024
2026-04-03 13:00:00,METAR LPPR 031300Z 31007KT 280V340 CAVOK 19/07 Q1024
2026-04-03 12:30:00,METAR LPPR 031230Z 30006KT 260V330 CAVOK 19/07 Q1024
2026-04-03 12:00:00,METAR LPPR 031200Z 30006KT 270V330 CAVOK 18/08 Q1024
2026-04-03 11:30:00,METAR LPPR 031130Z 29006KT CAVOK 19/10 Q1024
2026-04-03 11:00:00,METAR LPPR 031100Z 30005KT 270V330 CAVOK 20/09 Q1024
2026-04-03 10:30:00,METAR LPPR 031030Z VRB01KT CAVOK 20/07 Q1024
2026-04-03 10:00:00,METAR LPPR 031000Z 03003KT 330V070 CAVOK 18/07 Q1024
2026-04-03 09:30:00,METAR LPPR 030930Z 05005KT 360V080 CAVOK 17/07 Q1024
2026-04-03 09:00:00,METAR LPPR 030900Z 02004KT 340V070 CAVOK 15/06 Q1024
2026-04-03 08:30:00,METAR LPPR 030830Z 02003KT 340V080 CAVOK 13/07 Q1024
2026-04-03 08:00:00,METAR LPPR 030800Z 01003KT 300V110 CAVOK 11/07 Q1024
2026-04-03 07:30:00,METAR LPPR 030730Z 35003KT CAVOK 09/06 Q1023
2026-04-03 07:00:00,METAR LPPR 030700Z VRB02KT CAVOK 08/05 Q1023
2026-04-03 06:30:00,METAR LPPR 030630Z VRB02KT CAVOK 07/04 Q1023
2026-04-03 06:00:00,METAR LPPR 030600Z 10004KT 060V140 CAVOK 09/05 Q1022
2026-04-03 05:30:00,METAR LPPR 030530Z 08004KT 040V130 CAVOK 11/04 Q1022
2026-04-03 05:00:00,METAR LPPR 030500Z 12002KT CAVOK 09/06 Q1022
2026-04-03 04:30:00,METAR LPPR 030430Z VRB02KT CAVOK 07/05 Q1022
2026-04-03 04:00:00,METAR LPPR 030400Z 01003KT CAVOK 07/05 Q1022
2026-04-03 03:30:00,METAR LPPR 030330Z 05003KT 360V100 CAVOK 08/06 Q1022
2026-04-03 03:00:00,METAR LPPR 030300Z 00000KT CAVOK 09/06 Q1022
2026-04-03 02:30:00,METAR LPPR 030230Z 00000KT CAVOK 09/06 Q1022
2026-04-03 02:00:00,METAR LPPR 030200Z 08003KT CAVOK 09/07 Q1022
2026-04-03 01:30:00,METAR LPPR 030130Z 03003KT CAVOK 09/07 Q1022
2026-04-03 01:00:00,METAR LPPR 030100Z 03005KT 360V060 CAVOK 10/07 Q1022
2026-04-03 00:30:00,METAR LPPR 030030Z 34005KT 310V040 CAVOK 11/08 Q1022
2026-04-03 00:00:00,METAR LPPR 030000Z 00000KT CAVOK 11/08 Q1022
2026-04-02 23:30:00,METAR LPPR 022330Z 00000KT CAVOK 11/08 Q1022
2026-04-02 23:00:00,METAR LPPR 022300Z 33003KT 290V030 CAVOK 12/09 Q1022
2026-04-02 22:30:00,METAR LPPR 022230Z 03003KT 310V110 CAVOK 12/08 Q1022
2026-04-02 22:00:00,METAR LPPR 022200Z VRB02KT CAVOK 12/09 Q1022
2026-04-02 21:30:00,METAR LPPR 022130Z VRB01KT CAVOK 13/10 Q1022
2026-04-02 21:00:00,METAR LPPR 022100Z 03003KT 350V060 CAVOK 12/09 Q1022
2026-04-02 20:30:00,METAR LPPR 022030Z 01004KT 340V060 CAVOK 13/09 Q1022
2026-04-02 20:00:00,METAR LPPR 022000Z 35004KT CAVOK 14/10 Q1021
2026-04-02 19:30:00,METAR LPPR 021930Z 34007KT CAVOK 15/10 Q1021
2026-04-02 19:00:00,METAR LPPR 021900Z 35008KT CAVOK 16/10 Q1021
2026-04-02 18:30:00,METAR LPPR 021830Z 34008KT 310V010 CAVOK 17/10 Q1021
2026-04-02 18:00:00,METAR LPPR 021800Z 34009KT CAVOK 18/10 Q1021
2026-04-02 17:30:00,METAR LPPR 021730Z 33010KT CAVOK 18/10 Q1021
2026-04-02 17:00:00,METAR LPPR 021700Z 34010KT CAVOK 19/10 Q1021
2026-04-02 16:30:00,METAR LPPR 021630Z 34012KT CAVOK 19/10 Q1021
2026-04-02 16:00:00,METAR LPPR 021600Z 35015KT CAVOK 19/10 Q1021
2026-04-02 15:30:00,METAR LPPR 021530Z 33013KT CAVOK 19/10 Q1021
2026-04-02 15:00:00,METAR LPPR 021500Z 34014KT CAVOK 19/10 Q1021
2026-04-02 14:30:00,METAR LPPR 021430Z 32010KT CAVOK 18/11 Q1022
2026-04-02 14:00:00,METAR LPPR 021400Z 33010KT 280V360 CAVOK 19/11 Q1022
2026-04-02 13:30:00,METAR LPPR 021330Z 32010KT CAVOK 17/11 Q1022
2026-04-02 13:00:00,METAR LPPR 021300Z 32012KT CAVOK 18/11 Q1022
2026-04-02 12:30:00,METAR LPPR 021230Z 32011KT CAVOK 17/10 Q1022
2026-04-02 12:00:00,METAR LPPR 021200Z 32011KT CAVOK 17/10 Q1023
2026-04-02 11:30:00,METAR LPPR 021130Z 31008KT CAVOK 17/10 Q1023
2026-04-02 11:00:00,METAR LPPR 021100Z 30007KT 260V350 CAVOK 18/09 Q1023
2026-04-02 10:30:00,METAR LPPR 021030Z 34008KT 310V020 CAVOK 18/07 Q1023
2026-04-02 10:00:00,METAR LPPR 021000Z 35007KT 300V010 CAVOK 16/07 Q1023
2026-04-02 09:30:00,METAR LPPR 020930Z 35008KT CAVOK 15/06 Q1023
2026-04-02 09:00:00,METAR LPPR 020900Z 36007KT CAVOK 14/07 Q1023
2026-04-02 08:30:00,METAR LPPR 020830Z 01004KT 310V080 CAVOK 14/06 Q1022
2026-04-02 08:00:00,METAR LPPR 020800Z 06004KT 020V130 CAVOK 12/07 Q1022
2026-04-02 07:30:00,METAR LPPR 020730Z 03005KT 330V060 CAVOK 10/05 Q1022
2026-04-02 07:00:00,METAR LPPR 020700Z 04006KT CAVOK 09/05 Q1022
2026-04-02 06:30:00,METAR LPPR 020630Z 04004KT 010V090 CAVOK 09/05 Q1022
2026-04-02 06:00:00,METAR LPPR 020600Z 34004KT CAVOK 07/06 Q1022
2026-04-02 05:30:00,METAR LPPR 020530Z 01004KT 330V060 CAVOK 07/06 Q1021
2026-04-02 05:00:00,METAR LPPR 020500Z 00000KT CAVOK 07/06 Q1021
2026-04-02 04:30:00,METAR LPPR 020430Z VRB02KT CAVOK 09/08 Q1021
2026-04-02 04:00:00,METAR LPPR 020400Z 36003KT 330V030 CAVOK 06/05 Q1022
2026-04-02 03:30:00,METAR LPPR 020330Z VRB02KT CAVOK 07/06 Q1021
2026-04-02 03:00:00,METAR LPPR 020300Z 00000KT CAVOK 09/08 Q1021
2026-04-02 02:30:00,METAR LPPR 020230Z VRB01KT CAVOK 08/08 Q1021
2026-04-02 02:00:00,METAR LPPR 020200Z 15003KT CAVOK 09/08 Q1022
2026-04-02 01:30:00,METAR LPPR 020130Z 00000KT CAVOK 08/07 Q1022
2026-04-02 01:00:00,METAR LPPR 020100Z 00000KT CAVOK 09/09 Q1022
2026-04-02 00:30:00,METAR LPPR 020030Z 06003KT CAVOK 10/09 Q1022
2026-04-02 00:00:00,METAR LPPR 020000Z VRB02KT CAVOK 10/09 Q1022
2026-04-01 23:30:00,METAR LPPR 012330Z 02003KT 350V080 CAVOK 10/09 Q1022
2026-04-01 23:00:00,METAR LPPR 012300Z 00000KT CAVOK 10/09 Q1022
2026-04-01 22:30:00,METAR LPPR 012230Z VRB02KT CAVOK 12/10 Q1022
2026-04-01 22:00:00,METAR LPPR 012200Z 14003KT 110V200 CAVOK 12/10 Q1022
2026-04-01 21:30:00,METAR LPPR 012130Z 14004KT CAVOK 12/10 Q1022
2026-04-01 21:00:00,METAR LPPR 012100Z VRB02KT CAVOK 14/11 Q1022
2026-04-01 20:30:00,METAR LPPR 012030Z 09003KT 060V180 CAVOK 14/11 Q1022
2026-04-01 20:00:00,METAR LPPR 012000Z 34002KT CAVOK 13/11 Q1022
2026-04-01 19:30:00,METAR LPPR 011930Z 32004KT 280V360 CAVOK 14/11 Q1022
2026-04-01 19:00:00,METAR LPPR 011900Z 31006KT 280V340 CAVOK 15/11 Q1022
2026-04-01 18:30:00,METAR LPPR 011830Z 32005KT CAVOK 15/11 Q1022
2026-04-01 18:00:00,METAR LPPR 011800Z 32006KT 290V350 CAVOK 15/11 Q1023
2026-04-01 17:30:00,METAR LPPR 011730Z 33007KT CAVOK 16/10 Q1023
2026-04-01 17:00:00,METAR LPPR 011700Z 33008KT 300V360 CAVOK 17/10 Q1023
2026-04-01 16:30:00,METAR LPPR 011630Z 32010KT CAVOK 17/10 Q1023
2026-04-01 16:00:00,METAR LPPR 011600Z 33013KT CAVOK 18/08 Q1023
2026-04-01 15:30:00,METAR LPPR 011530Z 33013KT CAVOK 18/07 Q1023
2026-04-01 15:00:00,METAR LPPR 011500Z 33015KT CAVOK 18/07 Q1024
2026-04-01 14:00:00,METAR LPPR 011400Z 32011KT 300V360 CAVOK 20/09 Q1024
2026-04-01 13:30:00,METAR LPPR 011330Z 32011KT CAVOK 20/08 Q1024
2026-04-01 13:00:00,METAR LPPR 011300Z 31011KT 280V340 CAVOK 19/08 Q1024
2026-04-01 12:30:00,METAR LPPR 011230Z 34009KT 290V050 CAVOK 20/08 Q1025
2026-04-01 12:00:00,METAR LPPR 011200Z 01008KT 320V050 CAVOK 21/05 Q1025
2026-04-01 11:30:00,METAR LPPR 011130Z 01005KT 340V080 CAVOK 21/06 Q1026
2026-04-01 11:00:00,METAR LPPR 011100Z VRB04KT CAVOK 21/07 Q1026
2026-04-01 10:30:00,METAR LPPR 011030Z 05005G18KT 330V120 CAVOK 20/06 Q1026
2026-04-01 10:00:00,METAR LPPR 011000Z 09009KT 050V120 CAVOK 19/06 Q1026
2026-04-01 09:30:00,METAR LPPR 010930Z 09008KT 030V130 CAVOK 18/05 Q1026
2026-04-01 09:00:00,METAR LPPR 010900Z VRB07KT CAVOK 17/06 Q1026
2026-04-01 08:30:00,METAR LPPR 010830Z 08009KT CAVOK 16/05 Q1026
2026-04-01 08:00:00,METAR LPPR 010800Z 08006KT 300V100 CAVOK 15/04 Q1026
2026-04-01 07:30:00,METAR LPPR 010730Z 06006KT 030V090 CAVOK 15/05 Q1026
2026-04-01 07:00:00,METAR LPPR 010700Z 06004KT 010V100 CAVOK 14/04 Q1026
2026-04-01 06:30:00,METAR LPPR 010630Z 09006KT 050V130 CAVOK 14/04 Q1026
2026-04-01 06:00:00,METAR LPPR 010600Z 11007KT 080V160 CAVOK 14/04 Q1025
2026-04-01 05:30:00,METAR LPPR 010530Z 08007KT 040V110 CAVOK 15/04 Q1025
2026-04-01 05:00:00,METAR LPPR 010500Z 09008KT 060V130 CAVOK 15/03 Q1025
2026-04-01 04:30:00,METAR LPPR 010430Z 10010KT CAVOK 15/03 Q1025
2026-04-01 04:00:00,METAR LPPR 010400Z 09013KT CAVOK 16/04 Q1024
2026-04-01 03:30:00,METAR LPPR 010330Z 09012KT 070V130 CAVOK 16/04 Q1024
2026-04-01 03:00:00,METAR LPPR 010300Z 10009KT CAVOK 16/05 Q1025
2026-04-01 02:30:00,METAR LPPR 010230Z 09011KT CAVOK 16/05 Q1025
2026-04-01 02:00:00,METAR LPPR 010200Z 10010KT 070V130 CAVOK 17/05 Q1025
2026-04-01 01:30:00,METAR LPPR 010130Z 11007KT CAVOK 18/06 Q1025
2026-04-01 01:00:00,METAR LPPR 010100Z 11009KT CAVOK 18/07 Q1025
2026-04-01 00:30:00,METAR LPPR 010030Z 11007KT CAVOK 18/07 Q1025
2026-04-01 00:00:00,METAR LPPR 010000Z 11007KT CAVOK 19/08 Q1025
2026-03-31 23:30:00,METAR LPPR 312330Z 11010KT CAVOK 19/08 Q1025
2026-03-31 23:00:00,METAR LPPR 312300Z 10007KT CAVOK 19/09 Q1025
2026-03-31 22:30:00,METAR LPPR 312230Z 08006KT CAVOK 17/09 Q1025
2026-03-31 22:00:00,METAR LPPR 312200Z VRB02KT CAVOK 16/09 Q1024
2026-03-31 21:30:00,METAR LPPR 312130Z VRB02KT CAVOK 17/09 Q1024
2026-03-31 21:00:00,METAR LPPR 312100Z 04004KT 300V100 CAVOK 18/09 Q1024
2026-03-31 20:30:00,METAR LPPR 312030Z VRB02KT CAVOK 18/11 Q1024
2026-03-31 20:00:00,METAR LPPR 312000Z 34007KT CAVOK 16/12 Q1024
2026-03-31 19:30:00,METAR LPPR 311930Z 35003KT CAVOK 16/13 Q1024
2026-03-31 19:00:00,METAR LPPR 311900Z 00000KT 9000 NSC 17/13 Q1024
2026-03-31 18:30:00,METAR LPPR 311830Z 00000KT 9000 NSC 19/13 Q1024
2026-03-31 18:00:00,METAR LPPR 311800Z 27003KT 240V310 CAVOK 21/12 Q1024
2026-03-31 17:30:00,METAR LPPR 311730Z 34005KT CAVOK 21/12 Q1024
2026-03-31 17:00:00,METAR LPPR 311700Z 35009KT CAVOK 22/11 Q1025
2026-03-31 16:30:00,METAR LPPR 311630Z 35012KT CAVOK 22/10 Q1025
2026-03-31 16:00:00,METAR LPPR 311600Z 34009KT 300V030 CAVOK 22/11 Q1025
2026-03-31 15:30:00,METAR LPPR 311530Z 32009KT 300V360 CAVOK 23/11 Q1025
2026-03-31 15:00:00,METAR LPPR 311500Z 33009KT CAVOK 23/11 Q1025
2026-03-31 14:30:00,METAR LPPR 311430Z 33009KT CAVOK 22/10 Q1026
2026-03-31 14:00:00,METAR LPPR 311400Z 32011KT CAVOK 22/11 Q1026
2026-03-31 13:30:00,METAR LPPR 311330Z 33011KT CAVOK 21/11 Q1027
2026-03-31 13:00:00,METAR LPPR 311300Z 32011KT CAVOK 21/11 Q1027
2026-03-31 12:30:00,METAR LPPR 311230Z 31007KT 280V340 CAVOK 20/11 Q1027
2026-03-31 12:00:00,METAR LPPR 311200Z 29006KT CAVOK 20/11 Q1028
2026-03-31 11:30:00,METAR LPPR 311130Z 29005KT 260V330 CAVOK 21/12 Q1028
2026-03-31 11:00:00,METAR LPPR 311100Z VRB04KT CAVOK 22/10 Q1028
2026-03-31 10:30:00,METAR LPPR 311030Z 02003KT 310V080 CAVOK 20/10 Q1028
2026-03-31 10:00:00,METAR LPPR 311000Z 04005KT CAVOK 20/10 Q1029
2026-03-31 09:30:00,METAR LPPR 310930Z 06005KT 010V100 CAVOK 19/09 Q1029
2026-03-31 09:00:00,METAR LPPR 310900Z 06005G15KT 290V090 CAVOK 18/09 Q1029
2026-03-31 08:30:00,METAR LPPR 310830Z VRB08KT CAVOK 17/08 Q1029
2026-03-31 08:00:00,METAR LPPR 310800Z 06006KT CAVOK 15/08 Q1029
2026-03-31 07:30:00,METAR LPPR 310730Z 03004KT CAVOK 12/08 Q1029
2026-03-31 07:00:00,METAR LPPR 310700Z 07005KT 320V110 CAVOK 11/08 Q1029
2026-03-31 06:30:00,METAR LPPR 310630Z VRB01KT CAVOK 10/07 Q1029
2026-03-31 06:00:00,METAR LPPR 310600Z VRB04KT CAVOK 10/07 Q1028
2026-03-31 05:30:00,METAR LPPR 310530Z 04004KT 010V100 CAVOK 11/08 Q1028
2026-03-31 05:00:00,METAR LPPR 310500Z VRB02KT CAVOK 10/07 Q1029
2026-03-31 04:30:00,METAR LPPR 310430Z 36005KT 330V050 CAVOK 11/08 Q1029
2026-03-31 04:00:00,METAR LPPR 310400Z 36005KT CAVOK 12/08 Q1029
2026-03-31 03:30:00,METAR LPPR 310330Z 03006KT CAVOK 13/08 Q1029
2026-03-31 03:00:00,METAR LPPR 310300Z 03008KT CAVOK 14/08 Q1029
2026-03-31 02:30:00,METAR LPPR 310230Z 02009KT CAVOK 14/08 Q1029
2026-03-31 02:00:00,METAR LPPR 310200Z 01009KT CAVOK 13/09 Q1029
2026-03-31 01:30:00,METAR LPPR 310130Z 35008KT CAVOK 14/09 Q1029
2026-03-31 01:00:00,METAR LPPR 310100Z 03006KT CAVOK 14/09 Q1030
2026-03-31 00:30:00,METAR LPPR 310030Z 02005KT CAVOK 15/09 Q1030
2026-03-31 00:00:00,METAR LPPR 310000Z 02007KT CAVOK 15/09 Q1030
2026-03-30 23:30:00,METAR LPPR 302330Z 02003KT 350V050 CAVOK 13/09 Q1030
2026-03-30 23:00:00,METAR LPPR 302300Z 01005KT CAVOK 14/09 Q1029
2026-03-30 22:30:00,METAR LPPR 302230Z 01004KT 330V040 CAVOK 13/10 Q1029
2026-03-30 22:00:00,METAR LPPR 302200Z 02004KT CAVOK 12/10 Q1029
2026-03-30 21:30:00,METAR LPPR 302130Z 35005KT CAVOK 13/10 Q1029
2026-03-30 21:00:00,METAR LPPR 302100Z 01004KT 330V050 CAVOK 13/11 Q1029
2026-03-30 20:30:00,METAR LPPR 302030Z 03003KT 340V100 CAVOK 14/11 Q1029
2026-03-30 20:00:00,METAR LPPR 302000Z 01003KT CAVOK 14/11 Q1029
2026-03-30 19:30:00,METAR LPPR 301930Z 35004KT 320V020 CAVOK 16/11 Q1029
2026-03-30 19:00:00,METAR LPPR 301900Z 01006KT 340V040 CAVOK 16/11 Q1029
2026-03-30 18:30:00,METAR LPPR 301830Z 29003KT CAVOK 17/11 Q1029
2026-03-30 18:00:00,METAR LPPR 301800Z 34005KT CAVOK 18/12 Q1029
2026-03-30 17:30:00,METAR LPPR 301730Z 32006KT CAVOK 17/12 Q1029
2026-03-30 17:00:00,METAR LPPR 301700Z 33007KT 300V360 CAVOK 19/11 Q1029
2026-03-30 16:30:00,METAR LPPR 301630Z 30006KT 270V340 CAVOK 19/11 Q1029
2026-03-30 16:00:00,METAR LPPR 301600Z 32011KT CAVOK 18/09 Q1029
2026-03-30 15:30:00,METAR LPPR 301530Z 30008KT CAVOK 19/09 Q1029
2026-03-30 15:00:00,METAR LPPR 301500Z 31008KT CAVOK 19/07 Q1030
2026-03-30 14:30:00,METAR LPPR 301430Z 32010KT 290V350 CAVOK 17/06 Q1030
2026-03-30 14:00:00,METAR LPPR 301400Z 31012KT CAVOK 17/05 Q1030
2026-03-30 13:30:00,METAR LPPR 301330Z 31011KT 280V340 CAVOK 17/06 Q1031
2026-03-30 13:00:00,METAR LPPR 301300Z 29005KT 260V320 CAVOK 17/07 Q1031
2026-03-30 12:30:00,METAR LPPR 301230Z 32009KT CAVOK 15/06 Q1031
2026-03-30 12:00:00,METAR LPPR 301200Z 31008KT 280V340 CAVOK 16/07 Q1032
2026-03-30 11:30:00,METAR LPPR 301130Z 32008KT 270V340 CAVOK 15/06 Q1032
2026-03-30 11:00:00,METAR LPPR 301100Z VRB06KT CAVOK 16/01 Q1033
2026-03-30 10:30:00,METAR LPPR 301030Z VRB02KT CAVOK 15/02 Q1033
2026-03-30 10:00:00,METAR LPPR 301000Z VRB04KT CAVOK 14/02 Q1033
2026-03-30 09:30:00,METAR LPPR 300930Z 04005KT 010V070 CAVOK 13/01 Q1033
2026-03-30 09:00:00,METAR LPPR 300900Z 05006KT 030V100 CAVOK 12/01 Q1033
2026-03-30 08:30:00,METAR LPPR 300830Z 07003KT 020V140 CAVOK 12/01 Q1033
2026-03-30 08:00:00,METAR LPPR 300800Z VRB04KT CAVOK 11/01 Q1033
2026-03-30 07:30:00,METAR LPPR 300730Z VRB05KT CAVOK 10/01 Q1033
2026-03-30 07:00:00,METAR LPPR 300700Z VRB04G14KT CAVOK 09/00 Q1033
2026-03-30 06:30:00,METAR LPPR 300630Z 04004KT 010V150 CAVOK 07/01 Q1033
2026-03-30 06:00:00,METAR LPPR 300600Z 04004KT 360V090 CAVOK 06/02 Q1032
2026-03-30 05:30:00,METAR LPPR 300530Z 07005KT 040V120 CAVOK 09/01 Q1032
2026-03-30 05:00:00,METAR LPPR 300500Z 06004KT CAVOK 07/03 Q1032
2026-03-30 04:30:00,METAR LPPR 300430Z 06003KT 010V140 CAVOK 07/03 Q1032
2026-03-30 04:00:00,METAR LPPR 300400Z 00000KT CAVOK 08/03 Q1032
2026-03-30 03:30:00,METAR LPPR 300330Z VRB02KT CAVOK 09/03 Q1032
2026-03-30 03:00:00,METAR LPPR 300300Z 00000KT CAVOK 09/03 Q1032
2026-03-30 02:30:00,METAR LPPR 300230Z 00000KT CAVOK 11/02 Q1032
2026-03-30 02:00:00,METAR LPPR 300200Z VRB02KT CAVOK 09/03 Q1032
2026-03-30 01:30:00,METAR LPPR 300130Z 03006KT CAVOK 12/02 Q1031
2026-03-30 01:00:00,METAR LPPR 300100Z 36005KT CAVOK 11/02 Q1031
2026-03-30 00:30:00,METAR LPPR 300030Z 36006KT CAVOK 11/03 Q1031
2026-03-30 00:00:00,METAR LPPR 300000Z 04009KT CAVOK 13/03 Q1031
2026-03-29 23:30:00,METAR LPPR 292330Z 04011KT CAVOK 14/02 Q1031
2026-03-29 23:00:00,METAR LPPR 292300Z 02010KT CAVOK 13/03 Q1031
2026-03-29 22:30:00,METAR LPPR 292230Z 01007KT CAVOK 11/04 Q1031
2026-03-29 22:00:00,METAR LPPR 292200Z 01009KT CAVOK 12/03 Q1031
2026-03-29 21:30:00,METAR LPPR 292130Z 01009KT CAVOK 14/03 Q1030
2026-03-29 21:00:00,METAR LPPR 292100Z 01012KT CAVOK 14/03 Q1030
2026-03-29 20:30:00,METAR LPPR 292030Z 02011KT CAVOK 15/02 Q1030
2026-03-29 20:00:00,METAR LPPR 292000Z 03007KT 330V060 CAVOK 15/03 Q1029
2026-03-29 19:30:00,METAR LPPR 291930Z 35008KT CAVOK 14/06 Q1029
2026-03-29 19:00:00,METAR LPPR 291900Z 31005KT 280V340 CAVOK 15/06 Q1029
2026-03-29 18:30:00,METAR LPPR 291830Z 33006KT 300V360 CAVOK 16/07 Q1029
2026-03-29 18:00:00,METAR LPPR 291800Z 33010KT CAVOK 17/06 Q1029
2026-03-29 17:30:00,METAR LPPR 291730Z 30006KT 270V350 CAVOK 19/04 Q1029
2026-03-29 17:00:00,METAR LPPR 291700Z 31009KT CAVOK 16/08 Q1029
2026-03-29 16:30:00,METAR LPPR 291630Z 32011KT CAVOK 17/08 Q1029
2026-03-29 16:00:00,METAR LPPR 291600Z 31009KT 290V010 CAVOK 19/05 Q1029
2026-03-29 15:30:00,METAR LPPR 291530Z 31011KT 280V340 CAVOK 17/08 Q1029
2026-03-29 15:00:00,METAR LPPR 291500Z 31010KT CAVOK 17/07 Q1029
2026-03-29 14:30:00,METAR LPPR 291430Z 36011KT CAVOK 19/03 Q1030
2026-03-29 14:00:00,METAR LPPR 291400Z 29008KT 270V330 CAVOK 17/10 Q1031
2026-03-29 13:30:00,METAR LPPR 291330Z 31012KT CAVOK 16/08 Q1031
2026-03-29 13:00:00,METAR LPPR 291300Z 29008KT 260V330 CAVOK 16/07 Q1032
2026-03-29 12:30:00,METAR LPPR 291230Z 30008KT CAVOK 16/07 Q1032
2026-03-29 12:00:00,METAR LPPR 291200Z 31008KT 270V340 CAVOK 15/04 Q1032
2026-03-29 11:30:00,METAR LPPR 291130Z 33009KT 290V350 CAVOK 15/05 Q1032
2026-03-29 11:00:00,METAR LPPR 291100Z 36010KT CAVOK 15/03 Q1032
2026-03-29 10:30:00,METAR LPPR 291030Z 35007KT 300V040 CAVOK 14/04 Q1032
2026-03-29 10:00:00,METAR LPPR 291000Z 35007KT 330V030 CAVOK 13/03 Q1032
2026-03-29 09:30:00,METAR LPPR 290930Z 03006KT 320V060 CAVOK 13/04 Q1032
2026-03-29 09:00:00,METAR LPPR 290900Z 06007KT CAVOK 12/03 Q1032
2026-03-29 08:30:00,METAR LPPR 290830Z 03006KT CAVOK 11/03 Q1032
2026-03-29 08:00:00,METAR LPPR 290800Z 36006KT 340V050 CAVOK 10/03 Q1032
2026-03-29 07:30:00,METAR LPPR 290730Z 02006KT 350V060 CAVOK 09/02 Q1031
2026-03-29 07:00:00,METAR LPPR 290700Z 03006KT CAVOK 09/02 Q1031
2026-03-29 06:30:00,METAR LPPR 290630Z 03007KT 330V060 CAVOK 07/02 Q1031
2026-03-29 06:00:00,METAR LPPR 290600Z 36006KT CAVOK 08/02 Q1031
2026-03-29 05:30:00,METAR LPPR 290530Z 33007KT CAVOK 08/03 Q1030
2026-03-29 05:00:00,METAR LPPR 290500Z 31005KT CAVOK 09/03 Q1030
2026-03-29 04:30:00,METAR LPPR 290430Z 00000KT CAVOK 07/04 Q1030
2026-03-29 04:00:00,METAR LPPR 290400Z 00000KT CAVOK 07/04 Q1029
2026-03-29 03:30:00,METAR LPPR 290330Z 30002KT CAVOK 08/03 Q1029
2026-03-29 03:00:00,METAR LPPR 290300Z 30004KT CAVOK 10/04 Q1029
2026-03-29 02:30:00,METAR LPPR 290230Z 04004KT 350V120 CAVOK 09/04 Q1029
2026-03-29 02:00:00,METAR LPPR 290200Z 34008KT CAVOK 10/04 Q1030
2026-03-29 01:30:00,METAR LPPR 290130Z 36008KT CAVOK 12/04 Q1029
2026-03-29 01:00:00,METAR LPPR 290100Z 36010KT CAVOK 12/04 Q1029
2026-03-29 00:30:00,METAR LPPR 290030Z 04007KT 010V070 CAVOK 13/04 Q1029
2026-03-29 00:00:00,METAR LPPR 290000Z 04006KT CAVOK 13/04 Q1029
2026-03-28 23:30:00,METAR LPPR 282330Z 04009KT CAVOK 14/04 Q1029
2026-03-28 23:00:00,METAR LPPR 282300Z 03012KT CAVOK 14/05 Q1028
2026-03-28 22:30:00,METAR LPPR 282230Z 03014KT CAVOK 14/05 Q1028
2026-03-28 22:00:00,METAR LPPR 282200Z 03015KT CAVOK 15/05 Q1028
2026-03-28 21:30:00,METAR LPPR 282130Z 03016KT CAVOK 15/06 Q1027
2026-03-28 21:00:00,METAR LPPR 282100Z 03016KT CAVOK 16/06 Q1027
2026-03-28 20:30:00,METAR LPPR 282030Z 36009KT 330V030 CAVOK 16/07 Q1027
2026-03-28 20:00:00,METAR LPPR 282000Z 32006KT 280V350 CAVOK 16/07 Q1026
2026-03-28 19:30:00,METAR LPPR 281930Z 33005KT 300V360 CAVOK 16/08 Q1026
2026-03-28 19:00:00,METAR LPPR 281900Z 29006KT CAVOK 16/10 Q1025
2026-03-28 18:30:00,METAR LPPR 281830Z 31003KT 220V350 CAVOK 19/09 Q1025
2026-03-28 18:00:00,METAR LPPR 281800Z 34005KT CAVOK 19/10 Q1025
2026-03-28 17:30:00,METAR LPPR 281730Z 30005KT 250V320 CAVOK 18/10 Q1024
2026-03-28 17:00:00,METAR LPPR 281700Z 33007KT 300V360 CAVOK 19/10 Q1024
2026-03-28 16:30:00,METAR LPPR 281630Z 32009KT CAVOK 19/09 Q1024
2026-03-28 16:00:00,METAR LPPR 281600Z 32010KT CAVOK 19/10 Q1024
2026-03-28 15:30:00,METAR LPPR 281530Z 32011KT 290V350 CAVOK 19/09 Q1024
2026-03-28 15:00:00,METAR LPPR 281500Z 32013KT CAVOK 18/10 Q1024
2026-03-28 14:30:00,METAR LPPR 281430Z 34008KT 280V040 CAVOK 19/10 Q1024
2026-03-28 14:00:00,METAR LPPR 281400Z 05008G18KT 340V090 CAVOK 20/07 Q1025
2026-03-28 13:30:00,METAR LPPR 281330Z 05011KT 020V080 CAVOK 20/06 Q1025
2026-03-28 13:00:00,METAR LPPR 281300Z 05010KT 010V090 CAVOK 20/05 Q1025
2026-03-28 12:30:00,METAR LPPR 281230Z 04011KT 350V090 CAVOK 19/05 Q1025
2026-03-28 12:00:00,METAR LPPR 281200Z 08009KT CAVOK 19/06 Q1025
2026-03-28 11:30:00,METAR LPPR 281130Z 03007KT 340V070 CAVOK 17/07 Q1025
2026-03-28 11:00:00,METAR LPPR 281100Z 02007KT 340V050 CAVOK 17/07 Q1025
2026-03-28 10:30:00,METAR LPPR 281030Z 03009KT 360V080 CAVOK 16/07 Q1025
2026-03-28 10:00:00,METAR LPPR 281000Z 02008KT 330V050 CAVOK 15/07 Q1025
2026-03-28 09:30:00,METAR LPPR 280930Z 03008KT 360V060 CAVOK 14/07 Q1025
2026-03-28 09:00:00,METAR LPPR 280900Z 04006KT 010V080 CAVOK 14/06 Q1025
2026-03-28 08:30:00,METAR LPPR 280830Z 04006KT 020V080 CAVOK 13/07 Q1025
2026-03-28 08:00:00,METAR LPPR 280800Z 04007KT 020V080 CAVOK 12/07 Q1024
2026-03-28 07:30:00,METAR LPPR 280730Z 01005KT 340V100 CAVOK 10/07 Q1024
2026-03-28 07:00:00,METAR LPPR 280700Z 08004KT 060V200 CAVOK 10/06 Q1023
2026-03-28 06:30:00,METAR LPPR 280630Z 08005KT 040V110 CAVOK 09/07 Q1023
2026-03-28 06:00:00,METAR LPPR 280600Z VRB02KT CAVOK 07/06 Q1022
2026-03-28 05:30:00,METAR LPPR 280530Z VRB02KT CAVOK 08/07 Q1022
2026-03-28 05:00:00,METAR LPPR 280500Z VRB02KT CAVOK 08/06 Q1022
2026-03-28 04:30:00,METAR LPPR 280430Z 00000KT CAVOK 08/07 Q1021
2026-03-28 04:00:00,METAR LPPR 280400Z 00000KT CAVOK 09/07 Q1021
2026-03-28 03:30:00,METAR LPPR 280330Z VRB01KT CAVOK 08/07 Q1021
2026-03-28 03:00:00,METAR LPPR 280300Z 00000KT CAVOK 09/08 Q1021
2026-03-28 02:30:00,METAR LPPR 280230Z VRB01KT CAVOK 09/09 Q1020
2026-03-28 02:00:00,METAR LPPR 280200Z 01003KT CAVOK 09/08 Q1020
2026-03-28 01:30:00,METAR LPPR 280130Z 01003KT CAVOK 10/09 Q1020
2026-03-28 01:00:00,METAR LPPR 280100Z 00000KT CAVOK 10/09 Q1020
2026-03-28 00:30:00,METAR LPPR 280030Z 00000KT CAVOK 10/09 Q1020
2026-03-28 00:00:00,METAR LPPR 280000Z 00000KT CAVOK 11/10 Q1020
2026-03-27 23:30:00,METAR LPPR 272330Z VRB02KT CAVOK 11/10 Q1020
2026-03-27 23:00:00,METAR LPPR 272300Z 36003KT CAVOK 10/09 Q1020
2026-03-27 22:30:00,METAR LPPR 272230Z VRB02KT CAVOK 11/10 Q1019
2026-03-27 22:00:00,METAR LPPR 272200Z 00000KT CAVOK 12/10 Q1019
2026-03-27 21:30:00,METAR LPPR 272130Z VRB01KT CAVOK 12/10 Q1019
2026-03-27 21:00:00,METAR LPPR 272100Z 00000KT CAVOK 13/11 Q1019
2026-03-27 20:30:00,METAR LPPR 272030Z VRB02KT CAVOK 13/11 Q1019
2026-03-27 20:00:00,METAR LPPR 272000Z 03003KT 360V090 CAVOK 13/11 Q1019
2026-03-27 19:30:00,METAR LPPR 271930Z 32003KT CAVOK 13/11 Q1019
2026-03-27 19:00:00,METAR LPPR 271900Z 29003KT 260V330 CAVOK 15/11 Q1018
2026-03-27 18:30:00,METAR LPPR 271830Z 34004KT CAVOK 16/11 Q1018
2026-03-27 18:00:00,METAR LPPR 271800Z 35009KT CAVOK 17/10 Q1018
2026-03-27 17:30:00,METAR LPPR 271730Z 34009KT CAVOK 18/09 Q1018
2026-03-27 17:00:00,METAR LPPR 271700Z 34008KT 300V360 CAVOK 18/09 Q1018
2026-03-27 16:30:00,METAR LPPR 271630Z 33008KT 300V010 CAVOK 18/09 Q1018
2026-03-27 16:00:00,METAR LPPR 271600Z 31009KT CAVOK 17/08 Q1018
2026-03-25 15:00:00,METAR LPPR 251500Z 31011KT CAVOK 19/12 Q1019
2026-03-25 14:30:00,METAR LPPR 251430Z 32010KT CAVOK 19/12 Q1019
2026-03-25 14:00:00,METAR LPPR 251400Z 32010KT 280V340 CAVOK 19/13 Q1020
2026-03-25 13:30:00,METAR LPPR 251330Z 33010KT 300V360 CAVOK 20/12 Q1020
2026-03-25 13:00:00,METAR LPPR 251300Z 31007KT 280V350 CAVOK 20/10 Q1020
2026-03-25 12:30:00,METAR LPPR 251230Z 32007KT 280V350 CAVOK 19/10 Q1021
2026-03-25 12:00:00,METAR LPPR 251200Z 29006KT 260V320 CAVOK 17/10 Q1021
2026-03-25 11:30:00,METAR LPPR 251130Z 32007KT 280V350 CAVOK 17/10 Q1021
2026-03-25 11:00:00,METAR LPPR 251100Z 30004KT 250V340 CAVOK 17/10 Q1021
2026-03-25 10:30:00,METAR LPPR 251030Z 31005KT 280V340 CAVOK 15/10 Q1022
2026-03-25 10:00:00,METAR LPPR 251000Z VRB02KT CAVOK 17/09 Q1022
2026-03-25 09:30:00,METAR LPPR 250930Z VRB02KT CAVOK 17/09 Q1022
2026-03-25 09:00:00,METAR LPPR 250900Z VRB03KT CAVOK 16/08 Q1022
2026-03-25 08:30:00,METAR LPPR 250830Z VRB02KT CAVOK 14/08 Q1022
2026-03-25 08:00:00,METAR LPPR 250800Z 08003KT 060V130 CAVOK 12/09 Q1022
2026-03-25 07:30:00,METAR LPPR 250730Z 05003KT 010V100 8000 NSC 09/08 Q1022
2026-03-25 07:00:00,METAR LPPR 250700Z 00000KT 8000 NSC 07/06 Q1022
2026-03-25 06:30:00,METAR LPPR 250630Z 16003KT 120V200 CAVOK 09/06 Q1021
2026-03-25 06:00:00,METAR LPPR 250600Z 15003KT 080V190 CAVOK 09/07 Q1021
2026-03-25 05:30:00,METAR LPPR 250530Z 00000KT CAVOK 08/06 Q1021
2026-03-25 05:00:00,METAR LPPR 250500Z VRB02KT CAVOK 09/07 Q1021
2026-03-25 04:30:00,METAR LPPR 250430Z 12004KT 080V140 CAVOK 08/06 Q1021
2026-03-25 04:00:00,METAR LPPR 250400Z 00000KT CAVOK 08/07 Q1021
2026-03-25 03:30:00,METAR LPPR 250330Z VRB02KT CAVOK 08/06 Q1021
2026-03-25 03:00:00,METAR LPPR 250300Z 00000KT CAVOK 09/07 Q1021
2026-03-25 02:30:00,METAR LPPR 250230Z 00000KT CAVOK 08/07 Q1021
2026-03-25 02:00:00,METAR LPPR 250200Z VRB02KT CAVOK 08/06 Q1021
2026-03-25 01:30:00,METAR LPPR 250130Z VRB01KT CAVOK 10/08 Q1022
2026-03-25 01:00:00,METAR LPPR 250100Z 00000KT CAVOK 10/08 Q1022
2026-03-25 00:30:00,METAR LPPR 250030Z 00000KT CAVOK 10/07 Q1022
2026-03-25 00:00:00,METAR LPPR 250000Z 00000KT CAVOK 10/07 Q1022
2026-03-24 23:30:00,METAR LPPR 242330Z VRB01KT CAVOK 11/08 Q1022
2026-03-24 23:00:00,METAR LPPR 242300Z 00000KT CAVOK 11/08 Q1022
2026-03-24 22:30:00,METAR LPPR 242230Z 05003KT 360V080 CAVOK 10/08 Q1022
2026-03-24 22:00:00,METAR LPPR 242200Z 00000KT CAVOK 12/08 Q1022
2026-03-24 21:30:00,METAR LPPR 242130Z 04004KT 330V090 CAVOK 13/08 Q1022
2026-03-24 21:00:00,METAR LPPR 242100Z 36003KT 340V050 CAVOK 13/09 Q1022
2026-03-24 20:30:00,METAR LPPR 242030Z 32003KT 290V350 CAVOK 13/09 Q1022
2026-03-24 20:00:00,METAR LPPR 242000Z 32005KT CAVOK 13/09 Q1022
2026-03-24 19:30:00,METAR LPPR 241930Z 31005KT CAVOK 15/08 Q1021
2026-03-24 19:00:00,METAR LPPR 241900Z 32006KT CAVOK 15/08 Q1021
2026-03-24 18:30:00,METAR LPPR 241830Z 33008KT 300V360 CAVOK 16/08 Q1021
2026-03-24 18:00:00,METAR LPPR 241800Z 32007KT CAVOK 17/08 Q1021
2026-03-24 17:30:00,METAR LPPR 241730Z 31008KT CAVOK 17/07 Q1020
2026-03-24 17:00:00,METAR LPPR 241700Z 32008KT CAVOK 17/07 Q1020
2026-03-24 16:30:00,METAR LPPR 241630Z 33008KT 290V350 CAVOK 18/08 Q1020
2026-03-24 16:00:00,METAR LPPR 241600Z 30007KT 270V340 CAVOK 18/09 Q1020
2026-03-24 15:30:00,METAR LPPR 241530Z 29006KT 270V330 CAVOK 19/09 Q1020
2026-03-24 15:00:00,METAR LPPR 241500Z 30006KT 250V330 CAVOK 19/10 Q1020
2026-03-24 14:30:00,METAR LPPR 241430Z 29006KT 250V330 CAVOK 19/09 Q1020
2026-03-24 14:00:00,METAR LPPR 241400Z 27005KT 240V310 CAVOK 21/08 Q1020
2026-03-24 13:30:00,METAR LPPR 241330Z 27005KT 230V310 CAVOK 22/08 Q1020
2026-03-24 13:00:00,METAR LPPR 241300Z 24006KT 210V300 CAVOK 22/08 Q1021
2026-03-24 12:30:00,METAR LPPR 241230Z 20005KT 160V260 CAVOK 22/08 Q1021
2026-03-24 12:00:00,METAR LPPR 241200Z VRB04KT CAVOK 22/07 Q1021
2026-03-24 11:30:00,METAR LPPR 241130Z 07004KT 020V150 CAVOK 21/07 Q1021
2026-03-24 11:00:00,METAR LPPR 241100Z 08005KT 320V130 CAVOK 20/06 Q1021
2026-03-24 10:30:00,METAR LPPR 241030Z 08007KT 050V110 CAVOK 20/07 Q1021
2026-03-24 10:00:00,METAR LPPR 241000Z 11007KT 080V150 CAVOK 18/05 Q1021
2026-03-24 09:30:00,METAR LPPR 240930Z 10007KT 070V150 CAVOK 18/05 Q1020
2026-03-24 09:00:00,METAR LPPR 240900Z 09007KT 070V130 CAVOK 17/05 Q1020
2026-03-24 08:30:00,METAR LPPR 240830Z 11004KT 050V160 CAVOK 16/05 Q1020
2026-03-24 08:00:00,METAR LPPR 240800Z 08003KT 020V160 CAVOK 15/04 Q1020
2026-03-24 07:30:00,METAR LPPR 240730Z 09003KT 060V130 CAVOK 14/04 Q1020
2026-03-24 07:00:00,METAR LPPR 240700Z VRB02KT CAVOK 14/04 Q1019
2026-03-24 06:30:00,METAR LPPR 240630Z 10008KT 060V130 CAVOK 14/04 Q1019
2026-03-24 06:00:00,METAR LPPR 240600Z 11010KT CAVOK 14/04 Q1018
2026-03-24 05:30:00,METAR LPPR 240530Z 11010KT CAVOK 14/04 Q1018
2026-03-24 05:00:00,METAR LPPR 240500Z 11010KT CAVOK 14/04 Q1018
2026-03-24 04:30:00,METAR LPPR 240430Z 10010KT CAVOK 15/04 Q1018
2026-03-24 04:00:00,METAR LPPR 240400Z 11010KT CAVOK 15/04 Q1018
2026-03-24 03:30:00,METAR LPPR 240330Z 10009KT CAVOK 15/04 Q1018
2026-03-24 03:00:00,METAR LPPR 240300Z 09006KT CAVOK 14/04 Q1018
2026-03-24 02:30:00,METAR LPPR 240230Z 08007KT CAVOK 14/04 Q1018
2026-03-24 02:00:00,METAR LPPR 240200Z 09006KT CAVOK 15/04 Q1018
2026-03-24 01:30:00,METAR LPPR 240130Z 11008KT CAVOK 15/04 Q1018
2026-03-24 01:00:00,METAR LPPR 240100Z 10006KT CAVOK 15/05 Q1018
2026-03-24 00:30:00,METAR LPPR 240030Z 11005KT CAVOK 14/05 Q1018
2026-03-24 00:00:00,METAR LPPR 240000Z 10005KT CAVOK 15/05 Q1018
2026-03-23 23:30:00,METAR LPPR 232330Z 10004KT CAVOK 16/06 Q1018
2026-03-23 23:00:00,METAR LPPR 232300Z 11005KT CAVOK 14/08 Q1017
2026-03-23 22:30:00,METAR LPPR 232230Z 10006KT CAVOK 13/09 Q1017
2026-03-23 22:00:00,METAR LPPR 232200Z 10004KT 080V140 CAVOK 14/09 Q1017
2026-03-23 21:30:00,METAR LPPR 232130Z 00000KT CAVOK 14/09 Q1017
2026-03-23 21:00:00,METAR LPPR 232100Z 00000KT CAVOK 13/09 Q1017
2026-03-23 20:30:00,METAR LPPR 232030Z 00000KT CAVOK 16/08 Q1017
2026-03-23 20:00:00,METAR LPPR 232000Z VRB02KT CAVOK 14/10 Q1016
2026-03-23 19:30:00,METAR LPPR 231930Z 35003KT CAVOK 17/08 Q1016
2026-03-23 19:00:00,METAR LPPR 231900Z 01005KT 350V050 CAVOK 17/08 Q1015
2026-03-23 18:30:00,METAR LPPR 231830Z 34005KT CAVOK 17/10 Q1015
2026-03-23 18:00:00,METAR LPPR 231800Z 34006KT CAVOK 18/09 Q1015
2026-03-23 17:30:00,METAR LPPR 231730Z 34009KT CAVOK 19/09 Q1015
2026-03-23 17:00:00,METAR LPPR 231700Z 32007KT 300V360 CAVOK 19/10 Q1015
2026-03-23 16:30:00,METAR LPPR 231630Z 33008KT 300V360 CAVOK 19/10 Q1014
2026-03-23 16:00:00,METAR LPPR 231600Z 31007KT 290V350 CAVOK 19/10 Q1014
2026-03-23 15:30:00,METAR LPPR 231530Z 30008KT CAVOK 18/10 Q1014
2026-03-23 15:00:00,METAR LPPR 231500Z 30006KT 260V340 CAVOK 19/10 Q1014
2026-03-23 14:30:00,METAR LPPR 231430Z 29005KT 260V330 CAVOK 19/10 Q1014
2026-03-23 14:00:00,METAR LPPR 231400Z 30007KT CAVOK 19/10 Q1014
2026-03-23 13:30:00,METAR LPPR 231330Z 27006KT 240V310 CAVOK 20/11 Q1014
2026-03-23 13:00:00,METAR LPPR 231300Z VRB03KT CAVOK 22/06 Q1014
2026-03-23 12:30:00,METAR LPPR 231230Z 13004KT 080V180 CAVOK 21/07 Q1015
2026-03-23 12:00:00,METAR LPPR 231200Z VRB02KT CAVOK 20/10 Q1015
2026-03-23 11:30:00,METAR LPPR 231130Z VRB04KT CAVOK 20/07 Q1015
2026-03-23 11:00:00,METAR LPPR 231100Z VRB05KT CAVOK 20/07 Q1015
2026-03-23 10:30:00,METAR LPPR 231030Z 00000KT CAVOK 18/06 Q1015
2026-03-23 10:00:00,METAR LPPR 231000Z 05003KT 320V110 CAVOK 18/07 Q1014
2026-03-23 09:30:00,METAR LPPR 230930Z 13008KT CAVOK 16/07 Q1014
2026-03-23 09:00:00,METAR LPPR 230900Z 11006KT 070V150 CAVOK 15/07 Q1014
2026-03-23 08:30:00,METAR LPPR 230830Z VRB02KT CAVOK 13/10 Q1014
2026-03-23 08:00:00,METAR LPPR 230800Z 36002KT CAVOK 12/11 Q1014
2026-03-23 07:30:00,METAR LPPR 230730Z VRB02KT 9000 4400N BCFG NSC 09/08 Q1014
2026-03-23 07:00:00,METAR LPPR 230700Z VRB02KT 9000 4200N BCFG NSC 09/07 Q1013
2026-03-23 06:30:00,METAR LPPR 230630Z VRB02KT 9000 4200N BCFG NSC 09/08 Q1013
2026-03-23 06:00:00,METAR LPPR 230600Z VRB02KT 9000 4200N BCFG NSC 08/08 Q1013
2026-03-23 05:30:00,METAR LPPR 230530Z 05004KT 020V080 7000 NSC 08/08 Q1013
2026-03-23 05:00:00,METAR LPPR 230500Z VRB02KT 7000 NSC 09/09 Q1012
2026-03-23 04:30:00,METAR LPPR 230430Z 36004KT 9000 3500N BCFG NSC 08/08 Q1012
2026-03-23 04:00:00,METAR LPPR 230400Z 16003KT 110V200 7000 NSC 09/09 Q1012
2026-03-23 03:30:00,METAR LPPR 230330Z VRB02KT 5000 BR NSC 09/08 Q1012
2026-03-23 03:00:00,METAR LPPR 230300Z 07003KT 020V090 5000 BR NSC 09/08 Q1012
2026-03-23 02:30:00,METAR LPPR 230230Z 13005KT 7000 NSC 10/10 Q1012
2026-03-23 02:00:00,METAR LPPR 230200Z VRB01KT 5000 BR NSC 10/09 Q1013
2026-03-23 01:30:00,METAR LPPR 230130Z VRB01KT 5000 BR NSC 09/09 Q1013
2026-03-23 01:00:00,METAR LPPR 230100Z VRB02KT 7000 NSC 10/09 Q1013
2026-03-23 00:30:00,METAR LPPR 230030Z 00000KT 7000 NSC 10/10 Q1012
2026-03-23 00:00:00,METAR LPPR 230000Z VRB02KT 7000 NSC 10/09 Q1012
2026-03-22 23:30:00,METAR LPPR 222330Z VRB02KT 8000 NSC 11/10 Q1012
2026-03-22 23:00:00,METAR LPPR 222300Z 19003KT 8000 NSC 10/10 Q1012
2026-03-22 22:30:00,METAR LPPR 222230Z VRB02KT 8000 NSC 10/10 Q1012
2026-03-22 22:00:00,METAR LPPR 222200Z 00000KT 8000 NSC 11/10 Q1012
2026-03-22 21:30:00,METAR LPPR 222130Z 33002KT 8000 NSC 11/10 Q1012
2026-03-22 21:00:00,METAR LPPR 222100Z 00000KT 8000 NSC 11/11 Q1012
2026-03-22 20:30:00,METAR LPPR 222030Z 18002KT CAVOK 12/11 Q1012
2026-03-22 20:00:00,METAR LPPR 222000Z 00000KT CAVOK 12/11 Q1012
2026-03-22 19:30:00,METAR LPPR 221930Z 00000KT CAVOK 13/11 Q1012
2026-03-22 19:00:00,METAR LPPR 221900Z VRB01KT CAVOK 13/11 Q1012
2026-03-22 18:30:00,METAR LPPR 221830Z 32004KT 270V360 CAVOK 14/11 Q1012
2026-03-22 18:00:00,METAR LPPR 221800Z 29004KT 260V340 9999 FEW004 14/12 Q1012
2026-03-22 17:30:00,METAR LPPR 221730Z 28005KT 230V320 9999 FEW004 15/12 Q1011
2026-03-22 17:00:00,METAR LPPR 221700Z 29004KT 240V330 9999 FEW004 15/12 Q1011
2026-03-22 16:30:00,METAR LPPR 221630Z 27005KT 240V360 9999 FEW004 16/12 Q1011
2026-03-22 16:00:00,METAR LPPR 221600Z 30007KT 9999 FEW004 15/12 Q1011
2026-03-22 15:30:00,METAR LPPR 221530Z 29004KT 260V350 9000 FEW004 15/13 Q1011
2026-03-22 15:00:00,METAR LPPR 221500Z 29005KT 270V340 7000 3000W BCFG FEW002 14/12 Q1011
2026-03-22 14:30:00,METAR LPPR 221430Z 32006KT 280V350 4500 0900W BCFG BR FEW002 SCT004 14/12 Q1011
2026-03-22 14:00:00,METAR LPPR 221400Z 30007KT 270V340 4500 0900W BCFG BR FEW002 SCT004 14/12 Q1012
2026-03-22 13:30:00,METAR LPPR 221330Z 27005KT 230V310 6000 2500W BCFG FEW002 14/12 Q1012
2026-03-22 12:30:00,METAR LPPR 221230Z 26003KT 220V310 7000 2500W BCFG FEW002 15/12 Q1012
2026-03-22 12:00:00,METAR LPPR 221200Z 30006KT 260V320 6000 2500W BCFG FEW002 15/13 Q1012
2026-03-22 11:30:00,METAR LPPR 221130Z VRB04KT 7000 3000W BCFG FEW002 15/12 Q1012
2026-03-22 10:30:00,METAR LPPR 221030Z 27004KT 220V310 7000 3000W BCFG FEW002 15/13 Q1012
2026-03-22 10:00:00,METAR LPPR 221000Z 23005KT 8000 3000W BCFG FEW002 15/12 Q1012
2026-03-22 09:30:00,METAR LPPR 220930Z 19003KT 160V250 9999 FEW002 14/11 Q1012
2026-03-22 08:30:00,METAR LPPR 220830Z 13003KT 090V160 CAVOK 12/10 Q1012
2026-03-22 08:00:00,METAR LPPR 220800Z 12003KT 060V170 CAVOK 11/10 Q1011
2026-03-22 07:30:00,METAR LPPR 220730Z 13003KT 110V180 9999 MIFG NSC 10/10 Q1011
2026-03-22 07:00:00,METAR LPPR 220700Z 13005KT 8000 MIFG NSC 10/10 Q1011
2026-03-22 06:30:00,METAR LPPR 220630Z 11003KT 070V150 9000 MIFG NSC 10/10 Q1011
2026-03-22 06:00:00,METAR LPPR 220600Z 00000KT 8000 FEW015 10/10 Q1011
2026-03-22 05:30:00,METAR LPPR 220530Z 16004KT 7000 FEW004 10/09 Q1010
2026-03-22 05:00:00,METAR LPPR 220500Z 15003KT 090V180 6000 FEW002 10/10 Q1010
2026-03-22 04:30:00,METAR LPPR 220430Z VRB02KT 0600 R17/0350N FG BKN002 10/10 Q1010
2026-03-22 03:30:00,METAR LPPR 220330Z 00000KT 3000 0900W R17/0550N BR PRFG SCT002 BKN005 11/11 Q1010
2026-03-22 03:00:00,METAR LPPR 220300Z 01004KT 0400 R17/0450N FG VV002 11/11 Q1010
2026-03-22 02:30:00,METAR LPPR 220230Z 04004KT 0150 R17/0450N FG VV001 12/11 Q1011
2026-03-22 02:00:00,METAR LPPR 220200Z 01003KT 0150 R17/0450D FG VV001 12/12 Q1011
2026-03-22 01:30:00,METAR LPPR 220130Z VRB02KT 0300 R17/P2000 FG VV002 12/11 Q1011
2026-03-22 01:00:00,METAR LPPR 220100Z 36002KT 5000 BR BKN002 11/11 Q1011
2026-03-22 00:30:00,METAR LPPR 220030Z 00000KT 6000 FEW002 BKN005 12/11 Q1011
2026-03-22 00:00:00,METAR LPPR 220000Z 00000KT 6000 FEW003 BKN005 12/11 Q1011
2026-03-21 23:30:00,METAR LPPR 212330Z 34002KT 7000 FEW003 BKN005 12/12 Q1011
2026-03-21 23:00:00,METAR LPPR 212300Z 00000KT 8000 SCT006 12/12 Q1011
2026-03-21 22:30:00,METAR LPPR 212230Z 00000KT 9000 FEW015 12/11 Q1011
2026-03-21 22:00:00,METAR LPPR 212200Z 00000KT 9000 NSC 13/12 Q1011
2026-03-21 21:30:00,METAR LPPR 212130Z 29002KT CAVOK 13/12 Q1011
2026-03-21 21:00:00,METAR LPPR 212100Z 32004KT CAVOK 13/12 Q1011
2026-03-21 20:30:00,METAR LPPR 212030Z 32004KT CAVOK 13/12 Q1011
2026-03-21 19:30:00,METAR LPPR 211930Z 34004KT CAVOK 14/12 Q1010
2026-03-21 19:00:00,METAR LPPR 211900Z 33005KT CAVOK 15/12 Q1010
2026-03-21 18:30:00,METAR LPPR 211830Z 33004KT CAVOK 15/12 Q1010
2026-03-21 18:00:00,METAR LPPR 211800Z 33006KT 300V360 CAVOK 15/11 Q1010
2026-03-21 17:30:00,METAR LPPR 211730Z 32007KT 270V350 CAVOK 16/11 Q1010
2026-03-21 17:00:00,METAR LPPR 211700Z 32007KT CAVOK 16/11 Q1010
2026-03-21 16:30:00,METAR LPPR 211630Z 31008KT 280V340 CAVOK 16/11 Q1009
2026-03-21 16:00:00,METAR LPPR 211600Z 30008KT CAVOK 16/11 Q1009
2026-03-21 15:30:00,METAR LPPR 211530Z 31009KT 9999 FEW048 17/11 Q1009
2026-03-21 15:00:00,METAR LPPR 211500Z 30007KT 270V330 9999 FEW048 17/11 Q1009
2026-03-21 14:30:00,METAR LPPR 211430Z 27006KT 240V330 9999 FEW048 18/11 Q1009
2026-03-21 14:00:00,METAR LPPR 211400Z 30006KT 270V350 9999 FEW045 18/10 Q1010
2026-03-21 13:30:00,METAR LPPR 211330Z 29007KT 9999 FEW045 18/10 Q1009
2026-03-21 13:00:00,METAR LPPR 211300Z 29006KT 260V320 CAVOK 19/10 Q1010
2026-03-21 12:30:00,METAR LPPR 211230Z 29005KT 240V330 CAVOK 18/10 Q1010
2026-03-21 12:00:00,METAR LPPR 211200Z VRB03KT CAVOK 18/10 Q1010
2026-03-21 11:30:00,METAR LPPR 211130Z 18004KT CAVOK 17/10 Q1010
2026-03-21 11:00:00,METAR LPPR 211100Z 18005KT 130V210 CAVOK 17/10 Q1010
2026-03-21 10:30:00,METAR LPPR 211030Z 17006KT 140V200 CAVOK 18/11 Q1010
2026-03-21 10:00:00,METAR LPPR 211000Z 17005KT CAVOK 16/12 Q1010
2026-03-21 09:30:00,METAR LPPR 210930Z 16006KT CAVOK 15/11 Q1010
2026-03-21 09:00:00,METAR LPPR 210900Z 11005KT 090V150 CAVOK 15/11 Q1010
2026-03-21 08:30:00,METAR LPPR 210830Z 11004KT 080V160 CAVOK 14/12 Q1010
2026-03-21 08:00:00,METAR LPPR 210800Z 12006KT CAVOK 13/11 Q1009
2026-03-21 07:30:00,METAR LPPR 210730Z 10004KT 040V140 CAVOK 13/11 Q1009
2026-03-21 07:00:00,METAR LPPR 210700Z VRB02KT CAVOK 12/11 Q1009
2026-03-21 06:30:00,METAR LPPR 210630Z 06004KT 360V110 CAVOK 13/11 Q1009
2026-03-21 06:00:00,METAR LPPR 210600Z 02003KT 360V060 9000 NSC 12/11 Q1009
2026-03-21 05:30:00,METAR LPPR 210530Z 00000KT CAVOK 12/11 Q1009
2026-03-21 05:00:00,METAR LPPR 210500Z 01002KT CAVOK 12/12 Q1009
2026-03-21 04:30:00,METAR LPPR 210430Z 01003KT 8000 NSC 12/12 Q1009
2026-03-21 04:00:00,METAR LPPR 210400Z 00000KT CAVOK 13/12 Q1009
2026-03-21 03:30:00,METAR LPPR 210330Z 00000KT CAVOK 13/13 Q1009
2026-03-21 03:00:00,METAR LPPR 210300Z 17001KT CAVOK 14/13 Q1009
2026-03-21 02:30:00,METAR LPPR 210230Z 00000KT CAVOK 13/12 Q1009
2026-03-21 02:00:00,METAR LPPR 210200Z 14003KT CAVOK 14/13 Q1009
2026-03-21 01:30:00,METAR LPPR 210130Z 21003KT 170V230 CAVOK 14/13 Q1009
2026-03-21 01:00:00,METAR LPPR 210100Z 11005KT CAVOK 14/13 Q1009
2026-03-21 00:30:00,METAR LPPR 210030Z 00000KT 8000 NSC 14/13 Q1009
2026-03-21 00:00:00,METAR LPPR 210000Z 02002KT 9000 NSC 14/13 Q1009
2026-03-20 23:30:00,METAR LPPR 202330Z 36003KT 9000 NSC 14/13 Q1009
2026-03-20 23:00:00,METAR LPPR 202300Z 01005KT 9999 -RA FEW045 14/13 Q1009
2026-03-20 22:30:00,METAR LPPR 202230Z 33003KT 9999 -RA FEW045 14/13 Q1009
2026-03-20 22:00:00,METAR LPPR 202200Z VRB03KT 9999 -RA FEW045 15/13 Q1009
2026-03-20 21:30:00,METAR LPPR 202130Z VRB02KT 9999 -RA FEW045 14/13 Q1009
2026-03-20 21:00:00,METAR LPPR 202100Z VRB02KT 9999 -RA NSC 15/13 Q1009
2026-03-20 20:30:00,METAR LPPR 202030Z VRB02KT 9999 -RA NSC 14/13 Q1009
2026-03-20 20:00:00,METAR LPPR 202000Z VRB01KT CAVOK 15/13 Q1009
2026-03-20 19:30:00,METAR LPPR 201930Z 32005KT CAVOK 15/12 Q1009
2026-03-20 18:30:00,METAR LPPR 201830Z 31004KT 270V340 9999 FEW047 16/12 Q1009
2026-03-20 18:00:00,METAR LPPR 201800Z 35004KT 9999 FEW027 SCT047 17/13 Q1008
2026-03-20 17:30:00,METAR LPPR 201730Z 33006KT 9999 FEW027 SCT043 17/12 Q1008
2026-03-20 17:00:00,METAR LPPR 201700Z 32005KT 300V360 9999 FEW030 SCT043 17/12 Q1008
2026-03-20 16:30:00,METAR LPPR 201630Z 29004KT 9999 FEW030 SCT043 17/12 Q1008
2026-03-20 16:00:00,METAR LPPR 201600Z 28004KT 240V310 9999 FEW030 SCT040 19/13 Q1008
2026-03-20 15:30:00,METAR LPPR 201530Z 29003KT 230V310 9999 FEW030 SCT043 18/13 Q1008
2026-03-20 15:00:00,METAR LPPR 201500Z 30004KT 260V350 9999 SCT030 17/12 Q1009
2026-03-20 14:30:00,METAR LPPR 201430Z 15004KT 080V210 9999 FEW028 19/11 Q1009
2026-03-20 14:00:00,METAR LPPR 201400Z VRB02KT 9999 FEW025 19/11 Q1009
2026-03-20 13:30:00,METAR LPPR 201330Z 15005KT 120V200 9999 FEW025 17/12 Q1009
2026-03-20 12:30:00,METAR LPPR 201230Z 13006KT 090V170 9999 FEW023 17/11 Q1010
2026-03-20 11:30:00,METAR LPPR 201130Z 12007KT 9999 FEW022 BKN037 16/13 Q1010
2026-03-20 11:00:00,METAR LPPR 201100Z 12007KT 100V160 9999 -RA FEW025 BKN037 15/13 Q1010
2026-03-20 10:30:00,METAR LPPR 201030Z 12006KT 090V160 9999 -RA FEW018TCU SCT040 15/13 Q1010
2026-03-20 10:00:00,METAR LPPR 201000Z 12005KT 9999 -RA FEW012 FEW018CB SCT045 14/13 Q1010 RERA
2026-03-20 09:30:00,METAR LPPR 200930Z 10005KT 080V150 7000 RA FEW012 FEW018CB BKN045 14/13 Q1010
2026-03-20 09:00:00,METAR LPPR 200900Z 12003KT 080V150 8000 RA FEW012 FEW018CB SCT035 13/13 Q1010
2026-03-20 08:30:00,METAR LPPR 200830Z 12004KT 090V170 7000 -RA FEW012 FEW018CB BKN045 13/13 Q1010
2026-03-20 08:00:00,METAR LPPR 200800Z 13003KT 100V160 9000 -RA FEW012 BKN040 13/13 Q1009 RERA
2026-03-20 07:30:00,METAR LPPR 200730Z 15003KT 9000 -RA FEW012 BKN040 13/12 Q1009 RERA
2026-03-20 06:30:00,METAR LPPR 200630Z 19003KT 9000 RA BKN040 13/13 Q1009
2026-03-20 06:00:00,METAR LPPR 200600Z 00000KT 9999 -RA FEW035 13/12 Q1008 RERA
2026-03-20 05:30:00,METAR LPPR 200530Z 00000KT 9999 RA NSC 14/12 Q1008
2026-03-20 05:00:00,METAR LPPR 200500Z 11004KT 9999 -RA NSC 14/12 Q1008
2026-03-20 04:30:00,METAR LPPR 200430Z 13007KT 9999 -RA NSC 14/12 Q1007
2026-03-20 04:00:00,METAR LPPR 200400Z 11006KT CAVOK 14/12 Q1007
2026-03-20 03:30:00,METAR LPPR 200330Z 16003KT 120V180 CAVOK 13/12 Q1007
2026-03-20 03:00:00,METAR LPPR 200300Z 21006KT CAVOK 14/12 Q1007
2026-03-20 02:30:00,METAR LPPR 200230Z 15006KT 100V180 CAVOK 14/12 Q1007
2026-03-20 02:00:00,METAR LPPR 200200Z 06010KT 030V090 CAVOK 14/12 Q1006
2026-03-20 01:30:00,METAR LPPR 200130Z 02012KT 9999 -RA FEW018 14/12 Q1005
2026-03-20 01:00:00,METAR LPPR 200100Z 04008KT 9999 -RA FEW018 13/12 Q1007
2026-03-20 00:30:00,METAR LPPR 200030Z 06006KT 9999 -RA FEW018 13/12 Q1008
2026-03-20 00:00:00,METAR LPPR 200000Z 07003KT 9999 -RA FEW018 13/12 Q1009
2026-03-19 23:30:00,METAR LPPR 192330Z 13003KT 090V170 9999 VCSH FEW018 14/13 Q1009
2026-03-19 23:00:00,METAR LPPR 192300Z 23005KT 210V270 9999 -RA FEW018 14/12 Q1009
2026-03-19 22:30:00,METAR LPPR 192230Z 22008KT 9999 -RA FEW022 SCT030 14/12 Q1010
2026-03-19 22:00:00,METAR LPPR 192200Z 21009KT 9999 -RA FEW022 SCT030 15/12 Q1010
2026-03-19 21:30:00,METAR LPPR 192130Z 22005KT 200V270 9999 -RA FEW040 15/12 Q1009
2026-03-19 21:00:00,METAR LPPR 192100Z 26003KT 220V310 CAVOK 15/11 Q1008
2026-03-19 20:30:00,METAR LPPR 192030Z 25005KT CAVOK 16/11 Q1008
2026-03-19 20:00:00,METAR LPPR 192000Z VRB02KT 9999 FEW030TCU 16/11 Q1008
2026-03-19 19:30:00,METAR LPPR 191930Z VRB01KT CAVOK 16/10 Q1008
2026-03-19 19:00:00,METAR LPPR 191900Z VRB02KT CAVOK 16/10 Q1007
2026-03-19 18:30:00,METAR LPPR 191830Z 34005KT 300V020 9999 FEW030 16/11 Q1007
2026-03-19 18:00:00,METAR LPPR 191800Z 32005KT 290V350 9999 FEW030 16/11 Q1007
2026-03-19 17:30:00,METAR LPPR 191730Z 34008KT 300V360 9999 FEW030 16/11 Q1007
2026-03-19 17:00:00,METAR LPPR 191700Z 27006KT 240V300 9999 FEW030 17/11 Q1007
2026-03-19 16:30:00,METAR LPPR 191630Z 24008KT 9999 FEW030 19/10 Q1006
2026-03-19 16:00:00,METAR LPPR 191600Z 12005KT 090V150 9999 FEW030 22/09 Q1006
2026-03-19 15:30:00,METAR LPPR 191530Z 13005KT 090V160 9999 FEW030TCU 22/08 Q1006
2026-03-19 15:00:00,METAR LPPR 191500Z 10006KT 070V140 9999 FEW027 FEW030TCU 22/08 Q1006
2026-03-19 14:30:00,METAR LPPR 191430Z 17005KT 140V200 9999 FEW030 21/09 Q1006
2026-03-19 14:00:00,METAR LPPR 191400Z 16003KT 070V210 9999 FEW030 22/10 Q1006
2026-03-19 13:30:00,METAR LPPR 191330Z VRB03KT CAVOK 21/08 Q1007
2026-03-19 13:00:00,METAR LPPR 191300Z VRB03KT CAVOK 20/11 Q1007
2026-03-19 12:30:00,METAR LPPR 191230Z 22003KT 170V290 CAVOK 19/11 Q1008
2026-03-19 12:00:00,METAR LPPR 191200Z 30004KT CAVOK 19/10 Q1008
2026-03-19 11:30:00,METAR LPPR 191130Z 24003KT 200V290 CAVOK 19/11 Q1008
2026-03-19 11:00:00,METAR LPPR 191100Z 25003KT 200V290 CAVOK 17/10 Q1008
2026-03-19 10:30:00,METAR LPPR 191030Z 19006KT CAVOK 18/09 Q1008
2026-03-19 10:00:00,METAR LPPR 191000Z 14008KT CAVOK 19/08 Q1008
2026-03-19 09:30:00,METAR LPPR 190930Z 11009KT 080V140 CAVOK 18/07 Q1007
2026-03-19 09:00:00,METAR LPPR 190900Z 10010KT CAVOK 18/07 Q1006
2026-03-19 08:30:00,METAR LPPR 190830Z 10010KT CAVOK 18/07 Q1006
2026-03-19 08:00:00,METAR LPPR 190800Z 10010KT CAVOK 18/07 Q1005
2026-03-19 07:30:00,METAR LPPR 190730Z 12009G19KT CAVOK 18/07 Q1005
2026-03-19 07:00:00,METAR LPPR 190700Z 09008KT 060V130 CAVOK 16/07 Q1005
2026-03-19 06:30:00,METAR LPPR 190630Z 10010KT CAVOK 17/07 Q1004
2026-03-19 06:00:00,METAR LPPR 190600Z 09007KT CAVOK 16/07 Q1004
2026-03-19 05:30:00,METAR LPPR 190530Z 09009KT CAVOK 17/07 Q1003
2026-03-19 05:00:00,METAR LPPR 190500Z 11009KT CAVOK 17/07 Q1003
2026-03-19 04:30:00,METAR LPPR 190430Z 09010KT CAVOK 17/07 Q1003
2026-03-19 04:00:00,METAR LPPR 190400Z 08010KT CAVOK 16/07 Q1003
2026-03-19 03:30:00,METAR LPPR 190330Z 06008KT CAVOK 16/08 Q1003
2026-03-19 03:00:00,METAR LPPR 190300Z 07007KT CAVOK 16/08 Q1004
2026-03-19 02:30:00,METAR LPPR 190230Z 08006KT CAVOK 16/08 Q1004
2026-03-19 02:00:00,METAR LPPR 190200Z 09006KT CAVOK 16/08 Q1005
2026-03-19 01:30:00,METAR LPPR 190130Z 09006KT CAVOK 16/08 Q1005
2026-03-19 01:00:00,METAR LPPR 190100Z 08007KT CAVOK 15/08 Q1005
2026-03-19 00:30:00,METAR LPPR 190030Z 10006KT CAVOK 16/08 Q1005
2026-03-19 00:00:00,METAR LPPR 190000Z 09006KT CAVOK 16/08 Q1005
2026-03-18 23:30:00,METAR LPPR 182330Z 08006KT CAVOK 16/08 Q1004
2026-03-18 23:00:00,METAR LPPR 182300Z 10005KT CAVOK 17/08 Q1004
2026-03-18 22:30:00,METAR LPPR 182230Z 12005KT 050V150 CAVOK 17/08 Q1004
2026-03-18 22:00:00,METAR LPPR 182200Z 09006KT CAVOK 17/08 Q1004
2026-03-18 21:30:00,METAR LPPR 182130Z 09005KT 050V130 CAVOK 17/08 Q1004
2026-03-18 21:00:00,METAR LPPR 182100Z 08005KT 050V110 CAVOK 17/09 Q1004
2026-03-18 20:30:00,METAR LPPR 182030Z 09004KT 030V130 CAVOK 18/09 Q1004
2026-03-18 20:00:00,METAR LPPR 182000Z 09004KT 9999 FEW030 18/09 Q1004
2026-03-18 19:30:00,METAR LPPR 181930Z 09004KT 050V130 9999 FEW030 18/09 Q1004
2026-03-18 19:00:00,METAR LPPR 181900Z 07003KT 050V130 CAVOK 18/09 Q1003
2026-03-18 18:30:00,METAR LPPR 181830Z 12006KT 090V150 9999 FEW030 20/08 Q1003
2026-03-18 18:00:00,METAR LPPR 181800Z 13006KT 080V150 9999 FEW030 20/08 Q1003
2026-03-18 17:30:00,METAR LPPR 181730Z 15011KT 9999 FEW018 SCT045 20/09 Q1003
2026-03-18 17:00:00,METAR LPPR 181700Z 13008KT 9999 FEW018 SCT045 20/09 Q1003
2026-03-18 16:30:00,METAR LPPR 181630Z 14009KT 090V170 9999 FEW018 SCT045 20/10 Q1002
2026-03-18 16:00:00,METAR LPPR 181600Z 14012KT 110V170 9999 FEW018 SCT045 20/10 Q1003
2026-03-18 15:30:00,METAR LPPR 181530Z 13009KT 100V160 9999 SCT018 20/10 Q1003
2026-03-18 15:00:00,METAR LPPR 181500Z 14011KT 110V180 9999 FEW018 SCT045 20/10 Q1003
2026-03-18 14:30:00,METAR LPPR 181430Z 15012KT 9999 FEW018 BKN045 20/10 Q1003
2026-03-18 14:00:00,METAR LPPR 181400Z 14012KT 110V170 9999 FEW018 SCT045 19/10 Q1004
2026-03-18 13:30:00,METAR LPPR 181330Z 16014KT 9999 FEW018 SCT040 20/10 Q1004
2026-03-18 13:00:00,METAR LPPR 181300Z 15012KT 9999 BKN040 19/11 Q1004
2026-03-18 12:30:00,METAR LPPR 181230Z 14011KT 100V160 9999 FEW018 SCT040 18/11 Q1004
2026-03-18 12:00:00,METAR LPPR 181200Z 13013KT 9999 FEW018 SCT040 18/11 Q1004
2026-03-18 11:30:00,METAR LPPR 181130Z 14013KT 9999 -RA BKN040 17/11 Q1005
2026-03-18 11:00:00,METAR LPPR 181100Z 14012KT 9999 BKN040 17/10 Q1005
2026-03-18 10:30:00,METAR LPPR 181030Z 14013KT 9999 -RA BKN042 17/11 Q1005
2026-03-18 10:00:00,METAR LPPR 181000Z 14013KT 9999 BKN040 17/10 Q1005
2026-03-18 09:30:00,METAR LPPR 180930Z 14009KT 9999 BKN040 16/10 Q1004
2026-03-18 09:00:00,METAR LPPR 180900Z 12006KT 070V130 9999 BKN045 16/11 Q1004
2026-03-18 08:30:00,METAR LPPR 180830Z 10006KT 060V140 9999 FEW048 15/11 Q1004
2026-03-18 08:00:00,METAR LPPR 180800Z 10004KT 9999 FEW048 15/11 Q1004
2026-03-18 07:30:00,METAR LPPR 180730Z 12006KT CAVOK 15/10 Q1004
2026-03-18 07:00:00,METAR LPPR 180700Z 10005KT 060V140 9999 FEW048 15/10 Q1003
2026-03-18 06:30:00,METAR LPPR 180630Z 11006KT 080V140 9999 SCT048 15/10 Q1004
2026-03-18 06:00:00,METAR LPPR 180600Z 10005KT 9999 BKN048 14/10 Q1004
2026-03-18 05:30:00,METAR LPPR 180530Z 11004KT 9999 BKN048 15/11 Q1004
2026-03-18 05:00:00,METAR LPPR 180500Z 13004KT 9999 BKN048 14/11 Q1004
2026-03-18 04:30:00,METAR LPPR 180430Z 13005KT 9999 FEW038 14/11 Q1004
2026-03-18 04:00:00,METAR LPPR 180400Z 13006KT 9999 FEW038 15/11 Q1004
2026-03-18 03:30:00,METAR LPPR 180330Z 14006KT 9999 FEW038 SCT042 14/11 Q1004
2026-03-18 03:00:00,METAR LPPR 180300Z 14003KT 100V160 9999 FEW038 SCT042 14/12 Q1005
2026-03-18 02:30:00,METAR LPPR 180230Z 00000KT 9000 SCT038 BKN042 14/13 Q1005
2026-03-18 02:00:00,METAR LPPR 180200Z 00000KT 8000 FEW018 SCT038 BKN042 14/12 Q1005
2026-03-18 01:30:00,METAR LPPR 180130Z 00000KT 8000 SCT018 BKN042 14/12 Q1006
2026-03-18 01:00:00,METAR LPPR 180100Z 17004KT 140V210 9999 BKN018 15/12 Q1006
2026-03-18 00:30:00,METAR LPPR 180030Z 15005KT 9999 BKN018 15/12 Q1006
2026-03-18 00:00:00,METAR LPPR 180000Z 16006KT 9999 SCT018 SCT048 15/12 Q1007
2026-03-17 23:30:00,METAR LPPR 172330Z 16007KT 9999 FEW020 SCT048 15/12 Q1007
2026-03-17 23:00:00,METAR LPPR 172300Z 19007KT 9999 SCT020 BKN048 15/12 Q1008
2026-03-17 22:30:00,METAR LPPR 172230Z 19008KT 9999 FEW017 BKN020 15/12 Q1008
2026-03-17 22:00:00,METAR LPPR 172200Z 18007KT 150V210 9999 SCT018 BKN022 16/11 Q1008
2026-03-17 21:30:00,METAR LPPR 172130Z 17004KT 9999 BKN022 15/09 Q1008
2026-03-17 21:00:00,METAR LPPR 172100Z 19003KT CAVOK 14/09 Q1007
2026-03-17 20:30:00,METAR LPPR 172030Z 23003KT 200V280 CAVOK 15/08 Q1008
2026-03-17 20:00:00,METAR LPPR 172000Z 21003KT CAVOK 15/09 Q1007
2026-03-17 19:30:00,METAR LPPR 171930Z 04004KT 340V110 CAVOK 15/08 Q1006
2026-03-17 19:00:00,METAR LPPR 171900Z 04004KT 010V080 CAVOK 15/09 Q1006
2026-03-17 18:30:00,METAR LPPR 171830Z 00000KT CAVOK 16/08 Q1006
2026-03-17 18:00:00,METAR LPPR 171800Z VRB01KT CAVOK 17/09 Q1006
2026-03-17 17:30:00,METAR LPPR 171730Z VRB02KT CAVOK 17/08 Q1006
2026-03-17 17:00:00,METAR LPPR 171700Z 29004KT 240V340 CAVOK 18/07 Q1006
2026-03-17 16:30:00,METAR LPPR 171630Z 27003KT 220V350 CAVOK 18/07 Q1006
2026-03-17 16:00:00,METAR LPPR 171600Z 26005KT 210V330 CAVOK 20/06 Q1006
2026-03-17 15:30:00,METAR LPPR 171530Z 29004KT 270V330 CAVOK 20/07 Q1006
2026-03-17 15:00:00,METAR LPPR 171500Z 23006KT 180V330 CAVOK 21/10 Q1006
2026-03-17 14:30:00,METAR LPPR 171430Z 23006KT 160V280 CAVOK 22/06 Q1007
2026-03-17 14:00:00,METAR LPPR 171400Z 21007KT 150V240 CAVOK 23/06 Q1007
2026-03-17 13:30:00,METAR LPPR 171330Z 23010KT CAVOK 23/08 Q1008
2026-03-17 13:00:00,METAR LPPR 171300Z 16007KT 100V190 CAVOK 24/07 Q1008
2026-03-17 12:30:00,METAR LPPR 171230Z 14009KT 110V170 CAVOK 23/06 Q1009
2026-03-17 12:00:00,METAR LPPR 171200Z 12009KT CAVOK 22/07 Q1010
2026-03-17 11:30:00,METAR LPPR 171130Z 13010KT 090V150 CAVOK 21/06 Q1010
2026-03-17 11:00:00,METAR LPPR 171100Z 12012KT CAVOK 20/05 Q1011
2026-03-17 10:30:00,METAR LPPR 171030Z 12011KT CAVOK 19/06 Q1011
2026-03-17 10:00:00,METAR LPPR 171000Z 11010KT CAVOK 18/06 Q1011
2026-03-17 09:30:00,METAR LPPR 170930Z 11010KT CAVOK 17/06 Q1012
2026-03-17 09:00:00,METAR LPPR 170900Z 11009KT CAVOK 16/06 Q1012
2026-03-17 08:30:00,METAR LPPR 170830Z 11010KT CAVOK 15/06 Q1012
2026-03-17 08:00:00,METAR LPPR 170800Z 11011KT CAVOK 14/06 Q1012
2026-03-17 07:30:00,METAR LPPR 170730Z 11010KT CAVOK 13/06 Q1012
2026-03-17 07:00:00,METAR LPPR 170700Z 11010KT CAVOK 13/06 Q1012
2026-03-17 06:30:00,METAR LPPR 170630Z 12010KT CAVOK 13/06 Q1012
2026-03-17 06:00:00,METAR LPPR 170600Z 11010KT CAVOK 13/06 Q1012
2026-03-17 05:30:00,METAR LPPR 170530Z 11009KT 080V140 CAVOK 14/06 Q1013
2026-03-17 05:00:00,METAR LPPR 170500Z 11010KT CAVOK 14/06 Q1013
2026-03-17 04:30:00,METAR LPPR 170430Z 11010KT CAVOK 14/06 Q1013
2026-03-17 04:00:00,METAR LPPR 170400Z 11009KT CAVOK 14/06 Q1013
2026-03-17 03:30:00,METAR LPPR 170330Z 11009KT CAVOK 14/07 Q1013
2026-03-17 03:00:00,METAR LPPR 170300Z 11009KT CAVOK 14/07 Q1014
2026-03-17 02:30:00,METAR LPPR 170230Z 11009KT CAVOK 14/07 Q1014
2026-03-17 02:00:00,METAR LPPR 170200Z 12007KT CAVOK 14/08 Q1015
2026-03-17 01:30:00,METAR LPPR 170130Z 11007KT CAVOK 14/08 Q1015
2026-03-17 01:00:00,METAR LPPR 170100Z 11006KT CAVOK 13/08 Q1015
2026-03-17 00:30:00,METAR LPPR 170030Z 11006KT CAVOK 13/08 Q1016
2026-03-17 00:00:00,METAR LPPR 170000Z 11008KT CAVOK 16/08 Q1016
2026-03-16 23:30:00,METAR LPPR 162330Z 10008KT CAVOK 16/08 Q1016
2026-03-16 23:00:00,METAR LPPR 162300Z 10007KT CAVOK 14/09 Q1016
2026-03-16 22:30:00,METAR LPPR 162230Z 07003KT 050V110 CAVOK 14/08 Q1017
2026-03-16 22:00:00,METAR LPPR 162200Z VRB01KT CAVOK 13/08 Q1017
2026-03-16 21:30:00,METAR LPPR 162130Z VRB01KT CAVOK 13/08 Q1017
2026-03-16 21:00:00,METAR LPPR 162100Z 06002KT CAVOK 13/09 Q1018
2026-03-16 20:30:00,METAR LPPR 162030Z 06004KT 360V090 CAVOK 14/09 Q1018
2026-03-16 20:00:00,METAR LPPR 162000Z 05004KT 020V100 CAVOK 14/10 Q1018
2026-03-16 19:30:00,METAR LPPR 161930Z 04004KT 010V100 CAVOK 14/10 Q1018
2026-03-16 19:00:00,METAR LPPR 161900Z 33003KT 300V360 CAVOK 16/09 Q1018
2026-03-16 18:30:00,METAR LPPR 161830Z VRB02KT CAVOK 17/09 Q1018
2026-03-16 18:00:00,METAR LPPR 161800Z 32005KT 280V350 CAVOK 18/09 Q1018
2026-03-16 17:30:00,METAR LPPR 161730Z 32005KT 290V350 CAVOK 18/09 Q1018
2026-03-16 17:00:00,METAR LPPR 161700Z 31006KT 280V340 CAVOK 18/09 Q1018
2026-03-16 16:30:00,METAR LPPR 161630Z 29005KT 270V330 CAVOK 19/10 Q1018
2026-03-16 16:00:00,METAR LPPR 161600Z 30005KT 270V330 CAVOK 19/10 Q1019
2026-03-16 15:30:00,METAR LPPR 161530Z 30006KT 270V330 CAVOK 19/10 Q1019
2026-03-16 15:00:00,METAR LPPR 161500Z 28005KT 250V310 CAVOK 20/10 Q1019
2026-03-16 14:30:00,METAR LPPR 161430Z 26006KT 230V300 CAVOK 21/11 Q1019
2026-03-16 14:00:00,METAR LPPR 161400Z VRB05KT CAVOK 23/07 Q1019
2026-03-16 13:30:00,METAR LPPR 161330Z VRB02KT CAVOK 22/08 Q1020
2026-03-16 13:00:00,METAR LPPR 161300Z 10005KT 070V200 CAVOK 21/08 Q1020
2026-03-16 12:30:00,METAR LPPR 161230Z 09008KT 060V140 CAVOK 21/08 Q1021
2026-03-16 12:00:00,METAR LPPR 161200Z 09008KT 060V120 CAVOK 21/09 Q1021
2026-03-16 11:30:00,METAR LPPR 161130Z 10009KT CAVOK 19/08 Q1021
2026-03-16 11:00:00,METAR LPPR 161100Z 10011KT 070V150 CAVOK 19/08 Q1022
2026-03-16 10:30:00,METAR LPPR 161030Z 10010KT CAVOK 18/08 Q1022
2026-03-16 10:00:00,METAR LPPR 161000Z 10011KT CAVOK 18/08 Q1022
2026-03-16 09:30:00,METAR LPPR 160930Z 06006KT 010V120 CAVOK 16/09 Q1022
2026-03-16 09:00:00,METAR LPPR 160900Z 05007KT 340V090 CAVOK 15/08 Q1022
2026-03-16 08:30:00,METAR LPPR 160830Z 03006KT CAVOK 13/09 Q1022
2026-03-16 08:00:00,METAR LPPR 160800Z 07005KT 040V100 CAVOK 13/09 Q1021
2026-03-16 07:30:00,METAR LPPR 160730Z 05005KT CAVOK 09/07 Q1022
2026-03-16 07:00:00,METAR LPPR 160700Z 03006KT CAVOK 08/06 Q1021
2026-03-16 06:30:00,METAR LPPR 160630Z 03006KT 330V080 CAVOK 09/07 Q1021
2026-03-16 06:00:00,METAR LPPR 160600Z 06005KT CAVOK 09/07 Q1021
2026-03-16 05:30:00,METAR LPPR 160530Z 07004KT CAVOK 09/06 Q1021
2026-03-16 05:00:00,METAR LPPR 160500Z 04003KT 010V090 CAVOK 09/08 Q1021
2026-03-16 04:30:00,METAR LPPR 160430Z 03004KT CAVOK 10/08 Q1021
2026-03-16 04:00:00,METAR LPPR 160400Z 06003KT 020V090 CAVOK 09/07 Q1021
2026-03-16 03:30:00,METAR LPPR 160330Z 00000KT CAVOK 09/07 Q1021
2026-03-16 03:00:00,METAR LPPR 160300Z VRB02KT CAVOK 09/08 Q1021
2026-03-16 02:30:00,METAR LPPR 160230Z 01003KT CAVOK 10/08 Q1021
2026-03-16 02:00:00,METAR LPPR 160200Z 01003KT 330V070 CAVOK 10/08 Q1021
2026-03-16 01:30:00,METAR LPPR 160130Z 35005KT CAVOK 11/08 Q1021
2026-03-16 01:00:00,METAR LPPR 160100Z 35004KT CAVOK 11/09 Q1022
2026-03-16 00:30:00,METAR LPPR 160030Z 01005KT CAVOK 11/09 Q1022
2026-03-16 00:00:00,METAR LPPR 160000Z 09003KT 360V140 CAVOK 12/09 Q1022
2026-03-15 23:30:00,METAR LPPR 152330Z 35010KT CAVOK 12/10 Q1022
2026-03-15 23:00:00,METAR LPPR 152300Z 35007KT CAVOK 11/10 Q1022
2026-03-15 22:30:00,METAR LPPR 152230Z 01006KT CAVOK 11/10 Q1022
2026-03-15 22:00:00,METAR LPPR 152200Z 33006KT CAVOK 12/11 Q1022
2026-03-15 21:30:00,METAR LPPR 152130Z 35007KT CAVOK 12/11 Q1021
2026-03-15 21:00:00,METAR LPPR 152100Z 35012KT CAVOK 13/11 Q1021
2026-03-15 20:30:00,METAR LPPR 152030Z 34010KT CAVOK 13/11 Q1021
2026-03-15 20:00:00,METAR LPPR 152000Z 35009KT CAVOK 13/11 Q1021
2026-03-15 19:30:00,METAR LPPR 151930Z 35009KT CAVOK 13/11 Q1020
2026-03-15 19:00:00,METAR LPPR 151900Z 34011KT CAVOK 13/11 Q1020
2026-03-15 18:30:00,METAR LPPR 151830Z 34012KT CAVOK 14/11 Q1020
2026-03-15 18:00:00,METAR LPPR 151800Z 34015KT CAVOK 14/11 Q1020
2026-03-15 17:30:00,METAR LPPR 151730Z 34015KT CAVOK 15/11 Q1019
2026-03-15 17:00:00,METAR LPPR 151700Z 34016KT CAVOK 15/11 Q1019
2026-03-15 16:30:00,METAR LPPR 151630Z 34009KT 300V010 CAVOK 16/11 Q1019
2026-03-15 16:00:00,METAR LPPR 151600Z 32009KT CAVOK 16/11 Q1020
2026-03-15 15:30:00,METAR LPPR 151530Z 32011KT CAVOK 16/11 Q1020
2026-03-15 15:00:00,METAR LPPR 151500Z 33013KT 9999 FEW020 16/11 Q1020
2026-03-15 14:30:00,METAR LPPR 151430Z 32011KT 290V360 9999 FEW020 16/11 Q1020
2026-03-15 14:00:00,METAR LPPR 151400Z 31009KT 270V340 9999 FEW020 16/11 Q1020
2026-03-15 13:30:00,METAR LPPR 151330Z 32012KT 9999 FEW017 15/10 Q1020
2026-03-15 13:00:00,METAR LPPR 151300Z 31013KT 9999 FEW017 15/10 Q1021
2026-03-15 12:30:00,METAR LPPR 151230Z 32011KT 290V350 9999 FEW015 15/10 Q1021
2026-03-15 12:00:00,METAR LPPR 151200Z 32012KT 9999 FEW015 15/09 Q1021
2026-03-15 11:30:00,METAR LPPR 151130Z 35013KT 9999 FEW015 15/07 Q1021
2026-03-15 11:00:00,METAR LPPR 151100Z 36014KT 340V040 9999 FEW017 14/07 Q1021
2026-03-15 10:30:00,METAR LPPR 151030Z 35014KT 9999 FEW020 14/07 Q1021
2026-03-15 10:00:00,METAR LPPR 151000Z 36013KT 9999 FEW020 13/07 Q1021
2026-03-15 09:30:00,METAR LPPR 150930Z 36013KT 9999 FEW020 12/07 Q1021
2026-03-15 09:00:00,METAR LPPR 150900Z 36013KT 9999 FEW020 12/07 Q1020
2026-03-15 08:30:00,METAR LPPR 150830Z 36013KT 9999 FEW020 11/07 Q1020
2026-03-15 08:00:00,METAR LPPR 150800Z 36010KT 9999 FEW020 10/06 Q1020
