Time_recorded,METAR
2026-05-02 15:20:00,METAR LIRZ 021520Z AUTO 36010KT 340V040 9999 NCD 22/04 Q1021
2026-05-02 14:50:00,METAR LIRZ 021450Z AUTO 02011KT 340V050 9999 NCD 22/04 Q1021
2026-05-02 14:20:00,METAR LIRZ 021420Z AUTO 02009G19KT 330V070 9999 NCD 22/04 Q1021
2026-05-02 13:50:00,METAR LIRZ 021350Z AUTO 03007KT 330V120 9999 NCD 22/04 Q1022
2026-05-02 13:20:00,METAR LIRZ 021320Z AUTO 06010KT 010V100 9999 NCD 22/02 Q1022
2026-05-02 12:50:00,METAR LIRZ 021250Z AUTO 09006KT 040V130 9999 NCD 22/01 Q1022
2026-05-02 12:20:00,METAR LIRZ 021220Z AUTO 03008KT 350V110 9999 NCD 21/04 Q1023
2026-05-02 11:50:00,METAR LIRZ 021150Z AUTO 03006KT 330V090 9999 NCD 21/04 Q1023
2026-05-02 11:20:00,METAR LIRZ 021120Z AUTO 04008KT 360V070 9999 NCD 21/04 Q1023
2026-05-02 10:50:00,METAR LIRZ 021050Z AUTO 04007KT 360V100 9999 NCD 20/02 Q1024
2026-05-02 10:20:00,METAR LIRZ 021020Z AUTO 04011KT 350V090 9999 NCD 20/02 Q1024
2026-05-02 09:50:00,METAR LIRZ 020950Z AUTO 02013KT 9999 NCD 20/04 Q1024
2026-05-02 09:20:00,METAR LIRZ 020920Z AUTO 02011KT 340V050 9999 NCD 19/02 Q1024
2026-05-02 08:50:00,METAR LIRZ 020850Z AUTO 04010KT 360V070 9999 NCD 19/03 Q1025
2026-05-02 08:20:00,METAR LIRZ 020820Z AUTO 04012KT 9999 NCD 18/02 Q1025
2026-05-02 07:50:00,METAR LIRZ 020750Z AUTO 02006KT 340V090 9999 NCD 17/04 Q1025
2026-05-02 07:20:00,METAR LIRZ 020720Z AUTO 33004KT 270V040 9999 NCD 15/03 Q1025
2026-05-02 06:50:00,METAR LIRZ 020650Z AUTO VRB02KT 9999 NCD 12/02 Q1025
2026-05-02 06:20:00,METAR LIRZ 020620Z AUTO VRB02KT 9999 NCD 09/02 Q1026
2026-05-02 05:50:00,METAR LIRZ 020550Z AUTO 22003KT 130V290 9999 NCD 07/02 Q1026
2026-05-02 05:20:00,METAR LIRZ 020520Z AUTO VRB01KT 9999 NCD 06/01 Q1025
2026-05-02 04:50:00,METAR LIRZ 020450Z AUTO VRB02KT 9999 NCD 03/01 Q1026
2026-05-02 04:20:00,METAR LIRZ 020420Z AUTO VRB04KT 9999 NCD 03/M00 Q1025
2026-05-02 03:50:00,METAR LIRZ 020350Z AUTO 36008KT 9999 NCD 03/00 Q1025
2026-05-02 03:20:00,METAR LIRZ 020320Z AUTO 01005KT 9999 NCD 03/M00 Q1025
2026-05-02 02:50:00,METAR LIRZ 020250Z AUTO 35004KT 330V040 9999 NCD 03/M00 Q1025
2026-05-02 02:20:00,METAR LIRZ 020220Z AUTO 35003KT 9999 NCD 03/M01 Q1026
2026-05-02 01:50:00,METAR LIRZ 020150Z AUTO 28003KT 250V350 9999 NCD 04/M00 Q1026
2026-05-02 01:20:00,METAR LIRZ 020120Z AUTO 33003KT 290V050 9999 NCD 05/M00 Q1025
2026-05-02 00:50:00,METAR LIRZ 020050Z AUTO 02008KT 9999 NCD 05/M00 Q1025
2026-05-02 00:20:00,METAR LIRZ 020020Z AUTO 31004KT 290V350 9999 NCD 06/M01 Q1026
2026-05-01 23:50:00,METAR LIRZ 012350Z AUTO 35008KT 9999 NCD 06/M01 Q1026
2026-05-01 23:20:00,METAR LIRZ 012320Z AUTO 35004KT 9999 NCD 05/M01 Q1026
2026-05-01 22:50:00,METAR LIRZ 012250Z AUTO VRB04KT 9999 NCD 06/M01 Q1026
2026-05-01 22:20:00,METAR LIRZ 012220Z AUTO 32003KT 220V360 9999 NCD 06/M01 Q1026
2026-05-01 21:50:00,METAR LIRZ 012150Z AUTO 01007KT 9999 NCD 07/M01 Q1026
2026-05-01 21:20:00,METAR LIRZ 012120Z AUTO 36006KT 9999 NCD 08/M02 Q1025
2026-05-01 20:50:00,METAR LIRZ 012050Z AUTO 33003KT 9999 NCD 11/M04 Q1025
2026-05-01 20:20:00,METAR LIRZ 012020Z AUTO 01005KT 340V060 9999 NCD 11/M03 Q1025
2026-05-01 19:50:00,METAR LIRZ 011950Z AUTO 01006KT 9999 NCD 10/M02 Q1025
2026-05-01 19:20:00,METAR LIRZ 011920Z AUTO 02009KT 360V070 9999 NCD 12/M04 Q1024
2026-05-01 18:50:00,METAR LIRZ 011850Z AUTO 02009KT 360V060 9999 NCD 13/M04 Q1024
2026-05-01 18:20:00,METAR LIRZ 011820Z AUTO 04014KT 9999 NCD 13/M04 Q1023
2026-05-01 17:50:00,METAR LIRZ 011750Z AUTO 04014KT 9999 NCD 14/M03 Q1023
2026-05-01 17:20:00,METAR LIRZ 011720Z AUTO 04013KT 9999 NCD 15/M02 Q1023
2026-05-01 16:50:00,METAR LIRZ 011650Z AUTO 03013KT 9999 NCD 16/M02 Q1023
2026-05-01 16:20:00,METAR LIRZ 011620Z AUTO 03011KT 9999 NCD 16/M01 Q1023
2026-05-01 15:50:00,METAR LIRZ 011550Z AUTO 03013KT 9999 NCD 17/M01 Q1023
2026-05-01 15:20:00,METAR LIRZ 011520Z AUTO 02012KT 350V050 9999 NCD 17/00 Q1023
2026-05-01 14:50:00,METAR LIRZ 011450Z AUTO 03013KT 9999 NCD 17/01 Q1023
2026-05-01 14:20:00,METAR LIRZ 011420Z AUTO 03014KT 9999 NCD 17/00 Q1023
2026-05-01 13:50:00,METAR LIRZ 011350Z AUTO 03014KT 9999 NCD 18/01 Q1023
2026-05-01 13:20:00,METAR LIRZ 011320Z AUTO 02015KT 9999 NCD 17/02 Q1023
2026-05-01 12:50:00,METAR LIRZ 011250Z AUTO 03014KT 9999 NCD 18/02 Q1024
2026-05-01 12:20:00,METAR LIRZ 011220Z AUTO 04015KT 9999 NCD 17/01 Q1024
2026-05-01 11:50:00,METAR LIRZ 011150Z AUTO 02015KT 350V050 9999 NCD 18/02 Q1024
2026-05-01 11:20:00,METAR LIRZ 011120Z AUTO 03014KT 010V070 9999 FEW062/// 17/02 Q1024
2026-05-01 10:50:00,METAR LIRZ 011050Z AUTO 03013KT 350V050 9999 FEW060/// 16/02 Q1024
2026-05-01 10:20:00,METAR LIRZ 011020Z AUTO 03014KT 9999 FEW056/// 16/02 Q1025
2026-05-01 09:50:00,METAR LIRZ 010950Z AUTO 05014KT 020V080 9999 BKN058/// 15/02 Q1025
2026-05-01 09:20:00,METAR LIRZ 010920Z AUTO 04013KT 010V090 9999 BKN056/// 14/02 Q1025
2026-05-01 08:50:00,METAR LIRZ 010850Z AUTO 04014KT 9999 FEW054/// 14/02 Q1025
2026-05-01 08:20:00,METAR LIRZ 010820Z AUTO 04009KT 360V080 9999 FEW054/// 14/02 Q1025
2026-05-01 07:50:00,METAR LIRZ 010750Z AUTO 04013KT 9999 NCD 14/02 Q1025
2026-05-01 07:20:00,METAR LIRZ 010720Z AUTO 04012KT 9999 NCD 14/02 Q1024
2026-05-01 06:50:00,METAR LIRZ 010650Z AUTO 05013KT 9999 NCD 13/03 Q1024
2026-05-01 05:20:00,METAR LIRZ 010520Z AUTO 31005KT 9999 NCD 10/02 Q1024
2026-05-01 04:50:00,METAR LIRZ 010450Z AUTO 33006KT 300V010 9999 NCD 08/02 Q1024
2026-05-01 04:20:00,METAR LIRZ 010420Z AUTO 02007KT 320V080 9999 NCD 08/03 Q1023
2026-05-01 03:50:00,METAR LIRZ 010350Z AUTO 36007KT 9999 NCD 06/02 Q1023
2026-05-01 03:20:00,METAR LIRZ 010320Z AUTO 02008KT 9999 NCD 06/02 Q1023
2026-05-01 02:50:00,METAR LIRZ 010250Z AUTO 02011KT 9999 NCD 07/02 Q1023
2026-05-01 02:20:00,METAR LIRZ 010220Z AUTO 01010KT 9999 NCD 08/02 Q1023
2026-05-01 01:50:00,METAR LIRZ 010150Z AUTO 02008KT 350V050 9999 NCD 09/02 Q1023
2026-05-01 01:20:00,METAR LIRZ 010120Z AUTO 01006KT 330V050 9999 NCD 08/02 Q1023
2026-05-01 00:50:00,METAR LIRZ 010050Z AUTO 02005KT 350V050 9999 NCD 09/02 Q1023
2026-05-01 00:20:00,METAR LIRZ 010020Z AUTO 01007KT 9999 NCD 08/02 Q1023
2026-04-30 23:50:00,METAR LIRZ 302350Z AUTO 03011KT 9999 NCD 09/02 Q1023
2026-04-30 23:20:00,METAR LIRZ 302320Z AUTO 02006KT 9999 NCD 08/03 Q1023
2026-04-30 22:50:00,METAR LIRZ 302250Z AUTO 02011KT 9999 NCD 08/02 Q1023
2026-04-30 22:20:00,METAR LIRZ 302220Z AUTO 02013KT 9999 NCD 09/02 Q1022
2026-04-30 21:50:00,METAR LIRZ 302150Z AUTO 02010KT 9999 NCD 09/02 Q1022
2026-04-30 21:20:00,METAR LIRZ 302120Z AUTO 03012KT 9999 NCD 10/02 Q1022
2026-04-30 20:50:00,METAR LIRZ 302050Z AUTO 02010KT 9999 NCD 10/02 Q1022
2026-04-30 20:20:00,METAR LIRZ 302020Z AUTO 03015KT 9999 NCD 11/02 Q1022
2026-04-30 19:50:00,METAR LIRZ 301950Z AUTO 03014KT 9999 NCD 11/02 Q1022
2026-04-30 19:20:00,METAR LIRZ 301920Z AUTO 02013KT 9999 NCD 11/02 Q1022
2026-04-30 18:50:00,METAR LIRZ 301850Z AUTO 03014KT 9999 NCD 12/01 Q1021
2026-04-30 18:20:00,METAR LIRZ 301820Z AUTO 02013KT 9999 NCD 12/01 Q1021
2026-04-30 17:50:00,METAR LIRZ 301750Z AUTO 02015KT 9999 NCD 13/01 Q1021
2026-04-30 17:20:00,METAR LIRZ 301720Z AUTO 02018KT 9999 NCD 14/01 Q1020
2026-04-30 16:50:00,METAR LIRZ 301650Z AUTO 03019KT 9999 NCD 15/01 Q1020
2026-04-30 16:20:00,METAR LIRZ 301620Z AUTO 03018KT 9999 NCD 16/02 Q1020
2026-04-30 14:50:00,METAR LIRZ 301450Z AUTO 03018KT 9999 NCD 17/03 Q1020
2026-04-30 14:20:00,METAR LIRZ 301420Z AUTO 03019KT 9999 NCD 17/04 Q1020
2026-04-30 13:50:00,METAR LIRZ 301350Z AUTO 04018KT 9999 NCD 18/05 Q1020
2026-04-30 13:20:00,METAR LIRZ 301320Z AUTO 03018KT 9999 NCD 18/06 Q1020
2026-04-30 12:50:00,METAR LIRZ 301250Z AUTO 02019KT 9999 NCD 18/07 Q1020
2026-04-30 12:20:00,METAR LIRZ 301220Z AUTO 03018KT 9999 NCD 18/05 Q1020
2026-04-30 11:50:00,METAR LIRZ 301150Z AUTO 03019KT 9999 NCD 18/05 Q1020
2026-04-30 11:20:00,METAR LIRZ 301120Z AUTO 02019KT 9999 NCD 18/06 Q1020
2026-04-30 10:50:00,METAR LIRZ 301050Z AUTO 03018KT 360V060 9999 NCD 18/06 Q1020
2026-04-30 10:20:00,METAR LIRZ 301020Z AUTO 03018KT 9999 NCD 18/07 Q1020
2026-04-30 09:50:00,METAR LIRZ 300950Z AUTO 02018KT 9999 FEW090/// 18/07 Q1020
2026-04-30 09:20:00,METAR LIRZ 300920Z AUTO 03016KT 9999 FEW041/// 17/06 Q1020
2026-04-30 08:50:00,METAR LIRZ 300850Z AUTO 03020KT 9999 BKN039/// BKN085/// 16/08 Q1020
2026-04-30 08:20:00,METAR LIRZ 300820Z AUTO 03017KT 9999 SCT083/// 16/08 Q1020
2026-04-30 07:50:00,METAR LIRZ 300750Z AUTO 04016KT 9999 BKN079/// BKN095/// 15/09 Q1020
2026-04-30 07:20:00,METAR LIRZ 300720Z AUTO 03014KT 9999 BKN079/// 16/09 Q1020
2026-04-30 06:50:00,METAR LIRZ 300650Z AUTO 04011KT 9999 SCT075/// 15/09 Q1020
2026-04-30 06:20:00,METAR LIRZ 300620Z AUTO 02011KT 9999 NCD 14/09 Q1019
2026-04-30 05:50:00,METAR LIRZ 300550Z AUTO 03012KT 9999 FEW034/// 14/08 Q1019
2026-04-30 05:20:00,METAR LIRZ 300520Z AUTO 02012KT 9999 NCD 14/08 Q1019
2026-04-30 04:50:00,METAR LIRZ 300450Z AUTO 02009KT 9999 SCT081/// 14/09 Q1018
2026-04-30 04:20:00,METAR LIRZ 300420Z AUTO 02009KT 9999 BKN060/// BKN093/// 14/09 Q1018
2026-04-30 03:50:00,METAR LIRZ 300350Z AUTO 02010KT 9999 BKN054/// BKN086/// 15/09 Q1018
2026-04-30 03:20:00,METAR LIRZ 300320Z AUTO 02009KT 9999 BKN053/// BKN085/// 15/09 Q1018
2026-04-30 02:50:00,METAR LIRZ 300250Z AUTO 01010KT 9999 BKN086/// 15/09 Q1018
2026-04-30 02:20:00,METAR LIRZ 300220Z AUTO 02008KT 9999 BKN086/// 15/09 Q1018
2026-04-30 01:50:00,METAR LIRZ 300150Z AUTO 01011KT 9999 BKN087/// 15/10 Q1017
2026-04-30 01:20:00,METAR LIRZ 300120Z AUTO 03010KT 360V060 9999 OVC086/// 16/12 Q1017
2026-04-30 00:50:00,METAR LIRZ 300050Z AUTO 02012KT 9999 OVC086/// 16/12 Q1017
2026-04-30 00:20:00,METAR LIRZ 300020Z AUTO 01008KT 9999 BKN086/// 16/12 Q1017
2026-04-29 23:50:00,METAR LIRZ 292350Z AUTO 36007KT 9999 BKN088/// 14/10 Q1017
2026-04-29 23:20:00,METAR LIRZ 292320Z AUTO 36009KT 9999 NCD 13/09 Q1017
2026-04-29 22:50:00,METAR LIRZ 292250Z AUTO 34006KT 9999 NCD 13/09 Q1017
2026-04-29 22:20:00,METAR LIRZ 292220Z AUTO 36007KT 9999 FEW069/// BKN100/// BKN110/// 14/10 Q1016
2026-04-29 21:50:00,METAR LIRZ 292150Z AUTO 02007KT 9999 BKN096/// 14/10 Q1016
2026-04-29 21:20:00,METAR LIRZ 292120Z AUTO 01006KT 9999 FEW066/// BKN099/// BKN130/// 14/10 Q1016
2026-04-29 20:50:00,METAR LIRZ 292050Z AUTO 04005KT 9999 BKN077/// BKN110/// 15/11 Q1016
2026-04-29 20:20:00,METAR LIRZ 292020Z AUTO 36004KT 260V020 9999 BKN100/// 15/11 Q1016
2026-04-29 19:50:00,METAR LIRZ 291950Z AUTO VRB03KT 9999 BKN096/// 18/10 Q1016
2026-04-29 19:20:00,METAR LIRZ 291920Z AUTO 26004KT 220V280 9999 -RA BKN079/// BKN110/// 19/08 Q1015
2026-04-29 18:50:00,METAR LIRZ 291850Z AUTO VRB02KT 9999 BKN096/// 20/08 Q1015
2026-04-29 18:20:00,METAR LIRZ 291820Z AUTO 24008KT 9999 BKN088/// 21/04 Q1015
2026-04-29 17:50:00,METAR LIRZ 291750Z AUTO VRB01KT 9999 BKN086/// 22/05 Q1014
2026-04-29 17:20:00,METAR LIRZ 291720Z AUTO 29006KT 260V320 9999 BKN086/// BKN100/// 22/05 Q1014
2026-04-29 16:50:00,METAR LIRZ 291650Z AUTO 24008KT 9999 SCT089/// 22/04 Q1014
2026-04-29 16:20:00,METAR LIRZ 291620Z AUTO 23006KT 9999 BKN089/// 23/05 Q1014
2026-04-29 15:50:00,METAR LIRZ 291550Z AUTO 28003KT 210V360 9999 SCT088/// 25/02 Q1014
2026-04-29 15:20:00,METAR LIRZ 291520Z AUTO VRB03KT 9999 BKN089/// 26/01 Q1014
2026-04-29 14:50:00,METAR LIRZ 291450Z AUTO 22006KT 9999 BKN093/// 25/02 Q1014
2026-04-29 14:20:00,METAR LIRZ 291420Z AUTO VRB03KT 9999 SCT096/// 26/04 Q1014
2026-04-29 13:50:00,METAR LIRZ 291350Z AUTO VRB03KT 9999 FEW091/// 26/05 Q1014
2026-04-29 13:20:00,METAR LIRZ 291320Z AUTO VRB03KT 9999 NCD 25/04 Q1014
2026-04-29 12:50:00,METAR LIRZ 291250Z AUTO 27006KT 190V320 9999 FEW089/// 25/05 Q1015
2026-04-29 12:20:00,METAR LIRZ 291220Z AUTO 27006KT 210V330 9999 NCD 25/04 Q1015
2026-04-29 11:50:00,METAR LIRZ 291150Z AUTO 26008KT 190V300 9999 FEW090/// 25/M01 Q1015
2026-04-29 11:20:00,METAR LIRZ 291120Z AUTO 22005KT 130V300 9999 NCD 24/02 Q1015
2026-04-29 10:50:00,METAR LIRZ 291050Z AUTO VRB05KT 9999 FEW088/// 23/05 Q1015
2026-04-29 10:20:00,METAR LIRZ 291020Z AUTO VRB03KT 9999 NCD 23/06 Q1016
2026-04-29 09:50:00,METAR LIRZ 290950Z AUTO VRB02KT 9999 NCD 22/07 Q1016
2026-04-29 09:20:00,METAR LIRZ 290920Z AUTO VRB02KT 9999 NCD 20/08 Q1016
2026-04-29 08:50:00,METAR LIRZ 290850Z AUTO VRB02KT 9999 NCD 19/09 Q1016
2026-04-29 08:20:00,METAR LIRZ 290820Z AUTO VRB02KT 9999 NCD 18/08 Q1016
2026-04-29 07:50:00,METAR LIRZ 290750Z AUTO VRB01KT 9999 NCD 17/08 Q1017
2026-04-29 07:20:00,METAR LIRZ 290720Z AUTO VRB01KT 9999 NCD 15/08 Q1017
2026-04-29 06:50:00,METAR LIRZ 290650Z AUTO VRB02KT 9999 NCD 14/09 Q1017
2026-04-29 06:20:00,METAR LIRZ 290620Z AUTO 06003KT 020V120 9999 NCD 12/08 Q1017
2026-04-29 05:50:00,METAR LIRZ 290550Z AUTO 36003KT 9999 NCD 11/08 Q1017
2026-04-29 05:20:00,METAR LIRZ 290520Z AUTO 35004KT 9999 NCD 09/08 Q1016
2026-04-29 04:50:00,METAR LIRZ 290450Z AUTO 36004KT 9999 NCD 07/06 Q1016
2026-04-29 04:20:00,METAR LIRZ 290420Z AUTO VRB01KT 9999 NCD 07/06 Q1016
2026-04-29 03:50:00,METAR LIRZ 290350Z AUTO 36004KT 9999 NCD 07/06 Q1016
2026-04-29 03:20:00,METAR LIRZ 290320Z AUTO 02005KT 9999 NCD 06/05 Q1016
2026-04-29 02:50:00,METAR LIRZ 290250Z AUTO VRB01KT 9999 NCD 07/06 Q1016
2026-04-29 02:20:00,METAR LIRZ 290220Z AUTO VRB02KT 9999 NCD 08/07 Q1016
2026-04-29 01:50:00,METAR LIRZ 290150Z AUTO 36004KT 9999 NCD 08/06 Q1016
2026-04-29 01:20:00,METAR LIRZ 290120Z AUTO VRB01KT 9999 NCD 09/07 Q1016
2026-04-29 00:50:00,METAR LIRZ 290050Z AUTO VRB02KT 9999 NCD 08/06 Q1016
2026-04-29 00:20:00,METAR LIRZ 290020Z AUTO 18001KT 9999 NCD 10/08 Q1016
2026-04-28 23:50:00,METAR LIRZ 282350Z AUTO VRB01KT 9999 NCD 10/08 Q1016
2026-04-28 23:20:00,METAR LIRZ 282320Z AUTO 33003KT 250V360 9999 NCD 11/07 Q1016
2026-04-28 22:50:00,METAR LIRZ 282250Z AUTO 02007KT 9999 NCD 10/08 Q1016
2026-04-28 22:20:00,METAR LIRZ 282220Z AUTO 02006KT 9999 NCD 10/08 Q1016
2026-04-28 21:50:00,METAR LIRZ 282150Z AUTO 02005KT 9999 NCD 11/08 Q1016
2026-04-28 21:20:00,METAR LIRZ 282120Z AUTO 03007KT 9999 NCD 12/08 Q1016
2026-04-28 20:50:00,METAR LIRZ 282050Z AUTO 02004KT 360V070 9999 NCD 12/08 Q1016
2026-04-28 20:20:00,METAR LIRZ 282020Z AUTO 09004KT 060V130 9999 NCD 15/07 Q1016
2026-04-28 19:50:00,METAR LIRZ 281950Z AUTO 24006KT 9999 NCD 18/07 Q1015
2026-04-28 19:20:00,METAR LIRZ 281920Z AUTO VRB01KT 9999 NCD 20/07 Q1015
2026-04-28 18:50:00,METAR LIRZ 281850Z AUTO VRB02KT 9999 FEW082/// 19/07 Q1015
2026-04-28 18:20:00,METAR LIRZ 281820Z AUTO 24005KT 220V290 9999 BKN082/// 20/07 Q1014
2026-04-28 17:50:00,METAR LIRZ 281750Z AUTO 23007KT 9999 NCD 21/07 Q1014
2026-04-28 17:20:00,METAR LIRZ 281720Z AUTO 23008KT 9999 NCD 23/06 Q1014
2026-04-28 16:50:00,METAR LIRZ 281650Z AUTO 23009KT 9999 NCD 24/06 Q1014
2026-04-28 16:20:00,METAR LIRZ 281620Z AUTO 22010KT 9999 NCD 25/08 Q1013
2026-04-28 15:50:00,METAR LIRZ 281550Z AUTO 20006KT 170V230 9999 NCD 25/08 Q1013
2026-04-28 15:20:00,METAR LIRZ 281520Z AUTO 20007KT 180V240 9999 NCD 26/07 Q1013
2026-04-28 14:50:00,METAR LIRZ 281450Z AUTO 26004KT 190V320 9999 FEW073/// 26/09 Q1013
2026-04-28 14:20:00,METAR LIRZ 281420Z AUTO 23008KT 9999 FEW073/// 25/09 Q1014
2026-04-28 13:50:00,METAR LIRZ 281350Z AUTO VRB06KT 9999 FEW067/// 26/11 Q1014
2026-04-28 13:20:00,METAR LIRZ 281320Z AUTO 26007KT 210V340 9999 FEW063/// 25/10 Q1014
2026-04-28 12:50:00,METAR LIRZ 281250Z AUTO 25006KT 220V320 9999 NCD 25/10 Q1015
2026-04-28 12:20:00,METAR LIRZ 281220Z AUTO 22007KT 9999 NCD 25/09 Q1015
2026-04-28 11:50:00,METAR LIRZ 281150Z AUTO VRB05KT 9999 NCD 24/09 Q1015
2026-04-28 11:20:00,METAR LIRZ 281120Z AUTO 23005KT 190V270 9999 NCD 24/10 Q1015
2026-04-28 10:50:00,METAR LIRZ 281050Z AUTO 20005KT 120V270 9999 NCD 23/11 Q1015
2026-04-28 10:20:00,METAR LIRZ 281020Z AUTO VRB03KT 9999 NCD 23/11 Q1016
2026-04-28 09:50:00,METAR LIRZ 280950Z AUTO 26003KT 220V340 9999 NCD 21/11 Q1016
2026-04-28 09:20:00,METAR LIRZ 280920Z AUTO VRB02KT 9999 NCD 21/12 Q1016
2026-04-28 08:50:00,METAR LIRZ 280850Z AUTO VRB02KT 9999 NCD 19/11 Q1017
2026-04-28 08:20:00,METAR LIRZ 280820Z AUTO 20003KT 120V260 9999 NCD 18/11 Q1017
2026-04-28 07:50:00,METAR LIRZ 280750Z AUTO VRB01KT 9999 NCD 17/10 Q1017
2026-04-28 07:20:00,METAR LIRZ 280720Z AUTO VRB02KT 9999 NCD 16/11 Q1017
2026-04-28 06:50:00,METAR LIRZ 280650Z AUTO VRB01KT 9999 NCD 14/09 Q1017
2026-04-28 06:20:00,METAR LIRZ 280620Z AUTO 36004KT 9999 NCD 13/09 Q1017
2026-04-28 05:50:00,METAR LIRZ 280550Z AUTO 36005KT 9999 NCD 11/09 Q1017
2026-04-28 05:20:00,METAR LIRZ 280520Z AUTO 35003KT 9999 NCD 10/09 Q1017
2026-04-28 04:50:00,METAR LIRZ 280450Z AUTO 02005KT 9999 NCD 09/08 Q1017
2026-04-28 04:20:00,METAR LIRZ 280420Z AUTO 01005KT 9999 NCD 08/07 Q1017
2026-04-28 03:50:00,METAR LIRZ 280350Z AUTO 36004KT 9999 NCD 08/07 Q1017
2026-04-28 03:20:00,METAR LIRZ 280320Z AUTO 35003KT 270V360 9999 NCD 09/07 Q1017
2026-04-28 02:50:00,METAR LIRZ 280250Z AUTO VRB01KT 9999 NCD 09/08 Q1017
2026-04-28 02:20:00,METAR LIRZ 280220Z AUTO VRB02KT 9999 NCD 09/08 Q1017
2026-04-28 01:50:00,METAR LIRZ 280150Z AUTO 36003KT 9999 NCD 10/08 Q1017
2026-04-28 01:20:00,METAR LIRZ 280120Z AUTO 32004KT 260V340 9999 NCD 10/08 Q1017
2026-04-28 00:50:00,METAR LIRZ 280050Z AUTO 02007KT 9999 NCD 10/09 Q1017
2026-04-28 00:20:00,METAR LIRZ 280020Z AUTO 02005KT 9999 NCD 10/08 Q1017
2026-04-27 23:50:00,METAR LIRZ 272350Z AUTO 03005KT 9999 NCD 10/08 Q1017
2026-04-27 23:20:00,METAR LIRZ 272320Z AUTO 02006KT 9999 NCD 10/08 Q1017
2026-04-27 22:50:00,METAR LIRZ 272250Z AUTO 02006KT 9999 NCD 11/08 Q1017
2026-04-27 22:20:00,METAR LIRZ 272220Z AUTO 03006KT 9999 NCD 10/08 Q1017
2026-04-27 21:50:00,METAR LIRZ 272150Z AUTO 04003KT 360V090 9999 NCD 10/07 Q1017
2026-04-27 21:20:00,METAR LIRZ 272120Z AUTO VRB02KT 9999 NCD 11/08 Q1017
2026-04-27 20:50:00,METAR LIRZ 272050Z AUTO VRB02KT 9999 NCD 12/07 Q1017
2026-04-27 20:20:00,METAR LIRZ 272020Z AUTO VRB04KT 9999 NCD 12/08 Q1017
2026-04-27 19:50:00,METAR LIRZ 271950Z AUTO VRB03KT 9999 NCD 13/08 Q1017
2026-04-27 19:20:00,METAR LIRZ 271920Z AUTO VRB02KT 9999 NCD 16/08 Q1017
2026-04-27 18:50:00,METAR LIRZ 271850Z AUTO 01003KT 260V050 9999 NCD 14/09 Q1016
2026-04-27 18:20:00,METAR LIRZ 271820Z AUTO 35003KT 300V040 9999 NCD 17/08 Q1016
2026-04-27 17:50:00,METAR LIRZ 271750Z AUTO 28003KT 9999 NCD 22/06 Q1015
2026-04-27 17:20:00,METAR LIRZ 271720Z AUTO 29005KT 9999 NCD 23/05 Q1015
2026-04-27 16:50:00,METAR LIRZ 271650Z AUTO 27005KT 9999 NCD 24/07 Q1015
2026-04-27 16:20:00,METAR LIRZ 271620Z AUTO 29006KT 260V330 9999 NCD 25/05 Q1015
2026-04-27 15:50:00,METAR LIRZ 271550Z AUTO 26007KT 9999 NCD 25/06 Q1016
2026-04-27 15:20:00,METAR LIRZ 271520Z AUTO 29007KT 240V330 9999 NCD 25/07 Q1016
2026-04-27 14:50:00,METAR LIRZ 271450Z AUTO VRB03KT 9999 NCD 25/06 Q1016
2026-04-27 14:20:00,METAR LIRZ 271420Z AUTO 20005KT 150V230 9999 NCD 25/05 Q1016
2026-04-27 13:50:00,METAR LIRZ 271350Z AUTO 26007KT 230V290 9999 NCD 25/05 Q1017
2026-04-27 13:20:00,METAR LIRZ 271320Z AUTO VRB03KT 9999 NCD 26/05 Q1017
2026-04-27 12:50:00,METAR LIRZ 271250Z AUTO 27006KT 180V310 9999 NCD 25/02 Q1017
2026-04-27 12:20:00,METAR LIRZ 271220Z AUTO 26004KT 200V010 9999 NCD 25/04 Q1018
2026-04-27 11:50:00,METAR LIRZ 271150Z AUTO 22005KT 170V310 9999 NCD 24/04 Q1018
2026-04-27 11:20:00,METAR LIRZ 271120Z AUTO 25005KT 190V300 9999 NCD 23/05 Q1018
2026-04-27 10:50:00,METAR LIRZ 271050Z AUTO VRB04KT 9999 NCD 23/05 Q1018
2026-04-27 10:20:00,METAR LIRZ 271020Z AUTO VRB02KT 9999 NCD 22/08 Q1019
2026-04-27 09:50:00,METAR LIRZ 270950Z AUTO VRB03KT 9999 NCD 21/09 Q1019
2026-04-27 09:20:00,METAR LIRZ 270920Z AUTO VRB03KT 9999 NCD 20/09 Q1019
2026-04-27 08:50:00,METAR LIRZ 270850Z AUTO VRB02KT 9999 NCD 19/10 Q1020
2026-04-27 08:20:00,METAR LIRZ 270820Z AUTO VRB02KT 9999 NCD 18/09 Q1020
2026-04-27 07:50:00,METAR LIRZ 270750Z AUTO VRB02KT 9999 NCD 16/09 Q1020
2026-04-27 07:20:00,METAR LIRZ 270720Z AUTO VRB01KT 9999 NCD 16/09 Q1020
2026-04-27 06:50:00,METAR LIRZ 270650Z AUTO 36003KT 300V040 9999 NCD 13/09 Q1020
2026-04-27 06:20:00,METAR LIRZ 270620Z AUTO 01003KT 9999 NCD 12/09 Q1020
2026-04-27 05:50:00,METAR LIRZ 270550Z AUTO 01004KT 9999 NCD 11/09 Q1020
2026-04-27 05:20:00,METAR LIRZ 270520Z AUTO VRB02KT 9999 NCD 09/08 Q1020
2026-04-27 04:50:00,METAR LIRZ 270450Z AUTO 34004KT 9999 NCD 08/07 Q1020
2026-04-27 04:20:00,METAR LIRZ 270420Z AUTO 01003KT 9999 NCD 07/06 Q1019
2026-04-27 03:50:00,METAR LIRZ 270350Z AUTO 01006KT 9999 NCD 06/05 Q1019
2026-04-27 03:20:00,METAR LIRZ 270320Z AUTO VRB02KT 9999 NCD 07/06 Q1019
2026-04-27 02:50:00,METAR LIRZ 270250Z AUTO 01003KT 9999 NCD 08/07 Q1019
2026-04-27 02:20:00,METAR LIRZ 270220Z AUTO 01004KT 9999 NCD 08/07 Q1019
2026-04-27 01:50:00,METAR LIRZ 270150Z AUTO VRB01KT 9999 NCD 08/06 Q1019
2026-04-27 01:20:00,METAR LIRZ 270120Z AUTO 36004KT 9999 NCD 09/07 Q1019
2026-04-27 00:50:00,METAR LIRZ 270050Z AUTO 35003KT 310V010 9999 NCD 10/07 Q1019
2026-04-27 00:20:00,METAR LIRZ 270020Z AUTO 02004KT 9999 NCD 08/07 Q1020
2026-04-26 23:50:00,METAR LIRZ 262350Z AUTO 02005KT 9999 NCD 08/07 Q1020
2026-04-26 23:20:00,METAR LIRZ 262320Z AUTO 02004KT 9999 NCD 10/07 Q1020
2026-04-26 22:50:00,METAR LIRZ 262250Z AUTO 04003KT 9999 NCD 11/08 Q1019
2026-04-26 22:20:00,METAR LIRZ 262220Z AUTO 02003KT 330V040 9999 NCD 09/07 Q1019
2026-04-26 21:50:00,METAR LIRZ 262150Z AUTO 02005KT 9999 NCD 10/08 Q1019
2026-04-26 21:20:00,METAR LIRZ 262120Z AUTO 03004KT 9999 NCD 10/07 Q1019
2026-04-26 20:50:00,METAR LIRZ 262050Z AUTO 02004KT 9999 NCD 10/07 Q1019
2026-04-26 20:20:00,METAR LIRZ 262020Z AUTO 06004KT 040V100 9999 NCD 13/08 Q1019
2026-04-26 19:50:00,METAR LIRZ 261950Z AUTO VRB01KT 9999 NCD 15/08 Q1018
2026-04-26 19:20:00,METAR LIRZ 261920Z AUTO 02006KT 9999 NCD 13/08 Q1018
2026-04-26 18:50:00,METAR LIRZ 261850Z AUTO 02006KT 9999 NCD 13/09 Q1018
2026-04-26 18:20:00,METAR LIRZ 261820Z AUTO VRB01KT 9999 NCD 20/07 Q1017
2026-04-26 17:50:00,METAR LIRZ 261750Z AUTO 29003KT 9999 NCD 21/08 Q1017
2026-04-26 17:20:00,METAR LIRZ 261720Z AUTO 27003KT 9999 NCD 23/07 Q1017
2026-04-26 16:50:00,METAR LIRZ 261650Z AUTO 27004KT 9999 NCD 23/06 Q1017
2026-04-26 16:20:00,METAR LIRZ 261620Z AUTO 30005KT 280V340 9999 NCD 24/06 Q1017
2026-04-26 15:50:00,METAR LIRZ 261550Z AUTO 27006KT 230V330 9999 NCD 24/06 Q1017
2026-04-26 15:20:00,METAR LIRZ 261520Z AUTO 28007KT 240V310 9999 NCD 24/06 Q1017
2026-04-26 14:50:00,METAR LIRZ 261450Z AUTO 24008KT 200V290 9999 NCD 24/06 Q1017
2026-04-26 14:20:00,METAR LIRZ 261420Z AUTO 25007KT 190V300 9999 NCD 24/06 Q1017
2026-04-26 13:50:00,METAR LIRZ 261350Z AUTO VRB04KT 9999 NCD 24/06 Q1017
2026-04-26 13:20:00,METAR LIRZ 261320Z AUTO 24006KT 170V280 9999 NCD 24/05 Q1018
2026-04-26 12:50:00,METAR LIRZ 261250Z AUTO 28006KT 220V330 9999 NCD 23/04 Q1018
2026-04-26 12:20:00,METAR LIRZ 261220Z AUTO 24005KT 170V330 9999 NCD 23/03 Q1018
2026-04-26 11:50:00,METAR LIRZ 261150Z AUTO 23004KT 180V330 9999 NCD 22/03 Q1018
2026-04-26 11:20:00,METAR LIRZ 261120Z AUTO 21003KT 150V280 9999 NCD 22/02 Q1019
2026-04-26 10:50:00,METAR LIRZ 261050Z AUTO VRB03KT 9999 NCD 21/01 Q1019
2026-04-26 10:20:00,METAR LIRZ 261020Z AUTO VRB02KT 9999 NCD 20/02 Q1019
2026-04-26 09:50:00,METAR LIRZ 260950Z AUTO VRB02KT 9999 NCD 20/02 Q1019
2026-04-26 09:20:00,METAR LIRZ 260920Z AUTO VRB03KT 9999 NCD 19/02 Q1019
2026-04-26 08:50:00,METAR LIRZ 260850Z AUTO VRB02KT 9999 NCD 18/04 Q1019
2026-04-26 08:20:00,METAR LIRZ 260820Z AUTO VRB02KT 9999 NCD 17/05 Q1019
2026-04-26 07:50:00,METAR LIRZ 260750Z AUTO VRB01KT 9999 NCD 16/05 Q1019
2026-04-26 07:20:00,METAR LIRZ 260720Z AUTO VRB02KT 9999 NCD 14/06 Q1019
2026-04-26 06:50:00,METAR LIRZ 260650Z AUTO 34003KT 300V030 9999 NCD 12/06 Q1019
2026-04-26 06:20:00,METAR LIRZ 260620Z AUTO 36004KT 9999 NCD 10/06 Q1019
2026-04-26 05:50:00,METAR LIRZ 260550Z AUTO 33003KT 280V010 9999 NCD 08/05 Q1019
2026-04-26 05:20:00,METAR LIRZ 260520Z AUTO VRB02KT 9999 NCD 06/04 Q1018
2026-04-26 04:50:00,METAR LIRZ 260450Z AUTO 01003KT 9999 NCD 04/03 Q1018
2026-04-26 04:20:00,METAR LIRZ 260420Z AUTO 01006KT 9999 NCD 03/02 Q1018
2026-04-26 03:50:00,METAR LIRZ 260350Z AUTO VRB02KT 9999 NCD 05/03 Q1018
2026-04-26 03:20:00,METAR LIRZ 260320Z AUTO 01006KT 9999 NCD 03/02 Q1018
2026-04-26 02:50:00,METAR LIRZ 260250Z AUTO VRB02KT 9999 NCD 05/03 Q1018
2026-04-26 02:20:00,METAR LIRZ 260220Z AUTO 02004KT 9999 NCD 05/03 Q1018
2026-04-26 01:50:00,METAR LIRZ 260150Z AUTO 01003KT 320V040 9999 NCD 05/03 Q1018
2026-04-26 01:20:00,METAR LIRZ 260120Z AUTO 01005KT 9999 NCD 04/03 Q1018
2026-04-26 00:50:00,METAR LIRZ 260050Z AUTO 04002KT 9999 NCD 04/02 Q1018
2026-04-26 00:20:00,METAR LIRZ 260020Z AUTO 36003KT 320V080 9999 NCD 06/04 Q1018
2026-04-25 23:50:00,METAR LIRZ 252350Z AUTO 03004KT 9999 NCD 06/03 Q1018
2026-04-25 23:20:00,METAR LIRZ 252320Z AUTO 03003KT 9999 NCD 06/03 Q1018
2026-04-25 22:50:00,METAR LIRZ 252250Z AUTO 03004KT 9999 NCD 07/04 Q1018
2026-04-25 22:20:00,METAR LIRZ 252220Z AUTO 04004KT 010V080 9999 NCD 07/04 Q1018
2026-04-25 21:50:00,METAR LIRZ 252150Z AUTO 03004KT 360V070 9999 NCD 08/04 Q1017
2026-04-25 21:20:00,METAR LIRZ 252120Z AUTO 03006KT 360V060 9999 NCD 08/04 Q1017
2026-04-25 20:50:00,METAR LIRZ 252050Z AUTO 04004KT 360V080 9999 NCD 09/04 Q1017
2026-04-25 20:20:00,METAR LIRZ 252020Z AUTO 05005KT 010V070 9999 NCD 12/04 Q1017
2026-04-25 19:50:00,METAR LIRZ 251950Z AUTO 02006KT 9999 NCD 10/05 Q1016
2026-04-25 19:20:00,METAR LIRZ 251920Z AUTO 27006KT 9999 NCD 17/02 Q1016
2026-04-25 18:50:00,METAR LIRZ 251850Z AUTO 29004KT 9999 NCD 18/01 Q1016
2026-04-25 18:20:00,METAR LIRZ 251820Z AUTO 30003KT 9999 NCD 20/01 Q1015
2026-04-25 17:50:00,METAR LIRZ 251750Z AUTO 29003KT 9999 NCD 21/01 Q1015
2026-04-25 17:20:00,METAR LIRZ 251720Z AUTO 29005KT 9999 NCD 22/01 Q1015
2026-04-25 16:50:00,METAR LIRZ 251650Z AUTO 29007KT 9999 NCD 23/00 Q1015
2026-04-25 16:20:00,METAR LIRZ 251620Z AUTO 27008KT 9999 NCD 23/M01 Q1015
2026-04-25 15:50:00,METAR LIRZ 251550Z AUTO 26010KT 240V300 9999 NCD 24/M01 Q1015
2026-04-25 15:20:00,METAR LIRZ 251520Z AUTO 27010KT 9999 NCD 24/01 Q1015
2026-04-25 14:50:00,METAR LIRZ 251450Z AUTO 26010KT 230V290 9999 NCD 24/04 Q1015
2026-04-25 14:20:00,METAR LIRZ 251420Z AUTO 26010KT 220V300 9999 NCD 24/05 Q1015
2026-04-25 13:50:00,METAR LIRZ 251350Z AUTO 25009KT 220V280 9999 NCD 24/05 Q1015
2026-04-25 13:20:00,METAR LIRZ 251320Z AUTO 24009KT 200V290 9999 NCD 24/04 Q1015
2026-04-25 12:50:00,METAR LIRZ 251250Z AUTO 23007KT 190V280 9999 NCD 24/05 Q1016
2026-04-25 12:20:00,METAR LIRZ 251220Z AUTO 21004KT 120V290 9999 NCD 23/05 Q1016
2026-04-25 11:50:00,METAR LIRZ 251150Z AUTO 15004KT 060V220 9999 NCD 22/04 Q1017
2026-04-25 11:20:00,METAR LIRZ 251120Z AUTO VRB04KT 9999 NCD 21/05 Q1017
2026-04-25 10:50:00,METAR LIRZ 251050Z AUTO 22004KT 170V280 9999 NCD 21/06 Q1017
2026-04-25 10:20:00,METAR LIRZ 251020Z AUTO VRB02KT 9999 NCD 20/04 Q1017
2026-04-25 09:50:00,METAR LIRZ 250950Z AUTO VRB03KT 9999 NCD 19/06 Q1018
2026-04-25 09:20:00,METAR LIRZ 250920Z AUTO VRB02KT 9999 NCD 17/07 Q1018
2026-04-25 08:50:00,METAR LIRZ 250850Z AUTO VRB02KT 9999 NCD 16/07 Q1018
2026-04-25 08:20:00,METAR LIRZ 250820Z AUTO VRB02KT 9999 NCD 16/07 Q1018
2026-04-25 07:50:00,METAR LIRZ 250750Z AUTO VRB02KT 9999 NCD 15/07 Q1018
2026-04-25 07:20:00,METAR LIRZ 250720Z AUTO VRB01KT 9999 NCD 13/06 Q1018
2026-04-25 06:50:00,METAR LIRZ 250650Z AUTO VRB02KT 9999 NCD 11/06 Q1019
2026-04-25 06:20:00,METAR LIRZ 250620Z AUTO 02003KT 9999 NCD 10/06 Q1019
2026-04-25 05:50:00,METAR LIRZ 250550Z AUTO 02004KT 9999 NCD 08/06 Q1018
2026-04-25 05:20:00,METAR LIRZ 250520Z AUTO 02003KT 350V090 9999 NCD 07/05 Q1019
2026-04-25 04:50:00,METAR LIRZ 250450Z AUTO VRB02KT 9999 NCD 04/03 Q1018
2026-04-25 04:20:00,METAR LIRZ 250420Z AUTO 36004KT 9999 NCD 04/02 Q1018
2026-04-25 03:50:00,METAR LIRZ 250350Z AUTO VRB01KT 9999 NCD 05/03 Q1018
2026-04-25 03:20:00,METAR LIRZ 250320Z AUTO VRB02KT 9999 NCD 04/02 Q1018
2026-04-25 02:50:00,METAR LIRZ 250250Z AUTO VRB02KT 9999 NCD 05/03 Q1018
2026-04-25 02:20:00,METAR LIRZ 250220Z AUTO VRB02KT 9999 NCD 05/03 Q1018
2026-04-25 01:50:00,METAR LIRZ 250150Z AUTO VRB02KT 9999 NCD 06/04 Q1017
2026-04-25 01:20:00,METAR LIRZ 250120Z AUTO 36004KT 330V030 9999 NCD 06/04 Q1017
2026-04-25 00:50:00,METAR LIRZ 250050Z AUTO VRB02KT 9999 NCD 07/04 Q1017
2026-04-25 00:20:00,METAR LIRZ 250020Z AUTO 36004KT 9999 NCD 07/04 Q1017
2026-04-24 23:50:00,METAR LIRZ 242350Z AUTO 01004KT 9999 NCD 07/04 Q1018
2026-04-24 23:20:00,METAR LIRZ 242320Z AUTO 36003KT 9999 NCD 09/05 Q1018
2026-04-24 22:50:00,METAR LIRZ 242250Z AUTO 01003KT 9999 NCD 08/05 Q1018
2026-04-24 22:20:00,METAR LIRZ 242220Z AUTO 03005KT 9999 NCD 08/05 Q1018
2026-04-24 21:50:00,METAR LIRZ 242150Z AUTO 02005KT 9999 NCD 09/05 Q1017
2026-04-24 21:20:00,METAR LIRZ 242120Z AUTO 03004KT 9999 NCD 09/05 Q1017
2026-04-24 20:50:00,METAR LIRZ 242050Z AUTO 04005KT 9999 NCD 10/05 Q1017
2026-04-24 20:20:00,METAR LIRZ 242020Z AUTO 02004KT 9999 NCD 10/05 Q1017
2026-04-24 19:50:00,METAR LIRZ 241950Z AUTO 33003KT 280V030 9999 NCD 15/05 Q1017
2026-04-24 19:20:00,METAR LIRZ 241920Z AUTO VRB02KT 9999 NCD 16/05 Q1016
2026-04-24 18:50:00,METAR LIRZ 241850Z AUTO VRB02KT 9999 NCD 18/04 Q1016
2026-04-24 18:20:00,METAR LIRZ 241820Z AUTO 28005KT 9999 NCD 19/04 Q1016
2026-04-24 17:50:00,METAR LIRZ 241750Z AUTO 27003KT 220V290 9999 NCD 20/01 Q1015
2026-04-24 17:20:00,METAR LIRZ 241720Z AUTO 28004KT 240V300 9999 NCD 22/02 Q1015
2026-04-24 16:50:00,METAR LIRZ 241650Z AUTO 27006KT 9999 NCD 22/00 Q1015
2026-04-24 16:20:00,METAR LIRZ 241620Z AUTO 27008KT 9999 NCD 22/01 Q1015
2026-04-24 15:50:00,METAR LIRZ 241550Z AUTO 30006KT 270V330 9999 NCD 23/01 Q1016
2026-04-24 15:20:00,METAR LIRZ 241520Z AUTO 30005KT 250V340 9999 NCD 23/00 Q1016
2026-04-24 14:50:00,METAR LIRZ 241450Z AUTO 25007KT 220V290 9999 NCD 23/M01 Q1016
2026-04-24 14:20:00,METAR LIRZ 241420Z AUTO 29007KT 260V320 9999 NCD 23/00 Q1016
2026-04-24 13:50:00,METAR LIRZ 241350Z AUTO 25007KT 210V300 9999 NCD 23/M02 Q1017
2026-04-24 13:20:00,METAR LIRZ 241320Z AUTO 23008KT 180V270 9999 NCD 23/M02 Q1017
2026-04-24 12:50:00,METAR LIRZ 241250Z AUTO 26005KT 210V350 9999 NCD 23/02 Q1017
2026-04-24 12:20:00,METAR LIRZ 241220Z AUTO VRB05KT 9999 NCD 22/00 Q1018
2026-04-24 11:50:00,METAR LIRZ 241150Z AUTO VRB05KT 9999 NCD 22/M01 Q1018
2026-04-24 11:20:00,METAR LIRZ 241120Z AUTO VRB03KT 9999 NCD 21/02 Q1018
2026-04-24 10:50:00,METAR LIRZ 241050Z AUTO VRB03KT 9999 NCD 20/04 Q1019
2026-04-24 10:20:00,METAR LIRZ 241020Z AUTO VRB03KT 9999 NCD 19/04 Q1019
2026-04-24 09:50:00,METAR LIRZ 240950Z AUTO VRB03KT 9999 NCD 17/03 Q1019
2026-04-24 09:20:00,METAR LIRZ 240920Z AUTO VRB02KT 9999 NCD 15/04 Q1020
2026-04-24 08:50:00,METAR LIRZ 240850Z AUTO VRB02KT 9999 NCD 14/03 Q1020
2026-04-24 08:20:00,METAR LIRZ 240820Z AUTO VRB02KT 9999 NCD 13/02 Q1020
2026-04-24 07:50:00,METAR LIRZ 240750Z AUTO VRB02KT 9999 NCD 12/02 Q1020
2026-04-24 07:20:00,METAR LIRZ 240720Z AUTO VRB01KT 9999 NCD 11/02 Q1020
2026-04-24 06:50:00,METAR LIRZ 240650Z AUTO VRB02KT 9999 NCD 09/02 Q1020
2026-04-24 06:20:00,METAR LIRZ 240620Z AUTO VRB02KT 9999 NCD 08/02 Q1020
2026-04-24 05:50:00,METAR LIRZ 240550Z AUTO 36002KT 9999 NCD 06/03 Q1020
2026-04-24 05:20:00,METAR LIRZ 240520Z AUTO 02002KT 9999 NCD 04/02 Q1020
2026-04-24 04:50:00,METAR LIRZ 240450Z AUTO VRB01KT 9999 NCD 04/01 Q1020
2026-04-24 04:20:00,METAR LIRZ 240420Z AUTO 03004KT 9999 NCD 02/00 Q1020
2026-04-24 03:50:00,METAR LIRZ 240350Z AUTO 02005KT 9999 NCD 03/00 Q1020
2026-04-24 03:20:00,METAR LIRZ 240320Z AUTO 34004KT 9999 NCD 03/00 Q1020
2026-04-24 02:50:00,METAR LIRZ 240250Z AUTO 01004KT 9999 NCD 04/00 Q1020
2026-04-24 02:20:00,METAR LIRZ 240220Z AUTO 02005KT 9999 NCD 03/01 Q1020
2026-04-24 01:50:00,METAR LIRZ 240150Z AUTO 05004KT 010V090 9999 NCD 04/00 Q1020
2026-04-24 01:20:00,METAR LIRZ 240120Z AUTO 36006KT 9999 NCD 05/01 Q1020
2026-04-24 00:50:00,METAR LIRZ 240050Z AUTO VRB02KT 9999 NCD 05/00 Q1020
2026-04-24 00:20:00,METAR LIRZ 240020Z AUTO VRB03KT 9999 NCD 05/01 Q1019
2026-04-23 23:50:00,METAR LIRZ 232350Z AUTO 30005KT 210V020 9999 NCD 05/01 Q1019
2026-04-23 23:20:00,METAR LIRZ 232320Z AUTO 02004KT 290V060 9999 NCD 06/01 Q1019
2026-04-23 22:50:00,METAR LIRZ 232250Z AUTO 01010KT 9999 NCD 06/01 Q1019
2026-04-23 22:20:00,METAR LIRZ 232220Z AUTO 36011KT 9999 NCD 07/01 Q1019
2026-04-23 21:50:00,METAR LIRZ 232150Z AUTO 01009KT 9999 NCD 06/02 Q1019
2026-04-23 21:20:00,METAR LIRZ 232120Z AUTO 36008KT 9999 NCD 07/01 Q1019
2026-04-23 20:50:00,METAR LIRZ 232050Z AUTO 34006KT 9999 NCD 08/01 Q1019
2026-04-23 20:20:00,METAR LIRZ 232020Z AUTO 30004KT 9999 NCD 11/00 Q1019
2026-04-23 19:50:00,METAR LIRZ 231950Z AUTO 08004KT 040V190 9999 NCD 10/M00 Q1019
2026-04-23 19:20:00,METAR LIRZ 231920Z AUTO 01009KT 9999 NCD 10/00 Q1019
2026-04-23 18:50:00,METAR LIRZ 231850Z AUTO 03009KT 9999 NCD 11/M01 Q1019
2026-04-23 18:20:00,METAR LIRZ 231820Z AUTO 03007KT 9999 NCD 11/M00 Q1019
2026-04-23 17:50:00,METAR LIRZ 231750Z AUTO 05008KT 9999 NCD 14/M01 Q1018
2026-04-23 17:20:00,METAR LIRZ 231720Z AUTO 05009KT 9999 NCD 15/M02 Q1018
2026-04-23 16:50:00,METAR LIRZ 231650Z AUTO 06010KT 9999 NCD 16/M01 Q1018
2026-04-23 16:20:00,METAR LIRZ 231620Z AUTO 05012KT 9999 NCD 17/M01 Q1018
2026-04-23 15:50:00,METAR LIRZ 231550Z AUTO 05011KT 9999 NCD 17/M01 Q1019
2026-04-23 15:20:00,METAR LIRZ 231520Z AUTO 05013KT 9999 NCD 17/M00 Q1019
2026-04-23 14:50:00,METAR LIRZ 231450Z AUTO 05012KT 9999 NCD 18/M00 Q1019
2026-04-23 14:20:00,METAR LIRZ 231420Z AUTO 06014KT 9999 NCD 17/M02 Q1019
2026-04-23 13:50:00,METAR LIRZ 231350Z AUTO 04013KT 9999 NCD 18/M00 Q1020
2026-04-23 13:20:00,METAR LIRZ 231320Z AUTO 05013KT 010V080 9999 NCD 18/M02 Q1020
2026-04-23 12:50:00,METAR LIRZ 231250Z AUTO 03014KT 9999 NCD 17/M01 Q1020
2026-04-23 12:20:00,METAR LIRZ 231220Z AUTO 04016KT 010V070 9999 NCD 17/M01 Q1021
2026-04-23 11:50:00,METAR LIRZ 231150Z AUTO 03017KT 9999 NCD 17/01 Q1021
2026-04-23 11:20:00,METAR LIRZ 231120Z AUTO 04013KT 9999 NCD 17/02 Q1021
2026-04-23 10:50:00,METAR LIRZ 231050Z AUTO 05013KT 010V080 9999 NCD 17/01 Q1021
2026-04-23 10:20:00,METAR LIRZ 231020Z AUTO 04014KT 010V070 9999 FEW064/// 16/01 Q1022
2026-04-23 09:50:00,METAR LIRZ 230950Z AUTO 04014G24KT 9999 NCD 16/01 Q1022
2026-04-23 09:20:00,METAR LIRZ 230920Z AUTO 05015KT 9999 NCD 16/03 Q1022
2026-04-23 08:50:00,METAR LIRZ 230850Z AUTO 03018KT 9999 FEW057/// 15/03 Q1022
2026-04-23 08:20:00,METAR LIRZ 230820Z AUTO 04016KT 010V070 9999 NCD 15/03 Q1022
2026-04-23 07:50:00,METAR LIRZ 230750Z AUTO 04016KT 9999 NCD 14/02 Q1022
2026-04-23 07:20:00,METAR LIRZ 230720Z AUTO 05012KT 010V080 9999 NCD 14/03 Q1022
2026-04-23 06:50:00,METAR LIRZ 230650Z AUTO 03010KT 9999 NCD 13/03 Q1022
2026-04-23 06:20:00,METAR LIRZ 230620Z AUTO 01007KT 9999 NCD 12/05 Q1022
2026-04-23 05:50:00,METAR LIRZ 230550Z AUTO 01007KT 340V050 9999 NCD 10/04 Q1022
2026-04-23 05:20:00,METAR LIRZ 230520Z AUTO 25003KT 230V300 9999 NCD 06/04 Q1022
2026-04-23 04:50:00,METAR LIRZ 230450Z AUTO VRB02KT 9999 NCD 04/02 Q1021
2026-04-23 04:20:00,METAR LIRZ 230420Z AUTO VRB02KT 9999 NCD 04/02 Q1021
2026-04-23 03:50:00,METAR LIRZ 230350Z AUTO 21003KT 130V290 9999 NCD 05/02 Q1021
2026-04-23 03:20:00,METAR LIRZ 230320Z AUTO VRB02KT 9999 NCD 05/01 Q1021
2026-04-23 02:50:00,METAR LIRZ 230250Z AUTO 03005KT 340V110 9999 NCD 06/02 Q1021
2026-04-23 02:20:00,METAR LIRZ 230220Z AUTO 01006KT 9999 NCD 08/02 Q1021
2026-04-23 01:50:00,METAR LIRZ 230150Z AUTO 01005KT 9999 NCD 05/02 Q1021
2026-04-23 01:20:00,METAR LIRZ 230120Z AUTO 04009KT 9999 NCD 08/02 Q1021
2026-04-23 00:50:00,METAR LIRZ 230050Z AUTO 04009KT 9999 NCD 08/02 Q1021
2026-04-23 00:20:00,METAR LIRZ 230020Z AUTO 03008KT 9999 NCD 07/02 Q1020
2026-04-22 23:50:00,METAR LIRZ 222350Z AUTO 33003KT 280V030 9999 NCD 07/02 Q1020
2026-04-22 23:20:00,METAR LIRZ 222320Z AUTO 02003KT 330V070 9999 NCD 09/01 Q1020
2026-04-22 22:50:00,METAR LIRZ 222250Z AUTO 01007KT 340V040 9999 NCD 09/02 Q1020
2026-04-22 22:20:00,METAR LIRZ 222220Z AUTO 03007KT 360V080 9999 NCD 10/01 Q1020
2026-04-22 21:50:00,METAR LIRZ 222150Z AUTO 03010KT 9999 NCD 10/02 Q1020
2026-04-22 21:20:00,METAR LIRZ 222120Z AUTO 03008KT 9999 NCD 09/03 Q1020
2026-04-22 20:50:00,METAR LIRZ 222050Z AUTO 02008KT 9999 NCD 08/03 Q1020
2026-04-22 20:20:00,METAR LIRZ 222020Z AUTO 02010KT 9999 NCD 08/02 Q1019
2026-04-22 19:50:00,METAR LIRZ 221950Z AUTO 02006KT 9999 NCD 09/02 Q1019
2026-04-22 19:20:00,METAR LIRZ 221920Z AUTO 03008KT 9999 NCD 09/01 Q1019
2026-04-22 18:50:00,METAR LIRZ 221850Z AUTO 03008KT 9999 NCD 10/02 Q1019
2026-04-22 18:20:00,METAR LIRZ 221820Z AUTO 03009KT 9999 NCD 11/02 Q1018
2026-04-22 17:50:00,METAR LIRZ 221750Z AUTO 03012KT 9999 NCD 13/02 Q1018
2026-04-22 17:20:00,METAR LIRZ 221720Z AUTO 04010KT 9999 NCD 13/04 Q1018
2026-04-22 16:50:00,METAR LIRZ 221650Z AUTO 05011KT 9999 NCD 14/04 Q1018
2026-04-22 16:20:00,METAR LIRZ 221620Z AUTO 04014KT 9999 NCD 15/04 Q1017
2026-04-22 15:50:00,METAR LIRZ 221550Z AUTO 05014KT 9999 NCD 15/05 Q1017
2026-04-22 14:50:00,METAR LIRZ 221450Z AUTO 04015KT 9999 NCD 17/05 Q1017
2026-04-22 14:20:00,METAR LIRZ 221420Z AUTO 04015KT 010V080 9999 NCD 17/06 Q1017
2026-04-22 13:50:00,METAR LIRZ 221350Z AUTO 03018KT 9999 NCD 16/06 Q1017
2026-04-22 13:20:00,METAR LIRZ 221320Z AUTO 05013KT 010V080 9999 NCD 16/06 Q1017
2026-04-22 12:50:00,METAR LIRZ 221250Z AUTO 04016KT 9999 NCD 16/07 Q1017
2026-04-22 12:20:00,METAR LIRZ 221220Z AUTO 03019KT 9999 NCD 16/08 Q1017
2026-04-22 11:50:00,METAR LIRZ 221150Z AUTO 03013KT 9999 FEW041/// SCT076/// 17/08 Q1017
2026-04-22 11:20:00,METAR LIRZ 221120Z AUTO 03015KT 9999 BKN044/// BKN074/// 16/07 Q1016
2026-04-22 10:50:00,METAR LIRZ 221050Z AUTO 03012KT 9999 SCT044/// BKN068/// 16/07 Q1016
2026-04-22 10:20:00,METAR LIRZ 221020Z AUTO 02009KT 350V050 9999 BKN065/// 17/08 Q1016
2026-04-22 09:50:00,METAR LIRZ 220950Z AUTO 04010KT 9999 SCT034/// BKN057/// 15/08 Q1016
2026-04-22 09:20:00,METAR LIRZ 220920Z AUTO 02005KT 350V060 9999 BKN050/// 14/09 Q1016
2026-04-22 08:50:00,METAR LIRZ 220850Z AUTO 06008KT 030V090 9999 BKN050/// 14/08 Q1016
2026-04-22 08:20:00,METAR LIRZ 220820Z AUTO 34005KT 310V030 9999 -RA BKN035/// 13/10 Q1016
2026-04-22 07:50:00,METAR LIRZ 220750Z AUTO 02008KT 9999 -RA OVC063/// 12/10 Q1016
2026-04-22 07:20:00,METAR LIRZ 220720Z AUTO 01009KT 9999 -RA FEW065/// BKN085/// 12/09 Q1015
2026-04-22 06:50:00,METAR LIRZ 220650Z AUTO 01008KT 9999 -RA BKN064/// 12/09 Q1015
2026-04-22 06:20:00,METAR LIRZ 220620Z AUTO 34008KT 9999 -RA OVC069/// 12/09 Q1015
2026-04-22 05:50:00,METAR LIRZ 220550Z AUTO 01009KT 9999 BKN075/// 12/09 Q1015
2026-04-22 05:20:00,METAR LIRZ 220520Z AUTO 36007KT 9999 -RA OVC075/// 12/09 Q1015
2026-04-22 04:50:00,METAR LIRZ 220450Z AUTO 02006KT 9999 -RA OVC080/// 12/09 Q1014
2026-04-22 04:20:00,METAR LIRZ 220420Z AUTO 36005KT 9999 -RA OVC077/// 11/09 Q1015
2026-04-22 03:50:00,METAR LIRZ 220350Z AUTO 02007KT 9999 -RA OVC074/// 11/09 Q1014
2026-04-22 03:20:00,METAR LIRZ 220320Z AUTO 36007KT 9999 -RA OVC067/// 11/09 Q1014
2026-04-22 02:50:00,METAR LIRZ 220250Z AUTO 36005KT 9999 -RA OVC083/// 12/09 Q1014
2026-04-22 02:20:00,METAR LIRZ 220220Z AUTO 35006KT 9999 -RA OVC084/// 12/09 Q1014
2026-04-22 01:50:00,METAR LIRZ 220150Z AUTO 36008KT 9999 -RA BKN089/// 12/08 Q1013
2026-04-22 01:20:00,METAR LIRZ 220120Z AUTO 01008KT 9999 BKN087/// 13/08 Q1013
2026-04-22 00:50:00,METAR LIRZ 220050Z AUTO 02010KT 9999 OVC090/// 13/08 Q1013
2026-04-22 00:20:00,METAR LIRZ 220020Z AUTO 36008KT 340V040 9999 BKN100/// 13/08 Q1013
2026-04-21 23:50:00,METAR LIRZ 212350Z AUTO 02009KT 9999 SCT100/// BKN130/// 13/08 Q1013
2026-04-21 23:20:00,METAR LIRZ 212320Z AUTO 02010KT 9999 BKN130/// 12/08 Q1013
2026-04-21 22:50:00,METAR LIRZ 212250Z AUTO 02007KT 9999 BKN130/// 12/08 Q1013
2026-04-21 22:20:00,METAR LIRZ 212220Z AUTO 01006KT 9999 BKN120/// 11/08 Q1013
2026-04-21 21:50:00,METAR LIRZ 212150Z AUTO 36008KT 9999 BKN110/// 11/08 Q1013
2026-04-21 21:20:00,METAR LIRZ 212120Z AUTO 01008KT 9999 BKN100/// 10/08 Q1013
2026-04-21 20:50:00,METAR LIRZ 212050Z AUTO 35008KT 9999 FEW071/// 11/08 Q1013
2026-04-21 20:20:00,METAR LIRZ 212020Z AUTO 01007KT 9999 NCD 10/08 Q1013
2026-04-21 19:50:00,METAR LIRZ 211950Z AUTO 35007KT 9999 BKN065/// 11/08 Q1012
2026-04-21 19:20:00,METAR LIRZ 211920Z AUTO 36009KT 9999 FEW065/// 12/08 Q1012
2026-04-21 18:50:00,METAR LIRZ 211850Z AUTO 02007KT 9999 NCD 11/08 Q1012
2026-04-21 18:20:00,METAR LIRZ 211820Z AUTO 01008KT 9999 NCD 13/09 Q1012
2026-04-21 17:50:00,METAR LIRZ 211750Z AUTO 01008KT 9999 NCD 14/09 Q1011
2026-04-21 17:20:00,METAR LIRZ 211720Z AUTO 01007KT 9999 NCD 15/09 Q1011
2026-04-21 16:50:00,METAR LIRZ 211650Z AUTO 05007KT 9999 FEW063/// 17/07 Q1011
2026-04-21 16:20:00,METAR LIRZ 211620Z AUTO 06008KT 9999 BKN057/// 17/08 Q1011
2026-04-21 15:50:00,METAR LIRZ 211550Z AUTO 08007KT 040V110 9999 BKN057/// 17/09 Q1011
2026-04-21 15:20:00,METAR LIRZ 211520Z AUTO 09011KT 9999 SCT057/// 17/09 Q1011
2026-04-21 14:50:00,METAR LIRZ 211450Z AUTO 09016KT 9999 BKN056/// 17/10 Q1011
2026-04-21 14:20:00,METAR LIRZ 211420Z AUTO 05014KT 9999 SCT056/// 17/10 Q1011
2026-04-21 13:50:00,METAR LIRZ 211350Z AUTO 04015KT 9999 NCD 17/10 Q1011
2026-04-21 13:20:00,METAR LIRZ 211320Z AUTO 02017KT 9999 FEW047/// 16/11 Q1011
2026-04-21 12:50:00,METAR LIRZ 211250Z AUTO 36022KT 330V040 9999 BKN031/// 16/10 Q1010
2026-04-21 12:20:00,METAR LIRZ 211220Z AUTO 22011KT 9999 FEW037/// SCT046/// 20/13 Q1010
2026-04-21 11:50:00,METAR LIRZ 211150Z AUTO 24009KT 9999 FEW037/// BKN054/// BKN092/// 21/13 Q1010
2026-04-21 11:20:00,METAR LIRZ 211120Z AUTO 23006KT 180V270 9999 FEW042/// BKN057/// BKN064/// 20/12 Q1010
2026-04-21 10:50:00,METAR LIRZ 211050Z AUTO 22007KT 150V260 9999 BKN033/// BKN069/// 19/12 Q1010
2026-04-21 10:20:00,METAR LIRZ 211020Z AUTO 16005KT 130V200 9999 SCT031/// BKN042/// 19/12 Q1011
2026-04-21 09:50:00,METAR LIRZ 210950Z AUTO 17004KT 130V210 9999 SCT025/// BKN045/// 18/13 Q1011
2026-04-21 09:20:00,METAR LIRZ 210920Z AUTO 19003KT 110V250 9999 FEW023/// BKN065/// 18/12 Q1011
2026-04-21 08:50:00,METAR LIRZ 210850Z AUTO 15003KT 110V220 9999 FEW026/// BKN049/// BKN066/// 17/13 Q1012
2026-04-21 08:20:00,METAR LIRZ 210820Z AUTO 17003KT 120V230 9999 BKN043/// 17/13 Q1012
2026-04-21 07:50:00,METAR LIRZ 210750Z AUTO VRB02KT 9999 BKN037/// BKN051/// 15/13 Q1012
2026-04-21 07:20:00,METAR LIRZ 210720Z AUTO VRB01KT 9999 OVC040/// 14/13 Q1012
2026-04-21 06:50:00,METAR LIRZ 210650Z AUTO VRB01KT 9999 OVC036/// 14/13 Q1012
2026-04-21 06:20:00,METAR LIRZ 210620Z AUTO 02004KT 9999 OVC030/// 13/13 Q1012
2026-04-21 05:50:00,METAR LIRZ 210550Z AUTO 03003KT 9999 -DZ OVC028/// 13/12 Q1012 REDZ
2026-04-21 05:20:00,METAR LIRZ 210520Z AUTO 02003KT 9999 FEW020/// BKN026/// 12/12 Q1012
2026-04-21 04:50:00,METAR LIRZ 210450Z AUTO 04004KT 9999 SCT019/// BKN036/// 12/11 Q1012
2026-04-21 04:20:00,METAR LIRZ 210420Z AUTO 02004KT 9999 BKN018/// 12/11 Q1012
2026-04-21 03:50:00,METAR LIRZ 210350Z AUTO 02006KT 9999 BKN049/// 11/11 Q1012
2026-04-21 03:20:00,METAR LIRZ 210320Z AUTO VRB02KT 9999 BKN050/// 11/10 Q1011
2026-04-21 02:50:00,METAR LIRZ 210250Z AUTO 01005KT 9999 SCT050/// 11/10 Q1012
2026-04-21 02:20:00,METAR LIRZ 210220Z AUTO 03006KT 9999 SCT049/// SCT095/// 10/10 Q1012
2026-04-21 01:50:00,METAR LIRZ 210150Z AUTO 01004KT 9999 FEW048/// 11/10 Q1012
2026-04-21 01:20:00,METAR LIRZ 210120Z AUTO 36005KT 9999 FEW046/// SCT090/// 11/10 Q1012
2026-04-21 00:50:00,METAR LIRZ 210050Z AUTO 02003KT 340V050 9999 FEW044/// BKN078/// 12/11 Q1013
2026-04-21 00:20:00,METAR LIRZ 210020Z AUTO VRB04KT 9999 SCT090/// 12/10 Q1013
2026-04-20 23:50:00,METAR LIRZ 202350Z AUTO 27003KT 240V320 9999 FEW056/// BKN091/// 15/11 Q1013
2026-04-20 23:20:00,METAR LIRZ 202320Z AUTO 26007KT 230V290 9999 FEW053/// BKN095/// 14/11 Q1013
2026-04-20 22:50:00,METAR LIRZ 202250Z AUTO 23003KT 200V260 9999 BKN052/// BKN093/// 15/10 Q1013
2026-04-20 22:20:00,METAR LIRZ 202220Z AUTO 23003KT 9999 BKN051/// BKN094/// 16/10 Q1012
2026-04-20 21:50:00,METAR LIRZ 202150Z AUTO 23003KT 9999 BKN049/// 16/10 Q1013
2026-04-20 21:20:00,METAR LIRZ 202120Z AUTO VRB01KT 9999 BKN046/// 16/11 Q1013
2026-04-20 20:50:00,METAR LIRZ 202050Z AUTO 26004KT 9999 BKN045/// BKN094/// 16/10 Q1013
2026-04-20 20:20:00,METAR LIRZ 202020Z AUTO 19003KT 9999 BKN094/// 16/11 Q1012
2026-04-20 19:50:00,METAR LIRZ 201950Z AUTO 17003KT 9999 BKN078/// 16/11 Q1012
2026-04-20 19:20:00,METAR LIRZ 201920Z AUTO 19004KT 140V220 9999 NCD 17/11 Q1012
2026-04-20 18:50:00,METAR LIRZ 201850Z AUTO 22009KT 9999 SCT052/// SCT068/// 18/11 Q1012
2026-04-20 18:20:00,METAR LIRZ 201820Z AUTO 22009KT 190V250 9999 SCT053/// 18/12 Q1011
2026-04-20 17:50:00,METAR LIRZ 201750Z AUTO 21005KT 160V230 9999 NCD 18/13 Q1011
2026-04-20 17:20:00,METAR LIRZ 201720Z AUTO 21006KT 160V240 9999 FEW055/// 19/13 Q1011
2026-04-20 16:50:00,METAR LIRZ 201650Z AUTO VRB02KT 9999 BKN056/// 20/13 Q1011 RETS
2026-04-20 16:20:00,METAR LIRZ 201620Z AUTO 26009KT 210V330 9999 TS BKN063/// BKN110/// 20/13 Q1011
2026-04-20 15:50:00,METAR LIRZ 201550Z AUTO 20009KT 9999 VCTS FEW046/// BKN079/// 20/13 Q1011
2026-04-20 15:20:00,METAR LIRZ 201520Z AUTO 23005KT 9999 -RA FEW046/// 20/15 Q1011 RERA
2026-04-20 14:50:00,METAR LIRZ 201450Z AUTO VRB05KT 9999 2500S -RA SCT028/// SCT075/// BKN087/// 17/14 Q1011
2026-04-20 14:20:00,METAR LIRZ 201420Z AUTO 22007KT 9999 -RA VCTS BKN045/// 20/13 Q1011
2026-04-20 13:50:00,METAR LIRZ 201350Z AUTO 23011KT 9999 VCTS BKN043/// 21/13 Q1011 RETS
2026-04-20 13:20:00,METAR LIRZ 201320Z AUTO 21014KT 190V250 9999 -TSRA BKN042/// BKN091/// 22/14 Q1012 RERA
2026-04-20 12:50:00,METAR LIRZ 201250Z AUTO 21009KT 180V240 9999 FEW057/// 21/12 Q1012
2026-04-20 12:20:00,METAR LIRZ 201220Z AUTO 20005KT 130V250 9999 NCD 23/12 Q1013
2026-04-20 11:50:00,METAR LIRZ 201150Z AUTO 15003KT 070V210 9999 FEW073/// 21/12 Q1013
2026-04-20 11:20:00,METAR LIRZ 201120Z AUTO VRB02KT 9999 FEW100/// 20/11 Q1013
2026-04-20 10:50:00,METAR LIRZ 201050Z AUTO VRB02KT 9999 BKN078/// 19/12 Q1014
2026-04-20 10:20:00,METAR LIRZ 201020Z AUTO VRB02KT 9999 SCT078/// BKN094/// 18/10 Q1014
2026-04-20 09:50:00,METAR LIRZ 200950Z AUTO 09003KT 030V150 9999 FEW073/// BKN089/// 17/10 Q1014
2026-04-20 09:20:00,METAR LIRZ 200920Z AUTO VRB02KT 9999 -RA BKN073/// 16/11 Q1015
2026-04-20 08:50:00,METAR LIRZ 200850Z AUTO VRB02KT 9999 -RA BKN052/// BKN098/// 16/11 Q1015
2026-04-20 08:20:00,METAR LIRZ 200820Z AUTO VRB02KT 9999 -RA BKN061/// 16/10 Q1015
2026-04-20 07:50:00,METAR LIRZ 200750Z AUTO 21003KT 090V250 9999 BKN120/// 15/10 Q1015
2026-04-20 07:20:00,METAR LIRZ 200720Z AUTO VRB02KT 9999 SCT120/// 14/10 Q1015
2026-04-20 06:50:00,METAR LIRZ 200650Z AUTO VRB02KT 9999 SCT120/// 13/10 Q1015
2026-04-20 06:20:00,METAR LIRZ 200620Z AUTO VRB03KT 9999 SCT140/// 12/10 Q1015
2026-04-20 05:50:00,METAR LIRZ 200550Z AUTO 09005KT 050V110 9999 SCT140/// 10/09 Q1014
2026-04-20 05:20:00,METAR LIRZ 200520Z AUTO VRB02KT 9999 FEW150/// 10/09 Q1015
2026-04-20 04:50:00,METAR LIRZ 200450Z AUTO 36004KT 320V020 9999 NCD 08/08 Q1015
2026-04-20 04:20:00,METAR LIRZ 200420Z AUTO 32003KT 290V010 9999 NCD 08/07 Q1015
2026-04-20 03:50:00,METAR LIRZ 200350Z AUTO 34004KT 280V020 9999 NCD 09/07 Q1014
2026-04-20 03:20:00,METAR LIRZ 200320Z AUTO VRB01KT 9999 NCD 09/07 Q1014
2026-04-20 02:50:00,METAR LIRZ 200250Z AUTO 34003KT 290V010 9999 NCD 09/08 Q1015
2026-04-20 02:20:00,METAR LIRZ 200220Z AUTO 35004KT 280V020 9999 NCD 09/08 Q1015
2026-04-20 01:50:00,METAR LIRZ 200150Z AUTO 36006KT 9999 NCD 09/08 Q1015
2026-04-20 01:20:00,METAR LIRZ 200120Z AUTO 35004KT 9999 NCD 10/09 Q1015
2026-04-20 00:50:00,METAR LIRZ 200050Z AUTO 02005KT 9999 NCD 10/09 Q1015
2026-04-20 00:20:00,METAR LIRZ 200020Z AUTO 01006KT 9999 NCD 10/09 Q1016
2026-04-19 23:50:00,METAR LIRZ 192350Z AUTO 02006KT 9999 NCD 11/09 Q1016
2026-04-19 23:20:00,METAR LIRZ 192320Z AUTO VRB02KT 9999 NCD 12/09 Q1016
2026-04-19 22:50:00,METAR LIRZ 192250Z AUTO 36003KT 9999 FEW052/// 14/10 Q1016
2026-04-19 22:20:00,METAR LIRZ 192220Z AUTO 03004KT 9999 FEW055/// SCT081/// 14/10 Q1016
2026-04-19 21:50:00,METAR LIRZ 192150Z AUTO 33003KT 280V040 9999 SCT059/// BKN081/// 15/10 Q1016
2026-04-19 21:20:00,METAR LIRZ 192120Z AUTO 27005KT 9999 FEW062/// 16/10 Q1016
2026-04-19 20:50:00,METAR LIRZ 192050Z AUTO 27003KT 230V330 9999 FEW066/// BKN084/// 18/10 Q1016
2026-04-19 20:20:00,METAR LIRZ 192020Z AUTO 25006KT 9999 FEW062/// SCT100/// 18/10 Q1016
2026-04-19 19:50:00,METAR LIRZ 191950Z AUTO 23009KT 9999 FEW061/// 18/11 Q1015
2026-04-19 19:20:00,METAR LIRZ 191920Z AUTO 23009KT 9999 BKN084/// 18/11 Q1015
2026-04-19 18:50:00,METAR LIRZ 191850Z AUTO 22006KT 9999 FEW079/// 19/11 Q1015
2026-04-19 18:20:00,METAR LIRZ 191820Z AUTO 22005KT 9999 FEW080/// 19/11 Q1014
2026-04-19 17:50:00,METAR LIRZ 191750Z AUTO 24007KT 9999 NCD 20/11 Q1014
2026-04-19 17:20:00,METAR LIRZ 191720Z AUTO 26008KT 9999 FEW060/// 21/11 Q1014
2026-04-19 16:50:00,METAR LIRZ 191650Z AUTO 26010KT 9999 SCT099/// 23/10 Q1013
2026-04-19 16:20:00,METAR LIRZ 191620Z AUTO 26007KT 9999 SCT095/// 23/09 Q1013
2026-04-19 15:50:00,METAR LIRZ 191550Z AUTO 25006KT 9999 FEW110/// 23/09 Q1014
2026-04-19 15:20:00,METAR LIRZ 191520Z AUTO 27007KT 9999 FEW110/// 24/09 Q1014
2026-04-19 14:50:00,METAR LIRZ 191450Z AUTO 24007KT 210V290 9999 NCD 24/09 Q1014
2026-04-19 14:20:00,METAR LIRZ 191420Z AUTO 24006KT 180V280 9999 NCD 25/06 Q1014
2026-04-19 13:50:00,METAR LIRZ 191350Z AUTO 25006KT 210V300 9999 NCD 25/07 Q1014
2026-04-19 13:20:00,METAR LIRZ 191320Z AUTO 24006KT 210V290 9999 NCD 25/06 Q1015
2026-04-19 12:50:00,METAR LIRZ 191250Z AUTO 25006KT 200V320 9999 NCD 25/04 Q1015
2026-04-19 12:20:00,METAR LIRZ 191220Z AUTO 25005KT 180V320 9999 NCD 24/01 Q1015
2026-04-19 11:50:00,METAR LIRZ 191150Z AUTO 23005KT 180V280 9999 NCD 24/04 Q1016
2026-04-19 11:20:00,METAR LIRZ 191120Z AUTO 24006KT 200V270 9999 NCD 22/07 Q1016
2026-04-19 10:50:00,METAR LIRZ 191050Z AUTO 23004KT 140V290 9999 NCD 22/06 Q1016
2026-04-19 10:20:00,METAR LIRZ 191020Z AUTO 23006KT 200V270 9999 NCD 21/07 Q1017
2026-04-19 09:50:00,METAR LIRZ 190950Z AUTO VRB02KT 9999 NCD 20/09 Q1017
2026-04-19 09:20:00,METAR LIRZ 190920Z AUTO 23003KT 180V310 9999 NCD 19/07 Q1017
2026-04-19 08:50:00,METAR LIRZ 190850Z AUTO VRB02KT 9999 NCD 18/07 Q1017
2026-04-19 08:20:00,METAR LIRZ 190820Z AUTO VRB02KT 9999 NCD 17/07 Q1017
2026-04-19 07:50:00,METAR LIRZ 190750Z AUTO VRB01KT 9999 NCD 17/07 Q1017
2026-04-19 07:20:00,METAR LIRZ 190720Z AUTO VRB01KT 9999 NCD 14/07 Q1017
2026-04-19 06:50:00,METAR LIRZ 190650Z AUTO VRB01KT 9999 NCD 13/07 Q1017
2026-04-19 06:20:00,METAR LIRZ 190620Z AUTO VRB01KT 9999 NCD 11/06 Q1018
2026-04-19 05:50:00,METAR LIRZ 190550Z AUTO 03003KT 9999 NCD 10/06 Q1018
2026-04-19 05:20:00,METAR LIRZ 190520Z AUTO VRB01KT 9999 NCD 08/06 Q1017
2026-04-19 04:50:00,METAR LIRZ 190450Z AUTO 03003KT 9999 NCD 07/05 Q1017
2026-04-19 04:20:00,METAR LIRZ 190420Z AUTO 02005KT 9999 NCD 07/05 Q1017
2026-04-19 03:50:00,METAR LIRZ 190350Z AUTO VRB01KT 9999 NCD 08/05 Q1017
2026-04-19 03:20:00,METAR LIRZ 190320Z AUTO 36006KT 9999 NCD 08/05 Q1017
2026-04-19 02:50:00,METAR LIRZ 190250Z AUTO 02005KT 9999 NCD 08/05 Q1017
2026-04-19 02:20:00,METAR LIRZ 190220Z AUTO 36005KT 320V080 9999 NCD 09/06 Q1017
2026-04-19 01:50:00,METAR LIRZ 190150Z AUTO 35010KT 9999 NCD 10/06 Q1017
2026-04-19 01:20:00,METAR LIRZ 190120Z AUTO 35011KT 9999 NCD 09/06 Q1017
2026-04-19 00:50:00,METAR LIRZ 190050Z AUTO VRB06KT 9999 NCD 09/06 Q1017
2026-04-19 00:20:00,METAR LIRZ 190020Z AUTO 35008KT 9999 NCD 10/06 Q1017
2026-04-18 23:50:00,METAR LIRZ 182350Z AUTO 36005KT 340V070 9999 NCD 11/06 Q1018
2026-04-18 23:20:00,METAR LIRZ 182320Z AUTO 36008KT 9999 NCD 10/06 Q1017
2026-04-18 22:50:00,METAR LIRZ 182250Z AUTO 35008KT 9999 NCD 11/06 Q1017
2026-04-18 22:20:00,METAR LIRZ 182220Z AUTO 36009KT 9999 NCD 11/06 Q1017
2026-04-18 21:50:00,METAR LIRZ 182150Z AUTO 36008KT 9999 NCD 11/06 Q1017
2026-04-18 21:20:00,METAR LIRZ 182120Z AUTO 02007KT 9999 NCD 11/06 Q1017
2026-04-18 20:50:00,METAR LIRZ 182050Z AUTO 36008KT 9999 NCD 11/06 Q1017
2026-04-18 20:20:00,METAR LIRZ 182020Z AUTO 01008KT 9999 NCD 11/07 Q1017
2026-04-18 19:50:00,METAR LIRZ 181950Z AUTO 03005KT 9999 NCD 12/06 Q1017
2026-04-18 19:20:00,METAR LIRZ 181920Z AUTO 03006KT 9999 NCD 15/06 Q1017
2026-04-18 18:50:00,METAR LIRZ 181850Z AUTO 36006KT 9999 NCD 15/07 Q1017
2026-04-18 18:20:00,METAR LIRZ 181820Z AUTO 03005KT 9999 NCD 17/06 Q1017
2026-04-18 17:50:00,METAR LIRZ 181750Z AUTO 04007KT 9999 NCD 19/06 Q1016
2026-04-18 17:20:00,METAR LIRZ 181720Z AUTO 05007KT 9999 NCD 21/06 Q1016
2026-04-18 16:50:00,METAR LIRZ 181650Z AUTO 05009KT 9999 NCD 21/06 Q1016
2026-04-18 16:20:00,METAR LIRZ 181620Z AUTO 05011KT 9999 NCD 22/06 Q1016
2026-04-18 15:20:00,METAR LIRZ 181520Z AUTO 05011KT 9999 NCD 23/07 Q1016
2026-04-18 14:50:00,METAR LIRZ 181450Z AUTO 05011KT 9999 NCD 23/08 Q1016
2026-04-18 14:20:00,METAR LIRZ 181420Z AUTO 03014KT 9999 NCD 23/07 Q1016
2026-04-18 13:50:00,METAR LIRZ 181350Z AUTO 04012KT 9999 NCD 23/07 Q1017
2026-04-18 13:20:00,METAR LIRZ 181320Z AUTO 03013KT 9999 NCD 23/06 Q1017
2026-04-18 12:50:00,METAR LIRZ 181250Z AUTO 03011KT 9999 NCD 24/08 Q1017
2026-04-18 12:20:00,METAR LIRZ 181220Z AUTO 03011KT 340V050 9999 NCD 23/07 Q1017
2026-04-18 11:50:00,METAR LIRZ 181150Z AUTO 03013KT 9999 FEW077/// 23/07 Q1017
2026-04-18 11:20:00,METAR LIRZ 181120Z AUTO 04008KT 010V110 9999 FEW079/// 24/07 Q1017
2026-04-18 10:50:00,METAR LIRZ 181050Z AUTO 05008KT 010V130 9999 FEW083/// 23/06 Q1017
2026-04-18 10:20:00,METAR LIRZ 181020Z AUTO 07010KT 010V120 9999 NCD 23/06 Q1018
2026-04-18 09:50:00,METAR LIRZ 180950Z AUTO 06010KT 020V080 9999 NCD 23/05 Q1018
2026-04-18 09:20:00,METAR LIRZ 180920Z AUTO 04011KT 9999 NCD 22/06 Q1018
2026-04-18 08:50:00,METAR LIRZ 180850Z AUTO 04009KT 360V070 9999 NCD 22/07 Q1018
2026-04-18 08:20:00,METAR LIRZ 180820Z AUTO 02009KT 9999 NCD 20/08 Q1018
2026-04-18 07:50:00,METAR LIRZ 180750Z AUTO 34005KT 9999 NCD 19/10 Q1018
2026-04-18 07:20:00,METAR LIRZ 180720Z AUTO 35006KT 9999 NCD 17/11 Q1018
2026-04-18 06:50:00,METAR LIRZ 180650Z AUTO 36008KT 9999 NCD 15/10 Q1018
2026-04-18 06:20:00,METAR LIRZ 180620Z AUTO 35008KT 9999 NCD 13/09 Q1018
2026-04-18 05:50:00,METAR LIRZ 180550Z AUTO 35010KT 9999 NCD 11/08 Q1018
2026-04-18 05:20:00,METAR LIRZ 180520Z AUTO 34005KT 9999 NCD 10/08 Q1018
2026-04-18 04:50:00,METAR LIRZ 180450Z AUTO 34004KT 9999 NCD 09/07 Q1018
2026-04-18 04:20:00,METAR LIRZ 180420Z AUTO 36007KT 9999 NCD 09/07 Q1018
2026-04-18 03:50:00,METAR LIRZ 180350Z AUTO 36003KT 9999 NCD 09/07 Q1018
2026-04-18 03:20:00,METAR LIRZ 180320Z AUTO 36005KT 9999 NCD 09/07 Q1018
2026-04-18 02:50:00,METAR LIRZ 180250Z AUTO 36006KT 9999 NCD 09/07 Q1017
2026-04-18 02:20:00,METAR LIRZ 180220Z AUTO 34003KT 250V030 9999 NCD 10/07 Q1018
2026-04-18 01:50:00,METAR LIRZ 180150Z AUTO 01007KT 9999 NCD 10/08 Q1017
2026-04-18 01:20:00,METAR LIRZ 180120Z AUTO 36008KT 9999 NCD 10/07 Q1017
2026-04-18 00:50:00,METAR LIRZ 180050Z AUTO 36008KT 9999 NCD 10/07 Q1017
2026-04-18 00:20:00,METAR LIRZ 180020Z AUTO 34006KT 9999 NCD 10/07 Q1018
2026-04-17 23:50:00,METAR LIRZ 172350Z AUTO 35007KT 9999 NCD 10/07 Q1018
2026-04-17 23:20:00,METAR LIRZ 172320Z AUTO 35007KT 9999 NCD 10/08 Q1018
2026-04-17 22:50:00,METAR LIRZ 172250Z AUTO 35004KT 9999 NCD 12/08 Q1018
2026-04-17 22:20:00,METAR LIRZ 172220Z AUTO 35007KT 9999 NCD 12/08 Q1017
2026-04-17 21:50:00,METAR LIRZ 172150Z AUTO 35008KT 9999 NCD 12/08 Q1017
2026-04-17 21:20:00,METAR LIRZ 172120Z AUTO 05006KT 9999 NCD 13/08 Q1017
2026-04-17 20:50:00,METAR LIRZ 172050Z AUTO 03007KT 9999 NCD 13/08 Q1017
2026-04-17 20:20:00,METAR LIRZ 172020Z AUTO 04007KT 9999 NCD 14/08 Q1017
2026-04-17 19:50:00,METAR LIRZ 171950Z AUTO 05008KT 9999 NCD 16/09 Q1017
2026-04-17 19:20:00,METAR LIRZ 171920Z AUTO 04007KT 9999 NCD 16/09 Q1017
2026-04-17 18:50:00,METAR LIRZ 171850Z AUTO 03008KT 9999 NCD 17/09 Q1017
2026-04-17 18:20:00,METAR LIRZ 171820Z AUTO 04010KT 9999 NCD 18/09 Q1016
2026-04-17 17:50:00,METAR LIRZ 171750Z AUTO 04011KT 9999 NCD 19/09 Q1016
2026-04-17 17:20:00,METAR LIRZ 171720Z AUTO 04012KT 9999 NCD 20/09 Q1016
2026-04-17 16:50:00,METAR LIRZ 171650Z AUTO 04014KT 9999 NCD 21/08 Q1016
2026-04-17 16:20:00,METAR LIRZ 171620Z AUTO 04012KT 9999 NCD 22/09 Q1015
2026-04-17 15:50:00,METAR LIRZ 171550Z AUTO 04013KT 9999 NCD 22/09 Q1015
2026-04-17 15:20:00,METAR LIRZ 171520Z AUTO 04013KT 9999 NCD 23/09 Q1015
2026-04-17 14:50:00,METAR LIRZ 171450Z AUTO 04013KT 9999 NCD 23/10 Q1015
2026-04-17 14:20:00,METAR LIRZ 171420Z AUTO 05012KT 020V080 9999 NCD 23/09 Q1015
2026-04-17 13:50:00,METAR LIRZ 171350Z AUTO 05013KT 9999 NCD 24/08 Q1016
2026-04-17 13:20:00,METAR LIRZ 171320Z AUTO 07012KT 9999 NCD 24/09 Q1016
2026-04-17 12:50:00,METAR LIRZ 171250Z AUTO 04009KT 360V080 9999 NCD 24/09 Q1016
2026-04-17 12:20:00,METAR LIRZ 171220Z AUTO 06011KT 020V080 9999 NCD 24/08 Q1016
2026-04-17 11:50:00,METAR LIRZ 171150Z AUTO 05014KT 9999 NCD 24/08 Q1016
2026-04-17 11:20:00,METAR LIRZ 171120Z AUTO 03014KT 9999 NCD 23/09 Q1016
2026-04-17 10:50:00,METAR LIRZ 171050Z AUTO 03015KT 9999 NCD 23/09 Q1017
2026-04-17 10:20:00,METAR LIRZ 171020Z AUTO 03012KT 9999 NCD 23/09 Q1017
2026-04-17 09:50:00,METAR LIRZ 170950Z AUTO 04014KT 9999 NCD 22/09 Q1017
2026-04-17 09:20:00,METAR LIRZ 170920Z AUTO 02015KT 9999 NCD 22/10 Q1017
2026-04-17 08:50:00,METAR LIRZ 170850Z AUTO 02010KT 9999 NCD 22/10 Q1017
2026-04-17 08:20:00,METAR LIRZ 170820Z AUTO 34007KT 300V040 9999 NCD 20/12 Q1017
2026-04-17 07:50:00,METAR LIRZ 170750Z AUTO 32006KT 290V350 9999 NCD 19/11 Q1018
2026-04-17 07:20:00,METAR LIRZ 170720Z AUTO 35005KT 9999 NCD 17/12 Q1018
2026-04-17 06:50:00,METAR LIRZ 170650Z AUTO 34003KT 310V010 9999 NCD 16/11 Q1018
2026-04-17 06:20:00,METAR LIRZ 170620Z AUTO 36004KT 9999 NCD 14/11 Q1018
2026-04-17 05:50:00,METAR LIRZ 170550Z AUTO 01007KT 9999 NCD 12/10 Q1018
2026-04-17 05:20:00,METAR LIRZ 170520Z AUTO 36009KT 9999 NCD 11/09 Q1018
2026-04-17 04:50:00,METAR LIRZ 170450Z AUTO 01008KT 9999 NCD 10/09 Q1018
2026-04-17 04:20:00,METAR LIRZ 170420Z AUTO 36008KT 9999 NCD 10/09 Q1018
2026-04-17 03:50:00,METAR LIRZ 170350Z AUTO 01010KT 9999 NCD 11/09 Q1018
2026-04-17 03:20:00,METAR LIRZ 170320Z AUTO 36008KT 9999 NCD 10/08 Q1018
2026-04-17 02:50:00,METAR LIRZ 170250Z AUTO 35009KT 9999 NCD 11/09 Q1018
2026-04-17 02:20:00,METAR LIRZ 170220Z AUTO 34007KT 9999 NCD 11/09 Q1018
2026-04-17 01:50:00,METAR LIRZ 170150Z AUTO 35011KT 9999 NCD 12/09 Q1018
2026-04-17 01:20:00,METAR LIRZ 170120Z AUTO 35009KT 9999 NCD 12/09 Q1018
2026-04-17 00:50:00,METAR LIRZ 170050Z AUTO 36009KT 9999 NCD 11/09 Q1018
2026-04-17 00:20:00,METAR LIRZ 170020Z AUTO 02007KT 9999 NCD 13/09 Q1018
2026-04-16 23:50:00,METAR LIRZ 162350Z AUTO 36008KT 9999 NCD 13/09 Q1018
2026-04-16 23:20:00,METAR LIRZ 162320Z AUTO 31006KT 280V360 9999 NCD 13/09 Q1018
2026-04-16 22:50:00,METAR LIRZ 162250Z AUTO 33006KT 310V010 9999 NCD 14/09 Q1018
2026-04-16 22:20:00,METAR LIRZ 162220Z AUTO 01004KT 330V090 9999 NCD 14/09 Q1018
2026-04-16 21:50:00,METAR LIRZ 162150Z AUTO 01009KT 9999 NCD 14/10 Q1018
2026-04-16 21:20:00,METAR LIRZ 162120Z AUTO 02008KT 9999 NCD 14/10 Q1018
2026-04-16 20:50:00,METAR LIRZ 162050Z AUTO 35007KT 9999 NCD 14/10 Q1018
2026-04-16 20:20:00,METAR LIRZ 162020Z AUTO 35007KT 9999 NCD 15/10 Q1018
2026-04-16 19:50:00,METAR LIRZ 161950Z AUTO 33006KT 9999 NCD 16/10 Q1017
2026-04-16 19:20:00,METAR LIRZ 161920Z AUTO 02011KT 9999 NCD 17/10 Q1017
2026-04-16 18:50:00,METAR LIRZ 161850Z AUTO 02011KT 9999 NCD 18/10 Q1017
2026-04-16 18:20:00,METAR LIRZ 161820Z AUTO 01007KT 9999 NCD 18/10 Q1017
2026-04-16 17:50:00,METAR LIRZ 161750Z AUTO 36008KT 9999 NCD 18/10 Q1016
2026-04-16 17:20:00,METAR LIRZ 161720Z AUTO 36007KT 330V030 9999 NCD 19/10 Q1016
2026-04-16 16:50:00,METAR LIRZ 161650Z AUTO 04012KT 9999 NCD 21/09 Q1016
2026-04-16 16:20:00,METAR LIRZ 161620Z AUTO 03014KT 9999 NCD 21/09 Q1016
2026-04-16 15:50:00,METAR LIRZ 161550Z AUTO 04014KT 9999 NCD 22/10 Q1016
2026-04-16 14:50:00,METAR LIRZ 161450Z AUTO 03015KT 9999 NCD 23/11 Q1016
2026-04-16 14:20:00,METAR LIRZ 161420Z AUTO 03013KT 9999 NCD 23/11 Q1016
2026-04-16 13:50:00,METAR LIRZ 161350Z AUTO 03014KT 9999 NCD 23/11 Q1016
2026-04-16 13:20:00,METAR LIRZ 161320Z AUTO 04014KT 9999 FEW130/// 23/11 Q1016
2026-04-16 12:50:00,METAR LIRZ 161250Z AUTO 03013KT 360V060 9999 NCD 23/11 Q1017
2026-04-16 12:20:00,METAR LIRZ 161220Z AUTO 03012KT 360V060 9999 NCD 23/11 Q1017
2026-04-16 11:50:00,METAR LIRZ 161150Z AUTO 04011KT 020V080 9999 NCD 22/13 Q1017
2026-04-16 11:20:00,METAR LIRZ 161120Z AUTO 03012KT 010V070 9999 FEW046/// 22/12 Q1017
2026-04-16 10:50:00,METAR LIRZ 161050Z AUTO 04008KT 010V070 9999 NCD 21/12 Q1017
2026-04-16 10:20:00,METAR LIRZ 161020Z AUTO 04010KT 9999 FEW092/// 21/12 Q1018
2026-04-16 09:50:00,METAR LIRZ 160950Z AUTO 04011KT 9999 FEW088/// BKN100/// 20/13 Q1018
2026-04-16 09:20:00,METAR LIRZ 160920Z AUTO 03011KT 9999 SCT071/// BKN100/// 19/12 Q1018
2026-04-16 08:50:00,METAR LIRZ 160850Z AUTO 03009KT 360V060 9999 FEW100/// 19/13 Q1018
2026-04-16 08:20:00,METAR LIRZ 160820Z AUTO 03009KT 9999 FEW100/// 18/12 Q1017
2026-04-16 07:50:00,METAR LIRZ 160750Z AUTO 04009KT 9999 FEW039/// 18/12 Q1017
2026-04-16 07:20:00,METAR LIRZ 160720Z AUTO 33006KT 300V010 9999 SCT100/// 16/12 Q1018
2026-04-16 06:50:00,METAR LIRZ 160650Z AUTO 36007KT 9999 BKN068/// 16/12 Q1017
2026-04-16 06:20:00,METAR LIRZ 160620Z AUTO 01009KT 9999 FEW057/// BKN063/// 15/11 Q1017
2026-04-16 05:50:00,METAR LIRZ 160550Z AUTO 36009KT 9999 FEW057/// 15/11 Q1017
2026-04-16 05:20:00,METAR LIRZ 160520Z AUTO 33004KT 250V060 9999 NCD 14/11 Q1017
2026-04-16 04:50:00,METAR LIRZ 160450Z AUTO 34006KT 9999 FEW100/// 13/11 Q1017
2026-04-16 04:20:00,METAR LIRZ 160420Z AUTO 35007KT 9999 SCT100/// 14/11 Q1017
2026-04-16 03:50:00,METAR LIRZ 160350Z AUTO 35009KT 9999 FEW100/// 14/11 Q1017
2026-04-16 03:20:00,METAR LIRZ 160320Z AUTO 36010KT 9999 NCD 14/11 Q1017
2026-04-16 02:50:00,METAR LIRZ 160250Z AUTO 35009KT 9999 NCD 13/11 Q1017
2026-04-16 02:20:00,METAR LIRZ 160220Z AUTO 35009KT 9999 NCD 12/11 Q1016
2026-04-16 01:50:00,METAR LIRZ 160150Z AUTO 36008KT 9999 FEW100/// 12/11 Q1016
2026-04-16 01:20:00,METAR LIRZ 160120Z AUTO 02008KT 9999 NCD 13/11 Q1016
2026-04-16 00:50:00,METAR LIRZ 160050Z AUTO 02008KT 9999 NCD 14/11 Q1016
2026-04-16 00:20:00,METAR LIRZ 160020Z AUTO 01010KT 9999 NCD 14/11 Q1016
2026-04-15 23:50:00,METAR LIRZ 152350Z AUTO 01006KT 9999 NCD 14/11 Q1017
2026-04-15 23:20:00,METAR LIRZ 152320Z AUTO 02009KT 9999 NCD 14/12 Q1016
2026-04-15 22:50:00,METAR LIRZ 152250Z AUTO 02009KT 9999 FEW031/// 14/12 Q1017
2026-04-15 22:20:00,METAR LIRZ 152220Z AUTO 02008KT 9999 FEW029/// 15/12 Q1017
2026-04-15 21:50:00,METAR LIRZ 152150Z AUTO 01008KT 9999 BKN028/// BKN092/// 15/12 Q1017
2026-04-15 21:20:00,METAR LIRZ 152120Z AUTO 01009KT 9999 FEW023/// BKN077/// 15/12 Q1017
2026-04-15 20:50:00,METAR LIRZ 152050Z AUTO 02009KT 9999 FEW020/// BKN090/// 15/12 Q1017
2026-04-15 20:20:00,METAR LIRZ 152020Z AUTO 02008KT 9999 -RA SCT020/// BKN079/// 15/12 Q1017
2026-04-15 19:50:00,METAR LIRZ 151950Z AUTO 03010KT 9999 BKN057/// 15/12 Q1017
2026-04-15 19:20:00,METAR LIRZ 151920Z AUTO 03011KT 9999 BKN047/// 16/12 Q1017
2026-04-15 18:50:00,METAR LIRZ 151850Z AUTO 01012KT 9999 BKN072/// 16/12 Q1017
2026-04-15 18:20:00,METAR LIRZ 151820Z AUTO 03014KT 9999 BKN092/// 16/12 Q1016
2026-04-15 17:50:00,METAR LIRZ 151750Z AUTO 02013KT 9999 BKN091/// 16/12 Q1016
2026-04-15 17:20:00,METAR LIRZ 151720Z AUTO 02013KT 9999 FEW097/// SCT100/// 16/12 Q1015
2026-04-15 16:50:00,METAR LIRZ 151650Z AUTO 02013KT 9999 NCD 17/13 Q1015
2026-04-15 16:20:00,METAR LIRZ 151620Z AUTO 01015KT 9999 FEW032/// 17/13 Q1015
2026-04-15 15:50:00,METAR LIRZ 151550Z AUTO 01013KT 9999 FEW036/// 18/13 Q1015
2026-04-15 15:20:00,METAR LIRZ 151520Z AUTO 02015KT 9999 FEW095/// 17/13 Q1015
2026-04-15 14:50:00,METAR LIRZ 151450Z AUTO 04011KT 360V080 9999 FEW100/// 18/13 Q1015
2026-04-15 14:20:00,METAR LIRZ 151420Z AUTO 04016KT 9999 NCD 18/13 Q1014
2026-04-15 13:50:00,METAR LIRZ 151350Z AUTO 03015KT 010V070 9999 FEW064/// 18/13 Q1014
2026-04-15 13:20:00,METAR LIRZ 151320Z AUTO 03015KT 9999 FEW026/// 19/14 Q1014
2026-04-15 12:50:00,METAR LIRZ 151250Z AUTO 04012KT 360V060 9999 FEW027/// 19/14 Q1015
2026-04-15 12:20:00,METAR LIRZ 151220Z AUTO 03014KT 9999 SCT028/// 19/14 Q1015
2026-04-15 11:50:00,METAR LIRZ 151150Z AUTO 03015KT 9999 FEW079/// 18/14 Q1015
2026-04-15 11:20:00,METAR LIRZ 151120Z AUTO 04017KT 9999 FEW024/// BKN058/// 17/14 Q1014
2026-04-15 10:50:00,METAR LIRZ 151050Z AUTO 03014KT 360V060 9999 -RA FEW022/// SCT069/// 16/13 Q1015
2026-04-15 10:20:00,METAR LIRZ 151020Z AUTO 04015KT 9999 -RA BKN066/// 15/13 Q1015
2026-04-15 09:50:00,METAR LIRZ 150950Z AUTO 02010KT 340V050 9999 FEW043/// BKN078/// 16/13 Q1015
2026-04-15 09:20:00,METAR LIRZ 150920Z AUTO 01014KT 9999 BKN031/// 16/13 Q1015
2026-04-15 08:50:00,METAR LIRZ 150850Z AUTO 02012KT 9999 SCT033/// 17/13 Q1015
2026-04-15 08:20:00,METAR LIRZ 150820Z AUTO 02009KT 350V050 9999 BKN028/// 17/12 Q1015
2026-04-15 07:50:00,METAR LIRZ 150750Z AUTO 03011G23KT 360V060 9999 BKN031/// 17/12 Q1014
2026-04-15 07:20:00,METAR LIRZ 150720Z AUTO 01010KT 340V050 9999 NCD 16/12 Q1014
2026-04-15 06:50:00,METAR LIRZ 150650Z AUTO 02015KT 9999 FEW086/// 17/13 Q1013
2026-04-15 06:20:00,METAR LIRZ 150620Z AUTO 02009KT 9999 FEW100/// 16/13 Q1014
2026-04-15 05:50:00,METAR LIRZ 150550Z AUTO 03011KT 9999 BKN100/// 16/12 Q1014
2026-04-15 05:20:00,METAR LIRZ 150520Z AUTO 02010KT 9999 BKN092/// 15/12 Q1014
2026-04-15 04:50:00,METAR LIRZ 150450Z AUTO 03009KT 9999 OVC092/// 15/12 Q1013
2026-04-15 04:20:00,METAR LIRZ 150420Z AUTO 04009KT 9999 BKN096/// 15/11 Q1013
2026-04-15 03:50:00,METAR LIRZ 150350Z AUTO 03011KT 9999 BKN096/// 15/11 Q1013
2026-04-15 03:20:00,METAR LIRZ 150320Z AUTO 03011KT 9999 BKN083/// 15/11 Q1013
2026-04-15 02:50:00,METAR LIRZ 150250Z AUTO 02010KT 9999 SCT078/// 15/11 Q1013
2026-04-15 02:20:00,METAR LIRZ 150220Z AUTO 02010KT 9999 NCD 14/11 Q1013
2026-04-15 01:50:00,METAR LIRZ 150150Z AUTO 02009KT 9999 NCD 13/11 Q1013
2026-04-15 01:20:00,METAR LIRZ 150120Z AUTO 02010KT 9999 NCD 14/11 Q1013
2026-04-15 00:50:00,METAR LIRZ 150050Z AUTO 02010KT 9999 FEW100/// 14/11 Q1013
2026-04-15 00:20:00,METAR LIRZ 150020Z AUTO 02010KT 9999 FEW092/// 14/11 Q1013
2026-04-14 23:50:00,METAR LIRZ 142350Z AUTO 02010KT 9999 NCD 14/11 Q1013
2026-04-14 23:20:00,METAR LIRZ 142320Z AUTO 03011KT 9999 NCD 15/11 Q1014
2026-04-14 22:50:00,METAR LIRZ 142250Z AUTO 02011KT 9999 BKN100/// 15/11 Q1013
2026-04-14 22:20:00,METAR LIRZ 142220Z AUTO 03011KT 9999 SCT110/// 15/12 Q1014
2026-04-14 21:50:00,METAR LIRZ 142150Z AUTO 03011KT 9999 BKN110/// 15/12 Q1014
2026-04-14 21:20:00,METAR LIRZ 142120Z AUTO 04010KT 9999 BKN110/// 15/12 Q1013
2026-04-14 20:50:00,METAR LIRZ 142050Z AUTO 03011KT 9999 FEW089/// BKN110/// 15/12 Q1013
2026-04-14 20:20:00,METAR LIRZ 142020Z AUTO 01007KT 9999 BKN094/// 15/12 Q1013
2026-04-14 19:50:00,METAR LIRZ 141950Z AUTO 02010KT 9999 FEW076/// BKN096/// BKN120/// 15/12 Q1013
2026-04-14 19:20:00,METAR LIRZ 141920Z AUTO 01010KT 9999 SCT076/// BKN150/// 15/12 Q1013
2026-04-14 18:50:00,METAR LIRZ 141850Z AUTO 02009KT 9999 -RA FEW044/// SCT082/// BKN140/// 15/13 Q1012
2026-04-14 18:20:00,METAR LIRZ 141820Z AUTO 03008KT 9999 -RA BKN036/// BKN092/// 16/13 Q1012
2026-04-14 17:50:00,METAR LIRZ 141750Z AUTO 03008KT 9999 -RA FEW042/// BKN054/// BKN100/// 16/12 Q1012
2026-04-14 17:20:00,METAR LIRZ 141720Z AUTO 03011KT 9999 -RA BKN045/// BKN073/// 17/12 Q1011
2026-04-14 16:50:00,METAR LIRZ 141650Z AUTO 36008KT 9999 BKN045/// BKN082/// 17/14 Q1011
2026-04-14 16:20:00,METAR LIRZ 141620Z AUTO 35007KT 9999 FEW049/// SCT082/// 18/14 Q1011
2026-04-14 15:50:00,METAR LIRZ 141550Z AUTO 01006KT 9999 FEW062/// 19/13 Q1010
2026-04-14 15:20:00,METAR LIRZ 141520Z AUTO 02008KT 9999 SCT049/// BKN110/// 19/13 Q1010
2026-04-14 14:50:00,METAR LIRZ 141450Z AUTO 03008KT 360V070 9999 BKN041/// 19/13 Q1010
2026-04-14 14:20:00,METAR LIRZ 141420Z AUTO 02007KT 330V050 9999 FEW034/// SCT110/// 20/13 Q1010
2026-04-14 13:50:00,METAR LIRZ 141350Z AUTO 32004KT 260V340 9999 FEW029/// SCT100/// 19/13 Q1010
2026-04-14 13:20:00,METAR LIRZ 141320Z AUTO 34006KT 310V020 9999 FEW030/// 19/13 Q1010
2026-04-14 12:50:00,METAR LIRZ 141250Z AUTO 33004KT 300V020 9999 BKN057/// 19/13 Q1010
2026-04-14 12:20:00,METAR LIRZ 141220Z AUTO 32004KT 280V360 9999 FEW055/// SCT062/// BKN097/// 18/13 Q1010
2026-04-14 11:50:00,METAR LIRZ 141150Z AUTO 32005KT 280V360 9999 FEW088/// 19/14 Q1010
2026-04-14 11:20:00,METAR LIRZ 141120Z AUTO VRB02KT 9999 FEW023/// BKN056/// 18/13 Q1010
2026-04-14 10:50:00,METAR LIRZ 141050Z AUTO 34005KT 270V040 9999 FEW022/// 18/13 Q1010
2026-04-14 10:20:00,METAR LIRZ 141020Z AUTO 33005KT 290V360 9999 SCT031/// BKN056/// 17/14 Q1010
2026-04-14 09:50:00,METAR LIRZ 140950Z AUTO 34004KT 300V030 9999 BKN032/// 16/14 Q1010
2026-04-14 09:20:00,METAR LIRZ 140920Z AUTO 35004KT 310V020 9999 FEW007/// SCT032/// BKN051/// 15/14 Q1010
2026-04-14 08:50:00,METAR LIRZ 140850Z AUTO 01004KT 320V030 9999 BKN007/// BKN034/// BKN049/// 15/14 Q1010
2026-04-14 08:20:00,METAR LIRZ 140820Z AUTO 34003KT 9999 FEW035/// BKN047/// 14/13 Q1009
2026-04-14 07:50:00,METAR LIRZ 140750Z AUTO 33004KT 290V360 9999 -DZ FEW006/// BKN037/// 13/13 Q1009 REDZ RERA
2026-04-14 07:20:00,METAR LIRZ 140720Z AUTO 28003KT 250V340 9999 -DZRA BKN039/// 13/13 Q1009
2026-04-14 06:50:00,METAR LIRZ 140650Z AUTO 34005KT 9999 -DZ BKN040/// 13/13 Q1008 REDZ RERA
2026-04-14 06:20:00,METAR LIRZ 140620Z AUTO VRB02KT 9000 BKN042/// 13/13 Q1008 REDZ RERA
2026-04-14 05:50:00,METAR LIRZ 140550Z AUTO 01004KT 4700 -RA BR SCT003/// BKN042/// 13/13 Q1008
2026-04-14 05:20:00,METAR LIRZ 140520Z AUTO VRB01KT 9999 -RA BKN003/// BKN052/// 13/12 Q1008
2026-04-14 04:50:00,METAR LIRZ 140450Z AUTO 33002KT 9999 BKN002/// BKN053/// 12/12 Q1007
2026-04-14 04:20:00,METAR LIRZ 140420Z AUTO 03003KT 9999 SCT003/// BKN059/// BKN095/// 12/12 Q1007
2026-04-14 03:50:00,METAR LIRZ 140350Z AUTO VRB02KT 9999 FEW007/// BKN062/// 13/12 Q1007
2026-04-14 03:20:00,METAR LIRZ 140320Z AUTO 05003KT 020V090 9999 OVC065/// 12/12 Q1006
2026-04-14 02:50:00,METAR LIRZ 140250Z AUTO VRB01KT 9999 FEW003/// BKN075/// BKN096/// 12/12 Q1006
2026-04-14 02:20:00,METAR LIRZ 140220Z AUTO 03003KT 9999 SCT002/// BKN059/// BKN071/// 12/12 Q1006
2026-04-14 01:50:00,METAR LIRZ 140150Z AUTO 05003KT 9999 BKN065/// 12/12 Q1006
2026-04-14 01:20:00,METAR LIRZ 140120Z AUTO 36005KT 9999 BKN051/// BKN100/// 13/12 Q1006
2026-04-14 00:50:00,METAR LIRZ 140050Z AUTO 35004KT 9999 FEW068/// BKN100/// 13/12 Q1006
2026-04-14 00:20:00,METAR LIRZ 140020Z AUTO 36003KT 9999 FEW064/// BKN081/// BKN100/// 12/12 Q1006
2026-04-13 23:50:00,METAR LIRZ 132350Z AUTO 02005KT 9999 BKN005/// BKN081/// BKN100/// 12/11 Q1006
2026-04-13 23:20:00,METAR LIRZ 132320Z AUTO 03004KT 9999 SCT006/// BKN024/// 13/12 Q1006
2026-04-13 22:50:00,METAR LIRZ 132250Z AUTO 02005KT 9999 FEW044/// 12/11 Q1005
2026-04-13 22:20:00,METAR LIRZ 132220Z AUTO 31003KT 280V340 9999 FEW074/// BKN091/// 14/13 Q1005
2026-04-13 21:50:00,METAR LIRZ 132150Z AUTO 35005KT 9999 FEW067/// SCT085/// 13/13 Q1005
2026-04-13 21:20:00,METAR LIRZ 132120Z AUTO 01005KT 9999 BKN083/// 14/13 Q1005
2026-04-13 20:50:00,METAR LIRZ 132050Z AUTO 36005KT 9999 BKN075/// 14/13 Q1005
2026-04-13 20:20:00,METAR LIRZ 132020Z AUTO 35005KT 9999 BKN056/// 14/13 Q1005
2026-04-13 19:50:00,METAR LIRZ 131950Z AUTO 31006KT 270V340 9999 BKN076/// 14/13 Q1004
2026-04-13 19:20:00,METAR LIRZ 131920Z AUTO 32005KT 300V360 9999 FEW055/// BKN074/// 14/14 Q1004
2026-04-13 18:50:00,METAR LIRZ 131850Z AUTO 02004KT 9999 -RA FEW027/// BKN053/// 15/14 Q1004 RERA
2026-04-13 18:20:00,METAR LIRZ 131820Z AUTO 34004KT 9000 -RA FEW036/// OVC058/// 15/14 Q1003 RERA
2026-04-13 17:50:00,METAR LIRZ 131750Z AUTO VRB02KT 6000 RA BKN051/// 15/14 Q1003
2026-04-13 17:20:00,METAR LIRZ 131720Z AUTO 30004KT 9999 -RA FEW034/// BKN060/// 16/14 Q1003
2026-04-13 16:50:00,METAR LIRZ 131650Z AUTO 03004KT 290V070 9999 -RA BKN042/// 16/13 Q1002
2026-04-13 16:20:00,METAR LIRZ 131620Z AUTO VRB02KT 9999 BKN057/// 17/13 Q1002
2026-04-13 15:50:00,METAR LIRZ 131550Z AUTO VRB01KT 9999 BKN070/// 18/13 Q1002
2026-04-13 15:20:00,METAR LIRZ 131520Z AUTO 23002KT 9999 BKN070/// 18/12 Q1002
2026-04-13 14:50:00,METAR LIRZ 131450Z AUTO VRB02KT 9999 -RA SCT036/// BKN079/// 18/13 Q1002
2026-04-13 14:20:00,METAR LIRZ 131420Z AUTO 25007KT 9999 -RA BKN046/// 18/12 Q1002
2026-04-13 13:50:00,METAR LIRZ 131350Z AUTO 25006KT 220V280 9999 -RA FEW038/// BKN048/// BKN077/// 18/12 Q1002
2026-04-13 13:20:00,METAR LIRZ 131320Z AUTO 34003KT 310V020 9999 -RA BKN044/// BKN064/// 20/12 Q1002
2026-04-13 12:50:00,METAR LIRZ 131250Z AUTO 36003KT 330V030 9999 FEW078/// 20/11 Q1002
2026-04-13 12:20:00,METAR LIRZ 131220Z AUTO 34005KT 310V010 9999 NCD 20/11 Q1002
2026-04-13 11:50:00,METAR LIRZ 131150Z AUTO 34005KT 9999 NCD 20/11 Q1002
2026-04-13 11:20:00,METAR LIRZ 131120Z AUTO 34005KT 9999 NCD 19/10 Q1002
2026-04-13 10:50:00,METAR LIRZ 131050Z AUTO 36008KT 340V040 9999 NCD 19/11 Q1002
2026-04-13 10:20:00,METAR LIRZ 131020Z AUTO 01007KT 340V040 9999 NCD 19/12 Q1003
2026-04-13 09:50:00,METAR LIRZ 130950Z AUTO 01007KT 9999 NCD 18/11 Q1003
2026-04-13 09:20:00,METAR LIRZ 130920Z AUTO 36007KT 9999 NCD 17/11 Q1003
2026-04-13 08:50:00,METAR LIRZ 130850Z AUTO 35008KT 9999 NCD 17/12 Q1003
2026-04-13 08:20:00,METAR LIRZ 130820Z AUTO 35008KT 9999 NCD 16/12 Q1003
2026-04-13 07:50:00,METAR LIRZ 130750Z AUTO 35005KT 9999 NCD 16/12 Q1003
2026-04-13 07:20:00,METAR LIRZ 130720Z AUTO 33006KT 9999 NCD 15/12 Q1004
2026-04-13 06:50:00,METAR LIRZ 130650Z AUTO 36005KT 9999 NCD 15/12 Q1004
2026-04-13 06:20:00,METAR LIRZ 130620Z AUTO 36007KT 9999 NCD 14/11 Q1004
2026-04-13 05:50:00,METAR LIRZ 130550Z AUTO 35007KT 9999 NCD 14/11 Q1004
2026-04-13 05:20:00,METAR LIRZ 130520Z AUTO 35008KT 9999 FEW150/// 14/11 Q1004
2026-04-13 04:50:00,METAR LIRZ 130450Z AUTO 35006KT 9999 FEW140/// 14/10 Q1004
2026-04-13 04:20:00,METAR LIRZ 130420Z AUTO 35008KT 9999 NCD 14/11 Q1004
2026-04-13 03:50:00,METAR LIRZ 130350Z AUTO 35008KT 9999 BKN150/// 15/11 Q1004
2026-04-13 03:20:00,METAR LIRZ 130320Z AUTO 35006KT 9999 BKN140/// 15/11 Q1004
2026-04-13 02:50:00,METAR LIRZ 130250Z AUTO 01005KT 340V040 9999 BKN130/// 15/11 Q1004
2026-04-13 02:20:00,METAR LIRZ 130220Z AUTO 35007KT 9999 BKN130/// 15/11 Q1004
2026-04-13 01:50:00,METAR LIRZ 130150Z AUTO 36008KT 9999 BKN120/// 16/11 Q1004
2026-04-13 01:20:00,METAR LIRZ 130120Z AUTO 36009KT 9999 BKN120/// 16/11 Q1005
2026-04-13 00:50:00,METAR LIRZ 130050Z AUTO 01012KT 9999 BKN100/// 16/10 Q1005
2026-04-13 00:20:00,METAR LIRZ 130020Z AUTO 36012KT 9999 BKN120/// 16/10 Q1005
2026-04-12 23:50:00,METAR LIRZ 122350Z AUTO 36010KT 9999 BKN110/// 16/10 Q1006
2026-04-12 23:20:00,METAR LIRZ 122320Z AUTO 35008KT 9999 OVC120/// 15/11 Q1006
2026-04-12 22:50:00,METAR LIRZ 122250Z AUTO 36008KT 9999 BKN110/// 15/11 Q1006
2026-04-12 22:20:00,METAR LIRZ 122220Z AUTO 35008KT 9999 BKN110/// 15/12 Q1007
2026-04-12 21:50:00,METAR LIRZ 122150Z AUTO 01008KT 9999 BKN130/// 15/12 Q1007
2026-04-12 21:20:00,METAR LIRZ 122120Z AUTO 35007KT 9999 BKN140/// 16/12 Q1008
2026-04-12 20:50:00,METAR LIRZ 122050Z AUTO 01007KT 9999 SCT130/// BKN150/// 16/12 Q1008
2026-04-12 20:20:00,METAR LIRZ 122020Z AUTO 02007KT 9999 BKN140/// 16/12 Q1008
2026-04-12 19:50:00,METAR LIRZ 121950Z AUTO 02008KT 9999 BKN160/// 16/12 Q1009
2026-04-12 19:20:00,METAR LIRZ 121920Z AUTO 01010KT 9999 BKN150/// 17/12 Q1009
2026-04-12 18:50:00,METAR LIRZ 121850Z AUTO 01010KT 9999 BKN170/// 17/13 Q1009
2026-04-12 18:20:00,METAR LIRZ 121820Z AUTO 02010KT 9999 BKN170/// 17/13 Q1009
2026-04-12 17:50:00,METAR LIRZ 121750Z AUTO 03011KT 9999 BKN170/// 18/13 Q1008
2026-04-12 17:20:00,METAR LIRZ 121720Z AUTO 02007KT 9999 FEW190/// 18/12 Q1008
2026-04-12 16:50:00,METAR LIRZ 121650Z AUTO 02004KT 9999 NCD 19/14 Q1009
2026-04-12 16:20:00,METAR LIRZ 121620Z AUTO VRB01KT 9999 NCD 21/10 Q1009
2026-04-12 15:50:00,METAR LIRZ 121550Z AUTO 22003KT 9999 NCD 21/09 Q1009
2026-04-12 14:50:00,METAR LIRZ 121450Z AUTO 24004KT 200V290 9999 NCD 21/11 Q1010
2026-04-12 14:20:00,METAR LIRZ 121420Z AUTO VRB01KT 9999 NCD 22/11 Q1010
2026-04-12 13:50:00,METAR LIRZ 121350Z AUTO 36003KT 320V020 9999 NCD 21/13 Q1010
2026-04-12 13:20:00,METAR LIRZ 121320Z AUTO VRB02KT 9999 NCD 21/11 Q1010
2026-04-12 12:50:00,METAR LIRZ 121250Z AUTO VRB02KT 9999 NCD 21/11 Q1011
2026-04-12 12:20:00,METAR LIRZ 121220Z AUTO VRB01KT 9999 NCD 21/13 Q1011
2026-04-12 11:50:00,METAR LIRZ 121150Z AUTO VRB02KT 9999 NCD 19/13 Q1012
2026-04-12 11:20:00,METAR LIRZ 121120Z AUTO VRB01KT 9999 NCD 19/13 Q1012
2026-04-12 10:50:00,METAR LIRZ 121050Z AUTO VRB01KT 9999 NCD 18/13 Q1012
2026-04-12 10:20:00,METAR LIRZ 121020Z AUTO VRB01KT 9999 NCD 18/13 Q1012
2026-04-12 09:50:00,METAR LIRZ 120950Z AUTO VRB02KT 9999 NCD 17/13 Q1013
2026-04-12 09:20:00,METAR LIRZ 120920Z AUTO VRB02KT 9999 NCD 16/12 Q1013
2026-04-12 08:50:00,METAR LIRZ 120850Z AUTO VRB01KT 9999 NCD 16/12 Q1013
2026-04-12 08:20:00,METAR LIRZ 120820Z AUTO VRB01KT 9999 NCD 15/12 Q1013
2026-04-12 07:50:00,METAR LIRZ 120750Z AUTO VRB02KT 9999 NCD 14/11 Q1013
2026-04-12 07:20:00,METAR LIRZ 120720Z AUTO 32004KT 9999 NCD 13/11 Q1013
2026-04-12 06:50:00,METAR LIRZ 120650Z AUTO VRB02KT 9999 NCD 12/11 Q1013
2026-04-12 06:20:00,METAR LIRZ 120620Z AUTO VRB01KT 9999 NCD 11/10 Q1013
2026-04-12 05:50:00,METAR LIRZ 120550Z AUTO VRB01KT 9999 NCD 10/09 Q1013
2026-04-12 05:20:00,METAR LIRZ 120520Z AUTO VRB02KT 9999 NCD 10/09 Q1013
2026-04-12 04:50:00,METAR LIRZ 120450Z AUTO 04004KT 360V060 9999 NCD 09/09 Q1013
2026-04-12 04:20:00,METAR LIRZ 120420Z AUTO 01005KT 9999 NCD 10/09 Q1013
2026-04-12 03:50:00,METAR LIRZ 120350Z AUTO 01006KT 9999 NCD 10/09 Q1013
2026-04-12 03:20:00,METAR LIRZ 120320Z AUTO 01006KT 9999 NCD 10/09 Q1013
2026-04-12 02:50:00,METAR LIRZ 120250Z AUTO 34003KT 300V010 9999 NCD 10/09 Q1013
2026-04-12 02:20:00,METAR LIRZ 120220Z AUTO 36004KT 9999 NCD 09/08 Q1013
2026-04-12 01:50:00,METAR LIRZ 120150Z AUTO 36005KT 9999 NCD 10/09 Q1013
2026-04-12 01:20:00,METAR LIRZ 120120Z AUTO 35004KT 9999 NCD 11/10 Q1013
2026-04-12 00:50:00,METAR LIRZ 120050Z AUTO 36005KT 9999 NCD 11/10 Q1014
2026-04-12 00:20:00,METAR LIRZ 120020Z AUTO 02006KT 9999 NCD 11/09 Q1014
2026-04-11 23:50:00,METAR LIRZ 112350Z AUTO VRB01KT 9999 NCD 12/10 Q1014
2026-04-11 23:20:00,METAR LIRZ 112320Z AUTO VRB02KT 9999 NCD 13/11 Q1014
2026-04-11 22:50:00,METAR LIRZ 112250Z AUTO 36004KT 9999 NCD 12/10 Q1014
2026-04-11 22:20:00,METAR LIRZ 112220Z AUTO 01005KT 9999 NCD 12/10 Q1014
2026-04-11 21:50:00,METAR LIRZ 112150Z AUTO 02005KT 9999 NCD 13/10 Q1014
2026-04-11 21:20:00,METAR LIRZ 112120Z AUTO 02003KT 330V050 9999 NCD 13/10 Q1014
2026-04-11 20:50:00,METAR LIRZ 112050Z AUTO 36005KT 300V030 9999 NCD 12/10 Q1014
2026-04-11 20:20:00,METAR LIRZ 112020Z AUTO VRB02KT 9999 NCD 16/09 Q1013
2026-04-11 19:50:00,METAR LIRZ 111950Z AUTO 11003KT 9999 NCD 17/10 Q1013
2026-04-11 19:20:00,METAR LIRZ 111920Z AUTO 24005KT 9999 NCD 18/10 Q1013
2026-04-11 18:50:00,METAR LIRZ 111850Z AUTO 23005KT 9999 NCD 19/10 Q1013
2026-04-11 18:20:00,METAR LIRZ 111820Z AUTO 26008KT 9999 NCD 20/10 Q1012
2026-04-11 17:50:00,METAR LIRZ 111750Z AUTO 22008KT 9999 NCD 20/10 Q1012
2026-04-11 17:20:00,METAR LIRZ 111720Z AUTO 21009KT 9999 NCD 22/10 Q1012
2026-04-11 16:50:00,METAR LIRZ 111650Z AUTO 20008KT 9999 NCD 23/10 Q1012
2026-04-11 16:20:00,METAR LIRZ 111620Z AUTO 23005KT 170V270 9999 NCD 24/10 Q1012
2026-04-11 15:50:00,METAR LIRZ 111550Z AUTO 25004KT 190V290 9999 NCD 25/11 Q1012
2026-04-11 15:20:00,METAR LIRZ 111520Z AUTO 27006KT 230V320 9999 NCD 24/10 Q1012
2026-04-11 14:50:00,METAR LIRZ 111450Z AUTO 29005KT 250V010 9999 NCD 24/11 Q1012
2026-04-11 14:20:00,METAR LIRZ 111420Z AUTO 25005KT 210V310 9999 NCD 24/12 Q1012
2026-04-11 13:50:00,METAR LIRZ 111350Z AUTO 24007KT 210V270 9999 NCD 24/10 Q1012
2026-04-11 13:20:00,METAR LIRZ 111320Z AUTO 25005KT 210V300 9999 NCD 24/09 Q1013
2026-04-11 12:50:00,METAR LIRZ 111250Z AUTO 26007KT 220V310 9999 NCD 23/10 Q1013
2026-04-11 12:20:00,METAR LIRZ 111220Z AUTO 26007KT 200V290 9999 NCD 23/10 Q1013
2026-04-11 11:50:00,METAR LIRZ 111150Z AUTO 24005KT 200V270 9999 NCD 22/09 Q1014
2026-04-11 11:20:00,METAR LIRZ 111120Z AUTO 23004KT 160V330 9999 NCD 22/10 Q1014
2026-04-11 10:50:00,METAR LIRZ 111050Z AUTO 27005KT 210V360 9999 NCD 21/10 Q1014
2026-04-11 10:20:00,METAR LIRZ 111020Z AUTO VRB02KT 9999 NCD 20/10 Q1015
2026-04-11 09:50:00,METAR LIRZ 110950Z AUTO VRB02KT 9999 NCD 19/10 Q1015
2026-04-11 09:20:00,METAR LIRZ 110920Z AUTO VRB01KT 9999 NCD 18/10 Q1015
2026-04-11 08:50:00,METAR LIRZ 110850Z AUTO VRB01KT 9999 NCD 18/12 Q1015
2026-04-11 08:20:00,METAR LIRZ 110820Z AUTO VRB01KT 9999 NCD 16/11 Q1015
2026-04-11 07:50:00,METAR LIRZ 110750Z AUTO VRB02KT 9999 NCD 15/11 Q1015
2026-04-11 07:20:00,METAR LIRZ 110720Z AUTO VRB02KT 9999 NCD 14/10 Q1015
2026-04-11 06:50:00,METAR LIRZ 110650Z AUTO 03004KT 360V060 9999 NCD 13/10 Q1015
2026-04-11 06:20:00,METAR LIRZ 110620Z AUTO VRB01KT 9999 NCD 11/10 Q1015
2026-04-11 05:50:00,METAR LIRZ 110550Z AUTO VRB03KT 9999 NCD 10/09 Q1015
2026-04-11 05:20:00,METAR LIRZ 110520Z AUTO 01005KT 9999 NCD 08/08 Q1015
2026-04-11 04:50:00,METAR LIRZ 110450Z AUTO 02005KT 9999 NCD 07/06 Q1015
2026-04-11 04:20:00,METAR LIRZ 110420Z AUTO 01006KT 9999 NCD 08/07 Q1015
2026-04-11 03:50:00,METAR LIRZ 110350Z AUTO 01002KT 9999 NCD 09/08 Q1015
2026-04-11 03:20:00,METAR LIRZ 110320Z AUTO 02003KT 9999 NCD 09/08 Q1015
2026-04-11 02:50:00,METAR LIRZ 110250Z AUTO VRB02KT 9999 NCD 08/08 Q1015
2026-04-11 02:20:00,METAR LIRZ 110220Z AUTO 03006KT 9999 NCD 09/08 Q1015
2026-04-11 01:50:00,METAR LIRZ 110150Z AUTO 02008KT 9999 NCD 09/08 Q1015
2026-04-11 01:20:00,METAR LIRZ 110120Z AUTO 02007KT 9999 NCD 09/08 Q1015
2026-04-11 00:50:00,METAR LIRZ 110050Z AUTO 03005KT 340V050 9999 NCD 10/08 Q1015
2026-04-11 00:20:00,METAR LIRZ 110020Z AUTO 02006KT 9999 NCD 10/09 Q1015
2026-04-10 23:50:00,METAR LIRZ 102350Z AUTO 36006KT 9999 NCD 10/09 Q1015
2026-04-10 23:20:00,METAR LIRZ 102320Z AUTO 01006KT 9999 NCD 10/09 Q1015
2026-04-10 22:50:00,METAR LIRZ 102250Z AUTO 01005KT 9999 NCD 10/09 Q1015
2026-04-10 22:20:00,METAR LIRZ 102220Z AUTO 01005KT 9999 NCD 11/09 Q1015
2026-04-10 21:50:00,METAR LIRZ 102150Z AUTO 36004KT 9999 NCD 11/08 Q1015
2026-04-10 21:20:00,METAR LIRZ 102120Z AUTO VRB01KT 9999 NCD 14/10 Q1015
2026-04-10 20:50:00,METAR LIRZ 102050Z AUTO 27005KT 9999 NCD 15/10 Q1015
2026-04-10 20:20:00,METAR LIRZ 102020Z AUTO 23003KT 9999 NCD 16/09 Q1015
2026-04-10 19:50:00,METAR LIRZ 101950Z AUTO 15003KT 120V190 9999 NCD 16/08 Q1015
2026-04-10 19:20:00,METAR LIRZ 101920Z AUTO 14004KT 9999 NCD 17/08 Q1014
2026-04-10 18:50:00,METAR LIRZ 101850Z AUTO 15003KT 9999 NCD 18/09 Q1014
2026-04-10 18:20:00,METAR LIRZ 101820Z AUTO 19003KT 150V210 9999 NCD 19/10 Q1013
2026-04-10 17:50:00,METAR LIRZ 101750Z AUTO 18004KT 9999 NCD 19/10 Q1013
2026-04-10 17:20:00,METAR LIRZ 101720Z AUTO 24004KT 9999 NCD 21/10 Q1013
2026-04-10 16:50:00,METAR LIRZ 101650Z AUTO 27003KT 9999 NCD 22/09 Q1013
2026-04-10 16:20:00,METAR LIRZ 101620Z AUTO 29003KT 250V310 9999 NCD 22/10 Q1013
2026-04-10 15:50:00,METAR LIRZ 101550Z AUTO 28004KT 9999 NCD 22/10 Q1013
2026-04-10 15:20:00,METAR LIRZ 101520Z AUTO 26003KT 230V320 9999 NCD 22/11 Q1013
2026-04-10 14:50:00,METAR LIRZ 101450Z AUTO 27003KT 210V330 9999 NCD 22/11 Q1013
2026-04-10 14:20:00,METAR LIRZ 101420Z AUTO 22005KT 190V250 9999 NCD 23/09 Q1013
2026-04-10 13:50:00,METAR LIRZ 101350Z AUTO 19006KT 140V230 9999 NCD 23/09 Q1013
2026-04-10 13:20:00,METAR LIRZ 101320Z AUTO 19005KT 150V220 9999 NCD 22/08 Q1014
2026-04-10 12:50:00,METAR LIRZ 101250Z AUTO 27008KT 230V310 9999 NCD 22/08 Q1014
2026-04-10 12:20:00,METAR LIRZ 101220Z AUTO 26005KT 180V310 9999 NCD 21/07 Q1014
2026-04-10 11:50:00,METAR LIRZ 101150Z AUTO 26006KT 230V290 9999 NCD 21/06 Q1015
2026-04-10 11:20:00,METAR LIRZ 101120Z AUTO 25005KT 220V280 9999 NCD 20/08 Q1015
2026-04-10 10:50:00,METAR LIRZ 101050Z AUTO 23005KT 130V290 9999 NCD 20/07 Q1015
2026-04-10 10:20:00,METAR LIRZ 101020Z AUTO VRB03KT 9999 NCD 19/08 Q1015
2026-04-10 09:50:00,METAR LIRZ 100950Z AUTO VRB03KT 9999 NCD 18/06 Q1015
2026-04-10 09:20:00,METAR LIRZ 100920Z AUTO VRB01KT 9999 NCD 17/08 Q1016
2026-04-10 08:50:00,METAR LIRZ 100850Z AUTO VRB02KT 9999 NCD 16/09 Q1016
2026-04-10 08:20:00,METAR LIRZ 100820Z AUTO VRB01KT 9999 NCD 15/08 Q1016
2026-04-10 07:50:00,METAR LIRZ 100750Z AUTO VRB01KT 9999 NCD 14/08 Q1016
2026-04-10 07:20:00,METAR LIRZ 100720Z AUTO VRB01KT 9999 NCD 13/08 Q1016
2026-04-10 06:50:00,METAR LIRZ 100650Z AUTO VRB02KT 9999 NCD 12/07 Q1016
2026-04-10 06:20:00,METAR LIRZ 100620Z AUTO 02005KT 9999 NCD 10/07 Q1016
2026-04-10 05:50:00,METAR LIRZ 100550Z AUTO VRB01KT 9999 NCD 08/06 Q1016
2026-04-10 05:20:00,METAR LIRZ 100520Z AUTO 02004KT 9999 NCD 06/05 Q1015
2026-04-10 04:50:00,METAR LIRZ 100450Z AUTO VRB02KT 9999 NCD 06/05 Q1015
2026-04-10 04:20:00,METAR LIRZ 100420Z AUTO 01004KT 9999 NCD 05/04 Q1015
2026-04-10 03:50:00,METAR LIRZ 100350Z AUTO 02004KT 9999 NCD 06/04 Q1015
2026-04-10 03:20:00,METAR LIRZ 100320Z AUTO VRB02KT 9999 NCD 07/05 Q1015
2026-04-10 02:50:00,METAR LIRZ 100250Z AUTO 28004KT 9999 NCD 07/05 Q1015
2026-04-10 02:20:00,METAR LIRZ 100220Z AUTO 03005KT 010V140 9999 NCD 06/04 Q1016
2026-04-10 01:50:00,METAR LIRZ 100150Z AUTO 02005KT 9999 NCD 07/05 Q1016
2026-04-10 01:20:00,METAR LIRZ 100120Z AUTO 02004KT 9999 NCD 07/05 Q1016
2026-04-10 00:50:00,METAR LIRZ 100050Z AUTO 35003KT 9999 NCD 07/04 Q1016
2026-04-10 00:20:00,METAR LIRZ 100020Z AUTO 05005KT 9999 NCD 08/05 Q1016
2026-04-09 23:50:00,METAR LIRZ 092350Z AUTO 02003KT 300V040 9999 NCD 07/04 Q1016
2026-04-09 23:20:00,METAR LIRZ 092320Z AUTO VRB02KT 9999 NCD 10/05 Q1016
2026-04-09 22:50:00,METAR LIRZ 092250Z AUTO 25004KT 9999 NCD 12/05 Q1016
2026-04-09 22:20:00,METAR LIRZ 092220Z AUTO VRB02KT 9999 NCD 12/04 Q1016
2026-04-09 21:50:00,METAR LIRZ 092150Z AUTO VRB02KT 9999 NCD 13/03 Q1016
2026-04-09 21:20:00,METAR LIRZ 092120Z AUTO VRB02KT 9999 NCD 15/03 Q1015
2026-04-09 20:50:00,METAR LIRZ 092050Z AUTO VRB01KT 9999 NCD 16/04 Q1015
2026-04-09 20:20:00,METAR LIRZ 092020Z AUTO VRB02KT 9999 NCD 16/04 Q1015
2026-04-09 19:50:00,METAR LIRZ 091950Z AUTO 14004KT 110V230 9999 NCD 14/06 Q1015
2026-04-09 19:20:00,METAR LIRZ 091920Z AUTO 27010KT 9999 NCD 18/04 Q1015
2026-04-09 18:50:00,METAR LIRZ 091850Z AUTO 21006KT 170V230 9999 NCD 17/06 Q1014
2026-04-09 18:20:00,METAR LIRZ 091820Z AUTO 27006KT 250V320 9999 NCD 19/06 Q1014
2026-04-09 17:50:00,METAR LIRZ 091750Z AUTO 28008KT 9999 NCD 21/06 Q1014
2026-04-09 17:20:00,METAR LIRZ 091720Z AUTO 29010KT 9999 NCD 22/07 Q1014
2026-04-09 16:50:00,METAR LIRZ 091650Z AUTO 27008KT 9999 NCD 22/08 Q1013
2026-04-09 16:20:00,METAR LIRZ 091620Z AUTO 28010KT 9999 NCD 23/08 Q1013
2026-04-09 15:50:00,METAR LIRZ 091550Z AUTO 25010KT 9999 NCD 23/08 Q1013
2026-04-09 15:20:00,METAR LIRZ 091520Z AUTO 27010KT 240V300 9999 NCD 24/09 Q1014
2026-04-09 14:50:00,METAR LIRZ 091450Z AUTO 28008KT 250V310 9999 NCD 23/08 Q1014
2026-04-09 14:20:00,METAR LIRZ 091420Z AUTO 27008KT 9999 NCD 24/09 Q1014
2026-04-09 13:50:00,METAR LIRZ 091350Z AUTO 25007KT 200V300 9999 NCD 23/10 Q1015
2026-04-09 13:20:00,METAR LIRZ 091320Z AUTO 20004KT 160V280 9999 NCD 23/10 Q1015
2026-04-09 12:50:00,METAR LIRZ 091250Z AUTO 18004KT 120V270 9999 NCD 22/08 Q1015
2026-04-09 12:20:00,METAR LIRZ 091220Z AUTO 20005KT 110V250 9999 NCD 22/07 Q1016
2026-04-09 11:50:00,METAR LIRZ 091150Z AUTO VRB03KT 9999 NCD 21/06 Q1016
2026-04-09 11:20:00,METAR LIRZ 091120Z AUTO 22003KT 130V290 9999 NCD 21/06 Q1017
2026-04-09 10:50:00,METAR LIRZ 091050Z AUTO VRB02KT 9999 NCD 20/06 Q1017
2026-04-09 10:20:00,METAR LIRZ 091020Z AUTO VRB02KT 9999 NCD 20/07 Q1017
2026-04-09 09:50:00,METAR LIRZ 090950Z AUTO VRB01KT 9999 NCD 19/07 Q1018
2026-04-09 09:20:00,METAR LIRZ 090920Z AUTO VRB02KT 9999 NCD 18/06 Q1018
2026-04-09 08:50:00,METAR LIRZ 090850Z AUTO VRB01KT 9999 NCD 17/04 Q1018
2026-04-09 08:20:00,METAR LIRZ 090820Z AUTO VRB01KT 9999 NCD 15/06 Q1018
2026-04-09 07:50:00,METAR LIRZ 090750Z AUTO VRB02KT 9999 NCD 13/06 Q1018
2026-04-09 07:20:00,METAR LIRZ 090720Z AUTO VRB01KT 9999 NCD 12/07 Q1018
2026-04-09 06:50:00,METAR LIRZ 090650Z AUTO 02003KT 360V060 9999 NCD 11/06 Q1018
2026-04-09 06:20:00,METAR LIRZ 090620Z AUTO 03003KT 9999 NCD 10/06 Q1018
2026-04-09 05:50:00,METAR LIRZ 090550Z AUTO 01004KT 9999 NCD 08/06 Q1018
2026-04-09 05:20:00,METAR LIRZ 090520Z AUTO 34003KT 290V010 9999 NCD 06/05 Q1018
2026-04-09 04:50:00,METAR LIRZ 090450Z AUTO 35004KT 9999 NCD 06/04 Q1018
2026-04-09 04:20:00,METAR LIRZ 090420Z AUTO 34004KT 300V360 9999 NCD 06/04 Q1018
2026-04-09 03:50:00,METAR LIRZ 090350Z AUTO VRB01KT 9999 NCD 05/04 Q1018
2026-04-09 03:20:00,METAR LIRZ 090320Z AUTO 01006KT 9999 NCD 06/04 Q1018
2026-04-09 02:50:00,METAR LIRZ 090250Z AUTO 35003KT 310V020 9999 NCD 06/04 Q1018
2026-04-09 02:20:00,METAR LIRZ 090220Z AUTO 36002KT 9999 NCD 07/05 Q1019
2026-04-09 01:50:00,METAR LIRZ 090150Z AUTO 01004KT 9999 NCD 05/03 Q1019
2026-04-09 01:20:00,METAR LIRZ 090120Z AUTO VRB02KT 9999 NCD 07/05 Q1019
2026-04-09 00:50:00,METAR LIRZ 090050Z AUTO 03005KT 9999 NCD 06/03 Q1019
2026-04-09 00:20:00,METAR LIRZ 090020Z AUTO 01003KT 9999 NCD 07/04 Q1019
2026-04-08 23:50:00,METAR LIRZ 082350Z AUTO 05003KT 9999 NCD 08/04 Q1019
2026-04-08 23:20:00,METAR LIRZ 082320Z AUTO VRB02KT 9999 NCD 08/05 Q1019
2026-04-08 22:50:00,METAR LIRZ 082250Z AUTO 09004KT 050V110 9999 NCD 08/04 Q1019
2026-04-08 22:20:00,METAR LIRZ 082220Z AUTO 04003KT 9999 NCD 08/05 Q1019
2026-04-08 21:50:00,METAR LIRZ 082150Z AUTO VRB02KT 9999 NCD 12/05 Q1019
2026-04-08 21:20:00,METAR LIRZ 082120Z AUTO VRB02KT 9999 NCD 12/06 Q1019
2026-04-08 20:50:00,METAR LIRZ 082050Z AUTO 09003KT 010V110 9999 NCD 13/06 Q1019
2026-04-08 20:20:00,METAR LIRZ 082020Z AUTO 11005KT 9999 NCD 13/06 Q1019
2026-04-08 19:50:00,METAR LIRZ 081950Z AUTO 12004KT 9999 NCD 14/06 Q1019
2026-04-08 19:20:00,METAR LIRZ 081920Z AUTO VRB02KT 9999 NCD 16/06 Q1019
2026-04-08 18:50:00,METAR LIRZ 081850Z AUTO 05003KT 290V100 9999 NCD 17/06 Q1018
2026-04-08 18:20:00,METAR LIRZ 081820Z AUTO 26006KT 9999 NCD 18/06 Q1018
2026-04-08 17:50:00,METAR LIRZ 081750Z AUTO 26005KT 9999 NCD 19/05 Q1018
2026-04-08 17:20:00,METAR LIRZ 081720Z AUTO 28006KT 9999 NCD 21/05 Q1018
2026-04-08 16:50:00,METAR LIRZ 081650Z AUTO 27008KT 9999 NCD 22/05 Q1018
2026-04-08 16:20:00,METAR LIRZ 081620Z AUTO 27007KT 9999 NCD 23/05 Q1018
2026-04-08 15:50:00,METAR LIRZ 081550Z AUTO 26007KT 9999 NCD 23/04 Q1018
2026-04-08 15:20:00,METAR LIRZ 081520Z AUTO 23007KT 200V280 9999 NCD 23/05 Q1018
2026-04-08 14:50:00,METAR LIRZ 081450Z AUTO 25007KT 180V290 9999 NCD 23/06 Q1018
2026-04-08 14:20:00,METAR LIRZ 081420Z AUTO 29005KT 260V030 9999 NCD 23/05 Q1018
2026-04-08 13:50:00,METAR LIRZ 081350Z AUTO 25007KT 210V330 9999 NCD 23/05 Q1019
2026-04-08 13:20:00,METAR LIRZ 081320Z AUTO 24006KT 200V300 9999 NCD 23/06 Q1019
2026-04-08 12:50:00,METAR LIRZ 081250Z AUTO VRB03KT 9999 NCD 23/05 Q1020
2026-04-08 12:20:00,METAR LIRZ 081220Z AUTO 23008KT 180V270 9999 NCD 22/05 Q1020
2026-04-08 11:50:00,METAR LIRZ 081150Z AUTO 29005KT 230V020 9999 NCD 21/04 Q1020
2026-04-08 11:20:00,METAR LIRZ 081120Z AUTO VRB05KT 9999 NCD 21/08 Q1020
2026-04-08 10:50:00,METAR LIRZ 081050Z AUTO 19003KT 140V240 9999 NCD 20/06 Q1021
2026-04-08 10:20:00,METAR LIRZ 081020Z AUTO 14003KT 080V200 9999 NCD 19/07 Q1021
2026-04-08 09:50:00,METAR LIRZ 080950Z AUTO 18003KT 120V290 9999 NCD 19/05 Q1022
2026-04-08 09:20:00,METAR LIRZ 080920Z AUTO VRB02KT 9999 NCD 17/08 Q1022
2026-04-08 08:50:00,METAR LIRZ 080850Z AUTO VRB01KT 9999 NCD 16/07 Q1022
2026-04-08 08:20:00,METAR LIRZ 080820Z AUTO VRB01KT 9999 NCD 15/07 Q1022
2026-04-08 07:50:00,METAR LIRZ 080750Z AUTO VRB01KT 9999 NCD 13/07 Q1022
2026-04-08 07:20:00,METAR LIRZ 080720Z AUTO VRB01KT 9999 NCD 12/07 Q1022
2026-04-08 06:50:00,METAR LIRZ 080650Z AUTO VRB01KT 9999 NCD 10/06 Q1022
2026-04-08 06:20:00,METAR LIRZ 080620Z AUTO 36003KT 9999 NCD 09/06 Q1022
2026-04-08 05:50:00,METAR LIRZ 080550Z AUTO VRB02KT 9999 NCD 06/05 Q1022
2026-04-08 05:20:00,METAR LIRZ 080520Z AUTO 01005KT 9999 NCD 05/04 Q1022
2026-04-08 04:50:00,METAR LIRZ 080450Z AUTO 36003KT 300V100 9999 NCD 05/04 Q1022
2026-04-08 04:20:00,METAR LIRZ 080420Z AUTO 01004KT 9999 NCD 05/03 Q1022
2026-04-08 03:50:00,METAR LIRZ 080350Z AUTO 34003KT 300V360 9999 NCD 06/04 Q1022
2026-04-08 03:20:00,METAR LIRZ 080320Z AUTO 01005KT 9999 NCD 04/03 Q1022
2026-04-08 02:50:00,METAR LIRZ 080250Z AUTO 03004KT 9999 NCD 05/03 Q1022
2026-04-08 02:20:00,METAR LIRZ 080220Z AUTO VRB01KT 9999 NCD 06/04 Q1022
2026-04-08 01:50:00,METAR LIRZ 080150Z AUTO 01004KT 9999 NCD 06/04 Q1022
2026-04-08 01:20:00,METAR LIRZ 080120Z AUTO 03002KT 9999 NCD 06/04 Q1022
2026-04-08 00:50:00,METAR LIRZ 080050Z AUTO 03003KT 9999 NCD 08/04 Q1022
2026-04-08 00:20:00,METAR LIRZ 080020Z AUTO 05003KT 020V090 9999 NCD 07/04 Q1022
2026-04-07 23:50:00,METAR LIRZ 072350Z AUTO 03004KT 9999 NCD 07/03 Q1022
2026-04-07 23:20:00,METAR LIRZ 072320Z AUTO VRB03KT 9999 NCD 07/03 Q1022
2026-04-07 22:50:00,METAR LIRZ 072250Z AUTO 09003KT 050V120 9999 NCD 09/04 Q1022
2026-04-07 22:20:00,METAR LIRZ 072220Z AUTO 36004KT 9999 NCD 09/04 Q1022
2026-04-07 21:50:00,METAR LIRZ 072150Z AUTO VRB02KT 9999 NCD 11/04 Q1022
2026-04-07 21:20:00,METAR LIRZ 072120Z AUTO 02002KT 9999 NCD 10/04 Q1022
2026-04-07 20:50:00,METAR LIRZ 072050Z AUTO 22004KT 9999 NCD 14/04 Q1022
2026-04-07 20:20:00,METAR LIRZ 072020Z AUTO VRB02KT 9999 NCD 14/03 Q1022
2026-04-07 19:50:00,METAR LIRZ 071950Z AUTO VRB02KT 9999 NCD 16/04 Q1022
2026-04-07 19:20:00,METAR LIRZ 071920Z AUTO 25006KT 9999 NCD 17/03 Q1022
2026-04-07 18:50:00,METAR LIRZ 071850Z AUTO 25005KT 210V290 9999 NCD 17/05 Q1021
2026-04-07 18:20:00,METAR LIRZ 071820Z AUTO 28005KT 9999 NCD 19/05 Q1021
2026-04-07 17:50:00,METAR LIRZ 071750Z AUTO 27007KT 9999 NCD 19/06 Q1021
2026-04-07 17:20:00,METAR LIRZ 071720Z AUTO 27008KT 9999 NCD 21/06 Q1020
2026-04-07 16:50:00,METAR LIRZ 071650Z AUTO 29006KT 9999 NCD 22/06 Q1020
2026-04-07 16:20:00,METAR LIRZ 071620Z AUTO 29006KT 9999 NCD 23/06 Q1020
2026-04-07 15:50:00,METAR LIRZ 071550Z AUTO 28007KT 250V310 9999 NCD 23/05 Q1020
2026-04-07 15:20:00,METAR LIRZ 071520Z AUTO 26004KT 220V300 9999 NCD 24/05 Q1021
2026-04-07 14:50:00,METAR LIRZ 071450Z AUTO 22004KT 160V260 9999 NCD 23/06 Q1021
2026-04-07 14:20:00,METAR LIRZ 071420Z AUTO VRB03KT 9999 NCD 23/06 Q1021
2026-04-07 13:50:00,METAR LIRZ 071350Z AUTO 17004KT 110V230 9999 NCD 23/07 Q1022
2026-04-07 13:20:00,METAR LIRZ 071320Z AUTO 20005KT 130V280 9999 NCD 23/07 Q1022
2026-04-07 12:50:00,METAR LIRZ 071250Z AUTO VRB05KT 9999 NCD 22/06 Q1022
2026-04-07 12:20:00,METAR LIRZ 071220Z AUTO 22007KT 180V250 9999 NCD 22/06 Q1023
2026-04-07 11:50:00,METAR LIRZ 071150Z AUTO 22007KT 180V250 9999 NCD 21/06 Q1023
2026-04-07 11:20:00,METAR LIRZ 071120Z AUTO 24008KT 200V310 9999 NCD 21/04 Q1023
2026-04-07 10:50:00,METAR LIRZ 071050Z AUTO VRB03KT 9999 NCD 21/07 Q1024
2026-04-07 10:20:00,METAR LIRZ 071020Z AUTO 22005KT 170V310 9999 NCD 20/08 Q1024
2026-04-07 09:50:00,METAR LIRZ 070950Z AUTO 22003KT 130V270 9999 NCD 19/07 Q1025
2026-04-07 09:20:00,METAR LIRZ 070920Z AUTO VRB02KT 9999 NCD 18/08 Q1025
2026-04-07 08:50:00,METAR LIRZ 070850Z AUTO VRB02KT 9999 NCD 17/08 Q1025
2026-04-07 08:20:00,METAR LIRZ 070820Z AUTO VRB02KT 9999 NCD 15/07 Q1025
2026-04-07 07:50:00,METAR LIRZ 070750Z AUTO VRB02KT 9999 NCD 14/07 Q1025
2026-04-07 07:20:00,METAR LIRZ 070720Z AUTO VRB01KT 9999 NCD 13/07 Q1025
2026-04-07 06:50:00,METAR LIRZ 070650Z AUTO VRB02KT 9999 NCD 11/06 Q1025
2026-04-07 06:20:00,METAR LIRZ 070620Z AUTO VRB01KT 9999 NCD 09/06 Q1025
2026-04-07 05:50:00,METAR LIRZ 070550Z AUTO VRB01KT 9999 NCD 07/05 Q1025
2026-04-07 05:20:00,METAR LIRZ 070520Z AUTO 34002KT 9999 NCD 05/04 Q1025
2026-04-07 04:50:00,METAR LIRZ 070450Z AUTO 02003KT 9999 NCD 04/02 Q1025
2026-04-07 04:20:00,METAR LIRZ 070420Z AUTO 01003KT 9999 NCD 06/04 Q1025
2026-04-07 03:50:00,METAR LIRZ 070350Z AUTO VRB02KT 9999 NCD 05/04 Q1025
2026-04-07 03:20:00,METAR LIRZ 070320Z AUTO 03006KT 9999 NCD 06/05 Q1025
2026-04-07 02:50:00,METAR LIRZ 070250Z AUTO 02005KT 9999 NCD 05/03 Q1025
2026-04-07 02:20:00,METAR LIRZ 070220Z AUTO 36002KT 9999 NCD 06/04 Q1025
2026-04-07 01:50:00,METAR LIRZ 070150Z AUTO 01004KT 9999 NCD 06/04 Q1025
2026-04-07 01:20:00,METAR LIRZ 070120Z AUTO 03003KT 360V070 9999 NCD 06/04 Q1025
2026-04-07 00:50:00,METAR LIRZ 070050Z AUTO VRB02KT 9999 NCD 06/03 Q1025
2026-04-07 00:20:00,METAR LIRZ 070020Z AUTO VRB02KT 9999 NCD 08/05 Q1025
2026-04-06 23:50:00,METAR LIRZ 062350Z AUTO VRB02KT 9999 NCD 07/04 Q1025
2026-04-06 23:20:00,METAR LIRZ 062320Z AUTO VRB02KT 9999 NCD 08/05 Q1025
2026-04-06 22:50:00,METAR LIRZ 062250Z AUTO VRB02KT 9999 NCD 08/05 Q1025
2026-04-06 22:20:00,METAR LIRZ 062220Z AUTO 05003KT 020V080 9999 NCD 08/05 Q1025
2026-04-06 21:50:00,METAR LIRZ 062150Z AUTO VRB02KT 9999 NCD 09/05 Q1025
2026-04-06 21:20:00,METAR LIRZ 062120Z AUTO 03006KT 9999 NCD 09/05 Q1024
2026-04-06 20:50:00,METAR LIRZ 062050Z AUTO VRB04KT 9999 NCD 12/05 Q1024
2026-04-06 20:20:00,METAR LIRZ 062020Z AUTO VRB02KT 9999 NCD 14/06 Q1024
2026-04-06 19:50:00,METAR LIRZ 061950Z AUTO 14004KT 120V200 9999 NCD 17/05 Q1024
2026-04-06 19:20:00,METAR LIRZ 061920Z AUTO VRB03KT 9999 NCD 15/05 Q1024
2026-04-06 18:50:00,METAR LIRZ 061850Z AUTO 26007KT 9999 NCD 16/05 Q1023
2026-04-06 18:20:00,METAR LIRZ 061820Z AUTO 25005KT 9999 NCD 19/04 Q1023
2026-04-06 17:50:00,METAR LIRZ 061750Z AUTO 23003KT 9999 NCD 19/03 Q1023
2026-04-06 17:20:00,METAR LIRZ 061720Z AUTO 27005KT 9999 NCD 20/04 Q1022
2026-04-06 16:50:00,METAR LIRZ 061650Z AUTO 29007KT 9999 NCD 22/04 Q1022
2026-04-06 16:20:00,METAR LIRZ 061620Z AUTO 31010KT 9999 NCD 22/04 Q1022
2026-04-06 15:50:00,METAR LIRZ 061550Z AUTO 28005KT 250V320 9999 NCD 23/04 Q1022
2026-04-06 14:50:00,METAR LIRZ 061450Z AUTO 27011KT 9999 NCD 23/03 Q1023
2026-04-06 14:20:00,METAR LIRZ 061420Z AUTO 26009KT 220V290 9999 NCD 23/05 Q1023
2026-04-06 13:50:00,METAR LIRZ 061350Z AUTO 26012KT 9999 NCD 23/03 Q1023
2026-04-06 13:20:00,METAR LIRZ 061320Z AUTO 26011KT 230V300 9999 NCD 23/03 Q1023
2026-04-06 12:50:00,METAR LIRZ 061250Z AUTO 25011KT 230V290 9999 NCD 23/03 Q1024
2026-04-06 12:20:00,METAR LIRZ 061220Z AUTO 26010KT 230V290 9999 NCD 22/02 Q1024
2026-04-06 11:50:00,METAR LIRZ 061150Z AUTO 26008KT 240V300 9999 NCD 22/02 Q1025
2026-04-06 11:20:00,METAR LIRZ 061120Z AUTO 26009KT 240V300 9999 NCD 21/02 Q1025
2026-04-06 10:50:00,METAR LIRZ 061050Z AUTO 17003KT 100V220 9999 NCD 20/02 Q1026
2026-04-06 10:20:00,METAR LIRZ 061020Z AUTO VRB03KT 9999 NCD 20/04 Q1026
2026-04-06 09:50:00,METAR LIRZ 060950Z AUTO VRB02KT 9999 NCD 18/04 Q1026
2026-04-06 09:20:00,METAR LIRZ 060920Z AUTO 15003KT 100V200 9999 NCD 17/03 Q1026
2026-04-06 08:50:00,METAR LIRZ 060850Z AUTO VRB02KT 9999 NCD 15/05 Q1026
2026-04-06 08:20:00,METAR LIRZ 060820Z AUTO VRB02KT 9999 NCD 14/05 Q1026
2026-04-06 07:50:00,METAR LIRZ 060750Z AUTO VRB01KT 9999 NCD 13/04 Q1026
2026-04-06 07:20:00,METAR LIRZ 060720Z AUTO VRB01KT 9999 NCD 11/04 Q1026
2026-04-06 06:50:00,METAR LIRZ 060650Z AUTO VRB01KT 9999 NCD 10/04 Q1026
2026-04-06 06:20:00,METAR LIRZ 060620Z AUTO VRB02KT 9999 NCD 07/05 Q1026
2026-04-06 05:50:00,METAR LIRZ 060550Z AUTO 36003KT 9999 NCD 06/04 Q1026
2026-04-06 05:20:00,METAR LIRZ 060520Z AUTO VRB01KT 9999 NCD 03/02 Q1026
2026-04-06 04:50:00,METAR LIRZ 060450Z AUTO VRB01KT 9999 NCD 04/02 Q1026
2026-04-06 04:20:00,METAR LIRZ 060420Z AUTO 01003KT 320V030 9999 NCD 04/02 Q1026
2026-04-06 03:50:00,METAR LIRZ 060350Z AUTO VRB02KT 9999 NCD 04/02 Q1026
2026-04-06 03:20:00,METAR LIRZ 060320Z AUTO 33003KT 230V010 9999 NCD 05/03 Q1025
2026-04-06 02:50:00,METAR LIRZ 060250Z AUTO 01002KT 9999 NCD 05/03 Q1025
2026-04-06 02:20:00,METAR LIRZ 060220Z AUTO 02004KT 9999 NCD 04/02 Q1026
2026-04-06 01:50:00,METAR LIRZ 060150Z AUTO 36004KT 9999 NCD 06/03 Q1026
2026-04-06 01:20:00,METAR LIRZ 060120Z AUTO 01004KT 9999 NCD 05/03 Q1026
2026-04-06 00:50:00,METAR LIRZ 060050Z AUTO 03004KT 9999 NCD 04/02 Q1026
2026-04-06 00:20:00,METAR LIRZ 060020Z AUTO 01005KT 9999 NCD 05/02 Q1026
2026-04-05 23:50:00,METAR LIRZ 052350Z AUTO 36004KT 290V020 9999 NCD 08/03 Q1026
2026-04-05 23:20:00,METAR LIRZ 052320Z AUTO 03005KT 9999 NCD 06/03 Q1026
2026-04-05 22:50:00,METAR LIRZ 052250Z AUTO 02006KT 9999 NCD 07/04 Q1026
2026-04-05 22:20:00,METAR LIRZ 052220Z AUTO 03003KT 010V100 9999 NCD 08/04 Q1025
2026-04-05 21:50:00,METAR LIRZ 052150Z AUTO 12003KT 010V180 9999 NCD 09/03 Q1025
2026-04-05 21:20:00,METAR LIRZ 052120Z AUTO VRB02KT 9999 NCD 11/03 Q1025
2026-04-05 20:50:00,METAR LIRZ 052050Z AUTO VRB01KT 9999 NCD 14/02 Q1025
2026-04-05 20:20:00,METAR LIRZ 052020Z AUTO 10004KT 040V170 9999 NCD 15/03 Q1025
2026-04-05 19:50:00,METAR LIRZ 051950Z AUTO 24010KT 9999 NCD 17/03 Q1025
2026-04-05 19:20:00,METAR LIRZ 051920Z AUTO 22008KT 190V250 9999 NCD 17/04 Q1024
2026-04-05 18:50:00,METAR LIRZ 051850Z AUTO 23007KT 9999 NCD 18/05 Q1024
2026-04-05 18:20:00,METAR LIRZ 051820Z AUTO 24006KT 9999 NCD 18/06 Q1023
2026-04-05 17:50:00,METAR LIRZ 051750Z AUTO 24006KT 9999 NCD 19/05 Q1023
2026-04-05 17:20:00,METAR LIRZ 051720Z AUTO 27006KT 9999 NCD 21/02 Q1023
2026-04-05 16:50:00,METAR LIRZ 051650Z AUTO 27009KT 9999 NCD 22/03 Q1022
2026-04-05 16:20:00,METAR LIRZ 051620Z AUTO 25010KT 9999 NCD 23/03 Q1022
2026-04-05 15:50:00,METAR LIRZ 051550Z AUTO 25009KT 9999 NCD 24/03 Q1022
2026-04-05 15:20:00,METAR LIRZ 051520Z AUTO 25009KT 9999 NCD 24/03 Q1022
2026-04-05 14:50:00,METAR LIRZ 051450Z AUTO 23008KT 210V270 9999 NCD 24/03 Q1023
2026-04-05 12:50:00,METAR LIRZ 051250Z AUTO 22007KT 180V280 9999 NCD 23/07 Q1024
2026-04-05 12:20:00,METAR LIRZ 051220Z AUTO 21005KT 170V240 9999 NCD 22/05 Q1024
2026-04-05 11:50:00,METAR LIRZ 051150Z AUTO VRB03KT 9999 NCD 22/05 Q1024
2026-04-05 11:20:00,METAR LIRZ 051120Z AUTO VRB03KT 9999 NCD 21/06 Q1024
2026-04-05 10:50:00,METAR LIRZ 051050Z AUTO 17003KT 120V230 9999 NCD 20/06 Q1025
2026-04-05 10:20:00,METAR LIRZ 051020Z AUTO VRB01KT 9999 NCD 19/06 Q1025
2026-04-05 09:50:00,METAR LIRZ 050950Z AUTO VRB02KT 9999 NCD 17/04 Q1025
2026-04-05 09:20:00,METAR LIRZ 050920Z AUTO VRB02KT 9999 NCD 16/05 Q1025
2026-04-05 08:50:00,METAR LIRZ 050850Z AUTO VRB02KT 9999 NCD 15/04 Q1025
2026-04-05 08:20:00,METAR LIRZ 050820Z AUTO VRB02KT 9999 NCD 14/03 Q1025
2026-04-05 07:50:00,METAR LIRZ 050750Z AUTO VRB02KT 9999 NCD 13/04 Q1025
2026-04-05 07:20:00,METAR LIRZ 050720Z AUTO VRB01KT 9999 NCD 12/05 Q1025
2026-04-05 06:50:00,METAR LIRZ 050650Z AUTO 02003KT 9999 NCD 09/04 Q1025
2026-04-05 06:20:00,METAR LIRZ 050620Z AUTO VRB01KT 9999 NCD 08/04 Q1025
2026-04-05 05:50:00,METAR LIRZ 050550Z AUTO 26002KT 9999 NCD 06/03 Q1024
2026-04-05 05:20:00,METAR LIRZ 050520Z AUTO 01005KT 9999 NCD 05/02 Q1024
2026-04-05 04:50:00,METAR LIRZ 050450Z AUTO 02007KT 9999 NCD 04/02 Q1024
2026-04-05 04:20:00,METAR LIRZ 050420Z AUTO 01006KT 9999 NCD 03/01 Q1024
2026-04-05 03:50:00,METAR LIRZ 050350Z AUTO 01006KT 9999 NCD 03/01 Q1024
2026-04-05 03:20:00,METAR LIRZ 050320Z AUTO 03003KT 9999 NCD 04/02 Q1024
2026-04-05 02:50:00,METAR LIRZ 050250Z AUTO 02003KT 330V080 9999 NCD 06/02 Q1024
2026-04-05 02:20:00,METAR LIRZ 050220Z AUTO 04008KT 010V070 9999 NCD 06/02 Q1023
2026-04-05 01:50:00,METAR LIRZ 050150Z AUTO 35005KT 310V110 9999 NCD 07/02 Q1023
2026-04-05 01:20:00,METAR LIRZ 050120Z AUTO 32007KT 9999 NCD 08/02 Q1023
2026-04-05 00:50:00,METAR LIRZ 050050Z AUTO 34006KT 9999 NCD 08/02 Q1023
2026-04-05 00:20:00,METAR LIRZ 050020Z AUTO 35007KT 9999 NCD 07/03 Q1023
2026-04-04 23:50:00,METAR LIRZ 042350Z AUTO 34007KT 9999 NCD 08/03 Q1023
2026-04-04 23:20:00,METAR LIRZ 042320Z AUTO VRB01KT 9999 NCD 08/03 Q1023
2026-04-04 22:50:00,METAR LIRZ 042250Z AUTO 04001KT 9999 NCD 09/03 Q1023
2026-04-04 22:20:00,METAR LIRZ 042220Z AUTO VRB02KT 9999 NCD 09/03 Q1023
2026-04-04 21:50:00,METAR LIRZ 042150Z AUTO 33005KT 9999 NCD 09/03 Q1022
2026-04-04 21:20:00,METAR LIRZ 042120Z AUTO 31004KT 260V020 9999 NCD 09/03 Q1022
2026-04-04 20:50:00,METAR LIRZ 042050Z AUTO 04005KT 9999 NCD 11/03 Q1022
2026-04-04 20:20:00,METAR LIRZ 042020Z AUTO 04008KT 9999 NCD 10/03 Q1021
2026-04-04 19:50:00,METAR LIRZ 041950Z AUTO 04008KT 9999 NCD 14/02 Q1021
2026-04-04 19:20:00,METAR LIRZ 041920Z AUTO 03005KT 9999 NCD 15/01 Q1021
2026-04-04 18:50:00,METAR LIRZ 041850Z AUTO 05006KT 030V090 9999 NCD 13/02 Q1021
2026-04-04 18:20:00,METAR LIRZ 041820Z AUTO 05006KT 9999 NCD 15/01 Q1021
2026-04-04 17:50:00,METAR LIRZ 041750Z AUTO 04008KT 9999 NCD 15/02 Q1020
2026-04-04 17:20:00,METAR LIRZ 041720Z AUTO 04008KT 9999 NCD 17/01 Q1020
2026-04-04 16:50:00,METAR LIRZ 041650Z AUTO 05011KT 9999 NCD 19/00 Q1020
2026-04-04 16:20:00,METAR LIRZ 041620Z AUTO 06011KT 9999 NCD 19/01 Q1020
2026-04-04 15:50:00,METAR LIRZ 041550Z AUTO 05010KT 9999 NCD 20/02 Q1020
2026-04-04 15:20:00,METAR LIRZ 041520Z AUTO 06009KT 030V090 9999 NCD 20/03 Q1020
2026-04-04 14:50:00,METAR LIRZ 041450Z AUTO 05010KT 9999 NCD 20/03 Q1019
2026-04-04 14:20:00,METAR LIRZ 041420Z AUTO 05012KT 9999 NCD 20/02 Q1019
2026-04-04 13:50:00,METAR LIRZ 041350Z AUTO 07012KT 9999 NCD 21/03 Q1020
2026-04-04 13:20:00,METAR LIRZ 041320Z AUTO 05009KT 020V090 9999 NCD 20/03 Q1020
2026-04-04 12:50:00,METAR LIRZ 041250Z AUTO 06009KT 020V100 9999 NCD 20/01 Q1020
2026-04-04 12:20:00,METAR LIRZ 041220Z AUTO 06010KT 030V100 9999 NCD 20/03 Q1020
2026-04-04 11:50:00,METAR LIRZ 041150Z AUTO 05010KT 020V080 9999 NCD 20/01 Q1020
2026-04-04 11:20:00,METAR LIRZ 041120Z AUTO 06010KT 030V090 9999 NCD 19/01 Q1020
2026-04-04 10:50:00,METAR LIRZ 041050Z AUTO 05012KT 9999 NCD 19/02 Q1020
2026-04-04 10:20:00,METAR LIRZ 041020Z AUTO 04012KT 010V070 9999 NCD 19/02 Q1021
2026-04-04 09:50:00,METAR LIRZ 040950Z AUTO 03010KT 360V070 9999 NCD 18/02 Q1021
2026-04-04 09:20:00,METAR LIRZ 040920Z AUTO 36007KT 330V030 9999 NCD 17/04 Q1021
2026-04-04 08:50:00,METAR LIRZ 040850Z AUTO 34007KT 9999 NCD 16/03 Q1020
2026-04-04 08:20:00,METAR LIRZ 040820Z AUTO 34007KT 9999 NCD 15/02 Q1020
2026-04-04 07:50:00,METAR LIRZ 040750Z AUTO 34006KT 9999 NCD 14/04 Q1020
2026-04-04 07:20:00,METAR LIRZ 040720Z AUTO 36008KT 9999 NCD 11/04 Q1020
2026-04-04 06:50:00,METAR LIRZ 040650Z AUTO 36007KT 9999 NCD 09/03 Q1020
2026-04-04 06:20:00,METAR LIRZ 040620Z AUTO 36007KT 9999 NCD 07/02 Q1020
2026-04-04 05:50:00,METAR LIRZ 040550Z AUTO 02005KT 330V130 9999 NCD 06/02 Q1019
2026-04-04 05:20:00,METAR LIRZ 040520Z AUTO 34005KT 9999 NCD 05/01 Q1019
2026-04-04 04:50:00,METAR LIRZ 040450Z AUTO 33005KT 290V010 9999 NCD 04/00 Q1018
2026-04-04 04:20:00,METAR LIRZ 040420Z AUTO 36006KT 340V090 9999 NCD 05/01 Q1018
2026-04-04 03:50:00,METAR LIRZ 040350Z AUTO 34007KT 9999 NCD 04/01 Q1018
2026-04-04 03:20:00,METAR LIRZ 040320Z AUTO 35008KT 9999 NCD 06/02 Q1018
2026-04-04 02:50:00,METAR LIRZ 040250Z AUTO 34008KT 9999 NCD 04/01 Q1018
2026-04-04 02:20:00,METAR LIRZ 040220Z AUTO 34007KT 9999 NCD 05/01 Q1018
2026-04-04 01:50:00,METAR LIRZ 040150Z AUTO 34005KT 320V030 9999 NCD 05/01 Q1018
2026-04-04 01:20:00,METAR LIRZ 040120Z AUTO 36008KT 9999 NCD 05/02 Q1018
2026-04-04 00:50:00,METAR LIRZ 040050Z AUTO 01008KT 9999 NCD 05/02 Q1017
2026-04-04 00:20:00,METAR LIRZ 040020Z AUTO 02008KT 9999 NCD 05/02 Q1017
2026-04-03 23:50:00,METAR LIRZ 032350Z AUTO 36008KT 9999 NCD 05/02 Q1017
2026-04-03 23:20:00,METAR LIRZ 032320Z AUTO 02007KT 9999 NCD 05/02 Q1017
2026-04-03 22:50:00,METAR LIRZ 032250Z AUTO VRB01KT 9999 NCD 06/02 Q1017
2026-04-03 22:20:00,METAR LIRZ 032220Z AUTO 35004KT 320V030 9999 NCD 05/02 Q1016
2026-04-03 21:50:00,METAR LIRZ 032150Z AUTO 01006KT 340V150 9999 NCD 05/02 Q1016
2026-04-03 21:20:00,METAR LIRZ 032120Z AUTO 02005KT 9999 NCD 05/02 Q1016
2026-04-03 20:50:00,METAR LIRZ 032050Z AUTO 34003KT 9999 NCD 05/02 Q1016
2026-04-03 20:20:00,METAR LIRZ 032020Z AUTO 01005KT 9999 NCD 08/02 Q1016
2026-04-03 19:50:00,METAR LIRZ 031950Z AUTO 03004KT 9999 NCD 07/02 Q1015
2026-04-03 19:20:00,METAR LIRZ 031920Z AUTO 05005KT 9999 NCD 09/02 Q1015
2026-04-03 18:50:00,METAR LIRZ 031850Z AUTO 02005KT 9999 NCD 10/02 Q1015
2026-04-03 18:20:00,METAR LIRZ 031820Z AUTO 05007KT 9999 NCD 12/01 Q1014
2026-04-03 17:50:00,METAR LIRZ 031750Z AUTO 05008KT 9999 NCD 13/01 Q1013
2026-04-03 17:20:00,METAR LIRZ 031720Z AUTO 05011KT 9999 NCD 14/01 Q1013
2026-04-03 16:50:00,METAR LIRZ 031650Z AUTO 06012KT 9999 NCD 15/01 Q1013
2026-04-03 16:20:00,METAR LIRZ 031620Z AUTO 06013KT 9999 NCD 16/02 Q1012
2026-04-03 15:50:00,METAR LIRZ 031550Z AUTO 05013KT 9999 NCD 16/03 Q1012
2026-04-03 15:20:00,METAR LIRZ 031520Z AUTO 05012KT 9999 NCD 17/03 Q1012
2026-04-03 14:50:00,METAR LIRZ 031450Z AUTO 06015KT 9999 NCD 16/02 Q1011
2026-04-03 14:20:00,METAR LIRZ 031420Z AUTO 06014KT 9999 NCD 17/03 Q1011
2026-04-03 13:50:00,METAR LIRZ 031350Z AUTO 05012KT 020V090 9999 NCD 17/03 Q1011
2026-04-03 13:20:00,METAR LIRZ 031320Z AUTO 05013KT 9999 NCD 17/03 Q1011
2026-04-03 12:50:00,METAR LIRZ 031250Z AUTO 05014KT 9999 NCD 17/04 Q1011
2026-04-03 12:20:00,METAR LIRZ 031220Z AUTO 04013KT 010V070 9999 NCD 16/04 Q1012
2026-04-03 11:50:00,METAR LIRZ 031150Z AUTO 05013KT 9999 NCD 15/03 Q1012
2026-04-03 11:20:00,METAR LIRZ 031120Z AUTO 04015KT 9999 NCD 16/05 Q1011
2026-04-03 10:50:00,METAR LIRZ 031050Z AUTO 06014KT 9999 FEW051/// 15/04 Q1011
2026-04-03 10:20:00,METAR LIRZ 031020Z AUTO 05015KT 9999 BKN051/// 15/04 Q1011
2026-04-03 09:50:00,METAR LIRZ 030950Z AUTO 05011KT 010V080 9999 FEW051/// 15/04 Q1011
2026-04-03 09:20:00,METAR LIRZ 030920Z AUTO 06014KT 9999 NCD 15/04 Q1011
2026-04-03 08:50:00,METAR LIRZ 030850Z AUTO 04016KT 9999 FEW087/// 14/04 Q1011
2026-04-03 08:20:00,METAR LIRZ 030820Z AUTO 04015KT 9999 NCD 14/04 Q1011
2026-04-03 07:50:00,METAR LIRZ 030750Z AUTO 05013KT 9999 FEW045/// 14/04 Q1010
2026-04-03 07:20:00,METAR LIRZ 030720Z AUTO 03011KT 350V060 9999 FEW093/// 13/04 Q1010
2026-04-03 06:50:00,METAR LIRZ 030650Z AUTO 02009KT 9999 FEW140/// 13/06 Q1009
2026-04-03 06:20:00,METAR LIRZ 030620Z AUTO 03005KT 9999 FEW140/// 11/05 Q1009
2026-04-03 05:50:00,METAR LIRZ 030550Z AUTO 36006KT 9999 SCT100/// 09/05 Q1008
2026-04-03 05:20:00,METAR LIRZ 030520Z AUTO 35005KT 320V030 9999 SCT110/// BKN140/// 08/04 Q1008
2026-04-03 04:50:00,METAR LIRZ 030450Z AUTO 36004KT 330V050 9999 BKN120/// 09/04 Q1007
2026-04-03 04:20:00,METAR LIRZ 030420Z AUTO 36005KT 9999 FEW065/// BKN130/// 09/04 Q1007
2026-04-03 03:50:00,METAR LIRZ 030350Z AUTO 35004KT 9999 BKN130/// 09/04 Q1007
2026-04-03 03:20:00,METAR LIRZ 030320Z AUTO 01005KT 9999 BKN140/// 09/04 Q1007
2026-04-03 02:50:00,METAR LIRZ 030250Z AUTO VRB02KT 9999 BKN150/// 10/04 Q1007
2026-04-03 02:20:00,METAR LIRZ 030220Z AUTO 02003KT 9999 BKN070/// BKN150/// 10/04 Q1007
2026-04-03 01:50:00,METAR LIRZ 030150Z AUTO 03003KT 360V060 9999 BKN068/// BKN160/// 09/05 Q1006
2026-04-03 01:20:00,METAR LIRZ 030120Z AUTO 36007KT 9999 FEW061/// BKN160/// 09/05 Q1006
2026-04-03 00:50:00,METAR LIRZ 030050Z AUTO 34007KT 9999 BKN054/// 10/05 Q1006
2026-04-03 00:20:00,METAR LIRZ 030020Z AUTO 34007KT 9999 BKN047/// 10/05 Q1006
2026-04-02 23:50:00,METAR LIRZ 022350Z AUTO 35006KT 9999 BKN045/// 10/05 Q1006
2026-04-02 23:20:00,METAR LIRZ 022320Z AUTO 35007KT 9999 OVC046/// 10/05 Q1006
2026-04-02 22:50:00,METAR LIRZ 022250Z AUTO 34006KT 9999 BKN051/// BKN150/// 10/05 Q1006
2026-04-02 22:20:00,METAR LIRZ 022220Z AUTO 34005KT 9999 FEW044/// BKN150/// 09/05 Q1006
2026-04-02 21:50:00,METAR LIRZ 022150Z AUTO 02006KT 9999 BKN048/// BKN150/// 10/05 Q1005
2026-04-02 21:20:00,METAR LIRZ 022120Z AUTO 03009KT 9999 BKN046/// 11/05 Q1005
2026-04-02 20:50:00,METAR LIRZ 022050Z AUTO 02007KT 9999 BKN043/// BKN160/// 10/05 Q1005
2026-04-02 20:20:00,METAR LIRZ 022020Z AUTO 03011KT 9999 FEW041/// BKN150/// 10/05 Q1005
2026-04-02 19:50:00,METAR LIRZ 021950Z AUTO 03008KT 9999 BKN038/// BKN140/// 10/05 Q1005
2026-04-02 19:20:00,METAR LIRZ 021920Z AUTO 02007KT 340V050 9999 BKN033/// 10/05 Q1004
2026-04-02 18:50:00,METAR LIRZ 021850Z AUTO 03004KT 9999 BKN036/// 10/05 Q1004
2026-04-02 18:20:00,METAR LIRZ 021820Z AUTO 04003KT 020V100 9999 BKN039/// 09/04 Q1004
2026-04-02 17:50:00,METAR LIRZ 021750Z AUTO 04005KT 9999 BKN037/// 10/04 Q1003
2026-04-02 17:20:00,METAR LIRZ 021720Z AUTO 03009KT 9999 BKN039/// BKN069/// 10/04 Q1003
2026-04-02 16:50:00,METAR LIRZ 021650Z AUTO 02012KT 9999 BKN038/// 11/04 Q1003
2026-04-02 16:20:00,METAR LIRZ 021620Z AUTO 03007KT 9999 BKN035/// 10/05 Q1003
2026-04-02 15:50:00,METAR LIRZ 021550Z AUTO 01009KT 340V040 9999 OVC033/// 10/04 Q1002
2026-04-02 15:20:00,METAR LIRZ 021520Z AUTO 01008KT 9999 BKN032/// 10/05 Q1002
2026-04-02 14:50:00,METAR LIRZ 021450Z AUTO 01010KT 9999 BKN034/// BKN064/// 10/05 Q1002
2026-04-02 14:20:00,METAR LIRZ 021420Z AUTO 01010KT 9999 BKN034/// BKN064/// 10/05 Q1002
2026-04-02 13:50:00,METAR LIRZ 021350Z AUTO 01012KT 9999 FEW035/// SCT067/// 11/04 Q1002
2026-04-02 13:20:00,METAR LIRZ 021320Z AUTO 36012KT 9999 SCT033/// BKN068/// 11/05 Q1002
2026-04-02 12:50:00,METAR LIRZ 021250Z AUTO 03011KT 9999 BKN031/// 10/05 Q1002
2026-04-02 12:20:00,METAR LIRZ 021220Z AUTO 01013KT 9999 BKN031/// 10/05 Q1002
2026-04-02 11:50:00,METAR LIRZ 021150Z AUTO 01013KT 9999 OVC031/// 10/05 Q1002
2026-04-02 11:20:00,METAR LIRZ 021120Z AUTO 01012KT 9999 BKN032/// 10/05 Q1002
2026-04-02 10:50:00,METAR LIRZ 021050Z AUTO 36009KT 9999 R01/1400N BKN038/// 10/05 Q1002
2026-04-02 10:20:00,METAR LIRZ 021020Z AUTO 01014KT 9999 R01/1400N SCT029/// BKN042/// 10/05 Q1003
2026-04-02 09:50:00,METAR LIRZ 020950Z AUTO 01011KT 9999 R01/1400N BKN031/// 10/05 Q1003
2026-04-02 09:20:00,METAR LIRZ 020920Z AUTO 02009KT 9999 -RA BKN032/// 10/05 Q1003
2026-04-02 08:50:00,METAR LIRZ 020850Z AUTO 02011KT 9999 R01/1400U BKN031/// 10/05 Q1002
2026-04-02 08:20:00,METAR LIRZ 020820Z AUTO 02012KT 9999 BKN032/// 10/05 Q1002
2026-04-02 07:50:00,METAR LIRZ 020750Z AUTO 01011KT 9999 OVC032/// 10/04 Q1002
2026-04-02 07:20:00,METAR LIRZ 020720Z AUTO 02010KT 9999 BKN032/// 10/04 Q1002
2026-04-02 06:50:00,METAR LIRZ 020650Z AUTO 03011KT 9999 BKN034/// 10/04 Q1002
2026-04-02 06:20:00,METAR LIRZ 020620Z AUTO 02012KT 9999 BKN033/// 09/04 Q1002
2026-04-02 05:50:00,METAR LIRZ 020550Z AUTO 02010KT 9999 BKN030/// 09/04 Q1002
2026-04-02 05:20:00,METAR LIRZ 020520Z AUTO 02012KT 350V050 9999 BKN033/// 09/04 Q1002
2026-04-02 04:50:00,METAR LIRZ 020450Z AUTO 02011KT 9999 BKN037/// 09/05 Q1002
2026-04-02 04:20:00,METAR LIRZ 020420Z AUTO 02015KT 9999 OVC038/// 09/04 Q1002
2026-04-02 03:50:00,METAR LIRZ 020350Z AUTO 03014KT 360V060 9999 BKN036/// 10/04 Q1002
2026-04-02 03:20:00,METAR LIRZ 020320Z AUTO 03012KT 9999 OVC038/// 09/04 Q1002
2026-04-02 02:50:00,METAR LIRZ 020250Z AUTO 03014KT 9999 BKN039/// 09/04 Q1002
2026-04-02 02:20:00,METAR LIRZ 020220Z AUTO 02015KT 350V050 9999 BKN037/// 09/04 Q1002
2026-04-02 01:50:00,METAR LIRZ 020150Z AUTO 02012KT 340V050 9999 BKN033/// 09/04 Q1002
2026-04-02 01:20:00,METAR LIRZ 020120Z AUTO 02012KT 9999 BKN031/// 09/05 Q1003
2026-04-02 00:50:00,METAR LIRZ 020050Z AUTO 01010KT 9999 -RA BKN033/// 09/05 Q1003
2026-04-02 00:20:00,METAR LIRZ 020020Z AUTO 02012KT 9999 -DZRA BKN042/// 09/05 Q1003
2026-04-01 23:50:00,METAR LIRZ 012350Z AUTO 03011KT 9999 BKN040/// 09/05 Q1004
2026-04-01 23:20:00,METAR LIRZ 012320Z AUTO 03015KT 9999 -DZRA BKN037/// 09/05 Q1003
2026-04-01 22:50:00,METAR LIRZ 012250Z AUTO 04018G29KT 9999 -DZRA BKN041/// 09/05 Q1004
2026-04-01 22:20:00,METAR LIRZ 012220Z AUTO 03017KT 9999 -DZ BKN045/// 09/05 Q1004
2026-04-01 21:50:00,METAR LIRZ 012150Z AUTO 04015KT 9999 -DZRA FEW030/// BKN045/// 08/04 Q1004
2026-04-01 21:20:00,METAR LIRZ 012120Z AUTO 04016KT 9999 -DZRA BKN038/// 08/05 Q1004
2026-04-01 20:50:00,METAR LIRZ 012050Z AUTO 04017KT 9999 -DZRA BKN043/// 08/05 Q1005
2026-04-01 20:20:00,METAR LIRZ 012020Z AUTO 03018KT 9999 -DZRA BKN037/// 08/04 Q1005
2026-04-01 19:50:00,METAR LIRZ 011950Z AUTO 04021KT 9999 -DZRA BKN031/// 08/04 Q1005
2026-04-01 19:20:00,METAR LIRZ 011920Z AUTO 04021KT 9999 -RA BKN036/// BKN052/// 08/04 Q1005
2026-04-01 18:50:00,METAR LIRZ 011850Z AUTO 04017KT 9999 -DZRA BKN045/// 08/04 Q1005
2026-04-01 18:20:00,METAR LIRZ 011820Z AUTO 04018KT 9999 -DZRA BKN046/// 08/04 Q1005
2026-04-01 17:50:00,METAR LIRZ 011750Z AUTO 04019KT 9999 -DZRA BKN043/// 08/04 Q1005
2026-04-01 17:20:00,METAR LIRZ 011720Z AUTO 04017G29KT 9999 -DZRA BKN048/// 09/04 Q1005
2026-04-01 16:50:00,METAR LIRZ 011650Z AUTO 03015KT 9999 -DZ OVC058/// 08/05 Q1005
2026-04-01 16:20:00,METAR LIRZ 011620Z AUTO 04016KT 9999 -DZRA OVC055/// 08/05 Q1005
2026-04-01 15:50:00,METAR LIRZ 011550Z AUTO 04019G29KT 9999 -DZRA OVC045/// 08/05 Q1005
2026-04-01 15:20:00,METAR LIRZ 011520Z AUTO 04015KT 9999 -DZRA BKN034/// 09/05 Q1005
2026-04-01 14:50:00,METAR LIRZ 011450Z AUTO 04020KT 9999 -DZRA BKN031/// 09/04 Q1005
2026-04-01 13:50:00,METAR LIRZ 011350Z AUTO 04019KT 9999 -RA BKN039/// 10/04 Q1005
2026-04-01 13:20:00,METAR LIRZ 011320Z AUTO 03017KT 9999 BKN037/// 11/04 Q1005
2026-04-01 12:50:00,METAR LIRZ 011250Z AUTO 04017KT 9999 BKN039/// 11/03 Q1005
2026-04-01 12:20:00,METAR LIRZ 011220Z AUTO 03016KT 360V060 9999 BKN040/// 11/04 Q1006
2026-04-01 11:50:00,METAR LIRZ 011150Z AUTO 03015KT 350V070 9999 -RA BKN041/// 10/04 Q1006
2026-04-01 11:20:00,METAR LIRZ 011120Z AUTO 04013KT 9999 -RA BKN040/// 10/03 Q1006
2026-04-01 10:50:00,METAR LIRZ 011050Z AUTO 03017KT 9999 BKN041/// BKN074/// 10/03 Q1007
2026-04-01 10:20:00,METAR LIRZ 011020Z AUTO 03012G24KT 360V080 9999 -DZ BKN032/// 10/04 Q1007
2026-04-01 09:50:00,METAR LIRZ 010950Z AUTO 01016KT 340V040 9999 BKN032/// 09/03 Q1007 REDZ RERA
2026-04-01 09:20:00,METAR LIRZ 010920Z AUTO 02016KT 340V060 9999 -RA BKN030/// 09/03 Q1007
2026-04-01 08:50:00,METAR LIRZ 010850Z AUTO 03019KT 9999 BKN032/// 09/03 Q1007
2026-04-01 08:20:00,METAR LIRZ 010820Z AUTO 03020G30KT 9999 BKN034/// 09/03 Q1007
2026-04-01 07:50:00,METAR LIRZ 010750Z AUTO 02016G27KT 350V050 9999 BKN033/// BKN069/// 09/03 Q1007
2026-04-01 07:20:00,METAR LIRZ 010720Z AUTO 03020KT 360V060 9999 BKN032/// 09/03 Q1007
2026-04-01 06:50:00,METAR LIRZ 010650Z AUTO 03013KT 360V070 9999 -RA BKN029/// 08/04 Q1008
2026-04-01 06:20:00,METAR LIRZ 010620Z AUTO 02016KT 9999 -DZ BKN030/// BKN070/// 08/04 Q1008
2026-04-01 05:50:00,METAR LIRZ 010550Z AUTO 02016KT 9999 SCT031/// BKN064/// 08/03 Q1008 REDZ RERA
2026-04-01 05:20:00,METAR LIRZ 010520Z AUTO 02016KT 9999 -DZRA BKN031/// 07/04 Q1008
2026-04-01 04:50:00,METAR LIRZ 010450Z AUTO 02018G29KT 9999 -DZRA FEW032/// BKN043/// 08/03 Q1008
2026-04-01 04:20:00,METAR LIRZ 010420Z AUTO 02015KT 340V060 9999 -DZRA BKN040/// 08/03 Q1008
2026-04-01 03:50:00,METAR LIRZ 010350Z AUTO 02014KT 9999 BKN043/// 08/02 Q1008
2026-04-01 03:20:00,METAR LIRZ 010320Z AUTO 02016KT 9999 FEW033/// BKN054/// 08/03 Q1008
2026-04-01 02:50:00,METAR LIRZ 010250Z AUTO 02014KT 9999 FEW035/// BKN045/// 08/03 Q1008
2026-04-01 02:20:00,METAR LIRZ 010220Z AUTO 02017KT 340V040 9999 BKN048/// 08/03 Q1008
2026-04-01 01:50:00,METAR LIRZ 010150Z AUTO 01013G23KT 9999 BKN042/// 08/03 Q1008
2026-04-01 01:20:00,METAR LIRZ 010120Z AUTO 36012KT 9999 -RA BKN044/// 08/03 Q1009
2026-04-01 00:50:00,METAR LIRZ 010050Z AUTO 01014KT 9999 BKN043/// 08/03 Q1009
2026-04-01 00:20:00,METAR LIRZ 010020Z AUTO 01015G25KT 340V040 9999 FEW047/// BKN059/// 08/03 Q1009
2026-03-31 23:50:00,METAR LIRZ 312350Z AUTO 01016KT 340V050 9999 SCT045/// BKN100/// 08/03 Q1009
2026-03-31 23:20:00,METAR LIRZ 312320Z AUTO 02016G26KT 340V050 9999 FEW040/// BKN190/// 08/02 Q1009
2026-03-31 22:50:00,METAR LIRZ 312250Z AUTO 02014KT 9999 SCT036/// SCT075/// BKN200/// 08/03 Q1009
2026-03-31 22:20:00,METAR LIRZ 312220Z AUTO 01012KT 330V030 9999 FEW040/// BKN092/// 07/03 Q1010
2026-03-31 21:50:00,METAR LIRZ 312150Z AUTO 03015KT 9999 -DZ SCT034/// BKN070/// BKN077/// 07/03 Q1010
2026-03-31 21:20:00,METAR LIRZ 312120Z AUTO 01013KT 350V050 9999 SCT040/// SCT100/// BKN130/// 07/03 Q1009
2026-03-31 20:50:00,METAR LIRZ 312050Z AUTO 02014KT 9999 -DZ FEW038/// SCT084/// BKN120/// 07/03 Q1009 REDZ RERA
2026-03-31 20:20:00,METAR LIRZ 312020Z AUTO 03017KT 9999 DZRA FEW011/// SCT046/// BKN120/// 07/03 Q1009
2026-03-31 19:50:00,METAR LIRZ 311950Z AUTO 03013KT 9999 -RA FEW023/// BKN041/// BKN110/// 07/03 Q1009
2026-03-31 19:20:00,METAR LIRZ 311920Z AUTO 04019G32KT 9999 -DZRA FEW039/// BKN110/// 07/02 Q1009
2026-03-31 18:50:00,METAR LIRZ 311850Z AUTO 05017G27KT 9999 -RA SCT037/// BKN100/// 09/02 Q1009
2026-03-31 18:20:00,METAR LIRZ 311820Z AUTO 03017G27KT 9999 FEW038/// BKN088/// 09/02 Q1009
2026-03-31 17:50:00,METAR LIRZ 311750Z AUTO 04016KT 010V070 9999 OVC093/// 09/01 Q1008
2026-03-31 17:20:00,METAR LIRZ 311720Z AUTO 03016KT 9999 FEW036/// BKN085/// 08/01 Q1009
2026-03-31 16:50:00,METAR LIRZ 311650Z AUTO 01014KT 9999 FEW033/// BKN090/// 08/02 Q1009
2026-03-31 16:20:00,METAR LIRZ 311620Z AUTO 03020G32KT 9999 -DZRA FEW015/// BKN031/// 08/02 Q1009
2026-03-31 15:50:00,METAR LIRZ 311550Z AUTO 06020G31KT 9999 -DZRA BKN035/// 08/02 Q1009
2026-03-31 15:20:00,METAR LIRZ 311520Z AUTO 03020G30KT 9999 -DZ FEW043/// SCT087/// 09/01 Q1008
2026-03-31 14:50:00,METAR LIRZ 311450Z AUTO 04021G34KT 9999 FEW048/// 10/00 Q1008
2026-03-31 14:20:00,METAR LIRZ 311420Z AUTO 03021G31KT 9999 SCT100/// 10/M00 Q1008
2026-03-31 13:50:00,METAR LIRZ 311350Z AUTO 04017G27KT 9999 BKN100/// 09/01 Q1008
2026-03-31 13:20:00,METAR LIRZ 311320Z AUTO 04021KT 9999 BKN100/// 10/00 Q1008
2026-03-31 12:50:00,METAR LIRZ 311250Z AUTO 05022G32KT 9999 BKN100/// 10/M01 Q1008
2026-03-31 12:20:00,METAR LIRZ 311220Z AUTO 04023G39KT 9999 BKN110/// 10/M01 Q1008
2026-03-31 11:50:00,METAR LIRZ 311150Z AUTO 03025KT 9999 FEW047/// 11/M00 Q1008
2026-03-31 11:20:00,METAR LIRZ 311120Z AUTO 03025G35KT 9999 FEW036/// SCT043/// 10/00 Q1008
2026-03-31 10:50:00,METAR LIRZ 311050Z AUTO 03015G28KT 010V070 9999 FEW011/// 10/03 Q1008 REDZ RERA
2026-03-31 10:20:00,METAR LIRZ 311020Z AUTO 04021G35KT 9999 -RA BKN034/// 08/03 Q1009
2026-03-31 09:50:00,METAR LIRZ 310950Z AUTO 04023G35KT 9999 FEW033/// SCT120/// 09/02 Q1008
2026-03-31 09:20:00,METAR LIRZ 310920Z AUTO 03024G34KT 9999 SCT120/// 10/01 Q1008
2026-03-31 08:50:00,METAR LIRZ 310850Z AUTO 03020KT 9999 FEW130/// 10/01 Q1008
2026-03-31 08:20:00,METAR LIRZ 310820Z AUTO 03020KT 9999 FEW041/// 10/01 Q1008
2026-03-31 07:50:00,METAR LIRZ 310750Z AUTO 03022KT 9999 NCD 09/01 Q1008
2026-03-31 07:20:00,METAR LIRZ 310720Z AUTO 03021G32KT 9999 FEW130/// 09/01 Q1007
2026-03-31 06:50:00,METAR LIRZ 310650Z AUTO 03021KT 9999 FEW110/// 09/01 Q1007
2026-03-31 06:20:00,METAR LIRZ 310620Z AUTO 03020KT 9999 NCD 09/01 Q1007
2026-03-31 05:50:00,METAR LIRZ 310550Z AUTO 03017KT 9999 SCT130/// 08/01 Q1007
2026-03-31 05:20:00,METAR LIRZ 310520Z AUTO 03017KT 9999 BKN130/// 08/01 Q1007
2026-03-31 04:50:00,METAR LIRZ 310450Z AUTO 03021KT 9999 BKN140/// 09/01 Q1007
2026-03-31 04:20:00,METAR LIRZ 310420Z AUTO 03014KT 9999 SCT044/// BKN140/// 08/02 Q1007
2026-03-31 03:50:00,METAR LIRZ 310350Z AUTO 01003KT 310V060 9999 BKN046/// BKN130/// 07/02 Q1007
2026-03-31 03:20:00,METAR LIRZ 310320Z AUTO 02007KT 9999 FEW048/// BKN130/// 08/02 Q1007
2026-03-31 02:50:00,METAR LIRZ 310250Z AUTO 35007KT 9999 FEW050/// BKN140/// 08/02 Q1007
2026-03-31 02:20:00,METAR LIRZ 310220Z AUTO 35008KT 9999 BKN140/// 08/03 Q1007
2026-03-31 01:50:00,METAR LIRZ 310150Z AUTO 35008KT 9999 BKN140/// 07/03 Q1007
2026-03-31 01:20:00,METAR LIRZ 310120Z AUTO 35010KT 9999 BKN130/// 07/04 Q1007
2026-03-31 00:50:00,METAR LIRZ 310050Z AUTO 35009KT 9999 BKN150/// 07/04 Q1008
2026-03-31 00:20:00,METAR LIRZ 310020Z AUTO 33009KT 9999 FEW130/// 06/04 Q1008
2026-03-30 23:50:00,METAR LIRZ 302350Z AUTO 34009KT 9999 SCT140/// 06/05 Q1008
2026-03-30 23:20:00,METAR LIRZ 302320Z AUTO 35008KT 9999 SCT130/// 06/05 Q1008
2026-03-30 22:50:00,METAR LIRZ 302250Z AUTO 34006KT 9999 FEW110/// 06/05 Q1008
2026-03-30 22:20:00,METAR LIRZ 302220Z AUTO 34005KT 9999 BKN110/// 07/05 Q1008
2026-03-30 21:50:00,METAR LIRZ 302150Z AUTO 35007KT 9999 OVC100/// 07/06 Q1009
2026-03-30 21:20:00,METAR LIRZ 302120Z AUTO 33003KT 9999 OVC089/// 07/06 Q1009
2026-03-30 20:50:00,METAR LIRZ 302050Z AUTO VRB01KT 9999 OVC084/// 07/06 Q1009
2026-03-30 20:20:00,METAR LIRZ 302020Z AUTO VRB02KT 9999 OVC075/// 07/06 Q1009
2026-03-30 19:50:00,METAR LIRZ 301950Z AUTO VRB04KT 9999 -RA BKN035/// 07/06 Q1009
2026-03-30 19:20:00,METAR LIRZ 301920Z AUTO 03010KT 9999 -RA BKN032/// 07/05 Q1009
2026-03-30 18:50:00,METAR LIRZ 301850Z AUTO 34017KT 8000 -RA OVC035/// 07/05 Q1009
2026-03-30 18:20:00,METAR LIRZ 301820Z AUTO 34016KT 310V010 9999 -RA BKN030/// 09/06 Q1009 REDZ RERA
2026-03-30 17:50:00,METAR LIRZ 301750Z AUTO 03010KT 9999 BKN070/// 12/04 Q1007
2026-03-30 17:20:00,METAR LIRZ 301720Z AUTO 28003KT 9999 BKN076/// BKN098/// 14/02 Q1007
2026-03-30 16:50:00,METAR LIRZ 301650Z AUTO 25003KT 9999 FEW110/// 14/04 Q1007
2026-03-30 16:20:00,METAR LIRZ 301620Z AUTO 27007KT 9999 BKN084/// 15/03 Q1007
2026-03-30 15:50:00,METAR LIRZ 301550Z AUTO 26006KT 9999 FEW067/// 15/02 Q1008
2026-03-30 15:20:00,METAR LIRZ 301520Z AUTO 23004KT 190V270 9999 NCD 15/02 Q1008
2026-03-30 14:50:00,METAR LIRZ 301450Z AUTO 17003KT 110V250 9999 SCT100/// 16/03 Q1009
2026-03-30 14:20:00,METAR LIRZ 301420Z AUTO 13003KT 050V200 9999 FEW100/// 15/02 Q1009
2026-03-30 13:50:00,METAR LIRZ 301350Z AUTO VRB03KT 9999 BKN100/// 16/03 Q1010
2026-03-30 13:20:00,METAR LIRZ 301320Z AUTO 23005KT 160V270 9999 FEW100/// SCT110/// 15/03 Q1010
2026-03-30 12:50:00,METAR LIRZ 301250Z AUTO VRB03KT 9999 NCD 15/04 Q1011
2026-03-30 12:20:00,METAR LIRZ 301220Z AUTO 23005KT 190V290 9999 NCD 14/04 Q1012
2026-03-30 11:50:00,METAR LIRZ 301150Z AUTO VRB02KT 9999 NCD 14/02 Q1012
2026-03-30 11:20:00,METAR LIRZ 301120Z AUTO 26003KT 170V330 9999 NCD 14/03 Q1013
2026-03-30 10:50:00,METAR LIRZ 301050Z AUTO VRB01KT 9999 NCD 14/02 Q1014
2026-03-30 10:20:00,METAR LIRZ 301020Z AUTO VRB02KT 9999 NCD 14/03 Q1014
2026-03-30 09:50:00,METAR LIRZ 300950Z AUTO VRB03KT 9999 NCD 13/02 Q1015
2026-03-30 09:20:00,METAR LIRZ 300920Z AUTO VRB02KT 9999 NCD 13/03 Q1015
2026-03-30 08:50:00,METAR LIRZ 300850Z AUTO VRB02KT 9999 NCD 11/03 Q1015
2026-03-30 08:20:00,METAR LIRZ 300820Z AUTO VRB02KT 9999 NCD 10/03 Q1016
2026-03-30 07:50:00,METAR LIRZ 300750Z AUTO VRB02KT 9999 NCD 09/03 Q1016
2026-03-30 07:20:00,METAR LIRZ 300720Z AUTO VRB02KT 9999 NCD 08/04 Q1016
2026-03-30 06:50:00,METAR LIRZ 300650Z AUTO VRB02KT 9999 NCD 07/03 Q1015
2026-03-30 06:20:00,METAR LIRZ 300620Z AUTO VRB02KT 9999 NCD 06/03 Q1016
2026-03-30 05:50:00,METAR LIRZ 300550Z AUTO 01007KT 340V040 9999 NCD 04/02 Q1016
2026-03-30 05:20:00,METAR LIRZ 300520Z AUTO 01007KT 9999 NCD 03/01 Q1016
2026-03-30 04:50:00,METAR LIRZ 300450Z AUTO 11004KT 060V130 9999 NCD 03/01 Q1016
2026-03-30 04:20:00,METAR LIRZ 300420Z AUTO 36006KT 9999 NCD 03/01 Q1016
2026-03-30 03:50:00,METAR LIRZ 300350Z AUTO 34004KT 320V020 9999 NCD 03/01 Q1016
2026-03-30 03:20:00,METAR LIRZ 300320Z AUTO 33005KT 9999 NCD 04/01 Q1016
2026-03-30 02:50:00,METAR LIRZ 300250Z AUTO 36007KT 9999 NCD 03/01 Q1016
2026-03-30 02:20:00,METAR LIRZ 300220Z AUTO 02005KT 9999 NCD 06/02 Q1016
2026-03-30 01:50:00,METAR LIRZ 300150Z AUTO 01004KT 9999 NCD 06/03 Q1017
2026-03-30 01:20:00,METAR LIRZ 300120Z AUTO 02005KT 9999 NCD 06/03 Q1017
2026-03-30 00:50:00,METAR LIRZ 300050Z AUTO 35005KT 9999 NCD 06/02 Q1017
2026-03-30 00:20:00,METAR LIRZ 300020Z AUTO 02006KT 9999 NCD 06/02 Q1017
2026-03-29 23:50:00,METAR LIRZ 292350Z AUTO 36006KT 9999 NCD 06/02 Q1018
2026-03-29 23:20:00,METAR LIRZ 292320Z AUTO 36008KT 9999 NCD 07/03 Q1018
2026-03-29 22:50:00,METAR LIRZ 292250Z AUTO 02008KT 9999 NCD 07/03 Q1018
2026-03-29 22:20:00,METAR LIRZ 292220Z AUTO 03009KT 9999 NCD 08/03 Q1018
2026-03-29 21:50:00,METAR LIRZ 292150Z AUTO 02009KT 9999 NCD 09/02 Q1018
2026-03-29 21:20:00,METAR LIRZ 292120Z AUTO 03008KT 9999 NCD 09/02 Q1017
2026-03-29 20:50:00,METAR LIRZ 292050Z AUTO 03009KT 9999 NCD 09/02 Q1017
2026-03-29 20:20:00,METAR LIRZ 292020Z AUTO 03009KT 9999 NCD 09/02 Q1017
2026-03-29 19:50:00,METAR LIRZ 291950Z AUTO 03009KT 9999 NCD 09/02 Q1017
2026-03-29 19:20:00,METAR LIRZ 291920Z AUTO 03009KT 9999 NCD 09/02 Q1017
2026-03-29 18:50:00,METAR LIRZ 291850Z AUTO 03010KT 9999 NCD 10/02 Q1016
2026-03-29 18:20:00,METAR LIRZ 291820Z AUTO 03009KT 9999 NCD 10/02 Q1016
2026-03-29 17:50:00,METAR LIRZ 291750Z AUTO 03011KT 9999 NCD 11/01 Q1016
2026-03-29 17:20:00,METAR LIRZ 291720Z AUTO 03012KT 9999 NCD 11/01 Q1015
2026-03-29 16:50:00,METAR LIRZ 291650Z AUTO 03015KT 9999 NCD 12/02 Q1015
2026-03-29 16:20:00,METAR LIRZ 291620Z AUTO 04015KT 9999 NCD 13/02 Q1015
2026-03-29 15:20:00,METAR LIRZ 291520Z AUTO 05016KT 9999 NCD 13/03 Q1014
2026-03-29 14:50:00,METAR LIRZ 291450Z AUTO 03014KT 9999 NCD 13/03 Q1014
2026-03-29 14:20:00,METAR LIRZ 291420Z AUTO 05016KT 9999 NCD 13/03 Q1014
2026-03-29 13:50:00,METAR LIRZ 291350Z AUTO 04014KT 9999 FEW046/// 13/04 Q1014
2026-03-29 13:20:00,METAR LIRZ 291320Z AUTO 05015KT 9999 FEW039/// 13/04 Q1014
2026-03-29 12:50:00,METAR LIRZ 291250Z AUTO 04015KT 9999 BKN044/// 13/04 Q1014
2026-03-29 12:20:00,METAR LIRZ 291220Z AUTO 03017KT 9999 BKN052/// 13/04 Q1013
2026-03-29 11:50:00,METAR LIRZ 291150Z AUTO 03017KT 9999 BKN050/// 13/03 Q1013
2026-03-29 11:20:00,METAR LIRZ 291120Z AUTO 03016KT 9999 BKN052/// 13/03 Q1013
2026-03-29 10:50:00,METAR LIRZ 291050Z AUTO 06015KT 9999 SCT052/// 13/02 Q1013
2026-03-29 10:20:00,METAR LIRZ 291020Z AUTO 03016KT 9999 NCD 13/03 Q1012
2026-03-29 09:50:00,METAR LIRZ 290950Z AUTO 06017KT 9999 NCD 13/01 Q1012
2026-03-29 09:20:00,METAR LIRZ 290920Z AUTO 04015KT 9999 FEW051/// 13/01 Q1012
2026-03-29 08:50:00,METAR LIRZ 290850Z AUTO 03015KT 010V080 9999 NCD 12/02 Q1012
2026-03-29 08:20:00,METAR LIRZ 290820Z AUTO 04018KT 9999 NCD 12/01 Q1011
2026-03-29 07:50:00,METAR LIRZ 290750Z AUTO 04013KT 9999 NCD 11/01 Q1011
2026-03-29 07:20:00,METAR LIRZ 290720Z AUTO 01008KT 9999 NCD 09/03 Q1011
2026-03-29 06:50:00,METAR LIRZ 290650Z AUTO 05003KT 010V090 9999 BKN072/// 06/01 Q1011
2026-03-29 06:20:00,METAR LIRZ 290620Z AUTO 02005KT 350V060 9999 SCT069/// 04/01 Q1010
2026-03-29 05:50:00,METAR LIRZ 290550Z AUTO 03003KT 360V060 9999 FEW067/// 02/00 Q1011
2026-03-29 05:20:00,METAR LIRZ 290520Z AUTO 01004KT 9999 NCD 01/M02 Q1010
2026-03-29 04:50:00,METAR LIRZ 290450Z AUTO 08003KT 010V110 9999 NCD 01/M01 Q1010
2026-03-29 04:20:00,METAR LIRZ 290420Z AUTO 36009KT 9999 NCD 02/M00 Q1010
2026-03-29 03:50:00,METAR LIRZ 290350Z AUTO 36007KT 9999 SCT210/// 02/M00 Q1009
2026-03-29 03:20:00,METAR LIRZ 290320Z AUTO 36009KT 9999 NCD 03/M00 Q1009
2026-03-29 02:50:00,METAR LIRZ 290250Z AUTO 34007KT 9999 NCD 02/M00 Q1009
2026-03-29 02:20:00,METAR LIRZ 290220Z AUTO 36009KT 9999 NCD 02/M00 Q1009
2026-03-29 01:50:00,METAR LIRZ 290150Z AUTO 34009KT 9999 NCD 02/M00 Q1009
2026-03-29 01:20:00,METAR LIRZ 290120Z AUTO 01011KT 9999 NCD 02/M00 Q1009
2026-03-29 00:50:00,METAR LIRZ 290050Z AUTO 36008KT 9999 NCD 02/00 Q1010
2026-03-29 00:20:00,METAR LIRZ 290020Z AUTO 34008KT 9999 NCD 04/M00 Q1010
2026-03-28 23:50:00,METAR LIRZ 282350Z AUTO 35008KT 9999 NCD 04/M00 Q1010
2026-03-28 23:20:00,METAR LIRZ 282320Z AUTO 35009KT 9999 NCD 04/01 Q1010
2026-03-28 22:50:00,METAR LIRZ 282250Z AUTO 27003KT 230V010 9999 NCD 03/00 Q1010
2026-03-28 22:20:00,METAR LIRZ 282220Z AUTO 36010KT 9999 NCD 04/00 Q1010
2026-03-28 21:50:00,METAR LIRZ 282150Z AUTO 01008KT 9999 NCD 05/00 Q1010
2026-03-28 21:20:00,METAR LIRZ 282120Z AUTO 36007KT 9999 NCD 05/00 Q1010
2026-03-28 20:50:00,METAR LIRZ 282050Z AUTO 02007KT 9999 NCD 05/00 Q1010
2026-03-28 20:20:00,METAR LIRZ 282020Z AUTO 35007KT 9999 NCD 06/M00 Q1010
2026-03-28 19:50:00,METAR LIRZ 281950Z AUTO 36007KT 9999 NCD 07/M00 Q1010
2026-03-28 19:20:00,METAR LIRZ 281920Z AUTO 04008KT 9999 NCD 08/M00 Q1009
2026-03-28 18:50:00,METAR LIRZ 281850Z AUTO 03007KT 9999 NCD 07/01 Q1009
2026-03-28 18:20:00,METAR LIRZ 281820Z AUTO 04007KT 9999 NCD 09/01 Q1009
2026-03-28 17:50:00,METAR LIRZ 281750Z AUTO 05006KT 9999 NCD 09/01 Q1009
2026-03-28 17:20:00,METAR LIRZ 281720Z AUTO 04008KT 9999 NCD 11/01 Q1008
2026-03-28 16:50:00,METAR LIRZ 281650Z AUTO 04009KT 9999 NCD 13/01 Q1008
2026-03-28 16:20:00,METAR LIRZ 281620Z AUTO 04009KT 9999 NCD 14/01 Q1008
2026-03-28 15:50:00,METAR LIRZ 281550Z AUTO 02008KT 350V050 9999 NCD 14/01 Q1008
2026-03-28 15:20:00,METAR LIRZ 281520Z AUTO 01011KT 9999 NCD 15/01 Q1008
2026-03-28 14:50:00,METAR LIRZ 281450Z AUTO 36009KT 340V040 9999 NCD 15/M01 Q1008
2026-03-28 14:20:00,METAR LIRZ 281420Z AUTO 34011KT 320V020 9999 NCD 15/M01 Q1009
2026-03-28 13:50:00,METAR LIRZ 281350Z AUTO 02008KT 360V060 9999 NCD 14/02 Q1009
2026-03-28 13:20:00,METAR LIRZ 281320Z AUTO 02008KT 340V070 9999 FEW063/// 15/03 Q1009
2026-03-28 12:50:00,METAR LIRZ 281250Z AUTO 05010KT 020V080 9999 BKN063/// 14/01 Q1009
2026-03-28 12:20:00,METAR LIRZ 281220Z AUTO 02011KT 340V050 9999 BKN060/// 14/03 Q1010
2026-03-28 11:50:00,METAR LIRZ 281150Z AUTO 36012KT 330V030 9999 FEW060/// 14/01 Q1010
2026-03-28 11:20:00,METAR LIRZ 281120Z AUTO 01011KT 9999 NCD 13/02 Q1010
2026-03-28 10:50:00,METAR LIRZ 281050Z AUTO 02012KT 340V050 9999 NCD 13/02 Q1010
2026-03-28 10:20:00,METAR LIRZ 281020Z AUTO 02013KT 9999 NCD 13/M00 Q1011
2026-03-28 09:50:00,METAR LIRZ 280950Z AUTO 01014KT 9999 NCD 12/00 Q1011
2026-03-28 09:20:00,METAR LIRZ 280920Z AUTO 36011KT 320V020 9999 FEW050/// 12/00 Q1011
2026-03-28 08:50:00,METAR LIRZ 280850Z AUTO 36006KT 320V050 9999 FEW045/// 11/01 Q1011
2026-03-28 08:20:00,METAR LIRZ 280820Z AUTO 25005KT 230V300 9999 SCT048/// 10/03 Q1011
2026-03-28 07:50:00,METAR LIRZ 280750Z AUTO VRB02KT 9999 NCD 09/02 Q1011
2026-03-28 07:20:00,METAR LIRZ 280720Z AUTO VRB02KT 9999 NCD 08/03 Q1011
2026-03-28 06:50:00,METAR LIRZ 280650Z AUTO 28003KT 240V340 9999 NCD 06/03 Q1011
2026-03-28 06:20:00,METAR LIRZ 280620Z AUTO 36003KT 310V080 9999 NCD 04/02 Q1011
2026-03-28 05:50:00,METAR LIRZ 280550Z AUTO 34007KT 9999 NCD 03/02 Q1010
2026-03-28 05:20:00,METAR LIRZ 280520Z AUTO 35007KT 9999 NCD 03/01 Q1010
2026-03-28 04:50:00,METAR LIRZ 280450Z AUTO 36005KT 9999 FEW080/// 03/01 Q1010
2026-03-28 04:20:00,METAR LIRZ 280420Z AUTO 36004KT 9999 NCD 03/01 Q1010
2026-03-28 03:50:00,METAR LIRZ 280350Z AUTO 35003KT 9999 NCD 03/01 Q1010
2026-03-28 03:20:00,METAR LIRZ 280320Z AUTO 32003KT 300V080 9999 BKN069/// 05/01 Q1010
2026-03-28 02:50:00,METAR LIRZ 280250Z AUTO VRB02KT 9999 SCT083/// 04/01 Q1010
2026-03-28 02:20:00,METAR LIRZ 280220Z AUTO 36005KT 9999 NCD 04/02 Q1010
2026-03-28 01:50:00,METAR LIRZ 280150Z AUTO 02005KT 9999 FEW083/// 05/01 Q1010
2026-03-28 01:20:00,METAR LIRZ 280120Z AUTO 02008KT 9999 FEW059/// BKN091/// 08/01 Q1010
2026-03-28 00:50:00,METAR LIRZ 280050Z AUTO 04007KT 9999 BKN056/// BKN096/// 08/01 Q1010
2026-03-28 00:20:00,METAR LIRZ 280020Z AUTO 03006KT 360V060 9999 BKN054/// 08/02 Q1010
2026-03-27 23:50:00,METAR LIRZ 272350Z AUTO 01005KT 330V050 9999 BKN048/// 08/02 Q1010
2026-03-27 23:20:00,METAR LIRZ 272320Z AUTO 02007KT 330V050 9999 BKN042/// 08/02 Q1010
2026-03-27 22:50:00,METAR LIRZ 272250Z AUTO 29004KT 250V320 9999 OVC042/// 07/02 Q1010
2026-03-27 22:20:00,METAR LIRZ 272220Z AUTO 27007KT 9999 BKN047/// 06/02 Q1010
2026-03-27 21:50:00,METAR LIRZ 272150Z AUTO VRB03KT 9999 FEW040/// SCT060/// 05/02 Q1010
2026-03-27 21:20:00,METAR LIRZ 272120Z AUTO 26003KT 9999 BKN048/// 05/02 Q1010
2026-03-27 20:50:00,METAR LIRZ 272050Z AUTO 34003KT 9999 BKN049/// 06/02 Q1010
2026-03-27 20:20:00,METAR LIRZ 272020Z AUTO VRB01KT 9999 BKN055/// 05/01 Q1009
2026-03-27 19:50:00,METAR LIRZ 271950Z AUTO VRB02KT 9999 FEW069/// 04/01 Q1009
2026-03-27 19:20:00,METAR LIRZ 271920Z AUTO 32003KT 290V010 9999 SCT067/// 05/02 Q1009
2026-03-27 18:50:00,METAR LIRZ 271850Z AUTO 02004KT 9999 FEW058/// 05/01 Q1009
2026-03-27 18:20:00,METAR LIRZ 271820Z AUTO VRB02KT 9999 BKN078/// 06/02 Q1009
2026-03-27 17:50:00,METAR LIRZ 271750Z AUTO 01003KT 9999 OVC069/// 06/02 Q1008
2026-03-27 17:20:00,METAR LIRZ 271720Z AUTO 36005KT 320V050 9999 OVC041/// 07/02 Q1008
2026-03-27 16:50:00,METAR LIRZ 271650Z AUTO 02009KT 9999 BKN044/// 07/02 Q1008
2026-03-27 16:20:00,METAR LIRZ 271620Z AUTO 01008KT 340V040 9999 -RA OVC029/// 07/03 Q1007
2026-03-25 14:50:00,METAR LIRZ 251450Z AUTO 26016KT 9999 NCD 18/01 Q1007
2026-03-25 14:20:00,METAR LIRZ 251420Z AUTO 27010KT 220V300 9999 NCD 18/02 Q1008
2026-03-25 13:50:00,METAR LIRZ 251350Z AUTO 24009KT 170V300 9999 FEW072/// 18/01 Q1009
2026-03-25 13:20:00,METAR LIRZ 251320Z AUTO 24008KT 200V280 9999 SCT069/// 18/01 Q1009
2026-03-25 12:50:00,METAR LIRZ 251250Z AUTO 22009KT 160V270 9999 FEW068/// 18/03 Q1010
2026-03-25 12:20:00,METAR LIRZ 251220Z AUTO 22008KT 200V270 9999 NCD 17/02 Q1011
2026-03-25 11:50:00,METAR LIRZ 251150Z AUTO 27006KT 180V330 9999 NCD 16/02 Q1011
2026-03-25 11:20:00,METAR LIRZ 251120Z AUTO 23006KT 170V270 9999 NCD 16/01 Q1012
2026-03-25 10:50:00,METAR LIRZ 251050Z AUTO VRB04KT 9999 NCD 14/02 Q1013
2026-03-25 10:20:00,METAR LIRZ 251020Z AUTO 18004KT 110V220 9999 NCD 14/04 Q1014
2026-03-25 09:50:00,METAR LIRZ 250950Z AUTO VRB02KT 9999 NCD 13/04 Q1015
2026-03-25 09:20:00,METAR LIRZ 250920Z AUTO 19003KT 130V250 9999 NCD 11/04 Q1015
2026-03-25 08:50:00,METAR LIRZ 250850Z AUTO VRB02KT 9999 NCD 10/03 Q1016
2026-03-25 08:20:00,METAR LIRZ 250820Z AUTO VRB02KT 9999 NCD 08/03 Q1016
2026-03-25 07:50:00,METAR LIRZ 250750Z AUTO VRB02KT 9999 NCD 07/02 Q1016
2026-03-25 07:20:00,METAR LIRZ 250720Z AUTO VRB01KT 9999 NCD 06/02 Q1017
2026-03-25 06:50:00,METAR LIRZ 250650Z AUTO 29003KT 9999 NCD 04/01 Q1017
2026-03-25 06:20:00,METAR LIRZ 250620Z AUTO 31003KT 250V350 9999 NCD 03/01 Q1017
2026-03-25 05:50:00,METAR LIRZ 250550Z AUTO 04006KT 9999 NCD 01/00 Q1017
2026-03-25 05:20:00,METAR LIRZ 250520Z AUTO 03005KT 9999 NCD 00/M01 Q1017
2026-03-25 04:50:00,METAR LIRZ 250450Z AUTO 04002KT 9999 NCD 01/M00 Q1017
2026-03-25 04:20:00,METAR LIRZ 250420Z AUTO 02005KT 9999 NCD 01/M00 Q1017
2026-03-25 03:50:00,METAR LIRZ 250350Z AUTO 35004KT 9999 NCD 01/00 Q1017
2026-03-25 03:20:00,METAR LIRZ 250320Z AUTO 02005KT 9999 NCD 01/M01 Q1017
2026-03-25 02:50:00,METAR LIRZ 250250Z AUTO VRB03KT 9999 NCD 01/M00 Q1017
2026-03-25 02:20:00,METAR LIRZ 250220Z AUTO 03007KT 9999 NCD 02/01 Q1017
2026-03-25 01:50:00,METAR LIRZ 250150Z AUTO VRB02KT 9999 NCD 02/01 Q1018
2026-03-25 01:20:00,METAR LIRZ 250120Z AUTO 02007KT 9999 NCD 02/00 Q1018
2026-03-25 00:50:00,METAR LIRZ 250050Z AUTO 02004KT 300V040 9999 NCD 02/M01 Q1018
2026-03-25 00:20:00,METAR LIRZ 250020Z AUTO VRB02KT 9999 NCD 03/00 Q1019
2026-03-24 23:50:00,METAR LIRZ 242350Z AUTO 26004KT 220V290 9999 NCD 04/00 Q1019
2026-03-24 23:20:00,METAR LIRZ 242320Z AUTO 01007KT 9999 NCD 04/01 Q1018
2026-03-24 22:50:00,METAR LIRZ 242250Z AUTO 35006KT 9999 NCD 05/01 Q1018
2026-03-24 22:20:00,METAR LIRZ 242220Z AUTO 01006KT 350V090 9999 NCD 05/02 Q1018
2026-03-24 21:50:00,METAR LIRZ 242150Z AUTO 01009KT 9999 NCD 06/02 Q1018
2026-03-24 21:20:00,METAR LIRZ 242120Z AUTO 02006KT 9999 NCD 07/02 Q1018
2026-03-24 20:50:00,METAR LIRZ 242050Z AUTO 35005KT 9999 NCD 07/01 Q1019
2026-03-24 20:20:00,METAR LIRZ 242020Z AUTO 36003KT 290V040 9999 NCD 09/02 Q1018
2026-03-24 19:50:00,METAR LIRZ 241950Z AUTO 32003KT 270V020 9999 NCD 10/03 Q1018
2026-03-24 19:20:00,METAR LIRZ 241920Z AUTO 03004KT 340V050 9999 NCD 07/02 Q1018
2026-03-24 18:50:00,METAR LIRZ 241850Z AUTO 05007KT 9999 NCD 11/03 Q1018
2026-03-24 18:20:00,METAR LIRZ 241820Z AUTO 03007KT 9999 NCD 10/03 Q1018
2026-03-24 17:50:00,METAR LIRZ 241750Z AUTO 03007KT 9999 NCD 11/03 Q1018
2026-03-24 17:20:00,METAR LIRZ 241720Z AUTO 04010KT 9999 NCD 14/02 Q1017
2026-03-24 16:50:00,METAR LIRZ 241650Z AUTO 04007KT 9999 NCD 14/03 Q1017
2026-03-24 16:20:00,METAR LIRZ 241620Z AUTO 04011KT 9999 NCD 15/02 Q1017
2026-03-24 15:50:00,METAR LIRZ 241550Z AUTO 04011KT 9999 NCD 16/01 Q1017
2026-03-24 15:20:00,METAR LIRZ 241520Z AUTO 06011KT 030V090 9999 NCD 17/02 Q1017
2026-03-24 14:50:00,METAR LIRZ 241450Z AUTO 06011KT 9999 NCD 17/01 Q1017
2026-03-24 14:20:00,METAR LIRZ 241420Z AUTO 05008KT 010V090 9999 NCD 17/02 Q1017
2026-03-24 13:50:00,METAR LIRZ 241350Z AUTO 02010KT 9999 FEW061/// 17/02 Q1017
2026-03-24 13:20:00,METAR LIRZ 241320Z AUTO 04010KT 360V080 9999 NCD 17/03 Q1018
2026-03-24 12:50:00,METAR LIRZ 241250Z AUTO 04011KT 9999 FEW068/// 16/02 Q1018
2026-03-24 12:20:00,METAR LIRZ 241220Z AUTO 03010KT 360V070 9999 FEW061/// SCT072/// 17/03 Q1018
2026-03-24 11:50:00,METAR LIRZ 241150Z AUTO 04010KT 010V070 9999 FEW057/// BKN066/// 15/03 Q1018
2026-03-24 11:20:00,METAR LIRZ 241120Z AUTO 03011KT 9999 BKN056/// 15/03 Q1019
2026-03-24 10:50:00,METAR LIRZ 241050Z AUTO 04011KT 020V080 9999 BKN056/// 14/03 Q1019
2026-03-24 10:20:00,METAR LIRZ 241020Z AUTO 03012KT 9999 FEW056/// 15/03 Q1019
2026-03-24 09:50:00,METAR LIRZ 240950Z AUTO 04013KT 9999 NCD 15/04 Q1019
2026-03-24 09:20:00,METAR LIRZ 240920Z AUTO 04013KT 9999 NCD 14/04 Q1019
2026-03-24 08:50:00,METAR LIRZ 240850Z AUTO 02009KT 260V050 9999 NCD 14/05 Q1019
2026-03-24 08:20:00,METAR LIRZ 240820Z AUTO 31005KT 260V040 9999 NCD 12/06 Q1019
2026-03-24 07:50:00,METAR LIRZ 240750Z AUTO 26005KT 240V310 9999 NCD 10/04 Q1019
2026-03-24 07:20:00,METAR LIRZ 240720Z AUTO 33005KT 9999 NCD 09/03 Q1019
2026-03-24 06:50:00,METAR LIRZ 240650Z AUTO 34005KT 9999 FEW034/// 07/03 Q1019
2026-03-24 06:20:00,METAR LIRZ 240620Z AUTO 35003KT 9999 FEW034/// 04/02 Q1019
2026-03-24 05:50:00,METAR LIRZ 240550Z AUTO 01007KT 320V020 9999 NCD 03/01 Q1018
2026-03-24 05:20:00,METAR LIRZ 240520Z AUTO 34007KT 9999 NCD 03/00 Q1018
2026-03-24 04:50:00,METAR LIRZ 240450Z AUTO VRB02KT 9999 NCD 03/00 Q1018
2026-03-24 04:20:00,METAR LIRZ 240420Z AUTO VRB02KT 9999 NCD 01/M01 Q1018
2026-03-24 03:50:00,METAR LIRZ 240350Z AUTO 36005KT 9999 NCD 01/M01 Q1017
2026-03-24 03:20:00,METAR LIRZ 240320Z AUTO 32005KT 9999 NCD 03/M00 Q1017
2026-03-24 02:50:00,METAR LIRZ 240250Z AUTO 33004KT 9999 NCD 02/00 Q1017
2026-03-24 02:20:00,METAR LIRZ 240220Z AUTO 01006KT 9999 FEW056/// 02/M00 Q1017
2026-03-24 01:50:00,METAR LIRZ 240150Z AUTO VRB02KT 9999 FEW055/// 02/M01 Q1017
2026-03-24 01:20:00,METAR LIRZ 240120Z AUTO VRB02KT 9999 FEW052/// 04/M00 Q1018
2026-03-24 00:50:00,METAR LIRZ 240050Z AUTO 32003KT 9999 NCD 03/M00 Q1018
2026-03-24 00:20:00,METAR LIRZ 240020Z AUTO 32007KT 9999 NCD 04/01 Q1018
2026-03-23 23:50:00,METAR LIRZ 232350Z AUTO 26004KT 9999 BKN051/// 03/00 Q1018
2026-03-23 23:20:00,METAR LIRZ 232320Z AUTO 02007KT 9999 FEW056/// 03/02 Q1018
2026-03-23 22:50:00,METAR LIRZ 232250Z AUTO 06005KT 9999 SCT057/// 04/01 Q1017
2026-03-23 22:20:00,METAR LIRZ 232220Z AUTO 02005KT 9999 SCT071/// 03/00 Q1017
2026-03-23 21:50:00,METAR LIRZ 232150Z AUTO 02004KT 9999 BKN070/// 04/00 Q1017
2026-03-23 21:20:00,METAR LIRZ 232120Z AUTO VRB01KT 9999 SCT095/// 05/01 Q1017
2026-03-23 20:50:00,METAR LIRZ 232050Z AUTO 35005KT 9999 NCD 03/01 Q1017
2026-03-23 20:20:00,METAR LIRZ 232020Z AUTO 02006KT 9999 NCD 04/02 Q1017
2026-03-23 19:50:00,METAR LIRZ 231950Z AUTO 04005KT 9999 NCD 03/02 Q1016
2026-03-23 19:20:00,METAR LIRZ 231920Z AUTO 05004KT 9999 NCD 05/02 Q1016
2026-03-23 18:50:00,METAR LIRZ 231850Z AUTO 02004KT 9999 NCD 08/03 Q1016
2026-03-23 18:20:00,METAR LIRZ 231820Z AUTO 02004KT 9999 NCD 08/02 Q1015
2026-03-23 17:50:00,METAR LIRZ 231750Z AUTO 06005KT 9999 NCD 10/02 Q1015
2026-03-23 17:20:00,METAR LIRZ 231720Z AUTO 05006KT 9999 NCD 11/03 Q1015
2026-03-23 16:50:00,METAR LIRZ 231650Z AUTO 06009KT 9999 NCD 12/03 Q1014
2026-03-23 16:20:00,METAR LIRZ 231620Z AUTO 05013KT 9999 FEW072/// 13/02 Q1014
2026-03-23 15:50:00,METAR LIRZ 231550Z AUTO 06011KT 030V100 9999 NCD 13/03 Q1014
2026-03-23 15:20:00,METAR LIRZ 231520Z AUTO 04013KT 020V080 9999 NCD 13/03 Q1014
2026-03-23 14:50:00,METAR LIRZ 231450Z AUTO 04014KT 9999 FEW110/// 13/03 Q1014
2026-03-23 14:20:00,METAR LIRZ 231420Z AUTO 04012KT 9999 BKN082/// 13/03 Q1014
2026-03-23 13:50:00,METAR LIRZ 231350Z AUTO 04011KT 9999 BKN076/// 11/04 Q1014
2026-03-23 13:20:00,METAR LIRZ 231320Z AUTO 05016KT 9999 BKN071/// 12/04 Q1014
2026-03-23 12:50:00,METAR LIRZ 231250Z AUTO 06012KT 9999 BKN069/// BKN082/// 12/03 Q1014
2026-03-23 12:20:00,METAR LIRZ 231220Z AUTO 05016KT 9999 FEW053/// BKN069/// 12/03 Q1014
2026-03-23 11:50:00,METAR LIRZ 231150Z AUTO 05014KT 9999 FEW039/// 14/03 Q1014
2026-03-23 11:20:00,METAR LIRZ 231120Z AUTO 04013KT 9999 NCD 14/03 Q1014
2026-03-23 10:50:00,METAR LIRZ 231050Z AUTO 03015KT 9999 FEW041/// 13/04 Q1014
2026-03-23 10:20:00,METAR LIRZ 231020Z AUTO 04011KT 9999 BKN037/// 13/04 Q1014
2026-03-23 09:50:00,METAR LIRZ 230950Z AUTO 05010KT 9999 FEW036/// 12/05 Q1014
2026-03-23 09:20:00,METAR LIRZ 230920Z AUTO 05010KT 020V080 9999 FEW037/// SCT083/// 11/03 Q1014
2026-03-23 08:50:00,METAR LIRZ 230850Z AUTO 04012KT 9999 FEW045/// BKN076/// 10/04 Q1014
2026-03-23 08:20:00,METAR LIRZ 230820Z AUTO 03009KT 9999 FEW040/// 10/04 Q1014
2026-03-23 07:50:00,METAR LIRZ 230750Z AUTO VRB02KT 9999 FEW076/// 08/04 Q1014
2026-03-23 07:20:00,METAR LIRZ 230720Z AUTO VRB02KT 9999 FEW075/// 07/04 Q1014
2026-03-23 06:50:00,METAR LIRZ 230650Z AUTO 04003KT 010V070 9999 SCT057/// BKN088/// 07/03 Q1014
2026-03-23 06:20:00,METAR LIRZ 230620Z AUTO 02003KT 330V050 9999 BKN088/// 05/03 Q1014
2026-03-23 05:50:00,METAR LIRZ 230550Z AUTO VRB02KT 9999 FEW091/// 03/01 Q1013
2026-03-23 05:20:00,METAR LIRZ 230520Z AUTO 06004KT 010V100 9999 NCD 02/01 Q1013
2026-03-23 04:50:00,METAR LIRZ 230450Z AUTO 02005KT 340V140 9999 NCD 03/01 Q1013
2026-03-23 04:20:00,METAR LIRZ 230420Z AUTO 34006KT 9999 NCD 03/01 Q1013
2026-03-23 03:50:00,METAR LIRZ 230350Z AUTO 35006KT 9999 NCD 02/01 Q1013
2026-03-23 03:20:00,METAR LIRZ 230320Z AUTO 36008KT 9999 NCD 02/01 Q1013
2026-03-23 02:50:00,METAR LIRZ 230250Z AUTO 35008KT 9999 NCD 03/01 Q1013
2026-03-23 02:20:00,METAR LIRZ 230220Z AUTO 34007KT 9999 NCD 03/01 Q1013
2026-03-23 01:50:00,METAR LIRZ 230150Z AUTO 02005KT 9999 NCD 03/01 Q1013
2026-03-23 01:20:00,METAR LIRZ 230120Z AUTO 01007KT 9999 NCD 04/02 Q1013
2026-03-23 00:50:00,METAR LIRZ 230050Z AUTO 01009KT 9999 NCD 04/02 Q1013
2026-03-23 00:20:00,METAR LIRZ 230020Z AUTO 02009KT 9999 NCD 03/02 Q1013
2026-03-22 23:50:00,METAR LIRZ 222350Z AUTO 01009KT 9999 NCD 04/02 Q1013
2026-03-22 23:20:00,METAR LIRZ 222320Z AUTO 01009KT 9999 NCD 05/02 Q1013
2026-03-22 22:50:00,METAR LIRZ 222250Z AUTO 01009KT 9999 NCD 05/02 Q1013
2026-03-22 22:20:00,METAR LIRZ 222220Z AUTO 01008KT 9999 BKN099/// 05/02 Q1013
2026-03-22 21:50:00,METAR LIRZ 222150Z AUTO 01008KT 9999 BKN100/// 06/03 Q1013
2026-03-22 21:20:00,METAR LIRZ 222120Z AUTO 01008KT 9999 BKN100/// 07/03 Q1013
2026-03-22 20:50:00,METAR LIRZ 222050Z AUTO 36008KT 9999 BKN100/// 08/03 Q1013
2026-03-22 20:20:00,METAR LIRZ 222020Z AUTO 36007KT 9999 BKN100/// 08/03 Q1013
2026-03-22 19:50:00,METAR LIRZ 221950Z AUTO 35007KT 9999 BKN100/// 08/03 Q1013
2026-03-22 19:20:00,METAR LIRZ 221920Z AUTO 05006KT 9999 FEW059/// BKN100/// 09/02 Q1012
2026-03-22 18:50:00,METAR LIRZ 221850Z AUTO 05006KT 9999 FEW095/// 09/02 Q1012
2026-03-22 18:20:00,METAR LIRZ 221820Z AUTO 03008KT 9999 FEW077/// BKN100/// 09/03 Q1012
2026-03-22 17:50:00,METAR LIRZ 221750Z AUTO 05006KT 9999 OVC072/// 10/03 Q1012
2026-03-22 17:20:00,METAR LIRZ 221720Z AUTO 04008KT 9999 OVC065/// 11/02 Q1012
2026-03-22 16:50:00,METAR LIRZ 221650Z AUTO 05008KT 9999 SCT069/// BKN100/// 12/02 Q1012
2026-03-22 16:20:00,METAR LIRZ 221620Z AUTO 03007KT 9999 FEW052/// SCT068/// BKN100/// 12/02 Q1011
2026-03-22 15:50:00,METAR LIRZ 221550Z AUTO 11006KT 9999 BKN071/// BKN100/// 12/01 Q1011
2026-03-22 15:20:00,METAR LIRZ 221520Z AUTO 10006KT 9999 BKN071/// BKN100/// 12/01 Q1011
2026-03-22 14:50:00,METAR LIRZ 221450Z AUTO 10006KT 050V130 9999 BKN075/// 13/02 Q1011
2026-03-22 14:20:00,METAR LIRZ 221420Z AUTO 11006KT 080V140 9999 BKN073/// 13/00 Q1011
2026-03-22 13:50:00,METAR LIRZ 221350Z AUTO 14004KT 9999 -RA BKN060/// 12/M00 Q1011
2026-03-22 13:20:00,METAR LIRZ 221320Z AUTO 12007KT 9999 BKN069/// 12/01 Q1011
2026-03-22 12:50:00,METAR LIRZ 221250Z AUTO 13005KT 100V180 9999 BKN082/// 13/M00 Q1011
2026-03-22 12:20:00,METAR LIRZ 221220Z AUTO 17004KT 140V200 9999 OVC091/// 13/M00 Q1012
2026-03-22 11:50:00,METAR LIRZ 221150Z AUTO 15004KT 110V190 9999 OVC089/// 13/M01 Q1012
2026-03-22 11:20:00,METAR LIRZ 221120Z AUTO 17004KT 9999 BKN088/// 13/M01 Q1012
2026-03-22 10:50:00,METAR LIRZ 221050Z AUTO 18004KT 150V210 9999 BKN085/// 12/01 Q1012
2026-03-22 10:20:00,METAR LIRZ 221020Z AUTO 18004KT 140V220 9999 BKN083/// 12/M01 Q1012
2026-03-22 09:50:00,METAR LIRZ 220950Z AUTO VRB03KT 9999 BKN082/// 12/M00 Q1012
2026-03-22 09:20:00,METAR LIRZ 220920Z AUTO 13003KT 090V190 9999 FEW082/// 11/00 Q1012
2026-03-22 08:50:00,METAR LIRZ 220850Z AUTO VRB02KT 9999 BKN081/// 11/01 Q1012
2026-03-22 08:20:00,METAR LIRZ 220820Z AUTO VRB01KT 9999 BKN080/// 09/02 Q1012
2026-03-22 07:50:00,METAR LIRZ 220750Z AUTO VRB02KT 9999 NCD 09/02 Q1012
2026-03-22 07:20:00,METAR LIRZ 220720Z AUTO VRB02KT 9999 NCD 07/01 Q1012
2026-03-22 06:50:00,METAR LIRZ 220650Z AUTO VRB01KT 9999 NCD 07/02 Q1012
2026-03-22 06:20:00,METAR LIRZ 220620Z AUTO VRB02KT 9999 NCD 05/01 Q1012
2026-03-22 05:50:00,METAR LIRZ 220550Z AUTO VRB02KT 9999 NCD 05/00 Q1012
2026-03-22 05:20:00,METAR LIRZ 220520Z AUTO 34005KT 9999 FEW062/// BKN081/// 05/M00 Q1011
2026-03-22 04:50:00,METAR LIRZ 220450Z AUTO 33003KT 270V020 9999 BKN061/// BKN074/// 05/00 Q1011
2026-03-22 04:20:00,METAR LIRZ 220420Z AUTO 36004KT 330V060 9999 BKN061/// 06/00 Q1011
2026-03-22 03:50:00,METAR LIRZ 220350Z AUTO VRB02KT 9999 FEW059/// BKN067/// 05/00 Q1011
2026-03-22 03:20:00,METAR LIRZ 220320Z AUTO 32005KT 9999 BKN059/// BKN088/// 06/M00 Q1011
2026-03-22 02:50:00,METAR LIRZ 220250Z AUTO 36007KT 9999 SCT059/// BKN082/// 06/M00 Q1011
2026-03-22 02:20:00,METAR LIRZ 220220Z AUTO 35005KT 9999 BKN059/// 06/00 Q1011
2026-03-22 01:50:00,METAR LIRZ 220150Z AUTO 34004KT 9999 BKN060/// BKN090/// 06/M00 Q1011
2026-03-22 01:20:00,METAR LIRZ 220120Z AUTO 34005KT 9999 BKN064/// BKN088/// 07/M00 Q1011
2026-03-22 00:50:00,METAR LIRZ 220050Z AUTO 35005KT 9999 BKN064/// 07/M01 Q1011
2026-03-22 00:20:00,METAR LIRZ 220020Z AUTO 02006KT 9999 BKN066/// 08/M01 Q1011
2026-03-21 23:50:00,METAR LIRZ 212350Z AUTO 02007KT 9999 OVC067/// 08/M01 Q1011
2026-03-21 23:20:00,METAR LIRZ 212320Z AUTO 03007KT 9999 FEW067/// BKN087/// 08/M01 Q1012
2026-03-21 22:50:00,METAR LIRZ 212250Z AUTO 03009KT 9999 OVC085/// 09/M01 Q1012
2026-03-21 22:20:00,METAR LIRZ 212220Z AUTO 01008KT 9999 BKN081/// 08/M00 Q1012
2026-03-21 21:50:00,METAR LIRZ 212150Z AUTO 02008KT 9999 OVC083/// 09/M01 Q1012
2026-03-21 21:20:00,METAR LIRZ 212120Z AUTO 01008KT 9999 OVC082/// 08/M00 Q1012
2026-03-21 20:50:00,METAR LIRZ 212050Z AUTO 36008KT 9999 OVC082/// 08/M00 Q1012
2026-03-21 20:20:00,METAR LIRZ 212020Z AUTO 34007KT 9999 OVC080/// 08/M00 Q1012
2026-03-21 19:50:00,METAR LIRZ 211950Z AUTO 35007KT 9999 OVC080/// 08/00 Q1012
2026-03-21 19:20:00,METAR LIRZ 211920Z AUTO 01005KT 350V060 9999 BKN081/// 08/00 Q1012
2026-03-21 18:50:00,METAR LIRZ 211850Z AUTO 03006KT 9999 BKN083/// 08/M00 Q1011
2026-03-21 18:20:00,METAR LIRZ 211820Z AUTO 02006KT 9999 BKN083/// 07/01 Q1011
2026-03-21 17:50:00,METAR LIRZ 211750Z AUTO 05007KT 9999 BKN081/// 09/M00 Q1011
2026-03-21 17:20:00,METAR LIRZ 211720Z AUTO 05008KT 9999 BKN077/// 10/M01 Q1011
2026-03-21 16:50:00,METAR LIRZ 211650Z AUTO 06009KT 9999 BKN075/// 11/M01 Q1011
2026-03-21 16:20:00,METAR LIRZ 211620Z AUTO 05008KT 9999 OVC071/// 11/M01 Q1011
2026-03-21 15:50:00,METAR LIRZ 211550Z AUTO 08005KT 9999 OVC059/// 11/00 Q1011
2026-03-21 14:50:00,METAR LIRZ 211450Z AUTO 10008KT 9999 SCT077/// 12/01 Q1011
2026-03-21 14:20:00,METAR LIRZ 211420Z AUTO 03009KT 9999 BKN070/// 11/00 Q1011
2026-03-21 13:50:00,METAR LIRZ 211350Z AUTO 04010KT 9999 BKN074/// 11/M01 Q1011
2026-03-21 13:20:00,METAR LIRZ 211320Z AUTO 04008KT 9999 OVC070/// 11/00 Q1011
2026-03-21 12:50:00,METAR LIRZ 211250Z AUTO 05006KT 020V080 9999 OVC063/// 11/00 Q1012
2026-03-21 12:20:00,METAR LIRZ 211220Z AUTO 04009KT 9999 OVC066/// 11/01 Q1012
2026-03-21 11:50:00,METAR LIRZ 211150Z AUTO 05009KT 9999 BKN064/// 11/01 Q1012
2026-03-21 11:20:00,METAR LIRZ 211120Z AUTO 03010KT 9999 SCT051/// BKN070/// 11/01 Q1012
2026-03-21 10:50:00,METAR LIRZ 211050Z AUTO 11003KT 010V170 9999 BKN066/// 11/00 Q1012
2026-03-21 10:20:00,METAR LIRZ 211020Z AUTO 04008KT 9999 BKN064/// 11/02 Q1012
2026-03-21 09:50:00,METAR LIRZ 210950Z AUTO 04010KT 9999 BKN064/// 11/02 Q1012
2026-03-21 09:20:00,METAR LIRZ 210920Z AUTO 02011KT 9999 FEW048/// BKN067/// 11/02 Q1012
2026-03-21 08:50:00,METAR LIRZ 210850Z AUTO 04008KT 010V070 9999 FEW046/// BKN071/// 11/01 Q1012
2026-03-21 08:20:00,METAR LIRZ 210820Z AUTO 36006KT 330V030 9999 NCD 10/03 Q1012
2026-03-21 07:50:00,METAR LIRZ 210750Z AUTO 35006KT 9999 NCD 08/02 Q1013
2026-03-21 07:20:00,METAR LIRZ 210720Z AUTO 36007KT 9999 NCD 07/02 Q1013
2026-03-21 06:50:00,METAR LIRZ 210650Z AUTO 33003KT 300V010 9999 NCD 06/01 Q1013
2026-03-21 06:20:00,METAR LIRZ 210620Z AUTO 35003KT 310V010 9999 NCD 03/00 Q1013
2026-03-21 05:50:00,METAR LIRZ 210550Z AUTO 33007KT 9999 SCT071/// 04/00 Q1013
2026-03-21 05:20:00,METAR LIRZ 210520Z AUTO 30003KT 260V340 9999 FEW071/// 02/00 Q1013
2026-03-21 04:50:00,METAR LIRZ 210450Z AUTO 35004KT 320V020 9999 FEW070/// 02/M00 Q1013
2026-03-21 04:20:00,METAR LIRZ 210420Z AUTO 34006KT 9999 NCD 03/M00 Q1013
2026-03-21 03:50:00,METAR LIRZ 210350Z AUTO 35006KT 9999 NCD 02/M00 Q1013
2026-03-21 03:20:00,METAR LIRZ 210320Z AUTO VRB06KT 9999 NCD 02/M00 Q1013
2026-03-21 02:50:00,METAR LIRZ 210250Z AUTO 36008KT 9999 NCD 02/M00 Q1013
2026-03-21 02:20:00,METAR LIRZ 210220Z AUTO 01009KT 9999 NCD 03/00 Q1013
2026-03-21 01:50:00,METAR LIRZ 210150Z AUTO 36007KT 9999 FEW071/// 02/00 Q1013
2026-03-21 01:20:00,METAR LIRZ 210120Z AUTO VRB02KT 9999 BKN066/// 03/00 Q1014
2026-03-21 00:50:00,METAR LIRZ 210050Z AUTO 03004KT 360V070 9999 BKN068/// BKN075/// 03/M00 Q1014
2026-03-21 00:20:00,METAR LIRZ 210020Z AUTO VRB03KT 9999 SCT070/// 04/00 Q1014
2026-03-20 23:50:00,METAR LIRZ 202350Z AUTO 35007KT 9999 BKN069/// 03/00 Q1014
2026-03-20 23:20:00,METAR LIRZ 202320Z AUTO 03003KT 350V070 9999 BKN064/// 04/01 Q1014
2026-03-20 22:50:00,METAR LIRZ 202250Z AUTO VRB02KT 9999 FEW069/// 04/M00 Q1014
2026-03-20 22:20:00,METAR LIRZ 202220Z AUTO VRB01KT 9999 NCD 04/M01 Q1014
2026-03-20 21:50:00,METAR LIRZ 202150Z AUTO VRB02KT 9999 BKN066/// 06/M00 Q1014
2026-03-20 21:20:00,METAR LIRZ 202120Z AUTO VRB02KT 9999 SCT067/// BKN076/// 05/M00 Q1014
2026-03-20 20:50:00,METAR LIRZ 202050Z AUTO 26004KT 230V290 9999 BKN066/// 06/M01 Q1014
2026-03-20 20:20:00,METAR LIRZ 202020Z AUTO 33004KT 9999 BKN068/// 06/M01 Q1014
2026-03-20 19:50:00,METAR LIRZ 201950Z AUTO 01006KT 9999 FEW073/// 05/M01 Q1014
2026-03-20 19:20:00,METAR LIRZ 201920Z AUTO 35008KT 9999 NCD 06/M01 Q1014
2026-03-20 18:50:00,METAR LIRZ 201850Z AUTO 01007KT 9999 NCD 05/M01 Q1014
2026-03-20 18:20:00,METAR LIRZ 201820Z AUTO 03007KT 9999 NCD 07/M01 Q1014
2026-03-20 17:50:00,METAR LIRZ 201750Z AUTO 03007KT 9999 NCD 07/M01 Q1014
2026-03-20 17:20:00,METAR LIRZ 201720Z AUTO 03007KT 9999 NCD 09/M02 Q1014
2026-03-20 16:50:00,METAR LIRZ 201650Z AUTO 06011KT 9999 FEW065/// 11/M02 Q1013
2026-03-20 16:20:00,METAR LIRZ 201620Z AUTO 04010KT 9999 FEW064/// 12/M02 Q1013
2026-03-20 15:50:00,METAR LIRZ 201550Z AUTO 06011KT 9999 FEW066/// 11/M02 Q1013
2026-03-20 15:20:00,METAR LIRZ 201520Z AUTO 05011KT 9999 SCT067/// 12/M01 Q1013
2026-03-20 14:50:00,METAR LIRZ 201450Z AUTO 04013KT 9999 BKN067/// 12/M01 Q1013
2026-03-20 14:20:00,METAR LIRZ 201420Z AUTO 05011KT 9999 OVC066/// 12/M00 Q1014
2026-03-20 13:50:00,METAR LIRZ 201350Z AUTO 03014KT 9999 BKN066/// 12/M00 Q1014
2026-03-20 13:20:00,METAR LIRZ 201320Z AUTO 03011KT 9999 BKN061/// 12/00 Q1014
2026-03-20 12:50:00,METAR LIRZ 201250Z AUTO 02014KT 9999 BKN062/// 12/M00 Q1014
2026-03-20 12:20:00,METAR LIRZ 201220Z AUTO 01013KT 9999 BKN071/// 13/00 Q1014
2026-03-20 11:50:00,METAR LIRZ 201150Z AUTO 03011KT 350V060 9999 FEW055/// BKN068/// 13/M01 Q1014
2026-03-20 11:20:00,METAR LIRZ 201120Z AUTO 03013KT 350V070 9999 FEW054/// BKN068/// 12/00 Q1014
2026-03-20 10:50:00,METAR LIRZ 201050Z AUTO 06013KT 030V100 9999 BKN068/// 12/00 Q1015
2026-03-20 10:20:00,METAR LIRZ 201020Z AUTO 04014KT 9999 FEW052/// BKN064/// 13/01 Q1015
2026-03-20 09:50:00,METAR LIRZ 200950Z AUTO 03017KT 9999 BKN055/// 12/01 Q1015
2026-03-20 09:20:00,METAR LIRZ 200920Z AUTO 05012KT 020V090 9999 FEW069/// 13/01 Q1015
2026-03-20 08:50:00,METAR LIRZ 200850Z AUTO 04016KT 9999 FEW069/// 12/01 Q1015
2026-03-20 08:20:00,METAR LIRZ 200820Z AUTO 05014KT 9999 BKN064/// 12/04 Q1015
2026-03-20 07:50:00,METAR LIRZ 200750Z AUTO 34006KT 9999 BKN068/// 09/05 Q1015
2026-03-20 07:20:00,METAR LIRZ 200720Z AUTO 01007KT 9999 SCT078/// 10/05 Q1015
2026-03-20 06:50:00,METAR LIRZ 200650Z AUTO 34005KT 9999 OVC075/// 07/04 Q1015
2026-03-20 06:20:00,METAR LIRZ 200620Z AUTO 34008KT 9999 OVC074/// 07/04 Q1015
2026-03-20 05:50:00,METAR LIRZ 200550Z AUTO 35007KT 9999 FEW059/// BKN074/// 07/04 Q1015
2026-03-20 05:20:00,METAR LIRZ 200520Z AUTO 36008KT 9999 BKN045/// BKN062/// BKN084/// 06/03 Q1014
2026-03-20 04:50:00,METAR LIRZ 200450Z AUTO 36008KT 9999 BKN049/// BKN075/// 06/04 Q1014
2026-03-20 04:20:00,METAR LIRZ 200420Z AUTO 35008KT 9999 FEW051/// BKN073/// 07/04 Q1014
2026-03-20 03:50:00,METAR LIRZ 200350Z AUTO 02007KT 9999 BKN071/// 06/04 Q1014
2026-03-20 03:20:00,METAR LIRZ 200320Z AUTO 04007KT 9999 NCD 06/03 Q1014
2026-03-20 02:50:00,METAR LIRZ 200250Z AUTO 36007KT 9999 FEW085/// 07/03 Q1014
2026-03-20 02:20:00,METAR LIRZ 200220Z AUTO 02008KT 9999 BKN072/// 08/04 Q1014
2026-03-20 01:50:00,METAR LIRZ 200150Z AUTO 01007KT 9999 BKN066/// 08/04 Q1014
2026-03-20 01:20:00,METAR LIRZ 200120Z AUTO 01008KT 9999 BKN054/// 08/04 Q1015
2026-03-20 00:50:00,METAR LIRZ 200050Z AUTO 03014KT 9999 BKN071/// 09/03 Q1015
2026-03-20 00:20:00,METAR LIRZ 200020Z AUTO VRB02KT 9999 BKN084/// 07/02 Q1015
2026-03-19 23:50:00,METAR LIRZ 192350Z AUTO 36007KT 9999 FEW083/// 06/02 Q1015
2026-03-19 23:20:00,METAR LIRZ 192320Z AUTO 35005KT 9999 NCD 07/03 Q1015
2026-03-19 22:50:00,METAR LIRZ 192250Z AUTO 34006KT 9999 FEW081/// 07/02 Q1015
2026-03-19 22:20:00,METAR LIRZ 192220Z AUTO 36008KT 9999 NCD 06/02 Q1015
2026-03-19 21:50:00,METAR LIRZ 192150Z AUTO 35010KT 9999 NCD 07/02 Q1015
2026-03-19 21:20:00,METAR LIRZ 192120Z AUTO 30003KT 200V360 9999 NCD 03/00 Q1015
2026-03-19 20:50:00,METAR LIRZ 192050Z AUTO 36008KT 9999 NCD 04/01 Q1015
2026-03-19 20:20:00,METAR LIRZ 192020Z AUTO 36007KT 9999 NCD 04/01 Q1015
2026-03-19 19:50:00,METAR LIRZ 191950Z AUTO 01007KT 9999 NCD 04/01 Q1015
2026-03-19 19:20:00,METAR LIRZ 191920Z AUTO 02006KT 9999 NCD 05/01 Q1015
2026-03-19 18:50:00,METAR LIRZ 191850Z AUTO 03009KT 9999 NCD 07/01 Q1015
2026-03-19 18:20:00,METAR LIRZ 191820Z AUTO 04006KT 9999 NCD 08/01 Q1015
2026-03-19 17:50:00,METAR LIRZ 191750Z AUTO 04008KT 9999 NCD 09/01 Q1014
2026-03-19 17:20:00,METAR LIRZ 191720Z AUTO 04012KT 9999 NCD 11/00 Q1014
2026-03-19 16:50:00,METAR LIRZ 191650Z AUTO 04013KT 9999 NCD 12/00 Q1014
2026-03-19 16:20:00,METAR LIRZ 191620Z AUTO 04016KT 9999 NCD 12/00 Q1014
2026-03-19 15:50:00,METAR LIRZ 191550Z AUTO 04015KT 9999 NCD 13/01 Q1014
2026-03-19 15:20:00,METAR LIRZ 191520Z AUTO 03015KT 9999 NCD 13/01 Q1014
2026-03-19 14:50:00,METAR LIRZ 191450Z AUTO 04014KT 360V070 9999 FEW056/// 14/02 Q1014
2026-03-19 14:20:00,METAR LIRZ 191420Z AUTO 03016KT 9999 NCD 15/02 Q1014
2026-03-19 13:50:00,METAR LIRZ 191350Z AUTO 04017KT 9999 NCD 15/01 Q1014
2026-03-19 13:20:00,METAR LIRZ 191320Z AUTO 04016KT 9999 NCD 15/M00 Q1014
2026-03-19 12:50:00,METAR LIRZ 191250Z AUTO 04016KT 9999 FEW060/// 15/02 Q1014
2026-03-19 12:20:00,METAR LIRZ 191220Z AUTO 03016G26KT 350V060 9999 SCT061/// 14/01 Q1014
2026-03-19 11:50:00,METAR LIRZ 191150Z AUTO 03017KT 9999 BKN061/// 14/01 Q1014
2026-03-19 11:20:00,METAR LIRZ 191120Z AUTO 03018KT 9999 BKN063/// 14/01 Q1014
2026-03-19 10:50:00,METAR LIRZ 191050Z AUTO 05013KT 010V090 9999 FEW063/// 15/00 Q1014
2026-03-19 10:20:00,METAR LIRZ 191020Z AUTO 05016G26KT 9999 FEW062/// 14/00 Q1015
2026-03-19 09:50:00,METAR LIRZ 190950Z AUTO 05018KT 9999 FEW056/// 14/00 Q1015
2026-03-19 09:20:00,METAR LIRZ 190920Z AUTO 04016KT 010V080 9999 SCT055/// 14/01 Q1015
2026-03-19 08:50:00,METAR LIRZ 190850Z AUTO 04017KT 9999 FEW056/// 13/02 Q1015
2026-03-19 08:20:00,METAR LIRZ 190820Z AUTO 04013KT 9999 FEW054/// 12/02 Q1015
2026-03-19 07:50:00,METAR LIRZ 190750Z AUTO 04014KT 9999 NCD 11/02 Q1015
2026-03-19 07:20:00,METAR LIRZ 190720Z AUTO 01004KT 330V040 9999 NCD 09/03 Q1015
2026-03-19 06:50:00,METAR LIRZ 190650Z AUTO 33003KT 300V010 9999 NCD 09/03 Q1014
2026-03-19 06:20:00,METAR LIRZ 190620Z AUTO 29004KT 9999 NCD 07/03 Q1014
2026-03-19 05:50:00,METAR LIRZ 190550Z AUTO VRB03KT 9999 NCD 07/02 Q1014
2026-03-19 05:20:00,METAR LIRZ 190520Z AUTO 33004KT 280V030 9999 NCD 05/01 Q1014
2026-03-19 04:50:00,METAR LIRZ 190450Z AUTO 32003KT 290V010 9999 NCD 06/01 Q1014
2026-03-19 04:20:00,METAR LIRZ 190420Z AUTO 02007KT 9999 NCD 08/02 Q1014
2026-03-19 03:50:00,METAR LIRZ 190350Z AUTO 02009KT 9999 FEW061/// 09/02 Q1014
2026-03-19 03:20:00,METAR LIRZ 190320Z AUTO 35008KT 9999 FEW067/// 09/01 Q1014
2026-03-19 02:50:00,METAR LIRZ 190250Z AUTO 31006KT 9999 FEW055/// 08/01 Q1014
2026-03-19 02:20:00,METAR LIRZ 190220Z AUTO 35005KT 320V020 9999 NCD 08/02 Q1014
2026-03-19 01:50:00,METAR LIRZ 190150Z AUTO 03012KT 9999 FEW190/// 09/01 Q1014
2026-03-19 01:20:00,METAR LIRZ 190120Z AUTO 02009KT 9999 FEW054/// 09/01 Q1015
2026-03-19 00:50:00,METAR LIRZ 190050Z AUTO 35009KT 310V040 9999 FEW095/// 10/01 Q1015
2026-03-19 00:20:00,METAR LIRZ 190020Z AUTO 33008KT 270V030 9999 NCD 10/01 Q1014
2026-03-18 23:50:00,METAR LIRZ 182350Z AUTO 33007KT 280V010 9999 FEW056/// SCT088/// 10/01 Q1014
2026-03-18 23:20:00,METAR LIRZ 182320Z AUTO 28007KT 230V340 9999 FEW056/// 10/02 Q1014
2026-03-18 22:50:00,METAR LIRZ 182250Z AUTO VRB06G16KT 9999 NCD 10/01 Q1014
2026-03-18 22:20:00,METAR LIRZ 182220Z AUTO 05018KT 9999 NCD 10/02 Q1013
2026-03-18 21:50:00,METAR LIRZ 182150Z AUTO 05023KT 9999 SCT130/// 10/02 Q1013
2026-03-18 21:20:00,METAR LIRZ 182120Z AUTO 03019KT 9999 FEW076/// BKN130/// 10/02 Q1013
2026-03-18 20:50:00,METAR LIRZ 182050Z AUTO 03014KT 9999 BKN140/// 10/02 Q1013
2026-03-18 20:20:00,METAR LIRZ 182020Z AUTO 03018KT 9999 SCT140/// 10/03 Q1013
2026-03-18 19:50:00,METAR LIRZ 181950Z AUTO 03018KT 9999 NCD 11/02 Q1013
2026-03-18 19:20:00,METAR LIRZ 181920Z AUTO 04015G25KT 9999 NCD 10/02 Q1013
2026-03-18 18:50:00,METAR LIRZ 181850Z AUTO 04020KT 9999 NCD 10/03 Q1012
2026-03-18 18:20:00,METAR LIRZ 181820Z AUTO 05019G34KT 9999 NCD 10/02 Q1012
2026-03-18 17:50:00,METAR LIRZ 181750Z AUTO 04019KT 9999 FEW036/// 10/03 Q1011
2026-03-18 17:20:00,METAR LIRZ 181720Z AUTO 02012KT 9999 SCT032/// BKN087/// 09/04 Q1012
2026-03-18 16:50:00,METAR LIRZ 181650Z AUTO 01011KT 9999 BKN030/// BKN046/// 09/05 Q1011
2026-03-18 16:20:00,METAR LIRZ 181620Z AUTO 04018KT 9999 -DZRA FEW030/// BKN043/// 09/05 Q1011
2026-03-18 15:50:00,METAR LIRZ 181550Z AUTO 03016KT 9999 -DZRA BKN028/// 09/05 Q1011
2026-03-18 15:20:00,METAR LIRZ 181520Z AUTO 01011KT 9999 BKN032/// BKN079/// 10/05 Q1011
2026-03-18 14:50:00,METAR LIRZ 181450Z AUTO 01011KT 9999 BKN025/// 10/04 Q1011
2026-03-18 14:20:00,METAR LIRZ 181420Z AUTO 01011KT 9999 BKN031/// 10/05 Q1011
2026-03-18 13:50:00,METAR LIRZ 181350Z AUTO 03013KT 9999 FEW027/// BKN063/// 11/04 Q1011
2026-03-18 13:20:00,METAR LIRZ 181320Z AUTO 04016KT 9999 FEW030/// 11/05 Q1010
2026-03-18 12:50:00,METAR LIRZ 181250Z AUTO 05014KT 9999 FEW028/// SCT064/// BKN100/// 11/05 Q1011
2026-03-18 12:20:00,METAR LIRZ 181220Z AUTO 05012KT 9999 SCT033/// BKN064/// 11/04 Q1011
2026-03-18 11:50:00,METAR LIRZ 181150Z AUTO 04013KT 9999 BKN031/// BKN061/// 10/04 Q1011
2026-03-18 11:20:00,METAR LIRZ 181120Z AUTO 04009KT 9999 BKN033/// 10/04 Q1011
2026-03-18 10:50:00,METAR LIRZ 181050Z AUTO 01010KT 9999 BKN030/// 10/03 Q1011
2026-03-18 10:20:00,METAR LIRZ 181020Z AUTO 03011KT 9999 BKN030/// BKN140/// 10/03 Q1011
2026-03-18 09:50:00,METAR LIRZ 180950Z AUTO 02009KT 350V050 9999 BKN031/// 10/03 Q1011
2026-03-18 09:20:00,METAR LIRZ 180920Z AUTO 01009KT 330V040 9999 BKN031/// 09/03 Q1012
2026-03-18 08:50:00,METAR LIRZ 180850Z AUTO 36010KT 300V030 9999 BKN030/// 10/03 Q1011
2026-03-18 08:20:00,METAR LIRZ 180820Z AUTO 32011KT 9999 OVC030/// 07/03 Q1011
2026-03-18 07:50:00,METAR LIRZ 180750Z AUTO 32012KT 9999 BKN030/// 07/02 Q1011
2026-03-18 07:20:00,METAR LIRZ 180720Z AUTO 35013KT 320V020 9999 FEW041/// 08/02 Q1011
2026-03-18 06:50:00,METAR LIRZ 180650Z AUTO 36014KT 9999 FEW150/// 08/02 Q1011
2026-03-18 06:20:00,METAR LIRZ 180620Z AUTO 01011KT 9999 NCD 07/01 Q1010
2026-03-18 05:50:00,METAR LIRZ 180550Z AUTO 01014KT 9999 FEW055/// 07/00 Q1010
2026-03-18 05:20:00,METAR LIRZ 180520Z AUTO 32006KT 280V010 9999 BKN054/// 06/M01 Q1011
2026-03-18 04:50:00,METAR LIRZ 180450Z AUTO 33009KT 9999 BKN055/// 07/M01 Q1011
2026-03-18 04:20:00,METAR LIRZ 180420Z AUTO 35009KT 9999 SCT055/// 06/M01 Q1011
2026-03-18 03:50:00,METAR LIRZ 180350Z AUTO 35010KT 9999 FEW054/// 06/M01 Q1011
2026-03-18 03:20:00,METAR LIRZ 180320Z AUTO 34007KT 9999 NCD 06/M01 Q1011
2026-03-18 02:50:00,METAR LIRZ 180250Z AUTO 35009KT 9999 NCD 06/M01 Q1011
2026-03-18 02:20:00,METAR LIRZ 180220Z AUTO 35008KT 9999 NCD 05/00 Q1012
2026-03-18 01:50:00,METAR LIRZ 180150Z AUTO 34006KT 9999 NCD 03/00 Q1012
2026-03-18 01:20:00,METAR LIRZ 180120Z AUTO 34003KT 9999 SCT055/// 05/00 Q1013
2026-03-18 00:50:00,METAR LIRZ 180050Z AUTO 28003KT 9999 NCD 05/00 Q1013
2026-03-18 00:20:00,METAR LIRZ 180020Z AUTO VRB02KT 9999 NCD 06/M00 Q1014
2026-03-17 23:50:00,METAR LIRZ 172350Z AUTO 34006KT 9999 NCD 06/M00 Q1014
2026-03-17 23:20:00,METAR LIRZ 172320Z AUTO 36008KT 9999 NCD 05/00 Q1014
2026-03-17 22:50:00,METAR LIRZ 172250Z AUTO 36008KT 9999 NCD 06/00 Q1014
2026-03-17 22:20:00,METAR LIRZ 172220Z AUTO 36007KT 330V040 9999 NCD 07/M00 Q1015
2026-03-17 21:50:00,METAR LIRZ 172150Z AUTO 36006KT 9999 NCD 06/00 Q1015
2026-03-17 21:20:00,METAR LIRZ 172120Z AUTO 02008KT 9999 NCD 07/00 Q1015
2026-03-17 20:50:00,METAR LIRZ 172050Z AUTO 03007KT 9999 NCD 07/01 Q1015
2026-03-17 20:20:00,METAR LIRZ 172020Z AUTO 03007KT 360V060 9999 NCD 08/01 Q1015
2026-03-17 19:50:00,METAR LIRZ 171950Z AUTO 01004KT 340V040 9999 NCD 08/01 Q1015
2026-03-17 19:20:00,METAR LIRZ 171920Z AUTO 01009KT 9999 NCD 08/01 Q1016
2026-03-17 18:50:00,METAR LIRZ 171850Z AUTO 03012KT 9999 NCD 09/02 Q1015
2026-03-17 18:20:00,METAR LIRZ 171820Z AUTO 03012KT 360V060 9999 NCD 10/01 Q1015
2026-03-17 17:50:00,METAR LIRZ 171750Z AUTO 03011KT 9999 NCD 10/01 Q1014
2026-03-17 17:20:00,METAR LIRZ 171720Z AUTO 01010KT 340V040 9999 NCD 10/00 Q1014
2026-03-17 16:50:00,METAR LIRZ 171650Z AUTO 05010KT 020V080 9999 NCD 11/M01 Q1014
2026-03-17 16:20:00,METAR LIRZ 171620Z AUTO 03009KT 310V070 9999 NCD 12/00 Q1014
2026-03-17 15:50:00,METAR LIRZ 171550Z AUTO 05014KT 9999 NCD 13/01 Q1014
2026-03-17 14:50:00,METAR LIRZ 171450Z AUTO 06017KT 9999 NCD 14/00 Q1014
2026-03-17 14:20:00,METAR LIRZ 171420Z AUTO 05014KT 9999 NCD 15/M00 Q1014
2026-03-17 13:50:00,METAR LIRZ 171350Z AUTO 05015KT 9999 NCD 15/01 Q1014
2026-03-17 13:20:00,METAR LIRZ 171320Z AUTO 04015KT 9999 FEW063/// 16/01 Q1014
2026-03-17 12:50:00,METAR LIRZ 171250Z AUTO 03019KT 9999 FEW062/// 15/01 Q1014
2026-03-17 12:20:00,METAR LIRZ 171220Z AUTO 04018KT 9999 NCD 16/01 Q1015
2026-03-17 11:50:00,METAR LIRZ 171150Z AUTO 04019KT 9999 NCD 16/02 Q1015
2026-03-17 11:20:00,METAR LIRZ 171120Z AUTO 06017KT 9999 NCD 16/01 Q1015
2026-03-17 10:50:00,METAR LIRZ 171050Z AUTO 07015KT 9999 NCD 16/01 Q1015
2026-03-17 10:20:00,METAR LIRZ 171020Z AUTO 05012KT 010V080 9999 NCD 16/03 Q1015
2026-03-17 09:50:00,METAR LIRZ 170950Z AUTO 05015KT 9999 FEW048/// 15/04 Q1015
2026-03-17 09:20:00,METAR LIRZ 170920Z AUTO 03012KT 9999 SCT045/// 14/05 Q1015
2026-03-17 08:50:00,METAR LIRZ 170850Z AUTO 02010KT 9999 NCD 14/05 Q1015
2026-03-17 08:20:00,METAR LIRZ 170820Z AUTO 03014KT 9999 NCD 13/06 Q1015
2026-03-17 07:50:00,METAR LIRZ 170750Z AUTO 03014KT 9999 NCD 13/06 Q1015
2026-03-17 07:20:00,METAR LIRZ 170720Z AUTO 03011KT 9999 NCD 12/06 Q1015
2026-03-17 06:50:00,METAR LIRZ 170650Z AUTO 03010KT 360V060 9999 NCD 12/06 Q1015
2026-03-17 06:20:00,METAR LIRZ 170620Z AUTO 02009KT 9999 NCD 10/06 Q1015
2026-03-17 05:50:00,METAR LIRZ 170550Z AUTO 03010KT 9999 NCD 10/06 Q1014
2026-03-17 05:20:00,METAR LIRZ 170520Z AUTO 02013KT 9999 NCD 10/06 Q1014
2026-03-17 04:50:00,METAR LIRZ 170450Z AUTO 02009KT 9999 NCD 09/06 Q1014
2026-03-17 04:20:00,METAR LIRZ 170420Z AUTO 32004KT 270V360 9999 NCD 09/06 Q1014
2026-03-17 03:50:00,METAR LIRZ 170350Z AUTO 26006KT 230V310 9999 NCD 07/04 Q1013
2026-03-17 03:20:00,METAR LIRZ 170320Z AUTO 02008KT 320V050 9999 NCD 10/05 Q1013
2026-03-17 02:50:00,METAR LIRZ 170250Z AUTO 36006KT 9999 NCD 08/04 Q1013
2026-03-17 02:20:00,METAR LIRZ 170220Z AUTO 36008KT 9999 NCD 09/04 Q1013
2026-03-17 01:50:00,METAR LIRZ 170150Z AUTO 36010KT 9999 NCD 08/04 Q1013
2026-03-17 01:20:00,METAR LIRZ 170120Z AUTO 35009KT 9999 NCD 08/04 Q1013
2026-03-17 00:50:00,METAR LIRZ 170050Z AUTO 36010KT 9999 NCD 07/05 Q1013
2026-03-17 00:20:00,METAR LIRZ 170020Z AUTO 35008KT 9999 NCD 09/05 Q1013
2026-03-16 23:50:00,METAR LIRZ 162350Z AUTO 35010KT 9999 NCD 09/05 Q1013
2026-03-16 23:20:00,METAR LIRZ 162320Z AUTO 01009KT 9999 NCD 08/05 Q1013
2026-03-16 22:50:00,METAR LIRZ 162250Z AUTO 36007KT 9999 NCD 09/05 Q1013
2026-03-16 22:20:00,METAR LIRZ 162220Z AUTO 36010KT 9999 NCD 10/06 Q1013
2026-03-16 21:50:00,METAR LIRZ 162150Z AUTO 36007KT 9999 NCD 09/06 Q1013
2026-03-16 21:20:00,METAR LIRZ 162120Z AUTO 01009KT 9999 NCD 10/06 Q1013
2026-03-16 20:50:00,METAR LIRZ 162050Z AUTO 36008KT 9999 NCD 10/06 Q1013
2026-03-16 20:20:00,METAR LIRZ 162020Z AUTO 02009KT 9999 NCD 12/06 Q1013
2026-03-16 19:50:00,METAR LIRZ 161950Z AUTO 01010KT 9999 NCD 12/06 Q1013
2026-03-16 19:20:00,METAR LIRZ 161920Z AUTO 01009KT 9999 NCD 13/07 Q1013
2026-03-16 18:50:00,METAR LIRZ 161850Z AUTO 36011KT 9999 NCD 13/07 Q1013
2026-03-16 18:20:00,METAR LIRZ 161820Z AUTO 34006KT 9999 NCD 13/07 Q1012
2026-03-16 17:50:00,METAR LIRZ 161750Z AUTO 01008KT 9999 NCD 13/07 Q1012
2026-03-16 17:20:00,METAR LIRZ 161720Z AUTO 02010KT 9999 NCD 14/07 Q1012
2026-03-16 16:50:00,METAR LIRZ 161650Z AUTO 02011KT 9999 NCD 15/08 Q1012
2026-03-16 16:20:00,METAR LIRZ 161620Z AUTO 03014KT 9999 NCD 16/08 Q1011
2026-03-16 15:50:00,METAR LIRZ 161550Z AUTO 04017KT 9999 SCT068/// 17/08 Q1011
2026-03-16 15:20:00,METAR LIRZ 161520Z AUTO 05012KT 9999 SCT066/// 18/05 Q1011
2026-03-16 14:50:00,METAR LIRZ 161450Z AUTO 04013KT 9999 FEW060/// 19/05 Q1011
2026-03-16 14:20:00,METAR LIRZ 161420Z AUTO 04012KT 9999 BKN060/// 18/06 Q1011
2026-03-16 13:50:00,METAR LIRZ 161350Z AUTO 04012KT 9999 BKN059/// 19/06 Q1010
2026-03-16 13:20:00,METAR LIRZ 161320Z AUTO 05013KT 9999 SCT057/// BKN063/// 19/07 Q1011
2026-03-16 12:50:00,METAR LIRZ 161250Z AUTO 04012KT 020V080 9999 FEW059/// 19/07 Q1011
2026-03-16 12:20:00,METAR LIRZ 161220Z AUTO 06009G20KT 350V120 9999 NCD 19/07 Q1011
2026-03-16 11:50:00,METAR LIRZ 161150Z AUTO 09005KT 040V150 9999 NCD 19/06 Q1011
2026-03-16 11:20:00,METAR LIRZ 161120Z AUTO 08011KT 050V120 9999 NCD 19/06 Q1011
2026-03-16 10:50:00,METAR LIRZ 161050Z AUTO 08012KT 050V110 9999 NCD 18/05 Q1012
2026-03-16 10:20:00,METAR LIRZ 161020Z AUTO 05013KT 020V100 9999 NCD 17/06 Q1012
2026-03-16 09:50:00,METAR LIRZ 160950Z AUTO 04015KT 9999 NCD 17/06 Q1012
2026-03-16 09:20:00,METAR LIRZ 160920Z AUTO 04013KT 9999 NCD 16/06 Q1012
2026-03-16 08:50:00,METAR LIRZ 160850Z AUTO 03011KT 9999 FEW041/// 15/07 Q1012
2026-03-16 08:20:00,METAR LIRZ 160820Z AUTO 04013KT 9999 NCD 14/07 Q1012
2026-03-16 07:50:00,METAR LIRZ 160750Z AUTO 04015KT 9999 NCD 14/06 Q1012
2026-03-16 07:20:00,METAR LIRZ 160720Z AUTO 03013KT 9999 NCD 13/06 Q1011
2026-03-16 06:50:00,METAR LIRZ 160650Z AUTO 03010KT 9999 NCD 13/06 Q1011
2026-03-16 06:20:00,METAR LIRZ 160620Z AUTO 01009KT 9999 NCD 12/06 Q1011
2026-03-16 05:50:00,METAR LIRZ 160550Z AUTO 02012KT 9999 NCD 11/06 Q1011
2026-03-16 05:20:00,METAR LIRZ 160520Z AUTO 02011KT 9999 FEW045/// 11/05 Q1010
2026-03-16 04:50:00,METAR LIRZ 160450Z AUTO 02010KT 9999 FEW046/// 11/05 Q1010
2026-03-16 04:20:00,METAR LIRZ 160420Z AUTO 01009KT 9999 NCD 11/05 Q1010
2026-03-16 03:50:00,METAR LIRZ 160350Z AUTO 01008KT 9999 BKN054/// 11/05 Q1010
2026-03-16 03:20:00,METAR LIRZ 160320Z AUTO 02010KT 9999 BKN050/// 12/06 Q1010
2026-03-16 02:50:00,METAR LIRZ 160250Z AUTO 02011KT 9999 BKN046/// 12/06 Q1009
2026-03-16 02:20:00,METAR LIRZ 160220Z AUTO 02011KT 9999 BKN047/// BKN077/// 12/07 Q1009
2026-03-16 01:50:00,METAR LIRZ 160150Z AUTO 02013KT 9999 BKN043/// 13/07 Q1009
2026-03-16 01:20:00,METAR LIRZ 160120Z AUTO 01010KT 9999 BKN044/// BKN100/// 13/07 Q1009
2026-03-16 00:50:00,METAR LIRZ 160050Z AUTO 02010KT 9999 BKN039/// BKN100/// 12/07 Q1009
2026-03-16 00:20:00,METAR LIRZ 160020Z AUTO 03009KT 9999 -RA BKN044/// 13/08 Q1009
2026-03-15 23:50:00,METAR LIRZ 152350Z AUTO 04010KT 9999 BKN043/// 13/07 Q1009
2026-03-15 23:20:00,METAR LIRZ 152320Z AUTO 02008KT 9999 FEW041/// 12/07 Q1009
2026-03-15 22:50:00,METAR LIRZ 152250Z AUTO 05007KT 010V080 9999 NCD 13/07 Q1009
2026-03-15 22:20:00,METAR LIRZ 152220Z AUTO 01011KT 9999 FEW043/// 12/07 Q1009
2026-03-15 21:50:00,METAR LIRZ 152150Z AUTO 01009KT 340V040 9999 FEW098/// 12/06 Q1009
2026-03-15 21:20:00,METAR LIRZ 152120Z AUTO 04012KT 9999 FEW097/// SCT240/// 13/07 Q1008
2026-03-15 20:50:00,METAR LIRZ 152050Z AUTO 05015KT 9999 FEW092/// 13/06 Q1008
2026-03-15 20:20:00,METAR LIRZ 152020Z AUTO 05013KT 9999 FEW078/// 13/06 Q1008
2026-03-15 19:50:00,METAR LIRZ 151950Z AUTO 02007KT 330V060 9999 FEW043/// SCT094/// 13/06 Q1008
2026-03-15 19:20:00,METAR LIRZ 151920Z AUTO VRB02KT 9999 FEW042/// BKN083/// 13/06 Q1007
2026-03-15 18:50:00,METAR LIRZ 151850Z AUTO VRB03KT 9999 BKN081/// 14/06 Q1007
2026-03-15 18:20:00,METAR LIRZ 151820Z AUTO 04011G21KT 010V090 9999 BKN078/// 14/06 Q1006
2026-03-15 17:50:00,METAR LIRZ 151750Z AUTO 06016KT 9999 BKN079/// 14/06 Q1006
2026-03-15 17:20:00,METAR LIRZ 151720Z AUTO 07017KT 9999 NCD 14/06 Q1005
2026-03-15 16:50:00,METAR LIRZ 151650Z AUTO 06016KT 030V090 9999 NCD 14/06 Q1005
2026-03-15 16:20:00,METAR LIRZ 151620Z AUTO 06017KT 9999 NCD 15/05 Q1004
2026-03-15 15:50:00,METAR LIRZ 151550Z AUTO 05012KT 9999 NCD 16/05 Q1004
2026-03-15 15:20:00,METAR LIRZ 151520Z AUTO 07014KT 9999 NCD 17/04 Q1004
2026-03-15 14:50:00,METAR LIRZ 151450Z AUTO 08019KT 9999 NCD 17/03 Q1003
2026-03-15 14:20:00,METAR LIRZ 151420Z AUTO 07017KT 9999 NCD 17/04 Q1003
2026-03-15 13:50:00,METAR LIRZ 151350Z AUTO 06016KT 9999 FEW070/// 17/04 Q1003
2026-03-15 13:20:00,METAR LIRZ 151320Z AUTO 06015KT 9999 NCD 17/04 Q1003
2026-03-15 12:50:00,METAR LIRZ 151250Z AUTO 06014KT 9999 NCD 17/05 Q1003
2026-03-15 12:20:00,METAR LIRZ 151220Z AUTO 08012KT 9999 NCD 17/05 Q1003
2026-03-15 11:50:00,METAR LIRZ 151150Z AUTO 08011KT 9999 NCD 17/04 Q1003
2026-03-15 11:20:00,METAR LIRZ 151120Z AUTO 07010KT 360V110 9999 NCD 17/05 Q1003
2026-03-15 10:50:00,METAR LIRZ 151050Z AUTO 12006KT 9999 NCD 16/05 Q1003
2026-03-15 10:20:00,METAR LIRZ 151020Z AUTO 12006KT 070V150 9999 NCD 16/04 Q1003
2026-03-15 09:50:00,METAR LIRZ 150950Z AUTO 06008KT 030V100 9999 NCD 16/05 Q1002
2026-03-15 09:20:00,METAR LIRZ 150920Z AUTO 03009KT 360V060 9999 NCD 15/06 Q1002
2026-03-15 08:50:00,METAR LIRZ 150850Z AUTO 04008KT 9999 NCD 14/06 Q1002
2026-03-15 08:20:00,METAR LIRZ 150820Z AUTO 01009KT 9999 NCD 13/06 Q1002
