Time_recorded,METAR
2026-05-02 15:30:00,METAR YSSY 021530Z AUTO 36006KT 9999 // FEW036 21/15 Q1022
2026-05-02 15:00:00,METAR YSSY 021500Z AUTO 02008KT 9999 // NCD 21/15 Q1022
2026-05-02 14:30:00,METAR YSSY 021430Z AUTO 03011KT 9999 // NCD 21/15 Q1023
2026-05-02 14:00:00,METAR YSSY 021400Z AUTO 03014KT 9999 // FEW027 SCT052 22/16 Q1023
2026-05-02 13:30:00,METAR YSSY 021330Z AUTO 03011KT 9999 // FEW031 SCT055 22/15 Q1023
2026-05-02 13:00:00,METAR YSSY 021300Z AUTO 02012KT 9999 // FEW032 22/15 Q1023
2026-05-02 12:30:00,METAR YSSY 021230Z AUTO 03013KT 9999 // BKN032 22/16 Q1023
2026-05-02 12:00:00,METAR YSSY 021200Z AUTO 02011KT 9999 // FEW032 22/16 Q1023
2026-05-02 11:30:00,METAR YSSY 021130Z AUTO 04010KT 9999 // NCD 22/16 Q1023
2026-05-02 11:00:00,METAR YSSY 021100Z AUTO 03010KT 9999 // NCD 22/15 Q1023
2026-05-02 10:30:00,METAR YSSY 021030Z AUTO 02011KT 9999 // NCD 23/16 Q1023
2026-05-02 10:00:00,METAR YSSY 021000Z AUTO 03010KT 9999 // NCD 22/16 Q1023
2026-05-02 09:30:00,METAR YSSY 020930Z AUTO 04011KT 9999 // NCD 23/15 Q1023
2026-05-02 09:00:00,METAR YSSY 020900Z AUTO 03010KT 9999 // NCD 22/15 Q1023
2026-05-02 08:30:00,METAR YSSY 020830Z AUTO 03008KT 9999 // NCD 22/16 Q1023
2026-05-02 08:00:00,METAR YSSY 020800Z AUTO 04011KT 9999 // NCD 23/16 Q1022
2026-05-02 07:30:00,METAR YSSY 020730Z AUTO 04011KT 9999 // NCD 22/16 Q1022
2026-05-02 07:00:00,METAR YSSY 020700Z AUTO 04012KT 9999 // NCD 23/16 Q1022
2026-05-02 06:30:00,METAR YSSY 020630Z AUTO 04013KT 9999 // NCD 23/17 Q1022
2026-05-02 06:00:00,METAR YSSY 020600Z 04014KT 9999 FEW016 BKN280 23/16 Q1022
2026-05-02 05:30:00,METAR YSSY 020530Z 04017KT 9999 FEW017 BKN290 24/17 Q1022
2026-05-02 05:00:00,METAR YSSY 020500Z 03015KT 9999 FEW017 BKN290 24/16 Q1022
2026-05-02 04:30:00,METAR YSSY 020430Z 03019KT 9999 FEW030 BKN290 25/16 Q1023
2026-05-02 04:00:00,METAR YSSY 020400Z 03019KT 9999 FEW033 BKN290 25/15 Q1023
2026-05-02 03:30:00,METAR YSSY 020330Z 03018KT 9999 FEW016 SCT055 25/15 Q1023
2026-05-02 03:00:00,METAR YSSY 020300Z 03017KT 9999 FEW028 BKN065 24/16 Q1023
2026-05-02 02:30:00,METAR YSSY 020230Z 03015KT 9999 FEW028 SCT050 BKN060 24/16 Q1024
2026-05-02 02:00:00,METAR YSSY 020200Z 03017KT 9999 VCSH FEW028 SCT044 BKN060 24/16 Q1024
2026-05-02 01:30:00,METAR YSSY 020130Z 04015KT 9999 BKN028 24/17 Q1025
2026-05-02 01:00:00,METAR YSSY 020100Z 01010KT 9999 BKN027 23/16 Q1025
2026-05-02 00:30:00,METAR YSSY 020030Z 35007KT 310V010 9999 BKN027 24/17 Q1025
2026-05-02 00:00:00,METAR YSSY 020000Z 28006KT 9999 FEW035 23/17 Q1026
2026-05-01 23:30:00,METAR YSSY 012330Z 29003KT 9999 FEW037 BKN055 22/17 Q1026
2026-05-01 23:00:00,METAR YSSY 012300Z 28005KT 9999 -DZ FEW014 SCT040 BKN045 19/16 Q1026
2026-05-01 22:30:00,METAR YSSY 012230Z 31006KT 9999 FEW013 SCT040 BKN047 19/16 Q1026
2026-05-01 22:00:00,METAR YSSY 012200Z 31004KT 9999 FEW030 SCT055 19/16 Q1026
2026-05-01 21:30:00,METAR YSSY 012130Z 32005KT 9999 FEW034 BKN055 18/16 Q1025
2026-05-01 21:00:00,METAR YSSY 012100Z 29007KT 9999 FEW030 BKN055 18/16 Q1025
2026-05-01 20:30:00,METAR YSSY 012030Z 29006KT 9999 FEW040 BKN055 17/16 Q1025
2026-05-01 20:00:00,METAR YSSY 012000Z 31004KT 9999 FEW040 BKN055 BKN280 18/16 Q1025
2026-05-01 19:30:00,METAR YSSY 011930Z 32004KT 9999 FEW035 BKN055 18/16 Q1025
2026-05-01 19:00:00,METAR YSSY 011900Z AUTO 34004KT 9999 // BKN045 OVC056 18/16 Q1025
2026-05-01 18:30:00,METAR YSSY 011830Z AUTO 35004KT 9999 // OVC041 18/16 Q1025
2026-05-01 18:15:00,SPECI YSSY 011815Z AUTO 30003KT 9999 // FEW014 SCT033 OVC039 18/16 Q1025
2026-05-01 18:11:00,SPECI YSSY 011811Z AUTO 30004KT 9000 // FEW008 SCT014 BKN033 18/16 Q1025
2026-05-01 18:00:00,SPECI YSSY 011800Z AUTO 33004KT 3800 -SHRA FEW005 BKN014 BKN033 17/16 Q1025
2026-05-01 17:52:00,SPECI YSSY 011752Z AUTO 33005KT 5000 HZ BKN014 BKN027 BKN034 17/15 Q1025
2026-05-01 17:30:00,SPECI YSSY 011730Z AUTO 35007KT 3600 +DZ HZ SCT017 BKN028 BKN038 18/16 Q1025
2026-05-01 17:25:00,SPECI YSSY 011725Z AUTO 34007KT 6000 +DZ FEW015 BKN022 BKN036 18/15 Q1025
2026-05-01 17:00:00,METAR YSSY 011700Z AUTO 34005KT 9999 // FEW017 SCT027 BKN038 18/15 Q1025
2026-05-01 16:30:00,METAR YSSY 011630Z AUTO 35005KT 9999 // FEW017 SCT027 BKN034 18/15 Q1025
2026-05-01 16:00:00,METAR YSSY 011600Z AUTO 35005KT 9999 // FEW019 BKN029 BKN041 18/15 Q1026
2026-05-01 15:30:00,METAR YSSY 011530Z AUTO 35006KT 9999 // FEW023 BKN029 BKN035 18/15 Q1026
2026-05-01 15:00:00,METAR YSSY 011500Z AUTO 32005KT 9999 // BKN025 18/15 Q1026
2026-05-01 14:30:00,METAR YSSY 011430Z AUTO 29005KT 9999 // BKN054 18/15 Q1026
2026-05-01 14:00:00,METAR YSSY 011400Z AUTO 31006KT 9999 // OVC060 19/15 Q1026
2026-05-01 13:30:00,METAR YSSY 011330Z AUTO 33005KT 9999 // BKN055 OVC063 20/16 Q1026
2026-05-01 13:00:00,METAR YSSY 011300Z AUTO 04007KT 9999 // OVC063 20/18 Q1027
2026-05-01 12:30:00,METAR YSSY 011230Z AUTO 07006KT 9999 // FEW022 SCT027 OVC069 20/17 Q1027
2026-05-01 12:00:00,METAR YSSY 011200Z AUTO 23006KT 9999 // BKN031 OVC075 18/16 Q1027
2026-05-01 11:30:00,METAR YSSY 011130Z AUTO 23005KT 9999 // BKN075 19/16 Q1027
2026-05-01 11:00:00,METAR YSSY 011100Z AUTO 07001KT 9999 // BKN075 19/16 Q1027
2026-05-01 10:30:00,METAR YSSY 011030Z AUTO 07004KT 9999 // BKN075 20/16 Q1027
2026-05-01 10:00:00,METAR YSSY 011000Z AUTO 06001KT 9999 // NCD 20/16 Q1027
2026-05-01 09:30:00,METAR YSSY 010930Z AUTO 07006KT 9999 // NCD 20/16 Q1027
2026-05-01 09:00:00,METAR YSSY 010900Z AUTO 06005KT 9999 // NCD 20/15 Q1027
2026-05-01 08:30:00,METAR YSSY 010830Z AUTO 06005KT 9999 // NCD 20/15 Q1026
2026-05-01 08:00:00,METAR YSSY 010800Z AUTO 07004KT 9999 // NCD 20/15 Q1026
2026-05-01 07:30:00,METAR YSSY 010730Z AUTO 06005KT 9999 // NCD 20/15 Q1026
2026-05-01 07:00:00,METAR YSSY 010700Z AUTO 06007KT 9999 // NCD 21/15 Q1026
2026-05-01 06:30:00,METAR YSSY 010630Z AUTO 06008KT 9999 // NCD 23/13 Q1026
2026-05-01 06:00:00,METAR YSSY 010600Z AUTO 05007KT 9999 // NCD 23/13 Q1026
2026-05-01 05:30:00,METAR YSSY 010530Z AUTO 05007KT 9999 // SCT072 23/13 Q1027
2026-05-01 05:00:00,METAR YSSY 010500Z AUTO 06009KT 9999 // BKN070 23/13 Q1026
2026-05-01 04:30:00,METAR YSSY 010430Z AUTO 05007KT 020V110 9999 // OVC066 23/12 Q1027
2026-05-01 04:00:00,METAR YSSY 010400Z AUTO 25006KT 220V320 9999 // OVC064 23/12 Q1027
2026-05-01 03:30:00,METAR YSSY 010330Z AUTO 07001KT 9999 // OVC062 23/14 Q1027
2026-05-01 03:00:00,METAR YSSY 010300Z AUTO 00000KT 9999 // OVC060 22/15 Q1027
2026-05-01 02:30:00,METAR YSSY 010230Z AUTO 08005KT 9999 // OVC056 21/16 Q1028
2026-05-01 02:00:00,METAR YSSY 010200Z AUTO 08009KT 9999 // SCT031 BKN044 OVC055 21/15 Q1028
2026-05-01 01:30:00,METAR YSSY 010130Z AUTO 11005KT 9999 // SCT033 BKN046 OVC074 22/14 Q1029
2026-05-01 01:00:00,METAR YSSY 010100Z AUTO 31004KT 9999 // FEW038 SCT051 OVC080 22/16 Q1029
2026-05-01 00:30:00,METAR YSSY 010030Z AUTO 30004KT 270V340 9999 // BKN080 21/15 Q1030
2026-05-01 00:00:00,METAR YSSY 010000Z AUTO 26005KT 220V290 9999 // OVC078 21/15 Q1030
2026-04-30 23:30:00,METAR YSSY 302330Z AUTO 28005KT 9999 // OVC078 20/15 Q1030
2026-04-30 23:00:00,METAR YSSY 302300Z AUTO 30008KT 9999 // OVC076 19/15 Q1030
2026-04-30 22:30:00,METAR YSSY 302230Z AUTO 28007KT 9999 // OVC072 17/15 Q1030
2026-04-30 22:00:00,METAR YSSY 302200Z AUTO 05005KT 9999 // FEW047 SCT052 OVC072 18/15 Q1030
2026-04-30 21:30:00,METAR YSSY 302130Z AUTO 32006KT 9999 // SCT043 BKN050 OVC078 16/14 Q1030
2026-04-30 21:00:00,METAR YSSY 302100Z AUTO 34006KT 9999 // FEW037 17/14 Q1029
2026-04-30 20:30:00,METAR YSSY 302030Z AUTO 33006KT 9999 // NCD 16/14 Q1029
2026-04-30 20:00:00,METAR YSSY 302000Z AUTO 32007KT 9999 // FEW044 16/14 Q1029
2026-04-30 19:30:00,METAR YSSY 301930Z AUTO 31007KT 9999 // NCD 16/14 Q1029
2026-04-30 19:00:00,METAR YSSY 301900Z AUTO 31004KT 9999 // NCD 17/15 Q1028
2026-04-30 18:30:00,METAR YSSY 301830Z AUTO 33005KT 9999 // NCD 17/15 Q1028
2026-04-30 18:00:00,METAR YSSY 301800Z AUTO 04002KT 9999 // FEW075 18/15 Q1028
2026-04-30 17:30:00,METAR YSSY 301730Z AUTO 03004KT 350V090 9999 // OVC073 18/15 Q1028
2026-04-30 17:00:00,METAR YSSY 301700Z AUTO 29003KT 9999 // OVC067 18/15 Q1028
2026-04-30 16:55:00,SPECI YSSY 301655Z AUTO 29004KT 9999 // FEW041 BKN065 OVC074 18/15 Q1028
2026-04-30 16:30:00,METAR YSSY 301630Z AUTO 35004KT 9999 // FEW039 SCT050 BKN067 18/15 Q1028
2026-04-30 16:00:00,METAR YSSY 301600Z AUTO 33004KT 9999 // NCD 18/15 Q1028
2026-04-30 15:00:00,METAR YSSY 301500Z AUTO 34004KT 9999 // NCD 18/15 Q1029
2026-04-30 14:30:00,METAR YSSY 301430Z AUTO 00000KT 9999 // SCT076 19/15 Q1029
2026-04-30 14:00:00,METAR YSSY 301400Z AUTO 28002KT 9999 // BKN080 19/15 Q1029
2026-04-30 13:30:00,METAR YSSY 301330Z AUTO 25005KT 9999 // OVC080 19/15 Q1029
2026-04-30 13:17:00,SPECI YSSY 301317Z AUTO 25005KT 9999 // FEW034 OVC078 19/15 Q1029
2026-04-30 13:00:00,METAR YSSY 301300Z AUTO 24005KT 9999 // SCT034 BKN078 19/14 Q1029
2026-04-30 12:30:00,METAR YSSY 301230Z AUTO 24005KT 9999 // OVC078 20/15 Q1029
2026-04-30 12:00:00,METAR YSSY 301200Z AUTO 25005KT 9999 // BKN076 21/15 Q1030
2026-04-30 11:30:00,METAR YSSY 301130Z AUTO 04005KT 9999 // BKN032 OVC076 21/15 Q1030
2026-04-30 11:00:00,METAR YSSY 301100Z AUTO 05004KT 9999 // SCT032 OVC065 21/15 Q1029
2026-04-30 10:30:00,METAR YSSY 301030Z AUTO 04005KT 9999 // SCT063 BKN072 OVC082 21/14 Q1029
2026-04-30 10:00:00,METAR YSSY 301000Z AUTO 03005KT 9999 // BKN067 OVC081 22/14 Q1029
2026-04-30 09:30:00,METAR YSSY 300930Z AUTO 06005KT 9999 // FEW067 OVC087 21/14 Q1029
2026-04-30 09:00:00,METAR YSSY 300900Z AUTO 04005KT 9999 // OVC087 21/14 Q1029
2026-04-30 08:30:00,METAR YSSY 300830Z AUTO 03005KT 9999 // OVC089 21/14 Q1029
2026-04-30 08:00:00,METAR YSSY 300800Z AUTO 04006KT 9999 // BKN093 22/15 Q1029
2026-04-30 07:30:00,METAR YSSY 300730Z AUTO 04009KT 9999 // SCT099 22/16 Q1028
2026-04-30 07:00:00,METAR YSSY 300700Z AUTO 05014KT 9999 // FEW067 21/16 Q1028
2026-04-30 06:30:00,METAR YSSY 300630Z AUTO 05015KT 9999 // FEW069 SCT096 22/17 Q1028
2026-04-30 06:00:00,METAR YSSY 300600Z 05016KT 9999 FEW030 SCT080 22/15 Q1028
2026-04-30 05:30:00,METAR YSSY 300530Z 06012KT 9999 VCSH FEW030 SCT080 23/16 Q1028
2026-04-30 05:00:00,METAR YSSY 300500Z 07012KT 9999 VCSH FEW032 SCT080 22/15 Q1028
2026-04-30 04:30:00,METAR YSSY 300430Z 08013KT 9999 VCSH FEW025 SCT100 23/16 Q1028
2026-04-30 04:00:00,METAR YSSY 300400Z 08012KT 9999 VCSH FEW025 23/14 Q1028
2026-04-30 03:30:00,METAR YSSY 300330Z 06008KT 9999 VCSH FEW037 24/14 Q1028
2026-04-30 03:00:00,METAR YSSY 300300Z 10010KT 9999 FEW035 25/14 Q1029
2026-04-30 02:30:00,METAR YSSY 300230Z 05008KT 9999 FEW035 24/14 Q1029
2026-04-30 02:00:00,METAR YSSY 300200Z 16008KT 130V190 9999 FEW034 23/17 Q1030
2026-04-30 01:30:00,METAR YSSY 300130Z 16005KT 9999 FEW035 22/16 Q1030
2026-04-30 01:00:00,METAR YSSY 300100Z 16004KT 9999 FEW032 22/16 Q1030
2026-04-30 00:30:00,METAR YSSY 300030Z 18005KT 150V210 9999 FEW032 22/17 Q1031
2026-04-30 00:00:00,METAR YSSY 300000Z 00000KT 9999 FEW032 22/17 Q1031
2026-04-29 23:30:00,METAR YSSY 292330Z 26004KT 9999 FEW030 22/16 Q1031
2026-04-29 23:00:00,METAR YSSY 292300Z 31005KT 9999 FEW035 21/16 Q1031
2026-04-29 22:30:00,METAR YSSY 292230Z 31004KT 9999 FEW035 21/16 Q1031
2026-04-29 22:00:00,METAR YSSY 292200Z 32005KT 9999 FEW035 20/16 Q1031
2026-04-29 21:30:00,METAR YSSY 292130Z 32006KT 9999 FEW035 18/16 Q1031
2026-04-29 21:00:00,METAR YSSY 292100Z 32005KT 9999 FEW035 18/16 Q1030
2026-04-29 20:30:00,METAR YSSY 292030Z 30004KT 9999 FEW035 18/16 Q1030
2026-04-29 20:00:00,METAR YSSY 292000Z 25005KT 9999 FEW035 17/15 Q1030
2026-04-29 19:30:00,METAR YSSY 291930Z AUTO 24005KT 9999 // NCD 17/15 Q1030
2026-04-29 19:00:00,METAR YSSY 291900Z AUTO 23006KT 9999 // NCD 17/15 Q1030
2026-04-29 18:59:00,SPECI YSSY 291859Z AUTO 23006KT 9999 // NCD 17/15 Q1030
2026-04-29 18:30:00,METAR YSSY 291830Z AUTO 20005KT 9999 // SCT110 18/16 Q1030
2026-04-29 18:00:00,METAR YSSY 291800Z AUTO 23005KT 9999 // FEW038 SCT052 BKN075 18/16 Q1030
2026-04-29 17:30:00,METAR YSSY 291730Z AUTO 26005KT 9999 // BKN040 OVC048 OVC077 18/16 Q1030
2026-04-29 17:00:00,METAR YSSY 291700Z AUTO 33003KT 9999 // FEW038 OVC105 18/16 Q1030
2026-04-29 16:30:00,METAR YSSY 291630Z AUTO 30005KT 9999 // FEW066 SCT079 OVC105 18/16 Q1030
2026-04-29 16:00:00,METAR YSSY 291600Z AUTO 31007KT 9999 // FEW054 SCT065 BKN079 18/17 Q1030
2026-04-29 15:30:00,METAR YSSY 291530Z AUTO 34007KT 9999 // FEW037 OVC094 18/17 Q1030
2026-04-29 15:00:00,METAR YSSY 291500Z AUTO 30005KT 9999 // FEW054 BKN063 BKN074 18/16 Q1030
2026-04-29 14:30:00,METAR YSSY 291430Z AUTO 02005KT 9999 // FEW033 SCT070 OVC084 18/16 Q1030
2026-04-29 14:00:00,METAR YSSY 291400Z AUTO 34005KT 9999 // FEW039 OVC057 18/16 Q1030
2026-04-29 13:30:00,METAR YSSY 291330Z AUTO 32004KT 9999 // BKN065 OVC077 18/16 Q1030 RERA
2026-04-29 13:17:00,SPECI YSSY 291317Z AUTO 33004KT 9999 // FEW058 OVC077 18/16 Q1030 RESHRA
2026-04-29 13:01:00,SPECI YSSY 291301Z AUTO 33008KT 9999 SHRA FEW030 SCT047 BKN057 18/16 Q1030
2026-04-29 13:00:00,SPECI YSSY 291300Z AUTO 33009KT 9999 SHRA FEW034 SCT047 BKN057 18/16 Q1030
2026-04-29 12:31:00,SPECI YSSY 291231Z AUTO 04014KT 6000 RA BKN032 BKN040 OVC055 18/15 Q1030
2026-04-29 12:19:00,SPECI YSSY 291219Z AUTO 07015KT 9999 // BKN032 BKN040 OVC074 21/16 Q1030
2026-04-29 12:00:00,METAR YSSY 291200Z AUTO 11005KT 9999 // FEW036 BKN075 20/16 Q1030
2026-04-29 11:30:00,METAR YSSY 291130Z AUTO 00000KT 9999 // FEW036 SCT050 BKN061 21/16 Q1030
2026-04-29 11:00:00,METAR YSSY 291100Z AUTO 11004KT 9999 // FEW034 SCT054 BKN069 21/16 Q1030
2026-04-29 10:30:00,METAR YSSY 291030Z AUTO 12005KT 9999 // SCT034 SCT046 BKN057 20/16 Q1030
2026-04-29 10:00:00,METAR YSSY 291000Z AUTO 10004KT 9999 // FEW026 20/16 Q1029
2026-04-29 09:30:00,METAR YSSY 290930Z AUTO 07004KT 9999 // NCD 21/16 Q1029
2026-04-29 09:00:00,METAR YSSY 290900Z AUTO 08005KT 9999 // NCD 21/16 Q1029
2026-04-29 08:30:00,METAR YSSY 290830Z AUTO 08006KT 9999 // NCD 21/16 Q1029
2026-04-29 08:00:00,METAR YSSY 290800Z AUTO 08005KT 9999 // NCD 21/16 Q1029
2026-04-29 07:30:00,METAR YSSY 290730Z AUTO 07008KT 9999 // NCD 21/16 Q1028
2026-04-29 07:00:00,METAR YSSY 290700Z AUTO 07010KT 9999 // NCD 22/16 Q1028
2026-04-29 06:30:00,METAR YSSY 290630Z AUTO 07009KT 9999 // NCD 22/15 Q1028
2026-04-29 06:00:00,METAR YSSY 290600Z 08010KT 9999 FEW045 BKN300 23/15 Q1028
2026-04-29 05:30:00,METAR YSSY 290530Z 08011KT 9999 FEW045 BKN300 23/15 Q1028
2026-04-29 05:00:00,METAR YSSY 290500Z 07011KT 9999 FEW045 BKN300 24/15 Q1028
2026-04-29 04:30:00,METAR YSSY 290430Z 09010KT 9999 FEW045 BKN300 25/15 Q1027
2026-04-29 04:00:00,METAR YSSY 290400Z 08009KT 9999 FEW045 BKN300 25/14 Q1027
2026-04-29 03:30:00,METAR YSSY 290330Z 13009KT 9999 FEW045 BKN300 23/14 Q1027
2026-04-29 03:00:00,METAR YSSY 290300Z 14007KT 9999 FEW045 BKN300 25/13 Q1027
2026-04-29 02:30:00,METAR YSSY 290230Z 21003KT 9999 FEW042 BKN300 24/12 Q1028
2026-04-29 02:00:00,METAR YSSY 290200Z 29005KT 250V310 9999 FEW040 BKN300 24/12 Q1028
2026-04-29 01:30:00,METAR YSSY 290130Z 26005KT 9999 FEW040 BKN300 24/13 Q1029
2026-04-29 01:00:00,METAR YSSY 290100Z 27005KT 9999 FEW035 BKN300 24/13 Q1029
2026-04-29 00:30:00,METAR YSSY 290030Z 30006KT 9999 FEW030 SCT300 23/12 Q1029
2026-04-29 00:00:00,METAR YSSY 290000Z 31007KT CAVOK 22/13 Q1029
2026-04-28 23:30:00,METAR YSSY 282330Z 32006KT CAVOK 20/13 Q1029
2026-04-28 23:00:00,METAR YSSY 282300Z 30007KT CAVOK 19/12 Q1029
2026-04-28 22:30:00,METAR YSSY 282230Z 34007KT CAVOK 18/13 Q1029
2026-04-28 22:00:00,METAR YSSY 282200Z 33005KT CAVOK 17/13 Q1028 RETS
2026-04-28 21:30:00,METAR YSSY 282130Z 31007KT CAVOK 15/12 Q1028
2026-04-28 21:00:00,METAR YSSY 282100Z 32008KT CAVOK 14/12 Q1027
2026-04-28 20:30:00,METAR YSSY 282030Z 33007KT CAVOK 14/12 Q1027
2026-04-28 20:00:00,METAR YSSY 282000Z 32008KT CAVOK 15/12 Q1027
2026-04-28 19:30:00,METAR YSSY 281930Z AUTO 32007KT 9999 // NCD 14/12 Q1027
2026-04-28 19:00:00,METAR YSSY 281900Z AUTO 31007KT 9999 // NCD 15/12 Q1026
2026-04-28 18:30:00,METAR YSSY 281830Z AUTO 33007KT 9999 // NCD 15/13 Q1026
2026-04-28 18:00:00,METAR YSSY 281800Z AUTO 34007KT 9999 // NCD 14/12 Q1026
2026-04-28 17:30:00,METAR YSSY 281730Z AUTO 33006KT 9999 // NCD 15/12 Q1026
2026-04-28 17:00:00,METAR YSSY 281700Z AUTO 35008KT 9999 // NCD 15/12 Q1026
2026-04-28 16:30:00,METAR YSSY 281630Z AUTO 33006KT 9999 // NCD 15/12 Q1026
2026-04-28 16:00:00,METAR YSSY 281600Z AUTO 34006KT 9999 // NCD 16/13 Q1026
2026-04-28 15:30:00,METAR YSSY 281530Z AUTO 36006KT 9999 // NCD 16/13 Q1026
2026-04-28 15:00:00,METAR YSSY 281500Z AUTO 35005KT 9999 // NCD 16/13 Q1026
2026-04-28 14:30:00,METAR YSSY 281430Z AUTO 36005KT 9999 // NCD 16/13 Q1026
2026-04-28 14:00:00,METAR YSSY 281400Z AUTO 34005KT 9999 // NCD 17/13 Q1026
2026-04-28 13:30:00,METAR YSSY 281330Z AUTO 32005KT 9999 // NCD 17/13 Q1026
2026-04-28 13:27:00,SPECI YSSY 281327Z AUTO 32005KT 9999 // NCD 18/13 Q1026
2026-04-28 13:26:00,SPECI YSSY 281326Z AUTO 32005KT 9999 // NCD 18/13 Q1026
2026-04-28 13:00:00,METAR YSSY 281300Z AUTO 29005KT 9999 // NCD 18/13 Q1026
2026-04-28 12:30:00,METAR YSSY 281230Z AUTO 31006KT 9999 // NCD 18/13 Q1026
2026-04-28 12:00:00,METAR YSSY 281200Z AUTO 29006KT 9999 // NCD 18/13 Q1026
2026-04-28 11:30:00,METAR YSSY 281130Z AUTO 30006KT 9999 // NCD 19/13 Q1026
2026-04-28 11:00:00,METAR YSSY 281100Z AUTO 01005KT 9999 // NCD 21/14 Q1026
2026-04-28 10:30:00,METAR YSSY 281030Z AUTO 04005KT 9999 // NCD 21/14 Q1026
2026-04-28 10:00:00,METAR YSSY 281000Z AUTO 04007KT 9999 // NCD 20/14 Q1026
2026-04-28 09:30:00,METAR YSSY 280930Z AUTO 04007KT 9999 // NCD 20/13 Q1025
2026-04-28 09:00:00,METAR YSSY 280900Z AUTO 05009KT 9999 // NCD 20/13 Q1025
2026-04-28 08:30:00,METAR YSSY 280830Z AUTO 05009KT 9999 // NCD 21/14 Q1025
2026-04-28 08:00:00,METAR YSSY 280800Z AUTO 05008KT 9999 // NCD 21/13 Q1025
2026-04-28 07:30:00,METAR YSSY 280730Z AUTO 06009KT 9999 // NCD 21/13 Q1025
2026-04-28 07:00:00,METAR YSSY 280700Z AUTO 05012KT 9999 // NCD 21/13 Q1024
2026-04-28 06:30:00,METAR YSSY 280630Z AUTO 05013KT 9999 // NCD 22/13 Q1024
2026-04-28 06:00:00,METAR YSSY 280600Z 06011KT CAVOK 22/12 Q1024
2026-04-28 05:30:00,METAR YSSY 280530Z 06012KT CAVOK 23/11 Q1024
2026-04-28 05:00:00,METAR YSSY 280500Z 06010KT CAVOK 23/11 Q1024
2026-04-28 04:43:00,SPECI YSSY 280443Z AUTO 06012KT 9999 // NCD 23/11 Q1024
2026-04-28 04:32:00,SPECI YSSY 280432Z AUTO 07013KT 9999 // NCD 24/10 Q1024
2026-04-28 04:30:00,SPECI YSSY 280430Z 07013KT CAVOK 24/10 Q1024
2026-04-28 04:00:00,METAR YSSY 280400Z 08013KT 9999 FEW047 24/10 Q1024
2026-04-28 03:30:00,METAR YSSY 280330Z 08011KT 9999 FEW047 24/10 Q1024
2026-04-28 03:00:00,METAR YSSY 280300Z 18006KT 9999 FEW047 23/12 Q1025
2026-04-28 02:30:00,METAR YSSY 280230Z 14008KT 100V160 9999 FEW045 25/10 Q1025
2026-04-28 02:00:00,METAR YSSY 280200Z 35007KT 9999 FEW040 23/10 Q1026
2026-04-28 01:30:00,METAR YSSY 280130Z 33007KT 300V360 9999 FEW040 24/10 Q1026
2026-04-28 01:00:00,METAR YSSY 280100Z 36006KT 320V040 9999 FEW035 23/10 Q1027
2026-04-28 00:30:00,METAR YSSY 280030Z 26005KT 9999 FEW030 23/11 Q1027
2026-04-28 00:00:00,METAR YSSY 280000Z 30005KT 9999 FEW030 23/13 Q1027
2026-04-27 23:30:00,METAR YSSY 272330Z 30005KT 9999 FEW030 20/13 Q1027
2026-04-27 23:00:00,METAR YSSY 272300Z 30006KT 9999 FEW030 19/13 Q1028
2026-04-27 22:30:00,METAR YSSY 272230Z 30007KT 9999 FEW030 18/12 Q1028
2026-04-27 22:00:00,METAR YSSY 272200Z 33006KT 9999 FEW030 17/12 Q1027
2026-04-27 21:30:00,METAR YSSY 272130Z 31005KT 9999 FEW030 15/12 Q1027
2026-04-27 21:00:00,METAR YSSY 272100Z 31007KT 9999 FEW030 SCT047 15/12 Q1026
2026-04-27 20:30:00,METAR YSSY 272030Z 32004KT 9999 FEW030 SCT047 15/12 Q1026
2026-04-27 20:00:00,METAR YSSY 272000Z 34005KT 9999 R34L/P2000N R34R/P2000N FEW030 SCT045 14/12 Q1026
2026-04-27 19:30:00,METAR YSSY 271930Z AUTO 33007KT 9999 // SCT050 15/12 Q1026
2026-04-27 19:00:00,METAR YSSY 271900Z AUTO 34007KT 9999 // BKN050 14/12 Q1025
2026-04-27 18:30:00,METAR YSSY 271830Z AUTO 36005KT 9999 // BKN050 15/12 Q1025
2026-04-27 18:00:00,METAR YSSY 271800Z AUTO 32006KT 9999 // FEW047 15/13 Q1025
2026-04-27 17:30:00,METAR YSSY 271730Z AUTO 34007KT 9999 // BKN047 15/13 Q1025
2026-04-27 17:00:00,METAR YSSY 271700Z AUTO 35004KT 9999 // BKN049 15/13 Q1025
2026-04-27 16:30:00,METAR YSSY 271630Z AUTO 32006KT 9999 // FEW051 15/13 Q1025
2026-04-27 16:00:00,METAR YSSY 271600Z AUTO 36004KT 9999 // SCT045 16/13 Q1025
2026-04-27 15:30:00,METAR YSSY 271530Z AUTO 02001KT 9999 // FEW043 SCT051 16/13 Q1026
2026-04-27 15:00:00,METAR YSSY 271500Z AUTO 06001KT 9999 // BKN053 16/13 Q1026
2026-04-27 14:30:00,METAR YSSY 271430Z AUTO 04003KT 9999 // FEW051 16/13 Q1026
2026-04-27 14:00:00,METAR YSSY 271400Z AUTO 29003KT 9999 // BKN051 17/13 Q1026
2026-04-27 13:30:00,METAR YSSY 271330Z AUTO 28006KT 9999 // NCD 17/13 Q1026
2026-04-27 13:00:00,METAR YSSY 271300Z AUTO 29006KT 9999 // FEW051 17/13 Q1026
2026-04-27 12:30:00,METAR YSSY 271230Z AUTO 26005KT 9999 // NCD 18/13 Q1026
2026-04-27 12:00:00,METAR YSSY 271200Z AUTO 33003KT 9999 // NCD 17/13 Q1026
2026-04-27 11:30:00,METAR YSSY 271130Z AUTO 04003KT 9999 // NCD 18/12 Q1026
2026-04-27 11:00:00,METAR YSSY 271100Z AUTO 04003KT 9999 // NCD 20/13 Q1026
2026-04-27 10:30:00,METAR YSSY 271030Z AUTO 04004KT 9999 // NCD 20/13 Q1025
2026-04-27 10:00:00,METAR YSSY 271000Z AUTO 03008KT 9999 // NCD 20/13 Q1025
2026-04-27 09:30:00,METAR YSSY 270930Z AUTO 03008KT 9999 // NCD 21/13 Q1025
2026-04-27 09:00:00,METAR YSSY 270900Z AUTO 04008KT 9999 // NCD 20/13 Q1024
2026-04-27 08:30:00,METAR YSSY 270830Z AUTO 05007KT 9999 // NCD 20/13 Q1024
2026-04-27 08:00:00,METAR YSSY 270800Z AUTO 05007KT 9999 // NCD 21/13 Q1024
2026-04-27 07:30:00,METAR YSSY 270730Z AUTO 05009KT 9999 // NCD 21/13 Q1024
2026-04-27 07:00:00,METAR YSSY 270700Z AUTO 05011KT 9999 // NCD 21/13 Q1023
2026-04-27 06:30:00,METAR YSSY 270630Z AUTO 07011KT 9999 // NCD 22/13 Q1023
2026-04-27 06:00:00,METAR YSSY 270600Z 06010KT 9999 FEW045 SCT290 23/13 Q1023
2026-04-27 05:30:00,METAR YSSY 270530Z 06012KT 9999 FEW045 23/13 Q1023
2026-04-27 05:00:00,METAR YSSY 270500Z 08011KT 9999 FEW045 23/12 Q1023
2026-04-27 04:30:00,METAR YSSY 270430Z 08011KT 9999 SCT045 23/12 Q1023
2026-04-27 04:00:00,METAR YSSY 270400Z 08011KT 9999 FEW044 SCT050 23/12 Q1023
2026-04-27 03:30:00,METAR YSSY 270330Z 15008KT 9999 FEW044 SCT047 24/10 Q1023
2026-04-27 03:00:00,METAR YSSY 270300Z 08005KT 9999 FEW044 BKN052 24/10 Q1023
2026-04-27 02:30:00,METAR YSSY 270230Z 29004KT 200V350 9999 FEW044 BKN052 23/11 Q1024
2026-04-27 02:00:00,METAR YSSY 270200Z 32007KT 290V360 9999 FEW037 24/11 Q1024
2026-04-27 01:30:00,METAR YSSY 270130Z 28005KT 9999 FEW035 24/11 Q1024
2026-04-27 01:00:00,METAR YSSY 270100Z 29005KT 9999 FEW035 22/10 Q1025
2026-04-27 00:30:00,METAR YSSY 270030Z 30005KT 9999 FEW045 21/11 Q1025
2026-04-27 00:00:00,METAR YSSY 270000Z 31005KT 9999 FEW032 20/11 Q1025
2026-04-26 23:30:00,METAR YSSY 262330Z 30007KT 9999 FEW047 19/11 Q1025
2026-04-26 23:00:00,METAR YSSY 262300Z 28007KT 9999 FEW047 18/11 Q1025
2026-04-26 22:30:00,METAR YSSY 262230Z 30007KT 9999 FEW040 17/11 Q1024
2026-04-26 22:00:00,METAR YSSY 262200Z 32007KT 9999 FEW036 15/11 Q1024
2026-04-26 21:30:00,METAR YSSY 262130Z 33007KT 9999 FEW030 14/11 Q1024
2026-04-26 21:00:00,METAR YSSY 262100Z 34007KT 9999 FEW030 13/10 Q1024
2026-04-26 20:30:00,METAR YSSY 262030Z 32006KT 9999 FEW030 12/10 Q1023
2026-04-26 20:00:00,METAR YSSY 262000Z 33006KT 9999 FEW027 13/10 Q1023
2026-04-26 19:30:00,METAR YSSY 261930Z 35009KT 9999 FEW027 13/10 Q1023
2026-04-26 19:00:00,METAR YSSY 261900Z AUTO 32006KT 9999 // NCD 13/10 Q1023
2026-04-26 18:30:00,METAR YSSY 261830Z AUTO 35006KT 9999 // NCD 13/10 Q1023
2026-04-26 18:00:00,METAR YSSY 261800Z AUTO 34005KT 9999 // NCD 13/11 Q1023
2026-04-26 17:30:00,METAR YSSY 261730Z AUTO 33005KT 9999 // NCD 14/11 Q1023
2026-04-26 17:00:00,METAR YSSY 261700Z AUTO 30008KT 9999 // NCD 14/11 Q1023
2026-04-26 16:30:00,METAR YSSY 261630Z AUTO 34007KT 9999 // NCD 15/11 Q1023
2026-04-26 16:00:00,METAR YSSY 261600Z AUTO 36005KT 9999 // NCD 15/11 Q1023
2026-04-26 15:30:00,METAR YSSY 261530Z AUTO 35002KT 9999 // NCD 15/11 Q1023
2026-04-26 15:00:00,METAR YSSY 261500Z AUTO 26001KT 9999 // NCD 16/11 Q1024
2026-04-26 14:30:00,METAR YSSY 261430Z AUTO 26001KT 9999 // NCD 16/11 Q1024
2026-04-26 14:00:00,METAR YSSY 261400Z AUTO 26003KT 9999 // NCD 17/11 Q1024
2026-04-26 13:30:00,METAR YSSY 261330Z AUTO 28006KT 9999 // NCD 17/12 Q1024
2026-04-26 13:00:00,METAR YSSY 261300Z AUTO 30006KT 9999 // NCD 17/12 Q1024
2026-04-26 12:30:00,METAR YSSY 261230Z AUTO 30006KT 9999 // NCD 18/12 Q1024
2026-04-26 12:00:00,METAR YSSY 261200Z AUTO 02006KT 9999 // NCD 19/12 Q1023
2026-04-26 11:30:00,METAR YSSY 261130Z AUTO 01006KT 9999 // NCD 20/12 Q1023
2026-04-26 11:00:00,METAR YSSY 261100Z AUTO 02006KT 9999 // NCD 21/13 Q1023
2026-04-26 10:30:00,METAR YSSY 261030Z AUTO 02008KT 9999 // NCD 21/13 Q1023
2026-04-26 10:00:00,METAR YSSY 261000Z AUTO 02008KT 9999 // NCD 21/12 Q1023
2026-04-26 09:30:00,METAR YSSY 260930Z AUTO 02008KT 9999 // NCD 21/12 Q1022
2026-04-26 09:00:00,METAR YSSY 260900Z AUTO 03008KT 9999 // NCD 21/12 Q1022
2026-04-26 08:30:00,METAR YSSY 260830Z AUTO 03008KT 9999 // NCD 21/11 Q1022
2026-04-26 08:00:00,METAR YSSY 260800Z AUTO 04009KT 9999 // NCD 21/11 Q1022
2026-04-26 07:30:00,METAR YSSY 260730Z AUTO 03010KT 9999 // NCD 22/11 Q1022
2026-04-26 07:00:00,METAR YSSY 260700Z AUTO 03013KT 9999 // NCD 22/10 Q1022
2026-04-26 06:30:00,METAR YSSY 260630Z AUTO 03015KT 9999 // NCD 22/10 Q1022
2026-04-26 06:00:00,METAR YSSY 260600Z 03014KT CAVOK 23/10 Q1022
2026-04-26 05:30:00,METAR YSSY 260530Z 05013KT CAVOK 23/10 Q1022
2026-04-26 05:00:00,METAR YSSY 260500Z 04013KT CAVOK 23/10 Q1022
2026-04-26 04:30:00,METAR YSSY 260430Z 04011KT CAVOK 24/10 Q1022
2026-04-26 04:00:00,METAR YSSY 260400Z 04011KT CAVOK 24/10 Q1022
2026-04-26 03:30:00,METAR YSSY 260330Z 05010KT CAVOK 23/09 Q1023
2026-04-26 03:00:00,METAR YSSY 260300Z 02009KT CAVOK 24/10 Q1023
2026-04-26 02:30:00,METAR YSSY 260230Z 36007KT 330V030 9999 FEW046 24/09 Q1024
2026-04-26 02:00:00,METAR YSSY 260200Z 36008KT 330V040 9999 FEW043 24/10 Q1024
2026-04-26 01:30:00,METAR YSSY 260130Z 01008KT 9999 FEW043 22/11 Q1025
2026-04-26 01:00:00,METAR YSSY 260100Z 33011KT 9999 FEW044 22/11 Q1025
2026-04-26 00:30:00,METAR YSSY 260030Z 31011KT 9999 FEW040 22/11 Q1026
2026-04-26 00:00:00,METAR YSSY 260000Z 30008KT 9999 FEW040 22/12 Q1026
2026-04-25 23:30:00,METAR YSSY 252330Z 31009KT 9999 FEW040 20/13 Q1026
2026-04-25 23:00:00,METAR YSSY 252300Z 31007KT 9999 FEW037 20/15 Q1026
2026-04-25 22:30:00,METAR YSSY 252230Z 31006KT 9999 FEW037 18/14 Q1026
2026-04-25 22:00:00,METAR YSSY 252200Z 31006KT 9999 FEW037 17/14 Q1026
2026-04-25 21:30:00,METAR YSSY 252130Z 35005KT 9999 FEW030 16/14 Q1026
2026-04-25 21:00:00,METAR YSSY 252100Z 32006KT 9999 FEW030 15/14 Q1026
2026-04-25 20:30:00,METAR YSSY 252030Z 33006KT 9999 FEW027 15/13 Q1026
2026-04-25 20:00:00,METAR YSSY 252000Z 31006KT 9999 FEW027 15/13 Q1026
2026-04-25 19:30:00,METAR YSSY 251930Z 33006KT 9999 FEW030 15/13 Q1026
2026-04-25 19:00:00,METAR YSSY 251900Z AUTO 35005KT 9999 // NCD 15/13 Q1026
2026-04-25 18:30:00,METAR YSSY 251830Z AUTO 35005KT 9999 // NCD 15/13 Q1025
2026-04-25 18:00:00,METAR YSSY 251800Z AUTO 35004KT 9999 // NCD 15/13 Q1025
2026-04-25 17:30:00,METAR YSSY 251730Z AUTO 34005KT 9999 // NCD 16/14 Q1025
2026-04-25 17:00:00,METAR YSSY 251700Z AUTO 35005KT 9999 // NCD 16/14 Q1025
2026-04-25 16:30:00,METAR YSSY 251630Z AUTO 35007KT 9999 // NCD 16/14 Q1026
2026-04-25 16:00:00,METAR YSSY 251600Z AUTO 36006KT 9999 // NCD 17/14 Q1026
2026-04-25 15:30:00,METAR YSSY 251530Z AUTO 35005KT 9999 // NCD 17/14 Q1026
2026-04-25 15:00:00,METAR YSSY 251500Z AUTO 35004KT 9999 // NCD 17/14 Q1027
2026-04-25 14:30:00,METAR YSSY 251430Z AUTO 32005KT 9999 // NCD 18/14 Q1027
2026-04-25 14:00:00,METAR YSSY 251400Z AUTO 30006KT 9999 // FEW034 18/14 Q1027
2026-04-25 13:30:00,METAR YSSY 251330Z AUTO 30007KT 9999 // SCT034 18/14 Q1027
2026-04-25 13:00:00,METAR YSSY 251300Z AUTO 31007KT 9999 // NCD 19/14 Q1027
2026-04-25 12:30:00,METAR YSSY 251230Z AUTO 30007KT 9999 // NCD 19/14 Q1027
2026-04-25 12:00:00,METAR YSSY 251200Z AUTO 36008KT 9999 // NCD 20/14 Q1027
2026-04-25 11:30:00,METAR YSSY 251130Z AUTO 01005KT 9999 // NCD 21/15 Q1027
2026-04-25 11:00:00,METAR YSSY 251100Z AUTO 03007KT 9999 // NCD 21/15 Q1027
2026-04-25 10:30:00,METAR YSSY 251030Z AUTO 02007KT 9999 // NCD 21/15 Q1027
2026-04-25 10:00:00,METAR YSSY 251000Z AUTO 02006KT 9999 // NCD 21/16 Q1027
2026-04-25 09:30:00,METAR YSSY 250930Z AUTO 02006KT 9999 // NCD 21/16 Q1027
2026-04-25 09:00:00,METAR YSSY 250900Z AUTO 03008KT 9999 // NCD 21/16 Q1027
2026-04-25 08:30:00,METAR YSSY 250830Z AUTO 03008KT 9999 // NCD 21/16 Q1027
2026-04-25 08:00:00,METAR YSSY 250800Z AUTO 04009KT 9999 // NCD 21/16 Q1027
2026-04-25 07:30:00,METAR YSSY 250730Z AUTO 04010KT 9999 // NCD 22/15 Q1027
2026-04-25 07:00:00,METAR YSSY 250700Z AUTO 04013KT 9999 // NCD 22/15 Q1026
2026-04-25 06:30:00,METAR YSSY 250630Z AUTO 04013KT 9999 // NCD 23/14 Q1027
2026-04-25 06:00:00,METAR YSSY 250600Z 05015KT 9999 FEW037 24/14 Q1027
2026-04-25 05:30:00,METAR YSSY 250530Z 04012KT 9999 FEW037 24/13 Q1027
2026-04-25 05:00:00,METAR YSSY 250500Z 05012KT 9999 FEW037 24/13 Q1027
2026-04-25 04:30:00,METAR YSSY 250430Z 07011KT 9999 FEW037 24/13 Q1027
2026-04-25 04:00:00,METAR YSSY 250400Z 07011KT 9999 SCT036 25/13 Q1027
2026-04-25 03:30:00,METAR YSSY 250330Z 03009KT 9999 SCT035 24/14 Q1028
2026-04-25 03:00:00,METAR YSSY 250300Z 11008KT 9999 BKN035 25/14 Q1028
2026-04-25 02:30:00,METAR YSSY 250230Z 02007KT 9999 BKN035 23/14 Q1029
2026-04-25 02:00:00,METAR YSSY 250200Z 35007KT 9999 FEW035 25/14 Q1029
2026-04-25 01:30:00,METAR YSSY 250130Z 35005KT 310V020 9999 FEW033 24/14 Q1030
2026-04-25 01:00:00,METAR YSSY 250100Z 31004KT 280V030 9999 FEW032 23/16 Q1030
2026-04-25 00:30:00,METAR YSSY 250030Z 27004KT 230V330 9999 FEW030 21/15 Q1031
2026-04-25 00:00:00,METAR YSSY 250000Z 27005KT 9999 FEW040 20/14 Q1031
2026-04-24 23:30:00,METAR YSSY 242330Z 28009KT 9999 FEW037 20/15 Q1031
2026-04-24 23:00:00,METAR YSSY 242300Z 32010KT 9999 FEW037 SCT055 19/15 Q1032
2026-04-24 22:30:00,METAR YSSY 242230Z 33010KT 9999 FEW035 SCT047 18/15 Q1032
2026-04-24 22:00:00,METAR YSSY 242200Z 35009KT 9999 VCSH FEW033 BKN037 16/14 Q1032
2026-04-24 21:30:00,METAR YSSY 242130Z 34006KT 9999 VCSH FEW030 BKN035 16/14 Q1031
2026-04-24 21:00:00,METAR YSSY 242100Z 32006KT 9999 FEW027 BKN035 15/13 Q1031
2026-04-24 20:30:00,METAR YSSY 242030Z 31008KT 9999 FEW025 15/13 Q1031
2026-04-24 20:00:00,METAR YSSY 242000Z 32006KT 9999 FEW025 15/13 Q1030
2026-04-24 19:30:00,METAR YSSY 241930Z 34006KT 9999 FEW025 15/13 Q1030
2026-04-24 19:00:00,METAR YSSY 241900Z AUTO 31007KT 9999 // NCD 15/13 Q1030
2026-04-24 18:30:00,METAR YSSY 241830Z AUTO 31007KT 9999 // SCT028 BKN047 15/14 Q1030
2026-04-24 18:05:00,SPECI YSSY 241805Z AUTO 33006KT 9999 // SCT047 16/14 Q1030
2026-04-24 17:30:00,METAR YSSY 241730Z AUTO 32004KT 9999 // FEW041 BKN073 16/14 Q1030
2026-04-24 17:00:00,METAR YSSY 241700Z AUTO 32006KT 9999 // FEW049 OVC065 16/14 Q1030
2026-04-24 16:30:00,METAR YSSY 241630Z AUTO 32006KT 9999 // BKN033 BKN069 16/15 Q1030
2026-04-24 16:00:00,METAR YSSY 241600Z AUTO 34007KT 9999 // FEW029 16/15 Q1030
2026-04-24 15:30:00,METAR YSSY 241530Z AUTO 35006KT 9999 // FEW029 17/15 Q1030
2026-04-24 15:00:00,METAR YSSY 241500Z AUTO 30006KT 9999 // FEW032 17/15 Q1031
2026-04-24 14:30:00,METAR YSSY 241430Z AUTO 32006KT 9999 // SCT028 BKN035 BKN043 17/15 Q1031
2026-04-24 14:00:00,METAR YSSY 241400Z AUTO 35007KT 9999 -SHRA BKN028 BKN035 BKN044 18/16 Q1031
2026-04-24 13:30:00,METAR YSSY 241330Z AUTO 33005KT 9999 // SCT030 18/16 Q1031
2026-04-24 13:00:00,METAR YSSY 241300Z AUTO 33005KT 9999 // SCT034 18/16 Q1031
2026-04-24 12:30:00,METAR YSSY 241230Z AUTO 24005KT 9999 // NCD 18/16 Q1031
2026-04-24 12:00:00,METAR YSSY 241200Z AUTO 23005KT 9999 // NCD 17/16 Q1031
2026-04-24 11:30:00,METAR YSSY 241130Z AUTO 23007KT 9999 // NCD 17/16 Q1031
2026-04-24 11:00:00,METAR YSSY 241100Z AUTO 23006KT 9999 // FEW055 18/16 Q1032
2026-04-24 10:30:00,METAR YSSY 241030Z AUTO 23007KT 9999 // FEW049 BKN055 18/17 Q1032
2026-04-24 10:00:00,METAR YSSY 241000Z AUTO 22008KT 9999 // NCD 18/17 Q1031
2026-04-24 09:30:00,METAR YSSY 240930Z AUTO 24007KT 9999 // FEW025 SCT033 BKN046 18/16 Q1031
2026-04-24 09:00:00,METAR YSSY 240900Z AUTO 18005KT 9999 // SCT029 BKN035 BKN049 19/17 Q1031
2026-04-24 08:30:00,METAR YSSY 240830Z AUTO 16007KT 9999 // NCD 18/17 Q1031
2026-04-24 08:00:00,METAR YSSY 240800Z AUTO 21007KT 9999 // FEW069 18/17 Q1031
2026-04-24 07:30:00,METAR YSSY 240730Z AUTO 20008KT 9999 -SHRA FEW026 OVC066 18/16 Q1031 RESHRA
2026-04-24 07:01:00,SPECI YSSY 240701Z AUTO 12009KT 9999 SHRA BKN026 OVC041 OVC047 19/15 Q1031
2026-04-24 07:00:00,SPECI YSSY 240700Z AUTO 13009KT 9999 SHRA BKN026 OVC041 OVC047 19/15 Q1031
2026-04-24 06:44:00,SPECI YSSY 240644Z AUTO 16008KT 6000 DZ FEW028 BKN041 OVC051 20/15 Q1031
2026-04-24 06:30:00,METAR YSSY 240630Z AUTO 17009KT 9999 // SCT039 BKN052 OVC062 21/15 Q1031
2026-04-24 06:00:00,METAR YSSY 240600Z 15008KT 9999 -DZ VCSH FEW030 BKN046 21/15 Q1031
2026-04-24 05:30:00,METAR YSSY 240530Z 17009KT 9999 FEW028 BKN035 21/15 Q1031
2026-04-24 05:00:00,METAR YSSY 240500Z 17009KT 9999 FEW028 BKN035 21/15 Q1031
2026-04-24 04:30:00,METAR YSSY 240430Z 16009KT 9999 FEW033 BKN045 21/14 Q1031
2026-04-24 04:00:00,METAR YSSY 240400Z 16009KT 9999 FEW033 BKN037 21/14 Q1031
2026-04-24 03:30:00,METAR YSSY 240330Z 15009KT 9999 FEW035 BKN039 21/13 Q1031
2026-04-24 03:00:00,METAR YSSY 240300Z 16009KT 9999 FEW035 BKN040 21/14 Q1031
2026-04-24 02:30:00,METAR YSSY 240230Z 16009KT 9999 FEW040 BKN043 21/14 Q1031
2026-04-24 02:00:00,METAR YSSY 240200Z 16009KT 9999 FEW042 BKN060 21/12 Q1032
2026-04-24 01:30:00,METAR YSSY 240130Z 15009KT 9999 FEW040 BKN060 21/13 Q1032
2026-04-24 01:00:00,METAR YSSY 240100Z 13010KT 9999 SCT040 22/12 Q1032
2026-04-24 00:30:00,METAR YSSY 240030Z 14010KT 9999 SCT040 21/12 Q1032
2026-04-24 00:00:00,METAR YSSY 240000Z 14009KT 9999 FEW046 22/11 Q1033
2026-04-23 23:30:00,METAR YSSY 232330Z 13009KT 9999 FEW040 22/11 Q1032
2026-04-23 23:00:00,METAR YSSY 232300Z 19005KT 130V220 9999 FEW040 20/12 Q1032
2026-04-23 22:30:00,METAR YSSY 232230Z 26004KT 9999 FEW035 18/12 Q1032
2026-04-23 22:00:00,METAR YSSY 232200Z 29004KT 9999 FEW044 18/11 Q1032
2026-04-23 21:30:00,METAR YSSY 232130Z 31004KT 9999 FEW040 17/11 Q1032
2026-04-23 21:00:00,METAR YSSY 232100Z 30005KT 9999 FEW035 16/10 Q1032
2026-04-23 20:30:00,METAR YSSY 232030Z 30006KT 9999 FEW035 15/10 Q1031
2026-04-23 20:00:00,METAR YSSY 232000Z 33006KT 9999 FEW033 SCT070 16/10 Q1031
2026-04-23 19:30:00,METAR YSSY 231930Z 23005KT CAVOK 16/10 Q1031
2026-04-23 19:00:00,METAR YSSY 231900Z AUTO 24007KT 9999 // NCD 17/10 Q1030
2026-04-23 18:30:00,METAR YSSY 231830Z AUTO 16008KT 9999 // SCT049 BKN058 18/12 Q1030
2026-04-23 18:00:00,METAR YSSY 231800Z AUTO 16005KT 9999 // BKN049 OVC055 18/12 Q1030
2026-04-23 17:30:00,METAR YSSY 231730Z AUTO 21007KT 9999 // FEW049 OVC058 18/12 Q1030
2026-04-23 17:26:00,SPECI YSSY 231726Z AUTO 21007KT 9999 // FEW047 OVC058 18/12 Q1030
2026-04-23 17:00:00,METAR YSSY 231700Z AUTO 24007KT 9999 // BKN058 17/10 Q1030
2026-04-23 16:30:00,METAR YSSY 231630Z AUTO 24007KT 9999 // OVC058 18/11 Q1030
2026-04-23 16:00:00,METAR YSSY 231600Z AUTO 24006KT 9999 // OVC058 18/11 Q1030
2026-04-23 15:30:00,METAR YSSY 231530Z AUTO 21006KT 9999 // OVC060 18/12 Q1030
2026-04-23 15:00:00,METAR YSSY 231500Z AUTO 16008KT 9999 // OVC060 19/11 Q1030
2026-04-23 14:30:00,METAR YSSY 231430Z AUTO 15008KT 9999 // OVC060 19/11 Q1030
2026-04-23 14:00:00,METAR YSSY 231400Z AUTO 15009KT 9999 // OVC060 19/11 Q1030
2026-04-23 13:34:00,SPECI YSSY 231334Z AUTO 17008KT 9999 // OVC060 19/10 Q1030
2026-04-23 13:33:00,SPECI YSSY 231333Z AUTO 17008KT 9999 // OVC060 19/10 Q1030
2026-04-23 13:00:00,METAR YSSY 231300Z AUTO 15009KT 9999 // OVC060 20/09 Q1030
2026-04-23 12:30:00,METAR YSSY 231230Z AUTO 13009KT 9999 // OVC062 19/10 Q1030
2026-04-23 12:00:00,METAR YSSY 231200Z AUTO 13008KT 9999 // OVC062 19/11 Q1030
2026-04-23 11:30:00,METAR YSSY 231130Z AUTO 15009KT 9999 // OVC062 20/11 Q1030
2026-04-23 11:00:00,METAR YSSY 231100Z AUTO 14009KT 9999 // OVC062 19/12 Q1030
2026-04-23 10:30:00,METAR YSSY 231030Z AUTO 13011KT 9999 // OVC062 19/12 Q1030
2026-04-23 10:00:00,METAR YSSY 231000Z AUTO 13010KT 9999 // FEW062 19/11 Q1030
2026-04-23 09:30:00,METAR YSSY 230930Z AUTO 13010KT 9999 // NCD 19/10 Q1030
2026-04-23 09:00:00,METAR YSSY 230900Z AUTO 13011KT 9999 // SCT053 19/10 Q1030
2026-04-23 08:30:00,METAR YSSY 230830Z AUTO 16008KT 9999 // FEW049 19/11 Q1029
2026-04-23 08:00:00,METAR YSSY 230800Z AUTO 16009KT 9999 // NCD 19/11 Q1029
2026-04-23 07:30:00,METAR YSSY 230730Z AUTO 15009KT 9999 // NCD 20/11 Q1029
2026-04-23 07:00:00,METAR YSSY 230700Z AUTO 15010KT 9999 // NCD 20/11 Q1029
2026-04-23 06:30:00,METAR YSSY 230630Z AUTO 15008KT 9999 // NCD 21/10 Q1029
2026-04-23 06:00:00,METAR YSSY 230600Z 16010KT 9999 FEW047 21/10 Q1029
2026-04-23 05:30:00,METAR YSSY 230530Z 15009KT 9999 FEW047 21/11 Q1029
2026-04-23 05:00:00,METAR YSSY 230500Z 16010KT 9999 FEW047 SCT065 21/12 Q1029
2026-04-23 04:30:00,METAR YSSY 230430Z 16010KT 9999 FEW047 BKN280 21/11 Q1029
2026-04-23 04:00:00,METAR YSSY 230400Z 15011KT 9999 FEW047 BKN280 22/10 Q1029
2026-04-23 03:30:00,METAR YSSY 230330Z 15011KT 9999 FEW047 SCT280 22/11 Q1029
2026-04-23 03:00:00,METAR YSSY 230300Z 14011KT 9999 FEW045 SCT280 22/10 Q1029
2026-04-23 02:30:00,METAR YSSY 230230Z 14012KT 9999 FEW045 SCT280 22/10 Q1029
2026-04-23 02:00:00,METAR YSSY 230200Z 14010KT 9999 FEW045 23/09 Q1029
2026-04-23 01:30:00,METAR YSSY 230130Z 14011KT 9999 FEW045 BKN060 21/09 Q1029
2026-04-23 01:00:00,METAR YSSY 230100Z 14011KT 9999 FEW045 BKN060 21/09 Q1029
2026-04-23 00:30:00,METAR YSSY 230030Z 16011KT 9999 FEW045 BKN058 21/12 Q1029
2026-04-23 00:00:00,METAR YSSY 230000Z 16010KT 9999 FEW040 BKN056 20/11 Q1029
2026-04-22 23:30:00,METAR YSSY 222330Z 16009KT 9999 FEW040 BKN056 20/12 Q1029
2026-04-22 23:00:00,METAR YSSY 222300Z 15009KT 9999 FEW045 BKN053 20/11 Q1029
2026-04-22 22:30:00,METAR YSSY 222230Z 12006KT 9999 FEW035 BKN053 20/09 Q1029
2026-04-22 22:00:00,METAR YSSY 222200Z 15010KT 9999 FEW035 BKN056 20/08 Q1029
2026-04-22 21:30:00,METAR YSSY 222130Z 15006KT 9999 FEW035 BKN056 18/11 Q1028
2026-04-22 21:00:00,METAR YSSY 222100Z 28003KT 9999 FEW035 BKN056 17/11 Q1028
2026-04-22 20:30:00,METAR YSSY 222030Z 27003KT 9999 FEW030 BKN057 17/11 Q1028
2026-04-22 20:00:00,METAR YSSY 222000Z 04002KT CAVOK 16/11 Q1028
2026-04-22 19:30:00,METAR YSSY 221930Z AUTO 34003KT 9999 // BKN059 16/11 Q1028
2026-04-22 19:00:00,METAR YSSY 221900Z AUTO 35006KT 9999 // OVC061 15/11 Q1027
2026-04-22 18:30:00,METAR YSSY 221830Z AUTO 35005KT 9999 // OVC059 15/11 Q1027
2026-04-22 18:00:00,METAR YSSY 221800Z AUTO 36005KT 9999 // FEW050 OVC061 15/11 Q1027
2026-04-22 17:30:00,METAR YSSY 221730Z AUTO 35006KT 9999 // BKN061 15/11 Q1027
2026-04-22 17:00:00,METAR YSSY 221700Z AUTO 33005KT 9999 // FEW049 OVC059 15/10 Q1027
2026-04-22 16:30:00,METAR YSSY 221630Z AUTO 35006KT 9999 // SCT045 BKN057 15/10 Q1027
2026-04-22 16:00:00,METAR YSSY 221600Z AUTO 31005KT 9999 // NCD 14/09 Q1027
2026-04-22 15:30:00,METAR YSSY 221530Z AUTO 25006KT 9999 // NCD 15/10 Q1027
2026-04-22 15:00:00,METAR YSSY 221500Z AUTO 22006KT 180V240 9999 // FEW056 16/10 Q1027
2026-04-22 14:30:00,METAR YSSY 221430Z AUTO 20005KT 170V230 9999 // FEW045 BKN061 17/11 Q1027
2026-04-22 14:00:00,METAR YSSY 221400Z AUTO 16008KT 9999 // OVC063 17/10 Q1027
2026-04-22 13:30:00,METAR YSSY 221330Z AUTO 17009KT 9999 // NCD 17/10 Q1027
2026-04-22 13:03:00,SPECI YSSY 221303Z AUTO 16008KT 9999 // NCD 18/10 Q1027
2026-04-22 13:02:00,SPECI YSSY 221302Z AUTO 16008KT 9999 // NCD 18/10 Q1027
2026-04-22 12:30:00,METAR YSSY 221230Z AUTO 17009KT 9999 // FEW058 19/10 Q1028
2026-04-22 12:00:00,METAR YSSY 221200Z AUTO 16010KT 9999 // BKN062 19/10 Q1028
2026-04-22 11:30:00,METAR YSSY 221130Z AUTO 17011KT 9999 // SCT064 19/10 Q1028
2026-04-22 11:00:00,METAR YSSY 221100Z AUTO 16009KT 9999 // SCT066 19/10 Q1028
2026-04-22 10:30:00,METAR YSSY 221030Z AUTO 16009KT 9999 // BKN064 19/09 Q1028
2026-04-22 10:00:00,METAR YSSY 221000Z AUTO 15011KT 9999 // NCD 19/09 Q1027
2026-04-22 09:30:00,METAR YSSY 220930Z AUTO 14012KT 9999 // SCT063 19/09 Q1027
2026-04-22 09:00:00,METAR YSSY 220900Z AUTO 15011KT 9999 // OVC063 19/11 Q1027
2026-04-22 08:30:00,METAR YSSY 220830Z AUTO 15011KT 9999 // OVC061 19/11 Q1027
2026-04-22 08:00:00,METAR YSSY 220800Z AUTO 15013KT 9999 // OVC061 19/12 Q1026
2026-04-22 07:30:00,METAR YSSY 220730Z AUTO 15011KT 9999 // SCT037 OVC061 19/12 Q1026
2026-04-22 07:00:00,METAR YSSY 220700Z AUTO 17010KT 9999 // BKN061 19/11 Q1026
2026-04-22 06:30:00,METAR YSSY 220630Z AUTO 17011KT 9999 // FEW036 BKN057 20/12 Q1026
2026-04-22 06:00:00,METAR YSSY 220600Z 16011KT 9999 FEW037 20/11 Q1026
2026-04-22 05:30:00,METAR YSSY 220530Z 17012KT 9999 FEW037 20/12 Q1026
2026-04-22 05:00:00,METAR YSSY 220500Z 16012KT 9999 FEW037 20/12 Q1026
2026-04-22 04:30:00,METAR YSSY 220430Z 15013KT 9999 FEW037 21/11 Q1026
2026-04-22 04:00:00,METAR YSSY 220400Z 15012KT 9999 FEW037 21/12 Q1026
2026-04-22 03:30:00,METAR YSSY 220330Z 17014KT 9999 FEW037 20/13 Q1026
2026-04-22 03:00:00,METAR YSSY 220300Z 17013KT 9999 FEW045 SCT065 20/12 Q1026
2026-04-22 02:30:00,METAR YSSY 220230Z 15012KT 9999 FEW045 BKN065 22/08 Q1026
2026-04-22 02:00:00,METAR YSSY 220200Z 16012KT 9999 FEW045 BKN065 22/09 Q1026
2026-04-22 01:30:00,METAR YSSY 220130Z 15012KT 9999 FEW043 BKN065 22/09 Q1027
2026-04-22 01:00:00,METAR YSSY 220100Z 15013KT 9999 SCT043 BKN060 20/10 Q1027
2026-04-22 00:30:00,METAR YSSY 220030Z 16011KT 9999 VCSH SCT045 BKN060 20/09 Q1027
2026-04-22 00:00:00,METAR YSSY 220000Z 17011KT 9999 VCSH FEW042 BKN060 20/10 Q1027
2026-04-21 23:30:00,METAR YSSY 212330Z 16010KT 9999 FEW042 BKN060 20/12 Q1027
2026-04-21 23:00:00,METAR YSSY 212300Z 17009KT 9999 FEW040 BKN060 20/12 Q1027
2026-04-21 22:30:00,METAR YSSY 212230Z 16011KT 9999 FEW040 BKN060 20/08 Q1027
2026-04-21 22:00:00,METAR YSSY 212200Z 15011KT 9999 FEW035 BKN060 19/10 Q1027
2026-04-21 21:30:00,METAR YSSY 212130Z 16010KT 9999 FEW035 BKN060 19/10 Q1026
2026-04-21 21:00:00,METAR YSSY 212100Z 16011KT 9999 FEW030 BKN060 19/11 Q1026
2026-04-21 20:33:00,SPECI YSSY 212033Z AUTO 15013KT 9999 // OVC062 19/11 Q1026
2026-04-21 20:30:00,METAR YSSY 212030Z 15013KT 9999 FEW030 BKN060 19/11 Q1026
2026-04-21 20:00:00,METAR YSSY 212000Z 15011KT 9999 FEW035 BKN060 19/10 Q1025
2026-04-21 19:30:00,METAR YSSY 211930Z AUTO 14012KT 9999 // OVC062 19/11 Q1025
2026-04-21 19:00:00,METAR YSSY 211900Z AUTO 14012KT 9999 // SCT047 OVC058 19/10 Q1025
2026-04-21 18:30:00,METAR YSSY 211830Z AUTO 15012KT 9999 // FEW049 OVC062 18/10 Q1025
2026-04-21 18:00:00,METAR YSSY 211800Z AUTO 17012KT 9999 // OVC064 18/12 Q1025
2026-04-21 17:30:00,METAR YSSY 211730Z AUTO 15015KT 9999 // FEW034 OVC061 18/12 Q1025
2026-04-21 17:00:00,METAR YSSY 211700Z AUTO 16011KT 9999 // OVC060 18/11 Q1025
2026-04-21 16:30:00,METAR YSSY 211630Z AUTO 17012KT 9999 // OVC060 18/11 Q1025
2026-04-21 16:00:00,METAR YSSY 211600Z AUTO 16012KT 9999 // FEW031 BKN054 OVC062 18/12 Q1025
2026-04-21 15:30:00,METAR YSSY 211530Z AUTO 27007KT 9999 // FEW038 SCT044 BKN057 17/12 Q1026
2026-04-21 15:00:00,METAR YSSY 211500Z AUTO 16013KT 9999 // BKN043 18/11 Q1026
2026-04-21 14:30:00,METAR YSSY 211430Z AUTO 19007KT 9999 // FEW037 OVC053 18/13 Q1026
2026-04-21 14:00:00,METAR YSSY 211400Z AUTO 14008KT 9999 DZ FEW029 SCT035 BKN043 17/13 Q1026
2026-04-21 13:31:00,SPECI YSSY 211331Z AUTO 17015G26KT 9999 // BKN048 OVC059 18/13 Q1026
2026-04-21 13:00:00,METAR YSSY 211300Z AUTO 13018KT 9999 // SCT044 OVC052 17/12 Q1027
2026-04-21 12:30:00,METAR YSSY 211230Z AUTO 16015KT 9999 // OVC052 18/12 Q1026
2026-04-21 12:00:00,METAR YSSY 211200Z AUTO 15017KT 9999 // SCT037 OVC056 18/13 Q1026
2026-04-21 11:30:00,METAR YSSY 211130Z AUTO 15011KT 9999 // FEW031 SCT053 BKN062 18/13 Q1026
2026-04-21 11:00:00,METAR YSSY 211100Z AUTO 16015KT 9999 // SCT031 SCT038 BKN061 18/13 Q1026
2026-04-21 10:30:00,METAR YSSY 211030Z AUTO 17013KT 9999 // SCT040 BKN062 18/13 Q1026
2026-04-21 10:00:00,METAR YSSY 211000Z AUTO 17012KT 9999 // FEW040 19/13 Q1026
2026-04-21 09:30:00,METAR YSSY 210930Z AUTO 16015KT 9999 // FEW038 SCT043 BKN053 19/12 Q1026
2026-04-21 09:00:00,METAR YSSY 210900Z AUTO 17014KT 9999 // SCT041 BKN048 OVC056 19/11 Q1026
2026-04-21 08:30:00,METAR YSSY 210830Z AUTO 17014KT 9999 // SCT036 BKN047 OVC058 19/13 Q1026
2026-04-21 08:00:00,METAR YSSY 210800Z AUTO 17014KT 9999 // BKN036 OVC045 18/14 Q1026
2026-04-21 07:30:00,METAR YSSY 210730Z AUTO 17014KT 9999 // BKN038 OVC044 OVC056 18/14 Q1026
2026-04-21 07:00:00,METAR YSSY 210700Z AUTO 17014KT 9999 // BKN038 BKN043 OVC054 19/14 Q1026
2026-04-21 06:30:00,METAR YSSY 210630Z AUTO 17013KT 9999 // BKN040 BKN047 OVC056 19/12 Q1025
2026-04-21 06:00:00,METAR YSSY 210600Z 18010KT 9999 BKN035 19/14 Q1026
2026-04-21 05:30:00,METAR YSSY 210530Z 17014KT 9999 -SHRA BKN033 19/14 Q1026
2026-04-21 05:00:00,METAR YSSY 210500Z 17008KT 9999 -SHRA BKN030 18/15 Q1026
2026-04-21 04:30:00,METAR YSSY 210430Z 19014KT 9999 -SHRA BKN030 18/15 Q1026
2026-04-21 04:00:00,METAR YSSY 210400Z 20014KT 9999 -SHRA BKN028 18/15 Q1026
2026-04-21 03:30:00,SPECI YSSY 210330Z 18015KT 8000 -SHRA BKN026 SCT060 17/14 Q1026
2026-04-21 03:25:00,SPECI YSSY 210325Z 17016KT 6000 SHRA BKN026 SCT060 18/15 Q1026 RESHRA
2026-04-21 03:00:00,METAR YSSY 210300Z 20015KT 9999 SHRA SCT028 SCT060 19/14 Q1026
2026-04-21 02:30:00,METAR YSSY 210230Z 20016KT 9999 VCSH SCT028 BKN060 20/14 Q1026
2026-04-21 02:00:00,METAR YSSY 210200Z 19014KT 9999 FEW030 BKN060 20/14 Q1027
2026-04-21 01:30:00,METAR YSSY 210130Z 19015KT 9999 VCSH FEW028 BKN055 20/15 Q1027
2026-04-21 01:00:00,METAR YSSY 210100Z 19016KT 9999 VCSH FEW020 SCT028 BKN048 18/14 Q1027
2026-04-21 00:30:00,METAR YSSY 210030Z 19016KT 9999 -SHRA SCT027 BKN055 19/14 Q1027
2026-04-21 00:00:00,METAR YSSY 210000Z 20011KT 9999 VCSH FEW025 BKN060 19/14 Q1028 RESHGR
2026-04-20 23:30:00,METAR YSSY 202330Z 21012KT 9999 -SHRA FEW025 BKN050 18/14 Q1028
2026-04-20 23:00:00,METAR YSSY 202300Z 23012KT 9999 VCSH SCT025 BKN055 18/13 Q1028
2026-04-20 22:30:00,METAR YSSY 202230Z 23014KT 9999 -SHRA SCT028 SCT055 17/13 Q1027
2026-04-20 22:00:00,METAR YSSY 202200Z 23009KT 9999 VCSH SCT028 SCT055 17/12 Q1027
2026-04-20 21:30:00,METAR YSSY 202130Z 25009KT 9999 -SHRA SCT032 SCT055 17/12 Q1027
2026-04-20 21:00:00,METAR YSSY 202100Z 25008KT 9999 FEW035 SCT055 16/12 Q1026
2026-04-20 20:30:00,METAR YSSY 202030Z 25011KT 9999 FEW035 BKN055 16/12 Q1026
2026-04-20 20:00:00,METAR YSSY 202000Z 24009KT 9999 FEW032 BKN055 16/12 Q1026
2026-04-20 19:30:00,METAR YSSY 201930Z AUTO 24011KT 9999 // BKN059 16/11 Q1026
2026-04-20 19:00:00,METAR YSSY 201900Z AUTO 25011KT 9999 // FEW045 OVC059 16/12 Q1026
2026-04-20 18:30:00,METAR YSSY 201830Z AUTO 26011KT 9999 // SCT054 BKN063 16/11 Q1025
2026-04-20 18:00:00,METAR YSSY 201800Z AUTO 25010KT 9999 // OVC063 16/11 Q1025
2026-04-20 17:30:00,METAR YSSY 201730Z AUTO 25011KT 9999 // OVC059 16/12 Q1025
2026-04-20 17:23:00,SPECI YSSY 201723Z AUTO 25011KT 9999 // OVC057 16/12 Q1025
2026-04-20 17:00:00,METAR YSSY 201700Z AUTO 26012KT 9999 // BKN047 OVC056 16/12 Q1025
2026-04-20 16:30:00,METAR YSSY 201630Z AUTO 26009KT 9999 // SCT040 OVC059 16/12 Q1025
2026-04-20 16:00:00,METAR YSSY 201600Z AUTO 24007KT 9999 // BKN038 BKN046 OVC057 16/12 Q1025
2026-04-20 15:30:00,METAR YSSY 201530Z AUTO 25010KT 9999 // BKN035 BKN043 OVC054 17/11 Q1026
2026-04-20 15:00:00,METAR YSSY 201500Z AUTO 26011KT 9999 // SCT044 BKN055 17/11 Q1025
2026-04-20 14:30:00,METAR YSSY 201430Z AUTO 25011KT 9999 // BKN044 OVC057 17/11 Q1025
2026-04-20 14:00:00,METAR YSSY 201400Z AUTO 24010KT 9999 // SCT042 OVC055 17/12 Q1026
2026-04-20 13:30:00,METAR YSSY 201330Z AUTO 25010KT 9999 // SCT040 SCT049 OVC057 17/12 Q1026
2026-04-20 13:02:00,SPECI YSSY 201302Z AUTO 24010KT 9999 // BKN040 BKN046 OVC056 17/13 Q1026
2026-04-20 12:30:00,METAR YSSY 201230Z AUTO 22009KT 9999 -SHRA FEW032 BKN038 BKN046 17/13 Q1026
2026-04-20 12:00:00,METAR YSSY 201200Z AUTO 22007KT 9999 -SHRA BKN032 BKN049 BKN057 17/13 Q1026
2026-04-20 11:30:00,METAR YSSY 201130Z AUTO 23009G21KT 9999 -SHRA BKN032 BKN041 OVC057 17/13 Q1026
2026-04-20 11:00:00,METAR YSSY 201100Z AUTO 21012KT 9999 -SHRA SCT028 BKN035 BKN044 18/13 Q1026
2026-04-20 10:30:00,METAR YSSY 201030Z AUTO 21008KT 9999 -SHRA BKN030 BKN038 BKN046 17/13 Q1026
2026-04-20 10:00:00,METAR YSSY 201000Z AUTO 24010KT 9999 -SHRA BKN033 BKN043 BKN049 18/13 Q1025
2026-04-20 09:30:00,METAR YSSY 200930Z AUTO 17013KT 9999 -SHRA SCT033 BKN043 OVC061 19/14 Q1025
2026-04-20 09:00:00,METAR YSSY 200900Z AUTO 18013KT 9999 -SHRA BKN033 BKN039 BKN046 19/14 Q1025
2026-04-20 08:30:00,METAR YSSY 200830Z AUTO 17013KT 9999 // FEW035 BKN064 19/13 Q1024
2026-04-20 08:00:00,METAR YSSY 200800Z AUTO 17015KT 9999 DZ FEW025 SCT034 BKN043 19/14 Q1024
2026-04-20 07:30:00,METAR YSSY 200730Z AUTO 17015KT 9999 // SCT032 BKN043 OVC060 19/14 Q1024
2026-04-20 07:00:00,METAR YSSY 200700Z AUTO 19016KT 9999 // FEW034 SCT059 20/14 Q1024
2026-04-20 06:30:00,METAR YSSY 200630Z AUTO 19016KT 9999 // SCT061 19/13 Q1024
2026-04-20 06:00:00,METAR YSSY 200600Z 19018KT 9999 SCT033 20/13 Q1023
2026-04-20 05:31:00,SPECI YSSY 200531Z 18017G27KT 9999 SCT033 20/14 Q1024
2026-04-20 05:00:00,METAR YSSY 200500Z 18017KT 9999 FEW032 SCT046 20/14 Q1023
2026-04-20 04:30:00,METAR YSSY 200430Z 19018KT 9999 FEW030 SCT040 20/13 Q1023
2026-04-20 04:00:00,METAR YSSY 200400Z 19016KT 9999 FEW030 BKN035 20/14 Q1023
2026-04-20 03:30:00,METAR YSSY 200330Z 18016KT 9999 FEW033 SCT056 20/13 Q1023
2026-04-20 03:00:00,METAR YSSY 200300Z 19016KT 9999 FEW035 20/13 Q1024
2026-04-20 02:30:00,METAR YSSY 200230Z 19015KT 9999 SCT037 20/13 Q1024
2026-04-20 02:00:00,METAR YSSY 200200Z 19014KT 9999 SCT033 20/13 Q1024
2026-04-20 01:30:00,METAR YSSY 200130Z 20015KT 9999 FEW030 20/13 Q1025
2026-04-20 01:06:00,SPECI YSSY 200106Z 19015G29KT 9999 SCT030 20/14 Q1025
2026-04-20 01:00:00,METAR YSSY 200100Z 19014KT 9999 SCT030 20/13 Q1025
2026-04-20 00:30:00,METAR YSSY 200030Z 19015KT 9999 SCT027 19/13 Q1025
2026-04-20 00:00:00,METAR YSSY 200000Z 20015KT 9999 SCT028 19/14 Q1025
2026-04-19 23:49:00,SPECI YSSY 192349Z 19015KT 9999 SCT026 19/14 Q1025
2026-04-19 23:30:00,METAR YSSY 192330Z 28006KT 9999 SCT026 19/12 Q1025
2026-04-19 23:00:00,METAR YSSY 192300Z 30007KT 9999 FEW030 18/11 Q1025
2026-04-19 22:30:00,METAR YSSY 192230Z 31008KT 9999 FEW030 17/10 Q1025
2026-04-19 22:00:00,METAR YSSY 192200Z 31007KT 9999 FEW035 15/09 Q1024
2026-04-19 21:30:00,METAR YSSY 192130Z 31007KT 9999 FEW035 14/09 Q1024
2026-04-19 21:00:00,METAR YSSY 192100Z 30007KT 9999 FEW034 13/09 Q1023
2026-04-19 20:30:00,METAR YSSY 192030Z 32008KT 9999 FEW030 12/09 Q1023
2026-04-19 20:00:00,METAR YSSY 192000Z 31006KT 9999 FEW018 12/09 Q1023
2026-04-19 19:30:00,METAR YSSY 191930Z 30008KT 9999 FEW030 12/09 Q1023
2026-04-19 19:00:00,METAR YSSY 191900Z AUTO 32007KT 9999 // NCD 12/09 Q1022
2026-04-19 18:30:00,METAR YSSY 191830Z AUTO 30006KT 9999 // NCD 12/09 Q1022
2026-04-19 18:15:00,SPECI YSSY 191815Z AUTO 29007KT 9999 // NCD 12/08 Q1022
2026-04-19 18:00:00,METAR YSSY 191800Z AUTO 30008KT 9999 // NCD 12/08 Q1022
2026-04-19 17:30:00,METAR YSSY 191730Z AUTO 31009KT 9999 // NCD 12/08 Q1022
2026-04-19 17:00:00,METAR YSSY 191700Z AUTO 32008KT 9999 // NCD 12/08 Q1022
2026-04-19 16:30:00,METAR YSSY 191630Z AUTO 31007KT 9999 // NCD 12/08 Q1022
2026-04-19 16:00:00,METAR YSSY 191600Z AUTO 31008KT 9999 // NCD 12/08 Q1022
2026-04-19 15:30:00,METAR YSSY 191530Z AUTO 31008KT 9999 // NCD 12/08 Q1022
2026-04-19 15:00:00,METAR YSSY 191500Z AUTO 31009KT 9999 // NCD 12/08 Q1022
2026-04-19 14:30:00,METAR YSSY 191430Z AUTO 32008KT 9999 // NCD 13/08 Q1022
2026-04-19 14:00:00,METAR YSSY 191400Z AUTO 31007KT 9999 // NCD 13/08 Q1022
2026-04-19 13:30:00,METAR YSSY 191330Z AUTO 29007KT 9999 // NCD 14/09 Q1022
2026-04-19 13:00:00,METAR YSSY 191300Z AUTO 28008KT 9999 // NCD 14/09 Q1022
2026-04-19 12:30:00,METAR YSSY 191230Z AUTO 28007KT 9999 // NCD 15/09 Q1022
2026-04-19 12:00:00,METAR YSSY 191200Z AUTO 26009KT 9999 // NCD 16/10 Q1022
2026-04-19 11:30:00,METAR YSSY 191130Z AUTO 23011KT 9999 // NCD 16/10 Q1022
2026-04-19 11:00:00,METAR YSSY 191100Z AUTO 20015KT 9999 // NCD 17/11 Q1022
2026-04-19 10:30:00,METAR YSSY 191030Z AUTO 18018KT 9999 // NCD 19/12 Q1022
2026-04-19 10:00:00,METAR YSSY 191000Z AUTO 18015KT 9999 // NCD 18/11 Q1021
2026-04-19 09:33:00,SPECI YSSY 190933Z AUTO 18016G26KT 9999 // NCD 19/12 Q1021
2026-04-19 09:28:00,SPECI YSSY 190928Z AUTO 18016G26KT 9999 // NCD 18/11 Q1021
2026-04-19 09:00:00,METAR YSSY 190900Z AUTO 18017KT 9999 // NCD 18/11 Q1021
2026-04-19 08:30:00,METAR YSSY 190830Z AUTO 17015KT 9999 // NCD 18/11 Q1021
2026-04-19 08:00:00,METAR YSSY 190800Z AUTO 17014KT 9999 // NCD 18/12 Q1021
2026-04-19 07:30:00,METAR YSSY 190730Z AUTO 17014KT 9999 // NCD 18/08 Q1021
2026-04-19 07:00:00,METAR YSSY 190700Z AUTO 17015KT 9999 // NCD 19/10 Q1021
2026-04-19 06:30:00,METAR YSSY 190630Z AUTO 17015KT 9999 // NCD 19/09 Q1020
2026-04-19 06:00:00,METAR YSSY 190600Z 17015KT CAVOK 19/10 Q1020
2026-04-19 05:30:00,METAR YSSY 190530Z 17015KT CAVOK 19/10 Q1020
2026-04-19 05:00:00,METAR YSSY 190500Z 17014KT CAVOK 19/09 Q1020
2026-04-19 04:30:00,METAR YSSY 190430Z 17014KT CAVOK 20/09 Q1020
2026-04-19 04:00:00,METAR YSSY 190400Z 17013KT CAVOK 19/08 Q1020
2026-04-19 03:30:00,METAR YSSY 190330Z 17014KT CAVOK 20/09 Q1020
2026-04-19 03:00:00,METAR YSSY 190300Z 17013KT CAVOK 20/08 Q1020
2026-04-19 02:30:00,METAR YSSY 190230Z 20007KT 160V220 CAVOK 20/06 Q1021
2026-04-19 02:00:00,METAR YSSY 190200Z 20008KT CAVOK 20/08 Q1021
2026-04-19 01:30:00,METAR YSSY 190130Z 23007KT CAVOK 19/07 Q1022
2026-04-19 01:00:00,METAR YSSY 190100Z 20012KT CAVOK 19/08 Q1022
2026-04-19 00:30:00,METAR YSSY 190030Z 20013KT CAVOK 19/07 Q1022
2026-04-19 00:00:00,METAR YSSY 190000Z 20014KT CAVOK 18/07 Q1022
2026-04-18 23:30:00,METAR YSSY 182330Z 21012KT 9999 FEW033 18/09 Q1022
2026-04-18 23:00:00,METAR YSSY 182300Z 29006KT 9999 FEW032 17/09 Q1022
2026-04-18 22:30:00,METAR YSSY 182230Z 31007KT 9999 FEW030 16/09 Q1022
2026-04-18 22:00:00,METAR YSSY 182200Z 30005KT 9999 FEW030 14/08 Q1022
2026-04-18 21:30:00,METAR YSSY 182130Z 31006KT 9999 FEW028 12/08 Q1022
2026-04-18 21:00:00,METAR YSSY 182100Z 31007KT 9999 FEW025 11/08 Q1022
2026-04-18 20:30:00,METAR YSSY 182030Z 31007KT 9999 FEW017 11/07 Q1021
2026-04-18 20:00:00,METAR YSSY 182000Z 32008KT 9999 FEW022 10/07 Q1021
2026-04-18 19:30:00,METAR YSSY 181930Z 31007KT 9999 FEW018 10/07 Q1021
2026-04-18 19:00:00,METAR YSSY 181900Z AUTO 30008KT 9999 // NCD 11/07 Q1020
2026-04-18 18:30:00,METAR YSSY 181830Z AUTO 33007KT 9999 // NCD 11/07 Q1020
2026-04-18 18:00:00,METAR YSSY 181800Z AUTO 34007KT 9999 // NCD 11/07 Q1020
2026-04-18 17:30:00,METAR YSSY 181730Z AUTO 32007KT 9999 // NCD 11/07 Q1020
2026-04-18 17:00:00,METAR YSSY 181700Z AUTO 31007KT 9999 // NCD 11/07 Q1020
2026-04-18 16:30:00,METAR YSSY 181630Z AUTO 31007KT 9999 // NCD 12/07 Q1020
2026-04-18 16:00:00,METAR YSSY 181600Z AUTO 32007KT 9999 // NCD 12/07 Q1020
2026-04-18 15:00:00,METAR YSSY 181500Z AUTO 32007KT 9999 // NCD 12/07 Q1020
2026-04-18 14:30:00,METAR YSSY 181430Z AUTO 33007KT 9999 // NCD 13/07 Q1020
2026-04-18 14:00:00,METAR YSSY 181400Z AUTO 33008KT 9999 // NCD 13/07 Q1020
2026-04-18 13:30:00,METAR YSSY 181330Z AUTO 33007KT 9999 // NCD 14/07 Q1020
2026-04-18 13:00:00,METAR YSSY 181300Z AUTO 32008KT 9999 // NCD 14/07 Q1020
2026-04-18 12:30:00,METAR YSSY 181230Z AUTO 29007KT 9999 // NCD 15/08 Q1020
2026-04-18 12:00:00,METAR YSSY 181200Z AUTO 27007KT 9999 // NCD 15/08 Q1020
2026-04-18 11:30:00,METAR YSSY 181130Z AUTO 25007KT 9999 // NCD 15/08 Q1020
2026-04-18 11:00:00,METAR YSSY 181100Z AUTO 26009KT 9999 // NCD 15/08 Q1020
2026-04-18 10:30:00,METAR YSSY 181030Z AUTO 25011KT 9999 // NCD 16/08 Q1020
2026-04-18 10:00:00,METAR YSSY 181000Z AUTO 19014KT 9999 // NCD 18/10 Q1020
2026-04-18 09:30:00,METAR YSSY 180930Z AUTO 18013KT 9999 // NCD 18/10 Q1020
2026-04-18 09:00:00,METAR YSSY 180900Z AUTO 17014KT 9999 // NCD 18/10 Q1019
2026-04-18 08:30:00,METAR YSSY 180830Z AUTO 17015KT 9999 // NCD 18/10 Q1019
2026-04-18 08:00:00,METAR YSSY 180800Z AUTO 17015KT 9999 // NCD 18/10 Q1019
2026-04-18 07:30:00,METAR YSSY 180730Z AUTO 16014KT 9999 // NCD 18/07 Q1018
2026-04-18 07:00:00,METAR YSSY 180700Z AUTO 16014KT 9999 // NCD 18/08 Q1018
2026-04-18 06:30:00,METAR YSSY 180630Z AUTO 16013KT 9999 // NCD 18/10 Q1018
2026-04-18 06:00:00,METAR YSSY 180600Z AUTO 17014KT 9999 // NCD 18/08 Q1018
2026-04-18 05:30:00,METAR YSSY 180530Z AUTO 18013KT 9999 // NCD 18/07 Q1018
2026-04-18 05:00:00,METAR YSSY 180500Z AUTO 17014KT 9999 // NCD 18/07 Q1018
2026-04-18 04:30:00,METAR YSSY 180430Z AUTO 17014KT 9999 // NCD 19/07 Q1018
2026-04-18 04:00:00,METAR YSSY 180400Z AUTO 17013KT 9999 // NCD 19/08 Q1018
2026-04-18 03:30:00,METAR YSSY 180330Z AUTO 17012KT 9999 // NCD 18/09 Q1018
2026-04-18 03:00:00,METAR YSSY 180300Z AUTO 17012KT 9999 // NCD 18/08 Q1018
2026-04-18 02:30:00,METAR YSSY 180230Z AUTO 17012KT 9999 // NCD 19/06 Q1018
2026-04-18 02:00:00,METAR YSSY 180200Z AUTO 17011KT 9999 // NCD 19/06 Q1019
2026-04-18 01:30:00,METAR YSSY 180130Z AUTO 18010KT 9999 // NCD 18/07 Q1019
2026-04-18 01:00:00,METAR YSSY 180100Z AUTO 16009KT 9999 // NCD 18/07 Q1019
2026-04-18 00:30:00,METAR YSSY 180030Z AUTO 21005KT 160V230 9999 // NCD 18/05 Q1019
2026-04-18 00:00:00,METAR YSSY 180000Z AUTO 24007KT 9999 // NCD 17/05 Q1019
2026-04-17 23:30:00,METAR YSSY 172330Z AUTO 24008KT 9999 // NCD 17/05 Q1019
2026-04-17 23:00:00,METAR YSSY 172300Z AUTO 25012KT 9999 // NCD 16/04 Q1019
2026-04-17 22:30:00,METAR YSSY 172230Z AUTO 24012KT 9999 // NCD 15/05 Q1019
2026-04-17 22:00:00,METAR YSSY 172200Z AUTO 24012KT 9999 // NCD 15/06 Q1019
2026-04-17 21:30:00,METAR YSSY 172130Z AUTO 25013KT 9999 // NCD 14/05 Q1018
2026-04-17 21:00:00,METAR YSSY 172100Z AUTO 25011KT 9999 // NCD 13/06 Q1018
2026-04-17 20:30:00,METAR YSSY 172030Z AUTO 23010KT 9999 // NCD 13/07 Q1017
2026-04-17 20:00:00,METAR YSSY 172000Z AUTO 26010KT 9999 // NCD 12/08 Q1017
2026-04-17 19:30:00,METAR YSSY 171930Z AUTO 25011KT 9999 // NCD 12/08 Q1017
2026-04-17 19:00:00,METAR YSSY 171900Z AUTO 25012KT 9999 // NCD 13/08 Q1017
2026-04-17 18:30:00,METAR YSSY 171830Z AUTO 26012KT 9999 // NCD 13/08 Q1017
2026-04-17 18:00:00,METAR YSSY 171800Z AUTO 25012KT 9999 // NCD 14/08 Q1017
2026-04-17 17:30:00,METAR YSSY 171730Z AUTO 25011KT 9999 // NCD 14/09 Q1016
2026-04-17 17:00:00,METAR YSSY 171700Z AUTO 24011KT 9999 // NCD 14/09 Q1016
2026-04-17 16:30:00,METAR YSSY 171630Z AUTO 25013KT 9999 // NCD 14/10 Q1016
2026-04-17 16:00:00,METAR YSSY 171600Z AUTO 25010KT 9999 // NCD 15/10 Q1017
2026-04-17 15:30:00,METAR YSSY 171530Z AUTO 24009KT 9999 // FEW055 15/11 Q1017
2026-04-17 15:00:00,METAR YSSY 171500Z AUTO 23008KT 9999 // FEW055 15/11 Q1017
2026-04-17 14:30:00,METAR YSSY 171430Z AUTO 21010KT 9999 // SCT055 16/12 Q1017
2026-04-17 14:00:00,METAR YSSY 171400Z AUTO 19014KT 9999 // NCD 17/12 Q1017
2026-04-17 13:30:00,METAR YSSY 171330Z AUTO 19016KT 9999 // NCD 17/12 Q1017
2026-04-17 13:00:00,METAR YSSY 171300Z AUTO 19020KT 9999 // FEW028 BKN071 17/12 Q1017
2026-04-17 12:30:00,METAR YSSY 171230Z AUTO 18025KT 9999 // OVC061 17/13 Q1017
2026-04-17 12:00:00,METAR YSSY 171200Z AUTO 18029KT 9999 // SCT035 SCT044 OVC061 17/13 Q1016
2026-04-17 11:52:00,SPECI YSSY 171152Z AUTO 18025G36KT 9999 // FEW037 SCT044 OVC061 19/12 Q1016
2026-04-17 11:30:00,METAR YSSY 171130Z AUTO 17024KT 9999 // SCT031 BKN057 OVC068 19/14 Q1016
2026-04-17 11:08:00,SPECI YSSY 171108Z AUTO 17024KT 9999 VCTS -SHRA SCT031 BKN039 BKN044 18/13 Q1016 RETS
2026-04-17 11:00:00,SPECI YSSY 171100Z AUTO 17027KT 9999 -TSRA SCT029 BKN036 BKN044 18/14 Q1015
2026-04-17 10:58:00,SPECI YSSY 171058Z AUTO 17027KT 9999 -TSRA SCT029 BKN039 BKN046 18/14 Q1015
2026-04-17 10:54:00,SPECI YSSY 171054Z AUTO 18027KT 9999 VCTS -RA FEW029 BKN039 OVC046 18/14 Q1015 RETS
2026-04-17 10:42:00,SPECI YSSY 171042Z AUTO 17023G33KT 9999 TS FEW023 BKN029 BKN036 19/14 Q1015
2026-04-17 10:38:00,SPECI YSSY 171038Z AUTO 17020KT 9999 TS FEW023 BKN029 BKN034 19/14 Q1015
2026-04-17 10:30:00,METAR YSSY 171030Z AUTO 17019KT 9999 // SCT025 BKN034 OVC041 19/14 Q1015
2026-04-17 10:12:00,SPECI YSSY 171012Z AUTO 16015G25KT 9999 // BKN025 OVC034 18/14 Q1015
2026-04-17 10:00:00,METAR YSSY 171000Z AUTO 16016KT 9999 // SCT027 OVC034 18/14 Q1015
2026-04-17 09:30:00,METAR YSSY 170930Z AUTO 16022KT 9999 VCTS BKN023 OVC030 19/14 Q1014
2026-04-17 09:00:00,METAR YSSY 170900Z AUTO 17022KT 9999 // SCT019 BKN026 BKN032 19/16 Q1013
2026-04-17 08:30:00,METAR YSSY 170830Z AUTO 17018KT 9999 // SCT021 BKN025 20/16 Q1013
2026-04-17 08:00:00,METAR YSSY 170800Z AUTO 17020KT 9999 // FEW021 SCT025 BKN035 20/17 Q1012
2026-04-17 07:30:00,METAR YSSY 170730Z AUTO 17018KT 9999 // FEW021 21/17 Q1011
2026-04-17 07:00:00,METAR YSSY 170700Z AUTO 17016KT 9999 // NCD 22/13 Q1010
2026-04-17 06:30:00,METAR YSSY 170630Z AUTO 20016KT 9999 // NCD 22/16 Q1010
2026-04-17 06:00:00,METAR YSSY 170600Z 32004KT 260V020 CAVOK 26/08 Q1009
2026-04-17 05:30:00,METAR YSSY 170530Z 33004KT 310V010 CAVOK 26/07 Q1009
2026-04-17 05:00:00,METAR YSSY 170500Z 18003KT CAVOK 27/08 Q1009
2026-04-17 04:30:00,METAR YSSY 170430Z 31005KT CAVOK 26/06 Q1009
2026-04-17 04:00:00,METAR YSSY 170400Z 31006KT 260V350 CAVOK 26/06 Q1010
2026-04-17 03:30:00,METAR YSSY 170330Z 28006KT CAVOK 25/06 Q1010
2026-04-17 03:00:00,METAR YSSY 170300Z 27007KT CAVOK 26/07 Q1010
2026-04-17 02:30:00,METAR YSSY 170230Z 27009KT CAVOK 26/06 Q1011
2026-04-17 02:00:00,METAR YSSY 170200Z 27010KT CAVOK 27/07 Q1011
2026-04-17 01:30:00,METAR YSSY 170130Z 28011KT CAVOK 26/06 Q1012
2026-04-17 01:00:00,METAR YSSY 170100Z 30008KT CAVOK 26/07 Q1012
2026-04-17 00:30:00,METAR YSSY 170030Z 30004KT 260V330 CAVOK 25/09 Q1013
2026-04-17 00:00:00,METAR YSSY 170000Z 30006KT CAVOK 24/09 Q1013
2026-04-16 23:30:00,METAR YSSY 162330Z 31006KT CAVOK 22/09 Q1013
2026-04-16 23:00:00,METAR YSSY 162300Z 32005KT CAVOK 20/10 Q1013
2026-04-16 22:30:00,METAR YSSY 162230Z 27004KT CAVOK 19/10 Q1014
2026-04-16 22:00:00,METAR YSSY 162200Z 31005KT CAVOK 18/10 Q1013
2026-04-16 21:30:00,METAR YSSY 162130Z 31005KT CAVOK 18/11 Q1013
2026-04-16 21:00:00,METAR YSSY 162100Z 33006KT CAVOK 17/11 Q1013
2026-04-16 20:30:00,METAR YSSY 162030Z 33005KT CAVOK 15/11 Q1013
2026-04-16 20:00:00,METAR YSSY 162000Z 24003KT CAVOK 15/10 Q1013
2026-04-16 19:48:00,SPECI YSSY 161948Z AUTO 29004KT 9999 // NCD 15/10 Q1013
2026-04-16 19:30:00,METAR YSSY 161930Z AUTO 31004KT 9999 // NCD 15/10 Q1012
2026-04-16 19:00:00,METAR YSSY 161900Z AUTO 30006KT 9999 // NCD 16/11 Q1012
2026-04-16 18:30:00,METAR YSSY 161830Z AUTO 32006KT 9999 // NCD 16/11 Q1012
2026-04-16 18:06:00,SPECI YSSY 161806Z AUTO 35007KT 9999 // NCD 16/11 Q1012
2026-04-16 18:00:00,METAR YSSY 161800Z AUTO 36006KT 9999 // NCD 16/12 Q1012
2026-04-16 17:30:00,METAR YSSY 161730Z AUTO 31007KT 9999 // NCD 16/11 Q1012
2026-04-16 17:00:00,METAR YSSY 161700Z AUTO 31005KT 9999 // NCD 16/10 Q1013
2026-04-16 16:30:00,METAR YSSY 161630Z AUTO 29006KT 250V330 9999 // NCD 16/11 Q1013
2026-04-16 16:00:00,METAR YSSY 161600Z AUTO 29006KT 9999 // NCD 17/12 Q1013
2026-04-16 15:30:00,METAR YSSY 161530Z AUTO 31006KT 9999 // NCD 18/13 Q1013
2026-04-16 15:00:00,METAR YSSY 161500Z AUTO 34007KT 9999 // NCD 18/13 Q1013
2026-04-16 14:30:00,METAR YSSY 161430Z AUTO 31005KT 9999 // NCD 18/14 Q1014
2026-04-16 14:00:00,METAR YSSY 161400Z AUTO 32007KT 9999 // NCD 18/14 Q1014
2026-04-16 13:30:00,METAR YSSY 161330Z AUTO 32005KT 9999 // NCD 19/15 Q1014
2026-04-16 13:08:00,SPECI YSSY 161308Z AUTO 31006KT 9999 // NCD 19/16 Q1014
2026-04-16 13:00:00,METAR YSSY 161300Z AUTO 33007KT 9999 // NCD 20/16 Q1014
2026-04-16 12:30:00,METAR YSSY 161230Z AUTO 31005KT 9999 // NCD 20/16 Q1014
2026-04-16 12:00:00,METAR YSSY 161200Z AUTO 30004KT 9999 // NCD 20/16 Q1014
2026-04-16 11:30:00,METAR YSSY 161130Z AUTO 27005KT 9999 // NCD 20/16 Q1015
2026-04-16 11:00:00,METAR YSSY 161100Z AUTO 28004KT 240V010 9999 // NCD 21/15 Q1014
2026-04-16 10:30:00,METAR YSSY 161030Z AUTO 01005KT 9999 // NCD 22/16 Q1014
2026-04-16 10:00:00,METAR YSSY 161000Z AUTO 02007KT 9999 // NCD 22/17 Q1014
2026-04-16 09:30:00,METAR YSSY 160930Z AUTO 02007KT 9999 // NCD 23/17 Q1014
2026-04-16 09:00:00,METAR YSSY 160900Z AUTO 02008KT 9999 // NCD 23/17 Q1014
2026-04-16 08:30:00,METAR YSSY 160830Z AUTO 03009KT 9999 // NCD 23/17 Q1014
2026-04-16 08:00:00,METAR YSSY 160800Z AUTO 04006KT 9999 // NCD 23/16 Q1014
2026-04-16 07:30:00,METAR YSSY 160730Z AUTO 03006KT 9999 // NCD 25/14 Q1013
2026-04-16 07:00:00,METAR YSSY 160700Z AUTO 01007KT 9999 // NCD 26/14 Q1013
2026-04-16 06:30:00,METAR YSSY 160630Z AUTO 03009KT 9999 // NCD 25/15 Q1013
2026-04-16 06:00:00,METAR YSSY 160600Z 04008KT CAVOK 26/14 Q1013
2026-04-16 05:30:00,METAR YSSY 160530Z 28004KT 240V340 CAVOK 27/11 Q1013
2026-04-16 05:00:00,METAR YSSY 160500Z 28005KT 220V360 CAVOK 28/07 Q1013
2026-04-16 04:30:00,METAR YSSY 160430Z 30007KT CAVOK 28/07 Q1014
2026-04-16 04:00:00,METAR YSSY 160400Z 32006KT CAVOK 28/07 Q1014
2026-04-16 03:30:00,METAR YSSY 160330Z 31007KT CAVOK 28/08 Q1014
2026-04-16 03:00:00,METAR YSSY 160300Z 33006KT 280V350 CAVOK 28/09 Q1015
2026-04-16 02:30:00,METAR YSSY 160230Z 31008KT CAVOK 27/10 Q1015
2026-04-16 02:00:00,METAR YSSY 160200Z 33006KT 290V360 CAVOK 27/11 Q1016
2026-04-16 01:30:00,METAR YSSY 160130Z 34008KT 300V010 CAVOK 25/13 Q1017
2026-04-16 01:00:00,METAR YSSY 160100Z 32008KT CAVOK 24/14 Q1017
2026-04-16 00:30:00,METAR YSSY 160030Z 31008KT CAVOK 23/13 Q1018
2026-04-16 00:00:00,METAR YSSY 160000Z 31009KT CAVOK 22/14 Q1018
2026-04-15 23:30:00,METAR YSSY 152330Z 31007KT CAVOK 21/14 Q1019
2026-04-15 23:00:00,METAR YSSY 152300Z 29008KT CAVOK 20/13 Q1019
2026-04-15 22:30:00,METAR YSSY 152230Z 31009KT CAVOK 19/13 Q1019
2026-04-15 22:00:00,METAR YSSY 152200Z 30008KT CAVOK 18/12 Q1019
2026-04-15 21:30:00,METAR YSSY 152130Z 31007KT CAVOK 17/13 Q1019
2026-04-15 21:00:00,METAR YSSY 152100Z 32006KT CAVOK 16/12 Q1019
2026-04-15 20:30:00,METAR YSSY 152030Z 32007KT CAVOK 16/13 Q1019
2026-04-15 20:00:00,METAR YSSY 152000Z 31007KT CAVOK 15/12 Q1018
2026-04-15 19:30:00,METAR YSSY 151930Z 32008KT CAVOK 15/12 Q1018
2026-04-15 19:00:00,METAR YSSY 151900Z AUTO 31006KT 9999 // NCD 15/12 Q1018
2026-04-15 18:30:00,METAR YSSY 151830Z AUTO 33007KT 9999 // NCD 16/12 Q1018
2026-04-15 18:00:00,METAR YSSY 151800Z AUTO 34006KT 9999 // NCD 16/12 Q1018
2026-04-15 17:30:00,METAR YSSY 151730Z AUTO 31006KT 9999 // NCD 16/12 Q1018
2026-04-15 17:00:00,METAR YSSY 151700Z AUTO 33006KT 9999 // NCD 16/12 Q1018
2026-04-15 16:30:00,METAR YSSY 151630Z AUTO 33006KT 9999 // NCD 16/13 Q1018
2026-04-15 16:00:00,METAR YSSY 151600Z AUTO 33006KT 9999 // NCD 16/12 Q1019
2026-04-15 15:30:00,METAR YSSY 151530Z AUTO 35007KT 9999 // NCD 17/13 Q1019
2026-04-15 15:00:00,METAR YSSY 151500Z AUTO 34005KT 9999 // NCD 17/13 Q1019
2026-04-15 14:30:00,METAR YSSY 151430Z AUTO 33006KT 9999 // NCD 18/13 Q1019
2026-04-15 14:00:00,METAR YSSY 151400Z AUTO 36006KT 9999 // NCD 18/13 Q1019
2026-04-15 13:30:00,METAR YSSY 151330Z AUTO 30005KT 9999 // NCD 18/14 Q1019
2026-04-15 13:00:00,METAR YSSY 151300Z AUTO 31006KT 9999 // SCT033 19/14 Q1020
2026-04-15 12:30:00,METAR YSSY 151230Z AUTO 28005KT 9999 // BKN026 BKN032 BKN039 19/14 Q1020
2026-04-15 12:00:00,METAR YSSY 151200Z AUTO 23005KT 190V250 9999 // FEW024 19/14 Q1020
2026-04-15 11:30:00,METAR YSSY 151130Z AUTO 17004KT 120V220 9999 // NCD 19/14 Q1020
2026-04-15 11:00:00,METAR YSSY 151100Z AUTO 00000KT 9999 // NCD 20/14 Q1019
2026-04-15 10:30:00,METAR YSSY 151030Z AUTO 00000KT 9999 // NCD 20/14 Q1019
2026-04-15 10:00:00,METAR YSSY 151000Z AUTO 12004KT 9999 // NCD 20/13 Q1019
2026-04-15 09:30:00,METAR YSSY 150930Z AUTO 12006KT 9999 // NCD 20/14 Q1019
2026-04-15 09:00:00,METAR YSSY 150900Z AUTO 12006KT 9999 // NCD 21/14 Q1018
2026-04-15 08:30:00,METAR YSSY 150830Z AUTO 12007KT 9999 // NCD 20/14 Q1018
2026-04-15 08:00:00,METAR YSSY 150800Z AUTO 13009KT 9999 // NCD 21/13 Q1018
2026-04-15 07:30:00,METAR YSSY 150730Z AUTO 14008KT 9999 // NCD 21/13 Q1017
2026-04-15 07:00:00,METAR YSSY 150700Z AUTO 13009KT 9999 // NCD 22/13 Q1017
2026-04-15 06:30:00,METAR YSSY 150630Z AUTO 13009KT 9999 // NCD 22/13 Q1017
2026-04-15 06:00:00,METAR YSSY 150600Z 13010KT CAVOK 23/12 Q1017
2026-04-15 05:30:00,METAR YSSY 150530Z 15009KT CAVOK 23/11 Q1017
2026-04-15 05:00:00,METAR YSSY 150500Z 14009KT CAVOK 23/12 Q1017
2026-04-15 04:30:00,METAR YSSY 150430Z 13011KT CAVOK 23/12 Q1017
2026-04-15 04:00:00,METAR YSSY 150400Z 13011KT CAVOK 23/11 Q1017
2026-04-15 03:30:00,METAR YSSY 150330Z 12011KT CAVOK 23/12 Q1017
2026-04-15 03:00:00,METAR YSSY 150300Z 12011KT CAVOK 24/11 Q1017
2026-04-15 02:30:00,METAR YSSY 150230Z 29010KT CAVOK 25/10 Q1018
2026-04-15 02:00:00,METAR YSSY 150200Z 25010G20KT CAVOK 24/10 Q1018
2026-04-15 01:30:00,METAR YSSY 150130Z 24010KT CAVOK 24/10 Q1018
2026-04-15 01:00:00,METAR YSSY 150100Z 25010KT CAVOK 23/11 Q1019
2026-04-15 00:30:00,METAR YSSY 150030Z 26012KT CAVOK 23/11 Q1019
2026-04-15 00:00:00,METAR YSSY 150000Z 27013KT CAVOK 21/11 Q1019
2026-04-14 23:30:00,METAR YSSY 142330Z 28009KT CAVOK 20/10 Q1019
2026-04-14 23:00:00,METAR YSSY 142300Z 27011KT CAVOK 20/10 Q1019
2026-04-14 22:30:00,METAR YSSY 142230Z 30008KT CAVOK 18/11 Q1019
2026-04-14 22:00:00,METAR YSSY 142200Z 31006KT CAVOK 16/11 Q1019
2026-04-14 21:30:00,METAR YSSY 142130Z 33005KT CAVOK 15/11 Q1019
2026-04-14 21:00:00,METAR YSSY 142100Z 31005KT CAVOK 14/10 Q1019
2026-04-14 20:30:00,METAR YSSY 142030Z 31009KT CAVOK 13/10 Q1019
2026-04-14 20:00:00,METAR YSSY 142000Z 30008KT CAVOK 13/10 Q1018
2026-04-14 19:30:00,METAR YSSY 141930Z 31009KT CAVOK 13/10 Q1018
2026-04-14 19:00:00,METAR YSSY 141900Z AUTO 30007KT 9999 // NCD 13/10 Q1018
2026-04-14 18:30:00,METAR YSSY 141830Z AUTO 30007KT 9999 // NCD 13/10 Q1018
2026-04-14 18:00:00,METAR YSSY 141800Z AUTO 31008KT 9999 // NCD 14/10 Q1018
2026-04-14 17:30:00,METAR YSSY 141730Z AUTO 32006KT 9999 // NCD 14/11 Q1018
2026-04-14 17:07:00,SPECI YSSY 141707Z AUTO 31006KT 9999 // NCD 15/11 Q1018
2026-04-14 17:00:00,METAR YSSY 141700Z AUTO 30006KT 9999 // NCD 15/11 Q1018
2026-04-14 16:30:00,METAR YSSY 141630Z AUTO 33006KT 9999 // NCD 15/11 Q1018
2026-04-14 16:00:00,METAR YSSY 141600Z AUTO 33004KT 9999 // NCD 15/11 Q1019
2026-04-14 15:30:00,METAR YSSY 141530Z AUTO 33006KT 9999 // NCD 16/12 Q1019
2026-04-14 15:00:00,METAR YSSY 141500Z AUTO 33006KT 9999 // NCD 16/12 Q1019
2026-04-14 14:30:00,METAR YSSY 141430Z AUTO 35006KT 9999 // NCD 17/12 Q1019
2026-04-14 14:00:00,METAR YSSY 141400Z AUTO 34005KT 9999 // NCD 17/12 Q1019
2026-04-14 13:30:00,METAR YSSY 141330Z AUTO 33006KT 9999 // NCD 17/13 Q1020
2026-04-14 13:05:00,SPECI YSSY 141305Z AUTO 30006KT 9999 // NCD 17/13 Q1020
2026-04-14 13:04:00,SPECI YSSY 141304Z AUTO 30005KT 9999 // NCD 17/13 Q1020
2026-04-14 12:30:00,METAR YSSY 141230Z AUTO 29005KT 9999 // NCD 18/13 Q1020
2026-04-14 12:00:00,METAR YSSY 141200Z AUTO 26005KT 9999 // NCD 18/13 Q1020
2026-04-14 11:30:00,METAR YSSY 141130Z AUTO 05002KT 9999 // NCD 19/13 Q1020
2026-04-14 11:00:00,METAR YSSY 141100Z AUTO 05003KT 9999 // NCD 20/13 Q1020
2026-04-14 10:30:00,METAR YSSY 141030Z AUTO 00000KT 9999 // NCD 19/13 Q1020
2026-04-14 10:00:00,METAR YSSY 141000Z AUTO 05003KT 9999 // NCD 19/13 Q1020
2026-04-14 09:30:00,METAR YSSY 140930Z AUTO 05002KT 9999 // NCD 19/12 Q1019
2026-04-14 09:00:00,METAR YSSY 140900Z AUTO 04005KT 9999 // NCD 20/12 Q1019
2026-04-14 08:30:00,METAR YSSY 140830Z AUTO 06005KT 9999 // NCD 20/12 Q1018
2026-04-14 08:00:00,METAR YSSY 140800Z AUTO 05007KT 9999 // NCD 20/12 Q1018
2026-04-14 07:30:00,METAR YSSY 140730Z AUTO 05008KT 9999 // NCD 20/12 Q1018
2026-04-14 07:00:00,METAR YSSY 140700Z AUTO 07009KT 9999 // NCD 21/11 Q1018
2026-04-14 06:30:00,METAR YSSY 140630Z AUTO 08009KT 9999 // NCD 22/10 Q1018
2026-04-14 06:00:00,METAR YSSY 140600Z 08010KT CAVOK 22/10 Q1018
2026-04-14 05:30:00,METAR YSSY 140530Z 09009KT CAVOK 22/10 Q1018
2026-04-14 05:00:00,METAR YSSY 140500Z 12009KT CAVOK 23/09 Q1018
2026-04-14 04:30:00,METAR YSSY 140430Z 13009KT CAVOK 23/09 Q1018
2026-04-14 04:00:00,METAR YSSY 140400Z 13010KT CAVOK 23/09 Q1018
2026-04-14 03:30:00,METAR YSSY 140330Z 12009KT CAVOK 23/09 Q1019
2026-04-14 03:00:00,METAR YSSY 140300Z 15008KT CAVOK 22/10 Q1019
2026-04-14 02:30:00,METAR YSSY 140230Z 16007KT CAVOK 23/08 Q1020
2026-04-14 02:00:00,METAR YSSY 140200Z 14005KT CAVOK 22/09 Q1020
2026-04-14 01:30:00,METAR YSSY 140130Z 06004KT CAVOK 22/09 Q1020
2026-04-14 01:00:00,METAR YSSY 140100Z 24005KT 200V270 CAVOK 21/09 Q1021
2026-04-14 00:30:00,METAR YSSY 140030Z 29004KT 250V340 CAVOK 21/08 Q1021
2026-04-14 00:00:00,METAR YSSY 140000Z 27005KT CAVOK 21/08 Q1021
2026-04-13 23:30:00,METAR YSSY 132330Z 28006KT CAVOK 20/08 Q1021
2026-04-13 23:00:00,METAR YSSY 132300Z 27007KT CAVOK 18/09 Q1021
2026-04-13 22:30:00,METAR YSSY 132230Z 27007KT CAVOK 18/09 Q1021
2026-04-13 22:00:00,METAR YSSY 132200Z 27007KT CAVOK 17/09 Q1020
2026-04-13 21:30:00,METAR YSSY 132130Z 25011KT CAVOK 15/08 Q1020
2026-04-13 21:00:00,METAR YSSY 132100Z 26012KT CAVOK 14/08 Q1020
2026-04-13 20:30:00,METAR YSSY 132030Z 27011KT CAVOK 14/08 Q1020
2026-04-13 20:00:00,METAR YSSY 132000Z 28013KT CAVOK 14/08 Q1020
2026-04-13 19:30:00,METAR YSSY 131930Z 27013KT CAVOK 14/08 Q1019
2026-04-13 19:00:00,METAR YSSY 131900Z AUTO 28011KT 9999 // NCD 14/08 Q1019
2026-04-13 18:30:00,METAR YSSY 131830Z AUTO 28008KT 9999 // NCD 14/08 Q1019
2026-04-13 18:00:00,METAR YSSY 131800Z AUTO 29008KT 9999 // NCD 14/08 Q1019
2026-04-13 17:39:00,SPECI YSSY 131739Z AUTO 29009KT 9999 // NCD 14/08 Q1019
2026-04-13 17:30:00,METAR YSSY 131730Z AUTO 30009KT 9999 // NCD 14/07 Q1019
2026-04-13 17:00:00,METAR YSSY 131700Z AUTO 31009KT 9999 // NCD 14/08 Q1019
2026-04-13 16:30:00,METAR YSSY 131630Z AUTO 31006KT 9999 // NCD 15/08 Q1019
2026-04-13 16:00:00,METAR YSSY 131600Z AUTO 29006KT 9999 // NCD 15/08 Q1019
2026-04-13 15:30:00,METAR YSSY 131530Z AUTO 30008KT 9999 // NCD 15/08 Q1019
2026-04-13 15:00:00,METAR YSSY 131500Z AUTO 27008KT 9999 // NCD 16/07 Q1019
2026-04-13 14:30:00,METAR YSSY 131430Z AUTO 26007KT 9999 // NCD 16/08 Q1019
2026-04-13 14:00:00,METAR YSSY 131400Z AUTO 25008KT 9999 // NCD 17/07 Q1019
2026-04-13 13:30:00,METAR YSSY 131330Z AUTO 28007KT 9999 // NCD 17/08 Q1019
2026-04-13 13:11:00,SPECI YSSY 131311Z AUTO 26012KT 9999 // NCD 17/08 Q1019
2026-04-13 13:00:00,METAR YSSY 131300Z AUTO 30008KT 9999 // NCD 17/07 Q1019
2026-04-13 12:30:00,METAR YSSY 131230Z AUTO 28009KT 9999 // NCD 18/08 Q1019
2026-04-13 12:00:00,METAR YSSY 131200Z AUTO 27010KT 9999 // NCD 17/08 Q1019
2026-04-13 11:30:00,METAR YSSY 131130Z AUTO 27007KT 9999 // NCD 18/08 Q1019
2026-04-13 11:00:00,METAR YSSY 131100Z AUTO 28009KT 9999 // NCD 18/07 Q1019
2026-04-13 10:30:00,METAR YSSY 131030Z AUTO 27009KT 9999 // NCD 19/08 Q1018
2026-04-13 10:00:00,METAR YSSY 131000Z AUTO 32008KT 9999 // NCD 20/09 Q1018
2026-04-13 09:30:00,METAR YSSY 130930Z AUTO 36006KT 9999 // NCD 20/09 Q1018
2026-04-13 09:00:00,METAR YSSY 130900Z AUTO 01006KT 9999 // NCD 21/09 Q1018
2026-04-13 08:30:00,METAR YSSY 130830Z AUTO 01005KT 9999 // NCD 21/08 Q1017
2026-04-13 08:00:00,METAR YSSY 130800Z AUTO 05006KT 9999 // NCD 20/08 Q1017
2026-04-13 07:30:00,METAR YSSY 130730Z AUTO 05005KT 9999 // NCD 20/08 Q1017
2026-04-13 07:00:00,METAR YSSY 130700Z AUTO 13004KT 9999 // NCD 21/06 Q1017
2026-04-13 06:30:00,METAR YSSY 130630Z AUTO 12004KT 9999 // NCD 22/07 Q1016
2026-04-13 06:00:00,METAR YSSY 130600Z 12005KT CAVOK 21/07 Q1016
2026-04-13 05:30:00,METAR YSSY 130530Z 13005KT 100V160 CAVOK 21/07 Q1016
2026-04-13 05:00:00,METAR YSSY 130500Z 17008KT CAVOK 21/08 Q1016
2026-04-13 04:30:00,METAR YSSY 130430Z 16010KT CAVOK 21/10 Q1016
2026-04-13 04:00:00,METAR YSSY 130400Z 15010KT CAVOK 22/07 Q1016
2026-04-13 03:30:00,METAR YSSY 130330Z 16008KT CAVOK 21/07 Q1016
2026-04-13 03:00:00,METAR YSSY 130300Z 17009KT CAVOK 21/06 Q1017
2026-04-13 02:30:00,METAR YSSY 130230Z 17010KT CAVOK 21/05 Q1017
2026-04-13 02:00:00,METAR YSSY 130200Z 21010KT CAVOK 20/08 Q1017
2026-04-13 01:30:00,METAR YSSY 130130Z 21010KT CAVOK 20/06 Q1017
2026-04-13 01:00:00,METAR YSSY 130100Z 22010KT 160V240 CAVOK 20/07 Q1018
2026-04-13 00:30:00,METAR YSSY 130030Z 24014KT CAVOK 19/06 Q1018
2026-04-13 00:00:00,METAR YSSY 130000Z 24013KT CAVOK 19/07 Q1018
2026-04-12 23:30:00,METAR YSSY 122330Z 25016KT CAVOK 18/07 Q1018
2026-04-12 23:00:00,METAR YSSY 122300Z 25016KT CAVOK 17/07 Q1018
2026-04-12 22:30:00,METAR YSSY 122230Z 25017KT CAVOK 17/06 Q1017
2026-04-12 22:00:00,METAR YSSY 122200Z 25015KT CAVOK 16/06 Q1017
2026-04-12 21:30:00,METAR YSSY 122130Z 25017KT CAVOK 15/06 Q1017
2026-04-12 21:00:00,METAR YSSY 122100Z 25015KT CAVOK 14/06 Q1017
2026-04-12 20:30:00,METAR YSSY 122030Z 25013KT CAVOK 14/06 Q1016
2026-04-12 20:00:00,METAR YSSY 122000Z 25012KT CAVOK 13/06 Q1016
2026-04-12 19:30:00,METAR YSSY 121930Z AUTO 25013KT 9999 // NCD 13/05 Q1016
2026-04-12 19:00:00,METAR YSSY 121900Z AUTO 26013KT 9999 // NCD 13/05 Q1015
2026-04-12 18:30:00,METAR YSSY 121830Z AUTO 26014KT 9999 // NCD 13/05 Q1015
2026-04-12 18:00:00,METAR YSSY 121800Z AUTO 26012KT 9999 // NCD 13/05 Q1015
2026-04-12 17:30:00,METAR YSSY 121730Z AUTO 26013KT 9999 // NCD 13/05 Q1014
2026-04-12 17:00:00,METAR YSSY 121700Z AUTO 28009KT 9999 // NCD 13/04 Q1014
2026-04-12 16:30:00,METAR YSSY 121630Z AUTO 26015KT 9999 // NCD 13/04 Q1014
2026-04-12 16:00:00,METAR YSSY 121600Z AUTO 26016KT 9999 // NCD 13/04 Q1014
2026-04-12 15:00:00,METAR YSSY 121500Z AUTO 26016KT 9999 // NCD 14/04 Q1014
2026-04-12 14:30:00,METAR YSSY 121430Z AUTO 26014KT 9999 // NCD 14/04 Q1014
2026-04-12 14:00:00,METAR YSSY 121400Z AUTO 26015KT 9999 // NCD 14/04 Q1014
2026-04-12 13:30:00,METAR YSSY 121330Z AUTO 27013KT 9999 // NCD 14/03 Q1014
2026-04-12 13:00:00,METAR YSSY 121300Z AUTO 27013KT 9999 // NCD 15/03 Q1014
2026-04-12 12:30:00,METAR YSSY 121230Z AUTO 28013KT 9999 // NCD 15/03 Q1014
2026-04-12 12:00:00,METAR YSSY 121200Z AUTO 28013KT 9999 // NCD 15/03 Q1014
2026-04-12 11:30:00,METAR YSSY 121130Z AUTO 28014KT 9999 // NCD 15/02 Q1014
2026-04-12 11:00:00,METAR YSSY 121100Z AUTO 27014KT 9999 // NCD 16/02 Q1014
2026-04-12 10:30:00,METAR YSSY 121030Z AUTO 27015KT 9999 // NCD 16/02 Q1013
2026-04-12 10:00:00,METAR YSSY 121000Z AUTO 27015KT 9999 // NCD 16/02 Q1013
2026-04-12 09:30:00,METAR YSSY 120930Z AUTO 26015KT 9999 // NCD 16/02 Q1013
2026-04-12 09:00:00,METAR YSSY 120900Z AUTO 26015KT 9999 // NCD 16/02 Q1013
2026-04-12 08:30:00,METAR YSSY 120830Z AUTO 26018G28KT 9999 // NCD 17/01 Q1012
2026-04-12 08:00:00,METAR YSSY 120800Z AUTO 26020KT 9999 // NCD 17/02 Q1011
2026-04-12 07:31:00,SPECI YSSY 120731Z AUTO 25019G29KT 9999 // NCD 18/01 Q1011
2026-04-12 07:00:00,METAR YSSY 120700Z AUTO 26019KT 9999 // NCD 19/01 Q1010
2026-04-12 06:30:00,METAR YSSY 120630Z AUTO 25019KT 9999 // NCD 19/01 Q1010
2026-04-12 06:00:00,METAR YSSY 120600Z 26019KT CAVOK 20/01 Q1010
2026-04-12 05:30:00,METAR YSSY 120530Z 25019KT CAVOK 20/02 Q1009
2026-04-12 05:02:00,SPECI YSSY 120502Z 25016G26KT CAVOK 21/02 Q1009
2026-04-12 04:30:00,METAR YSSY 120430Z 25017KT CAVOK 21/02 Q1009
2026-04-12 04:00:00,METAR YSSY 120400Z 25019KT CAVOK 20/02 Q1009
2026-04-12 03:55:00,SPECI YSSY 120355Z 25017G27KT CAVOK 20/02 Q1009
2026-04-12 03:30:00,METAR YSSY 120330Z 25019KT CAVOK 20/02 Q1009
2026-04-12 03:00:00,METAR YSSY 120300Z 27019KT CAVOK 20/02 Q1009
2026-04-12 02:39:00,SPECI YSSY 120239Z 28021KT CAVOK 20/03 Q1009
2026-04-12 02:38:00,SPECI YSSY 120238Z 25017G28KT CAVOK 20/02 Q1009
2026-04-12 02:30:00,METAR YSSY 120230Z 29018KT CAVOK 20/03 Q1009
2026-04-12 02:00:00,METAR YSSY 120200Z 26019KT CAVOK 19/03 Q1010
2026-04-12 01:30:00,METAR YSSY 120130Z 27021KT CAVOK 19/03 Q1010
2026-04-12 01:00:00,METAR YSSY 120100Z 26020KT CAVOK 19/03 Q1010
2026-04-12 00:47:00,SPECI YSSY 120047Z 27022G34KT CAVOK 18/02 Q1010
2026-04-12 00:30:00,METAR YSSY 120030Z 25019KT CAVOK 18/03 Q1010
2026-04-12 00:00:00,METAR YSSY 120000Z 27020KT CAVOK 17/02 Q1010
2026-04-11 23:39:00,SPECI YSSY 112339Z 27018G31KT CAVOK 17/03 Q1010
2026-04-11 23:30:00,METAR YSSY 112330Z 27017KT CAVOK 17/03 Q1010
2026-04-11 23:00:00,METAR YSSY 112300Z 27014KT CAVOK 16/04 Q1010
2026-04-11 22:52:00,SPECI YSSY 112252Z 27017G27KT CAVOK 16/03 Q1010
2026-04-11 22:30:00,METAR YSSY 112230Z 28021KT CAVOK 16/04 Q1010
2026-04-11 22:14:00,SPECI YSSY 112214Z AUTO 28019KT 9999 // NCD 16/03 Q1010
2026-04-11 22:00:00,METAR YSSY 112200Z 28013KT CAVOK 16/03 Q1010
2026-04-11 21:30:00,METAR YSSY 112130Z 27023KT CAVOK 15/04 Q1010
2026-04-11 21:17:00,SPECI YSSY 112117Z 27015KT CAVOK 13/04 Q1010
2026-04-11 21:00:00,METAR YSSY 112100Z 31007KT CAVOK 13/03 Q1010
2026-04-11 20:30:00,METAR YSSY 112030Z 31007KT CAVOK 12/03 Q1010
2026-04-11 20:00:00,METAR YSSY 112000Z 29007KT CAVOK 12/03 Q1010
2026-04-11 19:30:00,METAR YSSY 111930Z AUTO 26007KT 9999 // NCD 13/03 Q1010
2026-04-11 19:00:00,METAR YSSY 111900Z AUTO 27006KT 9999 // NCD 13/02 Q1010
2026-04-11 18:30:00,METAR YSSY 111830Z AUTO 24006KT 190V280 9999 // NCD 14/01 Q1009
2026-04-11 18:00:00,METAR YSSY 111800Z AUTO 28009KT 9999 // NCD 14/01 Q1009
2026-04-11 17:30:00,METAR YSSY 111730Z AUTO 27015KT 9999 // NCD 15/01 Q1009
2026-04-11 17:00:00,METAR YSSY 111700Z AUTO 27015KT 9999 // NCD 14/01 Q1009
2026-04-11 16:30:00,METAR YSSY 111630Z AUTO 27018KT 9999 // NCD 15/01 Q1009
2026-04-11 16:00:00,METAR YSSY 111600Z AUTO 28011KT 9999 // NCD 15/01 Q1010
2026-04-11 15:30:00,METAR YSSY 111530Z AUTO 28013KT 9999 // NCD 15/00 Q1011
2026-04-11 15:00:00,METAR YSSY 111500Z AUTO 28013KT 9999 // NCD 15/01 Q1011
2026-04-11 14:30:00,METAR YSSY 111430Z AUTO 27016KT 9999 // NCD 15/00 Q1011
2026-04-11 14:00:00,METAR YSSY 111400Z AUTO 25022KT 9999 // NCD 15/00 Q1011
2026-04-11 13:30:00,METAR YSSY 111330Z AUTO 25017KT 9999 // NCD 16/01 Q1011
2026-04-11 13:00:00,METAR YSSY 111300Z AUTO 26017KT 9999 // NCD 16/01 Q1011
2026-04-11 12:30:00,METAR YSSY 111230Z AUTO 26015KT 9999 // NCD 16/02 Q1011
2026-04-11 12:00:00,METAR YSSY 111200Z AUTO 27014KT 9999 // NCD 16/02 Q1011
2026-04-11 11:30:00,METAR YSSY 111130Z AUTO 26019KT 9999 // NCD 17/02 Q1011
2026-04-11 11:00:00,METAR YSSY 111100Z AUTO 26016KT 9999 // NCD 17/03 Q1011
2026-04-11 10:30:00,METAR YSSY 111030Z AUTO 25017KT 9999 // NCD 18/03 Q1010
2026-04-11 10:00:00,METAR YSSY 111000Z AUTO 26017KT 9999 // NCD 18/03 Q1010
2026-04-11 09:30:00,METAR YSSY 110930Z AUTO 25013KT 9999 // NCD 19/02 Q1009
2026-04-11 09:00:00,METAR YSSY 110900Z AUTO 24015KT 9999 // NCD 19/03 Q1009
2026-04-11 08:30:00,METAR YSSY 110830Z AUTO 25017KT 9999 // NCD 20/03 Q1008
2026-04-11 08:00:00,METAR YSSY 110800Z AUTO 26016KT 9999 // NCD 20/04 Q1007
2026-04-11 07:36:00,SPECI YSSY 110736Z AUTO 26020G30KT 9999 // NCD 21/03 Q1007
2026-04-11 07:30:00,METAR YSSY 110730Z AUTO 26021KT 9999 // NCD 21/03 Q1007
2026-04-11 07:00:00,METAR YSSY 110700Z AUTO 24017KT 9999 // NCD 22/05 Q1007
2026-04-11 06:30:00,METAR YSSY 110630Z AUTO 24015KT 9999 // NCD 23/03 Q1006
2026-04-11 06:00:00,METAR YSSY 110600Z 24016KT CAVOK 24/03 Q1006
2026-04-11 05:30:00,METAR YSSY 110530Z 25012KT CAVOK 24/06 Q1006
2026-04-11 05:00:00,METAR YSSY 110500Z 23016KT CAVOK 24/07 Q1006
2026-04-11 04:30:00,METAR YSSY 110430Z 25011KT CAVOK 25/06 Q1006
2026-04-11 04:00:00,METAR YSSY 110400Z 27013G29KT CAVOK 25/05 Q1006
2026-04-11 03:30:00,METAR YSSY 110330Z AUTO 23013KT 9999 // NCD 24/06 Q1007
2026-04-11 03:00:00,METAR YSSY 110300Z 23011KT 210V270 CAVOK 23/07 Q1007
2026-04-11 02:30:00,METAR YSSY 110230Z 23013KT CAVOK 23/07 Q1007
2026-04-11 02:00:00,METAR YSSY 110200Z 25009KT CAVOK 23/05 Q1008
2026-04-11 01:30:00,METAR YSSY 110130Z 25014KT CAVOK 22/06 Q1008
2026-04-11 01:00:00,METAR YSSY 110100Z 23015KT CAVOK 23/05 Q1009
2026-04-11 00:30:00,METAR YSSY 110030Z 25017KT CAVOK 22/06 Q1009
2026-04-11 00:00:00,METAR YSSY 110000Z 24017KT CAVOK 22/07 Q1009
2026-04-10 23:30:00,METAR YSSY 102330Z 24015KT CAVOK 21/07 Q1009
2026-04-10 23:00:00,METAR YSSY 102300Z 23012KT CAVOK 21/07 Q1009
2026-04-10 22:30:00,METAR YSSY 102230Z 23013KT CAVOK 20/08 Q1009
2026-04-10 22:00:00,METAR YSSY 102200Z 21016KT CAVOK 20/08 Q1008
2026-04-10 21:30:00,METAR YSSY 102130Z 25015KT CAVOK 20/08 Q1008
2026-04-10 21:00:00,METAR YSSY 102100Z 25009KT CAVOK 19/10 Q1008
2026-04-10 20:30:00,METAR YSSY 102030Z 26008KT CAVOK 19/11 Q1007
2026-04-10 20:00:00,METAR YSSY 102000Z 26007KT CAVOK 19/12 Q1007
2026-04-10 19:30:00,METAR YSSY 101930Z AUTO 25009KT 9999 // NCD 20/12 Q1007
2026-04-10 19:00:00,METAR YSSY 101900Z AUTO 24010KT 9999 // NCD 20/12 Q1007
2026-04-10 18:30:00,METAR YSSY 101830Z AUTO 24010KT 9999 // NCD 20/13 Q1007
2026-04-10 18:00:00,METAR YSSY 101800Z AUTO 25007KT 9999 // NCD 21/15 Q1006
2026-04-10 17:30:00,METAR YSSY 101730Z AUTO 24007KT 9999 // FEW105 21/16 Q1006
2026-04-10 17:00:00,METAR YSSY 101700Z AUTO 22008KT 9999 // NCD 22/16 Q1006
2026-04-10 16:30:00,METAR YSSY 101630Z AUTO 23009KT 9999 // NCD 22/17 Q1006
2026-04-10 16:00:00,METAR YSSY 101600Z AUTO 24007KT 9999 // NCD 22/16 Q1007
2026-04-10 15:30:00,METAR YSSY 101530Z AUTO 22005KT 9999 // NCD 22/17 Q1007
2026-04-10 15:00:00,METAR YSSY 101500Z AUTO 23006KT 9999 // NCD 22/17 Q1007
2026-04-10 14:30:00,METAR YSSY 101430Z AUTO 21007KT 9999 // NCD 22/18 Q1007
2026-04-10 14:00:00,METAR YSSY 101400Z AUTO 21009KT 9999 // NCD 22/17 Q1007
2026-04-10 13:30:00,METAR YSSY 101330Z AUTO 24007KT 9999 // NCD 22/15 Q1008
2026-04-10 13:00:00,METAR YSSY 101300Z AUTO 27006KT 9999 // NCD 23/15 Q1008
2026-04-10 12:30:00,METAR YSSY 101230Z AUTO 27006KT 9999 // NCD 24/14 Q1008
2026-04-10 12:00:00,METAR YSSY 101200Z AUTO 36007KT 9999 // NCD 26/13 Q1008
2026-04-10 11:30:00,METAR YSSY 101130Z AUTO 02010KT 9999 // NCD 26/14 Q1008
2026-04-10 11:00:00,METAR YSSY 101100Z AUTO 01011KT 9999 // NCD 26/14 Q1008
2026-04-10 10:30:00,METAR YSSY 101030Z AUTO 01012KT 9999 // NCD 26/15 Q1008
2026-04-10 10:00:00,METAR YSSY 101000Z AUTO 02011KT 9999 // NCD 26/16 Q1008
2026-04-10 09:30:00,METAR YSSY 100930Z AUTO 02014KT 9999 // NCD 27/16 Q1008
2026-04-10 09:00:00,METAR YSSY 100900Z AUTO 02014KT 9999 // NCD 27/16 Q1008
2026-04-10 08:30:00,METAR YSSY 100830Z AUTO 01012KT 9999 // NCD 27/17 Q1008
2026-04-10 08:00:00,METAR YSSY 100800Z AUTO 03011KT 9999 // NCD 27/18 Q1008
2026-04-10 07:30:00,METAR YSSY 100730Z AUTO 35011KT 9999 // NCD 28/16 Q1007
2026-04-10 07:00:00,METAR YSSY 100700Z AUTO 36012KT 9999 // NCD 28/16 Q1007
2026-04-10 06:30:00,METAR YSSY 100630Z AUTO 01011KT 9999 // NCD 29/16 Q1007
2026-04-10 06:00:00,METAR YSSY 100600Z 36012KT CAVOK 29/15 Q1007
2026-04-10 05:30:00,METAR YSSY 100530Z 36014KT CAVOK 29/14 Q1008
2026-04-10 05:00:00,METAR YSSY 100500Z 35013KT CAVOK 29/14 Q1008
2026-04-10 04:30:00,METAR YSSY 100430Z 01012KT CAVOK 29/14 Q1008
2026-04-10 04:00:00,METAR YSSY 100400Z 01013KT CAVOK 30/15 Q1008
2026-04-10 03:30:00,METAR YSSY 100330Z 32010KT CAVOK 29/14 Q1009
2026-04-10 03:00:00,METAR YSSY 100300Z 31010KT CAVOK 29/14 Q1010
2026-04-10 02:30:00,METAR YSSY 100230Z 30014KT CAVOK 29/13 Q1010
2026-04-10 02:00:00,METAR YSSY 100200Z 29013KT CAVOK 29/14 Q1011
2026-04-10 01:30:00,METAR YSSY 100130Z 29015KT CAVOK 29/14 Q1012
2026-04-10 01:00:00,METAR YSSY 100100Z 29013KT CAVOK 29/13 Q1012
2026-04-10 00:30:00,METAR YSSY 100030Z 29015KT CAVOK 28/14 Q1012
2026-04-10 00:00:00,METAR YSSY 100000Z 30009KT CAVOK 28/14 Q1012
2026-04-09 23:30:00,METAR YSSY 092330Z 32008KT CAVOK 27/14 Q1013
2026-04-09 23:00:00,METAR YSSY 092300Z 33005KT CAVOK 27/15 Q1012
2026-04-09 22:30:00,METAR YSSY 092230Z 32005KT CAVOK 24/17 Q1013
2026-04-09 22:00:00,METAR YSSY 092200Z 31006KT CAVOK 23/17 Q1013
2026-04-09 21:30:00,METAR YSSY 092130Z 31006KT CAVOK 22/17 Q1013
2026-04-09 21:00:00,METAR YSSY 092100Z 32005KT CAVOK 21/17 Q1012
2026-04-09 20:30:00,METAR YSSY 092030Z 32005KT CAVOK 21/17 Q1012
2026-04-09 20:00:00,METAR YSSY 092000Z 31004KT CAVOK 21/17 Q1012
2026-04-09 19:30:00,METAR YSSY 091930Z AUTO 32006KT 9999 // SCT120 21/17 Q1012
2026-04-09 19:00:00,METAR YSSY 091900Z AUTO 29006KT 9999 // NCD 20/17 Q1011
2026-04-09 18:30:00,METAR YSSY 091830Z AUTO 29006KT 9999 // NCD 20/17 Q1011
2026-04-09 18:00:00,METAR YSSY 091800Z AUTO 32007KT 9999 // NCD 20/17 Q1011
2026-04-09 17:30:00,METAR YSSY 091730Z AUTO 34008KT 9999 // NCD 20/17 Q1011
2026-04-09 17:13:00,SPECI YSSY 091713Z AUTO 35007KT 9999 // NCD 20/17 Q1011
2026-04-09 17:00:00,METAR YSSY 091700Z AUTO 32007KT 9999 // NCD 21/17 Q1011
2026-04-09 16:30:00,METAR YSSY 091630Z AUTO 34006KT 9999 // NCD 21/17 Q1011
2026-04-09 16:00:00,METAR YSSY 091600Z AUTO 31005KT 9999 // NCD 21/17 Q1012
2026-04-09 15:30:00,METAR YSSY 091530Z AUTO 35006KT 9999 // NCD 22/17 Q1012
2026-04-09 15:00:00,METAR YSSY 091500Z AUTO 30005KT 9999 // NCD 22/17 Q1012
2026-04-09 14:30:00,METAR YSSY 091430Z AUTO 26007KT 9999 // NCD 22/17 Q1012
2026-04-09 14:00:00,METAR YSSY 091400Z AUTO 24005KT 210V300 9999 // NCD 23/17 Q1012
2026-04-09 13:30:00,METAR YSSY 091330Z AUTO 02007KT 9999 // NCD 24/18 Q1012
2026-04-09 13:04:00,SPECI YSSY 091304Z AUTO 27003KT 9999 // NCD 24/18 Q1013
2026-04-09 13:03:00,SPECI YSSY 091303Z AUTO 27003KT 9999 // NCD 24/18 Q1013
2026-04-09 12:30:00,METAR YSSY 091230Z AUTO 36010KT 9999 // NCD 24/18 Q1013
2026-04-09 12:00:00,METAR YSSY 091200Z AUTO 01009KT 9999 // NCD 25/18 Q1013
2026-04-09 11:30:00,METAR YSSY 091130Z AUTO 02009KT 9999 // NCD 25/19 Q1013
2026-04-09 11:00:00,METAR YSSY 091100Z AUTO 02009KT 9999 // NCD 25/20 Q1014
2026-04-09 10:30:00,METAR YSSY 091030Z AUTO 02011KT 9999 // NCD 24/20 Q1014
2026-04-09 10:00:00,METAR YSSY 091000Z AUTO 03013KT 9999 // NCD 24/21 Q1014
2026-04-09 09:30:00,METAR YSSY 090930Z AUTO 03014KT 9999 // NCD 25/20 Q1013
2026-04-09 09:00:00,METAR YSSY 090900Z AUTO 03014KT 9999 // NCD 25/20 Q1013
2026-04-09 08:30:00,METAR YSSY 090830Z AUTO 04014KT 9999 // NCD 25/20 Q1013
2026-04-09 08:00:00,METAR YSSY 090800Z AUTO 04014KT 9999 // NCD 25/19 Q1013
2026-04-09 07:30:00,METAR YSSY 090730Z AUTO 04013KT 9999 // NCD 25/19 Q1013
2026-04-09 07:00:00,METAR YSSY 090700Z AUTO 03013KT 9999 // NCD 26/20 Q1012
2026-04-09 06:30:00,METAR YSSY 090630Z AUTO 05011KT 9999 // NCD 27/19 Q1013
2026-04-09 06:00:00,METAR YSSY 090600Z 04012KT CAVOK 28/18 Q1013
2026-04-09 05:30:00,METAR YSSY 090530Z 04011KT CAVOK 28/18 Q1013
2026-04-09 05:00:00,METAR YSSY 090500Z 04013KT CAVOK 28/18 Q1013
2026-04-09 04:30:00,METAR YSSY 090430Z 05013KT CAVOK 29/17 Q1013
2026-04-09 04:00:00,METAR YSSY 090400Z 04010KT CAVOK 29/15 Q1013
2026-04-09 03:30:00,METAR YSSY 090330Z 03010KT CAVOK 30/13 Q1013
2026-04-09 03:00:00,METAR YSSY 090300Z 05009KT CAVOK 29/14 Q1014
2026-04-09 02:30:00,METAR YSSY 090230Z 03007KT CAVOK 29/13 Q1014
2026-04-09 02:00:00,METAR YSSY 090200Z 02008KT CAVOK 29/13 Q1015
2026-04-09 01:30:00,METAR YSSY 090130Z 01007KT CAVOK 28/14 Q1016
2026-04-09 01:00:00,METAR YSSY 090100Z 36011KT CAVOK 27/14 Q1016
2026-04-09 00:30:00,METAR YSSY 090030Z 32005KT 290V350 CAVOK 27/15 Q1017
2026-04-09 00:00:00,METAR YSSY 090000Z 33008KT CAVOK 26/17 Q1017
2026-04-08 23:30:00,METAR YSSY 082330Z 32007KT CAVOK 25/18 Q1017
2026-04-08 23:00:00,METAR YSSY 082300Z 31006KT CAVOK 24/18 Q1017
2026-04-08 22:30:00,METAR YSSY 082230Z 33007KT 9999 FEW015 22/19 Q1017
2026-04-08 22:00:00,METAR YSSY 082200Z 33006KT 9999 VCFG FEW006 22/18 Q1017
2026-04-08 21:30:00,METAR YSSY 082130Z 32007KT 9999 VCFG FEW006 BKN200 21/18 Q1017
2026-04-08 21:00:00,METAR YSSY 082100Z 31007KT 9999 FEW006 20/17 Q1017
2026-04-08 20:30:00,METAR YSSY 082030Z 31007KT CAVOK 19/17 Q1017
2026-04-08 20:00:00,METAR YSSY 082000Z 31008KT CAVOK 19/17 Q1017
2026-04-08 19:30:00,METAR YSSY 081930Z 31007KT CAVOK 19/18 Q1017
2026-04-08 19:00:00,METAR YSSY 081900Z AUTO 30006KT 9999 // FEW125 19/17 Q1016
2026-04-08 18:30:00,METAR YSSY 081830Z AUTO 31007KT 9999 // NCD 19/18 Q1016
2026-04-08 18:00:00,METAR YSSY 081800Z AUTO 29006KT 9999 // NCD 19/18 Q1016
2026-04-08 17:55:00,SPECI YSSY 081755Z AUTO 29007KT 9999 // NCD 19/18 Q1016
2026-04-08 17:30:00,METAR YSSY 081730Z AUTO 29006KT 9999 // NCD 19/18 Q1016
2026-04-08 17:00:00,METAR YSSY 081700Z AUTO 33005KT 9999 // NCD 19/18 Q1016
2026-04-08 16:30:00,METAR YSSY 081630Z AUTO 35006KT 9999 // NCD 20/18 Q1016
2026-04-08 16:00:00,METAR YSSY 081600Z AUTO 35006KT 9999 // NCD 20/18 Q1016
2026-04-08 15:30:00,METAR YSSY 081530Z AUTO 01004KT 9999 // NCD 20/18 Q1017
2026-04-08 15:00:00,METAR YSSY 081500Z AUTO 26005KT 9999 // NCD 20/18 Q1017
2026-04-08 14:30:00,METAR YSSY 081430Z AUTO 25003KT 9999 // NCD 20/18 Q1017
2026-04-08 14:00:00,METAR YSSY 081400Z AUTO 00000KT 9999 // NCD 20/18 Q1017
2026-04-08 13:30:00,METAR YSSY 081330Z AUTO 28004KT 9999 // NCD 21/19 Q1017
2026-04-08 13:12:00,SPECI YSSY 081312Z AUTO 28004KT 9999 // NCD 21/19 Q1017
2026-04-08 13:11:00,SPECI YSSY 081311Z AUTO 29004KT 9999 // NCD 21/19 Q1017
2026-04-08 13:00:00,METAR YSSY 081300Z AUTO 29005KT 9999 // NCD 21/19 Q1017
2026-04-08 12:30:00,METAR YSSY 081230Z AUTO 28006KT 9999 // FEW018 21/19 Q1017
2026-04-08 12:00:00,METAR YSSY 081200Z AUTO 26006KT 9999 // SCT018 22/20 Q1017
2026-04-08 11:38:00,SPECI YSSY 081138Z AUTO 25005KT 9999 // BKN016 22/20 Q1017
2026-04-08 11:30:00,METAR YSSY 081130Z AUTO 24005KT 9999 // BKN016 21/20 Q1017
2026-04-08 11:09:00,SPECI YSSY 081109Z AUTO 16002KT 9999 // BKN014 22/20 Q1017
2026-04-08 11:00:00,METAR YSSY 081100Z AUTO 16003KT 9999 // FEW014 22/20 Q1017
2026-04-08 10:30:00,METAR YSSY 081030Z AUTO 17004KT 9999 // NCD 22/20 Q1016
2026-04-08 10:00:00,METAR YSSY 081000Z AUTO 17004KT 9999 // NCD 22/20 Q1016
2026-04-08 09:30:00,METAR YSSY 080930Z AUTO 14006KT 9999 // NCD 22/19 Q1015
2026-04-08 09:00:00,METAR YSSY 080900Z AUTO 13006KT 9999 // NCD 23/19 Q1015
2026-04-08 08:30:00,METAR YSSY 080830Z AUTO 13006KT 9999 // NCD 23/19 Q1015
2026-04-08 08:00:00,METAR YSSY 080800Z AUTO 13007KT 9999 // NCD 23/19 Q1015
2026-04-08 07:30:00,METAR YSSY 080730Z AUTO 13007KT 9999 // NCD 23/18 Q1015
2026-04-08 07:00:00,METAR YSSY 080700Z AUTO 14007KT 9999 // NCD 24/19 Q1014
2026-04-08 06:30:00,METAR YSSY 080630Z AUTO 13007KT 9999 // NCD 24/19 Q1014
2026-04-08 06:00:00,METAR YSSY 080600Z 13009KT 9999 FEW035 BKN290 25/18 Q1014
2026-04-08 05:30:00,METAR YSSY 080530Z 13008KT 9999 FEW030 BKN290 24/18 Q1014
2026-04-08 05:00:00,METAR YSSY 080500Z 14009KT 9999 FEW030 BKN300 25/18 Q1014
2026-04-08 04:30:00,METAR YSSY 080430Z 13009KT 9999 FEW030 25/18 Q1014
2026-04-08 04:00:00,METAR YSSY 080400Z 12010KT 9999 FEW030 25/18 Q1014
2026-04-08 03:30:00,METAR YSSY 080330Z 13009KT 9999 FEW030 26/18 Q1014
2026-04-08 03:00:00,METAR YSSY 080300Z 12009KT 9999 FEW033 25/19 Q1014
2026-04-08 02:30:00,METAR YSSY 080230Z 14009KT 9999 FEW033 25/19 Q1014
2026-04-08 02:00:00,METAR YSSY 080200Z 17007KT 9999 FEW030 25/19 Q1015
2026-04-08 01:30:00,METAR YSSY 080130Z 22005KT 160V280 9999 SCT025 26/19 Q1015
2026-04-08 01:00:00,METAR YSSY 080100Z 21003KT 9999 SCT025 24/18 Q1015
2026-04-08 00:30:00,METAR YSSY 080030Z 09002KT 9999 SCT022 22/19 Q1015
2026-04-08 00:00:00,METAR YSSY 080000Z 22003KT 9999 FEW015 SCT020 23/19 Q1016
2026-04-07 23:30:00,METAR YSSY 072330Z 29003KT 9999 FEW015 SCT018 23/18 Q1016
2026-04-07 23:00:00,METAR YSSY 072300Z 29003KT 9999 FEW018 22/18 Q1016
2026-04-07 22:30:00,METAR YSSY 072230Z 36005KT 9999 FEW030 22/17 Q1015
2026-04-07 22:00:00,METAR YSSY 072200Z 34005KT 300V010 9999 FEW015 21/16 Q1015
2026-04-07 21:30:00,METAR YSSY 072130Z 32005KT 9999 FEW017 20/16 Q1015
2026-04-07 21:00:00,METAR YSSY 072100Z 32007KT 9999 VCSH FEW027 19/15 Q1015
2026-04-07 20:30:00,METAR YSSY 072030Z 33007KT 9999 FEW016 19/16 Q1014
2026-04-07 20:00:00,METAR YSSY 072000Z 35008KT 9999 FEW017 18/15 Q1014
2026-04-07 19:30:00,METAR YSSY 071930Z 34006KT 9999 FEW015 18/15 Q1014
2026-04-07 19:00:00,METAR YSSY 071900Z AUTO 33006KT 9999 // NCD 18/15 Q1013
2026-04-07 18:30:00,METAR YSSY 071830Z AUTO 35006KT 9999 // NCD 18/15 Q1013
2026-04-07 18:00:00,METAR YSSY 071800Z AUTO 32005KT 9999 // FEW014 19/16 Q1013
2026-04-07 17:30:00,METAR YSSY 071730Z AUTO 32005KT 9999 // NCD 19/16 Q1012
2026-04-07 17:00:00,METAR YSSY 071700Z AUTO 24004KT 9999 // NCD 19/17 Q1012
2026-04-07 16:30:00,METAR YSSY 071630Z AUTO 23006KT 9999 // NCD 20/17 Q1013
2026-04-07 16:27:00,SPECI YSSY 071627Z AUTO 23006KT 9999 // NCD 20/17 Q1013
2026-04-07 16:00:00,METAR YSSY 071600Z AUTO 21008KT 9999 // NCD 20/17 Q1013
2026-04-07 15:30:00,METAR YSSY 071530Z AUTO 21008KT 9999 // NCD 20/17 Q1012
2026-04-07 15:00:00,METAR YSSY 071500Z AUTO 19008KT 9999 // NCD 21/18 Q1012
2026-04-07 14:30:00,METAR YSSY 071430Z AUTO 22008KT 9999 // NCD 21/16 Q1012
2026-04-07 14:00:00,METAR YSSY 071400Z AUTO 22008KT 9999 // NCD 21/16 Q1012
2026-04-07 13:30:00,METAR YSSY 071330Z AUTO 23007KT 9999 // NCD 21/16 Q1012
2026-04-07 13:18:00,SPECI YSSY 071318Z AUTO 25005KT 9999 // NCD 21/17 Q1012
2026-04-07 13:00:00,METAR YSSY 071300Z AUTO 24002KT 9999 // NCD 21/17 Q1012
2026-04-07 12:30:00,METAR YSSY 071230Z AUTO 35003KT 9999 // NCD 22/19 Q1012
2026-04-07 12:00:00,METAR YSSY 071200Z AUTO 29004KT 9999 // NCD 22/20 Q1011
2026-04-07 11:30:00,METAR YSSY 071130Z AUTO 29003KT 9999 // NCD 22/20 Q1011
2026-04-07 11:00:00,METAR YSSY 071100Z AUTO 31003KT 9999 // FEW087 22/19 Q1011
2026-04-07 10:30:00,METAR YSSY 071030Z AUTO 00000KT 9999 // NCD 23/19 Q1011
2026-04-07 10:00:00,METAR YSSY 071000Z AUTO 05001KT 9999 // NCD 23/19 Q1011
2026-04-07 09:30:00,METAR YSSY 070930Z AUTO 03006KT 9999 // NCD 24/20 Q1010
2026-04-07 09:00:00,METAR YSSY 070900Z AUTO 07008KT 9999 // NCD 24/19 Q1010
2026-04-07 08:30:00,METAR YSSY 070830Z AUTO 08010KT 9999 // NCD 24/18 Q1009
2026-04-07 08:00:00,METAR YSSY 070800Z AUTO 10007KT 9999 // NCD 26/16 Q1009
2026-04-07 07:30:00,METAR YSSY 070730Z AUTO 07006KT 9999 // NCD 26/16 Q1009
2026-04-07 07:00:00,METAR YSSY 070700Z AUTO 04008KT 9999 // BKN120 27/15 Q1009
2026-04-07 06:30:00,METAR YSSY 070630Z AUTO 03008KT 9999 // BKN120 27/16 Q1008
2026-04-07 06:00:00,METAR YSSY 070600Z 04009KT CAVOK 28/16 Q1008
2026-04-07 05:30:00,METAR YSSY 070530Z 04011KT CAVOK 28/17 Q1008
2026-04-07 05:00:00,METAR YSSY 070500Z 05009KT CAVOK 28/15 Q1008
2026-04-07 04:30:00,METAR YSSY 070430Z 05010KT CAVOK 29/16 Q1008
2026-04-07 04:00:00,METAR YSSY 070400Z 09009KT CAVOK 29/15 Q1008
2026-04-07 03:30:00,METAR YSSY 070330Z 11008KT CAVOK 28/16 Q1009
2026-04-07 03:00:00,METAR YSSY 070300Z 11006KT CAVOK 27/16 Q1009
2026-04-07 02:30:00,METAR YSSY 070230Z 14006KT CAVOK 29/13 Q1009
2026-04-07 02:00:00,METAR YSSY 070200Z 09003KT CAVOK 28/13 Q1010
2026-04-07 01:30:00,METAR YSSY 070130Z 07003KT CAVOK 27/14 Q1010
2026-04-07 01:00:00,METAR YSSY 070100Z 04003KT CAVOK 24/16 Q1011
2026-04-07 00:30:00,METAR YSSY 070030Z 25005KT 230V300 CAVOK 24/17 Q1012
2026-04-07 00:00:00,METAR YSSY 070000Z 31005KT CAVOK 24/16 Q1012
2026-04-06 23:30:00,METAR YSSY 062330Z 30008KT CAVOK 23/16 Q1012
2026-04-06 23:00:00,METAR YSSY 062300Z 31008KT CAVOK 22/16 Q1012
2026-04-06 22:30:00,METAR YSSY 062230Z 32008KT CAVOK 20/15 Q1012
2026-04-06 22:00:00,METAR YSSY 062200Z 29007KT CAVOK 18/15 Q1012
2026-04-06 21:30:00,METAR YSSY 062130Z 30007KT CAVOK 17/15 Q1012
2026-04-06 21:00:00,METAR YSSY 062100Z 29009KT CAVOK 16/14 Q1012
2026-04-06 20:30:00,METAR YSSY 062030Z 29006KT CAVOK 15/14 Q1012
2026-04-06 20:00:00,METAR YSSY 062000Z 29006KT CAVOK 15/14 Q1012
2026-04-06 19:30:00,METAR YSSY 061930Z 27006KT CAVOK 15/13 Q1012
2026-04-06 19:00:00,METAR YSSY 061900Z AUTO 26004KT 9999 // NCD 15/14 Q1011
2026-04-06 18:30:00,METAR YSSY 061830Z AUTO 28007KT 9999 // NCD 16/14 Q1011
2026-04-06 18:00:00,METAR YSSY 061800Z AUTO 30006KT 9999 // NCD 16/14 Q1011
2026-04-06 17:30:00,METAR YSSY 061730Z AUTO 32006KT 9999 // NCD 16/14 Q1011
2026-04-06 17:00:00,METAR YSSY 061700Z AUTO 31006KT 9999 // NCD 16/14 Q1011
2026-04-06 16:30:00,METAR YSSY 061630Z AUTO 31006KT 9999 // NCD 16/13 Q1011
2026-04-06 16:00:00,METAR YSSY 061600Z AUTO 28005KT 9999 // NCD 16/13 Q1012
2026-04-06 15:30:00,METAR YSSY 061530Z AUTO 31007KT 9999 // NCD 16/14 Q1012
2026-04-06 15:00:00,METAR YSSY 061500Z AUTO 30008KT 9999 // NCD 17/14 Q1013
2026-04-06 14:30:00,METAR YSSY 061430Z AUTO 30008KT 9999 // NCD 17/14 Q1013
2026-04-06 14:00:00,METAR YSSY 061400Z AUTO 33007KT 9999 // NCD 17/14 Q1013
2026-04-06 13:30:00,METAR YSSY 061330Z AUTO 33007KT 9999 // NCD 18/14 Q1013
2026-04-06 13:00:00,METAR YSSY 061300Z AUTO 33006KT 9999 // NCD 18/14 Q1014
2026-04-06 12:30:00,METAR YSSY 061230Z AUTO 31006KT 9999 // NCD 18/14 Q1014
2026-04-06 12:00:00,METAR YSSY 061200Z AUTO 31007KT 9999 // BKN120 19/14 Q1014
2026-04-06 11:30:00,METAR YSSY 061130Z AUTO 32008KT 9999 // FEW100 BKN120 19/14 Q1015
2026-04-06 11:00:00,METAR YSSY 061100Z AUTO 32006KT 9999 // OVC110 19/14 Q1015
2026-04-06 10:30:00,METAR YSSY 061030Z AUTO 32007KT 9999 // OVC120 19/14 Q1015
2026-04-06 10:00:00,METAR YSSY 061000Z AUTO 35007KT 9999 // OVC105 19/14 Q1015
2026-04-06 09:30:00,METAR YSSY 060930Z AUTO 35007KT 9999 // BKN105 19/14 Q1015
2026-04-06 09:00:00,METAR YSSY 060900Z AUTO 34007KT 9999 // NCD 20/14 Q1015
2026-04-06 08:30:00,METAR YSSY 060830Z AUTO 35009KT 9999 // FEW094 20/14 Q1015
2026-04-06 08:00:00,METAR YSSY 060800Z AUTO 34009KT 9999 // BKN090 BKN110 20/13 Q1015
2026-04-06 07:30:00,METAR YSSY 060730Z AUTO 36007KT 9999 // OVC092 20/13 Q1015
2026-04-06 07:00:00,METAR YSSY 060700Z AUTO 01007KT 9999 // OVC100 20/13 Q1015
2026-04-06 06:30:00,METAR YSSY 060630Z AUTO 36007KT 9999 // OVC115 20/13 Q1016
2026-04-06 06:00:00,METAR YSSY 060600Z 02005KT 9999 FEW040 SCT075 BKN120 20/12 Q1016
2026-04-06 05:30:00,METAR YSSY 060530Z 05005KT 9999 VCSH FEW040 BKN075 BKN120 20/13 Q1016
2026-04-06 05:00:00,METAR YSSY 060500Z 03004KT 9999 VCSH FEW040 BKN070 BKN120 19/14 Q1017
2026-04-06 04:30:00,METAR YSSY 060430Z 05003KT 9999 VCSH FEW040 BKN070 18/13 Q1017
2026-04-06 04:00:00,METAR YSSY 060400Z 32006KT 9999 VCSH FEW040 BKN075 18/13 Q1017
2026-04-06 03:30:00,METAR YSSY 060330Z 31007KT 9999 -RA FEW035 BKN070 20/14 Q1018
2026-04-06 03:00:00,METAR YSSY 060300Z 31008KT 9999 -RA FEW035 BKN075 21/12 Q1018
2026-04-06 02:30:00,METAR YSSY 060230Z 32007KT 9999 VCSH FEW035 BKN080 BKN100 20/12 Q1018
2026-04-06 02:00:00,METAR YSSY 060200Z 31008KT 280V340 9999 -RA FEW032 BKN075 BKN100 20/12 Q1019
2026-04-06 01:30:00,METAR YSSY 060130Z 31009KT 9999 FEW032 BKN075 BKN110 21/13 Q1020
2026-04-06 01:00:00,METAR YSSY 060100Z 29007KT 260V320 9999 SCT030 BKN110 BKN250 21/12 Q1020
2026-04-06 00:30:00,METAR YSSY 060030Z 28007KT 9999 SCT035 BKN100 BKN250 22/12 Q1020
2026-04-06 00:00:00,METAR YSSY 060000Z 27004KT 180V300 9999 FEW035 SCT100 BKN250 20/13 Q1020
2026-04-05 23:30:00,METAR YSSY 052330Z 29005KT 9999 FEW030 SCT100 BKN250 20/14 Q1021
2026-04-05 23:00:00,METAR YSSY 052300Z 30007KT 9999 FEW025 SCT100 BKN250 19/13 Q1021
2026-04-05 22:30:00,METAR YSSY 052230Z 32006KT 9999 FEW025 SCT055 BKN250 18/13 Q1021
2026-04-05 22:00:00,METAR YSSY 052200Z 33005KT 9999 FEW025 BKN250 17/13 Q1021
2026-04-05 21:30:00,METAR YSSY 052130Z 33006KT 9999 FEW030 BKN250 16/13 Q1021
2026-04-05 21:00:00,METAR YSSY 052100Z 33005KT 9999 FEW040 SCT055 BKN250 15/13 Q1021
2026-04-05 20:30:00,METAR YSSY 052030Z 31008KT 9999 FEW040 15/13 Q1021
2026-04-05 20:00:00,METAR YSSY 052000Z 31007KT 9999 FEW040 15/13 Q1021
2026-04-05 19:30:00,METAR YSSY 051930Z AUTO 29004KT 9999 // NCD 15/13 Q1021
2026-04-05 19:00:00,METAR YSSY 051900Z AUTO 32006KT 9999 // NCD 15/13 Q1021
2026-04-05 18:30:00,METAR YSSY 051830Z AUTO 29006KT 9999 // OVC045 16/13 Q1021
2026-04-05 18:00:00,METAR YSSY 051800Z AUTO 31005KT 9999 // OVC045 17/14 Q1021
2026-04-05 17:30:00,METAR YSSY 051730Z AUTO 29007KT 9999 // OVC045 17/14 Q1020
2026-04-05 17:00:00,METAR YSSY 051700Z AUTO 34005KT 9999 // OVC045 17/15 Q1021
2026-04-05 16:30:00,METAR YSSY 051630Z AUTO 36006KT 9999 // OVC047 OVC054 17/15 Q1021
2026-04-05 16:00:00,METAR YSSY 051600Z AUTO 05006KT 9999 // OVC052 17/15 Q1022
2026-04-05 15:00:00,METAR YSSY 051500Z AUTO 17006KT 120V210 9999 // OVC049 17/14 Q1022
2026-04-05 13:00:00,METAR YSSY 051300Z AUTO 24006KT 9999 // OVC053 OVC066 17/14 Q1023
2026-04-05 12:30:00,METAR YSSY 051230Z AUTO 24008KT 9999 // FEW042 OVC057 18/14 Q1023
2026-04-05 12:00:00,METAR YSSY 051200Z AUTO 19004KT 150V210 9999 // FEW040 SCT048 OVC060 18/12 Q1023
2026-04-05 11:30:00,METAR YSSY 051130Z AUTO 11004KT 9999 // FEW042 SCT051 OVC062 19/12 Q1024
2026-04-05 11:00:00,METAR YSSY 051100Z AUTO 12007KT 9999 // FEW042 SCT064 18/14 Q1024
2026-04-05 10:30:00,METAR YSSY 051030Z AUTO 12007KT 9999 // BKN064 19/14 Q1024
2026-04-05 10:00:00,METAR YSSY 051000Z AUTO 15009KT 9999 // OVC064 19/15 Q1024
2026-04-05 09:30:00,METAR YSSY 050930Z AUTO 16006KT 9999 // OVC062 19/14 Q1024
2026-04-05 09:00:00,METAR YSSY 050900Z AUTO 17006KT 9999 // FEW041 BKN058 BKN066 19/14 Q1024
2026-04-05 08:30:00,METAR YSSY 050830Z AUTO 17007KT 9999 // BKN041 BKN082 19/13 Q1023
2026-04-05 08:00:00,METAR YSSY 050800Z AUTO 15006KT 9999 // SCT082 19/13 Q1023
2026-04-05 07:30:00,METAR YSSY 050730Z AUTO 14007KT 9999 // FEW060 19/13 Q1023
2026-04-05 07:00:00,METAR YSSY 050700Z AUTO 16007KT 9999 // SCT062 BKN071 BKN081 19/13 Q1023
2026-04-05 06:30:00,METAR YSSY 050630Z AUTO 18006KT 150V210 9999 // BKN062 OVC079 20/13 Q1024
2026-04-05 06:00:00,METAR YSSY 050600Z 14007KT 9999 FEW035 SCT050 BKN080 20/11 Q1023
2026-04-05 05:30:00,METAR YSSY 050530Z 12006KT 080V150 9999 FEW040 BKN080 21/12 Q1023
2026-04-05 05:00:00,METAR YSSY 050500Z 09008KT 9999 FEW030 SCT045 BKN080 20/12 Q1024
2026-04-05 04:30:00,METAR YSSY 050430Z 14011KT 9999 FEW025 SCT040 BKN065 19/15 Q1024
2026-04-05 04:00:00,METAR YSSY 050400Z 15015KT 9999 FEW022 SCT040 BKN060 19/14 Q1024
2026-04-05 03:30:00,METAR YSSY 050330Z 16016KT 9999 VCSH FEW030 SCT040 BKN065 20/14 Q1024
2026-04-05 03:27:00,SPECI YSSY 050327Z 16015KT 9999 VCSH FEW030 SCT040 BKN065 20/15 Q1024
2026-04-05 03:00:00,METAR YSSY 050300Z 19006KT 9999 VCSH FEW028 SCT045 BKN065 22/13 Q1024
2026-04-05 02:30:00,METAR YSSY 050230Z 20005KT 9999 FEW030 SCT050 BKN065 21/13 Q1025
2026-04-05 02:00:00,METAR YSSY 050200Z 21006KT 9999 FEW025 SCT040 BKN055 20/14 Q1025
2026-04-05 01:30:00,METAR YSSY 050130Z 20008KT 170V240 9999 FEW025 SCT040 BKN055 20/13 Q1025
2026-04-05 01:00:00,METAR YSSY 050100Z 19006KT 9999 VCSH FEW025 SCT040 BKN055 20/13 Q1026
2026-04-05 00:30:00,METAR YSSY 050030Z 21008KT 9999 FEW018 SCT040 BKN055 20/15 Q1026
2026-04-05 00:00:00,METAR YSSY 050000Z 17006KT 9999 FEW018 SCT040 BKN050 19/14 Q1026
2026-04-04 23:30:00,METAR YSSY 042330Z 14009KT 9999 VCSH FEW018 BKN043 19/14 Q1026
2026-04-04 23:00:00,METAR YSSY 042300Z 23007KT 9999 VCSH FEW012 SCT030 BKN045 18/15 Q1026
2026-04-04 22:30:00,METAR YSSY 042230Z 15007KT 9999 FEW010 SCT030 BKN045 18/14 Q1026
2026-04-04 22:00:00,METAR YSSY 042200Z 23010KT 9999 VCSH FEW008 SCT032 BKN045 17/14 Q1026
2026-04-04 21:30:00,METAR YSSY 042130Z 10005KT 9999 VCSH FEW012 SCT030 BKN045 18/14 Q1026
2026-04-04 21:00:00,METAR YSSY 042100Z 13013KT 9999 -SHRA FEW012 SCT030 BKN040 18/14 Q1026
2026-04-04 20:30:00,METAR YSSY 042030Z 21007KT 160V230 9999 VCSH FEW012 SCT035 BKN050 17/15 Q1025
2026-04-04 20:00:00,METAR YSSY 042000Z 12006KT 9999 VCSH FEW012 SCT030 BKN055 16/15 Q1025
2026-04-04 19:31:00,SPECI YSSY 041931Z AUTO 11006KT 9999 // FEW035 SCT045 OVC055 16/15 Q1025
2026-04-04 19:30:00,SPECI YSSY 041930Z AUTO 11006KT 9999 // FEW035 BKN049 OVC057 16/15 Q1025
2026-04-04 19:00:00,SPECI YSSY 041900Z AUTO 13010KT 5000 -SHRA FEW022 SCT029 BKN038 16/15 Q1025
2026-04-04 18:40:00,SPECI YSSY 041840Z AUTO 12011KT 6000 // FEW020 SCT025 BKN039 16/14 Q1025
2026-04-04 18:30:00,METAR YSSY 041830Z AUTO 12015KT 9999 // SCT026 BKN035 BKN041 17/14 Q1024
2026-04-04 18:00:00,METAR YSSY 041800Z AUTO 16007KT 120V180 9999 // SCT025 BKN033 OVC059 17/15 Q1024
2026-04-04 17:30:00,METAR YSSY 041730Z AUTO 13006KT 9999 // FEW040 OVC051 17/15 Q1024
2026-04-04 17:19:00,SPECI YSSY 041719Z AUTO 14011KT 9999 -SHRA FEW015 BKN039 BKN049 16/15 Q1025
2026-04-04 17:00:00,SPECI YSSY 041700Z AUTO 15013KT 3700 -SHRA FEW010 SCT020 BKN029 16/15 Q1025
2026-04-04 16:30:00,SPECI YSSY 041630Z AUTO 13011KT 4400 -SHRA FEW013 SCT034 BKN044 17/15 Q1025 RESHRA
2026-04-04 16:00:00,SPECI YSSY 041600Z AUTO 12012KT 3800 SHRA FEW017 SCT026 BKN032 16/15 Q1025
2026-04-04 15:49:00,SPECI YSSY 041549Z AUTO 13011KT 6000 -SHRA FEW020 SCT026 BKN035 17/15 Q1025 RESHRA
2026-04-04 15:43:00,SPECI YSSY 041543Z AUTO 08006KT 040V120 9999 -SHRA FEW020 SCT028 BKN035 16/15 Q1025 RESHRA
2026-04-04 15:30:00,SPECI YSSY 041530Z AUTO 05009KT 6000 -RA FEW014 BKN034 OVC040 17/15 Q1025 RERA
2026-04-04 15:13:00,SPECI YSSY 041513Z AUTO 09014KT 5000 +RA SCT019 BKN032 OVC045 17/15 Q1026
2026-04-04 15:00:00,METAR YSSY 041500Z AUTO 08008KT 9999 // FEW032 BKN045 BKN052 18/16 Q1025
2026-04-04 14:30:00,METAR YSSY 041430Z AUTO 10009KT 9999 // BKN043 BKN049 OVC062 17/16 Q1025
2026-04-04 14:00:00,METAR YSSY 041400Z AUTO 10009KT 9999 // FEW014 SCT049 OVC057 17/16 Q1025
2026-04-04 13:40:00,SPECI YSSY 041340Z AUTO 08007KT 9999 -SHRA SCT014 BKN018 BKN047 17/16 Q1025
2026-04-04 13:30:00,SPECI YSSY 041330Z AUTO 07005KT 9999 DZ SCT014 BKN018 OVC043 17/16 Q1025
2026-04-04 13:00:00,METAR YSSY 041300Z AUTO 12010KT 9999 // FEW027 SCT039 BKN047 18/16 Q1026
2026-04-04 12:36:00,SPECI YSSY 041236Z AUTO 14014KT 9999 -SHRA FEW021 SCT029 BKN041 17/16 Q1026
2026-04-04 12:30:00,SPECI YSSY 041230Z AUTO 14013KT 9000 -SHRA FEW015 SCT022 BKN028 18/17 Q1026
2026-04-04 12:00:00,SPECI YSSY 041200Z AUTO 11011KT 6000 -RA FEW012 SCT027 BKN038 17/16 Q1026 RERA
2026-04-04 11:30:00,SPECI YSSY 041130Z AUTO 12014KT 3800 +RA SCT011 BKN022 BKN035 17/16 Q1026
2026-04-04 11:29:00,SPECI YSSY 041129Z AUTO 12014KT 3300 +RA SCT011 BKN022 BKN035 17/16 Q1026
2026-04-04 11:13:00,SPECI YSSY 041113Z AUTO 16011G21KT 5000 -SHRA BKN011 BKN025 BKN040 18/17 Q1026 RESHRA
2026-04-04 11:06:00,SPECI YSSY 041106Z AUTO 17009KT 6000 -SHRA SCT011 BKN025 BKN042 18/17 Q1026
2026-04-04 11:00:00,METAR YSSY 041100Z AUTO 15008KT 8000 -SHRA FEW015 SCT025 BKN042 18/17 Q1026
2026-04-04 10:30:00,METAR YSSY 041030Z AUTO 16015KT 9999 SHRA FEW015 SCT020 BKN025 18/16 Q1025
2026-04-04 10:00:00,METAR YSSY 041000Z AUTO 20015KT 9999 // FEW024 BKN040 19/16 Q1025
2026-04-04 09:30:00,METAR YSSY 040930Z AUTO 19015KT 9999 // FEW025 19/16 Q1025
2026-04-04 09:00:00,METAR YSSY 040900Z AUTO 20015KT 9999 // BKN027 19/16 Q1025
2026-04-04 08:30:00,METAR YSSY 040830Z AUTO 20015KT 9999 // OVC025 OVC032 19/16 Q1025
2026-04-04 08:15:00,SPECI YSSY 040815Z AUTO 20015G25KT 9999 // BKN025 OVC065 19/16 Q1025
2026-04-04 08:00:00,METAR YSSY 040800Z AUTO 20014KT 9999 // SCT027 BKN063 19/15 Q1025
2026-04-04 07:30:00,METAR YSSY 040730Z AUTO 19016KT 9999 // FEW061 19/15 Q1025
2026-04-04 07:00:00,METAR YSSY 040700Z AUTO 19017KT 9999 // NCD 19/16 Q1024
2026-04-04 06:30:00,METAR YSSY 040630Z AUTO 19016KT 9999 // FEW073 SCT085 19/16 Q1024
2026-04-04 06:00:00,METAR YSSY 040600Z AUTO 20017KT 9999 // FEW060 BKN072 OVC081 19/16 Q1024
2026-04-04 05:30:00,METAR YSSY 040530Z AUTO 20018KT 9999 // BKN058 OVC072 19/16 Q1024
2026-04-04 05:00:00,METAR YSSY 040500Z 20018KT 9999 FEW017 SCT044 BKN052 19/16 Q1024
2026-04-04 04:30:00,METAR YSSY 040430Z 19019KT 9999 FEW018 BKN050 BKN065 19/16 Q1024
2026-04-04 04:00:00,METAR YSSY 040400Z 19019KT 9999 FEW016 SCT044 BKN048 19/16 Q1024
2026-04-04 03:30:00,SPECI YSSY 040330Z 19018G28KT 9999 FEW016 SCT038 BKN045 19/16 Q1025
2026-04-04 03:00:00,METAR YSSY 040300Z 19019KT 9999 FEW017 SCT037 BKN045 19/17 Q1025
2026-04-04 02:30:00,METAR YSSY 040230Z 19019KT 9999 -DZ FEW014 SCT022 BKN037 19/17 Q1025
2026-04-04 02:00:00,METAR YSSY 040200Z 20015KT 9999 -SHRA FEW014 BKN022 BKN030 19/17 Q1025
2026-04-04 01:30:00,METAR YSSY 040130Z 20016KT 9999 -DZ VCSH FEW013 BKN018 BKN037 19/17 Q1026
2026-04-04 01:00:00,METAR YSSY 040100Z 17015KT 9999 FEW017 SCT025 BKN037 20/16 Q1026
2026-04-04 00:30:00,METAR YSSY 040030Z 16014KT 9999 FEW014 SCT022 BKN035 20/17 Q1026
2026-04-04 00:00:00,METAR YSSY 040000Z 16013KT 9999 -DZ VCSH FEW013 SCT022 BKN030 19/17 Q1026
2026-04-03 23:30:00,METAR YSSY 032330Z 16015KT 9999 -DZ FEW012 SCT020 BKN030 19/16 Q1026
2026-04-03 23:00:00,METAR YSSY 032300Z 15015KT 9999 -DZ VCSH FEW012 SCT018 BKN025 18/16 Q1026
2026-04-03 22:30:00,METAR YSSY 032230Z 16017KT 9999 FEW015 SCT020 BKN025 19/16 Q1026
2026-04-03 22:00:00,METAR YSSY 032200Z 19016KT 9999 -DZ VCSH FEW011 BKN018 BKN022 19/17 Q1026
2026-04-03 21:30:00,METAR YSSY 032130Z 19015KT 9999 -SHRA FEW009 SCT015 BKN022 19/17 Q1025
2026-04-03 21:00:00,METAR YSSY 032100Z 18016KT 9999 VCSH FEW009 SCT012 BKN022 19/17 Q1025
2026-04-03 20:30:00,METAR YSSY 032030Z 18018KT 9999 -DZ VCSH FEW008 SCT022 BKN035 18/17 Q1025
2026-04-03 20:27:00,SPECI YSSY 032027Z 18019KT 9999 -DZ FEW008 SCT018 BKN035 18/17 Q1025
2026-04-03 20:14:00,SPECI YSSY 032014Z 18018KT 7000 -RA SCT008 BKN017 BKN027 18/17 Q1025
2026-04-03 20:00:00,SPECI YSSY 032000Z 18019KT 6000 -RA SCT007 BKN011 BKN018 18/17 Q1024
2026-04-03 19:30:00,SPECI YSSY 031930Z 19019KT 6000 -RA BKN005 BKN010 BKN012 18/18 Q1024 RERA
2026-04-03 19:16:00,SPECI YSSY 031916Z 19019KT 6000 RA BKN005 BKN012 BKN014 18/18 Q1024 RERA
2026-04-03 19:00:00,METAR YSSY 031900Z 19013KT 2500 1000W +RA BKN006 BKN010 BKN012 18/18 Q1024
2026-04-03 18:59:00,SPECI YSSY 031859Z 19012KT 3000 1000W +RA SCT006 BKN010 BKN012 19/18 Q1024
2026-04-03 18:35:00,SPECI YSSY 031835Z 20013KT 5000 RA SCT007 BKN012 19/17 Q1024
2026-04-03 18:30:00,SPECI YSSY 031830Z 20014KT 8000 DZ SCT007 BKN010 19/18 Q1024
2026-04-03 18:00:00,METAR YSSY 031800Z AUTO 20015KT 9999 // BKN010 BKN013 OVC018 19/18 Q1023
2026-04-03 17:38:00,SPECI YSSY 031738Z AUTO 19015KT 9999 // BKN012 OVC016 OVC021 19/18 Q1023
2026-04-03 17:30:00,METAR YSSY 031730Z AUTO 20017KT 9999 // SCT009 BKN016 OVC021 19/18 Q1023
2026-04-03 17:26:00,SPECI YSSY 031726Z AUTO 20017KT 9999 // SCT011 BKN016 OVC023 19/18 Q1023
2026-04-03 17:00:00,METAR YSSY 031700Z AUTO 20017KT 9999 // BKN011 BKN022 BKN028 20/18 Q1023
2026-04-03 16:56:00,SPECI YSSY 031656Z AUTO 20017KT 9999 // BKN011 BKN020 BKN034 20/18 Q1023
2026-04-03 16:30:00,METAR YSSY 031630Z AUTO 20014KT 9999 // FEW024 BKN035 OVC045 20/18 Q1023
2026-04-03 16:00:00,METAR YSSY 031600Z AUTO 20013KT 9999 // FEW030 BKN045 21/17 Q1023
2026-04-03 15:30:00,METAR YSSY 031530Z AUTO 14009KT 9999 // NCD 21/16 Q1024
2026-04-03 15:00:00,METAR YSSY 031500Z AUTO 15011KT 9999 // FEW027 SCT049 21/16 Q1024
2026-04-03 14:30:00,METAR YSSY 031430Z AUTO 15013KT 9999 // SCT025 BKN033 21/16 Q1024
2026-04-03 14:00:00,METAR YSSY 031400Z AUTO 14012KT 9999 // FEW025 SCT034 BKN048 21/17 Q1024
2026-04-03 13:30:00,METAR YSSY 031330Z AUTO 15012KT 9999 // FEW046 BKN053 21/17 Q1024
2026-04-03 13:00:00,METAR YSSY 031300Z AUTO 15013KT 9999 // OVC051 22/17 Q1024
2026-04-03 12:30:00,METAR YSSY 031230Z AUTO 15015KT 9999 // FEW056 BKN094 22/17 Q1024
2026-04-03 12:00:00,METAR YSSY 031200Z AUTO 15015KT 9999 // BKN069 OVC096 22/17 Q1024
2026-04-03 11:30:00,METAR YSSY 031130Z AUTO 14015KT 9999 // FEW027 BKN049 OVC057 22/16 Q1024
2026-04-03 11:00:00,METAR YSSY 031100Z AUTO 14014KT 9999 // FEW043 OVC049 22/17 Q1024
2026-04-03 10:30:00,METAR YSSY 031030Z AUTO 14015KT 9999 // SCT026 BKN040 BKN051 22/17 Q1024
2026-04-03 10:00:00,METAR YSSY 031000Z AUTO 14015KT 9999 // SCT024 BKN041 BKN053 22/17 Q1024
2026-04-03 09:30:00,METAR YSSY 030930Z AUTO 15016KT 9999 // SCT048 BKN067 22/17 Q1023
2026-04-03 09:00:00,METAR YSSY 030900Z AUTO 15016KT 9999 // SCT022 BKN027 BKN032 22/17 Q1023
2026-04-03 08:30:00,METAR YSSY 030830Z AUTO 15016KT 9999 // SCT022 BKN030 BKN041 22/17 Q1023
2026-04-03 08:00:00,METAR YSSY 030800Z AUTO 15014KT 9999 // FEW033 22/17 Q1023
2026-04-03 07:30:00,METAR YSSY 030730Z AUTO 15015KT 9999 // FEW021 SCT028 BKN056 22/18 Q1023
2026-04-03 07:00:00,METAR YSSY 030700Z AUTO 16016KT 9999 // FEW021 SCT032 OVC056 22/18 Q1022
2026-04-03 06:30:00,METAR YSSY 030630Z AUTO 16017KT 9999 // SCT019 BKN026 BKN055 23/18 Q1022
2026-04-03 06:00:00,METAR YSSY 030600Z AUTO 17019KT 9999 // FEW021 BKN055 22/18 Q1022
2026-04-03 05:30:00,METAR YSSY 030530Z AUTO 17019KT 9999 // SCT019 OVC055 22/18 Q1022
2026-04-03 05:00:00,METAR YSSY 030500Z 17020KT 9999 FEW018 BKN050 23/19 Q1022
2026-04-03 04:30:00,METAR YSSY 030430Z 18020KT 9999 FEW018 BKN055 23/19 Q1022
2026-04-03 04:00:00,METAR YSSY 030400Z 18021KT 9999 FEW020 BKN055 23/19 Q1022
2026-04-03 03:30:00,METAR YSSY 030330Z 18020KT 9999 FEW020 BKN050 23/19 Q1022
2026-04-03 03:00:00,METAR YSSY 030300Z 19019KT 9999 FEW020 SCT040 BKN047 23/18 Q1022
2026-04-03 02:30:00,METAR YSSY 030230Z 19019KT 9999 FEW018 BKN035 23/18 Q1022
2026-04-03 02:00:00,METAR YSSY 030200Z 19019KT 9999 FEW017 SCT030 23/18 Q1022
2026-04-03 01:30:00,METAR YSSY 030130Z 19019KT 9999 FEW015 23/19 Q1023
2026-04-03 01:00:00,METAR YSSY 030100Z 18016KT 9999 FEW015 23/19 Q1023
2026-04-03 00:30:00,METAR YSSY 030030Z 18017KT 9999 FEW015 22/19 Q1023
2026-04-03 00:00:00,METAR YSSY 030000Z 18016KT 9999 FEW014 22/19 Q1023
2026-04-02 23:30:00,METAR YSSY 022330Z 18016KT 9999 FEW014 23/19 Q1023
2026-04-02 23:00:00,METAR YSSY 022300Z 18016KT 9999 FEW012 SCT018 22/19 Q1023
2026-04-02 22:30:00,METAR YSSY 022230Z 18015KT 9999 FEW012 SCT015 22/19 Q1022
2026-04-02 22:00:00,METAR YSSY 022200Z 21006KT 9999 FEW012 SCT022 21/19 Q1022
2026-04-02 21:30:00,METAR YSSY 022130Z 25005KT 9999 FEW008 20/18 Q1022
2026-04-02 21:00:00,METAR YSSY 022100Z 22009KT 9999 FEW007 19/17 Q1022
2026-04-02 20:30:00,METAR YSSY 022030Z 25005KT 9999 FEW046 18/16 Q1021
2026-04-02 20:00:00,METAR YSSY 022000Z 01006KT 9999 FEW045 19/17 Q1020
2026-04-02 19:30:00,METAR YSSY 021930Z 34006KT 9999 FEW045 19/17 Q1020
2026-04-02 19:00:00,METAR YSSY 021900Z 29007KT CAVOK 19/17 Q1021
2026-04-02 18:30:00,METAR YSSY 021830Z 31004KT CAVOK 19/17 Q1020
2026-04-02 18:00:00,METAR YSSY 021800Z AUTO 29005KT 280V030 9999 // NCD 19/17 Q1020
2026-04-02 17:30:00,METAR YSSY 021730Z AUTO 03004KT 9999 // NCD 20/17 Q1020
2026-04-02 17:00:00,METAR YSSY 021700Z AUTO 34005KT 320V020 9999 // NCD 20/18 Q1020
2026-04-02 16:30:00,METAR YSSY 021630Z AUTO 30005KT 9999 // NCD 20/18 Q1020
2026-04-02 16:00:00,METAR YSSY 021600Z AUTO 30004KT 9999 // NCD 20/18 Q1021
2026-04-02 15:30:00,METAR YSSY 021530Z AUTO 30004KT 9999 // NCD 20/18 Q1021
2026-04-02 15:00:00,METAR YSSY 021500Z AUTO 30004KT 9999 // NCD 20/18 Q1021
2026-04-02 14:30:00,METAR YSSY 021430Z AUTO 30006KT 9999 // NCD 21/18 Q1021
2026-04-02 14:00:00,METAR YSSY 021400Z AUTO 31005KT 9999 // NCD 21/18 Q1021
2026-04-02 13:30:00,METAR YSSY 021330Z AUTO 30005KT 9999 // NCD 22/18 Q1021
2026-04-02 13:00:00,METAR YSSY 021300Z AUTO 30006KT 9999 // NCD 22/18 Q1022
2026-04-02 12:30:00,METAR YSSY 021230Z AUTO 33006KT 9999 // NCD 22/18 Q1022
2026-04-02 12:00:00,METAR YSSY 021200Z AUTO 01008KT 9999 // NCD 23/18 Q1022
2026-04-02 11:30:00,METAR YSSY 021130Z AUTO 02008KT 9999 // NCD 23/18 Q1022
2026-04-02 11:00:00,METAR YSSY 021100Z AUTO 02008KT 9999 // NCD 23/19 Q1022
2026-04-02 10:30:00,METAR YSSY 021030Z AUTO 03009KT 9999 // NCD 23/19 Q1022
2026-04-02 10:00:00,METAR YSSY 021000Z AUTO 03008KT 9999 // NCD 23/19 Q1022
2026-04-02 09:30:00,METAR YSSY 020930Z AUTO 03009KT 9999 // NCD 23/18 Q1022
2026-04-02 09:00:00,METAR YSSY 020900Z AUTO 03009KT 9999 // NCD 23/18 Q1021
2026-04-02 08:30:00,METAR YSSY 020830Z AUTO 04010KT 9999 // NCD 23/18 Q1021
2026-04-02 08:00:00,METAR YSSY 020800Z AUTO 05012KT 9999 // NCD 23/19 Q1021
2026-04-02 07:30:00,METAR YSSY 020730Z AUTO 06013KT 9999 // NCD 24/18 Q1021
2026-04-02 07:00:00,METAR YSSY 020700Z AUTO 06013KT 9999 // NCD 24/18 Q1021
2026-04-02 06:30:00,METAR YSSY 020630Z AUTO 07014KT 9999 // NCD 25/17 Q1021
2026-04-02 06:00:00,METAR YSSY 020600Z AUTO 06013KT 9999 // NCD 26/16 Q1021
2026-04-02 05:30:00,METAR YSSY 020530Z AUTO 06014KT 9999 // NCD 26/16 Q1021
2026-04-02 05:00:00,METAR YSSY 020500Z 07015KT 9999 FEW040 26/15 Q1021
2026-04-02 04:30:00,METAR YSSY 020430Z 06013KT 9999 FEW040 27/16 Q1021
2026-04-02 04:00:00,METAR YSSY 020400Z 07013KT 9999 FEW040 27/15 Q1021
2026-04-02 03:30:00,METAR YSSY 020330Z 04010KT 9999 FEW040 27/15 Q1021
2026-04-02 03:00:00,METAR YSSY 020300Z 05011KT 9999 FEW040 26/15 Q1022
2026-04-02 02:30:00,METAR YSSY 020230Z 02011KT 9999 FEW040 26/16 Q1022
2026-04-02 02:00:00,METAR YSSY 020200Z 02009KT 9999 FEW045 27/16 Q1023
2026-04-02 01:30:00,METAR YSSY 020130Z 01007KT 9999 SCT035 26/16 Q1023
2026-04-02 01:00:00,METAR YSSY 020100Z 03007KT 9999 FEW032 26/16 Q1023
2026-04-02 00:30:00,METAR YSSY 020030Z AUTO 01006KT 9999 // NCD 26/16 Q1024
2026-04-02 00:00:00,METAR YSSY 020000Z 34007KT 310V010 9999 FEW030 SCT250 25/17 Q1024
2026-04-01 23:30:00,METAR YSSY 012330Z 29007KT 270V330 9999 FEW030 SCT250 24/17 Q1024
2026-04-01 23:00:00,METAR YSSY 012300Z 30006KT 9999 FEW030 SCT250 23/17 Q1024
2026-04-01 22:30:00,METAR YSSY 012230Z 32005KT CAVOK 22/18 Q1024
2026-04-01 22:00:00,METAR YSSY 012200Z 32005KT CAVOK 20/17 Q1024
2026-04-01 21:30:00,METAR YSSY 012130Z 31005KT CAVOK 20/17 Q1024
2026-04-01 21:00:00,METAR YSSY 012100Z 30007KT CAVOK 19/17 Q1023
2026-04-01 20:30:00,METAR YSSY 012030Z 30008KT CAVOK 18/16 Q1023
2026-04-01 20:00:00,METAR YSSY 012000Z 30005KT CAVOK 19/17 Q1023
2026-04-01 19:30:00,METAR YSSY 011930Z 28003KT 9999 FEW030 18/17 Q1023
2026-04-01 19:00:00,METAR YSSY 011900Z 01004KT CAVOK 19/17 Q1022
2026-04-01 18:30:00,METAR YSSY 011830Z AUTO 04005KT 9999 // NCD 18/17 Q1022
2026-04-01 18:00:00,METAR YSSY 011800Z AUTO 00000KT 9999 // NCD 19/17 Q1022
2026-04-01 17:30:00,METAR YSSY 011730Z AUTO 00000KT 9999 // NCD 19/17 Q1022
2026-04-01 17:00:00,METAR YSSY 011700Z AUTO 00000KT 9999 // NCD 19/17 Q1022
2026-04-01 16:37:00,SPECI YSSY 011637Z AUTO 00000KT 9999 // NCD 19/17 Q1022
2026-04-01 16:30:00,METAR YSSY 011630Z AUTO 00000KT 9999 // NCD 19/17 Q1022
2026-04-01 16:00:00,METAR YSSY 011600Z AUTO 28004KT 9999 // NCD 19/17 Q1023
2026-04-01 15:30:00,METAR YSSY 011530Z AUTO 30004KT 9999 // NCD 20/17 Q1023
2026-04-01 15:00:00,METAR YSSY 011500Z AUTO 33004KT 9999 // NCD 20/17 Q1023
2026-04-01 14:30:00,METAR YSSY 011430Z AUTO 31005KT 9999 // BKN022 BKN027 20/18 Q1023
2026-04-01 14:00:00,METAR YSSY 011400Z AUTO 28005KT 9999 // NCD 20/17 Q1023
2026-04-01 13:30:00,METAR YSSY 011330Z AUTO 29005KT 9999 // FEW022 21/17 Q1023
2026-04-01 13:00:00,METAR YSSY 011300Z AUTO 29005KT 270V360 9999 // FEW022 21/17 Q1023
2026-04-01 12:31:00,SPECI YSSY 011231Z AUTO 01006KT 9999 // NCD 23/18 Q1023
2026-04-01 12:30:00,SPECI YSSY 011230Z AUTO 02006KT 9999 // NCD 23/18 Q1023
2026-04-01 12:00:00,METAR YSSY 011200Z AUTO 03007KT 9999 // NCD 23/18 Q1023
2026-04-01 11:30:00,METAR YSSY 011130Z AUTO 03008KT 9999 // NCD 23/18 Q1023
2026-04-01 11:00:00,METAR YSSY 011100Z AUTO 03008KT 9999 // NCD 23/18 Q1023
2026-04-01 10:30:00,METAR YSSY 011030Z AUTO 03008KT 9999 // NCD 23/18 Q1023
2026-04-01 10:00:00,METAR YSSY 011000Z AUTO 03010KT 9999 // NCD 23/18 Q1023
2026-04-01 09:30:00,METAR YSSY 010930Z AUTO 03010KT 9999 // NCD 23/18 Q1023
2026-04-01 09:00:00,METAR YSSY 010900Z AUTO 04010KT 9999 // NCD 23/17 Q1022
2026-04-01 08:30:00,METAR YSSY 010830Z AUTO 04010KT 9999 // NCD 23/17 Q1022
2026-04-01 08:00:00,METAR YSSY 010800Z AUTO 05011KT 9999 // NCD 23/17 Q1022
2026-04-01 07:30:00,METAR YSSY 010730Z AUTO 05014KT 9999 // NCD 23/17 Q1022
2026-04-01 07:00:00,METAR YSSY 010700Z AUTO 06015KT 9999 // NCD 24/17 Q1022
2026-04-01 06:30:00,METAR YSSY 010630Z AUTO 06013KT 9999 // NCD 25/16 Q1021
2026-04-01 06:00:00,METAR YSSY 010600Z AUTO 06015KT 9999 // NCD 26/16 Q1021
2026-04-01 05:30:00,METAR YSSY 010530Z AUTO 07014KT 9999 // NCD 26/16 Q1021
2026-04-01 05:00:00,METAR YSSY 010500Z 05014KT CAVOK 26/16 Q1021
2026-04-01 04:30:00,METAR YSSY 010430Z 06016KT 9999 FEW045 26/16 Q1021
2026-04-01 04:00:00,METAR YSSY 010400Z 05014KT 9999 FEW045 26/16 Q1021
2026-04-01 03:30:00,METAR YSSY 010330Z 05014KT 9999 FEW045 26/15 Q1022
2026-04-01 03:00:00,METAR YSSY 010300Z 05014KT CAVOK 26/14 Q1022
2026-04-01 02:30:00,METAR YSSY 010230Z 02014KT 9999 FEW045 26/13 Q1022
2026-04-01 02:00:00,METAR YSSY 010200Z 04013KT 9999 FEW045 26/15 Q1023
2026-04-01 01:30:00,METAR YSSY 010130Z 03011KT 9999 FEW045 26/14 Q1023
2026-04-01 01:00:00,METAR YSSY 010100Z 04010KT 9999 FEW040 26/15 Q1023
2026-04-01 00:30:00,METAR YSSY 010030Z 02009KT 9999 FEW040 25/16 Q1024
2026-04-01 00:00:00,METAR YSSY 010000Z 03009KT 9999 FEW035 25/15 Q1024
2026-03-31 23:30:00,METAR YSSY 312330Z 36005KT 260V030 CAVOK 24/15 Q1024
2026-03-31 23:00:00,METAR YSSY 312300Z 27005KT 9999 FEW030 22/16 Q1024
2026-03-31 22:30:00,METAR YSSY 312230Z 31005KT 9999 FEW030 21/16 Q1024
2026-03-31 22:00:00,METAR YSSY 312200Z 30005KT 9999 FEW030 21/16 Q1024
2026-03-31 21:30:00,METAR YSSY 312130Z 33005KT 9999 FEW030 20/16 Q1024
2026-03-31 21:00:00,METAR YSSY 312100Z 32006KT 9999 FEW030 19/16 Q1024
2026-03-31 20:30:00,METAR YSSY 312030Z 31006KT 9999 FEW030 18/15 Q1023
2026-03-31 20:00:00,METAR YSSY 312000Z 35005KT CAVOK 18/16 Q1023
2026-03-31 19:30:00,METAR YSSY 311930Z 30006KT CAVOK 18/15 Q1023
2026-03-31 19:00:00,METAR YSSY 311900Z 32004KT CAVOK 18/16 Q1023
2026-03-31 18:30:00,METAR YSSY 311830Z AUTO 35005KT 9999 // NCD 18/15 Q1022
2026-03-31 18:00:00,METAR YSSY 311800Z AUTO 36004KT 9999 // NCD 19/15 Q1022
2026-03-31 17:30:00,METAR YSSY 311730Z AUTO 35004KT 9999 // NCD 19/15 Q1022
2026-03-31 17:00:00,METAR YSSY 311700Z AUTO 03003KT 9999 // NCD 19/15 Q1022
2026-03-31 16:30:00,METAR YSSY 311630Z AUTO 00000KT 9999 // SCT060 19/15 Q1023
2026-03-31 16:00:00,METAR YSSY 311600Z AUTO 28005KT 9999 // NCD 19/15 Q1023
2026-03-31 15:30:00,METAR YSSY 311530Z AUTO 29006KT 9999 // FEW030 19/16 Q1023
2026-03-31 15:00:00,METAR YSSY 311500Z AUTO 29006KT 9999 // SCT025 BKN034 BKN043 19/16 Q1023
2026-03-31 14:30:00,METAR YSSY 311430Z AUTO 29006KT 9999 // SCT025 19/16 Q1023
2026-03-31 14:00:00,METAR YSSY 311400Z AUTO 29005KT 9999 // SCT028 20/16 Q1023
2026-03-31 13:30:00,METAR YSSY 311330Z AUTO 27005KT 9999 // BKN028 BKN032 20/16 Q1024
2026-03-31 13:00:00,METAR YSSY 311300Z AUTO 36005KT 9999 // BKN030 21/16 Q1024
2026-03-31 12:30:00,METAR YSSY 311230Z AUTO 02006KT 9999 // NCD 22/16 Q1024
2026-03-31 12:00:00,METAR YSSY 311200Z AUTO 03007KT 9999 // NCD 22/16 Q1024
2026-03-31 11:30:00,METAR YSSY 311130Z AUTO 03007KT 9999 // NCD 22/16 Q1024
2026-03-31 11:00:00,METAR YSSY 311100Z AUTO 03007KT 9999 // NCD 22/16 Q1024
2026-03-31 10:30:00,METAR YSSY 311030Z AUTO 03006KT 9999 // NCD 22/15 Q1024
2026-03-31 10:00:00,METAR YSSY 311000Z AUTO 03008KT 9999 // NCD 22/15 Q1023
2026-03-31 09:30:00,METAR YSSY 310930Z AUTO 03011KT 9999 // NCD 23/16 Q1023
2026-03-31 09:00:00,METAR YSSY 310900Z AUTO 04009KT 9999 // NCD 23/16 Q1023
2026-03-31 08:30:00,METAR YSSY 310830Z AUTO 05009KT 9999 // NCD 22/16 Q1022
2026-03-31 08:00:00,METAR YSSY 310800Z AUTO 05013KT 9999 // NCD 23/15 Q1022
2026-03-31 07:30:00,METAR YSSY 310730Z AUTO 05013KT 9999 // NCD 23/14 Q1022
2026-03-31 07:00:00,METAR YSSY 310700Z AUTO 05013KT 9999 // NCD 24/13 Q1022
2026-03-31 06:30:00,METAR YSSY 310630Z AUTO 06013KT 9999 // NCD 24/14 Q1022
2026-03-31 06:00:00,METAR YSSY 310600Z AUTO 06013KT 9999 // NCD 24/13 Q1022
2026-03-31 05:30:00,METAR YSSY 310530Z AUTO 06014KT 9999 // NCD 25/13 Q1022
2026-03-31 05:00:00,METAR YSSY 310500Z 05014KT 9999 FEW040 25/13 Q1022
2026-03-31 04:30:00,METAR YSSY 310430Z 06012KT 9999 FEW038 25/14 Q1022
2026-03-31 04:00:00,METAR YSSY 310400Z 07015KT 9999 SCT038 25/15 Q1022
2026-03-31 03:30:00,METAR YSSY 310330Z 07011KT 9999 SCT038 25/15 Q1023
2026-03-31 03:00:00,METAR YSSY 310300Z 06011KT 9999 SCT040 25/14 Q1023
2026-03-31 02:30:00,METAR YSSY 310230Z 07011KT 9999 SCT040 25/15 Q1024
2026-03-31 02:00:00,METAR YSSY 310200Z 17007KT 9999 SCT040 23/14 Q1024
2026-03-31 01:30:00,METAR YSSY 310130Z 16006KT 120V180 9999 SCT040 22/16 Q1025
2026-03-31 01:00:00,METAR YSSY 310100Z 17005KT 9999 SCT035 SCT250 23/15 Q1025
2026-03-31 00:30:00,METAR YSSY 310030Z 20006KT 9999 SCT035 22/16 Q1026
2026-03-31 00:00:00,METAR YSSY 310000Z 23006KT 210V270 9999 FEW035 SCT250 22/16 Q1026
2026-03-30 23:30:00,METAR YSSY 302330Z 26004KT 9999 FEW040 SCT250 22/15 Q1026
2026-03-30 23:00:00,METAR YSSY 302300Z 28005KT 9999 FEW040 SCT250 21/15 Q1026
2026-03-30 22:30:00,METAR YSSY 302230Z 25002KT 9999 FEW040 SCT250 19/14 Q1026
2026-03-30 22:00:00,METAR YSSY 302200Z 29004KT 9999 FEW040 SCT055 18/14 Q1026
2026-03-30 21:30:00,METAR YSSY 302130Z 31005KT 9999 FEW040 SCT250 17/13 Q1026
2026-03-30 21:00:00,METAR YSSY 302100Z 31006KT 9999 FEW040 SCT250 17/13 Q1025
2026-03-30 20:30:00,METAR YSSY 302030Z 32006KT 9999 FEW040 SCT250 16/13 Q1025
2026-03-30 20:00:00,METAR YSSY 302000Z 32006KT 9999 FEW040 SCT250 16/13 Q1025
2026-03-30 19:30:00,METAR YSSY 301930Z 32006KT 9999 FEW040 SCT250 17/14 Q1024
2026-03-30 19:00:00,METAR YSSY 301900Z 33004KT CAVOK 17/13 Q1024
2026-03-30 18:30:00,METAR YSSY 301830Z AUTO 35002KT 9999 // NCD 17/14 Q1024
2026-03-30 18:00:00,METAR YSSY 301800Z AUTO 35003KT 9999 // NCD 17/13 Q1024
2026-03-30 17:30:00,METAR YSSY 301730Z AUTO 35003KT 9999 // NCD 17/14 Q1024
2026-03-30 17:00:00,METAR YSSY 301700Z AUTO 35005KT 9999 // NCD 17/13 Q1024
2026-03-30 16:30:00,METAR YSSY 301630Z AUTO 36004KT 9999 // NCD 17/13 Q1024
2026-03-30 16:00:00,METAR YSSY 301600Z AUTO 34003KT 9999 // NCD 18/13 Q1024
2026-03-30 15:30:00,METAR YSSY 301530Z AUTO 34003KT 9999 // OVC051 18/13 Q1024
2026-03-30 15:00:00,METAR YSSY 301500Z AUTO 35004KT 9999 // BKN051 19/13 Q1025
2026-03-30 14:30:00,METAR YSSY 301430Z AUTO 29005KT 9999 // BKN051 19/13 Q1025
2026-03-30 14:00:00,METAR YSSY 301400Z AUTO 29005KT 9999 // BKN047 BKN052 19/13 Q1025
2026-03-30 13:30:00,METAR YSSY 301330Z AUTO 03004KT 9999 // BKN043 19/13 Q1025
2026-03-30 13:00:00,METAR YSSY 301300Z AUTO 03004KT 9999 // FEW042 BKN053 21/13 Q1025
2026-03-30 12:30:00,METAR YSSY 301230Z AUTO 03004KT 9999 // BKN039 BKN045 OVC052 20/13 Q1025
2026-03-30 12:00:00,METAR YSSY 301200Z AUTO 02005KT 9999 // BKN037 BKN049 21/13 Q1025
2026-03-30 11:30:00,METAR YSSY 301130Z AUTO 04005KT 9999 // NCD 21/13 Q1025
2026-03-30 11:00:00,METAR YSSY 301100Z AUTO 04006KT 9999 // NCD 21/13 Q1025
2026-03-30 10:30:00,METAR YSSY 301030Z AUTO 06006KT 9999 // NCD 20/12 Q1025
2026-03-30 10:00:00,METAR YSSY 301000Z AUTO 06007KT 9999 // NCD 20/12 Q1024
2026-03-30 09:30:00,METAR YSSY 300930Z AUTO 07007KT 9999 // NCD 20/12 Q1024
2026-03-30 09:00:00,METAR YSSY 300900Z AUTO 06007KT 9999 // NCD 21/12 Q1024
2026-03-30 08:30:00,METAR YSSY 300830Z AUTO 05007KT 9999 // NCD 21/12 Q1023
2026-03-30 08:00:00,METAR YSSY 300800Z AUTO 05008KT 9999 // NCD 21/12 Q1023
2026-03-30 07:30:00,METAR YSSY 300730Z AUTO 05010KT 9999 // NCD 22/12 Q1023
2026-03-30 07:00:00,METAR YSSY 300700Z AUTO 06011KT 9999 // NCD 22/12 Q1022
2026-03-30 06:30:00,METAR YSSY 300630Z AUTO 06012KT 9999 // NCD 23/12 Q1022
2026-03-30 06:00:00,METAR YSSY 300600Z AUTO 05010KT 9999 // NCD 23/13 Q1022
2026-03-30 05:30:00,METAR YSSY 300530Z AUTO 08011KT 9999 // NCD 23/14 Q1022
2026-03-30 05:00:00,METAR YSSY 300500Z 08009KT 9999 FEW033 24/13 Q1023
2026-03-30 04:30:00,METAR YSSY 300430Z 09010KT 9999 FEW030 23/14 Q1023
2026-03-30 04:00:00,METAR YSSY 300400Z 09011KT 9999 FEW032 24/14 Q1023
2026-03-30 03:30:00,METAR YSSY 300330Z 07009KT 9999 FEW028 SCT038 23/14 Q1023
2026-03-30 03:00:00,METAR YSSY 300300Z 13009KT 9999 FEW028 SCT042 24/14 Q1023
2026-03-30 02:30:00,METAR YSSY 300230Z 15008KT 9999 FEW030 SCT057 22/15 Q1024
2026-03-30 02:00:00,METAR YSSY 300200Z 12005KT 070V150 9999 FEW028 SCT055 23/15 Q1024
2026-03-30 01:30:00,METAR YSSY 300130Z 16006KT 9999 FEW042 SCT055 22/15 Q1025
2026-03-30 01:00:00,METAR YSSY 300100Z 19006KT 9999 SCT035 22/15 Q1025
2026-03-30 00:30:00,METAR YSSY 300030Z 20006KT 150V230 9999 FEW030 BKN055 22/15 Q1025
2026-03-30 00:00:00,METAR YSSY 300000Z 22006KT 150V240 9999 FEW026 BKN055 21/15 Q1025
2026-03-29 23:30:00,METAR YSSY 292330Z 22008KT 9999 FEW022 BKN050 21/16 Q1025
2026-03-29 23:00:00,METAR YSSY 292300Z 22007KT 9999 FEW025 BKN047 20/16 Q1025
2026-03-29 22:30:00,METAR YSSY 292230Z 25008KT 9999 FEW028 BKN045 19/16 Q1025
2026-03-29 22:00:00,METAR YSSY 292200Z 21005KT 9999 DZ VCSH FEW022 BKN035 BKN044 18/15 Q1025
2026-03-29 21:30:00,METAR YSSY 292130Z 30005KT 9999 -SHRA FEW026 SCT038 BKN045 18/14 Q1025
2026-03-29 21:00:00,METAR YSSY 292100Z 27003KT 9999 -DZ VCSH FEW018 BKN040 19/15 Q1024
2026-03-29 20:30:00,METAR YSSY 292030Z 32006KT 9999 -SHRA FEW018 BKN040 18/14 Q1024
2026-03-29 20:00:00,METAR YSSY 292000Z 27004KT 9999 FEW017 SCT040 BKN060 17/14 Q1024
2026-03-29 19:30:00,METAR YSSY 291930Z 30006KT 9999 VCSH FEW025 SCT037 BKN060 17/14 Q1023
2026-03-29 19:00:00,METAR YSSY 291900Z 32006KT 9999 -SHRA FEW025 SCT030 BKN038 17/14 Q1023
2026-03-29 18:30:00,METAR YSSY 291830Z 35005KT 9999 -SHRA SCT035 BKN050 17/14 Q1023
2026-03-29 18:00:00,METAR YSSY 291800Z AUTO 31007KT 9999 // SCT055 17/14 Q1023
2026-03-29 17:30:00,METAR YSSY 291730Z AUTO 32007KT 9999 // NCD 17/14 Q1023
2026-03-29 17:00:00,METAR YSSY 291700Z AUTO 32006KT 9999 // NCD 17/14 Q1023
2026-03-29 16:30:00,METAR YSSY 291630Z AUTO 33006KT 9999 // FEW040 SCT052 17/14 Q1023
2026-03-29 16:00:00,METAR YSSY 291600Z AUTO 35004KT 9999 // SCT040 OVC054 17/14 Q1023
2026-03-29 15:30:00,METAR YSSY 291530Z AUTO 34003KT 9999 -RA SCT040 BKN046 OVC057 18/14 Q1023
2026-03-29 15:00:00,METAR YSSY 291500Z AUTO 35004KT 9999 // OVC056 18/14 Q1023
2026-03-29 14:30:00,METAR YSSY 291430Z AUTO 29005KT 9999 // BKN058 17/14 Q1023
2026-03-29 14:00:00,METAR YSSY 291400Z AUTO 29006KT 9999 // SCT060 18/14 Q1024
2026-03-29 13:30:00,METAR YSSY 291330Z AUTO 27006KT 9999 // NCD 18/14 Q1024
2026-03-29 13:00:00,METAR YSSY 291300Z AUTO 27006KT 9999 // NCD 19/14 Q1024
2026-03-29 12:30:00,METAR YSSY 291230Z AUTO 25005KT 9999 // FEW034 SCT055 20/14 Q1024
2026-03-29 12:00:00,METAR YSSY 291200Z AUTO 18006KT 9999 // BKN036 OVC051 OVC060 21/15 Q1024
2026-03-29 11:30:00,METAR YSSY 291130Z AUTO 15006KT 9999 // BKN034 BKN051 20/14 Q1024
2026-03-29 11:00:00,METAR YSSY 291100Z AUTO 15006KT 9999 // SCT032 BKN041 20/14 Q1024
2026-03-29 10:30:00,METAR YSSY 291030Z AUTO 15007KT 9999 // FEW030 SCT037 20/14 Q1023
2026-03-29 10:00:00,METAR YSSY 291000Z AUTO 14008KT 9999 // SCT030 BKN036 BKN041 20/15 Q1023
2026-03-29 09:30:00,METAR YSSY 290930Z AUTO 15009KT 9999 // NCD 20/14 Q1023
2026-03-29 09:00:00,METAR YSSY 290900Z AUTO 15010KT 9999 // NCD 20/14 Q1022
2026-03-29 08:30:00,METAR YSSY 290830Z AUTO 16009KT 9999 // NCD 20/14 Q1022
2026-03-29 08:00:00,METAR YSSY 290800Z AUTO 16010KT 9999 // NCD 21/14 Q1022
2026-03-29 07:30:00,METAR YSSY 290730Z AUTO 17013KT 9999 // NCD 21/14 Q1021
2026-03-29 07:00:00,METAR YSSY 290700Z AUTO 16013KT 9999 // NCD 21/15 Q1021
2026-03-29 06:30:00,METAR YSSY 290630Z AUTO 17014KT 9999 // NCD 21/15 Q1021
2026-03-29 06:00:00,METAR YSSY 290600Z AUTO 17014KT 9999 // NCD 21/15 Q1021
2026-03-29 05:30:00,METAR YSSY 290530Z AUTO 17014KT 9999 // NCD 21/15 Q1020
2026-03-29 05:00:00,METAR YSSY 290500Z 16015KT 9999 FEW037 21/15 Q1020
2026-03-29 04:30:00,METAR YSSY 290430Z 17014KT 9999 FEW045 21/15 Q1020
2026-03-29 04:00:00,METAR YSSY 290400Z 18014KT 9999 FEW045 21/15 Q1020
2026-03-29 03:30:00,METAR YSSY 290330Z 17013KT 9999 FEW045 21/15 Q1020
2026-03-29 03:00:00,METAR YSSY 290300Z 17012KT 9999 FEW045 21/14 Q1021
2026-03-29 02:30:00,METAR YSSY 290230Z 17013KT 9999 FEW045 21/14 Q1021
2026-03-29 02:00:00,METAR YSSY 290200Z 17014KT 9999 FEW045 21/14 Q1021
2026-03-29 01:30:00,METAR YSSY 290130Z 18013KT 9999 FEW044 21/14 Q1022
2026-03-29 01:00:00,METAR YSSY 290100Z 18012KT 9999 FEW042 21/13 Q1022
2026-03-29 00:30:00,METAR YSSY 290030Z 19013KT 9999 FEW040 21/14 Q1022
2026-03-29 00:00:00,METAR YSSY 290000Z 19013KT 9999 FEW038 20/14 Q1022
2026-03-28 23:30:00,METAR YSSY 282330Z 19013KT 9999 FEW038 20/13 Q1022
2026-03-28 23:00:00,METAR YSSY 282300Z 21011KT 9999 FEW035 19/12 Q1022
2026-03-28 22:30:00,METAR YSSY 282230Z 26008KT 9999 FEW048 19/11 Q1022
2026-03-28 22:00:00,METAR YSSY 282200Z 25010KT 9999 FEW047 18/11 Q1021
2026-03-28 21:30:00,METAR YSSY 282130Z 26011KT 9999 FEW045 17/10 Q1021
2026-03-28 21:00:00,METAR YSSY 282100Z 26010KT 9999 FEW044 16/10 Q1021
2026-03-28 20:30:00,METAR YSSY 282030Z 27010KT 9999 FEW035 15/10 Q1020
2026-03-28 20:00:00,METAR YSSY 282000Z 26009KT 9999 FEW037 16/10 Q1020
2026-03-28 19:30:00,METAR YSSY 281930Z 25009KT 9999 FEW040 16/10 Q1019
2026-03-28 19:00:00,METAR YSSY 281900Z 25010KT 9999 FEW040 16/10 Q1019
2026-03-28 18:30:00,METAR YSSY 281830Z 24010KT 9999 FEW044 SCT065 17/11 Q1019
2026-03-28 18:00:00,METAR YSSY 281800Z AUTO 23013KT 9999 // FEW070 17/11 Q1019
2026-03-28 17:30:00,METAR YSSY 281730Z AUTO 25012KT 9999 // FEW046 SCT053 BKN068 17/10 Q1019
2026-03-28 17:00:00,METAR YSSY 281700Z AUTO 26014KT 9999 // BKN053 OVC064 17/11 Q1019
2026-03-28 16:30:00,METAR YSSY 281630Z AUTO 26011KT 9999 // BKN058 OVC074 16/11 Q1019
2026-03-28 16:00:00,METAR YSSY 281600Z AUTO 29010KT 9999 // OVC058 16/11 Q1019
2026-03-28 15:30:00,METAR YSSY 281530Z AUTO 24008KT 9999 // BKN062 16/11 Q1019
2026-03-28 15:00:00,METAR YSSY 281500Z AUTO 25008KT 9999 // OVC060 17/11 Q1018
2026-03-28 14:30:00,METAR YSSY 281430Z AUTO 25008KT 9999 // BKN064 17/11 Q1018
2026-03-28 14:00:00,METAR YSSY 281400Z AUTO 25008KT 9999 // OVC064 17/11 Q1018
2026-03-28 13:30:00,METAR YSSY 281330Z AUTO 24008KT 9999 // OVC062 17/11 Q1018
2026-03-28 13:00:00,METAR YSSY 281300Z AUTO 25008KT 9999 // SCT062 17/11 Q1018
2026-03-28 12:30:00,METAR YSSY 281230Z AUTO 23009KT 9999 // SCT062 18/11 Q1018
2026-03-28 12:00:00,METAR YSSY 281200Z AUTO 22008KT 9999 // SCT060 18/11 Q1018
2026-03-28 11:30:00,METAR YSSY 281130Z AUTO 23007KT 9999 // SCT060 19/10 Q1017
2026-03-28 11:00:00,METAR YSSY 281100Z AUTO 24007KT 9999 // FEW062 18/12 Q1017
2026-03-28 10:30:00,METAR YSSY 281030Z AUTO 25006KT 200V260 9999 // SCT062 18/11 Q1017
2026-03-28 10:00:00,METAR YSSY 281000Z AUTO 24007KT 9999 // SCT060 19/11 Q1017
2026-03-28 09:30:00,METAR YSSY 280930Z AUTO 19013KT 9999 // NCD 20/11 Q1017
2026-03-28 09:00:00,METAR YSSY 280900Z AUTO 19013KT 9999 // SCT063 20/12 Q1017
2026-03-28 08:30:00,METAR YSSY 280830Z AUTO 19013KT 9999 // OVC065 20/13 Q1016
2026-03-28 08:00:00,METAR YSSY 280800Z AUTO 19012KT 9999 // FEW067 20/13 Q1016
2026-03-28 07:30:00,METAR YSSY 280730Z AUTO 19010KT 9999 // SCT067 20/13 Q1016
2026-03-28 07:00:00,METAR YSSY 280700Z AUTO 18013KT 9999 // BKN067 20/12 Q1016
2026-03-28 06:30:00,METAR YSSY 280630Z AUTO 16013KT 9999 // BKN065 20/11 Q1015
2026-03-28 06:00:00,METAR YSSY 280600Z AUTO 19014KT 9999 // SCT063 20/11 Q1015
2026-03-28 05:30:00,METAR YSSY 280530Z AUTO 20016KT 9999 // FEW058 21/12 Q1015
2026-03-28 05:14:00,SPECI YSSY 280514Z AUTO 21015G25KT 9999 // SCT056 20/10 Q1015
2026-03-28 05:00:00,METAR YSSY 280500Z 21019KT CAVOK 20/10 Q1015
2026-03-28 04:30:00,METAR YSSY 280430Z 20016KT CAVOK 20/11 Q1015
2026-03-28 04:00:00,METAR YSSY 280400Z 20018KT CAVOK 20/11 Q1015
2026-03-28 03:48:00,SPECI YSSY 280348Z 21018G28KT CAVOK 20/11 Q1015
2026-03-28 03:30:00,METAR YSSY 280330Z 21019KT 9999 FEW046 20/10 Q1015
2026-03-28 03:00:00,METAR YSSY 280300Z 20019KT 9999 FEW046 20/11 Q1015
2026-03-28 02:37:00,SPECI YSSY 280237Z 20019G29KT 9999 FEW045 20/10 Q1016
2026-03-28 02:30:00,METAR YSSY 280230Z 20020KT 9999 FEW045 19/10 Q1016
2026-03-28 02:00:00,METAR YSSY 280200Z 21019KT 9999 FEW044 19/08 Q1016
2026-03-28 01:30:00,METAR YSSY 280130Z 21022KT 9999 FEW044 19/11 Q1016
2026-03-28 01:00:00,METAR YSSY 280100Z 21020KT 9999 FEW044 19/10 Q1016
2026-03-28 00:30:00,METAR YSSY 280030Z 20018KT 9999 FEW047 19/09 Q1016
2026-03-28 00:00:00,METAR YSSY 280000Z 23014KT 9999 FEW045 SCT290 18/08 Q1016
2026-03-27 23:30:00,METAR YSSY 272330Z 25014KT 9999 FEW044 SCT290 17/07 Q1016
2026-03-27 23:00:00,METAR YSSY 272300Z 24016KT 9999 FEW044 SCT170 BKN290 17/07 Q1015
2026-03-27 22:49:00,SPECI YSSY 272249Z 25016G26KT CAVOK 17/07 Q1015
2026-03-27 22:30:00,METAR YSSY 272230Z 26017KT CAVOK 16/07 Q1015
2026-03-27 22:00:00,METAR YSSY 272200Z 26017KT 9999 FEW048 BKN050 16/07 Q1015
2026-03-27 21:30:00,METAR YSSY 272130Z 27014KT 9999 BKN045 BKN060 15/07 Q1014
2026-03-27 21:00:00,METAR YSSY 272100Z 26015KT 9999 BKN045 BKN060 15/07 Q1014
2026-03-27 20:30:00,METAR YSSY 272030Z 26015KT 9999 BKN045 BKN060 15/07 Q1014
2026-03-27 20:00:00,METAR YSSY 272000Z 26016KT 9999 BKN048 BKN055 15/07 Q1013
2026-03-27 19:30:00,METAR YSSY 271930Z 26015KT 9999 FEW036 BKN050 15/07 Q1012
2026-03-27 19:00:00,METAR YSSY 271900Z 26013KT 9999 FEW035 BKN050 15/07 Q1012
2026-03-27 18:30:00,METAR YSSY 271830Z 26014KT 9999 FEW035 BKN050 15/07 Q1011
2026-03-27 18:00:00,METAR YSSY 271800Z AUTO 26015KT 9999 // BKN050 BKN099 15/07 Q1011
2026-03-27 17:30:00,METAR YSSY 271730Z AUTO 26015KT 9999 // SCT099 15/07 Q1011
2026-03-27 17:00:00,METAR YSSY 271700Z AUTO 26015KT 9999 // BKN099 15/06 Q1010
2026-03-27 16:30:00,METAR YSSY 271630Z AUTO 26013KT 9999 // BKN099 15/07 Q1010
2026-03-27 16:00:00,METAR YSSY 271600Z AUTO 26014KT 9999 // NCD 15/06 Q1010
2026-03-25 15:00:00,METAR YSSY 251500Z AUTO 35006KT 9999 // NCD 22/18 Q1012
2026-03-25 14:30:00,METAR YSSY 251430Z AUTO 36004KT 9999 // NCD 22/18 Q1012
2026-03-25 14:00:00,METAR YSSY 251400Z AUTO 33003KT 9999 // NCD 22/18 Q1012
2026-03-25 13:30:00,METAR YSSY 251330Z AUTO 31003KT 9999 // NCD 22/18 Q1013
2026-03-25 13:00:00,METAR YSSY 251300Z AUTO 36004KT 310V010 9999 // NCD 22/17 Q1013
2026-03-25 12:30:00,METAR YSSY 251230Z AUTO 00000KT 9999 // NCD 22/17 Q1013
2026-03-25 12:05:00,SPECI YSSY 251205Z AUTO 00000KT 9999 // NCD 23/17 Q1013
2026-03-25 12:04:00,SPECI YSSY 251204Z AUTO 00000KT 9999 // NCD 23/17 Q1013
2026-03-25 11:30:00,METAR YSSY 251130Z AUTO 01005KT 9999 // NCD 24/17 Q1013
2026-03-25 11:00:00,METAR YSSY 251100Z AUTO 36007KT 9999 // NCD 24/17 Q1013
2026-03-25 10:30:00,METAR YSSY 251030Z AUTO 36009KT 9999 // FEW096 24/17 Q1013
2026-03-25 10:00:00,METAR YSSY 251000Z AUTO 01007KT 9999 // SCT094 25/17 Q1013
2026-03-25 09:30:00,METAR YSSY 250930Z AUTO 03005KT 9999 // NCD 25/17 Q1013
2026-03-25 09:00:00,METAR YSSY 250900Z AUTO 03008KT 9999 // SCT100 25/16 Q1013
2026-03-25 08:30:00,METAR YSSY 250830Z AUTO 03008KT 9999 // FEW105 25/17 Q1012
2026-03-25 08:00:00,METAR YSSY 250800Z AUTO 03012KT 9999 // NCD 25/17 Q1012
2026-03-25 07:30:00,METAR YSSY 250730Z AUTO 03012KT 9999 // NCD 25/17 Q1012
2026-03-25 07:00:00,METAR YSSY 250700Z AUTO 03012KT 9999 // NCD 26/17 Q1012
2026-03-25 06:30:00,METAR YSSY 250630Z AUTO 05013KT 9999 // NCD 26/16 Q1012
2026-03-25 06:00:00,METAR YSSY 250600Z AUTO 05013KT 9999 // NCD 26/16 Q1012
2026-03-25 05:30:00,METAR YSSY 250530Z AUTO 07014KT 9999 // NCD 27/15 Q1012
2026-03-25 05:00:00,METAR YSSY 250500Z AUTO 07014KT 9999 // NCD 27/17 Q1012
2026-03-25 04:30:00,METAR YSSY 250430Z AUTO 06013KT 9999 // NCD 27/17 Q1012
2026-03-25 04:00:00,METAR YSSY 250400Z AUTO 07013KT 9999 // NCD 27/18 Q1013
2026-03-25 03:30:00,METAR YSSY 250330Z AUTO 09013KT 9999 // NCD 27/18 Q1013
2026-03-25 03:00:00,METAR YSSY 250300Z AUTO 09011KT 9999 // NCD 28/17 Q1013
2026-03-25 02:30:00,METAR YSSY 250230Z AUTO 11008KT 9999 // NCD 28/14 Q1014
2026-03-25 02:00:00,METAR YSSY 250200Z AUTO 31007KT 280V340 9999 // NCD 28/15 Q1014
2026-03-25 01:30:00,METAR YSSY 250130Z 35005KT 290V030 CAVOK 27/15 Q1014
2026-03-25 01:00:00,METAR YSSY 250100Z 30007KT 270V340 CAVOK 27/15 Q1015
2026-03-25 00:30:00,METAR YSSY 250030Z 29007KT 9999 FEW045 26/17 Q1015
2026-03-25 00:00:00,METAR YSSY 250000Z 31009KT 9999 FEW040 26/17 Q1015
2026-03-24 23:30:00,METAR YSSY 242330Z 30007KT CAVOK 25/17 Q1015
2026-03-24 23:00:00,METAR YSSY 242300Z 31007KT CAVOK 24/17 Q1016
2026-03-24 22:30:00,METAR YSSY 242230Z 29007KT CAVOK 23/18 Q1016
2026-03-24 22:00:00,METAR YSSY 242200Z 31006KT CAVOK 22/18 Q1016
2026-03-24 21:30:00,METAR YSSY 242130Z 31007KT CAVOK 21/17 Q1016
2026-03-24 21:00:00,METAR YSSY 242100Z AUTO 32006KT 9999 // NCD 21/18 Q1016
2026-03-24 20:30:00,METAR YSSY 242030Z 33007KT 9999 FEW028 20/18 Q1016
2026-03-24 20:00:00,METAR YSSY 242000Z 33006KT 9999 SCT028 20/18 Q1015
2026-03-24 19:30:00,METAR YSSY 241930Z 32007KT 9999 FEW027 20/18 Q1015
2026-03-24 19:00:00,METAR YSSY 241900Z 35007KT 9999 VCSH FEW025 BKN035 20/18 Q1015
2026-03-24 18:30:00,METAR YSSY 241830Z AUTO 34005KT 9999 -SHRA BKN027 BKN032 OVC037 20/18 Q1015
2026-03-24 18:29:00,SPECI YSSY 241829Z AUTO 34005KT 9999 -SHRA BKN027 OVC037 OVC045 20/18 Q1015
2026-03-24 18:12:00,SPECI YSSY 241812Z AUTO 33005KT 6000 -RA BKN027 OVC032 OVC040 20/18 Q1015
2026-03-24 18:00:00,METAR YSSY 241800Z AUTO 27004KT 260V330 9999 // BKN027 OVC032 OVC040 20/18 Q1015
2026-03-24 17:30:00,METAR YSSY 241730Z AUTO 26003KT 9999 // SCT031 20/17 Q1015
2026-03-24 17:00:00,METAR YSSY 241700Z AUTO 00000KT 9999 // NCD 20/17 Q1015
2026-03-24 16:30:00,METAR YSSY 241630Z AUTO 32004KT 9999 // NCD 20/17 Q1015
2026-03-24 16:00:00,METAR YSSY 241600Z AUTO 00000KT 9999 // NCD 21/18 Q1016
2026-03-24 15:30:00,METAR YSSY 241530Z AUTO 36004KT 9999 // FEW028 21/18 Q1016
2026-03-24 15:00:00,METAR YSSY 241500Z AUTO 27004KT 9999 // SCT026 SCT031 21/18 Q1016
2026-03-24 14:30:00,METAR YSSY 241430Z AUTO 25007KT 9999 // FEW024 21/18 Q1016
2026-03-24 14:27:00,SPECI YSSY 241427Z AUTO 25006KT 9999 // FEW024 21/18 Q1016
2026-03-24 14:00:00,METAR YSSY 241400Z AUTO 29006KT 9999 // SCT024 21/18 Q1017
2026-03-24 13:30:00,METAR YSSY 241330Z AUTO 28007KT 9999 // FEW024 21/18 Q1017
2026-03-24 13:00:00,METAR YSSY 241300Z AUTO 03005KT 9999 // NCD 22/17 Q1017
2026-03-24 12:50:00,SPECI YSSY 241250Z AUTO 03004KT 9999 // NCD 23/18 Q1017
2026-03-24 12:49:00,SPECI YSSY 241249Z AUTO 03003KT 9999 // NCD 23/18 Q1017
2026-03-24 12:30:00,METAR YSSY 241230Z AUTO 03003KT 9999 // NCD 23/18 Q1017
2026-03-24 12:00:00,METAR YSSY 241200Z AUTO 04004KT 9999 // NCD 23/18 Q1017
2026-03-24 11:30:00,METAR YSSY 241130Z AUTO 03004KT 9999 // FEW076 23/18 Q1017
2026-03-24 11:00:00,METAR YSSY 241100Z AUTO 04005KT 9999 // NCD 23/17 Q1017
2026-03-24 10:30:00,METAR YSSY 241030Z AUTO 06007KT 9999 // NCD 23/18 Q1017
2026-03-24 10:00:00,METAR YSSY 241000Z AUTO 07008KT 9999 // NCD 23/18 Q1017
2026-03-24 09:30:00,METAR YSSY 240930Z AUTO 07009KT 9999 // NCD 23/18 Q1017
2026-03-24 09:00:00,METAR YSSY 240900Z AUTO 08008KT 9999 // NCD 23/17 Q1017
2026-03-24 08:30:00,METAR YSSY 240830Z AUTO 08010KT 9999 // NCD 23/18 Q1017
2026-03-24 08:00:00,METAR YSSY 240800Z AUTO 08011KT 9999 // NCD 24/17 Q1017
2026-03-24 07:30:00,METAR YSSY 240730Z AUTO 07013KT 9999 // NCD 24/17 Q1017
2026-03-24 07:00:00,METAR YSSY 240700Z AUTO 07012KT 9999 // NCD 25/16 Q1017
2026-03-24 06:30:00,METAR YSSY 240630Z AUTO 08011KT 9999 // NCD 25/16 Q1017
2026-03-24 06:00:00,METAR YSSY 240600Z AUTO 08012KT 9999 // NCD 26/16 Q1017
2026-03-24 05:30:00,METAR YSSY 240530Z AUTO 08011KT 9999 // NCD 26/15 Q1017
2026-03-24 05:00:00,METAR YSSY 240500Z 08011KT 9999 FEW040 26/16 Q1017
2026-03-24 04:30:00,METAR YSSY 240430Z 10010KT 9999 FEW040 26/15 Q1017
2026-03-24 04:00:00,METAR YSSY 240400Z 08012KT 9999 FEW040 26/15 Q1017
2026-03-24 03:30:00,METAR YSSY 240330Z 08012KT 9999 FEW040 26/15 Q1018
2026-03-24 03:00:00,METAR YSSY 240300Z 08010KT 9999 FEW045 SCT065 27/16 Q1018
2026-03-24 02:30:00,METAR YSSY 240230Z 08009KT 9999 FEW045 SCT065 26/15 Q1018
2026-03-24 02:00:00,METAR YSSY 240200Z 08008KT 9999 FEW040 26/13 Q1019
2026-03-24 01:30:00,METAR YSSY 240130Z 06009KT 9999 FEW035 27/15 Q1019
2026-03-24 01:00:00,METAR YSSY 240100Z 07008KT 9999 FEW030 26/15 Q1019
2026-03-24 00:30:00,METAR YSSY 240030Z 13005KT 090V150 9999 FEW028 26/15 Q1020
2026-03-24 00:00:00,METAR YSSY 240000Z 07005KT 040V190 9999 FEW025 25/17 Q1020
2026-03-23 23:30:00,METAR YSSY 232330Z 01005KT 9999 SCT025 25/19 Q1020
2026-03-23 23:00:00,METAR YSSY 232300Z 29006KT 9999 SCT025 24/19 Q1020
2026-03-23 22:30:00,METAR YSSY 232230Z 29004KT 9999 FEW020 23/20 Q1020
2026-03-23 22:00:00,METAR YSSY 232200Z 26004KT 9999 FEW030 22/20 Q1020
2026-03-23 21:30:00,METAR YSSY 232130Z 23003KT 9999 FEW028 22/20 Q1020
2026-03-23 21:00:00,METAR YSSY 232100Z AUTO 25004KT 9999 // FEW032 SCT040 BKN061 21/20 Q1020
2026-03-23 20:30:00,METAR YSSY 232030Z 24004KT 210V280 9999 VCSH FEW025 SCT060 20/19 Q1020
2026-03-23 20:00:00,METAR YSSY 232000Z 27005KT 9999 VCSH FEW012 SCT025 20/19 Q1020
2026-03-23 19:30:00,METAR YSSY 231930Z 33001KT 9999 VCSH FEW025 SCT055 21/19 Q1019
2026-03-23 19:00:00,METAR YSSY 231900Z 34004KT 9999 VCSH FEW023 21/19 Q1019
2026-03-23 18:30:00,METAR YSSY 231830Z AUTO 00000KT 9999 // NCD 21/20 Q1019
2026-03-23 18:00:00,METAR YSSY 231800Z AUTO 27002KT 9999 -SHRA FEW030 SCT062 21/19 Q1019
2026-03-23 17:30:00,METAR YSSY 231730Z AUTO 35002KT 9999 // BKN032 BKN044 21/19 Q1019
2026-03-23 17:00:00,METAR YSSY 231700Z AUTO 30004KT 9999 // FEW025 SCT032 21/20 Q1019
2026-03-23 16:39:00,SPECI YSSY 231639Z AUTO 30004KT 9999 // NCD 21/19 Q1019
2026-03-23 16:30:00,METAR YSSY 231630Z AUTO 30004KT 9999 // NCD 21/19 Q1019
2026-03-23 16:00:00,METAR YSSY 231600Z AUTO 28005KT 9999 // NCD 21/19 Q1019
2026-03-23 15:30:00,METAR YSSY 231530Z AUTO 30005KT 9999 // FEW032 21/19 Q1020
2026-03-23 15:00:00,METAR YSSY 231500Z AUTO 34006KT 9999 // FEW025 SCT032 BKN044 22/19 Q1020
2026-03-23 14:58:00,SPECI YSSY 231458Z AUTO 35006KT 9999 -SHRA SCT027 SCT035 BKN044 22/19 Q1020
2026-03-23 14:41:00,SPECI YSSY 231441Z AUTO 36006KT 5000 RA SCT027 SCT031 BKN046 22/19 Q1020
2026-03-23 14:30:00,METAR YSSY 231430Z AUTO 01005KT 9999 // SCT027 23/19 Q1020
2026-03-23 14:00:00,METAR YSSY 231400Z AUTO 04008KT 9999 // SCT027 24/19 Q1020
2026-03-23 13:30:00,METAR YSSY 231330Z AUTO 05007KT 9999 // FEW046 23/18 Q1020
2026-03-23 13:00:00,METAR YSSY 231300Z AUTO 05008KT 9999 // NCD 23/18 Q1020
2026-03-23 12:30:00,METAR YSSY 231230Z AUTO 06008KT 9999 // NCD 23/19 Q1020
2026-03-23 12:11:00,SPECI YSSY 231211Z AUTO 05007KT 9999 // FEW027 23/19 Q1021
2026-03-23 12:10:00,SPECI YSSY 231210Z AUTO 05007KT 9999 // FEW027 SCT069 23/19 Q1021
2026-03-23 12:00:00,METAR YSSY 231200Z AUTO 05007KT 9999 // FEW027 SCT064 23/18 Q1021
2026-03-23 11:30:00,METAR YSSY 231130Z AUTO 06007KT 9999 // NCD 24/18 Q1021
2026-03-23 11:00:00,METAR YSSY 231100Z AUTO 06008KT 9999 // NCD 24/19 Q1021
2026-03-23 10:30:00,METAR YSSY 231030Z AUTO 06008KT 9999 // FEW026 SCT033 24/19 Q1021
2026-03-23 10:00:00,METAR YSSY 231000Z AUTO 07008KT 9999 // FEW026 24/19 Q1021
2026-03-23 09:30:00,METAR YSSY 230930Z AUTO 07008KT 9999 // FEW027 23/19 Q1021
2026-03-23 09:00:00,METAR YSSY 230900Z AUTO 07007KT 9999 // FEW025 23/19 Q1021
2026-03-23 08:30:00,METAR YSSY 230830Z AUTO 07008KT 9999 // NCD 24/18 Q1020
2026-03-23 08:05:00,SPECI YSSY 230805Z AUTO 07009KT 9999 // NCD 24/18 Q1020
2026-03-23 08:04:00,SPECI YSSY 230804Z AUTO 07009KT 9999 // NCD 24/18 Q1020
2026-03-23 07:30:00,METAR YSSY 230730Z AUTO 08011KT 9999 // FEW027 24/19 Q1020
2026-03-23 07:00:00,METAR YSSY 230700Z AUTO 08013KT 9999 // FEW025 24/19 Q1020
2026-03-23 06:30:00,METAR YSSY 230630Z AUTO 07012KT 9999 // FEW029 SCT034 25/18 Q1020
2026-03-23 06:00:00,METAR YSSY 230600Z AUTO 06012KT 9999 // FEW028 SCT033 26/18 Q1020
2026-03-23 05:30:00,METAR YSSY 230530Z AUTO 06010KT 9999 // SCT028 26/18 Q1020
2026-03-23 05:00:00,METAR YSSY 230500Z 07012KT 9999 FEW025 26/19 Q1020
2026-03-23 04:30:00,METAR YSSY 230430Z 06012KT 9999 FEW030 26/17 Q1020
2026-03-23 04:00:00,METAR YSSY 230400Z 08014KT 9999 FEW030 27/18 Q1020
2026-03-23 03:30:00,METAR YSSY 230330Z 06011KT 9999 FEW030 26/17 Q1020
2026-03-23 03:00:00,METAR YSSY 230300Z 05012KT 9999 FEW030 26/17 Q1020
2026-03-23 02:30:00,METAR YSSY 230230Z 06011KT 9999 SCT027 26/18 Q1021
2026-03-23 02:00:00,METAR YSSY 230200Z 07008KT 9999 FEW022 SCT045 26/19 Q1021
2026-03-23 01:30:00,METAR YSSY 230130Z 06010KT 9999 FEW022 SCT045 25/20 Q1021
2026-03-23 01:00:00,METAR YSSY 230100Z 07012KT 9999 FEW018 SCT030 25/18 Q1021
2026-03-23 00:30:00,METAR YSSY 230030Z 10007KT 9999 FEW018 SCT045 25/19 Q1021
2026-03-23 00:00:00,METAR YSSY 230000Z 09010KT 9999 -DZ VCSH FEW017 SCT022 BKN030 25/20 Q1022
2026-03-22 23:30:00,METAR YSSY 222330Z 07011KT 9999 -SHRA FEW018 BKN025 24/19 Q1022
2026-03-22 23:00:00,METAR YSSY 222300Z 17004KT 130V230 9999 FEW020 BKN025 23/21 Q1022
2026-03-22 22:30:00,METAR YSSY 222230Z 23007KT 9999 FEW014 SCT027 22/20 Q1022
2026-03-22 22:00:00,METAR YSSY 222200Z 21006KT 9999 FEW009 SCT027 22/20 Q1022
2026-03-22 21:53:00,SPECI YSSY 222153Z 22006KT 9999 -SHRA FEW014 SCT027 BKN060 22/20 Q1022
2026-03-22 21:48:00,SPECI YSSY 222148Z 22006KT 9999 3000NE SHRA FEW009 SCT020 BKN054 21/20 Q1022
2026-03-22 21:30:00,METAR YSSY 222130Z 23006KT 9999 FEW008 SCT040 21/19 Q1021
2026-03-22 21:00:00,METAR YSSY 222100Z 23005KT 9999 FEW013 SCT048 21/19 Q1021
2026-03-22 20:30:00,METAR YSSY 222030Z 26005KT 9999 VCSH FEW014 SCT048 20/19 Q1021
2026-03-22 20:00:00,METAR YSSY 222000Z 30005KT 9999 VCSH FEW014 BKN047 20/19 Q1021
2026-03-22 19:30:00,METAR YSSY 221930Z 04006KT 9999 -DZ VCSH FEW008 SCT027 BKN045 21/19 Q1021
2026-03-22 19:00:00,METAR YSSY 221900Z 08004KT 9999 FEW016 SCT030 BKN045 21/19 Q1020
2026-03-22 18:30:00,METAR YSSY 221830Z 11004KT 9999 FEW013 21/19 Q1020
2026-03-22 18:00:00,METAR YSSY 221800Z AUTO 09007KT 9999 // BKN125 20/19 Q1020
2026-03-22 17:30:00,METAR YSSY 221730Z AUTO 09005KT 9999 // FEW047 20/18 Q1020
2026-03-22 17:00:00,METAR YSSY 221700Z AUTO 08005KT 9999 -SHRA SCT069 BKN079 OVC089 20/18 Q1020
2026-03-22 16:30:00,METAR YSSY 221630Z AUTO 06010KT 9999 // FEW051 SCT062 BKN086 21/19 Q1020
2026-03-22 16:00:00,METAR YSSY 221600Z AUTO 12012KT 9999 // BKN047 BKN079 OVC091 20/19 Q1021
2026-03-22 15:30:00,METAR YSSY 221530Z AUTO 09012KT 9999 // FEW024 SCT040 OVC100 21/19 Q1021
2026-03-22 15:00:00,METAR YSSY 221500Z AUTO 09005KT 050V120 9999 // FEW020 SCT025 BKN036 21/19 Q1021 RESHRA
2026-03-22 14:31:00,SPECI YSSY 221431Z AUTO 10005KT 060V120 9999 -SHRA FEW009 SCT023 OVC055 20/18 Q1021 RESHRA
2026-03-22 14:30:00,SPECI YSSY 221430Z AUTO 09005KT 050V120 9999 -SHRA FEW009 SCT023 OVC055 20/18 Q1021 RESHRA
2026-03-22 14:07:00,SPECI YSSY 221407Z AUTO 07016KT 060V140 3700 RA FEW008 SCT024 BKN035 21/18 Q1021
2026-03-22 14:05:00,SPECI YSSY 221405Z AUTO 07016KT 070V140 9999 +RA FEW020 SCT024 BKN035 21/18 Q1021
2026-03-22 13:30:00,METAR YSSY 221330Z AUTO 12007KT 9999 // FEW044 BKN054 OVC072 22/18 Q1021
2026-03-22 13:00:00,METAR YSSY 221300Z AUTO 11009KT 9999 // FEW074 22/18 Q1021
2026-03-22 12:30:00,METAR YSSY 221230Z AUTO 10009KT 9999 // FEW038 22/18 Q1021
2026-03-22 12:00:00,METAR YSSY 221200Z AUTO 12008KT 9999 // FEW029 23/18 Q1021
2026-03-22 11:30:00,METAR YSSY 221130Z AUTO 12009KT 9999 // NCD 23/17 Q1021
2026-03-22 11:00:00,METAR YSSY 221100Z AUTO 12010KT 9999 // FEW027 23/18 Q1021
2026-03-22 10:30:00,METAR YSSY 221030Z AUTO 12010KT 9999 // FEW027 23/18 Q1022
2026-03-22 10:00:00,METAR YSSY 221000Z AUTO 12009KT 9999 // FEW027 23/18 Q1021
2026-03-22 09:30:00,METAR YSSY 220930Z AUTO 12010KT 9999 // FEW038 23/18 Q1021
2026-03-22 09:00:00,METAR YSSY 220900Z AUTO 12010KT 9999 // FEW029 23/18 Q1021
2026-03-22 08:30:00,METAR YSSY 220830Z AUTO 12010KT 9999 // FEW027 24/19 Q1021
2026-03-22 08:00:00,METAR YSSY 220800Z AUTO 12010KT 9999 // FEW029 23/18 Q1021 RERA
2026-03-22 07:30:00,METAR YSSY 220730Z AUTO 13008KT 9999 SHRA BKN027 BKN034 BKN040 23/20 Q1021
2026-03-22 07:00:00,METAR YSSY 220700Z AUTO 14009KT 9999 // FEW029 SCT042 25/18 Q1020
2026-03-22 06:30:00,METAR YSSY 220630Z AUTO 14009KT 9999 // FEW031 25/18 Q1020
2026-03-22 06:00:00,METAR YSSY 220600Z AUTO 13010KT 9999 // FEW029 26/17 Q1020
2026-03-22 05:30:00,METAR YSSY 220530Z AUTO 14010KT 9999 // BKN029 25/18 Q1020
2026-03-22 05:00:00,METAR YSSY 220500Z 13010KT 9999 FEW018 SCT032 26/18 Q1020
2026-03-22 04:30:00,METAR YSSY 220430Z 13009KT 9999 FEW018 26/18 Q1020
2026-03-22 04:00:00,METAR YSSY 220400Z 15009KT 9999 FEW018 SCT030 26/18 Q1020
2026-03-22 03:30:00,METAR YSSY 220330Z 13010KT 9999 SCT030 26/17 Q1021
2026-03-22 03:00:00,METAR YSSY 220300Z 15010KT 9999 FEW033 27/17 Q1021
2026-03-22 02:30:00,METAR YSSY 220230Z 13009KT 9999 FEW030 27/18 Q1021
2026-03-22 02:00:00,METAR YSSY 220200Z 11010KT 9999 BKN030 27/17 Q1021
2026-03-22 01:30:00,METAR YSSY 220130Z 12009KT 9999 FEW030 BKN040 27/19 Q1021
2026-03-22 01:00:00,METAR YSSY 220100Z 19007KT 9999 FEW019 BKN030 23/20 Q1021
2026-03-22 00:30:00,METAR YSSY 220030Z 20011KT 9999 FEW019 SCT025 24/20 Q1022
2026-03-22 00:00:00,METAR YSSY 220000Z 25006KT 210V300 9999 VCTS VCSH FEW018 SCT034 FEW050CB 23/20 Q1022
2026-03-21 23:30:00,METAR YSSY 212330Z 30006KT 250V010 9999 VCSH FEW015 BKN027 23/20 Q1022
2026-03-21 23:24:00,SPECI YSSY 212324Z 22005KT 8000 -SHRA FEW014 SCT030 BKN055 22/19 Q1022 RESHRA
2026-03-21 23:18:00,SPECI YSSY 212318Z 20004KT 2000 SHRA FEW014 SCT027 BKN055 22/20 Q1022
2026-03-21 23:00:00,METAR YSSY 212300Z 25005KT 9999 -SHRA FEW022 SCT030 23/20 Q1022
2026-03-21 22:30:00,METAR YSSY 212230Z 31007KT 9999 FEW018 SCT023 23/20 Q1022
2026-03-21 22:00:00,METAR YSSY 212200Z 25006KT 9999 FEW018 SCT020 22/20 Q1022
2026-03-21 21:30:00,METAR YSSY 212130Z 27005KT 230V310 9999 -SHRA FEW018 BKN023 22/20 Q1021
2026-03-21 21:00:00,METAR YSSY 212100Z 28005KT 9999 FEW018 SCT027 20/19 Q1021
2026-03-21 20:30:00,METAR YSSY 212030Z 25004KT 200V280 9999 VCSH FEW017 SCT027 20/18 Q1021
2026-03-21 20:00:00,METAR YSSY 212000Z 33005KT 9999 -SHRA FEW018 SCT025 20/18 Q1021
2026-03-21 19:30:00,METAR YSSY 211930Z 31006KT 9999 VCSH FEW017 SCT025 19/18 Q1020
2026-03-21 19:00:00,METAR YSSY 211900Z 33007KT 9999 FEW025 19/17 Q1020
2026-03-21 18:30:00,METAR YSSY 211830Z 35005KT 9999 SCT025 19/17 Q1020
2026-03-21 18:00:00,METAR YSSY 211800Z AUTO 35007KT 9999 // FEW073 19/17 Q1020
2026-03-21 17:30:00,METAR YSSY 211730Z AUTO 35006KT 9999 // NCD 19/17 Q1020
2026-03-21 17:00:00,METAR YSSY 211700Z AUTO 31004KT 9999 // SCT025 BKN031 BKN042 19/17 Q1020
2026-03-21 16:30:00,METAR YSSY 211630Z AUTO 32006KT 9999 // FEW027 SCT034 19/17 Q1020
2026-03-21 16:00:00,METAR YSSY 211600Z AUTO 33005KT 9999 // NCD 19/17 Q1020
2026-03-21 15:30:00,METAR YSSY 211530Z AUTO 35006KT 9999 // NCD 20/18 Q1020
2026-03-21 15:00:00,METAR YSSY 211500Z AUTO 34004KT 9999 // NCD 20/17 Q1020
2026-03-21 14:30:00,METAR YSSY 211430Z AUTO 30006KT 9999 // NCD 20/18 Q1020
2026-03-21 14:00:00,METAR YSSY 211400Z AUTO 34006KT 9999 // NCD 20/18 Q1021
2026-03-21 13:30:00,METAR YSSY 211330Z AUTO 29004KT 9999 // NCD 21/18 Q1021
2026-03-21 13:00:00,METAR YSSY 211300Z AUTO 31006KT 9999 // NCD 21/18 Q1021
2026-03-21 12:30:00,METAR YSSY 211230Z AUTO 35006KT 9999 // NCD 21/18 Q1021
2026-03-21 12:00:00,METAR YSSY 211200Z AUTO 30005KT 9999 // NCD 22/19 Q1021
2026-03-21 11:30:00,METAR YSSY 211130Z AUTO 29005KT 9999 // NCD 21/19 Q1021
2026-03-21 11:00:00,METAR YSSY 211100Z AUTO 29004KT 9999 // NCD 21/19 Q1021
2026-03-21 10:30:00,METAR YSSY 211030Z AUTO 29003KT 9999 // SCT115 22/19 Q1021
2026-03-21 10:00:00,METAR YSSY 211000Z AUTO 25003KT 9999 // NCD 21/18 Q1021
2026-03-21 09:30:00,METAR YSSY 210930Z AUTO 29003KT 9999 // FEW029 SCT039 21/18 Q1020
2026-03-21 09:00:00,METAR YSSY 210900Z AUTO 28006KT 9999 // BKN025 22/19 Q1020
2026-03-21 08:30:00,METAR YSSY 210830Z AUTO 27004KT 170V310 9999 // SCT025 23/19 Q1019
2026-03-21 08:00:00,METAR YSSY 210800Z AUTO 19003KT 9999 // NCD 23/20 Q1019
2026-03-21 07:30:00,METAR YSSY 210730Z AUTO 19006KT 9999 // BKN025 BKN029 BKN034 24/20 Q1019
2026-03-21 07:00:00,METAR YSSY 210700Z AUTO 11006KT 080V140 9999 // NCD 24/19 Q1019
2026-03-21 06:30:00,METAR YSSY 210630Z AUTO 04007KT 9999 // NCD 24/19 Q1018
2026-03-21 06:00:00,METAR YSSY 210600Z AUTO 09009KT 9999 -RA FEW046 BKN090 OVC120 24/19 Q1019
2026-03-21 05:36:00,SPECI YSSY 210536Z AUTO 10011KT 9999 VCTS SCT026 BKN036 OVC120 24/19 Q1019 RETS
2026-03-21 05:30:00,SPECI YSSY 210530Z AUTO 09010KT 9999 TS BKN026 BKN032 OVC042 24/19 Q1019
2026-03-21 05:21:00,SPECI YSSY 210521Z AUTO 09010KT 9999 TS BKN024 BKN028 BKN042 24/19 Q1019
2026-03-21 05:00:00,METAR YSSY 210500Z 07011KT 9999 FEW015 SCT025 BKN120 FEW030CB 25/19 Q1018
2026-03-21 04:30:00,METAR YSSY 210430Z 06011KT 9999 FEW015 SCT025 BKN120 25/18 Q1017
2026-03-21 04:00:00,METAR YSSY 210400Z 10014KT 9999 VCSH SCT025 SCT045 BKN250 FEW030TCU 26/18 Q1018
2026-03-21 03:30:00,METAR YSSY 210330Z 12013KT 9999 SCT025 SCT045 FEW030TCU 27/20 Q1018
2026-03-21 03:00:00,METAR YSSY 210300Z 12011KT 9999 SCT028 SCT045 27/19 Q1019
2026-03-21 02:30:00,METAR YSSY 210230Z 13010KT 9999 FEW025 SCT040 26/18 Q1019
2026-03-21 02:00:00,METAR YSSY 210200Z 11005KT 9999 VCSH SCT030 SCT120 BKN240 FEW035TCU 25/18 Q1019
2026-03-21 01:30:00,METAR YSSY 210130Z 14007KT 9999 VCTS SCT028 BKN115 FEW030CB 26/18 Q1020
2026-03-21 01:00:00,METAR YSSY 210100Z 16007KT 9999 VCSH SCT028 BKN115 25/19 Q1020
2026-03-21 00:30:00,METAR YSSY 210030Z 15005KT 9999 SCT025 SCT110 25/20 Q1020
2026-03-21 00:00:00,METAR YSSY 210000Z 18005KT 9999 SCT025 SCT120 24/20 Q1020
2026-03-20 23:30:00,METAR YSSY 202330Z 23005KT 090V250 9999 SCT022 SCT120 24/21 Q1020
2026-03-20 23:00:00,METAR YSSY 202300Z 21005KT 9999 SCT018 SCT110 23/20 Q1020
2026-03-20 22:30:00,METAR YSSY 202230Z 21005KT 9999 FEW015 SCT110 23/20 Q1020
2026-03-20 22:00:00,METAR YSSY 202200Z 25004KT 9999 FEW012 SCT045 BKN120 22/20 Q1020
2026-03-20 21:30:00,METAR YSSY 202130Z 26003KT 9999 FEW024 SCT040 21/20 Q1020
2026-03-20 21:00:00,METAR YSSY 202100Z 29004KT 9999 FEW020 SCT045 21/19 Q1019
2026-03-20 20:30:00,METAR YSSY 202030Z 27005KT 9999 FEW020 SCT045 20/19 Q1019
2026-03-20 20:00:00,METAR YSSY 202000Z 31006KT 9999 FEW020 21/19 Q1018
2026-03-20 19:30:00,METAR YSSY 201930Z 32006KT 9999 FEW022 21/19 Q1018
2026-03-20 19:00:00,METAR YSSY 201900Z 34004KT 9999 FEW018 SCT035 21/19 Q1018
2026-03-20 18:30:00,METAR YSSY 201830Z AUTO 31004KT 9999 // NCD 21/19 Q1018
2026-03-20 18:00:00,METAR YSSY 201800Z AUTO 27004KT 9999 // SCT032 21/20 Q1018
2026-03-20 17:30:00,METAR YSSY 201730Z AUTO 27004KT 9999 // NCD 21/20 Q1017
2026-03-20 17:00:00,METAR YSSY 201700Z AUTO 23005KT 9999 // NCD 21/20 Q1017
2026-03-20 16:30:00,METAR YSSY 201630Z AUTO 00000KT 9999 // NCD 21/20 Q1018
2026-03-20 16:27:00,SPECI YSSY 201627Z AUTO 00000KT 9999 // NCD 21/20 Q1018
2026-03-20 16:00:00,METAR YSSY 201600Z AUTO 00000KT 9999 // NCD 21/20 Q1018
2026-03-20 15:30:00,METAR YSSY 201530Z AUTO 00000KT 9999 // NCD 22/20 Q1018
2026-03-20 15:00:00,METAR YSSY 201500Z AUTO 30003KT 9999 // SCT052 22/21 Q1018
2026-03-20 14:30:00,METAR YSSY 201430Z AUTO 27003KT 9999 // OVC050 22/20 Q1018
2026-03-20 14:00:00,METAR YSSY 201400Z AUTO 27004KT 230V300 9999 // OVC048 22/20 Q1018
2026-03-20 13:30:00,METAR YSSY 201330Z AUTO 25004KT 9999 -SHRA FEW027 SCT043 OVC050 22/20 Q1019
2026-03-20 13:00:00,METAR YSSY 201300Z AUTO 14004KT 9999 -SHRA FEW027 BKN045 OVC052 22/20 Q1019
2026-03-20 12:30:00,METAR YSSY 201230Z AUTO 13004KT 9999 -DZ SCT045 BKN056 BKN068 22/20 Q1019
2026-03-20 12:00:00,METAR YSSY 201200Z AUTO 22005KT 9999 // NCD 22/20 Q1019
2026-03-20 11:59:00,SPECI YSSY 201159Z AUTO 22005KT 9999 // NCD 22/20 Q1019
2026-03-20 11:30:00,METAR YSSY 201130Z AUTO 22003KT 9999 // FEW023 23/20 Q1019
2026-03-20 11:00:00,METAR YSSY 201100Z AUTO 00000KT 9999 // FEW021 23/20 Q1019
2026-03-20 10:30:00,METAR YSSY 201030Z AUTO 11004KT 9999 // NCD 23/19 Q1019
2026-03-20 10:00:00,METAR YSSY 201000Z AUTO 12004KT 9999 // FEW022 23/20 Q1019
2026-03-20 09:30:00,METAR YSSY 200930Z AUTO 08005KT 9999 // SCT022 BKN120 23/19 Q1018
2026-03-20 09:00:00,METAR YSSY 200900Z AUTO 08005KT 9999 // BKN120 23/19 Q1018
2026-03-20 08:30:00,METAR YSSY 200830Z AUTO 13005KT 9999 // NCD 23/20 Q1018
2026-03-20 08:00:00,METAR YSSY 200800Z AUTO 15006KT 9999 // FEW020 23/20 Q1018
2026-03-20 07:30:00,METAR YSSY 200730Z AUTO 15006KT 9999 // FEW020 24/20 Q1018
2026-03-20 07:00:00,METAR YSSY 200700Z AUTO 13009KT 9999 // NCD 24/20 Q1017
2026-03-20 06:30:00,METAR YSSY 200630Z AUTO 13008KT 9999 // FEW032 24/19 Q1017
2026-03-20 06:00:00,METAR YSSY 200600Z AUTO 14009KT 9999 // FEW028 SCT071 24/20 Q1017
2026-03-20 05:30:00,METAR YSSY 200530Z AUTO 12012KT 9999 // BKN019 OVC025 OVC047 24/19 Q1017
2026-03-20 05:00:00,METAR YSSY 200500Z 10012KT 090V170 9999 VCTS VCSH FEW018 SCT022 BKN080 FEW025CB 25/20 Q1017
2026-03-20 04:30:00,METAR YSSY 200430Z 18012KT 9999 VCTS VCSH SCT022 SCT070 FEW025CB 24/21 Q1017
2026-03-20 04:00:00,METAR YSSY 200400Z 18013KT 9999 VCSH SCT022 SCT060 FEW025TCU 24/20 Q1018
2026-03-20 03:30:00,METAR YSSY 200330Z 18013KT 9999 VCSH SCT025 SCT060 25/21 Q1018
2026-03-20 03:00:00,METAR YSSY 200300Z 18013KT 9999 VCSH SCT025 SCT070 24/20 Q1018
2026-03-20 02:30:00,METAR YSSY 200230Z AUTO 17013KT //// // NCD 25/20 Q1018
2026-03-20 02:06:00,SPECI YSSY 200206Z 18012KT 9999 SCT025 BKN065 25/20 Q1018
2026-03-20 01:30:00,METAR YSSY 200130Z 18012KT 9999 SCT022 BKN070 24/20 Q1018
2026-03-20 01:00:00,METAR YSSY 200100Z 18010G20KT 9999 SCT022 BKN065 24/20 Q1019
2026-03-20 00:30:00,METAR YSSY 200030Z AUTO 19012KT 9999 // FEW059 24/20 Q1019
2026-03-20 00:00:00,METAR YSSY 200000Z AUTO 19012KT 9999 // NCD 24/20 Q1019
2026-03-19 23:30:00,METAR YSSY 192330Z 19010KT 9999 SCT020 23/20 Q1019
2026-03-19 23:00:00,METAR YSSY 192300Z 20009KT 9999 FEW020 23/19 Q1019
2026-03-19 22:30:00,METAR YSSY 192230Z 20010KT 9999 FEW018 22/20 Q1018
2026-03-19 22:00:00,METAR YSSY 192200Z 21008KT 9999 FEW018 22/19 Q1018
2026-03-19 21:30:00,METAR YSSY 192130Z 23007KT 9999 FEW020 21/20 Q1018
2026-03-19 21:00:00,METAR YSSY 192100Z AUTO 23006KT 9999 // NCD 20/19 Q1018
2026-03-19 20:30:00,METAR YSSY 192030Z 22006KT 9999 FEW018 19/18 Q1017
2026-03-19 20:00:00,METAR YSSY 192000Z 19007KT 9999 FEW018 20/18 Q1017
2026-03-19 19:30:00,METAR YSSY 191930Z 23009KT 9999 FEW018 20/18 Q1016
2026-03-19 19:00:00,METAR YSSY 191900Z 25008KT 9999 FEW035 SCT110 BKN180 20/19 Q1016
2026-03-19 18:30:00,METAR YSSY 191830Z AUTO 23005KT 9999 -SHRA FEW054 BKN120 19/18 Q1016
2026-03-19 18:00:00,METAR YSSY 191800Z AUTO 29005KT 9999 // OVC110 20/18 Q1016
2026-03-19 17:33:00,SPECI YSSY 191733Z AUTO 33006KT 9999 -SHRA FEW009 OVC100 20/18 Q1017 RESHRA
2026-03-19 17:30:00,SPECI YSSY 191730Z AUTO 33005KT 9999 -SHRA SCT009 OVC100 20/18 Q1017 RESHRA
2026-03-19 17:07:00,SPECI YSSY 191707Z AUTO 17006KT 9000 SHRA BKN009 BKN019 BKN027 19/18 Q1017
2026-03-19 17:04:00,SPECI YSSY 191704Z AUTO 17007KT 7000 SHRA BKN009 BKN019 OVC027 19/18 Q1017
2026-03-19 17:00:00,SPECI YSSY 191700Z AUTO 16008KT 7000 SHRA SCT011 BKN020 BKN025 19/18 Q1017
2026-03-19 16:57:00,SPECI YSSY 191657Z AUTO 15008KT 6000 SHRA SCT011 BKN020 BKN025 19/18 Q1017
2026-03-19 16:30:00,METAR YSSY 191630Z AUTO 20011KT 9999 -SHRA SCT020 BKN027 BKN034 21/20 Q1017
2026-03-19 16:00:00,METAR YSSY 191600Z AUTO 20009KT 9999 DZ FEW010 BKN024 BKN034 21/20 Q1017
2026-03-19 15:53:00,SPECI YSSY 191553Z AUTO 19006KT 9999 // FEW010 SCT024 BKN034 21/20 Q1017
2026-03-19 15:30:00,METAR YSSY 191530Z AUTO 23005KT 9999 // FEW026 BKN061 21/19 Q1017
2026-03-19 15:00:00,METAR YSSY 191500Z AUTO 20005KT 9999 // NCD 21/19 Q1017
2026-03-19 14:30:00,METAR YSSY 191430Z AUTO 23005KT 9999 // NCD 21/19 Q1017
2026-03-19 14:00:00,METAR YSSY 191400Z AUTO 22006KT 9999 // FEW025 21/19 Q1017
2026-03-19 13:30:00,METAR YSSY 191330Z AUTO 23007KT 9999 // BKN025 BKN056 21/19 Q1017
2026-03-19 13:00:00,METAR YSSY 191300Z AUTO 21007KT 9999 // SCT056 BKN110 21/20 Q1017
2026-03-19 12:30:00,METAR YSSY 191230Z AUTO 20009KT 9999 -SHRA SCT026 BKN037 BKN050 22/20 Q1018
2026-03-19 12:22:00,SPECI YSSY 191222Z AUTO 20009KT 9000 -RA SCT025 BKN033 BKN041 22/20 Q1018
2026-03-19 12:00:00,METAR YSSY 191200Z AUTO 23007KT 9999 // FEW023 BKN060 22/19 Q1018
2026-03-19 11:30:00,METAR YSSY 191130Z AUTO 25005KT 9999 // FEW060 22/19 Q1018
2026-03-19 11:00:00,METAR YSSY 191100Z AUTO 00000KT 9999 -SHRA SCT021 SCT033 22/20 Q1018
2026-03-19 10:30:00,METAR YSSY 191030Z AUTO 20005KT 9999 // FEW028 SCT043 BKN064 23/20 Q1018
2026-03-19 10:00:00,METAR YSSY 191000Z AUTO 20005KT 9999 // FEW022 BKN068 23/20 Q1018
2026-03-19 09:30:00,METAR YSSY 190930Z AUTO 21006KT 9999 // FEW027 23/20 Q1017
2026-03-19 09:00:00,METAR YSSY 190900Z AUTO 19006KT 9999 // NCD 23/20 Q1017
2026-03-19 08:30:00,METAR YSSY 190830Z AUTO 17006KT 9999 // NCD 23/20 Q1016
2026-03-19 08:00:00,METAR YSSY 190800Z AUTO 17007KT 9999 // NCD 23/20 Q1016
2026-03-19 07:30:00,METAR YSSY 190730Z AUTO 18006KT 9999 // FEW024 23/20 Q1016
2026-03-19 07:00:00,METAR YSSY 190700Z AUTO 17007KT 9999 // SCT022 BKN027 OVC032 23/20 Q1016
2026-03-19 06:30:00,METAR YSSY 190630Z AUTO 17008KT 9999 // SCT027 23/20 Q1015
2026-03-19 06:00:00,METAR YSSY 190600Z AUTO 13008KT 9999 // FEW025 25/18 Q1015
2026-03-19 05:30:00,METAR YSSY 190530Z AUTO 14008KT 9999 // FEW025 25/19 Q1015
2026-03-19 05:00:00,METAR YSSY 190500Z AUTO 14009KT 9999 // FEW031 SCT039 25/19 Q1015
2026-03-19 04:30:00,METAR YSSY 190430Z AUTO 15009KT 9999 // BKN027 BKN035 25/19 Q1015
2026-03-19 04:00:00,METAR YSSY 190400Z AUTO 13008KT 9999 // NCD 25/19 Q1016
2026-03-19 03:30:00,METAR YSSY 190330Z AUTO 13007KT 9999 // FEW044 25/20 Q1016
2026-03-19 03:00:00,METAR YSSY 190300Z AUTO 18007KT 9999 VCTS SCT033 23/20 Q1016
2026-03-19 02:30:00,METAR YSSY 190230Z AUTO 18009KT 9999 // SCT055 BKN120 23/21 Q1017
2026-03-19 02:00:00,METAR YSSY 190200Z AUTO 18010KT 9999 // SCT055 BKN097 OVC120 24/20 Q1017
2026-03-19 01:30:00,METAR YSSY 190130Z AUTO 18010KT 9999 VCTS SCT051 OVC120 24/20 Q1017
2026-03-19 01:00:00,METAR YSSY 190100Z AUTO 17008KT 9999 // FEW049 OVC110 24/21 Q1017
2026-03-19 00:30:00,METAR YSSY 190030Z AUTO 18007KT 9999 // FEW049 OVC100 23/21 Q1018
2026-03-19 00:00:00,METAR YSSY 190000Z AUTO 22005KT 9999 // SCT030 OVC100 23/21 Q1018
2026-03-18 23:30:00,METAR YSSY 182330Z AUTO 22005KT 150V240 9999 // BKN030 BKN044 OVC100 22/21 Q1018
2026-03-18 23:00:00,METAR YSSY 182300Z AUTO 25004KT 9999 // FEW028 OVC099 22/21 Q1018
2026-03-18 22:30:00,METAR YSSY 182230Z AUTO 23005KT 190V250 9999 // OVC095 22/21 Q1018
2026-03-18 22:00:00,METAR YSSY 182200Z AUTO 25005KT 9999 // BKN097 21/20 Q1018
2026-03-18 21:30:00,METAR YSSY 182130Z AUTO 25005KT 9999 // FEW093 21/20 Q1018
2026-03-18 21:00:00,METAR YSSY 182100Z AUTO 24005KT 9999 // SCT090 21/20 Q1017
2026-03-18 20:30:00,METAR YSSY 182030Z AUTO 20005KT 9999 -SHRA FEW043 OVC090 21/20 Q1017
2026-03-18 20:00:00,METAR YSSY 182000Z AUTO 22005KT 9999 // BKN043 OVC086 21/20 Q1017
2026-03-18 19:30:00,METAR YSSY 181930Z AUTO 25006KT 9999 // FEW037 BKN041 BKN083 20/19 Q1017
2026-03-18 19:00:00,METAR YSSY 181900Z AUTO 25005KT 9999 // SCT041 BKN089 OVC125 21/20 Q1017
2026-03-18 18:30:00,METAR YSSY 181830Z AUTO 27005KT 9999 // FEW099 BKN125 21/20 Q1017
2026-03-18 18:00:00,METAR YSSY 181800Z AUTO 28004KT 9999 // OVC097 21/20 Q1017
2026-03-18 17:30:00,METAR YSSY 181730Z AUTO 19003KT 9999 // SCT043 BKN050 OVC097 21/20 Q1017
2026-03-18 17:00:00,METAR YSSY 181700Z AUTO 19005KT 9999 // FEW043 BKN048 OVC097 21/20 Q1017
2026-03-18 16:39:00,SPECI YSSY 181639Z AUTO 23004KT 9999 // SCT043 BKN048 21/20 Q1017
2026-03-18 16:30:00,METAR YSSY 181630Z AUTO 22005KT 9999 // BKN046 BKN097 21/20 Q1017
2026-03-18 16:00:00,METAR YSSY 181600Z AUTO 19004KT 9999 // FEW036 SCT099 21/20 Q1017
2026-03-18 15:30:00,METAR YSSY 181530Z AUTO 23003KT 9999 // SCT032 21/20 Q1018
2026-03-18 15:00:00,METAR YSSY 181500Z AUTO 23004KT 9999 // FEW034 21/20 Q1018
2026-03-18 14:30:00,METAR YSSY 181430Z AUTO 26004KT 9999 // NCD 21/20 Q1018
2026-03-18 14:00:00,METAR YSSY 181400Z AUTO 24004KT 9999 // FEW055 21/20 Q1019
2026-03-18 13:30:00,METAR YSSY 181330Z AUTO 27004KT 9999 // FEW075 21/20 Q1019
2026-03-18 13:00:00,METAR YSSY 181300Z AUTO 21004KT 9999 // FEW035 BKN077 21/20 Q1019
2026-03-18 12:30:00,METAR YSSY 181230Z AUTO 22006KT 9999 // FEW039 21/20 Q1019
2026-03-18 12:23:00,SPECI YSSY 181223Z AUTO 24006KT 9999 // NCD 21/20 Q1019
2026-03-18 12:22:00,SPECI YSSY 181222Z AUTO 24006KT 9999 // NCD 21/20 Q1019
2026-03-18 12:00:00,METAR YSSY 181200Z AUTO 24007KT 9999 // FEW043 21/20 Q1019
2026-03-18 11:30:00,METAR YSSY 181130Z AUTO 24006KT 9999 // FEW044 SCT083 OVC115 20/20 Q1020
2026-03-18 11:00:00,METAR YSSY 181100Z AUTO 23007KT 9999 DZ FEW039 OVC078 OVC100 20/20 Q1020
2026-03-18 10:38:00,SPECI YSSY 181038Z AUTO 19006KT 9999 -RA FEW014 BKN039 BKN053 20/20 Q1020
2026-03-18 10:30:00,SPECI YSSY 181030Z AUTO 19007KT 8000 -RA FEW014 BKN039 BKN055 21/20 Q1020
2026-03-18 10:25:00,SPECI YSSY 181025Z AUTO 19006KT 6000 -RA FEW014 BKN037 OVC052 21/20 Q1020
2026-03-18 10:00:00,METAR YSSY 181000Z AUTO 21006KT 9999 // SCT044 BKN057 BKN073 21/20 Q1020
2026-03-18 09:30:00,METAR YSSY 180930Z AUTO 22005KT 190V250 9999 // FEW042 BKN061 BKN085 21/20 Q1020
2026-03-18 09:17:00,SPECI YSSY 180917Z AUTO 23003KT 9999 DZ SCT038 SCT043 BKN052 21/20 Q1020
2026-03-18 09:00:00,SPECI YSSY 180900Z AUTO 20003KT 5000 +DZ BR FEW007 BKN038 BKN044 21/20 Q1020
2026-03-18 08:54:00,SPECI YSSY 180854Z AUTO 20004KT 5000 -RA SCT009 BKN033 BKN038 21/20 Q1020
2026-03-18 08:35:00,SPECI YSSY 180835Z AUTO 16005KT 6000 -DZ FEW005 OVC009 OVC092 21/20 Q1020 RERA
2026-03-18 08:30:00,SPECI YSSY 180830Z AUTO 16005KT 9999 -DZ BKN009 OVC092 21/20 Q1020 RERA
2026-03-18 08:14:00,SPECI YSSY 180814Z AUTO 18001KT 9999 DZ BKN011 BKN021 BKN030 20/20 Q1020 RERA
2026-03-18 08:00:00,METAR YSSY 180800Z AUTO 18005KT 9000 -RA SCT022 SCT030 BKN042 20/19 Q1020 RERA
2026-03-18 07:58:00,SPECI YSSY 180758Z AUTO 18004KT 9000 RA SCT022 SCT030 BKN042 20/19 Q1020
2026-03-18 07:30:00,SPECI YSSY 180730Z AUTO 13006KT 3100 +RA FEW006 SCT023 BKN029 20/19 Q1019
2026-03-18 07:00:00,SPECI YSSY 180700Z AUTO 12008KT 4900 RA FEW009 SCT016 BKN021 21/19 Q1019
2026-03-18 06:49:00,SPECI YSSY 180649Z AUTO 12012KT 120V180 6000 DZ FEW009 SCT016 OVC021 21/20 Q1019
2026-03-18 06:30:00,METAR YSSY 180630Z AUTO 19014KT 9999 // BKN021 BKN034 OVC057 22/20 Q1019
2026-03-18 06:00:00,METAR YSSY 180600Z AUTO 18014KT 9999 // FEW018 BKN025 BKN034 22/20 Q1019
2026-03-18 05:31:00,SPECI YSSY 180531Z AUTO 18012KT 9999 -SHRA BKN016 OVC024 21/20 Q1019 RESHRA
2026-03-18 05:30:00,SPECI YSSY 180530Z AUTO 18012KT 9999 -SHRA BKN016 OVC024 21/19 Q1019 RESHRA
2026-03-18 05:26:00,SPECI YSSY 180526Z AUTO 19012KT 9999 -SHRA BKN016 OVC024 21/19 Q1019 RESHRA
2026-03-18 05:12:00,SPECI YSSY 180512Z AUTO 17012KT 5000 RA BKN014 BKN021 OVC028 21/20 Q1019
2026-03-18 05:00:00,SPECI YSSY 180500Z AUTO 17010KT 5000 RA FEW014 BKN019 OVC029 21/20 Q1019
2026-03-18 04:48:00,SPECI YSSY 180448Z AUTO 19011KT 6000 RA BKN019 BKN025 OVC029 22/19 Q1019
2026-03-18 04:30:00,METAR YSSY 180430Z AUTO 18011KT 9999 // FEW021 BKN027 BKN032 23/19 Q1019
2026-03-18 04:00:00,METAR YSSY 180400Z AUTO 18012KT 9999 // OVC044 22/20 Q1020
2026-03-18 03:30:00,METAR YSSY 180330Z AUTO 19012KT 9999 -DZ BKN022 BKN028 BKN038 22/20 Q1020
2026-03-18 03:00:00,METAR YSSY 180300Z AUTO 19014KT 9999 // FEW013 OVC020 22/20 Q1020
2026-03-18 02:30:00,METAR YSSY 180230Z AUTO 19015KT 9999 // OVC020 22/19 Q1021
2026-03-18 02:00:00,METAR YSSY 180200Z AUTO 19015KT 9999 -SHRA OVC018 21/19 Q1021
2026-03-18 01:30:00,METAR YSSY 180130Z AUTO 20013KT 9999 // BKN018 OVC105 21/19 Q1021
2026-03-18 01:07:00,SPECI YSSY 180107Z AUTO 19015KT 9999 // SCT010 BKN020 OVC029 22/19 Q1022
2026-03-18 01:00:00,METAR YSSY 180100Z AUTO 19014KT 9999 // SCT010 BKN022 BKN029 22/20 Q1022
2026-03-18 00:30:00,METAR YSSY 180030Z AUTO 20012KT 9999 // BKN012 OVC022 21/19 Q1022
2026-03-18 00:00:00,METAR YSSY 180000Z AUTO 20013KT 9999 // BKN012 OVC016 OVC020 21/20 Q1022
2026-03-17 23:30:00,METAR YSSY 172330Z AUTO 20015KT 9999 // BKN012 OVC042 21/19 Q1022
2026-03-17 23:00:00,METAR YSSY 172300Z AUTO 21015KT 9999 // BKN012 OVC017 OVC028 21/19 Q1022
2026-03-17 22:57:00,SPECI YSSY 172257Z AUTO 21015KT 9999 // BKN010 OVC017 OVC028 21/19 Q1022
2026-03-17 22:50:00,SPECI YSSY 172250Z AUTO 21013KT 9999 // SCT010 BKN019 OVC024 21/19 Q1022
2026-03-17 22:35:00,SPECI YSSY 172235Z AUTO 21017KT 9999 // BKN010 OVC021 21/19 Q1022
2026-03-17 22:00:00,METAR YSSY 172200Z AUTO 20015KT 9999 // OVC017 21/19 Q1022
2026-03-17 21:30:00,METAR YSSY 172130Z AUTO 19016KT 9999 // OVC017 21/19 Q1021
2026-03-17 21:00:00,METAR YSSY 172100Z AUTO 19011KT 9999 // BKN023 OVC030 21/19 Q1021
2026-03-17 20:30:00,METAR YSSY 172030Z AUTO 19013KT 9999 // FEW023 OVC105 21/19 Q1021
2026-03-17 20:00:00,METAR YSSY 172000Z AUTO 20014KT 9999 // SCT037 OVC105 21/19 Q1021
2026-03-17 19:30:00,METAR YSSY 171930Z AUTO 20015KT 9999 DZ BKN055 OVC105 20/19 Q1020
2026-03-17 19:00:00,METAR YSSY 171900Z AUTO 19014KT 9999 DZ BKN025 OVC051 21/19 Q1020
2026-03-17 18:50:00,SPECI YSSY 171850Z AUTO 19013KT 9999 DZ BKN025 OVC051 20/19 Q1020
2026-03-17 18:30:00,METAR YSSY 171830Z AUTO 19013KT 9999 DZ SCT019 BKN028 BKN040 20/19 Q1020
2026-03-17 18:00:00,METAR YSSY 171800Z AUTO 18016KT 9999 -RA FEW012 OVC020 21/20 Q1020 RERA
2026-03-17 17:48:00,SPECI YSSY 171748Z AUTO 19016KT 9999 -RA SCT013 BKN022 OVC031 21/20 Q1020 RERA
2026-03-17 17:38:00,SPECI YSSY 171738Z AUTO 19014KT 9999 RA FEW011 BKN017 BKN024 21/20 Q1020
2026-03-17 17:30:00,METAR YSSY 171730Z AUTO 20013KT 8000 RA FEW014 BKN027 OVC044 21/20 Q1020
2026-03-17 17:21:00,SPECI YSSY 171721Z AUTO 21013KT 9000 RA SCT024 BKN031 BKN050 21/20 Q1020
2026-03-17 17:00:00,SPECI YSSY 171700Z AUTO 14009KT 6000 RA SCT025 BKN048 BKN059 21/20 Q1020
2026-03-17 16:46:00,SPECI YSSY 171646Z AUTO 17013KT 6000 RA FEW017 BKN026 BKN036 22/19 Q1020
2026-03-17 16:30:00,METAR YSSY 171630Z AUTO 26008KT 9999 // FEW026 BKN036 22/19 Q1020
2026-03-17 16:27:00,SPECI YSSY 171627Z AUTO 26008KT 9999 // FEW026 BKN036 BKN059 22/19 Q1020
2026-03-17 16:00:00,METAR YSSY 171600Z AUTO 35003KT 9999 // FEW059 22/19 Q1019
2026-03-17 15:30:00,METAR YSSY 171530Z AUTO 07005KT 9999 VCTS FEW035 SCT040 BKN046 22/19 Q1019
2026-03-17 15:00:00,METAR YSSY 171500Z AUTO 14009KT 9999 VCTS BKN033 OVC125 22/19 Q1020
2026-03-17 14:30:00,METAR YSSY 171430Z AUTO 17016KT 9999 // BKN017 BKN023 OVC125 22/20 Q1019
2026-03-17 14:27:00,SPECI YSSY 171427Z AUTO 18015KT 9999 // BKN017 BKN023 BKN034 23/20 Q1019
2026-03-17 14:00:00,METAR YSSY 171400Z AUTO 15004KT 130V190 9999 // OVC017 23/21 Q1019
2026-03-17 13:30:00,METAR YSSY 171330Z AUTO 19006KT 9999 // BKN019 BKN025 OVC033 23/21 Q1020
2026-03-17 13:00:00,METAR YSSY 171300Z AUTO 18011KT 9999 // FEW017 BKN022 BKN028 23/21 Q1020
2026-03-17 12:30:00,METAR YSSY 171230Z AUTO 20008KT 9999 -DZ BKN019 BKN024 OVC028 23/20 Q1020
2026-03-17 12:01:00,SPECI YSSY 171201Z AUTO 19010KT 9999 // SCT019 OVC120 23/21 Q1020
2026-03-17 11:30:00,METAR YSSY 171130Z AUTO 19013KT 9999 // OVC120 23/20 Q1019
2026-03-17 11:00:00,METAR YSSY 171100Z AUTO 18013KT 9999 // OVC120 23/20 Q1019
2026-03-17 10:30:00,METAR YSSY 171030Z AUTO 18008KT 9999 // OVC120 24/20 Q1019
2026-03-17 10:00:00,METAR YSSY 171000Z AUTO 18008KT 9999 // OVC120 23/20 Q1019
2026-03-17 09:30:00,METAR YSSY 170930Z AUTO 18006KT 9999 // BKN100 OVC125 24/21 Q1018
2026-03-17 09:00:00,METAR YSSY 170900Z AUTO 20006KT 9999 -DZ BKN110 OVC125 24/20 Q1018
2026-03-17 08:30:00,METAR YSSY 170830Z AUTO 18008KT 9999 // OVC110 24/21 Q1018
2026-03-17 08:00:00,METAR YSSY 170800Z AUTO 17008KT 9999 // FEW110 24/21 Q1018
2026-03-17 07:30:00,METAR YSSY 170730Z AUTO 18008KT 9999 // NCD 24/21 Q1017
2026-03-17 07:00:00,METAR YSSY 170700Z AUTO 17009KT 9999 // FEW100 24/21 Q1017
2026-03-17 06:30:00,METAR YSSY 170630Z AUTO 17012KT 9999 // NCD 24/21 Q1017
2026-03-17 06:00:00,METAR YSSY 170600Z AUTO 17014KT 9999 // NCD 25/20 Q1016
2026-03-17 05:30:00,METAR YSSY 170530Z AUTO 17017G28KT 9999 // NCD 25/20 Q1016
2026-03-17 05:23:00,SPECI YSSY 170523Z AUTO 17016G27KT 9999 // FEW115 25/20 Q1016
2026-03-17 05:00:00,METAR YSSY 170500Z 18016KT CAVOK 26/20 Q1016
2026-03-17 04:30:00,METAR YSSY 170430Z 16009KT CAVOK 29/18 Q1015
2026-03-17 04:00:00,METAR YSSY 170400Z 24008KT CAVOK 30/15 Q1015
2026-03-17 03:30:00,METAR YSSY 170330Z 26009G19KT CAVOK 30/16 Q1015
2026-03-17 03:00:00,METAR YSSY 170300Z 25007KT CAVOK 30/15 Q1015
2026-03-17 02:30:00,METAR YSSY 170230Z 27008KT CAVOK 30/16 Q1015
2026-03-17 02:00:00,METAR YSSY 170200Z 31007KT CAVOK 30/15 Q1015
2026-03-17 01:30:00,METAR YSSY 170130Z 31008KT CAVOK 29/17 Q1016
2026-03-17 01:00:00,METAR YSSY 170100Z 33010KT CAVOK 28/18 Q1016
2026-03-17 00:30:00,METAR YSSY 170030Z 32008KT CAVOK 27/17 Q1016
2026-03-17 00:00:00,METAR YSSY 170000Z 31008KT CAVOK 26/18 Q1016
2026-03-16 23:30:00,METAR YSSY 162330Z 33009KT CAVOK 26/18 Q1016
2026-03-16 23:00:00,METAR YSSY 162300Z 33009KT CAVOK 25/18 Q1016
2026-03-16 22:30:00,METAR YSSY 162230Z 32005KT CAVOK 24/18 Q1015
2026-03-16 22:00:00,METAR YSSY 162200Z 33006KT CAVOK 24/17 Q1015
2026-03-16 21:30:00,METAR YSSY 162130Z 31006KT CAVOK 24/18 Q1015
2026-03-16 21:00:00,METAR YSSY 162100Z 31006KT CAVOK 23/17 Q1015
2026-03-16 20:30:00,METAR YSSY 162030Z 31006KT CAVOK 23/17 Q1015
2026-03-16 20:00:00,METAR YSSY 162000Z 35007KT CAVOK 23/18 Q1014
2026-03-16 19:30:00,METAR YSSY 161930Z 35005KT CAVOK 23/18 Q1014
2026-03-16 19:00:00,METAR YSSY 161900Z 02004KT CAVOK 22/18 Q1014
2026-03-16 18:30:00,METAR YSSY 161830Z 01004KT CAVOK 22/18 Q1013
2026-03-16 18:00:00,METAR YSSY 161800Z AUTO 02005KT 340V040 9999 // NCD 22/18 Q1013
2026-03-16 17:30:00,METAR YSSY 161730Z AUTO 32003KT 9999 // NCD 22/19 Q1013
2026-03-16 17:00:00,METAR YSSY 161700Z AUTO 02004KT 9999 // NCD 22/18 Q1013
2026-03-16 16:59:00,SPECI YSSY 161659Z AUTO 02004KT 9999 // NCD 22/19 Q1013
2026-03-16 16:30:00,METAR YSSY 161630Z AUTO 03007KT 9999 // NCD 23/19 Q1013
2026-03-16 16:00:00,METAR YSSY 161600Z AUTO 03004KT 9999 // NCD 22/19 Q1013
2026-03-16 15:30:00,METAR YSSY 161530Z AUTO 04005KT 9999 // NCD 22/19 Q1014
2026-03-16 15:00:00,METAR YSSY 161500Z AUTO 06007KT 9999 // NCD 22/19 Q1014
2026-03-16 14:30:00,METAR YSSY 161430Z AUTO 05005KT 9999 // NCD 22/19 Q1015
2026-03-16 14:00:00,METAR YSSY 161400Z AUTO 06006KT 9999 // NCD 23/18 Q1015
2026-03-16 13:30:00,METAR YSSY 161330Z AUTO 01003KT 9999 // NCD 23/18 Q1015
2026-03-16 13:00:00,METAR YSSY 161300Z AUTO 35004KT 9999 // NCD 23/18 Q1016
2026-03-16 12:33:00,SPECI YSSY 161233Z AUTO 01008KT 9999 // NCD 24/18 Q1016
2026-03-16 12:32:00,SPECI YSSY 161232Z AUTO 01009KT 9999 // NCD 24/18 Q1016
2026-03-16 12:00:00,METAR YSSY 161200Z AUTO 02012KT 9999 // NCD 24/19 Q1016
2026-03-16 11:30:00,METAR YSSY 161130Z AUTO 01012KT 9999 // NCD 24/19 Q1016
2026-03-16 11:00:00,METAR YSSY 161100Z AUTO 02013KT 9999 // NCD 24/19 Q1016
2026-03-16 10:30:00,METAR YSSY 161030Z AUTO 03014KT 9999 // NCD 24/19 Q1016
2026-03-16 10:00:00,METAR YSSY 161000Z AUTO 03014KT 9999 // NCD 24/19 Q1016
2026-03-16 09:30:00,METAR YSSY 160930Z AUTO 03015KT 9999 // NCD 25/19 Q1016
2026-03-16 09:00:00,METAR YSSY 160900Z AUTO 03015KT 9999 // NCD 25/19 Q1016
2026-03-16 08:30:00,METAR YSSY 160830Z AUTO 03016KT 9999 // NCD 25/18 Q1015
2026-03-16 08:00:00,METAR YSSY 160800Z AUTO 03018KT 9999 // NCD 25/18 Q1015
2026-03-16 07:30:00,METAR YSSY 160730Z AUTO 03017KT 9999 // NCD 25/18 Q1015
2026-03-16 07:00:00,METAR YSSY 160700Z AUTO 03018KT 9999 // NCD 25/18 Q1015
2026-03-16 06:30:00,METAR YSSY 160630Z AUTO 03020KT 9999 // NCD 26/18 Q1015
2026-03-16 06:00:00,METAR YSSY 160600Z AUTO 03019KT 9999 // NCD 26/17 Q1015
2026-03-16 05:30:00,METAR YSSY 160530Z AUTO 04017KT 9999 // NCD 26/17 Q1015
2026-03-16 05:00:00,METAR YSSY 160500Z 05017KT CAVOK 27/17 Q1015
2026-03-16 04:30:00,METAR YSSY 160430Z 05016KT CAVOK 28/16 Q1015
2026-03-16 04:00:00,METAR YSSY 160400Z 05016KT CAVOK 28/15 Q1016
2026-03-16 03:30:00,METAR YSSY 160330Z 04015KT CAVOK 29/14 Q1016
2026-03-16 03:00:00,METAR YSSY 160300Z 05012KT 9999 NSC 29/14 Q1016
2026-03-16 02:30:00,METAR YSSY 160230Z 05013KT CAVOK 29/14 Q1017
2026-03-16 02:00:00,METAR YSSY 160200Z 03010KT CAVOK 29/14 Q1017
2026-03-16 01:30:00,METAR YSSY 160130Z 03009KT CAVOK 28/14 Q1018
2026-03-16 01:00:00,METAR YSSY 160100Z 03010KT CAVOK 28/15 Q1018
2026-03-16 00:30:00,METAR YSSY 160030Z 03009KT CAVOK 27/15 Q1019
2026-03-16 00:00:00,METAR YSSY 160000Z 03005KT 360V060 CAVOK 27/15 Q1019
2026-03-15 23:30:00,METAR YSSY 152330Z 32005KT 290V360 CAVOK 26/16 Q1019
2026-03-15 23:00:00,METAR YSSY 152300Z 30007KT CAVOK 25/18 Q1019
2026-03-15 22:30:00,METAR YSSY 152230Z 31007KT CAVOK 23/17 Q1019
2026-03-15 22:00:00,METAR YSSY 152200Z 31007KT CAVOK 23/17 Q1020
2026-03-15 21:30:00,METAR YSSY 152130Z 32007KT CAVOK 22/17 Q1019
2026-03-15 21:00:00,METAR YSSY 152100Z 32005KT CAVOK 21/17 Q1019
2026-03-15 20:30:00,METAR YSSY 152030Z 31007KT CAVOK 20/17 Q1019
2026-03-15 20:00:00,METAR YSSY 152000Z 33005KT CAVOK 21/17 Q1019
2026-03-15 19:49:00,SPECI YSSY 151949Z AUTO 33004KT 9999 // NCD 20/17 Q1019
2026-03-15 19:48:00,SPECI YSSY 151948Z AUTO 33004KT 9999 // NCD 21/18 Q1018
2026-03-15 19:47:00,SPECI YSSY 151947Z AUTO 33004KT 9999 // NCD 21/18 Q1018
2026-03-15 19:30:00,METAR YSSY 151930Z 31005KT CAVOK 20/17 Q1018
2026-03-15 19:00:00,METAR YSSY 151900Z 29003KT CAVOK 20/17 Q1018
2026-03-15 18:30:00,METAR YSSY 151830Z AUTO 29001KT 9999 // NCD 20/17 Q1018
2026-03-15 18:00:00,METAR YSSY 151800Z AUTO 00000KT 9999 // NCD 19/17 Q1018
2026-03-15 17:30:00,METAR YSSY 151730Z AUTO 00000KT 9999 // NCD 20/17 Q1018
2026-03-15 17:00:00,METAR YSSY 151700Z AUTO 02003KT 9999 // NCD 19/17 Q1018
2026-03-15 16:30:00,METAR YSSY 151630Z AUTO 04004KT 9999 // NCD 20/17 Q1018
2026-03-15 16:00:00,METAR YSSY 151600Z AUTO 03003KT 9999 // NCD 20/17 Q1019
2026-03-15 15:30:00,METAR YSSY 151530Z AUTO 00000KT 9999 // NCD 20/17 Q1019
2026-03-15 15:00:00,METAR YSSY 151500Z AUTO 00000KT 9999 // NCD 20/17 Q1019
2026-03-15 14:30:00,METAR YSSY 151430Z AUTO 00000KT 9999 // NCD 21/17 Q1020
2026-03-15 14:00:00,METAR YSSY 151400Z AUTO 33003KT 9999 // NCD 22/17 Q1020
2026-03-15 13:30:00,METAR YSSY 151330Z AUTO 35004KT 9999 // NCD 22/17 Q1020
2026-03-15 13:00:00,METAR YSSY 151300Z AUTO 36007KT 9999 // NCD 23/17 Q1020
2026-03-15 12:30:00,METAR YSSY 151230Z AUTO 01007KT 9999 // NCD 23/17 Q1020
2026-03-15 12:00:00,METAR YSSY 151200Z AUTO 01010KT 9999 // NCD 23/17 Q1020
2026-03-15 11:30:00,METAR YSSY 151130Z AUTO 01010KT 9999 // NCD 23/18 Q1021
2026-03-15 11:00:00,METAR YSSY 151100Z AUTO 01010KT 9999 // NCD 24/18 Q1021
2026-03-15 10:30:00,METAR YSSY 151030Z AUTO 02014KT 9999 // NCD 24/18 Q1020
2026-03-15 10:00:00,METAR YSSY 151000Z AUTO 03013KT 9999 // NCD 24/17 Q1020
2026-03-15 09:30:00,METAR YSSY 150930Z AUTO 03015KT 9999 // NCD 24/18 Q1020
2026-03-15 09:00:00,METAR YSSY 150900Z AUTO 03014KT 9999 // NCD 24/17 Q1019
2026-03-15 08:30:00,METAR YSSY 150830Z AUTO 03014KT 9999 // NCD 24/17 Q1019
2026-03-15 08:00:00,METAR YSSY 150800Z AUTO 03016KT 9999 // NCD 25/17 Q1019
