Time_recorded,METAR
2026-05-02 14:53:00,METAR KBCT 021453Z 18008KT 10SM FEW024 FEW030 FEW035 30/24 A2989
2026-05-02 12:49:00,METAR KBCT 021249Z 19008KT 160V220 10SM CLR 28/23 A2989
2026-05-02 11:53:00,METAR KBCT 021153Z VRB03KT 10SM FEW030 25/22 A2989
2026-05-02 11:00:00,METAR KBCT 021100Z 00000KT 10SM FEW019 22/20 A2990
2026-05-02 10:15:00,METAR KBCT 021015Z AUTO 14001KT 10SM SCT021 OVC075 22/20 A2989 RMK AO2
2026-05-02 09:56:00,METAR KBCT 020956Z AUTO 18002KT 10SM FEW021 OVC075 23/20 A2989 RMK AO2
2026-05-02 09:35:00,METAR KBCT 020935Z AUTO 23002KT 10SM FEW065 OVC075 23/20 A2989 RMK AO2
2026-05-02 09:15:00,METAR KBCT 020915Z AUTO 20002KT 10SM BKN065 OVC075 22/20 A2989 RMK AO2
2026-05-02 08:55:00,METAR KBCT 020855Z AUTO 21002KT 10SM OVC070 23/20 A2989 RMK AO2
2026-05-02 08:35:00,METAR KBCT 020835Z AUTO 21002KT 10SM OVC070 23/20 A2989 RMK AO2
2026-05-02 08:15:00,METAR KBCT 020815Z AUTO 22002KT 10SM OVC070 23/20 A2988 RMK AO2
2026-05-02 07:55:00,METAR KBCT 020755Z AUTO 24002KT 10SM BKN070 23/20 A2989 RMK AO2
2026-05-02 07:35:00,METAR KBCT 020735Z AUTO 25003KT 10SM SCT070 24/20 A2988 RMK AO2
2026-05-02 07:15:00,METAR KBCT 020715Z AUTO 24005KT 10SM BKN070 23/20 A2989 RMK AO2
2026-05-02 06:55:00,METAR KBCT 020655Z AUTO 28005KT 10SM CLR 24/20 A2989 RMK AO2
2026-05-02 06:35:00,METAR KBCT 020635Z AUTO 29003KT 10SM FEW018 24/20 A2990 RMK AO2
2026-05-02 06:15:00,METAR KBCT 020615Z AUTO 30004KT 10SM SCT020 24/20 A2990 RMK AO2
2026-05-02 05:55:00,METAR KBCT 020555Z AUTO 30004KT 10SM FEW021 24/20 A2990 RMK AO2 10269 20233
2026-05-02 05:35:00,METAR KBCT 020535Z AUTO 24002KT 10SM CLR 24/20 A2990 RMK AO2
2026-05-02 05:15:00,METAR KBCT 020515Z AUTO 20003KT 10SM CLR 25/20 A2990 RMK AO2
2026-05-02 04:55:00,METAR KBCT 020455Z AUTO 21004KT 10SM SCT022 25/20 A2991 RMK AO2
2026-05-02 04:35:00,METAR KBCT 020435Z AUTO 21004KT 10SM BKN024 25/23 A2991 RMK AO2
2026-05-02 04:15:00,METAR KBCT 020415Z AUTO 19006KT 10SM SCT024 26/23 A2991 RMK AO2
2026-05-02 03:55:00,METAR KBCT 020355Z AUTO 19005KT 10SM CLR 26/22 A2992 RMK AO2 403080199
2026-05-02 03:35:00,METAR KBCT 020335Z AUTO 18006KT 10SM CLR 26/22 A2991 RMK AO2
2026-05-02 03:15:00,METAR KBCT 020315Z AUTO 16007KT 10SM CLR 26/22 A2991 RMK AO2
2026-05-02 02:53:00,METAR KBCT 020253Z 19008G14KT 10SM CLR 26/21 A2990
2026-05-02 01:53:00,METAR KBCT 020153Z 19008G14KT 10SM CLR 26/21 A2990
2026-05-02 00:53:00,METAR KBCT 020053Z 18010G14KT 10SM CLR 27/21 A2988
2026-05-01 23:53:00,METAR KBCT 012353Z 17009G15KT 10SM FEW060 27/21 A2986
2026-05-01 21:53:00,METAR KBCT 012153Z 17009G14KT 10SM FEW065 29/21 A2985
2026-05-01 20:53:00,METAR KBCT 012053Z 16011KT 10SM FEW032 FEW060 29/21 A2985
2026-05-01 19:53:00,METAR KBCT 011953Z 15010KT 10SM FEW036 FEW055 30/21 A2986
2026-05-01 18:53:00,METAR KBCT 011853Z 14010G14KT 10SM FEW055 30/20 A2989
2026-05-01 17:47:00,METAR KBCT 011747Z 16010KT 10SM CLR 30/19 A2990
2026-05-01 16:53:00,METAR KBCT 011653Z 13008KT 10SM FEW049 30/20 A2991
2026-05-01 16:04:00,METAR KBCT 011604Z 24009KT 10SM FEW043 30/18 A2993
2026-05-01 14:53:00,METAR KBCT 011453Z 25004KT 10SM FEW036 26/21 A2993
2026-05-01 13:51:00,METAR KBCT 011351Z 26004KT 10SM CLR 26/21 A2994
2026-05-01 12:54:00,METAR KBCT 011254Z 27005KT 10SM CLR 24/22 A2994
2026-05-01 11:52:00,METAR KBCT 011152Z 29005KT 10SM CLR 23/21 A2994
2026-05-01 11:00:00,METAR KBCT 011100Z 25004KT 10SM CLR 21/20 A2992
2026-05-01 10:15:00,METAR KBCT 011015Z AUTO 24003KT 10SM CLR 21/19 A2990 RMK AO2
2026-05-01 09:55:00,METAR KBCT 010955Z AUTO 25004KT 10SM CLR 21/20 A2990 RMK AO2
2026-05-01 09:35:00,METAR KBCT 010935Z AUTO 24003KT 10SM CLR 21/20 A2990 RMK AO2
2026-05-01 09:15:00,METAR KBCT 010915Z AUTO 24004KT 10SM CLR 21/19 A2989 RMK AO2
2026-05-01 08:55:00,METAR KBCT 010855Z AUTO 25004KT 10SM CLR 21/19 A2990 RMK AO2
2026-05-01 08:35:00,METAR KBCT 010835Z AUTO 24004KT 10SM CLR 22/19 A2989 RMK AO2
2026-05-01 08:15:00,METAR KBCT 010815Z AUTO 25005KT 10SM CLR 22/19 A2989 RMK AO2
2026-05-01 07:55:00,METAR KBCT 010755Z AUTO 25004KT 10SM CLR 22/19 A2989 RMK AO2
2026-05-01 07:35:00,METAR KBCT 010735Z AUTO 27004KT 10SM CLR 23/19 A2988 RMK AO2
2026-05-01 07:15:00,METAR KBCT 010715Z AUTO 26005KT 10SM CLR 23/19 A2988 RMK AO2
2026-05-01 06:55:00,METAR KBCT 010655Z AUTO 26004KT 10SM CLR 23/19 A2988 RMK AO2
2026-05-01 06:35:00,METAR KBCT 010635Z AUTO 27004KT 10SM FEW050 23/18 A2989 RMK AO2
2026-05-01 06:15:00,METAR KBCT 010615Z AUTO 27005KT 10SM BKN050 24/18 A2990 RMK AO2
2026-05-01 05:55:00,METAR KBCT 010555Z AUTO 27004KT 10SM CLR 23/18 A2990 RMK AO2 10268 20232
2026-05-01 05:35:00,METAR KBCT 010535Z AUTO 24005KT 10SM CLR 24/18 A2990 RMK AO2
2026-05-01 05:15:00,METAR KBCT 010515Z AUTO 25004KT 10SM CLR 23/18 A2990 RMK AO2
2026-05-01 04:55:00,METAR KBCT 010455Z AUTO 22005KT 10SM CLR 24/18 A2990 RMK AO2
2026-05-01 04:35:00,METAR KBCT 010435Z AUTO 24007KT 10SM CLR 24/18 A2991 RMK AO2
2026-05-01 04:15:00,METAR KBCT 010415Z AUTO 26006KT 10SM CLR 25/18 A2991 RMK AO2
2026-05-01 03:55:00,METAR KBCT 010355Z AUTO 26007KT 10SM CLR 25/18 A2991 RMK AO2 403140212
2026-05-01 03:35:00,METAR KBCT 010335Z AUTO 28007KT 10SM CLR 25/18 A2991 RMK AO2
2026-05-01 03:15:00,METAR KBCT 010315Z AUTO 27006KT 10SM CLR 26/18 A2990 RMK AO2
2026-04-30 22:53:00,METAR KBCT 302253Z 16009G18KT 130V210 10SM FEW050 SCT065 28/21 A2984
2026-04-30 21:53:00,METAR KBCT 302153Z 16009KT 10SM SCT065 28/20 A2984
2026-04-30 20:53:00,METAR KBCT 302053Z 14012KT 10SM SCT065 29/21 A2984
2026-04-30 19:53:00,METAR KBCT 301953Z 16010KT 10SM SCT055 30/20 A2986
2026-04-30 18:53:00,METAR KBCT 301853Z 16010KT 10SM BKN055 29/21 A2988
2026-04-30 17:53:00,METAR KBCT 301753Z 14012KT 10SM SCT049 31/19 A2987
2026-04-30 16:53:00,METAR KBCT 301653Z 20009KT 160V220 10SM FEW048 30/18 A2990
2026-04-30 15:49:00,METAR KBCT 301549Z 26007KT 10SM CLR 29/18 A2993
2026-04-30 14:51:00,METAR KBCT 301451Z 25005KT 10SM CLR 28/18 A2994
2026-04-30 13:53:00,METAR KBCT 301353Z 28005KT 10SM CLR 26/19 A2993
2026-04-30 12:53:00,METAR KBCT 301253Z 28005KT 10SM CLR 24/20 A2992
2026-04-30 11:53:00,METAR KBCT 301153Z 28005KT 10SM CLR 24/21 A2993
2026-04-30 10:53:00,METAR KBCT 301053Z 25004KT 10SM CLR 22/20 A2992
2026-04-30 10:15:00,METAR KBCT 301015Z AUTO 25004KT 10SM CLR 22/20 A2991 RMK AO2
2026-04-30 09:55:00,METAR KBCT 300955Z AUTO 23004KT 10SM CLR 22/19 A2991 RMK AO2
2026-04-30 09:35:00,METAR KBCT 300935Z AUTO 24004KT 10SM CLR 22/20 A2991 RMK AO2
2026-04-30 09:15:00,METAR KBCT 300915Z AUTO 25004KT 10SM CLR 22/19 A2991 RMK AO2
2026-04-30 08:55:00,METAR KBCT 300855Z AUTO 24004KT 10SM CLR 22/19 A2991 RMK AO2
2026-04-30 08:35:00,METAR KBCT 300835Z AUTO 23003KT 10SM CLR 22/20 A2990 RMK AO2
2026-04-30 08:15:00,METAR KBCT 300815Z AUTO 24004KT 10SM CLR 23/20 A2990 RMK AO2
2026-04-30 07:55:00,METAR KBCT 300755Z AUTO 25004KT 10SM CLR 23/20 A2991 RMK AO2
2026-04-30 07:30:00,METAR KBCT 300730Z AUTO 27004KT 10SM FEW039 24/20 A2991 RMK AO2
2026-04-30 07:15:00,METAR KBCT 300715Z AUTO 27006KT 10SM BKN041 24/20 A2991 RMK AO2
2026-04-30 06:55:00,METAR KBCT 300655Z AUTO 26008KT 10SM BKN043 BKN049 24/20 A2992 RMK AO2
2026-04-30 06:36:00,METAR KBCT 300636Z AUTO 26005KT 10SM SCT047 24/21 A2993 RMK AO2
2026-04-30 06:15:00,METAR KBCT 300615Z AUTO 25005KT 10SM SCT047 24/21 A2993 RMK AO2
2026-04-30 05:55:00,METAR KBCT 300555Z AUTO 24006KT 10SM CLR 24/21 A2993 RMK AO2 10259 20237
2026-04-30 05:35:00,METAR KBCT 300535Z AUTO 22004KT 10SM CLR 24/21 A2993 RMK AO2
2026-04-30 05:15:00,METAR KBCT 300515Z AUTO 21004KT 10SM CLR 24/21 A2994 RMK AO2
2026-04-30 04:56:00,METAR KBCT 300456Z AUTO 21004KT 10SM CLR 24/21 A2995 RMK AO2
2026-04-30 04:35:00,METAR KBCT 300435Z AUTO 21004KT 10SM CLR 24/21 A2995 RMK AO2
2026-04-30 04:15:00,METAR KBCT 300415Z AUTO 21004KT 10SM CLR 24/21 A2996 RMK AO2
2026-04-30 03:55:00,METAR KBCT 300355Z AUTO 20003KT 10SM CLR 25/21 A2996 RMK AO2 403020198
2026-04-30 03:35:00,METAR KBCT 300335Z AUTO 20003KT 10SM CLR 25/21 A2996 RMK AO2
2026-04-30 03:15:00,METAR KBCT 300315Z AUTO 19003KT 10SM CLR 25/21 A2996 RMK AO2
2026-04-30 02:53:00,METAR KBCT 300253Z 17004KT 10SM CLR 25/20 A2995
2026-04-30 01:53:00,METAR KBCT 300153Z 18005KT 10SM CLR 25/20 A2995
2026-04-30 00:53:00,METAR KBCT 300053Z 16007KT 140V210 10SM CLR 26/20 A2992
2026-04-29 23:53:00,METAR KBCT 292353Z 16010KT 10SM FEW030 26/21 A2992
2026-04-29 22:53:00,METAR KBCT 292253Z 15011G16KT 10SM FEW030 27/21 A2991
2026-04-29 21:53:00,METAR KBCT 292153Z 13010G16KT 10SM FEW030 28/20 A2993
2026-04-29 20:53:00,METAR KBCT 292053Z 14012KT 10SM FEW050 29/20 A2994
2026-04-29 19:53:00,METAR KBCT 291953Z 12010KT 100V170 10SM FEW030 SCT050 29/20 A2995
2026-04-29 18:53:00,METAR KBCT 291853Z 12008G15KT 10SM SCT050 29/20 A2998
2026-04-29 17:53:00,METAR KBCT 291753Z 14010G15KT 10SM SCT035 29/20 A3001
2026-04-29 16:53:00,METAR KBCT 291653Z 13010KT 10SM SCT043 28/19 A3004
2026-04-29 15:53:00,METAR KBCT 291553Z 14008KT 10SM SCT040 28/20 A3004
2026-04-29 14:53:00,METAR KBCT 291453Z 11008KT 10SM SCT041 28/20 A3005
2026-04-29 13:53:00,METAR KBCT 291353Z 14008KT 10SM SCT029 28/19 A3003
2026-04-29 12:53:00,METAR KBCT 291253Z 14008KT 10SM SCT025 24/21 A3002
2026-04-29 11:53:00,METAR KBCT 291153Z 00000KT 10SM SCT025 24/21 A3002
2026-04-29 10:53:00,METAR KBCT 291053Z 00000KT 10SM SCT026 20/19 A2999
2026-04-29 10:15:00,METAR KBCT 291015Z AUTO 00000KT 10SM FEW026 20/19 A2999 RMK AO2
2026-04-29 09:55:00,METAR KBCT 290955Z AUTO 08001KT 10SM CLR 21/19 A2999 RMK AO2
2026-04-29 09:35:00,METAR KBCT 290935Z AUTO 36002KT 10SM SCT027 SCT032 22/20 A2999 RMK AO2
2026-04-29 09:15:00,METAR KBCT 290915Z AUTO 31001KT 10SM SCT024 BKN030 22/20 A2998 RMK AO2
2026-04-29 08:55:00,METAR KBCT 290855Z AUTO 31003KT 10SM CLR 21/19 A2998 RMK AO2
2026-04-29 08:35:00,METAR KBCT 290835Z AUTO VRB01KT 10SM CLR 23/19 A2998 RMK AO2
2026-04-29 08:15:00,METAR KBCT 290815Z AUTO 11002KT 10SM CLR 23/20 A2997 RMK AO2
2026-04-29 07:55:00,METAR KBCT 290755Z AUTO 15005KT 10SM CLR 23/19 A2997 RMK AO2
2026-04-29 07:35:00,METAR KBCT 290735Z AUTO 14003KT 10SM CLR 21/19 A2999 RMK AO2
2026-04-29 07:15:00,METAR KBCT 290715Z AUTO 08001KT 10SM CLR 21/19 A3000 RMK AO2
2026-04-29 06:55:00,METAR KBCT 290655Z AUTO 06001KT 10SM FEW028 21/19 A3000 RMK AO2
2026-04-29 06:35:00,METAR KBCT 290635Z AUTO VRB01KT 10SM FEW028 21/19 A3001 RMK AO2
2026-04-29 06:15:00,METAR KBCT 290615Z AUTO 13001KT 10SM CLR 22/19 A3002 RMK AO2
2026-04-29 05:55:00,METAR KBCT 290555Z AUTO 00000KT 10SM FEW032 FEW040 FEW050 22/19 A3003 RMK AO2 10255 20220
2026-04-29 05:35:00,METAR KBCT 290535Z AUTO 05001KT 10SM FEW029 SCT037 SCT050 23/19 A3004 RMK AO2
2026-04-29 05:15:00,METAR KBCT 290515Z AUTO 05002KT 10SM SCT028 SCT040 24/19 A3005 RMK AO2
2026-04-29 04:55:00,METAR KBCT 290455Z AUTO 06002KT 10SM SCT028 BKN039 24/19 A3005 RMK AO2
2026-04-29 04:35:00,METAR KBCT 290435Z AUTO 08004KT 10SM FEW026 24/19 A3004 RMK AO2
2026-04-29 04:15:00,METAR KBCT 290415Z AUTO 10007KT 10SM SCT028 SCT033 SCT039 24/19 A3004 RMK AO2
2026-04-29 03:55:00,METAR KBCT 290355Z AUTO 10005KT 10SM SCT028 SCT033 SCT039 24/19 A3004 RMK AO2 402900234
2026-04-29 03:35:00,METAR KBCT 290335Z AUTO 10005KT 10SM FEW030 25/19 A3006 RMK AO2
2026-04-29 03:15:00,METAR KBCT 290315Z AUTO 10004KT 10SM FEW030 25/19 A3006 RMK AO2
2026-04-29 02:00:00,METAR KBCT 290200Z 08006KT 10SM SCT031 SCT050 25/19 A3006
2026-04-29 00:52:00,METAR KBCT 290052Z 05010KT 10SM SCT029 25/19 A3006
2026-04-28 23:51:00,METAR KBCT 282351Z 06008KT 10SM SCT027 26/19 A3005
2026-04-28 21:48:00,METAR KBCT 282148Z 05010G14KT 10SM CLR 27/20 A3004
2026-04-28 20:51:00,METAR KBCT 282051Z 08010KT 10SM CLR 28/18 A3004
2026-04-28 19:49:00,METAR KBCT 281949Z 06009G16KT 10SM CLR 28/20 A3006
2026-04-28 18:53:00,METAR KBCT 281853Z 11010G15KT 10SM SCT030 28/20 A3008
2026-04-28 17:53:00,METAR KBCT 281753Z 11010G15KT 10SM SCT030 29/20 A3009
2026-04-28 16:53:00,METAR KBCT 281653Z 11012G16KT 10SM SCT028 28/20 A3010
2026-04-28 15:53:00,METAR KBCT 281553Z 08010G15KT 10SM FEW026 27/20 A3010
2026-04-28 14:53:00,METAR KBCT 281453Z 08010G15KT 10SM FEW026 28/19 A3010
2026-04-28 13:53:00,METAR KBCT 281353Z 09010G15KT 10SM FEW027 27/19 A3009
2026-04-28 12:53:00,METAR KBCT 281253Z 02010KT 10SM FEW040 26/19 A3008
2026-04-28 11:53:00,METAR KBCT 281153Z 06009KT 10SM CLR 25/19 A3007
2026-04-28 10:53:00,METAR KBCT 281053Z 07005KT 10SM SCT030 24/19 A3006
2026-04-28 09:55:00,METAR KBCT 280955Z AUTO 05006KT 10SM SCT027 BKN035 24/19 A3004 RMK AO2
2026-04-28 09:35:00,METAR KBCT 280935Z AUTO 06004KT 10SM FEW025 SCT035 24/19 A3003 RMK AO2
2026-04-28 09:15:00,METAR KBCT 280915Z AUTO 05005KT 10SM FEW028 FEW034 24/19 A3003 RMK AO2
2026-04-28 08:55:00,METAR KBCT 280855Z AUTO 05005KT 10SM FEW032 24/19 A3003 RMK AO2
2026-04-28 08:35:00,METAR KBCT 280835Z AUTO 05006KT 10SM FEW024 24/19 A3002 RMK AO2
2026-04-28 08:15:00,METAR KBCT 280815Z AUTO 05007KT 10SM FEW025 24/19 A3002 RMK AO2
2026-04-28 07:35:00,METAR KBCT 280735Z AUTO 06007KT 10SM FEW024 24/19 A3002 RMK AO2
2026-04-28 06:55:00,METAR KBCT 280655Z AUTO 05008KT 10SM FEW022 24/20 A3002 RMK AO2
2026-04-28 06:42:00,METAR KBCT 280642Z AUTO 04007KT 10SM FEW022 FEW030 SCT037 24/20 A3002 RMK AO2
2026-04-28 05:55:00,METAR KBCT 280555Z AUTO 06007KT 10SM BKN026 BKN036 BKN044 25/20 A3004 RMK AO2 10254 20244
2026-04-28 05:35:00,METAR KBCT 280535Z AUTO 06006KT 10SM SCT026 BKN034 BKN042 25/20 A3005 RMK AO2
2026-04-28 05:15:00,METAR KBCT 280515Z AUTO 05007KT 10SM SCT026 BKN038 25/20 A3005 RMK AO2
2026-04-28 04:55:00,METAR KBCT 280455Z AUTO 07006KT 10SM FEW025 SCT034 SCT041 25/20 A3005 RMK AO2
2026-04-28 04:35:00,METAR KBCT 280435Z AUTO 05007KT 10SM CLR 25/19 A3005 RMK AO2
2026-04-28 04:15:00,METAR KBCT 280415Z AUTO 04007KT 10SM FEW026 FEW033 25/20 A3006 RMK AO2
2026-04-28 03:55:00,METAR KBCT 280355Z AUTO 06008KT 030V090 10SM SCT026 BKN033 25/20 A3006 RMK AO2 402940207
2026-04-28 03:35:00,METAR KBCT 280335Z AUTO 05009KT 10SM FEW024 BKN033 25/20 A3006 RMK AO2
2026-04-28 03:15:00,METAR KBCT 280315Z AUTO 04010G15KT 10SM FEW024 SCT031 SCT038 25/20 A3006 RMK AO2
2026-04-28 02:53:00,METAR KBCT 280253Z 05010G16KT 10SM SCT025 25/20 A3005
2026-04-28 01:53:00,METAR KBCT 280153Z 05010G16KT 10SM SCT022 SCT030 25/20 A3004
2026-04-28 00:53:00,METAR KBCT 280053Z 05010G16KT 10SM SCT030 25/20 A3002
2026-04-27 23:53:00,METAR KBCT 272353Z 05010KT 10SM SCT025 25/21 A3001
2026-04-27 22:53:00,METAR KBCT 272253Z 08010G17KT 10SM SCT025 26/21 A2999
2026-04-27 21:53:00,METAR KBCT 272153Z 08010G17KT 10SM SCT022 27/21 A2999
2026-04-27 20:53:00,METAR KBCT 272053Z 08010G15KT 10SM SCT024 28/21 A2998
2026-04-27 19:53:00,METAR KBCT 271953Z 07011G21KT 10SM VCTS SCT035 27/21 A2998
2026-04-27 18:53:00,METAR KBCT 271853Z 09014G21KT 060V110 10SM SCT022 29/22 A2998
2026-04-27 17:53:00,METAR KBCT 271753Z 08015G21KT 10SM VCTS SCT030 28/22 A2999
2026-04-27 16:53:00,METAR KBCT 271653Z 07012G20KT 10SM SCT070 27/22 A3000 RMK LTG DSNT E.
2026-04-27 15:53:00,METAR KBCT 271553Z 08010G15KT 10SM SCT050 28/21 A3000
2026-04-27 14:48:00,METAR KBCT 271448Z 36008KT 10SM CLR 29/20 A2999
2026-04-27 14:25:00,SPECI KBCT 271425Z 36008KT 10SM CLR 28/20 A2999
2026-04-27 13:53:00,METAR KBCT 271353Z VRB06KT 10SM CLR 28/20 A2999
2026-04-27 12:53:00,METAR KBCT 271253Z 31006KT 10SM CLR 24/21 A2997
2026-04-27 11:53:00,METAR KBCT 271153Z 29005KT 10SM CLR 22/20 A2995
2026-04-27 10:53:00,METAR KBCT 271053Z 27005KT 10SM CLR 21/20 A2992
2026-04-27 10:15:00,METAR KBCT 271015Z AUTO 27004KT 10SM CLR 21/20 A2991 RMK AO2
2026-04-27 09:55:00,METAR KBCT 270955Z AUTO 28005KT 10SM CLR 21/20 A2990 RMK AO2
2026-04-27 09:35:00,METAR KBCT 270935Z AUTO 28005KT 10SM CLR 21/20 A2990 RMK AO2
2026-04-27 09:15:00,METAR KBCT 270915Z AUTO 28005KT 10SM CLR 21/20 A2989 RMK AO2
2026-04-27 08:55:00,METAR KBCT 270855Z AUTO 27006KT 10SM CLR 21/20 A2989 RMK AO2
2026-04-27 08:35:00,METAR KBCT 270835Z AUTO 29002KT 10SM CLR 21/20 A2989 RMK AO2
2026-04-27 08:15:00,METAR KBCT 270815Z AUTO 28004KT 10SM CLR 21/20 A2989 RMK AO2
2026-04-27 07:55:00,METAR KBCT 270755Z AUTO 25003KT 10SM CLR 21/20 A2989 RMK AO2
2026-04-27 07:35:00,METAR KBCT 270735Z AUTO 25006KT 10SM CLR 22/20 A2989 RMK AO2
2026-04-27 07:15:00,METAR KBCT 270715Z AUTO 24006KT 10SM CLR 22/20 A2989 RMK AO2
2026-04-27 06:55:00,METAR KBCT 270655Z AUTO 23005KT 10SM CLR 21/20 A2989 RMK AO2
2026-04-27 06:35:00,METAR KBCT 270635Z AUTO 23003KT 10SM CLR 22/20 A2990 RMK AO2 LTG DSNT E
2026-04-27 06:15:00,METAR KBCT 270615Z AUTO 26004KT 10SM CLR 22/21 A2990 RMK AO2 LTG DSNT E
2026-04-27 05:55:00,METAR KBCT 270555Z AUTO 25004KT 10SM CLR 23/20 A2991 RMK AO2 LTG DSNT E 10241 20222
2026-04-27 05:35:00,METAR KBCT 270535Z AUTO 25005KT 10SM CLR 23/21 A2991 RMK AO2 LTG DSNT SE
2026-04-27 05:15:00,METAR KBCT 270515Z AUTO 25005KT 10SM CLR 23/21 A2991 RMK AO2 LTG DSNT NE-SE
2026-04-27 04:55:00,METAR KBCT 270455Z AUTO 25006KT 10SM CLR 23/21 A2991 RMK AO2 LTG DSNT NE
2026-04-27 04:35:00,METAR KBCT 270435Z AUTO 24005KT 10SM CLR 23/21 A2991 RMK AO2 LTG DSNT NE
2026-04-27 04:15:00,METAR KBCT 270415Z AUTO 25005KT 10SM VCTS CLR 23/21 A2991 RMK AO2 LTG DSNT NE
2026-04-27 03:55:00,METAR KBCT 270355Z AUTO 25005KT 10SM CLR 23/21 A2991 RMK AO2 LTG DSNT NE 403030197
2026-04-27 03:35:00,METAR KBCT 270335Z AUTO 26004KT 10SM FEW044 23/21 A2992 RMK AO2 LTG DSNT NE AND SE
2026-04-27 03:15:00,METAR KBCT 270315Z AUTO 30003KT 10SM CLR 23/21 A2992 RMK AO2 LTG DSNT NE
2026-04-27 02:53:00,METAR KBCT 270253Z 27005KT 10SM FEW040 23/21 A2992
2026-04-27 01:53:00,METAR KBCT 270153Z 21005KT 10SM SCT046 23/21 A2990
2026-04-27 00:53:00,METAR KBCT 270053Z 23004KT 10SM FEW030 23/20 A2988
2026-04-26 23:53:00,METAR KBCT 262353Z 19008KT 10SM SCT045 23/20 A2987 RMK LTG DSNT N AND NE.
2026-04-26 22:53:00,METAR KBCT 262253Z 19012G20KT 10SM VCTS -RA BKN060 23/20 A2987 RMK LTG DSNT S-W.
2026-04-26 21:53:00,METAR KBCT 262153Z 18014G24KT 10SM -RA BKN065 27/21 A2985 RMK LTG DSNT S AND SW.
2026-04-26 20:53:00,METAR KBCT 262053Z 18012G17KT 10SM RA SCT055 BKN110 28/20 A2983
2026-04-26 18:53:00,METAR KBCT 261853Z 14010G14KT 10SM RA SCT055 BKN075 BKN100 28/21 A2987
2026-04-26 17:53:00,METAR KBCT 261753Z COR 17007G14KT 130V210 10SM BKN036 30/21 A2988
2026-04-26 16:53:00,METAR KBCT 261653Z 16009KT 10SM SCT037 29/21 A2990
2026-04-26 15:53:00,METAR KBCT 261553Z 150008KT 10SM FEW028 SCT036 SCT044 28/21 A2992
2026-04-26 14:53:00,METAR KBCT 261453Z 18006KT 10SM SCT034 28/19 A2992
2026-04-26 13:53:00,METAR KBCT 261353Z 22006KT 10SM SCT028 27/20 A2992
2026-04-26 12:53:00,METAR KBCT 261253Z 20007KT 10SM FEW040 26/20 A2991 RMK LTG DSNT N
2026-04-26 11:53:00,METAR KBCT 261153Z 00000KT 10SM FEW040 FEW100 23/20 A2991
2026-04-26 11:00:00,METAR KBCT 261100Z 00000KT 10SM FEW030 FEW100 21/19 A2989
2026-04-26 10:15:00,METAR KBCT 261015Z AUTO 26002KT 10SM CLR 21/19 A2989 RMK AO2
2026-04-26 09:55:00,METAR KBCT 260955Z AUTO 00000KT 10SM CLR 21/19 A2988 RMK AO2
2026-04-26 09:35:00,METAR KBCT 260935Z AUTO 26001KT 10SM CLR 21/19 A2988 RMK AO2
2026-04-26 09:15:00,METAR KBCT 260915Z AUTO 24002KT 10SM FEW110 22/19 A2988 RMK AO2
2026-04-26 08:55:00,METAR KBCT 260855Z AUTO 22002KT 10SM FEW025 SCT110 22/19 A2987 RMK AO2
2026-04-26 08:35:00,METAR KBCT 260835Z AUTO 21003KT 10SM SCT025 SCT110 22/19 A2987 RMK AO2
2026-04-26 08:15:00,METAR KBCT 260815Z AUTO 22003KT 10SM SCT023 SCT110 22/19 A2987 RMK AO2
2026-04-26 07:55:00,METAR KBCT 260755Z AUTO 17003KT 10SM SCT025 23/19 A2987 RMK AO2
2026-04-26 07:35:00,METAR KBCT 260735Z AUTO 17002KT 10SM CLR 23/19 A2987 RMK AO2
2026-04-26 07:15:00,METAR KBCT 260715Z AUTO 18003KT 10SM FEW023 FEW050 23/19 A2986 RMK AO2
2026-04-26 06:55:00,METAR KBCT 260655Z AUTO 17004KT 10SM FEW055 23/19 A2986 RMK AO2
2026-04-26 06:35:00,METAR KBCT 260635Z AUTO 18003KT 10SM FEW055 23/19 A2987 RMK AO2
2026-04-26 06:15:00,METAR KBCT 260615Z AUTO 18003KT 10SM FEW055 23/19 A2988 RMK AO2
2026-04-26 05:55:00,METAR KBCT 260555Z AUTO 16003KT 10SM FEW055 23/19 A2988 RMK AO2 10248 20220
2026-04-26 05:35:00,METAR KBCT 260535Z AUTO 18003KT 10SM FEW028 SCT055 23/19 A2989 RMK AO2
2026-04-26 05:15:00,METAR KBCT 260515Z AUTO 18003KT 10SM BKN026 BKN031 BKN055 23/19 A2990 RMK AO2
2026-04-26 04:55:00,METAR KBCT 260455Z AUTO 19002KT 10SM SCT026 OVC055 23/19 A2990 RMK AO2
2026-04-26 04:35:00,METAR KBCT 260435Z AUTO 15004KT 10SM BKN055 24/19 A2990 RMK AO2
2026-04-26 04:15:00,METAR KBCT 260415Z AUTO 16005KT 10SM FEW026 SCT055 24/19 A2991 RMK AO2
2026-04-26 03:55:00,METAR KBCT 260355Z AUTO 14005KT 10SM BKN055 24/19 A2990 RMK AO2 402840180
2026-04-26 03:35:00,METAR KBCT 260335Z AUTO 12006KT 10SM SCT055 24/19 A2990 RMK AO2
2026-04-26 03:15:00,METAR KBCT 260315Z AUTO 15005KT 10SM FEW055 24/19 A2990 RMK AO2
2026-04-26 02:53:00,METAR KBCT 260253Z 14004KT 10SM FEW027 24/19 A2989
2026-04-26 01:53:00,METAR KBCT 260153Z 14008KT 10SM FEW027 SCT037 25/19 A2988
2026-04-26 00:53:00,METAR KBCT 260053Z 14008KT 10SM CLR 25/18 A2988
2026-04-25 23:53:00,METAR KBCT 252353Z 12008G15KT 10SM FEW065 25/19 A2986
2026-04-25 22:53:00,METAR KBCT 252253Z 14010G16KT 10SM CLR 27/19 A2986
2026-04-25 21:53:00,METAR KBCT 252153Z 14010G16KT 10SM CLR 27/19 A2986
2026-04-25 20:53:00,METAR KBCT 252053Z 13010G15KT 10SM CLR 27/19 A2987
2026-04-25 19:53:00,METAR KBCT 251953Z 13010G15KT 10SM FEW030 28/19 A2988
2026-04-25 18:53:00,METAR KBCT 251853Z 13009G14KT 10SM FEW032 27/19 A2989
2026-04-25 17:53:00,METAR KBCT 251753Z COR 12006KT 090V160 10SM FEW040 28/18 A2990
2026-04-25 16:53:00,METAR KBCT 251653Z COR 13007KT 10SM FEW036 27/18 A2991
2026-04-25 15:53:00,METAR KBCT 251553Z 09008KT 070V130 10SM FEW040 28/18 A2991
2026-04-25 14:53:00,METAR KBCT 251453Z VRB05KT 10SM FEW036 27/18 A2991
2026-04-25 13:52:00,METAR KBCT 251352Z 14006KT 10SM FEW030 26/18 A2990
2026-04-25 12:49:00,METAR KBCT 251249Z 00000KT 10SM CLR 25/18 A2990
2026-04-25 11:53:00,METAR KBCT 251153Z 00000KT 10SM FEW035 22/19 A2990
2026-04-25 11:00:00,METAR KBCT 251100Z 00000KT 10SM CLR 18/18 A2988
2026-04-25 10:15:00,METAR KBCT 251015Z AUTO 30001KT 10SM CLR 19/18 A2988 RMK AO2
2026-04-25 09:55:00,METAR KBCT 250955Z AUTO 29002KT 10SM CLR 18/17 A2987 RMK AO2
2026-04-25 09:35:00,METAR KBCT 250935Z AUTO 25001KT 10SM CLR 19/18 A2987 RMK AO2
2026-04-25 09:15:00,METAR KBCT 250915Z AUTO 26002KT 10SM CLR 19/18 A2987 RMK AO2
2026-04-25 08:55:00,METAR KBCT 250855Z AUTO 26001KT 10SM CLR 19/18 A2987 RMK AO2
2026-04-25 08:35:00,METAR KBCT 250835Z AUTO 34002KT 10SM CLR 20/18 A2987 RMK AO2
2026-04-25 08:15:00,METAR KBCT 250815Z AUTO 00000KT 10SM FEW026 20/18 A2987 RMK AO2
2026-04-25 07:55:00,METAR KBCT 250755Z AUTO 00000KT 10SM FEW026 21/18 A2987 RMK AO2
2026-04-25 07:35:00,METAR KBCT 250735Z AUTO 13002KT 10SM CLR 22/18 A2987 RMK AO2
2026-04-25 07:15:00,METAR KBCT 250715Z AUTO 13002KT 10SM CLR 22/18 A2987 RMK AO2
2026-04-25 06:55:00,METAR KBCT 250655Z AUTO 13002KT 10SM CLR 23/18 A2987 RMK AO2
2026-04-25 06:35:00,METAR KBCT 250635Z AUTO 15005KT 10SM FEW024 23/18 A2988 RMK AO2
2026-04-25 06:15:00,METAR KBCT 250615Z AUTO 14004KT 10SM FEW026 23/18 A2988 RMK AO2
2026-04-25 05:56:00,METAR KBCT 250556Z AUTO 15005KT 10SM CLR 23/18 A2989 RMK AO2
2026-04-25 05:35:00,METAR KBCT 250535Z AUTO 13004KT 10SM FEW027 23/18 A2990 RMK AO2
2026-04-25 05:15:00,METAR KBCT 250515Z AUTO 13004KT 10SM FEW027 23/18 A2991 RMK AO2
2026-04-25 04:55:00,METAR KBCT 250455Z AUTO 13005KT 10SM FEW027 FEW049 24/18 A2991 RMK AO2
2026-04-25 04:35:00,METAR KBCT 250435Z AUTO 12004KT 10SM FEW050 23/18 A2992 RMK AO2
2026-04-25 04:15:00,METAR KBCT 250415Z AUTO 13003KT 10SM BKN050 24/18 A2992 RMK AO2
2026-04-25 03:55:00,METAR KBCT 250355Z AUTO 12005KT 10SM BKN050 24/18 A2992 RMK AO2 402760221
2026-04-25 03:35:00,METAR KBCT 250335Z AUTO 13006KT 10SM BKN050 24/18 A2992 RMK AO2
2026-04-25 03:15:00,METAR KBCT 250315Z AUTO 13007KT 10SM SCT055 24/18 A2993 RMK AO2
2026-04-25 02:53:00,METAR KBCT 250253Z 13005KT 10SM FEW055 24/18 A2993
2026-04-25 01:53:00,METAR KBCT 250153Z 13007KT 10SM CLR 24/18 A2993
2026-04-24 23:53:00,METAR KBCT 242353Z 12005KT 10SM SCT030 BKN080 24/18 A2990
2026-04-24 22:53:00,METAR KBCT 242253Z 13008KT 10SM FEW026 FEW080 SCT100 25/18 A2989 RMK CB DSNT SW AND W
2026-04-24 21:53:00,METAR KBCT 242153Z 13008KT 10SM SCT090 SCT110 26/18 A2989 RMK CB DSNT S-SW AND W
2026-04-24 20:53:00,METAR KBCT 242053Z 10SM SCT036 27/18 A2989
2026-04-24 18:53:00,METAR KBCT 241853Z 11009KT 10SM SCT032 27/19 A2991
2026-04-24 16:53:00,METAR KBCT 241653Z 14008KT 120V180 10SM SCT040 27/17 A2995
2026-04-24 15:52:00,METAR KBCT 241552Z 14008KT 120V180 10SM FEW110 26/17 A2998
2026-04-24 14:50:00,METAR KBCT 241450Z 14008KT 10SM SCT050 26/17 A2998
2026-04-24 13:52:00,METAR KBCT 241352Z 13008KT 10SM SCT015 25/17 A2998
2026-04-24 12:52:00,METAR KBCT 241252Z 12006KT 10SM SCT032 24/17 A2997
2026-04-24 11:52:00,METAR KBCT 241152Z 00000KT 10SM BKN120 23/16 A2997
2026-04-24 10:53:00,METAR KBCT 241053Z 00000KT 10SM CLR 23/15 A2995
2026-04-24 10:15:00,METAR KBCT 241015Z AUTO 14006KT 10SM SCT042 SCT070 BKN095 23/15 A2994 RMK AO2
2026-04-24 09:55:00,METAR KBCT 240955Z AUTO 13004KT 10SM BKN120 23/15 A2994 RMK AO2
2026-04-24 09:35:00,METAR KBCT 240935Z AUTO 12004KT 10SM SCT060 SCT080 BKN120 23/15 A2994 RMK AO2 LTG DSNT SW
2026-04-24 09:15:00,METAR KBCT 240915Z AUTO 11004KT 10SM SCT060 SCT070 BKN120 22/15 A2994 RMK AO2
2026-04-24 08:55:00,METAR KBCT 240855Z AUTO 12004KT 10SM FEW120 22/15 A2994 RMK AO2
2026-04-24 08:35:00,METAR KBCT 240835Z AUTO 13002KT 10SM FEW120 23/15 A2994 RMK AO2
2026-04-24 04:35:00,METAR KBCT 240435Z AUTO 13005KT 10SM SCT037 SCT048 23/15 A3001 RMK AO2
2026-04-24 04:15:00,METAR KBCT 240415Z AUTO 12007KT 10SM SCT037 23/15 A3001 RMK AO2
2026-04-24 03:55:00,METAR KBCT 240355Z AUTO 10006KT 10SM CLR 23/15 A3001 RMK AO2 402510216
2026-04-24 03:35:00,METAR KBCT 240335Z AUTO 11007KT 10SM BKN080 23/14 A3001 RMK AO2
2026-04-24 03:15:00,METAR KBCT 240315Z AUTO 12008G14KT 090V150 10SM OVC080 23/14 A3002 RMK AO2
2026-04-24 02:53:00,METAR KBCT 240253Z 12006KT 10SM BKN080 23/14 A3002
2026-04-24 01:53:00,METAR KBCT 240153Z 12009KT 10SM BKN080 23/13 A3001
2026-04-24 00:53:00,METAR KBCT 240053Z 11005KT 10SM BKN080 23/13 A3001
2026-04-23 23:53:00,METAR KBCT 232353Z 12009KT 10SM SCT040 23/14 A3001
2026-04-23 22:53:00,METAR KBCT 232253Z 11008KT 10SM FEW025 24/14 A3001
2026-04-23 21:53:00,METAR KBCT 232153Z 10010KT 10SM BKN070 24/14 A3001
2026-04-23 20:53:00,METAR KBCT 232053Z 11008KT 10SM BKN060 24/14 A3001
2026-04-23 18:53:00,METAR KBCT 231853Z 11010G17KT 10SM SCT018 BKN037 BKN045 23/14 A3005
2026-04-23 17:48:00,METAR KBCT 231748Z 13009KT 9SM -DZ FEW022 OVC035 22/16 A3007
2026-04-23 16:53:00,METAR KBCT 231653Z 11011KT 10SM OVC039 23/16 A3008
2026-04-23 15:53:00,METAR KBCT 231553Z 11014G20KT 10SM -RA SCT032 BKN050 22/17 A3010
2026-04-23 14:53:00,METAR KBCT 231453Z 11014G20KT 10SM SCT035 24/18 A3010
2026-04-23 12:53:00,METAR KBCT 231253Z 09010G15KT 10SM SCT025 23/17 A3008
2026-04-23 11:53:00,METAR KBCT 231153Z 09010G15KT 10SM SCT025 23/17 A3008
2026-04-23 10:53:00,METAR KBCT 231053Z 08008KT 10SM SCT025 22/17 A3006
2026-04-23 10:15:00,METAR KBCT 231015Z AUTO 07009KT 10SM SCT029 BKN036 BKN047 22/17 A3006 RMK AO2
2026-04-23 09:55:00,METAR KBCT 230955Z AUTO VRB06KT 10SM SCT029 SCT034 22/17 A3006 RMK AO2
2026-04-23 09:35:00,METAR KBCT 230935Z AUTO 08007KT 10SM SCT031 SCT039 SCT065 22/17 A3006 RMK AO2
2026-04-23 09:15:00,METAR KBCT 230915Z AUTO 09009KT 10SM SCT033 SCT039 BKN050 23/16 A3006 RMK AO2
2026-04-23 08:55:00,METAR KBCT 230855Z AUTO 10008KT 10SM BKN033 BKN039 BKN060 23/17 A3006 RMK AO2
2026-04-23 08:35:00,METAR KBCT 230835Z AUTO 08011KT 10SM SCT030 SCT036 SCT042 22/17 A3006 RMK AO2
2026-04-23 08:15:00,METAR KBCT 230815Z AUTO 09010KT 10SM FEW032 FEW042 FEW050 22/17 A3005 RMK AO2
2026-04-23 07:55:00,METAR KBCT 230755Z AUTO 10010G14KT 10SM SCT032 SCT042 SCT048 23/16 A3005 RMK AO2
2026-04-23 07:35:00,METAR KBCT 230735Z AUTO 10007KT 10SM FEW037 FEW043 FEW050 23/16 A3006 RMK AO2
2026-04-23 07:15:00,METAR KBCT 230715Z AUTO 11009KT 10SM CLR 23/15 A3006 RMK AO2
2026-04-23 06:35:00,METAR KBCT 230635Z AUTO 12007KT 10SM SCT039 SCT050 BKN060 23/15 A3007 RMK AO2
2026-04-23 06:15:00,METAR KBCT 230615Z AUTO 11006KT 10SM SCT039 SCT065 23/15 A3008 RMK AO2
2026-04-23 05:55:00,METAR KBCT 230555Z AUTO 08010G14KT 10SM FEW037 SCT065 SCT075 22/16 A3008 RMK AO2 10233 20224
2026-04-23 05:35:00,METAR KBCT 230535Z AUTO 10011G16KT 10SM FEW035 FEW043 BKN065 23/16 A3010 RMK AO2
2026-04-23 05:15:00,METAR KBCT 230515Z AUTO 10009G15KT 10SM FEW036 SCT045 OVC060 23/16 A3010 RMK AO2
2026-04-23 04:55:00,METAR KBCT 230455Z AUTO 11009KT 10SM SCT037 BKN045 OVC060 23/16 A3011 RMK AO2
2026-04-23 04:35:00,METAR KBCT 230435Z AUTO 09008KT 10SM SCT041 SCT047 BKN060 23/14 A3011 RMK AO2
2026-04-23 04:15:00,METAR KBCT 230415Z AUTO 08007KT 10SM SCT044 SCT050 BKN070 23/13 A3012 RMK AO2
2026-04-23 03:55:00,METAR KBCT 230355Z AUTO 09005KT 10SM SCT044 BKN060 23/14 A3012 RMK AO2 402630213
2026-04-23 03:35:00,METAR KBCT 230335Z AUTO 09008KT 10SM FEW046 BKN060 23/13 A3012 RMK AO2
2026-04-23 03:15:00,METAR KBCT 230315Z AUTO 09008KT 10SM SCT046 SCT060 SCT070 23/13 A3013 RMK AO2
2026-04-23 02:53:00,METAR KBCT 230253Z 11008KT 10SM FEW046 23/13 A3013
2026-04-23 01:53:00,METAR KBCT 230153Z 09010KT 10SM SCT060 23/13 A3012
2026-04-23 00:53:00,METAR KBCT 230053Z 11008KT 10SM BKN070 23/13 A3012
2026-04-22 23:53:00,METAR KBCT 222353Z 09011KT 10SM BKN045 23/13 A3011
2026-04-22 22:53:00,METAR KBCT 222253Z 11010KT 10SM BKN060 24/12 A3011
2026-04-22 21:52:00,METAR KBCT 222152Z 11010G16KT 10SM CLR 25/12 A3011
2026-04-22 20:53:00,METAR KBCT 222053Z 08011G17KT 10SM BKN055 26/13 A3012
2026-04-22 19:53:00,METAR KBCT 221953Z 08010G15KT 10SM BKN055 26/13 A3014
2026-04-22 18:48:00,METAR KBCT 221848Z 10013G20KT 10SM FEW042 SCT050 26/14 A3017
2026-04-22 17:53:00,METAR KBCT 221753Z 08010G20KT 10SM SCT042 25/14 A3018
2026-04-22 16:53:00,METAR KBCT 221653Z 09013G23KT 10SM SCT046 25/14 A3020
2026-04-22 15:53:00,METAR KBCT 221553Z 09014G23KT 10SM SCT040 25/13 A3021
2026-04-22 14:53:00,METAR KBCT 221453Z 09014G23KT 10SM SCT040 24/14 A3021
2026-04-22 13:53:00,METAR KBCT 221353Z 09014G22KT 10SM SCT040 24/13 A3020
2026-04-22 12:53:00,METAR KBCT 221253Z 09014G22KT 10SM SCT040 23/13 A3020
2026-04-22 11:53:00,METAR KBCT 221153Z 09010G22KT 10SM SCT040 22/12 A3019
2026-04-22 10:53:00,METAR KBCT 221053Z 09010G20KT 10SM SCT043 22/12 A3017
2026-04-22 10:15:00,METAR KBCT 221015Z AUTO 07012G21KT 10SM SCT041 BKN050 22/13 A3016 RMK AO2
2026-04-22 09:55:00,METAR KBCT 220955Z AUTO 07013G19KT 10SM SCT043 BKN050 22/13 A3016 RMK AO2
2026-04-22 09:35:00,METAR KBCT 220935Z AUTO 07012G19KT 10SM SCT045 BKN050 22/12 A3016 RMK AO2
2026-04-22 09:15:00,METAR KBCT 220915Z AUTO 08010G16KT 10SM SCT043 SCT050 21/12 A3016 RMK AO2
2026-04-22 08:55:00,METAR KBCT 220855Z AUTO 08011G18KT 10SM FEW043 SCT050 22/13 A3016 RMK AO2
2026-04-22 08:35:00,METAR KBCT 220835Z AUTO 07012G19KT 10SM SCT045 SCT050 22/12 A3016 RMK AO2
2026-04-22 08:15:00,METAR KBCT 220815Z AUTO 09013G20KT 10SM BKN046 BKN050 22/13 A3016 RMK AO2
2026-04-22 07:55:00,METAR KBCT 220755Z AUTO 08013G19KT 10SM BKN044 BKN050 22/13 A3015 RMK AO2
2026-04-22 07:35:00,METAR KBCT 220735Z AUTO 07011G18KT 10SM BKN046 21/12 A3016 RMK AO2
2026-04-22 07:15:00,METAR KBCT 220715Z AUTO 08011G17KT 050V110 10SM FEW046 FEW055 22/12 A3016 RMK AO2
2026-04-22 06:55:00,METAR KBCT 220655Z AUTO 08013G17KT 10SM SCT048 SCT055 22/12 A3017 RMK AO2
2026-04-22 06:35:00,METAR KBCT 220635Z AUTO 08011G19KT 10SM BKN048 BKN050 22/12 A3017 RMK AO2
2026-04-22 06:15:00,METAR KBCT 220615Z AUTO 09014G21KT 10SM SCT048 22/12 A3018 RMK AO2
2026-04-22 05:55:00,METAR KBCT 220555Z AUTO 10013G20KT 10SM SCT048 SCT050 22/12 A3018 RMK AO2 10224 20216
2026-04-22 05:35:00,METAR KBCT 220535Z AUTO 08011G19KT 10SM SCT046 BKN050 22/12 A3019 RMK AO2
2026-04-22 05:15:00,METAR KBCT 220515Z AUTO 09011G23KT 10SM BKN046 BKN049 22/12 A3020 RMK AO2
2026-04-22 04:55:00,METAR KBCT 220455Z AUTO 09011G22KT 10SM BKN042 BKN050 OVC060 22/13 A3020 RMK AO2
2026-04-22 04:35:00,METAR KBCT 220435Z AUTO 09014G20KT 10SM BKN040 OVC050 22/14 A3021 RMK AO2
2026-04-22 04:15:00,METAR KBCT 220415Z AUTO 09016G22KT 10SM BKN040 BKN050 22/13 A3021 RMK AO2
2026-04-22 03:55:00,METAR KBCT 220355Z AUTO 07015G21KT 10SM FEW045 SCT050 22/13 A3021 RMK AO2 402560217
2026-04-22 03:35:00,METAR KBCT 220335Z AUTO 07011G14KT 10SM FEW050 22/11 A3021 RMK AO2
2026-04-22 03:15:00,METAR KBCT 220315Z AUTO 08013G16KT 10SM SCT050 22/11 A3022 RMK AO2
2026-04-22 01:50:00,METAR KBCT 220150Z 08011G19KT 10SM SCT044 22/13 A3022
2026-04-22 00:51:00,METAR KBCT 220051Z 08014G20KT 10SM SCT050 22/12 A3021
2026-04-21 22:50:00,METAR KBCT 212250Z 08012G21KT 10SM SCT048 23/12 A3018
2026-04-21 21:51:00,METAR KBCT 212151Z 08014G21KT 10SM SCT048 24/12 A3018
2026-04-21 20:53:00,METAR KBCT 212053Z 05015G25KT 10SM SCT040 25/12 A3018
2026-04-21 19:53:00,METAR KBCT 211953Z 05015G25KT 10SM SCT040 24/12 A3019
2026-04-21 18:53:00,METAR KBCT 211853Z 05015G25KT 10SM SCT040 25/13 A3021
2026-04-21 17:53:00,METAR KBCT 211753Z 05015G25KT 10SM SCT030 25/12 A3022
2026-04-21 16:53:00,METAR KBCT 211653Z 01018G28KT 10SM SCT030 25/13 A3023
2026-04-21 15:53:00,METAR KBCT 211553Z 08014G22KT 040V100 10SM SCT030 25/13 A3025
2026-04-21 14:53:00,METAR KBCT 211453Z 06012G28KT 10SM SCT043 24/13 A3024
2026-04-21 13:53:00,METAR KBCT 211353Z 02018G28KT 10SM SCT045 24/14 A3022
2026-04-21 12:53:00,METAR KBCT 211253Z 02017G27KT 10SM SCT045 23/13 A3020
2026-04-21 11:53:00,METAR KBCT 211153Z 02018G27KT 10SM SCT042 22/14 A3018
2026-04-21 10:53:00,METAR KBCT 211053Z 05013G23KT 10SM SCT040 22/14 A3016
2026-04-21 10:15:00,METAR KBCT 211015Z AUTO 04015G23KT 10SM BKN040 22/14 A3014 RMK AO2 PK WND 03028/56
2026-04-21 09:55:00,METAR KBCT 210955Z AUTO 04017G27KT 10SM SCT040 22/15 A3013 RMK AO2
2026-04-21 09:35:00,METAR KBCT 210935Z AUTO 04016G22KT 10SM SCT039 22/15 A3013 RMK AO2
2026-04-21 09:15:00,METAR KBCT 210915Z AUTO 04015G23KT 10SM BKN039 22/15 A3013 RMK AO2
2026-04-21 08:55:00,METAR KBCT 210855Z AUTO 04017G23KT 10SM SCT036 SCT041 22/15 A3013 RMK AO2
2026-04-21 08:35:00,METAR KBCT 210835Z AUTO 04015G23KT 10SM SCT034 22/16 A3013 RMK AO2
2026-04-21 08:15:00,METAR KBCT 210815Z AUTO 04017G21KT 10SM BKN036 BKN046 BKN060 23/16 A3013 RMK AO2
2026-04-21 07:35:00,METAR KBCT 210735Z AUTO 05017G23KT 10SM BKN038 BKN046 OVC050 23/17 A3013 RMK AO2
2026-04-21 07:15:00,METAR KBCT 210715Z AUTO 04011G23KT 10SM BKN029 OVC037 23/17 A3013 RMK AO2
2026-04-21 06:55:00,METAR KBCT 210655Z AUTO 04012G22KT 10SM BKN027 BKN033 OVC038 23/17 A3013 RMK AO2
2026-04-21 06:35:00,METAR KBCT 210635Z AUTO 04015G23KT 10SM SCT026 BKN032 OVC048 23/18 A3012 RMK AO2
2026-04-21 06:15:00,METAR KBCT 210615Z AUTO 04012G22KT 10SM SCT027 BKN035 OVC050 23/18 A3012 RMK AO2
2026-04-21 05:55:00,METAR KBCT 210555Z AUTO 05012G25KT 10SM SCT028 BKN033 OVC050 23/18 A3013 RMK AO2 10239 20231
2026-04-21 05:35:00,METAR KBCT 210535Z AUTO 04015G22KT 10SM BKN028 BKN034 BKN050 23/18 A3013 RMK AO2
2026-04-21 05:15:00,METAR KBCT 210515Z AUTO 04016G20KT 10SM SCT028 BKN033 BKN039 23/18 A3013 RMK AO2
2026-04-21 04:55:00,METAR KBCT 210455Z AUTO 05014G21KT 10SM SCT028 SCT038 SCT048 23/18 A3013 RMK AO2
2026-04-21 04:35:00,METAR KBCT 210435Z AUTO 04017G23KT 10SM SCT031 SCT038 BKN048 23/18 A3013 RMK AO2
2026-04-21 04:15:00,METAR KBCT 210415Z AUTO 04015G24KT 10SM SCT025 BKN037 OVC048 23/18 A3013 RMK AO2
2026-04-21 03:55:00,METAR KBCT 210355Z AUTO 04017G22KT 10SM SCT025 BKN033 OVC049 24/19 A3013 RMK AO2 402840214
2026-04-21 03:35:00,METAR KBCT 210335Z AUTO 05010G18KT 10SM SCT027 SCT036 SCT045 24/19 A3013 RMK AO2
2026-04-21 03:15:00,METAR KBCT 210315Z AUTO 05014G21KT 10SM CLR 24/18 A3012 RMK AO2
2026-04-21 02:53:00,METAR KBCT 210253Z 05015G22KT 10SM SCT024 BKN034 24/19 A3012
2026-04-21 01:53:00,METAR KBCT 210153Z 05015G22KT 10SM SCT024 BKN040 24/19 A3011
2026-04-21 00:53:00,METAR KBCT 210053Z 05015G22KT 10SM SCT024 BKN050 24/19 A3010
2026-04-20 23:53:00,METAR KBCT 202353Z 36015G22KT 10SM SCT034 BKN046 24/20 A3008
2026-04-20 22:53:00,METAR KBCT 202253Z 36015G22KT 10SM SCT023 SCT032 22/20 A3007
2026-04-20 21:53:00,METAR KBCT 202153Z 36015G22KT 10SM SCT030 BKN037 23/20 A3008
2026-04-20 20:53:00,METAR KBCT 202053Z 36015G22KT 10SM SCT014 SCT021 24/21 A3005
2026-04-20 19:53:00,METAR KBCT 201953Z 05014G24KT 10SM VCTS SCT026 24/22 A3005
2026-04-20 18:53:00,METAR KBCT 201853Z 06010G15KT 10SM VCTS SCT055 27/21 A3006
2026-04-20 17:53:00,METAR KBCT 201753Z 07010G18KT 10SM VCTS SCT035 27/20 A3006
2026-04-20 16:53:00,METAR KBCT 201653Z 02014G18KT 10SM SCT045 27/20 A3007
2026-04-20 15:53:00,METAR KBCT 201553Z 02010G18KT 10SM SCT028 28/20 A3008
2026-04-20 14:53:00,METAR KBCT 201453Z 11010G17KT 080V160 10SM SCT035 27/19 A3007
2026-04-20 13:53:00,METAR KBCT 201353Z 08008KT 10SM SCT024 26/20 A3005
2026-04-20 11:53:00,METAR KBCT 201153Z 10009G14KT 10SM SCT050 SCT090 24/21 A3003
2026-04-20 10:53:00,METAR KBCT 201053Z 06006KT 10SM FEW012 SCT050 23/20 A3001
2026-04-20 10:15:00,METAR KBCT 201015Z AUTO 01008KT 10SM SCT043 OVC065 23/21 A3000 RMK AO2
2026-04-20 09:55:00,METAR KBCT 200955Z AUTO 02005KT 10SM BKN043 OVC060 24/22 A3000 RMK AO2
2026-04-20 09:35:00,METAR KBCT 200935Z AUTO 03002KT 10SM BKN060 24/21 A2999 RMK AO2 LTG DSNT NE
2026-04-20 09:15:00,METAR KBCT 200915Z AUTO VRB02KT 10SM VCTS SCT027 BKN043 BKN060 24/21 A2998 RMK AO2 LTG DSNT NE
2026-04-20 08:55:00,METAR KBCT 200855Z AUTO 34002KT 10SM BKN024 OVC041 24/21 A2998 RMK AO2
2026-04-20 08:35:00,METAR KBCT 200835Z AUTO 06001KT 10SM FEW022 BKN041 24/21 A2998 RMK AO2
2026-04-20 08:15:00,METAR KBCT 200815Z AUTO 25002KT 10SM FEW028 24/21 A2998 RMK AO2
2026-04-20 07:55:00,METAR KBCT 200755Z AUTO 25003KT 10SM SCT024 SCT029 24/21 A2998 RMK AO2
2026-04-20 07:35:00,METAR KBCT 200735Z AUTO 23005KT 10SM SCT020 SCT027 BKN044 25/22 A2998 RMK AO2
2026-04-20 07:15:00,METAR KBCT 200715Z AUTO 13003KT 10SM BKN044 25/23 A2998 RMK AO2
2026-04-20 06:55:00,METAR KBCT 200655Z AUTO 13005KT 10SM FEW050 FEW065 25/23 A2998 RMK AO2
2026-04-20 06:35:00,METAR KBCT 200635Z AUTO 13007KT 10SM SCT050 SCT055 BKN065 26/23 A2999 RMK AO2
2026-04-20 06:15:00,METAR KBCT 200615Z AUTO 13007KT 10SM SCT018 SCT047 BKN055 26/23 A3000 RMK AO2
2026-04-20 05:55:00,METAR KBCT 200555Z AUTO 13007KT 10SM SCT029 BKN048 BKN055 26/23 A3000 RMK AO2 10264 20256
2026-04-20 05:35:00,METAR KBCT 200535Z AUTO 12006KT 10SM BKN027 BKN046 OVC055 26/23 A3000 RMK AO2
2026-04-20 05:15:00,METAR KBCT 200515Z AUTO 13005KT 10SM BKN025 26/23 A3001 RMK AO2
2026-04-20 04:55:00,METAR KBCT 200455Z AUTO 14005KT 10SM FEW025 SCT046 SCT070 26/23 A3001 RMK AO2
2026-04-20 04:35:00,METAR KBCT 200435Z AUTO 14007KT 10SM SCT027 BKN033 OVC048 26/23 A3001 RMK AO2
2026-04-20 04:15:00,METAR KBCT 200415Z AUTO 13004KT 10SM SCT022 SCT031 OVC046 26/23 A3001 RMK AO2
2026-04-20 03:55:00,METAR KBCT 200355Z AUTO VRB04KT 10SM SCT016 SCT022 BKN044 26/23 A3002 RMK AO2 402950221
2026-04-20 03:35:00,METAR KBCT 200335Z AUTO 14003KT 10SM FEW016 SCT044 BKN050 26/23 A3002 RMK AO2
2026-04-20 03:15:00,METAR KBCT 200315Z AUTO 08004KT 10SM BKN044 OVC050 26/22 A3002 RMK AO2
2026-04-20 02:53:00,METAR KBCT 200253Z VRB04KT 10SM BKN065 26/20 A3002
2026-04-20 01:53:00,METAR KBCT 200153Z VRB04KT 10SM BKN065 26/20 A3001
2026-04-20 00:53:00,METAR KBCT 200053Z VRB06KT 110V170 10SM SCT065 26/20 A2999
2026-04-19 23:53:00,METAR KBCT 192353Z 14010KT 110V170 10SM SCT060 27/22 A2997
2026-04-19 22:53:00,METAR KBCT 192253Z 14010KT 10SM BKN060 27/22 A2997
2026-04-19 21:53:00,METAR KBCT 192153Z 13008KT 10SM SCT120 27/22 A2996
2026-04-19 20:53:00,METAR KBCT 192053Z 14010KT 10SM SCT030 27/22 A2996
2026-04-19 19:53:00,METAR KBCT 191953Z 14010KT 10SM SCT030 29/21 A2998
2026-04-19 18:53:00,METAR KBCT 191853Z 14007KT 10SM SCT024 28/22 A2999
2026-04-19 17:53:00,METAR KBCT 191753Z 10007KT 10SM SCT028 BKN050 28/22 A3001
2026-04-19 16:53:00,METAR KBCT 191653Z 14007KT 10SM SCT028 BKN050 29/22 A3003
2026-04-19 15:53:00,METAR KBCT 191553Z 15007KT 10SM SCT043 BKN050 27/22 A3004
2026-04-19 14:53:00,METAR KBCT 191453Z 23007KT 10SM BKN029 BKN043 28/21 A3003
2026-04-19 13:53:00,METAR KBCT 191353Z VRB04KT 10SM FEW020 SCT030 27/22 A3003 RMK TCU DSNT E
2026-04-19 12:53:00,METAR KBCT 191253Z 29004KT 10SM FEW025 FEW040 SCT090 25/22 A3003 RMK TCU DSNT E
2026-04-19 11:53:00,METAR KBCT 191153Z 27004KT 10SM FEW040 BKN090 24/22 A3002
2026-04-19 11:00:00,METAR KBCT 191100Z 00000KT 10SM BKN080 24/22 A3000
2026-04-19 10:15:00,METAR KBCT 191015Z AUTO 28004KT 10SM SCT017 BKN025 OVC080 23/22 A3000 RMK AO2
2026-04-19 09:55:00,METAR KBCT 190955Z AUTO VRB02KT 10SM SCT015 SCT023 OVC080 23/22 A2999 RMK AO2
2026-04-19 09:35:00,METAR KBCT 190935Z AUTO 24002KT 10SM SCT015 SCT020 OVC080 23/22 A2998 RMK AO2
2026-04-19 09:15:00,METAR KBCT 190915Z AUTO 27002KT 10SM FEW015 FEW019 BKN080 22/21 A2998 RMK AO2
2026-04-19 08:35:00,METAR KBCT 190835Z AUTO 22003KT 10SM BKN016 BKN022 23/21 A2998 RMK AO2
2026-04-19 08:15:00,METAR KBCT 190815Z AUTO 19003KT 10SM BKN016 BKN065 23/21 A2998 RMK AO2
2026-04-19 07:55:00,METAR KBCT 190755Z AUTO 17003KT 10SM SCT065 24/22 A2998 RMK AO2
2026-04-19 07:15:00,METAR KBCT 190715Z AUTO 15005KT 10SM SCT065 24/22 A2999 RMK AO2
2026-04-19 06:55:00,METAR KBCT 190655Z AUTO 13004KT 10SM FEW015 SCT065 24/22 A2999 RMK AO2
2026-04-19 06:35:00,METAR KBCT 190635Z AUTO 14005KT 10SM SCT015 BKN065 BKN075 24/22 A2999 RMK AO2
2026-04-19 05:55:00,METAR KBCT 190555Z AUTO 15005KT 10SM SCT015 OVC065 25/22 A3001 RMK AO2 10256 20246
2026-04-19 04:55:00,METAR KBCT 190455Z AUTO 11006KT 10SM BKN017 BKN065 25/22 A3002 RMK AO2
2026-04-19 04:35:00,METAR KBCT 190435Z AUTO 10007KT 10SM SCT017 SCT024 BKN055 25/22 A3002 RMK AO2
2026-04-19 04:15:00,METAR KBCT 190415Z AUTO 11007KT 10SM SCT018 SCT023 BKN060 25/22 A3002 RMK AO2
2026-04-19 03:55:00,METAR KBCT 190355Z AUTO 11008KT 10SM SCT017 BKN022 BKN050 25/22 A3003 RMK AO2 402880237
2026-04-19 03:35:00,METAR KBCT 190335Z AUTO 11008KT 10SM SCT017 BKN065 BKN070 25/22 A3002 RMK AO2
2026-04-19 02:53:00,METAR KBCT 190253Z 09006KT 10SM SCT016 25/22 A3003
2026-04-19 01:53:00,METAR KBCT 190153Z 10006KT 10SM SCT018 25/22 A3001
2026-04-19 00:53:00,METAR KBCT 190053Z 11008KT 10SM SCT018 25/22 A2998
2026-04-18 23:53:00,METAR KBCT 182353Z 11010KT 10SM SCT018 26/22 A2997
2026-04-18 22:53:00,METAR KBCT 182253Z 11008G14KT 070V180 10SM FEW018 26/21 A2998
2026-04-18 21:53:00,METAR KBCT 182153Z 09010G15KT 070V180 10SM SCT018 27/22 A2997
2026-04-18 20:53:00,METAR KBCT 182053Z 12010G15KT 10SM SCT025 27/22 A2997
2026-04-18 19:53:00,METAR KBCT 181953Z 14010G15KT 10SM SCT025 28/21 A2999
2026-04-18 18:53:00,METAR KBCT 181853Z 10009KT 10SM SCT022 28/22 A3001
2026-04-18 17:53:00,METAR KBCT 181753Z 11010KT 050V110 10SM SCT024 SCT034 28/22 A3002
2026-04-18 16:53:00,SPECI KBCT 181653Z 12008KT 10SM SCT024 28/22 A3002
2026-04-18 16:21:00,SPECI KBCT 181621Z 12008KT 10SM SCT024 27/21 A3004
2026-04-18 15:52:00,METAR KBCT 181552Z 12008KT 10SM CLR 27/21 A3004
2026-04-18 14:53:00,METAR KBCT 181453Z 13007KT 10SM FEW018 27/22 A3004
2026-04-18 13:55:00,METAR KBCT 181355Z 14008KT 10SM FEW017 26/22 A3003
2026-04-18 12:53:00,METAR KBCT 181253Z 13006KT 10SM FEW017 26/21 A3003
2026-04-18 11:53:00,METAR KBCT 181153Z 11006KT 10SM FEW017 SCT023 SCT040 25/22 A3001
2026-04-18 11:00:00,METAR KBCT 181100Z 12005KT 10SM SCT017 SCT022 24/21 A2999
2026-04-18 10:15:00,METAR KBCT 181015Z AUTO 12004KT 10SM SCT015 SCT028 BKN065 24/21 A2998 RMK AO2
2026-04-18 09:55:00,METAR KBCT 180955Z AUTO 12003KT 10SM BKN015 BKN020 OVC034 24/22 A2998 RMK AO2
2026-04-18 09:35:00,METAR KBCT 180935Z AUTO 12003KT 10SM BKN017 BKN022 BKN030 24/22 A2997 RMK AO2
2026-04-18 09:15:00,METAR KBCT 180915Z AUTO 11004KT 10SM SCT017 SCT023 24/21 A2997 RMK AO2
2026-04-18 08:55:00,METAR KBCT 180855Z AUTO 13004KT 10SM SCT017 SCT023 24/22 A2997 RMK AO2
2026-04-18 07:55:00,METAR KBCT 180755Z AUTO 14006KT 10SM SCT017 SCT026 OVC040 24/22 A2996 RMK AO2
2026-04-18 07:35:00,METAR KBCT 180735Z AUTO 12005KT 10SM BKN015 BKN024 BKN039 24/22 A2997 RMK AO2
2026-04-18 07:15:00,METAR KBCT 180715Z AUTO 12007KT 10SM SCT017 BKN024 BKN036 24/22 A2997 RMK AO2
2026-04-18 06:55:00,METAR KBCT 180655Z AUTO 11006KT 10SM SCT017 SCT024 BKN036 24/22 A2998 RMK AO2
2026-04-18 06:35:00,METAR KBCT 180635Z AUTO 12007KT 10SM FEW018 FEW024 FEW055 24/22 A2998 RMK AO2
2026-04-18 06:15:00,METAR KBCT 180615Z AUTO 12006KT 10SM SCT018 SCT024 SCT055 24/21 A2999 RMK AO2
2026-04-18 05:55:00,METAR KBCT 180555Z AUTO 12005KT 10SM SCT018 SCT028 BKN055 24/21 A3000 RMK AO2 10250 20242
2026-04-18 05:35:00,METAR KBCT 180535Z AUTO 10006KT 10SM FEW018 SCT026 SCT050 24/21 A3000 RMK AO2
2026-04-18 05:15:00,METAR KBCT 180515Z AUTO 11007KT 10SM SCT017 BKN048 OVC050 25/22 A3001 RMK AO2
2026-04-18 04:55:00,METAR KBCT 180455Z AUTO 09005KT 10SM SCT016 BKN021 BKN026 24/22 A3002 RMK AO2
2026-04-18 04:35:00,METAR KBCT 180435Z AUTO 09008KT 10SM SCT017 BKN022 BKN028 24/22 A3002 RMK AO2
2026-04-18 04:15:00,METAR KBCT 180415Z AUTO 10007KT 10SM SCT017 BKN022 BKN028 25/22 A3002 RMK AO2
2026-04-18 03:55:00,METAR KBCT 180355Z AUTO 08006KT 10SM BKN015 BKN024 24/22 A3003 RMK AO2 402710225
2026-04-18 03:35:00,METAR KBCT 180335Z AUTO 08006KT 10SM SCT017 SCT021 BKN027 24/22 A3003 RMK AO2
2026-04-18 03:15:00,METAR KBCT 180315Z AUTO 08005KT 10SM FEW017 FEW026 24/21 A3003 RMK AO2
2026-04-18 02:53:00,METAR KBCT 180253Z 06006KT 10SM SCT019 BKN027 25/21 A3004
2026-04-18 01:53:00,METAR KBCT 180153Z 06006KT 10SM SCT019 BKN027 25/21 A3004
2026-04-18 00:53:00,METAR KBCT 180053Z 08006KT 10SM SCT021 BKN026 25/21 A3003
2026-04-17 23:53:00,METAR KBCT 172353Z 08005KT 10SM SCT019 SCT024 25/22 A3001
2026-04-17 22:53:00,METAR KBCT 172253Z 06007KT 10SM SCT019 25/21 A3001
2026-04-17 21:53:00,METAR KBCT 172153Z 04008KT 10SM SCT020 BKN050 26/21 A3001
2026-04-17 20:53:00,METAR KBCT 172053Z 08005KT 10SM SCT020 BKN025 27/22 A3001
2026-04-17 19:53:00,METAR KBCT 171953Z 08008KT 10SM SCT020 BKN050 26/22 A3002
2026-04-17 18:53:00,METAR KBCT 171853Z 05007KT 030V090 10SM SCT013 SCT018 BKN026 26/23 A3003
2026-04-17 17:53:00,METAR KBCT 171753Z 05007KT 8SM -DZ BKN012 23/23 A3006
2026-04-17 16:53:00,METAR KBCT 171653Z 05007KT 8SM -DZ SCT009 24/23 A3008
2026-04-17 15:50:00,METAR KBCT 171550Z 05007KT 3SM -DZ BR BKN010 BKN036 BKN050 24/22 A3009
2026-04-17 14:51:00,METAR KBCT 171451Z 07007KT 7SM -DZ SCT010 BKN025 BKN049 24/23 A3008
2026-04-17 13:52:00,METAR KBCT 171352Z 09006KT 10SM -DZ SCT013 BKN021 OVC050 24/23 A3007
2026-04-17 12:49:00,METAR KBCT 171249Z 13006KT 10SM SCT015 BKN025 OVC050 25/22 A3006
2026-04-17 11:53:00,METAR KBCT 171153Z 05003KT 10SM SCT024 BKN041 23/22 A3004
2026-04-17 11:39:00,METAR KBCT 171139Z 03007KT 10SM BKN025 24/22 A3002
2026-04-17 11:28:00,METAR KBCT 171128Z 03007KT 10SM BKN007 24/22 A3002
2026-04-17 11:00:00,METAR KBCT 171100Z 03007KT 10SM BKN022 24/22 A3002
2026-04-17 10:53:00,METAR KBCT 171053Z 02007KT 10SM SCT020 24/22 A3002
2026-04-17 10:15:00,METAR KBCT 171015Z AUTO 04004KT 10SM BKN023 OVC028 23/21 A3001 RMK AO2
2026-04-17 09:55:00,METAR KBCT 170955Z AUTO 04003KT 10SM SCT027 OVC038 23/21 A3001 RMK AO2
2026-04-17 09:35:00,METAR KBCT 170935Z AUTO 04004KT 10SM FEW027 OVC034 23/21 A3001 RMK AO2
2026-04-17 09:15:00,METAR KBCT 170915Z AUTO 05005KT 10SM OVC029 23/21 A3001 RMK AO2
2026-04-17 08:55:00,METAR KBCT 170855Z AUTO 07005KT 10SM FEW010 FEW015 OVC029 23/22 A3001 RMK AO2
2026-04-17 08:35:00,METAR KBCT 170835Z AUTO 09004KT 10SM OVC027 23/22 A3001 RMK AO2
2026-04-17 08:15:00,METAR KBCT 170815Z AUTO 07004KT 10SM FEW014 FEW020 OVC029 23/22 A3001 RMK AO2
2026-04-17 07:55:00,METAR KBCT 170755Z AUTO 10009KT 3SM -DZ BR SCT014 BKN022 OVC031 24/22 A3001 RMK AO2
2026-04-17 07:35:00,METAR KBCT 170735Z AUTO 10008KT 10SM SCT015 SCT021 BKN033 24/21 A3002 RMK AO2
2026-04-17 06:55:00,METAR KBCT 170655Z AUTO 08006KT 10SM SCT017 SCT028 BKN050 24/21 A3002 RMK AO2
2026-04-17 06:35:00,METAR KBCT 170635Z AUTO 09007KT 10SM BKN018 BKN029 OVC055 24/21 A3003 RMK AO2
2026-04-17 06:12:00,METAR KBCT 170612Z AUTO 10006KT 10SM SCT018 SCT028 BKN043 24/21 A3004 RMK AO2
2026-04-17 05:55:00,METAR KBCT 170555Z AUTO 09007KT 10SM SCT018 BKN028 OVC050 24/21 A3005 RMK AO2 10242 20227
2026-04-17 05:35:00,METAR KBCT 170535Z AUTO 08006KT 10SM SCT018 BKN023 BKN030 24/21 A3005 RMK AO2
2026-04-17 05:15:00,METAR KBCT 170515Z AUTO 08007KT 10SM BKN022 BKN029 BKN045 24/21 A3006 RMK AO2
2026-04-17 04:55:00,METAR KBCT 170455Z AUTO 07005KT 10SM -DZ SCT026 BKN037 OVC046 24/21 A3007 RMK AO2
2026-04-17 04:35:00,METAR KBCT 170435Z AUTO 08008KT 10SM SCT027 BKN037 BKN046 24/20 A3007 RMK AO2
2026-04-17 04:15:00,METAR KBCT 170415Z AUTO 08007KT 10SM SCT019 SCT029 BKN048 24/20 A3008 RMK AO2
2026-04-17 03:55:00,METAR KBCT 170355Z AUTO 08006KT 10SM 24/20 A3007 RMK AO2 402710224
2026-04-17 03:35:00,METAR KBCT 170335Z AUTO 07006KT 10SM 24/20 A3008 RMK AO2
2026-04-17 03:15:00,METAR KBCT 170315Z AUTO 07007KT 10SM SCT019 BKN024 OVC039 24/20 A3008 RMK AO2
2026-04-17 02:53:00,METAR KBCT 170253Z 07005KT 10SM BKN025 24/19 A3008
2026-04-17 00:53:00,METAR KBCT 170053Z 06005KT 10SM SCT024 23/17 A3009
2026-04-16 23:53:00,METAR KBCT 162353Z 05006KT 10SM FEW033 24/17 A3008
2026-04-16 22:53:00,METAR KBCT 162253Z 06007G14KT 10SM SCT033 25/17 A3007
2026-04-16 21:53:00,METAR KBCT 162153Z 05008G16KT 10SM FEW035 25/17 A3007
2026-04-16 20:53:00,METAR KBCT 162053Z 06007KT 10SM SCT036 26/17 A3007
2026-04-16 19:53:00,METAR KBCT 161953Z 05010KT 10SM SCT040 26/16 A3008
2026-04-16 18:53:00,METAR KBCT 161853Z 09006G14KT 020V130 10SM SCT042 27/16 A3011
2026-04-16 17:52:00,METAR KBCT 161752Z 10010KT 070V130 10SM SCT042 26/16 A3012
2026-04-16 16:52:00,METAR KBCT 161652Z 11007KT 090V150 10SM FEW042 26/15 A3014
2026-04-16 15:53:00,METAR KBCT 161553Z 08010KT 10SM SCT040 26/15 A3014
2026-04-16 14:53:00,METAR KBCT 161453Z 08010KT 10SM SCT040 26/16 A3014
2026-04-16 13:53:00,METAR KBCT 161353Z 13010KT 10SM SCT044 25/15 A3013
2026-04-16 12:53:00,METAR KBCT 161253Z 11008KT 10SM SCT042 24/16 A3012
2026-04-16 11:53:00,METAR KBCT 161153Z 11005KT 10SM SCT030 24/16 A3011
2026-04-16 10:53:00,METAR KBCT 161053Z 08005KT 10SM SCT030 23/16 A3009
2026-04-16 10:15:00,METAR KBCT 161015Z AUTO 09005KT 10SM BKN046 23/15 A3009 RMK AO2
2026-04-16 09:55:00,METAR KBCT 160955Z AUTO 08005KT 10SM OVC044 23/16 A3009 RMK AO2
2026-04-16 09:35:00,METAR KBCT 160935Z AUTO 08006KT 10SM OVC042 24/16 A3009 RMK AO2
2026-04-16 09:15:00,METAR KBCT 160915Z AUTO 07007KT 10SM OVC044 24/15 A3008 RMK AO2
2026-04-16 08:55:00,METAR KBCT 160855Z AUTO 11005KT 10SM OVC044 24/15 A3008 RMK AO2
2026-04-16 08:35:00,METAR KBCT 160835Z AUTO 08005KT 10SM OVC042 24/15 A3009 RMK AO2
2026-04-16 08:15:00,METAR KBCT 160815Z AUTO 09008KT 10SM OVC044 24/14 A3008 RMK AO2
2026-04-16 07:55:00,METAR KBCT 160755Z AUTO 09007KT 10SM OVC044 24/14 A3009 RMK AO2
2026-04-16 07:35:00,METAR KBCT 160735Z AUTO 09010G16KT 10SM OVC044 24/15 A3009 RMK AO2
2026-04-16 07:15:00,METAR KBCT 160715Z AUTO 09007KT 10SM OVC044 24/15 A3010 RMK AO2
2026-04-16 06:55:00,METAR KBCT 160655Z AUTO 11005KT 10SM OVC042 24/15 A3010 RMK AO2
2026-04-16 06:15:00,METAR KBCT 160615Z AUTO 10004KT 10SM OVC042 23/14 A3011 RMK AO2
2026-04-16 05:55:00,METAR KBCT 160555Z AUTO 11009KT 10SM OVC042 24/15 A3011 RMK AO2 10241 20234
2026-04-16 05:35:00,METAR KBCT 160535Z AUTO 09009KT 10SM OVC042 24/15 A3011 RMK AO2
2026-04-16 05:15:00,METAR KBCT 160515Z AUTO 09009KT 10SM OVC040 24/15 A3012 RMK AO2
2026-04-16 04:55:00,METAR KBCT 160455Z AUTO 08008KT 10SM OVC042 24/16 A3012 RMK AO2
2026-04-16 04:35:00,METAR KBCT 160435Z AUTO 08008KT 10SM OVC044 24/15 A3013 RMK AO2
2026-04-16 04:15:00,METAR KBCT 160415Z AUTO 07008G17KT 10SM OVC044 24/15 A3013 RMK AO2
2026-04-16 03:55:00,METAR KBCT 160355Z AUTO 07007KT 10SM OVC042 24/15 A3013 RMK AO2 402680222
2026-04-16 03:35:00,METAR KBCT 160335Z AUTO 07007KT 10SM OVC042 24/14 A3014 RMK AO2
2026-04-16 03:15:00,METAR KBCT 160315Z AUTO 07006KT 10SM OVC042 24/14 A3014 RMK AO2
2026-04-16 02:52:00,METAR KBCT 160252Z 10011G16KT 10SM BKN042 24/15 A3014
2026-04-16 01:52:00,METAR KBCT 160152Z 07008KT 10SM BKN040 24/15 A3013
2026-04-16 00:52:00,METAR KBCT 160052Z 10006KT 10SM BKN040 24/15 A3012
2026-04-15 23:52:00,METAR KBCT 152352Z 07005KT 10SM BKN040 24/15 A3011
2026-04-15 22:52:00,METAR KBCT 152252Z 08006KT 10SM SCT040 24/15 A3010
2026-04-15 21:53:00,METAR KBCT 152153Z 12011KT 10SM SCT040 25/15 A3011
2026-04-15 20:53:00,METAR KBCT 152053Z 06008G14KT 10SM SCT042 25/16 A3011
2026-04-15 18:51:00,METAR KBCT 151851Z 06011G18KT 10SM BKN044 26/15 A3012
2026-04-15 17:53:00,METAR KBCT 151753Z 11011G16KT 10SM SCT044 25/14 A3015
2026-04-15 16:53:00,METAR KBCT 151653Z 02010G20KT 10SM SCT044 25/15 A3016
2026-04-15 15:53:00,METAR KBCT 151553Z 09008G15KT 10SM BKN042 25/15 A3017
2026-04-15 14:53:00,METAR KBCT 151453Z 09008G15KT 10SM BKN042 25/15 A3017
2026-04-15 13:53:00,METAR KBCT 151353Z 09008G15KT 10SM BKN042 24/15 A3016
2026-04-15 12:53:00,METAR KBCT 151253Z 09008G15KT 10SM BKN042 23/14 A3015
2026-04-15 11:53:00,METAR KBCT 151153Z 09008G15KT 10SM OVC042 23/14 A3015
2026-04-15 10:53:00,METAR KBCT 151053Z 09008KT 10SM SCT042 23/14 A3012
2026-04-15 10:15:00,METAR KBCT 151015Z AUTO 08006KT 10SM OVC042 23/14 A3011 RMK AO2
2026-04-15 09:55:00,METAR KBCT 150955Z AUTO 13008KT 10SM OVC040 23/14 A3010 RMK AO2
2026-04-15 09:35:00,METAR KBCT 150935Z AUTO VRB05KT 10SM OVC040 23/14 A3010 RMK AO2
2026-04-15 09:15:00,METAR KBCT 150915Z AUTO 13003KT 10SM OVC040 22/14 A3010 RMK AO2
2026-04-15 08:55:00,METAR KBCT 150855Z AUTO 10007KT 10SM OVC042 23/14 A3010 RMK AO2
2026-04-15 08:35:00,METAR KBCT 150835Z AUTO 12010KT 090V150 10SM OVC040 23/14 A3010 RMK AO2
2026-04-15 08:15:00,METAR KBCT 150815Z AUTO 12007KT 10SM OVC038 23/15 A3009 RMK AO2
2026-04-15 07:55:00,METAR KBCT 150755Z AUTO 10006KT 10SM OVC038 22/15 A3009 RMK AO2
2026-04-15 07:35:00,METAR KBCT 150735Z AUTO 08008KT 10SM OVC040 22/14 A3010 RMK AO2
2026-04-15 07:15:00,METAR KBCT 150715Z AUTO 10011G15KT 10SM OVC040 22/14 A3010 RMK AO2
2026-04-15 06:48:00,METAR KBCT 150648Z AUTO 10010KT 10SM OVC040 22/14 A3012 RMK AO2
2026-04-15 06:35:00,METAR KBCT 150635Z AUTO 07008KT 10SM BKN040 22/14 A3012 RMK AO2
2026-04-15 06:15:00,METAR KBCT 150615Z AUTO 08009KT 10SM OVC040 22/14 A3012 RMK AO2
2026-04-15 05:55:00,METAR KBCT 150555Z AUTO 08011KT 10SM OVC040 23/14 A3013 RMK AO2 10239 20225
2026-04-15 05:35:00,METAR KBCT 150535Z AUTO 10013G19KT 10SM OVC040 23/14 A3014 RMK AO2
2026-04-15 05:15:00,METAR KBCT 150515Z AUTO 10009KT 10SM OVC042 23/15 A3014 RMK AO2
2026-04-15 04:55:00,METAR KBCT 150455Z AUTO 09008KT 10SM OVC042 23/15 A3015 RMK AO2
2026-04-15 04:35:00,METAR KBCT 150435Z AUTO 10008KT 10SM BKN040 23/15 A3015 RMK AO2
2026-04-15 04:15:00,METAR KBCT 150415Z AUTO 07008G15KT 10SM FEW042 23/13 A3016 RMK AO2
2026-04-15 03:55:00,METAR KBCT 150355Z AUTO 06008KT 10SM SCT040 23/14 A3016 RMK AO2 402740224
2026-04-15 03:35:00,METAR KBCT 150335Z AUTO 09008G18KT 10SM BKN040 23/14 A3017 RMK AO2
2026-04-15 03:15:00,METAR KBCT 150315Z AUTO 07009KT 10SM SCT040 23/14 A3017 RMK AO2
2026-04-15 01:53:00,METAR KBCT 150153Z 09008KT 10SM FEW040 23/15 A3016
2026-04-15 00:52:00,METAR KBCT 150052Z 08009KT 10SM SCT038 23/16 A3015
2026-04-14 23:48:00,METAR KBCT 142348Z 09009KT 10SM SCT040 SCT049 24/15 A3014
2026-04-14 22:53:00,METAR KBCT 142253Z 07009G16KT 10SM SCT035 SCT041 24/16 A3013
2026-04-14 21:47:00,METAR KBCT 142147Z 08010G15KT 10SM CLR 26/16 A3013
2026-04-14 20:49:00,METAR KBCT 142049Z 08008G16KT 10SM SCT040 27/17 A3014
2026-04-14 19:48:00,METAR KBCT 141948Z 11009G17KT 070V130 10SM FEW035 27/16 A3015
2026-04-14 18:53:00,METAR KBCT 141853Z 11010G20KT 10SM SCT040 27/17 A3017
2026-04-14 17:53:00,METAR KBCT 141753Z 11010G16KT 10SM SCT030 27/17 A3019
2026-04-14 16:53:00,METAR KBCT 141653Z 08010G15KT 050V110 10SM SCT030 27/17 A3020
2026-04-14 15:53:00,METAR KBCT 141553Z 10011G17KT 10SM SCT030 27/16 A3022
2026-04-14 13:53:00,METAR KBCT 141353Z 11012G19KT 10SM FEW034 SCT050 26/17 A3021
2026-04-14 12:53:00,METAR KBCT 141253Z 09009G15KT 10SM SCT046 BKN050 24/16 A3019
2026-04-14 11:53:00,METAR KBCT 141153Z 10010G15KT 10SM FEW036 23/16 A3018
2026-04-14 10:53:00,METAR KBCT 141053Z 09010G15KT 10SM SCT033 BKN050 23/16 A3016
2026-04-14 10:15:00,METAR KBCT 141015Z AUTO 06008G14KT 10SM SCT038 BKN050 23/16 A3015 RMK AO2
2026-04-14 09:55:00,METAR KBCT 140955Z AUTO 08007KT 10SM SCT038 BKN050 23/15 A3015 RMK AO2
2026-04-14 09:35:00,METAR KBCT 140935Z AUTO 07009G15KT 10SM FEW036 BKN050 23/15 A3015 RMK AO2
2026-04-14 09:15:00,METAR KBCT 140915Z AUTO 07008G14KT 10SM SCT032 BKN050 23/16 A3015 RMK AO2
2026-04-14 08:55:00,METAR KBCT 140855Z AUTO 07005KT 10SM FEW034 FEW040 BKN050 23/16 A3015 RMK AO2
2026-04-14 08:35:00,METAR KBCT 140835Z AUTO VRB06KT 10SM FEW035 SCT050 23/16 A3015 RMK AO2
2026-04-14 07:55:00,METAR KBCT 140755Z AUTO 08009G15KT 10SM SCT035 SCT042 BKN050 23/16 A3015 RMK AO2
2026-04-14 07:35:00,METAR KBCT 140735Z AUTO 08008KT 10SM SCT035 SCT043 BKN050 23/15 A3015 RMK AO2
2026-04-14 07:15:00,METAR KBCT 140715Z AUTO 09008KT 10SM FEW035 SCT043 SCT049 23/15 A3015 RMK AO2
2026-04-14 06:55:00,METAR KBCT 140655Z AUTO 09009G15KT 10SM SCT035 SCT050 23/16 A3015 RMK AO2
2026-04-14 06:35:00,METAR KBCT 140635Z AUTO 09009G18KT 10SM CLR 23/15 A3016 RMK AO2
2026-04-14 06:15:00,METAR KBCT 140615Z AUTO 09012G18KT 10SM SCT038 SCT044 23/15 A3016 RMK AO2
2026-04-14 05:55:00,METAR KBCT 140555Z AUTO 10010G17KT 10SM BKN038 BKN045 23/15 A3017 RMK AO2 10239 20233
2026-04-14 05:35:00,METAR KBCT 140535Z AUTO 11009G22KT 10SM BKN038 BKN050 23/15 A3017 RMK AO2
2026-04-14 05:15:00,METAR KBCT 140515Z AUTO 08016G19KT 10SM BKN042 BKN050 23/15 A3018 RMK AO2
2026-04-14 04:55:00,METAR KBCT 140455Z AUTO 09012G16KT 10SM SCT037 BKN046 BKN050 23/15 A3018 RMK AO2
2026-04-14 03:55:00,METAR KBCT 140355Z AUTO 09011G19KT 10SM FEW032 FEW043 SCT050 24/15 A3019 RMK AO2 402720218
2026-04-14 03:35:00,METAR KBCT 140335Z AUTO 08009G18KT 10SM FEW030 FEW035 SCT050 23/17 A3020 RMK AO2
2026-04-14 03:15:00,METAR KBCT 140315Z AUTO 07011G16KT 10SM FEW044 FEW050 23/17 A3020 RMK AO2
2026-04-14 02:53:00,METAR KBCT 140253Z 07010KT 10SM SCT033 BKN045 24/16 A3020
2026-04-14 01:53:00,METAR KBCT 140153Z 07010KT 10SM SCT033 BKN042 24/17 A3018
2026-04-14 00:53:00,METAR KBCT 140053Z 07010G18KT 10SM SCT030 BKN042 24/17 A3018
2026-04-13 23:53:00,METAR KBCT 132353Z 07010G18KT 10SM SCT030 24/17 A3018
2026-04-13 22:53:00,METAR KBCT 132253Z 07010G15KT 10SM SCT032 25/17 A3019
2026-04-13 21:53:00,METAR KBCT 132153Z 09010G17KT 10SM SCT036 25/17 A3019
2026-04-13 20:53:00,METAR KBCT 132053Z 09010G17KT 10SM SCT042 26/16 A3020
2026-04-13 19:53:00,METAR KBCT 131953Z 10011G20KT 10SM SCT042 26/15 A3022
2026-04-13 18:53:00,METAR KBCT 131853Z 11011G22KT 10SM SCT044 26/14 A3023
2026-04-13 17:53:00,METAR KBCT 131753Z 11012G21KT 10SM SCT044 26/15 A3025
2026-04-13 16:53:00,METAR KBCT 131653Z 12013G20KT 10SM SCT039 26/16 A3027
2026-04-13 15:53:00,METAR KBCT 131553Z 10010G22KT 10SM SCT040 25/16 A3028
2026-04-13 14:53:00,METAR KBCT 131453Z 11010G22KT 10SM SCT040 25/15 A3028
2026-04-13 13:53:00,METAR KBCT 131353Z 09010G18KT 050V110 10SM SCT048 24/14 A3028
2026-04-13 12:53:00,METAR KBCT 131253Z 08013G20KT 10SM SCT042 24/14 A3027
2026-04-13 11:53:00,METAR KBCT 131153Z 08010G18KT 10SM FEW036 SCT044 22/13 A3026
2026-04-13 11:00:00,METAR KBCT 131100Z 08009G18KT 10SM SCT041 22/13 A3025
2026-04-13 10:15:00,METAR KBCT 131015Z AUTO 07011G15KT 10SM BKN043 22/14 A3023 RMK AO2
2026-04-13 09:55:00,METAR KBCT 130955Z AUTO 08011G18KT 10SM BKN041 22/14 A3023 RMK AO2
2026-04-13 09:35:00,METAR KBCT 130935Z AUTO 07014G20KT 10SM OVC041 22/14 A3022 RMK AO2
2026-04-13 09:15:00,METAR KBCT 130915Z AUTO 08009G17KT 10SM BKN041 22/13 A3023 RMK AO2
2026-04-13 08:55:00,METAR KBCT 130855Z AUTO 07015G21KT 10SM OVC041 22/14 A3022 RMK AO2
2026-04-13 08:35:00,METAR KBCT 130835Z AUTO 09009G19KT 060V120 10SM OVC041 22/14 A3022 RMK AO2
2026-04-13 08:15:00,METAR KBCT 130815Z AUTO 08009G18KT 040V100 10SM OVC041 22/13 A3022 RMK AO2
2026-04-13 07:55:00,METAR KBCT 130755Z AUTO 08009G17KT 10SM BKN041 22/14 A3022 RMK AO2
2026-04-13 07:35:00,METAR KBCT 130735Z AUTO 08010KT 10SM BKN041 22/14 A3022 RMK AO2
2026-04-13 07:15:00,METAR KBCT 130715Z AUTO 08009G19KT 10SM BKN039 22/14 A3022 RMK AO2
2026-04-13 06:55:00,METAR KBCT 130655Z AUTO 08007G16KT 10SM BKN041 22/14 A3023 RMK AO2
2026-04-13 06:35:00,METAR KBCT 130635Z AUTO 08009G17KT 10SM SCT043 22/13 A3023 RMK AO2
2026-04-13 06:15:00,METAR KBCT 130615Z AUTO 07012G16KT 10SM FEW043 22/12 A3024 RMK AO2
2026-04-13 05:35:00,METAR KBCT 130535Z AUTO 08009G15KT 10SM SCT039 SCT045 22/13 A3025 RMK AO2
2026-04-13 04:55:00,METAR KBCT 130455Z AUTO 09011KT 10SM BKN039 BKN045 23/13 A3026 RMK AO2
2026-04-13 04:35:00,METAR KBCT 130435Z AUTO 09011G21KT 10SM BKN036 OVC046 23/15 A3027 RMK AO2
2026-04-13 04:15:00,METAR KBCT 130415Z AUTO 08009G19KT 040V100 10SM SCT039 BKN046 23/15 A3027 RMK AO2
2026-04-13 03:55:00,METAR KBCT 130355Z AUTO 08008G17KT 10SM SCT037 BKN044 23/15 A3027 RMK AO2 402660218
2026-04-13 03:35:00,METAR KBCT 130335Z AUTO 07008KT 030V100 10SM SCT039 SCT045 22/14 A3026 RMK AO2
2026-04-13 03:15:00,METAR KBCT 130315Z AUTO 07010G18KT 10SM BKN043 23/14 A3027 RMK AO2
2026-04-13 02:53:00,METAR KBCT 130253Z 08011KT 10SM SCT043 23/13 A3026
2026-04-13 01:53:00,METAR KBCT 130153Z 09012G20KT 10SM SCT037 23/15 A3025
2026-04-13 00:53:00,METAR KBCT 130053Z 08010G20KT 10SM SCT033 23/16 A3023
2026-04-12 23:53:00,METAR KBCT 122353Z 07010G20KT 10SM SCT036 24/17 A3021
2026-04-12 22:53:00,METAR KBCT 122253Z 07010G19KT 10SM SCT036 24/17 A3021
2026-04-12 21:53:00,METAR KBCT 122153Z 09015G23KT 10SM SCT033 25/17 A3020
2026-04-12 20:53:00,METAR KBCT 122053Z 07015G23KT 10SM SCT038 26/17 A3020
2026-04-12 19:53:00,METAR KBCT 121953Z 06011G22KT 10SM SCT034 26/17 A3022
2026-04-12 18:53:00,METAR KBCT 121853Z 09011G20KT 10SM SCT043 26/16 A3024
2026-04-12 17:53:00,METAR KBCT 121753Z 06014G19KT 10SM SCT044 26/15 A3025
2026-04-12 16:53:00,METAR KBCT 121653Z 08013G19KT 10SM SCT045 26/14 A3028
2026-04-12 15:53:00,METAR KBCT 121553Z 09010G20KT 10SM SCT043 26/15 A3028
2026-04-12 13:53:00,METAR KBCT 121353Z 08014G23KT 10SM SCT045 24/13 A3027
2026-04-12 12:53:00,METAR KBCT 121253Z 08011G21KT 10SM SCT043 BKN049 22/13 A3026
2026-04-12 11:53:00,METAR KBCT 121153Z 07011G16KT 10SM SCT043 22/14 A3023
2026-04-12 11:00:00,METAR KBCT 121100Z 08008G16KT 10SM SCT045 22/14 A3021
2026-04-12 10:15:00,METAR KBCT 121015Z AUTO 09010G15KT 10SM OVC045 22/14 A3019 RMK AO2
2026-04-12 09:55:00,METAR KBCT 120955Z AUTO 08010G17KT 10SM BKN043 23/14 A3018 RMK AO2
2026-04-12 09:35:00,METAR KBCT 120935Z AUTO 06009G16KT 10SM BKN045 22/13 A3017 RMK AO2
2026-04-12 09:15:00,METAR KBCT 120915Z AUTO 06010G16KT 10SM BKN045 22/14 A3018 RMK AO2
2026-04-12 08:55:00,METAR KBCT 120855Z AUTO 07011G17KT 10SM SCT035 BKN045 23/15 A3017 RMK AO2
2026-04-12 08:35:00,METAR KBCT 120835Z AUTO 06011G18KT 10SM SCT033 BKN041 BKN047 23/16 A3017 RMK AO2
2026-04-12 08:15:00,METAR KBCT 120815Z AUTO 07015G18KT 10SM BKN031 BKN040 OVC049 23/16 A3017 RMK AO2
2026-04-12 07:55:00,METAR KBCT 120755Z AUTO 07010G18KT 10SM BKN031 BKN040 BKN048 23/17 A3017 RMK AO2
2026-04-12 07:35:00,METAR KBCT 120735Z AUTO 06009G18KT 10SM BKN033 BKN041 OVC048 23/16 A3017 RMK AO2
2026-04-12 07:15:00,METAR KBCT 120715Z AUTO 07007G15KT 10SM SCT034 SCT040 BKN050 23/16 A3018 RMK AO2
2026-04-12 06:55:00,METAR KBCT 120655Z AUTO 07010G17KT 10SM FEW035 SCT042 SCT050 23/16 A3018 RMK AO2
2026-04-12 06:35:00,METAR KBCT 120635Z AUTO 05011G18KT 10SM SCT033 BKN046 BKN050 23/16 A3018 RMK AO2
2026-04-12 06:15:00,METAR KBCT 120615Z AUTO 06010G17KT 10SM SCT033 BKN041 BKN047 23/16 A3019 RMK AO2
2026-04-12 05:55:00,METAR KBCT 120555Z AUTO 06008G18KT 030V090 10SM BKN033 BKN050 23/17 A3020 RMK AO2 10236 20227
2026-04-12 05:15:00,METAR KBCT 120515Z AUTO 06010G14KT 10SM FEW034 FEW050 23/16 A3021 RMK AO2
2026-04-12 04:55:00,METAR KBCT 120455Z AUTO 06007G14KT 10SM CLR 23/15 A3021 RMK AO2
2026-04-12 04:35:00,METAR KBCT 120435Z AUTO 05010KT 10SM FEW036 FEW047 23/16 A3021 RMK AO2
2026-04-12 04:15:00,METAR KBCT 120415Z AUTO 06008G18KT 10SM FEW035 23/15 A3021 RMK AO2
2026-04-12 03:55:00,METAR KBCT 120355Z AUTO 06008G14KT 030V100 10SM FEW035 23/16 A3022 RMK AO2 402680219
2026-04-12 03:35:00,METAR KBCT 120335Z AUTO 06008G14KT 10SM FEW033 FEW042 SCT049 23/16 A3022 RMK AO2
2026-04-12 03:15:00,METAR KBCT 120315Z AUTO 06011G16KT 10SM SCT034 BKN042 OVC049 23/16 A3021 RMK AO2
2026-04-12 02:53:00,METAR KBCT 120253Z 06011G15KT 10SM SCT034 23/16 A3021
2026-04-12 01:53:00,METAR KBCT 120153Z 08011G16KT 10SM FEW037 23/16 A3021
2026-04-12 00:53:00,METAR KBCT 120053Z 07008G14KT 10SM FEW037 23/16 A3021
2026-04-11 23:53:00,METAR KBCT 112353Z 09008G18KT 10SM SCT036 23/15 A3019
2026-04-11 22:53:00,METAR KBCT 112253Z 07010G20KT 10SM SCT030 24/15 A3018
2026-04-11 21:53:00,METAR KBCT 112153Z 05012G16KT 10SM SCT030 25/14 A3017
2026-04-11 20:53:00,METAR KBCT 112053Z 08014G23KT 10SM SCT039 26/15 A3017
2026-04-11 19:53:00,METAR KBCT 111953Z 07012G20KT 10SM SCT033 26/17 A3017
2026-04-11 18:53:00,METAR KBCT 111853Z 06015G23KT 10SM SCT037 25/17 A3018
2026-04-11 17:53:00,METAR KBCT 111753Z 05012G18KT 10SM BKN055 26/14 A3020
2026-04-11 16:53:00,METAR KBCT 111653Z 08011G17KT 10SM SCT050 25/13 A3023
2026-04-11 15:53:00,METAR KBCT 111553Z 07012G15KT 10SM SCT048 BKN050 25/14 A3023
2026-04-11 14:53:00,METAR KBCT 111453Z 05006KT 030V090 10SM SCT045 BKN050 24/13 A3023
2026-04-11 13:53:00,METAR KBCT 111353Z 05010G15KT 10SM BKN050 24/13 A3022
2026-04-11 12:47:00,METAR KBCT 111247Z 07007G15KT 10SM SCT055 23/12 A3019
2026-04-11 11:53:00,METAR KBCT 111153Z 06007G15KT 10SM SCT055 23/12 A3019
2026-04-11 11:00:00,METAR KBCT 111100Z 07007G16KT 10SM CLR 22/13 A3017
2026-04-11 10:15:00,METAR KBCT 111015Z AUTO 05011G16KT 10SM FEW036 OVC060 22/15 A3016 RMK AO2
2026-04-11 09:55:00,METAR KBCT 110955Z AUTO 06009KT 10SM FEW036 FEW044 OVC060 22/15 A3015 RMK AO2
2026-04-11 09:35:00,METAR KBCT 110935Z AUTO 06007KT 10SM SCT036 OVC050 23/15 A3016 RMK AO2
2026-04-11 09:15:00,METAR KBCT 110915Z AUTO 07010KT 10SM FEW038 OVC050 23/15 A3015 RMK AO2
2026-04-11 08:55:00,METAR KBCT 110855Z AUTO 06009G15KT 10SM FEW036 FEW050 OVC055 23/15 A3015 RMK AO2
2026-04-11 08:35:00,METAR KBCT 110835Z AUTO 06008KT 10SM FEW034 OVC050 23/15 A3016 RMK AO2
2026-04-11 08:15:00,METAR KBCT 110815Z AUTO 05008G15KT 020V090 10SM OVC050 23/15 A3015 RMK AO2
2026-04-11 07:55:00,METAR KBCT 110755Z AUTO 06010G16KT 10SM SCT039 SCT048 OVC050 23/16 A3015 RMK AO2
2026-04-11 07:35:00,METAR KBCT 110735Z AUTO 08009KT 050V110 10SM BKN033 BKN046 OVC050 23/16 A3014 RMK AO2
2026-04-11 07:15:00,METAR KBCT 110715Z AUTO 07012G16KT 10SM SCT037 BKN046 OVC050 23/16 A3014 RMK AO2
2026-04-11 06:55:00,METAR KBCT 110655Z AUTO 06009G15KT 10SM SCT033 SCT041 OVC050 23/16 A3014 RMK AO2
2026-04-11 06:35:00,METAR KBCT 110635Z AUTO 07011G14KT 10SM FEW035 FEW042 OVC050 23/16 A3015 RMK AO2
2026-04-11 06:15:00,METAR KBCT 110615Z AUTO 07011G16KT 10SM SCT033 SCT039 OVC050 23/16 A3015 RMK AO2
2026-04-11 05:55:00,METAR KBCT 110555Z AUTO 07011G16KT 040V100 10SM BKN031 OVC038 23/16 A3016 RMK AO2 10235 20224
2026-04-11 05:35:00,METAR KBCT 110535Z AUTO 07011G16KT 10SM -RA BKN031 BKN037 OVC050 23/17 A3016 RMK AO2
2026-04-11 05:15:00,METAR KBCT 110515Z AUTO 07009G15KT 10SM BKN037 BKN046 OVC065 23/17 A3017 RMK AO2
2026-04-11 04:55:00,METAR KBCT 110455Z AUTO 07010G16KT 10SM SCT031 SCT037 OVC065 23/17 A3017 RMK AO2
2026-04-11 04:35:00,METAR KBCT 110435Z AUTO 06007G16KT 10SM SCT039 SCT045 OVC065 23/17 A3018 RMK AO2
2026-04-11 04:15:00,METAR KBCT 110415Z AUTO 07009G14KT 10SM FEW030 SCT037 OVC065 23/17 A3018 RMK AO2
2026-04-11 03:55:00,METAR KBCT 110355Z AUTO 06012G18KT 10SM BKN032 BKN041 BKN065 23/17 A3018 RMK AO2 402640213
2026-04-11 03:35:00,METAR KBCT 110335Z AUTO 06010G17KT 10SM SCT032 BKN041 BKN049 23/17 A3019 RMK AO2
2026-04-11 03:15:00,METAR KBCT 110315Z AUTO 07010G18KT 10SM BKN037 BKN045 BKN070 23/16 A3019 RMK AO2
2026-04-11 02:53:00,METAR KBCT 110253Z 06010G21KT 10SM BKN036 23/17 A3019
2026-04-11 01:53:00,METAR KBCT 110153Z 07011G18KT 10SM SCT024 23/18 A3018
2026-04-11 00:53:00,METAR KBCT 110053Z 05010KT 10SM SCT035 SCT046 23/18 A3017
2026-04-10 23:53:00,METAR KBCT 102353Z 07008G16KT 10SM SCT027 SCT035 23/18 A3015
2026-04-10 22:53:00,METAR KBCT 102253Z 05011G19KT 10SM SCT027 SCT035 SCT042 24/18 A3015
2026-04-10 21:53:00,METAR KBCT 102153Z 05014G22KT 10SM FEW033 BKN045 25/17 A3014
2026-04-10 20:53:00,METAR KBCT 102053Z 05011G18KT 10SM SCT034 BKN048 25/17 A3014
2026-04-10 19:53:00,METAR KBCT 101953Z 06012G22KT 10SM BKN050 26/17 A3015
2026-04-10 18:53:00,METAR KBCT 101853Z 05010G21KT 10SM FEW035 SCT045 26/17 A3016
2026-04-10 17:58:00,METAR KBCT 101758Z 06010G21KT 10SM SCT034 SCT045 26/17 A3017
2026-04-10 16:50:00,METAR KBCT 101650Z 07012G22KT 10SM FEW031 SCT038 SCT046 26/18 A3018
2026-04-10 15:53:00,METAR KBCT 101553Z 08016G21KT 10SM SCT033 SCT042 BKN048 25/18 A3018
2026-04-10 14:53:00,METAR KBCT 101453Z 06012G20KT 10SM SCT030 25/18 A3017
2026-04-10 13:53:00,METAR KBCT 101353Z 06012G18KT 10SM SCT027 24/18 A3016
2026-04-10 12:53:00,METAR KBCT 101253Z 06012G18KT 10SM SCT027 24/18 A3014
2026-04-10 11:53:00,METAR KBCT 101153Z 06012G18KT 10SM SCT027 23/18 A3013
2026-04-10 10:53:00,METAR KBCT 101053Z 06012KT 10SM SCT025 23/18 A3011
2026-04-10 10:15:00,METAR KBCT 101015Z AUTO 06010KT 10SM SCT025 22/18 A3011 RMK AO2
2026-04-10 09:55:00,METAR KBCT 100955Z AUTO 06010G15KT 10SM FEW025 22/18 A3010 RMK AO2
2026-04-10 09:35:00,METAR KBCT 100935Z AUTO 05009KT 10SM SCT025 22/18 A3010 RMK AO2
2026-04-10 09:15:00,METAR KBCT 100915Z AUTO 06009G16KT 10SM SCT023 SCT031 23/18 A3009 RMK AO2
2026-04-10 08:55:00,METAR KBCT 100855Z AUTO 06010G19KT 10SM FEW025 FEW034 SCT055 23/18 A3009 RMK AO2
2026-04-10 08:35:00,METAR KBCT 100835Z AUTO 05011G17KT 10SM SCT034 SCT045 BKN055 23/18 A3009 RMK AO2
2026-04-10 08:15:00,METAR KBCT 100815Z AUTO 05012G21KT 10SM FEW024 FEW036 BKN055 23/18 A3009 RMK AO2
2026-04-10 07:55:00,METAR KBCT 100755Z AUTO 06008G22KT 10SM SCT031 SCT045 OVC055 23/18 A3010 RMK AO2
2026-04-10 07:35:00,METAR KBCT 100735Z AUTO 06010G19KT 10SM SCT025 BKN042 OVC055 23/18 A3010 RMK AO2
2026-04-10 07:15:00,METAR KBCT 100715Z AUTO 06008G15KT 10SM BKN025 BKN036 OVC055 23/18 A3010 RMK AO2
2026-04-10 06:55:00,METAR KBCT 100655Z AUTO 06012G23KT 10SM SCT025 BKN035 OVC050 23/18 A3010 RMK AO2
2026-04-10 06:35:00,METAR KBCT 100635Z AUTO 07012G16KT 10SM SCT033 SCT039 OVC050 23/18 A3010 RMK AO2
2026-04-10 06:15:00,METAR KBCT 100615Z AUTO 06011G17KT 10SM SCT032 BKN050 OVC060 22/18 A3011 RMK AO2
2026-04-10 05:55:00,METAR KBCT 100555Z AUTO 07011G18KT 10SM SCT036 BKN048 OVC060 22/18 A3011 RMK AO2 10235 20210
2026-04-10 05:35:00,METAR KBCT 100535Z AUTO 07012G24KT 4SM -RA HZ SCT022 BKN035 OVC048 22/19 A3011 RMK AO2
2026-04-10 05:15:00,METAR KBCT 100515Z AUTO 06013G19KT 10SM SCT023 BKN034 OVC060 22/19 A3012 RMK AO2
2026-04-10 04:55:00,METAR KBCT 100455Z AUTO 06011G20KT 10SM SCT021 SCT031 OVC050 22/18 A3013 RMK AO2 P0001
2026-04-10 04:35:00,METAR KBCT 100435Z AUTO 05013G25KT 010V070 4SM -RA HZ BKN023 BKN033 OVC055 22/20 A3012 RMK AO2
2026-04-10 04:15:00,METAR KBCT 100415Z AUTO 06011G22KT 10SM BKN023 BKN039 OVC060 22/19 A3013 RMK AO2
2026-04-10 03:55:00,METAR KBCT 100355Z AUTO 06012G24KT 10SM SCT022 BKN039 OVC050 22/19 A3013 RMK AO2 P0006 402590210
2026-04-10 03:35:00,METAR KBCT 100335Z AUTO 05013G22KT 2SM -RA BR SCT004 SCT018 OVC025 22/19 A3013 RMK AO2 VIS 3/4V5
2026-04-10 03:15:00,METAR KBCT 100315Z AUTO 05010G20KT 5SM -DZ BR BKN029 BKN043 OVC055 21/19 A3014 RMK AO2
2026-04-10 02:53:00,METAR KBCT 100253Z 06012G22KT 10SM BKN023 BKN029 OVC047 22/20 A3014
2026-04-10 01:53:00,METAR KBCT 100153Z 08013G24KT 6SM RA FEW003 BKN018 OVC043 22/20 A3012
2026-04-10 01:33:00,METAR KBCT 100133Z 07010G26KT 6SM SCT008 OVC018 22/20 A3012
2026-04-10 00:53:00,METAR KBCT 100053Z 06016G26KT 10SM SCT025 BKN035 BKN044 23/19 A3011
2026-04-09 23:53:00,METAR KBCT 092353Z 06014G17KT 10SM SCT035 BKN047 23/19 A3009
2026-04-09 22:53:00,METAR KBCT 092253Z 07013G23KT 10SM VCSH FEW008 SCT023 BKN028 23/20 A3008
2026-04-09 21:53:00,METAR KBCT 092153Z 06011G20KT 10SM SCT024 BKN050 25/19 A3007
2026-04-09 20:53:00,METAR KBCT 092053Z 05013G22KT 10SM SCT029 BKN039 BKN050 24/20 A3006
2026-04-09 19:53:00,METAR KBCT 091953Z 06012G20KT 040V100 10SM SCT020 SCT025 BKN030 25/20 A3006
2026-04-09 18:53:00,METAR KBCT 091853Z 07015G18KT 10SM SCT019 BKN030 25/20 A3006
2026-04-09 17:53:00,SPECI KBCT 091753Z 07013G24KT 10SM FEW015 SCT042 24/21 A3008
2026-04-09 16:51:00,SPECI KBCT 091651Z 06009G15 KT 6SM -RA BR SCT016 BKN027 23/21 A3008
2026-04-09 16:33:00,SPECI KBCT 091633Z 08010G20KT 10SM BKN016 23/21 A3008
2026-04-09 15:53:00,METAR KBCT 091553Z 08010G20KT 2SM RA BR SCT003 BKN010 22/21 A3009
2026-04-09 14:53:00,METAR KBCT 091453Z 08010G20KT 1SM RA BR SCT005 BKN035 22/21 A3008
2026-04-09 13:53:00,METAR KBCT 091353Z 08010G20KT 10SM SCT027 24/20 A3007
2026-04-09 12:53:00,METAR KBCT 091253Z 08010G18KT 10SM SCT030 24/20 A3005
2026-04-09 11:53:00,METAR KBCT 091153Z 08010G18KT 10SM SCT020 23/20 A3004
2026-04-09 10:53:00,METAR KBCT 091053Z 08010G189KT 10SM SCT020 BKN030 22/20 A3002
2026-04-09 10:15:00,METAR KBCT 091015Z AUTO 08014G19KT 10SM FEW020 FEW032 BKN043 23/19 A3001 RMK AO2
2026-04-09 09:55:00,METAR KBCT 090955Z AUTO 07012G19KT 10SM SCT023 BKN031 BKN041 23/20 A3000 RMK AO2
2026-04-09 09:35:00,METAR KBCT 090935Z AUTO 08010G19KT 10SM FEW020 SCT028 BKN034 23/19 A3000 RMK AO2
2026-04-09 09:15:00,METAR KBCT 090915Z AUTO 07011G18KT 10SM -DZ SCT020 BKN031 BKN039 23/20 A2999 RMK AO2
2026-04-09 08:55:00,METAR KBCT 090855Z AUTO 08011G19KT 10SM FEW021 BKN031 BKN043 23/19 A2999 RMK AO2
2026-04-09 08:35:00,METAR KBCT 090835Z AUTO 07012G19KT 10SM SCT021 BKN029 OVC034 23/20 A2999 RMK AO2
2026-04-09 08:15:00,METAR KBCT 090815Z AUTO 08010G20KT 10SM BKN023 BKN030 BKN043 23/19 A2999 RMK AO2
2026-04-09 07:55:00,METAR KBCT 090755Z AUTO 07012G20KT 10SM SCT020 SCT027 BKN033 23/19 A2999 RMK AO2
2026-04-09 07:35:00,METAR KBCT 090735Z AUTO 07010G18KT 10SM -RA BKN021 BKN026 BKN045 23/20 A2999 RMK AO2
2026-04-09 07:15:00,METAR KBCT 090715Z AUTO 08014G21KT 10SM SCT020 SCT024 BKN034 23/19 A3000 RMK AO2
2026-04-09 06:55:00,METAR KBCT 090655Z AUTO 08015G21KT 10SM SCT022 BKN035 OVC085 23/19 A3001 RMK AO2
2026-04-09 06:35:00,METAR KBCT 090635Z AUTO 08011G20KT 050V110 10SM SCT024 SCT038 BKN046 23/19 A3001 RMK AO2
2026-04-09 06:15:00,METAR KBCT 090615Z AUTO 08017G24KT 10SM SCT023 BKN031 OVC042 23/19 A3001 RMK AO2
2026-04-09 05:55:00,METAR KBCT 090555Z AUTO 08012G22KT 10SM BKN021 BKN026 OVC041 23/19 A3002 RMK AO2 PK WND 09027/05 10236 20217
2026-04-09 05:35:00,METAR KBCT 090535Z AUTO 08016G22KT 10SM BKN019 BKN025 OVC038 23/20 A3003 RMK AO2 PK WND 07028/44
2026-04-09 05:15:00,METAR KBCT 090515Z AUTO 07013G27KT 10SM BKN024 BKN029 OVC080 23/20 A3003 RMK AO2 PK WND 07028/44
2026-04-09 04:55:00,METAR KBCT 090455Z AUTO 08018G28KT 10SM SCT021 BKN029 OVC036 23/20 A3003 RMK AO2 PK WND 07028/05
2026-04-09 04:35:00,METAR KBCT 090435Z AUTO 07014G27KT 10SM SCT023 BKN036 BKN080 23/19 A3003 RMK AO2 PK WND 07028/05
2026-04-09 04:15:00,METAR KBCT 090415Z AUTO 08018G28KT 10SM -DZ SCT021 BKN026 OVC080 23/19 A3003 RMK AO2 PK WND 07028/05
2026-04-09 03:55:00,METAR KBCT 090355Z AUTO 07015G26KT 10SM BKN022 BKN029 OVC080 24/19 A3003 RMK AO2 PK WND 07028/56 402660211
2026-04-09 03:35:00,METAR KBCT 090335Z AUTO 07017G26KT 10SM BKN019 OVC028 23/20 A3003 RMK AO2 PK WND 07028/56
2026-04-09 03:15:00,METAR KBCT 090315Z AUTO 08017G25KT 10SM BKN021 OVC029 23/19 A3004 RMK AO2 PK WND 05030/24
2026-04-09 02:53:00,METAR KBCT 090253Z 06015G25KT 10SM BKN022 BKN029 23/19 A3003
2026-04-09 01:53:00,METAR KBCT 090153Z 06018G27KT 10SM BKN020 23/19 A3001
2026-04-09 00:53:00,METAR KBCT 090053Z 06017G26KT 10SM SCT013 BKN050 23/20 A2999
2026-04-08 23:53:00,METAR KBCT 082353Z 07018G29KT 10SM SCT023 22/20 A2996
2026-04-08 23:25:00,SPECI KBCT 082325Z 04024G36KT 10SM SCT014 BKN031 22/20 A2996
2026-04-08 22:53:00,METAR KBCT 082253Z 04017G32KT 6SM VCTS DZ BR BNK012 OVC019 21/20 A2996 RMK LTG DSNT E TS DSNT SE VIS W 9
2026-04-08 22:24:00,SPECI KBCT 082224Z 03015G30KT 2 1/12SM -RA BR BKN007 OVC015 21/21 A2997 RMK TS DSIPTD SE VIS W 9
2026-04-08 21:53:00,METAR KBCT 082153Z 03020G28KT 1SM VCTS +SHRA BR OVC003 22/21 A2995 RMK LTG DSNT NE TS E MOV S
2026-04-08 21:40:00,SPECI KBCT 082140Z 04019G30KT 3/16SM +SHRA FG BKN003 OVC012 23/21 A2996 RMK LTG DSNT NE CB NE MOV S
2026-04-08 21:31:00,SPECI KBCT 082131Z COR 11006KT 070V130 3SM -RA BR BKN008 BKN015 BKN022 26/22 A2993 RMK VIS SW 3/4
2026-04-08 20:53:00,METAR KBCT 082053Z 12006KT 080V140 10SM SCT020 BKN039 26/22 A2993
2026-04-08 19:53:00,METAR KBCT 081953Z 12011G14KT 10SM SCT018 SCT022 BKN027 26/21 A2995
2026-04-08 18:48:00,METAR KBCT 081848Z 08008KT 10SM FEW015 FEW020 SCT047 25/21 A2996
2026-04-08 17:53:00,METAR KBCT 081753Z 06010G16KT 10SM SCT022 25/21 A2997
2026-04-08 16:53:00,METAR KBCT 081653Z 08011G20KT 10SM SCT021 26/21 A2999
2026-04-08 15:53:00,METAR KBCT 081553Z 09011G18KT 10SM SCT021 25/21 A2999
2026-04-08 14:53:00,METAR KBCT 081453Z 09011G18KT 10SM SCT027 24/21 A2999
2026-04-08 13:53:00,METAR KBCT 081353Z 03011G17KT 10SM SCT019 23/21 A2998
2026-04-08 12:53:00,METAR KBCT 081253Z 03011G22KT 10SM BKN019 22/20 A2996
2026-04-08 11:53:00,METAR KBCT 081153Z 03011G22KT 2SM -DZ BR SCT014 BKN025 22/20 A2995
2026-04-08 10:53:00,METAR KBCT 081053Z 05010G15KT 10SM SCT035 BKN045 22/20 A2993
2026-04-08 10:15:00,METAR KBCT 081015Z AUTO 04013G21KT 10SM SCT013 BKN021 OVC037 22/20 A2992 RMK AO2 LTG DSNT SE
2026-04-08 09:55:00,METAR KBCT 080955Z AUTO 05014G20KT 10SM -DZ SCT018 BKN038 OVC075 22/20 A2991 RMK AO2 LTG DSNT S
2026-04-08 09:35:00,METAR KBCT 080935Z AUTO 06012G18KT 10SM SCT036 BKN070 OVC075 22/20 A2990 RMK AO2
2026-04-08 09:15:00,METAR KBCT 080915Z AUTO 06008G17KT 10SM SCT013 BKN050 OVC070 22/20 A2990 RMK AO2
2026-04-08 08:55:00,METAR KBCT 080855Z AUTO 06011G18KT 10SM BKN050 BKN060 OVC070 22/20 A2989 RMK AO2
2026-04-08 08:35:00,METAR KBCT 080835Z AUTO 06008G18KT 10SM SCT011 SCT022 OVC075 21/20 A2989 RMK AO2
2026-04-08 08:15:00,METAR KBCT 080815Z AUTO 06010G15KT 9SM -DZ SCT009 BKN021 OVC070 21/20 A2989 RMK AO2
2026-04-08 07:55:00,METAR KBCT 080755Z AUTO 06010G17KT 7SM -DZ BR SCT009 BKN014 OVC021 21/21 A2989 RMK AO2 P0007
2026-04-08 07:35:00,METAR KBCT 080735Z AUTO 06010G14KT 030V090 2SM -RA BR FEW003 BKN009 OVC014 21/21 A2989 RMK AO2
2026-04-08 07:15:00,METAR KBCT 080715Z AUTO 06010G16KT 1 1/2SM -RA BR BKN007 BKN013 OVC023 21/20 A2989 RMK AO2 VIS 1V2 1/2
2026-04-08 06:55:00,METAR KBCT 080655Z AUTO 04009G15KT 2SM VCTS RA BR BKN004 OVC007 21/21 A2989 RMK AO2 LTG DSNT E P0042 VIS 1 1/4V2 1/2
2026-04-08 06:35:00,METAR KBCT 080635Z AUTO 03011G16KT 3/4SM +RA BR OVC004 21/21 A2989 RMK AO2
2026-04-08 06:15:00,METAR KBCT 080615Z AUTO 04009KT 2 1/2SM RA BR BKN004 OVC016 21/21 A2990 RMK AO2 VIS 1 1/2V4
2026-04-08 05:55:00,METAR KBCT 080555Z AUTO 01007KT 340V050 1/2SM +RA FG OVC004 21/21 A2990 RMK AO2 P0079 10226 20215
2026-04-08 05:35:00,METAR KBCT 080535Z AUTO 36013KT 3SM -DZ BR FEW006 BKN016 OVC021 22/21 A2990 RMK AO2
2026-04-08 05:15:00,METAR KBCT 080515Z AUTO 01003KT 10SM -DZ BKN019 BKN028 OVC045 22/21 A2991 RMK AO2
2026-04-08 04:55:00,METAR KBCT 080455Z AUTO 04004KT 7SM -RA BR BKN019 BKN034 OVC045 22/21 A2991 RMK AO2 P0002
2026-04-08 04:35:00,METAR KBCT 080435Z AUTO 05005KT 10SM SCT019 BKN024 OVC100 23/20 A2991 RMK AO2
2026-04-08 04:15:00,METAR KBCT 080415Z AUTO 05005KT 10SM SCT019 BKN026 BKN032 23/20 A2991 RMK AO2
2026-04-08 03:55:00,METAR KBCT 080355Z AUTO 05006KT 10SM BKN019 BKN031 OVC100 23/20 A2991 RMK AO2 402610203
2026-04-08 03:35:00,METAR KBCT 080335Z AUTO 03004KT 10SM BKN021 BKN026 OVC100 22/21 A2991 RMK AO2
2026-04-08 03:15:00,METAR KBCT 080315Z AUTO 35004KT 10SM SCT014 BKN022 BKN029 22/21 A2991 RMK AO2 LTG DSNT NE
2026-04-08 01:51:00,METAR KBCT 080151Z 36004KT 10SM SCT017 22/20 A2989
2026-04-08 00:50:00,METAR KBCT 080050Z 01008KT 5SM SCT022 SCT045 22/21 A2988
2026-04-07 23:52:00,METAR KBCT 072352Z 35006KT 2SM +RA BKN004 OVC017 22/21 A2988
2026-04-07 22:53:00,METAR KBCT 072253Z 04007KT 10SM BKN090 24/20 A2985
2026-04-07 22:00:00,METAR KBCT 072200Z 03009KT 10SM SCT018 24/21 A2985
2026-04-07 20:52:00,METAR KBCT 072052Z 05009KT 020V080 10SM SCT017 SCT022 BKN027 24/21 A2984 RMK LTG DSNT SE AND SW
2026-04-07 19:52:00,METAR KBCT 071952Z 06011KT 10SM SCT038 25/21 A2984 RMK LTG DSNT NE AND SW
2026-04-07 18:53:00,METAR KBCT 071853Z 04012KT 10SM SCT034 24/21 A2985 RMK LTG DSNT NE AND E.
2026-04-07 17:53:00,METAR KBCT 071753Z 03007G15KT 10SM SCT022 25/21 A2987 RMK LTG DSNT NE AND E.
2026-04-07 16:53:00,METAR KBCT 071653Z 02008KT 10SM SCT015 BKN025 25/21 A2988
2026-04-07 15:53:00,METAR KBCT 071553Z 36008KT 10SM BKN012 24/21 A2989
2026-04-07 15:12:00,SPECI KBCT 071512Z 36007KT 10SM VCTS SCT007 BKN012 23/21 A2989
2026-04-07 14:53:00,METAR KBCT 071453Z 02007KT 10SM VCTS SCT100 23/21 A2989
2026-04-07 13:53:00,METAR KBCT 071353Z 36010KT 6SM VCTS -DZ BKN026 21/20 A2990
2026-04-07 12:53:00,METAR KBCT 071253Z 36012G18KT 4SM -VCTS DZ BKN012 21/20 A2989
2026-04-07 11:25:00,SPECI KBCT 071125Z 36008KT 2SM VCTS RA BR BKN008 21/20 A2987
2026-04-07 10:53:00,METAR KBCT 071053Z 34010KT 3SM VCTS RA BR SCT012 21/20 A2986
2026-04-07 10:15:00,METAR KBCT 071015Z AUTO 29006KT 1SM +TSRA BR BKN005 BKN010 OVC020 23/22 A2987 RMK AO2 LTG DSNT NE AND SW VIS 1/2V5
2026-04-07 09:55:00,METAR KBCT 070955Z AUTO 33005KT 10SM VCTS SCT020 BKN032 OVC075 24/21 A2986 RMK AO2 LTG DSNT NE
2026-04-07 09:35:00,METAR KBCT 070935Z AUTO VRB01KT 10SM VCTS DZ SCT022 BKN070 OVC095 24/21 A2985 RMK AO2 LTG DSNT N AND NE AND S
2026-04-07 09:15:00,METAR KBCT 070915Z AUTO 19007KT 10SM VCTS SCT029 SCT041 OVC070 24/21 A2985 RMK AO2 LTG DSNT NE AND S AND SW
2026-04-07 08:55:00,METAR KBCT 070855Z AUTO 16005KT 10SM VCTS SCT055 OVC070 24/21 A2985 RMK AO2 LTG DSNT NE AND S AND SW
2026-04-07 08:35:00,METAR KBCT 070835Z AUTO 14009KT 10SM SCT032 BKN050 OVC070 24/21 A2985 RMK AO2 LTG DSNT NE AND S
2026-04-07 08:15:00,METAR KBCT 070815Z AUTO VRB05KT 10SM SCT017 SCT026 OVC070 24/22 A2986 RMK AO2 LTG DSNT S AND SW
2026-04-07 07:55:00,METAR KBCT 070755Z AUTO 12006KT 10SM FEW019 BKN050 OVC070 24/21 A2986 RMK AO2
2026-04-07 07:35:00,METAR KBCT 070735Z AUTO 11007KT 10SM SCT018 SCT023 BKN050 24/21 A2987 RMK AO2
2026-04-07 07:15:00,METAR KBCT 070715Z AUTO 12005KT 10SM SCT038 SCT045 BKN050 24/21 A2988 RMK AO2
2026-04-07 06:55:00,METAR KBCT 070655Z AUTO 12007KT 10SM SCT038 BKN050 OVC080 23/21 A2989 RMK AO2 P0016
2026-04-07 06:35:00,METAR KBCT 070635Z AUTO 12005KT 10SM -RA SCT021 BKN041 OVC080 23/21 A2989 RMK AO2
2026-04-07 06:15:00,METAR KBCT 070615Z AUTO VRB06G19KT 1SM +RA BR BKN005 BKN018 OVC031 23/20 A2990 RMK AO2 VIS 3/4V5
2026-04-07 05:55:00,METAR KBCT 070555Z AUTO 13006KT 10SM SCT065 BKN070 BKN100 23/21 A2990 RMK AO2 10252 20227
2026-04-07 05:35:00,METAR KBCT 070535Z AUTO 14010G15KT 4SM -RA BR SCT021 BKN048 BKN060 23/21 A2992 RMK AO2 LTG DSNT N
2026-04-07 05:15:00,METAR KBCT 070515Z AUTO 11009KT 10SM SCT020 SCT031 BKN050 25/21 A2992 RMK AO2 LTG DSNT N
2026-04-07 04:55:00,METAR KBCT 070455Z AUTO 09006KT 10SM SCT020 SCT026 BKN065 24/20 A2992 RMK AO2 LTG DSNT N
2026-04-07 04:35:00,METAR KBCT 070435Z AUTO 12007KT 10SM SCT020 BKN026 BKN038 25/21 A2993 RMK AO2 LTG DSNT N
2026-04-07 04:15:00,METAR KBCT 070415Z AUTO 11005KT 10SM SCT029 SCT035 SCT085 25/21 A2993 RMK AO2
2026-04-07 03:55:00,METAR KBCT 070355Z AUTO 10006KT 10SM FEW018 SCT075 BKN085 25/21 A2995 RMK AO2 402820234
2026-04-07 03:35:00,METAR KBCT 070335Z AUTO 07006KT 10SM FEW020 FEW026 SCT085 25/21 A2995 RMK AO2
2026-04-07 03:15:00,METAR KBCT 070315Z AUTO 10008KT 10SM SCT022 SCT027 SCT032 25/21 A2995 RMK AO2 LTG DSNT W
2026-04-07 02:53:00,METAR KBCT 070253Z 09008KT 10SM SCT018 25/21 A2995
2026-04-07 01:53:00,METAR KBCT 070153Z 10010G15KT 10SM SCT018 BKN025 25/21 A2995
2026-04-07 00:53:00,METAR KBCT 070053Z 12006KT 10SM SCT020 BKN035 25/21 A2993
2026-04-06 23:53:00,METAR KBCT 062353Z 12006KT 10SM SCT020 25/21 A2992
2026-04-06 22:53:00,METAR KBCT 062253Z 12012G16KT 10SM SCT025 26/21 A2992
2026-04-06 21:53:00,METAR KBCT 062153Z 12012G16KT 10SM SCT020 26/21 A2990
2026-04-06 20:53:00,METAR KBCT 062053Z 12012G16KT 10SM SCT030 27/21 A2991
2026-04-06 19:53:00,METAR KBCT 061953Z 12011G15KT 10SM FEW055 27/21 A2993
2026-04-06 18:53:00,METAR KBCT 061853Z 11012G15KT 10SM SCT023 28/21 A2996
2026-04-06 17:53:00,METAR KBCT 061753Z 12010G15KT 10SM SCT023 27/21 A2999
2026-04-06 16:53:00,METAR KBCT 061653Z 14010G15KT 10SM SCT023 27/21 A3000
2026-04-06 15:53:00,METAR KBCT 061553Z VRB06KT 10SM BKN021 27/21 A3001
2026-04-06 14:53:00,METAR KBCT 061453Z 12010KT 10SM SCT022 26/21 A3001
2026-04-06 13:53:00,METAR KBCT 061353Z 09007KT 10SM BKN021 27/21 A3001
2026-04-06 12:53:00,METAR KBCT 061253Z 13005KT 10SM SCT021 SCT028 BKN044 26/21 A3000
2026-04-06 11:53:00,METAR KBCT 061153Z 13006KT 10SM SCT020 SCT024 24/21 A3000
2026-04-06 10:53:00,METAR KBCT 061053Z 12004KT 10SM FEW018 24/21 A2999
2026-04-06 02:53:00,METAR KBCT 060253Z 13005KT 10SM FEW020 25/21 A3008
2026-04-06 01:53:00,METAR KBCT 060153Z 12006KT 10SM FEW020 25/21 A3007
2026-04-06 00:53:00,METAR KBCT 060053Z 12007KT 10SM BKN024 25/21 A3004
2026-04-05 23:53:00,METAR KBCT 052353Z 12010KT 10SM BKN023 25/20 A3003
2026-04-05 22:53:00,METAR KBCT 052253Z 11010G15KT 10SM SCT020 25/21 A3003
2026-04-05 21:53:00,METAR KBCT 052153Z 13011G16KT 10SM SCT020 27/21 A3003
2026-04-05 20:53:00,METAR KBCT 052053Z 11012G17KT 10SM SCT022 27/21 A3003
2026-04-05 19:53:00,METAR KBCT 051953Z 14012G18KT 10SM SCT021 27/21 A3004
2026-04-05 18:53:00,METAR KBCT 051853Z 12010G19KT 10SM SCT021 SCT027 28/21 A3006
2026-04-05 17:53:00,METAR KBCT 051753Z 10012G18KT 10SM FEW021 SCT028 BKN035 27/21 A3009
2026-04-05 16:53:00,METAR KBCT 051653Z 10013KT 10SM SCT027 SCT034 BKN049 27/21 A3011
2026-04-05 15:53:00,METAR KBCT 051553Z 10013G18KT 10SM SCT023 BKN035 27/21 A3012
2026-04-05 14:53:00,METAR KBCT 051453Z 09012G17KT 10SM SCT020 SCT025 BKN035 26/21 A3012
2026-04-05 12:53:00,METAR KBCT 051253Z 11009KT 10SM SCT021 25/21 A3011
2026-04-05 11:53:00,METAR KBCT 051153Z 11009KT 10SM FEW020 FEW035 SCT042 24/20 A3011
2026-04-05 11:00:00,METAR KBCT 051100Z 10010KT 10SM FEW022 SCT027 SCT033 24/20 A3009
2026-04-05 02:53:00,METAR KBCT 050253Z 11011G17KT 10SM SCT022 25/21 A3015
2026-04-05 01:53:00,METAR KBCT 050153Z 13011G20KT 10SM SCT022 25/21 A3014
2026-04-05 00:53:00,METAR KBCT 050053Z 12008G15KT 10SM SCT020 25/21 A3013
2026-04-04 23:53:00,METAR KBCT 042353Z 11012KT 10SM SCT023 SCT029 25/20 A3011
2026-04-04 22:53:00,METAR KBCT 042253Z 09010KT 10SM SCT021 BKN030 26/21 A3012
2026-04-04 21:53:00,METAR KBCT 042153Z 11010G15KT 10SM SCT021 26/20 A3012
2026-04-04 20:53:00,METAR KBCT 042053Z 09012G18KT 090V150 10SM SCT023 27/21 A3014
2026-04-04 19:53:00,METAR KBCT 041953Z 08010G17KT 090V150 10SM SCT023 27/21 A3014
2026-04-04 18:52:00,METAR KBCT 041852Z 10012G19KT 10SM SCT025 SCT031 27/20 A3015
2026-04-04 17:52:00,METAR KBCT 041752Z 10013G18KT 10SM SCT028 SCT033 27/19 A3018
2026-04-04 16:53:00,METAR KBCT 041653Z 10011G19KT 060V130 10SM SCT028 27/19 A3019
2026-04-04 15:53:00,METAR KBCT 041553Z 09014G20KT 10SM SCT029 26/19 A3020
2026-04-04 14:53:00,METAR KBCT 041453Z 10012G21KT 10SM SCT029 26/18 A3020
2026-04-04 13:53:00,METAR KBCT 041353Z 08010G18KT 10SM SCT027 26/19 A3019
2026-04-04 13:00:00,METAR KBCT 041300Z 11012G17KT 10SM CLR 25/19 A3017
2026-04-04 11:53:00,METAR KBCT 041153Z 10007KT 10SM FEW020 SCT029 BKN036 23/21 A3016
2026-04-04 10:59:00,METAR KBCT 041059Z 12010G15KT 10SM SCT035 BKN045 23/20 A3016
2026-04-04 02:53:00,METAR KBCT 040253Z 12014G20KT 10SM FEW034 25/17 A3021
2026-04-04 01:53:00,METAR KBCT 040153Z 12011G18KT 10SM SCT025 SCT030 25/20 A3020
2026-04-04 00:53:00,METAR KBCT 040053Z 11014G17KT 10SM SCT023 SCT028 BKN036 25/20 A3017
2026-04-03 22:53:00,METAR KBCT 032253Z 11010G18KT 10SM FEW025 SCT031 26/20 A3017
2026-04-03 21:53:00,METAR KBCT 032153Z 11012G16KT 10SM SCT024 27/20 A3017 RMK LTG DSNT N
2026-04-03 20:53:00,METAR KBCT 032053Z 10012G16KT 10SM SCT024 SCT030 27/20 A3018
2026-04-03 19:53:00,METAR KBCT 031953Z 12012G20KT 10SM BKN024 BKN033 28/21 A3018
2026-04-03 18:53:00,METAR KBCT 031853Z 10015G20KT 10SM FEW024 BKN033 28/21 A3020 RMK LTG DSNT N CB DSNT N MOV NW
2026-04-03 17:52:00,METAR KBCT 031752Z 12013G21KT 10SM FEW023 FEW031 SCT038 28/21 A3020
2026-04-03 16:49:00,METAR KBCT 031649Z 11014G21KT 10SM SCT021 SCT034 28/22 A3022
2026-04-03 15:55:00,METAR KBCT 031555Z 11014G23KT 10SM SCT022 28/21 A3022
2026-04-03 14:55:00,METAR KBCT 031455Z 10013G20KT 10SM SCT029 26/21 A3020
2026-04-03 13:55:00,METAR KBCT 031355Z 10013G19KT 10SM SCT029 SCT035 26/21 A3020
2026-04-03 12:53:00,METAR KBCT 031253Z 10010G18KT 10SM SCT025 25/20 A3019
2026-04-03 11:53:00,METAR KBCT 031153Z 10010G18KT 10SM SCT030 24/17 A3017
2026-04-03 02:53:00,METAR KBCT 030253Z 12010G18KT 10SM SCT025 BKN031 OVC050 25/20 A3018
2026-04-03 01:53:00,METAR KBCT 030153Z 12009G17KT 10SM SCT021 BKN026 BKN031 25/21 A3018
2026-04-03 00:53:00,METAR KBCT 030053Z 13011G18KT 10SM BKN023 BKN032 25/20 A3016 RMK LTG N SW S
2026-04-02 23:53:00,METAR KBCT 022353Z 10011G16KT 10SM SCT021 SCT026 BKN036 25/21 A3012 RMK LTG DSNT S
2026-04-02 22:53:00,METAR KBCT 022253Z 10011KT 10SM FEW019 SCT029 OVC050 25/21 A3011
2026-04-02 21:53:00,METAR KBCT 022153Z 12010KT 10SM FEW021 BKN030 26/21 A3011
2026-04-02 20:53:00,METAR KBCT 022053Z 12013G20KT 10SM SCT024 BKN031 26/21 A3012 RMK LTG DSNT N
2026-04-02 19:53:00,METAR KBCT 021953Z 12014G17KT 10SM BKN027 27/21 A3013
2026-04-02 18:53:00,METAR KBCT 021853Z 13011G17KT 10SM BKN024 27/21 A3014 RMK LTG DSNT N AND NW
2026-04-02 17:52:00,METAR KBCT 021752Z 12015G20KT 10SM SCT024 BKN033 27/21 A3016
2026-04-02 16:52:00,METAR KBCT 021652Z 12015G20KT 10SM SCT026 SCT042 27/22 A3016
2026-04-02 15:49:00,METAR KBCT 021549Z 13014G20KT 10SM SCT021 SCT033 27/21 A3017
2026-04-02 14:54:00,METAR KBCT 021454Z 12005G15KT 10SM BKN018 BKN022 OVC029 24/22 A3017 RMK LTG DSNT NE AND S
2026-04-02 13:53:00,METAR KBCT 021353Z 13010KT 10SM SCT030 24/21 A3015
2026-04-02 12:53:00,METAR KBCT 021253Z 13010G17KT 10SM SCT024 24/21 A3013
2026-04-02 11:53:00,METAR KBCT 021153Z 07006KT 10SM SCT015 BKN027 22/21 A3010
2026-04-02 10:53:00,METAR KBCT 021053Z 07006KT 10SM SCT015 BKN027 22/21 A3010
2026-04-02 02:53:00,METAR KBCT 020253Z 10012G16KT 10SM SCT033 BKN039 24/18 A3014
2026-04-02 01:53:00,METAR KBCT 020153Z COR 07008G16 KT 040V110 10SM BKN031 23/19 A3015
2026-04-02 00:53:00,METAR KBCT 020053Z 07009KT 10SM SCT048 24/18 A3013
2026-04-01 23:53:00,METAR KBCT 012353Z 07010KT 10SM SCT080 24/19 A3012
2026-04-01 22:53:00,METAR KBCT 012253Z 08011G15KT 10SM BKN080 24/18 A3013
2026-04-01 21:53:00,METAR KBCT 012153Z 07005KT 9SM BKN050 23/20 A3013
2026-04-01 20:52:00,METAR KBCT 012052Z 09014G18KT 10SM SCT037 SCT044 24/18 A3014
2026-04-01 19:53:00,METAR KBCT 011953Z 10011KT 10SM SCT029 BKN038 26/18 A3016
2026-04-01 18:47:00,METAR KBCT 011847Z 11009G18KT 080V140 10SM BKN080 26/18 A3018
2026-04-01 17:49:00,METAR KBCT 011749Z 14014G18KT 10SM CLR 26/18 A3019
2026-04-01 16:49:00,METAR KBCT 011649Z 14014G18KT 10SM CLR 26/18 A3020
2026-04-01 15:53:00,METAR KBCT 011553Z 14012G17KT 10SM SCT036 25/19 A3022
2026-04-01 14:53:00,METAR KBCT 011453Z 10010G15KT 090V150 10SM SCT031 26/18 A3021
2026-04-01 13:53:00,METAR KBCT 011353Z 09010G15KT 10SM SCT032 26/17 A3019
2026-04-01 12:53:00,METAR KBCT 011253Z 11010G15KT 10SM SCT030 25/18 A3018
2026-04-01 11:53:00,METAR KBCT 011153Z 10010KT 10SM SCT030 24/17 A3016
2026-04-01 11:39:00,METAR KBCT 011139Z AUTO 11007KT 10SM BKN030 BKN043 BKN055 23/17 A3015 RMK AO2
2026-04-01 11:36:00,METAR KBCT 011136Z AUTO 10008KT 10SM BKN030 BKN043 BKN055 23/17 A3015 RMK AO2
2026-04-01 11:16:00,METAR KBCT 011116Z AUTO 10006KT 10SM SCT030 BKN036 BKN055 23/17 A3014 RMK AO2
2026-04-01 10:56:00,METAR KBCT 011056Z AUTO 09007KT 10SM FEW028 FEW036 SCT055 23/17 A3014 RMK AO2
2026-04-01 10:53:00,METAR KBCT 011053Z 10008G15KT 10SM SCT028 SCT036 23/17 A3013
2026-04-01 10:36:00,METAR KBCT 011036Z AUTO 10009KT 10SM FEW028 SCT036 BKN055 23/17 A3013 RMK AO2
2026-04-01 10:16:00,METAR KBCT 011016Z AUTO 10010KT 10SM SCT029 SCT036 BKN055 23/18 A3012 RMK AO2
2026-04-01 09:56:00,METAR KBCT 010956Z AUTO 11007KT 10SM SCT031 BKN036 BKN042 23/17 A3013 RMK AO2
2026-04-01 09:36:00,METAR KBCT 010936Z AUTO 10007KT 10SM CLR 23/17 A3012 RMK AO2
2026-04-01 09:16:00,METAR KBCT 010916Z AUTO 11007KT 10SM FEW031 23/17 A3012 RMK AO2
2026-04-01 08:56:00,METAR KBCT 010856Z AUTO 12007KT 10SM FEW031 23/17 A3012 RMK AO2
2026-04-01 08:36:00,METAR KBCT 010836Z AUTO 10007KT 10SM SCT060 23/16 A3013 RMK AO2
2026-04-01 08:16:00,METAR KBCT 010816Z AUTO 10007KT 10SM BKN050 23/17 A3013 RMK AO2
2026-04-01 07:56:00,METAR KBCT 010756Z AUTO 10007KT 10SM OVC050 23/17 A3013 RMK AO2
2026-04-01 07:36:00,METAR KBCT 010736Z AUTO 10008KT 070V130 10SM FEW034 FEW044 OVC049 23/17 A3014 RMK AO2
2026-04-01 07:16:00,METAR KBCT 010716Z AUTO 09008KT 10SM SCT035 BKN044 OVC049 23/17 A3014 RMK AO2
2026-04-01 06:56:00,METAR KBCT 010656Z AUTO 09010G15KT 10SM SCT037 BKN044 23/17 A3014 RMK AO2
2026-04-01 06:36:00,METAR KBCT 010636Z AUTO 10011KT 10SM FEW032 BKN046 23/17 A3015 RMK AO2
2026-04-01 06:16:00,METAR KBCT 010616Z AUTO 09008KT 10SM SCT032 SCT039 BKN046 24/17 A3015 RMK AO2
2026-04-01 05:56:00,METAR KBCT 010556Z AUTO 10011KT 10SM SCT032 SCT045 SCT060 24/17 A3016 RMK AO2
2026-04-01 05:36:00,METAR KBCT 010536Z AUTO 09009KT 10SM SCT032 SCT047 24/17 A3017 RMK AO2
2026-04-01 05:16:00,METAR KBCT 010516Z AUTO 09007G14KT 050V110 10SM FEW034 FEW040 SCT047 24/17 A3018 RMK AO2
2026-04-01 04:56:00,METAR KBCT 010456Z AUTO 09008KT 10SM SCT033 24/17 A3018 RMK AO2
2026-04-01 04:36:00,METAR KBCT 010436Z AUTO 09008KT 10SM SCT033 24/17 A3019 RMK AO2
2026-04-01 04:16:00,METAR KBCT 010416Z AUTO 10008KT 10SM FEW033 24/17 A3019 RMK AO2
2026-04-01 01:52:00,METAR KBCT 010152Z 12006KT 10SM FEW033 FEW048 24/17 A3019
2026-04-01 00:48:00,METAR KBCT 010048Z 10010KT 10SM FEW030 SCT035 24/18 A3018
2026-03-31 23:50:00,METAR KBCT 312350Z 09007KT 10SM CLR 24/17 A3017
2026-03-31 22:52:00,METAR KBCT 312252Z 08009KT 10SM SCT028 SCT038 24/18 A3017
2026-03-31 21:53:00,METAR KBCT 312153Z 10009KT 10SM SCT030 SCT038 25/17 A3017
2026-03-31 20:53:00,METAR KBCT 312053Z 08010KT 10SM FEW030 FEW046 SCT050 26/18 A3018
2026-03-31 19:54:00,METAR KBCT 311954Z 07010G15KT 10SM SCT050 26/18 A3020
2026-03-31 19:52:00,METAR KBCT 311952Z 07010G15KT 10SM CLR 26/18 A3020
2026-03-31 18:53:00,METAR KBCT 311853Z 09011G17KT 10SM SCT028 26/18 A3024
2026-03-31 17:53:00,METAR KBCT 311753Z 09011G17KT 10SM SCT028 26/18 A3024
2026-03-31 16:53:00,METAR KBCT 311653Z 12012G20KT 10SM SCT026 26/18 A3026
2026-03-31 15:53:00,METAR KBCT 311553Z 12012G18KT 10SM SCT025 26/19 A3027
2026-03-31 14:53:00,METAR KBCT 311453Z 11012G18KT 10SM SCT038 26/19 A3027
2026-03-31 13:53:00,METAR KBCT 311353Z 09010G18KT 10SM SCT025 BKN040 24/19 A3026
2026-03-31 12:53:00,METAR KBCT 311253Z 10012G18KT 10SM FEW050 24/19 A3025
2026-03-31 11:53:00,METAR KBCT 311153Z 11012G16KT 10SM SCT026 23/18 A3023
2026-03-31 11:38:00,METAR KBCT 311138Z AUTO 10007KT 10SM FEW029 BKN070 23/18 A3024 RMK AO2
2026-03-31 11:35:00,METAR KBCT 311135Z AUTO 09008KT 10SM FEW029 BKN070 23/18 A3023 RMK AO2
2026-03-31 11:15:00,METAR KBCT 311115Z AUTO 08008G17KT 10SM FEW027 FEW060 SCT070 23/18 A3023 RMK AO2
2026-03-31 10:54:00,METAR KBCT 311054Z AUTO 09009G16KT 10SM FEW026 SCT060 SCT070 23/18 A3023 RMK AO2
2026-03-31 10:53:00,METAR KBCT 311053Z 10010G16KT 10SM SCT026 23/18 A3023
2026-03-31 10:35:00,METAR KBCT 311035Z AUTO 09009G15KT 10SM FEW026 23/18 A3022 RMK AO2
2026-03-31 10:15:00,METAR KBCT 311015Z AUTO 09010KT 10SM FEW028 SCT033 SCT060 23/18 A3022 RMK AO2
2026-03-31 09:55:00,METAR KBCT 310955Z AUTO 09010G15KT 10SM FEW025 SCT033 23/18 A3021 RMK AO2
2026-03-31 09:35:00,METAR KBCT 310935Z AUTO 10011KT 10SM FEW025 23/18 A3020 RMK AO2
2026-03-31 09:14:00,METAR KBCT 310914Z AUTO 10010KT 10SM FEW055 23/18 A3020 RMK AO2
2026-03-31 08:55:00,METAR KBCT 310855Z AUTO 11008KT 10SM FEW027 SCT046 BKN055 23/18 A3020 RMK AO2
2026-03-31 08:35:00,METAR KBCT 310835Z AUTO 09010G16KT 10SM FEW025 BKN040 23/18 A3020 RMK AO2
2026-03-31 08:14:00,METAR KBCT 310814Z AUTO 10009KT 10SM FEW027 SCT035 BKN045 23/18 A3019 RMK AO2
2026-03-31 07:55:00,METAR KBCT 310755Z AUTO 10011KT 10SM SCT027 SCT032 23/18 A3019 RMK AO2
2026-03-31 07:34:00,METAR KBCT 310734Z AUTO 10009G14KT 10SM FEW027 23/18 A3020 RMK AO2
2026-03-31 07:15:00,METAR KBCT 310715Z AUTO 11008KT 10SM SCT027 BKN036 23/18 A3020 RMK AO2
2026-03-31 06:55:00,METAR KBCT 310655Z AUTO 10009G15KT 10SM SCT027 BKN036 BKN043 23/19 A3021 RMK AO2
2026-03-31 06:35:00,METAR KBCT 310635Z AUTO 11013G19KT 10SM SCT027 SCT036 BKN070 23/19 A3021 RMK AO2
2026-03-31 06:15:00,METAR KBCT 310615Z AUTO 10009G16KT 10SM SCT024 BKN031 OVC070 23/19 A3022 RMK AO2
2026-03-31 05:55:00,METAR KBCT 310555Z AUTO 12009G15KT 10SM -RA SCT023 BKN028 OVC065 24/19 A3022 RMK AO2 10242 20230
2026-03-31 05:35:00,METAR KBCT 310535Z AUTO 10012G22KT 10SM SCT025 BKN035 OVC065 24/19 A3023 RMK AO2
2026-03-31 05:15:00,METAR KBCT 310515Z AUTO 11009G18KT 10SM SCT023 BKN028 OVC037 23/20 A3024 RMK AO2
2026-03-31 04:55:00,METAR KBCT 310455Z AUTO 11009KT 4SM -RA HZ BKN025 BKN032 OVC060 23/20 A3024 RMK AO2
2026-03-31 04:35:00,METAR KBCT 310435Z AUTO 09012G17KT 10SM SCT025 BKN034 BKN075 24/19 A3024 RMK AO2
2026-03-31 04:15:00,METAR KBCT 310415Z AUTO 10011G16KT 10SM FEW025 FEW032 FEW050 24/19 A3024 RMK AO2
2026-03-31 02:53:00,METAR KBCT 310253Z 11010KT 10SM SCT035 24/19 A3025
2026-03-31 01:53:00,METAR KBCT 310153Z 11010KT 10SM SCT035 24/19 A3025
2026-03-31 00:53:00,METAR KBCT 310053Z 11010KT 10SM SCT030 24/20 A3023
2026-03-30 23:53:00,METAR KBCT 302353Z 09010G18KT 10SM SCT030 24/20 A3022
2026-03-30 22:53:00,METAR KBCT 302253Z 09010G18KT 10SM SCT030 24/20 A3022
2026-03-30 21:53:00,METAR KBCT 302153Z 10011G21KT 10SM -RA HZ SCT032 BKN048 23/21 A3022
2026-03-30 20:53:00,METAR KBCT 302053Z 10011G21KT 6SM -RA HZ SCT032 25/20 A3022
2026-03-30 19:53:00,METAR KBCT 301953Z 09014G22KT 10SM SCT021 25/20 A3023
2026-03-30 18:53:00,METAR KBCT 301853Z 08014G22KT 10SM SCT025 26/20 A3024
2026-03-30 17:53:00,METAR KBCT 301753Z 09012G23KT 10SM FEW021 26/20 A3025
2026-03-30 16:53:00,METAR KBCT 301653Z 09014G23KT 10SM FEW021 SCT041 26/20 A3027
2026-03-30 15:53:00,METAR KBCT 301553Z 09015G25KT 10SM SCT026 25/20 A3028
2026-03-30 14:53:00,METAR KBCT 301453Z 10014G24KT 10SM SCT030 25/19 A3028
2026-03-30 13:53:00,METAR KBCT 301353Z 09009G22KT 10SM -RA HZ SCT025 BKN035 OVC041 22/19 A3027
2026-03-30 11:53:00,METAR KBCT 301153Z 09014G22KT 10SM SCT028 BKN035 23/17 A3024
2026-03-30 11:38:00,METAR KBCT 301138Z AUTO 09011G21KT 10SM SCT028 OVC035 23/18 A3024 RMK AO2
2026-03-30 11:35:00,METAR KBCT 301135Z AUTO 09014G21KT 10SM SCT028 OVC035 23/18 A3024 RMK AO2
2026-03-30 11:15:00,METAR KBCT 301115Z AUTO 08013G19KT 10SM FEW023 FEW029 BKN035 23/18 A3023 RMK AO2
2026-03-30 10:55:00,METAR KBCT 301055Z AUTO 09015G22KT 10SM SCT029 BKN037 BKN050 23/19 A3022 RMK AO2
2026-03-30 10:53:00,METAR KBCT 301053Z 09014G22KT 10SM SCT024 BKN037 23/18 A3022
2026-03-30 10:35:00,METAR KBCT 301035Z AUTO 09014G19KT 10SM BKN037 BKN044 BKN050 22/18 A3021 RMK AO2
2026-03-30 10:15:00,METAR KBCT 301015Z AUTO 10011G22KT 10SM FEW020 FEW026 OVC037 23/18 A3021 RMK AO2
2026-03-30 09:55:00,METAR KBCT 300955Z AUTO 09015G23KT 10SM FEW024 FEW032 OVC042 23/19 A3021 RMK AO2
2026-03-30 09:35:00,METAR KBCT 300935Z AUTO 08012G21KT 10SM FEW027 FEW033 OVC040 23/18 A3020 RMK AO2
2026-03-30 09:16:00,METAR KBCT 300916Z AUTO 08014KT 10SM FEW025 FEW033 OVC040 23/18 A3020 RMK AO2
2026-03-30 08:55:00,METAR KBCT 300855Z AUTO 08014G25KT 10SM FEW024 SCT029 OVC038 23/18 A3020 RMK AO2
2026-03-30 08:35:00,METAR KBCT 300835Z AUTO 08018G23KT 10SM SCT024 BKN033 OVC040 23/18 A3020 RMK AO2
2026-03-30 08:16:00,METAR KBCT 300816Z AUTO 08014G24KT 10SM SCT035 BKN041 OVC050 23/18 A3019 RMK AO2
2026-03-30 07:55:00,METAR KBCT 300755Z AUTO 08013G17KT 10SM SCT031 BKN039 OVC050 23/19 A3019 RMK AO2
2026-03-30 07:35:00,METAR KBCT 300735Z AUTO 09010G20KT 10SM FEW020 SCT028 OVC037 22/19 A3021 RMK AO2
2026-03-30 07:15:00,METAR KBCT 300715Z AUTO 10012G22KT 10SM SCT026 OVC035 22/19 A3021 RMK AO2
2026-03-30 06:55:00,METAR KBCT 300655Z AUTO 10016G23KT 10SM FEW024 OVC035 23/18 A3021 RMK AO2
2026-03-30 06:36:00,METAR KBCT 300636Z AUTO 09013G22KT 10SM FEW023 BKN034 OVC041 22/19 A3022 RMK AO2
2026-03-30 06:15:00,METAR KBCT 300615Z AUTO 08017G23KT 10SM BKN034 BKN040 BKN050 23/19 A3022 RMK AO2
2026-03-30 05:55:00,METAR KBCT 300555Z AUTO 08017G22KT 10SM SCT020 BKN039 OVC055 23/19 A3022 RMK AO2 10232 20218
2026-03-30 05:35:00,METAR KBCT 300535Z AUTO 08014G20KT 10SM BKN021 BKN030 OVC047 23/19 A3023 RMK AO2
2026-03-30 05:16:00,METAR KBCT 300516Z AUTO 07015G18KT 10SM BKN020 BKN032 OVC045 23/20 A3024 RMK AO2
2026-03-30 04:55:00,METAR KBCT 300455Z AUTO 08013G25KT 6SM -RA HZ SCT020 BKN028 OVC043 22/19 A3025 RMK AO2
2026-03-30 04:35:00,METAR KBCT 300435Z AUTO 08014G23KT 10SM SCT028 BKN035 OVC047 23/19 A3025 RMK AO2
2026-03-30 04:15:00,METAR KBCT 300415Z AUTO 08017G22KT 10SM SCT033 BKN049 OVC070 23/19 A3025 RMK AO2
2026-03-30 02:53:00,METAR KBCT 300253Z 07012G22KT 10SM SCT018 BKN033 23/20 A3025
2026-03-30 01:53:00,METAR KBCT 300153Z 08012G22KT 10SM -RA FEW003 BKN043 22/20 A3025
2026-03-30 00:53:00,METAR KBCT 300053Z 09015G20KT 7SM -RA BKN037 23/19 A3024
2026-03-29 23:53:00,METAR KBCT 292353Z 09012G23KT 7SM -DZ BR BKN027 22/20 A3023
2026-03-29 22:53:00,METAR KBCT 292253Z 08015G25KT 10SM SCT024 23/19 A3022
2026-03-29 20:53:00,SPECI KBCT 292053Z 08006KT 10SM SCT015 BKN020 BKN045 21/20 A3023
2026-03-29 20:00:00,SPECI KBCT 292000Z 12018G24KT 2SM SCT008 BKN024 OVC046 21/19 A3023
2026-03-29 19:53:00,METAR KBCT 291953Z 12018G24KT 10SM SCT026 BKN033 BKN046 24/20 A3023
2026-03-29 18:53:00,METAR KBCT 291853Z 08018G24KT 10SM SCT026 BKN033 BKN046 24/20 A3023
2026-03-29 17:54:00,METAR KBCT 291754Z 08011G25KT 10SM -RA BR SCT008 BKN020 OVC024 22/21 A3024
2026-03-29 16:54:00,METAR KBCT 291654Z 08008G19KT 10SM -DZ SCT006 BKN017 BKN029 21/20 A3027
2026-03-29 15:54:00,METAR KBCT 291554Z 09009G18KT 7SM RA BR FEW006 BKN021 BKN050 22/20 A3028
2026-03-29 15:53:00,SPECI KBCT 291553Z 09009G18KT 7SM RA BR FEW006 BKN021 BKN050 22/20 A3028
2026-03-29 15:28:00,SPECI KBCT 291528Z 09009G18KT 6SM RA BR BKN006 BKN021 OVC050 21/20 A3029
2026-03-29 14:54:00,METAR KBCT 291454Z 09013G19KT 10SM RA BR BKN010 BKN021 OVC029 21/20 A3028
2026-03-29 13:53:00,METAR KBCT 291353Z 05008G16KT 10SM FEW015 BKN035 BKN050 22/19 A3026
2026-03-29 12:53:00,METAR KBCT 291253Z 08006KT 10SM SCT015 BKN033 OVC040 22/19 A3024
2026-03-29 11:53:00,METAR KBCT 291153Z 05013G23KT 8SM SCT010 BKN024 OVC050 21/20 A3021 RMK VIS SW 3
2026-03-29 11:39:00,METAR KBCT 291139Z AUTO 03011G16KT 9SM -DZ SCT024 BKN055 OVC070 21/19 A3021 RMK AO2
2026-03-29 11:36:00,METAR KBCT 291136Z AUTO 03009G16KT 10SM -DZ SCT024 BKN055 OVC070 21/19 A3020 RMK AO2
2026-03-29 11:15:00,METAR KBCT 291115Z AUTO 04008KT 10SM FEW028 BKN055 OVC065 21/19 A3020 RMK AO2
2026-03-29 11:00:00,METAR KBCT 291100Z 04005KT 10SM BKN065 20/19 A3019
2026-03-29 10:55:00,METAR KBCT 291055Z AUTO 04005KT 10SM BKN065 BKN075 OVC110 20/19 A3019 RMK AO2 P0002
2026-03-29 10:53:00,METAR KBCT 291053Z 04005KT 10SM BKN065 20/19 A3019
2026-03-29 10:35:00,METAR KBCT 291035Z AUTO 04005KT 8SM -DZ SCT037 BKN050 BKN065 20/19 A3018 RMK AO2
2026-03-29 10:16:00,METAR KBCT 291016Z AUTO 03007KT 6SM -RA BR BKN027 BKN038 OVC060 20/19 A3018 RMK AO2
2026-03-29 09:54:00,METAR KBCT 290954Z AUTO 04004KT 9SM -DZ BKN026 BKN040 BKN120 21/19 A3017 RMK AO2
2026-03-29 09:36:00,METAR KBCT 290936Z AUTO VRB05G16KT 3SM -DZ BR SCT011 SCT019 BKN040 21/20 A3017 RMK AO2
2026-03-29 09:15:00,METAR KBCT 290915Z AUTO 04007KT 10SM -DZ FEW032 BKN042 OVC065 21/18 A3016 RMK AO2
2026-03-29 08:56:00,METAR KBCT 290856Z AUTO 05013G18KT 7SM -DZ HZ FEW029 SCT037 OVC065 22/19 A3016 RMK AO2
2026-03-29 08:34:00,METAR KBCT 290834Z AUTO 06007KT 10SM BKN065 OVC075 22/18 A3016 RMK AO2
2026-03-29 08:15:00,METAR KBCT 290815Z AUTO 07009KT 10SM FEW050 OVC075 22/19 A3015 RMK AO2
2026-03-29 07:55:00,METAR KBCT 290755Z AUTO 07009G14KT 10SM -RA SCT070 BKN080 OVC085 22/19 A3016 RMK AO2
2026-03-29 07:36:00,METAR KBCT 290736Z AUTO 07009G17KT 8SM -DZ SCT049 BKN070 OVC110 22/20 A3016 RMK AO2
2026-03-29 07:15:00,METAR KBCT 290715Z AUTO 07012G20KT 9SM -RA SCT050 BKN070 OVC080 24/20 A3016 RMK AO2
2026-03-29 06:56:00,METAR KBCT 290656Z AUTO 08009KT 10SM FEW023 SCT033 OVC050 23/19 A3016 RMK AO2 LTG DSNT NW
2026-03-29 06:35:00,METAR KBCT 290635Z AUTO 08011G19KT 10SM VCTS SCT017 BKN024 OVC031 24/20 A3016 RMK AO2 LTG DSNT N AND NW
2026-03-29 06:16:00,METAR KBCT 290616Z AUTO 07010G15KT 10SM VCTS FEW015 SCT024 BKN032 24/21 A3016 RMK AO2 LTG DSNT NW
2026-03-29 05:55:00,METAR KBCT 290555Z AUTO 09008G15KT 10SM CLR 24/20 A3016 RMK AO2 10249 20241
2026-03-29 05:35:00,METAR KBCT 290535Z AUTO 09008KT 10SM FEW023 FEW028 24/20 A3016 RMK AO2
2026-03-29 05:15:00,METAR KBCT 290515Z AUTO 10009KT 10SM SCT023 SCT036 SCT065 24/20 A3017 RMK AO2
2026-03-29 04:56:00,METAR KBCT 290456Z AUTO 09006KT 10SM SCT023 BKN029 BKN036 24/20 A3017 RMK AO2
2026-03-29 04:36:00,METAR KBCT 290436Z AUTO 08009KT 10SM FEW022 24/20 A3017 RMK AO2
2026-03-29 04:16:00,METAR KBCT 290416Z AUTO 08007KT 10SM FEW022 FEW032 24/20 A3017 RMK AO2 LTG DSNT N
2026-03-29 02:53:00,METAR KBCT 290253Z 09009KT 10SM FEW021 25/20 A3016
2026-03-29 01:53:00,METAR KBCT 290153Z 09009KT 10SM SCT023 25/20 A3015
2026-03-29 00:53:00,METAR KBCT 290053Z 09007KT 10SM BKN031 25/20 A3014
2026-03-28 23:53:00,METAR KBCT 282353Z VRB05KT 10SM FEW023 25/20 A3013
2026-03-28 22:53:00,METAR KBCT 282253Z 07010KT 10SM FEW023 25/20 A3012
2026-03-28 21:53:00,METAR KBCT 282153Z 12011G15KT 10SM FEW025 26/20 A3010
2026-03-28 20:53:00,METAR KBCT 282053Z 10011G15KT 10SM CLR 27/20 A3010
2026-03-28 19:53:00,METAR KBCT 281953Z 11011G15KT 10SM CLR 27/20 A3011
2026-03-28 18:53:00,METAR KBCT 281853Z 11010KT 10SM FEW040 27/19 A3013
2026-03-28 17:53:00,METAR KBCT 281753Z 09009G16KT 10SM FEW040 28/19 A3015
2026-03-28 16:53:00,METAR KBCT 281653Z 11006KT 10SM FEW030 SCT040 28/18 A3016
2026-03-28 15:53:00,METAR KBCT 281553Z 08007KT 10SM FEW037 SCT048 28/18 A3017
2026-03-28 14:53:00,METAR KBCT 281453Z 00000KT 10SM FEW027 26/19 A3017
2026-03-28 13:53:00,METAR KBCT 281353Z 33003KT 10SM FEW040 26/20 A3016
2026-03-28 12:47:00,METAR KBCT 281247Z 29003KT 10SM CLR 23/19 A3015
2026-03-28 11:53:00,METAR KBCT 281153Z 31003KT 10SM CLR 20/19 A3014
2026-03-28 11:38:00,METAR KBCT 281138Z AUTO 30002KT 10SM CLR 20/19 A3013 RMK AO2
2026-03-28 11:35:00,METAR KBCT 281135Z AUTO VRB02KT 10SM CLR 20/19 A3013 RMK AO2
2026-03-28 11:16:00,METAR KBCT 281116Z AUTO 31003KT 10SM CLR 20/19 A3012 RMK AO2
2026-03-28 10:59:00,METAR KBCT 281059Z 00000KT 10SM CLR 20/19 A3012
2026-03-28 10:55:00,METAR KBCT 281055Z AUTO VRB03KT 10SM CLR 20/19 A3012 RMK AO2
2026-03-28 10:35:00,METAR KBCT 281035Z AUTO 30003KT 10SM FEW025 20/19 A3011 RMK AO2
2026-03-28 10:15:00,METAR KBCT 281015Z AUTO 30002KT 10SM FEW035 21/19 A3010 RMK AO2
2026-03-28 09:56:00,METAR KBCT 280956Z AUTO 31003KT 10SM BKN028 BKN035 21/19 A3010 RMK AO2
2026-03-28 09:35:00,METAR KBCT 280935Z AUTO 32006KT 10SM OVC028 21/19 A3010 RMK AO2
2026-03-28 09:15:00,METAR KBCT 280915Z AUTO 32004KT 10SM BKN026 BKN030 20/20 A3009 RMK AO2
2026-03-28 08:55:00,METAR KBCT 280855Z AUTO 28003KT 10SM SCT026 20/19 A3008 RMK AO2
2026-03-28 08:36:00,METAR KBCT 280836Z AUTO VRB01KT 10SM BKN026 20/19 A3008 RMK AO2
2026-03-28 08:15:00,METAR KBCT 280815Z AUTO 31003KT 10SM CLR 20/19 A3009 RMK AO2
2026-03-28 07:55:00,METAR KBCT 280755Z AUTO 27001KT 10SM CLR 20/18 A3008 RMK AO2
2026-03-28 07:35:00,METAR KBCT 280735Z AUTO 23002KT 10SM SCT024 20/19 A3009 RMK AO2
2026-03-28 07:16:00,METAR KBCT 280716Z AUTO 25003KT 10SM SCT024 20/19 A3010 RMK AO2
2026-03-28 06:55:00,METAR KBCT 280655Z AUTO 25002KT 10SM CLR 19/18 A3010 RMK AO2
2026-03-28 06:35:00,METAR KBCT 280635Z AUTO 30001KT 10SM CLR 20/18 A3010 RMK AO2
2026-03-28 06:15:00,METAR KBCT 280615Z AUTO 29001KT 10SM CLR 20/18 A3010 RMK AO2
2026-03-28 05:55:00,METAR KBCT 280555Z AUTO 00000KT 10SM CLR 20/18 A3011 RMK AO2 10244 20199
2026-03-28 05:35:00,METAR KBCT 280535Z AUTO 00000KT 10SM CLR 21/18 A3011 RMK AO2
2026-03-28 05:15:00,METAR KBCT 280515Z AUTO 12002KT 10SM CLR 20/18 A3012 RMK AO2
2026-03-28 04:55:00,METAR KBCT 280455Z AUTO 00000KT 10SM CLR 21/18 A3012 RMK AO2
2026-03-28 04:36:00,METAR KBCT 280436Z AUTO VRB01KT 10SM CLR 21/18 A3012 RMK AO2
2026-03-28 04:15:00,METAR KBCT 280415Z AUTO 00000KT 10SM CLR 22/18 A3013 RMK AO2
2026-03-28 01:53:00,METAR KBCT 280153Z 10006KT 10SM SCT023 24/19 A3012
2026-03-27 23:53:00,METAR KBCT 272353Z 15008KT 10SM SCT023 24/20 A3008
2026-03-27 22:53:00,METAR KBCT 272253Z 15008KT 10SM SCT023 25/19 A3006
2026-03-27 21:53:00,METAR KBCT 272153Z 12008KT 10SM SCT023 26/20 A3006
2026-03-27 20:53:00,METAR KBCT 272053Z 11011KT 10SM SCT023 27/20 A3006
2026-03-27 19:53:00,METAR KBCT 271953Z 11010G14KT 10SM SCT023 27/20 A3007
2026-03-27 18:53:00,METAR KBCT 271853Z 10011G16KT 10SM SCT023 27/20 A3010
2026-03-27 17:53:00,METAR KBCT 271753Z 11011G14KT 10SM SCT023 SCT033 27/20 A3012
2026-03-27 16:53:00,METAR KBCT 271653Z 09010G15KT 10SM SCT023 27/20 A3013
2026-03-27 15:53:00,METAR KBCT 271553Z 13010G15KT 10SM SCT025 27/20 A3014
2026-03-25 14:53:00,METAR KBCT 251453Z 13007KT 10SM CLR 26/15 A3014
2026-03-25 13:53:00,METAR KBCT 251353Z VFB03KT 10SM CLR 24/15 A3013
2026-03-25 12:53:00,METAR KBCT 251253Z 00000KT 10SM CLR 20/17 A3012
2026-03-25 11:53:00,METAR KBCT 251153Z VRB03KT 10SM CLR 17/16 A3010
2026-03-25 11:39:00,METAR KBCT 251139Z AUTO 24002KT 10SM CLR 16/15 A3009 RMK AO2 LTG DSNT NE
2026-03-25 11:36:00,METAR KBCT 251136Z AUTO 26002KT 10SM CLR 16/15 A3009 RMK AO2 LTG DSNT NE
2026-03-25 11:16:00,METAR KBCT 251116Z AUTO 24002KT 10SM SCT050 17/16 A3009 RMK AO2 LTG DSNT N AND NE
2026-03-25 10:56:00,METAR KBCT 251056Z AUTO 22003KT 10SM OVC050 16/15 A3008 RMK AO2 LTG DSNT NE
2026-03-25 10:53:00,METAR KBCT 251053Z 00000KT 10SM OVC050 16/15 A3008
2026-03-25 10:36:00,METAR KBCT 251036Z AUTO 17002KT 10SM OVC050 16/15 A3007 RMK AO2 LTG DSNT N AND NE
2026-03-25 10:16:00,METAR KBCT 251016Z AUTO 21002KT 10SM OVC050 16/15 A3007 RMK AO2 LTG DSNT N AND NE
2026-03-25 09:56:00,METAR KBCT 250956Z AUTO 19001KT 10SM OVC050 16/15 A3007 RMK AO2 LTG DSNT N
2026-03-25 09:36:00,METAR KBCT 250936Z AUTO 25002KT 10SM OVC050 16/15 A3006 RMK AO2
2026-03-25 09:16:00,METAR KBCT 250916Z AUTO VRB02KT 10SM BKN050 16/14 A3006 RMK AO2 LTG DSNT N AND NE AND SW
2026-03-25 08:56:00,METAR KBCT 250856Z AUTO 28002KT 10SM BKN050 16/14 A3006 RMK AO2
2026-03-25 08:36:00,METAR KBCT 250836Z AUTO 25003KT 10SM BKN050 17/14 A3006 RMK AO2
2026-03-25 08:16:00,METAR KBCT 250816Z AUTO 25004KT 10SM SCT050 17/14 A3006 RMK AO2
2026-03-25 07:56:00,METAR KBCT 250756Z AUTO 26002KT 10SM SCT050 17/14 A3006 RMK AO2
2026-03-25 07:36:00,METAR KBCT 250736Z AUTO 24002KT 10SM SCT050 17/14 A3006 RMK AO2
2026-03-25 07:16:00,METAR KBCT 250716Z AUTO 23003KT 10SM SCT046 18/14 A3006 RMK AO2 LTG DSNT N
2026-03-25 06:56:00,METAR KBCT 250656Z AUTO 23002KT 10SM BKN044 18/14 A3007 RMK AO2 LTG DSNT N
2026-03-25 06:36:00,METAR KBCT 250636Z AUTO 22004KT 10SM BKN044 BKN065 18/14 A3007 RMK AO2
2026-03-25 06:16:00,METAR KBCT 250616Z AUTO 21005KT 10SM SCT046 SCT065 18/14 A3008 RMK AO2 LTG DSNT N
2026-03-25 05:56:00,METAR KBCT 250556Z AUTO 24003KT 10SM FEW050 19/14 A3009 RMK AO2
2026-03-25 05:36:00,METAR KBCT 250536Z AUTO 27004KT 10SM FEW013 SCT050 20/14 A3010 RMK AO2
2026-03-25 05:16:00,METAR KBCT 250516Z AUTO 25003KT 10SM FEW013 SCT040 BKN050 20/14 A3009 RMK AO2 LTG DSNT N
2026-03-25 04:56:00,METAR KBCT 250456Z AUTO 24004KT 10SM FEW040 SCT060 20/15 A3009 RMK AO2
2026-03-25 04:36:00,METAR KBCT 250436Z AUTO 25005KT 10SM SCT060 21/14 A3010 RMK AO2 LTG DSNT N
2026-03-25 04:16:00,METAR KBCT 250416Z AUTO 27006KT 10SM SCT060 22/14 A3010 RMK AO2 LTG DSNT N
2026-03-25 01:51:00,METAR KBCT 250151Z VRB05KT 10SM CLR 22/15 A3007
2026-03-25 00:50:00,METAR KBCT 250050Z 00000KT 10SM CLR 24/15 A3006
2026-03-24 23:47:00,METAR KBCT 242347Z 14006KT 10SM CLR 24/14 A3006
2026-03-24 22:50:00,METAR KBCT 242250Z 14008KT 10SM CLR 26/13 A3005
2026-03-24 21:53:00,METAR KBCT 242153Z 11009KT 10SM CLR 27/14 A3004
2026-03-24 20:53:00,METAR KBCT 242053Z 11010KT 10SM CLR 27/15 A3004
2026-03-24 19:53:00,METAR KBCT 241953Z 13010KT 10SM CLR 27/15 A3004
2026-03-24 18:53:00,METAR KBCT 241853Z 13010KT 10SM CLR 27/15 A3005
2026-03-24 17:53:00,METAR KBCT 241753Z 09010KT 10SM CLR 27/15 A3008
2026-03-24 16:53:00,METAR KBCT 241653Z VRB06KT 10SM CLR 26/11 A3010
2026-03-24 15:53:00,METAR KBCT 241553Z 34008KT 10SM CLR 26/12 A3011
2026-03-24 14:53:00,METAR KBCT 241453Z 35005KT 10SM CLR 24/14 A3011
2026-03-24 13:53:00,METAR KBCT 241353Z 34008KT 10SM CLR 22/16 A3011
2026-03-24 12:53:00,METAR KBCT 241253Z 34005KT 10SM CLR 20/16 A3010
2026-03-24 11:53:00,METAR KBCT 241153Z 33004KT 10SM CLR 17/15 A3009
2026-03-24 10:53:00,METAR KBCT 241053Z 32004KT 10SM CLR 16/15 A3008
2026-03-24 02:53:00,METAR KBCT 240253Z 14005KT 10SM CLR 22/16 A3008
2026-03-24 01:53:00,METAR KBCT 240153Z 14005KT 10SM CLR 22/15 A3009
2026-03-24 00:53:00,METAR KBCT 240053Z 14005KT 10SM CLR 23/15 A3007
2026-03-23 23:53:00,METAR KBCT 232353Z 14008KT 10SM CLR 24/14 A3006
2026-03-23 22:53:00,METAR KBCT 232253Z 14008KT 10SM CLR 25/13 A3005
2026-03-23 21:53:00,METAR KBCT 232153Z 14008KT 10SM CLR 25/13 A3004
2026-03-23 20:53:00,METAR KBCT 232053Z 13010KT 10SM CLR 26/13 A3005
2026-03-23 19:53:00,METAR KBCT 231953Z 14008KT 10SM CLR 26/13 A3006
2026-03-23 18:53:00,METAR KBCT 231853Z 09007KT 10SM CLR 27/13 A3008
2026-03-23 17:53:00,METAR KBCT 231753Z 10008KT 10SM CLR 26/11 A3009
2026-03-23 16:53:00,METAR KBCT 231653Z VRB04KT 10SM CLR 25/11 A3013
2026-03-23 15:53:00,METAR KBCT 231553Z 00000KT 10SM CLR 25/11 A3014
2026-03-23 14:53:00,METAR KBCT 231453Z 35005KT 10SM CLR 23/10 A3013
2026-03-23 12:53:00,METAR KBCT 231253Z 00000KT 10SM CLR 15/13 A3009
2026-03-23 11:53:00,METAR KBCT 231153Z 00000KT 10SM CLR 14/12 A3008
2026-03-23 02:53:00,METAR KBCT 230253Z VRB04KT 10SM CLR 21/17 A3012
2026-03-23 01:53:00,METAR KBCT 230153Z 13006KT 10SM CLR 22/16 A3010
2026-03-23 00:53:00,METAR KBCT 230053Z 14008KT 10SM CLR 23/16 A3008
2026-03-22 23:53:00,METAR KBCT 222353Z 13010KT 10SM CLR 23/15 A3008
2026-03-22 18:53:00,METAR KBCT 221853Z 13007KT 10SM CLR 26/15 A3009
2026-03-22 17:52:00,METAR KBCT 221752Z 14008KT 10SM CLR 26/15 A3010
2026-03-22 16:52:00,METAR KBCT 221652Z 00000KT 10SM CLR 25/12 A3013
2026-03-22 14:53:00,METAR KBCT 221453Z VRB06KT 10SM CLR 24/15 A3014
2026-03-22 13:53:00,METAR KBCT 221353Z 34006KT 10SM CLR 23/14 A3013
2026-03-22 12:55:00,METAR KBCT 221255Z 31004KT 10SM CLR 20/13 A3013
2026-03-22 11:53:00,METAR KBCT 221153Z 31003KT 10SM CLR 16/14 A3011
2026-03-22 02:53:00,METAR KBCT 220253Z VRB03KT 10SM CLR 17/15 A3008
2026-03-22 01:53:00,METAR KBCT 220153Z VRB03KT 10SM CLR 18/15 A3008
2026-03-22 00:53:00,METAR KBCT 220053Z 05002KT 10SM CLR 21/14 A3007
2026-03-21 23:53:00,METAR KBCT 212353Z 06003KT 10SM CLR 22/15 A3006
2026-03-21 22:52:00,METAR KBCT 212252Z 05007KT 10SM FEW040 24/14 A3005
2026-03-21 21:52:00,METAR KBCT 212152Z 06008KT 10SM FEW045 24/15 A3004
2026-03-21 20:52:00,METAR KBCT 212052Z 08008KT 10SM FEW045 25/14 A3004
2026-03-21 19:52:00,METAR KBCT 211952Z 08011G16KT 10SM FEW045 25/14 A3005
2026-03-21 18:52:00,METAR KBCT 211852Z 06009KT 10SM SCT040 25/15 A3007
2026-03-21 17:52:00,METAR KBCT 211752Z 07010G17KT 10SM SCT040 25/16 A3009
2026-03-21 16:52:00,METAR KBCT 211652Z 06011G16KT 10SM FEW043 25/15 A3011
2026-03-21 15:54:00,METAR KBCT 211554Z 07009G14KT 040V110 10SM BKN045 25/14 A3011
2026-03-21 14:53:00,METAR KBCT 211453Z VRB04KT 10SM FEW035 23/16 A3011
2026-03-21 13:53:00,METAR KBCT 211353Z 33006KT 10SM CLR 22/16 A3010
2026-03-21 12:53:00,METAR KBCT 211253Z 34006KT 10SM FEW045 19/16 A3009
2026-03-21 11:53:00,METAR KBCT 211153Z 34004KT 10SM FEW045 16/15 A3007
2026-03-21 10:58:00,METAR KBCT 211058Z 34004KT 10SM FEW040 16/15 A3006
2026-03-21 02:53:00,METAR KBCT 210253Z 03007KT 10SM SCT045 21/12 A3007
2026-03-21 01:53:00,METAR KBCT 210153Z 04008KT 10SM SCT042 21/13 A3006
2026-03-21 00:53:00,METAR KBCT 210053Z 03009KT 10SM SCT045 22/13 A3004
2026-03-20 23:53:00,METAR KBCT 202353Z 03009KT 10SM SCT045 22/13 A3004
2026-03-20 22:53:00,METAR KBCT 202253Z 02013G22KT 10SM SCT045 23/12 A3003
2026-03-20 21:53:00,METAR KBCT 202153Z 05013G20KT 10SM SCT046 24/13 A3002
2026-03-20 20:53:00,METAR KBCT 202053Z 04012KT 10SM FEW042 SCT050 23/13 A3002
2026-03-20 19:52:00,METAR KBCT 201952Z 04019G25KT 10SM SCT049 24/13 A3002
2026-03-20 18:50:00,METAR KBCT 201850Z 03017G26KT 10SM SCT055 24/14 A3004
2026-03-20 17:52:00,METAR KBCT 201752Z 05014G22KT 10SM SCT035 SCT045 24/16 A3006
2026-03-20 16:49:00,METAR KBCT 201649Z 06012G18KT 10SM SCT034 SCT044 23/16 A3008
2026-03-20 15:53:00,METAR KBCT 201553Z 05011G18KT 10SM SCT034 BKN050 23/16 A3008
2026-03-20 14:53:00,METAR KBCT 201453Z 05011G18KT 10SM SCT022 BKN032 21/16 A3009
2026-03-20 13:53:00,METAR KBCT 201353Z VRB03KT 10SM VCTS DZ SCT037 18/17 A3007
2026-03-20 12:53:00,METAR KBCT 201253Z 34006KT 10SM SCT030 16/15 A3007
2026-03-20 11:53:00,METAR KBCT 201153Z 34006KT 10SM SCT033 16/15 A3006
2026-03-20 10:53:00,METAR KBCT 201053Z 34006KT 10SM SCT027 BKN045 16/15 A3004
2026-03-20 10:35:00,METAR KBCT 201035Z AUTO 33004KT 10SM SCT047 BKN065 16/15 A3004 RMK AO2
2026-03-20 10:15:00,METAR KBCT 201015Z AUTO 31004KT 10SM FEW039 SCT050 OVC060 16/15 A3004 RMK AO2
2026-03-20 09:55:00,METAR KBCT 200955Z AUTO 31005KT 10SM SCT020 SCT026 BKN037 16/15 A3003 RMK AO2 P0001
2026-03-20 09:35:00,METAR KBCT 200935Z AUTO 32004KT 10SM FEW025 SCT030 SCT045 16/15 A3002 RMK AO2
2026-03-20 09:15:00,METAR KBCT 200915Z AUTO 34004KT 10SM SCT030 SCT037 BKN045 16/15 A3002 RMK AO2
2026-03-20 08:55:00,METAR KBCT 200855Z AUTO 34002KT 10SM SCT035 16/15 A3001 RMK AO2
2026-03-20 08:35:00,METAR KBCT 200835Z AUTO 32005KT 10SM FEW033 16/15 A3001 RMK AO2
2026-03-20 08:15:00,METAR KBCT 200815Z AUTO 31007KT 10SM SCT038 SCT046 SCT050 16/15 A3001 RMK AO2
2026-03-20 07:55:00,METAR KBCT 200755Z AUTO 30007KT 10SM SCT029 BKN038 OVC065 16/16 A3002 RMK AO2 P0003
2026-03-20 07:35:00,METAR KBCT 200735Z AUTO VRB03KT 9SM -DZ SCT034 BKN043 BKN060 17/16 A3003 RMK AO2
2026-03-20 07:15:00,METAR KBCT 200715Z AUTO 32008KT 7SM FEW005 SCT027 OVC034 18/16 A3003 RMK AO2
2026-03-20 06:55:00,METAR KBCT 200655Z AUTO 29008KT 3/4SM +RA BR BKN004 OVC028 17/16 A3003 RMK AO2 P0009 VIS 1/2V5
2026-03-20 06:35:00,METAR KBCT 200635Z AUTO 25003KT 10SM SCT019 BKN037 OVC055 17/16 A3004 RMK AO2
2026-03-20 06:15:00,METAR KBCT 200615Z AUTO 29005KT 10SM SCT022 BKN036 OVC050 17/16 A3005 RMK AO2
2026-03-20 05:55:00,METAR KBCT 200555Z AUTO 29006KT 10SM BKN035 BKN045 OVC055 18/16 A3005 RMK AO2 P0003 10213 20176
2026-03-20 05:35:00,METAR KBCT 200535Z AUTO 35007KT 310V030 10SM -DZ BKN035 BKN045 OVC070 18/17 A3005 RMK AO2
2026-03-20 05:15:00,METAR KBCT 200515Z AUTO 01013G19KT 5SM -RA HZ SCT039 BKN050 BKN070 19/16 A3005 RMK AO2
2026-03-20 04:55:00,METAR KBCT 200455Z AUTO 05014G21KT 2 1/2SM -DZ HZ SCT024 BKN048 OVC065 19/17 A3006 RMK AO2 P0004
2026-03-20 04:35:00,METAR KBCT 200435Z AUTO 03010G24KT 2 1/2SM -DZ HZ SCT026 BKN040 OVC100 19/16 A3006 RMK AO2 VIS 1 1/4V5
2026-03-20 04:15:00,METAR KBCT 200415Z AUTO 03012G20KT 10SM SCT035 SCT044 BKN095 21/15 A3006 RMK AO2
2026-03-20 03:55:00,METAR KBCT 200355Z AUTO 03009KT 10SM SCT034 BKN070 OVC090 19/16 A3006 RMK AO2 402420164
2026-03-20 03:35:00,METAR KBCT 200335Z AUTO 01009G14KT 10SM SCT027 BKN035 BKN046 18/15 A3007 RMK AO2
2026-03-20 03:15:00,METAR KBCT 200315Z AUTO 32007KT 10SM BKN029 BKN036 OVC060 18/16 A3007 RMK AO2
2026-03-20 02:55:00,METAR KBCT 200255Z AUTO 33007KT 10SM BKN031 BKN036 OVC070 18/16 A3006 RMK AO2
2026-03-20 02:53:00,METAR KBCT 200253Z 34006KT 10SM BKN031 BKN038 18/16 A3006
2026-03-20 02:35:00,METAR KBCT 200235Z AUTO 33007KT 10SM SCT031 BKN038 BKN046 18/16 A3006 RMK AO2
2026-03-20 02:15:00,METAR KBCT 200215Z AUTO 34009KT 10SM SCT031 BKN046 BKN060 18/16 A3006 RMK AO2
2026-03-20 01:55:00,METAR KBCT 200155Z AUTO 33008KT 10SM SCT042 BKN055 BKN070 18/16 A3006 RMK AO2
2026-03-20 01:53:00,METAR KBCT 200153Z 34008KT 10SM BKN031 18/16 A3006
2026-03-20 01:35:00,METAR KBCT 200135Z AUTO 35007KT 10SM FEW041 SCT065 SCT080 18/16 A3006 RMK AO2
2026-03-20 01:15:00,METAR KBCT 200115Z AUTO 35009KT 8SM -RA SCT038 SCT048 BKN075 18/16 A3005 RMK AO2
2026-03-20 00:55:00,METAR KBCT 200055Z AUTO 35009KT 10SM FEW060 19/15 A3005 RMK AO2
2026-03-20 00:53:00,METAR KBCT 200053Z 35007KT 10SM SCT060 19/15 A3005
2026-03-20 00:35:00,METAR KBCT 200035Z AUTO 34007KT 10SM FEW080 19/15 A3005 RMK AO2
2026-03-20 00:15:00,METAR KBCT 200015Z AUTO 34009KT 10SM BKN080 19/15 A3004 RMK AO2
2026-03-19 23:53:00,METAR KBCT 192353Z COR 01010G17KT 10SM SCT026 SCT038 21/16 A3003
2026-03-19 22:53:00,METAR KBCT 192253Z 36010G17KT 10SM BKN026 BKN038 21/16 A3003
2026-03-19 21:53:00,METAR KBCT 192153Z 36010G17KT 10SM FEW030 BKN044 23/15 A3001
2026-03-19 20:53:00,METAR KBCT 192053Z 01012G15KT 10SM SCT037 BKN048 21/16 A3001
2026-03-19 19:53:00,METAR KBCT 191953Z 02014G21KT 10SM SCT022 BKN040 22/16 A3002
2026-03-19 18:53:00,METAR KBCT 191853Z 04013G19KT 10SM BKN039 BKN047 23/14 A3003
2026-03-19 17:53:00,METAR KBCT 191753Z 04015G25KT 10SM SCT043 23/13 A3005
2026-03-19 16:53:00,METAR KBCT 191653Z 04015G25KT 10SM SCT043 23/13 A3007
2026-03-19 15:51:00,METAR KBCT 191551Z 04015G22KT 10SM CLR 23/13 A3007
2026-03-19 14:54:00,METAR KBCT 191454Z 03015G20KT 10SM CLR 23/12 A3007
2026-03-19 13:52:00,METAR KBCT 191352Z 01007KT 10SM CLR 20/14 A3007
2026-03-19 12:48:00,METAR KBCT 191248Z 35006KT 10SM CLR 17/14 A3006
2026-03-19 11:52:00,METAR KBCT 191152Z 33007KT 10SM FEW035 17/14 A3005
2026-03-19 11:38:00,METAR KBCT 191138Z AUTO 33007KT 10SM OVC080 17/14 A3005 RMK AO2
2026-03-19 11:35:00,METAR KBCT 191135Z AUTO 34006KT 10SM OVC080 17/14 A3005 RMK AO2
2026-03-19 11:15:00,METAR KBCT 191115Z AUTO 35005KT 10SM OVC080 17/14 A3005 RMK AO2
2026-03-19 10:55:00,METAR KBCT 191055Z AUTO 35006KT 10SM SCT060 OVC080 17/14 A3005 RMK AO2
2026-03-19 10:53:00,METAR KBCT 191053Z 36006KT 10SM SCT040 17/14 A3004
2026-03-19 10:35:00,METAR KBCT 191035Z AUTO 33007KT 10SM SCT060 OVC070 17/14 A3004 RMK AO2
2026-03-19 10:15:00,METAR KBCT 191015Z AUTO 34007KT 10SM FEW043 BKN060 OVC070 17/15 A3004 RMK AO2
2026-03-19 09:55:00,METAR KBCT 190955Z AUTO 34007KT 10SM SCT037 SCT042 OVC060 17/15 A3003 RMK AO2
2026-03-19 09:35:00,METAR KBCT 190935Z AUTO 32008KT 10SM OVC037 17/15 A3003 RMK AO2
2026-03-19 09:15:00,METAR KBCT 190915Z AUTO 33007KT 10SM OVC035 18/16 A3003 RMK AO2
2026-03-19 08:55:00,METAR KBCT 190855Z AUTO 30008G18KT 10SM BKN035 OVC045 19/16 A3002 RMK AO2
2026-03-19 08:35:00,METAR KBCT 190835Z AUTO 02010G14KT 10SM BKN035 OVC045 20/15 A3002 RMK AO2
2026-03-19 08:15:00,METAR KBCT 190815Z AUTO 02009G18KT 10SM BKN033 OVC039 21/15 A3002 RMK AO2
2026-03-19 07:55:00,METAR KBCT 190755Z AUTO 04009G18KT 10SM SCT034 OVC040 20/15 A3002 RMK AO2
2026-03-19 07:35:00,METAR KBCT 190735Z AUTO 03012G17KT 10SM OVC039 20/15 A3003 RMK AO2
2026-03-19 07:15:00,METAR KBCT 190715Z AUTO 03010G17KT 10SM OVC039 20/15 A3004 RMK AO2
2026-03-19 06:55:00,METAR KBCT 190655Z AUTO 03012G16KT 10SM FEW024 OVC037 20/15 A3004 RMK AO2
2026-03-19 06:35:00,METAR KBCT 190635Z AUTO 03010G18KT 10SM FEW025 OVC033 20/16 A3005 RMK AO2
2026-03-19 06:15:00,METAR KBCT 190615Z AUTO 02011G17KT 10SM FEW023 FEW029 OVC035 20/16 A3006 RMK AO2
2026-03-19 05:55:00,METAR KBCT 190555Z AUTO 03010KT 10SM FEW024 OVC033 20/16 A3006 RMK AO2 10199 20186
2026-03-19 05:35:00,METAR KBCT 190535Z AUTO 04009G18KT 10SM SCT024 OVC033 20/16 A3006 RMK AO2
2026-03-19 05:15:00,METAR KBCT 190515Z AUTO 03012G17KT 10SM OVC030 20/16 A3007 RMK AO2
2026-03-19 04:55:00,METAR KBCT 190455Z AUTO 03014KT 10SM OVC030 20/16 A3007 RMK AO2
2026-03-19 04:35:00,METAR KBCT 190435Z AUTO 02011KT 10SM BKN026 OVC030 19/16 A3008 RMK AO2
2026-03-19 04:15:00,METAR KBCT 190415Z AUTO 02012G16KT 10SM -DZ BKN022 OVC032 19/16 A3008 RMK AO2
2026-03-18 23:53:00,METAR KBCT 182353Z 36006KT 10SM BKN013 BKN015 BKN021 19/18 A3005
2026-03-18 22:51:00,METAR KBCT 182251Z 36008KT 1 3/4SM -DZ BR BKN007 OVC012 18/18 A3004 RMK LTG DSNT E
2026-03-18 21:53:00,METAR KBCT 182153Z 02012G15KT 1 1/2SM -DZ BR BKN006 OVC009 19/18 A3003 RMK VIS 1V2
2026-03-18 21:32:00,SPECI KBCT 182132Z 36010G15KT 10SM -DZ SCT007 BKN009 OVC020 20/18 A3004
2026-03-18 20:49:00,METAR KBCT 182049Z 01010G15KT 10SM -DZ SCT011 BKN023 OVC033 20/18 A3004
2026-03-18 19:53:00,METAR KBCT 181953Z 02009G16KT 6SM -DZ BR BKN008 BKN014 OVC020 19/18 A3004
2026-03-18 19:41:00,SPECI KBCT 181941Z 01011G16KT 2SM -DZ BR BNK005 BKN010 OVC018 19/18 A3005
2026-03-18 18:57:00,METAR KBCT 181857Z 02011G19KT 2SM -DZ OVC010 BKN020 OVC026 19/18 A3006
2026-03-18 17:53:00,METAR KBCT 181753Z 05014G19KT 6SM -DZ BKN012 BKN017 OVC030 20/18 A3009
2026-03-18 16:53:00,METAR KBCT 181653Z 01016G22KT 2SM -DZ HZ OVC020 20/17 A3011
2026-03-18 15:53:00,METAR KBCT 181553Z 06013G19KT 3SM -DZ HZ OVC020 20/17 A3011
2026-03-18 14:53:00,METAR KBCT 181453Z 06013G19KT 10SM OVC022 20/17 A3010
2026-03-18 13:53:00,METAR KBCT 181353Z 36010G18KT 10SM BKN012 BKN020 19/17 A3009
2026-03-18 12:53:00,METAR KBCT 181253Z 36010G20KT 1 1/2SM -DZ BR BKN003 OVC007 18/18 A3008
2026-03-18 11:53:00,METAR KBCT 181153Z 34004KT 1 1/4SM -DZ BR OVC005 17/17 A3006
2026-03-18 11:38:00,METAR KBCT 181138Z AUTO VRB04KT 2SM -DZ BR OVC003 17/17 A3005 RMK AO2
2026-03-18 11:35:00,METAR KBCT 181135Z AUTO 36004KT 2 1/2SM -DZ BR BKN003 OVC010 17/16 A3005 RMK AO2
2026-03-18 11:15:00,METAR KBCT 181115Z AUTO 36007KT 1 3/4SM -DZ BR OVC003 16/16 A3005 RMK AO2 VIS 3/4V2
2026-03-18 10:55:00,METAR KBCT 181055Z AUTO 30007KT 3SM -DZ BR OVC003 16/16 A3005 RMK AO2 P0001
2026-03-18 10:53:00,METAR KBCT 181053Z 33008KT 4SM OVC003 16/16 A3004
2026-03-18 10:35:00,METAR KBCT 181035Z AUTO 33007KT 2 1/2SM -DZ BR OVC003 16/15 A3004 RMK AO2 VIS 1 1/2V4
2026-03-18 10:15:00,METAR KBCT 181015Z AUTO 32008KT 4SM -DZ BR OVC005 15/15 A3003 RMK AO2
2026-03-18 09:55:00,METAR KBCT 180955Z AUTO 32006KT 3SM -DZ BR OVC005 15/15 A3004 RMK AO2 P0001
2026-03-18 09:35:00,METAR KBCT 180935Z AUTO 34005KT 2 1/2SM -DZ BR BKN005 BKN011 OVC017 15/15 A3003 RMK AO2 VIS 2V4
2026-03-18 09:15:00,METAR KBCT 180915Z AUTO 36007KT 6SM BR BKN009 OVC014 15/15 A3003 RMK AO2
2026-03-18 08:55:00,METAR KBCT 180855Z AUTO 33008KT 4SM -DZ BR OVC012 15/14 A3004 RMK AO2 P0001
2026-03-18 08:35:00,METAR KBCT 180835Z AUTO 34009KT 3SM -DZ BR FEW005 BKN010 OVC015 15/14 A3004 RMK AO2
2026-03-18 08:15:00,METAR KBCT 180815Z AUTO 34006KT 2SM -DZ BR SCT005 OVC010 15/14 A3005 RMK AO2 VIS 1 1/4V5
2026-03-18 07:55:00,METAR KBCT 180755Z AUTO 33008G15KT 300V360 10SM OVC012 15/14 A3005 RMK AO2
2026-03-18 07:35:00,METAR KBCT 180735Z AUTO 33010G15KT 5SM -DZ BR OVC012 15/14 A3006 RMK AO2
2026-03-18 07:15:00,METAR KBCT 180715Z AUTO 34010KT 10SM -DZ OVC012 15/13 A3006 RMK AO2
2026-03-18 06:55:00,METAR KBCT 180655Z AUTO 33008KT 10SM BKN012 OVC020 15/13 A3008 RMK AO2
2026-03-18 06:35:00,METAR KBCT 180635Z AUTO 33009KT 10SM BKN014 OVC020 15/13 A3008 RMK AO2
2026-03-18 06:15:00,METAR KBCT 180615Z AUTO 33009G14KT 10SM OVC012 15/13 A3008 RMK AO2
2026-03-18 05:55:00,METAR KBCT 180555Z AUTO 33012G17KT 10SM OVC012 15/13 A3009 RMK AO2 10153 20141
2026-03-18 05:35:00,METAR KBCT 180535Z AUTO 32010G14KT 10SM OVC012 15/13 A3010 RMK AO2 LTG DSNT SE
2026-03-18 05:15:00,METAR KBCT 180515Z AUTO 33009G15KT 10SM OVC010 14/13 A3010 RMK AO2
2026-03-18 04:55:00,METAR KBCT 180455Z AUTO 33008G14KT 10SM OVC010 14/13 A3011 RMK AO2
2026-03-18 04:35:00,METAR KBCT 180435Z AUTO 35010KT 10SM FEW008 BKN012 OVC023 14/13 A3011 RMK AO2
2026-03-18 04:15:00,METAR KBCT 180415Z AUTO 35011G16KT 6SM -DZ BR SCT009 OVC012 14/13 A3011 RMK AO2
2026-03-18 01:52:00,METAR KBCT 180152Z 35012KT 10SM OVC012 15/13 A3011
2026-03-18 00:54:00,METAR KBCT 180054Z 35010G15KT 10SM OVC010 15/12 A3011
2026-03-17 23:54:00,METAR KBCT 172354Z 34008G15KT 10SM OVC010 15/13 A3009
2026-03-17 22:49:00,METAR KBCT 172249Z 36013G19KT 10SM OVC009 16/13 A3007 RMK LTG DSNT S
2026-03-17 22:27:00,METAR KBCT 172227Z 34010KT 10SM OVC009 16/14 A3007
2026-03-17 21:49:00,METAR KBCT 172149Z 34010KT 10SM OVC010 16/14 A3007
2026-03-17 20:56:00,METAR KBCT 172056Z 36008G15KT 10SM OVC016 18/14 A3007
2026-03-17 19:53:00,METAR KBCT 171953Z 36011G15KT 10SM SCT018 SCT035 BKN043 19/14 A3005
2026-03-17 18:53:00,METAR KBCT 171853Z 35011G21KT 10SM OVC018 18/13 A3006
2026-03-17 17:53:00,METAR KBCT 171753Z 35011G21KT 10SM OVC020 19/14 A3008
2026-03-17 16:53:00,METAR KBCT 171653Z 35014G21KT 10SM OVC018 19/14 A3006
2026-03-17 15:53:00,METAR KBCT 171553Z 34012G21KT 10SM OVC023 18/14 A3007
2026-03-17 14:53:00,METAR KBCT 171453Z 35012G17KT 10SM OVC023 18/14 A3007
2026-03-17 13:53:00,METAR KBCT 171353Z 36010G16KT 10SM OVC021 18/15 A3005
2026-03-17 12:53:00,METAR KBCT 171253Z 36006KT 10SM OVC023 18/16 A3005
2026-03-17 12:30:00,SPECI KBCT 171230Z 34007KT 10SM SCT009 BKN016 18/16 A3005 RMK LTG DSNT E.
2026-03-17 12:18:00,SPECI KBCT 171218Z 34007KT 10SM BKN009 19/17 A3002 RMK LTG DSNT E.
2026-03-17 11:53:00,METAR KBCT 171153Z 34007KT 10SM OVC011 19/17 A3002 RMK LTG DSNT E.
2026-03-17 11:38:00,METAR KBCT 171138Z AUTO 33006KT 10SM OVC011 20/18 A3001 RMK AO2
2026-03-17 11:35:00,METAR KBCT 171135Z AUTO 33007KT 10SM OVC011 20/18 A3001 RMK AO2
2026-03-17 11:15:00,METAR KBCT 171115Z AUTO 34004KT 10SM BKN011 OVC120 20/18 A3000 RMK AO2 LTG DSNT NE
2026-03-17 10:55:00,METAR KBCT 171055Z AUTO VRB03KT 10SM BKN011 OVC110 20/19 A3001 RMK AO2
2026-03-17 10:53:00,METAR KBCT 171053Z 33004KT 10SM BKN011 20/19 A3001
2026-03-17 10:35:00,METAR KBCT 171035Z AUTO 31004KT 10SM FEW009 FEW080 BKN110 20/19 A3000 RMK AO2
2026-03-17 10:15:00,METAR KBCT 171015Z AUTO 33004KT 10SM FEW019 SCT090 BKN110 20/19 A3000 RMK AO2
2026-03-17 09:55:00,METAR KBCT 170955Z AUTO 34005KT 10SM -RA SCT024 BKN060 OVC100 20/19 A3000 RMK AO2
2026-03-17 09:35:00,METAR KBCT 170935Z AUTO 30005KT 10SM SCT060 BKN080 OVC110 21/19 A3000 RMK AO2
2026-03-17 09:15:00,METAR KBCT 170915Z AUTO 29005KT 10SM FEW036 BKN090 OVC120 21/19 A3000 RMK AO2 LTG DSNT NE
2026-03-17 08:55:00,METAR KBCT 170855Z AUTO 29003KT 10SM -RA SCT037 BKN070 OVC100 21/19 A2999 RMK AO2
2026-03-17 08:35:00,METAR KBCT 170835Z AUTO 30004KT 10SM SCT045 BKN070 OVC110 21/19 A2999 RMK AO2
2026-03-17 08:15:00,METAR KBCT 170815Z AUTO 27004KT 10SM SCT060 BKN080 OVC100 21/19 A2999 RMK AO2
2026-03-17 07:55:00,METAR KBCT 170755Z AUTO VRB02KT 10SM FEW080 BKN100 BKN120 21/19 A2999 RMK AO2
2026-03-17 07:35:00,METAR KBCT 170735Z AUTO 26004KT 10SM SCT075 BKN090 21/19 A3000 RMK AO2 LTG DSNT NE AND E
2026-03-17 07:15:00,METAR KBCT 170715Z AUTO 20002KT 10SM SCT046 OVC075 20/19 A3001 RMK AO2 LTG DSNT NE
2026-03-17 06:55:00,METAR KBCT 170655Z AUTO 26003KT 10SM SCT044 BKN075 21/19 A3001 RMK AO2 LTG DSNT E AND SW
2026-03-17 06:35:00,METAR KBCT 170635Z AUTO 19002KT 10SM FEW019 FEW110 21/19 A3001 RMK AO2 LTG DSNT NE AND E AND SW PRESRR
2026-03-17 06:15:00,METAR KBCT 170615Z AUTO 21004KT 10SM CLR 20/19 A3001 RMK AO2 LTG DSNT E-SW
2026-03-17 05:55:00,METAR KBCT 170555Z AUTO 17005KT 10SM CLR 20/19 A2999 RMK AO2 LTG DSNT NE AND E AND SW PRESRR 10277 20198
2026-03-17 05:35:00,METAR KBCT 170535Z AUTO 24004KT 10SM CLR 20/19 A2997 RMK AO2 LTG DSNT ALQDS PRESRR
2026-03-17 05:15:00,METAR KBCT 170515Z AUTO 26004KT 10SM CLR 21/20 A2995 RMK AO2 LTG DSNT ALQDS PRESRR
2026-03-17 04:55:00,METAR KBCT 170455Z AUTO 25003KT 10SM CLR 21/19 A2992 RMK AO2 LTG DSNT ALQDS
2026-03-17 04:35:00,METAR KBCT 170435Z AUTO 24004KT 10SM VCTS FEW120 21/19 A2992 RMK AO2 LTG DSNT E-SW
2026-03-17 04:15:00,METAR KBCT 170415Z AUTO 20004KT 10SM VCTS BKN120 21/20 A2992 RMK AO2 LTG DSNT NE AND S AND SW PRESFR
2026-03-17 02:53:00,METAR KBCT 170253Z 26010KT 10SM SCT050 26/21 A2993 RMK LTG DSNT N AND NE.
2026-03-17 01:53:00,METAR KBCT 170153Z 26010KT 10SM SCT050 26/20 A2993 RMK LTG DSNT N AND NE.
2026-03-17 00:53:00,METAR KBCT 170053Z 26010KT 10SM SCT050 27/20 A2991 RMK LTG DSNT N AND NE.
2026-03-16 23:53:00,METAR KBCT 162353Z 26010KT 10SM SCT050 28/19 A2990 RMK LTG DSNT N AND NE.
2026-03-16 22:53:00,METAR KBCT 162253Z 26013G20KT 10SM VCTS SCT040 29/19 A2987 RMK LTG DSNT N AND NE.
2026-03-16 21:53:00,METAR KBCT 162153Z 26013G20KT 10SM VCTS SCT043 29/19 A2985 RMK LTG DSNT N AND NE.
2026-03-16 20:53:00,METAR KBCT 162053Z 16012G19KT 10SM SCT043 29/23 A2982 RMK LTG DSNT N AND NE.
2026-03-16 19:53:00,METAR KBCT 161953Z 18016G24KT 10SM TS SCT035 29/23 A2983 RMK CB SW LTG S-NW
2026-03-16 17:53:00,METAR KBCT 161753Z 16016G24KT 10SM TS SCT022 BKN030 BKN040 27/24 A2991 RMK CB SW LTG S-NW
2026-03-16 16:53:00,METAR KBCT 161653Z 16014G24KT 10SM VCTS SCT030 BKN040 27/24 A2991 RMK LTG DSNT NE AND E
2026-03-16 15:53:00,METAR KBCT 161553Z 17012G26KT 10SM VCTS SCT023 BKN048 28/22 A2993 RMK LTG DSNT NE AND E
2026-03-16 14:53:00,METAR KBCT 161453Z 19018G24KT 10SM VCTS SCT020 BKN042 28/22 A2993 RMK LTG DSNT NE.
2026-03-16 13:53:00,METAR KBCT 161353Z 18012G22KT 10SM VCTS SCT021 27/22 A2993 RMK LTG DSNT NE.
2026-03-16 11:53:00,METAR KBCT 161153Z 25005KT 10SM FEW024 BKN032 BKN042 23/21 A2993
2026-03-16 11:38:00,METAR KBCT 161138Z AUTO VRB03KT 5SM BR SCT024 SCT032 SCT042 23/21 A2993 RMK AO2 PK WND 15028/49 LTG DSNT NE
2026-03-16 11:35:00,METAR KBCT 161135Z AUTO VRB04KT 6SM BR SCT024 SCT032 BKN042 23/21 A2993 RMK AO2 PK WND 15028/49 LTG DSNT N AND NE
2026-03-16 11:15:00,METAR KBCT 161115Z AUTO 19007KT 10SM SCT025 SCT031 BKN042 23/21 A2993 RMK AO2 PK WND 15028/49
2026-03-16 10:55:00,METAR KBCT 161055Z AUTO 16018G28KT 10SM SCT020 BKN027 BKN032 25/22 A2993 RMK AO2 PK WND 15028/49 LTG DSNT ALQDS
2026-03-16 10:35:00,METAR KBCT 161035Z AUTO 17007KT 10SM VCTS SCT020 SCT027 25/22 A2991 RMK AO2 LTG DSNT NE-S
2026-03-16 10:15:00,METAR KBCT 161015Z AUTO 17009KT 10SM SCT020 SCT027 25/22 A2991 RMK AO2 LTG DSNT SE AND S
2026-03-16 09:55:00,METAR KBCT 160955Z AUTO 17008KT 10SM SCT020 SCT027 BKN038 25/22 A2991 RMK AO2
2026-03-16 09:35:00,METAR KBCT 160935Z AUTO 17008KT 10SM FEW019 SCT038 SCT050 25/22 A2991 RMK AO2
2026-03-16 09:15:00,METAR KBCT 160915Z AUTO 16011G15KT 10SM SCT020 SCT043 SCT055 25/22 A2991 RMK AO2
2026-03-16 08:55:00,METAR KBCT 160855Z AUTO 16010G15KT 10SM SCT019 SCT025 SCT042 25/22 A2991 RMK AO2
2026-03-16 08:35:00,METAR KBCT 160835Z AUTO 16010G14KT 10SM SCT019 SCT023 SCT028 25/22 A2991 RMK AO2
2026-03-16 08:15:00,METAR KBCT 160815Z AUTO 15007KT 10SM CLR 24/22 A2992 RMK AO2 LTG DSNT N AND NE
2026-03-16 07:55:00,METAR KBCT 160755Z AUTO 16008KT 10SM FEW024 FEW033 FEW043 24/21 A2992 RMK AO2
2026-03-16 07:35:00,METAR KBCT 160735Z AUTO 15011G19KT 10SM SCT020 SCT025 BKN033 25/22 A2993 RMK AO2 LTG DSNT NE AND W
2026-03-16 07:15:00,METAR KBCT 160715Z AUTO 15008KT 10SM FEW020 25/22 A2994 RMK AO2
2026-03-16 06:55:00,METAR KBCT 160655Z AUTO 17006KT 10SM CLR 25/22 A2994 RMK AO2
2026-03-16 06:35:00,METAR KBCT 160635Z AUTO 16008G15KT 10SM SCT110 25/22 A2995 RMK AO2 LTG DSNT SE
2026-03-16 06:15:00,METAR KBCT 160615Z AUTO 15005KT 10SM BKN110 23/22 A2996 RMK AO2 LTG DSNT NE
2026-03-16 05:55:00,METAR KBCT 160555Z AUTO 16003KT 10SM BKN100 21/20 A2997 RMK AO2 10241 20199
2026-03-16 05:35:00,METAR KBCT 160535Z AUTO VRB01KT 10SM BKN100 20/20 A2998 RMK AO2
2026-03-16 05:15:00,METAR KBCT 160515Z AUTO 26001KT 10SM SCT100 20/20 A2999 RMK AO2
2026-03-16 04:55:00,METAR KBCT 160455Z AUTO 28001KT 10SM CLR 21/20 A2999 RMK AO2
2026-03-16 04:35:00,METAR KBCT 160435Z AUTO 29002KT 10SM CLR 21/20 A2999 RMK AO2
2026-03-16 04:15:00,METAR KBCT 160415Z AUTO 03002KT 10SM CLR 21/20 A2999 RMK AO2 LTG DSNT NE
2026-03-16 02:53:00,METAR KBCT 160253Z 00000KT 10SM FEW100 21/20 A3002
2026-03-16 01:53:00,METAR KBCT 160153Z 00000KT 10SM SCT110 23/19 A3001
2026-03-16 00:53:00,METAR KBCT 160053Z 17008KT 10SM SCT120 24/18 A2999 RMK LTG DSNT N.
2026-03-15 23:53:00,METAR KBCT 152353Z 18011G17KT 10SM SCT050 23/20 A2997 RMK LTG DSNT NE
2026-03-15 21:55:00,METAR KBCT 152155Z 18010G15KT 5SM VCTS RA SCT022 BKN040 OVC049 22/21 A3000 RMK LTG DSNT ALQDS
2026-03-15 20:27:00,METAR KBCT 152027Z 18010G15KT 7SM VCTS SCT018 OVC025 25/22 A2999 RMK LTG DSNT ALQDS
2026-03-15 18:49:00,METAR KBCT 151849Z 13010G17KT 10SM -RA VCTS BKN020 BKN033 OVC045 25/22 A3002 RMK LTG DSNT ALQDS
2026-03-15 17:51:00,METAR KBCT 151751Z 16011G19KT 130V190 10SM SCT021 SCT029 BKN044 26/22 A3003 RMK LTG DSNT ALQDS
2026-03-15 16:55:00,METAR KBCT 151655Z 14009G16KT 10SM FEW019 FEW024 BKN031 26/22 A3004 RMK LTG DSNT SW
2026-03-15 15:53:00,METAR KBCT 151553Z 14010G17KT 10SM SCT021 BKN028 27/22 A3007 RMK LTG DSNT SW
2026-03-15 14:54:00,METAR KBCT 151454Z 15012G16KT 10SM BKN021 27/22 A3006 RMK LTG DSNT NE AND S-SW
2026-03-15 13:55:00,METAR KBCT 151355Z 15012G17KT 10SM SCT020 SCT045 26/22 A3004 RMK LTG DSNT NE AND S
2026-03-15 13:39:00,SPECI KBCT 151339Z 13008KT 10SM FEW020 SCT045 26/22 A3004 RMK LTG DSNT N-NE AND S
2026-03-15 12:53:00,METAR KBCT 151253Z 14009KT 10SM -SHRA FEW003 SCT023 SCT044 25/22 A3003 RMK LTG DSNT N-NE
2026-03-15 11:53:00,METAR KBCT 151153Z 13006KT 10SM FEW019 FEW027 SCT041 25/22 A3002
2026-03-15 11:38:00,METAR KBCT 151138Z AUTO 14004KT 10SM FEW017 SCT021 25/22 A3001 RMK AO2
2026-03-15 11:35:00,METAR KBCT 151135Z AUTO 14005KT 10SM FEW017 FEW023 25/22 A3002 RMK AO2
2026-03-15 11:15:00,METAR KBCT 151115Z AUTO VRB05KT 10SM BKN017 BKN025 BKN032 25/22 A3001 RMK AO2 LTG DSNT N AND S
2026-03-15 10:55:00,METAR KBCT 151055Z AUTO 15007KT 10SM SCT017 BKN025 25/22 A3001 RMK AO2
2026-03-15 10:35:00,METAR KBCT 151035Z AUTO 15005KT 10SM SCT019 24/22 A3001 RMK AO2
2026-03-15 10:15:00,METAR KBCT 151015Z AUTO 14003KT 10SM SCT021 SCT025 24/21 A3000 RMK AO2
2026-03-15 09:55:00,METAR KBCT 150955Z AUTO 14005KT 10SM BKN021 24/21 A3000 RMK AO2 LTG DSNT NE
2026-03-15 09:35:00,METAR KBCT 150935Z AUTO 14006KT 10SM SCT021 25/21 A2999 RMK AO2
2026-03-15 09:15:00,METAR KBCT 150915Z AUTO 15006KT 10SM SCT019 25/21 A2999 RMK AO2 LTG DSNT NE
2026-03-15 08:55:00,METAR KBCT 150855Z AUTO 16006KT 10SM FEW018 FEW110 25/21 A3000 RMK AO2
2026-03-15 08:35:00,METAR KBCT 150835Z AUTO 14007KT 10SM FEW020 OVC110 25/21 A3000 RMK AO2 LTG DSNT NE
2026-03-15 08:15:00,METAR KBCT 150815Z AUTO 14005KT 10SM OVC110 25/22 A3000 RMK AO2
