Time_recorded,METAR
2026-05-02 15:30:00,METAR VTBS 021530Z 19011KT 9999 FEW020 30/25 Q1009 NOSIG
2026-05-02 15:00:00,METAR VTBS 021500Z 20012KT 9999 FEW020 31/25 Q1009 NOSIG
2026-05-02 14:30:00,METAR VTBS 021430Z 20012KT 9999 FEW020 31/25 Q1009 NOSIG
2026-05-02 14:00:00,METAR VTBS 021400Z 20012KT 9999 FEW020 31/25 Q1009 NOSIG
2026-05-02 13:30:00,METAR VTBS 021330Z 21011KT 9999 FEW020 31/24 Q1008 NOSIG
2026-05-02 13:00:00,METAR VTBS 021300Z 21012KT 9999 FEW020 31/24 Q1007 NOSIG
2026-05-02 12:30:00,METAR VTBS 021230Z 20011KT 9999 FEW020 31/24 Q1006 NOSIG
2026-05-02 12:00:00,METAR VTBS 021200Z 19011KT 9999 FEW020 32/23 Q1006 NOSIG
2026-05-02 11:30:00,METAR VTBS 021130Z 19011KT 9999 FEW020 32/22 Q1006 NOSIG
2026-05-02 11:00:00,METAR VTBS 021100Z 20009KT 9999 FEW020 32/22 Q1006 NOSIG
2026-05-02 10:30:00,METAR VTBS 021030Z 18011KT 9999 FEW020 34/22 Q1006 NOSIG
2026-05-02 10:00:00,METAR VTBS 021000Z 18012KT 9999 FEW020 34/22 Q1006 NOSIG
2026-05-02 09:30:00,METAR VTBS 020930Z 18014KT 9999 FEW020 35/21 Q1006 NOSIG
2026-05-02 09:00:00,METAR VTBS 020900Z 20012KT 9999 FEW020 35/21 Q1006 NOSIG
2026-05-02 08:30:00,METAR VTBS 020830Z 20012KT 170V240 9999 FEW020 35/20 Q1006 NOSIG
2026-05-02 08:00:00,METAR VTBS 020800Z 21011KT 170V240 9999 FEW020 36/21 Q1006 NOSIG
2026-05-02 07:30:00,METAR VTBS 020730Z 20010KT 180V260 9999 FEW020 36/20 Q1007 NOSIG
2026-05-02 07:00:00,METAR VTBS 020700Z 20012KT 170V240 9999 FEW020 36/21 Q1007 NOSIG
2026-05-02 06:30:00,METAR VTBS 020630Z 19009KT 130V230 9999 FEW020 36/21 Q1008 NOSIG
2026-05-02 06:00:00,METAR VTBS 020600Z 19009KT 160V220 9999 FEW020 35/23 Q1009 NOSIG
2026-05-02 05:30:00,METAR VTBS 020530Z 22007KT 190V260 9999 FEW020 34/23 Q1009 NOSIG
2026-05-02 05:00:00,METAR VTBS 020500Z 20007KT 160V250 9999 FEW020 34/24 Q1009 NOSIG
2026-05-02 04:30:00,METAR VTBS 020430Z 21006KT 160V260 9999 FEW020 35/25 Q1010 NOSIG
2026-05-02 04:00:00,METAR VTBS 020400Z 22007KT 180V250 9999 FEW020 33/24 Q1010 NOSIG
2026-05-02 03:30:00,METAR VTBS 020330Z 21007KT 150V250 9999 FEW020 32/25 Q1010 NOSIG
2026-05-02 03:00:00,METAR VTBS 020300Z 21005KT 150V250 9999 FEW020 31/25 Q1011 NOSIG
2026-05-02 02:30:00,METAR VTBS 020230Z 11003KT 070V150 9999 FEW020 BKN100 30/25 Q1011 NOSIG
2026-05-02 02:00:00,METAR VTBS 020200Z 09005KT 060V160 9999 FEW020 BKN100 29/25 Q1011 NOSIG
2026-05-02 01:30:00,METAR VTBS 020130Z 10007KT 080V150 9999 FEW020CB BKN080 28/26 Q1010 RETS NOSIG
2026-05-02 01:00:00,METAR VTBS 020100Z 10004KT 060V170 9999 -TSRA FEW020CB BKN080 28/24 Q1010 NOSIG
2026-05-02 00:30:00,METAR VTBS 020030Z VRB02KT 8000 -TSRA FEW018CB SCT030 BKN080 27/24 Q1010 NOSIG
2026-05-02 00:00:00,METAR VTBS 020000Z 32005KT 8000 -RA FEW012 SCT018CB BKN030 27/25 Q1010 NOSIG
2026-05-01 23:30:00,METAR VTBS 012330Z 06004KT 350V110 9000 -RA FEW012 FEW018CB BKN025 27/25 Q1009 NOSIG
2026-05-01 23:00:00,METAR VTBS 012300Z 09007KT 9999 -RA FEW018CB SCT030 27/25 Q1009 NOSIG
2026-05-01 22:30:00,METAR VTBS 012230Z 09005KT 9999 FEW020CB SCT040 27/24 Q1009 NOSIG
2026-05-01 22:00:00,METAR VTBS 012200Z 08004KT 9999 FEW020 27/24 Q1009 NOSIG
2026-05-01 21:30:00,METAR VTBS 012130Z 05006KT 9999 FEW020 27/24 Q1008 NOSIG
2026-05-01 21:00:00,METAR VTBS 012100Z 02004KT 9999 FEW020 26/25 Q1008 NOSIG
2026-05-01 20:30:00,METAR VTBS 012030Z VRB02KT 9999 SCT020 27/25 Q1008 NOSIG
2026-05-01 20:00:00,METAR VTBS 012000Z 02005KT 9999 FEW020 27/24 Q1008 NOSIG
2026-05-01 19:30:00,METAR VTBS 011930Z 21005KT 9999 FEW020 30/25 Q1008 NOSIG
2026-05-01 19:00:00,METAR VTBS 011900Z 21005KT 9999 FEW020 30/25 Q1009 NOSIG
2026-05-01 18:30:00,METAR VTBS 011830Z 21006KT 9999 FEW020 30/25 Q1009 NOSIG
2026-05-01 18:00:00,METAR VTBS 011800Z 20008KT 9999 FEW020 30/25 Q1009 NOSIG
2026-05-01 17:30:00,METAR VTBS 011730Z 19008KT 9999 FEW020 30/25 Q1010 NOSIG
2026-05-01 17:00:00,METAR VTBS 011700Z 19009KT 9999 FEW020 30/25 Q1010 NOSIG
2026-05-01 16:30:00,METAR VTBS 011630Z 16006KT 9999 SCT020 31/24 Q1011 NOSIG
2026-05-01 16:00:00,METAR VTBS 011600Z 15006KT 120V190 9999 SCT020 31/24 Q1011 NOSIG
2026-05-01 15:30:00,METAR VTBS 011530Z 11005KT 080V170 9999 FEW020 30/24 Q1010 NOSIG
2026-05-01 15:00:00,METAR VTBS 011500Z 12006KT 100V160 9999 FEW020 30/24 Q1010 NOSIG
2026-05-01 14:30:00,METAR VTBS 011430Z 19010KT 9999 FEW020 31/24 Q1010 NOSIG
2026-05-01 14:00:00,METAR VTBS 011400Z 19012KT 9999 FEW020 31/24 Q1009 NOSIG
2026-05-01 13:30:00,METAR VTBS 011330Z 19011KT 9999 FEW020 31/23 Q1009 NOSIG
2026-05-01 13:00:00,METAR VTBS 011300Z 19011KT 9999 FEW020 31/24 Q1008 NOSIG
2026-05-01 12:30:00,METAR VTBS 011230Z 19013KT 9999 FEW020 30/24 Q1008 NOSIG
2026-05-01 12:00:00,METAR VTBS 011200Z 19011KT 9999 FEW020 31/24 Q1008 NOSIG
2026-05-01 11:30:00,METAR VTBS 011130Z 19010KT 9999 FEW020 31/23 Q1007 NOSIG
2026-05-01 11:00:00,METAR VTBS 011100Z 20010KT 9999 FEW020 32/22 Q1007 NOSIG
2026-05-01 10:30:00,METAR VTBS 011030Z 21010KT 9999 FEW020 33/22 Q1007 NOSIG
2026-05-01 10:00:00,METAR VTBS 011000Z 23011KT 190V250 9999 FEW020 34/22 Q1006 NOSIG
2026-05-01 09:30:00,METAR VTBS 010930Z 24011KT 210V270 9999 FEW020 34/21 Q1006 NOSIG
2026-05-01 09:00:00,METAR VTBS 010900Z 23010KT 200V270 9999 FEW020 34/22 Q1007 NOSIG
2026-05-01 08:30:00,METAR VTBS 010830Z 21010KT 180V240 9999 FEW020 SCT040 35/23 Q1007 NOSIG
2026-05-01 08:00:00,METAR VTBS 010800Z 30005KT 240V350 9999 FEW020 SCT040 34/24 Q1007 NOSIG
2026-05-01 07:30:00,METAR VTBS 010730Z 34006KT 300V010 9999 FEW020 SCT040 32/24 Q1008 NOSIG
2026-05-01 07:00:00,METAR VTBS 010700Z 32008KT 9999 FEW020CB SCT040 30/23 Q1009 NOSIG
2026-05-01 06:30:00,METAR VTBS 010630Z 32008KT 9999 -RA FEW020CB SCT035 30/23 Q1009 NOSIG
2026-05-01 06:00:00,METAR VTBS 010600Z VRB03KT 9999 FEW020CB SCT080 31/25 Q1009 RETS NOSIG
2026-05-01 05:30:00,METAR VTBS 010530Z 02008KT 9999 4000N -TSRA FEW020CB SCT030 BKN040 30/24 Q1010 BECMG TL0600 NSW
2026-05-01 05:00:00,METAR VTBS 010500Z 10008KT 050V150 9999 4000N -TSRA FEW010 FEW020CB SCT030 BKN040 29/26 Q1010 RERA BECMG TL0530 NSW
2026-05-01 04:30:00,METAR VTBS 010430Z 22003KT 170V290 9999 SCT030 BKN040 33/23 Q1010 NOSIG
2026-05-01 04:00:00,METAR VTBS 010400Z 15005KT 090V210 9999 FEW030 35/24 Q1010 NOSIG
2026-05-01 03:30:00,METAR VTBS 010330Z 04003KT 350V120 9999 FEW030 33/23 Q1010 NOSIG
2026-05-01 03:00:00,METAR VTBS 010300Z 14007KT 080V170 9999 FEW030 33/24 Q1011 NOSIG
2026-05-01 02:30:00,METAR VTBS 010230Z 13008KT 100V170 9999 FEW025 32/24 Q1011 NOSIG
2026-05-01 02:00:00,METAR VTBS 010200Z 12007KT 080V190 9999 FEW020 31/24 Q1011 NOSIG
2026-05-01 01:30:00,METAR VTBS 010130Z 11008KT 080V160 9999 FEW020 30/24 Q1011 NOSIG
2026-05-01 01:00:00,METAR VTBS 010100Z 10008KT 080V150 9999 FEW020 29/24 Q1011 NOSIG
2026-05-01 00:30:00,METAR VTBS 010030Z 10004KT 070V190 9999 FEW020 28/25 Q1010 NOSIG
2026-05-01 00:00:00,METAR VTBS 010000Z 10003KT 030V130 9999 FEW020 27/24 Q1010 NOSIG
2026-04-30 23:30:00,METAR VTBS 302330Z VRB02KT 9999 FEW020 27/24 Q1010 NOSIG
2026-04-30 23:00:00,METAR VTBS 302300Z 07003KT 010V110 9999 FEW020 27/24 Q1009 NOSIG
2026-04-30 22:30:00,METAR VTBS 302230Z 05004KT 360V090 9999 FEW020 26/24 Q1009 NOSIG
2026-04-30 22:00:00,METAR VTBS 302200Z 05004KT 020V100 9999 FEW020 26/23 Q1009 NOSIG
2026-04-30 21:30:00,METAR VTBS 302130Z 05006KT 010V080 9999 FEW020 26/23 Q1009 NOSIG
2026-04-30 21:00:00,METAR VTBS 302100Z 06007KT 9999 FEW020 27/23 Q1009 NOSIG
2026-04-30 20:30:00,METAR VTBS 302030Z 01009KT 9999 FEW020 26/23 Q1009 NOSIG
2026-04-30 20:00:00,METAR VTBS 302000Z 01012KT 9999 FEW020 SCT040 26/23 Q1009 NOSIG
2026-04-30 19:30:00,METAR VTBS 301930Z 03012KT 9999 FEW020 SCT035 27/23 Q1010 NOSIG
2026-04-30 19:00:00,METAR VTBS 301900Z 01013KT 9000 -RA FEW020CB SCT035 BKN080 28/23 Q1010 NOSIG
2026-04-30 18:30:00,METAR VTBS 301830Z 03010KT 360V070 9999 -RA FEW020CB BKN035 BKN080 29/21 Q1010 NOSIG
2026-04-30 18:00:00,METAR VTBS 301800Z 02007KT 320V070 9999 VCSH FEW020CB SCT035 BKN080 30/22 Q1011 NOSIG
2026-04-30 17:30:00,METAR VTBS 301730Z 22004KT 9999 FEW020 SCT090 31/25 Q1011 NOSIG
2026-04-30 17:00:00,METAR VTBS 301700Z 22007KT 9999 FEW020 31/25 Q1011 NOSIG
2026-04-30 16:30:00,METAR VTBS 301630Z 22006KT 9999 FEW020 31/24 Q1011 NOSIG
2026-04-30 16:00:00,METAR VTBS 301600Z 22008KT 9999 FEW020 SCT080 31/24 Q1011 NOSIG
2026-04-30 14:30:00,METAR VTBS 301430Z 20009KT 9999 FEW020 31/24 Q1011 NOSIG
2026-04-30 14:00:00,METAR VTBS 301400Z 14005KT 090V180 9999 FEW020 31/23 Q1010 NOSIG
2026-04-30 13:30:00,METAR VTBS 301330Z 01004KT 340V050 9999 FEW020 30/20 Q1009 NOSIG
2026-04-30 13:00:00,METAR VTBS 301300Z VRB04KT 9999 FEW020 31/20 Q1008 NOSIG
2026-04-30 12:30:00,METAR VTBS 301230Z 22007KT 9999 FEW020 32/23 Q1008 NOSIG
2026-04-30 12:00:00,METAR VTBS 301200Z VRB03KT 9999 FEW020 31/22 Q1008 NOSIG
2026-04-30 11:30:00,METAR VTBS 301130Z 04004KT 350V150 9999 FEW020 31/21 Q1007 NOSIG
2026-04-30 11:00:00,METAR VTBS 301100Z 15007KT 100V180 9999 FEW020 32/22 Q1007 NOSIG
2026-04-30 10:30:00,METAR VTBS 301030Z 11011KT 080V150 9999 FEW020 33/22 Q1007 NOSIG
2026-04-30 10:00:00,METAR VTBS 301000Z 17009KT 9999 FEW020 34/22 Q1007 NOSIG
2026-04-30 09:30:00,METAR VTBS 300930Z 18011KT 9999 FEW020 35/23 Q1006 NOSIG
2026-04-30 09:00:00,METAR VTBS 300900Z 19009KT 150V230 9999 FEW020 35/23 Q1007 NOSIG
2026-04-30 08:30:00,METAR VTBS 300830Z 20006KT 150V250 9999 FEW020 35/23 Q1007 NOSIG
2026-04-30 08:00:00,METAR VTBS 300800Z 23008KT 190V270 9999 FEW020 SCT040 35/22 Q1007 NOSIG
2026-04-30 07:30:00,METAR VTBS 300730Z 21005KT 130V280 9999 FEW020CB SCT040 35/23 Q1008 NOSIG
2026-04-30 07:00:00,METAR VTBS 300700Z VRB03KT 9999 FEW020 SCT040 34/22 Q1009 NOSIG
2026-04-30 06:30:00,METAR VTBS 300630Z VRB04KT 9999 FEW020 SCT040 35/23 Q1009 NOSIG
2026-04-30 06:00:00,METAR VTBS 300600Z 17005KT 080V220 9999 VCSH FEW020CB BKN040 34/23 Q1009 NOSIG
2026-04-30 05:30:00,METAR VTBS 300530Z 19004KT 130V230 9999 -RA FEW020CB BKN040 33/23 Q1010 NOSIG
2026-04-30 05:00:00,METAR VTBS 300500Z 18005KT 110V250 9999 VCSH FEW020CB BKN040 33/22 Q1011 NOSIG
2026-04-30 04:30:00,METAR VTBS 300430Z VRB06KT 9999 FEW020CB BKN040 33/22 Q1011 NOSIG
2026-04-30 04:00:00,METAR VTBS 300400Z 14007KT 090V200 9999 FEW020CB SCT040 34/22 Q1011 NOSIG
2026-04-30 03:30:00,METAR VTBS 300330Z 12006KT 060V180 9999 FEW020CB SCT030 34/23 Q1011 NOSIG
2026-04-30 03:00:00,METAR VTBS 300300Z 12006KT 060V170 9999 FEW020CB SCT029 33/23 Q1012 NOSIG
2026-04-30 02:30:00,METAR VTBS 300230Z 09007KT 060V160 9999 FEW020CB SCT025 33/24 Q1012 NOSIG
2026-04-30 02:00:00,METAR VTBS 300200Z 10006KT 070V140 9999 SCT017 32/25 Q1011 NOSIG
2026-04-30 01:30:00,METAR VTBS 300130Z 11007KT 080V170 9999 SCT020 31/26 Q1012 NOSIG
2026-04-30 01:00:00,METAR VTBS 300100Z VRB02KT 9999 SCT020 31/26 Q1011 NOSIG
2026-04-30 00:30:00,METAR VTBS 300030Z 10005KT 070V180 9999 FEW020 30/26 Q1010 NOSIG
2026-04-30 00:00:00,METAR VTBS 300000Z 09006KT 060V130 9999 FEW020 29/26 Q1010 NOSIG
2026-04-29 23:30:00,METAR VTBS 292330Z 14007KT 110V170 9999 FEW020 30/26 Q1010 NOSIG
2026-04-29 23:00:00,METAR VTBS 292300Z 12005KT 090V240 9999 FEW020 30/26 Q1009 NOSIG
2026-04-29 22:30:00,METAR VTBS 292230Z 11005KT 080V160 9999 FEW020 30/26 Q1009 NOSIG
2026-04-29 22:00:00,METAR VTBS 292200Z 15005KT 100V200 9999 FEW020 30/25 Q1009 NOSIG
2026-04-29 21:30:00,METAR VTBS 292130Z 16005KT 9999 FEW020 30/25 Q1008 NOSIG
2026-04-29 21:00:00,METAR VTBS 292100Z 17006KT 9999 FEW020 30/25 Q1008 NOSIG
2026-04-29 20:30:00,METAR VTBS 292030Z 19008KT 9999 FEW020 30/25 Q1008 NOSIG
2026-04-29 20:00:00,METAR VTBS 292000Z 20009KT 9999 FEW020 30/25 Q1008 NOSIG
2026-04-29 19:30:00,METAR VTBS 291930Z 20010KT 9999 FEW020 30/25 Q1008 NOSIG
2026-04-29 19:00:00,METAR VTBS 291900Z 19010KT 9999 FEW020 30/26 Q1008 NOSIG
2026-04-29 18:30:00,METAR VTBS 291830Z 20009KT 9999 FEW020 30/25 Q1009 NOSIG
2026-04-29 18:00:00,METAR VTBS 291800Z 19009KT 9999 FEW020 30/26 Q1009 NOSIG
2026-04-29 17:30:00,METAR VTBS 291730Z 18011KT 9999 FEW020 30/25 Q1010 NOSIG
2026-04-29 17:00:00,METAR VTBS 291700Z 18009KT 9999 FEW020 31/25 Q1010 NOSIG
2026-04-29 16:30:00,METAR VTBS 291630Z 18012KT 9999 FEW020 31/25 Q1010 NOSIG
2026-04-29 16:00:00,METAR VTBS 291600Z 19012KT 9999 FEW020 31/26 Q1009 NOSIG
2026-04-29 15:30:00,METAR VTBS 291530Z 18012KT 9999 FEW020 31/26 Q1009 NOSIG
2026-04-29 15:00:00,METAR VTBS 291500Z 19012KT 9999 FEW020 31/25 Q1008 NOSIG
2026-04-29 14:30:00,METAR VTBS 291430Z 19012KT 9999 FEW020 31/26 Q1008 NOSIG
2026-04-29 14:00:00,METAR VTBS 291400Z 20013KT 9999 FEW020 31/26 Q1008 NOSIG
2026-04-29 13:30:00,METAR VTBS 291330Z 19013KT 9999 FEW020 31/26 Q1008 NOSIG
2026-04-29 13:00:00,METAR VTBS 291300Z 20012KT 9999 FEW020 31/25 Q1008 NOSIG
2026-04-29 12:30:00,METAR VTBS 291230Z 19009KT 9999 FEW020 32/25 Q1007 NOSIG
2026-04-29 12:00:00,METAR VTBS 291200Z 18008KT 9999 FEW020 32/24 Q1007 NOSIG
2026-04-29 11:30:00,METAR VTBS 291130Z 19011KT 9999 FEW020 32/23 Q1007 NOSIG
2026-04-29 11:00:00,METAR VTBS 291100Z 18011KT 9999 FEW020 33/23 Q1006 NOSIG
2026-04-29 10:30:00,METAR VTBS 291030Z 19010KT 9999 FEW020 33/23 Q1006 NOSIG
2026-04-29 10:00:00,METAR VTBS 291000Z 19010KT 9999 FEW020 34/24 Q1006 NOSIG
2026-04-29 09:30:00,METAR VTBS 290930Z 19011KT 9999 FEW020 34/24 Q1006 NOSIG
2026-04-29 09:00:00,METAR VTBS 290900Z 18013KT 9999 FEW020 34/23 Q1006 NOSIG
2026-04-29 08:30:00,METAR VTBS 290830Z 17012KT 140V200 9999 FEW020 35/23 Q1007 NOSIG
2026-04-29 08:00:00,METAR VTBS 290800Z 14012KT 120V190 9999 FEW020 35/22 Q1007 NOSIG
2026-04-29 07:30:00,METAR VTBS 290730Z 18014KT 9999 FEW020 35/22 Q1007 NOSIG
2026-04-29 07:00:00,METAR VTBS 290700Z 17008KT 120V210 9999 FEW020 36/23 Q1007 NOSIG
2026-04-29 06:30:00,METAR VTBS 290630Z 19010KT 150V220 9999 FEW020 37/23 Q1008 NOSIG
2026-04-29 06:00:00,METAR VTBS 290600Z 18007G19KT 090V250 9999 FEW020 36/23 Q1008 NOSIG
2026-04-29 05:30:00,METAR VTBS 290530Z 16006KT 120V200 9999 FEW020 35/23 Q1009 NOSIG
2026-04-29 05:00:00,METAR VTBS 290500Z 15007KT 090V180 9999 FEW020 35/23 Q1009 NOSIG
2026-04-29 04:30:00,METAR VTBS 290430Z VRB05KT 9999 FEW020 35/23 Q1009 NOSIG
2026-04-29 04:00:00,METAR VTBS 290400Z 21007KT 160V250 9999 FEW020 35/23 Q1010 NOSIG
2026-04-29 03:30:00,METAR VTBS 290330Z 19008KT 150V220 9999 FEW020 34/23 Q1010 NOSIG
2026-04-29 03:00:00,METAR VTBS 290300Z VRB04KT 9999 FEW020 34/22 Q1010 NOSIG
2026-04-29 02:30:00,METAR VTBS 290230Z 18005KT 130V230 9999 FEW020 34/22 Q1010 NOSIG
2026-04-29 02:00:00,METAR VTBS 290200Z 24005KT 190V320 9999 FEW020 33/22 Q1010 NOSIG
2026-04-29 01:30:00,METAR VTBS 290130Z 23005KT 190V280 9999 FEW020 32/23 Q1010 NOSIG
2026-04-29 01:00:00,METAR VTBS 290100Z 21009KT 9999 FEW020 32/25 Q1009 NOSIG
2026-04-29 00:30:00,METAR VTBS 290030Z 21008KT 9999 FEW020 31/25 Q1009 NOSIG
2026-04-29 00:00:00,METAR VTBS 290000Z 21007KT 9999 FEW020 30/26 Q1009 NOSIG
2026-04-28 23:30:00,METAR VTBS 282330Z 21006KT 9999 FEW020 30/25 Q1008 NOSIG
2026-04-28 23:00:00,METAR VTBS 282300Z 20007KT 9999 FEW020 30/25 Q1008 NOSIG
2026-04-28 22:30:00,METAR VTBS 282230Z 21006KT 9999 FEW020 30/25 Q1008 NOSIG
2026-04-28 22:00:00,METAR VTBS 282200Z 21008KT 9999 FEW020 30/25 Q1007 NOSIG
2026-04-28 21:30:00,METAR VTBS 282130Z 20008KT 9999 FEW020 30/25 Q1007 NOSIG
2026-04-28 21:00:00,METAR VTBS 282100Z 21008KT 9999 FEW020 30/25 Q1007 NOSIG
2026-04-28 20:30:00,METAR VTBS 282030Z 19010KT 9999 FEW020 30/24 Q1007 NOSIG
2026-04-28 20:00:00,METAR VTBS 282000Z 20008KT 9999 FEW020 30/24 Q1007 NOSIG
2026-04-28 19:30:00,METAR VTBS 281930Z 20008KT 9999 FEW020 30/25 Q1008 NOSIG
2026-04-28 19:00:00,METAR VTBS 281900Z 20008KT 9999 FEW020 30/25 Q1008 NOSIG
2026-04-28 18:30:00,METAR VTBS 281830Z 21009KT 9999 FEW020 30/25 Q1008 NOSIG
2026-04-28 18:00:00,METAR VTBS 281800Z 20011KT 9999 FEW020 30/25 Q1009 NOSIG
2026-04-28 17:30:00,METAR VTBS 281730Z 19013KT 9999 SCT020 30/25 Q1009 NOSIG
2026-04-28 17:00:00,METAR VTBS 281700Z 19011KT 9999 SCT020 30/25 Q1009 NOSIG
2026-04-28 16:30:00,METAR VTBS 281630Z 19011KT 9999 FEW040 30/25 Q1009 NOSIG
2026-04-28 16:00:00,METAR VTBS 281600Z 19010KT 9999 FEW040 31/25 Q1009 NOSIG
2026-04-28 15:30:00,METAR VTBS 281530Z 19012KT 9999 FEW040 31/24 Q1009 NOSIG
2026-04-28 15:00:00,METAR VTBS 281500Z 19013KT 9999 FEW040 30/24 Q1009 NOSIG
2026-04-28 14:30:00,METAR VTBS 281430Z 19013KT 9999 FEW040 31/25 Q1008 NOSIG
2026-04-28 14:00:00,METAR VTBS 281400Z 19013KT 9999 FEW040 31/25 Q1008 NOSIG
2026-04-28 13:30:00,METAR VTBS 281330Z 19018KT 9999 FEW040 31/25 Q1007 NOSIG
2026-04-28 13:00:00,METAR VTBS 281300Z 20014KT 9999 FEW040 31/24 Q1007 NOSIG
2026-04-28 12:30:00,METAR VTBS 281230Z 20013KT 9999 FEW040 31/24 Q1006 NOSIG
2026-04-28 12:00:00,METAR VTBS 281200Z 20013KT 9999 FEW040 32/24 Q1006 NOSIG
2026-04-28 11:30:00,METAR VTBS 281130Z 19012KT 9999 FEW040 32/22 Q1005 NOSIG
2026-04-28 11:00:00,METAR VTBS 281100Z 20011KT 9999 FEW040 33/20 Q1005 NOSIG
2026-04-28 10:30:00,METAR VTBS 281030Z 19011KT 9999 FEW040 33/21 Q1005 NOSIG
2026-04-28 10:00:00,METAR VTBS 281000Z 19010KT 9999 FEW040 34/21 Q1005 NOSIG
2026-04-28 09:30:00,METAR VTBS 280930Z 20012KT 9999 FEW040 34/21 Q1005 NOSIG
2026-04-28 09:00:00,METAR VTBS 280900Z 19011KT 9999 FEW040 35/21 Q1005 NOSIG
2026-04-28 08:30:00,METAR VTBS 280830Z 19010KT 9999 FEW040 35/21 Q1006 NOSIG
2026-04-28 08:00:00,METAR VTBS 280800Z 20012KT 9999 FEW040 35/21 Q1006 NOSIG
2026-04-28 07:30:00,METAR VTBS 280730Z 19012KT 160V220 9999 FEW040 35/21 Q1006 NOSIG
2026-04-28 07:00:00,METAR VTBS 280700Z 18014KT 160V220 9999 FEW040 35/22 Q1007 NOSIG
2026-04-28 06:30:00,METAR VTBS 280630Z 20012KT 170V230 9999 FEW040 35/23 Q1007 NOSIG
2026-04-28 06:00:00,METAR VTBS 280600Z 19011KT 160V220 9999 FEW040 35/23 Q1008 NOSIG
2026-04-28 05:30:00,METAR VTBS 280530Z 21010KT 9999 FEW035 35/23 Q1009 NOSIG
2026-04-28 05:00:00,METAR VTBS 280500Z 21010KT 160V250 9999 SCT035 35/23 Q1009 NOSIG
2026-04-28 04:30:00,METAR VTBS 280430Z 20010KT 170V240 9999 SCT030 34/23 Q1009 NOSIG
2026-04-28 04:00:00,METAR VTBS 280400Z 21008KT 180V250 9999 SCT030 33/23 Q1009 NOSIG
2026-04-28 03:30:00,METAR VTBS 280330Z 21008KT 180V260 9999 SCT030 34/23 Q1010 NOSIG
2026-04-28 03:00:00,METAR VTBS 280300Z 21008KT 170V270 9999 FEW030 33/23 Q1010 NOSIG
2026-04-28 02:30:00,METAR VTBS 280230Z 22010KT 9999 FEW030 33/24 Q1010 NOSIG
2026-04-28 02:00:00,METAR VTBS 280200Z 21010KT 9999 SCT030 32/24 Q1010 NOSIG
2026-04-28 01:30:00,METAR VTBS 280130Z 21009KT 9999 BKN025 32/24 Q1010 NOSIG
2026-04-28 01:00:00,METAR VTBS 280100Z 20011KT 9999 BKN020 31/24 Q1010 NOSIG
2026-04-28 00:30:00,METAR VTBS 280030Z 20009KT 9999 SCT020 31/24 Q1009 NOSIG
2026-04-28 00:00:00,METAR VTBS 280000Z 19008KT 9999 FEW020 30/25 Q1009 NOSIG
2026-04-27 23:30:00,METAR VTBS 272330Z 19007KT 9999 FEW020 30/25 Q1009 NOSIG
2026-04-27 23:00:00,METAR VTBS 272300Z 21006KT 9999 FEW020 30/25 Q1008 NOSIG
2026-04-27 22:30:00,METAR VTBS 272230Z 18010KT 9999 FEW020 30/25 Q1007 NOSIG
2026-04-27 22:00:00,METAR VTBS 272200Z 18010KT 9999 FEW020 30/25 Q1007 NOSIG
2026-04-27 21:30:00,METAR VTBS 272130Z 19009KT 9999 FEW020 30/25 Q1007 NOSIG
2026-04-27 21:00:00,METAR VTBS 272100Z 18009KT 9999 FEW020 30/24 Q1007 NOSIG
2026-04-27 20:30:00,METAR VTBS 272030Z 18010KT 9999 FEW020 30/25 Q1007 NOSIG
2026-04-27 20:00:00,METAR VTBS 272000Z 19009KT 9999 FEW020 30/25 Q1007 NOSIG
2026-04-27 19:30:00,METAR VTBS 271930Z 19012KT 9999 FEW020 30/24 Q1007 NOSIG
2026-04-27 19:00:00,METAR VTBS 271900Z 19014KT 9999 FEW020 30/25 Q1007 NOSIG
2026-04-27 18:30:00,METAR VTBS 271830Z 19014KT 9999 FEW020 30/25 Q1007 NOSIG
2026-04-27 18:00:00,METAR VTBS 271800Z 19013KT 9999 FEW020 30/25 Q1008 NOSIG
2026-04-27 17:30:00,METAR VTBS 271730Z 20011KT 9999 FEW020 30/25 Q1008 NOSIG
2026-04-27 17:00:00,METAR VTBS 271700Z 20012KT 9999 FEW020 30/25 Q1008 NOSIG
2026-04-27 16:30:00,METAR VTBS 271630Z 20014KT 9999 FEW020 30/25 Q1009 NOSIG
2026-04-27 16:00:00,METAR VTBS 271600Z 20012KT 9999 FEW020 30/25 Q1009 NOSIG
2026-04-27 15:30:00,METAR VTBS 271530Z 19015KT 9999 FEW030 30/24 Q1009 NOSIG
2026-04-27 15:00:00,METAR VTBS 271500Z 19014KT 9999 FEW030 30/24 Q1009 NOSIG
2026-04-27 14:30:00,METAR VTBS 271430Z 20013KT 9999 FEW030 31/24 Q1009 NOSIG
2026-04-27 14:00:00,METAR VTBS 271400Z 20012KT 9999 FEW030 31/24 Q1008 NOSIG
2026-04-27 13:30:00,METAR VTBS 271330Z 20014KT 9999 FEW030 31/24 Q1007 NOSIG
2026-04-27 13:00:00,METAR VTBS 271300Z 19015KT 9999 FEW030 31/24 Q1007 NOSIG
2026-04-27 12:30:00,METAR VTBS 271230Z 19015KT 9999 FEW030 31/23 Q1007 NOSIG
2026-04-27 12:00:00,METAR VTBS 271200Z 19014KT 9999 FEW030 31/23 Q1006 NOSIG
2026-04-27 11:30:00,METAR VTBS 271130Z 19015KT 9999 FEW030 31/23 Q1006 NOSIG
2026-04-27 11:00:00,METAR VTBS 271100Z 20014KT 9999 FEW030 32/22 Q1006 NOSIG
2026-04-27 10:30:00,METAR VTBS 271030Z 18015KT 9999 FEW030 33/22 Q1006 NOSIG
2026-04-27 10:00:00,METAR VTBS 271000Z 20015KT 9999 FEW030 34/19 Q1006 NOSIG
2026-04-27 09:30:00,METAR VTBS 270930Z 19014KT 9999 FEW030 34/22 Q1006 NOSIG
2026-04-27 09:00:00,METAR VTBS 270900Z 20013KT 170V230 9999 FEW030 35/23 Q1006 NOSIG
2026-04-27 08:30:00,METAR VTBS 270830Z 22012KT 9999 FEW030 35/23 Q1006 NOSIG
2026-04-27 08:00:00,METAR VTBS 270800Z 21011KT 9999 FEW030 35/23 Q1006 NOSIG
2026-04-27 07:30:00,METAR VTBS 270730Z 21011KT 180V250 9999 FEW030 35/22 Q1007 NOSIG
2026-04-27 07:00:00,METAR VTBS 270700Z 21007KT 130V260 9999 FEW020 35/22 Q1007 NOSIG
2026-04-27 06:30:00,METAR VTBS 270630Z 23009KT 200V260 9999 FEW020 36/22 Q1007 NOSIG
2026-04-27 06:00:00,METAR VTBS 270600Z 20010KT 160V260 9999 FEW020 36/23 Q1008 NOSIG
2026-04-27 05:30:00,METAR VTBS 270530Z 21008KT 170V230 9999 FEW020 35/22 Q1009 NOSIG
2026-04-27 05:00:00,METAR VTBS 270500Z 19008KT 160V230 9999 FEW020 35/23 Q1009 NOSIG
2026-04-27 04:30:00,METAR VTBS 270430Z 18008KT 140V210 9999 FEW020 34/23 Q1010 NOSIG
2026-04-27 04:00:00,METAR VTBS 270400Z 18008KT 9999 FEW020 34/23 Q1010 NOSIG
2026-04-27 03:30:00,METAR VTBS 270330Z 18009KT 9999 FEW020 34/23 Q1010 NOSIG
2026-04-27 03:00:00,METAR VTBS 270300Z 16010KT 130V200 9999 FEW020 34/23 Q1010 NOSIG
2026-04-27 02:30:00,METAR VTBS 270230Z 18005KT 150V270 9999 FEW020 32/24 Q1010 NOSIG
2026-04-27 02:00:00,METAR VTBS 270200Z 13005KT 080V170 9999 FEW020 31/25 Q1010 NOSIG
2026-04-27 01:30:00,METAR VTBS 270130Z 15004KT 100V200 9999 FEW020 30/25 Q1010 NOSIG
2026-04-27 01:00:00,METAR VTBS 270100Z 14004KT 080V180 9999 FEW020 30/25 Q1010 NOSIG
2026-04-27 00:30:00,METAR VTBS 270030Z VRB04KT 9999 FEW020 29/26 Q1010 NOSIG
2026-04-27 00:00:00,METAR VTBS 270000Z 09004KT 070V150 9999 FEW020 29/26 Q1009 NOSIG
2026-04-26 23:30:00,METAR VTBS 262330Z VRB04KT 9999 FEW020 29/26 Q1009 NOSIG
2026-04-26 23:00:00,METAR VTBS 262300Z 13005KT 100V190 9999 FEW020 29/26 Q1008 NOSIG
2026-04-26 22:30:00,METAR VTBS 262230Z 13005KT 090V190 9999 FEW020 29/26 Q1008 NOSIG
2026-04-26 22:00:00,METAR VTBS 262200Z 15005KT 110V190 9999 FEW020 30/25 Q1007 NOSIG
2026-04-26 21:30:00,METAR VTBS 262130Z 17005KT 9999 FEW020 29/25 Q1007 NOSIG
2026-04-26 21:00:00,METAR VTBS 262100Z 18006KT 9999 FEW020 29/25 Q1007 NOSIG
2026-04-26 20:30:00,METAR VTBS 262030Z 18007KT 9999 FEW020 30/25 Q1007 NOSIG
2026-04-26 20:00:00,METAR VTBS 262000Z 19007KT 9999 FEW020 29/25 Q1007 NOSIG
2026-04-26 19:30:00,METAR VTBS 261930Z 18007KT 9999 FEW020 29/25 Q1007 NOSIG
2026-04-26 19:00:00,METAR VTBS 261900Z 19008KT 9999 FEW020 29/25 Q1008 NOSIG
2026-04-26 18:30:00,METAR VTBS 261830Z 19010KT 9999 FEW020 30/25 Q1008 NOSIG
2026-04-26 18:00:00,METAR VTBS 261800Z 19009KT 9999 FEW020 30/24 Q1008 NOSIG
2026-04-26 17:30:00,METAR VTBS 261730Z 18008KT 9999 FEW020 30/24 Q1009 NOSIG
2026-04-26 17:00:00,METAR VTBS 261700Z 18007KT 9999 FEW020 30/24 Q1009 NOSIG
2026-04-26 16:30:00,METAR VTBS 261630Z 20008KT 9999 FEW020 30/25 Q1009 NOSIG
2026-04-26 16:00:00,METAR VTBS 261600Z 20008KT 9999 FEW020 30/25 Q1009 NOSIG
2026-04-26 15:30:00,METAR VTBS 261530Z 20007KT 9999 FEW020 30/24 Q1010 NOSIG
2026-04-26 15:00:00,METAR VTBS 261500Z 19007KT 9999 FEW020 30/25 Q1009 NOSIG
2026-04-26 14:30:00,METAR VTBS 261430Z 17008KT 9999 FEW020 31/24 Q1009 NOSIG
2026-04-26 14:00:00,METAR VTBS 261400Z 18008KT 9999 FEW020 31/24 Q1009 NOSIG
2026-04-26 13:30:00,METAR VTBS 261330Z 19008KT 9999 FEW020 31/24 Q1009 NOSIG
2026-04-26 13:00:00,METAR VTBS 261300Z 18009KT 9999 FEW020 30/24 Q1008 NOSIG
2026-04-26 12:30:00,METAR VTBS 261230Z 18010KT 9999 FEW020 31/24 Q1008 NOSIG
2026-04-26 12:00:00,METAR VTBS 261200Z 19009KT 9999 FEW020 31/23 Q1008 NOSIG
2026-04-26 11:30:00,METAR VTBS 261130Z 20009KT 9999 FEW020 31/23 Q1007 NOSIG
2026-04-26 11:00:00,METAR VTBS 261100Z 19009KT 9999 FEW020 32/22 Q1007 NOSIG
2026-04-26 10:30:00,METAR VTBS 261030Z 19011KT 9999 FEW020 32/22 Q1007 NOSIG
2026-04-26 10:00:00,METAR VTBS 261000Z 17011KT 9999 FEW020 32/23 Q1007 NOSIG
2026-04-26 09:30:00,METAR VTBS 260930Z VRB03KT 9999 FEW020 31/25 Q1006 NOSIG
2026-04-26 09:00:00,METAR VTBS 260900Z 29003KT 250V350 9999 FEW020 SCT035 30/25 Q1007 NOSIG
2026-04-26 08:30:00,METAR VTBS 260830Z 34005KT 310V010 9999 -RA FEW020CB SCT035 29/24 Q1008 RETS NOSIG
2026-04-26 08:00:00,METAR VTBS 260800Z 10005KT 020V150 9999 -TSRA FEW020CB SCT035 32/24 Q1008 NOSIG
2026-04-26 07:30:00,METAR VTBS 260730Z 13006KT 080V200 9999 FEW020CB SCT040 33/24 Q1008 NOSIG
2026-04-26 07:00:00,METAR VTBS 260700Z VRB04KT 9999 FEW020CB SCT040 33/23 Q1008 NOSIG
2026-04-26 06:30:00,METAR VTBS 260630Z VRB05KT 9999 FEW020CB SCT040 33/24 Q1009 NOSIG
2026-04-26 06:00:00,METAR VTBS 260600Z 07008KT 350V110 9999 FEW020CB SCT040 33/25 Q1010 NOSIG
2026-04-26 05:30:00,METAR VTBS 260530Z 03012KT 9999 FEW020 SCT040 32/25 Q1010 NOSIG
2026-04-26 05:00:00,METAR VTBS 260500Z 04006KT 360V080 9999 FEW020 SCT040 34/24 Q1011 NOSIG
2026-04-26 04:30:00,METAR VTBS 260430Z 03010KT 9999 FEW020 SCT040 32/25 Q1011 NOSIG
2026-04-26 04:00:00,METAR VTBS 260400Z 03007KT 360V080 9999 FEW020 SCT040 32/24 Q1011 NOSIG
2026-04-26 03:30:00,METAR VTBS 260330Z VRB03KT 9999 FEW020 SCT040 32/21 Q1011 NOSIG
2026-04-26 03:00:00,METAR VTBS 260300Z 24003KT 200V310 9999 FEW020 32/22 Q1011 NOSIG
2026-04-26 02:30:00,METAR VTBS 260230Z VRB02KT 9999 FEW020 SCT040 32/22 Q1011 NOSIG
2026-04-26 02:00:00,METAR VTBS 260200Z 13003KT 060V190 9999 FEW020 SCT040 31/22 Q1011 NOSIG
2026-04-26 01:30:00,METAR VTBS 260130Z 20003KT 130V280 9999 FEW020 31/23 Q1011 NOSIG
2026-04-26 01:00:00,METAR VTBS 260100Z 19005KT 160V220 9999 FEW020 31/23 Q1011 NOSIG
2026-04-26 00:30:00,METAR VTBS 260030Z 20005KT 170V230 9999 FEW020 30/23 Q1010 NOSIG
2026-04-26 00:00:00,METAR VTBS 260000Z 18005KT 9999 FEW020 30/23 Q1010 NOSIG
2026-04-25 23:30:00,METAR VTBS 252330Z 18005KT 140V200 9999 FEW020 30/23 Q1010 NOSIG
2026-04-25 23:00:00,METAR VTBS 252300Z 20003KT 150V210 9999 FEW020 29/24 Q1010 NOSIG
2026-04-25 22:30:00,METAR VTBS 252230Z 20003KT 9999 FEW020 SCT080 29/24 Q1009 NOSIG
2026-04-25 22:00:00,METAR VTBS 252200Z VRB02KT 9999 FEW020 29/24 Q1009 NOSIG
2026-04-25 21:30:00,METAR VTBS 252130Z 21003KT 9999 FEW020 30/24 Q1009 NOSIG
2026-04-25 21:00:00,METAR VTBS 252100Z 21003KT 180V240 9999 FEW020 29/24 Q1009 NOSIG
2026-04-25 20:30:00,METAR VTBS 252030Z 19005KT 9999 FEW020 29/23 Q1008 NOSIG
2026-04-25 20:00:00,METAR VTBS 252000Z 19006KT 9999 FEW020 29/24 Q1009 NOSIG
2026-04-25 19:30:00,METAR VTBS 251930Z 19007KT 9999 FEW020 30/24 Q1009 NOSIG
2026-04-25 19:00:00,METAR VTBS 251900Z 19008KT 9999 FEW020 30/24 Q1009 NOSIG
2026-04-25 18:30:00,METAR VTBS 251830Z 20007KT 9999 FEW020 30/24 Q1009 NOSIG
2026-04-25 18:00:00,METAR VTBS 251800Z 19008KT 9999 FEW020 30/24 Q1009 NOSIG
2026-04-25 17:30:00,METAR VTBS 251730Z 21007KT 9999 FEW020 SCT100 30/24 Q1010 NOSIG
2026-04-25 17:00:00,METAR VTBS 251700Z 20008KT 9999 FEW020 SCT100 30/24 Q1010 NOSIG
2026-04-25 16:30:00,METAR VTBS 251630Z 21007KT 9999 FEW020 30/24 Q1011 NOSIG
2026-04-25 16:00:00,METAR VTBS 251600Z 21007KT 9999 FEW020 30/24 Q1011 NOSIG
2026-04-25 15:30:00,METAR VTBS 251530Z 21006KT 9999 FEW020 30/24 Q1011 NOSIG
2026-04-25 15:00:00,METAR VTBS 251500Z 20007KT 9999 FEW020 30/24 Q1011 NOSIG
2026-04-25 14:30:00,METAR VTBS 251430Z 21008KT 9999 FEW020 31/24 Q1011 NOSIG
2026-04-25 14:00:00,METAR VTBS 251400Z 20009KT 9999 FEW020 30/24 Q1010 NOSIG
2026-04-25 13:30:00,METAR VTBS 251330Z 20009KT 9999 FEW020 31/24 Q1010 NOSIG
2026-04-25 13:00:00,METAR VTBS 251300Z 20009KT 9999 FEW020 31/24 Q1009 NOSIG
2026-04-25 12:30:00,METAR VTBS 251230Z 19008KT 9999 FEW020 31/24 Q1009 NOSIG
2026-04-25 12:00:00,METAR VTBS 251200Z 19008KT 9999 FEW020 31/23 Q1009 NOSIG
2026-04-25 11:30:00,METAR VTBS 251130Z 20009KT 9999 FEW020 31/23 Q1008 NOSIG
2026-04-25 11:00:00,METAR VTBS 251100Z 19011KT 9999 FEW020 32/23 Q1007 NOSIG
2026-04-25 10:30:00,METAR VTBS 251030Z 20011KT 9999 FEW020 33/22 Q1008 NOSIG
2026-04-25 10:00:00,METAR VTBS 251000Z 21008KT 9999 FEW020 34/22 Q1007 NOSIG
2026-04-25 09:30:00,METAR VTBS 250930Z 21007KT 180V260 9999 FEW020 34/22 Q1007 NOSIG
2026-04-25 09:00:00,METAR VTBS 250900Z 22007KT 180V280 9999 FEW020 35/22 Q1008 NOSIG
2026-04-25 08:30:00,METAR VTBS 250830Z 24007KT 220V290 9999 FEW020 35/22 Q1008 NOSIG
2026-04-25 08:00:00,METAR VTBS 250800Z 22006KT 170V330 9999 FEW020 35/21 Q1008 NOSIG
2026-04-25 07:30:00,METAR VTBS 250730Z 25005KT 190V330 9999 FEW020 34/21 Q1008 NOSIG
2026-04-25 07:00:00,METAR VTBS 250700Z VRB05KT 9999 FEW020 34/21 Q1008 NOSIG
2026-04-25 06:30:00,METAR VTBS 250630Z 23006KT 190V310 9999 FEW020 34/20 Q1009 NOSIG
2026-04-25 06:00:00,METAR VTBS 250600Z 20006KT 180V240 9999 FEW020 BKN100 33/20 Q1010 NOSIG
2026-04-25 05:30:00,METAR VTBS 250530Z 20008KT 160V220 9999 FEW020 BKN100 33/20 Q1011 NOSIG
2026-04-25 05:00:00,METAR VTBS 250500Z 22007KT 9999 FEW020 SCT040 BKN100 33/21 Q1011 NOSIG
2026-04-25 04:30:00,METAR VTBS 250430Z 20007KT 150V250 9999 FEW020 SCT040 BKN100 33/21 Q1011 NOSIG
2026-04-25 04:00:00,METAR VTBS 250400Z 14005KT 090V190 9999 FEW020 SCT040 33/22 Q1011 NOSIG
2026-04-25 03:30:00,METAR VTBS 250330Z 12005KT 060V180 9999 FEW020 SCT040 33/23 Q1012 NOSIG
2026-04-25 03:00:00,METAR VTBS 250300Z 12006KT 090V160 9999 FEW020 SCT040 32/23 Q1012 NOSIG
2026-04-25 02:30:00,METAR VTBS 250230Z 15005KT 100V190 9999 FEW020 SCT030 32/23 Q1012 NOSIG
2026-04-25 02:00:00,METAR VTBS 250200Z 14006KT 090V180 9999 FEW020 SCT030 31/23 Q1012 NOSIG
2026-04-25 01:30:00,METAR VTBS 250130Z 13006KT 100V180 9999 FEW020 SCT040 31/24 Q1012 NOSIG
2026-04-25 01:00:00,METAR VTBS 250100Z 12006KT 090V170 9999 FEW020 SCT035 30/24 Q1011 NOSIG
2026-04-25 00:30:00,METAR VTBS 250030Z 09005KT 9999 FEW020 SCT035 30/25 Q1011 NOSIG
2026-04-25 00:00:00,METAR VTBS 250000Z 09005KT 070V160 9999 FEW020 SCT035 30/25 Q1010 NOSIG
2026-04-24 23:30:00,METAR VTBS 242330Z 14007KT 110V170 9999 FEW020 SCT035 30/25 Q1010 NOSIG
2026-04-24 23:00:00,METAR VTBS 242300Z 16004KT 100V200 9999 FEW020 30/24 Q1009 NOSIG
2026-04-24 22:30:00,METAR VTBS 242230Z 19005KT 9999 FEW020 30/24 Q1009 NOSIG
2026-04-24 22:00:00,METAR VTBS 242200Z 18006KT 9999 FEW020 30/25 Q1008 NOSIG
2026-04-24 21:30:00,METAR VTBS 242130Z 18005KT 9999 FEW020 SCT040 30/24 Q1008 NOSIG
2026-04-24 21:00:00,METAR VTBS 242100Z 18008KT 9999 FEW020 SCT040 30/24 Q1008 NOSIG
2026-04-24 20:30:00,METAR VTBS 242030Z 19008KT 9999 FEW020 30/24 Q1008 NOSIG
2026-04-24 20:00:00,METAR VTBS 242000Z 19009KT 9999 FEW020 30/24 Q1008 NOSIG
2026-04-24 19:30:00,METAR VTBS 241930Z 20009KT 9999 FEW020 30/24 Q1008 NOSIG
2026-04-24 19:00:00,METAR VTBS 241900Z 20009KT 9999 FEW020 30/24 Q1008 NOSIG
2026-04-24 18:30:00,METAR VTBS 241830Z 19011KT 9999 FEW020 30/25 Q1008 NOSIG
2026-04-24 18:00:00,METAR VTBS 241800Z 19010KT 9999 FEW020 30/25 Q1008 NOSIG
2026-04-24 17:30:00,METAR VTBS 241730Z 19010KT 9999 FEW020 30/25 Q1008 NOSIG
2026-04-24 17:00:00,METAR VTBS 241700Z 19008KT 9999 FEW020 30/25 Q1009 NOSIG
2026-04-24 16:30:00,METAR VTBS 241630Z 18010KT 9999 FEW020 30/24 Q1009 NOSIG
2026-04-24 16:00:00,METAR VTBS 241600Z 18010KT 9999 FEW020 30/24 Q1009 NOSIG
2026-04-24 15:30:00,METAR VTBS 241530Z 19008KT 9999 FEW020 30/25 Q1009 NOSIG
2026-04-24 15:00:00,METAR VTBS 241500Z 19012KT 9999 FEW020 30/25 Q1009 NOSIG
2026-04-24 14:30:00,METAR VTBS 241430Z 19014KT 9999 FEW020 31/24 Q1008 NOSIG
2026-04-24 14:00:00,METAR VTBS 241400Z 19012KT 9999 FEW020 31/24 Q1008 NOSIG
2026-04-24 13:30:00,METAR VTBS 241330Z 20012KT 9999 FEW020 31/24 Q1008 NOSIG
2026-04-24 13:00:00,METAR VTBS 241300Z 20010KT 9999 FEW020 31/24 Q1007 NOSIG
2026-04-24 12:30:00,METAR VTBS 241230Z 19011KT 9999 FEW020 31/23 Q1007 NOSIG
2026-04-24 12:00:00,METAR VTBS 241200Z 20011KT 9999 FEW020 32/23 Q1006 NOSIG
2026-04-24 11:30:00,METAR VTBS 241130Z 20013KT 9999 FEW020 32/22 Q1005 NOSIG
2026-04-24 11:00:00,METAR VTBS 241100Z 20012KT 9999 FEW020 33/22 Q1005 NOSIG
2026-04-24 10:30:00,METAR VTBS 241030Z 20013KT 9999 FEW020 33/22 Q1005 NOSIG
2026-04-24 10:00:00,METAR VTBS 241000Z 20010KT 9999 FEW020 34/22 Q1005 NOSIG
2026-04-24 09:30:00,METAR VTBS 240930Z 20008KT 9999 FEW020 33/22 Q1005 NOSIG
2026-04-24 09:00:00,METAR VTBS 240900Z 19011KT 9999 FEW020 34/22 Q1005 NOSIG
2026-04-24 08:30:00,METAR VTBS 240830Z 19010KT 9999 FEW020 34/22 Q1005 NOSIG
2026-04-24 08:00:00,METAR VTBS 240800Z 19011KT 160V220 9999 FEW020 35/22 Q1006 NOSIG
2026-04-24 07:30:00,METAR VTBS 240730Z 19011KT 9999 FEW020 35/22 Q1006 NOSIG
2026-04-24 07:00:00,METAR VTBS 240700Z 20010KT 9999 FEW020 35/23 Q1006 NOSIG
2026-04-24 06:30:00,METAR VTBS 240630Z 21012KT 9999 FEW020 34/22 Q1007 NOSIG
2026-04-24 06:00:00,METAR VTBS 240600Z 19013KT 160V220 9999 FEW020 35/23 Q1007 NOSIG
2026-04-24 05:30:00,METAR VTBS 240530Z 18012KT 150V210 9999 FEW020 34/23 Q1008 NOSIG
2026-04-24 05:00:00,METAR VTBS 240500Z 19013KT 9999 FEW020 34/24 Q1008 NOSIG
2026-04-24 04:30:00,METAR VTBS 240430Z 19013KT 9999 SCT020 33/24 Q1009 NOSIG
2026-04-24 04:00:00,METAR VTBS 240400Z 19013KT 150V210 9999 SCT020 34/24 Q1009 NOSIG
2026-04-24 03:30:00,METAR VTBS 240330Z 19012KT 150V210 9999 SCT020 33/24 Q1009 NOSIG
2026-04-24 03:00:00,METAR VTBS 240300Z 19012KT 9999 FEW020 33/24 Q1009 NOSIG
2026-04-24 02:30:00,METAR VTBS 240230Z 19012KT 9999 FEW020 33/25 Q1009 NOSIG
2026-04-24 02:00:00,METAR VTBS 240200Z 18010KT 9999 FEW020 32/25 Q1009 NOSIG
2026-04-24 01:30:00,METAR VTBS 240130Z 19011KT 9999 FEW020 31/24 Q1009 NOSIG
2026-04-24 01:00:00,METAR VTBS 240100Z 19010KT 9999 FEW020 31/25 Q1009 NOSIG
2026-04-24 00:30:00,METAR VTBS 240030Z 18008KT 9999 FEW020 31/25 Q1009 NOSIG
2026-04-24 00:00:00,METAR VTBS 240000Z 18006KT 9999 SCT020 30/25 Q1008 NOSIG
2026-04-23 23:30:00,METAR VTBS 232330Z 18006KT 9999 SCT020 30/25 Q1008 NOSIG
2026-04-23 23:00:00,METAR VTBS 232300Z 18008KT 9999 SCT020 30/25 Q1007 NOSIG
2026-04-23 22:30:00,METAR VTBS 232230Z 19008KT 9999 FEW020 30/25 Q1007 NOSIG
2026-04-23 22:00:00,METAR VTBS 232200Z 18009KT 9999 FEW020 30/25 Q1006 NOSIG
2026-04-23 21:30:00,METAR VTBS 232130Z 19009KT 9999 FEW020 30/25 Q1006 NOSIG
2026-04-23 21:00:00,METAR VTBS 232100Z 19010KT 9999 FEW020 30/25 Q1006 NOSIG
2026-04-23 20:30:00,METAR VTBS 232030Z 19011KT 9999 SCT020 30/25 Q1006 NOSIG
2026-04-23 20:00:00,METAR VTBS 232000Z 19009KT 9999 SCT019 SCT030 30/25 Q1006 NOSIG
2026-04-23 19:30:00,METAR VTBS 231930Z COR 20011KT 9999 SCT020 30/25 Q1006 NOSIG
2026-04-23 19:00:00,METAR VTBS 231900Z 18012KT 9999 FEW020 30/25 Q1006 NOSIG
2026-04-23 18:30:00,METAR VTBS 231830Z 18012KT 9999 FEW020 30/25 Q1006 NOSIG
2026-04-23 18:00:00,METAR VTBS 231800Z 19013KT 9999 FEW020 30/25 Q1007 NOSIG
2026-04-23 17:30:00,METAR VTBS 231730Z 19013KT 9999 FEW020 30/25 Q1007 NOSIG
2026-04-23 17:00:00,METAR VTBS 231700Z 19012KT 9999 SCT020 30/25 Q1008 NOSIG
2026-04-23 16:30:00,METAR VTBS 231630Z 20013KT 9999 SCT020 30/25 Q1008 NOSIG
2026-04-23 16:00:00,METAR VTBS 231600Z 19013KT 9999 SCT020 30/25 Q1008 NOSIG
2026-04-23 15:30:00,METAR VTBS 231530Z 18012KT 9999 SCT020 31/25 Q1008 NOSIG
2026-04-23 15:00:00,METAR VTBS 231500Z 19013KT 9999 FEW020 31/25 Q1008 NOSIG
2026-04-23 14:30:00,METAR VTBS 231430Z 19014KT 9999 FEW020 30/25 Q1007 NOSIG
2026-04-23 14:00:00,METAR VTBS 231400Z 19015KT 9999 SCT020 31/24 Q1007 NOSIG
2026-04-23 13:30:00,METAR VTBS 231330Z 20013KT 9999 SCT020 31/25 Q1007 NOSIG
2026-04-23 13:00:00,METAR VTBS 231300Z 20016KT 9999 FEW020 31/25 Q1006 NOSIG
2026-04-23 12:30:00,METAR VTBS 231230Z 19018KT 9999 FEW020 31/25 Q1006 NOSIG
2026-04-23 12:00:00,METAR VTBS 231200Z 20017KT 9999 FEW020 31/25 Q1006 NOSIG
2026-04-23 11:30:00,METAR VTBS 231130Z 20018KT 9999 FEW020 31/25 Q1005 NOSIG
2026-04-23 11:00:00,METAR VTBS 231100Z 19018KT 9999 FEW020 32/24 Q1004 NOSIG
2026-04-23 10:30:00,METAR VTBS 231030Z 19019KT 9999 FEW020 32/24 Q1004 NOSIG
2026-04-23 10:00:00,METAR VTBS 231000Z 19018KT 9999 FEW020 33/24 Q1004 NOSIG
2026-04-23 09:30:00,METAR VTBS 230930Z 19018KT 9999 FEW020 33/24 Q1004 NOSIG
2026-04-23 09:00:00,METAR VTBS 230900Z 18016KT 9999 FEW020 33/24 Q1004 NOSIG
2026-04-23 08:30:00,METAR VTBS 230830Z 19015KT 9999 FEW020 34/24 Q1004 NOSIG
2026-04-23 08:00:00,METAR VTBS 230800Z 19016KT 9999 FEW020 34/23 Q1005 NOSIG
2026-04-23 07:30:00,METAR VTBS 230730Z 20015KT 9999 FEW020 35/23 Q1005 NOSIG
2026-04-23 07:00:00,METAR VTBS 230700Z 20015KT 9999 FEW020 34/24 Q1006 NOSIG
2026-04-23 06:30:00,METAR VTBS 230630Z 19014KT 160V220 9999 FEW020 35/24 Q1006 NOSIG
2026-04-23 06:00:00,METAR VTBS 230600Z 20014KT 9999 FEW020 34/24 Q1007 NOSIG
2026-04-23 05:30:00,METAR VTBS 230530Z 19014KT 9999 FEW020 35/24 Q1007 NOSIG
2026-04-23 05:00:00,METAR VTBS 230500Z 18012KT 9999 FEW020 35/24 Q1007 NOSIG
2026-04-23 04:30:00,METAR VTBS 230430Z 20013KT 9999 FEW020 34/24 Q1008 NOSIG
2026-04-23 04:00:00,METAR VTBS 230400Z 19012KT 9999 FEW020 BKN100 33/24 Q1008 NOSIG
2026-04-23 03:30:00,METAR VTBS 230330Z 18014KT 9999 FEW020 BKN100 33/25 Q1008 NOSIG
2026-04-23 03:00:00,METAR VTBS 230300Z 18014KT 9999 FEW020 BKN100 33/25 Q1008 NOSIG
2026-04-23 02:30:00,METAR VTBS 230230Z 19012KT 9999 SCT020 BKN100 33/25 Q1008 NOSIG
2026-04-23 02:00:00,METAR VTBS 230200Z 19014KT 9999 SCT020 32/24 Q1008 NOSIG
2026-04-23 01:30:00,METAR VTBS 230130Z 19013KT 9999 SCT020 32/25 Q1008 NOSIG
2026-04-23 01:00:00,METAR VTBS 230100Z 20011KT 9999 FEW020 31/25 Q1008 NOSIG
2026-04-23 00:30:00,METAR VTBS 230030Z 19011KT 9999 FEW020 31/26 Q1007 NOSIG
2026-04-23 00:00:00,METAR VTBS 230000Z 19008KT 9999 FEW020 30/26 Q1007 NOSIG
2026-04-22 23:30:00,METAR VTBS 222330Z 18009KT 9999 FEW020 30/26 Q1007 NOSIG
2026-04-22 23:00:00,METAR VTBS 222300Z 18010KT 9999 FEW020 30/25 Q1006 NOSIG
2026-04-22 22:30:00,METAR VTBS 222230Z 18010KT 9999 FEW020 30/25 Q1006 NOSIG
2026-04-22 22:00:00,METAR VTBS 222200Z 19010KT 9999 FEW020 30/25 Q1006 NOSIG
2026-04-22 21:30:00,METAR VTBS 222130Z 19008KT 9999 FEW020 30/25 Q1006 NOSIG
2026-04-22 21:00:00,METAR VTBS 222100Z 19010KT 9999 FEW020 30/25 Q1006 NOSIG
2026-04-22 20:30:00,METAR VTBS 222030Z 19012KT 9999 FEW020 30/25 Q1005 NOSIG
2026-04-22 20:00:00,METAR VTBS 222000Z 20010KT 9999 FEW020 30/25 Q1005 NOSIG
2026-04-22 19:30:00,METAR VTBS 221930Z 19013KT 9999 FEW020 30/25 Q1005 NOSIG
2026-04-22 19:00:00,METAR VTBS 221900Z 20012KT 9999 FEW018 30/25 Q1006 NOSIG
2026-04-22 18:30:00,METAR VTBS 221830Z 19014KT 9999 FEW018 30/25 Q1006 NOSIG
2026-04-22 18:00:00,METAR VTBS 221800Z 19014KT 9999 FEW018 30/26 Q1006 NOSIG
2026-04-22 17:30:00,METAR VTBS 221730Z 19015KT 9999 SCT017 30/25 Q1006 NOSIG
2026-04-22 17:00:00,METAR VTBS 221700Z 19013KT 9999 SCT017 30/26 Q1006 NOSIG
2026-04-22 16:30:00,METAR VTBS 221630Z 19012KT 9999 FEW020 30/25 Q1007 NOSIG
2026-04-22 16:00:00,METAR VTBS 221600Z 18012KT 9999 FEW020 31/26 Q1007 NOSIG
2026-04-22 15:30:00,METAR VTBS 221530Z 18012KT 9999 FEW020 31/25 Q1007 NOSIG
2026-04-22 15:00:00,METAR VTBS 221500Z 19013KT 9999 FEW020 31/25 Q1006 NOSIG
2026-04-22 14:30:00,METAR VTBS 221430Z 19011KT 9999 FEW020 31/25 Q1006 NOSIG
2026-04-22 14:00:00,METAR VTBS 221400Z 19010KT 9999 FEW020 31/25 Q1006 NOSIG
2026-04-22 13:30:00,METAR VTBS 221330Z 19009KT 9999 FEW020 31/25 Q1006 NOSIG
2026-04-22 13:00:00,METAR VTBS 221300Z 19010KT 9999 FEW020 32/24 Q1005 NOSIG
2026-04-22 12:30:00,METAR VTBS 221230Z 19011KT 9999 FEW020 31/24 Q1005 NOSIG
2026-04-22 12:00:00,METAR VTBS 221200Z 19010KT 9999 FEW020 31/25 Q1005 NOSIG
2026-04-22 11:30:00,METAR VTBS 221130Z 19012KT 9999 FEW020 32/23 Q1004 NOSIG
2026-04-22 11:00:00,METAR VTBS 221100Z 19012KT 9999 FEW020 32/23 Q1005 NOSIG
2026-04-22 10:30:00,METAR VTBS 221030Z 20012KT 9999 FEW020 33/23 Q1004 NOSIG
2026-04-22 10:00:00,METAR VTBS 221000Z 20013KT 9999 FEW020 33/22 Q1004 NOSIG
2026-04-22 09:30:00,METAR VTBS 220930Z 20011KT 9999 FEW020 34/23 Q1004 NOSIG
2026-04-22 09:00:00,METAR VTBS 220900Z 18013KT 9999 FEW020 34/22 Q1005 NOSIG
2026-04-22 08:30:00,METAR VTBS 220830Z 19012KT 9999 FEW020 34/23 Q1005 NOSIG
2026-04-22 08:00:00,METAR VTBS 220800Z 19011KT 9999 FEW020 35/23 Q1005 NOSIG
2026-04-22 07:30:00,METAR VTBS 220730Z 22009KT 170V270 9999 FEW020 35/23 Q1005 NOSIG
2026-04-22 07:00:00,METAR VTBS 220700Z 21010KT 170V240 9999 FEW020 35/22 Q1006 NOSIG
2026-04-22 06:30:00,METAR VTBS 220630Z 19010KT 9999 FEW020 35/23 Q1006 NOSIG
2026-04-22 06:00:00,METAR VTBS 220600Z 21009KT 9999 FEW020 35/22 Q1007 NOSIG
2026-04-22 05:30:00,METAR VTBS 220530Z 19011KT 160V220 9999 FEW020 34/23 Q1008 NOSIG
2026-04-22 05:00:00,METAR VTBS 220500Z 20009KT 9999 FEW020 34/23 Q1008 NOSIG
2026-04-22 04:30:00,METAR VTBS 220430Z 21009KT 180V260 9999 FEW020 33/23 Q1009 NOSIG
2026-04-22 04:00:00,METAR VTBS 220400Z 21010KT 9999 FEW020 33/24 Q1009 NOSIG
2026-04-22 03:30:00,METAR VTBS 220330Z 21011KT 180V240 9999 FEW020 33/24 Q1009 NOSIG
2026-04-22 03:00:00,METAR VTBS 220300Z 23012KT 9999 FEW020 32/24 Q1010 NOSIG
2026-04-22 02:30:00,METAR VTBS 220230Z 19012KT 9999 FEW020 33/25 Q1009 NOSIG
2026-04-22 02:00:00,METAR VTBS 220200Z 20012KT 9999 FEW020 32/24 Q1009 NOSIG
2026-04-22 01:30:00,METAR VTBS 220130Z 18012KT 9999 FEW020 32/24 Q1009 NOSIG
2026-04-22 01:00:00,METAR VTBS 220100Z 19009KT 9999 FEW020 31/26 Q1009 NOSIG
2026-04-22 00:30:00,METAR VTBS 220030Z 18008KT 9999 FEW020 31/26 Q1008 NOSIG
2026-04-22 00:00:00,METAR VTBS 220000Z 18008KT 9999 FEW020 30/26 Q1008 NOSIG
2026-04-21 23:30:00,METAR VTBS 212330Z 18006KT 9999 FEW020 30/26 Q1007 NOSIG
2026-04-21 23:00:00,METAR VTBS 212300Z 18007KT 9999 FEW020 29/26 Q1007 NOSIG
2026-04-21 22:30:00,METAR VTBS 212230Z 18011KT 9999 FEW020 30/25 Q1007 NOSIG
2026-04-21 22:00:00,METAR VTBS 212200Z 18010KT 9999 FEW020 30/25 Q1006 NOSIG
2026-04-21 21:30:00,METAR VTBS 212130Z 18010KT 9999 FEW020 30/25 Q1006 NOSIG
2026-04-21 21:00:00,METAR VTBS 212100Z 18010KT 9999 SCT020 30/24 Q1006 NOSIG
2026-04-21 20:30:00,METAR VTBS 212030Z 19011KT 9999 SCT020 30/24 Q1006 NOSIG
2026-04-21 20:00:00,METAR VTBS 212000Z 18008KT 9999 SCT020 30/25 Q1006 NOSIG
2026-04-21 19:30:00,METAR VTBS 211930Z 18009KT 9999 SCT020 30/25 Q1006 NOSIG
2026-04-21 19:00:00,METAR VTBS 211900Z 18011KT 9999 FEW020 30/25 Q1007 NOSIG
2026-04-21 18:30:00,METAR VTBS 211830Z 19012KT 9999 FEW020 30/25 Q1007 NOSIG
2026-04-21 18:00:00,METAR VTBS 211800Z 19011KT 9999 FEW020 30/25 Q1007 NOSIG
2026-04-21 17:30:00,METAR VTBS 211730Z 19009KT 9999 FEW020 30/25 Q1008 NOSIG
2026-04-21 17:00:00,METAR VTBS 211700Z 19010KT 9999 FEW020 30/25 Q1008 NOSIG
2026-04-21 16:30:00,METAR VTBS 211630Z 19011KT 9999 FEW020 30/25 Q1008 NOSIG
2026-04-21 16:00:00,METAR VTBS 211600Z 17012KT 9999 FEW020 30/25 Q1008 NOSIG
2026-04-21 15:30:00,METAR VTBS 211530Z 18011KT 9999 FEW020 31/25 Q1008 NOSIG
2026-04-21 15:00:00,METAR VTBS 211500Z 19013KT 9999 FEW020 30/25 Q1008 NOSIG
2026-04-21 14:30:00,METAR VTBS 211430Z 19012KT 9999 FEW020 30/25 Q1008 NOSIG
2026-04-21 14:00:00,METAR VTBS 211400Z 19013KT 9999 FEW020 31/25 Q1007 NOSIG
2026-04-21 13:30:00,METAR VTBS 211330Z 19013KT 9999 FEW020 31/25 Q1007 NOSIG
2026-04-21 13:00:00,METAR VTBS 211300Z 19012KT 9999 FEW020 31/25 Q1006 NOSIG
2026-04-21 12:30:00,METAR VTBS 211230Z 19013KT 9999 FEW020 31/25 Q1006 NOSIG
2026-04-21 12:00:00,METAR VTBS 211200Z 19011KT 9999 FEW020 31/25 Q1005 NOSIG
2026-04-21 11:30:00,METAR VTBS 211130Z 19012KT 9999 FEW020 32/24 Q1005 NOSIG
2026-04-21 11:00:00,METAR VTBS 211100Z 18014KT 9999 FEW020 32/24 Q1005 NOSIG
2026-04-21 10:30:00,METAR VTBS 211030Z 19014KT 9999 FEW020 32/23 Q1005 NOSIG
2026-04-21 10:00:00,METAR VTBS 211000Z 19012KT 9999 FEW020 33/23 Q1005 NOSIG
2026-04-21 09:30:00,METAR VTBS 210930Z 20012KT 9999 FEW020 33/23 Q1005 NOSIG
2026-04-21 09:00:00,METAR VTBS 210900Z 20013KT 9999 FEW020 34/22 Q1005 NOSIG
2026-04-21 08:30:00,METAR VTBS 210830Z 19013KT 9999 FEW020 33/24 Q1006 NOSIG
2026-04-21 08:00:00,METAR VTBS 210800Z 20013KT 9999 FEW020 34/23 Q1006 NOSIG
2026-04-21 07:30:00,METAR VTBS 210730Z 20012KT 9999 FEW020 34/23 Q1006 NOSIG
2026-04-21 07:00:00,METAR VTBS 210700Z 20011KT 170V240 9999 FEW020 34/23 Q1007 NOSIG
2026-04-21 06:30:00,METAR VTBS 210630Z 20012KT 9999 FEW020 34/24 Q1007 NOSIG
2026-04-21 06:00:00,METAR VTBS 210600Z 20012KT 9999 FEW020 34/23 Q1007 NOSIG
2026-04-21 05:30:00,METAR VTBS 210530Z 19013KT 160V220 9999 FEW020 34/24 Q1008 NOSIG
2026-04-21 05:00:00,METAR VTBS 210500Z 19012KT 9999 FEW020 34/24 Q1008 NOSIG
2026-04-21 04:30:00,METAR VTBS 210430Z 19011KT 160V220 9999 FEW020 34/25 Q1009 NOSIG
2026-04-21 04:00:00,METAR VTBS 210400Z 20012KT 9999 FEW020 33/24 Q1009 NOSIG
2026-04-21 03:30:00,METAR VTBS 210330Z 20013KT 9999 FEW020 33/24 Q1009 NOSIG
2026-04-21 03:00:00,METAR VTBS 210300Z 20012KT 9999 FEW020 32/24 Q1009 NOSIG
2026-04-21 02:30:00,METAR VTBS 210230Z 19010KT 9999 SCT020 32/25 Q1009 NOSIG
2026-04-21 02:00:00,METAR VTBS 210200Z 14005KT 110V180 9999 SCT020 31/25 Q1009 NOSIG
2026-04-21 01:30:00,METAR VTBS 210130Z 13007KT 100V180 9999 SCT020 31/26 Q1009 NOSIG
2026-04-21 01:00:00,METAR VTBS 210100Z 11005KT 030V150 9999 SCT020 29/26 Q1009 NOSIG
2026-04-21 00:30:00,METAR VTBS 210030Z VRB04KT 9999 SCT020 29/26 Q1008 NOSIG
2026-04-21 00:00:00,METAR VTBS 210000Z 12005KT 9999 FEW020 29/26 Q1008 NOSIG
2026-04-20 23:30:00,METAR VTBS 202330Z 10006KT 9999 FEW020 28/26 Q1007 NOSIG
2026-04-20 23:00:00,METAR VTBS 202300Z 09006KT 9999 FEW020 28/26 Q1007 NOSIG
2026-04-20 22:30:00,METAR VTBS 202230Z 16006KT 080V180 9999 FEW020 30/26 Q1007 NOSIG
2026-04-20 22:00:00,METAR VTBS 202200Z 17007KT 9999 FEW020 29/26 Q1007 NOSIG
2026-04-20 21:30:00,METAR VTBS 202130Z 19008KT 9999 FEW020 30/25 Q1007 NOSIG
2026-04-20 21:00:00,METAR VTBS 202100Z 18007KT 9999 FEW020 30/25 Q1007 NOSIG
2026-04-20 20:30:00,METAR VTBS 202030Z 18009KT 9999 FEW020 30/25 Q1007 NOSIG
2026-04-20 20:00:00,METAR VTBS 202000Z 18009KT 9999 FEW020 30/25 Q1007 NOSIG
2026-04-20 19:30:00,METAR VTBS 201930Z 18009KT 9999 FEW020 30/25 Q1007 NOSIG
2026-04-20 19:00:00,METAR VTBS 201900Z 19010KT 9999 FEW020 30/25 Q1007 NOSIG
2026-04-20 18:30:00,METAR VTBS 201830Z 19009KT 9999 FEW020 30/25 Q1008 NOSIG
2026-04-20 18:00:00,METAR VTBS 201800Z 19012KT 9999 FEW020 30/25 Q1008 NOSIG
2026-04-20 17:30:00,METAR VTBS 201730Z 19011KT 9999 FEW020 30/25 Q1008 NOSIG
2026-04-20 17:00:00,METAR VTBS 201700Z 18010KT 9999 FEW020 31/24 Q1009 NOSIG
2026-04-20 16:30:00,METAR VTBS 201630Z 18010KT 9999 FEW020 31/24 Q1009 NOSIG
2026-04-20 16:00:00,METAR VTBS 201600Z 18009KT 9999 FEW020 31/24 Q1009 NOSIG
2026-04-20 15:30:00,METAR VTBS 201530Z 17010KT 9999 FEW020 31/24 Q1009 NOSIG
2026-04-20 15:00:00,METAR VTBS 201500Z 18011KT 9999 FEW020 31/24 Q1009 NOSIG
2026-04-20 14:30:00,METAR VTBS 201430Z 19014KT 9999 FEW020 31/24 Q1008 NOSIG
2026-04-20 14:00:00,METAR VTBS 201400Z 18013KT 9999 FEW020 31/25 Q1008 NOSIG
2026-04-20 13:30:00,METAR VTBS 201330Z 16009KT 130V190 9999 FEW020 31/24 Q1008 NOSIG
2026-04-20 13:00:00,METAR VTBS 201300Z 19013KT 9999 FEW020 31/26 Q1007 NOSIG
2026-04-20 12:30:00,METAR VTBS 201230Z 19012KT 9999 FEW020 31/25 Q1007 NOSIG
2026-04-20 12:00:00,METAR VTBS 201200Z 18011KT 9999 FEW020 32/25 Q1006 NOSIG
2026-04-20 11:30:00,METAR VTBS 201130Z 18011KT 9999 FEW020 32/24 Q1006 NOSIG
2026-04-20 11:00:00,METAR VTBS 201100Z 18011KT 9999 FEW020 32/24 Q1005 NOSIG
2026-04-20 10:30:00,METAR VTBS 201030Z 17011KT 9999 FEW020 33/23 Q1005 NOSIG
2026-04-20 10:00:00,METAR VTBS 201000Z 18015KT 9999 FEW020 33/24 Q1005 NOSIG
2026-04-20 09:30:00,METAR VTBS 200930Z 19016KT 9999 FEW020 33/22 Q1005 NOSIG
2026-04-20 09:00:00,METAR VTBS 200900Z 19014KT 9999 FEW020 34/21 Q1005 NOSIG
2026-04-20 08:30:00,METAR VTBS 200830Z 18013KT 160V220 9999 FEW020 34/23 Q1006 NOSIG
2026-04-20 08:00:00,METAR VTBS 200800Z 18013KT 9999 FEW020 34/23 Q1006 NOSIG
2026-04-20 07:30:00,METAR VTBS 200730Z 19012KT 150V220 9999 FEW020 34/23 Q1006 NOSIG
2026-04-20 07:00:00,METAR VTBS 200700Z 19014KT 160V220 9999 FEW020 34/24 Q1007 NOSIG
2026-04-20 06:30:00,METAR VTBS 200630Z 20012KT 9999 FEW020 34/24 Q1007 NOSIG
2026-04-20 06:00:00,METAR VTBS 200600Z 20012KT 160V240 9999 FEW020 SCT030 34/24 Q1008 NOSIG
2026-04-20 05:30:00,METAR VTBS 200530Z 20012KT 9999 FEW020 SCT030 34/24 Q1009 NOSIG
2026-04-20 05:00:00,METAR VTBS 200500Z 18011KT 9999 FEW020 SCT030 34/24 Q1009 NOSIG
2026-04-20 04:30:00,METAR VTBS 200430Z 19012KT 160V220 9999 FEW020 SCT030 34/25 Q1009 NOSIG
2026-04-20 04:00:00,METAR VTBS 200400Z 19012KT 9999 FEW020 SCT030 34/24 Q1009 NOSIG
2026-04-20 03:30:00,METAR VTBS 200330Z 19012KT 9999 FEW020 SCT035 33/24 Q1010 NOSIG
2026-04-20 03:00:00,METAR VTBS 200300Z 19013KT 9999 FEW025 33/24 Q1010 NOSIG
2026-04-20 02:30:00,METAR VTBS 200230Z 19013KT 160V220 9999 FEW025 33/25 Q1010 NOSIG
2026-04-20 02:00:00,METAR VTBS 200200Z 18012KT 9999 SCT020 32/24 Q1010 NOSIG
2026-04-20 01:30:00,METAR VTBS 200130Z 18013KT 9999 SCT020 32/25 Q1009 NOSIG
2026-04-20 01:00:00,METAR VTBS 200100Z 18012KT 9999 SCT020 31/25 Q1009 NOSIG
2026-04-20 00:30:00,METAR VTBS 200030Z 18009KT 9999 SCT020 31/25 Q1009 NOSIG
2026-04-20 00:00:00,METAR VTBS 200000Z 18008KT 140V200 9999 SCT020 30/25 Q1009 NOSIG
2026-04-19 23:30:00,METAR VTBS 192330Z 19008KT 9999 SCT020 30/26 Q1008 NOSIG
2026-04-19 23:00:00,METAR VTBS 192300Z 18008KT 9999 FEW020 30/25 Q1008 NOSIG
2026-04-19 22:30:00,METAR VTBS 192230Z 18009KT 9999 FEW020 30/25 Q1008 NOSIG
2026-04-19 22:00:00,METAR VTBS 192200Z 17007KT 9999 FEW020 30/25 Q1007 NOSIG
2026-04-19 21:30:00,METAR VTBS 192130Z 18008KT 9999 FEW020 30/25 Q1007 NOSIG
2026-04-19 21:00:00,METAR VTBS 192100Z 18008KT 9999 FEW020 30/25 Q1007 NOSIG
2026-04-19 20:30:00,METAR VTBS 192030Z 17009KT 9999 FEW020 31/24 Q1007 NOSIG
2026-04-19 20:00:00,METAR VTBS 192000Z 18008KT 9999 FEW020 30/25 Q1007 NOSIG
2026-04-19 19:30:00,METAR VTBS 191930Z 18010KT 9999 FEW020 30/25 Q1008 NOSIG
2026-04-19 19:00:00,METAR VTBS 191900Z 18012KT 9999 FEW020 31/24 Q1008 NOSIG
2026-04-19 18:30:00,METAR VTBS 191830Z 18011KT 9999 FEW020 31/24 Q1008 NOSIG
2026-04-19 18:00:00,METAR VTBS 191800Z 18012KT 9999 FEW020 31/24 Q1008 NOSIG
2026-04-19 17:30:00,METAR VTBS 191730Z 19010KT 9999 FEW020 30/24 Q1009 NOSIG
2026-04-19 17:00:00,METAR VTBS 191700Z 19010KT 9999 FEW020 30/24 Q1009 NOSIG
2026-04-19 16:30:00,METAR VTBS 191630Z 19011KT 9999 FEW020 31/24 Q1009 NOSIG
2026-04-19 16:00:00,METAR VTBS 191600Z 18012KT 9999 FEW020 31/24 Q1009 NOSIG
2026-04-19 15:30:00,METAR VTBS 191530Z 18014KT 9999 FEW020 31/24 Q1009 NOSIG
2026-04-19 15:00:00,METAR VTBS 191500Z 17011KT 9999 FEW020 31/25 Q1009 NOSIG
2026-04-19 14:30:00,METAR VTBS 191430Z 18014KT 9999 FEW020 31/24 Q1008 NOSIG
2026-04-19 14:00:00,METAR VTBS 191400Z 18014KT 9999 FEW020 32/23 Q1008 NOSIG
2026-04-19 13:30:00,METAR VTBS 191330Z 19015KT 9999 FEW020 31/24 Q1007 NOSIG
2026-04-19 13:00:00,METAR VTBS 191300Z 19015KT 9999 FEW020 31/25 Q1007 NOSIG
2026-04-19 12:30:00,METAR VTBS 191230Z 19013KT 9999 FEW020 31/24 Q1006 NOSIG
2026-04-19 12:00:00,METAR VTBS 191200Z 20013KT 9999 FEW020 32/24 Q1005 NOSIG
2026-04-19 11:30:00,METAR VTBS 191130Z 19013KT 9999 FEW020 32/23 Q1005 NOSIG
2026-04-19 11:00:00,METAR VTBS 191100Z 19012KT 9999 FEW020 33/22 Q1005 NOSIG
2026-04-19 10:30:00,METAR VTBS 191030Z 19015KT 9999 FEW020 33/22 Q1004 NOSIG
2026-04-19 10:00:00,METAR VTBS 191000Z 18015KT 9999 FEW020 33/21 Q1005 NOSIG
2026-04-19 09:30:00,METAR VTBS 190930Z 19013KT 9999 FEW020 34/21 Q1005 NOSIG
2026-04-19 09:00:00,METAR VTBS 190900Z 19013KT 9999 FEW020 35/22 Q1005 NOSIG
2026-04-19 08:30:00,METAR VTBS 190830Z 22012KT 9999 FEW020 35/22 Q1005 NOSIG
2026-04-19 08:00:00,METAR VTBS 190800Z 20011KT 170V240 9999 FEW020 35/22 Q1005 NOSIG
2026-04-19 07:30:00,METAR VTBS 190730Z 19011KT 9999 FEW020 34/23 Q1006 NOSIG
2026-04-19 07:00:00,METAR VTBS 190700Z 20010KT 170V230 9999 FEW020 35/23 Q1007 NOSIG
2026-04-19 06:30:00,METAR VTBS 190630Z 20011KT 9999 FEW020 35/23 Q1007 NOSIG
2026-04-19 06:00:00,METAR VTBS 190600Z 19011KT 160V220 9999 FEW020 35/24 Q1008 NOSIG
2026-04-19 05:30:00,METAR VTBS 190530Z 19011KT 160V220 9999 FEW020 35/24 Q1008 NOSIG
2026-04-19 05:00:00,METAR VTBS 190500Z 19011KT 160V220 9999 FEW020 35/24 Q1009 NOSIG
2026-04-19 04:30:00,METAR VTBS 190430Z 19011KT 9999 FEW020 34/24 Q1009 NOSIG
2026-04-19 04:00:00,METAR VTBS 190400Z 20012KT 9999 FEW020 33/24 Q1010 NOSIG
2026-04-19 03:30:00,METAR VTBS 190330Z 18013KT 160V240 9999 FEW020 33/24 Q1009 NOSIG
2026-04-19 03:00:00,METAR VTBS 190300Z 20012KT 9999 FEW020 33/24 Q1010 NOSIG
2026-04-19 02:30:00,METAR VTBS 190230Z 18013KT 9999 FEW020 33/24 Q1010 NOSIG
2026-04-19 02:00:00,METAR VTBS 190200Z 18014KT 9999 FEW020 33/25 Q1009 NOSIG
2026-04-19 01:30:00,METAR VTBS 190130Z 21014KT 9999 FEW020 32/24 Q1009 NOSIG
2026-04-19 01:00:00,METAR VTBS 190100Z 19013KT 9999 FEW020 31/24 Q1009 NOSIG
2026-04-19 00:30:00,METAR VTBS 190030Z 18012KT 9999 FEW020 31/25 Q1008 NOSIG
2026-04-19 00:00:00,METAR VTBS 190000Z 18010KT 9999 FEW020 30/25 Q1008 NOSIG
2026-04-18 23:30:00,METAR VTBS 182330Z 18009KT 9999 FEW020 30/25 Q1008 NOSIG
2026-04-18 23:00:00,METAR VTBS 182300Z 18010KT 9999 FEW020 30/25 Q1008 NOSIG
2026-04-18 22:30:00,METAR VTBS 182230Z 18009KT 9999 FEW020 30/25 Q1007 NOSIG
2026-04-18 22:00:00,METAR VTBS 182200Z 18010KT 9999 FEW020 30/25 Q1007 NOSIG
2026-04-18 21:30:00,METAR VTBS 182130Z 18009KT 9999 FEW020 30/24 Q1007 NOSIG
2026-04-18 21:00:00,METAR VTBS 182100Z 19009KT 9999 FEW020 SCT100 30/25 Q1007 NOSIG
2026-04-18 20:30:00,METAR VTBS 182030Z 19010KT 9999 FEW020 SCT100 30/25 Q1007 NOSIG
2026-04-18 20:00:00,METAR VTBS 182000Z 19011KT 9999 FEW020 BKN100 30/25 Q1007 NOSIG
2026-04-18 19:30:00,METAR VTBS 181930Z 18011KT 9999 FEW020 SCT100 30/25 Q1007 NOSIG
2026-04-18 19:00:00,METAR VTBS 181900Z 18011KT 9999 FEW020 BKN100 30/25 Q1008 NOSIG
2026-04-18 18:30:00,METAR VTBS 181830Z 18009KT 9999 FEW020 30/25 Q1008 NOSIG
2026-04-18 18:00:00,METAR VTBS 181800Z 19011KT 9999 FEW020 30/25 Q1008 NOSIG
2026-04-18 17:30:00,METAR VTBS 181730Z 18010KT 9999 FEW020 31/25 Q1008 NOSIG
2026-04-18 17:00:00,METAR VTBS 181700Z 19010KT 9999 FEW020 30/24 Q1008 NOSIG
2026-04-18 16:30:00,METAR VTBS 181630Z 19012KT 9999 FEW020 30/24 Q1008 NOSIG
2026-04-18 16:00:00,METAR VTBS 181600Z 19013KT 9999 FEW020 31/24 Q1008 NOSIG
2026-04-18 15:00:00,METAR VTBS 181500Z 19011KT 9999 FEW020 31/23 Q1008 NOSIG
2026-04-18 14:30:00,METAR VTBS 181430Z 19012KT 9999 FEW020 31/24 Q1008 NOSIG
2026-04-18 14:00:00,METAR VTBS 181400Z 20011KT 9999 FEW020 31/24 Q1007 NOSIG
2026-04-18 13:30:00,METAR VTBS 181330Z 20010KT 9999 FEW020 31/25 Q1007 NOSIG
2026-04-18 13:00:00,METAR VTBS 181300Z 20012KT 9999 FEW020 31/24 Q1007 NOSIG
2026-04-18 12:30:00,METAR VTBS 181230Z 20013KT 9999 FEW020 31/24 Q1006 NOSIG
2026-04-18 12:00:00,METAR VTBS 181200Z 19012KT 9999 FEW020 32/23 Q1006 NOSIG
2026-04-18 11:30:00,METAR VTBS 181130Z 21012KT 9999 FEW020 32/23 Q1005 NOSIG
2026-04-18 11:00:00,METAR VTBS 181100Z 19013KT 9999 FEW020 33/22 Q1005 NOSIG
2026-04-18 10:30:00,METAR VTBS 181030Z 21011KT 9999 FEW020 34/21 Q1005 NOSIG
2026-04-18 10:00:00,METAR VTBS 181000Z 20010KT 9999 FEW020 34/22 Q1005 NOSIG
2026-04-18 09:30:00,METAR VTBS 180930Z 21010KT 180V240 9999 FEW020 35/20 Q1005 NOSIG
2026-04-18 09:00:00,METAR VTBS 180900Z 21010KT 180V240 9999 FEW020 35/21 Q1005 NOSIG
2026-04-18 08:30:00,METAR VTBS 180830Z 21010KT 9999 FEW020 35/24 Q1005 NOSIG
2026-04-18 08:00:00,METAR VTBS 180800Z 21010KT 170V250 9999 FEW020 35/24 Q1006 NOSIG
2026-04-18 07:30:00,METAR VTBS 180730Z 19010KT 160V220 9999 FEW020 35/25 Q1006 NOSIG
2026-04-18 07:00:00,METAR VTBS 180700Z 18011KT 9999 FEW020 35/25 Q1007 NOSIG
2026-04-18 06:30:00,METAR VTBS 180630Z 20008KT 160V260 9999 FEW020 35/25 Q1007 NOSIG
2026-04-18 06:00:00,METAR VTBS 180600Z 20008KT 160V240 9999 FEW020 35/25 Q1008 NOSIG
2026-04-18 05:30:00,METAR VTBS 180530Z 19009KT 170V230 9999 FEW020 35/24 Q1008 NOSIG
2026-04-18 05:00:00,METAR VTBS 180500Z 20011KT 160V240 9999 FEW020 35/25 Q1009 NOSIG
2026-04-18 04:30:00,METAR VTBS 180430Z 19010KT 150V230 9999 FEW020 35/25 Q1009 NOSIG
2026-04-18 04:00:00,METAR VTBS 180400Z 20009KT 150V230 9999 FEW020 34/24 Q1009 NOSIG
2026-04-18 03:30:00,METAR VTBS 180330Z 21008KT 180V240 9999 SCT025 33/24 Q1010 NOSIG
2026-04-18 03:00:00,METAR VTBS 180300Z 21008KT 170V240 9999 SCT025 33/24 Q1010 NOSIG
2026-04-18 02:30:00,METAR VTBS 180230Z 19007KT 160V230 9999 SCT020 32/24 Q1010 NOSIG
2026-04-18 02:00:00,METAR VTBS 180200Z 17007KT 140V200 9999 SCT020 32/24 Q1010 NOSIG
2026-04-18 01:30:00,METAR VTBS 180130Z 16009KT 9999 SCT020 32/25 Q1010 NOSIG
2026-04-18 01:00:00,METAR VTBS 180100Z 16009KT 130V190 9999 SCT020 31/25 Q1009 NOSIG
2026-04-18 00:30:00,METAR VTBS 180030Z 16008KT 120V190 9999 FEW020 30/25 Q1009 NOSIG
2026-04-18 00:00:00,METAR VTBS 180000Z 16005KT 9999 FEW020 30/26 Q1008 NOSIG
2026-04-17 23:30:00,METAR VTBS 172330Z 16005KT 120V190 9999 FEW017 29/26 Q1008 NOSIG
2026-04-17 23:00:00,METAR VTBS 172300Z 13006KT 9999 FEW017 29/26 Q1008 NOSIG
2026-04-17 22:30:00,METAR VTBS 172230Z 15005KT 9999 FEW020 30/25 Q1008 NOSIG
2026-04-17 22:00:00,METAR VTBS 172200Z 18005KT 9999 FEW020 29/25 Q1007 NOSIG
2026-04-17 21:30:00,METAR VTBS 172130Z 18006KT 9999 FEW020 30/25 Q1007 NOSIG
2026-04-17 21:00:00,METAR VTBS 172100Z 19007KT 9999 FEW020 29/25 Q1007 NOSIG
2026-04-17 20:30:00,METAR VTBS 172030Z 18008KT 9999 FEW017 30/25 Q1007 NOSIG
2026-04-17 20:00:00,METAR VTBS 172000Z 18007KT 9999 FEW017 30/25 Q1007 NOSIG
2026-04-17 19:30:00,METAR VTBS 171930Z 19007KT 9999 FEW017 30/25 Q1008 NOSIG
2026-04-17 19:00:00,METAR VTBS 171900Z 19008KT 9999 FEW020 30/25 Q1008 NOSIG
2026-04-17 18:30:00,METAR VTBS 171830Z 19010KT 9999 FEW020 30/25 Q1008 NOSIG
2026-04-17 18:00:00,METAR VTBS 171800Z 18010KT 9999 FEW020 30/25 Q1009 NOSIG
2026-04-17 17:30:00,METAR VTBS 171730Z 18010KT 9999 FEW020 30/25 Q1009 NOSIG
2026-04-17 17:00:00,METAR VTBS 171700Z 18010KT 9999 FEW020 30/25 Q1009 NOSIG
2026-04-17 16:30:00,METAR VTBS 171630Z 19012KT 9999 FEW020 31/25 Q1009 NOSIG
2026-04-17 16:00:00,METAR VTBS 171600Z 19011KT 9999 FEW020 31/24 Q1009 NOSIG
2026-04-17 15:30:00,METAR VTBS 171530Z 18009KT 9999 FEW020 31/24 Q1010 NOSIG
2026-04-17 15:00:00,METAR VTBS 171500Z 18009KT 9999 FEW020 31/23 Q1009 NOSIG
2026-04-17 14:30:00,METAR VTBS 171430Z 18010KT 9999 FEW020 32/23 Q1009 NOSIG
2026-04-17 14:00:00,METAR VTBS 171400Z 19011KT 9999 FEW020 31/24 Q1008 NOSIG
2026-04-17 13:30:00,METAR VTBS 171330Z 19011KT 9999 FEW020 31/25 Q1008 NOSIG
2026-04-17 13:00:00,METAR VTBS 171300Z 20013KT 9999 FEW020 31/25 Q1007 NOSIG
2026-04-17 12:30:00,METAR VTBS 171230Z 19014KT 9999 FEW020 32/23 Q1007 NOSIG
2026-04-17 12:00:00,METAR VTBS 171200Z 19013KT 9999 FEW020 32/23 Q1007 NOSIG
2026-04-17 11:30:00,METAR VTBS 171130Z 20012KT 9999 FEW020 32/21 Q1006 NOSIG
2026-04-17 11:00:00,METAR VTBS 171100Z 19014KT 9999 FEW020 33/22 Q1006 NOSIG
2026-04-17 10:30:00,METAR VTBS 171030Z 20013KT 9999 FEW020 33/21 Q1006 NOSIG
2026-04-17 10:00:00,METAR VTBS 171000Z 19014KT 9999 FEW020 34/22 Q1005 NOSIG
2026-04-17 09:30:00,METAR VTBS 170930Z 21012KT 9999 FEW020 35/23 Q1005 NOSIG
2026-04-17 09:00:00,METAR VTBS 170900Z 21012KT 9999 FEW020 35/22 Q1005 NOSIG
2026-04-17 08:30:00,METAR VTBS 170830Z 21011KT 9999 FEW020 35/23 Q1006 NOSIG
2026-04-17 08:00:00,METAR VTBS 170800Z 21011KT 180V250 9999 FEW020 35/23 Q1006 NOSIG
2026-04-17 07:30:00,METAR VTBS 170730Z 21009KT 170V260 9999 FEW020 35/24 Q1007 NOSIG
2026-04-17 07:00:00,METAR VTBS 170700Z 19011KT 9999 FEW020 34/23 Q1007 NOSIG
2026-04-17 06:30:00,METAR VTBS 170630Z 19010KT 170V230 9999 FEW020 35/24 Q1008 NOSIG
2026-04-17 06:00:00,METAR VTBS 170600Z 21012KT 170V240 9999 FEW020 SCT030 35/24 Q1008 NOSIG
2026-04-17 05:30:00,METAR VTBS 170530Z 19011KT 9999 FEW020 SCT030 34/24 Q1009 NOSIG
2026-04-17 05:00:00,METAR VTBS 170500Z 19010KT 150V230 9999 FEW020 SCT030 34/24 Q1010 NOSIG
2026-04-17 04:30:00,METAR VTBS 170430Z 18011KT 150V210 9999 FEW020 SCT030 34/25 Q1010 NOSIG
2026-04-17 04:00:00,METAR VTBS 170400Z 19012KT 9999 FEW020 SCT030 34/24 Q1010 NOSIG
2026-04-17 03:30:00,METAR VTBS 170330Z 19014KT 9999 FEW020 SCT030 33/25 Q1010 NOSIG
2026-04-17 03:00:00,METAR VTBS 170300Z 18014KT 9999 FEW020 SCT030 33/25 Q1010 NOSIG
2026-04-17 02:30:00,METAR VTBS 170230Z 19012KT 9999 FEW020 SCT030 32/25 Q1011 NOSIG
2026-04-17 02:00:00,METAR VTBS 170200Z 18012KT 9999 FEW020 SCT030 32/25 Q1010 NOSIG
2026-04-17 01:30:00,METAR VTBS 170130Z 17013KT 9999 SCT020 32/25 Q1010 NOSIG
2026-04-17 01:00:00,METAR VTBS 170100Z 18013KT 9999 SCT020 31/25 Q1010 NOSIG
2026-04-17 00:30:00,METAR VTBS 170030Z 18013KT 9999 FEW020 31/25 Q1009 NOSIG
2026-04-17 00:00:00,METAR VTBS 170000Z 18011KT 9999 FEW020 30/25 Q1009 NOSIG
2026-04-16 23:30:00,METAR VTBS 162330Z 18009KT 9999 FEW020 30/25 Q1008 NOSIG
2026-04-16 23:00:00,METAR VTBS 162300Z 18008KT 9999 BKN020 30/25 Q1008 NOSIG
2026-04-16 22:30:00,METAR VTBS 162230Z 19010KT 9999 BKN020 30/25 Q1008 NOSIG
2026-04-16 22:00:00,METAR VTBS 162200Z 19006KT 150V210 9999 BKN020 30/25 Q1008 NOSIG
2026-04-16 21:30:00,METAR VTBS 162130Z 20007KT 9999 SCT020 30/25 Q1008 NOSIG
2026-04-16 21:00:00,METAR VTBS 162100Z 19007KT 9999 FEW020 30/25 Q1007 NOSIG
2026-04-16 20:30:00,METAR VTBS 162030Z 19009KT 9999 SCT018 30/25 Q1007 NOSIG
2026-04-16 20:00:00,METAR VTBS 162000Z 18010KT 9999 SCT018 30/25 Q1007 NOSIG
2026-04-16 19:30:00,METAR VTBS 161930Z 19011KT 9999 FEW020 30/25 Q1007 NOSIG
2026-04-16 19:00:00,METAR VTBS 161900Z 19011KT 9999 FEW020 30/25 Q1008 NOSIG
2026-04-16 18:30:00,METAR VTBS 161830Z 19012KT 9999 SCT017 30/26 Q1008 NOSIG
2026-04-16 18:00:00,METAR VTBS 161800Z 19011KT 9999 SCT017 30/26 Q1008 NOSIG
2026-04-16 17:30:00,METAR VTBS 161730Z 20013KT 9999 FEW015 30/26 Q1008 NOSIG
2026-04-16 17:00:00,METAR VTBS 161700Z 20013KT 9999 FEW015 30/26 Q1008 NOSIG
2026-04-16 16:30:00,METAR VTBS 161630Z 20012KT 9999 FEW015 30/26 Q1008 NOSIG
2026-04-16 16:00:00,METAR VTBS 161600Z 20012KT 9999 FEW020 30/26 Q1008 NOSIG
2026-04-16 15:30:00,METAR VTBS 161530Z 20012KT 9999 FEW020 31/26 Q1008 NOSIG
2026-04-16 15:00:00,METAR VTBS 161500Z 20011KT 9999 FEW020 31/26 Q1008 NOSIG
2026-04-16 14:30:00,METAR VTBS 161430Z 21013KT 9999 FEW020 31/26 Q1007 NOSIG
2026-04-16 14:00:00,METAR VTBS 161400Z 20012KT 9999 FEW020 31/25 Q1007 NOSIG
2026-04-16 13:30:00,METAR VTBS 161330Z 19011KT 9999 FEW020 31/25 Q1007 NOSIG
2026-04-16 13:00:00,METAR VTBS 161300Z 20011KT 9999 FEW020 31/25 Q1006 NOSIG
2026-04-16 12:30:00,METAR VTBS 161230Z 19012KT 9999 FEW020 31/25 Q1006 NOSIG
2026-04-16 12:00:00,METAR VTBS 161200Z 19011KT 9999 FEW020 31/24 Q1006 NOSIG
2026-04-16 11:30:00,METAR VTBS 161130Z 20011KT 9999 FEW020 32/24 Q1005 NOSIG
2026-04-16 11:00:00,METAR VTBS 161100Z 20010KT 9999 FEW020 34/21 Q1005 NOSIG
2026-04-16 10:30:00,METAR VTBS 161030Z 20010KT 9999 FEW020 34/21 Q1005 NOSIG
2026-04-16 10:00:00,METAR VTBS 161000Z 22011KT 9999 FEW020 35/20 Q1005 NOSIG
2026-04-16 09:30:00,METAR VTBS 160930Z 21010KT 9999 FEW020 35/21 Q1005 NOSIG
2026-04-16 09:00:00,METAR VTBS 160900Z 21010KT 9999 FEW020 36/21 Q1005 NOSIG
2026-04-16 08:30:00,METAR VTBS 160830Z 21009KT 9999 FEW020 36/21 Q1005 NOSIG
2026-04-16 08:00:00,METAR VTBS 160800Z 21010KT 160V240 9999 FEW020 36/21 Q1006 NOSIG
2026-04-16 07:30:00,METAR VTBS 160730Z 20010KT 9999 FEW020 36/22 Q1006 NOSIG
2026-04-16 07:00:00,METAR VTBS 160700Z 20009KT 140V220 9999 FEW020 36/22 Q1007 NOSIG
2026-04-16 06:30:00,METAR VTBS 160630Z 18010KT 160V220 9999 FEW020 35/23 Q1007 NOSIG
2026-04-16 06:00:00,METAR VTBS 160600Z 20009KT 160V240 9999 FEW020 35/23 Q1008 NOSIG
2026-04-16 05:30:00,METAR VTBS 160530Z 20009KT 160V230 9999 FEW020 35/24 Q1009 NOSIG
2026-04-16 05:00:00,METAR VTBS 160500Z 19008KT 140V230 9999 FEW020 34/24 Q1009 NOSIG
2026-04-16 04:30:00,METAR VTBS 160430Z 20009KT 150V240 9999 FEW020 34/24 Q1009 NOSIG
2026-04-16 04:00:00,METAR VTBS 160400Z 18008KT 150V210 9999 FEW020 34/24 Q1009 NOSIG
2026-04-16 03:30:00,METAR VTBS 160330Z 17009KT 140V200 9999 FEW020 34/24 Q1010 NOSIG
2026-04-16 03:00:00,METAR VTBS 160300Z 19008KT 140V240 9999 SCT020 33/24 Q1010 NOSIG
2026-04-16 02:30:00,METAR VTBS 160230Z 18006KT 140V210 9999 SCT020 33/24 Q1010 NOSIG
2026-04-16 02:00:00,METAR VTBS 160200Z 18006KT 9999 SCT020 33/25 Q1010 NOSIG
2026-04-16 01:30:00,METAR VTBS 160130Z 19008KT 160V220 9999 SCT020 32/25 Q1009 NOSIG
2026-04-16 01:00:00,METAR VTBS 160100Z 19011KT 9999 SCT020 31/25 Q1009 NOSIG
2026-04-16 00:30:00,METAR VTBS 160030Z 20010KT 9999 FEW018 30/25 Q1008 NOSIG
2026-04-16 00:00:00,METAR VTBS 160000Z 20008KT 9999 SCT018 30/26 Q1008 NOSIG
2026-04-15 23:30:00,METAR VTBS 152330Z 19008KT 9999 FEW020 30/25 Q1008 NOSIG
2026-04-15 23:00:00,METAR VTBS 152300Z 19008KT 9999 FEW020 30/25 Q1007 NOSIG
2026-04-15 22:30:00,METAR VTBS 152230Z 19010KT 9999 FEW020 29/26 Q1007 NOSIG
2026-04-15 22:00:00,METAR VTBS 152200Z 19011KT 9999 FEW020 29/26 Q1006 NOSIG
2026-04-15 21:30:00,METAR VTBS 152130Z 19011KT 9999 SCT018 29/26 Q1006 NOSIG
2026-04-15 21:00:00,METAR VTBS 152100Z 19010KT 9999 SCT018 30/25 Q1006 NOSIG
2026-04-15 20:30:00,METAR VTBS 152030Z 19012KT 9999 SCT018 30/25 Q1006 NOSIG
2026-04-15 20:00:00,METAR VTBS 152000Z 19012KT 9999 FEW018 30/25 Q1007 NOSIG
2026-04-15 19:30:00,METAR VTBS 151930Z 20011KT 9999 FEW018 30/25 Q1007 NOSIG
2026-04-15 19:00:00,METAR VTBS 151900Z 19010KT 9999 FEW018 30/25 Q1007 NOSIG
2026-04-15 18:30:00,METAR VTBS 151830Z 20013KT 9999 FEW018 30/25 Q1007 NOSIG
2026-04-15 18:00:00,METAR VTBS 151800Z 19011KT 9999 FEW018 30/25 Q1007 NOSIG
2026-04-15 17:30:00,METAR VTBS 151730Z 19012KT 9999 FEW018 30/25 Q1008 NOSIG
2026-04-15 17:00:00,METAR VTBS 151700Z 20010KT 9999 FEW030 30/25 Q1008 NOSIG
2026-04-15 16:30:00,METAR VTBS 151630Z 21009KT 9999 FEW030 30/25 Q1008 NOSIG
2026-04-15 16:00:00,METAR VTBS 151600Z 20009KT 9999 FEW030 30/24 Q1008 NOSIG
2026-04-15 15:30:00,METAR VTBS 151530Z 20010KT 9999 FEW030 31/25 Q1008 NOSIG
2026-04-15 15:00:00,METAR VTBS 151500Z 20009KT 9999 FEW030 31/25 Q1007 NOSIG
2026-04-15 14:30:00,METAR VTBS 151430Z 20010KT 9999 FEW030 31/25 Q1007 NOSIG
2026-04-15 14:00:00,METAR VTBS 151400Z 21008KT 9999 FEW030 31/26 Q1007 NOSIG
2026-04-15 13:30:00,METAR VTBS 151330Z 21008KT 9999 FEW030 31/25 Q1006 NOSIG
2026-04-15 13:00:00,METAR VTBS 151300Z 21008KT 9999 FEW030 32/25 Q1006 NOSIG
2026-04-15 12:30:00,METAR VTBS 151230Z 20009KT 9999 FEW030 32/24 Q1005 NOSIG
2026-04-15 12:00:00,METAR VTBS 151200Z 20009KT 9999 FEW030 32/24 Q1005 NOSIG
2026-04-15 11:30:00,METAR VTBS 151130Z 19009KT 9999 FEW030 32/23 Q1005 NOSIG
2026-04-15 11:00:00,METAR VTBS 151100Z 19010KT 9999 FEW030 34/22 Q1005 NOSIG
2026-04-15 10:30:00,METAR VTBS 151030Z 20008KT 9999 FEW030 34/21 Q1005 NOSIG
2026-04-15 10:00:00,METAR VTBS 151000Z 19010KT 9999 FEW030 34/22 Q1005 NOSIG
2026-04-15 09:30:00,METAR VTBS 150930Z 19012KT 9999 FEW030 34/22 Q1005 NOSIG
2026-04-15 09:00:00,METAR VTBS 150900Z 19010KT 9999 FEW020 34/23 Q1005 NOSIG
2026-04-15 08:30:00,METAR VTBS 150830Z 19011KT 160V230 9999 FEW020 35/23 Q1005 NOSIG
2026-04-15 08:00:00,METAR VTBS 150800Z 22011KT 9999 FEW020 35/22 Q1006 NOSIG
2026-04-15 07:30:00,METAR VTBS 150730Z 20012KT 170V240 9999 FEW020 34/23 Q1006 NOSIG
2026-04-15 07:00:00,METAR VTBS 150700Z 20011KT 9999 FEW020 35/24 Q1007 NOSIG
2026-04-15 06:30:00,METAR VTBS 150630Z 18011KT 9999 FEW020 35/23 Q1008 NOSIG
2026-04-15 06:00:00,METAR VTBS 150600Z 19011KT 160V240 9999 FEW020 35/23 Q1008 NOSIG
2026-04-15 05:30:00,METAR VTBS 150530Z 20010KT 170V230 9999 FEW020 34/24 Q1009 NOSIG
2026-04-15 05:00:00,METAR VTBS 150500Z 19010KT 160V230 9999 SCT020 34/24 Q1009 NOSIG
2026-04-15 04:30:00,METAR VTBS 150430Z 19011KT 9999 SCT020 34/25 Q1010 NOSIG
2026-04-15 04:00:00,METAR VTBS 150400Z 19010KT 150V220 9999 SCT020 34/24 Q1010 NOSIG
2026-04-15 03:30:00,METAR VTBS 150330Z 19012KT 160V220 9999 SCT020 34/25 Q1010 NOSIG
2026-04-15 03:00:00,METAR VTBS 150300Z 18013KT 9999 SCT020 33/24 Q1010 NOSIG
2026-04-15 02:30:00,METAR VTBS 150230Z 19010KT 9999 SCT020 32/25 Q1010 NOSIG
2026-04-15 02:00:00,METAR VTBS 150200Z 19010KT 9999 SCT020 32/24 Q1010 NOSIG
2026-04-15 01:30:00,METAR VTBS 150130Z 20012KT 9999 SCT020 31/25 Q1009 NOSIG
2026-04-15 01:00:00,METAR VTBS 150100Z 18010KT 9999 SCT020 31/26 Q1009 NOSIG
2026-04-15 00:30:00,METAR VTBS 150030Z 17010KT 9999 FEW020 31/26 Q1008 NOSIG
2026-04-15 00:00:00,METAR VTBS 150000Z 17008KT 9999 SCT020 30/26 Q1008 NOSIG
2026-04-14 23:30:00,METAR VTBS 142330Z 18008KT 9999 FEW020 30/26 Q1007 NOSIG
2026-04-14 23:00:00,METAR VTBS 142300Z 17006KT 9999 FEW020 29/25 Q1007 NOSIG
2026-04-14 22:30:00,METAR VTBS 142230Z 18006KT 9999 FEW020 29/25 Q1006 NOSIG
2026-04-14 22:00:00,METAR VTBS 142200Z 18007KT 9999 FEW020 30/25 Q1006 NOSIG
2026-04-14 21:30:00,METAR VTBS 142130Z 18005KT 9999 FEW020 29/25 Q1006 NOSIG
2026-04-14 21:00:00,METAR VTBS 142100Z 20004KT 9999 FEW020 29/25 Q1006 NOSIG
2026-04-14 20:30:00,METAR VTBS 142030Z 20007KT 9999 FEW020 29/26 Q1006 NOSIG
2026-04-14 20:00:00,METAR VTBS 142000Z 21006KT 9999 FEW020 30/26 Q1006 NOSIG
2026-04-14 19:30:00,METAR VTBS 141930Z 20007KT 9999 FEW020 30/26 Q1006 NOSIG
2026-04-14 19:00:00,METAR VTBS 141900Z 19011KT 9999 FEW020 30/26 Q1006 NOSIG
2026-04-14 18:30:00,METAR VTBS 141830Z 19010KT 9999 FEW020 30/26 Q1007 NOSIG
2026-04-14 18:00:00,METAR VTBS 141800Z 18010KT 9999 FEW015 30/26 Q1007 NOSIG
2026-04-14 17:30:00,METAR VTBS 141730Z 19011KT 9999 FEW030 30/26 Q1008 NOSIG
2026-04-14 17:00:00,METAR VTBS 141700Z 19011KT 9999 FEW030 30/25 Q1008 NOSIG
2026-04-14 16:30:00,METAR VTBS 141630Z 19011KT 9999 FEW030 30/25 Q1008 NOSIG
2026-04-14 16:00:00,METAR VTBS 141600Z 19010KT 9999 FEW030 30/26 Q1008 NOSIG
2026-04-14 15:30:00,METAR VTBS 141530Z 21009KT 9999 FEW030 31/25 Q1008 NOSIG
2026-04-14 15:00:00,METAR VTBS 141500Z 22009KT 9999 FEW030 31/24 Q1008 NOSIG
2026-04-14 14:30:00,METAR VTBS 141430Z 20010KT 9999 FEW030 31/25 Q1008 NOSIG
2026-04-14 14:00:00,METAR VTBS 141400Z 19011KT 9999 FEW030 31/24 Q1007 NOSIG
2026-04-14 13:30:00,METAR VTBS 141330Z 19011KT 9999 FEW030 31/24 Q1007 NOSIG
2026-04-14 13:00:00,METAR VTBS 141300Z 19010KT 9999 FEW030 31/24 Q1007 NOSIG
2026-04-14 12:30:00,METAR VTBS 141230Z 19009KT 9999 FEW030 32/23 Q1007 NOSIG
2026-04-14 12:00:00,METAR VTBS 141200Z 19011KT 9999 FEW030 31/24 Q1006 NOSIG
2026-04-14 11:30:00,METAR VTBS 141130Z 20011KT 9999 FEW030 32/23 Q1006 NOSIG
2026-04-14 11:00:00,METAR VTBS 141100Z 20011KT 9999 FEW030 33/22 Q1006 NOSIG
2026-04-14 10:30:00,METAR VTBS 141030Z 19012KT 9999 FEW030 34/22 Q1006 NOSIG
2026-04-14 10:00:00,METAR VTBS 141000Z 19014KT 9999 FEW030 34/22 Q1006 NOSIG
2026-04-14 09:30:00,METAR VTBS 140930Z 19014KT 9999 FEW030 35/21 Q1006 NOSIG
2026-04-14 09:00:00,METAR VTBS 140900Z 21012KT 9999 FEW030 36/17 Q1006 NOSIG
2026-04-14 08:30:00,METAR VTBS 140830Z 21009KT 9999 FEW030 37/19 Q1006 NOSIG
2026-04-14 08:00:00,METAR VTBS 140800Z 19008KT 160V220 9999 FEW030 36/21 Q1007 NOSIG
2026-04-14 07:30:00,METAR VTBS 140730Z 21007KT 170V250 9999 FEW030 36/22 Q1007 NOSIG
2026-04-14 07:00:00,METAR VTBS 140700Z 20009KT 140V260 9999 FEW030 35/23 Q1008 NOSIG
2026-04-14 06:30:00,METAR VTBS 140630Z 21009KT 160V240 9999 FEW030 35/24 Q1008 NOSIG
2026-04-14 06:00:00,METAR VTBS 140600Z 21008KT 170V260 9999 FEW030 35/24 Q1009 NOSIG
2026-04-14 05:30:00,METAR VTBS 140530Z 21008KT 170V250 9999 FEW030 35/23 Q1010 NOSIG
2026-04-14 05:00:00,METAR VTBS 140500Z 20006KT 170V250 9999 FEW030 35/23 Q1010 NOSIG
2026-04-14 04:30:00,METAR VTBS 140430Z VRB06KT 9999 FEW030 34/23 Q1010 NOSIG
2026-04-14 04:00:00,METAR VTBS 140400Z 20007KT 140V230 9999 SCT030 35/24 Q1011 NOSIG
2026-04-14 03:30:00,METAR VTBS 140330Z 20007KT 160V250 9999 SCT030 33/24 Q1011 NOSIG
2026-04-14 03:00:00,METAR VTBS 140300Z 18007KT 150V210 9999 FEW020 SCT030 33/24 Q1011 NOSIG
2026-04-14 02:30:00,METAR VTBS 140230Z 20007KT 160V220 9999 FEW020 SCT030 33/24 Q1011 NOSIG
2026-04-14 02:00:00,METAR VTBS 140200Z 20004KT 150V280 9999 FEW020 SCT030 32/24 Q1011 NOSIG
2026-04-14 01:30:00,METAR VTBS 140130Z 20005KT 9999 FEW020 SCT030 31/25 Q1011 NOSIG
2026-04-14 01:00:00,METAR VTBS 140100Z 20006KT 160V220 9999 SCT018 31/25 Q1010 NOSIG
2026-04-14 00:30:00,METAR VTBS 140030Z 19006KT 9999 FEW020 30/26 Q1010 NOSIG
2026-04-14 00:00:00,METAR VTBS 140000Z 19006KT 9999 FEW020 30/26 Q1010 NOSIG
2026-04-13 23:30:00,METAR VTBS 132330Z 19005KT 150V210 9999 FEW020 29/26 Q1009 NOSIG
2026-04-13 23:00:00,METAR VTBS 132300Z 18005KT 140V210 9999 FEW020 30/26 Q1009 NOSIG
2026-04-13 22:30:00,METAR VTBS 132230Z 20005KT 9999 FEW020 29/26 Q1009 NOSIG
2026-04-13 22:00:00,METAR VTBS 132200Z 19006KT 150V210 9999 FEW017 29/26 Q1008 NOSIG
2026-04-13 21:30:00,METAR VTBS 132130Z 20007KT 9999 SCT017 30/26 Q1008 NOSIG
2026-04-13 21:00:00,METAR VTBS 132100Z 20006KT 9999 SCT017 SCT030 30/26 Q1008 NOSIG
2026-04-13 20:30:00,METAR VTBS 132030Z 20008KT 9999 SCT017 30/26 Q1008 NOSIG
2026-04-13 20:00:00,METAR VTBS 132000Z 20008KT 9999 SCT017 30/26 Q1008 NOSIG
2026-04-13 19:30:00,METAR VTBS 131930Z 21008KT 9999 SCT017 30/26 Q1008 NOSIG
2026-04-13 19:00:00,METAR VTBS 131900Z 20009KT 9999 SCT017 30/26 Q1008 NOSIG
2026-04-13 18:30:00,METAR VTBS 131830Z 20010KT 9999 SCT017 30/26 Q1008 NOSIG
2026-04-13 18:00:00,METAR VTBS 131800Z 19012KT 9999 FEW015 SCT017 30/26 Q1009 NOSIG
2026-04-13 17:30:00,METAR VTBS 131730Z 19011KT 9999 FEW017 30/26 Q1009 NOSIG
2026-04-13 17:00:00,METAR VTBS 131700Z 19012KT 9999 FEW017 30/26 Q1009 NOSIG
2026-04-13 16:30:00,METAR VTBS 131630Z 19009KT 9999 FEW017 30/26 Q1010 NOSIG
2026-04-13 16:00:00,METAR VTBS 131600Z 19010KT 9999 FEW020 30/25 Q1010 NOSIG
2026-04-13 15:30:00,METAR VTBS 131530Z 19011KT 9999 FEW020 31/25 Q1010 NOSIG
2026-04-13 15:00:00,METAR VTBS 131500Z 19011KT 9999 FEW020 31/25 Q1010 NOSIG
2026-04-13 14:30:00,METAR VTBS 131430Z 19010KT 9999 FEW020 31/25 Q1009 NOSIG
2026-04-13 14:00:00,METAR VTBS 131400Z 20012KT 9999 FEW020 31/25 Q1009 NOSIG
2026-04-13 13:30:00,METAR VTBS 131330Z 20013KT 9999 FEW020 31/25 Q1008 NOSIG
2026-04-13 13:00:00,METAR VTBS 131300Z 21011KT 9999 FEW020 32/24 Q1008 NOSIG
2026-04-13 12:30:00,METAR VTBS 131230Z 21010KT 9999 FEW020 32/24 Q1008 NOSIG
2026-04-13 12:00:00,METAR VTBS 131200Z 21009KT 9999 FEW020 32/23 Q1007 NOSIG
2026-04-13 11:30:00,METAR VTBS 131130Z 20011KT 9999 FEW020 32/22 Q1007 NOSIG
2026-04-13 11:00:00,METAR VTBS 131100Z 19010KT 9999 FEW020 33/21 Q1007 NOSIG
2026-04-13 10:30:00,METAR VTBS 131030Z 18010KT 9999 FEW020 34/20 Q1006 NOSIG
2026-04-13 10:00:00,METAR VTBS 131000Z 19011KT 9999 FEW020 34/21 Q1007 NOSIG
2026-04-13 09:30:00,METAR VTBS 130930Z 19013KT 9999 FEW020 35/20 Q1007 NOSIG
2026-04-13 09:00:00,METAR VTBS 130900Z 20012KT 170V230 9999 FEW020 36/20 Q1007 NOSIG
2026-04-13 08:30:00,METAR VTBS 130830Z 20013KT 9999 FEW020 35/20 Q1007 NOSIG
2026-04-13 08:00:00,METAR VTBS 130800Z 21013KT 9999 FEW020 36/20 Q1007 NOSIG
2026-04-13 07:30:00,METAR VTBS 130730Z 20012KT 9999 FEW020 36/20 Q1008 NOSIG
2026-04-13 07:00:00,METAR VTBS 130700Z 21012KT 170V250 9999 FEW020 36/20 Q1008 NOSIG
2026-04-13 06:30:00,METAR VTBS 130630Z 21013KT 9999 FEW020 36/20 Q1009 NOSIG
2026-04-13 06:00:00,METAR VTBS 130600Z 21012KT 9999 FEW020 35/19 Q1009 NOSIG
2026-04-13 05:30:00,METAR VTBS 130530Z 20013KT 170V230 9999 FEW020 36/19 Q1010 NOSIG
2026-04-13 05:00:00,METAR VTBS 130500Z 20013KT 170V240 9999 FEW020 35/19 Q1010 NOSIG
2026-04-13 04:30:00,METAR VTBS 130430Z 19011KT 9999 FEW020 35/21 Q1011 NOSIG
2026-04-13 04:00:00,METAR VTBS 130400Z 19011KT 9999 FEW020 35/21 Q1011 NOSIG
2026-04-13 03:30:00,METAR VTBS 130330Z 21011KT 9999 FEW020 34/22 Q1011 NOSIG
2026-04-13 03:00:00,METAR VTBS 130300Z 18013KT 9999 FEW020 SCT030 33/23 Q1011 NOSIG
2026-04-13 02:30:00,METAR VTBS 130230Z 18012KT 9999 FEW020 SCT030 33/24 Q1011 NOSIG
2026-04-13 02:00:00,METAR VTBS 130200Z 19011KT 9999 FEW020 SCT030 32/24 Q1011 NOSIG
2026-04-13 01:30:00,METAR VTBS 130130Z 19010KT 9999 FEW020 SCT030 31/24 Q1011 NOSIG
2026-04-13 01:00:00,METAR VTBS 130100Z 19010KT 150V220 9999 SCT020 31/25 Q1010 NOSIG
2026-04-13 00:30:00,METAR VTBS 130030Z 18008KT 9999 FEW020 30/26 Q1010 NOSIG
2026-04-13 00:00:00,METAR VTBS 130000Z 18007KT 9999 FEW020 30/25 Q1009 NOSIG
2026-04-12 23:30:00,METAR VTBS 122330Z 18007KT 9999 FEW020 30/25 Q1009 NOSIG
2026-04-12 23:00:00,METAR VTBS 122300Z 18008KT 9999 FEW020 30/25 Q1008 NOSIG
2026-04-12 22:30:00,METAR VTBS 122230Z 19008KT 9999 SCT020 29/26 Q1008 NOSIG
2026-04-12 22:00:00,METAR VTBS 122200Z 19009KT 9999 SCT020 29/25 Q1008 NOSIG
2026-04-12 21:30:00,METAR VTBS 122130Z 19009KT 9999 SCT020 29/25 Q1007 NOSIG
2026-04-12 21:00:00,METAR VTBS 122100Z 19009KT 9999 SCT020 30/25 Q1007 NOSIG
2026-04-12 20:30:00,METAR VTBS 122030Z 19010KT 9999 SCT020 30/25 Q1007 NOSIG
2026-04-12 20:00:00,METAR VTBS 122000Z 19010KT 9999 FEW030 30/25 Q1007 NOSIG
2026-04-12 19:30:00,METAR VTBS 121930Z 19011KT 9999 FEW030 29/25 Q1007 NOSIG
2026-04-12 19:00:00,METAR VTBS 121900Z 20011KT 9999 FEW030 30/24 Q1007 NOSIG
2026-04-12 18:30:00,METAR VTBS 121830Z 20011KT 9999 FEW030 30/23 Q1007 NOSIG
2026-04-12 18:00:00,METAR VTBS 121800Z 20010KT 9999 FEW030 29/23 Q1007 NOSIG
2026-04-12 17:30:00,METAR VTBS 121730Z 19010KT 9999 FEW030 29/23 Q1007 NOSIG
2026-04-12 17:00:00,METAR VTBS 121700Z 19009KT 9999 FEW030 30/22 Q1008 NOSIG
2026-04-12 16:30:00,METAR VTBS 121630Z 19010KT 9999 FEW030 30/22 Q1008 NOSIG
2026-04-12 16:00:00,METAR VTBS 121600Z 19009KT 9999 FEW030 30/23 Q1008 NOSIG
2026-04-12 15:00:00,METAR VTBS 121500Z 19012KT 9999 FEW030 31/23 Q1008 NOSIG
2026-04-12 14:30:00,METAR VTBS 121430Z 19012KT 9999 FEW030 31/23 Q1007 NOSIG
2026-04-12 14:00:00,METAR VTBS 121400Z 19011KT 9999 FEW030 31/23 Q1007 NOSIG
2026-04-12 13:30:00,METAR VTBS 121330Z 20011KT 9999 FEW030 31/23 Q1007 NOSIG
2026-04-12 13:00:00,METAR VTBS 121300Z 20009KT 9999 FEW030 31/23 Q1006 NOSIG
2026-04-12 12:30:00,METAR VTBS 121230Z 20010KT 9999 FEW030 32/21 Q1006 NOSIG
2026-04-12 12:00:00,METAR VTBS 121200Z 20010KT 9999 FEW030 32/19 Q1006 NOSIG
2026-04-12 11:30:00,METAR VTBS 121130Z 19010KT 9999 FEW030 32/20 Q1005 NOSIG
2026-04-12 11:00:00,METAR VTBS 121100Z 18012KT 9999 FEW030 33/20 Q1005 NOSIG
2026-04-12 10:30:00,METAR VTBS 121030Z 19011KT 9999 FEW030 34/19 Q1005 NOSIG
2026-04-12 10:00:00,METAR VTBS 121000Z 19012KT 9999 FEW030 34/19 Q1005 NOSIG
2026-04-12 09:30:00,METAR VTBS 120930Z 20011KT 9999 FEW030 35/19 Q1005 NOSIG
2026-04-12 09:00:00,METAR VTBS 120900Z 20011KT 9999 FEW030 36/18 Q1005 NOSIG
2026-04-12 08:30:00,METAR VTBS 120830Z 21010KT 9999 FEW030 36/19 Q1005 NOSIG
2026-04-12 08:00:00,METAR VTBS 120800Z 21010KT 190V260 9999 FEW030 36/19 Q1006 NOSIG
2026-04-12 07:30:00,METAR VTBS 120730Z 21009KT 160V250 9999 FEW030 36/22 Q1006 NOSIG
2026-04-12 07:00:00,METAR VTBS 120700Z 20010KT 9999 FEW030 35/23 Q1006 NOSIG
2026-04-12 06:30:00,METAR VTBS 120630Z 20010KT 170V230 9999 FEW030 34/23 Q1007 NOSIG
2026-04-12 06:00:00,METAR VTBS 120600Z 20012KT 9999 FEW030 34/24 Q1008 NOSIG
2026-04-12 05:30:00,METAR VTBS 120530Z 18013KT 150V210 9999 FEW030 34/24 Q1008 NOSIG
2026-04-12 05:00:00,METAR VTBS 120500Z 18012KT 150V210 9999 FEW030 34/23 Q1008 NOSIG
2026-04-12 04:30:00,METAR VTBS 120430Z 19011KT 160V230 9999 FEW030 34/24 Q1009 NOSIG
2026-04-12 04:00:00,METAR VTBS 120400Z 19012KT 9999 FEW030 34/24 Q1009 NOSIG
2026-04-12 03:30:00,METAR VTBS 120330Z 19009KT 160V240 9999 FEW030 34/23 Q1009 NOSIG
2026-04-12 03:00:00,METAR VTBS 120300Z 18009KT 9999 FEW030 33/23 Q1009 NOSIG
2026-04-12 02:30:00,METAR VTBS 120230Z 19008KT 9999 FEW030 32/23 Q1009 NOSIG
2026-04-12 02:00:00,METAR VTBS 120200Z 18009KT 9999 FEW020 32/24 Q1009 NOSIG
2026-04-12 01:30:00,METAR VTBS 120130Z 18011KT 9999 FEW020 31/25 Q1009 NOSIG
2026-04-12 01:00:00,METAR VTBS 120100Z 14007KT 100V190 9999 FEW020 31/26 Q1009 NOSIG
2026-04-12 00:30:00,METAR VTBS 120030Z 15006KT 110V180 9999 FEW020 30/26 Q1008 NOSIG
2026-04-12 00:00:00,METAR VTBS 120000Z 18006KT 9999 FEW020 30/25 Q1008 NOSIG
2026-04-11 23:30:00,METAR VTBS 112330Z 17007KT 9999 FEW020 29/25 Q1007 NOSIG
2026-04-11 23:00:00,METAR VTBS 112300Z 18006KT 9999 FEW020 29/25 Q1007 NOSIG
2026-04-11 22:30:00,METAR VTBS 112230Z 18007KT 9999 FEW020 29/25 Q1007 NOSIG
2026-04-11 22:00:00,METAR VTBS 112200Z 19006KT 9999 FEW020 29/25 Q1007 NOSIG
2026-04-11 21:30:00,METAR VTBS 112130Z 19006KT 9999 FEW020 29/25 Q1006 NOSIG
2026-04-11 21:00:00,METAR VTBS 112100Z 19007KT 9999 FEW020 29/25 Q1006 NOSIG
2026-04-11 20:30:00,METAR VTBS 112030Z 19009KT 9999 FEW020 29/25 Q1006 NOSIG
2026-04-11 20:00:00,METAR VTBS 112000Z 20009KT 9999 FEW020 29/25 Q1006 NOSIG
2026-04-11 19:30:00,METAR VTBS 111930Z 20010KT 9999 FEW020 29/25 Q1007 NOSIG
2026-04-11 19:00:00,METAR VTBS 111900Z 19012KT 9999 FEW020 29/25 Q1007 NOSIG
2026-04-11 18:30:00,METAR VTBS 111830Z 20013KT 9999 FEW020 29/25 Q1007 NOSIG
2026-04-11 18:00:00,METAR VTBS 111800Z 19012KT 9999 FEW020 29/25 Q1007 NOSIG
2026-04-11 17:30:00,METAR VTBS 111730Z 20012KT 9999 FEW020 30/25 Q1008 NOSIG
2026-04-11 17:00:00,METAR VTBS 111700Z 19014KT 9999 FEW020 29/25 Q1008 NOSIG
2026-04-11 16:30:00,METAR VTBS 111630Z 19012KT 9999 FEW020 29/25 Q1008 NOSIG
2026-04-11 16:00:00,METAR VTBS 111600Z 20012KT 9999 FEW020 29/25 Q1009 NOSIG
2026-04-11 15:30:00,METAR VTBS 111530Z 19013KT 9999 FEW020 30/25 Q1009 NOSIG
2026-04-11 15:00:00,METAR VTBS 111500Z 19015KT 9999 FEW020 30/25 Q1008 NOSIG
2026-04-11 14:30:00,METAR VTBS 111430Z 19014KT 9999 FEW020 30/25 Q1008 NOSIG
2026-04-11 14:00:00,METAR VTBS 111400Z 20014KT 9999 FEW020 30/26 Q1008 NOSIG
2026-04-11 13:30:00,METAR VTBS 111330Z 20013KT 9999 FEW020 30/26 Q1007 NOSIG
2026-04-11 13:00:00,METAR VTBS 111300Z 21012KT 9999 FEW020 31/25 Q1007 NOSIG
2026-04-11 12:30:00,METAR VTBS 111230Z 20012KT 9999 FEW020 31/25 Q1007 NOSIG
2026-04-11 12:00:00,METAR VTBS 111200Z 20011KT 9999 FEW020 31/24 Q1007 NOSIG
2026-04-11 11:30:00,METAR VTBS 111130Z 19012KT 9999 FEW020 32/22 Q1006 NOSIG
2026-04-11 11:00:00,METAR VTBS 111100Z 19010KT 9999 FEW020 33/21 Q1006 NOSIG
2026-04-11 10:30:00,METAR VTBS 111030Z 18010KT 9999 FEW020 35/19 Q1006 NOSIG
2026-04-11 10:00:00,METAR VTBS 111000Z 18009KT 9999 FEW020 35/20 Q1006 NOSIG
2026-04-11 09:30:00,METAR VTBS 110930Z 19008KT 9999 FEW020 35/19 Q1006 NOSIG
2026-04-11 09:00:00,METAR VTBS 110900Z 19009KT 9999 FEW020 36/20 Q1006 NOSIG
2026-04-11 08:30:00,METAR VTBS 110830Z 21008KT 170V230 9999 FEW020 36/21 Q1006 NOSIG
2026-04-11 08:00:00,METAR VTBS 110800Z 20008KT 170V250 9999 FEW020 35/22 Q1007 NOSIG
2026-04-11 07:30:00,METAR VTBS 110730Z 19010KT 9999 FEW020 35/23 Q1007 NOSIG
2026-04-11 07:00:00,METAR VTBS 110700Z 19009KT 140V220 9999 FEW020 34/23 Q1008 NOSIG
2026-04-11 06:30:00,METAR VTBS 110630Z 18010KT 150V210 9999 FEW020 35/23 Q1009 NOSIG
2026-04-11 06:00:00,METAR VTBS 110600Z 19010KT 150V220 9999 FEW020 34/24 Q1009 NOSIG
2026-04-11 05:30:00,METAR VTBS 110530Z 19011KT 150V220 9999 FEW020 34/24 Q1010 NOSIG
2026-04-11 05:00:00,METAR VTBS 110500Z 18009KT 130V210 9999 FEW020 33/24 Q1011 NOSIG
2026-04-11 04:30:00,METAR VTBS 110430Z 17008KT 140V240 9999 FEW020 34/24 Q1011 NOSIG
2026-04-11 04:00:00,METAR VTBS 110400Z 17007KT 140V210 9999 FEW020 34/24 Q1011 NOSIG
2026-04-11 03:30:00,METAR VTBS 110330Z 19007KT 9999 FEW020 33/24 Q1011 NOSIG
2026-04-11 03:00:00,METAR VTBS 110300Z VRB05KT 9999 FEW020 33/24 Q1012 NOSIG
2026-04-11 02:30:00,METAR VTBS 110230Z 20006KT 150V270 9999 FEW020 32/25 Q1012 NOSIG
2026-04-11 02:00:00,METAR VTBS 110200Z 20008KT 9999 FEW020 32/24 Q1011 NOSIG
2026-04-11 01:30:00,METAR VTBS 110130Z 19009KT 9999 FEW020 31/25 Q1011 NOSIG
2026-04-11 01:00:00,METAR VTBS 110100Z 18008KT 9999 FEW020 30/26 Q1011 NOSIG
2026-04-11 00:30:00,METAR VTBS 110030Z 18008KT 9999 FEW020 30/26 Q1010 NOSIG
2026-04-11 00:00:00,METAR VTBS 110000Z 19005KT 150V210 9999 FEW020 29/26 Q1010 NOSIG
2026-04-10 23:30:00,METAR VTBS 102330Z 19005KT 9999 FEW020 29/26 Q1010 NOSIG
2026-04-10 23:00:00,METAR VTBS 102300Z 17007KT 9999 FEW020 29/25 Q1009 NOSIG
2026-04-10 22:30:00,METAR VTBS 102230Z 18008KT 9999 FEW020 29/25 Q1009 NOSIG
2026-04-10 22:00:00,METAR VTBS 102200Z 22005KT 9999 FEW020 29/25 Q1009 NOSIG
2026-04-10 21:30:00,METAR VTBS 102130Z 19007KT 9999 FEW020 29/25 Q1008 NOSIG
2026-04-10 21:00:00,METAR VTBS 102100Z 18008KT 9999 FEW020 29/25 Q1008 NOSIG
2026-04-10 20:30:00,METAR VTBS 102030Z 19008KT 9999 FEW020 29/25 Q1008 NOSIG
2026-04-10 20:00:00,METAR VTBS 102000Z 19007KT 9999 FEW020 28/25 Q1008 NOSIG
2026-04-10 19:30:00,METAR VTBS 101930Z 19010KT 9999 FEW020 29/25 Q1008 NOSIG
2026-04-10 19:00:00,METAR VTBS 101900Z 20011KT 9999 FEW020 29/25 Q1008 NOSIG
2026-04-10 18:30:00,METAR VTBS 101830Z 21011KT 9999 FEW020 29/25 Q1008 NOSIG
2026-04-10 18:00:00,METAR VTBS 101800Z 21011KT 9999 FEW020 29/25 Q1009 NOSIG
2026-04-10 17:30:00,METAR VTBS 101730Z 20011KT 9999 FEW020 29/24 Q1009 NOSIG
2026-04-10 17:00:00,METAR VTBS 101700Z 21009KT 9999 FEW020 29/24 Q1009 NOSIG
2026-04-10 16:30:00,METAR VTBS 101630Z 19013KT 9999 FEW020 29/24 Q1010 NOSIG
2026-04-10 16:00:00,METAR VTBS 101600Z 20011KT 9999 FEW020 29/24 Q1010 NOSIG
2026-04-10 15:30:00,METAR VTBS 101530Z 19010KT 9999 FEW020 30/23 Q1009 NOSIG
2026-04-10 15:00:00,METAR VTBS 101500Z 19010KT 9999 FEW020 30/24 Q1009 NOSIG
2026-04-10 14:30:00,METAR VTBS 101430Z 20011KT 9999 FEW020 30/25 Q1009 NOSIG
2026-04-10 14:00:00,METAR VTBS 101400Z 20011KT 9999 FEW020 30/24 Q1009 NOSIG
2026-04-10 13:30:00,METAR VTBS 101330Z 20011KT 9999 FEW020 30/24 Q1009 NOSIG
2026-04-10 13:00:00,METAR VTBS 101300Z 20010KT 9999 FEW020 30/25 Q1008 NOSIG
2026-04-10 12:30:00,METAR VTBS 101230Z 19012KT 9999 FEW020 31/25 Q1008 NOSIG
2026-04-10 12:00:00,METAR VTBS 101200Z 20011KT 9999 FEW020 30/24 Q1008 NOSIG
2026-04-10 11:30:00,METAR VTBS 101130Z 19011KT 9999 FEW020 31/23 Q1008 NOSIG
2026-04-10 11:00:00,METAR VTBS 101100Z 21009KT 9999 FEW020 32/23 Q1008 NOSIG
2026-04-10 10:30:00,METAR VTBS 101030Z 21010KT 9999 FEW020 33/23 Q1008 NOSIG
2026-04-10 10:00:00,METAR VTBS 101000Z 20010KT 9999 FEW020 33/23 Q1007 NOSIG
2026-04-10 09:30:00,METAR VTBS 100930Z 19011KT 9999 FEW020 34/23 Q1007 NOSIG
2026-04-10 09:00:00,METAR VTBS 100900Z 22010KT 190V250 9999 FEW020 35/23 Q1007 NOSIG
2026-04-10 08:30:00,METAR VTBS 100830Z 22011KT 180V240 9999 FEW020 35/22 Q1008 NOSIG
2026-04-10 08:00:00,METAR VTBS 100800Z 21009KT 180V240 9999 FEW020 35/22 Q1008 NOSIG
2026-04-10 07:30:00,METAR VTBS 100730Z 22009KT 180V290 9999 FEW020 35/22 Q1009 NOSIG
2026-04-10 07:00:00,METAR VTBS 100700Z 23009KT 180V260 9999 FEW020 34/22 Q1009 NOSIG
2026-04-10 06:30:00,METAR VTBS 100630Z 22009KT 170V260 9999 FEW020 34/23 Q1010 NOSIG
2026-04-10 06:00:00,METAR VTBS 100600Z 20011KT 170V240 9999 SCT020 34/24 Q1011 NOSIG
2026-04-10 05:30:00,METAR VTBS 100530Z 21010KT 9999 SCT020 34/24 Q1011 NOSIG
2026-04-10 05:00:00,METAR VTBS 100500Z 20011KT 160V240 9999 SCT020 33/24 Q1012 NOSIG
2026-04-10 04:30:00,METAR VTBS 100430Z 18012KT 9999 FEW020 33/24 Q1012 NOSIG
2026-04-10 04:00:00,METAR VTBS 100400Z 18012KT 9999 FEW020 33/24 Q1012 NOSIG
2026-04-10 03:30:00,METAR VTBS 100330Z 19011KT 160V220 9999 FEW020 33/25 Q1012 NOSIG
2026-04-10 03:00:00,METAR VTBS 100300Z 18010KT 140V210 9999 FEW020 32/24 Q1012 NOSIG
2026-04-10 02:30:00,METAR VTBS 100230Z 18011KT 140V200 9999 FEW020 32/25 Q1012 NOSIG
2026-04-10 02:00:00,METAR VTBS 100200Z 19011KT 9999 FEW020 31/25 Q1012 NOSIG
2026-04-10 01:30:00,METAR VTBS 100130Z 18012KT 9999 FEW020 31/25 Q1011 NOSIG
2026-04-10 01:00:00,METAR VTBS 100100Z 18011KT 9999 FEW020 31/25 Q1011 NOSIG
2026-04-10 00:30:00,METAR VTBS 100030Z 19010KT 9999 FEW020 30/24 Q1011 NOSIG
2026-04-10 00:00:00,METAR VTBS 100000Z 18008KT 9999 FEW018 30/25 Q1010 NOSIG
2026-04-09 23:30:00,METAR VTBS 092330Z 18008KT 9999 FEW018 29/25 Q1010 NOSIG
2026-04-09 23:00:00,METAR VTBS 092300Z 18008KT 9999 FEW018 29/25 Q1010 NOSIG
2026-04-09 22:30:00,METAR VTBS 092230Z 18008KT 140V200 9999 FEW018 29/25 Q1010 NOSIG
2026-04-09 22:00:00,METAR VTBS 092200Z 18008KT 9999 FEW018 29/26 Q1009 NOSIG
2026-04-09 21:30:00,METAR VTBS 092130Z 19007KT 150V210 9999 FEW018 29/26 Q1009 NOSIG
2026-04-09 21:00:00,METAR VTBS 092100Z 19006KT 9999 FEW018 29/26 Q1009 NOSIG
2026-04-09 20:30:00,METAR VTBS 092030Z 20007KT 9999 FEW018 29/25 Q1009 NOSIG
2026-04-09 20:00:00,METAR VTBS 092000Z 19007KT 9999 FEW018 29/25 Q1009 NOSIG
2026-04-09 19:30:00,METAR VTBS 091930Z 21007KT 9999 FEW018 29/25 Q1009 NOSIG
2026-04-09 19:00:00,METAR VTBS 091900Z 20008KT 9999 FEW018 29/25 Q1009 NOSIG
2026-04-09 18:30:00,METAR VTBS 091830Z 20009KT 9999 FEW018 29/25 Q1010 NOSIG
2026-04-09 18:00:00,METAR VTBS 091800Z 20011KT 9999 FEW018 29/25 Q1010 NOSIG
2026-04-09 17:30:00,METAR VTBS 091730Z 21009KT 9999 FEW018 30/25 Q1010 NOSIG
2026-04-09 17:00:00,METAR VTBS 091700Z 21010KT 9999 FEW018 30/25 Q1011 NOSIG
2026-04-09 16:30:00,METAR VTBS 091630Z 21008KT 9999 FEW018 30/26 Q1011 NOSIG
2026-04-09 16:00:00,METAR VTBS 091600Z 19008KT 9999 FEW018 30/25 Q1011 NOSIG
2026-04-09 15:30:00,METAR VTBS 091530Z 19013KT 9999 FEW020 30/25 Q1011 NOSIG
2026-04-09 15:00:00,METAR VTBS 091500Z 19010KT 9999 FEW020 30/24 Q1011 NOSIG
2026-04-09 14:30:00,METAR VTBS 091430Z 20010KT 9999 FEW020 30/25 Q1010 NOSIG
2026-04-09 14:00:00,METAR VTBS 091400Z 20011KT 9999 FEW020 30/25 Q1010 NOSIG
2026-04-09 13:30:00,METAR VTBS 091330Z 20011KT 9999 FEW020 31/25 Q1009 NOSIG
2026-04-09 13:00:00,METAR VTBS 091300Z 20012KT 9999 FEW020 31/25 Q1009 NOSIG
2026-04-09 12:30:00,METAR VTBS 091230Z 19012KT 9999 FEW020 31/24 Q1008 NOSIG
2026-04-09 12:00:00,METAR VTBS 091200Z 19012KT 9999 FEW020 32/23 Q1008 NOSIG
2026-04-09 11:30:00,METAR VTBS 091130Z 19012KT 9999 FEW020 32/23 Q1008 NOSIG
2026-04-09 11:00:00,METAR VTBS 091100Z 19012KT 9999 FEW020 32/22 Q1008 NOSIG
2026-04-09 10:30:00,METAR VTBS 091030Z 20010KT 9999 FEW020 33/21 Q1008 NOSIG
2026-04-09 10:00:00,METAR VTBS 091000Z 19012KT 9999 FEW020 34/22 Q1008 NOSIG
2026-04-09 09:30:00,METAR VTBS 090930Z 19013KT 9999 FEW020 34/22 Q1008 NOSIG
2026-04-09 09:00:00,METAR VTBS 090900Z 20012KT 9999 FEW020 35/21 Q1008 NOSIG
2026-04-09 08:30:00,METAR VTBS 090830Z 19013KT 9999 FEW020 34/23 Q1008 NOSIG
2026-04-09 08:00:00,METAR VTBS 090800Z 20011KT 170V240 9999 FEW020 35/23 Q1009 NOSIG
2026-04-09 07:30:00,METAR VTBS 090730Z 19011KT 160V220 9999 FEW020 34/23 Q1009 NOSIG
2026-04-09 07:00:00,METAR VTBS 090700Z 19012KT 170V230 9999 FEW020 34/23 Q1009 NOSIG
2026-04-09 06:30:00,METAR VTBS 090630Z 19012KT 160V230 9999 FEW020 34/23 Q1010 NOSIG
2026-04-09 06:00:00,METAR VTBS 090600Z 20012KT 160V230 9999 FEW020 SCT030 34/24 Q1010 NOSIG
2026-04-09 05:30:00,METAR VTBS 090530Z 21010KT 150V250 9999 FEW020 SCT030 34/24 Q1011 NOSIG
2026-04-09 05:00:00,METAR VTBS 090500Z 19010KT 160V220 9999 FEW020 SCT030 34/23 Q1011 NOSIG
2026-04-09 04:30:00,METAR VTBS 090430Z 18010KT 150V210 9999 FEW020 SCT030 34/24 Q1012 NOSIG
2026-04-09 04:00:00,METAR VTBS 090400Z 20010KT 9999 FEW020 SCT030 33/24 Q1012 NOSIG
2026-04-09 03:30:00,METAR VTBS 090330Z 23009KT 200V260 9999 FEW020 SCT030 32/24 Q1012 NOSIG
2026-04-09 03:00:00,METAR VTBS 090300Z 19010KT 140V220 9999 FEW020 SCT030 33/24 Q1012 NOSIG
2026-04-09 02:30:00,METAR VTBS 090230Z 19009KT 170V240 9999 FEW020 SCT030 32/24 Q1012 NOSIG
2026-04-09 02:00:00,METAR VTBS 090200Z 19009KT 9999 SCT020 31/24 Q1012 NOSIG
2026-04-09 01:30:00,METAR VTBS 090130Z 19009KT 9999 SCT020 31/25 Q1012 NOSIG
2026-04-09 01:00:00,METAR VTBS 090100Z 19008KT 9999 FEW020 31/25 Q1011 NOSIG
2026-04-09 00:30:00,METAR VTBS 090030Z 19008KT 9999 SCT020 30/25 Q1011 NOSIG
2026-04-09 00:00:00,METAR VTBS 090000Z 22005KT 9999 SCT020 29/25 Q1011 NOSIG
2026-04-08 23:30:00,METAR VTBS 082330Z 20005KT 9999 FEW020 29/25 Q1010 NOSIG
2026-04-08 23:00:00,METAR VTBS 082300Z 18008KT 9999 FEW020 29/25 Q1010 NOSIG
2026-04-08 22:30:00,METAR VTBS 082230Z 18009KT 9999 FEW020 29/24 Q1009 NOSIG
2026-04-08 22:00:00,METAR VTBS 082200Z 18009KT 9999 FEW020 29/24 Q1009 NOSIG
2026-04-08 21:30:00,METAR VTBS 082130Z 18008KT 9999 FEW020 29/24 Q1009 NOSIG
2026-04-08 21:00:00,METAR VTBS 082100Z 20006KT 9999 FEW020 28/25 Q1008 NOSIG
2026-04-08 20:30:00,METAR VTBS 082030Z 20007KT 9999 FEW020 29/25 Q1008 NOSIG
2026-04-08 20:00:00,METAR VTBS 082000Z 20008KT 9999 FEW020 28/24 Q1008 NOSIG
2026-04-08 19:30:00,METAR VTBS 081930Z 20007KT 9999 FEW020 29/25 Q1008 NOSIG
2026-04-08 19:00:00,METAR VTBS 081900Z 20008KT 9999 FEW020 29/25 Q1009 NOSIG
2026-04-08 18:30:00,METAR VTBS 081830Z 21010KT 9999 FEW020 29/25 Q1008 NOSIG
2026-04-08 18:00:00,METAR VTBS 081800Z 22009KT 9999 FEW020 29/25 Q1009 NOSIG
2026-04-08 17:30:00,METAR VTBS 081730Z 21008KT 9999 FEW020 29/25 Q1009 NOSIG
2026-04-08 17:00:00,METAR VTBS 081700Z 20011KT 9999 FEW020 29/24 Q1009 NOSIG
2026-04-08 16:30:00,METAR VTBS 081630Z 19011KT 9999 FEW020 30/24 Q1009 NOSIG
2026-04-08 16:00:00,METAR VTBS 081600Z 20011KT 9999 FEW020 29/23 Q1009 NOSIG
2026-04-08 15:30:00,METAR VTBS 081530Z 20011KT 9999 FEW020 30/23 Q1009 NOSIG
2026-04-08 15:00:00,METAR VTBS 081500Z 20008KT 9999 FEW020 30/23 Q1009 NOSIG
2026-04-08 14:30:00,METAR VTBS 081430Z 21009KT 9999 FEW020 30/23 Q1009 NOSIG
2026-04-08 14:00:00,METAR VTBS 081400Z 22008KT 9999 FEW020 31/23 Q1009 NOSIG
2026-04-08 13:30:00,METAR VTBS 081330Z 21009KT 9999 FEW020 31/23 Q1008 NOSIG
2026-04-08 13:00:00,METAR VTBS 081300Z 21008KT 9999 FEW020 31/23 Q1008 NOSIG
2026-04-08 12:30:00,METAR VTBS 081230Z 20010KT 9999 FEW020 31/23 Q1008 NOSIG
2026-04-08 12:00:00,METAR VTBS 081200Z 19010KT 9999 FEW020 31/21 Q1007 NOSIG
2026-04-08 11:30:00,METAR VTBS 081130Z 19010KT 9999 FEW020 32/20 Q1007 NOSIG
2026-04-08 11:00:00,METAR VTBS 081100Z 19012KT 9999 FEW020 33/21 Q1007 NOSIG
2026-04-08 10:30:00,METAR VTBS 081030Z 20012KT 9999 FEW020 33/22 Q1007 NOSIG
2026-04-08 10:00:00,METAR VTBS 081000Z 18012KT 9999 FEW020 34/21 Q1007 NOSIG
2026-04-08 09:30:00,METAR VTBS 080930Z 21010KT 9999 FEW020 36/21 Q1007 NOSIG
2026-04-08 09:00:00,METAR VTBS 080900Z 20010KT 9999 FEW020 36/21 Q1007 NOSIG
2026-04-08 08:30:00,METAR VTBS 080830Z 21011KT 9999 FEW020 35/21 Q1007 NOSIG
2026-04-08 08:00:00,METAR VTBS 080800Z 21009KT 180V240 9999 FEW020 36/22 Q1007 NOSIG
2026-04-08 07:30:00,METAR VTBS 080730Z 19009KT 160V220 9999 FEW020 35/23 Q1008 NOSIG
2026-04-08 07:00:00,METAR VTBS 080700Z 19010KT 150V220 9999 FEW020 35/23 Q1008 NOSIG
2026-04-08 06:30:00,METAR VTBS 080630Z 18010KT 130V220 9999 FEW020 35/24 Q1009 NOSIG
2026-04-08 06:00:00,METAR VTBS 080600Z 19010KT 160V220 9999 FEW020 34/24 Q1010 NOSIG
2026-04-08 05:30:00,METAR VTBS 080530Z 18010KT 140V210 9999 FEW020 34/24 Q1010 NOSIG
2026-04-08 05:00:00,METAR VTBS 080500Z 18010KT 9999 FEW020 SCT030 34/24 Q1010 NOSIG
2026-04-08 04:30:00,METAR VTBS 080430Z 19011KT 160V220 9999 FEW020 SCT030 33/25 Q1011 NOSIG
2026-04-08 04:00:00,METAR VTBS 080400Z 19010KT 9999 FEW020 SCT030 34/25 Q1011 NOSIG
2026-04-08 03:30:00,METAR VTBS 080330Z 19010KT 160V230 9999 SCT025 33/24 Q1011 NOSIG
2026-04-08 03:00:00,METAR VTBS 080300Z 19011KT 160V220 9999 SCT025 33/25 Q1011 NOSIG
2026-04-08 02:30:00,METAR VTBS 080230Z 20010KT 9999 SCT025 32/25 Q1011 NOSIG
2026-04-08 02:00:00,METAR VTBS 080200Z 18011KT 9999 FEW025 32/25 Q1011 NOSIG
2026-04-08 01:30:00,METAR VTBS 080130Z 18011KT 9999 FEW020 31/25 Q1011 NOSIG
2026-04-08 01:00:00,METAR VTBS 080100Z 19010KT 9999 FEW020 31/25 Q1010 NOSIG
2026-04-08 00:30:00,METAR VTBS 080030Z 19009KT 9999 FEW020 30/25 Q1010 NOSIG
2026-04-08 00:00:00,METAR VTBS 080000Z 19007KT 9999 FEW020 29/25 Q1009 NOSIG
2026-04-07 23:30:00,METAR VTBS 072330Z 17008KT 9999 FEW020 29/26 Q1009 NOSIG
2026-04-07 23:00:00,METAR VTBS 072300Z 18008KT 9999 FEW017 29/26 Q1009 NOSIG
2026-04-07 22:30:00,METAR VTBS 072230Z 19007KT 9999 FEW017 29/26 Q1008 NOSIG
2026-04-07 22:00:00,METAR VTBS 072200Z 19008KT 9999 FEW017 29/26 Q1008 NOSIG
2026-04-07 21:30:00,METAR VTBS 072130Z 20007KT 9999 FEW017 28/26 Q1008 NOSIG
2026-04-07 21:00:00,METAR VTBS 072100Z 19007KT 9999 FEW020 29/26 Q1007 NOSIG
2026-04-07 20:30:00,METAR VTBS 072030Z 19007KT 9999 FEW020 29/26 Q1007 NOSIG
2026-04-07 20:00:00,METAR VTBS 072000Z 20009KT 9999 FEW020 29/25 Q1007 NOSIG
2026-04-07 19:30:00,METAR VTBS 071930Z 19010KT 9999 FEW020 29/25 Q1007 NOSIG
2026-04-07 19:00:00,METAR VTBS 071900Z 20010KT 9999 FEW020 29/25 Q1008 NOSIG
2026-04-07 18:30:00,METAR VTBS 071830Z 20008KT 9999 FEW020 29/25 Q1008 NOSIG
2026-04-07 18:00:00,METAR VTBS 071800Z 19010KT 9999 FEW020 29/25 Q1008 NOSIG
2026-04-07 17:30:00,METAR VTBS 071730Z 20011KT 9999 FEW020 29/25 Q1008 NOSIG
2026-04-07 17:00:00,METAR VTBS 071700Z 20010KT 9999 FEW020 30/25 Q1008 NOSIG
2026-04-07 16:30:00,METAR VTBS 071630Z 19010KT 9999 FEW020 30/24 Q1009 NOSIG
2026-04-07 16:00:00,METAR VTBS 071600Z 20011KT 9999 FEW020 30/24 Q1009 NOSIG
2026-04-07 15:30:00,METAR VTBS 071530Z 20011KT 9999 FEW020 31/24 Q1008 NOSIG
2026-04-07 15:00:00,METAR VTBS 071500Z 21012KT 9999 FEW020 31/25 Q1008 NOSIG
2026-04-07 14:30:00,METAR VTBS 071430Z 20013KT 9999 FEW020 31/25 Q1007 NOSIG
2026-04-07 14:00:00,METAR VTBS 071400Z 19011KT 9999 FEW020 32/21 Q1007 NOSIG
2026-04-07 13:30:00,METAR VTBS 071330Z 20006KT 9999 FEW020 32/21 Q1007 NOSIG
2026-04-07 13:00:00,METAR VTBS 071300Z 19006KT 9999 FEW020 32/22 Q1007 NOSIG
2026-04-07 12:30:00,METAR VTBS 071230Z 19006KT 9999 FEW020 33/21 Q1006 NOSIG
2026-04-07 12:00:00,METAR VTBS 071200Z 16007KT 9999 FEW020 33/21 Q1006 NOSIG
2026-04-07 11:30:00,METAR VTBS 071130Z 16007KT 110V180 9999 FEW020 34/22 Q1006 NOSIG
2026-04-07 11:00:00,METAR VTBS 071100Z 16008KT 9999 FEW020 34/22 Q1006 NOSIG
2026-04-07 10:30:00,METAR VTBS 071030Z 17008KT 140V200 9999 FEW020 34/22 Q1006 NOSIG
2026-04-07 10:00:00,METAR VTBS 071000Z 17008KT 9999 FEW020 34/23 Q1006 NOSIG
2026-04-07 09:30:00,METAR VTBS 070930Z 18011KT 9999 FEW020 34/22 Q1006 NOSIG
2026-04-07 09:00:00,METAR VTBS 070900Z 17011KT 140V200 9999 FEW020 35/23 Q1006 NOSIG
2026-04-07 08:30:00,METAR VTBS 070830Z 19010KT 9999 FEW020 36/22 Q1007 NOSIG
2026-04-07 08:00:00,METAR VTBS 070800Z 19011KT 160V220 9999 FEW020 36/22 Q1007 NOSIG
2026-04-07 07:30:00,METAR VTBS 070730Z 14008KT 9999 FEW020 36/22 Q1007 NOSIG
2026-04-07 07:00:00,METAR VTBS 070700Z 20010KT 170V240 9999 FEW020 36/22 Q1008 NOSIG
2026-04-07 06:30:00,METAR VTBS 070630Z VRB04KT 9999 FEW020 36/19 Q1008 NOSIG
2026-04-07 06:00:00,METAR VTBS 070600Z VRB04KT 9999 FEW020 36/19 Q1009 NOSIG
2026-04-07 05:30:00,METAR VTBS 070530Z 27007KT 220V300 9999 FEW020 35/19 Q1010 NOSIG
2026-04-07 05:00:00,METAR VTBS 070500Z 30007KT 250V330 9999 FEW020 35/20 Q1010 NOSIG
2026-04-07 04:30:00,METAR VTBS 070430Z 28006KT 170V330 9999 FEW020 34/20 Q1011 NOSIG
2026-04-07 04:00:00,METAR VTBS 070400Z 27006KT 220V340 9999 FEW020 34/20 Q1011 NOSIG
2026-04-07 03:30:00,METAR VTBS 070330Z 25006KT 190V300 9999 FEW020 33/20 Q1012 NOSIG
2026-04-07 03:00:00,METAR VTBS 070300Z 29008KT 9999 FEW020 32/20 Q1012 NOSIG
2026-04-07 02:30:00,METAR VTBS 070230Z 25008KT 210V290 9999 FEW020 32/20 Q1012 NOSIG
2026-04-07 02:00:00,METAR VTBS 070200Z 22006KT 9999 FEW020 32/22 Q1012 NOSIG
2026-04-07 01:30:00,METAR VTBS 070130Z 26005KT 220V290 9999 FEW020 31/22 Q1011 NOSIG
2026-04-07 01:00:00,METAR VTBS 070100Z 26006KT 230V300 9999 FEW020 30/22 Q1011 NOSIG
2026-04-07 00:30:00,METAR VTBS 070030Z 24005KT 9999 FEW030 30/22 Q1011 NOSIG
2026-04-07 00:00:00,METAR VTBS 070000Z 23004KT 9999 FEW030 29/23 Q1010 NOSIG
2026-04-06 23:30:00,METAR VTBS 062330Z 22005KT 9999 FEW030 29/23 Q1010 NOSIG
2026-04-06 23:00:00,METAR VTBS 062300Z 21005KT 9999 FEW030 29/24 Q1009 NOSIG
2026-04-06 22:30:00,METAR VTBS 062230Z 20006KT 9999 FEW030 29/24 Q1009 NOSIG
2026-04-06 22:00:00,METAR VTBS 062200Z 20006KT 9999 FEW030 29/24 Q1008 NOSIG
2026-04-06 21:30:00,METAR VTBS 062130Z 20007KT 9999 FEW030 29/24 Q1008 NOSIG
2026-04-06 21:00:00,METAR VTBS 062100Z 19008KT 9999 FEW030 29/24 Q1008 NOSIG
2026-04-06 20:30:00,METAR VTBS 062030Z 20009KT 9999 FEW030 29/24 Q1008 NOSIG
2026-04-06 20:00:00,METAR VTBS 062000Z 19010KT 9999 FEW030 29/24 Q1008 NOSIG
2026-04-06 19:30:00,METAR VTBS 061930Z 20009KT 9999 FEW030 29/23 Q1008 NOSIG
2026-04-06 19:00:00,METAR VTBS 061900Z 20011KT 9999 FEW030 29/23 Q1008 NOSIG
2026-04-06 18:30:00,METAR VTBS 061830Z 19010KT 9999 FEW030 30/23 Q1008 NOSIG
2026-04-06 18:00:00,METAR VTBS 061800Z 19011KT 9999 FEW030 30/23 Q1009 NOSIG
2026-04-06 17:30:00,METAR VTBS 061730Z 19012KT 9999 FEW030 29/23 Q1009 NOSIG
2026-04-06 17:00:00,METAR VTBS 061700Z 19012KT 9999 FEW030 30/22 Q1009 NOSIG
2026-04-06 16:30:00,METAR VTBS 061630Z 19012KT 9999 FEW030 30/22 Q1009 NOSIG
2026-04-06 16:00:00,METAR VTBS 061600Z 19013KT 9999 FEW030 30/22 Q1009 NOSIG
2026-04-06 15:30:00,METAR VTBS 061530Z 19012KT 9999 FEW030 30/22 Q1009 NOSIG
2026-04-06 15:00:00,METAR VTBS 061500Z 19012KT 9999 FEW030 30/23 Q1009 NOSIG
2026-04-06 14:30:00,METAR VTBS 061430Z 19012KT 9999 FEW030 31/22 Q1008 NOSIG
2026-04-06 14:00:00,METAR VTBS 061400Z 19014KT 9999 FEW030 31/21 Q1008 NOSIG
2026-04-06 13:30:00,METAR VTBS 061330Z 20012KT 9999 FEW030 31/22 Q1007 NOSIG
2026-04-06 13:00:00,METAR VTBS 061300Z 21009KT 9999 FEW030 31/22 Q1007 NOSIG
2026-04-06 12:30:00,METAR VTBS 061230Z 19011KT 9999 FEW030 31/21 Q1006 NOSIG
2026-04-06 12:00:00,METAR VTBS 061200Z 20011KT 9999 FEW030 32/19 Q1006 NOSIG
2026-04-06 11:30:00,METAR VTBS 061130Z 17010KT 9999 FEW030 34/17 Q1006 NOSIG
2026-04-06 11:00:00,METAR VTBS 061100Z 17013KT 9999 FEW030 35/13 Q1006 NOSIG
2026-04-06 10:30:00,METAR VTBS 061030Z 17010KT 9999 FEW030 35/13 Q1006 NOSIG
2026-04-06 10:00:00,METAR VTBS 061000Z 18010KT 9999 FEW030 36/16 Q1006 NOSIG
2026-04-06 09:30:00,METAR VTBS 060930Z 18009KT 150V210 9999 FEW030 36/16 Q1006 NOSIG
2026-04-06 09:00:00,METAR VTBS 060900Z 18007KT 130V210 9999 FEW030 36/16 Q1006 NOSIG
2026-04-06 08:30:00,METAR VTBS 060830Z VRB05KT 9999 FEW030 36/17 Q1006 NOSIG
2026-04-06 08:00:00,METAR VTBS 060800Z 17008KT 140V220 9999 FEW030 36/18 Q1007 NOSIG
2026-04-06 07:30:00,METAR VTBS 060730Z VRB06KT 9999 FEW030 36/19 Q1007 NOSIG
2026-04-06 07:00:00,METAR VTBS 060700Z 21006KT 170V260 9999 FEW030 35/20 Q1007 NOSIG
2026-04-06 06:30:00,METAR VTBS 060630Z 19007KT 160V230 9999 FEW030 35/20 Q1008 NOSIG
2026-04-06 06:00:00,METAR VTBS 060600Z 21006KT 140V300 9999 FEW030 35/20 Q1009 NOSIG
2026-04-06 05:30:00,METAR VTBS 060530Z 19007KT 110V220 9999 FEW030 35/19 Q1009 NOSIG
2026-04-06 05:00:00,METAR VTBS 060500Z 23008KT 180V270 9999 FEW030 35/21 Q1009 NOSIG
2026-04-06 04:30:00,METAR VTBS 060430Z VRB04KT 9999 FEW030 34/20 Q1010 NOSIG
2026-04-06 04:00:00,METAR VTBS 060400Z 22005KT 160V300 9999 FEW030 34/21 Q1010 NOSIG
2026-04-06 03:30:00,METAR VTBS 060330Z 23005KT 180V290 9999 FEW030 SCT040 33/22 Q1010 NOSIG
2026-04-06 03:00:00,METAR VTBS 060300Z 22006KT 170V310 9999 FEW030 SCT040 33/22 Q1010 NOSIG
2026-04-06 02:30:00,METAR VTBS 060230Z 22004KT 160V270 9999 FEW020 SCT030 33/23 Q1011 NOSIG
2026-04-06 02:00:00,METAR VTBS 060200Z 23006KT 9999 FEW020 SCT030 31/22 Q1010 NOSIG
2026-04-06 01:30:00,METAR VTBS 060130Z 22008KT 9999 FEW020 SCT030 31/24 Q1010 NOSIG
2026-04-06 01:00:00,METAR VTBS 060100Z 20009KT 9999 FEW020 SCT030 31/24 Q1010 NOSIG
2026-04-06 00:30:00,METAR VTBS 060030Z 21007KT 9999 FEW020 30/25 Q1009 NOSIG
2026-04-06 00:00:00,METAR VTBS 060000Z 21007KT 9999 FEW020 29/25 Q1009 NOSIG
2026-04-05 23:30:00,METAR VTBS 052330Z 21006KT 9999 FEW020 29/25 Q1009 NOSIG
2026-04-05 23:00:00,METAR VTBS 052300Z 19007KT 150V210 9999 FEW020 29/25 Q1008 NOSIG
2026-04-05 22:30:00,METAR VTBS 052230Z 20009KT 9999 FEW020 29/25 Q1007 NOSIG
2026-04-05 22:00:00,METAR VTBS 052200Z 19009KT 9999 FEW020 29/25 Q1007 NOSIG
2026-04-05 21:30:00,METAR VTBS 052130Z 20007KT 9999 FEW020 29/24 Q1007 NOSIG
2026-04-05 21:00:00,METAR VTBS 052100Z 20008KT 9999 FEW020 29/24 Q1007 NOSIG
2026-04-05 20:30:00,METAR VTBS 052030Z 20010KT 9999 FEW020 29/25 Q1006 NOSIG
2026-04-05 20:00:00,METAR VTBS 052000Z 19010KT 9999 FEW020 29/25 Q1006 NOSIG
2026-04-05 19:30:00,METAR VTBS 051930Z 19011KT 9999 FEW020 29/25 Q1006 NOSIG
2026-04-05 19:00:00,METAR VTBS 051900Z 19010KT 9999 FEW020 29/26 Q1007 NOSIG
2026-04-05 18:30:00,METAR VTBS 051830Z 19011KT 9999 FEW020 29/25 Q1007 NOSIG
2026-04-05 18:00:00,METAR VTBS 051800Z 20010KT 9999 FEW020 29/26 Q1007 NOSIG
2026-04-05 17:30:00,METAR VTBS 051730Z 19010KT 9999 FEW020 29/24 Q1007 NOSIG
2026-04-05 17:00:00,METAR VTBS 051700Z 19011KT 9999 FEW020 29/24 Q1007 NOSIG
2026-04-05 16:30:00,METAR VTBS 051630Z 19010KT 9999 FEW020 30/24 Q1007 NOSIG
2026-04-05 16:00:00,METAR VTBS 051600Z 20011KT 9999 FEW020 30/24 Q1007 NOSIG
2026-04-05 15:00:00,METAR VTBS 051500Z 20009KT 9999 FEW020 30/25 Q1007 NOSIG
2026-04-05 13:00:00,METAR VTBS 051300Z 21010KT 9999 FEW020 31/24 Q1005 NOSIG
2026-04-05 12:30:00,METAR VTBS 051230Z 20011KT 9999 FEW020 32/23 Q1005 NOSIG
2026-04-05 12:00:00,METAR VTBS 051200Z 20010KT 9999 FEW020 32/21 Q1005 NOSIG
2026-04-05 11:30:00,METAR VTBS 051130Z 20010KT 9999 FEW020 33/18 Q1005 NOSIG
2026-04-05 11:00:00,METAR VTBS 051100Z 20009KT 9999 FEW020 34/19 Q1005 NOSIG
2026-04-05 10:30:00,METAR VTBS 051030Z 19009KT 9999 FEW020 35/18 Q1005 NOSIG
2026-04-05 10:00:00,METAR VTBS 051000Z 19010KT 9999 FEW020 35/14 Q1005 NOSIG
2026-04-05 09:30:00,METAR VTBS 050930Z 19009KT 9999 FEW020 36/17 Q1005 NOSIG
2026-04-05 09:00:00,METAR VTBS 050900Z 17011KT 9999 FEW020 35/17 Q1005 NOSIG
2026-04-05 08:30:00,METAR VTBS 050830Z 18010KT 9999 FEW020 36/18 Q1005 NOSIG
2026-04-05 08:00:00,METAR VTBS 050800Z 19008KT 150V220 9999 FEW020 36/19 Q1006 NOSIG
2026-04-05 07:30:00,METAR VTBS 050730Z 18009KT 9999 FEW020 35/19 Q1006 NOSIG
2026-04-05 07:00:00,METAR VTBS 050700Z 18008KT 140V240 9999 FEW020 35/20 Q1006 NOSIG
2026-04-05 06:30:00,METAR VTBS 050630Z 19008KT 150V210 9999 FEW020 35/21 Q1007 NOSIG
2026-04-05 06:00:00,METAR VTBS 050600Z 18010KT 140V220 9999 FEW020 35/21 Q1007 NOSIG
2026-04-05 05:30:00,METAR VTBS 050530Z 15008KT 110V190 9999 FEW020 35/20 Q1008 NOSIG
2026-04-05 05:00:00,METAR VTBS 050500Z VRB08KT 9999 FEW020 35/20 Q1008 NOSIG
2026-04-05 04:30:00,METAR VTBS 050430Z VRB03KT 9999 FEW020 35/15 Q1008 NOSIG
2026-04-05 04:00:00,METAR VTBS 050400Z 26006KT 210V020 9999 FEW020 34/12 Q1009 NOSIG
2026-04-05 03:30:00,METAR VTBS 050330Z 28007KT 240V320 9999 FEW020 34/14 Q1009 NOSIG
2026-04-05 03:00:00,METAR VTBS 050300Z 25005KT 180V290 9999 FEW020 34/15 Q1009 NOSIG
2026-04-05 02:30:00,METAR VTBS 050230Z 26005KT 200V310 9999 FEW020 33/18 Q1009 NOSIG
2026-04-05 02:00:00,METAR VTBS 050200Z 21005KT 180V290 9999 FEW020 32/20 Q1009 NOSIG
2026-04-05 01:30:00,METAR VTBS 050130Z 20006KT 9999 FEW020 31/23 Q1009 NOSIG
2026-04-05 01:00:00,METAR VTBS 050100Z 20007KT 9999 FEW020 31/23 Q1008 NOSIG
2026-04-05 00:30:00,METAR VTBS 050030Z 19007KT 9999 FEW020 30/25 Q1008 NOSIG
2026-04-05 00:00:00,METAR VTBS 050000Z 19006KT 9000 FEW020 29/26 Q1007 NOSIG
2026-04-04 23:30:00,METAR VTBS 042330Z 19005KT 9000 FEW020 29/26 Q1007 NOSIG
2026-04-04 23:00:00,METAR VTBS 042300Z 19005KT 9999 FEW020 29/26 Q1006 NOSIG
2026-04-04 22:30:00,METAR VTBS 042230Z 18007KT 140V210 9999 FEW020 29/26 Q1006 NOSIG
2026-04-04 22:00:00,METAR VTBS 042200Z 20006KT 9999 FEW015 29/26 Q1006 NOSIG
2026-04-04 21:30:00,METAR VTBS 042130Z 20008KT 9999 FEW015 29/26 Q1005 NOSIG
2026-04-04 21:00:00,METAR VTBS 042100Z 19010KT 9999 FEW015 29/26 Q1005 NOSIG
2026-04-04 20:30:00,METAR VTBS 042030Z 19010KT 9999 FEW015 29/26 Q1005 NOSIG
2026-04-04 20:00:00,METAR VTBS 042000Z 19011KT 9999 SCT020 29/26 Q1006 NOSIG
2026-04-04 19:30:00,METAR VTBS 041930Z 19010KT 9999 FEW020 29/26 Q1006 NOSIG
2026-04-04 19:00:00,METAR VTBS 041900Z 19010KT 9999 FEW020 29/26 Q1006 NOSIG
2026-04-04 18:30:00,METAR VTBS 041830Z 19010KT 9999 FEW020 29/25 Q1006 NOSIG
2026-04-04 18:00:00,METAR VTBS 041800Z 19011KT 9999 FEW020 29/25 Q1007 NOSIG
2026-04-04 17:30:00,METAR VTBS 041730Z 20014KT 9999 FEW020 29/25 Q1007 NOSIG
2026-04-04 17:00:00,METAR VTBS 041700Z 19014KT 9999 FEW020 29/25 Q1007 NOSIG
2026-04-04 16:30:00,METAR VTBS 041630Z 20012KT 9999 FEW020 29/25 Q1007 NOSIG
2026-04-04 16:00:00,METAR VTBS 041600Z 19013KT 9999 FEW020 29/25 Q1008 NOSIG
2026-04-04 15:30:00,METAR VTBS 041530Z 19014KT 9999 FEW020 29/25 Q1007 NOSIG
2026-04-02 17:00:00,METAR VTBS 021700Z 19012KT 9999 FEW020 29/24 Q1010 NOSIG
2026-04-02 16:30:00,METAR VTBS 021630Z 19013KT 9999 FEW020 29/24 Q1010 NOSIG
2026-04-02 16:00:00,METAR VTBS 021600Z 19011KT 9999 FEW020 29/24 Q1010 NOSIG
2026-04-02 15:30:00,METAR VTBS 021530Z 18011KT 9999 FEW020 29/24 Q1010 NOSIG
2026-04-02 15:00:00,METAR VTBS 021500Z 18012KT 9999 FEW020 30/24 Q1010 NOSIG
2026-04-02 14:30:00,METAR VTBS 021430Z 19011KT 9999 FEW020 29/24 Q1010 NOSIG
2026-04-02 14:00:00,METAR VTBS 021400Z 19013KT 9999 FEW020 30/23 Q1010 NOSIG
2026-04-02 13:30:00,METAR VTBS 021330Z 19012KT 9999 FEW020 30/24 Q1010 NOSIG
2026-04-02 13:00:00,METAR VTBS 021300Z 20012KT 9999 FEW020 30/23 Q1009 NOSIG
2026-04-02 12:30:00,METAR VTBS 021230Z 19013KT 9999 FEW020 30/23 Q1009 NOSIG
2026-04-02 12:00:00,METAR VTBS 021200Z 20012KT 9999 FEW020 30/23 Q1008 NOSIG
2026-04-02 11:30:00,METAR VTBS 021130Z 20014KT 9999 FEW020 31/22 Q1008 NOSIG
2026-04-02 11:00:00,METAR VTBS 021100Z 20013KT 9999 FEW020 32/21 Q1007 NOSIG
2026-04-02 10:30:00,METAR VTBS 021030Z 20014KT 9999 FEW020 32/21 Q1007 NOSIG
2026-04-02 10:00:00,METAR VTBS 021000Z 21015KT 9999 FEW020 33/21 Q1007 NOSIG
2026-04-02 09:30:00,METAR VTBS 020930Z 21014KT 9999 FEW020 34/20 Q1007 NOSIG
2026-04-02 09:00:00,METAR VTBS 020900Z 20013KT 9999 FEW020 35/19 Q1007 NOSIG
2026-04-02 08:30:00,METAR VTBS 020830Z 21013KT 9999 FEW020 35/17 Q1007 NOSIG
2026-04-02 08:00:00,METAR VTBS 020800Z 22011KT 190V250 9999 FEW020 35/19 Q1008 NOSIG
2026-04-02 07:30:00,METAR VTBS 020730Z 22010KT 180V250 9999 FEW020 35/20 Q1008 NOSIG
2026-04-02 07:00:00,METAR VTBS 020700Z 19011KT 160V220 9999 FEW020 35/21 Q1009 NOSIG
2026-04-02 06:30:00,METAR VTBS 020630Z 20010KT 170V240 9999 FEW020 34/23 Q1009 NOSIG
2026-04-02 06:00:00,METAR VTBS 020600Z 19010KT 160V230 9999 FEW020 34/23 Q1010 NOSIG
2026-04-02 05:30:00,METAR VTBS 020530Z 20009KT 170V230 9999 FEW020 34/23 Q1010 NOSIG
2026-04-02 05:00:00,METAR VTBS 020500Z 21009KT 190V250 9999 FEW020 33/23 Q1011 NOSIG
2026-04-02 04:30:00,METAR VTBS 020430Z 18008KT 140V210 9999 FEW020 33/24 Q1011 NOSIG
2026-04-02 04:00:00,METAR VTBS 020400Z 18009KT 9999 FEW020 33/24 Q1012 NOSIG
2026-04-02 03:30:00,METAR VTBS 020330Z 19008KT 9999 FEW020 32/24 Q1012 NOSIG
2026-04-02 03:00:00,METAR VTBS 020300Z 18009KT 150V220 9999 FEW020 32/24 Q1012 NOSIG
2026-04-02 02:30:00,METAR VTBS 020230Z 18010KT 9999 FEW020 32/25 Q1012 NOSIG
2026-04-02 02:00:00,METAR VTBS 020200Z 17009KT 130V220 9999 FEW020 31/24 Q1012 NOSIG
2026-04-02 01:30:00,METAR VTBS 020130Z 16010KT 130V190 9999 FEW020 30/24 Q1011 NOSIG
2026-04-02 01:00:00,METAR VTBS 020100Z 16008KT 120V200 9999 FEW020 30/25 Q1011 NOSIG
2026-04-02 00:30:00,METAR VTBS 020030Z 15008KT 9999 FEW020 29/26 Q1011 NOSIG
2026-04-02 00:00:00,METAR VTBS 020000Z 14005KT 120V180 9999 FEW020 29/26 Q1010 NOSIG
2026-04-01 23:30:00,METAR VTBS 012330Z 17006KT 140V200 9999 FEW020 29/25 Q1010 NOSIG
2026-04-01 23:00:00,METAR VTBS 012300Z 18006KT 9999 FEW020 29/25 Q1009 NOSIG
2026-04-01 22:30:00,METAR VTBS 012230Z 18006KT 9999 FEW020 29/25 Q1009 NOSIG
2026-04-01 22:00:00,METAR VTBS 012200Z 20005KT 9999 FEW020 28/26 Q1009 NOSIG
2026-04-01 21:30:00,METAR VTBS 012130Z 20006KT 9999 FEW020 28/26 Q1009 NOSIG
2026-04-01 21:00:00,METAR VTBS 012100Z 19008KT 9999 FEW020 29/25 Q1009 NOSIG
2026-04-01 20:30:00,METAR VTBS 012030Z 20009KT 9999 FEW017 29/25 Q1009 NOSIG
2026-04-01 20:00:00,METAR VTBS 012000Z 19009KT 9999 FEW017 29/25 Q1009 NOSIG
2026-04-01 19:30:00,METAR VTBS 011930Z 18010KT 9999 FEW017 29/25 Q1009 NOSIG
2026-04-01 19:00:00,METAR VTBS 011900Z 19010KT 9999 FEW015 29/25 Q1009 NOSIG
2026-04-01 18:30:00,METAR VTBS 011830Z 19010KT 9999 FEW015 29/26 Q1009 NOSIG
2026-04-01 18:00:00,METAR VTBS 011800Z 20012KT 9999 FEW015 29/26 Q1009 NOSIG
2026-04-01 17:30:00,METAR VTBS 011730Z 20011KT 9999 FEW015 29/26 Q1010 NOSIG
2026-04-01 17:00:00,METAR VTBS 011700Z 20010KT 9999 FEW015 29/26 Q1010 NOSIG
2026-04-01 16:30:00,METAR VTBS 011630Z 20010KT 9999 FEW016 29/26 Q1010 NOSIG
2026-04-01 16:00:00,METAR VTBS 011600Z 20013KT 9999 FEW016 29/26 Q1010 NOSIG
2026-04-01 15:30:00,METAR VTBS 011530Z 21010KT 9999 FEW016 30/26 Q1010 NOSIG
2026-04-01 15:00:00,METAR VTBS 011500Z 22011KT 9999 FEW020 30/25 Q1010 NOSIG
2026-04-01 14:00:00,METAR VTBS 011400Z 20011KT 9999 FEW020 30/25 Q1009 NOSIG
2026-04-01 13:30:00,METAR VTBS 011330Z 21010KT 9999 FEW020 30/25 Q1008 NOSIG
2026-04-01 13:00:00,METAR VTBS 011300Z 20010KT 9999 FEW020 30/25 Q1008 NOSIG
2026-04-01 12:30:00,METAR VTBS 011230Z 20010KT 9999 FEW020 30/25 Q1007 NOSIG
2026-04-01 12:00:00,METAR VTBS 011200Z 19011KT 9999 FEW020 30/24 Q1007 NOSIG
2026-04-01 11:30:00,METAR VTBS 011130Z 20012KT 9999 FEW020 31/24 Q1007 NOSIG
2026-04-01 11:00:00,METAR VTBS 011100Z 19013KT 9999 FEW020 31/24 Q1006 NOSIG
2026-04-01 10:30:00,METAR VTBS 011030Z 19014KT 9999 FEW020 32/23 Q1006 NOSIG
2026-04-01 10:00:00,METAR VTBS 011000Z 20012KT 9999 FEW020 33/23 Q1006 NOSIG
2026-04-01 09:30:00,METAR VTBS 010930Z 21011KT 9999 FEW020 35/21 Q1006 NOSIG
2026-04-01 09:00:00,METAR VTBS 010900Z 20009KT 150V260 9999 FEW020 35/21 Q1007 NOSIG
2026-04-01 08:30:00,METAR VTBS 010830Z 22008KT 190V250 9999 FEW020 35/20 Q1007 NOSIG
2026-04-01 08:00:00,METAR VTBS 010800Z 20009KT 160V260 9999 FEW020 35/21 Q1007 NOSIG
2026-04-01 07:30:00,METAR VTBS 010730Z 19008KT 150V210 9999 FEW020 35/21 Q1008 NOSIG
2026-04-01 07:00:00,METAR VTBS 010700Z 19009KT 140V220 9999 FEW020 34/22 Q1008 NOSIG
2026-04-01 06:30:00,METAR VTBS 010630Z 20010KT 160V240 9999 FEW020 34/23 Q1009 NOSIG
2026-04-01 06:00:00,METAR VTBS 010600Z 20009KT 160V250 9999 FEW020 34/22 Q1009 NOSIG
2026-04-01 05:30:00,METAR VTBS 010530Z 21008KT 170V240 9999 FEW020 34/23 Q1010 NOSIG
2026-04-01 05:00:00,METAR VTBS 010500Z 19010KT 130V220 9999 FEW020 34/24 Q1011 NOSIG
2026-04-01 04:30:00,METAR VTBS 010430Z 19008KT 160V220 9999 FEW020 33/23 Q1011 NOSIG
2026-04-01 04:00:00,METAR VTBS 010400Z 19010KT 170V230 9999 FEW020 SCT030 33/23 Q1011 NOSIG
2026-04-01 03:30:00,METAR VTBS 010330Z 19009KT 150V210 9999 FEW020 SCT030 32/24 Q1012 NOSIG
2026-04-01 03:00:00,METAR VTBS 010300Z 20009KT 9999 FEW020 SCT030 32/25 Q1012 NOSIG
2026-04-01 02:30:00,METAR VTBS 010230Z 17009KT 9999 FEW020 SCT030 31/23 Q1012 NOSIG
2026-04-01 02:00:00,METAR VTBS 010200Z 17010KT 9999 FEW005 SCT020 31/24 Q1012 NOSIG
2026-04-01 01:30:00,METAR VTBS 010130Z 18008KT 140V200 9999 FEW010 SCT020 30/25 Q1011 NOSIG
2026-04-01 01:00:00,METAR VTBS 010100Z 16008KT 9999 FEW020 30/25 Q1011 NOSIG
2026-04-01 00:30:00,METAR VTBS 010030Z 15007KT 9999 FEW020 29/25 Q1010 NOSIG
2026-04-01 00:00:00,METAR VTBS 010000Z 17006KT 130V190 9999 FEW020 29/24 Q1010 NOSIG
2026-03-31 23:30:00,METAR VTBS 312330Z 17007KT 9999 FEW020 28/24 Q1010 NOSIG
2026-03-31 23:00:00,METAR VTBS 312300Z 17007KT 9999 FEW020 28/24 Q1009 NOSIG
2026-03-31 22:30:00,METAR VTBS 312230Z 18007KT 9999 FEW020 28/24 Q1009 NOSIG
2026-03-31 22:00:00,METAR VTBS 312200Z 18007KT 9999 FEW020 28/24 Q1009 NOSIG
2026-03-31 21:30:00,METAR VTBS 312130Z 18006KT 9999 FEW020 28/24 Q1009 NOSIG
2026-03-31 21:00:00,METAR VTBS 312100Z 19006KT 9999 FEW020 28/25 Q1009 NOSIG
2026-03-31 20:30:00,METAR VTBS 312030Z 19008KT 9999 FEW020 28/24 Q1009 NOSIG
2026-03-31 20:00:00,METAR VTBS 312000Z 19007KT 9999 FEW020 28/24 Q1009 NOSIG
2026-03-31 19:30:00,METAR VTBS 311930Z 19009KT 9999 FEW020 28/24 Q1009 NOSIG
2026-03-31 19:00:00,METAR VTBS 311900Z 21010KT 9999 FEW020 29/24 Q1009 NOSIG
2026-03-31 18:30:00,METAR VTBS 311830Z 20010KT 9999 FEW020 29/24 Q1009 NOSIG
2026-03-31 18:00:00,METAR VTBS 311800Z 20011KT 9999 FEW020 29/24 Q1009 NOSIG
2026-03-31 17:30:00,METAR VTBS 311730Z 20011KT 9999 FEW020 29/24 Q1009 NOSIG
2026-03-31 17:00:00,METAR VTBS 311700Z 21010KT 9999 FEW020 29/25 Q1009 NOSIG
2026-03-31 16:30:00,METAR VTBS 311630Z 20010KT 9999 FEW020 29/25 Q1010 NOSIG
2026-03-31 16:00:00,METAR VTBS 311600Z 21011KT 9999 FEW020 29/24 Q1010 NOSIG
2026-03-31 15:30:00,METAR VTBS 311530Z 21010KT 9999 FEW020 29/24 Q1010 NOSIG
2026-03-31 15:00:00,METAR VTBS 311500Z 21009KT 9999 FEW020 29/25 Q1009 NOSIG
2026-03-31 14:30:00,METAR VTBS 311430Z 21011KT 9999 FEW020 30/25 Q1008 NOSIG
2026-03-31 14:00:00,METAR VTBS 311400Z 21010KT 9999 FEW020 30/24 Q1008 NOSIG
2026-03-31 13:30:00,METAR VTBS 311330Z 20010KT 9999 FEW020 30/24 Q1008 NOSIG
2026-03-31 13:00:00,METAR VTBS 311300Z 20009KT 9999 FEW020 30/24 Q1007 NOSIG
2026-03-31 12:30:00,METAR VTBS 311230Z 20010KT 9999 FEW020 30/24 Q1007 NOSIG
2026-03-31 12:00:00,METAR VTBS 311200Z 21009KT 9999 FEW020 31/24 Q1007 NOSIG
2026-03-31 11:30:00,METAR VTBS 311130Z 19009KT 9999 FEW030 31/23 Q1007 NOSIG
2026-03-31 11:00:00,METAR VTBS 311100Z 20009KT 9999 FEW030 32/22 Q1007 NOSIG
2026-03-31 10:30:00,METAR VTBS 311030Z 19009KT 9999 FEW030 33/21 Q1006 NOSIG
2026-03-31 10:00:00,METAR VTBS 311000Z 18009KT 9999 FEW030 33/20 Q1006 NOSIG
2026-03-31 09:30:00,METAR VTBS 310930Z 20009KT 9999 FEW030 34/20 Q1007 NOSIG
2026-03-31 09:00:00,METAR VTBS 310900Z 19010KT 9999 FEW030 34/17 Q1007 NOSIG
2026-03-31 08:30:00,METAR VTBS 310830Z 20009KT 180V240 9999 FEW030 34/20 Q1008 NOSIG
2026-03-31 08:00:00,METAR VTBS 310800Z 21008KT 9999 FEW030 34/19 Q1008 NOSIG
2026-03-31 07:30:00,METAR VTBS 310730Z 22008KT 180V250 9999 FEW030 34/20 Q1008 NOSIG
2026-03-31 07:00:00,METAR VTBS 310700Z 20010KT 170V240 9999 FEW030 34/20 Q1009 NOSIG
2026-03-31 06:30:00,METAR VTBS 310630Z 20009KT 160V250 9999 FEW030 34/21 Q1010 NOSIG
2026-03-31 06:00:00,METAR VTBS 310600Z 19008KT 150V240 9999 FEW030 34/22 Q1010 NOSIG
2026-03-31 05:30:00,METAR VTBS 310530Z 20009KT 140V220 9999 FEW030 33/22 Q1011 NOSIG
2026-03-31 05:00:00,METAR VTBS 310500Z 19008KT 160V250 9999 FEW030 33/22 Q1011 NOSIG
2026-03-31 04:30:00,METAR VTBS 310430Z 18009KT 160V240 9999 FEW030 32/23 Q1012 NOSIG
2026-03-31 04:00:00,METAR VTBS 310400Z 18009KT 140V200 9999 FEW030 32/23 Q1012 NOSIG
2026-03-31 03:30:00,METAR VTBS 310330Z 20007KT 160V230 9999 FEW025 32/22 Q1012 NOSIG
2026-03-31 03:00:00,METAR VTBS 310300Z 18010KT 140V220 9999 FEW025 31/22 Q1013 NOSIG
2026-03-31 02:30:00,METAR VTBS 310230Z 17010KT 9999 FEW025 30/23 Q1013 NOSIG
2026-03-31 02:00:00,METAR VTBS 310200Z 16011KT 120V190 9999 FEW025 30/23 Q1013 NOSIG
2026-03-31 01:30:00,METAR VTBS 310130Z 18010KT 9999 FEW025 30/23 Q1012 NOSIG
2026-03-31 01:00:00,METAR VTBS 310100Z 15006KT 110V170 9999 FEW020 29/23 Q1012 NOSIG
2026-03-31 00:30:00,METAR VTBS 310030Z 14006KT 110V180 9999 FEW020 28/23 Q1011 NOSIG
2026-03-31 00:00:00,METAR VTBS 310000Z 14006KT 120V190 9999 FEW020 28/23 Q1011 NOSIG
2026-03-30 23:30:00,METAR VTBS 302330Z 13006KT 100V220 9999 FEW020 27/23 Q1010 NOSIG
2026-03-30 23:00:00,METAR VTBS 302300Z 14005KT 090V210 9999 FEW020 27/23 Q1010 NOSIG
2026-03-30 22:30:00,METAR VTBS 302230Z 18005KT 9999 FEW020 27/22 Q1010 NOSIG
2026-03-30 22:00:00,METAR VTBS 302200Z 19006KT 150V210 9999 FEW020 27/22 Q1010 NOSIG
2026-03-30 21:30:00,METAR VTBS 302130Z 18005KT 9999 FEW020 27/22 Q1009 NOSIG
2026-03-30 21:00:00,METAR VTBS 302100Z 20005KT 9999 FEW020 27/22 Q1009 NOSIG
2026-03-30 20:30:00,METAR VTBS 302030Z 19007KT 9999 FEW020 28/22 Q1009 NOSIG
2026-03-30 20:00:00,METAR VTBS 302000Z 18009KT 9999 FEW020 28/22 Q1009 NOSIG
2026-03-30 19:30:00,METAR VTBS 301930Z 19009KT 9999 FEW020 28/22 Q1009 NOSIG
2026-03-30 19:00:00,METAR VTBS 301900Z 18010KT 9999 FEW020 28/21 Q1009 NOSIG
2026-03-30 18:30:00,METAR VTBS 301830Z 19010KT 9999 FEW020 28/22 Q1010 NOSIG
2026-03-30 18:00:00,METAR VTBS 301800Z 19010KT 9999 FEW020 28/21 Q1010 NOSIG
2026-03-30 17:30:00,METAR VTBS 301730Z 20009KT 9999 FEW020 28/22 Q1010 NOSIG
2026-03-30 17:00:00,METAR VTBS 301700Z 19010KT 9999 FEW020 28/22 Q1010 NOSIG
2026-03-30 16:30:00,METAR VTBS 301630Z 20009KT 9999 FEW020 28/22 Q1010 NOSIG
2026-03-30 16:00:00,METAR VTBS 301600Z 19010KT 9999 FEW020 29/23 Q1010 NOSIG
2026-03-30 15:30:00,METAR VTBS 301530Z 20012KT 9999 FEW020 29/23 Q1010 NOSIG
2026-03-30 15:00:00,METAR VTBS 301500Z 19012KT 9999 FEW020 29/23 Q1010 NOSIG
2026-03-30 14:30:00,METAR VTBS 301430Z 20011KT 9999 FEW020 29/23 Q1010 NOSIG
2026-03-30 14:00:00,METAR VTBS 301400Z 21010KT 9999 FEW020 29/23 Q1009 NOSIG
2026-03-30 13:30:00,METAR VTBS 301330Z 21010KT 9999 FEW020 29/23 Q1009 NOSIG
2026-03-30 13:00:00,METAR VTBS 301300Z 21012KT 9999 FEW020 30/23 Q1009 NOSIG
2026-03-30 12:30:00,METAR VTBS 301230Z 22011KT 9999 FEW020 30/23 Q1008 NOSIG
2026-03-30 12:00:00,METAR VTBS 301200Z 22010KT 9999 FEW020 30/23 Q1008 NOSIG
2026-03-30 11:30:00,METAR VTBS 301130Z 22012KT 9999 FEW020 30/23 Q1008 NOSIG
2026-03-30 11:00:00,METAR VTBS 301100Z 22012KT 9999 FEW020 31/23 Q1007 NOSIG
2026-03-30 10:30:00,METAR VTBS 301030Z 22014KT 9999 FEW020 31/23 Q1007 NOSIG
2026-03-30 10:00:00,METAR VTBS 301000Z 22012KT 9999 FEW020 32/22 Q1007 NOSIG
2026-03-30 09:30:00,METAR VTBS 300930Z 21011KT 9999 FEW020 33/22 Q1007 NOSIG
2026-03-30 09:00:00,METAR VTBS 300900Z 22012KT 190V260 9999 FEW020 SCT035 32/22 Q1007 NOSIG
2026-03-30 08:30:00,METAR VTBS 300830Z 21010KT 190V250 9999 FEW020 SCT035 33/23 Q1007 NOSIG
2026-03-30 08:00:00,METAR VTBS 300800Z 21010KT 190V260 9999 FEW020 SCT035 32/23 Q1007 NOSIG
2026-03-30 07:30:00,METAR VTBS 300730Z 22010KT 180V250 9999 FEW020 SCT035 33/23 Q1008 NOSIG
2026-03-30 07:00:00,METAR VTBS 300700Z 20011KT 170V260 9999 FEW020 34/23 Q1008 NOSIG
2026-03-30 06:30:00,METAR VTBS 300630Z 21009KT 160V250 9999 FEW020 33/22 Q1009 NOSIG
2026-03-30 06:00:00,METAR VTBS 300600Z 20010KT 160V220 9999 FEW020 33/22 Q1009 NOSIG
2026-03-30 05:30:00,METAR VTBS 300530Z 20008KT 170V230 9999 FEW020 33/22 Q1010 NOSIG
2026-03-30 05:00:00,METAR VTBS 300500Z 17011KT 9999 FEW020 33/22 Q1011 NOSIG
2026-03-30 04:30:00,METAR VTBS 300430Z 19010KT 170V230 9999 FEW020 32/22 Q1011 NOSIG
2026-03-30 04:00:00,METAR VTBS 300400Z 18010KT 9999 FEW020 32/23 Q1011 NOSIG
2026-03-30 03:30:00,METAR VTBS 300330Z 20009KT 9999 FEW020 32/23 Q1012 NOSIG
2026-03-30 03:00:00,METAR VTBS 300300Z 17010KT 9999 FEW020 31/23 Q1012 NOSIG
2026-03-30 02:30:00,METAR VTBS 300230Z 18009KT 9999 FEW020 31/22 Q1011 NOSIG
2026-03-30 02:00:00,METAR VTBS 300200Z 18008KT 150V210 9999 FEW020 31/23 Q1011 NOSIG
2026-03-30 01:30:00,METAR VTBS 300130Z 19009KT 9999 FEW020 30/22 Q1011 NOSIG
2026-03-30 01:00:00,METAR VTBS 300100Z 20007KT 9999 FEW020 29/23 Q1010 NOSIG
2026-03-30 00:30:00,METAR VTBS 300030Z 19006KT 9999 FEW020 29/23 Q1010 NOSIG
2026-03-30 00:00:00,METAR VTBS 300000Z 18006KT 9999 FEW020 28/23 Q1009 NOSIG
2026-03-29 23:30:00,METAR VTBS 292330Z 19006KT 9999 FEW020 28/23 Q1009 NOSIG
2026-03-29 23:00:00,METAR VTBS 292300Z 21005KT 9999 FEW020 28/23 Q1009 NOSIG
2026-03-29 22:30:00,METAR VTBS 292230Z 21005KT 9999 FEW020 28/23 Q1009 NOSIG
2026-03-29 22:00:00,METAR VTBS 292200Z 22004KT 9999 SCT020 28/24 Q1008 NOSIG
2026-03-29 21:30:00,METAR VTBS 292130Z 21003KT 9999 SCT020 28/23 Q1008 NOSIG
2026-03-29 21:00:00,METAR VTBS 292100Z 20004KT 9999 FEW020 28/23 Q1008 NOSIG
2026-03-29 20:30:00,METAR VTBS 292030Z 20005KT 9999 FEW020 28/23 Q1008 NOSIG
2026-03-29 20:00:00,METAR VTBS 292000Z 20006KT 9999 FEW020 28/23 Q1008 NOSIG
2026-03-29 19:30:00,METAR VTBS 291930Z 20007KT 9999 FEW020 28/23 Q1008 NOSIG
2026-03-29 19:00:00,METAR VTBS 291900Z 19008KT 9999 FEW020 29/23 Q1009 NOSIG
2026-03-29 18:30:00,METAR VTBS 291830Z 19011KT 9999 FEW020 29/23 Q1009 NOSIG
2026-03-29 18:00:00,METAR VTBS 291800Z 19010KT 9999 FEW020 29/23 Q1009 NOSIG
2026-03-29 17:30:00,METAR VTBS 291730Z 20011KT 9999 FEW020 29/24 Q1009 NOSIG
2026-03-29 17:00:00,METAR VTBS 291700Z 19011KT 9999 FEW020 29/23 Q1010 NOSIG
2026-03-29 16:30:00,METAR VTBS 291630Z 21011KT 9999 FEW020 29/23 Q1010 NOSIG
2026-03-29 16:00:00,METAR VTBS 291600Z 20011KT 9999 FEW020 29/23 Q1010 NOSIG
2026-03-29 15:30:00,METAR VTBS 291530Z 19014KT 9999 FEW020 29/23 Q1010 NOSIG
2026-03-29 15:00:00,METAR VTBS 291500Z 20013KT 9999 FEW020 29/23 Q1009 NOSIG
2026-03-29 14:30:00,METAR VTBS 291430Z 20012KT 9999 FEW020 29/23 Q1009 NOSIG
2026-03-29 14:00:00,METAR VTBS 291400Z 19013KT 9999 FEW020 29/22 Q1009 NOSIG
2026-03-29 13:30:00,METAR VTBS 291330Z 19012KT 9999 FEW020 29/23 Q1009 NOSIG
2026-03-29 13:00:00,METAR VTBS 291300Z 20012KT 9999 FEW020 30/23 Q1008 NOSIG
2026-03-29 12:30:00,METAR VTBS 291230Z 21011KT 9999 FEW020 30/23 Q1008 NOSIG
2026-03-29 12:00:00,METAR VTBS 291200Z 21011KT 9999 FEW020 30/23 Q1008 NOSIG
2026-03-29 11:30:00,METAR VTBS 291130Z 21012KT 9999 FEW020 30/23 Q1008 NOSIG
2026-03-29 11:00:00,METAR VTBS 291100Z 22012KT 9999 FEW020 31/22 Q1007 NOSIG
2026-03-29 10:30:00,METAR VTBS 291030Z 21013KT 9999 FEW020 32/22 Q1007 NOSIG
2026-03-29 10:00:00,METAR VTBS 291000Z 21012KT 9999 FEW020 32/22 Q1007 NOSIG
2026-03-29 09:30:00,METAR VTBS 290930Z 20010KT 9999 FEW020 33/21 Q1007 NOSIG
2026-03-29 09:00:00,METAR VTBS 290900Z 19010KT 170V230 9999 FEW020 33/21 Q1007 NOSIG
2026-03-29 08:30:00,METAR VTBS 290830Z 22008KT 190V260 9999 FEW020 SCT040 34/21 Q1007 NOSIG
2026-03-29 08:00:00,METAR VTBS 290800Z 22007KT 180V270 9999 FEW020 SCT040 33/21 Q1008 NOSIG
2026-03-29 07:30:00,METAR VTBS 290730Z 25006KT 200V310 9999 FEW020 SCT040 33/21 Q1008 NOSIG
2026-03-29 07:00:00,METAR VTBS 290700Z 22007KT 180V280 9999 FEW020 34/21 Q1009 NOSIG
2026-03-29 06:30:00,METAR VTBS 290630Z 21006KT 180V250 9999 FEW020 33/21 Q1009 NOSIG
2026-03-29 06:00:00,METAR VTBS 290600Z 23008KT 200V260 9999 FEW020 33/21 Q1010 NOSIG
2026-03-29 05:30:00,METAR VTBS 290530Z 22009KT 170V260 9999 FEW020 33/22 Q1011 NOSIG
2026-03-29 05:00:00,METAR VTBS 290500Z 19011KT 170V250 9999 FEW020 SCT040 33/22 Q1011 NOSIG
2026-03-29 04:30:00,METAR VTBS 290430Z 19011KT 9999 FEW020 SCT040 32/22 Q1012 NOSIG
2026-03-29 04:00:00,METAR VTBS 290400Z 19010KT 160V220 9999 FEW020 SCT040 33/23 Q1012 NOSIG
2026-03-29 03:30:00,METAR VTBS 290330Z 19010KT 160V220 9999 FEW020 SCT040 31/22 Q1012 NOSIG
2026-03-29 03:00:00,METAR VTBS 290300Z 21008KT 170V250 9999 FEW020 SCT040 31/23 Q1012 NOSIG
2026-03-29 02:30:00,METAR VTBS 290230Z 22009KT 9999 FEW020 SCT030 31/22 Q1012 NOSIG
2026-03-29 02:00:00,METAR VTBS 290200Z 20008KT 9999 FEW020 SCT030 30/22 Q1011 NOSIG
2026-03-29 01:30:00,METAR VTBS 290130Z 20009KT 170V230 9999 FEW020 SCT030 30/22 Q1011 NOSIG
2026-03-29 01:00:00,METAR VTBS 290100Z 19009KT 9999 FEW020 SCT030 30/23 Q1011 NOSIG
2026-03-29 00:30:00,METAR VTBS 290030Z 20006KT 160V230 9999 FEW020 29/23 Q1010 NOSIG
2026-03-29 00:00:00,METAR VTBS 290000Z 20007KT 9999 FEW020 29/23 Q1009 NOSIG
2026-03-28 23:30:00,METAR VTBS 282330Z 20007KT 9999 FEW020 28/24 Q1009 NOSIG
2026-03-28 23:00:00,METAR VTBS 282300Z 19007KT 9999 FEW020 28/23 Q1008 NOSIG
2026-03-28 22:30:00,METAR VTBS 282230Z 18009KT 9999 FEW020 29/23 Q1008 NOSIG
2026-03-28 22:00:00,METAR VTBS 282200Z 18008KT 9999 FEW020 28/23 Q1007 NOSIG
2026-03-28 21:30:00,METAR VTBS 282130Z 17008KT 9999 FEW020 29/24 Q1007 NOSIG
2026-03-28 21:00:00,METAR VTBS 282100Z 18009KT 9999 FEW020 29/23 Q1007 NOSIG
2026-03-28 20:30:00,METAR VTBS 282030Z 18010KT 9999 FEW020 29/23 Q1007 NOSIG
2026-03-28 20:00:00,METAR VTBS 282000Z 18008KT 9999 FEW020 29/23 Q1007 NOSIG
2026-03-28 19:30:00,METAR VTBS 281930Z 18009KT 9999 FEW018 29/23 Q1007 NOSIG
2026-03-28 19:00:00,METAR VTBS 281900Z 17010KT 9999 FEW018 29/24 Q1007 NOSIG
2026-03-28 18:30:00,METAR VTBS 281830Z 18011KT 9999 SCT018 29/24 Q1008 NOSIG
2026-03-28 18:00:00,METAR VTBS 281800Z 18012KT 9999 SCT018 29/25 Q1008 NOSIG
2026-03-28 17:30:00,METAR VTBS 281730Z 19012KT 9999 FEW020 29/24 Q1008 NOSIG
2026-03-28 17:00:00,METAR VTBS 281700Z 18011KT 9999 FEW020 29/25 Q1008 NOSIG
2026-03-28 16:30:00,METAR VTBS 281630Z 19011KT 9999 FEW020 29/25 Q1008 NOSIG
2026-03-28 16:00:00,METAR VTBS 281600Z 20014KT 9999 FEW020 29/24 Q1008 NOSIG
2026-03-28 15:30:00,METAR VTBS 281530Z 21013KT 9999 FEW020 29/24 Q1008 NOSIG
2026-03-28 15:00:00,METAR VTBS 281500Z 19012KT 9999 FEW020 29/24 Q1008 NOSIG
2026-03-28 14:30:00,METAR VTBS 281430Z 19013KT 9999 FEW020 29/24 Q1008 NOSIG
2026-03-28 14:00:00,METAR VTBS 281400Z 19013KT 9999 FEW020 29/24 Q1008 NOSIG
2026-03-28 13:30:00,METAR VTBS 281330Z 20014KT 9999 FEW020 29/24 Q1008 NOSIG
2026-03-28 13:00:00,METAR VTBS 281300Z 19011KT 9999 FEW020 30/24 Q1007 NOSIG
2026-03-28 12:30:00,METAR VTBS 281230Z 20012KT 9999 FEW020 30/24 Q1007 NOSIG
2026-03-28 12:00:00,METAR VTBS 281200Z 19013KT 9999 FEW020 30/23 Q1006 NOSIG
2026-03-28 11:30:00,METAR VTBS 281130Z 20009KT 9999 FEW020 31/22 Q1006 NOSIG
2026-03-28 11:00:00,METAR VTBS 281100Z 21011KT 9999 FEW020 31/23 Q1006 NOSIG
2026-03-28 10:30:00,METAR VTBS 281030Z 20011KT 9999 FEW020 32/23 Q1006 NOSIG
2026-03-28 10:00:00,METAR VTBS 281000Z 20012KT 9999 FEW020 32/23 Q1006 NOSIG
2026-03-28 09:30:00,METAR VTBS 280930Z 20011KT 9999 FEW020 33/23 Q1006 NOSIG
2026-03-28 09:00:00,METAR VTBS 280900Z 20012KT 9999 FEW020 33/22 Q1006 NOSIG
2026-03-28 08:30:00,METAR VTBS 280830Z 20011KT 170V230 9999 FEW020 33/23 Q1006 NOSIG
2026-03-28 08:00:00,METAR VTBS 280800Z 19012KT 9999 FEW020 34/23 Q1006 NOSIG
2026-03-28 07:30:00,METAR VTBS 280730Z 21009KT 170V240 9999 FEW020 34/23 Q1007 NOSIG
2026-03-28 07:00:00,METAR VTBS 280700Z 21010KT 9999 FEW020 33/23 Q1008 NOSIG
2026-03-28 06:30:00,METAR VTBS 280630Z 22008KT 160V250 9999 FEW020 SCT035 33/22 Q1008 NOSIG
2026-03-28 06:00:00,METAR VTBS 280600Z 21009KT 180V250 9999 FEW020 SCT030 33/23 Q1008 NOSIG
2026-03-28 05:30:00,METAR VTBS 280530Z 22010KT 9999 FEW020 SCT030 33/23 Q1009 NOSIG
2026-03-28 05:00:00,METAR VTBS 280500Z 23012KT 9999 FEW020 SCT030 32/23 Q1010 NOSIG
2026-03-28 04:30:00,METAR VTBS 280430Z 22011KT 9999 FEW020 SCT030 32/23 Q1010 NOSIG
2026-03-28 04:00:00,METAR VTBS 280400Z 19011KT 9999 SCT025 33/23 Q1010 NOSIG
2026-03-28 03:30:00,METAR VTBS 280330Z 18012KT 9999 SCT025 32/23 Q1011 NOSIG
2026-03-28 03:00:00,METAR VTBS 280300Z 20010KT 9999 SCT025 31/23 Q1011 NOSIG
2026-03-28 02:30:00,METAR VTBS 280230Z 20011KT 9999 SCT025 31/23 Q1011 NOSIG
2026-03-28 02:00:00,METAR VTBS 280200Z 19010KT 9999 FEW020 SCT030 31/23 Q1010 NOSIG
2026-03-28 01:30:00,METAR VTBS 280130Z 20010KT 9999 FEW020 SCT030 30/23 Q1010 NOSIG
2026-03-28 01:00:00,METAR VTBS 280100Z 19009KT 9999 FEW020 29/23 Q1010 NOSIG
2026-03-28 00:30:00,METAR VTBS 280030Z 18008KT 9999 FEW020 29/24 Q1009 NOSIG
2026-03-28 00:00:00,METAR VTBS 280000Z 17006KT 140V200 9999 FEW020 SCT035 29/24 Q1009 NOSIG
2026-03-27 23:30:00,METAR VTBS 272330Z 18005KT 9999 FEW020 SCT035 28/24 Q1008 NOSIG
2026-03-27 23:00:00,METAR VTBS 272300Z 17007KT 9999 FEW020 29/24 Q1008 NOSIG
2026-03-27 22:30:00,METAR VTBS 272230Z 16006KT 9999 FEW020 29/24 Q1008 NOSIG
2026-03-27 22:00:00,METAR VTBS 272200Z 16006KT 9999 FEW020 29/24 Q1007 NOSIG
2026-03-27 21:30:00,METAR VTBS 272130Z 17007KT 9999 FEW020 29/24 Q1007 NOSIG
2026-03-27 21:00:00,METAR VTBS 272100Z 16007KT 9999 FEW020 28/25 Q1007 NOSIG
2026-03-27 20:30:00,METAR VTBS 272030Z 17008KT 9999 FEW020 29/24 Q1007 NOSIG
2026-03-27 20:00:00,METAR VTBS 272000Z 18006KT 9999 FEW020 28/25 Q1007 NOSIG
2026-03-27 19:30:00,METAR VTBS 271930Z 19007KT 9999 FEW020 28/25 Q1007 NOSIG
2026-03-27 19:00:00,METAR VTBS 271900Z 19009KT 9999 FEW020 29/24 Q1007 NOSIG
2026-03-27 18:30:00,METAR VTBS 271830Z 20008KT 9999 FEW020 29/25 Q1008 NOSIG
2026-03-27 18:00:00,METAR VTBS 271800Z 20007KT 9999 FEW020 29/25 Q1008 NOSIG
2026-03-27 17:30:00,METAR VTBS 271730Z 20009KT 9999 FEW020 29/24 Q1008 NOSIG
2026-03-27 17:00:00,METAR VTBS 271700Z 20009KT 9999 FEW020 29/24 Q1008 NOSIG
2026-03-27 16:30:00,METAR VTBS 271630Z 19010KT 9999 FEW020 29/24 Q1009 NOSIG
2026-03-27 16:00:00,METAR VTBS 271600Z 19011KT 9999 FEW020 29/24 Q1009 NOSIG
2026-03-25 15:00:00,METAR VTBS 251500Z 20013KT 9999 FEW020 29/24 Q1010 NOSIG
2026-03-25 14:30:00,METAR VTBS 251430Z 19012KT 9999 FEW020 29/24 Q1009 NOSIG
2026-03-25 14:00:00,METAR VTBS 251400Z 19011KT 9999 FEW020 30/24 Q1009 NOSIG
2026-03-25 13:30:00,METAR VTBS 251330Z 20011KT 9999 FEW020 30/24 Q1009 NOSIG
2026-03-25 13:00:00,METAR VTBS 251300Z 20010KT 9999 FEW020 30/23 Q1008 NOSIG
2026-03-25 12:30:00,METAR VTBS 251230Z 21011KT 9999 FEW020 30/23 Q1008 NOSIG
2026-03-25 12:00:00,METAR VTBS 251200Z 21010KT 9999 FEW020 31/22 Q1008 NOSIG
2026-03-25 11:30:00,METAR VTBS 251130Z 21010KT 9999 FEW020 31/22 Q1008 NOSIG
2026-03-25 11:00:00,METAR VTBS 251100Z 20011KT 9999 FEW020 32/21 Q1007 NOSIG
2026-03-25 10:30:00,METAR VTBS 251030Z 21012KT 9999 FEW020 32/21 Q1007 NOSIG
2026-03-25 10:00:00,METAR VTBS 251000Z 22010KT 9999 FEW020 33/21 Q1007 NOSIG
2026-03-25 09:30:00,METAR VTBS 250930Z 23009KT 9999 FEW020 34/21 Q1007 NOSIG
2026-03-25 09:00:00,METAR VTBS 250900Z 21008KT 9999 FEW020 34/21 Q1008 NOSIG
2026-03-25 08:30:00,METAR VTBS 250830Z 22009KT 180V250 9999 FEW020 34/21 Q1008 NOSIG
2026-03-25 08:00:00,METAR VTBS 250800Z 24009KT 210V270 9999 FEW020 34/21 Q1008 NOSIG
2026-03-25 07:30:00,METAR VTBS 250730Z 19007KT 160V220 9999 FEW020 34/21 Q1008 NOSIG
2026-03-25 07:00:00,METAR VTBS 250700Z VRB07KT 9999 FEW020 34/21 Q1008 NOSIG
2026-03-25 06:30:00,METAR VTBS 250630Z 19009KT 150V230 9999 FEW020 33/21 Q1009 NOSIG
2026-03-25 06:00:00,METAR VTBS 250600Z 18007KT 9999 FEW020 33/21 Q1010 NOSIG
2026-03-25 05:30:00,METAR VTBS 250530Z 22007KT 180V260 9999 SCT020 33/22 Q1010 NOSIG
2026-03-25 05:00:00,METAR VTBS 250500Z 20008KT 160V230 9999 SCT020 33/22 Q1011 NOSIG
2026-03-25 04:30:00,METAR VTBS 250430Z 20010KT 160V220 9999 SCT020 33/23 Q1011 NOSIG
2026-03-25 04:00:00,METAR VTBS 250400Z 19009KT 150V230 9999 SCT020 32/22 Q1011 NOSIG
2026-03-25 03:30:00,METAR VTBS 250330Z 19008KT 150V230 9999 SCT020 33/23 Q1011 NOSIG
2026-03-25 03:00:00,METAR VTBS 250300Z 18008KT 140V230 9999 FEW020 32/22 Q1011 NOSIG
2026-03-25 02:30:00,METAR VTBS 250230Z 18008KT 140V200 9999 FEW020 32/23 Q1011 NOSIG
2026-03-25 02:00:00,METAR VTBS 250200Z 18009KT 150V210 9999 SCT020 31/23 Q1011 NOSIG
2026-03-25 01:30:00,METAR VTBS 250130Z 19009KT 9999 SCT020 30/23 Q1010 NOSIG
2026-03-25 01:00:00,METAR VTBS 250100Z 18009KT 9999 FEW020 30/24 Q1010 NOSIG
2026-03-25 00:30:00,METAR VTBS 250030Z 18008KT 9999 FEW020 29/24 Q1010 NOSIG
2026-03-25 00:00:00,METAR VTBS 250000Z 19007KT 9999 FEW020 29/24 Q1010 NOSIG
2026-03-24 23:30:00,METAR VTBS 242330Z 19006KT 9999 FEW020 BKN060 29/24 Q1009 NOSIG
2026-03-24 23:00:00,METAR VTBS 242300Z 20005KT 9999 FEW020 BKN060 28/24 Q1009 NOSIG
2026-03-24 22:30:00,METAR VTBS 242230Z 19006KT 9999 FEW020 28/24 Q1008 NOSIG
2026-03-24 22:00:00,METAR VTBS 242200Z 19007KT 9999 FEW020 28/24 Q1008 NOSIG
2026-03-24 21:30:00,METAR VTBS 242130Z 19008KT 9999 FEW020 28/24 Q1008 NOSIG
2026-03-24 21:00:00,METAR VTBS 242100Z 19009KT 9999 FEW020 28/24 Q1008 NOSIG
2026-03-24 20:30:00,METAR VTBS 242030Z 20009KT 9999 FEW020 28/24 Q1008 NOSIG
2026-03-24 20:00:00,METAR VTBS 242000Z 20009KT 9999 FEW020 28/24 Q1008 NOSIG
2026-03-24 19:30:00,METAR VTBS 241930Z 19010KT 9999 FEW020 29/24 Q1008 NOSIG
2026-03-24 19:00:00,METAR VTBS 241900Z 20010KT 9999 FEW020 29/24 Q1008 NOSIG
2026-03-24 18:30:00,METAR VTBS 241830Z 20010KT 9999 FEW020 29/24 Q1009 NOSIG
2026-03-24 18:00:00,METAR VTBS 241800Z 20012KT 9999 FEW020 29/24 Q1009 NOSIG
2026-03-24 17:30:00,METAR VTBS 241730Z 20013KT 9999 FEW020 29/24 Q1009 NOSIG
2026-03-24 17:00:00,METAR VTBS 241700Z 19011KT 9999 FEW020 29/24 Q1009 NOSIG
2026-03-24 16:30:00,METAR VTBS 241630Z 20012KT 9999 FEW020 29/24 Q1009 NOSIG
2026-03-24 16:00:00,METAR VTBS 241600Z 20012KT 9999 FEW020 29/23 Q1009 NOSIG
2026-03-24 15:30:00,METAR VTBS 241530Z 19013KT 9999 FEW020 30/24 Q1009 NOSIG
2026-03-24 15:00:00,METAR VTBS 241500Z 19011KT 9999 FEW020 30/24 Q1009 NOSIG
2026-03-24 14:30:00,METAR VTBS 241430Z 19012KT 9999 FEW020 30/24 Q1009 NOSIG
2026-03-24 14:00:00,METAR VTBS 241400Z 19012KT 9999 FEW020 30/23 Q1009 NOSIG
2026-03-24 13:30:00,METAR VTBS 241330Z 19011KT 9999 FEW020 30/24 Q1009 NOSIG
2026-03-24 13:00:00,METAR VTBS 241300Z 20013KT 9999 FEW020 30/24 Q1008 NOSIG
2026-03-24 12:30:00,METAR VTBS 241230Z 19013KT 9999 FEW020 30/24 Q1008 NOSIG
2026-03-24 12:00:00,METAR VTBS 241200Z 19012KT 9999 FEW020 30/24 Q1007 NOSIG
2026-03-24 11:30:00,METAR VTBS 241130Z 19012KT 9999 FEW020 31/23 Q1007 NOSIG
2026-03-24 11:00:00,METAR VTBS 241100Z 19012KT 9999 FEW020 31/23 Q1007 NOSIG
2026-03-24 10:30:00,METAR VTBS 241030Z 20013KT 9999 FEW020 32/23 Q1006 NOSIG
2026-03-24 10:00:00,METAR VTBS 241000Z 20012KT 9999 FEW020 33/22 Q1006 NOSIG
2026-03-24 09:30:00,METAR VTBS 240930Z 21011KT 9999 FEW020 33/22 Q1006 NOSIG
2026-03-24 09:00:00,METAR VTBS 240900Z 21012KT 9999 FEW020 33/22 Q1006 NOSIG
2026-03-24 08:30:00,METAR VTBS 240830Z 20013KT 9999 FEW020 34/23 Q1007 NOSIG
2026-03-24 08:00:00,METAR VTBS 240800Z 20010KT 170V230 9999 FEW020 34/23 Q1007 NOSIG
2026-03-24 07:30:00,METAR VTBS 240730Z 19011KT 160V220 9999 FEW020 34/23 Q1007 NOSIG
2026-03-24 07:00:00,METAR VTBS 240700Z 20010KT 170V240 9999 FEW020 34/23 Q1008 NOSIG
2026-03-24 06:30:00,METAR VTBS 240630Z 19012KT 9999 FEW020 34/23 Q1008 NOSIG
2026-03-24 06:00:00,METAR VTBS 240600Z 21009KT 9999 FEW020 33/22 Q1009 NOSIG
2026-03-24 05:30:00,METAR VTBS 240530Z 19009KT 160V230 9999 SCT020 33/24 Q1009 NOSIG
2026-03-24 05:00:00,METAR VTBS 240500Z 20009KT 150V220 9999 SCT020 33/23 Q1010 NOSIG
2026-03-24 04:30:00,METAR VTBS 240430Z 18010KT 150V230 9999 SCT020 32/23 Q1010 NOSIG
2026-03-24 04:00:00,METAR VTBS 240400Z 20009KT 170V240 9999 SCT020 32/23 Q1010 NOSIG
2026-03-24 03:30:00,METAR VTBS 240330Z 20009KT 9999 SCT020 32/23 Q1011 NOSIG
2026-03-24 03:00:00,METAR VTBS 240300Z 19008KT 150V210 9999 SCT020 32/24 Q1011 NOSIG
2026-03-24 02:30:00,METAR VTBS 240230Z 18008KT 150V220 9999 SCT020 31/24 Q1011 NOSIG
2026-03-24 02:00:00,METAR VTBS 240200Z 19009KT 9999 SCT020 30/23 Q1011 NOSIG
2026-03-24 01:30:00,METAR VTBS 240130Z 19010KT 9999 SCT020 30/24 Q1010 NOSIG
2026-03-24 01:00:00,METAR VTBS 240100Z 20007KT 9999 FEW020 30/24 Q1010 NOSIG
2026-03-24 00:30:00,METAR VTBS 240030Z 20006KT 150V220 9999 FEW020 29/24 Q1010 NOSIG
2026-03-24 00:00:00,METAR VTBS 240000Z 19005KT 9999 FEW020 28/24 Q1009 NOSIG
2026-03-23 23:30:00,METAR VTBS 232330Z 20005KT 9999 FEW020 28/24 Q1009 NOSIG
2026-03-23 23:00:00,METAR VTBS 232300Z 20007KT 9999 FEW020 28/24 Q1009 NOSIG
2026-03-23 22:30:00,METAR VTBS 232230Z 20007KT 9999 FEW020 28/24 Q1009 NOSIG
2026-03-23 22:00:00,METAR VTBS 232200Z 20006KT 9999 FEW020 28/24 Q1008 NOSIG
2026-03-23 21:30:00,METAR VTBS 232130Z 20008KT 9999 FEW020 28/24 Q1008 NOSIG
2026-03-23 21:00:00,METAR VTBS 232100Z 19008KT 9999 FEW020 28/24 Q1008 NOSIG
2026-03-23 20:30:00,METAR VTBS 232030Z 20009KT 9999 FEW020 28/24 Q1008 NOSIG
2026-03-23 20:00:00,METAR VTBS 232000Z 20008KT 9999 FEW020 28/24 Q1008 NOSIG
2026-03-23 19:30:00,METAR VTBS 231930Z 20009KT 9999 FEW020 29/24 Q1008 NOSIG
2026-03-23 19:00:00,METAR VTBS 231900Z 20011KT 9999 FEW020 28/24 Q1009 NOSIG
2026-03-23 18:30:00,METAR VTBS 231830Z 20012KT 9999 FEW020 29/24 Q1009 NOSIG
2026-03-23 18:00:00,METAR VTBS 231800Z 19012KT 9999 FEW020 29/24 Q1009 NOSIG
2026-03-23 17:30:00,METAR VTBS 231730Z 20012KT 9999 FEW020 29/24 Q1010 NOSIG
2026-03-23 17:00:00,METAR VTBS 231700Z 20012KT 9999 FEW020 29/24 Q1010 NOSIG
2026-03-23 16:30:00,METAR VTBS 231630Z 19011KT 9999 FEW020 29/24 Q1010 NOSIG
2026-03-23 16:00:00,METAR VTBS 231600Z 20011KT 9999 FEW020 29/24 Q1010 NOSIG
2026-03-23 15:30:00,METAR VTBS 231530Z 19014KT 9999 SCT020 29/24 Q1010 NOSIG
2026-03-23 15:00:00,METAR VTBS 231500Z 19013KT 9999 FEW020 29/24 Q1010 NOSIG
2026-03-23 14:30:00,METAR VTBS 231430Z 20014KT 9999 FEW020 29/24 Q1010 NOSIG
2026-03-23 14:00:00,METAR VTBS 231400Z 21012KT 9999 FEW020 30/24 Q1009 NOSIG
2026-03-23 13:30:00,METAR VTBS 231330Z 20014KT 9999 FEW020 30/25 Q1009 NOSIG
2026-03-23 13:00:00,METAR VTBS 231300Z 20011KT 9999 FEW020 30/24 Q1009 NOSIG
2026-03-23 12:30:00,METAR VTBS 231230Z 20010KT 9999 FEW020 30/24 Q1009 NOSIG
2026-03-23 12:00:00,METAR VTBS 231200Z 19011KT 9999 FEW020 30/24 Q1008 NOSIG
2026-03-23 11:30:00,METAR VTBS 231130Z 19011KT 9999 FEW020 30/23 Q1008 NOSIG
2026-03-23 11:00:00,METAR VTBS 231100Z 20011KT 9999 FEW020 31/24 Q1008 NOSIG
2026-03-23 10:30:00,METAR VTBS 231030Z 20010KT 9999 FEW020 31/24 Q1008 NOSIG
2026-03-23 10:00:00,METAR VTBS 231000Z 19011KT 9999 FEW020 32/24 Q1007 NOSIG
2026-03-23 09:30:00,METAR VTBS 230930Z 18012KT 9999 FEW020 32/23 Q1007 NOSIG
2026-03-23 09:00:00,METAR VTBS 230900Z 19013KT 9999 FEW020 33/23 Q1007 NOSIG
2026-03-23 08:30:00,METAR VTBS 230830Z 19013KT 9999 FEW020 33/23 Q1008 NOSIG
2026-03-23 08:00:00,METAR VTBS 230800Z 21011KT 9999 FEW020 34/23 Q1008 NOSIG
2026-03-23 07:30:00,METAR VTBS 230730Z 21010KT 170V240 9999 FEW020 33/23 Q1008 NOSIG
2026-03-23 07:00:00,METAR VTBS 230700Z 19010KT 160V240 9999 FEW020 34/22 Q1009 NOSIG
2026-03-23 06:30:00,METAR VTBS 230630Z 21010KT 170V260 9999 FEW020 33/23 Q1009 NOSIG
2026-03-23 06:00:00,METAR VTBS 230600Z 20011KT 170V230 9999 FEW020 33/23 Q1010 NOSIG
2026-03-23 05:30:00,METAR VTBS 230530Z 20011KT 170V230 9999 FEW020 32/23 Q1011 NOSIG
2026-03-23 05:00:00,METAR VTBS 230500Z 18011KT 9999 FEW020 33/24 Q1011 NOSIG
2026-03-23 04:30:00,METAR VTBS 230430Z 18011KT 9999 FEW020 32/24 Q1011 NOSIG
2026-03-23 04:00:00,METAR VTBS 230400Z 19011KT 9999 FEW020 31/24 Q1012 NOSIG
2026-03-23 03:30:00,METAR VTBS 230330Z 20012KT 9999 FEW020 31/24 Q1012 NOSIG
2026-03-23 03:00:00,METAR VTBS 230300Z 19011KT 150V220 9999 FEW020 32/24 Q1012 NOSIG
2026-03-23 02:30:00,METAR VTBS 230230Z 19011KT 9999 SCT020 31/23 Q1012 NOSIG
2026-03-23 02:00:00,METAR VTBS 230200Z 19009KT 9999 SCT020 30/23 Q1012 NOSIG
2026-03-23 01:30:00,METAR VTBS 230130Z 19009KT 9999 SCT020 30/24 Q1012 NOSIG
2026-03-23 01:00:00,METAR VTBS 230100Z 20008KT 9999 SCT020 29/24 Q1011 NOSIG
2026-03-23 00:30:00,METAR VTBS 230030Z 21006KT 9999 FEW020 29/24 Q1011 NOSIG
2026-03-23 00:00:00,METAR VTBS 230000Z 22004KT 9999 FEW020 28/25 Q1011 NOSIG
2026-03-22 23:30:00,METAR VTBS 222330Z 18007KT 9999 FEW020 28/25 Q1010 NOSIG
2026-03-22 23:00:00,METAR VTBS 222300Z 18009KT 9999 FEW020 29/25 Q1010 NOSIG
2026-03-22 22:30:00,METAR VTBS 222230Z 18007KT 9999 FEW020 28/25 Q1010 NOSIG
2026-03-22 22:00:00,METAR VTBS 222200Z 19008KT 9999 FEW020 28/24 Q1010 NOSIG
2026-03-22 21:30:00,METAR VTBS 222130Z 19011KT 9999 FEW020 28/24 Q1010 NOSIG
2026-03-22 21:00:00,METAR VTBS 222100Z 20009KT 9999 FEW020 28/25 Q1010 NOSIG
2026-03-22 20:30:00,METAR VTBS 222030Z 20009KT 9999 FEW020 28/25 Q1010 NOSIG
2026-03-22 20:00:00,METAR VTBS 222000Z 20008KT 9999 FEW020 28/25 Q1010 NOSIG
2026-03-22 19:30:00,METAR VTBS 221930Z 20012KT 9999 FEW020 29/25 Q1010 NOSIG
2026-03-22 19:00:00,METAR VTBS 221900Z 20011KT 9999 FEW020 29/25 Q1010 NOSIG
2026-03-22 18:30:00,METAR VTBS 221830Z 19013KT 9999 FEW020 29/25 Q1011 NOSIG
2026-03-22 18:00:00,METAR VTBS 221800Z 20013KT 9999 SCT020 29/25 Q1011 NOSIG
2026-03-22 17:30:00,METAR VTBS 221730Z 19012KT 9999 FEW020 29/25 Q1011 NOSIG
2026-03-22 17:00:00,METAR VTBS 221700Z 19012KT 9999 FEW020 29/24 Q1011 NOSIG
2026-03-22 16:30:00,METAR VTBS 221630Z 19013KT 9999 FEW020 29/24 Q1011 NOSIG
2026-03-22 16:00:00,METAR VTBS 221600Z 20011KT 9999 FEW020 29/24 Q1011 NOSIG
2026-03-22 15:30:00,METAR VTBS 221530Z 19013KT 9999 FEW020 29/24 Q1011 NOSIG
2026-03-22 15:00:00,METAR VTBS 221500Z 19013KT 9999 FEW030 29/25 Q1011 NOSIG
2026-03-22 14:30:00,METAR VTBS 221430Z 20011KT 9999 FEW030 29/24 Q1011 NOSIG
2026-03-22 14:00:00,METAR VTBS 221400Z 20012KT 9999 FEW030 29/24 Q1011 NOSIG
2026-03-22 13:30:00,METAR VTBS 221330Z 20013KT 9999 FEW030 29/24 Q1011 NOSIG
2026-03-22 13:00:00,METAR VTBS 221300Z 20012KT 9999 FEW030 29/24 Q1010 NOSIG
2026-03-22 12:30:00,METAR VTBS 221230Z 19015KT 9999 FEW030 30/25 Q1010 NOSIG
2026-03-22 12:00:00,METAR VTBS 221200Z 19011KT 9999 FEW030 30/24 Q1010 NOSIG
2026-03-22 11:30:00,METAR VTBS 221130Z 19011KT 9999 FEW030 31/23 Q1009 NOSIG
2026-03-22 11:00:00,METAR VTBS 221100Z 19011KT 9999 FEW030 31/23 Q1008 NOSIG
2026-03-22 10:30:00,METAR VTBS 221030Z 19011KT 9999 FEW030 31/23 Q1008 NOSIG
2026-03-22 10:00:00,METAR VTBS 221000Z 20012KT 9999 FEW030 32/22 Q1008 NOSIG
2026-03-22 09:30:00,METAR VTBS 220930Z 19012KT 9999 FEW030 33/21 Q1008 NOSIG
2026-03-22 09:00:00,METAR VTBS 220900Z 19012KT 9999 FEW030 33/22 Q1009 NOSIG
2026-03-22 08:30:00,METAR VTBS 220830Z 21011KT 170V250 9999 FEW030 33/22 Q1009 NOSIG
2026-03-22 08:00:00,METAR VTBS 220800Z 21010KT 180V240 9999 FEW030 34/21 Q1009 NOSIG
2026-03-22 07:30:00,METAR VTBS 220730Z 23009KT 180V280 9999 FEW030 34/21 Q1009 NOSIG
2026-03-22 07:00:00,METAR VTBS 220700Z 20009KT 9999 FEW030 33/21 Q1010 NOSIG
2026-03-22 06:30:00,METAR VTBS 220630Z 21010KT 180V240 9999 FEW030 33/22 Q1010 NOSIG
2026-03-22 06:00:00,METAR VTBS 220600Z 22010KT 190V250 9999 FEW030 33/22 Q1011 NOSIG
2026-03-22 05:30:00,METAR VTBS 220530Z 21010KT 180V240 9999 FEW030 33/22 Q1011 NOSIG
2026-03-22 05:00:00,METAR VTBS 220500Z 21010KT 9999 FEW030 32/23 Q1012 NOSIG
2026-03-22 04:30:00,METAR VTBS 220430Z 20010KT 160V240 9999 SCT030 BKN045 32/23 Q1012 NOSIG
2026-03-22 04:00:00,METAR VTBS 220400Z 20009KT 180V240 9999 SCT030 BKN045 31/23 Q1012 NOSIG
2026-03-22 03:30:00,METAR VTBS 220330Z 22009KT 9999 FEW020 SCT045 31/24 Q1012 NOSIG
2026-03-22 03:00:00,METAR VTBS 220300Z 20009KT 150V230 9999 FEW020 SCT045 31/23 Q1012 NOSIG
2026-03-22 02:30:00,METAR VTBS 220230Z 19009KT 9999 SCT020 SCT045 31/23 Q1012 NOSIG
2026-03-22 02:00:00,METAR VTBS 220200Z 20008KT 9999 SCT020 31/24 Q1012 NOSIG
2026-03-22 01:30:00,METAR VTBS 220130Z 20009KT 9999 SCT020 30/24 Q1012 NOSIG
2026-03-22 01:00:00,METAR VTBS 220100Z 21007KT 9999 FEW020 29/24 Q1011 NOSIG
2026-03-22 00:30:00,METAR VTBS 220030Z 19006KT 9999 FEW020 29/24 Q1011 NOSIG
2026-03-22 00:00:00,METAR VTBS 220000Z 19005KT 9999 FEW020 28/24 Q1011 NOSIG
2026-03-21 23:30:00,METAR VTBS 212330Z 17006KT 9999 FEW020 28/24 Q1010 NOSIG
2026-03-21 23:00:00,METAR VTBS 212300Z 18007KT 140V200 9999 FEW020 28/24 Q1010 NOSIG
2026-03-21 22:30:00,METAR VTBS 212230Z 19007KT 9999 FEW020 28/24 Q1010 NOSIG
2026-03-21 22:00:00,METAR VTBS 212200Z 18007KT 9999 FEW020 28/24 Q1010 NOSIG
2026-03-21 21:30:00,METAR VTBS 212130Z 19006KT 9999 FEW020 28/24 Q1010 NOSIG
2026-03-21 21:00:00,METAR VTBS 212100Z 19007KT 9999 FEW020 28/24 Q1010 NOSIG
2026-03-21 20:30:00,METAR VTBS 212030Z 20006KT 9999 FEW020 28/24 Q1010 NOSIG
2026-03-21 20:00:00,METAR VTBS 212000Z 20008KT 9999 FEW020 28/24 Q1010 NOSIG
2026-03-21 19:30:00,METAR VTBS 211930Z 20009KT 9999 FEW020 28/24 Q1010 NOSIG
2026-03-21 19:00:00,METAR VTBS 211900Z 20009KT 9999 FEW020 28/24 Q1010 NOSIG
2026-03-21 18:30:00,METAR VTBS 211830Z 19009KT 9999 FEW020 28/23 Q1010 NOSIG
2026-03-21 18:00:00,METAR VTBS 211800Z 20011KT 9999 FEW020 29/23 Q1011 NOSIG
2026-03-21 17:30:00,METAR VTBS 211730Z 19009KT 9999 FEW020 29/24 Q1011 NOSIG
2026-03-21 17:00:00,METAR VTBS 211700Z 19010KT 9999 FEW020 29/24 Q1011 NOSIG
2026-03-21 16:30:00,METAR VTBS 211630Z 19009KT 9999 FEW020 28/24 Q1011 NOSIG
2026-03-21 16:00:00,METAR VTBS 211600Z 19010KT 9999 FEW020 29/24 Q1011 NOSIG
2026-03-21 15:30:00,METAR VTBS 211530Z 20012KT 9999 FEW020 29/24 Q1011 NOSIG
2026-03-21 14:30:00,METAR VTBS 211430Z 19013KT 9999 FEW020 29/24 Q1011 NOSIG
2026-03-21 14:00:00,METAR VTBS 211400Z 19010KT 9999 FEW020 29/24 Q1010 NOSIG
2026-03-21 13:30:00,METAR VTBS 211330Z 19012KT 9999 FEW020 29/24 Q1010 NOSIG
2026-03-21 13:00:00,METAR VTBS 211300Z 19011KT 9999 FEW020 29/24 Q1009 NOSIG
2026-03-21 12:30:00,METAR VTBS 211230Z 19011KT 9999 FEW020 29/24 Q1009 NOSIG
2026-03-21 12:00:00,METAR VTBS 211200Z 19013KT 9999 FEW020 30/24 Q1010 NOSIG
2026-03-21 11:30:00,METAR VTBS 211130Z 19013KT 9999 FEW020 30/24 Q1009 NOSIG
2026-03-21 11:00:00,METAR VTBS 211100Z 19013KT 9999 FEW020 30/24 Q1009 NOSIG
2026-03-21 10:30:00,METAR VTBS 211030Z 20013KT 9999 FEW020 31/23 Q1009 NOSIG
2026-03-21 10:00:00,METAR VTBS 211000Z 20013KT 9999 FEW020 31/23 Q1009 NOSIG
2026-03-21 09:30:00,METAR VTBS 210930Z 22011KT 9999 FEW020 32/23 Q1009 NOSIG
2026-03-21 09:00:00,METAR VTBS 210900Z 21011KT 180V240 9999 FEW020 32/23 Q1008 NOSIG
2026-03-21 08:30:00,METAR VTBS 210830Z 21010KT 190V250 9999 FEW020 33/23 Q1008 NOSIG
2026-03-21 08:00:00,METAR VTBS 210800Z 21009KT 180V240 9999 FEW020 33/23 Q1009 NOSIG
2026-03-21 07:30:00,METAR VTBS 210730Z 20008KT 160V260 9999 FEW020 33/23 Q1010 NOSIG
2026-03-21 07:00:00,METAR VTBS 210700Z 20008KT 150V250 9999 FEW020 33/23 Q1010 NOSIG
2026-03-21 06:30:00,METAR VTBS 210630Z 20007KT 170V230 9999 FEW020 32/22 Q1011 NOSIG
2026-03-21 06:00:00,METAR VTBS 210600Z 20008KT 170V250 9999 FEW020 34/22 Q1011 NOSIG
2026-03-21 05:30:00,METAR VTBS 210530Z 21008KT 180V250 9999 FEW020 32/22 Q1012 NOSIG
2026-03-21 05:00:00,METAR VTBS 210500Z 17008KT 140V210 9999 FEW020 33/22 Q1012 NOSIG
2026-03-21 04:30:00,METAR VTBS 210430Z 19008KT 160V220 9999 FEW020 32/23 Q1012 NOSIG
2026-03-21 04:00:00,METAR VTBS 210400Z 18009KT 9999 FEW020 32/22 Q1013 NOSIG
2026-03-21 03:30:00,METAR VTBS 210330Z 19008KT 9999 FEW020 31/22 Q1013 NOSIG
2026-03-21 03:00:00,METAR VTBS 210300Z 19006KT 150V240 9999 FEW020 30/23 Q1013 NOSIG
2026-03-21 02:30:00,METAR VTBS 210230Z VRB05KT 9000 FEW020 30/24 Q1013 NOSIG
2026-03-21 02:00:00,METAR VTBS 210200Z VRB04KT 9000 FEW020 30/24 Q1013 NOSIG
2026-03-21 01:30:00,METAR VTBS 210130Z 09006KT 070V130 9000 FEW020CB 28/24 Q1013 NOSIG
2026-03-21 01:00:00,METAR VTBS 210100Z 09008KT 8000 FEW020CB 27/24 Q1012 NOSIG
2026-03-21 00:30:00,METAR VTBS 210030Z 09008KT 070V150 7000 FEW017TCU SCT020 27/24 Q1012 NOSIG
2026-03-21 00:00:00,METAR VTBS 210000Z 09007KT 7000 FEW017 SCT020 26/24 Q1012 NOSIG
2026-03-20 23:30:00,METAR VTBS 202330Z 08006KT 7000 SCT020 26/24 Q1011 NOSIG
2026-03-20 23:00:00,METAR VTBS 202300Z 09004KT 9000 FEW020 26/24 Q1011 NOSIG
2026-03-20 22:30:00,METAR VTBS 202230Z VRB02KT 9999 FEW020 26/24 Q1010 NOSIG
2026-03-20 22:00:00,METAR VTBS 202200Z 08003KT 9999 FEW020 27/24 Q1010 NOSIG
2026-03-20 21:30:00,METAR VTBS 202130Z 09003KT 9999 FEW018 27/24 Q1010 NOSIG
2026-03-20 21:00:00,METAR VTBS 202100Z 16004KT 130V190 9999 FEW018 27/24 Q1010 NOSIG
2026-03-20 20:30:00,METAR VTBS 202030Z 15006KT 9999 FEW020 28/24 Q1010 NOSIG
2026-03-20 20:00:00,METAR VTBS 202000Z 15007KT 9999 FEW020 28/24 Q1010 NOSIG
2026-03-20 19:30:00,METAR VTBS 201930Z 15008KT 9999 FEW020 28/24 Q1010 NOSIG
2026-03-20 19:00:00,METAR VTBS 201900Z 17007KT 9999 FEW020 28/24 Q1010 NOSIG
2026-03-20 18:30:00,METAR VTBS 201830Z 17008KT 9999 FEW020 28/24 Q1011 NOSIG
2026-03-20 18:00:00,METAR VTBS 201800Z 20006KT 9999 FEW020 28/23 Q1011 NOSIG
2026-03-20 17:30:00,METAR VTBS 201730Z 23003KT 9999 FEW020 28/23 Q1012 NOSIG
2026-03-20 17:00:00,METAR VTBS 201700Z 17006KT 9999 FEW020 29/23 Q1012 NOSIG
2026-03-20 16:30:00,METAR VTBS 201630Z 18007KT 9999 FEW020 28/23 Q1012 NOSIG
2026-03-20 16:00:00,METAR VTBS 201600Z 18007KT 9999 FEW020 29/22 Q1012 NOSIG
2026-03-20 15:30:00,METAR VTBS 201530Z 17009KT 9999 FEW020 29/23 Q1012 NOSIG
2026-03-20 15:00:00,METAR VTBS 201500Z 17008KT 9999 FEW020 29/23 Q1012 NOSIG
2026-03-20 14:30:00,METAR VTBS 201430Z 18010KT 9999 FEW020 29/23 Q1012 NOSIG
2026-03-20 14:00:00,METAR VTBS 201400Z 19012KT 9999 FEW020 29/23 Q1012 NOSIG
2026-03-20 13:30:00,METAR VTBS 201330Z 21009KT 9999 FEW020 29/23 Q1011 NOSIG
2026-03-20 13:00:00,METAR VTBS 201300Z 21011KT 9999 FEW020 29/23 Q1011 NOSIG
2026-03-20 12:30:00,METAR VTBS 201230Z 20012KT 9999 FEW020 29/23 Q1010 NOSIG
2026-03-20 12:00:00,METAR VTBS 201200Z 20012KT 9999 FEW020 29/23 Q1010 NOSIG
2026-03-20 11:30:00,METAR VTBS 201130Z 19013KT 9999 FEW020 29/23 Q1010 NOSIG
2026-03-20 11:00:00,METAR VTBS 201100Z 20012KT 9999 FEW020 30/22 Q1009 NOSIG
2026-03-20 10:30:00,METAR VTBS 201030Z 20013KT 9999 FEW020 30/22 Q1009 NOSIG
2026-03-20 10:00:00,METAR VTBS 201000Z 20013KT 9999 FEW020 31/22 Q1008 NOSIG
2026-03-20 09:30:00,METAR VTBS 200930Z 21014KT 9999 FEW020 31/22 Q1008 NOSIG
2026-03-20 09:00:00,METAR VTBS 200900Z 20014KT 9999 FEW020 31/20 Q1008 NOSIG
2026-03-20 08:30:00,METAR VTBS 200830Z 19014KT 9999 FEW020 32/21 Q1008 NOSIG
2026-03-20 08:00:00,METAR VTBS 200800Z 19013KT 9999 FEW020 33/21 Q1009 NOSIG
2026-03-20 07:30:00,METAR VTBS 200730Z 21011KT 180V240 9999 FEW020 33/20 Q1010 NOSIG
2026-03-20 07:00:00,METAR VTBS 200700Z 20012KT 180V240 9999 FEW020 33/21 Q1010 NOSIG
2026-03-20 06:30:00,METAR VTBS 200630Z 20012KT 170V230 9999 FEW020 32/21 Q1011 NOSIG
2026-03-20 06:00:00,METAR VTBS 200600Z 20011KT 9999 FEW020 32/21 Q1011 NOSIG
2026-03-20 05:30:00,METAR VTBS 200530Z 20012KT 9999 FEW020 32/23 Q1012 NOSIG
2026-03-20 05:00:00,METAR VTBS 200500Z 18013KT 9999 FEW020 32/22 Q1012 NOSIG
2026-03-20 04:30:00,METAR VTBS 200430Z 19013KT 9999 FEW020 32/22 Q1013 NOSIG
2026-03-20 04:00:00,METAR VTBS 200400Z 19013KT 9999 SCT020 31/22 Q1013 NOSIG
2026-03-20 03:30:00,METAR VTBS 200330Z 18011KT 160V220 9999 SCT020 32/22 Q1013 NOSIG
2026-03-20 03:00:00,METAR VTBS 200300Z 19012KT 9999 SCT020 31/23 Q1013 NOSIG
2026-03-20 02:30:00,METAR VTBS 200230Z 19013KT 9999 FEW020 31/23 Q1013 NOSIG
2026-03-20 02:00:00,METAR VTBS 200200Z 18010KT 9999 FEW020 30/23 Q1013 NOSIG
2026-03-20 01:30:00,METAR VTBS 200130Z 19008KT 9999 FEW020 29/24 Q1012 NOSIG
2026-03-20 01:00:00,METAR VTBS 200100Z 19007KT 9999 FEW020 29/23 Q1012 NOSIG
2026-03-20 00:30:00,METAR VTBS 200030Z 18007KT 140V200 9999 FEW020 29/23 Q1011 NOSIG
2026-03-20 00:00:00,METAR VTBS 200000Z 18007KT 9999 FEW020 28/23 Q1011 NOSIG
2026-03-19 23:30:00,METAR VTBS 192330Z 17006KT 9999 FEW020 28/23 Q1010 NOSIG
2026-03-19 23:00:00,METAR VTBS 192300Z 17007KT 9999 FEW020 28/23 Q1010 NOSIG
2026-03-19 22:30:00,METAR VTBS 192230Z 17007KT 9999 FEW020 28/23 Q1010 NOSIG
2026-03-19 22:00:00,METAR VTBS 192200Z 18007KT 9999 FEW020 28/23 Q1009 NOSIG
2026-03-19 21:30:00,METAR VTBS 192130Z 17007KT 9999 FEW020 28/23 Q1009 NOSIG
2026-03-19 21:00:00,METAR VTBS 192100Z 17007KT 9999 FEW020 28/23 Q1009 NOSIG
2026-03-19 20:30:00,METAR VTBS 192030Z 18008KT 9999 FEW020 28/23 Q1009 NOSIG
2026-03-19 20:00:00,METAR VTBS 192000Z 19009KT 9999 FEW020 28/24 Q1009 NOSIG
2026-03-19 19:30:00,METAR VTBS 191930Z 20006KT 9999 FEW020 28/24 Q1010 NOSIG
2026-03-19 19:00:00,METAR VTBS 191900Z 21006KT 9999 FEW020 28/24 Q1010 NOSIG
2026-03-19 18:30:00,METAR VTBS 191830Z 21007KT 9999 FEW020 28/24 Q1010 NOSIG
2026-03-19 18:00:00,METAR VTBS 191800Z 21008KT 9999 FEW020 28/24 Q1011 NOSIG
2026-03-19 17:30:00,METAR VTBS 191730Z 21007KT 9999 FEW020 28/24 Q1011 NOSIG
2026-03-19 17:00:00,METAR VTBS 191700Z 20008KT 9999 FEW020 29/24 Q1011 NOSIG
2026-03-19 16:30:00,METAR VTBS 191630Z 21009KT 9999 FEW020 29/23 Q1011 NOSIG
2026-03-19 16:00:00,METAR VTBS 191600Z 21011KT 9999 FEW020 29/23 Q1011 NOSIG
2026-03-19 15:30:00,METAR VTBS 191530Z 20011KT 9999 FEW020 29/23 Q1011 NOSIG
2026-03-19 15:00:00,METAR VTBS 191500Z 19011KT 9999 FEW020 29/24 Q1011 NOSIG
2026-03-19 14:30:00,METAR VTBS 191430Z 20010KT 9999 FEW020 29/24 Q1011 NOSIG
2026-03-19 14:00:00,METAR VTBS 191400Z 21011KT 9999 FEW020 29/23 Q1010 NOSIG
2026-03-19 13:30:00,METAR VTBS 191330Z 20013KT 9999 FEW020 29/23 Q1010 NOSIG
2026-03-19 13:00:00,METAR VTBS 191300Z 19014KT 9999 FEW020 29/23 Q1009 NOSIG
2026-03-19 12:30:00,METAR VTBS 191230Z 20013KT 9999 FEW020 29/23 Q1009 NOSIG
2026-03-19 12:00:00,METAR VTBS 191200Z 20012KT 9999 FEW020 29/23 Q1009 NOSIG
2026-03-19 11:30:00,METAR VTBS 191130Z 20012KT 9999 FEW020 30/23 Q1008 NOSIG
2026-03-19 11:00:00,METAR VTBS 191100Z 19012KT 9999 FEW020 30/23 Q1008 NOSIG
2026-03-19 10:30:00,METAR VTBS 191030Z 20012KT 9999 FEW020 31/23 Q1008 NOSIG
2026-03-19 10:00:00,METAR VTBS 191000Z 20013KT 9999 FEW020 31/23 Q1008 NOSIG
2026-03-19 09:30:00,METAR VTBS 190930Z 21012KT 180V240 9999 FEW020 32/22 Q1008 NOSIG
2026-03-19 09:00:00,METAR VTBS 190900Z 21012KT 9999 FEW020 32/22 Q1009 NOSIG
2026-03-19 08:30:00,METAR VTBS 190830Z 21012KT 9999 FEW020 32/22 Q1009 NOSIG
2026-03-19 08:00:00,METAR VTBS 190800Z 20011KT 160V230 9999 FEW020 33/22 Q1009 NOSIG
2026-03-19 07:30:00,METAR VTBS 190730Z 23009KT 190V250 9999 FEW020 33/22 Q1009 NOSIG
2026-03-19 07:00:00,METAR VTBS 190700Z 20011KT 9999 FEW020 33/21 Q1010 NOSIG
2026-03-19 06:30:00,METAR VTBS 190630Z 21011KT 9999 FEW020 32/21 Q1010 NOSIG
2026-03-19 06:00:00,METAR VTBS 190600Z 19011KT 9999 FEW020 33/22 Q1011 NOSIG
2026-03-19 05:30:00,METAR VTBS 190530Z 18009KT 140V200 9999 FEW020 33/21 Q1012 NOSIG
2026-03-19 05:00:00,METAR VTBS 190500Z 18009KT 150V210 9999 FEW030 32/22 Q1012 NOSIG
2026-03-19 04:30:00,METAR VTBS 190430Z 19008KT 150V220 9999 FEW030 32/22 Q1013 NOSIG
2026-03-19 04:00:00,METAR VTBS 190400Z 17010KT 150V210 9999 FEW030 31/22 Q1013 NOSIG
2026-03-19 03:30:00,METAR VTBS 190330Z 19010KT 9999 FEW030 31/22 Q1014 NOSIG
2026-03-19 03:00:00,METAR VTBS 190300Z 18010KT 9999 FEW030 31/23 Q1014 NOSIG
2026-03-19 02:30:00,METAR VTBS 190230Z 20008KT 170V230 9999 FEW030 31/22 Q1014 NOSIG
2026-03-19 02:00:00,METAR VTBS 190200Z 18007KT 9999 FEW020 30/23 Q1013 NOSIG
2026-03-19 01:30:00,METAR VTBS 190130Z 18008KT 9999 FEW020 29/23 Q1013 NOSIG
2026-03-19 01:00:00,METAR VTBS 190100Z 16004KT 070V210 9999 FEW020 29/23 Q1013 NOSIG
2026-03-19 00:30:00,METAR VTBS 190030Z 17004KT 130V200 9999 FEW020 28/23 Q1012 NOSIG
2026-03-19 00:00:00,METAR VTBS 190000Z 15004KT 120V180 9999 FEW020 28/24 Q1012 NOSIG
2026-03-18 23:30:00,METAR VTBS 182330Z 15004KT 120V190 9999 FEW020 28/24 Q1011 NOSIG
2026-03-18 23:00:00,METAR VTBS 182300Z 12004KT 070V200 9999 FEW020 28/24 Q1011 NOSIG
2026-03-18 22:30:00,METAR VTBS 182230Z 16004KT 110V200 9999 FEW020 28/23 Q1011 NOSIG
2026-03-18 22:00:00,METAR VTBS 182200Z 15005KT 100V180 9999 FEW020 28/23 Q1010 NOSIG
2026-03-18 21:30:00,METAR VTBS 182130Z 17004KT 9999 FEW020 28/23 Q1010 NOSIG
2026-03-18 21:00:00,METAR VTBS 182100Z 19006KT 9999 FEW020 28/23 Q1010 NOSIG
2026-03-18 20:30:00,METAR VTBS 182030Z 18007KT 9999 FEW020 28/23 Q1010 NOSIG
2026-03-18 20:00:00,METAR VTBS 182000Z 18007KT 9999 FEW020 SCT090 28/24 Q1011 NOSIG
2026-03-18 19:30:00,METAR VTBS 181930Z 20005KT 9999 FEW020 SCT090 28/24 Q1011 NOSIG
2026-03-18 19:00:00,METAR VTBS 181900Z 20005KT 9999 FEW020 SCT090 28/24 Q1011 NOSIG
2026-03-18 18:30:00,METAR VTBS 181830Z 20006KT 9999 FEW020 SCT090 28/23 Q1011 NOSIG
2026-03-18 18:00:00,METAR VTBS 181800Z 20007KT 9999 FEW020 SCT090 28/24 Q1012 NOSIG
2026-03-18 17:30:00,METAR VTBS 181730Z 19008KT 9999 FEW020 SCT090 28/24 Q1012 NOSIG
2026-03-18 17:00:00,METAR VTBS 181700Z 20006KT 9999 FEW020 28/23 Q1012 NOSIG
2026-03-18 16:30:00,METAR VTBS 181630Z 20009KT 9999 FEW020 28/23 Q1013 NOSIG
2026-03-18 16:00:00,METAR VTBS 181600Z 20008KT 9999 FEW020 28/23 Q1013 NOSIG
2026-03-18 15:30:00,METAR VTBS 181530Z 20011KT 9999 FEW020 28/23 Q1012 NOSIG
2026-03-18 15:00:00,METAR VTBS 181500Z 19010KT 9999 FEW020 28/22 Q1013 NOSIG
2026-03-18 14:30:00,METAR VTBS 181430Z 19012KT 9999 FEW020 29/23 Q1012 NOSIG
2026-03-18 14:00:00,METAR VTBS 181400Z 20011KT 9999 FEW020 28/23 Q1012 NOSIG
2026-03-18 13:30:00,METAR VTBS 181330Z 21009KT 9999 FEW020 29/23 Q1011 NOSIG
2026-03-18 13:00:00,METAR VTBS 181300Z 19010KT 9999 FEW020 29/23 Q1011 NOSIG
2026-03-18 12:30:00,METAR VTBS 181230Z 19013KT 9999 FEW020 29/23 Q1010 NOSIG
2026-03-18 12:00:00,METAR VTBS 181200Z 20013KT 9999 FEW020 29/23 Q1010 NOSIG
2026-03-18 11:30:00,METAR VTBS 181130Z 21009KT 9999 FEW020 29/23 Q1010 NOSIG
2026-03-18 11:00:00,METAR VTBS 181100Z 19013KT 9999 FEW020 30/23 Q1009 NOSIG
2026-03-18 10:30:00,METAR VTBS 181030Z 19013KT 9999 FEW025 30/22 Q1009 NOSIG
2026-03-18 10:00:00,METAR VTBS 181000Z 20014KT 9999 FEW025 30/22 Q1009 NOSIG
2026-03-18 09:30:00,METAR VTBS 180930Z 20013KT 9999 FEW025 31/22 Q1009 NOSIG
2026-03-18 09:00:00,METAR VTBS 180900Z 20014KT 9999 FEW025 31/22 Q1009 NOSIG
2026-03-18 08:30:00,METAR VTBS 180830Z 21012KT 9999 FEW025 32/23 Q1009 NOSIG
2026-03-18 08:00:00,METAR VTBS 180800Z 19013KT 9999 SCT025 32/23 Q1010 NOSIG
2026-03-18 07:30:00,METAR VTBS 180730Z 19013KT 9999 SCT025 31/23 Q1010 NOSIG
2026-03-18 07:00:00,METAR VTBS 180700Z 20013KT 9999 FEW020 32/23 Q1010 NOSIG
2026-03-18 06:30:00,METAR VTBS 180630Z 21009KT 9999 FEW020 SCT035 32/23 Q1011 NOSIG
2026-03-18 06:00:00,METAR VTBS 180600Z 23009KT 9999 FEW020 SCT035 32/22 Q1011 NOSIG
2026-03-18 05:30:00,METAR VTBS 180530Z 22008KT 9999 FEW020 SCT035 33/23 Q1012 NOSIG
2026-03-18 05:00:00,METAR VTBS 180500Z 17006KT 130V220 9999 FEW020 33/22 Q1013 NOSIG
2026-03-18 04:30:00,METAR VTBS 180430Z 21005KT 140V260 9999 FEW020 32/22 Q1013 NOSIG
2026-03-18 04:00:00,METAR VTBS 180400Z 20004KT 140V250 9999 FEW020 31/23 Q1014 NOSIG
2026-03-18 03:30:00,METAR VTBS 180330Z 19004KT 120V260 9999 FEW020 31/23 Q1014 NOSIG
2026-03-18 03:00:00,METAR VTBS 180300Z 16005KT 110V240 9999 FEW030 30/23 Q1014 NOSIG
2026-03-18 02:30:00,METAR VTBS 180230Z 15005KT 100V230 9999 FEW030 29/23 Q1014 NOSIG
2026-03-18 02:00:00,METAR VTBS 180200Z 15004KT 060V210 9999 FEW030 28/23 Q1014 NOSIG
2026-03-18 01:30:00,METAR VTBS 180130Z 16005KT 090V190 9999 FEW025 27/24 Q1013 NOSIG
2026-03-18 01:00:00,METAR VTBS 180100Z 16006KT 110V180 9999 FEW020 27/24 Q1013 NOSIG
2026-03-18 00:30:00,METAR VTBS 180030Z VRB02KT 9999 -RA FEW020CB SCT030 25/24 Q1013 NOSIG
2026-03-18 00:00:00,METAR VTBS 180000Z 28005KT 7000 -RA FEW020CB SCT030 BKN080 24/24 Q1012 BECMG TL0030 NSW
2026-03-17 23:30:00,METAR VTBS 172330Z 33006KT 300V360 8000 2000S -RA FEW020CB SCT030 BKN080 25/25 Q1012 TEMPO TL0010 3000 TSRA
2026-03-17 23:00:00,METAR VTBS 172300Z 01003KT 300V090 9000 4000N -RA FEW020CB SCT030 25/25 Q1011 NOSIG
2026-03-17 22:30:00,METAR VTBS 172230Z 34003KT 9999 -RA FEW020 SCT030 26/25 Q1011 NOSIG
2026-03-17 22:00:00,METAR VTBS 172200Z 33004KT 9999 -RA FEW020CB SCT030 26/24 Q1010 NOSIG
2026-03-17 21:30:00,METAR VTBS 172130Z VRB01KT 9999 FEW020CB SCT030 27/22 Q1010 NOSIG
2026-03-17 21:00:00,METAR VTBS 172100Z 12005KT 9999 FEW020 SCT040 27/23 Q1010 NOSIG
2026-03-17 20:30:00,METAR VTBS 172030Z VRB01KT 9999 FEW020CB SCT030 28/23 Q1010 NOSIG
2026-03-17 20:00:00,METAR VTBS 172000Z 22002KT 9999 FEW020 28/23 Q1011 NOSIG
2026-03-17 19:30:00,METAR VTBS 171930Z 20004KT 9999 FEW020 28/23 Q1011 NOSIG
2026-03-17 19:00:00,METAR VTBS 171900Z 23003KT 9999 FEW020 28/23 Q1011 NOSIG
2026-03-17 18:30:00,METAR VTBS 171830Z 23004KT 200V260 9999 FEW020 28/23 Q1011 NOSIG
2026-03-17 18:00:00,METAR VTBS 171800Z 21008KT 9999 FEW020 28/23 Q1012 NOSIG
2026-03-17 17:30:00,METAR VTBS 171730Z 21006KT 9999 FEW020 28/23 Q1012 NOSIG
2026-03-17 17:00:00,METAR VTBS 171700Z 21006KT 9999 FEW020 28/23 Q1012 NOSIG
2026-03-17 16:30:00,METAR VTBS 171630Z 20006KT 9999 FEW020 28/23 Q1012 NOSIG
2026-03-17 16:00:00,METAR VTBS 171600Z 20007KT 9999 FEW020 28/23 Q1013 NOSIG
2026-03-17 15:30:00,METAR VTBS 171530Z 19009KT 9999 FEW020 29/23 Q1012 NOSIG
2026-03-17 15:00:00,METAR VTBS 171500Z 21010KT 9999 FEW020 29/23 Q1012 NOSIG
2026-03-17 14:30:00,METAR VTBS 171430Z 20008KT 9999 FEW020 28/23 Q1012 NOSIG
2026-03-17 14:00:00,METAR VTBS 171400Z 21009KT 9999 FEW020 29/23 Q1011 NOSIG
2026-03-17 13:30:00,METAR VTBS 171330Z 20008KT 9999 FEW020 29/23 Q1011 NOSIG
2026-03-17 13:00:00,METAR VTBS 171300Z 21008KT 9999 FEW020 29/23 Q1011 NOSIG
2026-03-17 12:30:00,METAR VTBS 171230Z 21011KT 9999 FEW020 29/22 Q1010 NOSIG
2026-03-17 12:00:00,METAR VTBS 171200Z 20011KT 9999 FEW020 29/22 Q1010 NOSIG
2026-03-17 11:30:00,METAR VTBS 171130Z 20013KT 9999 FEW020 29/23 Q1009 NOSIG
2026-03-17 11:00:00,METAR VTBS 171100Z 19013KT 9999 FEW020 29/22 Q1009 NOSIG
2026-03-17 10:30:00,METAR VTBS 171030Z 19013KT 9999 FEW020 30/22 Q1009 NOSIG
2026-03-17 10:00:00,METAR VTBS 171000Z 20013KT 9999 FEW020 31/20 Q1009 NOSIG
2026-03-17 09:30:00,METAR VTBS 170930Z 19013KT 9999 FEW020 32/21 Q1009 NOSIG
2026-03-17 09:00:00,METAR VTBS 170900Z 20011KT 170V230 9999 FEW020 32/21 Q1009 NOSIG
2026-03-17 08:30:00,METAR VTBS 170830Z 20010KT 170V240 9999 FEW020 33/21 Q1009 NOSIG
2026-03-17 08:00:00,METAR VTBS 170800Z 22011KT 170V250 9999 FEW020 33/21 Q1009 NOSIG
2026-03-17 07:30:00,METAR VTBS 170730Z 23010KT 9999 FEW020 33/22 Q1010 NOSIG
2026-03-17 07:00:00,METAR VTBS 170700Z 20009KT 170V240 9999 FEW020 33/21 Q1010 NOSIG
2026-03-17 06:30:00,METAR VTBS 170630Z 21009KT 9999 FEW020 33/22 Q1011 NOSIG
2026-03-17 06:00:00,METAR VTBS 170600Z 20010KT 160V250 9999 FEW020 32/22 Q1011 NOSIG
2026-03-17 05:30:00,METAR VTBS 170530Z 21012KT 9999 FEW020 32/23 Q1011 NOSIG
2026-03-17 05:00:00,METAR VTBS 170500Z 21010KT 180V260 9999 FEW020 32/21 Q1012 NOSIG
2026-03-17 04:30:00,METAR VTBS 170430Z 20009KT 160V240 9999 FEW020 32/21 Q1013 NOSIG
2026-03-17 04:00:00,METAR VTBS 170400Z 18009KT 140V210 9999 FEW020 32/22 Q1013 NOSIG
2026-03-17 03:30:00,METAR VTBS 170330Z 18009KT 9999 FEW020 32/22 Q1013 NOSIG
2026-03-17 03:00:00,METAR VTBS 170300Z 20007KT 9999 FEW020 31/23 Q1013 NOSIG
2026-03-17 02:30:00,METAR VTBS 170230Z 18005KT 130V210 9999 FEW020 29/23 Q1013 NOSIG
2026-03-17 02:00:00,METAR VTBS 170200Z 16005KT 120V200 9999 FEW020 29/23 Q1013 NOSIG
2026-03-17 01:30:00,METAR VTBS 170130Z VRB03KT 9999 FEW020 29/22 Q1013 NOSIG
2026-03-17 01:00:00,METAR VTBS 170100Z VRB02KT 9999 FEW020 28/21 Q1012 NOSIG
2026-03-17 00:30:00,METAR VTBS 170030Z VRB01KT 9999 FEW020 27/20 Q1012 NOSIG
2026-03-17 00:00:00,METAR VTBS 170000Z 11003KT 070V210 9999 FEW020 26/19 Q1011 NOSIG
2026-03-16 23:30:00,METAR VTBS 162330Z 10003KT 040V180 9999 FEW020 SCT035 26/19 Q1011 NOSIG
2026-03-16 23:00:00,METAR VTBS 162300Z VRB01KT 9999 FEW020 25/19 Q1011 NOSIG
2026-03-16 22:30:00,METAR VTBS 162230Z 21003KT 150V260 9999 FEW020 25/19 Q1010 NOSIG
2026-03-16 22:00:00,METAR VTBS 162200Z 20005KT 9999 FEW020 24/20 Q1010 NOSIG
2026-03-16 21:30:00,METAR VTBS 162130Z 19008KT 9999 FEW020CB SCT040 24/20 Q1010 RETS NOSIG
2026-03-16 21:00:00,METAR VTBS 162100Z 18008KT 9999 -TSRA FEW020CB SCT040 25/20 Q1010 NOSIG
2026-03-16 20:30:00,METAR VTBS 162030Z 18011KT 8000 -RA FEW015 FEW020CB SCT030 24/21 Q1010 RETS TEMPO TL2110 4000 TSRA
2026-03-16 20:00:00,METAR VTBS 162000Z 18011KT 9999 TS FEW015 FEW020CB SCT030 27/21 Q1010 TEMPO TL2040 4000 TSRA
2026-03-16 19:30:00,METAR VTBS 161930Z 21004KT 9999 FEW020CB SCT040 28/23 Q1010 NOSIG
2026-03-16 19:00:00,METAR VTBS 161900Z 16012KT 9000 -RA FEW018CB SCT030 28/22 Q1011 NOSIG
2026-03-16 18:30:00,METAR VTBS 161830Z 22009KT 9000 -RA FEW018CB SCT030 28/23 Q1011 TEMPO TL1910 4000 TSRA
2026-03-16 18:00:00,METAR VTBS 161800Z 21008KT 9999 FEW020CB 28/23 Q1011 NOSIG
2026-03-16 17:30:00,METAR VTBS 161730Z 21008KT 9999 FEW020CB 29/24 Q1011 NOSIG
2026-03-16 17:00:00,METAR VTBS 161700Z 21009KT 9999 FEW020 29/24 Q1012 NOSIG
2026-03-16 16:30:00,METAR VTBS 161630Z 21007KT 9999 FEW020 29/24 Q1012 NOSIG
2026-03-16 16:00:00,METAR VTBS 161600Z 20008KT 9999 FEW020 29/23 Q1012 NOSIG
2026-03-16 15:30:00,METAR VTBS 161530Z 20008KT 9999 FEW020 29/24 Q1011 NOSIG
2026-03-16 15:00:00,METAR VTBS 161500Z 20010KT 9999 FEW020 29/24 Q1011 NOSIG
2026-03-16 14:30:00,METAR VTBS 161430Z 20009KT 9999 FEW020 29/24 Q1011 NOSIG
2026-03-16 14:00:00,METAR VTBS 161400Z 19010KT 9999 FEW020 29/23 Q1010 NOSIG
2026-03-16 13:30:00,METAR VTBS 161330Z 19009KT 9999 FEW020 29/23 Q1010 NOSIG
2026-03-16 13:00:00,METAR VTBS 161300Z 20008KT 9999 FEW020 29/23 Q1009 NOSIG
2026-03-16 12:30:00,METAR VTBS 161230Z 21006KT 9999 FEW020 30/22 Q1009 NOSIG
2026-03-16 12:00:00,METAR VTBS 161200Z 21006KT 9999 FEW020 30/22 Q1009 NOSIG
2026-03-16 11:30:00,METAR VTBS 161130Z 22005KT 9999 FEW020 BKN100 30/21 Q1009 NOSIG
2026-03-16 11:00:00,METAR VTBS 161100Z 22006KT 9999 FEW020 BKN100 30/20 Q1008 NOSIG
2026-03-16 10:30:00,METAR VTBS 161030Z 21006KT 9999 FEW020 BKN100 30/20 Q1009 NOSIG
2026-03-16 10:00:00,METAR VTBS 161000Z 22004KT 190V250 9999 FEW020 BKN100 30/21 Q1008 NOSIG
2026-03-16 09:30:00,METAR VTBS 160930Z 23008KT 9999 FEW020 BKN100 30/21 Q1009 NOSIG
2026-03-16 09:00:00,METAR VTBS 160900Z 24007KT 9999 FEW020 BKN100 30/21 Q1009 NOSIG
2026-03-16 08:30:00,METAR VTBS 160830Z 31008KT 270V330 9999 -RA FEW020CB BKN100 29/21 Q1009 NOSIG
2026-03-16 08:00:00,METAR VTBS 160800Z 31011KT 9000 -RA FEW020CB BKN100 30/22 Q1009 TEMPO TL0840 3000 TSRA
2026-03-16 07:30:00,METAR VTBS 160730Z 18003KT 140V240 9000 FEW020CB BKN100 33/18 Q1009 NOSIG
2026-03-16 07:00:00,METAR VTBS 160700Z VRB05KT 9000 FEW020 BKN100 33/19 Q1010 NOSIG
2026-03-16 06:30:00,METAR VTBS 160630Z 16006KT 110V200 9000 FEW020 SCT040 33/20 Q1011 NOSIG
2026-03-16 06:00:00,METAR VTBS 160600Z 14008KT 110V180 9000 FEW020 SCT040 33/19 Q1011 NOSIG
2026-03-16 05:30:00,METAR VTBS 160530Z VRB06KT 9000 FEW020 SCT035 32/19 Q1012 NOSIG
2026-03-16 05:00:00,METAR VTBS 160500Z VRB06KT 9000 FEW020 SCT035 33/20 Q1013 NOSIG
2026-03-16 04:30:00,METAR VTBS 160430Z VRB05KT 9000 FEW020CB SCT035 32/21 Q1013 NOSIG
2026-03-16 04:00:00,METAR VTBS 160400Z VRB04KT 9000 FEW020CB 31/21 Q1014 NOSIG
2026-03-16 03:30:00,METAR VTBS 160330Z 11004KT 070V190 9000 FEW020TCU 31/22 Q1014 NOSIG
2026-03-16 03:00:00,METAR VTBS 160300Z 11006KT 080V170 9000 FEW020 30/22 Q1014 NOSIG
2026-03-16 02:30:00,METAR VTBS 160230Z VRB02KT 9000 FEW020 30/22 Q1014 NOSIG
2026-03-16 02:00:00,METAR VTBS 160200Z VRB02KT 9000 FEW020 29/22 Q1013 NOSIG
2026-03-16 01:30:00,METAR VTBS 160130Z VRB02KT 9000 FEW020 28/21 Q1013 NOSIG
2026-03-16 01:00:00,METAR VTBS 160100Z 29003KT 250V320 9999 FEW020 28/21 Q1013 NOSIG
2026-03-16 00:30:00,METAR VTBS 160030Z 25003KT 220V290 9999 FEW020 28/21 Q1012 NOSIG
2026-03-16 00:00:00,METAR VTBS 160000Z 20002KT 9999 FEW020 28/22 Q1012 NOSIG
2026-03-15 23:30:00,METAR VTBS 152330Z 15004KT 110V210 9999 FEW020 28/24 Q1011 NOSIG
2026-03-15 23:00:00,METAR VTBS 152300Z 15006KT 120V180 9999 FEW020 28/24 Q1011 NOSIG
2026-03-15 22:30:00,METAR VTBS 152230Z 15006KT 120V180 9999 FEW020 SCT045 28/24 Q1011 NOSIG
2026-03-15 22:00:00,METAR VTBS 152200Z 16005KT 120V180 9999 FEW020 SCT045 28/24 Q1011 NOSIG
2026-03-15 21:30:00,METAR VTBS 152130Z 18005KT 150V210 9999 FEW020 SCT045 28/24 Q1011 NOSIG
2026-03-15 21:00:00,METAR VTBS 152100Z 17005KT 9999 FEW020 SCT045 28/24 Q1011 NOSIG
2026-03-15 20:30:00,METAR VTBS 152030Z 18007KT 9999 FEW020 SCT045 29/23 Q1011 NOSIG
2026-03-15 20:00:00,METAR VTBS 152000Z 18005KT 9999 FEW020 29/22 Q1011 NOSIG
2026-03-15 19:30:00,METAR VTBS 151930Z 18008KT 9999 FEW020 29/22 Q1011 NOSIG
2026-03-15 19:00:00,METAR VTBS 151900Z 20006KT 9999 FEW020 29/22 Q1011 NOSIG
2026-03-15 18:30:00,METAR VTBS 151830Z 22003KT 9999 FEW020 29/22 Q1011 NOSIG
2026-03-15 18:00:00,METAR VTBS 151800Z 22004KT 9999 FEW020 29/23 Q1012 NOSIG
2026-03-15 17:30:00,METAR VTBS 151730Z 21004KT 9999 FEW020 29/23 Q1012 NOSIG
2026-03-15 17:00:00,METAR VTBS 151700Z 23004KT 9999 FEW020 29/22 Q1012 NOSIG
2026-03-15 16:30:00,METAR VTBS 151630Z 23004KT 9999 FEW020 29/23 Q1012 NOSIG
2026-03-15 16:00:00,METAR VTBS 151600Z 22006KT 9999 FEW020 30/22 Q1013 NOSIG
2026-03-15 15:30:00,METAR VTBS 151530Z 20007KT 9999 FEW020 29/22 Q1013 NOSIG
2026-03-15 15:00:00,METAR VTBS 151500Z 21006KT 9999 FEW020 30/22 Q1012 NOSIG
2026-03-15 14:30:00,METAR VTBS 151430Z 21007KT 9999 FEW020 30/22 Q1012 NOSIG
2026-03-15 14:00:00,METAR VTBS 151400Z 20010KT 9999 FEW020 30/22 Q1012 NOSIG
2026-03-15 13:30:00,METAR VTBS 151330Z 18007KT 140V280 9999 FEW020 30/22 Q1011 NOSIG
2026-03-15 13:00:00,METAR VTBS 151300Z 04006KT 350V070 9999 FEW020 33/18 Q1011 NOSIG
2026-03-15 12:30:00,METAR VTBS 151230Z 06005KT 020V110 9999 FEW020 33/17 Q1010 NOSIG
2026-03-15 12:00:00,METAR VTBS 151200Z 08005KT 030V100 9999 FEW020 33/17 Q1010 NOSIG
2026-03-15 11:30:00,METAR VTBS 151130Z 08005KT 030V110 9999 FEW020 33/17 Q1010 NOSIG
2026-03-15 11:00:00,METAR VTBS 151100Z 10004KT 030V180 9999 FEW020 34/17 Q1010 NOSIG
2026-03-15 10:30:00,METAR VTBS 151030Z 09006KT 030V140 9999 FEW020 34/17 Q1010 NOSIG
2026-03-15 10:00:00,METAR VTBS 151000Z 08004KT 020V150 9999 FEW020 35/18 Q1010 NOSIG
2026-03-15 09:30:00,METAR VTBS 150930Z 08007KT 040V110 9999 FEW020 35/18 Q1010 NOSIG
2026-03-15 09:00:00,METAR VTBS 150900Z 09006KT 030V160 9999 FEW020 35/18 Q1010 NOSIG
2026-03-15 08:30:00,METAR VTBS 150830Z 10006KT 030V150 9999 FEW020 34/18 Q1010 NOSIG
2026-03-15 08:00:00,METAR VTBS 150800Z 04007KT 010V100 9999 FEW020 34/18 Q1011 NOSIG
