Time_recorded,METAR
2026-05-02 15:00:00,METAR SEQM 021500Z VRB03KT 9999 BKN030 SCT300 18/12 Q1027 NOSIG RMK A3035
2026-05-02 14:00:00,METAR SEQM 021400Z VRB01KT 9999 FEW010 BKN030 16/13 Q1027 NOSIG RMK A3035
2026-05-02 13:00:00,METAR SEQM 021300Z VRB02KT 9999 FEW005 BKN020 14/12 Q1027 NOSIG RMK A3035
2026-05-02 12:00:00,METAR SEQM 021200Z 16003KT 9999 FEW010 BKN030 13/12 Q1027 NOSIG RMK A3032
2026-05-02 11:00:00,METAR SEQM 021100Z VRB01KT 9999 BCFG FEW004 SCT030 BKN080 13/12 Q1026 NOSIG RMK A3032
2026-05-02 10:00:00,METAR SEQM 021000Z VRB01KT 9999 -RA FEW010 SCT020 OVC080 13/12 Q1026 NOSIG RMK A3030
2026-05-02 09:00:00,METAR SEQM 020900Z VRB02KT 9999 FEW010 SCT020 OVC080 13/12 Q1025 NOSIG RMK A3028
2026-05-02 08:00:00,METAR SEQM 020800Z 09003KT 9999 FEW010 SCT020 BKN100 13/12 Q1025 NOSIG RMK A3029
2026-05-02 07:00:00,METAR SEQM 020700Z 01003KT 310V030 9999 FEW004 SCT020 BKN100 13/12 Q1026 NOSIG RMK A3030
2026-05-02 06:00:00,METAR SEQM 020600Z 36003KT 9999 FEW004 BKN020 13/12 Q1027 NOSIG RMK A3033
2026-05-02 05:00:00,METAR SEQM 020500Z 05004KT 9999 SCT004 BKN020 13/12 Q1027 NOSIG RMK A3034
2026-05-02 04:00:00,METAR SEQM 020400Z 03003KT 360V070 9999 SCT004 OVC020 14/12 Q1027 NOSIG RMK A3035
2026-05-02 03:00:00,METAR SEQM 020300Z VRB02KT 9999 SCT004 OVC020 14/12 Q1027 NOSIG RMK A3033
2026-05-02 02:00:00,METAR SEQM 020200Z 01006KT 340V040 9999 BKN004 OVC020 14/13 Q1026 NOSIG RMK A3031
2026-05-02 01:00:00,METAR SEQM 020100Z 02008KT 9999 SCT004 SCT020 14/12 Q1024 NOSIG RMK A3026
2026-05-02 00:00:00,METAR SEQM 020000Z 04007KT 9999 SCT030 15/13 Q1023 NOSIG RMK A3022
2026-05-01 23:00:00,METAR SEQM 012300Z 02008KT 9999 SCT030 17/13 Q1022 NOSIG RMK A3018
2026-05-01 22:00:00,METAR SEQM 012200Z 34010KT 9999 SCT030 21/12 Q1021 NOSIG RMK A3016
2026-05-01 21:00:00,METAR SEQM 012100Z 02010KT 330V060 9999 VCSH FEW030TCU BKN040 23/11 Q1021 NOSIG RMK A3016
2026-05-01 20:00:00,METAR SEQM 012000Z 10007KT 9999 VCSH FEW030TCU BKN040 24/07 Q1021 NOSIG RMK A3017
2026-05-01 19:00:00,METAR SEQM 011900Z 36011KT 9999 VCSH FEW030TCU BKN040 21/13 Q1022 NOSIG RMK A3020
2026-05-01 18:00:00,METAR SEQM 011800Z 36010KT 330V030 9999 VCSH FEW030TCU BKN040 22/11 Q1023 NOSIG RMK A3022
2026-05-01 17:00:00,METAR SEQM 011700Z 25002KT 9999 VCSH BKN040 SCT100 23/10 Q1024 NOSIG RMK A3024
2026-05-01 16:00:00,METAR SEQM 011600Z 26005KT 220V310 9999 SCT040 SCT100 21/12 Q1024 NOSIG RMK A3026
2026-05-01 15:00:00,METAR SEQM 011500Z 27002KT 9999 SCT040 21/13 Q1025 NOSIG RMK A3028
2026-05-01 14:00:00,METAR SEQM 011400Z 27003KT 230V320 9999 SCT026 SCT080 18/12 Q1026 NOSIG RMK A3030
2026-05-01 13:00:00,METAR SEQM 011300Z 20003KT 150V270 9999 SCT020 SCT080 16/13 Q1026 NOSIG RMK A3030
2026-05-01 12:00:00,METAR SEQM 011200Z 21002KT 9999 FEW005 BKN020 14/12 Q1025 NOSIG RMK A3028
2026-05-01 11:00:00,METAR SEQM 011100Z VRB02KT 9999 BKN010 14/13 Q1025 NOSIG RMK A3028
2026-05-01 10:00:00,METAR SEQM 011000Z 01004KT 9999 OVC005 14/13 Q1024 NOSIG RMK A3026
2026-05-01 09:00:00,METAR SEQM 010900Z 02004KT 9999 OVC003 14/13 Q1024 NOSIG RMK A3024
2026-05-01 08:00:00,METAR SEQM 010800Z 02002KT 9999 FEW005 BKN020 13/12 Q1024 NOSIG RMK A3025
2026-05-01 07:00:00,METAR SEQM 010700Z 36003KT 9999 BKN003 14/13 Q1025 NOSIG RMK A3027
2026-05-01 06:00:00,METAR SEQM 010600Z 02005KT 9999 BKN005 14/14 Q1025 NOSIG RMK A3028
2026-05-01 05:00:00,METAR SEQM 010500Z 02003KT 9999 BKN010 15/14 Q1026 NOSIG RMK A3030
2026-05-01 04:00:00,METAR SEQM 010400Z VRB02KT 9999 BKN010 15/14 Q1026 NOSIG RMK A3030
2026-05-01 03:00:00,METAR SEQM 010300Z 07003KT 9999 BKN005 15/14 Q1025 NOSIG RMK A3029
2026-05-01 02:00:00,METAR SEQM 010200Z 36003KT 9999 OVC005 15/14 Q1025 NOSIG RMK A3027
2026-05-01 01:00:00,METAR SEQM 010100Z 04004KT 010V070 9999 BKN004 15/14 Q1024 NOSIG RMK A3024
2026-05-01 00:00:00,METAR SEQM 010000Z 03007KT 9999 SCT020 SCT090 15/14 Q1022 NOSIG RMK A3020
2026-04-30 23:00:00,METAR SEQM 302300Z 01009KT 9999 SCT033 17/14 Q1021 NOSIG RMK A3016
2026-04-30 22:00:00,METAR SEQM 302200Z 03007KT 9999 SCT033 SCT100 18/14 Q1020 NOSIG RMK A3014
2026-04-30 21:00:00,METAR SEQM 302100Z 01013KT 9999 SCT040 BKN100 19/14 Q1020 NOSIG RMK A3012
2026-04-30 20:00:00,METAR SEQM 302000Z 34010KT 9999 SCT040 BKN100 23/12 Q1019 NOSIG RMK A3010
2026-04-30 19:00:00,METAR SEQM 301900Z 31003KT 9999 SCT040 SCT100 26/07 Q1020 NOSIG RMK A3013
2026-04-30 18:00:00,METAR SEQM 301800Z 24006KT 9999 SCT040 SCT100 26/07 Q1022 NOSIG RMK A3018
2026-04-30 17:00:00,METAR SEQM 301700Z 20006KT 170V250 9999 SCT040 24/06 Q1023 NOSIG RMK A3021
2026-04-30 16:00:00,METAR SEQM 301600Z 03004KT 9999 SCT033 24/09 Q1024 NOSIG RMK A3024
2026-04-30 15:00:00,METAR SEQM 301500Z 32002KT 9999 SCT033 21/09 Q1024 NOSIG RMK A3026
2026-04-30 14:00:00,METAR SEQM 301400Z 29002KT 9999 FEW033 19/11 Q1025 NOSIG RMK A3027
2026-04-30 13:00:00,METAR SEQM 301300Z 22003KT 9999 FEW030 15/12 Q1025 NOSIG RMK A3027
2026-04-30 12:00:00,METAR SEQM 301200Z VRB02KT 9999 BCFG FEW030 10/09 Q1024 NOSIG RMK A3025
2026-04-30 11:00:00,METAR SEQM 301100Z 16003KT 140V210 9999 BCFG FEW002 SCT020 BKN080 10/09 Q1023 NOSIG RMK A3023
2026-04-30 10:00:00,METAR SEQM 301000Z 16003KT 9999 BCFG FEW002 SCT020 11/10 Q1023 NOSIG RMK A3022
2026-04-30 09:00:00,METAR SEQM 300900Z VRB01KT 9999 BCFG FEW004 SCT020 10/10 Q1023 NOSIG RMK A3022
2026-04-30 08:00:00,METAR SEQM 300800Z 10004KT 9999 FEW004 SCT020 12/10 Q1023 NOSIG RMK A3022
2026-04-30 07:00:00,METAR SEQM 300700Z VRB02KT 9999 BCFG FEW004 BKN020 12/11 Q1024 NOSIG RMK A3024
2026-04-30 06:00:00,METAR SEQM 300600Z 00000KT 9999 BCFG FEW003 SCT020 14/13 Q1025 NOSIG RMK A3026
2026-04-30 05:00:00,METAR SEQM 300500Z VRB02KT 9999 BCFG SCT003 OVC020 15/13 Q1025 NOSIG RMK A3028
2026-04-30 04:00:00,METAR SEQM 300400Z VRB02KT 9999 SCT003 OVC020 15/14 Q1025 NOSIG RMK A3029
2026-04-30 03:00:00,METAR SEQM 300300Z 02004KT 340V060 9999 SCT003 OVC020 15/14 Q1025 NOSIG RMK A3028
2026-04-30 02:00:00,METAR SEQM 300200Z 06003KT 030V110 9999 SCT003 BKN020 15/14 Q1024 NOSIG RMK A3025
2026-04-30 01:00:00,METAR SEQM 300100Z 04003KT 9999 FEW010 SCT030 15/14 Q1023 NOSIG RMK A3022
2026-04-30 00:00:00,METAR SEQM 300000Z 02008KT 9999 BKN023 16/14 Q1022 NOSIG RMK A3018
2026-04-29 23:00:00,METAR SEQM 292300Z 02007KT 9999 BKN023 17/14 Q1021 NOSIG RMK A3015
2026-04-29 22:00:00,METAR SEQM 292200Z 02009KT 340V040 9999 SCT023 SCT040 19/14 Q1020 NOSIG RMK A3012
2026-04-29 21:00:00,METAR SEQM 292100Z 02009KT 9999 SCT026 SCT040 21/14 Q1019 NOSIG RMK A3011
2026-04-29 20:00:00,METAR SEQM 292000Z 01012KT 9999 SCT026 22/14 Q1020 NOSIG RMK A3012
2026-04-29 19:00:00,METAR SEQM 291900Z 34013KT 9999 BKN023 23/10 Q1021 NOSIG RMK A3016
2026-04-29 18:00:00,METAR SEQM 291800Z 36012KT 340V040 9999 BKN023 23/10 Q1022 NOSIG RMK A3020
2026-04-29 17:00:00,METAR SEQM 291700Z 29004KT 9999 BKN026 23/10 Q1024 NOSIG RMK A3024
2026-04-29 16:00:00,METAR SEQM 291600Z 28003KT 210V360 9999 BKN023 22/11 Q1025 NOSIG RMK A3028
2026-04-29 15:00:00,METAR SEQM 291500Z 21004KT 9999 SCT023 20/12 Q1026 NOSIG RMK A3030
2026-04-29 14:00:00,METAR SEQM 291400Z VRB02KT 9999 SCT013 17/12 Q1026 NOSIG RMK A3032
2026-04-29 13:00:00,METAR SEQM 291300Z 19004KT 160V220 9999 FEW005 SCT020 14/12 Q1026 NOSIG RMK A3031
2026-04-29 12:00:00,METAR SEQM 291200Z 13002KT 9999 FEW005 SCT020 12/11 Q1025 NOSIG RMK A3029
2026-04-29 11:00:00,METAR SEQM 291100Z VRB02KT 9999 SCT005 BKN020 11/11 Q1025 NOSIG RMK A3028
2026-04-29 10:30:00,SPECI SEQM 291030Z VRB01KT 9999 SCT003 12/12 Q1025 NOSIG RMK A3027
2026-04-29 10:00:00,METAR SEQM 291000Z 09003KT 4000 BR BKN003 12/12 Q1024 TEMPO 6000 RMK A3026
2026-04-29 09:23:00,SPECI SEQM 290923Z 09003KT 1000 R36/0800VP2000N FG BKN003 12/12 Q1024 BECMG AT1000 4000 BR RMK A3025
2026-04-29 09:00:00,METAR SEQM 290900Z 00000KT 4000 BR BKN003 12/12 Q1024 TEMPO 2000 RMK A3025
2026-04-29 08:00:00,METAR SEQM 290800Z VRB02KT 8000 BCFG SCT003 BKN020 14/13 Q1025 NOSIG RMK A3028
2026-04-29 07:00:00,METAR SEQM 290700Z VRB02KT 8000 BCFG SCT003 BKN020 14/13 Q1025 NOSIG RMK A3029
2026-04-29 06:00:00,METAR SEQM 290600Z VRB02KT 8000 BCFG SCT003 OVC020 14/14 Q1027 NOSIG RMK A3032
2026-04-29 05:00:00,METAR SEQM 290500Z 00000KT 9999 BCFG SCT003 OVC020 14/14 Q1027 NOSIG RMK A3034
2026-04-29 04:00:00,METAR SEQM 290400Z 01004KT 9999 BCFG SCT003 BKN020 15/14 Q1028 NOSIG RMK A3036
2026-04-29 03:00:00,METAR SEQM 290300Z 01005KT 8000 BCFG BKN003 OVC020 14/14 Q1027 TEMPO 6000 RMK A3035
2026-04-29 02:00:00,METAR SEQM 290200Z 06001KT 9999 BCFG FEW010 SCT030 BKN100 14/14 Q1026 NOSIG RMK A3032
2026-04-29 01:32:00,SPECI SEQM 290132Z 00000KT 9999 BCFG FEW010 SCT030 BKN100 14/14 Q1026 NOSIG RMK RERA A3030
2026-04-29 01:00:00,METAR SEQM 290100Z VRB01KT 9999 RA BCFG FEW010 BKN030 OVC100 15/14 Q1026 TEMPO -RA RMK A3030
2026-04-29 00:13:00,SPECI SEQM 290013Z 05005KT 010V070 9999 RA BCFG FEW013 OVC030 15/14 Q1025 TEMPO 8000 -RA RMK A3027
2026-04-29 00:00:00,METAR SEQM 290000Z 05004KT 010V080 9999 -DZ FEW013 BKN030 16/14 Q1024 NOSIG RMK A3026
2026-04-28 23:00:00,METAR SEQM 282300Z 01008KT 9999 FEW020 SCT030 17/14 Q1023 NOSIG RMK A3022
2026-04-28 22:00:00,METAR SEQM 282200Z 01010KT 340V040 9999 SCT030 19/13 Q1022 NOSIG RMK A3019
2026-04-28 21:00:00,METAR SEQM 282100Z 01013KT 9999 VCSH SCT030 SCT100 19/14 Q1022 NOSIG RMK A3020
2026-04-28 20:00:00,METAR SEQM 282000Z 01014KT 9999 SCT030 21/13 Q1023 NOSIG RMK A3020
2026-04-28 19:00:00,METAR SEQM 281900Z 36013KT 9999 VCSH SCT030 BKN100 21/13 Q1023 NOSIG RMK A3023
2026-04-28 18:00:00,METAR SEQM 281800Z 35013KT 9999 VCSH SCT030 BKN100 21/11 Q1024 NOSIG RMK A3026
2026-04-28 17:00:00,METAR SEQM 281700Z VRB07KT 9999 SCT030 BKN100 22/08 Q1025 NOSIG RMK A3029
2026-04-28 16:00:00,METAR SEQM 281600Z VRB04KT 9999 SCT030 21/12 Q1026 NOSIG RMK A3031
2026-04-28 15:00:00,METAR SEQM 281500Z VRB03KT 9999 FEW026 19/11 Q1027 NOSIG RMK A3033
2026-04-28 14:00:00,METAR SEQM 281400Z VRB03KT 9999 FEW020 17/12 Q1028 NOSIG RMK A3036
2026-04-28 13:00:00,METAR SEQM 281300Z 00000KT 9999 FEW013 16/12 Q1028 NOSIG RMK A3036
2026-04-28 12:00:00,METAR SEQM 281200Z 06002KT 9999 FEW010 11/10 Q1027 NOSIG RMK A3033
2026-04-28 11:00:00,METAR SEQM 281100Z 18003KT 150V220 9999 FEW005 BKN020 11/10 Q1026 TEMPO 8000 RMK A3031
2026-04-28 10:00:00,METAR SEQM 281000Z 13003KT 9999 BCFG FEW010 SCT080 11/10 Q1025 NOSIG RMK A3029
2026-04-28 09:00:00,METAR SEQM 280900Z 00000KT 9999 FEW010 SCT080 10/09 Q1025 NOSIG RMK A3029
2026-04-28 08:00:00,METAR SEQM 280800Z 13003KT 100V170 9999 FEW005 10/09 Q1025 NOSIG RMK A3029
2026-04-28 07:00:00,METAR SEQM 280700Z 19003KT 120V250 9999 FEW003 12/11 Q1026 NOSIG RMK A3031
2026-04-28 06:11:00,SPECI SEQM 280611Z 13005KT 9999 BCFG FEW003 12/12 Q1027 NOSIG RMK A3034
2026-04-28 06:00:00,METAR SEQM 280600Z 13006KT 0500 R36/0700 FG OVC003 12/12 Q1027 BECMG AT0630 8000 RMK A3034
2026-04-28 05:49:00,SPECI SEQM 280549Z 13005KT 1000 R36/1300VP2000D BR OVC003 12/12 Q1027 BECMG AT0630 8000 RMK A3035
2026-04-28 05:30:00,METAR SEQM 280530Z 14005KT 1000 R36/1800VP2000N BR OVC003 12/12 Q1027 BECMG AT0630 8000 RMK A3035
2026-04-28 05:00:00,METAR SEQM 280500Z 05001KT 9999 BCFG SCT003 12/11 Q1028 NOSIG RMK A3037
2026-04-28 04:00:00,METAR SEQM 280400Z 13003KT 9999 FEW010 BKN080 13/12 Q1028 NOSIG RMK A3038
2026-04-28 03:00:00,METAR SEQM 280300Z 10003KT 9999 FEW010 SCT020 OVC080 14/13 Q1029 NOSIG RMK A3038
2026-04-28 02:00:00,METAR SEQM 280200Z 00000KT 9999 -RA FEW010 SCT030 OVC080 14/13 Q1028 NOSIG RMK A3038
2026-04-28 01:00:00,METAR SEQM 280100Z 06003KT 030V100 9999 -RA FEW010 SCT030 BKN080 14/13 Q1027 NOSIG RMK A3035
2026-04-28 00:00:00,METAR SEQM 280000Z 04003KT 9999 VCSH FEW010 SCT026 BKN100 14/12 Q1026 TEMPO -RA RMK A3031
2026-04-27 23:00:00,METAR SEQM 272300Z 02003KT 9999 VCSH SCT026 BKN100 16/11 Q1025 TEMPO -RA RMK A3028
2026-04-27 22:00:00,METAR SEQM 272200Z VRB02KT 9999 VCSH SCT026 BKN100 17/12 Q1025 TEMPO RA RMK A3028
2026-04-27 21:00:00,METAR SEQM 272100Z 02008KT 9999 SCT026 BKN100 17/13 Q1025 NOSIG RMK A3026
2026-04-27 20:00:00,METAR SEQM 272000Z 36010KT 9999 -RA SCT026 BKN100 18/13 Q1024 NOSIG RMK A3026
2026-04-27 19:25:00,SPECI SEQM 271925Z 35013KT 9999 -RA SCT026TCU BKN100 18/13 Q1024 BECMG TL1945 RA RMK A3026
2026-04-27 19:00:00,METAR SEQM 271900Z 09005KT 020V140 9999 VCSH SCT026TCU BKN100 20/10 Q1025 TEMPO TSRA RMK A3026
2026-04-27 18:00:00,METAR SEQM 271800Z 01003KT 9999 VCSH SCT026TCU BKN100 22/10 Q1026 TEMPO TSRA RMK A3029
2026-04-27 17:00:00,METAR SEQM 271700Z VRB02KT 9999 FEW026 BKN100 20/11 Q1027 NOSIG RMK A3033
2026-04-27 16:00:00,METAR SEQM 271600Z 26003KT 190V330 9999 FEW023 BKN100 18/11 Q1028 NOSIG RMK A3036
2026-04-27 15:00:00,METAR SEQM 271500Z VRB02KT 9999 FEW020 SCT030 BKN100 16/13 Q1029 NOSIG RMK A3039
2026-04-27 14:00:00,METAR SEQM 271400Z 23004KT 180V280 9999 BCFG FEW005 SCT030 BKN100 14/13 Q1029 NOSIG RMK A3040
2026-04-27 13:30:00,METAR SEQM 271330Z COR WIND RWY 36 350/3KT VRB BTN 330/ AND 070/ VIS 8KM BCFG CLD SCT 500FT SCT 3000FT OVC 10000FT T14 DP13 QNH 1028HPA BECMG AT1340 VIS 10KM RMK 3038INCH
2026-04-27 13:00:00,METAR SEQM 271300Z 01004KT 340V040 8000 BCFG SCT005 SCT030 OVC100 14/13 Q1028 BECMG AT1340 9999 RMK A3038
2026-04-27 12:24:00,SPECI SEQM 271224Z 02003KT 360V070 6000 3000N BCFG BKN005 OVC100 13/13 Q1028 BECMG TL1250 8000 RMK A3036
2026-04-27 12:00:00,METAR SEQM 271200Z 02005KT 6000 BCFG FEW005 BKN030 OVC100 13/13 Q1027 BECMG AT1240 9999 RMK A3035
2026-04-27 11:00:00,METAR SEQM 271100Z 01004KT 9999 VCSH FEW005 BKN030 OVC100 13/13 Q1027 NOSIG RMK A3033
2026-04-27 10:00:00,METAR SEQM 271000Z VRB02KT 9999 BKN030 13/13 Q1026 NOSIG RMK A3031
2026-04-27 09:00:00,METAR SEQM 270900Z 25003KT 9999 BKN020 14/13 Q1025 NOSIG RMK A3029
2026-04-27 08:00:00,METAR SEQM 270800Z 19002KT 9999 BKN020 13/12 Q1026 NOSIG RMK A3030
2026-04-27 07:00:00,METAR SEQM 270700Z 13002KT 9999 FEW005 BKN020 13/12 Q1026 NOSIG RMK A3031
2026-04-27 06:00:00,METAR SEQM 270600Z VRB02KT 9999 OVC003 13/13 Q1027 NOSIG RMK A3033
2026-04-27 05:00:00,METAR SEQM 270500Z VRB02KT 9999 SCT020 SCT100 12/11 Q1027 NOSIG RMK A3034
2026-04-27 04:00:00,METAR SEQM 270400Z 03003KT 9999 SCT020 13/12 Q1028 NOSIG RMK A3035
2026-04-27 03:00:00,METAR SEQM 270300Z 00000KT 9999 BKN030 14/13 Q1027 NOSIG RMK A3035
2026-04-27 02:00:00,METAR SEQM 270200Z 36003KT 9999 FEW010 BKN020 15/13 Q1027 NOSIG RMK A3034
2026-04-27 01:00:00,METAR SEQM 270100Z VRB02KT 9999 FEW005 BKN030 15/13 Q1026 NOSIG RMK A3031
2026-04-27 00:00:00,METAR SEQM 270000Z 36006KT 9999 BKN030 BKN080 16/13 Q1025 NOSIG RMK A3030
2026-04-26 23:00:00,METAR SEQM 262300Z 36007KT 310V020 9999 VCSH BKN020 BKN100 16/13 Q1024 RERA NOSIG RMK A3026
2026-04-26 22:29:00,SPECI SEQM 262229Z 31006KT 280V020 9999 RA BKN030 BKN100 18/13 Q1024 RETS BECMG AT2300 NSW RMK A3024
2026-04-26 22:00:00,METAR SEQM 262200Z 01007KT 330V040 9999 TS VCSH FEW023CB SCT030 BKN100 18/12 Q1023 BECMG AT2240 NSW RMK A3023
2026-04-26 21:00:00,METAR SEQM 262100Z 01012KT 340V040 9999 VCSH SCT030 BKN100 20/12 Q1023 NOSIG RMK A3022
2026-04-26 20:00:00,METAR SEQM 262000Z 01013KT 9999 VCSH SCT030 BKN100 20/11 Q1023 NOSIG RMK A3022
2026-04-26 19:00:00,METAR SEQM 261900Z 02013KT 340V050 9999 VCSH SCT040TCU BKN100 21/10 Q1023 NOSIG RMK A3023
2026-04-26 18:00:00,METAR SEQM 261800Z 35013KT 9999 SCT040TCU BKN100 22/11 Q1024 NOSIG RMK A3024
2026-04-26 17:00:00,METAR SEQM 261700Z 35012KT 330V060 9999 SCT040 SCT100 24/09 Q1025 NOSIG RMK A3028
2026-04-26 16:00:00,METAR SEQM 261600Z 35005KT 260V070 9999 SCT040 SCT100 21/08 Q1026 NOSIG RMK A3031
2026-04-26 15:00:00,METAR SEQM 261500Z 18004KT 120V290 9999 FEW030 20/10 Q1027 NOSIG RMK A3033
2026-04-26 14:00:00,METAR SEQM 261400Z 17003KT 9999 FEW030 18/11 Q1027 NOSIG RMK A3035
2026-04-26 13:00:00,METAR SEQM 261300Z 21003KT 170V250 9999 FEW033 BKN100 16/11 Q1028 NOSIG RMK A3036
2026-04-26 12:00:00,METAR SEQM 261200Z 17005KT 9999 SCT030 BKN100 12/11 Q1027 NOSIG RMK A3033
2026-04-26 11:00:00,METAR SEQM 261100Z 16004KT 140V210 9999 FEW010 SCT030 BKN100 11/10 Q1026 NOSIG RMK A3031
2026-04-26 10:00:00,METAR SEQM 261000Z 02003KT 9999 SCT026 BKN100 13/11 Q1026 NOSIG RMK A3030
2026-04-26 09:00:00,METAR SEQM 260900Z 00000KT 9999 SCT026 BKN100 13/12 Q1026 NOSIG RMK A3030
2026-04-26 08:00:00,METAR SEQM 260800Z 15004KT 9999 FEW005 SCT026 BKN100 13/12 Q1026 NOSIG RMK A3030
2026-04-26 07:00:00,METAR SEQM 260700Z VRB02KT 9999 FEW005 SCT026 BKN080 13/13 Q1026 NOSIG RMK A3032
2026-04-26 06:00:00,METAR SEQM 260600Z 00000KT 9999 FEW005 SCT026 BKN080 14/13 Q1027 NOSIG RMK A3035
2026-04-26 05:00:00,METAR SEQM 260500Z 36006KT 9999 SCT005 BKN026 BKN080 14/13 Q1028 NOSIG RMK A3036
2026-04-26 04:00:00,METAR SEQM 260400Z 04003KT 9999 FEW010 BKN026 BKN080 14/13 Q1028 NOSIG RMK A3038
2026-04-26 03:00:00,METAR SEQM 260300Z VRB02KT 9999 FEW010 SCT026 BKN100 14/13 Q1028 NOSIG RMK A3037
2026-04-26 02:00:00,METAR SEQM 260200Z 02005KT 9999 SCT030 BKN100 14/13 Q1027 NOSIG RMK A3034
2026-04-26 01:00:00,METAR SEQM 260100Z 02004KT 9999 BKN030 15/12 Q1026 NOSIG RMK A3031
2026-04-26 00:00:00,METAR SEQM 260000Z 01006KT 9999 BKN030 SCT300 16/11 Q1025 NOSIG RMK A3027
2026-04-25 23:00:00,METAR SEQM 252300Z 01009KT 9999 SCT030 BKN300 17/11 Q1024 NOSIG RMK A3025
2026-04-25 22:00:00,METAR SEQM 252200Z 01013KT 9999 FEW030 SCT300 20/12 Q1023 NOSIG RMK A3021
2026-04-25 21:00:00,METAR SEQM 252100Z 01013KT 9999 FEW030 SCT300 20/11 Q1022 NOSIG RMK A3020
2026-04-25 20:00:00,METAR SEQM 252000Z 01014KT 9999 FEW030TCU SCT300 22/09 Q1022 NOSIG RMK A3019
2026-04-25 19:00:00,METAR SEQM 251900Z 34014KT 9999 SCT030TCU 24/09 Q1023 NOSIG RMK A3020
2026-04-25 18:00:00,METAR SEQM 251800Z 35008KT 310V040 9999 FEW030 24/07 Q1024 NOSIG RMK A3024
2026-04-25 17:00:00,METAR SEQM 251700Z VRB05KT 9999 FEW030 23/08 Q1025 NOSIG RMK A3028
2026-04-25 16:00:00,METAR SEQM 251600Z VRB03KT 9999 FEW030 21/07 Q1027 NOSIG RMK A3032
2026-04-25 15:00:00,METAR SEQM 251500Z VRB04KT 9999 FEW030 19/09 Q1027 NOSIG RMK A3035
2026-04-25 14:00:00,METAR SEQM 251400Z 18003KT 130V280 CAVOK 16/09 Q1028 NOSIG RMK A3037
2026-04-25 13:00:00,METAR SEQM 251300Z 26003KT CAVOK 14/09 Q1028 NOSIG RMK A3036
2026-04-25 12:00:00,METAR SEQM 251200Z 15002KT 9999 FEW033 09/08 Q1027 NOSIG RMK A3034
2026-04-25 11:00:00,METAR SEQM 251100Z 12003KT 9999 FEW033 08/07 Q1026 NOSIG RMK A3032
2026-04-25 10:00:00,METAR SEQM 251000Z 17003KT 9999 SCT033 10/08 Q1026 NOSIG RMK A3030
2026-04-25 09:00:00,METAR SEQM 250900Z 13003KT 9999 BKN033 10/09 Q1026 NOSIG RMK A3030
2026-04-25 08:00:00,METAR SEQM 250800Z 11002KT 9999 SCT040 09/08 Q1026 NOSIG RMK A3030
2026-04-25 07:00:00,METAR SEQM 250700Z 08003KT 9999 FEW006 SCT040 11/09 Q1026 NOSIG RMK A3031
2026-04-25 06:00:00,METAR SEQM 250600Z 15002KT 9999 SCT006 BKN036 12/10 Q1027 NOSIG RMK A3033
2026-04-25 05:00:00,METAR SEQM 250500Z 11002KT 9999 OVC006 12/11 Q1028 NOSIG RMK A3037
2026-04-25 04:25:00,SPECI SEQM 250425Z 10004KT 9999 BKN006 11/11 Q1028 NOSIG RMK A3037
2026-04-25 04:00:00,METAR SEQM 250400Z 08003KT 9999 FEW006 SCT033 11/10 Q1029 NOSIG RMK A3039
2026-04-25 03:00:00,METAR SEQM 250300Z 10004KT 9999 FEW006 SCT036 12/11 Q1028 NOSIG RMK A3037
2026-04-25 02:00:00,METAR SEQM 250200Z 02006KT 9999 FEW036 14/12 Q1027 NOSIG RMK A3035
2026-04-25 01:00:00,METAR SEQM 250100Z 01007KT 9999 SCT036 14/12 Q1027 NOSIG RMK A3033
2026-04-25 00:00:00,METAR SEQM 250000Z VRB01KT 9999 VCSH BKN030 16/12 Q1026 NOSIG RMK A3030
2026-04-24 23:00:00,METAR SEQM 242300Z 01009KT 9999 VCSH FEW023 BKN030 17/11 Q1025 NOSIG RMK A3027
2026-04-24 22:00:00,METAR SEQM 242200Z 02012KT 9999 VCSH FEW026TCU BKN030 18/11 Q1024 NOSIG RMK A3024
2026-04-24 21:00:00,METAR SEQM 242100Z 36014KT 9999 VCSH FEW026TCU SCT030 20/12 Q1023 NOSIG RMK A3022
2026-04-24 20:00:00,METAR SEQM 242000Z 36014KT 330V050 9999 VCSH FEW026TCU SCT030 21/12 Q1023 NOSIG RMK A3022
2026-04-24 19:00:00,METAR SEQM 241900Z 34018KT 9999 SCT030 22/12 Q1024 NOSIG RMK A3024
2026-04-24 18:00:00,METAR SEQM 241800Z 33009KT 260V020 9999 SCT030 23/07 Q1025 NOSIG RMK A3027
2026-04-24 17:00:00,METAR SEQM 241700Z 03005KT 3200V130 9999 FEW030 22/09 Q1026 NOSIG RMK A3031
2026-04-24 16:00:00,METAR SEQM 241600Z VRB05KT 9999 FEW026 20/11 Q1027 NOSIG RMK A3034
2026-04-24 15:00:00,METAR SEQM 241500Z 32004KT 270V010 9999 FEW020 19/11 Q1028 NOSIG RMK A3036
2026-04-24 14:00:00,METAR SEQM 241400Z 22003KT 140V250 9999 FEW020 16/11 Q1028 NOSIG RMK A3037
2026-04-24 13:00:00,METAR SEQM 241300Z 18003KT 9999 FEW010 BKN100 13/10 Q1028 NOSIG RMK A3037
2026-04-24 12:00:00,METAR SEQM 241200Z 00000KT 9999 FEW033 BKN100 11/10 Q1028 NOSIG RMK A3036
2026-04-24 11:00:00,METAR SEQM 241100Z 13002KT 9999 SCT030 BKN100 11/10 Q1027 NOSIG RMK A3035
2026-04-24 10:00:00,METAR SEQM 241000Z 09004KT 9999 SCT005 SCT020 11/11 Q1027 NOSIG RMK A3034
2026-04-24 09:00:00,METAR SEQM 240900Z 11001KT 9999 SCT005 SCT020 12/11 Q1026 NOSIG RMK A3032
2026-04-24 08:00:00,METAR SEQM 240800Z 27002KT 9999 FEW010 SCT020 12/11 Q1027 NOSIG RMK A3034
2026-04-24 07:00:00,METAR SEQM 240700Z 08004KT 9999 FEW010 SCT020 11/10 Q1027 NOSIG RMK A3035
2026-04-24 06:00:00,METAR SEQM 240600Z 11004KT 9999 FEW010 SCT020 11/11 Q1028 NOSIG RMK A3035
2026-04-24 05:00:00,METAR SEQM 240500Z 13001KT 9999 FEW005 SCT020 12/12 Q1028 NOSIG RMK A3038
2026-04-24 04:45:00,SPECI SEQM 240445Z 14003KT 9999 BCFG FEW005 SCT020 13/12 Q1029 NOSIG RMK A3038
2026-04-24 04:11:00,SPECI SEQM 240411Z 12003KT 4000 R36/0900VP2000D BR OVC005 13/12 Q1029 TEMPO 2000 RMK A3040
2026-04-24 04:00:00,METAR SEQM 240400Z 14002KT 6000 BCFG SCT005 BKN020 13/12 Q1029 TEMPO 8000 RMK A3039
2026-04-24 03:44:00,SPECI SEQM 240344Z 27004KT 6000 BCFG SCT005 BKN020 13/12 Q1029 TEMPO 8000 RMK A3038
2026-04-24 03:00:00,METAR SEQM 240300Z 10003KT 9999 SCT020 BKN100 13/12 Q1029 NOSIG RMK A3039
2026-04-24 02:00:00,METAR SEQM 240200Z 04002KT 9999 -RA SCT010 BKN020 13/13 Q1028 RERA NOSIG RMK A3037
2026-04-24 01:36:00,SPECI SEQM 240136Z 03006KT 6000 RA FEW010 SCT020 BKN090 14/12 Q1028 BECMG AT0200 NSW RMK A3036
2026-04-24 01:00:00,METAR SEQM 240100Z 03006KT 9999 FEW010 SCT020 BKN090 15/12 Q1027 NOSIG RMK A3034
2026-04-24 00:00:00,METAR SEQM 240000Z 01007KT 9999 BKN026 15/12 Q1026 NOSIG RMK A3030
2026-04-23 23:00:00,METAR SEQM 232300Z 02008KT 9999 BKN026 SCT300 16/12 Q1025 NOSIG RMK A3027
2026-04-23 22:00:00,METAR SEQM 232200Z 01011KT 9999 BKN036 BKN100 17/12 Q1024 NOSIG RMK A3024
2026-04-23 21:00:00,METAR SEQM 232100Z 36011KT 9999 SCT036 SCT100 BKN300 19/11 Q1023 NOSIG RMK A3023
2026-04-23 20:00:00,METAR SEQM 232000Z 36012KT 9999 FEW036 BKN300 20/12 Q1024 NOSIG RMK A3025
2026-04-23 19:00:00,METAR SEQM 231900Z 36014KT 9999 FEW036 BKN300 20/12 Q1024 NOSIG RMK A3026
2026-04-23 18:00:00,METAR SEQM 231800Z 01009KT 9999 FEW036 BKN133 BKN300 20/10 Q1026 NOSIG RMK A3030
2026-04-23 17:00:00,METAR SEQM 231700Z 36005KT 330V060 9999 FEW033 OVC133 20/10 Q1027 NOSIG RMK A3033
2026-04-23 16:00:00,METAR SEQM 231600Z 34005KT 250V030 9999 SCT030 SCT100 OVC300 19/11 Q1028 NOSIG RMK A3036
2026-04-23 15:00:00,METAR SEQM 231500Z 36004KT 270V040 9999 FW020 SCT100 BKN300 18/12 Q1028 NOSIG RMK A3037
2026-04-23 14:00:00,METAR SEQM 231400Z 27002KT 9999 FEW010 BKN300 17/12 Q1029 NOSIG RMK A3039
2026-04-23 13:00:00,METAR SEQM 231300Z 18002KT 9999 VCFG SCT030 BKN080 BKN300 15/12 Q1028 NOSIG RMK A3036
2026-04-23 12:00:00,METAR SEQM 231200Z 14004KT 9999 BCFG FEW004 SCT030 OVC080 12/12 Q1027 NOSIG RMK A3033
2026-04-23 11:00:00,METAR SEQM 231100Z VRB02KT 4000 1000S R36/0700VP2000D BR FEW004 SCT020 OVC080 13/12 Q1027 BECMG AT1200 9999 RMK A3033
2026-04-23 10:00:00,METAR SEQM 231000Z 10003KT 9999 BCFG FEW004 SCT020 OVC080 13/12 Q1026 NOSIG RMK A3031
2026-04-23 09:00:00,METAR SEQM 230900Z 04003KT 9999 BCFG SCT004 OVC020 13/12 Q1025 NOSIG RMK A3030
2026-04-23 08:00:00,METAR SEQM 230800Z 04002KT 9999 BCFG SCT004 OVC020 13/12 Q1026 NOSIG RMK A3030
2026-04-23 07:00:00,METAR SEQM 230700Z 02002KT 9999 SCT004 BKN020 13/12 Q1027 NOSIG RMK A303
2026-04-23 06:00:00,METAR SEQM 230600Z 04003KT 9999 SCT004 BKN020 13/13 Q1027 NOSIG RMK A3034
2026-04-23 05:00:00,METAR SEQM 230500Z 29003KT 260V330 9999 FEW004 SCT020 14/13 Q1027 NOSIG RMK A3035
2026-04-23 04:00:00,METAR SEQM 230400Z 03003KT 010V070 9999 SCT004 BKN020 14/13 Q1029 NOSIG RMK A3038
2026-04-23 03:00:00,METAR SEQM 230300Z 03004KT 360V070 9999 SCT004 BKN020 14/13 Q1028 NOSIG RMK A3037
2026-04-23 02:00:00,METAR SEQM 230200Z 36003KT 9999 FEW010 SCT020 13/12 Q1028 NOSIG RMK A3036
2026-04-23 01:00:00,METAR SEQM 230100Z 02006KT 9999 FEW010 BKN020 15/13 Q1027 NOSIG RMK A3034
2026-04-23 00:00:00,METAR SEQM 230000Z 02007KT 9999 BKN030 SCT300 15/13 Q1026 NOSIG RMK A3031
2026-04-22 23:00:00,METAR SEQM 222300Z 01010KT 9999 VCSH BKN030 BKN300 16/13 Q1025 NOSIG RMK A3028
2026-04-22 22:00:00,METAR SEQM 222200Z 36005KT 320V040 9999 BKN030 BKN090 18/12 Q1024 NOSIG RMK A3025
2026-04-22 21:00:00,METAR SEQM 222100Z 01008KT 9999 BKN030 BKN100 20/11 Q1024 RETS NOSIG RMK A3024
2026-04-22 20:31:00,SPECI SEQM 222031Z 02011KT 350V050 9999 TS VCSH FEW020CB BKN030 BKN100 20/11 Q1024 BECMG AT2100 NSW RMK A3024
2026-04-22 20:00:00,METAR SEQM 222000Z 01013KT 9999 VCSH BKN030TCU SCT100 21/11 Q1024 NOSIG RMK A3024
2026-04-22 19:00:00,METAR SEQM 221900Z 34012KT 310V020 9999 BKN036TCU SCT100 22/10 Q1025 NOSIG RMK A3026
2026-04-22 18:00:00,METAR SEQM 221800Z 31009KT 9999 SCT036TCU SCT100 23/10 Q1026 RETS NOSIG RMK A3030
2026-04-22 17:18:00,SPECI SEQM 221718Z COR 35009KT 310V050 9999 TS VCSH FEW020CB SCT036TCU 22/09 Q1027 BECMG AT1800 NSW RMK A3032
2026-04-22 17:00:00,METAR SEQM 221700Z 35005KT 9999 SCT036TCU 23/10 Q1027 NOSIG RMK A3034
2026-04-22 16:00:00,METAR SEQM 221600Z 35004KT 9999 FEW036 21/11 Q1028 NOSIG RMK A3037
2026-04-22 14:00:00,METAR SEQM 221400Z 31003KT 9999 FEW030 SCT300 18/12 Q1030 NOSIG RMK A3041
2026-04-22 13:00:00,METAR SEQM 221300Z 00000KT 9999 FEW030 SCT100 BKN300 16/12 Q1029 NOSIG RMK A3041
2026-04-22 12:00:00,METAR SEQM 221200Z 15002KT 9999 FEW040 SCT100 BKN300 12/11 Q1028 NOSIG RMK A3037
2026-04-22 11:00:00,METAR SEQM 221100Z 06002KT 9999 FEW040 SCT100 OVC300 11/10 Q1028 NOSIG RMK A3037
2026-04-22 10:00:00,METAR SEQM 221000Z VRB02KT 9999 FEW030 OVC300 11/11 Q1027 NOSIG RMK A3035
2026-04-22 09:00:00,METAR SEQM 220900Z 06004KT 9999 FEW030 BKN300 12/11 Q1027 NOSIG RMK A3035
2026-04-22 08:00:00,METAR SEQM 220800Z VRB02KT 9999 SCT030 BKN300 12/11 Q1027 NOSIG RMK A3035
2026-04-22 07:00:00,METAR SEQM 220700Z VRB02KT 9999 SCT030 BKN300 12/11 Q1028 NOSIG RMK A3037
2026-04-22 06:00:00,METAR SEQM 220600Z 16003KT 9999 SCT030 BKN300 12/11 Q1028 NOSIG RMK A3037
2026-04-22 05:00:00,METAR SEQM 220500Z 21003KT 9999 FEW005 BKN030 12/12 Q1029 NOSIG RMK A3039
2026-04-22 04:00:00,METAR SEQM 220400Z 03004KT 9999 BKN030 13/12 Q1030 NOSIG RMK A3042
2026-04-22 03:00:00,METAR SEQM 220300Z VRB01KT 9999 BKN030 13/11 Q1029 NOSIG RMK A3039
2026-04-22 02:00:00,METAR SEQM 220200Z VRB02KT 9999 BKN020 13/12 Q1029 NOSIG RMK A3038
2026-04-22 01:00:00,METAR SEQM 220100Z 01005KT 9999 SCT020 SCT100 14/12 Q1028 NOSIG RMK A3035
2026-04-22 00:00:00,METAR SEQM 220000Z 02008KT 9999 BKN030 BKN100 15/12 Q1027 NOSIG RMK A3033
2026-04-21 23:00:00,METAR SEQM 212300Z 01006KT 9999 SCT030 OVC100 16/12 Q1026 NOSIG RMK A3030
2026-04-21 22:00:00,METAR SEQM 212200Z 31006KT 9999 VCSH BKN030 BKN100 18/12 Q1025 NOSIG RMK A3028
2026-04-21 21:00:00,METAR SEQM 212100Z 21004KT 9999 VCSH SCT030 BKN100 20/10 Q1025 NOSIG RMK A3028
2026-04-21 20:00:00,METAR SEQM 212000Z 13004KT 100V170 9999 -RA BKN030 BKN100 18/11 Q1026 NOSIG RMK A3031
2026-04-21 19:00:00,METAR SEQM 211900Z 33008KT 9999 -RA BKN030 BKN100 17/10 Q1026 RETS NOSIG RMK A3032
2026-04-21 18:25:00,SPECI SEQM 211825Z COR 36006KT 290V060 9999 TS VCSH FEW023CB SCT030 BKN100 21/10 Q1026 BECMG AT1840 NSW RMK A3031
2026-04-21 18:00:00,METAR SEQM 211800Z 35005KT 320V050 9999 VCSH SCT030 BKN100 21/10 Q1027 NOSIG RMK A3033
2026-04-21 17:00:00,METAR SEQM 211700Z 35004KT 9999 SCT030 BKN100 21/09 Q1028 NOSIG RMK A3037
2026-04-21 16:00:00,METAR SEQM 211600Z 17004KT 090V210 9999 SCT030 SCT100 20/10 Q1029 NOSIG RMK A3039
2026-04-21 15:00:00,METAR SEQM 211500Z 20002KT 9999 SCT030 19/11 Q1029 NOSIG RMK A3041
2026-04-21 14:00:00,METAR SEQM 211400Z 21003KT 110V280 9999 SCT030 17/11 Q1030 NOSIG RMK A3041
2026-04-21 13:00:00,METAR SEQM 211300Z 17003KT 140V220 9999 FEW010 BKN030 14/11 Q1029 NOSIG RMK A3041
2026-04-21 12:00:00,METAR SEQM 211200Z VRB02KT 9999 FEW010 BKN023 13/11 Q1029 NOSIG RMK A3039
2026-04-21 11:00:00,METAR SEQM 211100Z 00000KT 9999 FEW005 BKN023 12/11 Q1028 NOSIG RMK A3037
2026-04-21 10:00:00,METAR SEQM 211000Z VRB02KT 9999 FEW005 BKN023 12/11 Q1027 NOSIG RMK A3035
2026-04-21 09:00:00,METAR SEQM 210900Z VRB01KT 9999 FEW005 BKN023 12/11 Q1027 NOSIG RMK A3034
2026-04-21 08:00:00,METAR SEQM 210800Z VRB01KT 9999 FEW005 SCT023 12/11 Q1027 NOSIG RMK A3035
2026-04-21 07:00:00,METAR SEQM 210700Z VRB02KT 9999 FEW005 BKN023 13/11 Q1028 NOSIG RMK A3036
2026-04-21 06:00:00,METAR SEQM 210600Z 12003KT 9999 FEW005 BKN023 13/11 Q1028 NOSIG RMK A3036
2026-04-21 05:00:00,METAR SEQM 210500Z VRB02KT 9999 FEW005 BKN023 13/12 Q1029 NOSIG RMK A3039
2026-04-21 04:00:00,METAR SEQM 210400Z 09003KT 060V140 9999 SCT005 BKN020 13/12 Q1029 NOSIG RMK A3039
2026-04-21 03:00:00,METAR SEQM 210300Z VRB02KT 9999 BKN005 BKN023 12/12 Q1028 NOSIG RMK A3037
2026-04-21 02:00:00,METAR SEQM 210200Z 03004KT 9999 SCT023 13/12 Q1027 NOSIG RMK A3035
2026-04-21 01:00:00,METAR SEQM 210100Z 04003KT 010V070 9999 FEW023 13/12 Q1027 NOSIG RMK A3033
2026-04-21 00:00:00,METAR SEQM 210000Z 01006KT 9999 SCT030 BKN300 15/13 Q1026 NOSIG RMK A3030
2026-04-20 23:00:00,METAR SEQM 202300Z 01008KT 9999 BKN030 BKN300 16/12 Q1025 NOSIG RMK A3027
2026-04-20 22:00:00,METAR SEQM 202200Z 36006KT 9999 VCSH BKN030 BKN300 17/12 Q1024 RESHRA NOSIG RMK A3026
2026-04-20 21:39:00,SPECI SEQM 202139Z 36011KT 9999 SHRA BKN030 BKN300 18/12 Q1024 BECMG AT2200 -RA RMK A3025
2026-04-20 21:00:00,METAR SEQM 202100Z VRB02KT 9999 VCSH BKN030 BKN300 20/10 Q1024 TEMPO SHRA RMK A3025
2026-04-20 20:00:00,METAR SEQM 202000Z 36005KT 9999 VCSH SCT030 OVC300 21/09 Q1024 TEMPO SHRA RMK A3026
2026-04-20 19:00:00,METAR SEQM 201900Z 36004KT 9999 FEW030 BKN300 21/09 Q1025 NOSIG RMK A3029
2026-04-20 18:00:00,METAR SEQM 201800Z VRB03KT 9999 FEW030 BKN300 21/10 Q1027 NOSIG RMK A3032
2026-04-20 17:00:00,METAR SEQM 201700Z VRB04KT 9999 SCT030 BKN300 20/10 Q1028 NOSIG RMK A3038
2026-04-20 16:00:00,METAR SEQM 201600Z VRB02KT 9999 SCT020 BKN300 19/11 Q1029 NOSIG RMK A3038
2026-04-20 15:00:00,METAR SEQM 201500Z 19003KT 140V260 9999 SCT015 OVC300 17/11 Q1029 NOSIG RMK A3039
2026-04-20 14:00:00,METAR SEQM 201400Z 24004KT 170V280 9999 FEW005 SCT020 OVC100 14/12 Q1029 NOSIG RMK A3039
2026-04-20 13:00:00,METAR SEQM 201300Z 22003KT 190V260 9999 FEW005 SCT030 OVC100 13/11 Q1028 NOSIG RMK A3037
2026-04-20 12:00:00,METAR SEQM 201200Z 11004KT 9999 FEW005 BKN040 OVC100 11/10 Q1028 NOSIG RMK A3036
2026-04-20 11:00:00,METAR SEQM 201100Z 09004KT 9999 FEW004 BKN040 11/10 Q1027 NOSIG RMK A3034
2026-04-20 10:00:00,METAR SEQM 201000Z 12002KT 9999 FEW003 SCT040 BKN070 11/10 Q1027 NOSIG RMK A3033
2026-04-20 09:00:00,METAR SEQM 200900Z 00000KT 9999 FEW003 SCT036 12/11 Q1027 NOSIG RMK A3032
2026-04-20 08:44:00,SPECI SEQM 200844Z VRB02KT 9999 FEW003 SCT030 12/11 Q1026 NOSIG RMK A3032
2026-04-20 08:00:00,METAR SEQM 200800Z 20002KT 4000 1000N R36/P2000N -DZ BCFG BKN003 OVC020 12/12 Q1027 TEMPO 2000 RMK A3034
2026-04-20 07:00:00,METAR SEQM 200700Z 13003KT 8000 -DZ BCFG SCT004 OVC020 12/12 Q1027 NOSIG RMK A3034
2026-04-20 06:00:00,METAR SEQM 200600Z 11002KT 9999 SCT004 OVC020 12/12 Q1028 NOSIG RMK A3037
2026-04-20 05:00:00,METAR SEQM 200500Z 07002KT 8000 BCFG SCT004 OVC020 12/11 Q1029 TEMPO 6000 RMK A3038
2026-04-20 04:00:00,METAR SEQM 200400Z 00000KT 8000 BCFG SCT004 BKN026 12/11 Q1029 TEMPO 6000 RMK A3039
2026-04-20 03:00:00,METAR SEQM 200300Z 04003KT 9999 FEW004 BKN026 12/12 Q1028 NOSIG RMK A3038
2026-04-20 02:00:00,METAR SEQM 200200Z 02004KT 340V060 9999 FEW005 BKN023 13/12 Q1028 NOSIG RMK A3036
2026-04-20 01:00:00,METAR SEQM 200100Z 04004KT 010V070 9999 FEW005 BKN020 14/11 Q1027 NOSIG RMK A3032
2026-04-20 00:00:00,METAR SEQM 200000Z 01005KT 9999 VCSH FEW010 BKN020 14/12 Q1026 NOSIG RMK A3030
2026-04-19 23:00:00,METAR SEQM 192300Z 02009KT 9999 VCSH FEW010 BKN020 15/12 Q1025 NOSIG RMK A3027
2026-04-19 22:00:00,METAR SEQM 192200Z 01014KT 9999 VCSH FEW020TCU BKN026 17/12 Q1024 NOSIG RMK A3024
2026-04-19 21:00:00,METAR SEQM 192100Z 35015KT 9999 VCSH FEW026TCU BKN030 19/13 Q1023 NOSIG RMK A3022
2026-04-19 20:00:00,METAR SEQM 192000Z 36012KT 9999 VCSH FEW026TCU BKN030 BKN100 19/12 Q1023 NOSIG RMK A3023
2026-04-19 19:00:00,METAR SEQM 191900Z 36009KT 9999 VCSH BKN030 BKN100 20/12 Q1024 NOSIG RMK A3026
2026-04-19 18:00:00,METAR SEQM 191800Z 35009KT 320V020 9999 BKN030 BKN100 19/12 Q1025 NOSIG RMK A3029
2026-04-19 17:00:00,METAR SEQM 191700Z 01007KT 330V060 9999 SCT030 BKN100 20/11 Q1026 NOSIG RMK A3032
2026-04-19 16:00:00,METAR SEQM 191600Z 35006KT 320V030 9999 BKN026 BKN100 18/11 Q1027 NOSIG RMK A3034
2026-04-19 15:00:00,METAR SEQM 191500Z COR WIND RWY 36 330/6KT VIS 10KM CLD SCT 2300FT BKN 10000FT T18 DP12 QNH 1027HPA TREND NOSIG QNH 3035INCH
2026-04-19 14:00:00,METAR SEQM 191400Z 32007KT 290V360 9999 SCT020 BKN100 16/13 Q1027 NOSIG RMK A3035
2026-04-19 13:00:00,METAR SEQM 191300Z 30003KT 250V360 9999 SCT013 BKN100 15/12 Q1027 NOSIG RMK A3035
2026-04-19 12:00:00,METAR SEQM 191200Z 34001KT 9999 SCT026 BKN100 12/11 Q1026 NOSIG RMK A3032
2026-04-19 11:00:00,METAR SEQM 191100Z 08001KT 9999 SCT026 BKN090 11/10 Q1026 NOSIG RMK A3030
2026-04-19 10:00:00,METAR SEQM 191000Z 17002KT 9999 SCT005 BKN020 11/11 Q1025 NOSIG RMK A3029
2026-04-19 09:00:00,METAR SEQM 190900Z 12002KT 9999 SCT005 BKN020 12/11 Q1025 NOSIG RMK A3029
2026-04-19 08:00:00,METAR SEQM 190800Z 09002KT 9999 SCT005 SCT020 BKN090 12/12 Q1026 NOSIG RMK A3030
2026-04-19 07:00:00,METAR SEQM 190700Z 00000KT 9999 SCT005 BKN020 13/12 Q1026 NOSIG RMK A3031
2026-04-19 06:00:00,METAR SEQM 190600Z 01005KT 9999 SCT005 BKN020 13/12 Q1027 NOSIG RMK A3033
2026-04-19 05:00:00,METAR SEQM 190500Z 02005KT 9999 FEW005 SCT020 BKN090 13/12 Q1027 NOSIG RMK A3034
2026-04-19 04:00:00,METAR SEQM 190400Z 01005KT 9999 SCT005 BKN020 13/12 Q1027 NOSIG RMK A3034
2026-04-19 03:00:00,METAR SEQM 190300Z 36006KT 9999 SCT010 BKN020 14/13 Q1027 NOSIG RMK A3033
2026-04-19 02:00:00,METAR SEQM 190200Z 01006KT 9999 SCT010 BKN020 14/13 Q1026 NOSIG RMK A3031
2026-04-19 01:00:00,METAR SEQM 190100Z 01005KT 9999 SCT020 BKN070 15/13 Q1025 NOSIG RMK A3027
2026-04-19 00:00:00,METAR SEQM 190000Z 36009KT 9999 BKN030 SCT070 15/12 Q1024 NOSIG RMK A3024
2026-04-18 23:00:00,METAR SEQM 182300Z 02009KT 350V050 9999 BKN030 16/12 Q1023 NOSIG RMK A3022
2026-04-18 22:00:00,METAR SEQM 182200Z 01012KT 9999 VCSH BKN030TCU SCT070 17/12 Q1022 NOSIG RMK A3019
2026-04-18 21:00:00,METAR SEQM 182100Z 35016KT 9999 VCSH SCT033TCU SCT300 19/12 Q1022 NOSIG RMK A3019
2026-04-18 20:00:00,METAR SEQM 182000Z 36013KT 9999 FEW036TCU SCT300 21/13 Q1022 NOSIG RMK A3020
2026-04-18 19:00:00,METAR SEQM 181900Z 36015KT 9999 FEW036TCU SCT300 21/13 Q1023 NOSIG RMK A3022
2026-04-18 18:00:00,METAR SEQM 181800Z 36011KT 330V040 9999 FEW036 SCT300 22/12 Q1024 NOSIG RMK A3025
2026-04-18 17:00:00,METAR SEQM 181700Z 36011KT 330V030 9999 FEW030 SCT040 BKN300 21/12 Q1025 NOSIG RMK A3028
2026-04-18 16:00:00,METAR SEQM 181600Z 32007KT 280V350 9999 FEW023 SCT036 BKN080 19/12 Q1026 NOSIG RMK A3031
2026-04-18 15:00:00,METAR SEQM 181500Z 18002KT 9999 BKN020 BKN300 18/11 Q1027 NOSIG RMK A3032
2026-04-18 14:00:00,METAR SEQM 181400Z 19002KT 9999 SCT010 BKN300 17/11 Q1027 NOSIG RMK A3032
2026-04-18 13:00:00,METAR SEQM 181300Z 00000KT 9999 BCFG SCT004 BKN300 16/13 Q1026 NOSIG RMK A3031
2026-04-18 12:24:00,SPECI SEQM 181224Z VRB02KT 9999 BCFG SCT004 BKN300 13/13 Q1026 NOSIG RMK A3030
2026-04-18 12:00:00,METAR SEQM 181200Z 00000KT 9999 1000S R36/P2000N BCFG FEW010 SCT030 BKN300 12/11 Q1025 NOSIG RMK A3028
2026-04-18 11:00:00,METAR SEQM 181100Z VRB01KT 9999 BCFG SCT004 BKN030 BKN070 12/12 Q1025 NOSIG RMK A3028
2026-04-18 10:00:00,METAR SEQM 181000Z 00000KT 9999 BCFG SCT004 BKN020 13/12 Q1025 NOSIG RMK A3026
2026-04-18 09:00:00,METAR SEQM 180900Z VRB02KT 9999 BCFG SCT004 OVC020 13/12 Q1024 NOSIG RMK A3026
2026-04-18 08:00:00,METAR SEQM 180800Z VRB02KT 9999 BCFG SCT004 OVC020 13/12 Q1025 NOSIG RMK A3027
2026-04-18 07:00:00,METAR SEQM 180700Z 01002KT 9999 BCFG SCT004 OVC020 13/13 Q1026 NOSIG RMK A3030
2026-04-18 06:00:00,METAR SEQM 180600Z 02003KT 9999 BCFG SCT004 OVC020 13/13 Q1027 NOSIG RMK A3032
2026-04-18 05:00:00,METAR SEQM 180500Z 02003KT 350V050 9999 BCFG SCT003 OVC020 13/13 Q1027 NOSIG RMK A3033
2026-04-18 04:00:00,METAR SEQM 180400Z 05004KT 9999 SCT004 BKN030 13/12 Q1027 NOSIG RMK A3034
2026-04-18 03:00:00,METAR SEQM 180300Z 04003KT 010V080 9999 FEW004 SCT020 BKN080 14/13 Q1027 NOSIG RMK A3034
2026-04-18 02:00:00,METAR SEQM 180200Z 03004KT 350V060 9999 FEW010 SCT020 BKN080 14/12 Q1026 NOSIG RMK A3032
2026-04-18 01:00:00,METAR SEQM 180100Z 01004KT 9999 FEW010 BKN023 14/12 Q1025 NOSIG RMK A3029
2026-04-18 00:00:00,METAR SEQM 180000Z 35005KT 9999 FEW015 BKN030 14/12 Q1024 NOSIG RMK A3025
2026-04-17 23:00:00,METAR SEQM 172300Z 03005KT 9999 FEW015 BKN030 16/12 Q1023 NOSIG RMK A3024
2026-04-17 22:00:00,METAR SEQM 172200Z 36010KT 9999 BKN030 SCT100 16/13 Q1022 NOSIG RMK A3020
2026-04-17 21:00:00,METAR SEQM 172100Z 35011KT 9999 BKN030 BKN100 18/12 Q1022 NOSIG RMK A3019
2026-04-17 20:00:00,METAR SEQM 172000Z 36010KT 9999 BKN030 BKN100 18/13 Q1023 NOSIG RMK A3022
2026-04-17 19:00:00,METAR SEQM 171900Z 01008KT 9999 SCT030 BKN100 19/12 Q1024 NOSIG RMK A3025
2026-04-17 18:00:00,METAR SEQM 171800Z 36004KT 9999 BKN020 BKN100 18/13 Q1025 NOSIG RMK A3029
2026-04-17 17:00:00,METAR SEQM 171700Z VRB02KT 9999 BKN030 OVC100 18/12 Q1027 NOSIG RMK A3033
2026-04-17 16:00:00,METAR SEQM 171600Z VRB02KT 9999 BKN015 BKN100 17/12 Q1027 NOSIG RMK A3034
2026-04-17 15:00:00,METAR SEQM 171500Z VRB01KT 9999 BKN010 BKN100 16/13 Q1027 NOSIG RMK A3035
2026-04-17 14:00:00,METAR SEQM 171400Z 29003KT 9999 SCT005 BKN030 14/13 Q1027 NOSIG RMK A3035
2026-04-17 13:00:00,METAR SEQM 171300Z 36004KT 9999 FEW005 BKN030 13/13 Q1027 NOSIG RMK A3034
2026-04-17 12:26:00,SPECI SEQM 171226Z VRB02KT 9999 FEW002 BKN030 13/13 Q1027 NOSIG RMK A3032
2026-04-17 12:00:00,METAR SEQM 171200Z 02002KT 6000 -DZ BCFG FEW005 SCT020 OVC090 13/13 Q1026 BECMG AT1240 8000 RMK A3031
2026-04-17 11:00:00,METAR SEQM 171100Z 06002KT 9999 FEW010 SCT020 BKN090 13/12 Q1025 NOSIG RMK A3029
2026-04-17 10:00:00,METAR SEQM 171000Z VRB02KT 9999 SCT005 SCT020 BKN090 13/12 Q1025 NOSIG RMK A 3025
2026-04-17 09:00:00,METAR SEQM 170900Z 02002KT 9999 -RA SCT005 SCT020 BKN090 13/13 Q1025 NOSIG RMK A3026
2026-04-17 08:00:00,METAR SEQM 170800Z 02003KT 8000 BCFG BKN005 13/13 Q1025 NOSIG RMK A3028
2026-04-17 07:00:00,METAR SEQM 170700Z 03003KT 6000 BCFG BKN005 13/13 Q1026 NOSIG RMK A3030
2026-04-17 06:00:00,METAR SEQM 170600Z 03003KT 6000 BCFG BKN005 13/13 Q1026 NOSIG RMK A3032
2026-04-17 05:00:00,METAR SEQM 170500Z 02005KT 9999 SCT005 BKN020 13/13 Q1027 NOSIG RMK A3034
2026-04-17 04:00:00,METAR SEQM 170400Z 06001KT 9999 FEW005 SCT020 BKN090 14/13 Q1027 NOSIG RMK A3034
2026-04-17 03:00:00,METAR SEQM 170300Z 31003KT 4000 R36/0700VP2000U -RA BR BKN005 14/13 Q1027 NOSIG RMK A3034
2026-04-17 02:48:00,SPECI SEQM 170248Z 30004KT 2000 R36/0700VP2000D -RA BR SCT005 BKN020 14/14 Q1027 TEMPO 1000 RMK A3034
2026-04-17 02:04:00,SPECI SEQM 170204Z 34005KT 6000 -RA BCFG SCT005 SCT020 BKN090 14/14 Q1026 TEMPO 4000 RMK A3031
2026-04-17 02:00:00,METAR SEQM 170200Z 02003KT 9999 -RA SCT005 SCT020 BKN090 14/13 Q1026 RERA NOSIG RMK A3031
2026-04-17 01:22:00,SPECI SEQM 170122Z VRB02KT 8000 RA SCT005 SCT020 BKN090 14/14 Q1026 TEMPO -RA RMK A3030
2026-04-17 01:00:00,METAR SEQM 170100Z 02002KT 9999 SCT005 SCT020 BKN090 14/14 Q1025 NOSIG RMK A3029
2026-04-17 00:00:00,METAR SEQM 170000Z 01006KT 9999 -RA SCT004 OVC020 15/13 Q1024 NOSIG RMK A3024
2026-04-16 23:00:00,METAR SEQM 162300Z 01010KT 9999 VCSH FEW010 BKN020 OVC100 16/13 Q1023 NOSIG RMK A3022
2026-04-16 22:00:00,METAR SEQM 162200Z COR WIND RWY 36 010/8KT VIS 10KM CLD BKN 3000FT BKN 10000FT T17 DP13 QNH 1022HPA TREND NOSIG QNH 3019INCH
2026-04-16 21:00:00,METAR SEQM 162100Z 36014KT 9999 VCSH SCT030TCU BKN100 19/14 Q1021 NOSIG RMK A3017
2026-04-16 20:00:00,METAR SEQM 162000Z 01010KT 9999 VCSH BKN030TCU SCT100 19/13 Q1022 NOSIG RMK A3018
2026-04-16 19:00:00,METAR SEQM 161900Z 35013KT 9999 VCSH BKN030TCU SCT100 20/14 Q1023 NOSIG RMK A3021
2026-04-16 18:00:00,METAR SEQM 161800Z 35006KT 300V020 9999 BKN030TCU 21/13 Q1024 NOSIG RMK A3024
2026-04-16 17:00:00,METAR SEQM 161700Z 30005KT 240V050 9999 SCT030 SCT100 21/12 Q1025 NOSIG RMK A3028
2026-04-16 16:00:00,METAR SEQM 161600Z 27004KT 220V310 9999 SCT023 BKN080 19/13 Q1026 NOSIG RMK A3031
2026-04-16 15:00:00,METAR SEQM 161500Z 29004KT 250V320 9999 SCT020 BKN080 18/14 Q1027 NOSIG RMK A3033
2026-04-16 14:00:00,METAR SEQM 161400Z VRB02KT 9999 SCT020 BKN080 16/12 Q1027 NOSIG RMK A3034
2026-04-16 13:00:00,METAR SEQM 161300Z 00000KT 9999 BCFG FEW010 SCT030 BKN080 14/13 Q1027 NOSIG RMK A3032
2026-04-16 12:00:00,METAR SEQM 161200Z 10002KT 9999 -RA FEW010 BKN030 13/12 Q1026 NOSIG RMK A3031
2026-04-16 11:00:00,METAR SEQM 161100Z 07002KT 9999 -RA FEW010 BKN030 OVC080 13/12 Q1026 NOSIG RMK A3030
2026-04-16 10:25:00,SPECI SEQM 161025Z VRB01KT 9999 2000S BCFG FEW003 BKN020 OVC080 13/13 Q1025 TEMPO 4000 RMK A3029
2026-04-16 10:00:00,METAR SEQM 161000Z 02002KT 9999 -RA FEW006 BKN020 OVC080 13/13 Q1025 NOSIG RMK A3028
2026-04-16 09:00:00,METAR SEQM 160900Z 01002KT 9999 -RA SCT006 OVC020 13/13 Q1025 NOSIG RMK A3028
2026-04-16 08:00:00,METAR SEQM 160800Z VRB02KT 9999 -RA SCT005 OVC020 13/12 Q1025 NOSIG RMK A3029
2026-04-16 07:00:00,METAR SEQM 160700Z 09002KT 8000 -RA BCFG SCT005 OVC020 13/12 Q1026 NOSIG RMK A3030
2026-04-16 06:00:00,METAR SEQM 160600Z 03002KT 8000 -DZ BCFG SCT005 OVC020 14/13 Q1026 TEMPO 6000 RMK A3032
2026-04-16 05:00:00,METAR SEQM 160500Z 06003KT 9999 -RA SCT005 BKN026 14/13 Q1027 TEMPO 8000 RA RMK A3034
2026-04-16 04:00:00,METAR SEQM 160400Z 01002KT 9999 FEW010 BKN030 14/13 Q1027 NOSIG RMK A3034
2026-04-16 03:00:00,METAR SEQM 160300Z 30003KT 270V340 9999 FEW010 BKN030 15/13 Q1027 NOSIG RMK A3032
2026-04-16 02:00:00,METAR SEQM 160200Z 04004KT 010V070 9999 FEW010 BKN030 15/13 Q1026 NOSIG RMK A3030
2026-04-16 01:00:00,METAR SEQM 160100Z 01007KT 9999 FEW010 BKN030 15/13 Q1025 NOSIG RMK A3028
2026-04-16 00:00:00,METAR SEQM 160000Z 36006KT 9999 BKN020 16/13 Q1024 NOSIG RMK A3024
2026-04-15 23:00:00,METAR SEQM 152300Z 03008KT 9999 VCSH OVC020 17/13 Q1023 TEMPO RA RMK A3021
2026-04-15 22:00:00,METAR SEQM 152200Z 01011KT 9999 BKN020 18/13 Q1022 NOSIG RMK A3019
2026-04-15 21:00:00,METAR SEQM 152100Z 01013KT 9999 SCT030TCU BKN300 20/13 Q1021 RETS NOSIG RMK A3017
2026-04-15 20:00:00,METAR SEQM 152000Z 01013KT 9999 TS VCSH FEW020CB SCT030TCU BKN300 22/13 Q1021 TEMPO TSRA RMK A3017
2026-04-15 19:49:00,SPECI SEQM 151949Z 36014KT 9999 TS FEW020CB SCT030TCU BKN300 21/13 Q1021 TEMPO TSRA RMK A3017
2026-04-15 19:00:00,METAR SEQM 151900Z 36013KT 9999 SCT030TCU BKN300 21/13 Q1022 NOSIG RMK A3018
2026-04-15 18:00:00,METAR SEQM 151800Z 36011KT 9999 SCT030 BKN300 21/13 Q1023 NOSIG RMK A3022
2026-04-15 17:00:00,METAR SEQM 151700Z 36007KT 9999 SCT030 SCT100 BKN300 20/11 Q1024 NOSIG RMK A3026
2026-04-15 16:00:00,METAR SEQM 151600Z 35004KT 290V060 9999 FEW030 SCT100 BKN300 20/12 Q1025 NOSIG RMK A3028
2026-04-15 15:00:00,METAR SEQM 151500Z VRB02KT 9999 FEW020 SCT100 BKN300 17/13 Q1026 NOSIG RMK A3032
2026-04-15 14:00:00,METAR SEQM 151400Z 33004KT 300V020 9999 FEW010 SCT030 BKN100 15/13 Q1026 NOSIG RMK A3032
2026-04-15 13:00:00,METAR SEQM 151300Z 00000KT 9999 FEW002 BKN030 14/12 Q1026 NOSIG RMK A3030
2026-04-15 12:20:00,SPECI SEQM 151220Z COR 19002KT 6000 -RA BKN020 13/12 Q1026 RERA BECMG AT1300 8000 RMK A3030
2026-04-15 12:00:00,METAR SEQM 151200Z 19003KT 160V240 6000 RA BCFG SCT004 OVC020 13/12 Q1025 BECMG AT1250 8000 -RA RMK A3029
2026-04-15 11:11:00,SPECI SEQM 151111Z 25002KT 6000 BCFG SCT005 OVC020 13/12 Q1025 BECMG AT1200 9999 RMK A3028
2026-04-15 11:00:00,METAR SEQM 151100Z 28002KT 9999 FEW005 BKN020 13/12 Q1025 NOSIG RMK A3027
2026-04-15 10:00:00,METAR SEQM 151000Z 10003KT 9999 BKN020 BKN070 13/12 Q1024 NOSIG RMK A3024
2026-04-15 09:00:00,METAR SEQM 150900Z 00000KT 9999 FEW005 SCT020 BKN070 13/12 Q1024 NOSIG RMK A3024
2026-04-15 08:00:00,METAR SEQM 150800Z 17003KT 9999 FEW005 BKN020 BKN070 14/12 Q1024 NOSIG RMK A3025
2026-04-15 07:00:00,METAR SEQM 150700Z 12004KT 9999 FEW004 OVC030 13/12 Q1025 NOSIG RMK A3026
2026-04-15 06:00:00,METAR SEQM 150600Z 22003KT 9999 FEW006 SCT030 BKN070 14/12 Q1025 NOSIG RMK A3028
2026-04-15 05:31:00,SPECI SEQM 150531Z COR 17006KT 6000 -RA BCFG SCT006 OVC020 14/13 Q1025 BECMG AT0540 8000 RMK A3029
2026-04-15 05:00:00,METAR SEQM 150500Z 19006KT 6000 -RA SCT006 OVC020 14/13 Q1026 TEMPO 4000 RMK A3031
2026-04-15 04:00:00,METAR SEQM 150400Z 28005KT 250V360 9999 -RA BKN006 OVC020 15/14 Q1026 NOSIG RMK A3032
2026-04-15 03:00:00,METAR SEQM 150300Z 00000KT 9999 BKN006 OVC023 15/14 Q1026 NOSIG RMK A3032
2026-04-15 02:00:00,METAR SEQM 150200Z 10004KT 9999 OVC006 14/13 Q1026 NOSIG RMK A3030
2026-04-15 01:00:00,METAR SEQM 150100Z 08003KT 040V100 9999 FEW030 SCT080 14/13 Q1025 NOSIG RMK A3027
2026-04-15 00:00:00,METAR SEQM 150000Z 06001KT 9999 SCT030 14/12 Q1023 NOSIG RMK A3022
2026-04-14 23:00:00,METAR SEQM 142300Z 02004KT 9999 FEW030 BKN100 17/11 Q1023 NOSIG RMK A3020
2026-04-14 22:00:00,METAR SEQM 142200Z 25004KT 180V320 9999 SCT030 BKN100 16/11 Q1022 NOSIG RMK A3019
2026-04-14 21:00:00,METAR SEQM 142100Z 16009KT 9999 VCSH BKN026 16/11 Q1023 RETS TEMPO RA RMK A3020
2026-04-14 20:32:00,SPECI SEQM 142032Z 01005KT 340V040 9999 -TSRA FEW020CB BKN026 18/13 Q1022 TEMPO +TSRA RMK A3020
2026-04-14 20:00:00,METAR SEQM 142000Z 34012KT 9999 VCSH BKN026 SCT100 19/13 Q1022 NOSIG RMK A3019
2026-04-14 19:00:00,METAR SEQM 141900Z 36013KT 9999 SCT026 SCT300 21/14 Q1022 NOSIG RMK A3018
2026-04-14 18:00:00,METAR SEQM 141800Z 01013KT 9999 FEW030 SCT300 23/13 Q1022 NOSIG RMK A3019
2026-04-14 17:00:00,METAR SEQM 141700Z 34007KT 280V020 9999 FEW030 BKN300 24/12 Q1023 NOSIG RMK A3022
2026-04-14 16:00:00,METAR SEQM 141600Z 29004KT 260V030 9999 FEW030 BKN300 22/11 Q1024 NOSIG RMK A3026
2026-04-14 15:00:00,METAR SEQM 141500Z 30004KT 9999 FEW030 BKN300 21/12 Q1025 NOSIG RMK A3029
2026-04-14 14:00:00,METAR SEQM 141400Z 30003KT 9999 FEW030 SCT300 18/12 Q1026 NOSIG RMK A3030
2026-04-14 13:00:00,METAR SEQM 141300Z 16002KT 9999 FEW020 SCT300 16/12 Q1026 NOSIG RMK A3031
2026-04-14 12:00:00,METAR SEQM 141200Z 11003KT 9999 FEW033 SCT300 13/12 Q1026 NOSIG RMK A3030
2026-04-14 11:00:00,METAR SEQM 141100Z 21002KT 9999 SCT030 SCT100 13/12 Q1025 NOSIG RMK A3028
2026-04-14 10:00:00,METAR SEQM 141000Z 16004KT 9999 -RA SCT026 BKN090 13/12 Q1025 NOSIG RMK A3028
2026-04-14 09:00:00,METAR SEQM 140900Z 12003KT 9999 -DZ FEW010 SCT020 BKN090 13/12 Q1025 NOSIG RMK A3029
2026-04-14 08:00:00,METAR SEQM 140800Z 08004KT 9999 -RA BCFG SCT005 BKN020 13/12 Q1026 NOSIG RMK A3030
2026-04-14 07:00:00,METAR SEQM 140700Z 04004KT 9999 SCT005 BKN020 14/13 Q1026 NOSIG RMK A3031
2026-04-14 06:00:00,METAR SEQM 140600Z 02004KT 9999 SCT005 BKN020 14/13 Q1026 NOSIG RMK A3032
2026-04-14 05:00:00,METAR SEQM 140500Z 01004KT 6000 BCFG BKN005 14/14 Q1027 NOSIG RMK A3033
2026-04-14 04:00:00,METAR SEQM 140400Z 01003KT 340V040 4000 BR BKN005 14/14 Q1027 TEMPO 6000 RMK A3035
2026-04-14 03:00:00,METAR SEQM 140300Z 04003KT 4000 BR BKN005 14/14 Q1027 TEMPO 6000 RMK A3033
2026-04-14 02:00:00,METAR SEQM 140200Z 10005KT 9999 SCT005 BKN020 13/13 Q1026 NOSIG RMK A3030
2026-04-14 01:20:00,SPECI SEQM 140120Z VRB02KT 4000 R36/0900VP2000U BR SCT005 BKN020 14/13 Q1025 BECMG TL0150 6000 RMK A3029
2026-04-14 01:02:00,SPECI SEQM 140102Z 29005KT 0500 R36/0450 FG OVC005 14/14 Q1025 TEMPO 1000 RMK A3028
2026-04-14 01:00:00,METAR SEQM 140100Z 30005KT 280V350 4000 BR SCT005 BKN020 14/14 Q1025 TEMPO 5000 RMK A3027
2026-04-14 00:00:00,METAR SEQM 140000Z 07002KT 9999 BKN030 14/13 Q1024 NOSIG RMK A3024
2026-04-13 23:00:00,METAR SEQM 132300Z VRB02KT 9999 -RA BKN030 15/14 Q1024 NOSIG RMK A3024
2026-04-13 22:48:00,SPECI SEQM 132248Z VRB02KT 9999 VCSH BKN030 15/13 Q1024 RETS NOSIG RMK A3024
2026-04-13 22:00:00,METAR SEQM 132200Z 19004KT 9999 TS VCSH FEW020CB BKN030 15/13 Q1023 RERA BECMG AT2240 NSW RMK A3022
2026-04-13 21:16:00,SPECI SEQM 132116Z COR 19010KT 9999 TSRA FEW020CB BKN030 20/12 Q1022 BECMG AT2240 NSW RMK A3019
2026-04-13 21:00:00,METAR SEQM 132100Z 01011KT 9999 TS VCSH FEW020CB BKN030TCU 20/14 Q1022 BECMG AT2240 NSW RMK A3018
2026-04-13 20:00:00,METAR SEQM 132000Z 34018KT 9999 SCT040TCU 24/12 Q1021 NOSIG RMK A3015
2026-04-13 19:00:00,METAR SEQM 131900Z 35017KT 9999 SCT040 24/12 Q1022 NOSIG RMK A3018
2026-04-13 18:00:00,METAR SEQM 131800Z 35015KT 9999 SCT036 24/10 Q1023 NOSIG RMK A3022
2026-04-13 17:00:00,METAR SEQM 131700Z 31007KT 280V010 9999 SCT036 25/09 Q1024 NOSIG RMK A3026
2026-04-13 16:00:00,METAR SEQM 131600Z 27004KT 9999 FEW036 24/09 Q1026 NOSIG RMK A3030
2026-04-13 15:00:00,METAR SEQM 131500Z 21002KT 9999 FEW036 22/13 Q1027 NOSIG RMK A3033
2026-04-13 14:00:00,METAR SEQM 131400Z 21002KT 9999 FEW020 19/14 Q1027 NOSIG RMK A3035
2026-04-13 13:00:00,METAR SEQM 131300Z 14002KT 9999 SCT007 SCT070 16/14 Q1028 NOSIG RMK A3036
2026-04-13 12:00:00,METAR SEQM 131200Z 14002KT 9999 BCFG FEW010 SCT030 BKN080 14/14 Q1027 NOSIG RMK A3034
2026-04-13 11:00:00,METAR SEQM 131100Z 02001KT 9999 -DZ BCFG FEW005 SCT020 BKN070 14/13 Q1026 NOSIG RMK A3032
2026-04-13 10:00:00,METAR SEQM 131000Z 01003KT 340V040 9999 SCT004 OVC020 14/13 Q1026 NOSIG RMK A3030
2026-04-13 09:00:00,METAR SEQM 130900Z 02001KT 9999 SCT004 OVC020 14/14 Q1025 NOSIG RMK A3029
2026-04-13 08:00:00,METAR SEQM 130800Z 04003KT 9999 SCT004 OVC020 14/13 Q1025 NOSIG RMK A3029
2026-04-13 07:00:00,METAR SEQM 130700Z VRB01KT 9999 SCT004 OVC020 15/14 Q1026 NOSIG RMK A3031
2026-04-13 06:00:00,METAR SEQM 130600Z 01003KT 310V060 9999 SCT004 OVC020 15/14 Q1027 NOSIG RMK A3033
2026-04-13 05:00:00,METAR SEQM 130500Z 35005KT 310V010 9999 SCT004 OVC020 15/14 Q1027 NOSIG RMK A3035
2026-04-13 04:00:00,METAR SEQM 130400Z VRB02KT 9999 SCT004 OVC020 15/14 Q1027 NOSIG RMK A3035
2026-04-13 03:00:00,METAR SEQM 130300Z 02006KT 350V050 9999 SCT004 OVC020 14/14 Q1027 NOSIG RMK A3034
2026-04-13 02:00:00,METAR SEQM 130200Z 04004KT 9999 FEW004 SCT020 14/14 Q1026 NOSIG RMK A3032
2026-04-13 01:00:00,METAR SEQM 130100Z 02006KT 340V040 9999 SCT020 15/14 Q1025 NOSIG RMK A3029
2026-04-13 00:00:00,METAR SEQM 130000Z 04008KT 9999 SCT030 SCT090 16/14 Q1024 NOSIG RMK A3024
2026-04-12 23:00:00,METAR SEQM 122300Z 03009KT 360V060 9999 SCT033 BKN300 18/14 Q1022 NOSIG RMK A3019
2026-04-12 22:00:00,METAR SEQM 122200Z 36011KT 9999 SCT040 SCT300 21/14 Q1021 NOSIG RMK A3016
2026-04-12 21:00:00,METAR SEQM 122100Z 36016KT 9999 SCT040 SCT100 22/14 Q1020 NOSIG RMK A3014
2026-04-12 20:00:00,METAR SEQM 122000Z 36008KT 9999 FEW033TCU SCT040 25/08 Q1020 NOSIG RMK A3013
2026-04-12 19:00:00,METAR SEQM 121900Z 14004KT 9999 FEW033TCU SCT040 26/07 Q1022 NOSIG RMK A3019
2026-04-12 18:00:00,METAR SEQM 121800Z 31006KT 9999 FEW033TCU SCT040 26/08 Q1024 NOSIG RMK A3024
2026-04-12 17:00:00,METAR SEQM 121700Z 31006KT 9999 SCT040 25/08 Q1025 NOSIG RMK A3028
2026-04-12 16:00:00,METAR SEQM 121600Z 35004KT 9999 SCT040 22/08 Q1026 NOSIG RMK A3031
2026-04-12 15:00:00,METAR SEQM 121500Z 33004KT 9999 FEW033 SCT300 20/09 Q1027 NOSIG RMK A3034
2026-04-12 14:00:00,METAR SEQM 121400Z 33002KT 9999 FEW033 SCT300 18/11 Q1028 NOSIG RMK A3036
2026-04-12 13:00:00,METAR SEQM 121300Z 15003KT 9999 FEW033 SCT300 14/11 Q1028 NOSIG RMK A3036
2026-04-12 12:00:00,METAR SEQM 121200Z 12002KT 9999 FEW030 SCT100 BKN300 11/10 Q1027 NOSIG RMK A3034
2026-04-12 11:00:00,METAR SEQM 121100Z 13004KT 9999 FEW010 SCT030 12/10 Q1027 NOSIG RMK A3032
2026-04-12 10:00:00,METAR SEQM 121000Z 12005KT 9999 OVC010 11/10 Q1026 NOSIG RMK A3031
2026-04-12 09:00:00,METAR SEQM 120900Z 11004KT 9999 BKN010 11/10 Q1025 NOSIG RMK A3029
2026-04-12 08:00:00,METAR SEQM 120800Z 09005KT 9999 BKN010 11/10 Q1025 NOSIG RMK A3029
2026-04-12 07:00:00,METAR SEQM 120700Z VRB02KT 9999 BKN005 11/10 Q1026 NOSIG RMK A3030
2026-04-12 06:00:00,METAR SEQM 120600Z 11003KT 9999 OVC005 13/12 Q1027 NOSIG RMK A3032
2026-04-12 05:00:00,METAR SEQM 120500Z VRB01KT 9999 OVC005 13/12 Q1027 NOSIG RMK A3034
2026-04-12 04:00:00,METAR SEQM 120400Z 04002KT 9999 BKN005 12/11 Q1027 NOSIG RMK A3035
2026-04-12 03:00:00,METAR SEQM 120300Z 04003KT 9999 SCT005 14/13 Q1027 NOSIG RMK A3034
2026-04-12 02:00:00,METAR SEQM 120200Z 03004KT 9999 BKN005 14/13 Q1026 NOSIG RMK A3031
2026-04-12 01:00:00,METAR SEQM 120100Z 04006KT 9999 FEW030 15/13 Q1025 NOSIG RMK A3027
2026-04-12 00:00:00,METAR SEQM 120000Z 04006KT 9999 FEW030 16/13 Q1023 NOSIG RMK A3022
2026-04-11 23:00:00,METAR SEQM 112300Z 02006KT 9999 FEW040 SCT300 19/13 Q1022 NOSIG RMK A3018
2026-04-11 22:00:00,METAR SEQM 112200Z 01009KT 9999 SCT040 20/13 Q1021 NOSIG RMK A3017
2026-04-11 21:00:00,METAR SEQM 112100Z 01008KT 9999 VCSH BKN040 SCT100 21/13 Q1021 NOSIG RMK A3016
2026-04-11 20:00:00,METAR SEQM 112000Z 36011KT 9999 VCSH BKN040 23/12 Q1021 NOSIG RMK A3016
2026-04-11 19:00:00,METAR SEQM 111900Z 23007KT 9999 BKN040 25/07 Q1021 NOSIG RMK A3016
2026-04-11 18:00:00,METAR SEQM 111800Z 17004KT 9999 SCT040 26/08 Q1023 NOSIG RMK A3021
2026-04-11 17:00:00,METAR SEQM 111700Z 01005KT 9999 BKN040 24/08 Q1024 NOSIG RMK A3025
2026-04-11 16:00:00,METAR SEQM 111600Z 28004KT 9999 SCT030 24/10 Q1025 NOSIG RMK A3029
2026-04-11 15:00:00,METAR SEQM 111500Z 22003KT 160V290 9999 SCT030 20/12 Q1027 NOSIG RMK A3032
2026-04-11 14:00:00,METAR SEQM 111400Z 26003KT 160V310 9999 SCT020 18/12 Q1027 NOSIG RMK A3035
2026-04-11 13:00:00,METAR SEQM 111300Z 09003KT 060V140 9999 SCT020 15/13 Q1027 NOSIG RMK A3034
2026-04-11 12:00:00,METAR SEQM 111200Z 13004KT 090V200 9999 FEW010 SCT020 13/12 Q1026 NOSIG RMK A3030
2026-04-11 11:00:00,METAR SEQM 111100Z 13003KT 090V150 9999 SCT006 BKN020 13/12 Q1026 NOSIG RMK A3030
2026-04-11 10:00:00,METAR SEQM 111000Z 09004KT 9999 BKN005 13/12 Q1025 NOSIG RMK A3028
2026-04-11 09:00:00,METAR SEQM 110900Z 06003KT 030V100 9999 BCFG BKN005 13/12 Q1025 NOSIG RMK A3028
2026-04-11 08:00:00,METAR SEQM 110800Z VRB01KT 9999 BCFG OVC005 14/13 Q1025 NOSIG RMK A3028
2026-04-11 07:00:00,METAR SEQM 110700Z 19005KT 160V220 6000 2000S BCFG OVC003 13/13 Q1025 TEMPO 1000 BR RMK A3029
2026-04-11 06:00:00,METAR SEQM 110600Z VRB02KT 6000 BCFG OVC003 14/13 Q1027 TEMPO 4000 BR RMK A3033
2026-04-11 05:00:00,METAR SEQM 110500Z 03002KT 9999 BKN005 BKN023 14/13 Q1027 NOSIG RMK A3035
2026-04-11 04:00:00,METAR SEQM 110400Z 05003KT 020V100 9999 FEW005 SCT023 BKN080 14/13 Q1028 NOSIG RMK A3036
2026-04-11 03:00:00,METAR SEQM 110300Z 02004KT 340V050 9999 BKN005 BKN020 15/13 Q1027 NOSIG RMK A3034
2026-04-11 02:00:00,METAR SEQM 110200Z 02003KT 9999 SCT005 BKN023 BKN080 15/14 Q1026 NOSIG RMK A3032
2026-04-11 01:00:00,METAR SEQM 110100Z 01007KT 9999 FEW006 SCT026 BKN080 15/14 Q1025 NOSIG RMK A3029
2026-04-11 00:00:00,METAR SEQM 110000Z 02007KT 9999 SCT033 SCT080 15/13 Q1024 NOSIG RMK A3026
2026-04-10 23:00:00,METAR SEQM 102300Z 02011KT 9999 SCT040 BKN300 17/13 Q1023 NOSIG RMK A3022
2026-04-10 22:00:00,METAR SEQM 102200Z 01013KT 9999 SCT040 SCT300 19/13 Q1022 NOSIG RMK A3020
2026-04-10 21:00:00,METAR SEQM 102100Z 36013KT 9999 SCT040 22/13 Q1022 NOSIG RMK A3018
2026-04-10 20:00:00,METAR SEQM 102000Z 01014KT 9999 FEW033TCU SCT040 BKN100 21/13 Q1022 NOSIG RMK A3020
2026-04-10 19:00:00,METAR SEQM 101900Z 35007KT 9999 SCT040 BKN100 24/11 Q1023 NOSIG RMK A3021
2026-04-10 18:00:00,METAR SEQM 101800Z 11003KT 9999 FEW033 SCT100 24/08 Q1023 NOSIG RMK A3023
2026-04-10 17:00:00,METAR SEQM 101700Z 22006KT 9999 FEW033 SCT100 24/08 Q1024 NOSIG RMK A3026
2026-04-10 16:00:00,METAR SEQM 101600Z 24004KT 200V010 9999 FEW033 SCT100 22/10 Q1025 NOSIG RMK A3029
2026-04-10 15:00:00,METAR SEQM 101500Z 31004KT 9999 SCT033 20/11 Q1026 NOSIG RMK A3031
2026-04-10 14:00:00,METAR SEQM 101400Z 19002KT 9999 SCT033 18/10 Q1026 NOSIG RMK A3031
2026-04-10 13:00:00,METAR SEQM 101300Z 04001KT 9999 FEW033 SCT100 13/11 Q1026 NOSIG RMK A3031
2026-04-10 12:00:00,METAR SEQM 101200Z 15003KT 100V200 9999 SCT033 SCT100 11/09 Q1026 NOSIG RMK A3031
2026-04-10 11:00:00,METAR SEQM 101100Z 15003KT 100V200 9999 FEW007 SCT033 10/08 Q1025 NOSIG RMK A3029
2026-04-10 10:00:00,METAR SEQM 101000Z 00000KT 9999 FEW007 SCT033 11/10 Q1025 NOSIG RMK A3026
2026-04-10 09:00:00,METAR SEQM 100900Z 16005KT 9999 FEW007 SCT033 12/11 Q1024 NOSIG RMK A3026
2026-04-10 08:00:00,METAR SEQM 100800Z 27002KT 8000 BCFG OVC007 13/12 Q1025 NOSIG RMK A3027
2026-04-10 07:00:00,METAR SEQM 100700Z 08003KT 050V110 8000 BCFG OVC007 13/12 Q1025 NOSIG RMK A3028
2026-04-10 06:00:00,METAR SEQM 100600Z 36004KT 6000 BCFG OVC005 13/13 Q1026 NOSIG RMK A3030
2026-04-10 05:30:00,SPECI SEQM 100530Z 36004KT 8000 4000S BR OVC003 13/13 Q1026 TEMPO 6000 RMK A3030 
2026-04-10 05:00:00,METAR SEQM 100500Z 01003KT 3000 0500N R36/1300VP2000U FG SCT003 SCT033 12/12 Q1026 TEMPO 1000 RMK A3030
2026-04-10 04:30:00,SPECI SEQM 100430Z VRB02KT 2000 0500N FG SCT003 SCT033 13/12 Q1026 TEMPO 1000 RMK A3030 
2026-04-10 04:00:00,METAR SEQM 100400Z 02002KT 9999 2000N BCFG SCT003 SCT033 13/12 Q1026 TEMPO 4000 RMK A3030
2026-04-10 03:49:00,SPECI SEQM 100349Z VRB02KT 9999 4000N BCFG SCT003 SCT036 13/12 Q1026 TEMPO 6000 RMK A3030
2026-04-10 03:00:00,METAR SEQM 100300Z 07003 040V100 9999 BKN036 SCT200 14/12 Q1026 NOSIG RMK A3030
2026-04-10 02:00:00,METAR SEQM 100200Z 10003KT 9999 BKN036 BKN200 14/13 Q1025 NOSIG RMK A3029
2026-04-10 01:00:00,METAR SEQM 100100Z 03006KT 010V070 9999 FEW006 BKN050 BKN200 15/13 Q1025 NOSIG RMK A3027
2026-04-10 00:00:00,METAR SEQM 100000Z 04008KT 9999 FEW030 SCT300 15/13 Q1023 NOSIG RMK A3022
2026-04-09 23:00:00,METAR SEQM 092300Z 33008KT 280V350 9999 FEW030 BKN300 20/08 Q1022 NOSIG RMK A3020
2026-04-09 22:00:00,METAR SEQM 092200Z 32008KT 280V340 9999 FEW030 SCT100 BKN300 21/07 Q1022 NOSIG RMK A3018
2026-04-09 21:00:00,METAR SEQM 092100Z 33008KT 280V010 9999 SCT030 BKN300 23/09 Q1022 NOSIG RMK A3018
2026-04-09 20:00:00,METAR SEQM 092000Z VRB07KT 9999 BKN030 BKN100 23/08 Q1022 NOSIG RMK A3018
2026-04-09 19:00:00,METAR SEQM 091900Z 09005KT 030V140 9999 VCSH BKN030 BKN100 22/10 Q1023 NOSIG RMK A3021
2026-04-09 18:00:00,METAR SEQM 091800Z VRB05KT 9999 BKN030 BKN100 24/09 Q1023 NOSIG RMK A3022
2026-04-09 17:00:00,METAR SEQM 091700Z 07004KT 340V140 9999 SCT030 BKN300 23/10 Q1024 NOSIG RMK A3025
2026-04-09 16:00:00,METAR SEQM 091600Z VRB03KT 9999 SCT030 BKN300 23/12 Q1025 NOSIG RMK A3028
2026-04-09 15:00:00,METAR SEQM 091500Z VRB02KT 9999 SCT026 SCT100 20/13 Q1026 NOSIG RMK A3031
2026-04-09 14:00:00,METAR SEQM 091400Z 36003KT 320V070 9999 FEW010 SCT023 BKN100 16/13 Q1027 NOSIG RMK A3033
2026-04-09 13:00:00,METAR SEQM 091300Z VRB02KT 6000 BCFG BKN005 14/13 Q1027 BECMG AT1330 9999 RMK A3033
2026-04-09 12:00:00,METAR SEQM 091200Z VRB02KT 4000 BR OVC003 13/13 Q1026 BECMG TL1250 VIS 6KM RMK A3030
2026-04-09 11:00:00,METAR SEQM 091100Z VRB02KT 3000 BR OVC003 13/13 Q1025 TEMPO 5000 RMK A3029
2026-04-09 10:36:00,SPECI SEQM 091036Z VRB02KT 3000 BR OVC002 13/12 Q1025 TEMPO 5000 RMK A3029
2026-04-09 10:00:00,METAR SEQM 091000Z VRB02KT 0900 R36/1000VP2000D FG OVC002 13/12 Q1025 TEMPO 1000 RMK A3027
2026-04-09 09:38:00,SPECI SEQM 090938Z COR VRB02KT 6000 0900N R36/P2000N PRFG OVC003 13/12 Q1025 TEMPO 1000 RMK A3027
2026-04-09 09:00:00,METAR SEQM 090900Z 09005KT 9999 FEW005 BKN030 12/11 Q1025 NOSIG RMK A3028
2026-04-09 08:00:00,METAR SEQM 090800Z VRB02KT 9999 FEW005 SCT030 13/12 Q1025 NOSIG RMK A3026
2026-04-09 07:00:00,METAR SEQM 090700Z 13004KT 9999 BKN030 14/13 Q1025 NOSIG RMK A3028
2026-04-09 06:00:00,METAR SEQM 090600Z VRB02KT 9999 BKN010 14/13 Q1067 NOSIG RMK A3032
2026-04-09 05:00:00,METAR SEQM 090500Z 13002KT 9999 BKN005 14/13 Q1027 NOSIG RMK A3034
2026-04-09 04:00:00,METAR SEQM 090400Z VRB02KT 9999 OVC005 15/14 Q1028 NOSIG RMK A3035
2026-04-09 03:00:00,METAR SEQM 090300Z VRB02KT 9999 OVC005 15/14 Q1027 NOSIG RMK A3035
2026-04-09 02:00:00,METAR SEQM 090200Z 02004KT 9999 FEW010 BKN030 15/13 Q1026 NOSIG RMK A3031
2026-04-09 01:00:00,METAR SEQM 090100Z 03006KT 9999 -RA FEW005 OVC030 15/14 Q1025 NOSIG RMK A3029
2026-04-09 00:00:00,METAR SEQM 090000Z 03007KT 9999 SCT030 SCT300 15/13 Q1024 NOSIG RMK A3026
2026-04-08 23:00:00,METAR SEQM 082300Z 03008KT 010V070 9999 SCT033 BKN100 16/13 Q1023 NOSIG RMK A3022
2026-04-08 22:00:00,METAR SEQM 082200Z 01012KT 9999 FEW033 SCT100 BKN300 18/13 Q1022 NOSIG RMK A3019
2026-04-08 21:00:00,METAR SEQM 082100Z 36009KT 9999 SCT036 SCT100 20/13 Q1022 NOSIG RMK A3019
2026-04-08 20:00:00,METAR SEQM 082000Z 36012KT 9999 BKN036 SCT090 BKN300 21/13 Q1022 NOSIG RMK A3020
2026-04-08 19:00:00,METAR SEQM 081900Z 30009KT 9999 BKN036 BKN300 23/09 Q1023 RMK A3022
2026-04-08 18:00:00,METAR SEQM 081800Z 13004KT 9999 BKN040 OVC300 24/08 Q1024 NOSIG RMK A3024
2026-04-08 17:00:00,METAR SEQM 081700Z 29007KT 9999 SCT040 BKN300 24/09 Q1025 NOSIG RMK A3026
2026-04-08 16:00:00,METAR SEQM 081600Z 28003KT 200V330 9999 SCT033 BKN300 21/12 Q1025 NOSIG RMK A3029
2026-04-08 15:00:00,METAR SEQM 081500Z 32003KT 250V020 9999 FEW026 BKN300 20/12 Q1026 NOSIG RMK A3032 
2026-04-08 14:00:00,METAR SEQM 081400Z 14002KT 9999 FEW010 SCT090 BKN300 16/13 Q1027 NOSIG RMK A3033
2026-04-08 13:33:00,SPECI SEQM 081333Z VRB02KT 9999 FEW005 SCT090 BKN300 15/13 Q1027 RMK A3034 
2026-04-08 13:14:00,SPECI SEQM 081314Z 00000KT 8000 BCFG FEW005 BKN090 BKN300 15/13 Q1027 BECMG AT1330 9999 RMK A3034 
2026-04-08 13:00:00,METAR SEQM 081300Z 29003KT 220V340 5000 BR SCT005 BKN090 14/13 Q1027 BECMG AT1330 9999 RMK A3034
2026-04-08 12:37:00,SPECI SEQM 081237Z VRB02KT 4000 BR BKN005 BKN090 14/13 Q1027 BECMG AT1300 9999 RMK A3033
2026-04-08 12:12:00,SPECI SEQM 081212Z 05004KT 030V090 4000 1200S R36/P2000N BR OVC004 14/13 Q1027 BECMG AT1300 9999 RMK A3033
2026-04-08 12:00:00,METAR SEQM 081200Z 24002KT 5000 BR SCT004 BKN020 BKN100 14/13 Q1026 BECMG AT1230 9999 RMK A3030
2026-04-08 11:00:00,METAR SEQM 081100Z COR WIND RWY 36 020/4KT VIS 10KM BCFG CLD SCT 400FT BKN 2000FT OVC 10000FT T13 DP13 QNH 1025HPA TREND TEMPO VIS 8KM QNH 3028INCH
2026-04-08 10:00:00,METAR SEQM 081000Z 01006KT 9999 BCFG BKN004 OVC020 14/13 Q1025 TEMPO 8000 RMK A3027
2026-04-08 09:00:00,METAR SEQM 080900Z VRB01KT 9999 FEW004 BKN020 OVC100 14/13 Q1024 NOSIG RMK A3026
2026-04-08 08:00:00,METAR SEQM 080800Z 04002KT 9999 SCT004 OVC020 14/13 Q1025 NOSIG RMK A3026
2026-04-08 07:00:00,METAR SEQM 080700Z 07003KT 040V110 9999 FEW004 OVC020 14/13 Q1025 NOSIG RMK A3028
2026-04-08 06:00:00,METAR SEQM 080600Z VRB02KT 9999 FEW004 OVC020 13/12 Q1025 NOSIG RMK A3028
2026-04-08 05:00:00,METAR SEQM 080500Z 04003KT 340V060 9999 SCT004 BKN020 14/13 Q1026 NOSIG RMK A3030
2026-04-08 04:00:00,METAR SEQM 080400Z VRB02KT 9999 SCT004 OVC020 14/13 Q1026 NOSIG RMK A3031
2026-04-08 03:00:00,METAR SEQM 080300Z VRB02KT 9999 BCFG SCT003 BKN020 14/13 Q1027 NOSIG RMK A3032
2026-04-08 02:00:00,METAR SEQM 080200Z 02004KT 9999 SCT004 OVC020 14/13 Q1026 NOSIG RMK A3030
2026-04-08 01:00:00,METAR SEQM 080100Z 04004KT 360V110 9999 FEW010 SCT020 14/13 Q1024 NOSIG RMK A3026 
2026-04-08 00:00:00,METAR SEQM 080000Z 03003KT 9999 BKN020 16/13 Q1024 NOSIG RMK A3024
2026-04-07 23:00:00,METAR SEQM 072300Z 01010KT 9999 BKN020 SCT300 17/14 Q1023 NOSIG RMK A3020
2026-04-07 22:00:00,METAR SEQM 072200Z 01012KT 9999 FEW030 SCT300 19/14 Q1021 NOSIG RMK A3017
2026-04-07 21:00:00,METAR SEQM 072100Z 01014KT 9999 FEW030 BKN300 20/14 Q1021 NOSIG RMK A3017
2026-04-07 20:00:00,METAR SEQM 072000Z 01013KT 9999 SCT030 SCT100 BKN300 22/14 Q1021 NOSIG RMK A3017
2026-04-07 19:00:00,METAR SEQM 071900Z 01013KT 9999 SCT030 BKN300 24/13 Q1022 NOSIG RMK A3018
2026-04-07 18:00:00,METAR SEQM 071800Z 02009KT 9999 SCT030 SCT300 24/12 Q1023 NOSIG RMK A3022
2026-04-07 17:00:00,METAR SEQM 071700Z 35011KT 9999 FEW030 SCT300 23/11 Q1024 NOSIG RMK A3026
2026-04-07 16:00:00,METAR SEQM 071600Z VRB03KT 9999 FEW030 SCT300 22/12 Q1025 NOSIG RMK A3029
2026-04-07 15:00:00,METAR SEQM 071500Z 26005KT 9999 FEW030 SCT300 20/12 Q1026 NOSIG RMK A3031
2026-04-07 14:00:00,METAR SEQM 071400Z VRB02KT 9999 FEW020 SCT300 17/12 Q1026 NOSIG RMK A3032
2026-04-07 13:37:00,SPECI SEQM 071337Z VRB02KT 4000 BR BKN005 BKN090 14/13 Q1027 BECMG AT1300 9999 RMK A3033 
2026-04-07 13:00:00,METAR SEQM 071300Z VRB02KT 9999 BKN010 16/13 Q1026 NOSIG RMK A3031
2026-04-07 12:24:00,SPECI SEQM 071224Z VRB02KT 9999 OVC005 14/13 Q1025 NOSIG RMK A3030
2026-04-07 12:00:00,METAR SEQM 071200Z 33003KT 8000 BCFG FEW005 SCT020 BKN090 14/13 Q1025 BECMG TL1240 9999 RMK A3029
2026-04-07 11:00:00,METAR SEQM 071100Z 08003KT 9999 SCT005 SCT020 BKN090 13/12 Q1025 NOSIG RMK A3027
2026-04-07 10:00:00,METAR SEQM 071000Z 13001KT 6000 BCFG SCT005 BKN020 13/13 Q1024 TEMPO 4000 RMK A3026
2026-04-07 09:00:00,METAR SEQM 070900Z 00000KT 9999 SCT010 BKN020 13/13 Q1024 NOSIG RMK A3025
2026-04-07 08:00:00,METAR SEQM 070800Z VRB02KT 9999 SCT010 BKN020 14/13 Q1025 NOSIG RMK A3027
2026-04-07 07:00:00,METAR SEQM 070700Z VRB02KT 9999 SCT010 BKN020 13/12 Q1025 NOSIG RMK A3027
2026-04-07 06:00:00,METAR SEQM 070600Z 30001KT 9999 SCT005 BKN020 15/14 Q1025 NOSIG RMK A3029
2026-04-07 05:00:00,METAR SEQM 070500Z 31004KT 9999 SCT005 BKN020 15/14 Q1026 NOSIG RMK A3031
2026-04-07 04:00:00,METAR SEQM 070400Z 32005KT 9999 SCT005 BKN020 15/14 Q1026 NOSIG RMK A3032
2026-04-07 03:00:00,METAR SEQM 070300Z 04001KT 9999 BKN005 15/14 Q1026 NOSIG RMK A3030
2026-04-07 02:00:00,METAR SEQM 070200Z 01003KT 9999 FEW010 SCT020 BKN080 15/14 Q1025 NOSIG RMK A3028
2026-04-07 01:00:00,METAR SEQM 070100Z 02005KT 9999 FEW010 SCT020 BKN080 15/14 Q1024 NOSIG RMK A3025
2026-04-07 00:00:00,METAR SEQM 070000Z 02007KT 9999 FEW010 OVC030 16/14 Q1023 NOSIG RMK A3022
2026-04-06 23:00:00,METAR SEQM 062300Z 01009KT 9999 VCSH BKN030 17/14 Q1022 NOSIG RMK A3020
2026-04-06 22:00:00,METAR SEQM 062200Z 02012KT 360V060 9999 SCT040 19/14 Q1021 NOSIG RMK A3017
2026-04-06 21:00:00,METAR SEQM 062100Z 02013KT 9999 VCSH SCT040TCU SCT300 20/15 Q1020 NOSIG RMK A3014
2026-04-06 20:00:00,METAR SEQM 062000Z 36016KT 9999 VCSH SCT040TCU 23/15 Q1021 NOSIG RMK A3015
2026-04-06 19:00:00,METAR SEQM 061900Z 36012KT 9999 SCT030 24/12 Q1021 NOSIG RMK A3017
2026-04-06 18:00:00,METAR SEQM 061800Z 02006KT 9999 SCT030 BKN300 23/12 Q1023 NOSIG RMK A3022
2026-04-06 17:00:00,METAR SEQM 061700Z 01006KT 290V060 9999 SCT030 SCT300 22/11 Q1024 NOSIG RMK A3026
2026-04-06 16:00:00,METAR SEQM 061600Z 01003KT 9999 FEW030 SCT300 21/12 Q1026 NOSIG RMK A3030
2026-04-06 15:00:00,METAR SEQM 061500Z 26003KT 190V350 9999 FEW030 19/13 Q1026 NOSIG RMK A3032
2026-04-06 14:00:00,METAR SEQM 061400Z 22003KT 9999 SCT020 15/12 Q1027 NOSIG RMK A3033
2026-04-06 13:00:00,METAR SEQM 061300Z VRB02KT 9999 BCFG SCT005 SCT020 13/11 Q1027 NOSIG RMK A3032
2026-04-06 12:00:00,METAR SEQM 061200Z 18004KT 150V220 8000 BKN005 BKN020 12/12 Q1026 BECMG AT1230 9999 RMK A3031
2026-04-06 11:00:00,METAR SEQM 061100Z 18003KT 6000 BCFG OVC005 12/11 Q1025 TEMPO 4000 BR RMK A3029
2026-04-06 10:00:00,METAR SEQM 061000Z VRB01KT 9999 BCFG BKN005 BKN020 10/10 Q1025 NOSIG RMK A3028
2026-04-06 09:00:00,METAR SEQM 060900Z 10003KT 9999 BCFG FEW005 SCT020 11/10 Q1025 NOSIG RMK A3026
2026-04-06 08:00:00,METAR SEQM 060800Z 20004KT 9999 BCFG FEW005 BKN020 12/12 Q1024 NOSIG RMK A3026
2026-04-06 07:00:00,METAR SEQM 060700Z VRB02KT 9999 BCFG SCT005 BKN020 12/11 Q1025 NOSIG RMK A3027
2026-04-06 06:00:00,METAR SEQM 060600Z VRB01KT 9999 BCFG FEW003 SCT020 12/11 Q1025 TEMPO 8000 RMK A3029
2026-04-06 05:46:00,SPECI SEQM 060546Z VRB02KT 6000 BCFG SCT003 SCT020 12/11 Q1025 TEMPO 4000 BR RMK A3029
2026-04-06 05:11:00,SPECI SEQM 060511Z COR VRB02KT 1000 R36/0750VP2000D BR BKN003 BKN020 13/13 Q1026 TEMPO 0500 FG RMK A3030
2026-04-06 05:00:00,METAR SEQM 060500Z VRB01KT 9999 BCFG FEW003 BKN020 13/13 Q1026 TEMPO 8000 RMK A3031
2026-04-06 04:24:00,SPECI SEQM 060424Z 00000KT 6000 BCFG SCT003 BKN020 12/12 Q1026 TEMPO 4000 BR RMK A3032
2026-04-06 04:00:00,METAR SEQM 060400Z 10004KT 1000 R36/1000 BR BKN003 12/12 Q1026 TEMPO 0700 FG RMK A3032
2026-04-06 03:32:00,SPECI SEQM 060332Z VRB02KT 0800 R36/0750V1600U FG BKN003 11/11 Q1026 TEMPO 0500 RMK A3032
2026-04-06 03:11:00,SPECI SEQM 060311Z VRB01KT 4000 2000S BR SCT003 13/12 Q1026 TEMPO 1000 RMK A3032
2026-04-06 03:00:00,METAR SEQM 060300Z VRB01KT 9999 FEW003 12/11 Q1026 NOSIG RMK A3031
2026-04-06 02:00:00,METAR SEQM 060200Z 06003KT 9999 FEW010 12/12 Q1025 NOSIG RMK A3029
2026-04-06 01:00:00,METAR SEQM 060100Z 11003KT 070V150 9999 FEW005 BKN030 13/13 Q1025 NOSIG RMK A3028
2026-04-06 00:00:00,METAR SEQM 060000Z 30005KT 9999 FEW003 BKN030 14/14 Q1024 NOSIG RMK A3026
2026-04-05 23:00:00,METAR SEQM 052300Z 04004KT 9999 SCT003 BKN030 14/14 Q1024 RETS NOSIG RMK A3025
2026-04-05 22:24:00,SPECI SEQM 052224Z 33005KT 9999 TS VCSH FEW010CB BKN030 14/14 Q1024 RERA TEMPO -RA RMK A3024
2026-04-05 22:00:00,METAR SEQM 052200Z 17006KT 9999 3000N TSRA FEW010CB BKN030 14/14 Q1023 BECMG AT2240 8000 RA RMK A3023
2026-04-05 21:27:00,SPECI SEQM 052127Z 33008KT 9999 TSRA FEW020CB BKN030 16/14 Q1023 BECMG AT2200 RA RMK A3022
2026-04-05 21:00:00,METAR SEQM 052100Z 02007KT 9999 TS VCSH FEW020CB BKN030 18/14 Q1023 BECMG TL2120 RA RMK A3020
2026-04-05 20:00:00,METAR SEQM 052000Z 01012KT 9999 TS VCSH FEW020CB BKN030 18/13 Q1023 BECMG AT2040 RA RMK A3021
2026-04-05 19:00:00,METAR SEQM 051900Z 01015KT 9999 VCSH BKN030 SCT300 20/13 Q1022 TEMPO SHRA RMK A3020
2026-04-05 18:00:00,METAR SEQM 051800Z 36015KT 9999 BKN030 SCT300 23/13 Q1023 NOSIG RMK A3022
2026-04-05 17:00:00,METAR SEQM 051700Z VRB02KT 9999 BKN030 SCT300 24/10 Q1024 NOSIG RMK A3024
2026-04-05 16:00:00,METAR SEQM 051600Z VRB03KT 9999 SCT030 BKN300 21/11 Q1025 NOSIG RMK A3028
2026-04-05 15:00:00,METAR SEQM 051500Z VRB03KT 9999 FEW030 BKN300 20/12 Q1026 NOSIG RMK A3032
2026-04-05 13:00:00,METAR SEQM 051300Z VRB01KT 9999 FEW005 SCT030 BKN300 15/13 Q1027 NOSIG RMK A3033
2026-04-05 12:00:00,METAR SEQM 051200Z 18002KT 9999 FEW003 BKN020 13/12 Q1026 NOSIG RMK A3030
2026-04-05 11:00:00,METAR SEQM 051100Z 27002KT 9999 FEW003 SCT020 13/12 Q1025 NOSIG RMK A3027
2026-04-05 10:00:00,METAR SEQM 051000Z 04002KT 9999 FEW005 OVC026 13/12 Q1025 NOSIG RMK A3028
2026-04-05 09:00:00,METAR SEQM 050900Z 07003KT 9999 FEW005 BKN026 13/12 Q1025 NOSIG RMK A3027
2026-04-05 08:00:00,METAR SEQM 050800Z 34004KT 9999 FEW005 SCT026 13/13 Q1024 NOSIG RMK A3025
2026-04-05 07:00:00,METAR SEQM 050700Z 02003KT 9999 BKN005 BKN020 14/13 Q1025 NOSIG RMK A3028
2026-04-05 06:00:00,METAR SEQM 050600Z 25003KT 8000 -DZ BCFG OVC003 14/13 Q1026 TEMPO 6000 RMK A3030
2026-04-05 05:00:00,METAR SEQM 050500Z 01003KT 8000 BCFG OVC003 14/13 Q1026 NOSIG RMK A3031
2026-04-05 04:00:00,METAR SEQM 050400Z 03003KT 350V070 8000 BCFG OVC004 14/13 Q1027 TEMPO 6000 RMK A3032
2026-04-05 03:00:00,METAR SEQM 050300Z 02003KT 8000 2000S BCFG OVC003 14/13 Q1026 TEMPO 6000 RMK A3031
2026-04-05 02:32:00,SPECI SEQM 050232Z VRB02KT 6000 BCFG OVC003 14/13 Q1026 NOSIG RMK A3031
2026-04-05 02:00:00,METAR SEQM 050200Z 03004KT 9999 BKN005 14/13 Q1025 NOSIG RMK A3029
2026-04-05 01:00:00,METAR SEQM 050100Z 02004KT 350V050 9999 FEW036 14/13 Q1025 NOSIG RMK A3027
2026-04-05 00:00:00,METAR SEQM 050000Z 01008KT 9999 BKN026 16/13 Q1023 NOSIG RMK A3023
2026-04-04 23:00:00,METAR SEQM 042300Z 02010KT 9999 BKN026 17/13 Q1023 NOSIG RMK A3020
2026-04-04 22:00:00,METAR SEQM 042200Z 03011KT 360V060 9999 SCT026 SCT100 19/13 Q1021 NOSIG RMK A3017
2026-04-04 21:00:00,METAR SEQM 042100Z 02014KT 350V050 9999 SCT030 BKN300 20/14 Q1020 NOSIG RMK A3014
2026-04-04 20:00:00,METAR SEQM 042000Z 01015KT 9999 FEW030 BKN300 22/14 Q1020 NOSIG RMK A3013
2026-04-04 19:00:00,METAR SEQM 041900Z 35015KT 9999 BKN033 24/11 Q1021 NOSIG RMK A3017
2026-04-04 18:00:00,METAR SEQM 041800Z 24006KT 140V310 9999 SCT033 26/07 Q1022 NOSIG RMK A3020
2026-04-04 17:00:00,METAR SEQM 041700Z VRB03KT 9999 SCT033 24/07 Q1024 NOSIG RMK A3024
2026-04-04 16:00:00,METAR SEQM 041600Z 23003KT 170V340 9999 FEW030 22/09 Q1025 NOSIG RMK A3028
2026-04-04 15:00:00,METAR SEQM 041500Z VRB02KT 9999 FEW030 20/09 Q1027 NOSIG RMK A3033
2026-04-04 14:00:00,METAR SEQM 041400Z 28003KT 190V360 9999 FEW026 18/11 Q1028 NOSIG RMK A3036
2026-04-04 13:00:00,METAR SEQM 041300Z VRB02KT 9999 FEW020 SCT300 15/11 Q1027 NOSIG RMK A3034
2026-04-04 12:00:00,METAR SEQM 041200Z VRB02KT 9999 FEW010 SCT020 BKN300 13/12 Q1027 NOSIG RMK A3033
2026-04-04 11:00:00,METAR SEQM 041100Z 08002KT 9999 SCT005 SCT020 BKN090 13/12 Q1026 NOSIG RMK A3030
2026-04-04 10:00:00,METAR SEQM 041000Z 18004KT 6000 BCFG SCT005 BKN020 13/12 Q1025 NOSIG RMK A3028
2026-04-04 09:00:00,METAR SEQM 040900Z VRB02KT 6000 BCFG SCT005 BKN020 13/12 Q1025 NOSIG RMK A3028
2026-04-04 08:00:00,METAR SEQM 040800Z 09003KT 6000 BCFG SCT005 BKN020 12/12 Q1025 NOSIG RMK A3029
2026-04-04 07:00:00,METAR SEQM 040700Z 06003KT 4000 BR SCT005 BKN020 12/12 Q1025 TEMPO 2000 RMK A3029
2026-04-04 06:13:00,SPECI SEQM 040613Z 11004KT 4000 1000S R36/0900V1800D BR OVC005 12/12 Q1026 TEMPO 0800 RMK A3030
2026-04-04 06:00:00,METAR SEQM 040600Z VRB02KT 6000 BCFG SCT005 BKN020 13/13 Q1026 TEMPO 4000 RMK A3030
2026-04-04 05:29:00,SPECI SEQM 040529Z 23004KT 4000 0500S R36/0450V1000 BR OVC005 13/12 Q1026 TEMPO 0400 RMK A3032
2026-04-04 05:00:00,METAR SEQM 040500Z 12003KT 4000 BR OVC005 13/13 Q1027 TEMPO 2000 RMK A3034
2026-04-04 04:00:00,METAR SEQM 040400Z 07003KT 020V100 4000 BR OVC005 13/12 Q1027 TEMPO 2000 RMK A3034
2026-04-04 03:57:00,SPECI SEQM 040357Z 07003KT 020V100 4000 BR OVC005 13/12 Q1027 TEMPO 2000 RMK A3033
2026-04-04 03:00:00,METAR SEQM 040300Z 07004KT 9999 FEW010 SCT020 12/11 Q1027 NOSIG RMK A3033
2026-04-04 02:00:00,METAR SEQM 040200Z 03002KT 9999 SCT030 13/12 Q1026 NOSIG RMK A3031
2026-04-04 01:00:00,METAR SEQM 040100Z 04005KT 9999 SCT030 14/12 Q1025 NOSIG RMK A3028
2026-04-04 00:00:00,METAR SEQM 040000Z 01008KT 9999 SCT036 SCT080 15/12 Q1024 NOSIG RMK A3024
2026-04-03 23:00:00,METAR SEQM 032300Z 02009KT 9999 BKN036 BKN090 17/12 Q1023 NOSIG RMK A3021
2026-04-03 22:00:00,METAR SEQM 032200Z 02011KT 9999 SCT040 BKN100 19/12 Q1022 NOSIG RMK A3018
2026-04-03 21:00:00,METAR SEQM 032100Z 01013KT 9999 SCT040 BKN100 21/12 Q1021 NOSIG RMK A3016
2026-04-03 20:00:00,METAR SEQM 032000Z 35013KT 9999 SCT040 BKN100 22/10 Q1021 NOSIG RMK A3016
2026-04-03 19:00:00,METAR SEQM 031900Z 36015G25KT 330V030 9999 BKN040 SCT100 BKN300 23/06 Q1022 NOSIG RMK A3019
2026-04-03 18:00:00,METAR SEQM 031800Z 32005KT 9999 FEW040 SCT100 BKN300 23/08 Q1023 NOSIG RMK A3023
2026-04-03 17:00:00,METAR SEQM 031700Z 32005KT 9999 FEW040 SCT100 BKN300 22/07 Q1025 NOSIG RMK A3029
2026-04-03 16:00:00,METAR SEQM 031600Z 31002KT 9999 FEW040 OVC300 21/10 Q1027 NOSIG RMK A3033
2026-04-03 15:00:00,METAR SEQM 031500Z 29002KT 9999 FEW040 SCT100 BKN300 18/10 Q1027 NOSIG RMK A3035
2026-04-03 14:00:00,METAR SEQM 031400Z 24004KT 190V280 9999 BKN100 BKN300 15/10 Q1027 NOSIG RMK A3035
2026-04-03 13:00:00,METAR SEQM 031300Z 23003KT 200V260 9999 SCT050 BKN100 14/10 Q1027 NOSIG RMK A3034
2026-04-03 12:00:00,METAR SEQM 031200Z 17005KT 9999 SCT100 BKN300 13/10 Q1026 NOSIG RMK A3030
2026-04-03 11:00:00,METAR SEQM 031100Z 17004KT 9999 SCT080 BKN300 12/10 Q1025 NOSIG RMK A3028
2026-04-03 10:00:00,METAR SEQM 031000Z VRB02KT 9999 FEW030 BKN300 11/09 Q1024 NOSIG RMK A3026
2026-04-03 09:00:00,METAR SEQM 030900Z 14002KT 9999 FEW080 BKN300 12/10 Q1024 NOSIG RMK A3025
2026-04-03 08:00:00,METAR SEQM 030800Z VRB01KT 9999 FEW080 BKN300 12/11 Q1024 NOSIG RMK A3026
2026-04-03 07:00:00,METAR SEQM 030700Z 10003KT 9999 FEW080 SCT300 12/10 Q1025 NOSIG RMK A3027
2026-04-03 06:00:00,METAR SEQM 030600Z 13002KT 9999 FEW080 SCT300 12/10 Q1026 NOSIG RMK A3031
2026-04-03 05:00:00,METAR SEQM 030500Z 16002KT 9999 BKN080 13/10 Q1027 NOSIG RMK A3033
2026-04-03 04:00:00,METAR SEQM 030400Z 14003KT 110V200 9999 BKN080 13/11 Q1027 NOSIG RMK A3034
2026-04-03 03:00:00,METAR SEQM 030300Z VRB01KT 9999 FEW100 SCT300 12/10 Q1027 NOSIG RMK A3034
2026-04-03 02:00:00,METAR SEQM 030200Z 07003KT 9999 FEW100 BKN300 13/10 Q1026 NOSIG RMK A3030
2026-04-03 01:00:00,METAR SEQM 030100Z 36004KT 9999 FEW033 SCT100 BKN300 14/11 Q1025 NOSIG RMK A3028
2026-04-03 00:00:00,METAR SEQM 030000Z 01006KT 9999 SCT033 BKN100 16/11 Q1024 NOSIG RMK A3025
2026-04-02 23:00:00,METAR SEQM 022300Z 01011KT 9999 SCT033 SCT100 17/11 Q1023 NOSIG RMK A3022
2026-04-02 22:00:00,METAR SEQM 022200Z 01014KT 9999 SCT033 19/11 Q1022 NOSIG RMK A3019
2026-04-02 21:00:00,METAR SEQM 022100Z 35017KT 9999 FEW030TCU SCT033 22/11 Q1021 NOSIG RMK A3017
2026-04-02 20:00:00,METAR SEQM 022000Z 36015KT 9999 FEW030TCU SCT033 BKN300 23/09 Q1022 NOSIG RMK A3017
2026-04-02 19:00:00,METAR SEQM 021900Z 35012KT 9999 FEW030TCU SCT033 BKN300 24/08 Q1023 NOSIG RMK A3022
2026-04-02 18:00:00,METAR SEQM 021800Z 01007KT 9999 SCT033 BKN300 23/04 Q1024 NOSIG RMK A3025
2026-04-02 17:00:00,METAR SEQM 021700Z 33006KT 9999 SCT033 BKN300 22/06 Q1025 NOSIG RMK A3028
2026-04-02 16:00:00,METAR SEQM 021600Z 21003KT 9999 FEW030 SCT100 BKN300 20/11 Q1027 NOSIG RMK A3032
2026-04-02 15:00:00,METAR SEQM 021500Z 19003KT 9999 SCT026 BKN090 17/12 Q1027 NOSIG RMK A3034
2026-04-02 14:00:00,METAR SEQM 021400Z 21006KT 9999 FEW010 SCT026 BKN090 15/13 Q1027 NOSIG RMK A3035
2026-04-02 13:00:00,METAR SEQM 021300Z 24001KT 9999 FEW010 SCT026 BKN090 14/12 Q1027 NOSIG RMK A3034
2026-04-02 12:00:00,METAR SEQM 021200Z VRB02KT 6000 BCFG OVC006 13/12 Q1027 BECMG AT1250 9999 RMK A3033
2026-04-02 11:00:00,METAR SEQM 021100Z 05003KT 6000 BCFG OVC003 13/12 Q1026 BECMG TL1140 8000 RMK A3030
2026-04-02 10:15:00,SPECI SEQM 021015Z 01004KT 4000 BR OVC002 13/12 Q1025 NOSIG RMK A3027
2026-04-02 10:00:00,METAR SEQM 021000Z 01005KT 2000 0900S R36/0800VP2000D PRFG OVC002 13/12 Q1025 TEMPO 1000 RMK A3027
2026-04-02 09:00:00,METAR SEQM 020900Z 02005KT 9999 3000N BCFG FEW005 BKN030 12/11 Q1025 TEMPO 2000 RMK A3027
2026-04-02 08:00:00,METAR SEQM 020800Z 13004KT 9999 SCT030 SCT100 12/11 Q1025 NOSIG RMK A3026
2026-04-02 07:00:00,METAR SEQM 020700Z VRB01KT 9999 BKN030 13/11 Q1025 NOSIG RMK A3027
2026-04-02 06:00:00,METAR SEQM 020600Z 00000KT 9999 BKN030 13/12 Q1026 NOSIG RMK A3031
2026-04-02 05:00:00,METAR SEQM 020500Z 16002KT 9999 BKN030 13/12 Q1027 NOSIG RMK A3034
2026-04-02 04:00:00,METAR SEQM 020400Z 10004KT 9999 BKN030 14/12 Q1027 NOSIG RMK A3035
2026-04-02 03:00:00,METAR SEQM 020300Z 31006KT 9999 BKN030 14/13 Q1027 NOSIG RMK A3034
2026-04-02 02:00:00,METAR SEQM 020200Z 01007KT 9999 BKN030 15/12 Q1026 NOSIG RMK A3032
2026-04-02 01:00:00,METAR SEQM 020100Z 36008KT 9999 OVC030 16/12 Q1025 NOSIG RMK A3028
2026-04-02 00:00:00,METAR SEQM 020000Z 01010KT 9999 BKN030 OVC080 16/12 Q1024 NOSIG RMK A3025
2026-04-01 23:00:00,METAR SEQM 012300Z 36010KT 9999 BKN030 BKN090 17/11 Q1023 NOSIG RMK A3021
2026-04-01 22:00:00,METAR SEQM 012200Z 36010KT 9999 VCSH FEW033 BKN090 18/12 Q1023 NOSIG RMK A3020
2026-04-01 21:00:00,METAR SEQM 012100Z 02010KT 9999 VCSH FEW040 SCT080 19/12 Q1022 NOSIG RMK A3020
2026-04-01 20:00:00,METAR SEQM 012000Z 36019KT 9999 VCSH SCT040 SCT080 21/12 Q1022 NOSIG RMK A3020
2026-04-01 19:00:00,METAR SEQM 011900Z 34015KT 300V020 9999 SCT030 24/11 Q1023 NOSIG RMK A3021
2026-04-01 18:00:00,METAR SEQM 011800Z 33009KT 270V050 9999 SCT030 24/09 Q1024 NOSIG RMK A3026
2026-04-01 17:00:00,METAR SEQM 011700Z 01005KT 9999 FEW030 22/08 Q1026 NOSIG RMK A3030
2026-04-01 16:00:00,METAR SEQM 011600Z 02003KT 9999 FEW030 22/11 Q1027 NOSIG RMK A3034
2026-04-01 15:00:00,METAR SEQM 011500Z VRB02KT 9999 FEW030 20/11 Q1028 NOSIG RMK A3036
2026-04-01 14:00:00,METAR SEQM 011400Z VRB02KT 9999 FEW020 17/11 Q1028 NOSIG RMK A3037
2026-04-01 13:00:00,METAR SEQM 011300Z 19003KT 150V230 9999 FEW020 SCT300 15/12 Q1028 NOSIG RMK A3036
2026-04-01 12:00:00,METAR SEQM 011200Z 17002KT 9999 SCT023 12/10 Q1027 NOSIG RMK A3033
2026-04-01 11:00:00,METAR SEQM 011100Z 16003KT 9999 FEW005 BKN020 13/11 Q1026 NOSIG RMK A3030
2026-04-01 10:00:00,METAR SEQM 011000Z 00000KT 9999 FEW005 BKN020 13/11 Q1025 NOSIG RMK A3029
2026-04-01 09:00:00,METAR SEQM 010900Z VRB02KT 9999 BCFG SCT005 BKN020 13/11 Q1025 TEMPO 8000 RMK A3028
2026-04-01 08:00:00,METAR SEQM 010800Z 08004KT 9999 BCFG BKN005 12/12 Q1026 TEMPO 8000 RMK A3030
2026-04-01 07:35:00,SPECI SEQM 010735Z 03003KT 2000 BR BKN005 13/12 Q1026 TEMPO 1000 RMK A3030
2026-04-01 07:00:00,METAR SEQM 010700Z VRB02KT 9999 FEW005 SCT023 BKN200 12/11 Q1026 NOSIG RMK A3030
2026-04-01 06:00:00,METAR SEQM 010600Z 05002KT 9999 SCT023 BKN200 13/12 Q1027 NOSIG RMK A3033
2026-04-01 05:00:00,METAR SEQM 010500Z 16003KT 120V190 9999 FEW023 BKN200 13/12 Q1028 NOSIG RMK A3035
2026-04-01 04:00:00,METAR SEQM 010400Z VRB01KT 9999 SCT023 SCT100 BKN200 13/12 Q1028 NOSIG RMK A3037
2026-04-01 03:00:00,METAR SEQM 010300Z VRB02KT 9999 SCT023 BKN100 14/13 Q1028 NOSIG RMK A3036
2026-04-01 02:00:00,METAR SEQM 010200Z 04004KT 9999 SCT023 BKN100 14/13 Q1027 NOSIG RMK A3034
2026-04-01 01:00:00,METAR SEQM 010100Z 02006KT 9999 SCT030 BKN100 15/13 Q1025 NOSIG RMK A3029
2026-04-01 00:00:00,METAR SEQM 010000Z 05005KT 9999 BKN030 BKN100 16/11 Q1025 NOSIG RMK A3027
2026-03-31 23:00:00,METAR SEQM 312300Z 03009KT 360V060 9999 BKN030 BKN100 17/12 Q1024 NOSIG RMK A3024
2026-03-31 22:00:00,METAR SEQM 312200Z 02013KT 350V050 9999 VCSH SCT030 BKN300 20/12 Q1023 NOSIG RMK A3021
2026-03-31 21:00:00,METAR SEQM 312100Z 36019KT 9999 VCSH SCT040TCU BKN300 21/12 Q1022 NOSIG RMK A3018
2026-03-31 20:00:00,METAR SEQM 312000Z 34016KT 9999 SCT040TCU BKN300 22/11 Q1021 NOSIG RMK A3017
2026-03-31 19:00:00,METAR SEQM 311900Z 32008KT 270V010 9999 SCT040 BKN300 24/09 Q1022 NOSIG RMK A3020
2026-03-31 18:00:00,METAR SEQM 311800Z 04006KT 010V100 9999 SCT040 BKN300 22/09 Q1024 NOSIG RMK A3024
2026-03-31 17:00:00,METAR SEQM 311700Z 22005KT 9999 FEW040 BKN300 22/10 Q1025 NOSIG RMK A3029
2026-03-31 16:00:00,METAR SEQM 311600Z 19004KT 9999 FEW040 BKN300 20/10 Q1027 NOSIG RMK A3034
2026-03-31 15:00:00,METAR SEQM 311500Z 24003KT 190V300 9999 FEW040 BKN080 17/11 Q1028 NOSIG RMK A3037
2026-03-31 14:00:00,METAR SEQM 311400Z VRB02KT 9999 FEW040 BKN080 15/11 Q1028 NOSIG RMK A3037
2026-03-31 13:00:00,METAR SEQM 311300Z 27003KT 9999 FEW040 BKN080 14/10 Q1028 NOSIG RMK A3036
2026-03-31 12:00:00,METAR SEQM 311200Z 16003KT 9999 SCT036 BKN080 10/08 Q1027 NOSIG RMK A3034
2026-03-31 11:00:00,METAR SEQM 311100Z 32003KT 270V030 9999 SCT036 BKN080 11/08 Q1027 NOSIG RMK A3032
2026-03-31 10:00:00,METAR SEQM 311000Z 18002KT 9999 BKN080 10/08 Q1026 NOSIG RMK A3032
2026-03-31 09:00:00,METAR SEQM 310900Z 12004KT 9999 BKN080 10/08 Q1026 NOSIG RMK A3030
2026-03-31 08:00:00,METAR SEQM 310800Z 12005KT 9999 BKN080 10/09 Q1026 NOSIG RMK A3032
2026-03-31 07:00:00,METAR SEQM 310700Z 23002KT 9999 BKN090 11/09 Q1027 NOSIG RMK A3033
2026-03-31 06:00:00,METAR SEQM 310600Z 11005KT 9999 BKN090 11/09 Q1028 NOSIG RMK A3035
2026-03-31 05:00:00,METAR SEQM 310500Z 12005KT 9999 BKN090 11/09 Q1029 NOSIG RMK A3038
2026-03-31 04:00:00,METAR SEQM 310400Z 00000KT 9999 BKN090 BKN200 11/10 Q1029 NOSIG RMK A3039
2026-03-31 03:00:00,METAR SEQM 310300Z 06003KT 9999 FEW036 BKN090 BKN200 11/10 Q1028 NOSIG RMK A3035
2026-03-31 02:00:00,METAR SEQM 310200Z 18002KT 9999 SCT036 OVC200 12/11 Q1027 NOSIG RMK A3034
2026-03-31 01:00:00,METAR SEQM 310100Z 26002KT 9999 SCT036 OVC200 12/10 Q1027 NOSIG RMK A3032
2026-03-31 00:00:00,METAR SEQM 310000Z 12006KT 9999 FEW030 OVC100 12/10 Q1026 NOSIG RMK A3031
2026-03-30 23:00:00,METAR SEQM 302300Z 29010KT 9999 SCT020 OVC100 12/11 Q1025 NOSIG RMK A3029
2026-03-30 22:28:00,SPECI SEQM 302228Z 31006KT 9999 VCSH BKN030 13/10 Q1026 RETS NOSIG RMK A3026
2026-03-30 22:00:00,METAR SEQM 302200Z 07005KT 9999 -TSRA FEW020CB BKN030 12/10 Q1025 BECMG AT2230 NSW RMK A3026
2026-03-30 21:28:00,SPECI SEQM 302128Z 17014KT 9999 -TSRA FEW020CB BKN030 11/10 Q1025 RERA BECMG AT2200 NSW RMK A3026
2026-03-30 21:00:00,METAR SEQM 302100Z 17013KT 9999 TSRA FEW020CB BKN030 15/07 Q1025 BECMG AT2200 NSW RMK A3026
2026-03-30 20:00:00,METAR SEQM 302000Z 01013KT 9999 TS VCSH FEW020CB SCT030 OVC300 20/12 Q1023 BECMG AT2100 NSW RMK A3023
2026-03-30 19:00:00,METAR SEQM 301900Z 36013KT 9999 FEW030 BKN300 22/12 Q1023 NOSIG RMK A3023
2026-03-30 18:00:00,METAR SEQM 301800Z 36014KT 9999 FEW030 BKN300 21/13 Q1025 NOSIG RMK A3026
2026-03-30 17:00:00,METAR SEQM 301700Z 36008KT 9999 FEW030 BKN300 22/11 Q1025 NOSIG RMK A3028
2026-03-30 16:00:00,METAR SEQM 301600Z VRB05KT 9999 FEW030 BKN300 21/13 Q1026 NOSIG RMK A3032
2026-03-30 15:00:00,METAR SEQM 301500Z 36005KT 9999 SCT020 BKN100 19/13 Q1027 NOSIG RMK A3035
2026-03-30 14:00:00,METAR SEQM 301400Z 31006KT 290V350 9999 SCT020 SCT300 17/13 Q1027 NOSIG RMK A3035
2026-03-30 13:00:00,METAR SEQM 301300Z VRB02KT 9999 SCT005 BKN020 15/13 Q1027 NOSIG RMK A3034
2026-03-30 12:00:00,METAR SEQM 301200Z 04002KT 8000 BCFG SCT005 BKN020 14/13 Q1026 BECMG TL1230 9999 RMK A3031
2026-03-30 11:00:00,METAR SEQM 301100Z 34002KT 6000 BCFG SCT005 SCT020 14/13 Q1025 BECMG TL1200 9999 RMK A3028
2026-03-30 10:00:00,METAR SEQM 301000Z 08002KT 9999 SCT005 BKN020 14/14 Q1025 NOSIG RMK A3027
2026-03-30 09:00:00,METAR SEQM 300900Z 30003KT 270V350 9999 SCT005 BKN020 15/13 Q1024 NOSIG RMK A3027
2026-03-30 08:00:00,METAR SEQM 300800Z 02005KT 9999 SCT005 BKN020 15/14 Q1025 NOSIG RMK A3028
2026-03-30 07:00:00,METAR SEQM 300700Z 14002KT 9999 SCT005 BKN020 14/14 Q1025 NOSIG RMK A3028
2026-03-30 06:00:00,METAR SEQM 300600Z 36002KT 9999 SCT005 BKN020 15/14 Q1026 NOSIG RMK A3032
2026-03-30 05:00:00,METAR SEQM 300500Z 13004KT 9999 SCT005 BKN020 14/13 Q1027 NOSIG RMK A3032
2026-03-30 04:00:00,METAR SEQM 300400Z 04002KT 9999 SCT005 BKN020 15/14 Q1027 NOSIG RMK A3035
2026-03-30 03:00:00,METAR SEQM 300300Z 34003KT 9999 SCT010 BKN020 15/13 Q1027 NOSIG RMK A3033
2026-03-30 02:00:00,METAR SEQM 300200Z 00000KT 9999 SCT030 BKN080 14/13 Q1027 NOSIG RMK A3032
2026-03-30 01:00:00,METAR SEQM 300100Z 04006KT 9999 SCT030 BKN080 15/13 Q1026 NOSIG RMK A3030
2026-03-30 00:00:00,METAR SEQM 300000Z 02006KT 9999 FEW030 SCT080 BKN300 17/13 Q1024 NOSIG RMK A3025
2026-03-29 23:00:00,METAR SEQM 292300Z 01009KT 9999 SCT030 BKN080 17/13 Q1024 NOSIG RMK A3024
2026-03-29 22:00:00,METAR SEQM 292200Z 02009KT 9999 SCT040 BKN300 19/13 Q1022 NOSIG RMK A3020
2026-03-29 21:00:00,METAR SEQM 292100Z 36015KT 9999 SCT030TCU BKN300 20/13 Q1022 NOSIG RMK A3019
2026-03-29 20:00:00,METAR SEQM 292000Z 36016KT 9999 SCT030TCU BKN300 22/13 Q1022 NOSIG RMK A3019
2026-03-29 19:00:00,METAR SEQM 291900Z 35015KT 320V020 9999 FEW030 BKN300 24/12 Q1022 NOSIG RMK A3020
2026-03-29 18:00:00,METAR SEQM 291800Z 35009KT 310V030 9999 FEW030 BKN300 24/10 Q1024 NOSIG RMK A3024
2026-03-29 17:00:00,METAR SEQM 291700Z VRB04KT 9999 FEW030 SCT300 23/07 Q1025 NOSIG RMK A3028
2026-03-29 16:00:00,METAR SEQM 291600Z 34006KT 9999 FEW030 SCT300 22/09 Q1026 NOSIG RMK A3030
2026-03-29 15:00:00,METAR SEQM 291500Z 02003KT 9999 FEW030 SCT300 20/11 Q1027 NOSIG RMK A3033
2026-03-29 14:00:00,METAR SEQM 291400Z 01008KT 340V050 9999 FEW030 BKN300 18/12 Q1027 NOSIG RMK A3035
2026-03-29 13:00:00,METAR SEQM 291300Z 19007KT 9999 FEW030 BKN300 16/12 Q1026 NOSIG RMK A3032
2026-03-29 12:00:00,METAR SEQM 291200Z 15003KT 9999 FEW010 SCT030 BKN300 14/12 Q1026 NOSIG RMK A3032
2026-03-29 11:00:00,METAR SEQM 291100Z 19003KT 9999 BKN020 13/12 Q1026 NOSIG RMK A3031
2026-03-29 10:00:00,METAR SEQM 291000Z VRB02KT 9999 BKN020 14/13 Q1025 NOSIG RMK A3029
2026-03-29 09:00:00,METAR SEQM 290900Z 06004KT 9999 SCT005 BKN030 14/13 Q1025 NOSIG RMK A3028
2026-03-29 08:00:00,METAR SEQM 290800Z 24005KT 9999 SCT005 BKN030 14/13 Q1025 NOSIG RMK A3027
2026-03-29 07:00:00,METAR SEQM 290700Z VRB02KT 9999 BKN020 14/13 Q1026 NOSIG RMK A3030
2026-03-29 06:00:00,METAR SEQM 290600Z 30003KT 9999 FEW005 BKN030 15/14 Q1027 NOSIG RMK A3033
2026-03-29 05:00:00,METAR SEQM 290500Z 03006KT 9999 OVC005 15/14 Q1027 NOSIG RMK A3034
2026-03-29 04:00:00,METAR SEQM 290400Z 35005KT 9999 BKN005 SCT100 15/14 Q1027 NOSIG RMK A3032
2026-03-29 03:00:00,METAR SEQM 290300Z 04003KT 340V090 9999 OVC005 15/14 Q1026 NOSIG RMK A3032
2026-03-29 02:00:00,METAR SEQM 290200Z 32004KT 290V360 9999 FEW010 BKN030 15/14 Q1026 NOSIG RMK A3030
2026-03-29 01:00:00,METAR SEQM 290100Z 03005KT 010V080 9999 BKN030 16/13 Q1025 NOSIG RMK A3028
2026-03-29 00:00:00,METAR SEQM 290000Z 36009KT 9999 SCT030 BKN100 17/14 Q1024 NOSIG RMK A3025
2026-03-28 23:00:00,METAR SEQM 282300Z 01008KT 9999 SCT030 BKN100 18/13 Q1023 NOSIG RMK A3022
2026-03-28 22:00:00,METAR SEQM 282200Z 01013KT 9999 VCSH FEW030TCU SCT033 BKN300 20/13 Q1022 NOSIG RMK A3020
2026-03-28 21:00:00,METAR SEQM 282100Z 36016KT 9999 VCSH FEW030TCU SCT033 BKN300 22/14 Q1021 NOSIG RMK A3017
2026-03-28 20:00:00,METAR SEQM 282000Z 35018KT 9999 FEW030TCU SCT033 24/12 Q1022 NOSIG RMK A3018
2026-03-28 19:00:00,METAR SEQM 281900Z 35012KT 310V030 9999 FEW030TCU SCT033 25/12 Q1022 NOSIG RMK A3020
2026-03-28 18:00:00,METAR SEQM 281800Z 35009KT 9999 FEW030TCU SCT033 24/10 Q1024 NOSIG RMK A3024
2026-03-28 17:00:00,METAR SEQM 281700Z 35007KT 9999 FEW030TCU SCT033 23/10 Q1025 NOSIG RMK A3028
2026-03-28 16:00:00,METAR SEQM 281600Z 34006KT 9999 FEW030TCU SCT033 22/12 Q1026 NOSIG RMK A3032
2026-03-28 15:00:00,METAR SEQM 281500Z 23003KT 9999 SCT030 SCT300 20/12 Q1027 NOSIG RMK A3035
2026-03-28 14:00:00,METAR SEQM 281400Z 28003KT 9999 SCT030 SCT300 17/13 Q1028 NOSIG RMK A3036
2026-03-28 13:00:00,METAR SEQM 281300Z 21002KT 9999 SCT030 BKN100 15/13 Q1027 NOSIG RMK A3035
2026-03-28 12:00:00,METAR SEQM 281200Z 18002KT 9999 FEW010 SCT030 BKN300 12/11 Q1026 NOSIG RMK A3031
2026-03-28 11:00:00,METAR SEQM 281100Z 14002KT 9999 FEW005 SCT020 12/11 Q1025 NOSIG RMK A3029
2026-03-28 10:00:00,METAR SEQM 281000Z 05003KT 9999 BCFG FEW005 BKN020 13/12 Q1025 NOSIG RMK A3028
2026-03-28 09:00:00,METAR SEQM 280900Z 00000KT 9999 FEW010 SCT020 BKN100 13/12 Q1025 NOSIG RMK A3027
2026-03-28 08:00:00,METAR SEQM 280800Z 17002KT 9999 BCFG BKN005 13/12 Q1025 NOSIG RMK A3027
2026-03-28 07:00:00,METAR SEQM 280700Z 12003KT 8000 BCFG BKN005 13/12 Q1025 NOSIG RMK A3028
2026-03-28 06:00:00,METAR SEQM 280600Z 28004KT 260V330 6000 BCFG BKN005 14/13 Q1026 TEMPO 4000 RMK A3031
2026-03-28 05:00:00,METAR SEQM 280500Z 00000KT 9999 BCFG BKN006 14/12 Q1027 NOSIG RMK A3032
2026-03-28 04:00:00,METAR SEQM 280400Z 05002KT 9999 BCFG BKN006 13/12 Q1027 NOSIG RMK A3033
2026-03-28 03:00:00,METAR SEQM 280300Z 04004KT 350V070 9999 BCFG BKN006 13/12 Q1026 NOSIG RMK A3030
2026-03-28 02:00:00,METAR SEQM 280200Z 36004KT 9999 FEW010 BKN020 13/12 Q1025 NOSIG RMK A3029
2026-03-28 01:00:00,METAR SEQM 280100Z 02005KT 9999 BKN020 SCT100 14/12 Q1025 NOSIG RMK A3028
2026-03-28 00:00:00,METAR SEQM 280000Z 04004KT 9999 FEW030 SCT100 BKN300 15/12 Q1023 NOSIG RMK A3023
2026-03-27 23:00:00,METAR SEQM 272300Z 01009KT 9999 FEW030 OVC100 16/12 Q1023 NOSIG RMK A3021
2026-03-27 22:00:00,METAR SEQM 272200Z 02010KT 9999 FEW030 OVC100 17/13 Q1022 NOSIG RMK A3019
2026-03-27 21:00:00,METAR SEQM 272100Z 01012KT 9999 VCSH SCT030 OVC100 17/13 Q1022 NOSIG RMK A3019
2026-03-27 20:00:00,METAR SEQM 272000Z 34014KT 9999 VCSH SCT040TCU BKN100 22/13 Q1021 NOSIG RMK A3017
2026-03-27 19:00:00,METAR SEQM 271900Z 35010KT 310V030 9999 SCT040 BKN100 23/11 Q1022 NOSIG RMK A3020
2026-03-27 18:00:00,METAR SEQM 271800Z 27005KT 9999 SCT030 BKN100 23/10 Q1023 NOSIG RMK A3023
2026-03-27 17:00:00,METAR SEQM 271700Z 29004KT 9999 SCT030 BKN100 21/12 Q1025 NOSIG RMK A3028
2026-03-27 16:00:00,METAR SEQM 271600Z 29004KT 260V360 9999 SCT030 BKN100 19/13 Q1026 NOSIG RMK A3031
2026-03-25 15:00:00,METAR SEQM 251500Z VRB02KT 9999 FEW020 BKN100 16/11 Q1027 NOSIG RMK A3035
2026-03-25 14:00:00,METAR SEQM 251400Z 00000KT 9999 FEW013 BKN100 14/12 Q1027 NOSIG RMK A3035
2026-03-25 13:00:00,METAR SEQM 251300Z VRB02KT 9999 SCT030 BKN090 13/12 Q1027 NOSIG RMK A3034
2026-03-25 12:00:00,METAR SEQM 251200Z 12002KT 9999 SCT030 BKN090 12/11 Q1026 NOSIG RMK A3032
2026-03-25 11:00:00,METAR SEQM 251100Z 27003KT 9999 -RA SCT020 BKN090 12/11 Q1026 NOSIG RMK A3030
2026-03-25 10:00:00,METAR SEQM 251000Z 25003KT 210V280 9999 SCT020 SCT090 12/12 Q1025 NOSIG RMK A3029
2026-03-25 09:00:00,METAR SEQM 250900Z 16005KT 9999 SCT020 SCT090 12/11 Q1025 NOSIG RMK A3028
2026-03-25 08:00:00,METAR SEQM 250800Z 07003KT 9999 SCT020 SCT090 12/11 Q1025 NOSIG RMK A3029
2026-03-25 07:00:00,METAR SEQM 250700Z 27003KT 9999 FEW005 SCT020 BKN090 12/11 Q1025 NOSIG RMK A3029
2026-03-25 06:00:00,METAR SEQM 250600Z 10005KT 9999 -RA FEW005 SCT020 BKN090 12/11 Q1026 RERA NOSIG RMK A3032
2026-03-25 05:00:00,METAR SEQM 250500Z 02011KT 8000 RA SCT005 BKN020 12/12 Q1027 TEMPO -RA RMK A3034
2026-03-25 04:00:00,METAR SEQM 250400Z 01006KT 9999 -RA SCT005 SCT020 OVC090 14/13 Q1027 NOSIG RMK A3034
2026-03-25 03:00:00,METAR SEQM 250300Z 01005KT 8000 -RA SCT005 SCT020 OVC090 14/13 Q1027 NOSIG RMK A3032
2026-03-25 02:00:00,METAR SEQM 250200Z 02005KT 9999 FEW010 SCT030 BKN090 14/13 Q1026 NOSIG RMK A3030
2026-03-25 01:00:00,METAR SEQM 250100Z 01005KT 9999 FEW010 SCT030 BKN090 15/13 Q1025 NOSIG RMK A3028
2026-03-25 00:00:00,METAR SEQM 250000Z 36008KT 9999 BKN033 SCT090 15/13 Q1024 NOSIG RMK A3025
2026-03-24 23:00:00,METAR SEQM 242300Z 36009KT 9999 BKN036 BKN090 17/12 Q1023 NOSIG RMK A3023
2026-03-24 22:00:00,METAR SEQM 242200Z 03009KT 360V060 9999 VCSH SCT036 BKN090 18/12 Q1023 NOSIG RMK A3020
2026-03-24 21:00:00,METAR SEQM 242100Z 36013KT 9999 SCT036 SCT090 20/12 Q1022 NOSIG RMK A3018
2026-03-24 20:00:00,METAR SEQM 242000Z 36013KT 330V030 9999 FEW036 SCT090 21/12 Q1022 NOSIG RMK A3020
2026-03-24 19:00:00,METAR SEQM 241900Z 36013KT 330V030 9999 FEW040 SCT090 22/12 Q1023 NOSIG RMK A3023
2026-03-24 18:00:00,METAR SEQM 241800Z 01010KT 9999 SCT030 SCT300 22/11 Q1024 NOSIG RMK A3026
2026-03-24 17:00:00,METAR SEQM 241700Z 32005KT 250V010 9999 FEW030 BKN300 22/07 Q1025 NOSIG RMK A3028
2026-03-24 16:00:00,METAR SEQM 241600Z 01005KT 320V060 9999 FEW030 BKN300 20/10 Q1026 NOSIG RMK A3032
2026-03-24 15:00:00,METAR SEQM 241500Z VRB03KT 9999 FEW030 BKN300 18/11 Q1027 NOSIG RMK A3034
2026-03-24 14:00:00,METAR SEQM 241400Z VRB02KT 9999 FEW015 BKN300 17/12 Q1027 NOSIG RMK A3034
2026-03-24 13:00:00,METAR SEQM 241300Z 19006KT 160V240 9999 FEW010 SCT040 BKN300 14/12 Q1027 NOSIG RMK A3033
2026-03-24 12:00:00,METAR SEQM 241200Z 17003KT 9999 BCFG FEW010 BKN100 11/10 Q1026 NOSIG RMK A3031
2026-03-24 11:00:00,METAR SEQM 241100Z VRB02KT 9999 BCFG FEW020 BKN080 10/10 Q1026 NOSIG RMK A3030
2026-03-24 10:00:00,METAR SEQM 241000Z 12003KT 9999 BCFG FEW004 BKN080 11/11 Q1025 NOSIG RMK A3028
2026-03-24 09:00:00,METAR SEQM 240900Z VRB02KT 9999 BCFG FEW004 BKN080 12/11 Q1025 NOSIG RMK A3028
2026-03-24 08:00:00,METAR SEQM 240800Z 00000KT 9999 BCFG FEW004 BKN080 12/11 Q1025 NOSIG RMK A3028
2026-03-24 07:00:00,METAR SEQM 240700Z 09005KT 9999 FEW020 BKN080 12/11 Q1025 NOSIG RMK A3029
2026-03-24 06:00:00,METAR SEQM 240600Z 26004KT 210V290 9999 FEW004 SCT023 BKN080 13/12 Q1026 NOSIG RMK A3030
2026-03-24 05:00:00,METAR SEQM 240500Z 17006KT 9999 FEW004 SCT023 BKN080 13/12 Q1027 NOSIG RMK A3033
2026-03-24 04:00:00,METAR SEQM 240400Z 09003KT 010V130 9999 -RA SCT004 OVC020 13/12 Q1028 NOSIG RMK A3036
2026-03-24 03:00:00,METAR SEQM 240300Z 03006KT 010V080 9999 -RA SCT004 OVC020 13/13 Q1028 NOSIG RMK A3035
2026-03-24 02:00:00,METAR SEQM 240200Z 01006KT 9999 SCT004 OVC020 14/12 Q1027 NOSIG RMK A3032
2026-03-24 01:00:00,METAR SEQM 240100Z 02006KT 9999 BKN020 OVC080 14/13 Q1025 NOSIG RMK A3029
2026-03-24 00:00:00,METAR SEQM 240000Z 36006KT 9999 BKN020 BKN080 15/13 Q1024 NOSIG RMK A3026
2026-03-23 23:00:00,METAR SEQM 232300Z 36009KT 340V040 9999 BKN020 BKN100 16/13 Q1024 NOSIG RMK A3024
2026-03-23 22:00:00,METAR SEQM 232200Z 03009KT 360V060 9999 FEW023 SCT030 BKN100 17/13 Q1023 NOSIG RMK A3022
2026-03-23 21:00:00,METAR SEQM 232100Z 01012KT 9999 SCT030 BKN100 18/13 Q1022 NOSIG RMK A3020
2026-03-23 20:00:00,METAR SEQM 232000Z 01013KT 9999 SCT030 SCT100 BKN300 20/13 Q1023 NOSIG RMK A3021
2026-03-23 19:00:00,METAR SEQM 231900Z 35016KT 9999 SCT030 BKN300 21/12 Q1023 NOSIG RMK A3022
2026-03-23 18:00:00,METAR SEQM 231800Z VRB04KT 9999 VCSH SCT030 BKN300 23/08 Q1024 NOSIG RMK A3023
2026-03-23 17:00:00,METAR SEQM 231700Z VRB04KT 9999 SCT030 BKN300 22/10 Q1025 NOSIG RMK A3028
2026-03-23 16:00:00,METAR SEQM 231600Z VRB02KT 9999 SCT023 BKN300 20/12 Q1026 NOSIG RMK A3032
2026-03-23 15:00:00,METAR SEQM 231500Z 01004KT 320V060 9999 SCT020 SCT100 BKN300 18/12 Q1027 NOSIG RMK A3033
2026-03-23 14:00:00,METAR SEQM 231400Z 34003KT 300V040 9999 SCT016 BKN300 16/12 Q1027 NOSIG RMK A3033
2026-03-23 13:00:00,METAR SEQM 231300Z 21004KT 190V260 9999 FEW010 SCT030 BKN300 14/12 Q1026 NOSIG RMK A3032
2026-03-23 12:00:00,METAR SEQM 231200Z 13002KT 9999 BCFG SCT010 BKN030 12/12 Q1026 NOSIG RMK A3030
2026-03-23 11:00:00,METAR SEQM 231100Z 02002KT 8000 BCFG SCT005 BKN020 13/12 Q1025 NOSIG RMK A3029
2026-03-23 10:00:00,METAR SEQM 231000Z 07003KT 020V120 6000 BCFG BKN005 13/12 Q1025 TEMPO 4000 RMK A3027
2026-03-23 09:00:00,METAR SEQM 230900Z 04005KT 360V060 9999 SCT010 BKN020 13/12 Q1025 NOSIG RMK A3027
2026-03-23 08:00:00,METAR SEQM 230800Z 16002KT 9999 SCT010 BKN020 13/12 Q1025 NOSIG RMK A3027
2026-03-23 07:00:00,METAR SEQM 230700Z 20002KT 9999 BKN006 13/12 Q1025 NOSIG RMK A3028
2026-03-23 06:00:00,METAR SEQM 230600Z 12002KT 9999 BKN006 13/13 Q1026 NOSIG RMK A3031
2026-03-23 05:00:00,METAR SEQM 230500Z 01005KT 9999 SCT006 BKN020 13/13 Q1027 NOSIG RMK A3034
2026-03-23 04:00:00,METAR SEQM 230400Z 09004KT 9999 FEW010 SCT020 13/12 Q1027 NOSIG RMK A3034
2026-03-23 03:00:00,METAR SEQM 230300Z 14004KT 100V160 9999 FEW030 BKN300 13/12 Q1027 NOSIG RMK A3032
2026-03-23 02:00:00,METAR SEQM 230200Z 01005KT 9999 FEW033 BKN300 14/12 Q1026 NOSIG RMK A3030
2026-03-23 01:00:00,METAR SEQM 230100Z 04004KT 9999 FEW033 BKN300 15/12 Q1025 NOSIG RMK A3028
2026-03-23 00:00:00,METAR SEQM 230000Z 02009KT 9999 FEW033 BKN300 16/11 Q1024 NOSIG RMK A3024
2026-03-22 23:00:00,METAR SEQM 222300Z 02008KT 9999 FEW036 BKN300 18/11 Q1023 NOSIG RMK A3022
2026-03-22 22:00:00,METAR SEQM 222200Z 01011KT 9999 FEW040 BKN300 20/11 Q1023 NOSIG RMK A3020
2026-03-22 21:00:00,METAR SEQM 222100Z 36015KT 9999 FEW040 BKN300 21/10 Q1022 NOSIG RMK A3019
2026-03-22 20:00:00,METAR SEQM 222000Z 36015KT 9999 FEW040 BKN300 22/10 Q1022 NOSIG RMK A3019
2026-03-22 19:00:00,METAR SEQM 221900Z 36014KT 9999 FEW040 SCT300 23/09 Q1022 NOSIG RMK A3020
2026-03-22 18:00:00,METAR SEQM 221800Z 34013KT 310V020 9999 FEW040 24/04 Q1023 NOSIG RMK A3022
2026-03-22 17:00:00,METAR SEQM 221700Z 30005KT 250V010 9999 FEW040 23/04 Q1024 NOSIG RMK A3026
2026-03-22 16:00:00,METAR SEQM 221600Z VRB03KT 9999 FEW030 21/07 Q1026 NOSIG RMK A3030
2026-03-22 15:00:00,METAR SEQM 221500Z 20004KT 140V270 9999 FEW030 19/09 Q1027 NOSIG RMK A3033
2026-03-22 12:00:00,METAR SEQM 221200Z 16003KT 9999 FEW010 SCT300 07/06 Q1026 NOSIG RMK A3032
2026-03-22 11:00:00,METAR SEQM 221100Z VRB02KT 9999 FEW010 SCT300 06/05 Q1026 NOSIG RMK A3030
2026-03-22 09:00:00,METAR SEQM 220900Z 11004KT 9999 BCFG SCT005 08/08 Q1025 NOSIG RMK A3029
2026-03-22 08:00:00,METAR SEQM 220800Z 13003KT 9999 BCFG OVC005 10/09 Q1025 NOSIG RMK A3029
2026-03-22 07:00:00,METAR SEQM 220700Z VRB01KT 9999 BCFG SCT005 08/08 Q1026 NOSIG RMK A3030
2026-03-22 06:39:00,SPECI SEQM 220639Z VRB02KT 9999 BCFG BKN005 09/08 Q1026 TEMPO 8000 RMK A3031
2026-03-22 06:11:00,SPECI SEQM 220611Z 08004KT 0250 R36/0225V0325N FG OVC003 10/09 Q1026 TEMPO 0600 RMK A3032
2026-03-22 06:00:00,METAR SEQM 220600Z VRB02KT 1000 R36/0750 BR OVC003 10/09 Q1027 TEMPO 2000 RMK A3032
2026-03-22 05:40:00,SPECI SEQM 220540Z VRB02KT 1000 R36/0700VP2000D BR OVC003 11/10 Q1027 TEMPO 2000 RMK A3033
2026-03-22 05:00:00,METAR SEQM 220500Z 14004KT 9999 BCFG BKN005 11/10 Q1027 TEMPO 8000 RMK A3035
2026-03-22 04:00:00,METAR SEQM 220400Z 09004KT 9999 2000S BCFG BKN005 12/11 Q1028 NOSIG RMK A3035
2026-03-22 03:00:00,METAR SEQM 220300Z 15001KT 9999 FEW010 11/10 Q1027 NOSIG RMK A3034
2026-03-22 02:00:00,METAR SEQM 220200Z 36002KT 9999 FEW030 SCT300 13/11 Q1026 NOSIG RMK A3032
2026-03-22 01:00:00,METAR SEQM 220100Z 03005KT 9999 FEW030 SCT300 15/11 Q1026 NOSIG RMK A3031
2026-03-22 00:00:00,METAR SEQM 220000Z 02007KT 9999 SCT030 SCT300 16/11 Q1025 NOSIG RMK A3028
2026-03-21 23:00:00,METAR SEQM 212300Z 01011KT 360V060 9999 SCT030 BKN080 17/10 Q1024 NOSIG RMK A3026
2026-03-21 22:00:00,METAR SEQM 212200Z 01011KT 9999 SCT040 SCT300 19/10 Q1023 NOSIG RMK A3022
2026-03-21 21:00:00,METAR SEQM 212100Z 36014KT 9999 SCT040 22/09 Q1023 NOSIG RMK A3021
2026-03-21 20:00:00,METAR SEQM 212000Z 35017KT 9999 SCT040 22/07 Q1023 NOSIG RMK A3020
2026-03-21 19:00:00,METAR SEQM 211900Z 35014KT 320V020 9999 SCT040 23/06 Q1023 NOSIG RMK A3022
2026-03-21 18:00:00,METAR SEQM 211800Z 02011KT 340V070 9999 SCT040 23/05 Q1024 NOSIG RMK A3024
2026-03-21 17:00:00,METAR SEQM 211700Z 33007KT 280V040 9999 FEW040 22/06 Q1025 NOSIG RMK A3028
2026-03-21 16:00:00,METAR SEQM 211600Z 33004KT 9999 FEW030 SCT300 21/06 Q1026 NOSIG RMK A3032
2026-03-21 15:00:00,METAR SEQM 211500Z 21003KT 9999 SCT026 SCT300 18/11 Q1027 NOSIG RMK A3035
2026-03-21 14:00:00,METAR SEQM 211400Z 29002KT 9999 BKN010 15/12 Q1028 NOSIG RMK A3036
2026-03-21 13:00:00,METAR SEQM 211300Z 00000KT 9999 BKN010 BKN030 13/12 Q1027 NOSIG RMK A3034
2026-03-21 12:00:00,METAR SEQM 211200Z VRB02KT 9999 SCT005 BKN030 12/11 Q1026 NOSIG RMK A3031
2026-03-21 11:00:00,METAR SEQM 211100Z VRB01KT 9999 SCT010 SCT300 12/11 Q1025 NOSIG RMK A3029
2026-03-21 10:00:00,METAR SEQM 211000Z 17003KT 9999 OVC020 13/12 Q1025 NOSIG RMK A3028
2026-03-21 09:00:00,METAR SEQM 210900Z 02002KT 9999 BKN020 12/11 Q1025 NOSIG RMK A3026
2026-03-21 08:00:00,METAR SEQM 210800Z 15002KT 9999 OVC010 13/12 Q1025 NOSIG RMK A3027
2026-03-21 07:00:00,METAR SEQM 210700Z 09002KT 9999 OVC010 12/12 Q1025 NOSIG RMK A3029
2026-03-21 06:00:00,METAR SEQM 210600Z 08003KT 3000 BR OVC003 12/12 Q1026 TEMPO 5000 RMK A3031
2026-03-21 05:38:00,SPECI SEQM 210538Z VRB02KT 9000 2400 BR OVC003 12/12 Q1026 NOSIG
2026-03-21 05:37:00,SPECI SEQM 210537Z COR VRB02KT 3000 BR OVC003 12/12 Q1026 TEMPO 5000 RMK A3031
2026-03-21 05:00:00,METAR SEQM 210500Z VRB02KT 9999 0550S R36/0650 PRFG OVC002 11/11 Q1027 TEMPO 2000 RMK A3033
2026-03-21 04:00:00,METAR SEQM 210400Z 36005KT 9999 SCT030 12/11 Q1027 NOSIG RMK A3033
2026-03-21 03:00:00,METAR SEQM 210300Z VRB02KT 9999 SCT020 14/12 Q1027 NOSIG RMK A3032
2026-03-21 02:00:00,METAR SEQM 210200Z 04004KT 010V090 9999 FEW002 SCT030 14/12 Q1026 NOSIG RMK A3032
2026-03-21 01:00:00,METAR SEQM 210100Z 03005KT 360V090 9999 FEW020 BKN030 16/12 Q1026 NOSIG RMK A3030
2026-03-21 00:00:00,METAR SEQM 210000Z 03006KT 010V070 9999 BKN030 16/11 Q1025 NOSIG RMK A3026
2026-03-20 23:00:00,METAR SEQM 202300Z 02009KT 9999 BKN030 18/11 Q1024 NOSIG RMK A3024
2026-03-20 22:00:00,METAR SEQM 202200Z 01013KT 9999 VCSH BKN033 19/11 Q1023 NOSIG RMK A3022
2026-03-20 21:00:00,METAR SEQM 202100Z 01012KT 9999 VCSH BKN033 21/10 Q1023 NOSIG RMK A3021
2026-03-20 20:00:00,METAR SEQM 202000Z 01012KT 9999 SCT033 SCT100 21/10 Q1023 NOSIG RMK A3022
2026-03-20 19:00:00,METAR SEQM 201900Z 36015KT 9999 SCT033 SCT100 22/08 Q1024 NOSIG RMK A3024
2026-03-20 18:00:00,METAR SEQM 201800Z 34013KT 9999 SCT033 22/08 Q1024 NOSIG RMK A3026
2026-03-20 17:00:00,METAR SEQM 201700Z 34009KT 280V010 9999 FEW030 22/08 Q1025 NOSIG RMK A3029
2026-03-20 16:00:00,METAR SEQM 201600Z VRB03KT 9999 FEW030 21/08 Q1027 NOSIG RMK A3033
2026-03-20 15:00:00,METAR SEQM 201500Z 21003KT 140V280 9999 FEW026 18/09 Q1028 NOSIG RMK A3036
2026-03-20 14:00:00,METAR SEQM 201400Z 27003KT 200V310 9999 FEW023 15/10 Q1028 NOSIG RMK A3035
2026-03-20 12:00:00,METAR SEQM 201200Z 16003KT 9999 FEW010 SCT020 BKN090 11/10 Q1027 NOSIG RMK A3033
2026-03-20 11:00:00,METAR SEQM 201100Z 17002KT 9999 FEW010 SCT020 BKN090 10/10 Q1026 NOSIG RMK A3031
2026-03-20 10:00:00,METAR SEQM 201000Z 00000KT 9999 SCT005 SCT020 09/09 Q1026 NOSIG RMK A3030
2026-03-20 09:00:00,METAR SEQM 200900Z 10006KT 4000 BR BKN005 10/10 Q1026 BECMG TL1000 6000 RMK A3030
2026-03-20 08:00:00,METAR SEQM 200800Z 10003KT 0500 R36/0500N FG OVC003 09/09 Q1025 BECMG TL0830 2000 RMK A3029
2026-03-20 07:33:00,SPECI SEQM 200733Z COR 00000KT 0500 R36/0300 FG OVC003 10/09 Q1025 BECMG TL0830 2000 RMK A3029
2026-03-20 07:31:00,SPECI SEQM 200731Z 00000KT 1000 R36/0325 FG OVC005 10/09 Q1026 BECMG TL0800 2000 RMK A3030
2026-03-20 07:00:00,METAR SEQM 200700Z 06002KT 9999 BCFG SCT005 SCT026 09/08 Q1026 NOSIG RMK A3031
2026-03-20 06:00:00,METAR SEQM 200600Z 16003KT 9999 FEW005 SCT026 10/08 Q1027 NOSIG RMK A3034
2026-03-20 05:00:00,METAR SEQM 200500Z 08004KT 9999 FEW010 SCT026 11/10 Q1028 NOSIG RMK A3036
2026-03-20 04:00:00,METAR SEQM 200400Z 12002KT 9999 FEW010 SCT030 12/11 Q1028 NOSIG RMK A3037
2026-03-20 03:00:00,METAR SEQM 200300Z 01005KT 9999 FEW030 13/11 Q1028 NOSIG RMK A3037
2026-03-20 02:00:00,METAR SEQM 200200Z 03003KT 9999 FEW030 SCT080 15/11 Q1028 NOSIG RMK A3035
2026-03-20 01:00:00,METAR SEQM 200100Z 04005KT 9999 SCT030 15/12 Q1027 NOSIG RMK A3032
2026-03-20 00:00:00,METAR SEQM 200000Z 02003KT 9999 SCT030 16/11 Q1026 NOSIG RMK A3030
2026-03-19 23:00:00,METAR SEQM 192300Z 01010KT 9999 FEW030 17/12 Q1025 NOSIG RMK A3026
2026-03-19 22:00:00,METAR SEQM 192200Z 01013KT 9999 FEW040 19/11 Q1024 NOSIG RMK A3024
2026-03-19 21:00:00,METAR SEQM 192100Z 01012KT 9999 FEW040 22/10 Q1023 NOSIG RMK A3023
2026-03-19 20:00:00,METAR SEQM 192000Z 01013KT 9999 FEW040 23/08 Q1024 NOSIG RMK A3024
2026-03-19 19:00:00,METAR SEQM 191900Z 35014KT 320V030 9999 FEW040 23/07 Q1024 NOSIG RMK A3026
2026-03-19 18:00:00,METAR SEQM 191800Z 34009KT 280V030 9999 FEW040 23/06 Q1026 NOSIG RMK A3030
2026-03-19 17:00:00,METAR SEQM 191700Z VRB03KT 9999 FEW040 23/06 Q1027 NOSIG RMK A3034
2026-03-19 16:00:00,METAR SEQM 191600Z 33004KT CAVOK 20/07 Q1028 NOSIG RMK A3037
2026-03-19 15:00:00,METAR SEQM 191500Z 16003KT CAVOK 18/08 Q1029 NOSIG RMK A3039
2026-03-19 14:00:00,METAR SEQM 191400Z VRB02KT CAVOK 16/08 Q1029 NOSIG RMK A3039
2026-03-19 13:00:00,METAR SEQM 191300Z 00000KT CAVOK 14/07 Q1029 NOSIG RMK A3039
2026-03-19 12:00:00,METAR SEQM 191200Z VRB02KT 9999 FEW030 08/06 Q1028 NOSIG RMK A3037
2026-03-19 11:00:00,METAR SEQM 191100Z VRB01KT 9999 SCT030 07/06 Q1027 NOSIG RMK A3035
2026-03-19 10:00:00,METAR SEQM 191000Z VRB02KT 9999 BKN020 08/06 Q1026 NOSIG RMK A3032
2026-03-19 09:00:00,METAR SEQM 190900Z VRB01KT 9999 SCT020 08/06 Q1026 NOSIG RMK A3032
2026-03-19 08:00:00,METAR SEQM 190800Z 12005KT 9999 FEW004 SCT020 10/07 Q1027 NOSIG RMK A3033
2026-03-19 07:00:00,METAR SEQM 190700Z 11004KT 9999 FEW004 BKN020 10/08 Q1027 NOSIG RMK A3034
2026-03-19 06:00:00,METAR SEQM 190600Z VRB01KT 9999 BCFG FEW004 BKN300 10/08 Q1028 NOSIG RMK A3035
2026-03-19 05:00:00,METAR SEQM 190500Z 13003KT 9999 FEW004 BKN020 13/10 Q1029 NOSIG RMK A3039
2026-03-19 04:00:00,METAR SEQM 190400Z 08004KT 9999 FEW004 BKN020 12/11 Q1029 NOSIG RMK A3040
2026-03-19 03:00:00,METAR SEQM 190300Z VRB02KT 9999 FEW004 BKN020 12/11 Q1029 NOSIG RMK A3039
2026-03-19 02:00:00,METAR SEQM 190200Z 05003KT 9999 FEW004 SCT020 13/12 Q1028 NOSIG RMK A3037
2026-03-19 01:00:00,METAR SEQM 190100Z 02004KT 9999 FEW010 14/12 Q1027 NOSIG RMK A3035
2026-03-19 00:00:00,METAR SEQM 190000Z 01009KT 9999 FEW030 SCT300 15/12 Q1025 NOSIG RMK A3030
2026-03-18 23:00:00,METAR SEQM 182300Z 35012KT 9999 FEW030 SCT300 18/12 Q1025 NOSIG RMK A3027
2026-03-18 22:00:00,METAR SEQM 182200Z 35011KT 9999 SCT030 SCT300 20/11 Q1024 NOSIG RMK A3026
2026-03-18 21:00:00,METAR SEQM 182100Z 01010KT 9999 SCT030 OVC300 20/11 Q1025 NOSIG RMK A3027
2026-03-18 20:00:00,METAR SEQM 182000Z 34013KT 9999 SCT030 OVC300 21/11 Q1025 NOSIG RMK A3028
2026-03-18 19:00:00,METAR SEQM 181900Z 36011KT 9999 SCT030 OVC300 21/10 Q1026 NOSIG RMK A3030
2026-03-18 18:00:00,METAR SEQM 181800Z 36007KT 310V050 9999 SCT030 BKN300 21/10 Q1027 NOSIG RMK A3033
2026-03-18 17:00:00,METAR SEQM 181700Z 35007KT 300V020 9999 SCT030 OVC300 20/12 Q1028 NOSIG RMK A3036
2026-03-18 16:00:00,METAR SEQM 181600Z 30006KT 240V350 9999 SCT030 BKN300 19/12 Q1029 NOSIG RMK A3038
2026-03-18 15:00:00,METAR SEQM 181500Z 29003KT 9999 SCT026 BKN300 17/11 Q1029 NOSIG RMK A3041
2026-03-18 14:00:00,METAR SEQM 181400Z 19003KT 9999 SCT020 BKN300 14/11 Q1029 NOSIG RMK A3041
2026-03-18 13:00:00,METAR SEQM 181300Z 25003KT 210V300 9999 SCT005 BKN300 12/11 Q1029 NOSIG RMK A3039
2026-03-18 12:00:00,METAR SEQM 181200Z 14003KT 8000 BCFG FEW005 SCT020 BKN090 11/10 Q1027 BECMG AT1250 9999 RMK A3035
2026-03-18 11:00:00,METAR SEQM 181100Z 03003KT 9999 FEW005 SCT026 BKN090 11/10 Q1027 NOSIG RMK A3032
2026-03-18 10:00:00,METAR SEQM 181000Z 10004KT 9999 BCFG FEW026 SCT090 11/10 Q1026 NOSIG RMK A3031
2026-03-18 09:00:00,METAR SEQM 180900Z 30004KT 9999 FEW026 BKN090 12/11 Q1026 NOSIG RMK A3030
2026-03-18 08:00:00,METAR SEQM 180800Z 10003KT 9999 SCT026 BKN090 12/11 Q1026 NOSIG RMK A3032
2026-03-18 07:00:00,METAR SEQM 180700Z 26002KT 9999 SCT026 BKN090 13/11 Q1027 NOSIG RMK A3033
2026-03-18 06:00:00,METAR SEQM 180600Z 20007KT 9999 FEW005 SCT026 BKN080 12/11 Q1028 NOSIG RMK A3036
2026-03-18 05:00:00,METAR SEQM 180500Z 20007KT 9999 FEW005 SCT026 OVC080 13/11 Q1029 NOSIG RMK A3039
2026-03-18 04:00:00,METAR SEQM 180400Z 15004KT 9999 -RA SCT005 BKN026 OVC080 13/13 Q1029 NOSIG RMK A3040
2026-03-18 03:00:00,METAR SEQM 180300Z 03004KT 9999 RA SCT005 BKN030 BKN080 13/12 Q1028 TEMPO 8000 RMK A3038
2026-03-18 02:00:00,METAR SEQM 180200Z 33003KT 9999 -RA SCT005 BKN030 BKN100 14/13 Q1027 RERA NOSIG RMK A3035
2026-03-18 01:00:00,METAR SEQM 180100Z 02005KT 9999 RA SCT010 BKN030 BKN100 14/13 Q1026 TEMPO -RA RMK A3032
2026-03-18 00:00:00,METAR SEQM 180000Z 01008KT 9999 VCSH FEW010 BKN030 BKN300 15/12 Q1025 NOSIG RMK A3026
2026-03-17 23:00:00,METAR SEQM 172300Z 03008KT 9999 -RA BKN030 BKN080 16/12 Q1023 NOSIG RMK A3023
2026-03-17 22:00:00,METAR SEQM 172200Z 36010KT 9999 VCSH BKN030 BKN080 18/13 Q1023 NOSIG RMK A3022
2026-03-17 21:00:00,METAR SEQM 172100Z 17010KT 9999 FEW030TCU SCT040 BKN300 20/09 Q1022 NOSIG RMK A3020
2026-03-17 20:00:00,METAR SEQM 172000Z COR WIND RWY 36 230/12KT VIS 10KM CLD FEW TCU 3000FT SCT 4000FT BKN 30000FT T20 DP11 QNH 1023HPA TREND NOSIG QNH 3022INCH
2026-03-17 19:00:00,METAR SEQM 171900Z 35010KT 9999 VCSH SCT030 BKN300 21/12 Q1024 NOSIG RMK A3026
2026-03-17 18:00:00,METAR SEQM 171800Z 04005KT 9999 SCT030 BKN300 22/09 Q1025 NOSIG RMK A3028
2026-03-17 17:00:00,METAR SEQM 171700Z 01005KT 9999 FEW030 BKN300 21/10 Q1026 NOSIG RMK A3032
2026-03-17 16:00:00,METAR SEQM 171600Z 03005KT 9999 FEW030 BKN100 20/11 Q1027 NOSIG RMK A3035
2026-03-17 15:00:00,METAR SEQM 171500Z 03003KT 9999 FEW020 BKN100 17/10 Q1028 NOSIG RMK A3037
2026-03-17 14:00:00,METAR SEQM 171400Z VRB02KT 9999 FEW020 BKN100 15/09 Q1028 NOSIG RMK A3038
2026-03-17 13:00:00,METAR SEQM 171300Z 19004KT 9999 FEW020 OVC100 13/10 Q1028 NOSIG RMK A3036
2026-03-17 12:00:00,METAR SEQM 171200Z VRB01KT 9999 SCT040 BKN300 10/08 Q1027 NOSIG RMK A3034
2026-03-17 11:00:00,METAR SEQM 171100Z 14003KT 110V230 9999 FEW010 BKN030 11/09 Q1026 NOSIG RMK A3030
2026-03-17 10:00:00,METAR SEQM 171000Z VRB02KT 9999 FEW005 BKN020 11/10 Q1025 NOSIG RMK A3029
2026-03-17 09:00:00,METAR SEQM 170900Z 15002KT 9999 FEW005 BKN020 11/10 Q1025 NOSIG RMK A3028
2026-03-17 08:00:00,METAR SEQM 170800Z 16002KT 9999 FEW005 11/10 Q1025 NOSIG RMK A3028
2026-03-17 07:00:00,METAR SEQM 170700Z 11005KT 9999 FEW005 11/10 Q1025 NOSIG RMK A3029
2026-03-17 06:00:00,METAR SEQM 170600Z 01002KT 9999 FEW005 13/12 Q1026 NOSIG RMK A3031
2026-03-17 05:00:00,METAR SEQM 170500Z VRB02KT 9999 FEW005 BKN020 14/13 Q1027 NOSIG RMK A3034
2026-03-17 04:00:00,METAR SEQM 170400Z 05003KT 010V070 9999 FEW010 14/13 Q1027 NOSIG RMK A3034
2026-03-17 03:00:00,METAR SEQM 170300Z 01004KT 9999 BKN030 15/13 Q1026 NOSIG RMK A3032
2026-03-17 02:00:00,METAR SEQM 170200Z VRB02KT 9999 BKN033 15/13 Q1025 NOSIG RMK A3029
2026-03-17 01:00:00,METAR SEQM 170100Z 01005KT 9999 SCT033 16/12 Q1025 NOSIG RMK A3026
2026-03-17 00:00:00,METAR SEQM 170000Z 03006KT 9999 SCT033 17/12 Q1023 NOSIG RMK A3022
2026-03-16 23:00:00,METAR SEQM 162300Z 03008KT 9999 SCT040 SCT300 19/11 Q1022 NOSIG RMK A3018
2026-03-16 22:00:00,METAR SEQM 162200Z 02013KT 9999 FEW033TCU SCT040 BKN300 21/11 Q1021 NOSIG RMK A3015
2026-03-16 21:00:00,METAR SEQM 162100Z 36018KT 9999 FEW033TCU SCT040 BKN300 23/10 Q1020 NOSIG RMK A3012
2026-03-16 20:00:00,METAR SEQM 162000Z 35015KT 9999 SCT040 25/05 Q1020 NOSIG RMK A3013
2026-03-16 19:00:00,METAR SEQM 161900Z 36008KT 9999 FEW040 27/M01 Q1021 NOSIG RMK A3016
2026-03-16 18:00:00,METAR SEQM 161800Z 35005KT 9999 FEW040 25/M02 Q1022 NOSIG RMK A3020
2026-03-16 17:00:00,METAR SEQM 161700Z 32004KT 9999 FEW040 23/01 Q1024 NOSIG RMK A3025
2026-03-16 16:00:00,METAR SEQM 161600Z 34004KT 9999 FEW040 21/03 Q1025 NOSIG RMK A3029
2026-03-16 15:00:00,METAR SEQM 161500Z 20005KT 9999 FEW040 19/04 Q1027 NOSIG RMK A3033
2026-03-16 14:00:00,METAR SEQM 161400Z 25002KT 9999 FEW033 16/09 Q1027 NOSIG RMK A3034
2026-03-16 13:00:00,METAR SEQM 161300Z 20006KT 9999 FEW033 SCT300 13/07 Q1027 NOSIG RMK A3034
2026-03-16 12:00:00,METAR SEQM 161200Z 12002KT 9999 FEW005 BKN300 08/06 Q1026 NOSIG RMK A3031
2026-03-16 11:00:00,METAR SEQM 161100Z 12004KT 9999 FEW005 SCT300 08/06 Q1026 NOSIG RMK A3030
2026-03-16 10:00:00,METAR SEQM 161000Z 12003KT 090V190 9999 SCT006 08/07 Q1025 NOSIG RMK A3028
2026-03-16 09:00:00,METAR SEQM 160900Z 11005KT 6000 BCFG BKN004 09/09 Q1025 BECMG AT0940 8000 RMK A3027
2026-03-16 08:44:00,SPECI SEQM 160844Z 11005KT 1300 0600N R36/0600VP2000 PRFG OVC004 10/09 Q1025 BECMG AT0930 2000 RMK A3027
2026-03-16 08:00:00,METAR SEQM 160800Z VRB02KT 9999 BKN004 10/09 Q1025 NOSIG RMK A3028
2026-03-16 07:00:00,METAR SEQM 160700Z VRB02KT 9999 FEW003 11/09 Q1025 NOSIG RMK A3029
2026-03-16 06:00:00,METAR SEQM 160600Z VRB01KT 9999 OVC004 11/10 Q1026 NOSIG RMK A3032
2026-03-16 05:00:00,METAR SEQM 160500Z 15003KT 9999 SCT003 13/12 Q1027 NOSIG RMK A3034
2026-03-16 04:33:00,SPECI SEQM 160433Z 14003KT 9999 0700S R36/0800 PRFG OVC004 13/12 Q1027 TEMPO 2000 RMK A3035
2026-03-16 04:00:00,METAR SEQM 160400Z 10004KT 9999 BKN006 12/12 Q1027 NOSIG RMK A3035
2026-03-16 03:00:00,METAR SEQM 160300Z VRB02KT 9999 FEW020 12/10 Q1027 NOSIG RMK A3034
2026-03-16 02:00:00,METAR SEQM 160200Z 02004KT 9999 FEW020 14/11 Q1026 NOSIG RMK A3031
2026-03-16 01:00:00,METAR SEQM 160100Z 05006KT 9999 FEW040 16/12 Q1025 NOSIG RMK A3028
2026-03-16 00:00:00,METAR SEQM 160000Z 04005KT 010V080 9999 FEW030 SCT300 16/11 Q1024 NOSIG RMK A3025
2026-03-15 23:00:00,METAR SEQM 152300Z 01010KT 350V050 9999 FEW030 SCT300 19/11 Q1023 NOSIG RMK A3021
2026-03-15 22:00:00,METAR SEQM 152200Z 01013KT 9999 SCT030 21/11 Q1021 NOSIG RMK A3017
2026-03-15 21:00:00,METAR SEQM 152100Z 36016KT 9999 SCT030 22/10 Q1021 NOSIG RMK A3017
2026-03-15 20:00:00,METAR SEQM 152000Z 36015KT 9999 SCT030 24/10 Q1021 NOSIG RMK A3017
2026-03-15 19:00:00,METAR SEQM 151900Z 35013KT 320V020 9999 FEW030 25/08 Q1022 NOSIG RMK A3018
2026-03-15 18:00:00,METAR SEQM 151800Z 34008KT 270V040 9999 FEW030 25/05 Q1023 NOSIG RMK A3023
2026-03-15 17:00:00,METAR SEQM 151700Z 35006KT 280V070 9999 FEW030 24/05 Q1025 NOSIG RMK A3027
2026-03-15 16:00:00,METAR SEQM 151600Z VRB02KT 9999 FEW030 22/08 Q1026 NOSIG RMK A3030
2026-03-15 15:00:00,METAR SEQM 151500Z VRB04KT 9999 FEW030 19/09 Q1026 NOSIG RMK A3032
2026-03-15 14:00:00,METAR SEQM 151400Z VRB03KT CAVOK 17/11 Q1026 NOSIG RMK A3032
2026-03-15 13:00:00,METAR SEQM 151300Z VRB02KT CAVOK 14/10 Q1026 NOSIG RMK A3032
2026-03-15 12:00:00,METAR SEQM 151200Z 13004KT 9999 FEW030 SCT300 09/09 Q1025 NOSIG RMK A3030
2026-03-15 11:38:00,SPECI SEQM 151138Z 15004KT 9999 FEW005 SCT020 09/08 Q1025 NOSIG RMK A3029
2026-03-15 11:06:00,SPECI SEQM 151106Z 14003KT 4000 R36/1300VP2000N BR SCT005 SCT020 09/09 Q1025 BECMG TL1200 8000 RMK A3028
2026-03-15 11:00:00,METAR SEQM 151100Z 15002KT 9999 SCT005 SCT020 09/08 Q1025 NOSIG RMK A3028
2026-03-15 10:00:00,METAR SEQM 151000Z 12003KT 9999 BKN005 10/09 Q1025 NOSIG RMK A3026
2026-03-15 09:00:00,METAR SEQM 150900Z 09003KT 9999 FEW010 SCT020 09/08 Q1024 NOSIG RMK A3026
2026-03-15 08:00:00,METAR SEQM 150800Z 14003KT 9999 FEW010 SCT020 10/09 Q1025 NOSIG RMK A3026
