Time_recorded,METAR
2026-05-02 15:00:00,METAR DFFD 021500Z VRB07KT CAVOK 42/14 Q1007 NOSIG
2026-05-02 14:00:00,METAR DFFD 021400Z VRB05KT CAVOK 41/16 Q1007 NOSIG
2026-05-02 13:00:00,METAR DFFD 021300Z VRB03KT CAVOK 41/19 Q1008 NOSIG
2026-05-02 12:00:00,METAR DFFD 021200Z 25006KT 180V320 CAVOK 39/20 Q1009 NOSIG
2026-05-02 11:00:00,METAR DFFD 021100Z 24006KT 190V300 CAVOK 38/22 Q1010 NOSIG
2026-05-02 10:00:00,METAR DFFD 021000Z 21009KT CAVOK 36/22 Q1010 NOSIG
2026-05-02 09:00:00,METAR DFFD 020900Z 20011KT CAVOK 34/22 Q1010 NOSIG
2026-05-02 08:00:00,METAR DFFD 020800Z 20011KT CAVOK 32/22 Q1010 NOSIG
2026-05-02 07:00:00,METAR DFFD 020700Z 19008KT CAVOK 31/21 Q1009 NOSIG
2026-05-02 06:00:00,METAR DFFD 020600Z 16007KT CAVOK 31/20 Q1009 NOSIG
2026-05-02 05:00:00,METAR DFFD 020500Z 32002KT CAVOK 29/24 Q1008 NOSIG
2026-05-02 04:00:00,METAR DFFD 020400Z 00000KT 8000 NSC 29/23 Q1007 NOSIG
2026-05-02 02:00:00,METAR DFFD 020200Z 31002KT 8000 NSC 30/22 Q1007 NOSIG
2026-05-02 01:00:00,METAR DFFD 020100Z 00000KT CAVOK 31/24 Q1008 NOSIG
2026-05-02 00:00:00,METAR DFFD 020000Z 00000KT CAVOK 32/21 Q1009 NOSIG
2026-05-01 23:00:00,METAR DFFD 012300Z 22002KT CAVOK 33/21 Q1009 NOSIG
2026-05-01 22:00:00,METAR DFFD 012200Z 20003KT CAVOK 33/20 Q1009 NOSIG
2026-05-01 20:00:00,METAR DFFD 012000Z 17004KT CAVOK 37/18 Q1008 NOSIG
2026-05-01 19:00:00,METAR DFFD 011900Z 15003KT CAVOK 38/18 Q1008 NOSIG
2026-05-01 18:00:00,METAR DFFD 011800Z 11005KT 9999 FEW026 40/17 Q1007 NOSIG
2026-05-01 16:00:00,METAR DFFD 011600Z 11007KT 070V140 9999 FEW026 41/16 Q1007 NOSIG
2026-05-01 15:00:00,METAR DFFD 011500Z 06011KT 020V090 9999 FEW026 41/15 Q1007 NOSIG
2026-05-01 14:00:00,METAR DFFD 011400Z 18006KT 110V220 CAVOK 41/17 Q1008 NOSIG
2026-05-01 13:00:00,METAR DFFD 011300Z VRB03KT CAVOK 40/18 Q1009 NOSIG
2026-05-01 12:00:00,METAR DFFD 011200Z 20007KT 170V280 CAVOK 39/19 Q1010 NOSIG
2026-05-01 11:00:00,METAR DFFD 011100Z 23007KT 180V270 CAVOK 38/20 Q1011 NOSIG
2026-05-01 10:00:00,METAR DFFD 011000Z 21010KT CAVOK 36/21 Q1011 NOSIG
2026-05-01 09:00:00,METAR DFFD 010900Z 22009KT CAVOK 34/21 Q1012 NOSIG
2026-05-01 08:00:00,METAR DFFD 010800Z 23007KT 200V270 CAVOK 32/22 Q1011 NOSIG
2026-05-01 07:00:00,METAR DFFD 010700Z 21005KT 180V260 CAVOK 30/22 Q1011 NOSIG
2026-05-01 06:00:00,METAR DFFD 010600Z 22004KT CAVOK 29/21 Q1010 NOSIG
2026-05-01 05:00:00,METAR DFFD 010500Z 22005KT CAVOK 29/22 Q1009 NOSIG
2026-05-01 03:00:00,METAR DFFD 010300Z 23004KT CAVOK 30/21 Q1009 NOSIG
2026-05-01 02:00:00,METAR DFFD 010200Z 26003KT CAVOK 31/20 Q1009 NOSIG
2026-05-01 01:00:00,METAR DFFD 010100Z 25003KT CAVOK 31/21 Q1010 NOSIG
2026-05-01 00:00:00,METAR DFFD 010000Z 24003KT CAVOK 32/21 Q1011 NOSIG
2026-04-30 22:00:00,METAR DFFD 302200Z 24003KT CAVOK 33/21 Q1010 NOSIG
2026-04-30 21:00:00,METAR DFFD 302100Z 25002KT CAVOK 33/21 Q1010 NOSIG
2026-04-30 20:00:00,METAR DFFD 302000Z 26003KT CAVOK 34/21 Q1009 NOSIG
2026-04-30 19:00:00,METAR DFFD 301900Z 28002KT 8000 NSC 35/21 Q1009 NOSIG
2026-04-30 18:00:00,METAR DFFD 301800Z VRB03KT 8000 NSC 37/19 Q1008 NOSIG
2026-04-30 16:00:00,METAR DFFD 301600Z 02007KT 320V070 9999 FEW026 39/19 Q1009 NOSIG
2026-04-30 14:00:00,METAR DFFD 301400Z VRB05KT CAVOK 38/20 Q1011 NOSIG
2026-04-30 13:00:00,METAR DFFD 301300Z 02009KT 320V060 CAVOK 37/20 Q1012 NOSIG
2026-04-30 12:00:00,METAR DFFD 301200Z 01006KT 300V100 CAVOK 36/21 Q1013 NOSIG
2026-04-30 11:00:00,METAR DFFD 301100Z VRB04KT CAVOK 35/21 Q1014 NOSIG
2026-04-30 10:00:00,METAR DFFD 301000Z VRB03KT CAVOK 34/22 Q1014 NOSIG
2026-04-30 09:00:00,METAR DFFD 300900Z 30004KT 240V350 CAVOK 32/22 Q1015 NOSIG
2026-04-30 08:00:00,METAR DFFD 300800Z 26004KT 210V310 CAVOK 30/22 Q1014 NOSIG
2026-04-30 07:00:00,METAR DFFD 300700Z VRB03KT 9999 FEW026 27/23 Q1013 NOSIG
2026-04-30 06:00:00,METAR DFFD 300600Z VRB03KT 9999 FEW026 27/23 Q1013 NOSIG
2026-04-30 05:00:00,METAR DFFD 300500Z 32004KT CAVOK 27/23 Q1013 NOSIG
2026-04-30 04:00:00,METAR DFFD 300400Z 34004KT 300V360 CAVOK 28/23 Q1012 NOSIG
2026-04-30 01:00:00,METAR DFFD 300100Z 23004KT CAVOK 29/23 Q1012 NOSIG
2026-04-30 00:00:00,METAR DFFD 300000Z 25003KT CAVOK 29/23 Q1012 NOSIG
2026-04-29 23:00:00,METAR DFFD 292300Z 20006KT CAVOK 30/23 Q1013 NOSIG
2026-04-29 22:00:00,METAR DFFD 292200Z 20006KT CAVOK 30/24 Q1012 NOSIG
2026-04-29 21:00:00,METAR DFFD 292100Z 19004KT CAVOK 30/24 Q1012 NOSIG
2026-04-29 20:00:00,METAR DFFD 292000Z VRB03KT CAVOK 31/23 Q1011 NOSIG
2026-04-29 19:00:00,METAR DFFD 291900Z 32002KT CAVOK 32/21 Q1010 NOSIG
2026-04-29 18:00:00,METAR DFFD 291800Z 34004KT CAVOK 33/20 Q1009 NOSIG
2026-04-29 17:00:00,METAR DFFD 291700Z 01004KT 280V060 CAVOK 34/20 Q1009 NOSIG
2026-04-29 16:00:00,METAR DFFD 291600Z 07005KT 350V140 CAVOK 35/21 Q1009 NOSIG
2026-04-29 15:00:00,METAR DFFD 291500Z VRB03KT CAVOK 34/20 Q1009 NOSIG
2026-04-29 14:00:00,METAR DFFD 291400Z VRB01KT 9999 FEW020 34/22 Q1010 NOSIG
2026-04-29 13:00:00,METAR DFFD 291300Z VRB04KT 9999 FEW020 32/22 Q1011 NOSIG
2026-04-29 12:00:00,METAR DFFD 291200Z 28005KT 230V360 CAVOK 31/23 Q1012 NOSIG
2026-04-29 11:00:00,METAR DFFD 291100Z 25006KT 210V290 CAVOK 29/23 Q1013 NOSIG
2026-04-29 10:00:00,METAR DFFD 291000Z 23004KT 200V270 9999 FEW020 28/23 Q1013 NOSIG
2026-04-29 09:00:00,METAR DFFD 290900Z 28005KT 240V320 9999 FEW020 26/22 Q1013 NOSIG
2026-04-29 08:00:00,METAR DFFD 290800Z 32007KT 9999 FEW020 25/23 Q1011 NOSIG
2026-04-29 07:00:00,METAR DFFD 290700Z COR 31005KT 9999 -RA FEW020 FEW033CB 24/23 Q1012 RETS NOSIG
2026-04-29 06:00:00,METAR DFFD 290600Z COR 32004KT 9999 -TSRA FEW020 FEW033CB 23/23 Q1013 NOSIG
2026-04-29 05:00:00,METAR DFFD 290500Z 09011KT 9000 -TSRA FEW020 FEW033CB 24/23 Q1014 TEMPO 4000 TSRA
2026-04-28 23:00:00,METAR DFFD 282300Z 17004KT CAVOK 33/20 Q1011 NOSIG
2026-04-28 21:00:00,METAR DFFD 282100Z 11009KT 8000 NSC 34/20 Q1009 TEMPO 3500 BLDU TS FEW026 FEW040CB
2026-04-28 20:00:00,METAR DFFD 282000Z 11004KT 8000 NSC 36/20 Q1008 NOSIG
2026-04-28 19:00:00,METAR DFFD 281900Z VRB03KT 8000 FEW026 36/18 Q1008 NOSIG
2026-04-28 18:00:00,METAR DFFD 281800Z 15006KT 9999 FEW026 37/19 Q1007 NOSIG
2026-04-28 16:00:00,METAR DFFD 281600Z 15006KT 090V190 9999 SCT026 39/19 Q1006 NOSIG
2026-04-28 13:00:00,METAR DFFD 281300Z 13008KT 080V230 9999 FEW026 38/19 Q1009 NOSIG
2026-04-28 12:00:00,METAR DFFD 281200Z 13007KT 080V190 9999 FEW026 37/19 Q1011 NOSIG
2026-04-28 11:00:00,METAR DFFD 281100Z 13009KT 100V160 9999 FEW026 37/19 Q1012 NOSIG
2026-04-28 10:00:00,METAR DFFD 281000Z VRB03KT CAVOK 37/20 Q1012 NOSIG
2026-04-28 09:00:00,METAR DFFD 280900Z 30003KT 230V360 8000 NSC 34/21 Q1012 NOSIG
2026-04-28 08:00:00,METAR DFFD 280800Z VRB02KT 8000 NSC 31/22 Q1012 NOSIG
2026-04-28 07:00:00,METAR DFFD 280700Z 00000KT CAVOK 28/23 Q1011 NOSIG
2026-04-28 06:00:00,METAR DFFD 280600Z 26002KT CAVOK 28/22 Q1011 NOSIG
2026-04-28 03:00:00,METAR DFFD 280300Z VRB02KT CAVOK 28/22 Q1009 NOSIG
2026-04-28 02:00:00,METAR DFFD 280200Z VRB02KT CAVOK 28/22 Q1010 NOSIG
2026-04-27 23:00:00,METAR DFFD 272300Z 24002KT CAVOK 29/21 Q1012 NOSIG
2026-04-27 22:00:00,METAR DFFD 272200Z 17003KT CAVOK 30/21 Q1012 NOSIG
2026-04-27 21:00:00,METAR DFFD 272100Z 23001KT CAVOK 29/22 Q1011 NOSIG
2026-04-27 20:00:00,METAR DFFD 272000Z 14003KT 080V180 CAVOK 32/20 Q1011 NOSIG
2026-04-27 18:00:00,METAR DFFD 271800Z 34004KT 9999 FEW026 FEW040CB 34/17 Q1010 TEMPO TS
2026-04-27 16:00:00,METAR DFFD 271600Z VRB02KT CAVOK 36/18 Q1010 NOSIG
2026-04-27 14:00:00,METAR DFFD 271400Z VRB04KT CAVOK 34/19 Q1011 NOSIG
2026-04-27 12:00:00,METAR DFFD 271200Z 24006KT 210V270 CAVOK 30/21 Q1014 NOSIG
2026-04-27 10:00:00,METAR DFFD 271000Z 16005KT 110V200 9999 FEW026 29/20 Q1015 NOSIG
2026-04-27 09:00:00,METAR DFFD 270900Z VRB05KT 9999 FEW026 27/20 Q1015 NOSIG
2026-04-27 08:00:00,METAR DFFD 270800Z 26007KT 230V290 9999 FEW026 26/20 Q1014 NOSIG
2026-04-27 06:00:00,METAR DFFD 270600Z 19009KT 9999 FEW026 25/19 Q1013 NOSIG
2026-04-27 03:00:00,METAR DFFD 270300Z 13015KT 9999 FEW026 24/22 Q1012 NOSIG
2026-04-27 02:00:00,METAR DFFD 270200Z 12009KT 9999 TS FEW026 FEW040CB 24/22 Q1012 BECMG NSW
2026-04-27 01:00:00,METAR DFFD 270100Z 14016KT 8000 -TSRA FEW026 FEW040CB 24/22 Q1013 TEMPO 4000 TSRA
2026-04-26 23:00:00,METAR DFFD 262300Z 08012KT 9999 TS FEW026 FEW040CB 25/23 Q1015 BECMG NSW
2026-04-26 21:00:00,METAR DFFD 262100Z 06009KT 9999 -TSRA FEW026 FEW040CB 25/23 Q1013 TEMPO 4000 TSRA
2026-04-26 20:00:00,METAR DFFD 262000Z 11010KT 080V140 9999 TS FEW026 FEW040CB 33/19 Q1011 TEMPO 3500 BLDU
2026-04-26 18:00:00,METAR DFFD 261800Z 05005KT 9999 TS FEW026 FEW040CB 36/16 Q1008 NOSIG
2026-04-26 17:00:00,METAR DFFD 261700Z 10009G20KT 060V140 1400 R04/P2000N BLSA TS FEW026 FEW040CB 34/18 Q1008 TEMPO 09025G40KT SQ TSRA
2026-04-26 16:00:00,METAR DFFD 261600Z 21006KT 120V260 9999 FEW026 FEW040CB 39/20 Q1007 TEMPO TS
2026-04-26 15:00:00,METAR DFFD 261500Z VRB05KT 9999 FEW026 FEW040CB 39/20 Q1008 NOSIG
2026-04-26 13:00:00,METAR DFFD 261300Z 21011KT 170V240 9999 FEW026 36/21 Q1009 NOSIG
2026-04-26 12:00:00,METAR DFFD 261200Z 22013KT 190V260 9999 FEW026 35/21 Q1011 NOSIG
2026-04-26 11:00:00,METAR DFFD 261100Z 25011G21KT 210V290 9999 FEW026 34/22 Q1011 NOSIG
2026-04-26 09:00:00,METAR DFFD 260900Z 25011KT 210V290 CAVOK 35/22 Q1011 NOSIG
2026-04-26 08:00:00,METAR DFFD 260800Z 24013KT CAVOK 33/22 Q1011 NOSIG
2026-04-26 07:00:00,METAR DFFD 260700Z 22007KT CAVOK 31/22 Q1010 NOSIG
2026-04-26 06:00:00,METAR DFFD 260600Z 21007KT CAVOK 31/22 Q1009 NOSIG
2026-04-26 05:00:00,METAR DFFD 260500Z 21007KT CAVOK 31/22 Q1008 NOSIG
2026-04-26 04:00:00,METAR DFFD 260400Z 20010KT CAVOK 31/22 Q1007 NOSIG
2026-04-26 03:00:00,METAR DFFD 260300Z 20012KT CAVOK 32/21 Q1007 NOSIG
2026-04-26 01:00:00,METAR DFFD 260100Z 18010KT CAVOK 33/19 Q1007 NOSIG
2026-04-26 00:00:00,METAR DFFD 260000Z 18010KT CAVOK 33/18 Q1008 NOSIG
2026-04-25 23:00:00,METAR DFFD 252300Z 20007KT CAVOK 33/18 Q1008 NOSIG
2026-04-25 22:00:00,METAR DFFD 252200Z 19007KT CAVOK 34/18 Q1008 NOSIG
2026-04-25 21:00:00,METAR DFFD 252100Z 17009KT CAVOK 34/18 Q1008 NOSIG
2026-04-25 20:00:00,METAR DFFD 252000Z 17009KT CAVOK 36/19 Q1007 RETS NOSIG
2026-04-25 19:00:00,METAR DFFD 251900Z 19009KT 9999 TS FEW026 FEW040CB 36/19 Q1006 NOSIG
2026-04-25 18:00:00,METAR DFFD 251800Z 17007KT 9999 FEW026 FEW040CB 38/18 Q1005 TEMPO TS
2026-04-25 16:00:00,METAR DFFD 251600Z VRB04KT 9999 FEW026 FEW040CB 40/19 Q1004 TEMPO TS
2026-04-25 15:00:00,METAR DFFD 251500Z VRB05KT 9999 FEW026 FEW040CB 40/19 Q1005 TEMPO TS
2026-04-25 14:00:00,METAR DFFD 251400Z 24007KT 190V300 9999 SCT026 39/20 Q1006 NOSIG
2026-04-25 12:00:00,METAR DFFD 251200Z 21008KT 160V250 9999 FEW020 38/23 Q1008 NOSIG
2026-04-25 10:00:00,METAR DFFD 251000Z 22010KT 190V260 CAVOK 34/23 Q1009 NOSIG
2026-04-25 09:00:00,METAR DFFD 250900Z 23011KT CAVOK 33/22 Q1009 NOSIG
2026-04-25 08:00:00,METAR DFFD 250800Z 21012KT 180V240 CAVOK 31/21 Q1009 NOSIG
2026-04-25 07:00:00,METAR DFFD 250700Z 21007KT CAVOK 30/20 Q1009 NOSIG
2026-04-25 06:00:00,METAR DFFD 250600Z 20009KT CAVOK 29/19 Q1008 NOSIG
2026-04-25 05:00:00,METAR DFFD 250500Z 20010KT CAVOK 30/20 Q1007 NOSIG
2026-04-25 02:00:00,METAR DFFD 250200Z 19011KT CAVOK 32/20 Q1006 NOSIG
2026-04-25 01:00:00,METAR DFFD 250100Z 19011KT CAVOK 33/20 Q1007 NOSIG
2026-04-25 00:00:00,METAR DFFD 250000Z 20006KT CAVOK 32/17 Q1007 NOSIG
2026-04-24 23:00:00,METAR DFFD 242300Z 22005KT CAVOK 32/17 Q1007 NOSIG
2026-04-24 22:00:00,METAR DFFD 242200Z 21004KT CAVOK 33/18 Q1007 NOSIG
2026-04-24 21:00:00,METAR DFFD 242100Z 19003KT CAVOK 33/18 Q1007 NOSIG
2026-04-24 19:00:00,METAR DFFD 241900Z 00000KT CAVOK 35/17 Q1006 NOSIG
2026-04-24 18:00:00,METAR DFFD 241800Z VRB02KT 8000 NSC 38/16 Q1005 NOSIG
2026-04-24 17:00:00,METAR DFFD 241700Z 16004KT 130V200 CAVOK 39/16 Q1005 NOSIG
2026-04-24 16:00:00,METAR DFFD 241600Z VRB03KT CAVOK 40/17 Q1005 NOSIG
2026-04-24 15:00:00,METAR DFFD 241500Z 19006KT 080V230 CAVOK 39/16 Q1005 NOSIG
2026-04-24 14:00:00,METAR DFFD 241400Z 26006KT 190V300 CAVOK 38/18 Q1006 NOSIG
2026-04-24 13:00:00,METAR DFFD 241300Z 27005KT 220V310 CAVOK 37/20 Q1007 NOSIG
2026-04-24 11:00:00,METAR DFFD 241100Z 22012KT 170V250 CAVOK 36/20 Q1009 NOSIG
2026-04-24 10:00:00,METAR DFFD 241000Z 22011KT 190V250 CAVOK 35/19 Q1010 NOSIG
2026-04-24 09:00:00,METAR DFFD 240900Z 21012KT CAVOK 33/20 Q1010 NOSIG
2026-04-24 08:00:00,METAR DFFD 240800Z 22010KT 190V250 CAVOK 32/20 Q1009 NOSIG
2026-04-24 07:00:00,METAR DFFD 240700Z 20008KT 150V210 CAVOK 30/19 Q1008 NOSIG
2026-04-24 06:00:00,METAR DFFD 240600Z 22008KT CAVOK 30/18 Q1008 NOSIG
2026-04-24 05:00:00,METAR DFFD 240500Z 23006KT 190V250 CAVOK 30/17 Q1007 NOSIG
2026-04-24 04:00:00,METAR DFFD 240400Z 21007KT CAVOK 31/16 Q1006 NOSIG
2026-04-24 03:00:00,METAR DFFD 240300Z 22004KT CAVOK 31/14 Q1006 NOSIG
2026-04-24 02:00:00,METAR DFFD 240200Z 21005KT CAVOK 32/12 Q1006 NOSIG
2026-04-24 01:00:00,METAR DFFD 240100Z VRB02KT CAVOK 30/10 Q1007 NOSIG
2026-04-24 00:00:00,METAR DFFD 240000Z 34003KT CAVOK 31/10 Q1006 NOSIG
2026-04-23 23:00:00,METAR DFFD 232300Z VRB02KT CAVOK 31/10 Q1007 NOSIG
2026-04-23 22:00:00,METAR DFFD 232200Z 00000KT CAVOK 32/08 Q1006 NOSIG
2026-04-23 19:00:00,METAR DFFD 231900Z 08004KT 8000 NSC 39/04 Q1005 NOSIG
2026-04-23 18:00:00,METAR DFFD 231800Z 06009KT 8000 NSC 42/04 Q1004 NOSIG
2026-04-23 17:00:00,METAR DFFD 231700Z 05008KT 010V100 CAVOK 43/05 Q1003 NOSIG
2026-04-23 16:00:00,METAR DFFD 231600Z 02012KT CAVOK 43/05 Q1004 NOSIG
2026-04-23 14:00:00,METAR DFFD 231400Z 11012KT 060V140 CAVOK 43/07 Q1005 NOSIG
2026-04-23 13:00:00,METAR DFFD 231300Z 08009KT 040V110 CAVOK 42/07 Q1006 NOSIG
2026-04-23 12:00:00,METAR DFFD 231200Z VRB07KT CAVOK 42/06 Q1008 NOSIG
2026-04-23 10:00:00,METAR DFFD 231000Z VRB02KT 6000 NSC 39/10 Q1009 NOSIG
2026-04-23 09:00:00,METAR DFFD 230900Z COR 27006KT 250V320 4500 HZ NSC 36/11 Q1010 BECMG 6000 NSW
2026-04-23 07:00:00,METAR DFFD 230700Z VRB02KT 4000 HZ NSC 31/11 Q1009 NOSIG
2026-04-23 06:00:00,METAR DFFD 230600Z 22004KT 190V300 8000 NSC 28/09 Q1008 TEMPO 4000 HZ
2026-04-23 05:00:00,METAR DFFD 230500Z 22002KT CAVOK 28/09 Q1008 NOSIG
2026-04-23 04:00:00,METAR DFFD 230400Z 23003KT CAVOK 29/08 Q1007 NOSIG
2026-04-23 03:00:00,METAR DFFD 230300Z 20005KT 150V300 CAVOK 30/08 Q1007 NOSIG
2026-04-23 02:00:00,METAR DFFD 230200Z 04002KT CAVOK 31/07 Q1008 NOSIG
2026-04-23 01:00:00,METAR DFFD 230100Z 03002KT CAVOK 32/08 Q1008 NOSIG
2026-04-23 00:00:00,METAR DFFD 230000Z 03003KT CAVOK 32/08 Q1009 NOSIG
2026-04-22 23:00:00,METAR DFFD 222300Z 01003KT CAVOK 31/08 Q1009 NOSIG
2026-04-22 22:00:00,METAR DFFD 222200Z VRB02KT CAVOK 32/08 Q1009 NOSIG
2026-04-22 21:00:00,METAR DFFD 222100Z 02004KT CAVOK 34/07 Q1009 NOSIG
2026-04-22 20:00:00,METAR DFFD 222000Z 01002KT 8000 NSC 34/08 Q1008 NOSIG
2026-04-22 19:00:00,METAR DFFD 221900Z 04005KT 8000 NSC 35/08 Q1007 NOSIG
2026-04-22 18:00:00,METAR DFFD 221800Z 02007KT 8000 NSC 38/08 Q1007 NOSIG
2026-04-22 17:00:00,METAR DFFD 221700Z 02009KT CAVOK 39/09 Q1006 NOSIG
2026-04-22 16:00:00,METAR DFFD 221600Z 01009KT 340V040 CAVOK 39/11 Q1006 NOSIG
2026-04-22 12:00:00,METAR DFFD 221200Z 31004KT 210V360 CAVOK 36/20 Q1009 NOSIG
2026-04-22 11:00:00,METAR DFFD 221100Z 23004KT 200V280 CAVOK 34/21 Q1010 NOSIG
2026-04-22 10:00:00,METAR DFFD 221000Z 25006KT 220V280 CAVOK 33/21 Q1011 NOSIG
2026-04-22 09:00:00,METAR DFFD 220900Z 26004KT 220V300 8000 NSC 33/21 Q1011 NOSIG
2026-04-22 08:00:00,METAR DFFD 220800Z 27004KT 230V300 8000 NSC 32/21 Q1010 NOSIG
2026-04-22 07:00:00,METAR DFFD 220700Z 25004KT CAVOK 31/20 Q1009 NOSIG
2026-04-22 06:00:00,METAR DFFD 220600Z 24005KT CAVOK 31/20 Q1008 NOSIG
2026-04-22 05:00:00,METAR DFFD 220500Z 23007KT CAVOK 31/20 Q1008 NOSIG
2026-04-22 04:00:00,METAR DFFD 220400Z 21005KT CAVOK 31/21 Q1007 NOSIG
2026-04-22 03:00:00,METAR DFFD 220300Z 22006KT CAVOK 32/21 Q1007 NOSIG
2026-04-22 02:00:00,METAR DFFD 220200Z 21011KT CAVOK 33/21 Q1008 NOSIG
2026-04-22 01:00:00,METAR DFFD 220100Z 20011KT CAVOK 34/21 Q1009 NOSIG
2026-04-22 00:00:00,METAR DFFD 220000Z VRB01KT CAVOK 34/17 Q1009 NOSIG
2026-04-21 23:00:00,METAR DFFD 212300Z 02004KT CAVOK 35/17 Q1009 NOSIG
2026-04-21 21:00:00,METAR DFFD 212100Z 02006KT CAVOK 36/18 Q1008 NOSIG
2026-04-21 20:00:00,METAR DFFD 212000Z 35005KT CAVOK 37/18 Q1007 NOSIG
2026-04-21 19:00:00,METAR DFFD 211900Z 08002KT CAVOK 37/16 Q1006 NOSIG
2026-04-21 18:00:00,METAR DFFD 211800Z VRB03KT 9999 FEW026 38/17 Q1006 NOSIG
2026-04-21 17:00:00,METAR DFFD 211700Z 34004KT 300V020 9999 FEW026 39/18 Q1005 NOSIG
2026-04-21 16:00:00,METAR DFFD 211600Z 18004KT 140V280 9999 FEW026 40/18 Q1005 NOSIG
2026-04-21 15:00:00,METAR DFFD 211500Z VRB03KT 9999 FEW026 39/19 Q1006 NOSIG
2026-04-21 14:00:00,METAR DFFD 211400Z 02005KT 300V100 CAVOK 38/19 Q1006 NOSIG
2026-04-21 12:00:00,METAR DFFD 211200Z 01007KT 330V070 CAVOK 36/20 Q1010 NOSIG
2026-04-21 11:00:00,METAR DFFD 211100Z 34007KT 300V020 CAVOK 35/20 Q1011 NOSIG
2026-04-21 10:00:00,METAR DFFD 211000Z 33004KT 300V010 CAVOK 33/21 Q1012 NOSIG
2026-04-21 09:00:00,METAR DFFD 210900Z 02006KT 360V060 CAVOK 30/20 Q1011 NOSIG
2026-04-21 08:00:00,METAR DFFD 210800Z 02008KT 340V070 9999 FEW026 FEW040CB 29/20 Q1011 NOSIG
2026-04-21 07:00:00,METAR DFFD 210700Z 01007KT 320V040 8000 FEW026 FEW040CB 28/20 Q1011 NOSIG
2026-04-21 05:00:00,METAR DFFD 210500Z 24005KT 220V280 CAVOK 32/19 Q1007 NOSIG
2026-04-21 04:00:00,METAR DFFD 210400Z 22007KT CAVOK 32/19 Q1006 NOSIG
2026-04-21 03:00:00,METAR DFFD 210300Z 20005KT CAVOK 31/19 Q1006 NOSIG
2026-04-21 01:00:00,METAR DFFD 210100Z 20004KT 160V220 CAVOK 33/18 Q1008 NOSIG
2026-04-21 00:00:00,METAR DFFD 210000Z 16004KT CAVOK 34/18 Q1008 NOSIG
2026-04-20 22:00:00,METAR DFFD 202200Z 16004KT CAVOK 35/18 Q1008 NOSIG
2026-04-20 18:00:00,METAR DFFD 201800Z VRB03KT CAVOK 38/17 Q1005 NOSIG
2026-04-20 17:00:00,METAR DFFD 201700Z VRB03KT 9999 FEW026 38/17 Q1005 NOSIG
2026-04-20 15:00:00,METAR DFFD 201500Z 15007KT 100V210 9999 FEW026 39/19 Q1005 NOSIG
2026-04-20 13:00:00,METAR DFFD 201300Z 18005KT 100V270 9999 FEW026 39/19 Q1007 NOSIG
2026-04-20 12:00:00,METAR DFFD 201200Z 13006KT 080V170 CAVOK 38/20 Q1008 NOSIG
2026-04-20 11:00:00,METAR DFFD 201100Z 18007KT 150V240 CAVOK 38/19 Q1009 NOSIG
2026-04-20 10:00:00,METAR DFFD 201000Z 19009KT 170V230 CAVOK 36/21 Q1009 NOSIG
2026-04-20 09:00:00,METAR DFFD 200900Z 20007KT 170V250 CAVOK 33/21 Q1010 NOSIG
2026-04-20 07:00:00,METAR DFFD 200700Z 15005KT 9999 FEW020 30/22 Q1009 NOSIG
2026-04-20 06:00:00,METAR DFFD 200600Z 14007KT 120V180 CAVOK 30/21 Q1009 NOSIG
2026-04-20 05:00:00,METAR DFFD 200500Z 14005KT 110V190 CAVOK 30/22 Q1008 NOSIG
2026-04-20 04:00:00,METAR DFFD 200400Z 22007KT 190V260 CAVOK 30/22 Q1006 NOSIG
2026-04-20 03:00:00,METAR DFFD 200300Z 19009KT CAVOK 31/22 Q1006 NOSIG
2026-04-20 02:00:00,METAR DFFD 200200Z 20008KT CAVOK 31/22 Q1006 NOSIG
2026-04-20 01:00:00,METAR DFFD 200100Z 18008KT CAVOK 33/20 Q1007 NOSIG
2026-04-20 00:00:00,METAR DFFD 200000Z 19006KT CAVOK 33/19 Q1007 NOSIG
2026-04-19 23:00:00,METAR DFFD 192300Z 16006KT CAVOK 34/18 Q1007 NOSIG
2026-04-19 21:00:00,METAR DFFD 192100Z 16003KT CAVOK 34/12 Q1006 NOSIG
2026-04-19 20:00:00,METAR DFFD 192000Z VRB02KT CAVOK 35/08 Q1005 NOSIG
2026-04-19 19:00:00,METAR DFFD 191900Z 00000KT 8000 NSC 36/07 Q1005 NOSIG
2026-04-19 18:00:00,METAR DFFD 191800Z 12003KT 090V150 CAVOK 40/06 Q1004 NOSIG
2026-04-19 17:00:00,METAR DFFD 191700Z 12004KT 100V160 CAVOK 41/07 Q1004 NOSIG
2026-04-19 16:00:00,METAR DFFD 191600Z VRB02KT CAVOK 42/05 Q1004 NOSIG
2026-04-19 15:00:00,METAR DFFD 191500Z 32005KT 260V020 CAVOK 41/05 Q1004 NOSIG
2026-04-19 13:00:00,METAR DFFD 191300Z 33004KT 280V090 CAVOK 40/06 Q1006 NOSIG
2026-04-19 12:00:00,METAR DFFD 191200Z 26005KT 190V300 CAVOK 39/07 Q1007 NOSIG
2026-04-19 11:00:00,METAR DFFD 191100Z VRB03KT CAVOK 38/08 Q1008 NOSIG
2026-04-19 10:00:00,METAR DFFD 191000Z 24007KT 210V270 CAVOK 35/14 Q1008 NOSIG
2026-04-19 09:00:00,METAR DFFD 190900Z 24008KT 200V270 CAVOK 33/16 Q1008 NOSIG
2026-04-19 08:00:00,METAR DFFD 190800Z 21008KT CAVOK 31/14 Q1008 NOSIG
2026-04-19 07:00:00,METAR DFFD 190700Z 21007KT CAVOK 29/11 Q1007 NOSIG
2026-04-19 06:00:00,METAR DFFD 190600Z 22008KT CAVOK 29/11 Q1006 NOSIG
2026-04-19 04:00:00,METAR DFFD 190400Z VRB03KT CAVOK 27/06 Q1005 NOSIG
2026-04-19 02:00:00,METAR DFFD 190200Z 17006KT CAVOK 29/07 Q1005 NOSIG
2026-04-19 01:00:00,METAR DFFD 190100Z 17002KT CAVOK 29/07 Q1006 NOSIG
2026-04-19 00:00:00,METAR DFFD 190000Z 21002KT CAVOK 29/06 Q1006 NOSIG
2026-04-18 23:00:00,METAR DFFD 182300Z 24002KT CAVOK 30/07 Q1007 NOSIG
2026-04-18 22:00:00,METAR DFFD 182200Z 30001KT CAVOK 31/04 Q1006 NOSIG
2026-04-18 20:00:00,METAR DFFD 182000Z 33003KT CAVOK 34/04 Q1005 NOSIG
2026-04-18 19:00:00,METAR DFFD 181900Z 31002KT 9000 NSC 35/02 Q1004 NOSIG
2026-04-18 18:00:00,METAR DFFD 181800Z VRB03KT 9000 NSC 38/01 Q1004 NOSIG
2026-04-18 16:00:00,METAR DFFD 181600Z VRB03KT CAVOK 41/M02 Q1004 NOSIG
2026-04-18 15:00:00,METAR DFFD 181500Z VRB03KT CAVOK 41/M02 Q1004 NOSIG
2026-04-18 13:00:00,METAR DFFD 181300Z 09007KT 030V180 CAVOK 39/M05 Q1006 NOSIG
2026-04-18 11:00:00,METAR DFFD 181100Z 07009KT 030V110 CAVOK 37/M04 Q1008 NOSIG
2026-04-18 10:00:00,METAR DFFD 181000Z 06009KT 020V090 CAVOK 35/M02 Q1009 NOSIG
2026-04-18 09:00:00,METAR DFFD 180900Z 08007KT 020V140 9000 NSC 33/M01 Q1008 NOSIG
2026-04-18 07:00:00,METAR DFFD 180700Z 16003KT CAVOK 27/02 Q1007 NOSIG
2026-04-18 06:00:00,METAR DFFD 180600Z 34004KT CAVOK 26/M01 Q1006 NOSIG
2026-04-18 03:00:00,METAR DFFD 180300Z VRB02KT CAVOK 26/02 Q1005 NOSIG
2026-04-18 02:00:00,METAR DFFD 180200Z 01004KT CAVOK 27/02 Q1006 NOSIG
2026-04-18 01:00:00,METAR DFFD 180100Z 34003KT CAVOK 29/04 Q1006 NOSIG
2026-04-18 00:00:00,METAR DFFD 180000Z 31002KT CAVOK 29/06 Q1007 NOSIG
2026-04-17 23:00:00,METAR DFFD 172300Z 30002KT CAVOK 30/07 Q1007 NOSIG
2026-04-17 22:00:00,METAR DFFD 172200Z 28003KT 250V350 CAVOK 30/08 Q1007 NOSIG
2026-04-17 21:00:00,METAR DFFD 172100Z 24002KT 8000 NSC 31/05 Q1006 NOSIG
2026-04-17 20:00:00,METAR DFFD 172000Z 24001KT 7000 NSC 33/04 Q1005 NOSIG
2026-04-17 19:00:00,METAR DFFD 171900Z 29003KT 7000 NSC 36/03 Q1004 NOSIG
2026-04-17 18:00:00,METAR DFFD 171800Z 29003KT 260V330 8000 NSC 38/03 Q1004 NOSIG
2026-04-17 17:00:00,METAR DFFD 171700Z 29003KT 220V360 CAVOK 40/01 Q1004 NOSIG
2026-04-17 16:00:00,METAR DFFD 171600Z 28005KT 210V360 CAVOK 41/00 Q1004 NOSIG
2026-04-17 15:00:00,METAR DFFD 171500Z 28004KT 210V360 CAVOK 40/01 Q1004 NOSIG
2026-04-17 14:00:00,METAR DFFD 171400Z VRB04KT CAVOK 40/M01 Q1005 NOSIG
2026-04-17 13:00:00,METAR DFFD 171300Z 29005KT 240V330 CAVOK 39/M01 Q1007 NOSIG
2026-04-17 12:00:00,METAR DFFD 171200Z VRB04KT CAVOK 38/M02 Q1008 NOSIG
2026-04-17 11:00:00,METAR DFFD 171100Z VRB04KT CAVOK 37/M03 Q1009 NOSIG
2026-04-17 10:00:00,METAR DFFD 171000Z 07007KT 040V100 CAVOK 34/M02 Q1009 NOSIG
2026-04-17 09:00:00,METAR DFFD 170900Z 03009KT 350V060 8000 NSC 33/M03 Q1009 NOSIG
2026-04-17 08:00:00,METAR DFFD 170800Z 01009KT 8000 NSC 30/M02 Q1008 NOSIG
2026-04-17 07:00:00,METAR DFFD 170700Z 36005KT 8000 NSC 28/M03 Q1008 TEMPO 4000 HZ
2026-04-17 06:00:00,METAR DFFD 170600Z 36006KT CAVOK 28/M04 Q1007 NOSIG
2026-04-17 05:00:00,METAR DFFD 170500Z 36006KT CAVOK 28/M04 Q1007 NOSIG
2026-04-17 04:00:00,METAR DFFD 170400Z COR 01007KT CAVOK 29/M03 Q1006 NOSIG
2026-04-17 03:00:00,METAR DFFD 170300Z 01007KT CAVOK 30/M02 Q1006 NOSIG
2026-04-17 02:00:00,METAR DFFD 170200Z 35005KT CAVOK 31/M01 Q1007 NOSIG
2026-04-17 01:00:00,METAR DFFD 170100Z 36005KT CAVOK 31/00 Q1007 NOSIG
2026-04-16 23:00:00,METAR DFFD 162300Z 34004KT CAVOK 32/04 Q1008 NOSIG
2026-04-16 22:00:00,METAR DFFD 162200Z VRB02KT 8000 NSC 30/06 Q1008 NOSIG
2026-04-16 21:00:00,METAR DFFD 162100Z 30002KT 8000 NSC 31/06 Q1007 NOSIG
2026-04-16 20:00:00,METAR DFFD 162000Z 00000KT 8000 NSC 32/05 Q1007
2026-04-16 19:00:00,METAR DFFD 161900Z 32002KT 6000 NSC 35/03 Q1006 NOSIG
2026-04-16 18:00:00,METAR DFFD 161800Z 34003KT 6000 NSC 37/02 Q1005 NOSIG
2026-04-16 16:00:00,METAR DFFD 161600Z 34005KT 260V050 8000 NSC 40/01 Q1005 NOSIG
2026-04-16 15:00:00,METAR DFFD 161500Z VRB05KT 8000 NSC 40/01 Q1006 NOSIG
2026-04-16 14:00:00,METAR DFFD 161400Z VRB03KT 8000 NSC 41/00 Q1007 NOSIG
2026-04-16 13:00:00,METAR DFFD 161300Z VRB04KT 8000 NSC 39/M01 Q1008 NOSIG
2026-04-16 12:00:00,METAR DFFD 161200Z VRB04KT 8000 NSC 38/M02 Q1009 NOSIG
2026-04-16 11:00:00,METAR DFFD 161100Z VRB05KT 8000 NSC 37/M05 Q1010 NOSIG
2026-04-16 10:00:00,METAR DFFD 161000Z 04006KT 360V090 8000 NSC 35/M03 Q1010 NOSIG
2026-04-16 09:00:00,METAR DFFD 160900Z 04009KT 8000 NSC 33/M03 Q1010 NOSIG
2026-04-16 08:00:00,METAR DFFD 160800Z 02007KT 6000 NSC 31/M02 Q1009 TEMPO 4000 HZ
2026-04-16 07:00:00,METAR DFFD 160700Z 36004KT 320V020 6000 NSC 28/M01 Q1008 NOSIG
2026-04-16 06:00:00,METAR DFFD 160600Z 36005KT 8000 NSC 28/M02 Q1007 NOSIG
2026-04-16 05:00:00,METAR DFFD 160500Z 36006KT CAVOK 28/M02 Q1007 NOSIG
2026-04-16 04:00:00,METAR DFFD 160400Z 01005KT CAVOK 27/M01 Q1007 NOSIG
2026-04-16 02:00:00,METAR DFFD 160200Z 36007KT CAVOK 30/02 Q1007 NOSIG
2026-04-16 00:00:00,METAR DFFD 160000Z 35004KT CAVOK 31/04 Q1008 NOSIG
2026-04-15 22:00:00,METAR DFFD 152200Z 36005KT CAVOK 33/03 Q1009 NOSIG
2026-04-15 21:00:00,METAR DFFD 152100Z 35004KT CAVOK 33/04 Q1008 NOSIG
2026-04-15 20:00:00,METAR DFFD 152000Z 34003KT CAVOK 34/05 Q1008 NOSIG
2026-04-15 19:00:00,METAR DFFD 151900Z 34004KT CAVOK 35/05 Q1007 NOSIG
2026-04-15 18:00:00,METAR DFFD 151800Z 01005KT 330V040 CAVOK 38/04 Q1007 NOSIG
2026-04-15 17:00:00,METAR DFFD 151700Z 02007KT CAVOK 40/02 Q1006 NOSIG
2026-04-15 16:00:00,METAR DFFD 151600Z VRB04KT CAVOK 40/04 Q1007 NOSIG
2026-04-15 15:00:00,METAR DFFD 151500Z VRB03KT CAVOK 40/03 Q1007 NOSIG
2026-04-15 14:00:00,METAR DFFD 151400Z VRB04KT CAVOK 40/03 Q1008 NOSIG
2026-04-15 13:00:00,METAR DFFD 151300Z VRB05KT CAVOK 39/02 Q1009 NOSIG
2026-04-15 12:00:00,METAR DFFD 151200Z VRB05KT CAVOK 38/04 Q1010 NOSIG
2026-04-15 11:00:00,METAR DFFD 151100Z 36007KT 320V030 CAVOK 37/03 Q1011 NOSIG
2026-04-15 10:00:00,METAR DFFD 151000Z 34005KT 280V020 8000 NSC 36/06 Q1011 NOSIG
2026-04-15 09:00:00,METAR DFFD 150900Z 35005KT 300V050 7000 NSC 33/08 Q1011 NOSIG
2026-04-15 08:00:00,METAR DFFD 150800Z 33004KT 280V010 6000 NSC 31/15 Q1011 NOSIG
2026-04-15 07:00:00,METAR DFFD 150700Z VRB02KT 6000 NSC 28/16 Q1010 TEMPO 4000 HZ
2026-04-15 06:00:00,METAR DFFD 150600Z 24002KT 8000 NSC 27/15 Q1009 NOSIG
2026-04-15 05:00:00,METAR DFFD 150500Z 28003KT CAVOK 26/14 Q1008 NOSIG
2026-04-15 02:00:00,METAR DFFD 150200Z 30004KT CAVOK 27/14 Q1009 NOSIG
2026-04-15 01:00:00,METAR DFFD 150100Z 26002KT CAVOK 28/15 Q1009 NOSIG
2026-04-15 00:00:00,METAR DFFD 150000Z 19003KT CAVOK 29/12 Q1010 NOSIG
2026-04-14 23:00:00,METAR DFFD 142300Z 19003KT CAVOK 29/08 Q1010 NOSIG
2026-04-14 22:00:00,METAR DFFD 142200Z 19004KT CAVOK 29/10 Q1010 NOSIG
2026-04-14 21:00:00,METAR DFFD 142100Z 00000KT CAVOK 30/07 Q1010 NOSIG
2026-04-14 20:00:00,METAR DFFD 142000Z 00000KT 8000 NSC 31/06 Q1009 NOSIG
2026-04-14 19:00:00,METAR DFFD 141900Z 02002KT 8000 NSC 33/05 Q1008 NOSIG
2026-04-14 16:00:00,METAR DFFD 141600Z 11004KT 060V150 CAVOK 37/02 Q1007 NOSIG
2026-04-14 14:00:00,METAR DFFD 141400Z VRB04KT CAVOK 37/02 Q1008 NOSIG
2026-04-14 13:00:00,METAR DFFD 141300Z 07006KT 030V120 CAVOK 37/02 Q1009 NOSIG
2026-04-14 11:00:00,METAR DFFD 141100Z 10007KT CAVOK 35/02 Q1011 NOSIG
2026-04-14 10:00:00,METAR DFFD 141000Z 08008KT 050V120 8000 NSC 34/02 Q1011 NOSIG
2026-04-14 09:00:00,METAR DFFD 140900Z 10007KT 040V120 6000 NSC 33/01 Q1011 NOSIG
2026-04-14 08:00:00,METAR DFFD 140800Z VRB03KT 6000 NSC 31/04 Q1010 NOSIG
2026-04-14 07:00:00,METAR DFFD 140700Z 15004KT 8000 NSC 28/03 Q1010 NOSIG
2026-04-14 05:00:00,METAR DFFD 140500Z 01005KT CAVOK 29/02 Q1007 NOSIG
2026-04-14 04:00:00,METAR DFFD 140400Z 36006KT 330V030 CAVOK 30/02 Q1007 NOSIG
2026-04-14 03:00:00,METAR DFFD 140300Z 36008KT CAVOK 31/02 Q1007 NOSIG
2026-04-14 02:00:00,METAR DFFD 140200Z 36005KT CAVOK 31/02 Q1007 NOSIG
2026-04-14 01:00:00,METAR DFFD 140100Z 36010KT CAVOK 33/03 Q1008 NOSIG
2026-04-13 23:00:00,METAR DFFD 132300Z VRB03KT CAVOK 30/07 Q1009 NOSIG
2026-04-13 22:00:00,METAR DFFD 132200Z 32003KT CAVOK 33/05 Q1008 NOSIG
2026-04-13 21:00:00,METAR DFFD 132100Z 02002KT CAVOK 33/05 Q1008 NOSIG
2026-04-13 18:00:00,METAR DFFD 131800Z 34007KT 300V010 8000 NSC 38/04 Q1005 NOSIG
2026-04-13 16:00:00,METAR DFFD 131600Z 32006KT 250V020 CAVOK 40/04 Q1005 NOSIG
2026-04-13 15:00:00,METAR DFFD 131500Z 33007KT 270V040 CAVOK 40/03 Q1005 NOSIG
2026-04-13 14:00:00,METAR DFFD 131400Z 36007KT 320V110 CAVOK 40/03 Q1006 NOSIG
2026-04-13 12:00:00,METAR DFFD 131200Z 03008KT 310V070 CAVOK 39/03 Q1008 NOSIG
2026-04-13 11:00:00,METAR DFFD 131100Z 03009KT 360V070 CAVOK 37/03 Q1009 NOSIG
2026-04-13 10:00:00,METAR DFFD 131000Z 02010KT CAVOK 36/03 Q1009 NOSIG
2026-04-13 09:00:00,METAR DFFD 130900Z 36008KT 330V040 8000 NSC 34/04 Q1009 NOSIG
2026-04-13 08:00:00,METAR DFFD 130800Z 32004KT 290V350 6000 NSC 31/07 Q1010 TEMPO 4000 HZ
2026-04-13 07:00:00,METAR DFFD 130700Z 29003KT 6000 NSC 28/09 Q1009 TEMPO 4000 HZ
2026-04-13 06:00:00,METAR DFFD 130600Z 26003KT 8000 NSC 27/08 Q1008 TEMPO 4000 HZ
2026-04-13 05:00:00,METAR DFFD 130500Z 27003KT CAVOK 28/07 Q1008 NOSIG
2026-04-13 04:00:00,METAR DFFD 130400Z 26003KT 220V280 CAVOK 29/07 Q1007 NOSIG
2026-04-13 00:00:00,METAR DFFD 130000Z 28003KT CAVOK 32/09 Q1009 NOSIG
2026-04-12 23:00:00,METAR DFFD 122300Z 30003KT 260V330 CAVOK 33/09 Q1009 NOSIG
2026-04-12 20:00:00,METAR DFFD 122000Z 26003KT 8000 NSC 35/14 Q1008 NOSIG
2026-04-12 19:00:00,METAR DFFD 121900Z 32003KT 8000 NSC 36/11 Q1007 NOSIG
2026-04-12 18:00:00,METAR DFFD 121800Z 33006KT 280V360 8000 NSC 38/12 Q1007 NOSIG
2026-04-12 17:00:00,METAR DFFD 121700Z 26007KT 220V300 CAVOK 39/15 Q1007 NOSIG
2026-04-12 16:00:00,METAR DFFD 121600Z 32005KT 280V020 CAVOK 39/14 Q1007 NOSIG
2026-04-12 14:00:00,METAR DFFD 121400Z 32008KT 300V360 CAVOK 38/16 Q1008 NOSIG
2026-04-12 13:00:00,METAR DFFD 121300Z 29010KT 250V350 CAVOK 37/16 Q1009 NOSIG
2026-04-12 12:00:00,METAR DFFD 121200Z 28009KT 230V340 CAVOK 37/18 Q1010 NOSIG
2026-04-12 11:00:00,METAR DFFD 121100Z 27009KT 230V320 CAVOK 35/18 Q1011 NOSIG
2026-04-12 10:00:00,METAR DFFD 121000Z 27010KT 230V320 CAVOK 34/19 Q1011 NOSIG
2026-04-12 09:00:00,METAR DFFD 120900Z 26010KT 230V300 CAVOK 33/20 Q1012 NOSIG
2026-04-12 08:00:00,METAR DFFD 120800Z 25010KT 210V270 CAVOK 31/20 Q1012 NOSIG
2026-04-12 07:00:00,METAR DFFD 120700Z 24008KT CAVOK 30/20 Q1011 NOSIG
2026-04-12 06:00:00,METAR DFFD 120600Z 24006KT CAVOK 30/20 Q1010 NOSIG
2026-04-12 05:00:00,METAR DFFD 120500Z 26006KT CAVOK 30/20 Q1009 NOSIG
2026-04-12 03:00:00,METAR DFFD 120300Z 27007KT 230V320 CAVOK 32/19 Q1008 NOSIG
2026-04-12 02:00:00,METAR DFFD 120200Z 22009KT CAVOK 32/20 Q1008 NOSIG
2026-04-12 01:00:00,METAR DFFD 120100Z 20009KT CAVOK 32/21 Q1008 NOSIG
2026-04-11 23:00:00,METAR DFFD 112300Z 25002KT 9999 FEW026 33/21 Q1010 NOSIG
2026-04-11 22:00:00,METAR DFFD 112200Z 19003KT 9999 FEW026 33/21 Q1009 NOSIG
2026-04-11 21:00:00,METAR DFFD 112100Z COR 26007KT 210V300 8000 -RA FEW026 31/21 Q1009 TEMPO 4000 TSRA FEW026 FEW040CB
2026-04-11 20:00:00,METAR DFFD 112000Z COR VRB01KT 9999 FEW026 37/17 Q1008 NOSIG
2026-04-11 19:00:00,METAR DFFD 111900Z 26002KT 9999 FEW026 37/17 Q1007 NOSIG
2026-04-11 18:00:00,METAR DFFD 111800Z 33002KT 9999 FEW026 FEW030TCU 38/17 Q1007 TEMPO TS
2026-04-11 15:00:00,METAR DFFD 111500Z VRB06KT 9999 FEW026 41/18 Q1007 NOSIG
2026-04-11 13:00:00,METAR DFFD 111300Z VRB03KT 9999 FEW026 39/19 Q1009 NOSIG
2026-04-11 12:00:00,METAR DFFD 111200Z VRB04KT 9999 FEW026 39/21 Q1011 NOSIG
2026-04-11 10:00:00,METAR DFFD 111000Z 25010KT 200V280 9000 NSC 36/22 Q1012 NOSIG
2026-04-11 08:00:00,METAR DFFD 110800Z 21010KT 6000 NSC 33/20 Q1012 NOSIG
2026-04-11 07:00:00,METAR DFFD 110700Z 22005KT 6000 NSC 32/19 Q1011 TEMPO 4000 HZ
2026-04-11 06:00:00,METAR DFFD 110600Z 22005KT 8000 NSC 30/19 Q1010 NOSIG
2026-04-11 05:00:00,METAR DFFD 110500Z 21004KT CAVOK 31/18 Q1010 NOSIG
2026-04-11 04:00:00,METAR DFFD 110400Z VRB03KT CAVOK 31/17 Q1009 NOSIG
2026-04-11 03:00:00,METAR DFFD 110300Z 26003KT CAVOK 31/17 Q1009 NOSIG
2026-04-11 02:00:00,METAR DFFD 110200Z 22003KT CAVOK 32/17 Q1010 NOSIG
2026-04-11 01:00:00,METAR DFFD 110100Z 21004KT CAVOK 32/17 Q1010 NOSIG
2026-04-11 00:00:00,METAR DFFD 110000Z 18006KT CAVOK 34/16 Q1010 NOSIG
2026-04-10 23:00:00,METAR DFFD 102300Z 16005KT CAVOK 34/15 Q1011 NOSIG
2026-04-10 22:00:00,METAR DFFD 102200Z 16005KT CAVOK 35/14 Q1011 NOSIG
2026-04-10 21:00:00,METAR DFFD 102100Z 15004KT CAVOK 36/15 Q1010 NOSIG
2026-04-10 20:00:00,METAR DFFD 102000Z 14006KT 080V170 8000 NSC 37/14 Q1010 NOSIG
2026-04-10 19:00:00,METAR DFFD 101900Z 13007KT 8000 NSC 37/14 Q1009 NOSIG
2026-04-10 17:00:00,METAR DFFD 101700Z 10005KT 060V140 8000 FEW026 FEW040CB 40/15 Q1008 TEMPO TS
2026-04-10 16:00:00,METAR DFFD 101600Z 12006KT 060V170 9999 FEW026 41/13 Q1008 NOSIG
2026-04-10 15:00:00,METAR DFFD 101500Z 08008KT 020V130 9999 FEW026 40/15 Q1008 NOSIG
2026-04-10 14:00:00,METAR DFFD 101400Z 12008KT 080V170 9999 FEW026 40/16 Q1009 NOSIG
2026-04-10 13:00:00,METAR DFFD 101300Z 07005KT 010V150 9999 FEW026 39/16 Q1010 NOSIG
2026-04-10 12:00:00,METAR DFFD 101200Z 18006KT 120V250 9999 FEW026 39/20 Q1011 NOSIG
2026-04-10 11:00:00,METAR DFFD 101100Z 26005KT 180V320 CAVOK 38/20 Q1012 NOSIG
2026-04-10 10:00:00,METAR DFFD 101000Z 20006KT 160V270 CAVOK 36/20 Q1012 NOSIG
2026-04-10 09:00:00,METAR DFFD 100900Z 19004KT 110V250 8000 NSC 34/21 Q1012 NOSIG
2026-04-10 08:00:00,METAR DFFD 100800Z VRB03KT 8000 NSC 31/21 Q1012 NOSIG
2026-04-10 06:00:00,METAR DFFD 100600Z 18004KT 150V230 CAVOK 28/21 Q1011 NOSIG
2026-04-10 05:00:00,METAR DFFD 100500Z 17003KT CAVOK 29/21 Q1011 NOSIG
2026-04-10 04:00:00,METAR DFFD 100400Z VRB01KT CAVOK 29/20 Q1010 NOSIG
2026-04-10 03:00:00,METAR DFFD 100300Z 07004KT CAVOK 29/20 Q1010 NOSIG
2026-04-10 01:00:00,METAR DFFD 100100Z 22004KT CAVOK 29/20 Q1011 NOSIG
2026-04-10 00:00:00,METAR DFFD 100000Z 25004KT 220V280 CAVOK 30/20 Q1011 NOSIG
2026-04-09 22:00:00,METAR DFFD 092200Z VRB03KT CAVOK 30/20 Q1012 NOSIG
2026-04-09 21:00:00,METAR DFFD 092100Z 25008KT 220V280 CAVOK 30/19 Q1011 NOSIG
2026-04-09 20:00:00,METAR DFFD 092000Z 21008KT 9999 FEW026 31/19 Q1011 NOSIG
2026-04-09 19:00:00,METAR DFFD 091900Z 19011KT 9999 FEW026 33/18 Q1010 TEMPO TS FEW026 FEW040CB
2026-04-09 18:00:00,METAR DFFD 091800Z 10015G25KT 080V140 3500 BLDU SCT026 FEW040CB 32/18 Q1009 TEMPO 6000 TS
2026-04-09 16:00:00,METAR DFFD 091600Z 02004KT 330V120 8000 FEW026 FEW040CB 39/17 Q1008 TEMPO TS
2026-04-09 15:00:00,METAR DFFD 091500Z VRB02KT 8000 FEW026 39/17 Q1008 NOSIG
2026-04-09 13:00:00,METAR DFFD 091300Z VRB04KT 8000 NSC 39/18 Q1009 NOSIG
2026-04-09 12:00:00,METAR DFFD 091200Z VRB04KT CAVOK 38/20 Q1010 NOSIG
2026-04-09 11:00:00,METAR DFFD 091100Z 19004KT 120V240 CAVOK 37/20 Q1011 NOSIG
2026-04-09 09:00:00,METAR DFFD 090900Z 19008KT 160V230 CAVOK 32/20 Q1012 NOSIG
2026-04-09 08:00:00,METAR DFFD 090800Z 19007KT 160V230 9000 NSC 31/21 Q1011 NOSIG
2026-04-09 07:00:00,METAR DFFD 090700Z 20006KT 9000 NSC 29/21 Q1010 NOSIG
2026-04-09 05:00:00,METAR DFFD 090500Z 18008KT CAVOK 29/21 Q1010 NOSIG
2026-04-09 04:00:00,METAR DFFD 090400Z 18010KT CAVOK 30/22 Q1009 NOSIG
2026-04-09 02:00:00,METAR DFFD 090200Z 17010KT 8000 NSC 32/18 Q1010 NOSIG
2026-04-09 01:00:00,METAR DFFD 090100Z 05004KT 8000 NSC 32/08 Q1009 NOSIG
2026-04-09 00:00:00,METAR DFFD 090000Z 05003KT 8000 NSC 31/09 Q1010 NOSIG
2026-04-08 23:00:00,METAR DFFD 082300Z 03003KT 8000 NSC 32/08 Q1011 NOSIG
2026-04-08 21:00:00,METAR DFFD 082100Z 03002KT 8000 NSC 33/07 Q1010 NOSIG
2026-04-08 20:00:00,METAR DFFD 082000Z 05002KT 8000 NSC 34/06 Q1009 NOSIG
2026-04-08 19:00:00,METAR DFFD 081900Z 06004KT 8000 NSC 36/05 Q1008 NOSIG
2026-04-08 16:00:00,METAR DFFD 081600Z 06012KT 6000 NSC 41/02 Q1007 NOSIG
2026-04-08 15:00:00,METAR DFFD 081500Z 06009KT 020V090 6000 NSC 41/02 Q1008 NOSIG
2026-04-08 14:00:00,METAR DFFD 081400Z 06012KT 040V100 6000 NSC 41/02 Q1009 NOSIG
2026-04-08 11:00:00,METAR DFFD 081100Z 09006KT 030V140 6000 NSC 38/01 Q1012 NOSIG
2026-04-08 09:00:00,METAR DFFD 080900Z 05004KT 360V090 4000 DU NSC 34/02 Q1012 NOSIG
2026-04-08 08:00:00,METAR DFFD 080800Z VRB03KT 3200 DU NSC 30/03 Q1011 NOSIG
2026-04-08 07:00:00,METAR DFFD 080700Z 01005KT 330V030 3500 DU NSC 26/05 Q1010 NOSIG
2026-04-08 06:00:00,METAR DFFD 080600Z 04002KT 6000 NSC 24/06 Q1010 TEMPO 3500 DU
2026-04-08 05:00:00,METAR DFFD 080500Z 04001KT CAVOK 25/04 Q1010 NOSIG
2026-04-08 03:00:00,METAR DFFD 080300Z 00000KT CAVOK 25/07 Q1010 NOSIG
2026-04-08 02:00:00,METAR DFFD 080200Z 32002KT CAVOK 26/07 Q1010 NOSIG
2026-04-08 01:00:00,METAR DFFD 080100Z 00000KT CAVOK 28/07 Q1010 NOSIG
2026-04-07 22:00:00,METAR DFFD 072200Z 03002KT CAVOK 30/01 Q1011 NOSIG
2026-04-07 20:00:00,METAR DFFD 072000Z 02003KT 8000 NSC 33/02 Q1010 NOSIG
2026-04-07 19:00:00,METAR DFFD 071900Z 02004KT 8000 NSC 34/00 Q1010 NOSIG
2026-04-07 18:00:00,METAR DFFD 071800Z 03005KT 8000 NSC 37/M01 Q1009 NOSIG
2026-04-07 17:00:00,METAR DFFD 071700Z 04006KT 350V090 CAVOK 39/M03 Q1009 NOSIG
2026-04-07 15:00:00,METAR DFFD 071500Z VRB06KT CAVOK 40/M02 Q1010 NOSIG
2026-04-07 13:00:00,METAR DFFD 071300Z 08012KT 010V120 CAVOK 39/M03 Q1011 NOSIG
2026-04-07 12:00:00,METAR DFFD 071200Z 08012KT 050V110 CAVOK 38/M02 Q1012 NOSIG
2026-04-07 11:00:00,METAR DFFD 071100Z 09012KT 060V120 9000 NSC 37/M03 Q1013 NOSIG
2026-04-07 09:00:00,METAR DFFD 070900Z 07012KT 8000 NSC 34/M02 Q1014 NOSIG
2026-04-07 08:00:00,METAR DFFD 070800Z 04006KT 6000 NSC 30/01 Q1013 NOSIG
2026-04-07 07:00:00,METAR DFFD 070700Z 33004KT 6000 NSC 25/06 Q1012 TEMPO 4000 HZ
2026-04-07 05:00:00,METAR DFFD 070500Z 36002KT CAVOK 23/08 Q1011 NOSIG
2026-04-07 03:00:00,METAR DFFD 070300Z 02003KT CAVOK 25/07 Q1010 NOSIG
2026-04-07 02:00:00,METAR DFFD 070200Z VRB01KT CAVOK 25/07 Q1011 NOSIG
2026-04-07 01:00:00,METAR DFFD 070100Z 20003KT CAVOK 26/08 Q1011 NOSIG
2026-04-07 00:00:00,METAR DFFD 070000Z 29002KT CAVOK 26/08 Q1011 NOSIG
2026-04-06 23:00:00,METAR DFFD 062300Z 00000KT CAVOK 28/07 Q1012 NOSIG
2026-04-06 22:00:00,METAR DFFD 062200Z 00000KT CAVOK 29/04 Q1011 NOSIG
2026-04-06 21:00:00,METAR DFFD 062100Z 00000KT CAVOK 30/01 Q1011 NOSIG
2026-04-06 20:00:00,METAR DFFD 062000Z 00000KT CAVOK 32/02 Q1010 NOSIG
2026-04-06 18:00:00,METAR DFFD 061800Z 02004KT 8000 NSC 37/00 Q1009 TEMPO 4000 HZ
2026-04-06 17:00:00,METAR DFFD 061700Z 05004KT 340V120 CAVOK 39/M01 Q1009 NOSIG
2026-04-06 16:00:00,METAR DFFD 061600Z 08004KT 010V160 CAVOK 40/M01 Q1009 NOSIG
2026-04-06 15:00:00,METAR DFFD 061500Z 06006KT 360V130 CAVOK 40/M03 Q1010 NOSIG
2026-04-06 14:00:00,METAR DFFD 061400Z VRB08KT CAVOK 40/M03 Q1010 NOSIG
2026-04-06 13:00:00,METAR DFFD 061300Z 05008G20KT 320V090 CAVOK 40/M03 Q1011 NOSIG
2026-04-06 12:00:00,METAR DFFD 061200Z 09011KT 050V140 CAVOK 38/M04 Q1012 NOSIG
2026-04-06 11:00:00,METAR DFFD 061100Z 06011KT CAVOK 37/M02 Q1013 NOSIG
2026-04-06 10:00:00,METAR DFFD 061000Z 05013KT 8000 NSC 36/M04 Q1013 NOSIG
2026-04-06 08:00:00,METAR DFFD 060800Z 02009KT 8000 NSC 29/M01 Q1013 NOSIG
2026-04-06 07:00:00,METAR DFFD 060700Z 36006KT 8000 NSC 28/M01 Q1012 TEMPO 4000 HZ
2026-04-06 06:00:00,METAR DFFD 060600Z 02005KT 8000 NSC 24/01 Q1012 TEMPO 4000 HZ
2026-04-06 05:00:00,METAR DFFD 060500Z 01006KT CAVOK 27/M01 Q1011 NOSIG
2026-04-06 03:00:00,METAR DFFD 060300Z 01003KT CAVOK 23/06 Q1010 NOSIG
2026-04-06 02:00:00,METAR DFFD 060200Z 32004KT CAVOK 24/07 Q1011 NOSIG
2026-04-06 01:00:00,METAR DFFD 060100Z 06001KT CAVOK 26/08 Q1011 NOSIG
2026-04-06 00:00:00,METAR DFFD 060000Z 36004KT CAVOK 27/03 Q1012 NOSIG
2026-04-05 23:00:00,METAR DFFD 052300Z 01002KT CAVOK 27/04 Q1012 NOSIG
2026-04-05 22:00:00,METAR DFFD 052200Z 36003KT CAVOK 28/04 Q1011 NOSIG
2026-04-05 21:00:00,METAR DFFD 052100Z 01002KT CAVOK 29/04 Q1011 NOSIG
2026-04-05 19:00:00,METAR DFFD 051900Z 01002KT CAVOK 33/01 Q1010 NOSIG
2026-04-05 18:00:00,METAR DFFD 051800Z 01005KT CAVOK 37/00 Q1009 NOSIG
2026-04-05 17:00:00,METAR DFFD 051700Z 01007KT 310V050 CAVOK 39/M02 Q1009 NOSIG
2026-04-05 15:00:00,METAR DFFD 051500Z 06008KT 020V090 CAVOK 39/M01 Q1010 NOSIG
2026-04-05 13:00:00,METAR DFFD 051300Z 05007G17KT 360V120 CAVOK 38/M02 Q1012 NOSIG
2026-04-05 11:00:00,METAR DFFD 051100Z 05008KT 020V080 CAVOK 35/M02 Q1014 NOSIG
2026-04-05 09:00:00,METAR DFFD 050900Z 05012KT 8000 NSC 32/M01 Q1014 NOSIG
2026-04-05 08:00:00,METAR DFFD 050800Z 06006KT 030V090 8000 NSC 29/02 Q1014 NOSIG
2026-04-05 07:00:00,METAR DFFD 050700Z 33001KT 8000 NSC 25/07 Q1012 NOSIG
2026-04-05 06:00:00,METAR DFFD 050600Z 36005KT CAVOK 25/01 Q1012 NOSIG
2026-04-05 04:00:00,METAR DFFD 050400Z 36003KT CAVOK 25/03 Q1011 NOSIG
2026-04-05 03:00:00,METAR DFFD 050300Z 33005KT 290V010 CAVOK 27/06 Q1011 NOSIG
2026-04-05 02:00:00,METAR DFFD 050200Z 03004KT CAVOK 27/06 Q1012 NOSIG
2026-04-05 01:00:00,METAR DFFD 050100Z VRB03KT CAVOK 26/07 Q1012 NOSIG
2026-04-05 00:00:00,METAR DFFD 050000Z 35005KT CAVOK 28/08 Q1013 NOSIG
2026-04-04 23:00:00,METAR DFFD 042300Z 14001KT CAVOK 27/08 Q1013 NOSIG
2026-04-04 22:00:00,METAR DFFD 042200Z 28002KT CAVOK 28/09 Q1013 NOSIG
2026-04-04 21:00:00,METAR DFFD 042100Z 30002KT CAVOK 29/09 Q1012 NOSIG
2026-04-04 20:00:00,METAR DFFD 042000Z 05002KT 8000 NSC 30/06 Q1012 NOSIG
2026-04-04 19:00:00,METAR DFFD 041900Z 07002KT CAVOK 33/04 Q1011 NOSIG
2026-04-04 18:00:00,METAR DFFD 041800Z VRB02KT 8000 NSC 35/04 Q1010 NOSIG
2026-04-04 17:00:00,METAR DFFD 041700Z 29004KT 250V340 CAVOK 38/03 Q1010 NOSIG
2026-04-04 15:00:00,METAR DFFD 041500Z VRB04KT CAVOK 39/03 Q1010 NOSIG
2026-04-04 14:00:00,METAR DFFD 041400Z VRB05KT CAVOK 39/03 Q1011 NOSIG
2026-04-04 13:00:00,METAR DFFD 041300Z VRB04KT CAVOK 38/03 Q1012 NOSIG
2026-04-04 12:00:00,METAR DFFD 041200Z VRB04KT CAVOK 37/03 Q1013 NOSIG
2026-04-04 11:00:00,METAR DFFD 041100Z 07008KT 010V110 CAVOK 36/M01 Q1014 NOSIG
2026-04-04 10:00:00,METAR DFFD 041000Z 04010KT 020V080 9000 NSC 34/M01 Q1015 NOSIG
2026-04-04 09:00:00,METAR DFFD 040900Z 04010KT 010V070 8000 NSC 31/01 Q1014 NOSIG
2026-04-04 08:00:00,METAR DFFD 040800Z 03006KT 7000 NSC 29/02 Q1014 NOSIG
2026-04-04 07:00:00,METAR DFFD 040700Z 04003KT 360V090 8000 NSC 26/04 Q1014 NOSIG
2026-04-04 06:00:00,METAR DFFD 040600Z 03003KT 8000 NSC 22/06 Q1013 NOSIG
2026-04-04 05:00:00,METAR DFFD 040500Z VRB01KT CAVOK 23/06 Q1012 NOSIG
2026-04-04 04:00:00,METAR DFFD 040400Z 30003KT CAVOK 24/07 Q1012 NOSIG
2026-04-04 03:00:00,METAR DFFD 040300Z 34004KT CAVOK 24/08 Q1012 NOSIG
2026-04-04 02:00:00,METAR DFFD 040200Z 00000KT CAVOK 25/07 Q1012 NOSIG
2026-04-04 00:00:00,METAR DFFD 040000Z 13002KT CAVOK 27/06 Q1013 NOSIG
2026-04-03 23:00:00,METAR DFFD 032300Z 16003KT CAVOK 27/06 Q1014 NOSIG
2026-04-03 21:00:00,METAR DFFD 032100Z 26003KT CAVOK 29/06 Q1012 NOSIG
2026-04-03 20:00:00,METAR DFFD 032000Z 36003KT CAVOK 31/04 Q1012 NOSIG
2026-04-03 19:00:00,METAR DFFD 031900Z 33002KT CAVOK 33/03 Q1011 NOSIG
2026-04-03 18:00:00,METAR DFFD 031800Z 33003KT 8000 NSC 35/01 Q1010 NOSIG
2026-04-03 17:00:00,METAR DFFD 031700Z VRB02KT CAVOK 37/00 Q1009 NOSIG
2026-04-03 16:00:00,METAR DFFD 031600Z VRB05KT CAVOK 38/01 Q1009 NOSIG
2026-04-03 14:00:00,METAR DFFD 031400Z 24004KT 180V350 CAVOK 38/00 Q1011 NOSIG
2026-04-03 13:00:00,METAR DFFD 031300Z VRB04KT CAVOK 36/00 Q1012 NOSIG
2026-04-03 11:00:00,METAR DFFD 031100Z 06007KT 360V090 CAVOK 34/M01 Q1014 NOSIG
2026-04-03 10:00:00,METAR DFFD 031000Z 03009KT 360V070 CAVOK 32/00 Q1014 NOSIG
2026-04-03 09:00:00,METAR DFFD 030900Z 04010KT 9000 NSC 29/01 Q1014 NOSIG
2026-04-03 08:00:00,METAR DFFD 030800Z 03010KT 8000 NSC 27/00 Q1013 NOSIG
2026-04-03 07:00:00,METAR DFFD 030700Z 02006KT 8000 NSC 25/01 Q1012 NOSIG
2026-04-03 06:00:00,METAR DFFD 030600Z 36005KT 8000 NSC 23/00 Q1012 NOSIG
2026-04-03 05:00:00,METAR DFFD 030500Z 35005KT CAVOK 24/00 Q1011 NOSIG
2026-04-03 03:00:00,METAR DFFD 030300Z 33003KT CAVOK 22/03 Q1011 NOSIG
2026-04-03 01:00:00,METAR DFFD 030100Z VRB03KT CAVOK 24/01 Q1012 NOSIG
2026-04-03 00:00:00,METAR DFFD 030000Z 34003KT CAVOK 24/03 Q1013 NOSIG
2026-04-02 23:00:00,METAR DFFD 022300Z 29001KT CAVOK 25/02 Q1013 NOSIG
2026-04-02 22:00:00,METAR DFFD 022200Z 00000KT CAVOK 27/02 Q1013 NOSIG
2026-04-02 20:00:00,METAR DFFD 022000Z 34004KT 8000 NSC 30/M01 Q1012 NOSIG
2026-04-02 19:00:00,METAR DFFD 021900Z 34004KT 8000 NSC 31/M02 Q1011 NOSIG
2026-04-02 18:00:00,METAR DFFD 021800Z 35005KT 300V020 8000 NSC 34/M02 Q1010 NOSIG
2026-04-02 17:00:00,METAR DFFD 021700Z 34007KT 300V020 CAVOK 35/M03 Q1009 NOSIG
2026-04-02 16:00:00,METAR DFFD 021600Z 04005KT 340V100 CAVOK 35/M04 Q1009 NOSIG
2026-04-02 15:00:00,METAR DFFD 021500Z VRB04KT CAVOK 36/M04 Q1010 NOSIG
2026-04-02 14:00:00,METAR DFFD 021400Z 02005KT 320V130 CAVOK 35/M04 Q1011 NOSIG
2026-04-02 13:00:00,METAR DFFD 021300Z VRB05KT 8000 NSC 34/M03 Q1012 NOSIG
2026-04-02 11:00:00,METAR DFFD 021100Z VRB05KT 8000 NSC 32/M03 Q1014 NOSIG
2026-04-02 10:00:00,METAR DFFD 021000Z 02008KT 350V060 8000 NSC 30/M01 Q1014 NOSIG
2026-04-02 06:00:00,METAR DFFD 020600Z 01006KT 6000 NSC 22/M01 Q1012 TEMPO 4000 DU
2026-04-02 04:00:00,METAR DFFD 020400Z COR 02006KT 9999 NSC 23/M02 Q1011 NOSIG
2026-04-02 01:00:00,METAR DFFD 020100Z 01006KT CAVOK 26/M03 Q1012 NOSIG
2026-04-01 23:00:00,METAR DFFD 012300Z 02005KT 6000 NSC 26/M01 Q1013 NOSIG
2026-04-01 22:00:00,METAR DFFD 012200Z 36005KT 6000 NSC 28/M02 Q1012 NOSIG
2026-04-01 21:00:00,METAR DFFD 012100Z 34005KT 6000 NSC 29/M01 Q1012 NOSIG
2026-04-01 20:00:00,METAR DFFD 012000Z 35004KT 6000 NSC 30/M01 Q1011 NOSIG
2026-04-01 18:00:00,METAR DFFD 011800Z 36006KT 330V030 6000 NSC 32/M01 Q1009 BECMG 4000 DU
2026-04-01 16:00:00,METAR DFFD 011600Z 32008KT 280V360 4000 DU NSC 34/01 Q1009 BECMG 6000 NSW
2026-04-01 15:00:00,METAR DFFD 011500Z VRB06KT 4000 DU NSC 34/M01 Q1009 NOSIG
2026-04-01 14:00:00,METAR DFFD 011400Z 02007KT 320V060 4000 DU NSC 33/00 Q1010 NOSIG
2026-04-01 12:00:00,METAR DFFD 011200Z 02008KT 330V060 4000 DU NSC 30/M01 Q1012 NOSIG
2026-04-01 11:00:00,METAR DFFD 011100Z COR 03011KT 330V070 4000 DU NSC 30/M02 Q1013 NOSIG
2026-04-01 10:00:00,METAR DFFD 011000Z 02011KT 350V060 4000 DU NSC 28/M03 Q1014 NOSIG
2026-04-01 07:00:00,METAR DFFD 010700Z 01011KT 3500 DU NSC 24/M05 Q1012 NOSIG
2026-04-01 06:00:00,METAR DFFD 010600Z 02011KT 6000 NSC 25/M06 Q1012 BECMG 4000 DU
2026-04-01 05:00:00,METAR DFFD 010500Z 01011KT 8000 NSC 26/M02 Q1011 NOSIG
2026-04-01 01:00:00,METAR DFFD 010100Z 01009KT CAVOK 29/02 Q1012 NOSIG
2026-03-31 23:00:00,METAR DFFD 312300Z 01008KT 330V030 CAVOK 30/01 Q1012 NOSIG
2026-03-31 22:00:00,METAR DFFD 312200Z 01008KT CAVOK 31/01 Q1012 NOSIG
2026-03-31 21:00:00,METAR DFFD 312100Z 01007KT CAVOK 32/01 Q1011 NOSIG
2026-03-31 19:00:00,METAR DFFD 311900Z 36009KT CAVOK 34/02 Q1009 NOSIG
2026-03-31 14:00:00,METAR DFFD 311400Z 36009KT 320V030 CAVOK 35/04 Q1010 NOSIG
2026-03-31 13:00:00,METAR DFFD 311300Z 35009KT 320V030 CAVOK 35/05 Q1011 NOSIG
2026-03-31 11:00:00,METAR DFFD 311100Z 03009KT 360V070 CAVOK 34/06 Q1012 NOSIG
2026-03-31 10:00:00,METAR DFFD 311000Z 02010KT 360V060 CAVOK 34/06 Q1012 NOSIG
2026-03-31 09:00:00,METAR DFFD 310900Z 02009KT CAVOK 33/06 Q1012 NOSIG
2026-03-31 08:00:00,METAR DFFD 310800Z 02008KT 8000 NSC 31/06 Q1012 NOSIG
2026-03-31 07:00:00,METAR DFFD 310700Z 01008KT 8000 NSC 30/06 Q1011 NOSIG
2026-03-31 06:00:00,METAR DFFD 310600Z 02008KT 8000 NSC 30/06 Q1010 TEMPO 3500 HZ
2026-03-31 04:00:00,METAR DFFD 310400Z 35004KT CAVOK 30/10 Q1008 NOSIG
2026-03-31 03:00:00,METAR DFFD 310300Z 30003KT 260V330 CAVOK 31/16 Q1008 NOSIG
2026-03-31 00:00:00,METAR DFFD 310000Z 16004KT CAVOK 32/11 Q1009 NOSIG
2026-03-30 23:00:00,METAR DFFD 302300Z 02001KT CAVOK 33/08 Q1009 NOSIG
2026-03-30 19:00:00,METAR DFFD 301900Z 35003KT 8000 NSC 36/11 Q1007 NOSIG
2026-03-30 18:00:00,METAR DFFD 301800Z 34003KT 300V010 8000 NSC 36/10 Q1006 NOSIG
2026-03-30 17:00:00,METAR DFFD 301700Z 35005KT 330V030 9999 FEW026 FEW040CB 37/11 Q1006 TEMPO TS
2026-03-30 16:00:00,METAR DFFD 301600Z 02006KT 330V070 CAVOK 38/10 Q1006 NOSIG
2026-03-30 15:00:00,METAR DFFD 301500Z 01005KT 300V080 CAVOK 38/10 Q1006 NOSIG
2026-03-30 14:00:00,METAR DFFD 301400Z 01006KT 330V070 CAVOK 38/11 Q1007 NOSIG
2026-03-30 13:00:00,METAR DFFD 301300Z VRB04KT CAVOK 38/10 Q1008 NOSIG
2026-03-30 12:00:00,METAR DFFD 301200Z VRB04G14KT CAVOK 37/11 Q1009 NOSIG
2026-03-30 11:00:00,METAR DFFD 301100Z 34005KT 280V070 CAVOK 36/13 Q1010 NOSIG
2026-03-30 10:00:00,METAR DFFD 301000Z 34006KT 270V010 8000 NSC 34/16 Q1011 NOSIG
2026-03-30 09:00:00,METAR DFFD 300900Z 29004KT 230V340 8000 NSC 31/20 Q1011 NOSIG
2026-03-30 08:00:00,METAR DFFD 300800Z 29005KT 250V330 8000 NSC 29/20 Q1011 NOSIG
2026-03-30 07:00:00,METAR DFFD 300700Z VRB03KT 8000 NSC CAVOK 24/21 Q1011
2026-03-30 05:00:00,METAR DFFD 300500Z VRB02KT 8000 NSC 26/20 Q1009 TEMPO 4000 HZ
2026-03-30 04:00:00,METAR DFFD 300400Z 28005KT CAVOK 26/20 Q1009 NOSIG
2026-03-30 02:00:00,METAR DFFD 300200Z 30006KT 230V340 CAVOK 27/19 Q1009 NOSIG
2026-03-29 23:00:00,METAR DFFD 292300Z 23007KT 190V260 CAVOK 28/19 Q1010 NOSIG
2026-03-29 22:00:00,METAR DFFD 292200Z 22006KT CAVOK 29/19 Q1009 NOSIG
2026-03-29 20:00:00,METAR DFFD 292000Z 18010KT CAVOK 29/20 Q1009 NOSIG
2026-03-29 19:00:00,METAR DFFD 291900Z 18012KT CAVOK 31/20 Q1008 NOSIG
2026-03-29 16:00:00,METAR DFFD 291600Z 16005KT 120V210 8000 NSC 36/17 Q1007 NOSIG
2026-03-29 11:00:00,METAR DFFD 291100Z 13011KT 110V180 6000 NSC 33/21 Q1012 NOSIG
2026-03-29 08:00:00,METAR DFFD 290800Z 12004KT 3500 HZ NSC 30/21 Q1011 TEMPO 2500 DU
2026-03-29 07:00:00,METAR DFFD 290700Z 00000KT 3500 HZ NSC 28/23 Q1010 NOSIG
2026-03-29 01:00:00,METAR DFFD 290100Z 29002KT CAVOK 30/22 Q1010 NOSIG
2026-03-29 00:00:00,METAR DFFD 290000Z 30003KT CAVOK 30/21 Q1010 NOSIG
2026-03-28 22:00:00,METAR DFFD 282200Z 24002KT CAVOK 30/23 Q1010 NOSIG
2026-03-28 21:00:00,METAR DFFD 282100Z 23002KT CAVOK 30/23 Q1009 NOSIG
2026-03-28 20:00:00,METAR DFFD 282000Z 33002KT CAVOK 32/22 Q1009 NOSIG
2026-03-28 19:00:00,METAR DFFD 281900Z 35002KT CAVOK 33/22 Q1008 NOSIG
2026-03-28 18:00:00,METAR DFFD 281800Z 34006KT 300V360 CAVOK 34/21 Q1008 NOSIG
2026-03-28 16:00:00,METAR DFFD 281600Z 31007KT 270V350 9999 FEW020 35/21 Q1008 NOSIG
2026-03-28 14:00:00,METAR DFFD 281400Z 31009KT 260V360 CAVOK 35/21 Q1009 NOSIG
2026-03-28 13:00:00,METAR DFFD 281300Z 26008KT 190V310 CAVOK 36/21 Q1010 NOSIG
2026-03-28 10:00:00,METAR DFFD 281000Z COR 19014KT CAVOK 31/21 Q1012 NOSIG
2026-03-28 09:00:00,METAR DFFD 280900Z 21011KT 170V250 CAVOK 30/22 Q1013 NOSIG
2026-03-28 08:00:00,METAR DFFD 280800Z 18010KT CAVOK 28/22 Q1013 NOSIG
2026-03-28 07:00:00,METAR DFFD 280700Z 17010KT 9999 FEW026 28/21 Q1012 NOSIG
2026-03-28 06:00:00,METAR DFFD 280600Z 17007KT CAVOK 28/21 Q1011 NOSIG
2026-03-28 04:00:00,METAR DFFD 280400Z VRB03KT CAVOK 28/21 Q1009 NOSIG
2026-03-28 02:00:00,METAR DFFD 280200Z 14004KT CAVOK 29/21 Q1009 NOSIG
2026-03-28 01:00:00,METAR DFFD 280100Z 17004KT CAVOK 29/21 Q1010 NOSIG
2026-03-28 00:00:00,METAR DFFD 280000Z COR 14009KT 9999 FEW026 29/20 Q1011 TEMPO TS FEW026 FEW033CB
2026-03-27 23:00:00,METAR DFFD 272300Z 12010KT 3500 BLDU FEW026 31/20 Q1012 TEMPO TS FEW026 FEW033CB
2026-03-27 22:00:00,METAR DFFD 272200Z 32003KT CAVOK 30/22 Q1011 NOSIG
2026-03-27 21:00:00,METAR DFFD 272100Z VRB02KT CAVOK 31/21 Q1011 NOSIG
2026-03-27 19:00:00,METAR DFFD 271900Z 34004KT 300V360 CAVOK 32/20 Q1009 NOSIG
2026-03-25 15:00:00,METAR DFFD 251500Z VRB03KT 1800 R04/1000 DU NSC 39/11 Q1005 NOSIG
2026-03-25 14:00:00,METAR DFFD 251400Z VRB03KT 1000 R04/1000 DU NSC 40/11 Q1006 NOSIG
2026-03-25 13:00:00,METAR DFFD 251300Z 28005KT 230V330 0900 R04/1000 DU NSC 38/14 Q1007 NOSIG
2026-03-25 12:00:00,METAR DFFD 251200Z 26006KT 220V320 0800 R04/1000 DU NSC 38/14 Q1008 NOSIG
2026-03-25 11:00:00,METAR DFFD 251100Z 29003KT 190V350 0900 R04/1000 DU NSC 40/13 Q1009 NOSIG
2026-03-25 10:00:00,METAR DFFD 251000Z COR 26004KT 210V010 0700 R04/0750 DU NSC 37/14 Q1009 BECMG 0900
2026-03-25 08:00:00,METAR DFFD 250800Z 32003KT 280V360 0700 R04/0750 DU NSC 33/15 Q1009 NOSIG
2026-03-25 06:00:00,METAR DFFD 250600Z 32002KT 2500 DU NSC 29/14 Q1008 TEMPO 1400
2026-03-25 02:00:00,METAR DFFD 250200Z 31004KT 280V340 6000 NSC 32/14 Q1008 TEMPO 4000 DU
2026-03-25 01:00:00,METAR DFFD 250100Z 32003KT 6000 NSC 32/14 Q1008 NOSIG
2026-03-25 00:00:00,METAR DFFD 250000Z VRB02KT 6000 NSC 32/16 Q1009 NOSIG
2026-03-24 22:00:00,METAR DFFD 242200Z 36003KT 320V020 4500 DU NSC 34/14 Q1009 BECMG 6000 NSW
2026-03-24 21:00:00,METAR DFFD 242100Z VRB03KT 3500 DU NSC 35/15 Q1009 NOSIG
2026-03-24 20:00:00,METAR DFFD 242000Z 00000KT 2500 DU NSC 35/16 Q1008 BECMG 4000
2026-03-24 17:00:00,METAR DFFD 241700Z VRB01KT 0700 R04/0900 DU NSC 38/14 Q1006 NOSIG
2026-03-24 16:00:00,METAR DFFD 241600Z VRB03KT 0700 R04/0900 DU NSC 39/13 Q1006 NOSIG
2026-03-24 15:00:00,METAR DFFD 241500Z COR 02004KT 290V060 0700 R04/0750 DU NSC 39/14 Q1007 BECMG 0900
2026-03-24 14:00:00,METAR DFFD 241400Z 34005KT 290V010 0600 R04/0750 DU NSC 39/15 Q1007 BECMG 0900
2026-03-24 13:00:00,METAR DFFD 241300Z 32004KT 270V060 0500 R04/0500 DU NSC 38/15 Q1008 BECMG 0900
2026-03-24 12:00:00,METAR DFFD 241200Z 32004KT 250V010 0400 R04/0500 DU NSC 37/15 Q1009 NOSIG
2026-03-24 11:00:00,METAR DFFD 241100Z 33005KT 280V020 0400 R04/0500 DU NSC 36/15 Q1010 NOSIG
2026-03-24 09:00:00,METAR DFFD 240900Z 30005KT 270V350 1600 R04/1200 DU NSC 33/17 Q1010 BECMG 1400
2026-03-24 06:00:00,METAR DFFD 240600Z 27005KT 230V290 CAVOK 31/17 Q1009 NOSIG
2026-03-24 05:00:00,METAR DFFD 240500Z 26006KT CAVOK 31/18 Q1008 NOSIG
2026-03-24 04:00:00,METAR DFFD 240400Z 25007KT 230V290 CAVOK 31/18 Q1008 NOSIG
2026-03-24 02:00:00,METAR DFFD 240200Z 20006KT CAVOK 31/18 Q1008 NOSIG
2026-03-24 00:00:00,METAR DFFD 240000Z 20004KT CAVOK 31/18 Q1009 NOSIG
2026-03-23 23:00:00,METAR DFFD 232300Z 15004KT CAVOK 33/18 Q1010 NOSIG
2026-03-23 22:00:00,METAR DFFD 232200Z VRB02KT CAVOK 33/18 Q1009 NOSIG
2026-03-23 21:00:00,METAR DFFD 232100Z 07003KT CAVOK 33/18 Q1009 NOSIG
2026-03-23 20:00:00,METAR DFFD 232000Z 32002KT CAVOK 34/18 Q1008 NOSIG
2026-03-23 19:00:00,METAR DFFD 231900Z 27002KT 8000 NSC 35/17 Q1008 NOSIG
2026-03-23 18:00:00,METAR DFFD 231800Z 22003KT 200V260 8000 NSC 37/17 Q1007 NOSIG
2026-03-23 16:00:00,METAR DFFD 231600Z 21005KT 140V310 9999 FEW020 39/17 Q1007 NOSIG
2026-03-23 14:00:00,METAR DFFD 231400Z 23007KT 170V260 CAVOK 39/18 Q1008 NOSIG
2026-03-23 12:00:00,METAR DFFD 231200Z 24009KT 210V280 CAVOK 35/19 Q1009 NOSIG
2026-03-23 10:00:00,METAR DFFD 231000Z 22010KT 200V260 CAVOK 32/19 Q1011 NOSIG
2026-03-23 09:00:00,METAR DFFD 230900Z 22009KT 200V260 CAVOK 31/19 Q1010 NOSIG
2026-03-23 08:00:00,METAR DFFD 230800Z 23008KT 200V280 8000 NSC 31/19 Q1009 NOSIG
2026-03-23 07:00:00,METAR DFFD 230700Z 24008KT 210V270 CAVOK 31/19 Q1008 NOSIG
2026-03-23 06:00:00,METAR DFFD 230600Z 22009KT CAVOK 31/19 Q1007 NOSIG
2026-03-23 04:00:00,METAR DFFD 230400Z 20006KT CAVOK 31/18 Q1006 NOSIG
2026-03-23 03:00:00,METAR DFFD 230300Z 20007KT CAVOK 32/18 Q1006 NOSIG
2026-03-23 02:00:00,METAR DFFD 230200Z 20006KT CAVOK 32/16 Q1006 NOSIG
2026-03-23 01:00:00,METAR DFFD 230100Z 19005KT CAVOK 31/16 Q1007 NOSIG
2026-03-22 22:00:00,METAR DFFD 222200Z 04003KT CAVOK 33/15 Q1007 NOSIG
2026-03-22 21:00:00,METAR DFFD 222100Z 16004KT CAVOK 34/14 Q1007 NOSIG
2026-03-22 20:00:00,METAR DFFD 222000Z 15002KT CAVOK 34/14 Q1005 NOSIG
2026-03-22 18:00:00,METAR DFFD 221800Z 13004KT 9999 FEW026 39/12 Q1004 NOSIG
2026-03-22 16:00:00,METAR DFFD 221600Z VRB03KT 9999 FEW026 41/12 Q1004 NOSIG
2026-03-22 14:00:00,METAR DFFD 221400Z 02004KT 320V100 9999 FEW026 41/13 Q1005 NOSIG
2026-03-22 13:00:00,METAR DFFD 221300Z VRB04KT 9999 FEW026 40/13 Q1006 NOSIG
2026-03-22 12:00:00,METAR DFFD 221200Z VRB06KT CAVOK 39/14 Q1007 NOSIG
2026-03-22 10:00:00,METAR DFFD 221000Z 23007KT 190V270 CAVOK 37/16 Q1009 NOSIG
2026-03-22 09:00:00,METAR DFFD 220900Z 17004KT 120V240 CAVOK 35/06 Q1009 NOSIG
2026-03-22 08:00:00,METAR DFFD 220800Z 17004KT 140V200 9000 NSC 32/06 Q1009 NOSIG
2026-03-22 07:00:00,METAR DFFD 220700Z 17004KT 8000 NSC 29/05 Q1008 NOSIG
2026-03-22 06:00:00,METAR DFFD 220600Z 06002KT 8000 NSC 26/07 Q1007 NOSIG
2026-03-22 05:00:00,METAR DFFD 220500Z 08002KT CAVOK 27/06 Q1007 NOSIG
2026-03-22 04:00:00,METAR DFFD 220400Z 12004KT CAVOK 31/04 Q1006 NOSIG
2026-03-22 02:00:00,METAR DFFD 220200Z 10005KT 050V110 CAVOK 30/04 Q1007 NOSIG
2026-03-22 01:00:00,METAR DFFD 220100Z 12001KT CAVOK 28/08 Q1007 NOSIG
2026-03-22 00:00:00,METAR DFFD 220000Z 00000KT CAVOK 28/09 Q1008 NOSIG
2026-03-21 23:00:00,METAR DFFD 212300Z 08003KT 030V100 CAVOK 30/08 Q1008 NOSIG
2026-03-21 22:00:00,METAR DFFD 212200Z 04002KT CAVOK 30/07 Q1008 NOSIG
2026-03-21 21:00:00,METAR DFFD 212100Z 17003KT CAVOK 32/05 Q1007 NOSIG
2026-03-21 20:00:00,METAR DFFD 212000Z 17003KT CAVOK 33/07 Q1007 NOSIG
2026-03-21 19:00:00,METAR DFFD 211900Z 15003KT CAVOK 36/04 Q1006 NOSIG
2026-03-21 17:00:00,METAR DFFD 211700Z 14006KT 100V180 CAVOK 41/03 Q1005 NOSIG
2026-03-21 16:00:00,METAR DFFD 211600Z 10009KT CAVOK 42/04 Q1004 NOSIG
2026-03-21 14:00:00,METAR DFFD 211400Z 16008KT 100V240 CAVOK 42/04 Q1006 NOSIG
2026-03-21 13:00:00,METAR DFFD 211300Z 09014G24KT 060V130 CAVOK 41/05 Q1007 NOSIG
2026-03-21 12:00:00,METAR DFFD 211200Z 09012KT 060V130 CAVOK 41/03 Q1008 NOSIG
2026-03-21 11:00:00,METAR DFFD 211100Z 10013KT 070V130 CAVOK 40/03 Q1008 NOSIG
2026-03-21 10:00:00,METAR DFFD 211000Z 09011KT 060V120 CAVOK 38/04 Q1009 NOSIG
2026-03-21 09:00:00,METAR DFFD 210900Z 10009KT 8000 NSC 35/04 Q1009 NOSIG
2026-03-21 08:00:00,METAR DFFD 210800Z 09008KT 8000 NSC 33/03 Q1009 NOSIG
2026-03-21 07:00:00,METAR DFFD 210700Z 08004KT 8000 NSC 29/05 Q1008 NOSIG
2026-03-21 06:00:00,METAR DFFD 210600Z 09004KT 8000 NSC 26/05 Q1007 TEMPO 4000 HZ
2026-03-21 05:00:00,METAR DFFD 210500Z VRB03KT CAVOK 26/05 Q1007 NOSIG
2026-03-21 03:00:00,METAR DFFD 210300Z 05004KT CAVOK 27/06 Q1006 NOSIG
2026-03-21 02:00:00,METAR DFFD 210200Z 05003KT CAVOK 27/06 Q1007 NOSIG
2026-03-21 01:00:00,METAR DFFD 210100Z 05003KT CAVOK 28/07 Q1008 NOSIG
2026-03-21 00:00:00,METAR DFFD 210000Z 03005KT CAVOK 29/07 Q1008 NOSIG
2026-03-20 23:00:00,METAR DFFD 202300Z 05004KT CAVOK 31/07 Q1008 NOSIG
2026-03-20 22:00:00,METAR DFFD 202200Z 04004KT CAVOK 31/07 Q1008 NOSIG
2026-03-20 21:00:00,METAR DFFD 202100Z 04004KT CAVOK 31/06 Q1008 NOSIG
2026-03-20 20:00:00,METAR DFFD 202000Z 06003KT CAVOK 33/06 Q1007 NOSIG
2026-03-20 19:00:00,METAR DFFD 201900Z 09005KT CAVOK 36/05 Q1007 NOSIG
2026-03-20 18:00:00,METAR DFFD 201800Z 08006KT 050V110 CAVOK 39/04 Q1006 NOSIG
2026-03-20 17:00:00,METAR DFFD 201700Z 07004KT 010V110 CAVOK 40/04 Q1006 NOSIG
2026-03-20 15:00:00,METAR DFFD 201500Z 07009KT 010V130 CAVOK 41/05 Q1006 NOSIG
2026-03-20 14:00:00,METAR DFFD 201400Z VRB07KT CAVOK 41/05 Q1007 NOSIG
2026-03-20 12:00:00,METAR DFFD 201200Z 11010KT 060V140 CAVOK 40/04 Q1010 NOSIG
2026-03-20 11:00:00,METAR DFFD 201100Z 09011KT 050V120 CAVOK 39/03 Q1011 NOSIG
2026-03-20 10:00:00,METAR DFFD 201000Z 09010KT 050V110 8000 NSC 37/04 Q1011 NOSIG
2026-03-20 09:00:00,METAR DFFD 200900Z 09011KT 6000 NSC 35/04 Q1011 NOSIG
2026-03-20 08:00:00,METAR DFFD 200800Z 09005KT 3500 HZ NSC 32/05 Q1010 NOSIG
2026-03-20 07:00:00,METAR DFFD 200700Z 00000KT 4500 HZ NSC 25/10 Q1009 NOSIG
2026-03-20 02:00:00,METAR DFFD 200200Z VRB03KT CAVOK 26/09 Q1008 NOSIG
2026-03-20 01:00:00,METAR DFFD 200100Z 00000KT CAVOK 27/08 Q1009 NOSIG
2026-03-20 00:00:00,METAR DFFD 200000Z 06001KT CAVOK 28/09 Q1009 NOSIG
2026-03-19 23:00:00,METAR DFFD 192300Z 05001KT CAVOK 30/10 Q1009 NOSIG
2026-03-19 22:00:00,METAR DFFD 192200Z 03006KT CAVOK 29/10 Q1009 NOSIG
2026-03-19 21:00:00,METAR DFFD 192100Z 00000KT CAVOK 30/08 Q1009 NOSIG
2026-03-19 20:00:00,METAR DFFD 192000Z 19002KT CAVOK 31/08 Q1008 NOSIG
2026-03-19 19:00:00,METAR DFFD 191900Z 16002KT 8000 NSC 33/06 Q1007 NOSIG
2026-03-19 18:00:00,METAR DFFD 191800Z 17003KT 120V190 CAVOK 38/05 Q1007 NOSIG
2026-03-19 16:00:00,METAR DFFD 191600Z 11005KT 040V190 CAVOK 39/05 Q1007 NOSIG
2026-03-19 14:00:00,METAR DFFD 191400Z 11007KT 070V150 CAVOK 39/03 Q1008 NOSIG
2026-03-19 12:00:00,METAR DFFD 191200Z 14011KT CAVOK 38/03 Q1010 NOSIG
2026-03-19 11:00:00,METAR DFFD 191100Z 16010KT 120V190 8000 NSC 37/03 Q1011 NOSIG
2026-03-19 10:00:00,METAR DFFD 191000Z 15010KT 100V180 6000 NSC 35/03 Q1012 NOSIG
2026-03-19 09:00:00,METAR DFFD 190900Z 10010KT 6000 NSC 34/02 Q1011 NOSIG
2026-03-19 08:00:00,METAR DFFD 190800Z 09009KT 4000 HZ NSC 31/02 Q1011 NOSIG
2026-03-19 07:00:00,METAR DFFD 190700Z 07004KT 4000 HZ NSC 25/07 Q1010 NOSIG
2026-03-19 06:00:00,METAR DFFD 190600Z 07002KT CAVOK 22/08 Q1009 TEMPO 4000 HZ
2026-03-19 04:00:00,METAR DFFD 190400Z 03003KT CAVOK 24/07 Q1009 NOSIG
2026-03-19 01:00:00,METAR DFFD 190100Z COR 03003KT 9999 NSC 26/05 Q1009 NOSIG
2026-03-19 00:00:00,METAR DFFD 190000Z 07002KT CAVOK 27/07 Q1010 NOSIG
2026-03-18 23:00:00,METAR DFFD 182300Z 09002KT CAVOK 27/04 Q1010 NOSIG
2026-03-18 22:00:00,METAR DFFD 182200Z VRB03KT CAVOK 27/05 Q1010 NOSIG
2026-03-18 21:00:00,METAR DFFD 182100Z 17003KT CAVOK 29/06 Q1010 NOSIG
2026-03-18 20:00:00,METAR DFFD 182000Z VRB03KT CAVOK 30/03 Q1009 NOSIG
2026-03-18 19:00:00,METAR DFFD 181900Z 15003KT 8000 NSC 33/04 Q1008 NOSIG
2026-03-18 18:00:00,METAR DFFD 181800Z VRB02KT 8000 NSC 36/03 Q1008 NOSIG
2026-03-18 17:00:00,METAR DFFD 181700Z VRB03KT CAVOK 37/02 Q1008 NOSIG
2026-03-18 16:00:00,METAR DFFD 181600Z 01005KT 310V040 CAVOK 37/00 Q1008 NOSIG
2026-03-18 15:00:00,METAR DFFD 181500Z VRB03KT CAVOK 37/01 Q1008 NOSIG
2026-03-18 14:00:00,METAR DFFD 181400Z 20003KT 110V250 CAVOK 38/01 Q1009 NOSIG
2026-03-18 13:00:00,METAR DFFD 181300Z 15005KT 090V220 CAVOK 37/00 Q1010 NOSIG
2026-03-18 12:00:00,METAR DFFD 181200Z VRB04KT CAVOK 35/00 Q1011 NOSIG
2026-03-18 11:00:00,METAR DFFD 181100Z 05006KT 360V080 6000 NSC 33/00 Q1012 NOSIG
2026-03-18 10:00:00,METAR DFFD 181000Z 06008KT 030V110 6000 NSC 32/00 Q1012 NOSIG
2026-03-18 09:02:00,METAR DFFD 180902Z 08006KT 030V160 3500 HZ NSC 30/03 Q1012 NOSIG
2026-03-18 07:00:00,METAR DFFD 180700Z 02004KT 6000 NSC 25/04 Q1010 TEMPO 4000 HZ
2026-03-18 06:00:00,METAR DFFD 180600Z 01002KT CAVOK 23/04 Q1010 TEMPO 4000 HZ
2026-03-18 05:00:00,METAR DFFD 180500Z 00000KT CAVOK 23/04 Q1009 NOSIG
2026-03-18 04:00:00,METAR DFFD 180400Z 03003KT CAVOK 25/02 Q1009 NOSIG
2026-03-18 03:00:00,METAR DFFD 180300Z 03005KT CAVOK 25/03 Q1009 NOSIG
2026-03-18 00:00:00,METAR DFFD 180000Z 04002KT CAVOK 26/03 Q1011 NOSIG
2026-03-17 23:00:00,METAR DFFD 172300Z 05001KT CAVOK 27/03 Q1011 NOSIG
2026-03-17 22:00:00,METAR DFFD 172200Z 06003KT CAVOK 28/03 Q1011 NOSIG
2026-03-17 20:00:00,METAR DFFD 172000Z 03002KT CAVOK 30/02 Q1010 NOSIG
2026-03-17 19:00:00,METAR DFFD 171900Z 03003KT CAVOK 31/01 Q1009 NOSIG
2026-03-17 18:00:00,METAR DFFD 171800Z 02007KT CAVOK 35/01 Q1009 NOSIG
2026-03-17 17:00:00,METAR DFFD 171700Z 03008KT 360V060 CAVOK 36/01 Q1009 NOSIG
2026-03-17 16:00:00,METAR DFFD 171600Z VRB05KT CAVOK 37/01 Q1009 NOSIG
2026-03-17 15:00:00,METAR DFFD 171500Z 11005KT 040V170 CAVOK 38/M01 Q1009 NOSIG
2026-03-17 14:00:00,METAR DFFD 171400Z VRB04KT CAVOK 38/M01 Q1009 NOSIG
2026-03-17 13:00:00,METAR DFFD 171300Z 04010KT 330V100 CAVOK 36/M02 Q1010 NOSIG
2026-03-17 12:00:00,METAR DFFD 171200Z 05011KT CAVOK 36/M02 Q1011 NOSIG
2026-03-17 10:00:00,METAR DFFD 171000Z 04011KT 010V070 8000 NSC 33/M03 Q1013 NOSIG
2026-03-17 08:00:00,METAR DFFD 170800Z 04005KT 4000 HZ NSC 28/M01 Q1012 BECMG 6000 NSW
2026-03-17 07:00:00,METAR DFFD 170700Z 02004KT 7000 NSC 23/02 Q1011 TEMPO 4000 HZ
2026-03-17 06:00:00,METAR DFFD 170600Z 02005KT 8000 NSC 24/00 Q1011 NOSIG
2026-03-17 05:00:00,METAR DFFD 170500Z 03003KT CAVOK 24/02 Q1010 NOSIG
2026-03-17 04:00:00,METAR DFFD 170400Z 02005KT CAVOK 25/01 Q1010 NOSIG
2026-03-17 03:00:00,METAR DFFD 170300Z 02002KT CAVOK 24/03 Q1010 NOSIG
2026-03-17 00:00:00,METAR DFFD 170000Z 02004KT CAVOK 27/00 Q1012 NOSIG
2026-03-16 23:00:00,METAR DFFD 162300Z 02007KT CAVOK 30/M01 Q1012 NOSIG
2026-03-16 21:00:00,METAR DFFD 162100Z 01008KT CAVOK 32/00 Q1011 NOSIG
2026-03-16 20:00:00,METAR DFFD 162000Z 02009KT CAVOK 33/01 Q1010 NOSIG
2026-03-16 18:00:00,METAR DFFD 161800Z 01009KT CAVOK 35/02 Q1009 NOSIG
2026-03-16 17:00:00,METAR DFFD 161700Z 03012KT 360V060 CAVOK 37/01 Q1008 NOSIG
2026-03-16 16:00:00,METAR DFFD 161600Z 03012KT 340V060 CAVOK 38/02 Q1008 NOSIG
2026-03-16 15:00:00,METAR DFFD 161500Z 01013G23KT 340V040 CAVOK 38/02 Q1009 NOSIG
2026-03-16 14:00:00,METAR DFFD 161400Z 01013KT 350V050 CAVOK 37/02 Q1010 NOSIG
2026-03-16 12:00:00,METAR DFFD 161200Z 02014KT CAVOK 36/02 Q1012 NOSIG
2026-03-16 11:00:00,METAR DFFD 161100Z 02014KT CAVOK 35/02 Q1013 NOSIG
2026-03-16 09:00:00,METAR DFFD 160900Z 03017KT 8000 NSC 30/02 Q1013 NOSIG
2026-03-16 07:00:00,METAR DFFD 160700Z 02009KT 9000 NSC 26/03 Q1012 NOSIG
2026-03-16 06:00:00,METAR DFFD 160600Z 03007KT 9000 NSC 24/03 Q1011 NOSIG
2026-03-16 05:00:00,METAR DFFD 160500Z 03007KT CAVOK 26/03 Q1011 NOSIG
2026-03-16 04:00:00,METAR DFFD 160400Z 03007KT CAVOK 27/04 Q1010 NOSIG
2026-03-16 03:00:00,METAR DFFD 160300Z 03009KT CAVOK 27/04 Q1010 NOSIG
2026-03-16 01:00:00,METAR DFFD 160100Z 02006KT CAVOK 28/05 Q1011 NOSIG
2026-03-15 22:00:00,METAR DFFD 152200Z 02010KT CAVOK 33/05 Q1011 NOSIG
2026-03-15 21:00:00,METAR DFFD 152100Z 02009KT CAVOK 34/05 Q1010 NOSIG
2026-03-15 20:00:00,METAR DFFD 152000Z 01006KT CAVOK 34/06 Q1009 NOSIG
2026-03-15 19:00:00,METAR DFFD 151900Z 35005KT CAVOK 35/06 Q1008 NOSIG
2026-03-15 18:00:00,METAR DFFD 151800Z 34005KT CAVOK 37/06 Q1007 NOSIG
2026-03-15 17:00:00,METAR DFFD 151700Z 03004KT 300V080 CAVOK 39/05 Q1007 NOSIG
2026-03-15 16:00:00,METAR DFFD 151600Z 35007KT 310V030 CAVOK 39/06 Q1007 NOSIG
2026-03-15 15:00:00,METAR DFFD 151500Z 04010KT 010V080 CAVOK 39/06 Q1007 NOSIG
2026-03-15 14:00:00,METAR DFFD 151400Z VRB10G21KT CAVOK 39/06 Q1008 NOSIG
2026-03-15 13:00:00,METAR DFFD 151300Z 36011KT 330V040 CAVOK 38/07 Q1009 NOSIG
2026-03-15 12:00:00,METAR DFFD 151200Z 03011KT 8000 NSC 38/06 Q1010 NOSIG
2026-03-15 11:00:00,METAR DFFD 151100Z 02014KT 8000 NSC 36/05 Q1011 NOSIG
2026-03-15 10:00:00,METAR DFFD 151000Z 02012KT CAVOK 34/04 Q1012 NOSIG
2026-03-15 08:00:00,METAR DFFD 150800Z 01009KT 340V040 CAVOK 29/04 Q1011 NOSIG
