Time_recorded,METAR
2026-05-02 15:30:00,METAR VVTS 021530Z 13007KT 050V160 CAVOK 29/26 Q1009 NOSIG
2026-05-02 15:00:00,METAR VVTS 021500Z 12010KT CAVOK 29/26 Q1009 NOSIG
2026-05-02 14:30:00,METAR VVTS 021430Z 12007KT CAVOK 29/26 Q1009 NOSIG
2026-05-02 14:00:00,METAR VVTS 021400Z 12008KT CAVOK 29/25 Q1009 NOSIG
2026-05-02 13:30:00,METAR VVTS 021330Z 11006KT 080V140 CAVOK 28/25 Q1009 NOSIG
2026-05-02 13:00:00,METAR VVTS 021300Z 10006KT 060V140 CAVOK 29/25 Q1008 NOSIG
2026-05-02 12:30:00,METAR VVTS 021230Z 12007KT 050V150 CAVOK 29/25 Q1008 NOSIG
2026-05-02 12:00:00,METAR VVTS 021200Z 12006KT CAVOK 29/25 Q1007 NOSIG
2026-05-02 11:30:00,METAR VVTS 021130Z 11006KT 9999 FEW025 BKN060 29/25 Q1007 NOSIG
2026-05-02 11:00:00,METAR VVTS 021100Z 09004KT 070V140 9999 FEW025 BKN060 28/26 Q1007 NOSIG
2026-05-02 10:30:00,METAR VVTS 021030Z VRB01KT 9999 -RA SCT025 BKN060 27/25 Q1007 NOSIG
2026-05-02 10:00:00,METAR VVTS 021000Z 25003KT 200V280 9999 -SHRA VCTS SCT023 FEW027CB BKN058 26/25 Q1007 NOSIG
2026-05-02 09:30:00,METAR VVTS 020930Z COR VRB02KT 7000 SHRA VCTS SCT015 FEW018CB BKN054 25/25 Q1007 NOSIG
2026-05-02 09:00:00,METAR VVTS 020900Z 05018G28KT 3000 TSRA SCT013 FEW015CB 25/25 Q1007 BECMG TL0910 5000 TSRA
2026-05-02 08:30:00,METAR VVTS 020830Z 19006KT 160V220 8000 -TSRA SCT020 FEW023CB BKN044 30/24 Q1007 TEMPO TL0900 04015G25KT 3000 TSRA
2026-05-02 08:00:00,METAR VVTS 020800Z 22010KT 9999 -TSRA SCT023 FEW025CB BKN047 31/24 Q1006 TEMPO TL0835 3000 TSRA
2026-05-02 07:30:00,METAR VVTS 020730Z 19010KT 170V230 8000 -TSRA SCT023 FEW025CB 31/24 Q1006 TEMPO TL0810 20015G26KT 3000 TSRA
2026-05-02 07:00:00,METAR VVTS 020700Z 35005KT 270V040 9999 -TSRA SCT027 FEW030CB 34/23 Q1006 TEMPO FM0720 TL0810 09015G26KT 3000 TSRA
2026-05-02 06:30:00,METAR VVTS 020630Z 35007KT 310V040 9999 SCT027 FEW030CB 35/23 Q1007 TEMPO FM0640 TL0740 09015G26KT 3000 TSRA
2026-05-02 06:00:00,METAR VVTS 020600Z 04008KT 340V060 9999 -SHRA SCT027 FEW030CB 35/23 Q1008 NOSIG
2026-05-02 05:30:00,METAR VVTS 020530Z 05006KT 340V130 9999 SCT027 FEW030TCU 35/23 Q1009 NOSIG
2026-05-02 05:00:00,METAR VVTS 020500Z 07006KT 020V110 9999 SCT030 35/23 Q1009 NOSIG
2026-05-02 04:30:00,METAR VVTS 020430Z VRB06KT 9999 SCT030 35/23 Q1010 NOSIG
2026-05-02 04:00:00,METAR VVTS 020400Z VRB04KT 9999 SCT032 35/23 Q1010 NOSIG
2026-05-02 03:30:00,METAR VVTS 020330Z 08006KT 050V140 CAVOK 34/23 Q1010 NOSIG
2026-05-02 03:00:00,METAR VVTS 020300Z 09007KT CAVOK 34/24 Q1010 NOSIG
2026-05-02 02:30:00,METAR VVTS 020230Z 09008KT 050V140 CAVOK 33/23 Q1010 NOSIG
2026-05-02 02:00:00,METAR VVTS 020200Z 10008KT 050V150 9999 FEW031 33/23 Q1011 NOSIG
2026-05-02 01:30:00,METAR VVTS 020130Z 08007KT 050V120 9999 FEW031 31/23 Q1011 NOSIG
2026-05-02 01:00:00,METAR VVTS 020100Z 13005KT 080V170 CAVOK 31/24 Q1011 NOSIG
2026-05-02 00:30:00,METAR VVTS 020030Z 11006KT 070V150 9999 FEW030 30/25 Q1010 NOSIG
2026-05-02 00:00:00,METAR VVTS 020000Z 12007KT CAVOK 29/24 Q1010 NOSIG
2026-05-01 23:30:00,METAR VVTS 012330Z 11008KT 080V140 CAVOK 29/25 Q1009 NOSIG
2026-05-01 23:00:00,METAR VVTS 012300Z 12007KT 080V140 CAVOK 29/25 Q1009 NOSIG
2026-05-01 22:30:00,METAR VVTS 012230Z 11007KT CAVOK 29/25 Q1009 NOSIG
2026-05-01 22:00:00,METAR VVTS 012200Z 14007KT 110V170 CAVOK 29/25 Q1008 NOSIG
2026-05-01 21:30:00,METAR VVTS 012130Z 14007KT CAVOK 29/25 Q1008 NOSIG
2026-05-01 21:00:00,METAR VVTS 012100Z 15007KT 120V180 CAVOK 29/25 Q1008 NOSIG
2026-05-01 20:30:00,METAR VVTS 012030Z 16008KT CAVOK 29/25 Q1008 NOSIG
2026-05-01 20:00:00,METAR VVTS 012000Z 18008KT CAVOK 29/25 Q1008 NOSIG
2026-05-01 19:30:00,METAR VVTS 011930Z 17008KT CAVOK 29/26 Q1008 NOSIG
2026-05-01 19:00:00,METAR VVTS 011900Z 17005KT 140V210 CAVOK 29/24 Q1008 NOSIG
2026-05-01 18:30:00,METAR VVTS 011830Z 16006KT 130V190 CAVOK 29/24 Q1008 NOSIG
2026-05-01 18:00:00,METAR VVTS 011800Z 14007KT 100V180 CAVOK 29/24 Q1009 NOSIG
2026-05-01 17:30:00,METAR VVTS 011730Z VRB09KT CAVOK 29/25 Q1009 NOSIG
2026-05-01 17:00:00,METAR VVTS 011700Z 14007KT 110V170 CAVOK 29/25 Q1009 NOSIG
2026-05-01 16:30:00,METAR VVTS 011630Z 14009KT 110V170 CAVOK 29/25 Q1010 NOSIG
2026-05-01 16:00:00,METAR VVTS 011600Z 12007KT 090V150 9999 FEW024 29/25 Q1010 NOSIG
2026-05-01 15:30:00,METAR VVTS 011530Z 12009KT 090V160 CAVOK 30/25 Q1010 NOSIG
2026-05-01 15:00:00,METAR VVTS 011500Z 12006KT 100V160 CAVOK 30/24 Q1010 NOSIG
2026-05-01 14:30:00,METAR VVTS 011430Z 13009KT 100V160 CAVOK 30/24 Q1009 NOSIG
2026-05-01 14:00:00,METAR VVTS 011400Z 12011KT CAVOK 30/24 Q1009 NOSIG
2026-05-01 13:30:00,METAR VVTS 011330Z 13009KT 100V160 CAVOK 31/23 Q1008 NOSIG
2026-05-01 13:00:00,METAR VVTS 011300Z 13010KT 080V150 CAVOK 31/23 Q1008 NOSIG
2026-05-01 12:30:00,METAR VVTS 011230Z 14009KT 110V170 CAVOK 31/24 Q1008 NOSIG
2026-05-01 12:00:00,METAR VVTS 011200Z 14011KT CAVOK 31/23 Q1007 NOSIG
2026-05-01 11:30:00,METAR VVTS 011130Z 15011KT 120V180 CAVOK 32/23 Q1007 NOSIG
2026-05-01 11:00:00,METAR VVTS 011100Z 15012KT 130V190 CAVOK 32/23 Q1007 NOSIG
2026-05-01 10:30:00,METAR VVTS 011030Z 16013KT 120V190 CAVOK 32/23 Q1007 NOSIG
2026-05-01 10:00:00,METAR VVTS 011000Z 15013KT 120V180 CAVOK 33/23 Q1006 NOSIG
2026-05-01 09:30:00,METAR VVTS 010930Z 16012KT 130V190 CAVOK 34/23 Q1006 NOSIG
2026-05-01 09:00:00,METAR VVTS 010900Z 17012KT 130V200 CAVOK 35/22 Q1006 NOSIG
2026-05-01 08:30:00,METAR VVTS 010830Z 15011KT 110V180 CAVOK 36/22 Q1006 NOSIG
2026-05-01 08:00:00,METAR VVTS 010800Z 15011KT 120V180 CAVOK 36/22 Q1006 NOSIG
2026-05-01 07:30:00,METAR VVTS 010730Z 17010KT 130V190 9999 FEW036 38/22 Q1006 NOSIG
2026-05-01 07:00:00,METAR VVTS 010700Z 16009KT 120V200 9999 FEW036 37/21 Q1007 NOSIG
2026-05-01 06:30:00,METAR VVTS 010630Z 21008KT 150V240 9999 FEW029 38/20 Q1007 NOSIG
2026-05-01 06:00:00,METAR VVTS 010600Z 09008KT 020V130 9999 FEW030 37/20 Q1008 NOSIG
2026-05-01 05:30:00,METAR VVTS 010530Z 09007KT 040V150 CAVOK 38/20 Q1009 NOSIG
2026-05-01 05:00:00,METAR VVTS 010500Z 08007KT 010V160 9999 FEW030 37/20 Q1009 NOSIG
2026-05-01 04:30:00,METAR VVTS 010430Z VRB05KT CAVOK 36/21 Q1010 NOSIG
2026-05-01 04:00:00,METAR VVTS 010400Z VRB05KT CAVOK 35/21 Q1010 NOSIG
2026-05-01 03:30:00,METAR VVTS 010330Z 06008KT 020V110 CAVOK 35/21 Q1011 NOSIG
2026-05-01 03:00:00,METAR VVTS 010300Z 05008KT 010V080 CAVOK 34/22 Q1011 NOSIG
2026-05-01 02:30:00,METAR VVTS 010230Z 07007KT 010V110 CAVOK 33/22 Q1011 NOSIG
2026-05-01 02:00:00,METAR VVTS 010200Z 05007KT 010V080 CAVOK 33/22 Q1011 NOSIG
2026-05-01 01:30:00,METAR VVTS 010130Z 05009KT CAVOK 32/23 Q1011 NOSIG
2026-05-01 01:00:00,METAR VVTS 010100Z 05005KT 020V090 CAVOK 31/22 Q1011 NOSIG
2026-05-01 00:30:00,METAR VVTS 010030Z 03005KT 360V060 CAVOK 30/22 Q1011 NOSIG
2026-05-01 00:00:00,METAR VVTS 010000Z 05006KT 010V090 CAVOK 29/22 Q1011 NOSIG
2026-04-30 23:30:00,METAR VVTS 302330Z 07005KT 040V100 9999 FEW017 29/22 Q1010 NOSIG
2026-04-30 23:00:00,METAR VVTS 302300Z 05006KT 030V090 9999 FEW018 28/21 Q1010 NOSIG
2026-04-30 22:30:00,METAR VVTS 302230Z 10007KT 9999 FEW017 29/21 Q1009 NOSIG
2026-04-30 22:00:00,METAR VVTS 302200Z 11007KT CAVOK 29/21 Q1009 NOSIG
2026-04-30 21:30:00,METAR VVTS 302130Z 12008KT CAVOK 29/21 Q1009 NOSIG
2026-04-30 21:00:00,METAR VVTS 302100Z 12008G18KT 100V160 CAVOK 29/22 Q1009 NOSIG
2026-04-30 20:30:00,METAR VVTS 302030Z 13009KT CAVOK 29/21 Q1009 NOSIG
2026-04-30 20:00:00,METAR VVTS 302000Z 14009KT 100V180 CAVOK 29/21 Q1008 NOSIG
2026-04-30 19:30:00,METAR VVTS 301930Z 13006KT 090V150 CAVOK 30/21 Q1008 NOSIG
2026-04-30 19:00:00,METAR VVTS 301900Z 14006KT 100V190 CAVOK 29/22 Q1009 NOSIG
2026-04-30 18:30:00,METAR VVTS 301830Z 12007KT 080V150 CAVOK 29/22 Q1009 NOSIG
2026-04-30 18:00:00,METAR VVTS 301800Z 13008KT 110V170 CAVOK 29/22 Q1009 NOSIG
2026-04-30 17:30:00,METAR VVTS 301730Z 14007KT 100V180 CAVOK 30/22 Q1010 NOSIG
2026-04-30 17:00:00,METAR VVTS 301700Z 13008KT 100V160 CAVOK 30/23 Q1010 NOSIG
2026-04-30 16:30:00,METAR VVTS 301630Z 13010KT 090V160 CAVOK 30/23 Q1010 NOSIG
2026-04-30 16:00:00,METAR VVTS 301600Z 14008KT 110V170 CAVOK 30/23 Q1010 NOSIG
2026-04-30 15:00:00,METAR VVTS 301500Z 14007KT 090V170 CAVOK 30/23 Q1010 NOSIG
2026-04-30 14:30:00,METAR VVTS 301430Z 15008KT 120V180 CAVOK 30/23 Q1010 NOSIG
2026-04-30 14:00:00,METAR VVTS 301400Z 15010KT CAVOK 30/23 Q1009 NOSIG
2026-04-30 13:30:00,METAR VVTS 301330Z 15009KT CAVOK 31/22 Q1009 NOSIG
2026-04-30 13:00:00,METAR VVTS 301300Z 15008KT 120V180 CAVOK 31/22 Q1009 NOSIG
2026-04-30 12:30:00,METAR VVTS 301230Z 14010KT 110V170 CAVOK 31/22 Q1009 NOSIG
2026-04-30 12:00:00,METAR VVTS 301200Z 15010KT 100V170 CAVOK 32/22 Q1008 NOSIG
2026-04-30 11:30:00,METAR VVTS 301130Z 16010KT CAVOK 32/22 Q1007 NOSIG
2026-04-30 11:00:00,METAR VVTS 301100Z 17009KT CAVOK 32/22 Q1007 NOSIG
2026-04-30 10:30:00,METAR VVTS 301030Z 17010KT CAVOK 32/22 Q1007 NOSIG
2026-04-30 10:00:00,METAR VVTS 301000Z 17011KT 130V200 CAVOK 33/22 Q1006 NOSIG
2026-04-30 09:30:00,METAR VVTS 300930Z 16011KT 130V200 9999 FEW040 34/22 Q1006 NOSIG
2026-04-30 09:00:00,METAR VVTS 300900Z 15010KT 110V200 9999 FEW026 35/22 Q1006 NOSIG
2026-04-30 08:30:00,METAR VVTS 300830Z 18011KT 130V210 9999 FEW026 35/22 Q1007 NOSIG
2026-04-30 08:00:00,METAR VVTS 300800Z 16009KT 110V200 9999 FEW026 35/23 Q1007 NOSIG
2026-04-30 07:30:00,METAR VVTS 300730Z 16010KT 120V200 9999 FEW026 35/24 Q1007 NOSIG
2026-04-30 07:00:00,METAR VVTS 300700Z 15011KT 110V200 9999 SCT023 FEW025TCU 36/24 Q1008 NOSIG
2026-04-30 06:30:00,METAR VVTS 300630Z 17011KT 130V210 9999 FEW023 SCT048 37/24 Q1008 NOSIG
2026-04-30 06:00:00,METAR VVTS 300600Z 13008KT 090V160 9999 SCT023 BKN047 36/23 Q1009 NOSIG
2026-04-30 05:30:00,METAR VVTS 300530Z 10008KT 060V120 9999 SCT047 35/24 Q1009 NOSIG
2026-04-30 05:00:00,METAR VVTS 300500Z 14006G17KT 060V220 9999 SCT035 35/23 Q1010 NOSIG
2026-04-30 04:30:00,METAR VVTS 300430Z 16006KT 090V220 9999 SCT044 35/24 Q1010 NOSIG
2026-04-30 04:00:00,METAR VVTS 300400Z 08008KT 050V120 9999 SCT040 35/24 Q1010 NOSIG
2026-04-30 03:30:00,METAR VVTS 300330Z 09007KT 020V120 9999 FEW030 SCT035 33/25 Q1011 NOSIG
2026-04-30 03:00:00,METAR VVTS 300300Z 14008KT 100V190 9999 SCT030 33/24 Q1011 NOSIG
2026-04-30 02:30:00,METAR VVTS 300230Z 12008KT 070V180 9999 SCT026 32/25 Q1011 NOSIG
2026-04-30 02:00:00,METAR VVTS 300200Z 11009KT 070V130 9999 SCT024 31/25 Q1011 NOSIG
2026-04-30 01:30:00,METAR VVTS 300130Z 12009KT 080V200 9999 BKN019 31/26 Q1011 NOSIG
2026-04-30 01:00:00,METAR VVTS 300100Z 11009KT 080V150 9999 BKN016 30/26 Q1011 NOSIG
2026-04-30 00:30:00,METAR VVTS 300030Z 09006KT 9999 FEW014 30/26 Q1011 NOSIG
2026-04-30 00:00:00,METAR VVTS 300000Z 06006KT 9999 FEW016 29/27 Q1011 NOSIG
2026-04-29 23:30:00,METAR VVTS 292330Z 10006KT CAVOK 28/26 Q1010 NOSIG
2026-04-29 23:00:00,METAR VVTS 292300Z 12003KT 070V200 9999 FEW041 28/26 Q1010 NOSIG
2026-04-29 22:30:00,METAR VVTS 292230Z 10005KT 080V150 CAVOK 28/26 Q1009 NOSIG
2026-04-29 22:00:00,METAR VVTS 292200Z 09003KT 050V140 9999 FEW013 28/26 Q1009 NOSIG
2026-04-29 21:30:00,METAR VVTS 292130Z 12005KT 9999 FEW017 28/26 Q1009 NOSIG
2026-04-29 21:00:00,METAR VVTS 292100Z 12007KT 070V150 9999 FEW016 28/26 Q1008 NOSIG
2026-04-29 20:30:00,METAR VVTS 292030Z 13007KT 090V150 9999 FEW018 SCT053 28/26 Q1009 NOSIG
2026-04-29 20:00:00,METAR VVTS 292000Z 12008KT CAVOK 29/26 Q1009 NOSIG
2026-04-29 19:30:00,METAR VVTS 291930Z 11005KT CAVOK 29/26 Q1009 NOSIG
2026-04-29 19:00:00,METAR VVTS 291900Z 15006KT CAVOK 29/26 Q1009 NOSIG
2026-04-29 18:30:00,METAR VVTS 291830Z 11005KT 070V150 CAVOK 29/25 Q1010 NOSIG
2026-04-29 18:00:00,METAR VVTS 291800Z 11005KT 080V150 CAVOK 29/25 Q1010 NOSIG
2026-04-29 17:30:00,METAR VVTS 291730Z 10004KT CAVOK 29/24 Q1010 NOSIG
2026-04-29 17:00:00,METAR VVTS 291700Z 11004KT 070V160 CAVOK 29/25 Q1010 NOSIG
2026-04-29 16:30:00,METAR VVTS 291630Z 12005KT 090V150 CAVOK 29/25 Q1010 NOSIG
2026-04-29 16:00:00,METAR VVTS 291600Z 12006KT 080V150 CAVOK 30/24 Q1011 NOSIG
2026-04-29 15:30:00,METAR VVTS 291530Z 12005KT 030V140 CAVOK 30/24 Q1010 NOSIG
2026-04-29 15:00:00,METAR VVTS 291500Z 13007KT 080V160 CAVOK 30/24 Q1010 NOSIG
2026-04-29 14:30:00,METAR VVTS 291430Z 13006KT CAVOK 30/24 Q1010 NOSIG
2026-04-29 14:00:00,METAR VVTS 291400Z 13007KT 080V140 CAVOK 30/24 Q1009 NOSIG
2026-04-29 13:30:00,METAR VVTS 291330Z 12007KT 090V150 CAVOK 31/23 Q1009 NOSIG
2026-04-29 13:00:00,METAR VVTS 291300Z 12007KT CAVOK 31/23 Q1009 NOSIG
2026-04-29 12:30:00,METAR VVTS 291230Z 14006KT CAVOK 32/22 Q1008 NOSIG
2026-04-29 12:00:00,METAR VVTS 291200Z 13005KT CAVOK 32/21 Q1008 NOSIG
2026-04-29 11:30:00,METAR VVTS 291130Z 16009KT CAVOK 32/22 Q1008 NOSIG
2026-04-29 11:00:00,METAR VVTS 291100Z 14010KT CAVOK 33/20 Q1007 NOSIG
2026-04-29 10:30:00,METAR VVTS 291030Z 16010KT CAVOK 33/21 Q1007 NOSIG
2026-04-29 10:00:00,METAR VVTS 291000Z 15011KT 9999 FEW031 34/22 Q1006 NOSIG
2026-04-29 09:30:00,METAR VVTS 290930Z 16010KT 130V190 9999 FEW031 35/23 Q1006 NOSIG
2026-04-29 09:00:00,METAR VVTS 290900Z 16009KT 130V210 9999 FEW029 35/23 Q1006 NOSIG
2026-04-29 08:30:00,METAR VVTS 290830Z 18008KT 140V230 CAVOK 35/23 Q1006 NOSIG
2026-04-29 08:00:00,METAR VVTS 290800Z 17008KT 110V220 9999 SCT027 35/23 Q1006 NOSIG
2026-04-29 07:30:00,METAR VVTS 290730Z 16008KT 130V200 9999 SCT028 36/23 Q1007 NOSIG
2026-04-29 07:00:00,METAR VVTS 290700Z VRB05KT 9999 SCT028 36/23 Q1007 NOSIG
2026-04-29 06:30:00,METAR VVTS 290630Z 17006KT 060V230 9999 SCT057 36/22 Q1007 NOSIG
2026-04-29 06:00:00,METAR VVTS 290600Z 16006KT 120V250 9999 SCT026 35/22 Q1008 NOSIG
2026-04-29 05:30:00,METAR VVTS 290530Z 16009KT 110V190 9999 SCT030 36/22 Q1009 NOSIG
2026-04-29 05:00:00,METAR VVTS 290500Z 11007KT 070V150 9999 FEW049 35/22 Q1010 NOSIG
2026-04-29 04:30:00,METAR VVTS 290430Z 12006KT 060V210 9999 SCT030 34/23 Q1010 NOSIG
2026-04-29 04:00:00,METAR VVTS 290400Z VRB05KT 9999 SCT030 34/23 Q1011 NOSIG
2026-04-29 03:30:00,METAR VVTS 290330Z 12005KT 050V200 9999 SCT030 33/23 Q1011 NOSIG
2026-04-29 03:00:00,METAR VVTS 290300Z VRB05KT 9999 SCT030 33/23 Q1011 NOSIG
2026-04-29 02:30:00,METAR VVTS 290230Z 16005KT 120V270 9999 SCT034 33/23 Q1012 NOSIG
2026-04-29 02:00:00,METAR VVTS 290200Z 16006KT 120V180 9999 FEW029 32/24 Q1012 NOSIG
2026-04-29 01:30:00,METAR VVTS 290130Z 18005KT 120V220 9999 SCT026 31/24 Q1012 NOSIG
2026-04-29 01:00:00,METAR VVTS 290100Z 16005KT 090V190 9999 FEW022 BKN055 31/24 Q1011 NOSIG
2026-04-29 00:30:00,METAR VVTS 290030Z 16004KT 080V200 9999 FEW019 SCT053 30/25 Q1011 NOSIG
2026-04-29 00:00:00,METAR VVTS 290000Z 13004KT 070V190 9999 FEW015 SCT019 29/26 Q1010 NOSIG
2026-04-28 23:30:00,METAR VVTS 282330Z 14005KT 100V170 9999 FEW015 29/26 Q1010 NOSIG
2026-04-28 23:00:00,METAR VVTS 282300Z 17006KT 9999 SCT015 28/26 Q1009 NOSIG
2026-04-28 22:30:00,METAR VVTS 282230Z 15005KT 120V180 9999 FEW014 28/26 Q1009 NOSIG
2026-04-28 22:00:00,METAR VVTS 282200Z 18006KT 9999 SCT016 28/26 Q1008 NOSIG
2026-04-28 21:30:00,METAR VVTS 282130Z 15006KT 9999 FEW017 29/26 Q1008 NOSIG
2026-04-28 21:00:00,METAR VVTS 282100Z 13006KT 9999 FEW016 29/26 Q1007 NOSIG
2026-04-28 20:30:00,METAR VVTS 282030Z 13006KT 9999 FEW017 29/26 Q1007 NOSIG
2026-04-28 20:00:00,METAR VVTS 282000Z 15005KT 110V200 9999 FEW018 29/26 Q1008 NOSIG
2026-04-28 19:30:00,METAR VVTS 281930Z VRB05KT 9999 FEW018 29/26 Q1008 NOSIG
2026-04-28 19:00:00,METAR VVTS 281900Z 16004KT 120V180 9999 FEW019 29/26 Q1008 NOSIG
2026-04-28 18:30:00,METAR VVTS 281830Z 13005KT 090V170 9999 FEW018 SCT055 29/26 Q1008 NOSIG
2026-04-28 18:00:00,METAR VVTS 281800Z 11007KT 9999 SCT020 BKN054 29/26 Q1008 NOSIG
2026-04-28 17:30:00,METAR VVTS 281730Z 11006KT 9999 BKN021 29/26 Q1009 NOSIG
2026-04-28 17:00:00,METAR VVTS 281700Z 13006KT 9999 FEW020 29/26 Q1009 NOSIG
2026-04-28 16:30:00,METAR VVTS 281630Z 15008KT 9999 FEW020 29/25 Q1009 NOSIG
2026-04-28 16:00:00,METAR VVTS 281600Z 15008KT 100V190 9999 FEW021 29/25 Q1009 NOSIG
2026-04-28 15:30:00,METAR VVTS 281530Z 14008KT 110V180 CAVOK 29/25 Q1009 NOSIG
2026-04-28 15:00:00,METAR VVTS 281500Z 14007KT 100V190 CAVOK 30/25 Q1009 NOSIG
2026-04-28 14:30:00,METAR VVTS 281430Z 15007KT 130V190 CAVOK 30/25 Q1009 NOSIG
2026-04-28 14:00:00,METAR VVTS 281400Z 16009KT CAVOK 30/25 Q1009 NOSIG
2026-04-28 13:30:00,METAR VVTS 281330Z 12009KT 090V160 CAVOK 30/25 Q1009 NOSIG
2026-04-28 13:00:00,METAR VVTS 281300Z 16009KT 090V180 CAVOK 30/25 Q1008 NOSIG
2026-04-28 12:30:00,METAR VVTS 281230Z 15008KT 120V190 CAVOK 30/24 Q1008 NOSIG
2026-04-28 12:00:00,METAR VVTS 281200Z 14008KT CAVOK 31/23 Q1008 NOSIG
2026-04-28 11:30:00,METAR VVTS 281130Z 14011KT 100V160 CAVOK 31/23 Q1007 NOSIG
2026-04-28 11:00:00,METAR VVTS 281100Z 15010KT CAVOK 32/24 Q1007 NOSIG
2026-04-28 10:30:00,METAR VVTS 281030Z 17009KT 120V200 9999 FEW025 32/23 Q1006 NOSIG
2026-04-28 10:00:00,METAR VVTS 281000Z 17012KT 9999 FEW025 33/21 Q1006 NOSIG
2026-04-28 09:30:00,METAR VVTS 280930Z 18011KT CAVOK 34/23 Q1005 NOSIG
2026-04-28 09:00:00,METAR VVTS 280900Z 18011KT 150V210 CAVOK 34/24 Q1005 NOSIG
2026-04-28 08:30:00,METAR VVTS 280830Z 17011KT 9999 FEW025 SCT044 35/24 Q1005 NOSIG
2026-04-28 08:00:00,METAR VVTS 280800Z 16010KT 130V200 9999 FEW025 35/24 Q1005 NOSIG
2026-04-28 07:30:00,METAR VVTS 280730Z 18011KT 140V230 9999 SCT026 SCT045 36/25 Q1006 NOSIG
2026-04-28 07:00:00,METAR VVTS 280700Z 16009KT 110V200 9999 SCT026 SCT045 36/24 Q1006 NOSIG
2026-04-28 06:30:00,METAR VVTS 280630Z 15008KT 090V220 9999 SCT025 35/24 Q1007 NOSIG
2026-04-28 06:00:00,METAR VVTS 280600Z 19008KT 150V230 9999 SCT025 BKN043 35/24 Q1007 NOSIG
2026-04-28 05:30:00,METAR VVTS 280530Z 15007KT 090V210 9999 BKN044 35/24 Q1008 NOSIG
2026-04-28 05:00:00,METAR VVTS 280500Z 17008KT 120V220 9999 SCT035 35/24 Q1009 NOSIG
2026-04-28 04:30:00,METAR VVTS 280430Z 13006G16KT 060V200 9999 SCT040 BKN045 34/24 Q1009 NOSIG
2026-04-28 04:00:00,METAR VVTS 280400Z 18007G17KT 120V200 9999 SCT039 33/24 Q1009 NOSIG
2026-04-28 03:30:00,METAR VVTS 280330Z 15006KT 080V220 9999 FEW037 SCT050 34/24 Q1010 NOSIG
2026-04-28 03:00:00,METAR VVTS 280300Z 13006KT 090V200 9999 FEW033 SCT039 34/24 Q1010 NOSIG
2026-04-28 02:30:00,METAR VVTS 280230Z 15009KT 120V180 9999 SCT027 BKN061 34/25 Q1010 NOSIG
2026-04-28 02:00:00,METAR VVTS 280200Z 14008KT 100V170 9999 FEW024 32/25 Q1010 NOSIG
2026-04-28 01:30:00,METAR VVTS 280130Z 12009KT 9999 FEW022 31/26 Q1010 NOSIG
2026-04-28 01:00:00,METAR VVTS 280100Z 14007KT 080V170 9999 FEW019 31/26 Q1010 NOSIG
2026-04-28 00:30:00,METAR VVTS 280030Z 15008KT 090V170 9999 SCT016 30/26 Q1010 NOSIG
2026-04-28 00:00:00,METAR VVTS 280000Z 16006KT 100V210 9999 SCT016 30/26 Q1010 NOSIG
2026-04-27 23:30:00,METAR VVTS 272330Z 16006KT 130V200 9999 SCT016 29/26 Q1009 NOSIG
2026-04-27 23:00:00,METAR VVTS 272300Z 14005KT 110V170 9999 SCT016 FEW020TCU 29/26 Q1009 NOSIG
2026-04-27 22:30:00,METAR VVTS 272230Z 17005KT 140V200 9999 FEW016 BKN099 29/26 Q1009 NOSIG
2026-04-27 22:00:00,METAR VVTS 272200Z 16007KT 9999 FEW014 29/26 Q1008 NOSIG
2026-04-27 21:30:00,METAR VVTS 272130Z 17006KT 9999 SCT016 29/26 Q1008 NOSIG
2026-04-27 21:00:00,METAR VVTS 272100Z 16006KT 130V190 9999 FEW015 29/26 Q1008 NOSIG
2026-04-27 20:30:00,METAR VVTS 272030Z 15006KT 120V180 9999 FEW014 BKN067 29/27 Q1008 NOSIG
2026-04-27 20:00:00,METAR VVTS 272000Z 14006KT 110V170 9999 FEW017 BKN064 29/26 Q1008 NOSIG
2026-04-27 19:30:00,METAR VVTS 271930Z 12006KT 9999 FEW014 BKN061 29/27 Q1008 NOSIG
2026-04-27 19:00:00,METAR VVTS 271900Z 12007KT 080V140 9999 SCT014 BKN017 29/27 Q1008 NOSIG
2026-04-27 18:30:00,METAR VVTS 271830Z 12008KT 9999 FEW014 SCT016 29/27 Q1008 NOSIG
2026-04-27 18:00:00,METAR VVTS 271800Z 13010KT 9999 FEW016 29/26 Q1008 NOSIG
2026-04-27 17:30:00,METAR VVTS 271730Z 13008KT 9999 FEW016 29/27 Q1009 NOSIG
2026-04-27 17:00:00,METAR VVTS 271700Z 13009KT 9999 FEW015 29/27 Q1009 NOSIG
2026-04-27 16:30:00,METAR VVTS 271630Z 13009KT 9999 FEW018 29/27 Q1009 NOSIG
2026-04-27 16:00:00,METAR VVTS 271600Z 14010KT 110V170 9999 FEW018 29/26 Q1009 NOSIG
2026-04-27 15:30:00,METAR VVTS 271530Z 14010KT 060V160 9999 FEW018 29/26 Q1009 NOSIG
2026-04-27 15:00:00,METAR VVTS 271500Z 14009KT 110V170 9999 FEW019 30/26 Q1009 NOSIG
2026-04-27 14:30:00,METAR VVTS 271430Z 15006KT 120V180 CAVOK 30/26 Q1009 NOSIG
2026-04-27 14:00:00,METAR VVTS 271400Z 16008KT 120V190 CAVOK 30/26 Q1008 NOSIG
2026-04-27 13:30:00,METAR VVTS 271330Z 17009KT 130V190 CAVOK 30/25 Q1008 NOSIG
2026-04-27 13:00:00,METAR VVTS 271300Z 17009KT 130V250 CAVOK 31/24 Q1008 NOSIG
2026-04-27 12:30:00,METAR VVTS 271230Z 16010KT CAVOK 31/24 Q1007 NOSIG
2026-04-27 12:00:00,METAR VVTS 271200Z 17009KT CAVOK 31/24 Q1007 NOSIG
2026-04-27 11:30:00,METAR VVTS 271130Z 15010KT CAVOK 31/24 Q1007 NOSIG
2026-04-27 11:00:00,METAR VVTS 271100Z 18011KT 130V190 CAVOK 32/23 Q1006 NOSIG
2026-04-27 10:30:00,METAR VVTS 271030Z 17010KT 150V210 CAVOK 33/23 Q1006 NOSIG
2026-04-27 10:00:00,METAR VVTS 271000Z 18013KT 150V210 CAVOK 33/23 Q1005 NOSIG
2026-04-27 09:30:00,METAR VVTS 270930Z 17010KT 140V200 CAVOK 34/22 Q1005 NOSIG
2026-04-27 09:00:00,METAR VVTS 270900Z 16011KT 130V190 CAVOK 35/22 Q1005 NOSIG
2026-04-27 08:30:00,METAR VVTS 270830Z 16010KT 130V210 CAVOK 35/23 Q1006 NOSIG
2026-04-27 08:00:00,METAR VVTS 270800Z 17010KT 120V230 CAVOK 35/23 Q1006 NOSIG
2026-04-27 07:30:00,METAR VVTS 270730Z 15011KT 110V170 CAVOK 36/23 Q1006 NOSIG
2026-04-27 07:00:00,METAR VVTS 270700Z 16012KT 110V200 9999 SCT030 36/23 Q1006 NOSIG
2026-04-27 06:30:00,METAR VVTS 270630Z 16009KT 110V230 9999 SCT031 36/22 Q1007 NOSIG
2026-04-27 06:00:00,METAR VVTS 270600Z 13007KT 030V190 CAVOK 36/22 Q1007 NOSIG
2026-04-27 05:30:00,METAR VVTS 270530Z VRB05KT CAVOK 35/22 Q1008 NOSIG
2026-04-27 05:00:00,METAR VVTS 270500Z 16008KT 130V190 CAVOK 35/22 Q1009 NOSIG
2026-04-27 04:30:00,METAR VVTS 270430Z 13009KT 110V180 9999 FEW049 35/22 Q1009 NOSIG
2026-04-27 04:00:00,METAR VVTS 270400Z 15009G20KT 080V190 9999 FEW049 35/23 Q1010 NOSIG
2026-04-27 03:30:00,METAR VVTS 270330Z 14009KT 070V180 CAVOK 34/23 Q1010 NOSIG
2026-04-27 03:00:00,METAR VVTS 270300Z 11009KT 070V160 CAVOK 33/23 Q1010 NOSIG
2026-04-27 02:30:00,METAR VVTS 270230Z 12010KT 080V160 CAVOK 33/23 Q1011 NOSIG
2026-04-27 02:00:00,METAR VVTS 270200Z 10012KT CAVOK 32/24 Q1011 NOSIG
2026-04-27 01:30:00,METAR VVTS 270130Z 12011KT 090V160 CAVOK 31/24 Q1011 NOSIG
2026-04-27 01:00:00,METAR VVTS 270100Z 11011KT CAVOK 30/24 Q1011 NOSIG
2026-04-27 00:30:00,METAR VVTS 270030Z 11011KT 080V140 CAVOK 29/24 Q1010 NOSIG
2026-04-27 00:00:00,METAR VVTS 270000Z 12010KT 090V150 CAVOK 29/25 Q1010 NOSIG
2026-04-26 23:30:00,METAR VVTS 262330Z 13009KT CAVOK 28/25 Q1009 NOSIG
2026-04-26 23:00:00,METAR VVTS 262300Z 12009KT CAVOK 28/25 Q1009 NOSIG
2026-04-26 22:30:00,METAR VVTS 262230Z 12007KT CAVOK 28/25 Q1009 NOSIG
2026-04-26 22:00:00,METAR VVTS 262200Z 11011KT 9999 FEW016 27/25 Q1008 NOSIG
2026-04-26 21:30:00,METAR VVTS 262130Z 12009KT 9999 FEW018 27/25 Q1008 NOSIG
2026-04-26 21:00:00,METAR VVTS 262100Z 12008KT 9999 FEW019 28/25 Q1008 NOSIG
2026-04-26 20:30:00,METAR VVTS 262030Z 11007KT 080V150 CAVOK 28/25 Q1008 NOSIG
2026-04-26 20:00:00,METAR VVTS 262000Z 12007KT 090V160 CAVOK 28/25 Q1008 NOSIG
2026-04-26 19:30:00,METAR VVTS 261930Z 12006KT CAVOK 28/25 Q1008 NOSIG
2026-04-26 19:00:00,METAR VVTS 261900Z 12009KT 090V160 CAVOK 28/25 Q1008 NOSIG
2026-04-26 18:30:00,METAR VVTS 261830Z 13011KT 100V160 CAVOK 28/25 Q1008 NOSIG
2026-04-26 18:00:00,METAR VVTS 261800Z 12009KT 050V150 CAVOK 28/25 Q1008 NOSIG
2026-04-26 17:30:00,METAR VVTS 261730Z 12011KT CAVOK 28/25 Q1009 NOSIG
2026-04-26 17:00:00,METAR VVTS 261700Z 12008KT 090V160 CAVOK 28/25 Q1009 NOSIG
2026-04-26 16:30:00,METAR VVTS 261630Z 13010KT CAVOK 29/26 Q1009 NOSIG
2026-04-26 16:00:00,METAR VVTS 261600Z 12010KT CAVOK 29/25 Q1009 NOSIG
2026-04-26 15:30:00,METAR VVTS 261530Z 13012KT 090V150 CAVOK 29/25 Q1010 NOSIG
2026-04-26 15:00:00,METAR VVTS 261500Z 11007KT CAVOK 30/24 Q1010 NOSIG
2026-04-26 14:30:00,METAR VVTS 261430Z 11008KT 060V130 CAVOK 30/24 Q1009 NOSIG
2026-04-26 14:00:00,METAR VVTS 261400Z 12009KT CAVOK 30/24 Q1009 NOSIG
2026-04-26 13:30:00,METAR VVTS 261330Z 15005KT 060V190 CAVOK 31/24 Q1009 NOSIG
2026-04-26 13:00:00,METAR VVTS 261300Z 17008KT 140V200 CAVOK 31/24 Q1009 NOSIG
2026-04-26 12:30:00,METAR VVTS 261230Z 16009KT 130V190 CAVOK 31/23 Q1008 NOSIG
2026-04-26 12:00:00,METAR VVTS 261200Z 17010KT CAVOK 31/23 Q1008 NOSIG
2026-04-26 11:30:00,METAR VVTS 261130Z 17011KT CAVOK 32/23 Q1007 NOSIG
2026-04-26 11:00:00,METAR VVTS 261100Z 16010KT CAVOK 32/22 Q1007 NOSIG
2026-04-26 10:30:00,METAR VVTS 261030Z 16011KT 9999 SCT025 FEW030CB 33/22 Q1006 NOSIG
2026-04-26 10:00:00,METAR VVTS 261000Z 16011KT 130V190 9999 SCT027 FEW030CB 34/22 Q1006 NOSIG
2026-04-26 09:30:00,METAR VVTS 260930Z 18011KT 9999 SCT030 FEW033CB 34/23 Q1006 NOSIG
2026-04-26 09:00:00,METAR VVTS 260900Z 15009KT 120V180 9999 SCT029 FEW033CB 35/22 Q1006 NOSIG
2026-04-26 08:30:00,METAR VVTS 260830Z 16009KT 130V190 9999 SCT033 35/22 Q1006 NOSIG
2026-04-26 08:00:00,METAR VVTS 260800Z 16005KT 070V210 9999 SCT029 35/22 Q1007 NOSIG
2026-04-26 07:30:00,METAR VVTS 260730Z 19005KT 120V260 9999 SCT026 SCT064 36/21 Q1007 NOSIG
2026-04-26 07:00:00,METAR VVTS 260700Z VRB04KT 9999 SCT035 36/21 Q1007 NOSIG
2026-04-26 06:30:00,METAR VVTS 260630Z VRB05KT CAVOK 36/21 Q1007 NOSIG
2026-04-26 06:00:00,METAR VVTS 260600Z 14005KT 060V230 9999 SCT028 SCT062 36/21 Q1008 NOSIG
2026-04-26 05:30:00,METAR VVTS 260530Z VRB06KT 9999 SCT025 35/21 Q1009 NOSIG
2026-04-26 05:00:00,METAR VVTS 260500Z 15007KT 090V210 9999 SCT025 35/21 Q1009 NOSIG
2026-04-26 04:30:00,METAR VVTS 260430Z VRB06KT 9999 FEW025 35/21 Q1010 NOSIG
2026-04-26 04:00:00,METAR VVTS 260400Z 12008KT 080V160 9999 FEW025 34/22 Q1010 NOSIG
2026-04-26 03:30:00,METAR VVTS 260330Z 12010KT 090V180 9999 FEW025 33/22 Q1010 NOSIG
2026-04-26 03:00:00,METAR VVTS 260300Z 10010KT 070V130 9999 FEW025 33/22 Q1011 NOSIG
2026-04-26 02:30:00,METAR VVTS 260230Z 09013KT 060V120 CAVOK 32/22 Q1011 NOSIG
2026-04-26 02:00:00,METAR VVTS 260200Z 09010KT CAVOK 31/22 Q1012 NOSIG
2026-04-26 01:30:00,METAR VVTS 260130Z 09009KT CAVOK 30/24 Q1012 NOSIG
2026-04-26 01:00:00,METAR VVTS 260100Z 10008KT 050V130 CAVOK 30/24 Q1012 NOSIG
2026-04-26 00:30:00,METAR VVTS 260030Z 07008KT 040V100 CAVOK 29/24 Q1012 NOSIG
2026-04-26 00:00:00,METAR VVTS 260000Z 08008KT CAVOK 28/24 Q1011 NOSIG
2026-04-25 23:30:00,METAR VVTS 252330Z 10007KT CAVOK 28/24 Q1011 NOSIG
2026-04-25 23:00:00,METAR VVTS 252300Z 09007KT 070V130 CAVOK 28/24 Q1010 NOSIG
2026-04-25 22:30:00,METAR VVTS 252230Z 08007KT CAVOK 27/24 Q1010 NOSIG
2026-04-25 22:00:00,METAR VVTS 252200Z 08006KT CAVOK 27/24 Q1010 NOSIG
2026-04-25 21:30:00,METAR VVTS 252130Z 09005KT CAVOK 27/24 Q1009 NOSIG
2026-04-25 21:00:00,METAR VVTS 252100Z 11006KT CAVOK 28/24 Q1009 NOSIG
2026-04-25 20:30:00,METAR VVTS 252030Z 12008KT 090V160 CAVOK 28/24 Q1009 NOSIG
2026-04-25 20:00:00,METAR VVTS 252000Z 12010KT 9999 FEW023 28/24 Q1009 NOSIG
2026-04-25 19:30:00,METAR VVTS 251930Z 12010KT 9999 FEW023 28/24 Q1009 NOSIG
2026-04-25 19:00:00,METAR VVTS 251900Z 12009KT 9999 SCT024 29/24 Q1009 NOSIG
2026-04-25 18:30:00,METAR VVTS 251830Z 13009KT 9999 SCT025 BKN081 29/24 Q1009 NOSIG
2026-04-25 18:00:00,METAR VVTS 251800Z 11009KT 080V140 9999 SCT026 BKN077 29/24 Q1010 NOSIG
2026-04-25 17:30:00,METAR VVTS 251730Z 12008KT 040V150 9999 SCT027 BKN076 29/24 Q1010 NOSIG
2026-04-25 17:00:00,METAR VVTS 251700Z 14007KT 060V180 9999 SCT026 BKN076 29/24 Q1010 NOSIG
2026-04-25 16:30:00,METAR VVTS 251630Z 12008KT 9999 FEW026 29/24 Q1011 NOSIG
2026-04-25 16:00:00,METAR VVTS 251600Z 13010KT 110V170 9999 FEW026 29/24 Q1011 NOSIG
2026-04-25 15:30:00,METAR VVTS 251530Z 14010KT 9999 FEW025 SCT085 29/24 Q1011 NOSIG
2026-04-25 15:00:00,METAR VVTS 251500Z 14010KT 110V170 9999 FEW028 SCT080 30/24 Q1011 NOSIG
2026-04-25 14:30:00,METAR VVTS 251430Z 13009KT 100V180 CAVOK 30/24 Q1011 NOSIG
2026-04-25 14:00:00,METAR VVTS 251400Z 13009KT 090V170 CAVOK 30/23 Q1011 NOSIG
2026-04-25 13:30:00,METAR VVTS 251330Z 14007KT 100V180 CAVOK 30/23 Q1010 NOSIG
2026-04-25 13:00:00,METAR VVTS 251300Z 16009KT 130V190 CAVOK 30/23 Q1010 NOSIG
2026-04-25 12:30:00,METAR VVTS 251230Z 16011KT 090V170 CAVOK 30/24 Q1009 NOSIG
2026-04-25 12:00:00,METAR VVTS 251200Z 15010KT 110V180 CAVOK 31/24 Q1009 NOSIG
2026-04-25 11:30:00,METAR VVTS 251130Z 14009KT 110V170 CAVOK 31/24 Q1009 NOSIG
2026-04-25 11:00:00,METAR VVTS 251100Z 16010KT 9999 FEW024 SCT056 31/23 Q1008 NOSIG
2026-04-25 10:30:00,METAR VVTS 251030Z 15008KT 110V200 9999 FEW023 BKN058 32/22 Q1008 NOSIG
2026-04-25 10:00:00,METAR VVTS 251000Z 15008KT 120V190 9999 SCT021 FEW025CB BKN058 32/23 Q1008 NOSIG
2026-04-25 09:30:00,METAR VVTS 250930Z 18009KT 9999 FEW027 SCT060 33/22 Q1007 NOSIG
2026-04-25 09:00:00,METAR VVTS 250900Z 16010KT 130V200 9999 FEW025 33/22 Q1007 NOSIG
2026-04-25 08:30:00,METAR VVTS 250830Z 18009KT 130V210 9999 FEW023 SCT055 33/23 Q1007 NOSIG
2026-04-25 08:00:00,METAR VVTS 250800Z 16008KT 130V220 9999 FEW023 SCT054 34/24 Q1008 NOSIG
2026-04-25 07:30:00,METAR VVTS 250730Z 17010KT 150V300 9999 FEW023 BKN051 33/23 Q1007 NOSIG
2026-04-25 07:00:00,METAR VVTS 250700Z 17008KT 140V220 9999 FEW023 BKN042 34/23 Q1008 NOSIG
2026-04-25 06:30:00,METAR VVTS 250630Z 18010KT 140V220 9999 SCT038 34/24 Q1008 NOSIG
2026-04-25 06:00:00,METAR VVTS 250600Z 14007KT 100V170 9999 SCT038 33/24 Q1009 NOSIG
2026-04-25 05:30:00,METAR VVTS 250530Z 15010KT 120V200 9999 SCT026 33/24 Q1009 NOSIG
2026-04-25 05:00:00,METAR VVTS 250500Z 14008KT 110V170 9999 SCT027 FEW030TCU 33/24 Q1010 NOSIG
2026-04-25 04:30:00,METAR VVTS 250430Z 14007KT 110V200 9999 BKN031 33/24 Q1011 NOSIG
2026-04-25 04:00:00,METAR VVTS 250400Z 18008KT 120V210 9999 BKN037 33/24 Q1011 NOSIG
2026-04-25 03:30:00,METAR VVTS 250330Z 14009KT 110V170 9999 SCT023 BKN040 32/24 Q1011 NOSIG
2026-04-25 03:00:00,METAR VVTS 250300Z 15010KT 110V170 9999 BKN033 33/24 Q1011 NOSIG
2026-04-25 02:30:00,METAR VVTS 250230Z 11011KT 080V150 9999 SCT032 32/24 Q1011 NOSIG
2026-04-25 02:00:00,METAR VVTS 250200Z 11012KT CAVOK 31/24 Q1011 NOSIG
2026-04-25 01:30:00,METAR VVTS 250130Z 12009KT 090V150 CAVOK 31/24 Q1012 NOSIG
2026-04-25 01:00:00,METAR VVTS 250100Z 12010KT 090V160 CAVOK 30/24 Q1011 NOSIG
2026-04-25 00:30:00,METAR VVTS 250030Z 12008KT CAVOK 29/25 Q1011 NOSIG
2026-04-25 00:00:00,METAR VVTS 250000Z 11008KT 080V140 CAVOK 29/24 Q1011 NOSIG
2026-04-24 23:30:00,METAR VVTS 242330Z 11006KT CAVOK 28/25 Q1010 NOSIG
2026-04-24 23:00:00,METAR VVTS 242300Z 12007KT 070V150 CAVOK 28/25 Q1010 NOSIG
2026-04-24 22:30:00,METAR VVTS 242230Z 12007KT CAVOK 28/25 Q1009 NOSIG
2026-04-24 22:00:00,METAR VVTS 242200Z 12007KT CAVOK 28/25 Q1009 NOSIG
2026-04-24 21:30:00,METAR VVTS 242130Z 11007KT CAVOK 28/25 Q1009 NOSIG
2026-04-24 21:00:00,METAR VVTS 242100Z 11006KT CAVOK 28/25 Q1008 NOSIG
2026-04-24 20:30:00,METAR VVTS 242030Z 10006KT 9999 FEW018 28/25 Q1008 NOSIG
2026-04-24 20:00:00,METAR VVTS 242000Z 13006KT 080V160 9999 FEW018 28/25 Q1008 NOSIG
2026-04-24 19:30:00,METAR VVTS 241930Z 14008KT 120V180 9999 FEW020 28/25 Q1008 NOSIG
2026-04-24 19:00:00,METAR VVTS 241900Z 14007KT 9999 FEW020 28/25 Q1009 NOSIG
2026-04-24 18:30:00,METAR VVTS 241830Z 15006KT 100V190 9999 FEW021 28/25 Q1009 NOSIG
2026-04-24 18:00:00,METAR VVTS 241800Z 15006KT 110V190 9999 FEW021 29/25 Q1009 NOSIG
2026-04-24 17:30:00,METAR VVTS 241730Z 15008KT 070V200 9999 FEW021 29/25 Q1009 NOSIG
2026-04-24 17:00:00,METAR VVTS 241700Z 16008KT 100V180 9999 FEW021 29/24 Q1010 NOSIG
2026-04-24 16:30:00,METAR VVTS 241630Z 16008KT CAVOK 29/24 Q1010 NOSIG
2026-04-24 16:00:00,METAR VVTS 241600Z 16008KT CAVOK 29/25 Q1010 NOSIG
2026-04-24 15:30:00,METAR VVTS 241530Z 13006KT 090V170 9999 FEW023 29/25 Q1010 NOSIG
2026-04-24 15:00:00,METAR VVTS 241500Z 15009KT 090V170 9999 FEW023 29/24 Q1010 NOSIG
2026-04-24 14:30:00,METAR VVTS 241430Z 13006KT 100V190 CAVOK 29/24 Q1010 NOSIG
2026-04-24 14:00:00,METAR VVTS 241400Z 14010KT CAVOK 29/24 Q1009 NOSIG
2026-04-24 13:30:00,METAR VVTS 241330Z 16009G25KT 120V180 CAVOK 29/24 Q1009 NOSIG
2026-04-24 13:00:00,METAR VVTS 241300Z 15007KT CAVOK 29/24 Q1009 NOSIG
2026-04-24 12:30:00,METAR VVTS 241230Z 14008KT 120V180 CAVOK 29/24 Q1008 NOSIG
2026-04-24 12:00:00,METAR VVTS 241200Z 14009KT CAVOK 30/23 Q1008 NOSIG
2026-04-24 11:30:00,METAR VVTS 241130Z 16008KT 120V200 CAVOK 31/22 Q1008 NOSIG
2026-04-24 11:00:00,METAR VVTS 241100Z 16010KT CAVOK 31/21 Q1007 NOSIG
2026-04-24 10:30:00,METAR VVTS 241030Z 16010KT CAVOK 32/21 Q1007 NOSIG
2026-04-24 10:00:00,METAR VVTS 241000Z 17010KT 140V200 9999 FEW013 34/19 Q1006 NOSIG
2026-04-24 09:30:00,METAR VVTS 240930Z 18010KT 130V200 CAVOK 34/18 Q1006 NOSIG
2026-04-24 09:00:00,METAR VVTS 240900Z 17009KT 130V210 CAVOK 34/18 Q1006 NOSIG
2026-04-24 08:30:00,METAR VVTS 240830Z 18011KT 140V230 9999 FEW003 34/21 Q1006 NOSIG
2026-04-24 08:00:00,METAR VVTS 240800Z 17008KT 140V220 CAVOK 34/22 Q1006 NOSIG
2026-04-24 07:30:00,METAR VVTS 240730Z 17009KT 130V220 CAVOK 34/22 Q1006 NOSIG
2026-04-24 07:00:00,METAR VVTS 240700Z 15007KT 120V210 CAVOK 35/22 Q1007 NOSIG
2026-04-24 06:30:00,METAR VVTS 240630Z 17010KT 100V240 CAVOK 35/22 Q1007 NOSIG
2026-04-24 06:00:00,METAR VVTS 240600Z 12008KT 080V150 CAVOK 35/21 Q1007 NOSIG
2026-04-24 05:30:00,METAR VVTS 240530Z 18010KT CAVOK 35/22 Q1008 NOSIG
2026-04-24 05:00:00,METAR VVTS 240500Z 19006KT 130V250 CAVOK 35/22 Q1008 NOSIG
2026-04-24 04:30:00,METAR VVTS 240430Z 13007KT 090V180 CAVOK 34/21 Q1009 NOSIG
2026-04-24 04:00:00,METAR VVTS 240400Z 10008KT 070V180 CAVOK 34/22 Q1009 NOSIG
2026-04-24 03:30:00,METAR VVTS 240330Z 16007KT 100V190 9999 FEW035 33/22 Q1009 NOSIG
2026-04-24 03:00:00,METAR VVTS 240300Z 17007KT 130V230 9999 FEW035 33/23 Q1010 NOSIG
2026-04-24 02:30:00,METAR VVTS 240230Z 15006KT 110V190 9999 FEW033 31/23 Q1010 NOSIG
2026-04-24 02:00:00,METAR VVTS 240200Z VRB05KT 9999 FEW029 31/24 Q1010 NOSIG
2026-04-24 01:30:00,METAR VVTS 240130Z 12005KT 040V200 9999 FEW026 30/23 Q1010 NOSIG
2026-04-24 01:00:00,METAR VVTS 240100Z VRB04KT 9999 SCT019 SCT022 BKN026 30/24 Q1010 NOSIG
2026-04-24 00:30:00,METAR VVTS 240030Z 17004KT 100V220 9999 SCT019 BKN025 29/24 Q1009 NOSIG
2026-04-24 00:00:00,METAR VVTS 240000Z VRB03KT 9999 BKN019 28/24 Q1009 NOSIG
2026-04-23 23:30:00,METAR VVTS 232330Z 12003KT 080V170 9999 SCT020 28/25 Q1009 NOSIG
2026-04-23 23:00:00,METAR VVTS 232300Z 00000KT 9999 BKN020 27/25 Q1008 NOSIG
2026-04-23 22:30:00,METAR VVTS 232230Z VRB03KT 9999 SCT019 27/25 Q1008 NOSIG
2026-04-23 22:00:00,METAR VVTS 232200Z VRB02KT 9999 FEW019 27/25 Q1008 NOSIG
2026-04-23 21:30:00,METAR VVTS 232130Z 17006KT CAVOK 27/25 Q1007 NOSIG
2026-04-23 21:00:00,METAR VVTS 232100Z 17006KT CAVOK 27/25 Q1007 NOSIG
2026-04-23 20:30:00,METAR VVTS 232030Z 16005KT CAVOK 27/25 Q1007 NOSIG
2026-04-23 20:00:00,METAR VVTS 232000Z 17007KT CAVOK 28/25 Q1007 NOSIG
2026-04-23 19:30:00,METAR VVTS 231930Z 16005KT 140V200 CAVOK 28/25 Q1007 NOSIG
2026-04-23 19:00:00,METAR VVTS 231900Z 16007KT CAVOK 28/24 Q1007 NOSIG
2026-04-23 18:30:00,METAR VVTS 231830Z 17007KT CAVOK 28/24 Q1007 NOSIG
2026-04-23 18:00:00,METAR VVTS 231800Z 17008KT CAVOK 28/24 Q1008 NOSIG
2026-04-23 17:30:00,METAR VVTS 231730Z 17005KT 130V200 CAVOK 28/23 Q1008 NOSIG
2026-04-23 17:00:00,METAR VVTS 231700Z 17006KT CAVOK 29/23 Q1009 NOSIG
2026-04-23 16:30:00,METAR VVTS 231630Z 17007KT 150V210 CAVOK 29/23 Q1009 NOSIG
2026-04-23 16:00:00,METAR VVTS 231600Z 16006KT 130V210 CAVOK 29/23 Q1009 NOSIG
2026-04-23 15:30:00,METAR VVTS 231530Z 16007KT 130V190 CAVOK 29/23 Q1009 NOSIG
2026-04-23 15:00:00,METAR VVTS 231500Z 16006KT 130V190 CAVOK 29/23 Q1009 NOSIG
2026-04-23 14:30:00,METAR VVTS 231430Z 17008KT CAVOK 29/23 Q1009 NOSIG
2026-04-23 14:00:00,METAR VVTS 231400Z 17007KT 140V200 CAVOK 29/23 Q1009 NOSIG
2026-04-23 13:30:00,METAR VVTS 231330Z 17009KT CAVOK 30/23 Q1008 NOSIG
2026-04-23 13:00:00,METAR VVTS 231300Z 15007KT 120V180 CAVOK 30/23 Q1008 NOSIG
2026-04-23 12:30:00,METAR VVTS 231230Z 16008KT CAVOK 30/23 Q1007 NOSIG
2026-04-23 12:00:00,METAR VVTS 231200Z 15008KT CAVOK 30/23 Q1007 NOSIG
2026-04-23 11:30:00,METAR VVTS 231130Z 16009KT CAVOK 31/23 Q1006 NOSIG
2026-04-23 11:00:00,METAR VVTS 231100Z 17009KT CAVOK 31/23 Q1006 NOSIG
2026-04-23 10:30:00,METAR VVTS 231030Z 16009KT CAVOK 32/22 Q1006 NOSIG
2026-04-23 10:00:00,METAR VVTS 231000Z 16010KT CAVOK 32/22 Q1006 NOSIG
2026-04-23 09:30:00,METAR VVTS 230930Z 16008KT 120V200 CAVOK 33/22 Q1005 NOSIG
2026-04-23 09:00:00,METAR VVTS 230900Z 17009KT 130V190 9999 FEW027 34/21 Q1005 NOSIG
2026-04-23 08:30:00,METAR VVTS 230830Z 14007KT 080V190 9999 SCT027 34/21 Q1005 NOSIG
2026-04-23 08:00:00,METAR VVTS 230800Z 18007KT 150V220 9999 SCT027 BKN055 34/21 Q1006 NOSIG
2026-04-23 07:30:00,METAR VVTS 230730Z 19008KT 140V230 9999 SCT027 BKN055 34/22 Q1006 NOSIG
2026-04-23 07:00:00,METAR VVTS 230700Z 15006KT 090V220 9999 SCT026 BKN061 33/22 Q1006 NOSIG
2026-04-23 06:30:00,METAR VVTS 230630Z 17008KT 150V210 9999 SCT026 BKN058 33/22 Q1007 NOSIG
2026-04-23 06:00:00,METAR VVTS 230600Z VRB04KT 9999 FEW024 BKN057 33/21 Q1007 NOSIG
2026-04-23 05:30:00,METAR VVTS 230530Z 19008KT 9999 FEW024 BKN052 34/20 Q1008 NOSIG
2026-04-23 05:00:00,METAR VVTS 230500Z 19009G19KT 130V230 9999 SCT024 SCT050 34/21 Q1008 NOSIG
2026-04-23 04:30:00,METAR VVTS 230430Z 17006KT 120V220 9999 FEW021 BKN052 33/22 Q1009 NOSIG
2026-04-23 04:00:00,METAR VVTS 230400Z 17007KT 140V200 9999 SCT026 BKN048 32/22 Q1009 NOSIG
2026-04-23 03:30:00,METAR VVTS 230330Z 15007KT 110V210 9999 FEW033 BKN047 31/23 Q1009 NOSIG
2026-04-23 03:00:00,METAR VVTS 230300Z 18009KT 9999 SCT026 BKN043 30/22 Q1009 NOSIG
2026-04-23 02:30:00,METAR VVTS 230230Z 17005KT 120V220 9999 SCT026 BKN043 30/23 Q1010 NOSIG
2026-04-23 02:00:00,METAR VVTS 230200Z 19007KT 170V230 9999 SCT028 BKN034 29/23 Q1010 NOSIG
2026-04-23 01:30:00,METAR VVTS 230130Z 19008KT 170V240 9999 BKN028 30/23 Q1009 NOSIG
2026-04-23 01:00:00,METAR VVTS 230100Z 16007KT 120V200 9999 BKN027 29/23 Q1009 NOSIG
2026-04-23 00:30:00,METAR VVTS 230030Z 18006KT 140V220 9999 BKN027 29/23 Q1009 NOSIG
2026-04-23 00:00:00,METAR VVTS 230000Z 16004KT 120V200 9999 SCT029 28/23 Q1009 NOSIG
2026-04-22 23:30:00,METAR VVTS 222330Z 19003KT 120V220 9999 BKN029 28/23 Q1008 NOSIG
2026-04-22 23:00:00,METAR VVTS 222300Z VRB04KT CAVOK 28/23 Q1008 NOSIG
2026-04-22 22:30:00,METAR VVTS 222230Z 17005KT 100V210 CAVOK 27/23 Q1008 NOSIG
2026-04-22 22:00:00,METAR VVTS 222200Z 17005KT 090V210 CAVOK 27/23 Q1008 NOSIG
2026-04-22 21:30:00,METAR VVTS 222130Z 17005KT 140V200 CAVOK 27/23 Q1007 NOSIG
2026-04-22 21:00:00,METAR VVTS 222100Z 17005KT 130V200 CAVOK 28/23 Q1007 NOSIG
2026-04-22 20:30:00,METAR VVTS 222030Z 16006KT 130V190 CAVOK 28/23 Q1007 NOSIG
2026-04-22 20:00:00,METAR VVTS 222000Z 17007KT 140V200 CAVOK 28/23 Q1007 NOSIG
2026-04-22 19:30:00,METAR VVTS 221930Z 14006KT 100V170 CAVOK 28/23 Q1007 NOSIG
2026-04-22 19:00:00,METAR VVTS 221900Z 15006KT 110V170 CAVOK 28/23 Q1007 NOSIG
2026-04-22 18:30:00,METAR VVTS 221830Z 15007KT CAVOK 28/23 Q1007 NOSIG
2026-04-22 18:00:00,METAR VVTS 221800Z 14005KT 110V190 CAVOK 28/23 Q1007 NOSIG
2026-04-22 17:30:00,METAR VVTS 221730Z 14007KT 110V170 CAVOK 28/23 Q1007 NOSIG
2026-04-22 17:00:00,METAR VVTS 221700Z 14007KT 110V170 CAVOK 28/23 Q1008 NOSIG
2026-04-22 16:30:00,METAR VVTS 221630Z 12008KT CAVOK 28/23 Q1008 NOSIG
2026-04-22 16:00:00,METAR VVTS 221600Z 13006KT 110V180 CAVOK 28/23 Q1008 NOSIG
2026-04-22 15:30:00,METAR VVTS 221530Z 14006KT 100V190 CAVOK 29/23 Q1008 NOSIG
2026-04-22 15:00:00,METAR VVTS 221500Z 14007KT 110V170 CAVOK 29/23 Q1008 NOSIG
2026-04-22 14:30:00,METAR VVTS 221430Z 14007KT CAVOK 29/23 Q1008 NOSIG
2026-04-22 14:00:00,METAR VVTS 221400Z 16008KT 130V190 CAVOK 29/23 Q1008 NOSIG
2026-04-22 13:30:00,METAR VVTS 221330Z 17010KT CAVOK 29/23 Q1008 NOSIG
2026-04-22 13:00:00,METAR VVTS 221300Z 17010KT 150V210 CAVOK 29/23 Q1007 NOSIG
2026-04-22 12:30:00,METAR VVTS 221230Z 18010KT 130V200 CAVOK 29/23 Q1007 NOSIG
2026-04-22 12:00:00,METAR VVTS 221200Z 17009KT CAVOK 30/23 Q1006 NOSIG
2026-04-22 11:30:00,METAR VVTS 221130Z 17009KT 140V200 CAVOK 30/24 Q1006 NOSIG
2026-04-22 11:00:00,METAR VVTS 221100Z 17011KT CAVOK 30/24 Q1006 NOSIG
2026-04-22 10:30:00,METAR VVTS 221030Z 16008KT CAVOK 31/23 Q1006 NOSIG
2026-04-22 10:00:00,METAR VVTS 221000Z 17009KT 140V200 CAVOK 32/23 Q1006 NOSIG
2026-04-22 09:30:00,METAR VVTS 220930Z 17011KT 9999 FEW040 32/23 Q1005 NOSIG
2026-04-22 09:00:00,METAR VVTS 220900Z 16008KT 9999 FEW039 SCT047 33/24 Q1006 NOSIG
2026-04-22 08:30:00,METAR VVTS 220830Z 17008KT 110V200 9999 BKN040 33/23 Q1006 NOSIG
2026-04-22 08:00:00,METAR VVTS 220800Z 17007KT 140V210 9999 FEW043 34/24 Q1006 NOSIG
2026-04-22 07:30:00,METAR VVTS 220730Z 17006KT 120V240 9999 SCT041 SCT060 34/24 Q1006 NOSIG
2026-04-22 07:00:00,METAR VVTS 220700Z 16006KT 080V220 9999 SCT039 BKN046 33/23 Q1007 NOSIG
2026-04-22 06:30:00,METAR VVTS 220630Z 20008KT 170V230 9999 SCT040 BKN055 33/23 Q1007 NOSIG
2026-04-22 06:00:00,METAR VVTS 220600Z 16007KT 110V210 9999 SCT040 SCT054 BKN063 33/23 Q1008 NOSIG
2026-04-22 05:30:00,METAR VVTS 220530Z 18007KT 100V220 9999 BKN031 33/23 Q1008 NOSIG
2026-04-22 05:00:00,METAR VVTS 220500Z 13006KT 080V180 9999 SCT031 BKN053 32/23 Q1009 NOSIG
2026-04-22 04:30:00,METAR VVTS 220430Z 15007KT 090V220 9999 SCT031 BKN052 33/23 Q1009 NOSIG
2026-04-22 04:00:00,METAR VVTS 220400Z 16007KT 120V210 9999 SCT043 BKN053 31/23 Q1009 NOSIG
2026-04-22 03:30:00,METAR VVTS 220330Z 11009KT 070V140 9999 BKN045 32/22 Q1010 NOSIG
2026-04-22 03:00:00,METAR VVTS 220300Z 18006KT 130V230 9999 SCT045 32/22 Q1010 NOSIG
2026-04-22 02:30:00,METAR VVTS 220230Z 19007KT 130V220 9999 SCT033 31/23 Q1010 NOSIG
2026-04-22 02:00:00,METAR VVTS 220200Z 17007KT 140V220 9999 SCT027 30/23 Q1010 NOSIG
2026-04-22 01:30:00,METAR VVTS 220130Z 17006KT 120V200 9999 SCT025 30/23 Q1010 NOSIG
2026-04-22 01:00:00,METAR VVTS 220100Z 13006KT 090V200 9999 FEW024 30/23 Q1010 NOSIG
2026-04-22 00:30:00,METAR VVTS 220030Z 13005KT 090V200 9999 FEW023 29/24 Q1010 NOSIG
2026-04-22 00:00:00,METAR VVTS 220000Z 14004KT 100V180 9999 FEW028 28/23 Q1009 NOSIG
2026-04-21 23:30:00,METAR VVTS 212330Z 15004KT 110V190 CAVOK 28/23 Q1009 NOSIG
2026-04-21 23:00:00,METAR VVTS 212300Z 16004KT 120V190 9999 FEW040 28/23 Q1008 NOSIG
2026-04-21 22:30:00,METAR VVTS 212230Z 17007KT 9999 FEW021 28/23 Q1008 NOSIG
2026-04-21 22:00:00,METAR VVTS 212200Z 16004KT 120V200 9999 FEW022 27/23 Q1008 NOSIG
2026-04-21 21:30:00,METAR VVTS 212130Z 16005KT 110V190 9999 FEW020 28/23 Q1008 NOSIG
2026-04-21 21:00:00,METAR VVTS 212100Z 16005KT 110V190 CAVOK 28/23 Q1008 NOSIG
2026-04-21 20:30:00,METAR VVTS 212030Z 15006KT 100V180 CAVOK 28/23 Q1008 NOSIG
2026-04-21 20:00:00,METAR VVTS 212000Z 15006KT 120V180 CAVOK 28/23 Q1008 NOSIG
2026-04-21 19:30:00,METAR VVTS 211930Z 15006KT 120V180 CAVOK 28/23 Q1008 NOSIG
2026-04-21 19:00:00,METAR VVTS 211900Z 15005KT 110V180 CAVOK 28/23 Q1008 NOSIG
2026-04-21 18:30:00,METAR VVTS 211830Z 14005KT 110V200 CAVOK 28/23 Q1008 NOSIG
2026-04-21 18:00:00,METAR VVTS 211800Z 14007KT 110V170 CAVOK 28/23 Q1009 NOSIG
2026-04-21 17:30:00,METAR VVTS 211730Z 15008KT CAVOK 28/23 Q1009 NOSIG
2026-04-21 17:00:00,METAR VVTS 211700Z 15007KT CAVOK 28/23 Q1009 NOSIG
2026-04-21 16:30:00,METAR VVTS 211630Z 15008KT 120V180 CAVOK 29/23 Q1009 NOSIG
2026-04-21 16:00:00,METAR VVTS 211600Z 16007KT 140V200 CAVOK 29/23 Q1009 NOSIG
2026-04-21 15:30:00,METAR VVTS 211530Z 16007KT 120V180 CAVOK 29/22 Q1009 NOSIG
2026-04-21 15:00:00,METAR VVTS 211500Z 17008KT 130V190 CAVOK 29/22 Q1009 NOSIG
2026-04-21 14:30:00,METAR VVTS 211430Z 17008KT CAVOK 29/22 Q1009 NOSIG
2026-04-21 14:00:00,METAR VVTS 211400Z 17008KT 130V190 CAVOK 29/22 Q1009 NOSIG
2026-04-21 13:30:00,METAR VVTS 211330Z 18009KT CAVOK 29/22 Q1008 NOSIG
2026-04-21 13:00:00,METAR VVTS 211300Z 18009KT CAVOK 29/22 Q1008 NOSIG
2026-04-21 12:30:00,METAR VVTS 211230Z 18010KT CAVOK 29/21 Q1008 NOSIG
2026-04-21 12:00:00,METAR VVTS 211200Z 18007KT 150V210 CAVOK 29/22 Q1007 NOSIG
2026-04-21 11:30:00,METAR VVTS 211130Z 18009KT CAVOK 30/21 Q1007 NOSIG
2026-04-21 11:00:00,METAR VVTS 211100Z 18009KT 150V210 CAVOK 30/21 Q1007 NOSIG
2026-04-21 10:30:00,METAR VVTS 211030Z 18011KT 160V220 CAVOK 31/21 Q1007 NOSIG
2026-04-21 10:00:00,METAR VVTS 211000Z 19011KT CAVOK 31/21 Q1006 NOSIG
2026-04-21 09:30:00,METAR VVTS 210930Z 20012KT CAVOK 32/21 Q1006 NOSIG
2026-04-21 09:00:00,METAR VVTS 210900Z 18011KT 160V230 9999 FEW027 32/21 Q1006 NOSIG
2026-04-21 08:30:00,METAR VVTS 210830Z 14009KT 110V190 9999 FEW026 32/21 Q1006 NOSIG
2026-04-21 08:00:00,METAR VVTS 210800Z 17009KT 120V200 9999 FEW025 32/22 Q1007 NOSIG
2026-04-21 07:30:00,METAR VVTS 210730Z 13007KT 080V210 9999 FEW038 33/22 Q1007 NOSIG
2026-04-21 07:00:00,METAR VVTS 210700Z 14007KT 100V190 9999 SCT034 33/22 Q1007 NOSIG
2026-04-21 06:30:00,METAR VVTS 210630Z 16007KT 090V190 9999 SCT036 33/22 Q1008 NOSIG
2026-04-21 06:00:00,METAR VVTS 210600Z 15008KT 090V190 9999 SCT035 33/22 Q1008 NOSIG
2026-04-21 05:30:00,METAR VVTS 210530Z 13007KT 070V180 9999 BKN046 33/21 Q1009 NOSIG
2026-04-21 05:00:00,METAR VVTS 210500Z 14007KT 080V170 9999 SCT045 33/21 Q1009 NOSIG
2026-04-21 04:30:00,METAR VVTS 210430Z 14008KT 100V190 9999 SCT034 BKN056 32/21 Q1010 NOSIG
2026-04-21 04:00:00,METAR VVTS 210400Z 15008KT 110V190 9999 SCT041 BKN067 32/22 Q1010 NOSIG
2026-04-21 03:30:00,METAR VVTS 210330Z 15007KT 110V190 9999 FEW041 BKN052 31/21 Q1010 NOSIG
2026-04-21 03:00:00,METAR VVTS 210300Z 17010KT 130V210 9999 FEW039 31/21 Q1010 NOSIG
2026-04-21 02:30:00,METAR VVTS 210230Z 12011KT 9999 FEW036 31/21 Q1010 NOSIG
2026-04-21 02:00:00,METAR VVTS 210200Z 14009KT 110V180 9999 FEW034 30/22 Q1010 NOSIG
2026-04-21 01:30:00,METAR VVTS 210130Z 13009KT 9999 FEW023 BKN066 29/22 Q1010 NOSIG
2026-04-21 01:00:00,METAR VVTS 210100Z 12008KT 090V180 9999 FEW023 BKN053 29/22 Q1010 NOSIG
2026-04-21 00:30:00,METAR VVTS 210030Z 13007KT 100V180 9999 FEW016 28/21 Q1010 NOSIG
2026-04-21 00:00:00,METAR VVTS 210000Z 13008KT CAVOK 28/21 Q1009 NOSIG
2026-04-20 23:30:00,METAR VVTS 202330Z 13006KT 100V170 CAVOK 28/21 Q1009 NOSIG
2026-04-20 23:00:00,METAR VVTS 202300Z 13005KT 100V160 CAVOK 27/22 Q1009 NOSIG
2026-04-20 22:30:00,METAR VVTS 202230Z 12005KT 100V160 CAVOK 27/22 Q1009 NOSIG
2026-04-20 22:00:00,METAR VVTS 202200Z 12005KT 080V150 CAVOK 27/22 Q1008 NOSIG
2026-04-20 21:30:00,METAR VVTS 202130Z 14006KT 110V170 CAVOK 27/22 Q1008 NOSIG
2026-04-20 21:00:00,METAR VVTS 202100Z 14005KT 110V170 CAVOK 27/22 Q1008 NOSIG
2026-04-20 20:30:00,METAR VVTS 202030Z 13006KT 100V160 CAVOK 27/22 Q1008 NOSIG
2026-04-20 20:00:00,METAR VVTS 202000Z 13005KT 110V190 CAVOK 28/23 Q1008 NOSIG
2026-04-20 19:30:00,METAR VVTS 201930Z 12005KT 080V170 CAVOK 28/23 Q1008 NOSIG
2026-04-20 19:00:00,METAR VVTS 201900Z 12007KT CAVOK 27/23 Q1008 NOSIG
2026-04-20 18:30:00,METAR VVTS 201830Z 12008KT 100V170 CAVOK 28/23 Q1008 NOSIG
2026-04-20 18:00:00,METAR VVTS 201800Z 13006KT 100V170 CAVOK 28/23 Q1009 NOSIG
2026-04-20 17:30:00,METAR VVTS 201730Z 12008KT CAVOK 28/23 Q1009 NOSIG
2026-04-20 17:00:00,METAR VVTS 201700Z 14005KT 090V170 CAVOK 28/23 Q1009 NOSIG
2026-04-20 16:30:00,METAR VVTS 201630Z 15009KT 120V180 CAVOK 28/22 Q1010 NOSIG
2026-04-20 16:00:00,METAR VVTS 201600Z 13007KT 110V170 CAVOK 28/23 Q1010 NOSIG
2026-04-20 15:30:00,METAR VVTS 201530Z 12011KT 060V140 CAVOK 28/22 Q1010 NOSIG
2026-04-20 15:00:00,METAR VVTS 201500Z 13009KT CAVOK 28/22 Q1010 NOSIG
2026-04-20 14:30:00,METAR VVTS 201430Z 15007KT 110V190 9999 FEW016 29/22 Q1010 NOSIG
2026-04-20 14:00:00,METAR VVTS 201400Z 15007KT 110V180 CAVOK 29/22 Q1010 NOSIG
2026-04-20 13:30:00,METAR VVTS 201330Z 14007KT 110V170 CAVOK 29/21 Q1009 NOSIG
2026-04-20 13:00:00,METAR VVTS 201300Z 15011KT 040V180 CAVOK 29/21 Q1009 NOSIG
2026-04-20 12:30:00,METAR VVTS 201230Z 15010KT CAVOK 29/20 Q1008 NOSIG
2026-04-20 12:00:00,METAR VVTS 201200Z 14010KT CAVOK 30/19 Q1008 NOSIG
2026-04-20 11:30:00,METAR VVTS 201130Z 16009KT CAVOK 30/20 Q1008 NOSIG
2026-04-20 11:00:00,METAR VVTS 201100Z 19011KT CAVOK 30/21 Q1007 NOSIG
2026-04-20 10:30:00,METAR VVTS 201030Z 18011KT CAVOK 31/21 Q1007 NOSIG
2026-04-20 10:00:00,METAR VVTS 201000Z 18012KT 150V210 9999 FEW045 32/22 Q1006 NOSIG
2026-04-20 09:30:00,METAR VVTS 200930Z 18012KT 9999 FEW045 33/22 Q1006 NOSIG
2026-04-20 09:00:00,METAR VVTS 200900Z 16009KT 130V210 9999 FEW027 33/22 Q1006 NOSIG
2026-04-20 08:30:00,METAR VVTS 200830Z 18008KT 130V210 9999 FEW025 33/22 Q1007 NOSIG
2026-04-20 08:00:00,METAR VVTS 200800Z 13008KT 060V160 9999 SCT023 33/22 Q1007 NOSIG
2026-04-20 07:30:00,METAR VVTS 200730Z 16009KT 9999 SCT023 34/22 Q1008 NOSIG
2026-04-20 07:00:00,METAR VVTS 200700Z 16010KT 120V190 9999 SCT022 SCT045 34/22 Q1008 NOSIG
2026-04-20 06:30:00,METAR VVTS 200630Z 18010KT 150V210 9999 SCT022 SCT043 33/22 Q1008 NOSIG
2026-04-20 06:00:00,METAR VVTS 200600Z 15010KT 110V190 9999 FEW025 SCT057 33/22 Q1009 NOSIG
2026-04-20 05:30:00,METAR VVTS 200530Z 16008KT 080V180 9999 SCT020 SCT068 32/22 Q1009 NOSIG
2026-04-20 05:00:00,METAR VVTS 200500Z 15008KT 110V200 9999 FEW020 SCT043 32/22 Q1010 NOSIG
2026-04-20 04:30:00,METAR VVTS 200430Z VRB08KT 9999 SCT017 BKN042 33/22 Q1010 NOSIG
2026-04-20 04:00:00,METAR VVTS 200400Z 15007KT 110V180 9999 SCT017 BKN041 31/22 Q1011 NOSIG
2026-04-20 03:30:00,METAR VVTS 200330Z 14008KT 080V190 9999 SCT017 BKN047 32/22 Q1011 NOSIG
2026-04-20 03:00:00,METAR VVTS 200300Z 13009KT 100V170 9999 FEW020 SCT036 32/22 Q1011 NOSIG
2026-04-20 02:30:00,METAR VVTS 200230Z 12009KT 090V180 9999 SCT034 32/22 Q1011 NOSIG
2026-04-20 02:00:00,METAR VVTS 200200Z 11013KT 080V140 9999 SCT032 31/22 Q1011 NOSIG
2026-04-20 01:30:00,METAR VVTS 200130Z 12010KT 080V140 9999 FEW032 30/22 Q1011 NOSIG
2026-04-20 01:00:00,METAR VVTS 200100Z 12010KT 060V160 9999 FEW029 BKN069 30/22 Q1011 NOSIG
2026-04-20 00:30:00,METAR VVTS 200030Z 11010KT 9999 FEW029 BKN067 29/23 Q1010 NOSIG
2026-04-20 00:00:00,METAR VVTS 200000Z 11009KT 9999 FEW028 BKN066 29/23 Q1010 NOSIG
2026-04-19 23:30:00,METAR VVTS 192330Z 12008KT 9999 FEW030 SCT053 BKN064 28/23 Q1009 NOSIG
2026-04-19 23:00:00,METAR VVTS 192300Z 13007KT 080V160 9999 FEW031 BKN064 28/23 Q1009 NOSIG
2026-04-19 22:30:00,METAR VVTS 192230Z 13007KT 100V160 CAVOK 28/24 Q1009 NOSIG
2026-04-19 22:00:00,METAR VVTS 192200Z 13007G17KT 100V170 CAVOK 28/24 Q1008 NOSIG
2026-04-19 21:30:00,METAR VVTS 192130Z 13006KT 100V160 CAVOK 28/24 Q1008 NOSIG
2026-04-19 21:00:00,METAR VVTS 192100Z 12009KT 100V170 CAVOK 28/24 Q1008 NOSIG
2026-04-19 20:30:00,METAR VVTS 192030Z 14007KT CAVOK 28/24 Q1008 NOSIG
2026-04-19 20:00:00,METAR VVTS 192000Z 14005KT 110V200 CAVOK 28/24 Q1008 NOSIG
2026-04-19 19:30:00,METAR VVTS 191930Z 13006KT 100V190 CAVOK 28/24 Q1008 NOSIG
2026-04-19 19:00:00,METAR VVTS 191900Z 15007KT 130V190 CAVOK 28/24 Q1009 NOSIG
2026-04-19 18:30:00,METAR VVTS 191830Z 12008KT 100V160 CAVOK 28/23 Q1009 NOSIG
2026-04-19 18:00:00,METAR VVTS 191800Z 14008KT 110V190 9999 FEW026 BKN055 28/23 Q1010 NOSIG
2026-04-19 17:30:00,METAR VVTS 191730Z 12006KT 080V180 CAVOK 28/23 Q1010 NOSIG
2026-04-19 17:00:00,METAR VVTS 191700Z 12008KT CAVOK 28/23 Q1010 NOSIG
2026-04-19 16:30:00,METAR VVTS 191630Z 12007KT CAVOK 29/23 Q1010 NOSIG
2026-04-19 16:00:00,METAR VVTS 191600Z 13006KT 090V170 CAVOK 29/23 Q1011 NOSIG
2026-04-19 15:30:00,METAR VVTS 191530Z 12008KT 090V150 CAVOK 29/23 Q1011 NOSIG
2026-04-19 15:00:00,METAR VVTS 191500Z 12009KT 090V150 CAVOK 29/23 Q1011 NOSIG
2026-04-19 14:30:00,METAR VVTS 191430Z 13007KT CAVOK 29/22 Q1010 NOSIG
2026-04-19 14:00:00,METAR VVTS 191400Z 13007KT 090V150 CAVOK 29/21 Q1010 NOSIG
2026-04-19 13:30:00,METAR VVTS 191330Z 13010KT 060V160 CAVOK 29/20 Q1009 NOSIG
2026-04-19 13:00:00,METAR VVTS 191300Z 12011KT CAVOK 30/20 Q1009 NOSIG
2026-04-19 12:30:00,METAR VVTS 191230Z 12010KT CAVOK 30/21 Q1009 NOSIG
2026-04-19 12:00:00,METAR VVTS 191200Z 15010KT CAVOK 30/22 Q1007 NOSIG
2026-04-19 11:30:00,METAR VVTS 191130Z 15009KT CAVOK 30/23 Q1008 NOSIG
2026-04-19 11:00:00,METAR VVTS 191100Z 16010KT 130V190 CAVOK 30/23 Q1007 NOSIG
2026-04-19 10:30:00,METAR VVTS 191030Z 17011KT 120V190 CAVOK 31/23 Q1006 NOSIG
2026-04-19 10:00:00,METAR VVTS 191000Z 16009KT 130V200 CAVOK 31/23 Q1006 NOSIG
2026-04-19 09:30:00,METAR VVTS 190930Z 16011KT 120V190 9999 FEW017 32/23 Q1006 NOSIG
2026-04-19 09:00:00,METAR VVTS 190900Z 16012KT 130V190 CAVOK 34/23 Q1006 NOSIG
2026-04-19 08:30:00,METAR VVTS 190830Z 15010KT 120V190 CAVOK 33/23 Q1005 NOSIG
2026-04-19 08:00:00,METAR VVTS 190800Z 18011KT 130V210 9999 FEW023 33/23 Q1006 NOSIG
2026-04-19 07:30:00,METAR VVTS 190730Z 17011KT 130V190 9999 SCT023 34/23 Q1007 NOSIG
2026-04-19 07:00:00,METAR VVTS 190700Z 14010KT 100V170 9999 SCT024 SCT054 34/23 Q1007 NOSIG
2026-04-19 06:30:00,METAR VVTS 190630Z 16009KT 120V210 9999 SCT022 SCT048 33/23 Q1008 NOSIG
2026-04-19 06:00:00,METAR VVTS 190600Z 18009KT 140V210 9999 FEW020 SCT040 33/23 Q1008 NOSIG
2026-04-19 05:30:00,METAR VVTS 190530Z 17007KT 9999 BKN038 33/24 Q1009 NOSIG
2026-04-19 05:00:00,METAR VVTS 190500Z 19008KT 140V210 9999 SCT038 BKN061 33/23 Q1009 NOSIG
2026-04-19 04:30:00,METAR VVTS 190430Z VRB07G18KT 9999 BKN036 33/24 Q1010 NOSIG
2026-04-19 04:00:00,METAR VVTS 190400Z 13006KT 090V190 9999 BKN039 34/24 Q1010 NOSIG
2026-04-19 03:30:00,METAR VVTS 190330Z 13008KT 080V180 9999 BKN032 33/24 Q1010 NOSIG
2026-04-19 03:00:00,METAR VVTS 190300Z 13008KT 090V160 9999 BKN029 32/25 Q1010 NOSIG
2026-04-19 02:30:00,METAR VVTS 190230Z 13008KT 070V190 9999 BKN028 31/25 Q1010 NOSIG
2026-04-19 02:00:00,METAR VVTS 190200Z 12009KT 9999 BKN026 32/25 Q1010 NOSIG
2026-04-19 01:30:00,METAR VVTS 190130Z 12008KT 080V170 9999 BKN022 31/25 Q1010 NOSIG
2026-04-19 01:00:00,METAR VVTS 190100Z 12011KT 9999 BKN019 30/25 Q1010 NOSIG
2026-04-19 00:30:00,METAR VVTS 190030Z 12008KT 090V150 9999 BKN019 30/25 Q1010 NOSIG
2026-04-19 00:00:00,METAR VVTS 190000Z 13009KT 9999 BKN018 29/25 Q1009 NOSIG
2026-04-18 23:30:00,METAR VVTS 182330Z 14007KT 9999 SCT019 29/25 Q1009 NOSIG
2026-04-18 23:00:00,METAR VVTS 182300Z 13006KT 100V160 9999 SCT018 29/26 Q1009 NOSIG
2026-04-18 22:30:00,METAR VVTS 182230Z 12008KT 090V150 9999 SCT019 29/26 Q1009 NOSIG
2026-04-18 22:00:00,METAR VVTS 182200Z 12007KT 090V150 9999 BKN019 29/26 Q1008 NOSIG
2026-04-18 21:30:00,METAR VVTS 182130Z 12008KT 9999 BKN018 29/26 Q1008 NOSIG
2026-04-18 21:00:00,METAR VVTS 182100Z 11008KT 9999 SCT018 BKN054 29/26 Q1008 NOSIG
2026-04-18 20:30:00,METAR VVTS 182030Z 15007KT 120V180 9999 FEW018 28/26 Q1007 NOSIG
2026-04-18 20:00:00,METAR VVTS 182000Z 13008KT 9999 FEW018 29/26 Q1007 NOSIG
2026-04-18 19:30:00,METAR VVTS 181930Z 15008KT 9999 FEW014 29/26 Q1008 NOSIG
2026-04-18 19:00:00,METAR VVTS 181900Z 14008KT 110V170 9999 FEW019 29/26 Q1008 NOSIG
2026-04-18 18:30:00,METAR VVTS 181830Z 14008KT CAVOK 29/25 Q1008 NOSIG
2026-04-18 18:00:00,METAR VVTS 181800Z 15009KT CAVOK 29/25 Q1008 NOSIG
2026-04-18 17:30:00,METAR VVTS 181730Z 15010KT 100V170 CAVOK 29/25 Q1008 NOSIG
2026-04-18 17:00:00,METAR VVTS 181700Z 16008KT 120V180 CAVOK 29/25 Q1009 NOSIG
2026-04-18 16:30:00,METAR VVTS 181630Z 15007KT 120V180 CAVOK 29/25 Q1010 NOSIG
2026-04-18 16:00:00,METAR VVTS 181600Z 15008KT 100V170 9999 FEW026 29/25 Q1010 NOSIG
2026-04-18 15:00:00,METAR VVTS 181500Z 16008KT CAVOK 29/25 Q1010 NOSIG
2026-04-18 14:30:00,METAR VVTS 181430Z 15007KT CAVOK 30/24 Q1009 NOSIG
2026-04-18 14:00:00,METAR VVTS 181400Z 15010KT 110V190 CAVOK 30/24 Q1009 NOSIG
2026-04-18 13:30:00,METAR VVTS 181330Z 16009KT 120V190 CAVOK 30/24 Q1008 NOSIG
2026-04-18 13:00:00,METAR VVTS 181300Z 15010KT 120V180 CAVOK 30/23 Q1008 NOSIG
2026-04-18 12:30:00,METAR VVTS 181230Z 14010KT CAVOK 30/23 Q1008 NOSIG
2026-04-18 12:00:00,METAR VVTS 181200Z 14008KT 120V180 CAVOK 31/23 Q1008 NOSIG
2026-04-18 11:30:00,METAR VVTS 181130Z 17010KT 130V190 CAVOK 31/22 Q1007 NOSIG
2026-04-18 11:00:00,METAR VVTS 181100Z 17011KT 140V200 CAVOK 31/22 Q1007 NOSIG
2026-04-18 10:30:00,METAR VVTS 181030Z 17010KT CAVOK 32/23 Q1006 NOSIG
2026-04-18 10:00:00,METAR VVTS 181000Z 19008KT CAVOK 33/23 Q1006 NOSIG
2026-04-18 09:30:00,METAR VVTS 180930Z 18008KT 130V210 9999 FEW047 33/22 Q1006 NOSIG
2026-04-18 09:00:00,METAR VVTS 180900Z 17008KT 120V210 9999 SCT049 33/22 Q1006 NOSIG
2026-04-18 08:30:00,METAR VVTS 180830Z 18009KT 150V210 9999 SCT048 34/22 Q1007 NOSIG
2026-04-18 08:00:00,METAR VVTS 180800Z VRB06KT 9999 FEW025 34/23 Q1007 NOSIG
2026-04-18 07:30:00,METAR VVTS 180730Z 13006KT 020V170 9999 SCT020 BKN046 33/23 Q1007 NOSIG
2026-04-18 07:00:00,METAR VVTS 180700Z 16010KT 110V190 9999 SCT020 BKN055 33/23 Q1007 NOSIG
2026-04-18 06:30:00,METAR VVTS 180630Z 19007KT 160V240 9999 SCT028 BKN051 34/23 Q1008 NOSIG
2026-04-18 06:00:00,METAR VVTS 180600Z 18009KT 140V210 9999 SCT028 BKN051 33/22 Q1008 NOSIG
2026-04-18 05:30:00,METAR VVTS 180530Z 19004KT 130V250 9999 SCT028 BKN051 33/22 Q1009 NOSIG
2026-04-18 05:00:00,METAR VVTS 180500Z VRB05KT 9999 FEW047 34/22 Q1009 NOSIG
2026-04-18 04:30:00,METAR VVTS 180430Z 20006KT 140V250 9999 SCT036 BKN057 34/22 Q1010 NOSIG
2026-04-18 04:00:00,METAR VVTS 180400Z 11006KT 060V200 9999 BKN032 34/23 Q1010 NOSIG
2026-04-18 03:30:00,METAR VVTS 180330Z 19005KT 090V250 9999 BKN036 33/23 Q1010 NOSIG
2026-04-18 03:00:00,METAR VVTS 180300Z 15005KT 100V210 9999 SCT036 31/23 Q1011 NOSIG
2026-04-18 02:30:00,METAR VVTS 180230Z 15005KT 110V190 9999 FEW033 31/23 Q1011 NOSIG
2026-04-18 02:00:00,METAR VVTS 180200Z VRB05KT 9999 FEW029 31/24 Q1011 NOSIG
2026-04-18 01:30:00,METAR VVTS 180130Z 12006KT 100V160 9999 SCT025 31/24 Q1011 NOSIG
2026-04-18 01:00:00,METAR VVTS 180100Z 16006KT 110V210 9999 SCT022 30/24 Q1010 NOSIG
2026-04-18 00:30:00,METAR VVTS 180030Z 13006KT 080V230 9999 FEW020 29/25 Q1010 NOSIG
2026-04-18 00:00:00,METAR VVTS 180000Z 13006KT 100V170 9999 FEW019 28/25 Q1009 NOSIG
2026-04-17 23:30:00,METAR VVTS 172330Z 13006KT 090V150 CAVOK 28/25 Q1009 NOSIG
2026-04-17 23:00:00,METAR VVTS 172300Z 11005KT 070V140 9999 FEW019 BKN069 27/25 Q1009 NOSIG
2026-04-17 22:30:00,METAR VVTS 172230Z 11004KT 070V150 9999 SCT019 BKN071 28/25 Q1009 NOSIG
2026-04-17 22:00:00,METAR VVTS 172200Z 17003KT 130V200 9999 FEW018 BKN058 28/25 Q1009 NOSIG
2026-04-17 21:30:00,METAR VVTS 172130Z 17005KT 9999 FEW018 BKN058 28/25 Q1008 NOSIG
2026-04-17 21:00:00,METAR VVTS 172100Z 17004KT 130V200 9999 FEW019 28/25 Q1008 NOSIG
2026-04-17 20:30:00,METAR VVTS 172030Z 17007KT CAVOK 28/25 Q1008 NOSIG
2026-04-17 20:00:00,METAR VVTS 172000Z 16006KT CAVOK 28/24 Q1008 NOSIG
2026-04-17 19:30:00,METAR VVTS 171930Z 16005KT 120V190 CAVOK 28/24 Q1008 NOSIG
2026-04-17 19:00:00,METAR VVTS 171900Z 16007KT 130V190 CAVOK 29/24 Q1009 NOSIG
2026-04-17 18:30:00,METAR VVTS 171830Z 16007KT 110V180 CAVOK 28/24 Q1009 NOSIG
2026-04-17 18:00:00,METAR VVTS 171800Z 16008KT 120V180 CAVOK 29/24 Q1009 NOSIG
2026-04-17 17:30:00,METAR VVTS 171730Z VRB08KT CAVOK 29/24 Q1010 NOSIG
2026-04-17 17:00:00,METAR VVTS 171700Z VRB07KT CAVOK 29/24 Q1010 NOSIG
2026-04-17 16:30:00,METAR VVTS 171630Z 16008KT 100V220 CAVOK 29/24 Q1010 NOSIG
2026-04-17 16:00:00,METAR VVTS 171600Z 16008KT 100V190 CAVOK 29/24 Q1010 NOSIG
2026-04-17 15:30:00,METAR VVTS 171530Z 15010KT CAVOK 29/24 Q1010 NOSIG
2026-04-17 15:00:00,METAR VVTS 171500Z 16010KT CAVOK 30/23 Q1010 NOSIG
2026-04-17 14:30:00,METAR VVTS 171430Z 16008KT CAVOK 30/23 Q1010 NOSIG
2026-04-17 14:00:00,METAR VVTS 171400Z 14007KT CAVOK 30/22 Q1009 NOSIG
2026-04-17 13:30:00,METAR VVTS 171330Z 15006KT 070V180 CAVOK 30/21 Q1009 NOSIG
2026-04-17 13:00:00,METAR VVTS 171300Z 16008KT 120V180 CAVOK 30/21 Q1008 NOSIG
2026-04-17 12:30:00,METAR VVTS 171230Z 16007KT CAVOK 31/20 Q1008 NOSIG
2026-04-17 12:00:00,METAR VVTS 171200Z 16009KT CAVOK 31/19 Q1008 NOSIG
2026-04-17 11:30:00,METAR VVTS 171130Z 16009KT 130V200 CAVOK 32/17 Q1007 NOSIG
2026-04-17 11:00:00,METAR VVTS 171100Z 16010KT CAVOK 32/17 Q1007 NOSIG
2026-04-17 10:30:00,METAR VVTS 171030Z 16010KT 130V200 CAVOK 32/19 Q1006 NOSIG
2026-04-17 10:00:00,METAR VVTS 171000Z 17011KT CAVOK 33/21 Q1006 NOSIG
2026-04-17 09:30:00,METAR VVTS 170930Z 17010KT CAVOK 34/23 Q1006 NOSIG
2026-04-17 09:00:00,METAR VVTS 170900Z 16009KT 130V190 9999 SCT049 34/23 Q1006 NOSIG
2026-04-17 08:30:00,METAR VVTS 170830Z 20007KT 140V230 9999 FEW048 35/23 Q1007 NOSIG
2026-04-17 08:00:00,METAR VVTS 170800Z 20010KT 170V230 9999 FEW047 35/23 Q1007 NOSIG
2026-04-17 07:30:00,METAR VVTS 170730Z 19008KT 120V240 9999 SCT027 34/23 Q1007 NOSIG
2026-04-17 07:00:00,METAR VVTS 170700Z 17006KT 110V230 9999 SCT044 34/23 Q1008 NOSIG
2026-04-17 06:30:00,METAR VVTS 170630Z 17007KT 120V200 9999 SCT023 BKN055 34/23 Q1008 NOSIG
2026-04-17 06:00:00,METAR VVTS 170600Z 18007KT 130V240 9999 SCT025 BKN057 34/23 Q1009 NOSIG
2026-04-17 05:30:00,METAR VVTS 170530Z VRB06KT 9999 BKN046 33/23 Q1009 NOSIG
2026-04-17 05:00:00,METAR VVTS 170500Z 20007KT 100V230 9999 SCT046 34/23 Q1010 NOSIG
2026-04-17 04:30:00,METAR VVTS 170430Z 18007KT 130V240 9999 SCT044 34/23 Q1010 NOSIG
2026-04-17 04:00:00,METAR VVTS 170400Z VRB05KT 9999 SCT042 BKN049 33/23 Q1010 NOSIG
2026-04-17 03:30:00,METAR VVTS 170330Z 12009KT 070V160 9999 BKN039 33/23 Q1011 NOSIG
2026-04-17 03:00:00,METAR VVTS 170300Z 11007KT 060V170 9999 SCT036 BKN046 33/23 Q1011 NOSIG
2026-04-17 02:30:00,METAR VVTS 170230Z 17005KT 140V210 9999 FEW027 BKN033 BKN040 31/23 Q1011 NOSIG
2026-04-17 02:00:00,METAR VVTS 170200Z 18005KT 120V210 9999 SCT023 BKN054 30/24 Q1011 NOSIG
2026-04-17 01:30:00,METAR VVTS 170130Z 17008KT 130V200 9999 SCT023 BKN054 30/25 Q1011 NOSIG
2026-04-17 01:00:00,METAR VVTS 170100Z 17007KT 140V240 9999 SCT022 BKN055 30/25 Q1010 NOSIG
2026-04-17 00:30:00,METAR VVTS 170030Z 18006KT 150V210 9999 SCT021 BKN050 29/25 Q1010 NOSIG
2026-04-17 00:00:00,METAR VVTS 170000Z 19006KT 160V220 8000 -RA SCT018 FEW022TCU BKN039 29/25 Q1010 NOSIG
2026-04-16 23:30:00,METAR VVTS 162330Z 20006KT 9999 -RA SCT019 FEW025TCU BKN040 28/25 Q1009 NOSIG
2026-04-16 23:00:00,METAR VVTS 162300Z 20006KT 9999 BKN020 28/25 Q1009 NOSIG
2026-04-16 22:30:00,METAR VVTS 162230Z 20004KT 9999 SCT021 BKN031 28/25 Q1009 NOSIG
2026-04-16 22:00:00,METAR VVTS 162200Z 19006KT 9999 FEW022 BKN032 28/25 Q1009 NOSIG
2026-04-16 21:30:00,METAR VVTS 162130Z 18005KT 9999 FEW020 BKN033 28/25 Q1008 NOSIG
2026-04-16 21:00:00,METAR VVTS 162100Z 17006KT 140V200 9999 FEW021 28/25 Q1008 NOSIG
2026-04-16 20:30:00,METAR VVTS 162030Z 17006KT 9999 FEW020 SCT070 28/25 Q1008 NOSIG
2026-04-16 20:00:00,METAR VVTS 162000Z 18007KT 140V200 9999 FEW020 SCT068 29/25 Q1008 NOSIG
2026-04-16 19:30:00,METAR VVTS 161930Z 16008KT 9999 FEW022 29/25 Q1008 NOSIG
2026-04-16 19:00:00,METAR VVTS 161900Z 16007KT 130V200 9999 FEW023 29/25 Q1008 NOSIG
2026-04-16 18:30:00,METAR VVTS 161830Z 16007KT 120V190 9999 FEW022 SCT060 29/24 Q1009 NOSIG
2026-04-16 18:00:00,METAR VVTS 161800Z 15009KT 9999 FEW020 29/25 Q1009 NOSIG
2026-04-16 17:30:00,METAR VVTS 161730Z 16009KT 130V190 9999 FEW020 BKN059 29/25 Q1009 NOSIG
2026-04-16 17:00:00,METAR VVTS 161700Z 16009KT 130V230 9999 FEW021 29/25 Q1009 NOSIG
2026-04-16 16:30:00,METAR VVTS 161630Z 16009KT 120V180 CAVOK 29/24 Q1009 NOSIG
2026-04-16 16:00:00,METAR VVTS 161600Z 15009KT 030V170 CAVOK 29/25 Q1010 NOSIG
2026-04-16 15:30:00,METAR VVTS 161530Z 15010KT CAVOK 29/25 Q1009 NOSIG
2026-04-16 15:00:00,METAR VVTS 161500Z 14009KT 120V180 CAVOK 29/25 Q1009 NOSIG
2026-04-16 14:30:00,METAR VVTS 161430Z 14011KT CAVOK 29/25 Q1008 NOSIG
2026-04-16 14:00:00,METAR VVTS 161400Z 14010KT CAVOK 29/24 Q1009 NOSIG
2026-04-16 13:30:00,METAR VVTS 161330Z 16011KT 110V180 CAVOK 30/24 Q1008 NOSIG
2026-04-16 13:00:00,METAR VVTS 161300Z 14010KT CAVOK 30/23 Q1008 NOSIG
2026-04-16 12:30:00,METAR VVTS 161230Z 16011KT CAVOK 30/23 Q1007 NOSIG
2026-04-16 12:00:00,METAR VVTS 161200Z 16012KT CAVOK 30/23 Q1007 NOSIG
2026-04-16 11:30:00,METAR VVTS 161130Z 16011KT CAVOK 30/23 Q1007 NOSIG
2026-04-16 11:00:00,METAR VVTS 161100Z 16010KT CAVOK 31/23 Q1007 NOSIG
2026-04-16 10:30:00,METAR VVTS 161030Z 16011KT 140V200 CAVOK 31/24 Q1006 NOSIG
2026-04-16 10:00:00,METAR VVTS 161000Z 16012KT 110V200 CAVOK 32/24 Q1006 NOSIG
2026-04-16 09:30:00,METAR VVTS 160930Z 16010G22KT 120V210 9999 FEW033 33/24 Q1006 NOSIG
2026-04-16 09:00:00,METAR VVTS 160900Z 16010KT 130V200 9999 SCT030 34/24 Q1006 NOSIG
2026-04-16 08:30:00,METAR VVTS 160830Z 18010KT 140V200 9999 BKN032 34/24 Q1006 NOSIG
2026-04-16 08:00:00,METAR VVTS 160800Z 18009KT 140V290 9999 FEW021 BKN052 34/23 Q1006 NOSIG
2026-04-16 07:30:00,METAR VVTS 160730Z 18006KT 130V220 9999 BKN050 34/23 Q1007 NOSIG
2026-04-16 07:00:00,METAR VVTS 160700Z VRB05KT 9999 SCT049 35/23 Q1007 NOSIG
2026-04-16 06:30:00,METAR VVTS 160630Z VRB04KT 9999 BKN050 35/23 Q1008 NOSIG
2026-04-16 06:00:00,METAR VVTS 160600Z VRB07KT 9999 BKN049 35/23 Q1008 NOSIG
2026-04-16 05:30:00,METAR VVTS 160530Z 16003KT 060V210 9999 SCT028 BKN054 34/23 Q1009 NOSIG
2026-04-16 05:00:00,METAR VVTS 160500Z 13005KT 080V200 9999 SCT046 BKN053 34/23 Q1009 NOSIG
2026-04-16 04:30:00,METAR VVTS 160430Z 19008KT 110V210 9999 SCT045 34/23 Q1010 NOSIG
2026-04-16 04:00:00,METAR VVTS 160400Z VRB04KT 9999 SCT025 33/23 Q1010 NOSIG
2026-04-16 03:30:00,METAR VVTS 160330Z VRB03KT 9999 SCT023 34/23 Q1010 NOSIG
2026-04-16 03:00:00,METAR VVTS 160300Z 16005KT 060V220 9999 SCT023 32/24 Q1011 NOSIG
2026-04-16 02:30:00,METAR VVTS 160230Z 20006KT 160V220 9999 FEW030 32/24 Q1011 NOSIG
2026-04-16 02:00:00,METAR VVTS 160200Z 21005KT 160V260 9999 FEW029 31/23 Q1011 NOSIG
2026-04-16 01:30:00,METAR VVTS 160130Z 21006KT 180V240 9999 SCT024 30/24 Q1011 NOSIG
2026-04-16 01:00:00,METAR VVTS 160100Z 22006KT 180V240 9999 FEW021 30/24 Q1010 NOSIG
2026-04-16 00:30:00,METAR VVTS 160030Z 20005KT 150V270 9999 FEW017 SCT028 BKN033 29/25 Q1010 NOSIG
2026-04-16 00:00:00,METAR VVTS 160000Z VRB01KT 4000 BR SCT018 28/25 Q1009 BECMG TL0005 6000 NSW
2026-04-15 23:30:00,METAR VVTS 152330Z 28003KT 3800 BR BKN018 27/25 Q1009 BECMG TL2335 3000 BR
2026-04-15 23:00:00,METAR VVTS 152300Z 28004KT 7000 BKN018 28/25 Q1009 NOSIG
2026-04-15 22:30:00,METAR VVTS 152230Z 18004KT 9999 SCT018 28/25 Q1008 NOSIG
2026-04-15 22:00:00,METAR VVTS 152200Z 19005KT 9999 FEW018 28/25 Q1008 NOSIG
2026-04-15 21:30:00,METAR VVTS 152130Z 19004KT 9999 FEW019 28/25 Q1008 NOSIG
2026-04-15 21:00:00,METAR VVTS 152100Z 18006KT CAVOK 28/25 Q1008 NOSIG
2026-04-15 20:30:00,METAR VVTS 152030Z 19006KT CAVOK 28/25 Q1008 NOSIG
2026-04-15 20:00:00,METAR VVTS 152000Z 18005KT 150V210 CAVOK 28/25 Q1007 NOSIG
2026-04-15 19:30:00,METAR VVTS 151930Z 17005KT CAVOK 28/25 Q1007 NOSIG
2026-04-15 19:00:00,METAR VVTS 151900Z 17008KT CAVOK 28/25 Q1008 NOSIG
2026-04-15 18:30:00,METAR VVTS 151830Z 17006KT 080V200 9999 FEW020 28/25 Q1008 NOSIG
2026-04-15 18:00:00,METAR VVTS 151800Z 17009KT CAVOK 28/25 Q1008 NOSIG
2026-04-15 17:30:00,METAR VVTS 151730Z 16008KT 120V190 CAVOK 29/24 Q1008 NOSIG
2026-04-15 17:00:00,METAR VVTS 151700Z 17009KT 140V220 CAVOK 29/24 Q1008 NOSIG
2026-04-15 16:30:00,METAR VVTS 151630Z 16007KT CAVOK 29/24 Q1009 NOSIG
2026-04-15 16:00:00,METAR VVTS 151600Z VRB08KT CAVOK 29/23 Q1009 NOSIG
2026-04-15 15:30:00,METAR VVTS 151530Z 17007KT 120V200 CAVOK 29/23 Q1009 NOSIG
2026-04-15 15:00:00,METAR VVTS 151500Z 16006KT 130V200 CAVOK 30/23 Q1009 NOSIG
2026-04-15 14:30:00,METAR VVTS 151430Z 16008KT CAVOK 29/23 Q1009 NOSIG
2026-04-15 14:00:00,METAR VVTS 151400Z 15008KT 120V190 CAVOK 30/23 Q1009 NOSIG
2026-04-15 13:30:00,METAR VVTS 151330Z 16010KT CAVOK 29/23 Q1008 NOSIG
2026-04-15 13:00:00,METAR VVTS 151300Z 16007KT CAVOK 30/23 Q1008 NOSIG
2026-04-15 12:30:00,METAR VVTS 151230Z 16010KT CAVOK 30/23 Q1008 NOSIG
2026-04-15 12:00:00,METAR VVTS 151200Z 16010KT 9999 FEW017 30/23 Q1007 NOSIG
2026-04-15 11:30:00,METAR VVTS 151130Z 14008KT CAVOK 31/22 Q1007 NOSIG
2026-04-15 11:00:00,METAR VVTS 151100Z 17009KT 110V190 CAVOK 31/23 Q1007 NOSIG
2026-04-15 10:30:00,METAR VVTS 151030Z 16009KT CAVOK 32/23 Q1006 NOSIG
2026-04-15 10:00:00,METAR VVTS 151000Z 15008KT 100V180 CAVOK 32/23 Q1006 NOSIG
2026-04-15 09:30:00,METAR VVTS 150930Z 16008KT 130V200 9999 FEW027 33/22 Q1006 NOSIG
2026-04-15 09:00:00,METAR VVTS 150900Z 16010KT 9999 FEW037 33/22 Q1006 NOSIG
2026-04-15 08:30:00,METAR VVTS 150830Z 15010KT 120V180 9999 FEW037 34/23 Q1006 NOSIG
2026-04-15 08:00:00,METAR VVTS 150800Z 16009KT 120V200 9999 FEW027 BKN050 33/23 Q1007 NOSIG
2026-04-15 07:30:00,METAR VVTS 150730Z 18009KT 9999 FEW030 BKN050 33/23 Q1007 NOSIG
2026-04-15 07:00:00,METAR VVTS 150700Z 15009KT 9999 SCT030 BKN053 33/23 Q1007 NOSIG
2026-04-15 06:30:00,METAR VVTS 150630Z 16009KT 9999 SCT030 BKN053 33/22 Q1008 NOSIG
2026-04-15 06:00:00,METAR VVTS 150600Z 14009KT 110V170 9999 FEW026 BKN050 34/23 Q1008 NOSIG
2026-04-15 05:30:00,METAR VVTS 150530Z 17009KT 130V190 9999 FEW026 BKN050 33/23 Q1009 NOSIG
2026-04-15 05:00:00,METAR VVTS 150500Z 16009KT 090V190 9999 FEW028 BKN050 32/23 Q1010 NOSIG
2026-04-15 04:30:00,METAR VVTS 150430Z 16008KT 140V220 9999 FEW026 BKN041 32/23 Q1010 NOSIG
2026-04-15 04:00:00,METAR VVTS 150400Z 16008KT 110V200 9999 SCT020 BKN050 32/23 Q1010 NOSIG
2026-04-15 03:30:00,METAR VVTS 150330Z 19008KT 160V240 9999 SCT027 BKN042 32/23 Q1010 NOSIG
2026-04-15 03:00:00,METAR VVTS 150300Z 16009KT 110V200 9999 SCT030 32/23 Q1010 NOSIG
2026-04-15 02:30:00,METAR VVTS 150230Z 20007KT 170V240 9999 SCT023 32/23 Q1011 NOSIG
2026-04-15 02:00:00,METAR VVTS 150200Z 18007KT 140V220 9999 FEW023 SCT036 31/25 Q1011 NOSIG
2026-04-15 01:30:00,METAR VVTS 150130Z 18006KT 140V220 9999 FEW021 BKN052 30/25 Q1010 NOSIG
2026-04-15 01:00:00,METAR VVTS 150100Z 17004KT 100V210 9999 SCT020 29/25 Q1010 NOSIG
2026-04-15 00:30:00,METAR VVTS 150030Z 20004KT 110V220 9999 SCT018 29/25 Q1010 NOSIG
2026-04-15 00:00:00,METAR VVTS 150000Z 20003KT 140V240 9999 SCT017 28/25 Q1009 NOSIG
2026-04-14 23:30:00,METAR VVTS 142330Z 21003KT 9999 FEW017 28/25 Q1009 NOSIG
2026-04-14 23:00:00,METAR VVTS 142300Z 19004KT 9999 FEW018 28/25 Q1008 NOSIG
2026-04-14 22:30:00,METAR VVTS 142230Z 20004KT 9999 SCT018 28/25 Q1008 NOSIG
2026-04-14 22:00:00,METAR VVTS 142200Z 21004KT 9999 FEW016 SCT018 BKN021 28/25 Q1008 NOSIG
2026-04-14 21:30:00,METAR VVTS 142130Z 20004KT 170V240 9999 FEW017 27/25 Q1008 NOSIG
2026-04-14 21:00:00,METAR VVTS 142100Z 18004KT 150V220 9999 FEW018 28/25 Q1007 NOSIG
2026-04-14 20:30:00,METAR VVTS 142030Z 19006KT 160V220 9999 SCT018 28/25 Q1007 NOSIG
2026-04-14 20:00:00,METAR VVTS 142000Z 20006KT 160V220 9999 FEW019 28/25 Q1007 NOSIG
2026-04-14 19:30:00,METAR VVTS 141930Z 18007KT 140V200 CAVOK 28/25 Q1007 NOSIG
2026-04-14 19:00:00,METAR VVTS 141900Z 18008KT CAVOK 28/25 Q1007 NOSIG
2026-04-14 18:30:00,METAR VVTS 141830Z 16007KT CAVOK 28/25 Q1008 NOSIG
2026-04-14 18:00:00,METAR VVTS 141800Z 18006KT 090V210 CAVOK 28/25 Q1008 NOSIG
2026-04-14 17:30:00,METAR VVTS 141730Z 16006KT 120V190 CAVOK 29/24 Q1008 NOSIG
2026-04-14 17:00:00,METAR VVTS 141700Z 18007KT CAVOK 29/24 Q1009 NOSIG
2026-04-14 16:30:00,METAR VVTS 141630Z 16010KT CAVOK 29/24 Q1009 NOSIG
2026-04-14 16:00:00,METAR VVTS 141600Z 14008KT CAVOK 29/24 Q1010 NOSIG
2026-04-14 15:30:00,METAR VVTS 141530Z 14009KT CAVOK 29/24 Q1010 NOSIG
2026-04-14 15:00:00,METAR VVTS 141500Z 14007KT CAVOK 29/24 Q1009 NOSIG
2026-04-14 14:30:00,METAR VVTS 141430Z 15009KT 130V230 CAVOK 30/23 Q1009 NOSIG
2026-04-14 14:00:00,METAR VVTS 141400Z 17007KT 130V190 CAVOK 30/24 Q1009 NOSIG
2026-04-14 13:30:00,METAR VVTS 141330Z 17009KT 130V190 CAVOK 30/23 Q1008 NOSIG
2026-04-14 13:00:00,METAR VVTS 141300Z 14009KT 9999 FEW018 30/24 Q1008 NOSIG
2026-04-14 12:30:00,METAR VVTS 141230Z 15008KT CAVOK 30/24 Q1008 NOSIG
2026-04-14 12:00:00,METAR VVTS 141200Z 17009KT 110V190 CAVOK 30/24 Q1007 NOSIG
2026-04-14 11:30:00,METAR VVTS 141130Z 15009KT CAVOK 31/24 Q1007 NOSIG
2026-04-14 11:00:00,METAR VVTS 141100Z 15009KT 130V190 CAVOK 31/24 Q1007 NOSIG
2026-04-14 10:30:00,METAR VVTS 141030Z 16010KT 130V190 CAVOK 32/24 Q1007 NOSIG
2026-04-14 10:00:00,METAR VVTS 141000Z 17009KT 130V200 CAVOK 33/24 Q1007 NOSIG
2026-04-14 09:30:00,METAR VVTS 140930Z 16008KT 090V190 9999 FEW039 33/24 Q1007 NOSIG
2026-04-14 09:00:00,METAR VVTS 140900Z 17009KT 140V200 9999 FEW045 33/24 Q1007 NOSIG
2026-04-14 08:30:00,METAR VVTS 140830Z 17009KT 130V220 9999 FEW042 34/24 Q1007 NOSIG
2026-04-14 08:00:00,METAR VVTS 140800Z 19009KT 9999 SCT040 33/24 Q1007 NOSIG
2026-04-14 07:30:00,METAR VVTS 140730Z 15007KT 100V190 9999 SCT023 34/24 Q1008 NOSIG
2026-04-14 07:00:00,METAR VVTS 140700Z 16008KT 090V190 9999 FEW020 SCT038 33/24 Q1008 NOSIG
2026-04-14 06:30:00,METAR VVTS 140630Z 19008KT 150V220 9999 FEW022 BKN047 33/24 Q1009 NOSIG
2026-04-14 06:00:00,METAR VVTS 140600Z 17007KT 130V200 9999 SCT021 BKN047 33/24 Q1009 NOSIG
2026-04-14 05:30:00,METAR VVTS 140530Z 14006KT 080V170 9999 BKN030 33/24 Q1010 NOSIG
2026-04-14 05:00:00,METAR VVTS 140500Z 18004KT 110V260 9999 SCT030 BKN043 33/24 Q1010 NOSIG
2026-04-14 04:30:00,METAR VVTS 140430Z 18006KT 140V240 9999 BKN035 33/25 Q1010 NOSIG
2026-04-14 04:00:00,METAR VVTS 140400Z 19007KT 080V240 9999 BKN030 33/25 Q1011 NOSIG
2026-04-14 03:30:00,METAR VVTS 140330Z 15004KT 110V240 9999 BKN026 BKN042 31/24 Q1011 NOSIG
2026-04-14 03:00:00,METAR VVTS 140300Z VRB04KT 9999 SCT023 BKN036 31/25 Q1012 NOSIG
2026-04-14 02:30:00,METAR VVTS 140230Z 17005KT 140V210 9999 SCT022 BKN044 30/25 Q1012 NOSIG
2026-04-14 02:00:00,METAR VVTS 140200Z 20005KT 150V230 9999 SCT021 BKN037 30/25 Q1012 NOSIG
2026-04-14 01:30:00,METAR VVTS 140130Z 20007KT 160V230 9999 SCT020 BKN036 29/25 Q1012 NOSIG
2026-04-14 01:00:00,METAR VVTS 140100Z VRB05KT 9999 SCT018 BKN031 29/25 Q1012 NOSIG
2026-04-14 00:30:00,METAR VVTS 140030Z 20004KT 150V240 9999 SCT017 SCT030 29/25 Q1011 NOSIG
2026-04-14 00:00:00,METAR VVTS 140000Z 20005KT 9999 FEW016 28/25 Q1010 NOSIG
2026-04-13 23:30:00,METAR VVTS 132330Z 18005KT 140V200 9999 FEW015 28/25 Q1010 NOSIG
2026-04-13 23:00:00,METAR VVTS 132300Z 18004KT 160V220 CAVOK 28/25 Q1010 NOSIG
2026-04-13 22:30:00,METAR VVTS 132230Z 18006KT CAVOK 28/25 Q1009 NOSIG
2026-04-13 22:00:00,METAR VVTS 132200Z 18006KT CAVOK 28/25 Q1009 NOSIG
2026-04-13 21:30:00,METAR VVTS 132130Z 18006KT 9999 FEW017 28/25 Q1009 NOSIG
2026-04-13 21:00:00,METAR VVTS 132100Z 18006KT 9999 FEW016 28/25 Q1009 NOSIG
2026-04-13 20:30:00,METAR VVTS 132030Z 19005KT 9999 FEW015 28/26 Q1008 NOSIG
2026-04-13 20:00:00,METAR VVTS 132000Z 19007KT 9999 FEW016 28/26 Q1008 NOSIG
2026-04-13 19:30:00,METAR VVTS 131930Z 19005KT 150V210 CAVOK 28/26 Q1009 NOSIG
2026-04-13 19:00:00,METAR VVTS 131900Z 19006KT 170V230 CAVOK 28/25 Q1009 NOSIG
2026-04-13 18:30:00,METAR VVTS 131830Z 20008KT CAVOK 28/25 Q1009 NOSIG
2026-04-13 18:00:00,METAR VVTS 131800Z 20008KT 180V280 CAVOK 28/25 Q1009 NOSIG
2026-04-13 17:30:00,METAR VVTS 131730Z 20006KT CAVOK 28/25 Q1010 NOSIG
2026-04-13 17:00:00,METAR VVTS 131700Z VRB07KT CAVOK 29/25 Q1010 NOSIG
2026-04-13 16:30:00,METAR VVTS 131630Z 16008KT CAVOK 29/25 Q1010 NOSIG
2026-04-13 16:00:00,METAR VVTS 131600Z 18007KT 150V210 CAVOK 29/25 Q1010 NOSIG
2026-04-13 15:30:00,METAR VVTS 131530Z 17006KT 140V210 CAVOK 29/25 Q1011 NOSIG
2026-04-13 15:00:00,METAR VVTS 131500Z 17007KT 140V210 CAVOK 29/25 Q1011 NOSIG
2026-04-13 14:30:00,METAR VVTS 131430Z 15008KT CAVOK 29/24 Q1010 NOSIG
2026-04-13 14:00:00,METAR VVTS 131400Z 15009KT CAVOK 30/24 Q1010 NOSIG
2026-04-13 13:30:00,METAR VVTS 131330Z 15009KT 120V180 CAVOK 30/24 Q1010 NOSIG
2026-04-13 13:00:00,METAR VVTS 131300Z 15007KT 120V190 CAVOK 30/24 Q1010 NOSIG
2026-04-13 12:30:00,METAR VVTS 131230Z 15009KT 130V190 CAVOK 30/23 Q1009 NOSIG
2026-04-13 12:00:00,METAR VVTS 131200Z 17009KT CAVOK 31/23 Q1009 NOSIG
2026-04-13 11:30:00,METAR VVTS 131130Z 15010KT CAVOK 31/24 Q1009 NOSIG
2026-04-13 11:00:00,METAR VVTS 131100Z 14009KT CAVOK 31/24 Q1008 NOSIG
2026-04-13 10:30:00,METAR VVTS 131030Z 16011KT 130V190 CAVOK 32/23 Q1008 NOSIG
2026-04-13 10:00:00,METAR VVTS 131000Z 17010KT CAVOK 33/24 Q1007 NOSIG
2026-04-13 09:30:00,METAR VVTS 130930Z 17008KT 140V210 CAVOK 33/23 Q1007 NOSIG
2026-04-13 09:00:00,METAR VVTS 130900Z 18009KT 150V210 9999 SCT048 34/23 Q1007 NOSIG
2026-04-13 08:30:00,METAR VVTS 130830Z 18007KT 140V240 9999 FEW047 34/23 Q1007 NOSIG
2026-04-13 08:00:00,METAR VVTS 130800Z 16006KT 120V210 9999 SCT047 SCT067 34/23 Q1008 NOSIG
2026-04-13 07:30:00,METAR VVTS 130730Z 19006KT 110V230 9999 BKN045 BKN058 33/23 Q1008 NOSIG
2026-04-13 07:00:00,METAR VVTS 130700Z 18007KT 140V220 9999 BKN042 BKN051 33/23 Q1008 NOSIG
2026-04-13 06:30:00,METAR VVTS 130630Z 17006KT 140V210 9999 BKN035 BKN058 33/23 Q1009 NOSIG
2026-04-13 06:00:00,METAR VVTS 130600Z 18006KT 080V240 9999 SCT035 BKN056 34/23 Q1009 NOSIG
2026-04-13 05:30:00,METAR VVTS 130530Z 15008KT 100V200 9999 BKN042 BKN054 34/23 Q1010 NOSIG
2026-04-13 05:00:00,METAR VVTS 130500Z 13005KT 070V230 9999 SCT042 BKN048 33/23 Q1011 NOSIG
2026-04-13 04:30:00,METAR VVTS 130430Z 16006KT 110V210 9999 BKN039 BKN044 33/23 Q1011 NOSIG
2026-04-13 04:00:00,METAR VVTS 130400Z 14008KT 110V180 9999 BKN039 BKN044 32/23 Q1011 NOSIG
2026-04-13 03:30:00,METAR VVTS 130330Z 13007KT 080V170 9999 BKN037 33/23 Q1012 NOSIG
2026-04-13 03:00:00,METAR VVTS 130300Z 16007KT 120V240 9999 SCT038 33/23 Q1012 NOSIG
2026-04-13 02:30:00,METAR VVTS 130230Z 19008KT 9999 BKN033 31/21 Q1012 NOSIG
2026-04-13 02:00:00,METAR VVTS 130200Z 15009KT 9999 BKN027 31/22 Q1012 NOSIG
2026-04-13 01:30:00,METAR VVTS 130130Z 16008KT 9999 BKN024 31/23 Q1012 NOSIG
2026-04-13 01:00:00,METAR VVTS 130100Z 18008KT 9999 BKN021 29/24 Q1011 NOSIG
2026-04-13 00:30:00,METAR VVTS 130030Z 18008KT 9999 FEW019 29/25 Q1011 NOSIG
2026-04-13 00:00:00,METAR VVTS 130000Z 16007KT 9999 SCT019 28/25 Q1011 NOSIG
2026-04-12 23:30:00,METAR VVTS 122330Z 16006KT 120V210 9999 FEW018 28/25 Q1010 NOSIG
2026-04-12 23:00:00,METAR VVTS 122300Z 17007KT 130V190 9999 BKN031 28/25 Q1010 NOSIG
2026-04-12 22:30:00,METAR VVTS 122230Z 18004KT 140V210 9999 BKN031 28/24 Q1009 NOSIG
2026-04-12 22:00:00,METAR VVTS 122200Z 19008KT 9999 FEW033 28/24 Q1009 NOSIG
2026-04-12 21:30:00,METAR VVTS 122130Z 18007KT 9999 BKN033 28/24 Q1009 NOSIG
2026-04-12 21:00:00,METAR VVTS 122100Z 19008KT 9999 OVC032 28/24 Q1008 NOSIG
2026-04-12 20:30:00,METAR VVTS 122030Z 19009KT 9999 FEW017 OVC032 28/25 Q1008 NOSIG
2026-04-12 20:00:00,METAR VVTS 122000Z 19006KT 9999 FEW017 BKN032 28/25 Q1008 NOSIG
2026-04-12 19:30:00,METAR VVTS 121930Z 20007KT 9999 BKN032 28/25 Q1008 NOSIG
2026-04-12 19:00:00,METAR VVTS 121900Z 19008KT 9999 BKN032 28/25 Q1008 NOSIG
2026-04-12 18:30:00,METAR VVTS 121830Z 19008KT 160V220 9999 FEW018 SCT032 28/25 Q1008 NOSIG
2026-04-12 18:00:00,METAR VVTS 121800Z 19007KT 160V220 9999 FEW018 SCT032 28/25 Q1009 NOSIG
2026-04-12 17:30:00,METAR VVTS 121730Z 19008KT 9999 FEW019 28/25 Q1009 NOSIG
2026-04-12 17:00:00,METAR VVTS 121700Z 19009KT 160V230 9999 FEW019 29/25 Q1009 NOSIG
2026-04-12 16:30:00,METAR VVTS 121630Z 19008KT 9999 FEW019 SCT034 29/25 Q1009 NOSIG
2026-04-12 16:00:00,METAR VVTS 121600Z 18010KT 9999 FEW017 29/24 Q1010 NOSIG
2026-04-12 15:00:00,METAR VVTS 121500Z 17009KT 140V200 CAVOK 29/25 Q1010 NOSIG
2026-04-12 14:30:00,METAR VVTS 121430Z 17009KT CAVOK 29/24 Q1009 NOSIG
2026-04-12 14:00:00,METAR VVTS 121400Z 16008KT CAVOK 29/24 Q1009 NOSIG
2026-04-12 13:30:00,METAR VVTS 121330Z 15010KT 090V170 CAVOK 30/24 Q1009 NOSIG
2026-04-12 13:00:00,METAR VVTS 121300Z 17008KT 130V210 CAVOK 30/24 Q1008 NOSIG
2026-04-12 12:30:00,METAR VVTS 121230Z 16011KT CAVOK 30/25 Q1008 NOSIG
2026-04-12 12:00:00,METAR VVTS 121200Z 16010KT CAVOK 30/24 Q1007 NOSIG
2026-04-12 11:30:00,METAR VVTS 121130Z 15010KT 120V180 CAVOK 30/24 Q1007 NOSIG
2026-04-12 11:00:00,METAR VVTS 121100Z 16009KT CAVOK 31/24 Q1007 NOSIG
2026-04-12 10:30:00,METAR VVTS 121030Z 16011KT 130V200 CAVOK 32/24 Q1006 NOSIG
2026-04-12 10:00:00,METAR VVTS 121000Z 16011KT 120V190 CAVOK 33/24 Q1006 NOSIG
2026-04-12 09:30:00,METAR VVTS 120930Z 17012KT CAVOK 33/24 Q1006 NOSIG
2026-04-12 09:00:00,METAR VVTS 120900Z 17011KT CAVOK 33/24 Q1006 NOSIG
2026-04-12 08:30:00,METAR VVTS 120830Z 18012KT 150V210 CAVOK 34/24 Q1006 NOSIG
2026-04-12 08:00:00,METAR VVTS 120800Z 18010KT 9999 FEW041 34/24 Q1006 NOSIG
2026-04-12 07:30:00,METAR VVTS 120730Z 17011KT 120V200 CAVOK 34/24 Q1006 NOSIG
2026-04-12 07:00:00,METAR VVTS 120700Z 17009KT 130V220 9999 SCT043 35/24 Q1007 NOSIG
2026-04-12 06:30:00,METAR VVTS 120630Z 20010KT 140V240 9999 SCT036 34/24 Q1007 NOSIG
2026-04-12 06:00:00,METAR VVTS 120600Z 22010KT 9999 SCT027 36/23 Q1008 NOSIG
2026-04-12 05:30:00,METAR VVTS 120530Z 14007KT 080V200 9999 SCT035 35/22 Q1009 NOSIG
2026-04-12 05:00:00,METAR VVTS 120500Z VRB04KT 9999 SCT032 35/23 Q1009 NOSIG
2026-04-12 04:30:00,METAR VVTS 120430Z VRB06KT 9999 FEW034 34/22 Q1010 NOSIG
2026-04-12 04:00:00,METAR VVTS 120400Z 16006KT 080V200 9999 FEW031 33/23 Q1010 NOSIG
2026-04-12 03:30:00,METAR VVTS 120330Z 12006KT 030V170 9999 FEW032 33/23 Q1010 NOSIG
2026-04-12 03:00:00,METAR VVTS 120300Z 16007G17KT 060V200 9999 FEW034 32/23 Q1010 NOSIG
2026-04-12 02:30:00,METAR VVTS 120230Z VRB05KT 9999 FEW030 32/24 Q1011 NOSIG
2026-04-12 02:00:00,METAR VVTS 120200Z 15006KT 100V190 9999 FEW024 31/24 Q1011 NOSIG
2026-04-12 01:30:00,METAR VVTS 120130Z VRB04KT 9999 FEW022 31/25 Q1010 NOSIG
2026-04-12 01:00:00,METAR VVTS 120100Z VRB06KT 9999 FEW019 30/25 Q1010 NOSIG
2026-04-12 00:30:00,METAR VVTS 120030Z 16006KT CAVOK 29/25 Q1010 NOSIG
2026-04-12 00:00:00,METAR VVTS 120000Z 16005KT CAVOK 28/25 Q1009 NOSIG
2026-04-11 23:30:00,METAR VVTS 112330Z 16006KT CAVOK 28/25 Q1009 NOSIG
2026-04-11 23:00:00,METAR VVTS 112300Z 16005KT 100V200 CAVOK 27/25 Q1009 NOSIG
2026-04-11 22:30:00,METAR VVTS 112230Z 20005KT CAVOK 27/25 Q1008 NOSIG
2026-04-11 22:00:00,METAR VVTS 112200Z 18005KT CAVOK 27/25 Q1008 NOSIG
2026-04-11 21:30:00,METAR VVTS 112130Z 18004KT CAVOK 27/25 Q1008 NOSIG
2026-04-11 21:00:00,METAR VVTS 112100Z 19004KT 150V230 CAVOK 28/25 Q1008 NOSIG
2026-04-11 20:30:00,METAR VVTS 112030Z 19004KT 160V230 CAVOK 28/25 Q1008 NOSIG
2026-04-11 20:00:00,METAR VVTS 112000Z 19005KT 150V220 CAVOK 28/25 Q1008 NOSIG
2026-04-11 19:30:00,METAR VVTS 111930Z 19005KT 160V220 CAVOK 28/25 Q1008 NOSIG
2026-04-11 19:00:00,METAR VVTS 111900Z 19006KT CAVOK 28/25 Q1008 NOSIG
2026-04-11 18:30:00,METAR VVTS 111830Z 19007KT CAVOK 28/25 Q1008 NOSIG
2026-04-11 18:00:00,METAR VVTS 111800Z 19007KT CAVOK 28/25 Q1008 NOSIG
2026-04-11 17:30:00,METAR VVTS 111730Z 19008KT 170V230 CAVOK 28/25 Q1009 NOSIG
2026-04-11 17:00:00,METAR VVTS 111700Z 19008KT 160V220 CAVOK 28/24 Q1009 NOSIG
2026-04-11 16:30:00,METAR VVTS 111630Z 18009KT 160V220 CAVOK 29/24 Q1010 NOSIG
2026-04-11 16:00:00,METAR VVTS 111600Z 19008KT CAVOK 29/24 Q1010 NOSIG
2026-04-11 15:30:00,METAR VVTS 111530Z 19008KT CAVOK 29/24 Q1010 NOSIG
2026-04-11 15:00:00,METAR VVTS 111500Z 18008KT 150V210 CAVOK 29/24 Q1010 NOSIG
2026-04-11 14:30:00,METAR VVTS 111430Z 17010KT 150V240 CAVOK 29/24 Q1009 NOSIG
2026-04-11 14:00:00,METAR VVTS 111400Z 18009KT CAVOK 29/25 Q1009 NOSIG
2026-04-11 13:30:00,METAR VVTS 111330Z 18009KT CAVOK 29/25 Q1009 NOSIG
2026-04-11 13:00:00,METAR VVTS 111300Z 17010G21KT 150V220 CAVOK 30/25 Q1008 NOSIG
2026-04-11 12:30:00,METAR VVTS 111230Z 18009KT CAVOK 30/25 Q1008 NOSIG
2026-04-11 12:00:00,METAR VVTS 111200Z 16011KT CAVOK 30/25 Q1008 NOSIG
2026-04-11 11:30:00,METAR VVTS 111130Z 17010KT CAVOK 30/25 Q1008 NOSIG
2026-04-11 11:00:00,METAR VVTS 111100Z 17010KT CAVOK 31/24 Q1007 NOSIG
2026-04-11 10:30:00,METAR VVTS 111030Z 17011KT CAVOK 31/24 Q1007 NOSIG
2026-04-11 10:00:00,METAR VVTS 111000Z 17010KT 140V200 9999 FEW026 33/24 Q1007 NOSIG
2026-04-11 09:30:00,METAR VVTS 110930Z 17010KT 130V220 9999 FEW024 SCT052 34/24 Q1006 NOSIG
2026-04-11 09:00:00,METAR VVTS 110900Z 23007KT 190V270 9999 SCT037 35/23 Q1007 NOSIG
2026-04-11 08:30:00,METAR VVTS 110830Z 22007KT 180V270 9999 BKN034 35/22 Q1007 NOSIG
2026-04-11 08:00:00,METAR VVTS 110800Z 21005KT 130V290 9999 BKN033 35/23 Q1007 NOSIG
2026-04-11 07:30:00,METAR VVTS 110730Z VRB03KT 9999 BKN030 35/23 Q1007 NOSIG
2026-04-11 07:00:00,METAR VVTS 110700Z 20006KT 150V230 9999 BKN031 35/23 Q1008 NOSIG
2026-04-11 06:30:00,METAR VVTS 110630Z 24004KT 150V320 9999 BKN029 35/23 Q1009 NOSIG
2026-04-11 06:00:00,METAR VVTS 110600Z VRB04KT 9999 BKN048 33/22 Q1009 NOSIG
2026-04-11 05:30:00,METAR VVTS 110530Z 26005KT 200V300 9999 SCT045 34/23 Q1010 NOSIG
2026-04-11 05:00:00,METAR VVTS 110500Z 22008KT 190V260 9999 SCT046 34/23 Q1010 NOSIG
2026-04-11 04:30:00,METAR VVTS 110430Z 21006KT 150V260 9999 BKN042 33/23 Q1011 NOSIG
2026-04-11 04:00:00,METAR VVTS 110400Z 24006KT 180V290 9999 BKN040 BKN045 32/22 Q1011 NOSIG
2026-04-11 03:30:00,METAR VVTS 110330Z 20005KT 080V250 9999 SCT039 32/23 Q1012 NOSIG
2026-04-11 03:00:00,METAR VVTS 110300Z VRB05KT 9999 SCT029 SCT036 31/23 Q1012 NOSIG
2026-04-11 02:30:00,METAR VVTS 110230Z 24007KT 9999 SCT029 SCT036 31/24 Q1012 NOSIG
2026-04-11 02:00:00,METAR VVTS 110200Z 19007KT 130V240 9999 SCT027 SCT042 30/24 Q1012 NOSIG
2026-04-11 01:30:00,METAR VVTS 110130Z 19007KT 150V240 9999 SCT025 BKN042 30/24 Q1012 NOSIG
2026-04-11 01:00:00,METAR VVTS 110100Z 19007KT 150V220 9999 SCT023 BKN033 29/24 Q1012 NOSIG
2026-04-11 00:30:00,METAR VVTS 110030Z 17008KT 150V210 9999 FEW020 29/24 Q1011 NOSIG
2026-04-11 00:00:00,METAR VVTS 110000Z 18007KT 150V210 9999 FEW019 28/24 Q1011 NOSIG
2026-04-10 23:30:00,METAR VVTS 102330Z 18005KT 9999 SCT018 BKN040 28/25 Q1011 NOSIG
2026-04-10 23:00:00,METAR VVTS 102300Z 17004KT 150V210 9999 BKN021 27/25 Q1010 NOSIG
2026-04-10 22:30:00,METAR VVTS 102230Z 18004KT 140V210 9999 SCT022 27/25 Q1010 NOSIG
2026-04-10 22:00:00,METAR VVTS 102200Z 18005KT 140V210 9999 FEW017 27/25 Q1010 NOSIG
2026-04-10 21:30:00,METAR VVTS 102130Z 21007KT 9999 FEW018 27/25 Q1010 NOSIG
2026-04-10 21:00:00,METAR VVTS 102100Z 21007KT 9999 FEW018 27/25 Q1009 NOSIG
2026-04-10 20:30:00,METAR VVTS 102030Z 19007KT 9999 FEW018 SCT045 28/24 Q1009 NOSIG
2026-04-10 20:00:00,METAR VVTS 102000Z 19006KT 9999 FEW018 BKN040 28/24 Q1009 NOSIG
2026-04-10 19:30:00,METAR VVTS 101930Z 20007KT 9999 FEW019 28/24 Q1009 NOSIG
2026-04-10 19:00:00,METAR VVTS 101900Z 19007KT 160V220 CAVOK 28/24 Q1009 NOSIG
2026-04-10 18:30:00,METAR VVTS 101830Z 18007KT CAVOK 28/24 Q1009 NOSIG
2026-04-10 18:00:00,METAR VVTS 101800Z 18008KT 140V200 CAVOK 28/25 Q1009 NOSIG
2026-04-10 17:30:00,METAR VVTS 101730Z 18007KT CAVOK 28/24 Q1010 NOSIG
2026-04-10 17:00:00,METAR VVTS 101700Z 16009KT 130V190 CAVOK 28/24 Q1010 NOSIG
2026-04-10 16:30:00,METAR VVTS 101630Z 17007KT 140V200 CAVOK 29/24 Q1011 NOSIG
2026-04-10 16:00:00,METAR VVTS 101600Z 14007KT CAVOK 29/24 Q1011 NOSIG
2026-04-10 15:30:00,METAR VVTS 101530Z 15008KT 070V180 CAVOK 29/24 Q1011 NOSIG
2026-04-10 15:00:00,METAR VVTS 101500Z 16007KT 120V180 CAVOK 29/24 Q1011 NOSIG
2026-04-10 14:30:00,METAR VVTS 101430Z 16008KT 050V190 CAVOK 29/23 Q1010 NOSIG
2026-04-10 14:00:00,METAR VVTS 101400Z 16008KT 130V190 CAVOK 29/24 Q1010 NOSIG
2026-04-10 13:30:00,METAR VVTS 101330Z 17009KT 140V200 CAVOK 30/23 Q1010 NOSIG
2026-04-10 13:00:00,METAR VVTS 101300Z 17010KT CAVOK 30/23 Q1009 NOSIG
2026-04-10 12:30:00,METAR VVTS 101230Z 15011KT CAVOK 30/23 Q1009 NOSIG
2026-04-10 12:00:00,METAR VVTS 101200Z 16009KT 130V190 CAVOK 30/22 Q1009 NOSIG
2026-04-10 11:30:00,METAR VVTS 101130Z 17009KT CAVOK 31/22 Q1008 NOSIG
2026-04-10 11:00:00,METAR VVTS 101100Z 16009KT CAVOK 32/22 Q1008 NOSIG
2026-04-10 10:30:00,METAR VVTS 101030Z 18009KT CAVOK 33/23 Q1008 NOSIG
2026-04-10 10:00:00,METAR VVTS 101000Z 18008KT 9999 FEW040 34/23 Q1007 NOSIG
2026-04-10 09:30:00,METAR VVTS 100930Z 19008KT 150V240 9999 FEW030 34/23 Q1007 NOSIG
2026-04-10 09:00:00,METAR VVTS 100900Z 19006KT 120V230 9999 FEW030 34/23 Q1007 NOSIG
2026-04-10 08:30:00,METAR VVTS 100830Z 22007KT 160V290 9999 FEW026 35/23 Q1007 NOSIG
2026-04-10 08:00:00,METAR VVTS 100800Z 20006KT 160V240 9999 FEW026 35/23 Q1008 NOSIG
2026-04-10 07:30:00,METAR VVTS 100730Z 19004KT 140V310 9999 SCT025 35/23 Q1008 NOSIG
2026-04-10 07:00:00,METAR VVTS 100700Z 19005KT 090V260 9999 SCT025 34/22 Q1009 NOSIG
2026-04-10 06:30:00,METAR VVTS 100630Z VRB04KT 9999 SCT025 34/22 Q1010 NOSIG
2026-04-10 06:00:00,METAR VVTS 100600Z 21006KT 140V300 9999 BKN049 34/22 Q1010 NOSIG
2026-04-10 05:30:00,METAR VVTS 100530Z VRB03KT 9999 BKN046 35/23 Q1011 NOSIG
2026-04-10 05:00:00,METAR VVTS 100500Z 19005KT 150V230 9999 BKN044 BKN051 33/22 Q1012 NOSIG
2026-04-10 04:30:00,METAR VVTS 100430Z 16005KT 090V220 9999 BKN038 33/22 Q1012 NOSIG
2026-04-10 04:00:00,METAR VVTS 100400Z VRB04KT 9999 SCT034 32/23 Q1012 NOSIG
2026-04-10 03:30:00,METAR VVTS 100330Z 11004KT 360V170 9999 SCT034 32/22 Q1013 NOSIG
2026-04-10 03:00:00,METAR VVTS 100300Z 19006KT 110V240 9999 SCT032 32/23 Q1013 NOSIG
2026-04-10 02:30:00,METAR VVTS 100230Z 19006KT 110V240 9999 SCT029 30/23 Q1013 NOSIG
2026-04-10 02:00:00,METAR VVTS 100200Z 18007KT 9999 SCT027 30/23 Q1013 NOSIG
2026-04-10 01:30:00,METAR VVTS 100130Z 19006KT 9999 BKN022 29/23 Q1013 NOSIG
2026-04-10 01:00:00,METAR VVTS 100100Z 18006KT 090V250 9999 SCT024 29/23 Q1013 NOSIG
2026-04-10 00:30:00,METAR VVTS 100030Z 15007KT 050V180 9999 FEW020 28/23 Q1012 NOSIG
2026-04-10 00:00:00,METAR VVTS 100000Z 16008KT 9999 FEW018 28/24 Q1012 NOSIG
2026-04-09 23:30:00,METAR VVTS 092330Z 16007KT 070V200 9999 FEW018 27/24 Q1011 NOSIG
2026-04-09 23:00:00,METAR VVTS 092300Z 16007KT 130V190 9999 FEW018 28/24 Q1011 NOSIG
2026-04-09 22:30:00,METAR VVTS 092230Z 15006KT CAVOK 27/24 Q1011 NOSIG
2026-04-09 22:00:00,METAR VVTS 092200Z 15009KT CAVOK 27/24 Q1010 NOSIG
2026-04-09 21:30:00,METAR VVTS 092130Z 17009KT CAVOK 27/24 Q1010 NOSIG
2026-04-09 21:00:00,METAR VVTS 092100Z 18007KT CAVOK 27/24 Q1010 NOSIG
2026-04-09 20:30:00,METAR VVTS 092030Z 19006KT CAVOK 27/24 Q1010 NOSIG
2026-04-09 20:00:00,METAR VVTS 092000Z 17006KT 140V200 CAVOK 27/24 Q1010 NOSIG
2026-04-09 19:30:00,METAR VVTS 091930Z 19006KT CAVOK 28/23 Q1011 NOSIG
2026-04-09 19:00:00,METAR VVTS 091900Z 19005KT 150V210 CAVOK 28/23 Q1011 NOSIG
2026-04-09 18:30:00,METAR VVTS 091830Z 18005KT CAVOK 28/23 Q1011 NOSIG
2026-04-09 18:00:00,METAR VVTS 091800Z 16007KT 140V220 CAVOK 28/23 Q1011 NOSIG
2026-04-09 17:30:00,METAR VVTS 091730Z 16007KT 130V190 CAVOK 28/22 Q1011 NOSIG
2026-04-09 17:00:00,METAR VVTS 091700Z 17006KT 140V200 CAVOK 28/22 Q1012 NOSIG
2026-04-09 16:30:00,METAR VVTS 091630Z 16006KT 130V200 CAVOK 28/22 Q1012 NOSIG
2026-04-09 16:00:00,METAR VVTS 091600Z 17008KT CAVOK 28/22 Q1012 NOSIG
2026-04-09 15:30:00,METAR VVTS 091530Z 15007KT CAVOK 29/22 Q1011 NOSIG
2026-04-09 15:00:00,METAR VVTS 091500Z 16009KT CAVOK 29/22 Q1011 NOSIG
2026-04-09 14:30:00,METAR VVTS 091430Z 16009KT 100V210 CAVOK 29/22 Q1011 NOSIG
2026-04-09 14:00:00,METAR VVTS 091400Z 17010KT 120V200 CAVOK 29/22 Q1011 NOSIG
2026-04-09 13:30:00,METAR VVTS 091330Z 16011KT CAVOK 29/22 Q1010 NOSIG
2026-04-09 13:00:00,METAR VVTS 091300Z 15009KT 100V180 CAVOK 29/22 Q1010 NOSIG
2026-04-09 12:30:00,METAR VVTS 091230Z 16013KT CAVOK 29/22 Q1010 NOSIG
2026-04-09 12:00:00,METAR VVTS 091200Z 16011KT 120V180 CAVOK 30/22 Q1009 NOSIG
2026-04-09 11:30:00,METAR VVTS 091130Z 16010KT 130V190 CAVOK 30/22 Q1009 NOSIG
2026-04-09 11:00:00,METAR VVTS 091100Z 16010KT 130V190 CAVOK 31/22 Q1009 NOSIG
2026-04-09 10:30:00,METAR VVTS 091030Z 15011KT CAVOK 31/22 Q1009 NOSIG
2026-04-09 10:00:00,METAR VVTS 091000Z 16010KT 120V190 CAVOK 32/22 Q1009 NOSIG
2026-04-09 09:30:00,METAR VVTS 090930Z 18010KT 130V230 CAVOK 33/21 Q1009 NOSIG
2026-04-09 09:00:00,METAR VVTS 090900Z 16011KT 130V190 CAVOK 34/20 Q1009 NOSIG
2026-04-09 08:30:00,METAR VVTS 090830Z 18010KT 140V210 CAVOK 35/20 Q1009 NOSIG
2026-04-09 08:00:00,METAR VVTS 090800Z 19010KT 150V220 CAVOK 34/20 Q1009 NOSIG
2026-04-09 07:30:00,METAR VVTS 090730Z 18008KT 120V240 9999 SCT029 34/22 Q1009 NOSIG
2026-04-09 07:00:00,METAR VVTS 090700Z 15007KT 090V220 9999 FEW029 34/22 Q1009 NOSIG
2026-04-09 06:30:00,METAR VVTS 090630Z 16009KT 110V210 9999 SCT023 34/22 Q1010 NOSIG
2026-04-09 06:00:00,METAR VVTS 090600Z 20008KT 150V240 9999 SCT023 34/23 Q1010 NOSIG
2026-04-09 05:30:00,METAR VVTS 090530Z 14010KT 9999 SCT049 34/22 Q1011 NOSIG
2026-04-09 05:00:00,METAR VVTS 090500Z 19010KT 9999 SCT045 34/22 Q1011 NOSIG
2026-04-09 04:30:00,METAR VVTS 090430Z 16006KT 120V290 9999 SCT044 33/22 Q1012 NOSIG
2026-04-09 04:00:00,METAR VVTS 090400Z 16007KT 110V240 9999 SCT034 32/22 Q1012 NOSIG
2026-04-09 03:30:00,METAR VVTS 090330Z 14007KT 030V190 9999 SCT037 32/23 Q1012 NOSIG
2026-04-09 03:00:00,METAR VVTS 090300Z 13007KT 050V180 9999 BKN030 32/24 Q1012 NOSIG
2026-04-09 02:30:00,METAR VVTS 090230Z 14006KT 110V200 9999 SCT026 31/24 Q1012 NOSIG
2026-04-09 02:00:00,METAR VVTS 090200Z 15007KT 100V190 9999 SCT026 31/23 Q1012 NOSIG
2026-04-09 01:30:00,METAR VVTS 090130Z 14007KT 110V170 9999 SCT020 31/24 Q1012 NOSIG
2026-04-09 01:00:00,METAR VVTS 090100Z 16009KT 140V200 9999 SCT018 30/24 Q1012 NOSIG
2026-04-09 00:30:00,METAR VVTS 090030Z 15007KT 110V200 9999 SCT019 29/25 Q1012 NOSIG
2026-04-09 00:00:00,METAR VVTS 090000Z 15007KT 120V180 9999 SCT018 28/25 Q1011 NOSIG
2026-04-08 23:30:00,METAR VVTS 082330Z 16008KT 9999 FEW017 28/25 Q1011 NOSIG
2026-04-08 23:00:00,METAR VVTS 082300Z 16008KT 130V210 9999 SCT017 28/25 Q1010 NOSIG
2026-04-08 22:30:00,METAR VVTS 082230Z 17007KT 9999 BKN017 28/25 Q1010 NOSIG
2026-04-08 22:00:00,METAR VVTS 082200Z 17008KT 9999 SCT017 28/25 Q1010 NOSIG
2026-04-08 21:30:00,METAR VVTS 082130Z 16007KT 130V190 9999 FEW020 28/25 Q1009 NOSIG
2026-04-08 21:00:00,METAR VVTS 082100Z 16006KT 110V190 9999 FEW018 28/25 Q1009 NOSIG
2026-04-08 20:30:00,METAR VVTS 082030Z 15008KT 9999 FEW018 28/25 Q1009 NOSIG
2026-04-08 20:00:00,METAR VVTS 082000Z 16008KT 9999 FEW019 SCT052 28/25 Q1009 NOSIG
2026-04-08 19:30:00,METAR VVTS 081930Z 15009KT 120V190 9999 SCT019 28/25 Q1009 NOSIG
2026-04-08 19:00:00,METAR VVTS 081900Z 16010KT 9999 FEW018 28/25 Q1009 NOSIG
2026-04-08 18:30:00,METAR VVTS 081830Z 16008KT 9999 FEW018 28/25 Q1009 NOSIG
2026-04-08 18:00:00,METAR VVTS 081800Z 14011KT 9999 SCT017 28/25 Q1009 NOSIG
2026-04-08 17:30:00,METAR VVTS 081730Z 14008KT 110V170 9999 SCT018 29/26 Q1010 NOSIG
2026-04-08 17:00:00,METAR VVTS 081700Z 16010KT 9999 FEW018 29/25 Q1010 NOSIG
2026-04-08 16:30:00,METAR VVTS 081630Z 14008KT 120V180 9999 FEW017 29/26 Q1011 NOSIG
2026-04-08 16:00:00,METAR VVTS 081600Z 15009KT 120V190 9999 SCT018 29/26 Q1011 NOSIG
2026-04-08 15:30:00,METAR VVTS 081530Z 15010KT 9999 SCT019 29/26 Q1011 NOSIG
2026-04-08 15:00:00,METAR VVTS 081500Z 17009KT 9999 FEW019 29/26 Q1010 NOSIG
2026-04-08 14:30:00,METAR VVTS 081430Z 17008KT 130V200 CAVOK 29/25 Q1010 NOSIG
2026-04-08 14:00:00,METAR VVTS 081400Z 17009KT 130V190 CAVOK 30/25 Q1010 NOSIG
2026-04-08 13:30:00,METAR VVTS 081330Z 16012KT CAVOK 30/25 Q1009 NOSIG
2026-04-08 13:00:00,METAR VVTS 081300Z 16011KT CAVOK 30/25 Q1009 NOSIG
2026-04-08 12:30:00,METAR VVTS 081230Z 16010KT 120V210 CAVOK 31/25 Q1009 NOSIG
2026-04-08 12:00:00,METAR VVTS 081200Z 16012KT CAVOK 31/25 Q1008 NOSIG
2026-04-08 11:30:00,METAR VVTS 081130Z 16011KT 9999 FEW016 32/25 Q1008 NOSIG
2026-04-08 11:00:00,METAR VVTS 081100Z 15012KT 130V190 9999 FEW016 32/25 Q1008 NOSIG
2026-04-08 10:30:00,METAR VVTS 081030Z 16012KT CAVOK 33/25 Q1008 NOSIG
2026-04-08 10:00:00,METAR VVTS 081000Z 19011KT 9999 FEW017 34/25 Q1007 NOSIG
2026-04-08 09:30:00,METAR VVTS 080930Z 18010KT 140V200 9999 FEW019 35/25 Q1007 NOSIG
2026-04-08 09:00:00,METAR VVTS 080900Z VRB04KT 9999 FEW020 36/22 Q1007 NOSIG
2026-04-08 08:30:00,METAR VVTS 080830Z 15006KT 100V230 9999 FEW015 36/22 Q1007 NOSIG
2026-04-08 08:00:00,METAR VVTS 080800Z 24004KT 160V300 9999 FEW030 36/22 Q1007 NOSIG
2026-04-08 07:30:00,METAR VVTS 080730Z VRB06KT 9999 FEW030 36/23 Q1008 NOSIG
2026-04-08 07:00:00,METAR VVTS 080700Z VRB05KT 9999 SCT030 36/23 Q1008 NOSIG
2026-04-08 06:30:00,METAR VVTS 080630Z VRB05KT 9999 SCT030 35/23 Q1009 NOSIG
2026-04-08 06:00:00,METAR VVTS 080600Z VRB07KT 9999 SCT030 35/23 Q1009 NOSIG
2026-04-08 05:30:00,METAR VVTS 080530Z VRB06KT 9999 SCT047 35/23 Q1010 NOSIG
2026-04-08 05:00:00,METAR VVTS 080500Z VRB03KT 9999 BKN043 34/23 Q1010 NOSIG
2026-04-08 04:30:00,METAR VVTS 080430Z 20006KT 130V250 9999 BKN039 33/24 Q1011 NOSIG
2026-04-08 04:00:00,METAR VVTS 080400Z VRB04KT 9999 BKN035 BKN048 33/24 Q1011 NOSIG
2026-04-08 03:30:00,METAR VVTS 080330Z 15005KT 070V210 9999 BKN035 BKN042 33/24 Q1012 NOSIG
2026-04-08 03:00:00,METAR VVTS 080300Z 16006G16KT 050V210 9999 BKN033 BKN038 31/24 Q1012 NOSIG
2026-04-08 02:30:00,METAR VVTS 080230Z 26004KT 220V340 9999 SCT033 31/24 Q1012 NOSIG
2026-04-08 02:00:00,METAR VVTS 080200Z VRB03KT 9999 FEW026 31/24 Q1012 NOSIG
2026-04-08 01:30:00,METAR VVTS 080130Z 20005KT 160V230 CAVOK 30/24 Q1011 NOSIG
2026-04-08 01:00:00,METAR VVTS 080100Z 21004KT 140V280 9999 FEW019 30/25 Q1011 NOSIG
2026-04-08 00:30:00,METAR VVTS 080030Z 22004KT 180V270 CAVOK 29/25 Q1011 NOSIG
2026-04-08 00:00:00,METAR VVTS 080000Z 19005KT CAVOK 29/25 Q1010 NOSIG
2026-04-07 23:30:00,METAR VVTS 072330Z 18007KT CAVOK 28/26 Q1010 NOSIG
2026-04-07 23:00:00,METAR VVTS 072300Z 18006KT 9999 FEW014 28/26 Q1010 NOSIG
2026-04-07 22:30:00,METAR VVTS 072230Z 20007KT 9999 FEW014 28/26 Q1010 NOSIG
2026-04-07 22:00:00,METAR VVTS 072200Z 21008KT 9999 FEW013 28/26 Q1010 NOSIG
2026-04-07 21:30:00,METAR VVTS 072130Z 20007KT 9999 SCT013 BKN032 28/26 Q1009 NOSIG
2026-04-07 21:00:00,METAR VVTS 072100Z 19007KT 160V220 9999 SCT013 BKN029 28/26 Q1009 NOSIG
2026-04-07 20:30:00,METAR VVTS 072030Z 20008KT 170V230 9999 SCT013 BKN025 28/26 Q1009 NOSIG
2026-04-07 20:00:00,METAR VVTS 072000Z 20007KT 9999 BKN014 BKN017 28/26 Q1009 NOSIG
2026-04-07 19:30:00,METAR VVTS 071930Z 19007KT 160V220 9999 FEW012 BKN015 BKN018 28/26 Q1009 NOSIG
2026-04-07 19:00:00,METAR VVTS 071900Z 20008KT 9999 FEW012 BKN015 BKN020 28/26 Q1009 NOSIG
2026-04-07 18:30:00,METAR VVTS 071830Z 19008KT 9999 FEW012 BKN015 BKN018 28/26 Q1009 NOSIG
2026-04-07 18:00:00,METAR VVTS 071800Z 20009KT 180V240 9999 BKN013 BKN018 28/27 Q1009 NOSIG
2026-04-07 17:30:00,METAR VVTS 071730Z 19009KT 140V220 9999 FEW013 29/27 Q1009 NOSIG
2026-04-07 17:00:00,METAR VVTS 071700Z COR 19009KT 160V220 9999 FEW013 29/27 Q1009 NOSIG
2026-04-07 16:30:00,METAR VVTS 071630Z 19007KT 150V220 CAVOK 29/27 Q1009 NOSIG
2026-04-07 16:00:00,METAR VVTS 071600Z 19008KT CAVOK 29/26 Q1009 NOSIG
2026-04-07 15:30:00,METAR VVTS 071530Z 18007KT 150V210 CAVOK 29/26 Q1009 NOSIG
2026-04-07 15:00:00,METAR VVTS 071500Z 17007KT CAVOK 29/26 Q1009 NOSIG
2026-04-07 14:30:00,METAR VVTS 071430Z 18006KT 150V230 CAVOK 30/26 Q1009 NOSIG
2026-04-07 14:00:00,METAR VVTS 071400Z 18009KT CAVOK 29/26 Q1009 NOSIG
2026-04-07 13:30:00,METAR VVTS 071330Z 18007KT CAVOK 30/25 Q1008 NOSIG
2026-04-07 13:00:00,METAR VVTS 071300Z 17009KT 150V290 CAVOK 30/25 Q1008 NOSIG
2026-04-07 12:30:00,METAR VVTS 071230Z 18008KT CAVOK 30/25 Q1008 NOSIG
2026-04-07 12:00:00,METAR VVTS 071200Z 18009KT 150V210 CAVOK 31/25 Q1008 NOSIG
2026-04-07 11:30:00,METAR VVTS 071130Z 16009KT CAVOK 31/25 Q1008 NOSIG
2026-04-07 11:00:00,METAR VVTS 071100Z 17010KT CAVOK 32/25 Q1008 NOSIG
2026-04-07 10:30:00,METAR VVTS 071030Z 17011KT 140V210 CAVOK 33/25 Q1008 NOSIG
2026-04-07 10:00:00,METAR VVTS 071000Z 20009KT CAVOK 34/24 Q1007 NOSIG
2026-04-07 09:30:00,METAR VVTS 070930Z 26008KT 230V290 9999 FEW030 36/20 Q1007 NOSIG
2026-04-07 09:00:00,METAR VVTS 070900Z 25010KT 210V310 CAVOK 36/19 Q1007 NOSIG
2026-04-07 08:30:00,METAR VVTS 070830Z 25008KT 200V320 CAVOK 36/20 Q1007 NOSIG
2026-04-07 08:00:00,METAR VVTS 070800Z 29008KT 240V320 CAVOK 37/20 Q1007 NOSIG
2026-04-07 07:30:00,METAR VVTS 070730Z 25009KT 220V310 CAVOK 36/20 Q1008 NOSIG
2026-04-07 07:00:00,METAR VVTS 070700Z 26009KT CAVOK 37/20 Q1008 NOSIG
2026-04-07 06:30:00,METAR VVTS 070630Z 25007KT 200V330 CAVOK 37/20 Q1009 NOSIG
2026-04-07 06:00:00,METAR VVTS 070600Z VRB05KT 9999 FEW030 36/20 Q1009 NOSIG
2026-04-07 05:30:00,METAR VVTS 070530Z VRB03KT CAVOK 36/21 Q1010 NOSIG
2026-04-07 05:00:00,METAR VVTS 070500Z VRB06KT 9999 FEW041 34/21 Q1010 NOSIG
2026-04-07 04:30:00,METAR VVTS 070430Z 24010KT 9999 FEW044 33/22 Q1011 NOSIG
2026-04-07 04:00:00,METAR VVTS 070400Z VRB04KT 9999 SCT035 33/23 Q1011 NOSIG
2026-04-07 03:30:00,METAR VVTS 070330Z 21005KT 150V280 9999 SCT036 32/23 Q1012 NOSIG
2026-04-07 03:00:00,METAR VVTS 070300Z 19005KT 110V230 9999 SCT033 32/24 Q1012 NOSIG
2026-04-07 02:30:00,METAR VVTS 070230Z 22004KT 190V300 9999 SCT027 30/24 Q1012 NOSIG
2026-04-07 02:00:00,METAR VVTS 070200Z 28004KT 220V310 9999 BKN025 29/24 Q1012 NOSIG
2026-04-07 01:30:00,METAR VVTS 070130Z 26005KT 230V300 9999 BKN030 30/24 Q1012 NOSIG
2026-04-07 01:00:00,METAR VVTS 070100Z 24005KT 9999 SCT019 BKN024 29/24 Q1012 NOSIG
2026-04-07 00:30:00,METAR VVTS 070030Z 22006KT 9999 SCT017 28/25 Q1012 NOSIG
2026-04-07 00:00:00,METAR VVTS 070000Z 23006KT 9999 FEW017 27/25 Q1011 NOSIG
2026-04-06 23:30:00,METAR VVTS 062330Z 24006KT 9999 FEW027 27/25 Q1011 NOSIG
2026-04-06 23:00:00,METAR VVTS 062300Z 24006KT 9999 FEW013 27/25 Q1010 NOSIG
2026-04-06 22:30:00,METAR VVTS 062230Z 22008KT 9999 FEW012 27/25 Q1010 NOSIG
2026-04-06 22:00:00,METAR VVTS 062200Z 21008KT 9999 FEW012 BKN014 27/25 Q1010 NOSIG
2026-04-06 21:30:00,METAR VVTS 062130Z 21007KT 9999 SCT013 BKN015 28/26 Q1010 NOSIG
2026-04-06 21:00:00,METAR VVTS 062100Z 21007KT 180V250 9999 FEW015 BKN024 27/26 Q1009 NOSIG
2026-04-06 20:30:00,METAR VVTS 062030Z 21007KT 9999 BKN019 28/25 Q1009 NOSIG
2026-04-06 20:00:00,METAR VVTS 062000Z 20008KT 9999 BKN016 28/25 Q1009 NOSIG
2026-04-06 19:30:00,METAR VVTS 061930Z 20006KT 170V230 9999 BKN016 28/25 Q1009 NOSIG
2026-04-06 19:00:00,METAR VVTS 061900Z 21008KT 9999 SCT017 BKN029 28/25 Q1010 NOSIG
2026-04-06 18:30:00,METAR VVTS 061830Z 21008KT 160V240 9999 SCT018 28/25 Q1010 NOSIG
2026-04-06 18:00:00,METAR VVTS 061800Z 19008KT 9999 BKN028 28/25 Q1010 NOSIG
2026-04-06 17:30:00,METAR VVTS 061730Z 20008KT 9999 SCT017 28/25 Q1010 NOSIG
2026-04-06 17:00:00,METAR VVTS 061700Z 20008KT 170V230 9999 SCT017 28/25 Q1010 NOSIG
2026-04-06 16:30:00,METAR VVTS 061630Z 19010KT 9999 FEW017 28/25 Q1010 NOSIG
2026-04-06 16:00:00,METAR VVTS 061600Z 18009KT 150V210 9999 FEW020 29/25 Q1010 NOSIG
2026-04-06 15:30:00,METAR VVTS 061530Z 18009KT 150V210 CAVOK 29/25 Q1010 NOSIG
2026-04-06 15:00:00,METAR VVTS 061500Z 17010KT CAVOK 29/25 Q1010 NOSIG
2026-04-06 14:30:00,METAR VVTS 061430Z 17010KT 140V200 CAVOK 29/25 Q1010 NOSIG
2026-04-06 14:00:00,METAR VVTS 061400Z 18009KT CAVOK 29/25 Q1009 NOSIG
2026-04-06 13:30:00,METAR VVTS 061330Z 17010KT CAVOK 29/25 Q1009 NOSIG
2026-04-06 13:00:00,METAR VVTS 061300Z 16009KT CAVOK 29/25 Q1009 NOSIG
2026-04-06 12:30:00,METAR VVTS 061230Z 15009KT 110V180 CAVOK 30/25 Q1008 NOSIG
2026-04-06 12:00:00,METAR VVTS 061200Z 17010KT 130V240 CAVOK 30/24 Q1008 NOSIG
2026-04-06 11:30:00,METAR VVTS 061130Z 16011KT CAVOK 31/24 Q1007 NOSIG
2026-04-06 11:00:00,METAR VVTS 061100Z 15012KT CAVOK 31/24 Q1007 NOSIG
2026-04-06 10:30:00,METAR VVTS 061030Z 16011KT CAVOK 32/24 Q1007 NOSIG
2026-04-06 10:00:00,METAR VVTS 061000Z 19010KT CAVOK 34/24 Q1007 NOSIG
2026-04-06 09:30:00,METAR VVTS 060930Z 16010KT 120V210 CAVOK 34/24 Q1007 NOSIG
2026-04-06 09:00:00,METAR VVTS 060900Z 16009KT 130V210 CAVOK 35/23 Q1007 NOSIG
2026-04-06 08:30:00,METAR VVTS 060830Z 14010KT 110V190 CAVOK 35/23 Q1007 NOSIG
2026-04-06 08:00:00,METAR VVTS 060800Z 17009KT 110V210 9999 FEW029 35/24 Q1007 NOSIG
2026-04-06 07:30:00,METAR VVTS 060730Z 18008KT 140V290 9999 FEW044 35/23 Q1007 NOSIG
2026-04-06 07:00:00,METAR VVTS 060700Z 15008KT 090V210 9999 FEW045 35/23 Q1008 NOSIG
2026-04-06 06:30:00,METAR VVTS 060630Z VRB05KT 9999 FEW048 35/22 Q1008 NOSIG
2026-04-06 06:00:00,METAR VVTS 060600Z 20008KT 140V250 CAVOK 35/22 Q1009 NOSIG
2026-04-06 05:30:00,METAR VVTS 060530Z VRB06KT 9999 FEW025 34/22 Q1009 NOSIG
2026-04-06 05:00:00,METAR VVTS 060500Z VRB04KT 9999 FEW042 33/22 Q1010 NOSIG
2026-04-06 04:30:00,METAR VVTS 060430Z VRB05KT 9999 FEW039 33/22 Q1010 NOSIG
2026-04-06 04:00:00,METAR VVTS 060400Z 12005KT 050V160 9999 FEW037 32/23 Q1010 NOSIG
2026-04-06 03:30:00,METAR VVTS 060330Z 13006KT 050V220 9999 SCT033 32/23 Q1011 NOSIG
2026-04-06 03:00:00,METAR VVTS 060300Z 22008KT 160V250 9999 BKN028 32/23 Q1011 NOSIG
2026-04-06 02:30:00,METAR VVTS 060230Z VRB06KT 9999 BKN023 31/23 Q1011 NOSIG
2026-04-06 02:00:00,METAR VVTS 060200Z 17007KT 140V220 9999 BKN023 29/24 Q1011 NOSIG
2026-04-06 01:30:00,METAR VVTS 060130Z 22009KT 170V240 9999 BKN021 29/24 Q1011 NOSIG
2026-04-06 01:00:00,METAR VVTS 060100Z 20008KT 9999 BKN020 29/24 Q1011 NOSIG
2026-04-06 00:30:00,METAR VVTS 060030Z 20007KT 9999 BKN018 BKN023 28/25 Q1010 NOSIG
2026-04-06 00:00:00,METAR VVTS 060000Z 20007KT 9999 BKN015 27/25 Q1010 NOSIG
2026-04-05 23:30:00,METAR VVTS 052330Z 19005KT 150V220 9999 BKN015 27/25 Q1010 NOSIG
2026-04-05 23:00:00,METAR VVTS 052300Z 20005KT 9999 BKN017 27/25 Q1010 NOSIG
2026-04-05 22:30:00,METAR VVTS 052230Z 17004KT 100V200 9999 FEW016 BKN023 27/25 Q1009 NOSIG
2026-04-05 22:00:00,METAR VVTS 052200Z 16004KT 130V190 9999 FEW018 27/24 Q1009 NOSIG
2026-04-05 21:30:00,METAR VVTS 052130Z 17005KT 130V200 9999 SCT018 27/24 Q1009 NOSIG
2026-04-05 21:00:00,METAR VVTS 052100Z 18005KT 150V210 9999 SCT019 27/24 Q1009 NOSIG
2026-04-05 20:30:00,METAR VVTS 052030Z 18006KT 9999 SCT019 BKN037 27/24 Q1008 NOSIG
2026-04-05 20:00:00,METAR VVTS 052000Z 18006KT 9999 SCT018 SCT036 27/24 Q1008 NOSIG
2026-04-05 19:30:00,METAR VVTS 051930Z 18007KT 160V220 9999 FEW018 27/24 Q1008 NOSIG
2026-04-05 19:00:00,METAR VVTS 051900Z 18007KT 9999 FEW018 27/24 Q1009 NOSIG
2026-04-05 18:30:00,METAR VVTS 051830Z 19006KT 140V230 9999 FEW019 28/24 Q1009 NOSIG
2026-04-05 18:00:00,METAR VVTS 051800Z 18007KT 130V200 9999 FEW019 28/24 Q1009 NOSIG
2026-04-05 17:30:00,METAR VVTS 051730Z 18010KT 140V200 9999 SCT019 28/24 Q1009 NOSIG
2026-04-05 17:00:00,METAR VVTS 051700Z 18009KT 160V220 9999 FEW018 28/24 Q1009 NOSIG
2026-04-05 16:30:00,METAR VVTS 051630Z 16010KT 9999 FEW019 28/24 Q1009 NOSIG
2026-04-05 16:00:00,METAR VVTS 051600Z 17009KT 9999 FEW019 28/24 Q1009 NOSIG
2026-04-05 15:00:00,METAR VVTS 051500Z 17010KT 140V210 CAVOK 28/25 Q1009 NOSIG
2026-04-05 13:00:00,METAR VVTS 051300Z 16009KT CAVOK 29/24 Q1008 NOSIG
2026-04-05 12:30:00,METAR VVTS 051230Z 17008KT CAVOK 29/24 Q1007 NOSIG
2026-04-05 12:00:00,METAR VVTS 051200Z 16009KT 130V200 CAVOK 30/24 Q1007 NOSIG
2026-04-05 11:30:00,METAR VVTS 051130Z 17010KT 150V220 CAVOK 30/23 Q1006 NOSIG
2026-04-05 11:00:00,METAR VVTS 051100Z 15011KT CAVOK 31/23 Q1006 NOSIG
2026-04-05 10:30:00,METAR VVTS 051030Z 18011KT CAVOK 32/23 Q1006 NOSIG
2026-04-05 10:00:00,METAR VVTS 051000Z 18012KT 150V210 CAVOK 33/23 Q1006 NOSIG
2026-04-05 09:30:00,METAR VVTS 050930Z 17011KT 140V250 CAVOK 33/24 Q1006 NOSIG
2026-04-05 09:00:00,METAR VVTS 050900Z 17011KT 140V210 9999 FEW023 34/23 Q1006 NOSIG
2026-04-05 08:30:00,METAR VVTS 050830Z 19009KT 150V210 9999 FEW023 35/23 Q1006 NOSIG
2026-04-05 08:00:00,METAR VVTS 050800Z 18009KT 140V210 9999 FEW023 35/23 Q1006 NOSIG
2026-04-05 07:30:00,METAR VVTS 050730Z 15009KT 100V200 CAVOK 36/22 Q1006 NOSIG
2026-04-05 07:00:00,METAR VVTS 050700Z 18006KT 100V260 CAVOK 35/22 Q1006 NOSIG
2026-04-05 06:30:00,METAR VVTS 050630Z 17008KT 120V210 CAVOK 35/21 Q1007 NOSIG
2026-04-05 06:00:00,METAR VVTS 050600Z 20008KT 150V260 CAVOK 35/22 Q1007 NOSIG
2026-04-05 05:30:00,METAR VVTS 050530Z VRB05KT 9999 FEW048 34/22 Q1008 NOSIG
2026-04-05 05:00:00,METAR VVTS 050500Z VRB06KT 9999 SCT045 33/22 Q1008 NOSIG
2026-04-05 04:30:00,METAR VVTS 050430Z VRB05KT 9999 BKN040 33/22 Q1009 NOSIG
2026-04-05 04:00:00,METAR VVTS 050400Z 15005KT 090V230 9999 BKN040 33/22 Q1009 NOSIG
2026-04-05 03:30:00,METAR VVTS 050330Z 12007KT 060V170 9999 BKN040 33/23 Q1010 NOSIG
2026-04-05 03:00:00,METAR VVTS 050300Z 19005KT 110V260 9999 BKN033 32/23 Q1010 NOSIG
2026-04-05 02:30:00,METAR VVTS 050230Z 12004KT 050V200 9999 BKN022 30/23 Q1010 NOSIG
2026-04-05 02:00:00,METAR VVTS 050200Z 16004KT 100V230 9999 SCT025 31/23 Q1010 NOSIG
2026-04-05 01:30:00,METAR VVTS 050130Z 21006KT 180V280 9999 SCT022 30/23 Q1009 NOSIG
2026-04-05 01:00:00,METAR VVTS 050100Z 19006KT 170V230 9999 SCT020 29/24 Q1009 NOSIG
2026-04-05 00:30:00,METAR VVTS 050030Z 19008KT 160V220 9999 FEW023 28/24 Q1009 NOSIG
2026-04-05 00:00:00,METAR VVTS 050000Z 20006KT 170V230 9999 FEW027 27/25 Q1008 NOSIG
2026-04-04 23:30:00,METAR VVTS 042330Z 21007KT CAVOK 27/25 Q1008 NOSIG
2026-04-04 23:00:00,METAR VVTS 042300Z 19007KT 150V220 CAVOK 27/24 Q1008 NOSIG
2026-04-04 22:30:00,METAR VVTS 042230Z 20006KT 170V230 9999 FEW016 27/25 Q1008 NOSIG
2026-04-04 22:00:00,METAR VVTS 042200Z 19006KT 9999 FEW016 27/25 Q1007 NOSIG
2026-04-04 21:30:00,METAR VVTS 042130Z 20006KT 9999 FEW014 SCT017 27/25 Q1007 NOSIG
2026-04-04 21:00:00,METAR VVTS 042100Z 20004KT 140V230 9999 FEW014 SCT018 27/25 Q1007 NOSIG
2026-04-04 20:30:00,METAR VVTS 042030Z 19006KT 9999 FEW014 27/25 Q1006 NOSIG
2026-04-04 20:00:00,METAR VVTS 042000Z 20006KT 9999 FEW015 27/25 Q1007 NOSIG
2026-04-04 19:30:00,METAR VVTS 041930Z 19006KT 160V220 9999 FEW016 27/25 Q1007 NOSIG
2026-04-04 19:00:00,METAR VVTS 041900Z 19005KT 160V230 CAVOK 27/25 Q1007 NOSIG
2026-04-04 18:30:00,METAR VVTS 041830Z 19006KT CAVOK 27/25 Q1007 NOSIG
2026-04-04 18:00:00,METAR VVTS 041800Z VRB06KT CAVOK 28/25 Q1008 NOSIG
2026-04-04 17:30:00,METAR VVTS 041730Z 19008KT CAVOK 28/25 Q1008 NOSIG
2026-04-04 17:00:00,METAR VVTS 041700Z 19007KT CAVOK 28/24 Q1008 NOSIG
2026-04-04 16:30:00,METAR VVTS 041630Z 20008KT CAVOK 28/24 Q1008 NOSIG
2026-04-04 16:00:00,METAR VVTS 041600Z 20007KT CAVOK 28/24 Q1008 NOSIG
2026-04-04 15:30:00,METAR VVTS 041530Z 19006KT 110V250 CAVOK 29/23 Q1008 NOSIG
2026-04-04 15:00:00,METAR VVTS 041500Z 19007KT CAVOK 29/24 Q1008 NOSIG
2026-04-04 14:30:00,METAR VVTS 041430Z 18008KT CAVOK 29/24 Q1008 NOSIG
2026-04-04 14:00:00,METAR VVTS 041400Z 18007KT CAVOK 29/24 Q1008 NOSIG
2026-04-04 13:30:00,METAR VVTS 041330Z 19010KT CAVOK 29/24 Q1008 NOSIG
2026-04-04 13:00:00,METAR VVTS 041300Z 19009KT 150V250 CAVOK 29/24 Q1007 NOSIG
2026-04-04 12:30:00,METAR VVTS 041230Z 17010KT CAVOK 30/24 Q1006 NOSIG
2026-04-04 12:00:00,METAR VVTS 041200Z 16011KT CAVOK 30/24 Q1006 NOSIG
2026-04-04 11:30:00,METAR VVTS 041130Z 16011KT CAVOK 30/24 Q1006 NOSIG
2026-04-04 11:00:00,METAR VVTS 041100Z 17009KT 140V200 CAVOK 31/24 Q1006 NOSIG
2026-04-04 10:30:00,METAR VVTS 041030Z 18009KT CAVOK 32/24 Q1006 NOSIG
2026-04-04 10:00:00,METAR VVTS 041000Z 18009KT CAVOK 33/23 Q1005 NOSIG
2026-04-04 09:30:00,METAR VVTS 040930Z 18010KT 150V230 CAVOK 34/22 Q1005 NOSIG
2026-04-04 09:00:00,METAR VVTS 040900Z 23007KT 200V270 CAVOK 35/21 Q1005 NOSIG
2026-04-04 08:30:00,METAR VVTS 040830Z 23007KT 180V330 CAVOK 35/21 Q1006 NOSIG
2026-04-04 08:00:00,METAR VVTS 040800Z 24007KT 190V310 9999 FEW039 35/20 Q1006 NOSIG
2026-04-04 07:30:00,METAR VVTS 040730Z 21009KT 9999 FEW034 35/21 Q1006 NOSIG
2026-04-04 07:00:00,METAR VVTS 040700Z 19007KT 160V220 9999 FEW034 34/20 Q1007 NOSIG
2026-04-04 06:30:00,METAR VVTS 040630Z 20008KT 160V230 9999 FEW031 34/20 Q1007 NOSIG
2026-04-04 06:00:00,METAR VVTS 040600Z VRB06KT 9999 FEW031 34/20 Q1008 NOSIG
2026-04-04 05:30:00,METAR VVTS 040530Z VRB04KT 9999 FEW035 34/20 Q1008 NOSIG
2026-04-04 05:00:00,METAR VVTS 040500Z VRB04KT 9999 SCT035 34/20 Q1009 NOSIG
2026-04-04 04:30:00,METAR VVTS 040430Z 21006KT 150V270 9999 SCT045 33/20 Q1010 NOSIG
2026-04-04 04:00:00,METAR VVTS 040400Z 26005KT 200V350 9999 SCT045 32/20 Q1010 NOSIG
2026-04-04 03:30:00,METAR VVTS 040330Z 24006KT 170V290 9999 FEW030 SCT045 32/21 Q1011 NOSIG
2026-04-04 03:00:00,METAR VVTS 040300Z 21006KT 120V250 9999 BKN034 30/21 Q1011 NOSIG
2026-04-04 02:30:00,METAR VVTS 040230Z 21006KT 9999 BKN033 30/22 Q1011 NOSIG
2026-04-04 02:00:00,METAR VVTS 040200Z 21007KT 150V240 9999 BKN029 29/22 Q1011 NOSIG
2026-04-04 01:30:00,METAR VVTS 040130Z 15005KT 100V200 9999 BKN021 29/22 Q1010 NOSIG
2026-04-04 01:00:00,METAR VVTS 040100Z 20005KT 120V250 9999 BKN018 28/23 Q1010 NOSIG
2026-04-04 00:30:00,METAR VVTS 040030Z 19003KT 120V290 9999 SCT017 27/24 Q1010 NOSIG
2026-04-04 00:00:00,METAR VVTS 040000Z 17003KT 120V240 9999 FEW016 27/24 Q1009 NOSIG
2026-04-03 23:30:00,METAR VVTS 032330Z VRB04KT 9999 FEW017 26/24 Q1009 NOSIG
2026-04-03 23:00:00,METAR VVTS 032300Z 22003KT 180V250 9999 FEW038 26/24 Q1009 NOSIG
2026-04-03 22:30:00,METAR VVTS 032230Z 19004KT CAVOK 26/24 Q1009 NOSIG
2026-04-03 22:00:00,METAR VVTS 032200Z 18006KT CAVOK 26/24 Q1008 NOSIG
2026-04-03 21:30:00,METAR VVTS 032130Z 16004KT 110V220 CAVOK 26/24 Q1008 NOSIG
2026-04-03 21:00:00,METAR VVTS 032100Z 18007KT 140V200 CAVOK 26/24 Q1008 NOSIG
2026-04-03 20:30:00,METAR VVTS 032030Z 18007KT CAVOK 26/24 Q1008 NOSIG
2026-04-03 20:00:00,METAR VVTS 032000Z 16007KT CAVOK 26/24 Q1008 NOSIG
2026-04-03 19:30:00,METAR VVTS 031930Z 16005KT 120V220 9999 FEW018 27/24 Q1008 NOSIG
2026-04-03 19:00:00,METAR VVTS 031900Z 16005KT 130V220 9999 FEW016 27/24 Q1009 NOSIG
2026-04-03 18:30:00,METAR VVTS 031830Z 14005KT CAVOK 27/24 Q1009 NOSIG
2026-04-03 18:00:00,METAR VVTS 031800Z 17006KT 130V190 CAVOK 27/24 Q1009 NOSIG
2026-04-03 17:30:00,METAR VVTS 031730Z 16007KT 100V190 CAVOK 27/24 Q1010 NOSIG
2026-04-03 17:00:00,METAR VVTS 031700Z VRB06KT CAVOK 27/24 Q1010 NOSIG
2026-04-03 16:30:00,METAR VVTS 031630Z 14007KT 100V160 CAVOK 27/24 Q1010 NOSIG
2026-04-03 16:00:00,METAR VVTS 031600Z 15007KT 110V170 CAVOK 27/24 Q1010 NOSIG
2026-04-03 15:30:00,METAR VVTS 031530Z 15009KT CAVOK 27/24 Q1010 NOSIG
2026-04-03 15:00:00,METAR VVTS 031500Z 16008KT 130V200 CAVOK 28/24 Q1010 NOSIG
2026-04-03 14:30:00,METAR VVTS 031430Z 16008KT CAVOK 28/24 Q1010 NOSIG
2026-04-03 14:00:00,METAR VVTS 031400Z 16009KT CAVOK 28/23 Q1010 NOSIG
2026-04-03 13:30:00,METAR VVTS 031330Z 16010KT CAVOK 28/23 Q1010 NOSIG
2026-04-03 13:00:00,METAR VVTS 031300Z 16010G21KT 100V180 CAVOK 28/23 Q1009 NOSIG
2026-04-03 12:30:00,METAR VVTS 031230Z 17011KT CAVOK 28/23 Q1009 NOSIG
2026-04-03 12:00:00,METAR VVTS 031200Z 17011KT CAVOK 28/23 Q1008 NOSIG
2026-04-03 11:30:00,METAR VVTS 031130Z 15011KT 130V190 CAVOK 29/23 Q1008 NOSIG
2026-04-03 11:00:00,METAR VVTS 031100Z 16012KT CAVOK 29/22 Q1008 NOSIG
2026-04-03 10:30:00,METAR VVTS 031030Z 16012KT CAVOK 30/22 Q1008 NOSIG
2026-04-03 10:00:00,METAR VVTS 031000Z 17011KT CAVOK 32/21 Q1007 NOSIG
2026-04-03 09:30:00,METAR VVTS 030930Z VRB10KT CAVOK 32/21 Q1007 NOSIG
2026-04-03 09:00:00,METAR VVTS 030900Z 17009KT 140V210 CAVOK 32/20 Q1007 NOSIG
2026-04-03 08:30:00,METAR VVTS 030830Z 17009KT 120V190 CAVOK 33/20 Q1007 NOSIG
2026-04-03 08:00:00,METAR VVTS 030800Z 17009KT 130V200 CAVOK 33/21 Q1007 NOSIG
2026-04-03 07:30:00,METAR VVTS 030730Z 16009KT 130V210 9999 FEW023 SCT049 33/21 Q1008 NOSIG
2026-04-03 07:00:00,METAR VVTS 030700Z 19010KT 150V210 9999 FEW019 33/21 Q1008 NOSIG
2026-04-03 06:30:00,METAR VVTS 030630Z VRB06KT 9999 SCT014 33/20 Q1008 NOSIG
2026-04-03 06:00:00,METAR VVTS 030600Z VRB07G18KT 9999 FEW014 32/20 Q1009 NOSIG
2026-04-03 05:30:00,METAR VVTS 030530Z 17009KT 120V240 9999 FEW035 33/20 Q1009 NOSIG
2026-04-03 05:00:00,METAR VVTS 030500Z 15009KT 100V190 CAVOK 33/21 Q1010 NOSIG
2026-04-03 04:30:00,METAR VVTS 030430Z 14008KT 110V170 9999 FEW043 33/20 Q1010 NOSIG
2026-04-03 04:00:00,METAR VVTS 030400Z 15007KT 100V220 9999 FEW038 32/20 Q1011 NOSIG
2026-04-03 03:30:00,METAR VVTS 030330Z 14009KT 100V170 9999 FEW037 32/20 Q1011 NOSIG
2026-04-03 03:00:00,METAR VVTS 030300Z 14008G19KT 080V170 9999 FEW034 SCT060 31/21 Q1012 NOSIG
2026-04-03 02:30:00,METAR VVTS 030230Z 16008KT 110V200 9999 FEW027 30/22 Q1012 NOSIG
2026-04-03 02:00:00,METAR VVTS 030200Z 14009KT 100V180 9999 SCT026 29/22 Q1012 NOSIG
2026-04-03 01:30:00,METAR VVTS 030130Z 13008KT 100V160 9999 SCT026 29/22 Q1012 NOSIG
2026-04-03 01:00:00,METAR VVTS 030100Z 14008KT 100V170 9999 FEW024 SCT059 28/22 Q1012 NOSIG
2026-04-03 00:30:00,METAR VVTS 030030Z 13008KT CAVOK 28/22 Q1011 NOSIG
2026-04-03 00:00:00,METAR VVTS 030000Z 11008KT CAVOK 27/22 Q1011 NOSIG
2026-04-02 23:30:00,METAR VVTS 022330Z 13007KT 090V170 CAVOK 26/22 Q1011 NOSIG
2026-04-02 23:00:00,METAR VVTS 022300Z 12007KT 090V150 CAVOK 26/22 Q1010 NOSIG
2026-04-02 22:30:00,METAR VVTS 022230Z 12007KT CAVOK 26/23 Q1010 NOSIG
2026-04-02 22:00:00,METAR VVTS 022200Z 12007KT 090V150 CAVOK 26/23 Q1010 NOSIG
2026-04-02 21:30:00,METAR VVTS 022130Z 12007KT CAVOK 26/23 Q1010 NOSIG
2026-04-02 21:00:00,METAR VVTS 022100Z 12007KT 100V160 CAVOK 26/22 Q1010 NOSIG
2026-04-02 20:30:00,METAR VVTS 022030Z 14006KT CAVOK 27/22 Q1009 NOSIG
2026-04-02 20:00:00,METAR VVTS 022000Z 14008KT 110V180 CAVOK 27/22 Q1009 NOSIG
2026-04-02 19:30:00,METAR VVTS 021930Z 14007KT CAVOK 27/22 Q1010 NOSIG
2026-04-02 18:30:00,METAR VVTS 021830Z 13007KT 090V160 9999 FEW026 27/22 Q1010 NOSIG
2026-04-02 18:00:00,METAR VVTS 021800Z 13009KT 100V180 CAVOK 27/22 Q1010 NOSIG
2026-04-02 17:30:00,METAR VVTS 021730Z 14008KT CAVOK 27/22 Q1010 NOSIG
2026-04-02 17:00:00,METAR VVTS 021700Z 12009KT 100V170 CAVOK 27/22 Q1011 NOSIG
2026-04-02 16:30:00,METAR VVTS 021630Z 13009KT 100V160 CAVOK 27/22 Q1011 NOSIG
2026-04-02 16:00:00,METAR VVTS 021600Z 12011KT CAVOK 27/22 Q1011 NOSIG
2026-04-02 15:30:00,METAR VVTS 021530Z 13010KT CAVOK 28/22 Q1011 NOSIG
2026-04-02 15:00:00,METAR VVTS 021500Z 13012KT CAVOK 28/22 Q1011 NOSIG
2026-04-02 14:30:00,METAR VVTS 021430Z 14010KT CAVOK 28/22 Q1011 NOSIG
2026-04-02 14:00:00,METAR VVTS 021400Z 15010KT 120V180 CAVOK 28/22 Q1011 NOSIG
2026-04-02 13:30:00,METAR VVTS 021330Z 12010KT 070V180 9999 FEW027 28/22 Q1011 NOSIG
2026-04-02 13:00:00,METAR VVTS 021300Z 14009KT 110V190 CAVOK 28/23 Q1010 NOSIG
2026-04-02 12:30:00,METAR VVTS 021230Z 15009KT 110V170 CAVOK 29/23 Q1010 NOSIG
2026-04-02 12:00:00,METAR VVTS 021200Z 15010KT 120V180 CAVOK 29/23 Q1009 NOSIG
2026-04-02 11:30:00,METAR VVTS 021130Z 14009KT 090V190 CAVOK 29/22 Q1009 NOSIG
2026-04-02 11:00:00,METAR VVTS 021100Z 16010KT 130V190 CAVOK 30/22 Q1009 NOSIG
2026-04-02 10:30:00,METAR VVTS 021030Z 16013KT CAVOK 31/22 Q1008 NOSIG
2026-04-02 10:00:00,METAR VVTS 021000Z 14011KT 110V170 CAVOK 31/22 Q1008 NOSIG
2026-04-02 09:30:00,METAR VVTS 020930Z 17011KT 140V200 9999 FEW032 32/22 Q1008 NOSIG
2026-04-02 09:00:00,METAR VVTS 020900Z 15010KT 120V180 CAVOK 32/22 Q1008 NOSIG
2026-04-02 08:30:00,METAR VVTS 020830Z 17012KT 140V200 9999 FEW048 33/23 Q1008 NOSIG
2026-04-02 08:00:00,METAR VVTS 020800Z 17012KT CAVOK 34/23 Q1008 NOSIG
2026-04-02 07:30:00,METAR VVTS 020730Z 16008KT 110V200 CAVOK 33/22 Q1008 NOSIG
2026-04-02 07:00:00,METAR VVTS 020700Z 15006KT 110V200 9999 FEW048 34/22 Q1009 NOSIG
2026-04-02 06:30:00,METAR VVTS 020630Z 17007KT 130V200 CAVOK 33/21 Q1009 NOSIG
2026-04-02 06:00:00,METAR VVTS 020600Z VRB04KT CAVOK 33/21 Q1010 NOSIG
2026-04-02 05:30:00,METAR VVTS 020530Z 12007KT 070V170 9999 FEW022 SCT050 33/21 Q1010 NOSIG
2026-04-02 05:00:00,METAR VVTS 020500Z 13008KT 070V170 9999 SCT033 33/22 Q1011 NOSIG
2026-04-02 04:30:00,METAR VVTS 020430Z 12009KT 080V140 9999 SCT032 33/22 Q1012 NOSIG
2026-04-02 04:00:00,METAR VVTS 020400Z 11008KT 060V160 9999 SCT031 32/22 Q1012 NOSIG
2026-04-02 03:30:00,METAR VVTS 020330Z 11008KT 080V140 9999 SCT030 31/22 Q1013 NOSIG
2026-04-02 03:00:00,METAR VVTS 020300Z 12008KT 070V170 9999 SCT033 31/22 Q1013 NOSIG
2026-04-02 02:30:00,METAR VVTS 020230Z 16006KT 130V220 9999 SCT030 30/22 Q1013 NOSIG
2026-04-02 02:00:00,METAR VVTS 020200Z 14007KT 100V180 9999 SCT026 30/23 Q1013 NOSIG
2026-04-02 01:30:00,METAR VVTS 020130Z 12008KT 080V180 9999 BKN020 29/23 Q1013 NOSIG
2026-04-02 01:00:00,METAR VVTS 020100Z 14005KT 060V200 9999 SCT019 28/24 Q1012 NOSIG
2026-04-02 00:30:00,METAR VVTS 020030Z 14006KT 100V190 9999 SCT019 28/24 Q1012 NOSIG
2026-04-02 00:00:00,METAR VVTS 020000Z 15007KT 9999 FEW017 27/24 Q1012 NOSIG
2026-04-01 23:30:00,METAR VVTS 012330Z 15005KT 110V170 9999 FEW016 27/24 Q1011 NOSIG
2026-04-01 23:00:00,METAR VVTS 012300Z 14008KT 9999 FEW018 27/24 Q1011 NOSIG
2026-04-01 22:30:00,METAR VVTS 012230Z 16005KT 9999 FEW018 27/24 Q1010 NOSIG
2026-04-01 22:00:00,METAR VVTS 012200Z 16006KT 9999 FEW019 27/24 Q1010 NOSIG
2026-04-01 21:30:00,METAR VVTS 012130Z 16007KT 130V190 9999 FEW019 27/24 Q1010 NOSIG
2026-04-01 21:00:00,METAR VVTS 012100Z 16008KT 9999 FEW018 27/24 Q1010 NOSIG
2026-04-01 20:30:00,METAR VVTS 012030Z 15007KT 9999 FEW018 27/24 Q1010 NOSIG
2026-04-01 20:00:00,METAR VVTS 012000Z 16009KT 9999 FEW018 27/24 Q1010 NOSIG
2026-04-01 19:30:00,METAR VVTS 011930Z 16008KT 120V180 9999 SCT019 27/24 Q1010 NOSIG
2026-04-01 19:00:00,METAR VVTS 011900Z 16009KT 9999 FEW019 27/24 Q1010 NOSIG
2026-04-01 18:30:00,METAR VVTS 011830Z 14008KT 9999 FEW018 27/24 Q1010 NOSIG
2026-04-01 18:00:00,METAR VVTS 011800Z 15007KT 120V180 9999 SCT018 27/24 Q1010 NOSIG
2026-04-01 17:30:00,METAR VVTS 011730Z 16008KT 130V220 9999 SCT018 27/24 Q1011 NOSIG
2026-04-01 17:00:00,METAR VVTS 011700Z 17009KT 130V190 9999 SCT018 27/24 Q1011 NOSIG
2026-04-01 16:30:00,METAR VVTS 011630Z 16006KT 120V180 9999 FEW018 27/24 Q1011 NOSIG
2026-04-01 16:00:00,METAR VVTS 011600Z 15006KT 120V190 9999 FEW019 28/24 Q1011 NOSIG
2026-04-01 15:30:00,METAR VVTS 011530Z 16009KT 9999 FEW019 28/24 Q1011 NOSIG
2026-04-01 15:00:00,METAR VVTS 011500Z 16009KT 130V190 CAVOK 28/24 Q1011 NOSIG
2026-04-01 14:00:00,METAR VVTS 011400Z 16011KT CAVOK 28/23 Q1010 NOSIG
2026-04-01 13:30:00,METAR VVTS 011330Z 16009KT 120V180 CAVOK 28/23 Q1010 NOSIG
2026-04-01 13:00:00,METAR VVTS 011300Z 16009KT CAVOK 28/23 Q1010 NOSIG
2026-04-01 12:30:00,METAR VVTS 011230Z 15010KT 090V210 CAVOK 28/22 Q1009 NOSIG
2026-04-01 12:00:00,METAR VVTS 011200Z 17010KT CAVOK 29/22 Q1009 NOSIG
2026-04-01 11:30:00,METAR VVTS 011130Z 17012KT CAVOK 29/22 Q1008 NOSIG
2026-04-01 11:00:00,METAR VVTS 011100Z 17010KT CAVOK 30/22 Q1008 NOSIG
2026-04-01 10:30:00,METAR VVTS 011030Z 18011KT 150V210 CAVOK 31/19 Q1008 NOSIG
2026-04-01 10:00:00,METAR VVTS 011000Z 16009KT CAVOK 31/20 Q1007 NOSIG
2026-04-01 09:30:00,METAR VVTS 010930Z 17011KT CAVOK 32/22 Q1007 NOSIG
2026-04-01 09:00:00,METAR VVTS 010900Z 18011KT 140V210 CAVOK 33/22 Q1007 NOSIG
2026-04-01 08:30:00,METAR VVTS 010830Z 17011KT CAVOK 33/22 Q1007 NOSIG
2026-04-01 08:00:00,METAR VVTS 010800Z 17008KT 130V210 CAVOK 33/22 Q1007 NOSIG
2026-04-01 07:30:00,METAR VVTS 010730Z VRB09KT 9999 FEW038 34/21 Q1008 NOSIG
2026-04-01 07:00:00,METAR VVTS 010700Z 18007KT 130V260 9999 FEW036 34/21 Q1008 NOSIG
2026-04-01 06:30:00,METAR VVTS 010630Z VRB08KT 9999 FEW035 34/21 Q1009 NOSIG
2026-04-01 06:00:00,METAR VVTS 010600Z VRB06KT 9999 FEW035 34/21 Q1009 NOSIG
2026-04-01 05:30:00,METAR VVTS 010530Z 16006KT 070V230 CAVOK 34/21 Q1010 NOSIG
2026-04-01 05:00:00,METAR VVTS 010500Z 17006KT 070V220 CAVOK 33/21 Q1011 NOSIG
2026-04-01 04:30:00,METAR VVTS 010430Z VRB05KT CAVOK 33/21 Q1011 NOSIG
2026-04-01 04:00:00,METAR VVTS 010400Z 15006KT 090V220 CAVOK 32/20 Q1012 NOSIG
2026-04-01 03:30:00,METAR VVTS 010330Z VRB05KT CAVOK 32/22 Q1012 NOSIG
2026-04-01 03:00:00,METAR VVTS 010300Z 15006KT 050V200 9999 FEW023 30/23 Q1012 NOSIG
2026-04-01 02:30:00,METAR VVTS 010230Z 14006KT 090V190 9999 FEW023 30/23 Q1013 NOSIG
2026-04-01 02:00:00,METAR VVTS 010200Z 13006KT 080V210 9999 FEW021 29/22 Q1013 NOSIG
2026-04-01 01:30:00,METAR VVTS 010130Z 13007KT 090V170 9999 FEW021 29/23 Q1012 NOSIG
2026-04-01 01:00:00,METAR VVTS 010100Z 13006KT 050V190 9999 SCT018 28/24 Q1012 NOSIG
2026-04-01 00:30:00,METAR VVTS 010030Z 15007KT 090V180 9999 FEW018 27/24 Q1012 NOSIG
2026-04-01 00:00:00,METAR VVTS 010000Z 14006KT 110V170 9999 FEW014 27/24 Q1011 NOSIG
2026-03-31 23:30:00,METAR VVTS 312330Z 14006KT 9999 FEW015 26/24 Q1011 NOSIG
2026-03-31 23:00:00,METAR VVTS 312300Z 13005KT 9999 SCT014 26/24 Q1010 NOSIG
2026-03-31 22:30:00,METAR VVTS 312230Z 14004KT 9999 FEW013 26/24 Q1010 NOSIG
2026-03-31 22:00:00,METAR VVTS 312200Z 14007KT 010V170 9999 FEW015 26/23 Q1010 NOSIG
2026-03-31 21:30:00,METAR VVTS 312130Z 15007KT 9999 FEW015 26/24 Q1010 NOSIG
2026-03-31 21:00:00,METAR VVTS 312100Z 14007KT 070V160 9999 FEW015 26/24 Q1009 NOSIG
2026-03-31 20:30:00,METAR VVTS 312030Z 16008KT 9999 FEW015 SCT076 26/24 Q1009 NOSIG
2026-03-31 20:00:00,METAR VVTS 312000Z 15006KT 9999 SCT013 SCT062 26/24 Q1009 NOSIG
2026-03-31 19:30:00,METAR VVTS 311930Z 16007KT 9999 FEW012 BKN057 26/24 Q1009 NOSIG
2026-03-31 19:00:00,METAR VVTS 311900Z 15007KT 080V180 9999 SCT012 26/24 Q1009 NOSIG
2026-03-31 18:30:00,METAR VVTS 311830Z 16009KT 9999 FEW012 27/24 Q1009 NOSIG
2026-03-31 18:00:00,METAR VVTS 311800Z VRB09KT CAVOK 27/24 Q1010 NOSIG
2026-03-31 17:30:00,METAR VVTS 311730Z 16008KT CAVOK 27/23 Q1010 NOSIG
2026-03-31 17:00:00,METAR VVTS 311700Z 17007KT CAVOK 27/23 Q1010 NOSIG
2026-03-31 16:30:00,METAR VVTS 311630Z 14006KT CAVOK 27/24 Q1010 NOSIG
2026-03-31 16:00:00,METAR VVTS 311600Z 14008KT CAVOK 27/24 Q1010 NOSIG
2026-03-31 15:30:00,METAR VVTS 311530Z 14008KT 110V170 CAVOK 27/24 Q1010 NOSIG
2026-03-31 15:00:00,METAR VVTS 311500Z 13006KT 100V160 CAVOK 28/24 Q1010 NOSIG
2026-03-31 14:30:00,METAR VVTS 311430Z 15008KT 120V190 CAVOK 28/24 Q1010 NOSIG
2026-03-31 14:00:00,METAR VVTS 311400Z 14010KT CAVOK 28/23 Q1009 NOSIG
2026-03-31 13:30:00,METAR VVTS 311330Z 16009KT 120V190 CAVOK 28/23 Q1009 NOSIG
2026-03-31 13:00:00,METAR VVTS 311300Z 15008KT CAVOK 28/22 Q1009 NOSIG
2026-03-31 12:30:00,METAR VVTS 311230Z 14010KT CAVOK 29/22 Q1009 NOSIG
2026-03-31 12:00:00,METAR VVTS 311200Z 16009KT CAVOK 29/22 Q1008 NOSIG
2026-03-31 11:30:00,METAR VVTS 311130Z 16011KT CAVOK 29/22 Q1008 NOSIG
2026-03-31 11:00:00,METAR VVTS 311100Z 16010KT CAVOK 30/22 Q1008 NOSIG
2026-03-31 10:30:00,METAR VVTS 311030Z 16009KT 130V190 CAVOK 31/22 Q1007 NOSIG
2026-03-31 10:00:00,METAR VVTS 311000Z 16011KT 140V200 CAVOK 32/22 Q1007 NOSIG
2026-03-31 09:30:00,METAR VVTS 310930Z 18010KT 140V200 CAVOK 32/22 Q1007 NOSIG
2026-03-31 09:00:00,METAR VVTS 310900Z 19009KT 150V220 9999 FEW023 34/22 Q1007 NOSIG
2026-03-31 08:30:00,METAR VVTS 310830Z 16007KT 090V230 9999 FEW020 34/21 Q1007 NOSIG
2026-03-31 08:00:00,METAR VVTS 310800Z VRB05KT 9999 FEW020 35/21 Q1008 NOSIG
2026-03-31 07:30:00,METAR VVTS 310730Z VRB04KT 9999 FEW023 35/21 Q1008 NOSIG
2026-03-31 07:00:00,METAR VVTS 310700Z 18006KT 120V250 9999 FEW023 34/20 Q1009 NOSIG
2026-03-31 06:30:00,METAR VVTS 310630Z 15005G15KT 090V210 9999 FEW023 35/21 Q1009 NOSIG
2026-03-31 06:00:00,METAR VVTS 310600Z 12006KT 360V150 9999 FEW023 34/21 Q1010 NOSIG
2026-03-31 05:30:00,METAR VVTS 310530Z 19006KT 130V240 CAVOK 33/21 Q1011 NOSIG
2026-03-31 05:00:00,METAR VVTS 310500Z VRB06KT CAVOK 33/21 Q1011 NOSIG
2026-03-31 04:30:00,METAR VVTS 310430Z VRB04KT CAVOK 32/22 Q1012 NOSIG
2026-03-31 04:00:00,METAR VVTS 310400Z 24006KT 180V330 CAVOK 32/21 Q1012 NOSIG
2026-03-31 03:30:00,METAR VVTS 310330Z 11006KT 070V160 CAVOK 31/21 Q1012 NOSIG
2026-03-31 03:00:00,METAR VVTS 310300Z 11006KT 040V150 CAVOK 30/22 Q1013 NOSIG
2026-03-31 02:30:00,METAR VVTS 310230Z VRB05KT 9999 FEW027 30/22 Q1013 NOSIG
2026-03-31 02:00:00,METAR VVTS 310200Z 11006KT 070V160 9999 FEW025 29/23 Q1013 NOSIG
2026-03-31 01:30:00,METAR VVTS 310130Z 12005KT 050V180 9999 FEW020 29/23 Q1013 NOSIG
2026-03-31 01:00:00,METAR VVTS 310100Z 11009KT 080V140 9999 SCT019 28/24 Q1012 NOSIG
2026-03-31 00:30:00,METAR VVTS 310030Z 13007KT 100V170 9999 SCT016 27/24 Q1012 NOSIG
2026-03-31 00:00:00,METAR VVTS 310000Z 14006KT 090V160 9999 SCT015 27/24 Q1011 NOSIG
2026-03-30 23:30:00,METAR VVTS 302330Z 12006KT 100V160 9999 FEW014 SCT017 26/24 Q1011 NOSIG
2026-03-30 23:00:00,METAR VVTS 302300Z 12006KT 9999 FEW013 SCT017 26/24 Q1010 NOSIG
2026-03-30 22:30:00,METAR VVTS 302230Z 13005KT 100V180 9999 FEW014 SCT016 26/24 Q1010 NOSIG
2026-03-30 22:00:00,METAR VVTS 302200Z 16007KT 9999 FEW014 SCT016 26/24 Q1010 NOSIG
2026-03-30 21:30:00,METAR VVTS 302130Z 13007KT 9999 SCT014 SCT016 26/24 Q1009 NOSIG
2026-03-30 21:00:00,METAR VVTS 302100Z 14008KT 110V170 9999 SCT015 26/24 Q1009 NOSIG
2026-03-30 20:30:00,METAR VVTS 302030Z 16008KT 9999 SCT015 27/24 Q1010 NOSIG
2026-03-30 20:00:00,METAR VVTS 302000Z 15008KT 9999 SCT016 27/24 Q1010 NOSIG
2026-03-30 19:30:00,METAR VVTS 301930Z 15009KT 090V180 9999 FEW016 27/24 Q1010 NOSIG
2026-03-30 19:00:00,METAR VVTS 301900Z 15009KT 9999 FEW016 27/24 Q1010 NOSIG
2026-03-30 18:30:00,METAR VVTS 301830Z 14009KT 9999 FEW016 27/24 Q1010 NOSIG
2026-03-30 18:00:00,METAR VVTS 301800Z 15009KT 120V180 9999 SCT016 27/24 Q1011 NOSIG
2026-03-30 17:30:00,METAR VVTS 301730Z 16008KT 110V190 9999 FEW016 SCT018 27/24 Q1011 NOSIG
2026-03-30 17:00:00,METAR VVTS 301700Z 16008KT 9999 SCT017 27/24 Q1011 NOSIG
2026-03-30 16:30:00,METAR VVTS 301630Z 14008KT 100V180 9999 FEW017 27/24 Q1011 NOSIG
2026-03-30 16:00:00,METAR VVTS 301600Z 15010KT 9999 FEW017 27/24 Q1011 NOSIG
2026-03-30 15:30:00,METAR VVTS 301530Z 16009KT 120V190 9999 FEW018 27/24 Q1011 NOSIG
2026-03-30 15:00:00,METAR VVTS 301500Z 15009KT 9999 FEW018 27/24 Q1011 NOSIG
2026-03-30 14:30:00,METAR VVTS 301430Z 14010KT 120V180 9999 FEW018 27/24 Q1011 NOSIG
2026-03-30 14:00:00,METAR VVTS 301400Z 14010KT 9999 FEW019 28/24 Q1010 NOSIG
2026-03-30 13:30:00,METAR VVTS 301330Z 15010KT 9999 FEW020 28/23 Q1010 NOSIG
2026-03-30 13:00:00,METAR VVTS 301300Z 16012KT 120V180 CAVOK 28/23 Q1010 NOSIG
2026-03-30 12:30:00,METAR VVTS 301230Z 14012KT 060V180 CAVOK 28/22 Q1009 NOSIG
2026-03-30 12:00:00,METAR VVTS 301200Z 15011KT CAVOK 29/21 Q1009 NOSIG
2026-03-30 11:30:00,METAR VVTS 301130Z 14012KT CAVOK 29/21 Q1008 NOSIG
2026-03-30 11:00:00,METAR VVTS 301100Z 17011KT CAVOK 30/22 Q1008 NOSIG
2026-03-30 10:30:00,METAR VVTS 301030Z 15010KT 120V190 CAVOK 30/22 Q1008 NOSIG
2026-03-30 10:00:00,METAR VVTS 301000Z 15012KT CAVOK 31/23 Q1008 NOSIG
2026-03-30 09:30:00,METAR VVTS 300930Z 17011KT 130V190 CAVOK 32/22 Q1008 NOSIG
2026-03-30 09:00:00,METAR VVTS 300900Z 16011KT 130V190 CAVOK 33/22 Q1008 NOSIG
2026-03-30 08:30:00,METAR VVTS 300830Z 19010G20KT 160V230 CAVOK 34/22 Q1007 NOSIG
2026-03-30 08:00:00,METAR VVTS 300800Z 17006KT 130V200 CAVOK 34/22 Q1008 NOSIG
2026-03-30 07:30:00,METAR VVTS 300730Z 23006KT 190V290 CAVOK 34/22 Q1008 NOSIG
2026-03-30 07:00:00,METAR VVTS 300700Z 18005KT 110V280 CAVOK 34/21 Q1008 NOSIG
2026-03-30 06:30:00,METAR VVTS 300630Z 15007KT 120V190 9999 FEW009 SCT047 34/22 Q1009 NOSIG
2026-03-30 06:00:00,METAR VVTS 300600Z VRB03KT 9999 SCT049 34/22 Q1009 NOSIG
2026-03-30 05:30:00,METAR VVTS 300530Z VRB04KT 9999 SCT037 32/22 Q1010 NOSIG
2026-03-30 05:00:00,METAR VVTS 300500Z VRB03KT 9999 BKN035 33/22 Q1011 NOSIG
2026-03-30 04:30:00,METAR VVTS 300430Z 07005KT 330V130 9999 BKN033 32/22 Q1011 NOSIG
2026-03-30 04:00:00,METAR VVTS 300400Z VRB06KT 9999 SCT037 33/22 Q1011 NOSIG
2026-03-30 03:30:00,METAR VVTS 300330Z 14007KT 090V240 9999 BKN033 32/22 Q1012 NOSIG
2026-03-30 03:00:00,METAR VVTS 300300Z 11007KT 060V140 9999 BKN030 31/23 Q1012 NOSIG
2026-03-30 02:30:00,METAR VVTS 300230Z 13006KT 080V180 9999 BKN027 30/22 Q1012 NOSIG
2026-03-30 02:00:00,METAR VVTS 300200Z 11008KT 080V180 9999 BKN027 30/23 Q1012 NOSIG
2026-03-30 01:30:00,METAR VVTS 300130Z 11009KT 080V140 9999 BKN021 28/24 Q1012 NOSIG
2026-03-30 01:00:00,METAR VVTS 300100Z 13007KT 050V160 9999 BKN019 28/24 Q1011 NOSIG
2026-03-30 00:30:00,METAR VVTS 300030Z 13008KT 100V160 9999 SCT017 28/24 Q1011 NOSIG
2026-03-30 00:00:00,METAR VVTS 300000Z 11006KT 080V150 9999 FEW015 27/24 Q1010 NOSIG
2026-03-29 23:30:00,METAR VVTS 292330Z 12008KT 9999 FEW015 26/24 Q1010 NOSIG
2026-03-29 23:00:00,METAR VVTS 292300Z 13008KT 9999 FEW015 26/24 Q1010 NOSIG
2026-03-29 22:30:00,METAR VVTS 292230Z 12008KT 9999 FEW014 26/24 Q1010 NOSIG
2026-03-29 22:00:00,METAR VVTS 292200Z 13007KT 090V160 9999 FEW014 SCT017 26/24 Q1009 NOSIG
2026-03-29 21:30:00,METAR VVTS 292130Z 13007KT 9999 FEW014 26/25 Q1009 NOSIG
2026-03-29 21:00:00,METAR VVTS 292100Z 14006KT 100V170 9999 FEW013 26/25 Q1009 NOSIG
2026-03-29 20:30:00,METAR VVTS 292030Z 15006KT 120V190 9999 FEW013 SCT016 27/25 Q1009 NOSIG
2026-03-29 20:00:00,METAR VVTS 292000Z 13007KT 9999 FEW013 SCT015 27/25 Q1009 NOSIG
2026-03-29 19:30:00,METAR VVTS 291930Z 12008KT 9999 FEW013 SCT015 26/25 Q1009 NOSIG
2026-03-29 19:00:00,METAR VVTS 291900Z 12007KT 090V150 9999 FEW014 BKN016 27/25 Q1009 NOSIG
2026-03-29 18:30:00,METAR VVTS 291830Z 12005KT 090V150 9999 BKN013 27/25 Q1010 NOSIG
2026-03-29 18:00:00,METAR VVTS 291800Z 14006KT 090V170 9999 SCT012 27/25 Q1010 NOSIG
2026-03-29 17:30:00,METAR VVTS 291730Z 15008KT 9999 FEW012 27/25 Q1010 NOSIG
2026-03-29 17:00:00,METAR VVTS 291700Z 14006KT 100V180 9999 FEW016 27/24 Q1010 NOSIG
2026-03-29 16:30:00,METAR VVTS 291630Z 12008KT CAVOK 27/24 Q1010 NOSIG
2026-03-29 16:00:00,METAR VVTS 291600Z 14009KT 110V170 CAVOK 27/24 Q1010 NOSIG
2026-03-29 15:30:00,METAR VVTS 291530Z 13008KT 100V170 CAVOK 28/24 Q1010 NOSIG
2026-03-29 15:00:00,METAR VVTS 291500Z 16007KT 110V180 CAVOK 28/23 Q1010 NOSIG
2026-03-29 14:30:00,METAR VVTS 291430Z 17008KT 130V190 CAVOK 28/23 Q1010 NOSIG
2026-03-29 14:00:00,METAR VVTS 291400Z 18007KT 150V210 CAVOK 29/22 Q1009 NOSIG
2026-03-29 13:30:00,METAR VVTS 291330Z 17008KT CAVOK 29/22 Q1009 NOSIG
2026-03-29 13:00:00,METAR VVTS 291300Z 16009KT 090V210 CAVOK 29/22 Q1009 NOSIG
2026-03-29 12:30:00,METAR VVTS 291230Z 17011KT CAVOK 29/22 Q1009 NOSIG
2026-03-29 12:00:00,METAR VVTS 291200Z 16010KT CAVOK 30/22 Q1008 NOSIG
2026-03-29 11:30:00,METAR VVTS 291130Z 16010KT CAVOK 30/21 Q1008 NOSIG
2026-03-29 11:00:00,METAR VVTS 291100Z 16011KT CAVOK 31/21 Q1007 NOSIG
2026-03-29 10:30:00,METAR VVTS 291030Z 16010KT 130V190 CAVOK 32/21 Q1007 NOSIG
2026-03-29 10:00:00,METAR VVTS 291000Z 16011KT 9999 FEW019 33/21 Q1007 NOSIG
2026-03-29 09:30:00,METAR VVTS 290930Z 17010KT 140V200 CAVOK 34/18 Q1007 NOSIG
2026-03-29 09:00:00,METAR VVTS 290900Z 16011KT 110V200 CAVOK 34/21 Q1007 NOSIG
2026-03-29 08:30:00,METAR VVTS 290830Z 15011KT 130V200 CAVOK 34/21 Q1007 NOSIG
2026-03-29 08:00:00,METAR VVTS 290800Z 16009KT 9999 FEW035 34/21 Q1007 NOSIG
2026-03-29 07:30:00,METAR VVTS 290730Z 15007KT 110V200 9999 FEW035 35/22 Q1008 NOSIG
2026-03-29 07:00:00,METAR VVTS 290700Z 18010KT 130V230 9999 FEW035 35/22 Q1008 NOSIG
2026-03-29 06:30:00,METAR VVTS 290630Z 17009KT 110V220 9999 FEW035 34/21 Q1008 NOSIG
2026-03-29 06:00:00,METAR VVTS 290600Z 17007KT 070V240 9999 FEW045 35/22 Q1009 NOSIG
2026-03-29 05:30:00,METAR VVTS 290530Z 18006KT 120V240 9999 FEW045 34/22 Q1010 NOSIG
2026-03-29 05:00:00,METAR VVTS 290500Z VRB08KT 9999 SCT037 34/23 Q1010 NOSIG
2026-03-29 04:30:00,METAR VVTS 290430Z 12007KT 080V200 9999 SCT039 32/23 Q1011 NOSIG
2026-03-29 04:00:00,METAR VVTS 290400Z 13008KT 9999 SCT033 33/23 Q1011 NOSIG
2026-03-29 03:30:00,METAR VVTS 290330Z 11011KT 070V150 9999 SCT033 32/23 Q1012 NOSIG
2026-03-29 03:00:00,METAR VVTS 290300Z 11012KT 9999 SCT027 31/24 Q1011 NOSIG
2026-03-29 02:30:00,METAR VVTS 290230Z 12009KT 090V170 9999 FEW024 31/24 Q1011 NOSIG
2026-03-29 02:00:00,METAR VVTS 290200Z 13010KT 090V170 9999 FEW021 30/24 Q1011 NOSIG
2026-03-29 01:30:00,METAR VVTS 290130Z 12010G23KT 040V160 9999 FEW017 SCT020 29/24 Q1011 NOSIG
2026-03-29 01:00:00,METAR VVTS 290100Z 11010KT 060V130 9999 SCT014 BKN017 28/24 Q1011 NOSIG
2026-03-29 00:30:00,METAR VVTS 290030Z 11008KT 070V150 9999 FEW014 SCT016 27/24 Q1011 NOSIG
2026-03-29 00:00:00,METAR VVTS 290000Z 11007KT 9999 BKN015 27/25 Q1010 NOSIG
2026-03-28 23:30:00,METAR VVTS 282330Z 17005KT 130V190 9999 SCT016 BKN019 27/25 Q1010 NOSIG
2026-03-28 23:00:00,METAR VVTS 282300Z 16005KT 110V210 9999 BKN014 26/25 Q1010 NOSIG
2026-03-28 22:30:00,METAR VVTS 282230Z 13003KT 070V200 9999 SCT013 26/25 Q1009 NOSIG
2026-03-28 22:00:00,METAR VVTS 282200Z 12004KT 090V180 9999 SCT013 26/24 Q1009 NOSIG
2026-03-28 21:30:00,METAR VVTS 282130Z 11005KT 070V140 9999 FEW013 26/24 Q1009 NOSIG
2026-03-28 21:00:00,METAR VVTS 282100Z 10005KT 080V140 9999 FEW013 SCT016 26/25 Q1008 NOSIG
2026-03-28 20:30:00,METAR VVTS 282030Z 13004KT 090V180 9999 FEW017 26/24 Q1008 NOSIG
2026-03-28 20:00:00,METAR VVTS 282000Z 13009KT 110V170 9999 FEW014 26/24 Q1008 NOSIG
2026-03-28 19:30:00,METAR VVTS 281930Z 12006KT 100V160 9999 FEW015 26/24 Q1008 NOSIG
2026-03-28 19:00:00,METAR VVTS 281900Z 11007KT 9999 FEW014 26/24 Q1008 NOSIG
2026-03-28 18:30:00,METAR VVTS 281830Z 11007KT 9999 FEW016 26/24 Q1008 NOSIG
2026-03-28 18:00:00,METAR VVTS 281800Z 12006KT 090V150 9999 SCT016 26/24 Q1009 NOSIG
2026-03-28 17:30:00,METAR VVTS 281730Z 13009KT 9999 FEW016 27/24 Q1008 NOSIG
2026-03-28 17:00:00,METAR VVTS 281700Z 12007KT 9999 FEW017 26/24 Q1009 NOSIG
2026-03-28 16:30:00,METAR VVTS 281630Z 12008KT 9999 FEW018 27/24 Q1009 NOSIG
2026-03-28 16:00:00,METAR VVTS 281600Z 13010KT 100V160 9999 FEW019 27/24 Q1010 NOSIG
2026-03-28 15:30:00,METAR VVTS 281530Z 13009KT 9999 FEW020 27/24 Q1009 NOSIG
2026-03-28 15:00:00,METAR VVTS 281500Z 14011KT 9999 SCT020 27/24 Q1009 NOSIG
2026-03-28 14:30:00,METAR VVTS 281430Z 13007KT 090V170 9999 SCT020 27/24 Q1009 NOSIG
2026-03-28 14:00:00,METAR VVTS 281400Z 15009KT 120V180 9999 FEW021 27/23 Q1009 NOSIG
2026-03-28 13:30:00,METAR VVTS 281330Z 16010KT 130V190 9999 FEW021 28/23 Q1009 NOSIG
2026-03-28 13:00:00,METAR VVTS 281300Z 14009KT 110V170 9999 FEW022 28/23 Q1009 NOSIG
2026-03-28 12:30:00,METAR VVTS 281230Z 17009KT CAVOK 28/23 Q1009 NOSIG
2026-03-28 12:00:00,METAR VVTS 281200Z 17011KT 9999 FEW027 28/23 Q1008 NOSIG
2026-03-28 11:30:00,METAR VVTS 281130Z 17011KT 9999 FEW028 28/22 Q1008 NOSIG
2026-03-28 11:00:00,METAR VVTS 281100Z 17013KT CAVOK 29/22 Q1008 NOSIG
2026-03-28 10:30:00,METAR VVTS 281030Z 17011KT 140V200 CAVOK 29/22 Q1008 NOSIG
2026-03-28 10:00:00,METAR VVTS 281000Z 15014KT CAVOK 31/22 Q1007 NOSIG
2026-03-28 09:30:00,METAR VVTS 280930Z 15013KT 110V180 CAVOK 32/22 Q1007 NOSIG
2026-03-28 09:00:00,METAR VVTS 280900Z 15011KT 110V190 9999 FEW038 32/22 Q1007 NOSIG
2026-03-28 08:30:00,METAR VVTS 280830Z 17013G24KT 120V200 9999 FEW038 32/22 Q1007 NOSIG
2026-03-28 08:00:00,METAR VVTS 280800Z 14011KT 110V180 9999 FEW040 32/22 Q1007 NOSIG
2026-03-28 07:30:00,METAR VVTS 280730Z 16010G21KT 100V200 9999 FEW043 33/22 Q1007 NOSIG
2026-03-28 07:00:00,METAR VVTS 280700Z 17009KT 110V210 9999 FEW044 33/23 Q1007 NOSIG
2026-03-28 06:30:00,METAR VVTS 280630Z 18008KT 130V260 9999 FEW043 34/23 Q1007 NOSIG
2026-03-28 06:00:00,METAR VVTS 280600Z VRB06KT 9999 FEW030 33/22 Q1008 NOSIG
2026-03-28 05:30:00,METAR VVTS 280530Z 11009KT 080V150 CAVOK 33/21 Q1009 NOSIG
2026-03-28 05:00:00,METAR VVTS 280500Z 13007KT 060V200 CAVOK 33/21 Q1009 NOSIG
2026-03-28 04:30:00,METAR VVTS 280430Z 12008KT 080V160 CAVOK 32/22 Q1009 NOSIG
2026-03-28 04:00:00,METAR VVTS 280400Z 13009KT 080V170 CAVOK 32/22 Q1010 NOSIG
2026-03-28 03:30:00,METAR VVTS 280330Z 14009KT 110V180 CAVOK 31/22 Q1010 NOSIG
2026-03-28 03:00:00,METAR VVTS 280300Z 13011KT CAVOK 31/22 Q1010 NOSIG
2026-03-28 02:30:00,METAR VVTS 280230Z 14009KT 110V170 CAVOK 30/22 Q1010 NOSIG
2026-03-28 02:00:00,METAR VVTS 280200Z 13010KT 090V160 CAVOK 29/23 Q1011 NOSIG
2026-03-28 01:30:00,METAR VVTS 280130Z 12008KT 080V180 CAVOK 29/23 Q1011 NOSIG
2026-03-28 01:00:00,METAR VVTS 280100Z 13009KT CAVOK 27/23 Q1010 NOSIG
2026-03-28 00:30:00,METAR VVTS 280030Z 14008KT 110V170 CAVOK 27/23 Q1010 NOSIG
2026-03-28 00:00:00,METAR VVTS 280000Z 13006KT CAVOK 26/24 Q1010 NOSIG
2026-03-27 23:30:00,METAR VVTS 272330Z 12004KT 100V160 CAVOK 25/24 Q1009 NOSIG
2026-03-27 23:00:00,METAR VVTS 272300Z 13007KT 110V170 9000 NSC 25/24 Q1009 NOSIG
2026-03-27 22:30:00,METAR VVTS 272230Z 13007KT 9000 NSC 25/24 Q1008 NOSIG
2026-03-27 22:00:00,METAR VVTS 272200Z 11008KT 9000 FEW012 25/24 Q1008 NOSIG
2026-03-27 21:30:00,METAR VVTS 272130Z 10007KT 9000 FEW012 25/24 Q1008 NOSIG
2026-03-27 21:00:00,METAR VVTS 272100Z 11006KT 9999 FEW012 25/24 Q1008 NOSIG
2026-03-27 20:30:00,METAR VVTS 272030Z 12006KT 100V160 9999 FEW014 25/24 Q1008 NOSIG
2026-03-27 20:00:00,METAR VVTS 272000Z 12006KT 9999 SCT014 25/24 Q1008 NOSIG
2026-03-27 19:30:00,METAR VVTS 271930Z 12005KT 080V150 CAVOK 25/23 Q1008 NOSIG
2026-03-27 19:00:00,METAR VVTS 271900Z 12007KT CAVOK 25/23 Q1008 NOSIG
2026-03-27 18:30:00,METAR VVTS 271830Z 12008KT 9999 FEW014 26/24 Q1008 NOSIG
2026-03-27 18:00:00,METAR VVTS 271800Z 12008KT 9999 FEW014 26/24 Q1009 NOSIG
2026-03-27 17:30:00,METAR VVTS 271730Z 13006KT 090V180 9999 FEW014 26/23 Q1009 NOSIG
2026-03-27 17:00:00,METAR VVTS 271700Z 14008KT CAVOK 26/24 Q1009 NOSIG
2026-03-27 16:30:00,METAR VVTS 271630Z 13006KT 090V160 CAVOK 26/23 Q1009 NOSIG
2026-03-27 16:00:00,METAR VVTS 271600Z 13007KT 090V150 CAVOK 27/23 Q1010 NOSIG
2026-03-25 15:00:00,METAR VVTS 251500Z 15011KT 9999 BKN019 27/23 Q1011 NOSIG
2026-03-25 14:30:00,METAR VVTS 251430Z 14009KT 9999 SCT020 27/24 Q1011 NOSIG
2026-03-25 14:00:00,METAR VVTS 251400Z 17009KT 120V190 9999 FEW022 28/23 Q1010 NOSIG
2026-03-25 13:30:00,METAR VVTS 251330Z 16009KT 9999 FEW017 28/23 Q1010 NOSIG
2026-03-25 13:00:00,METAR VVTS 251300Z 17008KT 140V210 CAVOK 28/23 Q1009 NOSIG
2026-03-25 12:30:00,METAR VVTS 251230Z 17008KT CAVOK 28/23 Q1009 NOSIG
2026-03-25 12:00:00,METAR VVTS 251200Z 18009KT CAVOK 29/23 Q1009 NOSIG
2026-03-25 11:30:00,METAR VVTS 251130Z 19010KT 160V220 CAVOK 29/23 Q1008 NOSIG
2026-03-25 11:00:00,METAR VVTS 251100Z 19010KT CAVOK 30/23 Q1008 NOSIG
2026-03-25 10:30:00,METAR VVTS 251030Z 17010KT 140V210 CAVOK 31/23 Q1008 NOSIG
2026-03-25 10:00:00,METAR VVTS 251000Z 19011KT CAVOK 32/20 Q1008 NOSIG
2026-03-25 09:30:00,METAR VVTS 250930Z 16011KT CAVOK 33/21 Q1007 NOSIG
2026-03-25 09:00:00,METAR VVTS 250900Z 16011KT 120V190 CAVOK 33/22 Q1007 NOSIG
2026-03-25 08:00:00,METAR VVTS 250800Z 17011KT 120V200 CAVOK 33/22 Q1007 NOSIG
2026-03-25 07:30:00,METAR VVTS 250730Z 16011KT 120V190 9999 FEW025 34/21 Q1007 NOSIG
2026-03-25 07:00:00,METAR VVTS 250700Z 09009KT 060V130 9999 FEW030 34/18 Q1008 NOSIG
2026-03-25 06:30:00,METAR VVTS 250630Z 11007KT 040V190 9999 SCT030 35/19 Q1008 NOSIG
2026-03-25 06:00:00,METAR VVTS 250600Z 10008KT 060V140 9999 SCT030 34/19 Q1009 NOSIG
2026-03-25 05:30:00,METAR VVTS 250530Z 07007KT 030V190 9999 FEW027 34/20 Q1009 NOSIG
2026-03-25 05:00:00,METAR VVTS 250500Z 10008KT 030V150 9999 FEW030 33/19 Q1010 NOSIG
2026-03-25 04:30:00,METAR VVTS 250430Z 09006KT 020V130 CAVOK 33/19 Q1010 NOSIG
2026-03-25 04:00:00,METAR VVTS 250400Z 09009KT 060V130 CAVOK 32/19 Q1011 NOSIG
2026-03-25 03:30:00,METAR VVTS 250330Z 13008KT CAVOK 32/20 Q1011 NOSIG
2026-03-25 03:00:00,METAR VVTS 250300Z 12010KT CAVOK 31/19 Q1011 NOSIG
2026-03-25 02:30:00,METAR VVTS 250230Z 12006KT 070V150 CAVOK 30/21 Q1012 NOSIG
2026-03-25 02:00:00,METAR VVTS 250200Z 12009KT 090V150 CAVOK 30/21 Q1012 NOSIG
2026-03-25 01:30:00,METAR VVTS 250130Z 14007KT 060V190 CAVOK 28/21 Q1011 NOSIG
2026-03-25 01:00:00,METAR VVTS 250100Z 12006KT 070V190 CAVOK 28/22 Q1011 NOSIG
2026-03-25 00:30:00,METAR VVTS 250030Z 12006KT 090V150 9999 FEW018 SCT063 27/23 Q1011 NOSIG
2026-03-25 00:00:00,METAR VVTS 250000Z 12007KT 070V160 9999 FEW018 SCT063 26/23 Q1011 NOSIG
2026-03-24 23:30:00,METAR VVTS 242330Z 13004KT 100V170 9999 FEW017 SCT056 26/23 Q1010 NOSIG
2026-03-24 23:00:00,METAR VVTS 242300Z 14004KT 060V160 9999 FEW018 26/23 Q1010 NOSIG
2026-03-24 22:30:00,METAR VVTS 242230Z 14004KT 100V170 9999 FEW017 25/23 Q1009 NOSIG
2026-03-24 22:00:00,METAR VVTS 242200Z 15005KT CAVOK 25/23 Q1009 NOSIG
2026-03-24 21:30:00,METAR VVTS 242130Z 15005KT CAVOK 26/23 Q1009 NOSIG
2026-03-24 21:00:00,METAR VVTS 242100Z 15005KT 120V190 CAVOK 26/23 Q1009 NOSIG
2026-03-24 20:30:00,METAR VVTS 242030Z 15005KT 9999 FEW014 26/23 Q1009 NOSIG
2026-03-24 20:00:00,METAR VVTS 242000Z 13006KT 110V170 9999 FEW018 SCT069 26/23 Q1009 NOSIG
2026-03-24 19:30:00,METAR VVTS 241930Z 13007KT 9999 FEW019 SCT062 26/23 Q1009 NOSIG
2026-03-24 19:00:00,METAR VVTS 241900Z 15006KT 100V180 9999 FEW018 26/23 Q1009 NOSIG
2026-03-24 18:30:00,METAR VVTS 241830Z 16009KT 9999 FEW018 26/23 Q1009 NOSIG
2026-03-24 18:00:00,METAR VVTS 241800Z 15008KT 080V180 9999 FEW018 26/23 Q1010 NOSIG
2026-03-24 17:30:00,METAR VVTS 241730Z 15006KT 110V190 9999 FEW018 26/23 Q1010 NOSIG
2026-03-24 17:00:00,METAR VVTS 241700Z 13005KT 110V170 CAVOK 26/23 Q1010 NOSIG
2026-03-24 16:30:00,METAR VVTS 241630Z 12005KT 090V170 CAVOK 26/23 Q1010 NOSIG
2026-03-24 16:00:00,METAR VVTS 241600Z 12008KT CAVOK 26/23 Q1010 NOSIG
2026-03-24 15:30:00,METAR VVTS 241530Z 13008KT CAVOK 26/22 Q1010 NOSIG
2026-03-24 15:00:00,METAR VVTS 241500Z 11008KT CAVOK 27/22 Q1010 NOSIG
2026-03-24 14:30:00,METAR VVTS 241430Z 12009KT CAVOK 27/22 Q1010 NOSIG
2026-03-24 14:00:00,METAR VVTS 241400Z 13007KT 100V160 CAVOK 27/22 Q1010 NOSIG
2026-03-24 13:30:00,METAR VVTS 241330Z 15008KT 110V170 CAVOK 27/22 Q1010 NOSIG
2026-03-24 13:00:00,METAR VVTS 241300Z 15009KT 100V180 CAVOK 28/22 Q1009 NOSIG
2026-03-24 12:30:00,METAR VVTS 241230Z 15012KT CAVOK 28/21 Q1009 NOSIG
2026-03-24 12:00:00,METAR VVTS 241200Z 16010KT 120V180 CAVOK 28/20 Q1009 NOSIG
2026-03-24 11:30:00,METAR VVTS 241130Z 17010KT 140V230 CAVOK 29/21 Q1008 NOSIG
2026-03-24 11:00:00,METAR VVTS 241100Z 16011KT 130V190 CAVOK 30/21 Q1008 NOSIG
2026-03-24 10:30:00,METAR VVTS 241030Z 18010KT CAVOK 30/21 Q1007 NOSIG
2026-03-24 10:00:00,METAR VVTS 241000Z 19011KT CAVOK 31/20 Q1007 NOSIG
2026-03-24 09:30:00,METAR VVTS 240930Z 18011KT 9999 FEW031 32/21 Q1007 NOSIG
2026-03-24 09:00:00,METAR VVTS 240900Z 18012KT 9999 FEW031 32/21 Q1007 NOSIG
2026-03-24 08:30:00,METAR VVTS 240830Z 17012KT 9999 FEW031 33/22 Q1007 NOSIG
2026-03-24 08:00:00,METAR VVTS 240800Z 17009KT 140V200 9999 SCT028 33/21 Q1007 NOSIG
2026-03-24 07:30:00,METAR VVTS 240730Z 17010KT 100V210 9999 SCT030 34/21 Q1007 NOSIG
2026-03-24 07:00:00,METAR VVTS 240700Z VRB04KT 9999 SCT030 34/21 Q1007 NOSIG
2026-03-24 06:30:00,METAR VVTS 240630Z 13007KT 070V200 9999 SCT027 33/21 Q1008 NOSIG
2026-03-24 06:00:00,METAR VVTS 240600Z 14009KT 070V210 9999 SCT029 33/20 Q1008 NOSIG
2026-03-24 05:30:00,METAR VVTS 240530Z 12007KT 090V150 9999 SCT027 33/21 Q1009 NOSIG
2026-03-24 05:00:00,METAR VVTS 240500Z 11006KT 060V180 9999 FEW030 33/20 Q1010 NOSIG
2026-03-24 04:30:00,METAR VVTS 240430Z 16010KT 120V190 9999 FEW030 33/20 Q1010 NOSIG
2026-03-24 04:00:00,METAR VVTS 240400Z 12009KT 090V150 9999 FEW030 32/20 Q1011 NOSIG
2026-03-24 03:30:00,METAR VVTS 240330Z 14011KT 080V160 9999 FEW027 31/21 Q1011 NOSIG
2026-03-24 03:00:00,METAR VVTS 240300Z 13011KT 9999 FEW027 30/21 Q1011 NOSIG
2026-03-24 02:30:00,METAR VVTS 240230Z 13010KT 9999 FEW027 29/22 Q1012 NOSIG
2026-03-24 02:00:00,METAR VVTS 240200Z 11011KT 9999 SCT025 29/22 Q1012 NOSIG
2026-03-24 01:30:00,METAR VVTS 240130Z 13008KT 070V180 9999 SCT021 28/22 Q1012 NOSIG
2026-03-24 01:00:00,METAR VVTS 240100Z 13008KT 060V170 9999 SCT021 27/22 Q1011 NOSIG
2026-03-24 00:30:00,METAR VVTS 240030Z 12008KT 9999 SCT020 27/22 Q1011 NOSIG
2026-03-24 00:00:00,METAR VVTS 240000Z 12007KT 080V150 9999 FEW019 SCT062 26/23 Q1011 NOSIG
2026-03-23 23:30:00,METAR VVTS 232330Z 11007KT 9999 FEW019 SCT061 26/23 Q1010 NOSIG
2026-03-23 23:00:00,METAR VVTS 232300Z 13006KT 100V160 9999 FEW020 BKN063 25/23 Q1010 NOSIG
2026-03-23 22:30:00,METAR VVTS 232230Z 12010KT CAVOK 25/23 Q1009 NOSIG
2026-03-23 22:00:00,METAR VVTS 232200Z 13006KT 100V170 CAVOK 26/23 Q1009 NOSIG
2026-03-23 21:30:00,METAR VVTS 232130Z 13009KT 9999 FEW019 SCT064 26/23 Q1009 NOSIG
2026-03-23 21:00:00,METAR VVTS 232100Z 15006KT 110V180 9999 FEW019 SCT064 25/23 Q1009 NOSIG
2026-03-23 20:30:00,METAR VVTS 232030Z 15007KT 9999 FEW018 26/23 Q1009 NOSIG
2026-03-23 20:00:00,METAR VVTS 232000Z 15008KT 120V180 CAVOK 26/23 Q1009 NOSIG
2026-03-23 19:30:00,METAR VVTS 231930Z 14009KT 120V180 CAVOK 26/23 Q1009 NOSIG
2026-03-23 19:00:00,METAR VVTS 231900Z 15009KT CAVOK 26/23 Q1009 NOSIG
2026-03-23 18:30:00,METAR VVTS 231830Z 15009KT CAVOK 26/23 Q1009 NOSIG
2026-03-23 18:00:00,METAR VVTS 231800Z 15008KT 110V180 CAVOK 26/23 Q1009 NOSIG
2026-03-23 17:30:00,METAR VVTS 231730Z 15008KT 110V170 9999 FEW019 26/23 Q1010 NOSIG
2026-03-23 17:00:00,METAR VVTS 231700Z VRB08KT CAVOK 26/23 Q1010 NOSIG
2026-03-23 16:30:00,METAR VVTS 231630Z 16007KT CAVOK 26/22 Q1011 NOSIG
2026-03-23 16:00:00,METAR VVTS 231600Z 16008KT CAVOK 27/22 Q1011 NOSIG
2026-03-23 15:30:00,METAR VVTS 231530Z 16009KT CAVOK 27/21 Q1011 NOSIG
2026-03-23 15:00:00,METAR VVTS 231500Z 15008KT 060V200 CAVOK 27/21 Q1010 NOSIG
2026-03-23 14:30:00,METAR VVTS 231430Z 15010KT CAVOK 27/20 Q1010 NOSIG
2026-03-23 14:00:00,METAR VVTS 231400Z 14009KT 110V180 CAVOK 27/20 Q1010 NOSIG
2026-03-23 13:30:00,METAR VVTS 231330Z 15008KT 120V180 CAVOK 27/21 Q1010 NOSIG
2026-03-23 13:00:00,METAR VVTS 231300Z 16010KT 140V250 CAVOK 28/21 Q1010 NOSIG
2026-03-23 12:30:00,METAR VVTS 231230Z 17011KT CAVOK 28/21 Q1009 NOSIG
2026-03-23 12:00:00,METAR VVTS 231200Z 17011KT CAVOK 28/21 Q1009 NOSIG
2026-03-23 11:30:00,METAR VVTS 231130Z 17011KT CAVOK 29/22 Q1009 NOSIG
2026-03-23 11:00:00,METAR VVTS 231100Z 19012KT CAVOK 29/22 Q1008 NOSIG
2026-03-23 10:30:00,METAR VVTS 231030Z 18011KT 150V220 CAVOK 30/21 Q1008 NOSIG
2026-03-23 10:00:00,METAR VVTS 231000Z 17010KT 140V200 CAVOK 31/21 Q1008 NOSIG
2026-03-23 09:30:00,METAR VVTS 230930Z 20011KT 150V230 9999 FEW040 32/21 Q1008 NOSIG
2026-03-23 09:00:00,METAR VVTS 230900Z 18011KT 160V220 9999 SCT040 32/21 Q1008 NOSIG
2026-03-23 08:30:00,METAR VVTS 230830Z 20012KT 9999 SCT035 33/22 Q1007 NOSIG
2026-03-23 08:00:00,METAR VVTS 230800Z 22011KT 9999 SCT037 34/22 Q1007 NOSIG
2026-03-23 07:30:00,METAR VVTS 230730Z 31003KT 220V030 9999 SCT022 34/20 Q1008 NOSIG
2026-03-23 07:00:00,METAR VVTS 230700Z VRB03KT 9999 BKN021 35/20 Q1008 NOSIG
2026-03-23 06:30:00,METAR VVTS 230630Z VRB03KT 9999 BKN042 36/20 Q1009 NOSIG
2026-03-23 06:00:00,METAR VVTS 230600Z 20004KT 120V270 9999 SCT033 33/20 Q1009 NOSIG
2026-03-23 05:30:00,METAR VVTS 230530Z VRB03KT 9999 SCT033 33/20 Q1010 NOSIG
2026-03-23 05:00:00,METAR VVTS 230500Z VRB03KT 9999 FEW033 34/20 Q1011 NOSIG
2026-03-23 04:30:00,METAR VVTS 230430Z VRB06KT 9999 FEW030 33/21 Q1011 NOSIG
2026-03-23 04:00:00,METAR VVTS 230400Z 13007KT 030V180 CAVOK 32/21 Q1012 NOSIG
2026-03-23 03:30:00,METAR VVTS 230330Z 14008KT 090V180 CAVOK 31/21 Q1012 NOSIG
2026-03-23 03:00:00,METAR VVTS 230300Z 14006KT 070V210 CAVOK 30/20 Q1013 NOSIG
2026-03-23 02:30:00,METAR VVTS 230230Z 10008KT 070V150 CAVOK 30/20 Q1013 NOSIG
2026-03-23 02:00:00,METAR VVTS 230200Z 12006KT 070V160 CAVOK 29/21 Q1013 NOSIG
2026-03-23 01:30:00,METAR VVTS 230130Z 13005KT 070V200 CAVOK 28/21 Q1013 NOSIG
2026-03-23 01:00:00,METAR VVTS 230100Z 12005KT CAVOK 28/21 Q1012 NOSIG
2026-03-23 00:30:00,METAR VVTS 230030Z 09007KT CAVOK 27/22 Q1012 NOSIG
2026-03-23 00:00:00,METAR VVTS 230000Z 11007KT CAVOK 26/21 Q1012 NOSIG
2026-03-22 23:30:00,METAR VVTS 222330Z 12008KT 080V140 CAVOK 26/21 Q1012 NOSIG
2026-03-22 23:00:00,METAR VVTS 222300Z 13008KT 100V160 CAVOK 26/21 Q1011 NOSIG
2026-03-22 22:30:00,METAR VVTS 222230Z 13006KT CAVOK 26/21 Q1011 NOSIG
2026-03-22 22:00:00,METAR VVTS 222200Z 13003KT 070V190 CAVOK 26/21 Q1011 NOSIG
2026-03-22 21:30:00,METAR VVTS 222130Z 16003KT 100V190 CAVOK 26/21 Q1011 NOSIG
2026-03-22 21:00:00,METAR VVTS 222100Z 17004KT CAVOK 26/21 Q1010 NOSIG
2026-03-22 20:30:00,METAR VVTS 222030Z 18004KT 140V200 CAVOK 26/21 Q1010 NOSIG
2026-03-22 20:00:00,METAR VVTS 222000Z 15005KT 120V180 CAVOK 27/21 Q1010 NOSIG
2026-03-22 19:30:00,METAR VVTS 221930Z 17005KT 120V190 CAVOK 27/21 Q1010 NOSIG
2026-03-22 19:00:00,METAR VVTS 221900Z 13009KT 090V160 CAVOK 27/21 Q1010 NOSIG
2026-03-22 18:30:00,METAR VVTS 221830Z 14007KT CAVOK 27/21 Q1011 NOSIG
2026-03-22 18:00:00,METAR VVTS 221800Z 14004KT 080V200 CAVOK 27/20 Q1011 NOSIG
2026-03-22 17:30:00,METAR VVTS 221730Z 15005KT 120V180 CAVOK 27/20 Q1011 NOSIG
2026-03-22 17:00:00,METAR VVTS 221700Z 15004KT 110V190 CAVOK 27/20 Q1011 NOSIG
2026-03-22 16:30:00,METAR VVTS 221630Z 14006KT 040V170 CAVOK 27/20 Q1012 NOSIG
2026-03-22 16:00:00,METAR VVTS 221600Z 16006KT 130V200 9999 FEW017 27/21 Q1012 NOSIG
2026-03-22 15:30:00,METAR VVTS 221530Z 18006KT CAVOK 27/21 Q1012 NOSIG
2026-03-22 15:00:00,METAR VVTS 221500Z 16007KT CAVOK 28/21 Q1012 NOSIG
2026-03-22 14:30:00,METAR VVTS 221430Z 16007KT 120V200 CAVOK 28/20 Q1011 NOSIG
2026-03-22 14:00:00,METAR VVTS 221400Z 13008KT 090V160 CAVOK 28/20 Q1011 NOSIG
2026-03-22 13:30:00,METAR VVTS 221330Z 13008KT 100V160 CAVOK 28/20 Q1011 NOSIG
2026-03-22 13:00:00,METAR VVTS 221300Z 12007KT 080V160 CAVOK 28/20 Q1011 NOSIG
2026-03-22 12:30:00,METAR VVTS 221230Z VRB08KT CAVOK 29/20 Q1010 NOSIG
2026-03-22 12:00:00,METAR VVTS 221200Z 15009KT 120V180 CAVOK 29/20 Q1010 NOSIG
2026-03-22 11:30:00,METAR VVTS 221130Z 16011KT 130V190 CAVOK 30/20 Q1009 NOSIG
2026-03-22 11:00:00,METAR VVTS 221100Z 16013KT CAVOK 31/20 Q1009 NOSIG
2026-03-22 10:30:00,METAR VVTS 221030Z 17011KT CAVOK 31/20 Q1009 NOSIG
2026-03-22 10:00:00,METAR VVTS 221000Z 17012KT 130V190 CAVOK 32/20 Q1009 NOSIG
2026-03-22 09:30:00,METAR VVTS 220930Z 16011KT CAVOK 32/21 Q1008 NOSIG
2026-03-22 09:00:00,METAR VVTS 220900Z 14011KT 080V170 CAVOK 33/21 Q1008 NOSIG
2026-03-22 08:30:00,METAR VVTS 220830Z 17011KT 070V200 9999 FEW034 33/21 Q1008 NOSIG
2026-03-22 08:00:00,METAR VVTS 220800Z 18010KT 140V210 9999 SCT033 33/21 Q1009 NOSIG
2026-03-22 07:30:00,METAR VVTS 220730Z 19009KT 160V240 9999 SCT030 34/20 Q1009 NOSIG
2026-03-22 07:00:00,METAR VVTS 220700Z 15007KT 090V210 9999 SCT031 35/19 Q1009 NOSIG
2026-03-22 06:30:00,METAR VVTS 220630Z 15007KT 110V190 9999 SCT029 35/19 Q1010 NOSIG
2026-03-22 06:00:00,METAR VVTS 220600Z VRB08KT 9999 SCT028 35/19 Q1010 NOSIG
2026-03-22 05:30:00,METAR VVTS 220530Z 13006KT 060V210 9999 SCT030 33/18 Q1011 NOSIG
2026-03-22 05:00:00,METAR VVTS 220500Z 10010KT 050V140 9999 SCT030 34/19 Q1011 NOSIG
2026-03-22 04:30:00,METAR VVTS 220430Z 09007KT 040V180 9999 FEW030 33/19 Q1012 NOSIG
2026-03-22 04:00:00,METAR VVTS 220400Z 10010KT 070V140 9999 FEW030 33/19 Q1012 NOSIG
2026-03-22 03:30:00,METAR VVTS 220330Z 10011KT 070V130 9999 FEW030 31/19 Q1013 NOSIG
2026-03-22 03:00:00,METAR VVTS 220300Z 09009KT 060V120 CAVOK 31/20 Q1013 NOSIG
2026-03-22 02:30:00,METAR VVTS 220230Z 09011KT 9999 FEW023 30/20 Q1013 NOSIG
2026-03-22 02:00:00,METAR VVTS 220200Z 08008KT 060V120 9999 FEW021 29/20 Q1013 NOSIG
2026-03-22 01:30:00,METAR VVTS 220130Z 08008KT 9999 FEW021 28/21 Q1013 NOSIG
2026-03-22 01:00:00,METAR VVTS 220100Z 08008KT 9999 FEW021 27/22 Q1012 NOSIG
2026-03-22 00:30:00,METAR VVTS 220030Z 09008KT 9999 FEW020 26/22 Q1012 NOSIG
2026-03-22 00:00:00,METAR VVTS 220000Z 11005KT 090V150 9999 FEW020 26/23 Q1011 NOSIG
2026-03-21 23:30:00,METAR VVTS 212330Z 12007KT 9999 FEW027 26/23 Q1011 NOSIG
2026-03-21 23:00:00,METAR VVTS 212300Z 11004KT 9999 SCT040 25/23 Q1011 NOSIG
2026-03-21 22:30:00,METAR VVTS 212230Z 12007KT 9999 FEW040 25/23 Q1010 NOSIG
2026-03-21 22:00:00,METAR VVTS 212200Z 12007KT CAVOK 26/23 Q1010 NOSIG
2026-03-21 21:30:00,METAR VVTS 212130Z 12007KT 080V140 CAVOK 26/23 Q1010 NOSIG
2026-03-21 21:00:00,METAR VVTS 212100Z 11009KT CAVOK 26/23 Q1010 NOSIG
2026-03-21 20:30:00,METAR VVTS 212030Z 12008KT CAVOK 26/23 Q1009 NOSIG
2026-03-21 20:00:00,METAR VVTS 212000Z 13009KT CAVOK 26/22 Q1010 NOSIG
2026-03-21 19:30:00,METAR VVTS 211930Z 12008KT 090V150 CAVOK 26/22 Q1010 NOSIG
2026-03-21 19:00:00,METAR VVTS 211900Z 12009KT 090V150 CAVOK 27/22 Q1010 NOSIG
2026-03-21 18:30:00,METAR VVTS 211830Z 12009KT CAVOK 27/22 Q1010 NOSIG
2026-03-21 18:00:00,METAR VVTS 211800Z 13009KT 100V160 CAVOK 27/21 Q1010 NOSIG
2026-03-21 17:30:00,METAR VVTS 211730Z 13008KT 080V180 CAVOK 27/22 Q1011 NOSIG
2026-03-21 17:00:00,METAR VVTS 211700Z 13009KT 090V180 CAVOK 27/21 Q1011 NOSIG
2026-03-21 16:30:00,METAR VVTS 211630Z 14007KT 100V170 CAVOK 27/21 Q1011 NOSIG
2026-03-21 16:00:00,METAR VVTS 211600Z 14009KT 090V170 CAVOK 28/21 Q1011 NOSIG
2026-03-21 15:30:00,METAR VVTS 211530Z 13008KT 110V170 CAVOK 27/21 Q1011 NOSIG
2026-03-21 14:30:00,METAR VVTS 211430Z 12009KT 070V140 CAVOK 27/21 Q1012 NOSIG
2026-03-21 14:00:00,METAR VVTS 211400Z 15007KT 120V180 CAVOK 28/21 Q1011 NOSIG
2026-03-21 13:30:00,METAR VVTS 211330Z 14006KT 090V190 CAVOK 28/21 Q1011 NOSIG
2026-03-21 13:00:00,METAR VVTS 211300Z 13007KT 090V160 CAVOK 28/21 Q1011 NOSIG
2026-03-21 12:30:00,METAR VVTS 211230Z 15007KT CAVOK 29/22 Q1011 NOSIG
2026-03-21 12:00:00,METAR VVTS 211200Z VRB07KT CAVOK 29/22 Q1010 NOSIG
2026-03-21 11:30:00,METAR VVTS 211130Z 16010KT 130V190 CAVOK 29/22 Q1010 NOSIG
2026-03-21 11:00:00,METAR VVTS 211100Z 16011KT CAVOK 29/22 Q1009 NOSIG
2026-03-21 10:30:00,METAR VVTS 211030Z 15010KT 120V180 CAVOK 30/22 Q1009 NOSIG
2026-03-21 10:00:00,METAR VVTS 211000Z 17011KT CAVOK 31/22 Q1009 NOSIG
2026-03-21 09:30:00,METAR VVTS 210930Z 14009KT 100V170 CAVOK 32/22 Q1009 NOSIG
2026-03-21 09:00:00,METAR VVTS 210900Z 14011KT 110V240 CAVOK 32/22 Q1009 NOSIG
2026-03-21 08:30:00,METAR VVTS 210830Z 15009KT 120V220 9999 FEW024 33/22 Q1009 NOSIG
2026-03-21 08:00:00,METAR VVTS 210800Z 13009KT 090V170 9999 FEW024 33/21 Q1009 NOSIG
2026-03-21 07:30:00,METAR VVTS 210730Z 11008KT 080V150 9999 SCT023 33/21 Q1010 NOSIG
2026-03-21 07:00:00,METAR VVTS 210700Z 11006KT 060V150 9999 SCT023 32/21 Q1010 NOSIG
2026-03-21 06:30:00,METAR VVTS 210630Z VRB05G15KT 9999 FEW023 SCT049 33/21 Q1011 NOSIG
2026-03-21 06:00:00,METAR VVTS 210600Z 14006KT 080V210 9999 FEW027 SCT056 33/21 Q1011 NOSIG
2026-03-21 05:30:00,METAR VVTS 210530Z 19007KT 150V230 9999 FEW020 SCT068 33/21 Q1012 NOSIG
2026-03-21 05:00:00,METAR VVTS 210500Z 14010KT 100V180 9999 FEW020 SCT044 32/21 Q1012 NOSIG
2026-03-21 04:30:00,METAR VVTS 210430Z 11008KT 080V160 9999 FEW020 SCT044 32/21 Q1013 NOSIG
2026-03-21 04:00:00,METAR VVTS 210400Z 15009KT 100V200 9999 FEW020 SCT051 31/21 Q1013 NOSIG
2026-03-21 03:30:00,METAR VVTS 210330Z 13008KT 040V180 9999 FEW020 SCT052 30/21 Q1013 NOSIG
2026-03-21 03:00:00,METAR VVTS 210300Z 13010KT 090V160 CAVOK 30/21 Q1013 NOSIG
2026-03-21 02:30:00,METAR VVTS 210230Z 13011KT 090V160 9999 SCT049 30/21 Q1013 NOSIG
2026-03-21 02:00:00,METAR VVTS 210200Z 11011KT CAVOK 29/22 Q1013 NOSIG
2026-03-21 01:30:00,METAR VVTS 210130Z 13010KT CAVOK 28/22 Q1013 NOSIG
2026-03-21 01:00:00,METAR VVTS 210100Z 13010KT CAVOK 27/22 Q1013 NOSIG
2026-03-21 00:30:00,METAR VVTS 210030Z 12009KT 090V150 CAVOK 26/23 Q1013 NOSIG
2026-03-21 00:00:00,METAR VVTS 210000Z 12009KT 9999 FEW020 BKN054 26/23 Q1012 NOSIG
2026-03-20 23:30:00,METAR VVTS 202330Z 12009KT 080V160 CAVOK 26/23 Q1012 NOSIG
2026-03-20 23:00:00,METAR VVTS 202300Z 12009KT 100V160 CAVOK 26/23 Q1011 NOSIG
2026-03-20 22:30:00,METAR VVTS 202230Z 12007KT CAVOK 25/22 Q1011 NOSIG
2026-03-20 22:00:00,METAR VVTS 202200Z 12006KT CAVOK 25/23 Q1011 NOSIG
2026-03-20 21:30:00,METAR VVTS 202130Z 12006KT CAVOK 25/23 Q1011 NOSIG
2026-03-20 21:00:00,METAR VVTS 202100Z 12006KT 040V140 CAVOK 26/23 Q1011 NOSIG
2026-03-20 20:30:00,METAR VVTS 202030Z 13006KT CAVOK 26/23 Q1011 NOSIG
2026-03-20 20:00:00,METAR VVTS 202000Z 14006KT 110V170 CAVOK 26/23 Q1011 NOSIG
2026-03-20 19:30:00,METAR VVTS 201930Z 14006KT CAVOK 26/23 Q1011 NOSIG
2026-03-20 19:00:00,METAR VVTS 201900Z 15006KT 110V180 CAVOK 26/23 Q1011 NOSIG
2026-03-20 18:30:00,METAR VVTS 201830Z 13008KT 070V160 CAVOK 26/23 Q1012 NOSIG
2026-03-20 18:00:00,METAR VVTS 201800Z 15007KT 120V190 9999 FEW018 26/23 Q1012 NOSIG
2026-03-20 17:30:00,METAR VVTS 201730Z 15006KT 120V180 CAVOK 26/23 Q1013 NOSIG
2026-03-20 17:00:00,METAR VVTS 201700Z 16008KT 090V190 CAVOK 26/23 Q1013 NOSIG
2026-03-20 16:30:00,METAR VVTS 201630Z 16006KT CAVOK 27/23 Q1013 NOSIG
2026-03-20 16:00:00,METAR VVTS 201600Z 14007KT 010V160 CAVOK 26/22 Q1013 NOSIG
2026-03-20 15:30:00,METAR VVTS 201530Z 15007KT 070V170 CAVOK 27/23 Q1013 NOSIG
2026-03-20 15:00:00,METAR VVTS 201500Z VRB06KT CAVOK 27/22 Q1013 NOSIG
2026-03-20 14:30:00,METAR VVTS 201430Z 16007KT 9999 FEW049 SCT082 27/22 Q1013 NOSIG
2026-03-20 14:00:00,METAR VVTS 201400Z 17009KT 9999 FEW048 BKN080 27/22 Q1012 NOSIG
2026-03-20 13:30:00,METAR VVTS 201330Z 15008KT 9999 FEW048 27/22 Q1012 NOSIG
2026-03-20 13:00:00,METAR VVTS 201300Z 16008KT CAVOK 27/21 Q1011 NOSIG
2026-03-20 12:30:00,METAR VVTS 201230Z 16010KT 9999 FEW044 BKN082 28/20 Q1011 NOSIG
2026-03-20 12:00:00,METAR VVTS 201200Z 17009KT 9999 FEW043 SCT078 28/20 Q1011 NOSIG
2026-03-20 11:30:00,METAR VVTS 201130Z 17010KT 9999 SCT025 BKN071 28/21 Q1010 NOSIG
2026-03-20 11:00:00,METAR VVTS 201100Z 16011KT 9999 SCT020 FEW025TCU SCT066 28/22 Q1010 NOSIG
2026-03-20 10:30:00,METAR VVTS 201030Z 17010KT 140V210 9999 SCT025 SCT047 29/22 Q1009 NOSIG
2026-03-20 10:00:00,METAR VVTS 201000Z 17011KT 9999 SCT030 SCT047 30/22 Q1009 NOSIG
2026-03-20 09:30:00,METAR VVTS 200930Z 18009KT 130V210 9999 SCT030 SCT047 30/23 Q1009 NOSIG
2026-03-20 09:00:00,METAR VVTS 200900Z 18007KT 140V220 9999 FEW020 SCT047 31/22 Q1009 NOSIG
2026-03-20 08:30:00,METAR VVTS 200830Z 17005KT 120V200 9999 SCT021 BKN047 31/23 Q1009 NOSIG
2026-03-20 08:00:00,METAR VVTS 200800Z 16005KT 080V220 9999 SCT029 BKN047 31/22 Q1009 NOSIG
2026-03-20 07:30:00,METAR VVTS 200730Z 16007KT 120V230 9999 SCT029 BKN044 32/22 Q1010 NOSIG
2026-03-20 07:00:00,METAR VVTS 200700Z 20006KT 140V240 9999 SCT028 BKN039 31/22 Q1010 NOSIG
2026-03-20 06:30:00,METAR VVTS 200630Z 16005KT 100V240 9999 SCT028 31/22 Q1011 NOSIG
2026-03-20 06:00:00,METAR VVTS 200600Z 19006KT 130V240 9999 SCT027 BKN043 31/22 Q1011 NOSIG
2026-03-20 05:30:00,METAR VVTS 200530Z 21006KT 160V250 9999 SCT028 BKN042 30/22 Q1012 NOSIG
2026-03-20 05:00:00,METAR VVTS 200500Z 18006G17KT 120V270 9999 BKN027 BKN043 30/22 Q1012 NOSIG
2026-03-20 04:30:00,METAR VVTS 200430Z VRB06KT 9999 BKN035 30/22 Q1013 NOSIG
2026-03-20 04:00:00,METAR VVTS 200400Z 13006KT 030V190 9999 BKN033 30/22 Q1013 NOSIG
2026-03-20 03:30:00,METAR VVTS 200330Z 15008KT 110V170 9999 SCT032 29/22 Q1013 NOSIG
2026-03-20 03:00:00,METAR VVTS 200300Z 16007KT 120V210 9999 SCT029 30/22 Q1013 NOSIG
2026-03-20 02:30:00,METAR VVTS 200230Z 17008KT 150V210 9999 SCT027 29/22 Q1013 NOSIG
2026-03-20 02:00:00,METAR VVTS 200200Z 13007KT 060V160 9999 SCT025 28/22 Q1014 NOSIG
2026-03-20 01:30:00,METAR VVTS 200130Z 12007KT 080V180 9999 FEW023 28/22 Q1013 NOSIG
2026-03-20 01:00:00,METAR VVTS 200100Z 13007KT 090V160 9999 FEW021 27/22 Q1013 NOSIG
2026-03-20 00:30:00,METAR VVTS 200030Z 11007KT 080V150 9999 FEW018 26/22 Q1013 NOSIG
2026-03-20 00:00:00,METAR VVTS 200000Z 12006KT 010V140 9999 FEW017 26/23 Q1012 NOSIG
2026-03-19 23:30:00,METAR VVTS 192330Z 11006KT 9999 FEW019 25/23 Q1012 NOSIG
2026-03-19 23:00:00,METAR VVTS 192300Z 13007KT 100V160 9999 FEW017 SCT062 25/23 Q1011 NOSIG
2026-03-19 22:30:00,METAR VVTS 192230Z 14008KT 100V170 9999 FEW018 SCT062 26/23 Q1011 NOSIG
2026-03-19 22:00:00,METAR VVTS 192200Z 13008KT 100V170 9999 FEW017 25/22 Q1010 NOSIG
2026-03-19 21:30:00,METAR VVTS 192130Z 14007KT 120V190 9999 FEW021 26/22 Q1010 NOSIG
2026-03-19 21:00:00,METAR VVTS 192100Z 15008KT 110V170 9999 FEW020 26/22 Q1010 NOSIG
2026-03-19 20:30:00,METAR VVTS 192030Z 14007KT 120V180 9999 FEW017 26/23 Q1010 NOSIG
2026-03-19 20:00:00,METAR VVTS 192000Z 14006KT 100V190 9999 FEW017 26/23 Q1010 NOSIG
2026-03-19 19:30:00,METAR VVTS 191930Z 15007KT 110V180 9999 FEW017 26/23 Q1010 NOSIG
2026-03-19 19:00:00,METAR VVTS 191900Z 15008KT 110V180 9999 FEW019 26/23 Q1011 NOSIG
2026-03-19 18:30:00,METAR VVTS 191830Z 16008KT 120V190 CAVOK 26/23 Q1011 NOSIG
2026-03-19 18:00:00,METAR VVTS 191800Z 15008KT 120V190 CAVOK 26/22 Q1011 NOSIG
2026-03-19 17:30:00,METAR VVTS 191730Z 15009G19KT 090V180 CAVOK 26/22 Q1011 NOSIG
2026-03-19 17:00:00,METAR VVTS 191700Z 14008KT CAVOK 26/22 Q1011 NOSIG
2026-03-19 16:30:00,METAR VVTS 191630Z 15008KT CAVOK 26/22 Q1012 NOSIG
2026-03-19 16:00:00,METAR VVTS 191600Z 16008KT CAVOK 26/21 Q1011 NOSIG
2026-03-19 15:30:00,METAR VVTS 191530Z 14006KT 100V170 CAVOK 26/22 Q1012 NOSIG
2026-03-19 15:00:00,METAR VVTS 191500Z 15007KT 100V180 CAVOK 27/21 Q1011 NOSIG
2026-03-19 14:30:00,METAR VVTS 191430Z 16008KT 130V190 CAVOK 27/21 Q1011 NOSIG
2026-03-19 14:00:00,METAR VVTS 191400Z 17007KT CAVOK 27/20 Q1011 NOSIG
2026-03-19 13:30:00,METAR VVTS 191330Z 17007KT 140V200 CAVOK 27/20 Q1011 NOSIG
2026-03-19 13:00:00,METAR VVTS 191300Z 17007KT 130V280 CAVOK 28/20 Q1010 NOSIG
2026-03-19 12:30:00,METAR VVTS 191230Z 17009KT 140V200 CAVOK 28/20 Q1010 NOSIG
2026-03-19 12:00:00,METAR VVTS 191200Z 17010KT CAVOK 28/20 Q1010 NOSIG
2026-03-19 11:30:00,METAR VVTS 191130Z 17009KT CAVOK 29/20 Q1009 NOSIG
2026-03-19 11:00:00,METAR VVTS 191100Z 17009KT 140V200 CAVOK 29/21 Q1009 NOSIG
2026-03-19 10:30:00,METAR VVTS 191030Z 18012KT 150V210 CAVOK 29/21 Q1009 NOSIG
2026-03-19 10:00:00,METAR VVTS 191000Z 18011KT 150V210 CAVOK 30/21 Q1009 NOSIG
2026-03-19 09:30:00,METAR VVTS 190930Z 15011KT 9999 FEW026 31/21 Q1009 NOSIG
2026-03-19 09:00:00,METAR VVTS 190900Z 18009KT 140V210 9999 SCT027 32/22 Q1009 NOSIG
2026-03-19 08:30:00,METAR VVTS 190830Z 17007KT 080V200 9999 SCT048 33/21 Q1009 NOSIG
2026-03-19 08:00:00,METAR VVTS 190800Z VRB05KT 9999 FEW022 SCT047 32/21 Q1009 NOSIG
2026-03-19 07:30:00,METAR VVTS 190730Z 16008KT 120V230 9999 FEW020 BKN048 33/22 Q1009 NOSIG
2026-03-19 07:00:00,METAR VVTS 190700Z 19007KT 130V280 9999 FEW020 BKN045 31/21 Q1010 NOSIG
2026-03-19 06:30:00,METAR VVTS 190630Z 18006KT 140V230 9999 FEW020 BKN046 32/21 Q1010 NOSIG
2026-03-19 06:00:00,METAR VVTS 190600Z VRB02KT 9999 SCT023 BKN050 31/21 Q1011 NOSIG
2026-03-19 05:30:00,METAR VVTS 190530Z VRB04KT 9999 BKN043 32/21 Q1012 NOSIG
2026-03-19 05:00:00,METAR VVTS 190500Z 18005KT 110V240 9999 BKN037 BKN049 32/21 Q1012 NOSIG
2026-03-19 04:30:00,METAR VVTS 190430Z 16006KT 080V220 9999 SCT037 BKN047 30/21 Q1013 NOSIG
2026-03-19 04:00:00,METAR VVTS 190400Z 12007KT 080V210 9999 SCT037 31/21 Q1014 NOSIG
2026-03-19 03:30:00,METAR VVTS 190330Z 15007KT 120V210 9999 FEW035 30/21 Q1014 NOSIG
2026-03-19 03:00:00,METAR VVTS 190300Z 13007KT 080V170 9999 FEW035 30/21 Q1014 NOSIG
2026-03-19 02:30:00,METAR VVTS 190230Z 14008KT 090V170 CAVOK 29/22 Q1014 NOSIG
2026-03-19 02:00:00,METAR VVTS 190200Z 14008KT 9999 FEW015 28/22 Q1014 NOSIG
2026-03-19 01:30:00,METAR VVTS 190130Z 14009KT 100V160 9999 FEW027 27/22 Q1014 NOSIG
2026-03-19 01:00:00,METAR VVTS 190100Z 13012KT 9999 FEW020 27/22 Q1013 NOSIG
2026-03-19 00:30:00,METAR VVTS 190030Z 12007KT 9999 FEW019 26/22 Q1013 NOSIG
2026-03-19 00:00:00,METAR VVTS 190000Z 11007KT CAVOK 25/23 Q1013 NOSIG
2026-03-18 23:30:00,METAR VVTS 182330Z 13004KT 070V170 CAVOK 25/23 Q1012 NOSIG
2026-03-18 23:00:00,METAR VVTS 182300Z 12008KT 040V160 9999 FEW019 25/23 Q1012 NOSIG
2026-03-18 22:30:00,METAR VVTS 182230Z 12006KT CAVOK 25/22 Q1012 NOSIG
2026-03-18 22:00:00,METAR VVTS 182200Z 14005KT 120V190 9999 FEW020 25/22 Q1012 NOSIG
2026-03-18 21:30:00,METAR VVTS 182130Z 13006KT 9999 FEW020 25/22 Q1011 NOSIG
2026-03-18 21:00:00,METAR VVTS 182100Z 12006KT 090V150 CAVOK 25/22 Q1011 NOSIG
2026-03-18 20:30:00,METAR VVTS 182030Z 13006KT CAVOK 25/22 Q1011 NOSIG
2026-03-18 20:00:00,METAR VVTS 182000Z 14007KT 100V190 CAVOK 25/22 Q1011 NOSIG
2026-03-18 19:30:00,METAR VVTS 181930Z 14006KT CAVOK 25/22 Q1011 NOSIG
2026-03-18 19:00:00,METAR VVTS 181900Z 14005KT 090V170 CAVOK 26/22 Q1011 NOSIG
2026-03-18 18:30:00,METAR VVTS 181830Z 15008KT 100V170 9999 FEW020 26/22 Q1012 NOSIG
2026-03-18 18:00:00,METAR VVTS 181800Z 13007KT 100V190 9999 FEW018 SCT093 26/22 Q1012 NOSIG
2026-03-18 17:30:00,METAR VVTS 181730Z 12009KT 9999 FEW017 26/22 Q1012 NOSIG
2026-03-18 17:00:00,METAR VVTS 181700Z 13008KT 090V160 9999 FEW019 26/22 Q1013 NOSIG
2026-03-18 16:30:00,METAR VVTS 181630Z 14010KT 9999 FEW019 26/23 Q1013 NOSIG
2026-03-18 16:00:00,METAR VVTS 181600Z 12009KT 100V160 9999 FEW019 26/22 Q1013 NOSIG
2026-03-18 15:30:00,METAR VVTS 181530Z 15010KT 120V180 9999 FEW019 26/23 Q1013 NOSIG
2026-03-18 15:00:00,METAR VVTS 181500Z 15009KT CAVOK 26/22 Q1013 NOSIG
2026-03-18 14:30:00,METAR VVTS 181430Z 15008KT 120V190 CAVOK 27/22 Q1012 NOSIG
2026-03-18 14:00:00,METAR VVTS 181400Z 16010KT CAVOK 27/21 Q1012 NOSIG
2026-03-18 13:30:00,METAR VVTS 181330Z 17009KT CAVOK 27/21 Q1012 NOSIG
2026-03-18 13:00:00,METAR VVTS 181300Z 15010KT 130V190 CAVOK 27/21 Q1011 NOSIG
2026-03-18 12:30:00,METAR VVTS 181230Z 17010KT CAVOK 28/21 Q1011 NOSIG
2026-03-18 12:00:00,METAR VVTS 181200Z 16010KT CAVOK 28/20 Q1011 NOSIG
2026-03-18 11:30:00,METAR VVTS 181130Z 15009KT 120V200 CAVOK 29/18 Q1010 NOSIG
2026-03-18 11:00:00,METAR VVTS 181100Z 18008KT CAVOK 29/19 Q1010 NOSIG
2026-03-18 10:30:00,METAR VVTS 181030Z 19009KT 160V220 CAVOK 29/20 Q1009 NOSIG
2026-03-18 10:00:00,METAR VVTS 181000Z 20012KT CAVOK 30/21 Q1009 NOSIG
2026-03-18 09:30:00,METAR VVTS 180930Z 18010KT 160V220 CAVOK 31/20 Q1009 NOSIG
2026-03-18 09:00:00,METAR VVTS 180900Z 19011KT CAVOK 32/20 Q1009 NOSIG
2026-03-18 08:30:00,METAR VVTS 180830Z 19010KT CAVOK 32/20 Q1009 NOSIG
2026-03-18 08:00:00,METAR VVTS 180800Z 17010KT CAVOK 32/21 Q1009 NOSIG
2026-03-18 07:30:00,METAR VVTS 180730Z 18010KT 140V210 9999 FEW048 33/21 Q1009 NOSIG
2026-03-18 07:00:00,METAR VVTS 180700Z 14006KT 090V210 9999 FEW033 33/20 Q1010 NOSIG
2026-03-18 06:30:00,METAR VVTS 180630Z 21008KT 160V250 9999 FEW033 34/19 Q1010 NOSIG
2026-03-18 06:00:00,METAR VVTS 180600Z VRB06KT 9999 FEW035 33/20 Q1011 NOSIG
2026-03-18 05:30:00,METAR VVTS 180530Z VRB04KT CAVOK 33/19 Q1012 NOSIG
2026-03-18 05:00:00,METAR VVTS 180500Z VRB06KT CAVOK 32/19 Q1012 NOSIG
2026-03-18 04:30:00,METAR VVTS 180430Z 16006KT 130V220 CAVOK 32/19 Q1013 NOSIG
2026-03-18 04:00:00,METAR VVTS 180400Z 12006KT 070V200 CAVOK 31/19 Q1013 NOSIG
2026-03-18 03:30:00,METAR VVTS 180330Z 11007KT 040V150 CAVOK 31/19 Q1014 NOSIG
2026-03-18 03:00:00,METAR VVTS 180300Z 13010KT 100V160 CAVOK 30/19 Q1014 NOSIG
2026-03-18 02:30:00,METAR VVTS 180230Z 13010KT 090V150 CAVOK 29/19 Q1014 NOSIG
2026-03-18 02:00:00,METAR VVTS 180200Z 12010KT 070V160 CAVOK 29/19 Q1014 NOSIG
2026-03-18 01:30:00,METAR VVTS 180130Z 10011KT 080V150 CAVOK 28/19 Q1014 NOSIG
2026-03-18 01:00:00,METAR VVTS 180100Z 12010KT 080V160 CAVOK 27/19 Q1014 NOSIG
2026-03-18 00:30:00,METAR VVTS 180030Z 13009KT 080V160 CAVOK 26/20 Q1013 NOSIG
2026-03-18 00:00:00,METAR VVTS 180000Z 12007KT CAVOK 26/20 Q1013 NOSIG
2026-03-17 23:30:00,METAR VVTS 172330Z 12010KT 100V160 CAVOK 25/21 Q1012 NOSIG
2026-03-17 23:00:00,METAR VVTS 172300Z 12007KT 080V160 9000 NSC 25/22 Q1012 NOSIG
2026-03-17 22:30:00,METAR VVTS 172230Z 13009KT CAVOK 25/22 Q1012 NOSIG
2026-03-17 22:00:00,METAR VVTS 172200Z 14009KT 110V170 CAVOK 25/22 Q1011 NOSIG
2026-03-17 21:30:00,METAR VVTS 172130Z 13008KT CAVOK 25/22 Q1011 NOSIG
2026-03-17 21:00:00,METAR VVTS 172100Z 14006KT 110V180 CAVOK 25/22 Q1011 NOSIG
2026-03-17 20:30:00,METAR VVTS 172030Z 11004KT CAVOK 25/22 Q1011 NOSIG
2026-03-17 20:00:00,METAR VVTS 172000Z 11006KT CAVOK 25/22 Q1011 NOSIG
2026-03-17 19:30:00,METAR VVTS 171930Z 14003KT 100V170 CAVOK 25/22 Q1011 NOSIG
2026-03-17 19:00:00,METAR VVTS 171900Z 13004KT 100V180 CAVOK 25/22 Q1012 NOSIG
2026-03-17 18:30:00,METAR VVTS 171830Z 13006KT CAVOK 25/22 Q1011 NOSIG
2026-03-17 18:00:00,METAR VVTS 171800Z 14006KT 060V210 CAVOK 26/21 Q1012 NOSIG
2026-03-17 17:30:00,METAR VVTS 171730Z 14007KT 050V170 CAVOK 26/21 Q1012 NOSIG
2026-03-17 17:00:00,METAR VVTS 171700Z VRB06KT CAVOK 26/21 Q1012 NOSIG
2026-03-17 16:30:00,METAR VVTS 171630Z 12008KT CAVOK 26/21 Q1012 NOSIG
2026-03-17 16:00:00,METAR VVTS 171600Z 12009KT CAVOK 26/21 Q1012 NOSIG
2026-03-17 15:30:00,METAR VVTS 171530Z 13008KT 100V160 CAVOK 26/19 Q1013 NOSIG
2026-03-17 15:00:00,METAR VVTS 171500Z 13009KT CAVOK 26/19 Q1013 NOSIG
2026-03-17 14:30:00,METAR VVTS 171430Z 13009KT CAVOK 26/19 Q1012 NOSIG
2026-03-17 14:00:00,METAR VVTS 171400Z 13008KT 070V160 CAVOK 27/20 Q1012 NOSIG
2026-03-17 13:30:00,METAR VVTS 171330Z 14010KT 080V170 CAVOK 27/20 Q1011 NOSIG
2026-03-17 12:30:00,METAR VVTS 171230Z 15011KT 120V180 CAVOK 28/19 Q1011 NOSIG
2026-03-17 12:00:00,METAR VVTS 171200Z 15012KT CAVOK 28/19 Q1011 NOSIG
2026-03-17 11:30:00,METAR VVTS 171130Z 16009KT 130V190 CAVOK 29/19 Q1010 NOSIG
2026-03-17 11:00:00,METAR VVTS 171100Z 16010KT 120V180 CAVOK 29/19 Q1010 NOSIG
2026-03-17 10:30:00,METAR VVTS 171030Z 17011KT 140V200 9999 FEW031 30/20 Q1009 NOSIG
2026-03-17 10:00:00,METAR VVTS 171000Z 17010KT 140V200 9999 FEW030 SCT065 30/20 Q1009 NOSIG
2026-03-17 09:30:00,METAR VVTS 170930Z 17009KT 150V210 9999 SCT030 SCT065 31/20 Q1009 NOSIG
2026-03-17 09:00:00,METAR VVTS 170900Z 17011KT 140V200 9999 VCSH SCT027 FEW030CB 32/20 Q1009 NOSIG
2026-03-17 08:30:00,METAR VVTS 170830Z 19007KT 150V240 9999 SCT027 SCT042 32/21 Q1009 NOSIG
2026-03-17 08:00:00,METAR VVTS 170800Z 17010KT 9999 FEW027 SCT042 32/21 Q1009 NOSIG
2026-03-17 07:30:00,METAR VVTS 170730Z VRB03KT 9999 SCT042 33/21 Q1009 NOSIG
2026-03-17 07:00:00,METAR VVTS 170700Z VRB02KT 9999 SCT034 34/20 Q1009 NOSIG
2026-03-17 06:30:00,METAR VVTS 170630Z 27004KT 230V330 9999 FEW041 33/20 Q1010 NOSIG
2026-03-17 06:00:00,METAR VVTS 170600Z 34004KT 270V040 CAVOK 33/20 Q1011 NOSIG
2026-03-17 05:30:00,METAR VVTS 170530Z VRB04KT CAVOK 32/20 Q1011 NOSIG
2026-03-17 05:00:00,METAR VVTS 170500Z VRB03KT CAVOK 33/20 Q1012 NOSIG
2026-03-17 04:30:00,METAR VVTS 170430Z 12005KT 040V200 CAVOK 31/20 Q1012 NOSIG
2026-03-17 04:00:00,METAR VVTS 170400Z 12006KT 080V150 9999 FEW025 32/20 Q1013 NOSIG
2026-03-17 03:30:00,METAR VVTS 170330Z 09008KT 040V120 CAVOK 30/20 Q1013 NOSIG
2026-03-17 03:00:00,METAR VVTS 170300Z 11007KT 070V160 CAVOK 30/20 Q1013 NOSIG
2026-03-17 02:30:00,METAR VVTS 170230Z 12006KT 070V150 CAVOK 29/21 Q1013 NOSIG
2026-03-17 02:00:00,METAR VVTS 170200Z 11007KT 070V150 CAVOK 28/21 Q1013 NOSIG
2026-03-17 01:30:00,METAR VVTS 170130Z 12008KT 090V150 CAVOK 27/21 Q1013 NOSIG
2026-03-17 01:00:00,METAR VVTS 170100Z 11008KT 080V140 CAVOK 26/21 Q1013 NOSIG
2026-03-17 00:30:00,METAR VVTS 170030Z 11008KT CAVOK 26/21 Q1013 NOSIG
2026-03-17 00:00:00,METAR VVTS 170000Z 10006KT 070V160 CAVOK 26/22 Q1012 NOSIG
2026-03-16 23:30:00,METAR VVTS 162330Z 12007KT CAVOK 25/21 Q1012 NOSIG
2026-03-16 23:00:00,METAR VVTS 162300Z 12006KT 090V150 CAVOK 25/21 Q1011 NOSIG
2026-03-16 22:30:00,METAR VVTS 162230Z 12006KT 060V150 CAVOK 25/21 Q1011 NOSIG
2026-03-16 22:00:00,METAR VVTS 162200Z 12006KT 090V150 CAVOK 25/21 Q1011 NOSIG
2026-03-16 21:30:00,METAR VVTS 162130Z 12007KT 090V150 CAVOK 25/21 Q1010 NOSIG
2026-03-16 21:00:00,METAR VVTS 162100Z 12007KT 090V150 CAVOK 25/21 Q1010 NOSIG
2026-03-16 20:30:00,METAR VVTS 162030Z 12007KT CAVOK 25/22 Q1010 NOSIG
2026-03-16 20:00:00,METAR VVTS 162000Z 12006KT CAVOK 25/22 Q1010 NOSIG
2026-03-16 19:30:00,METAR VVTS 161930Z 12006KT 080V170 CAVOK 25/22 Q1010 NOSIG
2026-03-16 19:00:00,METAR VVTS 161900Z 15004KT CAVOK 26/21 Q1011 NOSIG
2026-03-16 18:30:00,METAR VVTS 161830Z 15007KT 120V180 CAVOK 25/21 Q1011 NOSIG
2026-03-16 18:00:00,METAR VVTS 161800Z 13007KT 050V160 CAVOK 26/21 Q1011 NOSIG
2026-03-16 17:30:00,METAR VVTS 161730Z 13007KT 050V170 CAVOK 26/21 Q1012 NOSIG
2026-03-16 17:00:00,METAR VVTS 161700Z 13010KT 090V190 CAVOK 26/21 Q1012 NOSIG
2026-03-16 16:30:00,METAR VVTS 161630Z 13006KT 090V160 CAVOK 26/21 Q1012 NOSIG
2026-03-16 16:00:00,METAR VVTS 161600Z 12007KT CAVOK 26/21 Q1012 NOSIG
2026-03-16 15:30:00,METAR VVTS 161530Z 13007KT 090V160 CAVOK 26/21 Q1012 NOSIG
2026-03-16 15:00:00,METAR VVTS 161500Z 13007KT 090V160 CAVOK 26/21 Q1011 NOSIG
2026-03-16 14:30:00,METAR VVTS 161430Z 14007KT 110V170 CAVOK 26/21 Q1011 NOSIG
2026-03-16 14:00:00,METAR VVTS 161400Z 13009KT CAVOK 26/22 Q1011 NOSIG
2026-03-16 13:30:00,METAR VVTS 161330Z 14008KT CAVOK 27/21 Q1011 NOSIG
2026-03-16 13:00:00,METAR VVTS 161300Z 16007KT CAVOK 27/22 Q1010 NOSIG
2026-03-16 12:30:00,METAR VVTS 161230Z VRB06KT CAVOK 27/22 Q1010 NOSIG
2026-03-16 12:00:00,METAR VVTS 161200Z 16008KT 120V180 9999 FEW025 28/22 Q1010 NOSIG
2026-03-16 11:30:00,METAR VVTS 161130Z 16006KT 9999 FEW025 SCT055 28/23 Q1009 NOSIG
2026-03-16 11:00:00,METAR VVTS 161100Z 16008KT 120V190 9999 SCT025 BKN054 28/24 Q1009 NOSIG
2026-03-16 10:30:00,METAR VVTS 161030Z 15007KT 130V190 9999 SCT019 FEW025CB BKN054 28/24 Q1009 NOSIG
2026-03-16 10:00:00,METAR VVTS 161000Z 16010KT 9999 -SHRA SCT019 FEW025CB 26/23 Q1009 NOSIG
2026-03-16 09:30:00,METAR VVTS 160930Z 15013KT 8000 3500W SHRA SCT017 FEW021CB 26/24 Q1009 BECMG TL0940 5000 TSRA
2026-03-16 09:00:00,METAR VVTS 160900Z 23004KT 170V310 8000 -SHRA SCT019 FEW023CB 32/22 Q1008 TEMPO TL0925 3000 TSRA
2026-03-16 08:30:00,METAR VVTS 160830Z 27004KT 200V320 9999 BKN029 32/21 Q1008 NOSIG
2026-03-16 08:00:00,METAR VVTS 160800Z 23007KT 180V280 9999 SCT048 BKN061 32/21 Q1008 NOSIG
2026-03-16 07:30:00,METAR VVTS 160730Z 26007KT 210V300 9999 BKN049 BKN066 33/21 Q1009 NOSIG
2026-03-16 07:00:00,METAR VVTS 160700Z VRB06KT 9999 SCT047 BKN065 32/21 Q1009 NOSIG
2026-03-16 06:30:00,METAR VVTS 160630Z 25006KT 190V290 9999 FEW047 BKN053 BKN071 32/21 Q1010 NOSIG
2026-03-16 06:00:00,METAR VVTS 160600Z VRB02KT 9999 BKN047 32/21 Q1011 NOSIG
2026-03-16 05:30:00,METAR VVTS 160530Z VRB04KT 9999 SCT021 BKN046 32/21 Q1011 NOSIG
2026-03-16 05:00:00,METAR VVTS 160500Z VRB03KT 9999 SCT018 BKN044 31/21 Q1012 NOSIG
2026-03-16 04:30:00,METAR VVTS 160430Z VRB04KT 9999 SCT023 BKN050 32/21 Q1012 NOSIG
2026-03-16 04:00:00,METAR VVTS 160400Z VRB04KT 9999 FEW028 31/21 Q1013 NOSIG
2026-03-16 03:30:00,METAR VVTS 160330Z VRB02KT CAVOK 31/21 Q1013 NOSIG
2026-03-16 03:00:00,METAR VVTS 160300Z 07004KT 010V160 CAVOK 30/20 Q1013 NOSIG
2026-03-16 02:30:00,METAR VVTS 160230Z 09007KT 040V150 CAVOK 29/20 Q1013 NOSIG
2026-03-16 02:00:00,METAR VVTS 160200Z 07008KT CAVOK 28/20 Q1013 NOSIG
2026-03-16 01:30:00,METAR VVTS 160130Z 09010KT 050V110 CAVOK 28/21 Q1013 NOSIG
2026-03-16 01:00:00,METAR VVTS 160100Z 08008KT 060V120 CAVOK 27/21 Q1013 NOSIG
2026-03-16 00:30:00,METAR VVTS 160030Z 09008KT 070V130 CAVOK 26/20 Q1012 NOSIG
2026-03-16 00:00:00,METAR VVTS 160000Z 10008KT CAVOK 26/21 Q1012 NOSIG
2026-03-15 23:30:00,METAR VVTS 152330Z 11006KT 080V140 CAVOK 25/21 Q1012 NOSIG
2026-03-15 23:00:00,METAR VVTS 152300Z 09006KT CAVOK 25/21 Q1012 NOSIG
2026-03-15 22:30:00,METAR VVTS 152230Z 12005KT CAVOK 25/21 Q1011 NOSIG
2026-03-15 22:00:00,METAR VVTS 152200Z 12004KT CAVOK 25/21 Q1011 NOSIG
2026-03-15 21:30:00,METAR VVTS 152130Z 11007KT CAVOK 25/21 Q1011 NOSIG
2026-03-15 21:00:00,METAR VVTS 152100Z 12007KT 090V150 CAVOK 26/21 Q1011 NOSIG
2026-03-15 20:30:00,METAR VVTS 152030Z 12006KT 9999 SCT020 FEW024CB BKN049 26/21 Q1011 NOSIG
2026-03-15 20:00:00,METAR VVTS 152000Z 13005KT 090V160 9999 SCT020 FEW024CB BKN060 26/21 Q1011 NOSIG
2026-03-15 19:30:00,METAR VVTS 151930Z 11008KT 080V140 9999 FEW026CB BKN059 26/22 Q1011 NOSIG
2026-03-15 19:00:00,METAR VVTS 151900Z 12008KT 9999 FEW026CB BKN060 26/22 Q1011 NOSIG
2026-03-15 18:30:00,METAR VVTS 151830Z 10006KT 080V140 9999 SCT019 FEW023CB SCT056 26/22 Q1012 NOSIG
2026-03-15 18:00:00,METAR VVTS 151800Z 12006KT 090V150 9999 SCT022 FEW025CB BKN050 26/22 Q1012 NOSIG
2026-03-15 17:30:00,METAR VVTS 151730Z 13005KT 100V170 9000 -SHRA SCT020 FEW025CB BKN047 26/22 Q1012 NOSIG
2026-03-15 17:00:00,METAR VVTS 151700Z 13004KT 110V170 9999 BKN047 BKN057 BKN069 27/21 Q1013 NOSIG
2026-03-15 16:30:00,METAR VVTS 151630Z 12005KT 080V150 CAVOK 27/21 Q1013 NOSIG
2026-03-15 16:00:00,METAR VVTS 151600Z VRB06KT CAVOK 27/22 Q1013 NOSIG
2026-03-15 15:30:00,METAR VVTS 151530Z 13007KT CAVOK 27/22 Q1013 NOSIG
2026-03-15 15:00:00,METAR VVTS 151500Z 13008KT 100V160 9999 FEW038 27/22 Q1013 NOSIG
2026-03-15 14:30:00,METAR VVTS 151430Z 13008KT 100V160 9999 FEW038 27/21 Q1013 NOSIG
2026-03-15 14:00:00,METAR VVTS 151400Z 12011KT CAVOK 27/21 Q1012 NOSIG
2026-03-15 13:30:00,METAR VVTS 151330Z 13009KT CAVOK 27/21 Q1012 NOSIG
2026-03-15 13:00:00,METAR VVTS 151300Z 15010KT CAVOK 28/21 Q1012 NOSIG
2026-03-15 12:30:00,METAR VVTS 151230Z 14009KT CAVOK 28/21 Q1011 NOSIG
2026-03-15 12:00:00,METAR VVTS 151200Z 14008KT 110V190 9999 FEW046 29/21 Q1011 NOSIG
2026-03-15 11:30:00,METAR VVTS 151130Z 16008KT 130V190 9999 SCT016 SCT056 29/21 Q1011 NOSIG
2026-03-15 11:00:00,METAR VVTS 151100Z 17009KT 9999 SCT017 FEW020TCU 30/22 Q1010 NOSIG
2026-03-15 10:30:00,METAR VVTS 151030Z 16008KT 120V190 9999 SCT018 30/22 Q1010 NOSIG
2026-03-15 10:00:00,METAR VVTS 151000Z 19009KT 9999 SCT023 SCT056 30/22 Q1010 NOSIG
2026-03-15 09:30:00,METAR VVTS 150930Z 18010KT 150V240 9999 SCT023 31/22 Q1010 NOSIG
2026-03-15 09:00:00,METAR VVTS 150900Z 19009KT 9999 SCT018 FEW020CB 31/21 Q1010 NOSIG
2026-03-15 08:30:00,METAR VVTS 150830Z 21007KT 9999 SCT020 FEW025CB SCT058 31/21 Q1009 NOSIG
2026-03-15 08:00:00,METAR VVTS 150800Z 19007KT 9999 SCT020 FEW025CB SCT051 31/22 Q1010 NOSIG
