Time_recorded,METAR
2026-05-02 15:30:00,METAR VLVT 021530Z 22004KT 6000 FEW050 FEW200 28/24 Q1009 NOSIG
2026-05-02 15:00:00,METAR VLVT 021500Z 20004KT 6000 FEW020 FEW200 29/24 Q1009 NOSIG
2026-05-02 14:30:00,METAR VLVT 021430Z 22004KT 6000 FEW020 FEW200 29/24 Q1008 NOSIG
2026-05-02 14:00:00,METAR VLVT 021400Z 18004KT 6000 FEW020 FEW200 30/25 Q1008 NOSIG
2026-05-02 13:30:00,METAR VLVT 021330Z 18004KT 6000 FEW020 FEW200 30/25 Q1007 NOSIG
2026-05-02 13:00:00,METAR VLVT 021300Z 18006KT 6000 FEW020 FEW200 31/26 Q1007 NOSIG
2026-05-02 12:30:00,METAR VLVT 021230Z 18004KT 6000 FEW020 FEW200 31/26 Q1006 NOSIG
2026-05-02 12:00:00,METAR VLVT 021200Z 22004KT 6000 FEW020 FEW200 32/27 Q1006 NOSIG
2026-05-02 11:30:00,METAR VLVT 021130Z 20004KT 8000 FEW020 FEW200 33/27 Q1006 NOSIG
2026-05-02 11:00:00,METAR VLVT 021100Z 22002KT 8000 FEW020 FEW200 34/28 Q1005 NOSIG
2026-05-02 10:30:00,METAR VLVT 021030Z 18006KT 8000 FEW020 FEW200 35/29 Q1004 NOSIG
2026-05-02 10:00:00,METAR VLVT 021000Z 18004KT 8000 FEW020 FEW200 35/29 Q1004 NOSIG
2026-05-02 09:00:00,METAR VLVT 020900Z 18004KT 8000 FEW020 SCT200 35/29 Q1005 NOSIG
2026-05-02 08:30:00,METAR VLVT 020830Z 16004KT 8000 SCT020 SCT200 36/29 Q1006 NOSIG
2026-05-02 08:00:00,METAR VLVT 020800Z 22004KT 8000 SCT020 SCT200 36/29 Q1006 NOSIG
2026-05-02 07:30:00,METAR VLVT 020730Z 24004KT 8000 SCT020 BKN200 36/30 Q1007 NOSIG
2026-05-02 07:00:00,METAR VLVT 020700Z 18004KT 8000 SCT020 BKN200 35/29 Q1007 NOSIG
2026-05-02 06:30:00,METAR VLVT 020630Z 22004KT 8000 FEW020 BKN200 35/29 Q1008 NOSIG
2026-05-02 06:00:00,METAR VLVT 020600Z 22004KT 8000 FEW020 BKN200 35/29 Q1009 NOSIG
2026-05-02 05:30:00,METAR VLVT 020530Z 18004KT 8000 FEW020 BKN200 34/28 Q1009 NOSIG
2026-05-02 05:00:00,METAR VLVT 020500Z 18004KT 8000 FEW020 SCT200 34/28 Q1010 NOSIG
2026-05-02 04:30:00,METAR VLVT 020430Z 27002KT 8000 FEW020 SCT200 33/28 Q1010 NOSIG
2026-05-02 04:00:00,METAR VLVT 020400Z 27002KT 8000 FEW020 SCT200 32/27 Q1011 NOSIG
2026-05-02 03:30:00,METAR VLVT 020330Z 20004KT 8000 FEW020 SCT200 32/27 Q1011 NOSIG
2026-05-02 03:00:00,METAR VLVT 020300Z 22002KT 8000 FEW020 BKN200 31/26 Q1011 NOSIG
2026-05-02 02:30:00,METAR VLVT 020230Z 09002KT 8000 FEW050 SCT200 30/25 Q1011 NOSIG
2026-05-02 02:00:00,METAR VLVT 020200Z 04002KT 8000 FEW050 SCT200 30/25 Q1011 NOSIG
2026-05-02 01:30:00,METAR VLVT 020130Z 27002KT 8000 BKN050 28/23 Q1011 NOSIG
2026-05-02 01:00:00,METAR VLVT 020100Z 18004KT 8000 BKN050 27/23 Q1011 NOSIG
2026-05-02 00:00:00,METAR VLVT 020000Z 16002KT 7000 BKN050 25/21 Q1010 NOSIG
2026-05-01 23:00:00,METAR VLVT 012300Z 09002KT 7000 BKN050 25/21 Q1009 NOSIG
2026-05-01 17:00:00,METAR VLVT 011700Z 18004KT 5000 BR FEW050 28/23 Q1010 NOSIG
2026-05-01 16:30:00,METAR VLVT 011630Z 18006KT 5000 BR FEW050 29/24 Q1010 NOSIG
2026-05-01 16:00:00,METAR VLVT 011600Z 16006KT 5000 BR FEW050 29/24 Q1010 NOSIG
2026-05-01 15:30:00,METAR VLVT 011530Z 16008KT 5000 BR FEW050 29/25 Q1010 NOSIG
2026-05-01 15:00:00,METAR VLVT 011500Z 04008KT 5000 BR FEW050 30/25 Q1010 NOSIG
2026-05-01 14:30:00,METAR VLVT 011430Z 12006KT 5000 BR NSC 30/25 Q1009 NOSIG
2026-05-01 14:00:00,METAR VLVT 011400Z 12006KT 5000 BR NSC 30/25 Q1009 NOSIG
2026-05-01 13:30:00,METAR VLVT 011330Z 12004KT 5000 BR NSC 30/25 Q1008 NOSIG
2026-05-01 13:00:00,METAR VLVT 011300Z 12004KT 5000 BR SCT050 31/26 Q1008 NOSIG
2026-05-01 12:30:00,METAR VLVT 011230Z 09004KT 5000 BR FEW050 FEW200 31/26 Q1007 NOSIG
2026-05-01 12:00:00,METAR VLVT 011200Z 12006KT 6000 FEW050 FEW200 31/26 Q1007 NOSIG
2026-05-01 11:00:00,METAR VLVT 011100Z 09006KT 8000 FEW050 FEW200 32/27 Q1006 NOSIG
2026-05-01 10:00:00,METAR VLVT 011000Z 22004KT 8000 FEW016 FEW050 34/28 Q1006 NOSIG
2026-05-01 09:30:00,METAR VLVT 010930Z 22004KT 8000 FEW016 FEW050 34/28 Q1006 NOSIG
2026-05-01 09:00:00,METAR VLVT 010900Z 20004KT 8000 SCT016 34/28 Q1007 NOSIG
2026-05-01 08:30:00,METAR VLVT 010830Z 22006KT 8000 SCT016 34/28 Q1008 NOSIG
2026-05-01 08:00:00,METAR VLVT 010800Z 24006KT 8000 SCT016 34/28 Q1008 NOSIG
2026-05-01 07:30:00,METAR VLVT 010730Z 24002KT 8000 SCT016 32/26 Q1009 NOSIG
2026-05-01 06:30:00,METAR VLVT 010630Z 16004KT 8000 SCT016 SCT050 33/27 Q1009 NOSIG
2026-05-01 06:00:00,METAR VLVT 010600Z 14004KT 8000 SCT016 33/27 Q1010 NOSIG
2026-05-01 05:00:00,METAR VLVT 010500Z 20006KT 8000 SCT016 32/26 Q1011 NOSIG
2026-05-01 04:30:00,METAR VLVT 010430Z 18006KT 8000 BKN020 FEW050 31/26 Q1012 NOSIG
2026-05-01 04:00:00,METAR VLVT 010400Z 18006KT 8000 SCT020 FEW050 31/26 Q1012 NOSIG
2026-05-01 03:00:00,METAR VLVT 010300Z 16006KT 8000 FEW020 SCT050 30/25 Q1012 NOSIG
2026-05-01 02:30:00,METAR VLVT 010230Z 12004KT 8000 SCT020 BKN050 30/25 Q1012 NOSIG
2026-05-01 02:00:00,METAR VLVT 010200Z 04004KT 8000 SCT050 FEW200 28/24 Q1012 NOSIG
2026-05-01 01:30:00,METAR VLVT 010130Z 04006KT 7000 BKN050 27/22 Q1012 NOSIG
2026-05-01 01:00:00,METAR VLVT 010100Z 36006KT 7000 BKN050 26/21 Q1011 NOSIG
2026-05-01 00:00:00,METAR VLVT 010000Z 02004KT 7000 FEW050 SCT200 24/20 Q1011 NOSIG
2026-04-30 23:30:00,METAR VLVT 302330Z 04002KT 7000 FEW020 BKN050 24/20 Q1011 NOSIG
2026-04-30 23:00:00,METAR VLVT 302300Z 02002KT 7000 FEW020 BKN050 24/20 Q1011 NOSIG
2026-04-30 17:00:00,METAR VLVT 301700Z 00000KT 6000 FEW050 BKN200 26/21 Q1013 NOSIG
2026-04-30 16:30:00,METAR VLVT 301630Z 18002KT 6000 FEW050 BKN200 26/21 Q1013 NOSIG
2026-04-30 16:00:00,METAR VLVT 301600Z 20002KT 6000 FEW050 BKN200 26/21 Q1013 NOSIG
2026-04-30 14:30:00,METAR VLVT 301430Z 00000KT 6000 BKN200 26/22 Q1012 NOSIG
2026-04-30 14:00:00,METAR VLVT 301400Z 00000KT 6000 BKN200 26/22 Q1011 NOSIG
2026-04-30 13:30:00,METAR VLVT 301330Z 24002KT 6000 BKN200 27/22 Q1011 NOSIG
2026-04-30 13:00:00,METAR VLVT 301300Z 00000KT 6000 FEW050 27/23 Q1010 NOSIG
2026-04-30 12:30:00,METAR VLVT 301230Z 14004KT 6000 FEW050 27/23 Q1010 NOSIG
2026-04-30 12:00:00,METAR VLVT 301200Z 14004KT 6000 FEW050 28/23 Q1010 NOSIG
2026-04-30 11:30:00,METAR VLVT 301130Z 18004KT 7000 FEW050 29/24 Q1010 NOSIG
2026-04-30 11:00:00,METAR VLVT 301100Z 18004KT 7000 FEW050 29/24 Q1010 NOSIG
2026-04-30 09:00:00,METAR VLVT 300900Z 22004KT 8000 FEW020 BKN050 31/26 Q1010 NOSIG
2026-04-30 08:30:00,METAR VLVT 300830Z 16004KT 8000 FEW020 BKN050 31/26 Q1010 NOSIG
2026-04-30 08:00:00,METAR VLVT 300800Z 16004KT 8000 FEW020 BKN050 31/26 Q1010 NOSIG
2026-04-30 07:30:00,METAR VLVT 300730Z 14006KT 8000 BKN020 31/26 Q1011 NOSIG
2026-04-30 07:00:00,METAR VLVT 300700Z 12004KT 8000 BKN020 30/25 Q1011 NOSIG
2026-04-30 06:30:00,METAR VLVT 300630Z 16004KT 8000 BKN020 30/25 Q1012 NOSIG
2026-04-30 06:00:00,METAR VLVT 300600Z 14004KT 8000 BKN020 31/25 Q1012 NOSIG
2026-04-30 05:30:00,METAR VLVT 300530Z 14004KT 8000 BKN020 30/25 Q1013 NOSIG
2026-04-30 05:00:00,METAR VLVT 300500Z 18006KT 8000 BKN020 30/25 Q1013 NOSIG
2026-04-30 04:30:00,METAR VLVT 300430Z 14006KT 8000 SCT020 BKN200 29/25 Q1014 NOSIG
2026-04-30 04:00:00,METAR VLVT 300400Z 16006KT 8000 SCT020 BKN200 30/25 Q1014 NOSIG
2026-04-30 03:30:00,METAR VLVT 300330Z 16004KT 8000 SCT020 BKN200 29/24 Q1014 NOSIG
2026-04-30 03:00:00,METAR VLVT 300300Z 14004KT 8000 SCT020 BKN200 28/24 Q1014 NOSIG
2026-04-30 02:30:00,METAR VLVT 300230Z 12008KT 8000 SCT020 SCT050 28/23 Q1014 NOSIG
2026-04-30 02:00:00,METAR VLVT 300200Z 14008KT 8000 FEW020 FEW050 28/23 Q1014 NOSIG
2026-04-30 01:30:00,METAR VLVT 300130Z 16008KT 8000 FEW020 SCT050 27/22 Q1014 NOSIG
2026-04-30 01:00:00,METAR VLVT 300100Z 14006KT 8000 BKN050 26/21 Q1014 NOSIG
2026-04-30 00:30:00,METAR VLVT 300030Z 12006KT 5000 BR BKN050 25/21 Q1014 NOSIG
2026-04-30 00:00:00,METAR VLVT 300000Z 12006KT 5000 BR BKN050 25/21 Q1014 NOSIG
2026-04-29 23:00:00,METAR VLVT 292300Z 06002KT 5000 BR SCT050 22/19 Q1012 NOSIG
2026-04-29 19:00:00,METAR VLVT 291900Z 16006KT 5000 BR FEW050 21/18 Q1010 NOSIG
2026-04-29 18:30:00,METAR VLVT 291830Z 00000KT 5000 BR FEW050 21/18 Q1010 NOSIG
2026-04-29 18:00:00,METAR VLVT 291800Z 22002KT 5000 BR FEW050 22/18 Q1011 NOSIG
2026-04-29 17:30:00,METAR VLVT 291730Z 22006KT 5000 BR SCT050 22/18 Q1011 NOSIG
2026-04-29 17:00:00,METAR VLVT 291700Z 00000KT 5000 -DZ SCT016 BKN050 22/18 Q1010 NOSIG
2026-04-29 16:30:00,METAR VLVT 291630Z 24002KT 5000 -DZ SCT016 OVC083 22/19 Q1013 NOSIG
2026-04-29 16:00:00,METAR VLVT 291600Z 27016KT 4000 -TSRA SCT016 FEW23CB OVC083 22/18 Q1014 CB OVER AD TL 291630/291730 32004KT 5000 -DZ SCT020 BKN050
2026-04-29 15:30:00,METAR VLVT 291530Z 27016KT 4000 TSRA SCT016 FEW23CB OVC083 22/18 Q1014 CB OVER AD NOSIG
2026-04-29 15:00:00,METAR VLVT 291500Z 34010KT 4000 TSRA SCT016 FEW23CB OVC083 27/22 Q1012 CB OVER AD NOSIG
2026-04-29 14:30:00,METAR VLVT 291430Z 34010KT 6000 TS SCT020 FEW23CB BKN050 29/24 Q1011 CB OVER AD NOSIG
2026-04-29 14:00:00,METAR VLVT 291400Z 06006KT 8000 TS SCT020 FEW23CB SCT050 30/26 Q1010 CB OVER AD NOSIG
2026-04-29 13:30:00,METAR VLVT 291330Z 09006KT 5000 TS SCT020 FEW23CB SCT050 30/26 Q1009 CB OVER AD NOSIG
2026-04-29 13:00:00,METAR VLVT 291300Z 09006KT 5000 BR SCT050 30/26 Q1008 NOSIG
2026-04-29 12:30:00,METAR VLVT 291230Z 09004KT 5000 BR SCT050 30/26 Q1009 NOSIG
2026-04-29 12:00:00,METAR VLVT 291200Z 09006KT 5000 BR SCT050 31/26 Q1008 NOSIG
2026-04-29 11:00:00,METAR VLVT 291100Z 09006KT 8000 SCT020 32/27 Q1006 NOSIG
2026-04-29 10:30:00,METAR VLVT 291030Z 12004KT 8000 NSC 33/27 Q1006 NOSIG
2026-04-29 10:00:00,METAR VLVT 291000Z 16006KT 8000 NSC 33/27 Q1006 NOSIG
2026-04-29 09:30:00,METAR VLVT 290930Z 14002KT 8000 FEW020 34/28 Q1006 NOSIG
2026-04-29 09:00:00,METAR VLVT 290900Z 14002KT 8000 SCT020 34/28 Q1007 NOSIG
2026-04-29 08:30:00,METAR VLVT 290830Z 18004KT 8000 SCT020 34/28 Q1007 NOSIG
2026-04-29 08:00:00,METAR VLVT 290800Z 22004KT 8000 SCT020 34/28 Q1007 NOSIG
2026-04-29 07:30:00,METAR VLVT 290730Z 00000KT 8000 SCT020 34/28 Q1008 NOSIG
2026-04-29 07:00:00,METAR VLVT 290700Z 14006KT 8000 SCT020 33/27 Q1008 NOSIG
2026-04-29 06:30:00,METAR VLVT 290630Z 18006KT 8000 SCT020 33/27 Q1009 NOSIG
2026-04-29 06:00:00,METAR VLVT 290600Z 22004KT 8000 SCT020 33/27 Q1009 NOSIG
2026-04-29 05:00:00,METAR VLVT 290500Z 16004KT 8000 FEW050 32/26 Q1010 NOSIG
2026-04-29 04:30:00,METAR VLVT 290430Z 18006KT 8000 FEW050 31/26 Q1011 NOSIG
2026-04-29 04:00:00,METAR VLVT 290400Z 18006KT 8000 SCT050 30/25 Q1011 NOSIG
2026-04-29 03:30:00,METAR VLVT 290330Z 22002KT 8000 SCT050 30/25 Q1012 NOSIG
2026-04-29 03:00:00,METAR VLVT 290300Z 14002KT 8000 SCT050 29/25 Q1015 NOSIG
2026-04-29 02:30:00,METAR VLVT 290230Z 22002KT 8000 SCT050 28/23 Q1012 NOSIG
2026-04-29 02:00:00,METAR VLVT 290200Z 24002KT 8000 FEW050 27/22 Q1011 NOSIG
2026-04-29 01:30:00,METAR VLVT 290130Z 22004KT 8000 SCT050 26/22 Q1012 NOSIG
2026-04-29 01:00:00,METAR VLVT 290100Z 00000KT 8000 SCT050 25/21 Q1011 NOSIG
2026-04-29 00:00:00,METAR VLVT 290000Z 00000KT 7000 BKN050 24/20 Q1010 NOSIG
2026-04-28 23:30:00,METAR VLVT 282330Z 00000KT 7000 FEW050 BKN100 24/20 Q1010 NOSIG
2026-04-28 23:00:00,METAR VLVT 282300Z 12004KT 7000 FEW050 BKN100 24/20 Q1010 NOSIG
2026-04-28 16:30:00,METAR VLVT 281630Z 14008KT 5000 BR FEW050 27/23 Q1009 NOSIG
2026-04-28 16:00:00,METAR VLVT 281600Z 30002KT 5000 BR SCT050 28/24 Q1009 NOSIG
2026-04-28 15:30:00,METAR VLVT 281530Z 22002KT 5000 BR SCT050 29/24 Q1009 NOSIG
2026-04-28 15:00:00,METAR VLVT 281500Z 12002KT 5000 BR FEW050 29/24 Q1008 NOSIG
2026-04-28 14:30:00,METAR VLVT 281430Z 04002KT 5000 BR FEW050 30/25 Q1008 NOSIG
2026-04-28 14:00:00,METAR VLVT 281400Z 09002KT 5000 BR FEW050 30/25 Q1007 NOSIG
2026-04-28 13:30:00,METAR VLVT 281330Z 09004KT 5000 BR SCT050 30/25 Q1006 NOSIG
2026-04-28 13:00:00,METAR VLVT 281300Z 09002KT 5000 BR SCT050 30/25 Q1006 NOSIG
2026-04-28 12:30:00,METAR VLVT 281230Z 06002KT 6000 BKN050 31/26 Q1006 NOSIG
2026-04-28 12:00:00,METAR VLVT 281200Z 06004KT 6000 BKN050 31/26 Q1005 NOSIG
2026-04-28 11:30:00,METAR VLVT 281130Z 09004KT 7000 BKN050 32/27 Q1004 NOSIG
2026-04-28 11:00:00,METAR VLVT 281100Z 04004KT 8000 BKN050 33/27 Q1004 NOSIG
2026-04-28 10:30:00,METAR VLVT 281030Z 04004KT 8000 BKN050 33/27 Q1004 NOSIG
2026-04-28 10:00:00,METAR VLVT 281000Z 04004KT 8000 BKN050 33/28 Q1004 NOSIG
2026-04-28 09:00:00,METAR VLVT 280900Z 18002KT 8000 FEW020 34/28 Q1004 NOSIG
2026-04-28 08:30:00,METAR VLVT 280830Z 24002KT 8000 FEW020 35/29 Q1005 NOSIG
2026-04-28 08:00:00,METAR VLVT 280800Z 20004KT 8000 FEW020 34/28 Q1006 NOSIG
2026-04-28 07:00:00,METAR VLVT 280700Z 18004KT 8000 FEW020 33/27 Q1007 NOSIG
2026-04-28 06:00:00,METAR VLVT 280600Z 16004KT 8000 NSC 33/27 Q1007 NOSIG
2026-04-28 05:30:00,METAR VLVT 280530Z 14004KT 8000 NSC 32/26 Q1008 NOSIG
2026-04-28 05:00:00,METAR VLVT 280500Z 22004KT 8000 NSC 31/26 Q1009 NOSIG
2026-04-28 04:30:00,METAR VLVT 280430Z 06004KT 8000 NSC 30/25 Q1009 NOSIG
2026-04-28 04:00:00,METAR VLVT 280400Z 04002KT 8000 NSC 29/24 Q1010 NOSIG
2026-04-28 03:30:00,METAR VLVT 280330Z 00000KT 8000 NSC 29/24 Q1010 NOSIG
2026-04-28 03:00:00,METAR VLVT 280300Z 04004KT 8000 FEW050 27/23 Q1010 NOSIG
2026-04-28 02:30:00,METAR VLVT 280230Z 36004KT 8000 FEW050 25/21 Q1010 NOSIG
2026-04-28 02:00:00,METAR VLVT 280200Z 04006KT 8000 BKN050 23/19 Q1011 NOSIG
2026-04-28 01:30:00,METAR VLVT 280130Z 09004KT 7000 BKN040 BKN083 23/19 Q1011 NOSIG
2026-04-28 01:00:00,METAR VLVT 280100Z 34008KT 7000 TS SCT016 FEW030CB BKN083 24/20 Q1010 CB OVER AD NOSIG
2026-04-28 00:30:00,METAR VLVT 280030Z 36006KT 7000 SCT016 BKN083 23/19 Q1010 NOSIG
2026-04-28 00:00:00,METAR VLVT 280000Z 34008KT 7000 TS SCT016 FEW030CB BKN083 24/20 Q1010 CB OVER AD NOSIG
2026-04-27 23:30:00,METAR VLVT 272330Z 34008KT 8000 FEW020 BKN083 23/20 Q1009 NOSIG
2026-04-27 23:00:00,METAR VLVT 272300Z 34006KT 7000 SCT020 23/20 Q1009 NOSIG
2026-04-27 17:00:00,METAR VLVT 271700Z 22002KT 6000 SCT020 25/21 Q1008 NOSIG
2026-04-27 16:30:00,METAR VLVT 271630Z 14002KT 6000 SCT020 26/21 Q1008 NOSIG
2026-04-27 16:00:00,METAR VLVT 271600Z 00000KT 6000 SCT020 26/22 Q1008 NOSIG
2026-04-27 15:30:00,METAR VLVT 271530Z 32002KT 6000 SCT020 26/22 Q1008 NOSIG
2026-04-27 15:00:00,METAR VLVT 271500Z 02004KT 6000 SCT020 27/23 Q1008 NOSIG
2026-04-27 14:30:00,METAR VLVT 271430Z 02004KT 6000 SCT020 27/23 Q1008 NOSIG
2026-04-27 14:00:00,METAR VLVT 271400Z 36002KT 6000 FEW020 27/22 Q1007 NOSIG
2026-04-27 13:30:00,METAR VLVT 271330Z 36002KT 6000 FEW020 28/23 Q1007 NOSIG
2026-04-27 13:00:00,METAR VLVT 271300Z 36004KT 6000 FEW020 29/24 Q1007 NOSIG
2026-04-27 12:30:00,METAR VLVT 271230Z 09002KT 6000 FEW020 SCT200 30/25 Q1006 NOSIG
2026-04-27 12:00:00,METAR VLVT 271200Z 06004KT 6000 FEW020 SCT200 30/25 Q1006 NOSIG
2026-04-27 11:30:00,METAR VLVT 271130Z 04004KT 8000 FEW020 SCT200 31/26 Q1006 NOSIG
2026-04-27 11:00:00,METAR VLVT 271100Z 02004KT 8000 FEW020 SCT200 33/27 Q1005 NOSIG
2026-04-27 10:30:00,METAR VLVT 271030Z 00000KT 8000 FEW020 SCT200 34/28 Q1005 NOSIG
2026-04-27 10:00:00,METAR VLVT 271000Z 27002KT 8000 FEW020 SCT200 31/27 Q1005 NOSIG
2026-04-27 09:00:00,METAR VLVT 270900Z 14004KT 8000 FEW020 SCT200 33/27 Q1006 NOSIG
2026-04-27 08:30:00,METAR VLVT 270830Z 27004KT 8000 SCT020 SCT200 32/27 Q1006 NOSIG
2026-04-27 08:00:00,METAR VLVT 270800Z 20004KT 8000 SCT020 32/26 Q1007 NOSIG
2026-04-27 07:30:00,METAR VLVT 270730Z 09002KT 8000 SCT020 33/27 Q1007 NOSIG
2026-04-27 07:00:00,METAR VLVT 270700Z 06004KT 8000 SCT020 32/26 Q1008 NOSIG
2026-04-27 06:30:00,METAR VLVT 270630Z 27002KT 8000 SCT020 FEW050 33/27 Q1008 NOSIG
2026-04-27 06:00:00,METAR VLVT 270600Z 04002KT 8000 SCT020 FEW050 31/26 Q1009 NOSIG
2026-04-27 05:30:00,METAR VLVT 270530Z 02002KT 8000 SCT020 BKN083 31/26 Q1009 NOSIG
2026-04-27 05:00:00,METAR VLVT 270500Z 27002KT 8000 SCT020 BKN083 30/25 Q1010 NOSIG
2026-04-27 04:30:00,METAR VLVT 270430Z 32002KT 8000 SCT020 BKN083 30/25 Q1011 NOSIG
2026-04-27 04:00:00,METAR VLVT 270400Z 04002KT 8000 SCT020 BKN050 30/25 Q1011 NOSIG
2026-04-27 03:30:00,METAR VLVT 270330Z 18002KT 8000 SCT020 BKN050 29/24 Q1012 NOSIG
2026-04-27 03:00:00,METAR VLVT 270300Z 00000KT 8000 SCT020 SCT050 27/23 Q1012 NOSIG
2026-04-27 02:00:00,METAR VLVT 270200Z 14004KT 6000 DZ SCT040 BKN083 25/21 Q1011 NOSIG
2026-04-27 01:30:00,METAR VLVT 270130Z 12004KT 5000 RA SCT040 BKN083 24/20 Q1011 NOSIG
2026-04-27 01:00:00,METAR VLVT 270100Z 30002KT 5000 RA SCT016 BKN083 24/20 Q1011 NOSIG
2026-04-27 00:00:00,METAR VLVT 270000Z 34002KT 6000 -RA BKN013 OVC083 24/20 Q1010 NOSIG
2026-04-26 23:30:00,METAR VLVT 262330Z 32002KT 4000 RA BKN013 OVC083 24/20 Q1010 NOSIG
2026-04-26 23:00:00,METAR VLVT 262300Z 30008KT 4000 TSRA BKN013 FEW027CB OVC083 24/20 Q1009 CB OVER AD NOSIG
2026-04-26 17:00:00,METAR VLVT 261700Z 22002KT 5000 BR NSC 24/20 Q1009 NOSIG
2026-04-26 16:30:00,METAR VLVT 261630Z 24002KT 5000 BR NSC 24/20 Q1010 NOSIG
2026-04-26 16:00:00,METAR VLVT 261600Z 00000KT 5000 BR NSC 24/20 Q1010 NOSIG
2026-04-26 15:30:00,METAR VLVT 261530Z 00000KT 5000 BR NSC 24/20 Q1010 NOSIG
2026-04-26 15:00:00,METAR VLVT 261500Z 27002KT 5000 BR NSC 24/20 Q1010 NOSIG
2026-04-26 14:30:00,METAR VLVT 261430Z 30002KT 5000 BR NSC 24/20 Q1010 NOSIG
2026-04-26 14:00:00,METAR VLVT 261400Z 34002KT 5000 BR NSC 24/20 Q1010 NOSIG
2026-04-26 13:30:00,METAR VLVT 261330Z 36004KT 5000 BR NSC 24/20 Q1009 NOSIG
2026-04-26 13:00:00,METAR VLVT 261300Z 36002KT 5000 BR NSC 25/21 Q1009 NOSIG
2026-04-26 12:00:00,METAR VLVT 261200Z 36002KT 6000 SCT050 25/21 Q1009 NOSIG
2026-04-26 11:30:00,METAR VLVT 261130Z 00000KT 7000 BKN050 25/21 Q1009 NOSIG
2026-04-26 11:00:00,METAR VLVT 261100Z 16002KT 8000 BKN050 26/21 Q1009 NOSIG
2026-04-26 10:00:00,METAR VLVT 261000Z 30002KT 8000 BKN040 25/21 Q1008 NOSIG
2026-04-26 09:30:00,METAR VLVT 260930Z 24004KT 8000 BKN040 BKN083 24/20 Q1008 NOSIG
2026-04-26 09:00:00,METAR VLVT 260900Z 27002KT 7000 DZ BKN083 24/20 Q1008 NOSIG
2026-04-26 08:30:00,METAR VLVT 260830Z 24006KT 8000 DZ BKN083 24/20 Q1009 NOSIG
2026-04-26 08:00:00,METAR VLVT 260800Z 24010KT 8000 BKN050 26/22 Q1009 NOSIG
2026-04-26 07:00:00,METAR VLVT 260700Z 24002KT 8000 FEW020 BKN050 31/26 Q1008 NOSIG
2026-04-26 06:30:00,METAR VLVT 260630Z 14002KT 8000 SCT020 BKN050 31/26 Q1008 NOSIG
2026-04-26 06:00:00,METAR VLVT 260600Z 16006KT 8000 SCT020 BKN050 32/26 Q1009 NOSIG
2026-04-26 05:30:00,METAR VLVT 260530Z 16004KT 8000 SCT020 BKN050 33/27 Q1010 NOSIG
2026-04-26 05:00:00,METAR VLVT 260500Z 16008KT 8000 SCT020 SCT050 33/27 Q1011 NOSIG
2026-04-26 04:30:00,METAR VLVT 260430Z 14006KT 8000 SCT020 SCT050 33/27 Q1011 NOSIG
2026-04-26 04:00:00,METAR VLVT 260400Z 16004KT 8000 SCT020 SCT050 32/26 Q1012 NOSIG
2026-04-26 03:30:00,METAR VLVT 260330Z 14006KT 8000 SCT020 BKN050 32/26 Q1012 NOSIG
2026-04-26 03:00:00,METAR VLVT 260300Z 18006KT 8000 FEW020 BKN050 31/26 Q1013 NOSIG
2026-04-26 02:30:00,METAR VLVT 260230Z 12004KT 8000 FEW020 BKN050 31/26 Q1013 NOSIG
2026-04-26 02:00:00,METAR VLVT 260200Z 12006KT 8000 FEW020 BKN050 30/25 Q1013 NOSIG
2026-04-26 01:30:00,METAR VLVT 260130Z 14006KT 8000 BKN050 29/24 Q1013 NOSIG
2026-04-26 01:00:00,METAR VLVT 260100Z 12006KT 8000 BKN050 28/23 Q1012 NOSIG
2026-04-26 00:00:00,METAR VLVT 260000Z 12004KT 5000 BR SCT050 26/22 Q1011 NOSIG
2026-04-25 23:00:00,METAR VLVT 252300Z 12004KT 5000 BR SCT050 26/22 Q1011 NOSIG
2026-04-25 16:00:00,METAR VLVT 251600Z 16004KT 5000 BR SCT050 27/23 Q1012 NOSIG
2026-04-25 15:00:00,METAR VLVT 251500Z 18002KT 5000 BR SCT050 28/22 Q1012 NOSIG
2026-04-25 14:30:00,METAR VLVT 251430Z 16002KT 5000 BR SCT050 28/23 Q1012 NOSIG
2026-04-25 14:00:00,METAR VLVT 251400Z 18002KT 5000 BR SCT050 29/24 Q1011 NOSIG
2026-04-25 13:30:00,METAR VLVT 251330Z 22002KT 5000 BR SCT050 29/25 Q1011 NOSIG
2026-04-25 13:00:00,METAR VLVT 251300Z 24002KT 5000 BR SCT050 29/25 Q1011 NOSIG
2026-04-25 12:30:00,METAR VLVT 251230Z 22002KT 5000 BR SCT050 30/25 Q1010 NOSIG
2026-04-25 12:00:00,METAR VLVT 251200Z 22002KT 5000 BR BKN050 30/26 Q1010 NOSIG
2026-04-25 11:30:00,METAR VLVT 251130Z 16004KT 8000 SCT020 BKN050 31/26 Q1009 NOSIG
2026-04-25 11:00:00,METAR VLVT 251100Z 16004KT 8000 SCT020 BKN050 31/26 Q1009 NOSIG
2026-04-25 10:30:00,METAR VLVT 251030Z 16002KT 8000 SCT020 32/26 Q1008 NOSIG
2026-04-25 10:00:00,METAR VLVT 251000Z 18006KT 8000 SCT020 33/27 Q1008 NOSIG
2026-04-25 09:00:00,METAR VLVT 250900Z 18006KT 8000 SCT020 33/27 Q1008 NOSIG
2026-04-25 08:30:00,METAR VLVT 250830Z 22006KT 8000 SCT020 34/28 Q1009 NOSIG
2026-04-25 08:00:00,METAR VLVT 250800Z 18004KT 8000 SCT020 33/27 Q1009 NOSIG
2026-04-25 07:30:00,METAR VLVT 250730Z 18006KT 8000 SCT020 34/28 Q1010 NOSIG
2026-04-25 07:00:00,METAR VLVT 250700Z 18006KT 8000 SCT020 34/28 Q1010 NOSIG
2026-04-25 06:30:00,METAR VLVT 250630Z 16006KT 8000 SCT020 33/27 Q1011 NOSIG
2026-04-25 06:00:00,METAR VLVT 250600Z 12008KT 8000 SCT020 33/27 Q1012 NOSIG
2026-04-25 05:00:00,METAR VLVT 250500Z 12006KT 8000 SCT020 33/27 Q1013 NOSIG
2026-04-25 04:30:00,METAR VLVT 250430Z 14006KT 8000 FEW020 32/27 Q1013 NOSIG
2026-04-25 04:00:00,METAR VLVT 250400Z 12006KT 8000 FEW020 32/26 Q1013 NOSIG
2026-04-25 03:30:00,METAR VLVT 250330Z 06006KT 8000 FEW020 31/26 Q1014 NOSIG
2026-04-25 03:00:00,METAR VLVT 250300Z 09006KT 8000 SCT020 31/25 Q1014 NOSIG
2026-04-25 02:30:00,METAR VLVT 250230Z 12004KT 8000 SCT020 29/25 Q1014 NOSIG
2026-04-25 02:00:00,METAR VLVT 250200Z 06002KT 8000 NSC 29/23 Q1014 NOSIG
2026-04-25 01:30:00,METAR VLVT 250130Z 09002KT 8000 NSC 28/23 Q1015 NOSIG
2026-04-25 00:00:00,METAR VLVT 250000Z 36002KT 6000 SCT200 24/20 Q1013 NOSIG
2026-04-24 23:30:00,METAR VLVT 242330Z 34002KT 6000 SCT200 24/20 Q1013 NOSIG
2026-04-24 23:00:00,METAR VLVT 242300Z 02002KT 6000 SCT200 23/20 Q1012 NOSIG
2026-04-24 17:00:00,METAR VLVT 241700Z 00000KT 5000 HZ NSC 24/20 Q1010 NOSIG
2026-04-24 16:30:00,METAR VLVT 241630Z 22002KT 5000 HZ NSC 24/20 Q1011 NOSIG
2026-04-24 16:00:00,METAR VLVT 241600Z 22002KT 5000 HZ NSC 24/20 Q1011 NOSIG
2026-04-24 15:30:00,METAR VLVT 241530Z 06002KT 5000 HZ NSC 25/21 Q1011 NOSIG
2026-04-24 15:00:00,METAR VLVT 241500Z 06002KT 5000 HZ NSC 25/21 Q1011 NOSIG
2026-04-24 14:30:00,METAR VLVT 241430Z 06002KT 5000 HZ SCT050 26/21 Q1011 NOSIG
2026-04-24 14:00:00,METAR VLVT 241400Z 04002KT 5000 HZ SCT050 26/22 Q1011 NOSIG
2026-04-24 13:30:00,METAR VLVT 241330Z 06004KT 5000 HZ SCT050 26/22 Q1010 NOSIG
2026-04-24 13:00:00,METAR VLVT 241300Z 09004KT 5000 HZ SCT050 26/22 Q1010 NOSIG
2026-04-24 12:30:00,METAR VLVT 241230Z 09006KT 5000 HZ SCT050 26/22 Q1009 NOSIG
2026-04-24 12:00:00,METAR VLVT 241200Z 12008KT 6000 BKN050 27/22 Q1009 NOSIG
2026-04-24 11:00:00,METAR VLVT 241100Z 12008KT 8000 BKN100 28/23 Q1009 NOSIG
2026-04-24 10:00:00,METAR VLVT 241000Z 12012KT 8000 BKN050 28/24 Q1008 NOSIG
2026-04-24 09:30:00,METAR VLVT 240930Z 12012KT 8000 BKN040 BKN083 28/24 Q1008 NOSIG
2026-04-24 09:00:00,METAR VLVT 240900Z 12014KT 8000 BKN040 BKN083 29/24 Q1007 NOSIG
2026-04-24 08:00:00,METAR VLVT 240800Z 09010KT 8000 SCT020 BKN050 31/26 Q1007 NOSIG
2026-04-24 07:30:00,METAR VLVT 240730Z 12012KT 8000 SCT020 BKN050 31/26 Q1008 NOSIG
2026-04-24 06:00:00,METAR VLVT 240600Z 09008KT 8000 SCT020 BKN050 31/26 Q1009 NOSIG
2026-04-24 05:30:00,METAR VLVT 240530Z 14004KT 8000 SCT020 BKN050 30/25 Q1009 NOSIG
2026-04-24 05:00:00,METAR VLVT 240500Z 16004KT 8000 SCT020 BKN050 30/25 Q1009 NOSIG
2026-04-24 04:30:00,METAR VLVT 240430Z 14004KT 8000 FEW020 BKN050 31/25 Q1010 NOSIG
2026-04-24 04:00:00,METAR VLVT 240400Z 14004KT 8000 FEW020 BKN050 30/25 Q1010 NOSIG
2026-04-24 03:30:00,METAR VLVT 240330Z 18004KT 8000 BKN050 30/25 Q1010 NOSIG
2026-04-24 03:00:00,METAR VLVT 240300Z 22002KT 7000 BKN050 29/24 Q1011 NOSIG
2026-04-24 02:30:00,METAR VLVT 240230Z 02002KT 7000 BKN050 28/24 Q1011 NOSIG
2026-04-24 02:00:00,METAR VLVT 240200Z 14002KT 7000 BKN050 28/23 Q1011 NOSIG
2026-04-24 01:30:00,METAR VLVT 240130Z 00000KT 7000 BKN050 28/23 Q1010 NOSIG
2026-04-24 01:00:00,METAR VLVT 240100Z 30002KT 7000 BKN050 27/22 Q1010 NOSIG
2026-04-24 00:00:00,METAR VLVT 240000Z 00000KT 5000 BR BKN050 25/21 Q1009 NOSIG
2026-04-23 23:00:00,METAR VLVT 232300Z 06002KT 5000 BR BKN050 25/21 Q1008 NOSIG
2026-04-23 17:00:00,METAR VLVT 231700Z 32004KT 5000 BR NSC 25/21 Q1007 NOSIG
2026-04-23 16:00:00,METAR VLVT 231600Z 04006KT 5000 BR NSC 26/22 Q1007 NOSIG
2026-04-23 15:00:00,METAR VLVT 231500Z 16006KT 5000 BR FEW050 25/21 Q1007 NOSIG
2026-04-23 14:30:00,METAR VLVT 231430Z 12008KT 5000 BR SCT020 25/21 Q1008 NOSIG
2026-04-23 14:00:00,METAR VLVT 231400Z 22012KT 5000 TSRA SCT016 BKN050 27/22 Q1006 CB OVER AD NOSIG
2026-04-23 13:30:00,METAR VLVT 231330Z 24010KT 7000 TS FEW023 BKN050 28/24 Q1006 NOSIG
2026-04-23 13:00:00,METAR VLVT 231300Z 24008KT 5000 BR FEW050 31/26 Q1005 NOSIG
2026-04-23 12:00:00,METAR VLVT 231200Z 06006KT 5000 BR FEW050 32/27 Q1003 NOSIG
2026-04-23 11:30:00,METAR VLVT 231130Z 36006KT 5000 BR SCT020 BKN050 32/27 Q1002 NOSIG
2026-04-23 11:00:00,METAR VLVT 231100Z 36010KT 7000 SCT020 BKN050 33/27 Q1003 NOSIG
2026-04-23 10:30:00,METAR VLVT 231030Z 02006KT 8000 SCT020 BKN050 33/28 Q1002 NOSIG
2026-04-23 10:00:00,METAR VLVT 231000Z 36010KT 8000 SCT020 BKN050 34/28 Q1002 NOSIG
2026-04-23 09:30:00,METAR VLVT 230930Z 02006KT 8000 SCT020 SCT050 36/30 Q1002 NOSIG
2026-04-23 09:00:00,METAR VLVT 230900Z 34002KT 8000 SCT020 37/30 Q1002 NOSIG
2026-04-23 08:30:00,METAR VLVT 230830Z 00000KT 8000 SCT050 37/30 Q1002 NOSIG
2026-04-23 08:00:00,METAR VLVT 230800Z 04002KT 8000 BKN020 37/30 Q1002 NOSIG
2026-04-23 07:30:00,METAR VLVT 230730Z 32002KT 8000 BKN050 37/30 Q1003 NOSIG
2026-04-23 07:00:00,METAR VLVT 230700Z 32004KT 8000 BKN020 36/30 Q1003 NOSIG
2026-04-23 06:30:00,METAR VLVT 230630Z 02008KT 8000 NSC 37/30 Q1004 NOSIG
2026-04-23 06:00:00,METAR VLVT 230600Z 27002KT 8000 SCT020 38/31 Q1004 NOSIG
2026-04-23 05:30:00,METAR VLVT 230530Z 34004KT 8000 NSC 36/30 Q1005 NOSIG
2026-04-23 05:00:00,METAR VLVT 230500Z 36006KT 8000 NSC 36/30 Q1006 NOSIG
2026-04-23 04:00:00,METAR VLVT 230400Z 02004KT 8000 NSC 35/28 Q1007 NOSIG
2026-04-23 03:30:00,METAR VLVT 230330Z 02004KT 8000 NSC 34/28 Q1007 NOSIG
2026-04-23 03:00:00,METAR VLVT 230300Z 09002KT 8000 NSC 34/28 Q1007 NOSIG
2026-04-23 02:30:00,METAR VLVT 230230Z 36002KT 8000 NSC 33/27 Q1008 NOSIG
2026-04-23 02:00:00,METAR VLVT 230200Z 24002KT 8000 NSC 32/26 Q1008 NOSIG
2026-04-23 01:30:00,METAR VLVT 230130Z 00000KT 8000 NSC 31/26 Q1007 NOSIG
2026-04-23 01:00:00,METAR VLVT 230100Z 00000KT 8000 NSC 30/25 Q1007 NOSIG
2026-04-23 00:00:00,METAR VLVT 230000Z 24002KT 5000 HZ SCT050 27/22 Q1007 NOSIG
2026-04-22 23:30:00,METAR VLVT 222330Z 00000KT 6000 SCT050 26/22 Q1006 NOSIG
2026-04-22 23:00:00,METAR VLVT 222300Z 00000KT 6000 SCT050 26/22 Q1006 NOSIG
2026-04-22 17:00:00,METAR VLVT 221700Z 12004KT 5000 HZ NSC 30/25 Q1005 NOSIG
2026-04-22 16:30:00,METAR VLVT 221630Z 12004KT 5000 HZ NSC 30/25 Q1006 NOSIG
2026-04-22 16:00:00,METAR VLVT 221600Z 12004KT 5000 HZ NSC 31/26 Q1006 NOSIG
2026-04-22 15:30:00,METAR VLVT 221530Z 09004KT 5000 HZ NSC 31/26 Q1006 NOSIG
2026-04-22 15:00:00,METAR VLVT 221500Z 12004KT 5000 HZ NSC 31/26 Q1005 NOSIG
2026-04-22 14:30:00,METAR VLVT 221430Z 12004KT 5000 HZ NSC 32/27 Q1005 NOSIG
2026-04-22 14:00:00,METAR VLVT 221400Z 12006KT 5000 HZ NSC 33/28 Q1005 NOSIG
2026-04-22 13:30:00,METAR VLVT 221330Z 12006KT 5000 HZ NSC 33/28 Q1004 NOSIG
2026-04-22 13:00:00,METAR VLVT 221300Z 14004KT 5000 HZ NSC 32/27 Q1004 NOSIG
2026-04-22 12:30:00,METAR VLVT 221230Z 16006KT 6000 NSC 32/27 Q1003 NOSIG
2026-04-22 12:00:00,METAR VLVT 221200Z 16002KT 6000 NSC 33/28 Q1003 NOSIG
2026-04-22 11:30:00,METAR VLVT 221130Z 16002KT 7000 NSC 34/28 Q1003 NOSIG
2026-04-22 11:00:00,METAR VLVT 221100Z 16004KT 8000 NSC 35/29 Q1002 NOSIG
2026-04-22 10:30:00,METAR VLVT 221030Z 18004KT 8000 NSC 36/30 Q1002 NOSIG
2026-04-22 10:00:00,METAR VLVT 221000Z 20004KT 8000 NSC 37/31 Q1002 NOSIG
2026-04-22 09:30:00,METAR VLVT 220930Z 22004KT 8000 NSC 38/31 Q1002 NOSIG
2026-04-22 09:00:00,METAR VLVT 220900Z 18004KT 8000 FEW020 38/31 Q1003 NOSIG
2026-04-22 08:30:00,METAR VLVT 220830Z 20006KT 8000 FEW020 38/31 Q1003 NOSIG
2026-04-22 08:00:00,METAR VLVT 220800Z 20006KT 8000 FEW020 38/31 Q1004 NOSIG
2026-04-22 07:00:00,METAR VLVT 220700Z 18006KT 8000 NSC 37/30 Q1005 NOSIG
2026-04-22 06:00:00,METAR VLVT 220600Z 20006KT 8000 NSC 37/31 Q1006 NOSIG
2026-04-22 05:30:00,METAR VLVT 220530Z 18006KT 8000 NSC 37/30 Q1007 NOSIG
2026-04-22 05:00:00,METAR VLVT 220500Z 32002KT 8000 NSC 36/30 Q1007 NOSIG
2026-04-22 04:30:00,METAR VLVT 220430Z 36002KT 8000 NSC 36/30 Q1008 NOSIG
2026-04-22 04:00:00,METAR VLVT 220400Z 36004KT 8000 NSC 36/29 Q1008 NOSIG
2026-04-22 03:30:00,METAR VLVT 220330Z 09002KT 8000 NSC 35/29 Q1008 NOSIG
2026-04-22 03:00:00,METAR VLVT 220300Z 34004KT 8000 NSC 33/28 Q1009 NOSIG
2026-04-22 02:30:00,METAR VLVT 220230Z 18002KT 7000 NSC 33/27 Q1009 NOSIG
2026-04-22 02:00:00,METAR VLVT 220200Z 09002KT 7000 NSC 32/27 Q1009 NOSIG
2026-04-22 01:30:00,METAR VLVT 220130Z 06002KT 7000 NSC 32/26 Q1009 NOSIG
2026-04-22 01:00:00,METAR VLVT 220100Z 30002KT 7000 NSC 31/26 Q1008 NOSIG
2026-04-22 00:00:00,METAR VLVT 220000Z 02002KT 5000 BR NSC 28/23 Q1006 NOSIG
2026-04-21 16:30:00,METAR VLVT 211630Z 12002KT 5000 BR NSC 28/24 Q1003 NOSIG
2026-04-21 16:00:00,METAR VLVT 211600Z 00000KT 5000 BR NSC 30/25 Q1007 NOSIG
2026-04-21 15:30:00,METAR VLVT 211530Z 24002KT 5000 BR NSC 30/25 Q1007 NOSIG
2026-04-21 15:00:00,METAR VLVT 211500Z 24002KT 5000 BR NSC 31/26 Q1007 NOSIG
2026-04-21 14:30:00,METAR VLVT 211430Z 16004KT 5000 BR NSC 30/26 Q1006 NOSIG
2026-04-21 14:00:00,METAR VLVT 211400Z 18004KT 5000 BR NSC 31/26 Q1006 NOSIG
2026-04-21 13:30:00,METAR VLVT 211330Z 14002KT 5000 BR NSC 31/26 Q1006 NOSIG
2026-04-21 13:00:00,METAR VLVT 211300Z 14002KT 5000 BR NSC 31/26 Q1005 NOSIG
2026-04-21 12:30:00,METAR VLVT 211230Z 16004KT 5000 BR NSC 32/27 Q1004 NOSIG
2026-04-21 12:00:00,METAR VLVT 211200Z 16002KT 5000 BR NSC 32/27 Q1004 NOSIG
2026-04-21 11:30:00,METAR VLVT 211130Z 16004KT 8000 NSC 33/28 Q1003 NOSIG
2026-04-21 11:00:00,METAR VLVT 211100Z 16004KT 8000 NSC 34/29 Q1003 NOSIG
2026-04-21 10:00:00,METAR VLVT 211000Z 12004KT 8000 NSC 36/30 Q1003 NOSIG
2026-04-21 09:30:00,METAR VLVT 210930Z 16004KT 8000 NSC 37/30 Q1003 NOSIG
2026-04-21 09:00:00,METAR VLVT 210900Z 16004KT 8000 NSC 37/30 Q1004 NOSIG
2026-04-21 08:30:00,METAR VLVT 210830Z 16008KT 8000 NSC 37/30 Q1004 NOSIG
2026-04-21 08:00:00,METAR VLVT 210800Z 14006KT 8000 NSC 37/30 Q1004 NOSIG
2026-04-21 07:30:00,METAR VLVT 210730Z 18004KT 8000 NSC 37/30 Q1005 NOSIG
2026-04-21 07:00:00,METAR VLVT 210700Z 24004KT 8000 NSC 37/30 Q1005 NOSIG
2026-04-21 06:30:00,METAR VLVT 210630Z 18004KT 8000 NSC 37/30 Q1006 NOSIG
2026-04-21 06:00:00,METAR VLVT 210600Z 12006KT 8000 NSC 36/30 Q1007 NOSIG
2026-04-21 05:00:00,METAR VLVT 210500Z 18006KT 8000 NSC 35/29 Q1008 NOSIG
2026-04-21 04:30:00,METAR VLVT 210430Z 27004KT 8000 NSC 35/29 Q1008 NOSIG
2026-04-21 04:00:00,METAR VLVT 210400Z 22004KT 8000 NSC 34/28 Q1009 NOSIG
2026-04-21 03:30:00,METAR VLVT 210330Z 22002KT 8000 NSC 33/27 Q1009 NOSIG
2026-04-21 03:00:00,METAR VLVT 210300Z 14004KT 8000 NSC 33/27 Q1009 NOSIG
2026-04-21 02:30:00,METAR VLVT 210230Z 12004KT 8000 NSC 32/27 Q1009 NOSIG
2026-04-21 02:00:00,METAR VLVT 210200Z 14004KT 8000 NSC 31/26 Q1009 NOSIG
2026-04-21 01:30:00,METAR VLVT 210130Z 16002KT 8000 NSC 30/25 Q1009 NOSIG
2026-04-21 01:00:00,METAR VLVT 210100Z 00000KT 7000 NSC 29/24 Q1009 NOSIG
2026-04-21 00:00:00,METAR VLVT 210000Z 00000KT 6000 NSC 26/22 Q1008 NOSIG
2026-04-20 23:30:00,METAR VLVT 202330Z 24002KT 6000 NSC 25/21 Q1008 NOSIG
2026-04-20 23:00:00,METAR VLVT 202300Z 36002KT 6000 FEW200 24/20 Q1008 NOSIG
2026-04-20 16:00:00,METAR VLVT 201600Z 22002KT 5000 BR NSC 27/23 Q1008 NOSIG
2026-04-20 15:30:00,METAR VLVT 201530Z 22002KT 5000 BR NSC 28/23 Q1008 NOSIG
2026-04-20 15:00:00,METAR VLVT 201500Z 22002KT 5000 BR NSC 28/23 Q1008 NOSIG
2026-04-20 14:30:00,METAR VLVT 201430Z 18002KT 5000 HZ NSC 28/24 Q1008 NOSIG
2026-04-20 14:00:00,METAR VLVT 201400Z 18004KT 5000 HZ NSC 29/24 Q1008 NOSIG
2026-04-20 13:30:00,METAR VLVT 201330Z 18004KT 5000 HZ NSC 30/25 Q1007 NOSIG
2026-04-20 13:00:00,METAR VLVT 201300Z 18004KT 5000 HZ FEW050 30/25 Q1007 NOSIG
2026-04-20 12:30:00,METAR VLVT 201230Z 18008KT 5000 HZ FEW050 31/26 Q1006 NOSIG
2026-04-20 12:00:00,METAR VLVT 201200Z 16006KT 6000 FEW050 31/26 Q1005 NOSIG
2026-04-20 11:30:00,METAR VLVT 201130Z 16006KT 7000 FEW050 32/27 Q1005 NOSIG
2026-04-20 11:00:00,METAR VLVT 201100Z 18006KT 8000 FEW050 33/28 Q1004 NOSIG
2026-04-20 10:30:00,METAR VLVT 201030Z 20004KT 8000 NSC 34/28 Q1004 NOSIG
2026-04-20 10:00:00,METAR VLVT 201000Z 16006KT 8000 NSC 34/29 Q1004 NOSIG
2026-04-20 09:00:00,METAR VLVT 200900Z 16006KT 8000 FEW020 35/29 Q1004 NOSIG
2026-04-20 08:30:00,METAR VLVT 200830Z 18006KT 8000 FEW020 35/29 Q1005 NOSIG
2026-04-20 08:00:00,METAR VLVT 200800Z 14004KT 8000 FEW020 35/28 Q1005 NOSIG
2026-04-20 07:00:00,METAR VLVT 200700Z 18004KT 8000 SCT020 35/29 Q1007 NOSIG
2026-04-20 06:30:00,METAR VLVT 200630Z 22006KT 8000 SCT020 35/29 Q1007 NOSIG
2026-04-20 06:00:00,METAR VLVT 200600Z 16004KT 8000 SCT020 35/29 Q1008 NOSIG
2026-04-20 05:30:00,METAR VLVT 200530Z 22004KT 8000 SCT020 34/28 Q1009 NOSIG
2026-04-20 05:00:00,METAR VLVT 200500Z 14004KT 8000 SCT020 33/28 Q1009 NOSIG
2026-04-20 04:30:00,METAR VLVT 200430Z 18004KT 8000 SCT020 33/27 Q1010 NOSIG
2026-04-20 04:00:00,METAR VLVT 200400Z 34004KT 8000 NSC 32/27 Q1010 NOSIG
2026-04-20 03:30:00,METAR VLVT 200330Z 36004KT 8000 NSC 31/26 Q1010 NOSIG
2026-04-20 03:00:00,METAR VLVT 200300Z 09004KT 8000 NSC 31/25 Q1010 NOSIG
2026-04-20 02:30:00,METAR VLVT 200230Z 06004KT 7000 NSC 30/25 Q1011 NOSIG
2026-04-20 02:00:00,METAR VLVT 200200Z 06004KT 7000 NSC 30/25 Q1011 NOSIG
2026-04-20 01:30:00,METAR VLVT 200130Z 06004KT 7000 SCT100 28/24 Q1010 NOSIG
2026-04-20 01:00:00,METAR VLVT 200100Z 12004KT 7000 SCT100 27/23 Q1010 NOSIG
2026-04-20 00:00:00,METAR VLVT 200000Z 04002KT 5000 BR BKN050 25/21 Q1010 NOSIG
2026-04-19 23:00:00,METAR VLVT 192300Z 00000KT 5000 BR BKN050 24/21 Q1009 NOSIG
2026-04-19 19:00:00,METAR VLVT 191900Z 18004KT 5000 BR SCT050 25/22 Q1009 NOSIG
2026-04-19 18:00:00,METAR VLVT 191800Z 14004KT 5000 BR SCT050 25/22 Q1009 NOSIG
2026-04-19 17:00:00,METAR VLVT 191700Z 22002KT 5000 BR SCT050 25/21 Q1009 NOSIG
2026-04-19 16:00:00,METAR VLVT 191600Z 00000KT 5000 BR SCT050 26/22 Q1010 NOSIG
2026-04-19 15:00:00,METAR VLVT 191500Z 14008KT 5000 BR SCT050 28/23 Q1010 NOSIG
2026-04-19 14:30:00,METAR VLVT 191430Z 12006KT 5000 BR SCT050 27/23 Q1010 NOSIG
2026-04-19 14:00:00,METAR VLVT 191400Z 12002KT 5000 BR SCT050 27/23 Q1009 NOSIG
2026-04-19 13:30:00,METAR VLVT 191330Z 27002KT 5000 BR SCT050 27/23 Q1008 NOSIG
2026-04-19 13:00:00,METAR VLVT 191300Z 12002KT 5000 BR SCT050 27/23 Q1008 NOSIG
2026-04-19 12:30:00,METAR VLVT 191230Z 24008KT 5000 BR SCT050 28/23 Q1008 NOSIG
2026-04-19 12:00:00,METAR VLVT 191200Z 12004KT 5000 BR BKN050 30/25 Q1007 NOSIG
2026-04-19 11:30:00,METAR VLVT 191130Z 09008KT 5000 BR BKN050 30/25 Q1005 NOSIG
2026-04-19 11:00:00,METAR VLVT 191100Z 12006KT 5000 BR BKN050 30/25 Q1005 NOSIG
2026-04-19 10:30:00,METAR VLVT 191030Z 09006KT 8000 BKN050 31/26 Q1005 NOSIG
2026-04-19 10:00:00,METAR VLVT 191000Z 14008KT 8000 SCT050 31/26 Q1005 NOSIG
2026-04-19 09:00:00,METAR VLVT 190900Z 12008KT 8000 NSC 33/27 Q1005 NOSIG
2026-04-19 08:30:00,METAR VLVT 190830Z 12008KT 8000 NSC 34/28 Q1005 NOSIG
2026-04-19 08:00:00,METAR VLVT 190800Z 12006KT 8000 NSC 33/27 Q1008 NOSIG
2026-04-19 07:30:00,METAR VLVT 190730Z 12006KT 8000 NSC 33/28 Q1007 NOSIG
2026-04-19 07:00:00,METAR VLVT 190700Z 12008KT 8000 NSC 33/27 Q1007 NOSIG
2026-04-19 06:30:00,METAR VLVT 190630Z 18006KT 8000 NSC 33/27 Q1008 NOSIG
2026-04-19 06:00:00,METAR VLVT 190600Z 14006KT 8000 SCT050 33/27 Q1008 NOSIG
2026-04-19 05:30:00,METAR VLVT 190530Z 18006KT 8000 BKN050 33/27 Q1009 NOSIG
2026-04-19 05:00:00,METAR VLVT 190500Z 18006KT 8000 BKN050 32/26 Q1009 NOSIG
2026-04-19 04:00:00,METAR VLVT 190400Z 18006KT 8000 BKN050 31/26 Q1010 NOSIG
2026-04-19 03:30:00,METAR VLVT 190330Z 14006KT 8000 BKN050 29/25 Q1011 NOSIG
2026-04-19 03:00:00,METAR VLVT 190300Z 18004KT 8000 BKN050 28/23 Q1011 NOSIG
2026-04-19 02:30:00,METAR VLVT 190230Z 09004KT 8000 BKN050 28/24 Q1011 NOSIG
2026-04-19 02:00:00,METAR VLVT 190200Z 09004KT 8000 BKN050 28/23 Q1011 NOSIG
2026-04-19 01:00:00,METAR VLVT 190100Z 09008KT 8000 BKN050 27/23 Q1010 NOSIG
2026-04-19 00:00:00,METAR VLVT 190000Z 06006KT 7000 SCT050 26/22 Q1009 NOSIG
2026-04-18 23:30:00,METAR VLVT 182330Z 06004KT 6000 BKN050 26/22 Q1009 NOSIG
2026-04-18 23:00:00,METAR VLVT 182300Z 04004KT 6000 BKN050 26/22 Q1008 NOSIG
2026-04-18 16:00:00,METAR VLVT 181600Z 06002KT 5000 HZ NSC 28/24 Q1008 NOSIG
2026-04-18 15:00:00,METAR VLVT 181500Z 12002KT 5000 HZ NSC 30/25 Q1008 NOSIG
2026-04-18 14:30:00,METAR VLVT 181430Z 12004KT 5000 HZ NSC 29/24 Q1008 NOSIG
2026-04-18 14:00:00,METAR VLVT 181400Z 12002KT 5000 HZ NSC 30/25 Q1007 NOSIG
2026-04-18 13:30:00,METAR VLVT 181330Z 00000KT 5000 HZ NSC 29/24 Q1007 NOSIG
2026-04-18 13:00:00,METAR VLVT 181300Z 00000KT 5000 HZ NSC 29/24 Q1007 NOSIG
2026-04-18 12:30:00,METAR VLVT 181230Z 00000KT 5000 HZ NSC 30/25 Q1006 NOSIG
2026-04-18 12:00:00,METAR VLVT 181200Z 00000KT 6000 NSC 30/25 Q1006 NOSIG
2026-04-18 11:30:00,METAR VLVT 181130Z 00000KT 7000 NSC 31/26 Q1006 NOSIG
2026-04-18 11:00:00,METAR VLVT 181100Z 12002KT 7000 NSC 32/27 Q1005 NOSIG
2026-04-18 10:30:00,METAR VLVT 181030Z 22002KT 8000 NSC 34/28 Q1005 NOSIG
2026-04-18 10:00:00,METAR VLVT 181000Z 20004KT 8000 NSC 34/28 Q1004 NOSIG
2026-04-18 09:30:00,METAR VLVT 180930Z 18002KT 8000 NSC 34/28 Q1005 NOSIG
2026-04-18 09:00:00,METAR VLVT 180900Z 18002KT 8000 NSC 35/29 Q1005 NOSIG
2026-04-18 08:30:00,METAR VLVT 180830Z 16004KT 8000 NSC 35/29 Q1005 NOSIG
2026-04-18 08:00:00,METAR VLVT 180800Z 20004KT 8000 NSC 35/29 Q1006 NOSIG
2026-04-18 07:00:00,METAR VLVT 180700Z 24004KT 8000 NSC 34/28 Q1007 NOSIG
2026-04-18 06:00:00,METAR VLVT 180600Z 20004KT 8000 NSC 34/28 Q1008 NOSIG
2026-04-18 05:00:00,METAR VLVT 180500Z 14008KT 8000 NSC 32/27 Q1010 NOSIG
2026-04-18 04:30:00,METAR VLVT 180430Z 14006KT 8000 NSC 32/27 Q1010 NOSIG
2026-04-18 04:00:00,METAR VLVT 180400Z 14006KT 8000 NSC 32/27 Q1011 NOSIG
2026-04-18 03:30:00,METAR VLVT 180330Z 12008KT 8000 NSC 31/26 Q1011 NOSIG
2026-04-18 03:00:00,METAR VLVT 180300Z 14010KT 8000 NSC 30/25 Q1011 NOSIG
2026-04-18 02:30:00,METAR VLVT 180230Z 12008KT 8000 NSC 30/25 Q1011 NOSIG
2026-04-18 02:00:00,METAR VLVT 180200Z 12008KT 8000 NSC 29/24 Q1011 NOSIG
2026-04-18 01:30:00,METAR VLVT 180130Z 12008KT 8000 BKN100 28/23 Q1011 NOSIG
2026-04-18 00:00:00,METAR VLVT 180000Z 09010KT 5000 BR BKN050 26/22 Q1010 NOSIG
2026-04-17 23:00:00,METAR VLVT 172300Z 12008KT 5000 BR BKN050 27/22 Q1009 NOSIG
2026-04-17 19:00:00,METAR VLVT 171900Z 12008KT 5000 BR NSC 29/25 Q1007 NOSIG
2026-04-17 18:30:00,METAR VLVT 171830Z 12004KT 5000 BR NSC 29/25 Q1007 NOSIG
2026-04-17 18:00:00,METAR VLVT 171800Z 09006KT 5000 BR NSC 29/24 Q1007 NOSIG
2026-04-17 17:30:00,METAR VLVT 171730Z 12002KT 5000 BR NSC 28/25 Q1007 NOSIG
2026-04-17 17:00:00,METAR VLVT 171700Z 12006KT 5000 BR NSC 29/25 Q1007 NOSIG
2026-04-17 16:00:00,METAR VLVT 171600Z 06002KT 5000 BR NSC 28/23 Q1008 NOSIG
2026-04-17 15:00:00,METAR VLVT 171500Z 00000KT 5000 BR NSC 28/24 Q1007 NOSIG
2026-04-17 14:30:00,METAR VLVT 171430Z 24002KT 5000 BR NSC 28/25 Q1007 NOSIG
2026-04-17 14:00:00,METAR VLVT 171400Z 00000KT 5000 BR NSC 30/25 Q1006 NOSIG
2026-04-17 13:00:00,METAR VLVT 171300Z COR 22004KT 5000 BR NSC 31/26 Q1006 NOSIG
2026-04-17 12:30:00,METAR VLVT 171230Z 00000KT 5000 BR NSC 31/26 Q1004 NOSIG
2026-04-17 12:00:00,METAR VLVT 171200Z 18002KT 5000 BR NSC 31/26 Q1004 NOSIG
2026-04-17 11:30:00,METAR VLVT 171130Z 12002KT 5000 BR NSC 34/28 Q1004 NOSIG
2026-04-17 11:00:00,METAR VLVT 171100Z 09002KT 8000 NSC 35/29 Q1003 NOSIG
2026-04-17 10:30:00,METAR VLVT 171030Z 00000KT 8000 NSC 37/30 Q1003 NOSIG
2026-04-17 10:00:00,METAR VLVT 171000Z 06002KT 8000 NSC 38/32 Q1003 NOSIG
2026-04-17 09:00:00,METAR VLVT 170900Z 00000KT 8000 NSC 39/32 Q1003 NOSIG
2026-04-17 08:30:00,METAR VLVT 170830Z 09002KT 8000 NSC 39/32 Q1004 NOSIG
2026-04-17 08:00:00,METAR VLVT 170800Z 09002KT 8000 NSC 39/32 Q1004 NOSIG
2026-04-17 07:30:00,METAR VLVT 170730Z 16002KT 8000 NSC 38/32 Q1005 NOSIG
2026-04-17 07:00:00,METAR VLVT 170700Z 18004KT 8000 NSC 38/31 Q1006 NOSIG
2026-04-17 06:30:00,METAR VLVT 170630Z 16004KT 8000 NSC 37/31 Q1006 NOSIG
2026-04-17 06:00:00,METAR VLVT 170600Z 16004KT 8000 NSC 37/31 Q1007 NOSIG
2026-04-17 05:00:00,METAR VLVT 170500Z 18004KT 8000 NSC 36/29 Q1008 NOSIG
2026-04-17 04:30:00,METAR VLVT 170430Z 18004KT 8000 NSC 35/28 Q1008 NOSIG
2026-04-17 04:00:00,METAR VLVT 170400Z 22004KT 8000 SCT050 34/28 Q1009 NOSIG
2026-04-17 03:30:00,METAR VLVT 170330Z 09002KT 5000 BR SCT050 34/28 Q1009 NOSIG
2026-04-17 03:00:00,METAR VLVT 170300Z 09002KT 5000 BR NSC 33/28 Q1009 NOSIG
2026-04-17 02:30:00,METAR VLVT 170230Z 12002KT 5000 BR NSC 32/27 Q1010 NOSIG
2026-04-17 02:00:00,METAR VLVT 170200Z 04004KT 5000 BR NSC 30/25 Q1009 NOSIG
2026-04-17 01:30:00,METAR VLVT 170130Z 36004KT 5000 BR NSC 28/23 Q1009 NOSIG
2026-04-17 01:00:00,METAR VLVT 170100Z 34002KT 5000 BR NSC 26/22 Q1009 NOSIG
2026-04-17 00:00:00,METAR VLVT 170000Z 14002KT 5000 BR FEW050 23/19 Q1008 NOSIG
2026-04-16 23:30:00,METAR VLVT 162330Z 04002KT 5000 BR SCT050 24/20 Q1008 NOSIG
2026-04-16 23:00:00,METAR VLVT 162300Z COR 00000KT 5000 BR SCT050 24/20 Q1007 NOSIG
2026-04-16 16:00:00,METAR VLVT 161600Z 24002KT 5000 BR NSC 28/23 Q1007 NOSIG
2026-04-16 15:00:00,METAR VLVT 161500Z 00000KT 5000 BR NSC 28/24 Q1006 NOSIG
2026-04-16 14:00:00,METAR VLVT 161400Z 24002KT 5000 HZ NSC 29/24 Q1006 NOSIG
2026-04-16 13:30:00,METAR VLVT 161330Z 18002KT 5000 HZ NSC 29/24 Q1005 NOSIG
2026-04-16 13:00:00,METAR VLVT 161300Z 00000KT 5000 HZ NSC 30/25 Q1005 NOSIG
2026-04-16 12:30:00,METAR VLVT 161230Z 00000KT 5000 HZ NSC 31/26 Q1004 NOSIG
2026-04-16 12:00:00,METAR VLVT 161200Z 00000KT 6000 NSC 32/27 Q1004 NOSIG
2026-04-16 11:30:00,METAR VLVT 161130Z 12004KT 7000 NSC 34/28 Q1003 NOSIG
2026-04-16 11:00:00,METAR VLVT 161100Z 12004KT 8000 NSC 36/30 Q1003 NOSIG
2026-04-16 10:30:00,METAR VLVT 161030Z 12004KT 8000 NSC 37/30 Q1003 NOSIG
2026-04-16 10:00:00,METAR VLVT 161000Z 16004KT 8000 NSC 38/31 Q1003 NOSIG
2026-04-16 09:00:00,METAR VLVT 160900Z 14008KT 7000 NSC 39/32 Q1003 NOSIG
2026-04-16 08:30:00,METAR VLVT 160830Z 18008KT 8000 NSC 39/32 Q1003 NOSIG
2026-04-16 08:00:00,METAR VLVT 160800Z 18008KT 7000 NSC 39/32 Q1004 NOSIG
2026-04-16 07:30:00,METAR VLVT 160730Z 18004KT 7000 NSC 39/32 Q1004 NOSIG
2026-04-16 07:00:00,METAR VLVT 160700Z 16004KT 7000 NSC 39/32 Q1005 NOSIG
2026-04-16 06:00:00,METAR VLVT 160600Z 16004KT 6000 NSC 38/31 Q1007 NOSIG
2026-04-16 05:00:00,METAR VLVT 160500Z 20004KT 6000 NSC 37/31 Q1008 NOSIG
2026-04-16 04:30:00,METAR VLVT 160430Z 18004KT 6000 NSC 37/30 Q1008 NOSIG
2026-04-16 04:00:00,METAR VLVT 160400Z 22004KT 6000 NSC 36/30 Q1009 NOSIG
2026-04-16 03:30:00,METAR VLVT 160330Z 20004KT 6000 NSC 35/29 Q1009 NOSIG
2026-04-16 03:00:00,METAR VLVT 160300Z 24002KT 6000 NSC 33/28 Q1009 NOSIG
2026-04-16 02:30:00,METAR VLVT 160230Z 22002KT 6000 NSC 32/27 Q1009 NOSIG
2026-04-16 02:00:00,METAR VLVT 160200Z 24002KT 5000 HZ NSC 30/25 Q1009 NOSIG
2026-04-16 01:00:00,METAR VLVT 160100Z 00000KT 5000 HZ NSC 29/24 Q1009 NOSIG
2026-04-16 00:00:00,METAR VLVT 160000Z 00000KT 4000 BR NSC 23/19 Q1007 NOSIG
2026-04-15 23:00:00,METAR VLVT 152300Z 00000KT 4000 BR SCT050 22/19 Q1006 NOSIG
2026-04-15 19:00:00,METAR VLVT 151900Z 36002KT 5000 BR NSC 24/20 Q1005 NOSIG
2026-04-15 18:30:00,METAR VLVT 151830Z 27002KT 5000 BR NSC 25/22 Q1005 NOSIG
2026-04-15 18:00:00,METAR VLVT 151800Z 24002KT 5000 BR NSC 26/22 Q1005 NOSIG
2026-04-15 17:30:00,METAR VLVT 151730Z 27002KT 5000 BR NSC 27/23 Q1005 NOSIG
2026-04-15 17:00:00,METAR VLVT 151700Z 24004KT 5000 BR NSC 28/24 Q1005 NOSIG
2026-04-15 16:30:00,METAR VLVT 151630Z 24004KT 5000 BR NSC 29/25 Q1006 NOSIG
2026-04-15 16:00:00,METAR VLVT 151600Z 22004KT 5000 BR NSC 30/26 Q1006 NOSIG
2026-04-15 15:30:00,METAR VLVT 151530Z 22002KT 5000 BR NSC 30/25 Q1006 NOSIG
2026-04-15 15:00:00,METAR VLVT 151500Z 22004KT 5000 BR NSC 31/26 Q1005 NOSIG
2026-04-15 14:30:00,METAR VLVT 151430Z 22002KT 5000 BR NSC 29/24 Q1005 NOSIG
2026-04-15 14:00:00,METAR VLVT 151400Z 22002KT 5000 BR NSC 29/24 Q1005 NOSIG
2026-04-15 13:30:00,METAR VLVT 151330Z 22002KT 5000 BR NSC 29/24 Q1004 NOSIG
2026-04-15 13:00:00,METAR VLVT 151300Z 22002KT 5000 BR NSC 29/24 Q1004 NOSIG
2026-04-15 12:30:00,METAR VLVT 151230Z 22002KT 5000 BR FEW050 31/26 Q1003 NOSIG
2026-04-15 11:30:00,METAR VLVT 151130Z 14006KT 8000 NSC 34/30 Q1003 NOSIG
2026-04-15 11:00:00,METAR VLVT 151100Z 14004KT 8000 NSC 35/30 Q1002 NOSIG
2026-04-15 10:30:00,METAR VLVT 151030Z 14002KT 8000 NSC 37/30 Q1002 NOSIG
2026-04-15 10:00:00,METAR VLVT 151000Z 14008KT 8000 NSC 38/31 Q1002 NOSIG
2026-04-15 09:00:00,METAR VLVT 150900Z 16006KT 8000 NSC 39/32 Q1002 NOSIG
2026-04-15 08:30:00,METAR VLVT 150830Z 22004KT 8000 NSC 39/32 Q1003 NOSIG
2026-04-15 08:00:00,METAR VLVT 150800Z 18006KT 8000 NSC 39/32 Q1003 NOSIG
2026-04-15 07:30:00,METAR VLVT 150730Z 18008KT 8000 NSC 39/32 Q1004 NOSIG
2026-04-15 07:00:00,METAR VLVT 150700Z 18006KT 8000 NSC 39/32 Q1004 NOSIG
2026-04-15 06:30:00,METAR VLVT 150630Z 16006KT 8000 NSC 38/31 Q1005 NOSIG
2026-04-15 06:00:00,METAR VLVT 150600Z 22004KT 8000 NSC 38/31 Q1006 NOSIG
2026-04-15 05:30:00,METAR VLVT 150530Z 22002KT 8000 NSC 38/31 Q1006 NOSIG
2026-04-15 05:00:00,METAR VLVT 150500Z 22004KT 8000 NSC 37/31 Q1007 NOSIG
2026-04-15 04:30:00,METAR VLVT 150430Z 32002KT 8000 NSC 37/30 Q1008 NOSIG
2026-04-15 04:00:00,METAR VLVT 150400Z 06002KT 8000 NSC 36/30 Q1008 NOSIG
2026-04-15 03:00:00,METAR VLVT 150300Z 27002KT 5000 BR NSC 34/28 Q1009 NOSIG
2026-04-15 02:30:00,METAR VLVT 150230Z 18002KT 5000 BR NSC 33/27 Q1009 NOSIG
2026-04-15 02:00:00,METAR VLVT 150200Z 32002KT 5000 BR NSC 31/26 Q1009 NOSIG
2026-04-15 01:30:00,METAR VLVT 150130Z 22002KT 5000 BR NSC 30/25 Q1008 NOSIG
2026-04-15 01:00:00,METAR VLVT 150100Z 34002KT 5000 BR NSC 28/24 Q1008 NOSIG
2026-04-15 00:00:00,METAR VLVT 150000Z 00000KT 5000 BR NSC 24/20 Q1006 NOSIG
2026-04-14 23:00:00,METAR VLVT 142300Z 34002KT 5000 BR NSC 23/19 Q1006 NOSIG
2026-04-14 16:00:00,METAR VLVT 141600Z 24002KT 5000 BR NSC 27/22 Q1006 NOSIG
2026-04-14 15:30:00,METAR VLVT 141530Z 24002KT 5000 BR NSC 27/22 Q1006 NOSIG
2026-04-14 15:00:00,METAR VLVT 141500Z 24002KT 5000 BR NSC 27/23 Q1006 NOSIG
2026-04-14 14:30:00,METAR VLVT 141430Z 24002KT 5000 BR NSC 28/23 Q1006 NOSIG
2026-04-14 14:00:00,METAR VLVT 141400Z 24002KT 5000 BR NSC 28/24 Q1006 NOSIG
2026-04-14 13:00:00,METAR VLVT 141300Z 00000KT 5000 HZ NSC 29/25 Q1005 NOSIG
2026-04-14 12:30:00,METAR VLVT 141230Z 00000KT 5000 HZ NSC 31/26 Q1004 NOSIG
2026-04-14 12:00:00,METAR VLVT 141200Z 00000KT 6000 NSC 32/27 Q1004 NOSIG
2026-04-14 11:30:00,METAR VLVT 141130Z 14002KT 7000 NSC 34/28 Q1004 NOSIG
2026-04-14 11:00:00,METAR VLVT 141100Z 14004KT 8000 NSC 35/29 Q1004 NOSIG
2026-04-14 10:30:00,METAR VLVT 141030Z 18002KT 8000 NSC 37/31 Q1004 NOSIG
2026-04-14 10:00:00,METAR VLVT 141000Z 16004KT 8000 NSC 38/31 Q1004 NOSIG
2026-04-14 09:30:00,METAR VLVT 140930Z 16004KT 8000 NSC 38/31 Q1004 NOSIG
2026-04-14 09:00:00,METAR VLVT 140900Z 20004KT 8000 NSC 39/32 Q1004 NOSIG
2026-04-14 08:30:00,METAR VLVT 140830Z 22006KT 8000 NSC 39/32 Q1004 NOSIG
2026-04-14 08:00:00,METAR VLVT 140800Z 20004KT 8000 NSC 39/32 Q1005 NOSIG
2026-04-14 07:30:00,METAR VLVT 140730Z 18006KT 8000 NSC 39/32 Q1005 NOSIG
2026-04-14 07:00:00,METAR VLVT 140700Z 18006KT 8000 NSC 39/32 Q1006 NOSIG
2026-04-14 06:00:00,METAR VLVT 140600Z 22004KT 6000 NSC 39/32 Q1007 NOSIG
2026-04-14 05:30:00,METAR VLVT 140530Z 20006KT 6000 NSC 38/31 Q1008 NOSIG
2026-04-14 05:00:00,METAR VLVT 140500Z 24004KT 6000 NSC 37/31 Q1009 NOSIG
2026-04-14 04:30:00,METAR VLVT 140430Z 22002KT 6000 NSC 37/29 Q1009 NOSIG
2026-04-14 04:00:00,METAR VLVT 140400Z 22004KT 6000 NSC 35/29 Q1009 NOSIG
2026-04-14 03:30:00,METAR VLVT 140330Z 22002KT 6000 NSC 35/29 Q1010 NOSIG
2026-04-14 03:00:00,METAR VLVT 140300Z 22002KT 6000 NSC 34/29 Q1010 NOSIG
2026-04-14 02:30:00,METAR VLVT 140230Z 22002KT 5000 HZ NSC 33/27 Q1010 NOSIG
2026-04-14 02:00:00,METAR VLVT 140200Z 22002KT 5000 HZ NSC 31/26 Q1010 NOSIG
2026-04-14 01:30:00,METAR VLVT 140130Z 22002KT 5000 HZ NSC 30/25 Q1010 NOSIG
2026-04-14 01:00:00,METAR VLVT 140100Z 24002KT 5000 HZ NSC 28/24 Q1009 NOSIG
2026-04-14 00:00:00,METAR VLVT 140000Z 18002KT 4000 BR SCT050 24/21 Q1008 NOSIG
2026-04-13 23:00:00,METAR VLVT 132300Z 02002KT 4000 BR NSC 24/20 Q1007 NOSIG
2026-04-13 17:00:00,METAR VLVT 131700Z 22004KT 5000 BR NSC 29/24 Q1007 NOSIG
2026-04-13 16:30:00,METAR VLVT 131630Z 22002KT 5000 BR NSC 29/24 Q1007 NOSIG
2026-04-13 16:00:00,METAR VLVT 131600Z 22004KT 5000 BR NSC 29/25 Q1007 NOSIG
2026-04-13 15:00:00,METAR VLVT 131500Z 00000KT 5000 BR NSC 29/24 Q1007 NOSIG
2026-04-13 14:00:00,METAR VLVT 131400Z 22002KT 5000 BR NSC 28/23 Q1007 NOSIG
2026-04-13 13:30:00,METAR VLVT 131330Z 00000KT 5000 BR NSC 29/24 Q1006 NOSIG
2026-04-13 13:00:00,METAR VLVT 131300Z 16002KT 5000 BR NSC 30/25 Q1006 NOSIG
2026-04-13 12:30:00,METAR VLVT 131230Z 16002KT 5000 BR NSC 30/26 Q1006 NOSIG
2026-04-13 12:00:00,METAR VLVT 131200Z 16002KT 5000 BR NSC 32/27 Q1005 NOSIG
2026-04-13 11:30:00,METAR VLVT 131130Z 16002KT 7000 NSC 33/27 Q1005 NOSIG
2026-04-13 11:00:00,METAR VLVT 131100Z 18002KT 7000 NSC 36/30 Q1005 NOSIG
2026-04-13 10:30:00,METAR VLVT 131030Z 16004KT 8000 NSC 37/30 Q1004 NOSIG
2026-04-13 10:00:00,METAR VLVT 131000Z 18002KT 8000 NSC 38/31 Q1004 NOSIG
2026-04-13 09:30:00,METAR VLVT 130930Z 18004KT 8000 NSC 38/31 Q1004 NOSIG
2026-04-13 09:00:00,METAR VLVT 130900Z 22006KT 8000 NSC 39/32 Q1004 NOSIG
2026-04-13 08:00:00,METAR VLVT 130800Z 22006KT 8000 NSC 38/31 Q1005 NOSIG
2026-04-13 07:30:00,METAR VLVT 130730Z 18006KT 8000 NSC 38/31 Q1005 NOSIG
2026-04-13 07:00:00,METAR VLVT 130700Z 18006KT 8000 NSC 38/31 Q1006 NOSIG
2026-04-13 06:30:00,METAR VLVT 130630Z 22006KT 8000 NSC 38/31 Q1006 NOSIG
2026-04-13 06:00:00,METAR VLVT 130600Z 16006KT 8000 NSC 38/31 Q1007 NOSIG
2026-04-13 05:00:00,METAR VLVT 130500Z 24002KT 8000 NSC 37/30 Q1008 NOSIG
2026-04-13 04:30:00,METAR VLVT 130430Z 02002KT 8000 NSC 36/30 Q1009 NOSIG
2026-04-13 04:00:00,METAR VLVT 130400Z 22002KT 8000 NSC 35/29 Q1009 NOSIG
2026-04-13 03:30:00,METAR VLVT 130330Z 16004KT 7000 NSC 35/29 Q1009 NOSIG
2026-04-13 03:00:00,METAR VLVT 130300Z 00000KT 5000 BR NSC 34/28 Q1010 NOSIG
2026-04-13 02:30:00,METAR VLVT 130230Z 04002KT 5000 BR NSC 33/27 Q1010 NOSIG
2026-04-13 02:00:00,METAR VLVT 130200Z 04002KT 5000 BR NSC 31/26 Q1010 NOSIG
2026-04-13 01:30:00,METAR VLVT 130130Z 34002KT 5000 BR NSC 30/25 Q1010 NOSIG
2026-04-13 01:00:00,METAR VLVT 130100Z 04002KT 5000 BR NSC 28/24 Q1009 NOSIG
2026-04-13 00:00:00,METAR VLVT 130000Z 36002KT 5000 BR NSC 24/20 Q1008 NOSIG
2026-04-12 23:00:00,METAR VLVT 122300Z 00000KT 5000 BR NSC 23/19 Q1007 NOSIG
2026-04-12 17:30:00,METAR VLVT 121730Z 22002KT 5000 BR NSC 27/22 Q1005 NOSIG
2026-04-12 17:00:00,METAR VLVT 121700Z 22002KT 5000 BR NSC 27/23 Q1005 NOSIG
2026-04-12 16:30:00,METAR VLVT 121630Z 22002KT 5000 BR NSC 28/24 Q1006 NOSIG
2026-04-12 16:00:00,METAR VLVT 121600Z 22002KT 5000 BR NSC 29/24 Q1006 NOSIG
2026-04-12 15:00:00,METAR VLVT 121500Z 00000KT 5000 BR NSC 28/23 Q1006 NOSIG
2026-04-12 14:30:00,METAR VLVT 121430Z 00000KT 5000 BR NSC 28/24 Q1005 NOSIG
2026-04-12 14:00:00,METAR VLVT 121400Z 00000KT 5000 BR NSC 29/24 Q1005 NOSIG
2026-04-12 13:30:00,METAR VLVT 121330Z 00000KT 5000 BR NSC 29/24 Q1005 NOSIG
2026-04-12 13:00:00,METAR VLVT 121300Z 00000KT 5000 BR NSC 30/25 Q1004 NOSIG
2026-04-12 12:30:00,METAR VLVT 121230Z 00000KT 6000 NSC 31/26 Q1004 NOSIG
2026-04-12 12:00:00,METAR VLVT 121200Z 27002KT 6000 NSC 32/27 Q1003 NOSIG
2026-04-12 11:30:00,METAR VLVT 121130Z 00000KT 7000 NSC 32/27 Q1003 NOSIG
2026-04-12 11:00:00,METAR VLVT 121100Z 18002KT 8000 NSC 36/29 Q1003 NOSIG
2026-04-12 10:30:00,METAR VLVT 121030Z 22002KT 8000 NSC 37/31 Q1002 NOSIG
2026-04-12 10:00:00,METAR VLVT 121000Z 22002KT 8000 NSC 38/31 Q1002 NOSIG
2026-04-12 09:30:00,METAR VLVT 120930Z 22004KT 8000 NSC 38/31 Q1002 NOSIG
2026-04-12 09:00:00,METAR VLVT 120900Z 22004KT 8000 NSC 39/32 Q1002 NOSIG
2026-04-12 08:30:00,METAR VLVT 120830Z 18004KT 8000 NSC 39/31 Q1002 NOSIG
2026-04-12 08:00:00,METAR VLVT 120800Z 16004KT 8000 NSC 38/31 Q1003 NOSIG
2026-04-12 07:00:00,METAR VLVT 120700Z 24004KT 7000 NSC 39/32 Q1004 NOSIG
2026-04-12 06:30:00,METAR VLVT 120630Z 27006KT 7000 NSC 38/31 Q1005 NOSIG
2026-04-12 06:00:00,METAR VLVT 120600Z 24006KT 7000 NSC 38/31 Q1005 NOSIG
2026-04-12 05:30:00,METAR VLVT 120530Z 30004KT 7000 NSC 38/31 Q1006 NOSIG
2026-04-12 05:00:00,METAR VLVT 120500Z 32006KT 7000 NSC 37/30 Q1006 NOSIG
2026-04-12 04:30:00,METAR VLVT 120430Z 30006KT 7000 NSC 37/30 Q1007 NOSIG
2026-04-12 04:00:00,METAR VLVT 120400Z 27004KT 7000 NSC 36/30 Q1007 NOSIG
2026-04-12 03:30:00,METAR VLVT 120330Z 27004KT 7000 NSC 35/29 Q1008 NOSIG
2026-04-12 03:00:00,METAR VLVT 120300Z 27002KT 7000 NSC 33/28 Q1008 NOSIG
2026-04-12 02:30:00,METAR VLVT 120230Z 22002KT 7000 NSC 32/27 Q1008 NOSIG
2026-04-12 02:00:00,METAR VLVT 120200Z 18002KT 7000 NSC 31/26 Q1008 NOSIG
2026-04-12 01:30:00,METAR VLVT 120130Z 22002KT 7000 NSC 30/25 Q1008 NOSIG
2026-04-12 00:00:00,METAR VLVT 120000Z 18004KT 5000 BR NSC 25/21 Q1006 NOSIG
2026-04-11 23:00:00,METAR VLVT 112300Z 00000KT 5000 BR NSC 24/20 Q1005 NOSIG
2026-04-11 17:00:00,METAR VLVT 111700Z 27004KT 5000 BR NSC 29/24 Q1006 NOSIG
2026-04-11 16:00:00,METAR VLVT 111600Z 27004KT 5000 BR NSC 29/25 Q1006 NOSIG
2026-04-11 15:30:00,METAR VLVT 111530Z 24002KT 5000 BR NSC 29/24 Q1006 NOSIG
2026-04-11 15:00:00,METAR VLVT 111500Z 27002KT 5000 BR NSC 29/25 Q1006 NOSIG
2026-04-11 14:30:00,METAR VLVT 111430Z 22004KT 5000 BR NSC 29/25 Q1006 NOSIG
2026-04-11 14:00:00,METAR VLVT 111400Z 24002KT 5000 BR NSC 29/25 Q1005 NOSIG
2026-04-11 13:30:00,METAR VLVT 111330Z 27002KT 5000 BR NSC 29/25 Q1005 NOSIG
2026-04-11 13:00:00,METAR VLVT 111300Z 24002KT 5000 BR NSC 31/26 Q1005 NOSIG
2026-04-11 12:30:00,METAR VLVT 111230Z 22002KT 5000 BR NSC 31/26 Q1004 NOSIG
2026-04-11 12:00:00,METAR VLVT 111200Z 22004KT 5000 BR NSC 33/29 Q1004 NOSIG
2026-04-11 11:30:00,METAR VLVT 111130Z 14002KT 5000 BR NSC 34/29 Q1003 NOSIG
2026-04-11 11:00:00,METAR VLVT 111100Z 22002KT 8000 NSC 36/30 Q1003 NOSIG
2026-04-11 10:30:00,METAR VLVT 111030Z 24004KT 8000 NSC 37/31 Q1003 NOSIG
2026-04-11 10:00:00,METAR VLVT 111000Z 27006KT 8000 NSC 38/31 Q1003 NOSIG
2026-04-11 09:00:00,METAR VLVT 110900Z 27008KT 8000 NSC 39/32 Q1003 NOSIG
2026-04-11 08:30:00,METAR VLVT 110830Z 27008KT 8000 NSC 39/32 Q1003 NOSIG
2026-04-11 08:00:00,METAR VLVT 110800Z 24008KT 8000 NSC 39/32 Q1004 NOSIG
2026-04-11 07:30:00,METAR VLVT 110730Z 24008KT 8000 NSC 39/32 Q1004 NOSIG
2026-04-11 07:00:00,METAR VLVT 110700Z 27008KT 8000 NSC 39/32 Q1005 NOSIG
2026-04-11 06:30:00,METAR VLVT 110630Z 27008KT 8000 NSC 39/32 Q1008 NOSIG
2026-04-11 06:00:00,METAR VLVT 110600Z 27008KT 8000 NSC 39/32 Q1006 NOSIG
2026-04-11 05:00:00,METAR VLVT 110500Z 27010KT 8000 FEW020 38/31 Q1008 NOSIG
2026-04-11 04:30:00,METAR VLVT 110430Z 27010KT 8000 FEW020 38/31 Q1008 NOSIG
2026-04-11 04:00:00,METAR VLVT 110400Z 27012KT 8000 FEW020 37/31 Q1009 NOSIG
2026-04-11 03:00:00,METAR VLVT 110300Z 24008KT 8000 FEW020 35/29 Q1009 NOSIG
2026-04-11 02:30:00,METAR VLVT 110230Z 24008KT 8000 NSC 34/28 Q1009 NOSIG
2026-04-11 02:00:00,METAR VLVT 110200Z 24006KT 7000 NSC 32/27 Q1009 NOSIG
2026-04-11 01:30:00,METAR VLVT 110130Z 22002KT 7000 NSC 32/26 Q1009 NOSIG
2026-04-11 00:00:00,METAR VLVT 110000Z 16002KT 6000 NSC 24/20 Q1008 NOSIG
2026-04-10 23:30:00,METAR VLVT 102330Z 00000KT 6000 NSC 23/19 Q1008 NOSIG
2026-04-10 23:00:00,METAR VLVT 102300Z 00000KT 6000 NSC 22/19 Q1008 NOSIG
2026-04-10 17:00:00,METAR VLVT 101700Z 22002KT 5000 BR NSC 26/22 Q1006 NOSIG
2026-04-10 16:30:00,METAR VLVT 101630Z 22002KT 5000 BR NSC 27/23 Q1007 NOSIG
2026-04-10 16:00:00,METAR VLVT 101600Z 22002KT 5000 HZ NSC 28/23 Q1007 NOSIG
2026-04-10 15:30:00,METAR VLVT 101530Z 22002KT 5000 HZ NSC 28/23 Q1007 NOSIG
2026-04-10 15:00:00,METAR VLVT 101500Z 24002KT 5000 HZ NSC 28/24 Q1007 NOSIG
2026-04-10 14:30:00,METAR VLVT 101430Z 24002KT 5000 HZ NSC 28/24 Q1007 NOSIG
2026-04-10 14:00:00,METAR VLVT 101400Z 24002KT 5000 HZ NSC 29/24 Q1006 NOSIG
2026-04-10 13:00:00,METAR VLVT 101300Z 27002KT 5000 HZ NSC 28/24 Q1006 NOSIG
2026-04-10 12:00:00,METAR VLVT 101200Z 24002KT 6000 NSC 32/27 Q1005 NOSIG
2026-04-10 11:30:00,METAR VLVT 101130Z 24002KT 7000 NSC 35/29 Q1005 NOSIG
2026-04-10 11:00:00,METAR VLVT 101100Z 24002KT 8000 NSC 37/31 Q1004 NOSIG
2026-04-10 10:30:00,METAR VLVT 101030Z 24002KT 8000 NSC 38/32 Q1004 NOSIG
2026-04-10 09:30:00,METAR VLVT 100930Z 24004KT 8000 NSC 39/32 Q1004 NOSIG
2026-04-10 09:00:00,METAR VLVT 100900Z 24004KT 8000 NSC 40/33 Q1004 NOSIG
2026-04-10 08:30:00,METAR VLVT 100830Z 24006KT 8000 NSC 40/33 Q1005 NOSIG
2026-04-10 08:00:00,METAR VLVT 100800Z 24008KT 8000 NSC 39/32 Q1005 NOSIG
2026-04-10 07:30:00,METAR VLVT 100730Z 24006KT 8000 NSC 40/33 Q1006 NOSIG
2026-04-10 07:00:00,METAR VLVT 100700Z 32004KT 8000 NSC 40/33 Q1006 NOSIG
2026-04-10 06:00:00,METAR VLVT 100600Z 24008KT 8000 NSC 39/32 Q1008 NOSIG
2026-04-10 05:00:00,METAR VLVT 100500Z 30004KT 8000 NSC 38/31 Q1009 NOSIG
2026-04-10 04:30:00,METAR VLVT 100430Z 04004KT 8000 NSC 37/30 Q1010 NOSIG
2026-04-10 04:00:00,METAR VLVT 100400Z 24002KT 7000 NSC 35/29 Q1010 NOSIG
2026-04-10 03:30:00,METAR VLVT 100330Z 24002KT 7000 NSC 35/29 Q1010 NOSIG
2026-04-10 03:00:00,METAR VLVT 100300Z 18002KT 7000 NSC 34/28 Q1010 NOSIG
2026-04-10 02:30:00,METAR VLVT 100230Z 24002KT 7000 NSC 33/27 Q1010 NOSIG
2026-04-10 02:00:00,METAR VLVT 100200Z 22002KT 7000 NSC 31/26 Q1010 NOSIG
2026-04-10 01:30:00,METAR VLVT 100130Z 22002KT 7000 NSC 30/25 Q1010 NOSIG
2026-04-10 01:00:00,METAR VLVT 100100Z 00000KT 7000 NSC 29/24 Q1010 NOSIG
2026-04-10 00:00:00,METAR VLVT 100000Z 00000KT 5000 BR NSC 22/19 Q1009 NOSIG
2026-04-09 23:30:00,METAR VLVT 092330Z 02002KT 5000 BR SCT050 21/18 Q1008 NOSIG
2026-04-09 16:00:00,METAR VLVT 091600Z COR 22002KT 5000 BR NSC 26/22 Q1008 NOSIG
2026-04-09 15:30:00,METAR VLVT 091530Z 24002KT 5000 BR NSC 27/23 Q1008 NOSIG
2026-04-09 15:00:00,METAR VLVT 091500Z 24002KT 5000 BR NSC 27/23 Q1008 NOSIG
2026-04-09 14:00:00,METAR VLVT 091400Z 22002KT 5000 BR NSC 29/25 Q1007 NOSIG
2026-04-09 13:00:00,METAR VLVT 091300Z 24002KT 5000 BR NSC 29/25 Q1006 NOSIG
2026-04-09 12:30:00,METAR VLVT 091230Z 27002KT 5000 BR NSC 30/25 Q1005 NOSIG
2026-04-09 12:00:00,METAR VLVT 091200Z 24002KT 5000 NSC 32/27 Q1005 NOSIG
2026-04-09 11:30:00,METAR VLVT 091130Z 24002KT 7000 NSC 35/29 Q1005 NOSIG
2026-04-09 11:00:00,METAR VLVT 091100Z 24002KT 8000 NSC 37/30 Q1005 NOSIG
2026-04-09 10:30:00,METAR VLVT 091030Z 27004KT 8000 NSC 38/32 Q1005 NOSIG
2026-04-09 10:00:00,METAR VLVT 091000Z 27008KT 8000 NSC 38/32 Q1005 NOSIG
2026-04-09 09:30:00,METAR VLVT 090930Z 27006KT 8000 NSC 39/32 Q1005 NOSIG
2026-04-09 09:00:00,METAR VLVT 090900Z 27008KT 8000 NSC 39/32 Q1005 NOSIG
2026-04-09 08:00:00,METAR VLVT 090800Z 32008KT 8000 NSC 40/32 Q1006 NOSIG
2026-04-09 07:00:00,METAR VLVT 090700Z 18004KT 8000 NSC 39/32 Q1008 NOSIG
2026-04-09 06:00:00,METAR VLVT 090600Z 18004KT 8000 NSC 39/32 Q1008 NOSIG
2026-04-09 05:00:00,METAR VLVT 090500Z 02004KT 8000 NSC 37/31 Q1009 NOSIG
2026-04-09 04:00:00,METAR VLVT 090400Z 32004KT 8000 NSC 35/30 Q1010 NOSIG
2026-04-09 03:30:00,METAR VLVT 090330Z 22002KT 5000 HZ NSC 35/29 Q1010 NOSIG
2026-04-09 03:00:00,METAR VLVT 090300Z 22002KT 5000 BR NSC 33/28 Q1010 NOSIG
2026-04-09 02:30:00,METAR VLVT 090230Z 00000KT 5000 BR NSC 33/28 Q1010 NOSIG
2026-04-09 02:00:00,METAR VLVT 090200Z 00000KT 5000 BR NSC 32/27 Q1010 NOSIG
2026-04-09 01:30:00,METAR VLVT 090130Z 00000KT 5000 BR NSC 30/25 Q1010 NOSIG
2026-04-09 01:00:00,METAR VLVT 090100Z 22002KT 5000 BR NSC 27/22 Q1010 NOSIG
2026-04-09 00:00:00,METAR VLVT 090000Z 00000KT 5000 BR NSC 22/19 Q1009 NOSIG
2026-04-08 23:30:00,METAR VLVT 082330Z 00000KT 5000 BR NSC 21/17 Q1008 NOSIG
2026-04-08 23:00:00,METAR VLVT 082300Z 22002KT 5000 BR NSC 21/18 Q1008 NOSIG
2026-04-08 17:00:00,METAR VLVT 081700Z 00000KT 6000 FEW050 26/22 Q1007 NOSIG
2026-04-08 16:30:00,METAR VLVT 081630Z 22002KT 6000 NSC 28/23 Q1007 NOSIG
2026-04-08 16:00:00,METAR VLVT 081600Z 24004KT 6000 NSC 28/24 Q1007 NOSIG
2026-04-08 15:30:00,METAR VLVT 081530Z 24002KT 6000 NSC 28/24 Q1007 NOSIG
2026-04-08 15:00:00,METAR VLVT 081500Z 24002KT 6000 NSC 29/24 Q1007 NOSIG
2026-04-08 14:30:00,METAR VLVT 081430Z 24002KT 6000 NSC 30/26 Q1006 NOSIG
2026-04-08 14:00:00,METAR VLVT 081400Z 24004KT 6000 NSC 30/25 Q1006 NOSIG
2026-04-08 13:30:00,METAR VLVT 081330Z 14002KT 6000 NSC 31/26 Q1006 NOSIG
2026-04-08 13:00:00,METAR VLVT 081300Z 14002KT 6000 NSC 31/26 Q1005 NOSIG
2026-04-08 12:30:00,METAR VLVT 081230Z 14002KT 6000 FEW020 31/26 Q1005 NOSIG
2026-04-08 12:00:00,METAR VLVT 081200Z 16002KT 6000 FEW020 34/28 Q1005 NOSIG
2026-04-08 11:00:00,METAR VLVT 081100Z 14004KT 7000 FEW020 36/30 Q1004 NOSIG
2026-04-08 10:30:00,METAR VLVT 081030Z 14004KT 7000 FEW020 37/30 Q1004 NOSIG
2026-04-08 10:00:00,METAR VLVT 081000Z 16004KT 7000 FEW020 38/31 Q1004 NOSIG
2026-04-08 09:30:00,METAR VLVT 080930Z 24002KT 7000 FEW020 39/32 Q1004 NOSIG
2026-04-08 09:00:00,METAR VLVT 080900Z 24004KT 7000 FEW020 39/32 Q1004 NOSIG
2026-04-08 08:30:00,METAR VLVT 080830Z 24004KT 7000 FEW020 39/32 Q1005 NOSIG
2026-04-08 08:00:00,METAR VLVT 080800Z 22004KT 7000 FEW020 39/32 Q1005 NOSIG
2026-04-08 07:30:00,METAR VLVT 080730Z 22008KT 7000 FEW020 39/32 Q1006 NOSIG
2026-04-08 07:00:00,METAR VLVT 080700Z 18004KT 7000 FEW020 38/31 Q1006 NOSIG
2026-04-08 06:30:00,METAR VLVT 080630Z 24004KT 7000 FEW020 39/32 Q1007 NOSIG
2026-04-08 06:00:00,METAR VLVT 080600Z 18004KT 7000 NSC 38/31 Q1007 NOSIG
2026-04-08 05:30:00,METAR VLVT 080530Z 24004KT 7000 NSC 38/31 Q1008 NOSIG
2026-04-08 05:00:00,METAR VLVT 080500Z 18004KT 7000 NSC 37/30 Q1009 NOSIG
2026-04-08 04:30:00,METAR VLVT 080430Z 27002KT 7000 NSC 36/30 Q1009 NOSIG
2026-04-08 04:00:00,METAR VLVT 080400Z 24002KT 7000 NSC 36/29 Q1009 NOSIG
2026-04-08 03:30:00,METAR VLVT 080330Z 18004KT 7000 NSC 35/29 Q1010 NOSIG
2026-04-08 03:00:00,METAR VLVT 080300Z 24004KT 6000 NSC 34/28 Q1010 NOSIG
2026-04-08 02:30:00,METAR VLVT 080230Z 24002KT 6000 NSC 33/28 Q1009 NOSIG
2026-04-08 02:00:00,METAR VLVT 080200Z 24002KT 6000 NSC 31/26 Q1009 NOSIG
2026-04-08 01:30:00,METAR VLVT 080130Z 14002KT 5000 BR NSC 30/25 Q1009 NOSIG
2026-04-08 01:00:00,METAR VLVT 080100Z 18002KT 5000 BR NSC 28/24 Q1009 NOSIG
2026-04-08 00:00:00,METAR VLVT 080000Z 22002KT 6000 NSC 25/21 Q1008 NOSIG
2026-04-07 23:30:00,METAR VLVT 072330Z 22002KT 5000 BR NSC 24/20 Q1007 NOSIG
2026-04-07 23:00:00,METAR VLVT 072300Z 32002KT 5000 BR NSC 24/20 Q1007 NOSIG
2026-04-07 16:00:00,METAR VLVT 071600Z 00000KT 5000 HZ NSC 27/23 Q1006 NOSIG
2026-04-07 15:30:00,METAR VLVT 071530Z 00000KT 5000 HZ NSC 28/24 Q1006 NOSIG
2026-04-07 15:00:00,METAR VLVT 071500Z 00000KT 5000 HZ NSC 28/24 Q1006 NOSIG
2026-04-07 14:00:00,METAR VLVT 071400Z 24002KT 5000 HZ NSC 28/24 Q1006 NOSIG
2026-04-07 13:30:00,METAR VLVT 071330Z 24002KT 5000 HZ NSC 30/25 Q1005 NOSIG
2026-04-07 13:00:00,METAR VLVT 071300Z 00000KT 5000 HZ NSC 30/25 Q1005 NOSIG
2026-04-07 12:30:00,METAR VLVT 071230Z 14002KT 6000 NSC 32/27 Q1004 NOSIG
2026-04-07 12:00:00,METAR VLVT 071200Z 16004KT 6000 NSC 33/27 Q1004 NOSIG
2026-04-07 11:30:00,METAR VLVT 071130Z 16004KT 7000 NSC 33/28 Q1004 NOSIG
2026-04-07 11:00:00,METAR VLVT 071100Z 16004KT 8000 NSC 35/29 Q1004 NOSIG
2026-04-07 10:30:00,METAR VLVT 071030Z 16002KT 8000 NSC 36/30 Q1004 NOSIG
2026-04-07 10:00:00,METAR VLVT 071000Z 18004KT 8000 NSC 37/31 Q1004 NOSIG
2026-04-07 09:00:00,METAR VLVT 070900Z 18008KT 8000 NSC 38/31 Q1004 NOSIG
2026-04-07 08:00:00,METAR VLVT 070800Z 18006KT 8000 NSC 38/31 Q1005 NOSIG
2026-04-07 07:30:00,METAR VLVT 070730Z 20006KT 8000 NSC 38/31 Q1005 NOSIG
2026-04-07 07:00:00,METAR VLVT 070700Z 22004KT 8000 NSC 38/31 Q1006 NOSIG
2026-04-07 04:00:00,METAR VLVT 070400Z 22004KT 7000 NSC 35/29 Q1009 NOSIG
2026-04-07 03:30:00,METAR VLVT 070330Z 22004KT 7000 NSC 34/28 Q1009 NOSIG
2026-04-07 02:00:00,METAR VLVT 070200Z 36002KT 6000 NSC 31/26 Q1009 NOSIG
2026-04-07 01:30:00,METAR VLVT 070130Z 34002KT 5000 HZ NSC 30/25 Q1009 NOSIG
2026-04-07 01:00:00,METAR VLVT 070100Z 06002KT 5000 HZ NSC 28/23 Q1009 NOSIG
2026-04-07 00:00:00,METAR VLVT 070000Z 27002KT 5000 BR SCT100 24/20 Q1008 NOSIG
2026-04-06 23:00:00,METAR VLVT 062300Z 34002KT 4000 BR FEW050 24/20 Q1007 NOSIG
2026-04-06 17:00:00,METAR VLVT 061700Z 00000KT 5000 BR NSC 27/23 Q1006 NOSIG
2026-04-06 16:00:00,METAR VLVT 061600Z 02002KT 5000 BR NSC 27/23 Q1006 NOSIG
2026-04-06 15:30:00,METAR VLVT 061530Z 36002KT 5000 BR NSC 27/22 Q1006 NOSIG
2026-04-06 15:00:00,METAR VLVT 061500Z 16002KT 5000 BR NSC 29/24 Q1006 NOSIG
2026-04-06 14:30:00,METAR VLVT 061430Z 16002KT 5000 BR NSC 29/25 Q1005 NOSIG
2026-04-06 14:00:00,METAR VLVT 061400Z 14002KT 5000 BR NSC 29/24 Q1005 NOSIG
2026-04-06 13:30:00,METAR VLVT 061330Z 22002KT 5000 BR NSC 29/24 Q1005 NOSIG
2026-04-06 13:00:00,METAR VLVT 061300Z 14004KT 5000 BR NSC 30/25 Q1005 NOSIG
2026-04-06 12:00:00,METAR VLVT 061200Z 00000KT 5000 BR NSC 32/27 Q1004 NOSIG
2026-04-06 11:30:00,METAR VLVT 061130Z 00000KT 5000 BR NSC 32/27 Q1004 NOSIG
2026-04-06 11:00:00,METAR VLVT 061100Z 12002KT 8000 NSC 35/30 Q1004 NOSIG
2026-04-06 10:30:00,METAR VLVT 061030Z 24002KT 8000 NSC 36/30 Q1003 NOSIG
2026-04-06 10:00:00,METAR VLVT 061000Z 16002KT 8000 FEW020 37/31 Q1003 NOSIG
2026-04-06 09:00:00,METAR VLVT 060900Z 18004KT 9999 FEW020 38/31 Q1004 NOSIG
2026-04-06 08:30:00,METAR VLVT 060830Z 18004KT 9999 FEW020 38/31 Q1004 NOSIG
2026-04-06 08:00:00,METAR VLVT 060800Z 18004KT 9999 FEW020 38/31 Q1005 NOSIG
2026-04-06 07:30:00,METAR VLVT 060730Z 18004KT CAVOK 38/31 Q1005 NOSIG
2026-04-06 07:00:00,METAR VLVT 060700Z 22004KT CAVOK 38/31 Q1006 NOSIG
2026-04-06 06:30:00,METAR VLVT 060630Z 22004KT CAVOK 37/31 Q1006 NOSIG
2026-04-06 06:00:00,METAR VLVT 060600Z 22004KT CAVOK 37/31 Q1007 NOSIG
2026-04-06 05:30:00,METAR VLVT 060530Z 18004KT CAVOK 37/30 Q1007 NOSIG
2026-04-06 05:00:00,METAR VLVT 060500Z 22004KT CAVOK 36/30 Q1008 NOSIG
2026-04-06 04:30:00,METAR VLVT 060430Z 32004KT 8000 NSC 36/29 Q1008 NOSIG
2026-04-06 04:00:00,METAR VLVT 060400Z 24004KT 8000 NSC 35/29 Q1009 NOSIG
2026-04-06 03:30:00,METAR VLVT 060330Z 32002KT 8000 NSC 34/28 Q1009 NOSIG
2026-04-06 03:00:00,METAR VLVT 060300Z 36004KT 8000 NSC 33/27 Q1009 NOSIG
2026-04-06 02:00:00,METAR VLVT 060200Z 00000KT 8000 NSC 31/26 Q1009 NOSIG
2026-04-06 01:30:00,METAR VLVT 060130Z 32002KT 8000 NSC 29/24 Q1009 NOSIG
2026-04-06 00:00:00,METAR VLVT 060000Z 12002KT 5000 HZ NSC 24/20 Q1007 NOSIG
2026-04-05 23:30:00,METAR VLVT 052330Z 34002KT 5000 HZ NSC 24/20 Q1007 NOSIG
2026-04-05 23:00:00,METAR VLVT 052300Z 18002KT 5000 BR FEW050 24/20 Q1006 NOSIG
2026-04-05 17:00:00,METAR VLVT 051700Z 00000KT 5000 BR NSC 26/22 Q1005 NOSIG
2026-04-05 16:30:00,METAR VLVT 051630Z 00000KT 5000 BR NSC 27/23 Q1005 NOSIG
2026-04-05 16:00:00,METAR VLVT 051600Z 34002KT 5000 BR NSC 28/24 Q1005 NOSIG
2026-04-05 15:30:00,METAR VLVT 051530Z 34004KT 5000 BR NSC 28/24 Q1005 NOSIG
2026-04-05 15:00:00,METAR VLVT 051500Z 36004KT 5000 BR NSC 28/24 Q1005 NOSIG
2026-04-05 13:00:00,METAR VLVT 051300Z 00000KT 5000 BR NSC 30/25 Q1003 NOSIG
2026-04-05 12:30:00,METAR VLVT 051230Z 00000KT 6000 NSC 31/26 Q1003 NOSIG
2026-04-05 12:00:00,METAR VLVT 051200Z 14002KT 6000 NSC 32/27 Q1003 NOSIG
2026-04-05 11:00:00,METAR VLVT 051100Z 16004KT 8000 NSC 34/28 Q1002 NOSIG
2026-04-05 10:00:00,METAR VLVT 051000Z 16004KT 8000 NSC 36/30 Q1002 NOSIG
2026-04-05 09:00:00,METAR VLVT 050900Z 18004KT 8000 NSC 37/31 Q1002 NOSIG
2026-04-05 08:30:00,METAR VLVT 050830Z 18004KT 8000 NSC 37/31 Q1002 NOSIG
2026-04-05 08:00:00,METAR VLVT 050800Z 18006KT 8000 NSC 37/30 Q1003 NOSIG
2026-04-05 07:00:00,METAR VLVT 050700Z 16008KT 7000 NSC 36/30 Q1004 NOSIG
2026-04-05 06:00:00,METAR VLVT 050600Z 18006KT 7000 NSC 36/29 Q1005 NOSIG
2026-04-05 05:30:00,METAR VLVT 050530Z 22004KT 6000 NSC 36/29 Q1006 NOSIG
2026-04-05 05:00:00,METAR VLVT 050500Z 04002KT 6000 NSC 36/30 Q1006 NOSIG
2026-04-05 04:30:00,METAR VLVT 050430Z 27004KT 6000 NSC 35/29 Q1007 NOSIG
2026-04-05 04:00:00,METAR VLVT 050400Z 16004KT 6000 NSC 35/29 Q1007 NOSIG
2026-04-05 03:30:00,METAR VLVT 050330Z 04002KT 6000 NSC 34/28 Q1007 NOSIG
2026-04-05 03:00:00,METAR VLVT 050300Z 04002KT 6000 NSC 32/27 Q1008 NOSIG
2026-04-05 02:00:00,METAR VLVT 050200Z 36002KT 6000 NSC 30/25 Q1008 NOSIG
2026-04-05 01:30:00,METAR VLVT 050130Z 34002KT 6000 NSC 28/24 Q1008 NOSIG
2026-04-05 00:00:00,METAR VLVT 050000Z 24002KT 5000 BR NSC 24/20 Q1006 NOSIG
2026-04-04 23:30:00,METAR VLVT 042330Z 14002KT 5000 BR FEW050 23/20 Q1005 NOSIG
2026-04-04 23:00:00,METAR VLVT 042300Z 12002KT 5000 BR FEW050 23/20 Q1005 NOSIG
2026-04-04 17:00:00,METAR VLVT 041700Z 36002KT 6000 FEW020 28/23 Q1005 NOSIG
2026-04-04 16:30:00,METAR VLVT 041630Z 02002KT 6000 FEW020 29/24 Q1005 NOSIG
2026-04-04 16:00:00,METAR VLVT 041600Z 04002KT 6000 NSC 28/24 Q1005 NOSIG
2026-04-04 15:30:00,METAR VLVT 041530Z 00000KT 6000 FEW020 29/24 Q1005 NOSIG
2026-04-04 15:00:00,METAR VLVT 041500Z 02002KT 6000 FEW020 30/25 Q1005 NOSIG
2026-04-04 14:30:00,METAR VLVT 041430Z 34002KT 6000 FEW020 30/25 Q1005 NOSIG
2026-04-04 14:00:00,METAR VLVT 041400Z 34004KT 6000 NSC 30/25 Q1004 NOSIG
2026-04-04 13:30:00,METAR VLVT 041330Z 34004KT 6000 NSC 30/26 Q1004 NOSIG
2026-04-04 13:00:00,METAR VLVT 041300Z 34002KT 6000 NSC 31/26 Q1004 NOSIG
2026-04-04 12:30:00,METAR VLVT 041230Z 34004KT 6000 FEW020 32/27 Q1003 NOSIG
2026-04-04 12:00:00,METAR VLVT 041200Z 36002KT 6000 FEW020 31/26 Q1003 NOSIG
2026-04-04 11:30:00,METAR VLVT 041130Z 18002KT 6000 FEW050 34/28 Q1002 NOSIG
2026-04-04 11:00:00,METAR VLVT 041100Z 16002KT 7000 FEW050 35/29 Q1002 NOSIG
2026-04-04 10:30:00,METAR VLVT 041030Z 18004KT 7000 NSC 36/30 Q1002 NOSIG
2026-04-04 10:00:00,METAR VLVT 041000Z 20004KT 7000 NSC 37/30 Q1002 NOSIG
2026-04-04 09:00:00,METAR VLVT 040900Z 18006KT 7000 NSC 37/31 Q1002 NOSIG
2026-04-04 08:30:00,METAR VLVT 040830Z 18008KT 7000 NSC 37/31 Q1002 NOSIG
2026-04-04 08:00:00,METAR VLVT 040800Z 18006KT 7000 NSC 37/31 Q1003 NOSIG
2026-04-04 07:30:00,METAR VLVT 040730Z 16006KT 7000 NSC 37/30 Q1003 NOSIG
2026-04-04 07:00:00,METAR VLVT 040700Z 14006KT 7000 NSC 37/30 Q1004 NOSIG
2026-04-04 06:30:00,METAR VLVT 040630Z 18006KT 7000 NSC 36/30 Q1004 NOSIG
2026-04-04 06:00:00,METAR VLVT 040600Z 18004KT 7000 NSC 36/29 Q1005 NOSIG
2026-04-04 05:30:00,METAR VLVT 040530Z 18006KT 6000 NSC 36/29 Q1006 NOSIG
2026-04-04 05:00:00,METAR VLVT 040500Z 24004KT 6000 NSC 35/29 Q1007 NOSIG
2026-04-04 04:30:00,METAR VLVT 040430Z 22006KT 6000 NSC 35/29 Q1007 NOSIG
2026-04-04 04:00:00,METAR VLVT 040400Z 12002KT 6000 NSC 35/29 Q1008 NOSIG
2026-04-04 03:30:00,METAR VLVT 040330Z 00000KT 5000 FU NSC 34/28 Q1008 NOSIG
2026-04-04 03:00:00,METAR VLVT 040300Z 06002KT 5000 FU NSC 33/27 Q1008 NOSIG
2026-04-04 02:30:00,METAR VLVT 040230Z 16002KT 5000 FU NSC 32/27 Q1008 NOSIG
2026-04-04 02:00:00,METAR VLVT 040200Z 06002KT 5000 BR NSC 30/26 Q1008 NOSIG
2026-04-04 01:30:00,METAR VLVT 040130Z 00000KT 5000 BR NSC 29/25 Q1008 NOSIG
2026-04-04 01:00:00,METAR VLVT 040100Z 00000KT 5000 BR NSC 27/23 Q1008 NOSIG
2026-04-04 00:00:00,METAR VLVT 040000Z 22002KT 5000 BR BKN050 24/21 Q1007 NOSIG
2026-04-03 23:00:00,METAR VLVT 032300Z 24002KT 5000 BR BKN050 24/20 Q1006 NOSIG
2026-04-03 17:30:00,METAR VLVT 031730Z 00000KT 5000 BR NSC 27/22 Q1006 NOSIG
2026-04-03 17:00:00,METAR VLVT 031700Z 22002KT 5000 BR NSC 27/23 Q1006 NOSIG
2026-04-03 16:30:00,METAR VLVT 031630Z 06002KT 5000 BR NSC 28/22 Q1006 NOSIG
2026-04-03 16:00:00,METAR VLVT 031600Z 06002KT 5000 BR NSC 29/24 Q1006 NOSIG
2026-04-03 14:30:00,METAR VLVT 031430Z 24004KT 5000 BR NSC 29/24 Q1006 NOSIG
2026-04-03 14:00:00,METAR VLVT 031400Z 22002KT 5000 BR NSC 29/25 Q1005 NOSIG
2026-04-03 13:00:00,METAR VLVT 031300Z 00000KT 5000 BR NSC 30/25 Q1004 NOSIG
2026-04-03 12:30:00,METAR VLVT 031230Z 16002KT 5000 BR NSC 30/25 Q1004 NOSIG
2026-04-03 12:00:00,METAR VLVT 031200Z 16004KT 5000 BR NSC 33/27 Q1004 NOSIG
2026-04-03 11:30:00,METAR VLVT 031130Z 16004KT 8000 NSC 33/28 Q1003 NOSIG
2026-04-03 11:00:00,METAR VLVT 031100Z 16004KT 8000 NSC 34/29 Q1003 NOSIG
2026-04-03 10:30:00,METAR VLVT 031030Z 18002KT 8000 NSC 36/30 Q1003 NOSIG
2026-04-03 10:00:00,METAR VLVT 031000Z 24002KT 8000 NSC 36/30 Q1003 NOSIG
2026-04-03 09:00:00,METAR VLVT 030900Z 22002KT CAVOK 38/31 Q1003 NOSIG
2026-04-03 08:30:00,METAR VLVT 030830Z 24002KT CAVOK 38/31 Q1003 NOSIG
2026-04-03 08:00:00,METAR VLVT 030800Z 22004KT CAVOK 38/30 Q1004 NOSIG
2026-04-03 07:30:00,METAR VLVT 030730Z 24004KT CAVOK 38/30 Q1004 NOSIG
2026-04-03 07:00:00,METAR VLVT 030700Z 24006KT CAVOK 37/30 Q1005 NOSIG
2026-04-03 06:30:00,METAR VLVT 030630Z 24006KT CAVOK 37/30 Q1005 NOSIG
2026-04-03 06:00:00,METAR VLVT 030600Z 22004KT CAVOK 37/30 Q1006 NOSIG
2026-04-03 05:30:00,METAR VLVT 030530Z 24004KT CAVOK 36/30 Q1007 NOSIG
2026-04-03 05:00:00,METAR VLVT 030500Z 24006KT CAVOK 36/30 Q1008 NOSIG
2026-04-03 04:00:00,METAR VLVT 030400Z 22004KT CAVOK 33/28 Q1010 NOSIG
2026-04-03 03:30:00,METAR VLVT 030330Z 22004KT 8000 NSC 33/28 Q1010 NOSIG
2026-04-03 03:00:00,METAR VLVT 030300Z 22002KT 8000 NSC 33/28 Q1010 NOSIG
2026-04-03 01:30:00,METAR VLVT 030130Z 00000KT 8000 NSC 29/25 Q1010 NOSIG
2026-04-03 01:00:00,METAR VLVT 030100Z 00000KT 8000 NSC 27/22 Q1010 NOSIG
2026-04-03 00:00:00,METAR VLVT 030000Z 00000KT 5000 BR NSC 24/20 Q1009 NOSIG
2026-04-02 23:00:00,METAR VLVT 022300Z 00000KT 5000 BR NSC 23/19 Q1007 NOSIG
2026-04-02 16:30:00,METAR VLVT 021630Z 24002KT 5000 BR NSC 28/23 Q1008 NOSIG
2026-04-02 16:00:00,METAR VLVT 021600Z 24002KT 5000 BR NSC 28/23 Q1008 NOSIG
2026-04-02 15:30:00,METAR VLVT 021530Z 20002KT 5000 BR NSC 30/24 Q1008 NOSIG
2026-04-02 15:00:00,METAR VLVT 021500Z 20002KT 5000 BR NSC 29/24 Q1008 NOSIG
2026-04-02 14:00:00,METAR VLVT 021400Z 18002KT 5000 BR NSC 29/24 Q1007 NOSIG
2026-04-02 13:30:00,METAR VLVT 021330Z 18002KT 5000 BR NSC 30/25 Q1007 NOSIG
2026-04-02 13:00:00,METAR VLVT 021300Z 18002KT 5000 BR NSC 30/25 Q1006 NOSIG
2026-04-02 12:30:00,METAR VLVT 021230Z 18002KT 6000 NSC 31/26 Q1006 NOSIG
2026-04-02 12:00:00,METAR VLVT 021200Z 18002KT 6000 NSC 32/27 Q1005 NOSIG
2026-04-02 11:00:00,METAR VLVT 021100Z 18004KT 8000 NSC 35/29 Q1005 NOSIG
2026-04-02 10:30:00,METAR VLVT 021030Z 16006KT 8000 NSC 35/29 Q1005 NOSIG
2026-04-02 10:00:00,METAR VLVT 021000Z 20006KT 8000 NSC 37/30 Q1004 NOSIG
2026-04-02 09:30:00,METAR VLVT 020930Z 18006KT 8000 NSC 37/31 Q1004 NOSIG
2026-04-02 09:00:00,METAR VLVT 020900Z 20004KT 8000 NSC 38/31 Q1005 NOSIG
2026-04-02 08:00:00,METAR VLVT 020800Z 22006KT 8000 FEW020 38/31 Q1006 NOSIG
2026-04-02 07:00:00,METAR VLVT 020700Z 18004KT 8000 NSC 37/30 Q1007 NOSIG
2026-04-02 06:30:00,METAR VLVT 020630Z 22004KT 8000 NSC 37/30 Q1007 NOSIG
2026-04-02 06:00:00,METAR VLVT 020600Z 22004KT 8000 NSC 37/30 Q1008 NOSIG
2026-04-02 05:30:00,METAR VLVT 020530Z 24004KT 8000 NSC 37/30 Q1008 NOSIG
2026-04-02 05:00:00,METAR VLVT 020500Z 24004KT 8000 NSC 36/30 Q1009 NOSIG
2026-04-02 04:30:00,METAR VLVT 020430Z 14002KT 8000 NSC 36/29 Q1010 NOSIG
2026-04-02 04:00:00,METAR VLVT 020400Z 09002KT 8000 NSC 35/29 Q1010 NOSIG
2026-04-02 03:00:00,METAR VLVT 020300Z 06002KT 7000 NSC 33/27 Q1011 NOSIG
2026-04-02 02:30:00,METAR VLVT 020230Z 09004KT 6000 FEW050 31/26 Q1011 NOSIG
2026-04-02 02:00:00,METAR VLVT 020200Z 06002KT 6000 FEW050 30/25 Q1011 NOSIG
2026-04-02 01:30:00,METAR VLVT 020130Z 02004KT 6000 FEW050 28/24 Q1011 NOSIG
2026-04-02 01:00:00,METAR VLVT 020100Z 02002KT 6000 FEW050 27/23 Q1010 NOSIG
2026-04-02 00:00:00,METAR VLVT 020000Z 00000KT 5000 BR FEW050 24/20 Q1009 NOSIG
2026-04-01 23:30:00,METAR VLVT 012330Z 06002KT 5000 BR FEW050 24/20 Q1009 NOSIG
2026-04-01 23:00:00,METAR VLVT 012300Z 04002KT 5000 BR FEW050 24/20 Q1008 NOSIG
2026-04-01 17:00:00,METAR VLVT 011700Z 30002KT 5000 BR FEW050 26/22 Q1009 NOSIG
2026-04-01 16:30:00,METAR VLVT 011630Z 06002KT 5000 BR FEW050 26/22 Q1009 NOSIG
2026-04-01 16:00:00,METAR VLVT 011600Z 00000KT 6000 NSC 27/23 Q1009 NOSIG
2026-04-01 15:30:00,METAR VLVT 011530Z 00000KT 6000 NSC 27/23 Q1008 NOSIG
2026-04-01 15:00:00,METAR VLVT 011500Z 00000KT 6000 NSC 27/23 Q1008 NOSIG
2026-04-01 14:00:00,METAR VLVT 011400Z 00000KT 6000 NSC 28/24 Q1007 NOSIG
2026-04-01 13:30:00,METAR VLVT 011330Z 00000KT 6000 NSC 29/25 Q1007 NOSIG
2026-04-01 13:00:00,METAR VLVT 011300Z 00000KT 6000 NSC 29/24 Q1006 NOSIG
2026-04-01 12:30:00,METAR VLVT 011230Z 00000KT 6000 NSC 30/25 Q1006 NOSIG
2026-04-01 12:00:00,METAR VLVT 011200Z 16002KT 6000 NSC 31/26 Q1005 NOSIG
2026-04-01 11:30:00,METAR VLVT 011130Z 16002KT 6000 NSC 33/27 Q1005 NOSIG
2026-04-01 11:00:00,METAR VLVT 011100Z 16002KT 7000 NSC 35/29 Q1005 NOSIG
2026-04-01 10:30:00,METAR VLVT 011030Z 16004KT 7000 NSC 35/29 Q1005 NOSIG
2026-04-01 10:00:00,METAR VLVT 011000Z 16004KT 7000 NSC 36/30 Q1005 NOSIG
2026-04-01 09:00:00,METAR VLVT 010900Z 18004KT 7000 FEW020 37/31 Q1005 NOSIG
2026-04-01 08:30:00,METAR VLVT 010830Z 16004KT 7000 FEW020 38/31 Q1005 NOSIG
2026-04-01 08:00:00,METAR VLVT 010800Z 16004KT 7000 FEW020 38/31 Q1006 NOSIG
2026-04-01 07:30:00,METAR VLVT 010730Z 16004KT 7000 FEW020 37/31 Q1006 NOSIG
2026-04-01 07:00:00,METAR VLVT 010700Z 14002KT 7000 FEW020 38/31 Q1007 NOSIG
2026-04-01 06:30:00,METAR VLVT 010630Z 24002KT 7000 NSC 37/31 Q1007 NOSIG
2026-04-01 06:00:00,METAR VLVT 010600Z 16002KT 7000 NSC 37/30 Q1008 NOSIG
2026-04-01 05:30:00,METAR VLVT 010530Z 00000KT 7000 NSC 36/30 Q1009 NOSIG
2026-04-01 05:00:00,METAR VLVT 010500Z 02002KT 7000 NSC 36/29 Q1009 NOSIG
2026-04-01 04:30:00,METAR VLVT 010430Z 04002KT 7000 NSC 35/29 Q1010 NOSIG
2026-04-01 04:00:00,METAR VLVT 010400Z 04002KT 7000 NSC 34/28 Q1010 NOSIG
2026-04-01 03:30:00,METAR VLVT 010330Z 04002KT 6000 NSC 33/28 Q1011 NOSIG
2026-04-01 03:00:00,METAR VLVT 010300Z 36002KT 6000 NSC 32/27 Q1011 NOSIG
2026-04-01 02:30:00,METAR VLVT 010230Z 02004KT 6000 NSC 31/26 Q1011 NOSIG
2026-04-01 02:00:00,METAR VLVT 010200Z 02002KT 5000 BR NSC 29/25 Q1011 NOSIG
2026-04-01 01:30:00,METAR VLVT 010130Z 02002KT 5000 BR NSC 28/24 Q1011 NOSIG
2026-04-01 01:00:00,METAR VLVT 010100Z 00000KT 5000 BR NSC 27/22 Q1010 NOSIG
2026-04-01 00:00:00,METAR VLVT 010000Z 00000KT 5000 BR SCT050 23/20 Q1009 NOSIG
2026-03-31 23:00:00,METAR VLVT 312300Z 00000KT 5000 BR SCT050 23/19 Q1008 NOSIG
2026-03-31 16:00:00,METAR VLVT 311600Z 00000KT 5000 BR FEW050 27/23 Q1008 NOSIG
2026-03-31 15:30:00,METAR VLVT 311530Z 02002KT 5000 BR FEW050 27/23 Q1008 NOSIG
2026-03-31 15:00:00,METAR VLVT 311500Z 24002KT 5000 BR FEW050 27/23 Q1007 NOSIG
2026-03-31 14:00:00,METAR VLVT 311400Z 00000KT 5000 BR FEW050 28/24 Q1007 NOSIG
2026-03-31 13:30:00,METAR VLVT 311330Z 27002KT 5000 BR FEW050 29/24 Q1006 NOSIG
2026-03-31 13:00:00,METAR VLVT 311300Z 00000KT 5000 BR FEW050 29/24 Q1006 NOSIG
2026-03-31 12:30:00,METAR VLVT 311230Z 16002KT 5000 BR NSC 30/25 Q1006 NOSIG
2026-03-31 12:00:00,METAR VLVT 311200Z 16002KT 5000 BR SCT050 31/26 Q1005 NOSIG
2026-03-31 11:30:00,METAR VLVT 311130Z 14002KT 5000 BR NSC 32/26 Q1005 NOSIG
2026-03-31 11:00:00,METAR VLVT 311100Z 12002KT 8000 NSC 35/29 Q1005 NOSIG
2026-03-31 10:30:00,METAR VLVT 311030Z 14002KT CAVOK 35/29 Q1005 NOSIG
2026-03-31 10:00:00,METAR VLVT 311000Z 16002KT CAVOK 36/29 Q1005 NOSIG
2026-03-31 09:30:00,METAR VLVT 310930Z 18002KT CAVOK 36/30 Q1005 NOSIG
2026-03-31 09:00:00,METAR VLVT 310900Z 18004KT CAVOK 36/30 Q1005 NOSIG
2026-03-31 08:30:00,METAR VLVT 310830Z 16004KT CAVOK 36/30 Q1005 NOSIG
2026-03-31 08:00:00,METAR VLVT 310800Z 16006KT CAVOK 36/30 Q1006 NOSIG
2026-03-31 07:30:00,METAR VLVT 310730Z 18006KT CAVOK 36/30 Q1006 NOSIG
2026-03-31 07:00:00,METAR VLVT 310700Z 18006KT CAVOK 36/30 Q1007 NOSIG
2026-03-31 06:30:00,METAR VLVT 310630Z 18004KT CAVOK 35/29 Q1007 NOSIG
2026-03-31 06:00:00,METAR VLVT 310600Z 16004KT CAVOK 35/29 Q1008 NOSIG
2026-03-31 05:30:00,METAR VLVT 310530Z 18006KT CAVOK 35/29 Q1009 NOSIG
2026-03-31 05:00:00,METAR VLVT 310500Z 18002KT CAVOK 34/28 Q1010 NOSIG
2026-03-31 04:30:00,METAR VLVT 310430Z 22004KT CAVOK 34/28 Q1010 NOSIG
2026-03-31 04:00:00,METAR VLVT 310400Z 18002KT CAVOK 34/28 Q1010 NOSIG
2026-03-31 03:30:00,METAR VLVT 310330Z 24002KT 8000 NSC 33/27 Q1011 NOSIG
2026-03-31 03:00:00,METAR VLVT 310300Z 22002KT 8000 NSC 32/26 Q1011 NOSIG
2026-03-31 02:30:00,METAR VLVT 310230Z 22002KT 8000 NSC 31/26 Q1011 NOSIG
2026-03-31 02:00:00,METAR VLVT 310200Z 22002KT 8000 NSC 30/25 Q1011 NOSIG
2026-03-31 01:30:00,METAR VLVT 310130Z 00000KT 8000 NSC 29/24 Q1011 NOSIG
2026-03-31 01:00:00,METAR VLVT 310100Z 00000KT 8000 NSC 27/22 Q1010 NOSIG
2026-03-31 00:00:00,METAR VLVT 310000Z 00000KT 6000 NSC 24/20 Q1009 NOSIG
2026-03-30 23:30:00,METAR VLVT 302330Z 04002KT 6000 NSC 23/20 Q1009 NOSIG
2026-03-30 23:00:00,METAR VLVT 302300Z 32002KT 6000 NSC 23/19 Q1008 NOSIG
2026-03-30 17:00:00,METAR VLVT 301700Z 00000KT 6000 FEW020 28/23 Q1007 NOSIG
2026-03-30 16:30:00,METAR VLVT 301630Z 27002KT 6000 FEW020 28/23 Q1008 NOSIG
2026-03-30 16:00:00,METAR VLVT 301600Z 14002KT 6000 FEW020 29/24 Q1008 NOSIG
2026-03-30 15:30:00,METAR VLVT 301530Z 14002KT 6000 SCT020 29/25 Q1008 NOSIG
2026-03-30 15:00:00,METAR VLVT 301500Z 14002KT 6000 SCT020 30/25 Q1007 NOSIG
2026-03-30 14:30:00,METAR VLVT 301430Z 00000KT 6000 SCT020 30/25 Q1007 NOSIG
2026-03-30 14:00:00,METAR VLVT 301400Z 00000KT 6000 SCT020 30/25 Q1007 NOSIG
2026-03-30 13:30:00,METAR VLVT 301330Z 00000KT 6000 SCT020 29/25 Q1006 NOSIG
2026-03-30 13:00:00,METAR VLVT 301300Z 00000KT 6000 SCT020 30/26 Q1006 NOSIG
2026-03-30 12:30:00,METAR VLVT 301230Z 00000KT 6000 SCT020 31/26 Q1005 NOSIG
2026-03-30 12:00:00,METAR VLVT 301200Z 00000KT 6000 FEW020 32/27 Q1005 NOSIG
2026-03-30 11:30:00,METAR VLVT 301130Z 14002KT 7000 FEW020 33/27 Q1005 NOSIG
2026-03-30 11:00:00,METAR VLVT 301100Z 16002KT 8000 FEW020 34/28 Q1004 NOSIG
2026-03-30 10:30:00,METAR VLVT 301030Z 14002KT 8000 FEW020 35/29 Q1004 NOSIG
2026-03-30 10:00:00,METAR VLVT 301000Z 16004KT 8000 FEW020 36/30 Q1004 NOSIG
2026-03-30 09:00:00,METAR VLVT 300900Z 18004KT 8000 FEW020 36/30 Q1004 NOSIG
2026-03-30 08:30:00,METAR VLVT 300830Z 16006KT 8000 FEW020 37/30 Q1005 NOSIG
2026-03-30 08:00:00,METAR VLVT 300800Z 20006KT 8000 FEW020 37/30 Q1005 NOSIG
2026-03-30 07:30:00,METAR VLVT 300730Z 20006KT 8000 FEW020 36/30 Q1006 NOSIG
2026-03-30 07:00:00,METAR VLVT 300700Z 18006KT 8000 FEW020 36/30 Q1006 NOSIG
2026-03-30 06:30:00,METAR VLVT 300630Z 18004KT 8000 FEW020 36/30 Q1007 NOSIG
2026-03-30 06:00:00,METAR VLVT 300600Z 16006KT 8000 FEW020 35/29 Q1007 NOSIG
2026-03-30 05:30:00,METAR VLVT 300530Z 24002KT 8000 FEW020 35/29 Q1008 NOSIG
2026-03-30 05:00:00,METAR VLVT 300500Z 24004KT 8000 FEW020 34/28 Q1009 NOSIG
2026-03-30 04:30:00,METAR VLVT 300430Z 27002KT 8000 NSC 34/28 Q1009 NOSIG
2026-03-30 04:00:00,METAR VLVT 300400Z 22002KT 8000 NSC 33/27 Q1010 NOSIG
2026-03-30 03:30:00,METAR VLVT 300330Z 22002KT 7000 NSC 32/27 Q1010 NOSIG
2026-03-30 03:00:00,METAR VLVT 300300Z 00000KT 5000 BR NSC 29/24 Q1010 NOSIG
2026-03-30 02:30:00,METAR VLVT 300230Z 20004KT 7000 NSC 31/25 Q1011 NOSIG
2026-03-30 02:00:00,METAR VLVT 300200Z 00000KT 5000 BR NSC 29/24 Q1010 NOSIG
2026-03-30 01:30:00,METAR VLVT 300130Z 34002KT 5000 BR NSC 27/23 Q1010 NOSIG
2026-03-30 01:00:00,METAR VLVT 300100Z 00000KT 5000 BR NSC 26/22 Q1010 NOSIG
2026-03-30 00:00:00,METAR VLVT 300000Z 36002KT 5000 BR SCT050 23/19 Q1009 NOSIG
2026-03-29 23:00:00,METAR VLVT 292300Z 14002KT 5000 BR SCT050 22/19 Q1008 NOSIG
2026-03-29 19:30:00,METAR VLVT 291930Z 36002KT 5000 BR NSC 24/20 Q1007 NOSIG
2026-03-29 18:00:00,METAR VLVT 291800Z 14002KT 5000 BR NSC 24/21 Q1007 NOSIG
2026-03-29 17:00:00,METAR VLVT 291700Z 27002KT 5000 BR NSC 25/21 Q1007 NOSIG
2026-03-29 16:00:00,METAR VLVT 291600Z 18002KT 5000 BR NSC 26/22 Q1008 NOSIG
2026-03-29 15:30:00,METAR VLVT 291530Z 12002KT 5000 BR NSC 26/22 Q1007 NOSIG
2026-03-29 15:00:00,METAR VLVT 291500Z 22002KT 5000 BR NSC 29/24 Q1007 NOSIG
2026-03-29 14:30:00,METAR VLVT 291430Z 27002KT 5000 BR NSC 29/25 Q1007 NOSIG
2026-03-29 14:00:00,METAR VLVT 291400Z 24004KT 5000 BR SCT050 30/25 Q1007 NOSIG
2026-03-29 13:30:00,METAR VLVT 291330Z 22002KT 5000 BR SCT050 30/25 Q1006 NOSIG
2026-03-29 13:00:00,METAR VLVT 291300Z 18004KT 5000 BR SCT050 30/26 Q1006 NOSIG
2026-03-29 12:30:00,METAR VLVT 291230Z 18004KT 5000 BR SCT050 31/26 Q1006 NOSIG
2026-03-29 12:00:00,METAR VLVT 291200Z 18006KT 8000 SCT050 34/28 Q1005 NOSIG
2026-03-29 11:30:00,METAR VLVT 291130Z 18006KT 8000 SCT050 32/27 Q1005 NOSIG
2026-03-29 11:00:00,METAR VLVT 291100Z 18006KT 8000 SCT050 34/28 Q1005 NOSIG
2026-03-29 10:30:00,METAR VLVT 291030Z 18006KT 9999 SCT020 35/29 Q1005 NOSIG
2026-03-29 10:00:00,METAR VLVT 291000Z 18006KT 9999 SCT020 36/30 Q1005 NOSIG
2026-03-29 09:00:00,METAR VLVT 290900Z 18008KT 9999 SCT020 36/30 Q1005 NOSIG
2026-03-29 08:30:00,METAR VLVT 290830Z 18008KT 9999 SCT020 36/30 Q1005 NOSIG
2026-03-29 08:00:00,METAR VLVT 290800Z 18008KT 9999 SCT020 37/30 Q1006 NOSIG
2026-03-29 07:30:00,METAR VLVT 290730Z 16006KT 9999 SCT020 36/30 Q1006 NOSIG
2026-03-29 07:00:00,METAR VLVT 290700Z 16006KT 9999 SCT020 36/30 Q1007 NOSIG
2026-03-29 06:30:00,METAR VLVT 290630Z 16004KT 9999 SCT020 36/30 Q1008 NOSIG
2026-03-29 06:00:00,METAR VLVT 290600Z 18006KT 9999 SCT020 36/30 Q1008 NOSIG
2026-03-29 05:30:00,METAR VLVT 290530Z 22004KT CAVOK 36/29 Q1009 NOSIG
2026-03-29 05:00:00,METAR VLVT 290500Z 22002KT CAVOK 35/29 Q1010 NOSIG
2026-03-29 04:30:00,METAR VLVT 290430Z 22004KT 8000 NSC 35/29 Q1010 NOSIG
2026-03-29 04:00:00,METAR VLVT 290400Z 22002KT 8000 NSC 34/28 Q1011 NOSIG
2026-03-29 03:00:00,METAR VLVT 290300Z 36002KT 8000 NSC 32/27 Q1011 NOSIG
2026-03-29 02:30:00,METAR VLVT 290230Z 06002KT 8000 NSC 31/26 Q1011 NOSIG
2026-03-29 02:00:00,METAR VLVT 290200Z 34004KT 8000 NSC 29/25 Q1011 NOSIG
2026-03-29 01:30:00,METAR VLVT 290130Z 34004KT 8000 NSC 29/23 Q1011 NOSIG
2026-03-29 01:00:00,METAR VLVT 290100Z 36004KT 8000 NSC 28/23 Q1010 NOSIG
2026-03-29 00:00:00,METAR VLVT 290000Z 00000KT 7000 FEW050 23/20 Q1009 NOSIG
2026-03-28 23:00:00,METAR VLVT 282300Z 34002KT 5000 BR FEW050 23/19 Q1008 NOSIG
2026-03-28 17:00:00,METAR VLVT 281700Z 24002KT 5000 BR NSC 26/22 Q1007 NOSIG
2026-03-28 16:30:00,METAR VLVT 281630Z 24002KT 5000 BR NSC 26/22 Q1007 NOSIG
2026-03-28 16:00:00,METAR VLVT 281600Z 24002KT 5000 BR NSC 26/22 Q1007 NOSIG
2026-03-28 15:30:00,METAR VLVT 281530Z 22002KT 5000 BR NSC 26/22 Q1007 NOSIG
2026-03-28 15:00:00,METAR VLVT 281500Z 22002KT 5000 BR NSC 27/23 Q1007 NOSIG
2026-03-28 14:30:00,METAR VLVT 281430Z 00000KT 5000 BR NSC 28/23 Q1006 NOSIG
2026-03-28 14:00:00,METAR VLVT 281400Z 00000KT 5000 BR FEW050 28/23 Q1006 NOSIG
2026-03-28 13:30:00,METAR VLVT 281330Z 00000KT 5000 FEW050 29/24 Q1006 NOSIG
2026-03-28 13:00:00,METAR VLVT 281300Z 12004KT 6000 FEW050 29/25 Q1006 NOSIG RETS
2026-03-28 12:30:00,METAR VLVT 281230Z 16010KT 6000 TS FEW027CB BKN040 30/25 Q1006 CB OVER AD NOSIG
2026-03-28 12:00:00,METAR VLVT 281200Z 18010KT 6000 -TSRA FEW023CB BKN040 31/26 Q1005 CB OVER AD NOSIG
2026-03-28 11:30:00,METAR VLVT 281130Z 27010KT 7000 TS FEW023CB BKN040 33/27 Q1004 CB S NOSIG
2026-03-28 11:00:00,METAR VLVT 281100Z 32002KT 8000 FEW020 BKN050 35/29 Q1004 NOSIG
2026-03-28 10:30:00,METAR VLVT 281030Z 32002KT 8000 FEW020 BKN050 35/29 Q1004 NOSIG
2026-03-28 10:00:00,METAR VLVT 281000Z 34004KT 8000 FEW020 FEW050 36/30 Q1003 NOSIG
2026-03-28 09:30:00,METAR VLVT 280930Z 34002KT 8000 FEW050 37/31 Q1004 NOSIG
2026-03-28 09:00:00,METAR VLVT 280900Z 14004KT 8000 FEW050 37/30 Q1004 NOSIG
2026-03-28 08:30:00,METAR VLVT 280830Z 22002KT 8000 FEW020 37/30 Q1004 NOSIG
2026-03-28 08:00:00,METAR VLVT 280800Z 22004KT 8000 FEW020 38/31 Q1004 NOSIG
2026-03-28 07:00:00,METAR VLVT 280700Z 18004KT 7000 FEW020 37/30 Q1006 NOSIG
2026-03-28 06:00:00,METAR VLVT 280600Z 18004KT 7000 FEW020 37/30 Q1007 NOSIG
2026-03-28 05:30:00,METAR VLVT 280530Z 22004KT 7000 NSC 36/30 Q1007 NOSIG
2026-03-28 05:00:00,METAR VLVT 280500Z 06004KT 7000 NSC 36/30 Q1008 NOSIG
2026-03-28 04:00:00,METAR VLVT 280400Z 14002KT 7000 SCT050 35/29 Q1009 NOSIG
2026-03-28 03:30:00,METAR VLVT 280330Z 09002KT 7000 SCT050 34/28 Q1009 NOSIG
2026-03-28 03:00:00,METAR VLVT 280300Z 09002KT 7000 SCT050 32/27 Q1010 NOSIG
2026-03-28 02:30:00,METAR VLVT 280230Z 36002KT 6000 SCT050 31/26 Q1010 NOSIG
2026-03-28 02:00:00,METAR VLVT 280200Z 04002KT 6000 SCT050 30/25 Q1010 NOSIG
2026-03-28 01:30:00,METAR VLVT 280130Z 34002KT 6000 FEW050 29/24 Q1010 NOSIG
2026-03-28 01:00:00,METAR VLVT 280100Z 34004KT 6000 NSC 28/24 Q1009 NOSIG
2026-03-28 00:00:00,METAR VLVT 280000Z 04002KT 5000 BR SCT020 24/20 Q1008 NOSIG
2026-03-27 23:30:00,METAR VLVT 272330Z 12002KT 6000 SCT020 24/20 Q1007 NOSIG
2026-03-27 23:00:00,METAR VLVT 272300Z 00000KT 6000 SCT020 24/20 Q1007 NOSIG
2026-03-27 19:00:00,METAR VLVT 271900Z 00000KT 6000 FEW020 26/22 Q1006 NOSIG
2026-03-27 18:00:00,METAR VLVT 271800Z 14002KT 6000 FEW020 25/21 Q1006 NOSIG
2026-03-27 17:30:00,METAR VLVT 271730Z 20002KT 6000 FEW020 26/22 Q1007 NOSIG
2026-03-27 17:00:00,METAR VLVT 271700Z 16004KT 6000 FEW020 26/22 Q1007 NOSIG
2026-03-27 16:30:00,METAR VLVT 271630Z 34004KT 6000 FEW020 27/23 Q1007 NOSIG
2026-03-27 16:00:00,METAR VLVT 271600Z 27002KT 6000 FEW020 27/23 Q1007 NOSIG
2026-03-25 15:00:00,METAR VLVT 251500Z 22002KT 6000 FEW020 SCT050 31/26 Q1008 NOSIG
2026-03-25 14:30:00,METAR VLVT 251430Z 16002KT 6000 FEW020 31/26 Q1008 NOSIG
2026-03-25 14:00:00,METAR VLVT 251400Z 12004KT 6000 FEW020 32/27 Q1008 NOSIG
2026-03-25 13:30:00,METAR VLVT 251330Z 14006KT 6000 FEW020 31/26 Q1007 NOSIG
2026-03-25 13:00:00,METAR VLVT 251300Z 09002KT 6000 FEW050 31/26 Q1007 NOSIG
2026-03-25 12:30:00,METAR VLVT 251230Z 12004KT 6000 FEW050 32/27 Q1007 NOSIG
2026-03-25 12:00:00,METAR VLVT 251200Z 14002KT 6000 FEW050 32/27 Q1006 NOSIG
2026-03-25 11:30:00,METAR VLVT 251130Z 16002KT 7000 FEW050 33/27 Q1006 NOSIG
2026-03-25 11:00:00,METAR VLVT 251100Z 16002KT 8000 FEW020 34/29 Q1006 NOSIG
2026-03-25 10:30:00,METAR VLVT 251030Z 24002KT 8000 FEW020 36/30 Q1006 NOSIG
2026-03-25 10:00:00,METAR VLVT 251000Z 14004KT 8000 FEW020 36/29 Q1006 NOSIG
2026-03-25 09:00:00,METAR VLVT 250900Z 22006KT 8000 FEW020 36/30 Q1006 NOSIG
2026-03-25 08:30:00,METAR VLVT 250830Z 16002KT 8000 FEW020 37/30 Q1006 NOSIG
2026-03-25 08:00:00,METAR VLVT 250800Z 18006KT 8000 FEW020 36/30 Q1007 NOSIG
2026-03-25 07:30:00,METAR VLVT 250730Z 18004KT 8000 FEW020 37/30 Q1007 NOSIG
2026-03-25 07:00:00,METAR VLVT 250700Z 24004KT 8000 FEW020 37/30 Q1008 NOSIG
2026-03-25 06:30:00,METAR VLVT 250630Z 24004KT 8000 FEW020 36/29 Q1008 NOSIG
2026-03-25 06:00:00,METAR VLVT 250600Z 22004KT 8000 FEW020 36/30 Q1009 NOSIG
2026-03-25 05:30:00,METAR VLVT 250530Z 02004KT 8000 FEW020 35/29 Q1009 NOSIG
2026-03-25 05:00:00,METAR VLVT 250500Z 04004KT 8000 FEW020 35/29 Q1010 NOSIG
2026-03-25 04:30:00,METAR VLVT 250430Z 18002KT 8000 FEW020 34/28 Q1010 NOSIG
2026-03-25 04:00:00,METAR VLVT 250400Z 18002KT 8000 FEW020 33/28 Q1011 NOSIG
2026-03-25 03:30:00,METAR VLVT 250330Z 12004KT 8000 FEW020 33/27 Q1011 NOSIG
2026-03-25 03:00:00,METAR VLVT 250300Z 16004KT 8000 FEW020 32/27 Q1011 NOSIG
2026-03-25 02:30:00,METAR VLVT 250230Z 16004KT 7000 NSC 31/26 Q1011 NOSIG
2026-03-25 02:00:00,METAR VLVT 250200Z 16002KT 7000 FEW050 30/26 Q1011 NOSIG
2026-03-25 01:30:00,METAR VLVT 250130Z 14002KT 7000 FEW050 30/25 Q1011 NOSIG
2026-03-25 01:00:00,METAR VLVT 250100Z 16002KT 7000 SCT050 27/23 Q1010 NOSIG
2026-03-25 00:00:00,METAR VLVT 250000Z 34002KT 7000 SCT050 25/21 Q1009 NOSIG
2026-03-24 23:00:00,METAR VLVT 242300Z 04002KT 5000 BR SCT050 25/21 Q1008 NOSIG
2026-03-24 17:30:00,METAR VLVT 241730Z 36002KT 5000 BR SCT050 27/23 Q1008 NOSIG
2026-03-24 16:00:00,METAR VLVT 241600Z 22002KT 5000 BR SCT050 28/24 Q1009 NOSIG
2026-03-24 15:00:00,METAR VLVT 241500Z 18006KT 5000 BR SCT050 29/26 Q1008 NOSIG
2026-03-24 14:30:00,METAR VLVT 241430Z 16008KT 5000 BR SCT020 29/25 Q1008 NOSIG
2026-03-24 14:00:00,METAR VLVT 241400Z 16002KT 5000 BR NSC 29/24 Q1007 NOSIG
2026-03-24 13:30:00,METAR VLVT 241330Z 16002KT 5000 BR NSC 30/25 Q1007 NOSIG
2026-03-24 13:00:00,METAR VLVT 241300Z 16002KT 5000 BR NSC 30/26 Q1006 NOSIG
2026-03-24 12:30:00,METAR VLVT 241230Z 18004KT 5000 BR NSC 30/26 Q1006 NOSIG
2026-03-24 12:00:00,METAR VLVT 241200Z 18002KT 5000 BR NSC 32/27 Q1006 NOSIG
2026-03-24 11:30:00,METAR VLVT 241130Z 22004KT 8000 FEW020 34/28 Q1005 NOSIG
2026-03-24 11:00:00,METAR VLVT 241100Z 22004KT 9999 FEW020 35/29 Q1005 NOSIG
2026-03-24 10:30:00,METAR VLVT 241030Z 18004KT 9999 FEW020 35/29 Q1005 NOSIG
2026-03-24 10:00:00,METAR VLVT 241000Z 14004KT 9999 FEW020 36/29 Q1005 NOSIG
2026-03-24 09:30:00,METAR VLVT 240930Z 16004KT 9999 FEW020 36/30 Q1005 NOSIG
2026-03-24 09:00:00,METAR VLVT 240900Z 18004KT 9999 FEW020 36/30 Q1005 NOSIG
2026-03-24 08:30:00,METAR VLVT 240830Z 24004KT 9999 FEW020 37/30 Q1005 NOSIG
2026-03-24 08:00:00,METAR VLVT 240800Z 18006KT 9999 FEW020 36/30 Q1006 NOSIG
2026-03-24 07:30:00,METAR VLVT 240730Z 34002KT 9999 FEW020 37/30 Q1006 NOSIG
2026-03-24 05:00:00,METAR VLVT 240500Z 04004KT 9999 FEW020 35/29 Q1009 NOSIG
2026-03-24 04:30:00,METAR VLVT 240430Z 04004KT 9999 FEW020 34/28 Q1009 NOSIG
2026-03-24 04:00:00,METAR VLVT 240400Z 04002KT 9999 FEW020 33/28 Q1010 NOSIG
2026-03-24 03:30:00,METAR VLVT 240330Z 36004KT 8000 NSC 32/27 Q1010 NOSIG
2026-03-24 03:00:00,METAR VLVT 240300Z 06002KT 8000 NSC 32/26 Q1010 NOSIG
2026-03-24 02:00:00,METAR VLVT 240200Z 36004KT 8000 NSC 30/25 Q1010 NOSIG
2026-03-24 01:30:00,METAR VLVT 240130Z 36004KT 8000 NSC 28/23 Q1010 NOSIG
2026-03-24 01:00:00,METAR VLVT 240100Z 02004KT 8000 NSC 27/23 Q1010 NOSIG
2026-03-24 00:00:00,METAR VLVT 240000Z 34002KT 6000 NSC 24/20 Q1009 NOSIG
2026-03-23 23:30:00,METAR VLVT 232330Z 32002KT 6000 FEW020 24/20 Q1009 NOSIG
2026-03-23 23:00:00,METAR VLVT 232300Z 34002KT 6000 FEW020 24/20 Q1008 NOSIG
2026-03-23 17:00:00,METAR VLVT 231700Z 00000KT 6000 FEW050 26/22 Q1009 NOSIG
2026-03-23 16:30:00,METAR VLVT 231630Z 00000KT 6000 FEW050 26/22 Q1009 NOSIG
2026-03-23 16:00:00,METAR VLVT 231600Z 00000KT 6000 FEW050 27/23 Q1009 NOSIG
2026-03-23 15:30:00,METAR VLVT 231530Z 00000KT 6000 FEW050 27/23 Q1009 NOSIG
2026-03-23 15:00:00,METAR VLVT 231500Z 00000KT 6000 FEW050 28/24 Q1009 NOSIG
2026-03-23 14:30:00,METAR VLVT 231430Z 32002KT 6000 FEW050 29/24 Q1009 NOSIG
2026-03-23 14:00:00,METAR VLVT 231400Z 02002KT 6000 FEW050 29/24 Q1008 NOSIG
2026-03-23 13:30:00,METAR VLVT 231330Z 32002KT 6000 FEW050 29/25 Q1008 NOSIG
2026-03-23 13:00:00,METAR VLVT 231300Z 02002KT 6000 FEW050 29/25 Q1008 NOSIG
2026-03-23 12:30:00,METAR VLVT 231230Z 02002KT 6000 FEW050 30/25 Q1008 NOSIG
2026-03-23 12:00:00,METAR VLVT 231200Z 09002KT 6000 FEW020 SCT200 31/26 Q1007 NOSIG
2026-03-23 11:30:00,METAR VLVT 231130Z 09002KT 7000 FEW020 SCT200 32/27 Q1007 NOSIG
2026-03-23 11:00:00,METAR VLVT 231100Z 06002KT 8000 FEW020 34/28 Q1007 NOSIG
2026-03-23 10:30:00,METAR VLVT 231030Z 04002KT 8000 FEW020 34/28 Q1007 NOSIG
2026-03-23 10:00:00,METAR VLVT 231000Z 06004KT 8000 FEW020 34/28 Q1007 NOSIG
2026-03-23 09:00:00,METAR VLVT 230900Z 24002KT 8000 FEW020 35/29 Q1007 NOSIG
2026-03-23 08:30:00,METAR VLVT 230830Z 34002KT 8000 FEW020 35/28 Q1007 NOSIG
2026-03-23 08:00:00,METAR VLVT 230800Z 06002KT 8000 FEW020 35/28 Q1007 NOSIG
2026-03-23 07:30:00,METAR VLVT 230730Z 04006KT 8000 FEW020 34/28 Q1008 NOSIG
2026-03-23 07:00:00,METAR VLVT 230700Z 06004KT 8000 FEW020 34/28 Q1008 NOSIG
2026-03-23 06:30:00,METAR VLVT 230630Z 14002KT 8000 FEW020 34/28 Q1009 NOSIG
2026-03-23 06:00:00,METAR VLVT 230600Z 34004KT 8000 FEW020 33/28 Q1010 NOSIG
2026-03-23 05:30:00,METAR VLVT 230530Z 34004KT 8000 FEW020 33/27 Q1010 NOSIG
2026-03-23 05:00:00,METAR VLVT 230500Z 22004KT 8000 FEW020 32/27 Q1011 NOSIG
2026-03-23 04:30:00,METAR VLVT 230430Z 27004KT 8000 FEW020 32/26 Q1011 NOSIG
2026-03-23 04:00:00,METAR VLVT 230400Z 16004KT 8000 FEW020 31/26 Q1012 NOSIG
2026-03-23 03:30:00,METAR VLVT 230330Z 27002KT 8000 FEW020 31/26 Q1012 NOSIG
2026-03-23 03:00:00,METAR VLVT 230300Z 18004KT 7000 NSC 29/25 Q1012 NOSIG
2026-03-23 02:30:00,METAR VLVT 230230Z 09004KT 7000 FEW020 29/24 Q1012 NOSIG
2026-03-23 02:00:00,METAR VLVT 230200Z 14002KT 7000 FEW020 28/24 Q1012 NOSIG
2026-03-23 01:30:00,METAR VLVT 230130Z 12002KT 6000 FEW020 27/23 Q1012 NOSIG
2026-03-23 01:00:00,METAR VLVT 230100Z 09002KT 6000 FEW020 26/21 Q1012 NOSIG
2026-03-23 00:00:00,METAR VLVT 230000Z 00000KT 5000 BR SCT050 23/19 Q1011 NOSIG
2026-03-22 23:30:00,METAR VLVT 222330Z 00000KT 5000 BR SCT050 23/19 Q1011 NOSIG
2026-03-22 20:30:00,METAR VLVT 222030Z 36002KT 5000 BR NSC 23/19 Q1010 NOSIG
2026-03-22 19:30:00,METAR VLVT 221930Z 09002KT 5000 BR NSC 24/20 Q1010 NOSIG
2026-03-22 19:00:00,METAR VLVT 221900Z 09004KT 5000 BR NSC 24/20 Q1011 NOSIG
2026-03-22 18:30:00,METAR VLVT 221830Z 06004KT 5000 BR NSC 24/20 Q1010 NOSIG
2026-03-22 18:00:00,METAR VLVT 221800Z 06004KT 5000 BR NSC 24/21 Q1011 NOSIG
2026-03-22 17:30:00,METAR VLVT 221730Z 09004KT 5000 BR NSC 24/20 Q1011 NOSIG
2026-03-22 17:00:00,METAR VLVT 221700Z 04004KT 5000 BR NSC 24/20 Q1011 NOSIG
2026-03-22 14:30:00,METAR VLVT 221430Z 00000KT 5000 BR SCT050 25/21 Q1011 NOSIG
2026-03-22 14:00:00,METAR VLVT 221400Z 18002KT 5000 BR SCT050 24/20 Q1011 NOSIG
2026-03-22 13:30:00,METAR VLVT 221330Z 36002KT 5000 BR SCT050 24/20 Q1010 NOSIG
2026-03-22 13:00:00,METAR VLVT 221300Z 02002KT 5000 BR SCT050 25/21 Q1010 NOSIG
2026-03-22 12:30:00,METAR VLVT 221230Z 00000KT 5000 BR SCT050 25/21 Q1009 NOSIG
2026-03-22 12:00:00,METAR VLVT 221200Z 32006KT 5000 BR SCT050 25/21 Q1009 NOSIG
2026-03-22 11:30:00,METAR VLVT 221130Z 36004KT 5000 BR FEW020 SCT050 26/21 Q1009 NOSIG
2026-03-22 11:00:00,METAR VLVT 221100Z 02006KT 8000 FEW020 SCT050 26/22 Q1008 NOSIG
2026-03-22 10:30:00,METAR VLVT 221030Z 36006KT 8000 SCT050 26/22 Q1008 NOSIG
2026-03-22 10:00:00,METAR VLVT 221000Z 36006KT 8000 BKN050 26/21 Q1008 NOSIG
2026-03-22 09:30:00,METAR VLVT 220930Z 18008KT 5000 TSRA SCT016 FEW023CB OVC080 32/27 Q1007 NOSIG
2026-03-22 09:00:00,METAR VLVT 220900Z 18004KT 8000 SCT020 35/29 Q1007 NOSIG
2026-03-22 08:30:00,METAR VLVT 220830Z 22004KT 8000 SCT020 35/29 Q1007 NOSIG
2026-03-22 08:00:00,METAR VLVT 220800Z 24004KT 8000 SCT020 36/29 Q1008 NOSIG
2026-03-22 07:30:00,METAR VLVT 220730Z 24004KT 8000 SCT020 35/29 Q1008 NOSIG
2026-03-22 07:00:00,METAR VLVT 220700Z 24006KT 8000 SCT020 35/29 Q1009 NOSIG
2026-03-22 06:30:00,METAR VLVT 220630Z 18004KT 8000 SCT050 34/28 Q1009 NOSIG
2026-03-22 06:00:00,METAR VLVT 220600Z 18002KT 8000 NSC 34/28 Q1010 NOSIG
2026-03-22 05:00:00,METAR VLVT 220500Z 24004KT 8000 NSC 32/27 Q1012 NOSIG
2026-03-22 04:30:00,METAR VLVT 220430Z 06004KT 8000 NSC 32/26 Q1012 NOSIG
2026-03-22 04:00:00,METAR VLVT 220400Z 12004KT 8000 SCT050 31/26 Q1013 NOSIG
2026-03-22 03:30:00,METAR VLVT 220330Z 14004KT 8000 FEW050 30/25 Q1013 NOSIG
2026-03-22 03:00:00,METAR VLVT 220300Z 14004KT 8000 FEW050 30/25 Q1013 NOSIG
2026-03-22 02:30:00,METAR VLVT 220230Z 14006KT 8000 FEW050 29/25 Q1013 NOSIG
2026-03-22 02:00:00,METAR VLVT 220200Z 09004KT 8000 FEW050 29/24 Q1013 NOSIG
2026-03-22 01:30:00,METAR VLVT 220130Z 12006KT 8000 SCT050 27/22 Q1012 NOSIG
2026-03-22 01:00:00,METAR VLVT 220100Z 12006KT 8000 SCT050 26/22 Q1012 NOSIG
2026-03-22 00:00:00,METAR VLVT 220000Z 09002KT 7000 FEW020 25/21 Q1011 NOSIG
2026-03-21 23:30:00,METAR VLVT 212330Z 12004KT 7000 FEW020 25/21 Q1011 NOSIG
2026-03-21 23:00:00,METAR VLVT 212300Z 12004KT 6000 SCT020 25/21 Q1010 NOSIG
2026-03-21 17:30:00,METAR VLVT 211730Z 34002KT 6000 FEW050 25/20 Q1011 NOSIG
2026-03-21 17:00:00,METAR VLVT 211700Z 04002KT 6000 FEW050 25/21 Q1011 NOSIG
2026-03-21 16:30:00,METAR VLVT 211630Z 34004KT 6000 SCT050 25/21 Q1011 NOSIG
2026-03-21 16:00:00,METAR VLVT 211600Z 06002KT 6000 FEW050 27/22 Q1011 NOSIG
2026-03-21 15:30:00,METAR VLVT 211530Z 09002KT 6000 FEW050 27/22 Q1011 NOSIG
2026-03-21 15:00:00,METAR VLVT 211500Z 06002KT 6000 FEW020 SCT050 28/23 Q1011 NOSIG
2026-03-21 14:30:00,METAR VLVT 211430Z 12004KT 6000 FEW020 SCT050 28/23 Q1011 NOSIG
2026-03-21 14:00:00,METAR VLVT 211400Z 24004KT 6000 FEW020 SCT050 30/25 Q1011 NOSIG
2026-03-21 13:30:00,METAR VLVT 211330Z 18006KT 6000 FEW020 SCT050 30/25 Q1011 NOSIG
2026-03-21 13:00:00,METAR VLVT 211300Z 14004KT 6000 FEW020 SCT050 31/26 Q1010 NOSIG
2026-03-21 12:30:00,METAR VLVT 211230Z 12004KT 6000 FEW020 SCT050 31/26 Q1009 NOSIG
2026-03-21 12:00:00,METAR VLVT 211200Z 00000KT 6000 FEW020 SCT050 31/26 Q1009 NOSIG
2026-03-21 11:30:00,METAR VLVT 211130Z 12004KT 7000 FEW020 BKN200 32/26 Q1008 NOSIG
2026-03-21 11:00:00,METAR VLVT 211100Z 16004KT 8000 FEW020 BKN200 32/27 Q1008 NOSIG
2026-03-21 10:30:00,METAR VLVT 211030Z 18002KT 8000 FEW020 BKN200 33/28 Q1008 NOSIG
2026-03-21 10:00:00,METAR VLVT 211000Z 16004KT 8000 FEW020 SCT200 33/28 Q1008 NOSIG
2026-03-21 09:00:00,METAR VLVT 210900Z 16004KT 8000 SCT020 35/29 Q1008 NOSIG
2026-03-21 08:30:00,METAR VLVT 210830Z 14004KT 8000 SCT020 35/29 Q1008 NOSIG
2026-03-21 08:00:00,METAR VLVT 210800Z 16004KT 8000 SCT020 34/28 Q1009 NOSIG
2026-03-21 07:30:00,METAR VLVT 210730Z 12002KT 8000 SCT020 34/28 Q1010 NOSIG
2026-03-21 07:00:00,METAR VLVT 210700Z 12004KT 8000 SCT020 34/28 Q1010 NOSIG
2026-03-21 06:30:00,METAR VLVT 210630Z 16006KT 8000 SCT020 34/28 Q1011 NOSIG
2026-03-21 06:00:00,METAR VLVT 210600Z 18004KT 8000 SCT020 33/28 Q1012 NOSIG
2026-03-21 05:30:00,METAR VLVT 210530Z 16006KT 8000 SCT020 33/28 Q1012 NOSIG
2026-03-21 05:00:00,METAR VLVT 210500Z 16004KT 8000 SCT020 32/27 Q1013 NOSIG
2026-03-21 04:30:00,METAR VLVT 210430Z 09006KT 8000 FEW020 32/26 Q1013 NOSIG
2026-03-21 04:00:00,METAR VLVT 210400Z 09004KT 8000 FEW020 31/26 Q1014 NOSIG
2026-03-21 03:30:00,METAR VLVT 210330Z 12002KT 7000 FEW020 30/25 Q1014 NOSIG
2026-03-21 03:00:00,METAR VLVT 210300Z 14004KT 7000 NSC 30/25 Q1014 NOSIG
2026-03-21 02:30:00,METAR VLVT 210230Z 09004KT 7000 NSC 29/24 Q1014 NOSIG
2026-03-21 02:00:00,METAR VLVT 210200Z 09004KT 7000 NSC 28/24 Q1014 NOSIG
2026-03-21 01:30:00,METAR VLVT 210130Z 12004KT 7000 FEW050 27/23 Q1013 NOSIG
2026-03-21 01:00:00,METAR VLVT 210100Z 09004KT 6000 FEW050 27/22 Q1013 NOSIG
2026-03-21 00:30:00,METAR VLVT 210030Z 09004KT 6000 BKN050 25/21 Q1013 NOSIG
2026-03-21 00:00:00,METAR VLVT 210000Z 06002KT 6000 BKN050 23/19 Q1012 NOSIG
2026-03-20 23:30:00,METAR VLVT 202330Z 00000KT 6000 SCT050 22/19 Q1012 NOSIG
2026-03-20 23:00:00,METAR VLVT 202300Z 04002KT 6000 SCT050 22/19 Q1011 NOSIG
2026-03-20 17:00:00,METAR VLVT 201700Z 34002KT 5000 BR FEW050 25/21 Q1011 NOSIG
2026-03-20 16:30:00,METAR VLVT 201630Z 24002KT 5000 BR FEW050 26/22 Q1011 NOSIG
2026-03-20 16:00:00,METAR VLVT 201600Z 24004KT 5000 BR NSC 26/21 Q1011 NOSIG
2026-03-20 15:30:00,METAR VLVT 201530Z 22002KT 5000 BR NSC 26/22 Q1011 NOSIG
2026-03-20 15:00:00,METAR VLVT 201500Z 22002KT 5000 BR NSC 26/22 Q1011 NOSIG
2026-03-20 14:30:00,METAR VLVT 201430Z 22002KT 5000 BR NSC 26/22 Q1011 NOSIG
2026-03-20 14:00:00,METAR VLVT 201400Z 22004KT 5000 BR NSC 27/23 Q1011 NOSIG
2026-03-20 13:30:00,METAR VLVT 201330Z 22006KT 5000 BR FEW050 28/23 Q1010 NOSIG
2026-03-20 13:00:00,METAR VLVT 201300Z 22006KT 5000 BR FEW050 28/24 Q1010 NOSIG
2026-03-20 12:30:00,METAR VLVT 201230Z 22004KT 5000 BR FEW050 29/24 Q1009 NOSIG
2026-03-20 12:00:00,METAR VLVT 201200Z 22002KT 6000 FEW050 29/25 Q1008 NOSIG
2026-03-20 11:30:00,METAR VLVT 201130Z 22002KT 7000 SCT050 31/26 Q1007 NOSIG
2026-03-20 11:00:00,METAR VLVT 201100Z 27002KT 8000 SCT050 33/27 Q1007 NOSIG
2026-03-20 10:00:00,METAR VLVT 201000Z 22002KT 8000 SCT050 34/28 Q1007 NOSIG
2026-03-20 09:30:00,METAR VLVT 200930Z 22004KT 8000 NSC 34/28 Q1007 NOSIG
2026-03-20 09:00:00,METAR VLVT 200900Z 16004KT 8000 FEW020 36/29 Q1007 NOSIG
2026-03-20 08:30:00,METAR VLVT 200830Z 22004KT 8000 NSC 36/29 Q1007 NOSIG
2026-03-20 08:00:00,METAR VLVT 200800Z 18006KT 8000 FEW020 36/30 Q1007 NOSIG
2026-03-20 07:30:00,METAR VLVT 200730Z 22004KT 8000 NSC 36/29 Q1008 NOSIG
2026-03-20 07:00:00,METAR VLVT 200700Z 18004KT 8000 FEW020 35/29 Q1009 NOSIG
2026-03-20 06:00:00,METAR VLVT 200600Z 36004KT 8000 NSC 34/28 Q1010 NOSIG
2026-03-20 05:00:00,METAR VLVT 200500Z 36004KT 8000 NSC 33/27 Q1012 NOSIG
2026-03-20 04:30:00,METAR VLVT 200430Z 36004KT 8000 NSC 32/27 Q1012 NOSIG
2026-03-20 04:00:00,METAR VLVT 200400Z 04004KT 8000 NSC 31/26 Q1013 NOSIG
2026-03-20 03:30:00,METAR VLVT 200330Z 00000KT 8000 NSC 31/26 Q1013 NOSIG
2026-03-20 02:00:00,METAR VLVT 200200Z 09002KT 7000 NSC 29/24 Q1013 NOSIG
2026-03-20 01:30:00,METAR VLVT 200130Z 04002KT 7000 NSC 28/23 Q1012 NOSIG
2026-03-20 01:00:00,METAR VLVT 200100Z 04002KT 7000 NSC 26/21 Q1012 NOSIG
2026-03-20 00:30:00,METAR VLVT 200030Z 00000KT 7000 FEW050 23/19 Q1011 NOSIG
2026-03-20 00:00:00,METAR VLVT 200000Z 09002KT 7000 FEW050 22/18 Q1011 NOSIG
2026-03-19 23:00:00,METAR VLVT 192300Z 00000KT 4000 BR SCT050 22/18 Q1010 NOSIG
2026-03-19 19:00:00,METAR VLVT 191900Z 00000KT 5000 BR NSC 23/20 Q1009 NOSIG
2026-03-19 18:30:00,METAR VLVT 191830Z 00000KT 5000 BR NSC 23/20 Q1009 NOSIG
2026-03-19 18:00:00,METAR VLVT 191800Z 00000KT 5000 BR NSC 23/20 Q1010 NOSIG
2026-03-19 17:30:00,METAR VLVT 191730Z 18002KT 5000 BR NSC 24/21 Q1010 NOSIG
2026-03-19 17:00:00,METAR VLVT 191700Z 18002KT 5000 BR NSC 24/21 Q1010 NOSIG
2026-03-19 16:00:00,METAR VLVT 191600Z 24002KT 5000 BR NSC 26/22 Q1010 NOSIG
2026-03-19 15:30:00,METAR VLVT 191530Z 18004KT 5000 BR NSC 27/23 Q1010 NOSIG
2026-03-19 15:00:00,METAR VLVT 191500Z 22004KT 5000 BR NSC 28/23 Q1009 NOSIG
2026-03-19 14:00:00,METAR VLVT 191400Z 16006KT 5000 BR NSC 28/22 Q1009 NOSIG
2026-03-19 13:30:00,METAR VLVT 191330Z 18006KT 5000 BR NSC 27/24 Q1009 NOSIG
2026-03-19 13:00:00,METAR VLVT 191300Z 36002KT 5000 BR NSC 27/22 Q1008 NOSIG
2026-03-19 12:30:00,METAR VLVT 191230Z 16002KT 5000 BR NSC 28/25 Q1008 NOSIG
2026-03-19 12:00:00,METAR VLVT 191200Z 16002KT 5000 5000 NSC 30/25 Q1007 NOSIG
2026-03-19 11:30:00,METAR VLVT 191130Z 16002KT 8000 FEW020 32/27 Q1007 NOSIG
2026-03-19 11:00:00,METAR VLVT 191100Z 14002KT 8000 FEW020 33/27 Q1007 NOSIG
2026-03-19 10:30:00,METAR VLVT 191030Z 16004KT 9999 FEW020 34/28 Q1007 NOSIG
2026-03-19 10:00:00,METAR VLVT 191000Z 22002KT 9999 FEW020 35/29 Q1007 NOSIG
2026-03-19 09:30:00,METAR VLVT 190930Z 22002KT 9999 FEW020 35/29 Q1007 NOSIG
2026-03-19 09:00:00,METAR VLVT 190900Z 34002KT 9999 FEW020 36/28 Q1007 NOSIG
2026-03-19 08:30:00,METAR VLVT 190830Z 18002KT 9999 FEW020 36/28 Q1007 NOSIG
2026-03-19 08:00:00,METAR VLVT 190800Z 02002KT 9999 FEW020 35/28 Q1008 NOSIG
2026-03-19 07:30:00,METAR VLVT 190730Z 22006KT 9999 FEW020 35/29 Q1008 NOSIG
2026-03-19 07:00:00,METAR VLVT 190700Z 16004KT 9999 FEW020 35/29 Q1009 NOSIG
2026-03-19 06:30:00,METAR VLVT 190630Z 12004KT CAVOK 35/28 Q1010 NOSIG
2026-03-19 06:00:00,METAR VLVT 190600Z 22004KT CAVOK 35/29 Q1010 NOSIG
2026-03-19 05:30:00,METAR VLVT 190530Z 14002KT CAVOK 34/28 Q1011 NOSIG
2026-03-19 05:00:00,METAR VLVT 190500Z 36002KT CAVOK 34/28 Q1012 NOSIG
2026-03-19 04:30:00,METAR VLVT 190430Z 27002KT CAVOK 33/27 Q1013 NOSIG
2026-03-19 04:00:00,METAR VLVT 190400Z 36002KT CAVOK 32/27 Q1013 NOSIG
2026-03-19 03:30:00,METAR VLVT 190330Z 06002KT 8000 NSC 31/26 Q1014 NOSIG
2026-03-19 03:00:00,METAR VLVT 190300Z 34002KT 8000 NSC 30/25 Q1014 NOSIG
2026-03-19 02:00:00,METAR VLVT 190200Z 34004KT 8000 NSC 27/23 Q1014 NOSIG
2026-03-19 01:30:00,METAR VLVT 190130Z 24002KT 8000 NSC 27/21 Q1013 NOSIG
2026-03-19 01:00:00,METAR VLVT 190100Z 00000KT 8000 NSC 25/21 Q1013 NOSIG
2026-03-19 00:00:00,METAR VLVT 190000Z 24002KT 7000 FEW020 22/18 Q1012 NOSIG
2026-03-18 23:30:00,METAR VLVT 182330Z 24002KT 6000 FEW020 21/18 Q1012 NOSIG
2026-03-18 23:00:00,METAR VLVT 182300Z 34002KT 6000 FEW020 22/18 Q1011 NOSIG
2026-03-18 19:00:00,METAR VLVT 181900Z 34002KT 6000 FEW050 24/20 Q1010 NOSIG
2026-03-18 18:00:00,METAR VLVT 181800Z 34004KT 6000 FEW050 24/20 Q1011 NOSIG
2026-03-18 17:00:00,METAR VLVT 181700Z 14002KT 6000 FEW050 23/19 Q1011 NOSIG
2026-03-18 16:30:00,METAR VLVT 181630Z 20002KT 6000 FEW020 FEW050 24/20 Q1012 NOSIG
2026-03-18 16:00:00,METAR VLVT 181600Z 12002KT 6000 FEW020 SCT050 25/21 Q1012 NOSIG
2026-03-18 15:30:00,METAR VLVT 181530Z 24004KT 6000 FEW020 SCT050 25/21 Q1012 NOSIG
2026-03-18 15:00:00,METAR VLVT 181500Z 22002KT 6000 FEW020 SCT050 25/21 Q1012 NOSIG
2026-03-18 14:30:00,METAR VLVT 181430Z 27004KT 6000 FEW020 SCT050 26/22 Q1011 NOSIG
2026-03-18 14:00:00,METAR VLVT 181400Z 27004KT 6000 FEW020 BKN050 26/22 Q1011 NOSIG
2026-03-18 13:30:00,METAR VLVT 181330Z 27004KT 6000 FEW020 SCT050 27/23 Q1011 NOSIG
2026-03-18 13:00:00,METAR VLVT 181300Z 24004KT 6000 FEW020 FEW050 27/22 Q1010 NOSIG
2026-03-18 12:30:00,METAR VLVT 181230Z 22004KT 6000 FEW020 BKN050 27/22 Q1010 NOSIG
2026-03-18 12:00:00,METAR VLVT 181200Z 22006KT 6000 FEW020 BKN050 28/23 Q1010 NOSIG
2026-03-18 11:30:00,METAR VLVT 181130Z 20004KT 7000 FEW020 BKN050 32/26 Q1009 NOSIG
2026-03-18 11:00:00,METAR VLVT 181100Z 22004KT 8000 FEW020 BKN050 32/27 Q1009 NOSIG
2026-03-18 10:30:00,METAR VLVT 181030Z 22002KT 8000 FEW020 FEW050 34/28 Q1008 NOSIG
2026-03-18 10:00:00,METAR VLVT 181000Z 30002KT 8000 FEW020 35/29 Q1008 NOSIG
2026-03-18 09:00:00,METAR VLVT 180900Z 27004KT 8000 FEW020 34/28 Q1008 NOSIG
2026-03-18 08:30:00,METAR VLVT 180830Z 24002KT 8000 FEW020 35/29 Q1008 NOSIG
2026-03-18 08:00:00,METAR VLVT 180800Z 12002KT 8000 FEW020 34/28 Q1009 NOSIG
2026-03-18 07:00:00,METAR VLVT 180700Z 18006KT 8000 FEW020 34/28 Q1010 NOSIG
2026-03-18 06:30:00,METAR VLVT 180630Z 22004KT 8000 FEW020 34/28 Q1011 NOSIG
2026-03-18 06:00:00,METAR VLVT 180600Z 22006KT 8000 FEW020 33/28 Q1012 NOSIG
2026-03-18 05:30:00,METAR VLVT 180530Z 18002KT 8000 FEW020 33/28 Q1012 NOSIG
2026-03-18 05:00:00,METAR VLVT 180500Z 27002KT 8000 FEW020 33/27 Q1013 NOSIG
2026-03-18 04:30:00,METAR VLVT 180430Z 04002KT 7000 NSC 32/27 Q1013 NOSIG
2026-03-18 04:00:00,METAR VLVT 180400Z 12004KT 7000 NSC 32/26 Q1014 NOSIG
2026-03-18 03:30:00,METAR VLVT 180330Z 18002KT 7000 NSC 31/25 Q1014 NOSIG
2026-03-18 03:00:00,METAR VLVT 180300Z 12002KT 7000 NSC 30/25 Q1014 NOSIG
2026-03-18 02:30:00,METAR VLVT 180230Z 04002KT 7000 NSC 28/24 Q1014 NOSIG
2026-03-18 02:00:00,METAR VLVT 180200Z 04004KT 7000 NSC 27/22 Q1014 NOSIG
2026-03-18 01:30:00,METAR VLVT 180130Z 04004KT 6000 NSC 26/22 Q1014 NOSIG
2026-03-18 01:00:00,METAR VLVT 180100Z 34004KT 5000 BR NSC 25/21 Q1014 NOSIG
2026-03-18 00:00:00,METAR VLVT 180000Z 32002KT 5000 BR NSC 21/18 Q1012 NOSIG
2026-03-17 23:30:00,METAR VLVT 172330Z 20002KT 5000 BR NSC 21/17 Q1012 NOSIG
2026-03-17 23:00:00,METAR VLVT 172300Z 32002KT 5000 BR NSC 22/18 Q1011 NOSIG
2026-03-17 16:00:00,METAR VLVT 171600Z 30004KT 5000 BR NSC 25/21 Q1012 NOSIG
2026-03-17 15:30:00,METAR VLVT 171530Z 30004KT 5000 BR NSC 25/21 Q1012 NOSIG
2026-03-17 15:00:00,METAR VLVT 171500Z 00000KT 5000 BR NSC 25/21 Q1012 NOSIG
2026-03-17 14:30:00,METAR VLVT 171430Z 24002KT 5000 BR NSC 26/22 Q1011 NOSIG
2026-03-17 14:00:00,METAR VLVT 171400Z 24002KT 5000 BR NSC 26/22 Q1011 NOSIG
2026-03-17 13:30:00,METAR VLVT 171330Z 27002KT 5000 BR NSC 26/22 Q1011 NOSIG
2026-03-17 13:00:00,METAR VLVT 171300Z 00000KT 5000 BR NSC 27/23 Q1010 NOSIG
2026-03-17 12:30:00,METAR VLVT 171230Z 00000KT 6000 FEW050 28/23 Q1010 NOSIG
2026-03-17 12:00:00,METAR VLVT 171200Z 04002KT 6000 FEW050 28/24 Q1009 NOSIG
2026-03-17 11:30:00,METAR VLVT 171130Z 00000KT 7000 FEW050 29/24 Q1009 NOSIG
2026-03-17 11:00:00,METAR VLVT 171100Z 16004KT 8000 FEW050 30/25 Q1008 NOSIG
2026-03-17 10:00:00,METAR VLVT 171000Z 16002KT 8000 FEW020 32/26 Q1008 NOSIG
2026-03-17 09:30:00,METAR VLVT 170930Z 16004KT 8000 FEW020 33/27 Q1008 NOSIG
2026-03-17 09:00:00,METAR VLVT 170900Z 18004KT 8000 FEW020 33/27 Q1008 NOSIG
2026-03-17 08:30:00,METAR VLVT 170830Z 18004KT 8000 FEW020 32/27 Q1009 NOSIG
2026-03-17 08:00:00,METAR VLVT 170800Z 24004KT 8000 FEW020 32/27 Q1009 NOSIG
2026-03-17 07:30:00,METAR VLVT 170730Z 14004KT 8000 FEW020 32/27 Q1010 NOSIG
2026-03-17 07:00:00,METAR VLVT 170700Z 22006KT 8000 FEW020 32/27 Q1010 NOSIG
2026-03-17 06:00:00,METAR VLVT 170600Z 14004KT 8000 NSC 32/26 Q1012 NOSIG
2026-03-17 05:30:00,METAR VLVT 170530Z 18004KT 8000 NSC 32/26 Q1012 NOSIG
2026-03-17 05:00:00,METAR VLVT 170500Z 14004KT 8000 NSC 31/26 Q1013 NOSIG
2026-03-17 04:30:00,METAR VLVT 170430Z 24004KT 8000 NSC 30/25 Q1014 NOSIG
2026-03-17 04:00:00,METAR VLVT 170400Z 14006KT 8000 NSC 30/25 Q1014 NOSIG
2026-03-17 03:00:00,METAR VLVT 170300Z 12006KT 8000 NSC 28/24 Q1015 NOSIG
2026-03-17 02:30:00,METAR VLVT 170230Z 12008KT 8000 NSC 27/23 Q1015 NOSIG
2026-03-17 02:00:00,METAR VLVT 170200Z 14006KT 8000 NSC 26/22 Q1014 NOSIG
2026-03-17 01:30:00,METAR VLVT 170130Z 12006KT 8000 NSC 26/22 Q1014 NOSIG
2026-03-17 01:00:00,METAR VLVT 170100Z 12006KT 8000 NSC 24/20 Q1014 NOSIG
2026-03-17 00:30:00,METAR VLVT 170030Z 09004KT 7000 NSC 23/19 Q1013 NOSIG
2026-03-17 00:00:00,METAR VLVT 170000Z 09002KT 7000 NSC 22/18 Q1013 NOSIG
2026-03-16 23:00:00,METAR VLVT 162300Z 02002KT 5000 BR SCT050 21/17 Q1012 NOSIG
2026-03-16 16:00:00,METAR VLVT 161600Z 22002KT 5000 BR NSC 23/19 Q1012 NOSIG
2026-03-16 15:00:00,METAR VLVT 161500Z 09002KT 5000 BR NSC 24/20 Q1012 NOSIG
2026-03-16 14:30:00,METAR VLVT 161430Z 34002KT 5000 BR NSC 25/21 Q1012 NOSIG
2026-03-16 14:00:00,METAR VLVT 161400Z 34002KT 5000 BR NSC 25/21 Q1012 NOSIG
2026-03-16 13:30:00,METAR VLVT 161330Z 04002KT 5000 BR SCT050 25/21 Q1011 NOSIG
2026-03-16 13:00:00,METAR VLVT 161300Z 00000KT 5000 BR SCT050 26/22 Q1011 NOSIG
2026-03-16 12:30:00,METAR VLVT 161230Z 00000KT 5000 BR SCT050 26/22 Q1010 NOSIG
2026-03-16 12:00:00,METAR VLVT 161200Z 18002KT 5000 BR SCT050 27/22 Q1010 NOSIG
2026-03-16 11:30:00,METAR VLVT 161130Z 22004KT 7000 NSC 28/23 Q1010 NOSIG
2026-03-16 11:00:00,METAR VLVT 161100Z 18004KT 8000 NSC 29/24 Q1010 NOSIG
2026-03-16 10:30:00,METAR VLVT 161030Z 22004KT 8000 NSC 31/26 Q1010 NOSIG
2026-03-16 10:00:00,METAR VLVT 161000Z 18004KT 9999 FEW020 31/26 Q1010 NOSIG
2026-03-16 09:30:00,METAR VLVT 160930Z 14002KT 9999 FEW020 32/26 Q1010 NOSIG
2026-03-16 09:00:00,METAR VLVT 160900Z 32002KT 9999 FEW020 32/26 Q1010 NOSIG
2026-03-16 08:30:00,METAR VLVT 160830Z 36004KT 9999 FEW020 32/26 Q1010 NOSIG
2026-03-16 08:00:00,METAR VLVT 160800Z 27006KT 9999 FEW020 32/26 Q1011 NOSIG
2026-03-16 07:30:00,METAR VLVT 160730Z 32002KT 9999 FEW020 31/26 Q1011 NOSIG
2026-03-16 07:00:00,METAR VLVT 160700Z 24006KT 9999 FEW020 31/26 Q1012 NOSIG
2026-03-16 06:30:00,METAR VLVT 160630Z 16004KT 9999 SCT020 30/25 Q1013 NOSIG
2026-03-16 06:00:00,METAR VLVT 160600Z 16006KT 9999 SCT020 30/25 Q1014 NOSIG
2026-03-16 05:00:00,METAR VLVT 160500Z 22004KT 9999 FEW020 29/24 Q1015 NOSIG
2026-03-16 04:30:00,METAR VLVT 160430Z 06004KT CAVOK 28/22 Q1016 NOSIG
2026-03-16 04:00:00,METAR VLVT 160400Z 12004KT CAVOK 28/22 Q1016 NOSIG
2026-03-16 03:30:00,METAR VLVT 160330Z 09006KT CAVOK 27/23 Q1017 NOSIG
2026-03-16 03:00:00,METAR VLVT 160300Z 09006KT 8000 NSC 26/22 Q1017 NOSIG
2026-03-16 02:30:00,METAR VLVT 160230Z 09004KT 8000 NSC 26/21 Q1017 NOSIG
2026-03-16 02:00:00,METAR VLVT 160200Z 12006KT 8000 NSC 25/21 Q1017 NOSIG
2026-03-16 01:30:00,METAR VLVT 160130Z 09002KT 7000 NSC 25/21 Q1017 NOSIG
2026-03-16 00:00:00,METAR VLVT 160000Z 22002KT 7000 NSC 21/16 Q1015 NOSIG
2026-03-15 23:30:00,METAR VLVT 152330Z 00000KT 7000 NSC 20/16 Q1015 NOSIG
2026-03-15 23:00:00,METAR VLVT 152300Z 16002KT 7000 NSC 21/17 Q1014 NOSIG
2026-03-15 19:00:00,METAR VLVT 151900Z 09004KT 6000 NSC 23/19 Q1014 NOSIG
2026-03-15 18:00:00,METAR VLVT 151800Z 09004KT 6000 NSC 22/18 Q1014 NOSIG
2026-03-15 17:30:00,METAR VLVT 151730Z 09002KT 6000 NSC 22/18 Q1014 NOSIG
2026-03-15 17:00:00,METAR VLVT 151700Z 06002KT 6000 NSC 22/19 Q1014 NOSIG
2026-03-15 16:30:00,METAR VLVT 151630Z 34002KT 6000 NSC 23/19 Q1014 NOSIG
2026-03-15 16:00:00,METAR VLVT 151600Z 34004KT 6000 NSC 23/19 Q1014 NOSIG
2026-03-15 15:30:00,METAR VLVT 151530Z 32002KT 6000 NSC 23/19 Q1015 NOSIG
2026-03-15 15:00:00,METAR VLVT 151500Z 34002KT 6000 NSC 23/19 Q1014 NOSIG
2026-03-15 14:30:00,METAR VLVT 151430Z 00000KT 6000 NSC 24/20 Q1014 NOSIG
2026-03-15 14:00:00,METAR VLVT 151400Z 00000KT 6000 NSC 24/20 Q1014 NOSIG
2026-03-15 13:30:00,METAR VLVT 151330Z 00000KT 6000 NSC 25/21 Q1014 NOSIG
2026-03-15 13:00:00,METAR VLVT 151300Z 00000KT 6000 NSC 24/20 Q1014 NOSIG
2026-03-15 12:30:00,METAR VLVT 151230Z 00000KT 6000 NSC 24/20 Q1013 NOSIG
2026-03-15 12:00:00,METAR VLVT 151200Z 22002KT 6000 NSC 26/22 Q1013 NOSIG
2026-03-15 11:30:00,METAR VLVT 151130Z 22002KT 7000 FEW020 28/23 Q1013 NOSIG
2026-03-15 11:00:00,METAR VLVT 151100Z 22002KT 8000 FEW020 29/24 Q1012 NOSIG
2026-03-15 10:30:00,METAR VLVT 151030Z 18002KT 8000 FEW020 30/25 Q1012 NOSIG
2026-03-15 10:00:00,METAR VLVT 151000Z 20004KT 8000 FEW020 30/25 Q1012 NOSIG
2026-03-15 09:00:00,METAR VLVT 150900Z 14002KT 8000 FEW020 31/25 Q1013 NOSIG
2026-03-15 08:30:00,METAR VLVT 150830Z 09002KT 8000 SCT020 30/25 Q1013 NOSIG
