Time_recorded,METAR
2026-05-02 15:30:00,METAR GCLP 021530Z 03013KT 350V050 9999 FEW030 23/16 Q1018 NOSIG
2026-05-02 15:00:00,METAR GCLP 021500Z 03012KT 360V060 9999 FEW030 23/16 Q1018 NOSIG
2026-05-02 14:30:00,METAR GCLP 021430Z 03012KT 350V070 9999 FEW030 22/16 Q1018 NOSIG
2026-05-02 14:00:00,METAR GCLP 021400Z 03011KT 350V060 9999 FEW030 22/16 Q1018 NOSIG
2026-05-02 13:30:00,METAR GCLP 021330Z 03012KT 350V070 9999 FEW030 22/16 Q1019 NOSIG
2026-05-02 13:00:00,METAR GCLP 021300Z 04013KT 360V070 9999 FEW030 22/16 Q1019 NOSIG
2026-05-02 12:30:00,METAR GCLP 021230Z 03012KT 010V070 9999 FEW030 23/17 Q1019 NOSIG
2026-05-02 12:00:00,METAR GCLP 021200Z 04014KT 010V070 9999 FEW030 23/16 Q1019 NOSIG
2026-05-02 11:30:00,METAR GCLP 021130Z 03014KT 360V060 9999 FEW025 22/16 Q1020 NOSIG
2026-05-02 11:00:00,METAR GCLP 021100Z 03016KT 9999 FEW020 22/16 Q1020 NOSIG
2026-05-02 10:30:00,METAR GCLP 021030Z 03016KT 9999 FEW020 22/16 Q1020 NOSIG
2026-05-02 10:00:00,METAR GCLP 021000Z 03016KT 9999 FEW020 22/16 Q1019 NOSIG
2026-05-02 09:30:00,METAR GCLP 020930Z 03015KT 9999 FEW020 21/16 Q1019 NOSIG
2026-05-02 09:00:00,METAR GCLP 020900Z 03015KT 9999 FEW020 21/16 Q1019 NOSIG
2026-05-02 08:30:00,METAR GCLP 020830Z 36012KT 320V030 9999 SCT020 21/15 Q1019 NOSIG
2026-05-02 08:00:00,METAR GCLP 020800Z 35012KT 9999 SCT020 20/15 Q1019 NOSIG
2026-05-02 07:30:00,METAR GCLP 020730Z 35011KT 9999 FEW016 19/15 Q1019 NOSIG
2026-05-02 07:00:00,METAR GCLP 020700Z 36010KT 9999 FEW016 19/15 Q1019 NOSIG
2026-05-02 06:30:00,METAR GCLP 020630Z 36010KT 9999 FEW018 19/15 Q1019 NOSIG
2026-05-02 06:00:00,METAR GCLP 020600Z 01010KT 9999 FEW020 19/15 Q1018 NOSIG
2026-05-02 05:30:00,METAR GCLP 020530Z 01010KT 9999 FEW018 SCT027 19/15 Q1018 NOSIG
2026-05-02 05:00:00,METAR GCLP 020500Z 01010KT 9999 SCT018 BKN025 19/15 Q1018 NOSIG
2026-05-02 04:30:00,METAR GCLP 020430Z 02010KT 9999 SCT018 BKN025 19/15 Q1018 NOSIG
2026-05-02 04:00:00,METAR GCLP 020400Z 35009KT 9999 SCT018 BKN027 19/14 Q1018 NOSIG
2026-05-02 03:30:00,METAR GCLP 020330Z 36010KT 9999 FEW018 SCT027 18/14 Q1018 NOSIG
2026-05-02 03:00:00,METAR GCLP 020300Z 36009KT 9999 FEW020 18/15 Q1018 NOSIG
2026-05-02 02:30:00,METAR GCLP 020230Z 01010KT 9999 SCT025 19/15 Q1019 NOSIG
2026-05-02 02:00:00,METAR GCLP 020200Z 36010KT 9999 SCT025 19/15 Q1019 NOSIG
2026-05-02 01:30:00,METAR GCLP 020130Z 35010KT 9999 SCT025 19/14 Q1019 NOSIG
2026-05-02 01:00:00,METAR GCLP 020100Z 36010KT 9999 FEW025 19/15 Q1020 NOSIG
2026-05-02 00:30:00,METAR GCLP 020030Z 01012KT 9999 FEW025 19/15 Q1020 NOSIG
2026-05-02 00:00:00,METAR GCLP 020000Z 36012KT 9999 FEW025 19/14 Q1020 NOSIG
2026-05-01 23:30:00,METAR GCLP 012330Z 36012KT 9999 FEW030 19/14 Q1020 NOSIG
2026-05-01 23:00:00,METAR GCLP 012300Z 36010KT CAVOK 19/14 Q1020 NOSIG
2026-05-01 22:30:00,METAR GCLP 012230Z 01010KT CAVOK 19/14 Q1020 NOSIG
2026-05-01 22:00:00,METAR GCLP 012200Z 01009KT 9999 FEW030 20/15 Q1020 NOSIG
2026-05-01 21:30:00,METAR GCLP 012130Z 02010KT 9999 FEW030 20/14 Q1020 NOSIG
2026-05-01 21:00:00,METAR GCLP 012100Z 02008KT 350V050 9999 FEW030 20/14 Q1019 NOSIG
2026-05-01 20:30:00,METAR GCLP 012030Z 01008KT 9999 FEW030 20/14 Q1019 NOSIG
2026-05-01 20:00:00,METAR GCLP 012000Z 02009KT 9999 FEW030 20/14 Q1019 NOSIG
2026-05-01 19:30:00,METAR GCLP 011930Z 03009KT 9999 FEW030 20/14 Q1019 NOSIG
2026-05-01 19:00:00,METAR GCLP 011900Z 03009KT 9999 FEW030 21/14 Q1018 NOSIG
2026-05-01 18:30:00,METAR GCLP 011830Z 02009KT 360V060 9999 FEW030 21/14 Q1018 NOSIG
2026-05-01 18:00:00,METAR GCLP 011800Z 03007KT 010V080 9999 FEW030 22/14 Q1018 NOSIG
2026-05-01 17:30:00,METAR GCLP 011730Z 06007KT 020V080 9999 FEW030 22/14 Q1018 NOSIG
2026-05-01 17:00:00,METAR GCLP 011700Z 07007KT 9999 FEW030 22/14 Q1018 NOSIG
2026-05-01 16:30:00,METAR GCLP 011630Z 07006KT 9999 FEW030 22/14 Q1018 NOSIG
2026-05-01 16:00:00,METAR GCLP 011600Z 06006KT 020V120 9999 FEW030 22/14 Q1019 NOSIG
2026-05-01 15:30:00,METAR GCLP 011530Z 08006KT 030V120 9999 FEW025 22/14 Q1019 NOSIG
2026-05-01 15:00:00,METAR GCLP 011500Z 09006KT 070V130 9999 FEW025 22/14 Q1019 NOSIG
2026-05-01 14:30:00,METAR GCLP 011430Z 09007KT 060V120 9999 FEW025 22/15 Q1019 NOSIG
2026-05-01 14:00:00,METAR GCLP 011400Z 09007KT 050V120 9999 FEW025 22/14 Q1019 NOSIG
2026-05-01 13:30:00,METAR GCLP 011330Z 09007KT 060V120 9999 FEW025 22/14 Q1019 NOSIG
2026-05-01 13:00:00,METAR GCLP 011300Z 09007KT 050V120 9999 FEW025 22/15 Q1019 NOSIG
2026-05-01 12:30:00,METAR GCLP 011230Z 07008KT 020V110 9999 FEW025 22/15 Q1019 NOSIG
2026-05-01 12:00:00,METAR GCLP 011200Z 09006KT 060V120 9999 FEW025 21/15 Q1019 NOSIG
2026-05-01 11:30:00,METAR GCLP 011130Z 10007KT 9999 FEW025 21/15 Q1019 NOSIG
2026-05-01 11:00:00,METAR GCLP 011100Z 12006KT 080V150 9999 FEW025 22/16 Q1020 NOSIG
2026-05-01 10:30:00,METAR GCLP 011030Z 13007KT 090V150 9999 FEW025 21/15 Q1020 NOSIG
2026-05-01 10:00:00,METAR GCLP 011000Z 11006KT 060V150 9999 FEW025 20/15 Q1020 NOSIG
2026-05-01 09:30:00,METAR GCLP 010930Z 14005KT 080V200 9999 FEW025 20/15 Q1020 NOSIG
2026-05-01 09:00:00,METAR GCLP 010900Z 14004KT 100V210 9999 SCT025 20/15 Q1020 NOSIG
2026-05-01 08:30:00,METAR GCLP 010830Z 22004KT 180V260 9999 FEW018 BKN025 19/15 Q1020 NOSIG
2026-05-01 08:00:00,METAR GCLP 010800Z 26004KT 230V300 9999 SCT018 19/15 Q1019 NOSIG
2026-05-01 07:30:00,METAR GCLP 010730Z 28004KT 9999 SCT018 18/15 Q1019 NOSIG
2026-05-01 07:00:00,METAR GCLP 010700Z 31005KT 9999 FEW025 17/14 Q1018 NOSIG
2026-05-01 06:30:00,METAR GCLP 010630Z 31005KT 290V350 9999 FEW025 17/14 Q1018 NOSIG
2026-05-01 06:00:00,METAR GCLP 010600Z 30006KT 9999 FEW025 17/14 Q1018 NOSIG
2026-05-01 05:30:00,METAR GCLP 010530Z 29004KT 9999 FEW030 17/14 Q1018 NOSIG
2026-05-01 05:00:00,METAR GCLP 010500Z 30005KT 9999 FEW030 17/14 Q1018 NOSIG
2026-05-01 04:30:00,METAR GCLP 010430Z 29004KT 9999 FEW030 17/14 Q1018 NOSIG
2026-05-01 04:00:00,METAR GCLP 010400Z 30003KT 9999 FEW030 17/14 Q1018 NOSIG
2026-05-01 03:30:00,METAR GCLP 010330Z 27004KT 9999 FEW030 17/15 Q1018 NOSIG
2026-05-01 03:00:00,METAR GCLP 010300Z 28004KT 9999 FEW030 17/14 Q1018 NOSIG
2026-05-01 02:30:00,METAR GCLP 010230Z 29003KT 9999 FEW035 17/15 Q1018 NOSIG
2026-05-01 02:00:00,METAR GCLP 010200Z 30003KT 9999 FEW035 18/14 Q1018 NOSIG
2026-05-01 01:30:00,METAR GCLP 010130Z 30003KT 9999 FEW035 18/15 Q1018 NOSIG
2026-05-01 01:00:00,METAR GCLP 010100Z 29003KT 260V320 9999 FEW035 18/15 Q1019 NOSIG
2026-05-01 00:30:00,METAR GCLP 010030Z 33004KT 9999 FEW035 18/15 Q1019 NOSIG
2026-05-01 00:00:00,METAR GCLP 010000Z 32004KT 9999 FEW035 18/15 Q1019 NOSIG
2026-04-30 23:30:00,METAR GCLP 302330Z 32003KT 9999 FEW035 18/15 Q1019 NOSIG
2026-04-30 23:00:00,METAR GCLP 302300Z 30003KT 9999 FEW035 19/16 Q1019 NOSIG
2026-04-30 22:30:00,METAR GCLP 302230Z 04003KT 9999 FEW035 19/16 Q1019 NOSIG
2026-04-30 22:00:00,METAR GCLP 302200Z 07002KT 9999 FEW035 20/16 Q1019 NOSIG
2026-04-30 21:30:00,METAR GCLP 302130Z VRB02KT 9999 BKN035 20/16 Q1019 NOSIG
2026-04-30 21:00:00,METAR GCLP 302100Z 12003KT 050V150 9999 BKN035 20/16 Q1019 NOSIG
2026-04-30 20:30:00,METAR GCLP 302030Z 14004KT 110V170 9999 FEW025 BKN035 20/16 Q1018 NOSIG
2026-04-30 20:00:00,METAR GCLP 302000Z 15005KT 110V170 9999 FEW025 BKN035 20/16 Q1018 NOSIG
2026-04-30 19:30:00,METAR GCLP 301930Z 15006KT 9999 FEW025 BKN035 20/16 Q1017 NOSIG
2026-04-30 19:00:00,METAR GCLP 301900Z 16008KT 9999 FEW025 BKN035 20/15 Q1017 NOSIG
2026-04-30 18:30:00,METAR GCLP 301830Z 15007KT 130V200 9999 FEW025 BKN035 21/16 Q1017 NOSIG
2026-04-30 18:00:00,METAR GCLP 301800Z 16009KT 110V180 9999 FEW025 BKN037 21/16 Q1017 NOSIG
2026-04-30 17:30:00,METAR GCLP 301730Z 15009KT 090V190 9999 FEW025 BKN037 21/16 Q1017 NOSIG
2026-04-30 17:00:00,METAR GCLP 301700Z 15009KT 120V180 9999 FEW025 BKN037 21/16 Q1017 NOSIG
2026-04-30 16:30:00,METAR GCLP 301630Z 15009KT 110V170 9999 FEW025 BKN037 21/16 Q1017 NOSIG
2026-04-30 16:00:00,METAR GCLP 301600Z 15009KT 110V170 9999 FEW025 BKN035 21/16 Q1017 NOSIG
2026-04-30 15:00:00,METAR GCLP 301500Z 16010KT 9999 FEW025 BKN033 21/15 Q1017 NOSIG
2026-04-30 14:30:00,METAR GCLP 301430Z 16010KT 100V180 9999 FEW025 BKN035 21/16 Q1017 NOSIG
2026-04-30 14:00:00,METAR GCLP 301400Z 16011KT 9999 FEW025 BKN038 21/15 Q1017 NOSIG
2026-04-30 13:30:00,METAR GCLP 301330Z 16010KT 130V190 9999 FEW030 BKN040 21/15 Q1017 NOSIG
2026-04-30 13:00:00,METAR GCLP 301300Z 15009KT 110V170 9999 FEW025 BKN040 21/15 Q1017 NOSIG
2026-04-30 12:30:00,METAR GCLP 301230Z 15009KT 110V190 9999 FEW025 SCT040 22/16 Q1017 NOSIG
2026-04-30 12:00:00,METAR GCLP 301200Z 13009KT 9999 FEW025 SCT045 21/15 Q1017 NOSIG
2026-04-30 11:30:00,METAR GCLP 301130Z 14008KT 080V170 9999 FEW025 22/16 Q1018 NOSIG
2026-04-30 11:00:00,METAR GCLP 301100Z 14007KT 100V160 9999 FEW025 21/16 Q1018 NOSIG
2026-04-30 10:30:00,METAR GCLP 301030Z 13007KT 050V160 9999 FEW025 21/16 Q1017 NOSIG
2026-04-30 10:00:00,METAR GCLP 301000Z 14007KT 100V170 9999 FEW025 21/15 Q1017 NOSIG
2026-04-30 09:30:00,METAR GCLP 300930Z 13006KT 070V190 9999 FEW025 21/15 Q1017 NOSIG
2026-04-30 09:00:00,METAR GCLP 300900Z 15005KT 9999 FEW025 20/15 Q1017 NOSIG
2026-04-30 08:30:00,METAR GCLP 300830Z 15005KT 100V180 9999 FEW025 20/15 Q1017 NOSIG
2026-04-30 08:00:00,METAR GCLP 300800Z VRB03KT 9999 FEW025 19/14 Q1017 NOSIG
2026-04-30 07:30:00,METAR GCLP 300730Z 26004KT 230V290 9999 FEW025 18/14 Q1016 NOSIG
2026-04-30 07:00:00,METAR GCLP 300700Z VRB05KT 9999 FEW025 17/13 Q1016 NOSIG
2026-04-30 06:30:00,METAR GCLP 300630Z 28004KT 9999 FEW025 16/13 Q1015 NOSIG
2026-04-30 06:00:00,METAR GCLP 300600Z 29004KT 270V330 9999 FEW025 SCT050 17/13 Q1015 NOSIG
2026-04-30 05:30:00,METAR GCLP 300530Z 27005KT 9999 SCT050 17/13 Q1015 NOSIG
2026-04-30 05:00:00,METAR GCLP 300500Z 26002KT 9999 SCT050 16/12 Q1015 NOSIG
2026-04-30 04:30:00,METAR GCLP 300430Z 27005KT 9999 SCT050 17/13 Q1015 NOSIG
2026-04-30 04:00:00,METAR GCLP 300400Z VRB02KT 9999 SCT050 17/13 Q1014 NOSIG
2026-04-30 03:30:00,METAR GCLP 300330Z 26005KT 9999 BKN050 17/13 Q1015 NOSIG
2026-04-30 03:00:00,METAR GCLP 300300Z 27004KT 9999 BKN050 17/13 Q1015 NOSIG
2026-04-30 02:30:00,METAR GCLP 300230Z 27002KT 9999 BKN050 18/13 Q1015 NOSIG
2026-04-30 02:00:00,METAR GCLP 300200Z 27005KT 9999 BKN050 18/13 Q1015 NOSIG
2026-04-30 01:30:00,METAR GCLP 300130Z 28003KT 9999 BKN050 18/13 Q1015 NOSIG
2026-04-30 01:00:00,METAR GCLP 300100Z 30004KT 9999 FEW035 SCT045 18/13 Q1015 NOSIG
2026-04-30 00:30:00,METAR GCLP 300030Z 29003KT 9999 FEW035 SCT045 18/14 Q1015 NOSIG
2026-04-30 00:00:00,METAR GCLP 300000Z 30003KT 260V320 9999 FEW035 SCT050 18/14 Q1015 NOSIG
2026-04-29 23:30:00,METAR GCLP 292330Z 00000KT 9999 FEW035 SCT050 19/15 Q1015 NOSIG
2026-04-29 23:00:00,METAR GCLP 292300Z 14003KT 9999 FEW035 BKN045 19/15 Q1015 NOSIG
2026-04-29 22:30:00,METAR GCLP 292230Z VRB02KT 9999 FEW035 BKN045 19/15 Q1015 NOSIG
2026-04-29 22:00:00,METAR GCLP 292200Z 11002KT 9999 FEW035 BKN045 19/15 Q1015 NOSIG
2026-04-29 21:30:00,METAR GCLP 292130Z 15002KT 9999 FEW035 BKN045 19/14 Q1015 NOSIG
2026-04-29 21:00:00,METAR GCLP 292100Z VRB01KT 9999 BKN035 19/14 Q1014 NOSIG
2026-04-29 20:30:00,METAR GCLP 292030Z 16003KT 100V190 9999 BKN035 19/14 Q1014 NOSIG
2026-04-29 20:00:00,METAR GCLP 292000Z 15004KT 100V200 9999 BKN035 19/14 Q1013 NOSIG
2026-04-29 19:30:00,METAR GCLP 291930Z 14004KT 070V200 9999 BKN035 19/14 Q1013 NOSIG
2026-04-29 19:00:00,METAR GCLP 291900Z 14004KT 080V160 9999 SCT035 BKN045 19/14 Q1013 NOSIG
2026-04-29 18:30:00,METAR GCLP 291830Z 14004KT 9999 SCT035 BKN045 19/14 Q1013 NOSIG
2026-04-29 18:00:00,METAR GCLP 291800Z 14004KT 060V160 9999 SCT030 BKN045 19/14 Q1012 NOSIG
2026-04-29 17:30:00,METAR GCLP 291730Z 13003KT 060V200 9999 SCT030 BKN045 20/14 Q1012 NOSIG
2026-04-29 17:00:00,METAR GCLP 291700Z 13003KT 040V200 9999 SCT025 BKN040 20/14 Q1013 NOSIG
2026-04-29 16:30:00,METAR GCLP 291630Z 10003KT 030V130 9999 SCT035 BKN040 19/14 Q1013 NOSIG
2026-04-29 16:00:00,METAR GCLP 291600Z 09003KT 020V190 9999 SCT035 BKN038 19/14 Q1013 NOSIG
2026-04-29 15:30:00,METAR GCLP 291530Z 09003KT 050V140 9999 SCT035 BKN038 19/14 Q1013 NOSIG
2026-04-29 15:00:00,METAR GCLP 291500Z 09003KT 040V160 9999 SCT035 BKN040 19/14 Q1013 NOSIG
2026-04-29 14:30:00,METAR GCLP 291430Z VRB04KT 9999 SCT035 BKN040 20/13 Q1013 NOSIG
2026-04-29 14:00:00,METAR GCLP 291400Z 12004KT 080V140 9999 FEW035 BKN040 20/13 Q1014 NOSIG
2026-04-29 13:30:00,METAR GCLP 291330Z 10004KT 070V130 9999 FEW030 BKN040 20/14 Q1014 NOSIG
2026-04-29 13:00:00,METAR GCLP 291300Z 11006KT 060V150 9999 FEW030 BKN045 20/14 Q1014 NOSIG
2026-04-29 12:30:00,METAR GCLP 291230Z 11006KT 9999 FEW030 BKN045 19/14 Q1014 NOSIG
2026-04-29 12:00:00,METAR GCLP 291200Z 09006KT 060V120 9999 FEW032 OVC047 20/14 Q1014 NOSIG
2026-04-29 11:30:00,METAR GCLP 291130Z 09006KT 9999 FEW028 OVC045 19/14 Q1014 NOSIG
2026-04-29 11:00:00,METAR GCLP 291100Z 09007KT 9999 FEW025 OVC045 19/14 Q1014 NOSIG
2026-04-29 10:30:00,METAR GCLP 291030Z 08008KT 9999 FEW025 OVC045 19/15 Q1014 NOSIG
2026-04-29 10:00:00,METAR GCLP 291000Z 08008KT 9999 FEW030 BKN048 19/15 Q1014 NOSIG
2026-04-29 09:30:00,METAR GCLP 290930Z 06008KT 9999 FEW030 BKN050 20/15 Q1014 NOSIG
2026-04-29 09:00:00,METAR GCLP 290900Z 02007KT 350V050 9999 FEW035 BKN050 19/13 Q1014 NOSIG
2026-04-29 08:30:00,METAR GCLP 290830Z 01007KT 9999 FEW030 BKN045 19/13 Q1014 NOSIG
2026-04-29 08:00:00,METAR GCLP 290800Z 02008KT 9999 BKN043 19/13 Q1014 NOSIG
2026-04-29 07:30:00,METAR GCLP 290730Z 02010KT 9999 BKN043 19/13 Q1013 NOSIG
2026-04-29 07:00:00,METAR GCLP 290700Z 02010KT 9999 BKN043 19/13 Q1013 NOSIG
2026-04-29 06:30:00,METAR GCLP 290630Z 36007KT 330V030 9999 BKN040 19/13 Q1013 NOSIG
2026-04-29 06:00:00,METAR GCLP 290600Z 35007KT 9999 BKN040 19/13 Q1013 NOSIG
2026-04-29 05:30:00,METAR GCLP 290530Z 36007KT 9999 BKN040 18/13 Q1012 NOSIG
2026-04-29 05:00:00,METAR GCLP 290500Z 35008KT 9999 BKN035 18/13 Q1012 NOSIG
2026-04-29 04:30:00,METAR GCLP 290430Z 35009KT 9999 BKN035 18/13 Q1013 NOSIG
2026-04-29 04:00:00,METAR GCLP 290400Z 36010KT 9999 BKN035 18/13 Q1012 NOSIG
2026-04-29 03:30:00,METAR GCLP 290330Z 36009KT 9999 BKN030 19/13 Q1013 NOSIG
2026-04-29 03:00:00,METAR GCLP 290300Z 35007KT 9999 BKN030 18/13 Q1013 NOSIG
2026-04-29 02:30:00,METAR GCLP 290230Z 35009KT 9999 BKN025 19/13 Q1013 NOSIG
2026-04-29 02:00:00,METAR GCLP 290200Z 01010KT 9999 BKN025 19/13 Q1014 NOSIG
2026-04-29 01:30:00,METAR GCLP 290130Z 01011KT 9999 BKN025 19/13 Q1014 NOSIG
2026-04-29 01:00:00,METAR GCLP 290100Z 02010KT 9999 BKN025 19/13 Q1014 NOSIG
2026-04-29 00:30:00,METAR GCLP 290030Z 01009KT 9999 BKN023 19/14 Q1015 NOSIG
2026-04-29 00:00:00,METAR GCLP 290000Z 35007KT 9999 BKN030 19/14 Q1015 NOSIG
2026-04-28 23:30:00,METAR GCLP 282330Z 36010KT 9999 BKN025 18/14 Q1015 NOSIG
2026-04-28 23:00:00,METAR GCLP 282300Z 34007KT 9999 BKN025 19/14 Q1016 NOSIG
2026-04-28 22:30:00,METAR GCLP 282230Z 34010KT 9999 BKN025 19/14 Q1016 NOSIG
2026-04-28 22:00:00,METAR GCLP 282200Z 35009KT 9999 BKN023 19/14 Q1015 NOSIG
2026-04-28 21:30:00,METAR GCLP 282130Z 36010KT 9999 BKN025 19/14 Q1015 NOSIG
2026-04-28 21:00:00,METAR GCLP 282100Z 36011KT 9999 BKN030 19/14 Q1015 NOSIG
2026-04-28 20:30:00,METAR GCLP 282030Z 01012KT 330V030 9999 BKN030 19/14 Q1015 NOSIG
2026-04-28 20:00:00,METAR GCLP 282000Z 36015KT 330V030 9999 BKN030 19/13 Q1014 NOSIG
2026-04-28 19:30:00,METAR GCLP 281930Z 01014KT 9999 BKN030 19/13 Q1014 NOSIG
2026-04-28 19:00:00,METAR GCLP 281900Z 01015KT 9999 BKN030 20/13 Q1014 NOSIG
2026-04-28 18:30:00,METAR GCLP 281830Z 01014KT 340V040 9999 BKN030 20/13 Q1014 NOSIG
2026-04-28 18:00:00,METAR GCLP 281800Z 02016KT 9999 FEW025 BKN035 20/14 Q1014 NOSIG
2026-04-28 17:30:00,METAR GCLP 281730Z 02018KT 9999 FEW025 BKN035 20/14 Q1014 NOSIG
2026-04-28 17:00:00,METAR GCLP 281700Z 02017KT 350V050 9999 FEW025 BKN035 20/14 Q1014 NOSIG
2026-04-28 16:30:00,METAR GCLP 281630Z 36016KT 9999 BKN030 21/14 Q1014 NOSIG
2026-04-28 16:00:00,METAR GCLP 281600Z 01020KT 9999 BKN030 22/14 Q1014 NOSIG
2026-04-28 15:30:00,METAR GCLP 281530Z 03021KT 9999 SCT030 22/14 Q1014 NOSIG
2026-04-28 15:00:00,METAR GCLP 281500Z 04021KT 9999 SCT030 22/15 Q1014 NOSIG
2026-04-28 14:30:00,METAR GCLP 281430Z 04020KT 9999 SCT030 23/15 Q1015 NOSIG
2026-04-28 14:00:00,METAR GCLP 281400Z 04021KT 9999 SCT030 22/15 Q1015 NOSIG
2026-04-28 13:30:00,METAR GCLP 281330Z 04019KT 9999 SCT030 23/13 Q1015 NOSIG
2026-04-28 13:00:00,METAR GCLP 281300Z 03019KT 360V060 9999 SCT030 23/13 Q1015 NOSIG
2026-04-28 12:30:00,METAR GCLP 281230Z 02017KT 350V050 9999 SCT030 22/13 Q1015 NOSIG
2026-04-28 12:00:00,METAR GCLP 281200Z 02015KT 350V050 9999 BKN030 21/13 Q1016 NOSIG
2026-04-28 11:30:00,METAR GCLP 281130Z 36013KT 330V030 9999 BKN035 21/13 Q1016 NOSIG
2026-04-28 11:00:00,METAR GCLP 281100Z 01014KT 9999 BKN030 20/13 Q1016 NOSIG
2026-04-28 10:30:00,METAR GCLP 281030Z 01014KT 9999 BKN030 20/13 Q1016 NOSIG
2026-04-28 10:00:00,METAR GCLP 281000Z 36012KT 330V030 9999 BKN030 19/13 Q1016 NOSIG
2026-04-28 09:30:00,METAR GCLP 280930Z 34012KT 320V020 9999 BKN025 19/13 Q1016 NOSIG
2026-04-28 09:00:00,METAR GCLP 280900Z 36012KT 9999 BKN030 18/13 Q1016 NOSIG
2026-04-28 08:30:00,METAR GCLP 280830Z 35010KT 320V020 9999 BKN030 19/12 Q1015 NOSIG
2026-04-28 08:00:00,METAR GCLP 280800Z 36009KT 9999 BKN030 18/12 Q1015 NOSIG
2026-04-28 07:30:00,METAR GCLP 280730Z 33010KT 9999 BKN030 18/11 Q1015 NOSIG
2026-04-28 07:00:00,METAR GCLP 280700Z 35011KT 9999 BKN034 18/11 Q1015 NOSIG
2026-04-28 06:30:00,METAR GCLP 280630Z 34014KT 9999 BKN034 18/11 Q1015 NOSIG
2026-04-28 06:00:00,METAR GCLP 280600Z 35013KT 9999 BKN034 18/12 Q1014 NOSIG
2026-04-28 05:30:00,METAR GCLP 280530Z 36012KT 9999 BKN030 18/13 Q1014 NOSIG
2026-04-28 05:00:00,METAR GCLP 280500Z 35012KT 9999 BKN030 18/13 Q1014 NOSIG
2026-04-28 04:30:00,METAR GCLP 280430Z 35011KT 9999 BKN030 18/13 Q1014 NOSIG
2026-04-28 04:00:00,METAR GCLP 280400Z 01014KT 9999 BKN030 17/14 Q1015 NOSIG
2026-04-28 03:30:00,METAR GCLP 280330Z 01013KT 9999 BKN030 18/14 Q1015 NOSIG
2026-04-28 03:00:00,METAR GCLP 280300Z 36013KT 9999 BKN033 18/14 Q1015 NOSIG
2026-04-28 02:30:00,METAR GCLP 280230Z 01013KT 9999 BKN033 18/14 Q1015 NOSIG
2026-04-28 02:00:00,METAR GCLP 280200Z 35012KT 9999 BKN033 18/14 Q1015 NOSIG
2026-04-28 01:30:00,METAR GCLP 280130Z 35014KT 9999 BKN033 18/14 Q1016 NOSIG
2026-04-28 01:00:00,METAR GCLP 280100Z 36011KT 9999 BKN033 18/15 Q1016 NOSIG
2026-04-28 00:30:00,METAR GCLP 280030Z 35011KT 320V020 9999 BKN030 18/14 Q1016 NOSIG
2026-04-28 00:00:00,METAR GCLP 280000Z 36011KT 9999 BKN030 18/15 Q1017 NOSIG
2026-04-27 23:30:00,METAR GCLP 272330Z 35012KT 9999 BKN034 19/14 Q1017 NOSIG
2026-04-27 23:00:00,METAR GCLP 272300Z 36010KT 9999 BKN034 19/14 Q1017 NOSIG
2026-04-27 22:30:00,METAR GCLP 272230Z 35012KT 9999 BKN037 19/14 Q1017 NOSIG
2026-04-27 22:00:00,METAR GCLP 272200Z 35010KT 9999 BKN039 19/14 Q1017 NOSIG
2026-04-27 21:30:00,METAR GCLP 272130Z 35012KT 9999 FEW036 BKN040 19/14 Q1016 NOSIG
2026-04-27 21:00:00,METAR GCLP 272100Z 36013KT 9999 FEW034 BKN040 19/15 Q1016 NOSIG
2026-04-27 20:30:00,METAR GCLP 272030Z 35013KT 9999 SCT030 BKN040 19/15 Q1016 NOSIG
2026-04-27 20:00:00,METAR GCLP 272000Z 36013KT 9999 SCT030 BKN040 19/15 Q1016 NOSIG
2026-04-27 19:30:00,METAR GCLP 271930Z 36013KT 9999 FEW030 BKN040 19/15 Q1016 NOSIG
2026-04-27 19:00:00,METAR GCLP 271900Z 36013KT 9999 FEW035 BKN042 20/14 Q1015 NOSIG
2026-04-27 18:30:00,METAR GCLP 271830Z 36014KT 9999 FEW035 BKN042 20/15 Q1015 NOSIG
2026-04-27 18:00:00,METAR GCLP 271800Z 36014KT 9999 SCT038 BKN048 20/16 Q1015 NOSIG
2026-04-27 17:30:00,METAR GCLP 271730Z 01020KT 9999 FEW038 BKN050 20/16 Q1015 WS ALL RWY NOSIG
2026-04-27 17:00:00,METAR GCLP 271700Z 01021KT 9999 FEW035 BKN050 20/16 Q1014 WS ALL RWY NOSIG
2026-04-27 16:30:00,METAR GCLP 271630Z 02022KT 9999 FEW035 BKN050 21/16 Q1015 WS ALL RWY NOSIG
2026-04-27 16:00:00,METAR GCLP 271600Z 36021KT 9999 FEW035 BKN050 22/15 Q1015 WS ALL RWY NOSIG
2026-04-27 15:30:00,METAR GCLP 271530Z 01026KT 9999 FEW030 BKN050 22/15 Q1014 WS ALL RWY NOSIG
2026-04-27 15:00:00,METAR GCLP 271500Z 01022KT 330V030 9999 FEW030 BKN050 23/15 Q1014 WS ALL RWY NOSIG
2026-04-27 14:30:00,METAR GCLP 271430Z 01021KT 330V030 9999 FEW030 BKN050 23/15 Q1014 NOSIG
2026-04-27 14:00:00,METAR GCLP 271400Z 35019KT 9999 SCT030 24/15 Q1014 NOSIG
2026-04-27 13:30:00,METAR GCLP 271330Z 01020KT 9999 FEW030 23/14 Q1014 NOSIG
2026-04-27 13:00:00,METAR GCLP 271300Z 36021KT 330V030 9999 FEW030 23/14 Q1015 NOSIG
2026-04-27 12:30:00,METAR GCLP 271230Z 35017KT 9999 SCT032 23/14 Q1015 NOSIG
2026-04-27 12:00:00,METAR GCLP 271200Z 36015KT 330V030 9999 SCT032 23/14 Q1015 NOSIG
2026-04-27 11:30:00,METAR GCLP 271130Z 35015KT 320V030 9999 SCT035 24/14 Q1015 NOSIG
2026-04-27 11:00:00,METAR GCLP 271100Z 35015KT 9999 FEW032 SCT040 23/13 Q1016 NOSIG
2026-04-27 10:30:00,METAR GCLP 271030Z 34015KT 290V010 9999 FEW032 BKN040 22/13 Q1016 NOSIG
2026-04-27 10:00:00,METAR GCLP 271000Z 33016KT 300V360 9999 BKN032 BKN040 20/13 Q1016 NOSIG
2026-04-27 09:30:00,METAR GCLP 270930Z 35013KT 320V020 9999 FEW025 SCT034 BKN041 20/14 Q1016 NOSIG
2026-04-27 09:00:00,METAR GCLP 270900Z 35013KT 320V020 9999 FEW025 BKN037 BKN050 19/13 Q1016 NOSIG
2026-04-27 08:30:00,METAR GCLP 270830Z 35012KT 320V020 9999 FEW025 BKN035 BKN050 20/14 Q1016 NOSIG
2026-04-27 08:00:00,METAR GCLP 270800Z 35013KT 9999 FEW025 BKN035 BKN050 19/14 Q1015 NOSIG
2026-04-27 07:30:00,METAR GCLP 270730Z 35011KT 9999 FEW025 BKN035 19/14 Q1015 NOSIG
2026-04-27 07:00:00,METAR GCLP 270700Z 35010KT 9999 FEW020 SCT027 BKN040 18/15 Q1015 NOSIG
2026-04-27 06:30:00,METAR GCLP 270630Z 36010KT 9999 SCT020 BKN050 18/15 Q1015 NOSIG
2026-04-27 06:00:00,METAR GCLP 270600Z 36012KT 9999 BKN020 18/15 Q1014 NOSIG
2026-04-27 05:30:00,METAR GCLP 270530Z 36010KT 9999 BKN020 18/15 Q1014 NOSIG
2026-04-27 05:00:00,METAR GCLP 270500Z 36010KT 9999 SCT020 18/15 Q1014 NOSIG
2026-04-27 04:30:00,METAR GCLP 270430Z 36013KT 9999 FEW020 18/15 Q1014 NOSIG
2026-04-27 04:00:00,METAR GCLP 270400Z 36012KT 9999 FEW020 18/15 Q1014 NOSIG
2026-04-27 03:30:00,METAR GCLP 270330Z 36011KT 9999 FEW020 18/15 Q1014 NOSIG
2026-04-27 03:00:00,METAR GCLP 270300Z 36009KT 9999 FEW020 18/15 Q1014 NOSIG
2026-04-27 02:30:00,METAR GCLP 270230Z 35006KT 9999 FEW020 18/15 Q1015 NOSIG
2026-04-27 02:00:00,METAR GCLP 270200Z 35006KT 9999 FEW020 SCT050 18/15 Q1015 NOSIG
2026-04-27 01:30:00,METAR GCLP 270130Z 35007KT 9999 FEW020 SCT050 18/14 Q1015 NOSIG
2026-04-27 01:00:00,METAR GCLP 270100Z 35007KT 9999 FEW020 SCT050 18/14 Q1016 NOSIG
2026-04-27 00:30:00,METAR GCLP 270030Z 35007KT 9999 FEW020 18/14 Q1016 NOSIG
2026-04-27 00:00:00,METAR GCLP 270000Z 34008KT 9999 FEW020 18/14 Q1016 NOSIG
2026-04-26 23:30:00,METAR GCLP 262330Z 35009KT 320V030 9999 SCT020 19/14 Q1016 NOSIG
2026-04-26 23:00:00,METAR GCLP 262300Z 34009KT 9999 SCT020 19/14 Q1016 NOSIG
2026-04-26 22:30:00,METAR GCLP 262230Z 36012KT 330V030 9999 SCT018 19/15 Q1016 NOSIG
2026-04-26 22:00:00,METAR GCLP 262200Z 36014KT 9999 SCT018 19/15 Q1016 NOSIG
2026-04-26 21:30:00,METAR GCLP 262130Z 01017KT 9999 SCT020 19/15 Q1016 NOSIG
2026-04-26 21:00:00,METAR GCLP 262100Z 36016KT 9999 SCT020 19/15 Q1015 NOSIG
2026-04-26 20:30:00,METAR GCLP 262030Z 36015KT 9999 SCT020 BKN045 20/15 Q1015 NOSIG
2026-04-26 20:00:00,METAR GCLP 262000Z 35012KT 9999 SCT020 20/14 Q1015 NOSIG
2026-04-26 19:30:00,METAR GCLP 261930Z 36015KT 330V030 9999 SCT025 20/14 Q1014 NOSIG
2026-04-26 19:00:00,METAR GCLP 261900Z 35017KT 320V020 9999 SCT025 21/13 Q1014 NOSIG
2026-04-26 18:30:00,METAR GCLP 261830Z 36017KT 9999 SCT025 21/14 Q1014 NOSIG
2026-04-26 18:00:00,METAR GCLP 261800Z 36018KT 330V030 9999 FEW030 22/13 Q1014 NOSIG
2026-04-26 17:30:00,METAR GCLP 261730Z 36020KT 330V030 9999 FEW030 22/12 Q1014 NOSIG
2026-04-26 17:00:00,METAR GCLP 261700Z 02022KT 9999 FEW030 21/14 Q1014 NOSIG
2026-04-26 16:30:00,METAR GCLP 261630Z 01020KT 9999 FEW030 22/13 Q1014 NOSIG
2026-04-26 16:00:00,METAR GCLP 261600Z 02022KT 9999 FEW030 23/12 Q1014 NOSIG
2026-04-26 15:30:00,METAR GCLP 261530Z 03025KT 9999 FEW030 23/13 Q1014 NOSIG
2026-04-26 15:00:00,METAR GCLP 261500Z 02023KT 9999 FEW035 23/14 Q1014 NOSIG
2026-04-26 14:30:00,METAR GCLP 261430Z 03024KT 350V050 9999 FEW035 23/12 Q1014 NOSIG
2026-04-26 14:00:00,METAR GCLP 261400Z 03026KT 9999 FEW030 23/13 Q1014 NOSIG
2026-04-26 13:30:00,METAR GCLP 261330Z 02021KT 350V050 9999 FEW030 24/12 Q1014 NOSIG
2026-04-26 13:00:00,METAR GCLP 261300Z 03024KT 9999 FEW030 23/15 Q1014 NOSIG
2026-04-26 12:30:00,METAR GCLP 261230Z 03021KT 350V050 9999 FEW030 22/12 Q1015 NOSIG
2026-04-26 12:00:00,METAR GCLP 261200Z 02021KT 350V050 9999 FEW030 22/11 Q1015 NOSIG
2026-04-26 11:30:00,METAR GCLP 261130Z 01018KT 330V030 9999 FEW027 SCT040 22/12 Q1015 NOSIG
2026-04-26 11:00:00,METAR GCLP 261100Z 35016KT 9999 FEW027 21/11 Q1015 NOSIG
2026-04-26 10:30:00,METAR GCLP 261030Z 36018KT 9999 SCT027 22/11 Q1015 NOSIG
2026-04-26 10:00:00,METAR GCLP 261000Z 35014KT 320V020 9999 FEW030 21/12 Q1015 NOSIG
2026-04-26 09:30:00,METAR GCLP 260930Z 35012KT 9999 FEW030 20/12 Q1015 NOSIG
2026-04-26 09:00:00,METAR GCLP 260900Z 34012KT 9999 FEW027 20/12 Q1015 NOSIG
2026-04-26 08:30:00,METAR GCLP 260830Z 35011KT 9999 FEW027 19/13 Q1015 NOSIG
2026-04-26 08:00:00,METAR GCLP 260800Z 35008KT 320V020 9999 FEW027 18/14 Q1015 NOSIG
2026-04-26 07:30:00,METAR GCLP 260730Z 34008KT 9999 FEW027 17/14 Q1015 NOSIG
2026-04-26 07:00:00,METAR GCLP 260700Z 35009KT 9999 FEW025 17/14 Q1014 NOSIG
2026-04-26 06:30:00,METAR GCLP 260630Z 35009KT 9999 FEW025 SCT030 17/14 Q1014 NOSIG
2026-04-26 06:00:00,METAR GCLP 260600Z 35010KT 9999 BKN025 17/14 Q1014 NOSIG
2026-04-26 05:30:00,METAR GCLP 260530Z 35008KT 9999 -RA BKN025 17/14 Q1014 NOSIG
2026-04-26 05:00:00,METAR GCLP 260500Z 34011KT 9999 -RA SCT020 BKN030 16/15 Q1014 RERA NOSIG
2026-04-26 04:49:00,SPECI GCLP 260449Z 35013KT 9999 RA SCT020 BKN030 17/15 Q1014 BECMG NSW
2026-04-26 04:30:00,METAR GCLP 260430Z 36013KT 320V020 9999 SCT020 BKN030 18/15 Q1014 NOSIG
2026-04-26 04:00:00,METAR GCLP 260400Z 01014KT 9999 SCT020 BKN030 18/14 Q1014 NOSIG
2026-04-26 03:30:00,METAR GCLP 260330Z 01013KT 9999 SCT020 18/14 Q1014 NOSIG
2026-04-26 03:00:00,METAR GCLP 260300Z 01012KT 9999 SCT020 19/14 Q1014 NOSIG
2026-04-26 02:30:00,METAR GCLP 260230Z 01012KT 9999 SCT030 19/14 Q1014 NOSIG
2026-04-26 02:00:00,METAR GCLP 260200Z 02013KT 9999 SCT030 18/14 Q1014 NOSIG
2026-04-26 01:30:00,METAR GCLP 260130Z 01013KT 340V040 9999 SCT020 BKN030 19/14 Q1015 NOSIG
2026-04-26 01:00:00,METAR GCLP 260100Z 01014KT 9999 FEW020 BKN040 19/14 Q1015 NOSIG
2026-04-26 00:30:00,METAR GCLP 260030Z 02014KT 9999 FEW020 BKN040 19/14 Q1015 NOSIG
2026-04-26 00:00:00,METAR GCLP 260000Z 02014KT 9999 SCT020 BKN040 19/14 Q1016 NOSIG
2026-04-25 23:30:00,METAR GCLP 252330Z 02014KT 9999 SCT025 BKN035 19/14 Q1016 NOSIG
2026-04-25 23:00:00,METAR GCLP 252300Z 01012KT 9999 SCT020 BKN035 19/15 Q1016 NOSIG
2026-04-25 22:30:00,METAR GCLP 252230Z 01014KT 9999 SCT030 BKN040 19/15 Q1016 NOSIG
2026-04-25 22:00:00,METAR GCLP 252200Z 02013KT 9999 SCT020 BKN030 19/16 Q1016 NOSIG
2026-04-25 21:30:00,METAR GCLP 252130Z 01012KT 9999 SCT020 BKN035 19/15 Q1016 NOSIG
2026-04-25 21:00:00,METAR GCLP 252100Z 36012KT 320V030 9999 SCT020 BKN035 19/16 Q1016 NOSIG
2026-04-25 20:30:00,METAR GCLP 252030Z 36010KT 320V030 9999 SCT020 BKN030 19/16 Q1015 NOSIG
2026-04-25 20:00:00,METAR GCLP 252000Z 01013KT 9999 -RA BKN030 20/15 Q1015 NOSIG
2026-04-25 19:30:00,METAR GCLP 251930Z 02015KT 9999 SCT030 20/14 Q1015 NOSIG
2026-04-25 19:00:00,METAR GCLP 251900Z 02016KT 9999 SCT030 20/14 Q1015 NOSIG
2026-04-25 18:30:00,METAR GCLP 251830Z 02018KT 9999 SCT030 21/15 Q1014 NOSIG
2026-04-25 18:00:00,METAR GCLP 251800Z 02019KT 9999 SCT030 21/15 Q1014 NOSIG
2026-04-25 17:30:00,METAR GCLP 251730Z 03019KT 9999 SCT030 22/15 Q1014 NOSIG
2026-04-25 17:00:00,METAR GCLP 251700Z 03020KT 9999 SCT030 22/15 Q1014 NOSIG
2026-04-25 16:30:00,METAR GCLP 251630Z 03020KT 9999 SCT030 22/15 Q1014 NOSIG
2026-04-25 16:00:00,METAR GCLP 251600Z 03019KT 9999 SCT030 23/15 Q1014 NOSIG
2026-04-25 15:30:00,METAR GCLP 251530Z 02019KT 9999 FEW025 SCT040 22/15 Q1014 NOSIG
2026-04-25 15:00:00,METAR GCLP 251500Z 03017KT 9999 FEW025 SCT040 23/15 Q1014 NOSIG
2026-04-25 14:30:00,METAR GCLP 251430Z 03016KT 9999 FEW025 SCT040 22/15 Q1015 NOSIG
2026-04-25 14:00:00,METAR GCLP 251400Z 02016KT 350V050 9999 SCT035 23/15 Q1015 NOSIG
2026-04-25 13:30:00,METAR GCLP 251330Z 03018KT 360V060 9999 FEW025 SCT045 22/15 Q1015 NOSIG
2026-04-25 13:00:00,METAR GCLP 251300Z 02017KT 350V050 9999 FEW025 SCT045 23/14 Q1015 NOSIG
2026-04-25 12:30:00,METAR GCLP 251230Z 03015KT 9999 FEW020 SCT040 23/15 Q1015 NOSIG
2026-04-25 12:00:00,METAR GCLP 251200Z 02015KT 350V060 9999 FEW020 BKN035 22/16 Q1016 NOSIG
2026-04-25 11:30:00,METAR GCLP 251130Z 03014KT 350V060 9999 FEW020 BKN030 22/15 Q1016 NOSIG
2026-04-25 11:00:00,METAR GCLP 251100Z 03014KT 9999 FEW020 BKN035 21/15 Q1016 NOSIG
2026-04-25 10:30:00,METAR GCLP 251030Z 01011KT 9999 FEW016 BKN035 20/16 Q1016 NOSIG
2026-04-25 10:00:00,METAR GCLP 251000Z 02014KT 9999 FEW018 BKN040 21/16 Q1016 NOSIG
2026-04-25 09:30:00,METAR GCLP 250930Z 02013KT 9999 BKN020 20/16 Q1016 NOSIG
2026-04-25 09:00:00,METAR GCLP 250900Z 36013KT 320V030 9999 -RA BKN020 20/15 Q1016 NOSIG
2026-04-25 08:30:00,METAR GCLP 250830Z 36011KT 330V030 9999 FEW020 SCT040 20/15 Q1016 NOSIG
2026-04-25 08:00:00,METAR GCLP 250800Z 36010KT 9999 FEW018 SCT040 19/15 Q1016 NOSIG
2026-04-25 07:30:00,METAR GCLP 250730Z 36010KT 9999 FEW020 SCT040 19/15 Q1016 NOSIG
2026-04-25 07:00:00,METAR GCLP 250700Z 35010KT 9999 FEW020 SCT040 18/15 Q1016 NOSIG
2026-04-25 06:30:00,METAR GCLP 250630Z 36011KT 9999 FEW020 SCT035 18/16 Q1016 NOSIG
2026-04-25 06:00:00,METAR GCLP 250600Z 02015KT 9999 -RA FEW020 BKN035 18/16 Q1016 NOSIG
2026-04-25 05:30:00,METAR GCLP 250530Z 02013KT 9999 BKN035 19/15 Q1015 NOSIG
2026-04-25 05:00:00,METAR GCLP 250500Z 36014KT 9999 FEW030 19/13 Q1015 NOSIG
2026-04-25 04:30:00,METAR GCLP 250430Z 36014KT 9999 FEW030 19/13 Q1015 NOSIG
2026-04-25 04:00:00,METAR GCLP 250400Z 36012KT 9999 FEW035 18/12 Q1015 NOSIG
2026-04-25 03:30:00,METAR GCLP 250330Z 36012KT 9999 FEW035 19/12 Q1016 NOSIG
2026-04-25 03:00:00,METAR GCLP 250300Z 36013KT 9999 FEW035 19/13 Q1016 NOSIG
2026-04-25 02:30:00,METAR GCLP 250230Z 35014KT 9999 FEW035 19/13 Q1016 NOSIG
2026-04-25 02:00:00,METAR GCLP 250200Z 35014KT 9999 FEW035 18/13 Q1017 NOSIG
2026-04-25 01:30:00,METAR GCLP 250130Z 35015KT 9999 SCT035 19/14 Q1017 NOSIG
2026-04-25 01:00:00,METAR GCLP 250100Z 36015KT 9999 BKN030 19/14 Q1017 NOSIG
2026-04-25 00:30:00,METAR GCLP 250030Z 01015KT 9999 BKN030 19/15 Q1018 NOSIG
2026-04-25 00:00:00,METAR GCLP 250000Z 36013KT 9999 BKN030 19/15 Q1018 NOSIG
2026-04-24 23:30:00,METAR GCLP 242330Z 01015KT 9999 BKN030 19/14 Q1018 NOSIG
2026-04-24 23:00:00,METAR GCLP 242300Z 01016KT 9999 SCT030 19/15 Q1018 NOSIG
2026-04-24 22:30:00,METAR GCLP 242230Z 01015KT 9999 FEW030 19/15 Q1018 NOSIG
2026-04-24 22:00:00,METAR GCLP 242200Z 36016KT 9999 FEW030 19/15 Q1018 NOSIG
2026-04-24 21:30:00,METAR GCLP 242130Z 01017KT 9999 FEW030 19/15 Q1018 NOSIG
2026-04-24 21:00:00,METAR GCLP 242100Z 01019KT 9999 FEW030 19/14 Q1017 NOSIG
2026-04-24 20:30:00,METAR GCLP 242030Z 36017KT 9999 FEW030 19/14 Q1017 NOSIG
2026-04-24 20:00:00,METAR GCLP 242000Z 36016KT 9999 FEW030 20/14 Q1017 NOSIG
2026-04-24 19:30:00,METAR GCLP 241930Z 36017KT 9999 SCT030 20/14 Q1017 NOSIG
2026-04-24 19:00:00,METAR GCLP 241900Z 01018KT 9999 FEW030 20/14 Q1016 NOSIG
2026-04-24 18:30:00,METAR GCLP 241830Z 02022KT 9999 FEW030 21/15 Q1016 NOSIG
2026-04-24 18:00:00,METAR GCLP 241800Z 02020KT 9999 FEW030 21/15 Q1016 NOSIG
2026-04-24 17:30:00,METAR GCLP 241730Z 02021KT 9999 FEW030 22/15 Q1016 NOSIG
2026-04-24 17:00:00,METAR GCLP 241700Z 03023KT 9999 FEW030 22/15 Q1016 NOSIG
2026-04-24 16:30:00,METAR GCLP 241630Z 03022KT 9999 SCT030 22/15 Q1016 NOSIG
2026-04-24 16:00:00,METAR GCLP 241600Z 03023KT 9999 SCT030 22/15 Q1016 NOSIG
2026-04-24 15:30:00,METAR GCLP 241530Z 03022KT 9999 FEW030 22/14 Q1016 NOSIG
2026-04-24 15:00:00,METAR GCLP 241500Z 03021KT 9999 SCT030 23/15 Q1016 NOSIG
2026-04-24 14:30:00,METAR GCLP 241430Z 03021KT 9999 SCT030 22/15 Q1017 NOSIG
2026-04-24 14:00:00,METAR GCLP 241400Z 03022KT 9999 SCT030 22/15 Q1017 NOSIG
2026-04-24 13:30:00,METAR GCLP 241330Z 02021KT 9999 SCT030 23/15 Q1017 NOSIG
2026-04-24 13:00:00,METAR GCLP 241300Z 03022KT 9999 SCT030 23/15 Q1017 NOSIG
2026-04-24 12:30:00,METAR GCLP 241230Z 03020KT 9999 FEW030 23/15 Q1018 NOSIG
2026-04-24 12:00:00,METAR GCLP 241200Z 04019KT 9999 FEW030 23/14 Q1018 NOSIG
2026-04-24 11:30:00,METAR GCLP 241130Z 03018KT 9999 FEW030 23/14 Q1018 NOSIG
2026-04-24 11:00:00,METAR GCLP 241100Z 36016KT 330V030 9999 FEW030 22/13 Q1018 NOSIG
2026-04-24 10:30:00,METAR GCLP 241030Z 02016KT 350V050 9999 FEW030 22/13 Q1018 NOSIG
2026-04-24 10:00:00,METAR GCLP 241000Z 02016KT 9999 FEW030 21/13 Q1018 NOSIG
2026-04-24 09:30:00,METAR GCLP 240930Z 36013KT 330V030 9999 FEW030 22/12 Q1018 NOSIG
2026-04-24 09:00:00,METAR GCLP 240900Z 35014KT 9999 FEW030 20/13 Q1018 NOSIG
2026-04-24 08:30:00,METAR GCLP 240830Z 35015KT 9999 FEW030 20/13 Q1018 NOSIG
2026-04-24 08:00:00,METAR GCLP 240800Z 35013KT 9999 FEW030 19/12 Q1017 NOSIG
2026-04-24 07:30:00,METAR GCLP 240730Z 35011KT 9999 FEW030 18/12 Q1017 NOSIG
2026-04-24 07:00:00,METAR GCLP 240700Z 35009KT 9999 FEW030 17/11 Q1017 BECMG 01020KT
2026-04-24 06:30:00,METAR GCLP 240630Z 34009KT 9999 FEW025 17/11 Q1017 NOSIG
2026-04-24 06:00:00,METAR GCLP 240600Z 34009KT 9999 FEW025 16/11 Q1017 NOSIG
2026-04-24 05:30:00,METAR GCLP 240530Z 34007KT 9999 FEW025 16/11 Q1016 NOSIG
2026-04-24 05:00:00,METAR GCLP 240500Z 35008KT 9999 FEW025 16/11 Q1017 NOSIG
2026-04-24 04:30:00,METAR GCLP 240430Z 35007KT 9999 FEW025 16/11 Q1016 NOSIG
2026-04-24 04:00:00,METAR GCLP 240400Z 34008KT 9999 FEW025 16/11 Q1016 NOSIG
2026-04-24 03:30:00,METAR GCLP 240330Z 35009KT 9999 FEW025 17/12 Q1017 NOSIG
2026-04-24 03:00:00,METAR GCLP 240300Z 36010KT 9999 FEW025 17/11 Q1017 NOSIG
2026-04-24 02:30:00,METAR GCLP 240230Z 36010KT 9999 FEW025 17/11 Q1017 NOSIG
2026-04-24 02:00:00,METAR GCLP 240200Z 34012KT 9999 FEW025 17/12 Q1017 NOSIG
2026-04-24 01:30:00,METAR GCLP 240130Z 35009KT 9999 FEW025 16/12 Q1017 NOSIG
2026-04-24 01:00:00,METAR GCLP 240100Z 36009KT 9999 FEW025 17/12 Q1018 NOSIG
2026-04-24 00:30:00,METAR GCLP 240030Z 36009KT 9999 FEW025 17/12 Q1018 NOSIG
2026-04-24 00:00:00,METAR GCLP 240000Z 34008KT 9999 FEW025 17/13 Q1018 NOSIG
2026-04-23 23:30:00,METAR GCLP 232330Z 34008KT 9999 FEW025 17/13 Q1018 NOSIG
2026-04-23 23:00:00,METAR GCLP 232300Z 35007KT 9999 FEW027 17/13 Q1018 NOSIG
2026-04-23 22:30:00,METAR GCLP 232230Z 36008KT 9999 FEW027 18/13 Q1018 NOSIG
2026-04-23 22:00:00,METAR GCLP 232200Z 01009KT 9999 FEW027 BKN045 19/13 Q1018 NOSIG
2026-04-23 21:30:00,METAR GCLP 232130Z 01010KT 9999 SCT027 BKN045 19/13 Q1018 NOSIG
2026-04-23 21:00:00,METAR GCLP 232100Z 01011KT 9999 SCT027 BKN037 19/13 Q1017 NOSIG
2026-04-23 20:30:00,METAR GCLP 232030Z 01011KT 9999 FEW025 BKN032 19/14 Q1017 NOSIG
2026-04-23 20:00:00,METAR GCLP 232000Z 01010KT 9999 FEW025 SCT045 19/14 Q1016 NOSIG
2026-04-23 19:30:00,METAR GCLP 231930Z 02011KT 9999 FEW025 SCT045 19/14 Q1016 NOSIG
2026-04-23 19:00:00,METAR GCLP 231900Z 02012KT 9999 FEW020 BKN032 19/14 Q1016 NOSIG
2026-04-23 18:30:00,METAR GCLP 231830Z 03012KT 9999 SCT022 BKN030 20/15 Q1016 NOSIG
2026-04-23 18:00:00,METAR GCLP 231800Z 03011KT 9999 FEW020 BKN030 20/14 Q1016 NOSIG
2026-04-23 17:30:00,METAR GCLP 231730Z 03010KT 9999 FEW020 BKN033 20/15 Q1015 NOSIG
2026-04-23 17:00:00,METAR GCLP 231700Z 34004KT 280V050 9999 FEW025 BKN033 19/14 Q1015 NOSIG
2026-04-23 16:30:00,METAR GCLP 231630Z 31004KT 260V350 9999 FEW025 BKN033 19/15 Q1015 BECMG 01010KT
2026-04-23 16:00:00,METAR GCLP 231600Z 30005KT 270V340 9999 FEW025 BKN033 19/15 Q1016 NOSIG
2026-04-23 15:30:00,METAR GCLP 231530Z 31003KT 260V350 9999 FEW025 BKN035 19/15 Q1016 NOSIG
2026-04-23 15:00:00,METAR GCLP 231500Z VRB02KT 9999 -RA FEW025 BKN035 19/14 Q1016 NOSIG
2026-04-23 14:30:00,METAR GCLP 231430Z 02004KT 330V060 9999 FEW025 BKN035 19/14 Q1016 NOSIG
2026-04-23 14:00:00,METAR GCLP 231400Z 09004KT 9999 FEW025 BKN035 20/14 Q1016 NOSIG
2026-04-23 13:30:00,METAR GCLP 231330Z 09004KT 050V110 9999 FEW025 BKN035 20/14 Q1016 NOSIG
2026-04-23 13:00:00,METAR GCLP 231300Z 08005KT 050V110 9999 FEW025 BKN040 20/14 Q1016 NOSIG
2026-04-23 12:30:00,METAR GCLP 231230Z 10005KT 070V130 9999 FEW025 BKN040 20/14 Q1016 NOSIG
2026-04-23 12:00:00,METAR GCLP 231200Z 10006KT 060V140 9999 FEW025 BKN050 21/14 Q1016 NOSIG
2026-04-23 11:30:00,METAR GCLP 231130Z 10005KT 060V130 9999 FEW025 BKN050 20/15 Q1017 NOSIG
2026-04-23 11:00:00,METAR GCLP 231100Z 08005KT 030V120 9999 FEW025 BKN045 20/15 Q1017 NOSIG
2026-04-23 10:30:00,METAR GCLP 231030Z 09005KT 030V160 9999 FEW025 BKN045 20/14 Q1017 NOSIG
2026-04-23 10:00:00,METAR GCLP 231000Z 10006KT 050V120 9999 FEW030 SCT050 20/15 Q1016 NOSIG
2026-04-23 09:30:00,METAR GCLP 230930Z 06006KT 030V090 9999 FEW030 SCT050 20/14 Q1016 NOSIG
2026-04-23 09:00:00,METAR GCLP 230900Z 07004KT 020V140 9999 FEW035 SCT050 20/14 Q1016 NOSIG
2026-04-23 08:30:00,METAR GCLP 230830Z VRB01KT 9999 FEW035 SCT050 19/14 Q1016 NOSIG
2026-04-23 08:00:00,METAR GCLP 230800Z 30003KT 9999 FEW035 SCT050 18/13 Q1015 NOSIG
2026-04-23 07:30:00,METAR GCLP 230730Z VRB05KT 9999 FEW035 BKN050 18/12 Q1015 NOSIG
2026-04-23 07:00:00,METAR GCLP 230700Z 30004KT 250V340 9999 FEW035 SCT050 17/12 Q1015 NOSIG
2026-04-23 06:30:00,METAR GCLP 230630Z 31005KT 280V350 9999 FEW035 17/12 Q1014 NOSIG
2026-04-23 06:00:00,METAR GCLP 230600Z 30005KT 280V350 9999 FEW040 17/12 Q1014 NOSIG
2026-04-23 05:30:00,METAR GCLP 230530Z 30005KT 9999 FEW040 16/13 Q1014 NOSIG
2026-04-23 05:00:00,METAR GCLP 230500Z 31006KT 9999 FEW040 17/13 Q1014 NOSIG
2026-04-23 04:30:00,METAR GCLP 230430Z 30006KT 9999 FEW040 16/13 Q1014 NOSIG
2026-04-23 04:00:00,METAR GCLP 230400Z 30006KT 9999 FEW040 17/13 Q1014 NOSIG
2026-04-23 03:30:00,METAR GCLP 230330Z 30006KT 9999 FEW040 17/13 Q1014 NOSIG
2026-04-23 03:00:00,METAR GCLP 230300Z 30004KT 9999 FEW040 17/13 Q1014 NOSIG
2026-04-23 02:30:00,METAR GCLP 230230Z 30004KT 9999 FEW040 17/13 Q1014 NOSIG
2026-04-23 02:00:00,METAR GCLP 230200Z 31004KT 9999 FEW040 18/13 Q1014 NOSIG
2026-04-23 01:30:00,METAR GCLP 230130Z 30004KT 9999 BKN040 18/13 Q1014 NOSIG
2026-04-23 01:00:00,METAR GCLP 230100Z 29003KT 9999 FEW040 18/13 Q1014 NOSIG
2026-04-23 00:30:00,METAR GCLP 230030Z 30002KT 9999 SCT040 18/13 Q1015 NOSIG
2026-04-23 00:00:00,METAR GCLP 230000Z VRB02KT 9999 BKN040 19/13 Q1015 NOSIG
2026-04-22 23:30:00,METAR GCLP 222330Z 31003KT 9999 BKN035 19/13 Q1015 NOSIG
2026-04-22 23:00:00,METAR GCLP 222300Z 30003KT 270V010 9999 BKN035 19/13 Q1015 NOSIG
2026-04-22 22:30:00,METAR GCLP 222230Z 30003KT 9999 BKN035 19/13 Q1015 NOSIG
2026-04-22 22:00:00,METAR GCLP 222200Z 32003KT 290V350 9999 FEW020 BKN035 19/14 Q1015 NOSIG
2026-04-22 21:30:00,METAR GCLP 222130Z 01003KT 320V050 9999 BKN035 19/14 Q1015 NOSIG
2026-04-22 21:00:00,METAR GCLP 222100Z 02003KT 350V050 9999 BKN035 19/14 Q1014 NOSIG
2026-04-22 20:30:00,METAR GCLP 222030Z VRB02KT 9999 BKN035 19/14 Q1014 NOSIG
2026-04-22 20:00:00,METAR GCLP 222000Z 03004KT 350V070 9999 BKN035 19/14 Q1014 NOSIG
2026-04-22 19:30:00,METAR GCLP 221930Z 05004KT 9999 BKN035 19/14 Q1014 NOSIG
2026-04-22 19:00:00,METAR GCLP 221900Z 07003KT 040V110 9999 BKN035 19/15 Q1013 NOSIG
2026-04-22 18:30:00,METAR GCLP 221830Z 05004KT 9999 FEW020 BKN035 19/14 Q1013 NOSIG
2026-04-22 18:00:00,METAR GCLP 221800Z 05005KT 9999 FEW020 BKN035 19/15 Q1013 NOSIG
2026-04-22 17:30:00,METAR GCLP 221730Z 07004KT 030V110 9999 BKN035 19/15 Q1013 NOSIG
2026-04-22 17:00:00,METAR GCLP 221700Z 09005KT 040V110 9999 BKN030 19/15 Q1013 NOSIG
2026-04-22 16:30:00,METAR GCLP 221630Z 08003KT 9999 BKN030 20/13 Q1013 NOSIG
2026-04-22 16:00:00,METAR GCLP 221600Z 05004KT 010V120 9999 BKN030 20/13 Q1013 NOSIG
2026-04-22 15:30:00,METAR GCLP 221530Z 05004KT 350V080 9999 FEW020 BKN035 20/14 Q1013 NOSIG
2026-04-22 15:00:00,METAR GCLP 221500Z 04003KT 340V110 9999 FEW020 BKN035 19/14 Q1014 NOSIG
2026-04-22 14:30:00,METAR GCLP 221430Z 02005KT 340V050 9999 FEW020 BKN035 19/14 Q1014 NOSIG
2026-04-22 14:00:00,METAR GCLP 221400Z 03008KT 350V070 9999 FEW020 BKN035 19/15 Q1014 NOSIG
2026-04-22 13:30:00,METAR GCLP 221330Z 07005KT 020V100 9999 FEW020 BKN035 20/15 Q1014 NOSIG
2026-04-22 13:00:00,METAR GCLP 221300Z 07005KT 030V100 9999 FEW018 BKN035 19/15 Q1015 NOSIG
2026-04-22 12:30:00,METAR GCLP 221230Z 07006KT 040V120 9999 SCT020 BKN040 19/15 Q1015 NOSIG
2026-04-22 12:00:00,METAR GCLP 221200Z 06005KT 020V100 9999 BKN040 20/15 Q1015 NOSIG
2026-04-22 11:30:00,METAR GCLP 221130Z 08005KT 9999 BKN040 20/15 Q1015 NOSIG
2026-04-22 11:00:00,METAR GCLP 221100Z 07006KT 040V100 9999 BKN040 20/14 Q1015 NOSIG
2026-04-22 10:30:00,METAR GCLP 221030Z 06006KT 9999 BKN040 20/14 Q1015 NOSIG
2026-04-22 10:00:00,METAR GCLP 221000Z 06007KT 020V100 9999 BKN040 20/14 Q1014 NOSIG
2026-04-22 09:30:00,METAR GCLP 220930Z 02006KT 350V050 9999 BKN040 20/14 Q1014 NOSIG
2026-04-22 09:00:00,METAR GCLP 220900Z 02006KT 350V050 9999 BKN040 19/14 Q1014 NOSIG
2026-04-22 08:30:00,METAR GCLP 220830Z 36007KT 320V020 9999 BKN045 19/13 Q1014 NOSIG
2026-04-22 08:00:00,METAR GCLP 220800Z 34007KT 310V010 9999 FEW030 BKN050 18/14 Q1014 NOSIG
2026-04-22 07:30:00,METAR GCLP 220730Z 32004KT 9999 FEW030 BKN050 18/13 Q1013 NOSIG
2026-04-22 07:00:00,METAR GCLP 220700Z 32006KT 9999 FEW035 BKN055 17/13 Q1013 NOSIG
2026-04-22 06:30:00,METAR GCLP 220630Z 32008KT 300V360 9999 FEW035 BKN055 17/13 Q1013 NOSIG
2026-04-22 06:00:00,METAR GCLP 220600Z 31007KT 9999 FEW035 BKN050 17/14 Q1012 NOSIG
2026-04-22 05:30:00,METAR GCLP 220530Z 33009KT 9999 FEW035 BKN050 17/14 Q1012 NOSIG
2026-04-22 05:00:00,METAR GCLP 220500Z 33008KT 9999 FEW030 BKN045 17/14 Q1012 NOSIG
2026-04-22 04:30:00,METAR GCLP 220430Z 35006KT 9999 FEW030 BKN045 17/14 Q1012 NOSIG
2026-04-22 04:00:00,METAR GCLP 220400Z 34006KT 9999 FEW030 BKN045 17/14 Q1012 NOSIG
2026-04-22 03:30:00,METAR GCLP 220330Z 34006KT 9999 FEW020 SCT030 BKN045 17/14 Q1012 NOSIG
2026-04-22 03:00:00,METAR GCLP 220300Z 33007KT 9999 FEW020 SCT030 BKN045 17/14 Q1013 NOSIG
2026-04-22 02:30:00,METAR GCLP 220230Z 33007KT 9999 FEW020 SCT030 BKN035 17/14 Q1013 NOSIG
2026-04-22 02:00:00,METAR GCLP 220200Z 33009KT 9999 FEW020 SCT030 BKN035 17/14 Q1013 NOSIG
2026-04-22 01:30:00,METAR GCLP 220130Z 33007KT 9999 FEW020 SCT030 BKN035 18/14 Q1013 NOSIG
2026-04-22 01:00:00,METAR GCLP 220100Z 34008KT 9999 FEW020 SCT028 BKN034 18/14 Q1014 NOSIG
2026-04-22 00:30:00,METAR GCLP 220030Z 35007KT 9999 FEW020 SCT025 BKN030 18/15 Q1014 NOSIG
2026-04-22 00:00:00,METAR GCLP 220000Z 36007KT 9999 FEW020 SCT030 BKN050 18/15 Q1014 NOSIG
2026-04-21 23:30:00,METAR GCLP 212330Z 35007KT 9999 FEW030 BKN045 18/14 Q1014 NOSIG
2026-04-21 23:00:00,METAR GCLP 212300Z 34010KT 9999 SCT030 BKN045 18/14 Q1014 NOSIG
2026-04-21 22:30:00,METAR GCLP 212230Z 34010KT 310V010 9999 SCT030 BKN042 18/14 Q1014 NOSIG
2026-04-21 22:00:00,METAR GCLP 212200Z 33009KT 9999 SCT030 BKN040 18/14 Q1014 NOSIG
2026-04-21 21:30:00,METAR GCLP 212130Z 34010KT 9999 FEW025 BKN035 18/15 Q1013 NOSIG
2026-04-21 21:00:00,METAR GCLP 212100Z 36009KT 9999 FEW030 BKN040 19/15 Q1013 NOSIG
2026-04-21 20:30:00,METAR GCLP 212030Z 01009KT 9999 FEW030 BKN040 19/14 Q1013 NOSIG
2026-04-21 20:00:00,METAR GCLP 212000Z 36009KT 320V020 9999 FEW030 BKN038 19/14 Q1013 NOSIG
2026-04-21 19:30:00,METAR GCLP 211930Z 35011KT 310V010 9999 FEW025 BKN035 19/13 Q1012 NOSIG
2026-04-21 19:00:00,METAR GCLP 211900Z 35010KT 9999 FEW025 BKN035 19/14 Q1012 NOSIG
2026-04-21 18:30:00,METAR GCLP 211830Z 34012KT 9999 FEW025 BKN035 19/14 Q1012 NOSIG
2026-04-21 18:00:00,METAR GCLP 211800Z 35014KT 9999 FEW025 BKN035 20/14 Q1012 NOSIG
2026-04-21 17:30:00,METAR GCLP 211730Z 35013KT 9999 FEW025 BKN035 20/14 Q1012 NOSIG
2026-04-21 17:00:00,METAR GCLP 211700Z 36009KT 9999 FEW025 BKN035 20/15 Q1012 NOSIG
2026-04-21 16:30:00,METAR GCLP 211630Z 36011KT 9999 BKN035 20/14 Q1011 NOSIG
2026-04-21 16:00:00,METAR GCLP 211600Z 36014KT 9999 FEW020 BKN035 20/14 Q1011 NOSIG
2026-04-21 15:30:00,METAR GCLP 211530Z 36014KT 9999 FEW020 BKN035 20/14 Q1012 NOSIG
2026-04-21 15:00:00,METAR GCLP 211500Z 36013KT 330V030 9999 FEW020 BKN040 21/14 Q1011 NOSIG
2026-04-21 14:30:00,METAR GCLP 211430Z 36016KT 330V030 9999 FEW020 BKN040 21/14 Q1011 NOSIG
2026-04-21 14:00:00,METAR GCLP 211400Z 01015KT 340V040 9999 FEW025 BKN040 22/13 Q1011 NOSIG
2026-04-21 13:30:00,METAR GCLP 211330Z 02016KT 350V050 9999 BKN040 22/14 Q1011 NOSIG
2026-04-21 13:00:00,METAR GCLP 211300Z 03018KT 9999 BKN040 23/15 Q1011 NOSIG
2026-04-21 12:30:00,METAR GCLP 211230Z 03019KT 9999 BKN040 22/14 Q1011 NOSIG
2026-04-21 12:00:00,METAR GCLP 211200Z 03019KT 9999 BKN040 22/14 Q1011 NOSIG
2026-04-21 11:30:00,METAR GCLP 211130Z 01013KT 330V040 9999 BKN040 23/13 Q1011 NOSIG
2026-04-21 11:00:00,METAR GCLP 211100Z 36014KT 9999 FEW025 BKN045 22/12 Q1012 NOSIG
2026-04-21 10:30:00,METAR GCLP 211030Z 35014KT 320V020 9999 BKN045 22/14 Q1011 NOSIG
2026-04-21 10:00:00,METAR GCLP 211000Z 35014KT 9999 FEW025 BKN045 22/14 Q1011 NOSIG
2026-04-21 09:30:00,METAR GCLP 210930Z 02010KT 340V040 9999 FEW025 BKN040 21/14 Q1011 NOSIG
2026-04-21 09:00:00,METAR GCLP 210900Z 01009KT 340V040 9999 FEW020 BKN040 20/13 Q1011 NOSIG
2026-04-21 08:30:00,METAR GCLP 210830Z 01007KT 9999 FEW025 BKN040 20/14 Q1011 NOSIG
2026-04-21 08:00:00,METAR GCLP 210800Z 35006KT 320V030 9999 FEW025 BKN040 20/13 Q1011 NOSIG
2026-04-21 07:30:00,METAR GCLP 210730Z 34007KT 9999 FEW025 BKN040 19/14 Q1010 NOSIG
2026-04-21 07:00:00,METAR GCLP 210700Z 01007KT 330V030 9999 BKN040 19/14 Q1010 NOSIG
2026-04-21 06:30:00,METAR GCLP 210630Z 36008KT 320V030 9999 FEW020 BKN040 19/14 Q1010 NOSIG
2026-04-21 06:00:00,METAR GCLP 210600Z 01008KT 9999 BKN040 19/14 Q1009 NOSIG
2026-04-21 05:30:00,METAR GCLP 210530Z 01011KT 9999 BKN040 19/14 Q1009 NOSIG
2026-04-21 05:00:00,METAR GCLP 210500Z 01011KT 9999 BKN040 19/14 Q1009 NOSIG
2026-04-21 04:30:00,METAR GCLP 210430Z 01009KT 9999 BKN035 19/14 Q1009 NOSIG
2026-04-21 04:00:00,METAR GCLP 210400Z 36010KT 9999 BKN035 19/14 Q1009 NOSIG
2026-04-21 03:30:00,METAR GCLP 210330Z 01010KT 9999 BKN035 19/15 Q1009 NOSIG
2026-04-21 03:00:00,METAR GCLP 210300Z 01011KT 9999 BKN040 19/14 Q1009 NOSIG
2026-04-21 02:30:00,METAR GCLP 210230Z 01011KT 9999 BKN040 19/15 Q1009 NOSIG
2026-04-21 02:00:00,METAR GCLP 210200Z 01010KT 9999 BKN040 19/15 Q1009 NOSIG
2026-04-21 01:30:00,METAR GCLP 210130Z 02009KT 340V050 9999 BKN040 19/15 Q1010 NOSIG
2026-04-21 01:00:00,METAR GCLP 210100Z 01008KT 320V030 9999 BKN040 19/16 Q1010 NOSIG
2026-04-21 00:30:00,METAR GCLP 210030Z 01009KT 9999 BKN038 19/16 Q1010 NOSIG
2026-04-21 00:00:00,METAR GCLP 210000Z 34003KT 280V020 9999 BKN035 19/15 Q1010 NOSIG
2026-04-20 23:30:00,METAR GCLP 202330Z 33004KT 290V040 9999 BKN035 19/15 Q1010 NOSIG
2026-04-20 23:00:00,METAR GCLP 202300Z 01007KT 9999 BKN035 19/15 Q1009 NOSIG
2026-04-20 22:30:00,METAR GCLP 202230Z 36008KT 9999 BKN035 19/15 Q1009 NOSIG
2026-04-20 22:00:00,METAR GCLP 202200Z 01008KT 9999 BKN030 19/15 Q1009 NOSIG
2026-04-20 21:30:00,METAR GCLP 202130Z 02009KT 9999 BKN030 19/16 Q1009 NOSIG
2026-04-20 21:00:00,METAR GCLP 202100Z 03005KT 360V070 9999 BKN025 20/16 Q1008 NOSIG
2026-04-20 20:30:00,METAR GCLP 202030Z 34003KT 300V020 9999 BKN020 19/15 Q1008 NOSIG
2026-04-20 20:00:00,METAR GCLP 202000Z 33005KT 290V360 9999 BKN020 19/16 Q1008 NOSIG
2026-04-20 19:30:00,METAR GCLP 201930Z 34005KT 300V020 9999 SCT016 OVC020 20/16 Q1008 NOSIG
2026-04-20 19:00:00,METAR GCLP 201900Z 01005KT 320V100 9999 BKN020 20/16 Q1008 NOSIG
2026-04-20 18:30:00,METAR GCLP 201830Z VRB02KT 9999 BKN020 20/16 Q1008 NOSIG
2026-04-20 18:00:00,METAR GCLP 201800Z 09003KT 040V130 9999 BKN020 20/16 Q1008 NOSIG
2026-04-20 17:30:00,METAR GCLP 201730Z 06004KT 020V100 9999 BKN019 20/16 Q1008 NOSIG
2026-04-20 17:00:00,METAR GCLP 201700Z 08005KT 030V110 9999 BKN019 20/16 Q1008 NOSIG
2026-04-20 16:30:00,METAR GCLP 201630Z 09005KT 060V120 9999 BKN019 20/16 Q1008 NOSIG
2026-04-20 16:00:00,METAR GCLP 201600Z 08005KT 050V110 9999 BKN019 21/17 Q1008 NOSIG
2026-04-20 15:30:00,METAR GCLP 201530Z 09005KT 040V140 9999 BKN019 21/17 Q1008 NOSIG
2026-04-20 15:00:00,METAR GCLP 201500Z 08005KT 040V110 9999 BKN019 21/16 Q1008 NOSIG
2026-04-20 14:30:00,METAR GCLP 201430Z 07005KT 040V100 9999 BKN020 21/16 Q1009 NOSIG
2026-04-20 14:00:00,METAR GCLP 201400Z 08006KT 050V110 9000 BKN022 21/16 Q1009 NOSIG
2026-04-20 13:30:00,METAR GCLP 201330Z 08006KT 050V110 9000 BKN022 21/17 Q1009 NOSIG
2026-04-20 13:00:00,METAR GCLP 201300Z 09006KT 050V110 9000 BKN022 21/17 Q1009 NOSIG
2026-04-20 12:30:00,METAR GCLP 201230Z 08005KT 040V110 9000 BKN022 21/17 Q1009 NOSIG
2026-04-20 12:00:00,METAR GCLP 201200Z 08006KT 040V110 9000 BKN022 21/16 Q1009 NOSIG
2026-04-20 11:30:00,METAR GCLP 201130Z 09006KT 9000 FEW015 BKN022 21/16 Q1009 NOSIG
2026-04-20 11:00:00,METAR GCLP 201100Z 08006KT 050V110 9000 FEW015 BKN022 21/16 Q1009 NOSIG
2026-04-20 10:30:00,METAR GCLP 201030Z 08007KT 040V120 9000 FEW015 BKN022 21/16 Q1009 NOSIG
2026-04-20 10:00:00,METAR GCLP 201000Z 06008KT 9000 FEW015 BKN021 21/17 Q1009 NOSIG
2026-04-20 09:30:00,METAR GCLP 200930Z 06007KT 030V100 9000 FEW015 21/17 Q1009 NOSIG
2026-04-20 09:00:00,METAR GCLP 200900Z 03004KT 350V080 9000 FEW015 SCT022 20/16 Q1009 NOSIG
2026-04-20 08:30:00,METAR GCLP 200830Z 03005KT 330V070 8000 SCT014 BKN020 20/16 Q1008 NOSIG
2026-04-20 08:00:00,METAR GCLP 200800Z 01003KT 320V050 9000 SCT012 BKN020 19/16 Q1008 NOSIG
2026-04-20 07:30:00,METAR GCLP 200730Z VRB02KT 9000 SCT012 BKN018 19/17 Q1008 NOSIG
2026-04-20 07:00:00,METAR GCLP 200700Z 04003KT 9000 SCT010 BKN016 18/17 Q1008 NOSIG
2026-04-20 06:30:00,METAR GCLP 200630Z 01005KT 340V050 9000 SCT009 BKN016 18/17 Q1008 NOSIG
2026-04-20 06:00:00,METAR GCLP 200600Z 01005KT 9000 FEW005 SCT010 18/17 Q1008 NOSIG
2026-04-20 05:30:00,METAR GCLP 200530Z 34006KT 6000 SCT005 18/17 Q1007 NOSIG
2026-04-20 05:19:00,SPECI GCLP 200519Z 34005KT 7000 SCT005 18/17 Q1007 NOSIG
2026-04-20 05:00:00,METAR GCLP 200500Z 32004KT 6000 FEW003 BKN005 18/17 Q1007 NOSIG
2026-04-20 04:46:00,SPECI GCLP 200446Z 32005KT 6000 FEW002 SCT005 18/17 Q1007 NOSIG
2026-04-20 04:30:00,METAR GCLP 200430Z 31005KT 4000 BR FEW002 BKN005 18/17 Q1007 BECMG NSW
2026-04-20 04:00:00,METAR GCLP 200400Z 34001KT 8000 NSC 17/16 Q1007 NOSIG
2026-04-20 03:30:00,METAR GCLP 200330Z 22002KT 8000 NSC 18/17 Q1007 NOSIG
2026-04-20 03:00:00,METAR GCLP 200300Z 19003KT 9000 NSC 17/16 Q1007 NOSIG
2026-04-20 02:30:00,METAR GCLP 200230Z VRB01KT CAVOK 18/17 Q1008 NOSIG
2026-04-20 02:00:00,METAR GCLP 200200Z 22002KT CAVOK 18/17 Q1008 NOSIG
2026-04-20 01:30:00,METAR GCLP 200130Z VRB01KT CAVOK 19/17 Q1008 NOSIG
2026-04-20 01:00:00,METAR GCLP 200100Z 36003KT 280V040 CAVOK 19/18 Q1008 NOSIG
2026-04-20 00:30:00,METAR GCLP 200030Z 02005KT 350V050 CAVOK 19/18 Q1009 NOSIG
2026-04-20 00:00:00,METAR GCLP 200000Z 01007KT CAVOK 19/18 Q1009 NOSIG
2026-04-19 23:30:00,METAR GCLP 192330Z 36008KT CAVOK 20/18 Q1009 NOSIG
2026-04-19 23:00:00,METAR GCLP 192300Z 01009KT CAVOK 20/17 Q1009 NOSIG
2026-04-19 22:30:00,METAR GCLP 192230Z 02010KT CAVOK 21/16 Q1009 NOSIG
2026-04-19 22:00:00,METAR GCLP 192200Z 01010KT CAVOK 22/15 Q1009 NOSIG
2026-04-19 21:30:00,METAR GCLP 192130Z 36010KT 320V020 CAVOK 21/16 Q1008 NOSIG
2026-04-19 21:00:00,METAR GCLP 192100Z 36013KT CAVOK 22/15 Q1008 NOSIG
2026-04-19 20:30:00,METAR GCLP 192030Z 02006KT CAVOK 21/17 Q1007 NOSIG
2026-04-19 20:00:00,METAR GCLP 192000Z VRB03KT CAVOK 21/17 Q1007 BECMG 02010KT
2026-04-19 19:30:00,METAR GCLP 191930Z 16009KT 120V190 CAVOK 22/16 Q1007 NOSIG
2026-04-19 19:00:00,METAR GCLP 191900Z 16009KT 9999 FEW050 23/16 Q1007 NOSIG
2026-04-19 18:30:00,METAR GCLP 191830Z 17010KT 9999 FEW050 25/13 Q1007 NOSIG
2026-04-19 18:00:00,METAR GCLP 191800Z 17011KT 9999 FEW035 25/11 Q1007 NOSIG
2026-04-19 17:30:00,METAR GCLP 191730Z 16011KT 140V200 9999 FEW035 25/14 Q1007 NOSIG
2026-04-19 17:00:00,METAR GCLP 191700Z 17011KT CAVOK 24/16 Q1007 NOSIG
2026-04-19 16:30:00,METAR GCLP 191630Z 16011G24KT 120V200 CAVOK 24/16 Q1007 NOSIG
2026-04-19 16:00:00,METAR GCLP 191600Z 16011KT CAVOK 25/15 Q1008 NOSIG
2026-04-19 15:30:00,METAR GCLP 191530Z 17011KT CAVOK 25/15 Q1008 NOSIG
2026-04-19 15:00:00,METAR GCLP 191500Z 17010KT 140V200 CAVOK 25/16 Q1008 NOSIG
2026-04-19 14:30:00,METAR GCLP 191430Z 17007KT 140V200 CAVOK 24/16 Q1009 NOSIG
2026-04-19 14:00:00,METAR GCLP 191400Z 15008KT 110V180 CAVOK 24/17 Q1009 NOSIG
2026-04-19 13:30:00,METAR GCLP 191330Z 16009KT 120V190 CAVOK 24/16 Q1010 NOSIG
2026-04-19 13:00:00,METAR GCLP 191300Z 16008KT 130V200 CAVOK 25/16 Q1010 NOSIG
2026-04-19 12:30:00,METAR GCLP 191230Z 15009KT 120V210 CAVOK 25/15 Q1010 NOSIG
2026-04-19 12:00:00,METAR GCLP 191200Z 14010KT CAVOK 27/14 Q1010 NOSIG
2026-04-19 11:30:00,METAR GCLP 191130Z 15008KT CAVOK 26/14 Q1010 NOSIG
2026-04-19 11:00:00,METAR GCLP 191100Z 17008G18KT 140V200 CAVOK 26/13 Q1011 NOSIG
2026-04-19 10:30:00,METAR GCLP 191030Z 17006KT 110V220 CAVOK 27/12 Q1011 NOSIG
2026-04-19 10:00:00,METAR GCLP 191000Z 16005KT 090V200 CAVOK 26/11 Q1011 NOSIG
2026-04-19 09:30:00,METAR GCLP 190930Z VRB05KT CAVOK 27/08 Q1010 NOSIG
2026-04-19 09:00:00,METAR GCLP 190900Z 18005KT 140V250 CAVOK 27/09 Q1010 NOSIG
2026-04-19 08:30:00,METAR GCLP 190830Z VRB03KT CAVOK 28/08 Q1010 NOSIG
2026-04-19 08:00:00,METAR GCLP 190800Z VRB03KT CAVOK 27/07 Q1010 NOSIG
2026-04-19 07:30:00,METAR GCLP 190730Z 19003KT 110V240 CAVOK 26/07 Q1010 NOSIG
2026-04-19 07:00:00,METAR GCLP 190700Z 21005KT 160V320 CAVOK 27/07 Q1009 NOSIG
2026-04-19 06:30:00,METAR GCLP 190630Z 24004KT 170V310 CAVOK 25/06 Q1009 NOSIG
2026-04-19 06:00:00,METAR GCLP 190600Z VRB04KT CAVOK 26/06 Q1009 NOSIG
2026-04-19 05:30:00,METAR GCLP 190530Z VRB05KT CAVOK 26/07 Q1009 NOSIG
2026-04-19 05:00:00,METAR GCLP 190500Z VRB04KT CAVOK 25/08 Q1009 NOSIG
2026-04-19 04:30:00,METAR GCLP 190430Z VRB02KT CAVOK 23/09 Q1009 NOSIG
2026-04-19 04:00:00,METAR GCLP 190400Z 35003KT 300V100 CAVOK 23/10 Q1009 NOSIG
2026-04-19 03:30:00,METAR GCLP 190330Z VRB04KT CAVOK 24/11 Q1009 NOSIG
2026-04-19 03:00:00,METAR GCLP 190300Z 17008KT CAVOK 24/11 Q1010 NOSIG
2026-04-19 02:30:00,METAR GCLP 190230Z 07006KT 010V130 CAVOK 25/12 Q1010 NOSIG
2026-04-19 02:00:00,METAR GCLP 190200Z 23006KT 200V310 CAVOK 24/12 Q1011 NOSIG
2026-04-19 01:30:00,METAR GCLP 190130Z 22005KT 190V260 CAVOK 24/12 Q1011 NOSIG
2026-04-19 01:00:00,METAR GCLP 190100Z 22004KT 150V240 CAVOK 23/14 Q1011 NOSIG
2026-04-19 00:30:00,METAR GCLP 190030Z 13006KT 100V160 CAVOK 23/14 Q1011 NOSIG
2026-04-19 00:00:00,METAR GCLP 190000Z 35005KT CAVOK 26/07 Q1011 NOSIG
2026-04-18 23:30:00,METAR GCLP 182330Z 34004KT 290V040 CAVOK 26/09 Q1011 NOSIG
2026-04-18 23:00:00,METAR GCLP 182300Z 31006KT 290V350 CAVOK 28/06 Q1011 NOSIG
2026-04-18 22:30:00,METAR GCLP 182230Z 36004KT 300V060 CAVOK 26/10 Q1011 NOSIG
2026-04-18 22:00:00,METAR GCLP 182200Z 02007KT 330V040 CAVOK 25/11 Q1011 NOSIG
2026-04-18 21:30:00,METAR GCLP 182130Z VRB02KT CAVOK 25/11 Q1011 NOSIG
2026-04-18 21:00:00,METAR GCLP 182100Z 33007KT 290V030 CAVOK 26/10 Q1011 NOSIG
2026-04-18 20:30:00,METAR GCLP 182030Z 31007KT CAVOK 28/08 Q1011 NOSIG
2026-04-18 20:00:00,METAR GCLP 182000Z 33005KT 290V010 CAVOK 25/10 Q1011 NOSIG
2026-04-18 19:30:00,METAR GCLP 181930Z 36005KT 320V020 CAVOK 25/11 Q1011 NOSIG
2026-04-18 19:00:00,METAR GCLP 181900Z 01005KT 330V040 CAVOK 26/10 Q1011 NOSIG
2026-04-18 18:30:00,METAR GCLP 181830Z 35005KT 320V030 CAVOK 25/13 Q1010 NOSIG
2026-04-18 18:00:00,METAR GCLP 181800Z VRB02KT CAVOK 23/14 Q1010 NOSIG
2026-04-18 17:30:00,METAR GCLP 181730Z VRB01KT CAVOK 24/14 Q1011 NOSIG
2026-04-18 17:00:00,METAR GCLP 181700Z VRB04KT CAVOK 24/13 Q1011 NOSIG
2026-04-18 16:30:00,METAR GCLP 181630Z VRB01KT CAVOK 25/12 Q1011 NOSIG
2026-04-18 16:00:00,METAR GCLP 181600Z VRB02KT CAVOK 24/13 Q1011 NOSIG
2026-04-18 15:00:00,METAR GCLP 181500Z VRB03KT CAVOK 24/13 Q1012 NOSIG
2026-04-18 14:30:00,METAR GCLP 181430Z VRB03KT CAVOK 24/13 Q1012 NOSIG
2026-04-18 14:00:00,METAR GCLP 181400Z 12003KT 050V170 CAVOK 25/12 Q1012 NOSIG
2026-04-18 13:30:00,METAR GCLP 181330Z 11004KT 030V160 CAVOK 24/14 Q1012 NOSIG
2026-04-18 13:00:00,METAR GCLP 181300Z 11004KT 070V140 CAVOK 25/14 Q1012 NOSIG
2026-04-18 12:30:00,METAR GCLP 181230Z 10007KT 060V120 CAVOK 26/14 Q1012 WS R03 NOSIG
2026-04-18 12:00:00,METAR GCLP 181200Z 10008KT 060V120 CAVOK 27/11 Q1012 WS R03 NOSIG
2026-04-18 11:30:00,METAR GCLP 181130Z 09004KT 050V130 CAVOK 27/13 Q1013 WS R03 NOSIG
2026-04-18 11:00:00,METAR GCLP 181100Z 09004KT 050V140 CAVOK 27/09 Q1013 WS R03 NOSIG
2026-04-18 10:30:00,METAR GCLP 181030Z VRB01KT CAVOK 27/07 Q1013 WS R03 NOSIG
2026-04-18 10:00:00,METAR GCLP 181000Z VRB03KT CAVOK 26/08 Q1013 WS R03 NOSIG
2026-04-18 09:30:00,METAR GCLP 180930Z 04005KT 010V070 CAVOK 25/08 Q1013 WS R03 NOSIG
2026-04-18 09:00:00,METAR GCLP 180900Z VRB02KT CAVOK 26/07 Q1012 NOSIG
2026-04-18 08:30:00,METAR GCLP 180830Z VRB03KT CAVOK 26/06 Q1012 NOSIG
2026-04-18 08:00:00,METAR GCLP 180800Z VRB04KT CAVOK 26/07 Q1012 NOSIG
2026-04-18 07:30:00,METAR GCLP 180730Z 18004KT 100V250 CAVOK 24/07 Q1012 NOSIG
2026-04-18 07:00:00,METAR GCLP 180700Z 21003KT 170V250 CAVOK 22/07 Q1012 NOSIG
2026-04-18 06:30:00,METAR GCLP 180630Z 22004KT 200V280 CAVOK 21/08 Q1012 NOSIG
2026-04-18 06:00:00,METAR GCLP 180600Z 24005KT 210V290 CAVOK 22/09 Q1012 NOSIG
2026-04-18 05:30:00,METAR GCLP 180530Z 28007KT 230V330 CAVOK 21/10 Q1012 NOSIG
2026-04-18 05:00:00,METAR GCLP 180500Z 30006KT CAVOK 18/15 Q1012 NOSIG
2026-04-18 04:30:00,METAR GCLP 180430Z 33006KT CAVOK 18/15 Q1012 NOSIG
2026-04-18 04:00:00,METAR GCLP 180400Z 35004KT 330V030 CAVOK 18/16 Q1012 NOSIG
2026-04-18 03:30:00,METAR GCLP 180330Z 04005KT 360V070 CAVOK 18/16 Q1012 NOSIG
2026-04-18 03:00:00,METAR GCLP 180300Z 01008KT CAVOK 18/15 Q1012 NOSIG
2026-04-18 02:30:00,METAR GCLP 180230Z 36008KT CAVOK 19/15 Q1012 NOSIG
2026-04-18 02:00:00,METAR GCLP 180200Z 01009KT CAVOK 18/15 Q1013 NOSIG
2026-04-18 01:30:00,METAR GCLP 180130Z 02011KT CAVOK 18/16 Q1013 NOSIG
2026-04-18 01:00:00,METAR GCLP 180100Z 01011KT CAVOK 19/15 Q1013 NOSIG
2026-04-18 00:30:00,METAR GCLP 180030Z 01011KT CAVOK 19/15 Q1014 NOSIG
2026-04-18 00:00:00,METAR GCLP 180000Z 36010KT CAVOK 19/15 Q1014 NOSIG
2026-04-17 23:30:00,METAR GCLP 172330Z 36011KT CAVOK 19/16 Q1014 NOSIG
2026-04-17 23:00:00,METAR GCLP 172300Z 01011KT CAVOK 19/16 Q1014 NOSIG
2026-04-17 22:30:00,METAR GCLP 172230Z 01012KT CAVOK 19/16 Q1014 NOSIG
2026-04-17 22:00:00,METAR GCLP 172200Z 01015KT CAVOK 19/17 Q1014 NOSIG
2026-04-17 21:30:00,METAR GCLP 172130Z 36015KT CAVOK 19/17 Q1014 NOSIG
2026-04-17 21:00:00,METAR GCLP 172100Z 01016KT CAVOK 19/17 Q1013 NOSIG
2026-04-17 20:30:00,METAR GCLP 172030Z 02017KT 9999 FEW030 19/17 Q1013 NOSIG
2026-04-17 20:00:00,METAR GCLP 172000Z 01018KT 9999 FEW030 19/17 Q1013 NOSIG
2026-04-17 19:30:00,METAR GCLP 171930Z 01017KT CAVOK 19/17 Q1013 NOSIG
2026-04-17 19:00:00,METAR GCLP 171900Z 02017KT CAVOK 19/17 Q1012 NOSIG
2026-04-17 18:30:00,METAR GCLP 171830Z 01017KT CAVOK 20/16 Q1013 NOSIG
2026-04-17 18:00:00,METAR GCLP 171800Z 02016KT CAVOK 20/17 Q1013 NOSIG
2026-04-17 17:30:00,METAR GCLP 171730Z 03017KT CAVOK 20/16 Q1013 NOSIG
2026-04-17 17:00:00,METAR GCLP 171700Z 03016KT CAVOK 21/17 Q1013 NOSIG
2026-04-17 16:30:00,METAR GCLP 171630Z 03017KT CAVOK 21/16 Q1013 NOSIG
2026-04-17 16:00:00,METAR GCLP 171600Z 03017KT CAVOK 21/17 Q1014 NOSIG
2026-04-17 15:30:00,METAR GCLP 171530Z 03016KT 9999 FEW020 22/17 Q1014 NOSIG
2026-04-17 15:00:00,METAR GCLP 171500Z 03017KT 9999 FEW020 22/17 Q1014 NOSIG
2026-04-17 14:30:00,METAR GCLP 171430Z 03017KT CAVOK 21/16 Q1014 NOSIG
2026-04-17 14:00:00,METAR GCLP 171400Z 03017KT CAVOK 21/16 Q1015 NOSIG
2026-04-17 13:30:00,METAR GCLP 171330Z 03017KT 9999 FEW017 21/16 Q1015 NOSIG
2026-04-17 13:00:00,METAR GCLP 171300Z 02016KT 350V050 9999 FEW017 21/16 Q1015 NOSIG
2026-04-17 12:30:00,METAR GCLP 171230Z 03017KT 9999 FEW017 21/16 Q1015 NOSIG
2026-04-17 12:00:00,METAR GCLP 171200Z 03017KT 9999 FEW017 21/16 Q1015 NOSIG
2026-04-17 11:30:00,METAR GCLP 171130Z 03018KT 9999 FEW017 21/16 Q1015 NOSIG
2026-04-17 11:00:00,METAR GCLP 171100Z 02016KT 9999 FEW017 21/16 Q1015 NOSIG
2026-04-17 10:30:00,METAR GCLP 171030Z 02014KT 9999 FEW017 21/16 Q1015 NOSIG
2026-04-17 10:00:00,METAR GCLP 171000Z 02014KT 9999 FEW015 21/16 Q1015 NOSIG
2026-04-17 09:30:00,METAR GCLP 170930Z 01014KT 9999 FEW015 21/16 Q1015 NOSIG
2026-04-17 09:00:00,METAR GCLP 170900Z 02015KT 9999 FEW017 20/15 Q1015 NOSIG
2026-04-17 08:30:00,METAR GCLP 170830Z 01015KT 9999 FEW015 19/15 Q1015 NOSIG
2026-04-17 08:00:00,METAR GCLP 170800Z 36013KT 9999 FEW015 18/15 Q1015 NOSIG
2026-04-17 07:30:00,METAR GCLP 170730Z 36012KT 9999 FEW015 18/14 Q1014 NOSIG
2026-04-17 07:00:00,METAR GCLP 170700Z 36011KT 9999 BKN015 18/14 Q1015 NOSIG
2026-04-17 06:30:00,METAR GCLP 170630Z 01011KT 9999 OVC017 18/15 Q1015 NOSIG
2026-04-17 06:00:00,METAR GCLP 170600Z 02012KT 9999 BKN017 18/14 Q1014 NOSIG
2026-04-17 05:30:00,METAR GCLP 170530Z 01014KT 9999 BKN017 18/14 Q1014 NOSIG
2026-04-17 05:00:00,METAR GCLP 170500Z 01013KT 9999 BKN017 18/14 Q1015 NOSIG
2026-04-17 04:30:00,METAR GCLP 170430Z 03016KT 9999 BKN017 18/15 Q1015 NOSIG
2026-04-17 04:00:00,METAR GCLP 170400Z 01018KT 9999 SCT016 18/15 Q1014 NOSIG
2026-04-17 03:30:00,METAR GCLP 170330Z 01017KT 9999 SCT016 18/15 Q1014 NOSIG
2026-04-17 03:00:00,METAR GCLP 170300Z 01021KT 9999 FEW015 18/14 Q1014 NOSIG
2026-04-17 02:30:00,METAR GCLP 170230Z 01020KT 9999 FEW015 18/15 Q1014 NOSIG
2026-04-17 02:00:00,METAR GCLP 170200Z 01022KT 9999 FEW015 18/14 Q1015 NOSIG
2026-04-17 01:30:00,METAR GCLP 170130Z 01018KT 9999 FEW015 18/15 Q1015 NOSIG
2026-04-17 01:00:00,METAR GCLP 170100Z 01019KT CAVOK 18/15 Q1015 NOSIG
2026-04-17 00:30:00,METAR GCLP 170030Z 01020KT CAVOK 18/15 Q1015 NOSIG
2026-04-17 00:00:00,METAR GCLP 170000Z 01021KT CAVOK 18/15 Q1015 NOSIG
2026-04-16 23:30:00,METAR GCLP 162330Z 01021KT 9999 FEW030 18/15 Q1015 NOSIG
2026-04-16 23:00:00,METAR GCLP 162300Z 01021KT 9999 FEW030 18/15 Q1015 NOSIG
2026-04-16 22:30:00,METAR GCLP 162230Z 36020KT CAVOK 19/15 Q1016 NOSIG
2026-04-16 22:00:00,METAR GCLP 162200Z 01019KT CAVOK 19/15 Q1016 NOSIG
2026-04-16 21:30:00,METAR GCLP 162130Z 01019KT CAVOK 19/15 Q1016 NOSIG
2026-04-16 21:00:00,METAR GCLP 162100Z 01017KT CAVOK 19/15 Q1015 NOSIG
2026-04-16 20:30:00,METAR GCLP 162030Z 01019KT CAVOK 19/15 Q1015 NOSIG
2026-04-16 20:00:00,METAR GCLP 162000Z 01018KT CAVOK 19/15 Q1015 NOSIG
2026-04-16 19:30:00,METAR GCLP 161930Z 01019KT CAVOK 19/15 Q1015 NOSIG
2026-04-16 19:00:00,METAR GCLP 161900Z 02018KT CAVOK 20/16 Q1015 NOSIG
2026-04-16 18:30:00,METAR GCLP 161830Z 02018KT CAVOK 20/16 Q1015 NOSIG
2026-04-16 18:00:00,METAR GCLP 161800Z 02019KT CAVOK 20/16 Q1015 NOSIG
2026-04-16 17:30:00,METAR GCLP 161730Z 02019KT CAVOK 20/16 Q1015 NOSIG
2026-04-16 17:00:00,METAR GCLP 161700Z 03019KT CAVOK 21/16 Q1015 NOSIG
2026-04-16 16:30:00,METAR GCLP 161630Z 03019KT CAVOK 21/16 Q1015 NOSIG
2026-04-16 16:00:00,METAR GCLP 161600Z 03018KT CAVOK 21/15 Q1015 NOSIG
2026-04-16 15:30:00,METAR GCLP 161530Z 03017KT CAVOK 22/15 Q1015 NOSIG
2026-04-16 15:00:00,METAR GCLP 161500Z 03017KT CAVOK 22/15 Q1015 NOSIG
2026-04-16 14:30:00,METAR GCLP 161430Z 03017KT CAVOK 22/15 Q1015 NOSIG
2026-04-16 14:00:00,METAR GCLP 161400Z 03017KT CAVOK 22/14 Q1016 NOSIG
2026-04-16 13:30:00,METAR GCLP 161330Z 03015KT CAVOK 22/15 Q1016 NOSIG
2026-04-16 13:00:00,METAR GCLP 161300Z 03017KT CAVOK 22/14 Q1016 NOSIG
2026-04-16 12:30:00,METAR GCLP 161230Z 03018KT CAVOK 21/15 Q1017 NOSIG
2026-04-16 12:00:00,METAR GCLP 161200Z 03017KT CAVOK 21/14 Q1017 NOSIG
2026-04-16 11:30:00,METAR GCLP 161130Z 03018KT CAVOK 21/14 Q1017 NOSIG
2026-04-16 11:00:00,METAR GCLP 161100Z 03019KT CAVOK 21/14 Q1017 NOSIG
2026-04-16 10:30:00,METAR GCLP 161030Z 03019KT 9999 FEW035 21/13 Q1017 NOSIG
2026-04-16 10:00:00,METAR GCLP 161000Z 02018KT 360V060 9999 FEW030 21/14 Q1017 NOSIG
2026-04-16 09:30:00,METAR GCLP 160930Z 03018KT 9999 FEW030 20/13 Q1017 NOSIG
2026-04-16 09:00:00,METAR GCLP 160900Z 01016KT 9999 SCT025 20/14 Q1017 NOSIG
2026-04-16 08:30:00,METAR GCLP 160830Z 02018KT 9999 FEW030 20/13 Q1017 NOSIG
2026-04-16 08:00:00,METAR GCLP 160800Z 36015KT 9999 FEW030 19/13 Q1016 NOSIG
2026-04-16 07:30:00,METAR GCLP 160730Z 35017KT 9999 FEW030 18/13 Q1016 NOSIG
2026-04-16 07:00:00,METAR GCLP 160700Z 36019KT 9999 FEW030 18/12 Q1016 NOSIG
2026-04-16 06:30:00,METAR GCLP 160630Z 36014KT 9999 FEW025 17/13 Q1016 NOSIG
2026-04-16 06:00:00,METAR GCLP 160600Z 36013KT 9999 SCT025 17/12 Q1016 NOSIG
2026-04-16 05:30:00,METAR GCLP 160530Z 36014KT 9999 SCT025 17/12 Q1016 NOSIG
2026-04-16 05:00:00,METAR GCLP 160500Z 36014KT 9999 FEW025 17/13 Q1015 NOSIG
2026-04-16 04:30:00,METAR GCLP 160430Z 36014KT 9999 FEW025 17/13 Q1015 NOSIG
2026-04-16 04:00:00,METAR GCLP 160400Z 35013KT 9999 FEW025 17/12 Q1016 NOSIG
2026-04-16 03:30:00,METAR GCLP 160330Z 35014KT 9999 FEW025 17/13 Q1016 NOSIG
2026-04-16 03:00:00,METAR GCLP 160300Z 36013KT 9999 FEW025 17/13 Q1016 NOSIG
2026-04-16 02:30:00,METAR GCLP 160230Z 36012KT 9999 FEW025 17/13 Q1016 NOSIG
2026-04-16 02:00:00,METAR GCLP 160200Z 36013KT 9999 FEW025 17/13 Q1017 NOSIG
2026-04-16 01:30:00,METAR GCLP 160130Z 36014KT 9999 FEW025 17/13 Q1017 NOSIG
2026-04-16 01:00:00,METAR GCLP 160100Z 36011KT 9999 FEW025 17/13 Q1017 NOSIG
2026-04-16 00:30:00,METAR GCLP 160030Z 36012KT 9999 FEW025 18/13 Q1018 NOSIG
2026-04-16 00:00:00,METAR GCLP 160000Z 36012KT 9999 FEW025 18/14 Q1018 NOSIG
2026-04-15 23:30:00,METAR GCLP 152330Z 36013KT 9999 SCT025 18/13 Q1018 NOSIG
2026-04-15 23:00:00,METAR GCLP 152300Z 36013KT 9999 SCT025 18/15 Q1018 NOSIG
2026-04-15 22:30:00,METAR GCLP 152230Z 01014KT 9999 SCT025 18/15 Q1018 NOSIG
2026-04-15 22:00:00,METAR GCLP 152200Z 01016KT 9999 SCT025 18/15 Q1018 NOSIG
2026-04-15 21:30:00,METAR GCLP 152130Z 01016KT 9999 SCT025 18/15 Q1018 NOSIG
2026-04-15 21:00:00,METAR GCLP 152100Z 01015KT 9999 SCT025 18/15 Q1018 NOSIG
2026-04-15 20:30:00,METAR GCLP 152030Z 01016KT 9999 BKN025 18/15 Q1017 NOSIG
2026-04-15 20:00:00,METAR GCLP 152000Z 01017KT 9999 BKN025 19/15 Q1017 NOSIG
2026-04-15 19:30:00,METAR GCLP 151930Z 01017KT 9999 BKN025 19/15 Q1017 NOSIG
2026-04-15 19:00:00,METAR GCLP 151900Z 01019KT 9999 BKN025 19/15 Q1017 NOSIG
2026-04-15 18:30:00,METAR GCLP 151830Z 02020KT 9999 BKN025 19/15 Q1017 NOSIG
2026-04-15 18:00:00,METAR GCLP 151800Z 01020KT 9999 BKN025 20/15 Q1017 NOSIG
2026-04-15 17:30:00,METAR GCLP 151730Z 01021KT 9999 SCT025 20/15 Q1017 NOSIG
2026-04-15 17:00:00,METAR GCLP 151700Z 01022KT 9999 FEW025 21/15 Q1017 NOSIG
2026-04-15 16:30:00,METAR GCLP 151630Z 02022KT 9999 FEW025 21/15 Q1017 NOSIG
2026-04-15 16:00:00,METAR GCLP 151600Z 03023KT 9999 FEW025 21/15 Q1017 NOSIG
2026-04-15 15:30:00,METAR GCLP 151530Z 02023KT 9999 FEW025 21/15 Q1017 NOSIG
2026-04-15 15:00:00,METAR GCLP 151500Z 03024KT 9999 FEW025 21/15 Q1017 NOSIG
2026-04-15 14:30:00,METAR GCLP 151430Z 03023KT 9999 FEW025 22/15 Q1018 NOSIG
2026-04-15 14:00:00,METAR GCLP 151400Z 02024KT 350V050 9999 FEW020 22/14 Q1018 NOSIG
2026-04-15 13:30:00,METAR GCLP 151330Z 02022KT 9999 FEW020 SCT030 22/15 Q1018 NOSIG
2026-04-15 13:00:00,METAR GCLP 151300Z 02021KT 350V050 9999 FEW020 SCT030 22/15 Q1018 NOSIG
2026-04-15 12:30:00,METAR GCLP 151230Z 02022KT 9999 FEW020 SCT035 21/14 Q1019 NOSIG
2026-04-15 12:00:00,METAR GCLP 151200Z 01023KT 9999 FEW020 SCT035 21/14 Q1019 NOSIG
2026-04-15 11:30:00,METAR GCLP 151130Z 02022KT 9999 FEW020 SCT035 22/14 Q1019 NOSIG
2026-04-15 11:00:00,METAR GCLP 151100Z 01023KT 9999 FEW020 SCT035 21/14 Q1019 NOSIG
2026-04-15 10:30:00,METAR GCLP 151030Z 01022KT 9999 FEW025 SCT035 20/14 Q1019 NOSIG
2026-04-15 10:00:00,METAR GCLP 151000Z 01022KT 9999 FEW025 SCT035 20/14 Q1019 NOSIG
2026-04-15 09:30:00,METAR GCLP 150930Z 01021KT 9999 FEW025 BKN035 19/14 Q1019 NOSIG
2026-04-15 09:00:00,METAR GCLP 150900Z 01020KT 9999 FEW025 BKN035 19/13 Q1019 NOSIG
2026-04-15 08:30:00,METAR GCLP 150830Z 36017KT 9999 FEW025 BKN035 19/13 Q1018 NOSIG
2026-04-15 08:00:00,METAR GCLP 150800Z 35019KT 9999 BKN030 18/12 Q1018 NOSIG
2026-04-15 07:30:00,METAR GCLP 150730Z 35017KT 9999 BKN035 18/12 Q1018 NOSIG
2026-04-15 07:00:00,METAR GCLP 150700Z 34015KT 9999 BKN035 18/12 Q1018 NOSIG
2026-04-15 06:30:00,METAR GCLP 150630Z 34017KT 9999 BKN035 18/11 Q1018 NOSIG
2026-04-15 06:00:00,METAR GCLP 150600Z 35016KT 9999 BKN030 17/12 Q1018 NOSIG
2026-04-15 05:30:00,METAR GCLP 150530Z 35015KT 9999 BKN030 17/11 Q1018 NOSIG
2026-04-15 05:00:00,METAR GCLP 150500Z 35017KT 9999 BKN030 17/11 Q1017 NOSIG
2026-04-15 04:30:00,METAR GCLP 150430Z 36017KT 9999 SCT030 17/11 Q1018 NOSIG
2026-04-15 04:00:00,METAR GCLP 150400Z 36017KT 9999 BKN030 17/12 Q1018 NOSIG
2026-04-15 03:30:00,METAR GCLP 150330Z 35017KT 9999 BKN030 17/11 Q1018 NOSIG
2026-04-15 03:00:00,METAR GCLP 150300Z 35017KT 9999 SCT030 17/12 Q1018 NOSIG
2026-04-15 02:30:00,METAR GCLP 150230Z 36015KT 9999 FEW030 17/12 Q1018 NOSIG
2026-04-15 02:00:00,METAR GCLP 150200Z 36015KT 9999 FEW030 17/12 Q1019 NOSIG
2026-04-15 01:30:00,METAR GCLP 150130Z 36015KT 9999 FEW030 17/12 Q1019 NOSIG
2026-04-15 01:00:00,METAR GCLP 150100Z 36016KT 9999 FEW025 17/12 Q1019 NOSIG
2026-04-15 00:30:00,METAR GCLP 150030Z 36016KT 9999 FEW030 17/12 Q1020 NOSIG
2026-04-15 00:00:00,METAR GCLP 150000Z 36015KT 9999 FEW025 17/12 Q1020 NOSIG
2026-04-14 23:30:00,METAR GCLP 142330Z 01017KT 9999 FEW025 18/12 Q1020 NOSIG
2026-04-14 23:00:00,METAR GCLP 142300Z 01018KT 9999 FEW025 18/12 Q1020 NOSIG
2026-04-14 22:30:00,METAR GCLP 142230Z 01017KT 9999 FEW030 18/12 Q1020 NOSIG
2026-04-14 22:00:00,METAR GCLP 142200Z 36015KT 9999 FEW030 18/12 Q1020 NOSIG
2026-04-14 21:30:00,METAR GCLP 142130Z 36015KT 9999 FEW030 18/12 Q1020 NOSIG
2026-04-14 21:00:00,METAR GCLP 142100Z 35015KT 9999 SCT025 18/12 Q1020 NOSIG
2026-04-14 20:30:00,METAR GCLP 142030Z 36015KT 9999 FEW025 18/12 Q1019 NOSIG
2026-04-14 20:00:00,METAR GCLP 142000Z 01019KT 9999 FEW025 18/12 Q1019 NOSIG
2026-04-14 19:30:00,METAR GCLP 141930Z 01019KT 9999 FEW030 18/12 Q1019 NOSIG
2026-04-14 19:00:00,METAR GCLP 141900Z 01024KT 9999 FEW030 19/12 Q1018 NOSIG
2026-04-14 18:30:00,METAR GCLP 141830Z 01022KT 9999 FEW030 19/12 Q1018 NOSIG
2026-04-14 18:00:00,METAR GCLP 141800Z 01025KT 9999 FEW030 20/12 Q1018 NOSIG
2026-04-14 17:30:00,METAR GCLP 141730Z 01027KT 9999 FEW030 20/12 Q1018 NOSIG
2026-04-14 17:00:00,METAR GCLP 141700Z 02027KT 9999 FEW032 20/12 Q1018 NOSIG
2026-04-14 16:30:00,METAR GCLP 141630Z 02025KT 9999 FEW040 20/11 Q1018 NOSIG
2026-04-14 16:00:00,METAR GCLP 141600Z 02026KT 9999 FEW036 21/11 Q1018 NOSIG
2026-04-14 15:30:00,METAR GCLP 141530Z 02028KT 9999 FEW036 21/13 Q1018 NOSIG
2026-04-14 15:00:00,METAR GCLP 141500Z 02028KT 9999 FEW035 21/12 Q1018 NOSIG
2026-04-14 14:30:00,METAR GCLP 141430Z 02027KT 9999 FEW030 21/13 Q1019 NOSIG
2026-04-14 14:00:00,METAR GCLP 141400Z 03027KT 9999 FEW030 22/13 Q1019 NOSIG
2026-04-14 13:30:00,METAR GCLP 141330Z 02025KT 9999 FEW030 22/12 Q1019 NOSIG
2026-04-14 13:00:00,METAR GCLP 141300Z 02025KT 9999 SCT030 21/12 Q1020 NOSIG
2026-04-14 12:30:00,METAR GCLP 141230Z 02025KT 350V050 9999 FEW033 21/12 Q1020 NOSIG
2026-04-14 12:00:00,METAR GCLP 141200Z 02024KT 9999 FEW033 21/12 Q1020 NOSIG
2026-04-14 11:30:00,METAR GCLP 141130Z 02022KT 9999 FEW032 21/11 Q1021 NOSIG
2026-04-14 11:00:00,METAR GCLP 141100Z 01022KT 9999 FEW031 20/11 Q1021 NOSIG
2026-04-14 10:30:00,METAR GCLP 141030Z 01022KT 340V040 9999 FEW031 SCT037 19/11 Q1021 NOSIG
2026-04-14 10:00:00,METAR GCLP 141000Z 01022KT 9999 FEW031 SCT038 20/11 Q1021 NOSIG
2026-04-14 09:30:00,METAR GCLP 140930Z 01019KT 340V040 9999 SCT037 20/11 Q1021 NOSIG
2026-04-14 09:00:00,METAR GCLP 140900Z 01019KT 9999 SCT039 19/11 Q1020 NOSIG
2026-04-14 08:30:00,METAR GCLP 140830Z 01019KT 9999 FEW030 SCT040 18/10 Q1020 NOSIG
2026-04-14 08:00:00,METAR GCLP 140800Z COR 01020KT 9999 SCT030 BKN040 18/11 Q1021 NOSIG
2026-04-14 07:30:00,METAR GCLP 140730Z 01016KT 9999 SCT030 BKN039 17/11 Q1020 NOSIG
2026-04-14 07:00:00,METAR GCLP 140700Z 01019KT 9999 FEW028 BKN039 17/10 Q1020 NOSIG
2026-04-14 06:30:00,METAR GCLP 140630Z 01020KT 9999 FEW025 BKN035 17/11 Q1019 NOSIG
2026-04-14 06:00:00,METAR GCLP 140600Z 02021KT 9999 FEW025 BKN035 17/11 Q1019 NOSIG
2026-04-14 05:30:00,METAR GCLP 140530Z 01018KT 9999 FEW028 BKN035 17/11 Q1019 NOSIG
2026-04-14 05:00:00,METAR GCLP 140500Z 01021KT 9999 FEW030 BKN035 17/10 Q1019 NOSIG
2026-04-14 04:30:00,METAR GCLP 140430Z 01021KT 9999 FEW030 BKN037 17/10 Q1019 NOSIG
2026-04-14 04:00:00,METAR GCLP 140400Z 01021KT 9999 FEW030 BKN035 17/11 Q1019 NOSIG
2026-04-14 03:30:00,METAR GCLP 140330Z 01020KT 9999 FEW027 BKN035 17/11 Q1019 NOSIG
2026-04-14 03:00:00,METAR GCLP 140300Z 01020KT 9999 FEW027 BKN035 17/11 Q1020 NOSIG
2026-04-14 02:30:00,METAR GCLP 140230Z 01019KT 9999 FEW027 BKN035 17/11 Q1020 NOSIG
2026-04-14 02:00:00,METAR GCLP 140200Z 01017KT 9999 FEW027 BKN035 17/11 Q1020 NOSIG
2026-04-14 01:30:00,METAR GCLP 140130Z 01021KT 9999 FEW027 BKN033 17/11 Q1020 NOSIG
2026-04-14 01:00:00,METAR GCLP 140100Z 01023KT 9999 FEW027 BKN033 17/10 Q1020 NOSIG
2026-04-14 00:30:00,METAR GCLP 140030Z 01021KT 9999 FEW027 BKN033 17/10 Q1021 NOSIG
2026-04-14 00:00:00,METAR GCLP 140000Z 01023KT 9999 FEW027 BKN033 17/10 Q1021 NOSIG
2026-04-13 23:30:00,METAR GCLP 132330Z 01021KT 9999 FEW027 BKN035 17/11 Q1021 NOSIG
2026-04-13 23:00:00,METAR GCLP 132300Z 01023KT 9999 FEW030 BKN035 17/10 Q1021 NOSIG
2026-04-13 22:30:00,METAR GCLP 132230Z 01023KT 9999 BKN035 17/10 Q1021 NOSIG
2026-04-13 22:00:00,METAR GCLP 132200Z 02024KT 9999 BKN035 17/11 Q1021 NOSIG
2026-04-13 21:30:00,METAR GCLP 132130Z 01021KT 340V040 9999 BKN035 18/11 Q1021 NOSIG
2026-04-13 21:00:00,METAR GCLP 132100Z 01024KT 9999 BKN035 18/10 Q1021 NOSIG
2026-04-13 20:30:00,METAR GCLP 132030Z 01021KT 9999 BKN035 18/11 Q1021 NOSIG
2026-04-13 20:00:00,METAR GCLP 132000Z 01024KT 9999 BKN035 18/10 Q1020 NOSIG
2026-04-13 19:30:00,METAR GCLP 131930Z 01023KT 9999 SCT033 18/11 Q1020 NOSIG
2026-04-13 19:00:00,METAR GCLP 131900Z 02026KT 9999 SCT033 18/11 Q1020 NOSIG
2026-04-13 18:30:00,METAR GCLP 131830Z 01026KT 9999 SCT035 18/11 Q1020 NOSIG
2026-04-13 18:00:00,METAR GCLP 131800Z 02027KT 9999 SCT035 19/11 Q1020 NOSIG
2026-04-13 17:30:00,METAR GCLP 131730Z 01026KT 9999 SCT035 19/11 Q1020 NOSIG
2026-04-13 17:00:00,METAR GCLP 131700Z 01026KT 9999 SCT035 19/11 Q1020 NOSIG
2026-04-13 16:30:00,METAR GCLP 131630Z 02028KT 9999 SCT030 19/10 Q1020 NOSIG
2026-04-13 16:00:00,METAR GCLP 131600Z 02025KT 9999 SCT030 20/11 Q1021 NOSIG
2026-04-13 15:30:00,METAR GCLP 131530Z 02028KT 9999 FEW030 21/10 Q1021 NOSIG
2026-04-13 15:00:00,METAR GCLP 131500Z 02027KT 9999 FEW030 20/10 Q1021 NOSIG
2026-04-13 14:30:00,METAR GCLP 131430Z 03027KT 9999 FEW030 20/10 Q1021 NOSIG
2026-04-13 14:00:00,METAR GCLP 131400Z 02026KT 9999 SCT030 21/12 Q1022 NOSIG
2026-04-13 13:30:00,METAR GCLP 131330Z 02024KT 9999 BKN030 20/12 Q1022 NOSIG
2026-04-13 13:00:00,METAR GCLP 131300Z 36024KT 330V030 9999 BKN035 21/10 Q1022 NOSIG
2026-04-13 12:30:00,METAR GCLP 131230Z 01023KT 340V040 9999 BKN040 20/10 Q1022 NOSIG
2026-04-13 12:00:00,METAR GCLP 131200Z 01024KT 9999 BKN040 20/10 Q1022 NOSIG
2026-04-13 11:30:00,METAR GCLP 131130Z 02024KT 9999 BKN030 19/09 Q1023 NOSIG
2026-04-13 11:00:00,METAR GCLP 131100Z 02023KT 9999 BKN030 19/10 Q1023 NOSIG
2026-04-13 10:30:00,METAR GCLP 131030Z 02022KT 9999 BKN030 19/09 Q1023 NOSIG
2026-04-13 10:00:00,METAR GCLP 131000Z 03025KT 9999 BKN030 19/10 Q1022 NOSIG
2026-04-13 09:30:00,METAR GCLP 130930Z 01019KT 9999 BKN030 18/11 Q1022 NOSIG
2026-04-13 09:00:00,METAR GCLP 130900Z 02024KT 9999 BKN035 18/08 Q1022 NOSIG
2026-04-13 08:30:00,METAR GCLP 130830Z 02022KT 340V040 9999 BKN035 18/10 Q1022 NOSIG
2026-04-13 08:00:00,METAR GCLP 130800Z 36016KT 320V020 9999 BKN030 17/09 Q1022 NOSIG
2026-04-13 07:30:00,METAR GCLP 130730Z 02023KT 9999 BKN030 17/08 Q1022 NOSIG
2026-04-13 07:00:00,METAR GCLP 130700Z 01019KT 9999 BKN030 17/10 Q1021 NOSIG
2026-04-13 06:30:00,METAR GCLP 130630Z 36018KT 9999 BKN030 17/09 Q1021 NOSIG
2026-04-13 06:00:00,METAR GCLP 130600Z 01020KT 9999 BKN030 17/11 Q1021 NOSIG
2026-04-13 05:30:00,METAR GCLP 130530Z 02023KT 9999 BKN030 17/08 Q1021 NOSIG
2026-04-13 05:00:00,METAR GCLP 130500Z 01021KT 9999 BKN030 17/10 Q1021 NOSIG
2026-04-13 04:30:00,METAR GCLP 130430Z 36016KT 9999 BKN030 17/10 Q1021 NOSIG
2026-04-13 04:00:00,METAR GCLP 130400Z 35017KT 9999 BKN030 17/09 Q1021 NOSIG
2026-04-13 03:30:00,METAR GCLP 130330Z 36018KT 9999 BKN030 17/08 Q1021 NOSIG
2026-04-13 03:00:00,METAR GCLP 130300Z 01023KT 9999 BKN030 17/09 Q1022 NOSIG
2026-04-13 02:30:00,METAR GCLP 130230Z 01020KT 9999 BKN030 17/10 Q1022 NOSIG
2026-04-13 02:00:00,METAR GCLP 130200Z 01020KT 9999 BKN030 17/10 Q1022 NOSIG
2026-04-13 01:30:00,METAR GCLP 130130Z 01021KT 9999 BKN030 17/11 Q1022 NOSIG
2026-04-13 01:00:00,METAR GCLP 130100Z 36018KT 9999 BKN035 17/10 Q1022 NOSIG
2026-04-13 00:30:00,METAR GCLP 130030Z 01021KT 9999 BKN030 17/10 Q1022 NOSIG
2026-04-13 00:00:00,METAR GCLP 130000Z 01023KT 9999 BKN030 17/08 Q1023 NOSIG
2026-04-12 23:30:00,METAR GCLP 122330Z 01024KT 9999 BKN030 17/10 Q1023 NOSIG
2026-04-12 23:00:00,METAR GCLP 122300Z 02024KT 9999 BKN030 17/09 Q1022 NOSIG
2026-04-12 22:30:00,METAR GCLP 122230Z 02024KT 9999 BKN030 17/08 Q1023 NOSIG
2026-04-12 22:00:00,METAR GCLP 122200Z 36020KT 9999 -RA BKN030 17/10 Q1023 NOSIG
2026-04-12 21:30:00,METAR GCLP 122130Z 36019KT 9999 BKN035 17/11 Q1023 NOSIG
2026-04-12 21:00:00,METAR GCLP 122100Z 02019KT 9999 BKN035 17/09 Q1023 NOSIG
2026-04-12 20:30:00,METAR GCLP 122030Z 01023KT 9999 BKN035 17/08 Q1022 NOSIG
2026-04-12 20:00:00,METAR GCLP 122000Z 01020KT 9999 BKN035 17/10 Q1022 NOSIG
2026-04-12 19:30:00,METAR GCLP 121930Z 01023KT 9999 BKN030 18/09 Q1022 NOSIG
2026-04-12 19:00:00,METAR GCLP 121900Z 02024KT 9999 BKN030 18/11 Q1021 NOSIG
2026-04-12 18:30:00,METAR GCLP 121830Z 01024KT 9999 BKN030 18/11 Q1021 NOSIG
2026-04-12 18:00:00,METAR GCLP 121800Z 02025KT 9999 BKN030 18/11 Q1021 NOSIG
2026-04-12 17:30:00,METAR GCLP 121730Z 02024KT 9999 SCT030 18/11 Q1021 NOSIG
2026-04-12 17:00:00,METAR GCLP 121700Z 02024KT 9999 BKN030 18/11 Q1021 NOSIG
2026-04-12 16:30:00,METAR GCLP 121630Z 02022KT 350V050 9999 BKN030 18/12 Q1021 NOSIG
2026-04-12 16:00:00,METAR GCLP 121600Z 02023KT 360V060 9999 BKN030 19/12 Q1021 NOSIG
2026-04-12 15:00:00,METAR GCLP 121500Z 01022KT 9999 BKN030 19/10 Q1021 NOSIG
2026-04-12 14:30:00,METAR GCLP 121430Z 02023KT 9999 BKN030 19/10 Q1022 NOSIG
2026-04-12 14:00:00,METAR GCLP 121400Z 02024KT 9999 BKN030 19/11 Q1022 NOSIG
2026-04-12 13:30:00,METAR GCLP 121330Z 03024KT 9999 BKN030 19/12 Q1022 NOSIG
2026-04-12 13:00:00,METAR GCLP 121300Z 02024KT 9999 FEW020 BKN030 19/12 Q1022 NOSIG
2026-04-12 12:30:00,METAR GCLP 121230Z 03022KT 9999 SCT020 BKN030 19/14 Q1023 NOSIG
2026-04-12 12:00:00,METAR GCLP 121200Z 02022KT 9999 SCT020 BKN030 18/14 Q1023 NOSIG
2026-04-12 11:30:00,METAR GCLP 121130Z 02024KT 9999 SCT020 BKN030 20/14 Q1023 NOSIG
2026-04-12 11:00:00,METAR GCLP 121100Z 02022KT 9999 SCT020 BKN030 20/14 Q1023 NOSIG
2026-04-12 10:30:00,METAR GCLP 121030Z 02021KT 9999 SCT020 BKN030 19/14 Q1023 NOSIG
2026-04-12 10:00:00,METAR GCLP 121000Z 02021KT 9999 SCT020 BKN025 19/16 Q1023 NOSIG
2026-04-12 09:30:00,METAR GCLP 120930Z 02022KT 9999 SCT017 BKN025 18/16 Q1022 NOSIG
2026-04-12 09:00:00,METAR GCLP 120900Z 01015KT 9999 BKN018 BKN025 18/15 Q1022 RERA NOSIG
2026-04-12 08:46:00,SPECI GCLP 120846Z 36017KT 9999 FEW015 BKN025 18/15 Q1022 RERA NOSIG
2026-04-12 08:36:00,SPECI GCLP 120836Z 01013KT 4500 RA BKN015 BKN030 18/15 Q1022 NOSIG
2026-04-12 08:30:00,METAR GCLP 120830Z 01014KT 9999 SCT017 BKN030 18/14 Q1022 NOSIG
2026-04-12 08:00:00,METAR GCLP 120800Z 36013KT 9999 FEW017 BKN030 18/14 Q1021 NOSIG
2026-04-12 07:30:00,METAR GCLP 120730Z 36013KT 9999 FEW020 BKN030 17/15 Q1021 NOSIG
2026-04-12 07:00:00,METAR GCLP 120700Z 36014KT 320V020 9999 FEW020 SCT035 17/14 Q1021 NOSIG
2026-04-12 06:30:00,METAR GCLP 120630Z 01016KT 9999 FEW020 SCT040 17/14 Q1020 NOSIG
2026-04-12 06:00:00,METAR GCLP 120600Z 01016KT 9999 FEW030 BKN045 17/13 Q1020 NOSIG
2026-04-12 05:30:00,METAR GCLP 120530Z 35016KT 9999 FEW035 BKN045 18/11 Q1020 NOSIG
2026-04-12 05:00:00,METAR GCLP 120500Z 01015KT 9999 FEW035 BKN045 17/12 Q1020 NOSIG
2026-04-12 04:30:00,METAR GCLP 120430Z 36014KT 330V030 9999 BKN040 18/11 Q1020 NOSIG
2026-04-12 04:00:00,METAR GCLP 120400Z 35015KT 9999 BKN040 18/11 Q1020 NOSIG
2026-04-12 03:30:00,METAR GCLP 120330Z 36015KT 9999 SCT040 17/11 Q1020 NOSIG
2026-04-12 03:00:00,METAR GCLP 120300Z 35016KT 9999 FEW040 17/11 Q1020 NOSIG
2026-04-12 02:30:00,METAR GCLP 120230Z 36014KT 9999 FEW025 BKN045 18/11 Q1021 NOSIG
2026-04-12 02:00:00,METAR GCLP 120200Z 35017KT 9999 FEW025 BKN040 17/12 Q1021 NOSIG
2026-04-12 01:30:00,METAR GCLP 120130Z 35016KT 9999 FEW025 SCT040 17/12 Q1021 NOSIG
2026-04-12 01:00:00,METAR GCLP 120100Z 35017KT 9999 FEW025 BKN045 17/13 Q1021 NOSIG
2026-04-12 00:30:00,METAR GCLP 120030Z 36017KT 9999 FEW020 BKN045 16/14 Q1021 NOSIG
2026-04-12 00:00:00,METAR GCLP 120000Z 01018KT 9999 -RA FEW020 BKN040 17/14 Q1022 NOSIG
2026-04-11 23:30:00,METAR GCLP 112330Z 36016KT 9999 FEW025 SCT035 18/13 Q1022 NOSIG
2026-04-11 23:00:00,METAR GCLP 112300Z 35016KT 9999 FEW025 BKN035 17/13 Q1022 NOSIG
2026-04-11 22:30:00,METAR GCLP 112230Z 36017KT 9999 FEW020 BKN035 17/14 Q1022 NOSIG
2026-04-11 22:00:00,METAR GCLP 112200Z 35014KT 9999 FEW025 BKN035 18/12 Q1022 NOSIG
2026-04-11 21:30:00,METAR GCLP 112130Z 36015KT 9999 FEW025 BKN035 18/12 Q1021 WS ALL RWY NOSIG
2026-04-11 21:00:00,METAR GCLP 112100Z 36013KT 9999 FEW025 BKN040 18/12 Q1021 WS ALL RWY NOSIG
2026-04-11 20:30:00,METAR GCLP 112030Z 34015KT 310V020 9999 FEW025 BKN035 18/12 Q1021 WS ALL RWY NOSIG
2026-04-11 20:00:00,METAR GCLP 112000Z 36017KT 9999 BKN035 18/13 Q1021 WS ALL RWY NOSIG
2026-04-11 19:30:00,METAR GCLP 111930Z 36021KT 9999 BKN035 18/13 Q1020 WS ALL RWY NOSIG
2026-04-11 19:00:00,METAR GCLP 111900Z 36020KT 9999 BKN035 19/12 Q1020 WS ALL RWY NOSIG
2026-04-11 18:30:00,METAR GCLP 111830Z 35020KT 9999 SCT035 20/12 Q1020 WS ALL RWY NOSIG
2026-04-11 18:00:00,METAR GCLP 111800Z 35020KT 320V020 9999 FEW035 20/11 Q1020 WS ALL RWY NOSIG
2026-04-11 17:30:00,METAR GCLP 111730Z 34022KT 310V030 9999 SCT035 20/10 Q1020 WS ALL RWY NOSIG
2026-04-11 17:00:00,METAR GCLP 111700Z 35020KT 320V020 9999 FEW035 20/11 Q1020 WS ALL RWY NOSIG
2026-04-11 16:30:00,METAR GCLP 111630Z 35022G34KT 9999 FEW030 21/12 Q1020 WS ALL RWY NOSIG
2026-04-11 16:00:00,METAR GCLP 111600Z 34020G31KT 310V010 9999 FEW030 SCT035 21/11 Q1020 WS ALL RWY NOSIG
2026-04-11 15:30:00,METAR GCLP 111530Z 35021KT 320V020 9999 FEW030 SCT035 22/11 Q1020 WS ALL RWY NOSIG
2026-04-11 15:00:00,METAR GCLP 111500Z 01022KT 9999 FEW030 SCT038 21/11 Q1020 WS ALL RWY NOSIG
2026-04-11 14:30:00,METAR GCLP 111430Z 36023KT 9999 FEW030 SCT038 22/11 Q1020 NOSIG
2026-04-11 14:00:00,METAR GCLP 111400Z 36024KT 9999 FEW030 SCT038 22/12 Q1021 NOSIG
2026-04-11 13:30:00,METAR GCLP 111330Z 36023KT 9999 FEW030 SCT038 22/11 Q1021 NOSIG
2026-04-11 13:00:00,METAR GCLP 111300Z 35024G34KT 9999 FEW030 SCT038 22/12 Q1021 NOSIG
2026-04-11 12:30:00,METAR GCLP 111230Z 36023G33KT 9999 FEW030 SCT038 22/12 Q1021 NOSIG
2026-04-11 12:00:00,METAR GCLP 111200Z 35023KT 9999 FEW030 SCT038 21/11 Q1021 NOSIG
2026-04-11 11:30:00,METAR GCLP 111130Z 36021G31KT 330V030 9999 SCT033 SCT042 21/12 Q1021 NOSIG
2026-04-11 11:00:00,METAR GCLP 111100Z 35020KT 320V020 9999 SCT032 SCT042 20/12 Q1021 NOSIG
2026-04-11 10:30:00,METAR GCLP 111030Z 36025KT 310V020 9999 FEW030 SCT042 21/11 Q1021 NOSIG
2026-04-11 10:00:00,METAR GCLP 111000Z 35024KT 9999 FEW025 BKN042 20/12 Q1021 NOSIG
2026-04-11 09:30:00,METAR GCLP 110930Z 36019KT 9999 FEW025 BKN042 19/13 Q1021 NOSIG
2026-04-11 09:00:00,METAR GCLP 110900Z 35013G23KT 9999 FEW025 BKN042 19/13 Q1020 NOSIG
2026-04-11 08:30:00,METAR GCLP 110830Z 35017KT 9999 FEW025 BKN042 19/13 Q1020 NOSIG
2026-04-11 08:00:00,METAR GCLP 110800Z 36016KT 330V030 9999 FEW025 BKN040 19/14 Q1020 NOSIG
2026-04-11 07:30:00,METAR GCLP 110730Z 36016KT 9999 FEW025 BKN035 18/14 Q1019 NOSIG
2026-04-11 07:00:00,METAR GCLP 110700Z 01014KT 9999 FEW025 BKN040 18/14 Q1019 NOSIG
2026-04-11 06:30:00,METAR GCLP 110630Z 36012KT 330V030 9999 FEW020 BKN035 18/13 Q1019 NOSIG
2026-04-11 06:00:00,METAR GCLP 110600Z 36014KT 9999 SCT025 BKN035 18/13 Q1019 NOSIG
2026-04-11 05:30:00,METAR GCLP 110530Z 01013KT 9999 SCT020 BKN035 18/14 Q1019 NOSIG
2026-04-11 05:00:00,METAR GCLP 110500Z 36012KT 9999 -RA FEW025 BKN035 18/14 Q1019 NOSIG
2026-04-11 04:30:00,METAR GCLP 110430Z 34013KT 300V360 9999 BKN035 19/13 Q1019 NOSIG
2026-04-11 04:00:00,METAR GCLP 110400Z 01012KT 9999 BKN035 18/14 Q1019 NOSIG
2026-04-11 03:30:00,METAR GCLP 110330Z 35014KT 320V020 9999 BKN035 19/12 Q1019 NOSIG
2026-04-11 03:00:00,METAR GCLP 110300Z 01012KT 9999 BKN035 19/12 Q1019 NOSIG
2026-04-11 02:30:00,METAR GCLP 110230Z 36014KT 9999 BKN035 19/12 Q1019 NOSIG
2026-04-11 02:00:00,METAR GCLP 110200Z 35012KT 9999 BKN035 19/12 Q1019 NOSIG
2026-04-11 01:30:00,METAR GCLP 110130Z 34013KT 9999 BKN035 18/13 Q1020 NOSIG
2026-04-11 01:00:00,METAR GCLP 110100Z 36013KT 9999 BKN040 18/14 Q1020 NOSIG
2026-04-11 00:30:00,METAR GCLP 110030Z 36013KT 340V040 9999 BKN040 18/14 Q1020 NOSIG
2026-04-11 00:00:00,METAR GCLP 110000Z 36010KT 330V030 9999 BKN040 19/13 Q1020 NOSIG
2026-04-10 23:30:00,METAR GCLP 102330Z 36015KT 9999 FEW030 BKN050 19/13 Q1020 NOSIG
2026-04-10 23:00:00,METAR GCLP 102300Z 01012KT 330V030 9999 FEW035 BKN050 19/14 Q1020 NOSIG
2026-04-10 22:30:00,METAR GCLP 102230Z 01012KT 9999 FEW030 BKN050 18/14 Q1020 NOSIG
2026-04-10 22:00:00,METAR GCLP 102200Z 35011KT 9999 FEW030 BKN055 19/13 Q1020 NOSIG
2026-04-10 21:30:00,METAR GCLP 102130Z 35013KT 320V020 9999 FEW035 SCT050 18/12 Q1020 NOSIG
2026-04-10 21:00:00,METAR GCLP 102100Z 36013KT 320V030 9999 FEW035 SCT050 18/13 Q1020 NOSIG
2026-04-10 20:30:00,METAR GCLP 102030Z 35013KT 320V020 9999 FEW035 BKN050 19/12 Q1019 NOSIG
2026-04-10 20:00:00,METAR GCLP 102000Z 34010KT 9999 FEW035 BKN050 19/12 Q1019 NOSIG
2026-04-10 19:30:00,METAR GCLP 101930Z 36013KT 9999 -RA FEW035 BKN050 18/13 Q1018 NOSIG
2026-04-10 19:00:00,METAR GCLP 101900Z 36012KT 9999 FEW035 BKN050 19/12 Q1018 NOSIG
2026-04-10 18:30:00,METAR GCLP 101830Z 35015KT 330V030 9999 FEW035 SCT050 19/12 Q1018 NOSIG
2026-04-10 18:00:00,METAR GCLP 101800Z 34016KT 9999 FEW035 SCT050 20/12 Q1018 NOSIG
2026-04-10 17:30:00,METAR GCLP 101730Z 34013KT 300V010 9999 FEW035 SCT050 21/12 Q1017 NOSIG
2026-04-10 17:00:00,METAR GCLP 101700Z 34016KT 280V020 9999 FEW035 SCT050 21/12 Q1017 NOSIG
2026-04-10 16:30:00,METAR GCLP 101630Z 35017KT 300V010 9999 FEW035 SCT050 21/12 Q1017 NOSIG
2026-04-10 16:00:00,METAR GCLP 101600Z 34017KT 310V010 9999 FEW035 SCT050 22/13 Q1017 NOSIG
2026-04-10 15:30:00,METAR GCLP 101530Z 34016KT 290V010 9999 FEW035 BKN050 21/12 Q1017 NOSIG
2026-04-10 15:00:00,METAR GCLP 101500Z 36018KT 9999 FEW035 BKN050 22/12 Q1017 NOSIG
2026-04-10 14:30:00,METAR GCLP 101430Z 01016KT 340V050 9999 FEW035 SCT050 21/15 Q1017 NOSIG
2026-04-10 14:00:00,METAR GCLP 101400Z 01021KT 9999 -RA FEW035 BKN050 19/14 Q1018 NOSIG
2026-04-10 13:30:00,METAR GCLP 101330Z 34014KT 300V010 9999 FEW035 BKN055 22/11 Q1018 NOSIG
2026-04-10 13:00:00,METAR GCLP 101300Z 34016KT 310V010 9999 FEW035 BKN050 22/11 Q1018 NOSIG
2026-04-10 12:30:00,METAR GCLP 101230Z 35016KT 9999 FEW035 BKN055 21/11 Q1018 NOSIG
2026-04-10 12:00:00,METAR GCLP 101200Z 34014KT 310V010 9999 FEW035 BKN055 21/11 Q1018 NOSIG
2026-04-10 11:30:00,METAR GCLP 101130Z VRB06KT 9999 FEW035 BKN055 20/12 Q1018 NOSIG
2026-04-10 11:00:00,METAR GCLP 101100Z VRB04KT 9999 FEW035 BKN055 20/12 Q1018 NOSIG
2026-04-10 10:30:00,METAR GCLP 101030Z 14006KT 110V170 9999 FEW035 BKN050 19/13 Q1018 NOSIG
2026-04-10 10:00:00,METAR GCLP 101000Z 14006KT 090V170 9999 FEW035 BKN050 20/13 Q1018 NOSIG
2026-04-10 09:30:00,METAR GCLP 100930Z 12004KT 070V160 9999 FEW040 19/13 Q1018 NOSIG
2026-04-10 09:00:00,METAR GCLP 100900Z 03004KT 330V060 9999 FEW040 19/12 Q1018 NOSIG
2026-04-10 08:30:00,METAR GCLP 100830Z 01005KT 340V050 9999 FEW040 18/11 Q1018 NOSIG
2026-04-10 08:00:00,METAR GCLP 100800Z 33004KT 280V010 9999 FEW030 SCT050 18/11 Q1018 NOSIG
2026-04-10 07:30:00,METAR GCLP 100730Z 36003KT 320V020 9999 FEW030 SCT050 16/09 Q1017 NOSIG
2026-04-10 07:00:00,METAR GCLP 100700Z 34005KT 280V020 9999 FEW030 15/08 Q1017 NOSIG
2026-04-10 06:30:00,METAR GCLP 100630Z 33005KT 300V010 9999 FEW030 15/08 Q1017 NOSIG
2026-04-10 06:00:00,METAR GCLP 100600Z 33007KT 300V360 9999 FEW035 16/08 Q1017 NOSIG
2026-04-10 05:30:00,METAR GCLP 100530Z 01010KT 9999 FEW035 16/09 Q1017 NOSIG
2026-04-10 05:00:00,METAR GCLP 100500Z 35010KT 9999 FEW040 17/08 Q1017 NOSIG
2026-04-10 04:30:00,METAR GCLP 100430Z 33009KT 9999 FEW040 17/08 Q1017 NOSIG
2026-04-10 04:00:00,METAR GCLP 100400Z 34009KT 9999 FEW040 17/09 Q1017 NOSIG
2026-04-10 03:30:00,METAR GCLP 100330Z 33009KT 290V010 9999 FEW040 17/09 Q1017 NOSIG
2026-04-10 03:00:00,METAR GCLP 100300Z 32009KT 280V350 9999 FEW040 17/09 Q1017 NOSIG
2026-04-10 02:30:00,METAR GCLP 100230Z 34010KT 300V010 9999 FEW040 17/10 Q1017 NOSIG
2026-04-10 02:00:00,METAR GCLP 100200Z 34012G24KT 320V020 9999 FEW040 17/10 Q1017 NOSIG
2026-04-10 01:30:00,METAR GCLP 100130Z 34017KT 9999 FEW040 17/10 Q1018 NOSIG
2026-04-10 01:00:00,METAR GCLP 100100Z 35016KT 9999 FEW040 16/12 Q1018 NOSIG
2026-04-10 00:30:00,METAR GCLP 100030Z 35015KT 9999 SCT040 16/12 Q1019 NOSIG
2026-04-10 00:00:00,METAR GCLP 100000Z 34012KT 9999 SCT040 16/11 Q1019 NOSIG
2026-04-09 23:30:00,METAR GCLP 092330Z 33015KT 9999 SCT040 16/12 Q1019 NOSIG
2026-04-09 23:00:00,METAR GCLP 092300Z 35013KT 9999 SCT035 17/11 Q1019 NOSIG
2026-04-09 22:30:00,METAR GCLP 092230Z 35014KT 9999 SCT035 17/12 Q1019 NOSIG
2026-04-09 22:00:00,METAR GCLP 092200Z 34014G24KT 310V020 9999 SCT035 17/13 Q1019 NOSIG
2026-04-09 21:30:00,METAR GCLP 092130Z 33013KT 9999 FEW035 17/11 Q1019 NOSIG
2026-04-09 21:00:00,METAR GCLP 092100Z 34011KT 9999 FEW035 17/12 Q1018 NOSIG
2026-04-09 20:30:00,METAR GCLP 092030Z 34012KT 320V020 9999 FEW035 17/12 Q1018 NOSIG
2026-04-09 20:00:00,METAR GCLP 092000Z 33015KT 9999 FEW035 17/11 Q1017 WS R03 NOSIG
2026-04-09 19:30:00,METAR GCLP 091930Z 34015G26KT 310V010 9999 FEW040 18/11 Q1017 WS R03 NOSIG
2026-04-09 19:00:00,METAR GCLP 091900Z 35018KT 320V020 9999 SCT040 17/14 Q1017 WS R03 NOSIG
2026-04-09 18:30:00,METAR GCLP 091830Z 33016KT 300V360 9999 FEW040 19/11 Q1017 WS R03 NOSIG
2026-04-09 18:00:00,METAR GCLP 091800Z 33019G29KT 300V360 9999 SCT030 19/11 Q1017 WS R03 NOSIG
2026-04-09 17:30:00,METAR GCLP 091730Z 32018G31KT 280V350 9999 SCT030 20/11 Q1016 WS R03 NOSIG
2026-04-09 17:00:00,METAR GCLP 091700Z 34020KT 9999 SCT030 21/10 Q1016 WS R03 NOSIG
2026-04-09 16:30:00,METAR GCLP 091630Z 34024KT 310V010 9999 SCT030 21/09 Q1016 WS R03 NOSIG
2026-04-09 16:00:00,METAR GCLP 091600Z 34022KT 9999 SCT030 22/09 Q1016 WS R03 NOSIG
2026-04-09 15:30:00,METAR GCLP 091530Z 33020G30KT 300V360 9999 SCT030 23/08 Q1016 WS R03 NOSIG
2026-04-09 15:00:00,METAR GCLP 091500Z 33022KT 300V360 9999 SCT030 22/09 Q1016 WS R03 NOSIG
2026-04-09 14:30:00,METAR GCLP 091430Z 33020G30KT 300V010 9999 SCT030 23/09 Q1016 WS R03 NOSIG
2026-04-09 14:00:00,METAR GCLP 091400Z 34021KT 300V010 9999 FEW030 24/08 Q1016 WS R03 NOSIG
2026-04-09 13:30:00,METAR GCLP 091330Z 34022G33KT 300V010 9999 FEW035 23/08 Q1017 WS R03 NOSIG
2026-04-09 13:00:00,METAR GCLP 091300Z 34017G27KT 270V020 9999 FEW040 23/09 Q1017 WS R03 NOSIG
2026-04-09 12:30:00,METAR GCLP 091230Z 02012KT 330V060 9999 FEW035 23/08 Q1017 WS R03 NOSIG
2026-04-09 12:00:00,METAR GCLP 091200Z VRB04KT 9999 FEW035 21/10 Q1017 NOSIG
2026-04-09 11:30:00,METAR GCLP 091130Z 34015KT 290V020 9999 FEW030 22/08 Q1017 NOSIG
2026-04-09 11:00:00,METAR GCLP 091100Z 21014KT 9999 FEW030 21/10 Q1017 NOSIG
2026-04-09 10:30:00,METAR GCLP 091030Z VRB05KT 9999 FEW030 SCT045 20/10 Q1017 NOSIG
2026-04-09 10:00:00,METAR GCLP 091000Z 20012KT 9999 FEW030 SCT050 20/10 Q1018 NOSIG
2026-04-09 09:30:00,METAR GCLP 090930Z VRB08G23KT 9999 FEW030 SCT050 20/09 Q1018 NOSIG
2026-04-09 09:00:00,METAR GCLP 090900Z 02010KT 290V040 9999 FEW030 SCT050 20/09 Q1018 NOSIG
2026-04-09 08:30:00,METAR GCLP 090830Z 25005KT 150V320 9999 FEW030 SCT050 18/10 Q1018 NOSIG
2026-04-09 08:00:00,METAR GCLP 090800Z 33015G26KT 290V020 9999 FEW030 SCT050 18/09 Q1018 NOSIG
2026-04-09 07:30:00,METAR GCLP 090730Z 34015KT 9999 FEW030 BKN050 17/10 Q1018 NOSIG
2026-04-09 07:00:00,METAR GCLP 090700Z 34010KT 320V020 9999 FEW030 BKN050 17/09 Q1017 NOSIG
2026-04-09 06:30:00,METAR GCLP 090630Z 33004KT 290V020 9999 FEW030 BKN050 16/09 Q1017 NOSIG
2026-04-09 06:00:00,METAR GCLP 090600Z 26003KT 230V320 9999 BKN050 16/09 Q1017 NOSIG
2026-04-09 05:30:00,METAR GCLP 090530Z VRB02KT 9999 SCT050 15/09 Q1017 NOSIG
2026-04-09 05:00:00,METAR GCLP 090500Z 22004KT 200V340 9999 SCT050 15/09 Q1017 NOSIG
2026-04-09 04:30:00,METAR GCLP 090430Z VRB03KT 9999 BKN045 16/09 Q1017 NOSIG
2026-04-09 04:00:00,METAR GCLP 090400Z VRB02KT 9999 BKN045 16/09 Q1017 NOSIG
2026-04-09 03:30:00,METAR GCLP 090330Z 33005KT 9999 BKN045 16/10 Q1017 NOSIG
2026-04-09 03:00:00,METAR GCLP 090300Z 31007KT 280V360 9999 BKN045 16/09 Q1018 NOSIG
2026-04-09 02:30:00,METAR GCLP 090230Z 35008KT 320V020 9999 BKN045 16/10 Q1018 NOSIG
2026-04-09 02:00:00,METAR GCLP 090200Z 01008KT 9999 BKN045 16/10 Q1018 NOSIG
2026-04-09 01:30:00,METAR GCLP 090130Z 34009KT 310V010 9999 SCT045 17/08 Q1019 NOSIG
2026-04-09 01:00:00,METAR GCLP 090100Z 33006KT 280V360 9999 FEW040 16/08 Q1019 NOSIG
2026-04-09 00:30:00,METAR GCLP 090030Z 34013KT 9999 FEW040 16/08 Q1020 NOSIG
2026-04-09 00:00:00,METAR GCLP 090000Z 34010KT 9999 FEW040 16/08 Q1020 NOSIG
2026-04-08 23:30:00,METAR GCLP 082330Z 36012KT 9999 FEW040 16/09 Q1020 NOSIG
2026-04-08 23:00:00,METAR GCLP 082300Z 35008KT 9999 FEW040 16/08 Q1020 NOSIG
2026-04-08 22:30:00,METAR GCLP 082230Z 35010KT 320V020 9999 FEW040 16/08 Q1020 NOSIG
2026-04-08 22:00:00,METAR GCLP 082200Z 35017KT 9999 SCT040 17/08 Q1020 NOSIG
2026-04-08 21:30:00,METAR GCLP 082130Z 35014KT 9999 BKN040 16/09 Q1020 NOSIG
2026-04-08 21:00:00,METAR GCLP 082100Z 35013KT 320V020 9999 BKN040 16/09 Q1020 NOSIG
2026-04-08 20:30:00,METAR GCLP 082030Z 35011KT 9999 BKN045 17/10 Q1020 NOSIG
2026-04-08 20:00:00,METAR GCLP 082000Z 36014KT 9999 SCT045 17/09 Q1020 NOSIG
2026-04-08 19:30:00,METAR GCLP 081930Z 36013KT 9999 SCT045 17/10 Q1019 NOSIG
2026-04-08 19:00:00,METAR GCLP 081900Z 34014KT 9999 SCT045 18/09 Q1019 NOSIG
2026-04-08 18:30:00,METAR GCLP 081830Z 35016KT 9999 SCT045 18/09 Q1019 NOSIG
2026-04-08 18:00:00,METAR GCLP 081800Z 36016KT 9999 SCT050 18/10 Q1019 NOSIG
2026-04-08 17:30:00,METAR GCLP 081730Z 36018KT 9999 SCT050 19/08 Q1019 NOSIG
2026-04-08 17:00:00,METAR GCLP 081700Z 35018KT 320V020 9999 FEW050 19/08 Q1019 NOSIG
2026-04-08 16:30:00,METAR GCLP 081630Z 34015KT 9999 SCT050 20/08 Q1020 NOSIG
2026-04-08 16:00:00,METAR GCLP 081600Z 02016KT 9999 FEW035 BKN055 18/11 Q1020 NOSIG
2026-04-08 15:30:00,METAR GCLP 081530Z 35015KT 9999 FEW030 BKN055 19/09 Q1021 NOSIG
2026-04-08 15:00:00,METAR GCLP 081500Z 36018KT 9999 FEW034 BKN052 19/09 Q1021 NOSIG
2026-04-08 14:30:00,METAR GCLP 081430Z 01019KT 9999 FEW034 BKN052 18/09 Q1021 NOSIG
2026-04-08 14:00:00,METAR GCLP 081400Z 01017KT 340V040 9999 FEW034 BKN052 19/10 Q1021 NOSIG
2026-04-08 13:30:00,METAR GCLP 081330Z 36020KT 320V030 9999 SCT033 BKN050 19/09 Q1021 NOSIG
2026-04-08 13:00:00,METAR GCLP 081300Z 01018KT 330V040 9999 SCT033 BKN050 19/10 Q1022 NOSIG
2026-04-08 12:30:00,METAR GCLP 081230Z 34014KT 310V010 9999 SCT040 BKN050 18/10 Q1022 NOSIG
2026-04-08 12:00:00,METAR GCLP 081200Z 36017KT 9999 SCT040 BKN050 18/08 Q1022 NOSIG
2026-04-08 11:30:00,METAR GCLP 081130Z 01015KT 330V050 9999 SCT038 BKN050 18/08 Q1022 NOSIG
2026-04-08 11:00:00,METAR GCLP 081100Z 35014KT 9999 SCT035 BKN050 17/10 Q1022 NOSIG
2026-04-08 10:30:00,METAR GCLP 081030Z 01016KT 350V050 9999 FEW035 BKN050 18/10 Q1022 NOSIG
2026-04-08 10:00:00,METAR GCLP 081000Z 02018KT 9999 FEW035 BKN050 16/10 Q1022 NOSIG
2026-04-08 09:30:00,METAR GCLP 080930Z 36015KT 9999 FEW035 BKN050 17/09 Q1022 NOSIG
2026-04-08 09:00:00,METAR GCLP 080900Z 01015KT 9999 SCT035 BKN050 16/10 Q1022 NOSIG
2026-04-08 08:30:00,METAR GCLP 080830Z 36011KT 9999 FEW040 BKN050 17/09 Q1022 NOSIG
2026-04-08 08:00:00,METAR GCLP 080800Z 36013KT 9999 FEW040 BKN050 16/09 Q1022 NOSIG
2026-04-08 07:30:00,METAR GCLP 080730Z 35010KT 9999 FEW030 SCT040 BKN050 16/10 Q1022 NOSIG
2026-04-08 07:00:00,METAR GCLP 080700Z 34010KT 9999 FEW030 BKN050 15/09 Q1022 NOSIG
2026-04-08 06:30:00,METAR GCLP 080630Z 36011KT 9999 FEW030 SCT045 15/10 Q1022 NOSIG
2026-04-08 06:00:00,METAR GCLP 080600Z 34008KT 9999 FEW030 BKN045 15/10 Q1022 NOSIG
2026-04-08 05:30:00,METAR GCLP 080530Z 34009KT 9999 FEW030 BKN040 15/10 Q1022 NOSIG
2026-04-08 05:00:00,METAR GCLP 080500Z 34008KT 9999 BKN040 15/10 Q1022 NOSIG
2026-04-08 04:30:00,METAR GCLP 080430Z 34007KT 9999 BKN035 15/09 Q1022 NOSIG
2026-04-08 04:00:00,METAR GCLP 080400Z 34008KT 9999 BKN035 15/10 Q1022 NOSIG
2026-04-08 03:30:00,METAR GCLP 080330Z 34010KT 9999 BKN035 15/10 Q1022 NOSIG
2026-04-08 03:00:00,METAR GCLP 080300Z 34009KT 320V020 9999 BKN030 15/11 Q1022 NOSIG
2026-04-08 02:30:00,METAR GCLP 080230Z 34012G22KT 310V010 9999 BKN030 15/12 Q1022 NOSIG
2026-04-08 02:00:00,METAR GCLP 080200Z 35012KT 9999 -RA BKN030 15/12 Q1022 NOSIG
2026-04-08 01:30:00,METAR GCLP 080130Z 35011KT 320V020 9999 BKN030 15/12 Q1022 NOSIG
2026-04-08 01:00:00,METAR GCLP 080100Z 36013KT 9999 BKN025 16/12 Q1023 NOSIG
2026-04-08 00:30:00,METAR GCLP 080030Z 36012KT 9999 FEW020 BKN025 16/13 Q1023 NOSIG
2026-04-08 00:00:00,METAR GCLP 080000Z 01014KT 9999 -RA FEW020 BKN030 16/12 Q1023 NOSIG
2026-04-07 23:30:00,METAR GCLP 072330Z 35011KT 320V020 9999 FEW020 BKN030 15/13 Q1023 NOSIG
2026-04-07 23:00:00,METAR GCLP 072300Z 36011KT 9999 FEW015 BKN025 15/14 Q1023 NOSIG
2026-04-07 22:30:00,METAR GCLP 072230Z 01016KT 9999 FEW015 BKN025 16/13 Q1023 NOSIG
2026-04-07 22:00:00,METAR GCLP 072200Z 01013KT 9000 -RA FEW012 BKN025 15/14 Q1023 NOSIG
2026-04-07 21:30:00,METAR GCLP 072130Z 01014KT 9999 SCT025 BKN045 15/13 Q1023 NOSIG
2026-04-07 21:00:00,METAR GCLP 072100Z 36015KT 9999 SCT030 BKN050 16/13 Q1022 NOSIG
2026-04-07 20:30:00,METAR GCLP 072030Z 36014KT 9999 SCT030 BKN050 16/14 Q1022 NOSIG
2026-04-07 20:00:00,METAR GCLP 072000Z 35017KT 9999 BKN030 16/13 Q1022 NOSIG
2026-04-07 19:30:00,METAR GCLP 071930Z 36018KT 9999 BKN030 16/13 Q1021 NOSIG
2026-04-07 19:00:00,METAR GCLP 071900Z 36016KT 9999 BKN025 16/14 Q1021 NOSIG
2026-04-07 18:30:00,METAR GCLP 071830Z 36016KT 7000 -RA BKN025 17/15 Q1021 NOSIG
2026-04-07 18:00:00,METAR GCLP 071800Z 36020KT 9999 -RA BKN020 17/13 Q1021 NOSIG
2026-04-07 17:30:00,METAR GCLP 071730Z 35019KT 320V020 9000 -RA FEW012 BKN020 17/14 Q1021 NOSIG
2026-04-07 17:00:00,METAR GCLP 071700Z 01019KT 9999 -RA FEW012 BKN020 18/15 Q1021 NOSIG
2026-04-07 16:30:00,METAR GCLP 071630Z 01022G32KT 9999 FEW013 BKN023 18/15 Q1020 NOSIG
2026-04-07 16:00:00,METAR GCLP 071600Z 01022KT 9999 FEW015 BKN035 19/16 Q1020 NOSIG
2026-04-07 15:30:00,METAR GCLP 071530Z 01024KT 9999 -RA FEW015 BKN050 20/15 Q1021 NOSIG
2026-04-07 15:00:00,METAR GCLP 071500Z 02019KT 9999 BKN050 23/15 Q1020 NOSIG
2026-04-07 14:30:00,METAR GCLP 071430Z 02020KT 350V050 9999 BKN050 22/13 Q1020 NOSIG
2026-04-07 14:00:00,METAR GCLP 071400Z 02019KT 350V050 9999 BKN050 23/13 Q1020 NOSIG
2026-04-07 13:30:00,METAR GCLP 071330Z 01019KT 340V040 9999 BKN050 22/12 Q1021 NOSIG
2026-04-07 13:00:00,METAR GCLP 071300Z 01020KT 9999 BKN050 22/12 Q1021 NOSIG
2026-04-07 12:30:00,METAR GCLP 071230Z 01019KT 9999 BKN045 22/12 Q1021 NOSIG
2026-04-07 12:00:00,METAR GCLP 071200Z 01020KT 9999 BKN045 22/13 Q1021 NOSIG
2026-04-07 11:30:00,METAR GCLP 071130Z 01020KT 9999 SCT030 23/13 Q1021 NOSIG
2026-04-07 11:00:00,METAR GCLP 071100Z 01017KT 340V050 9999 FEW025 22/13 Q1021 NOSIG
2026-04-07 10:30:00,METAR GCLP 071030Z 36016KT 9999 FEW025 22/13 Q1021 NOSIG
2026-04-07 10:00:00,METAR GCLP 071000Z 36015KT 330V040 9999 FEW025 21/14 Q1021 NOSIG
2026-04-07 09:30:00,METAR GCLP 070930Z 01015KT 340V040 9999 FEW025 20/14 Q1021 NOSIG
2026-04-07 09:00:00,METAR GCLP 070900Z 01014KT 9999 FEW030 20/13 Q1021 NOSIG
2026-04-07 08:30:00,METAR GCLP 070830Z 01012KT 9999 FEW030 19/13 Q1021 NOSIG
2026-04-07 08:00:00,METAR GCLP 070800Z 02009KT 9999 FEW035 18/14 Q1020 NOSIG
2026-04-07 07:30:00,METAR GCLP 070730Z 34004KT 300V010 9999 FEW035 16/12 Q1020 NOSIG
2026-04-07 07:00:00,METAR GCLP 070700Z 34005KT 290V010 9999 SCT035 17/12 Q1020 NOSIG
2026-04-07 06:30:00,METAR GCLP 070630Z 35004KT 9999 FEW020 16/12 Q1020 NOSIG
2026-04-07 06:00:00,METAR GCLP 070600Z 36006KT 9999 FEW020 16/13 Q1019 NOSIG
2026-04-07 05:30:00,METAR GCLP 070530Z 36008KT 9999 FEW020 16/13 Q1019 NOSIG
2026-04-07 05:00:00,METAR GCLP 070500Z 36007KT 9999 FEW020 17/13 Q1019 NOSIG
2026-04-07 04:30:00,METAR GCLP 070430Z 01008KT 9999 FEW020 17/13 Q1018 NOSIG
2026-04-07 04:00:00,METAR GCLP 070400Z 01008KT 9999 FEW020 17/14 Q1019 NOSIG
2026-04-07 03:30:00,METAR GCLP 070330Z 36008KT 9999 FEW025 16/13 Q1019 NOSIG
2026-04-07 03:00:00,METAR GCLP 070300Z 36007KT 9999 FEW025 17/13 Q1019 NOSIG
2026-04-07 02:30:00,METAR GCLP 070230Z 36009KT 9999 FEW025 18/13 Q1019 NOSIG
2026-04-07 02:00:00,METAR GCLP 070200Z 36006KT 9999 FEW025 17/14 Q1019 NOSIG
2026-04-07 01:30:00,METAR GCLP 070130Z 01008KT 9999 FEW025 18/14 Q1020 NOSIG
2026-04-07 01:00:00,METAR GCLP 070100Z 02010KT 9999 FEW025 18/14 Q1020 NOSIG
2026-04-07 00:30:00,METAR GCLP 070030Z 02011KT 9999 FEW025 18/14 Q1020 NOSIG
2026-04-07 00:00:00,METAR GCLP 070000Z 02011KT 9999 FEW025 18/14 Q1020 NOSIG
2026-04-06 23:30:00,METAR GCLP 062330Z 02011KT 9999 FEW025 18/14 Q1020 NOSIG
2026-04-06 23:00:00,METAR GCLP 062300Z 02014KT 9999 FEW025 18/14 Q1020 NOSIG
2026-04-06 22:30:00,METAR GCLP 062230Z 01011KT 9999 FEW025 18/14 Q1020 NOSIG
2026-04-06 22:00:00,METAR GCLP 062200Z 36013KT 340V040 9999 FEW025 19/14 Q1019 NOSIG
2026-04-06 21:30:00,METAR GCLP 062130Z 01015KT 9999 SCT025 19/14 Q1019 NOSIG
2026-04-06 21:00:00,METAR GCLP 062100Z 01015KT 9999 SCT025 19/14 Q1019 NOSIG
2026-04-06 20:30:00,METAR GCLP 062030Z 01014KT 9999 BKN025 19/14 Q1018 NOSIG
2026-04-06 20:00:00,METAR GCLP 062000Z 02014KT 9999 BKN025 19/14 Q1018 NOSIG
2026-04-06 19:30:00,METAR GCLP 061930Z 02013KT 9999 BKN023 19/15 Q1018 NOSIG
2026-04-06 19:00:00,METAR GCLP 061900Z 01014KT 9999 BKN023 20/15 Q1018 NOSIG
2026-04-06 18:30:00,METAR GCLP 061830Z 02012KT 9999 BKN025 20/15 Q1017 NOSIG
2026-04-06 18:00:00,METAR GCLP 061800Z 02011KT 9999 BKN023 20/15 Q1017 NOSIG
2026-04-06 17:30:00,METAR GCLP 061730Z 03012KT 9999 BKN023 20/15 Q1017 NOSIG
2026-04-06 17:00:00,METAR GCLP 061700Z 04012KT 9999 BKN025 20/15 Q1017 NOSIG
2026-04-06 16:30:00,METAR GCLP 061630Z 04011KT 9999 BKN025 20/15 Q1017 NOSIG
2026-04-06 16:00:00,METAR GCLP 061600Z 03010KT 9999 BKN025 20/15 Q1017 NOSIG
2026-04-06 15:30:00,METAR GCLP 061530Z 04010KT 9999 BKN025 20/15 Q1017 NOSIG
2026-04-06 15:00:00,METAR GCLP 061500Z 04011KT 9999 BKN025 20/15 Q1018 NOSIG
2026-04-06 14:30:00,METAR GCLP 061430Z 04012KT 010V070 9999 BKN025 21/16 Q1017 NOSIG
2026-04-06 14:00:00,METAR GCLP 061400Z 05011KT 020V080 9999 BKN025 21/15 Q1018 NOSIG
2026-04-06 13:30:00,METAR GCLP 061330Z 03010KT 360V060 9999 BKN025 22/15 Q1017 NOSIG
2026-04-06 13:00:00,METAR GCLP 061300Z 08006KT 050V140 9999 SCT025 21/15 Q1018 NOSIG
2026-04-06 12:30:00,METAR GCLP 061230Z 05011KT 010V080 9999 FEW025 22/16 Q1017 NOSIG
2026-04-06 12:00:00,METAR GCLP 061200Z 03014KT 9999 FEW025 22/16 Q1017 NOSIG
2026-04-06 11:30:00,METAR GCLP 061130Z 04011KT 010V090 9999 FEW025 23/16 Q1017 NOSIG
2026-04-06 11:00:00,METAR GCLP 061100Z 04012KT 9999 FEW025 23/15 Q1017 NOSIG
2026-04-06 10:30:00,METAR GCLP 061030Z 04013KT 9999 FEW025 22/16 Q1016 NOSIG
2026-04-06 10:00:00,METAR GCLP 061000Z 03012KT 9999 FEW025 22/16 Q1016 NOSIG
2026-04-06 09:30:00,METAR GCLP 060930Z 03013KT 9999 FEW025 21/15 Q1016 NOSIG
2026-04-06 09:00:00,METAR GCLP 060900Z 01009KT 9999 FEW025 20/14 Q1015 NOSIG
2026-04-06 08:30:00,METAR GCLP 060830Z 01010KT 330V050 9999 FEW025 20/14 Q1015 NOSIG
2026-04-06 08:00:00,METAR GCLP 060800Z 01009KT 9999 FEW025 19/14 Q1015 NOSIG
2026-04-06 07:30:00,METAR GCLP 060730Z 01008KT 9999 FEW025 17/13 Q1015 NOSIG
2026-04-06 07:00:00,METAR GCLP 060700Z 33004KT 280V030 9999 FEW025 16/14 Q1014 NOSIG
2026-04-06 06:30:00,METAR GCLP 060630Z 34004KT 320V020 9999 FEW025 17/14 Q1014 NOSIG
2026-04-06 06:00:00,METAR GCLP 060600Z 31004KT 9999 FEW025 17/14 Q1014 NOSIG
2026-04-06 05:30:00,METAR GCLP 060530Z 30004KT CAVOK 17/14 Q1013 NOSIG
2026-04-06 05:00:00,METAR GCLP 060500Z 36003KT 300V020 CAVOK 16/14 Q1013 NOSIG
2026-04-06 04:30:00,METAR GCLP 060430Z 30002KT CAVOK 17/14 Q1013 NOSIG
2026-04-06 04:00:00,METAR GCLP 060400Z 30002KT CAVOK 17/14 Q1013 NOSIG
2026-04-06 03:30:00,METAR GCLP 060330Z 00000KT CAVOK 18/15 Q1013 NOSIG
2026-04-06 03:00:00,METAR GCLP 060300Z 24004KT 200V280 CAVOK 19/15 Q1013 NOSIG
2026-04-06 02:30:00,METAR GCLP 060230Z 21005KT CAVOK 18/13 Q1013 NOSIG
2026-04-06 02:00:00,METAR GCLP 060200Z 22006KT CAVOK 19/13 Q1013 NOSIG
2026-04-06 01:30:00,METAR GCLP 060130Z 03011KT CAVOK 19/10 Q1013 NOSIG
2026-04-06 01:00:00,METAR GCLP 060100Z 36012KT CAVOK 19/12 Q1013 NOSIG
2026-04-06 00:30:00,METAR GCLP 060030Z 36013KT 320V030 CAVOK 19/14 Q1014 NOSIG
2026-04-06 00:00:00,METAR GCLP 060000Z 01017KT CAVOK 19/15 Q1014 NOSIG
2026-04-05 23:30:00,METAR GCLP 052330Z 02017KT 9999 FEW020 19/15 Q1014 NOSIG
2026-04-05 23:00:00,METAR GCLP 052300Z 02018KT 9999 FEW020 19/15 Q1014 NOSIG
2026-04-05 22:30:00,METAR GCLP 052230Z 01017KT 9999 FEW020 19/15 Q1014 NOSIG
2026-04-05 22:00:00,METAR GCLP 052200Z 02017KT 9999 FEW020 19/15 Q1014 NOSIG
2026-04-05 21:30:00,METAR GCLP 052130Z 01013KT CAVOK 21/11 Q1014 NOSIG
2026-04-05 21:00:00,METAR GCLP 052100Z 01015KT CAVOK 20/13 Q1013 NOSIG
2026-04-05 20:30:00,METAR GCLP 052030Z 02017KT CAVOK 20/15 Q1013 NOSIG
2026-04-05 20:00:00,METAR GCLP 052000Z 01015KT CAVOK 20/15 Q1012 NOSIG
2026-04-05 19:30:00,METAR GCLP 051930Z 02016KT CAVOK 20/15 Q1012 NOSIG
2026-04-05 19:00:00,METAR GCLP 051900Z 02016KT CAVOK 21/16 Q1012 NOSIG
2026-04-05 18:30:00,METAR GCLP 051830Z 02017KT CAVOK 21/16 Q1012 NOSIG
2026-04-05 18:00:00,METAR GCLP 051800Z 02016KT CAVOK 22/16 Q1012 NOSIG
2026-04-05 17:30:00,METAR GCLP 051730Z 03016KT CAVOK 22/16 Q1012 NOSIG
2026-04-05 17:00:00,METAR GCLP 051700Z 03015KT CAVOK 23/16 Q1013 NOSIG
2026-04-05 16:30:00,METAR GCLP 051630Z 03014KT CAVOK 22/16 Q1013 NOSIG
2026-04-05 16:00:00,METAR GCLP 051600Z 03014KT CAVOK 23/17 Q1014 NOSIG
2026-04-05 15:30:00,METAR GCLP 051530Z 03014KT CAVOK 22/16 Q1014 NOSIG
2026-04-05 15:00:00,METAR GCLP 051500Z 03014KT CAVOK 21/16 Q1014 NOSIG
2026-04-05 13:00:00,METAR GCLP 051300Z 03011KT 010V070 CAVOK 21/16 Q1016 NOSIG
2026-04-05 12:30:00,METAR GCLP 051230Z 04011KT 010V070 CAVOK 21/16 Q1016 NOSIG
2026-04-05 12:00:00,METAR GCLP 051200Z 04010KT CAVOK 21/16 Q1016 NOSIG
2026-04-05 11:30:00,METAR GCLP 051130Z 04011KT 010V070 CAVOK 21/16 Q1016 NOSIG
2026-04-05 11:00:00,METAR GCLP 051100Z 04010KT CAVOK 21/16 Q1016 NOSIG
2026-04-05 10:30:00,METAR GCLP 051030Z 04011KT CAVOK 20/16 Q1017 NOSIG
2026-04-05 10:00:00,METAR GCLP 051000Z 04012KT 9999 FEW045 20/15 Q1017 NOSIG
2026-04-05 09:30:00,METAR GCLP 050930Z 04013KT 9999 FEW045 20/15 Q1016 NOSIG
2026-04-05 09:00:00,METAR GCLP 050900Z 01013KT 9999 FEW045 19/15 Q1016 NOSIG
2026-04-05 08:30:00,METAR GCLP 050830Z 01012KT CAVOK 19/15 Q1016 NOSIG
2026-04-05 08:00:00,METAR GCLP 050800Z 36011KT CAVOK 18/15 Q1016 NOSIG
2026-04-05 07:30:00,METAR GCLP 050730Z 36010KT 9999 FEW045 17/14 Q1016 NOSIG
2026-04-05 07:00:00,METAR GCLP 050700Z 35008KT 320V020 9999 FEW045 17/15 Q1016 NOSIG
2026-04-05 06:30:00,METAR GCLP 050630Z 01010KT CAVOK 17/15 Q1015 NOSIG
2026-04-05 06:00:00,METAR GCLP 050600Z 02015KT CAVOK 17/15 Q1015 NOSIG
2026-04-05 05:30:00,METAR GCLP 050530Z 02014KT CAVOK 17/15 Q1015 NOSIG
2026-04-05 05:00:00,METAR GCLP 050500Z 01013KT 9999 FEW040 17/15 Q1014 NOSIG
2026-04-05 04:30:00,METAR GCLP 050430Z 01014KT 9999 FEW040 17/15 Q1014 NOSIG
2026-04-05 04:00:00,METAR GCLP 050400Z 02012KT 9999 FEW040 17/15 Q1015 NOSIG
2026-04-05 03:30:00,METAR GCLP 050330Z 01011KT 9999 FEW040 17/15 Q1015 NOSIG
2026-04-05 03:00:00,METAR GCLP 050300Z 01011KT 9999 FEW040 18/15 Q1015 NOSIG
2026-04-05 02:30:00,METAR GCLP 050230Z 01010KT 9999 FEW040 17/15 Q1015 NOSIG
2026-04-05 02:00:00,METAR GCLP 050200Z 01008KT 9999 FEW040 17/14 Q1016 NOSIG
2026-04-05 01:30:00,METAR GCLP 050130Z 36006KT 320V030 9999 FEW040 17/14 Q1016 NOSIG
2026-04-05 01:00:00,METAR GCLP 050100Z 35006KT 300V010 9999 FEW040 17/15 Q1017 NOSIG
2026-04-05 00:30:00,METAR GCLP 050030Z 01008KT 9999 FEW040 18/16 Q1017 NOSIG
2026-04-05 00:00:00,METAR GCLP 050000Z 01010KT 9999 FEW040 18/16 Q1017 NOSIG
2026-04-04 23:30:00,METAR GCLP 042330Z 01013KT 9999 FEW040 18/15 Q1017 NOSIG
2026-04-04 23:00:00,METAR GCLP 042300Z 02014KT 9999 FEW040 18/15 Q1017 NOSIG
2026-04-04 22:30:00,METAR GCLP 042230Z 02015KT 9999 FEW040 19/15 Q1017 NOSIG
2026-04-04 22:00:00,METAR GCLP 042200Z 02015KT 9999 FEW040 19/15 Q1017 NOSIG
2026-04-04 21:30:00,METAR GCLP 042130Z 02017KT 9999 FEW040 19/15 Q1017 NOSIG
2026-04-04 21:00:00,METAR GCLP 042100Z 02015KT 9999 FEW040 19/15 Q1016 NOSIG
2026-04-04 20:30:00,METAR GCLP 042030Z 02014KT 9999 FEW040 19/16 Q1016 NOSIG
2026-04-04 20:00:00,METAR GCLP 042000Z 02014KT 9999 SCT040 19/16 Q1016 NOSIG
2026-04-04 19:30:00,METAR GCLP 041930Z 02014KT 9999 SCT040 19/16 Q1016 NOSIG
2026-04-04 19:00:00,METAR GCLP 041900Z 03014KT 9999 SCT040 19/16 Q1016 NOSIG
2026-04-04 18:30:00,METAR GCLP 041830Z 03014KT 9999 SCT035 20/16 Q1016 NOSIG
2026-04-04 18:00:00,METAR GCLP 041800Z 03014KT 9999 SCT035 20/16 Q1016 NOSIG
2026-04-04 17:30:00,METAR GCLP 041730Z 03012KT 9999 FEW040 21/16 Q1015 NOSIG
2026-04-04 17:00:00,METAR GCLP 041700Z 04011KT 9999 FEW040 21/16 Q1015 NOSIG
2026-04-04 16:30:00,METAR GCLP 041630Z 05010KT 010V080 9999 FEW040 21/17 Q1016 NOSIG
2026-04-04 16:00:00,METAR GCLP 041600Z 05010KT 9999 SCT040 21/16 Q1016 NOSIG
2026-04-04 15:30:00,METAR GCLP 041530Z 06009KT 9999 SCT040 21/16 Q1016 NOSIG
2026-04-04 15:00:00,METAR GCLP 041500Z 08008KT 040V100 9999 SCT040 21/16 Q1016 NOSIG
2026-04-04 14:30:00,METAR GCLP 041430Z 05009KT 020V080 9999 SCT040 22/16 Q1016 NOSIG
2026-04-04 14:00:00,METAR GCLP 041400Z 06010KT 020V100 9999 FEW040 21/16 Q1017 NOSIG
2026-04-04 13:30:00,METAR GCLP 041330Z 06011KT 9999 FEW040 21/16 Q1017 NOSIG
2026-04-04 13:00:00,METAR GCLP 041300Z 05010KT 010V080 9999 FEW040 22/15 Q1017 NOSIG
2026-04-04 12:30:00,METAR GCLP 041230Z 05010KT 9999 FEW030 SCT050 21/16 Q1017 NOSIG
2026-04-04 12:00:00,METAR GCLP 041200Z 04010KT 010V080 9999 FEW030 SCT050 21/15 Q1018 NOSIG
2026-04-04 11:30:00,METAR GCLP 041130Z 04012KT 9999 SCT045 20/15 Q1018 NOSIG
2026-04-04 11:00:00,METAR GCLP 041100Z 04014KT 9999 FEW045 20/16 Q1018 NOSIG
2026-04-04 10:30:00,METAR GCLP 041030Z 03015KT 9999 FEW045 20/16 Q1018 NOSIG
2026-04-04 10:00:00,METAR GCLP 041000Z 03016KT 9999 FEW015 SCT050 20/15 Q1018 NOSIG
2026-04-04 09:30:00,METAR GCLP 040930Z 02015KT 9999 FEW015 SCT050 19/15 Q1018 NOSIG
2026-04-04 09:00:00,METAR GCLP 040900Z 01017KT 9999 FEW015 SCT050 19/15 Q1017 NOSIG
2026-04-04 08:30:00,METAR GCLP 040830Z 36013KT 9999 FEW014 BKN050 18/15 Q1018 NOSIG
2026-04-04 08:00:00,METAR GCLP 040800Z 01009KT 9999 FEW020 SCT045 17/15 Q1018 NOSIG
2026-04-04 07:30:00,METAR GCLP 040730Z 36008KT 9999 FEW020 17/14 Q1017 NOSIG
2026-04-04 07:00:00,METAR GCLP 040700Z 36010KT 320V020 9999 FEW020 17/14 Q1017 NOSIG
2026-04-04 06:30:00,METAR GCLP 040630Z 01010KT 9999 FEW025 17/15 Q1017 NOSIG
2026-04-04 06:00:00,METAR GCLP 040600Z 01008KT 9999 FEW025 17/13 Q1017 NOSIG
2026-04-04 05:30:00,METAR GCLP 040530Z 35006KT 9999 FEW018 17/14 Q1017 NOSIG
2026-04-04 05:00:00,METAR GCLP 040500Z VRB01KT 9999 FEW018 17/15 Q1017 NOSIG
2026-04-04 04:30:00,METAR GCLP 040430Z VRB01KT 9999 SCT018 17/15 Q1016 NOSIG
2026-04-04 04:00:00,METAR GCLP 040400Z VRB02KT 9999 SCT018 17/14 Q1017 NOSIG
2026-04-04 03:30:00,METAR GCLP 040330Z VRB02KT 9999 FEW020 17/15 Q1017 NOSIG
2026-04-04 03:00:00,METAR GCLP 040300Z 33006KT 290V010 9999 FEW070 17/15 Q1017 NOSIG
2026-04-04 02:30:00,METAR GCLP 040230Z 26006KT 230V300 9999 -SHRA FEW070TCU 17/14 Q1018 NOSIG
2026-04-04 02:00:00,METAR GCLP 040200Z 35009KT 9999 FEW070 17/14 Q1018 NOSIG
2026-04-04 01:30:00,METAR GCLP 040130Z 01013KT CAVOK 18/14 Q1017 NOSIG
2026-04-04 01:00:00,METAR GCLP 040100Z 01015KT CAVOK 18/14 Q1017 NOSIG
2026-04-04 00:30:00,METAR GCLP 040030Z 01015KT CAVOK 17/14 Q1018 NOSIG
2026-04-04 00:00:00,METAR GCLP 040000Z 02014KT CAVOK 17/14 Q1018 NOSIG
2026-04-03 23:30:00,METAR GCLP 032330Z 02012KT CAVOK 17/14 Q1018 NOSIG
2026-04-03 23:00:00,METAR GCLP 032300Z 02015KT CAVOK 18/14 Q1018 NOSIG
2026-04-03 22:30:00,METAR GCLP 032230Z 02015KT 9999 FEW025 18/14 Q1018 NOSIG
2026-04-03 22:00:00,METAR GCLP 032200Z 02014KT 9999 FEW018 18/15 Q1018 NOSIG
2026-04-03 21:30:00,METAR GCLP 032130Z 02016KT 9999 FEW018 18/15 Q1018 NOSIG
2026-04-03 21:00:00,METAR GCLP 032100Z 02014KT 9999 FEW030 18/15 Q1017 NOSIG
2026-04-03 20:30:00,METAR GCLP 032030Z 02012KT CAVOK 18/15 Q1017 NOSIG
2026-04-03 20:00:00,METAR GCLP 032000Z 02011KT CAVOK 18/15 Q1017 NOSIG
2026-04-03 19:30:00,METAR GCLP 031930Z 02011KT CAVOK 19/15 Q1017 NOSIG
2026-04-03 19:00:00,METAR GCLP 031900Z 02011KT 9999 FEW035 19/15 Q1017 NOSIG
2026-04-03 18:30:00,METAR GCLP 031830Z 02011KT 9999 FEW040 19/15 Q1017 NOSIG
2026-04-03 18:00:00,METAR GCLP 031800Z 04013KT 9999 FEW040 20/15 Q1017 NOSIG
2026-04-03 17:30:00,METAR GCLP 031730Z 03014KT 9999 FEW035 20/15 Q1017 NOSIG
2026-04-03 17:00:00,METAR GCLP 031700Z 03015KT CAVOK 20/15 Q1017 NOSIG
2026-04-03 16:30:00,METAR GCLP 031630Z 03015KT CAVOK 21/15 Q1017 NOSIG
2026-04-03 16:00:00,METAR GCLP 031600Z 03017KT CAVOK 21/15 Q1017 NOSIG
2026-04-03 15:30:00,METAR GCLP 031530Z 03016KT CAVOK 21/15 Q1017 NOSIG
2026-04-03 15:00:00,METAR GCLP 031500Z 03019KT CAVOK 20/15 Q1017 NOSIG
2026-04-03 14:30:00,METAR GCLP 031430Z 04019KT CAVOK 21/15 Q1017 NOSIG
2026-04-03 14:00:00,METAR GCLP 031400Z 03021KT 9999 FEW035 22/15 Q1017 NOSIG
2026-04-03 13:30:00,METAR GCLP 031330Z 03021KT 9999 FEW035 22/15 Q1018 NOSIG
2026-04-03 13:00:00,METAR GCLP 031300Z 03021KT 9999 FEW035 21/15 Q1018 NOSIG
2026-04-03 12:30:00,METAR GCLP 031230Z 03021KT 9999 FEW035 21/15 Q1018 NOSIG
2026-04-03 12:00:00,METAR GCLP 031200Z 03020KT 9999 FEW035 21/15 Q1019 NOSIG
2026-04-03 11:30:00,METAR GCLP 031130Z 03021KT 9999 FEW035 21/15 Q1019 NOSIG
2026-04-03 11:00:00,METAR GCLP 031100Z 03020KT 9999 FEW035 21/14 Q1019 NOSIG
2026-04-03 10:30:00,METAR GCLP 031030Z 03020KT 9999 FEW030 20/14 Q1019 NOSIG
2026-04-03 10:00:00,METAR GCLP 031000Z 02018KT 9999 FEW030 20/14 Q1019 NOSIG
2026-04-03 09:30:00,METAR GCLP 030930Z 02018KT 9999 FEW025 20/13 Q1019 NOSIG
2026-04-03 09:00:00,METAR GCLP 030900Z 01018KT 9999 FEW025 19/13 Q1019 NOSIG
2026-04-03 08:30:00,METAR GCLP 030830Z 01018KT 9999 FEW025 19/13 Q1019 NOSIG
2026-04-03 08:00:00,METAR GCLP 030800Z 01016KT 9999 FEW025 18/13 Q1018 NOSIG
2026-04-03 07:30:00,METAR GCLP 030730Z 01014KT 330V030 9999 FEW025 17/13 Q1018 NOSIG
2026-04-03 07:00:00,METAR GCLP 030700Z 36012KT 9999 FEW025 17/12 Q1018 NOSIG
2026-04-03 06:30:00,METAR GCLP 030630Z 36011KT 9999 FEW025 17/11 Q1018 NOSIG
2026-04-03 06:00:00,METAR GCLP 030600Z 36012KT 9999 FEW025 16/12 Q1018 NOSIG
2026-04-03 05:30:00,METAR GCLP 030530Z 36013KT CAVOK 17/12 Q1017 NOSIG
2026-04-03 05:00:00,METAR GCLP 030500Z 36011KT 9999 FEW020 16/11 Q1017 NOSIG
2026-04-03 04:30:00,METAR GCLP 030430Z 35012KT 9999 FEW020 17/11 Q1018 NOSIG
2026-04-03 04:00:00,METAR GCLP 030400Z 36011KT 9999 FEW020 17/11 Q1018 NOSIG
2026-04-03 03:30:00,METAR GCLP 030330Z 36012KT 9999 FEW020 17/12 Q1018 NOSIG
2026-04-03 03:00:00,METAR GCLP 030300Z 36012KT 9999 FEW020 17/11 Q1018 NOSIG
2026-04-03 02:30:00,METAR GCLP 030230Z 36012KT CAVOK 17/12 Q1019 NOSIG
2026-04-03 02:00:00,METAR GCLP 030200Z 01013KT CAVOK 17/12 Q1019 NOSIG
2026-04-03 01:30:00,METAR GCLP 030130Z 01013KT CAVOK 17/10 Q1019 NOSIG
2026-04-03 01:00:00,METAR GCLP 030100Z 02010KT CAVOK 17/07 Q1019 NOSIG
2026-04-03 00:30:00,METAR GCLP 030030Z 36010KT CAVOK 18/05 Q1020 NOSIG
2026-04-03 00:00:00,METAR GCLP 030000Z 36010KT CAVOK 18/06 Q1020 NOSIG
2026-04-02 23:30:00,METAR GCLP 022330Z 36009KT CAVOK 18/05 Q1020 NOSIG
2026-04-02 23:00:00,METAR GCLP 022300Z 36008KT CAVOK 19/05 Q1020 NOSIG
2026-04-02 22:30:00,METAR GCLP 022230Z 35009KT 330V040 CAVOK 19/05 Q1020 NOSIG
2026-04-02 22:00:00,METAR GCLP 022200Z 35010KT CAVOK 19/06 Q1020 NOSIG
2026-04-02 21:30:00,METAR GCLP 022130Z 36013KT CAVOK 19/06 Q1019 NOSIG
2026-04-02 21:00:00,METAR GCLP 022100Z 36015KT CAVOK 20/06 Q1019 NOSIG
2026-04-02 20:30:00,METAR GCLP 022030Z 35015KT CAVOK 20/07 Q1019 NOSIG
2026-04-02 20:00:00,METAR GCLP 022000Z 35013KT CAVOK 20/07 Q1018 NOSIG
2026-04-02 19:30:00,METAR GCLP 021930Z 36015KT 330V030 CAVOK 20/08 Q1018 NOSIG
2026-04-02 19:00:00,METAR GCLP 021900Z 01016KT CAVOK 20/09 Q1018 NOSIG
2026-04-02 18:30:00,METAR GCLP 021830Z 01016KT 9999 FEW030 21/10 Q1018 NOSIG
2026-04-02 18:00:00,METAR GCLP 021800Z 02017KT 9999 FEW030 21/12 Q1018 NOSIG
2026-04-02 17:30:00,METAR GCLP 021730Z 02018KT 9999 FEW030 21/13 Q1018 NOSIG
2026-04-02 17:00:00,METAR GCLP 021700Z 03019KT 9999 FEW030 21/15 Q1018 NOSIG
2026-04-02 16:30:00,METAR GCLP 021630Z 03018KT 9999 FEW030 22/16 Q1018 NOSIG
2026-04-02 16:00:00,METAR GCLP 021600Z 03018KT 9999 FEW030 22/16 Q1018 NOSIG
2026-04-02 15:30:00,METAR GCLP 021530Z 03020KT 9999 FEW030 22/16 Q1018 NOSIG
2026-04-02 15:00:00,METAR GCLP 021500Z 03020KT 9999 FEW028 22/16 Q1019 NOSIG
2026-04-02 14:30:00,METAR GCLP 021430Z 03020KT 9999 FEW028 22/16 Q1019 NOSIG
2026-04-02 14:00:00,METAR GCLP 021400Z 03019KT 9999 FEW028 22/16 Q1019 NOSIG
2026-04-02 13:30:00,METAR GCLP 021330Z 04019KT 9999 FEW025 22/16 Q1019 NOSIG
2026-04-02 13:00:00,METAR GCLP 021300Z 04019KT 9999 FEW025 21/15 Q1020 NOSIG
2026-04-02 12:30:00,METAR GCLP 021230Z 03020KT 9999 FEW025 21/16 Q1020 NOSIG
2026-04-02 12:00:00,METAR GCLP 021200Z 03018KT 9999 FEW025 21/15 Q1020 NOSIG
2026-04-02 11:30:00,METAR GCLP 021130Z 03018KT 9999 FEW025 21/15 Q1020 NOSIG
2026-04-02 11:00:00,METAR GCLP 021100Z 03018KT 9999 FEW025 21/15 Q1020 NOSIG
2026-04-02 10:30:00,METAR GCLP 021030Z 03017KT 9999 FEW025 21/14 Q1020 NOSIG
2026-04-02 10:00:00,METAR GCLP 021000Z 03017KT 9999 FEW025 20/15 Q1020 NOSIG
2026-04-02 09:30:00,METAR GCLP 020930Z 02015KT 9999 FEW025 20/14 Q1020 NOSIG
2026-04-02 09:00:00,METAR GCLP 020900Z 01015KT 350V050 9999 FEW025 19/14 Q1019 NOSIG
2026-04-02 08:30:00,METAR GCLP 020830Z 01015KT 9999 FEW025 19/14 Q1019 NOSIG
2026-04-02 08:00:00,METAR GCLP 020800Z 01015KT 9999 FEW025 18/14 Q1019 NOSIG
2026-04-02 07:30:00,METAR GCLP 020730Z 36014KT 9999 FEW020 17/13 Q1018 NOSIG
2026-04-02 07:00:00,METAR GCLP 020700Z 36013KT 9999 FEW020 17/14 Q1018 NOSIG
2026-04-02 06:30:00,METAR GCLP 020630Z 01016KT 9999 FEW020 17/14 Q1018 NOSIG
2026-04-02 06:00:00,METAR GCLP 020600Z 01014KT CAVOK 18/10 Q1018 NOSIG
2026-04-02 05:30:00,METAR GCLP 020530Z 36013KT CAVOK 18/08 Q1018 NOSIG
2026-04-02 05:00:00,METAR GCLP 020500Z 35013KT CAVOK 17/06 Q1018 NOSIG
2026-04-02 04:30:00,METAR GCLP 020430Z 36011KT CAVOK 17/10 Q1018 NOSIG
2026-04-02 04:00:00,METAR GCLP 020400Z 36010KT CAVOK 17/08 Q1018 NOSIG
2026-04-02 03:30:00,METAR GCLP 020330Z 02012KT CAVOK 17/05 Q1018 NOSIG
2026-04-02 03:00:00,METAR GCLP 020300Z 01010KT CAVOK 19/05 Q1019 NOSIG
2026-04-02 02:30:00,METAR GCLP 020230Z 36008KT CAVOK 19/05 Q1019 NOSIG
2026-04-02 02:00:00,METAR GCLP 020200Z 01009KT 300V040 CAVOK 19/06 Q1019 NOSIG
2026-04-02 01:30:00,METAR GCLP 020130Z 36011KT CAVOK 19/08 Q1019 NOSIG
2026-04-02 01:00:00,METAR GCLP 020100Z 36012KT CAVOK 18/10 Q1020 NOSIG
2026-04-02 00:30:00,METAR GCLP 020030Z 36012KT CAVOK 18/10 Q1020 NOSIG
2026-04-02 00:00:00,METAR GCLP 020000Z 36012KT CAVOK 19/10 Q1020 NOSIG
2026-04-01 23:30:00,METAR GCLP 012330Z 36011KT 320V020 CAVOK 18/10 Q1020 NOSIG
2026-04-01 23:00:00,METAR GCLP 012300Z 35010KT CAVOK 18/13 Q1020 NOSIG
2026-04-01 22:30:00,METAR GCLP 012230Z 02014KT CAVOK 18/15 Q1020 NOSIG
2026-04-01 22:00:00,METAR GCLP 012200Z 01013KT CAVOK 18/15 Q1019 NOSIG
2026-04-01 21:30:00,METAR GCLP 012130Z 02013KT CAVOK 19/14 Q1019 NOSIG
2026-04-01 21:00:00,METAR GCLP 012100Z 01012KT 330V030 CAVOK 19/15 Q1019 NOSIG
2026-04-01 20:30:00,METAR GCLP 012030Z 01014KT CAVOK 18/15 Q1019 NOSIG
2026-04-01 20:00:00,METAR GCLP 012000Z 01014KT CAVOK 19/16 Q1019 NOSIG
2026-04-01 19:30:00,METAR GCLP 011930Z 02017KT CAVOK 19/16 Q1018 NOSIG
2026-04-01 19:00:00,METAR GCLP 011900Z 01016KT CAVOK 19/16 Q1018 NOSIG
2026-04-01 18:30:00,METAR GCLP 011830Z 03014KT CAVOK 20/15 Q1018 NOSIG
2026-04-01 18:00:00,METAR GCLP 011800Z 03015KT CAVOK 20/15 Q1018 NOSIG
2026-04-01 17:30:00,METAR GCLP 011730Z 03015KT CAVOK 20/16 Q1018 NOSIG
2026-04-01 17:00:00,METAR GCLP 011700Z 03015KT CAVOK 20/15 Q1018 NOSIG
2026-04-01 16:30:00,METAR GCLP 011630Z 03015KT CAVOK 21/16 Q1018 NOSIG
2026-04-01 16:00:00,METAR GCLP 011600Z 04014KT CAVOK 21/16 Q1018 NOSIG
2026-04-01 15:30:00,METAR GCLP 011530Z 03015KT CAVOK 22/16 Q1018 NOSIG
2026-04-01 15:00:00,METAR GCLP 011500Z 04014KT CAVOK 22/16 Q1018 NOSIG
2026-04-01 14:00:00,METAR GCLP 011400Z 04009KT 010V070 CAVOK 22/16 Q1019 NOSIG
2026-04-01 13:30:00,METAR GCLP 011330Z 04010KT CAVOK 22/15 Q1019 NOSIG
2026-04-01 13:00:00,METAR GCLP 011300Z 04008KT 010V070 9000 NSC 22/16 Q1020 NOSIG
2026-04-01 12:30:00,METAR GCLP 011230Z 05008KT 010V090 9000 NSC 21/16 Q1020 NOSIG
2026-04-01 12:00:00,METAR GCLP 011200Z 04009KT 010V070 9000 NSC 21/15 Q1020 NOSIG
2026-04-01 11:30:00,METAR GCLP 011130Z 04010KT 010V100 9000 NSC 21/15 Q1020 NOSIG
2026-04-01 11:00:00,METAR GCLP 011100Z 04010KT 8000 NSC 21/15 Q1020 NOSIG
2026-04-01 10:30:00,METAR GCLP 011030Z 04010KT 7000 NSC 21/14 Q1020 NOSIG
2026-04-01 10:00:00,METAR GCLP 011000Z 04009KT 7000 NSC 20/14 Q1020 NOSIG
2026-04-01 09:30:00,METAR GCLP 010930Z 03008KT 340V060 6000 NSC 20/13 Q1020 NOSIG
2026-04-01 09:27:00,SPECI GCLP 010927Z 03008KT 340V060 6000 NSC 20/12 Q1020 NOSIG
2026-04-01 09:00:00,METAR GCLP 010900Z 02008KT 350V050 4500 HZ NSC 20/12 Q1020 NOSIG
2026-04-01 08:30:00,METAR GCLP 010830Z 01009KT 4500 HZ NSC 19/11 Q1020 NOSIG
2026-04-01 08:00:00,METAR GCLP 010800Z 36007KT 310V030 4500 HZ NSC 19/08 Q1019 NOSIG
2026-04-01 07:30:00,METAR GCLP 010730Z 36007KT 6000 NSC 18/09 Q1019 NOSIG
2026-04-01 07:00:00,METAR GCLP 010700Z 36006KT 6000 NSC 18/07 Q1019 NOSIG
2026-04-01 06:30:00,METAR GCLP 010630Z 36006KT 8000 NSC 18/07 Q1019 NOSIG
2026-04-01 06:00:00,METAR GCLP 010600Z 36008KT 320V020 CAVOK 18/04 Q1019 NOSIG
2026-04-01 05:30:00,METAR GCLP 010530Z 36007KT CAVOK 18/05 Q1018 NOSIG
2026-04-01 05:00:00,METAR GCLP 010500Z 36009KT 340V050 CAVOK 19/05 Q1018 NOSIG
2026-04-01 04:30:00,METAR GCLP 010430Z 36007KT CAVOK 18/04 Q1018 NOSIG
2026-04-01 04:00:00,METAR GCLP 010400Z 01009KT CAVOK 19/07 Q1018 NOSIG
2026-04-01 03:30:00,METAR GCLP 010330Z 35010KT 9000 NSC 19/05 Q1018 NOSIG
2026-04-01 03:00:00,METAR GCLP 010300Z 36009KT 9000 NSC 19/05 Q1018 NOSIG
2026-04-01 02:30:00,METAR GCLP 010230Z 36011KT 8000 NSC 20/06 Q1018 NOSIG
2026-04-01 02:00:00,METAR GCLP 010200Z 36011KT 7000 NSC 20/05 Q1019 NOSIG
2026-04-01 01:30:00,METAR GCLP 010130Z 36013KT 7000 NSC 20/05 Q1019 NOSIG
2026-04-01 01:00:00,METAR GCLP 010100Z 36010KT 7000 NSC 21/03 Q1019 NOSIG
2026-04-01 00:30:00,METAR GCLP 010030Z 35012KT 320V020 7000 NSC 20/05 Q1019 NOSIG
2026-04-01 00:00:00,METAR GCLP 010000Z 36011KT 7000 NSC 21/06 Q1019 NOSIG
2026-03-31 23:30:00,METAR GCLP 312330Z 36010KT 7000 NSC 20/06 Q1020 NOSIG
2026-03-31 23:00:00,METAR GCLP 312300Z 35011KT 7000 NSC 20/06 Q1020 NOSIG
2026-03-31 22:30:00,METAR GCLP 312230Z 35011KT 7000 NSC 21/06 Q1020 NOSIG
2026-03-31 22:00:00,METAR GCLP 312200Z 35011KT 7000 NSC 21/06 Q1020 NOSIG
2026-03-31 21:30:00,METAR GCLP 312130Z 35012KT 320V030 8000 NSC 21/07 Q1019 NOSIG
2026-03-31 21:00:00,METAR GCLP 312100Z 35013KT 8000 NSC 20/08 Q1019 NOSIG
2026-03-31 20:30:00,METAR GCLP 312030Z 35011KT 310V020 8000 NSC 20/09 Q1019 NOSIG
2026-03-31 20:00:00,METAR GCLP 312000Z 36011KT 7000 NSC 21/09 Q1018 NOSIG
2026-03-31 19:30:00,METAR GCLP 311930Z 36010KT 7000 NSC 21/07 Q1018 NOSIG
2026-03-31 19:00:00,METAR GCLP 311900Z 01011KT 5000 HZ NSC 22/06 Q1018 NOSIG
2026-03-31 18:30:00,METAR GCLP 311830Z 36008KT 4500 HZ NSC 23/02 Q1018 NOSIG
2026-03-31 18:00:00,METAR GCLP 311800Z 02010KT 4500 HZ NSC 22/05 Q1018 NOSIG
2026-03-31 17:30:00,METAR GCLP 311730Z 03008KT 4500 HZ NSC 22/02 Q1018 NOSIG
2026-03-31 17:00:00,METAR GCLP 311700Z 03006KT 5000 HZ NSC 23/04 Q1018 NOSIG
2026-03-31 16:30:00,METAR GCLP 311630Z 03006KT 6000 NSC 22/05 Q1018 NOSIG
2026-03-31 16:00:00,METAR GCLP 311600Z 05005KT 360V080 7000 NSC 23/07 Q1018 NOSIG
2026-03-31 15:30:00,METAR GCLP 311530Z 07008KT 6000 NSC 21/09 Q1018 NOSIG
2026-03-31 15:24:00,SPECI GCLP 311524Z 07008KT 6000 NSC 21/10 Q1018 NOSIG
2026-03-31 15:00:00,METAR GCLP 311500Z 06006KT 040V100 4500 HZ NSC 22/11 Q1019 NOSIG
2026-03-31 14:30:00,METAR GCLP 311430Z 09005KT 3500 HZ VV028 21/11 Q1019 NOSIG
2026-03-31 14:23:00,SPECI GCLP 311423Z 09005KT 060V120 3100 HZ NSC 21/11 Q1019 NOSIG
2026-03-31 14:00:00,METAR GCLP 311400Z 08004KT 050V120 2800 HZ VV027 21/11 Q1019 NOSIG
2026-03-31 13:30:00,METAR GCLP 311330Z VRB02KT 2600 HZ VV027 22/08 Q1019 NOSIG
2026-03-31 13:00:00,METAR GCLP 311300Z 16004KT 080V240 2400 HZ VV027 22/08 Q1019 NOSIG
2026-03-31 12:30:00,METAR GCLP 311230Z 15003KT 090V230 2300 HZ VV027 22/09 Q1020 NOSIG
2026-03-31 12:00:00,METAR GCLP 311200Z 14003KT 080V250 2200 HZ NSC 22/08 Q1020 NOSIG
2026-03-31 11:30:00,METAR GCLP 311130Z VRB01KT 2300 HZ NSC 22/08 Q1020 NOSIG
2026-03-31 11:00:00,METAR GCLP 311100Z VRB02KT 2300 HZ NSC 22/08 Q1020 NOSIG
2026-03-31 10:30:00,METAR GCLP 311030Z VRB02KT 2600 HZ NSC 21/08 Q1020 NOSIG
2026-03-31 10:00:00,METAR GCLP 311000Z VRB02KT 2700 HZ NSC 21/10 Q1020 NOSIG
2026-03-31 09:30:00,METAR GCLP 310930Z VRB01KT 2700 HZ NSC 21/10 Q1019 NOSIG
2026-03-31 09:00:00,METAR GCLP 310900Z 36005KT 300V080 3000 HZ NSC 20/11 Q1019 NOSIG
2026-03-31 08:30:00,METAR GCLP 310830Z 33006KT 280V010 3000 HZ NSC 20/11 Q1019 NOSIG
2026-03-31 08:00:00,METAR GCLP 310800Z 35006KT 300V030 3500 HZ NSC 19/11 Q1019 NOSIG
2026-03-31 07:30:00,METAR GCLP 310730Z 33011KT 310V010 3500 HZ NSC 18/11 Q1018 NOSIG
2026-03-31 07:00:00,METAR GCLP 310700Z 34011KT 4000 HZ FEW025 18/12 Q1018 NOSIG
2026-03-31 06:30:00,METAR GCLP 310630Z 36009KT 6000 FEW025 17/13 Q1018 NOSIG
2026-03-31 06:00:00,METAR GCLP 310600Z 36011KT 7000 FEW030 17/13 Q1017 NOSIG
2026-03-31 05:30:00,METAR GCLP 310530Z 36011KT 7000 FEW030 17/13 Q1017 NOSIG
2026-03-31 05:00:00,METAR GCLP 310500Z 35013KT 7000 FEW035 17/12 Q1017 NOSIG
2026-03-31 04:30:00,METAR GCLP 310430Z 35013KT 7000 FEW035 17/12 Q1017 NOSIG
2026-03-31 04:00:00,METAR GCLP 310400Z 35014KT 8000 FEW035 17/12 Q1017 NOSIG
2026-03-31 03:30:00,METAR GCLP 310330Z 36013KT 9000 SCT035 17/12 Q1017 NOSIG
2026-03-31 03:00:00,METAR GCLP 310300Z 01014KT 8000 SCT035 17/13 Q1017 NOSIG
2026-03-31 02:30:00,METAR GCLP 310230Z 01014KT 8000 SCT035 17/13 Q1017 NOSIG
2026-03-31 02:00:00,METAR GCLP 310200Z 01016KT 9000 SCT030 17/12 Q1017 NOSIG
2026-03-31 01:30:00,METAR GCLP 310130Z 01017KT 9000 SCT030 17/12 Q1018 NOSIG
2026-03-31 01:00:00,METAR GCLP 310100Z 01015KT 9999 BKN025 17/12 Q1018 NOSIG
2026-03-31 00:30:00,METAR GCLP 310030Z 01016KT 9999 BKN030 17/12 Q1018 NOSIG
2026-03-31 00:00:00,METAR GCLP 310000Z 01018KT 9999 SCT030 17/12 Q1018 NOSIG
2026-03-30 23:30:00,METAR GCLP 302330Z 01020KT 9999 BKN030 17/11 Q1018 NOSIG
2026-03-30 23:00:00,METAR GCLP 302300Z 02020KT 9999 BKN035 17/11 Q1018 NOSIG
2026-03-30 22:30:00,METAR GCLP 302230Z 01021KT 9999 BKN035 17/11 Q1018 NOSIG
2026-03-30 22:00:00,METAR GCLP 302200Z 02020KT 9999 BKN035 17/11 Q1018 NOSIG
2026-03-30 21:30:00,METAR GCLP 302130Z 02021KT 9999 SCT035 17/10 Q1018 NOSIG
2026-03-30 21:00:00,METAR GCLP 302100Z 02021KT 9999 SCT035 17/10 Q1018 NOSIG
2026-03-30 20:30:00,METAR GCLP 302030Z 01020KT 9999 FEW035 18/10 Q1017 NOSIG
2026-03-30 20:00:00,METAR GCLP 302000Z 01021KT 9999 SCT035 18/10 Q1017 NOSIG
2026-03-30 19:30:00,METAR GCLP 301930Z 01022KT 9999 BKN035 18/11 Q1017 NOSIG
2026-03-30 19:00:00,METAR GCLP 301900Z 02023KT 9999 SCT035 18/11 Q1017 NOSIG
2026-03-30 18:30:00,METAR GCLP 301830Z 01021KT 9999 SCT030 19/11 Q1016 NOSIG
2026-03-30 18:00:00,METAR GCLP 301800Z 01021KT 9999 FEW030 19/11 Q1016 NOSIG
2026-03-30 17:30:00,METAR GCLP 301730Z 02024KT 9999 FEW030 20/11 Q1016 NOSIG
2026-03-30 17:00:00,METAR GCLP 301700Z 01023KT 9999 FEW030 20/12 Q1016 NOSIG
2026-03-30 16:30:00,METAR GCLP 301630Z 01024KT 9999 FEW030 20/12 Q1016 NOSIG
2026-03-30 16:00:00,METAR GCLP 301600Z 01021G31KT 340V040 9999 SCT030 20/12 Q1017 NOSIG
2026-03-30 15:30:00,METAR GCLP 301530Z 01023KT 9999 FEW030 21/12 Q1017 NOSIG
2026-03-30 15:00:00,METAR GCLP 301500Z 01024KT 9999 FEW030 21/12 Q1017 NOSIG
2026-03-30 14:30:00,METAR GCLP 301430Z 01023KT 9999 FEW030 21/12 Q1017 NOSIG
2026-03-30 14:00:00,METAR GCLP 301400Z 01025KT 9999 FEW025 21/13 Q1018 NOSIG
2026-03-30 13:30:00,METAR GCLP 301330Z 02023KT 9999 FEW025 21/12 Q1018 NOSIG
2026-03-30 13:00:00,METAR GCLP 301300Z 01025KT 9999 SCT025 21/12 Q1018 NOSIG
2026-03-30 12:30:00,METAR GCLP 301230Z 02025KT 9999 SCT025 21/12 Q1019 NOSIG
2026-03-30 12:00:00,METAR GCLP 301200Z 01025KT 9999 SCT025 21/13 Q1019 NOSIG
2026-03-30 11:30:00,METAR GCLP 301130Z 01025KT 9999 SCT025 20/13 Q1019 NOSIG
2026-03-30 11:00:00,METAR GCLP 301100Z 01027KT 9999 FEW025 21/12 Q1019 NOSIG
2026-03-30 10:30:00,METAR GCLP 301030Z 02027KT 9999 FEW025 20/12 Q1019 NOSIG
2026-03-30 10:00:00,METAR GCLP 301000Z 01024KT 9999 FEW030 20/12 Q1019 NOSIG
2026-03-30 09:30:00,METAR GCLP 300930Z 01026KT 9999 FEW030 19/12 Q1019 NOSIG
2026-03-30 09:00:00,METAR GCLP 300900Z 01023KT 9999 FEW030 19/12 Q1018 NOSIG
2026-03-30 08:30:00,METAR GCLP 300830Z 01020KT 9999 FEW030 18/12 Q1018 NOSIG
2026-03-30 08:00:00,METAR GCLP 300800Z 36017KT 9999 FEW030 17/12 Q1018 NOSIG
2026-03-30 07:30:00,METAR GCLP 300730Z 01018KT 9999 FEW030 17/11 Q1018 NOSIG
2026-03-30 07:00:00,METAR GCLP 300700Z 01018KT 9999 SCT025 17/12 Q1018 NOSIG
2026-03-30 06:30:00,METAR GCLP 300630Z 36018KT 9999 SCT025 17/12 Q1017 NOSIG
2026-03-30 06:00:00,METAR GCLP 300600Z 36017KT 9999 BKN025 17/12 Q1017 NOSIG
2026-03-30 05:30:00,METAR GCLP 300530Z 36017KT 9999 BKN025 17/11 Q1017 NOSIG
2026-03-30 05:00:00,METAR GCLP 300500Z 01018KT 9999 SCT025 17/11 Q1017 NOSIG
2026-03-30 04:30:00,METAR GCLP 300430Z 36019KT 9999 BKN025 17/12 Q1017 NOSIG
2026-03-30 04:00:00,METAR GCLP 300400Z 01018KT 9999 BKN025 17/12 Q1017 NOSIG
2026-03-30 03:30:00,METAR GCLP 300330Z 01018KT 9999 BKN025 17/12 Q1018 NOSIG
2026-03-30 03:00:00,METAR GCLP 300300Z 36017KT 9999 BKN025 17/12 Q1018 NOSIG
2026-03-30 02:30:00,METAR GCLP 300230Z 01018KT 9999 BKN025 17/13 Q1018 NOSIG
2026-03-30 02:00:00,METAR GCLP 300200Z 01020KT 9999 BKN025 17/13 Q1018 NOSIG
2026-03-30 01:30:00,METAR GCLP 300130Z 01022KT 9999 BKN025 18/13 Q1018 NOSIG
2026-03-30 01:00:00,METAR GCLP 300100Z 01020KT 9999 BKN025 18/13 Q1019 NOSIG
2026-03-30 00:30:00,METAR GCLP 300030Z 01019KT 9999 BKN025 18/13 Q1019 NOSIG
2026-03-30 00:00:00,METAR GCLP 300000Z 01020KT 9999 SCT020 BKN030 18/13 Q1019 NOSIG
2026-03-29 23:30:00,METAR GCLP 292330Z 01019KT 9999 SCT020 BKN030 18/14 Q1019 NOSIG
2026-03-29 23:00:00,METAR GCLP 292300Z 01018KT 9999 SCT020 BKN030 18/14 Q1020 NOSIG
2026-03-29 22:30:00,METAR GCLP 292230Z 01019KT 9999 BKN025 18/14 Q1020 NOSIG
2026-03-29 22:00:00,METAR GCLP 292200Z 01020KT 9999 BKN025 18/14 Q1020 NOSIG
2026-03-29 21:30:00,METAR GCLP 292130Z 01017KT 9999 SCT025 18/14 Q1020 NOSIG
2026-03-29 21:00:00,METAR GCLP 292100Z 01019KT 9999 SCT025 18/13 Q1019 NOSIG
2026-03-29 20:30:00,METAR GCLP 292030Z 01017KT 9999 SCT025 18/13 Q1019 NOSIG
2026-03-29 20:00:00,METAR GCLP 292000Z 01018KT 9999 SCT025 18/13 Q1019 NOSIG
2026-03-29 19:30:00,METAR GCLP 291930Z 01021KT 9999 SCT025 19/12 Q1019 NOSIG
2026-03-29 19:00:00,METAR GCLP 291900Z 01023G33KT 9999 SCT025 19/13 Q1019 NOSIG
2026-03-29 18:30:00,METAR GCLP 291830Z 01023KT 9999 SCT025 19/14 Q1018 NOSIG
2026-03-29 18:00:00,METAR GCLP 291800Z 01024KT 9999 SCT025 19/13 Q1018 NOSIG
2026-03-29 17:30:00,METAR GCLP 291730Z 36024KT 330V030 9999 SCT025 20/13 Q1018 NOSIG
2026-03-29 17:00:00,METAR GCLP 291700Z 01025KT 9999 SCT030 20/13 Q1018 NOSIG
2026-03-29 16:30:00,METAR GCLP 291630Z 02024G35KT 9999 FEW030 21/13 Q1018 NOSIG
2026-03-29 16:00:00,METAR GCLP 291600Z 01023KT 9999 FEW030 21/12 Q1019 NOSIG
2026-03-29 15:30:00,METAR GCLP 291530Z 01023KT 350V050 9999 FEW030 21/13 Q1019 NOSIG
2026-03-29 15:00:00,METAR GCLP 291500Z 01021KT 9999 FEW025 SCT035 21/12 Q1019 NOSIG
2026-03-29 14:30:00,METAR GCLP 291430Z 02022KT 9999 FEW025 SCT035 21/12 Q1019 NOSIG
2026-03-29 14:00:00,METAR GCLP 291400Z 02022KT 9999 FEW025 SCT035 20/13 Q1019 NOSIG
2026-03-29 13:30:00,METAR GCLP 291330Z 02023KT 340V040 9999 FEW025 SCT035 21/12 Q1019 NOSIG
2026-03-29 13:00:00,METAR GCLP 291300Z 02022KT 9999 FEW025 SCT035 21/12 Q1020 NOSIG
2026-03-29 12:30:00,METAR GCLP 291230Z 01022KT 350V050 9999 FEW025 BKN035 21/12 Q1020 NOSIG
2026-03-29 12:00:00,METAR GCLP 291200Z 01022KT 9999 FEW025 SCT035 20/11 Q1021 NOSIG
2026-03-29 11:30:00,METAR GCLP 291130Z 02023KT 350V050 9999 FEW025 BKN035 20/13 Q1021 NOSIG
2026-03-29 11:00:00,METAR GCLP 291100Z 02022KT 9999 FEW025 BKN035 20/14 Q1021 NOSIG
2026-03-29 10:30:00,METAR GCLP 291030Z 02021KT 9999 FEW025 BKN035 20/13 Q1021 NOSIG
2026-03-29 10:00:00,METAR GCLP 291000Z 02021KT 9999 FEW025 BKN035 20/13 Q1021 NOSIG
2026-03-29 09:30:00,METAR GCLP 290930Z 01021KT 9999 FEW025 BKN035 19/13 Q1020 NOSIG
2026-03-29 09:00:00,METAR GCLP 290900Z 02021KT 9999 BKN030 19/12 Q1020 NOSIG
2026-03-29 08:30:00,METAR GCLP 290830Z 01020KT 9999 BKN030 18/12 Q1020 NOSIG
2026-03-29 08:00:00,METAR GCLP 290800Z 01015KT 9999 BKN030 18/12 Q1020 NOSIG
2026-03-29 07:30:00,METAR GCLP 290730Z 01016KT 9999 BKN030 17/12 Q1019 NOSIG
2026-03-29 07:00:00,METAR GCLP 290700Z 01016KT 9999 BKN025 17/12 Q1019 NOSIG
2026-03-29 06:30:00,METAR GCLP 290630Z 01016KT 9999 BKN025 17/13 Q1019 NOSIG
2026-03-29 06:00:00,METAR GCLP 290600Z 36016KT 9999 BKN025 17/12 Q1019 NOSIG
2026-03-29 05:30:00,METAR GCLP 290530Z 36016KT 9999 FEW025 17/12 Q1019 NOSIG
2026-03-29 05:00:00,METAR GCLP 290500Z 01017KT 9999 SCT025 17/12 Q1019 NOSIG
2026-03-29 04:30:00,METAR GCLP 290430Z 01014KT 9999 SCT025 17/12 Q1019 NOSIG
2026-03-29 04:00:00,METAR GCLP 290400Z 01017KT 9999 SCT025 17/12 Q1019 NOSIG
2026-03-29 03:30:00,METAR GCLP 290330Z 36017KT 9999 SCT035 17/12 Q1019 NOSIG
2026-03-29 03:00:00,METAR GCLP 290300Z 36017KT 9999 BKN035 17/12 Q1019 NOSIG
2026-03-29 02:30:00,METAR GCLP 290230Z 36016KT 9999 BKN035 17/12 Q1019 NOSIG
2026-03-29 02:00:00,METAR GCLP 290200Z 36016KT 9999 BKN035 18/12 Q1019 NOSIG
2026-03-29 01:30:00,METAR GCLP 290130Z 01017KT 9999 SCT030 18/12 Q1020 NOSIG
2026-03-29 01:00:00,METAR GCLP 290100Z 36016KT 9999 BKN030 18/12 Q1020 NOSIG
2026-03-29 00:30:00,METAR GCLP 290030Z 36017KT 9999 BKN030 18/12 Q1020 NOSIG
2026-03-29 00:00:00,METAR GCLP 290000Z 01017KT 9999 BKN030 18/12 Q1020 NOSIG
2026-03-28 23:30:00,METAR GCLP 282330Z 01019KT 9999 SCT025 18/13 Q1021 NOSIG
2026-03-28 23:00:00,METAR GCLP 282300Z 01015KT 9999 BKN025 18/13 Q1021 NOSIG
2026-03-28 22:30:00,METAR GCLP 282230Z 36016KT 9999 BKN025 18/12 Q1020 NOSIG
2026-03-28 22:00:00,METAR GCLP 282200Z 36016KT 9999 BKN025 18/12 Q1020 NOSIG
2026-03-28 21:30:00,METAR GCLP 282130Z 01017KT 9999 BKN025 18/12 Q1020 NOSIG
2026-03-28 21:00:00,METAR GCLP 282100Z 01019KT 9999 BKN025 18/13 Q1020 NOSIG
2026-03-28 20:30:00,METAR GCLP 282030Z 36015KT 9999 BKN025 18/13 Q1020 NOSIG
2026-03-28 20:00:00,METAR GCLP 282000Z 01015KT 9999 SCT030 18/13 Q1019 NOSIG
2026-03-28 19:30:00,METAR GCLP 281930Z 36017KT 9999 SCT030 19/13 Q1019 NOSIG
2026-03-28 19:00:00,METAR GCLP 281900Z 36017KT 330V030 9999 SCT030 19/12 Q1019 NOSIG
2026-03-28 18:30:00,METAR GCLP 281830Z 01019KT 9999 FEW030 19/12 Q1019 NOSIG
2026-03-28 18:00:00,METAR GCLP 281800Z 36020KT 9999 FEW030 20/12 Q1018 NOSIG
2026-03-28 17:30:00,METAR GCLP 281730Z 02023KT 9999 FEW028 20/13 Q1018 NOSIG
2026-03-28 17:00:00,METAR GCLP 281700Z 02022KT 350V050 9999 FEW028 21/13 Q1018 NOSIG
2026-03-28 16:30:00,METAR GCLP 281630Z 02024KT 9999 FEW028 21/14 Q1018 NOSIG
2026-03-28 16:00:00,METAR GCLP 281600Z 03024KT 9999 FEW028 21/14 Q1018 NOSIG
2026-03-28 15:30:00,METAR GCLP 281530Z 03025KT 9999 FEW028 21/14 Q1018 NOSIG
2026-03-28 15:00:00,METAR GCLP 281500Z 03025KT 9999 FEW028 21/14 Q1018 NOSIG
2026-03-28 14:30:00,METAR GCLP 281430Z 03024KT 9999 FEW030 22/14 Q1018 NOSIG
2026-03-28 14:00:00,METAR GCLP 281400Z 03027KT 9999 FEW030 21/14 Q1019 NOSIG
2026-03-28 13:30:00,METAR GCLP 281330Z 03025KT 9999 FEW030 22/13 Q1019 NOSIG
2026-03-28 13:00:00,METAR GCLP 281300Z 03023KT 9999 FEW030 22/14 Q1019 NOSIG
2026-03-28 12:30:00,METAR GCLP 281230Z 03023KT 9999 FEW030 21/14 Q1019 NOSIG
2026-03-28 12:00:00,METAR GCLP 281200Z 03019KT 9999 FEW030 22/13 Q1019 NOSIG
2026-03-28 11:30:00,METAR GCLP 281130Z 01019G32KT 340V040 9999 FEW030 21/13 Q1020 NOSIG
2026-03-28 11:00:00,METAR GCLP 281100Z 02018KT 9999 FEW028 20/12 Q1020 NOSIG
2026-03-28 10:30:00,METAR GCLP 281030Z 02018KT 9999 FEW026 20/12 Q1019 NOSIG
2026-03-28 10:00:00,METAR GCLP 281000Z 03019KT 9999 FEW026 20/13 Q1019 NOSIG
2026-03-28 09:30:00,METAR GCLP 280930Z 36016KT 9999 FEW026 20/12 Q1019 NOSIG
2026-03-28 09:00:00,METAR GCLP 280900Z 01016KT 9999 SCT027 19/13 Q1019 NOSIG
2026-03-28 08:30:00,METAR GCLP 280830Z 01013KT 9999 FEW030 18/13 Q1019 NOSIG
2026-03-28 08:00:00,METAR GCLP 280800Z 01012KT 9999 FEW030 17/13 Q1018 NOSIG
2026-03-28 07:30:00,METAR GCLP 280730Z 36014KT 9999 SCT028 17/13 Q1018 NOSIG
2026-03-28 07:00:00,METAR GCLP 280700Z 36014KT 9999 FEW025 17/13 Q1018 NOSIG
2026-03-28 06:30:00,METAR GCLP 280630Z 36014KT 9999 FEW025 17/13 Q1017 NOSIG
2026-03-28 06:00:00,METAR GCLP 280600Z 01015KT 9999 BKN025 17/13 Q1017 NOSIG
2026-03-28 05:30:00,METAR GCLP 280530Z 01015KT 9999 SCT025 17/12 Q1016 NOSIG
2026-03-28 05:00:00,METAR GCLP 280500Z 36013KT 9999 SCT025 17/12 Q1016 NOSIG
2026-03-28 04:30:00,METAR GCLP 280430Z 01013KT 9999 BKN025 17/12 Q1016 NOSIG
2026-03-28 04:00:00,METAR GCLP 280400Z 36015KT 9999 FEW025 18/12 Q1016 NOSIG
2026-03-28 03:30:00,METAR GCLP 280330Z 35015KT 9999 FEW025 17/11 Q1016 NOSIG
2026-03-28 03:00:00,METAR GCLP 280300Z 35016KT 9999 FEW025 17/11 Q1017 NOSIG
2026-03-28 02:30:00,METAR GCLP 280230Z 36014KT 9999 FEW025 17/12 Q1017 NOSIG
2026-03-28 02:00:00,METAR GCLP 280200Z 36016KT 9999 SCT025 17/12 Q1017 NOSIG
2026-03-28 01:30:00,METAR GCLP 280130Z 01016KT 9999 SCT025 17/12 Q1017 NOSIG
2026-03-28 01:00:00,METAR GCLP 280100Z 01016KT 9999 SCT025 17/12 Q1017 NOSIG
2026-03-28 00:30:00,METAR GCLP 280030Z 36014KT 330V030 9999 FEW025 17/12 Q1017 NOSIG
2026-03-28 00:00:00,METAR GCLP 280000Z 36015KT 9999 FEW025 17/13 Q1018 NOSIG
2026-03-27 23:30:00,METAR GCLP 272330Z 36014KT 9999 SCT025 17/13 Q1018 NOSIG
2026-03-27 23:00:00,METAR GCLP 272300Z 01013KT 9999 SCT025 17/13 Q1018 NOSIG
2026-03-27 22:30:00,METAR GCLP 272230Z 36013KT 9999 SCT025 18/13 Q1017 NOSIG
2026-03-27 22:00:00,METAR GCLP 272200Z 36014KT 9999 SCT025 18/13 Q1017 NOSIG
2026-03-27 21:30:00,METAR GCLP 272130Z 36015KT 9999 SCT025 18/13 Q1017 NOSIG
2026-03-27 21:00:00,METAR GCLP 272100Z 01016KT 9999 SCT025 18/13 Q1017 NOSIG
2026-03-27 20:30:00,METAR GCLP 272030Z 36013KT 9999 SCT025 18/13 Q1017 NOSIG
2026-03-27 20:00:00,METAR GCLP 272000Z 01014KT 9999 SCT025 18/13 Q1016 NOSIG
2026-03-27 19:30:00,METAR GCLP 271930Z 01016KT 9999 FEW030 18/13 Q1016 NOSIG
2026-03-27 19:00:00,METAR GCLP 271900Z 36017KT 9999 FEW030 19/13 Q1015 NOSIG
2026-03-27 18:30:00,METAR GCLP 271830Z 36018KT 9999 FEW030 20/12 Q1015 NOSIG
2026-03-27 18:00:00,METAR GCLP 271800Z 01018KT 9999 FEW030 20/13 Q1015 NOSIG
2026-03-27 17:30:00,METAR GCLP 271730Z 01018KT 9999 FEW030 21/12 Q1015 NOSIG
2026-03-27 17:00:00,METAR GCLP 271700Z 03020KT 9999 FEW030 21/13 Q1014 NOSIG
2026-03-27 16:30:00,METAR GCLP 271630Z 01015KT 320V040 9999 FEW030 22/11 Q1015 NOSIG
2026-03-27 16:00:00,METAR GCLP 271600Z 03018KT 9999 FEW030 22/10 Q1015 NOSIG
2026-03-25 15:00:00,METAR GCLP 251500Z 02017KT 350V050 9999 FEW025 22/16 Q1013 NOSIG
2026-03-25 14:30:00,METAR GCLP 251430Z 01016KT 330V030 9999 FEW035 22/13 Q1013 NOSIG
2026-03-25 14:00:00,METAR GCLP 251400Z 02015KT 9999 FEW030 23/15 Q1013 NOSIG
2026-03-25 13:30:00,METAR GCLP 251330Z 03013KT 360V060 9999 FEW030 22/15 Q1014 NOSIG
2026-03-25 13:00:00,METAR GCLP 251300Z 03014KT 350V060 9999 SCT022 SCT075 21/16 Q1014 NOSIG
2026-03-25 12:30:00,METAR GCLP 251230Z 01013KT 340V060 9999 SCT020 SCT070 21/16 Q1014 NOSIG
2026-03-25 12:00:00,METAR GCLP 251200Z 02013KT 340V060 9999 FEW020 SCT070 21/16 Q1014 NOSIG
2026-03-25 11:30:00,METAR GCLP 251130Z 02014KT 340V050 9999 FEW025 SCT065 21/16 Q1014 NOSIG
2026-03-25 11:00:00,METAR GCLP 251100Z 02010KT 350V060 9999 FEW025 SCT065 21/15 Q1014 NOSIG
2026-03-25 10:30:00,METAR GCLP 251030Z 03011KT 360V060 9999 FEW025 21/15 Q1014 NOSIG
2026-03-25 10:00:00,METAR GCLP 251000Z 01010KT 340V060 9999 FEW025 21/14 Q1014 NOSIG
2026-03-25 09:30:00,METAR GCLP 250930Z 35012KT 9999 FEW020 20/14 Q1014 NOSIG
2026-03-25 09:00:00,METAR GCLP 250900Z 35012KT 320V020 9999 FEW020 20/15 Q1014 NOSIG
2026-03-25 08:30:00,METAR GCLP 250830Z 35011KT 320V020 9999 FEW020 19/15 Q1013 NOSIG
2026-03-25 08:00:00,METAR GCLP 250800Z 35011KT 300V010 9999 SCT018 18/14 Q1013 NOSIG
2026-03-25 07:30:00,METAR GCLP 250730Z 35010KT 9999 FEW015 17/14 Q1013 NOSIG
2026-03-25 07:00:00,METAR GCLP 250700Z 35010KT 9999 FEW020 17/15 Q1013 NOSIG
2026-03-25 06:30:00,METAR GCLP 250630Z 35009KT 9999 FEW020 17/15 Q1012 NOSIG
2026-03-25 06:00:00,METAR GCLP 250600Z 35009KT 9999 SCT010 BKN025 17/16 Q1012 NOSIG
2026-03-25 05:30:00,METAR GCLP 250530Z 36009KT 9999 FEW010 BKN025 17/15 Q1012 NOSIG
2026-03-25 05:00:00,METAR GCLP 250500Z 36008KT 9999 FEW025 16/14 Q1012 NOSIG
2026-03-25 04:30:00,METAR GCLP 250430Z 35007KT 9999 FEW025 SCT045 16/14 Q1012 NOSIG
2026-03-25 04:00:00,METAR GCLP 250400Z 34005KT 9999 FEW025 SCT045 16/14 Q1012 NOSIG
2026-03-25 03:30:00,METAR GCLP 250330Z 33005KT 310V010 9999 FEW025 BKN042 17/14 Q1012 NOSIG
2026-03-25 03:00:00,METAR GCLP 250300Z 34005KT 9999 FEW025 16/14 Q1012 NOSIG
2026-03-25 02:30:00,METAR GCLP 250230Z 33004KT 9999 FEW015 16/15 Q1013 NOSIG
2026-03-25 02:00:00,METAR GCLP 250200Z 30005KT 9999 FEW015 17/16 Q1013 NOSIG
2026-03-25 01:30:00,METAR GCLP 250130Z 00000KT 9999 FEW015 17/16 Q1013 NOSIG
2026-03-25 01:00:00,METAR GCLP 250100Z 11006KT 080V140 9999 FEW010 18/17 Q1013 NOSIG
2026-03-25 00:30:00,METAR GCLP 250030Z 09005KT 9999 FEW010 SCT030 18/17 Q1013 NOSIG
2026-03-25 00:00:00,METAR GCLP 250000Z 09006KT 9999 FEW015 SCT030 18/17 Q1013 NOSIG
2026-03-24 23:30:00,METAR GCLP 242330Z 05003KT 320V100 9999 FEW015 SCT030 18/17 Q1013 NOSIG
2026-03-24 23:00:00,METAR GCLP 242300Z 08004KT 9999 FEW017 18/17 Q1013 NOSIG
2026-03-24 22:30:00,METAR GCLP 242230Z 10005KT 9999 FEW017 18/17 Q1013 NOSIG
2026-03-24 22:00:00,METAR GCLP 242200Z 09005KT 9999 SCT017 18/17 Q1013 NOSIG
2026-03-24 21:30:00,METAR GCLP 242130Z 12005KT 060V150 9999 FEW015 BKN025 18/17 Q1012 NOSIG
2026-03-24 21:00:00,METAR GCLP 242100Z 14003KT 050V180 9999 FEW020 BKN025 18/17 Q1012 NOSIG
2026-03-24 20:30:00,METAR GCLP 242030Z 17005KT 120V190 9999 FEW020 18/16 Q1011 NOSIG
2026-03-24 20:00:00,METAR GCLP 242000Z 18005KT 9999 FEW020TCU 18/16 Q1011 NOSIG
2026-03-24 19:30:00,METAR GCLP 241930Z 17007KT 9999 FEW020TCU 18/16 Q1010 NOSIG
2026-03-24 19:00:00,METAR GCLP 241900Z 19011KT 150V210 9999 FEW020 19/16 Q1010 NOSIG
2026-03-24 18:30:00,METAR GCLP 241830Z 18011KT 9999 FEW020 19/16 Q1009 NOSIG
2026-03-24 18:00:00,METAR GCLP 241800Z 20011KT 9999 FEW020 19/16 Q1009 NOSIG
2026-03-24 17:30:00,METAR GCLP 241730Z 18011KT 9999 FEW020 20/16 Q1009 NOSIG
2026-03-24 17:00:00,METAR GCLP 241700Z 17009KT 9999 BKN025 20/17 Q1009 NOSIG
2026-03-24 16:30:00,METAR GCLP 241630Z 17011KT 110V200 9999 BKN020 20/16 Q1009 NOSIG
2026-03-24 16:00:00,METAR GCLP 241600Z 16014KT 120V180 9999 SCT015 BKN020 19/17 Q1009 NOSIG
2026-03-24 15:30:00,METAR GCLP 241530Z 17012KT 110V190 9999 SCT010 BKN020 19/17 Q1009 NOSIG
2026-03-24 15:00:00,METAR GCLP 241500Z 17009KT 150V210 9999 SCT010 BKN020 18/17 Q1009 NOSIG
2026-03-24 14:30:00,METAR GCLP 241430Z 17008KT 110V240 9999 SCT010 BKN015 19/16 Q1009 NOSIG
2026-03-24 14:00:00,METAR GCLP 241400Z 10016KT 050V140 9999 SCT010 BKN015 SCT020TCU 18/17 Q1009 BECMG SHRA SCT020TCU
2026-03-24 13:30:00,METAR GCLP 241330Z 08019KT 6000 -RA FEW007 BKN012 SCT020TCU 18/17 Q1009 RERA BECMG NSW
2026-03-24 13:24:00,SPECI GCLP 241324Z 08020KT 050V110 4500 RA BKN010 BKN015 SCT020TCU 18/16 Q1009 BECMG NSW
2026-03-24 13:00:00,METAR GCLP 241300Z 08016KT 8000 -RA SCT010 BKN020 19/17 Q1010 TEMPO SHRA SCT020TCU
2026-03-24 12:30:00,METAR GCLP 241230Z 06015KT 9999 SCT010 BKN020 18/16 Q1010 NOSIG
2026-03-24 12:00:00,METAR GCLP 241200Z 09012KT 060V120 9999 FEW010 BKN020 SCT025CB 18/16 Q1011 WS ALL RWY NOSIG
2026-03-24 11:30:00,METAR GCLP 241130Z 11006KT 070V180 9999 FEW010 BKN020 SCT025CB 18/16 Q1011 WS ALL RWY NOSIG
2026-03-24 11:00:00,METAR GCLP 241100Z 12012KT 9999 BKN010 BKN015 SCT020CB 17/16 Q1010 WS ALL RWY NOSIG
2026-03-24 10:30:00,METAR GCLP 241030Z 27011KT 240V300 9999 VCTS SCT012 BKN015 SCT020CB 18/15 Q1009 WS ALL RWY NOSIG
2026-03-24 10:00:00,METAR GCLP 241000Z VRB04KT 9999 VCTS SCT010 BKN015 SCT020CB 18/16 Q1010 NOSIG
2026-03-24 09:30:00,METAR GCLP 240930Z 14009KT 110V180 9999 SCT010 BKN020 18/16 Q1009 NOSIG
2026-03-24 09:00:00,METAR GCLP 240900Z 13014KT 8000 -RA SCT010 BKN018 18/15 Q1009 NOSIG
2026-03-24 08:30:00,METAR GCLP 240830Z 13015KT 100V160 7000 -RA BKN010 BKN018 18/16 Q1009 NOSIG
2026-03-24 08:00:00,METAR GCLP 240800Z 13013KT 9999 SCT010 BKN018 18/17 Q1009 NOSIG
2026-03-24 07:30:00,METAR GCLP 240730Z 15012KT 110V170 9999 SCT010 BKN018 18/16 Q1008 TEMPO SHRA FEW025TCU
2026-03-24 07:00:00,METAR GCLP 240700Z 15016KT 9999 -RA SCT010 BKN020 18/17 Q1008 TEMPO SHRA FEW025TCU
2026-03-24 06:30:00,METAR GCLP 240630Z 14014KT 9999 -RA SCT010 BKN020 18/17 Q1008 RERA TEMPO SHRA FEW025TCU
2026-03-24 06:00:00,METAR GCLP 240600Z 15009KT 120V180 8000 RA SCT010 BKN020 18/17 Q1008 NOSIG
2026-03-24 05:48:00,SPECI GCLP 240548Z 15009KT 8000 RA SCT010 BKN020 18/17 Q1008 NOSIG
2026-03-24 05:30:00,METAR GCLP 240530Z 13011KT 9999 -RA VCTS SCT010 BKN020 FEW025CB 18/17 Q1008 NOSIG
2026-03-24 05:00:00,METAR GCLP 240500Z VRB03KT 9999 -RA VCTS SCT010 BKN020 FEW025CB 17/16 Q1008 RESHRA NOSIG
2026-03-24 04:54:00,SPECI GCLP 240454Z VRB02KT 9999 -RA VCTS SCT010 BKN020 FEW025CB 17/16 Q1008 RESHRA NOSIG
2026-03-24 04:30:00,METAR GCLP 240430Z VRB02KT 7000 TSRA SCT012 BKN023 SCT025CB 17/16 Q1008 TEMPO NSW
2026-03-24 04:05:00,SPECI GCLP 240405Z 12003KT 070V200 4000 TSRA FEW012 SCT025CB BKN030 17/15 Q1008 TEMPO NSW
2026-03-24 04:00:00,METAR GCLP 240400Z 11003KT 070V200 9999 -RA TS FEW012 SCT025CB BKN030 17/15 Q1008 TEMPO SHRA
2026-03-24 03:56:00,SPECI GCLP 240356Z 11003KT 070V170 9999 -RA TS FEW012 SCT025CB BKN030 17/15 Q1008 TEMPO SHRA
2026-03-24 03:30:00,METAR GCLP 240330Z VRB01KT 8000 -RA VCTS SCT020 FEW025CB BKN030 17/16 Q1008 TEMPO SHRA
2026-03-24 03:00:00,METAR GCLP 240300Z 20003KT 9999 FEW020 BKN040 17/16 Q1008 NOSIG
2026-03-24 02:30:00,METAR GCLP 240230Z 19004KT 9999 FEW020 BKN055 17/15 Q1008 NOSIG
2026-03-24 02:00:00,METAR GCLP 240200Z 21004KT 9999 FEW020 SCT055 17/15 Q1008 NOSIG
2026-03-24 01:30:00,METAR GCLP 240130Z 20005KT 9999 FEW020 17/15 Q1008 NOSIG
2026-03-24 01:00:00,METAR GCLP 240100Z 19006KT 9999 FEW020 18/15 Q1008 NOSIG
2026-03-24 00:30:00,METAR GCLP 240030Z 24006KT 9999 FEW015 SCT060 18/15 Q1009 NOSIG
2026-03-24 00:00:00,METAR GCLP 240000Z 24005KT 9999 FEW015 BKN060 18/15 Q1009 NOSIG
2026-03-23 23:30:00,METAR GCLP 232330Z 25005KT 9999 SCT012 BKN030 18/15 Q1009 TEMPO SHRA FEW025TCU
2026-03-23 23:00:00,METAR GCLP 232300Z 21003KT 9999 SCT012 BKN025 18/17 Q1009 TEMPO SHRA FEW025TCU
2026-03-23 22:30:00,METAR GCLP 232230Z 00000KT 9999 SCT012 BKN025 18/15 Q1009 TEMPO SHRA FEW025TCU
2026-03-23 22:00:00,METAR GCLP 232200Z 33003KT 300V010 9999 SCT015 BKN025 18/15 Q1010 NOSIG
2026-03-23 21:30:00,METAR GCLP 232130Z VRB01KT 9999 BKN017 18/15 Q1009 NOSIG
2026-03-23 21:00:00,METAR GCLP 232100Z VRB02KT 9999 SCT016 BKN040 18/16 Q1009 NOSIG
2026-03-23 20:30:00,METAR GCLP 232030Z 20004KT 9999 FEW015 BKN040 18/16 Q1008 NOSIG
2026-03-23 20:00:00,METAR GCLP 232000Z 20005KT 9999 FEW015 BKN040 18/16 Q1008 NOSIG
2026-03-23 19:30:00,METAR GCLP 231930Z 20006KT 9999 FEW020 SCT040 19/15 Q1008 NOSIG
2026-03-23 19:00:00,METAR GCLP 231900Z 20007KT 9999 FEW020 SCT040 19/15 Q1007 NOSIG
2026-03-23 18:30:00,METAR GCLP 231830Z 20009KT 9999 FEW020 SCT040 20/15 Q1007 NOSIG
2026-03-23 18:00:00,METAR GCLP 231800Z 21011KT 9999 FEW020 BKN040 20/15 Q1007 NOSIG
2026-03-23 17:30:00,METAR GCLP 231730Z 24009KT 210V300 9999 FEW020 BKN040 21/15 Q1007 NOSIG
2026-03-23 17:00:00,METAR GCLP 231700Z 20012KT 160V230 9999 FEW020 SCT045 21/16 Q1006 NOSIG
2026-03-23 16:30:00,METAR GCLP 231630Z 20014KT 170V230 9999 SCT030 22/16 Q1006 NOSIG
2026-03-23 16:00:00,METAR GCLP 231600Z 20016KT 9999 SCT030 22/16 Q1006 NOSIG
2026-03-23 15:30:00,METAR GCLP 231530Z 19018KT 160V230 9999 SCT030 21/15 Q1006 NOSIG
2026-03-23 15:00:00,METAR GCLP 231500Z 19019KT 150V210 9999 SCT030 21/16 Q1006 NOSIG
2026-03-23 14:30:00,METAR GCLP 231430Z 18019KT 9999 SCT030 22/15 Q1006 NOSIG
2026-03-23 14:00:00,METAR GCLP 231400Z 19019KT 9999 SCT030 22/15 Q1006 NOSIG
2026-03-23 13:30:00,METAR GCLP 231330Z 18019KT 9999 SCT030 22/15 Q1006 NOSIG
2026-03-23 13:00:00,METAR GCLP 231300Z 18019KT 9999 FEW030 22/15 Q1006 NOSIG
2026-03-23 12:30:00,METAR GCLP 231230Z 19019KT 9999 FEW030 22/14 Q1006 NOSIG
2026-03-23 12:00:00,METAR GCLP 231200Z 19018KT 9999 FEW030 21/15 Q1006 NOSIG
2026-03-23 11:30:00,METAR GCLP 231130Z 19014KT 160V230 9999 FEW030 22/15 Q1006 NOSIG
2026-03-23 11:00:00,METAR GCLP 231100Z 20014KT 9999 FEW030 21/15 Q1006 NOSIG
2026-03-23 10:30:00,METAR GCLP 231030Z 18012KT 9999 FEW030 21/14 Q1006 NOSIG
2026-03-23 10:00:00,METAR GCLP 231000Z 19010KT 160V230 9999 FEW025 20/15 Q1006 NOSIG
2026-03-23 09:30:00,METAR GCLP 230930Z 22004KT 170V280 9999 FEW025 20/14 Q1006 NOSIG
2026-03-23 09:00:00,METAR GCLP 230900Z VRB03KT 9999 FEW025 19/14 Q1005 NOSIG
2026-03-23 08:30:00,METAR GCLP 230830Z VRB02KT 9999 FEW025 18/14 Q1005 NOSIG
2026-03-23 08:00:00,METAR GCLP 230800Z 21010KT 9999 FEW025TCU SCT030 17/14 Q1004 NOSIG
2026-03-23 07:30:00,METAR GCLP 230730Z 21010KT 9999 FEW025TCU SCT030 16/14 Q1004 NOSIG
2026-03-23 07:00:00,METAR GCLP 230700Z 21009KT 9999 FEW025TCU SCT050 15/14 Q1004 NOSIG
2026-03-23 06:30:00,METAR GCLP 230630Z 21006KT 9999 FEW025 SCT050 15/14 Q1004 NOSIG
2026-03-23 06:00:00,METAR GCLP 230600Z 21007KT 9999 SCT050 16/15 Q1004 NOSIG
2026-03-23 05:30:00,METAR GCLP 230530Z 20010KT 9999 FEW070 16/15 Q1003 NOSIG
2026-03-23 05:00:00,METAR GCLP 230500Z 19007KT 9999 FEW015 SCT025 16/15 Q1003 NOSIG
2026-03-23 04:43:00,SPECI GCLP 230443Z 18006KT 160V220 8000 FEW014 SCT025 BKN040 16/15 Q1003 NOSIG
2026-03-23 04:30:00,METAR GCLP 230430Z 21010KT 5000 -DZ FEW012 SCT025TCU BKN035 16/15 Q1003 RESHRA NOSIG
2026-03-23 04:18:00,SPECI GCLP 230418Z VRB08G21KT 1300 0600S R03/1800D R21/P2000 +SHRA SCT010 BKN020 BKN025TCU 16/15 Q1004 NOSIG
2026-03-23 04:11:00,SPECI GCLP 230411Z 25003KT 150V300 2700 +SHRA SCT010 BKN020 BKN025TCU 16/15 Q1004 RETS NOSIG
2026-03-23 04:00:00,METAR GCLP 230400Z 22005KT 4000 1800S +SHRA BKN010 BKN020 BKN025TCU 16/15 Q1004 RETS NOSIG
2026-03-23 03:45:00,SPECI GCLP 230345Z VRB02KT 6000 SHRA BKN010 BKN020 BKN025TCU 16/15 Q1004 RETS BECMG NSW
2026-03-23 03:34:00,SPECI GCLP 230334Z VRB02KT 6000 1200S +TSRA BKN011 BKN020 BKN025CB 16/15 Q1004 BECMG NSW
2026-03-23 03:30:00,METAR GCLP 230330Z 23003KT 6000 +TSRA BKN011 BKN020 BKN025CB 16/15 Q1004 BECMG NSW
2026-03-23 03:10:00,SPECI GCLP 230310Z 23006KT 190V270 4500 TSRA BKN013 BKN020 BKN025CB 16/15 Q1004 BECMG NSW
2026-03-23 03:00:00,METAR GCLP 230300Z 20006KT 160V250 9000 TSRA SCT015 BKN025CB BKN055 16/15 Q1005 BECMG NSW
2026-03-23 02:30:00,METAR GCLP 230230Z 20009KT 8000 TSRA SCT015 BKN030CB BKN055 16/14 Q1005 BECMG NSW
2026-03-23 02:10:00,SPECI GCLP 230210Z 21005KT 150V320 8000 1300S TSRA SCT015 BKN030CB BKN055 16/15 Q1005 NOSIG
2026-03-23 02:00:00,METAR GCLP 230200Z VRB02KT 8000 SHRA SCT018 BKN030TCU BKN055 16/14 Q1005 NOSIG
2026-03-23 01:51:00,SPECI GCLP 230151Z VRB01KT 6000 +SHRA SCT018 BKN030TCU BKN055 16/14 Q1005 NOSIG
2026-03-23 01:30:00,METAR GCLP 230130Z 22003KT 200V260 6000 SHRA SCT020 BKN030TCU 16/14 Q1005 NOSIG
2026-03-23 01:00:00,METAR GCLP 230100Z 20006KT 9999 -SHRA FEW020 BKN030TCU 16/14 Q1005 NOSIG
2026-03-23 00:30:00,METAR GCLP 230030Z 22011KT 9999 FEW020 SCT030 BKN060 16/14 Q1005 NOSIG
2026-03-23 00:00:00,METAR GCLP 230000Z 20010KT 9999 SCT015 BKN025 17/16 Q1005 RESHRA NOSIG
2026-03-22 23:52:00,SPECI GCLP 222352Z 20009KT 170V230 9999 SCT015 SCT020TCU 17/16 Q1005 RESHRA NOSIG
2026-03-22 23:41:00,SPECI GCLP 222341Z 21012KT 180V240 5000 +SHRA SCT015 SCT020TCU BKN040 17/15 Q1005 RERA NOSIG
2026-03-22 23:30:00,METAR GCLP 222330Z 21007KT 6000 +RA SCT015 SCT020 BKN040 17/16 Q1005 NOSIG
2026-03-22 23:23:00,SPECI GCLP 222323Z 21008KT 8000 RA SCT020 SCT030 BKN050 18/16 Q1005 NOSIG
2026-03-22 23:00:00,METAR GCLP 222300Z 20009KT 9999 SCT022 17/15 Q1005 NOSIG
2026-03-22 22:30:00,METAR GCLP 222230Z 20009KT 8000 -RA SCT020 17/15 Q1005 NOSIG
2026-03-22 22:00:00,METAR GCLP 222200Z 22005KT 190V250 8000 -RA FEW020 SCT040 17/16 Q1005 NOSIG
2026-03-22 21:30:00,METAR GCLP 222130Z 20010KT 9999 FEW030 18/15 Q1005 NOSIG
2026-03-22 21:00:00,METAR GCLP 222100Z 20012KT 170V230 9999 FEW030 18/15 Q1004 NOSIG
2026-03-22 20:30:00,METAR GCLP 222030Z 21013KT 9999 FEW030 17/15 Q1003 NOSIG
2026-03-22 20:00:00,METAR GCLP 222000Z 21015KT 9999 FEW030 18/15 Q1003 NOSIG
2026-03-22 19:30:00,METAR GCLP 221930Z 22011KT 9999 SCT030 18/15 Q1003 NOSIG
2026-03-22 19:00:00,METAR GCLP 221900Z 21013KT 9999 SCT030 18/14 Q1003 NOSIG
2026-03-22 18:30:00,METAR GCLP 221830Z 21013KT 9999 FEW025 BKN045 19/14 Q1002 NOSIG
2026-03-22 18:00:00,METAR GCLP 221800Z 21014KT 9999 FEW025 BKN045 19/14 Q1002 NOSIG
2026-03-22 17:30:00,METAR GCLP 221730Z 21013KT 9999 FEW025 BKN045 19/15 Q1002 NOSIG
2026-03-22 17:00:00,METAR GCLP 221700Z 21016KT 170V230 9999 FEW025 BKN045 20/14 Q1002 NOSIG
2026-03-22 16:30:00,METAR GCLP 221630Z 21015KT 9999 FEW025 BKN045 22/13 Q1001 NOSIG
2026-03-22 16:00:00,METAR GCLP 221600Z 21020KT 9999 FEW025 BKN045 21/14 Q1001 WS R21 NOSIG
2026-03-22 15:30:00,METAR GCLP 221530Z 21021KT 9999 SCT025 BKN040 20/16 Q1001 WS R21 NOSIG
2026-03-22 15:00:00,METAR GCLP 221500Z 21019KT 9999 SCT025 BKN040 23/14 Q1002 WS R21 NOSIG
2026-03-22 14:30:00,METAR GCLP 221430Z 21020G30KT 160V250 9999 SCT025 BKN040 22/14 Q1002 WS R21 NOSIG
2026-03-22 14:00:00,METAR GCLP 221400Z 21021KT 9999 SCT025 BKN045 22/14 Q1002 NOSIG
2026-03-22 13:30:00,METAR GCLP 221330Z 21016KT 9999 SCT030 BKN050 21/17 Q1003 NOSIG
2026-03-22 12:43:00,SPECI GCLP 221243Z 21021KT 9999 3000S SHRA FEW025TCU BKN030 20/17 Q1003 TEMPO NSW
2026-03-22 12:30:00,METAR GCLP 221230Z 21020KT 9999 BKN030 22/15 Q1003 TEMPO SHRA FEW025TCU
2026-03-22 12:00:00,METAR GCLP 221200Z 20019KT 160V250 9999 SCT025 22/15 Q1003 NOSIG
2026-03-22 11:30:00,METAR GCLP 221130Z 20018KT 9999 SCT025 22/15 Q1003 NOSIG
2026-03-22 10:30:00,METAR GCLP 221030Z 21016KT 9999 SCT025 21/13 Q1003 NOSIG
2026-03-22 10:00:00,METAR GCLP 221000Z 20013KT 9999 SCT025 21/14 Q1003 NOSIG
2026-03-22 09:30:00,METAR GCLP 220930Z 20013KT 170V230 9999 SCT025 20/14 Q1003 NOSIG
2026-03-22 08:30:00,METAR GCLP 220830Z 20011KT 9999 SCT025 18/13 Q1002 NOSIG
2026-03-22 08:00:00,METAR GCLP 220800Z 19010KT 9999 SCT020 17/12 Q1002 NOSIG
2026-03-22 07:30:00,METAR GCLP 220730Z 20010KT 9999 FEW020 16/11 Q1001 NOSIG
2026-03-22 07:00:00,METAR GCLP 220700Z 19013KT 9999 FEW020 16/11 Q1001 NOSIG
2026-03-22 06:30:00,METAR GCLP 220630Z 20008KT 170V240 9999 FEW020 17/11 Q1001 NOSIG
2026-03-22 06:00:00,METAR GCLP 220600Z 23012KT 9999 SCT020 18/10 Q1000 NOSIG
2026-03-22 05:30:00,METAR GCLP 220530Z 23016KT 9999 BKN035 18/10 Q1000 NOSIG
2026-03-22 05:00:00,METAR GCLP 220500Z 23009KT 190V260 9999 BKN035 18/10 Q1000 NOSIG
2026-03-22 04:30:00,METAR GCLP 220430Z 19005KT 150V260 9999 BKN035 17/13 Q1000 NOSIG
2026-03-22 04:00:00,METAR GCLP 220400Z 21006KT 180V260 9999 BKN035 17/12 Q1001 NOSIG
2026-03-22 03:30:00,METAR GCLP 220330Z 23008KT 190V300 9999 BKN035 18/12 Q1001 NOSIG
2026-03-22 03:00:00,METAR GCLP 220300Z 21016KT 180V240 9999 BKN030 17/13 Q1001 NOSIG
2026-03-22 02:30:00,METAR GCLP 220230Z 21018KT 9999 -RA VCTS FEW020CB BKN030 17/14 Q1001 NOSIG
2026-03-22 02:00:00,METAR GCLP 220200Z 21012KT 9999 SCT020 18/15 Q1002 NOSIG
2026-03-22 01:30:00,METAR GCLP 220130Z 22016KT 190V250 9999 SCT020 18/14 Q1002 NOSIG
2026-03-22 01:00:00,METAR GCLP 220100Z 22018KT 190V250 9999 SCT020 18/14 Q1002 NOSIG
2026-03-22 00:30:00,METAR GCLP 220030Z 22018KT 190V250 9999 SCT020 18/15 Q1002 NOSIG
2026-03-22 00:00:00,METAR GCLP 220000Z 22023G33KT 9999 FEW020 17/15 Q1001 NOSIG
2026-03-21 23:30:00,METAR GCLP 212330Z 21026KT 9999 -RA FEW015 SCT025 17/15 Q1001 WS ALL RWY NOSIG
2026-03-21 23:00:00,METAR GCLP 212300Z 21025KT 9999 FEW020 18/15 Q1001 WS ALL RWY NOSIG
2026-03-21 22:30:00,METAR GCLP 212230Z 22022KT 9999 FEW020 18/14 Q1002 WS ALL RWY NOSIG
2026-03-21 22:00:00,METAR GCLP 212200Z 20023KT 9999 SCT030 17/15 Q1002 RERA WS ALL RWY NOSIG
2026-03-21 21:46:00,SPECI GCLP 212146Z 20018G28KT 9999 -RA BKN030 16/14 Q1002 RERA WS ALL RWY NOSIG
2026-03-21 21:30:00,METAR GCLP 212130Z 22017KT 4000 RA FEW017 BKN030 16/13 Q1002 WS ALL RWY TEMPO NSW
2026-03-21 21:11:00,SPECI GCLP 212111Z 22026KT 6000 SHRA FEW020CB BKN030 17/15 Q1002 WS ALL RWY TEMPO 4500 SHRA SCT020CB
2026-03-21 21:00:00,METAR GCLP 212100Z 21024KT 9999 VCTS FEW020CB BKN030 18/16 Q1001 WS ALL RWY TEMPO 4500 TSRA
2026-03-21 20:30:00,METAR GCLP 212030Z 21024KT 9999 -RA FEW018 BKN030 17/15 Q1001 RERA WS ALL RWY NOSIG
2026-03-21 20:22:00,SPECI GCLP 212022Z 20025KT 9999 FEW018 SCT030 17/15 Q1001 RERA WS ALL RWY NOSIG
2026-03-21 20:04:00,SPECI GCLP 212004Z 22030G40KT 6000 RA FEW018 SCT025 17/15 Q1000 WS ALL RWY NOSIG
2026-03-21 19:30:00,METAR GCLP 211930Z 22024G34KT 9999 -RA FEW018 SCT025 18/15 Q1000 NOSIG
2026-03-21 19:00:00,METAR GCLP 211900Z 22026KT 9999 FEW020 19/14 Q1000 NOSIG
2026-03-21 18:30:00,METAR GCLP 211830Z 22028G38KT 9999 FEW030 19/14 Q0999 NOSIG
2026-03-21 18:00:00,METAR GCLP 211800Z 22027G38KT 9999 FEW035 21/12 Q0999 NOSIG
2026-03-21 17:30:00,METAR GCLP 211730Z 22028G42KT 9999 FEW035 22/12 Q0999 NOSIG
2026-03-21 17:00:00,METAR GCLP 211700Z 23030G43KT 9999 FEW035 22/12 Q0999 NOSIG
2026-03-21 16:30:00,METAR GCLP 211630Z 22026G40KT 9999 FEW035 22/12 Q0999 NOSIG
2026-03-21 16:00:00,METAR GCLP 211600Z 22024G35KT 190V250 9999 FEW035 23/13 Q1000 NOSIG
2026-03-21 15:30:00,METAR GCLP 211530Z 22023G34KT 190V250 9999 FEW032 22/13 Q1000 NOSIG
2026-03-21 15:00:00,METAR GCLP 211500Z 22023G33KT 9999 FEW025 SCT035 21/16 Q1001 NOSIG
2026-03-21 14:30:00,METAR GCLP 211430Z 23024G35KT 6000 -RA FEW025 SCT035 20/17 Q1001 NOSIG
2026-03-21 14:00:00,METAR GCLP 211400Z 22025G36KT 9999 -RA FEW025 SCT035 20/17 Q1001 NOSIG
2026-03-21 13:30:00,METAR GCLP 211330Z 23024G34KT 9999 FEW035 21/14 Q1001 NOSIG
2026-03-21 13:00:00,METAR GCLP 211300Z 22027G37KT 9999 FEW035 21/15 Q1002 NOSIG
2026-03-21 12:30:00,METAR GCLP 211230Z 22024KT 9999 SCT035 20/15 Q1002 NOSIG
2026-03-21 12:00:00,METAR GCLP 211200Z 22024KT 9999 FEW035 20/13 Q1002 NOSIG
2026-03-21 11:30:00,METAR GCLP 211130Z 22024G34KT 9999 FEW035 22/15 Q1002 NOSIG
2026-03-21 11:00:00,METAR GCLP 211100Z 22028KT 9999 FEW035 21/14 Q1002 NOSIG
2026-03-21 10:30:00,METAR GCLP 211030Z 22026KT 9999 FEW035 20/15 Q1001 TEMPO 4500 SHRA SCT025TCU
2026-03-21 10:00:00,METAR GCLP 211000Z 22022G34KT 9999 FEW025 SCT035 BKN060 18/14 Q1002 RERA TEMPO 4500 SHRA SCT025TCU
2026-03-21 09:45:00,SPECI GCLP 210945Z 23027KT 5000 RA FEW020 BKN038 BKN050 19/15 Q1002 TEMPO 4500 SHRA SCT025TCU
2026-03-21 09:30:00,METAR GCLP 210930Z 22024G35KT 9999 FEW025 SCT038 BKN050 20/16 Q1002 TEMPO 4500 SHRA SCT025TCU
2026-03-21 09:00:00,METAR GCLP 210900Z 22027G41KT 9999 FEW025 SCT040 19/16 Q1002 TEMPO 4500 SHRA SCT025TCU
2026-03-21 08:46:00,SPECI GCLP 210846Z 22026G40KT 9999 FEW020 SCT025 BKN060 20/16 Q1001 TEMPO 4500 SHRA SCT025TCU
2026-03-21 08:30:00,METAR GCLP 210830Z 22025G36KT 8000 SHRA SCT020 SCT025TCU BKN060 20/15 Q1001 NOSIG
2026-03-21 08:00:00,METAR GCLP 210800Z 21022KT 9999 -RA FEW020 SCT025 BKN060 19/15 Q1001 NOSIG
2026-03-21 07:30:00,METAR GCLP 210730Z 21020KT 9999 FEW025 SCT070 18/15 Q1000 NOSIG
2026-03-21 07:00:00,METAR GCLP 210700Z 22022G36KT 9999 FEW025 SCT070 18/15 Q1001 NOSIG
2026-03-21 06:30:00,METAR GCLP 210630Z 22022KT 9999 -RA FEW030 SCT080 18/15 Q1000 NOSIG
2026-03-21 06:00:00,METAR GCLP 210600Z 22022KT 9999 FEW035 18/14 Q1000 NOSIG
2026-03-21 05:30:00,METAR GCLP 210530Z 21022KT 9999 FEW030 18/14 Q1000 NOSIG
2026-03-21 05:00:00,METAR GCLP 210500Z 22022KT 9999 FEW030 18/13 Q1000 NOSIG
2026-03-21 04:30:00,METAR GCLP 210430Z 23021KT 9999 FEW030 19/13 Q1000 NOSIG
2026-03-21 04:00:00,METAR GCLP 210400Z 21017KT 190V250 9999 FEW030 18/14 Q1001 NOSIG
2026-03-21 03:30:00,METAR GCLP 210330Z 22017G27KT 9999 FEW030 18/14 Q1001 NOSIG
2026-03-21 03:00:00,METAR GCLP 210300Z 22021G33KT 190V250 9999 FEW030 18/13 Q1001 NOSIG
2026-03-21 02:30:00,METAR GCLP 210230Z 22019KT 190V250 9999 FEW030 18/13 Q1002 NOSIG
2026-03-21 02:00:00,METAR GCLP 210200Z 22018KT 9999 FEW030 18/14 Q1002 NOSIG
2026-03-21 01:30:00,METAR GCLP 210130Z 21017KT 9999 SCT025 18/15 Q1003 NOSIG
2026-03-21 01:00:00,METAR GCLP 210100Z 21018KT 9999 FEW023 SCT045 18/15 Q1003 NOSIG
2026-03-21 00:30:00,METAR GCLP 210030Z 21017KT 9999 FEW023 SCT045 18/15 Q1003 NOSIG
2026-03-21 00:00:00,METAR GCLP 210000Z 21018KT 9999 FEW025 18/14 Q1003 NOSIG
2026-03-20 23:30:00,METAR GCLP 202330Z 22019KT 9999 FEW025 18/14 Q1003 NOSIG
2026-03-20 23:00:00,METAR GCLP 202300Z 22021G33KT 9999 SCT025 17/15 Q1003 NOSIG
2026-03-20 22:30:00,METAR GCLP 202230Z 21020KT 9999 -RA SCT025 BKN050 17/15 Q1003 NOSIG
2026-03-20 22:00:00,METAR GCLP 202200Z 22018G28KT 190V250 9999 BKN025 19/15 Q1003 NOSIG
2026-03-20 21:30:00,METAR GCLP 202130Z 21020KT 190V250 9999 SCT025 19/15 Q1003 NOSIG
2026-03-20 21:00:00,METAR GCLP 202100Z 22018KT 9999 SCT025 18/15 Q1003 NOSIG
2026-03-20 20:30:00,METAR GCLP 202030Z 22022KT 9999 FEW020 SCT032 18/15 Q1003 NOSIG
2026-03-20 20:00:00,METAR GCLP 202000Z 21022KT 9999 FEW020 SCT035 18/15 Q1002 NOSIG
2026-03-20 19:30:00,METAR GCLP 201930Z 21019KT 9999 SCT035 19/14 Q1002 NOSIG
2026-03-20 19:00:00,METAR GCLP 201900Z 22021G31KT 9999 FEW035 19/14 Q1001 NOSIG
2026-03-20 18:30:00,METAR GCLP 201830Z 22021KT 9999 SCT035 20/14 Q1001 NOSIG
2026-03-20 18:00:00,METAR GCLP 201800Z 21018KT 9999 SCT035 20/14 Q1001 WS ALL RWY NOSIG
2026-03-20 17:30:00,METAR GCLP 201730Z 22022KT 9999 SCT035 21/14 Q1001 WS ALL RWY NOSIG
2026-03-20 17:00:00,METAR GCLP 201700Z 22022KT 9999 SCT035 21/13 Q1001 WS ALL RWY NOSIG
2026-03-20 16:30:00,METAR GCLP 201630Z 22020KT 190V250 9999 FEW040 22/12 Q1001 WS ALL RWY NOSIG
2026-03-20 16:00:00,METAR GCLP 201600Z 22021KT 9999 FEW040 23/12 Q1001 WS ALL RWY NOSIG
2026-03-20 15:30:00,METAR GCLP 201530Z 23018G28KT 200V260 9999 SCT045 23/12 Q1001 WS ALL RWY NOSIG
2026-03-20 15:00:00,METAR GCLP 201500Z 23016G26KT 200V270 9999 FEW025 SCT045 23/12 Q1001 WS ALL RWY NOSIG
2026-03-20 14:30:00,METAR GCLP 201430Z 23015G29KT 190V280 9999 FEW025 24/12 Q1001 WS ALL RWY NOSIG
2026-03-20 14:00:00,METAR GCLP 201400Z 24014G25KT 200V300 9999 FEW025 23/11 Q1001 WS ALL RWY NOSIG
2026-03-20 13:30:00,METAR GCLP 201330Z 25015G30KT 210V290 9999 FEW025 24/11 Q1001 WS ALL RWY NOSIG
2026-03-20 12:30:00,METAR GCLP 201230Z 23017KT 190V270 9999 FEW025 23/11 Q1002 WS ALL RWY NOSIG
2026-03-20 11:30:00,METAR GCLP 201130Z 24014G25KT 200V290 9999 FEW020 22/11 Q1002 WS ALL RWY NOSIG
2026-03-20 10:30:00,METAR GCLP 201030Z 23015KT 200V260 9999 FEW020 21/11 Q1001 NOSIG
2026-03-20 10:00:00,METAR GCLP 201000Z 22014KT 9999 FEW020 SCT040 21/11 Q1001 NOSIG
2026-03-20 09:30:00,METAR GCLP 200930Z 23016KT 9999 FEW025 20/10 Q1001 NOSIG
2026-03-20 09:00:00,METAR GCLP 200900Z 23020KT 9999 FEW025 19/10 Q1000 NOSIG
2026-03-20 08:30:00,METAR GCLP 200830Z 23023G35KT 9999 FEW025 19/09 Q0999 NOSIG
2026-03-20 08:00:00,METAR GCLP 200800Z 23021G34KT 9999 FEW025 18/09 Q0998 NOSIG
2026-03-20 07:30:00,METAR GCLP 200730Z 25012KT 210V280 9999 FEW025 17/08 Q0999 NOSIG
2026-03-20 06:30:00,METAR GCLP 200630Z 23027KT 200V260 9999 FEW035 18/07 Q0997 NOSIG
2026-03-20 06:00:00,METAR GCLP 200600Z 22020G32KT 190V260 9999 FEW030 17/09 Q0997 NOSIG
2026-03-20 05:30:00,METAR GCLP 200530Z 23016KT 9999 FEW030 17/10 Q0997 NOSIG
2026-03-20 05:00:00,METAR GCLP 200500Z 22020KT 9999 FEW030 18/11 Q0996 NOSIG
2026-03-20 04:30:00,METAR GCLP 200430Z 22019KT 190V250 9999 FEW030 18/13 Q0996 NOSIG
2026-03-20 04:00:00,METAR GCLP 200400Z 22024G34KT 9999 FEW025 SCT030 18/14 Q0996 RESHRA TEMPO 4500 SHRA SCT025TCU
2026-03-20 03:30:00,METAR GCLP 200330Z 20024G34KT 2500 +SHRA SCT010 SCT018 SCT020TCU 17/16 Q0997 TEMPO 4500 SHRA SCT025TCU
2026-03-20 03:14:00,SPECI GCLP 200314Z 20025G41KT 2500 +SHRA FEW010 SCT018 SCT025TCU 17/16 Q0997 TEMPO 4500 SHRA SCT025TCU
2026-03-20 03:07:00,SPECI GCLP 200307Z 21025G35KT 2500 +RA FEW015 BKN025 17/16 Q0997 TEMPO 4500 SHRA SCT025TCU
2026-03-20 03:00:00,METAR GCLP 200300Z 20026G36KT 9999 FEW015 BKN025 18/16 Q0997 TEMPO 4500 SHRA SCT025TCU
2026-03-20 02:30:00,METAR GCLP 200230Z 20029G39KT 5000 RA SCT020 BKN025 18/16 Q0998 TEMPO 4500 SHRA SCT025TCU
2026-03-20 02:00:00,METAR GCLP 200200Z 20026G37KT 9999 -RA SCT015 SCT030TCU 17/16 Q0997 RESHRA TEMPO 4500 SHRA SCT025TCU
2026-03-20 01:57:00,SPECI GCLP 200157Z 20025G37KT 9999 -RA SCT015 SCT030TCU 17/16 Q0997 RESHRA TEMPO 4500 SHRA SCT025TCU
2026-03-20 01:47:00,SPECI GCLP 200147Z 20026G36KT 170V240 1500 +SHRA FEW015 SCT025 SCT030TCU 17/16 Q0998 TEMPO 4500 SHRA SCT025TCU
2026-03-20 01:41:00,SPECI GCLP 200141Z 20025G35KT 170V230 2000 SHRA SCT025 SCT030TCU 17/16 Q0998 TEMPO 4500 SHRA SCT025TCU
2026-03-20 01:30:00,METAR GCLP 200130Z 20026KT 170V230 9999 -RA SCT025 SCT030TCU 18/16 Q0998 RERA TEMPO 4500 SHRA SCT025TCU
2026-03-20 01:21:00,SPECI GCLP 200121Z 20025G35KT 8000 RA FEW015 SCT020 SCT025TCU 17/15 Q0998 TEMPO 4500 SHRA SCT025TCU
2026-03-20 01:00:00,METAR GCLP 200100Z 20023KT 8000 -RA FEW015 SCT020 SCT025TCU 17/16 Q0999 RESHRA TEMPO 4500 SHRA SCT025TCU
2026-03-20 00:40:00,SPECI GCLP 200040Z 21023G34KT 9999 -RA SCT020 SCT025TCU 17/16 Q0999 RESHRA TEMPO 4500 SHRA SCT025TCU
2026-03-20 00:30:00,METAR GCLP 200030Z 21024KT 2000 SHRA BKN020 SCT025TCU 17/15 Q1000 TEMPO 4500 SHRA SCT025TCU
2026-03-20 00:26:00,SPECI GCLP 200026Z 21024KT 2000 SHRA BKN020 SCT025TCU 17/15 Q0999 TEMPO 4500 SHRA SCT025TCU
2026-03-20 00:00:00,METAR GCLP 200000Z 21020KT 9999 SCT020 BKN030 17/15 Q1000 TEMPO 4500 SHRA SCT025TCU
2026-03-19 23:30:00,METAR GCLP 192330Z 21021KT 9999 SCT025 BKN035 17/14 Q1000 TEMPO 4500 SHRA SCT025TCU
2026-03-19 23:00:00,METAR GCLP 192300Z 21022G32KT 9999 -RA SCT020 BKN035 16/14 Q1000 TEMPO 4500 SHRA SCT025TCU
2026-03-19 22:30:00,METAR GCLP 192230Z 20016KT 9999 FEW018 SCT030 17/14 Q1001 TEMPO 4500 SHRA SCT025TCU
2026-03-19 22:00:00,METAR GCLP 192200Z 20013KT 180V240 9999 SCT030 17/14 Q1001 NOSIG
2026-03-19 21:30:00,METAR GCLP 192130Z 21013KT 180V240 9999 SCT030 17/14 Q1001 NOSIG
2026-03-19 21:00:00,METAR GCLP 192100Z 21011KT 9999 -RA SCT020 BKN030 16/14 Q1001 NOSIG
2026-03-19 20:41:00,SPECI GCLP 192041Z 20010KT 170V230 4000 -RA SCT020 BKN035 17/14 Q1001 BECMG NSW
2026-03-19 20:30:00,METAR GCLP 192030Z 21014G24KT 170V240 9999 -RA SCT025 BKN055 17/14 Q1001 NOSIG
2026-03-19 20:00:00,METAR GCLP 192000Z 20015KT 9999 SCT035 BKN060 16/13 Q1001 NOSIG
2026-03-19 19:30:00,METAR GCLP 191930Z 20016KT 9999 SCT035 BKN060 17/13 Q1001 NOSIG
2026-03-19 19:00:00,METAR GCLP 191900Z 20015KT 9999 -RA FEW035 BKN060 17/14 Q1001 NOSIG
2026-03-19 18:30:00,METAR GCLP 191830Z 21016KT 9999 FEW035 BKN065 18/12 Q1001 NOSIG
2026-03-19 18:00:00,METAR GCLP 191800Z 21018KT 9999 FEW035 SCT080 19/11 Q1000 NOSIG
2026-03-19 17:30:00,METAR GCLP 191730Z 21019KT 9999 FEW035 20/10 Q1001 NOSIG
2026-03-19 17:00:00,METAR GCLP 191700Z 22018KT 9999 FEW035 21/10 Q1001 WS ALL RWY NOSIG
2026-03-19 16:30:00,METAR GCLP 191630Z 23018KT 190V250 9999 FEW035 20/11 Q1001 WS ALL RWY NOSIG
2026-03-19 16:00:00,METAR GCLP 191600Z 23019G32KT 200V280 9999 FEW035 20/11 Q1001 WS ALL RWY NOSIG
2026-03-19 15:30:00,METAR GCLP 191530Z 23017KT 200V270 9999 FEW035 SCT070 21/10 Q1001 WS ALL RWY NOSIG
2026-03-19 15:00:00,METAR GCLP 191500Z 24018KT 210V280 9999 FEW030 SCT080 21/10 Q1001 WS ALL RWY TEMPO 4500 SHRA SCT025TCU
2026-03-19 14:30:00,METAR GCLP 191430Z 22017KT 190V260 9999 FEW035 SCT070 21/10 Q1001 WS ALL RWY NOSIG
2026-03-19 14:00:00,METAR GCLP 191400Z 21018KT 9999 FEW035 BKN070 18/14 Q1002 TEMPO 4500 SHRA SCT025TCU
2026-03-19 13:30:00,METAR GCLP 191330Z 21020KT 9999 SCT035 BKN075 18/12 Q1002 RERA TEMPO 4500 SHRA SCT025TCU
2026-03-19 13:19:00,SPECI GCLP 191319Z 21019KT 9999 FEW035 BKN070 18/12 Q1002 RERA TEMPO 4500 SHRA SCT025TCU
2026-03-19 13:06:00,SPECI GCLP 191306Z 22022KT 9999 3000S RA FEW025 BKN060 17/14 Q1003 NOSIG
2026-03-19 13:00:00,METAR GCLP 191300Z 21021KT 190V250 9999 -RA SCT035 BKN065 19/14 Q1002 TEMPO 4500 SHRA SCT025TCU
2026-03-19 12:30:00,METAR GCLP 191230Z 22018G28KT 190V250 9999 SCT035 21/11 Q1002 NOSIG
2026-03-19 12:00:00,METAR GCLP 191200Z 22021G31KT 190V250 9999 FEW030 BKN042 20/12 Q1003 NOSIG
2026-03-19 11:30:00,METAR GCLP 191130Z 23017KT 9999 SCT035 18/12 Q1003 NOSIG
2026-03-19 11:00:00,METAR GCLP 191100Z 21023KT 9999 4000W -RA FEW035 19/12 Q1003 TEMPO RA
2026-03-19 10:30:00,METAR GCLP 191030Z 21020KT 180V240 9999 FEW035 20/12 Q1003 NOSIG
2026-03-19 10:00:00,METAR GCLP 191000Z 22019G31KT 190V250 9999 FEW035 20/11 Q1002 NOSIG
2026-03-19 09:30:00,METAR GCLP 190930Z 21020KT 9999 FEW035 19/10 Q1002 NOSIG
2026-03-19 09:00:00,METAR GCLP 190900Z 21013G25KT 9999 FEW035 18/09 Q1002 NOSIG
2026-03-19 08:30:00,METAR GCLP 190830Z 22015KT 9999 FEW035 17/10 Q1002 NOSIG
2026-03-19 08:00:00,METAR GCLP 190800Z 21012KT 180V240 9999 FEW035 17/09 Q1002 NOSIG
2026-03-19 07:30:00,METAR GCLP 190730Z 21013KT 9999 FEW035 16/09 Q1002 NOSIG
2026-03-19 07:00:00,METAR GCLP 190700Z 20011KT 9999 FEW035 16/09 Q1002 NOSIG
2026-03-19 06:30:00,METAR GCLP 190630Z 20010KT 9999 FEW035 16/09 Q1001 NOSIG
2026-03-19 06:00:00,METAR GCLP 190600Z 22005KT 190V280 9999 FEW035 15/08 Q1001 NOSIG
2026-03-19 05:30:00,METAR GCLP 190530Z 20009KT 9999 FEW035 15/09 Q1001 NOSIG
2026-03-19 05:00:00,METAR GCLP 190500Z 21009KT 9999 FEW035 15/08 Q1002 NOSIG
2026-03-19 04:30:00,METAR GCLP 190430Z 21008KT 9999 FEW035 15/08 Q1002 NOSIG
2026-03-19 04:00:00,METAR GCLP 190400Z 20007KT 9999 FEW035 15/08 Q1002 NOSIG
2026-03-19 03:30:00,METAR GCLP 190330Z 23008KT 200V280 9999 FEW035 17/07 Q1002 NOSIG
2026-03-19 03:00:00,METAR GCLP 190300Z 22009KT 190V280 9999 FEW035 17/07 Q1003 NOSIG
2026-03-19 02:30:00,METAR GCLP 190230Z 20008KT 170V230 9999 FEW035 15/09 Q1003 NOSIG
2026-03-19 02:00:00,METAR GCLP 190200Z 22006KT 9999 FEW035 15/08 Q1003 NOSIG
2026-03-19 01:30:00,METAR GCLP 190130Z 20008KT 170V230 9999 FEW035 15/09 Q1003 NOSIG
2026-03-19 01:00:00,METAR GCLP 190100Z 20006KT 150V250 9999 FEW035 15/09 Q1004 NOSIG
2026-03-19 00:30:00,METAR GCLP 190030Z VRB02KT 9999 FEW035 15/12 Q1004 NOSIG
2026-03-19 00:00:00,METAR GCLP 190000Z 33005KT 300V360 9999 FEW035 16/12 Q1004 NOSIG
2026-03-18 23:30:00,METAR GCLP 182330Z 02006KT 320V080 9999 FEW035 16/12 Q1004 NOSIG
2026-03-18 23:00:00,METAR GCLP 182300Z 06009KT 9999 SCT035 16/13 Q1004 NOSIG
2026-03-18 22:30:00,METAR GCLP 182230Z 04007KT 350V080 9999 SCT035 SCT060 16/13 Q1004 NOSIG
2026-03-18 22:00:00,METAR GCLP 182200Z 07005KT 040V100 9999 SCT035 BKN060 17/13 Q1004 NOSIG
2026-03-18 21:30:00,METAR GCLP 182130Z 03006KT 9999 SCT035 16/12 Q1004 NOSIG
2026-03-18 21:00:00,METAR GCLP 182100Z 05009KT 9999 SCT035 16/12 Q1004 NOSIG
2026-03-18 20:30:00,METAR GCLP 182030Z 06009KT 030V090 9999 FEW020 SCT040 17/12 Q1003 NOSIG
2026-03-18 20:00:00,METAR GCLP 182000Z 04008KT 350V120 9999 FEW020 SCT040 17/12 Q1003 NOSIG
2026-03-18 19:30:00,METAR GCLP 181930Z 35005KT 280V080 9999 FEW020 SCT040 18/13 Q1003 NOSIG
2026-03-18 19:00:00,METAR GCLP 181900Z 24012G22KT 200V270 9999 FEW020 SCT035 20/09 Q1002 WS ALL RWY NOSIG
2026-03-18 18:30:00,METAR GCLP 181830Z 28006KT 240V030 9999 FEW020 SCT035 21/09 Q1002 WS ALL RWY NOSIG
2026-03-18 18:00:00,METAR GCLP 181800Z 24013G26KT 220V280 9999 FEW020 BKN045 21/09 Q1002 WS ALL RWY NOSIG
2026-03-18 17:30:00,METAR GCLP 181730Z 22010KT 160V250 9999 FEW025 BKN045 22/09 Q1002 WS ALL RWY NOSIG
2026-03-18 17:00:00,METAR GCLP 181700Z 28006G16KT 240V310 9999 FEW025 BKN045 22/11 Q1002 WS ALL RWY NOSIG
2026-03-18 16:30:00,METAR GCLP 181630Z VRB08G19KT 9999 FEW025 BKN040 23/09 Q1002 NOSIG
2026-03-18 16:00:00,METAR GCLP 181600Z 10011KT 040V170 9999 FEW025 BKN040 19/14 Q1002 NOSIG
2026-03-18 15:30:00,METAR GCLP 181530Z 13011KT 100V160 9999 FEW025 BKN035 20/14 Q1002 NOSIG
2026-03-18 15:00:00,METAR GCLP 181500Z 08007KT 020V130 9999 SCT025 BKN035 19/15 Q1003 NOSIG
2026-03-18 14:30:00,METAR GCLP 181430Z 05011KT 9999 FEW025 BKN040 19/15 Q1003 NOSIG
2026-03-18 14:00:00,METAR GCLP 181400Z 05011KT 020V080 9999 FEW025 BKN040 20/16 Q1004 WS ALL RWY NOSIG
2026-03-18 13:30:00,METAR GCLP 181330Z 02015KT 350V050 9999 SCT030 BKN045 20/15 Q1004 WS ALL RWY NOSIG
2026-03-18 13:00:00,METAR GCLP 181300Z 28007KT 180V320 9999 SCT030 BKN045 22/13 Q1004 NOSIG
2026-03-18 12:30:00,METAR GCLP 181230Z 22015KT 190V260 9999 SCT030 BKN045 23/12 Q1005 NOSIG
2026-03-18 12:00:00,METAR GCLP 181200Z 22014KT 190V280 9999 SCT030 BKN050 24/13 Q1005 NOSIG
2026-03-18 11:30:00,METAR GCLP 181130Z 23016KT 200V260 9999 FEW020 SCT035 BKN050 22/13 Q1005 NOSIG
2026-03-18 11:00:00,METAR GCLP 181100Z 22017KT 160V250 9999 FEW020 BKN035 23/12 Q1005 NOSIG
2026-03-18 10:30:00,METAR GCLP 181030Z 21018KT 9999 SCT035 23/12 Q1006 NOSIG
2026-03-18 10:00:00,METAR GCLP 181000Z 21015KT 190V250 9999 FEW035 22/13 Q1006 NOSIG
2026-03-18 09:30:00,METAR GCLP 180930Z 21016KT 9999 FEW025 21/12 Q1006 NOSIG
2026-03-18 09:00:00,METAR GCLP 180900Z 20012KT 9999 FEW025 19/14 Q1006 NOSIG
2026-03-18 08:30:00,METAR GCLP 180830Z 21012KT 9999 FEW025 SCT035 19/14 Q1006 NOSIG
2026-03-18 08:00:00,METAR GCLP 180800Z 18007KT 9999 FEW025 18/13 Q1006 NOSIG
2026-03-18 07:30:00,METAR GCLP 180730Z 19008KT 9999 FEW025 SCT050 17/14 Q1006 NOSIG
2026-03-18 07:00:00,METAR GCLP 180700Z 36003KT 320V020 9999 FEW035 BKN060 18/14 Q1007 NOSIG
2026-03-18 06:30:00,METAR GCLP 180630Z 22010KT 9999 FEW035 BKN060 18/15 Q1006 NOSIG
2026-03-18 06:00:00,METAR GCLP 180600Z 22010KT 9999 FEW035 SCT055 18/13 Q1006 NOSIG
2026-03-18 05:30:00,METAR GCLP 180530Z 22010KT 9999 FEW035 SCT055 17/13 Q1006 NOSIG
2026-03-18 05:00:00,METAR GCLP 180500Z 20005KT 9999 FEW035 16/12 Q1006 NOSIG
2026-03-18 04:30:00,METAR GCLP 180430Z 28004KT 9999 FEW035 17/12 Q1007 NOSIG
2026-03-18 04:00:00,METAR GCLP 180400Z 27004KT 9999 FEW035 16/12 Q1007 NOSIG
2026-03-18 03:30:00,METAR GCLP 180330Z 19011KT 9999 FEW035 17/13 Q1007 NOSIG
2026-03-18 03:00:00,METAR GCLP 180300Z 21006KT 190V280 9999 FEW035 17/13 Q1007 NOSIG
2026-03-18 02:30:00,METAR GCLP 180230Z VRB02KT 9999 FEW035 18/13 Q1008 NOSIG
2026-03-18 02:00:00,METAR GCLP 180200Z 23013KT 9999 FEW035 18/14 Q1009 NOSIG
2026-03-18 01:30:00,METAR GCLP 180130Z 27006KT 230V320 9999 FEW035 18/14 Q1009 NOSIG
2026-03-18 01:00:00,METAR GCLP 180100Z 20015KT 9999 FEW035 18/14 Q1008 NOSIG
2026-03-18 00:30:00,METAR GCLP 180030Z 21014KT 9999 FEW035 18/15 Q1009 NOSIG
2026-03-18 00:00:00,METAR GCLP 180000Z 21017KT 9999 FEW035 18/15 Q1009 NOSIG
2026-03-17 23:30:00,METAR GCLP 172330Z 20012KT 9999 FEW035 18/15 Q1009 NOSIG
2026-03-17 23:00:00,METAR GCLP 172300Z 22015KT 9999 FEW035 18/15 Q1010 NOSIG
2026-03-17 22:30:00,METAR GCLP 172230Z 22005KT 170V250 9999 FEW035 18/15 Q1011 NOSIG
2026-03-17 22:00:00,METAR GCLP 172200Z 23009KT 9999 FEW035 19/14 Q1011 NOSIG
2026-03-17 21:30:00,METAR GCLP 172130Z 25007KT 210V300 9999 FEW035 19/13 Q1010 NOSIG
2026-03-17 21:00:00,METAR GCLP 172100Z 22013KT 9999 FEW025 SCT050 19/14 Q1010 NOSIG
2026-03-17 20:30:00,METAR GCLP 172030Z 21011KT 9999 FEW025 SCT050 19/14 Q1010 NOSIG
2026-03-17 20:00:00,METAR GCLP 172000Z 21011KT 9999 FEW025 SCT040 19/13 Q1010 NOSIG
2026-03-17 19:30:00,METAR GCLP 171930Z 22006KT 190V270 9999 FEW025 SCT040 20/13 Q1010 NOSIG
2026-03-17 19:00:00,METAR GCLP 171900Z 24006KT 200V290 9999 FEW025 SCT050 21/13 Q1010 NOSIG
2026-03-17 18:30:00,METAR GCLP 171830Z 21015KT 9999 FEW025 SCT050 21/13 Q1009 NOSIG
2026-03-17 18:00:00,METAR GCLP 171800Z 21017KT 9999 FEW025 SCT050 21/13 Q1009 NOSIG
2026-03-17 17:30:00,METAR GCLP 171730Z 23012KT 200V260 9999 FEW025 SCT050 22/11 Q1009 NOSIG
2026-03-17 17:00:00,METAR GCLP 171700Z 23013KT 200V260 9999 FEW025 SCT045 22/11 Q1009 NOSIG
2026-03-17 16:30:00,METAR GCLP 171630Z VRB03KT 9999 FEW025 SCT045 21/12 Q1009 BECMG 23012KT
2026-03-17 16:00:00,METAR GCLP 171600Z 03006KT 340V120 9999 FEW025 SCT045 21/13 Q1010 NOSIG
2026-03-17 15:30:00,METAR GCLP 171530Z 07007KT 9999 FEW025 BKN045 20/13 Q1010 NOSIG
2026-03-17 15:00:00,METAR GCLP 171500Z 07006KT 9999 FEW025 BKN040 20/13 Q1010 NOSIG
2026-03-17 14:30:00,METAR GCLP 171430Z 07008KT 030V110 9999 FEW025 BKN045 20/16 Q1010 NOSIG
2026-03-17 14:00:00,METAR GCLP 171400Z 03015KT 9999 FEW020 SCT050 22/13 Q1010 NOSIG
2026-03-17 13:30:00,METAR GCLP 171330Z 04011KT 010V070 9999 FEW020 SCT050 23/13 Q1011 NOSIG
2026-03-17 13:00:00,METAR GCLP 171300Z VRB06KT 9999 FEW020 SCT050 24/12 Q1010 NOSIG
2026-03-17 12:30:00,METAR GCLP 171230Z 26010KT 220V290 9999 FEW020 25/08 Q1011 NOSIG
2026-03-17 12:00:00,METAR GCLP 171200Z VRB05KT 9999 FEW020 23/10 Q1011 NOSIG
2026-03-17 11:30:00,METAR GCLP 171130Z 18015KT 140V230 9999 FEW020 23/14 Q1011 NOSIG
2026-03-17 11:00:00,METAR GCLP 171100Z 14013KT 110V190 9999 SCT020 21/16 Q1012 NOSIG
2026-03-17 10:30:00,METAR GCLP 171030Z 15011KT 9999 BKN020 19/15 Q1012 NOSIG
2026-03-17 10:00:00,METAR GCLP 171000Z 14008KT 9999 SCT025 19/15 Q1012 NOSIG
2026-03-17 09:30:00,METAR GCLP 170930Z 17007KT 120V200 9999 FEW025 19/14 Q1012 NOSIG
2026-03-17 09:00:00,METAR GCLP 170900Z 19006KT 9999 FEW025 18/14 Q1012 NOSIG
2026-03-17 08:30:00,METAR GCLP 170830Z 22004KT 200V260 9999 FEW030 18/14 Q1012 NOSIG
2026-03-17 08:00:00,METAR GCLP 170800Z 25003KT 190V300 9999 FEW035 17/12 Q1012 NOSIG
2026-03-17 07:30:00,METAR GCLP 170730Z VRB02KT 9999 FEW035 16/11 Q1011 NOSIG
2026-03-17 07:00:00,METAR GCLP 170700Z VRB02KT 9999 SCT037 16/12 Q1011 NOSIG
2026-03-17 06:30:00,METAR GCLP 170630Z VRB02KT 9999 SCT040 15/12 Q1011 NOSIG
2026-03-17 06:00:00,METAR GCLP 170600Z VRB01KT 9999 BKN040 16/12 Q1011 NOSIG
2026-03-17 05:30:00,METAR GCLP 170530Z VRB01KT 9999 FEW020 BKN040 16/12 Q1011 NOSIG
2026-03-17 05:00:00,METAR GCLP 170500Z 30003KT 9999 FEW020 BKN040 16/13 Q1011 NOSIG
2026-03-17 04:30:00,METAR GCLP 170430Z 27005KT 9999 FEW018 16/12 Q1011 NOSIG
2026-03-17 04:00:00,METAR GCLP 170400Z 26005KT 9999 FEW018 15/12 Q1011 NOSIG
2026-03-17 03:30:00,METAR GCLP 170330Z 26004KT 230V300 9999 FEW018 15/12 Q1011 NOSIG
2026-03-17 03:00:00,METAR GCLP 170300Z 29004KT 9999 FEW018 15/12 Q1012 NOSIG
2026-03-17 02:30:00,METAR GCLP 170230Z 31004KT 9999 FEW018 15/12 Q1012 NOSIG
2026-03-17 02:00:00,METAR GCLP 170200Z 31004KT 9999 FEW015 16/12 Q1012 NOSIG
2026-03-17 01:30:00,METAR GCLP 170130Z 31005KT 9999 FEW015 15/12 Q1013 NOSIG
2026-03-17 01:00:00,METAR GCLP 170100Z 28002KT 9999 FEW018 16/13 Q1013 NOSIG
2026-03-17 00:30:00,METAR GCLP 170030Z 29003KT 9999 FEW018 16/13 Q1013 NOSIG
2026-03-17 00:00:00,METAR GCLP 170000Z 25003KT 230V290 CAVOK 17/13 Q1013 NOSIG
2026-03-16 23:30:00,METAR GCLP 162330Z 24004KT CAVOK 16/13 Q1013 NOSIG
2026-03-16 23:00:00,METAR GCLP 162300Z 00000KT CAVOK 16/12 Q1013 NOSIG
2026-03-16 22:30:00,METAR GCLP 162230Z 34004KT 290V030 9999 FEW025 17/13 Q1013 NOSIG
2026-03-16 22:00:00,METAR GCLP 162200Z 01008KT 9999 FEW025 17/13 Q1013 NOSIG
2026-03-16 21:30:00,METAR GCLP 162130Z 36009KT 9999 FEW025 17/13 Q1013 NOSIG
2026-03-16 21:00:00,METAR GCLP 162100Z 01014KT 9999 FEW025 18/13 Q1012 NOSIG
2026-03-16 20:30:00,METAR GCLP 162030Z 01012KT 9999 FEW025 18/13 Q1012 NOSIG
2026-03-16 20:00:00,METAR GCLP 162000Z 01011KT 9999 FEW025 18/13 Q1012 NOSIG
2026-03-16 19:30:00,METAR GCLP 161930Z 02013KT 9999 FEW025 18/13 Q1012 NOSIG
2026-03-16 19:00:00,METAR GCLP 161900Z 03014KT 9999 FEW025 18/13 Q1012 NOSIG
2026-03-16 18:30:00,METAR GCLP 161830Z 03012KT 9999 FEW025 19/13 Q1012 NOSIG
2026-03-16 18:00:00,METAR GCLP 161800Z 04009KT 020V080 9999 FEW024 19/14 Q1012 NOSIG
2026-03-16 17:30:00,METAR GCLP 161730Z 06009KT 9999 SCT023 19/14 Q1012 NOSIG
2026-03-16 17:00:00,METAR GCLP 161700Z 06008KT 030V090 9999 BKN023 19/14 Q1012 NOSIG
2026-03-16 16:30:00,METAR GCLP 161630Z 06009KT 9999 SCT023 20/14 Q1012 NOSIG
2026-03-16 16:00:00,METAR GCLP 161600Z 06009KT 030V090 9999 SCT023 20/14 Q1012 NOSIG
2026-03-16 15:30:00,METAR GCLP 161530Z 06010KT 9999 SCT023 20/14 Q1012 NOSIG
2026-03-16 15:00:00,METAR GCLP 161500Z 06011KT 9999 SCT023 20/13 Q1012 NOSIG
2026-03-16 14:30:00,METAR GCLP 161430Z 06010KT 9999 BKN023 20/13 Q1013 NOSIG
2026-03-16 14:00:00,METAR GCLP 161400Z 06010KT 9999 BKN025 20/14 Q1013 NOSIG
2026-03-16 13:30:00,METAR GCLP 161330Z 05010KT 020V090 9999 BKN025 20/13 Q1014 NOSIG
2026-03-16 13:00:00,METAR GCLP 161300Z 08010KT 9999 BKN025 21/14 Q1015 NOSIG
2026-03-16 12:30:00,METAR GCLP 161230Z 07009KT 030V110 9999 BKN025 20/14 Q1015 NOSIG
2026-03-16 12:00:00,METAR GCLP 161200Z 07010KT 030V090 9999 SCT025 20/14 Q1015 NOSIG
2026-03-16 11:30:00,METAR GCLP 161130Z 06010KT 9999 FEW018 SCT025 20/14 Q1015 NOSIG
2026-03-16 11:00:00,METAR GCLP 161100Z 06011KT 9999 SCT025 20/14 Q1015 NOSIG
2026-03-16 10:30:00,METAR GCLP 161030Z 05010KT 020V080 9999 SCT025 20/14 Q1015 NOSIG
2026-03-16 10:00:00,METAR GCLP 161000Z 04009KT 9999 FEW020 SCT030 20/14 Q1015 NOSIG
2026-03-16 09:30:00,METAR GCLP 160930Z 04011KT 9999 FEW020 SCT030 19/14 Q1015 NOSIG
2026-03-16 09:00:00,METAR GCLP 160900Z 05011KT 9999 FEW020 SCT030 19/13 Q1015 NOSIG
2026-03-16 08:30:00,METAR GCLP 160830Z 03010KT 9999 FEW020 SCT030 19/14 Q1015 NOSIG
2026-03-16 08:00:00,METAR GCLP 160800Z 36008KT 320V020 9999 SCT020 18/13 Q1015 NOSIG
2026-03-16 07:30:00,METAR GCLP 160730Z 36008KT 9999 BKN025 17/12 Q1014 NOSIG
2026-03-16 07:00:00,METAR GCLP 160700Z 36008KT 9999 BKN025 17/13 Q1014 NOSIG
2026-03-16 06:30:00,METAR GCLP 160630Z 36007KT 9999 BKN025 17/12 Q1014 NOSIG
2026-03-16 06:00:00,METAR GCLP 160600Z 35008KT 9999 SCT025 16/12 Q1014 NOSIG
2026-03-16 05:30:00,METAR GCLP 160530Z 36008KT 9999 FEW025 16/12 Q1014 NOSIG
2026-03-16 05:00:00,METAR GCLP 160500Z 36009KT 9999 FEW025 16/12 Q1014 NOSIG
2026-03-16 04:30:00,METAR GCLP 160430Z 35010KT 9999 FEW025 16/13 Q1014 NOSIG
2026-03-16 04:00:00,METAR GCLP 160400Z 36009KT 9999 FEW025 17/13 Q1014 NOSIG
2026-03-16 03:30:00,METAR GCLP 160330Z 36007KT 9999 FEW025 17/13 Q1015 NOSIG
2026-03-16 03:00:00,METAR GCLP 160300Z 02009KT 9999 FEW030 17/13 Q1015 NOSIG
2026-03-16 02:30:00,METAR GCLP 160230Z 02008KT 9999 FEW020 BKN030 17/13 Q1015 NOSIG
2026-03-16 02:00:00,METAR GCLP 160200Z 03012KT 9999 FEW020 BKN030 17/13 Q1016 NOSIG
2026-03-16 01:30:00,METAR GCLP 160130Z 04013KT 9999 FEW020 BKN030 18/14 Q1016 NOSIG
2026-03-16 01:00:00,METAR GCLP 160100Z 04014KT 9999 FEW020 BKN030 17/14 Q1016 NOSIG
2026-03-16 00:30:00,METAR GCLP 160030Z 04013KT 9999 FEW020 BKN030 18/14 Q1016 NOSIG
2026-03-16 00:00:00,METAR GCLP 160000Z 04016KT 9999 FEW020 BKN030 18/14 Q1016 NOSIG
2026-03-15 23:30:00,METAR GCLP 152330Z 04015KT 9999 FEW020 BKN030 18/14 Q1016 NOSIG
2026-03-15 23:00:00,METAR GCLP 152300Z 03014KT 9999 FEW015 BKN030 18/14 Q1017 NOSIG
2026-03-15 22:30:00,METAR GCLP 152230Z 03015KT 9999 SCT015 BKN030 18/14 Q1017 NOSIG
2026-03-15 22:00:00,METAR GCLP 152200Z 02015KT 9999 SCT025 18/14 Q1017 NOSIG
2026-03-15 21:30:00,METAR GCLP 152130Z 04016KT 9999 SCT020 BKN030 18/13 Q1016 NOSIG
2026-03-15 21:00:00,METAR GCLP 152100Z 03016KT 9999 SCT020 BKN030 18/13 Q1016 NOSIG
2026-03-15 20:30:00,METAR GCLP 152030Z 03015KT 9999 SCT015 BKN030 18/14 Q1016 NOSIG
2026-03-15 20:00:00,METAR GCLP 152000Z 03016KT 9999 SCT015 BKN030 18/14 Q1016 NOSIG
2026-03-15 19:30:00,METAR GCLP 151930Z 02014KT 9999 SCT020 18/14 Q1016 NOSIG
2026-03-15 19:00:00,METAR GCLP 151900Z 02016KT 9999 SCT030 18/13 Q1016 NOSIG
2026-03-15 18:30:00,METAR GCLP 151830Z 02016KT 9999 SCT025 19/13 Q1016 NOSIG
2026-03-15 18:00:00,METAR GCLP 151800Z 02016KT 9999 SCT030 19/13 Q1016 NOSIG
2026-03-15 17:30:00,METAR GCLP 151730Z 02016KT 9999 FEW030 19/13 Q1016 NOSIG
2026-03-15 17:00:00,METAR GCLP 151700Z 03018KT 9999 FEW030 20/12 Q1016 NOSIG
2026-03-15 16:30:00,METAR GCLP 151630Z 03020KT 9999 FEW030 20/12 Q1016 NOSIG
2026-03-15 16:00:00,METAR GCLP 151600Z 03020KT 9999 FEW025 21/11 Q1016 NOSIG
2026-03-15 15:30:00,METAR GCLP 151530Z 03021KT 9999 FEW025 20/12 Q1016 NOSIG
2026-03-15 15:00:00,METAR GCLP 151500Z 03021KT 9999 SCT025 20/13 Q1016 NOSIG
2026-03-15 14:30:00,METAR GCLP 151430Z 03023KT 9999 SCT030 21/14 Q1016 NOSIG
2026-03-15 14:00:00,METAR GCLP 151400Z 03022KT 9999 FEW030 21/13 Q1017 NOSIG
2026-03-15 13:30:00,METAR GCLP 151330Z 03022KT 9999 FEW030 20/12 Q1017 NOSIG
2026-03-15 13:00:00,METAR GCLP 151300Z 03022KT 9999 SCT030 21/13 Q1017 NOSIG
2026-03-15 12:30:00,METAR GCLP 151230Z 03022KT 9999 BKN030 20/13 Q1018 NOSIG
2026-03-15 12:00:00,METAR GCLP 151200Z 03021KT 9999 FEW020 BKN030 20/14 Q1018 NOSIG
2026-03-15 11:30:00,METAR GCLP 151130Z 03019KT 9999 FEW020 BKN030 19/15 Q1018 NOSIG
2026-03-15 11:00:00,METAR GCLP 151100Z 03018KT 340V060 9999 SCT035 20/14 Q1018 NOSIG
2026-03-15 10:30:00,METAR GCLP 151030Z 03018KT 9999 FEW020 BKN035 19/14 Q1018 NOSIG
2026-03-15 10:00:00,METAR GCLP 151000Z 02019KT 9999 SCT020 BKN035 18/15 Q1018 NOSIG
2026-03-15 09:30:00,METAR GCLP 150930Z 36015KT 330V030 9999 FEW020 BKN035 18/13 Q1018 NOSIG
2026-03-15 09:00:00,METAR GCLP 150900Z 35014KT 9999 FEW020 BKN035 18/12 Q1018 NOSIG
2026-03-15 08:30:00,METAR GCLP 150830Z 35015KT 9999 FEW020 BKN035 17/13 Q1018 NOSIG
2026-03-15 08:00:00,METAR GCLP 150800Z 36014KT 9999 SCT020 BKN035 17/13 Q1018 NOSIG
