Time_recorded,METAR
2026-05-02 15:30:00,METAR LFPG 021530Z 21014KT CAVOK 25/08 Q1014 NOSIG
2026-05-02 15:00:00,METAR LFPG 021500Z 20014KT CAVOK 25/07 Q1014 TEMPO 3000 SHRA FEW050CB
2026-05-02 14:30:00,METAR LFPG 021430Z 18013KT 160V230 CAVOK 25/09 Q1015 TEMPO 3000 SHRA FEW050CB
2026-05-02 14:00:00,METAR LFPG 021400Z 17013KT 130V210 CAVOK 25/09 Q1015 TEMPO 3000 SHRA FEW050CB
2026-05-02 13:30:00,METAR LFPG 021330Z 16012KT CAVOK 25/11 Q1015 TEMPO 3000 SHRA FEW050CB
2026-05-02 13:00:00,METAR LFPG 021300Z 16011KT 130V190 9999 BKN043 SCT063 BKN260 24/14 Q1016 NOSIG
2026-05-02 12:30:00,METAR LFPG 021230Z 15010KT 110V190 9999 BKN036 SCT060 BKN260 23/13 Q1016 NOSIG
2026-05-02 12:00:00,METAR LFPG 021200Z 16011G23KT 110V190 9999 BKN033 SCT060 BKN260 24/14 Q1016 NOSIG
2026-05-02 11:30:00,METAR LFPG 021130Z 14010KT 100V200 9999 BKN030 BKN260 23/14 Q1017 NOSIG
2026-05-02 11:00:00,METAR LFPG 021100Z 14008KT 050V180 9999 SCT030 BKN260 23/14 Q1017 NOSIG
2026-05-02 10:30:00,METAR LFPG 021030Z 14008G19KT 110V180 9999 FEW024 BKN260 22/14 Q1018 NOSIG
2026-05-02 10:00:00,METAR LFPG 021000Z 13008KT 110V170 9999 FEW023 BKN260 21/14 Q1018 NOSIG
2026-05-02 09:30:00,METAR LFPG 020930Z 14007KT 080V190 9999 FEW025 BKN260 21/14 Q1018 NOSIG
2026-05-02 09:00:00,METAR LFPG 020900Z VRB04G14KT CAVOK 20/14 Q1019 NOSIG
2026-05-02 08:30:00,METAR LFPG 020830Z VRB03KT CAVOK 20/14 Q1019 NOSIG
2026-05-02 08:00:00,METAR LFPG 020800Z VRB03KT CAVOK 18/14 Q1019 NOSIG
2026-05-02 07:30:00,METAR LFPG 020730Z VRB02KT CAVOK 17/15 Q1019 NOSIG
2026-05-02 07:00:00,METAR LFPG 020700Z 17004KT 140V200 8000 FEW002 SCT110 BKN260 16/14 Q1019 NOSIG
2026-05-02 06:30:00,METAR LFPG 020630Z 15003KT 8000 FEW003 BKN260 16/14 Q1019 NOSIG
2026-05-02 06:00:00,METAR LFPG 020600Z 16004KT 8000 NSC 15/14 Q1019 NOSIG
2026-05-02 05:30:00,METAR LFPG 020530Z VRB03KT 6000 0650SE R27L/P2000 R09R/P2000 R26R/P2000 R08L/1000U R26L/P2000 R08R/1500U R27R/P2000 R09L/P2000 BCFG FEW002 BKN260 15/14 Q1019 NOSIG
2026-05-02 05:00:00,METAR LFPG 020500Z 15002KT 6000 0650SE R27L/P2000 R09R/P2000 R26R/P2000 R08L/P2000 R26L/1200U R08R/1700D R27R/P2000 R09L/P2000 BCFG FEW003 BKN260 14/13 Q1019 NOSIG
2026-05-02 04:30:00,METAR LFPG 020430Z VRB02KT 6000 NSC 14/13 Q1019 NOSIG
2026-05-02 04:00:00,METAR LFPG 020400Z 16003KT 8000 NSC 14/13 Q1019 NOSIG
2026-05-02 03:30:00,METAR LFPG 020330Z 14003KT 8000 NSC 14/13 Q1019 NOSIG
2026-05-02 03:00:00,METAR LFPG 020300Z 15005KT CAVOK 15/13 Q1019 NOSIG
2026-05-02 02:30:00,METAR LFPG 020230Z 16004KT CAVOK 15/13 Q1019 NOSIG
2026-05-02 02:00:00,METAR LFPG 020200Z 17003KT 9000 NSC 15/13 Q1020 NOSIG
2026-05-02 01:30:00,METAR LFPG 020130Z 18004KT CAVOK 15/13 Q1020 NOSIG
2026-05-02 01:00:00,METAR LFPG 020100Z 18005KT CAVOK 16/14 Q1020 NOSIG
2026-05-02 00:30:00,METAR LFPG 020030Z 15004KT CAVOK 16/14 Q1020 NOSIG
2026-05-02 00:00:00,METAR LFPG 020000Z 18003KT 9999 FEW046 SCT060 16/14 Q1020 NOSIG
2026-05-01 23:30:00,METAR LFPG 012330Z VRB02KT 9999 FEW046 SCT110 16/14 Q1020 NOSIG
2026-05-01 23:00:00,METAR LFPG 012300Z VRB02KT 9999 FEW046 SCT066 16/14 Q1020 NOSIG
2026-05-01 22:30:00,METAR LFPG 012230Z 17005KT 140V200 9999 FEW053CB SCT073 BKN096 17/14 Q1020 NOSIG
2026-05-01 22:00:00,METAR LFPG 012200Z 15009KT 9999 FEW053CB SCT073 BKN096 17/14 Q1021 NOSIG
2026-05-01 21:30:00,METAR LFPG 012130Z 14008KT 9999 FEW060CB BKN096 18/14 Q1020 TEMPO 4000-TSRA SCT040CB
2026-05-01 21:00:00,METAR LFPG 012100Z 12010KT 9999 FEW040TCU BKN096 18/14 Q1021 TEMPO 2500 -TSRA SCT040CB
2026-05-01 20:30:00,METAR LFPG 012030Z 16005KT 110V200 9999 FEW040CB BKN096 18/15 Q1021 TEMPO 2500 -TSRA SCT040CB
2026-05-01 20:00:00,METAR LFPG 012000Z 19005KT 9999 -SHRA FEW040CB SCT063 BKN110 18/15 Q1020 TEMPO VRB15G25KT 2500 -TSRAGR SCT040CB
2026-05-01 19:30:00,METAR LFPG 011930Z VRB02KT 9999 FEW040CB SCT055 BKN130 18/15 Q1020 TEMPO VRB15G25KT 2500 -TSRAGR SCT040CB
2026-05-01 19:00:00,METAR LFPG 011900Z 12006KT 9999 -SHRA FEW040CB SCT046 BKN083 18/14 Q1020 RETSRA TEMPO VRB15G25KT 2500 -TSRAGR SCT040CB
2026-05-01 18:30:00,METAR LFPG 011830Z 15014KT 9999 -TSRA FEW040CB SCT046 BKN096 18/14 Q1021 TEMPO VRB15G25KT 2500 -TSRAGR SCT040CB
2026-05-01 18:00:00,METAR LFPG 011800Z 24006KT 9999 -TSRA FEW053CB SCT060 BKN100 21/12 Q1020 TEMPO VRB15G25KT 2500 -TSRAGR SCT040CB
2026-05-01 17:30:00,METAR LFPG 011730Z 25011KT 9999 VCSH FEW053CB SCT060 BKN130 21/12 Q1019 TEMPO 4000 -TSRA SCT040CB
2026-05-01 17:00:00,METAR LFPG 011700Z 20008KT 9999 VCSH FEW053CB SCT060 24/12 Q1019 TEMPO 4000 -TSRA SCT040CB
2026-05-01 16:30:00,METAR LFPG 011630Z VRB05KT 9999 FEW053CB 25/11 Q1019 TEMPO 4000 -TSRA SCT040CB
2026-05-01 16:00:00,METAR LFPG 011600Z 16006KT 120V190 9999 FEW053TCU SCT060 24/12 Q1019 TEMPO 4000 -TSRA SCT040CB
2026-05-01 15:30:00,METAR LFPG 011530Z 15007KT 120V180 9999 FEW050CB SCT056 24/11 Q1020 TEMPO 4000 -TSRA SCT040CB
2026-05-01 15:00:00,METAR LFPG 011500Z 14005KT 100V190 CAVOK 24/11 Q1020 TEMPO 4000 -TSRA SCT040CB
2026-05-01 14:30:00,METAR LFPG 011430Z 17007KT 110V230 CAVOK 25/11 Q1020 TEMPO 4000 -TSRA SCT040CB
2026-05-01 14:00:00,METAR LFPG 011400Z VRB06KT CAVOK 25/11 Q1021 NOSIG
2026-05-01 13:30:00,METAR LFPG 011330Z 15007KT 090V190 CAVOK 25/10 Q1021 NOSIG
2026-05-01 13:00:00,METAR LFPG 011300Z VRB05KT CAVOK 24/10 Q1021 NOSIG
2026-05-01 12:30:00,METAR LFPG 011230Z 12006KT 010V180 CAVOK 24/09 Q1021 NOSIG
2026-05-01 12:00:00,METAR LFPG 011200Z 12005KT 060V190 CAVOK 23/09 Q1021 NOSIG
2026-05-01 11:30:00,METAR LFPG 011130Z 09003KT 030V150 CAVOK 22/08 Q1022 NOSIG
2026-05-01 11:00:00,METAR LFPG 011100Z VRB03KT CAVOK 21/07 Q1022 NOSIG
2026-05-01 10:30:00,METAR LFPG 011030Z 13006KT 060V200 CAVOK 21/06 Q1022 NOSIG
2026-05-01 10:00:00,METAR LFPG 011000Z 14004KT 080V200 CAVOK 20/05 Q1022 NOSIG
2026-05-01 09:30:00,METAR LFPG 010930Z VRB03KT CAVOK 19/04 Q1022 NOSIG
2026-05-01 09:00:00,METAR LFPG 010900Z 13004KT 060V190 CAVOK 18/04 Q1022 NOSIG
2026-05-01 08:30:00,METAR LFPG 010830Z 17004KT 120V230 CAVOK 17/02 Q1022 NOSIG
2026-05-01 08:00:00,METAR LFPG 010800Z 14006KT 080V180 CAVOK 16/02 Q1022 NOSIG
2026-05-01 07:30:00,METAR LFPG 010730Z 15008KT 110V170 CAVOK 14/01 Q1022 NOSIG
2026-05-01 07:00:00,METAR LFPG 010700Z 13010KT CAVOK 13/00 Q1022 NOSIG
2026-05-01 06:30:00,METAR LFPG 010630Z 13011KT CAVOK 13/M01 Q1022 NOSIG
2026-05-01 06:00:00,METAR LFPG 010600Z 13009KT CAVOK 12/M01 Q1021 NOSIG
2026-05-01 05:30:00,METAR LFPG 010530Z 14006KT 100V160 CAVOK 12/M01 Q1021 NOSIG
2026-05-01 05:00:00,METAR LFPG 010500Z 13009KT CAVOK 12/M01 Q1021 NOSIG
2026-05-01 04:30:00,METAR LFPG 010430Z 11010KT CAVOK 12/M02 Q1021 NOSIG
2026-05-01 04:00:00,METAR LFPG 010400Z 11009KT CAVOK 12/M01 Q1021 NOSIG
2026-05-01 03:30:00,METAR LFPG 010330Z 10009KT CAVOK 12/M01 Q1021 NOSIG
2026-05-01 03:00:00,METAR LFPG 010300Z 11008KT CAVOK 12/M01 Q1021 NOSIG
2026-05-01 02:30:00,METAR LFPG 010230Z 10009KT CAVOK 12/M01 Q1021 NOSIG
2026-05-01 02:00:00,METAR LFPG 010200Z 09006KT CAVOK 13/M01 Q1021 NOSIG
2026-05-01 01:30:00,METAR LFPG 010130Z 09006KT CAVOK 14/M02 Q1021 NOSIG
2026-05-01 01:00:00,METAR LFPG 010100Z 10007KT CAVOK 14/M01 Q1021 NOSIG
2026-05-01 00:30:00,METAR LFPG 010030Z 10008KT CAVOK 14/M02 Q1021 NOSIG
2026-05-01 00:00:00,METAR LFPG 010000Z 11009KT CAVOK 14/M01 Q1021 NOSIG
2026-04-30 23:30:00,METAR LFPG 302330Z 11011KT CAVOK 14/M01 Q1021 NOSIG
2026-04-30 23:00:00,METAR LFPG 302300Z 11011KT CAVOK 15/M01 Q1021 NOSIG
2026-04-30 22:30:00,METAR LFPG 302230Z 10009KT CAVOK 15/M01 Q1021 NOSIG
2026-04-30 22:00:00,METAR LFPG 302200Z 09009KT CAVOK 15/M00 Q1021 NOSIG
2026-04-30 21:30:00,METAR LFPG 302130Z 08010KT CAVOK 15/00 Q1021 NOSIG
2026-04-30 21:00:00,METAR LFPG 302100Z 07009KT CAVOK 15/00 Q1021 NOSIG
2026-04-30 20:30:00,METAR LFPG 302030Z 08008KT CAVOK 17/M00 Q1021 NOSIG
2026-04-30 20:00:00,METAR LFPG 302000Z 08010KT CAVOK 17/00 Q1020 NOSIG
2026-04-30 19:30:00,METAR LFPG 301930Z 08009KT CAVOK 18/00 Q1020 NOSIG
2026-04-30 19:00:00,METAR LFPG 301900Z 10010KT CAVOK 19/00 Q1020 NOSIG
2026-04-30 18:30:00,METAR LFPG 301830Z 10012KT CAVOK 20/01 Q1019 NOSIG
2026-04-30 18:00:00,METAR LFPG 301800Z 10013KT CAVOK 21/01 Q1019 NOSIG
2026-04-30 17:30:00,METAR LFPG 301730Z 10014KT CAVOK 22/01 Q1019 NOSIG
2026-04-30 17:00:00,METAR LFPG 301700Z 11014KT CAVOK 22/01 Q1019 NOSIG
2026-04-30 16:30:00,METAR LFPG 301630Z 10016KT CAVOK 23/00 Q1019 NOSIG
2026-04-30 16:00:00,METAR LFPG 301600Z 11013KT 080V140 CAVOK 23/00 Q1019 NOSIG
2026-04-30 15:00:00,METAR LFPG 301500Z 11018KT CAVOK 23/00 Q1019 NOSIG
2026-04-30 14:30:00,METAR LFPG 301430Z 10017KT 070V130 CAVOK 22/00 Q1019 NOSIG
2026-04-30 14:00:00,METAR LFPG 301400Z 11016KT CAVOK 22/01 Q1019 NOSIG
2026-04-30 13:30:00,METAR LFPG 301330Z 10014KT CAVOK 22/01 Q1019 NOSIG
2026-04-30 13:00:00,METAR LFPG 301300Z 10015KT CAVOK 22/01 Q1019 NOSIG
2026-04-30 12:30:00,METAR LFPG 301230Z 10015KT CAVOK 21/M00 Q1019 NOSIG
2026-04-30 12:00:00,METAR LFPG 301200Z 09016KT CAVOK 20/M00 Q1020 NOSIG
2026-04-30 11:30:00,METAR LFPG 301130Z 10013KT CAVOK 20/00 Q1020 NOSIG
2026-04-30 11:00:00,METAR LFPG 301100Z 10015KT CAVOK 19/00 Q1020 NOSIG
2026-04-30 10:30:00,METAR LFPG 301030Z 10015KT CAVOK 19/00 Q1020 NOSIG
2026-04-30 10:00:00,METAR LFPG 301000Z 09014KT 070V130 CAVOK 17/M00 Q1020 NOSIG
2026-04-30 09:30:00,METAR LFPG 300930Z 10017KT CAVOK 17/M01 Q1020 NOSIG
2026-04-30 09:00:00,METAR LFPG 300900Z 10017KT CAVOK 16/M01 Q1020 NOSIG
2026-04-30 08:30:00,METAR LFPG 300830Z 09016KT CAVOK 15/M01 Q1020 NOSIG
2026-04-30 08:00:00,METAR LFPG 300800Z 09015KT CAVOK 15/M01 Q1020 NOSIG
2026-04-30 07:30:00,METAR LFPG 300730Z 10016KT CAVOK 14/M01 Q1020 NOSIG
2026-04-30 07:00:00,METAR LFPG 300700Z 09013KT CAVOK 13/M00 Q1020 NOSIG
2026-04-30 06:30:00,METAR LFPG 300630Z 09011KT CAVOK 12/M01 Q1020 NOSIG
2026-04-30 06:00:00,METAR LFPG 300600Z 08012KT CAVOK 12/M01 Q1020 NOSIG
2026-04-30 05:30:00,METAR LFPG 300530Z 08010KT CAVOK 11/M01 Q1020 NOSIG
2026-04-30 05:00:00,METAR LFPG 300500Z 08009KT CAVOK 11/M01 Q1020 NOSIG
2026-04-30 04:30:00,METAR LFPG 300430Z 08010KT CAVOK 10/M01 Q1020 NOSIG
2026-04-30 04:00:00,METAR LFPG 300400Z 08010KT CAVOK 11/M01 Q1020 NOSIG
2026-04-30 03:30:00,METAR LFPG 300330Z 08010KT CAVOK 12/M01 Q1020 NOSIG
2026-04-30 03:00:00,METAR LFPG 300300Z 08011KT CAVOK 12/M01 Q1020 NOSIG
2026-04-30 02:30:00,METAR LFPG 300230Z 08010KT CAVOK 13/M01 Q1019 NOSIG
2026-04-30 02:00:00,METAR LFPG 300200Z 08011KT CAVOK 13/M02 Q1019 NOSIG
2026-04-30 01:30:00,METAR LFPG 300130Z 09012KT CAVOK 14/M02 Q1019 NOSIG
2026-04-30 01:00:00,METAR LFPG 300100Z 09011KT CAVOK 14/M02 Q1019 NOSIG
2026-04-30 00:30:00,METAR LFPG 300030Z 07011KT CAVOK 14/M02 Q1019 NOSIG
2026-04-30 00:00:00,METAR LFPG 300000Z 07011KT CAVOK 14/M02 Q1019 NOSIG
2026-04-29 23:30:00,METAR LFPG 292330Z 07010KT CAVOK 14/M01 Q1019 NOSIG
2026-04-29 23:00:00,METAR LFPG 292300Z 07012KT CAVOK 14/M01 Q1019 NOSIG
2026-04-29 22:30:00,METAR LFPG 292230Z 07012KT CAVOK 14/00 Q1019 NOSIG
2026-04-29 22:00:00,METAR LFPG 292200Z 07012KT CAVOK 14/01 Q1019 NOSIG
2026-04-29 21:30:00,METAR LFPG 292130Z 07013KT CAVOK 15/01 Q1019 NOSIG
2026-04-29 21:00:00,METAR LFPG 292100Z 06012KT CAVOK 15/01 Q1019 NOSIG
2026-04-29 20:30:00,METAR LFPG 292030Z 07010KT CAVOK 16/02 Q1019 NOSIG
2026-04-29 20:00:00,METAR LFPG 292000Z 08009KT CAVOK 18/02 Q1018 NOSIG
2026-04-29 19:30:00,METAR LFPG 291930Z 07012KT CAVOK 18/03 Q1018 NOSIG
2026-04-29 19:00:00,METAR LFPG 291900Z 07013KT CAVOK 19/02 Q1017 NOSIG
2026-04-29 18:30:00,METAR LFPG 291830Z 07013KT CAVOK 20/03 Q1017 TEMPO 06015G25KT
2026-04-29 18:00:00,METAR LFPG 291800Z 07015KT CAVOK 21/03 Q1017 TEMPO 06015G25KT
2026-04-29 17:30:00,METAR LFPG 291730Z 08014KT CAVOK 22/03 Q1017 TEMPO 06015G25KT
2026-04-29 17:00:00,METAR LFPG 291700Z 08016KT CAVOK 23/03 Q1016 TEMPO 06015G25KT
2026-04-29 16:30:00,METAR LFPG 291630Z 08019KT CAVOK 23/02 Q1016 TEMPO 06015G25KT
2026-04-29 16:00:00,METAR LFPG 291600Z 08017KT CAVOK 23/03 Q1016 TEMPO 06015G25KT
2026-04-29 15:30:00,METAR LFPG 291530Z 07020KT CAVOK 23/03 Q1016 TEMPO 06015G25KT
2026-04-29 15:00:00,METAR LFPG 291500Z 08018KT CAVOK 23/03 Q1017 TEMPO 06015G25KT
2026-04-29 14:30:00,METAR LFPG 291430Z 07018KT CAVOK 23/05 Q1017 TEMPO 06015G25KT
2026-04-29 14:00:00,METAR LFPG 291400Z 07017KT CAVOK 23/05 Q1017 TEMPO 06015G25KT
2026-04-29 13:30:00,METAR LFPG 291330Z 08018KT CAVOK 22/05 Q1017 TEMPO 06015G25KT
2026-04-29 13:00:00,METAR LFPG 291300Z 07017KT CAVOK 22/05 Q1017 TEMPO 06015G25KT
2026-04-29 12:30:00,METAR LFPG 291230Z 07018KT CAVOK 22/06 Q1017 TEMPO 06015G25KT
2026-04-29 12:00:00,METAR LFPG 291200Z 07017KT 040V100 CAVOK 21/06 Q1017 TEMPO 06015G25KT
2026-04-29 11:30:00,METAR LFPG 291130Z 07014KT 040V100 CAVOK 21/05 Q1018 TEMPO 06015G25KT
2026-04-29 11:00:00,METAR LFPG 291100Z 06015KT CAVOK 20/06 Q1018 TEMPO 06015G25KT
2026-04-29 10:30:00,METAR LFPG 291030Z 05014KT CAVOK 19/06 Q1018 TEMPO 06015G25KT
2026-04-29 10:00:00,METAR LFPG 291000Z 08013KT CAVOK 18/05 Q1018 TEMPO 06015G25KT
2026-04-29 09:30:00,METAR LFPG 290930Z 07013KT CAVOK 17/05 Q1018 TEMPO 06015G25KT
2026-04-29 09:00:00,METAR LFPG 290900Z 07014KT CAVOK 15/04 Q1018 TEMPO 06015G25KT
2026-04-29 08:30:00,METAR LFPG 290830Z 06013KT CAVOK 14/04 Q1018 NOSIG
2026-04-29 08:00:00,METAR LFPG 290800Z 07013KT CAVOK 14/04 Q1018 NOSIG
2026-04-29 07:30:00,METAR LFPG 290730Z 07014KT CAVOK 13/04 Q1018 NOSIG
2026-04-29 07:00:00,METAR LFPG 290700Z 06014KT CAVOK 13/03 Q1018 NOSIG
2026-04-29 06:30:00,METAR LFPG 290630Z 06014KT CAVOK 12/03 Q1017 NOSIG
2026-04-29 06:00:00,METAR LFPG 290600Z 06015KT CAVOK 12/03 Q1017 NOSIG
2026-04-29 05:30:00,METAR LFPG 290530Z 06015KT CAVOK 12/03 Q1017 NOSIG
2026-04-29 05:00:00,METAR LFPG 290500Z 06013KT CAVOK 13/03 Q1017 NOSIG
2026-04-29 04:30:00,METAR LFPG 290430Z 05011KT CAVOK 13/03 Q1017 NOSIG
2026-04-29 04:00:00,METAR LFPG 290400Z 05013KT CAVOK 13/03 Q1016 NOSIG
2026-04-29 03:30:00,METAR LFPG 290330Z 06013KT CAVOK 14/03 Q1016 NOSIG
2026-04-29 03:00:00,METAR LFPG 290300Z 06013KT CAVOK 14/04 Q1016 NOSIG
2026-04-29 02:30:00,METAR LFPG 290230Z 06014KT CAVOK 14/04 Q1016 NOSIG
2026-04-29 02:00:00,METAR LFPG 290200Z 05014KT CAVOK 13/04 Q1016 NOSIG
2026-04-29 01:30:00,METAR LFPG 290130Z 06014KT CAVOK 14/04 Q1016 NOSIG
2026-04-29 01:00:00,METAR LFPG 290100Z 06014KT CAVOK 14/04 Q1016 NOSIG
2026-04-29 00:30:00,METAR LFPG 290030Z 06015KT CAVOK 14/04 Q1016 NOSIG
2026-04-29 00:00:00,METAR LFPG 290000Z 05014KT CAVOK 15/05 Q1016 NOSIG
2026-04-28 23:30:00,METAR LFPG 282330Z 05015KT CAVOK 15/05 Q1016 NOSIG
2026-04-28 23:00:00,METAR LFPG 282300Z 05015KT CAVOK 15/05 Q1016 NOSIG
2026-04-28 22:30:00,METAR LFPG 282230Z 04014KT CAVOK 14/06 Q1016 NOSIG
2026-04-28 22:00:00,METAR LFPG 282200Z 04013KT CAVOK 15/06 Q1016 NOSIG
2026-04-28 21:30:00,METAR LFPG 282130Z 04011KT CAVOK 15/06 Q1016 NOSIG
2026-04-28 21:00:00,METAR LFPG 282100Z 03012KT CAVOK 16/06 Q1016 NOSIG
2026-04-28 20:30:00,METAR LFPG 282030Z 03011KT CAVOK 16/06 Q1016 NOSIG
2026-04-28 20:00:00,METAR LFPG 282000Z 02009KT CAVOK 17/06 Q1015 NOSIG
2026-04-28 19:30:00,METAR LFPG 281930Z 02009KT 010V110 CAVOK 18/06 Q1015 NOSIG
2026-04-28 19:00:00,METAR LFPG 281900Z 02009KT 010V070 CAVOK 18/06 Q1015 NOSIG
2026-04-28 18:30:00,METAR LFPG 281830Z 02008KT CAVOK 19/06 Q1015 NOSIG
2026-04-28 18:00:00,METAR LFPG 281800Z 02010KT 360V080 CAVOK 19/06 Q1015 NOSIG
2026-04-28 17:30:00,METAR LFPG 281730Z 03011KT 350V070 CAVOK 20/06 Q1015 NOSIG
2026-04-28 17:00:00,METAR LFPG 281700Z 03014KT 010V070 CAVOK 20/06 Q1015 NOSIG
2026-04-28 16:30:00,METAR LFPG 281630Z 02012KT 350V070 CAVOK 20/06 Q1015 NOSIG
2026-04-28 16:00:00,METAR LFPG 281600Z 02012KT 350V070 CAVOK 20/07 Q1015 NOSIG
2026-04-28 15:30:00,METAR LFPG 281530Z 04013KT 360V100 CAVOK 18/07 Q1016 NOSIG
2026-04-28 15:00:00,METAR LFPG 281500Z 04012KT CAVOK 19/07 Q1016 NOSIG
2026-04-28 14:38:00,METAR LFPG 281438Z COR 03012KT CAVOK 19/06 Q1016 NOSIG
2026-04-28 14:30:00,METAR LFPG 281430Z 03014G26KT 360V060 CAVOK 19/06 Q1016 NOSIG
2026-04-28 14:00:00,METAR LFPG 281400Z 03013KT 350V050 CAVOK 19/07 Q1016 NOSIG
2026-04-28 13:30:00,METAR LFPG 281330Z 02013KT 350V100 CAVOK 18/07 Q1016 NOSIG
2026-04-28 13:00:00,METAR LFPG 281300Z 03011KT 360V070 CAVOK 19/07 Q1017 NOSIG
2026-04-28 12:30:00,METAR LFPG 281230Z 03011KT 360V070 CAVOK 18/06 Q1017 NOSIG
2026-04-28 12:00:00,METAR LFPG 281200Z 02012KT 320V060 CAVOK 18/06 Q1017 NOSIG
2026-04-28 11:30:00,METAR LFPG 281130Z 03012KT 360V070 CAVOK 18/06 Q1017 NOSIG
2026-04-28 11:00:00,METAR LFPG 281100Z 01012KT 330V070 CAVOK 17/06 Q1017 NOSIG
2026-04-28 10:30:00,METAR LFPG 281030Z 01010KT 340V040 CAVOK 17/05 Q1017 NOSIG
2026-04-28 10:00:00,METAR LFPG 281000Z 02011KT 340V050 CAVOK 16/05 Q1017 NOSIG
2026-04-28 09:30:00,METAR LFPG 280930Z 02011KT 340V050 CAVOK 15/05 Q1017 NOSIG
2026-04-28 09:00:00,METAR LFPG 280900Z 01012KT 300V040 CAVOK 14/04 Q1017 NOSIG
2026-04-28 08:30:00,METAR LFPG 280830Z 02012KT 360V070 CAVOK 13/04 Q1017 NOSIG
2026-04-28 08:00:00,METAR LFPG 280800Z 02012KT CAVOK 13/04 Q1017 NOSIG
2026-04-28 07:30:00,METAR LFPG 280730Z 01012KT 320V090 CAVOK 11/04 Q1017 NOSIG
2026-04-28 07:00:00,METAR LFPG 280700Z 01012KT 350V060 CAVOK 11/05 Q1017 NOSIG
2026-04-28 06:30:00,METAR LFPG 280630Z 01008G19KT 340V110 CAVOK 10/05 Q1017 NOSIG
2026-04-28 06:00:00,METAR LFPG 280600Z VRB08G18KT CAVOK 09/05 Q1017 NOSIG
2026-04-28 05:30:00,METAR LFPG 280530Z 36010KT 350V090 CAVOK 09/05 Q1017 NOSIG
2026-04-28 05:00:00,METAR LFPG 280500Z 36008KT CAVOK 09/05 Q1017 NOSIG
2026-04-28 04:30:00,METAR LFPG 280430Z 01008KT 330V130 CAVOK 10/05 Q1017 NOSIG
2026-04-28 04:00:00,METAR LFPG 280400Z 36010KT 350V130 CAVOK 10/05 Q1017 NOSIG
2026-04-28 03:30:00,METAR LFPG 280330Z 36010KT CAVOK 10/04 Q1017 NOSIG
2026-04-28 03:00:00,METAR LFPG 280300Z 36010KT 350V050 CAVOK 10/05 Q1018 NOSIG
2026-04-28 02:30:00,METAR LFPG 280230Z 36011KT CAVOK 10/04 Q1018 NOSIG
2026-04-28 02:00:00,METAR LFPG 280200Z 36010KT CAVOK 10/05 Q1018 NOSIG
2026-04-28 01:30:00,METAR LFPG 280130Z 36010KT CAVOK 10/05 Q1018 NOSIG
2026-04-28 01:00:00,METAR LFPG 280100Z 01008KT CAVOK 11/05 Q1018 NOSIG
2026-04-28 00:30:00,METAR LFPG 280030Z 36009KT CAVOK 12/05 Q1018 NOSIG
2026-04-28 00:00:00,METAR LFPG 280000Z 36008KT CAVOK 12/05 Q1018 NOSIG
2026-04-27 23:30:00,METAR LFPG 272330Z 36008KT CAVOK 13/05 Q1018 NOSIG
2026-04-27 23:00:00,METAR LFPG 272300Z 01007KT 350V060 CAVOK 13/05 Q1018 NOSIG
2026-04-27 22:30:00,METAR LFPG 272230Z 02008KT 360V140 CAVOK 14/05 Q1019 NOSIG
2026-04-27 22:00:00,METAR LFPG 272200Z 01010KT 350V100 CAVOK 14/04 Q1019 NOSIG
2026-04-27 21:30:00,METAR LFPG 272130Z 01010KT 360V130 CAVOK 14/04 Q1019 NOSIG
2026-04-27 21:00:00,METAR LFPG 272100Z 01007KT 360V100 CAVOK 15/03 Q1019 NOSIG
2026-04-27 20:30:00,METAR LFPG 272030Z 01006KT 360V150 CAVOK 15/04 Q1019 NOSIG
2026-04-27 20:00:00,METAR LFPG 272000Z 01006KT 350V110 CAVOK 16/04 Q1019 NOSIG
2026-04-27 19:30:00,METAR LFPG 271930Z 01007KT 310V120 CAVOK 17/04 Q1019 NOSIG
2026-04-27 19:00:00,METAR LFPG 271900Z 01008KT 330V060 CAVOK 18/04 Q1019 NOSIG
2026-04-27 18:30:00,METAR LFPG 271830Z 01007KT 360V100 CAVOK 19/04 Q1019 NOSIG
2026-04-27 18:00:00,METAR LFPG 271800Z VRB09KT CAVOK 19/06 Q1019 NOSIG
2026-04-27 17:30:00,METAR LFPG 271730Z 02009KT 360V110 CAVOK 20/05 Q1019 NOSIG
2026-04-27 17:00:00,METAR LFPG 271700Z 36008KT 280V050 CAVOK 21/03 Q1019 NOSIG
2026-04-27 16:30:00,METAR LFPG 271630Z 36005KT 290V040 CAVOK 21/04 Q1019 NOSIG
2026-04-27 16:00:00,METAR LFPG 271600Z 35006KT 310V060 CAVOK 21/03 Q1019 NOSIG
2026-04-27 15:30:00,METAR LFPG 271530Z VRB06KT CAVOK 22/04 Q1019 NOSIG
2026-04-27 15:00:00,METAR LFPG 271500Z 01004KT 320V050 CAVOK 22/02 Q1019 NOSIG
2026-04-27 14:30:00,METAR LFPG 271430Z VRB03KT CAVOK 21/03 Q1020 NOSIG
2026-04-27 14:00:00,METAR LFPG 271400Z 04006KT 300V090 CAVOK 21/04 Q1020 NOSIG
2026-04-27 13:30:00,METAR LFPG 271330Z 02004KT 310V080 CAVOK 21/04 Q1020 NOSIG
2026-04-27 13:00:00,METAR LFPG 271300Z 01005KT 320V050 CAVOK 21/05 Q1020 NOSIG
2026-04-27 12:30:00,METAR LFPG 271230Z VRB06KT CAVOK 20/06 Q1021 NOSIG
2026-04-27 12:00:00,METAR LFPG 271200Z VRB07KT CAVOK 19/05 Q1021 NOSIG
2026-04-27 11:30:00,METAR LFPG 271130Z 36004KT 310V050 CAVOK 18/05 Q1021 NOSIG
2026-04-27 11:00:00,METAR LFPG 271100Z 02004KT 340V060 CAVOK 18/07 Q1021 NOSIG
2026-04-27 10:30:00,METAR LFPG 271030Z 01005KT 320V050 CAVOK 17/07 Q1022 NOSIG
2026-04-27 10:00:00,METAR LFPG 271000Z 36007KT 330V060 CAVOK 16/06 Q1022 NOSIG
2026-04-27 09:30:00,METAR LFPG 270930Z 36006KT 290V060 CAVOK 15/06 Q1022 NOSIG
2026-04-27 09:00:00,METAR LFPG 270900Z 02006KT 330V090 CAVOK 14/06 Q1022 NOSIG
2026-04-27 08:30:00,METAR LFPG 270830Z 02006KT 320V050 CAVOK 13/06 Q1022 NOSIG
2026-04-27 08:00:00,METAR LFPG 270800Z 02007KT 340V090 CAVOK 13/06 Q1022 NOSIG
2026-04-27 07:30:00,METAR LFPG 270730Z 02009KT 360V130 CAVOK 12/05 Q1022 NOSIG
2026-04-27 07:00:00,METAR LFPG 270700Z 02007KT 360V130 CAVOK 11/05 Q1022 NOSIG
2026-04-27 06:30:00,METAR LFPG 270630Z 02008KT 010V140 CAVOK 10/06 Q1022 NOSIG
2026-04-27 06:00:00,METAR LFPG 270600Z 02009KT 350V150 CAVOK 09/05 Q1022 NOSIG
2026-04-27 05:30:00,METAR LFPG 270530Z 02009KT 360V110 CAVOK 08/05 Q1022 NOSIG
2026-04-27 05:00:00,METAR LFPG 270500Z VRB07KT CAVOK 08/05 Q1022 NOSIG
2026-04-27 04:30:00,METAR LFPG 270430Z 01009KT CAVOK 08/05 Q1022 NOSIG
2026-04-27 04:00:00,METAR LFPG 270400Z 01009KT 360V080 CAVOK 08/04 Q1021 NOSIG
2026-04-27 03:30:00,METAR LFPG 270330Z 01009KT CAVOK 09/05 Q1021 NOSIG
2026-04-27 03:00:00,METAR LFPG 270300Z 36008KT CAVOK 09/04 Q1022 NOSIG
2026-04-27 02:30:00,METAR LFPG 270230Z 01008KT CAVOK 09/05 Q1021 NOSIG
2026-04-27 02:00:00,METAR LFPG 270200Z 01007KT CAVOK 09/04 Q1022 NOSIG
2026-04-27 01:30:00,METAR LFPG 270130Z 01006KT CAVOK 10/05 Q1022 NOSIG
2026-04-27 01:00:00,METAR LFPG 270100Z 01007KT CAVOK 10/05 Q1022 NOSIG
2026-04-27 00:30:00,METAR LFPG 270030Z 01007KT CAVOK 11/05 Q1022 NOSIG
2026-04-27 00:00:00,METAR LFPG 270000Z 36007KT CAVOK 12/05 Q1022 NOSIG
2026-04-26 23:30:00,METAR LFPG 262330Z 01006KT CAVOK 12/05 Q1022 NOSIG
2026-04-26 23:00:00,METAR LFPG 262300Z 02008KT CAVOK 13/05 Q1022 NOSIG
2026-04-26 22:30:00,METAR LFPG 262230Z 01007KT CAVOK 13/05 Q1022 NOSIG
2026-04-26 22:00:00,METAR LFPG 262200Z 02006KT 010V080 CAVOK 13/05 Q1022 NOSIG
2026-04-26 21:30:00,METAR LFPG 262130Z 03007KT 010V090 CAVOK 14/05 Q1022 NOSIG
2026-04-26 21:00:00,METAR LFPG 262100Z 04008KT CAVOK 15/05 Q1022 NOSIG
2026-04-26 20:30:00,METAR LFPG 262030Z 03006KT 010V070 CAVOK 15/04 Q1022 NOSIG
2026-04-26 20:00:00,METAR LFPG 262000Z 04007KT 020V090 CAVOK 16/04 Q1022 NOSIG
2026-04-26 19:30:00,METAR LFPG 261930Z 03005KT 350V130 CAVOK 17/04 Q1022 NOSIG
2026-04-26 19:00:00,METAR LFPG 261900Z 05006KT 020V130 CAVOK 18/03 Q1021 NOSIG
2026-04-26 18:30:00,METAR LFPG 261830Z 05006KT CAVOK 19/01 Q1021 NOSIG
2026-04-26 18:00:00,METAR LFPG 261800Z 04005KT 360V070 CAVOK 20/00 Q1021 NOSIG
2026-04-26 17:30:00,METAR LFPG 261730Z 07007KT CAVOK 20/M02 Q1021 NOSIG
2026-04-26 17:00:00,METAR LFPG 261700Z 07009KT CAVOK 20/M02 Q1021 NOSIG
2026-04-26 16:30:00,METAR LFPG 261630Z 06008KT 030V100 CAVOK 21/M00 Q1021 NOSIG
2026-04-26 16:00:00,METAR LFPG 261600Z 08007KT CAVOK 21/M01 Q1021 NOSIG
2026-04-26 15:30:00,METAR LFPG 261530Z 06005KT 010V140 CAVOK 21/M02 Q1021 NOSIG
2026-04-26 15:00:00,METAR LFPG 261500Z 08008KT 030V110 CAVOK 21/M01 Q1022 NOSIG
2026-04-26 14:30:00,METAR LFPG 261430Z 06005KT 360V120 CAVOK 21/M01 Q1022 NOSIG
2026-04-26 14:00:00,METAR LFPG 261400Z 05006KT 010V100 CAVOK 21/M00 Q1022 NOSIG
2026-04-26 13:30:00,METAR LFPG 261330Z 06008KT 030V120 CAVOK 21/M02 Q1022 NOSIG
2026-04-26 13:00:00,METAR LFPG 261300Z 07007KT 040V110 CAVOK 20/M03 Q1023 NOSIG
2026-04-26 12:30:00,METAR LFPG 261230Z 08008KT 040V130 CAVOK 20/M01 Q1023 NOSIG
2026-04-26 12:00:00,METAR LFPG 261200Z 07008KT 030V130 CAVOK 20/M03 Q1023 NOSIG
2026-04-26 11:30:00,METAR LFPG 261130Z 08006KT 040V140 CAVOK 19/M02 Q1023 NOSIG
2026-04-26 11:00:00,METAR LFPG 261100Z 05008KT 020V090 CAVOK 19/00 Q1023 NOSIG
2026-04-26 10:30:00,METAR LFPG 261030Z 07008KT 010V110 CAVOK 18/M00 Q1023 NOSIG
2026-04-26 10:00:00,METAR LFPG 261000Z 07008KT 010V100 CAVOK 17/01 Q1023 NOSIG
2026-04-26 09:30:00,METAR LFPG 260930Z 06009KT 040V100 CAVOK 17/02 Q1023 NOSIG
2026-04-26 09:00:00,METAR LFPG 260900Z 07010KT 040V100 CAVOK 16/02 Q1023 NOSIG
2026-04-26 08:30:00,METAR LFPG 260830Z 07009KT 050V110 CAVOK 15/02 Q1023 NOSIG
2026-04-26 08:00:00,METAR LFPG 260800Z 06009KT CAVOK 14/01 Q1023 NOSIG
2026-04-26 07:30:00,METAR LFPG 260730Z 06009KT CAVOK 13/03 Q1023 NOSIG
2026-04-26 07:00:00,METAR LFPG 260700Z 04009KT 020V100 CAVOK 12/01 Q1023 NOSIG
2026-04-26 06:30:00,METAR LFPG 260630Z 04008KT 340V110 CAVOK 10/02 Q1023 NOSIG
2026-04-26 06:00:00,METAR LFPG 260600Z 02009KT 360V100 CAVOK 09/02 Q1023 NOSIG
2026-04-26 05:30:00,METAR LFPG 260530Z 02008KT 350V080 CAVOK 08/01 Q1022 NOSIG
2026-04-26 05:00:00,METAR LFPG 260500Z 01009KT 360V100 CAVOK 07/00 Q1022 NOSIG
2026-04-26 04:30:00,METAR LFPG 260430Z 01008KT CAVOK 07/00 Q1022 NOSIG
2026-04-26 04:00:00,METAR LFPG 260400Z 02009KT 010V070 CAVOK 07/00 Q1022 NOSIG
2026-04-26 03:30:00,METAR LFPG 260330Z 03008KT CAVOK 08/00 Q1022 NOSIG
2026-04-26 03:00:00,METAR LFPG 260300Z 03007KT CAVOK 07/00 Q1022 NOSIG
2026-04-26 02:30:00,METAR LFPG 260230Z 03007KT CAVOK 08/01 Q1022 NOSIG
2026-04-26 02:00:00,METAR LFPG 260200Z 02007KT CAVOK 08/01 Q1021 NOSIG
2026-04-26 01:30:00,METAR LFPG 260130Z 03006KT CAVOK 09/00 Q1021 NOSIG
2026-04-26 01:00:00,METAR LFPG 260100Z 02007KT CAVOK 09/01 Q1021 NOSIG
2026-04-26 00:30:00,METAR LFPG 260030Z 04006KT CAVOK 10/00 Q1021 NOSIG
2026-04-26 00:00:00,METAR LFPG 260000Z 03005KT CAVOK 10/00 Q1021 NOSIG
2026-04-25 23:30:00,METAR LFPG 252330Z 03005KT CAVOK 11/00 Q1021 NOSIG
2026-04-25 23:00:00,METAR LFPG 252300Z 03005KT CAVOK 12/00 Q1021 NOSIG
2026-04-25 22:30:00,METAR LFPG 252230Z 02006KT CAVOK 13/01 Q1021 NOSIG
2026-04-25 22:00:00,METAR LFPG 252200Z 02006KT CAVOK 13/01 Q1021 NOSIG
2026-04-25 21:30:00,METAR LFPG 252130Z 03007KT 010V100 CAVOK 13/02 Q1021 NOSIG
2026-04-25 21:00:00,METAR LFPG 252100Z 02008KT 360V090 CAVOK 14/01 Q1021 NOSIG
2026-04-25 20:30:00,METAR LFPG 252030Z 03007KT CAVOK 15/02 Q1021 NOSIG
2026-04-25 20:00:00,METAR LFPG 252000Z 02007KT CAVOK 16/02 Q1020 NOSIG
2026-04-25 19:30:00,METAR LFPG 251930Z 02008KT 360V080 CAVOK 17/02 Q1020 NOSIG
2026-04-25 19:00:00,METAR LFPG 251900Z 02009KT CAVOK 17/02 Q1019 NOSIG
2026-04-25 18:30:00,METAR LFPG 251830Z 02009KT 360V120 CAVOK 18/03 Q1019 NOSIG
2026-04-25 18:00:00,METAR LFPG 251800Z 02008KT 360V100 CAVOK 19/04 Q1019 NOSIG
2026-04-25 17:30:00,METAR LFPG 251730Z 02012G22KT 360V080 CAVOK 20/04 Q1019 NOSIG
2026-04-25 17:00:00,METAR LFPG 251700Z 02010KT 330V070 CAVOK 21/04 Q1019 NOSIG
2026-04-25 16:30:00,METAR LFPG 251630Z 01008KT 350V120 CAVOK 22/00 Q1019 NOSIG
2026-04-25 16:00:00,METAR LFPG 251600Z 06005KT 010V120 CAVOK 22/02 Q1019 NOSIG
2026-04-25 15:30:00,METAR LFPG 251530Z 34004KT 260V060 CAVOK 23/02 Q1018 NOSIG
2026-04-25 15:00:00,METAR LFPG 251500Z VRB04KT CAVOK 22/00 Q1019 NOSIG
2026-04-25 14:30:00,METAR LFPG 251430Z VRB03KT CAVOK 21/M01 Q1019 NOSIG
2026-04-25 14:00:00,METAR LFPG 251400Z VRB03KT CAVOK 22/M01 Q1019 NOSIG
2026-04-25 13:30:00,METAR LFPG 251330Z VRB04KT CAVOK 21/01 Q1019 NOSIG
2026-04-25 13:00:00,METAR LFPG 251300Z VRB04KT CAVOK 21/01 Q1019 NOSIG
2026-04-25 12:30:00,METAR LFPG 251230Z VRB03KT CAVOK 21/02 Q1019 NOSIG
2026-04-25 12:00:00,METAR LFPG 251200Z VRB03KT CAVOK 20/01 Q1019 NOSIG
2026-04-25 11:30:00,METAR LFPG 251130Z 11004KT 050V190 CAVOK 20/03 Q1020 NOSIG
2026-04-25 11:00:00,METAR LFPG 251100Z 07007KT 030V100 CAVOK 19/05 Q1020 NOSIG
2026-04-25 10:30:00,METAR LFPG 251030Z 04006KT 340V100 CAVOK 18/04 Q1020 NOSIG
2026-04-25 10:00:00,METAR LFPG 251000Z 03006KT 340V070 CAVOK 18/05 Q1020 NOSIG
2026-04-25 09:30:00,METAR LFPG 250930Z 07007KT 010V100 CAVOK 16/05 Q1020 NOSIG
2026-04-25 09:00:00,METAR LFPG 250900Z 07008KT CAVOK 15/05 Q1020 NOSIG
2026-04-25 08:30:00,METAR LFPG 250830Z 05006KT 020V090 CAVOK 14/05 Q1020 NOSIG
2026-04-25 08:00:00,METAR LFPG 250800Z 05007KT 020V080 CAVOK 13/05 Q1020 NOSIG
2026-04-25 07:30:00,METAR LFPG 250730Z VRB06KT CAVOK 11/05 Q1020 NOSIG
2026-04-25 07:00:00,METAR LFPG 250700Z VRB09KT CAVOK 10/05 Q1020 NOSIG
2026-04-25 06:30:00,METAR LFPG 250630Z 01011KT 360V130 CAVOK 09/05 Q1020 NOSIG
2026-04-25 06:00:00,METAR LFPG 250600Z 01010KT 360V120 CAVOK 08/04 Q1020 NOSIG
2026-04-25 05:30:00,METAR LFPG 250530Z 01009KT 360V120 CAVOK 07/04 Q1019 NOSIG
2026-04-25 05:00:00,METAR LFPG 250500Z 01009KT 010V070 CAVOK 06/03 Q1019 NOSIG
2026-04-25 04:30:00,METAR LFPG 250430Z 01009KT 360V100 CAVOK 06/03 Q1019 NOSIG
2026-04-25 04:00:00,METAR LFPG 250400Z 02009G19KT 360V090 CAVOK 06/03 Q1019 NOSIG
2026-04-25 03:30:00,METAR LFPG 250330Z 01010KT 360V060 CAVOK 06/03 Q1019 NOSIG
2026-04-25 03:00:00,METAR LFPG 250300Z 02010KT CAVOK 07/03 Q1019 NOSIG
2026-04-25 02:30:00,METAR LFPG 250230Z 02009KT CAVOK 07/03 Q1019 NOSIG
2026-04-25 02:00:00,METAR LFPG 250200Z 01010KT CAVOK 08/03 Q1019 NOSIG
2026-04-25 01:30:00,METAR LFPG 250130Z 01010KT CAVOK 08/03 Q1019 NOSIG
2026-04-25 01:00:00,METAR LFPG 250100Z 02009KT CAVOK 09/03 Q1019 NOSIG
2026-04-25 00:30:00,METAR LFPG 250030Z 01008KT CAVOK 09/02 Q1020 NOSIG
2026-04-25 00:00:00,METAR LFPG 250000Z 36008KT CAVOK 10/02 Q1020 NOSIG
2026-04-24 23:30:00,METAR LFPG 242330Z 36008KT CAVOK 10/02 Q1020 NOSIG
2026-04-24 23:00:00,METAR LFPG 242300Z 01007KT CAVOK 11/01 Q1020 NOSIG
2026-04-24 22:30:00,METAR LFPG 242230Z 01006KT CAVOK 11/01 Q1020 NOSIG
2026-04-24 22:00:00,METAR LFPG 242200Z 03008KT 9999 FEW020 12/01 Q1020 NOSIG
2026-04-24 21:30:00,METAR LFPG 242130Z 02008KT 010V090 CAVOK 13/01 Q1020 NOSIG
2026-04-24 21:00:00,METAR LFPG 242100Z 03007KT CAVOK 13/01 Q1020 NOSIG
2026-04-24 20:30:00,METAR LFPG 242030Z 04009KT 030V090 CAVOK 14/01 Q1020 NOSIG
2026-04-24 20:00:00,METAR LFPG 242000Z 04009KT 030V100 CAVOK 14/01 Q1020 NOSIG
2026-04-24 19:30:00,METAR LFPG 241930Z 05010KT 020V100 CAVOK 15/00 Q1019 NOSIG
2026-04-24 19:00:00,METAR LFPG 241900Z 04009KT CAVOK 16/01 Q1019 NOSIG
2026-04-24 18:30:00,METAR LFPG 241830Z 05008KT 030V090 CAVOK 18/01 Q1019 NOSIG
2026-04-24 18:00:00,METAR LFPG 241800Z 05010KT 030V090 CAVOK 19/01 Q1019 NOSIG
2026-04-24 17:30:00,METAR LFPG 241730Z 06010KT CAVOK 21/M03 Q1019 NOSIG
2026-04-24 17:00:00,METAR LFPG 241700Z 07011KT CAVOK 21/M03 Q1019 NOSIG
2026-04-24 16:30:00,METAR LFPG 241630Z 05011KT CAVOK 22/M03 Q1020 NOSIG
2026-04-24 16:00:00,METAR LFPG 241600Z 05011KT 020V090 CAVOK 21/M01 Q1020 NOSIG
2026-04-24 15:30:00,METAR LFPG 241530Z 05011KT 020V090 CAVOK 22/M01 Q1020 NOSIG
2026-04-24 15:00:00,METAR LFPG 241500Z 05011KT CAVOK 22/M01 Q1020 NOSIG
2026-04-24 14:30:00,METAR LFPG 241430Z 06012KT 040V110 CAVOK 22/M01 Q1021 NOSIG
2026-04-24 14:00:00,METAR LFPG 241400Z 05010KT 010V090 CAVOK 21/01 Q1021 NOSIG
2026-04-24 13:30:00,METAR LFPG 241330Z 05012KT CAVOK 21/01 Q1021 NOSIG
2026-04-24 13:00:00,METAR LFPG 241300Z 07011KT CAVOK 21/01 Q1021 NOSIG
2026-04-24 12:30:00,METAR LFPG 241230Z 06008KT CAVOK 21/01 Q1022 NOSIG
2026-04-24 12:00:00,METAR LFPG 241200Z 05010KT CAVOK 20/03 Q1022 NOSIG
2026-04-24 11:30:00,METAR LFPG 241130Z 05008KT 010V100 CAVOK 19/03 Q1022 NOSIG
2026-04-24 11:00:00,METAR LFPG 241100Z COR 04010KT 010V130 CAVOK 19/02 Q1022 NOSIG
2026-04-24 10:30:00,METAR LFPG 241030Z 05009KT CAVOK 18/04 Q1023 NOSIG
2026-04-24 10:00:00,METAR LFPG 241000Z 04008KT 360V080 CAVOK 17/04 Q1023 NOSIG
2026-04-24 09:30:00,METAR LFPG 240930Z 03009KT CAVOK 16/04 Q1023 NOSIG
2026-04-24 09:00:00,METAR LFPG 240900Z 05010KT CAVOK 15/04 Q1023 NOSIG
2026-04-24 08:30:00,METAR LFPG 240830Z 06010KT CAVOK 14/03 Q1023 NOSIG
2026-04-24 08:00:00,METAR LFPG 240800Z 05010KT CAVOK 13/03 Q1023 NOSIG
2026-04-24 07:30:00,METAR LFPG 240730Z 05010KT CAVOK 12/02 Q1023 NOSIG
2026-04-24 07:00:00,METAR LFPG 240700Z 04010KT CAVOK 11/02 Q1023 NOSIG
2026-04-24 06:30:00,METAR LFPG 240630Z 03008KT CAVOK 10/02 Q1023 NOSIG
2026-04-24 06:00:00,METAR LFPG 240600Z 02009KT 010V090 CAVOK 09/01 Q1023 NOSIG
2026-04-24 05:30:00,METAR LFPG 240530Z 01008KT CAVOK 08/01 Q1023 NOSIG
2026-04-24 05:00:00,METAR LFPG 240500Z 01009KT CAVOK 07/01 Q1023 NOSIG
2026-04-24 04:30:00,METAR LFPG 240430Z 02009KT CAVOK 07/01 Q1023 NOSIG
2026-04-24 04:00:00,METAR LFPG 240400Z 02008KT CAVOK 07/00 Q1023 NOSIG
2026-04-24 03:30:00,METAR LFPG 240330Z 02010KT 010V090 CAVOK 07/00 Q1023 NOSIG
2026-04-24 03:00:00,METAR LFPG 240300Z 01009KT CAVOK 08/00 Q1023 NOSIG
2026-04-24 02:30:00,METAR LFPG 240230Z 02007KT CAVOK 09/00 Q1023 NOSIG
2026-04-24 02:00:00,METAR LFPG 240200Z 01007KT CAVOK 09/01 Q1023 NOSIG
2026-04-24 01:30:00,METAR LFPG 240130Z 02007KT CAVOK 09/01 Q1023 NOSIG
2026-04-24 01:00:00,METAR LFPG 240100Z 02008KT CAVOK 09/01 Q1023 NOSIG
2026-04-24 00:30:00,METAR LFPG 240030Z 04010KT CAVOK 10/01 Q1023 NOSIG
2026-04-24 00:00:00,METAR LFPG 240000Z 04010KT CAVOK 10/01 Q1023 NOSIG
2026-04-23 23:30:00,METAR LFPG 232330Z 04010KT CAVOK 11/01 Q1024 NOSIG
2026-04-23 23:00:00,METAR LFPG 232300Z 05009KT CAVOK 11/01 Q1024 NOSIG
2026-04-23 22:30:00,METAR LFPG 232230Z 04010KT CAVOK 12/01 Q1024 NOSIG
2026-04-23 22:00:00,METAR LFPG 232200Z 04010KT CAVOK 13/02 Q1024 NOSIG
2026-04-23 21:30:00,METAR LFPG 232130Z 04010KT CAVOK 13/02 Q1024 NOSIG
2026-04-23 21:00:00,METAR LFPG 232100Z 05010KT CAVOK 14/02 Q1024 NOSIG
2026-04-23 20:30:00,METAR LFPG 232030Z 05010KT CAVOK 14/03 Q1024 NOSIG
2026-04-23 20:00:00,METAR LFPG 232000Z 04010KT CAVOK 15/03 Q1024 NOSIG
2026-04-23 19:30:00,METAR LFPG 231930Z 04007KT 020V100 CAVOK 16/00 Q1024 NOSIG
2026-04-23 19:00:00,METAR LFPG 231900Z 04007KT 030V100 CAVOK 17/02 Q1023 NOSIG
2026-04-23 18:30:00,METAR LFPG 231830Z 07008KT CAVOK 19/01 Q1023 NOSIG
2026-04-23 18:00:00,METAR LFPG 231800Z 07010KT CAVOK 20/M00 Q1023 NOSIG
2026-04-23 17:30:00,METAR LFPG 231730Z 07010KT CAVOK 21/00 Q1024 NOSIG
2026-04-23 17:00:00,METAR LFPG 231700Z 06014KT CAVOK 21/M00 Q1024 NOSIG
2026-04-23 16:30:00,METAR LFPG 231630Z 06013KT CAVOK 21/M01 Q1024 NOSIG
2026-04-23 16:00:00,METAR LFPG 231600Z 07014KT CAVOK 21/01 Q1024 NOSIG
2026-04-23 15:30:00,METAR LFPG 231530Z 07013KT CAVOK 21/00 Q1024 NOSIG
2026-04-23 15:00:00,METAR LFPG 231500Z 07014KT 040V100 CAVOK 21/00 Q1025 NOSIG
2026-04-23 14:30:00,METAR LFPG 231430Z 07015KT CAVOK 21/01 Q1025 NOSIG
2026-04-23 14:00:00,METAR LFPG 231400Z 06015KT 030V090 CAVOK 21/01 Q1025 NOSIG
2026-04-23 13:30:00,METAR LFPG 231330Z 07015KT 040V100 CAVOK 21/01 Q1025 NOSIG
2026-04-23 13:00:00,METAR LFPG 231300Z 06015KT CAVOK 20/02 Q1026 NOSIG
2026-04-23 12:30:00,METAR LFPG 231230Z 07015KT 030V100 CAVOK 20/02 Q1026 NOSIG
2026-04-23 12:00:00,METAR LFPG 231200Z 07012KT CAVOK 20/02 Q1026 NOSIG
2026-04-23 11:30:00,METAR LFPG 231130Z 07014KT CAVOK 19/02 Q1026 NOSIG
2026-04-23 11:00:00,METAR LFPG 231100Z 07014KT 050V110 CAVOK 19/02 Q1026 NOSIG
2026-04-23 10:30:00,METAR LFPG 231030Z 07016KT CAVOK 19/02 Q1026 NOSIG
2026-04-23 10:00:00,METAR LFPG 231000Z 08015KT CAVOK 17/01 Q1027 NOSIG
2026-04-23 09:30:00,METAR LFPG 230930Z 08014KT CAVOK 17/01 Q1027 NOSIG
2026-04-23 09:00:00,METAR LFPG 230900Z 07012KT CAVOK 16/01 Q1027 NOSIG
2026-04-23 08:30:00,METAR LFPG 230830Z 08009KT CAVOK 15/02 Q1027 NOSIG
2026-04-23 08:00:00,METAR LFPG 230800Z 06010KT CAVOK 14/02 Q1027 NOSIG
2026-04-23 07:30:00,METAR LFPG 230730Z 06010KT CAVOK 12/02 Q1027 NOSIG
2026-04-23 07:00:00,METAR LFPG 230700Z 06011KT CAVOK 11/02 Q1027 NOSIG
2026-04-23 06:30:00,METAR LFPG 230630Z 06011KT CAVOK 10/01 Q1026 NOSIG
2026-04-23 06:00:00,METAR LFPG 230600Z 05013KT CAVOK 09/01 Q1026 NOSIG
2026-04-23 05:30:00,METAR LFPG 230530Z 05011KT 030V090 CAVOK 07/00 Q1026 NOSIG
2026-04-23 05:00:00,METAR LFPG 230500Z 05011KT CAVOK 06/00 Q1026 NOSIG
2026-04-23 04:30:00,METAR LFPG 230430Z 05011KT CAVOK 07/00 Q1025 NOSIG
2026-04-23 04:00:00,METAR LFPG 230400Z 05011KT CAVOK 06/00 Q1025 NOSIG
2026-04-23 03:30:00,METAR LFPG 230330Z 05010KT CAVOK 06/00 Q1025 NOSIG
2026-04-23 03:00:00,METAR LFPG 230300Z 05006KT CAVOK 07/00 Q1025 NOSIG
2026-04-23 02:30:00,METAR LFPG 230230Z 05010KT CAVOK 07/00 Q1025 NOSIG
2026-04-23 02:00:00,METAR LFPG 230200Z 05009KT CAVOK 07/00 Q1025 NOSIG
2026-04-23 01:30:00,METAR LFPG 230130Z 05008KT CAVOK 07/00 Q1025 NOSIG
2026-04-23 01:00:00,METAR LFPG 230100Z 06009KT CAVOK 09/00 Q1024 NOSIG
2026-04-23 00:30:00,METAR LFPG 230030Z 06007KT CAVOK 09/00 Q1025 NOSIG
2026-04-23 00:00:00,METAR LFPG 230000Z 06009KT CAVOK 10/00 Q1024 NOSIG
2026-04-22 23:30:00,METAR LFPG 222330Z 06010KT CAVOK 10/00 Q1024 NOSIG
2026-04-22 23:00:00,METAR LFPG 222300Z 06008KT CAVOK 10/00 Q1024 NOSIG
2026-04-22 22:30:00,METAR LFPG 222230Z 06010KT CAVOK 11/01 Q1024 NOSIG
2026-04-22 22:00:00,METAR LFPG 222200Z 06010KT CAVOK 11/01 Q1024 NOSIG
2026-04-22 21:30:00,METAR LFPG 222130Z 06009KT CAVOK 12/00 Q1024 NOSIG
2026-04-22 21:00:00,METAR LFPG 222100Z 06009KT CAVOK 12/00 Q1023 NOSIG
2026-04-22 20:30:00,METAR LFPG 222030Z 06010KT CAVOK 11/01 Q1023 NOSIG
2026-04-22 20:00:00,METAR LFPG 222000Z 05009KT CAVOK 12/01 Q1023 NOSIG
2026-04-22 19:30:00,METAR LFPG 221930Z 05010KT CAVOK 13/01 Q1022 NOSIG
2026-04-22 19:00:00,METAR LFPG 221900Z 05011KT CAVOK 14/01 Q1022 NOSIG
2026-04-22 18:30:00,METAR LFPG 221830Z 05012KT CAVOK 16/01 Q1022 NOSIG
2026-04-22 18:00:00,METAR LFPG 221800Z 06013KT CAVOK 17/01 Q1022 NOSIG
2026-04-22 17:30:00,METAR LFPG 221730Z 06013KT CAVOK 18/00 Q1021 NOSIG
2026-04-22 17:00:00,METAR LFPG 221700Z 06014KT CAVOK 18/00 Q1021 NOSIG
2026-04-22 16:30:00,METAR LFPG 221630Z 07014KT CAVOK 18/01 Q1021 NOSIG
2026-04-22 16:00:00,METAR LFPG 221600Z 08015KT CAVOK 19/01 Q1021 NOSIG
2026-04-22 15:30:00,METAR LFPG 221530Z 07018KT CAVOK 18/M00 Q1021 NOSIG
2026-04-22 15:00:00,METAR LFPG 221500Z 07017KT CAVOK 18/00 Q1021 NOSIG
2026-04-22 14:30:00,METAR LFPG 221430Z 08016KT CAVOK 18/00 Q1021 NOSIG
2026-04-22 14:00:00,METAR LFPG 221400Z 07018KT 040V110 CAVOK 18/00 Q1021 NOSIG
2026-04-22 13:30:00,METAR LFPG 221330Z 07017KT CAVOK 18/00 Q1021 NOSIG
2026-04-22 13:00:00,METAR LFPG 221300Z 09016KT CAVOK 17/00 Q1021 NOSIG
2026-04-22 12:30:00,METAR LFPG 221230Z 07017KT CAVOK 17/01 Q1021 NOSIG
2026-04-22 12:00:00,METAR LFPG 221200Z 08017KT CAVOK 16/00 Q1021 NOSIG
2026-04-22 11:30:00,METAR LFPG 221130Z 07018KT 040V100 CAVOK 16/00 Q1021 NOSIG
2026-04-22 11:00:00,METAR LFPG 221100Z 07018KT CAVOK 16/M01 Q1021 NOSIG
2026-04-22 10:30:00,METAR LFPG 221030Z 08018KT CAVOK 15/M00 Q1021 NOSIG
2026-04-22 10:00:00,METAR LFPG 221000Z 07019KT CAVOK 15/00 Q1021 NOSIG
2026-04-22 09:30:00,METAR LFPG 220930Z 07019KT CAVOK 14/01 Q1021 NOSIG
2026-04-22 09:00:00,METAR LFPG 220900Z 07020KT CAVOK 13/01 Q1021 NOSIG
2026-04-22 08:30:00,METAR LFPG 220830Z 07016KT CAVOK 12/02 Q1021 NOSIG
2026-04-22 08:00:00,METAR LFPG 220800Z 06016KT CAVOK 11/02 Q1021 NOSIG
2026-04-22 07:30:00,METAR LFPG 220730Z 07014KT CAVOK 10/02 Q1021 NOSIG
2026-04-22 07:00:00,METAR LFPG 220700Z 07011KT CAVOK 09/01 Q1021 NOSIG
2026-04-22 06:30:00,METAR LFPG 220630Z 07011KT CAVOK 08/01 Q1021 NOSIG
2026-04-22 06:00:00,METAR LFPG 220600Z 06014KT CAVOK 07/00 Q1021 NOSIG
2026-04-22 05:30:00,METAR LFPG 220530Z 06012KT CAVOK 07/00 Q1020 NOSIG
2026-04-22 05:00:00,METAR LFPG 220500Z 06012KT CAVOK 06/01 Q1020 NOSIG
2026-04-22 04:30:00,METAR LFPG 220430Z 06010KT CAVOK 06/01 Q1020 NOSIG
2026-04-22 04:00:00,METAR LFPG 220400Z 06013KT CAVOK 07/01 Q1020 NOSIG
2026-04-22 03:30:00,METAR LFPG 220330Z 05013KT CAVOK 07/01 Q1020 NOSIG
2026-04-22 03:00:00,METAR LFPG 220300Z 06012KT CAVOK 07/02 Q1020 NOSIG
2026-04-22 02:30:00,METAR LFPG 220230Z 06011KT CAVOK 07/02 Q1020 NOSIG
2026-04-22 02:00:00,METAR LFPG 220200Z 06012KT CAVOK 08/02 Q1020 NOSIG
2026-04-22 01:30:00,METAR LFPG 220130Z 05014KT CAVOK 08/02 Q1019 NOSIG
2026-04-22 01:00:00,METAR LFPG 220100Z 05012KT CAVOK 07/03 Q1020 NOSIG
2026-04-22 00:30:00,METAR LFPG 220030Z 05013KT CAVOK 07/03 Q1020 NOSIG
2026-04-22 00:00:00,METAR LFPG 220000Z 05011KT CAVOK 08/03 Q1020 NOSIG
2026-04-21 23:30:00,METAR LFPG 212330Z 05011KT CAVOK 08/03 Q1020 NOSIG
2026-04-21 23:00:00,METAR LFPG 212300Z 05012KT CAVOK 09/03 Q1020 NOSIG
2026-04-21 22:30:00,METAR LFPG 212230Z 05011KT CAVOK 09/02 Q1020 NOSIG
2026-04-21 22:00:00,METAR LFPG 212200Z 05010KT 030V090 CAVOK 08/02 Q1020 NOSIG
2026-04-21 21:30:00,METAR LFPG 212130Z 05010KT CAVOK 09/02 Q1020 NOSIG
2026-04-21 21:00:00,METAR LFPG 212100Z 05009KT CAVOK 10/02 Q1020 NOSIG
2026-04-21 20:30:00,METAR LFPG 212030Z 06010KT CAVOK 11/02 Q1020 NOSIG
2026-04-21 20:00:00,METAR LFPG 212000Z 06011KT CAVOK 12/02 Q1020 NOSIG
2026-04-21 19:30:00,METAR LFPG 211930Z 07012KT CAVOK 13/02 Q1020 NOSIG
2026-04-21 19:00:00,METAR LFPG 211900Z 06012KT CAVOK 13/02 Q1019 NOSIG
2026-04-21 18:30:00,METAR LFPG 211830Z 07014KT CAVOK 13/02 Q1019 NOSIG
2026-04-21 18:00:00,METAR LFPG 211800Z 08011KT CAVOK 14/02 Q1019 TEMPO 06015G25KT
2026-04-21 17:30:00,METAR LFPG 211730Z 07016KT CAVOK 15/02 Q1019 TEMPO 06015G25KT
2026-04-21 17:00:00,METAR LFPG 211700Z 07017KT CAVOK 15/03 Q1019 TEMPO 06015G25KT
2026-04-21 16:30:00,METAR LFPG 211630Z 07017KT CAVOK 15/02 Q1019 TEMPO 06015G25KT
2026-04-21 16:00:00,METAR LFPG 211600Z 08016KT 050V110 CAVOK 15/02 Q1019 TEMPO 06015G25KT
2026-04-21 15:30:00,METAR LFPG 211530Z 06018KT CAVOK 15/03 Q1019 TEMPO 06015G25KT
2026-04-21 15:00:00,METAR LFPG 211500Z 06015KT 9999 SCT043 BKN056 15/03 Q1019 TEMPO 06015G25KT
2026-04-21 14:30:00,METAR LFPG 211430Z 06014KT 9999 SCT043 BKN060 13/04 Q1020 TEMPO 06015G25KT
2026-04-21 14:00:00,METAR LFPG 211400Z 05015KT 030V090 9999 SCT043 BKN060 14/03 Q1020 TEMPO 06015G25KT
2026-04-21 13:30:00,METAR LFPG 211330Z 05016KT CAVOK 14/03 Q1020 TEMPO 06015G25KT
2026-04-21 13:00:00,METAR LFPG 211300Z 05013KT CAVOK 14/02 Q1020 TEMPO 06015G25KT
2026-04-21 12:30:00,METAR LFPG 211230Z 05014KT CAVOK 14/02 Q1020 TEMPO 06015G25KT
2026-04-21 12:00:00,METAR LFPG 211200Z 05013KT CAVOK 14/01 Q1020 TEMPO 06015G25KT
2026-04-21 11:30:00,METAR LFPG 211130Z 06015KT 030V100 CAVOK 14/M01 Q1020 NOSIG
2026-04-21 11:00:00,METAR LFPG 211100Z 06014KT 010V100 CAVOK 14/M01 Q1020 NOSIG
2026-04-21 10:30:00,METAR LFPG 211030Z 06013KT 030V090 9999 FEW046 13/M01 Q1020 NOSIG
2026-04-21 10:00:00,METAR LFPG 211000Z 06013KT 020V090 9999 FEW046 12/01 Q1021 NOSIG
2026-04-21 09:30:00,METAR LFPG 210930Z 06012KT 9999 FEW040 12/01 Q1021 NOSIG
2026-04-21 09:00:00,METAR LFPG 210900Z 06011KT CAVOK 12/02 Q1021 NOSIG
2026-04-21 08:30:00,METAR LFPG 210830Z 05010KT CAVOK 11/03 Q1021 NOSIG
2026-04-21 08:00:00,METAR LFPG 210800Z 05010KT 9000 NSC 10/04 Q1021 NOSIG
2026-04-21 07:30:00,METAR LFPG 210730Z 05010KT 8000 NSC 09/04 Q1021 NOSIG
2026-04-21 07:00:00,METAR LFPG 210700Z 04012KT 020V080 8000 NSC 08/04 Q1021 NOSIG
2026-04-21 06:30:00,METAR LFPG 210630Z 04010KT 010V080 8000 NSC 06/04 Q1020 NOSIG
2026-04-21 06:00:00,METAR LFPG 210600Z 02008KT 360V100 8000 NSC 05/04 Q1020 NOSIG
2026-04-21 05:30:00,METAR LFPG 210530Z 02008KT 360V140 CAVOK 05/03 Q1020 NOSIG
2026-04-21 05:00:00,METAR LFPG 210500Z 02008KT 360V130 CAVOK 05/03 Q1020 NOSIG
2026-04-21 04:30:00,METAR LFPG 210430Z 01007KT CAVOK 05/03 Q1020 NOSIG
2026-04-21 04:00:00,METAR LFPG 210400Z 01006KT 350V110 CAVOK 05/03 Q1020 NOSIG
2026-04-21 03:30:00,METAR LFPG 210330Z 02007KT 360V100 CAVOK 05/03 Q1020 NOSIG
2026-04-21 03:00:00,METAR LFPG 210300Z 02008KT CAVOK 05/03 Q1020 NOSIG
2026-04-21 02:30:00,METAR LFPG 210230Z 01007KT CAVOK 05/03 Q1020 NOSIG
2026-04-21 02:00:00,METAR LFPG 210200Z 01006KT 350V090 CAVOK 05/03 Q1020 NOSIG
2026-04-21 01:30:00,METAR LFPG 210130Z 02008KT 010V080 CAVOK 06/03 Q1020 NOSIG
2026-04-21 01:00:00,METAR LFPG 210100Z 02008KT CAVOK 06/03 Q1020 NOSIG
2026-04-21 00:30:00,METAR LFPG 210030Z 03008KT 010V080 CAVOK 06/03 Q1021 NOSIG
2026-04-21 00:00:00,METAR LFPG 210000Z 02009KT CAVOK 07/03 Q1021 NOSIG
2026-04-20 23:30:00,METAR LFPG 202330Z 03010KT CAVOK 07/03 Q1021 NOSIG
2026-04-20 23:00:00,METAR LFPG 202300Z 03010KT 360V080 CAVOK 08/03 Q1020 NOSIG
2026-04-20 22:30:00,METAR LFPG 202230Z 03010KT 010V080 CAVOK 08/02 Q1020 NOSIG
2026-04-20 22:00:00,METAR LFPG 202200Z 02009KT 010V090 CAVOK 08/02 Q1020 NOSIG
2026-04-20 21:30:00,METAR LFPG 202130Z 03013KT CAVOK 09/02 Q1020 NOSIG
2026-04-20 21:00:00,METAR LFPG 202100Z 03011KT CAVOK 09/02 Q1020 NOSIG
2026-04-20 20:30:00,METAR LFPG 202030Z 03008KT CAVOK 09/01 Q1020 NOSIG
2026-04-20 20:00:00,METAR LFPG 202000Z 03007KT CAVOK 10/01 Q1020 NOSIG
2026-04-20 19:30:00,METAR LFPG 201930Z 04008KT 020V090 CAVOK 10/01 Q1019 NOSIG
2026-04-20 19:00:00,METAR LFPG 201900Z 04008KT CAVOK 11/01 Q1019 NOSIG
2026-04-20 18:30:00,METAR LFPG 201830Z 04008KT CAVOK 12/01 Q1019 NOSIG
2026-04-20 18:00:00,METAR LFPG 201800Z 04011KT 020V090 CAVOK 12/01 Q1019 NOSIG
2026-04-20 17:30:00,METAR LFPG 201730Z 04012KT CAVOK 13/01 Q1019 NOSIG
2026-04-20 17:00:00,METAR LFPG 201700Z 05010KT 020V080 CAVOK 14/01 Q1019 NOSIG
2026-04-20 16:30:00,METAR LFPG 201630Z 03012KT CAVOK 15/01 Q1019 NOSIG
2026-04-20 16:00:00,METAR LFPG 201600Z 03011KT 350V050 CAVOK 15/01 Q1019 NOSIG
2026-04-20 15:30:00,METAR LFPG 201530Z 05012KT CAVOK 15/01 Q1019 NOSIG
2026-04-20 15:00:00,METAR LFPG 201500Z 05010KT 010V090 CAVOK 15/01 Q1019 NOSIG
2026-04-20 14:30:00,METAR LFPG 201430Z 05009KT 010V080 CAVOK 14/01 Q1019 NOSIG
2026-04-20 14:00:00,METAR LFPG 201400Z 04011KT CAVOK 15/01 Q1019 NOSIG
2026-04-20 13:30:00,METAR LFPG 201330Z 04013KT CAVOK 14/01 Q1020 NOSIG
2026-04-20 13:00:00,METAR LFPG 201300Z 04011KT CAVOK 14/02 Q1020 NOSIG
2026-04-20 12:30:00,METAR LFPG 201230Z 05010KT 010V090 9999 SCT048 13/02 Q1020 NOSIG
2026-04-20 12:00:00,METAR LFPG 201200Z 03013G25KT 360V130 9999 SCT046 14/03 Q1020 NOSIG
2026-04-20 11:30:00,METAR LFPG 201130Z 03011KT 350V070 9999 BKN043 14/02 Q1020 NOSIG
2026-04-20 11:00:00,METAR LFPG 201100Z 03012KT 360V060 9999 SCT041 13/03 Q1020 NOSIG
2026-04-20 10:30:00,METAR LFPG 201030Z 05012KT 9999 SCT035 12/02 Q1020 NOSIG
2026-04-20 10:00:00,METAR LFPG 201000Z 04013KT 010V080 9999 SCT028 12/03 Q1020 NOSIG
2026-04-20 09:30:00,METAR LFPG 200930Z 05013KT 010V080 9999 FEW028 12/04 Q1020 NOSIG
2026-04-20 09:00:00,METAR LFPG 200900Z 04014G26KT 9999 FEW028 11/04 Q1021 NOSIG
2026-04-20 08:30:00,METAR LFPG 200830Z 03012KT 360V060 9999 FEW022 11/05 Q1021 NOSIG
2026-04-20 08:00:00,METAR LFPG 200800Z 02012KT 360V080 9999 FEW020 10/05 Q1021 NOSIG
2026-04-20 07:30:00,METAR LFPG 200730Z 03010KT 360V100 9999 FEW014 09/05 Q1021 NOSIG
2026-04-20 07:00:00,METAR LFPG 200700Z 02009KT 360V160 CAVOK 08/05 Q1021 NOSIG
2026-04-20 06:30:00,METAR LFPG 200630Z 02009KT 360V150 9999 FEW049 08/05 Q1021 NOSIG
2026-04-20 06:00:00,METAR LFPG 200600Z 03008KT 350V160 9999 FEW048 07/05 Q1021 NOSIG
2026-04-20 05:30:00,METAR LFPG 200530Z 03008KT 360V110 9999 SCT048 07/05 Q1021 NOSIG
2026-04-20 05:00:00,METAR LFPG 200500Z 02008KT 360V130 9999 FEW048 06/05 Q1020 NOSIG
2026-04-20 04:30:00,METAR LFPG 200430Z 02007KT CAVOK 06/05 Q1020 NOSIG
2026-04-20 04:00:00,METAR LFPG 200400Z 01007KT CAVOK 06/05 Q1020 NOSIG
2026-04-20 03:30:00,METAR LFPG 200330Z 01008KT CAVOK 07/05 Q1021 NOSIG
2026-04-20 03:00:00,METAR LFPG 200300Z 01007KT CAVOK 07/05 Q1021 NOSIG
2026-04-20 02:30:00,METAR LFPG 200230Z 01008KT CAVOK 07/05 Q1021 NOSIG
2026-04-20 02:00:00,METAR LFPG 200200Z 01007KT CAVOK 08/05 Q1021 NOSIG
2026-04-20 01:30:00,METAR LFPG 200130Z 02009KT CAVOK 09/05 Q1021 NOSIG
2026-04-20 01:00:00,METAR LFPG 200100Z 03009KT 9999 FEW048 BKN220 09/05 Q1021 NOSIG
2026-04-20 00:30:00,METAR LFPG 200030Z 02008KT CAVOK 09/05 Q1022 NOSIG
2026-04-20 00:00:00,METAR LFPG 200000Z 02008KT CAVOK 09/05 Q1022 NOSIG
2026-04-19 23:30:00,METAR LFPG 192330Z 02008KT CAVOK 09/05 Q1022 NOSIG
2026-04-19 23:00:00,METAR LFPG 192300Z 02009KT CAVOK 10/05 Q1022 NOSIG
2026-04-19 22:30:00,METAR LFPG 192230Z 02010KT CAVOK 10/05 Q1022 NOSIG
2026-04-19 22:00:00,METAR LFPG 192200Z 02009KT 360V070 CAVOK 11/05 Q1022 NOSIG
2026-04-19 21:30:00,METAR LFPG 192130Z 02010KT 350V080 CAVOK 11/05 Q1022 NOSIG
2026-04-19 21:00:00,METAR LFPG 192100Z 02012KT 010V070 CAVOK 12/05 Q1022 NOSIG
2026-04-19 20:30:00,METAR LFPG 192030Z 02011KT 010V080 CAVOK 12/05 Q1022 NOSIG
2026-04-19 20:00:00,METAR LFPG 192000Z 02009KT 360V110 CAVOK 13/05 Q1022 NOSIG
2026-04-19 19:30:00,METAR LFPG 191930Z 01007KT CAVOK 13/05 Q1022 NOSIG
2026-04-19 19:00:00,METAR LFPG 191900Z 02007KT 010V110 CAVOK 14/05 Q1021 NOSIG
2026-04-19 18:30:00,METAR LFPG 191830Z 03005KT 360V100 CAVOK 14/05 Q1021 NOSIG
2026-04-19 18:00:00,METAR LFPG 191800Z 02008KT 360V100 CAVOK 15/05 Q1021 NOSIG
2026-04-19 17:30:00,METAR LFPG 191730Z 06007KT CAVOK 15/05 Q1021 NOSIG
2026-04-19 17:00:00,METAR LFPG 191700Z 06008KT 030V090 CAVOK 16/04 Q1021 NOSIG
2026-04-19 16:30:00,METAR LFPG 191630Z 06006KT CAVOK 16/04 Q1021 NOSIG
2026-04-19 16:00:00,METAR LFPG 191600Z 03007KT 320V080 CAVOK 16/04 Q1022 NOSIG
2026-04-19 15:30:00,METAR LFPG 191530Z 02009KT CAVOK 16/04 Q1022 NOSIG
2026-04-19 15:00:00,METAR LFPG 191500Z 01009KT 320V050 CAVOK 17/04 Q1022 NOSIG
2026-04-19 14:30:00,METAR LFPG 191430Z 02008KT 350V050 CAVOK 16/03 Q1022 NOSIG
2026-04-19 14:00:00,METAR LFPG 191400Z 04007G17KT 330V090 CAVOK 16/02 Q1022 NOSIG
2026-04-19 13:30:00,METAR LFPG 191330Z 01008KT 340V050 9999 FEW049 BKN260 16/05 Q1023 NOSIG
2026-04-19 13:00:00,METAR LFPG 191300Z VRB06G17KT 9999 FEW048 SCT260 17/05 Q1023 NOSIG
2026-04-19 12:30:00,METAR LFPG 191230Z 01007KT 310V070 CAVOK 16/04 Q1023 NOSIG
2026-04-19 12:00:00,METAR LFPG 191200Z 01009KT 330V040 CAVOK 16/04 Q1023 NOSIG
2026-04-19 11:30:00,METAR LFPG 191130Z 04008KT 350V070 CAVOK 15/05 Q1024 NOSIG
2026-04-19 11:00:00,METAR LFPG 191100Z 02006KT 330V070 9999 FEW038 SCT260 16/06 Q1024 NOSIG
2026-04-19 10:30:00,METAR LFPG 191030Z 01007KT 320V060 9999 FEW029 SCT260 15/07 Q1024 NOSIG
2026-04-19 10:00:00,METAR LFPG 191000Z 36006KT 9999 FEW026 SCT260 14/07 Q1024 NOSIG
2026-04-19 09:30:00,METAR LFPG 190930Z 33005KT 280V030 9999 FEW020 SCT260 14/09 Q1024 NOSIG
2026-04-19 09:00:00,METAR LFPG 190900Z 34005KT 300V050 9999 FEW016 SCT260 12/08 Q1024 NOSIG
2026-04-19 08:30:00,METAR LFPG 190830Z 31004KT 250V020 9999 SCT008 SCT260 10/08 Q1024 BECMG CAVOK
2026-04-19 08:00:00,METAR LFPG 190800Z 31004KT 280V360 8000 BKN005 08/07 Q1024 BECMG CAVOK
2026-04-19 07:30:00,METAR LFPG 190730Z 32005KT 290V350 5000 BR FEW003 BKN004 08/07 Q1024 BECMG CAVOK
2026-04-19 07:00:00,METAR LFPG 190700Z VRB03KT 1200 R27L/2000U R09R/1300U R26R/P2000 R08L/P2000 R26L/1700U R08R/P2000 R27R/1700U R09L/1000U BR BKN002 07/07 Q1023 BECMG 4000 BR BKN004
2026-04-19 06:30:00,METAR LFPG 190630Z 33006KT 1200 0500N R27L/0900U R09R/0650N R26R/1600N R08L/1200N R26L/1700U R08R/1500N R27R/0800U R09L/0700N BCFG BR BKN001 OVC002 07/06 Q1023 BECMG 4000 BR BKN004
2026-04-19 06:00:00,METAR LFPG 190600Z 34005KT 2000 0550N R27L/0650D R09R/0600U R26R/P2000 R08L/1900U R26L/P2000 R08R/1900U R27R/0800D R09L/0500D BCFG BR BKN001 OVC002 06/06 Q1023 TEMPO 0600 FG BKN001
2026-04-19 05:34:00,METAR LFPG 190534Z VRB02KT 2000 0550N R27L/0800U R09R/0275N R26R/P2000 R08L/1300U R26L/P2000 R08R/1600D R27R/0500D R09L/0900U BCFG BR BKN001 OVC002 07/06 Q1023 TEMPO 0600 FG BKN001
2026-04-19 05:30:00,METAR LFPG 190530Z VRB02KT 2000 0550N R27L/0700D R09R/0325N R26R/P2000 R08L/1300D R26L/P2000 R08R/1700D R27R/0700D R09L/0800N PRFG BR BKN001 OVC002 07/06 Q1022 TEMPO 0600 FG BKN001
2026-04-19 05:00:00,METAR LFPG 190500Z 35004KT 310V030 1000 0650 R27L/1400U R09R/0900D R26R/P2000 R08L/1900U R26L/P2000 R08R/1900D R27R/1500D R09L/1000D BCFG BR SCT001 OVC002 07/06 Q1022 TEMPO 0600 FG BKN001
2026-04-19 04:30:00,METAR LFPG 190430Z 36008KT 1100 R27L/1400D R09R/1300N R26R/P2000 R08L/P2000 R26L/P2000 R08R/P2000 R27R/1700U R09L/1900N BR SCT001 BKN002 07/06 Q1022 TEMPO 0600 FG BKN001
2026-04-19 04:00:00,METAR LFPG 190400Z 01006KT 1600 BR OVC002 07/07 Q1022 TEMPO 0600 FG BKN001
2026-04-19 03:30:00,METAR LFPG 190330Z 01006KT 9999 BKN005 07/06 Q1022 BECMG 3000 BR
2026-04-19 03:00:00,METAR LFPG 190300Z 34005KT 9999 FEW008 06/06 Q1022 BECMG 3000 BR
2026-04-19 02:30:00,METAR LFPG 190230Z 34005KT CAVOK 07/06 Q1022 BECMG 3000 BR
2026-04-19 02:00:00,METAR LFPG 190200Z 35006KT CAVOK 07/06 Q1022 BECMG 3000 BR
2026-04-19 01:30:00,METAR LFPG 190130Z 36005KT CAVOK 07/06 Q1022 BECMG 3000 BR
2026-04-19 01:00:00,METAR LFPG 190100Z 35005KT CAVOK 07/05 Q1022 BECMG 3000 BR
2026-04-19 00:30:00,METAR LFPG 190030Z 35006KT CAVOK 08/06 Q1022 NOSIG
2026-04-19 00:00:00,METAR LFPG 190000Z 33007KT CAVOK 08/06 Q1022 NOSIG
2026-04-18 23:30:00,METAR LFPG 182330Z 34008KT CAVOK 09/06 Q1022 NOSIG
2026-04-18 23:00:00,METAR LFPG 182300Z 33008KT 9999 FEW031 09/06 Q1022 NOSIG
2026-04-18 22:30:00,METAR LFPG 182230Z 32010KT 9999 FEW043 11/06 Q1022 NOSIG
2026-04-18 22:00:00,METAR LFPG 182200Z 34010KT 9999 BKN043 11/05 Q1022 NOSIG
2026-04-18 21:30:00,METAR LFPG 182130Z 34010KT 9999 BKN043 12/04 Q1022 NOSIG
2026-04-18 21:00:00,METAR LFPG 182100Z 33008KT 9999 BKN043 12/06 Q1022 NOSIG
2026-04-18 20:30:00,METAR LFPG 182030Z 34009KT 9999 SCT046 12/07 Q1022 NOSIG
2026-04-18 20:00:00,METAR LFPG 182000Z 35011KT 9999 BKN040 13/07 Q1022 NOSIG
2026-04-18 19:30:00,METAR LFPG 181930Z 34012KT 9999 FEW025 BKN036 14/08 Q1021 NOSIG
2026-04-18 19:00:00,METAR LFPG 181900Z 34012KT 9999 FEW020 BKN033 14/08 Q1021 NOSIG
2026-04-18 18:30:00,METAR LFPG 181830Z 34011KT 9999 FEW020 BKN033 14/10 Q1021 NOSIG
2026-04-18 18:00:00,METAR LFPG 181800Z 33012KT 9999 BKN040 BKN070 15/10 Q1021 NOSIG
2026-04-18 17:30:00,METAR LFPG 181730Z 34013KT 9999 FEW040 BKN073 BKN260 15/11 Q1020 NOSIG
2026-04-18 17:00:00,METAR LFPG 181700Z 34014KT CAVOK 17/11 Q1020 NOSIG
2026-04-18 16:30:00,METAR LFPG 181630Z 35013KT 9999 SCT045 SCT260 17/11 Q1020 NOSIG
2026-04-18 16:00:00,METAR LFPG 181600Z 34012KT 9999 SCT043 SCT260 18/11 Q1020 NOSIG
2026-04-18 15:00:00,METAR LFPG 181500Z 35012KT CAVOK 20/12 Q1020 NOSIG
2026-04-18 14:30:00,METAR LFPG 181430Z 33009KT 280V010 CAVOK 21/10 Q1020 NOSIG
2026-04-18 14:00:00,METAR LFPG 181400Z 34008KT 310V020 CAVOK 21/09 Q1020 NOSIG
2026-04-18 13:30:00,METAR LFPG 181330Z 31007KT 210V010 CAVOK 22/08 Q1020 NOSIG
2026-04-18 13:00:00,METAR LFPG 181300Z 31007KT 260V350 CAVOK 22/09 Q1020 NOSIG
2026-04-18 12:30:00,METAR LFPG 181230Z 31008KT 280V340 CAVOK 21/09 Q1020 NOSIG
2026-04-18 12:00:00,METAR LFPG 181200Z 29005KT 250V310 CAVOK 21/08 Q1020 NOSIG
2026-04-18 11:30:00,METAR LFPG 181130Z 34007KT CAVOK 20/09 Q1020 NOSIG
2026-04-18 11:00:00,METAR LFPG 181100Z VRB03KT CAVOK 20/09 Q1021 NOSIG
2026-04-18 10:30:00,METAR LFPG 181030Z 29005KT 260V340 CAVOK 19/09 Q1021 NOSIG
2026-04-18 10:00:00,METAR LFPG 181000Z 29004KT 210V330 CAVOK 19/08 Q1021 NOSIG
2026-04-18 09:30:00,METAR LFPG 180930Z 22006KT 180V280 CAVOK 19/08 Q1021 NOSIG
2026-04-18 09:00:00,METAR LFPG 180900Z 26005KT 230V290 CAVOK 17/07 Q1021 NOSIG
2026-04-18 08:30:00,METAR LFPG 180830Z VRB05KT CAVOK 17/09 Q1021 NOSIG
2026-04-18 08:00:00,METAR LFPG 180800Z 14004KT CAVOK 16/09 Q1021 NOSIG
2026-04-18 07:30:00,METAR LFPG 180730Z 15005KT CAVOK 15/08 Q1021 NOSIG
2026-04-18 07:00:00,METAR LFPG 180700Z 15006KT CAVOK 15/08 Q1021 NOSIG
2026-04-18 06:30:00,METAR LFPG 180630Z 15004KT CAVOK 14/08 Q1021 NOSIG
2026-04-18 06:00:00,METAR LFPG 180600Z 16002KT CAVOK 13/07 Q1021 NOSIG
2026-04-18 05:30:00,METAR LFPG 180530Z 15004KT CAVOK 12/07 Q1020 NOSIG
2026-04-18 05:00:00,METAR LFPG 180500Z 13002KT CAVOK 11/07 Q1020 NOSIG
2026-04-18 04:30:00,METAR LFPG 180430Z 12002KT CAVOK 11/07 Q1020 NOSIG
2026-04-18 04:00:00,METAR LFPG 180400Z 12002KT CAVOK 11/08 Q1020 NOSIG
2026-04-18 03:30:00,METAR LFPG 180330Z 07004KT CAVOK 11/07 Q1020 NOSIG
2026-04-18 03:00:00,METAR LFPG 180300Z 11004KT CAVOK 12/08 Q1020 NOSIG
2026-04-18 02:30:00,METAR LFPG 180230Z VRB02KT CAVOK 12/07 Q1021 NOSIG
2026-04-18 02:00:00,METAR LFPG 180200Z VRB02KT CAVOK 13/08 Q1021 NOSIG
2026-04-18 01:30:00,METAR LFPG 180130Z 14006KT CAVOK 13/08 Q1021 NOSIG
2026-04-18 01:00:00,METAR LFPG 180100Z 15006KT CAVOK 14/07 Q1021 NOSIG
2026-04-18 00:30:00,METAR LFPG 180030Z 13004KT CAVOK 16/07 Q1021 NOSIG
2026-04-18 00:00:00,METAR LFPG 180000Z 10006KT CAVOK 16/07 Q1021 NOSIG
2026-04-17 23:30:00,METAR LFPG 172330Z 11005KT CAVOK 16/07 Q1021 NOSIG
2026-04-17 23:00:00,METAR LFPG 172300Z 10004KT CAVOK 16/08 Q1021 NOSIG
2026-04-17 22:30:00,METAR LFPG 172230Z 09004KT CAVOK 16/08 Q1021 NOSIG
2026-04-17 22:00:00,METAR LFPG 172200Z 08004KT CAVOK 15/09 Q1021 NOSIG
2026-04-17 21:30:00,METAR LFPG 172130Z 07004KT CAVOK 15/09 Q1021 NOSIG
2026-04-17 21:00:00,METAR LFPG 172100Z 05006KT CAVOK 15/09 Q1021 NOSIG
2026-04-17 20:30:00,METAR LFPG 172030Z 05004KT CAVOK 16/09 Q1021 NOSIG
2026-04-17 20:00:00,METAR LFPG 172000Z 03004KT CAVOK 16/09 Q1021 NOSIG
2026-04-17 19:30:00,METAR LFPG 171930Z 04004KT CAVOK 17/09 Q1021 NOSIG
2026-04-17 19:00:00,METAR LFPG 171900Z 02004KT CAVOK 17/09 Q1021 NOSIG
2026-04-17 18:30:00,METAR LFPG 171830Z 01004KT CAVOK 18/09 Q1021 NOSIG
2026-04-17 18:00:00,METAR LFPG 171800Z 01003KT CAVOK 19/08 Q1021 NOSIG
2026-04-17 17:30:00,METAR LFPG 171730Z 01002KT CAVOK 19/07 Q1020 NOSIG
2026-04-17 17:00:00,METAR LFPG 171700Z VRB03KT CAVOK 20/07 Q1020 NOSIG
2026-04-17 16:30:00,METAR LFPG 171630Z 34003KT 290V020 CAVOK 20/07 Q1021 NOSIG
2026-04-17 16:00:00,METAR LFPG 171600Z 34005KT CAVOK 20/08 Q1020 NOSIG
2026-04-17 15:30:00,METAR LFPG 171530Z 33004KT 290V010 CAVOK 20/07 Q1021 NOSIG
2026-04-17 15:00:00,METAR LFPG 171500Z 05003KT 020V110 CAVOK 20/07 Q1021 NOSIG
2026-04-17 14:30:00,METAR LFPG 171430Z 03004KT CAVOK 20/06 Q1021 NOSIG
2026-04-17 14:00:00,METAR LFPG 171400Z VRB02KT CAVOK 20/06 Q1021 NOSIG
2026-04-17 13:30:00,METAR LFPG 171330Z VRB01KT CAVOK 20/07 Q1021 NOSIG
2026-04-17 13:00:00,METAR LFPG 171300Z VRB03KT CAVOK 21/06 Q1021 NOSIG
2026-04-17 12:30:00,METAR LFPG 171230Z 17004KT 130V240 CAVOK 21/07 Q1021 NOSIG
2026-04-17 12:00:00,METAR LFPG 171200Z 14005KT CAVOK 20/06 Q1021 NOSIG
2026-04-17 11:30:00,METAR LFPG 171130Z VRB03KT CAVOK 19/06 Q1022 NOSIG
2026-04-17 11:00:00,METAR LFPG 171100Z VRB03KT CAVOK 19/07 Q1022 NOSIG
2026-04-17 10:30:00,METAR LFPG 171030Z VRB03KT CAVOK 19/06 Q1022 NOSIG
2026-04-17 10:00:00,METAR LFPG 171000Z VRB03KT CAVOK 18/06 Q1022 NOSIG
2026-04-17 09:30:00,METAR LFPG 170930Z VRB05KT CAVOK 18/07 Q1022 NOSIG
2026-04-17 09:00:00,METAR LFPG 170900Z 22005KT 170V270 CAVOK 17/06 Q1022 NOSIG
2026-04-17 08:30:00,METAR LFPG 170830Z VRB04KT CAVOK 16/07 Q1022 NOSIG
2026-04-17 08:00:00,METAR LFPG 170800Z 20004KT 140V240 CAVOK 15/06 Q1022 NOSIG
2026-04-17 07:30:00,METAR LFPG 170730Z VRB03KT CAVOK 14/06 Q1022 NOSIG
2026-04-17 07:00:00,METAR LFPG 170700Z 15004KT CAVOK 13/06 Q1022 NOSIG
2026-04-17 06:30:00,METAR LFPG 170630Z 15005KT 100V190 CAVOK 12/06 Q1022 NOSIG
2026-04-17 06:00:00,METAR LFPG 170600Z 14005KT CAVOK 11/06 Q1022 NOSIG
2026-04-17 05:30:00,METAR LFPG 170530Z 15005KT CAVOK 09/06 Q1022 NOSIG
2026-04-17 05:00:00,METAR LFPG 170500Z 14005KT CAVOK 09/06 Q1021 NOSIG
2026-04-17 04:30:00,METAR LFPG 170430Z 12002KT CAVOK 09/06 Q1021 NOSIG
2026-04-17 04:00:00,METAR LFPG 170400Z 14004KT CAVOK 10/06 Q1021 NOSIG
2026-04-17 03:30:00,METAR LFPG 170330Z VRB01KT CAVOK 10/06 Q1021 NOSIG
2026-04-17 03:00:00,METAR LFPG 170300Z 13003KT CAVOK 11/06 Q1022 NOSIG
2026-04-17 02:30:00,METAR LFPG 170230Z 14005KT CAVOK 11/06 Q1022 NOSIG
2026-04-17 02:00:00,METAR LFPG 170200Z 14004KT CAVOK 11/06 Q1022 NOSIG
2026-04-17 01:30:00,METAR LFPG 170130Z 14004KT CAVOK 10/06 Q1022 NOSIG
2026-04-17 01:00:00,METAR LFPG 170100Z 11004KT CAVOK 11/06 Q1022 NOSIG
2026-04-17 00:30:00,METAR LFPG 170030Z 12002KT CAVOK 11/06 Q1022 NOSIG
2026-04-17 00:00:00,METAR LFPG 170000Z 13002KT CAVOK 12/06 Q1022 NOSIG
2026-04-16 23:30:00,METAR LFPG 162330Z 14003KT CAVOK 12/06 Q1022 NOSIG
2026-04-16 23:00:00,METAR LFPG 162300Z VRB03KT CAVOK 12/06 Q1022 NOSIG
2026-04-16 22:30:00,METAR LFPG 162230Z 15004KT CAVOK 13/06 Q1022 NOSIG
2026-04-16 22:00:00,METAR LFPG 162200Z 16005KT 100V190 CAVOK 13/06 Q1022 NOSIG
2026-04-16 21:30:00,METAR LFPG 162130Z 15006KT CAVOK 14/06 Q1022 NOSIG
2026-04-16 21:00:00,METAR LFPG 162100Z 14005KT CAVOK 15/05 Q1022 NOSIG
2026-04-16 20:30:00,METAR LFPG 162030Z 09006KT CAVOK 15/05 Q1022 NOSIG
2026-04-16 20:00:00,METAR LFPG 162000Z 07005KT CAVOK 15/05 Q1022 NOSIG
2026-04-16 19:30:00,METAR LFPG 161930Z 05005KT 360V090 CAVOK 16/05 Q1022 NOSIG
2026-04-16 19:00:00,METAR LFPG 161900Z 09005KT 060V120 CAVOK 17/05 Q1021 NOSIG
2026-04-16 18:30:00,METAR LFPG 161830Z 03004KT CAVOK 17/05 Q1021 NOSIG
2026-04-16 18:00:00,METAR LFPG 161800Z 03004KT CAVOK 17/05 Q1021 NOSIG
2026-04-16 17:30:00,METAR LFPG 161730Z 05003KT 010V120 CAVOK 18/05 Q1021 NOSIG
2026-04-16 17:00:00,METAR LFPG 161700Z VRB02KT CAVOK 18/05 Q1022 NOSIG
2026-04-16 16:30:00,METAR LFPG 161630Z VRB02KT CAVOK 18/05 Q1022 NOSIG
2026-04-16 16:00:00,METAR LFPG 161600Z VRB03KT CAVOK 18/05 Q1022 NOSIG
2026-04-16 15:30:00,METAR LFPG 161530Z 03005KT 360V060 CAVOK 18/06 Q1022 NOSIG
2026-04-16 15:00:00,METAR LFPG 161500Z 36003KT 310V070 CAVOK 19/06 Q1022 NOSIG
2026-04-16 14:30:00,METAR LFPG 161430Z VRB02KT CAVOK 18/05 Q1022 NOSIG
2026-04-16 14:00:00,METAR LFPG 161400Z VRB01KT CAVOK 19/07 Q1022 NOSIG
2026-04-16 13:30:00,METAR LFPG 161330Z VRB04KT CAVOK 18/06 Q1023 NOSIG
2026-04-16 13:00:00,METAR LFPG 161300Z 26007KT 220V300 CAVOK 17/06 Q1023 NOSIG
2026-04-16 12:30:00,METAR LFPG 161230Z 28005KT 210V320 CAVOK 18/07 Q1023 NOSIG
2026-04-16 12:00:00,METAR LFPG 161200Z 24008KT 190V300 9999 SCT048 BKN260 17/06 Q1023 NOSIG
2026-04-16 11:30:00,METAR LFPG 161130Z 24005KT 200V310 9999 SCT036 BKN260 16/06 Q1023 NOSIG
2026-04-16 11:00:00,METAR LFPG 161100Z VRB06KT 9999 SCT036 BKN260 15/06 Q1023 NOSIG
2026-04-16 10:30:00,METAR LFPG 161030Z 23006KT 190V260 9999 SCT032 BKN260 16/07 Q1023 NOSIG
2026-04-16 10:00:00,METAR LFPG 161000Z 25007KT 200V300 9999 SCT027 BKN260 15/07 Q1023 NOSIG
2026-04-16 09:30:00,METAR LFPG 160930Z 23005KT 190V270 9999 SCT026 BKN260 14/08 Q1023 NOSIG
2026-04-16 09:00:00,METAR LFPG 160900Z 24006KT 200V310 9999 SCT020 BKN260 13/08 Q1023 NOSIG
2026-04-16 08:30:00,METAR LFPG 160830Z 26007KT 230V290 9999 BKN017 BKN260 13/08 Q1023 NOSIG
2026-04-16 08:00:00,METAR LFPG 160800Z 25009KT 9999 BKN013 BKN260 13/09 Q1023 TEMPO BKN008
2026-04-16 07:30:00,METAR LFPG 160730Z 24010KT 210V280 9999 SCT012 BKN260 12/08 Q1023 TEMPO BKN008
2026-04-16 07:00:00,METAR LFPG 160700Z 24009KT 9999 FEW016 BKN260 11/09 Q1022 NOSIG
2026-04-16 06:30:00,METAR LFPG 160630Z 24007KT 220V280 CAVOK 11/09 Q1022 NOSIG
2026-04-16 06:00:00,METAR LFPG 160600Z 24007KT 210V270 CAVOK 10/09 Q1022 NOSIG
2026-04-16 05:30:00,METAR LFPG 160530Z 22006KT 190V260 CAVOK 10/09 Q1022 NOSIG
2026-04-16 05:00:00,METAR LFPG 160500Z 23005KT CAVOK 10/09 Q1022 NOSIG
2026-04-16 04:30:00,METAR LFPG 160430Z 24005KT CAVOK 10/09 Q1022 NOSIG
2026-04-16 04:00:00,METAR LFPG 160400Z 24005KT CAVOK 10/09 Q1021 NOSIG
2026-04-16 03:30:00,METAR LFPG 160330Z 25007G18KT 210V290 CAVOK 11/09 Q1021 NOSIG
2026-04-16 03:00:00,METAR LFPG 160300Z 26005KT CAVOK 11/09 Q1021 NOSIG
2026-04-16 02:30:00,METAR LFPG 160230Z 26006KT CAVOK 12/09 Q1021 NOSIG
2026-04-16 02:00:00,METAR LFPG 160200Z 25008KT 9999 FEW035 12/10 Q1021 NOSIG
2026-04-16 01:30:00,METAR LFPG 160130Z 25009KT 9999 FEW035 13/10 Q1021 NOSIG
2026-04-16 01:00:00,METAR LFPG 160100Z 24009KT 9999 FEW035 SCT075 13/10 Q1021 NOSIG
2026-04-16 00:30:00,METAR LFPG 160030Z 24008KT 9999 SCT035 SCT075 13/10 Q1021 NOSIG
2026-04-16 00:00:00,METAR LFPG 160000Z 25007KT CAVOK 14/10 Q1021 NOSIG
2026-04-15 23:30:00,METAR LFPG 152330Z 25008KT CAVOK 14/10 Q1021 NOSIG
2026-04-15 23:00:00,METAR LFPG 152300Z 27009KT CAVOK 15/10 Q1021 NOSIG
2026-04-15 22:30:00,METAR LFPG 152230Z 25010KT CAVOK 16/10 Q1020 NOSIG
2026-04-15 22:00:00,METAR LFPG 152200Z 25009KT CAVOK 16/11 Q1020 NOSIG
2026-04-15 21:30:00,METAR LFPG 152130Z 23007KT CAVOK 16/11 Q1020 NOSIG
2026-04-15 21:00:00,METAR LFPG 152100Z 21008KT CAVOK 16/11 Q1020 NOSIG
2026-04-15 20:30:00,METAR LFPG 152030Z 19007G18KT 150V240 CAVOK 16/11 Q1020 NOSIG
2026-04-15 20:00:00,METAR LFPG 152000Z 19007KT 9999 FEW014 BKN076 16/10 Q1020 NOSIG
2026-04-15 19:30:00,METAR LFPG 151930Z 21008KT 9999 FEW035 BKN076 22/11 Q1020 NOSIG
2026-04-15 19:00:00,METAR LFPG 151900Z 21008G22KT 190V300 9999 FEW033 BKN078 16/10 Q1019 NOSIG
2026-04-15 18:30:00,METAR LFPG 151830Z 21007KT 190V270 9999 FEW032 BKN078 17/10 Q1019 NOSIG
2026-04-15 18:00:00,METAR LFPG 151800Z 21009KT 9999 FEW033 SCT076 18/10 Q1019 NOSIG
2026-04-15 17:30:00,METAR LFPG 151730Z 22009KT 190V310 9999 SCT033 18/10 Q1019 NOSIG
2026-04-15 17:00:00,METAR LFPG 151700Z 21009KT 9999 SCT033 18/10 Q1019 NOSIG
2026-04-15 16:30:00,METAR LFPG 151630Z 22010KT 9999 SCT036 18/10 Q1019 NOSIG
2026-04-15 16:00:00,METAR LFPG 151600Z 21010KT 9999 SCT040 18/10 Q1019 NOSIG
2026-04-15 15:30:00,METAR LFPG 151530Z 22012KT 9999 FEW040 BKN080 18/10 Q1019 NOSIG
2026-04-15 15:00:00,METAR LFPG 151500Z 21012KT 9999 FEW036 BKN070 18/08 Q1019 NOSIG
2026-04-15 14:30:00,METAR LFPG 151430Z 23012KT 9999 FEW036 OVC041 18/08 Q1019 NOSIG
2026-04-15 14:00:00,METAR LFPG 151400Z 22012KT 190V250 9999 BKN045 18/07 Q1020 NOSIG
2026-04-15 13:30:00,METAR LFPG 151330Z 20013KT 9999 BKN043 18/06 Q1019 TEMPO 19015G25KT
2026-04-15 13:00:00,METAR LFPG 151300Z 21014KT 9999 BKN043 18/05 Q1019 TEMPO 19015G25KT
2026-04-15 12:30:00,METAR LFPG 151230Z 21013KT 170V250 9999 OVC043 18/05 Q1020 TEMPO 19015G25KT
2026-04-15 12:00:00,METAR LFPG 151200Z 22014KT 9999 OVC043 17/05 Q1020 TEMPO 19015G25KT
2026-04-15 11:30:00,METAR LFPG 151130Z 21015KT CAVOK 18/04 Q1020 TEMPO 19015G25KT
2026-04-15 11:00:00,METAR LFPG 151100Z 20014KT 140V220 CAVOK 18/03 Q1020 TEMPO 19015G25KT
2026-04-15 10:30:00,METAR LFPG 151030Z 18014KT CAVOK 18/04 Q1020 TEMPO 19015G25KT
2026-04-15 10:00:00,METAR LFPG 151000Z 19012KT 160V220 CAVOK 17/03 Q1020 TEMPO 19015G25KT
2026-04-15 09:30:00,METAR LFPG 150930Z 19012G23KT 110V220 CAVOK 17/03 Q1021 NOSIG
2026-04-15 09:00:00,METAR LFPG 150900Z 18011KT 150V210 CAVOK 16/04 Q1021 NOSIG
2026-04-15 08:30:00,METAR LFPG 150830Z 18009KT CAVOK 15/04 Q1021 NOSIG
2026-04-15 08:00:00,METAR LFPG 150800Z 17008KT CAVOK 13/05 Q1021 NOSIG
2026-04-15 07:30:00,METAR LFPG 150730Z 15007KT 110V180 CAVOK 12/05 Q1021 NOSIG
2026-04-15 07:00:00,METAR LFPG 150700Z 15007KT CAVOK 10/05 Q1021 NOSIG
2026-04-15 06:30:00,METAR LFPG 150630Z 14007KT CAVOK 10/04 Q1021 NOSIG
2026-04-15 06:00:00,METAR LFPG 150600Z 14006KT CAVOK 09/04 Q1021 NOSIG
2026-04-15 05:30:00,METAR LFPG 150530Z 15007KT CAVOK 08/03 Q1021 NOSIG
2026-04-15 05:00:00,METAR LFPG 150500Z 14006KT CAVOK 08/03 Q1021 NOSIG
2026-04-15 04:30:00,METAR LFPG 150430Z 14005KT CAVOK 08/03 Q1020 NOSIG
2026-04-15 04:00:00,METAR LFPG 150400Z 16004KT 110V190 CAVOK 09/03 Q1021 NOSIG
2026-04-15 03:30:00,METAR LFPG 150330Z 14006KT CAVOK 09/03 Q1021 NOSIG
2026-04-15 03:00:00,METAR LFPG 150300Z 15005KT CAVOK 09/03 Q1021 NOSIG
2026-04-15 02:30:00,METAR LFPG 150230Z 13005KT CAVOK 10/03 Q1021 NOSIG
2026-04-15 02:00:00,METAR LFPG 150200Z 15003KT CAVOK 10/03 Q1021 NOSIG
2026-04-15 01:30:00,METAR LFPG 150130Z 14003KT CAVOK 09/03 Q1021 NOSIG
2026-04-15 01:00:00,METAR LFPG 150100Z 14007KT CAVOK 10/02 Q1021 NOSIG
2026-04-15 00:30:00,METAR LFPG 150030Z 15007KT CAVOK 10/02 Q1021 NOSIG
2026-04-15 00:00:00,METAR LFPG 150000Z 15007KT CAVOK 10/02 Q1021 NOSIG
2026-04-14 23:30:00,METAR LFPG 142330Z 15007KT CAVOK 11/02 Q1021 NOSIG
2026-04-14 23:00:00,METAR LFPG 142300Z 15007KT CAVOK 11/02 Q1021 NOSIG
2026-04-14 22:30:00,METAR LFPG 142230Z 15008KT CAVOK 12/02 Q1021 NOSIG
2026-04-14 22:00:00,METAR LFPG 142200Z 15008KT CAVOK 12/02 Q1022 NOSIG
2026-04-14 21:30:00,METAR LFPG 142130Z 14008KT CAVOK 12/03 Q1021 NOSIG
2026-04-14 21:00:00,METAR LFPG 142100Z 15007KT CAVOK 13/03 Q1022 NOSIG
2026-04-14 20:30:00,METAR LFPG 142030Z 16007KT CAVOK 13/03 Q1022 NOSIG
2026-04-14 20:00:00,METAR LFPG 142000Z 15008KT CAVOK 14/03 Q1021 NOSIG
2026-04-14 19:30:00,METAR LFPG 141930Z 17006KT 100V200 CAVOK 14/03 Q1021 NOSIG
2026-04-14 19:00:00,METAR LFPG 141900Z 17005KT 130V190 CAVOK 15/03 Q1020 NOSIG
2026-04-14 18:30:00,METAR LFPG 141830Z 16007KT CAVOK 15/02 Q1020 NOSIG
2026-04-14 18:00:00,METAR LFPG 141800Z 19005KT CAVOK 16/02 Q1020 NOSIG
2026-04-14 17:30:00,METAR LFPG 141730Z 20006KT 170V230 CAVOK 17/01 Q1020 NOSIG
2026-04-14 17:00:00,METAR LFPG 141700Z 21006KT 180V250 CAVOK 17/01 Q1020 NOSIG
2026-04-14 16:30:00,METAR LFPG 141630Z 23007KT CAVOK 18/00 Q1020 NOSIG
2026-04-14 16:00:00,METAR LFPG 141600Z 26004KT 210V310 CAVOK 18/01 Q1020 NOSIG
2026-04-14 15:30:00,METAR LFPG 141530Z 19005KT 100V260 CAVOK 18/02 Q1020 NOSIG
2026-04-14 15:00:00,METAR LFPG 141500Z VRB03KT CAVOK 17/02 Q1020 NOSIG
2026-04-14 14:30:00,METAR LFPG 141430Z VRB05KT CAVOK 17/00 Q1020 NOSIG
2026-04-14 14:00:00,METAR LFPG 141400Z 15004KT 090V240 CAVOK 17/00 Q1020 NOSIG
2026-04-14 13:30:00,METAR LFPG 141330Z 20004KT 160V250 CAVOK 17/01 Q1020 NOSIG
2026-04-14 13:00:00,METAR LFPG 141300Z 20003KT 130V260 CAVOK 16/02 Q1020 NOSIG
2026-04-14 12:30:00,METAR LFPG 141230Z VRB04KT 9999 FEW048 SCT260 15/03 Q1021 NOSIG
2026-04-14 12:00:00,METAR LFPG 141200Z 14007KT 090V190 9999 SCT045 SCT260 15/03 Q1021 NOSIG
2026-04-14 11:30:00,METAR LFPG 141130Z VRB04KT 9999 SCT040 14/03 Q1021 NOSIG
2026-04-14 11:00:00,METAR LFPG 141100Z 14006KT 070V220 9999 SCT036 14/04 Q1021 NOSIG
2026-04-14 10:30:00,METAR LFPG 141030Z 19004KT 150V250 9999 FEW033 14/04 Q1021 NOSIG
2026-04-14 10:00:00,METAR LFPG 141000Z 11006KT 040V190 9999 FEW032 13/05 Q1021 NOSIG
2026-04-14 09:30:00,METAR LFPG 140930Z 14006KT 100V180 9999 FEW024 12/06 Q1021 NOSIG
2026-04-14 09:00:00,METAR LFPG 140900Z 13006KT 080V180 9999 FEW021 12/06 Q1021 NOSIG
2026-04-14 08:30:00,METAR LFPG 140830Z 15005KT CAVOK 10/06 Q1021 NOSIG
2026-04-14 08:00:00,METAR LFPG 140800Z VRB03KT 9999 FEW002 10/06 Q1020 NOSIG
2026-04-14 07:30:00,METAR LFPG 140730Z VRB02KT 9999 FEW001 09/06 Q1020 NOSIG
2026-04-14 07:00:00,METAR LFPG 140700Z VRB01KT 9999 0900 R27L/P2000 R09R/P2000 R26R/P2000 R08L/P2000 R26L/P2000 R08R/P2000 R27R/P2000 R09L/P2000 SCT001 08/07 Q1020 NOSIG
2026-04-14 06:30:00,METAR LFPG 140630Z 30002KT 8000 0700 R27L/P2000 R09R/P2000 R26R/P2000 R08L/0400N R26L/P2000 R08R/1800D R27R/P2000 R09L/P2000 BCFG SCT001 06/06 Q1020 NOSIG
2026-04-14 06:00:00,METAR LFPG 140600Z 00000KT 7000 0800 R27L/P2000 R09R/1800U R26R/P2000 R08L/0800U R26L/0800U R08R/0375D R27R/P2000 R09L/P2000 BCFG SCT001 05/05 Q1019 NOSIG
2026-04-14 05:30:00,METAR LFPG 140530Z 00000KT 7000 0800 R27L/P2000 R09R/0900U R26R/P2000 R08L/1100U R26L/0350D R08R/0275D R27R/P2000 R09L/1300U BCFG SCT001 04/04 Q1019 NOSIG
2026-04-14 05:00:00,METAR LFPG 140500Z 16002KT 7000 0800W R27L/P2000 R09R/P2000 R26R/1300D R08L/P2000 R26L/0900N R08R/P2000 R27R/P2000 R09L/P2000 BCFG FEW001 04/04 Q1018 NOSIG
2026-04-14 04:30:00,METAR LFPG 140430Z VRB01KT 6000 0800SW R27L/P2000 R09R/P2000 R26R/P2000 R08L/0750D R26L/P2000 R08R/P2000 R27R/P2000 R09L/P2000 BCFG FEW001 04/04 Q1018 NOSIG
2026-04-14 04:00:00,METAR LFPG 140400Z 05002KT 5000 0900NW R27L/P2000 R09R/1300U R26R/1200U R08L/P2000 R26L/P2000 R08R/1000D R27R/P2000 R09L/P2000 BCFG BR NSC 05/04 Q1018 NOSIG
2026-04-14 03:30:00,METAR LFPG 140330Z 01003KT 5000 0900NW R27L/P2000 R09R/0900U R26R/P2000 R08L/P2000 R26L/P2000 R08R/P2000 R27R/P2000 R09L/1400U BCFG BR NSC 05/05 Q1018 NOSIG
2026-04-14 03:00:00,METAR LFPG 140300Z 31002KT 5000 0900NW R27L/P2000 R09R/1000D R26R/P2000 R08L/P2000 R26L/P2000 R08R/P2000 R27R/P2000 R09L/P2000 BCFG BR NSC 05/05 Q1018 NOSIG
2026-04-14 02:30:00,METAR LFPG 140230Z 27005KT 5000 0900NW R27L/1300U R09R/0800U R26R/P2000 R08L/P2000 R26L/1800D R08R/P2000 R27R/1000U R09L/1600D BCFG BR NSC 05/04 Q1018 NOSIG
2026-04-14 02:00:00,METAR LFPG 140200Z 29004KT 5000 0700NW R27L/1000D R09R/0450N R26R/P2000 R08L/P2000 R26L/P2000 R08R/P2000 R27R/P2000 R09L/1800D BCFG BR FEW001 05/05 Q1018 NOSIG
2026-04-14 01:30:00,METAR LFPG 140130Z 29003KT 5000 0700NW R27L/P2000 R09R/1000U R26R/P2000 R08L/P2000 R26L/1900D R08R/P2000 R27R/P2000 R09L/0800U BCFG BR NSC 06/05 Q1017 NOSIG
2026-04-14 01:00:00,METAR LFPG 140100Z 32003KT 6000 0550NW R27L/P2000 R09R/2000D R26R/P2000 R08L/P2000 R26L/P2000 R08R/P2000 R27R/P2000 R09L/P2000 BCFG NSC 06/05 Q1017 NOSIG
2026-04-14 00:30:00,METAR LFPG 140030Z 28003KT 7000 0550NW R27L/P2000 R09R/0500D R26R/P2000 R08L/P2000 R26L/P2000 R08R/P2000 R27R/P2000 R09L/1300D BCFG NSC 07/06 Q1017 NOSIG
2026-04-14 00:00:00,METAR LFPG 140000Z 29003KT 7000 R09R/0750D NSC 07/06 Q1017 NOSIG
2026-04-13 23:30:00,METAR LFPG 132330Z 29003KT CAVOK 07/06 Q1017 NOSIG
2026-04-13 23:00:00,METAR LFPG 132300Z 30002KT CAVOK 07/06 Q1017 NOSIG
2026-04-13 22:30:00,METAR LFPG 132230Z 34003KT CAVOK 07/06 Q1017 NOSIG
2026-04-13 22:00:00,METAR LFPG 132200Z 36003KT CAVOK 07/06 Q1016 NOSIG
2026-04-13 21:30:00,METAR LFPG 132130Z 32002KT CAVOK 07/06 Q1016 NOSIG
2026-04-13 21:00:00,METAR LFPG 132100Z 28006KT CAVOK 08/06 Q1016 NOSIG
2026-04-13 20:30:00,METAR LFPG 132030Z 26006KT CAVOK 08/06 Q1016 NOSIG
2026-04-13 20:00:00,METAR LFPG 132000Z 26004KT CAVOK 08/06 Q1016 NOSIG
2026-04-13 19:30:00,METAR LFPG 131930Z 31004KT CAVOK 09/06 Q1016 NOSIG
2026-04-13 19:00:00,METAR LFPG 131900Z 30004KT CAVOK 09/06 Q1015 NOSIG
2026-04-13 18:30:00,METAR LFPG 131830Z 31005KT 9999 -SHRA FEW033TCU SCT076 BKN100 10/07 Q1015 TEMPO SCT030TCU
2026-04-13 18:00:00,METAR LFPG 131800Z 34005KT 9999 -SHRA FEW033TCU SCT061 BKN100 10/07 Q1015 TEMPO SCT030TCU
2026-04-13 17:30:00,METAR LFPG 131730Z 35005KT 9999 -SHRA FEW033TCU BKN091 10/07 Q1014 TEMPO 32015G25KT 4000 SHRA SCT030CB
2026-04-13 17:00:00,METAR LFPG 131700Z 34006KT 9999 FEW033TCU BKN086 10/06 Q1014 TEMPO 32015G25KT 4000 SHRA SCT030CB
2026-04-13 16:30:00,METAR LFPG 131630Z 31006KT 9999 FEW033TCU BKN110 10/06 Q1014 TEMPO 32015G25KT 4000 SHRA SCT030CB
2026-04-13 16:06:00,METAR LFPG 131606Z 29010KT 9999 FEW033TCU SCT066 BKN086 11/07 Q1014 TEMPO 32015G25KT 4000 SHRA SCT030CB
2026-04-13 16:00:00,METAR LFPG 131600Z 29010KT 9999 FEW033TCU SCT066 BKN086 11/07 Q1014 TEMPO 32015G25KT 2000 TSRAGS SCT025CB
2026-04-13 15:30:00,METAR LFPG 131530Z 31014KT 9999 -SHRA FEW028CB SCT038 BKN055 12/07 Q1013 TEMPO 32015G25KT 2000 TSRAGS SCT025CB
2026-04-13 15:00:00,METAR LFPG 131500Z VRB03KT 8000 SHRA FEW040TCU SCT046 BKN063 11/05 Q1013 TEMPO 32015G25KT 2000 TSRAGS SCT025CB
2026-04-13 14:30:00,METAR LFPG 131430Z 26005KT 230V300 9999 FEW027 BKN066 13/04 Q1013 TEMPO 32015G25KT 2000 TSRAGS SCT025CB
2026-04-13 14:00:00,METAR LFPG 131400Z VRB03KT 9999 FEW027 BKN060 13/04 Q1013 TEMPO 4000 TSRA SCT025CB
2026-04-13 13:30:00,METAR LFPG 131330Z 22004KT 190V260 9999 FEW039 SCT056 BKN066 12/04 Q1013 TEMPO 4000 TSRA SCT025CB
2026-04-13 13:00:00,METAR LFPG 131300Z 29008KT 9999 -SHRA FEW033TCU SCT038 BKN063 12/06 Q1013 TEMPO 4000 TSRA SCT025CB
2026-04-13 12:30:00,METAR LFPG 131230Z 30010KT 9999 FEW040TCU BKN062 13/05 Q1013 TEMPO 4000 TSRA SCT025CB
2026-04-13 12:00:00,METAR LFPG 131200Z 26006KT 210V310 9999 FEW040TCU BKN096 15/03 Q1013 TEMPO 4000 TSRA SCT025CB
2026-04-13 11:43:00,METAR LFPG 131143Z 26005KT 190V330 9999 FEW039 BKN160 BKN260 14/04 Q1013 TEMPO 4000 TSRA SCT025CB
2026-04-13 11:30:00,METAR LFPG 131130Z 25005KT 150V290 9999 FEW039 BKN160 BKN260 15/05 Q1013 TEMPO 4000 SHRA SCT025CB
2026-04-13 11:09:00,METAR LFPG 131109Z 27005KT 190V350 9999 FEW029 BKN260 14/05 Q1013 TEMPO 4000 SHRA SCT025CB
2026-04-13 11:00:00,METAR LFPG 131100Z 20005KT 150V240 9999 FEW029 BKN260 14/05 Q1013 TEMPO 4000 -SHRA SCT030TCU
2026-04-13 10:30:00,METAR LFPG 131030Z VRB03KT 9999 FEW026 SCT100 13/05 Q1013 NOSIG
2026-04-13 10:00:00,METAR LFPG 131000Z 29003KT 240V350 9999 FEW026 SCT100 12/06 Q1013 NOSIG
2026-04-13 09:30:00,METAR LFPG 130930Z VRB03KT 9999 FEW026 BKN100 BKN260 11/05 Q1013 NOSIG
2026-04-13 09:00:00,METAR LFPG 130900Z VRB02KT CAVOK 11/05 Q1013 NOSIG
2026-04-13 08:30:00,METAR LFPG 130830Z VRB01KT CAVOK 11/04 Q1013 NOSIG
2026-04-13 08:00:00,METAR LFPG 130800Z VRB01KT CAVOK 10/04 Q1013 NOSIG
2026-04-13 07:30:00,METAR LFPG 130730Z VRB03KT CAVOK 09/04 Q1013 NOSIG
2026-04-13 07:00:00,METAR LFPG 130700Z VRB02KT CAVOK 09/04 Q1013 NOSIG
2026-04-13 06:30:00,METAR LFPG 130630Z 01003KT CAVOK 08/03 Q1013 NOSIG
2026-04-13 06:00:00,METAR LFPG 130600Z 07003KT 9999 FEW026 SCT100 BKN120 08/04 Q1013 NOSIG
2026-04-13 05:30:00,METAR LFPG 130530Z VRB02KT CAVOK 07/04 Q1013 NOSIG
2026-04-13 05:00:00,METAR LFPG 130500Z 03004KT CAVOK 08/04 Q1013 NOSIG
2026-04-13 04:30:00,METAR LFPG 130430Z VRB02KT CAVOK 08/03 Q1013 NOSIG
2026-04-13 04:00:00,METAR LFPG 130400Z VRB02KT CAVOK 07/04 Q1013 NOSIG
2026-04-13 03:30:00,METAR LFPG 130330Z VRB02KT CAVOK 07/03 Q1013 NOSIG
2026-04-13 03:00:00,METAR LFPG 130300Z 12003KT CAVOK 07/03 Q1013 NOSIG
2026-04-13 02:30:00,METAR LFPG 130230Z 08002KT CAVOK 07/04 Q1013 NOSIG
2026-04-13 02:00:00,METAR LFPG 130200Z 04002KT CAVOK 08/03 Q1013 NOSIG
2026-04-13 01:30:00,METAR LFPG 130130Z 13004KT CAVOK 08/03 Q1013 NOSIG
2026-04-13 01:00:00,METAR LFPG 130100Z 13004KT CAVOK 08/03 Q1013 NOSIG
2026-04-13 00:30:00,METAR LFPG 130030Z 14004KT CAVOK 08/04 Q1013 NOSIG
2026-04-13 00:00:00,METAR LFPG 130000Z 13004KT CAVOK 08/05 Q1013 NOSIG
2026-04-12 23:30:00,METAR LFPG 122330Z 04002KT CAVOK 08/04 Q1014 NOSIG
2026-04-12 23:00:00,METAR LFPG 122300Z 29001KT CAVOK 08/05 Q1014 NOSIG
2026-04-12 22:30:00,METAR LFPG 122230Z 29002KT CAVOK 08/04 Q1014 NOSIG
2026-04-12 22:00:00,METAR LFPG 122200Z 13002KT CAVOK 09/04 Q1014 NOSIG
2026-04-12 21:30:00,METAR LFPG 122130Z VRB01KT CAVOK 09/05 Q1014 NOSIG
2026-04-12 21:00:00,METAR LFPG 122100Z VRB02KT CAVOK 10/05 Q1014 NOSIG
2026-04-12 20:30:00,METAR LFPG 122030Z 00000KT CAVOK 11/05 Q1014 NOSIG
2026-04-12 20:00:00,METAR LFPG 122000Z 23005KT 170V270 CAVOK 11/03 Q1014 NOSIG
2026-04-12 19:30:00,METAR LFPG 121930Z 16006KT CAVOK 12/03 Q1014 NOSIG
2026-04-12 19:00:00,METAR LFPG 121900Z 16005KT 110V210 CAVOK 12/03 Q1014 NOSIG
2026-04-12 18:30:00,METAR LFPG 121830Z 17006KT 9999 SCT047 BKN220 12/03 Q1014 NOSIG
2026-04-12 18:00:00,METAR LFPG 121800Z 17009KT 9999 SCT047 BKN220 12/03 Q1014 NOSIG
2026-04-12 17:30:00,METAR LFPG 121730Z 15010KT 9999 SCT047 BKN220 13/03 Q1014 NOSIG
2026-04-12 17:00:00,METAR LFPG 121700Z 18007KT 9999 SCT047 BKN220 13/04 Q1014 NOSIG
2026-04-12 16:30:00,METAR LFPG 121630Z 17008KT 130V190 9999 FEW047 BKN220 14/03 Q1014 NOSIG
2026-04-12 16:00:00,METAR LFPG 121600Z 16008KT CAVOK 14/02 Q1014 NOSIG
2026-04-12 15:00:00,METAR LFPG 121500Z 19006KT 140V270 9999 SCT046 BKN260 14/03 Q1014 NOSIG
2026-04-12 14:30:00,METAR LFPG 121430Z 20007KT 170V250 9999 SCT046 BKN260 14/03 Q1014 NOSIG
2026-04-12 14:00:00,METAR LFPG 121400Z 22007KT 190V280 9999 FEW038 BKN050 BKN260 13/03 Q1015 NOSIG
2026-04-12 13:30:00,METAR LFPG 121330Z 19007KT 120V230 9999 BKN038 BKN260 13/03 Q1015 NOSIG
2026-04-12 13:00:00,METAR LFPG 121300Z 20007KT 160V230 9999 BKN040 BKN260 13/03 Q1015 NOSIG
2026-04-12 12:30:00,METAR LFPG 121230Z 22009KT 190V260 9999 BKN038 BKN260 12/03 Q1015 NOSIG
2026-04-12 12:00:00,METAR LFPG 121200Z 22007KT 190V250 9999 BKN036 BKN260 12/04 Q1016 NOSIG
2026-04-12 11:30:00,METAR LFPG 121130Z 22008KT 180V240 9999 BKN033 BKN260 12/04 Q1016 NOSIG
2026-04-12 11:00:00,METAR LFPG 121100Z 21009KT 180V250 9999 FEW028 BKN250 12/04 Q1016 NOSIG
2026-04-12 10:30:00,METAR LFPG 121030Z 21009KT 180V240 9999 FEW028 BKN250 11/04 Q1016 NOSIG
2026-04-12 10:00:00,METAR LFPG 121000Z 19008KT 160V320 9999 FEW028 BKN260 10/04 Q1016 NOSIG
2026-04-12 09:30:00,METAR LFPG 120930Z 19007KT 160V230 CAVOK 10/04 Q1017 NOSIG
2026-04-12 09:00:00,METAR LFPG 120900Z 21008KT CAVOK 09/04 Q1017 NOSIG
2026-04-12 08:30:00,METAR LFPG 120830Z VRB08KT CAVOK 08/04 Q1017 NOSIG
2026-04-12 08:00:00,METAR LFPG 120800Z 19007KT CAVOK 08/04 Q1017 NOSIG
2026-04-12 07:30:00,METAR LFPG 120730Z 19007KT CAVOK 07/04 Q1017 NOSIG
2026-04-12 07:00:00,METAR LFPG 120700Z 18008KT CAVOK 06/04 Q1017 NOSIG
2026-04-12 06:30:00,METAR LFPG 120630Z 17007KT CAVOK 06/04 Q1017 NOSIG
2026-04-12 06:00:00,METAR LFPG 120600Z 17006KT CAVOK 06/04 Q1016 NOSIG
2026-04-12 05:30:00,METAR LFPG 120530Z 17006KT CAVOK 06/04 Q1016 NOSIG
2026-04-12 05:00:00,METAR LFPG 120500Z 17006KT CAVOK 06/04 Q1016 NOSIG
2026-04-12 04:30:00,METAR LFPG 120430Z 17006KT CAVOK 06/05 Q1016 NOSIG
2026-04-12 04:00:00,METAR LFPG 120400Z 17006KT CAVOK 06/05 Q1016 NOSIG
2026-04-12 03:30:00,METAR LFPG 120330Z 17005KT 150V300 CAVOK 07/05 Q1016 NOSIG
2026-04-12 03:00:00,METAR LFPG 120300Z 17006KT CAVOK 07/06 Q1016 NOSIG
2026-04-12 02:30:00,METAR LFPG 120230Z 18006KT CAVOK 07/06 Q1016 NOSIG
2026-04-12 02:00:00,METAR LFPG 120200Z 17006KT CAVOK 07/06 Q1016 NOSIG
2026-04-12 01:30:00,METAR LFPG 120130Z 17007KT CAVOK 07/06 Q1016 NOSIG
2026-04-12 01:00:00,METAR LFPG 120100Z 18007KT CAVOK 07/06 Q1016 NOSIG
2026-04-12 00:30:00,METAR LFPG 120030Z 17006KT CAVOK 07/06 Q1016 NOSIG
2026-04-12 00:00:00,METAR LFPG 120000Z 19006KT CAVOK 08/06 Q1016 NOSIG
2026-04-11 23:30:00,METAR LFPG 112330Z 18006KT CAVOK 08/06 Q1016 NOSIG
2026-04-11 23:00:00,METAR LFPG 112300Z 19006KT CAVOK 08/06 Q1016 NOSIG
2026-04-11 22:30:00,METAR LFPG 112230Z 19007KT CAVOK 08/06 Q1016 NOSIG
2026-04-11 22:00:00,METAR LFPG 112200Z 18007KT CAVOK 08/06 Q1016 NOSIG
2026-04-11 21:30:00,METAR LFPG 112130Z 17006KT CAVOK 08/06 Q1016 NOSIG
2026-04-11 21:00:00,METAR LFPG 112100Z 18006G16KT 130V230 CAVOK 08/06 Q1016 NOSIG
2026-04-11 20:30:00,METAR LFPG 112030Z 20005KT 180V260 CAVOK 08/05 Q1016 NOSIG
2026-04-11 20:00:00,METAR LFPG 112000Z 22007KT 200V310 CAVOK 08/06 Q1015 NOSIG
2026-04-11 19:30:00,METAR LFPG 111930Z 21005KT CAVOK 08/06 Q1015 NOSIG
2026-04-11 19:00:00,METAR LFPG 111900Z 20004KT 180V350 CAVOK 08/05 Q1015 NOSIG
2026-04-11 18:30:00,METAR LFPG 111830Z 22005KT CAVOK 08/05 Q1014 NOSIG
2026-04-11 18:00:00,METAR LFPG 111800Z 24005KT CAVOK 08/05 Q1014 NOSIG
2026-04-11 17:30:00,METAR LFPG 111730Z 29003KT 9999 FEW043 BKN050 08/05 Q1013 NOSIG
2026-04-11 17:00:00,METAR LFPG 111700Z 31009KT 9999 FEW026 BKN053 08/05 Q1013 NOSIG
2026-04-11 16:30:00,METAR LFPG 111630Z 30012KT 9000 -RA SCT012 BKN026 BKN043 08/06 Q1013 TEMPO BKN012
2026-04-11 16:00:00,METAR LFPG 111600Z 31013KT 9999 -RA FEW011 SCT020 BKN043 09/07 Q1013 TEMPO BKN012
2026-04-11 15:30:00,METAR LFPG 111530Z 30012KT 8000 -RA SCT019 BKN033 09/07 Q1012 TEMPO BKN012
2026-04-11 15:00:00,METAR LFPG 111500Z 31014KT 5000 -RA SCT012 BKN020 09/07 Q1012 TEMPO BKN012
2026-04-11 14:30:00,METAR LFPG 111430Z 31014KT 9999 SCT014 BKN020 11/07 Q1010 NOSIG
2026-04-11 14:00:00,METAR LFPG 111400Z 30019KT 9999 SCT014 BKN033 12/08 Q1010 NOSIG
2026-04-11 13:30:00,METAR LFPG 111330Z 29010KT 9999 FEW017 SCT030 BKN093 15/10 Q1009 NOSIG
2026-04-11 13:00:00,METAR LFPG 111300Z 28014KT 9999 FEW017 SCT030 BKN086 16/11 Q1009 NOSIG
2026-04-11 12:30:00,METAR LFPG 111230Z 25012KT 9999 SCT016 BKN093 16/11 Q1009 TEMPO SCT045TCU
2026-04-11 12:00:00,METAR LFPG 111200Z 25012KT 9999 SCT017 BKN093 15/12 Q1009 TEMPO SCT045TCU
2026-04-11 11:30:00,METAR LFPG 111130Z 24012KT 9999 -RA BKN020 15/11 Q1009 TEMPO SCT045TCU
2026-04-11 11:00:00,METAR LFPG 111100Z 21013KT 9999 -SHRA BKN020 15/11 Q1008 TEMPO SCT045TCU
2026-04-11 10:30:00,METAR LFPG 111030Z 22010KT 180V270 9999 -SHRA BKN020 BKN120 15/10 Q1007 TEMPO SCT045TCU
2026-04-11 10:00:00,METAR LFPG 111000Z 23009KT 190V260 9999 FEW020 BKN120 BKN260 15/10 Q1007 NOSIG
2026-04-11 09:30:00,METAR LFPG 110930Z 18009KT 150V210 CAVOK 15/09 Q1007 NOSIG
2026-04-11 09:00:00,METAR LFPG 110900Z 19011KT CAVOK 15/09 Q1007 NOSIG
2026-04-11 08:30:00,METAR LFPG 110830Z 19013KT CAVOK 15/09 Q1007 NOSIG
2026-04-11 08:00:00,METAR LFPG 110800Z 17009KT CAVOK 14/09 Q1007 NOSIG
2026-04-11 07:30:00,METAR LFPG 110730Z 16009KT CAVOK 13/08 Q1007 NOSIG
2026-04-11 07:00:00,METAR LFPG 110700Z 13010KT CAVOK 12/07 Q1007 NOSIG
2026-04-11 06:30:00,METAR LFPG 110630Z 13010KT CAVOK 11/07 Q1007 NOSIG
2026-04-11 06:00:00,METAR LFPG 110600Z 13010KT CAVOK 11/06 Q1007 NOSIG
2026-04-11 05:30:00,METAR LFPG 110530Z 13010KT CAVOK 11/06 Q1007 NOSIG
2026-04-11 05:00:00,METAR LFPG 110500Z 13009KT CAVOK 11/06 Q1008 NOSIG
2026-04-11 04:30:00,METAR LFPG 110430Z 13007KT CAVOK 11/05 Q1008 NOSIG
2026-04-11 04:00:00,METAR LFPG 110400Z 14007KT CAVOK 11/05 Q1009 NOSIG
2026-04-11 03:30:00,METAR LFPG 110330Z 14007KT CAVOK 10/05 Q1009 NOSIG
2026-04-11 03:00:00,METAR LFPG 110300Z 14007KT CAVOK 10/05 Q1009 NOSIG
2026-04-11 02:30:00,METAR LFPG 110230Z 13007KT CAVOK 10/04 Q1010 NOSIG
2026-04-11 02:00:00,METAR LFPG 110200Z 13009KT CAVOK 11/04 Q1010 NOSIG
2026-04-11 01:30:00,METAR LFPG 110130Z 12009KT CAVOK 11/04 Q1010 NOSIG
2026-04-11 01:00:00,METAR LFPG 110100Z 13006KT CAVOK 10/04 Q1011 NOSIG
2026-04-11 00:30:00,METAR LFPG 110030Z 14009KT CAVOK 11/04 Q1011 NOSIG
2026-04-11 00:00:00,METAR LFPG 110000Z 14011KT CAVOK 11/04 Q1012 NOSIG
2026-04-10 23:30:00,METAR LFPG 102330Z 14011KT CAVOK 11/04 Q1012 NOSIG
2026-04-10 23:00:00,METAR LFPG 102300Z 13013KT CAVOK 11/03 Q1012 NOSIG
2026-04-10 22:30:00,METAR LFPG 102230Z 13011KT CAVOK 11/03 Q1013 NOSIG
2026-04-10 22:00:00,METAR LFPG 102200Z 13012KT CAVOK 11/03 Q1014 NOSIG
2026-04-10 21:30:00,METAR LFPG 102130Z 11010KT CAVOK 12/03 Q1014 NOSIG
2026-04-10 21:00:00,METAR LFPG 102100Z 11011KT CAVOK 12/03 Q1015 NOSIG
2026-04-10 20:30:00,METAR LFPG 102030Z 10011KT CAVOK 12/03 Q1015 NOSIG
2026-04-10 20:00:00,METAR LFPG 102000Z 10008KT CAVOK 12/02 Q1015 NOSIG
2026-04-10 19:30:00,METAR LFPG 101930Z 10010KT CAVOK 13/02 Q1015 NOSIG
2026-04-10 19:00:00,METAR LFPG 101900Z 09007KT CAVOK 13/02 Q1016 NOSIG
2026-04-10 18:30:00,METAR LFPG 101830Z 09009KT CAVOK 14/01 Q1016 NOSIG
2026-04-10 18:00:00,METAR LFPG 101800Z 07007KT CAVOK 14/01 Q1016 NOSIG
2026-04-10 17:30:00,METAR LFPG 101730Z 07008KT CAVOK 14/00 Q1016 NOSIG
2026-04-10 17:00:00,METAR LFPG 101700Z 06009KT CAVOK 14/01 Q1016 NOSIG
2026-04-10 16:30:00,METAR LFPG 101630Z 08007KT CAVOK 14/00 Q1017 NOSIG
2026-04-10 16:00:00,METAR LFPG 101600Z 07007KT 040V110 CAVOK 14/M00 Q1017 NOSIG
2026-04-10 15:30:00,METAR LFPG 101530Z 07005KT 010V120 CAVOK 14/M00 Q1017 NOSIG
2026-04-10 15:00:00,METAR LFPG 101500Z 06005KT 020V110 CAVOK 15/M00 Q1018 NOSIG
2026-04-10 14:30:00,METAR LFPG 101430Z VRB03KT CAVOK 15/00 Q1018 NOSIG
2026-04-10 14:00:00,METAR LFPG 101400Z VRB03KT CAVOK 15/00 Q1019 NOSIG
2026-04-10 13:30:00,METAR LFPG 101330Z VRB04KT CAVOK 15/01 Q1019 NOSIG
2026-04-10 13:00:00,METAR LFPG 101300Z VRB03KT CAVOK 14/01 Q1019 NOSIG
2026-04-10 12:30:00,METAR LFPG 101230Z 02006KT 300V090 CAVOK 14/02 Q1019 NOSIG
2026-04-10 12:00:00,METAR LFPG 101200Z VRB04KT CAVOK 14/01 Q1020 NOSIG
2026-04-10 11:30:00,METAR LFPG 101130Z VRB03KT 9999 FEW040 BKN260 14/02 Q1020 NOSIG
2026-04-10 11:00:00,METAR LFPG 101100Z 10005KT 050V160 9999 FEW040 BKN240 13/02 Q1020 NOSIG
2026-04-10 10:30:00,METAR LFPG 101030Z VRB02KT 9999 FEW040 BKN240 13/02 Q1021 NOSIG
2026-04-10 10:00:00,METAR LFPG 101000Z 04005KT 350V090 9999 FEW040 BKN260 12/03 Q1021 NOSIG
2026-04-10 09:30:00,METAR LFPG 100930Z 07005KT 020V140 9999 FEW027 BKN140 BKN260 11/02 Q1021 NOSIG
2026-04-10 09:00:00,METAR LFPG 100900Z 09006KT 040V140 9999 FEW027 BKN160 11/03 Q1021 NOSIG
2026-04-10 08:30:00,METAR LFPG 100830Z 07007KT 040V100 CAVOK 10/03 Q1021 NOSIG
2026-04-10 08:00:00,METAR LFPG 100800Z 05008KT 030V090 CAVOK 10/04 Q1021 NOSIG
2026-04-10 07:30:00,METAR LFPG 100730Z 03007KT 360V100 CAVOK 09/04 Q1021 NOSIG
2026-04-10 07:00:00,METAR LFPG 100700Z 03004KT CAVOK 09/04 Q1021 NOSIG
2026-04-10 06:30:00,METAR LFPG 100630Z 36003KT CAVOK 08/04 Q1021 NOSIG
2026-04-10 06:00:00,METAR LFPG 100600Z 35003KT CAVOK 08/04 Q1021 NOSIG
2026-04-10 05:30:00,METAR LFPG 100530Z 35005KT CAVOK 08/04 Q1021 NOSIG
2026-04-10 05:00:00,METAR LFPG 100500Z 34006KT CAVOK 08/04 Q1021 NOSIG
2026-04-10 04:30:00,METAR LFPG 100430Z 33007KT 9999 FEW025 SCT160 BKN260 08/05 Q1021 NOSIG
2026-04-10 04:00:00,METAR LFPG 100400Z 33007KT 9999 FEW026 BKN160 08/05 Q1021 NOSIG
2026-04-10 03:30:00,METAR LFPG 100330Z 33007KT CAVOK 08/05 Q1021 NOSIG
2026-04-10 03:00:00,METAR LFPG 100300Z 33008KT CAVOK 08/05 Q1021 NOSIG
2026-04-10 02:30:00,METAR LFPG 100230Z 32009KT CAVOK 09/05 Q1021 NOSIG
2026-04-10 02:00:00,METAR LFPG 100200Z 32010KT CAVOK 09/05 Q1020 NOSIG
2026-04-10 01:30:00,METAR LFPG 100130Z 32009KT CAVOK 10/05 Q1020 NOSIG
2026-04-10 01:00:00,METAR LFPG 100100Z 32012KT CAVOK 10/06 Q1020 NOSIG
2026-04-10 00:30:00,METAR LFPG 100030Z 31008KT CAVOK 10/06 Q1020 NOSIG
2026-04-10 00:00:00,METAR LFPG 100000Z 32005KT CAVOK 11/06 Q1020 NOSIG
2026-04-09 23:30:00,METAR LFPG 092330Z 32008KT CAVOK 11/06 Q1020 NOSIG
2026-04-09 23:00:00,METAR LFPG 092300Z 32011KT CAVOK 12/06 Q1020 NOSIG
2026-04-09 22:30:00,METAR LFPG 092230Z 33015KT CAVOK 12/06 Q1020 NOSIG
2026-04-09 22:00:00,METAR LFPG 092200Z 32015KT CAVOK 13/07 Q1020 NOSIG
2026-04-09 21:30:00,METAR LFPG 092130Z 31019KT 9999 FEW046 BKN120 14/07 Q1019 NOSIG
2026-04-09 21:00:00,METAR LFPG 092100Z 31011KT 9999 FEW046 BKN120 15/06 Q1019 NOSIG
2026-04-09 20:30:00,METAR LFPG 092030Z 30011KT 9999 FEW046 BKN120 16/10 Q1019 NOSIG
2026-04-09 20:00:00,METAR LFPG 092000Z 30010KT 9999 FEW046 BKN120 BKN180 17/11 Q1018 NOSIG
2026-04-09 19:30:00,METAR LFPG 091930Z 30015KT 9999 FEW046 SCT130 BKN190 18/11 Q1018 NOSIG
2026-04-09 19:00:00,METAR LFPG 091900Z 31016KT CAVOK 20/11 Q1017 NOSIG
2026-04-09 18:30:00,METAR LFPG 091830Z 30012KT 9999 FEW060TCU FEW060 SCT180 BKN260 21/09 Q1017 TEMPO 32015G25KT SCT050CB
2026-04-09 18:00:00,METAR LFPG 091800Z 31014KT 9999 FEW060TCU FEW060 SCT180 BKN260 22/11 Q1016 TEMPO 32015G25KT SCT050CB
2026-04-09 17:30:00,METAR LFPG 091730Z 30009KT 9999 FEW060TCU FEW060 BKN180 23/12 Q1016 TEMPO 32015G25KT SCT050CB
2026-04-09 17:00:00,METAR LFPG 091700Z 31006KT CAVOK 25/12 Q1016 TEMPO SCT045TCU
2026-04-09 16:30:00,METAR LFPG 091630Z 32006KT CAVOK 24/12 Q1016 TEMPO SCT045TCU
2026-04-09 16:00:00,METAR LFPG 091600Z 34006KT CAVOK 25/11 Q1016 TEMPO SCT045TCU
2026-04-09 15:30:00,METAR LFPG 091530Z 29007KT CAVOK 26/10 Q1016 TEMPO SCT045TCU
2026-04-09 15:00:00,METAR LFPG 091500Z 26010KT CAVOK 26/08 Q1017 TEMPO SCT045TCU
2026-04-09 14:30:00,METAR LFPG 091430Z 27007KT CAVOK 26/09 Q1017 TEMPO SCT045TCU
2026-04-09 14:00:00,METAR LFPG 091400Z 28010KT 250V310 CAVOK 26/09 Q1017 TEMPO SCT045TCU
2026-04-09 13:30:00,METAR LFPG 091330Z 25006KT 200V310 CAVOK 26/07 Q1017 TEMPO SCT045TCU
2026-04-09 13:00:00,METAR LFPG 091300Z 23006KT 190V270 CAVOK 26/07 Q1018 TEMPO SCT045TCU
2026-04-09 12:30:00,METAR LFPG 091230Z 20007KT 170V240 CAVOK 25/07 Q1018 TEMPO SCT045TCU
2026-04-09 12:00:00,METAR LFPG 091200Z 21008KT 180V280 CAVOK 24/07 Q1018 NOSIG
2026-04-09 11:30:00,METAR LFPG 091130Z 21006KT 180V250 CAVOK 24/08 Q1018 NOSIG
2026-04-09 11:00:00,METAR LFPG 091100Z 21006G17KT 160V260 CAVOK 23/07 Q1019 BECMG 26010KT
2026-04-09 10:30:00,METAR LFPG 091030Z 22005KT 190V260 CAVOK 23/08 Q1019 BECMG 26010KT
2026-04-09 10:00:00,METAR LFPG 091000Z 22005KT 180V310 CAVOK 22/09 Q1019 NOSIG
2026-04-09 09:30:00,METAR LFPG 090930Z 21005KT 170V280 CAVOK 21/08 Q1019 NOSIG
2026-04-09 09:00:00,METAR LFPG 090900Z 21003KT 170V280 CAVOK 20/09 Q1019 NOSIG
2026-04-09 08:30:00,METAR LFPG 090830Z VRB02KT CAVOK 18/10 Q1020 NOSIG
2026-04-09 08:00:00,METAR LFPG 090800Z VRB03KT CAVOK 17/09 Q1020 NOSIG
2026-04-09 07:30:00,METAR LFPG 090730Z 19002KT CAVOK 16/09 Q1020 NOSIG
2026-04-09 07:00:00,METAR LFPG 090700Z VRB02KT CAVOK 15/09 Q1020 NOSIG
2026-04-09 06:30:00,METAR LFPG 090630Z 03003KT CAVOK 12/09 Q1020 NOSIG
2026-04-09 06:00:00,METAR LFPG 090600Z VRB02KT CAVOK 11/08 Q1020 NOSIG
2026-04-09 05:30:00,METAR LFPG 090530Z 15002KT CAVOK 10/08 Q1019 NOSIG
2026-04-09 05:00:00,METAR LFPG 090500Z AUTO 15003KT CAVOK 10/07 Q1019 NOSIG
2026-04-09 04:30:00,METAR LFPG 090430Z AUTO 12004KT CAVOK 10/07 Q1019 NOSIG
2026-04-09 04:00:00,METAR LFPG 090400Z AUTO 04002KT CAVOK 11/07 Q1019 NOSIG
2026-04-09 03:30:00,METAR LFPG 090330Z AUTO VRB02KT 9999 FEW017 11/07 Q1019 NOSIG
2026-04-09 03:00:00,METAR LFPG 090300Z AUTO 12004KT CAVOK 11/07 Q1020 NOSIG
2026-04-09 02:30:00,METAR LFPG 090230Z AUTO 08002KT CAVOK 11/07 Q1020 NOSIG
2026-04-09 02:00:00,METAR LFPG 090200Z AUTO 06003KT CAVOK 12/07 Q1020 NOSIG
2026-04-09 01:30:00,METAR LFPG 090130Z AUTO 06003KT CAVOK 11/07 Q1020 NOSIG
2026-04-09 01:00:00,METAR LFPG 090100Z AUTO 05004KT CAVOK 12/07 Q1021 NOSIG
2026-04-09 00:30:00,METAR LFPG 090030Z AUTO 02004KT CAVOK 13/07 Q1021 NOSIG
2026-04-09 00:00:00,METAR LFPG 090000Z AUTO 03002KT CAVOK 13/08 Q1021 NOSIG
2026-04-08 23:30:00,METAR LFPG 082330Z AUTO VRB02KT CAVOK 14/08 Q1021 NOSIG
2026-04-08 23:00:00,METAR LFPG 082300Z AUTO 12003KT CAVOK 14/08 Q1021 NOSIG
2026-04-08 22:30:00,METAR LFPG 082230Z AUTO 05006KT CAVOK 15/08 Q1021 NOSIG
2026-04-08 22:00:00,METAR LFPG 082200Z AUTO 04005KT CAVOK 16/08 Q1021 NOSIG
2026-04-08 21:30:00,METAR LFPG 082130Z AUTO 05006KT CAVOK 16/07 Q1021 NOSIG
2026-04-08 21:00:00,METAR LFPG 082100Z AUTO 07004KT 9999 FEW015 18/08 Q1021 NOSIG
2026-04-08 20:30:00,METAR LFPG 082030Z AUTO 08004KT CAVOK 18/07 Q1021 NOSIG
2026-04-08 20:00:00,METAR LFPG 082000Z AUTO 05004KT CAVOK 19/07 Q1021 NOSIG
2026-04-08 19:30:00,METAR LFPG 081930Z AUTO 06005KT CAVOK 20/07 Q1021 NOSIG
2026-04-08 19:00:00,METAR LFPG 081900Z AUTO 06006KT CAVOK 20/06 Q1021 NOSIG
2026-04-08 18:30:00,METAR LFPG 081830Z AUTO 08005KT CAVOK 22/05 Q1021 NOSIG
2026-04-08 18:00:00,METAR LFPG 081800Z 09005KT CAVOK 23/05 Q1021 NOSIG
2026-04-08 17:30:00,METAR LFPG 081730Z 08005KT CAVOK 23/04 Q1021 NOSIG
2026-04-08 17:00:00,METAR LFPG 081700Z 08006KT CAVOK 24/04 Q1021 NOSIG
2026-04-08 16:30:00,METAR LFPG 081630Z 07006KT 040V110 CAVOK 24/03 Q1021 NOSIG
2026-04-08 16:00:00,METAR LFPG 081600Z 09005KT 030V110 CAVOK 24/03 Q1021 NOSIG
2026-04-08 15:30:00,METAR LFPG 081530Z 07005KT 050V110 CAVOK 24/05 Q1021 NOSIG
2026-04-08 15:00:00,METAR LFPG 081500Z 08005KT 040V130 CAVOK 24/05 Q1021 NOSIG
2026-04-08 14:30:00,METAR LFPG 081430Z 06006KT 020V090 CAVOK 24/04 Q1021 NOSIG
2026-04-08 14:00:00,METAR LFPG 081400Z 07006KT 030V110 CAVOK 24/04 Q1022 NOSIG
2026-04-08 13:30:00,METAR LFPG 081330Z COR 07007KT 040V120 CAVOK 24/05 Q1022 NOSIG
2026-04-08 13:00:00,METAR LFPG 081300Z 07007KT 040V110 CAVOK 23/03 Q1022 NOSIG
2026-04-08 12:30:00,METAR LFPG 081230Z 09006KT 050V140 CAVOK 23/06 Q1022 NOSIG
2026-04-08 12:00:00,METAR LFPG 081200Z 07005KT 040V100 CAVOK 22/05 Q1022 NOSIG
2026-04-08 11:30:00,METAR LFPG 081130Z 07006KT 030V130 CAVOK 21/07 Q1023 NOSIG
2026-04-08 11:00:00,METAR LFPG 081100Z 04005KT 010V100 CAVOK 20/07 Q1023 NOSIG
2026-04-08 10:30:00,METAR LFPG 081030Z 05005KT 350V100 CAVOK 20/09 Q1023 NOSIG
2026-04-08 10:00:00,METAR LFPG 081000Z 05005KT 020V080 CAVOK 19/09 Q1023 NOSIG
2026-04-08 09:30:00,METAR LFPG 080930Z 06004KT 010V120 CAVOK 18/08 Q1023 NOSIG
2026-04-08 09:00:00,METAR LFPG 080900Z 06005KT 040V100 CAVOK 16/06 Q1023 NOSIG
2026-04-08 08:30:00,METAR LFPG 080830Z 04006KT 360V070 CAVOK 15/06 Q1023 NOSIG
2026-04-08 08:00:00,METAR LFPG 080800Z 06005KT 020V110 CAVOK 15/06 Q1023 NOSIG
2026-04-08 07:30:00,METAR LFPG 080730Z 04005KT 360V070 CAVOK 14/05 Q1023 NOSIG
2026-04-08 07:00:00,METAR LFPG 080700Z 04007KT 360V060 CAVOK 12/05 Q1023 NOSIG
2026-04-08 06:30:00,METAR LFPG 080630Z 04008KT CAVOK 10/05 Q1022 NOSIG
2026-04-08 06:00:00,METAR LFPG 080600Z 03008KT CAVOK 09/04 Q1022 NOSIG
2026-04-08 05:30:00,METAR LFPG 080530Z 05008KT 030V090 CAVOK 09/04 Q1022 NOSIG
2026-04-08 05:00:00,METAR LFPG 080500Z 05006KT 040V100 CAVOK 09/04 Q1022 NOSIG
2026-04-08 04:30:00,METAR LFPG 080430Z 05009KT 030V090 CAVOK 09/04 Q1022 NOSIG
2026-04-08 04:00:00,METAR LFPG 080400Z 04006KT CAVOK 09/04 Q1022 NOSIG
2026-04-08 03:30:00,METAR LFPG 080330Z 02005KT CAVOK 10/04 Q1022 NOSIG
2026-04-08 03:00:00,METAR LFPG 080300Z 03005KT CAVOK 11/04 Q1022 NOSIG
2026-04-08 02:30:00,METAR LFPG 080230Z 04006KT CAVOK 11/04 Q1022 NOSIG
2026-04-08 02:00:00,METAR LFPG 080200Z 07006KT CAVOK 11/05 Q1022 NOSIG
2026-04-08 01:30:00,METAR LFPG 080130Z 05005KT CAVOK 10/05 Q1022 NOSIG
2026-04-08 01:00:00,METAR LFPG 080100Z 04006KT CAVOK 11/05 Q1022 NOSIG
2026-04-08 00:30:00,METAR LFPG 080030Z 05006KT CAVOK 12/05 Q1022 NOSIG
2026-04-08 00:00:00,METAR LFPG 080000Z 07006KT CAVOK 12/05 Q1022 NOSIG
2026-04-07 23:30:00,METAR LFPG 072330Z 07007KT CAVOK 13/05 Q1022 NOSIG
2026-04-07 23:00:00,METAR LFPG 072300Z 08007KT CAVOK 14/05 Q1022 NOSIG
2026-04-07 22:30:00,METAR LFPG 072230Z 07009KT CAVOK 15/05 Q1021 NOSIG
2026-04-07 22:00:00,METAR LFPG 072200Z 06008KT CAVOK 14/06 Q1022 NOSIG
2026-04-07 21:30:00,METAR LFPG 072130Z 05005KT CAVOK 14/06 Q1022 NOSIG
2026-04-07 21:00:00,METAR LFPG 072100Z 06006KT CAVOK 15/07 Q1022 NOSIG
2026-04-07 20:30:00,METAR LFPG 072030Z 06008KT CAVOK 16/07 Q1022 NOSIG
2026-04-07 20:00:00,METAR LFPG 072000Z 06008KT CAVOK 17/08 Q1021 NOSIG
2026-04-07 19:30:00,METAR LFPG 071930Z 06007KT CAVOK 18/09 Q1021 NOSIG
2026-04-07 19:00:00,METAR LFPG 071900Z 09007KT 050V110 CAVOK 20/09 Q1021 NOSIG
2026-04-07 18:30:00,METAR LFPG 071830Z 10009KT CAVOK 20/09 Q1021 NOSIG
2026-04-07 18:00:00,METAR LFPG 071800Z 11009KT CAVOK 21/09 Q1021 NOSIG
2026-04-07 17:30:00,METAR LFPG 071730Z 10010KT CAVOK 22/08 Q1021 NOSIG
2026-04-07 17:00:00,METAR LFPG 071700Z 11011KT CAVOK 22/08 Q1021 NOSIG
2026-04-07 16:30:00,METAR LFPG 071630Z 10011KT CAVOK 22/08 Q1021 NOSIG
2026-04-07 16:00:00,METAR LFPG 071600Z 10010KT CAVOK 23/09 Q1021 NOSIG
2026-04-07 15:30:00,METAR LFPG 071530Z 09011KT CAVOK 23/08 Q1021 NOSIG
2026-04-07 15:00:00,METAR LFPG 071500Z 10010KT CAVOK 23/08 Q1021 NOSIG
2026-04-07 14:30:00,METAR LFPG 071430Z 09011KT 070V130 CAVOK 23/08 Q1021 NOSIG
2026-04-07 14:00:00,METAR LFPG 071400Z 10009KT 070V130 CAVOK 23/09 Q1021 NOSIG
2026-04-07 13:30:00,METAR LFPG 071330Z 12010KT CAVOK 22/08 Q1021 NOSIG
2026-04-07 13:00:00,METAR LFPG 071300Z 12011KT 080V140 CAVOK 22/08 Q1021 NOSIG
2026-04-07 12:30:00,METAR LFPG 071230Z 12012KT CAVOK 21/09 Q1021 NOSIG
2026-04-07 12:00:00,METAR LFPG 071200Z 10011KT 070V130 CAVOK 21/09 Q1022 NOSIG
2026-04-07 11:30:00,METAR LFPG 071130Z 10010KT 070V140 CAVOK 21/08 Q1022 NOSIG
2026-04-07 11:00:00,METAR LFPG 071100Z 10011KT CAVOK 20/08 Q1022 NOSIG
2026-04-07 10:30:00,METAR LFPG 071030Z 10010KT CAVOK 19/08 Q1022 NOSIG
2026-04-07 10:00:00,METAR LFPG 071000Z 08009KT CAVOK 18/08 Q1022 NOSIG
2026-04-07 09:30:00,METAR LFPG 070930Z 08008KT 050V110 CAVOK 16/07 Q1022 NOSIG
2026-04-07 09:00:00,METAR LFPG 070900Z 10009KT 070V130 CAVOK 15/06 Q1023 NOSIG
2026-04-07 08:30:00,METAR LFPG 070830Z 09008KT CAVOK 14/06 Q1022 NOSIG
2026-04-07 08:00:00,METAR LFPG 070800Z 09008KT CAVOK 13/05 Q1022 NOSIG
2026-04-07 07:30:00,METAR LFPG 070730Z 10008KT CAVOK 12/04 Q1022 NOSIG
2026-04-07 07:00:00,METAR LFPG 070700Z 07006KT CAVOK 10/04 Q1022 NOSIG
2026-04-07 06:30:00,METAR LFPG 070630Z 06006KT CAVOK 09/04 Q1022 NOSIG
2026-04-07 06:00:00,METAR LFPG 070600Z 05008KT CAVOK 07/03 Q1022 NOSIG
2026-04-07 05:30:00,METAR LFPG 070530Z 04008KT CAVOK 07/03 Q1022 NOSIG
2026-04-07 05:00:00,METAR LFPG 070500Z 05005KT CAVOK 06/02 Q1022 NOSIG
2026-04-07 04:30:00,METAR LFPG 070430Z 05007KT CAVOK 07/03 Q1022 NOSIG
2026-04-07 04:00:00,METAR LFPG 070400Z 06005KT CAVOK 07/03 Q1022 NOSIG
2026-04-07 03:30:00,METAR LFPG 070330Z 05006KT 030V100 CAVOK 06/02 Q1022 NOSIG
2026-04-07 03:00:00,METAR LFPG 070300Z 06005KT CAVOK 07/02 Q1022 NOSIG
2026-04-07 02:30:00,METAR LFPG 070230Z 06007KT CAVOK 07/02 Q1022 NOSIG
2026-04-07 02:00:00,METAR LFPG 070200Z 06008KT CAVOK 08/02 Q1023 NOSIG
2026-04-07 01:30:00,METAR LFPG 070130Z 05006KT CAVOK 07/02 Q1023 NOSIG
2026-04-07 01:00:00,METAR LFPG 070100Z 06005KT CAVOK 08/02 Q1023 NOSIG
2026-04-07 00:30:00,METAR LFPG 070030Z 08004KT CAVOK 09/02 Q1023 NOSIG
2026-04-07 00:00:00,METAR LFPG 070000Z 07006KT CAVOK 09/02 Q1023 NOSIG
2026-04-06 23:30:00,METAR LFPG 062330Z 08006KT CAVOK 10/02 Q1023 NOSIG
2026-04-06 23:00:00,METAR LFPG 062300Z 08007KT CAVOK 10/03 Q1024 NOSIG
2026-04-06 22:30:00,METAR LFPG 062230Z 08008KT CAVOK 10/03 Q1024 NOSIG
2026-04-06 22:00:00,METAR LFPG 062200Z 08007KT CAVOK 12/02 Q1024 NOSIG
2026-04-06 21:30:00,METAR LFPG 062130Z 08007KT CAVOK 11/04 Q1024 NOSIG
2026-04-06 21:00:00,METAR LFPG 062100Z 07007KT CAVOK 11/04 Q1024 NOSIG
2026-04-06 20:30:00,METAR LFPG 062030Z 07009KT CAVOK 12/04 Q1024 NOSIG
2026-04-06 20:00:00,METAR LFPG 062000Z 07008KT CAVOK 13/05 Q1024 NOSIG
2026-04-06 19:30:00,METAR LFPG 061930Z 07009KT CAVOK 13/05 Q1024 NOSIG
2026-04-06 19:00:00,METAR LFPG 061900Z 06009KT CAVOK 14/05 Q1024 NOSIG
2026-04-06 18:30:00,METAR LFPG 061830Z 06008KT CAVOK 15/05 Q1024 NOSIG
2026-04-06 18:00:00,METAR LFPG 061800Z 06008KT CAVOK 19/04 Q1024 NOSIG
2026-04-06 17:30:00,METAR LFPG 061730Z 07008KT CAVOK 20/04 Q1024 NOSIG
2026-04-06 17:00:00,METAR LFPG 061700Z 06009KT CAVOK 21/03 Q1024 NOSIG
2026-04-06 16:30:00,METAR LFPG 061630Z 07008KT CAVOK 18/M00 Q1025 NOSIG
2026-04-06 16:00:00,METAR LFPG 061600Z 07008KT CAVOK 18/M01 Q1025 NOSIG
2026-04-06 15:30:00,METAR LFPG 061530Z 09007KT 030V140 CAVOK 18/03 Q1025 NOSIG
2026-04-06 15:00:00,METAR LFPG 061500Z 07007KT 050V120 CAVOK 18/04 Q1025 NOSIG
2026-04-06 14:30:00,METAR LFPG 061430Z 07006KT 030V110 CAVOK 18/05 Q1025 NOSIG
2026-04-06 14:00:00,METAR LFPG 061400Z 09005KT 040V140 CAVOK 17/05 Q1026 NOSIG
2026-04-06 13:30:00,METAR LFPG 061330Z 07006KT 020V120 CAVOK 17/04 Q1026 NOSIG
2026-04-06 13:00:00,METAR LFPG 061300Z 13005KT 090V170 CAVOK 16/04 Q1026 NOSIG
2026-04-06 12:30:00,METAR LFPG 061230Z 10006KT 030V150 CAVOK 16/04 Q1027 NOSIG
2026-04-06 12:00:00,METAR LFPG 061200Z COR 11007KT 070V140 CAVOK 14/04 Q1027 NOSIG
2026-04-06 11:30:00,METAR LFPG 061130Z 10007KT 050V140 CAVOK 14/04 Q1027 NOSIG
2026-04-06 11:00:00,METAR LFPG 061100Z 11007KT 070V160 CAVOK 14/03 Q1027 NOSIG
2026-04-06 10:30:00,METAR LFPG 061030Z 10007KT 060V150 CAVOK 13/04 Q1028 NOSIG
2026-04-06 10:00:00,METAR LFPG 061000Z 08007KT CAVOK 12/04 Q1028 NOSIG
2026-04-06 09:30:00,METAR LFPG 060930Z 11008KT 070V130 CAVOK 11/03 Q1028 NOSIG
2026-04-06 09:00:00,METAR LFPG 060900Z 10008KT 060V120 CAVOK 10/04 Q1028 NOSIG
2026-04-06 08:30:00,METAR LFPG 060830Z 11007KT 070V130 CAVOK 10/04 Q1028 NOSIG
2026-04-06 08:00:00,METAR LFPG 060800Z 08006KT 050V110 CAVOK 09/04 Q1028 NOSIG
2026-04-06 07:30:00,METAR LFPG 060730Z 03004KT CAVOK 09/04 Q1028 NOSIG
2026-04-06 07:00:00,METAR LFPG 060700Z 07005KT CAVOK 07/04 Q1028 NOSIG
2026-04-06 06:30:00,METAR LFPG 060630Z 07004KT CAVOK 06/03 Q1028 NOSIG
2026-04-06 06:00:00,METAR LFPG 060600Z 07004KT CAVOK 05/03 Q1027 NOSIG
2026-04-06 05:30:00,METAR LFPG 060530Z 07004KT 030V090 CAVOK 04/02 Q1027 NOSIG
2026-04-06 05:00:00,METAR LFPG 060500Z 06004KT 030V090 CAVOK 04/03 Q1027 NOSIG
2026-04-06 04:30:00,METAR LFPG 060430Z 09003KT CAVOK 04/02 Q1027 NOSIG
2026-04-06 04:00:00,METAR LFPG 060400Z 06004KT CAVOK 04/02 Q1027 NOSIG
2026-04-06 03:30:00,METAR LFPG 060330Z 06002KT CAVOK 04/03 Q1027 NOSIG
2026-04-06 03:00:00,METAR LFPG 060300Z VRB01KT CAVOK 04/02 Q1027 NOSIG
2026-04-06 02:30:00,METAR LFPG 060230Z 34001KT CAVOK 05/03 Q1027 NOSIG
2026-04-06 02:00:00,METAR LFPG 060200Z 00000KT CAVOK 05/03 Q1027 NOSIG
2026-04-06 01:30:00,METAR LFPG 060130Z 00000KT CAVOK 05/03 Q1027 NOSIG
2026-04-06 01:00:00,METAR LFPG 060100Z 00000KT CAVOK 06/03 Q1027 NOSIG
2026-04-06 00:30:00,METAR LFPG 060030Z 01003KT CAVOK 07/03 Q1027 NOSIG
2026-04-06 00:00:00,METAR LFPG 060000Z 02004KT CAVOK 07/03 Q1027 NOSIG
2026-04-05 23:30:00,METAR LFPG 052330Z 03005KT CAVOK 06/03 Q1027 NOSIG
2026-04-05 23:00:00,METAR LFPG 052300Z 03004KT CAVOK 07/03 Q1027 NOSIG
2026-04-05 22:30:00,METAR LFPG 052230Z VRB02KT CAVOK 08/04 Q1026 NOSIG
2026-04-05 22:00:00,METAR LFPG 052200Z 35003KT CAVOK 08/04 Q1026 NOSIG
2026-04-05 21:30:00,METAR LFPG 052130Z 34003KT CAVOK 09/04 Q1026 NOSIG
2026-04-05 21:00:00,METAR LFPG 052100Z 30004KT CAVOK 09/04 Q1026 NOSIG
2026-04-05 20:30:00,METAR LFPG 052030Z 32003KT CAVOK 09/05 Q1026 NOSIG
2026-04-05 20:00:00,METAR LFPG 052000Z 33004KT CAVOK 10/04 Q1025 NOSIG
2026-04-05 19:30:00,METAR LFPG 051930Z 33004KT 9999 FEW045 10/05 Q1025 NOSIG
2026-04-05 19:00:00,METAR LFPG 051900Z 33004KT CAVOK 11/05 Q1025 NOSIG
2026-04-05 18:30:00,METAR LFPG 051830Z 32008KT 9999 FEW047 SCT060 12/05 Q1024 NOSIG
2026-04-05 18:00:00,METAR LFPG 051800Z 33010KT CAVOK 13/05 Q1024 NOSIG
2026-04-05 17:30:00,METAR LFPG 051730Z 29010KT 9999 FEW049 BKN056 13/04 Q1024 NOSIG
2026-04-05 17:00:00,METAR LFPG 051700Z 29011KT CAVOK 13/05 Q1023 NOSIG
2026-04-05 16:30:00,METAR LFPG 051630Z 30013KT CAVOK 14/05 Q1023 NOSIG
2026-04-05 16:00:00,METAR LFPG 051600Z 31013KT 9999 FEW046 SCT053 BKN120 14/06 Q1023 NOSIG
2026-04-05 15:00:00,METAR LFPG 051500Z 30013KT 9999 FEW041 SCT045 BKN052 15/06 Q1023 NOSIG
2026-04-05 13:00:00,METAR LFPG 051300Z 25014KT 9999 FEW044 SCT051 BKN260 15/04 Q1022 NOSIG
2026-04-05 12:30:00,METAR LFPG 051230Z 27012KT 240V300 9999 BKN044 BKN170 BKN300 15/04 Q1022 NOSIG
2026-04-05 12:00:00,METAR LFPG 051200Z 25014KT 230V290 9999 BKN043 BKN170 BKN300 15/05 Q1021 NOSIG
2026-04-05 11:30:00,METAR LFPG 051130Z 25014KT 9999 BKN036 BKN300 15/05 Q1021 NOSIG
2026-04-05 11:00:00,METAR LFPG 051100Z 26014KT 9999 SCT040 BKN300 14/05 Q1022 NOSIG
2026-04-05 10:30:00,METAR LFPG 051030Z 24013KT 9999 FEW028 BKN035 14/06 Q1021 NOSIG
2026-04-05 10:00:00,METAR LFPG 051000Z 26015KT 9999 BKN028 13/06 Q1021 NOSIG
2026-04-05 09:30:00,METAR LFPG 050930Z 27010KT 9999 BKN030 13/06 Q1021 NOSIG
2026-04-05 09:00:00,METAR LFPG 050900Z 27014KT 9999 FEW016 SCT026 BKN036 12/08 Q1020 NOSIG
2026-04-05 08:30:00,METAR LFPG 050830Z 26010KT 9999 BKN018 BKN031 12/08 Q1020 NOSIG
2026-04-05 08:00:00,METAR LFPG 050800Z 26012KT 9999 BKN018 12/09 Q1020 NOSIG
2026-04-05 07:30:00,METAR LFPG 050730Z 24013KT 9999 BKN020 12/08 Q1019 NOSIG
2026-04-05 07:00:00,METAR LFPG 050700Z 23011KT 200V260 9999 BKN021 BKN027 12/07 Q1019 NOSIG
2026-04-05 06:30:00,METAR LFPG 050630Z 22012KT 9999 SCT023 BKN025 12/07 Q1018 NOSIG
2026-04-05 06:00:00,METAR LFPG 050600Z 22010KT 9999 BKN025 12/07 Q1018 NOSIG
2026-04-05 05:30:00,METAR LFPG 050530Z 23012KT 9999 BKN025 BKN028 11/07 Q1017 NOSIG
2026-04-05 05:00:00,METAR LFPG 050500Z 23013KT 9999 OVC028 11/07 Q1017 NOSIG
2026-04-05 04:30:00,METAR LFPG 050430Z 24012KT 9999 BKN025 11/07 Q1017 NOSIG
2026-04-05 04:00:00,METAR LFPG 050400Z 25014KT 9999 BKN025 11/06 Q1017 NOSIG
2026-04-05 03:30:00,METAR LFPG 050330Z 26017KT 9999 SCT026 11/06 Q1016 NOSIG
2026-04-05 03:00:00,METAR LFPG 050300Z 26017KT 9999 FEW032 BKN260 12/06 Q1016 NOSIG
2026-04-05 02:30:00,METAR LFPG 050230Z 25015KT CAVOK 14/07 Q1015 NOSIG
2026-04-05 02:00:00,METAR LFPG 050200Z 23013G23KT 190V250 CAVOK 13/07 Q1015 NOSIG
2026-04-05 01:30:00,METAR LFPG 050130Z 19011KT CAVOK 13/08 Q1015 NOSIG
2026-04-05 01:00:00,METAR LFPG 050100Z 19011G23KT 140V200 CAVOK 13/08 Q1015 NOSIG
2026-04-05 00:30:00,METAR LFPG 050030Z 18012KT CAVOK 14/08 Q1015 NOSIG
2026-04-05 00:00:00,METAR LFPG 050000Z 19014G27KT 170V290 CAVOK 14/08 Q1015 NOSIG
2026-04-04 23:30:00,METAR LFPG 042330Z 19015KT CAVOK 14/07 Q1015 NOSIG
2026-04-04 23:00:00,METAR LFPG 042300Z 19014KT CAVOK 14/07 Q1016 NOSIG
2026-04-04 22:30:00,METAR LFPG 042230Z 19015KT CAVOK 15/07 Q1016 NOSIG
2026-04-04 22:00:00,METAR LFPG 042200Z 18014KT CAVOK 15/07 Q1016 NOSIG
2026-04-04 21:30:00,METAR LFPG 042130Z 18013KT CAVOK 14/07 Q1016 NOSIG
2026-04-04 21:00:00,METAR LFPG 042100Z 18011G23KT 170V260 CAVOK 15/08 Q1016 NOSIG
2026-04-04 20:30:00,METAR LFPG 042030Z VRB10G21KT CAVOK 15/08 Q1016 NOSIG
2026-04-04 20:00:00,METAR LFPG 042000Z 18008KT CAVOK 15/08 Q1017 NOSIG
2026-04-04 19:30:00,METAR LFPG 041930Z 18007KT CAVOK 15/08 Q1017 NOSIG
2026-04-04 19:00:00,METAR LFPG 041900Z 19010KT CAVOK 16/08 Q1017 NOSIG
2026-04-04 18:30:00,METAR LFPG 041830Z 19010KT CAVOK 17/08 Q1017 NOSIG
2026-04-04 18:00:00,METAR LFPG 041800Z 20013KT CAVOK 17/08 Q1018 NOSIG
2026-04-04 17:30:00,METAR LFPG 041730Z 20015KT CAVOK 18/08 Q1018 NOSIG
2026-04-04 17:00:00,METAR LFPG 041700Z 20016KT CAVOK 18/08 Q1018 NOSIG
2026-04-04 16:30:00,METAR LFPG 041630Z 20014KT CAVOK 18/08 Q1018 NOSIG
2026-04-04 16:00:00,METAR LFPG 041600Z 20012KT CAVOK 19/09 Q1019 NOSIG
2026-04-04 15:30:00,METAR LFPG 041530Z 21014KT CAVOK 18/09 Q1019 NOSIG
2026-04-04 15:00:00,METAR LFPG 041500Z 19014KT CAVOK 18/09 Q1020 NOSIG
2026-04-04 14:30:00,METAR LFPG 041430Z 19014KT 9999 FEW031 BKN260 18/09 Q1020 NOSIG
2026-04-04 14:00:00,METAR LFPG 041400Z 20013KT 170V230 9999 FEW028 BKN260 17/09 Q1021 NOSIG
2026-04-04 13:30:00,METAR LFPG 041330Z 18012KT 9999 FEW023 BKN260 15/09 Q1021 NOSIG
2026-04-04 13:00:00,METAR LFPG 041300Z 19013KT 9999 FEW021 SCT180 BKN260 14/09 Q1022 NOSIG
2026-04-04 12:30:00,METAR LFPG 041230Z COR 19014KT 9999 FEW016 BKN018 14/10 Q1022 NOSIG
2026-04-04 12:00:00,METAR LFPG 041200Z 21014KT 9999 BKN016 13/10 Q1022 NOSIG
2026-04-04 11:30:00,METAR LFPG 041130Z 21013KT 9999 BKN016 13/10 Q1022 NOSIG
2026-04-04 11:00:00,METAR LFPG 041100Z 21013KT 9999 BKN016 13/10 Q1022 NOSIG
2026-04-04 10:30:00,METAR LFPG 041030Z 22011KT 9999 FEW016 BKN018 14/10 Q1022 NOSIG
2026-04-04 10:00:00,METAR LFPG 041000Z 22011KT 9999 BKN018 13/11 Q1023 NOSIG
2026-04-04 09:30:00,METAR LFPG 040930Z 23009KT 9999 FEW012 BKN021 13/11 Q1023 BECMG BKN020
2026-04-04 09:00:00,METAR LFPG 040900Z 22010KT 9999 BKN010 BKN018 BKN031 13/11 Q1022 NOSIG
2026-04-04 08:30:00,METAR LFPG 040830Z 22009KT 9999 BKN009 BKN020 BKN028 12/12 Q1022 NOSIG
2026-04-04 08:00:00,METAR LFPG 040800Z 22008KT 7000 FEW006 BKN011 BKN026 12/12 Q1022 TEMPO BKN004
2026-04-04 07:30:00,METAR LFPG 040730Z 23008KT 2500 -DZ BR SCT004 BKN006 BKN014 12/11 Q1022 TEMPO BKN004
2026-04-04 07:04:00,METAR LFPG 040704Z 26005KT 2000 -DZ BR BKN003 12/11 Q1022 TEMPO BKN004
2026-04-04 07:00:00,METAR LFPG 040700Z 25005KT 2500 -DZ BR SCT003 BKN004 12/11 Q1022 TEMPO BKN004
2026-04-04 06:30:00,METAR LFPG 040630Z 24007KT 8000 FEW007 BKN020 12/11 Q1022 TEMPO BKN006
2026-04-04 06:00:00,METAR LFPG 040600Z COR 23007KT 7000 -DZ BKN009 BKN021 12/11 Q1022 NOSIG
2026-04-04 05:30:00,METAR LFPG 040530Z 23007KT 9999 FEW005 BKN025 11/11 Q1021 NOSIG
2026-04-04 05:00:00,METAR LFPG 040500Z 24006KT 9999 FEW009 BKN030 12/11 Q1021 NOSIG
2026-04-04 04:30:00,METAR LFPG 040430Z 24007KT 9999 BKN012 BKN031 12/11 Q1021 NOSIG
2026-04-04 04:00:00,METAR LFPG 040400Z 24006KT 9999 BKN011 BKN028 12/11 Q1021 NOSIG
2026-04-04 03:30:00,METAR LFPG 040330Z 24007KT 9999 SCT010 BKN018 12/11 Q1021 NOSIG
2026-04-04 03:00:00,METAR LFPG 040300Z 25008KT 9999 FEW009 BKN011 BKN016 12/11 Q1021 NOSIG
2026-04-04 02:30:00,METAR LFPG 040230Z 26008KT 9999 SCT007 BKN010 12/11 Q1021 NOSIG
2026-04-04 02:00:00,METAR LFPG 040200Z 26008KT 9999 SCT007 BKN010 12/11 Q1021 NOSIG
2026-04-04 01:30:00,METAR LFPG 040130Z 25009KT 9999 BKN007 BKN011 12/11 Q1021 NOSIG
2026-04-04 01:00:00,METAR LFPG 040100Z 25006KT 6000 BKN003 BKN008 12/11 Q1021 BECMG BKN008
2026-04-04 00:30:00,METAR LFPG 040030Z 26006KT 3500 -DZ BR SCT002 BKN003 12/11 Q1020 BECMG 6000 BKN008
2026-04-04 00:00:00,METAR LFPG 040000Z 25007KT 3000 -DZ BR BKN003 12/11 Q1020 NOSIG
2026-04-03 23:30:00,METAR LFPG 032330Z 24008KT 4500 -DZ BR BKN003 12/11 Q1020 NOSIG
2026-04-03 23:00:00,METAR LFPG 032300Z 24009KT 4500 -DZ BR BKN004 12/11 Q1020 NOSIG
2026-04-03 22:30:00,METAR LFPG 032230Z 24009KT 9999 -DZ BKN007 12/11 Q1020 NOSIG
2026-04-03 22:00:00,METAR LFPG 032200Z 23010KT 9999 BKN008 12/11 Q1019 NOSIG
2026-04-03 21:30:00,METAR LFPG 032130Z 22012KT 9000 BKN008 12/11 Q1019 NOSIG
2026-04-03 21:00:00,METAR LFPG 032100Z 22012KT 9000 -DZ BKN008 11/10 Q1019 NOSIG
2026-04-03 20:30:00,METAR LFPG 032030Z 22013KT 9999 BKN008 11/10 Q1019 NOSIG
2026-04-03 20:00:00,METAR LFPG 032000Z 22011KT 9999 BKN009 12/10 Q1019 NOSIG
2026-04-03 19:30:00,METAR LFPG 031930Z 21011KT 9999 BKN008 11/10 Q1019 NOSIG
2026-04-03 19:00:00,METAR LFPG 031900Z 21010G24KT 190V290 9999 BKN009 11/10 Q1018 NOSIG
2026-04-03 18:30:00,METAR LFPG 031830Z 22010KT 9999 BKN008 BKN010 11/10 Q1018 NOSIG
2026-04-03 18:00:00,METAR LFPG 031800Z 22012KT 9999 BKN009 BKN010 11/10 Q1018 NOSIG
2026-04-03 17:30:00,METAR LFPG 031730Z 21012KT 9999 BKN009 BKN010 11/10 Q1018 NOSIG
2026-04-03 17:00:00,METAR LFPG 031700Z 21013KT 8000 -RA BKN006 BKN010 10/10 Q1018 NOSIG
2026-04-03 16:30:00,METAR LFPG 031630Z 21012KT 6000 -RA BKN006 BKN011 10/09 Q1018 TEMPO BKN015
2026-04-03 16:00:00,METAR LFPG 031600Z 22015KT 6000 -RA SCT008 BKN013 10/09 Q1018 TEMPO BKN015
2026-04-03 15:30:00,METAR LFPG 031530Z 23017KT 9999 -DZ SCT014 BKN017 11/08 Q1018 TEMPO BKN015
2026-04-03 15:00:00,METAR LFPG 031500Z 23013KT 9999 -DZ SCT013 BKN020 11/08 Q1018 TEMPO BKN015
2026-04-03 14:30:00,METAR LFPG 031430Z 23015KT 9999 FEW015 BKN026 12/08 Q1018 TEMPO BKN015
2026-04-03 14:00:00,METAR LFPG 031400Z 24017KT 9999 FEW020 BKN026 12/07 Q1018 TEMPO BKN015
2026-04-03 13:30:00,METAR LFPG 031330Z 23015KT 9999 BKN026 13/07 Q1018 TEMPO BKN015
2026-04-03 13:00:00,METAR LFPG 031300Z 23013KT 9999 BKN026 13/07 Q1018 NOSIG
2026-04-03 12:30:00,METAR LFPG 031230Z 22015KT 9999 BKN026 12/06 Q1018 NOSIG
2026-04-03 12:00:00,METAR LFPG 031200Z 22014KT 9999 FEW021 BKN026 12/06 Q1018 NOSIG
2026-04-03 11:30:00,METAR LFPG 031130Z 22014KT 9999 SCT026 BKN035 12/05 Q1019 NOSIG
2026-04-03 11:00:00,METAR LFPG 031100Z 22012KT 9999 FEW031 BKN035 11/05 Q1019 NOSIG
2026-04-03 10:30:00,METAR LFPG 031030Z 23011KT 9999 SCT040 BKN046 11/04 Q1019 NOSIG
2026-04-03 10:00:00,METAR LFPG 031000Z 22013KT 9999 SCT042 BKN050 11/04 Q1019 NOSIG
2026-04-03 09:30:00,METAR LFPG 030930Z 22011KT CAVOK 10/05 Q1019 NOSIG
2026-04-03 09:00:00,METAR LFPG 030900Z 22010KT CAVOK 09/04 Q1019 NOSIG
2026-04-03 08:30:00,METAR LFPG 030830Z 24006KT 200V260 CAVOK 08/04 Q1019 NOSIG
2026-04-03 08:00:00,METAR LFPG 030800Z 22007KT CAVOK 07/04 Q1019 NOSIG
2026-04-03 07:30:00,METAR LFPG 030730Z 21006KT CAVOK 06/03 Q1019 NOSIG
2026-04-03 07:00:00,METAR LFPG 030700Z 21007KT CAVOK 05/03 Q1019 NOSIG
2026-04-03 06:30:00,METAR LFPG 030630Z 24005KT CAVOK 05/02 Q1020 NOSIG
2026-04-03 06:00:00,METAR LFPG 030600Z 24004KT 8000 NSC 05/02 Q1019 NOSIG
2026-04-03 05:30:00,METAR LFPG 030530Z 21004KT CAVOK 04/02 Q1019 NOSIG
2026-04-03 05:00:00,METAR LFPG 030500Z AUTO 23003KT CAVOK 04/02 Q1019 NOSIG
2026-04-03 04:30:00,METAR LFPG 030430Z AUTO 24002KT CAVOK 03/02 Q1019 NOSIG
2026-04-03 04:00:00,METAR LFPG 030400Z AUTO 25003KT CAVOK 03/02 Q1019 NOSIG
2026-04-03 03:30:00,METAR LFPG 030330Z AUTO 26004KT CAVOK 03/01 Q1019 NOSIG
2026-04-03 03:00:00,METAR LFPG 030300Z AUTO 26004KT CAVOK 03/01 Q1019 TEMPO 4000 BR
2026-04-03 02:30:00,METAR LFPG 030230Z AUTO 25003KT CAVOK 04/01 Q1019 TEMPO 4000 BR
2026-04-03 02:00:00,METAR LFPG 030200Z AUTO 26004KT CAVOK 03/01 Q1020 TEMPO 4000 BR
2026-04-03 01:30:00,METAR LFPG 030130Z AUTO 25003KT CAVOK 04/02 Q1020 TEMPO 4000 BR
2026-04-03 01:00:00,METAR LFPG 030100Z AUTO 29004KT CAVOK 04/02 Q1020 TEMPO 4000 BR
2026-04-03 00:30:00,METAR LFPG 030030Z AUTO 30003KT CAVOK 04/02 Q1020 TEMPO 4000 BR
2026-04-03 00:00:00,METAR LFPG 030000Z AUTO 29001KT CAVOK 04/02 Q1020 TEMPO 4000 BR
2026-04-02 23:30:00,METAR LFPG 022330Z AUTO 32003KT 9999 FEW035 05/02 Q1020 TEMPO 4000 BR
2026-04-02 23:00:00,METAR LFPG 022300Z AUTO 31004KT 9999 FEW034 05/02 Q1020 NOSIG
2026-04-02 22:30:00,METAR LFPG 022230Z AUTO 32005KT 9999 FEW034 06/02 Q1020 NOSIG
2026-04-02 22:00:00,METAR LFPG 022200Z AUTO 34005KT 9999 FEW035 06/03 Q1020 NOSIG
2026-04-02 21:30:00,METAR LFPG 022130Z AUTO 36005KT CAVOK 07/03 Q1020 NOSIG
2026-04-02 21:00:00,METAR LFPG 022100Z AUTO 33006KT 9999 FEW020 07/03 Q1020 NOSIG
2026-04-02 20:30:00,METAR LFPG 022030Z AUTO 34007KT 9999 SCT019 SCT028 BKN037 08/05 Q1020 NOSIG
2026-04-02 20:00:00,METAR LFPG 022000Z AUTO 35007KT 9999 FEW021 BKN036 BKN050 10/06 Q1020 NOSIG
2026-04-02 19:30:00,METAR LFPG 021930Z AUTO 01006KT 9999 FEW020 BKN038 BKN047 10/07 Q1020 NOSIG
2026-04-02 19:00:00,METAR LFPG 021900Z AUTO 35009KT 9999 FEW020 BKN030 OVC040 10/06 Q1020 NOSIG
2026-04-02 18:30:00,METAR LFPG 021830Z AUTO 36010KT 9999 SCT021 BKN028 BKN033 10/07 Q1020 NOSIG
2026-04-02 18:00:00,METAR LFPG 021800Z AUTO 01009KT 9999 BKN020 BKN027 BKN035 11/07 Q1020 NOSIG
2026-04-02 17:30:00,METAR LFPG 021730Z AUTO 02010KT 9999 FEW021 SCT029 BKN034 11/07 Q1019 NOSIG
2026-04-02 17:00:00,METAR LFPG 021700Z 01010KT 9999 FEW024TCU SCT026 BKN036 13/07 Q1019 NOSIG
2026-04-02 16:30:00,METAR LFPG 021630Z 35007KT 9999 FEW026TCU SCT038 BKN070 13/08 Q1019 NOSIG
2026-04-02 16:00:00,METAR LFPG 021600Z 35008KT 9999 FEW026TCU SCT033 BKN066 12/07 Q1019 NOSIG
2026-04-02 15:30:00,METAR LFPG 021530Z 34009KT 9999 FEW026TCU SCT039 BKN066 13/07 Q1019 NOSIG
2026-04-02 15:00:00,METAR LFPG 021500Z 33007KT 9999 FEW026TCU BKN055 13/07 Q1019 NOSIG
2026-04-02 14:30:00,METAR LFPG 021430Z 32008KT 300V360 9999 FEW026TCU BKN050 13/07 Q1019 NOSIG
2026-04-02 14:00:00,METAR LFPG 021400Z 32009KT 9999 FEW025 BKN045 13/07 Q1019 TEMPO 4500 -SHRA BKN020TCU
2026-04-02 13:30:00,METAR LFPG 021330Z 31009KT 9999 FEW023 BKN034 BKN045 13/07 Q1019 TEMPO 4500 -SHRA BKN020TCU
2026-04-02 13:00:00,METAR LFPG 021300Z 31004KT 270V330 9999 FEW023 BKN036 12/08 Q1019 TEMPO 4500 -SHRA BKN020TCU
2026-04-02 12:30:00,METAR LFPG 021230Z 34004KT 310V020 9999 SCT022 SCT032 BKN040 12/07 Q1019 TEMPO 4500 -SHRA BKN020TCU
2026-04-02 12:00:00,METAR LFPG 021200Z 32006KT 250V360 9999 SCT018 BKN045 BKN089 13/07 Q1019 TEMPO 4500 -SHRA BKN020TCU
2026-04-02 11:30:00,METAR LFPG 021130Z 32005KT 260V010 9999 SCT015 SCT039 BKN066 12/07 Q1019 TEMPO 4500 -SHRA BKN020TCU
2026-04-02 11:00:00,METAR LFPG 021100Z 32004KT 280V350 8000 SCT011 SCT056 BKN068 11/08 Q1020 NOSIG
2026-04-02 10:30:00,METAR LFPG 021030Z 30004KT 240V330 7000 SCT009 SCT012 BKN073 10/08 Q1020 NOSIG
2026-04-02 10:00:00,METAR LFPG 021000Z VRB03KT 7000 SCT010 BKN078 10/08 Q1020 NOSIG
2026-04-02 09:30:00,METAR LFPG 020930Z VRB02KT 6000 BKN007 10/08 Q1019 TEMPO 4500 -RADZ SCT006 BKN030
2026-04-02 09:00:00,METAR LFPG 020900Z VRB02KT 6000 BKN007 09/07 Q1019 TEMPO 4500 -RADZ SCT006 BKN030
2026-04-02 08:30:00,METAR LFPG 020830Z 28004KT 240V300 6000 BKN007 09/07 Q1019 TEMPO 4500 -RADZ SCT006 BKN030
2026-04-02 08:00:00,METAR LFPG 020800Z 22003KT 8000 BKN009 09/07 Q1019 TEMPO 4500 -RADZ SCT006 BKN030
2026-04-02 07:30:00,METAR LFPG 020730Z 22004KT 180V240 8000 3000S BKN009 BKN046 08/06 Q1019 TEMPO 4500 -RADZ SCT006 BKN030
2026-04-02 07:00:00,METAR LFPG 020700Z 21005KT 180V250 8000 2000S SCT001 BKN008 BKN043 08/06 Q1019 TEMPO 4500 -RADZ SCT006 BKN030
2026-04-02 06:30:00,METAR LFPG 020630Z 24002KT 8000 R08R/1400D FEW007 SCT037 BKN064 08/06 Q1019 TEMPO 4500 -RADZ SCT006 BKN030
2026-04-02 06:00:00,METAR LFPG 020600Z VRB02KT 8000 BKN039 08/06 Q1018 TEMPO 4500 -RADZ SCT006 BKN030
2026-04-02 05:30:00,METAR LFPG 020530Z 29004KT 8000 -RA BKN042 08/07 Q1018 TEMPO 4500 -RADZ SCT006 BKN030
2026-04-02 05:00:00,METAR LFPG 020500Z AUTO 31005KT 9000 3700 FEW002 BKN052 OVC080 08/07 Q1018 TEMPO 1200 -DZ BR BKN003
2026-04-02 04:30:00,METAR LFPG 020430Z AUTO 28004KT 5000 2200 R26L/1300D BR FEW002 BKN052 BKN064 08/07 Q1018 TEMPO 1200 -DZ BR BKN003
2026-04-02 04:00:00,METAR LFPG 020400Z AUTO 24003KT 6000 0800 R27L/P2000 R09R/P2000 R26R/P2000 R08L/P2000 R26L/1300D R08R/1100D R27R/P2000 R09L/P2000 BCFG FEW002 SCT050 OVC078 08/07 Q1018 TEMPO 1200 -DZ BR BKN003
2026-04-02 03:30:00,METAR LFPG 020330Z AUTO 22004KT 6000 2100 FEW002 BKN047 BKN064 09/07 Q1018 TEMPO 1200 -DZ BR BKN003
2026-04-02 03:00:00,METAR LFPG 020300Z AUTO 25002KT 4700 2300 BR FEW003 BKN049 OVC058 09/08 Q1019 TEMPO 1200 -DZ BR BKN003
2026-04-02 02:30:00,METAR LFPG 020230Z AUTO 31002KT 4200 1900 BR SCT005 BKN049 OVC056 09/08 Q1019 TEMPO 1200 -DZ BR BKN003
2026-04-02 02:00:00,METAR LFPG 020200Z AUTO 32003KT 3800 1400 R27L/P2000 R09R/P2000 R26R/P2000 R08L/P2000 R26L/P2000 R08R/P2000 R27R/P2000 R09L/P2000 BR SCT005 SCT012 BKN056 09/08 Q1019 TEMPO BKN006
2026-04-02 01:30:00,METAR LFPG 020130Z AUTO 36002KT 3400 1100 R27L/P2000 R09R/1500U R26R/P2000 R08L/P2000 R26L/1400D R08R/P2000 R27R/P2000 R09L/P2000 BR SCT005 BKN010 BKN056 09/08 Q1019 NOSIG
2026-04-02 01:00:00,METAR LFPG 020100Z AUTO 26002KT 3000 0900 R27L/P2000 R09R/P2000 R26R/1300N R08L/P2000 R26L/1200D R08R/P2000 R27R/P2000 R09L/P2000 BCFG FEW004 BKN052 OVC062 09/08 Q1019 TEMPO BKN006
2026-04-02 00:30:00,METAR LFPG 020030Z AUTO 00000KT 4100 0800 R27L/P2000 R09R/P2000 R26R/P2000 R08L/P2000 R26L/2000U R08R/P2000 R27R/P2000 R09L/P2000 BCFG FEW006 BKN052 BKN064 09/08 Q1020 TEMPO BKN006
2026-04-02 00:00:00,METAR LFPG 020000Z AUTO 32001KT 5000 1200 R27L/P2000 R09R/P2000 R26R/P2000 R08L/P2000 R26L/1400D R08R/P2000 R27R/P2000 R09L/P2000 BR FEW006 BKN039 BKN045 09/08 Q1020 NOSIG
2026-04-01 23:30:00,METAR LFPG 012330Z AUTO VRB01KT 5000 BR FEW008 SCT036 BKN044 09/08 Q1020 NOSIG
2026-04-01 23:00:00,METAR LFPG 012300Z AUTO 14002KT 6000 SCT036 SCT046 OVC056 09/08 Q1020 NOSIG
2026-04-01 22:30:00,METAR LFPG 012230Z AUTO 00000KT 6000 BKN034 BKN046 BKN062 09/08 Q1020 NOSIG
2026-04-01 22:00:00,METAR LFPG 012200Z AUTO VRB02KT 7000 SCT035 BKN052 OVC072 09/08 Q1020 NOSIG
2026-04-01 21:30:00,METAR LFPG 012130Z AUTO 00000KT 8000 -DZ FEW033 SCT054 OVC070 09/08 Q1020 NOSIG
2026-04-01 21:00:00,METAR LFPG 012100Z AUTO 28003KT 8000 FEW046 SCT052 OVC070 10/08 Q1021 NOSIG
2026-04-01 20:30:00,METAR LFPG 012030Z AUTO VRB02KT 9999 FEW013 SCT038 BKN047 10/08 Q1021 NOSIG
2026-04-01 20:00:00,METAR LFPG 012000Z AUTO 14003KT 9999 FEW014 SCT030 OVC039 10/08 Q1021 NOSIG
2026-04-01 19:30:00,METAR LFPG 011930Z AUTO 12004KT 090V160 9000 FEW015 SCT034 OVC043 10/08 Q1021 NOSIG
2026-04-01 19:00:00,METAR LFPG 011900Z AUTO 10006KT 9999 FEW015 BKN031 BKN039 10/08 Q1021 NOSIG
2026-04-01 18:30:00,METAR LFPG 011830Z AUTO 06004KT 9999 BKN029 OVC035 11/08 Q1021 NOSIG
2026-04-01 18:00:00,METAR LFPG 011800Z AUTO VRB03KT 9999 BKN028 OVC036 11/08 Q1021 NOSIG
2026-04-01 17:30:00,METAR LFPG 011730Z AUTO VRB02KT 9999 OVC027 11/08 Q1021 NOSIG
2026-04-01 17:00:00,METAR LFPG 011700Z VRB03KT 9999 BKN025 11/08 Q1021 NOSIG
2026-04-01 16:30:00,METAR LFPG 011630Z 32003KT 9999 BKN025 11/08 Q1021 NOSIG
2026-04-01 16:00:00,METAR LFPG 011600Z VRB03KT 9999 BKN015 11/08 Q1021 NOSIG
2026-04-01 15:30:00,METAR LFPG 011530Z VRB03KT 9999 BKN020 11/08 Q1022 NOSIG
2026-04-01 15:00:00,METAR LFPG 011500Z 05003KT 010V090 9999 BKN014 11/08 Q1022 NOSIG
2026-04-01 14:00:00,METAR LFPG 011400Z VRB03KT 9999 BKN014 11/08 Q1022 BECMG BKN016
2026-04-01 13:30:00,METAR LFPG 011330Z VRB03KT 9999 BKN013 11/07 Q1023 BECMG BKN016
2026-04-01 13:00:00,METAR LFPG 011300Z 07003KT 020V140 9999 BKN014 11/07 Q1023 BECMG BKN016
2026-04-01 12:30:00,METAR LFPG 011230Z 06003KT 030V100 8000 BKN012 10/08 Q1023 BECMG BKN016
2026-04-01 12:00:00,METAR LFPG 011200Z 06003KT 8000 BKN011 10/08 Q1024 BECMG BKN016
2026-04-01 11:30:00,METAR LFPG 011130Z VRB03KT 7000 BKN009 10/08 Q1024 BECMG 8000 NSW BKN012
2026-04-01 11:00:00,METAR LFPG 011100Z 06003KT 040V100 5000 BR BKN006 10/08 Q1024 BECMG 8000 NSW BKN012
2026-04-01 10:30:00,METAR LFPG 011030Z 09004KT 050V120 5000 BR BKN006 10/08 Q1025 BECMG 8000 NSW BKN012
2026-04-01 10:00:00,METAR LFPG 011000Z 09004KT 5000 BR BKN006 09/08 Q1025 BECMG 9999 NSW BKN012
2026-04-01 09:30:00,METAR LFPG 010930Z 07004KT 5000 BR BKN006 10/08 Q1025 TEMPO 4000 BR BKN007
2026-04-01 09:00:00,METAR LFPG 010900Z VRB03KT 6000 BKN007 10/08 Q1025 TEMPO 4000 BR BKN007
2026-04-01 08:30:00,METAR LFPG 010830Z VRB02KT 6000 BKN007 10/08 Q1025 TEMPO 4000 BR BKN007
2026-04-01 08:00:00,METAR LFPG 010800Z VRB02KT 6000 BKN006 10/08 Q1025 TEMPO 4000 BR BKN007
2026-04-01 07:30:00,METAR LFPG 010730Z 01003KT 340V040 6000 BKN008 09/08 Q1025 TEMPO 4000 BR BKN007
2026-04-01 07:00:00,METAR LFPG 010700Z VRB03KT 8000 BKN008 09/08 Q1025 TEMPO 4000 BR BKN007
2026-04-01 06:30:00,METAR LFPG 010630Z VRB03KT 8000 BKN010 09/08 Q1026 TEMPO 4000 BR BKN007
2026-04-01 06:00:00,METAR LFPG 010600Z VRB03KT 8000 BKN016 09/08 Q1026 TEMPO 4000 BR BKN007
2026-04-01 05:30:00,METAR LFPG 010530Z 04004KT 360V090 8000 BKN010 BKN016 09/08 Q1026 NOSIG
2026-04-01 05:00:00,METAR LFPG 010500Z VRB02KT 9000 BKN018 09/08 Q1026 NOSIG
2026-04-01 04:30:00,METAR LFPG 010430Z 34002KT 9999 SCT016 BKN025 09/08 Q1026 NOSIG
2026-04-01 04:00:00,METAR LFPG 010400Z 31003KT 8000 BKN014 BKN028 09/08 Q1026 NOSIG
2026-04-01 03:30:00,METAR LFPG 010330Z 30003KT 9000 FEW015 BKN029 09/08 Q1026 NOSIG
2026-04-01 03:00:00,METAR LFPG 010300Z 30001KT 9000 FEW015 BKN030 09/08 Q1026 NOSIG
2026-04-01 02:30:00,METAR LFPG 010230Z 00000KT 9000 FEW011 BKN030 09/08 Q1027 NOSIG
2026-04-01 02:00:00,METAR LFPG 010200Z 27002KT 7000 BKN030 SCT078 09/08 Q1027 NOSIG
2026-04-01 01:30:00,METAR LFPG 010130Z 25003KT 8000 SCT032 BKN078 09/08 Q1027 NOSIG
2026-04-01 01:00:00,METAR LFPG 010100Z 27003KT 9000 FEW008 BKN034 09/08 Q1028 NOSIG
2026-04-01 00:30:00,METAR LFPG 010030Z 28003KT 9999 FEW008 BKN034 09/08 Q1028 NOSIG
2026-04-01 00:00:00,METAR LFPG 010000Z 31003KT 9999 FEW008 BKN033 09/08 Q1029 NOSIG
2026-03-31 23:30:00,METAR LFPG 312330Z 30002KT 9999 FEW013 BKN036 09/08 Q1029 NOSIG
2026-03-31 23:00:00,METAR LFPG 312300Z 28004KT 9999 BKN036 09/08 Q1029 NOSIG
2026-03-31 22:30:00,METAR LFPG 312230Z 27005KT 9999 FEW030 BKN040 09/08 Q1029 NOSIG
2026-03-31 22:00:00,METAR LFPG 312200Z 26002KT 9999 FEW015 BKN030 09/07 Q1029 NOSIG
2026-03-31 21:30:00,METAR LFPG 312130Z VRB02KT 9999 FEW016 BKN030 09/07 Q1029 NOSIG
2026-03-31 21:00:00,METAR LFPG 312100Z 28003KT 9999 BKN020 BKN033 09/07 Q1029 NOSIG
2026-03-31 20:30:00,METAR LFPG 312030Z 30002KT 9999 SCT018 BKN023 09/07 Q1029 NOSIG
2026-03-31 20:00:00,METAR LFPG 312000Z VRB01KT 9999 FEW010 OVC018 09/07 Q1030 NOSIG
2026-03-31 19:30:00,METAR LFPG 311930Z 05002KT 9999 -DZ FEW010 BKN018 09/07 Q1030 NOSIG
2026-03-31 19:00:00,METAR LFPG 311900Z 08005KT 9999 -DZ FEW009 BKN020 09/07 Q1030 NOSIG
2026-03-31 18:30:00,METAR LFPG 311830Z 02001KT 9999 FEW009 BKN020 10/07 Q1029 NOSIG
2026-03-31 18:00:00,METAR LFPG 311800Z 35003KT 9999 SCT020 BKN026 10/07 Q1029 NOSIG
2026-03-31 17:30:00,METAR LFPG 311730Z 32004KT 9999 SCT020 BKN030 10/07 Q1029 NOSIG
2026-03-31 17:00:00,METAR LFPG 311700Z 35003KT 310V020 9999 SCT020 OVC033 10/07 Q1029 NOSIG
2026-03-31 16:30:00,METAR LFPG 311630Z 34004KT 9999 OVC021 09/08 Q1029 NOSIG
2026-03-31 16:00:00,METAR LFPG 311600Z 33007KT 8000 -RA OVC021 10/07 Q1029 NOSIG
2026-03-31 15:30:00,METAR LFPG 311530Z 34007KT 9999 BKN031 10/06 Q1029 NOSIG
2026-03-31 15:00:00,METAR LFPG 311500Z 34008KT 9999 FEW021 BKN036 10/05 Q1029 NOSIG
2026-03-31 14:30:00,METAR LFPG 311430Z 33005KT 9999 FEW021 BKN040 10/06 Q1029 NOSIG
2026-03-31 14:00:00,METAR LFPG 311400Z 32007KT 280V350 9999 -RA FEW026 BKN033 10/06 Q1029 NOSIG
2026-03-31 13:30:00,METAR LFPG 311330Z 33006KT 9999 FEW026 BKN033 10/06 Q1030 NOSIG
2026-03-31 13:00:00,METAR LFPG 311300Z 32009KT 9999 FEW030 BKN033 11/05 Q1030 NOSIG
2026-03-31 12:30:00,METAR LFPG 311230Z 32008KT 9999 FEW028 BKN044 11/04 Q1030 NOSIG
2026-03-31 12:00:00,METAR LFPG 311200Z 33009KT 9999 FEW034 BKN044 11/04 Q1030 NOSIG
2026-03-31 11:30:00,METAR LFPG 311130Z 32007KT 290V360 9999 SCT031 BKN040 11/04 Q1030 NOSIG
2026-03-31 11:00:00,METAR LFPG 311100Z 31007KT 290V360 9999 SCT031 BKN060 11/04 Q1030 NOSIG
2026-03-31 10:30:00,METAR LFPG 311030Z 33006KT 290V010 9999 FEW030 BKN090 11/05 Q1030 NOSIG
2026-03-31 10:00:00,METAR LFPG 311000Z 33007KT 9999 FEW024 BKN090 10/04 Q1030 NOSIG
2026-03-31 09:30:00,METAR LFPG 310930Z 33008KT 9999 FEW025 BKN054 10/05 Q1030 NOSIG
2026-03-31 09:00:00,METAR LFPG 310900Z 33007KT 300V360 CAVOK 09/04 Q1030 NOSIG
2026-03-31 08:30:00,METAR LFPG 310830Z 34006KT 310V010 CAVOK 09/04 Q1030 NOSIG
2026-03-31 08:00:00,METAR LFPG 310800Z 32004KT 290V350 9999 BKN048 08/05 Q1030 NOSIG
2026-03-31 07:30:00,METAR LFPG 310730Z 27003KT 9999 BKN049 07/04 Q1030 NOSIG
2026-03-31 07:00:00,METAR LFPG 310700Z 28004KT 9999 FEW037 BKN130 07/04 Q1030 NOSIG
2026-03-31 06:30:00,METAR LFPG 310630Z 25003KT 9999 SCT038 BKN070 06/04 Q1030 NOSIG
2026-03-31 06:00:00,METAR LFPG 310600Z 28003KT 9999 FEW038 BKN070 06/04 Q1029 NOSIG
2026-03-31 05:30:00,METAR LFPG 310530Z 28004KT CAVOK 06/04 Q1029 NOSIG
2026-03-31 05:00:00,METAR LFPG 310500Z 00000KT CAVOK 06/04 Q1029 NOSIG
2026-03-31 04:30:00,METAR LFPG 310430Z VRB02KT CAVOK 06/04 Q1029 NOSIG
2026-03-31 04:00:00,METAR LFPG 310400Z 28002KT CAVOK 06/04 Q1029 NOSIG
2026-03-31 03:30:00,METAR LFPG 310330Z 31005KT CAVOK 06/03 Q1029 NOSIG
2026-03-31 03:00:00,METAR LFPG 310300Z 33005KT 9999 FEW040 BKN073 06/03 Q1029 NOSIG
2026-03-31 02:30:00,METAR LFPG 310230Z 31006KT 9999 FEW040 BKN073 06/04 Q1028 NOSIG
2026-03-31 02:00:00,METAR LFPG 310200Z 31005KT CAVOK 06/04 Q1028 NOSIG
2026-03-31 01:30:00,METAR LFPG 310130Z 31005KT CAVOK 06/04 Q1028 NOSIG
2026-03-31 01:00:00,METAR LFPG 310100Z 31005KT CAVOK 06/04 Q1028 NOSIG
2026-03-31 00:30:00,METAR LFPG 310030Z 33005KT CAVOK 06/04 Q1028 NOSIG
2026-03-31 00:00:00,METAR LFPG 310000Z 33005KT CAVOK 06/04 Q1028 NOSIG
2026-03-30 23:30:00,METAR LFPG 302330Z 35006KT CAVOK 07/04 Q1028 NOSIG
2026-03-30 23:00:00,METAR LFPG 302300Z 02005KT CAVOK 07/04 Q1028 NOSIG
2026-03-30 22:30:00,METAR LFPG 302230Z 02006KT CAVOK 08/04 Q1027 NOSIG
2026-03-30 22:00:00,METAR LFPG 302200Z 01005KT 9999 BKN030 BKN081 08/05 Q1027 NOSIG
2026-03-30 21:30:00,METAR LFPG 302130Z 33005KT 9999 -SHRA BKN036 BKN050 08/05 Q1027 NOSIG
2026-03-30 21:00:00,METAR LFPG 302100Z 31006KT 9999 BKN049 BKN076 08/05 Q1027 NOSIG
2026-03-30 20:30:00,METAR LFPG 302030Z 32007KT CAVOK 08/05 Q1026 NOSIG
2026-03-30 20:00:00,METAR LFPG 302000Z 33006KT CAVOK 08/05 Q1026 NOSIG
2026-03-30 19:30:00,METAR LFPG 301930Z 33007KT CAVOK 08/04 Q1026 TEMPO 32015G25KT
2026-03-30 19:00:00,METAR LFPG 301900Z 34010KT 9999 FEW046 BKN073 08/04 Q1025 TEMPO 32015G25KT
2026-03-30 18:30:00,METAR LFPG 301830Z 33022G35KT 9999 FEW033 BKN053 08/03 Q1025 TEMPO 32015G25KT
2026-03-30 18:00:00,METAR LFPG 301800Z 32016KT 9999 VCSH FEW040 BKN053 11/03 Q1024 TEMPO 32015G25KT
2026-03-30 17:30:00,METAR LFPG 301730Z 32012KT 9999 SCT046 BKN073 11/02 Q1024 TEMPO 32015G25KT
2026-03-30 17:00:00,METAR LFPG 301700Z 33015KT 9999 FEW046 BKN080 11/02 Q1024 TEMPO 32015G25KT
2026-03-30 16:30:00,METAR LFPG 301630Z 32018KT 9999 FEW047 BKN080 12/02 Q1023 TEMPO 32015G25KT
2026-03-30 16:00:00,METAR LFPG 301600Z 32018KT 9999 FEW047 BKN080 12/02 Q1023 TEMPO 32015G25KT
2026-03-30 15:30:00,METAR LFPG 301530Z 33016KT 9999 FEW046 BKN066 11/02 Q1023 TEMPO 32015G25KT
2026-03-30 15:00:00,METAR LFPG 301500Z 33014KT 9999 SCT046 BKN066 12/02 Q1023 TEMPO 32015G25KT
2026-03-30 14:30:00,METAR LFPG 301430Z 33017KT CAVOK 13/03 Q1023 TEMPO 32015G25KT
2026-03-30 14:00:00,METAR LFPG 301400Z 31018KT CAVOK 14/02 Q1022 TEMPO 32015G25KT
2026-03-30 13:30:00,METAR LFPG 301330Z 32017KT 290V350 CAVOK 12/01 Q1022 TEMPO 32015G25KT
2026-03-30 13:00:00,METAR LFPG 301300Z 32014KT 9999 FEW046 SCT063 13/02 Q1023 TEMPO 32015G25KT
2026-03-30 12:30:00,METAR LFPG 301230Z 32017KT 9999 FEW046 SCT063 12/02 Q1023 TEMPO 32015G25KT
2026-03-30 12:00:00,METAR LFPG 301200Z 32017KT 9999 FEW046 SCT063 12/02 Q1023 TEMPO 32015G25KT
2026-03-30 11:30:00,METAR LFPG 301130Z 31017KT 9999 FEW043 SCT060 12/02 Q1023 TEMPO 32015G25KT
2026-03-30 11:00:00,METAR LFPG 301100Z 32016KT 290V350 9999 FEW043 SCT053 12/02 Q1023 TEMPO 32015G25KT
2026-03-30 10:30:00,METAR LFPG 301030Z 32015KT 9999 SCT040 11/03 Q1023 TEMPO 32015G25KT
2026-03-30 10:00:00,METAR LFPG 301000Z 32014KT 290V350 9999 BKN037 12/03 Q1023 TEMPO 32015G25KT
2026-03-30 09:30:00,METAR LFPG 300930Z 32013KT 9999 FEW033 SCT043 12/04 Q1023 TEMPO 32015G25KT
2026-03-30 09:00:00,METAR LFPG 300900Z 31014KT 9999 FEW026 SCT033 11/04 Q1023 TEMPO 32015G25KT
2026-03-30 08:30:00,METAR LFPG 300830Z 31013KT 9999 SCT021 BKN033 11/05 Q1023 NOSIG
2026-03-30 08:00:00,METAR LFPG 300800Z 30013KT 9999 BKN016 BKN023 10/06 Q1023 NOSIG
2026-03-30 07:30:00,METAR LFPG 300730Z 28013KT 9999 FEW020 10/07 Q1022 NOSIG
2026-03-30 07:00:00,METAR LFPG 300700Z 27008KT 9999 FEW026 09/07 Q1023 NOSIG
2026-03-30 06:30:00,METAR LFPG 300630Z 27007KT 9999 FEW026 08/07 Q1022 NOSIG
2026-03-30 06:00:00,METAR LFPG 300600Z 26007KT 9999 FEW011 SCT036 08/07 Q1023 NOSIG
2026-03-30 05:30:00,METAR LFPG 300530Z 27008KT 9999 FEW010 08/07 Q1023 NOSIG
2026-03-30 05:00:00,METAR LFPG 300500Z 27010KT 9999 SCT010 08/07 Q1022 NOSIG
2026-03-30 04:30:00,METAR LFPG 300430Z 28010KT 9999 BKN010 08/07 Q1023 TEMPO BKN008
2026-03-30 04:00:00,METAR LFPG 300400Z 25007KT 9999 BKN010 08/07 Q1023 TEMPO BKN008
2026-03-30 03:30:00,METAR LFPG 300330Z 26008KT 9999 BKN010 08/06 Q1023 TEMPO BKN008
2026-03-30 03:00:00,METAR LFPG 300300Z 27010KT 9999 BKN012 08/06 Q1023 TEMPO BKN008
2026-03-30 02:30:00,METAR LFPG 300230Z 27013KT 9999 BKN015 08/06 Q1023 TEMPO BKN012
2026-03-30 02:00:00,METAR LFPG 300200Z 26016KT 9999 BKN018 08/05 Q1023 TEMPO BKN012
2026-03-30 01:30:00,METAR LFPG 300130Z 25015KT 9999 BKN020 08/05 Q1023 NOSIG
2026-03-30 01:00:00,METAR LFPG 300100Z 25018KT 9999 BKN020 BKN053 08/05 Q1023 NOSIG
2026-03-30 00:30:00,METAR LFPG 300030Z 26017KT 9999 -RA BKN024 SCT040 09/04 Q1024 NOSIG
2026-03-30 00:00:00,METAR LFPG 300000Z 26017KT 9999 BKN026 SCT040 09/03 Q1025 NOSIG
2026-03-29 23:30:00,METAR LFPG 292330Z 25015KT 9999 -RA BKN028 SCT040 09/03 Q1025 NOSIG
2026-03-29 23:00:00,METAR LFPG 292300Z 24015KT 9999 -RA BKN028 SCT052 09/03 Q1026 NOSIG
2026-03-29 22:30:00,METAR LFPG 292230Z 25016KT 9999 -RA SCT028 BKN050 09/03 Q1026 NOSIG
2026-03-29 22:00:00,METAR LFPG 292200Z 25013KT 9999 SCT036 BKN070 09/02 Q1027 NOSIG
2026-03-29 21:30:00,METAR LFPG 292130Z 25014KT CAVOK 09/02 Q1027 NOSIG
2026-03-29 21:00:00,METAR LFPG 292100Z 26014KT 9999 SCT047 BKN073 10/02 Q1027 NOSIG
2026-03-29 20:30:00,METAR LFPG 292030Z 27012KT CAVOK 10/02 Q1028 NOSIG
2026-03-29 20:00:00,METAR LFPG 292000Z 25009KT CAVOK 10/01 Q1027 NOSIG
2026-03-29 19:30:00,METAR LFPG 291930Z 25010KT CAVOK 10/01 Q1028 NOSIG
2026-03-29 19:00:00,METAR LFPG 291900Z 24009KT 9999 SCT046 BKN100 10/M00 Q1028 NOSIG
2026-03-29 18:30:00,METAR LFPG 291830Z 25007KT CAVOK 10/M00 Q1028 NOSIG
2026-03-29 18:00:00,METAR LFPG 291800Z 26006KT CAVOK 10/M00 Q1028 NOSIG
2026-03-29 17:30:00,METAR LFPG 291730Z 28009KT CAVOK 10/M00 Q1029 NOSIG
2026-03-29 17:00:00,METAR LFPG 291700Z 29009KT CAVOK 11/00 Q1029 NOSIG
2026-03-29 16:30:00,METAR LFPG 291630Z 29009KT 9999 BKN046 OVC230 11/00 Q1029 NOSIG
2026-03-29 16:00:00,METAR LFPG 291600Z 29009KT 9999 BKN046 OVC230 11/00 Q1029 NOSIG
2026-03-29 15:30:00,METAR LFPG 291530Z COR 28010KT CAVOK 12/01 Q1030 NOSIG
2026-03-29 15:00:00,METAR LFPG 291500Z 30010KT 270V340 9999 BKN046 11/M00 Q1030 NOSIG
2026-03-29 14:30:00,METAR LFPG 291430Z 29010KT 230V320 CAVOK 12/00 Q1030 NOSIG
2026-03-29 14:00:00,METAR LFPG 291400Z 28006KT 230V310 CAVOK 12/00 Q1031 NOSIG
2026-03-29 13:30:00,METAR LFPG 291330Z 29010KT 250V320 CAVOK 12/01 Q1031 NOSIG
2026-03-29 13:00:00,METAR LFPG 291300Z 29008KT 260V320 9999 BKN046 11/00 Q1031 NOSIG
2026-03-29 12:30:00,METAR LFPG 291230Z 30007KT 270V350 9999 BKN041 11/00 Q1032 NOSIG
2026-03-29 12:00:00,METAR LFPG 291200Z 28005KT 220V340 9999 BKN041 11/M00 Q1032 NOSIG
2026-03-29 11:30:00,METAR LFPG 291130Z 31005KT 250V340 9999 BKN036 10/01 Q1032 NOSIG
2026-03-29 11:00:00,METAR LFPG 291100Z 26006KT 180V310 9999 BKN036 10/01 Q1032 NOSIG
2026-03-29 10:30:00,METAR LFPG 291030Z 35005KT 310V040 9999 BKN031 10/03 Q1032 NOSIG
2026-03-29 10:00:00,METAR LFPG 291000Z VRB02KT 9999 SCT025 08/02 Q1032 NOSIG
2026-03-29 09:30:00,METAR LFPG 290930Z 30005KT 270V340 CAVOK 09/03 Q1032 NOSIG
2026-03-29 09:00:00,METAR LFPG 290900Z 35006KT 310V040 CAVOK 08/03 Q1032 NOSIG
2026-03-29 08:30:00,METAR LFPG 290830Z 35007KT 320V030 CAVOK 07/03 Q1032 NOSIG
2026-03-29 08:00:00,METAR LFPG 290800Z 35008KT CAVOK 06/02 Q1032 NOSIG
2026-03-29 07:30:00,METAR LFPG 290730Z 34007KT CAVOK 05/02 Q1032 NOSIG
2026-03-29 07:00:00,METAR LFPG 290700Z 34007KT CAVOK 04/01 Q1031 NOSIG
2026-03-29 06:30:00,METAR LFPG 290630Z 34006KT CAVOK 03/01 Q1031 NOSIG
2026-03-29 06:00:00,METAR LFPG 290600Z 34007KT CAVOK 03/01 Q1031 NOSIG
2026-03-29 05:30:00,METAR LFPG 290530Z 34007KT CAVOK 03/01 Q1031 NOSIG
2026-03-29 05:00:00,METAR LFPG 290500Z 34007KT CAVOK 02/01 Q1030 NOSIG
2026-03-29 04:30:00,METAR LFPG 290430Z 34008KT CAVOK 03/00 Q1030 NOSIG
2026-03-29 04:00:00,METAR LFPG 290400Z 34009KT CAVOK 03/00 Q1030 NOSIG
2026-03-29 03:30:00,METAR LFPG 290330Z 34007KT CAVOK 03/00 Q1030 NOSIG
2026-03-29 03:00:00,METAR LFPG 290300Z 34007KT 9999 FEW031 03/00 Q1029 NOSIG
2026-03-29 02:30:00,METAR LFPG 290230Z 34007KT 9999 FEW033 03/01 Q1029 NOSIG
2026-03-29 02:00:00,METAR LFPG 290200Z 33007KT CAVOK 03/01 Q1029 NOSIG
2026-03-29 01:30:00,METAR LFPG 290130Z 33009KT CAVOK 04/01 Q1029 NOSIG
2026-03-29 01:00:00,METAR LFPG 290100Z 32009KT 9999 FEW038 03/01 Q1029 NOSIG
2026-03-29 00:30:00,METAR LFPG 290030Z 30007KT 9999 FEW038 03/01 Q1029 NOSIG
2026-03-29 00:00:00,METAR LFPG 290000Z 29006KT CAVOK 03/01 Q1029 NOSIG
2026-03-28 23:30:00,METAR LFPG 282330Z 29005KT CAVOK 04/01 Q1029 NOSIG
2026-03-28 23:00:00,METAR LFPG 282300Z 28005KT 9999 FEW035 SCT053 04/01 Q1029 NOSIG
2026-03-28 22:30:00,METAR LFPG 282230Z 28003KT 9999 FEW035 04/01 Q1029 NOSIG
2026-03-28 22:00:00,METAR LFPG 282200Z 29005KT 9999 FEW035 04/01 Q1029 NOSIG
2026-03-28 21:30:00,METAR LFPG 282130Z 29006KT 9999 SCT040 04/01 Q1029 NOSIG
2026-03-28 21:00:00,METAR LFPG 282100Z 07003KT CAVOK 03/01 Q1028 NOSIG
2026-03-28 20:30:00,METAR LFPG 282030Z 04005KT 360V080 9999 FEW018 SCT050 BKN063 04/01 Q1028 NOSIG
2026-03-28 20:00:00,METAR LFPG 282000Z 03017KT 9999 -SHRA FEW041TCU SCT046 BKN066 05/02 Q1028 TEMPO 34015G25KT
2026-03-28 19:30:00,METAR LFPG 281930Z 35008KT 9999 VCSH FEW046TCU SCT050 07/00 Q1028 TEMPO 34015G25KT
2026-03-28 19:00:00,METAR LFPG 281900Z 33008KT CAVOK 07/00 Q1027 TEMPO 34015G25KT
2026-03-28 18:30:00,METAR LFPG 281830Z 33008KT CAVOK 07/M00 Q1026 TEMPO 34015G25KT
2026-03-28 18:00:00,METAR LFPG 281800Z 34009KT CAVOK 08/M01 Q1026 TEMPO 34015G25KT
2026-03-28 17:30:00,METAR LFPG 281730Z 34011KT CAVOK 09/M01 Q1025 TEMPO 34015G25KT
2026-03-28 17:00:00,METAR LFPG 281700Z 32015G25KT CAVOK 09/M03 Q1025 TEMPO 34015G25KT
2026-03-28 16:30:00,METAR LFPG 281630Z 33013KT 9999 FEW052CB 09/M01 Q1025 TEMPO 34015G25KT
2026-03-28 16:00:00,METAR LFPG 281600Z 33013KT 300V010 CAVOK 10/M01 Q1024 TEMPO 34015G25KT
2026-03-28 15:30:00,METAR LFPG 281530Z 33014KT 310V010 9999 FEW050TCU SCT056 09/M00 Q1024 TEMPO 34015G25KT
2026-03-28 15:00:00,METAR LFPG 281500Z 33015KT CAVOK 10/M02 Q1024 TEMPO 34015G25KT
2026-03-28 14:30:00,METAR LFPG 281430Z 33015KT CAVOK 11/M02 Q1024 TEMPO 34015G25KT
2026-03-28 14:00:00,METAR LFPG 281400Z 32018KT CAVOK 11/M02 Q1024 TEMPO 34015G25KT
2026-03-28 13:30:00,METAR LFPG 281330Z 34018KT CAVOK 11/M02 Q1024 TEMPO 34015G25KT
2026-03-28 13:00:00,METAR LFPG 281300Z 32018KT CAVOK 11/M01 Q1024 TEMPO 34015G25KT
2026-03-28 12:30:00,METAR LFPG 281230Z 32017KT 9999 SCT045 11/M01 Q1024 TEMPO 34015G25KT
2026-03-28 12:00:00,METAR LFPG 281200Z 34017KT 9999 SCT040 10/M01 Q1024 TEMPO 34015G25KT
2026-03-28 11:30:00,METAR LFPG 281130Z 34018KT 9999 SCT040 10/01 Q1023 TEMPO 34015G25KT
2026-03-28 11:00:00,METAR LFPG 281100Z 34015KT 9999 SCT034 10/01 Q1023 TEMPO 34015G25KT
2026-03-28 10:30:00,METAR LFPG 281030Z 34013KT 310V010 9999 SCT020 10/02 Q1023 TEMPO 34015G25KT
2026-03-28 10:00:00,METAR LFPG 281000Z 33015KT 9999 FEW020 08/03 Q1023 TEMPO 34015G25KT
2026-03-28 09:30:00,METAR LFPG 280930Z 35012KT 320V020 9999 BKN020 09/03 Q1023 TEMPO 34015G25KT
2026-03-28 09:00:00,METAR LFPG 280900Z 35012KT 9999 BKN016 SCT073 08/05 Q1022 TEMPO 34015G25KT
2026-03-28 08:30:00,METAR LFPG 280830Z 34015KT 9999 SCT012 SCT033 09/06 Q1022 NOSIG
2026-03-28 08:00:00,METAR LFPG 280800Z 32010KT 9999 FEW014 SCT028 07/06 Q1022 NOSIG
2026-03-28 07:30:00,METAR LFPG 280730Z 33007KT 9999 FEW016 SCT060 06/05 Q1021 NOSIG
2026-03-28 07:00:00,METAR LFPG 280700Z 31007KT CAVOK 07/05 Q1021 NOSIG
2026-03-28 06:30:00,METAR LFPG 280630Z 34007KT CAVOK 07/05 Q1021 NOSIG
2026-03-28 06:00:00,METAR LFPG 280600Z 35009KT CAVOK 07/05 Q1020 NOSIG
2026-03-28 05:30:00,METAR LFPG 280530Z 33013KT 9000 -RA FEW007 BKN016 BKN036 07/06 Q1020 NOSIG
2026-03-28 05:00:00,METAR LFPG 280500Z 34012KT 6000 -RA FEW006 BKN011 08/07 Q1019 TEMPO 2000 RA BKN004
2026-03-28 04:30:00,METAR LFPG 280430Z 32011KT 280V350 6000 -RA FEW006 BKN011 08/08 Q1019 TEMPO 2000 RA BKN004
2026-03-28 04:00:00,METAR LFPG 280400Z 26008KT 4000 -RA BR FEW003 BKN011 08/08 Q1019 TEMPO 2000 RA BKN004
2026-03-28 03:30:00,METAR LFPG 280330Z 23009KT 3500 -RA BR FEW003 BKN009 08/08 Q1019 TEMPO 2000 RA BKN004
2026-03-28 03:00:00,METAR LFPG 280300Z 21008KT 3500 -RA BR FEW001 BKN008 08/07 Q1019 TEMPO 2000 RA BKN004
2026-03-28 02:30:00,METAR LFPG 280230Z 20008KT 4000 -RA FEW001 BKN008 08/07 Q1019 TEMPO 2000 RA BKN004
2026-03-28 02:00:00,METAR LFPG 280200Z 21011KT 4000 -RA FEW001 SCT006 BKN020 08/07 Q1019 TEMPO 2000 RA BKN004
2026-03-28 01:30:00,METAR LFPG 280130Z 21009KT 4000 -RA FEW004 BKN007 07/07 Q1020 TEMPO 2000 RA BKN004
2026-03-28 01:00:00,METAR LFPG 280100Z 21009KT 8000 -RA FEW008 BKN012 08/06 Q1020 TEMPO 4000 RA BKN008
2026-03-28 00:30:00,METAR LFPG 280030Z 21009KT 9999 -RA BKN014 BKN033 08/06 Q1020 NOSIG
2026-03-28 00:00:00,METAR LFPG 280000Z 20008KT 9999 -RA SCT015 BKN036 08/05 Q1021 BECMG BKN012
2026-03-27 23:30:00,METAR LFPG 272330Z 19007KT 9999 -RA BKN016 BKN050 08/04 Q1021 NOSIG
2026-03-27 23:00:00,METAR LFPG 272300Z 19010KT 9999 -RA BKN023 BKN050 08/04 Q1021 NOSIG
2026-03-27 22:30:00,METAR LFPG 272230Z 19009KT 9999 -RA BKN023 08/03 Q1021 NOSIG
2026-03-27 22:00:00,METAR LFPG 272200Z 19008KT 9999 -RA BKN026 09/02 Q1022 NOSIG
2026-03-27 21:30:00,METAR LFPG 272130Z 18008KT 9999 -RA BKN033 BKN066 09/01 Q1022 NOSIG
2026-03-27 21:00:00,METAR LFPG 272100Z 19010KT 9999 -RA BKN033 09/02 Q1022 NOSIG
2026-03-27 20:30:00,METAR LFPG 272030Z 19008KT 9999 -RA BKN036 09/02 Q1022 NOSIG
2026-03-27 20:00:00,METAR LFPG 272000Z 19007KT 9999 -RA BKN036 09/02 Q1022 NOSIG
2026-03-27 19:30:00,METAR LFPG 271930Z 19009KT 9999 BKN036 10/02 Q1022 NOSIG
2026-03-27 19:00:00,METAR LFPG 271900Z 18008KT 170V230 9999 BKN040 10/02 Q1022 NOSIG
2026-03-27 18:30:00,METAR LFPG 271830Z 19007KT 9999 BKN041 10/02 Q1022 NOSIG
2026-03-27 18:00:00,METAR LFPG 271800Z 18007KT 9999 BKN043 10/02 Q1022 NOSIG
2026-03-27 17:30:00,METAR LFPG 271730Z 20007KT 9999 BKN043 10/02 Q1022 NOSIG
2026-03-27 17:00:00,METAR LFPG 271700Z 21008KT 9999 BKN043 10/02 Q1022 NOSIG
2026-03-27 16:30:00,METAR LFPG 271630Z 22007KT 9999 OVC043 10/01 Q1022 NOSIG
2026-03-27 16:00:00,METAR LFPG 271600Z 20007KT 9999 OVC043 10/01 Q1022 NOSIG
2026-03-25 15:00:00,METAR LFPG 251500Z AUTO 29016KT 9999 FEW029/// SCT041/// BKN070/// ///CB 08/03 Q1011 TEMPO 30025G45KT 2500 -TSRAGS
2026-03-25 14:30:00,METAR LFPG 251430Z AUTO 30020G31KT 9999 BKN023/// BKN038/// BKN058/// //////TCU 06/03 Q1011 TEMPO 30025G45KT 2500 -TSRAGS SCT025CB
2026-03-25 14:00:00,METAR LFPG 251400Z AUTO 31020KT 7000 BKN020/// BKN035/// BKN052/// ///CB 07/04 Q1011 TEMPO 30025G45KT 2500 -TSRAGS
2026-03-25 13:30:00,METAR LFPG 251330Z AUTO 31018KT 7000 BKN017/// BKN024/// BKN035/// //////TCU 07/04 Q1011 TEMPO 30025G45KT 2500 -TSRAGS SCT025CB
2026-03-25 13:00:00,METAR LFPG 251300Z AUTO 31023KT 7000 -RA BKN016/// BKN025/// OVC038/// //////CB 06/04 Q1011 TEMPO 28025G45KT 2000 -TSRAGS
2026-03-25 12:30:00,METAR LFPG 251230Z AUTO 29019KT 9999 3600 FEW019/// SCT031/// BKN062/// ///CB 08/06 Q1010 TEMPO 28025G45KT 2000 -TSRAGS
2026-03-25 12:00:00,METAR LFPG 251200Z AUTO 29020KT 7000 2100 R09R/1300D R08R/1400D -RA SCT017/// BKN027/// BKN046/// ///CB 06/04 Q1010 TEMPO 28025G45KT 2000 -TSRAGS
2026-03-25 11:30:00,METAR LFPG 251130Z AUTO 31013KT 270V340 7000 1800 R09R/1300U -RA SCT014/// BKN020/// BKN027/// ///TCU 06/04 Q1010 TEMPO 28025G45KT 2000 -TSRAGS SCT020CB BKN025
2026-03-25 11:00:00,METAR LFPG 251100Z AUTO 28016KT 9999 -RA BKN019/// BKN030/// BKN042/// ///CB 07/05 Q1010 TEMPO 28025G45KT 2000 -TSRAGS
2026-03-25 10:30:00,METAR LFPG 251030Z AUTO 29016KT 9999 BKN019/// BKN027/// BKN037/// ///CB 07/04 Q1010 TEMPO 28025G45KT 2000 -TSRAGS
2026-03-25 10:00:00,METAR LFPG 251000Z AUTO 28019KT 9999 BKN018/// BKN024/// BKN030/// ///CB 07/04 Q1010 TEMPO 28025G45KT 2000 -TSRAGS
2026-03-25 09:30:00,METAR LFPG 250930Z AUTO 28021KT 9999 BKN019/// BKN054/// BKN076/// //////TCU 07/03 Q1009 TEMPO 28025G45KT 2000 -TSRAGS SCT020CB BKN025
2026-03-25 09:00:00,METAR LFPG 250900Z AUTO 27021KT 9999 FEW027/// SCT066/// BKN130/// ///CB 08/04 Q1009 TEMPO 28020G35KT 4000 -SHRA
2026-03-25 08:30:00,METAR LFPG 250830Z AUTO 28023G34KT 9999 -RA BKN026/// BKN032/// OVC058/// //////CB 07/03 Q1009 TEMPO 4000 -SHRA
2026-03-25 08:00:00,METAR LFPG 250800Z AUTO 27016KT 9999 BKN025 BKN037 BKN056 08/03 Q1009 TEMPO 28020G35KT 4000 -SHRA SCT020TCU BKN025
2026-03-25 07:30:00,METAR LFPG 250730Z AUTO 27016KT 9999 BKN025 BKN044 BKN088 08/04 Q1009 TEMPO 28020G35KT 4000 -SHRA SCT020TCU BKN025
2026-03-25 07:00:00,METAR LFPG 250700Z AUTO 27014KT 9999 SCT023/// BKN028/// BKN078/// //////TCU 07/04 Q1009 TEMPO 28020G35KT 4000 -SHRA
2026-03-25 06:30:00,METAR LFPG 250630Z AUTO 26018KT 9999 FEW024/// SCT029/// BKN070/// ///CB 08/04 Q1009 TEMPO 28020G35KT 4000 -SHRA
2026-03-25 06:00:00,METAR LFPG 250600Z 27018KT 9999 FEW023 BKN055 08/03 Q1008 TEMPO 28020G35KT 4000 -SHRA SCT020TCU
2026-03-25 05:30:00,METAR LFPG 250530Z 25014KT 9999 SCT025 BKN055 09/06 Q1008 TEMPO 28020G35KT 4000 -SHRA SCT020TCU
2026-03-25 05:00:00,METAR LFPG 250500Z 25011KT 9999 FEW020 SCT066 08/06 Q1008 TEMPO 28020G35KT 4000 -SHRA SCT020TCU
2026-03-25 04:30:00,METAR LFPG 250430Z 26017KT CAVOK 09/06 Q1008 TEMPO 28020G35KT 4000 -SHRA SCT020TCU
2026-03-25 04:00:00,METAR LFPG 250400Z 27018KT 6000 -RA FEW018 BKN031 08/06 Q1009 TEMPO 24020G35KT
2026-03-25 03:30:00,METAR LFPG 250330Z 26019KT 230V310 3000 RA SCT014 BKN018 10/07 Q1009 TEMPO 24020G35KT BKN014
2026-03-25 03:00:00,METAR LFPG 250300Z 24019KT 9999 BKN020 11/07 Q1008 TEMPO 24020G35KT 4000 RA BKN014
2026-03-25 02:30:00,METAR LFPG 250230Z 23016KT 9999 BKN020 11/06 Q1009 TEMPO 24020G35KT 4000 RA BKN014
2026-03-25 02:00:00,METAR LFPG 250200Z 24015KT 9999 BKN021 SCT040 10/06 Q1009 TEMPO 24020G35KT
2026-03-25 01:30:00,METAR LFPG 250130Z 24017KT 9999 BKN023 SCT040 10/05 Q1010 TEMPO 24020G35KT
2026-03-25 01:00:00,METAR LFPG 250100Z 24017KT 9999 BKN025 10/04 Q1010 TEMPO 24015G25KT
2026-03-25 00:30:00,METAR LFPG 250030Z 25018G29KT 9999 BKN026 11/03 Q1011 TEMPO 24015G25KT
2026-03-25 00:00:00,METAR LFPG 250000Z 24017KT CAVOK 12/01 Q1011 TEMPO 24015G25KT
2026-03-24 23:30:00,METAR LFPG 242330Z 23015KT CAVOK 12/00 Q1011 TEMPO 24015G25KT
2026-03-24 23:00:00,METAR LFPG 242300Z 22015KT CAVOK 13/01 Q1011 TEMPO 24015G25KT
2026-03-24 22:30:00,METAR LFPG 242230Z 21016KT CAVOK 13/03 Q1011 TEMPO 24015G25KT
2026-03-24 22:00:00,METAR LFPG 242200Z 22017KT CAVOK 13/04 Q1012 TEMPO 24015G25KT
2026-03-24 21:30:00,METAR LFPG 242130Z 22016KT CAVOK 14/04 Q1012 TEMPO 24015G25KT
2026-03-24 21:00:00,METAR LFPG 242100Z 21013KT CAVOK 14/04 Q1013 TEMPO 24015G25KT
2026-03-24 20:30:00,METAR LFPG 242030Z 22016KT CAVOK 14/05 Q1014 TEMPO 24015G25KT
2026-03-24 20:00:00,METAR LFPG 242000Z 21013KT CAVOK 14/05 Q1014 TEMPO 24015G25KT
2026-03-24 19:30:00,METAR LFPG 241930Z 22014KT CAVOK 15/05 Q1015 NOSIG
2026-03-24 19:00:00,METAR LFPG 241900Z 21014KT CAVOK 15/05 Q1015 NOSIG
2026-03-24 18:30:00,METAR LFPG 241830Z 22015KT CAVOK 15/05 Q1015 NOSIG
2026-03-24 18:00:00,METAR LFPG 241800Z 21015KT CAVOK 16/05 Q1015 NOSIG
2026-03-24 17:30:00,METAR LFPG 241730Z 21012KT CAVOK 16/05 Q1016 NOSIG
2026-03-24 17:00:00,METAR LFPG 241700Z 21015KT CAVOK 17/05 Q1016 NOSIG
2026-03-24 16:30:00,METAR LFPG 241630Z 21017KT CAVOK 17/05 Q1016 NOSIG
2026-03-24 16:08:00,METAR LFPG 241608Z 21014KT CAVOK 17/04 Q1016 NOSIG
2026-03-24 15:30:00,METAR LFPG 241530Z 22015KT CAVOK 18/04 Q1017 NOSIG
2026-03-24 15:00:00,METAR LFPG 241500Z 21015G26KT CAVOK 18/03 Q1017 NOSIG
2026-03-24 14:30:00,METAR LFPG 241430Z 21012KT CAVOK 18/04 Q1018 NOSIG
2026-03-24 14:00:00,METAR LFPG 241400Z 22015KT CAVOK 19/03 Q1018 NOSIG
2026-03-24 13:30:00,METAR LFPG 241330Z 24011KT 200V260 CAVOK 18/03 Q1019 NOSIG
2026-03-24 13:00:00,METAR LFPG 241300Z 23012KT 170V260 CAVOK 18/02 Q1019 NOSIG
2026-03-24 12:30:00,METAR LFPG 241230Z 23011KT CAVOK 17/02 Q1020 NOSIG
2026-03-24 12:00:00,METAR LFPG 241200Z 22009G20KT 190V250 CAVOK 17/03 Q1020 NOSIG
2026-03-24 11:30:00,METAR LFPG 241130Z 25011KT 220V290 CAVOK 17/03 Q1021 NOSIG
2026-03-24 11:00:00,METAR LFPG 241100Z 24012KT 210V270 CAVOK 16/03 Q1021 NOSIG
2026-03-24 10:30:00,METAR LFPG 241030Z 24012KT 9000 NSC 15/03 Q1021 NOSIG
2026-03-24 10:00:00,METAR LFPG 241000Z 25012KT 7000 NSC 15/05 Q1021 NOSIG
2026-03-24 09:30:00,METAR LFPG 240930Z 23008KT 200V270 7000 NSC 14/06 Q1021 NOSIG
2026-03-24 09:00:00,METAR LFPG 240900Z 21008KT 6000 NSC 12/06 Q1021 NOSIG
2026-03-24 08:30:00,METAR LFPG 240830Z 19005KT 140V220 6000 NSC 11/06 Q1022 NOSIG
2026-03-24 08:00:00,METAR LFPG 240800Z 20004KT 180V270 5000 NSC 09/05 Q1022 BECMG CAVOK
2026-03-24 07:30:00,METAR LFPG 240730Z 18005KT 4500 BR NSC 09/05 Q1021 BECMG CAVOK
2026-03-24 07:00:00,METAR LFPG 240700Z 17003KT 4000 BR NSC 08/05 Q1021 NOSIG
2026-03-24 06:30:00,METAR LFPG 240630Z VRB02KT 4000 BR NSC 07/05 Q1022 NOSIG
2026-03-24 06:00:00,METAR LFPG 240600Z 21002KT 4000 BR NSC 07/04 Q1021 NOSIG
2026-03-24 05:38:00,METAR LFPG 240538Z COR 19003KT 4400 BR NSC 07/04 Q1021 NOSIG
2026-03-24 05:30:00,METAR LFPG 240530Z 19004KT 6000 NSC 07/04 Q1021 NOSIG
2026-03-24 05:00:00,METAR LFPG 240500Z 19003KT 6000 NSC 07/04 Q1021 NOSIG
2026-03-24 04:30:00,METAR LFPG 240430Z 26004KT 6000 NSC 08/04 Q1021 NOSIG
2026-03-24 04:00:00,METAR LFPG 240400Z 26005KT 6000 NSC 08/04 Q1022 NOSIG
2026-03-24 03:30:00,METAR LFPG 240330Z 23004KT 6000 NSC 08/04 Q1022 NOSIG
2026-03-24 03:00:00,METAR LFPG 240300Z 25005KT 6000 NSC 08/04 Q1022 NOSIG
2026-03-24 02:30:00,METAR LFPG 240230Z 27004KT 7000 NSC 08/04 Q1022 NOSIG
2026-03-24 02:00:00,METAR LFPG 240200Z 24003KT 8000 NSC 08/04 Q1022 NOSIG
2026-03-24 01:30:00,METAR LFPG 240130Z 00000KT 8000 NSC 08/04 Q1022 NOSIG
2026-03-24 01:00:00,METAR LFPG 240100Z 00000KT 9000 NSC 08/04 Q1022 NOSIG
2026-03-24 00:30:00,METAR LFPG 240030Z 00000KT 9000 NSC 08/03 Q1022 NOSIG
2026-03-24 00:00:00,METAR LFPG 240000Z VRB02KT 9000 NSC 08/03 Q1022 NOSIG
2026-03-23 23:30:00,METAR LFPG 232330Z 00000KT 9000 NSC 09/03 Q1022 NOSIG
2026-03-23 23:00:00,METAR LFPG 232300Z VRB02KT CAVOK 08/03 Q1022 NOSIG
2026-03-23 22:30:00,METAR LFPG 232230Z 24002KT CAVOK 09/03 Q1022 NOSIG
2026-03-23 22:00:00,METAR LFPG 232200Z 22004KT CAVOK 09/03 Q1022 NOSIG
2026-03-23 21:30:00,METAR LFPG 232130Z 05004KT 010V080 CAVOK 10/03 Q1022 NOSIG
2026-03-23 21:00:00,METAR LFPG 232100Z 04005KT CAVOK 11/03 Q1022 NOSIG
2026-03-23 20:30:00,METAR LFPG 232030Z 04005KT 020V100 CAVOK 11/03 Q1022 NOSIG
2026-03-23 20:00:00,METAR LFPG 232000Z 04005KT 020V080 CAVOK 12/03 Q1022 NOSIG
2026-03-23 19:30:00,METAR LFPG 231930Z 03004KT 010V120 CAVOK 12/03 Q1022 NOSIG
2026-03-23 19:00:00,METAR LFPG 231900Z 03005KT 350V140 CAVOK 12/03 Q1021 NOSIG
2026-03-23 18:00:00,METAR LFPG 231800Z 34005KT 250V030 CAVOK 14/03 Q1021 NOSIG
2026-03-23 17:30:00,METAR LFPG 231730Z 35003KT CAVOK 15/04 Q1021 NOSIG
2026-03-23 17:00:00,METAR LFPG 231700Z 32005KT 260V360 CAVOK 15/03 Q1020 NOSIG
2026-03-23 16:30:00,METAR LFPG 231630Z 02003KT 350V050 CAVOK 16/03 Q1020 NOSIG
2026-03-23 16:00:00,METAR LFPG 231600Z 02003KT 320V060 CAVOK 16/03 Q1020 NOSIG
2026-03-23 15:30:00,METAR LFPG 231530Z VRB01KT CAVOK 16/03 Q1020 NOSIG
2026-03-23 15:00:00,METAR LFPG 231500Z 04004KT 350V090 CAVOK 16/03 Q1020 NOSIG
2026-03-23 14:30:00,METAR LFPG 231430Z 01005KT 320V050 CAVOK 16/04 Q1020 NOSIG
2026-03-23 14:00:00,METAR LFPG 231400Z 05005KT 340V110 CAVOK 16/03 Q1020 NOSIG
2026-03-23 13:30:00,METAR LFPG 231330Z 07003KT 010V140 CAVOK 16/03 Q1020 NOSIG
2026-03-23 13:00:00,METAR LFPG 231300Z 05006KT 350V090 CAVOK 15/02 Q1020 NOSIG
2026-03-23 12:30:00,METAR LFPG 231230Z 04008KT 360V070 CAVOK 15/02 Q1020 NOSIG
2026-03-23 12:00:00,METAR LFPG 231200Z 04006KT 350V090 CAVOK 15/03 Q1020 NOSIG
2026-03-23 11:30:00,METAR LFPG 231130Z 36007KT 310V050 8000 FEW041 15/04 Q1020 NOSIG
2026-03-23 11:00:00,METAR LFPG 231100Z 35006KT 300V050 7000 NSC 14/05 Q1020 NOSIG
2026-03-23 10:30:00,METAR LFPG 231030Z 35005KT 260V020 6000 NSC 13/06 Q1021 NOSIG
2026-03-23 10:00:00,METAR LFPG 231000Z 36006KT 6000 NSC 12/06 Q1020 NOSIG
2026-03-23 09:30:00,METAR LFPG 230930Z 36004KT 310V060 5000 BR NSC 10/06 Q1020 BECMG CAVOK
2026-03-23 09:00:00,METAR LFPG 230900Z 36005KT 4000 BR NSC 10/06 Q1020 NOSIG
2026-03-23 08:30:00,METAR LFPG 230830Z VRB06KT 4000 BR NSC 08/06 Q1020 NOSIG
2026-03-23 08:00:00,METAR LFPG 230800Z VRB05KT 3000 BR NSC 07/05 Q1019 NOSIG
2026-03-23 07:30:00,METAR LFPG 230730Z VRB06KT 2500 BR NSC 06/05 Q1019 NOSIG
2026-03-23 07:00:00,METAR LFPG 230700Z 36007KT 250V020 2500 BR NSC 05/04 Q1019 NOSIG
2026-03-23 06:30:00,METAR LFPG 230630Z VRB06KT 2500 BR NSC 05/04 Q1018 NOSIG
2026-03-23 06:00:00,METAR LFPG 230600Z 33008KT 180V350 2500 BR NSC 05/04 Q1018 NOSIG
2026-03-23 05:30:00,METAR LFPG 230530Z 35007KT 2500 BR NSC 05/04 Q1018 NOSIG
2026-03-23 05:00:00,METAR LFPG 230500Z 35004KT 230V030 4000 BR NSC 05/04 Q1017 NOSIG
2026-03-23 04:30:00,METAR LFPG 230430Z 36005KT 280V020 4000 BR NSC 05/04 Q1017 NOSIG
2026-03-23 04:00:00,METAR LFPG 230400Z 35005KT 4500 BR NSC 05/04 Q1017 NOSIG
2026-03-23 03:30:00,METAR LFPG 230330Z 34006KT 5000 BR NSC 05/04 Q1017 NOSIG
2026-03-23 03:00:00,METAR LFPG 230300Z 36004KT 5000 BR NSC 05/04 Q1017 NOSIG
2026-03-23 02:30:00,METAR LFPG 230230Z 35006KT 5000 BR NSC 05/04 Q1017 NOSIG
2026-03-23 02:00:00,METAR LFPG 230200Z 01004KT 6000 NSC 06/04 Q1016 NOSIG
2026-03-23 01:30:00,METAR LFPG 230130Z 36008KT 6000 NSC 06/04 Q1016 NOSIG
2026-03-23 01:00:00,METAR LFPG 230100Z 02007KT 360V110 6000 NSC 06/04 Q1016 NOSIG
2026-03-23 00:30:00,METAR LFPG 230030Z 36008KT 6000 NSC 06/04 Q1016 NOSIG
2026-03-23 00:00:00,METAR LFPG 230000Z 36008KT 6000 NSC 07/04 Q1016 NOSIG
2026-03-22 23:30:00,METAR LFPG 222330Z 36007KT 330V120 7000 NSC 07/04 Q1016 NOSIG
2026-03-22 23:00:00,METAR LFPG 222300Z 01008KT 360V070 7000 NSC 07/04 Q1016 NOSIG
2026-03-22 22:30:00,METAR LFPG 222230Z 02006KT 360V100 7000 NSC 08/04 Q1016 NOSIG
2026-03-22 22:00:00,METAR LFPG 222200Z 36007KT 330V120 8000 NSC 08/04 Q1015 NOSIG
2026-03-22 21:30:00,METAR LFPG 222130Z 01007KT 240V050 9000 NSC 08/04 Q1015 NOSIG
2026-03-22 21:00:00,METAR LFPG 222100Z VRB07KT 9000 NSC 09/04 Q1015 NOSIG
2026-03-22 20:00:00,METAR LFPG 222000Z VRB06KT CAVOK 10/04 Q1015 NOSIG
2026-03-22 19:30:00,METAR LFPG 221930Z 02007KT 360V110 CAVOK 10/04 Q1015 NOSIG
2026-03-22 19:00:00,METAR LFPG 221900Z VRB06KT CAVOK 10/04 Q1014 NOSIG
2026-03-22 18:30:00,METAR LFPG 221830Z 01007KT 330V120 CAVOK 11/04 Q1014 NOSIG
2026-03-22 18:00:00,METAR LFPG 221800Z 01007KT 290V090 CAVOK 12/05 Q1014 NOSIG
2026-03-22 17:30:00,METAR LFPG 221730Z 02007KT 360V100 9999 FEW042 13/05 Q1013 NOSIG
2026-03-22 17:00:00,METAR LFPG 221700Z 02009KT 340V070 9999 FEW042 SCT050 14/05 Q1013 NOSIG
2026-03-22 16:30:00,METAR LFPG 221630Z 01008KT 360V100 9999 SCT041 BKN051 14/05 Q1013 NOSIG
2026-03-22 16:00:00,METAR LFPG 221600Z 01008KT 330V120 9999 SCT044 14/04 Q1013 NOSIG
2026-03-22 15:30:00,METAR LFPG 221530Z 02007KT 350V070 9999 FEW045 15/05 Q1013 NOSIG
2026-03-22 15:00:00,METAR LFPG 221500Z 05008KT 360V090 9999 FEW045 14/04 Q1012 NOSIG
2026-03-22 14:30:00,METAR LFPG 221430Z 02010KT 9999 FEW044 14/04 Q1012 NOSIG
2026-03-22 14:00:00,METAR LFPG 221400Z 03010KT 360V070 9999 SCT041 15/05 Q1012 NOSIG
2026-03-22 13:30:00,METAR LFPG 221330Z 04009KT 010V070 9999 FEW044 14/04 Q1013 NOSIG
2026-03-22 12:30:00,METAR LFPG 221230Z 04010KT 360V090 9999 FEW038 14/04 Q1013 NOSIG
2026-03-22 12:00:00,METAR LFPG 221200Z 04012KT 010V070 9999 FEW031 14/04 Q1013 NOSIG
2026-03-22 11:30:00,METAR LFPG 221130Z 02012KT 340V050 9999 FEW031 13/04 Q1013 NOSIG
2026-03-22 10:30:00,METAR LFPG 221030Z 05010KT 030V090 CAVOK 12/05 Q1013 NOSIG
2026-03-22 09:30:00,METAR LFPG 220930Z 03007KT 350V070 8000 NSC 10/05 Q1014 NOSIG
2026-03-22 09:00:00,METAR LFPG 220900Z 04010KT 8000 NSC 09/05 Q1014 NOSIG
2026-03-22 08:30:00,METAR LFPG 220830Z 02008KT 360V060 7000 NSC 08/04 Q1014 NOSIG
2026-03-22 08:00:00,METAR LFPG 220800Z 02008KT 350V150 6000 NSC 07/04 Q1014 NOSIG
2026-03-22 07:30:00,METAR LFPG 220730Z 02007KT 350V110 6000 NSC 06/04 Q1013 NOSIG
2026-03-22 07:00:00,METAR LFPG 220700Z 02007KT 290V100 5000 BR NSC 05/03 Q1013 BECMG 8000 NSW
2026-03-22 06:30:00,METAR LFPG 220630Z 01008KT 350V130 4000 BR NSC 04/03 Q1013 BECMG 8000 NSW
2026-03-22 06:00:00,METAR LFPG 220600Z 02008KT 010V090 4000 BR NSC 04/03 Q1013 NOSIG
2026-03-22 05:30:00,METAR LFPG 220530Z 02010G21KT 320V120 5000 BR NSC 04/03 Q1012 NOSIG
2026-03-22 05:00:00,METAR LFPG 220500Z 02009KT 5000 BR NSC 04/03 Q1012 NOSIG
2026-03-22 04:30:00,METAR LFPG 220430Z 03009KT 010V140 6000 NSC 04/03 Q1012 NOSIG
2026-03-22 04:00:00,METAR LFPG 220400Z 01009KT 6000 NSC 05/03 Q1012 NOSIG
2026-03-22 03:30:00,METAR LFPG 220330Z 02010KT 6000 NSC 06/04 Q1012 NOSIG
2026-03-22 03:00:00,METAR LFPG 220300Z 02010KT 6000 NSC 05/03 Q1012 NOSIG
2026-03-22 02:30:00,METAR LFPG 220230Z 01010KT 6000 NSC 05/04 Q1012 NOSIG
2026-03-22 02:00:00,METAR LFPG 220200Z 01009KT 6000 NSC 06/04 Q1012 NOSIG
2026-03-22 01:30:00,METAR LFPG 220130Z 01009KT 6000 NSC 06/04 Q1012 NOSIG
2026-03-22 01:00:00,METAR LFPG 220100Z 01010KT 7000 NSC 06/04 Q1013 NOSIG
2026-03-22 00:30:00,METAR LFPG 220030Z 01008KT 7000 NSC 06/04 Q1013 NOSIG
2026-03-22 00:00:00,METAR LFPG 220000Z 01010KT 7000 NSC 07/04 Q1013 NOSIG
2026-03-21 23:30:00,METAR LFPG 212330Z 01009KT 8000 NSC 07/04 Q1013 NOSIG
2026-03-21 23:00:00,METAR LFPG 212300Z 01008KT 8000 NSC 07/04 Q1013 NOSIG
2026-03-21 22:30:00,METAR LFPG 212230Z 01008KT 010V110 8000 NSC 08/04 Q1013 NOSIG
2026-03-21 22:00:00,METAR LFPG 212200Z 01008KT 8000 NSC 08/04 Q1013 NOSIG
2026-03-21 21:30:00,METAR LFPG 212130Z VRB05KT 9000 NSC 09/04 Q1014 NOSIG
2026-03-21 21:00:00,METAR LFPG 212100Z 01004KT 330V110 CAVOK 09/04 Q1014 NOSIG
2026-03-21 20:30:00,METAR LFPG 212030Z VRB06KT CAVOK 10/04 Q1014 NOSIG
2026-03-21 20:00:00,METAR LFPG 212000Z 01009KT CAVOK 10/04 Q1014 NOSIG
2026-03-21 19:30:00,METAR LFPG 211930Z 01006KT 330V110 CAVOK 10/04 Q1014 NOSIG
2026-03-21 19:00:00,METAR LFPG 211900Z 36007KT 310V110 CAVOK 11/04 Q1014 NOSIG
2026-03-21 18:30:00,METAR LFPG 211830Z 36008KT 330V090 CAVOK 12/05 Q1014 NOSIG
2026-03-21 18:00:00,METAR LFPG 211800Z 36009G23KT 340V120 CAVOK 13/05 Q1014 NOSIG
2026-03-21 17:30:00,METAR LFPG 211730Z 01008KT 300V030 CAVOK 14/05 Q1013 NOSIG
2026-03-21 17:00:00,METAR LFPG 211700Z VRB09G20KT CAVOK 15/05 Q1013 NOSIG
2026-03-21 16:30:00,METAR LFPG 211630Z 01011KT CAVOK 16/05 Q1013 NOSIG
2026-03-21 16:00:00,METAR LFPG 211600Z 36011KT CAVOK 16/05 Q1013 NOSIG
2026-03-21 15:30:00,METAR LFPG 211530Z 02007KT 330V060 CAVOK 16/04 Q1013 NOSIG
2026-03-21 14:30:00,METAR LFPG 211430Z 03007KT 350V060 CAVOK 16/03 Q1014 NOSIG
2026-03-21 14:00:00,METAR LFPG 211400Z 03007KT 330V070 CAVOK 16/04 Q1014 NOSIG
2026-03-21 13:30:00,METAR LFPG 211330Z 03007KT 350V060 CAVOK 16/05 Q1014 NOSIG
2026-03-21 13:00:00,METAR LFPG 211300Z 01007KT 330V060 CAVOK 15/04 Q1015 NOSIG
2026-03-21 12:30:00,METAR LFPG 211230Z 02008KT 340V080 CAVOK 15/04 Q1015 NOSIG
2026-03-21 12:00:00,METAR LFPG 211200Z 05006KT 010V090 CAVOK 14/04 Q1015 NOSIG
2026-03-21 11:30:00,METAR LFPG 211130Z 04006KT CAVOK 14/05 Q1015 NOSIG
2026-03-21 11:00:00,METAR LFPG 211100Z 06007KT 040V100 CAVOK 13/06 Q1016 NOSIG
2026-03-21 10:30:00,METAR LFPG 211030Z COR 03006KT 360V070 CAVOK 12/05 Q1016 NOSIG
2026-03-21 10:00:00,METAR LFPG 211000Z 02007KT 330V060 9000 NSC 11/05 Q1016 BECMG CAVOK
2026-03-21 09:30:00,METAR LFPG 210930Z 01006KT 340V060 9000 NSC 10/05 Q1016 BECMG CAVOK
2026-03-21 09:00:00,METAR LFPG 210900Z 02007KT 360V060 8000 NSC 09/05 Q1016 BECMG CAVOK
2026-03-21 08:30:00,METAR LFPG 210830Z 02007KT 360V060 8000 NSC 08/04 Q1016 BECMG CAVOK
2026-03-21 08:00:00,METAR LFPG 210800Z 02009KT 360V150 7000 NSC 08/05 Q1016 BECMG CAVOK
2026-03-21 07:30:00,METAR LFPG 210730Z VRB10KT 4000 BR NSC 06/05 Q1016 BECMG CAVOK
2026-03-21 07:00:00,METAR LFPG 210700Z 02008KT 330V100 4000 BR NSC 05/04 Q1016 BECMG CAVOK
2026-03-21 06:30:00,METAR LFPG 210630Z 02008G19KT 360V120 4000 BR NSC 05/04 Q1015 BECMG CAVOK
2026-03-21 06:00:00,METAR LFPG 210600Z 01008KT 4000 BR NSC 05/03 Q1015 BECMG CAVOK
2026-03-21 05:30:00,METAR LFPG 210530Z 01010KT 6000 NSC 05/03 Q1015 TEMPO 4000 BR
2026-03-21 05:00:00,METAR LFPG 210500Z 01008KT 360V130 6000 NSC 05/03 Q1016 TEMPO 4000 BR
2026-03-21 04:30:00,METAR LFPG 210430Z 01010KT 350V090 6000 NSC 05/03 Q1016 TEMPO 4000 BR
2026-03-21 04:00:00,METAR LFPG 210400Z 02009KT 6000 NSC 06/03 Q1016 TEMPO 4000 BR
2026-03-21 03:30:00,METAR LFPG 210330Z 01008KT 6000 NSC 06/04 Q1016 TEMPO 4000 BR
2026-03-21 03:00:00,METAR LFPG 210300Z 02007KT 6000 NSC 06/04 Q1016 TEMPO 4000 BR
2026-03-21 02:30:00,METAR LFPG 210230Z 01006KT 6000 NSC 07/04 Q1016 TEMPO 4000 BR
2026-03-21 02:00:00,METAR LFPG 210200Z 01007KT 6000 NSC 07/04 Q1016 TEMPO 4000 BR
2026-03-21 01:30:00,METAR LFPG 210130Z 01009KT 7000 NSC 07/04 Q1016 TEMPO 4000 BR
2026-03-21 01:00:00,METAR LFPG 210100Z 01009KT 7000 NSC 07/04 Q1016 TEMPO 4000 BR
2026-03-21 00:30:00,METAR LFPG 210030Z 01008KT 360V110 7000 NSC 08/04 Q1016 TEMPO 4000 BR
2026-03-21 00:00:00,METAR LFPG 210000Z 01007KT 360V100 7000 NSC 09/04 Q1016 NOSIG
2026-03-20 23:30:00,METAR LFPG 202330Z 01008KT 360V110 7000 NSC 09/04 Q1016 NOSIG
2026-03-20 23:00:00,METAR LFPG 202300Z 02008KT 360V130 8000 NSC 09/04 Q1016 NOSIG
2026-03-20 22:30:00,METAR LFPG 202230Z 02008KT 9000 NSC 09/04 Q1017 NOSIG
2026-03-20 22:00:00,METAR LFPG 202200Z 02008KT 010V120 9000 NSC 10/04 Q1017 NOSIG
2026-03-20 21:30:00,METAR LFPG 202130Z 02009KT 360V080 CAVOK 10/04 Q1017 NOSIG
2026-03-20 21:00:00,METAR LFPG 202100Z 02008KT CAVOK 10/04 Q1017 NOSIG
2026-03-20 20:30:00,METAR LFPG 202030Z 02006KT CAVOK 11/04 Q1017 NOSIG
2026-03-20 20:00:00,METAR LFPG 202000Z 03005KT 350V070 CAVOK 11/03 Q1017 NOSIG
2026-03-20 19:30:00,METAR LFPG 201930Z 04005KT CAVOK 12/02 Q1017 NOSIG
2026-03-20 19:00:00,METAR LFPG 201900Z 06006KT CAVOK 14/01 Q1017 NOSIG
2026-03-20 18:30:00,METAR LFPG 201830Z 07006KT CAVOK 14/01 Q1017 NOSIG
2026-03-20 18:00:00,METAR LFPG 201800Z 06007KT CAVOK 14/02 Q1017 NOSIG
2026-03-20 17:30:00,METAR LFPG 201730Z 06008KT CAVOK 15/02 Q1017 NOSIG
2026-03-20 17:00:00,METAR LFPG 201700Z 07008KT CAVOK 16/01 Q1017 NOSIG
2026-03-20 16:30:00,METAR LFPG 201630Z 07008KT CAVOK 16/02 Q1017 NOSIG
2026-03-20 16:00:00,METAR LFPG 201600Z 07008KT CAVOK 17/01 Q1017 NOSIG
2026-03-20 15:30:00,METAR LFPG 201530Z 07009KT CAVOK 17/00 Q1017 NOSIG
2026-03-20 15:00:00,METAR LFPG 201500Z 07009KT CAVOK 17/01 Q1017 NOSIG
2026-03-20 14:30:00,METAR LFPG 201430Z 08008KT 040V120 CAVOK 17/01 Q1017 NOSIG
2026-03-20 14:00:00,METAR LFPG 201400Z 05008KT 020V080 CAVOK 16/02 Q1018 NOSIG
2026-03-20 13:30:00,METAR LFPG 201330Z 06008KT 020V100 CAVOK 16/02 Q1018 NOSIG
2026-03-20 12:30:00,METAR LFPG 201230Z 08006KT 030V120 CAVOK 16/02 Q1019 NOSIG
2026-03-20 12:00:00,METAR LFPG 201200Z 06007KT 020V110 CAVOK 15/03 Q1019 NOSIG
2026-03-20 11:30:00,METAR LFPG 201130Z 05004KT 020V110 CAVOK 15/03 Q1019 NOSIG
2026-03-20 11:00:00,METAR LFPG 201100Z 36005KT 320V070 8000 NSC 15/03 Q1020 NOSIG
2026-03-20 10:30:00,METAR LFPG 201030Z 04004KT 350V110 8000 NSC 14/04 Q1020 NOSIG
2026-03-20 10:00:00,METAR LFPG 201000Z 04006KT 010V090 8000 NSC 13/04 Q1020 NOSIG
2026-03-20 09:30:00,METAR LFPG 200930Z 03006KT 340V060 8000 NSC 12/04 Q1020 NOSIG
2026-03-20 09:00:00,METAR LFPG 200900Z 03007KT 360V060 8000 NSC 11/03 Q1020 NOSIG
2026-03-20 08:30:00,METAR LFPG 200830Z 03007KT 360V110 8000 NSC 10/03 Q1020 NOSIG
2026-03-20 08:00:00,METAR LFPG 200800Z 01010KT 340V110 8000 NSC 08/04 Q1020 NOSIG
2026-03-20 07:30:00,METAR LFPG 200730Z VRB09KT 8000 NSC 06/03 Q1020 NOSIG
2026-03-20 07:00:00,METAR LFPG 200700Z VRB09KT 8000 NSC 05/02 Q1020 NOSIG
2026-03-20 06:30:00,METAR LFPG 200630Z 01009G20KT 360V090 8000 NSC 05/02 Q1020 NOSIG
2026-03-20 06:00:00,METAR LFPG 200600Z 01006KT 360V070 8000 NSC 05/02 Q1020 NOSIG
2026-03-20 05:30:00,METAR LFPG 200530Z 01008KT 360V130 CAVOK 05/02 Q1020 NOSIG
2026-03-20 05:00:00,METAR LFPG 200500Z 01008KT CAVOK 05/02 Q1020 NOSIG
2026-03-20 04:30:00,METAR LFPG 200430Z 01009KT 360V110 CAVOK 05/02 Q1020 NOSIG
2026-03-20 04:00:00,METAR LFPG 200400Z 02009KT CAVOK 05/02 Q1020 NOSIG
2026-03-20 03:30:00,METAR LFPG 200330Z 01010KT CAVOK 05/02 Q1020 NOSIG
2026-03-20 03:00:00,METAR LFPG 200300Z 01008KT CAVOK 05/02 Q1020 NOSIG
2026-03-20 02:00:00,METAR LFPG 200200Z 01009KT CAVOK 06/02 Q1020 NOSIG
2026-03-20 01:30:00,METAR LFPG 200130Z 01007KT CAVOK 07/02 Q1020 NOSIG
2026-03-20 01:00:00,METAR LFPG 200100Z 02006KT CAVOK 07/02 Q1021 NOSIG
2026-03-20 00:30:00,METAR LFPG 200030Z 03006KT CAVOK 07/02 Q1021 NOSIG
2026-03-20 00:00:00,METAR LFPG 200000Z 06008KT CAVOK 08/02 Q1020 NOSIG
2026-03-19 23:30:00,METAR LFPG 192330Z 05009KT 030V090 CAVOK 08/02 Q1021 NOSIG
2026-03-19 23:00:00,METAR LFPG 192300Z 05010KT 020V100 CAVOK 08/02 Q1021 NOSIG
2026-03-19 22:30:00,METAR LFPG 192230Z 05009KT 020V090 CAVOK 08/02 Q1021 NOSIG
2026-03-19 22:00:00,METAR LFPG 192200Z 04010KT CAVOK 09/02 Q1021 NOSIG
2026-03-19 21:30:00,METAR LFPG 192130Z 04010KT CAVOK 09/02 Q1021 NOSIG
2026-03-19 21:00:00,METAR LFPG 192100Z 04008KT CAVOK 10/02 Q1021 NOSIG
2026-03-19 20:30:00,METAR LFPG 192030Z 03007KT CAVOK 11/02 Q1021 NOSIG
2026-03-19 20:00:00,METAR LFPG 192000Z 03007KT CAVOK 11/02 Q1021 NOSIG
2026-03-19 19:30:00,METAR LFPG 191930Z 03005KT 350V090 CAVOK 12/02 Q1021 NOSIG
2026-03-19 19:00:00,METAR LFPG 191900Z 05007KT 020V080 CAVOK 13/02 Q1021 NOSIG
2026-03-19 18:30:00,METAR LFPG 191830Z 05007KT CAVOK 13/01 Q1021 NOSIG
2026-03-19 18:00:00,METAR LFPG 191800Z 06007KT CAVOK 14/01 Q1021 NOSIG
2026-03-19 17:30:00,METAR LFPG 191730Z 06010KT CAVOK 14/02 Q1021 NOSIG
2026-03-19 17:00:00,METAR LFPG 191700Z 07011KT CAVOK 16/01 Q1020 NOSIG
2026-03-19 16:30:00,METAR LFPG 191630Z 07011KT CAVOK 17/01 Q1020 NOSIG
2026-03-19 16:00:00,METAR LFPG 191600Z 06011KT CAVOK 17/02 Q1021 NOSIG
2026-03-19 15:30:00,METAR LFPG 191530Z 05013KT CAVOK 17/02 Q1021 NOSIG
2026-03-19 15:00:00,METAR LFPG 191500Z 06013KT 040V100 CAVOK 17/02 Q1021 NOSIG
2026-03-19 14:30:00,METAR LFPG 191430Z 06014KT CAVOK 17/01 Q1021 NOSIG
2026-03-19 14:00:00,METAR LFPG 191400Z 06013KT 030V090 CAVOK 17/02 Q1021 NOSIG
2026-03-19 13:30:00,METAR LFPG 191330Z 06013KT 040V100 CAVOK 16/02 Q1022 NOSIG
2026-03-19 13:00:00,METAR LFPG 191300Z 07014KT CAVOK 15/02 Q1022 NOSIG
2026-03-19 12:30:00,METAR LFPG 191230Z 08013KT CAVOK 15/04 Q1022 NOSIG
2026-03-19 12:00:00,METAR LFPG 191200Z 08014KT CAVOK 14/03 Q1023 NOSIG
2026-03-19 11:30:00,METAR LFPG 191130Z 07013KT CAVOK 14/03 Q1023 NOSIG
2026-03-19 11:00:00,METAR LFPG 191100Z 07011KT CAVOK 13/04 Q1023 NOSIG
2026-03-19 10:30:00,METAR LFPG 191030Z 07012KT CAVOK 13/04 Q1023 NOSIG
2026-03-19 10:00:00,METAR LFPG 191000Z 06012KT CAVOK 12/04 Q1023 NOSIG
2026-03-19 09:30:00,METAR LFPG 190930Z 06013KT CAVOK 12/04 Q1023 NOSIG
2026-03-19 09:00:00,METAR LFPG 190900Z 06013KT CAVOK 11/03 Q1024 NOSIG
2026-03-19 08:30:00,METAR LFPG 190830Z 06012KT CAVOK 10/04 Q1023 NOSIG
2026-03-19 08:00:00,METAR LFPG 190800Z 06011KT CAVOK 09/03 Q1023 NOSIG
2026-03-19 07:30:00,METAR LFPG 190730Z 07010KT CAVOK 08/03 Q1023 NOSIG
2026-03-19 07:00:00,METAR LFPG 190700Z 08010KT CAVOK 07/02 Q1022 NOSIG
2026-03-19 06:30:00,METAR LFPG 190630Z 06012KT CAVOK 07/02 Q1022 NOSIG
2026-03-19 06:00:00,METAR LFPG 190600Z 05012KT CAVOK 05/02 Q1022 NOSIG
2026-03-19 05:30:00,METAR LFPG 190530Z 05012KT CAVOK 05/02 Q1022 NOSIG
2026-03-19 05:00:00,METAR LFPG 190500Z 05010KT CAVOK 06/02 Q1022 NOSIG
2026-03-19 04:30:00,METAR LFPG 190430Z 05011KT CAVOK 06/02 Q1022 NOSIG
2026-03-19 04:00:00,METAR LFPG 190400Z 05010KT CAVOK 06/02 Q1021 NOSIG
2026-03-19 03:00:00,METAR LFPG 190300Z 05011KT CAVOK 06/02 Q1021 NOSIG
2026-03-19 02:30:00,METAR LFPG 190230Z 05011KT CAVOK 06/02 Q1022 NOSIG
2026-03-19 02:00:00,METAR LFPG 190200Z 05011KT CAVOK 07/02 Q1022 NOSIG
2026-03-19 01:30:00,METAR LFPG 190130Z 06012KT CAVOK 07/02 Q1022 NOSIG
2026-03-19 01:00:00,METAR LFPG 190100Z 05012KT CAVOK 07/02 Q1022 NOSIG
2026-03-19 00:30:00,METAR LFPG 190030Z 05011KT CAVOK 07/02 Q1021 NOSIG
2026-03-19 00:00:00,METAR LFPG 190000Z 05010KT CAVOK 08/02 Q1021 NOSIG
2026-03-18 23:30:00,METAR LFPG 182330Z 06013KT CAVOK 08/02 Q1021 NOSIG
2026-03-18 23:00:00,METAR LFPG 182300Z 06013KT CAVOK 08/02 Q1021 NOSIG
2026-03-18 22:30:00,METAR LFPG 182230Z 06011KT CAVOK 08/02 Q1021 NOSIG
2026-03-18 22:00:00,METAR LFPG 182200Z 05010KT CAVOK 09/02 Q1021 NOSIG
2026-03-18 21:30:00,METAR LFPG 182130Z 05008KT CAVOK 09/02 Q1021 NOSIG
2026-03-18 21:00:00,METAR LFPG 182100Z 06007KT CAVOK 09/02 Q1021 NOSIG
2026-03-18 20:30:00,METAR LFPG 182030Z 06008KT 010V070 CAVOK 10/02 Q1020 NOSIG
2026-03-18 20:00:00,METAR LFPG 182000Z 06010KT CAVOK 10/02 Q1020 NOSIG
2026-03-18 19:30:00,METAR LFPG 181930Z 06012KT CAVOK 11/02 Q1020 NOSIG
2026-03-18 19:00:00,METAR LFPG 181900Z 07015KT CAVOK 12/01 Q1019 NOSIG
2026-03-18 18:30:00,METAR LFPG 181830Z 08011KT CAVOK 13/01 Q1019 NOSIG
2026-03-18 18:00:00,METAR LFPG 181800Z 06013KT CAVOK 13/02 Q1019 NOSIG
2026-03-18 17:30:00,METAR LFPG 181730Z 07013KT CAVOK 14/01 Q1018 TEMPO 08015G25KT
2026-03-18 17:00:00,METAR LFPG 181700Z 07016KT CAVOK 14/01 Q1018 TEMPO 08015G25KT
2026-03-18 16:30:00,METAR LFPG 181630Z 07018KT CAVOK 15/00 Q1018 TEMPO 08015G25KT
2026-03-18 16:00:00,METAR LFPG 181600Z 07018KT CAVOK 15/00 Q1018 TEMPO 08015G25KT
2026-03-18 15:30:00,METAR LFPG 181530Z 07019KT CAVOK 15/M01 Q1018 TEMPO 08015G25KT
2026-03-18 15:00:00,METAR LFPG 181500Z 07020KT CAVOK 15/M00 Q1018 TEMPO 08015G25KT
2026-03-18 14:30:00,METAR LFPG 181430Z 07017KT CAVOK 15/M01 Q1018 TEMPO 08015G25KT
2026-03-18 14:00:00,METAR LFPG 181400Z 07017KT CAVOK 15/M02 Q1018 TEMPO 08015G25KT
2026-03-18 13:30:00,METAR LFPG 181330Z 06018KT CAVOK 15/M01 Q1019 TEMPO 08015G25KT
2026-03-18 13:00:00,METAR LFPG 181300Z 08017KT CAVOK 15/M03 Q1019 TEMPO 08015G25KT
2026-03-18 12:30:00,METAR LFPG 181230Z 08017KT 050V110 CAVOK 14/M03 Q1019 TEMPO 08015G25KT
2026-03-18 12:00:00,METAR LFPG 181200Z 08016KT CAVOK 14/M01 Q1020 NOSIG
2026-03-18 11:30:00,METAR LFPG 181130Z 09014KT CAVOK 14/M03 Q1020 NOSIG
2026-03-18 11:00:00,METAR LFPG 181100Z 10015KT CAVOK 13/M02 Q1020 NOSIG
2026-03-18 10:30:00,METAR LFPG 181030Z 10015KT CAVOK 12/M01 Q1020 NOSIG
2026-03-18 10:00:00,METAR LFPG 181000Z 10017KT CAVOK 12/M02 Q1020 NOSIG
2026-03-18 09:30:00,METAR LFPG 180930Z 10017KT CAVOK 12/M00 Q1020 NOSIG
2026-03-18 09:00:00,METAR LFPG 180900Z 10017KT CAVOK 11/00 Q1020 NOSIG
2026-03-18 08:30:00,METAR LFPG 180830Z 09014KT CAVOK 11/02 Q1020 NOSIG
2026-03-18 08:00:00,METAR LFPG 180800Z 09011KT CAVOK 10/03 Q1020 NOSIG
2026-03-18 07:30:00,METAR LFPG 180730Z 09011KT CAVOK 09/04 Q1019 NOSIG
2026-03-18 07:00:00,METAR LFPG 180700Z 10012KT CAVOK 09/04 Q1019 NOSIG
2026-03-18 06:30:00,METAR LFPG 180630Z 09010KT CAVOK 08/04 Q1019 NOSIG
2026-03-18 06:00:00,METAR LFPG 180600Z 09008KT CAVOK 08/04 Q1018 NOSIG
2026-03-18 05:30:00,METAR LFPG 180530Z 10010KT CAVOK 08/04 Q1018 NOSIG
2026-03-18 04:30:00,METAR LFPG 180430Z 11011KT CAVOK 08/05 Q1018 NOSIG
2026-03-18 04:00:00,METAR LFPG 180400Z 11011KT CAVOK 09/05 Q1018 NOSIG
2026-03-18 03:30:00,METAR LFPG 180330Z 10009KT CAVOK 08/05 Q1017 NOSIG
2026-03-18 03:00:00,METAR LFPG 180300Z 10009KT CAVOK 09/05 Q1017 NOSIG
2026-03-18 02:30:00,METAR LFPG 180230Z 10011KT CAVOK 09/05 Q1017 NOSIG
2026-03-18 02:00:00,METAR LFPG 180200Z 10009KT CAVOK 09/05 Q1017 NOSIG
2026-03-18 01:30:00,METAR LFPG 180130Z 11010KT CAVOK 10/05 Q1018 NOSIG
2026-03-18 01:00:00,METAR LFPG 180100Z 11010KT CAVOK 10/06 Q1017 NOSIG
2026-03-18 00:30:00,METAR LFPG 180030Z 11011KT CAVOK 10/06 Q1017 NOSIG
2026-03-18 00:00:00,METAR LFPG 180000Z 11010KT CAVOK 10/06 Q1017 NOSIG
2026-03-17 23:30:00,METAR LFPG 172330Z 11011KT CAVOK 11/06 Q1017 NOSIG
2026-03-17 23:00:00,METAR LFPG 172300Z 11010KT CAVOK 11/06 Q1017 NOSIG
2026-03-17 22:30:00,METAR LFPG 172230Z 11008KT CAVOK 11/06 Q1017 NOSIG
2026-03-17 22:00:00,METAR LFPG 172200Z 10007KT CAVOK 12/06 Q1017 NOSIG
2026-03-17 21:30:00,METAR LFPG 172130Z 10007KT CAVOK 12/06 Q1017 NOSIG
2026-03-17 21:00:00,METAR LFPG 172100Z 11008KT CAVOK 12/06 Q1017 NOSIG
2026-03-17 20:30:00,METAR LFPG 172030Z 10009KT CAVOK 13/06 Q1017 NOSIG
2026-03-17 20:00:00,METAR LFPG 172000Z 11010KT CAVOK 13/07 Q1017 NOSIG
2026-03-17 19:00:00,METAR LFPG 171900Z 12010KT CAVOK 14/06 Q1017 NOSIG
2026-03-17 18:30:00,METAR LFPG 171830Z 12010KT CAVOK 14/07 Q1017 NOSIG
2026-03-17 18:00:00,METAR LFPG 171800Z 12010KT CAVOK 15/07 Q1017 NOSIG
2026-03-17 17:30:00,METAR LFPG 171730Z 13010KT CAVOK 16/06 Q1017 NOSIG
2026-03-17 17:00:00,METAR LFPG 171700Z 13010KT CAVOK 16/06 Q1017 NOSIG
2026-03-17 16:30:00,METAR LFPG 171630Z 14011KT CAVOK 16/06 Q1017 NOSIG
2026-03-17 16:00:00,METAR LFPG 171600Z 16009KT CAVOK 17/06 Q1017 NOSIG
2026-03-17 15:30:00,METAR LFPG 171530Z 14010KT CAVOK 17/06 Q1017 NOSIG
2026-03-17 15:00:00,METAR LFPG 171500Z 15011KT CAVOK 16/06 Q1017 NOSIG
2026-03-17 14:30:00,METAR LFPG 171430Z 14011KT 110V170 CAVOK 16/06 Q1018 NOSIG
2026-03-17 14:00:00,METAR LFPG 171400Z 14011KT CAVOK 16/05 Q1018 NOSIG
2026-03-17 13:30:00,METAR LFPG 171330Z 15010KT 110V190 CAVOK 16/06 Q1018 NOSIG
2026-03-17 13:00:00,METAR LFPG 171300Z 14010G21KT 110V180 CAVOK 16/06 Q1019 NOSIG
2026-03-17 12:30:00,METAR LFPG 171230Z 17009KT 110V210 CAVOK 15/05 Q1019 NOSIG
2026-03-17 12:00:00,METAR LFPG 171200Z 17010KT 110V190 CAVOK 15/04 Q1019 NOSIG
2026-03-17 11:30:00,METAR LFPG 171130Z 17010KT 120V200 CAVOK 15/05 Q1020 NOSIG
2026-03-17 11:00:00,METAR LFPG 171100Z 17008KT 120V220 CAVOK 14/05 Q1020 NOSIG
2026-03-17 10:30:00,METAR LFPG 171030Z 16008KT CAVOK 13/05 Q1020 NOSIG
2026-03-17 10:00:00,METAR LFPG 171000Z 16010G23KT 110V190 CAVOK 13/05 Q1020 NOSIG
2026-03-17 09:30:00,METAR LFPG 170930Z 16007KT 120V190 CAVOK 12/06 Q1021 NOSIG
2026-03-17 09:00:00,METAR LFPG 170900Z 15007KT CAVOK 11/06 Q1021 NOSIG
2026-03-17 08:30:00,METAR LFPG 170830Z 15005KT 120V180 CAVOK 10/06 Q1021 NOSIG
2026-03-17 08:00:00,METAR LFPG 170800Z 16004KT 080V190 CAVOK 09/05 Q1021 NOSIG
2026-03-17 07:30:00,METAR LFPG 170730Z 15005KT CAVOK 08/05 Q1020 NOSIG
2026-03-17 07:00:00,METAR LFPG 170700Z 15004KT CAVOK 07/05 Q1020 NOSIG
2026-03-17 06:30:00,METAR LFPG 170630Z 13004KT CAVOK 06/04 Q1020 NOSIG
2026-03-17 06:00:00,METAR LFPG 170600Z 14003KT CAVOK 06/04 Q1020 NOSIG
2026-03-17 05:30:00,METAR LFPG 170530Z 15005KT CAVOK 06/04 Q1020 NOSIG
2026-03-17 05:00:00,METAR LFPG 170500Z 17005KT CAVOK 06/04 Q1020 NOSIG
2026-03-17 04:30:00,METAR LFPG 170430Z 17006KT CAVOK 06/04 Q1020 NOSIG
2026-03-17 04:00:00,METAR LFPG 170400Z 17006KT CAVOK 07/04 Q1020 NOSIG
2026-03-17 03:30:00,METAR LFPG 170330Z 17007KT CAVOK 07/05 Q1020 NOSIG
2026-03-17 03:00:00,METAR LFPG 170300Z 18006KT CAVOK 07/05 Q1020 NOSIG
2026-03-17 02:30:00,METAR LFPG 170230Z 17006KT CAVOK 08/05 Q1021 NOSIG
2026-03-17 02:00:00,METAR LFPG 170200Z 18007KT CAVOK 08/05 Q1021 NOSIG
2026-03-17 01:30:00,METAR LFPG 170130Z 18005KT 9999 FEW036 09/05 Q1021 NOSIG
2026-03-17 01:08:00,METAR LFPG 170108Z COR 18005KT 9999 BKN036 10/05 Q1021 NOSIG
2026-03-17 01:00:00,METAR LFPG 170100Z 19005KT 9999 BKN036 10/05 Q1021 NOSIG
2026-03-17 00:30:00,METAR LFPG 170030Z 21006KT 9999 BKN040 10/05 Q1021 NOSIG
2026-03-17 00:00:00,METAR LFPG 170000Z 21008KT 9999 BKN043 10/05 Q1021 NOSIG
2026-03-16 23:30:00,METAR LFPG 162330Z 21006KT 9999 BKN043 11/05 Q1022 NOSIG
2026-03-16 23:00:00,METAR LFPG 162300Z 22005KT 9999 BKN043 10/05 Q1022 NOSIG
2026-03-16 22:30:00,METAR LFPG 162230Z 22005KT 190V270 9999 FEW033 BKN046 10/05 Q1022 NOSIG
2026-03-16 22:00:00,METAR LFPG 162200Z 24005KT 9999 FEW033 BKN046 11/05 Q1022 NOSIG
2026-03-16 21:30:00,METAR LFPG 162130Z 21004KT 190V260 9999 BKN046 11/05 Q1022 NOSIG
2026-03-16 21:00:00,METAR LFPG 162100Z 20004KT 9999 BKN046 11/05 Q1022 NOSIG
2026-03-16 20:30:00,METAR LFPG 162030Z 21003KT 190V260 9999 FEW030 BKN044 11/05 Q1022 NOSIG
2026-03-16 20:00:00,METAR LFPG 162000Z 23004KT 9999 SCT030 BKN046 11/05 Q1022 NOSIG
2026-03-16 19:30:00,METAR LFPG 161930Z 22005KT 9999 SCT039 BKN046 11/05 Q1022 NOSIG
2026-03-16 19:00:00,METAR LFPG 161900Z 24005KT 220V290 9999 SCT037 BKN045 11/05 Q1022 NOSIG
2026-03-16 18:30:00,METAR LFPG 161830Z 25005KT 9999 SCT036 BKN048 11/05 Q1021 NOSIG
2026-03-16 18:00:00,METAR LFPG 161800Z 27009KT 9999 SCT031 BKN041 11/05 Q1021 NOSIG
2026-03-16 17:30:00,METAR LFPG 161730Z 27011KT 9999 OVC033 11/04 Q1021 NOSIG
2026-03-16 17:00:00,METAR LFPG 161700Z 27007KT 9999 OVC035 12/04 Q1021 NOSIG
2026-03-16 16:30:00,METAR LFPG 161630Z 27009KT 9999 OVC041 12/04 Q1021 TEMPO SCT030TCU
2026-03-16 16:00:00,METAR LFPG 161600Z 26008KT 210V270 CAVOK 12/04 Q1020 TEMPO SCT030TCU
2026-03-16 15:30:00,METAR LFPG 161530Z 27010KT 230V290 CAVOK 12/04 Q1021 TEMPO SCT030TCU
2026-03-16 15:00:00,METAR LFPG 161500Z 25010KT CAVOK 12/04 Q1020 TEMPO SCT030TCU
2026-03-16 14:30:00,METAR LFPG 161430Z 29012KT 9999 BKN039 BKN050 12/04 Q1021 TEMPO SCT030TCU
2026-03-16 14:00:00,METAR LFPG 161400Z 29009KT 9999 BKN036 BKN045 11/04 Q1020 TEMPO SCT030TCU
2026-03-16 13:30:00,METAR LFPG 161330Z 28008KT 9999 BKN035 BKN044 12/04 Q1020 TEMPO SCT030TCU
2026-03-16 13:00:00,METAR LFPG 161300Z VRB02KT 9999 BKN033 BKN045 11/05 Q1020 TEMPO SCT030TCU
2026-03-16 12:30:00,METAR LFPG 161230Z 31005KT 250V340 9999 SCT028 BKN033 11/05 Q1020 TEMPO SCT030TCU
2026-03-16 12:00:00,METAR LFPG 161200Z 32007KT 280V340 9999 SCT025 BKN037 11/05 Q1020 TEMPO SCT030TCU
2026-03-16 11:30:00,METAR LFPG 161130Z 26009KT 9999 FEW025 BKN041 10/05 Q1020 TEMPO SCT030TCU
2026-03-16 11:00:00,METAR LFPG 161100Z 27011KT 9999 FEW023 BKN040 10/05 Q1020 TEMPO SCT030TCU
2026-03-16 10:30:00,METAR LFPG 161030Z 26012KT 9999 SCT027 BKN050 10/05 Q1020 NOSIG
2026-03-16 10:00:00,METAR LFPG 161000Z 25012KT 9999 FEW026 BKN055 10/05 Q1020 NOSIG
2026-03-16 09:30:00,METAR LFPG 160930Z 25012KT 9999 FEW021 BKN120 09/05 Q1019 NOSIG
2026-03-16 09:00:00,METAR LFPG 160900Z 26012KT 9999 FEW020 BKN120 09/05 Q1019 NOSIG
2026-03-16 08:30:00,METAR LFPG 160830Z 25010KT CAVOK 09/04 Q1019 NOSIG
2026-03-16 08:00:00,METAR LFPG 160800Z 26011KT CAVOK 08/04 Q1019 NOSIG
2026-03-16 07:30:00,METAR LFPG 160730Z 26009KT CAVOK 08/04 Q1018 NOSIG
2026-03-16 07:00:00,METAR LFPG 160700Z 25011KT 9999 SCT040 OVC130 08/04 Q1018 NOSIG
2026-03-16 06:30:00,METAR LFPG 160630Z 25009KT 9999 FEW040 OVC130 08/04 Q1018 NOSIG
2026-03-16 06:00:00,METAR LFPG 160600Z 24009KT CAVOK 07/05 Q1018 NOSIG
2026-03-16 05:30:00,METAR LFPG 160530Z 25009KT CAVOK 08/05 Q1017 NOSIG
2026-03-16 05:00:00,METAR LFPG 160500Z 25011KT CAVOK 08/05 Q1017 NOSIG
2026-03-16 04:30:00,METAR LFPG 160430Z 26010KT 9999 BKN024 08/05 Q1017 NOSIG
2026-03-16 04:00:00,METAR LFPG 160400Z 24009KT 9999 BKN022 08/05 Q1016 NOSIG
2026-03-16 03:30:00,METAR LFPG 160330Z 24007KT 9999 BKN025 08/05 Q1016 NOSIG
2026-03-16 03:00:00,METAR LFPG 160300Z 25008KT CAVOK 08/05 Q1016 NOSIG
2026-03-16 02:30:00,METAR LFPG 160230Z 26009KT 9999 FEW022 SCT240 08/05 Q1016 NOSIG
2026-03-16 02:00:00,METAR LFPG 160200Z 26011KT 9999 SCT022 08/05 Q1016 NOSIG
2026-03-16 01:30:00,METAR LFPG 160130Z 25013KT 9999 BKN022 BKN050 09/05 Q1016 NOSIG
2026-03-16 01:00:00,METAR LFPG 160100Z 25014KT 9999 SCT023 BKN046 09/05 Q1016 NOSIG
2026-03-16 00:30:00,METAR LFPG 160030Z 25016KT 9999 SCT025 BKN040 09/05 Q1016 NOSIG
2026-03-16 00:00:00,METAR LFPG 160000Z 24016KT 9999 SCT026 BKN046 09/05 Q1016 NOSIG
2026-03-15 23:30:00,METAR LFPG 152330Z 24016KT 9999 BKN025 10/04 Q1015 NOSIG
2026-03-15 23:00:00,METAR LFPG 152300Z 24015KT 9999 SCT026 BKN040 10/03 Q1015 NOSIG
2026-03-15 22:30:00,METAR LFPG 152230Z 22017KT 9999 SCT026 BKN040 10/03 Q1015 NOSIG
2026-03-15 22:00:00,METAR LFPG 152200Z 22019KT 9999 SCT026 BKN040 10/03 Q1016 NOSIG
2026-03-15 21:30:00,METAR LFPG 152130Z 22012KT 9999 SCT036 BKN053 10/02 Q1016 NOSIG
2026-03-15 21:00:00,METAR LFPG 152100Z 22012G28KT 200V320 9999 SCT046 BKN063 10/01 Q1016 NOSIG
2026-03-15 20:30:00,METAR LFPG 152030Z 21014KT CAVOK 10/01 Q1016 NOSIG
2026-03-15 20:00:00,METAR LFPG 152000Z 22012KT CAVOK 10/01 Q1016 NOSIG
2026-03-15 19:30:00,METAR LFPG 151930Z 21015KT CAVOK 10/01 Q1016 NOSIG
2026-03-15 19:00:00,METAR LFPG 151900Z 21012KT CAVOK 10/01 Q1016 NOSIG
2026-03-15 18:30:00,METAR LFPG 151830Z 20015KT CAVOK 10/00 Q1016 NOSIG
2026-03-15 18:00:00,METAR LFPG 151800Z 21013KT CAVOK 11/01 Q1016 NOSIG
2026-03-15 17:30:00,METAR LFPG 151730Z 21013KT CAVOK 11/00 Q1016 NOSIG
2026-03-15 17:00:00,METAR LFPG 151700Z 21013KT CAVOK 12/00 Q1016 NOSIG
2026-03-15 16:30:00,METAR LFPG 151630Z 23011KT CAVOK 13/M01 Q1016 NOSIG
2026-03-15 16:00:00,METAR LFPG 151600Z 24011KT 210V270 9999 FEW023 13/M00 Q1016 NOSIG
2026-03-15 15:30:00,METAR LFPG 151530Z 24008KT 210V300 9999 FEW023 13/M01 Q1016 NOSIG
2026-03-15 15:00:00,METAR LFPG 151500Z 21009KT 9999 FEW023 13/M02 Q1016 NOSIG
2026-03-15 14:30:00,METAR LFPG 151430Z 26008KT 220V290 9999 FEW023 13/M02 Q1016 NOSIG
2026-03-15 14:00:00,METAR LFPG 151400Z 23008KT 190V260 CAVOK 12/M02 Q1016 NOSIG
2026-03-15 13:30:00,METAR LFPG 151330Z 23007KT 190V320 9999 FEW033 12/M01 Q1016 NOSIG
2026-03-15 13:00:00,METAR LFPG 151300Z 26008KT 230V300 9999 FEW033 12/M02 Q1017 NOSIG
2026-03-15 12:30:00,METAR LFPG 151230Z 30006KT 240V330 9999 FEW033 12/M01 Q1017 NOSIG
2026-03-15 12:00:00,METAR LFPG 151200Z VRB04KT 9999 FEW033 10/M00 Q1017 NOSIG
2026-03-15 11:30:00,METAR LFPG 151130Z 20005KT 140V240 9999 FEW033 10/M00 Q1017 NOSIG
2026-03-15 11:00:00,METAR LFPG 151100Z 22005KT 170V330 9999 FEW026 10/00 Q1017 NOSIG
2026-03-15 10:30:00,METAR LFPG 151030Z 23004KT 140V300 9999 FEW026 09/01 Q1017 NOSIG
2026-03-15 10:00:00,METAR LFPG 151000Z VRB03KT 9999 FEW026 09/02 Q1017 NOSIG
2026-03-15 09:30:00,METAR LFPG 150930Z 22004KT 170V250 9999 FEW026 09/03 Q1017 NOSIG
2026-03-15 09:00:00,METAR LFPG 150900Z 20003KT 130V240 CAVOK 07/02 Q1017 NOSIG
2026-03-15 08:30:00,METAR LFPG 150830Z 21003KT 130V260 CAVOK 05/01 Q1017 NOSIG
2026-03-15 08:00:00,METAR LFPG 150800Z VRB03KT CAVOK 05/02 Q1017 NOSIG
