Time_recorded,METAR
2026-05-02 15:35:00,METAR KMQS 021535Z AUTO 34007KT 10SM BKN200 BKN220 11/01 A2992 RMK AO2 T01150011
2026-05-02 15:15:00,METAR KMQS 021515Z AUTO VRB06KT 10SM BKN200 11/02 A2993 RMK AO2 T01090019
2026-05-02 14:55:00,METAR KMQS 021455Z AUTO 35008KT 10SM BKN210 11/02 A2992 RMK AO2 T01070022 58002
2026-05-02 14:35:00,METAR KMQS 021435Z AUTO 02009KT 10SM BKN220 10/02 A2992 RMK AO2 T01020019
2026-05-02 14:15:00,METAR KMQS 021415Z AUTO 02009KT 10SM FEW200 SCT230 10/02 A2992 RMK AO2 T00990016
2026-05-02 13:55:00,METAR KMQS 021355Z AUTO 36007KT 10SM FEW022 BKN230 09/04 A2992 RMK AO2 T00920044
2026-05-02 13:35:00,METAR KMQS 021335Z AUTO 33010KT 10SM BKN021 BKN230 09/05 A2993 RMK AO2 CIG 018V024 BKN021 V SCT T00920048
2026-05-02 13:15:00,METAR KMQS 021315Z AUTO 35011KT 10SM BKN020 BKN075 09/05 A2993 RMK AO2 CIG 018V023 T00860048
2026-05-02 12:55:00,METAR KMQS 021255Z AUTO 36010KT 10SM BKN018 BKN024 OVC080 08/05 A2993 RMK AO2 CIG 017V021 T00840051
2026-05-02 12:35:00,METAR KMQS 021235Z AUTO 35010G17KT 10SM SCT018 SCT024 BKN090 08/05 A2993 RMK AO2 T00820050
2026-05-02 12:15:00,METAR KMQS 021215Z AUTO 33009KT 10SM BKN015 BKN095 08/05 A2992 RMK AO2 CIG 014V019 T00810052
2026-05-02 11:55:00,METAR KMQS 021155Z AUTO 32012KT 10SM BKN015 07/05 A2992 RMK AO2 CIG 014V018 T00740051 10101 20074 53013
2026-05-02 11:35:00,METAR KMQS 021135Z AUTO 32010KT 10SM SCT015 07/05 A2992 RMK AO2 T00740054
2026-05-02 11:15:00,METAR KMQS 021115Z AUTO 32008KT 10SM FEW017 SCT250 08/05 A2991 RMK AO2 T00770053
2026-05-02 10:55:00,METAR KMQS 021055Z AUTO 31009KT 9SM FEW016 BKN085 08/06 A2990 RMK AO2 T00780057
2026-05-02 10:35:00,METAR KMQS 021035Z AUTO 31012KT 9SM SCT016 BKN023 OVC095 08/06 A2990 RMK AO2 T00790063
2026-05-02 10:15:00,METAR KMQS 021015Z AUTO 30014KT 10SM BKN019 BKN025 08/06 A2989 RMK AO2 CIG 016V023 T00810062
2026-05-02 09:55:00,METAR KMQS 020955Z AUTO 29007KT 10SM FEW075 08/06 A2989 RMK AO2 T00800062
2026-05-02 09:35:00,METAR KMQS 020935Z AUTO 30010KT 10SM BKN075 08/07 A2989 RMK AO2 T00830066
2026-05-02 09:15:00,METAR KMQS 020915Z AUTO 28009KT 10SM SCT021 BKN075 09/08 A2989 RMK AO2 T00870077
2026-05-02 08:55:00,METAR KMQS 020855Z AUTO 25003KT 10SM FEW023 OVC070 09/07 A2989 RMK AO2 T00890075 55000
2026-05-02 08:35:00,METAR KMQS 020835Z AUTO 00000KT 10SM OVC070 09/08 A2988 RMK AO2 T00900075
2026-05-02 08:15:00,METAR KMQS 020815Z AUTO 31003KT 10SM OVC070 09/07 A2987 RMK AO2 T00850074
2026-05-02 07:55:00,METAR KMQS 020755Z AUTO 00000KT 10SM OVC060 10/07 A2987 RMK AO2 T00960074
2026-05-02 07:35:00,METAR KMQS 020735Z AUTO 35003KT 10SM BKN055 OVC065 10/07 A2987 RMK AO2 T00980073
2026-05-02 07:15:00,METAR KMQS 020715Z AUTO 33004KT 10SM BKN047 OVC065 10/07 A2988 RMK AO2 T00970073
2026-05-02 06:55:00,METAR KMQS 020655Z AUTO 00000KT 10SM SCT046 BKN110 OVC130 09/08 A2989 RMK AO2 T00930075
2026-05-02 06:35:00,METAR KMQS 020635Z AUTO 33003KT 10SM FEW042 SCT075 BKN110 OVC130 10/07 A2988 RMK AO2 T00980071
2026-05-02 06:15:00,METAR KMQS 020615Z AUTO 34006KT 10SM BKN075 OVC130 10/07 A2988 RMK AO2 T01000072
2026-05-02 05:55:00,METAR KMQS 020555Z AUTO 31009KT 10SM FEW060 SCT080 OVC130 10/07 A2989 RMK AO2 RAB0525E0539 P0000 60000 T01000075 10133 20094 401660025 50000
2026-05-02 05:35:00,METAR KMQS 020535Z AUTO 30007KT 9SM -RA SCT065 BKN080 BKN140 10/08 A2989 RMK AO2 RAB0525 P0000 T00960080
2026-05-02 05:15:00,METAR KMQS 020515Z AUTO 28004KT 10SM BKN065 OVC085 11/07 A2989 RMK AO2 T01070074
2026-05-02 04:55:00,METAR KMQS 020455Z AUTO VRB03KT 10SM OVC065 11/08 A2989 RMK AO2 T01050082
2026-05-02 04:35:00,METAR KMQS 020435Z AUTO 00000KT 10SM OVC070 11/08 A2989 RMK AO2 T01070080
2026-05-02 04:15:00,METAR KMQS 020415Z AUTO 28003KT 9SM OVC065 10/09 A2989 RMK AO2 T01020090
2026-05-02 03:55:00,METAR KMQS 020355Z AUTO 00000KT 9SM OVC065 10/09 A2989 RMK AO2 RAB0311E0324 P0000 T00980091
2026-05-02 03:35:00,METAR KMQS 020335Z AUTO 00000KT 10SM BKN070 OVC090 10/09 A2989 RMK AO2 RAB0311E0324 P0000 T01020089
2026-05-02 03:15:00,METAR KMQS 020315Z AUTO 00000KT 8SM -RA FEW046 BKN070 BKN080 10/09 A2988 RMK AO2 RAB0311 P0000 T01050085
2026-05-02 02:55:00,METAR KMQS 020255Z AUTO 00000KT 10SM BKN075 OVC100 11/08 A2988 RMK AO2 T01080080 51008
2026-05-02 02:35:00,METAR KMQS 020235Z AUTO 00000KT 10SM SCT075 OVC100 11/08 A2988 RMK AO2 T01070075
2026-05-02 02:15:00,METAR KMQS 020215Z AUTO 00000KT 10SM OVC070 11/07 A2989 RMK AO2 T01110067
2026-05-02 01:55:00,METAR KMQS 020155Z AUTO 00000KT 10SM BKN070 OVC090 12/05 A2989 RMK AO2 T01160054
2026-05-02 01:35:00,METAR KMQS 020135Z AUTO 17003KT 10SM BKN080 OVC100 12/04 A2988 RMK AO2 T01190041
2026-05-02 01:15:00,METAR KMQS 020115Z AUTO VRB05KT 10SM BKN080 OVC110 12/03 A2987 RMK AO2 T01210026
2026-05-02 00:55:00,METAR KMQS 020055Z AUTO 00000KT 10SM BKN085 13/02 A2986 RMK AO2 T01250022
2026-05-02 00:35:00,METAR KMQS 020035Z AUTO 00000KT 10SM SCT095 13/03 A2986 RMK AO2 T01260025
2026-05-02 00:15:00,METAR KMQS 020015Z AUTO 00000KT 10SM BKN100 13/02 A2985 RMK AO2 T01300025
2026-05-01 23:55:00,METAR KMQS 012355Z AUTO VRB03KT 9SM CLR 14/02 A2986 RMK AO2 T01360020 10166 20136 53001
2026-05-01 23:35:00,METAR KMQS 012335Z AUTO VRB05KT 10SM CLR 14/02 A2985 RMK AO2 T01400020
2026-05-01 23:15:00,METAR KMQS 012315Z AUTO VRB03KT 10SM CLR 14/02 A2985 RMK AO2 T01440020
2026-05-01 22:55:00,METAR KMQS 012255Z AUTO VRB04KT 10SM CLR 15/02 A2984 RMK AO2 T01480023
2026-05-01 22:35:00,METAR KMQS 012235Z AUTO VRB06KT 10SM CLR 15/02 A2985 RMK AO2 T01500022
2026-05-01 22:15:00,METAR KMQS 012215Z AUTO 18006KT 10SM CLR 15/02 A2985 RMK AO2 T01530024
2026-05-01 21:55:00,METAR KMQS 012155Z AUTO 20006KT 10SM CLR 16/02 A2985 RMK AO2 T01580025
2026-05-01 21:35:00,METAR KMQS 012135Z AUTO VRB06KT 10SM CLR 16/02 A2985 RMK AO2 T01580023
2026-05-01 21:15:00,METAR KMQS 012115Z AUTO 20007KT 160V230 10SM CLR 16/02 A2985 RMK AO2 T01580023
2026-05-01 20:55:00,METAR KMQS 012055Z AUTO VRB05KT 10SM FEW060 16/02 A2986 RMK AO2 T01560022 56015
2026-05-01 20:35:00,METAR KMQS 012035Z AUTO VRB05KT 10SM SCT060 16/03 A2986 RMK AO2 T01630028
2026-05-01 20:15:00,METAR KMQS 012015Z AUTO VRB05KT 10SM FEW060 16/02 A2986 RMK AO2 T01610022
2026-05-01 19:55:00,METAR KMQS 011955Z AUTO 24006G19KT 210V270 10SM CLR 16/01 A2986 RMK AO2 T01610007
2026-05-01 19:35:00,METAR KMQS 011935Z AUTO 27006KT 10SM CLR 16/01 A2987 RMK AO2 T01610006
2026-05-01 19:15:00,METAR KMQS 011915Z AUTO 26006KT 10SM CLR 16/01 A2988 RMK AO2 T01580013
2026-05-01 18:55:00,METAR KMQS 011855Z AUTO VRB04KT 10SM CLR 16/01 A2989 RMK AO2 T01560009
2026-05-01 18:35:00,METAR KMQS 011835Z AUTO 30007KT 10SM CLR 16/01 A2989 RMK AO2 T01570013
2026-05-01 17:55:00,METAR KMQS 011755Z AUTO 00000KT 10SM CLR 15/01 A2990 RMK AO2 T01460008 10149 20078 56015
2026-05-01 17:35:00,METAR KMQS 011735Z AUTO 30008KT 270V330 10SM FEW380 15/01 A2990 RMK AO2 T01480013
2026-05-01 17:15:00,METAR KMQS 011715Z AUTO 14003KT 10SM CLR 14/00 A2991 RMK AO2 T01370004
2026-05-01 16:55:00,METAR KMQS 011655Z AUTO 25004KT 10SM CLR 14/00 A2991 RMK AO2 T01410004
2026-05-01 16:35:00,METAR KMQS 011635Z AUTO 00000KT 10SM CLR 14/M00 A2992 RMK AO2 T01361002
2026-05-01 16:15:00,METAR KMQS 011615Z AUTO 31006KT 9SM CLR 13/M00 A2992 RMK AO2 T01331000
2026-05-01 15:55:00,METAR KMQS 011555Z AUTO 00000KT 10SM CLR 13/M00 A2993 RMK AO2 T01291004
2026-05-01 15:35:00,METAR KMQS 011535Z AUTO VRB05KT 10SM CLR 12/00 A2994 RMK AO2 T01240001
2026-05-01 15:15:00,METAR KMQS 011515Z AUTO VRB06KT 10SM FEW370 13/01 A2995 RMK AO2 T01290007
2026-05-01 14:55:00,METAR KMQS 011455Z AUTO VRB06KT 10SM CLR 12/M00 A2995 RMK AO2 T01221001 58003
2026-05-01 14:35:00,METAR KMQS 011435Z AUTO 30006KT 10SM CLR 12/01 A2995 RMK AO2 T01210005
2026-05-01 14:15:00,METAR KMQS 011415Z AUTO 36009KT 10SM CLR 12/M00 A2995 RMK AO2 T01151000
2026-05-01 13:55:00,METAR KMQS 011355Z AUTO VRB05KT 10SM CLR 11/03 A2995 RMK AO2 T01100025
2026-05-01 13:35:00,METAR KMQS 011335Z AUTO 32008KT 10SM CLR 10/03 A2995 RMK AO2 T01020034
2026-05-01 13:15:00,METAR KMQS 011315Z AUTO 31007KT 10SM CLR 10/04 A2996 RMK AO2 T00950041
2026-05-01 12:55:00,METAR KMQS 011255Z AUTO 31008KT 9SM CLR 09/04 A2996 RMK AO2 T00910038
2026-05-01 12:35:00,METAR KMQS 011235Z AUTO 31007KT 10SM CLR 09/04 A2996 RMK AO2 T00860039
2026-05-01 12:15:00,METAR KMQS 011215Z AUTO 30009KT 10SM CLR 08/04 A2996 RMK AO2 T00820041
2026-05-01 11:55:00,METAR KMQS 011155Z AUTO 31008KT 10SM CLR 08/04 A2996 RMK AO2 T00760042 10076 20025 53008
2026-05-01 11:35:00,METAR KMQS 011135Z AUTO 30008KT 10SM CLR 07/04 A2996 RMK AO2 T00700043
2026-05-01 11:15:00,METAR KMQS 011115Z AUTO 31009KT 10SM CLR 07/04 A2995 RMK AO2 T00650041
2026-05-01 10:55:00,METAR KMQS 011055Z AUTO 31007KT 9SM CLR 05/04 A2995 RMK AO2 T00540040
2026-05-01 10:35:00,METAR KMQS 011035Z AUTO 31008KT 9SM CLR 05/04 A2994 RMK AO2 T00490038
2026-05-01 10:15:00,METAR KMQS 011015Z AUTO 30007KT 10SM CLR 03/02 A2995 RMK AO2 T00260024
2026-05-01 09:55:00,METAR KMQS 010955Z AUTO 29006KT 10SM CLR 04/03 A2994 RMK AO2 T00370032
2026-05-01 09:35:00,METAR KMQS 010935Z AUTO 29006KT 10SM CLR 03/03 A2994 RMK AO2 T00330030
2026-05-01 09:15:00,METAR KMQS 010915Z AUTO 29006KT 10SM CLR 03/03 A2994 RMK AO2 T00320029
2026-05-01 08:55:00,METAR KMQS 010855Z AUTO 30007KT 10SM CLR 03/03 A2993 RMK AO2 T00330029 53007
2026-05-01 08:35:00,METAR KMQS 010835Z AUTO 30007KT 9SM CLR 04/03 A2993 RMK AO2 T00370032
2026-05-01 08:15:00,METAR KMQS 010815Z AUTO 29007KT 10SM CLR 04/03 A2993 RMK AO2 T00360031
2026-05-01 07:55:00,METAR KMQS 010755Z AUTO 32008KT 9SM CLR 05/04 A2992 RMK AO2 T00540040
2026-05-01 07:35:00,METAR KMQS 010735Z AUTO 31008KT 9SM CLR 04/03 A2992 RMK AO2 T00400034
2026-05-01 07:15:00,METAR KMQS 010715Z AUTO 30006KT 10SM CLR 04/04 A2992 RMK AO2 T00430037
2026-05-01 06:55:00,METAR KMQS 010655Z AUTO 30008KT 9SM CLR 05/04 A2991 RMK AO2 T00450040
2026-05-01 06:35:00,METAR KMQS 010635Z AUTO 30007KT 9SM CLR 04/03 A2991 RMK AO2 T00380034
2026-05-01 06:15:00,METAR KMQS 010615Z AUTO 31008KT 10SM CLR 05/04 A2991 RMK AO2 T00460037
2026-05-01 05:55:00,METAR KMQS 010555Z AUTO 31007KT 10SM CLR 06/04 A2991 RMK AO2 T00610044 10114 20044 401740044 53006
2026-05-01 05:35:00,METAR KMQS 010535Z AUTO 31007KT 9SM CLR 04/04 A2991 RMK AO2 T00440036
2026-05-01 05:15:00,METAR KMQS 010515Z AUTO 31006KT 10SM CLR 07/04 A2991 RMK AO2 T00680043
2026-05-01 04:55:00,METAR KMQS 010455Z AUTO 31007KT 10SM CLR 07/05 A2990 RMK AO2 T00710045
2026-05-01 04:35:00,METAR KMQS 010435Z AUTO 32008KT 10SM CLR 08/04 A2990 RMK AO2 T00770044
2026-05-01 04:15:00,METAR KMQS 010415Z AUTO 32007KT 10SM CLR 08/05 A2989 RMK AO2 T00780045
2026-05-01 03:55:00,METAR KMQS 010355Z AUTO 31006KT 10SM CLR 08/04 A2989 RMK AO2 T00780045
2026-05-01 03:35:00,METAR KMQS 010335Z AUTO 31008KT 10SM CLR 09/04 A2989 RMK AO2 T00850044
2026-05-01 03:15:00,METAR KMQS 010315Z AUTO 32010KT 10SM SCT060 09/04 A2989 RMK AO2 T00920042
2026-05-01 02:55:00,METAR KMQS 010255Z AUTO 31015KT 10SM OVC060 10/04 A2989 RMK AO2 T00990044 51023
2026-05-01 02:35:00,METAR KMQS 010235Z AUTO 31014KT 10SM SCT034 OVC060 10/04 A2989 RMK AO2 T00990045
2026-05-01 02:15:00,METAR KMQS 010215Z AUTO 31011KT 10SM BKN034 OVC055 10/05 A2989 RMK AO2 T01000047
2026-05-01 01:55:00,METAR KMQS 010155Z AUTO 31016G20KT 10SM FEW055 10/05 A2988 RMK AO2 T00980047
2026-05-01 01:35:00,METAR KMQS 010135Z AUTO 30013KT 10SM SCT036 10/05 A2988 RMK AO2 T00970052
2026-05-01 01:15:00,METAR KMQS 010115Z AUTO 29012KT 10SM BKN036 BKN100 11/06 A2987 RMK AO2 T01060059
2026-05-01 00:55:00,METAR KMQS 010055Z AUTO 30010KT 10SM CLR 10/06 A2986 RMK AO2 T01000064
2026-05-01 00:35:00,METAR KMQS 010035Z AUTO 31009KT 10SM FEW100 11/06 A2985 RMK AO2 T01060060
2026-05-01 00:15:00,METAR KMQS 010015Z AUTO 31013KT 9SM SCT100 11/06 A2984 RMK AO2 T01120055
2026-04-30 23:55:00,METAR KMQS 302355Z AUTO 31013KT 9SM BKN100 12/06 A2983 RMK AO2 T01150061 10174 20115 53023
2026-04-30 23:35:00,METAR KMQS 302335Z AUTO 31013KT 10SM BKN100 12/06 A2982 RMK AO2 T01180061
2026-04-30 23:15:00,METAR KMQS 302315Z AUTO 31015G22KT 9SM FEW032 BKN100 13/06 A2981 RMK AO2 T01250060
2026-04-30 22:55:00,METAR KMQS 302255Z AUTO 31010G17KT 9SM SCT032 BKN040 BKN065 OVC100 14/07 A2980 RMK AO2 T01390075
2026-04-30 22:35:00,METAR KMQS 302235Z AUTO 32011KT 10SM FEW038 BKN065 OVC095 13/07 A2980 RMK AO2 T01350070
2026-04-30 22:15:00,METAR KMQS 302215Z AUTO 33013KT 10SM OVC060 14/07 A2979 RMK AO2 T01420065
2026-04-30 21:55:00,METAR KMQS 302155Z AUTO 30014KT 10SM BKN060 OVC075 14/08 A2978 RMK AO2 T01410076
2026-04-30 21:35:00,METAR KMQS 302135Z AUTO 28016G22KT 8SM SCT055 BKN080 OVC090 15/07 A2977 RMK AO2 T01490065
2026-04-30 21:15:00,METAR KMQS 302115Z AUTO 30008KT 10SM SCT065 OVC090 16/06 A2976 RMK AO2 T01570057
2026-04-30 20:55:00,METAR KMQS 302055Z AUTO 30008KT 10SM BKN070 OVC085 16/06 A2976 RMK AO2 T01550060 55001
2026-04-30 20:35:00,METAR KMQS 302035Z AUTO 32007KT 9SM OVC085 16/06 A2975 RMK AO2 T01610061
2026-04-30 20:15:00,METAR KMQS 302015Z AUTO 30010KT 10SM SCT049 BKN070 OVC085 16/06 A2975 RMK AO2 T01630059
2026-04-30 19:55:00,METAR KMQS 301955Z AUTO 29011KT 10SM SCT049 BKN080 17/06 A2974 RMK AO2 T01690057
2026-04-30 19:35:00,METAR KMQS 301935Z AUTO 33009KT 10SM SCT046 BKN055 17/06 A2974 RMK AO2 T01670064
2026-04-30 19:15:00,METAR KMQS 301915Z AUTO 35010G16KT 10SM BKN046 BKN075 17/08 A2974 RMK AO2 T01730076
2026-04-30 18:55:00,METAR KMQS 301855Z AUTO 30011G16KT 10SM BKN044 BKN060 OVC070 17/07 A2975 RMK AO2 T01650072
2026-04-30 18:35:00,METAR KMQS 301835Z AUTO 32011KT 10SM BKN041 OVC070 16/08 A2975 RMK AO2 T01610076
2026-04-30 18:15:00,METAR KMQS 301815Z AUTO 31008KT 290V010 10SM FEW034 SCT043 OVC065 16/08 A2975 RMK AO2 T01590084
2026-04-30 17:55:00,METAR KMQS 301755Z AUTO 34007KT 10SM FEW030 SCT044 OVC060 15/09 A2976 RMK AO2 T01510088 10165 20085 56009
2026-04-30 17:35:00,METAR KMQS 301735Z AUTO 31008KT 10SM SCT030 SCT039 BKN046 BKN060 15/09 A2976 RMK AO2 T01530087
2026-04-30 17:15:00,METAR KMQS 301715Z AUTO 33007KT 10SM SCT031 SCT042 BKN060 15/09 A2976 RMK AO2 T01530091
2026-04-30 16:55:00,METAR KMQS 301655Z AUTO 32010KT 10SM FEW029 BKN042 15/09 A2976 RMK AO2 T01520090
2026-04-30 16:35:00,METAR KMQS 301635Z AUTO 32010KT 10SM BKN028 OVC038 14/09 A2977 RMK AO2 CIG 023V031 T01410087
2026-04-30 16:15:00,METAR KMQS 301615Z AUTO 35010KT 10SM BKN025 OVC037 15/10 A2977 RMK AO2 CIG 022V029 T01470097
2026-04-30 15:55:00,METAR KMQS 301555Z AUTO 34012KT 10SM FEW020 OVC034 14/10 A2977 RMK AO2 T01400098
2026-04-30 14:55:00,METAR KMQS 301455Z AUTO 33010KT 10SM SCT018 OVC027 13/10 A2978 RMK AO2 CIG 023V030 T01300098 53011
2026-04-30 14:35:00,METAR KMQS 301435Z AUTO 33007KT 10SM BKN018 OVC023 12/10 A2978 RMK AO2 CIG 014V022 T01220103
2026-04-30 14:15:00,METAR KMQS 301415Z AUTO 31011KT 10SM BKN015 OVC021 12/11 A2978 RMK AO2 CIG 011V018 T01180111
2026-04-30 13:55:00,METAR KMQS 301355Z AUTO 32010KT 10SM BKN011 BKN018 OVC025 11/11 A2977 RMK AO2 CIG 009V014 BKN011 V SCT T01130113
2026-04-30 13:35:00,METAR KMQS 301335Z AUTO 34011KT 9SM BKN009 OVC015 11/11 A2976 RMK AO2 CIG 006V012 T01120112
2026-04-30 13:15:00,METAR KMQS 301315Z AUTO 33009KT 7SM BKN002 OVC007 11/11 A2976 RMK AO2 BKN V SCT T01070107
2026-04-29 19:55:00,METAR KMQS 291955Z AUTO VRB05KT 9SM OVC032 14/07 A2984 RMK AO2 T01350074
2026-04-29 19:35:00,METAR KMQS 291935Z AUTO VRB06KT 9SM OVC031 14/08 A2985 RMK AO2 T01370078
2026-04-29 19:15:00,METAR KMQS 291915Z AUTO 15006KT 10SM OVC029 14/09 A2987 RMK AO2 T01410085
2026-04-29 18:55:00,METAR KMQS 291855Z AUTO 15006KT 10SM OVC029 14/08 A2988 RMK AO2 RAE1752 P0000 T01430083
2026-04-29 18:35:00,METAR KMQS 291835Z AUTO 17004KT 9SM OVC029 14/09 A2989 RMK AO2 RAE1752 P0000 T01390089
2026-04-29 18:15:00,METAR KMQS 291815Z AUTO VRB03KT 10SM OVC028 13/09 A2989 RMK AO2 RAE1752 P0000 T01350092
2026-04-29 17:55:00,METAR KMQS 291755Z AUTO 00000KT 7SM -RA BKN027 OVC046 13/08 A2991 RMK AO2 RAB1729 CIG 022V029 P0000 60000 T01260082 10146 20110 58014
2026-04-29 17:35:00,METAR KMQS 291735Z AUTO 15004KT 6SM -RA BKN027 OVC045 13/07 A2991 RMK AO2 RAB1729 P0000 T01310069
2026-04-29 17:15:00,METAR KMQS 291715Z AUTO 00000KT 10SM OVC027 14/05 A2992 RMK AO2 T01420048
2026-04-29 16:55:00,METAR KMQS 291655Z AUTO 00000KT 10SM OVC027 14/04 A2993 RMK AO2 T01410043
2026-04-29 16:35:00,METAR KMQS 291635Z AUTO VRB05KT 10SM OVC026 14/04 A2994 RMK AO2 T01400037
2026-04-29 16:15:00,METAR KMQS 291615Z AUTO VRB03KT 10SM OVC026 14/04 A2994 RMK AO2 T01440036
2026-04-29 15:55:00,METAR KMQS 291555Z AUTO VRB06KT 10SM OVC023 14/03 A2994 RMK AO2 LTG DSNT N T01430028
2026-04-29 15:35:00,METAR KMQS 291535Z AUTO VRB06KT 10SM BKN023 OVC080 14/03 A2995 RMK AO2 BKN V OVC T01380028
2026-04-29 15:15:00,METAR KMQS 291515Z AUTO VRB04KT 10SM OVC023 13/03 A2996 RMK AO2 T01330033
2026-04-29 14:55:00,METAR KMQS 291455Z AUTO VRB06KT 10SM OVC023 13/04 A2995 RMK AO2 T01320042 58007
2026-04-29 14:35:00,METAR KMQS 291435Z AUTO VRB06KT 10SM OVC023 13/04 A2996 RMK AO2 T01310043
2026-04-29 14:15:00,METAR KMQS 291415Z AUTO 17004KT 10SM OVC024 13/04 A2997 RMK AO2 T01270038
2026-04-29 13:55:00,METAR KMQS 291355Z AUTO 16004KT 10SM OVC024 12/04 A2997 RMK AO2 T01240035
2026-04-29 13:35:00,METAR KMQS 291335Z AUTO VRB05KT 10SM BKN024 OVC049 12/03 A2997 RMK AO2 T01240032
2026-04-29 13:15:00,METAR KMQS 291315Z AUTO 16005KT 10SM FEW025 OVC048 12/03 A2997 RMK AO2 T01200027
2026-04-29 12:55:00,METAR KMQS 291255Z AUTO 00000KT 10SM BKN025 BKN046 12/03 A2998 RMK AO2 T01160025
2026-04-29 12:35:00,METAR KMQS 291235Z AUTO 18003KT 10SM FEW025 BKN046 12/02 A2997 RMK AO2 T01160025
2026-04-29 12:15:00,METAR KMQS 291215Z AUTO 15003KT 10SM SCT023 OVC045 11/02 A2997 RMK AO2 T01110024
2026-04-29 11:55:00,METAR KMQS 291155Z AUTO VRB03KT 10SM OVC023 11/02 A2998 RMK AO2 T01080025 10108 20102 58005
2026-04-29 11:35:00,METAR KMQS 291135Z AUTO 15005KT 10SM OVC023 11/02 A2998 RMK AO2 T01060020
2026-04-29 11:15:00,METAR KMQS 291115Z AUTO 00000KT 10SM OVC023 10/03 A2999 RMK AO2 T01030026
2026-04-29 10:55:00,METAR KMQS 291055Z AUTO 00000KT 10SM OVC023 10/03 A2999 RMK AO2 T01020030
2026-04-29 10:35:00,METAR KMQS 291035Z AUTO 00000KT 10SM OVC023 10/03 A2998 RMK AO2 T01020026
2026-04-29 10:15:00,METAR KMQS 291015Z AUTO 15003KT 10SM OVC023 10/03 A2998 RMK AO2 T01020028
2026-04-29 09:55:00,METAR KMQS 290955Z AUTO 15004KT 10SM OVC024 10/03 A2998 RMK AO2 T01020030
2026-04-29 09:35:00,METAR KMQS 290935Z AUTO 15003KT 10SM OVC025 10/03 A2998 RMK AO2 T01020033
2026-04-29 09:15:00,METAR KMQS 290915Z AUTO 14004KT 10SM OVC026 10/03 A2999 RMK AO2 T01030034
2026-04-29 08:55:00,METAR KMQS 290855Z AUTO VRB03KT 10SM OVC026 10/04 A2999 RMK AO2 T01030037 56012
2026-04-29 08:35:00,METAR KMQS 290835Z AUTO VRB03KT 10SM OVC026 10/04 A2998 RMK AO2 T01030037
2026-04-29 08:15:00,METAR KMQS 290815Z AUTO 13004KT 10SM OVC027 10/04 A2999 RMK AO2 T01040037
2026-04-29 07:55:00,METAR KMQS 290755Z AUTO VRB03KT 10SM OVC027 10/04 A3000 RMK AO2 T01040041
2026-04-29 07:35:00,METAR KMQS 290735Z AUTO 16004KT 10SM OVC027 10/04 A3000 RMK AO2 T01040043
2026-04-29 07:15:00,METAR KMQS 290715Z AUTO 13005KT 10SM OVC028 10/04 A3000 RMK AO2 CIG 027V032 T01050044
2026-04-29 06:55:00,METAR KMQS 290655Z AUTO 00000KT 10SM OVC030 11/05 A3001 RMK AO2 T01060046
2026-04-29 06:35:00,METAR KMQS 290635Z AUTO VRB03KT 10SM OVC029 11/05 A3002 RMK AO2 T01060048
2026-04-29 06:15:00,METAR KMQS 290615Z AUTO VRB03KT 10SM OVC029 11/05 A3003 RMK AO2 CIG 027V032 T01070050
2026-04-29 05:55:00,METAR KMQS 290555Z AUTO VRB04KT 10SM OVC030 11/05 A3003 RMK AO2 60000 T01080052 10125 20108 401470054 58009
2026-04-29 05:35:00,METAR KMQS 290535Z AUTO VRB03KT 10SM OVC030 11/05 A3004 RMK AO2 T01090052
2026-04-29 05:15:00,METAR KMQS 290515Z AUTO 15005KT 10SM OVC029 11/05 A3004 RMK AO2 T01090054
2026-04-29 04:55:00,METAR KMQS 290455Z AUTO 15003KT 10SM OVC030 11/05 A3003 RMK AO2 T01100053
2026-04-29 04:35:00,METAR KMQS 290435Z AUTO 14004KT 10SM OVC031 11/05 A3003 RMK AO2 T01100052
2026-04-29 04:15:00,METAR KMQS 290415Z AUTO 16004KT 10SM OVC031 11/05 A3004 RMK AO2 T01120051
2026-04-29 03:55:00,METAR KMQS 290355Z AUTO VRB03KT 10SM OVC031 11/05 A3005 RMK AO2 T01130053
2026-04-29 03:35:00,METAR KMQS 290335Z AUTO 17004KT 10SM OVC031 11/05 A3005 RMK AO2 T01140054
2026-04-29 03:15:00,METAR KMQS 290315Z AUTO 17004KT 10SM OVC033 11/05 A3006 RMK AO2 T01150054
2026-04-29 02:55:00,METAR KMQS 290255Z AUTO VRB03KT 10SM OVC034 12/05 A3005 RMK AO2 60000 T01150053 55002
2026-04-29 02:35:00,METAR KMQS 290235Z AUTO 15004KT 10SM OVC034 12/05 A3006 RMK AO2 T01160051
2026-04-29 02:15:00,METAR KMQS 290215Z AUTO VRB03KT 10SM OVC033 12/05 A3006 RMK AO2 T01190047
2026-04-29 01:55:00,METAR KMQS 290155Z AUTO VRB05KT 10SM OVC032 12/05 A3004 RMK AO2 T01200046
2026-04-29 01:35:00,METAR KMQS 290135Z AUTO 14004KT 10SM OVC031 12/05 A3003 RMK AO2 T01210049
2026-04-29 01:15:00,METAR KMQS 290115Z AUTO 13003KT 10SM OVC030 12/06 A3004 RMK AO2 T01200058
2026-04-29 00:55:00,METAR KMQS 290055Z AUTO 16003KT 10SM OVC031 12/06 A3005 RMK AO2 RAB0009E0019 P0000 T01210062
2026-04-29 00:35:00,METAR KMQS 290035Z AUTO 00000KT 10SM OVC033 12/07 A3006 RMK AO2 RAB0009E0019 P0000 T01200067
2026-04-29 00:15:00,METAR KMQS 290015Z AUTO 15003KT 9SM -RA OVC034 12/07 A3007 RMK AO2 RAB0009 P0000 T01230065
2026-04-28 23:55:00,METAR KMQS 282355Z AUTO VRB04KT 9SM OVC034 13/06 A3006 RMK AO2 T01250059 10139 20121 58001
2026-04-28 23:35:00,METAR KMQS 282335Z AUTO VRB03KT 9SM OVC036 13/06 A3006 RMK AO2 T01260060
2026-04-28 23:15:00,METAR KMQS 282315Z AUTO VRB03KT 10SM OVC036 13/06 A3006 RMK AO2 T01270063
2026-04-28 22:55:00,METAR KMQS 282255Z AUTO 00000KT 10SM OVC037 13/06 A3006 RMK AO2 T01280064
2026-04-28 22:35:00,METAR KMQS 282235Z AUTO 16003KT 9SM OVC039 13/06 A3006 RMK AO2 T01290063
2026-04-28 22:15:00,METAR KMQS 282215Z AUTO 13003KT 9SM OVC041 13/06 A3007 RMK AO2 T01300060
2026-04-28 21:55:00,METAR KMQS 282155Z AUTO 00000KT 9SM OVC041 13/06 A3007 RMK AO2 T01300059
2026-04-28 21:35:00,METAR KMQS 282135Z AUTO 12003KT 9SM OVC040 13/06 A3007 RMK AO2 T01300055
2026-04-28 21:15:00,METAR KMQS 282115Z AUTO 15003KT 9SM OVC040 13/05 A3007 RMK AO2 T01280053
2026-04-28 20:55:00,METAR KMQS 282055Z AUTO 15005KT 9SM OVC043 13/05 A3006 RMK AO2 T01280052 57022
2026-04-28 20:35:00,METAR KMQS 282035Z AUTO VRB04KT 9SM OVC044 13/06 A3007 RMK AO2 T01270058
2026-04-28 20:15:00,METAR KMQS 282015Z AUTO VRB03KT 8SM OVC046 13/07 A3007 RMK AO2 T01280074
2026-04-28 19:55:00,METAR KMQS 281955Z AUTO 14005KT 9SM OVC046 13/08 A3008 RMK AO2 T01250082
2026-04-28 19:35:00,METAR KMQS 281935Z AUTO 11006KT 10SM OVC048 12/08 A3008 RMK AO2 T01230082
2026-04-28 19:15:00,METAR KMQS 281915Z AUTO VRB03KT 9SM OVC050 12/08 A3010 RMK AO2 T01210082
2026-04-28 18:55:00,METAR KMQS 281855Z AUTO VRB03KT 8SM OVC050 12/08 A3011 RMK AO2 T01230078
2026-04-28 18:35:00,METAR KMQS 281835Z AUTO VRB04KT 9SM OVC050 13/07 A3011 RMK AO2 T01260074
2026-04-28 18:15:00,METAR KMQS 281815Z AUTO 23006KT 9SM OVC050 13/07 A3012 RMK AO2 T01320068
2026-04-28 17:55:00,METAR KMQS 281755Z AUTO 21007KT 170V270 8SM OVC055 14/06 A3013 RMK AO2 T01390059 10147 20101 56013
2026-04-28 17:35:00,METAR KMQS 281735Z AUTO 22007KT 190V270 10SM FEW049 BKN060 OVC095 14/06 A3013 RMK AO2 T01430056
2026-04-28 17:15:00,METAR KMQS 281715Z AUTO 20008KT 160V240 9SM OVC100 15/06 A3013 RMK AO2 T01460059
2026-04-28 16:55:00,METAR KMQS 281655Z AUTO VRB05KT 9SM OVC110 14/05 A3013 RMK AO2 T01440046
2026-04-28 16:35:00,METAR KMQS 281635Z AUTO 21007KT 170V260 10SM OVC120 14/05 A3014 RMK AO2 T01430048
2026-04-28 16:15:00,METAR KMQS 281615Z AUTO 21007KT 9SM OVC120 14/06 A3015 RMK AO2 T01430057
2026-04-28 15:55:00,METAR KMQS 281555Z AUTO 16005KT 9SM SCT130 BKN160 BKN360 14/06 A3015 RMK AO2 T01360064
2026-04-28 15:35:00,METAR KMQS 281535Z AUTO VRB03KT 9SM BKN140 OVC160 13/07 A3016 RMK AO2 T01350067
2026-04-28 15:15:00,METAR KMQS 281515Z AUTO 00000KT 10SM BKN140 OVC160 13/06 A3016 RMK AO2 T01260063
2026-04-28 14:55:00,METAR KMQS 281455Z AUTO 14003KT 9SM BKN120 BKN150 12/07 A3017 RMK AO2 T01200072 55001
2026-04-28 14:35:00,METAR KMQS 281435Z AUTO 17004KT 9SM BKN120 OVC140 12/07 A3017 RMK AO2 T01170072
2026-04-28 14:15:00,METAR KMQS 281415Z AUTO VRB03KT 9SM OVC140 12/07 A3016 RMK AO2 T01170068
2026-04-28 13:55:00,METAR KMQS 281355Z AUTO VRB04KT 8SM OVC150 12/07 A3016 RMK AO2 T01170072
2026-04-28 13:35:00,METAR KMQS 281335Z AUTO 19005KT 9SM SCT150 BKN180 12/07 A3017 RMK AO2 T01160070
2026-04-28 13:15:00,METAR KMQS 281315Z AUTO 00000KT 9SM SCT180 BKN210 12/07 A3017 RMK AO2 T01160069
2026-04-28 12:55:00,METAR KMQS 281255Z AUTO VRB03KT 9SM SCT150 OVC210 11/06 A3017 RMK AO2 T01090062
2026-04-28 12:35:00,METAR KMQS 281235Z AUTO 00000KT 9SM BKN150 OVC180 11/06 A3017 RMK AO2 T01050058
2026-04-28 12:15:00,METAR KMQS 281215Z AUTO VRB03KT 9SM OVC170 10/05 A3016 RMK AO2 T01010048
2026-04-28 11:55:00,METAR KMQS 281155Z AUTO VRB03KT 9SM OVC170 10/05 A3017 RMK AO2 T00990048 10099 20054 56003
2026-04-28 11:35:00,METAR KMQS 281135Z AUTO 00000KT 10SM BKN170 09/05 A3017 RMK AO2 T00920048
2026-04-28 11:15:00,METAR KMQS 281115Z AUTO 00000KT 10SM CLR 08/04 A3017 RMK AO2 T00820043
2026-04-28 10:55:00,METAR KMQS 281055Z AUTO 00000KT 9SM CLR 07/05 A3017 RMK AO2 T00740052
2026-04-28 10:35:00,METAR KMQS 281035Z AUTO 00000KT 9SM CLR 06/04 A3016 RMK AO2 T00600038
2026-04-28 10:15:00,METAR KMQS 281015Z AUTO 00000KT 10SM CLR 06/03 A3016 RMK AO2 T00620034
2026-04-28 09:55:00,METAR KMQS 280955Z AUTO 00000KT 10SM CLR 06/03 A3016 RMK AO2 T00610035
2026-04-28 09:35:00,METAR KMQS 280935Z AUTO 00000KT 10SM CLR 06/04 A3017 RMK AO2 T00580040
2026-04-28 09:15:00,METAR KMQS 280915Z AUTO 00000KT 10SM CLR 06/04 A3017 RMK AO2 T00600040
2026-04-28 08:55:00,METAR KMQS 280855Z AUTO 24003KT 10SM CLR 07/04 A3018 RMK AO2 T00730037 58012
2026-04-28 08:35:00,METAR KMQS 280835Z AUTO 26003KT 10SM CLR 07/04 A3019 RMK AO2 T00750037
2026-04-28 08:15:00,METAR KMQS 280815Z AUTO VRB03KT 10SM CLR 08/04 A3019 RMK AO2 T00770041
2026-04-28 07:55:00,METAR KMQS 280755Z AUTO 25004KT 10SM CLR 06/05 A3020 RMK AO2 T00630048
2026-04-28 07:35:00,METAR KMQS 280735Z AUTO 27004KT 10SM CLR 06/05 A3020 RMK AO2 T00590046
2026-04-28 07:15:00,METAR KMQS 280715Z AUTO VRB05KT 10SM CLR 07/05 A3021 RMK AO2 T00700053
2026-04-28 06:55:00,METAR KMQS 280655Z AUTO 00000KT 10SM CLR 07/05 A3020 RMK AO2 T00720051
2026-04-28 06:35:00,METAR KMQS 280635Z AUTO 00000KT 10SM CLR 07/05 A3021 RMK AO2 T00660049
2026-04-28 06:15:00,METAR KMQS 280615Z AUTO 00000KT 10SM CLR 06/05 A3021 RMK AO2 T00600048
2026-04-28 05:55:00,METAR KMQS 280555Z AUTO 00000KT 10SM CLR 07/05 A3022 RMK AO2 T00680052 10157 20068 402060031 58008
2026-04-28 05:35:00,METAR KMQS 280535Z AUTO 00000KT 10SM CLR 07/05 A3022 RMK AO2 T00740050
2026-04-28 05:15:00,METAR KMQS 280515Z AUTO 00000KT 9SM FEW300 08/05 A3023 RMK AO2 T00820053
2026-04-28 04:55:00,METAR KMQS 280455Z AUTO 00000KT 10SM FEW300 08/05 A3023 RMK AO2 T00820054
2026-04-28 04:35:00,METAR KMQS 280435Z AUTO 00000KT 10SM CLR 09/05 A3024 RMK AO2 T00880054
2026-04-28 04:15:00,METAR KMQS 280415Z AUTO 16003KT 10SM CLR 09/05 A3023 RMK AO2 T00930053
2026-04-28 03:55:00,METAR KMQS 280355Z AUTO 00000KT 10SM CLR 10/05 A3023 RMK AO2 T00960052
2026-04-28 03:35:00,METAR KMQS 280335Z AUTO VRB03KT 10SM FEW240 10/05 A3024 RMK AO2 T00990052
2026-04-28 03:15:00,METAR KMQS 280315Z AUTO VRB04KT 10SM CLR 10/05 A3024 RMK AO2 T01010046
2026-04-28 02:55:00,METAR KMQS 280255Z AUTO VRB03KT 10SM CLR 11/04 A3024 RMK AO2 T01060042 50010
2026-04-28 02:35:00,METAR KMQS 280235Z AUTO VRB03KT 10SM CLR 11/04 A3025 RMK AO2 T01090041
2026-04-28 02:15:00,METAR KMQS 280215Z AUTO VRB03KT 10SM CLR 11/04 A3025 RMK AO2 T01130040
2026-04-28 01:55:00,METAR KMQS 280155Z AUTO VRB04KT 10SM FEW260 12/04 A3026 RMK AO2 T01180040
2026-04-28 01:35:00,METAR KMQS 280135Z AUTO 16003KT 10SM FEW260 12/04 A3026 RMK AO2 T01200043
2026-04-28 01:15:00,METAR KMQS 280115Z AUTO VRB04KT 10SM CLR 12/04 A3025 RMK AO2 T01240044
2026-04-28 00:55:00,METAR KMQS 280055Z AUTO 17007KT 130V210 10SM FEW280 13/05 A3024 RMK AO2 T01300047
2026-04-28 00:35:00,METAR KMQS 280035Z AUTO VRB03KT 10SM FEW280 14/06 A3023 RMK AO2 T01350058
2026-04-28 00:15:00,METAR KMQS 280015Z AUTO VRB06KT 10SM CLR 14/07 A3022 RMK AO2 T01440065
2026-04-27 23:55:00,METAR KMQS 272355Z AUTO VRB04KT 10SM CLR 17/04 A3021 RMK AO2 T01720042 10206 20171 53005
2026-04-27 23:35:00,METAR KMQS 272335Z AUTO 15003KT 10SM FEW250 17/04 A3021 RMK AO2 T01750043
2026-04-27 23:15:00,METAR KMQS 272315Z AUTO 00000KT 10SM FEW280 18/04 A3020 RMK AO2 T01810043
2026-04-27 22:55:00,METAR KMQS 272255Z AUTO VRB04KT 10SM SCT270 19/04 A3019 RMK AO2 T01880041
2026-04-27 22:35:00,METAR KMQS 272235Z AUTO 12005KT 10SM CLR 19/04 A3019 RMK AO2 T01890043
2026-04-27 22:15:00,METAR KMQS 272215Z AUTO 12005KT 10SM CLR 19/05 A3019 RMK AO2 T01940048
2026-04-27 21:55:00,METAR KMQS 272155Z AUTO 12007KT 10SM CLR 20/05 A3019 RMK AO2 T01980054
2026-04-27 21:35:00,METAR KMQS 272135Z AUTO VRB06KT 9SM SCT060 20/06 A3020 RMK AO2 T01990059
2026-04-27 21:15:00,METAR KMQS 272115Z AUTO VRB06KT 10SM SCT060 20/06 A3020 RMK AO2 T02040058
2026-04-27 20:55:00,METAR KMQS 272055Z AUTO VRB04KT 10SM FEW065 20/06 A3019 RMK AO2 T01990056 57007
2026-04-27 20:35:00,METAR KMQS 272035Z AUTO 00000KT 10SM FEW065 19/05 A3020 RMK AO2 T01930046
2026-04-27 20:15:00,METAR KMQS 272015Z AUTO 07006KT 10SM CLR 20/04 A3021 RMK AO2 T01980044
2026-04-27 19:55:00,METAR KMQS 271955Z AUTO VRB03KT 10SM CLR 20/05 A3020 RMK AO2 T01980045
2026-04-27 19:35:00,METAR KMQS 271935Z AUTO 11008KT 10SM FEW060 20/05 A3020 RMK AO2 T02010047
2026-04-27 19:15:00,METAR KMQS 271915Z AUTO VRB05KT 10SM SCT060 20/05 A3020 RMK AO2 T01960053
2026-04-27 18:55:00,METAR KMQS 271855Z AUTO 00000KT 10SM CLR 20/05 A3021 RMK AO2 T02000053
2026-04-27 18:35:00,METAR KMQS 271835Z AUTO 05004KT 10SM CLR 19/04 A3020 RMK AO2 T01930041
2026-04-27 18:15:00,METAR KMQS 271815Z AUTO VRB05KT 10SM CLR 19/04 A3021 RMK AO2 T01910037
2026-04-27 17:55:00,METAR KMQS 271755Z AUTO VRB06KT 10SM CLR 19/05 A3022 RMK AO2 T01910048 10192 20094 58011
2026-04-27 17:35:00,METAR KMQS 271735Z AUTO VRB06KT 10SM CLR 19/04 A3022 RMK AO2 T01870042
2026-04-27 17:15:00,METAR KMQS 271715Z AUTO 05006KT 10SM CLR 19/04 A3023 RMK AO2 T01850040
2026-04-27 16:55:00,METAR KMQS 271655Z AUTO 00000KT 10SM CLR 18/04 A3024 RMK AO2 T01830038
2026-04-27 16:35:00,METAR KMQS 271635Z AUTO 08008KT 10SM FEW050 18/05 A3024 RMK AO2 T01840047
2026-04-27 16:15:00,METAR KMQS 271615Z AUTO 04005KT 10SM CLR 18/06 A3024 RMK AO2 T01800060
2026-04-27 15:55:00,METAR KMQS 271555Z AUTO VRB04KT 10SM CLR 17/05 A3024 RMK AO2 T01740055
2026-04-27 15:35:00,METAR KMQS 271535Z AUTO 07007KT 030V090 10SM CLR 17/06 A3025 RMK AO2 T01730059
2026-04-27 15:15:00,METAR KMQS 271515Z AUTO 05006KT 10SM CLR 17/06 A3025 RMK AO2 T01710060
2026-04-27 14:55:00,METAR KMQS 271455Z AUTO VRB04KT 10SM CLR 16/07 A3025 RMK AO2 T01620072 51009
2026-04-27 14:35:00,METAR KMQS 271435Z AUTO VRB04KT 10SM CLR 15/08 A3025 RMK AO2 T01530085
2026-04-27 14:15:00,METAR KMQS 271415Z AUTO 00000KT 10SM CLR 15/09 A3025 RMK AO2 T01520089
2026-04-27 13:55:00,METAR KMQS 271355Z AUTO 00000KT 10SM CLR 14/09 A3025 RMK AO2 T01370089
2026-04-27 13:35:00,METAR KMQS 271335Z AUTO 00000KT 10SM CLR 13/09 A3025 RMK AO2 T01320087
2026-04-27 13:15:00,METAR KMQS 271315Z AUTO 00000KT 10SM CLR 12/09 A3024 RMK AO2 T01250087
2026-04-27 12:55:00,METAR KMQS 271255Z AUTO 00000KT 10SM CLR 11/09 A3024 RMK AO2 T01110090
2026-04-27 12:35:00,METAR KMQS 271235Z AUTO 00000KT 10SM CLR 10/08 A3023 RMK AO2 T00980083
2026-04-27 12:15:00,METAR KMQS 271215Z AUTO 28003KT 10SM CLR 10/09 A3023 RMK AO2 T00970085
2026-04-27 11:55:00,METAR KMQS 271155Z AUTO 33003KT 9SM CLR 09/08 A3022 RMK AO2 T00910083 10091 20031 53009
2026-04-27 11:35:00,METAR KMQS 271135Z AUTO 00000KT 9SM CLR 08/08 A3022 RMK AO2 T00820075
2026-04-27 11:15:00,METAR KMQS 271115Z AUTO 00000KT 7SM CLR 06/06 A3021 RMK AO2 T00590059
2026-04-27 10:55:00,METAR KMQS 271055Z AUTO 30003KT 5SM BR CLR 04/04 A3020 RMK AO2 T00440044
2026-04-27 10:35:00,METAR KMQS 271035Z AUTO 29004KT 4SM BR CLR 04/04 A3020 RMK AO2 T00420042
2026-04-27 10:15:00,METAR KMQS 271015Z AUTO 00000KT 4SM BR CLR 04/04 A3019 RMK AO2 T00410041
2026-04-27 09:55:00,METAR KMQS 270955Z AUTO 00000KT 6SM BR CLR 05/05 A3019 RMK AO2 T00450045
2026-04-27 09:35:00,METAR KMQS 270935Z AUTO 29004KT 5SM BR CLR 04/04 A3019 RMK AO2 T00410041
2026-04-27 09:15:00,METAR KMQS 270915Z AUTO 29003KT 5SM BR CLR 04/04 A3019 RMK AO2 T00420042
2026-04-27 08:55:00,METAR KMQS 270855Z AUTO 29004KT 10SM CLR 05/05 A3020 RMK AO2 T00520052 50002
2026-04-27 08:35:00,METAR KMQS 270835Z AUTO 29003KT 9SM CLR 05/05 A3020 RMK AO2 T00450045
2026-04-27 08:15:00,METAR KMQS 270815Z AUTO 30003KT 8SM CLR 04/04 A3020 RMK AO2 T00420042
2026-04-27 07:55:00,METAR KMQS 270755Z AUTO 30003KT 4SM BR CLR 03/03 A3021 RMK AO2 T00320032
2026-04-27 07:35:00,METAR KMQS 270735Z AUTO 29003KT 6SM BR CLR 04/04 A3020 RMK AO2 T00420042
2026-04-27 07:15:00,METAR KMQS 270715Z AUTO 30003KT 6SM BR CLR 05/05 A3020 RMK AO2 T00480048
2026-04-27 06:55:00,METAR KMQS 270655Z AUTO 30003KT 8SM CLR 04/04 A3019 RMK AO2 T00450045
2026-04-27 06:35:00,METAR KMQS 270635Z AUTO 30003KT 6SM BR CLR 05/05 A3019 RMK AO2 T00500050
2026-04-27 06:15:00,METAR KMQS 270615Z AUTO 30003KT 8SM CLR 05/05 A3019 RMK AO2 T00470047
2026-04-27 05:55:00,METAR KMQS 270555Z AUTO 00000KT 3SM BR CLR 05/05 A3019 RMK AO2 T00470046 10118 20047 401380047 58001
2026-04-27 05:35:00,METAR KMQS 270535Z AUTO 29003KT 3SM BR CLR 05/05 A3020 RMK AO2 T00470047
2026-04-27 05:15:00,METAR KMQS 270515Z AUTO 00000KT 6SM BR CLR 06/06 A3020 RMK AO2 LTG DSNT S T00550055
2026-04-27 04:55:00,METAR KMQS 270455Z AUTO 00000KT 7SM CLR 06/06 A3020 RMK AO2 T00600060
2026-04-27 04:35:00,METAR KMQS 270435Z AUTO 00000KT 9SM CLR 06/06 A3020 RMK AO2 T00650065
2026-04-27 04:15:00,METAR KMQS 270415Z AUTO 00000KT 9SM CLR 06/06 A3020 RMK AO2 T00640064
2026-04-27 03:55:00,METAR KMQS 270355Z AUTO 00000KT 10SM CLR 07/07 A3020 RMK AO2 T00670067
2026-04-27 03:35:00,METAR KMQS 270335Z AUTO 00000KT 10SM CLR 07/07 A3020 RMK AO2 T00720071
2026-04-27 03:15:00,METAR KMQS 270315Z AUTO 00000KT 10SM CLR 08/07 A3019 RMK AO2 T00760072
2026-04-27 02:55:00,METAR KMQS 270255Z AUTO 00000KT 10SM CLR 08/07 A3019 RMK AO2 T00770072 51019
2026-04-27 02:35:00,METAR KMQS 270235Z AUTO 00000KT 10SM CLR 08/07 A3019 RMK AO2 T00780073
2026-04-27 02:15:00,METAR KMQS 270215Z AUTO 00000KT 10SM CLR 09/07 A3019 RMK AO2 T00850073
2026-04-27 01:55:00,METAR KMQS 270155Z AUTO 00000KT 10SM CLR 10/07 A3018 RMK AO2 T00950073
2026-04-27 01:35:00,METAR KMQS 270135Z AUTO 00000KT 10SM CLR 08/07 A3018 RMK AO2 T00850073
2026-04-27 01:15:00,METAR KMQS 270115Z AUTO 00000KT 10SM CLR 10/07 A3017 RMK AO2 T00960075
2026-04-27 00:55:00,METAR KMQS 270055Z AUTO 00000KT 10SM CLR 10/07 A3016 RMK AO2 T01040073
2026-04-27 00:35:00,METAR KMQS 270035Z AUTO 00000KT 10SM CLR 11/07 A3016 RMK AO2 T01100075
2026-04-27 00:15:00,METAR KMQS 270015Z AUTO 00000KT 10SM SCT048 12/07 A3014 RMK AO2 T01170073
2026-04-26 23:55:00,METAR KMQS 262355Z AUTO 00000KT 10SM OVC048 12/07 A3014 RMK AO2 T01210073 10138 20101 53012
2026-04-26 23:35:00,METAR KMQS 262335Z AUTO 00000KT 10SM OVC047 12/07 A3013 RMK AO2 T01240071
2026-04-26 23:15:00,METAR KMQS 262315Z AUTO 08003KT 10SM OVC045 13/07 A3012 RMK AO2 T01270071
2026-04-26 22:55:00,METAR KMQS 262255Z AUTO 08003KT 10SM OVC043 13/07 A3011 RMK AO2 T01280068
2026-04-26 22:35:00,METAR KMQS 262235Z AUTO 08003KT 10SM OVC042 13/07 A3012 RMK AO2 T01280069
2026-04-26 22:15:00,METAR KMQS 262215Z AUTO 08004KT 9SM OVC042 13/07 A3011 RMK AO2 T01300067
2026-04-26 21:55:00,METAR KMQS 262155Z AUTO 05004KT 10SM OVC041 14/07 A3011 RMK AO2 T01370069
2026-04-26 21:35:00,METAR KMQS 262135Z AUTO 07004KT 10SM OVC040 14/07 A3011 RMK AO2 T01360072
2026-04-26 21:15:00,METAR KMQS 262115Z AUTO 03005KT 10SM OVC036 13/07 A3011 RMK AO2 T01290068
2026-04-26 20:55:00,METAR KMQS 262055Z AUTO 02005KT 9SM OVC033 13/07 A3010 RMK AO2 T01300068 55002
2026-04-26 20:35:00,METAR KMQS 262035Z AUTO 05004KT 10SM SCT030 OVC037 13/07 A3010 RMK AO2 T01300068
2026-04-26 20:15:00,METAR KMQS 262015Z AUTO VRB05KT 10SM OVC032 13/07 A3009 RMK AO2 T01300071
2026-04-26 19:55:00,METAR KMQS 261955Z AUTO VRB05KT 10SM BKN027 OVC033 12/07 A3010 RMK AO2 CIG 025V031 T01250069
2026-04-26 19:35:00,METAR KMQS 261935Z AUTO 06005KT 10SM BKN025 BKN031 12/07 A3010 RMK AO2 T01240071
2026-04-26 19:15:00,METAR KMQS 261915Z AUTO 06005KT 10SM OVC023 12/07 A3010 RMK AO2 CIG 022V028 T01210071
2026-04-26 18:55:00,METAR KMQS 261855Z AUTO 05008KT 10SM OVC022 12/07 A3010 RMK AO2 CIG 021V026 T01170071
2026-04-26 18:35:00,METAR KMQS 261835Z AUTO 05007KT 9SM OVC022 11/07 A3010 RMK AO2 CIG 019V025 T01140070
2026-04-26 18:15:00,METAR KMQS 261815Z AUTO 05007KT 10SM OVC019 11/07 A3011 RMK AO2 CIG 018V023 T01070068
2026-04-26 17:55:00,METAR KMQS 261755Z AUTO 03007KT 10SM OVC017 10/06 A3011 RMK AO2 CIG 016V021 T00990064 10099 20053 50003
2026-04-26 17:35:00,METAR KMQS 261735Z AUTO 01008KT 10SM OVC017 09/06 A3011 RMK AO2 CIG 015V020 T00950064
2026-04-26 17:15:00,METAR KMQS 261715Z AUTO 03007KT 10SM OVC015 09/06 A3011 RMK AO2 CIG 013V017 T00860061
2026-04-26 16:55:00,METAR KMQS 261655Z AUTO 03006KT 10SM OVC014 08/06 A3011 RMK AO2 CIG 013V018 T00810060
2026-04-26 16:35:00,METAR KMQS 261635Z AUTO 01006KT 10SM OVC015 08/06 A3012 RMK AO2 CIG 014V018 T00810061
2026-04-26 16:15:00,METAR KMQS 261615Z AUTO 04005KT 10SM OVC014 08/06 A3011 RMK AO2 T00790059
2026-04-26 15:55:00,METAR KMQS 261555Z AUTO 02006KT 10SM OVC013 08/06 A3011 RMK AO2 T00760059
2026-04-26 15:35:00,METAR KMQS 261535Z AUTO 06007KT 10SM OVC013 07/06 A3011 RMK AO2 T00750058
2026-04-26 15:15:00,METAR KMQS 261515Z AUTO 03007KT 10SM OVC012 07/06 A3011 RMK AO2 T00730057
2026-04-26 14:55:00,METAR KMQS 261455Z AUTO 05006KT 10SM OVC012 07/06 A3010 RMK AO2 CIG 010V014 T00710056 51014
2026-04-26 14:35:00,METAR KMQS 261435Z AUTO 02007KT 10SM OVC010 07/06 A3010 RMK AO2 CIG 009V014 T00690055
2026-04-26 14:15:00,METAR KMQS 261415Z AUTO 05007KT 9SM OVC010 06/06 A3009 RMK AO2 CIG 009V012 T00650057
2026-04-26 13:55:00,METAR KMQS 261355Z AUTO 04007KT 9SM OVC008 06/05 A3008 RMK AO2 CIG 005V011 OVC V BKN T00610055
2026-04-26 13:35:00,METAR KMQS 261335Z AUTO 05006KT 10SM OVC006 06/06 A3008 RMK AO2 CIG 005V009 T00570057
2026-04-26 13:15:00,METAR KMQS 261315Z AUTO 02006KT 9SM OVC006 06/06 A3008 RMK AO2 CIG 005V007 T00550055
2026-04-26 12:55:00,METAR KMQS 261255Z AUTO 05008KT 9SM OVC007 06/05 A3007 RMK AO2 CIG 006V010 T00550054
2026-04-26 12:35:00,METAR KMQS 261235Z AUTO 05010KT 10SM OVC008 06/05 A3007 RMK AO2 CIG 007V011 T00560052
2026-04-26 12:15:00,METAR KMQS 261215Z AUTO 05006KT 9SM OVC007 05/05 A3007 RMK AO2 CIG 006V010 T00550054
2026-04-26 11:55:00,METAR KMQS 261155Z AUTO 05007KT 9SM OVC006 05/05 A3005 RMK AO2 CIG 005V007 70072 T00520052 10052 20048 53021
2026-04-26 11:35:00,METAR KMQS 261135Z AUTO 05009KT 10SM OVC006 05/05 A3005 RMK AO2 CIG 005V007 T00510051
2026-04-26 11:15:00,METAR KMQS 261115Z AUTO 04007KT 10SM OVC005 05/05 A3004 RMK AO2 CIG 004V007 T00510051
2026-04-26 10:55:00,METAR KMQS 261055Z AUTO 04005KT 8SM OVC005 05/05 A3003 RMK AO2 CIG 004V006 T00490049
2026-04-26 10:35:00,METAR KMQS 261035Z AUTO 04005KT 7SM OVC005 05/05 A3003 RMK AO2 CIG 004V006 T00490049
2026-04-26 10:15:00,METAR KMQS 261015Z AUTO 03005KT 5SM BR OVC005 05/05 A3002 RMK AO2 CIG 004V006 T00480048
2026-04-26 09:55:00,METAR KMQS 260955Z AUTO 04006KT 9SM OVC005 05/05 A3001 RMK AO2 CIG 004V006 T00480048
2026-04-26 09:35:00,METAR KMQS 260935Z AUTO 04007KT 10SM OVC005 05/05 A3001 RMK AO2 CIG 004V006 T00480048
2026-04-26 09:15:00,METAR KMQS 260915Z AUTO 04006G15KT 10SM OVC005 05/05 A3001 RMK AO2 CIG 004V006 T00480048
2026-04-26 08:55:00,METAR KMQS 260855Z AUTO 04008KT 10SM OVC005 05/05 A2999 RMK AO2 CIG 004V006 T00480048 53001
2026-04-26 08:35:00,METAR KMQS 260835Z AUTO 05008KT 10SM OVC005 05/05 A2999 RMK AO2 CIG 004V008 T00480048
2026-04-26 08:15:00,METAR KMQS 260815Z AUTO 06007KT 10SM OVC005 05/05 A2999 RMK AO2 CIG 004V008 T00480048
2026-04-26 07:55:00,METAR KMQS 260755Z AUTO 06010KT 10SM OVC005 05/05 A2998 RMK AO2 CIG 004V007 T00490049
2026-04-26 07:35:00,METAR KMQS 260735Z AUTO 05008KT 10SM OVC005 05/05 A2998 RMK AO2 CIG 005V007 T00480048
2026-04-26 07:15:00,METAR KMQS 260715Z AUTO 06009KT 10SM OVC005 05/05 A2998 RMK AO2 CIG 005V007 T00480048
2026-04-26 06:55:00,METAR KMQS 260655Z AUTO 06011KT 10SM OVC006 05/05 A2998 RMK AO2 CIG 005V007 T00480048
2026-04-26 06:35:00,METAR KMQS 260635Z AUTO 05011KT 10SM OVC006 05/05 A2999 RMK AO2 CIG 005V009 T00490049
2026-04-26 06:15:00,METAR KMQS 260615Z AUTO 07009KT 10SM OVC007 05/05 A2999 RMK AO2 CIG 006V010 T00520052
2026-04-26 05:55:00,METAR KMQS 260555Z AUTO 07008G18KT 10SM OVC006 05/05 A2999 RMK AO2 RAB0454E0455 CIG 005V009 P0001 60027 T00510051 10062 20050 401160050 50000
2026-04-26 05:35:00,METAR KMQS 260535Z AUTO 06010KT 10SM OVC005 05/05 A2999 RMK AO2 RAB0454E0455 CIG 005V009 P0001 T00510051
2026-04-26 05:15:00,METAR KMQS 260515Z AUTO 06008KT 9SM OVC005 05/05 A2999 RMK AO2 RAB0454E0455 CIG 005V007 P0000 T00500050
2026-04-26 04:55:00,METAR KMQS 260455Z AUTO 06007KT 9SM OVC005 05/05 A2999 RMK AO2 RAE0447 CIG 005V007 P0000 T00510051
2026-04-26 04:35:00,METAR KMQS 260435Z AUTO 06010KT 7SM -RA OVC005 05/05 A2999 RMK AO2 CIG 005V007 P0000 T00510051
2026-04-26 04:15:00,METAR KMQS 260415Z AUTO 07011KT 7SM -RA BKN006 OVC030 05/05 A2999 RMK AO2 CIG 005V008 BKN V OVC P0000 T00500050
2026-04-26 03:55:00,METAR KMQS 260355Z AUTO 06010KT 6SM -RA BR OVC005 05/05 A2999 RMK AO2 CIG 004V007 P0003 T00510051
2026-04-26 03:35:00,METAR KMQS 260335Z AUTO 07009KT 6SM -RA BR OVC005 05/05 A2999 RMK AO2 CIG 004V007 P0002 T00510051
2026-04-26 03:15:00,METAR KMQS 260315Z AUTO 06009KT 4SM -RA BR BKN005 OVC011 05/05 A2999 RMK AO2 CIG 004V007 BKN V OVC P0002 T00520052
2026-04-26 02:55:00,METAR KMQS 260255Z AUTO 07010KT 4SM -RA BR OVC005 06/06 A2999 RMK AO2 CIG 004V008 P0002 60023 T00550055 51015
2026-04-26 02:35:00,METAR KMQS 260235Z AUTO 06009KT 10SM -RA BKN005 OVC010 06/06 A2999 RMK AO2 CIG 004V007 P0002 T00570057
2026-04-26 02:15:00,METAR KMQS 260215Z AUTO 08008KT 7SM -RA BKN005 BKN012 OVC018 06/06 A2998 RMK AO2 CIG 005V007 BKN012 V OVC P0001 T00570057
2026-04-26 01:55:00,METAR KMQS 260155Z AUTO 07007KT 5SM -RA BR SCT004 BKN011 OVC017 06/06 A2999 RMK AO2 CIG 010V016 P0014 T00570057
2026-04-26 01:35:00,METAR KMQS 260135Z AUTO 07008KT 3SM -RA BR SCT004 BKN011 OVC018 06/06 A2998 RMK AO2 SCT V BKN P0013 T00580058
2026-04-26 01:15:00,METAR KMQS 260115Z AUTO 08007KT 2SM RA BR BKN004 OVC012 06/06 A2997 RMK AO2 P0007 T00600060
2026-04-26 00:55:00,METAR KMQS 260055Z AUTO 08007KT 4SM -RA BR BKN005 OVC011 06/06 A2996 RMK AO2 CIG 004V008 P0007 T00610061
2026-04-26 00:35:00,METAR KMQS 260035Z AUTO 07007KT 6SM -RA BR BKN007 OVC012 06/06 A2997 RMK AO2 CIG 005V010 P0005 T00620062
2026-04-26 00:15:00,METAR KMQS 260015Z AUTO 07006KT 6SM -RA BR BKN005 OVC011 06/06 A2996 RMK AO2 CIG 004V007 P0004 T00610061
2026-04-25 23:55:00,METAR KMQS 252355Z AUTO 11007KT 6SM -RA BR BKN006 OVC011 06/06 A2994 RMK AO2 CIG 004V008 P0004 60045 T00650065 10097 20065 53008
2026-04-25 23:35:00,METAR KMQS 252335Z AUTO 10008KT 6SM -RA BR OVC005 07/07 A2994 RMK AO2 CIG 004V010 P0003 T00660066
2026-04-25 23:15:00,METAR KMQS 252315Z AUTO 10006KT 2 1/2SM -RA BR BKN004 OVC012 07/07 A2995 RMK AO2 CIG 004V007 P0003 T00670067
2026-04-25 22:55:00,METAR KMQS 252255Z AUTO 12010KT 7SM -RA BKN006 OVC011 07/07 A2992 RMK AO2 CIG 005V009 OVC V BKN P0004 T00660066
2026-04-25 22:35:00,METAR KMQS 252235Z AUTO 12010KT 7SM -RA BKN004 OVC009 07/07 A2992 RMK AO2 CIG 004V008 P0004 T00670067
2026-04-25 22:15:00,METAR KMQS 252215Z AUTO 12007KT 4SM -RA BR BKN004 OVC009 07/07 A2992 RMK AO2 P0003 T00670067
2026-04-25 21:55:00,METAR KMQS 252155Z AUTO 11011KT 2 1/2SM -RA BR OVC004 07/07 A2991 RMK AO2 VIS 1V4 CIG 003V007 P0011 T00670067
2026-04-25 21:35:00,METAR KMQS 252135Z AUTO 12009KT 3SM -RA BR OVC004 07/07 A2992 RMK AO2 CIG 003V008 OVC V BKN P0007 T00670067
2026-04-25 21:15:00,METAR KMQS 252115Z AUTO 12008KT 2SM -RA BR BKN005 BKN020 OVC030 07/07 A2992 RMK AO2 CIG 004V008 BKN020 V OVC P0004 T00670067
2026-04-25 20:55:00,METAR KMQS 252055Z AUTO 11011KT 3SM -RA BR BKN005 BKN019 OVC030 07/07 A2992 RMK AO2 CIG 005V009 P0016 60026 T00680068 58016
2026-04-25 20:35:00,METAR KMQS 252035Z AUTO 12010KT 1 3/4SM RA BR BKN005 BKN012 BKN019 OVC029 07/07 A2993 RMK AO2 CIG 004V007 P0013 T00690069
2026-04-25 20:15:00,METAR KMQS 252015Z AUTO 11006KT 2SM -RA BR SCT006 BKN012 OVC029 07/07 A2993 RMK AO2 CIG 009V014 P0007 T00740074
2026-04-25 19:55:00,METAR KMQS 251955Z AUTO 13007KT 1 1/2SM -RA BR FEW007 SCT012 BKN018 OVC029 08/07 A2994 RMK AO2 VIS 3/4V3 FEW V SCT P0010 T00760075
2026-04-25 19:35:00,METAR KMQS 251935Z AUTO 12006KT 2SM -RA BR SCT010 SCT017 OVC028 08/07 A2995 RMK AO2 VIS 1V5 CIG 024V030 P0005 T00800075
2026-04-25 19:15:00,METAR KMQS 251915Z AUTO 11009KT 5SM -RA BR OVC029 08/07 A2993 RMK AO2 P0001 T00830074
2026-04-25 18:55:00,METAR KMQS 251855Z AUTO VRB03KT 6SM -RA OVC033 09/07 A2997 RMK AO2 RAB1755 P0000 T00890066
2026-04-25 18:35:00,METAR KMQS 251835Z AUTO 12009KT 6SM -RA OVC032 09/06 A2994 RMK AO2 RAB1755 P0000 T00920060
2026-04-25 18:15:00,METAR KMQS 251815Z AUTO 12012KT 7SM -RA OVC034 09/05 A2994 RMK AO2 RAB1755 P0000 T00920048
2026-04-25 17:55:00,METAR KMQS 251755Z AUTO 10009KT 9SM OVC035 10/04 A2996 RMK AO2 60000 T01000041 10116 20084 53009
2026-04-25 17:35:00,METAR KMQS 251735Z AUTO 11007KT 10SM OVC035 10/04 A2996 RMK AO2 T01040044
2026-04-25 17:15:00,METAR KMQS 251715Z AUTO 12012G16KT 10SM OVC033 10/04 A2994 RMK AO2 T01050042
2026-04-25 16:55:00,METAR KMQS 251655Z AUTO 11011G18KT 080V160 10SM OVC033 11/04 A2993 RMK AO2 T01070044
2026-04-25 16:35:00,METAR KMQS 251635Z AUTO 12013G17KT 10SM OVC033 11/05 A2994 RMK AO2 T01080048
2026-04-25 16:15:00,METAR KMQS 251615Z AUTO 12012G18KT 10SM OVC032 11/05 A2994 RMK AO2 T01080049
2026-04-25 15:55:00,METAR KMQS 251555Z AUTO 12013KT 10SM OVC032 11/05 A2994 RMK AO2 T01110049
2026-04-25 15:35:00,METAR KMQS 251535Z AUTO 12011G17KT 10SM OVC032 11/05 A2994 RMK AO2 T01140052
2026-04-25 15:15:00,METAR KMQS 251515Z AUTO 13008G18KT 9SM OVC032 11/05 A2994 RMK AO2 T01120050
2026-04-25 14:55:00,METAR KMQS 251455Z AUTO 13010G16KT 10SM OVC032 11/05 A2994 RMK AO2 60000 T01140050 50006
2026-04-25 14:35:00,METAR KMQS 251435Z AUTO 13011G18KT 10SM OVC032 11/05 A2995 RMK AO2 T01120046
2026-04-25 14:15:00,METAR KMQS 251415Z AUTO 13008KT 10SM BKN035 BKN045 11/06 A2994 RMK AO2 T01130064
2026-04-25 13:55:00,METAR KMQS 251355Z AUTO 11011G19KT 080V140 9SM FEW019 BKN210 11/08 A2994 RMK AO2 T01130076
2026-04-25 13:35:00,METAR KMQS 251335Z AUTO 13011KT 10SM FEW017 BKN050 BKN160 BKN210 11/07 A2994 RMK AO2 T01050075
2026-04-25 13:15:00,METAR KMQS 251315Z AUTO 11012G17KT 9SM FEW016 BKN050 OVC210 10/08 A2994 RMK AO2 T00970076
2026-04-25 12:55:00,METAR KMQS 251255Z AUTO 12009KT 9SM SCT050 BKN140 OVC200 09/08 A2993 RMK AO2 RAE1157 P0000 T00930080
2026-04-25 12:35:00,METAR KMQS 251235Z AUTO 11009KT 8SM BKN140 BKN190 BKN210 09/08 A2993 RMK AO2 RAE1157 P0000 T00880078
2026-04-25 12:15:00,METAR KMQS 251215Z AUTO 11010KT 8SM FEW050 OVC130 09/08 A2993 RMK AO2 RAE1157 P0000 T00860077
2026-04-25 11:55:00,METAR KMQS 251155Z AUTO 10012G17KT 6SM -RA BR FEW024 SCT046 BKN080 OVC110 08/07 A2992 RMK AO2 RAB1114 P0002 60002 70002 T00840074 10107 20083 53014
2026-04-25 11:35:00,METAR KMQS 251135Z AUTO 11013G17KT 3SM -RA BR FEW033 BKN047 OVC080 08/07 A2991 RMK AO2 VIS 1 1/2V5 RAB1114 P0002 T00840071
2026-04-25 11:15:00,METAR KMQS 251115Z AUTO 12010KT 8SM -RA OVC049 09/06 A2992 RMK AO2 RAB1114 P0000 T00910062
2026-04-25 10:55:00,METAR KMQS 251055Z AUTO 11009KT 9SM OVC055 09/06 A2991 RMK AO2 T00930061
2026-04-25 10:35:00,METAR KMQS 251035Z AUTO 10009KT 9SM OVC055 09/06 A2990 RMK AO2 T00940063
2026-04-25 10:15:00,METAR KMQS 251015Z AUTO 11009KT 9SM BKN055 OVC130 10/06 A2989 RMK AO2 T00950062
2026-04-25 09:55:00,METAR KMQS 250955Z AUTO 12009KT 10SM BKN060 OVC130 10/05 A2988 RMK AO2 T00960054
2026-04-25 09:35:00,METAR KMQS 250935Z AUTO 12011KT 10SM OVC055 10/05 A2988 RMK AO2 T00980050
2026-04-25 09:15:00,METAR KMQS 250915Z AUTO 11009KT 10SM FEW030 OVC050 10/05 A2988 RMK AO2 T01000051
2026-04-25 08:55:00,METAR KMQS 250855Z AUTO 10008KT 10SM OVC029 10/06 A2988 RMK AO2 RAB0815E0825 OVC V BKN P0000 60000 T01020061 53001
2026-04-25 08:35:00,METAR KMQS 250835Z AUTO 12009KT 10SM SCT028 BKN055 OVC100 10/06 A2987 RMK AO2 RAB0815E0825 SCT V BKN P0000 T01010064
2026-04-25 08:15:00,METAR KMQS 250815Z AUTO 11008KT 10SM -RA BKN060 OVC100 10/07 A2987 RMK AO2 RAB0815 P0000 T01030066
2026-04-25 07:55:00,METAR KMQS 250755Z AUTO 11008KT 10SM OVC065 10/07 A2988 RMK AO2 T01040070
2026-04-25 07:35:00,METAR KMQS 250735Z AUTO 10008KT 10SM OVC070 10/07 A2988 RMK AO2 T01040072
2026-04-25 07:15:00,METAR KMQS 250715Z AUTO 09004KT 10SM FEW028 BKN075 OVC085 10/07 A2989 RMK AO2 T01040072
2026-04-25 06:55:00,METAR KMQS 250655Z AUTO 13008KT 10SM BKN080 10/07 A2987 RMK AO2 T01030070
2026-04-25 06:35:00,METAR KMQS 250635Z AUTO 13007KT 10SM BKN080 10/07 A2987 RMK AO2 T01040066
2026-04-25 06:15:00,METAR KMQS 250615Z AUTO 13007KT 10SM BKN085 11/06 A2988 RMK AO2 T01060062
2026-04-25 05:55:00,METAR KMQS 250555Z AUTO 12007KT 10SM BKN090 OVC110 11/05 A2988 RMK AO2 60000 T01090051 10175 20109 402380109 51009
2026-04-25 05:35:00,METAR KMQS 250535Z AUTO 13005KT 10SM OVC080 11/04 A2988 RMK AO2 T01110042
2026-04-25 05:15:00,METAR KMQS 250515Z AUTO 12006KT 10SM OVC080 11/04 A2988 RMK AO2 T01140037
2026-04-25 04:55:00,METAR KMQS 250455Z AUTO 12009KT 10SM SCT080 11/03 A2987 RMK AO2 T01140032
2026-04-25 04:35:00,METAR KMQS 250435Z AUTO 13006KT 10SM BKN085 12/03 A2987 RMK AO2 T01170033
2026-04-25 04:15:00,METAR KMQS 250415Z AUTO 13007KT 10SM BKN085 12/03 A2986 RMK AO2 T01190032
2026-04-25 03:55:00,METAR KMQS 250355Z AUTO 11009KT 10SM BKN090 BKN110 12/04 A2986 RMK AO2 T01230037
2026-04-25 03:35:00,METAR KMQS 250335Z AUTO 13007KT 10SM OVC085 13/03 A2986 RMK AO2 T01260032
2026-04-25 03:15:00,METAR KMQS 250315Z AUTO 14006KT 10SM OVC085 13/03 A2986 RMK AO2 T01280034
2026-04-25 02:55:00,METAR KMQS 250255Z AUTO 14006KT 10SM OVC095 13/04 A2985 RMK AO2 60000 T01270045 51023
2026-04-25 02:35:00,METAR KMQS 250235Z AUTO 13007KT 10SM OVC090 13/04 A2985 RMK AO2 T01250045
2026-04-25 02:15:00,METAR KMQS 250215Z AUTO 14004KT 10SM OVC085 12/05 A2985 RMK AO2 T01230048
2026-04-25 01:55:00,METAR KMQS 250155Z AUTO 17003KT 9SM BKN090 OVC120 12/05 A2985 RMK AO2 RAB0056E0150 P0000 T01230052
2026-04-25 01:35:00,METAR KMQS 250135Z AUTO 18005KT 8SM -RA FEW035 BKN090 BKN110 OVC140 13/05 A2984 RMK AO2 RAB0056 P0000 T01280049
2026-04-25 01:15:00,METAR KMQS 250115Z AUTO 16007KT 100V190 9SM -RA FEW034 BKN085 OVC110 13/05 A2983 RMK AO2 RAB0056 P0000 T01350047
2026-04-25 00:55:00,METAR KMQS 250055Z AUTO VRB04KT 10SM BKN095 OVC130 14/07 A2983 RMK AO2 RAB0016E0029 PRESRR P0000 T01410072
2026-04-25 00:35:00,METAR KMQS 250035Z AUTO 16008KT 10SM SCT100 OVC130 14/08 A2981 RMK AO2 RAB0016E0029 P0000 T01440079
2026-04-25 00:15:00,METAR KMQS 250015Z AUTO 13011KT 10SM FEW042 SCT100 BKN120 BKN140 16/08 A2979 RMK AO2 T01580076
2026-04-24 23:55:00,METAR KMQS 242355Z AUTO 13006KT 8SM FEW060 BKN100 BKN120 BKN140 20/09 A2978 RMK AO2 RAB2316E2350 P0000 60000 T02030090 10238 20203 53003
2026-04-24 23:35:00,METAR KMQS 242335Z AUTO 25003KT 10SM SCT060 BKN080 OVC100 22/08 A2978 RMK AO2 RAB2316E2325 P0000 T02160076
2026-04-24 23:15:00,METAR KMQS 242315Z AUTO 27004KT 9SM SCT065 BKN100 OVC120 21/08 A2978 RMK AO2 T02140082
2026-04-24 22:55:00,METAR KMQS 242255Z AUTO 00000KT 10SM BKN110 OVC140 22/08 A2977 RMK AO2 T02200078
2026-04-24 22:35:00,METAR KMQS 242235Z AUTO 00000KT 10SM SCT100 BKN130 BKN160 22/07 A2976 RMK AO2 T02240073
2026-04-24 22:15:00,METAR KMQS 242215Z AUTO 27003KT 10SM FEW120 OVC160 22/08 A2976 RMK AO2 T02230079
2026-04-24 21:55:00,METAR KMQS 242155Z AUTO 30006KT 10SM FEW065 BKN160 OVC190 23/08 A2977 RMK AO2 T02280078
2026-04-24 21:35:00,METAR KMQS 242135Z AUTO 26006KT 10SM SCT065 BKN180 23/07 A2977 RMK AO2 T02270072
2026-04-24 21:15:00,METAR KMQS 242115Z AUTO 30006KT 10SM BKN070 BKN085 23/08 A2977 RMK AO2 T02300077
2026-04-24 20:55:00,METAR KMQS 242055Z AUTO 29009KT 10SM BKN085 24/08 A2977 RMK AO2 T02380078 56006
2026-04-24 20:35:00,METAR KMQS 242035Z AUTO 28007KT 10SM BKN080 BKN090 23/07 A2977 RMK AO2 T02340073
2026-04-24 20:15:00,METAR KMQS 242015Z AUTO 27004KT 10SM BKN075 23/07 A2977 RMK AO2 T02270066
2026-04-24 19:55:00,METAR KMQS 241955Z AUTO VRB03KT 10SM CLR 23/07 A2977 RMK AO2 LTG DSNT SW T02320066
2026-04-24 19:35:00,METAR KMQS 241935Z AUTO 29007KT 10SM CLR 23/07 A2977 RMK AO2 T02350070
2026-04-24 19:15:00,METAR KMQS 241915Z AUTO VRB04KT 10SM CLR 23/06 A2977 RMK AO2 T02320063
2026-04-24 18:55:00,METAR KMQS 241855Z AUTO VRB04KT 10SM CLR 23/06 A2978 RMK AO2 T02310063
2026-04-24 18:35:00,METAR KMQS 241835Z AUTO 27005KT 10SM FEW080 22/06 A2978 RMK AO2 T02240059
2026-04-24 18:15:00,METAR KMQS 241815Z AUTO 29007KT 270V360 10SM FEW070 23/06 A2978 RMK AO2 T02300063
2026-04-24 17:55:00,METAR KMQS 241755Z AUTO 05005KT 10SM SCT070 22/05 A2979 RMK AO2 T02200045 10229 20157 58012
2026-04-24 17:35:00,METAR KMQS 241735Z AUTO VRB05KT 10SM SCT070 23/06 A2979 RMK AO2 T02260057
2026-04-24 17:15:00,METAR KMQS 241715Z AUTO 05006KT 10SM SCT065 22/04 A2980 RMK AO2 T02200044
2026-04-24 16:55:00,METAR KMQS 241655Z AUTO 06004KT 10SM CLR 22/04 A2980 RMK AO2 T02170039
2026-04-24 16:35:00,METAR KMQS 241635Z AUTO 00000KT 10SM FEW160 21/03 A2980 RMK AO2 T02110035
2026-04-24 16:15:00,METAR KMQS 241615Z AUTO VRB03KT 10SM FEW160 21/03 A2980 RMK AO2 T02070032
2026-04-24 15:55:00,METAR KMQS 241555Z AUTO VRB04KT 10SM FEW070 SCT090 BKN150 20/03 A2982 RMK AO2 T02020026
2026-04-24 15:35:00,METAR KMQS 241535Z AUTO 30005KT 10SM FEW065 SCT095 BKN150 21/03 A2983 RMK AO2 T02060027
2026-04-24 15:15:00,METAR KMQS 241515Z AUTO VRB03KT 10SM BKN065 OVC150 20/02 A2982 RMK AO2 T02010024
2026-04-24 14:55:00,METAR KMQS 241455Z AUTO 01003KT 10SM BKN060 20/02 A2982 RMK AO2 T01990025 58002
2026-04-24 14:35:00,METAR KMQS 241435Z AUTO 00000KT 10SM BKN060 BKN080 19/01 A2983 RMK AO2 T01950011
2026-04-24 14:15:00,METAR KMQS 241415Z AUTO 00000KT 10SM SCT060 BKN075 19/01 A2983 RMK AO2 T01870009
2026-04-24 13:55:00,METAR KMQS 241355Z AUTO 03005KT 9SM BKN055 BKN070 OVC160 18/01 A2984 RMK AO2 T01850010
2026-04-24 13:35:00,METAR KMQS 241335Z AUTO 04005KT 10SM SCT055 OVC150 18/01 A2983 RMK AO2 T01820011
2026-04-24 13:15:00,METAR KMQS 241315Z AUTO 02005KT 10SM OVC150 18/02 A2984 RMK AO2 T01800016
2026-04-24 12:55:00,METAR KMQS 241255Z AUTO 03003KT 10SM OVC150 17/02 A2984 RMK AO2 T01740023
2026-04-24 12:35:00,METAR KMQS 241235Z AUTO 36005KT 10SM OVC150 17/02 A2983 RMK AO2 T01670017
2026-04-24 12:15:00,METAR KMQS 241215Z AUTO 01004KT 10SM OVC160 16/02 A2983 RMK AO2 T01590021
2026-04-24 11:55:00,METAR KMQS 241155Z AUTO 01004KT 10SM BKN160 OVC180 15/02 A2983 RMK AO2 T01510024 10156 20116 53010
2026-04-24 11:35:00,METAR KMQS 241135Z AUTO 01003KT 10SM BKN180 15/02 A2983 RMK AO2 T01480020
2026-04-24 11:15:00,METAR KMQS 241115Z AUTO 36003KT 10SM FEW180 14/02 A2982 RMK AO2 T01350018
2026-04-24 10:55:00,METAR KMQS 241055Z AUTO 01003KT 10SM CLR 12/01 A2982 RMK AO2 T01180009
2026-04-24 10:35:00,METAR KMQS 241035Z AUTO 00000KT 10SM CLR 12/01 A2981 RMK AO2 T01230006
2026-04-24 10:15:00,METAR KMQS 241015Z AUTO 02003KT 10SM CLR 12/00 A2981 RMK AO2 T01210004
2026-04-24 09:55:00,METAR KMQS 240955Z AUTO 02004KT 10SM CLR 12/01 A2980 RMK AO2 T01230007
2026-04-24 09:35:00,METAR KMQS 240935Z AUTO 35003KT 10SM CLR 12/01 A2981 RMK AO2 T01240006
2026-04-24 09:15:00,METAR KMQS 240915Z AUTO 36004KT 10SM CLR 12/01 A2980 RMK AO2 T01230013
2026-04-24 08:55:00,METAR KMQS 240855Z AUTO 36004KT 10SM CLR 12/01 A2980 RMK AO2 T01240014 55007
2026-04-24 08:35:00,METAR KMQS 240835Z AUTO 36004KT 10SM CLR 13/01 A2980 RMK AO2 T01270012
2026-04-24 08:15:00,METAR KMQS 240815Z AUTO 03004KT 10SM CLR 14/01 A2980 RMK AO2 T01350007
2026-04-24 07:55:00,METAR KMQS 240755Z AUTO 05004KT 10SM CLR 15/00 A2980 RMK AO2 T01450002
2026-04-24 07:35:00,METAR KMQS 240735Z AUTO 03003KT 10SM FEW130 14/00 A2980 RMK AO2 T01430003
2026-04-24 07:15:00,METAR KMQS 240715Z AUTO 03004KT 10SM SCT130 15/00 A2981 RMK AO2 T01500005
2026-04-24 06:55:00,METAR KMQS 240655Z AUTO 04005KT 10SM BKN140 15/01 A2981 RMK AO2 T01460015
2026-04-24 06:35:00,METAR KMQS 240635Z AUTO 03003KT 10SM OVC140 15/02 A2981 RMK AO2 T01490015
2026-04-24 06:15:00,METAR KMQS 240615Z AUTO 04003KT 10SM BKN140 15/01 A2982 RMK AO2 T01500013
2026-04-24 05:55:00,METAR KMQS 240555Z AUTO 05005KT 10SM CLR 15/02 A2982 RMK AO2 T01490018 10212 20147 402430074 58010
2026-04-24 05:35:00,METAR KMQS 240535Z AUTO 07003KT 10SM CLR 15/01 A2982 RMK AO2 T01540015
2026-04-24 05:15:00,METAR KMQS 240515Z AUTO 07005KT 10SM CLR 16/02 A2983 RMK AO2 T01580018
2026-04-24 04:55:00,METAR KMQS 240455Z AUTO 06006KT 10SM CLR 16/03 A2984 RMK AO2 T01620032
2026-04-24 04:35:00,METAR KMQS 240435Z AUTO 07006KT 10SM CLR 16/04 A2985 RMK AO2 T01630041
2026-04-24 04:15:00,METAR KMQS 240415Z AUTO 06006KT 10SM CLR 16/06 A2985 RMK AO2 T01590063
2026-04-24 03:55:00,METAR KMQS 240355Z AUTO 03004KT 10SM FEW360 16/09 A2985 RMK AO2 T01580086
2026-04-24 03:35:00,METAR KMQS 240335Z AUTO 00000KT 10SM FEW360 15/09 A2985 RMK AO2 T01470089
2026-04-24 03:15:00,METAR KMQS 240315Z AUTO 25003KT 10SM CLR 18/09 A2985 RMK AO2 T01780095
2026-04-24 02:55:00,METAR KMQS 240255Z AUTO 27003KT 10SM FEW370 18/09 A2985 RMK AO2 T01830091 50004
2026-04-24 02:35:00,METAR KMQS 240235Z AUTO 27003KT 10SM CLR 18/08 A2985 RMK AO2 T01760079
2026-04-24 02:15:00,METAR KMQS 240215Z AUTO 24004KT 10SM CLR 18/08 A2985 RMK AO2 T01830079
2026-04-24 01:55:00,METAR KMQS 240155Z AUTO 25003KT 10SM CLR 19/06 A2985 RMK AO2 T01950065
2026-04-24 01:35:00,METAR KMQS 240135Z AUTO 23004KT 10SM CLR 19/06 A2985 RMK AO2 T01910062
2026-04-24 01:15:00,METAR KMQS 240115Z AUTO VRB03KT 10SM FEW340 20/06 A2985 RMK AO2 T02000062
2026-04-24 00:55:00,METAR KMQS 240055Z AUTO 00000KT 10SM CLR 18/07 A2985 RMK AO2 T01830068
2026-04-24 00:35:00,METAR KMQS 240035Z AUTO 00000KT 10SM CLR 18/06 A2985 RMK AO2 T01810065
2026-04-24 00:15:00,METAR KMQS 240015Z AUTO 00000KT 10SM CLR 21/06 A2984 RMK AO2 T02100059
2026-04-23 23:55:00,METAR KMQS 232355Z AUTO 00000KT 10SM CLR 22/06 A2984 RMK AO2 T02170056 10243 20208 56009
2026-04-23 23:35:00,METAR KMQS 232335Z AUTO 00000KT 10SM CLR 22/06 A2984 RMK AO2 T02230057
2026-04-23 23:15:00,METAR KMQS 232315Z AUTO 29003KT 10SM CLR 21/07 A2984 RMK AO2 T02140071
2026-04-23 22:55:00,METAR KMQS 232255Z AUTO 33005KT 10SM CLR 23/06 A2984 RMK AO2 T02290063
2026-04-23 22:35:00,METAR KMQS 232235Z AUTO 31005KT 10SM CLR 23/07 A2985 RMK AO2 T02320067
2026-04-23 22:15:00,METAR KMQS 232215Z AUTO 32006KT 10SM CLR 24/06 A2985 RMK AO2 T02360063
2026-04-23 21:55:00,METAR KMQS 232155Z AUTO 29010KT 10SM CLR 24/06 A2985 RMK AO2 T02380063
2026-04-23 21:35:00,METAR KMQS 232135Z AUTO 30008KT 10SM CLR 24/07 A2986 RMK AO2 T02400066
2026-04-23 21:15:00,METAR KMQS 232115Z AUTO 31008KT 10SM CLR 24/06 A2986 RMK AO2 T02420057
2026-04-23 20:55:00,METAR KMQS 232055Z AUTO 31012G16KT 10SM CLR 24/06 A2987 RMK AO2 T02410055 57022
2026-04-23 20:35:00,METAR KMQS 232035Z AUTO 31009KT 10SM CLR 24/06 A2987 RMK AO2 T02390057
2026-04-23 19:55:00,METAR KMQS 231955Z AUTO 28014KT 10SM CLR 23/07 A2988 RMK AO2 T02340073
2026-04-23 19:35:00,METAR KMQS 231935Z AUTO 29013G16KT 10SM CLR 24/08 A2989 RMK AO2 T02370082
2026-04-23 19:15:00,METAR KMQS 231915Z AUTO 28007KT 10SM CLR 23/08 A2990 RMK AO2 T02300083
2026-04-23 18:55:00,METAR KMQS 231855Z AUTO 29009KT 10SM CLR 23/09 A2991 RMK AO2 T02300086
2026-04-23 18:35:00,METAR KMQS 231835Z AUTO 32006G16KT 10SM FEW060 23/09 A2991 RMK AO2 T02260090
2026-04-23 18:15:00,METAR KMQS 231815Z AUTO 30007KT 270V350 10SM FEW060 22/09 A2993 RMK AO2 T02220085
2026-04-23 17:55:00,METAR KMQS 231755Z AUTO 30009G19KT 10SM CLR 22/09 A2993 RMK AO2 T02190087 10221 20109 56018
2026-04-23 17:35:00,METAR KMQS 231735Z AUTO 31011G16KT 10SM CLR 22/09 A2994 RMK AO2 T02190088
2026-04-23 16:55:00,METAR KMQS 231655Z AUTO 28009KT 10SM FEW350 22/08 A2995 RMK AO2 T02170084
2026-04-23 16:35:00,METAR KMQS 231635Z AUTO 28006KT 10SM FEW350 21/08 A2995 RMK AO2 T02120083
2026-04-23 16:15:00,METAR KMQS 231615Z AUTO 33009KT 10SM CLR 21/09 A2996 RMK AO2 T02120088
2026-04-23 15:55:00,METAR KMQS 231555Z AUTO 29007KT 10SM FEW370 21/08 A2997 RMK AO2 T02060082
2026-04-23 15:35:00,METAR KMQS 231535Z AUTO 31007KT 10SM CLR 21/08 A2997 RMK AO2 T02060084
2026-04-23 15:15:00,METAR KMQS 231515Z AUTO VRB04KT 10SM CLR 20/08 A2998 RMK AO2 T02030082
2026-04-23 14:55:00,METAR KMQS 231455Z AUTO 01004KT 10SM CLR 20/08 A2999 RMK AO2 T01980080 51003
2026-04-23 14:35:00,METAR KMQS 231435Z AUTO 35003KT 10SM CLR 20/09 A2999 RMK AO2 T01980087
2026-04-23 14:15:00,METAR KMQS 231415Z AUTO 35007KT 10SM CLR 19/09 A2999 RMK AO2 T01920091
2026-04-23 13:55:00,METAR KMQS 231355Z AUTO VRB04KT 10SM CLR 18/10 A2999 RMK AO2 T01820105
2026-04-23 13:35:00,METAR KMQS 231335Z AUTO 00000KT 10SM CLR 16/12 A2999 RMK AO2 T01640119
2026-04-23 13:15:00,METAR KMQS 231315Z AUTO VRB03KT 10SM CLR 15/11 A2999 RMK AO2 T01510113
2026-04-23 12:55:00,METAR KMQS 231255Z AUTO 00000KT 10SM CLR 14/11 A2999 RMK AO2 T01390112
2026-04-23 12:35:00,METAR KMQS 231235Z AUTO 00000KT 10SM CLR 13/11 A2999 RMK AO2 T01290108
2026-04-23 12:15:00,METAR KMQS 231215Z AUTO 29003KT 10SM CLR 12/10 A2998 RMK AO2 T01170103
2026-04-23 11:55:00,METAR KMQS 231155Z AUTO 00000KT 10SM CLR 10/09 A2998 RMK AO2 70002 T01020090 10102 20074 53005
2026-04-23 11:35:00,METAR KMQS 231135Z AUTO 00000KT 9SM CLR 10/09 A2998 RMK AO2 T00980089
2026-04-23 11:15:00,METAR KMQS 231115Z AUTO 00000KT 6SM BR CLR 09/09 A2998 RMK AO2 T00860086
2026-04-23 10:55:00,METAR KMQS 231055Z AUTO 00000KT 6SM BR CLR 08/08 A2997 RMK AO2 T00820082
2026-04-23 10:35:00,METAR KMQS 231035Z AUTO 00000KT 5SM BR CLR 07/07 A2997 RMK AO2 T00750075
2026-04-23 10:15:00,METAR KMQS 231015Z AUTO 00000KT 6SM BR CLR 08/08 A2996 RMK AO2 T00780078
2026-04-23 09:55:00,METAR KMQS 230955Z AUTO 02003KT 8SM CLR 08/08 A2996 RMK AO2 T00790079
2026-04-23 09:35:00,METAR KMQS 230935Z AUTO 04004KT 9SM CLR 08/08 A2996 RMK AO2 T00800080
2026-04-23 09:15:00,METAR KMQS 230915Z AUTO 04004KT 8SM CLR 08/08 A2996 RMK AO2 T00770077
2026-04-23 08:55:00,METAR KMQS 230855Z AUTO 00000KT 8SM CLR 08/08 A2996 RMK AO2 T00820082 50004
2026-04-23 08:35:00,METAR KMQS 230835Z AUTO 02003KT 10SM SCT080 09/09 A2996 RMK AO2 T00880088
2026-04-23 08:15:00,METAR KMQS 230815Z AUTO 00000KT 10SM OVC080 09/09 A2997 RMK AO2 T00890089
2026-04-23 07:55:00,METAR KMQS 230755Z AUTO 03003KT 10SM SCT080 09/09 A2997 RMK AO2 T00870087
2026-04-23 07:35:00,METAR KMQS 230735Z AUTO 03004KT 10SM CLR 09/09 A2996 RMK AO2 T00880088
2026-04-23 07:15:00,METAR KMQS 230715Z AUTO 01003KT 10SM CLR 09/09 A2996 RMK AO2 T00890089
2026-04-23 06:55:00,METAR KMQS 230655Z AUTO 04003KT 10SM CLR 09/09 A2995 RMK AO2 T00930093
2026-04-23 06:35:00,METAR KMQS 230635Z AUTO 04005KT 10SM CLR 09/09 A2995 RMK AO2 T00940094
2026-04-23 06:15:00,METAR KMQS 230615Z AUTO 04006KT 10SM CLR 10/10 A2995 RMK AO2 T00970097
2026-04-23 05:55:00,METAR KMQS 230555Z AUTO 04005KT 10SM CLR 10/10 A2995 RMK AO2 T00990097 10163 20099 401860068 50003
2026-04-23 05:35:00,METAR KMQS 230535Z AUTO 05004KT 10SM CLR 10/10 A2995 RMK AO2 T01010098
2026-04-23 05:15:00,METAR KMQS 230515Z AUTO 04005KT 10SM CLR 11/10 A2996 RMK AO2 T01060100
2026-04-23 04:55:00,METAR KMQS 230455Z AUTO 06005KT 10SM CLR 11/10 A2996 RMK AO2 T01080099
2026-04-23 04:35:00,METAR KMQS 230435Z AUTO 05005KT 10SM CLR 11/10 A2997 RMK AO2 T01090098
2026-04-23 04:15:00,METAR KMQS 230415Z AUTO 05004KT 10SM CLR 11/10 A2996 RMK AO2 T01120096
2026-04-23 03:55:00,METAR KMQS 230355Z AUTO 04004KT 10SM CLR 12/09 A2996 RMK AO2 T01160093
2026-04-23 03:35:00,METAR KMQS 230335Z AUTO 05004KT 10SM CLR 11/09 A2996 RMK AO2 T01130092
2026-04-23 03:15:00,METAR KMQS 230315Z AUTO 10003KT 10SM FEW100 12/09 A2995 RMK AO2 T01170093
2026-04-23 02:55:00,METAR KMQS 230255Z AUTO 14003KT 10SM FEW100 13/09 A2994 RMK AO2 T01310094 50003
2026-04-23 02:35:00,METAR KMQS 230235Z AUTO 15003KT 10SM FEW100 13/09 A2994 RMK AO2 T01330094
2026-04-23 02:15:00,METAR KMQS 230215Z AUTO 17003KT 9SM FEW110 14/09 A2995 RMK AO2 T01360093
2026-04-23 01:55:00,METAR KMQS 230155Z AUTO 15004KT 10SM CLR 14/09 A2995 RMK AO2 T01390093
2026-04-23 01:35:00,METAR KMQS 230135Z AUTO 17003KT 10SM CLR 14/09 A2995 RMK AO2 T01420094
2026-04-23 01:15:00,METAR KMQS 230115Z AUTO 14003KT 10SM CLR 15/09 A2995 RMK AO2 T01460094
2026-04-23 00:55:00,METAR KMQS 230055Z AUTO 14003KT 10SM CLR 15/09 A2995 RMK AO2 T01490095
2026-04-23 00:35:00,METAR KMQS 230035Z AUTO 14004KT 10SM CLR 15/09 A2994 RMK AO2 T01520095
2026-04-23 00:15:00,METAR KMQS 230015Z AUTO 14004KT 9SM CLR 16/10 A2994 RMK AO2 T01590096
2026-04-22 23:55:00,METAR KMQS 222355Z AUTO 15004KT 8SM FEW090 17/10 A2993 RMK AO2 T01670096 10186 20145 55005
2026-04-22 23:35:00,METAR KMQS 222335Z AUTO 13003KT 9SM FEW095 17/09 A2993 RMK AO2 T01690095
2026-04-22 23:15:00,METAR KMQS 222315Z AUTO 12005KT 9SM CLR 17/10 A2993 RMK AO2 T01730098
2026-04-22 22:55:00,METAR KMQS 222255Z AUTO VRB04KT 9SM CLR 18/10 A2993 RMK AO2 T01780096
2026-04-22 22:35:00,METAR KMQS 222235Z AUTO VRB04KT 9SM CLR 18/10 A2992 RMK AO2 T01790096
2026-04-22 22:15:00,METAR KMQS 222215Z AUTO VRB04KT 9SM CLR 18/09 A2993 RMK AO2 T01810094
2026-04-22 21:55:00,METAR KMQS 222155Z AUTO 17004KT 9SM CLR 18/09 A2994 RMK AO2 T01810092
2026-04-22 21:35:00,METAR KMQS 222135Z AUTO 13004KT 9SM CLR 18/09 A2994 RMK AO2 T01790090
2026-04-22 21:15:00,METAR KMQS 222115Z AUTO 00000KT 9SM SCT070 18/09 A2994 RMK AO2 T01780090
2026-04-22 20:55:00,METAR KMQS 222055Z AUTO 00000KT 9SM FEW065 BKN080 17/09 A2995 RMK AO2 T01720089 56017
2026-04-22 20:35:00,METAR KMQS 222035Z AUTO 19003KT 9SM SCT060 BKN080 17/09 A2995 RMK AO2 T01730090
2026-04-22 20:15:00,METAR KMQS 222015Z AUTO VRB03KT 9SM BKN065 OVC080 18/09 A2996 RMK AO2 T01760091
2026-04-22 19:55:00,METAR KMQS 221955Z AUTO 31004KT 8SM SCT070 BKN080 18/09 A2996 RMK AO2 T01810092
2026-04-22 19:35:00,METAR KMQS 221935Z AUTO 29005KT 9SM BKN080 18/10 A2997 RMK AO2 T01780095
2026-04-22 19:15:00,METAR KMQS 221915Z AUTO 20005KT 9SM SCT080 17/09 A2997 RMK AO2 T01670091
2026-04-22 18:55:00,METAR KMQS 221855Z AUTO 12006KT 9SM BKN080 17/10 A2998 RMK AO2 T01670101
2026-04-22 18:35:00,METAR KMQS 221835Z AUTO VRB03KT 9SM SCT075 BKN085 16/10 A2998 RMK AO2 T01590100
2026-04-22 18:15:00,METAR KMQS 221815Z AUTO 00000KT 9SM OVC075 15/10 A2999 RMK AO2 T01530096
2026-04-22 17:55:00,METAR KMQS 221755Z AUTO 11004KT 9SM OVC080 14/09 A3000 RMK AO2 60002 T01430091 10144 20088 58014
2026-04-22 17:35:00,METAR KMQS 221735Z AUTO 00000KT 9SM SCT070 OVC080 14/09 A3001 RMK AO2 T01360091
2026-04-22 17:15:00,METAR KMQS 221715Z AUTO VRB04KT 9SM OVC065 13/09 A3001 RMK AO2 T01310094
2026-04-22 16:55:00,METAR KMQS 221655Z AUTO 19003KT 10SM OVC060 12/08 A3002 RMK AO2 T01160082
2026-04-22 16:35:00,METAR KMQS 221635Z AUTO 21003KT 9SM OVC060 12/09 A3003 RMK AO2 T01160086
2026-04-22 16:15:00,METAR KMQS 221615Z AUTO 15004KT 10SM BKN065 OVC080 11/09 A3003 RMK AO2 T01100089
2026-04-22 15:55:00,METAR KMQS 221555Z AUTO 00000KT 9SM OVC070 10/09 A3004 RMK AO2 RAE1515 P0001 T01030094
2026-04-22 15:35:00,METAR KMQS 221535Z AUTO VRB03KT 9SM OVC070 10/09 A3004 RMK AO2 RAE1515 P0001 T00990094
2026-04-22 15:15:00,METAR KMQS 221515Z AUTO 17003KT 5SM BR OVC075 10/09 A3004 RMK AO2 RAE1515 P0001 T00960089
2026-04-22 14:55:00,METAR KMQS 221455Z AUTO 00000KT 3SM -RA BR OVC075 09/09 A3004 RMK AO2 P0001 60001 T00940086 58007
2026-04-22 14:35:00,METAR KMQS 221435Z AUTO 13004KT 6SM -RA BR OVC080 10/08 A3004 RMK AO2 P0000 T00960080
2026-04-22 14:15:00,METAR KMQS 221415Z AUTO VRB03KT 7SM -RA BKN080 09/08 A3005 RMK AO2 P0000 T00950079
2026-04-22 13:55:00,METAR KMQS 221355Z AUTO VRB03KT 6SM -RA BR BKN085 10/07 A3005 RMK AO2 RAB1337 P0000 T00960075
2026-04-22 13:35:00,METAR KMQS 221335Z AUTO 13003KT 9SM OVC080 10/07 A3006 RMK AO2 T00960071
2026-04-22 13:15:00,METAR KMQS 221315Z AUTO 11003KT 8SM OVC080 09/07 A3007 RMK AO2 T00950069
2026-04-22 12:55:00,METAR KMQS 221255Z AUTO 00000KT 8SM BKN080 OVC100 09/07 A3006 RMK AO2 T00910067
2026-04-22 12:35:00,METAR KMQS 221235Z AUTO 14004KT 8SM BKN090 OVC100 09/07 A3005 RMK AO2 T00900066
2026-04-22 12:15:00,METAR KMQS 221215Z AUTO VRB04KT 8SM BKN100 OVC130 09/07 A3006 RMK AO2 T00900065
2026-04-22 11:55:00,METAR KMQS 221155Z AUTO 15004KT 8SM OVC110 09/06 A3006 RMK AO2 T00870064 10087 20068 56006
2026-04-22 11:35:00,METAR KMQS 221135Z AUTO 14003KT 9SM OVC120 08/06 A3007 RMK AO2 T00840062
2026-04-22 11:15:00,METAR KMQS 221115Z AUTO 14004KT 9SM OVC130 08/06 A3007 RMK AO2 T00800059
2026-04-22 10:55:00,METAR KMQS 221055Z AUTO 00000KT 9SM OVC120 08/06 A3007 RMK AO2 T00780058
2026-04-22 10:35:00,METAR KMQS 221035Z AUTO 15003KT 9SM FEW090 OVC120 07/06 A3006 RMK AO2 T00750055
2026-04-22 10:15:00,METAR KMQS 221015Z AUTO VRB04KT 10SM BKN090 OVC120 08/05 A3006 RMK AO2 T00760055
2026-04-22 09:55:00,METAR KMQS 220955Z AUTO 15007KT 10SM FEW018 SCT080 OVC090 08/05 A3006 RMK AO2 T00760051
2026-04-22 09:35:00,METAR KMQS 220935Z AUTO 14006KT 10SM SCT018 OVC100 07/05 A3006 RMK AO2 T00750049
2026-04-22 09:15:00,METAR KMQS 220915Z AUTO 14006KT 10SM FEW019 OVC100 07/05 A3007 RMK AO2 T00730046
2026-04-22 08:55:00,METAR KMQS 220855Z AUTO 15005KT 10SM BKN100 OVC130 07/04 A3008 RMK AO2 T00720042 56018
2026-04-22 08:35:00,METAR KMQS 220835Z AUTO 13007KT 110V170 10SM BKN100 OVC130 07/04 A3008 RMK AO2 T00700040
2026-04-22 08:15:00,METAR KMQS 220815Z AUTO 14004KT 10SM OVC095 07/04 A3010 RMK AO2 T00710036
2026-04-22 07:55:00,METAR KMQS 220755Z AUTO VRB06KT 10SM OVC095 07/03 A3010 RMK AO2 T00700031
2026-04-22 07:35:00,METAR KMQS 220735Z AUTO 15006KT 10SM BKN090 07/03 A3010 RMK AO2 PRESFR T00700030
2026-04-22 07:15:00,METAR KMQS 220715Z AUTO 16004KT 10SM BKN095 BKN120 07/03 A3012 RMK AO2 T00690027
2026-04-22 06:55:00,METAR KMQS 220655Z AUTO 16006KT 10SM BKN090 OVC110 07/02 A3011 RMK AO2 T00680023
2026-04-22 06:35:00,METAR KMQS 220635Z AUTO 16007KT 10SM BKN085 OVC120 07/02 A3011 RMK AO2 T00700024
2026-04-22 05:55:00,METAR KMQS 220555Z AUTO 16007KT 10SM FEW110 BKN140 07/02 A3014 RMK AO2 T00710020 10096 20069 401231014 58024
2026-04-22 05:15:00,METAR KMQS 220515Z AUTO VRB05KT 10SM BKN150 07/01 A3015 RMK AO2 T00710011
2026-04-22 04:55:00,METAR KMQS 220455Z AUTO 16006KT 10SM BKN140 BKN170 07/03 A3017 RMK AO2 T00710025
2026-04-22 04:35:00,METAR KMQS 220435Z AUTO 16005KT 10SM OVC160 07/03 A3017 RMK AO2 T00700034
2026-04-22 04:15:00,METAR KMQS 220415Z AUTO VRB05KT 10SM OVC160 07/04 A3018 RMK AO2 T00700038
2026-04-22 03:55:00,METAR KMQS 220355Z AUTO 15005KT 9SM OVC150 07/04 A3018 RMK AO2 T00690037
2026-04-22 03:35:00,METAR KMQS 220335Z AUTO VRB04KT 10SM OVC160 07/04 A3019 RMK AO2 T00700036
2026-04-22 03:15:00,METAR KMQS 220315Z AUTO 16004KT 10SM BKN160 07/03 A3020 RMK AO2 T00710033
2026-04-22 02:55:00,METAR KMQS 220255Z AUTO 15005KT 10SM OVC160 07/03 A3021 RMK AO2 T00720031 50006
2026-04-22 02:35:00,METAR KMQS 220235Z AUTO 14005KT 10SM OVC150 07/03 A3021 RMK AO2 T00720029
2026-04-22 02:15:00,METAR KMQS 220215Z AUTO 16003KT 9SM FEW110 OVC140 07/03 A3021 RMK AO2 T00730028
2026-04-22 01:55:00,METAR KMQS 220155Z AUTO 16004KT 9SM BKN130 OVC160 07/02 A3021 RMK AO2 T00740024
2026-04-22 01:35:00,METAR KMQS 220135Z AUTO VRB06KT 9SM BKN160 07/02 A3021 RMK AO2 T00740022
2026-04-22 01:15:00,METAR KMQS 220115Z AUTO 17006KT 9SM SCT170 BKN190 08/02 A3021 RMK AO2 T00750017
2026-04-22 00:55:00,METAR KMQS 220055Z AUTO 16007KT 100V190 9SM FEW140 08/01 A3019 RMK AO2 T00810007
2026-04-22 00:35:00,METAR KMQS 220035Z AUTO VRB06KT 9SM SCT130 09/00 A3020 RMK AO2 T00850000
2026-04-22 00:15:00,METAR KMQS 220015Z AUTO VRB03KT 8SM BKN130 09/M02 A3020 RMK AO2 T00931025
2026-04-21 23:55:00,METAR KMQS 212355Z AUTO VRB03KT 8SM CLR 10/M03 A3019 RMK AO2 T00981028 10123 20098 56006
2026-04-21 23:35:00,METAR KMQS 212335Z AUTO VRB03KT 8SM CLR 10/M03 A3019 RMK AO2 T01021030
2026-04-21 23:15:00,METAR KMQS 212315Z AUTO VRB06KT 9SM CLR 11/M03 A3019 RMK AO2 T01071033
2026-04-21 22:55:00,METAR KMQS 212255Z AUTO VRB04KT 9SM FEW140 11/M03 A3019 RMK AO2 T01101031
2026-04-21 22:35:00,METAR KMQS 212235Z AUTO 18006KT 9SM SCT140 11/M03 A3019 RMK AO2 T01141026
2026-04-21 22:15:00,METAR KMQS 212215Z AUTO VRB05KT 9SM FEW100 BKN140 11/M03 A3019 RMK AO2 T01121028
2026-04-21 21:55:00,METAR KMQS 212155Z AUTO 17006KT 9SM CLR 11/M03 A3020 RMK AO2 T01151027
2026-04-21 21:35:00,METAR KMQS 212135Z AUTO VRB05KT 9SM CLR 12/M03 A3020 RMK AO2 T01171030
2026-04-21 21:15:00,METAR KMQS 212115Z AUTO VRB05KT 9SM CLR 12/M04 A3020 RMK AO2 T01161036
2026-04-21 20:55:00,METAR KMQS 212055Z AUTO VRB03KT 9SM BKN120 BKN150 12/M04 A3021 RMK AO2 T01191038 56028
2026-04-21 20:35:00,METAR KMQS 212035Z AUTO VRB05KT 9SM SCT130 BKN150 12/M05 A3022 RMK AO2 T01181046
2026-04-21 20:15:00,METAR KMQS 212015Z AUTO VRB06KT 9SM BKN130 12/M05 A3022 RMK AO2 T01191051
2026-04-21 19:55:00,METAR KMQS 211955Z AUTO VRB06KT 9SM CLR 12/M06 A3022 RMK AO2 T01191056
2026-04-21 19:35:00,METAR KMQS 211935Z AUTO VRB05KT 9SM CLR 12/M06 A3024 RMK AO2 T01161056
2026-04-21 19:15:00,METAR KMQS 211915Z AUTO VRB05KT 9SM CLR 11/M06 A3025 RMK AO2 T01131057
2026-04-21 18:55:00,METAR KMQS 211855Z AUTO 17005KT 9SM CLR 11/M06 A3026 RMK AO2 T01091057
2026-04-21 18:35:00,METAR KMQS 211835Z AUTO VRB06KT 9SM CLR 11/M06 A3027 RMK AO2 T01071061
2026-04-21 18:15:00,METAR KMQS 211815Z AUTO VRB05KT 9SM CLR 11/M05 A3028 RMK AO2 T01061055
2026-04-21 17:55:00,METAR KMQS 211755Z AUTO 30007KT 9SM CLR 10/M07 A3029 RMK AO2 T00991067 10104 20022 58031
2026-04-21 17:35:00,METAR KMQS 211735Z AUTO 29006KT 8SM CLR 10/M07 A3030 RMK AO2 T01011066
2026-04-21 17:15:00,METAR KMQS 211715Z AUTO 30005G17KT 230V320 9SM CLR 10/M07 A3030 RMK AO2 PRESFR T00971070
2026-04-21 16:55:00,METAR KMQS 211655Z AUTO 33003KT 9SM CLR 09/M07 A3033 RMK AO2 T00881065
2026-04-21 16:35:00,METAR KMQS 211635Z AUTO VRB04KT 9SM CLR 09/M07 A3034 RMK AO2 T00881071
2026-04-21 16:15:00,METAR KMQS 211615Z AUTO 31008KT 9SM CLR 08/M08 A3034 RMK AO2 T00831079
2026-04-21 15:55:00,METAR KMQS 211555Z AUTO 28008KT 9SM CLR 08/M08 A3036 RMK AO2 T00771076
2026-04-21 15:35:00,METAR KMQS 211535Z AUTO 32007KT 9SM CLR 07/M08 A3036 RMK AO2 T00741081
2026-04-21 15:15:00,METAR KMQS 211515Z AUTO 29006KT 9SM CLR 07/M07 A3037 RMK AO2 T00731071
2026-04-21 14:55:00,METAR KMQS 211455Z AUTO VRB03KT 9SM CLR 07/M08 A3039 RMK AO2 T00661081 58009
2026-04-21 14:35:00,METAR KMQS 211435Z AUTO 00000KT 9SM CLR 06/M08 A3038 RMK AO2 T00591085
2026-04-21 14:15:00,METAR KMQS 211415Z AUTO VRB03KT 10SM CLR 05/M09 A3039 RMK AO2 T00531089
2026-04-21 13:55:00,METAR KMQS 211355Z AUTO VRB03KT 10SM CLR 04/M09 A3040 RMK AO2 T00421091
2026-04-21 13:35:00,METAR KMQS 211335Z AUTO 00000KT 9SM CLR 04/M09 A3040 RMK AO2 T00391088
2026-04-21 13:15:00,METAR KMQS 211315Z AUTO 00000KT 9SM CLR 03/M09 A3041 RMK AO2 T00341089
2026-04-21 12:55:00,METAR KMQS 211255Z AUTO VRB03KT 10SM CLR 03/M08 A3042 RMK AO2 T00341084
2026-04-21 12:35:00,METAR KMQS 211235Z AUTO 06004KT 10SM CLR 03/M08 A3042 RMK AO2 T00321084
2026-04-21 12:15:00,METAR KMQS 211215Z AUTO 06004KT 9SM CLR 03/M07 A3041 RMK AO2 T00251072
2026-04-21 11:55:00,METAR KMQS 211155Z AUTO 00000KT 10SM CLR 02/M06 A3041 RMK AO2 T00211055 10021 21014 53021
2026-04-21 11:35:00,METAR KMQS 211135Z AUTO 00000KT 10SM CLR 02/M06 A3040 RMK AO2 T00181056
2026-04-21 11:15:00,METAR KMQS 211115Z AUTO 00000KT 9SM CLR 01/M05 A3040 RMK AO2 T00051051
2026-04-21 10:55:00,METAR KMQS 211055Z AUTO 00000KT 9SM CLR M01/M06 A3039 RMK AO2 T10081055
2026-04-21 10:35:00,METAR KMQS 211035Z AUTO 02003KT 9SM CLR M01/M06 A3038 RMK AO2 T10101057
2026-04-21 10:15:00,METAR KMQS 211015Z AUTO 00000KT 10SM CLR M01/M06 A3038 RMK AO2 T10101057
2026-04-21 09:55:00,METAR KMQS 210955Z AUTO 00000KT 10SM CLR M01/M06 A3036 RMK AO2 T10061061
2026-04-21 09:35:00,METAR KMQS 210935Z AUTO 00000KT 10SM CLR M01/M05 A3035 RMK AO2 T10131054
2026-04-21 09:15:00,METAR KMQS 210915Z AUTO 00000KT 10SM CLR M01/M05 A3035 RMK AO2 T10111054
2026-04-21 08:55:00,METAR KMQS 210855Z AUTO 00000KT 9SM CLR M01/M05 A3035 RMK AO2 T10081054 53002
2026-04-21 08:35:00,METAR KMQS 210835Z AUTO 00000KT 10SM CLR M01/M06 A3035 RMK AO2 T10071062
2026-04-21 08:15:00,METAR KMQS 210815Z AUTO 00000KT 10SM CLR M00/M07 A3034 RMK AO2 T10021066
2026-04-21 07:55:00,METAR KMQS 210755Z AUTO 00000KT 10SM CLR M00/M07 A3034 RMK AO2 T10001067
2026-04-21 07:35:00,METAR KMQS 210735Z AUTO 00000KT 10SM CLR M00/M07 A3034 RMK AO2 T10021066
2026-04-21 07:15:00,METAR KMQS 210715Z AUTO 00000KT 10SM CLR M00/M07 A3033 RMK AO2 T10001067
2026-04-21 06:55:00,METAR KMQS 210655Z AUTO 04003KT 10SM CLR 00/M07 A3034 RMK AO2 T00031072
2026-04-21 06:35:00,METAR KMQS 210635Z AUTO 03003KT 10SM CLR 00/M07 A3034 RMK AO2 T00041074
2026-04-21 06:15:00,METAR KMQS 210615Z AUTO 03004KT 10SM CLR 01/M07 A3034 RMK AO2 T00061074
2026-04-21 05:55:00,METAR KMQS 210555Z AUTO 02004KT 10SM CLR 01/M07 A3034 RMK AO2 T00081074 10061 20006 401110006 53008
2026-04-21 05:35:00,METAR KMQS 210535Z AUTO 03004KT 10SM CLR 01/M08 A3034 RMK AO2 T00101078
2026-04-21 05:15:00,METAR KMQS 210515Z AUTO 02003KT 10SM CLR 01/M07 A3034 RMK AO2 T00081071
2026-04-21 04:55:00,METAR KMQS 210455Z AUTO 01003KT 10SM CLR 02/M08 A3034 RMK AO2 T00171076
2026-04-21 04:35:00,METAR KMQS 210435Z AUTO 03004KT 10SM CLR 02/M08 A3033 RMK AO2 T00191081
2026-04-21 04:15:00,METAR KMQS 210415Z AUTO 04003KT 10SM CLR 02/M08 A3033 RMK AO2 T00231082
2026-04-21 03:55:00,METAR KMQS 210355Z AUTO 04003KT 10SM CLR 03/M08 A3032 RMK AO2 T00271082
2026-04-21 03:35:00,METAR KMQS 210335Z AUTO 01003KT 10SM CLR 02/M08 A3033 RMK AO2 T00231077
2026-04-21 03:15:00,METAR KMQS 210315Z AUTO 33003KT 10SM CLR 02/M07 A3033 RMK AO2 T00171070
2026-04-21 02:55:00,METAR KMQS 210255Z AUTO 34003KT 10SM CLR 03/M07 A3032 RMK AO2 T00301074 51022
2026-04-21 02:35:00,METAR KMQS 210235Z AUTO 36003KT 10SM CLR 03/M07 A3031 RMK AO2 T00311070
2026-04-21 02:15:00,METAR KMQS 210215Z AUTO 34003KT 10SM CLR 03/M07 A3031 RMK AO2 T00301072
2026-04-21 01:55:00,METAR KMQS 210155Z AUTO 33005KT 10SM CLR 04/M08 A3030 RMK AO2 T00391075
2026-04-21 01:35:00,METAR KMQS 210135Z AUTO 34003KT 10SM CLR 04/M07 A3030 RMK AO2 T00401074
2026-04-21 01:15:00,METAR KMQS 210115Z AUTO 33005KT 10SM CLR 04/M07 A3030 RMK AO2 T00421073
2026-04-21 00:55:00,METAR KMQS 210055Z AUTO 34006KT 10SM FEW070 05/M07 A3028 RMK AO2 T00461073
2026-04-21 00:35:00,METAR KMQS 210035Z AUTO 36005KT 10SM SCT070 05/M08 A3027 RMK AO2 T00511075
2026-04-21 00:15:00,METAR KMQS 210015Z AUTO 34009KT 10SM BKN075 06/M08 A3027 RMK AO2 T00581082
2026-04-20 23:55:00,METAR KMQS 202355Z AUTO 33007KT 10SM BKN080 06/M09 A3025 RMK AO2 T00641088 10111 20064 51023
2026-04-20 23:35:00,METAR KMQS 202335Z AUTO 33010KT 10SM OVC075 07/M09 A3025 RMK AO2 T00681092
2026-04-20 23:15:00,METAR KMQS 202315Z AUTO 32008G17KT 10SM BKN065 OVC080 07/M08 A3024 RMK AO2 T00721081
2026-04-20 22:55:00,METAR KMQS 202255Z AUTO 34008KT 10SM BKN075 07/M09 A3023 RMK AO2 T00741089
2026-04-20 22:35:00,METAR KMQS 202235Z AUTO 32011KT 10SM BKN075 BKN085 08/M09 A3023 RMK AO2 T00831086
2026-04-20 22:15:00,METAR KMQS 202215Z AUTO 34014G18KT 10SM BKN070 OVC080 09/M08 A3022 RMK AO2 T00901080
2026-04-20 21:55:00,METAR KMQS 202155Z AUTO 33012G18KT 10SM BKN075 08/M08 A3021 RMK AO2 T00841082
2026-04-20 21:35:00,METAR KMQS 202135Z AUTO 31013KT 10SM BKN075 09/M07 A3020 RMK AO2 T00921073
2026-04-20 21:15:00,METAR KMQS 202115Z AUTO 32011G20KT 10SM BKN075 10/M07 A3019 RMK AO2 T00951072
2026-04-20 20:55:00,METAR KMQS 202055Z AUTO 33014G18KT 10SM OVC070 09/M07 A3018 RMK AO2 T00851072 53005
2026-04-20 20:35:00,METAR KMQS 202035Z AUTO 34015G22KT 10SM BKN070 OVC080 10/M07 A3017 RMK AO2 T00991067
2026-04-20 19:55:00,METAR KMQS 201955Z AUTO 32016G23KT 10SM BKN070 10/M06 A3017 RMK AO2 T01001058
2026-04-20 19:35:00,METAR KMQS 201935Z AUTO 32016KT 10SM BKN075 10/M06 A3017 RMK AO2 T01041063
2026-04-20 19:15:00,METAR KMQS 201915Z AUTO 30016G21KT 10SM SCT075 11/M07 A3017 RMK AO2 T01061068
2026-04-20 18:55:00,METAR KMQS 201855Z AUTO 32018G23KT 10SM BKN065 09/M06 A3017 RMK AO2 WSHFT 1747 T00921055
2026-04-20 18:35:00,METAR KMQS 201835Z AUTO 32016G22KT 10SM SCT065 10/M05 A3016 RMK AO2 WSHFT 1747 T01031047
2026-04-20 18:15:00,METAR KMQS 201815Z AUTO 32017G22KT 10SM SCT060 11/M04 A3016 RMK AO2 WSHFT 1747 T01111036
2026-04-20 17:55:00,METAR KMQS 201755Z AUTO 30015G25KT 10SM BKN049 BKN060 BKN080 09/M05 A3017 RMK AO2 T00861047 10103 20051 58002
2026-04-20 17:35:00,METAR KMQS 201735Z AUTO 34012G18KT 300V360 10SM SCT049 BKN065 10/M02 A3017 RMK AO2 T00961023
2026-04-20 17:15:00,METAR KMQS 201715Z AUTO 31013KT 10SM BKN060 BKN070 08/M02 A3017 RMK AO2 T00851025
2026-04-20 16:55:00,METAR KMQS 201655Z AUTO 32014G18KT 10SM SCT048 BKN070 09/M01 A3017 RMK AO2 T00911015
2026-04-20 16:35:00,METAR KMQS 201635Z AUTO 30015G19KT 10SM SCT050 10/M02 A3017 RMK AO2 T01001023
2026-04-20 16:15:00,METAR KMQS 201615Z AUTO 31016G21KT 10SM FEW045 SCT055 BKN100 10/M02 A3017 RMK AO2 T00961017
2026-04-20 15:55:00,METAR KMQS 201555Z AUTO 31013G22KT 10SM SCT044 SCT055 09/M01 A3017 RMK AO2 T00941008
2026-04-20 15:35:00,METAR KMQS 201535Z AUTO 32011G18KT 10SM SCT041 09/M01 A3017 RMK AO2 T00911009
2026-04-20 15:15:00,METAR KMQS 201515Z AUTO 31012G21KT 10SM SCT032 SCT046 09/00 A3017 RMK AO2 T00920000
2026-04-20 14:55:00,METAR KMQS 201455Z AUTO 32011KT 10SM BKN032 08/01 A3017 RMK AO2 T00790008 51010
2026-04-20 14:35:00,METAR KMQS 201435Z AUTO 32011KT 10SM BKN028 07/00 A3018 RMK AO2 BKN V SCT T00740002
2026-04-20 14:15:00,METAR KMQS 201415Z AUTO 34011KT 10SM FEW027 08/01 A3017 RMK AO2 T00800014
2026-04-20 13:55:00,METAR KMQS 201355Z AUTO 34011KT 10SM FEW026 07/01 A3017 RMK AO2 T00740013
2026-04-20 13:35:00,METAR KMQS 201335Z AUTO 36008KT 9SM CLR 07/02 A3017 RMK AO2 T00700016
2026-04-20 13:15:00,METAR KMQS 201315Z AUTO 34011KT 10SM FEW048 07/01 A3016 RMK AO2 T00680008
2026-04-20 12:55:00,METAR KMQS 201255Z AUTO 34011KT 10SM CLR 06/01 A3016 RMK AO2 RAE1151 T00590010
2026-04-20 12:35:00,METAR KMQS 201235Z AUTO 32013G17KT 10SM FEW055 06/01 A3016 RMK AO2 RAE1151 T00610014
2026-04-20 12:15:00,METAR KMQS 201215Z AUTO 33010KT 10SM BKN055 BKN075 06/02 A3016 RMK AO2 RAE1151 T00570021
2026-04-20 11:55:00,METAR KMQS 201155Z AUTO 33009KT 9SM -RA BKN046 BKN060 05/01 A3014 RMK AO2 RAB1116E1125B1142 P0000 60000 70018 T00520009 10058 20018 53015
2026-04-20 11:35:00,METAR KMQS 201135Z AUTO 32011KT 9SM FEW040 OVC050 06/00 A3014 RMK AO2 RAB1116E1125 P0000 T00570002
2026-04-20 11:15:00,METAR KMQS 201115Z AUTO 31010KT 8SM SCT040 BKN047 BKN055 OVC070 05/01 A3013 RMK AO2 T00510009
2026-04-20 10:55:00,METAR KMQS 201055Z AUTO 28006KT 9SM BKN075 BKN095 04/01 A3012 RMK AO2 T00370008
2026-04-20 10:35:00,METAR KMQS 201035Z AUTO 29005KT 9SM SCT055 BKN085 04/M01 A3012 RMK AO2 T00401005
2026-04-20 10:15:00,METAR KMQS 201015Z AUTO 31005KT 9SM BKN060 03/00 A3011 RMK AO2 T00250001
2026-04-20 09:55:00,METAR KMQS 200955Z AUTO 30005KT 10SM OVC065 02/M00 A3011 RMK AO2 T00231003
2026-04-20 09:35:00,METAR KMQS 200935Z AUTO 28005KT 10SM BKN065 03/M01 A3011 RMK AO2 T00261005
2026-04-20 09:15:00,METAR KMQS 200915Z AUTO 29004KT 10SM BKN065 03/M01 A3010 RMK AO2 T00271010
2026-04-20 08:55:00,METAR KMQS 200855Z AUTO 30004KT 10SM CLR 02/M01 A3010 RMK AO2 T00241013 56002
2026-04-20 08:35:00,METAR KMQS 200835Z AUTO 29005KT 10SM CLR 02/M01 A3011 RMK AO2 T00241014
2026-04-20 08:15:00,METAR KMQS 200815Z AUTO 28005KT 10SM CLR 04/M02 A3010 RMK AO2 T00371018
2026-04-20 07:55:00,METAR KMQS 200755Z AUTO 29005KT 10SM FEW120 03/M02 A3010 RMK AO2 T00271016
2026-04-20 07:35:00,METAR KMQS 200735Z AUTO 29006KT 10SM FEW065 03/M02 A3010 RMK AO2 T00351017
2026-04-20 07:15:00,METAR KMQS 200715Z AUTO 29006KT 10SM SCT070 SCT080 04/M02 A3010 RMK AO2 T00411016
2026-04-20 06:55:00,METAR KMQS 200655Z AUTO 28007KT 10SM BKN075 03/M02 A3010 RMK AO2 T00261020
2026-04-20 06:35:00,METAR KMQS 200635Z AUTO 28005KT 10SM SCT075 03/M03 A3010 RMK AO2 T00331028
2026-04-20 06:15:00,METAR KMQS 200615Z AUTO 27004KT 10SM FEW080 05/M04 A3009 RMK AO2 T00471037
2026-04-20 05:55:00,METAR KMQS 200555Z AUTO 27004KT 10SM FEW080 03/M02 A3011 RMK AO2 T00271020 10088 20027 401230027 50003
2026-04-20 05:35:00,METAR KMQS 200535Z AUTO 27005KT 10SM SCT080 05/M04 A3011 RMK AO2 T00501040
2026-04-20 05:15:00,METAR KMQS 200515Z AUTO 28003KT 10SM FEW080 SCT100 04/M04 A3010 RMK AO2 T00411037
2026-04-20 04:55:00,METAR KMQS 200455Z AUTO 29004KT 10SM SCT100 04/M04 A3011 RMK AO2 T00421039
2026-04-20 04:35:00,METAR KMQS 200435Z AUTO 30004KT 10SM CLR 04/M04 A3011 RMK AO2 T00441041
2026-04-20 04:15:00,METAR KMQS 200415Z AUTO 30005KT 10SM CLR 04/M04 A3011 RMK AO2 T00381037
2026-04-20 03:55:00,METAR KMQS 200355Z AUTO 31006KT 10SM CLR 05/M04 A3010 RMK AO2 T00491044
2026-04-20 03:35:00,METAR KMQS 200335Z AUTO 31009KT 10SM CLR 06/M05 A3010 RMK AO2 T00621051
2026-04-20 03:15:00,METAR KMQS 200315Z AUTO 32010KT 10SM CLR 06/M05 A3010 RMK AO2 T00641051
2026-04-20 02:55:00,METAR KMQS 200255Z AUTO 31008KT 10SM CLR 04/M04 A3010 RMK AO2 T00391038 51025
2026-04-20 02:35:00,METAR KMQS 200235Z AUTO 30005KT 10SM CLR 05/M04 A3010 RMK AO2 T00451036
2026-04-20 02:15:00,METAR KMQS 200215Z AUTO 30005KT 10SM CLR 05/M04 A3010 RMK AO2 T00451038
2026-04-20 01:55:00,METAR KMQS 200155Z AUTO 29007KT 10SM CLR 05/M04 A3009 RMK AO2 T00481037
2026-04-20 01:35:00,METAR KMQS 200135Z AUTO 30009KT 10SM CLR 05/M03 A3008 RMK AO2 T00521035
2026-04-20 01:15:00,METAR KMQS 200115Z AUTO 30008KT 10SM CLR 05/M03 A3008 RMK AO2 T00531030
2026-04-20 00:55:00,METAR KMQS 200055Z AUTO 30008KT 10SM CLR 06/M02 A3006 RMK AO2 T00631024
2026-04-20 00:35:00,METAR KMQS 200035Z AUTO 28005KT 10SM CLR 07/M02 A3005 RMK AO2 T00651022
2026-04-20 00:15:00,METAR KMQS 200015Z AUTO 31008KT 10SM CLR 08/M03 A3004 RMK AO2 T00821031
2026-04-19 23:55:00,METAR KMQS 192355Z AUTO 32010G16KT 10SM CLR 09/M03 A3002 RMK AO2 T00901032 10122 20082 53024
2026-04-19 23:35:00,METAR KMQS 192335Z AUTO 31013KT 10SM CLR 09/M03 A3001 RMK AO2 T00941027
2026-04-19 23:15:00,METAR KMQS 192315Z AUTO 32013G22KT 10SM CLR 10/M02 A3000 RMK AO2 T00991019
2026-04-19 22:55:00,METAR KMQS 192255Z AUTO 30015KT 10SM CLR 10/M00 A2999 RMK AO2 T01021002
2026-04-19 22:35:00,METAR KMQS 192235Z AUTO 31012KT 10SM CLR 10/01 A2998 RMK AO2 T01040006
2026-04-19 22:15:00,METAR KMQS 192215Z AUTO 30015KT 10SM FEW085 10/M00 A2998 RMK AO2 T01021000
2026-04-19 21:55:00,METAR KMQS 192155Z AUTO 31018G23KT 10SM FEW045 BKN080 10/M01 A2997 RMK AO2 T01041009
2026-04-19 21:35:00,METAR KMQS 192135Z AUTO 30019KT 10SM FEW080 10/02 A2997 RMK AO2 T01020015
2026-04-19 21:15:00,METAR KMQS 192115Z AUTO 30014G18KT 10SM SCT065 11/02 A2995 RMK AO2 T01110018
2026-04-19 20:55:00,METAR KMQS 192055Z AUTO 30012KT 10SM BKN048 OVC060 10/01 A2995 RMK AO2 T01000015 55000
2026-04-19 20:35:00,METAR KMQS 192035Z AUTO 31016KT 10SM OVC047 10/01 A2995 RMK AO2 T00990008
2026-04-19 20:15:00,METAR KMQS 192015Z AUTO 32013G19KT 10SM BKN046 OVC060 11/02 A2993 RMK AO2 T01110016
2026-04-19 19:55:00,METAR KMQS 191955Z AUTO 31016G22KT 10SM SCT047 BKN060 11/02 A2993 RMK AO2 T01130018
2026-04-19 19:35:00,METAR KMQS 191935Z AUTO 32015KT 10SM BKN047 BKN060 11/01 A2993 RMK AO2 T01050013
2026-04-19 19:15:00,METAR KMQS 191915Z AUTO 32016G21KT 10SM SCT036 BKN048 OVC055 10/02 A2993 RMK AO2 T01050023
2026-04-19 18:55:00,METAR KMQS 191855Z AUTO 33015KT 10SM SCT028 BKN035 OVC045 11/05 A2993 RMK AO2 T01090049
2026-04-19 18:35:00,METAR KMQS 191835Z AUTO 33010KT 10SM SCT027 BKN034 OVC045 10/06 A2993 RMK AO2 T00960056
2026-04-19 18:15:00,METAR KMQS 191815Z AUTO 30011KT 10SM FEW018 SCT024 BKN031 BKN040 BKN048 OVC110 09/07 A2995 RMK AO2 FEW V SCT T00920069
2026-04-19 17:55:00,METAR KMQS 191755Z AUTO 29010KT 10SM FEW026 SCT065 BKN090 OVC100 08/07 A2995 RMK AO2 60018 T00790065 10100 20064 53012
2026-04-19 17:35:00,METAR KMQS 191735Z AUTO 29010KT 10SM FEW037 SCT080 OVC100 08/06 A2995 RMK AO2 T00750063
2026-04-19 17:15:00,METAR KMQS 191715Z AUTO 29009KT 10SM FEW036 SCT065 OVC080 07/06 A2995 RMK AO2 T00720059
2026-04-19 16:55:00,METAR KMQS 191655Z AUTO 31007KT 10SM FEW025 SCT060 OVC085 07/06 A2993 RMK AO2 RAE1647 P0001 T00670057
2026-04-19 16:35:00,METAR KMQS 191635Z AUTO 31008KT 10SM -RA FEW026 SCT040 BKN060 OVC080 07/06 A2992 RMK AO2 P0001 T00660057
2026-04-19 16:15:00,METAR KMQS 191615Z AUTO 31009KT 9SM -RA FEW039 BKN065 BKN080 07/06 A2994 RMK AO2 P0000 T00650059
2026-04-19 15:55:00,METAR KMQS 191555Z AUTO 31011KT 7SM -RA FEW021 BKN045 BKN055 OVC070 07/06 A2992 RMK AO2 P0006 T00660061
2026-04-19 15:35:00,METAR KMQS 191535Z AUTO 32010KT 7SM -RA FEW048 BKN060 OVC075 07/06 A2994 RMK AO2 P0005 T00670059
2026-04-19 15:15:00,METAR KMQS 191515Z AUTO 35015G19KT 2SM RA BR OVC070 07/06 A2990 RMK AO2 P0003 T00660058
2026-04-19 14:55:00,METAR KMQS 191455Z AUTO 33018G27KT 1SM RA BR FEW014 BKN021 BKN060 OVC075 07/06 A2991 RMK AO2 PK WND 34027/1447 WSHFT 1415 BKN021 V SCT P0007 60011 T00720060 50028
2026-04-19 14:35:00,METAR KMQS 191435Z AUTO 33016G26KT 3/4SM -RA BR BKN014 BKN022 OVC050 08/07 A2992 RMK AO2 PK WND 33026/1427 WSHFT 1415 P0006 T00780073
2026-04-19 14:15:00,METAR KMQS 191415Z AUTO 32011G18KT 6SM -RA BR FEW012 SCT019 OVC065 08/07 A2992 RMK AO2 WSHFT 1403 FEW V SCT P0001 T00770075
2026-04-19 13:55:00,METAR KMQS 191355Z AUTO 32015G21KT 1 1/4SM RA BR FEW015 BKN041 OVC060 08/07 A2993 RMK AO2 PK WND 32028/1300 RAB1251 P0004 T00770071
2026-04-19 13:35:00,METAR KMQS 191335Z AUTO 31011G20KT 7SM -RA FEW032 BKN040 OVC048 08/07 A2992 RMK AO2 PK WND 32028/1300 RAB1251 PRESRR P0001 T00810073
2026-04-19 13:15:00,METAR KMQS 191315Z AUTO 33015G25KT 1 1/2SM -RA BR BKN044 OVC055 08/07 A2989 RMK AO2 PK WND 32028/1300 RAB1251 P0001 T00810073
2026-04-19 12:55:00,METAR KMQS 191255Z AUTO 32017G24KT 10SM FEW017 OVC039 09/07 A2988 RMK AO2 PK WND 33029/1153 RAE1159DZB1159E1204 P0000 T00910074
2026-04-19 12:35:00,METAR KMQS 191235Z AUTO 33015G20KT 10SM BKN017 BKN023 OVC035 10/08 A2987 RMK AO2 PK WND 33029/1153 RAE1159DZB1159E1204 CIG 014V020 P0000 T00960080
2026-04-19 12:15:00,METAR KMQS 191215Z AUTO 33012G20KT 4SM BR BKN017 OVC024 10/09 A2986 RMK AO2 PK WND 33029/1153 RAE1159DZB1159E1204 CIG 013V020 P0000 T01000092
2026-04-19 11:55:00,METAR KMQS 191155Z AUTO 33018G26KT 1/4SM -RA FG SCT005 SCT011 OVC018 10/10 A2983 RMK AO2 PK WND 33027/1133 CIG 016V022 P0001 60001 70001 T01030099 10123 20103 53020
2026-04-19 11:35:00,METAR KMQS 191135Z AUTO 33020G27KT 1/4SM -RA FG BKN005 OVC019 11/11 A2982 RMK AO2 PK WND 33027/1133 CIG 004V006 P0001 T01110110
2026-04-19 11:15:00,METAR KMQS 191115Z AUTO 32007KT 1 3/4SM -RA BR OVC004 12/12 A2981 RMK AO2 CIG 004V006 P0000 T01190119
2026-04-19 10:55:00,METAR KMQS 191055Z AUTO 30007KT 3SM -RA BR OVC004 12/12 A2980 RMK AO2 RAB1043 P0000 T01170117
2026-04-19 10:35:00,METAR KMQS 191035Z AUTO 31004KT 4SM BR OVC004 11/11 A2978 RMK AO2 T01140114
2026-04-19 10:15:00,METAR KMQS 191015Z AUTO 00000KT 6SM BR OVC003 11/11 A2976 RMK AO2 T01120112
2026-04-19 09:55:00,METAR KMQS 190955Z AUTO 00000KT 7SM OVC003 11/11 A2976 RMK AO2 T01120112
2026-04-19 09:35:00,METAR KMQS 190935Z AUTO 00000KT 6SM BR OVC003 11/11 A2975 RMK AO2 T01120112
2026-04-19 09:15:00,METAR KMQS 190915Z AUTO 13003KT 6SM BR OVC003 11/11 A2975 RMK AO2 T01110111
2026-04-19 08:55:00,METAR KMQS 190855Z AUTO 13003KT 6SM BR OVC003 11/11 A2977 RMK AO2 RAE0804 P0000 60000 T01120112 56026
2026-04-19 08:35:00,METAR KMQS 190835Z AUTO 00000KT 6SM BR OVC003 11/11 A2977 RMK AO2 RAE0804 P0000 T01120112
2026-04-19 08:15:00,METAR KMQS 190815Z AUTO VRB03KT 6SM BR OVC004 11/11 A2978 RMK AO2 RAE0804 P0000 T01120112
2026-04-19 07:55:00,METAR KMQS 190755Z AUTO 12004KT 6SM -RA BR OVC005 11/11 A2977 RMK AO2 RAB0740 P0000 T01140114
2026-04-19 07:35:00,METAR KMQS 190735Z AUTO 12004KT 8SM OVC005 11/11 A2978 RMK AO2 T01150115
2026-04-19 07:15:00,METAR KMQS 190715Z AUTO 13005KT 9SM OVC005 12/12 A2979 RMK AO2 CIG 005V007 T01160116
2026-04-19 06:55:00,METAR KMQS 190655Z AUTO 14004KT 10SM SCT006 OVC090 12/12 A2980 RMK AO2 T01180118
2026-04-19 06:35:00,METAR KMQS 190635Z AUTO 12003KT 10SM SCT006 OVC085 12/12 A2982 RMK AO2 T01200120
2026-04-19 06:15:00,METAR KMQS 190615Z AUTO 13004KT 10SM OVC085 12/12 A2983 RMK AO2 T01210121
2026-04-19 05:55:00,METAR KMQS 190555Z AUTO 13005KT 10SM BKN090 12/12 A2985 RMK AO2 T01240121 10155 20122 402250122 58009
2026-04-19 05:35:00,METAR KMQS 190535Z AUTO 14004KT 10SM SCT009 OVC090 12/12 A2985 RMK AO2 T01240122
2026-04-19 05:15:00,METAR KMQS 190515Z AUTO 00000KT 10SM OVC008 12/12 A2988 RMK AO2 CIG 008V011 T01240122
2026-04-19 04:55:00,METAR KMQS 190455Z AUTO 00000KT 10SM OVC008 12/12 A2989 RMK AO2 CIG 007V010 T01240121
2026-04-19 04:35:00,METAR KMQS 190435Z AUTO 27004KT 10SM OVC007 12/12 A2990 RMK AO2 CIG 006V010 T01230122
2026-04-19 04:15:00,METAR KMQS 190415Z AUTO 00000KT 10SM OVC007 12/12 A2990 RMK AO2 CIG 006V008 T01220121
2026-04-19 03:55:00,METAR KMQS 190355Z AUTO VRB06KT 10SM OVC006 12/12 A2986 RMK AO2 CIG 006V009 T01220120
2026-04-19 03:35:00,METAR KMQS 190335Z AUTO 16006KT 10SM OVC006 12/12 A2986 RMK AO2 CIG 006V009 T01230123
2026-04-19 03:15:00,METAR KMQS 190315Z AUTO 14007KT 10SM OVC006 12/12 A2986 RMK AO2 T01230123
2026-04-19 02:55:00,METAR KMQS 190255Z AUTO 15008KT 10SM OVC006 13/13 A2987 RMK AO2 CIG 005V009 T01270127 58006
2026-04-19 02:35:00,METAR KMQS 190235Z AUTO 15006KT 10SM OVC007 13/13 A2987 RMK AO2 CIG 006V010 T01280126
2026-04-19 02:15:00,METAR KMQS 190215Z AUTO 15007KT 110V170 10SM OVC007 13/13 A2988 RMK AO2 CIG 006V008 T01300128
2026-04-19 01:55:00,METAR KMQS 190155Z AUTO 15010G16KT 120V180 10SM OVC008 13/13 A2988 RMK AO2 CIG 007V009 T01340129
2026-04-19 01:35:00,METAR KMQS 190135Z AUTO 14011G17KT 10SM OVC008 14/13 A2988 RMK AO2 T01370131
2026-04-19 01:15:00,METAR KMQS 190115Z AUTO 15006KT 10SM OVC008 14/13 A2988 RMK AO2 CIG 008V010 T01380132
2026-04-19 00:55:00,METAR KMQS 190055Z AUTO 15008KT 10SM OVC010 14/13 A2989 RMK AO2 CIG 009V013 T01410133
2026-04-19 00:35:00,METAR KMQS 190035Z AUTO VRB06KT 9SM BKN012 OVC220 14/13 A2989 RMK AO2 T01450135
2026-04-19 00:15:00,METAR KMQS 190015Z AUTO 15006KT 9SM BKN210 15/14 A2989 RMK AO2 T01510137
2026-04-18 23:55:00,METAR KMQS 182355Z AUTO VRB05KT 8SM SCT210 16/14 A2989 RMK AO2 T01580138 10225 20158 56005
2026-04-18 23:35:00,METAR KMQS 182335Z AUTO 16009KT 6SM HZ CLR 16/14 A2989 RMK AO2 T01620139
2026-04-18 23:15:00,METAR KMQS 182315Z AUTO 16007KT 8SM FEW220 17/14 A2990 RMK AO2 T01700142
2026-04-18 22:55:00,METAR KMQS 182255Z AUTO VRB06KT 9SM BKN190 18/14 A2990 RMK AO2 T01790143
2026-04-18 22:35:00,METAR KMQS 182235Z AUTO 14008KT 9SM BKN190 18/14 A2989 RMK AO2 T01840144
2026-04-18 22:15:00,METAR KMQS 182215Z AUTO VRB06KT 9SM BKN180 19/15 A2990 RMK AO2 T01940146
2026-04-18 21:55:00,METAR KMQS 182155Z AUTO VRB05KT 9SM CLR 21/15 A2989 RMK AO2 T02060151
2026-04-18 21:35:00,METAR KMQS 182135Z AUTO 16007KT 120V200 9SM FEW290 20/15 A2990 RMK AO2 T02050152
2026-04-18 21:15:00,METAR KMQS 182115Z AUTO 15007G15KT 9SM FEW230 20/15 A2990 RMK AO2 T02050152
2026-04-18 20:55:00,METAR KMQS 182055Z AUTO 15007KT 9SM BKN200 BKN280 21/15 A2991 RMK AO2 T02150150 58028
2026-04-18 20:35:00,METAR KMQS 182035Z AUTO 16006G15KT 080V210 9SM BKN200 21/15 A2991 RMK AO2 T02090146
2026-04-18 20:15:00,METAR KMQS 182015Z AUTO 15007KT 120V180 8SM SCT190 BKN210 21/15 A2992 RMK AO2 T02110145
2026-04-18 19:55:00,METAR KMQS 181955Z AUTO 17007KT 120V220 9SM SCT190 22/15 A2993 RMK AO2 T02220151
2026-04-18 19:35:00,METAR KMQS 181935Z AUTO VRB06KT 8SM CLR 22/15 A2994 RMK AO2 T02220148
2026-04-18 19:15:00,METAR KMQS 181915Z AUTO 15007KT 100V190 9SM SCT210 22/15 A2995 RMK AO2 T02230152
2026-04-18 18:55:00,METAR KMQS 181855Z AUTO 19009KT 8SM CLR 22/15 A2997 RMK AO2 T02170151
2026-04-18 18:35:00,METAR KMQS 181835Z AUTO 13009KT 090V190 8SM CLR 21/15 A2997 RMK AO2 T02100153
2026-04-18 18:15:00,METAR KMQS 181815Z AUTO VRB06KT 8SM CLR 21/15 A2998 RMK AO2 T02080151
2026-04-18 17:55:00,METAR KMQS 181755Z AUTO 14010KT 8SM FEW019 20/15 A2999 RMK AO2 T02040152 10205 20137 58013
2026-04-18 17:35:00,METAR KMQS 181735Z AUTO 15008KT 110V200 8SM SCT019 19/15 A2999 RMK AO2 T01920150
2026-04-18 17:15:00,METAR KMQS 181715Z AUTO 15008KT 9SM BKN016 19/15 A3000 RMK AO2 T01870148
2026-04-18 16:55:00,METAR KMQS 181655Z AUTO VRB06KT 8SM BKN014 18/15 A3001 RMK AO2 BKN V OVC T01840149
2026-04-18 16:35:00,METAR KMQS 181635Z AUTO 12011KT 8SM OVC013 17/14 A3002 RMK AO2 T01730145
2026-04-18 16:15:00,METAR KMQS 181615Z AUTO VRB06KT 8SM OVC012 17/14 A3002 RMK AO2 T01670143
2026-04-18 15:55:00,METAR KMQS 181555Z AUTO 11008KT 8SM OVC011 16/14 A3003 RMK AO2 T01640143
2026-04-18 15:15:00,METAR KMQS 181515Z AUTO 11008KT 8SM OVC009 16/14 A3003 RMK AO2 CIG 008V011 T01570143
2026-04-18 14:55:00,METAR KMQS 181455Z AUTO 11007KT 8SM OVC008 15/14 A3003 RMK AO2 CIG 007V009 T01550143 58001
2026-04-18 14:35:00,METAR KMQS 181435Z AUTO 12006KT 8SM OVC008 15/14 A3004 RMK AO2 CIG 007V009 T01510142
2026-04-18 14:15:00,METAR KMQS 181415Z AUTO 13006KT 8SM OVC007 15/14 A3004 RMK AO2 T01470142
2026-04-18 13:55:00,METAR KMQS 181355Z AUTO 14004KT 6SM BR OVC006 14/14 A3004 RMK AO2 CIG 005V007 T01440141
2026-04-18 13:35:00,METAR KMQS 181335Z AUTO 09007KT 6SM BR OVC005 15/14 A3004 RMK AO2 T01460144
2026-04-18 13:15:00,METAR KMQS 181315Z AUTO 09006KT 5SM BR OVC005 14/14 A3004 RMK AO2 T01420142
2026-04-18 12:55:00,METAR KMQS 181255Z AUTO 12005KT 4SM BR OVC004 14/14 A3004 RMK AO2 CIG 003V005 T01430143
2026-04-18 12:35:00,METAR KMQS 181235Z AUTO 11006KT 4SM BR OVC004 14/14 A3003 RMK AO2 T01400140
2026-04-18 12:15:00,METAR KMQS 181215Z AUTO 12007KT 4SM BR OVC003 14/14 A3003 RMK AO2 T01380138
2026-04-18 11:55:00,METAR KMQS 181155Z AUTO 10006KT 3SM BR OVC003 14/14 A3003 RMK AO2 T01360136 10171 20133 53009
2026-04-18 11:35:00,METAR KMQS 181135Z AUTO 11006KT 3SM BR OVC003 13/13 A3003 RMK AO2 T01350135
2026-04-18 11:15:00,METAR KMQS 181115Z AUTO 11007KT 3SM BR OVC003 13/13 A3003 RMK AO2 T01340134
2026-04-18 10:55:00,METAR KMQS 181055Z AUTO 12007KT 4SM BR OVC004 13/13 A3002 RMK AO2 CIG 003V005 T01340134
2026-04-18 10:35:00,METAR KMQS 181035Z AUTO 10008KT 4SM BR OVC005 13/13 A3001 RMK AO2 T01350135
2026-04-18 10:15:00,METAR KMQS 181015Z AUTO 10007KT 5SM BR OVC005 14/14 A3001 RMK AO2 CIG 004V006 T01350135
2026-04-18 09:55:00,METAR KMQS 180955Z AUTO 10006KT 7SM OVC006 14/14 A3000 RMK AO2 T01370137
2026-04-18 09:35:00,METAR KMQS 180935Z AUTO 08007KT 8SM BKN007 14/14 A3001 RMK AO2 T01370137
2026-04-18 09:15:00,METAR KMQS 180915Z AUTO 10004KT 9SM CLR 14/14 A3000 RMK AO2 T01390139
2026-04-18 08:55:00,METAR KMQS 180855Z AUTO 09006KT 9SM CLR 14/14 A3001 RMK AO2 T01440142 50004
2026-04-18 08:35:00,METAR KMQS 180835Z AUTO 08005KT 9SM CLR 15/14 A3001 RMK AO2 T01470143
2026-04-18 08:15:00,METAR KMQS 180815Z AUTO 07004KT 10SM CLR 15/14 A3001 RMK AO2 T01480141
2026-04-18 07:55:00,METAR KMQS 180755Z AUTO 08003KT 10SM CLR 15/14 A3001 RMK AO2 T01550143
2026-04-18 07:35:00,METAR KMQS 180735Z AUTO 10006KT 10SM CLR 14/14 A3001 RMK AO2 T01440136
2026-04-18 07:15:00,METAR KMQS 180715Z AUTO 08004KT 10SM CLR 16/14 A3001 RMK AO2 T01550140
2026-04-18 06:55:00,METAR KMQS 180655Z AUTO 00000KT 10SM CLR 16/14 A3001 RMK AO2 T01590139
2026-04-18 06:35:00,METAR KMQS 180635Z AUTO 00000KT 10SM CLR 16/14 A3001 RMK AO2 T01580138
2026-04-18 06:15:00,METAR KMQS 180615Z AUTO 04004KT 10SM CLR 16/14 A3001 RMK AO2 T01630139
2026-04-18 05:55:00,METAR KMQS 180555Z AUTO 06005KT 10SM CLR 17/14 A2999 RMK AO2 T01700139 10210 20155 402480153 50008
2026-04-18 05:35:00,METAR KMQS 180535Z AUTO 07005KT 10SM CLR 17/14 A2999 RMK AO2 T01720137
2026-04-18 05:15:00,METAR KMQS 180515Z AUTO 07005KT 10SM CLR 18/14 A3000 RMK AO2 T01750137
2026-04-18 04:55:00,METAR KMQS 180455Z AUTO 00000KT 10SM CLR 17/14 A3000 RMK AO2 T01720137
2026-04-18 04:35:00,METAR KMQS 180435Z AUTO 03003KT 10SM CLR 17/14 A2999 RMK AO2 T01710136
2026-04-18 04:15:00,METAR KMQS 180415Z AUTO 04003KT 10SM CLR 18/14 A2998 RMK AO2 T01780136
2026-04-18 03:55:00,METAR KMQS 180355Z AUTO 32004KT 10SM CLR 16/13 A2999 RMK AO2 T01580135
2026-04-18 03:35:00,METAR KMQS 180335Z AUTO 32004KT 10SM CLR 17/13 A2998 RMK AO2 T01730132
2026-04-18 03:15:00,METAR KMQS 180315Z AUTO 00000KT 10SM CLR 18/13 A2997 RMK AO2 T01760133
2026-04-18 02:55:00,METAR KMQS 180255Z AUTO 08003KT 10SM CLR 19/13 A2997 RMK AO2 T01890133 50006
2026-04-18 02:35:00,METAR KMQS 180235Z AUTO 00000KT 10SM CLR 19/13 A2997 RMK AO2 T01910132
2026-04-18 02:15:00,METAR KMQS 180215Z AUTO 05003KT 10SM CLR 19/13 A2997 RMK AO2 T01940130
2026-04-18 01:55:00,METAR KMQS 180155Z AUTO 04004KT 10SM CLR 20/13 A2997 RMK AO2 T01970128
2026-04-18 01:35:00,METAR KMQS 180135Z AUTO 02003KT 10SM CLR 20/13 A2998 RMK AO2 T01980126
2026-04-18 01:15:00,METAR KMQS 180115Z AUTO 35004KT 10SM CLR 20/13 A2997 RMK AO2 T01990126
2026-04-18 00:55:00,METAR KMQS 180055Z AUTO 33005KT 10SM CLR 20/13 A2997 RMK AO2 T02020125
2026-04-18 00:35:00,METAR KMQS 180035Z AUTO 33005KT 9SM CLR 20/13 A2996 RMK AO2 T02030126
2026-04-18 00:15:00,METAR KMQS 180015Z AUTO 33005KT 10SM CLR 21/13 A2996 RMK AO2 T02050125
2026-04-17 23:55:00,METAR KMQS 172355Z AUTO 34007KT 9SM CLR 21/12 A2995 RMK AO2 T02090124 10248 20209 53014
2026-04-17 23:35:00,METAR KMQS 172335Z AUTO 34007KT 10SM CLR 21/12 A2995 RMK AO2 T02140124
2026-04-17 23:15:00,METAR KMQS 172315Z AUTO 33008KT 10SM CLR 22/12 A2994 RMK AO2 T02220116
2026-04-17 22:55:00,METAR KMQS 172255Z AUTO 33009KT 10SM CLR 23/11 A2994 RMK AO2 T02300114
2026-04-17 22:35:00,METAR KMQS 172235Z AUTO 34008KT 10SM CLR 23/13 A2993 RMK AO2 T02350129
2026-04-17 22:15:00,METAR KMQS 172215Z AUTO 32010KT 10SM CLR 23/12 A2992 RMK AO2 T02350122
2026-04-17 21:55:00,METAR KMQS 172155Z AUTO 35010KT 10SM CLR 24/12 A2992 RMK AO2 T02380117
2026-04-17 21:35:00,METAR KMQS 172135Z AUTO 30011KT 10SM CLR 24/12 A2991 RMK AO2 T02370122
2026-04-17 21:15:00,METAR KMQS 172115Z AUTO 33011KT 10SM SCT100 24/13 A2991 RMK AO2 T02380127
2026-04-17 20:55:00,METAR KMQS 172055Z AUTO 30012KT 10SM BKN100 24/13 A2991 RMK AO2 T02410133 53001
2026-04-17 20:35:00,METAR KMQS 172035Z AUTO 32013KT 9SM FEW055 OVC100 24/13 A2990 RMK AO2 T02430131
2026-04-17 20:15:00,METAR KMQS 172015Z AUTO 31013G17KT 9SM SCT055 BKN070 OVC100 24/13 A2990 RMK AO2 T02360129
2026-04-17 19:55:00,METAR KMQS 171955Z AUTO 31013G22KT 9SM FEW055 SCT070 24/12 A2990 RMK AO2 T02370121
2026-04-17 19:35:00,METAR KMQS 171935Z AUTO 29013KT 9SM FEW050 25/13 A2989 RMK AO2 T02470131
2026-04-17 19:15:00,METAR KMQS 171915Z AUTO 30015G18KT 9SM SCT050 24/14 A2990 RMK AO2 T02420135
2026-04-17 18:55:00,METAR KMQS 171855Z AUTO 29012G18KT 9SM FEW060 SCT080 25/12 A2990 RMK AO2 T02450122
2026-04-17 18:35:00,METAR KMQS 171835Z AUTO 33009KT 9SM SCT060 BKN085 25/13 A2990 RMK AO2 T02460132
2026-04-17 18:15:00,METAR KMQS 171815Z AUTO 32011G17KT 9SM FEW044 BKN090 23/13 A2990 RMK AO2 T02350126
2026-04-17 17:55:00,METAR KMQS 171755Z AUTO 30012G16KT 9SM SCT044 SCT095 24/14 A2990 RMK AO2 T02370140 10239 20189 58003
2026-04-17 17:35:00,METAR KMQS 171735Z AUTO 31008KT 9SM SCT044 24/14 A2991 RMK AO2 T02370142
2026-04-17 17:15:00,METAR KMQS 171715Z AUTO 33006KT 9SM CLR 24/14 A2991 RMK AO2 T02370136
2026-04-17 16:55:00,METAR KMQS 171655Z AUTO 30009KT 9SM FEW042 SCT090 23/14 A2991 RMK AO2 T02330138
2026-04-17 16:35:00,METAR KMQS 171635Z AUTO 32008KT 10SM FEW042 SCT090 22/14 A2992 RMK AO2 T02180140
2026-04-17 16:15:00,METAR KMQS 171615Z AUTO 33009KT 10SM FEW038 SCT060 SCT100 22/14 A2992 RMK AO2 T02220136
2026-04-17 15:55:00,METAR KMQS 171555Z AUTO 30009KT 9SM FEW036 SCT048 SCT060 BKN080 21/15 A2993 RMK AO2 T02070149
2026-04-17 15:35:00,METAR KMQS 171535Z AUTO 31009KT 9SM SCT036 BKN048 OVC080 21/14 A2993 RMK AO2 T02090143
2026-04-17 15:15:00,METAR KMQS 171515Z AUTO 33008KT 310V010 9SM FEW033 SCT048 BKN095 22/14 A2992 RMK AO2 T02150139
2026-04-17 14:55:00,METAR KMQS 171455Z AUTO 30009KT 9SM SCT033 SCT055 22/14 A2991 RMK AO2 T02210145 51012
2026-04-17 14:35:00,METAR KMQS 171435Z AUTO 34009KT 9SM BKN032 BKN060 21/14 A2991 RMK AO2 T02070144
2026-04-17 14:15:00,METAR KMQS 171415Z AUTO 35008G16KT 320V030 9SM BKN029 BKN036 BKN055 21/15 A2991 RMK AO2 T02120150
2026-04-17 13:55:00,METAR KMQS 171355Z AUTO 35007KT 9SM FEW029 21/15 A2991 RMK AO2 T02070150
2026-04-17 13:35:00,METAR KMQS 171335Z AUTO 35010KT 10SM FEW029 21/15 A2990 RMK AO2 T02090150
2026-04-17 13:15:00,METAR KMQS 171315Z AUTO 34011KT 9SM FEW030 21/15 A2990 RMK AO2 T02090150
2026-04-17 12:55:00,METAR KMQS 171255Z AUTO 32007KT 9SM CLR 20/15 A2989 RMK AO2 T01990149
2026-04-17 12:35:00,METAR KMQS 171235Z AUTO 32010KT 10SM CLR 20/15 A2989 RMK AO2 T01950146
2026-04-17 12:15:00,METAR KMQS 171215Z AUTO 32009KT 10SM CLR 19/15 A2989 RMK AO2 T01930148
2026-04-17 11:55:00,METAR KMQS 171155Z AUTO 32008KT 10SM CLR 19/15 A2988 RMK AO2 T01870149 10208 20153 53019
2026-04-17 11:35:00,METAR KMQS 171135Z AUTO 31007KT 10SM CLR 18/15 A2987 RMK AO2 T01800148
2026-04-17 11:15:00,METAR KMQS 171115Z AUTO 30007KT 9SM CLR 16/15 A2987 RMK AO2 T01590147
2026-04-17 10:55:00,METAR KMQS 171055Z AUTO 31008KT 8SM CLR 16/15 A2986 RMK AO2 T01620147
2026-04-17 10:35:00,METAR KMQS 171035Z AUTO 32007KT 9SM CLR 17/15 A2985 RMK AO2 T01670147
2026-04-17 10:15:00,METAR KMQS 171015Z AUTO 29006KT 9SM CLR 15/14 A2985 RMK AO2 T01540143
2026-04-17 09:55:00,METAR KMQS 170955Z AUTO 32007KT 10SM CLR 17/15 A2983 RMK AO2 T01700148
2026-04-17 09:35:00,METAR KMQS 170935Z AUTO 30006KT 10SM SCT100 16/15 A2983 RMK AO2 T01630147
2026-04-17 09:15:00,METAR KMQS 170915Z AUTO 30008KT 10SM OVC100 18/15 A2983 RMK AO2 T01770150
2026-04-17 08:55:00,METAR KMQS 170855Z AUTO 30009KT 10SM BKN100 18/15 A2982 RMK AO2 T01790151 53003
2026-04-17 08:35:00,METAR KMQS 170835Z AUTO 31011KT 10SM SCT100 BKN220 18/15 A2982 RMK AO2 T01790150
2026-04-17 08:15:00,METAR KMQS 170815Z AUTO 32012KT 10SM SCT110 BKN160 OVC220 18/15 A2981 RMK AO2 T01840148
2026-04-17 07:55:00,METAR KMQS 170755Z AUTO 31011KT 10SM OVC100 19/15 A2982 RMK AO2 T01880148
2026-04-17 07:35:00,METAR KMQS 170735Z AUTO 29013KT 10SM BKN100 OVC120 19/15 A2982 RMK AO2 T01900152
2026-04-17 07:15:00,METAR KMQS 170715Z AUTO 30010KT 10SM OVC110 19/15 A2981 RMK AO2 T01930154
2026-04-17 06:55:00,METAR KMQS 170655Z AUTO 30009KT 10SM BKN120 20/15 A2980 RMK AO2 T01960150
2026-04-17 06:35:00,METAR KMQS 170635Z AUTO 30008KT 10SM OVC110 20/15 A2980 RMK AO2 T01990149
2026-04-17 06:15:00,METAR KMQS 170615Z AUTO 31010KT 10SM BKN120 OVC180 21/14 A2980 RMK AO2 T02060144
2026-04-17 05:55:00,METAR KMQS 170555Z AUTO 31012KT 10SM OVC120 21/14 A2981 RMK AO2 T02100140 10262 20210 403060179 50018
2026-04-17 05:35:00,METAR KMQS 170535Z AUTO 31013KT 10SM OVC120 21/14 A2981 RMK AO2 T02120137
2026-04-17 05:15:00,METAR KMQS 170515Z AUTO 33013KT 10SM BKN120 22/14 A2981 RMK AO2 T02160136
2026-04-17 04:55:00,METAR KMQS 170455Z AUTO 33011KT 10SM FEW120 22/14 A2981 RMK AO2 PK WND 31031/0358 T02230135
2026-04-17 04:35:00,METAR KMQS 170435Z AUTO 32014G23KT 10SM FEW110 23/13 A2982 RMK AO2 PK WND 31031/0358 T02280133
2026-04-17 04:15:00,METAR KMQS 170415Z AUTO 32013G23KT 10SM FEW090 BKN110 24/13 A2982 RMK AO2 PK WND 31031/0358 T02360134
2026-04-17 03:55:00,METAR KMQS 170355Z AUTO 29009KT 10SM SCT095 BKN130 22/16 A2980 RMK AO2 T02190157
2026-04-17 03:35:00,METAR KMQS 170335Z AUTO 29009KT 10SM BKN100 22/16 A2978 RMK AO2 T02170158
2026-04-17 03:15:00,METAR KMQS 170315Z AUTO VRB03KT 10SM BKN100 23/15 A2976 RMK AO2 T02330153
2026-04-17 02:55:00,METAR KMQS 170255Z AUTO 00000KT 10SM BKN100 23/15 A2976 RMK AO2 LTG DSNT NE T02350149 58002
2026-04-17 02:35:00,METAR KMQS 170235Z AUTO VRB03KT 10SM BKN110 23/15 A2975 RMK AO2 LTG DSNT N T02340146
2026-04-17 02:15:00,METAR KMQS 170215Z AUTO VRB03KT 10SM FEW110 23/14 A2976 RMK AO2 T02320143
2026-04-17 01:55:00,METAR KMQS 170155Z AUTO VRB03KT 10SM CLR 23/14 A2976 RMK AO2 T02300141
2026-04-17 01:35:00,METAR KMQS 170135Z AUTO 00000KT 10SM CLR 24/14 A2977 RMK AO2 T02370141
2026-04-17 01:15:00,METAR KMQS 170115Z AUTO VRB03KT 10SM CLR 25/14 A2977 RMK AO2 T02480138
2026-04-17 00:55:00,METAR KMQS 170055Z AUTO VRB04KT 10SM CLR 25/14 A2977 RMK AO2 T02520137
2026-04-17 00:35:00,METAR KMQS 170035Z AUTO VRB04KT 10SM CLR 26/14 A2977 RMK AO2 T02550136
2026-04-17 00:15:00,METAR KMQS 170015Z AUTO VRB04KT 9SM CLR 26/13 A2977 RMK AO2 T02590135
2026-04-16 23:55:00,METAR KMQS 162355Z AUTO 21005KT 9SM CLR 26/14 A2976 RMK AO2 T02650139 10306 20265 56007
2026-04-16 23:35:00,METAR KMQS 162335Z AUTO VRB04KT 9SM CLR 27/14 A2976 RMK AO2 T02700142
2026-04-16 23:15:00,METAR KMQS 162315Z AUTO VRB05KT 10SM CLR 28/15 A2976 RMK AO2 T02760146
2026-04-16 22:55:00,METAR KMQS 162255Z AUTO VRB05KT 10SM CLR 28/15 A2976 RMK AO2 T02840147
2026-04-16 22:35:00,METAR KMQS 162235Z AUTO VRB06KT 10SM CLR 29/15 A2977 RMK AO2 T02880150
2026-04-16 22:15:00,METAR KMQS 162215Z AUTO 21007KT 180V240 10SM CLR 29/15 A2977 RMK AO2 T02920154
2026-04-16 21:55:00,METAR KMQS 162155Z AUTO 23007KT 190V260 10SM CLR 30/15 A2978 RMK AO2 T02950151
2026-04-16 21:35:00,METAR KMQS 162135Z AUTO VRB06KT 10SM CLR 30/15 A2978 RMK AO2 T02970147
2026-04-16 21:15:00,METAR KMQS 162115Z AUTO VRB05KT 10SM CLR 30/14 A2978 RMK AO2 T02980140
2026-04-16 20:55:00,METAR KMQS 162055Z AUTO 21008KT 170V240 10SM CLR 30/14 A2978 RMK AO2 T02970136 56029
2026-04-16 20:35:00,METAR KMQS 162035Z AUTO VRB05KT 10SM CLR 30/14 A2979 RMK AO2 T02990145
2026-04-16 20:15:00,METAR KMQS 162015Z AUTO 21007KT 190V250 10SM CLR 30/15 A2979 RMK AO2 T03000149
2026-04-16 19:55:00,METAR KMQS 161955Z AUTO 21008KT 10SM BKN330 31/15 A2981 RMK AO2 T03060145
2026-04-16 19:35:00,METAR KMQS 161935Z AUTO 20007KT 9SM BKN330 30/15 A2981 RMK AO2 T03050150
2026-04-16 19:15:00,METAR KMQS 161915Z AUTO VRB06KT 10SM BKN330 30/15 A2982 RMK AO2 T03040151
2026-04-16 18:55:00,METAR KMQS 161855Z AUTO VRB06KT 10SM BKN320 BKN340 30/14 A2984 RMK AO2 T03030138
2026-04-16 18:35:00,METAR KMQS 161835Z AUTO VRB05KT 10SM FEW320 SCT340 SCT370 30/13 A2985 RMK AO2 T03040134
2026-04-16 18:15:00,METAR KMQS 161815Z AUTO VRB06KT 10SM FEW290 SCT340 30/13 A2986 RMK AO2 T03020132
2026-04-16 17:55:00,METAR KMQS 161755Z AUTO 25006KT 10SM SCT290 SCT320 BKN350 30/14 A2987 RMK AO2 T02990137 10304 20200 58020
2026-04-16 17:35:00,METAR KMQS 161735Z AUTO VRB06KT 10SM FEW280 SCT310 SCT340 30/15 A2987 RMK AO2 T03040145
2026-04-16 17:15:00,METAR KMQS 161715Z AUTO 20008KT 180V240 10SM FEW250 BKN330 30/15 A2988 RMK AO2 T02980150
2026-04-16 16:55:00,METAR KMQS 161655Z AUTO 28008KT 10SM FEW280 BKN310 29/14 A2989 RMK AO2 T02950144
2026-04-16 16:35:00,METAR KMQS 161635Z AUTO 28008KT 240V310 10SM FEW250 SCT300 BKN330 BKN360 29/14 A2990 RMK AO2 T02920140
2026-04-16 16:15:00,METAR KMQS 161615Z AUTO 31009KT 10SM FEW300 SCT330 SCT360 29/15 A2990 RMK AO2 T02930150
2026-04-16 15:55:00,METAR KMQS 161555Z AUTO 23003KT 10SM FEW330 SCT360 29/16 A2991 RMK AO2 T02890164
2026-04-16 15:35:00,METAR KMQS 161535Z AUTO VRB04KT 10SM FEW290 SCT360 29/16 A2992 RMK AO2 T02880158
2026-04-16 14:55:00,METAR KMQS 161455Z AUTO 27005KT 10SM CLR 28/15 A2993 RMK AO2 T02760151 56005
2026-04-16 14:35:00,METAR KMQS 161435Z AUTO 28005KT 10SM CLR 28/16 A2993 RMK AO2 T02770160
2026-04-16 14:15:00,METAR KMQS 161415Z AUTO 28005KT 10SM FEW320 27/16 A2993 RMK AO2 T02700160
2026-04-16 13:55:00,METAR KMQS 161355Z AUTO 00000KT 10SM FEW330 26/16 A2993 RMK AO2 T02620163
2026-04-16 13:35:00,METAR KMQS 161335Z AUTO 00000KT 10SM CLR 25/16 A2994 RMK AO2 T02530160
2026-04-16 13:15:00,METAR KMQS 161315Z AUTO 00000KT 10SM CLR 24/15 A2994 RMK AO2 T02390154
2026-04-16 12:55:00,METAR KMQS 161255Z AUTO 17003KT 10SM CLR 23/16 A2994 RMK AO2 T02270156
2026-04-16 12:35:00,METAR KMQS 161235Z AUTO 00000KT 9SM CLR 22/16 A2994 RMK AO2 T02220157
2026-04-16 12:15:00,METAR KMQS 161215Z AUTO 00000KT 9SM CLR 21/16 A2994 RMK AO2 T02130164
2026-04-16 11:55:00,METAR KMQS 161155Z AUTO 00000KT 10SM CLR 20/16 A2995 RMK AO2 T01990164 10225 20179 53017
2026-04-16 11:35:00,METAR KMQS 161135Z AUTO 00000KT 10SM CLR 20/16 A2994 RMK AO2 T01960159
2026-04-16 11:15:00,METAR KMQS 161115Z AUTO 00000KT 10SM CLR 19/15 A2993 RMK AO2 T01930153
2026-04-16 10:55:00,METAR KMQS 161055Z AUTO 00000KT 10SM CLR 19/14 A2993 RMK AO2 T01910140
2026-04-16 10:35:00,METAR KMQS 161035Z AUTO 00000KT 10SM CLR 19/14 A2993 RMK AO2 T01860141
2026-04-16 10:15:00,METAR KMQS 161015Z AUTO 00000KT 10SM CLR 20/14 A2992 RMK AO2 T02010141
2026-04-16 09:55:00,METAR KMQS 160955Z AUTO 20005KT 10SM CLR 21/14 A2991 RMK AO2 T02120139
2026-04-16 09:35:00,METAR KMQS 160935Z AUTO 00000KT 10SM CLR 19/14 A2990 RMK AO2 T01950140
2026-04-16 09:15:00,METAR KMQS 160915Z AUTO 29005KT 10SM CLR 18/15 A2990 RMK AO2 T01810147
2026-04-16 08:55:00,METAR KMQS 160855Z AUTO 28006KT 10SM FEW270 21/14 A2990 RMK AO2 T02050141 55000
2026-04-16 08:35:00,METAR KMQS 160835Z AUTO 27006KT 10SM FEW270 23/14 A2990 RMK AO2 T02250137
2026-04-16 08:15:00,METAR KMQS 160815Z AUTO 28007KT 10SM FEW270 21/15 A2990 RMK AO2 T02130146
2026-04-16 07:55:00,METAR KMQS 160755Z AUTO 28005KT 10SM FEW240 SCT270 19/16 A2990 RMK AO2 T01930158
2026-04-16 07:35:00,METAR KMQS 160735Z AUTO 27003KT 10SM FEW240 19/16 A2989 RMK AO2 T01940158
2026-04-16 07:15:00,METAR KMQS 160715Z AUTO 23004KT 10SM FEW230 22/15 A2989 RMK AO2 T02170153
2026-04-16 06:55:00,METAR KMQS 160655Z AUTO 25005KT 10SM SCT240 22/16 A2989 RMK AO2 T02170157
2026-04-16 06:35:00,METAR KMQS 160635Z AUTO 26005KT 10SM FEW240 22/16 A2989 RMK AO2 T02180157
2026-04-16 06:15:00,METAR KMQS 160615Z AUTO 25005KT 10SM CLR 22/16 A2989 RMK AO2 T02160161
2026-04-16 05:55:00,METAR KMQS 160555Z AUTO VRB04KT 10SM CLR 22/16 A2990 RMK AO2 T02180161 10255 20217 403010150 58006
2026-04-16 05:35:00,METAR KMQS 160535Z AUTO VRB03KT 10SM CLR 22/16 A2990 RMK AO2 T02200160
2026-04-16 05:15:00,METAR KMQS 160515Z AUTO 25005KT 10SM CLR 22/16 A2990 RMK AO2 T02200161
2026-04-16 04:55:00,METAR KMQS 160455Z AUTO VRB03KT 10SM FEW180 22/16 A2991 RMK AO2 T02230163
2026-04-16 04:35:00,METAR KMQS 160435Z AUTO VRB03KT 10SM BKN180 23/16 A2991 RMK AO2 T02250163
2026-04-16 04:15:00,METAR KMQS 160415Z AUTO VRB04KT 10SM BKN170 23/16 A2991 RMK AO2 T02270164
2026-04-16 03:55:00,METAR KMQS 160355Z AUTO VRB03KT 10SM FEW140 SCT170 23/16 A2991 RMK AO2 T02280164
2026-04-16 03:35:00,METAR KMQS 160335Z AUTO 22003KT 10SM BKN170 BKN190 23/16 A2991 RMK AO2 T02290163
2026-04-16 03:15:00,METAR KMQS 160315Z AUTO 21003KT 10SM BKN180 OVC220 23/16 A2991 RMK AO2 T02290163
2026-04-16 02:55:00,METAR KMQS 160255Z AUTO 21004KT 10SM OVC200 23/16 A2991 RMK AO2 LTG DSNT N T02320163 50008
2026-04-16 02:35:00,METAR KMQS 160235Z AUTO VRB03KT 10SM BKN200 OVC230 23/16 A2992 RMK AO2 T02340162
2026-04-16 02:15:00,METAR KMQS 160215Z AUTO VRB03KT 10SM BKN190 BKN230 23/16 A2992 RMK AO2 T02350161
2026-04-16 01:55:00,METAR KMQS 160155Z AUTO VRB04KT 10SM FEW200 24/16 A2992 RMK AO2 T02370159
2026-04-16 01:35:00,METAR KMQS 160135Z AUTO VRB03KT 10SM SCT190 24/16 A2992 RMK AO2 T02370159
2026-04-16 01:15:00,METAR KMQS 160115Z AUTO VRB04KT 10SM SCT190 24/16 A2992 RMK AO2 T02400158
2026-04-16 00:55:00,METAR KMQS 160055Z AUTO VRB04KT 10SM SCT200 25/16 A2991 RMK AO2 T02460157
2026-04-16 00:35:00,METAR KMQS 160035Z AUTO VRB03KT 10SM CLR 25/16 A2991 RMK AO2 T02480156
2026-04-16 00:15:00,METAR KMQS 160015Z AUTO VRB04KT 10SM CLR 25/16 A2990 RMK AO2 T02520155
2026-04-15 23:55:00,METAR KMQS 152355Z AUTO 21004KT 10SM CLR 26/16 A2989 RMK AO2 T02570155 10301 20257 58002
2026-04-15 23:35:00,METAR KMQS 152335Z AUTO VRB04KT 9SM CLR 26/15 A2989 RMK AO2 T02600154
2026-04-15 23:15:00,METAR KMQS 152315Z AUTO VRB04KT 9SM CLR 27/15 A2989 RMK AO2 T02700153
2026-04-15 22:55:00,METAR KMQS 152255Z AUTO VRB04KT 10SM FEW320 28/16 A2989 RMK AO2 T02780158
2026-04-15 22:35:00,METAR KMQS 152235Z AUTO VRB05KT 10SM CLR 28/16 A2990 RMK AO2 T02820156
2026-04-15 22:15:00,METAR KMQS 152215Z AUTO 19007KT 10SM CLR 28/16 A2990 RMK AO2 T02830160
2026-04-15 21:55:00,METAR KMQS 152155Z AUTO VRB06KT 10SM CLR 29/15 A2990 RMK AO2 T02910145
2026-04-15 21:35:00,METAR KMQS 152135Z AUTO 25008KT 10SM FEW310 29/15 A2990 RMK AO2 T02940151
2026-04-15 21:15:00,METAR KMQS 152115Z AUTO 26006KT 10SM FEW300 29/16 A2990 RMK AO2 T02920157
2026-04-15 20:55:00,METAR KMQS 152055Z AUTO VRB06KT 10SM FEW250 29/16 A2989 RMK AO2 T02880159 56010
2026-04-15 20:35:00,METAR KMQS 152035Z AUTO VRB04KT 10SM FEW290 29/16 A2989 RMK AO2 T02900158
2026-04-15 20:15:00,METAR KMQS 152015Z AUTO 26011G16KT 10SM CLR 30/16 A2990 RMK AO2 T02980155
2026-04-15 19:55:00,METAR KMQS 151955Z AUTO 28012G17KT 10SM CLR 30/16 A2990 RMK AO2 T02970157
2026-04-15 19:35:00,METAR KMQS 151935Z AUTO 28011G19KT 10SM CLR 30/16 A2990 RMK AO2 T02970160
2026-04-15 19:15:00,METAR KMQS 151915Z AUTO VRB06KT 10SM CLR 29/16 A2990 RMK AO2 T02950160
2026-04-15 18:55:00,METAR KMQS 151855Z AUTO 27008G17KT 10SM CLR 29/16 A2992 RMK AO2 T02940159
2026-04-15 18:35:00,METAR KMQS 151835Z AUTO 26009G18KT 10SM CLR 30/16 A2992 RMK AO2 T02970162
2026-04-15 18:15:00,METAR KMQS 151815Z AUTO 28008G15KT 10SM CLR 29/17 A2992 RMK AO2 T02950166
2026-04-15 17:55:00,METAR KMQS 151755Z AUTO 27010G19KT 10SM CLR 29/17 A2993 RMK AO2 T02900167 10291 20191 56017
2026-04-15 17:35:00,METAR KMQS 151735Z AUTO 28010G15KT 10SM CLR 29/17 A2993 RMK AO2 T02860168
2026-04-15 17:15:00,METAR KMQS 151715Z AUTO VRB06KT 10SM CLR 28/18 A2993 RMK AO2 T02780176
2026-04-15 16:55:00,METAR KMQS 151655Z AUTO 27009KT 10SM FEW330 28/18 A2994 RMK AO2 T02800176
2026-04-15 16:35:00,METAR KMQS 151635Z AUTO 25008KT 10SM FEW300 SCT370 27/17 A2994 RMK AO2 T02690175
2026-04-15 16:15:00,METAR KMQS 151615Z AUTO 28009KT 10SM FEW370 27/18 A2995 RMK AO2 T02720181
2026-04-15 15:55:00,METAR KMQS 151555Z AUTO 26008G16KT 220V290 10SM CLR 27/17 A2996 RMK AO2 T02650174
2026-04-15 15:35:00,METAR KMQS 151535Z AUTO 27009G14KT 10SM CLR 27/17 A2997 RMK AO2 T02670174
2026-04-15 15:15:00,METAR KMQS 151515Z AUTO VRB06KT 10SM CLR 26/18 A2997 RMK AO2 T02620177
2026-04-15 14:55:00,METAR KMQS 151455Z AUTO 24007KT 210V290 10SM CLR 25/18 A2998 RMK AO2 T02490177 58001
2026-04-15 14:35:00,METAR KMQS 151435Z AUTO VRB05KT 10SM CLR 24/18 A2999 RMK AO2 T02430178
2026-04-15 14:15:00,METAR KMQS 151415Z AUTO VRB04KT 10SM CLR 23/17 A2999 RMK AO2 T02320174
2026-04-15 13:55:00,METAR KMQS 151355Z AUTO 25007KT 220V290 10SM FEW260 23/17 A2999 RMK AO2 T02300172
2026-04-15 13:35:00,METAR KMQS 151335Z AUTO 26009KT 10SM FEW230 23/18 A2999 RMK AO2 T02270176
2026-04-15 13:15:00,METAR KMQS 151315Z AUTO 26005KT 10SM FEW230 22/18 A2999 RMK AO2 T02160176
2026-04-15 12:55:00,METAR KMQS 151255Z AUTO 26005KT 9SM SCT240 21/17 A3000 RMK AO2 T02090170
2026-04-15 12:35:00,METAR KMQS 151235Z AUTO 26005KT 10SM CLR 21/17 A3000 RMK AO2 T02100173
2026-04-15 12:15:00,METAR KMQS 151215Z AUTO 27006KT 10SM CLR 20/17 A3000 RMK AO2 T01970167
2026-04-15 11:55:00,METAR KMQS 151155Z AUTO 25004KT 10SM CLR 19/16 A2998 RMK AO2 70023 T01940159 10194 20150 53012
2026-04-15 11:35:00,METAR KMQS 151135Z AUTO 24004KT 9SM CLR 19/16 A2997 RMK AO2 T01920156
2026-04-15 11:15:00,METAR KMQS 151115Z AUTO 21004KT 10SM CLR 18/16 A2996 RMK AO2 T01770160
2026-04-15 10:55:00,METAR KMQS 151055Z AUTO 26004KT 10SM CLR 18/15 A2996 RMK AO2 T01750155
2026-04-15 10:35:00,METAR KMQS 151035Z AUTO 28005KT 10SM FEW220 16/16 A2996 RMK AO2 T01600157
2026-04-15 10:15:00,METAR KMQS 151015Z AUTO 28006KT 10SM FEW060 SCT220 17/16 A2995 RMK AO2 T01670157
2026-04-15 09:55:00,METAR KMQS 150955Z AUTO 27006KT 10SM SCT055 18/16 A2996 RMK AO2 T01750158
2026-04-15 09:35:00,METAR KMQS 150935Z AUTO 28006KT 9SM CLR 15/15 A2996 RMK AO2 T01500150
2026-04-15 09:15:00,METAR KMQS 150915Z AUTO 28006KT 10SM CLR 17/16 A2995 RMK AO2 T01660159
2026-04-15 08:55:00,METAR KMQS 150855Z AUTO 24003KT 10SM CLR 16/16 A2995 RMK AO2 T01620162 55003
2026-04-15 08:35:00,METAR KMQS 150835Z AUTO 23004KT 5SM BR CLR 16/16 A2995 RMK AO2 T01580158
2026-04-15 08:15:00,METAR KMQS 150815Z AUTO 24004KT 10SM CLR 17/17 A2995 RMK AO2 T01690165
2026-04-15 07:55:00,METAR KMQS 150755Z AUTO 21004KT 10SM FEW270 16/16 A2994 RMK AO2 T01650165
2026-04-15 07:35:00,METAR KMQS 150735Z AUTO 26003KT 10SM CLR 17/16 A2994 RMK AO2 T01650162
2026-04-15 07:15:00,METAR KMQS 150715Z AUTO 27005KT 10SM CLR 16/16 A2994 RMK AO2 T01630162
2026-04-15 06:55:00,METAR KMQS 150655Z AUTO 28006KT 10SM CLR 16/16 A2994 RMK AO2 T01640164
2026-04-15 06:35:00,METAR KMQS 150635Z AUTO 30004KT 10SM CLR 15/15 A2994 RMK AO2 T01540154
2026-04-15 06:15:00,METAR KMQS 150615Z AUTO 29004KT 10SM CLR 16/16 A2995 RMK AO2 T01560156
2026-04-15 05:55:00,METAR KMQS 150555Z AUTO 26005KT 10SM CLR 17/17 A2995 RMK AO2 60021 T01730168 10234 20159 402940142 56012
2026-04-15 05:35:00,METAR KMQS 150535Z AUTO 28005KT 10SM CLR 16/16 A2995 RMK AO2 T01610161
2026-04-15 05:15:00,METAR KMQS 150515Z AUTO 27005KT 10SM CLR 17/17 A2996 RMK AO2 T01680168
2026-04-15 04:55:00,METAR KMQS 150455Z AUTO 28005KT 10SM CLR 16/16 A2996 RMK AO2 T01610161
2026-04-15 04:35:00,METAR KMQS 150435Z AUTO 28005KT 10SM FEW140 SCT230 17/17 A2996 RMK AO2 T01690169
2026-04-15 04:15:00,METAR KMQS 150415Z AUTO 28004KT 10SM BKN130 OVC230 17/17 A2996 RMK AO2 T01690169
2026-04-15 03:55:00,METAR KMQS 150355Z AUTO 29004KT 9SM BKN130 BKN190 18/17 A2996 RMK AO2 RAE0323 P0003 T01750171
2026-04-15 03:35:00,METAR KMQS 150335Z AUTO 24003KT 10SM SCT100 BKN150 OVC200 18/17 A2997 RMK AO2 RAE0323 P0003 T01760171
2026-04-15 03:15:00,METAR KMQS 150315Z AUTO VRB03KT 7SM -RA OVC100 18/17 A2997 RMK AO2 P0003 T01780174
2026-04-15 02:55:00,METAR KMQS 150255Z AUTO VRB05KT 4SM -RA BR OVC090 18/18 A2999 RMK AO2 RAB0157 P0018 60018 T01850179 53026
2026-04-15 02:35:00,METAR KMQS 150235Z AUTO 27008KT 4SM RA BR FEW003 OVC085 19/18 A3000 RMK AO2 RAB0157 P0012 T01880181
2026-04-15 02:15:00,METAR KMQS 150215Z AUTO 27013G22KT 2 1/2SM RA BR FEW004 BKN065 BKN080 OVC130 19/17 A3000 RMK AO2 RAB0157 PRESRR P0004 T01940174
2026-04-15 01:55:00,METAR KMQS 150155Z AUTO 28006KT 10SM FEW085 BKN120 20/15 A2994 RMK AO2 T02040148
2026-04-15 01:35:00,METAR KMQS 150135Z AUTO 29006KT 10SM FEW075 OVC110 20/15 A2994 RMK AO2 T02020150
2026-04-15 01:15:00,METAR KMQS 150115Z AUTO 30007KT 10SM FEW075 BKN100 OVC130 22/14 A2994 RMK AO2 T02180140
2026-04-15 00:55:00,METAR KMQS 150055Z AUTO 26008KT 10SM FEW140 SCT220 22/13 A2993 RMK AO2 RAB2357E0011 P0000 T02220130
2026-04-15 00:35:00,METAR KMQS 150035Z AUTO 25007KT 10SM FEW150 BKN210 22/13 A2992 RMK AO2 LTG DSNT N AND NE RAB2357E0011 P0000 T02240132
2026-04-15 00:15:00,METAR KMQS 150015Z AUTO 25010G14KT 10SM FEW040 SCT150 SCT200 22/14 A2991 RMK AO2 RAB2357E0011 P0000 T02220142
2026-04-14 23:55:00,METAR KMQS 142355Z AUTO 24010G17KT 200V280 9SM BKN160 BKN180 25/13 A2991 RMK AO2 LTG DSNT NW AND NE T02510133 10294 20251 53004
2026-04-14 23:35:00,METAR KMQS 142335Z AUTO VRB06KT 9SM BKN170 BKN210 25/13 A2990 RMK AO2 LTG DSNT NE AND SW T02550129
2026-04-14 23:15:00,METAR KMQS 142315Z AUTO 22005KT 9SM BKN180 26/13 A2989 RMK AO2 T02610131
2026-04-14 22:55:00,METAR KMQS 142255Z AUTO 24007KT 220V280 10SM SCT180 27/13 A2989 RMK AO2 T02720130
2026-04-14 22:35:00,METAR KMQS 142235Z AUTO 24006KT 10SM CLR 27/13 A2989 RMK AO2 LTG DSNT N T02740130
2026-04-14 22:15:00,METAR KMQS 142215Z AUTO VRB04KT 10SM CLR 28/13 A2989 RMK AO2 T02790130
2026-04-14 21:55:00,METAR KMQS 142155Z AUTO 24007KT 210V280 10SM CLR 28/13 A2990 RMK AO2 T02810126
2026-04-14 21:35:00,METAR KMQS 142135Z AUTO 24007G18KT 200V280 10SM CLR 28/13 A2990 RMK AO2 T02840130
2026-04-14 21:15:00,METAR KMQS 142115Z AUTO 24007G15KT 200V280 10SM CLR 29/13 A2990 RMK AO2 T02870128
2026-04-14 20:55:00,METAR KMQS 142055Z AUTO 24008KT 210V280 10SM CLR 29/13 A2990 RMK AO2 T02870127 58022
2026-04-14 20:35:00,METAR KMQS 142035Z AUTO 26008KT 10SM CLR 29/13 A2990 RMK AO2 T02880130
2026-04-14 20:15:00,METAR KMQS 142015Z AUTO VRB06KT 10SM CLR 29/13 A2991 RMK AO2 T02900135
2026-04-14 19:55:00,METAR KMQS 141955Z AUTO 20006G16KT 100V270 10SM FEW070 29/13 A2992 RMK AO2 T02870132
2026-04-14 19:35:00,METAR KMQS 141935Z AUTO 28008KT 10SM FEW075 29/13 A2993 RMK AO2 T02880133
2026-04-14 19:15:00,METAR KMQS 141915Z AUTO 27009G19KT 10SM FEW065 29/14 A2994 RMK AO2 T02920136
2026-04-14 18:35:00,METAR KMQS 141835Z AUTO VRB06KT 10SM BKN240 28/14 A2996 RMK AO2 T02810135
2026-04-14 18:15:00,METAR KMQS 141815Z AUTO 24009G14KT 10SM FEW240 SCT330 28/14 A2996 RMK AO2 T02810135
2026-04-14 17:55:00,METAR KMQS 141755Z AUTO 24008KT 180V260 10SM FEW260 SCT280 BKN370 28/14 A2996 RMK AO2 P0002 60002 T02810141 10281 20175 57022
2026-04-14 17:35:00,METAR KMQS 141735Z AUTO 25009KT 10SM FEW260 SCT280 27/14 A2998 RMK AO2 P0002 T02720137
2026-04-14 17:15:00,METAR KMQS 141715Z AUTO VRB05KT 10SM FEW260 SCT380 27/14 A2998 RMK AO2 P0002 T02690141
2026-04-14 16:55:00,METAR KMQS 141655Z AUTO VRB04KT 10SM FEW270 26/13 A2999 RMK AO2 T02610134
2026-04-14 16:35:00,METAR KMQS 141635Z AUTO 00000G14KT 10SM FEW270 SCT320 SCT350 BKN370 27/13 A3000 RMK AO2 T02670132
2026-04-14 16:15:00,METAR KMQS 141615Z AUTO VRB06KT 10SM FEW310 26/13 A2999 RMK AO2 T02650130
2026-04-14 15:55:00,METAR KMQS 141555Z AUTO 27006KT 10SM CLR 26/12 A3001 RMK AO2 T02580124
2026-04-14 15:35:00,METAR KMQS 141535Z AUTO VRB06KT 10SM CLR 26/12 A3001 RMK AO2 T02560122
2026-04-14 15:15:00,METAR KMQS 141515Z AUTO 29008KT 10SM CLR 25/12 A3002 RMK AO2 T02540119
2026-04-14 14:55:00,METAR KMQS 141455Z AUTO 27008KT 230V300 10SM CLR 25/12 A3003 RMK AO2 T02520116 58006
2026-04-14 14:35:00,METAR KMQS 141435Z AUTO 28009KT 10SM CLR 25/11 A3003 RMK AO2 T02510113
2026-04-14 14:15:00,METAR KMQS 141415Z AUTO 27006KT 10SM CLR 25/11 A3004 RMK AO2 T02470113
2026-04-14 13:55:00,METAR KMQS 141355Z AUTO 27008KT 10SM CLR 24/12 A3004 RMK AO2 T02380115
2026-04-14 13:35:00,METAR KMQS 141335Z AUTO 29008KT 10SM CLR 23/12 A3004 RMK AO2 T02340118
2026-04-14 13:15:00,METAR KMQS 141315Z AUTO VRB04KT 10SM CLR 23/12 A3005 RMK AO2 T02290123
2026-04-14 12:55:00,METAR KMQS 141255Z AUTO 26004KT 10SM CLR 22/13 A3005 RMK AO2 T02180133
2026-04-14 12:35:00,METAR KMQS 141235Z AUTO 24003KT 10SM CLR 20/14 A3005 RMK AO2 T02050136
2026-04-14 12:15:00,METAR KMQS 141215Z AUTO 28003KT 10SM CLR 19/14 A3005 RMK AO2 T01860137
2026-04-14 11:55:00,METAR KMQS 141155Z AUTO 26003KT 10SM CLR 17/13 A3005 RMK AO2 T01690129 10196 20142 53012
2026-04-14 11:35:00,METAR KMQS 141135Z AUTO 28004KT 10SM CLR 16/13 A3005 RMK AO2 T01570129
2026-04-14 11:15:00,METAR KMQS 141115Z AUTO 26005KT 10SM CLR 17/12 A3004 RMK AO2 T01710123
2026-04-14 10:55:00,METAR KMQS 141055Z AUTO 24005KT 10SM CLR 17/12 A3004 RMK AO2 T01690122
2026-04-14 10:35:00,METAR KMQS 141035Z AUTO 23007KT 210V270 10SM CLR 17/12 A3004 RMK AO2 T01650122
2026-04-14 10:15:00,METAR KMQS 141015Z AUTO 22005KT 10SM CLR 17/12 A3003 RMK AO2 T01660124
2026-04-14 09:55:00,METAR KMQS 140955Z AUTO 25004KT 10SM CLR 16/13 A3002 RMK AO2 T01640127
2026-04-14 09:35:00,METAR KMQS 140935Z AUTO 30004KT 10SM CLR 16/13 A3002 RMK AO2 T01620126
2026-04-14 09:15:00,METAR KMQS 140915Z AUTO 31003KT 10SM CLR 14/12 A3002 RMK AO2 T01420120
2026-04-14 08:55:00,METAR KMQS 140855Z AUTO 00000KT 10SM CLR 16/12 A3001 RMK AO2 T01610121 56004
2026-04-14 08:35:00,METAR KMQS 140835Z AUTO 26003KT 10SM CLR 17/12 A3002 RMK AO2 T01750118
2026-04-14 08:15:00,METAR KMQS 140815Z AUTO 23004KT 10SM CLR 18/12 A3001 RMK AO2 T01760120
2026-04-14 07:55:00,METAR KMQS 140755Z AUTO 21005KT 10SM CLR 18/12 A3002 RMK AO2 T01760121
2026-04-14 07:15:00,METAR KMQS 140715Z AUTO 20004KT 10SM CLR 19/12 A3001 RMK AO2 T01890123
2026-04-14 06:55:00,METAR KMQS 140655Z AUTO 27006KT 10SM CLR 18/12 A3001 RMK AO2 T01800123
2026-04-14 06:35:00,METAR KMQS 140635Z AUTO 27007KT 10SM CLR 18/12 A3001 RMK AO2 T01780124
2026-04-14 06:15:00,METAR KMQS 140615Z AUTO 27004KT 10SM CLR 19/12 A3002 RMK AO2 T01930121
2026-04-14 05:55:00,METAR KMQS 140555Z AUTO 23004KT 10SM SCT110 19/12 A3003 RMK AO2 T01930123 10228 20177 402580094 58003
2026-04-14 05:35:00,METAR KMQS 140535Z AUTO 22003KT 10SM SCT110 18/12 A3003 RMK AO2 T01840121
2026-04-14 05:15:00,METAR KMQS 140515Z AUTO 00000KT 10SM CLR 19/12 A3004 RMK AO2 T01900121
2026-04-14 04:55:00,METAR KMQS 140455Z AUTO 22003KT 10SM CLR 19/12 A3004 RMK AO2 T01930120
2026-04-14 04:35:00,METAR KMQS 140435Z AUTO 26004KT 10SM CLR 20/12 A3004 RMK AO2 LTG DSNT N T01950119
2026-04-14 04:15:00,METAR KMQS 140415Z AUTO 27004KT 10SM FEW075 19/12 A3004 RMK AO2 T01870120
2026-04-14 03:55:00,METAR KMQS 140355Z AUTO 34009KT 10SM FEW075 SCT110 20/12 A3005 RMK AO2 T01950120
2026-04-14 03:35:00,METAR KMQS 140335Z AUTO 27005KT 10SM SCT110 21/12 A3004 RMK AO2 T02050115
2026-04-14 03:15:00,METAR KMQS 140315Z AUTO 26006KT 10SM FEW110 21/12 A3003 RMK AO2 T02050116
2026-04-14 02:55:00,METAR KMQS 140255Z AUTO 23005KT 10SM CLR 21/12 A3003 RMK AO2 T02070116 53014
2026-04-14 02:35:00,METAR KMQS 140235Z AUTO VRB06KT 10SM CLR 21/12 A3003 RMK AO2 T02100116
2026-04-14 02:15:00,METAR KMQS 140215Z AUTO 24006KT 10SM CLR 21/12 A3003 RMK AO2 T02130116
2026-04-14 01:55:00,METAR KMQS 140155Z AUTO VRB06KT 10SM CLR 21/12 A3002 RMK AO2 T02130117
2026-04-14 01:35:00,METAR KMQS 140135Z AUTO VRB03KT 10SM CLR 21/12 A3001 RMK AO2 T02130117
2026-04-14 01:15:00,METAR KMQS 140115Z AUTO VRB03KT 10SM CLR 21/12 A3001 RMK AO2 T02150118
2026-04-14 00:55:00,METAR KMQS 140055Z AUTO 00000KT 10SM CLR 22/12 A3001 RMK AO2 T02200119
2026-04-14 00:35:00,METAR KMQS 140035Z AUTO VRB03KT 10SM CLR 22/12 A3000 RMK AO2 T02210120
2026-04-14 00:15:00,METAR KMQS 140015Z AUTO 22003KT 10SM FEW080 22/12 A2999 RMK AO2 T02240120
2026-04-13 23:55:00,METAR KMQS 132355Z AUTO VRB04KT 10SM FEW080 23/12 A2999 RMK AO2 T02310121 10258 20231 55004
2026-04-13 23:35:00,METAR KMQS 132335Z AUTO VRB05KT 9SM CLR 23/12 A2999 RMK AO2 T02340121
2026-04-13 23:15:00,METAR KMQS 132315Z AUTO VRB04KT 10SM CLR 24/12 A2999 RMK AO2 T02370121
2026-04-13 22:55:00,METAR KMQS 132255Z AUTO 24008KT 210V270 10SM CLR 24/12 A2999 RMK AO2 T02440118
2026-04-13 22:35:00,METAR KMQS 132235Z AUTO VRB04KT 10SM CLR 25/12 A2999 RMK AO2 T02480119
2026-04-13 22:15:00,METAR KMQS 132215Z AUTO VRB04KT 10SM CLR 25/12 A2999 RMK AO2 T02510120
2026-04-13 21:55:00,METAR KMQS 132155Z AUTO 23010G15KT 210V270 10SM CLR 25/12 A3000 RMK AO2 T02530122
2026-04-13 21:35:00,METAR KMQS 132135Z AUTO 24007KT 210V270 10SM CLR 26/12 A3000 RMK AO2 T02560125
2026-04-13 21:15:00,METAR KMQS 132115Z AUTO 24009G20KT 200V290 10SM CLR 26/12 A3000 RMK AO2 T02560124
2026-04-13 20:55:00,METAR KMQS 132055Z AUTO 22009KT 170V280 10SM CLR 26/12 A3000 RMK AO2 T02560125 56013
2026-04-13 20:35:00,METAR KMQS 132035Z AUTO 25012G17KT 10SM FEW340 25/12 A3000 RMK AO2 T02480122
2026-04-13 20:15:00,METAR KMQS 132015Z AUTO 25010G15KT 220V290 10SM FEW230 25/13 A3001 RMK AO2 T02530126
2026-04-13 19:55:00,METAR KMQS 131955Z AUTO 25008G15KT 210V270 9SM FEW230 25/13 A3001 RMK AO2 T02510126
2026-04-13 19:35:00,METAR KMQS 131935Z AUTO 24005G15KT 190V290 9SM CLR 25/13 A3002 RMK AO2 T02460125
2026-04-13 19:15:00,METAR KMQS 131915Z AUTO 25007G18KT 200V280 9SM FEW220 SCT350 24/13 A3002 RMK AO2 T02430125
2026-04-13 18:55:00,METAR KMQS 131855Z AUTO 23008G17KT 190V290 9SM FEW110 SCT210 SCT310 BKN330 BKN370 24/13 A3003 RMK AO2 T02390126
2026-04-13 18:35:00,METAR KMQS 131835Z AUTO 24010G16KT 210V280 10SM SCT110 BKN220 24/12 A3003 RMK AO2 T02360124
2026-04-13 18:15:00,METAR KMQS 131815Z AUTO 25011G17KT 9SM BKN100 BKN280 24/13 A3004 RMK AO2 T02400132
2026-04-13 17:55:00,METAR KMQS 131755Z AUTO 24009G18KT 210V270 9SM BKN100 BKN160 23/14 A3004 RMK AO2 T02350137 10238 20118 57017
2026-04-13 17:35:00,METAR KMQS 131735Z AUTO 22008G17KT 9SM FEW160 SCT220 23/15 A3005 RMK AO2 T02350149
2026-04-13 17:15:00,METAR KMQS 131715Z AUTO 23009KT 170V280 9SM SCT190 BKN220 23/15 A3005 RMK AO2 T02340154
2026-04-13 16:55:00,METAR KMQS 131655Z AUTO 22008KT 150V280 9SM BKN100 BKN180 OVC210 22/15 A3006 RMK AO2 T02220153
2026-04-13 16:35:00,METAR KMQS 131635Z AUTO VRB05KT 9SM BKN100 OVC120 22/15 A3006 RMK AO2 T02170153
2026-04-13 16:15:00,METAR KMQS 131615Z AUTO 25008KT 210V310 9SM BKN130 BKN150 22/15 A3008 RMK AO2 T02220150
2026-04-13 15:55:00,METAR KMQS 131555Z AUTO 22009G14KT 180V250 10SM BKN140 BKN160 21/15 A3008 RMK AO2 T02150153
2026-04-13 15:35:00,METAR KMQS 131535Z AUTO 22007G16KT 170V280 9SM BKN140 21/15 A3008 RMK AO2 T02100152
2026-04-13 15:15:00,METAR KMQS 131515Z AUTO VRB06KT 10SM BKN140 21/15 A3009 RMK AO2 T02060153
2026-04-13 14:55:00,METAR KMQS 131455Z AUTO VRB05KT 10SM SCT120 BKN150 20/15 A3010 RMK AO2 T01990153 56018
2026-04-13 14:35:00,METAR KMQS 131435Z AUTO 21008G15KT 180V250 9SM FEW130 BKN160 BKN190 20/15 A3009 RMK AO2 T01970152
2026-04-13 14:15:00,METAR KMQS 131415Z AUTO 22005G16KT 170V270 10SM BKN160 OVC180 20/15 A3010 RMK AO2 T02010154
2026-04-13 13:55:00,METAR KMQS 131355Z AUTO 24010G20KT 10SM CLR 19/15 A3011 RMK AO2 T01910154
2026-04-13 13:35:00,METAR KMQS 131335Z AUTO 22007KT 180V240 9SM FEW100 19/16 A3012 RMK AO2 T01850155
2026-04-13 13:15:00,METAR KMQS 131315Z AUTO VRB05KT 10SM FEW100 SCT160 BKN190 17/15 A3012 RMK AO2 T01700151
2026-04-13 12:55:00,METAR KMQS 131255Z AUTO VRB03KT 9SM FEW100 OVC170 14/14 A3013 RMK AO2 T01420135
2026-04-13 12:35:00,METAR KMQS 131235Z AUTO 18003KT 9SM FEW100 BKN160 13/13 A3014 RMK AO2 T01320126
2026-04-13 12:15:00,METAR KMQS 131215Z AUTO 20004KT 8SM BKN100 OVC150 12/12 A3014 RMK AO2 T01230120
2026-04-13 11:55:00,METAR KMQS 131155Z AUTO VRB03KT 8SM OVC100 11/11 A3015 RMK AO2 T01120112 10112 20094 55002
2026-04-13 11:35:00,METAR KMQS 131135Z AUTO VRB03KT 8SM FEW008 BKN100 OVC200 11/11 A3015 RMK AO2 T01110109
2026-04-13 11:15:00,METAR KMQS 131115Z AUTO 19003KT 8SM SCT008 SCT100 BKN160 OVC200 11/11 A3015 RMK AO2 T01090108
2026-04-13 10:55:00,METAR KMQS 131055Z AUTO 00000KT 8SM BKN009 BKN160 OVC190 10/10 A3014 RMK AO2 T00990099
2026-04-13 10:35:00,METAR KMQS 131035Z AUTO 19003KT 8SM OVC009 10/10 A3015 RMK AO2 CIG 008V012 T00970097
2026-04-13 10:15:00,METAR KMQS 131015Z AUTO VRB03KT 10SM BKN008 OVC012 10/10 A3015 RMK AO2 CIG 008V012 T01030100
2026-04-13 09:55:00,METAR KMQS 130955Z AUTO VRB03KT 10SM BKN008 OVC012 10/10 A3015 RMK AO2 CIG 008V011 T01040101
2026-04-13 09:35:00,METAR KMQS 130935Z AUTO VRB03KT 10SM OVC009 10/10 A3015 RMK AO2 CIG 008V010 T01040100
2026-04-13 09:15:00,METAR KMQS 130915Z AUTO VRB05KT 10SM BKN009 OVC015 10/10 A3015 RMK AO2 CIG 009V012 T01020096
2026-04-13 08:55:00,METAR KMQS 130855Z AUTO 18003KT 10SM SCT012 BKN200 OVC220 10/09 A3016 RMK AO2 T00960090 56023
2026-04-13 08:35:00,METAR KMQS 130835Z AUTO VRB03KT 10SM FEW011 BKN190 BKN220 10/09 A3016 RMK AO2 T00970089
2026-04-13 08:15:00,METAR KMQS 130815Z AUTO VRB04KT 10SM FEW011 OVC200 10/09 A3016 RMK AO2 T00970087
2026-04-13 07:55:00,METAR KMQS 130755Z AUTO VRB04KT 10SM BKN210 10/08 A3017 RMK AO2 T00970084
2026-04-13 07:35:00,METAR KMQS 130735Z AUTO VRB05KT 10SM FEW210 10/08 A3017 RMK AO2 T00960081
2026-04-13 07:15:00,METAR KMQS 130715Z AUTO VRB04KT 10SM SCT210 09/08 A3018 RMK AO2 T00950079
2026-04-13 06:55:00,METAR KMQS 130655Z AUTO VRB04KT 10SM BKN220 10/08 A3020 RMK AO2 T00950077
2026-04-13 06:35:00,METAR KMQS 130635Z AUTO 16004KT 10SM FEW230 10/08 A3020 RMK AO2 T00950076
2026-04-13 06:15:00,METAR KMQS 130615Z AUTO VRB03KT 10SM CLR 09/08 A3021 RMK AO2 T00950075
2026-04-13 05:55:00,METAR KMQS 130555Z AUTO 18003KT 10SM CLR 10/07 A3023 RMK AO2 T00960073 10106 20093 401680046 58021
2026-04-13 05:35:00,METAR KMQS 130535Z AUTO 16005KT 10SM CLR 10/07 A3023 RMK AO2 T00960072
2026-04-13 05:15:00,METAR KMQS 130515Z AUTO VRB04KT 10SM CLR 10/07 A3023 RMK AO2 T00960072
2026-04-13 04:55:00,METAR KMQS 130455Z AUTO 18004KT 10SM CLR 10/07 A3025 RMK AO2 T00970071
2026-04-13 04:35:00,METAR KMQS 130435Z AUTO VRB04KT 10SM CLR 10/07 A3025 RMK AO2 T00970070
2026-04-13 04:15:00,METAR KMQS 130415Z AUTO 17005KT 10SM CLR 10/07 A3026 RMK AO2 T00970070
2026-04-13 03:55:00,METAR KMQS 130355Z AUTO VRB05KT 10SM CLR 10/07 A3027 RMK AO2 T00960070
2026-04-13 03:35:00,METAR KMQS 130335Z AUTO 17006KT 10SM CLR 10/07 A3028 RMK AO2 T00960070
2026-04-13 03:15:00,METAR KMQS 130315Z AUTO 17006KT 10SM CLR 10/07 A3028 RMK AO2 T00960073
2026-04-13 02:55:00,METAR KMQS 130255Z AUTO 17004KT 10SM CLR 09/07 A3029 RMK AO2 T00940074 58009
2026-04-13 02:35:00,METAR KMQS 130235Z AUTO 16004KT 10SM CLR 09/07 A3029 RMK AO2 T00940074
2026-04-13 02:15:00,METAR KMQS 130215Z AUTO VRB05KT 10SM CLR 10/07 A3030 RMK AO2 T00960073
2026-04-13 01:55:00,METAR KMQS 130155Z AUTO 16005KT 10SM FEW200 10/07 A3031 RMK AO2 T00970073
2026-04-13 01:35:00,METAR KMQS 130135Z AUTO VRB05KT 10SM FEW200 10/07 A3031 RMK AO2 T00960071
2026-04-13 01:15:00,METAR KMQS 130115Z AUTO 16005KT 10SM CLR 10/07 A3030 RMK AO2 T00970069
2026-04-13 00:55:00,METAR KMQS 130055Z AUTO 15006KT 10SM CLR 10/07 A3031 RMK AO2 T01000066
2026-04-13 00:35:00,METAR KMQS 130035Z AUTO 16007KT 10SM FEW200 10/06 A3030 RMK AO2 T01010064
2026-04-13 00:15:00,METAR KMQS 130015Z AUTO 15006KT 10SM FEW200 10/06 A3031 RMK AO2 T01040064
2026-04-12 23:55:00,METAR KMQS 122355Z AUTO 15007KT 120V200 10SM CLR 11/06 A3032 RMK AO2 T01090057 10168 20109 55006
2026-04-12 23:35:00,METAR KMQS 122335Z AUTO 16006G14KT 130V200 9SM CLR 11/05 A3031 RMK AO2 T01140053
2026-04-12 23:15:00,METAR KMQS 122315Z AUTO 15010G15KT 9SM CLR 12/05 A3031 RMK AO2 T01210048
2026-04-12 22:55:00,METAR KMQS 122255Z AUTO 16007KT 10SM FEW270 13/04 A3031 RMK AO2 T01270037
2026-04-12 22:35:00,METAR KMQS 122235Z AUTO 16009G16KT 10SM CLR 13/03 A3031 RMK AO2 T01300030
2026-04-12 22:15:00,METAR KMQS 122215Z AUTO VRB06KT 10SM CLR 14/03 A3032 RMK AO2 T01370029
2026-04-12 21:55:00,METAR KMQS 122155Z AUTO VRB05KT 10SM CLR 14/03 A3032 RMK AO2 T01410033
2026-04-12 21:35:00,METAR KMQS 122135Z AUTO 15008KT 110V180 10SM CLR 14/03 A3033 RMK AO2 T01420032
2026-04-12 21:15:00,METAR KMQS 122115Z AUTO 15008KT 10SM CLR 14/03 A3033 RMK AO2 T01450035
2026-04-12 20:55:00,METAR KMQS 122055Z AUTO 15008G16KT 10SM FEW180 15/04 A3033 RMK AO2 T01510037 56027
2026-04-12 20:35:00,METAR KMQS 122035Z AUTO 15008G18KT 10SM SCT180 15/04 A3034 RMK AO2 T01540036
2026-04-12 20:15:00,METAR KMQS 122015Z AUTO 14008KT 10SM BKN180 15/04 A3034 RMK AO2 T01550038
2026-04-12 19:55:00,METAR KMQS 121955Z AUTO VRB06KT 10SM BKN160 16/04 A3035 RMK AO2 T01600038
2026-04-12 19:35:00,METAR KMQS 121935Z AUTO 15006G15KT 120V180 10SM SCT160 16/04 A3035 RMK AO2 T01620037
2026-04-12 19:15:00,METAR KMQS 121915Z AUTO 15006G15KT 090V210 10SM CLR 17/04 A3037 RMK AO2 T01650037
2026-04-12 18:55:00,METAR KMQS 121855Z AUTO 16009KT 140V210 9SM CLR 16/03 A3037 RMK AO2 T01570031
2026-04-12 18:35:00,METAR KMQS 121835Z AUTO 17008G14KT 10SM CLR 16/03 A3039 RMK AO2 T01580030
2026-04-12 18:15:00,METAR KMQS 121815Z AUTO 18008G20KT 140V240 10SM CLR 16/02 A3041 RMK AO2 T01560025
2026-04-12 17:55:00,METAR KMQS 121755Z AUTO 17007KT 130V200 10SM FEW180 15/02 A3041 RMK AO2 T01520024 10155 20072 58020
2026-04-12 17:35:00,METAR KMQS 121735Z AUTO 19007KT 160V230 10SM FEW180 15/02 A3042 RMK AO2 T01520021
2026-04-12 17:15:00,METAR KMQS 121715Z AUTO VRB06KT 10SM CLR 15/02 A3043 RMK AO2 T01500015
2026-04-12 16:55:00,METAR KMQS 121655Z AUTO 16008KT 080V200 10SM CLR 15/02 A3044 RMK AO2 T01460018
2026-04-12 16:35:00,METAR KMQS 121635Z AUTO VRB04KT 10SM CLR 14/02 A3044 RMK AO2 T01430018
2026-04-12 16:15:00,METAR KMQS 121615Z AUTO 14008KT 10SM CLR 14/02 A3045 RMK AO2 T01410016
2026-04-12 15:55:00,METAR KMQS 121555Z AUTO 14007G18KT 120V180 10SM CLR 13/01 A3046 RMK AO2 T01340013
2026-04-12 14:55:00,METAR KMQS 121455Z AUTO VRB05KT 10SM CLR 12/00 A3048 RMK AO2 T01230002 58001
2026-04-12 14:35:00,METAR KMQS 121435Z AUTO 15008KT 130V190 10SM CLR 12/M00 A3048 RMK AO2 T01171003
2026-04-12 14:15:00,METAR KMQS 121415Z AUTO 13009KT 120V200 10SM CLR 11/M01 A3048 RMK AO2 T01141006
2026-04-12 13:55:00,METAR KMQS 121355Z AUTO 13009G14KT 10SM CLR 11/M01 A3048 RMK AO2 T01061010
2026-04-12 13:35:00,METAR KMQS 121335Z AUTO 14007KT 10SM CLR 10/M01 A3049 RMK AO2 T01001010
2026-04-12 13:15:00,METAR KMQS 121315Z AUTO 12007KT 10SM CLR 09/M01 A3048 RMK AO2 T00941006
2026-04-12 12:55:00,METAR KMQS 121255Z AUTO 11009KT 10SM CLR 08/M01 A3048 RMK AO2 T00841014
2026-04-12 12:35:00,METAR KMQS 121235Z AUTO VRB06KT 10SM CLR 08/M02 A3048 RMK AO2 T00821016
2026-04-12 12:15:00,METAR KMQS 121215Z AUTO 12008KT 090V160 10SM CLR 08/M02 A3048 RMK AO2 T00771020
2026-04-12 11:55:00,METAR KMQS 121155Z AUTO 12006KT 10SM CLR 07/M02 A3048 RMK AO2 T00671019 10083 20046 52014
2026-04-12 11:35:00,METAR KMQS 121135Z AUTO 11006KT 10SM CLR 06/M02 A3048 RMK AO2 T00641019
2026-04-12 11:15:00,METAR KMQS 121115Z AUTO 08004KT 10SM CLR 05/M02 A3047 RMK AO2 T00551018
2026-04-12 10:55:00,METAR KMQS 121055Z AUTO 09005KT 10SM CLR 05/M02 A3046 RMK AO2 T00461023
2026-04-12 10:35:00,METAR KMQS 121035Z AUTO 09006KT 10SM CLR 05/M03 A3046 RMK AO2 T00521028
2026-04-12 10:15:00,METAR KMQS 121015Z AUTO 08004KT 10SM CLR 06/M03 A3046 RMK AO2 T00561030
2026-04-12 09:55:00,METAR KMQS 120955Z AUTO 07005KT 10SM CLR 06/M03 A3045 RMK AO2 T00561027
2026-04-12 09:35:00,METAR KMQS 120935Z AUTO 07005KT 10SM CLR 06/M03 A3045 RMK AO2 T00561025
2026-04-12 09:15:00,METAR KMQS 120915Z AUTO 07005KT 10SM CLR 06/M03 A3044 RMK AO2 T00601026
2026-04-12 08:55:00,METAR KMQS 120855Z AUTO 08004KT 10SM CLR 06/M02 A3044 RMK AO2 T00601024 52010
2026-04-12 08:35:00,METAR KMQS 120835Z AUTO 06005KT 10SM CLR 06/M02 A3043 RMK AO2 T00611023
2026-04-12 08:15:00,METAR KMQS 120815Z AUTO 07004KT 10SM CLR 07/M02 A3044 RMK AO2 T00651024
2026-04-12 07:55:00,METAR KMQS 120755Z AUTO 08005KT 10SM CLR 07/M02 A3043 RMK AO2 T00681024
2026-04-12 07:35:00,METAR KMQS 120735Z AUTO 07006KT 10SM CLR 07/M02 A3042 RMK AO2 T00711023
2026-04-12 07:15:00,METAR KMQS 120715Z AUTO 07007KT 10SM CLR 07/M02 A3042 RMK AO2 T00741021
2026-04-12 06:55:00,METAR KMQS 120655Z AUTO 07006KT 10SM CLR 08/M02 A3041 RMK AO2 T00761021
2026-04-12 06:35:00,METAR KMQS 120635Z AUTO 07007KT 10SM CLR 08/M02 A3041 RMK AO2 T00761018
2026-04-12 06:15:00,METAR KMQS 120615Z AUTO 07006KT 10SM CLR 08/M02 A3041 RMK AO2 T00811018
2026-04-12 05:55:00,METAR KMQS 120555Z AUTO 07006KT 10SM CLR 08/M02 A3041 RMK AO2 T00821016 10142 20082 401700082 52019
2026-04-12 05:35:00,METAR KMQS 120535Z AUTO 08005KT 10SM CLR 08/M01 A3040 RMK AO2 T00841014
2026-04-12 05:15:00,METAR KMQS 120515Z AUTO 05006KT 10SM CLR 09/M01 A3039 RMK AO2 T00921015
2026-04-12 04:55:00,METAR KMQS 120455Z AUTO 05006KT 10SM CLR 09/M02 A3038 RMK AO2 T00951016
2026-04-12 04:35:00,METAR KMQS 120435Z AUTO 04005KT 10SM CLR 10/M02 A3038 RMK AO2 T00951015
2026-04-12 04:15:00,METAR KMQS 120415Z AUTO 05005KT 10SM CLR 10/M01 A3038 RMK AO2 T00961013
2026-04-12 03:55:00,METAR KMQS 120355Z AUTO 05005KT 10SM CLR 10/M01 A3037 RMK AO2 T00971011
2026-04-12 03:35:00,METAR KMQS 120335Z AUTO 05005KT 10SM CLR 09/M01 A3037 RMK AO2 T00941007
2026-04-12 03:15:00,METAR KMQS 120315Z AUTO 06004KT 10SM CLR 09/M00 A3036 RMK AO2 T00911004
2026-04-12 02:55:00,METAR KMQS 120255Z AUTO 00000KT 10SM CLR 10/M00 A3035 RMK AO2 T00981002 51016
2026-04-12 02:35:00,METAR KMQS 120235Z AUTO 00000KT 10SM CLR 09/00 A3035 RMK AO2 T00900004
2026-04-12 02:15:00,METAR KMQS 120215Z AUTO 00000KT 10SM CLR 10/00 A3034 RMK AO2 T01030001
2026-04-12 01:55:00,METAR KMQS 120155Z AUTO 00000KT 10SM CLR 10/M00 A3034 RMK AO2 T01021004
2026-04-12 01:35:00,METAR KMQS 120135Z AUTO 00000KT 10SM CLR 12/M01 A3034 RMK AO2 T01191009
2026-04-12 01:15:00,METAR KMQS 120115Z AUTO 00000KT 10SM CLR 12/M01 A3033 RMK AO2 T01151006
2026-04-12 00:55:00,METAR KMQS 120055Z AUTO 30003KT 10SM CLR 11/M01 A3033 RMK AO2 T01151007
2026-04-12 00:35:00,METAR KMQS 120035Z AUTO 00000KT 10SM CLR 14/M02 A3032 RMK AO2 T01391018
2026-04-12 00:15:00,METAR KMQS 120015Z AUTO 00000KT 10SM CLR 13/M01 A3031 RMK AO2 T01321012
2026-04-11 23:55:00,METAR KMQS 112355Z AUTO 32003KT 10SM CLR 14/M01 A3030 RMK AO2 T01361013 10170 20135 51008
2026-04-11 23:35:00,METAR KMQS 112335Z AUTO 35004KT 10SM CLR 14/M01 A3030 RMK AO2 T01431011
2026-04-11 23:15:00,METAR KMQS 112315Z AUTO 34004KT 10SM CLR 15/M01 A3030 RMK AO2 T01521009
2026-04-11 22:55:00,METAR KMQS 112255Z AUTO 35006KT 10SM CLR 16/M01 A3029 RMK AO2 T01581013
2026-04-11 22:35:00,METAR KMQS 112235Z AUTO 32007KT 10SM CLR 16/M01 A3029 RMK AO2 T01611010
2026-04-11 22:15:00,METAR KMQS 112215Z AUTO 33007KT 10SM CLR 16/M01 A3029 RMK AO2 T01621014
2026-04-11 21:55:00,METAR KMQS 112155Z AUTO 33007KT 10SM CLR 16/M01 A3029 RMK AO2 T01651014
2026-04-11 21:35:00,METAR KMQS 112135Z AUTO 33011KT 10SM CLR 17/M01 A3028 RMK AO2 T01671010
2026-04-11 21:15:00,METAR KMQS 112115Z AUTO 31014G18KT 10SM CLR 17/M01 A3028 RMK AO2 T01661010
2026-04-11 20:55:00,METAR KMQS 112055Z AUTO 33012G18KT 10SM CLR 17/M01 A3028 RMK AO2 T01661009 55003
2026-04-11 20:35:00,METAR KMQS 112035Z AUTO 33009KT 10SM CLR 17/00 A3027 RMK AO2 T01680004
2026-04-11 20:15:00,METAR KMQS 112015Z AUTO 35011G15KT 300V010 10SM CLR 17/00 A3027 RMK AO2 T01660003
2026-04-11 19:55:00,METAR KMQS 111955Z AUTO 35007KT 320V020 10SM CLR 16/M00 A3027 RMK AO2 T01641001
2026-04-11 19:35:00,METAR KMQS 111935Z AUTO 34011KT 10SM CLR 16/M00 A3027 RMK AO2 T01641001
2026-04-11 19:15:00,METAR KMQS 111915Z AUTO 31013KT 10SM CLR 17/01 A3026 RMK AO2 T01650009
2026-04-11 18:55:00,METAR KMQS 111855Z AUTO 36008KT 10SM CLR 16/02 A3027 RMK AO2 T01620016
2026-04-11 18:35:00,METAR KMQS 111835Z AUTO 31013KT 10SM CLR 16/01 A3027 RMK AO2 T01590015
2026-04-11 18:15:00,METAR KMQS 111815Z AUTO 32007G16KT 280V350 10SM CLR 16/02 A3028 RMK AO2 T01590022
2026-04-11 17:55:00,METAR KMQS 111755Z AUTO 32013G16KT 10SM CLR 16/02 A3029 RMK AO2 T01570018 10157 20105 58001
2026-04-11 17:35:00,METAR KMQS 111735Z AUTO 33011KT 10SM CLR 16/03 A3028 RMK AO2 T01560025
2026-04-11 17:15:00,METAR KMQS 111715Z AUTO 32008KT 10SM FEW380 15/02 A3029 RMK AO2 T01480023
2026-04-11 16:55:00,METAR KMQS 111655Z AUTO 32011G19KT 10SM CLR 14/02 A3029 RMK AO2 T01450024
2026-04-11 16:35:00,METAR KMQS 111635Z AUTO 35007G18KT 10SM CLR 15/03 A3029 RMK AO2 T01470029
2026-04-11 16:15:00,METAR KMQS 111615Z AUTO VRB05KT 10SM CLR 14/02 A3029 RMK AO2 T01370023
2026-04-11 15:55:00,METAR KMQS 111555Z AUTO 33014G17KT 10SM CLR 14/03 A3030 RMK AO2 T01370026
2026-04-11 15:35:00,METAR KMQS 111535Z AUTO 31014G21KT 10SM CLR 13/03 A3029 RMK AO2 T01350028
2026-04-11 15:15:00,METAR KMQS 111515Z AUTO 32010G24KT 10SM CLR 13/03 A3029 RMK AO2 T01310030
2026-04-11 14:55:00,METAR KMQS 111455Z AUTO 01010KT 10SM SCT039 13/03 A3029 RMK AO2 T01260031 51019
2026-04-11 14:35:00,METAR KMQS 111435Z AUTO 35010G20KT 10SM BKN037 12/03 A3029 RMK AO2 T01250034
2026-04-11 14:15:00,METAR KMQS 111415Z AUTO 36015G19KT 10SM SCT036 12/04 A3029 RMK AO2 T01220036
2026-04-11 13:55:00,METAR KMQS 111355Z AUTO 35010G22KT 10SM CLR 12/04 A3028 RMK AO2 T01180043
2026-04-11 13:35:00,METAR KMQS 111335Z AUTO 36012G17KT 10SM CLR 12/05 A3028 RMK AO2 T01170046
2026-04-11 13:15:00,METAR KMQS 111315Z AUTO 34013G19KT 10SM CLR 11/05 A3027 RMK AO2 T01150052
2026-04-11 12:55:00,METAR KMQS 111255Z AUTO 36015G23KT 10SM CLR 11/05 A3026 RMK AO2 T01070048
2026-04-11 12:35:00,METAR KMQS 111235Z AUTO 36018G24KT 10SM CLR 11/06 A3025 RMK AO2 T01100058
2026-04-11 12:15:00,METAR KMQS 111215Z AUTO 01012KT 10SM SCT033 11/07 A3025 RMK AO2 T01110066
2026-04-11 11:55:00,METAR KMQS 111155Z AUTO 36014G21KT 10SM BKN032 11/07 A3023 RMK AO2 60000 T01120073 10145 20112 53035
2026-04-11 11:35:00,METAR KMQS 111135Z AUTO 35013G19KT 10SM CLR 11/08 A3022 RMK AO2 T01140080
2026-04-11 11:15:00,METAR KMQS 111115Z AUTO 36009KT 10SM FEW019 SCT028 BKN047 12/09 A3021 RMK AO2 FEW V SCT T01170090
2026-04-11 10:55:00,METAR KMQS 111055Z AUTO 01012G18KT 10SM BKN018 OVC026 13/10 A3019 RMK AO2 CIG 017V021 T01270102
2026-04-11 10:35:00,METAR KMQS 111035Z AUTO 36012G17KT 10SM BKN017 BKN022 13/11 A3018 RMK AO2 T01320109
2026-04-11 10:15:00,METAR KMQS 111015Z AUTO 33006KT 10SM FEW022 SCT060 13/11 A3016 RMK AO2 T01330113
2026-04-11 09:55:00,METAR KMQS 110955Z AUTO 33007KT 10SM CLR 14/11 A3015 RMK AO2 T01380113
2026-04-11 09:35:00,METAR KMQS 110935Z AUTO 30007KT 10SM CLR 14/11 A3014 RMK AO2 T01350109
2026-04-11 09:15:00,METAR KMQS 110915Z AUTO 33008KT 10SM CLR 14/10 A3013 RMK AO2 T01360105
2026-04-11 08:55:00,METAR KMQS 110855Z AUTO 31005KT 10SM FEW035 13/10 A3013 RMK AO2 60000 T01340101 55000
2026-04-11 08:35:00,METAR KMQS 110835Z AUTO 30007KT 10SM SCT035 14/10 A3012 RMK AO2 T01380099
2026-04-11 08:15:00,METAR KMQS 110815Z AUTO 32008KT 10SM FEW034 14/10 A3012 RMK AO2 T01410103
2026-04-11 07:55:00,METAR KMQS 110755Z AUTO 31007KT 10SM FEW100 12/10 A3012 RMK AO2 T01200098
2026-04-11 07:35:00,METAR KMQS 110735Z AUTO 29005KT 10SM FEW100 12/09 A3011 RMK AO2 T01190093
2026-04-11 07:15:00,METAR KMQS 110715Z AUTO 29006KT 10SM SCT100 12/09 A3011 RMK AO2 T01220092
2026-04-11 06:55:00,METAR KMQS 110655Z AUTO 28007KT 10SM FEW080 OVC100 14/10 A3012 RMK AO2 RAB0554E0604 P0000 T01370097
2026-04-11 06:35:00,METAR KMQS 110635Z AUTO 27005KT 10SM BKN080 OVC110 13/09 A3012 RMK AO2 RAB0554E0604 P0000 T01330092
2026-04-11 06:15:00,METAR KMQS 110615Z AUTO 29004KT 10SM BKN080 OVC120 13/09 A3012 RMK AO2 RAB0554E0604 P0000 T01280088
2026-04-11 05:55:00,METAR KMQS 110555Z AUTO 25004KT 10SM BKN110 BKN130 14/08 A3013 RMK AO2 T01360081 10145 20110 401970042 58001
2026-04-11 05:35:00,METAR KMQS 110535Z AUTO 23003KT 10SM FEW100 BKN130 13/08 A3013 RMK AO2 T01340080
2026-04-11 05:15:00,METAR KMQS 110515Z AUTO 27003KT 10SM SCT100 BKN130 BKN220 OVC240 14/08 A3013 RMK AO2 T01360082
2026-04-11 04:55:00,METAR KMQS 110455Z AUTO 28003KT 10SM BKN110 OVC220 13/08 A3014 RMK AO2 T01340085
2026-04-11 04:35:00,METAR KMQS 110435Z AUTO 27003KT 10SM OVC110 13/09 A3015 RMK AO2 T01270087
2026-04-11 04:15:00,METAR KMQS 110415Z AUTO 22003KT 10SM OVC120 14/08 A3015 RMK AO2 T01370084
2026-04-11 03:55:00,METAR KMQS 110355Z AUTO 00000KT 10SM BKN120 OVC190 14/08 A3016 RMK AO2 T01400082
2026-04-11 03:35:00,METAR KMQS 110335Z AUTO 30007KT 10SM SCT130 BKN160 OVC190 14/09 A3017 RMK AO2 T01360085
2026-04-11 03:15:00,METAR KMQS 110315Z AUTO 31005KT 10SM FEW120 BKN160 12/09 A3017 RMK AO2 T01240087
2026-04-11 02:55:00,METAR KMQS 110255Z AUTO 00000KT 10SM BKN120 11/09 A3013 RMK AO2 T01110090 58002
2026-04-11 02:35:00,METAR KMQS 110235Z AUTO 00000KT 10SM OVC120 11/09 A3013 RMK AO2 T01130090
2026-04-11 02:15:00,METAR KMQS 110215Z AUTO VRB04KT 10SM BKN120 11/09 A3014 RMK AO2 T01140092
2026-04-11 01:55:00,METAR KMQS 110155Z AUTO VRB03KT 10SM CLR 11/09 A3014 RMK AO2 T01150090
2026-04-11 01:35:00,METAR KMQS 110135Z AUTO 00000KT 10SM CLR 12/09 A3014 RMK AO2 T01180088
2026-04-11 01:15:00,METAR KMQS 110115Z AUTO 17003KT 10SM CLR 12/09 A3014 RMK AO2 T01220086
2026-04-11 00:55:00,METAR KMQS 110055Z AUTO VRB04KT 10SM CLR 13/08 A3014 RMK AO2 T01280084
2026-04-11 00:35:00,METAR KMQS 110035Z AUTO VRB03KT 10SM FEW250 13/08 A3014 RMK AO2 T01310084
2026-04-11 00:15:00,METAR KMQS 110015Z AUTO 16004KT 9SM BKN250 14/09 A3013 RMK AO2 T01390086
2026-04-10 23:55:00,METAR KMQS 102355Z AUTO 17004KT 9SM SCT240 15/09 A3013 RMK AO2 T01520090 10197 20152 56009
2026-04-10 23:35:00,METAR KMQS 102335Z AUTO 16005KT 9SM FEW220 SCT250 17/08 A3013 RMK AO2 T01670085
2026-04-10 23:15:00,METAR KMQS 102315Z AUTO 19006KT 10SM FEW210 18/05 A3013 RMK AO2 T01800052
2026-04-10 22:55:00,METAR KMQS 102255Z AUTO 19008KT 160V230 10SM SCT220 18/05 A3013 RMK AO2 T01840049
2026-04-10 22:35:00,METAR KMQS 102235Z AUTO 21007KT 10SM SCT210 19/05 A3013 RMK AO2 T01870050
2026-04-10 22:15:00,METAR KMQS 102215Z AUTO VRB04KT 10SM FEW210 19/05 A3014 RMK AO2 T01850051
2026-04-10 21:55:00,METAR KMQS 102155Z AUTO 21006G15KT 150V240 10SM CLR 19/05 A3014 RMK AO2 T01900050
2026-04-10 21:35:00,METAR KMQS 102135Z AUTO 20007G17KT 10SM CLR 19/05 A3014 RMK AO2 T01940048
2026-04-10 21:15:00,METAR KMQS 102115Z AUTO 20008KT 10SM CLR 20/05 A3015 RMK AO2 T01970053
2026-04-10 20:55:00,METAR KMQS 102055Z AUTO VRB06KT 10SM CLR 19/05 A3016 RMK AO2 T01910051 56029
2026-04-10 20:35:00,METAR KMQS 102035Z AUTO 21008KT 10SM CLR 19/05 A3016 RMK AO2 T01930055
2026-04-10 20:15:00,METAR KMQS 102015Z AUTO 23005KT 10SM CLR 19/06 A3017 RMK AO2 T01890062
2026-04-10 19:55:00,METAR KMQS 101955Z AUTO 18008KT 10SM CLR 19/07 A3017 RMK AO2 T01950067
2026-04-10 19:35:00,METAR KMQS 101935Z AUTO VRB05KT 10SM CLR 19/07 A3019 RMK AO2 T01910070
2026-04-10 19:15:00,METAR KMQS 101915Z AUTO 19007KT 160V220 10SM CLR 19/07 A3020 RMK AO2 T01910074
2026-04-10 18:55:00,METAR KMQS 101855Z AUTO 19008KT 10SM CLR 19/08 A3021 RMK AO2 T01890075
2026-04-10 18:35:00,METAR KMQS 101835Z AUTO 22009KT 10SM CLR 18/07 A3022 RMK AO2 T01830073
2026-04-10 18:15:00,METAR KMQS 101815Z AUTO 22006KT 10SM CLR 18/07 A3023 RMK AO2 T01790069
2026-04-10 17:55:00,METAR KMQS 101755Z AUTO 18007KT 140V210 10SM CLR 18/08 A3025 RMK AO2 T01760078 10176 20043 58030
2026-04-10 17:35:00,METAR KMQS 101735Z AUTO 19006KT 10SM CLR 17/08 A3026 RMK AO2 T01670077
2026-04-10 17:15:00,METAR KMQS 101715Z AUTO VRB04KT 9SM CLR 16/08 A3027 RMK AO2 T01640078
2026-04-10 16:55:00,METAR KMQS 101655Z AUTO 23007KT 10SM CLR 16/07 A3029 RMK AO2 T01550075
2026-04-10 16:35:00,METAR KMQS 101635Z AUTO VRB05KT 10SM CLR 15/07 A3029 RMK AO2 T01520075
2026-04-10 16:15:00,METAR KMQS 101615Z AUTO VRB05KT 10SM CLR 15/08 A3030 RMK AO2 T01480075
2026-04-10 15:55:00,METAR KMQS 101555Z AUTO VRB04KT 10SM CLR 14/07 A3032 RMK AO2 T01390075
2026-04-10 15:35:00,METAR KMQS 101535Z AUTO VRB05KT 10SM CLR 13/07 A3032 RMK AO2 T01300074
2026-04-10 15:15:00,METAR KMQS 101515Z AUTO VRB05KT 10SM CLR 12/08 A3033 RMK AO2 T01200076
2026-04-10 14:55:00,METAR KMQS 101455Z AUTO VRB03KT 10SM CLR 11/08 A3034 RMK AO2 T01070075 57015
2026-04-10 14:35:00,METAR KMQS 101435Z AUTO VRB03KT 10SM FEW011 10/07 A3034 RMK AO2 T00980075
2026-04-10 14:15:00,METAR KMQS 101415Z AUTO 00000KT 9SM BKN009 08/07 A3035 RMK AO2 T00840070
2026-04-10 13:55:00,METAR KMQS 101355Z AUTO 00000KT 10SM OVC006 08/07 A3035 RMK AO2 CIG 005V008 T00760068
2026-04-10 13:35:00,METAR KMQS 101335Z AUTO VRB04KT 9SM OVC005 07/06 A3036 RMK AO2 CIG 004V007 T00690064
2026-04-10 13:15:00,METAR KMQS 101315Z AUTO VRB03KT 9SM OVC004 06/06 A3036 RMK AO2 CIG 004V006 T00580058
2026-04-10 12:55:00,METAR KMQS 101255Z AUTO VRB03KT 8SM OVC004 05/05 A3037 RMK AO2 CIG 003V005 T00540054
2026-04-10 12:35:00,METAR KMQS 101235Z AUTO VRB04KT 8SM OVC003 05/05 A3038 RMK AO2 CIG 002V005 T00490049
2026-04-10 12:15:00,METAR KMQS 101215Z AUTO 00000KT 5SM BR OVC002 05/05 A3038 RMK AO2 T00460046
2026-04-10 11:55:00,METAR KMQS 101155Z AUTO 00000KT 1 1/2SM BR OVC002 04/04 A3039 RMK AO2 VIS 3/4V2 1/2 T00420042 10053 20042 53007
2026-04-10 11:35:00,METAR KMQS 101135Z AUTO 26003KT 3SM BR OVC003 04/04 A3039 RMK AO2 T00430043
2026-04-10 11:15:00,METAR KMQS 101115Z AUTO VRB04KT 5SM BR OVC004 04/04 A3038 RMK AO2 CIG 003V005 T00440044
2026-04-10 10:55:00,METAR KMQS 101055Z AUTO VRB03KT 8SM OVC004 05/05 A3037 RMK AO2 CIG 004V006 T00460046
2026-04-10 10:35:00,METAR KMQS 101035Z AUTO 00000KT 8SM OVC004 05/05 A3037 RMK AO2 CIG 004V006 T00470047
2026-04-10 10:15:00,METAR KMQS 101015Z AUTO 00000KT 10SM OVC004 05/05 A3036 RMK AO2 T00480048
2026-04-10 09:55:00,METAR KMQS 100955Z AUTO 19005KT 9SM OVC004 05/05 A3036 RMK AO2 T00490049
2026-04-10 09:35:00,METAR KMQS 100935Z AUTO VRB03KT 10SM OVC004 05/05 A3036 RMK AO2 T00490049
2026-04-10 09:15:00,METAR KMQS 100915Z AUTO 19004KT 10SM OVC004 05/05 A3037 RMK AO2 T00490049
2026-04-10 08:55:00,METAR KMQS 100855Z AUTO VRB03KT 10SM OVC004 05/05 A3036 RMK AO2 T00490049 56013
2026-04-10 08:35:00,METAR KMQS 100835Z AUTO VRB03KT 10SM OVC003 05/05 A3036 RMK AO2 T00500050
2026-04-10 08:15:00,METAR KMQS 100815Z AUTO VRB03KT 9SM OVC003 05/05 A3037 RMK AO2 T00500050
2026-04-10 07:55:00,METAR KMQS 100755Z AUTO 00000KT 9SM OVC004 05/05 A3038 RMK AO2 T00500050
2026-04-10 07:35:00,METAR KMQS 100735Z AUTO VRB03KT 10SM OVC004 05/05 A3038 RMK AO2 T00500050
2026-04-10 07:15:00,METAR KMQS 100715Z AUTO 18004KT 9SM OVC004 05/05 A3038 RMK AO2 T00510051
2026-04-10 06:55:00,METAR KMQS 100655Z AUTO 18004KT 10SM OVC004 05/05 A3038 RMK AO2 T00520052
2026-04-10 06:35:00,METAR KMQS 100635Z AUTO 17005KT 10SM OVC005 05/05 A3039 RMK AO2 CIG 004V006 T00520052
2026-04-10 06:15:00,METAR KMQS 100615Z AUTO VRB04KT 10SM OVC005 05/05 A3039 RMK AO2 T00530053
2026-04-10 05:55:00,METAR KMQS 100555Z AUTO VRB05KT 10SM OVC005 05/05 A3040 RMK AO2 T00520052 10093 20045 401381013 57007
2026-04-10 05:35:00,METAR KMQS 100535Z AUTO VRB05KT 10SM OVC005 05/05 A3041 RMK AO2 CIG 004V007 T00510051
2026-04-10 05:15:00,METAR KMQS 100515Z AUTO VRB03KT 10SM BKN007 05/05 A3041 RMK AO2 T00490049
2026-04-10 04:55:00,METAR KMQS 100455Z AUTO 17004KT 10SM CLR 05/05 A3041 RMK AO2 T00470047
2026-04-10 04:35:00,METAR KMQS 100435Z AUTO 18003KT 10SM FEW007 05/05 A3042 RMK AO2 T00480048
2026-04-10 04:15:00,METAR KMQS 100415Z AUTO 17005KT 10SM BKN007 05/05 A3041 RMK AO2 T00510051
2026-04-10 03:55:00,METAR KMQS 100355Z AUTO 17006KT 9SM OVC007 05/05 A3042 RMK AO2 T00540052
2026-04-10 03:35:00,METAR KMQS 100335Z AUTO 16004KT 9SM OVC007 05/05 A3043 RMK AO2 T00550053
2026-04-10 03:15:00,METAR KMQS 100315Z AUTO 18003KT 10SM BKN008 06/05 A3043 RMK AO2 T00550051
2026-04-10 02:55:00,METAR KMQS 100255Z AUTO 18004KT 10SM CLR 06/05 A3042 RMK AO2 T00560050 50002
2026-04-10 02:35:00,METAR KMQS 100235Z AUTO 17003KT 10SM CLR 06/05 A3043 RMK AO2 T00580050
2026-04-10 02:15:00,METAR KMQS 100215Z AUTO VRB03KT 10SM CLR 06/05 A3044 RMK AO2 T00600051
2026-04-10 01:55:00,METAR KMQS 100155Z AUTO 16004KT 10SM CLR 06/05 A3044 RMK AO2 T00630049
2026-04-10 01:35:00,METAR KMQS 100135Z AUTO VRB05KT 10SM CLR 07/05 A3045 RMK AO2 T00660048
2026-04-10 01:15:00,METAR KMQS 100115Z AUTO VRB03KT 10SM CLR 07/04 A3043 RMK AO2 T00690043
2026-04-10 00:55:00,METAR KMQS 100055Z AUTO 17005KT 10SM CLR 08/04 A3043 RMK AO2 T00780040
2026-04-10 00:35:00,METAR KMQS 100035Z AUTO 16006KT 10SM CLR 08/04 A3042 RMK AO2 T00820037
2026-04-10 00:15:00,METAR KMQS 100015Z AUTO 16005KT 10SM CLR 09/02 A3042 RMK AO2 T00890023
2026-04-09 23:55:00,METAR KMQS 092355Z AUTO VRB04KT 10SM CLR 10/M00 A3042 RMK AO2 T00971003 10138 20097 56006
2026-04-09 23:35:00,METAR KMQS 092335Z AUTO 16005KT 9SM CLR 10/M02 A3041 RMK AO2 T01001017
2026-04-09 23:15:00,METAR KMQS 092315Z AUTO VRB05KT 10SM CLR 11/M03 A3041 RMK AO2 T01061029
2026-04-09 22:55:00,METAR KMQS 092255Z AUTO 15006KT 10SM CLR 11/M02 A3042 RMK AO2 T01131024
2026-04-09 22:35:00,METAR KMQS 092235Z AUTO 15007KT 10SM CLR 12/M02 A3042 RMK AO2 T01171023
2026-04-09 22:15:00,METAR KMQS 092215Z AUTO VRB06KT 10SM SCT220 12/M02 A3042 RMK AO2 T01221016
2026-04-09 21:55:00,METAR KMQS 092155Z AUTO 14005KT 9SM SCT220 13/M01 A3042 RMK AO2 T01281010
2026-04-09 21:35:00,METAR KMQS 092135Z AUTO 15007KT 10SM SCT230 13/M01 A3043 RMK AO2 T01261007
2026-04-09 21:15:00,METAR KMQS 092115Z AUTO VRB06KT 10SM SCT230 13/M01 A3043 RMK AO2 T01291008
2026-04-09 20:55:00,METAR KMQS 092055Z AUTO VRB06KT 9SM CLR 13/M01 A3044 RMK AO2 T01311006 56021
2026-04-09 20:35:00,METAR KMQS 092035Z AUTO VRB06KT 9SM CLR 13/M00 A3044 RMK AO2 T01321002
2026-04-09 20:15:00,METAR KMQS 092015Z AUTO 16009G17KT 9SM FEW200 13/00 A3044 RMK AO2 T01330000
2026-04-09 19:55:00,METAR KMQS 091955Z AUTO VRB05KT 9SM CLR 14/00 A3045 RMK AO2 T01380005
2026-04-09 19:35:00,METAR KMQS 091935Z AUTO 16008KT 9SM CLR 13/00 A3045 RMK AO2 T01340000
2026-04-09 19:15:00,METAR KMQS 091915Z AUTO 15009KT 9SM CLR 13/M00 A3047 RMK AO2 T01291000
2026-04-09 18:55:00,METAR KMQS 091855Z AUTO 15009KT 110V210 10SM CLR 13/00 A3048 RMK AO2 T01320000
2026-04-09 18:35:00,METAR KMQS 091835Z AUTO VRB06KT 9SM CLR 12/00 A3048 RMK AO2 T01220002
2026-04-09 18:15:00,METAR KMQS 091815Z AUTO 16007KT 9SM CLR 12/01 A3049 RMK AO2 T01220007
2026-04-09 17:55:00,METAR KMQS 091755Z AUTO VRB05KT 9SM CLR 12/00 A3050 RMK AO2 T01200004 10120 20012 58022
2026-04-09 17:35:00,METAR KMQS 091735Z AUTO 14007KT 110V180 9SM FEW380 11/00 A3051 RMK AO2 T01100002
2026-04-09 17:15:00,METAR KMQS 091715Z AUTO VRB05KT 9SM FEW350 11/M00 A3052 RMK AO2 T01071000
2026-04-09 16:55:00,METAR KMQS 091655Z AUTO VRB05KT 9SM CLR 10/01 A3053 RMK AO2 T01010007
2026-04-09 16:35:00,METAR KMQS 091635Z AUTO 17007KT 10SM CLR 10/00 A3054 RMK AO2 T00990000
2026-04-09 16:15:00,METAR KMQS 091615Z AUTO 20004KT 9SM CLR 09/01 A3054 RMK AO2 T00870006
2026-04-09 15:55:00,METAR KMQS 091555Z AUTO VRB06KT 10SM CLR 08/00 A3056 RMK AO2 T00840004
2026-04-09 15:35:00,METAR KMQS 091535Z AUTO VRB06KT 10SM CLR 08/01 A3056 RMK AO2 T00780005
2026-04-09 15:15:00,METAR KMQS 091515Z AUTO VRB05KT 10SM CLR 07/01 A3056 RMK AO2 T00690012
2026-04-09 14:55:00,METAR KMQS 091455Z AUTO VRB05KT 10SM CLR 06/01 A3056 RMK AO2 T00630008 58006
2026-04-09 14:35:00,METAR KMQS 091435Z AUTO 14005KT 9SM SCT016 06/02 A3057 RMK AO2 T00560018
2026-04-09 14:15:00,METAR KMQS 091415Z AUTO VRB05KT 9SM OVC015 05/02 A3057 RMK AO2 CIG 013V017 OVC V BKN T00450015
2026-04-09 13:55:00,METAR KMQS 091355Z AUTO VRB03KT 9SM OVC012 04/01 A3058 RMK AO2 CIG 011V015 T00370014
2026-04-09 13:35:00,METAR KMQS 091335Z AUTO VRB03KT 9SM OVC012 03/01 A3058 RMK AO2 T00340015
2026-04-09 13:15:00,METAR KMQS 091315Z AUTO 19007KT 10SM OVC012 03/01 A3058 RMK AO2 T00280011
2026-04-09 12:55:00,METAR KMQS 091255Z AUTO VRB04KT 10SM OVC011 03/02 A3058 RMK AO2 T00280018
2026-04-09 12:35:00,METAR KMQS 091235Z AUTO 15003KT 8SM OVC011 02/02 A3059 RMK AO2 T00220016
2026-04-09 12:15:00,METAR KMQS 091215Z AUTO VRB03KT 7SM OVC010 02/01 A3059 RMK AO2 CIG 009V011 T00170014
2026-04-09 11:55:00,METAR KMQS 091155Z AUTO 00000KT 7SM OVC009 01/01 A3058 RMK AO2 CIG 007V010 T00100010 10010 21013 51016
2026-04-09 11:35:00,METAR KMQS 091135Z AUTO 00000KT 6SM BR OVC009 01/01 A3058 RMK AO2 CIG 004V010 T00070007
2026-04-09 11:15:00,METAR KMQS 091115Z AUTO 00000KT 5SM BR SCT003 OVC009 01/01 A3058 RMK AO2 CIG 007V010 T00050005
2026-04-09 10:55:00,METAR KMQS 091055Z AUTO 00000KT 6SM BR OVC003 00/00 A3057 RMK AO2 CIG 003V005 T00010001
2026-04-09 10:35:00,METAR KMQS 091035Z AUTO 00000KT 5SM BR OVC004 M01/M01 A3056 RMK AO2 T10051005
2026-04-09 10:15:00,METAR KMQS 091015Z AUTO 00000KT 6SM BR OVC004 M01/M01 A3056 RMK AO2 T10081008
2026-04-09 09:55:00,METAR KMQS 090955Z AUTO 00000KT 7SM OVC005 M01/M01 A3056 RMK AO2 OVC V BKN T10111011
2026-04-09 09:35:00,METAR KMQS 090935Z AUTO 00000KT 9SM BKN005 M01/M01 A3055 RMK AO2 T10091009
2026-04-09 09:15:00,METAR KMQS 090915Z AUTO 00000KT 10SM SCT005 M01/M01 A3055 RMK AO2 T10081008
2026-04-09 08:55:00,METAR KMQS 090855Z AUTO 14003KT 10SM FEW005 M01/M01 A3054 RMK AO2 T10061009 56011
2026-04-09 08:35:00,METAR KMQS 090835Z AUTO 12003KT 10SM CLR M00/M01 A3054 RMK AO2 T10041008
2026-04-09 08:15:00,METAR KMQS 090815Z AUTO 00000KT 10SM CLR M00/M01 A3054 RMK AO2 T10021006
2026-04-09 07:55:00,METAR KMQS 090755Z AUTO 13003KT 10SM FEW005 M00/M01 A3054 RMK AO2 T10011007
2026-04-09 07:35:00,METAR KMQS 090735Z AUTO 00000KT 10SM FEW005 M00/M01 A3055 RMK AO2 T10011008
2026-04-09 07:15:00,METAR KMQS 090715Z AUTO 00000KT 10SM CLR 00/M01 A3055 RMK AO2 T00011008
2026-04-09 06:55:00,METAR KMQS 090655Z AUTO 11004KT 10SM SCT006 M00/M01 A3055 RMK AO2 T10041012
2026-04-09 06:35:00,METAR KMQS 090635Z AUTO 13004KT 10SM SCT007 00/M01 A3056 RMK AO2 T00041008
2026-04-09 06:15:00,METAR KMQS 090615Z AUTO 00000KT 10SM FEW008 SCT370 00/M01 A3056 RMK AO2 T00051009
2026-04-09 05:55:00,METAR KMQS 090555Z AUTO 13004KT 10SM BKN370 00/M01 A3057 RMK AO2 T00041014 10070 20004 401001027 58002
2026-04-09 05:35:00,METAR KMQS 090535Z AUTO 13003KT 10SM FEW009 SCT370 01/M01 A3057 RMK AO2 T00081014
2026-04-09 05:15:00,METAR KMQS 090515Z AUTO 14003KT 10SM SCT009 01/M01 A3058 RMK AO2 T00101013
2026-04-09 04:55:00,METAR KMQS 090455Z AUTO 16003KT 10SM CLR 01/M01 A3058 RMK AO2 T00141009
2026-04-09 04:35:00,METAR KMQS 090435Z AUTO 15004KT 10SM CLR 02/M00 A3059 RMK AO2 T00161001
2026-04-09 04:15:00,METAR KMQS 090415Z AUTO 15003KT 10SM CLR 02/00 A3058 RMK AO2 T00190005
2026-04-09 03:55:00,METAR KMQS 090355Z AUTO 00000KT 10SM CLR 02/00 A3058 RMK AO2 T00210003
2026-04-09 03:35:00,METAR KMQS 090335Z AUTO VRB03KT 10SM CLR 02/00 A3058 RMK AO2 T00230003
2026-04-09 03:15:00,METAR KMQS 090315Z AUTO VRB04KT 10SM CLR 03/00 A3058 RMK AO2 T00270003
2026-04-09 02:55:00,METAR KMQS 090255Z AUTO VRB04KT 10SM CLR 03/00 A3058 RMK AO2 T00310002 51017
2026-04-09 02:35:00,METAR KMQS 090235Z AUTO 17004KT 10SM CLR 03/00 A3057 RMK AO2 T00330002
2026-04-09 02:15:00,METAR KMQS 090215Z AUTO VRB04KT 10SM CLR 04/M00 A3057 RMK AO2 T00371002
2026-04-09 01:55:00,METAR KMQS 090155Z AUTO 16005KT 10SM CLR 04/M02 A3056 RMK AO2 T00421018
2026-04-09 01:35:00,METAR KMQS 090135Z AUTO 17008KT 10SM CLR 05/M04 A3056 RMK AO2 T00481041
2026-04-09 01:15:00,METAR KMQS 090115Z AUTO 00000KT 10SM CLR 05/M07 A3055 RMK AO2 T00501074
2026-04-09 00:55:00,METAR KMQS 090055Z AUTO 00000KT 10SM CLR 05/M09 A3054 RMK AO2 T00511087
2026-04-09 00:35:00,METAR KMQS 090035Z AUTO 00000KT 10SM CLR 06/M09 A3053 RMK AO2 T00581092
2026-04-09 00:15:00,METAR KMQS 090015Z AUTO 17003KT 9SM CLR 06/M10 A3052 RMK AO2 T00641095
2026-04-08 23:55:00,METAR KMQS 082355Z AUTO 17003KT 9SM CLR 07/M11 A3052 RMK AO2 T00731107 10100 20073 58002
2026-04-08 23:35:00,METAR KMQS 082335Z AUTO 00000KT 9SM CLR 08/M11 A3052 RMK AO2 T00761105
2026-04-08 23:15:00,METAR KMQS 082315Z AUTO 16004KT 10SM CLR 08/M10 A3053 RMK AO2 T00811103
2026-04-08 22:55:00,METAR KMQS 082255Z AUTO VRB04KT 10SM CLR 09/M09 A3053 RMK AO2 T00871094
2026-04-08 22:35:00,METAR KMQS 082235Z AUTO 14004KT 10SM CLR 09/M09 A3053 RMK AO2 T00911094
2026-04-08 22:15:00,METAR KMQS 082215Z AUTO 16004KT 9SM CLR 09/M10 A3053 RMK AO2 T00921097
2026-04-08 21:55:00,METAR KMQS 082155Z AUTO 19004KT 9SM CLR 10/M10 A3053 RMK AO2 T00971096
2026-04-08 21:35:00,METAR KMQS 082135Z AUTO 16005KT 9SM CLR 10/M10 A3053 RMK AO2 T00971099
2026-04-08 21:15:00,METAR KMQS 082115Z AUTO VRB03KT 9SM CLR 09/M10 A3053 RMK AO2 T00951101
2026-04-08 20:55:00,METAR KMQS 082055Z AUTO 21006KT 9SM CLR 10/M09 A3053 RMK AO2 T00971091 56012
2026-04-08 20:35:00,METAR KMQS 082035Z AUTO 15007KT 9SM CLR 10/M09 A3053 RMK AO2 T00961094
2026-04-08 20:15:00,METAR KMQS 082015Z AUTO VRB04KT 10SM CLR 10/M09 A3053 RMK AO2 T00971091
2026-04-08 19:55:00,METAR KMQS 081955Z AUTO 18004KT 9SM CLR 09/M10 A3054 RMK AO2 T00911097
2026-04-08 19:35:00,METAR KMQS 081935Z AUTO VRB03KT 9SM CLR 09/M09 A3054 RMK AO2 T00901095
2026-04-08 19:15:00,METAR KMQS 081915Z AUTO VRB06KT 10SM CLR 09/M10 A3055 RMK AO2 T00891097
2026-04-08 18:55:00,METAR KMQS 081855Z AUTO VRB03KT 9SM CLR 09/M10 A3055 RMK AO2 T00851101
2026-04-08 18:35:00,METAR KMQS 081835Z AUTO 09007KT 9SM CLR 09/M10 A3055 RMK AO2 T00881100
2026-04-08 18:15:00,METAR KMQS 081815Z AUTO VRB06KT 9SM CLR 08/M10 A3056 RMK AO2 T00821101
2026-04-08 17:55:00,METAR KMQS 081755Z AUTO VRB05KT 9SM CLR 07/M11 A3057 RMK AO2 T00731108 10078 21013 58015
2026-04-08 17:35:00,METAR KMQS 081735Z AUTO 00000KT 9SM CLR 06/M11 A3057 RMK AO2 T00641110
2026-04-08 17:15:00,METAR KMQS 081715Z AUTO VRB04KT 9SM CLR 07/M10 A3058 RMK AO2 T00741097
2026-04-08 16:55:00,METAR KMQS 081655Z AUTO 18004KT 9SM CLR 06/M10 A3059 RMK AO2 T00621103
2026-04-08 16:35:00,METAR KMQS 081635Z AUTO 10004KT 9SM CLR 06/M11 A3060 RMK AO2 T00611105
2026-04-08 16:15:00,METAR KMQS 081615Z AUTO 00000KT 9SM CLR 05/M12 A3060 RMK AO2 T00531116
2026-04-08 15:55:00,METAR KMQS 081555Z AUTO VRB05KT 10SM CLR 05/M11 A3061 RMK AO2 T00501113
2026-04-08 15:35:00,METAR KMQS 081535Z AUTO 12007KT 10SM CLR 04/M11 A3061 RMK AO2 T00451111
2026-04-08 15:15:00,METAR KMQS 081515Z AUTO 11006KT 9SM CLR 04/M11 A3061 RMK AO2 T00401109
2026-04-08 14:55:00,METAR KMQS 081455Z AUTO VRB05KT 10SM CLR 03/M11 A3061 RMK AO2 T00291109 51014
2026-04-08 14:35:00,METAR KMQS 081435Z AUTO VRB05KT 9SM CLR 02/M11 A3061 RMK AO2 T00231105
2026-04-08 14:15:00,METAR KMQS 081415Z AUTO 05006KT 10SM CLR 02/M10 A3061 RMK AO2 T00221104
2026-04-08 13:55:00,METAR KMQS 081355Z AUTO 06008KT 10SM CLR 02/M11 A3060 RMK AO2 T00161108
2026-04-08 13:35:00,METAR KMQS 081335Z AUTO 07007KT 10SM CLR 01/M11 A3060 RMK AO2 T00101110
2026-04-08 13:15:00,METAR KMQS 081315Z AUTO 07007KT 10SM CLR 01/M10 A3059 RMK AO2 T00061101
2026-04-08 12:55:00,METAR KMQS 081255Z AUTO 06007KT 10SM CLR M00/M10 A3059 RMK AO2 T10021098
2026-04-08 12:35:00,METAR KMQS 081235Z AUTO 06006KT 10SM CLR M00/M09 A3059 RMK AO2 T10041091
2026-04-08 12:15:00,METAR KMQS 081215Z AUTO 07007KT 040V110 10SM CLR M01/M10 A3058 RMK AO2 T10101098
2026-04-08 11:55:00,METAR KMQS 081155Z AUTO 07006KT 10SM CLR M01/M10 A3057 RMK AO2 T10141098 10000 21027 53023
2026-04-08 11:35:00,METAR KMQS 081135Z AUTO 04006KT 10SM CLR M02/M10 A3056 RMK AO2 T10181100
2026-04-08 11:15:00,METAR KMQS 081115Z AUTO 05005KT 10SM CLR M02/M10 A3056 RMK AO2 T10221101
2026-04-08 10:55:00,METAR KMQS 081055Z AUTO 05004KT 10SM CLR M03/M10 A3054 RMK AO2 T10261101
2026-04-08 10:35:00,METAR KMQS 081035Z AUTO 05005KT 10SM CLR M03/M10 A3053 RMK AO2 T10261102
2026-04-08 10:15:00,METAR KMQS 081015Z AUTO 04004KT 10SM CLR M02/M10 A3053 RMK AO2 T10241102
2026-04-08 09:55:00,METAR KMQS 080955Z AUTO 03006KT 10SM CLR M02/M10 A3051 RMK AO2 T10211103
2026-04-08 09:35:00,METAR KMQS 080935Z AUTO 04005KT 10SM CLR M02/M10 A3051 RMK AO2 T10221102
2026-04-08 09:15:00,METAR KMQS 080915Z AUTO 03005KT 10SM CLR M02/M10 A3051 RMK AO2 T10191102
2026-04-08 08:55:00,METAR KMQS 080855Z AUTO 04007KT 10SM CLR M02/M10 A3050 RMK AO2 T10191100 52004
2026-04-08 08:35:00,METAR KMQS 080835Z AUTO 05007KT 10SM CLR M02/M10 A3050 RMK AO2 T10171100
2026-04-08 08:15:00,METAR KMQS 080815Z AUTO 03005KT 10SM CLR M02/M10 A3050 RMK AO2 T10161100
2026-04-08 07:55:00,METAR KMQS 080755Z AUTO 03007KT 10SM CLR M01/M10 A3050 RMK AO2 T10121100
2026-04-08 07:35:00,METAR KMQS 080735Z AUTO 03007KT 10SM CLR M01/M10 A3049 RMK AO2 T10101099
2026-04-08 07:15:00,METAR KMQS 080715Z AUTO 04007KT 10SM CLR M01/M10 A3050 RMK AO2 T10091100
2026-04-08 06:55:00,METAR KMQS 080655Z AUTO 03006KT 10SM CLR M01/M10 A3049 RMK AO2 T10061098
2026-04-08 06:35:00,METAR KMQS 080635Z AUTO 03007KT 10SM CLR M00/M10 A3049 RMK AO2 T10031100
2026-04-08 06:15:00,METAR KMQS 080615Z AUTO 02009KT 10SM CLR M00/M10 A3048 RMK AO2 T10021099
2026-04-08 05:55:00,METAR KMQS 080555Z AUTO 03008KT 10SM CLR 00/M10 A3049 RMK AO2 T00021101 10051 20002 401000002 51010
2026-04-08 05:35:00,METAR KMQS 080535Z AUTO 03006KT 10SM CLR 00/M10 A3049 RMK AO2 T00031100
2026-04-08 05:15:00,METAR KMQS 080515Z AUTO 03006KT 10SM CLR 01/M10 A3049 RMK AO2 T00051102
2026-04-08 04:55:00,METAR KMQS 080455Z AUTO 02005KT 10SM CLR 01/M10 A3049 RMK AO2 T00091103
2026-04-08 04:35:00,METAR KMQS 080435Z AUTO 04006KT 10SM CLR 01/M10 A3048 RMK AO2 T00121105
2026-04-08 04:15:00,METAR KMQS 080415Z AUTO 02008KT 10SM CLR 02/M11 A3048 RMK AO2 T00161106
2026-04-08 03:55:00,METAR KMQS 080355Z AUTO 02006KT 10SM CLR 02/M11 A3047 RMK AO2 T00191105
2026-04-08 03:35:00,METAR KMQS 080335Z AUTO 02008KT 10SM CLR 02/M11 A3047 RMK AO2 T00231106
2026-04-08 03:15:00,METAR KMQS 080315Z AUTO 01008KT 10SM CLR 03/M11 A3047 RMK AO2 LTG DSNT S T00261108
2026-04-08 02:55:00,METAR KMQS 080255Z AUTO 01006KT 10SM CLR 03/M11 A3046 RMK AO2 T00271107 51026
2026-04-08 02:35:00,METAR KMQS 080235Z AUTO 02005KT 10SM CLR 03/M11 A3046 RMK AO2 T00321113
2026-04-08 02:15:00,METAR KMQS 080215Z AUTO 36006KT 10SM CLR 03/M11 A3044 RMK AO2 T00281108
2026-04-08 01:55:00,METAR KMQS 080155Z AUTO 36006KT 10SM CLR 04/M11 A3044 RMK AO2 T00361114
2026-04-08 01:35:00,METAR KMQS 080135Z AUTO 01007KT 10SM CLR 04/M11 A3043 RMK AO2 T00391114
2026-04-08 01:15:00,METAR KMQS 080115Z AUTO 36009KT 10SM CLR 04/M11 A3042 RMK AO2 T00401109
2026-04-08 00:55:00,METAR KMQS 080055Z AUTO 36007KT 10SM CLR 04/M11 A3041 RMK AO2 T00431108
2026-04-08 00:35:00,METAR KMQS 080035Z AUTO 36008KT 10SM CLR 05/M11 A3040 RMK AO2 T00471107
2026-04-08 00:15:00,METAR KMQS 080015Z AUTO 01006KT 10SM CLR 05/M11 A3039 RMK AO2 T00481108
2026-04-07 23:55:00,METAR KMQS 072355Z AUTO 35011KT 10SM CLR 06/M11 A3038 RMK AO2 T00551114 10100 20055 53029
2026-04-07 23:35:00,METAR KMQS 072335Z AUTO 34009KT 10SM CLR 06/M12 A3037 RMK AO2 T00581116
2026-04-07 23:15:00,METAR KMQS 072315Z AUTO 33010KT 10SM CLR 07/M12 A3036 RMK AO2 T00651116
2026-04-07 22:55:00,METAR KMQS 072255Z AUTO 34009KT 10SM CLR 07/M11 A3035 RMK AO2 T00721111
2026-04-07 22:35:00,METAR KMQS 072235Z AUTO 33011KT 10SM CLR 08/M11 A3035 RMK AO2 T00761115
2026-04-07 22:15:00,METAR KMQS 072215Z AUTO 34015G20KT 10SM CLR 08/M11 A3033 RMK AO2 T00801109
2026-04-07 21:55:00,METAR KMQS 072155Z AUTO 33013G20KT 10SM CLR 08/M11 A3032 RMK AO2 T00811111
2026-04-07 21:35:00,METAR KMQS 072135Z AUTO 32010G20KT 10SM CLR 08/M11 A3031 RMK AO2 T00821107
2026-04-07 21:15:00,METAR KMQS 072115Z AUTO 33010KT 10SM CLR 09/M10 A3030 RMK AO2 T00871101
2026-04-07 20:55:00,METAR KMQS 072055Z AUTO 32015G23KT 10SM CLR 09/M11 A3029 RMK AO2 T00851113 53013
2026-04-07 20:35:00,METAR KMQS 072035Z AUTO 32017G25KT 10SM CLR 08/M12 A3029 RMK AO2 T00841120
2026-04-07 20:15:00,METAR KMQS 072015Z AUTO 34014G21KT 10SM CLR 09/M10 A3028 RMK AO2 T00931100
2026-04-07 19:55:00,METAR KMQS 071955Z AUTO 32015KT 10SM CLR 09/M10 A3028 RMK AO2 T00911096
2026-04-07 19:35:00,METAR KMQS 071935Z AUTO 31016G24KT 10SM CLR 09/M10 A3027 RMK AO2 T00951102
2026-04-07 19:15:00,METAR KMQS 071915Z AUTO 31020G25KT 10SM CLR 10/M11 A3027 RMK AO2 T00961110
2026-04-07 18:55:00,METAR KMQS 071855Z AUTO 32015KT 10SM CLR 09/M08 A3026 RMK AO2 PK WND 30028/1803 T00941079
2026-04-07 18:35:00,METAR KMQS 071835Z AUTO 30020G26KT 10SM CLR 10/M08 A3026 RMK AO2 PK WND 30028/1803 T00991082
2026-04-07 18:15:00,METAR KMQS 071815Z AUTO 30023G26KT 10SM CLR 10/M09 A3026 RMK AO2 PK WND 30028/1803 T00971085
2026-04-07 17:55:00,METAR KMQS 071755Z AUTO 30017G28KT 10SM FEW350 10/M09 A3025 RMK AO2 PK WND 30030/1730 T00981089 10099 20068 52009
2026-04-07 17:35:00,METAR KMQS 071735Z AUTO 31015G30KT 10SM CLR 10/M07 A3025 RMK AO2 PK WND 30030/1730 T00981068
2026-04-07 17:15:00,METAR KMQS 071715Z AUTO 31015G26KT 10SM FEW360 10/M07 A3025 RMK AO2 PK WND 31027/1650 T00961075
2026-04-07 16:55:00,METAR KMQS 071655Z AUTO 30024G30KT 10SM CLR 09/M08 A3024 RMK AO2 PK WND 29030/1648 T00931077
2026-04-07 16:35:00,METAR KMQS 071635Z AUTO 30021G27KT 10SM CLR 09/M06 A3024 RMK AO2 PK WND 29027/1634 T00951057
2026-04-07 16:15:00,METAR KMQS 071615Z AUTO 30019G26KT 10SM CLR 09/M04 A3024 RMK AO2 PK WND 29026/1609 T00941044
2026-04-07 15:55:00,METAR KMQS 071555Z AUTO 31016G26KT 10SM CLR 09/M05 A3023 RMK AO2 PK WND 31028/1518 T00951046
2026-04-07 15:35:00,METAR KMQS 071535Z AUTO 29017G21KT 10SM FEW055 09/M04 A3023 RMK AO2 PK WND 31028/1518 T00871043
2026-04-07 15:15:00,METAR KMQS 071515Z AUTO 31016G27KT 10SM FEW049 09/M04 A3023 RMK AO2 PK WND 29027/1511 T00881040
2026-04-07 14:55:00,METAR KMQS 071455Z AUTO 30020G25KT 10SM SCT046 09/M04 A3022 RMK AO2 PK WND 31026/1404 T00861037 53020
2026-04-07 14:35:00,METAR KMQS 071435Z AUTO 29016KT 10SM SCT044 BKN055 08/M03 A3022 RMK AO2 PK WND 31026/1404 T00841029
2026-04-07 14:15:00,METAR KMQS 071415Z AUTO 30017G26KT 10SM SCT042 08/M02 A3021 RMK AO2 PK WND 31026/1404 T00791025
2026-04-07 13:55:00,METAR KMQS 071355Z AUTO 29019G23KT 10SM SCT041 08/M02 A3020 RMK AO2 PK WND 31028/1303 T00791020
2026-04-07 13:35:00,METAR KMQS 071335Z AUTO 30018G23KT 10SM SCT040 08/M02 A3019 RMK AO2 PK WND 31028/1303 T00781022
2026-04-07 13:15:00,METAR KMQS 071315Z AUTO 29014G25KT 10SM FEW038 08/M02 A3019 RMK AO2 PK WND 31028/1303 T00751020
2026-04-07 12:55:00,METAR KMQS 071255Z AUTO 28018G23KT 10SM CLR 07/M02 A3018 RMK AO2 T00751019
2026-04-07 12:35:00,METAR KMQS 071235Z AUTO 29015KT 10SM CLR 07/M01 A3017 RMK AO2 T00741006
2026-04-07 12:15:00,METAR KMQS 071215Z AUTO 29013KT 10SM FEW065 07/01 A3017 RMK AO2 T00710005
2026-04-07 11:55:00,METAR KMQS 071155Z AUTO 29011KT 10SM SCT065 07/01 A3016 RMK AO2 T00670005 10080 20046 53024
2026-04-07 11:35:00,METAR KMQS 071135Z AUTO 30011KT 10SM FEW065 06/01 A3016 RMK AO2 T00620005
2026-04-07 11:15:00,METAR KMQS 071115Z AUTO 30009KT 10SM CLR 05/01 A3015 RMK AO2 T00540012
2026-04-07 10:55:00,METAR KMQS 071055Z AUTO 29008KT 10SM CLR 05/02 A3013 RMK AO2 T00480016
2026-04-07 10:35:00,METAR KMQS 071035Z AUTO 29008KT 10SM CLR 05/02 A3012 RMK AO2 T00490015
2026-04-07 10:15:00,METAR KMQS 071015Z AUTO 30009KT 10SM CLR 06/01 A3012 RMK AO2 T00560014
2026-04-07 09:55:00,METAR KMQS 070955Z AUTO 30010KT 10SM SCT075 06/02 A3011 RMK AO2 T00650018
2026-04-07 09:35:00,METAR KMQS 070935Z AUTO 30012KT 10SM SCT070 BKN085 07/02 A3010 RMK AO2 T00690022
2026-04-07 09:15:00,METAR KMQS 070915Z AUTO 30009KT 10SM BKN060 OVC085 07/02 A3010 RMK AO2 T00710020
2026-04-07 08:55:00,METAR KMQS 070855Z AUTO 27006KT 10SM SCT060 OVC085 08/02 A3009 RMK AO2 T00750015 55000
2026-04-07 08:35:00,METAR KMQS 070835Z AUTO 28007KT 10SM FEW060 SCT075 BKN090 07/02 A3009 RMK AO2 T00700018
2026-04-07 08:15:00,METAR KMQS 070815Z AUTO 30006KT 10SM FEW060 SCT075 BKN095 06/02 A3008 RMK AO2 T00620018
2026-04-07 07:55:00,METAR KMQS 070755Z AUTO 30005KT 10SM BKN060 BKN070 OVC095 06/02 A3008 RMK AO2 T00560020
2026-04-07 07:35:00,METAR KMQS 070735Z AUTO 30003KT 10SM BKN055 BKN070 OVC095 07/00 A3008 RMK AO2 T00670004
2026-04-07 07:15:00,METAR KMQS 070715Z AUTO 30004KT 10SM SCT060 BKN095 06/01 A3008 RMK AO2 T00610008
2026-04-07 06:55:00,METAR KMQS 070655Z AUTO 30005KT 10SM FEW055 SCT075 BKN100 06/01 A3008 RMK AO2 T00590014
2026-04-07 06:35:00,METAR KMQS 070635Z AUTO 29005KT 10SM SCT060 BKN075 OVC090 06/02 A3008 RMK AO2 T00600024
2026-04-07 06:15:00,METAR KMQS 070615Z AUTO 29004KT 10SM OVC060 07/02 A3009 RMK AO2 T00680016
2026-04-07 05:55:00,METAR KMQS 070555Z AUTO 26003KT 10SM OVC060 08/00 A3009 RMK AO2 T00790000 10101 20063 401230029 51005
2026-04-07 05:35:00,METAR KMQS 070535Z AUTO 27004KT 10SM BKN065 OVC075 08/M00 A3009 RMK AO2 T00791002
2026-04-07 05:15:00,METAR KMQS 070515Z AUTO 28003KT 10SM OVC085 07/00 A3009 RMK AO2 T00690003
2026-04-07 04:55:00,METAR KMQS 070455Z AUTO 31004KT 10SM BKN090 OVC110 07/01 A3009 RMK AO2 T00670011
2026-04-07 04:35:00,METAR KMQS 070435Z AUTO 29004KT 9SM FEW060 OVC090 07/01 A3009 RMK AO2 T00680007
2026-04-07 04:15:00,METAR KMQS 070415Z AUTO 23004KT 10SM BKN090 09/M02 A3009 RMK AO2 T00871015
2026-04-07 03:55:00,METAR KMQS 070355Z AUTO 00000KT 10SM FEW045 BKN090 BKN110 08/M00 A3008 RMK AO2 T00761003
2026-04-07 03:35:00,METAR KMQS 070335Z AUTO 24003KT 10SM FEW070 BKN095 BKN110 09/M02 A3008 RMK AO2 T00901024
2026-04-07 03:15:00,METAR KMQS 070315Z AUTO 22003KT 10SM SCT070 BKN090 09/M02 A3007 RMK AO2 T00921022
2026-04-07 02:55:00,METAR KMQS 070255Z AUTO 24003KT 10SM SCT100 08/M02 A3008 RMK AO2 T00801021 50010
2026-04-07 02:35:00,METAR KMQS 070235Z AUTO 00000KT 10SM BKN100 07/M01 A3008 RMK AO2 T00731011
2026-04-07 02:15:00,METAR KMQS 070215Z AUTO 26003KT 10SM BKN100 07/M00 A3008 RMK AO2 T00721000
2026-04-07 01:55:00,METAR KMQS 070155Z AUTO 00000KT 10SM BKN080 09/M02 A3008 RMK AO2 T00931020
2026-04-07 01:35:00,METAR KMQS 070135Z AUTO 23003KT 10SM BKN075 OVC090 10/M02 A3009 RMK AO2 T00961019
2026-04-07 01:15:00,METAR KMQS 070115Z AUTO 22003KT 9SM BKN085 09/M02 A3008 RMK AO2 T00931021
2026-04-07 00:55:00,METAR KMQS 070055Z AUTO 00000KT 10SM FEW070 SCT090 09/M02 A3007 RMK AO2 T00941019
2026-04-07 00:35:00,METAR KMQS 070035Z AUTO 00000KT 10SM BKN070 BKN090 10/M02 A3006 RMK AO2 T00961020
2026-04-07 00:15:00,METAR KMQS 070015Z AUTO 00000KT 10SM OVC070 10/M02 A3005 RMK AO2 T01011019
2026-04-06 23:55:00,METAR KMQS 062355Z AUTO 00000KT 10SM OVC070 10/M01 A3005 RMK AO2 T00981009 10123 20090 52010
2026-04-06 23:35:00,METAR KMQS 062335Z AUTO 34003KT 9SM OVC070 09/M01 A3005 RMK AO2 T00911009
2026-04-06 23:15:00,METAR KMQS 062315Z AUTO 30004KT 10SM BKN070 BKN090 OVC100 10/M00 A3005 RMK AO2 T00981005
2026-04-06 22:55:00,METAR KMQS 062255Z AUTO 29004KT 10SM OVC100 10/M01 A3004 RMK AO2 T01041011
2026-04-06 22:35:00,METAR KMQS 062235Z AUTO 30005KT 10SM BKN090 11/M01 A3004 RMK AO2 T01051008
2026-04-06 22:15:00,METAR KMQS 062215Z AUTO 32006KT 10SM SCT085 11/M02 A3003 RMK AO2 T01081021
2026-04-06 21:55:00,METAR KMQS 062155Z AUTO 31009KT 10SM BKN080 BKN090 11/M02 A3003 RMK AO2 T01111024
2026-04-06 21:35:00,METAR KMQS 062135Z AUTO 31009KT 10SM SCT065 OVC085 12/M02 A3002 RMK AO2 T01201021
2026-04-06 21:15:00,METAR KMQS 062115Z AUTO 30010KT 10SM BKN070 OVC085 11/M02 A3003 RMK AO2 T01111022
2026-04-06 20:55:00,METAR KMQS 062055Z AUTO 31012KT 9SM BKN075 BKN090 11/M03 A3002 RMK AO2 WSHFT 2008 T01121027 56017
2026-04-06 20:35:00,METAR KMQS 062035Z AUTO 27009KT 10SM SCT080 12/M02 A3002 RMK AO2 WSHFT 2008 T01181022
2026-04-06 20:15:00,METAR KMQS 062015Z AUTO 30013KT 9SM BKN070 OVC080 12/M03 A3002 RMK AO2 WSHFT 2008 T01161025
2026-04-06 19:55:00,METAR KMQS 061955Z AUTO 28008KT 10SM BKN065 OVC085 11/M02 A3003 RMK AO2 T01071025
2026-04-06 19:35:00,METAR KMQS 061935Z AUTO 29013G18KT 10SM BKN065 OVC085 12/M02 A3003 RMK AO2 T01181020
2026-04-06 19:15:00,METAR KMQS 061915Z AUTO 28007KT 9SM BKN070 10/M03 A3004 RMK AO2 T01031030
2026-04-06 18:55:00,METAR KMQS 061855Z AUTO 31009KT 9SM BKN065 BKN075 11/M03 A3005 RMK AO2 WSHFT 1759 T01061030
2026-04-06 18:35:00,METAR KMQS 061835Z AUTO 29013G20KT 10SM BKN070 11/M03 A3005 RMK AO2 WSHFT 1759 T01131029
2026-04-06 18:15:00,METAR KMQS 061815Z AUTO 29010G21KT 10SM SCT060 BKN075 11/M03 A3006 RMK AO2 WSHFT 1759 T01061035
2026-04-06 17:55:00,METAR KMQS 061755Z AUTO 28011G18KT 9SM FEW060 11/M04 A3007 RMK AO2 T01091037 10113 20049 58009
2026-04-06 17:35:00,METAR KMQS 061735Z AUTO 30014G20KT 10SM FEW060 11/M03 A3007 RMK AO2 T01091032
2026-04-06 17:15:00,METAR KMQS 061715Z AUTO 32014G19KT 9SM CLR 11/M04 A3008 RMK AO2 T01071036
2026-04-06 16:55:00,METAR KMQS 061655Z AUTO 29012G20KT 10SM CLR 10/M04 A3008 RMK AO2 T01011038
2026-04-06 16:35:00,METAR KMQS 061635Z AUTO 30010G17KT 10SM CLR 10/M04 A3009 RMK AO2 T00981036
2026-04-06 16:15:00,METAR KMQS 061615Z AUTO 33012G19KT 10SM CLR 10/M04 A3009 RMK AO2 T00971040
2026-04-06 15:55:00,METAR KMQS 061555Z AUTO 32012G19KT 10SM CLR 09/M04 A3009 RMK AO2 T00941043
2026-04-06 15:35:00,METAR KMQS 061535Z AUTO 31012G21KT 10SM CLR 09/M04 A3010 RMK AO2 T00901041
2026-04-06 14:55:00,METAR KMQS 061455Z AUTO 32013KT 10SM CLR 08/M04 A3010 RMK AO2 T00811037 53007
2026-04-06 14:35:00,METAR KMQS 061435Z AUTO 32015KT 10SM CLR 08/M03 A3009 RMK AO2 T00811034
2026-04-06 14:15:00,METAR KMQS 061415Z AUTO 32015KT 10SM CLR 08/M04 A3009 RMK AO2 T00751039
2026-04-06 13:55:00,METAR KMQS 061355Z AUTO 31013G19KT 10SM CLR 07/M03 A3008 RMK AO2 T00701030
2026-04-06 13:35:00,METAR KMQS 061335Z AUTO 31017G22KT 10SM CLR 07/M03 A3008 RMK AO2 T00651034
2026-04-06 13:15:00,METAR KMQS 061315Z AUTO 31015G21KT 10SM CLR 07/M03 A3008 RMK AO2 T00651028
2026-04-06 12:55:00,METAR KMQS 061255Z AUTO 31014G20KT 10SM CLR 06/M03 A3008 RMK AO2 T00601033
2026-04-06 12:35:00,METAR KMQS 061235Z AUTO 31012G20KT 10SM CLR 06/M04 A3008 RMK AO2 T00571037
2026-04-06 12:15:00,METAR KMQS 061215Z AUTO 33009KT 10SM CLR 05/M04 A3007 RMK AO2 T00521037
2026-04-06 11:55:00,METAR KMQS 061155Z AUTO 31011KT 10SM CLR 05/M03 A3008 RMK AO2 70052 T00451027 10073 20029 53022
2026-04-06 11:35:00,METAR KMQS 061135Z AUTO 32008KT 10SM CLR 04/M02 A3007 RMK AO2 T00421024
2026-04-06 11:15:00,METAR KMQS 061115Z AUTO 30004KT 9SM CLR 03/M03 A3006 RMK AO2 T00331025
2026-04-06 10:55:00,METAR KMQS 061055Z AUTO 32005KT 10SM CLR 03/M03 A3005 RMK AO2 T00341029
2026-04-06 10:35:00,METAR KMQS 061035Z AUTO 33007KT 10SM CLR 04/M03 A3004 RMK AO2 T00361031
2026-04-06 10:15:00,METAR KMQS 061015Z AUTO 32009KT 10SM CLR 04/M03 A3003 RMK AO2 T00381031
2026-04-06 09:55:00,METAR KMQS 060955Z AUTO 33006KT 10SM CLR 04/M03 A3002 RMK AO2 T00381033
2026-04-06 09:35:00,METAR KMQS 060935Z AUTO 32008KT 10SM CLR 04/M03 A3001 RMK AO2 T00411033
2026-04-06 09:15:00,METAR KMQS 060915Z AUTO 31008KT 10SM CLR 04/M03 A3001 RMK AO2 T00411033
2026-04-06 08:55:00,METAR KMQS 060855Z AUTO 32011KT 10SM CLR 04/M04 A3001 RMK AO2 T00451035 50008
2026-04-06 08:35:00,METAR KMQS 060835Z AUTO 31013G19KT 10SM CLR 05/M04 A3001 RMK AO2 T00461035
2026-04-06 08:15:00,METAR KMQS 060815Z AUTO 31015G20KT 10SM CLR 05/M04 A3001 RMK AO2 LTG DSNT S T00491037
2026-04-06 07:55:00,METAR KMQS 060755Z AUTO 32019G29KT 10SM CLR 05/M04 A3001 RMK AO2 PK WND 29032/0731 T00531039
2026-04-06 07:35:00,METAR KMQS 060735Z AUTO 31019G32KT 10SM CLR 06/M03 A3001 RMK AO2 PK WND 29032/0731 T00551034
2026-04-06 07:15:00,METAR KMQS 060715Z AUTO 32014G22KT 10SM CLR 06/M02 A3001 RMK AO2 PK WND 32028/0650 T00611025
2026-04-06 06:55:00,METAR KMQS 060655Z AUTO 31024G30KT 10SM BKN050 07/M02 A3000 RMK AO2 PK WND 32030/0639 T00681023
2026-04-06 06:35:00,METAR KMQS 060635Z AUTO 31019G26KT 10SM BKN050 07/M01 A2999 RMK AO2 PK WND 32026/0634 T00721011
2026-04-06 06:15:00,METAR KMQS 060615Z AUTO 32008KT 10SM OVC049 07/01 A2999 RMK AO2 T00690006
2026-04-06 05:55:00,METAR KMQS 060555Z AUTO 31009KT 10SM OVC050 07/01 A2999 RMK AO2 T00720010 10104 20072 401990072 51002
2026-04-06 05:35:00,METAR KMQS 060535Z AUTO 31010KT 10SM OVC048 08/01 A2998 RMK AO2 T00760007
2026-04-06 05:15:00,METAR KMQS 060515Z AUTO 31015G20KT 10SM OVC046 08/01 A2999 RMK AO2 T00800006
2026-04-06 04:55:00,METAR KMQS 060455Z AUTO 31011KT 10SM OVC047 08/01 A2998 RMK AO2 T00800009
2026-04-06 04:35:00,METAR KMQS 060435Z AUTO 31009KT 10SM OVC048 08/01 A2998 RMK AO2 T00820006
2026-04-06 04:15:00,METAR KMQS 060415Z AUTO 32013G19KT 10SM OVC048 08/01 A2998 RMK AO2 T00830007
2026-04-06 03:55:00,METAR KMQS 060355Z AUTO 32012G20KT 10SM OVC047 09/01 A2998 RMK AO2 T00860006
2026-04-06 03:35:00,METAR KMQS 060335Z AUTO 31014G24KT 10SM OVC048 09/01 A2998 RMK AO2 T00870009
2026-04-06 03:15:00,METAR KMQS 060315Z AUTO 31011G19KT 10SM OVC049 09/01 A2998 RMK AO2 T00880010
2026-04-06 02:55:00,METAR KMQS 060255Z AUTO 31015G18KT 10SM OVC050 09/01 A2998 RMK AO2 T00890009 51022
2026-04-06 02:35:00,METAR KMQS 060235Z AUTO 31011KT 10SM OVC049 09/01 A2998 RMK AO2 T00870012
2026-04-06 02:15:00,METAR KMQS 060215Z AUTO 31012KT 10SM BKN050 09/01 A2998 RMK AO2 T00890008
2026-04-06 01:55:00,METAR KMQS 060155Z AUTO 31017KT 10SM SCT055 09/01 A2998 RMK AO2 T00870012
2026-04-06 01:35:00,METAR KMQS 060135Z AUTO 31014KT 10SM FEW055 09/01 A2997 RMK AO2 T00860014
2026-04-06 01:15:00,METAR KMQS 060115Z AUTO 32013KT 10SM SCT055 09/01 A2997 RMK AO2 T00900012
2026-04-06 00:55:00,METAR KMQS 060055Z AUTO 31014KT 10SM FEW055 09/02 A2996 RMK AO2 T00940018
2026-04-06 00:35:00,METAR KMQS 060035Z AUTO 31015KT 10SM FEW270 10/02 A2994 RMK AO2 LTG DSNT S T00970021
2026-04-06 00:15:00,METAR KMQS 060015Z AUTO 31016G21KT 10SM FEW260 10/02 A2993 RMK AO2 T01010024
2026-04-05 23:55:00,METAR KMQS 052355Z AUTO 31012G20KT 9SM CLR 10/03 A2991 RMK AO2 60014 T01050033 10132 20105 52026
2026-04-05 23:35:00,METAR KMQS 052335Z AUTO 31013KT 10SM SCT046 11/04 A2990 RMK AO2 T01070037
2026-04-05 23:15:00,METAR KMQS 052315Z AUTO 31010KT 9SM BKN046 11/05 A2989 RMK AO2 T01090045
2026-04-05 22:55:00,METAR KMQS 052255Z AUTO 31010KT 10SM FEW045 11/05 A2988 RMK AO2 T01090046
2026-04-05 22:35:00,METAR KMQS 052235Z AUTO 31012KT 9SM FEW043 11/05 A2988 RMK AO2 T01130047
2026-04-05 22:15:00,METAR KMQS 052215Z AUTO 31012G20KT 10SM FEW043 12/05 A2987 RMK AO2 T01200048
2026-04-05 21:55:00,METAR KMQS 052155Z AUTO 31016KT 10SM FEW042 SCT240 12/05 A2986 RMK AO2 T01180055
2026-04-05 21:35:00,METAR KMQS 052135Z AUTO 31018G25KT 10SM FEW028 SCT040 BKN230 12/06 A2985 RMK AO2 T01210059
2026-04-05 21:15:00,METAR KMQS 052115Z AUTO 32011G21KT 10SM SCT027 BKN220 BKN370 13/08 A2984 RMK AO2 T01260085
2026-04-05 20:55:00,METAR KMQS 052055Z AUTO 31011KT 10SM SCT036 OVC220 12/10 A2983 RMK AO2 60014 T01230096 55002
2026-04-05 20:35:00,METAR KMQS 052035Z AUTO 31019G23KT 10SM FEW013 SCT030 OVC036 12/09 A2983 RMK AO2 T01200092
2026-04-05 20:15:00,METAR KMQS 052015Z AUTO 33013G20KT 10SM BKN014 BKN020 OVC029 12/11 A2982 RMK AO2 CIG 011V015 T01210106
2026-04-05 19:55:00,METAR KMQS 051955Z AUTO 29015KT 10SM BKN009 BKN015 OVC170 13/13 A2981 RMK AO2 RAE1930 CIG 008V012 BKN009 V SCT P0003 T01300128
2026-04-05 19:35:00,METAR KMQS 051935Z AUTO 31009KT 10SM FEW008 BKN012 BKN021 BKN029 OVC080 13/13 A2981 RMK AO2 RAE1930 P0003 T01290129
2026-04-05 19:15:00,METAR KMQS 051915Z AUTO 32007KT 7SM -RA FEW012 BKN020 BKN029 BKN075 OVC090 13/13 A2979 RMK AO2 P0003 T01270127
2026-04-05 18:55:00,METAR KMQS 051855Z AUTO 30009KT 4SM RA BR BKN009 OVC013 13/13 A2982 RMK AO2 P0011 T01260126
2026-04-05 18:35:00,METAR KMQS 051835Z AUTO 32008KT 4SM -RA BR BKN007 BKN014 OVC085 13/13 A2983 RMK AO2 P0006 T01300130
2026-04-05 18:15:00,METAR KMQS 051815Z AUTO 29010KT 5SM -RA BR SCT013 BKN023 BKN028 OVC090 13/13 A2984 RMK AO2 P0004 T01310131
2026-04-05 17:55:00,METAR KMQS 051755Z AUTO 29009KT 5SM -RA BR OVC090 13/13 A2984 RMK AO2 P0009 60038 T01320132 10199 20095 56007
2026-04-05 17:35:00,METAR KMQS 051735Z AUTO 30010KT 4SM -RA BR FEW006 SCT011 SCT024 OVC090 13/13 A2984 RMK AO2 FEW V SCT P0008 T01330132
2026-04-05 17:15:00,METAR KMQS 051715Z AUTO 31012KT 4SM -RA BR SCT006 BKN012 OVC019 14/14 A2984 RMK AO2 P0005 T01380138
2026-04-05 16:55:00,METAR KMQS 051655Z AUTO 26005KT 2 1/2SM -RA BR FEW007 SCT019 BKN024 OVC070 14/14 A2984 RMK AO2 VIS 1 3/4V4 FEW V SCT P0009 T01450145
2026-04-05 16:35:00,METAR KMQS 051635Z AUTO 29006KT 2 1/2SM RA BR FEW007 OVC065 14/14 A2983 RMK AO2 P0006 T01450145
2026-04-05 16:15:00,METAR KMQS 051615Z AUTO 26006KT 6SM -RA BR BKN060 OVC090 14/14 A2983 RMK AO2 P0001 T01420142
2026-04-05 15:55:00,METAR KMQS 051555Z AUTO 28004KT 7SM -RA BKN065 OVC080 14/14 A2983 RMK AO2 P0020 T01400140
2026-04-05 15:35:00,METAR KMQS 051535Z AUTO 28004KT 6SM -RA BR FEW007 OVC070 14/14 A2983 RMK AO2 P0020 T01350135
2026-04-05 15:15:00,METAR KMQS 051515Z AUTO 29007KT 2SM RA BR FEW007 OVC060 13/13 A2986 RMK AO2 P0018 T01290129
2026-04-05 14:55:00,METAR KMQS 051455Z AUTO 32013G37KT 4SM -RA BR FEW006 SCT010 BKN013 OVC020 13/12 A2986 RMK AO2 PK WND 30037/1440 RAB1446 FEW V SCT P0000 60000 T01280125 53002
2026-04-05 12:55:00,METAR KMQS 051255Z AUTO VRB03KT 6SM BR BKN002 12/12 A2984 RMK AO2 T01210121
2026-04-05 12:35:00,METAR KMQS 051235Z AUTO VRB03KT 1 1/2SM BR OVC002 11/11 A2983 RMK AO2 VIS 1/4V5 T01100110
2026-04-05 12:15:00,METAR KMQS 051215Z AUTO 16003KT 1SM BR VV002 10/10 A2984 RMK AO2 T00980098
2026-04-05 11:55:00,METAR KMQS 051155Z AUTO 13004KT M1/4SM FG VV002 09/09 A2985 RMK AO2 60000 T00920092 10092 20077 56016
2026-04-05 11:35:00,METAR KMQS 051135Z AUTO 13004KT M1/4SM FG VV002 09/09 A2986 RMK AO2 T00910091
2026-04-05 11:15:00,METAR KMQS 051115Z AUTO 10003KT M1/4SM FG VV002 09/09 A2986 RMK AO2 T00890089
2026-04-05 10:55:00,METAR KMQS 051055Z AUTO 10004KT M1/4SM FG VV002 09/09 A2986 RMK AO2 T00880088
2026-04-05 10:35:00,METAR KMQS 051035Z AUTO 13003KT M1/4SM FG VV002 09/09 A2987 RMK AO2 T00870087
2026-04-05 10:15:00,METAR KMQS 051015Z AUTO 10004KT 1/4SM FG VV002 09/09 A2988 RMK AO2 T00850085
2026-04-05 09:55:00,METAR KMQS 050955Z AUTO 11005KT 1/4SM FG VV002 08/08 A2988 RMK AO2 DZB0933E0941 P0000 T00810081
2026-04-05 09:35:00,METAR KMQS 050935Z AUTO 11005KT 1/4SM -DZ FG VV002 08/08 A2989 RMK AO2 DZB0933 P0000 T00830083
2026-04-05 09:15:00,METAR KMQS 050915Z AUTO VRB05KT 1/4SM FG VV002 08/08 A2989 RMK AO2 T00780078
2026-04-05 08:55:00,METAR KMQS 050855Z AUTO 09006KT 1/4SM FG VV002 08/08 A2990 RMK AO2 RAB0812E0815DZB0816E0828 P0000 60000 T00770077 56034
2026-04-05 08:35:00,METAR KMQS 050835Z AUTO 09007KT 1/4SM FG VV002 08/08 A2991 RMK AO2 RAB0812E0815DZB0816E0828 P0000 T00770077
2026-04-05 08:15:00,METAR KMQS 050815Z AUTO 09010KT 1/4SM FG VV002 08/08 A2991 RMK AO2 RAB0812E0815 P0000 T00790079
2026-04-05 07:55:00,METAR KMQS 050755Z AUTO 10008KT 1/4SM FG VV002 08/08 A2993 RMK AO2 DZE0710 P0000 T00770077
2026-04-05 07:35:00,METAR KMQS 050735Z AUTO 08007KT 1/4SM FG VV002 08/08 A2994 RMK AO2 DZE0710 P0000 T00780078
2026-04-05 07:15:00,METAR KMQS 050715Z AUTO 10007KT 1/4SM FG VV002 08/08 A2995 RMK AO2 DZE0710 P0000 T00780078
2026-04-05 06:55:00,METAR KMQS 050655Z AUTO 09008KT 1/4SM -DZ FG VV002 08/08 A2996 RMK AO2 DZE0554B0629 P0000 T00780078
2026-04-05 06:35:00,METAR KMQS 050635Z AUTO 10009KT 1/4SM -DZ FG VV002 08/08 A2997 RMK AO2 DZE0554B0629 P0000 T00780078
2026-04-05 06:15:00,METAR KMQS 050615Z AUTO 10011G16KT 1/4SM FG VV002 08/08 A2999 RMK AO2 DZE0554 P0000 T00770077
2026-04-05 05:55:00,METAR KMQS 050555Z AUTO 11009KT 1/2SM -DZ FG VV002 08/08 A3001 RMK AO2 DZB0544 P0000 60000 T00780078 10165 20078 402690078 58028
2026-04-05 05:35:00,METAR KMQS 050535Z AUTO 12008KT 090V150 3/4SM BR VV002 08/08 A3002 RMK AO2 T00780078
2026-04-05 05:15:00,METAR KMQS 050515Z AUTO 10011G15KT 3/4SM BR VV002 08/08 A3002 RMK AO2 T00780078
2026-04-05 04:55:00,METAR KMQS 050455Z AUTO 10009KT 1 3/4SM BR OVC002 08/08 A3004 RMK AO2 T00790079
2026-04-05 04:35:00,METAR KMQS 050435Z AUTO 10008KT 080V150 1SM BR VV002 08/08 A3005 RMK AO2 T00790079
2026-04-05 04:15:00,METAR KMQS 050415Z AUTO 09014KT 1 1/2SM BR OVC002 08/08 A3005 RMK AO2 T00800080
2026-04-05 03:55:00,METAR KMQS 050355Z AUTO 10010KT 4SM BR OVC002 08/08 A3006 RMK AO2 T00830083
2026-04-05 03:35:00,METAR KMQS 050335Z AUTO 10010G16KT 4SM BR OVC002 09/09 A3007 RMK AO2 T00870087
2026-04-05 03:15:00,METAR KMQS 050315Z AUTO 10008G21KT 3SM BR OVC002 09/09 A3008 RMK AO2 T00870087
2026-04-05 02:55:00,METAR KMQS 050255Z AUTO 10007G18KT 5SM BR OVC003 09/09 A3009 RMK AO2 T00910091 50005
2026-04-05 02:35:00,METAR KMQS 050235Z AUTO 10015KT 6SM BR OVC004 09/09 A3009 RMK AO2 CIG 003V006 T00930093
2026-04-05 02:15:00,METAR KMQS 050215Z AUTO 10012KT 7SM OVC006 10/10 A3009 RMK AO2 CIG 005V009 T01000098
2026-04-05 01:55:00,METAR KMQS 050155Z AUTO 10014G19KT 9SM OVC010 11/10 A3009 RMK AO2 CIG 007V013 T01080101
2026-04-05 01:35:00,METAR KMQS 050135Z AUTO 08012KT 10SM OVC010 12/10 A3009 RMK AO2 CIG 008V013 T01190104
2026-04-05 01:15:00,METAR KMQS 050115Z AUTO 11013KT 10SM OVC012 13/12 A3009 RMK AO2 CIG 009V015 T01300116
2026-04-05 00:55:00,METAR KMQS 050055Z AUTO 09015KT 10SM OVC014 14/12 A3008 RMK AO2 CIG 012V018 T01420115
2026-04-05 00:35:00,METAR KMQS 050035Z AUTO 11013KT 10SM BKN016 15/12 A3008 RMK AO2 CIG 014V019 T01480115
2026-04-05 00:15:00,METAR KMQS 050015Z AUTO 10012KT 10SM CLR 16/12 A3008 RMK AO2 T01580124
2026-04-04 23:55:00,METAR KMQS 042355Z AUTO 11015G20KT 10SM CLR 17/13 A3007 RMK AO2 T01710126 10269 20171 53003
2026-04-04 23:35:00,METAR KMQS 042335Z AUTO 12009KT 10SM CLR 18/13 A3007 RMK AO2 T01780129
2026-04-04 23:15:00,METAR KMQS 042315Z AUTO 13013G20KT 10SM CLR 19/14 A3008 RMK AO2 T01850137
2026-04-04 22:55:00,METAR KMQS 042255Z AUTO 11012G17KT 10SM CLR 20/15 A3007 RMK AO2 PK WND 11027/2159 T01950148
2026-04-04 22:35:00,METAR KMQS 042235Z AUTO 11015G21KT 10SM SCT041 20/15 A3007 RMK AO2 PK WND 11027/2159 T02000152
2026-04-04 22:15:00,METAR KMQS 042215Z AUTO 12015G21KT 10SM BKN039 21/16 A3007 RMK AO2 PK WND 11027/2159 T02110157
2026-04-04 21:55:00,METAR KMQS 042155Z AUTO 13009G14KT 110V170 10SM CLR 26/17 A3005 RMK AO2 T02570168
2026-04-04 21:35:00,METAR KMQS 042135Z AUTO 16007G16KT 130V210 10SM CLR 26/16 A3006 RMK AO2 T02590164
2026-04-04 21:15:00,METAR KMQS 042115Z AUTO 15007G16KT 10SM CLR 26/16 A3006 RMK AO2 T02640165
2026-04-04 20:55:00,METAR KMQS 042055Z AUTO 15008G15KT 10SM CLR 26/16 A3006 RMK AO2 T02630159 56022
2026-04-04 20:35:00,METAR KMQS 042035Z AUTO 17008KT 10SM CLR 26/16 A3007 RMK AO2 T02630162
2026-04-04 20:15:00,METAR KMQS 042015Z AUTO 15007KT 10SM CLR 27/16 A3007 RMK AO2 T02660161
2026-04-04 19:55:00,METAR KMQS 041955Z AUTO 14006KT 10SM CLR 26/17 A3008 RMK AO2 T02650166
2026-04-04 19:35:00,METAR KMQS 041935Z AUTO 13008KT 10SM CLR 26/16 A3009 RMK AO2 T02640165
2026-04-04 19:15:00,METAR KMQS 041915Z AUTO 14007KT 10SM FEW130 26/16 A3010 RMK AO2 T02600164
2026-04-04 18:55:00,METAR KMQS 041855Z AUTO VRB06KT 10SM FEW080 OVC130 26/16 A3011 RMK AO2 T02600165
2026-04-04 18:35:00,METAR KMQS 041835Z AUTO VRB06KT 10SM FEW080 BKN130 26/16 A3012 RMK AO2 T02570163
2026-04-04 18:15:00,METAR KMQS 041815Z AUTO 14007KT 10SM SCT080 BKN110 BKN130 25/16 A3012 RMK AO2 T02550162
2026-04-04 17:55:00,METAR KMQS 041755Z AUTO 15005KT 10SM FEW041 SCT070 BKN085 OVC110 25/17 A3013 RMK AO2 T02460168 10256 20163 58009
2026-04-04 17:35:00,METAR KMQS 041735Z AUTO 14005KT 9SM FEW044 BKN070 OVC090 25/17 A3013 RMK AO2 T02450166
2026-04-04 17:15:00,METAR KMQS 041715Z AUTO 15004KT 10SM BKN070 OVC080 25/16 A3014 RMK AO2 T02480161
2026-04-04 16:55:00,METAR KMQS 041655Z AUTO VRB04KT 10SM SCT070 BKN130 25/16 A3014 RMK AO2 T02520161
2026-04-04 16:35:00,METAR KMQS 041635Z AUTO VRB05KT 10SM FEW130 26/16 A3014 RMK AO2 T02560159
2026-04-04 16:15:00,METAR KMQS 041615Z AUTO 16005KT 10SM SCT070 26/16 A3015 RMK AO2 T02550164
2026-04-04 15:55:00,METAR KMQS 041555Z AUTO VRB03KT 10SM BKN070 24/17 A3015 RMK AO2 T02440166
2026-04-04 15:35:00,METAR KMQS 041535Z AUTO VRB04KT 10SM BKN065 24/17 A3016 RMK AO2 T02410167
2026-04-04 15:15:00,METAR KMQS 041515Z AUTO VRB04KT 10SM CLR 24/17 A3016 RMK AO2 T02440165
2026-04-04 14:55:00,METAR KMQS 041455Z AUTO VRB06KT 10SM FEW065 24/16 A3016 RMK AO2 T02380163 58005
2026-04-04 14:35:00,METAR KMQS 041435Z AUTO 00000KT 10SM FEW065 23/16 A3016 RMK AO2 T02310162
2026-04-04 14:15:00,METAR KMQS 041415Z AUTO 07004KT 10SM CLR 23/17 A3016 RMK AO2 T02280167
2026-04-04 13:55:00,METAR KMQS 041355Z AUTO 04003KT 10SM CLR 22/16 A3017 RMK AO2 T02250164
2026-04-04 13:35:00,METAR KMQS 041335Z AUTO 00000KT 10SM CLR 22/17 A3017 RMK AO2 T02220166
2026-04-04 13:15:00,METAR KMQS 041315Z AUTO 00000KT 10SM CLR 20/16 A3017 RMK AO2 T02040162
2026-04-04 12:55:00,METAR KMQS 041255Z AUTO 30004KT 10SM CLR 19/16 A3017 RMK AO2 T01860160
2026-04-04 12:35:00,METAR KMQS 041235Z AUTO 00000KT 10SM CLR 18/15 A3017 RMK AO2 T01800151
2026-04-04 12:15:00,METAR KMQS 041215Z AUTO 25003KT 10SM CLR 17/15 A3017 RMK AO2 T01740151
2026-04-04 11:55:00,METAR KMQS 041155Z AUTO 22005KT 9SM CLR 16/15 A3017 RMK AO2 T01580146 10176 20132 53014
2026-04-04 11:35:00,METAR KMQS 041135Z AUTO 21005KT 8SM CLR 15/15 A3016 RMK AO2 T01540146
2026-04-04 11:15:00,METAR KMQS 041115Z AUTO 00000KT 8SM CLR 16/15 A3016 RMK AO2 T01600147
2026-04-04 10:55:00,METAR KMQS 041055Z AUTO 00000KT 7SM CLR 14/14 A3015 RMK AO2 T01390138
2026-04-04 10:35:00,METAR KMQS 041035Z AUTO 31004KT 9SM CLR 14/14 A3015 RMK AO2 T01420141
2026-04-04 10:15:00,METAR KMQS 041015Z AUTO 31003KT 9SM CLR 14/14 A3014 RMK AO2 T01350135
2026-04-04 09:55:00,METAR KMQS 040955Z AUTO 21004KT 10SM CLR 16/14 A3013 RMK AO2 T01560144
2026-04-04 09:35:00,METAR KMQS 040935Z AUTO 23004KT 10SM CLR 15/14 A3013 RMK AO2 T01550144
2026-04-04 09:15:00,METAR KMQS 040915Z AUTO 00000KT 10SM CLR 15/14 A3013 RMK AO2 T01460140
2026-04-04 08:55:00,METAR KMQS 040855Z AUTO 29005KT 10SM CLR 14/13 A3013 RMK AO2 T01370134 56001
2026-04-04 08:35:00,METAR KMQS 040835Z AUTO 28007KT 10SM CLR 16/14 A3013 RMK AO2 T01560140
2026-04-04 08:15:00,METAR KMQS 040815Z AUTO 26006KT 10SM CLR 17/15 A3013 RMK AO2 T01750146
2026-04-04 07:55:00,METAR KMQS 040755Z AUTO 25004KT 10SM CLR 17/15 A3013 RMK AO2 T01660146
2026-04-04 07:35:00,METAR KMQS 040735Z AUTO 24005KT 10SM CLR 17/15 A3013 RMK AO2 T01680146
2026-04-04 07:15:00,METAR KMQS 040715Z AUTO 25005KT 10SM CLR 17/15 A3013 RMK AO2 T01740146
2026-04-04 06:55:00,METAR KMQS 040655Z AUTO VRB06KT 10SM CLR 17/15 A3013 RMK AO2 T01750146
2026-04-04 06:35:00,METAR KMQS 040635Z AUTO 26005KT 10SM CLR 17/15 A3013 RMK AO2 T01740147
2026-04-04 06:15:00,METAR KMQS 040615Z AUTO 26005KT 10SM CLR 18/15 A3013 RMK AO2 T01750147
2026-04-04 05:55:00,METAR KMQS 040555Z AUTO 26006KT 10SM CLR 18/15 A3013 RMK AO2 T01750148 10189 20161 402020046 57001
2026-04-04 05:35:00,METAR KMQS 040535Z AUTO VRB05KT 10SM CLR 18/15 A3014 RMK AO2 T01760150
2026-04-04 05:15:00,METAR KMQS 040515Z AUTO 25005KT 10SM CLR 18/15 A3014 RMK AO2 T01760151
2026-04-04 04:55:00,METAR KMQS 040455Z AUTO 24005KT 10SM CLR 18/15 A3014 RMK AO2 T01760152
2026-04-04 04:35:00,METAR KMQS 040435Z AUTO VRB05KT 10SM CLR 18/15 A3013 RMK AO2 T01760152
2026-04-04 04:15:00,METAR KMQS 040415Z AUTO 25004KT 10SM CLR 18/15 A3014 RMK AO2 T01770154
2026-04-04 03:55:00,METAR KMQS 040355Z AUTO VRB04KT 10SM CLR 18/15 A3013 RMK AO2 T01780155
2026-04-04 03:35:00,METAR KMQS 040335Z AUTO 22003KT 10SM CLR 18/16 A3013 RMK AO2 T01800156
2026-04-04 03:15:00,METAR KMQS 040315Z AUTO 24003KT 10SM CLR 18/16 A3013 RMK AO2 T01810157
2026-04-04 02:55:00,METAR KMQS 040255Z AUTO VRB03KT 10SM CLR 18/16 A3014 RMK AO2 T01780159 50001
2026-04-04 02:35:00,METAR KMQS 040235Z AUTO 21004KT 10SM CLR 18/16 A3014 RMK AO2 T01790160
2026-04-04 02:15:00,METAR KMQS 040215Z AUTO 20003KT 10SM CLR 18/16 A3014 RMK AO2 T01820160
2026-04-04 01:55:00,METAR KMQS 040155Z AUTO 00000KT 10SM CLR 17/16 A3014 RMK AO2 T01690158
2026-04-04 01:35:00,METAR KMQS 040135Z AUTO 00000KT 10SM FEW120 17/16 A3015 RMK AO2 T01680157
2026-04-04 01:15:00,METAR KMQS 040115Z AUTO 00000KT 10SM OVC120 17/16 A3014 RMK AO2 T01660156
2026-04-04 00:55:00,METAR KMQS 040055Z AUTO 00000KT 10SM FEW070 BKN120 17/16 A3014 RMK AO2 T01710155
2026-04-04 00:35:00,METAR KMQS 040035Z AUTO 00000KT 10SM FEW070 BKN100 18/16 A3014 RMK AO2 T01850158
2026-04-04 00:15:00,METAR KMQS 040015Z AUTO 00000KT 10SM SCT100 19/16 A3014 RMK AO2 T01890158
2026-04-03 23:55:00,METAR KMQS 032355Z AUTO 00000KT 10SM FEW095 19/16 A3013 RMK AO2 T01870158 10202 20123 56011
2026-04-03 23:35:00,METAR KMQS 032335Z AUTO 00000KT 10SM CLR 19/16 A3014 RMK AO2 T01900157
2026-04-03 23:15:00,METAR KMQS 032315Z AUTO 00000KT 10SM SCT110 19/16 A3014 RMK AO2 T01890157
2026-04-03 22:55:00,METAR KMQS 032255Z AUTO 00000KT 10SM BKN110 20/16 A3014 RMK AO2 T01950157
2026-04-03 22:35:00,METAR KMQS 032235Z AUTO 00000KT 10SM FEW110 SCT230 20/16 A3015 RMK AO2 T01980157
2026-04-03 22:15:00,METAR KMQS 032215Z AUTO 20006KT 10SM SCT230 20/16 A3015 RMK AO2 T01980156
2026-04-03 21:55:00,METAR KMQS 032155Z AUTO VRB03KT 10SM FEW270 20/16 A3015 RMK AO2 T02020156
2026-04-03 21:35:00,METAR KMQS 032135Z AUTO VRB05KT 10SM CLR 20/15 A3015 RMK AO2 T01990153
2026-04-03 21:15:00,METAR KMQS 032115Z AUTO 22003KT 10SM CLR 19/15 A3016 RMK AO2 T01940151
2026-04-03 20:55:00,METAR KMQS 032055Z AUTO VRB05KT 10SM CLR 19/15 A3017 RMK AO2 T01870148 56021
2026-04-03 20:35:00,METAR KMQS 032035Z AUTO VRB05KT 10SM CLR 18/15 A3017 RMK AO2 T01820145
2026-04-03 20:15:00,METAR KMQS 032015Z AUTO VRB05KT 9SM CLR 17/14 A3018 RMK AO2 T01740142
2026-04-03 19:55:00,METAR KMQS 031955Z AUTO VRB04KT 9SM BKN010 16/14 A3018 RMK AO2 CIG 010V015 T01620139
2026-04-03 19:35:00,METAR KMQS 031935Z AUTO 20008KT 7SM OVC010 15/14 A3019 RMK AO2 CIG 009V013 T01520136
2026-04-03 19:15:00,METAR KMQS 031915Z AUTO 19005KT 7SM OVC009 15/14 A3020 RMK AO2 CIG 008V011 T01490135
2026-04-03 18:55:00,METAR KMQS 031855Z AUTO 19007KT 7SM OVC008 14/13 A3021 RMK AO2 CIG 007V009 T01400130
2026-04-03 18:35:00,METAR KMQS 031835Z AUTO VRB06KT 7SM OVC007 14/13 A3021 RMK AO2 CIG 007V009 T01360128
2026-04-03 18:15:00,METAR KMQS 031815Z AUTO VRB03KT 7SM OVC007 13/13 A3022 RMK AO2 CIG 005V009 T01300130
2026-04-03 17:55:00,METAR KMQS 031755Z AUTO VRB03KT 8SM OVC005 12/12 A3023 RMK AO2 60000 T01200120 10120 20055 57016
2026-04-03 17:35:00,METAR KMQS 031735Z AUTO VRB03KT 7SM OVC005 12/12 A3023 RMK AO2 CIG 004V006 T01190119
2026-04-03 17:15:00,METAR KMQS 031715Z AUTO 00000KT 7SM OVC004 12/12 A3024 RMK AO2 T01150115
2026-04-03 16:55:00,METAR KMQS 031655Z AUTO VRB05KT 7SM OVC004 11/11 A3024 RMK AO2 T01120112
2026-04-03 16:35:00,METAR KMQS 031635Z AUTO 00000KT 6SM BR OVC004 11/11 A3025 RMK AO2 T01070107
2026-04-03 16:15:00,METAR KMQS 031615Z AUTO VRB04KT 7SM OVC003 10/10 A3026 RMK AO2 T01040104
2026-04-03 15:55:00,METAR KMQS 031555Z AUTO VRB06KT 5SM BR OVC003 10/10 A3027 RMK AO2 T01000100
2026-04-03 15:35:00,METAR KMQS 031535Z AUTO VRB04KT 6SM BR OVC003 10/10 A3027 RMK AO2 CIG 002V004 T00970097
2026-04-03 15:15:00,METAR KMQS 031515Z AUTO VRB04KT 5SM BR OVC002 09/09 A3027 RMK AO2 T00940094
2026-04-03 14:55:00,METAR KMQS 031455Z AUTO VRB04KT 10SM OVC002 09/09 A3028 RMK AO2 60000 T00870087 57007
2026-04-03 14:35:00,METAR KMQS 031435Z AUTO VRB04KT 8SM OVC002 08/08 A3028 RMK AO2 T00820082
2026-04-03 14:15:00,METAR KMQS 031415Z AUTO VRB04KT 10SM OVC002 08/08 A3028 RMK AO2 T00780078
2026-04-03 13:55:00,METAR KMQS 031355Z AUTO 18003KT 3/4SM BR VV002 07/07 A3029 RMK AO2 VIS M1/4V5 T00700070
2026-04-03 13:35:00,METAR KMQS 031335Z AUTO 15003KT 1SM BR VV002 07/07 A3029 RMK AO2 T00680068
2026-04-03 13:15:00,METAR KMQS 031315Z AUTO 15003KT 10SM OVC002 07/07 A3029 RMK AO2 T00670067
2026-04-03 12:55:00,METAR KMQS 031255Z AUTO 12003KT M1/4SM FG VV002 06/06 A3029 RMK AO2 RAB1201E1202 P0000 T00610061
2026-04-03 12:35:00,METAR KMQS 031235Z AUTO 00000KT M1/4SM FG VV002 06/06 A3030 RMK AO2 RAB1201E1202 P0000 T00590059
2026-04-03 12:15:00,METAR KMQS 031215Z AUTO 00000KT 1/4SM FG VV002 06/06 A3030 RMK AO2 RAB1201E1202 P0000 T00560056
2026-04-03 11:55:00,METAR KMQS 031155Z AUTO 13004KT M1/4SM FG VV002 05/05 A3030 RMK AO2 DZE1052 P0000 60000 70001 T00540054 10055 20046 58003
2026-04-03 11:35:00,METAR KMQS 031135Z AUTO 12004KT 1/4SM FG VV002 05/05 A3031 RMK AO2 DZE1052 P0000 T00540054
2026-04-03 11:15:00,METAR KMQS 031115Z AUTO 00000KT 1/4SM FG VV002 05/05 A3031 RMK AO2 DZE1052 P0000 T00520052
2026-04-03 08:55:00,METAR KMQS 030855Z AUTO 11005KT 1 1/4SM BR OVC003 05/05 A3031 RMK AO2 RAE0753DZB0753E0803B0840E0842 P0000 60000 T00500050 56017
2026-04-03 08:35:00,METAR KMQS 030835Z AUTO 10005KT 1 1/2SM BR OVC002 05/05 A3032 RMK AO2 RAE0753DZB0753E0803 P0000 T00500050
2026-04-03 08:15:00,METAR KMQS 030815Z AUTO 10008KT 1 3/4SM BR OVC002 05/05 A3032 RMK AO2 VIS 1 1/4V2 1/2 RAE0753DZB0753E0803 P0000 T00500050
2026-04-03 06:15:00,METAR KMQS 030615Z AUTO 12006KT 3SM BR OVC003 05/05 A3036 RMK AO2 RAE0613 P0000 T00470047
2026-04-03 05:55:00,METAR KMQS 030555Z AUTO 11007KT 1 3/4SM -RA BR OVC003 05/05 A3036 RMK AO2 VIS 1 1/4V5 RAB0459DZE0459 P0000 60000 T00470047 10054 20046 401290046 57002
2026-04-03 05:35:00,METAR KMQS 030535Z AUTO 13009KT 3SM -RA BR OVC003 05/05 A3036 RMK AO2 RAB0459DZE0459 P0000 T00460046
2026-04-03 05:15:00,METAR KMQS 030515Z AUTO 11008KT 3SM -RA BR OVC003 05/05 A3036 RMK AO2 RAB0459DZE0459 P0000 T00470047
2026-04-03 04:55:00,METAR KMQS 030455Z AUTO 12008KT 3/4SM -DZ BR VV002 05/05 A3036 RMK AO2 RAE0415B0436E0446DZB0446 P0000 T00480048
2026-04-03 04:35:00,METAR KMQS 030435Z AUTO 12007KT 3SM BR OVC002 05/05 A3037 RMK AO2 RAE0415 P0000 T00480048
2026-04-03 04:15:00,METAR KMQS 030415Z AUTO 11007KT 6SM BR OVC003 05/05 A3037 RMK AO2 RAE0415 P0000 T00480048
2026-04-03 03:55:00,METAR KMQS 030355Z AUTO 12009KT 7SM -RA OVC003 05/05 A3036 RMK AO2 P0000 T00480048
2026-04-03 03:35:00,METAR KMQS 030335Z AUTO 11010KT 5SM -RA BR OVC003 05/05 A3036 RMK AO2 P0000 T00480048
2026-04-03 03:15:00,METAR KMQS 030315Z AUTO 10009KT 5SM -RA BR OVC003 05/05 A3037 RMK AO2 P0000 T00480048
2026-04-03 02:55:00,METAR KMQS 030255Z AUTO 10010KT 6SM -RA BR OVC003 05/05 A3037 RMK AO2 RAB0210 P0000 60000 T00480048 51002
2026-04-03 02:35:00,METAR KMQS 030235Z AUTO 10011KT 7SM -RA OVC003 05/05 A3037 RMK AO2 RAB0210 P0000 T00480048
2026-04-03 02:15:00,METAR KMQS 030215Z AUTO 11011KT 8SM -RA OVC004 05/05 A3037 RMK AO2 RAB0210 P0000 T00480048
2026-04-03 01:55:00,METAR KMQS 030155Z AUTO 10010KT 9SM OVC004 05/05 A3037 RMK AO2 RAE0141 CIG 003V005 P0000 T00490049
2026-04-03 01:35:00,METAR KMQS 030135Z AUTO 11009KT 8SM OVC004 05/05 A3037 RMK AO2 RAE0132 P0000 T00500050
2026-04-03 01:15:00,METAR KMQS 030115Z AUTO 11009KT 7SM -RA OVC004 05/05 A3037 RMK AO2 P0000 T00500050
2026-04-03 00:55:00,METAR KMQS 030055Z AUTO 10009KT 8SM -RA OVC004 05/05 A3037 RMK AO2 RAB2357 CIG 003V005 P0000 T00530053
2026-04-03 00:35:00,METAR KMQS 030035Z AUTO 11012G17KT 8SM -RA OVC004 05/05 A3036 RMK AO2 RAB2357 CIG 003V005 P0000 T00520052
2026-04-03 00:15:00,METAR KMQS 030015Z AUTO 11007KT 8SM OVC004 05/05 A3037 RMK AO2 RAB2357E0002 P0000 T00530053
2026-04-02 23:55:00,METAR KMQS 022355Z AUTO 10009G18KT 8SM OVC004 05/05 A3036 RMK AO2 RAB2310E2347 CIG 003V005 P0000 60000 T00540054 10075 20054 53002
2026-04-02 23:35:00,METAR KMQS 022335Z AUTO 11010KT 7SM -RA OVC004 06/06 A3036 RMK AO2 RAB2310 CIG 003V005 P0000 T00560056
2026-04-02 23:15:00,METAR KMQS 022315Z AUTO 11010KT 8SM -RA OVC004 06/06 A3035 RMK AO2 RAB2310 CIG 004V006 P0000 T00570057
2026-04-02 22:55:00,METAR KMQS 022255Z AUTO 10009KT 8SM OVC004 06/06 A3035 RMK AO2 RAE2227 P0000 T00590059
2026-04-02 22:35:00,METAR KMQS 022235Z AUTO 08010KT 8SM OVC004 06/06 A3035 RMK AO2 RAE2227 P0000 T00610061
2026-04-02 22:15:00,METAR KMQS 022215Z AUTO 10008KT 7SM OVC004 06/06 A3036 RMK AO2 RAE2209 P0000 T00620062
2026-04-02 21:55:00,METAR KMQS 022155Z AUTO 10008KT 6SM -RA BR OVC005 06/06 A3036 RMK AO2 RAB2149 CIG 004V006 P0000 T00640064
2026-04-02 21:35:00,METAR KMQS 022135Z AUTO 11008KT 7SM OVC005 07/07 A3036 RMK AO2 CIG 004V006 T00650065
2026-04-02 21:15:00,METAR KMQS 022115Z AUTO 12010KT 8SM OVC005 07/07 A3036 RMK AO2 CIG 005V009 T00660066
2026-04-02 20:55:00,METAR KMQS 022055Z AUTO 09010KT 8SM OVC006 07/07 A3035 RMK AO2 CIG 005V007 T00690069 56006
2026-04-02 20:35:00,METAR KMQS 022035Z AUTO 10007KT 9SM OVC006 07/07 A3036 RMK AO2 CIG 005V007 T00690068
2026-04-02 20:15:00,METAR KMQS 022015Z AUTO 11012KT 10SM OVC006 07/07 A3036 RMK AO2 T00700069
2026-04-02 19:55:00,METAR KMQS 021955Z AUTO 10010KT 10SM OVC006 07/07 A3036 RMK AO2 T00720069
2026-04-02 19:35:00,METAR KMQS 021935Z AUTO 10012KT 9SM OVC006 07/07 A3036 RMK AO2 T00720069
2026-04-02 19:15:00,METAR KMQS 021915Z AUTO 11007KT 9SM OVC007 07/07 A3036 RMK AO2 CIG 005V008 T00720070
2026-04-02 18:55:00,METAR KMQS 021855Z AUTO 10011KT 070V130 9SM OVC006 07/07 A3036 RMK AO2 CIG 006V008 T00750070
2026-04-02 18:35:00,METAR KMQS 021835Z AUTO 10009KT 10SM OVC006 07/07 A3036 RMK AO2 T00740071
2026-04-02 18:15:00,METAR KMQS 021815Z AUTO 12012KT 10SM OVC006 07/07 A3037 RMK AO2 T00750073
2026-04-02 17:55:00,METAR KMQS 021755Z AUTO 12009KT 10SM OVC006 07/07 A3037 RMK AO2 CIG 005V007 60001 T00740074 10076 20069 51004
2026-04-02 17:35:00,METAR KMQS 021735Z AUTO 10010KT 10SM OVC006 08/07 A3038 RMK AO2 CIG 005V007 T00750074
2026-04-02 17:15:00,METAR KMQS 021715Z AUTO 09009G16KT 10SM OVC006 07/07 A3038 RMK AO2 T00740074
2026-04-02 16:55:00,METAR KMQS 021655Z AUTO 08009KT 10SM OVC005 07/07 A3037 RMK AO2 CIG 004V006 T00740074
2026-04-02 16:35:00,METAR KMQS 021635Z AUTO VRB06KT 10SM OVC004 07/07 A3037 RMK AO2 CIG 004V006 T00720072
2026-04-02 16:15:00,METAR KMQS 021615Z AUTO 09008KT 9SM OVC004 07/07 A3037 RMK AO2 T00700070
2026-04-02 15:55:00,METAR KMQS 021555Z AUTO 09011KT 9SM OVC005 07/07 A3037 RMK AO2 T00710071
2026-04-02 15:35:00,METAR KMQS 021535Z AUTO 08009KT 9SM OVC005 07/07 A3036 RMK AO2 T00720072
2026-04-02 15:15:00,METAR KMQS 021515Z AUTO 10012G16KT 10SM OVC005 07/07 A3036 RMK AO2 T00700070
2026-04-02 14:55:00,METAR KMQS 021455Z AUTO 09012KT 10SM OVC004 07/07 A3036 RMK AO2 CIG 003V005 P0001 60001 T00720072 51017
2026-04-02 14:35:00,METAR KMQS 021435Z AUTO 08012KT 8SM OVC004 07/07 A3036 RMK AO2 CIG 003V007 P0001 T00720072
2026-04-02 14:15:00,METAR KMQS 021415Z AUTO 08010KT 8SM OVC004 07/07 A3036 RMK AO2 CIG 004V007 T00730073
2026-04-02 13:55:00,METAR KMQS 021355Z AUTO 08010KT 9SM OVC004 07/07 A3035 RMK AO2 T00730073
2026-04-02 13:35:00,METAR KMQS 021335Z AUTO 10011KT 10SM OVC004 07/07 A3034 RMK AO2 CIG 003V005 T00730073
2026-04-02 13:15:00,METAR KMQS 021315Z AUTO 09012KT 9SM OVC003 07/07 A3033 RMK AO2 CIG 003V005 T00740074
2026-04-02 12:55:00,METAR KMQS 021255Z AUTO 08008KT 9SM OVC004 07/07 A3033 RMK AO2 RAE1203 CIG 003V006 P0000 T00740074
2026-04-02 12:35:00,METAR KMQS 021235Z AUTO 10011KT 10SM OVC005 07/07 A3032 RMK AO2 RAE1203 P0000 T00740074
2026-04-02 12:15:00,METAR KMQS 021215Z AUTO 09010KT 10SM OVC004 07/07 A3031 RMK AO2 RAE1203 CIG 003V006 P0000 T00740074
2026-04-02 11:55:00,METAR KMQS 021155Z AUTO 10008KT 6SM -RA BR OVC003 07/07 A3031 RMK AO2 RAB1123 PRESRR P0000 60000 70045 T00740074 10129 20073 53025
2026-04-02 11:35:00,METAR KMQS 021135Z AUTO 08011KT 7SM -RA OVC004 07/07 A3029 RMK AO2 RAB1123 CIG 003V005 P0000 T00730073
2026-04-02 11:15:00,METAR KMQS 021115Z AUTO 08010KT 8SM OVC004 08/08 A3029 RMK AO2 T00750075
2026-04-02 10:55:00,METAR KMQS 021055Z AUTO 07011KT 7SM OVC004 08/08 A3028 RMK AO2 RAB1011E1020 PRESRR P0000 T00780078
2026-04-02 10:35:00,METAR KMQS 021035Z AUTO 07012KT 8SM OVC004 08/08 A3026 RMK AO2 RAB1011E1020 P0000 T00790079
2026-04-02 10:15:00,METAR KMQS 021015Z AUTO 08012KT 8SM -RA OVC004 08/08 A3025 RMK AO2 RAB1011 P0000 T00830083
2026-04-02 09:55:00,METAR KMQS 020955Z AUTO 09010KT 9SM OVC005 09/09 A3024 RMK AO2 T00870087
2026-04-02 09:35:00,METAR KMQS 020935Z AUTO 09009G17KT 10SM OVC005 09/09 A3023 RMK AO2 T00880088
2026-04-02 09:15:00,METAR KMQS 020915Z AUTO 09015G19KT 10SM OVC005 09/09 A3023 RMK AO2 T00900090
2026-04-02 08:55:00,METAR KMQS 020855Z AUTO 08013KT 10SM OVC005 09/09 A3023 RMK AO2 CIG 005V008 60000 T00950095 52013
2026-04-02 08:35:00,METAR KMQS 020835Z AUTO 07012KT 10SM OVC007 10/10 A3023 RMK AO2 CIG 005V009 T00990099
2026-04-02 08:15:00,METAR KMQS 020815Z AUTO 09015KT 10SM OVC007 10/10 A3022 RMK AO2 CIG 006V009 T01040102
2026-04-02 07:55:00,METAR KMQS 020755Z AUTO 09013KT 10SM OVC007 11/11 A3021 RMK AO2 RAE0659 CIG 006V008 P0000 T01090109
2026-04-02 07:35:00,METAR KMQS 020735Z AUTO 09013G18KT 10SM OVC006 12/12 A3021 RMK AO2 RAE0659 CIG 005V008 P0000 T01170117
2026-04-02 07:15:00,METAR KMQS 020715Z AUTO 07007KT 10SM OVC006 12/12 A3023 RMK AO2 RAE0659 CIG 006V009 P0000 T01200120
2026-04-02 06:55:00,METAR KMQS 020655Z AUTO 09011KT 7SM -RA OVC008 12/12 A3022 RMK AO2 LTG DSNT S AND SW RAB0635 CIG 007V009 P0000 T01220122
2026-04-02 06:35:00,METAR KMQS 020635Z AUTO 09008G16KT 9SM -RA OVC008 13/13 A3021 RMK AO2 LTG DSNT S RAB0635 CIG 007V010 P0000 T01250125
2026-04-02 06:15:00,METAR KMQS 020615Z AUTO 10012G19KT 10SM OVC010 13/13 A3020 RMK AO2 CIG 008V013 T01270127
2026-04-02 05:55:00,METAR KMQS 020555Z AUTO 10015G21KT 9SM OVC010 13/13 A3019 RMK AO2 RAB0453E0540 CIG 007V013 P0042 60045 T01300129 10219 20130 402550130 53018
2026-04-02 05:35:00,METAR KMQS 020535Z AUTO 09010KT 9SM -RA BKN010 BKN015 OVC029 13/13 A3018 RMK AO2 LTG DSNT SE AND S RAB0453 P0042 T01340134
2026-04-02 05:15:00,METAR KMQS 020515Z AUTO 09011KT 3/4SM +RA BR SCT006 BKN010 OVC027 13/13 A3017 RMK AO2 RAB0453 P0039 T01310131
2026-04-02 04:55:00,METAR KMQS 020455Z AUTO 07008KT 10SM OVC013 14/13 A3016 RMK AO2 LTG DSNT S AND SW T01360132
2026-04-02 04:35:00,METAR KMQS 020435Z AUTO 07010KT 10SM OVC013 14/13 A3016 RMK AO2 OVC V BKN T01370131
2026-04-02 04:15:00,METAR KMQS 020415Z AUTO 08010KT 10SM SCT014 BKN060 BKN085 OVC120 14/13 A3016 RMK AO2 LTG DSNT S T01370131
2026-04-02 03:55:00,METAR KMQS 020355Z AUTO 07010KT 10SM FEW019 BKN065 OVC090 14/13 A3016 RMK AO2 LTG DSNT SE - SW T01400132
2026-04-02 03:35:00,METAR KMQS 020335Z AUTO 07007KT 10SM SCT018 OVC065 14/13 A3017 RMK AO2 LTG DSNT S AND SW T01420133
2026-04-02 03:15:00,METAR KMQS 020315Z AUTO 06009KT 10SM SCT018 OVC090 14/14 A3014 RMK AO2 LTG DSNT S AND SW T01440137
2026-04-02 02:55:00,METAR KMQS 020255Z AUTO 05008G16KT 10SM FEW090 BKN120 15/14 A3014 RMK AO2 60003 T01460138 50023
2026-04-02 02:35:00,METAR KMQS 020235Z AUTO 06008G16KT 10SM OVC120 15/14 A3015 RMK AO2 T01500139
2026-04-02 02:15:00,METAR KMQS 020215Z AUTO 05011G18KT 10SM OVC110 15/14 A3014 RMK AO2 LTG DSNT S T01540141
2026-04-02 01:55:00,METAR KMQS 020155Z AUTO 03008KT 10SM FEW034 SCT049 SCT070 OVC110 16/14 A3016 RMK AO2 LTG DSNT S RAB0109E0149 P0003 T01650144
2026-04-02 01:35:00,METAR KMQS 020135Z AUTO 05010KT 5SM RA SCT033 BKN060 OVC070 17/14 A3015 RMK AO2 RAB0109 P0003 T01690144
2026-04-02 01:15:00,METAR KMQS 020115Z AUTO 06008KT 8SM -RA SCT031 OVC050 18/14 A3016 RMK AO2 LTG DSNT SE AND S RAB0109 P0000 T01850143
2026-04-02 00:55:00,METAR KMQS 020055Z AUTO 07010KT 10SM VCTS SCT060 BKN085 BKN150 OVC170 19/14 A3012 RMK AO2 RAB0002E0041 P0000 T01900141
2026-04-02 00:35:00,METAR KMQS 020035Z AUTO 06008KT 7SM -RA BKN085 BKN100 OVC150 19/14 A3011 RMK AO2 LTG DSNT NW AND S AND SW RAB0002 P0000 T01940143
2026-04-02 00:15:00,METAR KMQS 020015Z AUTO 05007KT 5SM -RA FEW035 SCT060 BKN090 OVC100 20/15 A3008 RMK AO2 LTG DSNT S AND SW RAB0002 P0000 T02040149
2026-04-01 23:55:00,METAR KMQS 012355Z AUTO 05010KT 9SM FEW025 BKN095 OVC120 23/13 A3007 RMK AO2 LTG DSNT S AND SW T02280129 10255 20228 53005
2026-04-01 23:35:00,METAR KMQS 012335Z AUTO 07004KT 10SM FEW050 BKN100 OVC130 23/12 A3006 RMK AO2 LTG DSNT S AND SW T02300123
2026-04-01 23:15:00,METAR KMQS 012315Z AUTO 05003KT 10SM FEW090 BKN110 BKN160 23/12 A3006 RMK AO2 T02330123
2026-04-01 22:55:00,METAR KMQS 012255Z AUTO 04005KT 10SM CLR 24/13 A3006 RMK AO2 T02360126
2026-04-01 22:35:00,METAR KMQS 012235Z AUTO 03004KT 10SM CLR 24/13 A3005 RMK AO2 T02400127
2026-04-01 22:15:00,METAR KMQS 012215Z AUTO 01005KT 10SM CLR 24/13 A3006 RMK AO2 T02430128
2026-04-01 21:55:00,METAR KMQS 012155Z AUTO 36005KT 10SM CLR 25/13 A3006 RMK AO2 T02490126
2026-04-01 21:35:00,METAR KMQS 012135Z AUTO VRB04KT 10SM CLR 25/13 A3006 RMK AO2 T02500127
2026-04-01 21:15:00,METAR KMQS 012115Z AUTO 30004KT 10SM CLR 25/12 A3006 RMK AO2 T02490122
2026-04-01 20:55:00,METAR KMQS 012055Z AUTO 30005KT 10SM CLR 25/13 A3006 RMK AO2 T02500125 58006
2026-04-01 20:35:00,METAR KMQS 012035Z AUTO 32009KT 10SM CLR 25/13 A3006 RMK AO2 T02510127
2026-04-01 20:15:00,METAR KMQS 012015Z AUTO 33009KT 10SM SCT110 25/13 A3006 RMK AO2 T02510128
2026-04-01 19:55:00,METAR KMQS 011955Z AUTO 31009KT 10SM FEW100 24/13 A3007 RMK AO2 T02420131
2026-04-01 19:35:00,METAR KMQS 011935Z AUTO 31011KT 10SM CLR 25/13 A3006 RMK AO2 T02490132
2026-04-01 19:15:00,METAR KMQS 011915Z AUTO 32013KT 10SM CLR 25/13 A3007 RMK AO2 T02520133
2026-04-01 18:55:00,METAR KMQS 011855Z AUTO 33006KT 10SM CLR 25/13 A3007 RMK AO2 T02470133
2026-04-01 18:35:00,METAR KMQS 011835Z AUTO 29009KT 10SM CLR 25/13 A3007 RMK AO2 T02470130
2026-04-01 18:15:00,METAR KMQS 011815Z AUTO 31011KT 10SM CLR 25/13 A3007 RMK AO2 T02460129
2026-04-01 17:55:00,METAR KMQS 011755Z AUTO 31010G15KT 10SM CLR 25/12 A3007 RMK AO2 T02470125 10247 20189 50003
2026-04-01 17:35:00,METAR KMQS 011735Z AUTO 31012KT 10SM CLR 24/13 A3008 RMK AO2 T02430127
2026-04-01 17:15:00,METAR KMQS 011715Z AUTO 30013KT 10SM CLR 24/13 A3009 RMK AO2 T02380129
2026-04-01 16:55:00,METAR KMQS 011655Z AUTO 30013G19KT 10SM CLR 23/13 A3008 RMK AO2 T02340133
2026-04-01 16:35:00,METAR KMQS 011635Z AUTO VRB05KT 10SM CLR 22/13 A3008 RMK AO2 T02240133
2026-04-01 16:15:00,METAR KMQS 011615Z AUTO VRB05KT 10SM FEW210 22/14 A3008 RMK AO2 T02230138
2026-04-01 15:55:00,METAR KMQS 011555Z AUTO VRB06KT 10SM CLR 23/14 A3008 RMK AO2 T02280137
2026-04-01 15:35:00,METAR KMQS 011535Z AUTO 31009KT 10SM FEW039 23/14 A3008 RMK AO2 T02290136
2026-04-01 15:15:00,METAR KMQS 011515Z AUTO 32006G15KT 10SM FEW039 SCT220 22/13 A3007 RMK AO2 T02240134
2026-04-01 14:55:00,METAR KMQS 011455Z AUTO VRB04KT 10SM SCT140 SCT210 22/13 A3006 RMK AO2 T02190128 53013
2026-04-01 14:35:00,METAR KMQS 011435Z AUTO 00000KT 10SM SCT140 BKN210 22/13 A3006 RMK AO2 LTG DSNT E AND W T02170129
2026-04-01 13:55:00,METAR KMQS 011355Z AUTO 27005KT 10SM SCT120 BKN140 BKN160 BKN180 21/13 A3004 RMK AO2 T02100131
2026-04-01 13:35:00,METAR KMQS 011335Z AUTO VRB06KT 10SM BKN140 BKN170 BKN220 21/13 A3005 RMK AO2 T02120131
2026-04-01 13:15:00,METAR KMQS 011315Z AUTO 27007KT 10SM SCT170 BKN220 21/13 A3004 RMK AO2 T02150131
2026-04-01 12:55:00,METAR KMQS 011255Z AUTO 27006KT 10SM SCT170 BKN200 BKN220 21/13 A3004 RMK AO2 T02060132
2026-04-01 12:35:00,METAR KMQS 011235Z AUTO 28006KT 10SM FEW130 BKN170 OVC210 20/13 A3004 RMK AO2 T01960135
2026-04-01 12:15:00,METAR KMQS 011215Z AUTO 27006KT 9SM BKN130 BKN170 OVC210 19/13 A3003 RMK AO2 T01910127
2026-04-01 11:55:00,METAR KMQS 011155Z AUTO 28005KT 9SM FEW170 SCT220 18/13 A3003 RMK AO2 T01760133 10200 20157 53022
2026-04-01 11:35:00,METAR KMQS 011135Z AUTO 28005KT 9SM FEW170 SCT210 16/13 A3002 RMK AO2 T01620128
2026-04-01 11:15:00,METAR KMQS 011115Z AUTO 29005KT 10SM BKN210 16/12 A3001 RMK AO2 T01610124
2026-04-01 10:55:00,METAR KMQS 011055Z AUTO 26004KT 9SM FEW150 SCT170 18/12 A3000 RMK AO2 T01810123
2026-04-01 10:35:00,METAR KMQS 011035Z AUTO 26004KT 10SM FEW140 BKN170 18/12 A2999 RMK AO2 T01780124
2026-04-01 10:15:00,METAR KMQS 011015Z AUTO 31004KT 10SM BKN150 OVC170 18/12 A2998 RMK AO2 T01830124
2026-04-01 09:55:00,METAR KMQS 010955Z AUTO 25005KT 10SM OVC150 19/12 A2997 RMK AO2 T01880124
2026-04-01 09:35:00,METAR KMQS 010935Z AUTO 24004KT 10SM OVC150 19/12 A2997 RMK AO2 T01890122
2026-04-01 09:15:00,METAR KMQS 010915Z AUTO 30006KT 10SM BKN140 19/12 A2997 RMK AO2 T01890120
2026-04-01 08:55:00,METAR KMQS 010855Z AUTO 25005KT 10SM FEW150 20/12 A2996 RMK AO2 T01960117 50010
2026-04-01 08:35:00,METAR KMQS 010835Z AUTO 26006KT 10SM CLR 20/12 A2996 RMK AO2 T01960120
2026-04-01 08:15:00,METAR KMQS 010815Z AUTO 25005KT 10SM CLR 20/12 A2996 RMK AO2 T01970123
2026-04-01 07:55:00,METAR KMQS 010755Z AUTO 24006KT 10SM FEW060 BKN085 20/12 A2996 RMK AO2 T01990123
2026-04-01 07:35:00,METAR KMQS 010735Z AUTO VRB06KT 10SM FEW060 BKN080 OVC100 19/13 A2997 RMK AO2 T01930127
2026-04-01 07:15:00,METAR KMQS 010715Z AUTO 25006KT 10SM BKN090 BKN110 19/13 A2995 RMK AO2 T01900126
2026-04-01 06:55:00,METAR KMQS 010655Z AUTO 30008KT 250V320 10SM FEW120 19/12 A2995 RMK AO2 T01930124
2026-04-01 06:35:00,METAR KMQS 010635Z AUTO VRB06KT 10SM FEW100 20/12 A2993 RMK AO2 T01960123
2026-04-01 06:15:00,METAR KMQS 010615Z AUTO VRB06KT 10SM FEW090 20/12 A2993 RMK AO2 T01960124
2026-04-01 05:55:00,METAR KMQS 010555Z AUTO VRB05KT 9SM CLR 20/12 A2993 RMK AO2 T01960124 10221 20195 402590154 58001
2026-04-01 05:35:00,METAR KMQS 010535Z AUTO VRB06KT 10SM CLR 20/12 A2993 RMK AO2 T01950123
2026-04-01 05:15:00,METAR KMQS 010515Z AUTO 22005KT 10SM CLR 20/12 A2993 RMK AO2 T01970122
2026-04-01 04:55:00,METAR KMQS 010455Z AUTO VRB04KT 10SM CLR 20/12 A2994 RMK AO2 T01990122
2026-04-01 04:35:00,METAR KMQS 010435Z AUTO VRB06KT 10SM CLR 20/12 A2994 RMK AO2 T02020121
2026-04-01 04:15:00,METAR KMQS 010415Z AUTO VRB06KT 10SM FEW230 20/12 A2994 RMK AO2 T02040121
2026-04-01 03:55:00,METAR KMQS 010355Z AUTO VRB06KT 10SM SCT230 20/12 A2993 RMK AO2 T02030121
2026-04-01 03:35:00,METAR KMQS 010335Z AUTO VRB05KT 10SM FEW220 20/12 A2993 RMK AO2 T02040121
2026-04-01 03:15:00,METAR KMQS 010315Z AUTO 22007KT 10SM CLR 21/12 A2993 RMK AO2 T02050123
2026-04-01 02:55:00,METAR KMQS 010255Z AUTO 22007KT 10SM CLR 21/12 A2993 RMK AO2 T02080123 58003
2026-04-01 02:35:00,METAR KMQS 010235Z AUTO 21006KT 10SM CLR 21/12 A2993 RMK AO2 T02090123
2026-04-01 02:15:00,METAR KMQS 010215Z AUTO VRB05KT 10SM CLR 21/12 A2994 RMK AO2 T02090122
2026-04-01 01:55:00,METAR KMQS 010155Z AUTO VRB06KT 10SM CLR 21/12 A2994 RMK AO2 T02080122
2026-04-01 01:35:00,METAR KMQS 010135Z AUTO VRB05KT 10SM CLR 21/12 A2994 RMK AO2 T02100122
2026-04-01 01:15:00,METAR KMQS 010115Z AUTO VRB05KT 10SM CLR 21/12 A2995 RMK AO2 T02120123
2026-04-01 00:55:00,METAR KMQS 010055Z AUTO VRB04KT 10SM CLR 22/12 A2995 RMK AO2 T02150123
2026-04-01 00:35:00,METAR KMQS 010035Z AUTO 20008KT 150V220 10SM CLR 22/12 A2994 RMK AO2 T02170123
2026-04-01 00:15:00,METAR KMQS 010015Z AUTO VRB06KT 10SM CLR 22/12 A2995 RMK AO2 T02200125
2026-03-31 23:55:00,METAR KMQS 312355Z AUTO 20006KT 9SM CLR 22/12 A2994 RMK AO2 T02220125 10259 20222 56004
2026-03-31 23:35:00,METAR KMQS 312335Z AUTO VRB05KT 10SM CLR 22/13 A2994 RMK AO2 T02250126
2026-03-31 23:15:00,METAR KMQS 312315Z AUTO VRB05KT 10SM CLR 23/13 A2994 RMK AO2 T02290125
2026-03-31 22:55:00,METAR KMQS 312255Z AUTO 20009KT 180V260 9SM CLR 24/13 A2994 RMK AO2 T02370126
2026-03-31 22:35:00,METAR KMQS 312235Z AUTO 20007KT 160V240 9SM CLR 24/13 A2995 RMK AO2 T02390125
2026-03-31 22:15:00,METAR KMQS 312215Z AUTO 21009G20KT 180V250 9SM CLR 25/13 A2994 RMK AO2 LTG DSNT N AND NE T02460125
2026-03-31 21:55:00,METAR KMQS 312155Z AUTO 20009G17KT 170V240 10SM CLR 25/12 A2993 RMK AO2 T02460125
2026-03-31 21:35:00,METAR KMQS 312135Z AUTO 20008G15KT 170V230 10SM CLR 25/13 A2993 RMK AO2 T02480126
2026-03-31 21:15:00,METAR KMQS 312115Z AUTO 21008G17KT 170V240 10SM CLR 25/12 A2994 RMK AO2 LTG DSNT N T02510124
2026-03-31 20:55:00,METAR KMQS 312055Z AUTO 19011G16KT 10SM FEW065 25/13 A2995 RMK AO2 T02530127 56024
2026-03-31 20:35:00,METAR KMQS 312035Z AUTO 20008KT 150V230 10SM SCT065 25/13 A2996 RMK AO2 T02510126
2026-03-31 20:15:00,METAR KMQS 312015Z AUTO 21008G18KT 160V260 10SM FEW060 SCT290 25/12 A2996 RMK AO2 T02480124
2026-03-31 19:55:00,METAR KMQS 311955Z AUTO 18009G15KT 140V210 10SM FEW290 25/13 A2997 RMK AO2 T02530126
2026-03-31 19:35:00,METAR KMQS 311935Z AUTO 18006KT 10SM FEW055 SCT330 25/13 A2998 RMK AO2 T02450126
2026-03-31 19:15:00,METAR KMQS 311915Z AUTO 20010KT 10SM SCT055 SCT320 25/13 A2999 RMK AO2 LTG DSNT N T02480126
2026-03-31 18:55:00,METAR KMQS 311855Z AUTO 22007G17KT 190V250 10SM SCT055 26/12 A3000 RMK AO2 LTG DSNT N T02560122
2026-03-31 18:35:00,METAR KMQS 311835Z AUTO 24007G18KT 200V290 10SM BKN050 26/12 A3000 RMK AO2 LTG DSNT N T02560125
2026-03-31 18:15:00,METAR KMQS 311815Z AUTO 23007KT 200V270 10SM OVC050 25/12 A3002 RMK AO2 LTG DSNT N T02480124
2026-03-31 17:55:00,METAR KMQS 311755Z AUTO 22009KT 200V260 10SM OVC050 25/12 A3003 RMK AO2 T02480123 10252 20164 58010
2026-03-31 17:35:00,METAR KMQS 311735Z AUTO 26010KT 10SM OVC050 25/12 A3003 RMK AO2 T02500124
2026-03-31 17:15:00,METAR KMQS 311715Z AUTO 26009G15KT 200V290 10SM BKN050 BKN350 24/12 A3004 RMK AO2 T02420124
2026-03-31 16:55:00,METAR KMQS 311655Z AUTO 25010G15KT 10SM CLR 24/12 A3004 RMK AO2 T02450123
2026-03-31 16:35:00,METAR KMQS 311635Z AUTO 26009G14KT 10SM FEW360 24/12 A3005 RMK AO2 T02390122
2026-03-31 16:15:00,METAR KMQS 311615Z AUTO 25007KT 10SM FEW320 23/12 A3005 RMK AO2 T02320120
2026-03-31 15:55:00,METAR KMQS 311555Z AUTO 24008G15KT 200V270 10SM CLR 23/12 A3006 RMK AO2 T02300119
2026-03-31 15:35:00,METAR KMQS 311535Z AUTO 23007G17KT 10SM CLR 22/12 A3006 RMK AO2 T02200117
2026-03-31 15:15:00,METAR KMQS 311515Z AUTO 25009G16KT 210V280 10SM CLR 22/11 A3006 RMK AO2 T02160115
2026-03-31 14:55:00,METAR KMQS 311455Z AUTO VRB06KT 10SM CLR 21/11 A3006 RMK AO2 T02120113 56012
2026-03-31 14:35:00,METAR KMQS 311435Z AUTO 20008KT 10SM CLR 21/11 A3006 RMK AO2 LTG DSNT N T02060111
2026-03-31 14:15:00,METAR KMQS 311415Z AUTO 21009KT 180V240 10SM CLR 20/11 A3006 RMK AO2 T01970109
2026-03-31 13:55:00,METAR KMQS 311355Z AUTO 22007KT 190V270 10SM CLR 19/11 A3006 RMK AO2 T01920107
2026-03-31 13:35:00,METAR KMQS 311335Z AUTO 23009KT 190V280 10SM CLR 19/11 A3007 RMK AO2 T01860106
2026-03-31 13:15:00,METAR KMQS 311315Z AUTO VRB06KT 10SM CLR 18/11 A3008 RMK AO2 T01790107
2026-03-31 12:55:00,METAR KMQS 311255Z AUTO 23009KT 200V260 10SM FEW170 17/10 A3008 RMK AO2 T01730105
2026-03-31 12:35:00,METAR KMQS 311235Z AUTO VRB06KT 10SM SCT170 17/10 A3009 RMK AO2 T01710105
2026-03-31 12:15:00,METAR KMQS 311215Z AUTO 24009KT 200V280 10SM BKN170 17/10 A3009 RMK AO2 T01650104
2026-03-31 11:55:00,METAR KMQS 311155Z AUTO 22007KT 190V250 10SM CLR 16/10 A3009 RMK AO2 T01600104 10165 20154 52014
2026-03-31 11:35:00,METAR KMQS 311135Z AUTO 23005KT 10SM FEW070 16/10 A3009 RMK AO2 T01560105
2026-03-31 11:15:00,METAR KMQS 311115Z AUTO VRB04KT 9SM BKN070 15/10 A3008 RMK AO2 T01540105
2026-03-31 10:55:00,METAR KMQS 311055Z AUTO VRB03KT 10SM BKN065 OVC080 16/11 A3008 RMK AO2 LTG DSNT N AND NE T01550106
2026-03-31 10:35:00,METAR KMQS 311035Z AUTO 22005KT 10SM BKN060 OVC075 16/11 A3007 RMK AO2 T01560106
2026-03-31 10:15:00,METAR KMQS 311015Z AUTO VRB06KT 10SM BKN060 OVC080 16/11 A3007 RMK AO2 T01560107
2026-03-31 09:55:00,METAR KMQS 310955Z AUTO VRB05KT 10SM OVC080 16/11 A3007 RMK AO2 T01560107
2026-03-31 09:35:00,METAR KMQS 310935Z AUTO 22007KT 10SM BKN080 16/11 A3006 RMK AO2 T01550107
2026-03-31 09:15:00,METAR KMQS 310915Z AUTO VRB06KT 10SM BKN080 16/11 A3005 RMK AO2 LTG DSNT N AND NE T01570107
2026-03-31 08:55:00,METAR KMQS 310855Z AUTO VRB05KT 10SM OVC080 16/11 A3005 RMK AO2 LTG DSNT N T01590107 56010
2026-03-31 08:35:00,METAR KMQS 310835Z AUTO VRB05KT 10SM OVC080 16/11 A3004 RMK AO2 LTG DSNT N T01590107
2026-03-31 08:15:00,METAR KMQS 310815Z AUTO VRB05KT 10SM OVC080 16/11 A3005 RMK AO2 T01580108
2026-03-31 07:55:00,METAR KMQS 310755Z AUTO 23005KT 10SM OVC075 16/11 A3006 RMK AO2 LTG DSNT N T01590107
2026-03-31 07:35:00,METAR KMQS 310735Z AUTO VRB05KT 10SM OVC075 16/11 A3006 RMK AO2 LTG DSNT N T01570107
2026-03-31 07:15:00,METAR KMQS 310715Z AUTO VRB04KT 10SM OVC075 16/11 A3006 RMK AO2 T01580107
2026-03-31 06:55:00,METAR KMQS 310655Z AUTO 20003KT 10SM SCT075 15/11 A3007 RMK AO2 LTG DSNT N T01550108
2026-03-31 06:35:00,METAR KMQS 310635Z AUTO 00000KT 10SM VCTS FEW070 SCT085 16/11 A3007 RMK AO2 T01590107
2026-03-31 06:15:00,METAR KMQS 310615Z AUTO VRB04KT 10SM BKN070 16/11 A3008 RMK AO2 T01650108
2026-03-31 05:55:00,METAR KMQS 310555Z AUTO VRB05KT 10SM FEW120 16/11 A3008 RMK AO2 LTG DSNT N RAB0516E0526 P0000 60000 T01640109 10168 20155 401970069 58009
2026-03-31 05:35:00,METAR KMQS 310535Z AUTO 23005KT 10SM FEW070 SCT100 BKN130 17/11 A3009 RMK AO2 LTG DSNT N RAB0516E0526 P0000 T01670108
2026-03-31 05:15:00,METAR KMQS 310515Z AUTO VRB05KT 9SM BKN065 BKN100 OVC130 17/11 A3009 RMK AO2 T01670110
2026-03-31 04:55:00,METAR KMQS 310455Z AUTO 22006KT 10SM FEW100 OVC130 17/11 A3010 RMK AO2 T01670110
2026-03-31 04:35:00,METAR KMQS 310435Z AUTO VRB05KT 10SM SCT100 OVC130 16/11 A3009 RMK AO2 LTG DSNT N T01650110
2026-03-31 04:15:00,METAR KMQS 310415Z AUTO VRB04KT 10SM SCT100 OVC130 16/11 A3010 RMK AO2 T01640110
2026-03-31 03:55:00,METAR KMQS 310355Z AUTO VRB04KT 10SM VCTS OVC130 16/11 A3010 RMK AO2 T01610110
2026-03-31 03:35:00,METAR KMQS 310335Z AUTO VRB04KT 10SM OVC130 16/11 A3010 RMK AO2 T01610109
2026-03-31 03:15:00,METAR KMQS 310315Z AUTO VRB04KT 10SM BKN120 16/11 A3010 RMK AO2 LTG DSNT N T01570109
2026-03-31 02:55:00,METAR KMQS 310255Z AUTO VRB04KT 10SM CLR 16/11 A3011 RMK AO2 LTG DSNT N T01570106 50001
2026-03-31 02:35:00,METAR KMQS 310235Z AUTO 20004KT 10SM CLR 16/10 A3011 RMK AO2 T01570105
2026-03-31 02:15:00,METAR KMQS 310215Z AUTO 20004KT 10SM CLR 16/10 A3011 RMK AO2 T01570104
2026-03-31 01:55:00,METAR KMQS 310155Z AUTO 22003KT 10SM CLR 16/10 A3012 RMK AO2 T01600103
2026-03-31 01:35:00,METAR KMQS 310135Z AUTO 22004KT 10SM CLR 16/10 A3012 RMK AO2 T01630101
2026-03-31 01:15:00,METAR KMQS 310115Z AUTO 21006KT 10SM CLR 16/10 A3012 RMK AO2 LTG DSNT N T01630100
2026-03-31 00:55:00,METAR KMQS 310055Z AUTO VRB05KT 10SM CLR 16/10 A3011 RMK AO2 T01620098
2026-03-31 00:35:00,METAR KMQS 310035Z AUTO VRB05KT 10SM SCT110 16/10 A3011 RMK AO2 LTG DSNT N T01630098
2026-03-31 00:15:00,METAR KMQS 310015Z AUTO 20005KT 10SM BKN110 16/10 A3011 RMK AO2 T01650098
2026-03-30 23:55:00,METAR KMQS 302355Z AUTO 20006KT 9SM SCT110 16/10 A3010 RMK AO2 T01650097 10197 20164 58003
2026-03-30 23:35:00,METAR KMQS 302335Z AUTO VRB04KT 9SM FEW110 17/10 A3011 RMK AO2 T01680096
2026-03-30 23:15:00,METAR KMQS 302315Z AUTO VRB03KT 9SM SCT080 17/10 A3011 RMK AO2 T01730095
2026-03-30 22:55:00,METAR KMQS 302255Z AUTO 20006KT 10SM OVC080 18/10 A3011 RMK AO2 T01790096
2026-03-30 22:35:00,METAR KMQS 302235Z AUTO VRB05KT 9SM BKN080 18/10 A3011 RMK AO2 T01790096
2026-03-30 22:15:00,METAR KMQS 302215Z AUTO VRB06KT 9SM SCT080 BKN095 18/09 A3011 RMK AO2 T01830094
2026-03-30 21:55:00,METAR KMQS 302155Z AUTO VRB05KT 10SM OVC095 19/09 A3011 RMK AO2 T01880093
2026-03-30 21:35:00,METAR KMQS 302135Z AUTO VRB06KT 9SM BKN095 19/09 A3011 RMK AO2 T01870092
2026-03-30 21:15:00,METAR KMQS 302115Z AUTO 23008G14KT 190V250 9SM SCT090 19/09 A3011 RMK AO2 T01890091
2026-03-30 20:55:00,METAR KMQS 302055Z AUTO 22006KT 9SM OVC085 19/09 A3011 RMK AO2 T01870090 56017
2026-03-30 20:35:00,METAR KMQS 302035Z AUTO VRB06KT 9SM OVC080 19/09 A3011 RMK AO2 T01860085
2026-03-30 20:15:00,METAR KMQS 302015Z AUTO VRB05KT 9SM SCT080 OVC090 19/08 A3012 RMK AO2 T01870081
2026-03-30 19:55:00,METAR KMQS 301955Z AUTO 24008G18KT 200V270 10SM OVC095 19/08 A3012 RMK AO2 T01860079
2026-03-30 19:35:00,METAR KMQS 301935Z AUTO 24008G15KT 220V280 9SM BKN100 19/08 A3012 RMK AO2 T01870079
2026-03-30 19:15:00,METAR KMQS 301915Z AUTO 25011G17KT 10SM FEW095 19/08 A3013 RMK AO2 T01940078
2026-03-30 18:55:00,METAR KMQS 301855Z AUTO 24007KT 200V280 10SM FEW070 BKN090 19/08 A3014 RMK AO2 T01910075
2026-03-30 18:35:00,METAR KMQS 301835Z AUTO 23011G16KT 180V250 10SM SCT070 OVC085 18/07 A3015 RMK AO2 T01800069
2026-03-30 18:15:00,METAR KMQS 301815Z AUTO 22007KT 170V260 10SM BKN070 BKN080 19/07 A3015 RMK AO2 T01880070
2026-03-30 17:55:00,METAR KMQS 301755Z AUTO 23009G18KT 180V280 9SM SCT070 BKN090 19/06 A3016 RMK AO2 T01860063 10191 20101 58019
2026-03-30 17:35:00,METAR KMQS 301735Z AUTO 23009G16KT 10SM FEW090 19/06 A3017 RMK AO2 T01910063
2026-03-30 17:15:00,METAR KMQS 301715Z AUTO VRB06KT 10SM CLR 19/06 A3018 RMK AO2 T01860058
2026-03-30 16:55:00,METAR KMQS 301655Z AUTO 26006G18KT 190V340 10SM FEW080 18/05 A3019 RMK AO2 T01760055
2026-03-30 16:35:00,METAR KMQS 301635Z AUTO 22008KT 170V260 10SM BKN080 17/05 A3020 RMK AO2 T01740053
2026-03-30 16:15:00,METAR KMQS 301615Z AUTO 24008G18KT 210V280 10SM OVC080 16/05 A3020 RMK AO2 T01630047
2026-03-30 15:55:00,METAR KMQS 301555Z AUTO 25010KT 10SM OVC075 16/04 A3021 RMK AO2 T01630043
2026-03-30 15:35:00,METAR KMQS 301535Z AUTO VRB04KT 10SM OVC080 16/04 A3021 RMK AO2 T01600044
2026-03-30 15:15:00,METAR KMQS 301515Z AUTO VRB06KT 10SM OVC075 16/04 A3021 RMK AO2 T01570042
2026-03-30 14:55:00,METAR KMQS 301455Z AUTO 25010G16KT 220V280 10SM OVC075 16/04 A3022 RMK AO2 T01570038 56005
2026-03-30 14:35:00,METAR KMQS 301435Z AUTO 26007G17KT 210V280 10SM OVC075 16/05 A3022 RMK AO2 T01550046
2026-03-30 14:15:00,METAR KMQS 301415Z AUTO 26009G17KT 10SM OVC075 15/05 A3022 RMK AO2 T01490046
2026-03-30 13:55:00,METAR KMQS 301355Z AUTO 23007KT 150V290 10SM FEW070 BKN110 13/05 A3023 RMK AO2 T01340048
2026-03-30 13:35:00,METAR KMQS 301335Z AUTO VRB06KT 10SM FEW110 13/05 A3022 RMK AO2 T01320048
2026-03-30 13:15:00,METAR KMQS 301315Z AUTO 23008G18KT 10SM CLR 13/05 A3022 RMK AO2 T01270046
2026-03-30 12:55:00,METAR KMQS 301255Z AUTO 22007KT 200V260 9SM FEW100 BKN120 12/05 A3023 RMK AO2 T01190050
2026-03-30 12:35:00,METAR KMQS 301235Z AUTO VRB05KT 10SM OVC120 11/05 A3024 RMK AO2 T01150052
2026-03-30 12:15:00,METAR KMQS 301215Z AUTO VRB05KT 9SM OVC120 10/05 A3024 RMK AO2 T01030053
2026-03-30 11:55:00,METAR KMQS 301155Z AUTO VRB05KT 9SM OVC120 10/05 A3024 RMK AO2 T00990053 10099 20069 55000
2026-03-30 11:35:00,METAR KMQS 301135Z AUTO 23007KT 9SM OVC120 10/05 A3024 RMK AO2 T00960052
2026-03-30 11:15:00,METAR KMQS 301115Z AUTO 23005KT 9SM OVC120 09/05 A3024 RMK AO2 T00930050
2026-03-30 10:55:00,METAR KMQS 301055Z AUTO VRB05KT 10SM OVC120 09/05 A3023 RMK AO2 T00920048
2026-03-30 10:35:00,METAR KMQS 301035Z AUTO VRB05KT 10SM OVC120 09/05 A3023 RMK AO2 T00910048
2026-03-30 10:15:00,METAR KMQS 301015Z AUTO VRB04KT 10SM OVC130 09/05 A3023 RMK AO2 T00880048
2026-03-30 09:55:00,METAR KMQS 300955Z AUTO VRB05KT 10SM OVC130 09/05 A3023 RMK AO2 T00880049
2026-03-30 09:35:00,METAR KMQS 300935Z AUTO VRB04KT 10SM OVC120 09/05 A3023 RMK AO2 T00860051
2026-03-30 09:15:00,METAR KMQS 300915Z AUTO VRB05KT 10SM OVC120 08/05 A3023 RMK AO2 T00830052
2026-03-30 08:55:00,METAR KMQS 300855Z AUTO VRB05KT 10SM BKN120 OVC140 08/05 A3024 RMK AO2 T00810050 56022
2026-03-30 08:35:00,METAR KMQS 300835Z AUTO 20005KT 10SM OVC130 08/05 A3024 RMK AO2 T00780047
2026-03-30 08:15:00,METAR KMQS 300815Z AUTO VRB04KT 10SM OVC130 07/04 A3025 RMK AO2 T00730041
2026-03-30 07:55:00,METAR KMQS 300755Z AUTO VRB04KT 10SM BKN120 07/04 A3025 RMK AO2 T00750036
2026-03-30 07:35:00,METAR KMQS 300735Z AUTO VRB04KT 10SM BKN130 07/03 A3026 RMK AO2 T00720031
2026-03-30 07:15:00,METAR KMQS 300715Z AUTO VRB03KT 10SM OVC130 08/03 A3027 RMK AO2 T00770029
2026-03-30 06:55:00,METAR KMQS 300655Z AUTO VRB06KT 10SM OVC130 08/02 A3027 RMK AO2 T00800021
2026-03-30 06:35:00,METAR KMQS 300635Z AUTO VRB05KT 10SM OVC130 08/02 A3028 RMK AO2 T00810015
2026-03-30 06:15:00,METAR KMQS 300615Z AUTO 19006KT 10SM OVC130 08/01 A3030 RMK AO2 T00810010
2026-03-30 05:15:00,METAR KMQS 300515Z AUTO VRB03KT 10SM OVC140 08/M00 A3031 RMK AO2 T00821005
2026-03-30 04:55:00,METAR KMQS 300455Z AUTO VRB04KT 10SM BKN130 OVC150 08/M01 A3032 RMK AO2 T00791005
2026-03-30 04:35:00,METAR KMQS 300435Z AUTO 00000KT 10SM BKN130 OVC150 08/M01 A3033 RMK AO2 T00801007
2026-03-30 04:15:00,METAR KMQS 300415Z AUTO VRB05KT 10SM OVC130 08/M01 A3033 RMK AO2 T00791009
2026-03-30 03:55:00,METAR KMQS 300355Z AUTO 16005KT 10SM OVC120 08/M01 A3033 RMK AO2 T00801010
2026-03-30 03:35:00,METAR KMQS 300335Z AUTO VRB04KT 10SM BKN120 OVC150 08/M01 A3034 RMK AO2 T00811011
2026-03-30 03:15:00,METAR KMQS 300315Z AUTO VRB03KT 10SM BKN140 OVC170 08/M01 A3034 RMK AO2 T00801010
2026-03-30 02:55:00,METAR KMQS 300255Z AUTO 18007KT 10SM BKN150 OVC180 08/M01 A3034 RMK AO2 T00791012 58007
2026-03-30 02:35:00,METAR KMQS 300235Z AUTO 17005KT 10SM SCT140 BKN180 08/M01 A3034 RMK AO2 T00791013
2026-03-30 02:15:00,METAR KMQS 300215Z AUTO 18006KT 10SM SCT130 SCT200 08/M01 A3035 RMK AO2 T00801014
2026-03-30 01:55:00,METAR KMQS 300155Z AUTO VRB05KT 10SM BKN120 08/M01 A3036 RMK AO2 T00841015
2026-03-30 01:35:00,METAR KMQS 300135Z AUTO 16006KT 10SM OVC120 09/M02 A3037 RMK AO2 T00871016
2026-03-30 01:15:00,METAR KMQS 300115Z AUTO VRB04KT 10SM BKN120 09/M02 A3037 RMK AO2 T00881020
2026-03-30 00:55:00,METAR KMQS 300055Z AUTO 18004KT 10SM FEW130 09/M03 A3037 RMK AO2 T00891027
2026-03-30 00:35:00,METAR KMQS 300035Z AUTO 17005KT 10SM FEW130 09/M03 A3036 RMK AO2 T00891030
2026-03-30 00:15:00,METAR KMQS 300015Z AUTO 16003KT 10SM CLR 09/M03 A3036 RMK AO2 T00891029
2026-03-29 23:55:00,METAR KMQS 292355Z AUTO VRB05KT 9SM CLR 10/M03 A3036 RMK AO2 T00981031 10128 20098 57006
2026-03-29 23:35:00,METAR KMQS 292335Z AUTO VRB05KT 9SM FEW220 10/M03 A3036 RMK AO2 T01011030
2026-03-29 23:15:00,METAR KMQS 292315Z AUTO 20007KT 160V230 9SM SCT110 SCT200 BKN220 11/M03 A3036 RMK AO2 T01051029
2026-03-29 22:55:00,METAR KMQS 292255Z AUTO 19009KT 9SM FEW110 11/M03 A3037 RMK AO2 T01111031
2026-03-29 22:35:00,METAR KMQS 292235Z AUTO 19011G14KT 160V240 9SM FEW120 11/M03 A3037 RMK AO2 T01131032
2026-03-29 22:15:00,METAR KMQS 292215Z AUTO 20009G16KT 170V240 9SM OVC120 12/M03 A3037 RMK AO2 T01171035
2026-03-29 21:55:00,METAR KMQS 292155Z AUTO 19010G16KT 10SM BKN110 12/M03 A3037 RMK AO2 T01221034
2026-03-29 21:35:00,METAR KMQS 292135Z AUTO 22009KT 190V250 9SM FEW110 12/M04 A3037 RMK AO2 T01211037
2026-03-29 21:15:00,METAR KMQS 292115Z AUTO 19009G17KT 170V240 9SM CLR 12/M04 A3037 RMK AO2 T01211037
2026-03-29 20:55:00,METAR KMQS 292055Z AUTO 20010G16KT 150V240 10SM SCT120 12/M04 A3038 RMK AO2 T01221038 56029
2026-03-29 20:35:00,METAR KMQS 292035Z AUTO 20009KT 160V230 9SM OVC120 13/M03 A3038 RMK AO2 T01281034
2026-03-29 20:15:00,METAR KMQS 292015Z AUTO 19008G21KT 150V230 9SM BKN120 12/M04 A3039 RMK AO2 T01231038
2026-03-29 19:55:00,METAR KMQS 291955Z AUTO 20010G19KT 9SM BKN120 12/M04 A3040 RMK AO2 T01191041
2026-03-29 19:35:00,METAR KMQS 291935Z AUTO 19012G18KT 150V220 9SM SCT130 12/M04 A3040 RMK AO2 T01211040
2026-03-29 19:15:00,METAR KMQS 291915Z AUTO 21009G15KT 180V240 9SM SCT120 12/M04 A3041 RMK AO2 T01191039
2026-03-29 18:55:00,METAR KMQS 291855Z AUTO 19008G16KT 9SM BKN120 12/M04 A3042 RMK AO2 T01201041
2026-03-29 18:35:00,METAR KMQS 291835Z AUTO 20007KT 170V270 10SM OVC120 11/M05 A3044 RMK AO2 T01101049
2026-03-29 18:15:00,METAR KMQS 291815Z AUTO 21008G19KT 150V240 9SM OVC130 11/M05 A3045 RMK AO2 T01091055
2026-03-29 17:55:00,METAR KMQS 291755Z AUTO 24009G14KT 200V260 9SM OVC120 12/M06 A3047 RMK AO2 T01151056 10119 20017 58028
2026-03-29 17:35:00,METAR KMQS 291735Z AUTO 21009G19KT 170V240 9SM OVC110 11/M06 A3047 RMK AO2 T01091059
2026-03-29 17:15:00,METAR KMQS 291715Z AUTO 19009G17KT 140V230 9SM OVC110 11/M06 A3049 RMK AO2 T01111061
2026-03-29 16:55:00,METAR KMQS 291655Z AUTO 20006G18KT 160V240 9SM OVC120 11/M07 A3050 RMK AO2 T01061067
2026-03-29 16:35:00,METAR KMQS 291635Z AUTO 19009KT 150V220 9SM OVC120 11/M06 A3050 RMK AO2 T01081060
2026-03-29 16:15:00,METAR KMQS 291615Z AUTO 22008G19KT 9SM SCT120 09/M06 A3052 RMK AO2 T00951059
2026-03-29 15:55:00,METAR KMQS 291555Z AUTO 20006G16KT 150V230 9SM BKN120 10/M07 A3053 RMK AO2 T00971073
2026-03-29 15:35:00,METAR KMQS 291535Z AUTO 19009G17KT 10SM OVC120 09/M08 A3054 RMK AO2 T00871076
2026-03-29 15:15:00,METAR KMQS 291515Z AUTO 22008G18KT 170V260 9SM OVC110 09/M07 A3055 RMK AO2 T00881070
2026-03-29 14:55:00,METAR KMQS 291455Z AUTO 23007KT 200V270 9SM OVC120 08/M07 A3055 RMK AO2 T00831073 57005
2026-03-29 14:35:00,METAR KMQS 291435Z AUTO 18008KT 110V210 10SM BKN120 08/M07 A3055 RMK AO2 T00801072
2026-03-29 14:15:00,METAR KMQS 291415Z AUTO VRB06KT 10SM CLR 07/M08 A3056 RMK AO2 T00711077
2026-03-29 13:55:00,METAR KMQS 291355Z AUTO 19008KT 160V220 9SM CLR 06/M07 A3055 RMK AO2 T00641070
2026-03-29 13:35:00,METAR KMQS 291335Z AUTO 18005KT 10SM CLR 05/M06 A3055 RMK AO2 T00551057
2026-03-29 13:15:00,METAR KMQS 291315Z AUTO 00000KT 9SM CLR 04/M06 A3055 RMK AO2 T00441058
2026-03-29 12:55:00,METAR KMQS 291255Z AUTO 19004KT 9SM CLR 03/M07 A3056 RMK AO2 T00301071
2026-03-29 12:35:00,METAR KMQS 291235Z AUTO VRB03KT 9SM CLR 03/M08 A3056 RMK AO2 T00271079
2026-03-29 12:15:00,METAR KMQS 291215Z AUTO VRB03KT 9SM CLR 02/M09 A3057 RMK AO2 T00241085
2026-03-29 11:55:00,METAR KMQS 291155Z AUTO VRB04KT 10SM CLR 01/M09 A3056 RMK AO2 T00101087 10010 21030 53017
2026-03-29 11:35:00,METAR KMQS 291135Z AUTO 23003KT 10SM CLR 00/M09 A3056 RMK AO2 T00051090
2026-03-29 11:15:00,METAR KMQS 291115Z AUTO 00000KT 10SM CLR M01/M09 A3055 RMK AO2 T10081094
2026-03-29 10:55:00,METAR KMQS 291055Z AUTO 24003KT 9SM CLR M01/M10 A3055 RMK AO2 T10131096
2026-03-29 10:35:00,METAR KMQS 291035Z AUTO 23003KT 10SM FEW120 00/M10 A3055 RMK AO2 T00051101
2026-03-29 10:15:00,METAR KMQS 291015Z AUTO 24003KT 10SM FEW120 M03/M08 A3054 RMK AO2 T10291085
2026-03-29 09:55:00,METAR KMQS 290955Z AUTO 00000KT 10SM SCT130 M02/M09 A3053 RMK AO2 T10161090
2026-03-29 09:35:00,METAR KMQS 290935Z AUTO 00000KT 10SM BKN130 M02/M08 A3052 RMK AO2 T10221084
2026-03-29 09:15:00,METAR KMQS 290915Z AUTO 00000KT 10SM CLR M02/M08 A3052 RMK AO2 T10241083
2026-03-29 08:55:00,METAR KMQS 290855Z AUTO 00000KT 10SM CLR M02/M09 A3052 RMK AO2 T10241090 55002
2026-03-29 08:35:00,METAR KMQS 290835Z AUTO 29003KT 10SM FEW120 M02/M09 A3052 RMK AO2 T10221088
2026-03-29 08:15:00,METAR KMQS 290815Z AUTO 00000KT 10SM SCT120 M03/M09 A3052 RMK AO2 T10291085
2026-03-29 07:55:00,METAR KMQS 290755Z AUTO 22004KT 10SM CLR M01/M10 A3051 RMK AO2 T10101100
2026-03-29 07:35:00,METAR KMQS 290735Z AUTO 00000KT 10SM FEW130 M01/M09 A3052 RMK AO2 T10141093
2026-03-29 07:15:00,METAR KMQS 290715Z AUTO 00000KT 10SM CLR M01/M09 A3052 RMK AO2 T10111094
2026-03-29 06:55:00,METAR KMQS 290655Z AUTO 00000KT 10SM CLR M00/M10 A3052 RMK AO2 T10031100
2026-03-29 06:35:00,METAR KMQS 290635Z AUTO 29004KT 10SM CLR M00/M10 A3053 RMK AO2 T10041096
2026-03-29 06:15:00,METAR KMQS 290615Z AUTO 28003KT 10SM CLR 01/M10 A3053 RMK AO2 T00061102
2026-03-29 05:55:00,METAR KMQS 290555Z AUTO 29003KT 10SM CLR 00/M09 A3052 RMK AO2 T00001092 10042 21000 400661021 50007
2026-03-29 05:35:00,METAR KMQS 290535Z AUTO 00000KT 10SM CLR 00/M10 A3052 RMK AO2 T00031100
2026-03-29 05:15:00,METAR KMQS 290515Z AUTO 28003KT 10SM CLR 02/M11 A3052 RMK AO2 T00161106
2026-03-29 04:55:00,METAR KMQS 290455Z AUTO 00000KT 10SM CLR 02/M10 A3052 RMK AO2 T00171103
2026-03-29 04:35:00,METAR KMQS 290435Z AUTO 00000KT 10SM CLR 01/M10 A3052 RMK AO2 T00091098
2026-03-29 04:15:00,METAR KMQS 290415Z AUTO 26003KT 10SM CLR 02/M11 A3052 RMK AO2 T00231106
2026-03-29 03:55:00,METAR KMQS 290355Z AUTO 22003KT 10SM CLR 02/M10 A3051 RMK AO2 T00181104
2026-03-29 03:35:00,METAR KMQS 290335Z AUTO 27003KT 10SM CLR 01/M10 A3050 RMK AO2 T00091097
2026-03-29 03:15:00,METAR KMQS 290315Z AUTO 24003KT 10SM CLR 02/M11 A3050 RMK AO2 T00251105
2026-03-29 02:55:00,METAR KMQS 290255Z AUTO 27003KT 10SM CLR 02/M11 A3050 RMK AO2 T00221105 51018
2026-03-29 02:35:00,METAR KMQS 290235Z AUTO 32005KT 10SM CLR 00/M09 A3050 RMK AO2 T00021094
2026-03-29 02:15:00,METAR KMQS 290215Z AUTO 32006KT 10SM CLR 00/M09 A3050 RMK AO2 T00021092
2026-03-29 01:55:00,METAR KMQS 290155Z AUTO 29005KT 10SM CLR 01/M10 A3050 RMK AO2 T00111095
2026-03-29 01:35:00,METAR KMQS 290135Z AUTO 31007KT 10SM CLR 01/M10 A3049 RMK AO2 T00131098
2026-03-29 01:15:00,METAR KMQS 290115Z AUTO 30006KT 10SM CLR 02/M10 A3049 RMK AO2 T00171096
2026-03-29 00:55:00,METAR KMQS 290055Z AUTO 31007KT 10SM CLR 01/M10 A3048 RMK AO2 T00141097
2026-03-29 00:35:00,METAR KMQS 290035Z AUTO 31009KT 10SM CLR 02/M10 A3047 RMK AO2 T00211098
2026-03-29 00:15:00,METAR KMQS 290015Z AUTO 31009KT 10SM CLR 04/M11 A3046 RMK AO2 T00421106
2026-03-28 23:55:00,METAR KMQS 282355Z AUTO 30006KT 10SM CLR 02/M10 A3045 RMK AO2 T00201098 10066 20020 53007
2026-03-28 23:35:00,METAR KMQS 282335Z AUTO 31009KT 10SM CLR 04/M11 A3044 RMK AO2 T00371107
2026-03-28 23:15:00,METAR KMQS 282315Z AUTO 31010KT 10SM CLR 05/M12 A3043 RMK AO2 T00531119
2026-03-28 22:55:00,METAR KMQS 282255Z AUTO 31010KT 10SM CLR 06/M12 A3042 RMK AO2 T00581117
2026-03-28 22:35:00,METAR KMQS 282235Z AUTO 30013G18KT 10SM CLR 06/M11 A3042 RMK AO2 T00621112
2026-03-28 22:15:00,METAR KMQS 282215Z AUTO 32011KT 10SM CLR 06/M11 A3042 RMK AO2 T00641112
2026-03-28 21:55:00,METAR KMQS 282155Z AUTO 30011KT 10SM CLR 07/M11 A3041 RMK AO2 T00651106
2026-03-28 21:35:00,METAR KMQS 282135Z AUTO 30013KT 10SM CLR 06/M11 A3042 RMK AO2 T00641113
2026-03-28 21:15:00,METAR KMQS 282115Z AUTO 32011G19KT 10SM CLR 07/M11 A3042 RMK AO2 T00661109
2026-03-28 20:55:00,METAR KMQS 282055Z AUTO 32011G18KT 10SM CLR 06/M11 A3042 RMK AO2 WSHFT 2020 T00631113 56009
2026-03-28 20:35:00,METAR KMQS 282035Z AUTO 33013G18KT 10SM CLR 06/M11 A3043 RMK AO2 WSHFT 2020 T00631105
2026-03-28 20:15:00,METAR KMQS 282015Z AUTO 33010KT 10SM FEW070 06/M11 A3043 RMK AO2 T00601110
2026-03-28 19:55:00,METAR KMQS 281955Z AUTO 30012G16KT 10SM FEW070 06/M10 A3043 RMK AO2 T00571102
2026-03-28 19:35:00,METAR KMQS 281935Z AUTO 31011G18KT 10SM FEW070 05/M11 A3044 RMK AO2 T00511112
2026-03-28 19:15:00,METAR KMQS 281915Z AUTO 30015G22KT 10SM SCT070 06/M10 A3044 RMK AO2 T00601100
2026-03-28 18:55:00,METAR KMQS 281855Z AUTO 27008G23KT 10SM SCT065 06/M10 A3044 RMK AO2 PK WND 35026/1755 T00561104
2026-03-28 18:35:00,METAR KMQS 281835Z AUTO 31014G20KT 10SM SCT065 05/M11 A3045 RMK AO2 PK WND 35026/1755 T00511109
2026-03-28 18:15:00,METAR KMQS 281815Z AUTO 31014G21KT 10SM BKN065 05/M11 A3045 RMK AO2 PK WND 35026/1755 T00521107
2026-03-28 17:55:00,METAR KMQS 281755Z AUTO 32010G21KT 10SM FEW065 05/M11 A3045 RMK AO2 T00481111 10050 21013 58006
2026-03-28 17:35:00,METAR KMQS 281735Z AUTO 32016G22KT 10SM FEW060 05/M10 A3046 RMK AO2 T00491104
2026-03-28 17:15:00,METAR KMQS 281715Z AUTO 34015G21KT 10SM FEW060 05/M10 A3046 RMK AO2 T00471102
2026-03-28 16:55:00,METAR KMQS 281655Z AUTO 35014G20KT 10SM CLR 04/M10 A3046 RMK AO2 T00431099
2026-03-28 16:35:00,METAR KMQS 281635Z AUTO 32013KT 10SM CLR 04/M11 A3046 RMK AO2 T00431108
2026-03-28 16:15:00,METAR KMQS 281615Z AUTO 32015G18KT 10SM CLR 04/M11 A3047 RMK AO2 T00381111
2026-03-28 15:55:00,METAR KMQS 281555Z AUTO 33014G21KT 10SM CLR 03/M11 A3047 RMK AO2 T00281108
2026-03-28 15:35:00,METAR KMQS 281535Z AUTO 34016G20KT 10SM CLR 03/M11 A3047 RMK AO2 T00251111
2026-03-28 15:15:00,METAR KMQS 281515Z AUTO 32018G22KT 10SM CLR 02/M11 A3048 RMK AO2 T00221110
2026-03-28 14:55:00,METAR KMQS 281455Z AUTO 32015G22KT 10SM CLR 02/M11 A3047 RMK AO2 T00181109 51024
2026-03-28 14:35:00,METAR KMQS 281435Z AUTO 34016G22KT 10SM FEW046 02/M10 A3047 RMK AO2 T00171101
2026-03-28 14:15:00,METAR KMQS 281415Z AUTO 33012G20KT 10SM CLR 01/M10 A3046 RMK AO2 T00121098
2026-03-28 13:55:00,METAR KMQS 281355Z AUTO 34013G20KT 10SM CLR 01/M10 A3045 RMK AO2 PK WND 34026/1332 T00091100
2026-03-28 13:35:00,METAR KMQS 281335Z AUTO 34018G26KT 10SM CLR 00/M10 A3045 RMK AO2 PK WND 34026/1332 T00041105
2026-03-28 13:15:00,METAR KMQS 281315Z AUTO 34016G20KT 10SM CLR M00/M11 A3044 RMK AO2 T10021106
2026-03-28 12:55:00,METAR KMQS 281255Z AUTO 34014KT 10SM CLR M00/M11 A3043 RMK AO2 T10051106
2026-03-28 12:35:00,METAR KMQS 281235Z AUTO 34011KT 10SM CLR M01/M11 A3043 RMK AO2 T10061107
2026-03-28 12:15:00,METAR KMQS 281215Z AUTO 35011G17KT 10SM CLR M01/M11 A3042 RMK AO2 T10111112
2026-03-28 11:55:00,METAR KMQS 281155Z AUTO 35011KT 10SM CLR M01/M11 A3040 RMK AO2 70001 T10151114 10006 21021 53036
2026-03-28 11:35:00,METAR KMQS 281135Z AUTO 34013KT 10SM CLR M02/M12 A3039 RMK AO2 T10171116
2026-03-28 11:15:00,METAR KMQS 281115Z AUTO 34011KT 10SM CLR M02/M12 A3038 RMK AO2 T10191116
2026-03-28 10:55:00,METAR KMQS 281055Z AUTO 36011G16KT 10SM CLR M02/M11 A3035 RMK AO2 T10191107
2026-03-28 10:35:00,METAR KMQS 281035Z AUTO 34007KT 10SM CLR M02/M10 A3034 RMK AO2 T10201101
2026-03-28 10:15:00,METAR KMQS 281015Z AUTO 01004KT 10SM CLR M02/M10 A3034 RMK AO2 T10191100
2026-03-28 09:55:00,METAR KMQS 280955Z AUTO 35007KT 10SM SCT049 M01/M10 A3033 RMK AO2 T10151100
2026-03-28 09:35:00,METAR KMQS 280935Z AUTO 36006KT 10SM BKN049 M01/M10 A3032 RMK AO2 T10121100
2026-03-28 09:15:00,METAR KMQS 280915Z AUTO 35007KT 10SM BKN050 M01/M10 A3031 RMK AO2 T10091098
2026-03-28 08:55:00,METAR KMQS 280855Z AUTO 01008KT 10SM OVC050 M00/M10 A3029 RMK AO2 LTG DSNT S T10041096 53027
2026-03-28 08:35:00,METAR KMQS 280835Z AUTO 35009KT 10SM OVC055 M00/M09 A3028 RMK AO2 T10041092
2026-03-28 08:15:00,METAR KMQS 280815Z AUTO 35007KT 10SM BKN060 M01/M10 A3027 RMK AO2 T10051096
2026-03-28 07:55:00,METAR KMQS 280755Z AUTO 35010KT 10SM BKN055 M00/M10 A3025 RMK AO2 LTG DSNT S T10021096
2026-03-28 07:35:00,METAR KMQS 280735Z AUTO 35011KT 10SM FEW055 M00/M10 A3024 RMK AO2 LTG DSNT S T10031096
2026-03-28 07:15:00,METAR KMQS 280715Z AUTO 36009KT 10SM CLR M00/M10 A3023 RMK AO2 LTG DSNT S T10001101
2026-03-28 06:55:00,METAR KMQS 280655Z AUTO 36010KT 10SM CLR 00/M09 A3022 RMK AO2 T00011088
2026-03-28 06:35:00,METAR KMQS 280635Z AUTO 35006KT 10SM CLR M00/M07 A3022 RMK AO2 T10021072
2026-03-28 06:15:00,METAR KMQS 280615Z AUTO 36005KT 10SM CLR 00/M07 A3022 RMK AO2 T00021073
2026-03-28 05:35:00,METAR KMQS 280535Z AUTO 36007KT 10SM CLR 01/M06 A3021 RMK AO2 T00071062
2026-03-28 05:15:00,METAR KMQS 280515Z AUTO 36007KT 10SM CLR 00/M06 A3020 RMK AO2 T00041059
2026-03-28 04:55:00,METAR KMQS 280455Z AUTO 36006KT 10SM FEW055 01/M06 A3019 RMK AO2 T00061055
2026-03-28 04:35:00,METAR KMQS 280435Z AUTO 01003KT 10SM SCT055 01/M06 A3019 RMK AO2 T00141056
2026-03-28 04:15:00,METAR KMQS 280415Z AUTO 35005KT 10SM FEW055 00/M05 A3019 RMK AO2 T00021046
2026-03-28 03:55:00,METAR KMQS 280355Z AUTO 35006KT 10SM CLR 01/M05 A3019 RMK AO2 T00061047
2026-03-28 03:35:00,METAR KMQS 280335Z AUTO 36003KT 10SM CLR 01/M05 A3019 RMK AO2 T00121053
2026-03-28 03:15:00,METAR KMQS 280315Z AUTO 00000KT 10SM CLR 02/M05 A3019 RMK AO2 T00171052
2026-03-28 02:55:00,METAR KMQS 280255Z AUTO 32004KT 10SM CLR 01/M05 A3019 RMK AO2 T00131052 51021
2026-03-28 02:35:00,METAR KMQS 280235Z AUTO 33005KT 10SM CLR 01/M05 A3018 RMK AO2 T00101050
2026-03-28 02:15:00,METAR KMQS 280215Z AUTO 32005KT 10SM CLR 01/M05 A3018 RMK AO2 T00131050
2026-03-28 01:55:00,METAR KMQS 280155Z AUTO 31005KT 10SM CLR 00/M04 A3017 RMK AO2 T00021043
2026-03-28 01:35:00,METAR KMQS 280135Z AUTO 31005KT 10SM CLR 01/M04 A3017 RMK AO2 T00101043
2026-03-28 01:15:00,METAR KMQS 280115Z AUTO 32004KT 10SM BKN210 03/M05 A3016 RMK AO2 T00291048
2026-03-28 00:55:00,METAR KMQS 280055Z AUTO 33004KT 10SM BKN220 OVC250 04/M04 A3015 RMK AO2 T00351044
2026-03-28 00:35:00,METAR KMQS 280035Z AUTO 34005KT 10SM BKN230 OVC250 04/M04 A3015 RMK AO2 T00381043
2026-03-28 00:15:00,METAR KMQS 280015Z AUTO 34005KT 10SM BKN230 04/M04 A3014 RMK AO2 T00381040
2026-03-27 23:55:00,METAR KMQS 272355Z AUTO 35004KT 10SM FEW100 BKN200 04/M04 A3012 RMK AO2 T00391039 10081 20039 53020
2026-03-27 23:35:00,METAR KMQS 272335Z AUTO 35005KT 10SM BKN100 BKN190 OVC220 04/M04 A3012 RMK AO2 T00421037
2026-03-27 23:15:00,METAR KMQS 272315Z AUTO 01008KT 9SM OVC100 05/M04 A3011 RMK AO2 T00471037
2026-03-27 22:55:00,METAR KMQS 272255Z AUTO 34008KT 9SM OVC095 05/M03 A3010 RMK AO2 T00491035
2026-03-27 22:35:00,METAR KMQS 272235Z AUTO 35010KT 9SM OVC095 05/M03 A3009 RMK AO2 T00501028
2026-03-27 22:15:00,METAR KMQS 272215Z AUTO 34008KT 9SM OVC090 05/M03 A3008 RMK AO2 T00511028
2026-03-27 21:55:00,METAR KMQS 272155Z AUTO 01010KT 9SM SCT070 OVC090 05/M03 A3007 RMK AO2 T00551027
2026-03-27 21:35:00,METAR KMQS 272135Z AUTO 33011KT 9SM SCT070 OVC085 06/M03 A3008 RMK AO2 T00561028
2026-03-27 21:15:00,METAR KMQS 272115Z AUTO 35010KT 9SM OVC080 06/M03 A3008 RMK AO2 T00611028
2026-03-27 20:55:00,METAR KMQS 272055Z AUTO 01008KT 10SM OVC080 06/M03 A3006 RMK AO2 T00641027 50000
2026-03-27 20:35:00,METAR KMQS 272035Z AUTO 03007KT 10SM OVC080 06/M03 A3007 RMK AO2 T00641029
2026-03-27 20:15:00,METAR KMQS 272015Z AUTO 01010KT 10SM OVC080 06/M03 A3009 RMK AO2 T00641028
2026-03-27 19:55:00,METAR KMQS 271955Z AUTO 36011KT 10SM OVC075 07/M02 A3008 RMK AO2 T00671019
2026-03-27 19:35:00,METAR KMQS 271935Z AUTO 35010KT 10SM OVC075 07/M02 A3007 RMK AO2 T00721017
2026-03-27 19:15:00,METAR KMQS 271915Z AUTO 35010KT 10SM OVC075 07/M01 A3006 RMK AO2 T00741013
2026-03-27 18:55:00,METAR KMQS 271855Z AUTO 36008KT 9SM OVC075 08/M00 A3006 RMK AO2 T00781005
2026-03-27 18:35:00,METAR KMQS 271835Z AUTO 01010KT 10SM OVC075 08/M00 A3006 RMK AO2 T00811004
2026-03-27 18:15:00,METAR KMQS 271815Z AUTO 35010KT 10SM BKN075 OVC160 08/M00 A3005 RMK AO2 T00801005
2026-03-27 17:55:00,METAR KMQS 271755Z AUTO 02008KT 10SM BKN160 OVC180 09/00 A3006 RMK AO2 60001 T00860003 10120 20074 51020
2026-03-27 17:35:00,METAR KMQS 271735Z AUTO 03009KT 10SM OVC180 08/01 A3005 RMK AO2 T00840008
2026-03-27 17:15:00,METAR KMQS 271715Z AUTO 01007G16KT 10SM SCT100 OVC180 08/01 A3005 RMK AO2 T00800006
2026-03-27 16:55:00,METAR KMQS 271655Z AUTO 36011KT 10SM OVC100 08/01 A3005 RMK AO2 T00820010
2026-03-27 16:35:00,METAR KMQS 271635Z AUTO 02011G15KT 10SM OVC100 08/01 A3004 RMK AO2 T00760010
2026-03-27 16:15:00,METAR KMQS 271615Z AUTO 36013KT 10SM SCT041 OVC100 08/02 A3005 RMK AO2 T00770020
2026-03-27 15:55:00,METAR KMQS 271555Z AUTO 01012KT 10SM FEW026 OVC038 08/02 A3004 RMK AO2 T00760022
2026-03-25 14:55:00,METAR KMQS 251455Z AUTO 00000KT 10SM OVC100 07/02 A3038 RMK AO2 T00690024 53002
2026-03-25 14:35:00,METAR KMQS 251435Z AUTO 16004KT 10SM OVC100 06/02 A3037 RMK AO2 T00640020
2026-03-25 14:15:00,METAR KMQS 251415Z AUTO 20004KT 10SM FEW075 OVC110 06/02 A3038 RMK AO2 T00580015
2026-03-25 13:55:00,METAR KMQS 251355Z AUTO VRB03KT 10SM BKN080 OVC100 05/01 A3037 RMK AO2 T00510012
2026-03-25 13:35:00,METAR KMQS 251335Z AUTO 19005KT 10SM BKN085 OVC110 05/01 A3038 RMK AO2 T00500012
2026-03-25 13:15:00,METAR KMQS 251315Z AUTO 20006KT 10SM SCT100 OVC110 04/01 A3037 RMK AO2 T00430015
2026-03-25 12:55:00,METAR KMQS 251255Z AUTO 18005KT 10SM BKN120 OVC140 03/01 A3037 RMK AO2 T00340008
2026-03-25 12:35:00,METAR KMQS 251235Z AUTO 00000KT 10SM BKN120 02/M00 A3037 RMK AO2 T00251005
2026-03-25 12:15:00,METAR KMQS 251215Z AUTO 00000KT 10SM OVC120 02/M01 A3037 RMK AO2 T00181013
2026-03-25 11:55:00,METAR KMQS 251155Z AUTO 00000KT 8SM BKN130 01/M02 A3037 RMK AO2 T00141015 10029 21003 51010
2026-03-25 11:35:00,METAR KMQS 251135Z AUTO 00000KT 9SM BKN120 OVC150 01/M02 A3037 RMK AO2 T00091021
2026-03-25 11:15:00,METAR KMQS 251115Z AUTO 00000KT 9SM BKN130 OVC160 01/M02 A3037 RMK AO2 T00091021
2026-03-25 10:55:00,METAR KMQS 251055Z AUTO 00000KT 10SM FEW130 BKN170 01/M02 A3037 RMK AO2 T00071019
2026-03-25 10:35:00,METAR KMQS 251035Z AUTO 00000KT 10SM BKN170 01/M02 A3036 RMK AO2 T00071017
2026-03-25 10:15:00,METAR KMQS 251015Z AUTO 00000KT 10SM FEW210 00/M01 A3037 RMK AO2 T00001014
2026-03-25 09:55:00,METAR KMQS 250955Z AUTO 00000KT 9SM FEW140 SCT170 BKN210 M00/M02 A3035 RMK AO2 T10021015
2026-03-25 09:35:00,METAR KMQS 250935Z AUTO 00000KT 10SM FEW150 BKN170 01/M01 A3035 RMK AO2 T00111013
2026-03-25 09:15:00,METAR KMQS 250915Z AUTO 00000KT 10SM BKN160 02/M00 A3034 RMK AO2 T00181002
2026-03-25 08:55:00,METAR KMQS 250855Z AUTO 00000KT 10SM BKN160 02/M00 A3034 RMK AO2 T00201002 55003
2026-03-25 08:35:00,METAR KMQS 250835Z AUTO 00000KT 10SM CLR 01/M01 A3035 RMK AO2 T00121008
2026-03-25 08:15:00,METAR KMQS 250815Z AUTO 00000KT 10SM CLR 01/M01 A3034 RMK AO2 T00131012
2026-03-25 07:55:00,METAR KMQS 250755Z AUTO 22003KT 10SM CLR 03/M01 A3033 RMK AO2 T00271007
2026-03-25 07:35:00,METAR KMQS 250735Z AUTO 00000KT 10SM CLR 03/M01 A3034 RMK AO2 T00271011
2026-03-25 07:15:00,METAR KMQS 250715Z AUTO 00000KT 10SM FEW190 03/M02 A3034 RMK AO2 T00271016
2026-03-25 06:55:00,METAR KMQS 250655Z AUTO 00000KT 10SM FEW210 03/M02 A3034 RMK AO2 T00271021
2026-03-25 06:35:00,METAR KMQS 250635Z AUTO 00000KT 9SM SCT100 SCT200 03/M03 A3034 RMK AO2 T00271026
2026-03-25 06:15:00,METAR KMQS 250615Z AUTO 20004KT 10SM FEW100 03/M03 A3034 RMK AO2 T00271030
2026-03-25 05:55:00,METAR KMQS 250555Z AUTO 00000KT 10SM FEW100 02/M03 A3035 RMK AO2 T00201032 10051 20020 400811002 50002
2026-03-25 05:35:00,METAR KMQS 250535Z AUTO 00000KT 10SM SCT100 SCT140 03/M03 A3036 RMK AO2 T00301033
2026-03-25 05:15:00,METAR KMQS 250515Z AUTO 00000KT 10SM SCT100 OVC150 02/M03 A3036 RMK AO2 T00251034
2026-03-25 04:55:00,METAR KMQS 250455Z AUTO 00000KT 10SM BKN100 OVC120 03/M04 A3036 RMK AO2 T00301037
2026-03-25 04:35:00,METAR KMQS 250435Z AUTO 19003KT 10SM BKN100 OVC130 04/M04 A3036 RMK AO2 T00351041
2026-03-25 04:15:00,METAR KMQS 250415Z AUTO 00000KT 10SM SCT100 SCT120 BKN160 04/M04 A3036 RMK AO2 T00361041
2026-03-25 03:55:00,METAR KMQS 250355Z AUTO 23003KT 10SM CLR 04/M04 A3036 RMK AO2 T00371043
2026-03-25 03:35:00,METAR KMQS 250335Z AUTO 24003KT 10SM CLR 04/M04 A3036 RMK AO2 T00391044
2026-03-25 03:15:00,METAR KMQS 250315Z AUTO VRB03KT 10SM SCT200 04/M05 A3035 RMK AO2 T00401046
2026-03-25 02:55:00,METAR KMQS 250255Z AUTO VRB03KT 10SM BKN190 BKN220 04/M05 A3035 RMK AO2 T00391046 50005
2026-03-25 02:35:00,METAR KMQS 250235Z AUTO VRB03KT 10SM FEW190 BKN210 04/M05 A3035 RMK AO2 T00411046
2026-03-25 02:15:00,METAR KMQS 250215Z AUTO 00000KT 10SM BKN180 04/M05 A3035 RMK AO2 T00431047
2026-03-25 01:55:00,METAR KMQS 250155Z AUTO 21003KT 10SM CLR 04/M05 A3035 RMK AO2 T00451049
2026-03-25 01:35:00,METAR KMQS 250135Z AUTO 24003KT 10SM CLR 05/M05 A3035 RMK AO2 T00461051
2026-03-25 01:15:00,METAR KMQS 250115Z AUTO VRB03KT 10SM CLR 04/M05 A3035 RMK AO2 T00451052
2026-03-25 00:55:00,METAR KMQS 250055Z AUTO 25003KT 10SM CLR 05/M06 A3035 RMK AO2 T00461056
2026-03-25 00:35:00,METAR KMQS 250035Z AUTO VRB03KT 10SM CLR 05/M06 A3034 RMK AO2 T00481055
2026-03-25 00:15:00,METAR KMQS 250015Z AUTO VRB03KT 10SM FEW250 05/M05 A3034 RMK AO2 T00491054
2026-03-24 23:55:00,METAR KMQS 242355Z AUTO VRB03KT 10SM FEW250 05/M05 A3033 RMK AO2 T00521049 10081 20052 50003
2026-03-24 23:35:00,METAR KMQS 242335Z AUTO 00000KT 10SM CLR 05/M05 A3033 RMK AO2 T00541048
2026-03-24 23:15:00,METAR KMQS 242315Z AUTO VRB04KT 10SM CLR 06/M05 A3034 RMK AO2 T00591048
2026-03-24 22:55:00,METAR KMQS 242255Z AUTO VRB03KT 9SM CLR 07/M05 A3033 RMK AO2 T00671050
2026-03-24 22:35:00,METAR KMQS 242235Z AUTO VRB03KT 10SM CLR 07/M05 A3033 RMK AO2 T00701050
2026-03-24 22:15:00,METAR KMQS 242215Z AUTO VRB03KT 9SM CLR 07/M05 A3033 RMK AO2 T00721055
2026-03-24 21:55:00,METAR KMQS 242155Z AUTO VRB05KT 9SM CLR 08/M07 A3033 RMK AO2 T00791065
2026-03-24 21:35:00,METAR KMQS 242135Z AUTO 24005KT 9SM CLR 08/M07 A3032 RMK AO2 T00801069
2026-03-24 21:15:00,METAR KMQS 242115Z AUTO 26006KT 10SM CLR 08/M08 A3032 RMK AO2 T00771079
2026-03-24 20:55:00,METAR KMQS 242055Z AUTO VRB04KT 9SM CLR 08/M08 A3032 RMK AO2 T00761082 56017
2026-03-24 20:35:00,METAR KMQS 242035Z AUTO VRB06KT 9SM CLR 08/M08 A3033 RMK AO2 T00781075
2026-03-24 20:15:00,METAR KMQS 242015Z AUTO VRB06KT 9SM CLR 07/M07 A3033 RMK AO2 T00741071
2026-03-24 19:55:00,METAR KMQS 241955Z AUTO 24006KT 9SM CLR 07/M06 A3034 RMK AO2 T00731059
2026-03-24 19:35:00,METAR KMQS 241935Z AUTO VRB06KT 9SM CLR 07/M05 A3034 RMK AO2 T00741053
2026-03-24 19:15:00,METAR KMQS 241915Z AUTO VRB04KT 9SM CLR 07/M06 A3034 RMK AO2 T00741061
2026-03-24 18:55:00,METAR KMQS 241855Z AUTO 28007KT 9SM CLR 07/M06 A3035 RMK AO2 T00721056
2026-03-24 18:35:00,METAR KMQS 241835Z AUTO VRB04KT 9SM CLR 07/M05 A3036 RMK AO2 T00681052
2026-03-24 18:15:00,METAR KMQS 241815Z AUTO 20007KT 9SM CLR 07/M07 A3037 RMK AO2 T00671067
2026-03-24 17:55:00,METAR KMQS 241755Z AUTO VRB03KT 9SM CLR 06/M07 A3037 RMK AO2 T00591067 10066 20008 58019
2026-03-24 17:35:00,METAR KMQS 241735Z AUTO VRB03KT 9SM CLR 07/M06 A3038 RMK AO2 T00661063
2026-03-24 17:15:00,METAR KMQS 241715Z AUTO 30006KT 9SM CLR 06/M06 A3039 RMK AO2 T00561064
2026-03-24 16:55:00,METAR KMQS 241655Z AUTO 00000KT 10SM CLR 05/M07 A3041 RMK AO2 T00491067
2026-03-24 16:35:00,METAR KMQS 241635Z AUTO VRB05KT 9SM CLR 05/M06 A3041 RMK AO2 T00521063
2026-03-24 16:15:00,METAR KMQS 241615Z AUTO 36006KT 10SM CLR 05/M06 A3042 RMK AO2 T00501059
2026-03-24 15:55:00,METAR KMQS 241555Z AUTO 33006KT 10SM CLR 04/M06 A3042 RMK AO2 T00441060
2026-03-24 15:35:00,METAR KMQS 241535Z AUTO 35008KT 9SM CLR 04/M06 A3043 RMK AO2 T00441058
2026-03-24 15:15:00,METAR KMQS 241515Z AUTO 04005KT 10SM CLR 03/M06 A3043 RMK AO2 T00341061
2026-03-24 14:55:00,METAR KMQS 241455Z AUTO 02007KT 10SM CLR 03/M06 A3043 RMK AO2 T00311060 53014
2026-03-24 14:35:00,METAR KMQS 241435Z AUTO 34008KT 9SM CLR 03/M06 A3043 RMK AO2 T00301060
2026-03-24 14:15:00,METAR KMQS 241415Z AUTO 36010KT 10SM CLR 03/M06 A3043 RMK AO2 T00281059
2026-03-24 13:55:00,METAR KMQS 241355Z AUTO 35009KT 10SM CLR 03/M06 A3042 RMK AO2 T00261059
2026-03-24 13:35:00,METAR KMQS 241335Z AUTO 03008KT 10SM CLR 02/M07 A3041 RMK AO2 T00191069
2026-03-24 13:15:00,METAR KMQS 241315Z AUTO 35009KT 10SM CLR 02/M06 A3040 RMK AO2 T00171064
2026-03-24 12:55:00,METAR KMQS 241255Z AUTO 36008KT 10SM CLR 02/M07 A3040 RMK AO2 T00151065
2026-03-24 12:35:00,METAR KMQS 241235Z AUTO 35009KT 10SM CLR 02/M06 A3039 RMK AO2 T00151061
2026-03-24 12:15:00,METAR KMQS 241215Z AUTO 36009KT 10SM CLR 01/M06 A3039 RMK AO2 T00091060
2026-03-24 11:55:00,METAR KMQS 241155Z AUTO 36005KT 9SM CLR 01/M06 A3039 RMK AO2 70002 T00061059 10008 21002 52026
2026-03-24 11:35:00,METAR KMQS 241135Z AUTO 01006KT 9SM CLR 00/M06 A3038 RMK AO2 T00021056
2026-03-24 11:15:00,METAR KMQS 241115Z AUTO 36007KT 10SM FEW036 00/M06 A3037 RMK AO2 T00021059
2026-03-24 10:55:00,METAR KMQS 241055Z AUTO 36005KT 10SM OVC035 01/M04 A3036 RMK AO2 T00061041
2026-03-24 10:35:00,METAR KMQS 241035Z AUTO 36007KT 10SM OVC033 01/M04 A3035 RMK AO2 T00061040
2026-03-24 10:15:00,METAR KMQS 241015Z AUTO 36004KT 10SM BKN034 00/M04 A3035 RMK AO2 T00041040
2026-03-24 09:55:00,METAR KMQS 240955Z AUTO 01006KT 10SM FEW041 00/M04 A3034 RMK AO2 T00031045
2026-03-24 09:35:00,METAR KMQS 240935Z AUTO 01005KT 10SM BKN041 01/M04 A3033 RMK AO2 T00051044
2026-03-24 09:15:00,METAR KMQS 240915Z AUTO 01008KT 10SM OVC042 01/M04 A3032 RMK AO2 T00081042
2026-03-24 08:55:00,METAR KMQS 240855Z AUTO 01004KT 10SM OVC042 01/M04 A3031 RMK AO2 T00071042 53008
2026-03-24 08:35:00,METAR KMQS 240835Z AUTO 35007KT 10SM OVC042 01/M04 A3030 RMK AO2 T00051041
2026-03-24 08:15:00,METAR KMQS 240815Z AUTO 36003KT 10SM BKN045 00/M04 A3031 RMK AO2 T00041045
2026-03-24 07:55:00,METAR KMQS 240755Z AUTO 35006KT 10SM BKN050 00/M04 A3030 RMK AO2 T00011044
2026-03-24 07:35:00,METAR KMQS 240735Z AUTO 36006KT 10SM BKN050 M00/M05 A3030 RMK AO2 T10001045
2026-03-24 07:15:00,METAR KMQS 240715Z AUTO 35006KT 10SM OVC050 01/M05 A3030 RMK AO2 T00051046
2026-03-24 06:55:00,METAR KMQS 240655Z AUTO 35007KT 10SM OVC055 00/M05 A3030 RMK AO2 T00041047
2026-03-24 06:35:00,METAR KMQS 240635Z AUTO 36003KT 10SM BKN055 00/M05 A3030 RMK AO2 T00041051
2026-03-24 06:15:00,METAR KMQS 240615Z AUTO 34006KT 10SM SCT050 00/M05 A3029 RMK AO2 T00011050
2026-03-24 05:55:00,METAR KMQS 240555Z AUTO 01004KT 10SM BKN050 00/M05 A3029 RMK AO2 T00041051 10022 21005 401371005 51019
2026-03-24 05:35:00,METAR KMQS 240535Z AUTO 35004KT 10SM CLR M00/M05 A3028 RMK AO2 T10021052
2026-03-24 05:15:00,METAR KMQS 240515Z AUTO 36005KT 10SM SCT060 01/M05 A3028 RMK AO2 T00051054
2026-03-24 04:55:00,METAR KMQS 240455Z AUTO 35004KT 10SM FEW055 00/M05 A3028 RMK AO2 T00041052
2026-03-24 04:35:00,METAR KMQS 240435Z AUTO 35004KT 10SM CLR 00/M05 A3027 RMK AO2 T00041052
2026-03-24 04:15:00,METAR KMQS 240415Z AUTO 32005KT 10SM CLR M00/M05 A3026 RMK AO2 T10051052
2026-03-24 03:55:00,METAR KMQS 240355Z AUTO 33004KT 10SM CLR 00/M05 A3025 RMK AO2 T00051052
2026-03-24 03:35:00,METAR KMQS 240335Z AUTO 33004KT 10SM CLR 01/M05 A3024 RMK AO2 T00061052
2026-03-24 03:15:00,METAR KMQS 240315Z AUTO 34005KT 10SM CLR 01/M05 A3023 RMK AO2 T00071052
2026-03-24 02:55:00,METAR KMQS 240255Z AUTO VRB05KT 10SM CLR 01/M05 A3023 RMK AO2 T00091053 51022
2026-03-24 02:35:00,METAR KMQS 240235Z AUTO 33005KT 10SM CLR 01/M05 A3022 RMK AO2 T00111051
2026-03-24 02:15:00,METAR KMQS 240215Z AUTO 33008KT 10SM CLR 01/M05 A3021 RMK AO2 T00151052
2026-03-24 01:55:00,METAR KMQS 240155Z AUTO 33008KT 10SM CLR 01/M05 A3020 RMK AO2 T00151051
2026-03-24 01:35:00,METAR KMQS 240135Z AUTO 33008KT 10SM CLR 02/M05 A3021 RMK AO2 T00161052
2026-03-24 01:15:00,METAR KMQS 240115Z AUTO 33007KT 10SM CLR 02/M05 A3020 RMK AO2 T00191053
2026-03-24 00:55:00,METAR KMQS 240055Z AUTO 34010KT 10SM CLR 02/M05 A3019 RMK AO2 T00191051
2026-03-24 00:35:00,METAR KMQS 240035Z AUTO 34010KT 10SM CLR 02/M05 A3018 RMK AO2 T00191048
2026-03-24 00:15:00,METAR KMQS 240015Z AUTO 34014KT 10SM CLR 02/M05 A3017 RMK AO2 T00221047
2026-03-23 23:55:00,METAR KMQS 232355Z AUTO 33012G21KT 10SM CLR 02/M05 A3016 RMK AO2 PK WND 31029/2306 T00221045 10066 20022 52047
2026-03-23 23:35:00,METAR KMQS 232335Z AUTO 34016G22KT 10SM CLR 03/M05 A3015 RMK AO2 PK WND 31029/2306 T00251047
2026-03-23 23:15:00,METAR KMQS 232315Z AUTO 33012G29KT 10SM SCT039 03/M04 A3014 RMK AO2 PK WND 31029/2306 T00281039
2026-03-23 22:55:00,METAR KMQS 232255Z AUTO 34018G26KT 10SM OVC035 03/M03 A3012 RMK AO2 PK WND 30028/2212 T00341028
2026-03-23 22:35:00,METAR KMQS 232235Z AUTO 32020G27KT 10SM OVC035 03/M03 A3011 RMK AO2 PK WND 30028/2212 PRESRR T00341031
2026-03-23 22:15:00,METAR KMQS 232215Z AUTO 32017G28KT 9SM OVC033 03/M03 A3009 RMK AO2 PK WND 30028/2212 T00341027
2026-03-23 21:55:00,METAR KMQS 232155Z AUTO 34016G23KT 10SM OVC029 04/M02 A3006 RMK AO2 PK WND 32028/2059 T00381018
2026-03-23 21:35:00,METAR KMQS 232135Z AUTO 32017G23KT 10SM OVC029 04/M01 A3005 RMK AO2 PK WND 32028/2059 T00411013
2026-03-23 21:15:00,METAR KMQS 232115Z AUTO 33018G23KT 10SM BKN028 04/M01 A3004 RMK AO2 PK WND 32028/2059 CIG 023V033 BKN V OVC T00411011
2026-03-23 20:55:00,METAR KMQS 232055Z AUTO 34013G22KT 10SM BKN025 OVC030 05/00 A3002 RMK AO2 PK WND 35030/2023 CIG 023V028 T00480005 53035
2026-03-23 20:35:00,METAR KMQS 232035Z AUTO 33014G25KT 10SM OVC028 05/00 A3001 RMK AO2 PK WND 35030/2023 CIG 025V033 T00500004
2026-03-23 20:15:00,METAR KMQS 232015Z AUTO 34018G26KT 10SM BKN027 06/01 A2999 RMK AO2 PK WND 35026/2009 CIG 025V031 T00580008
2026-03-23 19:55:00,METAR KMQS 231955Z AUTO 33016G27KT 10SM BKN026 06/01 A2997 RMK AO2 PK WND 33027/1944 CIG 022V030 T00640015
2026-03-23 19:35:00,METAR KMQS 231935Z AUTO 34015G27KT 10SM BKN022 OVC030 06/02 A2997 RMK AO2 PK WND 32027/1930 CIG 019V026 T00570018
2026-03-23 19:15:00,METAR KMQS 231915Z AUTO 33016G27KT 10SM OVC020 06/03 A2995 RMK AO2 PK WND 33027/1908 CIG 017V023 T00630029
2026-03-23 18:55:00,METAR KMQS 231855Z AUTO 32020G25KT 10SM BKN015 OVC022 05/03 A2995 RMK AO2 CIG 015V020 T00530030
2026-03-23 18:35:00,METAR KMQS 231835Z AUTO 33012G21KT 10SM OVC015 05/03 A2994 RMK AO2 CIG 014V019 T00520034
2026-03-23 18:15:00,METAR KMQS 231815Z AUTO 32016G25KT 10SM OVC015 06/04 A2993 RMK AO2 CIG 011V019 T00570039
2026-03-23 17:55:00,METAR KMQS 231755Z AUTO 31015KT 10SM OVC011 06/05 A2992 RMK AO2 RAB1704E1719 CIG 008V014 P0000 60002 T00590051 10109 20058 51035
2026-03-23 17:35:00,METAR KMQS 231735Z AUTO 34013G17KT 10SM BKN008 OVC013 06/05 A2991 RMK AO2 RAB1704E1719 CIG 006V011 P0000 T00590052
2026-03-23 17:15:00,METAR KMQS 231715Z AUTO 34012KT 3SM -RA BR OVC006 06/06 A2990 RMK AO2 VIS 2V4 RAB1704 CIG 005V007 P0000 T00600060
2026-03-23 16:55:00,METAR KMQS 231655Z AUTO 36009KT 10SM OVC007 07/07 A2988 RMK AO2 RAE1609 CIG 006V009 P0000 T00660066
2026-03-23 16:35:00,METAR KMQS 231635Z AUTO 34011KT 10SM OVC007 07/07 A2988 RMK AO2 RAE1609 CIG 006V009 OVC V BKN P0000 T00660066
2026-03-23 16:15:00,METAR KMQS 231615Z AUTO 35008KT 10SM BKN006 OVC012 07/07 A2987 RMK AO2 RAE1609 CIG 005V009 P0000 T00730073
2026-03-23 15:55:00,METAR KMQS 231555Z AUTO 36010KT 1 3/4SM -RA BR OVC006 07/07 A2985 RMK AO2 RAE1501B1517 CIG 005V009 P0001 T00730073
2026-03-23 15:35:00,METAR KMQS 231535Z AUTO 01007KT 1 1/4SM -RA BR BKN005 OVC013 07/07 A2985 RMK AO2 RAE1501B1517 CIG 004V008 BKN V OVC P0001 T00720072
2026-03-23 15:15:00,METAR KMQS 231515Z AUTO 35008KT 9SM BKN004 OVC013 07/07 A2984 RMK AO2 RAE1501 CIG 003V008 PRESRR P0000 T00730073
2026-03-23 14:55:00,METAR KMQS 231455Z AUTO 04007KT 4SM -RA BR SCT006 BKN013 OVC020 07/07 A2981 RMK AO2 P0001 60001 T00730073 53042
2026-03-23 14:35:00,METAR KMQS 231435Z AUTO 03008KT 3SM -RA BR BKN005 OVC013 07/07 A2981 RMK AO2 CIG 004V007 P0001 T00750075
2026-03-23 14:15:00,METAR KMQS 231415Z AUTO 02007KT 1 1/2SM -RA BR OVC004 09/09 A2980 RMK AO2 CIG 004V006 P0000 T00850085
2026-03-23 13:55:00,METAR KMQS 231355Z AUTO 05008KT 2 1/2SM -RA BR OVC004 09/09 A2977 RMK AO2 RAB1331 CIG 004V007 P0000 T00920092
2026-03-23 13:35:00,METAR KMQS 231335Z AUTO 05008KT 5SM -RA BR OVC004 10/10 A2975 RMK AO2 RAB1331 CIG 004V006 P0000 T00960096
2026-03-23 13:15:00,METAR KMQS 231315Z AUTO 05008KT 9SM OVC004 10/10 A2974 RMK AO2 CIG 003V005 T00990099
2026-03-23 12:55:00,METAR KMQS 231255Z AUTO 05008KT 7SM OVC003 10/10 A2972 RMK AO2 CIG 003V005 T01020102
2026-03-23 12:35:00,METAR KMQS 231235Z AUTO 03005KT 8SM OVC004 11/11 A2971 RMK AO2 CIG 003V005 T01060106
2026-03-23 12:15:00,METAR KMQS 231215Z AUTO 04005KT 7SM BKN003 OVC010 11/11 A2970 RMK AO2 CIG 003V005 T01080108
2026-03-23 11:55:00,METAR KMQS 231155Z AUTO 03005KT 6SM BR BKN004 OVC015 11/11 A2968 RMK AO2 RAE1112 CIG 003V006 P0001 60018 70018 T01090109 10137 20107 55000
2026-03-23 11:35:00,METAR KMQS 231135Z AUTO 03003KT 6SM BR SCT004 BKN016 OVC095 11/11 A2968 RMK AO2 RAE1112 CIG 014V018 P0001 T01090109
2026-03-23 11:15:00,METAR KMQS 231115Z AUTO 08004KT 3SM BR FEW019 SCT035 SCT065 BKN085 OVC100 11/11 A2967 RMK AO2 RAE1112 P0001 T01070107
2026-03-23 10:55:00,METAR KMQS 231055Z AUTO 13003KT 2SM -RA BR FEW024 OVC075 11/11 A2967 RMK AO2 P0016 T01110111
2026-03-23 10:35:00,METAR KMQS 231035Z AUTO 00000KT 3SM -RA BR FEW005 SCT026 OVC075 11/11 A2968 RMK AO2 FEW V SCT P0008 T01120112
2026-03-23 10:15:00,METAR KMQS 231015Z AUTO 13004KT 3SM -RA BR FEW005 OVC075 11/11 A2967 RMK AO2 P0003 T01140114
2026-03-23 09:55:00,METAR KMQS 230955Z AUTO 08003KT 7SM -RA BKN006 OVC070 12/12 A2968 RMK AO2 RAB0853E0924B0950 CIG 005V007 P0000 T01160116
2026-03-23 09:35:00,METAR KMQS 230935Z AUTO 12003KT 7SM SCT006 OVC070 12/12 A2969 RMK AO2 RAB0853E0924 P0000 T01170117
2026-03-23 09:15:00,METAR KMQS 230915Z AUTO 11003KT 6SM -RA BR SCT006 OVC065 12/12 A2968 RMK AO2 RAB0853 P0000 T01190119
2026-03-23 08:55:00,METAR KMQS 230855Z AUTO 07006KT 7SM FEW007 OVC065 12/12 A2968 RMK AO2 RAB0812E0834 P0001 60001 T01200120 53001
2026-03-23 08:35:00,METAR KMQS 230835Z AUTO 08005KT 7SM BKN007 OVC070 12/12 A2969 RMK AO2 RAB0812E0834 CIG 006V008 BKN V SCT P0001 T01210121
2026-03-23 08:15:00,METAR KMQS 230815Z AUTO 04004KT 5SM RA BR OVC007 13/12 A2972 RMK AO2 RAB0812 CIG 006V008 P0000 T01260125
2026-03-23 07:55:00,METAR KMQS 230755Z AUTO 02011KT 9SM BKN008 OVC012 13/12 A2970 RMK AO2 CIG 007V011 T01290124
2026-03-23 07:35:00,METAR KMQS 230735Z AUTO 01010KT 10SM OVC011 13/12 A2972 RMK AO2 CIG 010V014 T01310123
2026-03-23 07:15:00,METAR KMQS 230715Z AUTO 04010KT 10SM OVC011 13/12 A2968 RMK AO2 CIG 009V015 OVC V BKN T01320124
2026-03-23 06:55:00,METAR KMQS 230655Z AUTO 06010KT 7SM OVC009 13/13 A2966 RMK AO2 CIG 005V011 OVC V BKN T01320128
2026-03-23 06:35:00,METAR KMQS 230635Z AUTO 06010KT 5SM BR OVC006 13/13 A2967 RMK AO2 CIG 005V009 PRESFR T01330133
2026-03-23 06:15:00,METAR KMQS 230615Z AUTO 04012KT 6SM BR OVC008 14/13 A2970 RMK AO2 CIG 006V012 T01360134
2026-03-23 05:55:00,METAR KMQS 230555Z AUTO 03010KT 8SM SCT011 SCT110 14/13 A2968 RMK AO2 60000 T01390131 10201 20139 402270058 55008
2026-03-23 05:35:00,METAR KMQS 230535Z AUTO 02009KT 8SM SCT100 BKN120 14/13 A2967 RMK AO2 T01400131
2026-03-23 05:15:00,METAR KMQS 230515Z AUTO 04004KT 8SM BKN100 OVC120 14/13 A2967 RMK AO2 T01400133
2026-03-23 04:55:00,METAR KMQS 230455Z AUTO 05004KT 8SM BKN100 14/13 A2965 RMK AO2 T01410133
2026-03-23 04:35:00,METAR KMQS 230435Z AUTO 05005KT 7SM FEW200 14/13 A2964 RMK AO2 T01420134
2026-03-23 04:15:00,METAR KMQS 230415Z AUTO 06005KT 8SM FEW120 SCT200 15/13 A2966 RMK AO2 T01470135
2026-03-23 03:55:00,METAR KMQS 230355Z AUTO 07007KT 8SM SCT170 BKN200 15/14 A2964 RMK AO2 RAE0300B0323E0334 P0000 T01500136
2026-03-23 03:35:00,METAR KMQS 230335Z AUTO 11010KT 8SM FEW090 SCT100 SCT120 BKN160 15/14 A2963 RMK AO2 RAE0300B0323E0334 P0000 T01510137
2026-03-23 03:15:00,METAR KMQS 230315Z AUTO 08007KT 8SM BKN100 OVC120 15/14 A2967 RMK AO2 RAE0300 PRESFR P0000 T01540139
2026-03-23 02:55:00,METAR KMQS 230255Z AUTO 03006KT 6SM -RA FEW055 OVC100 16/14 A2970 RMK AO2 RAB0205E0220B0237 P0000 60000 T01620140 51027
2026-03-23 02:35:00,METAR KMQS 230235Z AUTO 02006KT 9SM BKN100 OVC120 17/13 A2970 RMK AO2 RAB0205E0220 P0000 T01690133
2026-03-23 02:15:00,METAR KMQS 230215Z AUTO 02005KT 8SM -RA SCT095 OVC120 18/13 A2971 RMK AO2 LTG DSNT N RAB0205 P0000 T01760132
2026-03-23 01:55:00,METAR KMQS 230155Z AUTO 06003KT 10SM OVC120 18/12 A2969 RMK AO2 T01810123
2026-03-23 01:35:00,METAR KMQS 230135Z AUTO 04003KT 10SM FEW100 OVC130 18/12 A2969 RMK AO2 T01810123
2026-03-23 01:15:00,METAR KMQS 230115Z AUTO 08007KT 10SM BKN120 19/12 A2967 RMK AO2 PRESFR T01890119
2026-03-23 00:55:00,METAR KMQS 230055Z AUTO 01006KT 9SM FEW046 BKN100 BKN120 20/12 A2971 RMK AO2 RAB0034E0046 P0000 T01960118
2026-03-23 00:35:00,METAR KMQS 230035Z AUTO 33016G23KT 8SM -RA FEW046 BKN100 OVC120 20/12 A2974 RMK AO2 RAB0034 PRESRR P0000 T02010118
2026-03-23 00:15:00,METAR KMQS 230015Z AUTO 00000KT 10SM BKN130 OVC150 20/11 A2964 RMK AO2 T01960115
2026-03-22 23:55:00,METAR KMQS 222355Z AUTO VRB03KT 10SM OVC150 19/11 A2962 RMK AO2 T01950114 10227 20191 55005
2026-03-22 23:35:00,METAR KMQS 222335Z AUTO 20004KT 10SM BKN150 20/11 A2962 RMK AO2 T01970114
2026-03-22 23:15:00,METAR KMQS 222315Z AUTO 20004KT 10SM SCT150 20/11 A2962 RMK AO2 LTG DSNT N T01970114
2026-03-22 22:55:00,METAR KMQS 222255Z AUTO VRB05KT 10SM BKN150 20/11 A2961 RMK AO2 T02030113
2026-03-22 22:35:00,METAR KMQS 222235Z AUTO VRB06KT 9SM CLR 21/11 A2962 RMK AO2 LTG DSNT N T02060112
2026-03-22 22:15:00,METAR KMQS 222215Z AUTO VRB06KT 10SM CLR 21/11 A2962 RMK AO2 T02090109
2026-03-22 21:55:00,METAR KMQS 222155Z AUTO VRB05KT 9SM CLR 22/11 A2962 RMK AO2 T02170106
2026-03-22 21:35:00,METAR KMQS 222135Z AUTO 20009KT 10SM FEW220 22/10 A2962 RMK AO2 T02190104
2026-03-22 21:15:00,METAR KMQS 222115Z AUTO 18007KT 150V210 10SM FEW220 22/10 A2963 RMK AO2 T02230104
2026-03-22 20:55:00,METAR KMQS 222055Z AUTO VRB06KT 10SM CLR 23/10 A2964 RMK AO2 LTG DSNT N T02260101 56035
2026-03-22 20:35:00,METAR KMQS 222035Z AUTO VRB06KT 10SM CLR 23/10 A2965 RMK AO2 LTG DSNT N T02250099
2026-03-22 20:15:00,METAR KMQS 222015Z AUTO 21008KT 170V260 10SM CLR 22/10 A2966 RMK AO2 LTG DSNT N T02230098
2026-03-22 19:55:00,METAR KMQS 221955Z AUTO 21007KT 180V250 9SM CLR 22/10 A2967 RMK AO2 T02160101
2026-03-22 19:35:00,METAR KMQS 221935Z AUTO 19007KT 150V210 10SM CLR 21/10 A2968 RMK AO2 T02110102
2026-03-22 19:15:00,METAR KMQS 221915Z AUTO VRB06KT 9SM CLR 21/11 A2969 RMK AO2 T02070105
2026-03-22 18:55:00,METAR KMQS 221855Z AUTO VRB05KT 9SM CLR 21/11 A2970 RMK AO2 T02070109
2026-03-22 18:35:00,METAR KMQS 221835Z AUTO VRB06KT 10SM CLR 20/10 A2971 RMK AO2 T02030104
2026-03-22 18:15:00,METAR KMQS 221815Z AUTO 25007KT 220V290 9SM CLR 20/10 A2972 RMK AO2 T01990105
2026-03-22 17:55:00,METAR KMQS 221755Z AUTO 21007KT 160V250 9SM FEW330 19/10 A2974 RMK AO2 T01890104 10190 20063 56020
2026-03-22 17:35:00,METAR KMQS 221735Z AUTO VRB05KT 10SM CLR 18/10 A2975 RMK AO2 T01840104
2026-03-22 17:15:00,METAR KMQS 221715Z AUTO VRB06KT 10SM FEW350 18/10 A2975 RMK AO2 T01770104
2026-03-22 16:55:00,METAR KMQS 221655Z AUTO 22006G15KT 170V250 10SM CLR 16/10 A2975 RMK AO2 T01650100
2026-03-22 16:35:00,METAR KMQS 221635Z AUTO 22006KT 10SM CLR 16/10 A2976 RMK AO2 T01630102
2026-03-22 16:15:00,METAR KMQS 221615Z AUTO 20007KT 170V240 10SM CLR 16/10 A2977 RMK AO2 T01610104
2026-03-22 15:55:00,METAR KMQS 221555Z AUTO VRB05KT 9SM CLR 15/10 A2979 RMK AO2 T01470101
2026-03-22 15:35:00,METAR KMQS 221535Z AUTO 20006KT 9SM CLR 14/10 A2980 RMK AO2 T01410099
2026-03-22 15:15:00,METAR KMQS 221515Z AUTO VRB05KT 9SM FEW013 14/10 A2980 RMK AO2 T01380100
2026-03-22 14:55:00,METAR KMQS 221455Z AUTO VRB06KT 9SM BKN010 12/09 A2980 RMK AO2 CIG 009V014 T01190095 58017
2026-03-22 14:35:00,METAR KMQS 221435Z AUTO 18007KT 9SM OVC009 11/09 A2980 RMK AO2 CIG 008V011 T01110092
2026-03-22 14:15:00,METAR KMQS 221415Z AUTO 19008KT 150V220 9SM OVC008 10/09 A2982 RMK AO2 CIG 007V009 T01030090
2026-03-22 13:55:00,METAR KMQS 221355Z AUTO 18006KT 8SM OVC007 09/08 A2983 RMK AO2 T00920084
2026-03-22 13:35:00,METAR KMQS 221335Z AUTO VRB04KT 9SM OVC007 09/08 A2983 RMK AO2 T00870081
2026-03-22 13:15:00,METAR KMQS 221315Z AUTO VRB06KT 8SM OVC007 08/08 A2983 RMK AO2 T00820076
2026-03-22 12:55:00,METAR KMQS 221255Z AUTO 17006KT 8SM OVC007 07/07 A2986 RMK AO2 T00730070
2026-03-22 12:35:00,METAR KMQS 221235Z AUTO VRB03KT 7SM BKN007 OVC130 07/07 A2986 RMK AO2 T00690068
2026-03-22 12:15:00,METAR KMQS 221215Z AUTO 00000KT 6SM BR BKN130 07/06 A2986 RMK AO2 T00650064
2026-03-22 11:55:00,METAR KMQS 221155Z AUTO VRB04KT 6SM BR CLR 06/06 A2986 RMK AO2 70001 T00610061 10075 20058 56010
2026-03-22 11:35:00,METAR KMQS 221135Z AUTO 16004KT 6SM BR CLR 06/06 A2986 RMK AO2 T00580058
2026-03-22 11:15:00,METAR KMQS 221115Z AUTO 15004KT 6SM BR CLR 06/06 A2987 RMK AO2 T00600058
2026-03-22 10:55:00,METAR KMQS 221055Z AUTO 16004KT 8SM FEW240 06/06 A2986 RMK AO2 T00610057
2026-03-22 10:35:00,METAR KMQS 221035Z AUTO 15003KT 9SM CLR 06/06 A2987 RMK AO2 T00620056
2026-03-22 10:15:00,METAR KMQS 221015Z AUTO VRB03KT 9SM FEW120 SCT240 06/06 A2986 RMK AO2 T00620056
2026-03-22 09:55:00,METAR KMQS 220955Z AUTO 14004KT 9SM SCT150 06/06 A2987 RMK AO2 T00630055
2026-03-22 09:35:00,METAR KMQS 220935Z AUTO 14004KT 9SM BKN150 06/05 A2988 RMK AO2 T00640055
2026-03-22 09:15:00,METAR KMQS 220915Z AUTO 11003KT 8SM FEW020 BKN150 06/05 A2990 RMK AO2 T00620053
2026-03-22 08:55:00,METAR KMQS 220855Z AUTO 14003KT 8SM BKN021 OVC039 07/05 A2989 RMK AO2 CIG 019V026 BKN V SCT T00660053 58016
2026-03-22 08:35:00,METAR KMQS 220835Z AUTO 15003KT 8SM OVC021 07/05 A2989 RMK AO2 CIG 019V026 OVC V BKN T00700054
2026-03-22 08:15:00,METAR KMQS 220815Z AUTO VRB03KT 8SM BKN018 OVC026 07/05 A2989 RMK AO2 CIG 018V023 BKN V OVC T00720055
2026-03-22 07:55:00,METAR KMQS 220755Z AUTO 10003KT 8SM OVC019 07/06 A2993 RMK AO2 T00730056
2026-03-22 07:35:00,METAR KMQS 220735Z AUTO 13003KT 8SM OVC019 07/06 A2992 RMK AO2 T00730056
2026-03-22 07:15:00,METAR KMQS 220715Z AUTO 13003KT 8SM OVC018 07/05 A2993 RMK AO2 T00740055
2026-03-22 06:55:00,METAR KMQS 220655Z AUTO 17007KT 8SM OVC018 07/05 A2993 RMK AO2 T00740053
2026-03-22 06:35:00,METAR KMQS 220635Z AUTO VRB06KT 8SM OVC018 07/05 A2992 RMK AO2 T00720053
2026-03-22 06:15:00,METAR KMQS 220615Z AUTO VRB06KT 8SM BKN021 07/05 A2992 RMK AO2 T00690053
2026-03-22 05:55:00,METAR KMQS 220555Z AUTO 18007KT 8SM SCT120 07/05 A2993 RMK AO2 T00690054 10102 20069 401480069 58001
2026-03-22 05:35:00,METAR KMQS 220535Z AUTO 17006KT 8SM SCT120 07/05 A2994 RMK AO2 T00700055
2026-03-22 05:15:00,METAR KMQS 220515Z AUTO 19007KT 8SM CLR 07/06 A2993 RMK AO2 T00730056
2026-03-22 04:55:00,METAR KMQS 220455Z AUTO 18006KT 9SM SCT110 BKN140 08/05 A2995 RMK AO2 T00780054
2026-03-22 04:35:00,METAR KMQS 220435Z AUTO 19007KT 150V210 9SM FEW110 OVC140 08/05 A2994 RMK AO2 T00820053
2026-03-22 04:15:00,METAR KMQS 220415Z AUTO VRB06KT 9SM OVC140 08/04 A2992 RMK AO2 T00840037
2026-03-22 03:55:00,METAR KMQS 220355Z AUTO 15003KT 10SM OVC140 09/01 A2995 RMK AO2 T00880012
2026-03-22 03:35:00,METAR KMQS 220335Z AUTO 13005KT 10SM OVC140 09/01 A2995 RMK AO2 T00880015
2026-03-22 03:15:00,METAR KMQS 220315Z AUTO 12005KT 10SM OVC140 09/01 A2995 RMK AO2 T00890015
2026-03-22 02:55:00,METAR KMQS 220255Z AUTO 10005KT 10SM BKN120 OVC140 09/01 A2994 RMK AO2 T00910014 50001
2026-03-22 02:35:00,METAR KMQS 220235Z AUTO 13004KT 10SM BKN120 OVC140 09/01 A2994 RMK AO2 T00930011
2026-03-22 02:15:00,METAR KMQS 220215Z AUTO 13004KT 10SM OVC140 09/01 A2995 RMK AO2 T00930012
2026-03-22 01:55:00,METAR KMQS 220155Z AUTO 11005KT 10SM BKN120 OVC150 09/01 A2995 RMK AO2 T00930012
2026-03-22 01:35:00,METAR KMQS 220135Z AUTO 10006KT 10SM OVC120 10/01 A2995 RMK AO2 T00950013
2026-03-22 01:15:00,METAR KMQS 220115Z AUTO 11006KT 10SM BKN130 OVC150 09/01 A2994 RMK AO2 T00950014
2026-03-22 00:55:00,METAR KMQS 220055Z AUTO 10005KT 10SM OVC140 10/01 A2994 RMK AO2 T00950015
2026-03-22 00:35:00,METAR KMQS 220035Z AUTO 07005KT 10SM OVC130 10/01 A2994 RMK AO2 T00980015
2026-03-22 00:15:00,METAR KMQS 220015Z AUTO 05005KT 10SM BKN130 OVC160 10/01 A2994 RMK AO2 T01010014
2026-03-21 23:55:00,METAR KMQS 212355Z AUTO 06004KT 10SM BKN140 OVC170 10/02 A2993 RMK AO2 T01030018 10148 20103 51010
2026-03-21 23:35:00,METAR KMQS 212335Z AUTO 04005KT 10SM BKN140 OVC170 10/02 A2993 RMK AO2 T01040019
2026-03-21 23:15:00,METAR KMQS 212315Z AUTO 05004KT 10SM BKN140 OVC160 11/02 A2993 RMK AO2 T01080018
2026-03-21 22:55:00,METAR KMQS 212255Z AUTO 05006KT 10SM OVC130 11/02 A2993 RMK AO2 T01110021
2026-03-21 22:35:00,METAR KMQS 212235Z AUTO 05006KT 10SM OVC140 11/02 A2993 RMK AO2 T01140021
2026-03-21 22:15:00,METAR KMQS 212215Z AUTO 04006KT 10SM OVC140 12/02 A2992 RMK AO2 T01200022
2026-03-21 21:55:00,METAR KMQS 212155Z AUTO 01007KT 9SM OVC150 13/03 A2992 RMK AO2 T01290029
2026-03-21 21:35:00,METAR KMQS 212135Z AUTO 02006KT 9SM OVC150 13/03 A2993 RMK AO2 PRESRR T01320030
2026-03-21 21:15:00,METAR KMQS 212115Z AUTO 02005KT 9SM OVC160 14/03 A2990 RMK AO2 T01350031
2026-03-21 20:55:00,METAR KMQS 212055Z AUTO VRB05KT 10SM OVC160 14/03 A2990 RMK AO2 T01400030 56013
2026-03-21 20:35:00,METAR KMQS 212035Z AUTO 02007KT 10SM BKN160 15/04 A2990 RMK AO2 T01470036
2026-03-21 20:15:00,METAR KMQS 212015Z AUTO 03003KT 10SM FEW190 SCT300 14/03 A2989 RMK AO2 T01430031
2026-03-21 19:55:00,METAR KMQS 211955Z AUTO 32005KT 10SM OVC200 14/03 A2990 RMK AO2 T01390027
2026-03-21 19:35:00,METAR KMQS 211935Z AUTO 35007KT 10SM BKN200 14/03 A2991 RMK AO2 T01360030
2026-03-21 19:15:00,METAR KMQS 211915Z AUTO 02006KT 10SM SCT190 14/03 A2992 RMK AO2 T01350031
2026-03-21 18:55:00,METAR KMQS 211855Z AUTO 34007KT 10SM CLR 13/03 A2992 RMK AO2 T01320034
2026-03-21 18:35:00,METAR KMQS 211835Z AUTO 36009KT 10SM CLR 13/04 A2992 RMK AO2 T01320039
2026-03-21 18:15:00,METAR KMQS 211815Z AUTO 32007KT 10SM CLR 13/04 A2994 RMK AO2 T01290038
2026-03-21 17:55:00,METAR KMQS 211755Z AUTO 33009KT 10SM CLR 12/04 A2994 RMK AO2 60001 T01240040 10129 20075 50016
2026-03-21 17:35:00,METAR KMQS 211735Z AUTO 34010KT 10SM FEW027 12/05 A2995 RMK AO2 T01220045
2026-03-21 17:15:00,METAR KMQS 211715Z AUTO 34011KT 10SM SCT027 12/05 A2995 RMK AO2 T01180053
2026-03-21 16:55:00,METAR KMQS 211655Z AUTO 35011KT 10SM SCT026 12/06 A2995 RMK AO2 T01160059
2026-03-21 16:35:00,METAR KMQS 211635Z AUTO 34011KT 10SM OVC026 11/06 A2994 RMK AO2 CIG 025V030 T01140059
2026-03-21 16:15:00,METAR KMQS 211615Z AUTO 34013KT 10SM OVC026 12/07 A2994 RMK AO2 CIG 023V030 T01200065
2026-03-21 15:55:00,METAR KMQS 211555Z AUTO 35011KT 10SM OVC022 12/07 A2993 RMK AO2 CIG 021V026 T01170073
2026-03-21 15:35:00,METAR KMQS 211535Z AUTO 01010G15KT 10SM OVC021 12/08 A2992 RMK AO2 CIG 020V025 T01180079
2026-03-21 14:55:00,METAR KMQS 211455Z AUTO 34009KT 10SM OVC018 12/09 A2989 RMK AO2 CIG 017V022 60001 T01240092 51023
2026-03-21 14:35:00,METAR KMQS 211435Z AUTO 34007KT 10SM OVC017 12/09 A2989 RMK AO2 CIG 016V021 T01180093
2026-03-21 14:15:00,METAR KMQS 211415Z AUTO 36008KT 10SM OVC015 12/10 A2989 RMK AO2 CIG 014V020 T01200098
2026-03-21 13:55:00,METAR KMQS 211355Z AUTO 01010KT 10SM OVC014 11/10 A2988 RMK AO2 CIG 012V016 OVC V BKN P0001 T01150096
2026-03-21 13:35:00,METAR KMQS 211335Z AUTO 01008KT 10SM BKN013 11/10 A2987 RMK AO2 P0001 T01130099
2026-03-21 13:15:00,METAR KMQS 211315Z AUTO 36008KT 9SM FEW012 11/11 A2986 RMK AO2 P0001 T01140105
2026-03-21 12:55:00,METAR KMQS 211255Z AUTO 34015KT 9SM FEW012 11/11 A2985 RMK AO2 T01120106
2026-03-21 12:35:00,METAR KMQS 211235Z AUTO 33009KT 9SM CLR 11/11 A2984 RMK AO2 T01120108
2026-03-21 12:15:00,METAR KMQS 211215Z AUTO 34007KT 3SM BR CLR 10/10 A2983 RMK AO2 T00980098
2026-03-21 11:55:00,METAR KMQS 211155Z AUTO 30004KT 2 1/2SM BR CLR 08/08 A2983 RMK AO2 70026 T00850085 10110 20071 51026
2026-03-21 11:35:00,METAR KMQS 211135Z AUTO 29003KT 2SM BR CLR 09/09 A2982 RMK AO2 VIS 1 1/4V3 T00900090
2026-03-21 11:15:00,METAR KMQS 211115Z AUTO 28003KT 2SM BR FEW045 09/09 A2981 RMK AO2 T00890089
2026-03-21 10:55:00,METAR KMQS 211055Z AUTO 28004KT 3SM BR CLR 09/09 A2980 RMK AO2 T00890089
2026-03-21 10:35:00,METAR KMQS 211035Z AUTO 26005KT 5SM BR FEW038 09/09 A2979 RMK AO2 T00950095
2026-03-21 10:15:00,METAR KMQS 211015Z AUTO 24003KT 6SM BR SCT038 09/09 A2977 RMK AO2 T00940094
2026-03-21 09:55:00,METAR KMQS 210955Z AUTO 28005KT 7SM BKN060 09/09 A2978 RMK AO2 T00950095
2026-03-21 09:35:00,METAR KMQS 210935Z AUTO 29005KT 4SM BR BKN060 09/09 A2977 RMK AO2 T00870087
2026-03-21 09:15:00,METAR KMQS 210915Z AUTO 29005KT 1/2SM FG FEW060 08/08 A2976 RMK AO2 T00760076
2026-03-21 08:55:00,METAR KMQS 210855Z AUTO 29006KT M1/4SM FG CLR 07/07 A2975 RMK AO2 T00730073 56003
2026-03-21 08:35:00,METAR KMQS 210835Z AUTO 30004KT M1/4SM FG CLR 08/08 A2974 RMK AO2 T00770077
2026-03-21 08:15:00,METAR KMQS 210815Z AUTO 28005KT 1/2SM FG CLR 10/10 A2974 RMK AO2 T00960096
2026-03-21 07:55:00,METAR KMQS 210755Z AUTO 28005KT 3SM BR FEW080 10/10 A2974 RMK AO2 T00950095
2026-03-21 07:35:00,METAR KMQS 210735Z AUTO 27003KT 4SM BR BKN080 10/10 A2974 RMK AO2 T00970097
2026-03-21 07:15:00,METAR KMQS 210715Z AUTO VRB03KT 9SM OVC075 11/11 A2975 RMK AO2 T01070107
2026-03-21 06:55:00,METAR KMQS 210655Z AUTO VRB04KT 9SM SCT048 OVC080 11/11 A2975 RMK AO2 T01080108
2026-03-21 06:35:00,METAR KMQS 210635Z AUTO 25003KT 10SM OVC048 11/11 A2975 RMK AO2 T01100110
2026-03-21 06:15:00,METAR KMQS 210615Z AUTO 27003KT 10SM OVC055 11/11 A2975 RMK AO2 T01060106
2026-03-21 05:55:00,METAR KMQS 210555Z AUTO 28004KT 9SM BKN046 OVC060 11/11 A2975 RMK AO2 60023 T01080108 10117 20097 401721004 56010
2026-03-21 05:35:00,METAR KMQS 210535Z AUTO 26003KT 10SM BKN047 OVC060 11/11 A2976 RMK AO2 T01120111
2026-03-21 05:15:00,METAR KMQS 210515Z AUTO 27003KT 10SM BKN050 OVC060 11/11 A2975 RMK AO2 T01110111
2026-03-21 04:55:00,METAR KMQS 210455Z AUTO 00000KT 10SM SCT049 BKN065 11/11 A2976 RMK AO2 RAE0415 P0003 T01100110
2026-03-21 04:35:00,METAR KMQS 210435Z AUTO 25005KT 10SM BKN050 BKN060 11/11 A2976 RMK AO2 RAE0415 P0003 T01140111
2026-03-21 04:15:00,METAR KMQS 210415Z AUTO 23005KT 10SM SCT050 SCT065 11/11 A2977 RMK AO2 RAE0415 P0003 T01120111
2026-03-21 03:55:00,METAR KMQS 210355Z AUTO 26007KT 9SM -RA BKN050 BKN060 OVC075 12/11 A2978 RMK AO2 RAE0302B0349 P0001 T01170111
2026-03-21 03:35:00,METAR KMQS 210335Z AUTO 22006KT 10SM BKN065 OVC080 11/11 A2977 RMK AO2 RAE0302 P0001 T01150111
2026-03-21 03:15:00,METAR KMQS 210315Z AUTO VRB04KT 8SM BKN060 OVC080 11/11 A2978 RMK AO2 RAE0302 P0000 T01120111
2026-03-21 02:55:00,METAR KMQS 210255Z AUTO VRB04KT 7SM -RA OVC060 11/11 A2979 RMK AO2 P0001 60019 T01070107 58006
2026-03-21 02:35:00,METAR KMQS 210235Z AUTO 21006KT 6SM -RA BR OVC065 10/10 A2979 RMK AO2 P0001 T01020102
2026-03-21 02:15:00,METAR KMQS 210215Z AUTO 00000KT 7SM -RA BKN070 10/10 A2980 RMK AO2 P0001 T01030103
2026-03-21 01:55:00,METAR KMQS 210155Z AUTO 23004KT 7SM -RA FEW023 BKN075 10/10 A2980 RMK AO2 P0003 T01020102
2026-03-21 01:35:00,METAR KMQS 210135Z AUTO VRB03KT 5SM -RA BR FEW023 SCT044 SCT055 OVC075 10/10 A2980 RMK AO2 P0003 T01010101
2026-03-21 01:15:00,METAR KMQS 210115Z AUTO 27003KT 5SM -RA BR BKN047 OVC055 10/10 A2981 RMK AO2 P0001 T00980098
2026-03-21 00:55:00,METAR KMQS 210055Z AUTO 32004KT 5SM -RA BR FEW006 SCT047 OVC060 10/10 A2981 RMK AO2 P0015 T00980098
2026-03-21 00:35:00,METAR KMQS 210035Z AUTO 28004KT 3SM -RA BR FEW005 SCT041 BKN048 OVC060 10/10 A2982 RMK AO2 P0013 T01010096
2026-03-21 00:15:00,METAR KMQS 210015Z AUTO VRB04KT 3SM RA BR FEW005 SCT043 OVC060 11/09 A2981 RMK AO2 VIS 2 1/2V4 P0005 T01060092
2026-03-20 23:55:00,METAR KMQS 202355Z AUTO VRB05KT 7SM -RA SCT060 OVC070 11/09 A2980 RMK AO2 P0003 60003 T01110089 10172 20109 55001
2026-03-20 23:35:00,METAR KMQS 202335Z AUTO 21003KT 7SM -RA SCT060 OVC075 11/09 A2981 RMK AO2 P0003 T01120091
2026-03-20 23:15:00,METAR KMQS 202315Z AUTO 25004KT 6SM -RA OVC060 12/08 A2981 RMK AO2 P0001 T01210080
2026-03-20 22:55:00,METAR KMQS 202255Z AUTO VRB04KT 5SM -RA OVC060 13/07 A2980 RMK AO2 RAB2209 P0000 T01290072
2026-03-20 22:35:00,METAR KMQS 202235Z AUTO VRB06KT 6SM -RA OVC065 14/06 A2980 RMK AO2 RAB2209 P0000 T01370060
2026-03-20 22:15:00,METAR KMQS 202215Z AUTO 24007KT 210V270 7SM -RA FEW039 OVC075 15/05 A2979 RMK AO2 RAB2209 PRESRR P0000 T01490045
2026-03-20 21:55:00,METAR KMQS 202155Z AUTO 21006G16KT 170V250 10SM OVC090 15/04 A2977 RMK AO2 RAB2100E2114 P0000 T01540039
2026-03-20 21:35:00,METAR KMQS 202135Z AUTO 20009G16KT 180V260 10SM BKN095 OVC120 15/04 A2977 RMK AO2 RAB2100E2114 P0000 T01520039
2026-03-20 21:15:00,METAR KMQS 202115Z AUTO 20010G16KT 10SM SCT080 BKN095 BKN110 OVC140 15/04 A2978 RMK AO2 RAB2100E2114 P0000 T01510039
2026-03-20 20:55:00,METAR KMQS 202055Z AUTO 22007KT 170V260 10SM BKN090 BKN110 OVC130 15/03 A2981 RMK AO2 T01530031 56039
2026-03-20 20:35:00,METAR KMQS 202035Z AUTO 21007G16KT 180V260 10SM BKN100 OVC130 15/03 A2982 RMK AO2 T01550031
2026-03-20 20:15:00,METAR KMQS 202015Z AUTO 21009G16KT 10SM SCT095 OVC130 16/03 A2982 RMK AO2 T01580029
2026-03-20 19:55:00,METAR KMQS 201955Z AUTO 20008KT 140V240 10SM FEW100 SCT140 BKN220 16/03 A2982 RMK AO2 T01610028
2026-03-20 19:35:00,METAR KMQS 201935Z AUTO 20010G17KT 160V230 10SM SCT100 SCT160 BKN220 16/03 A2984 RMK AO2 T01630026
2026-03-20 19:15:00,METAR KMQS 201915Z AUTO 19010G17KT 130V220 10SM FEW160 SCT240 SCT370 17/03 A2984 RMK AO2 T01710030
2026-03-20 18:55:00,METAR KMQS 201855Z AUTO 21011G19KT 10SM SCT095 SCT280 17/03 A2987 RMK AO2 PRESFR T01650029
2026-03-20 18:35:00,METAR KMQS 201835Z AUTO 21008G17KT 180V250 10SM BKN095 BKN280 17/03 A2989 RMK AO2 T01700030
2026-03-20 18:15:00,METAR KMQS 201815Z AUTO 19005G15KT 130V260 10SM BKN095 16/03 A2991 RMK AO2 T01650030
2026-03-20 17:55:00,METAR KMQS 201755Z AUTO 19010G15KT 9SM CLR 16/03 A2992 RMK AO2 PRESFR T01630029 10169 20019 58038
2026-03-20 17:35:00,METAR KMQS 201735Z AUTO 21007G16KT 170V250 10SM CLR 17/03 A2994 RMK AO2 T01670031
2026-03-20 17:15:00,METAR KMQS 201715Z AUTO 19011G16KT 160V240 10SM FEW090 16/03 A2995 RMK AO2 T01610027
2026-03-20 16:55:00,METAR KMQS 201655Z AUTO 21010G16KT 180V240 10SM CLR 15/02 A2997 RMK AO2 T01510024
2026-03-20 16:35:00,METAR KMQS 201635Z AUTO 19009KT 10SM CLR 16/04 A2998 RMK AO2 T01560036
2026-03-20 16:15:00,METAR KMQS 201615Z AUTO 18007KT 10SM CLR 14/04 A3000 RMK AO2 T01440037
2026-03-20 15:55:00,METAR KMQS 201555Z AUTO 16007KT 130V200 10SM CLR 14/04 A3001 RMK AO2 T01390042
2026-03-20 15:35:00,METAR KMQS 201535Z AUTO VRB05KT 10SM CLR 12/04 A3002 RMK AO2 T01240040
2026-03-20 15:15:00,METAR KMQS 201515Z AUTO VRB06KT 10SM CLR 11/04 A3003 RMK AO2 T01130039
2026-03-20 14:55:00,METAR KMQS 201455Z AUTO VRB06KT 10SM CLR 10/03 A3004 RMK AO2 T01000035 58021
2026-03-20 14:35:00,METAR KMQS 201435Z AUTO 18005KT 10SM CLR 09/03 A3005 RMK AO2 T00940034
2026-03-20 14:15:00,METAR KMQS 201415Z AUTO VRB04KT 10SM CLR 08/03 A3005 RMK AO2 T00800033
2026-03-20 13:55:00,METAR KMQS 201355Z AUTO 17005KT 10SM CLR 06/03 A3006 RMK AO2 T00580030
2026-03-20 13:35:00,METAR KMQS 201335Z AUTO 20004KT 9SM CLR 05/03 A3007 RMK AO2 T00470026
2026-03-20 13:15:00,METAR KMQS 201315Z AUTO 17005KT 9SM CLR 04/02 A3008 RMK AO2 T00420025
2026-03-20 12:55:00,METAR KMQS 201255Z AUTO 18003KT 9SM CLR 03/02 A3010 RMK AO2 T00320019
2026-03-20 12:35:00,METAR KMQS 201235Z AUTO 17003KT 9SM CLR 03/02 A3010 RMK AO2 T00280018
2026-03-20 12:15:00,METAR KMQS 201215Z AUTO 00000KT 9SM CLR 03/02 A3010 RMK AO2 T00250016
2026-03-20 11:55:00,METAR KMQS 201155Z AUTO 00000KT 7SM CLR 01/01 A3010 RMK AO2 T00110009 10034 21004 53001
2026-03-20 11:35:00,METAR KMQS 201135Z AUTO 00000KT 7SM CLR 02/01 A3011 RMK AO2 T00150012
2026-03-20 11:15:00,METAR KMQS 201115Z AUTO VRB03KT 6SM BR CLR 00/M00 A3010 RMK AO2 T00021001
2026-03-20 10:55:00,METAR KMQS 201055Z AUTO 00000KT 8SM CLR 01/01 A3010 RMK AO2 T00140006
2026-03-20 10:35:00,METAR KMQS 201035Z AUTO 00000KT 9SM CLR 01/01 A3010 RMK AO2 T00130006
2026-03-20 10:15:00,METAR KMQS 201015Z AUTO 00000KT 9SM CLR 01/00 A3009 RMK AO2 T00100003
2026-03-20 09:55:00,METAR KMQS 200955Z AUTO 00000KT 8SM CLR 00/M00 A3010 RMK AO2 T00001004
2026-03-20 09:35:00,METAR KMQS 200935Z AUTO 00000KT 8SM CLR 00/M00 A3010 RMK AO2 T00021003
2026-03-20 09:15:00,METAR KMQS 200915Z AUTO 00000KT 8SM CLR 00/M00 A3010 RMK AO2 T00031003
2026-03-20 08:55:00,METAR KMQS 200855Z AUTO 00000KT 8SM CLR M00/M01 A3010 RMK AO2 T10031005 57019
2026-03-20 08:35:00,METAR KMQS 200835Z AUTO 00000KT 9SM CLR 00/M00 A3010 RMK AO2 T00001004
2026-03-20 08:15:00,METAR KMQS 200815Z AUTO 00000KT 9SM CLR 00/M00 A3010 RMK AO2 T00051001
2026-03-20 07:55:00,METAR KMQS 200755Z AUTO 00000KT 10SM CLR 02/01 A3012 RMK AO2 T00190005
2026-03-20 07:35:00,METAR KMQS 200735Z AUTO 00000KT 10SM CLR 02/01 A3012 RMK AO2 T00210006
2026-03-20 07:15:00,METAR KMQS 200715Z AUTO 00000KT 10SM CLR 02/01 A3013 RMK AO2 T00250005
2026-03-20 06:55:00,METAR KMQS 200655Z AUTO 00000KT 10SM CLR 03/01 A3014 RMK AO2 T00340008
2026-03-20 06:35:00,METAR KMQS 200635Z AUTO VRB04KT 10SM CLR 02/M00 A3015 RMK AO2 T00231000
2026-03-20 06:15:00,METAR KMQS 200615Z AUTO 22003KT 10SM CLR 02/M00 A3015 RMK AO2 T00211003
2026-03-20 05:55:00,METAR KMQS 200555Z AUTO 00000KT 10SM CLR 02/M00 A3016 RMK AO2 T00221003 10060 20016 400891011 58005
2026-03-20 05:35:00,METAR KMQS 200535Z AUTO 00000KT 10SM FEW075 02/M00 A3017 RMK AO2 T00221004
2026-03-20 05:15:00,METAR KMQS 200515Z AUTO 19003KT 9SM FEW055 SCT075 02/M01 A3017 RMK AO2 T00211006
2026-03-20 04:55:00,METAR KMQS 200455Z AUTO 00000KT 10SM BKN060 OVC080 02/M01 A3017 RMK AO2 T00251009
2026-03-20 04:35:00,METAR KMQS 200435Z AUTO 00000KT 10SM OVC070 02/M01 A3017 RMK AO2 T00221010
2026-03-20 04:15:00,METAR KMQS 200415Z AUTO 00000KT 10SM BKN060 02/M01 A3017 RMK AO2 T00211012
2026-03-20 03:55:00,METAR KMQS 200355Z AUTO 00000KT 10SM BKN060 OVC070 03/M01 A3017 RMK AO2 T00301013
2026-03-20 03:35:00,METAR KMQS 200335Z AUTO 00000KT 10SM BKN060 OVC070 03/M01 A3017 RMK AO2 T00321011
2026-03-20 03:15:00,METAR KMQS 200315Z AUTO 00000KT 9SM BKN060 OVC090 03/M01 A3018 RMK AO2 T00341011
2026-03-20 02:55:00,METAR KMQS 200255Z AUTO 15003KT 9SM BKN060 OVC090 03/M01 A3017 RMK AO2 T00341013 51008
2026-03-20 02:35:00,METAR KMQS 200235Z AUTO 15003KT 10SM SCT065 OVC090 04/M01 A3018 RMK AO2 T00381013
2026-03-20 02:15:00,METAR KMQS 200215Z AUTO 00000KT 10SM SCT070 BKN090 04/M01 A3017 RMK AO2 T00401011
2026-03-20 01:55:00,METAR KMQS 200155Z AUTO 16003KT 10SM FEW070 SCT090 04/M01 A3017 RMK AO2 T00411011
2026-03-20 01:35:00,METAR KMQS 200135Z AUTO 17005KT 9SM BKN090 05/M01 A3016 RMK AO2 T00461009
2026-03-20 01:15:00,METAR KMQS 200115Z AUTO 16004KT 10SM SCT070 BKN090 05/M01 A3017 RMK AO2 T00531009
2026-03-20 00:55:00,METAR KMQS 200055Z AUTO 00000KT 9SM SCT065 05/M01 A3016 RMK AO2 T00511009
2026-03-20 00:35:00,METAR KMQS 200035Z AUTO 00000KT 10SM CLR 06/M01 A3015 RMK AO2 T00551010
2026-03-20 00:15:00,METAR KMQS 200015Z AUTO 00000KT 7SM CLR 05/M01 A3015 RMK AO2 T00541009
2026-03-19 23:55:00,METAR KMQS 192355Z AUTO 19003KT 7SM FEW060 06/M01 A3015 RMK AO2 T00631008 10089 20048 58001
2026-03-19 23:35:00,METAR KMQS 192335Z AUTO 00000KT 7SM CLR 06/M01 A3014 RMK AO2 T00631006
2026-03-19 23:15:00,METAR KMQS 192315Z AUTO VRB04KT 7SM FEW070 07/M00 A3014 RMK AO2 T00711004
2026-03-19 22:55:00,METAR KMQS 192255Z AUTO VRB04KT 7SM BKN065 08/M00 A3015 RMK AO2 T00781003
2026-03-19 22:35:00,METAR KMQS 192235Z AUTO VRB03KT 8SM OVC065 08/M00 A3015 RMK AO2 T00821003
2026-03-19 22:15:00,METAR KMQS 192215Z AUTO 19005KT 7SM BKN060 08/M00 A3015 RMK AO2 T00811004
2026-03-19 21:55:00,METAR KMQS 192155Z AUTO VRB04KT 8SM CLR 09/M00 A3016 RMK AO2 T00861005
2026-03-19 21:35:00,METAR KMQS 192135Z AUTO 00000KT 8SM CLR 09/M00 A3015 RMK AO2 T00881003
2026-03-19 21:15:00,METAR KMQS 192115Z AUTO VRB03KT 9SM CLR 08/M01 A3015 RMK AO2 T00841006
2026-03-19 20:55:00,METAR KMQS 192055Z AUTO 19007KT 8SM FEW080 08/M01 A3015 RMK AO2 T00811007 56027
2026-03-19 20:35:00,METAR KMQS 192035Z AUTO VRB05KT 7SM CLR 08/M01 A3015 RMK AO2 T00821007
2026-03-19 20:15:00,METAR KMQS 192015Z AUTO 23004KT 9SM CLR 08/M01 A3015 RMK AO2 T00771008
2026-03-19 19:55:00,METAR KMQS 191955Z AUTO VRB05KT 9SM CLR 08/M01 A3016 RMK AO2 T00781009
2026-03-19 19:35:00,METAR KMQS 191935Z AUTO VRB05KT 9SM CLR 07/M01 A3017 RMK AO2 T00751010
2026-03-19 19:15:00,METAR KMQS 191915Z AUTO VRB03KT 10SM CLR 07/M01 A3018 RMK AO2 T00691012
2026-03-19 18:55:00,METAR KMQS 191855Z AUTO VRB06KT 9SM SCT055 06/M01 A3019 RMK AO2 T00651015
2026-03-19 18:35:00,METAR KMQS 191835Z AUTO VRB06KT 10SM OVC055 06/M02 A3020 RMK AO2 T00571017
2026-03-19 18:15:00,METAR KMQS 191815Z AUTO 23006KT 10SM OVC050 05/M02 A3022 RMK AO2 T00501022
2026-03-19 17:55:00,METAR KMQS 191755Z AUTO 20007KT 10SM OVC050 05/M02 A3023 RMK AO2 T00491023 10050 21006 57012
2026-03-19 17:35:00,METAR KMQS 191735Z AUTO VRB04KT 10SM OVC050 05/M02 A3024 RMK AO2 T00461024
2026-03-19 17:15:00,METAR KMQS 191715Z AUTO VRB05KT 10SM OVC047 04/M03 A3024 RMK AO2 T00431026
2026-03-19 16:55:00,METAR KMQS 191655Z AUTO 21006KT 10SM SCT046 OVC055 04/M03 A3024 RMK AO2 T00391029
2026-03-19 16:35:00,METAR KMQS 191635Z AUTO VRB06KT 9SM SCT048 OVC055 04/M03 A3025 RMK AO2 T00391029
2026-03-19 16:15:00,METAR KMQS 191615Z AUTO VRB05KT 9SM BKN050 OVC060 03/M03 A3025 RMK AO2 T00321031
2026-03-19 15:55:00,METAR KMQS 191555Z AUTO VRB03KT 10SM OVC047 03/M03 A3026 RMK AO2 T00281033
2026-03-19 15:35:00,METAR KMQS 191535Z AUTO 19004KT 10SM OVC047 03/M03 A3026 RMK AO2 T00251034
2026-03-19 15:15:00,METAR KMQS 191515Z AUTO VRB04KT 9SM OVC047 02/M04 A3027 RMK AO2 T00201038
2026-03-19 14:55:00,METAR KMQS 191455Z AUTO VRB06KT 10SM OVC048 02/M04 A3027 RMK AO2 T00181042 51004
2026-03-19 14:35:00,METAR KMQS 191435Z AUTO VRB05KT 9SM OVC049 02/M04 A3027 RMK AO2 T00181045
2026-03-19 14:15:00,METAR KMQS 191415Z AUTO 17007KT 130V200 9SM OVC050 01/M05 A3027 RMK AO2 T00141050
2026-03-19 13:55:00,METAR KMQS 191355Z AUTO VRB05KT 10SM OVC060 01/M05 A3027 RMK AO2 T00081050
2026-03-19 13:35:00,METAR KMQS 191335Z AUTO VRB04KT 9SM OVC060 01/M05 A3027 RMK AO2 T00061050
2026-03-19 13:15:00,METAR KMQS 191315Z AUTO VRB03KT 10SM OVC060 00/M05 A3027 RMK AO2 T00031049
2026-03-19 12:55:00,METAR KMQS 191255Z AUTO VRB05KT 9SM OVC060 M00/M05 A3027 RMK AO2 T10011050
2026-03-19 12:35:00,METAR KMQS 191235Z AUTO 17005KT 10SM OVC060 M00/M05 A3026 RMK AO2 T10021050
2026-03-19 12:15:00,METAR KMQS 191215Z AUTO VRB04KT 10SM SCT017 OVC060 M00/M05 A3026 RMK AO2 T10051050
2026-03-19 11:55:00,METAR KMQS 191155Z AUTO 17004KT 9SM SCT017 BKN050 OVC060 M01/M05 A3026 RMK AO2 T10071051 11007 21011 57001
2026-03-19 11:35:00,METAR KMQS 191135Z AUTO VRB03KT 9SM OVC050 M01/M05 A3025 RMK AO2 T10081052
2026-03-19 11:15:00,METAR KMQS 191115Z AUTO 00000KT 9SM OVC055 M01/M05 A3026 RMK AO2 T10091053
2026-03-19 10:55:00,METAR KMQS 191055Z AUTO VRB03KT 10SM OVC055 M01/M05 A3026 RMK AO2 T10101052
2026-03-19 10:15:00,METAR KMQS 191015Z AUTO VRB03KT 10SM OVC050 M01/M05 A3026 RMK AO2 T10101053
2026-03-19 09:55:00,METAR KMQS 190955Z AUTO 00000KT 10SM OVC050 M01/M05 A3026 RMK AO2 T10101053
2026-03-19 09:35:00,METAR KMQS 190935Z AUTO 19004KT 10SM OVC055 M01/M05 A3026 RMK AO2 T10101054
2026-03-19 09:15:00,METAR KMQS 190915Z AUTO VRB04KT 10SM OVC055 M01/M05 A3026 RMK AO2 T10101054
2026-03-19 08:55:00,METAR KMQS 190855Z AUTO VRB06KT 10SM OVC060 M01/M05 A3026 RMK AO2 T10101050 56015
2026-03-19 08:35:00,METAR KMQS 190835Z AUTO VRB03KT 10SM OVC060 M01/M05 A3026 RMK AO2 T10101049
2026-03-19 08:15:00,METAR KMQS 190815Z AUTO VRB05KT 10SM BKN060 OVC085 M01/M05 A3026 RMK AO2 T10101050
2026-03-19 07:35:00,METAR KMQS 190735Z AUTO 19005KT 10SM FEW065 OVC085 M01/M05 A3027 RMK AO2 T10101051
2026-03-19 07:15:00,METAR KMQS 190715Z AUTO VRB04KT 10SM FEW065 OVC090 M01/M05 A3027 RMK AO2 T10101052
2026-03-19 06:55:00,METAR KMQS 190655Z AUTO 17004KT 10SM FEW070 OVC085 M01/M06 A3028 RMK AO2 T10101055
2026-03-19 06:35:00,METAR KMQS 190635Z AUTO 16004KT 10SM SCT070 BKN090 OVC110 M01/M06 A3028 RMK AO2 T10101057
2026-03-19 06:15:00,METAR KMQS 190615Z AUTO 18003KT 10SM OVC070 M01/M06 A3030 RMK AO2 T10101059
2026-03-19 05:55:00,METAR KMQS 190555Z AUTO 00000KT 10SM OVC070 M01/M06 A3030 RMK AO2 T10101062 11010 21026 400221072 58007
2026-03-19 05:35:00,METAR KMQS 190535Z AUTO 00000KT 10SM OVC070 M01/M06 A3031 RMK AO2 T10101062
2026-03-19 05:15:00,METAR KMQS 190515Z AUTO 00000KT 10SM OVC070 M01/M06 A3031 RMK AO2 T10101064
2026-03-19 04:55:00,METAR KMQS 190455Z AUTO 00000KT 10SM OVC075 M01/M06 A3031 RMK AO2 T10111065
2026-03-19 04:35:00,METAR KMQS 190435Z AUTO 00000KT 10SM OVC075 M01/M06 A3032 RMK AO2 T10111064
2026-03-19 04:15:00,METAR KMQS 190415Z AUTO 16003KT 10SM BKN075 OVC095 M01/M07 A3032 RMK AO2 T10121066
2026-03-19 03:55:00,METAR KMQS 190355Z AUTO 00000KT 10SM BKN075 OVC095 M01/M07 A3032 RMK AO2 T10121067
2026-03-19 03:35:00,METAR KMQS 190335Z AUTO 17003KT 10SM OVC075 M01/M07 A3032 RMK AO2 T10121070
2026-03-19 03:15:00,METAR KMQS 190315Z AUTO 00000KT 10SM BKN080 OVC100 M01/M07 A3032 RMK AO2 T10131071
2026-03-19 02:55:00,METAR KMQS 190255Z AUTO 17003KT 10SM OVC110 M01/M08 A3033 RMK AO2 T10131078 50003
2026-03-19 02:35:00,METAR KMQS 190235Z AUTO 00000KT 10SM OVC120 M01/M08 A3033 RMK AO2 T10141085
2026-03-19 02:15:00,METAR KMQS 190215Z AUTO 00000KT 10SM OVC120 M02/M09 A3034 RMK AO2 T10161087
2026-03-19 01:55:00,METAR KMQS 190155Z AUTO 00000KT 10SM SCT130 M03/M09 A3033 RMK AO2 T10261090
2026-03-19 01:35:00,METAR KMQS 190135Z AUTO 00000KT 10SM CLR M02/M10 A3033 RMK AO2 T10161100
2026-03-19 01:15:00,METAR KMQS 190115Z AUTO 00000KT 10SM CLR M03/M10 A3033 RMK AO2 T10251097
2026-03-19 00:55:00,METAR KMQS 190055Z AUTO 00000KT 10SM CLR M02/M10 A3033 RMK AO2 T10191099
2026-03-19 00:35:00,METAR KMQS 190035Z AUTO 00000KT 10SM CLR M02/M09 A3032 RMK AO2 T10211085
2026-03-19 00:15:00,METAR KMQS 190015Z AUTO 00000KT 10SM CLR M02/M09 A3032 RMK AO2 T10181095
2026-03-18 23:55:00,METAR KMQS 182355Z AUTO 00000KT 10SM CLR M01/M10 A3032 RMK AO2 T10111104 10022 21011 58004
2026-03-18 23:35:00,METAR KMQS 182335Z AUTO 00000KT 10SM CLR M01/M11 A3032 RMK AO2 T10061107
2026-03-18 23:15:00,METAR KMQS 182315Z AUTO 00000KT 9SM CLR M00/M11 A3032 RMK AO2 T10021112
2026-03-18 22:55:00,METAR KMQS 182255Z AUTO VRB03KT 10SM CLR 00/M12 A3033 RMK AO2 T00021117
2026-03-18 22:35:00,METAR KMQS 182235Z AUTO VRB03KT 10SM CLR 01/M12 A3032 RMK AO2 T00051118
2026-03-18 22:15:00,METAR KMQS 182215Z AUTO 20005KT 10SM CLR 01/M12 A3032 RMK AO2 T00081118
2026-03-18 21:55:00,METAR KMQS 182155Z AUTO VRB06KT 10SM CLR 01/M12 A3032 RMK AO2 T00111124
2026-03-18 21:35:00,METAR KMQS 182135Z AUTO VRB06KT 10SM CLR 01/M13 A3033 RMK AO2 T00101130
2026-03-18 21:15:00,METAR KMQS 182115Z AUTO VRB05KT 10SM CLR 01/M12 A3033 RMK AO2 T00131124
2026-03-18 20:55:00,METAR KMQS 182055Z AUTO VRB05KT 10SM CLR 01/M12 A3033 RMK AO2 T00141118 56016
2026-03-18 20:35:00,METAR KMQS 182035Z AUTO VRB05KT 10SM FEW055 02/M11 A3033 RMK AO2 T00181111
2026-03-18 20:15:00,METAR KMQS 182015Z AUTO VRB05KT 10SM SCT055 02/M11 A3034 RMK AO2 T00161114
2026-03-18 19:35:00,METAR KMQS 181935Z AUTO 26009KT 10SM CLR 02/M12 A3034 RMK AO2 T00171121
2026-03-18 19:15:00,METAR KMQS 181915Z AUTO 23003KT 10SM FEW050 01/M12 A3034 RMK AO2 T00141122
2026-03-18 18:55:00,METAR KMQS 181855Z AUTO 16006KT 10SM CLR 00/M12 A3035 RMK AO2 T00041119
2026-03-18 18:35:00,METAR KMQS 181835Z AUTO VRB06KT 10SM CLR 01/M12 A3035 RMK AO2 T00101117
2026-03-18 18:15:00,METAR KMQS 181815Z AUTO 17008KT 130V190 10SM FEW050 01/M11 A3036 RMK AO2 T00121115
2026-03-18 17:55:00,METAR KMQS 181755Z AUTO 00000KT 10SM CLR 00/M13 A3038 RMK AO2 T00021129 10006 21048 50003
2026-03-18 17:35:00,METAR KMQS 181735Z AUTO 00000KT 10SM CLR 00/M13 A3038 RMK AO2 T00031125
2026-03-18 17:15:00,METAR KMQS 181715Z AUTO VRB04KT 10SM FEW110 M00/M13 A3039 RMK AO2 T10021130
2026-03-18 16:55:00,METAR KMQS 181655Z AUTO 03004KT 10SM BKN095 OVC110 M00/M12 A3039 RMK AO2 T10021123
2026-03-18 16:35:00,METAR KMQS 181635Z AUTO 03005KT 9SM OVC085 M01/M12 A3039 RMK AO2 T10061124
2026-03-18 16:15:00,METAR KMQS 181615Z AUTO VRB04KT 9SM BKN090 OVC100 M01/M13 A3039 RMK AO2 T10131127
2026-03-18 15:55:00,METAR KMQS 181555Z AUTO 33005KT 10SM OVC100 M02/M13 A3039 RMK AO2 T10161128
2026-03-18 15:35:00,METAR KMQS 181535Z AUTO 00000KT 10SM BKN100 OVC120 M02/M13 A3039 RMK AO2 T10221132
2026-03-18 15:15:00,METAR KMQS 181515Z AUTO 01004KT 10SM OVC120 M02/M13 A3038 RMK AO2 T10211130
2026-03-18 14:55:00,METAR KMQS 181455Z AUTO 03008KT 10SM OVC130 M03/M13 A3037 RMK AO2 T10321134 56009
2026-03-18 14:35:00,METAR KMQS 181435Z AUTO 02007KT 10SM OVC130 M03/M13 A3036 RMK AO2 T10321127
2026-03-18 14:15:00,METAR KMQS 181415Z AUTO 35008KT 10SM BKN120 OVC140 M03/M12 A3036 RMK AO2 T10331117
2026-03-18 13:55:00,METAR KMQS 181355Z AUTO 01005KT 10SM OVC130 M04/M12 A3038 RMK AO2 T10381120
2026-03-18 13:35:00,METAR KMQS 181335Z AUTO 01005KT 10SM BKN130 OVC160 M04/M12 A3037 RMK AO2 T10401119
2026-03-18 13:15:00,METAR KMQS 181315Z AUTO 01007KT 10SM OVC150 M04/M12 A3037 RMK AO2 T10431117
2026-03-18 12:55:00,METAR KMQS 181255Z AUTO 36007KT 8SM OVC150 M04/M11 A3037 RMK AO2 T10421111
2026-03-18 12:35:00,METAR KMQS 181235Z AUTO 36006KT 8SM OVC150 M04/M11 A3039 RMK AO2 T10451108
2026-03-18 12:15:00,METAR KMQS 181215Z AUTO 34007KT 9SM BKN160 OVC180 M05/M11 A3039 RMK AO2 T10471108
2026-03-18 11:55:00,METAR KMQS 181155Z AUTO 32007KT 9SM BKN180 M05/M11 A3040 RMK AO2 T10501109 11040 21072 51038
2026-03-18 11:35:00,METAR KMQS 181135Z AUTO 30007KT 9SM SCT190 M05/M10 A3040 RMK AO2 T10551104
2026-03-18 11:15:00,METAR KMQS 181115Z AUTO 30006KT 9SM CLR M06/M10 A3039 RMK AO2 T10621103
2026-03-18 10:55:00,METAR KMQS 181055Z AUTO 29005KT 10SM CLR M06/M11 A3037 RMK AO2 T10631111
2026-03-18 10:35:00,METAR KMQS 181035Z AUTO 27004KT 10SM CLR M06/M11 A3035 RMK AO2 T10631112
2026-03-18 10:15:00,METAR KMQS 181015Z AUTO 30004KT 10SM FEW310 M07/M11 A3034 RMK AO2 T10701111
2026-03-18 09:55:00,METAR KMQS 180955Z AUTO 31005KT 10SM CLR M07/M12 A3032 RMK AO2 T10691116
2026-03-18 09:35:00,METAR KMQS 180935Z AUTO 31007KT 10SM CLR M06/M12 A3031 RMK AO2 T10631118
2026-03-18 09:15:00,METAR KMQS 180915Z AUTO 31007KT 10SM CLR M06/M12 A3030 RMK AO2 T10551119
2026-03-18 08:55:00,METAR KMQS 180855Z AUTO 31006KT 10SM CLR M05/M12 A3028 RMK AO2 T10541121 51014
2026-03-18 08:35:00,METAR KMQS 180835Z AUTO 31010KT 10SM CLR M05/M12 A3028 RMK AO2 T10521121
2026-03-18 08:15:00,METAR KMQS 180815Z AUTO 31008KT 10SM CLR M05/M12 A3027 RMK AO2 T10551116
2026-03-18 07:55:00,METAR KMQS 180755Z AUTO 31009KT 10SM CLR M05/M11 A3026 RMK AO2 T10531114
2026-03-18 07:35:00,METAR KMQS 180735Z AUTO 30007KT 10SM CLR M07/M11 A3026 RMK AO2 T10671115
2026-03-18 07:15:00,METAR KMQS 180715Z AUTO 29006KT 10SM CLR M06/M12 A3026 RMK AO2 T10631116
2026-03-18 06:55:00,METAR KMQS 180655Z AUTO 31007KT 10SM CLR M05/M12 A3026 RMK AO2 T10501122
2026-03-18 06:35:00,METAR KMQS 180635Z AUTO 31007KT 10SM CLR M05/M12 A3026 RMK AO2 T10461124
2026-03-18 06:15:00,METAR KMQS 180615Z AUTO 31009KT 10SM CLR M04/M13 A3025 RMK AO2 T10411127
2026-03-18 05:55:00,METAR KMQS 180555Z AUTO 32012KT 10SM CLR M04/M13 A3024 RMK AO2 60000 T10381130 11007 21040 400361040 51018
2026-03-18 05:35:00,METAR KMQS 180535Z AUTO 31012G17KT 10SM CLR M04/M13 A3024 RMK AO2 T10371131
2026-03-18 05:15:00,METAR KMQS 180515Z AUTO 31010KT 10SM CLR M04/M12 A3023 RMK AO2 T10381120
2026-03-18 04:55:00,METAR KMQS 180455Z AUTO 31011KT 10SM CLR M03/M12 A3022 RMK AO2 T10351121
2026-03-18 04:35:00,METAR KMQS 180435Z AUTO 31013G17KT 10SM CLR M03/M11 A3022 RMK AO2 T10331115
2026-03-18 04:15:00,METAR KMQS 180415Z AUTO 31009KT 10SM FEW038 SCT046 M03/M11 A3022 RMK AO2 T10321109
2026-03-18 03:55:00,METAR KMQS 180355Z AUTO 32014KT 10SM FEW029 BKN037 OVC048 M03/M10 A3021 RMK AO2 T10271100
2026-03-18 03:35:00,METAR KMQS 180335Z AUTO 32013KT 10SM BKN036 BKN045 M03/M09 A3021 RMK AO2 T10251091
2026-03-18 03:15:00,METAR KMQS 180315Z AUTO 31013KT 10SM BKN039 M03/M08 A3020 RMK AO2 T10261084
2026-03-18 02:55:00,METAR KMQS 180255Z AUTO 31011KT 10SM BKN041 BKN050 M02/M09 A3018 RMK AO2 60000 T10231093 51040
2026-03-18 02:35:00,METAR KMQS 180235Z AUTO 31012KT 10SM FEW044 SCT055 M02/M09 A3018 RMK AO2 T10241095
2026-03-18 02:15:00,METAR KMQS 180215Z AUTO 31014G21KT 10SM FEW070 M02/M09 A3016 RMK AO2 T10221088
2026-03-18 01:55:00,METAR KMQS 180155Z AUTO 30012KT 10SM FEW028 SCT033 BKN042 BKN055 OVC075 M02/M07 A3015 RMK AO2 UPB0112E0115SNB0115E0147 P0000 T10221069
2026-03-18 01:35:00,METAR KMQS 180135Z AUTO 29012KT 3SM -SN BKN033 OVC044 M02/M07 A3015 RMK AO2 UPB0112E0115SNB0115 P0000 T10181068
2026-03-18 01:15:00,METAR KMQS 180115Z AUTO 30019KT 6SM -SN SCT034 BKN045 OVC055 M01/M08 A3013 RMK AO2 UPB0112E0115SNB0115 P0000 T10121085
2026-03-18 00:55:00,METAR KMQS 180055Z AUTO 30011KT 10SM FEW050 SCT080 M02/M09 A3011 RMK AO2 T10171094
2026-03-18 00:35:00,METAR KMQS 180035Z AUTO 30011KT 10SM SCT055 BKN070 BKN080 M01/M10 A3010 RMK AO2 T10141097
2026-03-18 00:15:00,METAR KMQS 180015Z AUTO 29009KT 10SM OVC060 M01/M10 A3008 RMK AO2 T10101099
2026-03-17 23:55:00,METAR KMQS 172355Z AUTO 30014KT 10SM FEW060 BKN080 M01/M11 A3006 RMK AO2 T10071110 10036 21008 53034
2026-03-17 23:35:00,METAR KMQS 172335Z AUTO 31013KT 10SM BKN060 BKN080 M00/M11 A3006 RMK AO2 T10041110
2026-03-17 23:15:00,METAR KMQS 172315Z AUTO 29015KT 10SM FEW050 OVC065 M00/M12 A3005 RMK AO2 T10021117
2026-03-17 22:55:00,METAR KMQS 172255Z AUTO 29010KT 10SM SCT065 OVC080 00/M12 A3003 RMK AO2 T00011119
2026-03-17 22:35:00,METAR KMQS 172235Z AUTO 30013G21KT 10SM OVC075 00/M12 A3002 RMK AO2 T00041120
2026-03-17 22:15:00,METAR KMQS 172215Z AUTO 31013G19KT 10SM OVC060 00/M11 A3000 RMK AO2 T00051115
2026-03-17 21:55:00,METAR KMQS 172155Z AUTO 28013G18KT 10SM BKN060 BKN075 01/M11 A2999 RMK AO2 T00101111
2026-03-17 21:35:00,METAR KMQS 172135Z AUTO 28016G20KT 10SM SCT060 BKN075 01/M12 A2998 RMK AO2 T00091117
2026-03-17 21:15:00,METAR KMQS 172115Z AUTO 29015KT 10SM OVC060 01/M11 A2997 RMK AO2 T00141110
2026-03-17 20:55:00,METAR KMQS 172055Z AUTO 31016KT 10SM OVC060 01/M11 A2996 RMK AO2 PK WND 27027/1959 T00111109 53010
2026-03-17 20:35:00,METAR KMQS 172035Z AUTO 31016G21KT 10SM OVC065 01/M11 A2996 RMK AO2 PK WND 27027/1959 T00131109
2026-03-17 20:15:00,METAR KMQS 172015Z AUTO 28018G25KT 10SM OVC070 01/M11 A2995 RMK AO2 PK WND 27027/1959 T00151111
2026-03-17 19:55:00,METAR KMQS 171955Z AUTO 29019G26KT 10SM OVC060 01/M12 A2994 RMK AO2 PK WND 28027/1926 T00131119
2026-03-17 19:35:00,METAR KMQS 171935Z AUTO 28015G27KT 10SM OVC055 01/M11 A2993 RMK AO2 PK WND 28027/1926 T00141111
2026-03-17 19:15:00,METAR KMQS 171915Z AUTO 30016KT 10SM OVC055 02/M10 A2993 RMK AO2 T00181104
2026-03-17 18:55:00,METAR KMQS 171855Z AUTO 30018G25KT 10SM OVC050 04/M09 A2992 RMK AO2 T00361087
2026-03-17 18:35:00,METAR KMQS 171835Z AUTO 30014KT 10SM BKN050 OVC060 02/M09 A2992 RMK AO2 T00181091
2026-03-17 18:15:00,METAR KMQS 171815Z AUTO 31016G24KT 10SM BKN055 03/M09 A2992 RMK AO2 T00311092
2026-03-17 17:55:00,METAR KMQS 171755Z AUTO 29015G23KT 10SM SCT050 BKN060 02/M09 A2993 RMK AO2 T00231090 10028 21020 55004
2026-03-17 17:35:00,METAR KMQS 171735Z AUTO 29017KT 10SM OVC050 02/M09 A2993 RMK AO2 T00181094
2026-03-17 17:15:00,METAR KMQS 171715Z AUTO 31016G24KT 10SM BKN048 BKN060 02/M09 A2993 RMK AO2 T00221093
2026-03-17 16:55:00,METAR KMQS 171655Z AUTO 29013G20KT 10SM BKN047 02/M09 A2993 RMK AO2 PK WND 29027/1558 T00211088
2026-03-17 16:35:00,METAR KMQS 171635Z AUTO 32015G22KT 10SM BKN046 01/M10 A2993 RMK AO2 PK WND 29027/1558 T00081099
2026-03-17 16:15:00,METAR KMQS 171615Z AUTO 31017KT 10SM SCT046 02/M09 A2993 RMK AO2 PK WND 29027/1558 T00151089
2026-03-17 15:55:00,METAR KMQS 171555Z AUTO 30020G29KT 10SM SCT045 01/M09 A2994 RMK AO2 PK WND 30029/1546 T00111091
2026-03-17 15:35:00,METAR KMQS 171535Z AUTO 31021G26KT 10SM FEW044 01/M10 A2994 RMK AO2 PK WND 29027/1521 T00061096
2026-03-17 14:55:00,METAR KMQS 171455Z AUTO 29021G27KT 10SM BKN041 M00/M09 A2994 RMK AO2 PK WND 31027/1448 T10011089 51038
2026-03-17 14:35:00,METAR KMQS 171435Z AUTO 29018G24KT 10SM SCT040 M00/M08 A2993 RMK AO2 T10011079
2026-03-17 14:15:00,METAR KMQS 171415Z AUTO 30021KT 10SM FEW039 M01/M09 A2992 RMK AO2 T10061089
2026-03-17 13:55:00,METAR KMQS 171355Z AUTO 30019G24KT 10SM SCT039 M01/M09 A2991 RMK AO2 PK WND 28027/1326 T10091090
2026-03-17 13:35:00,METAR KMQS 171335Z AUTO 29015G27KT 10SM SCT039 M01/M09 A2990 RMK AO2 PK WND 28027/1326 T10141094
2026-03-17 13:15:00,METAR KMQS 171315Z AUTO 30015G23KT 10SM CLR M01/M08 A2988 RMK AO2 T10121085
2026-03-17 12:55:00,METAR KMQS 171255Z AUTO 31016KT 10SM CLR M02/M09 A2987 RMK AO2 PK WND 29029/1224 T10161090
2026-03-17 12:35:00,METAR KMQS 171235Z AUTO 29020G29KT 10SM CLR M02/M09 A2985 RMK AO2 PK WND 29029/1224 T10181092
2026-03-17 12:15:00,METAR KMQS 171215Z AUTO 30019KT 10SM CLR M02/M09 A2984 RMK AO2 T10191089
2026-03-17 11:55:00,METAR KMQS 171155Z AUTO 28015KT 10SM CLR M02/M09 A2983 RMK AO2 70051 T10211086 10008 21023 51049
2026-03-17 11:35:00,METAR KMQS 171135Z AUTO 29013G19KT 10SM CLR M02/M09 A2982 RMK AO2 T10231085
2026-03-17 11:15:00,METAR KMQS 171115Z AUTO 28012G20KT 10SM CLR M02/M09 A2981 RMK AO2 T10221089
2026-03-17 10:55:00,METAR KMQS 171055Z AUTO 29018G24KT 10SM CLR M02/M09 A2978 RMK AO2 PK WND 28031/1026 T10201091
2026-03-17 10:35:00,METAR KMQS 171035Z AUTO 28014G31KT 10SM SCT044 M02/M09 A2977 RMK AO2 PK WND 28031/1026 T10191089
2026-03-17 10:15:00,METAR KMQS 171015Z AUTO 29023G29KT 10SM SCT036 BKN046 M01/M07 A2975 RMK AO2 PK WND 29029/1014 T10131074
2026-03-17 09:55:00,METAR KMQS 170955Z AUTO 29017G24KT 10SM BKN037 OVC047 M01/M06 A2973 RMK AO2 T10091064
2026-03-17 09:35:00,METAR KMQS 170935Z AUTO 29016G23KT 10SM OVC042 M01/M07 A2972 RMK AO2 T10061066
2026-03-17 09:15:00,METAR KMQS 170915Z AUTO 28015G24KT 10SM BKN044 M01/M07 A2970 RMK AO2 T10061070
2026-03-17 08:55:00,METAR KMQS 170855Z AUTO 27015G27KT 10SM OVC040 M00/M07 A2968 RMK AO2 PK WND 28027/0841 T10031071 51035
2026-03-17 08:35:00,METAR KMQS 170835Z AUTO 27016G27KT 10SM OVC041 M00/M07 A2967 RMK AO2 PK WND 29027/0832 T10001066
2026-03-17 08:15:00,METAR KMQS 170815Z AUTO 27011G20KT 10SM FEW036 OVC046 00/M05 A2965 RMK AO2 LTG DSNT S T00031052
2026-03-17 07:55:00,METAR KMQS 170755Z AUTO 28015G21KT 10SM BKN039 BKN046 00/M04 A2965 RMK AO2 T00031042
2026-03-17 07:35:00,METAR KMQS 170735Z AUTO 29016KT 10SM BKN042 BKN050 00/M05 A2964 RMK AO2 T00021048
2026-03-17 07:15:00,METAR KMQS 170715Z AUTO 29017G24KT 10SM BKN044 00/M04 A2964 RMK AO2 T00031042
2026-03-17 06:55:00,METAR KMQS 170655Z AUTO 29021G28KT 10SM FEW048 01/M04 A2962 RMK AO2 PK WND 29028/0648 T00061036
2026-03-17 06:35:00,METAR KMQS 170635Z AUTO 28016G25KT 10SM CLR 01/M02 A2961 RMK AO2 LTG DSNT S PRESRR T00081021
2026-03-17 06:15:00,METAR KMQS 170615Z AUTO 28011KT 10SM FEW043 01/M01 A2959 RMK AO2 LTG DSNT S T00061007
2026-03-17 05:55:00,METAR KMQS 170555Z AUTO 28010KT 10SM BKN012 BKN042 01/00 A2958 RMK AO2 PK WND 30027/0503 LTG DSNT S SNE0452 CIG 010V014 P0000 60024 T00060004 10159 20006 401890006 51060
2026-03-17 05:35:00,METAR KMQS 170535Z AUTO 28013G18KT 10SM BKN012 BKN034 01/01 A2956 RMK AO2 PK WND 30027/0503 SNE0452 CIG 011V015 BKN012 V SCT P0000 T00060006
2026-03-17 05:15:00,METAR KMQS 170515Z AUTO 29016G26KT 6SM BR SCT008 BKN031 OVC100 01/01 A2955 RMK AO2 PK WND 30027/0503 SNE0452 P0000 T00060006
2026-03-17 04:55:00,METAR KMQS 170455Z AUTO 29017G27KT 3SM -SN BR OVC007 01/01 A2952 RMK AO2 PK WND 30033/0407 SNE0404B0431RAB0404E0431 CIG 007V010 OVC V BKN P0003 T00060006
2026-03-17 04:35:00,METAR KMQS 170435Z AUTO 30022G28KT 1SM -SN BR OVC007 01/01 A2952 RMK AO2 PK WND 30033/0407 SNE0404B0431RAB0404E0431 OVC V BKN PRESRR P0003 T00060006
2026-03-17 04:15:00,METAR KMQS 170415Z AUTO 30023G33KT 3/4SM -RA BR BKN008 BKN017 OVC055 01/01 A2948 RMK AO2 PK WND 30033/0407 SNE0404RAB0404 P0003 T00070007
2026-03-17 03:55:00,METAR KMQS 170355Z AUTO 30024G35KT 3/4SM -SN BR BKN009 OVC065 02/02 A2946 RMK AO2 PK WND 29042/0251 LTG DSNT S UPB0303E0310SNB0310RAE0303 PRESRR P0007 T00150015
2026-03-17 03:35:00,METAR KMQS 170335Z AUTO 31025G34KT 1SM -SN BR BKN010 BKN055 OVC065 02/02 A2944 RMK AO2 PK WND 29042/0251 UPB0303E0310SNB0310RAE0303 P0006 T00250025
2026-03-17 03:15:00,METAR KMQS 170315Z AUTO 30023G36KT 1SM -SN BR SCT011 SCT034 BKN042 OVC060 03/03 A2942 RMK AO2 PK WND 29042/0251 UPB0303E0310SNB0310RAE0303 P0004 T00310031
2026-03-17 02:55:00,METAR KMQS 170255Z AUTO 29037G43KT 1SM -RA BR FEW009 SCT019 BKN036 OVC047 04/04 A2940 RMK AO2 PK WND 30046/0220 WSHFT 0225 RAB0213 FEW V SCT PRESRR P0014 60014 T00400039 53022
2026-03-17 02:35:00,METAR KMQS 170235Z AUTO 30033G44KT 1/2SM -RA FG BKN009 BKN013 OVC019 05/05 A2934 RMK AO2 PK WND 30046/0220 WSHFT 0225 LTG DSNT S RAB0213 P0014 T00510051
2026-03-17 02:15:00,METAR KMQS 170215Z AUTO 28017G35KT 250V310 5SM -RA BR SCT007 OVC015 15/15 A2932 RMK AO2 PK WND 31035/0215 RAB0213 CIG 012V019 OVC V BKN PRESRR P0000 T01500150
2026-03-17 01:55:00,METAR KMQS 170155Z AUTO 16011G19KT 10SM BKN008 BKN015 OVC021 15/15 A2924 RMK AO2 CIG 007V011 BKN015 V OVC PRESFR T01520152
2026-03-17 01:35:00,METAR KMQS 170135Z AUTO 16009G19KT 10SM SCT009 OVC017 15/15 A2925 RMK AO2 CIG 014V021 SCT V BKN T01540154
2026-03-17 01:15:00,METAR KMQS 170115Z AUTO 16012G22KT 10SM SCT007 BKN013 OVC019 16/16 A2928 RMK AO2 CIG 011V016 T01570157
2026-03-17 00:55:00,METAR KMQS 170055Z AUTO 16010G19KT 10SM OVC007 16/16 A2929 RMK AO2 LTG DSNT S CIG 006V008 T01570157
2026-03-17 00:35:00,METAR KMQS 170035Z AUTO 15009G22KT 120V180 10SM OVC007 16/16 A2929 RMK AO2 CIG 006V010 T01570157
2026-03-17 00:15:00,METAR KMQS 170015Z AUTO 16010G17KT 10SM BKN008 OVC013 16/16 A2929 RMK AO2 CIG 007V010 PRESFR T01590159
2026-03-16 23:55:00,METAR KMQS 162355Z AUTO 17008KT 130V190 10SM OVC007 16/16 A2933 RMK AO2 LTG DSNT SE AND S CIG 007V011 60021 T01590159 10188 20157 58036
2026-03-16 23:35:00,METAR KMQS 162335Z AUTO 16011G16KT 120V190 10SM BKN008 OVC014 16/16 A2933 RMK AO2 LTG DSNT S CIG 007V011 BKN V OVC T01600160
2026-03-16 23:15:00,METAR KMQS 162315Z AUTO 17008G17KT 140V220 10SM BKN007 OVC014 16/16 A2934 RMK AO2 LTG DSNT S CIG 006V010 T01630163
2026-03-16 22:55:00,METAR KMQS 162255Z AUTO 17012G18KT 140V210 10SM OVC006 17/17 A2936 RMK AO2 RAE2245 CIG 005V011 P0002 T01660166
2026-03-16 22:35:00,METAR KMQS 162235Z AUTO 17011G19KT 6SM -RA BR OVC006 17/17 A2937 RMK AO2 LTG DSNT S CIG 005V009 PRESFR P0002 T01650165
2026-03-16 22:15:00,METAR KMQS 162215Z AUTO 17008G16KT 5SM -RA BR BKN007 BKN014 OVC090 16/16 A2939 RMK AO2 LTG DSNT S P0001 T01600160
2026-03-16 21:55:00,METAR KMQS 162155Z AUTO 17007KT 130V210 6SM -RA BR SCT009 OVC095 16/16 A2941 RMK AO2 LTG DSNT S RAE2056B2113 P0002 T01570157
2026-03-16 21:35:00,METAR KMQS 162135Z AUTO 17006G16KT 4SM -RA BR BKN009 BKN013 OVC018 16/16 A2941 RMK AO2 LTG DSNT S RAE2056B2113 OVC V BKN P0001 T01570157
2026-03-16 21:15:00,METAR KMQS 162115Z AUTO 20008G15KT 170V230 7SM -RA SCT012 BKN020 OVC110 16/15 A2943 RMK AO2 LTG DSNT S RAE2056B2113 CIG 018V023 P0000 T01630155
2026-03-16 20:55:00,METAR KMQS 162055Z AUTO 21008KT 170V250 2 1/2SM -RA BR BKN006 OVC014 16/16 A2944 RMK AO2 RAB2009 BKN V SCT P0017 60017 T01630163 56031
2026-03-16 20:35:00,METAR KMQS 162035Z AUTO VRB04KT 1SM RA BR FEW004 OVC015 17/17 A2944 RMK AO2 VIS 1/2V5 RAB2009 P0010 T01680168
2026-03-16 20:15:00,METAR KMQS 162015Z AUTO 19007G18KT 7SM -RA BKN015 OVC021 18/17 A2945 RMK AO2 LTG DSNT S AND SW RAB2009 CIG 012V020 BKN V OVC P0000 T01750165
2026-03-16 19:55:00,METAR KMQS 161955Z AUTO 17011G20KT 140V200 10SM BKN015 OVC020 18/17 A2946 RMK AO2 RAB1916E1930 CIG 013V018 P0000 T01770165
2026-03-16 19:35:00,METAR KMQS 161935Z AUTO 18010G20KT 150V210 10SM VCTS BKN015 OVC022 18/17 A2947 RMK AO2 RAB1916E1930 CIG 013V019 P0000 T01770166
2026-03-16 19:15:00,METAR KMQS 161915Z AUTO 18012G22KT 9SM OVC016 18/16 A2947 RMK AO2 CIG 015V019 OVC V BKN T01810164
2026-03-16 18:55:00,METAR KMQS 161855Z AUTO 19013G23KT 160V230 10SM OVC016 18/16 A2948 RMK AO2 PK WND 19028/1822 CIG 015V019 T01810164
2026-03-16 18:35:00,METAR KMQS 161835Z AUTO 19012G23KT 150V230 10SM BKN016 OVC023 18/17 A2950 RMK AO2 PK WND 19028/1822 CIG 015V020 T01820165
2026-03-16 18:15:00,METAR KMQS 161815Z AUTO 19009G24KT 150V220 10SM OVC021 19/16 A2951 RMK AO2 LTG DSNT NE AND S CIG 017V026 T01880164
2026-03-16 17:55:00,METAR KMQS 161755Z AUTO 19007G23KT 150V260 10SM BKN017 OVC025 19/17 A2953 RMK AO2 LTG DSNT N AND S CIG 015V020 BKN V OVC 60006 T01890171 10189 20143 56033
2026-03-16 17:35:00,METAR KMQS 161735Z AUTO 19008G22KT 160V230 10SM OVC016 18/17 A2953 RMK AO2 LTG DSNT S AND SW CIG 015V020 T01820168
2026-03-16 17:15:00,METAR KMQS 161715Z AUTO 18013G23KT 160V220 10SM OVC016 18/17 A2955 RMK AO2 LTG DSNT S CIG 011V020 T01800170
2026-03-16 16:55:00,METAR KMQS 161655Z AUTO 18010G20KT 140V220 10SM OVC012 18/18 A2955 RMK AO2 PK WND 19027/1618 RAB1619E1648 CIG 010V016 P0005 T01790177
2026-03-16 16:35:00,METAR KMQS 161635Z AUTO 17012G22KT 4SM -RA BR BKN013 OVC019 18/17 A2956 RMK AO2 PK WND 19027/1618 LTG DSNT N AND S AND SW RAB1619 CIG 011V016 BKN V OVC P0005 T01750173
2026-03-16 15:55:00,METAR KMQS 161555Z AUTO 20011G20KT 160V220 10SM BKN011 OVC017 18/17 A2959 RMK AO2 CIG 010V014 BKN V OVC T01790174
2026-03-16 15:35:00,METAR KMQS 161535Z AUTO 18012G20KT 10SM BKN010 OVC018 18/17 A2959 RMK AO2 LTG DSNT SW CIG 008V014 T01780175
2026-03-16 15:15:00,METAR KMQS 161515Z AUTO 16008KT 10SM BKN008 OVC015 17/17 A2961 RMK AO2 CIG 007V011 T01720172
2026-03-16 14:55:00,METAR KMQS 161455Z AUTO 17007KT 9SM BKN006 OVC012 16/16 A2963 RMK AO2 CIG 005V009 60001 T01650165 58015
2026-03-16 14:35:00,METAR KMQS 161435Z AUTO 17006KT 7SM OVC005 16/16 A2963 RMK AO2 CIG 004V008 T01610161
2026-03-16 14:15:00,METAR KMQS 161415Z AUTO 17007KT 7SM OVC004 16/16 A2963 RMK AO2 CIG 004V006 T01590159
2026-03-16 13:55:00,METAR KMQS 161355Z AUTO VRB05KT 6SM BR OVC004 16/16 A2964 RMK AO2 CIG 003V006 T01580158
2026-03-16 13:35:00,METAR KMQS 161335Z AUTO VRB05KT 6SM BR OVC004 16/16 A2965 RMK AO2 LTG DSNT S AND SW CIG 003V006 T01560156
2026-03-16 13:15:00,METAR KMQS 161315Z AUTO 17007KT 140V210 6SM BR OVC004 16/16 A2965 RMK AO2 T01560156
2026-03-16 12:55:00,METAR KMQS 161255Z AUTO 18008G15KT 2 1/2SM BR OVC002 15/15 A2966 RMK AO2 RAE1209 P0001 T01510151
2026-03-16 12:35:00,METAR KMQS 161235Z AUTO 16007KT 130V200 1/4SM FG VV002 15/15 A2966 RMK AO2 LTG DSNT S AND SW RAE1209 P0001 T01470147
2026-03-16 12:15:00,METAR KMQS 161215Z AUTO 16008KT 130V200 1 1/2SM BR OVC002 15/15 A2967 RMK AO2 LTG DSNT S RAE1209 P0001 T01460146
2026-03-16 11:55:00,METAR KMQS 161155Z AUTO 16007KT 3/4SM -RA BR VV002 14/14 A2967 RMK AO2 RAE1117B1132DZB1054E1058B1117E1132 P0001 60020 70032 T01420142 10142 20092 57032
2026-03-16 11:35:00,METAR KMQS 161135Z AUTO 15007KT M1/4SM -RA FG VV002 14/14 A2968 RMK AO2 RAE1117B1132DZB1054E1058B1117E1132 P0001 T01390139
2026-03-16 11:15:00,METAR KMQS 161115Z AUTO 16005KT M1/4SM -RA FG VV002 13/13 A2969 RMK AO2 DZB1054E1058 P0000 T01330133
2026-03-16 10:55:00,METAR KMQS 161055Z AUTO 16007KT 1/4SM -RA FG VV002 13/13 A2970 RMK AO2 RAE1032B1050DZB1012E1014B1032E1050 P0002 T01290129
2026-03-16 10:35:00,METAR KMQS 161035Z AUTO 16006KT 1/2SM -DZ FG VV002 13/13 A2971 RMK AO2 LTG DSNT S RAE1032DZB1012E1014B1032 P0002 T01250125
2026-03-16 10:15:00,METAR KMQS 161015Z AUTO 16005KT 1 1/4SM -RA BR OVC002 12/12 A2973 RMK AO2 LTG DSNT S DZB1012E1014 P0001 T01230123
2026-03-16 09:55:00,METAR KMQS 160955Z AUTO 16007KT 1/2SM -RA FG VV002 12/12 A2974 RMK AO2 LTG DSNT S RAE0856B0917DZB0856E0917 P0006 T01210121
2026-03-16 09:35:00,METAR KMQS 160935Z AUTO 14008KT 1/2SM -RA FG VV002 12/12 A2974 RMK AO2 RAE0856B0917DZB0856E0917 P0004 T01200120
2026-03-16 09:15:00,METAR KMQS 160915Z AUTO 14006KT 1/4SM -DZ FG VV002 12/12 A2975 RMK AO2 LTG DSNT S RAE0856DZB0856 P0001 T01180118
2026-03-16 08:55:00,METAR KMQS 160855Z AUTO 14006KT 1/4SM -RA FG VV002 12/12 A2977 RMK AO2 LTG DSNT S RAB0821DZB0814E0821 P0001 60011 T01150115 56044
2026-03-16 08:35:00,METAR KMQS 160835Z AUTO 15006KT 1/4SM -RA FG VV002 12/12 A2978 RMK AO2 RAB0821DZB0814E0821 P0001 T01150115
2026-03-16 08:15:00,METAR KMQS 160815Z AUTO 16009KT 1/2SM -DZ FG VV002 11/11 A2980 RMK AO2 DZB0814 P0001 T01140114
2026-03-16 07:55:00,METAR KMQS 160755Z AUTO 17008G16KT 2 1/2SM BR OVC002 12/12 A2981 RMK AO2 RAE0746 P0005 T01150115
2026-03-16 07:35:00,METAR KMQS 160735Z AUTO 16012G17KT 2SM -RA BR OVC002 11/11 A2981 RMK AO2 P0005 T01150115
2026-03-16 07:15:00,METAR KMQS 160715Z AUTO 16009G18KT 1SM -RA BR VV002 12/12 A2983 RMK AO2 P0002 T01150115
2026-03-16 06:55:00,METAR KMQS 160655Z AUTO 15010G18KT 110V180 9SM -RA OVC003 12/12 A2984 RMK AO2 RAE0557B0613DZB0557E0613 P0005 T01150115
2026-03-16 06:35:00,METAR KMQS 160635Z AUTO 15011G16KT 060V170 2 1/2SM -RA BR OVC003 11/11 A2985 RMK AO2 VIS 1 1/4V5 LTG DSNT S RAE0557B0613DZB0557E0613 P0005 T01070107
2026-03-16 06:15:00,METAR KMQS 160615Z AUTO 13008KT 1/2SM -RA FG VV002 09/09 A2987 RMK AO2 RAE0557B0613DZB0557E0613 PRESFR P0002 T00950095
2026-03-16 05:55:00,METAR KMQS 160555Z AUTO 13006KT 1 3/4SM -RA BR OVC003 09/09 A2990 RMK AO2 LTG DSNT S P0008 60012 T00900090 10090 20074 400900022 58053
2026-03-16 05:35:00,METAR KMQS 160535Z AUTO 12009KT 2 1/2SM -RA BR OVC003 09/09 A2991 RMK AO2 LTG DSNT S P0007 T00880088
2026-03-16 05:15:00,METAR KMQS 160515Z AUTO 12009KT 4SM -RA BR OVC004 09/09 A2993 RMK AO2 PRESFR P0005 T00860086
2026-03-16 04:55:00,METAR KMQS 160455Z AUTO 12008KT 2 1/2SM -RA BR BKN005 OVC012 09/09 A2997 RMK AO2 RAB0408 CIG 004V008 P0004 T00860086
2026-03-16 04:35:00,METAR KMQS 160435Z AUTO 12009KT 4SM -RA BR BKN005 OVC012 09/09 A2997 RMK AO2 RAB0408 CIG 004V008 P0001 T00860086
2026-03-16 04:15:00,METAR KMQS 160415Z AUTO 12008KT 4SM -RA BR SCT005 BKN018 OVC023 09/08 A2999 RMK AO2 RAB0408 CIG 016V020 P0000 T00860084
2026-03-16 03:55:00,METAR KMQS 160355Z AUTO 13009KT 10SM FEW018 OVC023 09/08 A3001 RMK AO2 T00890077
2026-03-16 03:35:00,METAR KMQS 160335Z AUTO 13011G19KT 10SM OVC021 09/08 A3002 RMK AO2 CIG 016V025 T00880075
2026-03-16 03:15:00,METAR KMQS 160315Z AUTO 13012G16KT 10SM OVC021 09/07 A3004 RMK AO2 CIG 017V025 PRESFR T00860071
2026-03-16 02:55:00,METAR KMQS 160255Z AUTO 13009G17KT 10SM OVC023 08/07 A3006 RMK AO2 CIG 020V025 T00840067 58036
2026-03-16 02:35:00,METAR KMQS 160235Z AUTO 13011G16KT 10SM OVC023 08/06 A3007 RMK AO2 LTG DSNT S T00820062
2026-03-16 02:15:00,METAR KMQS 160215Z AUTO 12010KT 10SM OVC023 08/06 A3008 RMK AO2 T00810057
2026-03-16 01:55:00,METAR KMQS 160155Z AUTO 12012G15KT 10SM OVC024 08/05 A3011 RMK AO2 T00800052
2026-03-16 01:35:00,METAR KMQS 160135Z AUTO 12011KT 10SM OVC024 08/05 A3012 RMK AO2 T00790048
2026-03-16 01:15:00,METAR KMQS 160115Z AUTO 12009KT 10SM OVC025 08/04 A3013 RMK AO2 T00780045
2026-03-16 00:55:00,METAR KMQS 160055Z AUTO 11011KT 10SM OVC025 08/04 A3015 RMK AO2 T00770039
2026-03-16 00:35:00,METAR KMQS 160035Z AUTO 11009KT 10SM OVC026 08/04 A3016 RMK AO2 T00760037
2026-03-16 00:15:00,METAR KMQS 160015Z AUTO 11011G16KT 10SM OVC027 07/03 A3016 RMK AO2 CIG 026V031 T00750034
2026-03-15 23:55:00,METAR KMQS 152355Z AUTO 12009KT 10SM OVC026 07/03 A3017 RMK AO2 CIG 026V031 T00740033 10081 20071 58019
2026-03-15 23:35:00,METAR KMQS 152335Z AUTO 12010KT 10SM BKN026 OVC032 07/03 A3017 RMK AO2 T00740031
2026-03-15 23:15:00,METAR KMQS 152315Z AUTO 12012KT 10SM SCT026 OVC032 07/03 A3019 RMK AO2 T00740029
2026-03-15 22:55:00,METAR KMQS 152255Z AUTO 12010KT 10SM OVC026 07/02 A3019 RMK AO2 T00730023
2026-03-15 22:35:00,METAR KMQS 152235Z AUTO 11010KT 10SM OVC026 07/02 A3019 RMK AO2 T00730020
2026-03-15 22:15:00,METAR KMQS 152215Z AUTO 13008KT 10SM OVC026 07/02 A3021 RMK AO2 T00730016
2026-03-15 21:55:00,METAR KMQS 152155Z AUTO 12008KT 10SM OVC026 07/01 A3022 RMK AO2 LTG DSNT N AND S T00740012
2026-03-15 21:35:00,METAR KMQS 152135Z AUTO 13008KT 10SM OVC026 07/01 A3022 RMK AO2 LTG DSNT S OVC V BKN T00750009
2026-03-15 21:15:00,METAR KMQS 152115Z AUTO 13011G17KT 10SM SCT026 OVC035 08/00 A3022 RMK AO2 T00770003
2026-03-15 20:55:00,METAR KMQS 152055Z AUTO 13010G18KT 10SM OVC037 08/M00 A3023 RMK AO2 LTG DSNT N T00771005 56032
2026-03-15 20:35:00,METAR KMQS 152035Z AUTO 12013G16KT 10SM OVC036 08/M01 A3023 RMK AO2 T00771009
2026-03-15 20:15:00,METAR KMQS 152015Z AUTO 14011G17KT 10SM OVC037 08/M02 A3024 RMK AO2 T00781015
2026-03-15 19:55:00,METAR KMQS 151955Z AUTO 12011G21KT 9SM OVC039 08/M02 A3025 RMK AO2 T00771023
2026-03-15 19:35:00,METAR KMQS 151935Z AUTO 14007G17KT 100V190 9SM OVC039 08/M03 A3026 RMK AO2 T00771029
2026-03-15 19:15:00,METAR KMQS 151915Z AUTO 12014G18KT 9SM OVC041 08/M03 A3026 RMK AO2 T00781034
2026-03-15 18:55:00,METAR KMQS 151855Z AUTO 15011G19KT 10SM OVC042 08/M05 A3028 RMK AO2 T00791048
2026-03-15 18:35:00,METAR KMQS 151835Z AUTO 14011G19KT 120V190 10SM OVC043 08/M05 A3029 RMK AO2 T00791051
2026-03-15 18:15:00,METAR KMQS 151815Z AUTO 13010G17KT 10SM OVC044 07/M05 A3031 RMK AO2 T00751047
2026-03-15 17:55:00,METAR KMQS 151755Z AUTO 15010G17KT 9SM OVC044 07/M05 A3032 RMK AO2 T00681052 10070 20026 58019
2026-03-15 17:35:00,METAR KMQS 151735Z AUTO 13010G18KT 9SM OVC044 07/M05 A3033 RMK AO2 T00671050
2026-03-15 17:15:00,METAR KMQS 151715Z AUTO 14008G17KT 10SM OVC046 06/M05 A3034 RMK AO2 T00631050
2026-03-15 16:55:00,METAR KMQS 151655Z AUTO 13008G17KT 9SM OVC046 07/M05 A3035 RMK AO2 T00651049
2026-03-15 16:35:00,METAR KMQS 151635Z AUTO 13016G23KT 9SM OVC047 06/M05 A3035 RMK AO2 T00641050
2026-03-15 16:15:00,METAR KMQS 151615Z AUTO 13009G15KT 10SM OVC048 06/M05 A3036 RMK AO2 T00611049
2026-03-15 15:55:00,METAR KMQS 151555Z AUTO 14009KT 110V180 10SM OVC055 06/M05 A3037 RMK AO2 T00561051
2026-03-15 15:35:00,METAR KMQS 151535Z AUTO 11009KT 10SM SCT049 OVC060 06/M05 A3037 RMK AO2 LTG DSNT N AND S T00571054
2026-03-15 15:15:00,METAR KMQS 151515Z AUTO 14010G17KT 10SM BKN049 OVC060 06/M06 A3038 RMK AO2 T00581055
2026-03-15 14:55:00,METAR KMQS 151455Z AUTO 13011G18KT 10SM BKN050 06/M05 A3038 RMK AO2 T00581052 51008
2026-03-15 14:35:00,METAR KMQS 151435Z AUTO 12011G16KT 10SM BKN055 06/M04 A3038 RMK AO2 T00621042
2026-03-15 14:15:00,METAR KMQS 151415Z AUTO 13009KT 10SM FEW050 05/M04 A3038 RMK AO2 T00531040
2026-03-15 13:55:00,METAR KMQS 151355Z AUTO 12010KT 10SM SCT050 05/M04 A3038 RMK AO2 T00511035
2026-03-15 13:35:00,METAR KMQS 151335Z AUTO 13010G15KT 10SM SCT050 BKN150 BKN330 04/M04 A3038 RMK AO2 T00431042
2026-03-15 13:15:00,METAR KMQS 151315Z AUTO 13008KT 10SM SCT050 BKN150 OVC330 04/M05 A3038 RMK AO2 T00381046
2026-03-15 12:55:00,METAR KMQS 151255Z AUTO 12009KT 10SM BKN050 OVC190 03/M05 A3038 RMK AO2 T00351052
2026-03-15 12:35:00,METAR KMQS 151235Z AUTO 11010KT 10SM BKN050 BKN190 03/M06 A3038 RMK AO2 T00301055
2026-03-15 12:15:00,METAR KMQS 151215Z AUTO 11009KT 10SM BKN050 OVC190 03/M06 A3037 RMK AO2 T00281059
2026-03-15 11:55:00,METAR KMQS 151155Z AUTO 10008KT 10SM OVC190 03/M07 A3036 RMK AO2 T00251065 10040 20022 50013
2026-03-15 11:35:00,METAR KMQS 151135Z AUTO 10006KT 10SM BKN190 02/M07 A3036 RMK AO2 T00241065
2026-03-15 11:15:00,METAR KMQS 151115Z AUTO 11009KT 10SM SCT190 02/M07 A3037 RMK AO2 LTG DSNT N AND SW T00221068
2026-03-15 10:55:00,METAR KMQS 151055Z AUTO 12007KT 10SM SCT150 OVC190 03/M07 A3037 RMK AO2 T00251070
2026-03-15 10:35:00,METAR KMQS 151035Z AUTO 12006KT 10SM OVC150 03/M07 A3038 RMK AO2 T00271074
2026-03-15 10:15:00,METAR KMQS 151015Z AUTO 12007KT 10SM OVC130 03/M08 A3037 RMK AO2 T00281076
2026-03-15 09:55:00,METAR KMQS 150955Z AUTO 12006KT 10SM OVC130 03/M08 A3037 RMK AO2 T00291076
2026-03-15 09:35:00,METAR KMQS 150935Z AUTO 11004KT 10SM OVC140 03/M08 A3036 RMK AO2 T00251077
2026-03-15 09:15:00,METAR KMQS 150915Z AUTO 10006KT 10SM OVC140 03/M08 A3035 RMK AO2 PRESRR T00301084
2026-03-15 08:55:00,METAR KMQS 150855Z AUTO 09007KT 10SM OVC130 03/M09 A3032 RMK AO2 T00321088 58004
2026-03-15 08:35:00,METAR KMQS 150835Z AUTO 09006KT 10SM OVC130 03/M09 A3033 RMK AO2 T00301085
2026-03-15 08:15:00,METAR KMQS 150815Z AUTO 10006KT 10SM OVC130 03/M09 A3033 RMK AO2 T00291092
