Time_recorded,METAR
2026-05-02 14:56:00,METAR KBLM 021456Z AUTO 27006KT 10SM OVC080 13/09 A2990 RMK AO2 SLP127 6//// T01280089 55002 PNO $
2026-05-02 13:56:00,METAR KBLM 021356Z AUTO 29010KT 10SM OVC075 13/09 A2990 RMK AO2 SLP126 T01280094 PNO $
2026-05-02 12:56:00,METAR KBLM 021256Z AUTO 29007KT 10SM FEW075 OVC100 13/09 A2991 RMK AO2 SLP130 T01280094 PNO $
2026-05-02 11:56:00,METAR KBLM 021156Z AUTO 27004KT 10SM OVC100 11/ A2991 RMK AO2 SLP129 6//// 7//// T0106 10106 20089 53006 PNO $
2026-05-02 10:56:00,METAR KBLM 021056Z AUTO 23005KT 10SM BKN065 BKN110 09/ A2990 RMK AO2 SLP127 T0089 PNO $
2026-05-02 09:56:00,METAR KBLM 020956Z AUTO 25004KT 10SM SCT048 OVC075 09/ A2989 RMK AO2 SLP123 T0089 PNO $
2026-05-02 08:56:00,METAR KBLM 020856Z AUTO 21004KT 10SM FEW065 09/ A2989 RMK AO2 SLP122 6//// T0089 56006 PNO $
2026-05-02 07:56:00,METAR KBLM 020756Z AUTO 22005KT 10SM BKN070 09/ A2990 RMK AO2 SLP126 T0094 PNO $
2026-05-02 06:56:00,METAR KBLM 020656Z AUTO 19004KT 10SM BKN110 09/ A2989 RMK AO2 SLP121 T0094 PNO $
2026-05-02 05:56:00,METAR KBLM 020556Z AUTO 21007KT 10SM BKN110 10/10 A2991 RMK AO2 SLP127 6//// T01000100 10122 20094 55002 PNO $
2026-05-02 04:56:00,METAR KBLM 020456Z AUTO 18004KT 10SM FEW110 09/09 A2991 RMK AO2 SLP128 T00940094 401780061 PNO $
2026-05-02 03:56:00,METAR KBLM 020356Z AUTO 19004KT 10SM CLR 10/07 A2991 RMK AO2 SLP129 T01000072 PNO $
2026-05-02 02:56:00,METAR KBLM 020256Z AUTO 20006KT 10SM FEW120 10/04 A2991 RMK AO2 SLP131 6//// T01000039 50010 PNO $
2026-05-02 01:56:00,METAR KBLM 020156Z AUTO 19006KT 10SM CLR 11/04 A2992 RMK AO2 SLP132 T01060044 PNO $
2026-05-02 00:56:00,METAR KBLM 020056Z AUTO 17005KT 10SM CLR 12/09 A2989 RMK AO2 SLP124 T01170089 PNO $
2026-05-01 23:56:00,METAR KBLM 012356Z AUTO 15005KT 10SM CLR 12/10 A2988 RMK AO2 SLP121 6//// T01220100 10178 20122 53005 PNO $
2026-05-01 22:56:00,METAR KBLM 012256Z AUTO 14007KT 10SM CLR 14/08 A2987 RMK AO2 SLP115 T01390078 PNO $
2026-05-01 21:56:00,METAR KBLM 012156Z AUTO 15008KT 10SM CLR 15/08 A2987 RMK AO2 SLP115 T01500078 PNO $
2026-05-01 20:56:00,METAR KBLM 012056Z AUTO 15010G16KT 10SM CLR 15/07 A2987 RMK AO2 SLP116 6//// T01500072 56010 PNO $
2026-05-01 19:56:00,METAR KBLM 011956Z AUTO 14013KT 10SM CLR 15/06 A2987 RMK AO2 SLP117 T01500056 PNO $
2026-05-01 18:56:00,METAR KBLM 011856Z AUTO 13009KT 110V180 10SM CLR 16/07 A2989 RMK AO2 SLP124 T01560067 PNO $
2026-05-01 17:56:00,METAR KBLM 011756Z AUTO 00000KT 10SM CLR 16/03 A2990 RMK AO2 SLP125 6//// T01560033 10172 20100 58015 PNO $
2026-05-01 16:56:00,METAR KBLM 011656Z AUTO 27008KT 220V290 10SM CLR 15/02 A2992 RMK AO2 SLP130 T01500022 PNO $
2026-05-01 15:56:00,METAR KBLM 011556Z AUTO 33004G15KT 10SM CLR 14/01 A2994 RMK AO2 SLP137 T01440011 PNO $
2026-05-01 14:56:00,METAR KBLM 011456Z AUTO 24005KT 10SM CLR 14/02 A2995 RMK AO2 SLP140 6//// T01390022 55002 PNO $
2026-05-01 13:56:00,METAR KBLM 011356Z AUTO 31008KT 10SM CLR 12/01 A2994 RMK AO2 SLP141 T01220011 PNO $
2026-05-01 12:56:00,METAR KBLM 011256Z AUTO 33014KT 10SM CLR 12/02 A2995 RMK AO2 SLP143 T01170022 PNO $
2026-05-01 11:56:00,METAR KBLM 011156Z AUTO 31006KT 10SM CLR 10/05 A2995 RMK AO2 SLP143 6//// 7//// T01000050 10100 20061 51015 PNO $
2026-05-01 10:56:00,METAR KBLM 011056Z AUTO 28005KT 10SM CLR 07/07 A2995 RMK AO2 SLP142 T00720072 PNO $
2026-05-01 09:56:00,METAR KBLM 010956Z AUTO 27004KT 10SM CLR 06/ A2993 RMK AO2 SLP135 T0061 PNO $
2026-05-01 08:56:00,METAR KBLM 010856Z AUTO 29007KT 10SM FEW070 07/ A2991 RMK AO2 SLP128 6//// T0072 53011 PNO $
2026-05-01 07:56:00,METAR KBLM 010756Z AUTO 30006KT 10SM CLR 08/ A2989 RMK AO2 SLP123 T0078 PNO $
2026-05-01 06:56:00,METAR KBLM 010656Z AUTO 30008KT 10SM CLR 09/ A2988 RMK AO2 SLP120 T0089 PNO $
2026-05-01 05:56:00,METAR KBLM 010556Z AUTO 28007KT 10SM OVC065 10/ A2987 RMK AO2 SLP117 6//// T0100 10133 20100 53009 PNO $
2026-05-01 04:56:00,METAR KBLM 010456Z AUTO 30005KT 10SM SCT048 OVC060 11/ A2986 RMK AO2 SLP113 T0106 401720083 PNO $
2026-05-01 03:56:00,METAR KBLM 010356Z AUTO 30007KT 10SM OVC048 11/ A2986 RMK AO2 SLP111 T0106 PNO $
2026-05-01 02:56:00,METAR KBLM 010256Z AUTO 28008KT 10SM BKN055 OVC110 11/ A2985 RMK AO2 RAE0157 SLP108 6//// T0111 51020 PNO $
2026-05-01 01:56:00,METAR KBLM 010156Z AUTO 28007KT 10SM -RA SCT060 BKN075 OVC100 11/ A2984 RMK AO2 RAB31 SLP106 T0111 PNO $
2026-05-01 00:56:00,METAR KBLM 010056Z AUTO 30006KT 10SM FEW080 OVC100 13/09 A2981 RMK AO2 SLP095 T01280094 PNO $
2026-04-30 23:56:00,METAR KBLM 302356Z AUTO 29003KT 10SM FEW095 13/09 A2979 RMK AO2 SLP088 6//// T01330094 10172 20133 51013 PNO $
2026-04-30 22:56:00,METAR KBLM 302256Z AUTO 31003KT 10SM OVC090 16/08 A2977 RMK AO2 SLP083 T01560083 PNO $
2026-04-30 21:56:00,METAR KBLM 302156Z AUTO 30005KT 10SM FEW044 OVC070 16/09 A2977 RMK AO2 SLP082 T01560089 PNO $
2026-04-30 20:56:00,METAR KBLM 302056Z AUTO 31009KT 10SM BKN038 BKN048 OVC080 17/09 A2975 RMK AO2 SLP073 6//// T01670094 55003 PNO $
2026-04-30 20:20:00,SPECI KBLM 302020Z AUTO 30009KT 10SM FEW028 SCT041 BKN075 16/11 A2974 RMK AO2 PNO $
2026-04-30 19:56:00,METAR KBLM 301956Z AUTO 34007KT 10SM BKN028 BKN035 OVC070 16/12 A2974 RMK AO2 SLP070 T01560122 PNO $
2026-04-30 19:11:00,SPECI KBLM 301911Z AUTO 30003KT 10SM SCT021 SCT031 OVC055 15/13 A2974 RMK AO2 PNO $
2026-04-30 18:56:00,METAR KBLM 301856Z AUTO 00000KT 10SM BKN021 OVC031 14/14 A2975 RMK AO2 SLP076 T01390139 PNO $
2026-04-30 18:04:00,SPECI KBLM 301804Z AUTO 30005KT 10SM SCT021 BKN029 OVC044 14/13 A2976 RMK AO2 PNO $
2026-04-30 17:56:00,METAR KBLM 301756Z AUTO VRB03KT 10SM SCT021 BKN031 OVC060 13/13 A2976 RMK AO2 SLP077 6//// T01330133 10139 20089 56009 PNO $
2026-04-30 17:24:00,SPECI KBLM 301724Z AUTO 26006KT 10SM OVC015 13/13 A2977 RMK AO2 PNO $
2026-04-30 16:56:00,METAR KBLM 301656Z AUTO 26005KT 10SM OVC013 12/ A2977 RMK AO2 SLP081 T0122 PNO $
2026-04-30 16:32:00,SPECI KBLM 301632Z AUTO 30008KT 10SM SCT009 BKN014 OVC018 12/ A2976 RMK AO2 PNO $
2026-04-30 15:56:00,METAR KBLM 301556Z AUTO 30008KT 10SM OVC009 12/ A2976 RMK AO2 SLP078 T0117 PNO $
2026-04-30 14:56:00,METAR KBLM 301456Z AUTO 29006KT 10SM OVC009 11/ A2978 RMK AO2 CIG 006V012 SLP087 6//// T0111 53002 PNO $
2026-04-30 14:29:00,SPECI KBLM 301429Z AUTO VRB03KT 10SM OVC007 11/ A2977 RMK AO2 CIG 004V010 PNO $
2026-04-30 13:56:00,METAR KBLM 301356Z AUTO 00000KT 10SM OVC005 11/ A2977 RMK AO2 CIG 004V008 SLP082 T0106 PNO $
2026-04-30 12:56:00,METAR KBLM 301256Z AUTO 00000KT 6SM HZ OVC005 09/ A2977 RMK AO2 SLP083 T0094 PNO $
2026-04-30 11:56:00,METAR KBLM 301156Z AUTO 00000KT 10SM OVC005 09/ A2978 RMK AO2 SLP085 6//// 7//// T0089 10089 20083 53004 PNO $
2026-04-30 10:56:00,METAR KBLM 301056Z AUTO 00000KT 10SM OVC005 09/ A2977 RMK AO2 SLP083 T0089 PNO $
2026-04-30 10:41:00,SPECI KBLM 301041Z AUTO 11004KT 10SM OVC005 09/ A2977 RMK AO2 CIG 003V008 PNO $
2026-04-30 10:03:00,SPECI KBLM 301003Z AUTO 10005KT 10SM OVC003 08/ A2976 RMK AO2 PNO $
2026-04-30 09:56:00,METAR KBLM 300956Z AUTO 10005KT 10SM OVC005 08/ A2976 RMK AO2 RAB06E25 CIG 003V007 SLP078 T0083 PNO $
2026-04-30 08:56:00,METAR KBLM 300856Z AUTO 12004KT 3SM BR BKN005 OVC008 08/ A2977 RMK AO2 RAE54 CIG 001V005 SLP080 6//// T0083 58012 PNO $
2026-04-30 08:50:00,SPECI KBLM 300850Z AUTO 12004KT 3SM -RA BKN005 OVC017 08/ A2977 RMK AO2 CIG 001V008 PNO $
2026-04-30 08:38:00,SPECI KBLM 300838Z AUTO 11004KT 2 1/2SM -RA BKN003 BKN007 OVC021 08/ A2977 RMK AO2 CIG 001V005 PNO $
2026-04-30 08:31:00,SPECI KBLM 300831Z AUTO 10004KT 2 1/2SM -RA BKN005 OVC021 08/ A2977 RMK AO2 CIG 003V008 PNO $
2026-04-30 07:56:00,METAR KBLM 300756Z AUTO 08003KT 9SM -RA SCT009 OVC023 08/ A2978 RMK AO2 SLP084 T0083 PNO $
2026-04-30 07:15:00,SPECI KBLM 300715Z AUTO 00000KT 7SM -RA FEW004 BKN009 OVC025 08/ A2979 RMK AO2 CIG 006V014 PNO $
2026-04-30 06:56:00,METAR KBLM 300656Z AUTO 00000KT 8SM RA SCT006 OVC027 08/ A2979 RMK AO2 SLP090 T0083 PNO $
2026-04-30 06:48:00,SPECI KBLM 300648Z AUTO 06003KT 10SM -RA SCT006 OVC029 08/ A2979 RMK AO2 PNO $
2026-04-30 05:56:00,METAR KBLM 300556Z AUTO 08003KT 7SM RA FEW008 BKN035 OVC043 08/ A2980 RMK AO2 SLP092 6//// T0083 10094 20083 53005 PNO $
2026-04-30 05:19:00,SPECI KBLM 300519Z AUTO VRB04KT 10SM -RA BKN006 BKN049 OVC060 08/ A2981 RMK AO2 CIG 004V015 PNO $
2026-04-30 04:56:00,METAR KBLM 300456Z AUTO 12017G24KT 4SM RA FEW006 OVC055 08/ A2976 RMK AO2 PRESFR SLP079 T0083 401500083 PNO $
2026-04-30 04:51:00,SPECI KBLM 300451Z AUTO 13014KT 4SM RA FEW006 BKN049 OVC060 08/ A2979 RMK AO2 PRESFR 401500083 PNO $
2026-04-30 04:44:00,SPECI KBLM 300444Z AUTO 13011G15KT 5SM RA BKN006 BKN042 OVC049 08/ A2982 RMK AO2 CIG 004V013 PRESFR PNO $
2026-04-30 04:31:00,SPECI KBLM 300431Z AUTO 14005KT 5SM +RA SCT006 BKN035 OVC065 08/ A2984 RMK AO2 PNO $
2026-04-30 04:23:00,SPECI KBLM 300423Z AUTO 15004KT 2 1/2SM +RA SCT006 BKN033 OVC060 09/ A2985 RMK AO2 PNO $
2026-04-30 03:56:00,METAR KBLM 300356Z AUTO 18007KT 10SM -RA FEW006 BKN031 OVC085 09/ A2985 RMK AO2 PRESRR SLP110 T0089 PNO $
2026-04-30 03:34:00,SPECI KBLM 300334Z AUTO 11007KT 9SM -RA SCT006 BKN021 OVC085 09/ A2982 RMK AO2 CIG 013V033 PNO $
2026-04-30 02:56:00,METAR KBLM 300256Z AUTO 10006KT 6SM -RA FEW007 BKN060 OVC085 09/ A2985 RMK AO2 SLP110 6//// T0094 56007 PNO $
2026-04-30 01:56:00,METAR KBLM 300156Z AUTO 10004KT 7SM -RA FEW006 SCT036 OVC095 09/ A2987 RMK AO2 SLP115 P0000 T0094 $
2026-04-30 01:49:00,SPECI KBLM 300149Z AUTO 12003KT 8SM -RA SCT006 BKN037 OVC095 09/ A2987 RMK AO2 P0000 $
2026-04-30 01:28:00,SPECI KBLM 300128Z AUTO 21004KT 10SM -RA BKN004 BKN060 OVC075 09/ A2988 RMK AO2 P0000 $
2026-04-30 01:04:00,SPECI KBLM 300104Z AUTO 12007KT 9SM -RA FEW004 SCT070 OVC090 09/ A2985 RMK AO2 P0000 $
2026-04-30 00:56:00,METAR KBLM 300056Z AUTO 11008KT 9SM -RA SCT070 OVC095 09/ A2985 RMK AO2 RAB17 SLP109 P0000 T0094 $
2026-04-29 23:56:00,METAR KBLM 292356Z AUTO 14006KT 10SM FEW045 OVC075 10/ A2988 RMK AO2 SLP118 T0100 10150 20100 56004 $
2026-04-29 22:56:00,METAR KBLM 292256Z AUTO 14006KT 10SM BKN075 OVC110 11/11 A2989 RMK AO2 SLP121 T01060106 $
2026-04-29 21:56:00,METAR KBLM 292156Z AUTO 14007KT 10SM BKN080 11/11 A2988 RMK AO2 SLP117 T01060106 $
2026-04-29 20:56:00,METAR KBLM 292056Z AUTO 11011KT 10SM OVC100 11/10 A2989 RMK AO2 SLP122 T01110100 58026 $
2026-04-29 19:56:00,METAR KBLM 291956Z AUTO 15010KT 10SM FEW095 12/08 A2993 RMK AO2 SLP136 T01220083 $
2026-04-29 18:56:00,METAR KBLM 291856Z AUTO 15010G14KT 110V180 10SM BKN100 13/07 A2996 RMK AO2 SLP145 T01280067 $
2026-04-29 17:56:00,METAR KBLM 291756Z AUTO 13009KT 10SM BKN085 14/07 A2997 RMK AO2 SLP147 T01440072 10150 20117 58012 $
2026-04-29 16:56:00,METAR KBLM 291656Z AUTO 14008KT 110V190 10SM CLR 14/07 A2998 RMK AO2 SLP153 T01390072 $
2026-04-29 15:56:00,METAR KBLM 291556Z AUTO 13009KT 10SM CLR 14/08 A3000 RMK AO2 SLP159 T01390078 $
2026-04-29 14:56:00,METAR KBLM 291456Z AUTO 13007KT 10SM CLR 14/04 A3000 RMK AO2 SLP160 T01440039 56008 $
2026-04-29 13:56:00,METAR KBLM 291356Z AUTO VRB03KT 10SM CLR 14/05 A3001 RMK AO2 SLP162 T01390050 $
2026-04-29 12:56:00,METAR KBLM 291256Z AUTO 16005KT 10SM CLR 12/05 A3001 RMK AO2 SLP163 T01220050 $
2026-04-29 11:56:00,METAR KBLM 291156Z AUTO 12006KT 10SM CLR 12/07 A3003 RMK AO2 SLP169 T01170072 10117 20094 55002 $
2026-04-29 10:56:00,METAR KBLM 291056Z AUTO 08005KT 10SM CLR 10/10 A3002 RMK AO2 SLP168 T01000100 $
2026-04-29 09:56:00,METAR KBLM 290956Z AUTO 10003KT 10SM OVC045 10/08 A3003 RMK AO2 SLP171 T01000083 $
2026-04-29 08:56:00,METAR KBLM 290856Z AUTO 00000KT 10SM BKN043 OVC065 10/08 A3003 RMK AO2 SLP171 T01000078 56010 $
2026-04-29 07:56:00,METAR KBLM 290756Z AUTO 00000KT 10SM OVC046 10/09 A3004 RMK AO2 SLP174 T01000094 $
2026-04-29 06:56:00,METAR KBLM 290656Z AUTO 00000KT 10SM OVC050 10/08 A3005 RMK AO2 SLP174 T01000083 $
2026-04-29 05:56:00,METAR KBLM 290556Z AUTO 00000KT 10SM OVC050 11/07 A3007 RMK AO2 SLP181 T01060067 10122 20106 58010 $
2026-04-29 04:56:00,METAR KBLM 290456Z AUTO 18003KT 10SM OVC050 11/06 A3009 RMK AO2 SLP191 T01060061 401720033 $
2026-04-29 03:56:00,METAR KBLM 290356Z AUTO 14003KT 10SM OVC055 11/04 A3011 RMK AO2 SLP194 T01060044 $
2026-04-29 02:56:00,METAR KBLM 290256Z AUTO 00000KT 10SM OVC060 11/04 A3010 RMK AO2 SLP191 T01110039 53001 $
2026-04-29 01:56:00,METAR KBLM 290156Z AUTO 13004KT 10SM OVC065 11/06 A3007 RMK AO2 SLP183 T01110061 $
2026-04-29 00:56:00,METAR KBLM 290056Z AUTO 15004KT 10SM OVC070 12/07 A3011 RMK AO2 SLP194 T01170067 $
2026-04-28 23:56:00,METAR KBLM 282356Z AUTO VRB05KT 10SM BKN060 OVC075 12/03 A3009 RMK AO2 SLP192 T01220028 10156 20122 58002 $
2026-04-28 22:56:00,METAR KBLM 282256Z AUTO 14004KT 10SM OVC060 13/03 A3010 RMK AO2 SLP193 T01330028 $
2026-04-28 21:56:00,METAR KBLM 282156Z AUTO 17006KT 10SM BKN080 OVC120 14/03 A3011 RMK AO2 SLP195 T01390028 $
2026-04-28 20:56:00,METAR KBLM 282056Z AUTO 13007KT 10SM BKN080 14/03 A3010 RMK AO2 SLP194 T01390028 58017 $
2026-04-28 19:56:00,METAR KBLM 281956Z AUTO VRB05KT 10SM CLR 14/03 A3011 RMK AO2 SLP198 T01440028 $
2026-04-28 18:56:00,METAR KBLM 281856Z AUTO 11009KT 10SM CLR 15/03 A3015 RMK AO2 SLP211 T01500033 $
2026-04-28 17:56:00,METAR KBLM 281756Z AUTO 13007KT 10SM CLR 16/03 A3015 RMK AO2 SLP211 T01560028 10172 20111 58015 $
2026-04-28 16:56:00,METAR KBLM 281656Z AUTO 12008KT 10SM CLR 17/03 A3017 RMK AO2 SLP217 T01670033 $
2026-04-28 15:56:00,METAR KBLM 281556Z AUTO 16007KT 10SM CLR 17/03 A3019 RMK AO2 SLP223 T01670028 $
2026-04-28 14:56:00,METAR KBLM 281456Z AUTO VRB05KT 10SM CLR 17/03 A3020 RMK AO2 SLP225 T01670033 56003 $
2026-04-28 13:56:00,METAR KBLM 281356Z AUTO 17006KT 10SM CLR 15/02 A3020 RMK AO2 SLP227 T01500022 $
2026-04-28 12:56:00,METAR KBLM 281256Z AUTO 00000KT 10SM CLR 14/04 A3020 RMK AO2 SLP226 T01440044 $
2026-04-28 11:56:00,METAR KBLM 281156Z AUTO 30003KT 10SM CLR 11/04 A3020 RMK AO2 SLP229 T01110044 10117 20033 55001 $
2026-04-28 10:56:00,METAR KBLM 281056Z AUTO 00000KT 10SM CLR 08/07 A3020 RMK AO2 SLP226 T00780072 $
2026-04-28 09:56:00,METAR KBLM 280956Z AUTO 00000KT 10SM CLR 04/ A3019 RMK AO2 SLP225 T0044 $
2026-04-28 08:56:00,METAR KBLM 280856Z AUTO 28005KT 10SM CLR 04/ A3021 RMK AO2 SLP230 T0039 55006 $
2026-04-28 07:56:00,METAR KBLM 280756Z AUTO 00000KT 10SM CLR 05/ A3020 RMK AO2 SLP229 T0050 $
2026-04-28 06:56:00,METAR KBLM 280656Z AUTO 30003KT 10SM CLR 06/ A3021 RMK AO2 SLP232 T0056 $
2026-04-28 05:56:00,METAR KBLM 280556Z AUTO 28003KT 10SM CLR 04/ A3023 RMK AO2 SLP236 T0044 10117 20044 56021 $
2026-04-28 04:56:00,METAR KBLM 280456Z AUTO 00000KT 10SM CLR 06/ A3023 RMK AO2 SLP238 T0061 401780033 $
2026-04-28 03:56:00,METAR KBLM 280356Z AUTO 00000KT 10SM CLR 07/07 A3026 RMK AO2 SLP247 T00670067 $
2026-04-28 02:56:00,METAR KBLM 280256Z AUTO 23004KT 10SM CLR 08/06 A3029 RMK AO2 SLP258 T00830061 51009 $
2026-04-28 01:56:00,METAR KBLM 280156Z AUTO 00000KT 10SM CLR 09/06 A3029 RMK AO2 SLP257 T00890056 $
2026-04-28 00:56:00,METAR KBLM 280056Z AUTO 16003KT 10SM CLR 10/04 A3028 RMK AO2 SLP256 T01000044 $
2026-04-27 23:56:00,METAR KBLM 272356Z AUTO 13004KT 10SM CLR 12/03 A3026 RMK AO2 SLP248 T01170033 10178 20117 55001 $
2026-04-27 22:56:00,METAR KBLM 272256Z AUTO 13005KT 10SM CLR 13/03 A3025 RMK AO2 SLP246 T01330033 $
2026-04-27 21:56:00,METAR KBLM 272156Z AUTO 13010KT 10SM CLR 14/03 A3026 RMK AO2 SLP248 T01390033 $
2026-04-27 20:56:00,METAR KBLM 272056Z AUTO 15008KT 10SM CLR 14/02 A3026 RMK AO2 SLP249 T01440022 55001 $
2026-04-27 19:56:00,METAR KBLM 271956Z AUTO 13008KT 10SM CLR 16/03 A3025 RMK AO2 SLP246 T01560033 $
2026-04-27 18:56:00,METAR KBLM 271856Z AUTO 07009KT 10SM CLR 17/03 A3025 RMK AO2 SLP243 T01720028 $
2026-04-27 17:56:00,METAR KBLM 271756Z AUTO 09006KT 10SM CLR 17/02 A3027 RMK AO2 SLP249 T01720022 10172 20094 50001 $
2026-04-27 16:56:00,METAR KBLM 271656Z AUTO 11011KT 10SM CLR 16/04 A3027 RMK AO2 SLP251 T01610039 $
2026-04-27 15:56:00,METAR KBLM 271556Z AUTO 06010KT 10SM CLR 16/03 A3027 RMK AO2 SLP251 T01560028 $
2026-04-27 14:56:00,METAR KBLM 271456Z AUTO 07011G15KT 10SM CLR 16/04 A3026 RMK AO2 SLP249 T01610039 51010 $
2026-04-27 13:56:00,METAR KBLM 271356Z AUTO 36004KT 10SM CLR 15/07 A3026 RMK AO2 SLP248 T01500067 $
2026-04-27 12:56:00,METAR KBLM 271256Z AUTO 31004KT 10SM CLR 13/07 A3024 RMK AO2 SLP242 T01280072 $
2026-04-27 11:56:00,METAR KBLM 271156Z AUTO 00000KT 10SM CLR 09/09 A3023 RMK AO2 SLP238 70001 T00940089 10094 20033 53006 $
2026-04-27 10:56:00,METAR KBLM 271056Z AUTO 00000KT 10SM CLR 07/ A3022 RMK AO2 SLP233 T0072 $
2026-04-27 09:56:00,METAR KBLM 270956Z AUTO 32005KT 10SM CLR 04/ A3021 RMK AO2 SLP231 T0039 $
2026-04-27 08:56:00,METAR KBLM 270856Z AUTO 30004KT 10SM CLR 04/ A3021 RMK AO2 SLP232 T0039 53005 $
2026-04-27 07:56:00,METAR KBLM 270756Z AUTO 30006KT 10SM CLR 04/ A3021 RMK AO2 SLP230 T0039 $
2026-04-27 06:56:00,METAR KBLM 270656Z AUTO 30004KT 10SM CLR 04/ A3020 RMK AO2 SLP226 T0039 $
2026-04-27 05:56:00,METAR KBLM 270556Z AUTO 32004KT 10SM CLR 04/ A3020 RMK AO2 SLP227 60001 T0039 10083 20039 58002 $
2026-04-27 04:56:00,METAR KBLM 270456Z AUTO 32005KT 10SM CLR 04/ A3020 RMK AO2 SLP229 T0039 401170039 $
2026-04-27 03:56:00,METAR KBLM 270356Z AUTO 30004KT 10SM CLR 04/ A3020 RMK AO2 SLP227 P0001 T0044 $
2026-04-27 02:56:00,METAR KBLM 270256Z AUTO 30003KT 10SM CLR 05/ A3020 RMK AO2 SLP229 T0050 50009 $
2026-04-27 01:56:00,METAR KBLM 270156Z AUTO 00000KT 10SM CLR 06/06 A3021 RMK AO2 SLP230 T00610061 $
2026-04-27 00:56:00,METAR KBLM 270056Z AUTO 10003KT 10SM CLR 07/ A3020 RMK AO2 SLP226 T0072 $
2026-04-26 23:56:00,METAR KBLM 262356Z AUTO 09004KT 10SM CLR 08/08 A3018 RMK AO2 SLP220 T00830083 10117 20083 51012 $
2026-04-26 22:56:00,METAR KBLM 262256Z AUTO 08007KT 10SM CLR 09/07 A3017 RMK AO2 SLP216 T00940072 $
2026-04-26 21:56:00,METAR KBLM 262156Z AUTO 08012G16KT 10SM CLR 11/09 A3015 RMK AO2 SLP212 T01060089 $
2026-04-26 20:56:00,METAR KBLM 262056Z AUTO 07010KT 10SM FEW020 11/09 A3014 RMK AO2 SLP207 T01060089 53002 $
2026-04-26 19:56:00,METAR KBLM 261956Z AUTO 04006KT 10SM FEW022 BKN049 11/08 A3013 RMK AO2 SLP203 T01110083 $
2026-04-26 18:56:00,METAR KBLM 261856Z AUTO 04010KT 10SM FEW019 SCT036 OVC043 11/08 A3013 RMK AO2 SLP203 T01060078 $
2026-04-26 18:32:00,SPECI KBLM 261832Z AUTO 06009KT 10SM SCT019 OVC037 10/08 A3013 RMK AO2 $
2026-04-26 17:56:00,METAR KBLM 261756Z AUTO 06010KT 10SM OVC015 08/08 A3013 RMK AO2 SLP205 60000 T00830083 10083 20056 51005 $
2026-04-26 16:56:00,METAR KBLM 261656Z AUTO 03009KT 10SM OVC015 08/08 A3013 RMK AO2 SLP204 T00780078 $
2026-04-26 16:48:00,SPECI KBLM 261648Z AUTO 02009G17KT 10SM OVC015 08/08 A3013 RMK AO2 $
2026-04-26 15:56:00,METAR KBLM 261556Z AUTO 02011KT 10SM OVC011 07/ A3013 RMK AO2 SLP204 T0072 $
2026-04-26 15:34:00,SPECI KBLM 261534Z AUTO 03009KT 10SM OVC011 07/ A3013 RMK AO2 $
2026-04-26 14:56:00,METAR KBLM 261456Z AUTO 03011KT 4SM HZ OVC007 06/ A3012 RMK AO2 RAE28 CIG 006V011 SLP200 P0000 60000 T0061 51015 $
2026-04-26 14:28:00,SPECI KBLM 261428Z AUTO 03011KT 5SM HZ OVC007 06/ A3011 RMK AO2 RAE28 CIG 004V011 P0000 $
2026-04-26 14:06:00,SPECI KBLM 261406Z AUTO 03009KT 3SM -RA BKN005 OVC010 06/ A3010 RMK AO2 CIG 004V008 P0000 $
2026-04-26 13:56:00,METAR KBLM 261356Z AUTO 02009KT 2 1/2SM -RA BKN007 OVC010 06/ A3010 RMK AO2 RAB34 CIG 004V008 SLP195 P0000 T0061 $
2026-04-26 13:49:00,SPECI KBLM 261349Z AUTO 03007KT 2SM -RA OVC007 06/ A3010 RMK AO2 RAB34 CIG 004V011 P0000 $
2026-04-26 13:32:00,SPECI KBLM 261332Z AUTO 03008KT 1 3/4SM BR OVC007 06/ A3010 RMK AO2 CIG 004V011 $
2026-04-26 13:18:00,SPECI KBLM 261318Z AUTO 03008G16KT 3SM BR OVC007 06/ A3010 RMK AO2 CIG 004V009 $
2026-04-26 13:12:00,SPECI KBLM 261312Z AUTO 02009KT 2 1/2SM BR OVC005 06/ A3010 RMK AO2 CIG 004V011 $
2026-04-26 13:05:00,SPECI KBLM 261305Z AUTO 02006KT 2 1/2SM BR OVC007 06/ A3010 RMK AO2 CIG 004V011 $
2026-04-26 12:56:00,METAR KBLM 261256Z AUTO 02011KT 3SM BR OVC005 06/ A3009 RMK AO2 RAB00E47 CIG 004V009 SLP191 P0000 T0056 $
2026-04-26 12:16:00,SPECI KBLM 261216Z AUTO 03009KT 2SM -RA OVC005 06/ A3008 RMK AO2 RAB00 CIG 004V010 P0000 $
2026-04-26 12:03:00,SPECI KBLM 261203Z AUTO 04009KT 1 1/2SM -RA OVC005 06/ A3008 RMK AO2 RAB00 CIG 004V010 P0000 $
2026-04-26 11:56:00,METAR KBLM 261156Z AUTO 04008KT 2SM BR OVC005 06/ A3007 RMK AO2 RAE36 CIG 004V010 SLP185 P0000 60003 70037 T0056 10056 20050 53015 $
2026-04-26 11:36:00,SPECI KBLM 261136Z AUTO 03008KT 4SM HZ OVC005 06/ A3007 RMK AO2 RAE36 CIG 004V009 P0000 $
2026-04-26 10:56:00,METAR KBLM 261056Z AUTO 04010G18KT 2 1/2SM -RA OVC005 05/ A3004 RMK AO2 VIS 1 1/2V4 CIG 004V007 SLP174 P0000 T0050 $
2026-04-26 10:23:00,SPECI KBLM 261023Z AUTO 04011KT 2 1/2SM -RA OVC005 05/ A3004 RMK AO2 P0000 $
2026-04-26 10:04:00,SPECI KBLM 261004Z AUTO 03009KT 3SM -RA OVC005 06/ A3004 RMK AO2 CIG 004V009 P0000 $
2026-04-26 09:56:00,METAR KBLM 260956Z AUTO 04007G16KT 2 1/2SM -RA OVC005 06/ A3003 RMK AO2 VIS 2V4 CIG 004V009 SLP171 P0000 T0056 $
2026-04-26 09:53:00,SPECI KBLM 260953Z AUTO 04008G16KT 2 1/2SM -RA OVC005 06/ A3003 RMK AO2 VIS 2V3 CIG 004V009 P0000 $
2026-04-26 09:39:00,SPECI KBLM 260939Z AUTO 05010G15KT 3SM -RA BKN007 OVC010 06/ A3003 RMK AO2 CIG 004V008 P0000 $
2026-04-26 09:25:00,SPECI KBLM 260925Z AUTO 05012KT 2 1/2SM -RA OVC007 06/ A3003 RMK AO2 CIG 004V010 P0000 $
2026-04-26 08:56:00,METAR KBLM 260856Z AUTO 04008KT 3SM -RA BKN007 OVC014 06/ A3002 RMK AO2 CIG 005V012 SLP168 P0001 60003 T0056 55000 $
2026-04-26 07:56:00,METAR KBLM 260756Z AUTO 06010G15KT 3SM -RA BKN007 OVC012 05/ A3002 RMK AO2 CIG 005V011 SLP165 P0000 T0050 $
2026-04-26 06:56:00,METAR KBLM 260656Z AUTO 07010KT 5SM -RA OVC005 06/ A3002 RMK AO2 CIG 004V009 SLP167 P0002 T0056 $
2026-04-26 06:29:00,SPECI KBLM 260629Z AUTO 06008KT 3SM -RA OVC005 06/ A3002 RMK AO2 CIG 004V009 P0001 $
2026-04-26 05:56:00,METAR KBLM 260556Z AUTO 05009KT 2SM -RA OVC005 06/ A3003 RMK AO2 CIG 004V008 SLP168 P0003 60026 T0056 10061 20056 58006 $
2026-04-26 05:43:00,SPECI KBLM 260543Z AUTO 05009KT 2SM -RA OVC005 06/ A3004 RMK AO2 CIG 004V010 P0002 $
2026-04-26 04:56:00,METAR KBLM 260456Z AUTO 07008KT 4SM RA OVC005 06/ A3004 RMK AO2 SLP174 P0004 T0056 400780056 $
2026-04-26 03:56:00,METAR KBLM 260356Z AUTO 06013G19KT 5SM RA OVC005 06/ A3003 RMK AO2 SLP170 P0005 T0061 $
2026-04-26 03:20:00,SPECI KBLM 260320Z AUTO 07007G15KT 4SM -RA OVC005 06/ A3004 RMK AO2 CIG 004V009 P0001 $
2026-04-26 02:56:00,METAR KBLM 260256Z AUTO 08009KT 3SM -RA BKN007 OVC011 06/ A3004 RMK AO2 CIG 004V009 SLP174 P0006 60014 T0056 50017 $
2026-04-26 01:56:00,METAR KBLM 260156Z AUTO 08012KT 6SM -RA BKN007 OVC015 06/ A3004 RMK AO2 CIG 006V011 SLP174 P0005 T0056 $
2026-04-26 00:56:00,METAR KBLM 260056Z AUTO 09009G20KT 6SM -RA BKN008 OVC013 06/ A3003 RMK AO2 CIG 005V009 SLP169 P0003 T0056 $
2026-04-25 23:56:00,METAR KBLM 252356Z AUTO 11014G21KT 4SM -RA BKN008 OVC014 06/ A2999 RMK AO2 CIG 005V011 SLP157 P0003 60008 T0056 10078 20056 50000 $
2026-04-25 23:06:00,SPECI KBLM 252306Z AUTO 09013KT 6SM -RA BKN008 OVC014 06/ A3000 RMK AO2 CIG 005V010 P0001 $
2026-04-25 22:56:00,METAR KBLM 252256Z AUTO 09012G18KT 6SM RA BKN010 OVC014 06/ A3000 RMK AO2 CIG 006V012 SLP160 P0003 T0056 $
2026-04-25 22:14:00,SPECI KBLM 252214Z AUTO 10014G18KT 10SM -RA OVC013 06/ A3000 RMK AO2 P0000 $
2026-04-25 21:56:00,METAR KBLM 252156Z AUTO 09013G21KT 8SM -RA BKN015 BKN035 OVC044 06/ A3000 RMK AO2 SLP159 P0001 T0061 $
2026-04-25 21:53:00,SPECI KBLM 252153Z AUTO 09015G21KT 7SM -RA BKN015 BKN035 OVC044 06/ A2999 RMK AO2 P0001 $
2026-04-25 21:30:00,SPECI KBLM 252130Z AUTO 10012KT 10SM -RA BKN013 OVC039 06/ A3001 RMK AO2 P0000 $
2026-04-17 11:56:00,METAR KBLM 171156Z AUTO 20/18 RMK AO2 SLPNO 6//// 7//// T02000183 10217 20189 PWINO RVRNO PNO $
2026-04-17 10:56:00,METAR KBLM 171056Z AUTO 00000KT 10SM BKN110 19/18 A2984 RMK AO2 SLP102 T01940178 PNO $
2026-04-17 09:56:00,METAR KBLM 170956Z AUTO 26004KT 10SM FEW110 19/17 A2982 RMK AO2 SLP095 T01940172 PNO $
2026-04-17 08:56:00,METAR KBLM 170856Z AUTO 00000KT 10SM CLR 19/17 A2978 RMK AO2 SLP084 6//// T01940167 53004 PNO $
2026-04-17 07:56:00,METAR KBLM 170756Z AUTO 00000KT 10SM CLR 21/16 A2976 RMK AO2 SLP077 T02110156 PNO $
2026-04-17 06:56:00,METAR KBLM 170656Z AUTO 33005KT 10SM CLR 21/16 A2976 RMK AO2 SLP076 T02110161 PNO $
2026-04-17 05:56:00,METAR KBLM 170556Z AUTO 27005KT 10SM FEW100 21/17 A2977 RMK AO2 SLP081 6//// T02060167 10244 20206 53004 PNO $
2026-04-17 04:56:00,METAR KBLM 170456Z AUTO VRB06G21KT 10SM CLR 21/16 A2976 RMK AO2 SLP076 T02110156 403220194 PNO $
2026-04-17 03:56:00,METAR KBLM 170356Z AUTO 21008KT 10SM CLR 23/16 A2975 RMK AO2 SLP073 T02280156 PNO $
2026-04-17 02:56:00,METAR KBLM 170256Z AUTO 20006KT 10SM CLR 23/16 A2976 RMK AO2 SLP076 6//// T02280156 58000 PNO $
2026-04-17 01:56:00,METAR KBLM 170156Z AUTO 19006KT 10SM CLR 23/16 A2978 RMK AO2 SLP081 T02280156 PNO $
2026-04-17 00:56:00,METAR KBLM 170056Z AUTO 19005KT 10SM CLR 24/15 A2977 RMK AO2 SLP080 T02390150 PNO $
2026-04-16 23:56:00,METAR KBLM 162356Z AUTO 17005KT 10SM CLR 24/16 A2976 RMK AO2 SLP076 6//// T02440161 10300 20244 55005 PNO $
2026-04-16 22:56:00,METAR KBLM 162256Z AUTO 17005KT 10SM CLR 27/16 A2976 RMK AO2 SLP076 T02670156 PNO $
2026-04-16 21:56:00,METAR KBLM 162156Z AUTO 16007KT 10SM CLR 29/14 A2977 RMK AO2 SLP078 T02890144 PNO $
2026-04-16 20:56:00,METAR KBLM 162056Z AUTO 16012G18KT 10SM CLR 29/14 A2978 RMK AO2 SLP081 6//// T02940139 58029 PNO $
2026-04-16 19:56:00,METAR KBLM 161956Z AUTO 16011KT 10SM CLR 28/15 A2980 RMK AO2 SLP091 T02830150 PNO $
2026-04-16 18:56:00,METAR KBLM 161856Z AUTO 16010KT 10SM CLR 28/16 A2984 RMK AO2 SLP102 T02780156 PNO $
2026-04-16 17:56:00,METAR KBLM 161756Z AUTO 16009G15KT 10SM FEW080 29/17 A2986 RMK AO2 SLP111 6//// T02940167 10322 20222 58020 PNO $
2026-04-16 16:56:00,METAR KBLM 161656Z AUTO 08006KT 10SM CLR 30/17 A2988 RMK AO2 SLP117 T03000172 PNO $
2026-04-16 15:56:00,METAR KBLM 161556Z AUTO 26004KT 10SM CLR 31/16 A2991 RMK AO2 SLP126 T03110161 PNO $
2026-04-16 14:56:00,METAR KBLM 161456Z AUTO 22005KT 10SM CLR 29/17 A2992 RMK AO2 SLP132 6//// T02890167 58003 PNO $
2026-04-16 13:56:00,METAR KBLM 161356Z AUTO 19004KT 10SM CLR 27/17 A2993 RMK AO2 SLP134 T02720172 PNO $
2026-04-16 12:56:00,METAR KBLM 161256Z AUTO 25003KT 10SM CLR 26/17 A2994 RMK AO2 SLP138 T02560172 PNO $
2026-04-16 11:56:00,METAR KBLM 161156Z AUTO 23003KT 10SM CLR 22/18 A2993 RMK AO2 SLP134 6//// 7//// T02220178 10244 20194 51012 PNO $
2026-04-16 10:56:00,METAR KBLM 161056Z AUTO 22004KT 10SM CLR 21/17 A2993 RMK AO2 SLP133 T02110172 PNO $
2026-04-16 09:56:00,METAR KBLM 160956Z AUTO 00000KT 10SM CLR 20/18 A2990 RMK AO2 SLP124 T02000178 PNO $
2026-04-16 08:56:00,METAR KBLM 160856Z AUTO 00000KT 10SM CLR 21/17 A2990 RMK AO2 SLP122 6//// T02110167 53005 PNO $
2026-04-16 07:56:00,METAR KBLM 160756Z AUTO 27006KT 10SM CLR 22/16 A2990 RMK AO2 SLP122 T02220161 PNO $
2026-04-16 06:56:00,METAR KBLM 160656Z AUTO 23007KT 10SM CLR 24/16 A2987 RMK AO2 SLP113 T02390156 PNO $
2026-04-16 05:56:00,METAR KBLM 160556Z AUTO 22008KT 10SM CLR 24/16 A2988 RMK AO2 SLP117 6//// T02440156 10289 20244 58013 PNO $
2026-04-16 04:56:00,METAR KBLM 160456Z AUTO 22007KT 10SM CLR 25/16 A2990 RMK AO2 SLP125 T02500156 403220183 PNO $
2026-04-16 03:56:00,METAR KBLM 160356Z AUTO 20010G15KT 10SM CLR 24/16 A2991 RMK AO2 SLP126 T02440156 PNO $
2026-04-16 02:56:00,METAR KBLM 160256Z AUTO 20008KT 10SM CLR 26/15 A2992 RMK AO2 SLP130 6//// T02560150 50012 PNO $
2026-04-16 01:56:00,METAR KBLM 160156Z AUTO 20005KT 10SM CLR 26/15 A2992 RMK AO2 SLP131 T02610150 PNO $
2026-04-16 00:56:00,METAR KBLM 160056Z AUTO 16003KT 10SM CLR 27/16 A2990 RMK AO2 SLP125 T02670156 PNO $
2026-04-15 23:56:00,METAR KBLM 152356Z AUTO 22007KT 10SM CLR 29/15 A2988 RMK AO2 SLP118 6//// T02890150 10322 20289 51006 PNO $
2026-04-15 22:56:00,METAR KBLM 152256Z AUTO 23011G18KT 10SM CLR 30/16 A2988 RMK AO2 SLP116 T03000156 PNO $
2026-04-15 21:56:00,METAR KBLM 152156Z AUTO 23009G16KT 10SM CLR 31/16 A2988 RMK AO2 SLP116 T03060161 PNO $
2026-04-15 20:56:00,METAR KBLM 152056Z AUTO 24015G18KT 10SM CLR 31/16 A2987 RMK AO2 SLP112 6//// T03110156 55010 PNO $
2026-04-15 19:56:00,METAR KBLM 151956Z AUTO 26011G15KT 10SM CLR 32/16 A2986 RMK AO2 SLP111 T03170156 PNO $
2026-04-15 18:56:00,METAR KBLM 151856Z AUTO 25015G22KT 10SM CLR 32/16 A2988 RMK AO2 SLP117 T03220156 PNO $
2026-04-15 17:56:00,METAR KBLM 151756Z AUTO 23009G22KT 200V260 10SM CLR 31/16 A2990 RMK AO2 SLP123 6//// T03110161 10311 20211 56026 PNO $
2026-04-15 16:56:00,METAR KBLM 151656Z AUTO 25012G16KT 10SM CLR 29/17 A2992 RMK AO2 SLP130 T02940167 PNO $
2026-04-15 15:56:00,METAR KBLM 151556Z AUTO 22009G15KT 10SM CLR 27/16 A2995 RMK AO2 SLP140 T02720161 PNO $
2026-04-15 14:56:00,METAR KBLM 151456Z AUTO 22009G15KT 10SM CLR 27/17 A2998 RMK AO2 SLP149 6//// T02720167 50000 PNO $
2026-04-15 13:56:00,METAR KBLM 151356Z AUTO 23006KT 10SM CLR 25/17 A2998 RMK AO2 SLP152 T02500172 PNO $
2026-04-15 12:56:00,METAR KBLM 151256Z AUTO 24004KT 9SM CLR 24/19 A2998 RMK AO2 SLP151 T02390189 PNO $
2026-04-15 11:56:00,METAR KBLM 151156Z AUTO 25005KT 10SM CLR 21/21 A2997 RMK AO2 SLP149 6//// 7//// T02060206 10222 20183 53014 PNO $
2026-04-15 10:56:00,METAR KBLM 151056Z AUTO 24004KT 10SM CLR 18/ A2995 RMK AO2 SLP141 T0183 PNO $
2026-04-15 09:56:00,METAR KBLM 150956Z AUTO 24005KT 10SM CLR 18/ A2994 RMK AO2 SLP139 T0183 PNO $
2026-04-15 08:56:00,METAR KBLM 150856Z AUTO 25005KT 10SM CLR 19/19 A2993 RMK AO2 SLP135 6//// T01890189 53004 PNO $
2026-04-15 07:56:00,METAR KBLM 150756Z AUTO 25005KT 10SM CLR 20/19 A2992 RMK AO2 SLP132 T02000194 PNO $
2026-04-15 06:56:00,METAR KBLM 150656Z AUTO 21007KT 10SM CLR 22/17 A2991 RMK AO2 SLP128 T02170167 PNO $
2026-04-15 05:56:00,METAR KBLM 150556Z AUTO 29006KT 10SM BKN110 22/16 A2992 RMK AO2 RAB27E43 SLP130 6//// T02220161 10272 20222 50002 PNO $
2026-04-15 04:56:00,METAR KBLM 150456Z AUTO 28006KT 10SM FEW075 SCT095 24/14 A2994 RMK AO2 SLP136 T02390139 403110161 PNO $
2026-04-15 03:56:00,METAR KBLM 150356Z AUTO 22008KT 10SM CLR 24/14 A2993 RMK AO2 SLP133 T02390139 PNO $
2026-04-15 02:56:00,METAR KBLM 150256Z AUTO 20010KT 10SM CLR 24/13 A2992 RMK AO2 SLP129 6//// T02440133 51013 PNO $
2026-04-15 01:56:00,METAR KBLM 150156Z AUTO 21007KT 10SM CLR 25/13 A2991 RMK AO2 SLP127 T02500133 PNO $
2026-04-15 00:56:00,METAR KBLM 150056Z AUTO 22008KT 10SM CLR 26/13 A2989 RMK AO2 SLP122 T02610133 PNO $
2026-04-14 23:56:00,METAR KBLM 142356Z AUTO 23009G15KT 10SM CLR 27/13 A2988 RMK AO2 SLP117 6//// T02720128 10311 20272 53001 PNO $
2026-04-14 22:56:00,METAR KBLM 142256Z AUTO 24010G19KT 10SM CLR 28/13 A2987 RMK AO2 SLP115 T02830133 PNO $
2026-04-14 21:56:00,METAR KBLM 142156Z AUTO 24014KT 10SM CLR 30/13 A2986 RMK AO2 SLP110 T03000133 PNO $
2026-04-14 20:56:00,METAR KBLM 142056Z AUTO 26015G21KT 10SM CLR 30/13 A2988 RMK AO2 SLP115 6//// T03000133 56028 PNO $
2026-04-14 19:56:00,METAR KBLM 141956Z AUTO 23014G20KT 10SM CLR 31/13 A2989 RMK AO2 SLP120 T03060133 PNO $
2026-04-14 18:56:00,METAR KBLM 141856Z AUTO 12007KT 10SM FEW070 28/14 A2992 RMK AO2 SLP130 T02830144 PNO $
2026-04-14 17:56:00,METAR KBLM 141756Z AUTO VRB05G19KT 10SM FEW060 29/14 A2996 RMK AO2 SLP143 6//// T02940144 10300 20178 56023 PNO $
2026-04-14 16:56:00,METAR KBLM 141656Z AUTO 22007G14KT 180V270 10SM FEW060 28/14 A2997 RMK AO2 SLP147 T02830144 PNO $
2026-04-14 15:56:00,METAR KBLM 141556Z AUTO VRB05KT 7SM CLR 27/15 A3000 RMK AO2 SLP159 T02720150 PNO $
2026-04-14 14:56:00,METAR KBLM 141456Z AUTO 27008KT 10SM CLR 26/15 A3003 RMK AO2 SLP166 6//// T02610150 58003 PNO $
2026-04-14 13:56:00,METAR KBLM 141356Z AUTO 26006KT 10SM CLR 25/15 A3004 RMK AO2 SLP170 T02500150 PNO $
2026-04-14 12:56:00,METAR KBLM 141256Z AUTO 26006KT 10SM CLR 22/14 A3003 RMK AO2 SLP170 T02170139 PNO $
2026-04-14 11:56:00,METAR KBLM 141156Z AUTO 22007KT 10SM CLR 18/14 A3003 RMK AO2 SLP170 6//// 7//// T01780144 10194 20161 51010 PNO $
2026-04-14 10:56:00,METAR KBLM 141056Z AUTO 25003KT 10SM CLR 17/16 A3002 RMK AO2 SLP165 T01670161 PNO $
2026-04-14 09:56:00,METAR KBLM 140956Z AUTO 23005KT 10SM CLR 17/15 A3002 RMK AO2 SLP165 T01670150 PNO $
2026-04-14 08:56:00,METAR KBLM 140856Z AUTO 24004KT 10SM CLR 17/15 A3000 RMK AO2 SLP160 6//// T01720150 55002 PNO $
2026-04-14 07:56:00,METAR KBLM 140756Z AUTO 22007KT 10SM CLR 18/15 A3000 RMK AO2 SLP157 T01830150 PNO $
2026-04-14 06:56:00,METAR KBLM 140656Z AUTO 23004KT 10SM SCT110 19/15 A3000 RMK AO2 SLP159 T01890150 PNO $
2026-04-14 05:56:00,METAR KBLM 140556Z AUTO 27005KT 10SM OVC100 19/15 A3001 RMK AO2 SLP162 6//// T01940150 10239 20194 58001 PNO $
2026-04-14 04:56:00,METAR KBLM 140456Z AUTO 23008KT 10SM OVC110 21/14 A3002 RMK AO2 SLP166 T02060139 402610089 PNO $
2026-04-14 03:56:00,METAR KBLM 140356Z AUTO 21006KT 10SM BKN110 20/16 A3002 RMK AO2 RAB10E42 SLP166 T02000161 PNO $
2026-04-14 02:56:00,METAR KBLM 140256Z AUTO 23011G18KT 10SM FEW085 BKN110 22/12 A3002 RMK AO2 SLP164 6//// T02220122 51011 PNO $
2026-04-14 01:56:00,METAR KBLM 140156Z AUTO 21008KT 10SM CLR 23/12 A3002 RMK AO2 SLP163 T02280122 PNO $
2026-04-14 00:56:00,METAR KBLM 140056Z AUTO 21007KT 10SM BKN120 23/12 A3000 RMK AO2 SLP158 T02330122 PNO $
2026-04-13 23:56:00,METAR KBLM 132356Z AUTO 22012KT 10SM FEW110 24/12 A2998 RMK AO2 SLP153 6//// T02390122 10261 20239 53003 PNO $
2026-04-13 22:56:00,METAR KBLM 132256Z AUTO 23012G18KT 10SM CLR 25/12 A2998 RMK AO2 SLP150 T02500122 PNO $
2026-04-13 21:56:00,METAR KBLM 132156Z AUTO 24009G22KT 10SM CLR 26/13 A2997 RMK AO2 PK WND 24026/2100 SLP148 T02610128 PNO $
2026-04-13 20:56:00,METAR KBLM 132056Z AUTO 23019G25KT 10SM CLR 26/13 A2998 RMK AO2 PK WND 23027/2021 SLP149 6//// T02610133 58016 PNO $
2026-04-13 19:56:00,METAR KBLM 131956Z AUTO 25014G26KT 10SM OVC110 24/13 A3000 RMK AO2 PK WND 23026/1948 SLP157 T02440133 PNO $
2026-04-13 18:56:00,METAR KBLM 131856Z AUTO 24013G22KT 10SM OVC110 25/14 A3001 RMK AO2 SLP161 T02500139 PNO $
2026-04-13 17:56:00,METAR KBLM 131756Z AUTO 25010G16KT 10SM FEW120 25/14 A3002 RMK AO2 SLP166 6//// T02500144 10250 20150 56023 PNO $
2026-04-13 16:56:00,METAR KBLM 131656Z AUTO 22011KT 10SM CLR 24/16 A3003 RMK AO2 SLP170 T02390156 PNO $
2026-04-13 15:56:00,METAR KBLM 131556Z AUTO 22009G18KT 10SM CLR 24/16 A3006 RMK AO2 SLP178 T02390161 PNO $
2026-04-13 14:56:00,METAR KBLM 131456Z AUTO 23013G20KT 10SM CLR 21/17 A3009 RMK AO2 SLP189 6//// T02110172 58021 PNO $
2026-04-13 13:56:00,METAR KBLM 131356Z AUTO 22013G17KT 10SM FEW017 18/18 A3013 RMK AO2 SLP201 T01830183 PNO $
2026-04-13 13:30:00,SPECI KBLM 131330Z AUTO 21010KT 10SM SCT017 17/17 A3013 RMK AO2 PNO $
2026-04-13 12:56:00,METAR KBLM 131256Z AUTO 22013G20KT 10SM BKN017 BKN120 17/17 A3015 RMK AO2 SLP209 T01720172 PNO $
2026-04-13 12:52:00,SPECI KBLM 131252Z AUTO 22011G20KT 10SM BKN017 OVC120 17/17 A3015 RMK AO2 PNO $
2026-04-13 11:56:00,METAR KBLM 131156Z AUTO 21009KT 10SM FEW120 15/ A3017 RMK AO2 SLP217 6//// 7//// T0150 10150 20100 56009 PNO $
2026-04-13 10:56:00,METAR KBLM 131056Z AUTO 21010KT 10SM CLR 14/ A3018 RMK AO2 SLP220 T0144 PNO $
2026-04-13 09:56:00,METAR KBLM 130956Z AUTO 20008G15KT 10SM CLR 14/ A3018 RMK AO2 SLP221 T0144 PNO $
2026-04-13 08:56:00,METAR KBLM 130856Z AUTO 20010KT 10SM CLR 13/ A3019 RMK AO2 SLP226 6//// T0133 56027 PNO $
2026-04-13 07:56:00,METAR KBLM 130756Z AUTO 19009G17KT 10SM CLR 12/ A3021 RMK AO2 SLP231 T0122 PNO $
2026-04-13 06:56:00,METAR KBLM 130656Z AUTO 18007KT 10SM CLR 11/11 A3024 RMK AO2 SLP242 T01060106 PNO $
2026-04-13 05:56:00,METAR KBLM 130556Z AUTO 17005KT 10SM CLR 11/08 A3028 RMK AO2 SLP253 6//// T01060083 10106 20072 58025 PNO $
2026-04-13 04:56:00,METAR KBLM 130456Z AUTO 17004KT 10SM CLR 09/09 A3031 RMK AO2 SLP263 T00890089 401110056 PNO $
2026-04-13 03:56:00,METAR KBLM 130356Z AUTO 15003KT 10SM CLR 08/08 A3033 RMK AO2 SLP272 T00830083 PNO $
2026-04-13 02:56:00,METAR KBLM 130256Z AUTO 16003KT 10SM CLR 08/ A3035 RMK AO2 SLP279 6//// T0078 58010 PNO $
2026-04-13 01:56:00,METAR KBLM 130156Z AUTO 15004KT 10SM CLR 08/ A3037 RMK AO2 SLP284 T0078 PNO $
2026-04-13 00:56:00,METAR KBLM 130056Z AUTO 16005KT 10SM CLR 08/ A3039 RMK AO2 SLP292 T0083 PNO $
2026-04-12 23:56:00,METAR KBLM 122356Z AUTO 14006KT 10SM CLR 08/08 A3038 RMK AO2 SLP289 6//// T00830083 10111 20083 56014 PNO $
2026-04-12 22:56:00,METAR KBLM 122256Z AUTO 15009G14KT 10SM CLR 09/08 A3039 RMK AO2 SLP292 T00890083 PNO $
2026-04-12 21:56:00,METAR KBLM 122156Z AUTO 14010G15KT 10SM CLR 09/06 A3040 RMK AO2 SLP296 T00940061 PNO $
2026-04-12 20:56:00,METAR KBLM 122056Z AUTO 14008G16KT 10SM CLR 11/04 A3042 RMK AO2 SLP303 6//// T01060044 56026 PNO $
2026-04-12 19:56:00,METAR KBLM 121956Z AUTO 14013G18KT 10SM CLR 10/03 A3044 RMK AO2 SLP309 T01000033 PNO $
2026-04-12 18:56:00,METAR KBLM 121856Z AUTO 15011KT 10SM CLR 11/03 A3047 RMK AO2 SLP320 T01060028 PNO $
2026-04-12 17:56:00,METAR KBLM 121756Z AUTO 13008G15KT 10SM CLR 11/03 A3050 RMK AO2 SLP330 6//// T01060033 10111 20078 56020 PNO $
2026-04-12 16:56:00,METAR KBLM 121656Z AUTO 12010KT 10SM CLR 11/03 A3052 RMK AO2 SLP336 T01060033 PNO $
2026-04-12 15:56:00,METAR KBLM 121556Z AUTO 11012KT 10SM CLR 11/03 A3053 RMK AO2 SLP339 T01060033 PNO $
2026-04-12 14:56:00,METAR KBLM 121456Z AUTO 10009KT 10SM CLR 09/01 A3056 RMK AO2 SLP349 6//// T00940011 53010 PNO $
2026-04-12 13:56:00,METAR KBLM 121356Z AUTO 09011KT 10SM CLR 09/M01 A3054 RMK AO2 SLP343 T00941011 PNO $
2026-04-12 12:56:00,METAR KBLM 121256Z AUTO 09008KT 10SM CLR 09/M02 A3054 RMK AO2 SLP342 T00891017 PNO $
2026-04-12 11:56:00,METAR KBLM 121156Z AUTO 05007KT 10SM CLR 08/M01 A3053 RMK AO2 SLP339 6//// 7//// T00781011 10089 20056 51019 PNO $
2026-04-12 10:56:00,METAR KBLM 121056Z AUTO 05004KT 10SM CLR 06/M01 A3052 RMK AO2 SLP335 T00611006 PNO $
2026-04-12 09:56:00,METAR KBLM 120956Z AUTO 03004KT 10SM CLR 06/M01 A3049 RMK AO2 SLP327 T00561006 PNO $
2026-04-12 08:56:00,METAR KBLM 120856Z AUTO 04005KT 10SM CLR 07/00 A3047 RMK AO2 SLP320 6//// T00670000 51014 PNO $
2026-04-12 07:56:00,METAR KBLM 120756Z AUTO 05004KT 10SM CLR 07/01 A3047 RMK AO2 SLP317 T00720011 PNO $
2026-04-12 06:56:00,METAR KBLM 120656Z AUTO 05003KT 10SM CLR 08/01 A3044 RMK AO2 SLP308 T00780011 PNO $
2026-04-12 05:56:00,METAR KBLM 120556Z AUTO 08005KT 10SM CLR 09/M01 A3043 RMK AO2 SLP304 6//// T00891011 10139 20083 51018 PNO $
2026-04-12 04:56:00,METAR KBLM 120456Z AUTO 34006KT 10SM CLR 09/M02 A3041 RMK AO2 SLP299 T00891017 401890089 PNO $
2026-04-12 03:56:00,METAR KBLM 120356Z AUTO 01005KT 10SM CLR 11/M02 A3040 RMK AO2 SLP293 T01111022 PNO $
2026-04-12 02:56:00,METAR KBLM 120256Z AUTO 36006KT 10SM CLR 12/M03 A3038 RMK AO2 SLP287 6//// T01171033 51021 PNO $
2026-04-12 01:56:00,METAR KBLM 120156Z AUTO 36006KT 10SM CLR 13/M03 A3037 RMK AO2 SLP283 T01281033 PNO $
2026-04-12 00:56:00,METAR KBLM 120056Z AUTO 34005KT 10SM CLR 13/M03 A3034 RMK AO2 SLP275 T01331028 PNO $
2026-04-11 23:56:00,METAR KBLM 112356Z AUTO 32005KT 10SM CLR 14/M03 A3031 RMK AO2 SLP265 6//// T01391028 10189 20139 53023 PNO $
2026-04-11 22:56:00,METAR KBLM 112256Z AUTO 30009KT 10SM CLR 17/M03 A3028 RMK AO2 SLP254 T01671033 PNO $
2026-04-11 21:56:00,METAR KBLM 112156Z AUTO 31016G19KT 10SM CLR 18/M03 A3026 RMK AO2 SLP248 T01781028 PNO $
2026-04-11 20:56:00,METAR KBLM 112056Z AUTO 30013KT 10SM CLR 18/M02 A3025 RMK AO2 SLP242 6//// T01781022 55000 PNO $
2026-04-11 19:56:00,METAR KBLM 111956Z AUTO 33012G18KT 10SM CLR 18/M01 A3023 RMK AO2 SLP238 T01831011 PNO $
2026-04-11 18:56:00,METAR KBLM 111856Z AUTO 29012G18KT 10SM CLR 18/01 A3024 RMK AO2 SLP239 T01780006 PNO $
2026-04-11 17:56:00,METAR KBLM 111756Z AUTO 30012G18KT 10SM CLR 17/01 A3025 RMK AO2 SLP243 6//// T01720011 10172 20128 58002 PNO $
2026-04-11 16:56:00,METAR KBLM 111656Z AUTO 30011G17KT 10SM CLR 16/01 A3026 RMK AO2 SLP245 T01610006 PNO $
2026-04-11 15:56:00,METAR KBLM 111556Z AUTO 30018G22KT 10SM CLR 15/01 A3026 RMK AO2 SLP248 T01500011 PNO $
2026-04-11 14:56:00,METAR KBLM 111456Z AUTO 31013G19KT 270V340 10SM CLR 14/02 A3025 RMK AO2 SLP246 6//// T01390022 51017 PNO $
2026-04-11 13:56:00,METAR KBLM 111356Z AUTO 31016KT 10SM CLR 13/04 A3025 RMK AO2 SLP244 T01330039 PNO $
2026-04-11 12:56:00,METAR KBLM 111256Z AUTO 32015KT 10SM CLR 13/06 A3022 RMK AO2 SLP233 T01330061 PNO $
2026-04-11 11:56:00,METAR KBLM 111156Z AUTO 32011G16KT 10SM CLR 13/09 A3020 RMK AO2 SLP229 6//// 7//// T01330094 10133 20089 53030 PNO $
2026-04-11 10:56:00,METAR KBLM 111056Z AUTO 30005KT 10SM CLR 09/ A3017 RMK AO2 SLP219 T0094 PNO $
2026-04-11 10:28:00,SPECI KBLM 111028Z AUTO 33005KT 10SM SCT025 09/09 A3016 RMK AO2 PNO $
2026-04-11 10:16:00,SPECI KBLM 111016Z AUTO 31005KT 10SM BKN025 09/09 A3015 RMK AO2 PNO $
2026-04-11 09:56:00,METAR KBLM 110956Z AUTO 24005KT 10SM FEW025 09/09 A3014 RMK AO2 SLP206 T00940094 PNO $
2026-04-11 08:56:00,METAR KBLM 110856Z AUTO 25005KT 10SM CLR 09/09 A3011 RMK AO2 SLP199 6//// T00890089 55006 PNO $
2026-04-11 07:56:00,METAR KBLM 110756Z AUTO 24004KT 10SM CLR 09/07 A3011 RMK AO2 SLP197 T00940072 PNO $
2026-04-11 06:56:00,METAR KBLM 110656Z AUTO 22006KT 10SM BKN110 11/06 A3011 RMK AO2 SLP196 T01060061 PNO $
2026-04-11 05:56:00,METAR KBLM 110556Z AUTO 21006KT 10SM BKN120 11/05 A3013 RMK AO2 SLP204 6//// T01060050 10117 20100 58008 PNO $
2026-04-11 04:56:00,METAR KBLM 110456Z AUTO 25005KT 10SM CLR 11/04 A3017 RMK AO2 SLP216 T01060044 401720039 PNO $
2026-04-11 03:56:00,METAR KBLM 110356Z AUTO 21006KT 10SM SCT120 11/03 A3015 RMK AO2 SLP210 T01060033 PNO $
2026-04-11 02:56:00,METAR KBLM 110256Z AUTO 20008KT 10SM CLR 10/02 A3016 RMK AO2 SLP212 6//// T01000017 58005 PNO $
2026-04-11 01:56:00,METAR KBLM 110156Z AUTO 21006KT 10SM CLR 11/03 A3017 RMK AO2 SLP218 T01110028 PNO $
2026-04-11 00:56:00,METAR KBLM 110056Z AUTO 19006KT 10SM CLR 11/06 A3017 RMK AO2 SLP217 T01110056 PNO $
2026-04-10 23:56:00,METAR KBLM 102356Z AUTO 18006KT 10SM CLR 11/11 A3017 RMK AO2 SLP217 6//// T01060106 10161 20106 56009 PNO $
2026-04-10 22:56:00,METAR KBLM 102256Z AUTO 16009KT 10SM CLR 12/10 A3017 RMK AO2 SLP218 T01170100 PNO $
2026-04-10 21:56:00,METAR KBLM 102156Z AUTO 15010KT 10SM CLR 13/08 A3019 RMK AO2 SLP222 T01280083 PNO $
2026-04-10 20:56:00,METAR KBLM 102056Z AUTO 17010G16KT 10SM CLR 13/07 A3020 RMK AO2 SLP227 6//// T01280072 56026 PNO $
2026-04-10 19:56:00,METAR KBLM 101956Z AUTO 17011KT 10SM CLR 14/06 A3022 RMK AO2 SLP235 T01390061 PNO $
2026-04-10 18:56:00,METAR KBLM 101856Z AUTO 16012KT 10SM CLR 14/06 A3025 RMK AO2 SLP244 T01440061 PNO $
2026-04-10 17:56:00,METAR KBLM 101756Z AUTO 17009KT 10SM CLR 15/06 A3028 RMK AO2 SLP253 6//// T01500056 10172 20044 58029 PNO $
2026-04-10 16:56:00,METAR KBLM 101656Z AUTO 16008KT 10SM CLR 16/05 A3031 RMK AO2 SLP263 T01610050 PNO $
2026-04-10 15:56:00,METAR KBLM 101556Z AUTO VRB06KT 10SM CLR 15/02 A3034 RMK AO2 SLP274 T01500017 PNO $
2026-04-10 14:56:00,METAR KBLM 101456Z AUTO 22006KT 10SM CLR 12/03 A3036 RMK AO2 SLP283 6//// T01220028 58016 PNO $
2026-04-10 13:56:00,METAR KBLM 101356Z AUTO 18005KT 10SM CLR 09/04 A3038 RMK AO2 SLP288 T00940044 PNO $
2026-04-10 12:56:00,METAR KBLM 101256Z AUTO 28005KT 10SM FEW007 07/07 A3040 RMK AO2 SLP295 T00720072 PNO $
2026-04-10 12:44:00,SPECI KBLM 101244Z AUTO 27004KT 10SM SCT007 07/ A3041 RMK AO2 PNO $
2026-04-10 11:56:00,METAR KBLM 101156Z AUTO 21003KT 10SM OVC005 04/ A3041 RMK AO2 SLP300 6//// 7//// T0044 10056 20039 55002 PNO $
2026-04-10 11:44:00,SPECI KBLM 101144Z AUTO 24006KT 10SM OVC005 04/ A3041 RMK AO2 PNO $
2026-04-10 10:56:00,METAR KBLM 101056Z AUTO 21003KT 10SM OVC007 04/ A3040 RMK AO2 SLP297 T0044 PNO $
2026-04-10 09:56:00,METAR KBLM 100956Z AUTO 19004KT 10SM OVC007 04/ A3040 RMK AO2 SLP296 T0044 PNO $
2026-04-10 08:56:00,METAR KBLM 100856Z AUTO 23003KT 10SM OVC007 04/ A3041 RMK AO2 SLP300 6//// T0044 56012 PNO $
2026-04-10 07:56:00,METAR KBLM 100756Z AUTO 25003KT 10SM OVC007 05/ A3042 RMK AO2 SLP300 T0050 PNO $
2026-04-10 06:56:00,METAR KBLM 100656Z AUTO 25003KT 10SM OVC009 05/ A3042 RMK AO2 SLP303 T0050 PNO $
2026-04-10 05:56:00,METAR KBLM 100556Z AUTO 22003KT 10SM OVC009 06/ A3045 RMK AO2 SLP312 6//// T0056 10061 20050 58009 PNO $
2026-04-10 04:56:00,METAR KBLM 100456Z AUTO 00000KT 10SM OVC009 06/ A3047 RMK AO2 SLP319 T0061 400891039 PNO $
2026-04-10 03:56:00,METAR KBLM 100356Z AUTO 15003KT 10SM BKN009 06/ A3047 RMK AO2 SLP318 T0056 PNO $
2026-04-10 02:56:00,METAR KBLM 100256Z AUTO 17008KT 10SM OVC009 06/ A3047 RMK AO2 SLP321 6//// T0056 58005 PNO $
2026-04-10 02:17:00,SPECI KBLM 100217Z AUTO 16004KT 10SM OVC009 06/ A3049 RMK AO2 PNO $
2026-04-10 01:56:00,METAR KBLM 100156Z AUTO 14005KT 10SM OVC011 05/ A3049 RMK AO2 SLP327 T0050 PNO $
2026-04-10 01:17:00,SPECI KBLM 100117Z AUTO 14005KT 10SM BKN011 05/ A3049 RMK AO2 PNO $
2026-04-10 00:56:00,METAR KBLM 100056Z AUTO 14006KT 10SM CLR 05/ A3050 RMK AO2 SLP329 T0050 PNO $
2026-04-09 23:56:00,METAR KBLM 092356Z AUTO 15008KT 10SM CLR 06/06 A3049 RMK AO2 SLP327 6//// T00560056 10089 20056 58010 PNO $
2026-04-09 22:56:00,METAR KBLM 092256Z AUTO 14006KT 10SM CLR 06/06 A3051 RMK AO2 SLP331 T00610061 PNO $
2026-04-09 21:56:00,METAR KBLM 092156Z AUTO 15009KT 10SM CLR 07/05 A3051 RMK AO2 SLP332 T00720050 PNO $
2026-04-09 20:56:00,METAR KBLM 092056Z AUTO 13009KT 10SM CLR 08/04 A3052 RMK AO2 SLP337 6//// T00780039 56020 PNO $
2026-04-09 19:56:00,METAR KBLM 091956Z AUTO 14009KT 10SM CLR 08/04 A3054 RMK AO2 SLP342 T00830039 PNO $
2026-04-09 18:56:00,METAR KBLM 091856Z AUTO 17011KT 10SM CLR 09/02 A3056 RMK AO2 SLP349 T00890022 PNO $
2026-04-09 17:56:00,METAR KBLM 091756Z AUTO VRB06KT 10SM CLR 08/02 A3058 RMK AO2 SLP356 6//// T00830022 10089 20033 58017 PNO $
2026-04-09 16:56:00,METAR KBLM 091656Z AUTO 12006KT 10SM CLR 08/03 A3060 RMK AO2 SLP363 T00780028 PNO $
2026-04-09 15:56:00,METAR KBLM 091556Z AUTO 11013KT 10SM CLR 07/03 A3061 RMK AO2 SLP366 T00720028 PNO $
2026-04-09 14:56:00,METAR KBLM 091456Z AUTO 11008KT 10SM CLR 07/03 A3063 RMK AO2 SLP374 6//// T00720028 58003 PNO $
2026-04-09 14:16:00,SPECI KBLM 091416Z AUTO 13007KT 10SM SCT020 07/03 A3063 RMK AO2 PNO $
2026-04-09 13:56:00,METAR KBLM 091356Z AUTO 00000KT 10SM BKN020 06/03 A3063 RMK AO2 SLP374 T00610033 PNO $
2026-04-09 12:56:00,METAR KBLM 091256Z AUTO 13005KT 10SM BKN018 05/04 A3064 RMK AO2 SLP376 T00500039 PNO $
2026-04-09 12:38:00,SPECI KBLM 091238Z AUTO 09003KT 10SM FEW018 04/04 A3064 RMK AO2 PNO $
2026-04-09 11:56:00,METAR KBLM 091156Z AUTO 00000KT 10SM OVC018 03/ A3064 RMK AO2 SLP376 6//// 7//// T0033 10033 21039 53014 PNO $
2026-04-09 10:56:00,METAR KBLM 091056Z AUTO 00000KT 10SM OVC016 M01/ A3062 RMK AO2 SLP371 T1011 FZRANO PNO $
2026-04-09 09:56:00,METAR KBLM 090956Z AUTO 33003KT 10SM OVC016 M03/ A3061 RMK AO2 SLP368 T1033 FZRANO PNO $
2026-04-09 09:41:00,SPECI KBLM 090941Z AUTO 00000KT 10SM BKN016 M04/ A3061 RMK AO2 FZRANO PNO $
2026-04-09 08:56:00,METAR KBLM 090856Z AUTO 00000KT 10SM CLR M03/ A3060 RMK AO2 SLP363 6//// T1033 55007 FZRANO PNO $
2026-04-09 07:56:00,METAR KBLM 090756Z AUTO 00000KT 10SM CLR M03/ A3059 RMK AO2 SLP362 T1033 FZRANO PNO $
2026-04-09 06:56:00,METAR KBLM 090656Z AUTO 00000KT 10SM CLR M03/ A3060 RMK AO2 SLP363 T1028 FZRANO PNO $
2026-04-09 05:56:00,METAR KBLM 090556Z AUTO 31003KT 10SM CLR M03/M03 A3062 RMK AO2 SLP370 6//// T10281028 10022 21028 58002 FZRANO PNO $
2026-04-09 04:56:00,METAR KBLM 090456Z AUTO 26003KT 10SM CLR M02/M02 A3063 RMK AO2 SLP376 T10171017 400611017 FZRANO PNO $
2026-04-09 03:56:00,METAR KBLM 090356Z AUTO 00000KT 10SM CLR M01/M02 A3063 RMK AO2 SLP374 T10061017 FZRANO PNO $
2026-04-09 02:56:00,METAR KBLM 090256Z AUTO 14004KT 10SM CLR 02/02 A3062 RMK AO2 SLP371 6//// T00170017 51007 FZRANO PNO $
2026-04-09 01:56:00,METAR KBLM 090156Z AUTO 13004KT 10SM CLR 02/02 A3062 RMK AO2 SLP371 T00170017 FZRANO PNO $
2026-04-09 00:56:00,METAR KBLM 090056Z AUTO 11003KT 10SM CLR 02/01 A3062 RMK AO2 SLP370 T00220006 FZRANO PNO $
2026-04-08 23:56:00,METAR KBLM 082356Z AUTO 13004KT 10SM CLR 03/M01 A3060 RMK AO2 SLP364 6//// T00281011 10061 20028 58003 PNO $
2026-04-08 22:56:00,METAR KBLM 082256Z AUTO 13008KT 10SM CLR 04/M03 A3060 RMK AO2 SLP366 T00391028 PNO $
2026-04-08 21:56:00,METAR KBLM 082156Z AUTO 12006KT 10SM CLR 05/M04 A3061 RMK AO2 SLP368 T00501044 PNO $
2026-04-08 20:56:00,METAR KBLM 082056Z AUTO 11007KT 10SM CLR 06/M05 A3061 RMK AO2 SLP367 6//// T00561050 56005 PNO $
2026-04-08 19:56:00,METAR KBLM 081956Z AUTO 10008KT 10SM CLR 05/M06 A3061 RMK AO2 SLP367 T00501056 PNO $
2026-04-08 18:56:00,METAR KBLM 081856Z AUTO 07010KT 10SM CLR 06/M08 A3062 RMK AO2 SLP369 T00561078 PNO $
2026-04-08 17:56:00,METAR KBLM 081756Z AUTO 08010G15KT 10SM CLR 06/M07 A3062 RMK AO2 SLP371 6//// T00561072 10056 20006 58010 PNO $
2026-04-08 16:56:00,METAR KBLM 081656Z AUTO 06008KT 10SM CLR 04/M08 A3063 RMK AO2 SLP375 T00441078 PNO $
2026-04-08 15:56:00,METAR KBLM 081556Z AUTO 07008KT 10SM CLR 04/M08 A3064 RMK AO2 SLP378 T00441078 PNO $
2026-04-08 14:56:00,METAR KBLM 081456Z AUTO 06010KT 10SM CLR 03/M08 A3065 RMK AO2 SLP381 6//// T00331078 51016 PNO $
2026-04-08 13:56:00,METAR KBLM 081356Z AUTO 04012G16KT 10SM CLR 02/M07 A3064 RMK AO2 SLP376 T00221072 FZRANO PNO $
2026-04-08 12:56:00,METAR KBLM 081256Z AUTO 02013KT 10SM CLR 01/M08 A3063 RMK AO2 SLP372 T00111078 FZRANO PNO $
2026-04-08 11:56:00,METAR KBLM 081156Z AUTO 02013G18KT 10SM CLR 01/M08 A3061 RMK AO2 SLP365 6//// 7//// T00061083 10006 21017 51020 FZRANO PNO $
2026-04-08 10:56:00,METAR KBLM 081056Z AUTO 01004KT 10SM CLR M01/M07 A3059 RMK AO2 SLP360 T10111072 FZRANO PNO $
2026-04-08 09:56:00,METAR KBLM 080956Z AUTO 35006KT 10SM CLR M01/M08 A3057 RMK AO2 SLP353 T10111083 FZRANO PNO $
2026-04-08 08:56:00,METAR KBLM 080856Z AUTO 36006KT 10SM CLR M01/M09 A3055 RMK AO2 SLP345 6//// T10111089 53012 FZRANO PNO $
2026-04-08 07:56:00,METAR KBLM 080756Z AUTO 34009KT 10SM CLR M01/M09 A3053 RMK AO2 SLP339 T10061094 FZRANO PNO $
2026-04-08 06:56:00,METAR KBLM 080656Z AUTO 34011KT 10SM CLR 00/M09 A3052 RMK AO2 SLP336 T00001094 FZRANO PNO $
2026-04-08 05:56:00,METAR KBLM 080556Z AUTO 34009KT 10SM CLR 00/M09 A3051 RMK AO2 SLP333 6//// T00001094 10061 20000 50012 FZRANO PNO $
2026-04-08 04:56:00,METAR KBLM 080456Z AUTO 34010G15KT 10SM CLR 01/M09 A3052 RMK AO2 SLP338 T00111094 401280011 FZRANO PNO $
2026-04-08 03:56:00,METAR KBLM 080356Z AUTO 32010KT 10SM CLR 02/M09 A3051 RMK AO2 SLP332 T00171094 FZRANO PNO $
2026-04-08 02:56:00,METAR KBLM 080256Z AUTO 33014G19KT 10SM CLR 03/M10 A3047 RMK AO2 SLP321 6//// T00281100 51033 PNO $
2026-04-08 01:56:00,METAR KBLM 080156Z AUTO 32011KT 10SM CLR 04/M11 A3045 RMK AO2 SLP312 T00391106 PNO $
2026-04-08 00:56:00,METAR KBLM 080056Z AUTO 32013KT 10SM CLR 05/M11 A3042 RMK AO2 SLP302 T00501106 PNO $
2026-04-07 23:56:00,METAR KBLM 072356Z AUTO 32017G20KT 10SM CLR 06/M11 A3038 RMK AO2 SLP288 6//// T00611111 10128 20061 51045 PNO $
2026-04-07 22:56:00,METAR KBLM 072256Z AUTO 33016G25KT 10SM CLR 08/M11 A3034 RMK AO2 SLP275 T00781106 PNO $
2026-04-07 21:56:00,METAR KBLM 072156Z AUTO 30017G27KT 10SM CLR 09/M12 A3030 RMK AO2 PK WND 31032/2117 PRESRR SLP263 T00941122 PNO $
2026-04-07 20:56:00,METAR KBLM 072056Z AUTO 31019G28KT 10SM CLR 12/M07 A3025 RMK AO2 PK WND 31028/2051 SLP243 6//// T01171072 53017 PNO $
2026-04-07 19:56:00,METAR KBLM 071956Z AUTO 29018G25KT 10SM CLR 13/M09 A3021 RMK AO2 PK WND 31028/1942 SLP232 T01281089 PNO $
2026-04-07 18:56:00,METAR KBLM 071856Z AUTO 27016G24KT 10SM CLR 13/M08 A3020 RMK AO2 PK WND 27028/1830 SLP228 T01281083 PNO $
2026-04-07 17:56:00,METAR KBLM 071756Z AUTO 26016G25KT 10SM CLR 13/M07 A3020 RMK AO2 PK WND 29029/1731 SLP226 6//// T01281067 10128 20089 51009 PNO $
2026-04-07 16:56:00,METAR KBLM 071656Z AUTO 27015G26KT 10SM FEW070 13/M04 A3019 RMK AO2 PK WND 30028/1633 SLP225 T01281044 PNO $
2026-04-07 15:56:00,METAR KBLM 071556Z AUTO 28019G23KT 10SM SCT060 12/M03 A3018 RMK AO2 PK WND 30030/1541 SLP222 T01171033 PNO $
2026-04-07 14:56:00,METAR KBLM 071456Z AUTO 29016G24KT 10SM SCT060 12/M02 A3017 RMK AO2 SLP217 6//// T01171022 53006 PNO $
2026-04-07 13:56:00,METAR KBLM 071356Z AUTO 26015G23KT 10SM CLR 11/M02 A3016 RMK AO2 SLP214 T01111017 PNO $
2026-04-07 12:56:00,METAR KBLM 071256Z AUTO 28013G17KT 10SM CLR 11/00 A3014 RMK AO2 SLP209 T01060000 PNO $
2026-04-07 11:56:00,METAR KBLM 071156Z AUTO 26005KT 10SM BKN065 09/03 A3015 RMK AO2 RAE01 SLP211 6//// 7//// T00890028 10089 20072 53021 PNO $
2026-04-07 10:56:00,METAR KBLM 071056Z AUTO 27005KT 10SM -RA OVC060 08/05 A3013 RMK AO2 RAB35 SLP203 T00780050 PNO $
2026-04-07 09:56:00,METAR KBLM 070956Z AUTO 27005KT 10SM BKN060 OVC095 07/06 A3010 RMK AO2 SLP194 T00720061 PNO $
2026-04-07 08:56:00,METAR KBLM 070856Z AUTO 19004KT 10SM OVC065 08/04 A3009 RMK AO2 SLP190 6//// T00780044 56006 PNO $
2026-04-07 07:56:00,METAR KBLM 070756Z AUTO 18004KT 10SM FEW060 BKN090 OVC110 08/04 A3009 RMK AO2 SLP190 T00780044 PNO $
2026-04-07 06:56:00,METAR KBLM 070656Z AUTO 26003KT 10SM BKN095 BKN120 08/02 A3010 RMK AO2 SLP192 T00830022 PNO $
2026-04-07 05:56:00,METAR KBLM 070556Z AUTO 00000KT 10SM FEW060 BKN075 OVC090 08/03 A3011 RMK AO2 SLP196 6//// T00830028 10106 20078 52001 PNO $
2026-04-07 04:56:00,METAR KBLM 070456Z AUTO 00000KT 10SM OVC070 09/01 A3011 RMK AO2 SLP196 T00890006 401390050 PNO $
2026-04-07 03:56:00,METAR KBLM 070356Z AUTO 00000KT 10SM BKN080 OVC110 08/04 A3010 RMK AO2 SLP195 T00830039 PNO $
2026-04-07 02:56:00,METAR KBLM 070256Z AUTO 00000KT 10SM SCT080 OVC100 09/00 A3010 RMK AO2 SLP195 6//// T00940000 50010 PNO $
2026-04-07 01:56:00,METAR KBLM 070156Z AUTO 24003KT 10SM OVC110 09/M01 A3011 RMK AO2 SLP196 T00941011 PNO $
2026-04-07 00:56:00,METAR KBLM 070056Z AUTO 22004KT 10SM CLR 10/M02 A3010 RMK AO2 SLP194 T01001022 PNO $
2026-04-06 23:56:00,METAR KBLM 062356Z AUTO 25003KT 10SM FEW080 11/M02 A3007 RMK AO2 SLP185 6//// T01061022 10139 20106 51019 PNO $
2026-04-06 22:56:00,METAR KBLM 062256Z AUTO VRB04KT 10SM FEW075 OVC090 12/M03 A3006 RMK AO2 SLP180 T01221033 PNO $
2026-04-06 21:56:00,METAR KBLM 062156Z AUTO 27011G21KT 10SM BKN085 13/M04 A3003 RMK AO2 SLP171 T01281044 PNO $
2026-04-06 20:56:00,METAR KBLM 062056Z AUTO 30015KT 10SM BKN080 13/M04 A3002 RMK AO2 SLP166 6//// T01331039 56011 PNO $
2026-04-06 19:56:00,METAR KBLM 061956Z AUTO 27015G21KT 10SM FEW075 13/M04 A3002 RMK AO2 SLP167 T01331044 PNO $
2026-04-06 18:56:00,METAR KBLM 061856Z AUTO 27012G17KT 10SM FEW070 13/M04 A3004 RMK AO2 SLP172 T01281039 PNO $
2026-04-06 17:56:00,METAR KBLM 061756Z AUTO 30015G20KT 10SM CLR 13/M03 A3005 RMK AO2 SLP176 6//// T01281033 10128 20067 58011 PNO $
2026-04-06 16:56:00,METAR KBLM 061656Z AUTO 27010G18KT 10SM CLR 12/M03 A3007 RMK AO2 SLP182 T01171028 PNO $
2026-04-06 15:56:00,METAR KBLM 061556Z AUTO 27013G19KT 10SM FEW055 10/M03 A3007 RMK AO2 SLP185 T01001033 PNO $
2026-04-06 14:56:00,METAR KBLM 061456Z AUTO 28009G18KT 10SM CLR 09/M03 A3008 RMK AO2 SLP187 6//// T00891033 51007 PNO $
2026-04-06 13:56:00,METAR KBLM 061356Z AUTO 29012G19KT 10SM CLR 08/M03 A3007 RMK AO2 SLP185 T00831028 PNO $
2026-04-06 12:56:00,METAR KBLM 061256Z AUTO 31014G19KT 10SM CLR 07/M03 A3007 RMK AO2 SLP183 T00721028 PNO $
2026-04-06 11:56:00,METAR KBLM 061156Z AUTO 29006KT 10SM CLR 07/M03 A3006 RMK AO2 SLP180 6//// 7//// T00671033 10083 20050 51026 PNO $
2026-04-06 10:56:00,METAR KBLM 061056Z AUTO 29006KT 10SM CLR 05/M03 A3004 RMK AO2 SLP173 T00501033 PNO $
2026-04-06 09:56:00,METAR KBLM 060956Z AUTO 30012G21KT 10SM FEW050 06/M03 A3001 RMK AO2 SLP162 T00611028 PNO $
2026-04-06 08:56:00,METAR KBLM 060856Z AUTO 29012G21KT 10SM SCT050 07/M02 A2998 RMK AO2 SLP154 6//// T00721017 53010 PNO $
2026-04-06 07:56:00,METAR KBLM 060756Z AUTO 29007KT 10SM OVC050 08/01 A2997 RMK AO2 SLP148 T00830006 PNO $
2026-04-06 06:56:00,METAR KBLM 060656Z AUTO 27008G15KT 10SM SCT055 08/M01 A2996 RMK AO2 SLP145 T00781006 PNO $
2026-04-06 05:56:00,METAR KBLM 060556Z AUTO 29010G19KT 10SM FEW055 08/M01 A2995 RMK AO2 PK WND 29028/0518 SLP144 6//// T00831006 10117 20083 51005 PNO $
2026-04-06 04:56:00,METAR KBLM 060456Z AUTO 29010KT 10SM BKN050 09/02 A2995 RMK AO2 SLP142 T00940017 402330061 PNO $
2026-04-06 03:56:00,METAR KBLM 060356Z AUTO 28014G23KT 10SM OVC050 10/02 A2995 RMK AO2 SLP140 T01000022 PNO $
2026-04-06 02:56:00,METAR KBLM 060256Z AUTO 28009KT 10SM OVC055 11/05 A2994 RMK AO2 SLP138 6//// T01060050 51023 PNO $
2026-04-06 01:56:00,METAR KBLM 060156Z AUTO 27007KT 10SM FEW050 10/10 A2993 RMK AO2 SLP135 T01000100 PNO $
2026-04-06 00:56:00,METAR KBLM 060056Z AUTO 28006KT 10SM CLR 11/11 A2991 RMK AO2 SLP129 T01060106 PNO $
2026-04-05 23:56:00,METAR KBLM 052356Z AUTO 28007KT 10SM CLR 12/12 A2987 RMK AO2 SLP116 6//// T01170117 10150 20117 51017 PNO $
2026-04-05 22:56:00,METAR KBLM 052256Z AUTO 27010G19KT 10SM FEW013 SCT020 13/ A2984 RMK AO2 SLP107 T0133 PNO $
2026-04-05 22:42:00,SPECI KBLM 052242Z AUTO 27008G15KT 10SM SCT013 BKN020 13/ A2984 RMK AO2 PNO $
2026-04-05 21:56:00,METAR KBLM 052156Z AUTO 26006KT 10SM FEW028 OVC041 13/ A2982 RMK AO2 RAE03 SLP098 T0133 PNO $
2026-04-05 21:52:00,SPECI KBLM 052152Z AUTO 28007KT 10SM SCT026 OVC043 13/ A2982 RMK AO2 RAE03 PNO $
2026-04-05 21:13:00,SPECI KBLM 052113Z AUTO 27012G18KT 10SM FEW008 BKN026 OVC033 14/ A2981 RMK AO2 RAE03 PNO $
2026-04-05 21:04:00,SPECI KBLM 052104Z AUTO 27011G19KT 10SM SCT008 BKN014 OVC031 14/ A2981 RMK AO2 RAE03 PNO $
2026-04-05 20:56:00,METAR KBLM 052056Z AUTO 28013G19KT 10SM -RA FEW003 BKN009 OVC013 14/ A2980 RMK AO2 SLP091 6//// T0139 55006 PNO $
2026-04-05 20:54:00,SPECI KBLM 052054Z AUTO 28011KT 10SM -RA FEW003 BKN009 OVC013 14/ A2980 RMK AO2 PNO $
2026-04-05 20:44:00,SPECI KBLM 052044Z AUTO 31011KT 8SM -RA BKN005 BKN011 OVC014 14/ A2979 RMK AO2 CIG 003V009 PNO $
2026-04-05 19:56:00,METAR KBLM 051956Z AUTO 20004KT 10SM -RA BKN008 BKN017 OVC085 15/ A2979 RMK AO2 CIG 006V011 SLP088 T0150 PNO $
2026-04-05 19:39:00,SPECI KBLM 051939Z AUTO 19005KT 8SM -RA BKN008 OVC075 15/ A2981 RMK AO2 CIG 006V011 PNO $
2026-04-05 19:30:00,SPECI KBLM 051930Z AUTO 21005KT 7SM -RA SCT008 SCT021 OVC075 15/ A2981 RMK AO2 PNO $
2026-04-05 18:56:00,METAR KBLM 051856Z AUTO 24005KT 10SM -RA OVC070 15/ A2982 RMK AO2 SLP098 T0150 PNO $
2026-04-05 17:56:00,METAR KBLM 051756Z AUTO 22004KT 7SM RA FEW050 OVC060 15/ A2985 RMK AO2 SLP110 6//// T0150 10233 20089 53010 PNO $
2026-04-05 16:56:00,METAR KBLM 051656Z AUTO 29009KT 10SM -RA FEW013 OVC035 14/ A2984 RMK AO2 PK WND 30034/1635 WSHFT 1622 RAB23 SLP106 P0001 T0144
2026-04-05 16:42:00,SPECI KBLM 051642Z AUTO 30012G34KT 7SM RA FEW013 SCT023 OVC033 14/14 A2985 RMK AO2 PK WND 30034/1635 WSHFT 1622 RAB23 P0000
2026-04-05 15:56:00,METAR KBLM 051556Z AUTO 22007G18KT 10SM SCT033 23/19 A2980 RMK AO2 SLP089 T02280194
2026-04-05 14:56:00,METAR KBLM 051456Z AUTO 20007KT 10SM SCT120 18/ A2982 RMK AO2 SLP099 T0178 56023
2026-04-05 13:06:00,SPECI KBLM 051306Z AUTO 19004KT 8SM FEW001 OVC110 12/ A2986 RMK AO2
2026-04-05 12:56:00,METAR KBLM 051256Z AUTO 16004KT 6SM HZ BKN001 BKN110 11/ A2986 RMK AO2 SLP113 T0111
2026-04-05 12:37:00,SPECI KBLM 051237Z AUTO 00000KT 3SM BR OVC001 10/ A2987 RMK AO2
2026-04-05 12:13:00,SPECI KBLM 051213Z AUTO 00000KT 1 3/4SM BR OVC001 09/ A2988 RMK AO2
2026-04-05 11:56:00,METAR KBLM 051156Z AUTO 00000KT 3SM BR OVC001 09/ A2989 RMK AO2 SLP123 60000 70001 T0089 10089 20067 56021
2026-04-05 11:41:00,SPECI KBLM 051141Z AUTO 00000KT 1 1/4SM BR OVC001 08/ A2990 RMK AO2 VIS 3/4V2
2026-04-05 11:37:00,SPECI KBLM 051137Z AUTO 00000KT 3/4SM BR OVC001 08/ A2990 RMK AO2 RVRNO
2026-04-05 10:56:00,METAR KBLM 051056Z AUTO 00000KT 1/4SM FG OVC001 08/ A2990 RMK AO2 SLP127 T0078 RVRNO
2026-04-05 09:56:00,METAR KBLM 050956Z AUTO 00000KT 1/4SM FG OVC001 07/ A2992 RMK AO2 SLP133 T0072 RVRNO
2026-04-05 09:41:00,SPECI KBLM 050941Z AUTO 00000KT 1/4SM FG OVC001 07/ A2993 RMK AO2 RVRNO
2026-04-05 08:56:00,METAR KBLM 050856Z AUTO 05003KT 1/4SM FG OVC003 07/ A2995 RMK AO2 SLP144 60000 T0072 56047 RVRNO
2026-04-05 08:18:00,SPECI KBLM 050818Z AUTO 04004KT 1/4SM FG OVC003 07/ A2998 RMK AO2 RVRNO
2026-04-05 07:56:00,METAR KBLM 050756Z AUTO 06005KT 1/2SM FG OVC003 07/ A3000 RMK AO2 RAE01 SLP158 P0000 T0072 RVRNO
2026-04-05 06:56:00,METAR KBLM 050656Z AUTO 07005KT 1/2SM -RA OVC003 07/ A3005 RMK AO2 SLP176 P0000 T0072 RVRNO
2026-04-05 05:56:00,METAR KBLM 050556Z AUTO 07008KT 1/2SM -RA OVC003 07/ A3009 RMK AO2 SLP191 P0000 60001 T0067 10067 20061 58034 RVRNO
2026-04-05 05:38:00,SPECI KBLM 050538Z AUTO 07010KT 3/4SM -RA OVC003 06/ A3011 RMK AO2 P0000 RVRNO
2026-04-05 05:19:00,SPECI KBLM 050519Z AUTO 07007KT 1SM -RA OVC003 06/ A3013 RMK AO2 P0000 RVRNO
2026-04-05 04:56:00,METAR KBLM 050456Z AUTO 08011KT 1 1/4SM -RA OVC003 06/ A3014 RMK AO2 SLP208 P0000 T0061 402170061
2026-04-05 03:56:00,METAR KBLM 050356Z AUTO 07011G16KT 1 1/2SM -RA OVC003 06/ A3017 RMK AO2 SLP218 P0001 T0061
2026-04-05 02:56:00,METAR KBLM 050256Z AUTO 08017G21KT 1 3/4SM -RA OVC003 06/ A3019 RMK AO2 SLP224 P0000 60000 T0061 58012
2026-04-05 01:56:00,METAR KBLM 050156Z AUTO 08014G20KT 1 1/2SM -RA OVC003 06/ A3023 RMK AO2 SLP236 P0000 T0061
2026-04-05 01:31:00,SPECI KBLM 050131Z AUTO 08010KT 2SM -RA OVC003 06/ A3023 RMK AO2 P0000
2026-04-05 00:56:00,METAR KBLM 050056Z AUTO 08012G17KT 2SM -RA OVC005 06/ A3024 RMK AO2 PK WND 08026/0028 RAB45 SLP239 P0000 T0061
2026-04-05 00:46:00,SPECI KBLM 050046Z AUTO 08017G25KT 2 1/2SM -RA OVC005 06/ A3023 RMK AO2 PK WND 08026/0028 RAB45 P0000
2026-04-04 23:56:00,METAR KBLM 042356Z AUTO 08014G24KT 9SM OVC009 07/ A3023 RMK AO2 SLP237 T0067 10189 20067 58005
2026-04-04 23:38:00,SPECI KBLM 042338Z AUTO 09018G25KT 9SM OVC009 07/ A3023 RMK AO2
2026-04-04 22:56:00,METAR KBLM 042256Z AUTO 10016G22KT 10SM OVC013 08/ A3024 RMK AO2 PK WND 08026/2212 SLP241 T0078
2026-04-04 22:41:00,SPECI KBLM 042241Z AUTO 09013G22KT 10SM BKN013 OVC033 08/ A3024 RMK AO2 PK WND 08026/2212
2026-04-04 21:56:00,METAR KBLM 042156Z AUTO 08017G26KT 10SM SCT012 OVC033 08/08 A3024 RMK AO2 PK WND 08027/2124 SLP241 T00830083
2026-04-04 20:56:00,METAR KBLM 042056Z AUTO 09014G23KT 10SM OVC033 10/10 A3025 RMK AO2 PK WND 09026/2011 SLP243 T01000100 53009
2026-04-04 19:56:00,METAR KBLM 041956Z AUTO 08017G22KT 10SM OVC033 12/11 A3023 RMK AO2 PK WND 07028/1914 SLP237 T01220111
2026-04-04 18:56:00,METAR KBLM 041856Z AUTO 08013KT 10SM FEW031 SCT100 17/13 A3022 RMK AO2 SLP233 T01720128
2026-04-04 17:56:00,METAR KBLM 041756Z AUTO 08013G19KT 10SM CLR 18/14 A3022 RMK AO2 SLP232 T01830144 10217 20172 50003
2026-04-04 16:56:00,METAR KBLM 041656Z AUTO 08014G21KT 10SM CLR 18/17 A3022 RMK AO2 SLP233 T01830172
2026-04-04 15:56:00,METAR KBLM 041556Z AUTO 06009KT 10SM CLR 21/17 A3021 RMK AO2 SLP229 T02110172
2026-04-04 14:56:00,METAR KBLM 041456Z AUTO 07010KT 10SM CLR 21/18 A3021 RMK AO2 SLP229 T02060178 53010
2026-04-04 13:56:00,METAR KBLM 041356Z AUTO 03006KT 10SM CLR 21/19 A3020 RMK AO2 SLP226 T02110189
2026-04-04 12:56:00,METAR KBLM 041256Z AUTO 31007KT 10SM CLR 19/19 A3018 RMK AO2 SLP221 T01940194
2026-04-04 11:56:00,METAR KBLM 041156Z AUTO 25005KT 10SM CLR 17/ A3018 RMK AO2 SLP219 T0172 10172 20144 53020
2026-04-04 10:56:00,METAR KBLM 041056Z AUTO 25004KT 10SM CLR 15/ A3015 RMK AO2 SLP208 T0150
2026-04-04 09:56:00,METAR KBLM 040956Z AUTO 24004KT 10SM CLR 15/ A3013 RMK AO2 SLP204 T0150
2026-04-04 08:56:00,METAR KBLM 040856Z AUTO 26004KT 10SM CLR 14/ A3012 RMK AO2 SLP199 T0144 57002
2026-04-04 07:56:00,METAR KBLM 040756Z AUTO 26004KT 10SM CLR 16/ A3012 RMK AO2 SLP200 T0156
2026-04-04 06:56:00,METAR KBLM 040656Z AUTO 26005KT 10SM CLR 16/ A3012 RMK AO2 SLP201 T0161
2026-04-04 05:56:00,METAR KBLM 040556Z AUTO 23006KT 10SM CLR 17/ A3013 RMK AO2 SLP201 T0172 10178 20167 58004
2026-04-04 04:56:00,METAR KBLM 040456Z AUTO 23005KT 10SM CLR 17/ A3013 RMK AO2 SLP204 T0172 402330044
2026-04-04 03:56:00,METAR KBLM 040356Z AUTO 22006KT 10SM CLR 18/ A3014 RMK AO2 SLP205 T0178
2026-04-04 02:56:00,METAR KBLM 040256Z AUTO 21007KT 10SM CLR 18/ A3014 RMK AO2 SLP206 T0178 58002
2026-04-04 01:56:00,METAR KBLM 040156Z AUTO 19006KT 10SM FEW120 17/ A3015 RMK AO2 SLP209 T0172
2026-04-04 00:56:00,METAR KBLM 040056Z AUTO 20005KT 10SM CLR 17/ A3015 RMK AO2 SLP211 T0172
2026-04-03 23:56:00,METAR KBLM 032356Z AUTO 18004KT 10SM CLR 18/ A3014 RMK AO2 SLP208 T0178 10233 20156 56007
2026-04-03 22:56:00,METAR KBLM 032256Z AUTO 17003KT 10SM CLR 19/19 A3015 RMK AO2 SLP209 T01940194
2026-04-03 21:56:00,METAR KBLM 032156Z AUTO 23007KT 10SM CLR 23/18 A3015 RMK AO2 SLP208 T02280183
2026-04-03 20:56:00,METAR KBLM 032056Z AUTO 22006KT 10SM CLR 22/18 A3017 RMK AO2 SLP215 T02220178 56023
2026-04-03 19:56:00,METAR KBLM 031956Z AUTO 22011KT 10SM FEW025 21/18 A3019 RMK AO2 SLP221 T02060183
2026-04-03 19:25:00,SPECI KBLM 031925Z AUTO 23008G15KT 10SM SCT015 19/18 A3019 RMK AO2
2026-04-03 19:08:00,SPECI KBLM 031908Z AUTO 22009KT 10SM BKN015 18/18 A3020 RMK AO2
2026-04-03 18:56:00,METAR KBLM 031856Z AUTO 22009KT 10SM OVC013 18/18 A3021 RMK AO2 SLP230 T01780178
2026-04-03 18:22:00,SPECI KBLM 031822Z AUTO 24010G15KT 10SM OVC011 16/ A3022 RMK AO2
2026-04-03 17:56:00,METAR KBLM 031756Z AUTO VRB05KT 10SM OVC009 16/ A3023 RMK AO2 SLP238 T0156 10156 20056 58025
2026-04-03 16:56:00,METAR KBLM 031656Z AUTO 24006KT 10SM OVC009 14/ A3026 RMK AO2 SLP247 T0139
2026-04-03 16:08:00,SPECI KBLM 031608Z AUTO 23006KT 10SM OVC007 12/ A3028 RMK AO2
2026-04-03 15:56:00,METAR KBLM 031556Z AUTO 23007KT 10SM OVC005 12/ A3028 RMK AO2 SLP256 T0117
2026-04-03 15:27:00,SPECI KBLM 031527Z AUTO 23007KT 10SM OVC005 11/ A3030 RMK AO2
2026-04-03 14:56:00,METAR KBLM 031456Z AUTO 20006KT 4SM HZ OVC003 09/ A3031 RMK AO2 SLP263 T0094 58009
2026-04-03 14:39:00,SPECI KBLM 031439Z AUTO 19004KT 2SM BR OVC003 09/ A3032 RMK AO2
2026-04-03 14:27:00,SPECI KBLM 031427Z AUTO 00000KT 3SM BR OVC003 09/ A3032 RMK AO2
2026-04-03 13:56:00,METAR KBLM 031356Z AUTO 00000KT 1 1/4SM BR OVC003 08/ A3032 RMK AO2 SLP268 T0078
2026-04-03 13:51:00,SPECI KBLM 031351Z AUTO 00000KT 1 1/4SM BR OVC003 08/ A3032 RMK AO2
2026-04-03 13:32:00,SPECI KBLM 031332Z AUTO 00000KT 3/4SM BR OVC003 07/ A3032 RMK AO2 RVRNO
2026-04-03 13:14:00,SPECI KBLM 031314Z AUTO 00000KT 1/2SM FG OVC003 06/ A3033 RMK AO2 RVRNO
2026-04-03 12:56:00,METAR KBLM 031256Z AUTO 36003KT 3/4SM BR OVC003 06/ A3033 RMK AO2 SLP272 T0061 RVRNO
2026-04-03 11:56:00,METAR KBLM 031156Z AUTO 07004KT 3/4SM BR OVC003 06/ A3033 RMK AO2 SLP274 60000 70001 T0056 10056 20050 57008 RVRNO
2026-04-03 11:34:00,SPECI KBLM 031134Z AUTO 04005KT 3/4SM BR OVC003 06/ A3034 RMK AO2 RVRNO
2026-04-03 11:16:00,SPECI KBLM 031116Z AUTO 04005KT 1SM BR OVC003 06/ A3034 RMK AO2 RVRNO
2026-04-03 08:56:00,METAR KBLM 030856Z AUTO 06006KT 1 1/2SM BR OVC003 05/ A3036 RMK AO2 RAE05 SLP282 P0000 60000 T0050 56021
2026-04-03 05:56:00,METAR KBLM 030556Z AUTO 08010KT 1 1/2SM -RA OVC003 05/ A3042 RMK AO2 SLP303 P0000 60001 T0050 10050 20044 58006
2026-04-03 05:33:00,SPECI KBLM 030533Z AUTO 08008KT 1 3/4SM -RA OVC003 05/ A3043 RMK AO2 P0000
2026-04-03 04:56:00,METAR KBLM 030456Z AUTO 08010KT 2SM -RA OVC003 04/ A3043 RMK AO2 SLP306 P0000 T0044 400780044
2026-04-03 03:56:00,METAR KBLM 030356Z AUTO 08009KT 2SM -RA OVC003 04/ A3044 RMK AO2 SLP310 P0001 T0044
2026-04-03 02:56:00,METAR KBLM 030256Z AUTO 07014G18KT 2 1/2SM -RA OVC003 04/ A3044 RMK AO2 SLP309 P0000 60000 T0044 58006
2026-04-03 01:56:00,METAR KBLM 030156Z AUTO 08013G19KT 2 1/2SM -RA OVC003 04/ A3046 RMK AO2 SLP317 P0000 T0044
2026-04-03 00:56:00,METAR KBLM 030056Z AUTO 08014G20KT 2 1/2SM -RA OVC003 04/ A3045 RMK AO2 SLP315 P0000 T0044
2026-04-02 23:56:00,METAR KBLM 022356Z AUTO 07012G18KT 2SM -RA OVC003 04/ A3045 RMK AO2 SLP315 P0000 60000 T0044 10050 20044 53002
2026-04-02 23:51:00,SPECI KBLM 022351Z AUTO 08014G19KT 2SM -RA OVC003 04/ A3045 RMK AO2 P0000
2026-04-02 23:42:00,SPECI KBLM 022342Z AUTO 08013G19KT 1 1/2SM -RA OVC005 04/ A3046 RMK AO2 P0000
2026-04-02 23:23:00,SPECI KBLM 022323Z AUTO 07014G19KT 1SM -RA OVC005 04/ A3046 RMK AO2 P0000 RVRNO
2026-04-02 22:56:00,METAR KBLM 022256Z AUTO 07009G21KT 1 1/4SM -RA OVC005 04/ A3045 RMK AO2 SLP314 P0000 T0044
2026-04-02 22:44:00,SPECI KBLM 022244Z AUTO 08009G17KT 1 1/4SM -RA OVC005 04/ A3045 RMK AO2 P0000
2026-04-02 22:34:00,SPECI KBLM 022234Z AUTO 07012G19KT 1SM -RA OVC005 04/ A3045 RMK AO2 P0000 RVRNO
2026-04-02 21:56:00,METAR KBLM 022156Z AUTO 06016G19KT 1 1/4SM -RA OVC005 04/ A3045 RMK AO2 SLP311 P0000 T0044
2026-04-02 20:56:00,METAR KBLM 022056Z AUTO 07013G18KT 1 1/2SM -RA OVC005 05/ A3045 RMK AO2 RAB12 SLP311 P0000 60000 T0050 56006
2026-04-02 19:56:00,METAR KBLM 021956Z AUTO 05015KT 1 3/4SM BR OVC005 05/ A3045 RMK AO2 SLP312 T0050
2026-04-02 19:12:00,SPECI KBLM 021912Z AUTO 06015G22KT 2SM BR OVC005 05/ A3045 RMK AO2
2026-04-02 18:56:00,METAR KBLM 021856Z AUTO 06014G20KT 1 3/4SM BR OVC005 05/ A3045 RMK AO2 RAE31 SLP313 P0000 T0050
2026-04-02 18:38:00,SPECI KBLM 021838Z AUTO 07013G24KT 1 1/2SM BR OVC005 05/ A3045 RMK AO2 RAE31 P0000
2026-04-02 18:31:00,SPECI KBLM 021831Z AUTO 07012G19KT 2SM BR OVC005 05/ A3046 RMK AO2 RAE31 P0000
2026-04-02 17:56:00,METAR KBLM 021756Z AUTO 06012G21KT 1 1/2SM -RA OVC005 05/ A3047 RMK AO2 SLP318 P0000 60000 T0050 10056 20050 53008
2026-04-02 17:31:00,SPECI KBLM 021731Z AUTO 07013G19KT 1 1/2SM -RA OVC005 05/ A3047 RMK AO2 P0000
2026-04-02 16:56:00,METAR KBLM 021656Z AUTO 05013G20KT 1 3/4SM -RA OVC007 05/ A3046 RMK AO2 RAB34 SLP316 P0000 T0050
2026-04-02 16:24:00,SPECI KBLM 021624Z AUTO 06014G21KT 1 3/4SM BR OVC007 05/ A3045 RMK AO2
2026-04-02 16:10:00,SPECI KBLM 021610Z AUTO 05012G18KT 2 1/2SM BR OVC007 05/ A3046 RMK AO2
2026-04-02 15:56:00,METAR KBLM 021556Z AUTO 06014G21KT 3SM BR OVC007 05/ A3045 RMK AO2 SLP311 T0050
2026-04-02 14:56:00,METAR KBLM 021456Z AUTO 07014G19KT 6SM HZ OVC007 05/ A3044 RMK AO2 PK WND 04027/1430 SLP309 60000 T0050 53017
2026-04-02 14:35:00,SPECI KBLM 021435Z AUTO 06016G27KT 8SM OVC007 05/ A3044 RMK AO2 PK WND 04027/1430 CIG 004V009
2026-04-02 14:26:00,SPECI KBLM 021426Z AUTO 05016G22KT 4SM HZ OVC005 05/ A3044 RMK AO2 CIG 004V008
2026-04-02 13:56:00,METAR KBLM 021356Z AUTO 07014KT 2SM BR OVC005 05/ A3042 RMK AO2 RAE33 SLP303 P0000 T0050
2026-04-02 12:56:00,METAR KBLM 021256Z AUTO 07020G25KT 1 3/4SM -RA OVC005 05/ A3041 RMK AO2 RAB23 CIG 004V009 SLP298 P0000 T0050
2026-04-02 12:21:00,SPECI KBLM 021221Z AUTO 06017G24KT 1 3/4SM BR OVC005 06/ A3040 RMK AO2
2026-04-02 12:05:00,SPECI KBLM 021205Z AUTO 05011G18KT 2 1/2SM BR OVC007 06/ A3040 RMK AO2
2026-04-02 11:56:00,METAR KBLM 021156Z AUTO 06014G25KT 3SM BR OVC007 06/ A3039 RMK AO2 PK WND 06026/1107 SLP292 60007 70018 T0056 10078 20056 53026
2026-04-02 10:56:00,METAR KBLM 021056Z AUTO 06015G21KT 10SM OVC007 06/ A3035 RMK AO2 PK WND 06026/1028 SLP278 T0061
2026-04-02 09:56:00,METAR KBLM 020956Z AUTO 05015G26KT 10SM OVC007 07/ A3032 RMK AO2 PK WND 05026/0953 RAE49 SLP267 P0001 T0067
2026-04-02 09:25:00,SPECI KBLM 020925Z AUTO 06017G23KT 10SM -RA OVC007 07/ A3030 RMK AO2 PRESFR P0001
2026-04-02 08:56:00,METAR KBLM 020856Z AUTO 05013G20KT 9SM -RA OVC005 07/ A3032 RMK AO2 PK WND 05027/0757 SLP265 P0003 60006 T0067 53004
2026-04-02 07:56:00,METAR KBLM 020756Z AUTO 06016G27KT 8SM RA OVC005 07/ A3028 RMK AO2 PK WND 08027/0751 SLP254 P0003 T0067
2026-04-02 07:24:00,SPECI KBLM 020724Z AUTO 07011G21KT 10SM -RA OVC005 07/ A3030 RMK AO2 P0001
2026-04-02 06:56:00,METAR KBLM 020656Z AUTO 08013G19KT 10SM -RA OVC007 07/ A3031 RMK AO2 PK WND 06026/0613 RAB39 CIG 005V011 SLP265 P0000 T0072
2026-04-02 05:56:00,METAR KBLM 020556Z AUTO 06014G22KT 10SM OVC005 07/ A3030 RMK AO2 PK WND 04027/0520 RAB00E28 SLP262 P0001 60011 T0072 10194 20072 51030
2026-04-02 04:56:00,METAR KBLM 020456Z AUTO 08018G27KT 10SM OVC005 08/ A3026 RMK AO2 PK WND 08027/0455 RAE54 SLP248 P0008 T0083 402780083
2026-04-02 04:40:00,SPECI KBLM 020440Z AUTO 07018G25KT 10SM -RA OVC005 09/ A3025 RMK AO2 CIG 004V007 P0008
2026-04-02 04:04:00,SPECI KBLM 020404Z AUTO 06011G19KT 10SM RA BKN007 OVC015 10/ A3027 RMK AO2 LTG DSNT S CIG 006V010 P0001
2026-04-02 03:56:00,METAR KBLM 020356Z AUTO 07012G21KT 10SM RA SCT009 OVC015 11/ A3026 RMK AO2 LTG DSNT S SLP248 P0002 T0106
2026-04-02 03:41:00,SPECI KBLM 020341Z AUTO 07015G20KT 10SM -RA FEW009 OVC015 11/ A3026 RMK AO2 LTG DSNT SE AND S P0000
2026-04-02 03:12:00,SPECI KBLM 020312Z AUTO 06009G17KT 10SM -RA BKN019 BKN049 OVC095 13/13 A3022 RMK AO2 P0000
2026-04-02 02:56:00,METAR KBLM 020256Z AUTO 07010KT 10SM -RA FEW048 SCT080 OVC100 14/13 A3022 RMK AO2 RAB52 SLP232 P0000 60000 T01390128 51026
2026-04-02 01:56:00,METAR KBLM 020156Z AUTO 05013G20KT 10SM BKN110 16/15 A3020 RMK AO2 SLP227 T01560150
2026-04-02 00:56:00,METAR KBLM 020056Z AUTO 06015KT 10SM OVC030 17/15 A3018 RMK AO2 SLP219 T01720150
2026-04-01 23:56:00,METAR KBLM 012356Z AUTO 05008KT 10SM CLR 19/14 A3014 RMK AO2 SLP205 T01940139 10278 20194 53023
2026-04-01 22:56:00,METAR KBLM 012256Z AUTO 02012KT 10SM SCT110 22/14 A3011 RMK AO2 WSHFT 2214 SLP195 T02220139
2026-04-01 22:34:00,SPECI KBLM 012234Z AUTO 02012KT 10SM FEW065 SCT100 SCT120 23/14 A3010 RMK AO2 WSHFT 2214
2026-04-01 21:56:00,METAR KBLM 012156Z AUTO 30008KT 10SM BKN070 BKN120 27/13 A3007 RMK AO2 SLP184 T02670128
2026-04-01 20:56:00,METAR KBLM 012056Z AUTO 28009KT 10SM FEW060 SCT080 26/12 A3007 RMK AO2 SLP182 T02610122 53002
2026-04-01 19:56:00,METAR KBLM 011956Z AUTO 25009G20KT 10SM BKN065 BKN120 27/13 A3005 RMK AO2 SLP176 T02720128
2026-04-01 18:56:00,METAR KBLM 011856Z AUTO 27009KT 10SM FEW065 26/13 A3006 RMK AO2 SLP177 T02610128
2026-04-01 17:56:00,METAR KBLM 011756Z AUTO 25011G16KT 10SM CLR 27/13 A3006 RMK AO2 SLP178 T02670128 10267 20183 50004
2026-04-01 16:56:00,METAR KBLM 011656Z AUTO 25009KT 10SM CLR 25/14 A3006 RMK AO2 SLP180 T02500144
2026-04-01 15:56:00,METAR KBLM 011556Z AUTO 26012KT 10SM SCT110 24/14 A3005 RMK AO2 SLP176 T02390139
2026-04-01 14:56:00,METAR KBLM 011456Z AUTO 24010KT 10SM FEW120 24/14 A3005 RMK AO2 SLP175 T02390144 51010
2026-04-01 13:56:00,METAR KBLM 011356Z AUTO 23007KT 190V290 10SM CLR 22/14 A3004 RMK AO2 SLP173 T02220144
2026-04-01 12:56:00,METAR KBLM 011256Z AUTO 22009KT 10SM CLR 19/16 A3003 RMK AO2 SLP168 T01940161
2026-04-01 11:56:00,METAR KBLM 011156Z AUTO 23009KT 10SM CLR 18/16 A3002 RMK AO2 SLP164 T01830161 10194 20183 53023
2026-04-01 10:56:00,METAR KBLM 011056Z AUTO 21009G15KT 10SM CLR 18/16 A2998 RMK AO2 SLP153 T01830161
2026-04-01 09:56:00,METAR KBLM 010956Z AUTO 21009KT 10SM CLR 19/16 A2996 RMK AO2 SLP144 T01890156
2026-04-01 08:56:00,METAR KBLM 010856Z AUTO 22009KT 10SM CLR 19/15 A2995 RMK AO2 SLP141 T01940150 53007
2026-04-01 07:56:00,METAR KBLM 010756Z AUTO 22006KT 10SM CLR 18/16 A2994 RMK AO2 SLP140 T01830156
2026-04-01 06:56:00,METAR KBLM 010656Z AUTO 20008KT 10SM CLR 19/16 A2993 RMK AO2 SLP135 T01890156
2026-04-01 05:56:00,METAR KBLM 010556Z AUTO 20010KT 10SM CLR 19/15 A2993 RMK AO2 SLP134 T01940150 10228 20194 58004
2026-04-01 04:56:00,METAR KBLM 010456Z AUTO 21007KT 10SM CLR 19/14 A2994 RMK AO2 SLP137 T01940144 402720167
2026-04-01 03:56:00,METAR KBLM 010356Z AUTO 21012G17KT 10SM CLR 19/14 A2994 RMK AO2 SLP138 T01940144
2026-04-01 02:56:00,METAR KBLM 010256Z AUTO 20011G18KT 10SM CLR 21/14 A2994 RMK AO2 SLP139 T02060139 50001
2026-04-01 01:56:00,METAR KBLM 010156Z AUTO 19009KT 10SM CLR 21/14 A2996 RMK AO2 SLP144 T02110139
2026-04-01 00:56:00,METAR KBLM 010056Z AUTO 20009KT 10SM CLR 22/14 A2996 RMK AO2 SLP143 T02170139
2026-03-31 23:56:00,METAR KBLM 312356Z AUTO 19009G16KT 10SM CLR 23/14 A2994 RMK AO2 SLP137 T02280139 10272 20228 55000
2026-03-31 22:56:00,METAR KBLM 312256Z AUTO 21013G19KT 10SM CLR 25/13 A2994 RMK AO2 SLP138 T02500133
2026-03-31 21:56:00,METAR KBLM 312156Z AUTO 20015G20KT 10SM CLR 26/13 A2992 RMK AO2 SLP133 T02610133
2026-03-31 20:56:00,METAR KBLM 312056Z AUTO 23014G23KT 10SM CLR 27/13 A2994 RMK AO2 SLP138 T02670133 57026
2026-03-31 19:56:00,METAR KBLM 311956Z AUTO 23012G24KT 10SM CLR 26/13 A2996 RMK AO2 SLP145 T02610128
2026-03-31 18:56:00,METAR KBLM 311856Z AUTO 24013G23KT 10SM CLR 27/13 A2999 RMK AO2 SLP156 T02670128
2026-03-31 17:56:00,METAR KBLM 311756Z AUTO 27010G20KT 10SM FEW065 27/13 A3002 RMK AO2 SLP164 T02720128 10272 20167 58008
2026-03-31 16:56:00,METAR KBLM 311656Z AUTO 24011G22KT 10SM CLR 26/12 A3003 RMK AO2 SLP169 T02560122
2026-03-31 15:56:00,METAR KBLM 311556Z AUTO 22014G22KT 10SM CLR 24/12 A3003 RMK AO2 SLP169 T02440117
2026-03-31 14:56:00,METAR KBLM 311456Z AUTO 22014G18KT 10SM CLR 23/12 A3004 RMK AO2 SLP171 T02330117 58014
2026-03-31 13:56:00,METAR KBLM 311356Z AUTO 22011G18KT 10SM CLR 22/11 A3006 RMK AO2 SLP180 T02170111
2026-03-31 12:56:00,METAR KBLM 311256Z AUTO 22008G20KT 190V250 10SM CLR 19/11 A3007 RMK AO2 SLP183 T01940111
2026-03-31 11:56:00,METAR KBLM 311156Z AUTO 21007G16KT 10SM CLR 17/12 A3008 RMK AO2 SLP186 T01670117 10183 20167 51009
2026-03-31 10:56:00,METAR KBLM 311056Z AUTO 23011G17KT 10SM FEW085 17/12 A3008 RMK AO2 SLP185 T01670117
2026-03-31 09:56:00,METAR KBLM 310956Z AUTO 22010G17KT 10SM FEW110 17/12 A3006 RMK AO2 SLP179 T01670117
2026-03-31 08:56:00,METAR KBLM 310856Z AUTO 22008G15KT 10SM FEW095 17/12 A3005 RMK AO2 SLP177 T01670122 56010
2026-03-31 07:56:00,METAR KBLM 310756Z AUTO 23011G17KT 10SM BKN090 BKN110 17/12 A3006 RMK AO2 SLP178 T01720122
2026-03-31 06:56:00,METAR KBLM 310656Z AUTO 22010KT 10SM CLR 17/12 A3007 RMK AO2 SLP183 T01720117
2026-03-31 05:56:00,METAR KBLM 310556Z AUTO 23010KT 10SM CLR 18/12 A3009 RMK AO2 SLP187 T01830117 10189 20167 58011
2026-03-31 04:56:00,METAR KBLM 310456Z AUTO 23012G17KT 10SM CLR 18/12 A3010 RMK AO2 SLP192 T01780117 402280083
2026-03-31 03:56:00,METAR KBLM 310356Z AUTO 23011G15KT 10SM SCT110 18/11 A3011 RMK AO2 SLP197 T01780111
2026-03-31 02:56:00,METAR KBLM 310256Z AUTO 22008KT 10SM OVC120 17/11 A3012 RMK AO2 SLP198 T01720106 50003
2026-03-31 01:56:00,METAR KBLM 310156Z AUTO 20007KT 10SM FEW100 17/11 A3012 RMK AO2 SLP200 T01720106
2026-03-31 00:56:00,METAR KBLM 310056Z AUTO 21007KT 10SM SCT095 18/10 A3013 RMK AO2 SLP202 T01830100
2026-03-30 23:56:00,METAR KBLM 302356Z AUTO 21009KT 10SM CLR 19/09 A3011 RMK AO2 SLP195 T01890094 10228 20189 51005
2026-03-30 22:56:00,METAR KBLM 302256Z AUTO 21008G17KT 10SM BKN100 20/09 A3011 RMK AO2 SLP194 T02000094
2026-03-30 21:56:00,METAR KBLM 302156Z AUTO 23014G21KT 10SM CLR 21/08 A3010 RMK AO2 SLP191 T02060083
2026-03-30 20:56:00,METAR KBLM 302056Z AUTO 24015G27KT 10SM FEW095 22/08 A3009 RMK AO2 PK WND 22027/2049 SLP190 T02170078 56017
2026-03-30 19:56:00,METAR KBLM 301956Z AUTO 23013G22KT 10SM CLR 22/07 A3009 RMK AO2 PK WND 23028/1927 SLP190 T02220072
2026-03-30 18:56:00,METAR KBLM 301856Z AUTO 22017G25KT 10SM CLR 22/07 A3011 RMK AO2 SLP197 T02220072
2026-03-30 17:56:00,METAR KBLM 301756Z AUTO 22013G19KT 10SM BKN090 21/06 A3014 RMK AO2 PK WND 24028/1732 SLP207 T02060061 10211 20106 58025
2026-03-30 16:56:00,METAR KBLM 301656Z AUTO 23011G18KT 10SM SCT100 21/07 A3017 RMK AO2 SLP217 T02060067
2026-03-30 15:56:00,METAR KBLM 301556Z AUTO 23010G18KT 10SM OVC100 18/07 A3020 RMK AO2 SLP225 T01830067
2026-03-30 14:56:00,METAR KBLM 301456Z AUTO 24011G18KT 10SM CLR 17/07 A3022 RMK AO2 SLP233 T01720067 56013
2026-03-30 13:56:00,METAR KBLM 301356Z AUTO 22011G20KT 10SM FEW120 15/09 A3023 RMK AO2 PK WND 23026/1300 SLP238 T01500089
2026-03-30 12:56:00,METAR KBLM 301256Z AUTO 22014G20KT 10SM CLR 13/10 A3024 RMK AO2 SLP241 T01280100
2026-03-30 11:56:00,METAR KBLM 301156Z AUTO 21010KT 10SM CLR 11/11 A3026 RMK AO2 SLP246 T01060106 10106 20083 56009
2026-03-30 10:56:00,METAR KBLM 301056Z AUTO 21008KT 10SM CLR 09/09 A3026 RMK AO2 SLP249 T00890089
2026-03-30 09:56:00,METAR KBLM 300956Z AUTO 21008KT 10SM CLR 09/09 A3027 RMK AO2 SLP250 T00890089
2026-03-30 08:56:00,METAR KBLM 300856Z AUTO 20008KT 10SM CLR 08/08 A3028 RMK AO2 SLP255 T00830083 56022
2026-03-30 07:56:00,METAR KBLM 300756Z AUTO 20008KT 10SM CLR 08/08 A3030 RMK AO2 SLP262 T00830078
2026-03-30 06:56:00,METAR KBLM 300656Z AUTO 20008G14KT 10SM CLR 08/07 A3032 RMK AO2 SLP268 T00830067
2026-03-30 05:56:00,METAR KBLM 300556Z AUTO 20009KT 10SM CLR 08/05 A3035 RMK AO2 SLP277 T00830050 10083 20072 56021
2026-03-30 04:56:00,METAR KBLM 300456Z AUTO 21012G20KT 10SM CLR 08/03 A3037 RMK AO2 SLP284 T00830033 401171028
2026-03-30 03:56:00,METAR KBLM 300356Z AUTO 20012G20KT 10SM OVC100 08/02 A3038 RMK AO2 SLP289 T00780017
2026-03-30 02:56:00,METAR KBLM 300256Z AUTO 18006KT 10SM BKN110 07/01 A3041 RMK AO2 SLP299 T00720006 58007
2026-03-30 01:56:00,METAR KBLM 300156Z AUTO 19008KT 10SM BKN120 07/M01 A3043 RMK AO2 SLP305 T00721006
2026-03-30 00:56:00,METAR KBLM 300056Z AUTO 19008KT 10SM CLR 08/M01 A3043 RMK AO2 SLP306 T00781011
2026-03-29 23:56:00,METAR KBLM 292356Z AUTO 19009KT 10SM CLR 08/M02 A3043 RMK AO2 SLP305 T00781022 10117 20078 50000
2026-03-29 22:56:00,METAR KBLM 292256Z AUTO 18010G18KT 10SM CLR 09/M02 A3043 RMK AO2 SLP306 T00891017
2026-03-29 21:56:00,METAR KBLM 292156Z AUTO 16012G21KT 10SM CLR 10/M01 A3043 RMK AO2 SLP306 T01001011
2026-03-29 20:56:00,METAR KBLM 292056Z AUTO 16013G22KT 10SM CLR 11/M01 A3043 RMK AO2 SLP305 T01061006 56026
2026-03-29 19:56:00,METAR KBLM 291956Z AUTO 16015G19KT 10SM CLR 11/M01 A3044 RMK AO2 SLP309 T01111006
2026-03-29 18:56:00,METAR KBLM 291856Z AUTO 16013G18KT 10SM CLR 11/M01 A3047 RMK AO2 SLP319 T01061006
2026-03-29 17:56:00,METAR KBLM 291756Z AUTO 20012G25KT 180V250 10SM CLR 12/M06 A3051 RMK AO2 SLP332 T01171056 10117 20028 58030
2026-03-29 16:56:00,METAR KBLM 291656Z AUTO 24006KT 10SM CLR 11/M08 A3054 RMK AO2 SLP344 T01111083
2026-03-29 15:56:00,METAR KBLM 291556Z AUTO 18006KT 10SM CLR 10/M09 A3058 RMK AO2 SLP357 T01001089
2026-03-29 14:56:00,METAR KBLM 291456Z AUTO 23005KT 10SM CLR 08/M09 A3060 RMK AO2 SLP363 T00831094 58001
2026-03-29 13:56:00,METAR KBLM 291356Z AUTO 21006KT 10SM CLR 07/M08 A3061 RMK AO2 SLP366 T00721078
2026-03-29 12:56:00,METAR KBLM 291256Z AUTO 16007KT 10SM CLR 05/02 A3060 RMK AO2 SLP363 T00500017
2026-03-29 11:56:00,METAR KBLM 291156Z AUTO 10004KT 10SM CLR 03/00 A3060 RMK AO2 SLP363 T00280000 10028 21028 51016
2026-03-29 10:56:00,METAR KBLM 291056Z AUTO 00000KT 10SM CLR M03/M04 A3060 RMK AO2 SLP363 T10281044 FZRANO
2026-03-29 09:56:00,METAR KBLM 290956Z AUTO 03003KT 10SM CLR M01/M05 A3057 RMK AO2 SLP353 T10061050 FZRANO
2026-03-29 08:56:00,METAR KBLM 290856Z AUTO 05004KT 10SM CLR 00/M07 A3055 RMK AO2 SLP347 T00001072 57004 FZRANO
2026-03-29 07:56:00,METAR KBLM 290756Z AUTO 04003KT 10SM CLR 00/M08 A3056 RMK AO2 SLP350 T00001078 FZRANO
2026-03-29 06:56:00,METAR KBLM 290656Z AUTO 03003KT 10SM CLR 01/M08 A3056 RMK AO2 SLP349 T00061078 FZRANO
2026-03-29 05:56:00,METAR KBLM 290556Z AUTO 04004KT 10SM CLR 01/M09 A3056 RMK AO2 SLP351 T00111094 10039 21017 51010 FZRANO
2026-03-29 04:56:00,METAR KBLM 290456Z AUTO 36003KT 10SM CLR 01/M09 A3056 RMK AO2 SLP348 T00061094 400721011 FZRANO
2026-03-29 03:56:00,METAR KBLM 290356Z AUTO 00000KT 10SM CLR 00/M07 A3055 RMK AO2 SLP346 T00001067 FZRANO
2026-03-29 02:56:00,METAR KBLM 290256Z AUTO 00000KT 10SM CLR 01/M11 A3053 RMK AO2 SLP341 T00111111 51021 FZRANO
2026-03-29 01:56:00,METAR KBLM 290156Z AUTO 00000KT 10SM CLR 02/M10 A3052 RMK AO2 SLP336 T00171100 FZRANO
2026-03-29 00:56:00,METAR KBLM 290056Z AUTO 00000KT 10SM CLR 02/M09 A3050 RMK AO2 SLP329 T00171094 FZRANO
2026-03-28 23:56:00,METAR KBLM 282356Z AUTO 28003KT 10SM CLR 04/M13 A3047 RMK AO2 SLP320 T00391133 10072 20039 53014
2026-03-28 22:56:00,METAR KBLM 282256Z AUTO 30007KT 10SM CLR 06/M13 A3045 RMK AO2 SLP312 T00561133
2026-03-28 21:56:00,METAR KBLM 282156Z AUTO 33011KT 10SM CLR 07/M13 A3043 RMK AO2 SLP306 T00671133
2026-03-28 20:56:00,METAR KBLM 282056Z AUTO 28014G25KT 10SM SCT085 07/M14 A3043 RMK AO2 SLP306 T00671144 56006
2026-03-28 19:56:00,METAR KBLM 281956Z AUTO 29016G23KT 10SM CLR 06/M14 A3043 RMK AO2 PK WND 31030/1911 SLP307 T00611139
2026-03-28 18:56:00,METAR KBLM 281856Z AUTO 29011KT 10SM SCT080 06/M14 A3043 RMK AO2 SLP308 T00611139
2026-03-28 17:56:00,METAR KBLM 281756Z AUTO 31013G20KT 10SM CLR 05/M14 A3045 RMK AO2 SLP313 T00501139 10056 20000 58003
2026-03-28 16:56:00,METAR KBLM 281656Z AUTO 31016G25KT 10SM CLR 04/M14 A3046 RMK AO2 SLP315 T00441139
2026-03-28 15:56:00,METAR KBLM 281556Z AUTO 30015G23KT 10SM CLR 03/M13 A3046 RMK AO2 PK WND 35026/1457 SLP317 T00331133
2026-03-28 14:56:00,METAR KBLM 281456Z AUTO 34018G26KT 10SM CLR 03/M14 A3046 RMK AO2 PK WND 31028/1426 SLP316 T00281139 51029
2026-03-28 13:56:00,METAR KBLM 281356Z AUTO 32013KT 10SM CLR 02/M12 A3043 RMK AO2 SLP308 T00171122 FZRANO
2026-03-28 12:56:00,METAR KBLM 281256Z AUTO 31017KT 10SM CLR 01/M13 A3041 RMK AO2 SLP298 T00061128 FZRANO
2026-03-28 11:56:00,METAR KBLM 281156Z AUTO 31013G20KT 10SM CLR 00/M13 A3037 RMK AO2 SLP285 70002 T00001133 10050 21006 53039 FZRANO
2026-03-28 10:56:00,METAR KBLM 281056Z AUTO 29009KT 10SM CLR M01/M10 A3033 RMK AO2 SLP272 T10061100 FZRANO
2026-03-28 09:56:00,METAR KBLM 280956Z AUTO 31012KT 10SM CLR 01/M09 A3029 RMK AO2 SLP259 T00061094 FZRANO
2026-03-28 08:56:00,METAR KBLM 280856Z AUTO 31012KT 10SM BKN080 02/M07 A3026 RMK AO2 SLP246 T00171072 53022 FZRANO
2026-03-28 07:56:00,METAR KBLM 280756Z AUTO 31008KT CLR 02/M07 A3022 RMK AO2 SLP234 T00221067 FZRANO RVRNO
2026-03-28 06:56:00,METAR KBLM 280656Z AUTO 32009KT 10SM CLR 03/M07 A3021 RMK AO2 SLP229 T00331067
2026-03-28 05:56:00,METAR KBLM 280556Z AUTO 34007KT 10SM BKN050 05/M07 A3019 RMK AO2 SLP224 T00501072 10072 20050 50003
2026-03-28 04:56:00,METAR KBLM 280456Z AUTO 31008KT 10SM BKN050 OVC060 06/M03 A3020 RMK AO2 SLP229 T00561033 401940056
2026-03-28 03:56:00,METAR KBLM 280356Z AUTO 30004KT 10SM BKN050 OVC060 06/M02 A3020 RMK AO2 SLP226 T00561022
2026-03-28 02:56:00,METAR KBLM 280256Z AUTO 00000KT 10SM OVC048 06/M03 A3018 RMK AO2 SLP221 T00611033 51019
2026-03-28 01:56:00,METAR KBLM 280156Z AUTO 02003KT 10SM OVC048 07/M05 A3017 RMK AO2 SLP217 T00671050
2026-03-28 00:56:00,METAR KBLM 280056Z AUTO 04004KT 10SM OVC050 07/M05 A3016 RMK AO2 SLP213 T00671050
2026-03-27 23:56:00,METAR KBLM 272356Z AUTO 05006KT 10SM FEW049 OVC110 07/M04 A3013 RMK AO2 SLP202 T00721039 10117 20072 53016
2026-03-27 22:56:00,METAR KBLM 272256Z AUTO 06008KT 10SM OVC100 07/M02 A3010 RMK AO2 SLP192 T00721022
2026-03-27 21:56:00,METAR KBLM 272156Z AUTO 05009KT 10SM OVC100 08/M02 A3007 RMK AO2 SLP185 T00781022
2026-03-27 20:56:00,METAR KBLM 272056Z AUTO 04011G17KT 10SM OVC095 09/M02 A3008 RMK AO2 SLP185 T00891022 53015
2026-03-27 19:56:00,METAR KBLM 271956Z AUTO 06013KT 10SM BKN050 09/M01 A3005 RMK AO2 SLP175 T00941006
2026-03-27 18:56:00,METAR KBLM 271856Z AUTO 01009G16KT 10SM FEW048 BKN110 11/01 A3004 RMK AO2 SLP172 T01110006
2026-03-27 17:56:00,METAR KBLM 271756Z AUTO 33011KT 10SM OVC110 11/01 A3003 RMK AO2 SLP169 60002 T01110011 10139 20111 51018
2026-03-27 16:56:00,METAR KBLM 271656Z AUTO 34014KT 10SM BKN070 OVC110 12/02 A3003 RMK AO2 SLP168 T01170022
2026-03-27 15:56:00,METAR KBLM 271556Z AUTO 34016G21KT 10SM OVC065 12/06 A2999 RMK AO2 SLP156 T01170056
2026-03-25 14:56:00,METAR KBLM 251456Z AUTO VRB03KT 10SM CLR 09/M01 A3042 RMK AO2 SLP301 T00891006 58003
2026-03-25 13:56:00,METAR KBLM 251356Z AUTO 28004KT 10SM CLR 07/01 A3043 RMK AO2 SLP305 T00670011
2026-03-25 12:56:00,METAR KBLM 251256Z AUTO 23006KT 10SM CLR 03/02 A3042 RMK AO2 SLP303 T00330022
2026-03-25 11:56:00,METAR KBLM 251156Z AUTO 21006KT 10SM CLR 02/02 A3043 RMK AO2 SLP304 T00170017 10022 20011 51015 FZRANO
2026-03-25 10:56:00,METAR KBLM 251056Z AUTO 22004KT 10SM CLR 02/02 A3041 RMK AO2 SLP299 T00170017 FZRANO
2026-03-25 09:56:00,METAR KBLM 250956Z AUTO 27004KT 10SM CLR 01/01 A3041 RMK AO2 SLP298 T00110011 FZRANO
2026-03-25 08:56:00,METAR KBLM 250856Z AUTO 23005KT 10SM BKN100 02/01 A3038 RMK AO2 SLP289 T00170006 55001 FZRANO
2026-03-25 07:56:00,METAR KBLM 250756Z AUTO 23005KT 10SM BKN110 02/00 A3037 RMK AO2 SLP286 T00170000 FZRANO
2026-03-25 06:56:00,METAR KBLM 250656Z AUTO 21006KT 10SM BKN100 02/M01 A3037 RMK AO2 SLP286 T00221011 FZRANO
2026-03-25 05:56:00,METAR KBLM 250556Z AUTO 22006KT 10SM FEW120 02/M02 A3039 RMK AO2 SLP291 T00221017 10033 20022 58000 FZRANO
2026-03-25 04:56:00,METAR KBLM 250456Z AUTO 21006KT 10SM CLR 02/M03 A3040 RMK AO2 SLP297 T00221028 400781017 FZRANO
2026-03-25 03:56:00,METAR KBLM 250356Z AUTO 21006KT 10SM CLR 02/M03 A3040 RMK AO2 SLP294 T00221033 FZRANO
2026-03-25 02:56:00,METAR KBLM 250256Z AUTO 20006KT 10SM CLR 03/M03 A3039 RMK AO2 SLP291 T00281033 51003
2026-03-25 01:56:00,METAR KBLM 250156Z AUTO 19004KT 10SM CLR 03/M03 A3039 RMK AO2 SLP290 T00281028
2026-03-25 00:56:00,METAR KBLM 250056Z AUTO 19004KT 10SM CLR 03/M03 A3039 RMK AO2 SLP291 T00281033
2026-03-24 23:56:00,METAR KBLM 242356Z AUTO 17007KT 10SM CLR 03/M04 A3038 RMK AO2 SLP289 T00331039 10078 20033 51005
2026-03-24 22:56:00,METAR KBLM 242256Z AUTO 17009KT 10SM CLR 04/M05 A3038 RMK AO2 SLP289 T00391050
2026-03-24 21:56:00,METAR KBLM 242156Z AUTO 16011KT 10SM CLR 05/M07 A3037 RMK AO2 SLP285 T00501067
2026-03-24 20:56:00,METAR KBLM 242056Z AUTO 17010KT 10SM CLR 06/M08 A3036 RMK AO2 SLP284 T00561078 56012
2026-03-24 19:56:00,METAR KBLM 241956Z AUTO 12011G15KT 10SM CLR 06/M07 A3036 RMK AO2 SLP283 T00611072
2026-03-24 18:56:00,METAR KBLM 241856Z AUTO 11009KT 10SM CLR 07/M07 A3037 RMK AO2 SLP285 T00721067
2026-03-24 17:56:00,METAR KBLM 241756Z AUTO 00000KT 10SM CLR 07/M09 A3040 RMK AO2 SLP294 T00671089 10078 20006 58015
2026-03-24 16:56:00,METAR KBLM 241656Z AUTO VRB05KT 10SM CLR 06/M08 A3042 RMK AO2 SLP302 T00611083
2026-03-24 15:56:00,METAR KBLM 241556Z AUTO 34008G15KT 10SM CLR 06/M08 A3044 RMK AO2 SLP309 T00561078
2026-03-24 14:56:00,METAR KBLM 241456Z AUTO VRB04KT 10SM CLR 04/M08 A3044 RMK AO2 SLP309 T00441083 53016
2026-03-24 13:56:00,METAR KBLM 241356Z AUTO 34013KT 10SM CLR 04/M07 A3042 RMK AO2 SLP303 T00391067
2026-03-24 12:56:00,METAR KBLM 241256Z AUTO 33010KT 10SM CLR 02/M04 A3039 RMK AO2 SLP293 T00221044 FZRANO
2026-03-24 11:56:00,METAR KBLM 241156Z AUTO 31007KT 10SM CLR 01/M03 A3039 RMK AO2 SLP294 70003 T00061033 10006 21017 53025 FZRANO
2026-03-24 10:56:00,METAR KBLM 241056Z AUTO 30007KT 10SM CLR M01/M03 A3036 RMK AO2 SLP284 T10111028 FZRANO
2026-03-24 09:56:00,METAR KBLM 240956Z AUTO 30006KT 10SM CLR M01/M03 A3034 RMK AO2 SLP276 T10111028 FZRANO
2026-03-24 08:56:00,METAR KBLM 240856Z AUTO 30008KT 10SM CLR M01/M03 A3032 RMK AO2 SLP268 T10111033 53014 FZRANO
2026-03-24 07:56:00,METAR KBLM 240756Z AUTO 29005KT 10SM CLR M01/M04 A3030 RMK AO2 SLP261 T10061039 FZRANO
2026-03-24 06:56:00,METAR KBLM 240656Z AUTO 30007KT 10SM CLR 00/M04 A3029 RMK AO2 SLP259 T00001039 FZRANO
2026-03-24 05:56:00,METAR KBLM 240556Z AUTO 31009KT 10SM CLR 01/M04 A3027 RMK AO2 SLP253 T00061044 10033 20006 53023 FZRANO
2026-03-24 04:56:00,METAR KBLM 240456Z AUTO 31016G22KT 10SM CLR 01/M05 A3025 RMK AO2 SLP243 T00111050 401060011 FZRANO
2026-03-24 03:56:00,METAR KBLM 240356Z AUTO 32016G23KT 10SM CLR 02/M05 A3022 RMK AO2 SLP233 T00171050 FZRANO
2026-03-24 02:56:00,METAR KBLM 240256Z AUTO 32009KT 10SM CLR 02/M04 A3021 RMK AO2 SLP229 T00171044 51028 FZRANO
2026-03-24 01:56:00,METAR KBLM 240156Z AUTO 31018G27KT 10SM FEW045 02/M04 A3019 RMK AO2 PK WND 31027/0152 SLP223 T00221044 FZRANO
2026-03-24 00:56:00,METAR KBLM 240056Z AUTO 30013KT 10SM FEW033 OVC044 03/M03 A3017 RMK AO2 PK WND 31026/0001 SLP217 T00281028
2026-03-23 23:56:00,METAR KBLM 232356Z AUTO 31017G24KT 10SM OVC031 03/M01 A3012 RMK AO2 PK WND 30027/2322 SLP202 60000 T00331011 10061 20033 53053
2026-03-23 23:42:00,SPECI KBLM 232342Z AUTO 30017G25KT 10SM OVC031 03/M01 A3011 RMK AO2 PK WND 30027/2322
2026-03-23 22:56:00,METAR KBLM 232256Z AUTO 31013G24KT 10SM OVC027 04/01 A3007 RMK AO2 PRESRR SLP184 T00390011
2026-03-23 21:56:00,METAR KBLM 232156Z AUTO 30015G24KT 10SM OVC019 05/05 A3001 RMK AO2 RAB14E43 SLP165 P0000 T00500050
2026-03-23 21:18:00,SPECI KBLM 232118Z AUTO 32011KT 10SM -RA BKN017 OVC038 06/06 A2998 RMK AO2 RAB14 P0000
2026-03-23 21:10:00,SPECI KBLM 232110Z AUTO 32013KT 10SM FEW014 SCT020 OVC038 06/06 A2998 RMK AO2
2026-03-23 20:56:00,METAR KBLM 232056Z AUTO 31015G22KT 10SM BKN016 BKN025 OVC040 06/ A2997 RMK AO2 SLP148 60000 T0056 53023
2026-03-23 19:56:00,METAR KBLM 231956Z AUTO 33010KT 10SM OVC014 06/ A2993 RMK AO2 SLP137 T0061
2026-03-23 19:18:00,SPECI KBLM 231918Z AUTO 31011KT 10SM OVC010 06/ A2991 RMK AO2 CIG 007V012
2026-03-23 18:56:00,METAR KBLM 231856Z AUTO 33010KT 10SM OVC008 06/ A2990 RMK AO2 RAE07 CIG 007V012 SLP126 P0000 T0056
2026-03-23 18:51:00,SPECI KBLM 231851Z AUTO 34009KT 10SM OVC008 06/ A2990 RMK AO2 RAE07 CIG 007V012 P0000
2026-03-23 18:28:00,SPECI KBLM 231828Z AUTO 33011KT 10SM BKN010 BKN015 OVC029 06/ A2989 RMK AO2 RAE07 CIG 007V014 P0000
2026-03-23 18:19:00,SPECI KBLM 231819Z AUTO 34010KT 9SM BKN007 OVC013 06/ A2989 RMK AO2 RAE07 CIG 005V011 P0000
2026-03-23 18:15:00,SPECI KBLM 231815Z AUTO 34010KT 8SM BKN010 OVC015 06/ A2989 RMK AO2 RAE07 CIG 005V011 P0000
2026-03-23 17:56:00,METAR KBLM 231756Z AUTO 34010KT 3SM -RA OVC008 06/ A2988 RMK AO2 RAE17B50 CIG 006V012 SLP121 P0000 60003 T0056 10094 20056 51018
2026-03-23 16:56:00,METAR KBLM 231656Z AUTO 36007KT 4SM -RA BKN009 OVC013 06/ A2987 RMK AO2 RAB28 CIG 006V012 SLP116 P0000 T0061
2026-03-23 16:49:00,SPECI KBLM 231649Z AUTO 35009KT 3SM -RA BKN009 OVC013 06/ A2987 RMK AO2 RAB28 CIG 007V012 P0000
2026-03-23 16:26:00,SPECI KBLM 231626Z AUTO 35009KT 9SM OVC011 06/ A2987 RMK AO2
2026-03-23 15:56:00,METAR KBLM 231556Z AUTO 03007KT 7SM OVC009 06/ A2985 RMK AO2 RAB23E41 CIG 005V011 SLP108 P0000 T0056
2026-03-23 14:56:00,METAR KBLM 231456Z AUTO 02012G17KT 3SM BR OVC007 06/ A2983 RMK AO2 CIG 006V010 SLP103 60003 T0056 53037
2026-03-23 14:30:00,SPECI KBLM 231430Z AUTO 02009KT 4SM HZ OVC007 06/ A2981 RMK AO2 CIG 005V013
2026-03-23 14:14:00,SPECI KBLM 231414Z AUTO 04009G16KT 2SM BR OVC007 06/ A2980 RMK AO2 CIG 005V010
2026-03-23 13:56:00,METAR KBLM 231356Z AUTO 03010KT 4SM HZ OVC007 06/ A2979 RMK AO2 RAE14 CIG 005V012 SLP089 P0000 T0056
2026-03-23 12:56:00,METAR KBLM 231256Z AUTO 05011KT 10SM -RA OVC007 07/ A2976 RMK AO2 CIG 005V011 SLP078 P0003 T0067
2026-03-23 11:56:00,METAR KBLM 231156Z AUTO 03006KT 9SM -RA OVC006 09/ A2972 RMK AO2 RAE1057B16 SLP064 P0000 60000 T0094 10106 20089 51013
2026-03-23 10:56:00,METAR KBLM 231056Z AUTO 04007KT 10SM -RA OVC008 09/ A2971 RMK AO2 RAB18 SLP060 P0000 T0094
2026-03-23 10:54:00,SPECI KBLM 231054Z AUTO 03007KT 10SM -RA OVC008 09/ A2971 RMK AO2 RAB18 P0000
2026-03-23 10:42:00,SPECI KBLM 231042Z AUTO 01009KT 10SM -RA BKN010 OVC070 09/ A2971 RMK AO2 RAB18 P0000
2026-03-23 09:56:00,METAR KBLM 230956Z AUTO 05008KT 10SM FEW015 SCT042 OVC055 10/ A2968 RMK AO2 SLP052 T0100
2026-03-23 09:33:00,SPECI KBLM 230933Z AUTO 32011G14KT 10SM SCT023 OVC038 11/ A2974 RMK AO2 PRESRR
2026-03-23 08:56:00,METAR KBLM 230856Z AUTO 02010G16KT 10SM FEW010 OVC019 11/ A2971 RMK AO2 SLP059 T0106 55000
2026-03-23 08:45:00,SPECI KBLM 230845Z AUTO 02010KT 10SM FEW010 OVC019 11/ A2971 RMK AO2
2026-03-23 08:36:00,SPECI KBLM 230836Z AUTO 36013KT 10SM BKN010 OVC019 10/ A2970 RMK AO2 CIG 008V013
2026-03-23 08:08:00,SPECI KBLM 230808Z AUTO 02011KT 10SM SCT005 OVC019 10/ A2969 RMK AO2
2026-03-23 07:56:00,METAR KBLM 230756Z AUTO 02012G17KT 7SM BKN005 OVC019 10/ A2970 RMK AO2 CIG 004V009 SLP056 T0100
2026-03-23 07:48:00,SPECI KBLM 230748Z AUTO 01012G18KT 5SM HZ OVC005 09/ A2971 RMK AO2 CIG 004V009
2026-03-23 07:40:00,SPECI KBLM 230740Z AUTO 36010KT 2 1/2SM BR OVC005 09/ A2972 RMK AO2
2026-03-23 06:56:00,METAR KBLM 230656Z AUTO 03011KT 8SM OVC005 09/ A2971 RMK AO2 SLP059 T0089
2026-03-23 05:56:00,METAR KBLM 230556Z AUTO 03007KT 10SM OVC005 09/ A2971 RMK AO2 SLP059 60000 T0089 10161 20089 55011
2026-03-23 05:44:00,SPECI KBLM 230544Z AUTO 06006KT 10SM BKN005 09/ A2969 RMK AO2
2026-03-23 05:35:00,SPECI KBLM 230535Z AUTO 02006KT 10SM SCT005 09/ A2969 RMK AO2
2026-03-23 04:56:00,METAR KBLM 230456Z AUTO 06009KT 10SM BKN120 09/ A2969 RMK AO2 RAE01 SLP054 P0000 T0089 402220050
2026-03-23 04:19:00,SPECI KBLM 230419Z AUTO 08009KT 8SM FEW006 BKN110 09/ A2970 RMK AO2 RAE01 P0000
2026-03-23 03:56:00,METAR KBLM 230356Z AUTO 06009KT 9SM -RA BKN120 09/ A2971 RMK AO2 RAB46 PRESFR SLP062 P0000 T0089
2026-03-23 03:20:00,SPECI KBLM 230320Z AUTO 04007G14KT 10SM FEW006 OVC110 09/ A2976 RMK AO2
2026-03-23 02:56:00,METAR KBLM 230256Z AUTO 05009KT 10SM BKN110 09/ A2974 RMK AO2 SLP071 T0089 50020
2026-03-23 01:56:00,METAR KBLM 230156Z AUTO 04009KT 10SM SCT120 10/ A2976 RMK AO2 SLP077 T0100
2026-03-23 00:56:00,METAR KBLM 230056Z AUTO 35011KT 10SM CLR 12/12 A2973 RMK AO2 PRESRR SLP067 T01170117
2026-03-22 23:56:00,METAR KBLM 222356Z AUTO 36005KT 10SM CLR 16/15 A2968 RMK AO2 SLP051 T01610150 10222 20156 53006
2026-03-22 22:56:00,METAR KBLM 222256Z AUTO 12006KT 10SM CLR 16/16 A2966 RMK AO2 SLP044 T01610156
2026-03-22 21:56:00,METAR KBLM 222156Z AUTO 15005KT 10SM CLR 17/14 A2965 RMK AO2 SLP041 T01720144
2026-03-22 20:56:00,METAR KBLM 222056Z AUTO 13005KT 10SM CLR 19/14 A2966 RMK AO2 SLP045 T01890139 56029
2026-03-22 19:56:00,METAR KBLM 221956Z AUTO 17007KT 10SM CLR 22/13 A2968 RMK AO2 SLP052 T02170133
2026-03-22 18:56:00,METAR KBLM 221856Z AUTO 21008G14KT 10SM CLR 21/12 A2971 RMK AO2 SLP060 T02110122
2026-03-22 17:56:00,METAR KBLM 221756Z AUTO 20008KT 10SM CLR 18/14 A2975 RMK AO2 SLP074 T01780139 10178 20067 58021
2026-03-22 17:23:00,SPECI KBLM 221723Z AUTO 18008KT 10SM SCT017 16/14 A2977 RMK AO2
2026-03-22 16:56:00,METAR KBLM 221656Z AUTO 22012G17KT 10SM OVC015 15/14 A2979 RMK AO2 SLP087 T01500139
2026-03-22 15:56:00,METAR KBLM 221556Z AUTO 19005KT 10SM OVC011 13/13 A2981 RMK AO2 SLP095 T01280128
2026-03-22 15:53:00,SPECI KBLM 221553Z AUTO 17011KT 10SM OVC011 12/12 A2981 RMK AO2
2026-03-22 14:56:00,METAR KBLM 221456Z AUTO 17012G17KT 10SM OVC007 10/ A2983 RMK AO2 SLP103 T0100 58028
2026-03-22 13:56:00,METAR KBLM 221356Z AUTO 17011G16KT 10SM OVC007 09/ A2986 RMK AO2 SLP111 T0094
2026-03-22 12:56:00,METAR KBLM 221256Z AUTO 16008KT 10SM OVC007 08/ A2990 RMK AO2 SLP125 T0078
2026-03-22 12:18:00,SPECI KBLM 221218Z AUTO 14009KT 10SM OVC009 07/ A2991 RMK AO2
2026-03-22 11:56:00,METAR KBLM 221156Z AUTO 13007KT 10SM OVC014 07/ A2992 RMK AO2 SLP132 T0067 10067 20050 57017
2026-03-22 10:56:00,METAR KBLM 221056Z AUTO 13006KT 10SM OVC014 06/ A2993 RMK AO2 SLP136 T0061
2026-03-22 10:06:00,SPECI KBLM 221006Z AUTO 11007KT 10SM OVC014 06/06 A2995 RMK AO2
2026-03-22 09:56:00,METAR KBLM 220956Z AUTO 09006KT 10SM OVC016 06/06 A2995 RMK AO2 SLP144 T00610061
2026-03-22 09:41:00,SPECI KBLM 220941Z AUTO 10006KT 10SM BKN016 OVC042 06/06 A2996 RMK AO2
2026-03-22 08:56:00,METAR KBLM 220856Z AUTO 08003KT 10SM SCT046 BKN110 06/06 A2997 RMK AO2 SLP149 T00560056 55010
2026-03-22 07:56:00,METAR KBLM 220756Z AUTO 15004KT 10SM BKN110 06/06 A2996 RMK AO2 SLP145 T00560056
2026-03-22 06:56:00,METAR KBLM 220656Z AUTO 00000KT 10SM BKN110 06/04 A2999 RMK AO2 SLP155 T00560044
2026-03-22 05:56:00,METAR KBLM 220556Z AUTO 00000KT 10SM FEW110 06/04 A3000 RMK AO2 SLP159 T00560039 10100 20050 55000
2026-03-22 04:56:00,METAR KBLM 220456Z AUTO 05004KT 10SM FEW110 06/04 A2998 RMK AO2 SLP154 T00560044 401670050
2026-03-22 03:56:00,METAR KBLM 220356Z AUTO 15004KT 10SM CLR 07/04 A2998 RMK AO2 SLP153 T00670039
2026-03-22 02:56:00,METAR KBLM 220256Z AUTO 09005KT 10SM CLR 07/03 A3000 RMK AO2 SLP159 T00720033 51013
2026-03-22 01:56:00,METAR KBLM 220156Z AUTO 10008KT 10SM CLR 08/03 A3000 RMK AO2 SLP159 T00780033
2026-03-22 00:56:00,METAR KBLM 220056Z AUTO 11004KT 10SM FEW120 09/06 A3000 RMK AO2 SLP159 T00890056
2026-03-21 23:56:00,METAR KBLM 212356Z AUTO 14003KT 10SM CLR 10/06 A2996 RMK AO2 SLP147 T01000056 10167 20100 51017
2026-03-21 22:56:00,METAR KBLM 212256Z AUTO 11004KT 10SM CLR 12/03 A2995 RMK AO2 SLP142 T01220028
2026-03-21 21:56:00,METAR KBLM 212156Z AUTO 32010KT 10SM CLR 14/01 A2993 RMK AO2 SLP136 T01440011
2026-03-21 20:56:00,METAR KBLM 212056Z AUTO 30010KT 10SM CLR 16/01 A2991 RMK AO2 SLP129 T01560006 55000
2026-03-21 19:56:00,METAR KBLM 211956Z AUTO 29009G16KT 10SM CLR 16/02 A2991 RMK AO2 SLP128 T01560017
2026-03-21 18:56:00,METAR KBLM 211856Z AUTO 31007KT 10SM CLR 16/02 A2989 RMK AO2 SLP121 T01610022
2026-03-21 17:56:00,METAR KBLM 211756Z AUTO 02006G14KT 10SM CLR 14/03 A2991 RMK AO2 SLP129 T01440028 10150 20094 50004
2026-03-21 16:56:00,METAR KBLM 211656Z AUTO 32012G18KT 10SM CLR 14/04 A2991 RMK AO2 SLP131 T01390039
2026-03-21 15:56:00,METAR KBLM 211556Z AUTO 33012G15KT 10SM FEW028 13/06 A2990 RMK AO2 SLP126 T01330061
2026-03-21 15:52:00,SPECI KBLM 211552Z AUTO 33011G15KT 10SM SCT028 13/07 A2990 RMK AO2
2026-03-21 14:56:00,METAR KBLM 211456Z AUTO 34014KT 10SM OVC022 13/09 A2990 RMK AO2 SLP124 T01280094 51022
2026-03-21 14:12:00,SPECI KBLM 211412Z AUTO 34011KT 10SM BKN018 BKN031 13/11 A2988 RMK AO2
2026-03-21 13:56:00,METAR KBLM 211356Z AUTO 33015G21KT 10SM SCT016 BKN031 12/11 A2987 RMK AO2 SLP116 T01170111
2026-03-21 13:54:00,SPECI KBLM 211354Z AUTO 33016G21KT 10SM BKN016 BKN031 12/11 A2987 RMK AO2
2026-03-21 12:56:00,METAR KBLM 211256Z AUTO 33009KT 10SM CLR 12/ A2983 RMK AO2 SLP103 T0122
2026-03-21 12:04:00,SPECI KBLM 211204Z AUTO 31005KT 3SM BR CLR 09/ A2982 RMK AO2
2026-03-21 11:56:00,METAR KBLM 211156Z AUTO 31005KT 2 1/2SM BR CLR 09/ A2981 RMK AO2 SLP097 60001 70002 T0094 10094 20078 51022
2026-03-21 11:07:00,SPECI KBLM 211107Z AUTO 28005KT 3SM BR BKN045 08/ A2980 RMK AO2
2026-03-21 10:56:00,METAR KBLM 211056Z AUTO 28003KT 1 3/4SM BR FEW045 SCT060 08/ A2979 RMK AO2 SLP090 T0083
2026-03-21 09:56:00,METAR KBLM 210956Z AUTO 26003KT 7SM FEW055 BKN085 09/ A2977 RMK AO2 SLP082 T0089
2026-03-21 08:56:00,METAR KBLM 210856Z AUTO 20003KT 10SM BKN047 BKN060 BKN095 09/ A2975 RMK AO2 SLP074 60001 T0089 56011
2026-03-21 07:56:00,METAR KBLM 210756Z AUTO 00000KT 10SM SCT037 OVC045 09/ A2976 RMK AO2 SLP077 T0094
2026-03-21 06:56:00,METAR KBLM 210656Z AUTO 21006KT 10SM FEW055 OVC080 09/ A2977 RMK AO2 RAE01 SLP080 P0001 T0094
2026-03-21 05:56:00,METAR KBLM 210556Z AUTO 25004KT 10SM -RA BKN042 OVC060 09/ A2978 RMK AO2 SLP086 P0000 60001 T0089 10117 20083 56012
2026-03-21 04:56:00,METAR KBLM 210456Z AUTO 24004KT 10SM -RA FEW038 BKN046 OVC080 08/ A2979 RMK AO2 RAE14B32 SLP088 P0000 T0083 401500017
2026-03-21 03:56:00,METAR KBLM 210356Z AUTO 20007KT 10SM -RA FEW040 BKN070 OVC090 08/ A2980 RMK AO2 SLP091 P0001 T0083
2026-03-21 02:56:00,METAR KBLM 210256Z AUTO 20007KT 10SM -RA BKN047 OVC060 09/09 A2982 RMK AO2 SLP097 P0000 60000 T00890089 58002
2026-03-21 01:56:00,METAR KBLM 210156Z AUTO 21007KT 10SM -RA SCT065 BKN075 OVC095 11/06 A2983 RMK AO2 RAB33 SLP101 P0000 T01060056
2026-03-21 00:56:00,METAR KBLM 210056Z AUTO 21010KT 10SM SCT080 OVC095 11/03 A2984 RMK AO2 RAE05 SLP104 P0000 T01110033
2026-03-20 23:56:00,METAR KBLM 202356Z AUTO 19011G15KT 10SM -RA SCT070 OVC095 11/03 A2982 RMK AO2 RAB54 SLP100 P0000 60000 T01110033 10150 20111 55003
2026-03-20 22:56:00,METAR KBLM 202256Z AUTO 18014G19KT 10SM SCT100 BKN120 12/03 A2982 RMK AO2 SLP099 T01170028
2026-03-20 21:56:00,METAR KBLM 202156Z AUTO 19012G20KT 10SM CLR 13/02 A2982 RMK AO2 SLP099 T01280022
2026-03-20 20:56:00,METAR KBLM 202056Z AUTO 16011G16KT 10SM CLR 13/04 A2983 RMK AO2 SLP103 T01280039 56045
2026-03-20 19:56:00,METAR KBLM 201956Z AUTO 16012G16KT 10SM CLR 13/04 A2987 RMK AO2 SLP116 T01330039
2026-03-20 18:56:00,METAR KBLM 201856Z AUTO 16012KT 10SM CLR 15/04 A2991 RMK AO2 SLP131 T01500039
2026-03-20 17:56:00,METAR KBLM 201756Z AUTO 17011G17KT 10SM CLR 14/04 A2997 RMK AO2 PRESFR SLP148 T01440039 10144 20028 58042
2026-03-20 16:56:00,METAR KBLM 201656Z AUTO 15013KT 10SM CLR 13/03 A3002 RMK AO2 SLP166 T01330033
2026-03-20 15:56:00,METAR KBLM 201556Z AUTO 21007KT 10SM CLR 13/02 A3006 RMK AO2 SLP180 T01330022
2026-03-20 14:56:00,METAR KBLM 201456Z AUTO 19007KT 10SM CLR 11/01 A3009 RMK AO2 SLP190 T01110011 58021
2026-03-20 13:56:00,METAR KBLM 201356Z AUTO 22007KT 10SM CLR 09/01 A3011 RMK AO2 SLP198 T00890011
2026-03-20 12:56:00,METAR KBLM 201256Z AUTO 23008KT 10SM CLR 06/01 A3014 RMK AO2 SLP207 T00610006
2026-03-20 11:56:00,METAR KBLM 201156Z AUTO 23006KT 10SM CLR 03/01 A3015 RMK AO2 SLP211 T00280011 10039 20017 53003
2026-03-20 10:56:00,METAR KBLM 201056Z AUTO 22005KT 10SM CLR 02/01 A3014 RMK AO2 SLP206 T00170006 FZRANO
2026-03-20 09:56:00,METAR KBLM 200956Z AUTO 20004KT 10SM CLR 02/01 A3014 RMK AO2 SLP207 T00220011 FZRANO
2026-03-20 08:56:00,METAR KBLM 200856Z AUTO 19004KT 10SM CLR 02/01 A3014 RMK AO2 SLP209 T00220006 56018 FZRANO
2026-03-20 07:56:00,METAR KBLM 200756Z AUTO 20005KT 10SM FEW050 03/M01 A3015 RMK AO2 SLP210 T00281006
2026-03-20 06:56:00,METAR KBLM 200656Z AUTO 20005KT 10SM BKN049 OVC070 04/M02 A3018 RMK AO2 SLP221 T00391017
2026-03-20 05:56:00,METAR KBLM 200556Z AUTO 20005KT 10SM OVC060 04/M03 A3020 RMK AO2 SLP228 T00391033 10039 20028 58004
2026-03-20 04:56:00,METAR KBLM 200456Z AUTO 21006KT 10SM BKN050 OVC070 04/M03 A3021 RMK AO2 SLP232 T00391033 400671022
2026-03-20 03:56:00,METAR KBLM 200356Z AUTO 20006KT 10SM OVC055 04/M03 A3021 RMK AO2 SLP230 T00391033
2026-03-20 02:56:00,METAR KBLM 200256Z AUTO 18003KT 10SM BKN060 OVC090 03/M03 A3021 RMK AO2 SLP230 T00281028 53001
2026-03-20 01:56:00,METAR KBLM 200156Z AUTO 17004KT 10SM BKN070 03/M03 A3021 RMK AO2 SLP232 T00281028
2026-03-20 00:56:00,METAR KBLM 200056Z AUTO 19004KT 10SM BKN070 03/M02 A3020 RMK AO2 SLP229 T00281017
2026-03-19 23:56:00,METAR KBLM 192356Z AUTO 00000KT 10SM CLR 04/M02 A3021 RMK AO2 SLP230 T00391017 10067 20039 53004
2026-03-19 22:56:00,METAR KBLM 192256Z AUTO 15006KT 10SM CLR 05/M03 A3019 RMK AO2 SLP226 T00501028
2026-03-19 21:56:00,METAR KBLM 192156Z AUTO VRB06KT 10SM CLR 07/M04 A3019 RMK AO2 SLP225 T00671044
2026-03-19 20:56:00,METAR KBLM 192056Z AUTO 15006KT 10SM CLR 06/M04 A3019 RMK AO2 SLP226 T00611044 58022
2026-03-19 19:56:00,METAR KBLM 191956Z AUTO 16008KT 10SM OVC050 05/M06 A3022 RMK AO2 SLP234 T00501056
2026-03-19 18:56:00,METAR KBLM 191856Z AUTO 14007KT 10SM OVC060 06/M06 A3025 RMK AO2 SLP244 T00561056
2026-03-19 17:56:00,METAR KBLM 191756Z AUTO 14006KT 10SM OVC070 06/M07 A3026 RMK AO2 SLP248 T00611067 10061 21011 58019
2026-03-19 16:56:00,METAR KBLM 191656Z AUTO 14007KT 10SM OVC070 06/M07 A3028 RMK AO2 SLP255 T00561067
2026-03-19 15:56:00,METAR KBLM 191556Z AUTO 21006KT 10SM OVC075 05/M09 A3030 RMK AO2 SLP264 T00501094
2026-03-19 14:56:00,METAR KBLM 191456Z AUTO 13007KT 10SM OVC070 04/M09 A3032 RMK AO2 SLP268 T00441094 58003
2026-03-19 13:56:00,METAR KBLM 191356Z AUTO 15007KT 10SM SCT055 03/M06 A3033 RMK AO2 SLP272 T00281056
2026-03-19 12:56:00,METAR KBLM 191256Z AUTO 00000KT 10SM OVC100 02/M01 A3033 RMK AO2 SLP273 T00171006 FZRANO
2026-03-19 11:56:00,METAR KBLM 191156Z AUTO 00000KT 10SM OVC110 M02/M03 A3033 RMK AO2 SLP272 T10171028 11006 21022 53000 FZRANO
2026-03-19 10:56:00,METAR KBLM 191056Z AUTO 00000KT 10SM FEW090 OVC110 M02/M04 A3032 RMK AO2 SLP269 T10221044 FZRANO
2026-03-19 09:56:00,METAR KBLM 190956Z AUTO 00000KT 10SM SCT100 OVC120 M02/M03 A3032 RMK AO2 SLP269 T10171033 FZRANO
2026-03-19 08:56:00,METAR KBLM 190856Z AUTO 00000KT 10SM FEW080 BKN120 M02/M03 A3033 RMK AO2 SLP272 T10171033 56014 FZRANO
2026-03-19 07:56:00,METAR KBLM 190756Z AUTO 00000KT 10SM OVC110 M01/M04 A3033 RMK AO2 SLP274 T10111039 FZRANO
2026-03-19 06:56:00,METAR KBLM 190656Z AUTO 00000KT 10SM OVC110 M01/M04 A3036 RMK AO2 SLP281 T10111039 FZRANO
2026-03-19 05:56:00,METAR KBLM 190556Z AUTO 00000KT 10SM OVC120 M01/M04 A3037 RMK AO2 SLP286 T10061044 11006 21028 55009 FZRANO
2026-03-19 04:56:00,METAR KBLM 190456Z AUTO 16003KT 10SM OVC120 M01/M05 A3037 RMK AO2 SLP285 T10061050 400221039 FZRANO
2026-03-19 03:56:00,METAR KBLM 190356Z AUTO 15004KT 10SM SCT120 M02/M06 A3038 RMK AO2 SLP290 T10171056 FZRANO
2026-03-19 02:56:00,METAR KBLM 190256Z AUTO 13004KT 10SM CLR M02/M06 A3040 RMK AO2 SLP295 T10221056 50004 FZRANO
2026-03-19 01:56:00,METAR KBLM 190156Z AUTO 00000KT 10SM CLR M02/M06 A3040 RMK AO2 SLP296 T10221056 FZRANO
2026-03-19 00:56:00,METAR KBLM 190056Z AUTO 14003KT 10SM CLR M02/M07 A3040 RMK AO2 SLP295 T10171067 FZRANO
2026-03-18 23:56:00,METAR KBLM 182356Z AUTO 15005KT 10SM CLR M01/M08 A3038 RMK AO2 SLP291 T10111078 10017 21011 56004 FZRANO
2026-03-18 22:56:00,METAR KBLM 182256Z AUTO VRB04KT 10SM CLR M01/M09 A3039 RMK AO2 SLP292 T10061089 FZRANO
2026-03-18 21:56:00,METAR KBLM 182156Z AUTO 13008KT 10SM CLR 00/M11 A3039 RMK AO2 SLP293 T00001106 FZRANO
2026-03-18 20:56:00,METAR KBLM 182056Z AUTO 13010KT 10SM CLR 01/M11 A3040 RMK AO2 SLP295 T00061111 56011 FZRANO
2026-03-18 19:56:00,METAR KBLM 181956Z AUTO 11012KT 10SM CLR 01/M11 A3040 RMK AO2 SLP297 T00111106 FZRANO
2026-03-18 18:56:00,METAR KBLM 181856Z AUTO 09009G16KT 070V130 10SM CLR 01/M12 A3041 RMK AO2 SLP300 T00061122 FZRANO
2026-03-18 17:56:00,METAR KBLM 181756Z AUTO 08008KT 10SM CLR 01/M14 A3043 RMK AO2 SLP306 T00111139 10022 21033 50009 FZRANO
2026-03-18 16:56:00,METAR KBLM 181656Z AUTO 31004KT 10SM CLR 01/M15 A3044 RMK AO2 SLP311 T00111150 FZRANO
2026-03-18 15:56:00,METAR KBLM 181556Z AUTO 32011KT 10SM CLR 00/M13 A3041 RMK AO2 SLP301 T00001128 FZRANO
2026-03-18 14:56:00,METAR KBLM 181456Z AUTO 35010KT 10SM FEW120 M02/M13 A3040 RMK AO2 SLP297 T10171128 58008 FZRANO
2026-03-18 13:56:00,METAR KBLM 181356Z AUTO 32014KT 10SM CLR M02/M13 A3041 RMK AO2 SLP299 T10221133 FZRANO
2026-03-18 12:56:00,METAR KBLM 181256Z AUTO 31012KT 10SM CLR M03/M13 A3045 RMK AO2 SLP313 T10281128 FZRANO
2026-03-18 11:56:00,METAR KBLM 181156Z AUTO 32009KT 10SM CLR M03/M13 A3042 RMK AO2 SLP305 T10331128 11017 21039 51041 FZRANO
2026-03-18 10:56:00,METAR KBLM 181056Z AUTO 30006KT 10SM CLR M04/M12 A3039 RMK AO2 SLP293 T10391117 FZRANO
2026-03-18 09:56:00,METAR KBLM 180956Z AUTO 30008KT 10SM CLR M03/M10 A3034 RMK AO2 SLP276 T10331100 FZRANO
2026-03-18 08:56:00,METAR KBLM 180856Z AUTO 29006KT 10SM CLR M03/M10 A3030 RMK AO2 SLP263 T10331100 53017 FZRANO
2026-03-18 07:56:00,METAR KBLM 180756Z AUTO 29007KT 10SM CLR M03/M09 A3027 RMK AO2 SLP253 T10281089 FZRANO
2026-03-18 06:56:00,METAR KBLM 180656Z AUTO 28005KT 10SM CLR M02/M08 A3027 RMK AO2 SLP251 T10221083 FZRANO
2026-03-18 05:56:00,METAR KBLM 180556Z AUTO 27007KT 10SM CLR M02/M09 A3025 RMK AO2 SLP246 T10171089 10017 21017 51025 FZRANO
2026-03-18 04:56:00,METAR KBLM 180456Z AUTO 29012KT 10SM CLR M01/M08 A3023 RMK AO2 SLP237 T10111083 400721011 FZRANO
2026-03-18 03:56:00,METAR KBLM 180356Z AUTO 27007KT 10SM CLR M01/M07 A3021 RMK AO2 SLP231 T10111072 FZRANO
2026-03-18 02:56:00,METAR KBLM 180256Z AUTO 28007KT 10SM CLR M01/M07 A3018 RMK AO2 SLP221 T10061067 51040 FZRANO
2026-03-18 01:56:00,METAR KBLM 180156Z AUTO 27012G17KT 10SM FEW080 00/M08 A3014 RMK AO2 SLP209 T00001083 FZRANO
2026-03-18 00:56:00,METAR KBLM 180056Z AUTO 29008G19KT 10SM FEW060 SCT080 01/M09 A3011 RMK AO2 SLP197 T00111089 FZRANO
2026-03-17 23:56:00,METAR KBLM 172356Z AUTO 26014G20KT 10SM OVC080 02/M11 A3006 RMK AO2 SLP181 T00171106 10050 20017 53038 FZRANO
2026-03-17 22:56:00,METAR KBLM 172256Z AUTO 27010G20KT 10SM OVC075 02/M10 A3003 RMK AO2 SLP169 T00221100 FZRANO
2026-03-17 21:56:00,METAR KBLM 172156Z AUTO 28011G19KT 10SM OVC070 03/M11 A2998 RMK AO2 SLP151 T00331106
2026-03-17 20:56:00,METAR KBLM 172056Z AUTO 28015G23KT 10SM BKN065 03/M11 A2995 RMK AO2 PK WND 27026/2000 SLP142 T00331111 53014
2026-03-17 19:56:00,METAR KBLM 171956Z AUTO 29019G24KT 10SM FEW065 04/M11 A2992 RMK AO2 PK WND 27027/1907 SLP132 T00391111
2026-03-17 18:56:00,METAR KBLM 171856Z AUTO 26017G22KT 10SM SCT060 04/M10 A2990 RMK AO2 PK WND 31030/1808 SLP127 T00441100
2026-03-17 17:56:00,METAR KBLM 171756Z AUTO 28018G25KT 10SM FEW055 04/M10 A2991 RMK AO2 PK WND 30030/1746 SLP129 T00391100 10044 20011 51003
2026-03-17 16:56:00,METAR KBLM 171656Z AUTO 27016G25KT 10SM CLR 03/M09 A2990 RMK AO2 PK WND 30028/1623 SLP127 T00331089
2026-03-17 15:56:00,METAR KBLM 171556Z AUTO 28017G30KT 10SM CLR 03/M09 A2991 RMK AO2 PK WND 27030/1554 SLP129 T00281094
2026-03-17 14:56:00,METAR KBLM 171456Z AUTO 27017G28KT 10SM CLR 02/M08 A2990 RMK AO2 PK WND 24030/1434 SLP125 T00221078 53036 FZRANO
2026-03-17 13:56:00,METAR KBLM 171356Z AUTO 29018G26KT 10SM CLR 02/M09 A2986 RMK AO2 PK WND 28033/1325 SLP112 T00221089 FZRANO
2026-03-17 12:56:00,METAR KBLM 171256Z AUTO 27014G22KT 10SM CLR 02/M08 A2982 RMK AO2 PK WND 27027/1226 SLP100 T00171083 FZRANO
2026-03-17 11:56:00,METAR KBLM 171156Z AUTO 27014G26KT 10SM FEW045 01/M09 A2979 RMK AO2 PK WND 27028/1057 SLP089 6//// 7//// T00111089 10050 20006 53043 FZRANO
2026-03-17 10:56:00,METAR KBLM 171056Z AUTO 25016G24KT 10SM CLR 01/M08 A2974 RMK AO2 SLP072 T00111078 FZRANO
2026-03-17 09:56:00,METAR KBLM 170956Z AUTO 27013G22KT 10SM CLR 02/M06 A2971 RMK AO2 PK WND 28026/0945 SLP062 T00171061 FZRANO
2026-03-17 08:56:00,METAR KBLM 170856Z AUTO 26015G24KT 10SM CLR 02/M02 A2966 RMK AO2 SLP045 6//// T00221017 51054 FZRANO
2026-03-17 08:30:00,SPECI KBLM 170830Z AUTO 26014KT 10SM FEW025 SCT030 BKN035 02/01 A2964 RMK AO2 FZRANO PNO $
2026-03-17 07:56:00,METAR KBLM 170756Z AUTO 26013G25KT 10SM SCT023 BKN029 03/02 A2962 RMK AO2 PK WND 27026/0725 PRESRR SLP030 T00280022 PNO $
2026-03-17 06:56:00,METAR KBLM 170656Z AUTO 25015G22KT 10SM OVC022 04/04 A2957 RMK AO2 PK WND 25029/0632 RAE00 SLP013 T00390039 PNO $
2026-03-17 06:10:00,SPECI KBLM 170610Z AUTO 25013G23KT 10SM SCT015 BKN020 OVC060 05/ A2953 RMK AO2 RAE00 PRESRR PNO $
2026-03-17 05:56:00,METAR KBLM 170556Z AUTO 26015G26KT 10SM -RA BKN013 BKN023 OVC060 05/ A2950 RMK AO2 PK WND 26026/0551 RAB05 SLP992 6//// T0050 10144 20050 53056 PNO $
2026-03-17 05:13:00,SPECI KBLM 170513Z AUTO 26014G21KT 10SM -RA BKN013 BKN041 OVC049 07/ A2944 RMK AO2 RAB05 PNO $
2026-03-17 04:56:00,METAR KBLM 170456Z AUTO 26013G22KT 10SM FEW013 BKN035 OVC047 07/ A2942 RMK AO2 PK WND 25038/0427 WSHFT 0418 RAE45 SLP962 T0072 401890072 PNO $
2026-03-17 04:42:00,SPECI KBLM 170442Z AUTO 27017G29KT 10SM -RA FEW003 SCT009 OVC033 07/ A2940 RMK AO2 PK WND 25038/0427 WSHFT 0418 PNO $
2026-03-17 04:33:00,SPECI KBLM 170433Z AUTO 27021G38KT 8SM -RA SCT003 BKN009 OVC031 08/ A2941 RMK AO2 PK WND 25038/0427 WSHFT 0418 PRESRR PNO $
2026-03-17 04:30:00,SPECI KBLM 170430Z AUTO 26025G38KT 5SM -RA BKN003 BKN009 OVC031 09/ A2941 RMK AO2 PK WND 25038/0427 WSHFT 0410 PNO $
2026-03-17 03:56:00,METAR KBLM 170356Z AUTO 17020G24KT 6SM -RA OVC003 13/ A2930 RMK AO2 PK WND 16032/0327 SLP923 P0000 T0128
2026-03-17 03:41:00,SPECI KBLM 170341Z AUTO 16016G25KT 3SM -RA OVC003 13/ A2931 RMK AO2 PK WND 16032/0327 P0000
2026-03-17 03:34:00,SPECI KBLM 170334Z AUTO 17013G32KT 1 3/4SM BR OVC003 13/ A2931 RMK AO2 PK WND 16032/0327 RAE28 P0000
2026-03-17 03:27:00,SPECI KBLM 170327Z AUTO 16021G32KT 2SM -RA OVC003 13/ A2931 RMK AO2 PK WND 16032/0327 P0000
2026-03-17 02:56:00,METAR KBLM 170256Z AUTO 16017G24KT 9SM -RA OVC003 14/ A2934 RMK AO2 PK WND 16030/0215 RAB42 SLP935 P0000 60000 T0144 58030
2026-03-17 01:56:00,METAR KBLM 170156Z AUTO 17014G23KT 5SM HZ OVC003 14/ A2939 RMK AO2 PK WND 16028/0143 PRESFR SLP952 T0139
2026-03-17 01:54:00,SPECI KBLM 170154Z AUTO 16012G20KT 4SM HZ OVC003 13/ A2939 RMK AO2 PK WND 16028/0143 PRESFR
2026-03-17 01:47:00,SPECI KBLM 170147Z AUTO 17013G28KT 2 1/2SM BR OVC003 13/ A2940 RMK AO2 PK WND 16028/0143
2026-03-17 01:38:00,SPECI KBLM 170138Z AUTO 17016G24KT 1 1/2SM BR OVC003 13/ A2941 RMK AO2 PK WND 17026/0123
2026-03-17 01:29:00,SPECI KBLM 170129Z AUTO 16013G26KT 1SM BR OVC003 13/ A2941 RMK AO2 PK WND 17026/0123 RVRNO
2026-03-17 01:12:00,SPECI KBLM 170112Z AUTO 16017G24KT 1 3/4SM BR OVC003 13/ A2941 RMK AO2 PRESFR
2026-03-17 00:56:00,METAR KBLM 170056Z AUTO 17013G27KT 4SM HZ OVC003 13/ A2943 RMK AO2 PK WND 15027/0048 RAE02 SLP966 P0000 T0128
2026-03-17 00:22:00,SPECI KBLM 170022Z AUTO 16015G21KT 4SM HZ OVC003 13/ A2945 RMK AO2 RAE02 P0000
2026-03-16 23:56:00,METAR KBLM 162356Z AUTO 16013G20KT 10SM -RA OVC005 13/ A2946 RMK AO2 CIG 004V009 SLP975 P0004 60025 T0128 10183 20122 58037
2026-03-16 23:09:00,SPECI KBLM 162309Z AUTO 18011G22KT 8SM RA OVC007 14/ A2950 RMK AO2 CIG 005V010 PRESFR P0002
2026-03-16 22:56:00,METAR KBLM 162256Z AUTO 18012G20KT 7SM RA OVC005 14/ A2952 RMK AO2 CIG 003V008 SLP996 P0006 T0139
2026-03-16 22:47:00,SPECI KBLM 162247Z AUTO 17013G19KT 8SM RA OVC005 14/ A2952 RMK AO2 CIG 002V008 P0004
2026-03-16 22:31:00,SPECI KBLM 162231Z AUTO 17012G19KT 6SM RA OVC002 13/ A2952 RMK AO2 P0001
2026-03-16 22:20:00,SPECI KBLM 162220Z AUTO 17010G20KT 2SM -RA OVC002 13/ A2953 RMK AO2 P0000
2026-03-16 22:12:00,SPECI KBLM 162212Z AUTO 17014G20KT 1 3/4SM -RA OVC004 13/ A2953 RMK AO2 CIG 002V005 P0000
2026-03-16 21:56:00,METAR KBLM 162156Z AUTO 17012G22KT 140V200 10SM -RA OVC004 12/ A2953 RMK AO2 SLP999 P0004 T0122
2026-03-16 20:56:00,METAR KBLM 162056Z AUTO 16010G16KT 5SM RA OVC004 13/ A2956 RMK AO2 SLP012 P0009 60011 T0128 58028
2026-03-16 20:03:00,SPECI KBLM 162003Z AUTO 16012G19KT 6SM -RA OVC004 13/ A2960 RMK AO2 P0000
2026-03-16 19:56:00,METAR KBLM 161956Z AUTO 16010G18KT 2 1/2SM RA OVC004 13/ A2960 RMK AO2 PK WND 18027/1858 VIS 3/4V5 RAB48 SLP025 P0002 T0133
2026-03-16 19:53:00,SPECI KBLM 161953Z AUTO 16011G18KT 2 1/2SM RA OVC004 13/ A2960 RMK AO2 PK WND 18027/1858 VIS 3/4V5 RAB48 CIG 004V007 P0002
2026-03-16 19:31:00,SPECI KBLM 161931Z AUTO 16013G20KT 10SM BKN009 OVC012 14/ A2961 RMK AO2 PK WND 18027/1858 CIG 006V011
2026-03-16 19:05:00,SPECI KBLM 161905Z AUTO 16013G27KT 10SM BKN014 16/ A2962 RMK AO2 PK WND 18027/1858
2026-03-16 18:56:00,METAR KBLM 161856Z AUTO 16013G22KT 10SM BKN016 BKN110 16/ A2962 RMK AO2 PK WND 18027/1818 SLP030 T0156
2026-03-16 18:26:00,SPECI KBLM 161826Z AUTO 17012G27KT 10SM BKN018 OVC110 18/18 A2964 RMK AO2 PK WND 18027/1818
2026-03-16 17:56:00,METAR KBLM 161756Z AUTO 17015G20KT 10SM FEW016 BKN120 18/18 A2965 RMK AO2 PK WND 17031/1711 SLP039 60000 T01780178 10189 20111 56027
2026-03-16 16:56:00,METAR KBLM 161656Z AUTO 17015G24KT 10SM SCT016 BKN110 19/19 A2967 RMK AO2 SLP047 T01890189
2026-03-16 15:56:00,METAR KBLM 161556Z AUTO 18014G21KT 10SM FEW009 18/ A2970 RMK AO2 SLP058 T0183
2026-03-16 15:47:00,SPECI KBLM 161547Z AUTO 18014G20KT 10SM SCT009 SCT100 18/ A2971 RMK AO2
2026-03-16 15:25:00,SPECI KBLM 161525Z AUTO 18010G17KT 10SM OVC007 16/ A2972 RMK AO2 CIG 004V012
2026-03-16 15:14:00,SPECI KBLM 161514Z AUTO 18013G18KT 10SM OVC005 15/ A2973 RMK AO2 CIG 003V009
2026-03-16 14:56:00,METAR KBLM 161456Z AUTO 17012G18KT 10SM OVC003 14/ A2973 RMK AO2 RAB13E31 SLP067 P0000 60000 T0144 58021
2026-03-16 14:23:00,SPECI KBLM 161423Z AUTO 18011G18KT 5SM -RA OVC003 14/ A2974 RMK AO2 RAB13 P0000
2026-03-16 14:16:00,SPECI KBLM 161416Z AUTO 17011G17KT 3SM -RA OVC001 14/ A2974 RMK AO2 RAB13 P0000
2026-03-16 14:02:00,SPECI KBLM 161402Z AUTO 17011G18KT 1 1/4SM BR OVC001 14/ A2975 RMK AO2
2026-03-16 13:56:00,METAR KBLM 161356Z AUTO 18012G18KT 3/4SM BR OVC001 14/ A2975 RMK AO2 SLP075 T0139 RVRNO
2026-03-16 13:46:00,SPECI KBLM 161346Z AUTO 17011G17KT 3/4SM BR OVC001 14/ A2975 RMK AO2 RVRNO
2026-03-16 13:07:00,SPECI KBLM 161307Z AUTO 16007G15KT 1/2SM FG OVC001 12/ A2977 RMK AO2 RVRNO
2026-03-16 12:56:00,METAR KBLM 161256Z AUTO 16009KT 1/4SM FG OVC001 12/ A2977 RMK AO2 SLP081 T0117 RVRNO
2026-03-16 11:56:00,METAR KBLM 161156Z AUTO 16010G15KT 1/4SM FG OVC001 11/ A2979 RMK AO2 SLP089 60004 70004 T0111 10117 20078 58022 RVRNO
2026-03-16 11:13:00,SPECI KBLM 161113Z AUTO 16013G19KT 1/4SM FG OVC001 11/ A2981 RMK AO2 RVRNO
2026-03-16 10:56:00,METAR KBLM 161056Z AUTO 16011G17KT 1/2SM FG OVC001 11/ A2981 RMK AO2 RAE34 SLP097 P0000 T0111 RVRNO
2026-03-16 10:37:00,SPECI KBLM 161037Z AUTO 16013G18KT 1/2SM FG OVC001 11/ A2982 RMK AO2 RAE34 P0000 RVRNO
2026-03-16 10:25:00,SPECI KBLM 161025Z AUTO 16012G18KT 3/4SM -RA OVC001 11/ A2983 RMK AO2 P0000 RVRNO
2026-03-16 10:10:00,SPECI KBLM 161010Z AUTO 16010G19KT 1 3/4SM -RA OVC001 11/ A2984 RMK AO2 P0000
2026-03-16 09:56:00,METAR KBLM 160956Z AUTO 16010G16KT 1SM -RA OVC001 11/ A2986 RMK AO2 SLP110 P0000 T0111 RVRNO
2026-03-16 08:56:00,METAR KBLM 160856Z AUTO 16009G18KT 1/2SM -RA OVC001 11/ A2989 RMK AO2 SLP121 P0002 60004 T0111 56019 RVRNO
2026-03-16 08:45:00,SPECI KBLM 160845Z AUTO 16015G22KT 1/2SM -RA OVC001 11/ A2989 RMK AO2 P0002 RVRNO
2026-03-16 08:36:00,SPECI KBLM 160836Z AUTO 15013G21KT 1SM -RA OVC001 11/ A2989 RMK AO2 P0001 RVRNO
2026-03-16 08:23:00,SPECI KBLM 160823Z AUTO 16013G19KT 1 1/2SM -RA OVC001 11/ A2989 RMK AO2 P0001
2026-03-16 08:16:00,SPECI KBLM 160816Z AUTO 16010G18KT 2SM -RA OVC001 10/ A2990 RMK AO2 CIG 001V004 P0001
2026-03-16 08:06:00,SPECI KBLM 160806Z AUTO 14011KT 4SM -RA OVC003 10/ A2990 RMK AO2 CIG 002V005 P0001
2026-03-16 07:56:00,METAR KBLM 160756Z AUTO 15014G20KT 5SM -RA OVC005 10/ A2991 RMK AO2 PK WND 13026/0735 CIG 003V008 SLP128 P0001 T0100
2026-03-16 07:51:00,SPECI KBLM 160751Z AUTO 15013G20KT 4SM RA OVC005 10/ A2991 RMK AO2 PK WND 13026/0735 CIG 004V008 P0001
2026-03-16 06:56:00,METAR KBLM 160656Z AUTO 14015G21KT 3SM RA BKN007 OVC010 09/ A2994 RMK AO2 CIG 005V008 PRESFR SLP140 P0001 T0094
2026-03-16 06:53:00,SPECI KBLM 160653Z AUTO 13014KT 3SM RA BKN007 BKN010 OVC020 09/ A2994 RMK AO2 PRESFR P0001
2026-03-16 06:06:00,SPECI KBLM 160606Z AUTO 12016G20KT 4SM -RA BKN005 OVC019 08/ A3000 RMK AO2 CIG 004V010 PRESFR P0000
2026-03-16 05:56:00,METAR KBLM 160556Z AUTO 12013G22KT 4SM -RA BKN007 OVC021 08/ A3002 RMK AO2 RAB04E18B40 CIG 004V010 PRESFR SLP165 P0000 60000 T0078 10083 20050 58058
2026-03-16 05:33:00,SPECI KBLM 160533Z AUTO 13014G18KT 9SM FEW009 OVC027 08/ A3004 RMK AO2 RAB04E18 P0000
2026-03-16 05:12:00,SPECI KBLM 160512Z AUTO 12012G22KT 9SM -RA OVC029 08/ A3006 RMK AO2 RAB04 PRESFR P0000
2026-03-16 04:56:00,METAR KBLM 160456Z AUTO 13011G19KT 10SM BKN031 OVC049 08/ A3008 RMK AO2 SLP186 T0083 400830017
2026-03-16 03:56:00,METAR KBLM 160356Z AUTO 12012G20KT 10SM BKN047 OVC055 07/ A3013 RMK AO2 SLP204 T0072
2026-03-16 02:56:00,METAR KBLM 160256Z AUTO 12011G17KT 10SM BKN040 BKN060 07/ A3019 RMK AO2 SLP223 T0067 58033
2026-03-16 01:56:00,METAR KBLM 160156Z AUTO 11015G21KT 10SM FEW038 06/ A3022 RMK AO2 SLP234 T0061
2026-03-16 00:56:00,METAR KBLM 160056Z AUTO 10015G20KT 10SM BKN043 06/ A3026 RMK AO2 SLP248 T0056
2026-03-15 23:56:00,METAR KBLM 152356Z AUTO 09011KT 10SM OVC045 05/ A3028 RMK AO2 SLP256 T0050 10056 20044 58026
2026-03-15 22:56:00,METAR KBLM 152256Z AUTO 08010KT 10SM BKN039 OVC050 05/ A3031 RMK AO2 SLP266 T0050
2026-03-15 21:56:00,METAR KBLM 152156Z AUTO 09011KT 10SM BKN037 OVC070 05/05 A3033 RMK AO2 SLP273 T00500050
2026-03-15 20:56:00,METAR KBLM 152056Z AUTO 09011KT 10SM SCT060 OVC075 05/04 A3036 RMK AO2 SLP282 T00500044 56026
2026-03-15 19:56:00,METAR KBLM 151956Z AUTO 09008KT 10SM OVC055 06/03 A3039 RMK AO2 SLP291 T00560028
2026-03-15 18:56:00,METAR KBLM 151856Z AUTO 10012G16KT 10SM BKN055 OVC075 05/02 A3041 RMK AO2 SLP301 T00500022
2026-03-15 17:56:00,METAR KBLM 151756Z AUTO 11013KT 10SM OVC055 04/02 A3044 RMK AO2 SLP310 T00440017 10050 20028 58017
2026-03-15 16:56:00,METAR KBLM 151656Z AUTO 11012G20KT 10SM FEW019 OVC055 04/01 A3047 RMK AO2 SLP319 T00440011
2026-03-15 15:56:00,METAR KBLM 151556Z AUTO 09011KT 10SM FEW019 OVC065 04/02 A3048 RMK AO2 SLP323 T00440022
2026-03-15 14:56:00,METAR KBLM 151456Z AUTO 07012KT 10SM OVC065 04/02 A3049 RMK AO2 SLP327 T00440017 53008
2026-03-15 13:56:00,METAR KBLM 151356Z AUTO 08011KT 10SM FEW070 04/M01 A3048 RMK AO2 SLP322 T00391006
2026-03-15 12:56:00,METAR KBLM 151256Z AUTO 08012KT 10SM CLR 04/M02 A3045 RMK AO2 SLP312 T00391017
2026-03-15 11:56:00,METAR KBLM 151156Z AUTO 07006KT 10SM CLR 03/M03 A3047 RMK AO2 SLP317 T00281028 10039 20017 51017
2026-03-15 10:56:00,METAR KBLM 151056Z AUTO 06005KT 10SM CLR 03/M05 A3045 RMK AO2 SLP312 T00281050
2026-03-15 09:56:00,METAR KBLM 150956Z AUTO 07005KT 10SM CLR 03/M02 A3043 RMK AO2 SLP307 T00281017
2026-03-15 08:56:00,METAR KBLM 150856Z AUTO 09004KT 10SM CLR 02/M04 A3041 RMK AO2 SLP300 T00221039 53005 FZRANO
2026-03-15 07:56:00,METAR KBLM 150756Z AUTO 04004KT 10SM FEW110 03/M06 A3040 RMK AO2 SLP295 T00331056
