Time_recorded,METAR
2026-05-02 14:53:00,METAR KSJC 021453Z 14007KT 7SM OVC012 13/11 A2993 RMK AO2 SLP136 T01330106 53008
2026-05-02 13:53:00,METAR KSJC 021353Z 11006KT 7SM OVC012 13/11 A2992 RMK AO2 SLP132 T01330106
2026-05-02 12:53:00,METAR KSJC 021253Z 00000KT 10SM OVC013 13/11 A2991 RMK AO2 SLP129 T01330106
2026-05-02 11:53:00,METAR KSJC 021153Z AUTO 29003KT 10SM OVC013 13/11 A2991 RMK AO2 SLP128 T01330106 10139 20128 56009
2026-05-02 10:53:00,METAR KSJC 021053Z AUTO 00000KT 10SM OVC014 13/11 A2991 RMK AO2 SLP128 T01330106
2026-05-02 09:53:00,METAR KSJC 020953Z AUTO 00000KT 10SM OVC014 13/10 A2992 RMK AO2 SLP132 T01330100
2026-05-02 08:53:00,METAR KSJC 020853Z AUTO 00000KT 10SM OVC013 13/11 A2994 RMK AO2 SLP137 T01330106 58006
2026-05-02 07:53:00,METAR KSJC 020753Z AUTO 00000KT 10SM OVC012 13/11 A2995 RMK AO2 SLP140 T01330106 402170128
2026-05-02 06:53:00,METAR KSJC 020653Z 35006KT 10SM BKN013 13/11 A2995 RMK AO2 SLP141 T01330106
2026-05-02 06:31:00,SPECI KSJC 020631Z 35005KT 10SM BKN013 13/11 A2995 RMK AO2 T01280106
2026-05-02 05:53:00,METAR KSJC 020553Z 34007KT 10SM SCT013 13/11 A2996 RMK AO2 SLP143 T01330106 10206 20128 51014
2026-05-02 04:53:00,METAR KSJC 020453Z 34008KT 10SM FEW013 FEW100 13/11 A2995 RMK AO2 SLP142 T01330106
2026-05-02 03:53:00,METAR KSJC 020353Z 33009KT 10SM FEW013 FEW110 14/11 A2993 RMK AO2 SLP134 T01390106
2026-05-02 02:53:00,METAR KSJC 020253Z 32010KT 10SM FEW080 FEW110 15/11 A2992 RMK AO2 SLP129 T01500106 53006
2026-05-02 01:53:00,METAR KSJC 020153Z 32013KT 10SM FEW080 FEW110 17/11 A2990 RMK AO2 SLP124 T01720111
2026-05-02 00:53:00,METAR KSJC 020053Z 33012KT 10SM FEW035 FEW080 FEW100 19/12 A2989 RMK AO2 SLP122 T01890122
2026-05-01 23:53:00,METAR KSJC 012353Z 31010KT 10SM FEW035 FEW080 SCT100 21/13 A2990 RMK AO2 SLP123 T02060128 10217 20172 58020
2026-05-01 22:53:00,METAR KSJC 012253Z 32009KT 10SM FEW030 BKN100 21/13 A2991 RMK AO2 SLP128 T02110128
2026-05-01 21:53:00,METAR KSJC 012153Z 32009G16KT 10SM FEW035 SCT075 BKN100 20/13 A2995 RMK AO2 SLP140 T02000128
2026-05-01 20:53:00,METAR KSJC 012053Z 32008KT 10SM FEW035 BKN075 OVC100 20/12 A2996 RMK AO2 SLP143 T02000122 58015
2026-05-01 19:53:00,METAR KSJC 011953Z VRB03KT 9SM FEW017 SCT075 BKN100 19/11 A2997 RMK AO2 SLP147 T01940111
2026-05-01 18:53:00,METAR KSJC 011853Z 28006KT 9SM FEW017 SCT075 BKN100 18/11 A2999 RMK AO2 SLP154 T01830111
2026-05-01 17:53:00,METAR KSJC 011753Z 35006KT 8SM FEW017 SCT075 BKN100 17/11 A3000 RMK AO2 SLP158 T01720106 10178 20128 51005
2026-05-01 16:53:00,METAR KSJC 011653Z 34004KT 7SM FEW017 SCT075 SCT100 16/10 A3000 RMK AO2 SLP157 T01610100
2026-05-01 15:53:00,METAR KSJC 011553Z 00000KT 7SM FEW014 FEW033 SCT100 14/10 A2999 RMK AO2 SLP156 T01440100
2026-05-01 15:34:00,SPECI KSJC 011534Z 00000KT 7SM FEW014 SCT033 SCT100 14/10 A2999 RMK AO2 T01440100
2026-05-01 14:53:00,METAR KSJC 011453Z 00000KT 6SM HZ OVC014 13/10 A2999 RMK AO2 SLP153 T01330100 53008
2026-05-01 13:53:00,METAR KSJC 011353Z VRB03KT 8SM OVC013 13/09 A2998 RMK AO2 SLP151 T01280094
2026-05-01 12:53:00,METAR KSJC 011253Z 33004KT 10SM OVC013 13/10 A2996 RMK AO2 SLP146 T01280100
2026-05-01 11:53:00,METAR KSJC 011153Z AUTO 01005KT 10SM OVC013 13/10 A2996 RMK AO2 SLP144 T01280100 10133 20128 55003
2026-05-01 10:53:00,METAR KSJC 011053Z AUTO 35004KT 10SM OVC012 13/10 A2996 RMK AO2 SLP143 T01280100
2026-05-01 09:53:00,METAR KSJC 010953Z AUTO 00000KT 10SM OVC013 13/10 A2996 RMK AO2 SLP144 T01280100
2026-05-01 08:53:00,METAR KSJC 010853Z AUTO 32004KT 10SM OVC012 13/10 A2997 RMK AO2 SLP148 T01280100 58003
2026-05-01 07:53:00,METAR KSJC 010753Z AUTO 36004KT 10SM OVC012 13/10 A2998 RMK AO2 SLP151 T01280100 402170117
2026-05-01 07:18:00,SPECI KSJC 010718Z AUTO 01005KT 10SM OVC013 13/11 A2998 RMK AO2 T01280106
2026-05-01 07:06:00,SPECI KSJC 010706Z AUTO 01004KT 10SM BKN015 13/11 A2998 RMK AO2 T01280106
2026-05-01 06:53:00,METAR KSJC 010653Z 35005KT 10SM SCT012 SCT025 13/10 A2998 RMK AO2 SLP152 T01280100
2026-05-01 05:53:00,METAR KSJC 010553Z 34007KT 10SM SCT012 SCT018 13/10 A2998 RMK AO2 SLP151 T01280100 10211 20128 51014
2026-05-01 04:53:00,METAR KSJC 010453Z 33007KT 10SM FEW055 13/11 A2997 RMK AO2 SLP149 T01330106
2026-05-01 03:53:00,METAR KSJC 010353Z 32008KT 10SM CLR 14/10 A2996 RMK AO2 SLP143 T01390100
2026-05-01 02:53:00,METAR KSJC 010253Z 33011KT 10SM CLR 15/11 A2994 RMK AO2 SLP137 T01500106 53008
2026-05-01 01:53:00,METAR KSJC 010153Z 33013KT 10SM CLR 17/11 A2993 RMK AO2 SLP134 T01670106
2026-05-01 00:53:00,METAR KSJC 010053Z 34013KT 10SM CLR 19/11 A2992 RMK AO2 SLP130 T01940106
2026-04-30 23:53:00,METAR KSJC 302353Z 34012KT 10SM FEW042 21/11 A2992 RMK AO2 SLP129 T02110106 10217 20167 57010
2026-04-30 22:53:00,METAR KSJC 302253Z 33013KT 10SM FEW042 21/12 A2992 RMK AO2 SLP132 T02110117
2026-04-30 21:53:00,METAR KSJC 302153Z 32012KT 10SM FEW045 22/12 A2994 RMK AO2 SLP137 T02170117
2026-04-30 20:53:00,METAR KSJC 302053Z 32009KT 10SM FEW045 21/11 A2995 RMK AO2 SLP140 T02110111 56016
2026-04-30 19:53:00,METAR KSJC 301953Z 00000KT 10SM CLR 20/10 A2996 RMK AO2 SLP144 T02000100
2026-04-30 18:53:00,METAR KSJC 301853Z 00000KT 10SM CLR 18/09 A2998 RMK AO2 SLP151 T01830094 $
2026-04-30 17:53:00,METAR KSJC 301753Z 32004KT 9SM CLR 17/11 A2999 RMK AO2 SLP156 T01720106 10172 20122 50000 $
2026-04-30 16:53:00,METAR KSJC 301653Z 00000KT 7SM FEW014 FEW017 FEW026 16/10 A3000 RMK AO2 SLP159 T01560100 $
2026-04-30 14:53:00,METAR KSJC 301453Z 00000KT 6SM HZ BKN012 BKN017 13/09 A2999 RMK AO2 SLP156 T01280094 53001 $
2026-04-30 13:53:00,METAR KSJC 301353Z 00000KT 6SM HZ BKN012 BKN017 13/09 A2999 RMK AO2 SLP154 T01280094
2026-04-30 12:53:00,METAR KSJC 301253Z 04003KT 9SM BKN012 BKN017 12/10 A2999 RMK AO2 SLP154 T01220100
2026-04-30 11:53:00,METAR KSJC 301153Z AUTO 00000KT 9SM OVC012 12/10 A2999 RMK AO2 SLP155 T01220100 10133 20117 56008
2026-04-30 10:53:00,METAR KSJC 301053Z AUTO 00000KT 9SM OVC012 12/10 A2999 RMK AO2 SLP155 T01220100
2026-04-30 10:41:00,SPECI KSJC 301041Z AUTO 04003KT 9SM BKN011 12/10 A2999 RMK AO2 T01220100
2026-04-30 09:53:00,METAR KSJC 300953Z AUTO 35003KT 9SM CLR 12/10 A3000 RMK AO2 SLP157 T01170100
2026-04-30 08:53:00,METAR KSJC 300853Z AUTO 33004KT 10SM CLR 12/10 A3002 RMK AO2 SLP163 T01170100 58008
2026-04-30 07:53:00,METAR KSJC 300753Z AUTO 35005KT 10SM CLR 13/10 A3003 RMK AO2 SLP167 T01280100 402330089
2026-04-30 06:53:00,METAR KSJC 300653Z 35005KT 10SM CLR 13/10 A3004 RMK AO2 SLP171 T01330100
2026-04-30 05:53:00,METAR KSJC 300553Z 36005KT 10SM CLR 14/10 A3004 RMK AO2 SLP172 T01390100 10211 20139 51010
2026-04-30 04:53:00,METAR KSJC 300453Z 33006KT 10SM CLR 14/10 A3004 RMK AO2 SLP171 T01390100
2026-04-30 03:53:00,METAR KSJC 300353Z 33007KT 10SM CLR 14/09 A3003 RMK AO2 SLP169 T01440094
2026-04-30 02:53:00,METAR KSJC 300253Z 35010KT 10SM CLR 16/09 A3001 RMK AO2 SLP162 T01610089 53005
2026-04-30 01:53:00,METAR KSJC 300153Z 34014KT 10SM FEW045 18/09 A3000 RMK AO2 SLP159 T01780089
2026-04-30 00:53:00,METAR KSJC 300053Z 33015KT 10SM FEW035 19/10 A3000 RMK AO2 SLP157 T01940100
2026-04-29 23:53:00,METAR KSJC 292353Z 32015KT 10SM FEW050 21/12 A3000 RMK AO2 SLP157 T02110117 10233 20194 58010
2026-04-29 22:53:00,METAR KSJC 292253Z 32015G20KT 10SM FEW030 FEW050 22/13 A3001 RMK AO2 SLP162 T02220128
2026-04-29 21:53:00,METAR KSJC 292153Z 33015KT 10SM FEW030 FEW050 22/12 A3002 RMK AO2 SLP164 T02220122
2026-04-29 20:53:00,METAR KSJC 292053Z 31010KT 10SM FEW028 FEW050 23/09 A3003 RMK AO2 SLP167 T02280089 58018
2026-04-29 19:53:00,METAR KSJC 291953Z 34007KT 10SM FEW017 FEW045 22/08 A3004 RMK AO2 SLP172 T02220078
2026-04-29 18:53:00,METAR KSJC 291853Z 34006KT 10SM FEW010 FEW044 21/09 A3007 RMK AO2 SLP181 T02060094
2026-04-29 17:53:00,METAR KSJC 291753Z 00000KT 10SM CLR 19/10 A3008 RMK AO2 SLP184 T01940100 10194 20089 58007
2026-04-29 16:53:00,METAR KSJC 291653Z 08004KT 10SM CLR 17/09 A3009 RMK AO2 SLP188 T01720094
2026-04-29 15:53:00,METAR KSJC 291553Z 19003KT 8SM CLR 15/11 A3010 RMK AO2 SLP191 T01500106
2026-04-29 14:53:00,METAR KSJC 291453Z 15004KT 8SM CLR 13/09 A3010 RMK AO2 SLP191 T01280094 53004
2026-04-29 13:53:00,METAR KSJC 291353Z 14004KT 8SM CLR 11/08 A3009 RMK AO2 SLP190 T01060083
2026-04-29 12:53:00,METAR KSJC 291253Z 19003KT 9SM CLR 11/08 A3008 RMK AO2 SLP184 T01060078
2026-04-29 11:53:00,METAR KSJC 291153Z AUTO 00000KT 10SM CLR 11/09 A3009 RMK AO2 SLP188 T01110089 10144 20111 56010
2026-04-29 10:53:00,METAR KSJC 291053Z AUTO 15004KT 10SM CLR 11/09 A3010 RMK AO2 SLP191 T01110094
2026-04-29 09:53:00,METAR KSJC 290953Z AUTO 36003KT 10SM CLR 13/11 A3010 RMK AO2 SLP193 T01280106
2026-04-29 08:53:00,METAR KSJC 290853Z AUTO 32005KT 10SM CLR 13/11 A3012 RMK AO2 SLP197 T01280106 51004
2026-04-29 07:53:00,METAR KSJC 290753Z AUTO 35004KT 10SM CLR 13/10 A3012 RMK AO2 SLP197 T01330100 402170078
2026-04-29 06:53:00,METAR KSJC 290653Z 34004KT 10SM CLR 13/09 A3011 RMK AO2 SLP194 T01330094
2026-04-29 05:53:00,METAR KSJC 290553Z 36005KT 10SM CLR 14/09 A3010 RMK AO2 SLP193 T01440089 10211 20144 50012
2026-04-29 04:53:00,METAR KSJC 290453Z 35006KT 10SM CLR 15/09 A3011 RMK AO2 SLP195 T01500094
2026-04-29 03:53:00,METAR KSJC 290353Z 34009KT 10SM CLR 16/09 A3009 RMK AO2 SLP189 T01560094
2026-04-29 02:53:00,METAR KSJC 290253Z 34011KT 10SM FEW075 17/09 A3007 RMK AO2 SLP181 T01720094 53004
2026-04-29 01:53:00,METAR KSJC 290153Z 35014KT 10SM FEW035 FEW075 19/09 A3006 RMK AO2 SLP177 T01890089
2026-04-29 00:53:00,METAR KSJC 290053Z 34016KT 10SM FEW075 19/09 A3006 RMK AO2 SLP178 T01940094
2026-04-28 23:53:00,METAR KSJC 282353Z 33014KT 10SM FEW055 21/07 A3006 RMK AO2 SLP177 T02060067 10217 20156 55014
2026-04-28 22:53:00,METAR KSJC 282253Z 35010KT 10SM FEW020 FEW055 21/07 A3005 RMK AO2 SLP176 T02110072
2026-04-28 21:53:00,METAR KSJC 282153Z 31006KT 10SM FEW055 21/06 A3008 RMK AO2 SLP184 TCU DSNT S T02110061
2026-04-28 20:53:00,METAR KSJC 282053Z 30008KT 10SM FEW055 20/07 A3010 RMK AO2 SLP191 TCU DSNT S T02000072 58016
2026-04-28 19:53:00,METAR KSJC 281953Z VRB06KT 10SM FEW055 19/08 A3011 RMK AO2 SLP196 TCU DSNT S T01890083 $
2026-04-28 18:53:00,METAR KSJC 281853Z VRB03KT 10SM FEW040 FEW050 17/08 A3013 RMK AO2 SLP203 T01720078 $
2026-04-28 17:53:00,METAR KSJC 281753Z 00000KT 10SM FEW040 FEW050 16/08 A3014 RMK AO2 SLP207 T01610083 10161 20078 51004 $
2026-04-28 16:53:00,METAR KSJC 281653Z VRB03KT 10SM FEW026 FEW045 14/08 A3014 RMK AO2 SLP207 T01440083 $
2026-04-28 15:53:00,METAR KSJC 281553Z 00000KT 9SM FEW016 FEW025 FEW030 13/08 A3014 RMK AO2 SLP206 T01280078 $
2026-04-28 14:53:00,METAR KSJC 281453Z 16004KT 9SM FEW020 FEW030 FEW040 11/07 A3013 RMK AO2 SLP203 T01110072 51012 $
2026-04-28 13:53:00,METAR KSJC 281353Z 14004KT 10SM FEW020 FEW040 FEW065 09/06 A3013 RMK AO2 SLP200 T00890061
2026-04-28 12:53:00,METAR KSJC 281253Z 00000KT 10SM FEW020 FEW060 09/06 A3011 RMK AO2 SLP195 T00940061
2026-04-28 11:53:00,METAR KSJC 281153Z AUTO 00000KT 10SM CLR 09/07 A3010 RMK AO2 SLP192 T00940067 10122 20089 55006
2026-04-28 10:53:00,METAR KSJC 281053Z AUTO 21003KT 10SM CLR 10/07 A3009 RMK AO2 SLP190 T01000067
2026-04-28 09:53:00,METAR KSJC 280953Z AUTO 15003KT 10SM CLR 09/06 A3010 RMK AO2 SLP191 T00940061
2026-04-28 08:53:00,METAR KSJC 280853Z AUTO 22004KT 10SM CLR 11/07 A3012 RMK AO2 SLP197 T01060067 50000
2026-04-28 07:53:00,METAR KSJC 280753Z AUTO 33004KT 10SM CLR 11/07 A3012 RMK AO2 SLP199 T01060072 401890106
2026-04-28 06:53:00,METAR KSJC 280653Z COR 32006KT 10SM FEW040 11/07 A3012 RMK AO2 SLP198 T01110072
2026-04-28 05:53:00,METAR KSJC 280553Z 33007KT 10SM FEW040 12/08 A3012 RMK AO2 SLP197 T01170078 10183 20117 51019
2026-04-28 04:53:00,METAR KSJC 280453Z 33008KT 10SM FEW055 12/07 A3011 RMK AO2 SLP196 T01220072
2026-04-28 03:53:00,METAR KSJC 280353Z 32008KT 10SM SCT055 13/07 A3009 RMK AO2 SLP189 T01280072
2026-04-28 02:53:00,METAR KSJC 280253Z 33009KT 10SM FEW042 SCT065 14/07 A3006 RMK AO2 SLP179 T01440072 53014
2026-04-28 01:53:00,METAR KSJC 280153Z 34015KT 10SM FEW040 SCT065 16/07 A3004 RMK AO2 SLP172 T01610072
2026-04-28 00:53:00,METAR KSJC 280053Z 34016G21KT 10SM FEW045 FEW065 17/08 A3003 RMK AO2 SLP168 T01720078
2026-04-27 23:53:00,METAR KSJC 272353Z 35014KT 10SM FEW055 SCT080 18/08 A3002 RMK AO2 SLP165 T01830083 10189 20144 56006
2026-04-27 22:53:00,METAR KSJC 272253Z 33012G20KT 10SM FEW050 SCT080 19/08 A3002 RMK AO2 SLP166 T01890078
2026-04-27 21:53:00,METAR KSJC 272153Z 32011KT 10SM FEW050 SCT080 18/07 A3003 RMK AO2 SLP169 T01830067
2026-04-27 20:53:00,METAR KSJC 272053Z 33011G16KT 10SM SCT050 SCT080 18/07 A3004 RMK AO2 SLP171 T01830067 58005
2026-04-27 19:53:00,METAR KSJC 271953Z 34007KT 10SM SCT050 BKN065 17/07 A3005 RMK AO2 SLP174 T01670067
2026-04-27 18:53:00,METAR KSJC 271853Z 33008KT 10SM FEW032 SCT045 BKN065 16/08 A3006 RMK AO2 SLP177 T01610078
2026-04-27 17:53:00,METAR KSJC 271753Z 34004KT 10SM FEW028 SCT035 BKN040 14/07 A3005 RMK AO2 SLP176 T01440072 10150 20106 53006
2026-04-27 16:53:00,METAR KSJC 271653Z 34008KT 10SM FEW017 SCT023TCU BKN035 14/07 A3004 RMK AO2 SLP173 TCU N AND DSNT W T01390072
2026-04-27 15:53:00,METAR KSJC 271553Z VRB03KT 10SM FEW015 SCT026 BKN065 13/07 A3004 RMK AO2 SLP172 TCU DSNT N AND NW T01280072
2026-04-27 14:53:00,METAR KSJC 271453Z 11004KT 10SM FEW015 SCT033 BKN070 11/07 A3003 RMK AO2 SLP170 T01110067 53012
2026-04-27 13:53:00,METAR KSJC 271353Z 15005KT 10SM FEW015 SCT033 BKN070 11/07 A3001 RMK AO2 SLP163 T01110067
2026-04-27 12:53:00,METAR KSJC 271253Z 15006KT 10SM OVC070 11/07 A3000 RMK AO2 SLP158 T01060067 $
2026-04-27 11:53:00,METAR KSJC 271153Z AUTO 14005KT 10SM OVC065 11/07 A3000 RMK AO2 SLP158 T01060067 10128 20106 53000 $
2026-04-27 10:53:00,METAR KSJC 271053Z AUTO 15004KT 10SM OVC065 11/06 A3000 RMK AO2 SLP158 T01060056 $
2026-04-27 09:53:00,METAR KSJC 270953Z AUTO 15004KT 10SM FEW039 OVC065 11/06 A2999 RMK AO2 SLP156 T01060061 $
2026-04-27 08:53:00,METAR KSJC 270853Z AUTO 21005KT 10SM FEW035 OVC065 11/06 A3000 RMK AO2 SLP158 T01060056 50004 $
2026-04-27 07:53:00,METAR KSJC 270753Z AUTO 20004KT 10SM SCT034 OVC060 11/06 A3000 RMK AO2 SLP159 T01110056 401720106 $
2026-04-27 06:53:00,METAR KSJC 270653Z 34007KT 10SM FEW010 BKN060 12/07 A2999 RMK AO2 SLP156 T01220067
2026-04-27 05:53:00,METAR KSJC 270553Z 28004KT 10SM FEW016 BKN060 13/06 A2999 RMK AO2 SLP154 T01280056 10172 20122 51010
2026-04-27 04:53:00,METAR KSJC 270453Z 29005KT 10SM FEW016 BKN060 13/06 A2999 RMK AO2 SLP154 T01280056
2026-04-27 03:53:00,METAR KSJC 270353Z 32007KT 10SM FEW012 BKN060 13/06 A2998 RMK AO2 SLP150 T01280056
2026-04-27 02:53:00,METAR KSJC 270253Z 30011KT 10SM FEW030 BKN060 BKN100 14/04 A2996 RMK AO2 SLP144 T01390044 53011
2026-04-27 01:53:00,METAR KSJC 270153Z 31012KT 10SM FEW050 BKN060 BKN100 15/04 A2994 RMK AO2 SLP139 T01500044
2026-04-27 00:53:00,METAR KSJC 270053Z 27010KT 10SM FEW050 BKN060 BKN100 17/04 A2994 RMK AO2 SLP136 T01670044
2026-04-26 23:53:00,METAR KSJC 262353Z 30014KT 10SM BKN060 BKN100 17/04 A2993 RMK AO2 SLP133 T01720044 10172 20133 55002
2026-04-26 22:53:00,METAR KSJC 262253Z 28011KT 10SM FEW040 SCT050 BKN070 17/04 A2992 RMK AO2 SLP132 T01670044
2026-04-26 21:53:00,METAR KSJC 262153Z 35008KT 10SM FEW042 SCT055 BKN070 16/06 A2993 RMK AO2 SLP134 T01610061
2026-04-26 20:53:00,METAR KSJC 262053Z 30008KT 10SM BKN038 BKN060 17/05 A2993 RMK AO2 SLP135 T01670050 50003
2026-04-26 19:53:00,METAR KSJC 261953Z 35004KT 10SM BKN038 OVC045 14/07 A2994 RMK AO2 SLP136 T01440072
2026-04-26 18:53:00,METAR KSJC 261853Z 00000KT 10SM SCT025 BKN034 OVC042 14/08 A2994 RMK AO2 SLP137 T01390083
2026-04-26 17:53:00,METAR KSJC 261753Z 26004KT 10SM SCT027 BKN030 OVC040 13/08 A2992 RMK AO2 SLP132 T01330083 10139 20111 51014
2026-04-26 16:53:00,METAR KSJC 261653Z 00000KT 10SM SCT027 BKN030 OVC040 13/09 A2991 RMK AO2 SLP127 T01330094
2026-04-26 15:53:00,METAR KSJC 261553Z 15005KT 10SM SCT028 BKN030 OVC040 12/09 A2990 RMK AO2 SLP124 T01220089
2026-04-26 14:53:00,METAR KSJC 261453Z 14007KT 10SM SCT025 BKN030 OVC038 12/09 A2988 RMK AO2 SLP119 T01170094 53011
2026-04-26 13:53:00,METAR KSJC 261353Z 13007KT 10SM FEW025 BKN030 OVC038 12/09 A2987 RMK AO2 SLP113 T01170089
2026-04-26 12:53:00,METAR KSJC 261253Z 10006KT 10SM FEW027 BKN030 OVC038 11/09 A2985 RMK AO2 SLP108 T01110094
2026-04-26 11:53:00,METAR KSJC 261153Z AUTO 09005KT 10SM FEW026 OVC038 12/09 A2985 RMK AO2 RAB29E39 SLP108 P0000 60000 T01170094 10133 20111 51002
2026-04-26 11:50:00,SPECI KSJC 261150Z AUTO 08003KT 9SM SCT026 OVC036 12/09 A2985 RMK AO2 RAB29E39 P0000
2026-04-26 10:53:00,METAR KSJC 261053Z AUTO 00000KT 10SM BKN027 OVC038 13/07 A2985 RMK AO2 SLP106 T01280072
2026-04-26 10:49:00,SPECI KSJC 261049Z AUTO 14003KT 10SM BKN027 OVC038 13/08 A2985 RMK AO2
2026-04-26 09:53:00,METAR KSJC 260953Z AUTO 19006KT 10SM BKN034 OVC044 13/07 A2984 RMK AO2 SLP105 T01280072
2026-04-26 08:53:00,METAR KSJC 260853Z AUTO 16005KT 10SM BKN041 OVC049 13/07 A2985 RMK AO2 SLP107 T01280072 58002
2026-04-26 07:53:00,METAR KSJC 260753Z AUTO 18004KT 10SM OVC041 13/07 A2986 RMK AO2 SLP109 T01330072 401500128
2026-04-26 06:53:00,METAR KSJC 260653Z VRB03KT 10SM OVC050 13/07 A2985 RMK AO2 SLP108 T01330067
2026-04-26 05:53:00,METAR KSJC 260553Z 00000KT 10SM OVC055 13/07 A2986 RMK AO2 SLP109 T01330067 10144 20128 50006
2026-04-26 04:53:00,METAR KSJC 260453Z 22005KT 10SM OVC050 13/06 A2986 RMK AO2 SLP109 T01330061
2026-04-26 03:53:00,METAR KSJC 260353Z 26005KT 10SM OVC060 13/06 A2985 RMK AO2 SLP106 T01330061
2026-04-26 02:53:00,METAR KSJC 260253Z VRB03KT 10SM OVC060 13/07 A2984 RMK AO2 SLP103 T01330067 55000
2026-04-26 01:53:00,METAR KSJC 260153Z 24010KT 10SM FEW033 OVC050 13/07 A2984 RMK AO2 SLP103 T01330067
2026-04-26 00:53:00,METAR KSJC 260053Z VRB03KT 10SM BKN039 OVC050 14/07 A2984 RMK AO2 SLP103 T01440072
2026-04-25 23:53:00,METAR KSJC 252353Z 00000KT 10SM BKN032 OVC041 14/08 A2984 RMK AO2 SLP103 60000 T01440083 10150 20128 56013
2026-04-25 22:53:00,METAR KSJC 252253Z 22006KT 10SM BKN038 OVC049 14/08 A2985 RMK AO2 RAB14E23 SLP106 P0000 T01440078
2026-04-25 21:53:00,METAR KSJC 252153Z 16003KT 10SM OVC042 14/08 A2986 RMK AO2 SLP112 T01440083
2026-04-25 20:53:00,METAR KSJC 252053Z 31007KT 10SM FEW023 BKN047 OVC055 14/09 A2988 RMK AO2 SLP116 T01390094 58004
2026-04-25 19:53:00,METAR KSJC 251953Z 24004KT 10SM SCT022 BKN030 OVC035 14/09 A2988 RMK AO2 SLP118 T01390089
2026-04-25 18:53:00,METAR KSJC 251853Z 22006KT 10SM FEW025 BKN032 OVC038 13/09 A2989 RMK AO2 SLP122 T01280089
2026-04-25 17:53:00,METAR KSJC 251753Z 31003KT 10SM BKN035 OVC040 14/07 A2989 RMK AO2 SLP120 T01440067 10144 20128 52003
2026-04-25 16:53:00,METAR KSJC 251653Z 00000KT 10SM OVC035 14/06 A2988 RMK AO2 SLP118 T01390061
2026-04-25 15:53:00,METAR KSJC 251553Z 23003KT 10SM OVC038 13/06 A2988 RMK AO2 SLP118 T01330061
2026-04-25 14:53:00,METAR KSJC 251453Z 21003KT 10SM OVC039 13/06 A2988 RMK AO2 SLP117 T01330056 53004 $
2026-04-25 13:53:00,METAR KSJC 251353Z 22003KT 10SM OVC038 13/06 A2987 RMK AO2 SLP114 T01280056 $
2026-04-25 12:53:00,METAR KSJC 251253Z 27006KT 10SM OVC035 13/06 A2986 RMK AO2 SLP112 T01280056 $
2026-04-25 11:53:00,METAR KSJC 251153Z AUTO 30006KT 10SM OVC034 13/06 A2986 RMK AO2 SLP112 T01280056 10133 20128 56008 $
2026-04-25 10:53:00,METAR KSJC 251053Z AUTO 28006KT 10SM OVC033 13/06 A2987 RMK AO2 SLP114 T01280061 $
2026-04-25 09:53:00,METAR KSJC 250953Z AUTO 29007KT 10SM OVC034 13/06 A2987 RMK AO2 SLP115 T01280056 $
2026-04-25 09:22:00,SPECI KSJC 250922Z AUTO 29007KT 10SM SCT029 OVC034 13/06 A2989 RMK AO2 T01280061 $
2026-04-25 09:05:00,SPECI KSJC 250905Z AUTO 28007KT 10SM BKN029 OVC034 13/06 A2989 RMK AO2 T01330061 $
2026-04-25 08:53:00,METAR KSJC 250853Z AUTO 28006KT 10SM OVC031 13/06 A2989 RMK AO2 SLP121 T01330061 58006 $
2026-04-25 08:20:00,SPECI KSJC 250820Z AUTO 30006KT 10SM OVC030 13/07 A2989 RMK AO2 T01330072 $
2026-04-25 07:53:00,METAR KSJC 250753Z AUTO 32004KT 10SM BKN026 OVC033 13/08 A2990 RMK AO2 SLP124 T01330083 402000106 $
2026-04-25 07:06:00,SPECI KSJC 250706Z AUTO 33005KT 10SM OVC026 13/08 A2990 RMK AO2 T01330083 $
2026-04-25 06:53:00,METAR KSJC 250653Z 31004KT 10SM BKN030 13/08 A2990 RMK AO2 SLP125 T01330083 $
2026-04-25 05:53:00,METAR KSJC 250553Z 33008KT 10SM FEW023 BKN032 13/08 A2991 RMK AO2 SLP127 T01330078 10183 20128 50010 $
2026-04-25 04:53:00,METAR KSJC 250453Z 33009KT 10SM FEW023 BKN035 13/08 A2992 RMK AO2 SLP130 T01330083 $
2026-04-25 03:53:00,METAR KSJC 250353Z 34011KT 10SM FEW025 FEW035 13/08 A2990 RMK AO2 SLP125 T01330083 $
2026-04-25 02:53:00,METAR KSJC 250253Z 34014KT 10SM FEW028 FEW080 14/08 A2988 RMK AO2 SLP117 T01440078 52000 $
2026-04-25 01:53:00,METAR KSJC 250153Z 34015KT 10SM FEW035 FEW080 FEW110 16/08 A2988 RMK AO2 SLP116 T01610083 $
2026-04-25 00:53:00,METAR KSJC 250053Z 34015KT 10SM FEW035 FEW060 FEW070 18/09 A2988 RMK AO2 PK WND 35026/0016 SLP117 T01780089 $
2026-04-24 23:53:00,METAR KSJC 242353Z 33017KT 10SM FEW020 FEW060 FEW110 18/09 A2988 RMK AO2 SLP116 T01830094 56009 $
2026-04-24 22:53:00,METAR KSJC 242253Z 32015KT 10SM FEW030 FEW060 FEW110 19/09 A2988 RMK AO2 SLP119 T01890094 $
2026-04-24 21:53:00,METAR KSJC 242153Z 33013G21KT 10SM FEW030 FEW055 SCT110 20/11 A2990 RMK AO2 SLP123 T02000106 $
2026-04-24 20:53:00,METAR KSJC 242053Z 32008KT 10SM FEW020 FEW055 SCT110 19/09 A2991 RMK AO2 SLP126 T01940094 58016 $
2026-04-24 19:53:00,METAR KSJC 241953Z 34006G15KT 10SM FEW020 FEW060 SCT110 18/09 A2992 RMK AO2 SLP132 T01830089 $
2026-04-24 18:53:00,METAR KSJC 241853Z 00000KT 10SM FEW017 SCT065 SCT110 17/08 A2994 RMK AO2 SLP139 T01670083 $
2026-04-24 17:53:00,METAR KSJC 241753Z 30004KT 10SM FEW017 SCT065 SCT110 16/08 A2995 RMK AO2 SLP142 T01560083 10156 20106 58004
2026-04-24 16:53:00,METAR KSJC 241653Z 30003KT 9SM FEW012 SCT065 BKN110 15/08 A2996 RMK AO2 SLP144 T01500078
2026-04-24 15:53:00,METAR KSJC 241553Z 00000KT 10SM FEW012 SCT050 BKN065 13/07 A2996 RMK AO2 SLP146 T01330072
2026-04-24 14:53:00,METAR KSJC 241453Z 32004KT 10SM FEW012 BKN050 OVC065 12/08 A2996 RMK AO2 SLP146 T01220083 50001 $
2026-04-24 13:53:00,METAR KSJC 241353Z 33004KT 10SM FEW012 BKN050 OVC065 12/07 A2997 RMK AO2 SLP148 T01170072 $
2026-04-24 12:53:00,METAR KSJC 241253Z 32005KT 10SM FEW017 OVC050 11/07 A2996 RMK AO2 SLP144 T01110072 $
2026-04-24 11:53:00,METAR KSJC 241153Z AUTO 33003KT 10SM CLR 12/09 A2996 RMK AO2 SLP145 T01170089 10133 20117 56011 $
2026-04-24 10:53:00,METAR KSJC 241053Z AUTO 34006KT 10SM CLR 12/09 A2996 RMK AO2 SLP145 T01170089 $
2026-04-24 09:53:00,METAR KSJC 240953Z AUTO 36003KT 10SM CLR 12/09 A2997 RMK AO2 SLP146 T01220089 $
2026-04-24 08:53:00,METAR KSJC 240853Z AUTO 36003KT 10SM CLR 12/09 A2999 RMK AO2 SLP156 T01220089 58009 $
2026-04-24 07:53:00,METAR KSJC 240753Z AUTO 35004KT 10SM 13/09 A3001 RMK AO2 SLP160 T01280089 402220083 $
2026-04-24 06:53:00,METAR KSJC 240653Z 35004KT 10SM FEW050 13/09 A3001 RMK AO2 SLP161 T01280094
2026-04-24 05:53:00,METAR KSJC 240553Z 35007KT 10SM FEW050 FEW070 13/09 A3002 RMK AO2 SLP165 T01330089 10211 20133 50008
2026-04-24 04:53:00,METAR KSJC 240453Z 35007KT 10SM FEW050 FEW080 14/09 A3002 RMK AO2 SLP166 T01390094
2026-04-24 03:53:00,METAR KSJC 240353Z 34011KT 10SM SCT090 14/09 A3001 RMK AO2 SLP162 T01440089
2026-04-24 02:53:00,METAR KSJC 240253Z 36010G19KT 10SM FEW045 SCT080 SCT100 16/08 A3000 RMK AO2 SLP157 T01610083 53001
2026-04-24 01:53:00,METAR KSJC 240153Z 35012KT 10SM FEW045 SCT080 18/09 A2999 RMK AO2 SLP154 T01780089
2026-04-24 00:53:00,METAR KSJC 240053Z 34015KT 10SM FEW045 SCT070 SCT090 20/09 A2999 RMK AO2 SLP155 T02000094
2026-04-23 23:53:00,METAR KSJC 232353Z 33014KT 10SM FEW040 FEW070 SCT090 21/08 A2999 RMK AO2 SLP156 T02110083 10222 20178 56018
2026-04-23 22:53:00,METAR KSJC 232253Z 35012KT 10SM FEW040 FEW070 BKN100 22/06 A3001 RMK AO2 SLP160 T02220056
2026-04-23 21:53:00,METAR KSJC 232153Z 32011KT 10SM FEW040 FEW060 BKN100 22/05 A3003 RMK AO2 SLP166 T02220050
2026-04-23 20:53:00,METAR KSJC 232053Z 31008KT 250V350 10SM FEW040 FEW060 BKN100 21/07 A3005 RMK AO2 SLP173 T02110067 58022
2026-04-23 19:53:00,METAR KSJC 231953Z VRB06KT 10SM FEW040 FEW060 BKN100 20/09 A3007 RMK AO2 SLP181 T02000094
2026-04-23 18:53:00,METAR KSJC 231853Z 00000KT 10SM FEW030 FEW065 BKN100 19/10 A3009 RMK AO2 SLP190 T01940100
2026-04-23 17:53:00,METAR KSJC 231753Z 34007KT 300V020 10SM FEW025 FEW065 FEW095 18/10 A3011 RMK AO2 SLP196 T01780100 10178 20083 58008
2026-04-23 16:53:00,METAR KSJC 231653Z 33005KT 10SM FEW020 FEW065 FEW100 16/10 A3012 RMK AO2 SLP199 T01610100
2026-04-23 15:53:00,METAR KSJC 231553Z 00000KT 10SM FEW010 FEW065 14/10 A3013 RMK AO2 SLP202 T01390100
2026-04-23 14:53:00,METAR KSJC 231453Z 00000KT 10SM FEW010 12/09 A3013 RMK AO2 SLP204 T01170094 54000
2026-04-23 13:53:00,METAR KSJC 231353Z 16003KT 10SM FEW010 FEW016 FEW040 09/08 A3013 RMK AO2 SLP203 T00940078
2026-04-23 12:53:00,METAR KSJC 231253Z 00000KT 10SM FEW050 09/08 A3014 RMK AO2 SLP204 T00940083 $
2026-04-23 11:53:00,METAR KSJC 231153Z AUTO 00000KT 10SM CLR 09/08 A3013 RMK AO2 SLP204 7//// T00940078 10128 20094 55006
2026-04-23 10:53:00,METAR KSJC 231053Z AUTO 00000KT 10SM CLR 10/08 A3013 RMK AO2 SLP204 T01000083
2026-04-23 09:53:00,METAR KSJC 230953Z AUTO 00000KT 10SM CLR 11/09 A3014 RMK AO2 SLP204 T01060089
2026-04-23 08:53:00,METAR KSJC 230853Z AUTO 16003KT 10SM CLR 10/08 A3015 RMK AO2 SLP210 T01000078 58007
2026-04-23 07:53:00,METAR KSJC 230753Z AUTO 30004KT 10SM CLR 12/09 A3016 RMK AO2 SLP213 T01170089 401890111
2026-04-23 06:53:00,METAR KSJC 230653Z 31007KT 10SM FEW012 12/09 A3017 RMK AO2 SLP214 T01220089
2026-04-23 05:53:00,METAR KSJC 230553Z 32006KT 10SM FEW012 13/10 A3017 RMK AO2 SLP217 T01280100 10189 20128 50012
2026-04-23 04:53:00,METAR KSJC 230453Z 31006KT 10SM FEW015 FEW035 FEW042 13/10 A3018 RMK AO2 SLP219 T01330100
2026-04-23 03:53:00,METAR KSJC 230353Z 32010KT 10SM FEW040 FEW050 FEW080 14/10 A3016 RMK AO2 SLP211 T01440100
2026-04-23 02:53:00,METAR KSJC 230253Z 33013KT 10SM FEW046 FEW080 FEW100 15/10 A3014 RMK AO2 SLP205 TCU DSNT S T01500100 53001
2026-04-23 01:53:00,METAR KSJC 230153Z 32013KT 10SM FEW050 FEW080 FEW100 17/09 A3014 RMK AO2 SLP205 TCU DSNT N-S T01670094
2026-04-23 00:53:00,METAR KSJC 230053Z 32015KT 10SM FEW035 FEW045 SCT050 18/11 A3014 RMK AO2 SLP205 TCU DSNT N-S T01780106
2026-04-22 23:53:00,METAR KSJC 222353Z 34007KT 10SM FEW035 SCT040 SCT050 18/09 A3014 RMK AO2 SLP205 6//// T01830089 58013
2026-04-22 22:53:00,METAR KSJC 222253Z 30005KT 10SM SCT030 SCT050 BKN060 18/09 A3015 RMK AO2 SLP210 T01780094
2026-04-22 21:53:00,METAR KSJC 222153Z 36003KT 10SM FEW024 SCT030 BKN050 17/09 A3017 RMK AO2 SLP215 T01720094
2026-04-22 20:53:00,METAR KSJC 222053Z 22009KT 10SM FEW010 SCT024 BKN035 17/10 A3017 RMK AO2 SLP217 6//// T01720100
2026-04-22 19:53:00,METAR KSJC 221953Z 14005KT 10SM FEW010 SCT030 BKN065 17/12 A3018 RMK AO2 SLP219 T01670117
2026-04-22 19:39:00,SPECI KSJC 221939Z AUTO 14005KT 10SM FEW010 BKN025 BKN050 RMK AO2 PWINO TSNO PNO $
2026-04-22 18:53:00,METAR KSJC 221853Z 13007KT 10SM FEW010 BKN025 OVC047 15/11 A3020 RMK AO2 RAB00E28 SLP226 P0000 T01500111 $
2026-04-22 17:53:00,METAR KSJC 221753Z 11005KT 9SM FEW010 BKN029 OVC045 13/11 A3021 RMK AO2 RAE36 SLP227 P0000 60008 T01330111 10133 20094 51020
2026-04-22 16:53:00,METAR KSJC 221653Z 08003KT 7SM -RA FEW010 BKN025 BKN045 12/10 A3019 RMK AO2 SLP223 P0006 T01220100
2026-04-22 16:49:00,SPECI KSJC 221649Z 06003KT 4SM R30L/5000VP6000FT -RA BR FEW010 BKN025 OVC045 12/10 A3019 RMK AO2 P0006
2026-04-22 16:35:00,SPECI KSJC 221635Z 00000KT 2 1/2SM R30L/5000VP6000FT RA BR FEW010 BKN028 OVC045 12/10 A3019 RMK AO2 P0003 T01220100
2026-04-22 15:53:00,METAR KSJC 221553Z 13007KT 6SM -RA FEW010 SCT025 BKN045 12/09 A3017 RMK AO2 RAB13 SLP214 P0002 T01220094
2026-04-22 14:53:00,METAR KSJC 221453Z 15009KT 10SM FEW010 SCT025 BKN060 12/09 A3014 RMK AO2 SLP207 T01170089 53006
2026-04-22 13:53:00,METAR KSJC 221353Z 13008KT 10SM FEW025 SCT040 BKN060 11/08 A3014 RMK AO2 SLP204 TCU DSNT SE T01060083
2026-04-22 12:53:00,METAR KSJC 221253Z 15010KT 10SM OVC060 11/08 A3013 RMK AO2 SLP201 T01060083
2026-04-22 11:53:00,METAR KSJC 221153Z AUTO 15007KT 10SM SCT110 10/08 A3013 RMK AO2 SLP201 70018 T01000083 10111 20083 53005
2026-04-22 10:53:00,METAR KSJC 221053Z AUTO 14004KT 10SM CLR 08/07 A3012 RMK AO2 SLP199 T00830072
2026-04-22 09:53:00,METAR KSJC 220953Z AUTO 15005KT 10SM CLR 08/08 A3011 RMK AO2 SLP195 T00830078
2026-04-22 08:53:00,METAR KSJC 220853Z AUTO 16004KT 10SM FEW049 09/08 A3011 RMK AO2 SLP196 T00940083 50009
2026-04-22 07:53:00,METAR KSJC 220753Z AUTO 15004KT 10SM FEW055 09/08 A3011 RMK AO2 SLP197 T00940083 401670094
2026-04-22 06:53:00,METAR KSJC 220653Z 13003KT 10SM SCT060 10/09 A3010 RMK AO2 SLP193 T01000089
2026-04-22 05:53:00,METAR KSJC 220553Z 15004KT 10SM SCT060 11/09 A3009 RMK AO2 SLP187 T01060089 10150 20106 51023
2026-04-22 04:53:00,METAR KSJC 220453Z VRB04KT 10SM FEW045 12/09 A3008 RMK AO2 SLP184 T01170089
2026-04-22 03:53:00,METAR KSJC 220353Z 19005KT 10SM FEW028 SCT040 12/08 A3004 RMK AO2 SLP173 T01220083
2026-04-22 02:53:00,METAR KSJC 220253Z 23006KT 10SM BKN035 BKN060 14/08 A3002 RMK AO2 SLP164 T01390083 53017
2026-04-22 01:53:00,METAR KSJC 220153Z 22006KT 10SM BKN035 BKN060 14/08 A3000 RMK AO2 SLP157 T01390083
2026-04-22 00:53:00,METAR KSJC 220053Z 24008KT 10SM FEW028 BKN035 BKN055 15/08 A2999 RMK AO2 SLP153 T01500083
2026-04-21 23:53:00,METAR KSJC 212353Z 00000KT 10SM FEW028 BKN032 BKN055 14/10 A2997 RMK AO2 RAE38 SLP147 P0003 60016 T01390100 10167 20128 50009
2026-04-21 22:53:00,METAR KSJC 212253Z 14004KT 6SM RA SCT022 BKN032 OVC050 13/11 A2998 RMK AO2 RAE12B44 SLP150 P0003 T01330106
2026-04-21 21:53:00,METAR KSJC 212153Z 20006KT 6SM -RA SCT023 BKN030 OVC050 13/10 A2997 RMK AO2 RAB15 SLP148 P0006 T01330100
2026-04-21 20:53:00,METAR KSJC 212053Z 27005KT 10SM SCT025 BKN032 OVC055 15/09 A2994 RMK AO2 SLP138 60004 T01500094 55000
2026-04-21 19:53:00,METAR KSJC 211953Z 19005KT 10SM FEW016 SCT027 BKN065 17/10 A2993 RMK AO2 RAE1855 SLP135 P0000 T01670100
2026-04-21 18:53:00,METAR KSJC 211853Z 00000KT 10SM -RA FEW014 SCT024CB BKN033TCU 15/10 A2995 RMK AO2 RAE1754B20 SLP139 CB E STNR TCU ALQDS P0004 T01500100
2026-04-21 17:53:00,METAR KSJC 211753Z 22005KT 8SM -RA FEW010 SCT025TCU BKN033 14/11 A2994 RMK AO2 RAB28 SLP138 TCU E AND DSNT NW P0002 60002 T01440111 10161 20122 53012
2026-04-21 16:53:00,METAR KSJC 211653Z 15006KT 10SM FEW014 SCT025 BKN050 16/11 A2992 RMK AO2 SLP131 T01560106
2026-04-21 15:53:00,METAR KSJC 211553Z 13009KT 10SM FEW003 BKN034TCU BKN060 14/12 A2992 RMK AO2 RAB1457E06 SLP130 TCU NW P0000 T01390117
2026-04-21 14:53:00,METAR KSJC 211453Z 13008KT 10SM FEW007 BKN034 OVC090 13/11 A2990 RMK AO2 RAB36E46 SLP126 BINOVC W P0000 60000 T01330111 53008
2026-04-21 13:53:00,METAR KSJC 211353Z 13007KT 10SM FEW007 BKN034 BKN060 13/11 A2989 RMK AO2 SLP121 T01280111
2026-04-21 13:39:00,SPECI KSJC 211339Z 13009G18KT 10SM FEW007 BKN034 BKN060 12/11 A2989 RMK AO2 T01220111
2026-04-21 12:53:00,METAR KSJC 211253Z 14005KT 10SM SCT031 BKN055 OVC080 12/11 A2988 RMK AO2 SLP118 T01220111
2026-04-21 11:53:00,METAR KSJC 211153Z AUTO 15007KT 10SM FEW034 BKN045 OVC050 13/12 A2988 RMK AO2 SLP117 60033 70078 T01280117 10128 20122 57004
2026-04-21 10:53:00,METAR KSJC 211053Z AUTO 17007KT 10SM FEW029 OVC060 13/12 A2988 RMK AO2 RAE18 SLP119 P0001 T01280117
2026-04-21 10:33:00,SPECI KSJC 211033Z AUTO 15007KT 10SM FEW020 SCT027 OVC060 13/12 A2989 RMK AO2 RAE18 P0001 T01280117
2026-04-21 10:14:00,SPECI KSJC 211014Z AUTO 15005KT 10SM -RA FEW009 BKN022 OVC070 13/12 A2988 RMK AO2 P0001 T01280122
2026-04-21 09:53:00,METAR KSJC 210953Z AUTO 00000KT 3SM RA BR FEW010 SCT026 OVC033 13/12 A2989 RMK AO2 SLP120 P0013 T01280117
2026-04-21 09:46:00,SPECI KSJC 210946Z AUTO 00000KT 2 1/2SM R30L/5500VP6000FT +RA BR FEW007 SCT013 OVC025 13/12 A2989 RMK AO2 P0010 T01280117
2026-04-21 09:26:00,SPECI KSJC 210926Z AUTO 33005KT 6SM -RA BR SCT008 BKN026 OVC070 13/12 A2989 RMK AO2 P0003 T01280117
2026-04-21 09:07:00,SPECI KSJC 210907Z AUTO 36003KT 6SM -RA BR FEW007 BKN030 OVC048 13/12 A2989 RMK AO2 P0001 T01280117
2026-04-21 08:53:00,METAR KSJC 210853Z AUTO 36003KT 5SM -RA BR FEW010 BKN018 OVC036 13/12 A2989 RMK AO2 SLP121 P0008 60019 T01280117 58001
2026-04-21 08:29:00,SPECI KSJC 210829Z AUTO 35003KT 4SM RA BR BKN009 BKN016 OVC030 13/12 A2990 RMK AO2 P0003 T01280117
2026-04-21 08:09:00,SPECI KSJC 210809Z AUTO 00000KT 10SM -RA SCT008 BKN023 OVC070 13/12 A2990 RMK AO2 P0001 T01280117
2026-04-21 07:53:00,METAR KSJC 210753Z AUTO 03004KT 8SM -RA SCT009 BKN046 OVC070 13/12 A2990 RMK AO2 SLP124 P0006 T01280117 402280106
2026-04-21 07:06:00,SPECI KSJC 210706Z AUTO 04004KT 7SM -RA OVC006 13/12 A2990 RMK AO2 CIG 004V008 P0002 T01280122
2026-04-21 06:53:00,METAR KSJC 210653Z 03004KT 4SM -RA BR SCT020 BKN028 OVC050 13/12 A2990 RMK AO2 SLP124 P0005 T01280122
2026-04-21 05:53:00,METAR KSJC 210553Z 02004KT 5SM -RA BR SCT020 BKN028 OVC040 13/12 A2989 RMK AO2 SLP122 P0014 60037 T01330122 10156 20128 50015
2026-04-21 05:32:00,SPECI KSJC 210532Z 36003KT 5SM RA BR SCT017 BKN025 OVC032 13/12 A2990 RMK AO2 P0010 T01330122
2026-04-21 05:21:00,SPECI KSJC 210521Z 32003KT 4SM RA BR FEW015 SCT026 OVC031 13/12 A2990 RMK AO2 P0008 T01280122
2026-04-21 05:13:00,SPECI KSJC 210513Z 32003KT 2 1/2SM -RA BR SCT015 BKN023 OVC031 13/12 A2991 RMK AO2 P0006 T01280122
2026-04-21 04:53:00,METAR KSJC 210453Z 32007KT 2 1/2SM RA BR FEW008 BKN041 OVC050 13/13 A2991 RMK AO2 SLP126 P0014 T01330128
2026-04-21 04:46:00,SPECI KSJC 210446Z 31006KT 2 1/2SM RA BR FEW008 SCT027 OVC046 14/13 A2990 RMK AO2 P0011 T01390128
2026-04-21 04:42:00,SPECI KSJC 210442Z 31007KT 2 1/2SM RA BR SCT026 OVC048 14/13 A2990 RMK AO2 P0010 T01390128
2026-04-21 03:53:00,METAR KSJC 210353Z 22005KT 5SM -RA BR FEW032 BKN060 OVC080 14/12 A2989 RMK AO2 RAB15 SLP120 P0006 T01440122
2026-04-21 02:53:00,METAR KSJC 210253Z 19005KT 10SM FEW032 BKN060 OVC080 15/12 A2985 RMK AO2 RAE42 SLP108 P0000 60003 T01500122 56012
2026-04-21 01:53:00,METAR KSJC 210153Z 14007KT 10SM -RA FEW040 BKN065 OVC085 15/12 A2987 RMK AO2 PK WND 20029/0054 RAB37 SLP114 P0000 T01500122
2026-04-21 00:53:00,METAR KSJC 210053Z 20014G23KT 10SM FEW040 BKN065 OVC080 16/12 A2987 RMK AO2 RAE18 SLP113 P0003 T01560117
2026-04-20 23:53:00,METAR KSJC 202353Z 17013G24KT 5SM RA FEW030 BKN060 OVC080 16/12 A2989 RMK AO2 RAE2257B36 SLP119 P0004 60008 T01560117 10228 20156 58002
2026-04-20 22:53:00,METAR KSJC 202253Z 20011G21KT 10SM -RA FEW030 BKN060 OVC080 16/12 A2989 RMK AO2 SLP119 P0004 T01610117
2026-04-20 21:53:00,METAR KSJC 202153Z 20014G26KT 10SM -RA FEW030 BKN060 OVC080 17/11 A2989 RMK AO2 PK WND 24027/2122 RAB07 SLP122 P0000 T01670111
2026-04-20 20:53:00,METAR KSJC 202053Z 21017G24KT 10SM FEW030 BKN060 OVC070 19/10 A2989 RMK AO2 SLP121 T01890100 58001
2026-04-20 19:53:00,METAR KSJC 201953Z 23014G22KT 10SM FEW028 BKN060 BKN070 19/06 A2990 RMK AO2 PK WND 21027/1941 SLP125 T01940056
2026-04-20 18:53:00,METAR KSJC 201853Z 15007G14KT 120V200 10SM FEW040 SCT055 SCT085 22/M01 A2990 RMK AO2 SLP123 T02171011
2026-04-20 17:53:00,METAR KSJC 201753Z 13011G18KT 10SM FEW030 SCT070 SCT090 21/M01 A2989 RMK AO2 SLP122 T02061006 10206 20117 58012
2026-04-20 16:53:00,METAR KSJC 201653Z 14011KT 10SM FEW030 SCT070 SCT090 18/04 A2990 RMK AO2 SLP125 T01780044
2026-04-20 15:53:00,METAR KSJC 201553Z 10008KT 10SM FEW025 SCT070 SCT095 14/04 A2992 RMK AO2 SLP132 T01440044
2026-04-20 14:53:00,METAR KSJC 201453Z 20007KT 10SM FEW025 SCT070 BKN110 13/06 A2993 RMK AO2 SLP134 T01330056 53018
2026-04-20 13:53:00,METAR KSJC 201353Z 17004KT 10SM FEW025 SCT070 BKN100 13/04 A2990 RMK AO2 SLP123 T01280044 $
2026-04-20 12:53:00,METAR KSJC 201253Z 19007KT 10SM FEW070 FEW100 13/04 A2988 RMK AO2 SLP117 T01280044 $
2026-04-20 11:53:00,METAR KSJC 201153Z AUTO 20003KT 10SM CLR 12/04 A2988 RMK AO2 SLP116 T01170044 10161 20106 55006 $
2026-04-20 10:53:00,METAR KSJC 201053Z AUTO 15003KT 10SM CLR 11/02 A2988 RMK AO2 SLP116 T01110022 $
2026-04-20 09:53:00,METAR KSJC 200953Z AUTO 19005KT 10SM CLR 13/03 A2988 RMK AO2 SLP117 T01280033 $
2026-04-20 08:53:00,METAR KSJC 200853Z AUTO 14006KT 10SM CLR 11/01 A2989 RMK AO2 SLP122 T01060006 58000 $
2026-04-20 07:53:00,METAR KSJC 200753Z AUTO 18004KT 10SM CLR 13/M03 A2991 RMK AO2 SLP127 T01331033 402500111 $
2026-04-20 06:53:00,METAR KSJC 200653Z 17006KT 10SM FEW100 14/M08 A2990 RMK AO2 SLP125 T01441078 $
2026-04-20 05:53:00,METAR KSJC 200553Z 17006KT 10SM FEW100 16/M09 A2990 RMK AO2 SLP123 T01611094 10228 20156 51021 $
2026-04-20 04:53:00,METAR KSJC 200453Z 18006KT 10SM FEW030 FEW100 17/M13 A2988 RMK AO2 SLP117 T01671128 $
2026-04-20 03:53:00,METAR KSJC 200353Z 19008KT 10SM FEW100 18/M13 A2986 RMK AO2 SLP111 T01781133 $
2026-04-20 02:53:00,METAR KSJC 200253Z 21010G17KT 10SM FEW080 FEW100 FEW160 18/M07 A2983 RMK AO2 SLP102 T01831072 51011 $
2026-04-20 01:53:00,METAR KSJC 200153Z 21010KT 10SM FEW080 FEW110 FEW160 21/M04 A2982 RMK AO2 SLP099 T02061039 $
2026-04-20 00:53:00,METAR KSJC 200053Z COR VRB03KT 10SM FEW055 FEW080 FEW160 22/06 A2982 RMK AO2 SLP096 T02220061 $
2026-04-19 23:53:00,METAR KSJC 192353Z 32008KT 280V360 10SM FEW085 FEW120 FEW160 23/08 A2980 RMK AO2 SLP091 T02280083 10250 20200 56013 $
2026-04-19 22:53:00,METAR KSJC 192253Z VRB06KT 10SM FEW055 FEW095 FEW120 23/09 A2981 RMK AO2 SLP094 T02330089 $
2026-04-19 21:53:00,METAR KSJC 192153Z 32010KT 10SM FEW095 FEW120 24/07 A2982 RMK AO2 SLP099 T02390072 $
2026-04-19 20:53:00,METAR KSJC 192053Z 35008KT 10SM FEW055 FEW095 SCT120 24/06 A2984 RMK AO2 SLP104 T02390056 58019 $
2026-04-19 19:53:00,METAR KSJC 191953Z 32007KT 10SM BKN120 22/08 A2986 RMK AO2 SLP112 T02220078 $
2026-04-19 18:53:00,METAR KSJC 191853Z 16004KT 10SM SCT120 23/M02 A2989 RMK AO2 SLP119 T02331017 $
2026-04-19 17:53:00,METAR KSJC 191753Z 10005KT 10SM BKN100 20/05 A2990 RMK AO2 SLP123 T02000050 10200 20111 51000 $
2026-04-19 16:53:00,METAR KSJC 191653Z 17005KT 10SM BKN100 16/06 A2989 RMK AO2 SLP122 T01610056 $
2026-04-19 15:53:00,METAR KSJC 191553Z 15006KT 10SM BKN100 16/06 A2990 RMK AO2 SLP123 T01560061 $
2026-04-19 14:53:00,METAR KSJC 191453Z 00000KT 10SM SCT100 BKN120 13/06 A2989 RMK AO2 SLP122 T01330061 53004 $
2026-04-19 13:53:00,METAR KSJC 191353Z 17003KT 10SM BKN100 12/06 A2988 RMK AO2 SLP119 T01170056 $
2026-04-19 12:53:00,METAR KSJC 191253Z 18003KT 10SM BKN100 12/06 A2988 RMK AO2 SLP117 T01220056 $
2026-04-19 11:53:00,METAR KSJC 191153Z AUTO 00000KT 10SM CLR 13/06 A2988 RMK AO2 SLP118 T01280056 10156 20122 56006 $
2026-04-19 10:53:00,METAR KSJC 191053Z AUTO 16003KT 10SM CLR 13/07 A2988 RMK AO2 SLP118 T01280067 $
2026-04-19 09:53:00,METAR KSJC 190953Z AUTO 00000KT 10SM CLR 13/09 A2989 RMK AO2 SLP120 T01330089
2026-04-19 08:53:00,METAR KSJC 190853Z AUTO 27003KT 10SM CLR 14/11 A2990 RMK AO2 SLP124 T01440106 58006
2026-04-19 07:53:00,METAR KSJC 190753Z AUTO 00000KT 10SM CLR 16/11 A2991 RMK AO2 SLP128 T01560106 402500078
2026-04-19 06:53:00,METAR KSJC 190653Z 32003KT 10SM CLR 14/08 A2991 RMK AO2 SLP129 T01440078
2026-04-19 05:53:00,METAR KSJC 190553Z 32003KT 10SM CLR 16/08 A2992 RMK AO2 SLP130 T01560083 10233 20156 51007
2026-04-19 04:53:00,METAR KSJC 190453Z 31007KT 10SM CLR 17/08 A2992 RMK AO2 SLP130 T01720083
2026-04-19 03:53:00,METAR KSJC 190353Z 29003KT 10SM CLR 18/07 A2990 RMK AO2 SLP125 T01780072
2026-04-19 02:53:00,METAR KSJC 190253Z 32005KT 10SM SCT070 BKN090 18/08 A2990 RMK AO2 SLP123 T01830083 58001
2026-04-19 01:53:00,METAR KSJC 190153Z 33009KT 10SM SCT090 22/06 A2990 RMK AO2 SLP124 T02170061
2026-04-19 00:53:00,METAR KSJC 190053Z 33012KT 10SM SCT100 23/06 A2990 RMK AO2 SLP124 T02280056
2026-04-18 23:53:00,METAR KSJC 182353Z 34011KT 10SM BKN100 23/04 A2990 RMK AO2 SLP124 T02330039 10250 20194 58016
2026-04-18 22:53:00,METAR KSJC 182253Z 31012KT 10SM BKN100 24/06 A2992 RMK AO2 SLP129 T02390056
2026-04-18 21:53:00,METAR KSJC 182153Z 32010KT 10SM BKN100 24/04 A2993 RMK AO2 SLP136 T02440044
2026-04-18 20:53:00,METAR KSJC 182053Z 31011KT 10SM BKN100 24/05 A2995 RMK AO2 SLP140 T02390050 58015
2026-04-18 19:53:00,METAR KSJC 181953Z 34006KT 10SM BKN100 23/06 A2996 RMK AO2 SLP145 T02330056
2026-04-18 18:53:00,METAR KSJC 181853Z VRB03KT 10SM BKN100 22/01 A2998 RMK AO2 SLP151 T02220011
2026-04-18 17:53:00,METAR KSJC 181753Z 00000KT 10SM FEW080 BKN100 19/02 A2999 RMK AO2 SLP155 T01940017 10194 20078 58006
2026-04-18 16:53:00,METAR KSJC 181653Z 00000KT 10SM SCT100 17/03 A3000 RMK AO2 SLP159 T01670028
2026-04-18 15:53:00,METAR KSJC 181553Z 14003KT 10SM FEW055 SCT100 14/03 A3001 RMK AO2 SLP161 T01390028
2026-04-18 14:53:00,METAR KSJC 181453Z 15003KT 10SM SCT150 12/03 A3001 RMK AO2 SLP161 T01170033 53001
2026-04-18 13:53:00,METAR KSJC 181353Z 00000KT 10SM SCT110 08/03 A3001 RMK AO2 SLP161 T00830028
2026-04-18 12:53:00,METAR KSJC 181253Z 00000KT 10SM SCT050 09/03 A3001 RMK AO2 SLP160 T00940028
2026-04-18 11:53:00,METAR KSJC 181153Z AUTO 17003KT 10SM CLR 09/03 A3001 RMK AO2 SLP160 T00890028 10139 20083 56011
2026-04-18 10:53:00,METAR KSJC 181053Z AUTO 15003KT 10SM CLR 09/04 A3002 RMK AO2 SLP164 T00940039
2026-04-18 09:53:00,METAR KSJC 180953Z AUTO 00000KT 10SM CLR 11/04 A3002 RMK AO2 SLP165 T01110044
2026-04-18 08:53:00,METAR KSJC 180853Z AUTO 00000KT 10SM CLR 12/05 A3004 RMK AO2 SLP171 T01170050 58004
2026-04-18 07:53:00,METAR KSJC 180753Z AUTO 00000KT 10SM CLR 13/08 A3004 RMK AO2 SLP173 T01280083 402220111
2026-04-18 06:53:00,METAR KSJC 180653Z 34003KT 10SM FEW110 13/07 A3005 RMK AO2 SLP174 T01280072
2026-04-18 05:53:00,METAR KSJC 180553Z 34006KT 10SM FEW110 13/06 A3005 RMK AO2 SLP175 T01330061 10217 20133 51013
2026-04-18 04:53:00,METAR KSJC 180453Z 32006KT 10SM FEW110 14/07 A3005 RMK AO2 SLP174 T01440067
2026-04-18 03:53:00,METAR KSJC 180353Z 33008KT 10SM FEW018 FEW110 16/04 A3002 RMK AO2 SLP166 T01560044
2026-04-18 02:53:00,METAR KSJC 180253Z 33008KT 10SM FEW110 SCT160 17/03 A3001 RMK AO2 SLP162 T01720028 53001
2026-04-18 01:53:00,METAR KSJC 180153Z 33012KT 10SM FEW110 SCT160 19/03 A3001 RMK AO2 SLP161 T01890033
2026-04-18 00:53:00,METAR KSJC 180053Z 34010KT 10SM FEW110 FEW160 21/M01 A3001 RMK AO2 SLP160 T02061011
2026-04-17 23:53:00,METAR KSJC 172353Z 32010KT 10SM FEW110 FEW160 21/00 A3001 RMK AO2 SLP162 T02110000 10222 20183 58013
2026-04-17 22:53:00,METAR KSJC 172253Z 34006KT 10SM FEW110 FEW160 22/M01 A3002 RMK AO2 SLP166 T02221006
2026-04-17 21:53:00,METAR KSJC 172153Z 33010G15KT 290V350 10SM FEW080 FEW110 22/M02 A3004 RMK AO2 SLP171 T02171017
2026-04-17 20:53:00,METAR KSJC 172053Z 32009G14KT 10SM FEW080 FEW110 21/M03 A3005 RMK AO2 SLP174 T02111028 58006
2026-04-17 19:53:00,METAR KSJC 171953Z 29007G14KT 10SM FEW080 FEW110 20/M02 A3006 RMK AO2 SLP178 T02001022
2026-04-17 18:53:00,METAR KSJC 171853Z 34012G20KT 10SM FEW080 FEW110 19/M04 A3007 RMK AO2 SLP181 T01941044
2026-04-17 17:53:00,METAR KSJC 171753Z 34010G17KT 10SM FEW080 FEW110 18/M06 A3007 RMK AO2 SLP180 T01831056 10183 20111 51002
2026-04-17 16:53:00,METAR KSJC 171653Z 32007KT 10SM FEW080 FEW110 17/M07 A3007 RMK AO2 SLP180 T01721067
2026-04-17 15:53:00,METAR KSJC 171553Z 31010KT 10SM FEW080 FEW110 16/M06 A3006 RMK AO2 SLP180 T01611056
2026-04-17 14:53:00,METAR KSJC 171453Z 32005KT 10SM FEW080 FEW110 14/M05 A3006 RMK AO2 SLP178 T01391050 53010
2026-04-17 13:53:00,METAR KSJC 171353Z 33006KT 10SM FEW080 FEW110 12/M06 A3004 RMK AO2 SLP173 T01171061
2026-04-17 12:53:00,METAR KSJC 171253Z 32007KT 10SM CLR 12/M06 A3003 RMK AO2 SLP169 T01171061
2026-04-17 11:53:00,METAR KSJC 171153Z AUTO 32009KT 10SM CLR 13/M07 A3003 RMK AO2 SLP168 T01281067 10144 20111 52003
2026-04-17 10:53:00,METAR KSJC 171053Z AUTO 32011KT 10SM CLR 13/M06 A3002 RMK AO2 SLP165 T01331061
2026-04-17 09:53:00,METAR KSJC 170953Z AUTO 29008KT 10SM CLR 11/M01 A3003 RMK AO2 SLP167 T01111011
2026-04-17 08:53:00,METAR KSJC 170853Z AUTO 33007KT 10SM CLR 13/M01 A3002 RMK AO2 SLP165 T01281006 58004
2026-04-17 07:53:00,METAR KSJC 170753Z AUTO 31007KT 10SM CLR 13/01 A3003 RMK AO2 SLP167 T01330006 402110100
2026-04-17 06:53:00,METAR KSJC 170653Z 30007KT 10SM CLR 13/02 A3003 RMK AO2 SLP167 T01330022
2026-04-17 05:53:00,METAR KSJC 170553Z 31006KT 10SM CLR 14/04 A3003 RMK AO2 SLP168 T01440044 10211 20139 50009
2026-04-17 04:53:00,METAR KSJC 170453Z 30008KT 10SM CLR 16/06 A3003 RMK AO2 SLP169 T01560056
2026-04-17 03:53:00,METAR KSJC 170353Z 33010KT 10SM CLR 16/06 A3002 RMK AO2 SLP165 T01610061
2026-04-17 02:53:00,METAR KSJC 170253Z 34010KT 10SM FEW070 17/04 A3000 RMK AO2 SLP159 T01720044 53004
2026-04-17 01:53:00,METAR KSJC 170153Z 33013G23KT 10SM CLR 19/03 A3000 RMK AO2 PK WND 33026/0126 SLP157 T01890028
2026-04-17 00:53:00,METAR KSJC 170053Z 32018KT 10SM FEW100 21/00 A2998 RMK AO2 SLP153 T02060000
2026-04-16 23:53:00,METAR KSJC 162353Z 32015KT 10SM FEW095 FEW110 21/01 A2999 RMK AO2 SLP155 T02110011 10211 20167 56016
2026-04-16 22:53:00,METAR KSJC 162253Z 32014G20KT 10SM FEW095 FEW110 21/01 A3000 RMK AO2 SLP159 T02110011
2026-04-16 21:53:00,METAR KSJC 162153Z 31014G20KT 10SM FEW095 FEW130 21/01 A3003 RMK AO2 SLP166 T02060006
2026-04-16 20:53:00,METAR KSJC 162053Z 30013KT 10SM FEW095 FEW130 20/01 A3004 RMK AO2 SLP171 T02000006 58014 $
2026-04-16 19:53:00,METAR KSJC 161953Z 32012G19KT 10SM SCT095 SCT130 19/01 A3006 RMK AO2 SLP178 T01890006 $
2026-04-16 18:53:00,METAR KSJC 161853Z 02009G19KT 10SM SCT095 SCT130 19/M03 A3007 RMK AO2 SLP181 T01891028 $
2026-04-16 17:53:00,METAR KSJC 161753Z 34014G19KT 10SM SCT095 SCT130 17/M02 A3008 RMK AO2 SLP185 T01671022 10167 20100 51005 $
2026-04-16 16:53:00,METAR KSJC 161653Z 34011G19KT 10SM FEW020 SCT095 SCT130 16/M03 A3008 RMK AO2 SLP185 T01561028 $
2026-04-16 15:53:00,METAR KSJC 161553Z 32005KT 10SM FEW020 FEW095 14/01 A3007 RMK AO2 SLP183 T01390006 $
2026-04-16 14:53:00,METAR KSJC 161453Z VRB03KT 10SM FEW008 FEW024 FEW110 12/08 A3007 RMK AO2 SLP180 T01170078 53007 $
2026-04-16 13:53:00,METAR KSJC 161353Z 00000KT 10SM FEW008 FEW020 SCT130 11/07 A3005 RMK AO2 SLP177 T01060072 $
2026-04-16 13:44:00,SPECI KSJC 161344Z 00000KT 10SM FEW008 FEW020 SCT130 10/07 A3005 RMK AO2 T01000072 $
2026-04-16 13:01:00,SPECI KSJC 161301Z 00000KT 10SM FEW016 BKN020 12/08 A3005 RMK AO2 T01170083 $
2026-04-16 12:53:00,METAR KSJC 161253Z 00000KT 10SM SCT017 11/08 A3005 RMK AO2 SLP175 T01110083 $
2026-04-16 12:32:00,SPECI KSJC 161232Z 00000KT 10SM SCT016 11/08 A3005 RMK AO2 T01060078 $
2026-04-16 12:20:00,SPECI KSJC 161220Z AUTO 10SM BKN016 11/08 A3005 RMK AO2 T01110078 $
2026-04-16 11:53:00,METAR KSJC 161153Z AUTO 10SM OVC014 12/09 A3004 RMK AO2 SLP173 T01220094 10139 20117 56009 $
2026-04-16 11:32:00,SPECI KSJC 161132Z AUTO 10SM BKN012 OVC022 12/09 A3004 RMK AO2 T01220094 $
2026-04-16 11:23:00,SPECI KSJC 161123Z AUTO 10SM SCT012 OVC022 12/10 A3004 RMK AO2 T01220100 $
2026-04-16 11:15:00,SPECI KSJC 161115Z AUTO 10SM BKN012 OVC020 12/11 A3004 RMK AO2 T01220106 $
2026-04-16 11:05:00,SPECI KSJC 161105Z AUTO 6SM BR SCT010 OVC021 12/11 A3004 RMK AO2 T01220111 $
2026-04-16 10:53:00,METAR KSJC 161053Z AUTO 9SM SCT010 BKN014 OVC021 13/11 A3004 RMK AO2 SLP173 T01280106 $
2026-04-16 09:53:00,METAR KSJC 160953Z AUTO 10SM BKN020 OVC025 14/10 A3005 RMK AO2 SLP176 T01390100 $
2026-04-16 08:53:00,METAR KSJC 160853Z AUTO 10SM OVC017 14/10 A3007 RMK AO2 SLP182 T01390100 56008 $
2026-04-16 07:53:00,METAR KSJC 160753Z AUTO 10SM OVC019 14/10 A3008 RMK AO2 SLP184 T01390100 401940083 $
2026-04-16 06:53:00,METAR KSJC 160653Z 31008KT 10SM BKN020 BKN028 13/09 A3009 RMK AO2 SLP187 T01330094 $
2026-04-16 05:53:00,METAR KSJC 160553Z 30009KT 10SM SCT025 BKN032 13/09 A3010 RMK AO2 SLP190 T01330094 10178 20128 50006 $
2026-04-16 04:53:00,METAR KSJC 160453Z 32009KT 10SM SCT028 BKN035 13/08 A3010 RMK AO2 SLP191 T01330083 $
2026-04-16 03:53:00,METAR KSJC 160353Z 31008KT 10SM SCT035 BKN085 13/08 A3008 RMK AO2 SLP186 T01330083 $
2026-04-16 02:53:00,METAR KSJC 160253Z 32010KT 10SM SCT035 SCT070 BKN100 14/08 A3008 RMK AO2 SLP184 T01440083 53005 $
2026-04-16 01:53:00,METAR KSJC 160153Z 34013G20KT 10SM FEW035 SCT070 BKN100 16/08 A3007 RMK AO2 SLP182 T01560083 $
2026-04-16 00:53:00,METAR KSJC 160053Z 34013G22KT 10SM FEW035 SCT080 BKN100 17/08 A3006 RMK AO2 SLP179 T01720083 $
2026-04-15 23:53:00,METAR KSJC 152353Z 34013G21KT 10SM FEW035 SCT080 BKN100 18/09 A3006 RMK AO2 SLP180 T01780089 10194 20150 58009 $
2026-04-15 22:53:00,METAR KSJC 152253Z 33016G23KT 10SM FEW035 SCT080 BKN100 17/09 A3007 RMK AO2 SLP182 T01720089 $
2026-04-15 21:53:00,METAR KSJC 152153Z 34014G22KT 10SM FEW035 SCT065 BKN100 18/09 A3009 RMK AO2 SLP187 T01830094 $
2026-04-15 20:53:00,METAR KSJC 152053Z 31008KT 280V340 10SM SCT065 BKN100 19/09 A3009 RMK AO2 SLP188 T01890089 58014 $
2026-04-15 19:53:00,METAR KSJC 151953Z VRB04KT 10SM FEW040 SCT065 BKN100 18/09 A3011 RMK AO2 SLP195 T01780089 $
2026-04-15 18:53:00,METAR KSJC 151853Z 00000KT 10SM FEW035 SCT065 BKN100 16/08 A3012 RMK AO2 SLP198 T01610083 $
2026-04-15 17:53:00,METAR KSJC 151753Z 03008KT 10SM FEW035 SCT065 BKN100 16/08 A3013 RMK AO2 SLP202 T01560078 10161 20083 51005 $
2026-04-15 16:53:00,METAR KSJC 151653Z 00000KT 10SM FEW026 SCT075 BKN100 13/07 A3013 RMK AO2 SLP201 T01330072 $
2026-04-15 15:53:00,METAR KSJC 151553Z 00000KT 10SM FEW015 SCT026 BKN100 12/07 A3012 RMK AO2 SLP200 T01220072 $
2026-04-15 14:53:00,METAR KSJC 151453Z 15003KT 10SM FEW015 SCT065 BKN100 10/07 A3011 RMK AO2 SLP196 T01000067 53007 $
2026-04-15 13:53:00,METAR KSJC 151353Z 00000KT 10SM FEW015 SCT060 BKN100 08/06 A3010 RMK AO2 SLP191 T00830061 $
2026-04-15 12:53:00,METAR KSJC 151253Z 17003KT 10SM FEW015 FEW024 SCT060 09/06 A3009 RMK AO2 SLP189 T00890061 $
2026-04-15 12:47:00,SPECI KSJC 151247Z 17004KT 10SM FEW015 SCT024 09/06 A3009 RMK AO2 $
2026-04-15 11:53:00,METAR KSJC 151153Z AUTO 17003KT 10SM OVC024 09/07 A3010 RMK AO2 SLP191 T00940067 10111 20083 57010 $
2026-04-15 10:53:00,METAR KSJC 151053Z AUTO 15003KT 10SM OVC025 09/07 A3010 RMK AO2 SLP193 T00890067 $
2026-04-15 10:23:00,SPECI KSJC 151023Z AUTO 00000KT 10SM BKN026 08/06 A3011 RMK AO2 T00830061 $
2026-04-15 09:53:00,METAR KSJC 150953Z AUTO 00000KT 10SM CLR 09/07 A3012 RMK AO2 SLP198 T00890067 $
2026-04-15 08:53:00,METAR KSJC 150853Z AUTO 00000KT 10SM CLR 09/07 A3013 RMK AO2 SLP201 T00940067 57009 $
2026-04-15 07:53:00,METAR KSJC 150753Z AUTO 32004KT 10SM CLR 10/07 A3014 RMK AO2 SLP204 T01000067 401780078 $
2026-04-15 06:53:00,METAR KSJC 150653Z 32004KT 10SM FEW022 10/07 A3014 RMK AO2 SLP207 T01000067 $
2026-04-15 05:53:00,METAR KSJC 150553Z 32006KT 10SM FEW023 11/07 A3015 RMK AO2 SLP210 T01060067 10167 20106 50006 $
2026-04-15 04:53:00,METAR KSJC 150453Z 30008KT 10SM FEW018 FEW025 12/07 A3016 RMK AO2 SLP211 T01170067 $
2026-04-15 03:53:00,METAR KSJC 150353Z 32010KT 10SM FEW023 FEW030 12/07 A3014 RMK AO2 SLP206 T01220067 $
2026-04-15 02:53:00,METAR KSJC 150253Z 34007KT 10SM FEW012 FEW030 FEW100 13/07 A3013 RMK AO2 SLP204 T01330072 58005 $
2026-04-15 01:53:00,METAR KSJC 150153Z 34012KT 10SM FEW033 FEW080 FEW100 14/07 A3014 RMK AO2 SLP206 T01440072 $
2026-04-15 00:53:00,METAR KSJC 150053Z 34014G20KT 10SM FEW034 FEW050 FEW100 16/08 A3015 RMK AO2 SLP208 T01560078 $
2026-04-14 23:53:00,METAR KSJC 142353Z 34017G25KT 10SM FEW036 FEW050 16/08 A3015 RMK AO2 SLP209 T01610083 10178 20144 56009 $
2026-04-14 22:53:00,METAR KSJC 142253Z 33016KT 10SM FEW036 FEW050 17/08 A3015 RMK AO2 SLP210 T01670083 $
2026-04-14 21:53:00,METAR KSJC 142153Z 32013G20KT 10SM FEW048 FEW060 18/08 A3017 RMK AO2 SLP214 T01780083 $
2026-04-14 20:53:00,METAR KSJC 142053Z 34010KT 10SM FEW038 FEW048 SCT075 17/08 A3018 RMK AO2 SLP219 T01720083 58013 $
2026-04-14 19:53:00,METAR KSJC 141953Z 33007KT 10SM FEW025 FEW035 SCT038 17/08 A3019 RMK AO2 SLP222 T01720083 $
2026-04-14 18:53:00,METAR KSJC 141853Z 00000KT 10SM FEW025 SCT035 BKN038 17/08 A3021 RMK AO2 SLP230 T01670078 $
2026-04-14 18:26:00,SPECI KSJC 141826Z 09003KT 10SM FEW025 SCT035 BKN038 16/07 A3021 RMK AO2 T01610072 $
2026-04-14 17:53:00,METAR KSJC 141753Z COR 35004KT 10SM FEW018 BKN029 BKN035 14/07 A3022 RMK AO2 SLP231 T01440072 10150 20078 51008 $
2026-04-14 16:53:00,METAR KSJC 141653Z 00000KT 10SM FEW014 BKN026 OVC030 13/08 A3021 RMK AO2 SLP229 T01330078 $
2026-04-14 15:53:00,METAR KSJC 141553Z 13003KT 10SM FEW014 BKN026 OVC030 12/08 A3021 RMK AO2 SLP229 T01170078 $
2026-04-14 14:53:00,METAR KSJC 141453Z 15004KT 10SM FEW013 BKN026 OVC030 11/08 A3019 RMK AO2 SLP223 T01060078 51013 $
2026-04-14 14:23:00,SPECI KSJC 141423Z 15004KT 10SM FEW013 BKN025 OVC030 10/07 A3018 RMK AO2 T01000072 $
2026-04-14 13:53:00,METAR KSJC 141353Z 14005KT 10SM FEW012 SCT025 BKN030 09/07 A3018 RMK AO2 SLP219 T00940067 $
2026-04-14 12:53:00,METAR KSJC 141253Z 00000KT 10SM BKN030 08/07 A3017 RMK AO2 SLP215 T00830067 $
2026-04-14 11:53:00,METAR KSJC 141153Z AUTO 16003KT 10SM CLR 09/07 A3015 RMK AO2 SLP210 T00890067 10122 20078 53002 $
2026-04-14 10:53:00,METAR KSJC 141053Z AUTO 14004KT 10SM CLR 08/06 A3015 RMK AO2 SLP207 T00830061 $
2026-04-14 09:53:00,METAR KSJC 140953Z AUTO 16003KT 10SM CLR 09/06 A3014 RMK AO2 SLP206 T00890061 $
2026-04-14 08:53:00,METAR KSJC 140853Z AUTO 15003KT 10SM CLR 10/07 A3015 RMK AO2 SLP208 T01000067 50000 $
2026-04-14 07:53:00,METAR KSJC 140753Z AUTO 21003KT 10SM CLR 11/07 A3015 RMK AO2 SLP209 T01060067 401890106 $
2026-04-14 06:53:00,METAR KSJC 140653Z 00000KT 10SM FEW028 12/08 A3015 RMK AO2 SLP208 T01170078 $
2026-04-14 05:53:00,METAR KSJC 140553Z 35005KT 9SM CLR 12/08 A3015 RMK AO2 SLP207 T01220083 10178 20122 51014 $
2026-04-14 04:53:00,METAR KSJC 140453Z 01006KT 10SM FEW040 13/08 A3015 RMK AO2 SLP207 T01280083 $
2026-04-14 03:53:00,METAR KSJC 140353Z 34008KT 10SM FEW035 13/08 A3013 RMK AO2 SLP200 T01330083 $
2026-04-14 02:53:00,METAR KSJC 140253Z 33011G19KT 10SM FEW032 FEW050 14/08 A3010 RMK AO2 SLP193 T01390078 53010 $
2026-04-14 01:53:00,METAR KSJC 140153Z 34015KT 10SM FEW040TCU SCT055 16/08 A3009 RMK AO2 SLP188 TCU W T01560083 $
2026-04-14 00:53:00,METAR KSJC 140053Z 34012KT 10SM FEW030 FEW038TCU SCT055 17/07 A3008 RMK AO2 SLP185 TCU W T01720072 $
2026-04-13 23:53:00,METAR KSJC 132353Z 32012KT 10SM FEW030 FEW040TCU SCT055TCU 18/06 A3008 RMK AO2 SLP183 TCU E AND W T01780056 10189 20144 56010 $
2026-04-13 22:53:00,METAR KSJC 132253Z 32011G17KT 10SM FEW025TCU FEW038TCU SCT055TCU 18/06 A3008 RMK AO2 SLP186 TCU N AND E AND W T01830056 $
2026-04-13 21:53:00,METAR KSJC 132153Z 30013G18KT 10SM FEW029TCU FEW035TCU SCT055TCU 18/07 A3010 RMK AO2 SLP191 TCU N AND E AND W T01780072 $
2026-04-13 20:53:00,METAR KSJC 132053Z 33009G16KT 10SM FEW029TCU FEW035TCU SCT048TCU 18/06 A3011 RMK AO2 SLP194 TCU N AND NE AND W T01780061 58007 $
2026-04-13 19:53:00,METAR KSJC 131953Z 34009KT 10SM FEW029TCU FEW035TCU SCT048TCU 17/07 A3012 RMK AO2 SLP199 TCU N AND W T01720067 $
2026-04-13 18:53:00,METAR KSJC 131853Z 34008KT 10SM FEW027TCU SCT035TCU 17/07 A3013 RMK AO2 SLP202 TCU ALQDS T01670072 $
2026-04-13 17:53:00,METAR KSJC 131753Z 31008KT 10SM FEW017 SCT026TCU BKN029TCU 16/08 A3013 RMK AO2 SLP201 TCU ALQDS 60000 T01560083 10156 20106 51011 $
2026-04-13 16:53:00,METAR KSJC 131653Z 32006KT 10SM FEW010 SCT018TCU BKN025TCU 13/09 A3012 RMK AO2 SLP198 TCU ALQDS T01330089 $
2026-04-13 15:53:00,METAR KSJC 131553Z 00000KT 10SM FEW010 SCT018 BKN025 12/09 A3011 RMK AO2 RAE1457 SLP195 TCU DSNT NW P0000 T01220089 $
2026-04-13 14:53:00,METAR KSJC 131453Z 00000KT 10SM -RA FEW011 BKN021 BKN028 12/09 A3009 RMK AO2 RAB36 SLP190 P0000 60000 T01170094 53014 $
2026-04-13 14:50:00,SPECI KSJC 131450Z 00000KT 10SM -RA FEW011 BKN021 BKN028 12/09 A3009 RMK AO2 RAB36 P0000 $
2026-04-13 13:53:00,METAR KSJC 131353Z 00000KT 10SM FEW016 BKN030 OVC065 12/09 A3007 RMK AO2 SLP183 T01170089 $
2026-04-13 12:53:00,METAR KSJC 131253Z 00000KT 10SM BKN030 OVC095 11/09 A3006 RMK AO2 SLP179 T01110089 $
2026-04-13 11:53:00,METAR KSJC 131153Z AUTO 15004KT 10SM FEW031 BKN040 OVC095 11/09 A3005 RMK AO2 SLP176 60001 70009 T01110089 10122 20111 56004 $
2026-04-13 10:53:00,METAR KSJC 131053Z AUTO 10003KT 10SM OVC039 11/09 A3006 RMK AO2 RAB19E31 SLP177 P0000 T01110094 $
2026-04-13 09:53:00,METAR KSJC 130953Z AUTO 11005KT 10SM FEW036 BKN047 OVC070 11/09 A3006 RMK AO2 RAB07E23 SLP178 P0001 T01110089 $
2026-04-13 09:34:00,SPECI KSJC 130934Z AUTO 13006KT 10SM FEW029 BKN037 BKN065 11/09 A3006 RMK AO2 RAB07E23 P0001 T01110089 $
2026-04-13 09:08:00,SPECI KSJC 130908Z AUTO 17006KT 6SM -RA BKN029 BKN036 OVC046 12/08 A3006 RMK AO2 RAB07 P0000 T01170083 $
2026-04-13 08:53:00,METAR KSJC 130853Z AUTO 17006KT 10SM SCT029 BKN038 OVC044 12/08 A3006 RMK AO2 SLP179 T01170083 51005 $
2026-04-13 07:53:00,METAR KSJC 130753Z AUTO 00000KT 10SM BKN035 OVC050 12/08 A3006 RMK AO2 SLP179 T01220083 401720100 $
2026-04-13 06:53:00,METAR KSJC 130653Z 12003KT 10SM FEW030 SCT050 BKN065 12/09 A3005 RMK AO2 SLP176 T01170089 $
2026-04-13 05:53:00,METAR KSJC 130553Z 00000KT 10SM FEW026 SCT050 BKN065 11/08 A3005 RMK AO2 RAB09E42 SLP174 P0000 60000 T01110083 10161 20111 51020 $
2026-04-13 04:53:00,METAR KSJC 130453Z 22005KT 10SM FEW016 FEW045 SCT055 13/07 A3004 RMK AO2 SLP172 T01330072 $
2026-04-13 03:53:00,METAR KSJC 130353Z VRB05KT 10SM FEW016 SCT045 BKN060 13/07 A3002 RMK AO2 SLP163 T01330072 $
2026-04-13 02:53:00,METAR KSJC 130253Z 27007KT 10SM FEW024 SCT045 BKN060 14/07 A2999 RMK AO2 SLP154 T01390067 53015 $
2026-04-13 01:53:00,METAR KSJC 130153Z 26010KT 10SM FEW024 SCT050 BKN060 14/06 A2997 RMK AO2 SLP148 T01440061 $
2026-04-13 00:53:00,METAR KSJC 130053Z 24009KT 10SM FEW024 SCT050 BKN060 16/06 A2995 RMK AO2 SLP141 T01560061
2026-04-12 23:53:00,METAR KSJC 122353Z 27016G21KT 10SM FEW035 SCT050 BKN060 17/07 A2994 RMK AO2 SLP139 60002 T01670072 10172 20133 51000
2026-04-12 22:53:00,METAR KSJC 122253Z 26012KT 10SM FEW010 SCT035 BKN045 16/08 A2994 RMK AO2 SLP138 T01560083
2026-04-12 21:53:00,METAR KSJC 122153Z COR 27012G18KT 10SM FEW010 SCT035 BKN045 15/08 A2995 RMK AO2 RAE04 SLP141 P0000 T01500078
2026-04-12 20:53:00,METAR KSJC 122053Z 24009G19KT 10SM -RA FEW010 SCT035 BKN045 14/09 A2994 RMK AO2 RAE02B23 SLP139 P0002 60002 T01390089 53007
2026-04-12 19:53:00,METAR KSJC 121953Z 22009G23KT 8SM -RA SCT023 BKN035 BKN045 14/09 A2993 RMK AO2 RAB43 SLP133 P0000 T01440089
2026-04-12 18:53:00,METAR KSJC 121853Z 00000KT 10SM SCT028 BKN035 BKN050 15/08 A2993 RMK AO2 RAE1754 SLP133 P0000 T01500083
2026-04-12 17:53:00,METAR KSJC 121753Z 19008KT 10SM -RA SCT025 BKN030 BKN048 13/08 A2992 RMK AO2 RAB38 SLP131 P0000 60006 T01330083 10150 20106 53014
2026-04-12 16:53:00,METAR KSJC 121653Z 19009KT 10SM SCT025 BKN030 BKN045 14/09 A2990 RMK AO2 RAE28 SLP124 P0000 T01440094
2026-04-12 15:53:00,METAR KSJC 121553Z 00000KT 4SM RA BR SCT020 BKN030 BKN045 11/09 A2990 RMK AO2 RAB26 SLP124 P0006 T01110089
2026-04-12 14:53:00,METAR KSJC 121453Z 17005KT 10SM SCT025 BKN032 BKN040 11/08 A2988 RMK AO2 RAB38E49 SLP117 P0000 60000 T01110083 53016
2026-04-12 13:53:00,METAR KSJC 121353Z 15006KT 10SM FEW028 BKN038 BKN050 11/08 A2986 RMK AO2 SLP111 T01110083
2026-04-12 12:53:00,METAR KSJC 121253Z 16005KT 10SM FEW025 BKN038 BKN050 11/09 A2984 RMK AO2 SLP102 T01060089
2026-04-12 11:53:00,METAR KSJC 121153Z AUTO 13004KT 10SM SCT039 BKN050 11/09 A2983 RMK AO2 RAE11 SLP101 P0000 60005 70039 T01060089 10122 20100 53010
2026-04-12 10:53:00,METAR KSJC 121053Z AUTO 13007KT 10SM -RA FEW034 BKN045 OVC080 11/09 A2982 RMK AO2 RAE20B48 SLP097 P0000 T01060094
2026-04-12 09:53:00,METAR KSJC 120953Z AUTO 31004KT 4SM -RA BR FEW030 OVC037 11/09 A2981 RMK AO2 RAB26 SLP095 P0003 T01060089
2026-04-12 08:53:00,METAR KSJC 120853Z AUTO 15006KT 10SM CLR 11/08 A2980 RMK AO2 RAB0758E21 SLP091 P0000 60002 T01060078 50002
2026-04-12 07:53:00,METAR KSJC 120753Z AUTO 11008KT 10SM FEW040 11/09 A2980 RMK AO2 RAB0655E29 SLP092 P0002 T01110089 401720106
2026-04-12 06:53:00,METAR KSJC 120653Z 18005KT 10SM SCT044 BKN055 BKN070 12/08 A2980 RMK AO2 SLP090 T01220083
2026-04-12 05:53:00,METAR KSJC 120553Z 13006KT 10SM SCT060 11/08 A2980 RMK AO2 SLP089 60029 T01060083 10156 20106 50003
2026-04-12 04:53:00,METAR KSJC 120453Z 15006KT 10SM BKN040 OVC070 11/08 A2981 RMK AO2 SLP093 T01110083
2026-04-12 03:53:00,METAR KSJC 120353Z 17007KT 10SM BKN035 OVC070 12/10 A2980 RMK AO2 RAE12 SLP091 P0000 T01170100 $
2026-04-12 02:53:00,METAR KSJC 120253Z 08006KT 10SM -RA BKN035 OVC070 11/09 A2979 RMK AO2 SLP087 P0014 60029 T01110094 53007 $
2026-04-12 02:30:00,SPECI KSJC 120230Z 05005KT 9SM -RA BKN035 OVC060 11/09 A2978 RMK AO2 P0013 T01110094 $
2026-04-12 02:04:00,SPECI KSJC 120204Z 31007KT 1 1/4SM +RA BR SCT015 BKN035 OVC043 11/09 A2978 RMK AO2 OCNL LTGCC DSNT W P0009 T01110094 $
2026-04-12 01:53:00,METAR KSJC 120153Z 30011G18KT 3SM +RA BR SCT015 BKN035 OVC043 11/09 A2978 RMK AO2 SLP084 OCNL LTGCC DSNT W P0012 T01110094 $
2026-04-12 00:53:00,METAR KSJC 120053Z 18011G18KT 7SM -RA SCT020 BKN035 OVC050 14/11 A2975 RMK AO2 SLP075 P0003 T01440111 $
2026-04-12 00:29:00,SPECI KSJC 120029Z 15016G24KT 6SM -RA SCT020 BKN035 OVC050 14/11 A2974 RMK AO2 P0002 T01440111 $
2026-04-11 23:53:00,METAR KSJC 112353Z 17013G21KT 10SM -RA SCT018 BKN025 OVC040 16/11 A2977 RMK AO2 RAB42 SLP080 P0000 60001 T01560106 10172 20139 56033 $
2026-04-11 22:53:00,METAR KSJC 112253Z 16014G22KT 10SM SCT018 BKN025 OVC040 16/11 A2980 RMK AO2 RAE36 SLP090 P0000 T01610106 $
2026-04-11 21:53:00,METAR KSJC 112153Z 19014G24KT 8SM -RA SCT018 BKN025 OVC045 16/12 A2984 RMK AO2 RAE03B20 SLP103 P0000 T01560117 $
2026-04-11 20:53:00,METAR KSJC 112053Z 18011G19KT 10SM -RA SCT018 BKN025 BKN040 16/12 A2987 RMK AO2 RAB11 SLP113 P0000 60001 T01560117 58012 $
2026-04-11 19:53:00,METAR KSJC 111953Z 17013G20KT 10SM SCT018 BKN025 BKN038 17/11 A2988 RMK AO2 PK WND 16027/1929 SLP118 T01670111 $
2026-04-11 18:53:00,METAR KSJC 111853Z 17010G21KT 9SM SCT023 BKN028 BKN035 15/12 A2990 RMK AO2 RAE32 SLP125 P0001 T01500122 $
2026-04-11 17:53:00,METAR KSJC 111753Z 16008KT 4SM -RA BR SCT012 BKN023 OVC030 14/12 A2990 RMK AO2 RAB03 SLP125 P0004 60004 T01390122 10167 20133 53003 $
2026-04-11 17:34:00,SPECI KSJC 111734Z 18009G19KT 3SM RA BR SCT012 BKN020 OVC030 14/12 A2989 RMK AO2 RAB03 P0002 T01440122 $
2026-04-11 16:53:00,METAR KSJC 111653Z 14014G21KT 10SM SCT020 BKN035 OVC050 16/11 A2988 RMK AO2 SLP116 T01560106 $
2026-04-11 15:53:00,METAR KSJC 111553Z 15008KT 10SM SCT028 BKN032 BKN065 15/12 A2989 RMK AO2 SLP120 T01500117 $
2026-04-11 14:53:00,METAR KSJC 111453Z 16007KT 10SM SCT028 BKN032 BKN080 14/12 A2989 RMK AO2 SLP122 T01390117 52003 $
2026-04-11 13:53:00,METAR KSJC 111353Z 15004KT 10SM SCT025 BKN030 BKN040 14/12 A2989 RMK AO2 SLP120 T01390117 $
2026-04-11 12:53:00,METAR KSJC 111253Z 15004KT 10SM SCT025 BKN030 BKN040 13/12 A2989 RMK AO2 SLP120 T01330122 $
2026-04-11 11:53:00,METAR KSJC 111153Z AUTO 14006KT 10SM BKN043 13/12 A2988 RMK AO2 SLP118 60003 70024 T01330122 10156 20133 55001 $
2026-04-11 10:53:00,METAR KSJC 111053Z AUTO 14007KT 10SM SCT036 BKN055 13/12 A2988 RMK AO2 SLP116 T01330122 $
2026-04-11 09:53:00,METAR KSJC 110953Z AUTO 14006KT 10SM SCT037 BKN045 OVC050 14/13 A2988 RMK AO2 RAEMM SLP118 P0000 T01390128 $
2026-04-11 08:53:00,METAR KSJC 110853Z AUTO 14007KT 10SM -RA FEW034 FEW043 OVC080 14/12 A2989 RMK AO2 SLP119 P0003 60003 T01390122 50003 $
2026-04-11 07:53:00,METAR KSJC 110753Z AUTO 16008KT 10SM -RA FEW048 BKN070 OVC090 14/12 A2989 RMK AO2 RAB39 SLP120 P0000 T01440122 402060139 $
2026-04-11 06:53:00,METAR KSJC 110653Z 15008KT 10SM FEW012 SCT035 SCT045 14/12 A2988 RMK AO2 SLP117 T01440117 $
2026-04-11 05:53:00,METAR KSJC 110553Z 15007KT 10SM FEW012 SCT035 BKN045 16/12 A2988 RMK AO2 SLP116 60000 T01560117 10194 20150 51013 $
2026-04-11 04:53:00,METAR KSJC 110453Z 15009KT 10SM FEW010 FEW022 SCT060 15/11 A2988 RMK AO2 SLP117 T01500106 $
2026-04-11 03:53:00,METAR KSJC 110353Z 17010KT 10SM FEW025 SCT035 BKN050 16/12 A2986 RMK AO2 SLP110 T01560117 $
2026-04-11 02:53:00,METAR KSJC 110253Z 19011G22KT 10SM SCT030 SCT050 BKN085 17/11 A2984 RMK AO2 PK WND 20027/0234 RAB15E24 SLP104 P0000 60000 T01670106 51005 $
2026-04-11 01:53:00,METAR KSJC 110153Z 21008G17KT 10SM SCT030 SCT070 BKN090 17/11 A2983 RMK AO2 SLP101 TCU DSNT S T01670106
2026-04-11 00:53:00,METAR KSJC 110053Z 19015G25KT 10SM SCT030 SCT070 BKN090 18/11 A2984 RMK AO2 SLP102 T01830106
2026-04-10 23:53:00,METAR KSJC 102353Z 19015G24KT 10SM FEW010 SCT050TCU SCT090 19/11 A2983 RMK AO2 SLP099 TCU ALQDS 60001 T01940106 10206 20150 58012
2026-04-10 22:53:00,METAR KSJC 102253Z 19015G22KT 10SM FEW010 SCT050TCU SCT085 19/10 A2984 RMK AO2 SLP103 TCU ALQDS T01890100
2026-04-10 21:53:00,METAR KSJC 102153Z 20015G22KT 10SM FEW010 SCT034TCU SCT065 19/11 A2985 RMK AO2 PK WND 18027/2057 SLP107 TCU ALQDS T01940111
2026-04-10 20:53:00,METAR KSJC 102053Z 19015G22KT 10SM FEW010 SCT027TCU BKN130 20/11 A2986 RMK AO2 SLP111 TCU ALQDS 60001 T02000111 58009
2026-04-10 20:13:00,SPECI KSJC 102013Z 19012G17KT 10SM FEW010 SCT025CB SCT029TCU 19/12 A2987 RMK AO2 CB NW MOV E TCU ALQDS T01940117
2026-04-10 19:53:00,METAR KSJC 101953Z 20007KT 10SM FEW010 SCT025CB BKN028TCU 19/13 A2987 RMK AO2 RAB02E19 SLP115 CB N AND NE AND NW MOV E TCU ALQDS P0000 T01890133
2026-04-10 18:53:00,METAR KSJC 101853Z 14011KT 10SM FEW010 BKN029 OVC055 16/13 A2989 RMK AO2 RAE24 SLP120 P0001 T01610133
2026-04-10 17:53:00,METAR KSJC 101753Z 14007KT 8SM RA FEW010 BKN027 OVC055 15/13 A2989 RMK AO2 SLP120 P0004 60020 T01500128 10156 20139 53005
2026-04-10 16:53:00,METAR KSJC 101653Z COR 18005KT 10SM -RA FEW010 BKN027 OVC060 14/12 A2988 RMK AO2 SLP117 P0004 T01440122
2026-04-10 15:53:00,METAR KSJC 101553Z 16005KT 10SM -RA FEW010 BKN027 OVC035 14/12 A2987 RMK AO2 RAE22B41 SLP114 P0005 T01440122 $
2026-04-10 14:53:00,METAR KSJC 101453Z 17005KT 4SM RA FEW010 BKN027 OVC038 15/12 A2987 RMK AO2 RAB1358 SLP115 P0007 60007 T01500122 53004 $
2026-04-10 13:53:00,METAR KSJC 101353Z 15008KT 10SM FEW010 BKN029 OVC038 16/11 A2986 RMK AO2 SLP109 T01560106 $
2026-04-10 13:33:00,SPECI KSJC 101333Z 15007KT 10SM FEW014 BKN029 OVC035 16/11 A2985 RMK AO2 T01560106 $
2026-04-10 12:53:00,METAR KSJC 101253Z 12007KT 10SM OVC030 15/11 A2985 RMK AO2 SLP109 T01500106 $
2026-04-10 11:53:00,METAR KSJC 101153Z AUTO 15004KT 10SM OVC032 15/11 A2986 RMK AO2 SLP111 T01500111 10156 20144 56014 $
2026-04-10 11:45:00,SPECI KSJC 101145Z AUTO 18004KT 10SM OVC032 15/11 A2986 RMK AO2 T01500111 $
2026-04-10 11:00:00,SPECI KSJC 101100Z AUTO 14006KT 10SM OVC029 15/11 A2987 RMK AO2 T01500111 $
2026-04-10 10:53:00,METAR KSJC 101053Z AUTO 15006KT 10SM OVC030 15/11 A2988 RMK AO2 SLP116 T01500111 $
2026-04-10 09:53:00,METAR KSJC 100953Z AUTO 14009KT 10SM BKN033 14/11 A2989 RMK AO2 SLP120 T01440111 $
2026-04-10 09:36:00,SPECI KSJC 100936Z AUTO 15009KT 10SM SCT022 BKN031 14/11 A2989 RMK AO2 T01440106 $
2026-04-10 09:13:00,SPECI KSJC 100913Z AUTO 14010KT 10SM BKN024 OVC030 15/11 A2990 RMK AO2 T01500106 $
2026-04-10 09:02:00,SPECI KSJC 100902Z AUTO 15007KT 10SM SCT021 OVC030 15/11 A2990 RMK AO2 T01500106 $
2026-04-10 08:53:00,METAR KSJC 100853Z AUTO 16009KT 10SM BKN021 OVC030 15/11 A2990 RMK AO2 SLP125 T01500106 56005 $
2026-04-10 07:53:00,METAR KSJC 100753Z AUTO 14007KT 10SM OVC019 15/11 A2990 RMK AO2 SLP126 T01500111 402330133 $
2026-04-10 07:06:00,SPECI KSJC 100706Z AUTO 01003KT 10SM BKN019 OVC030 16/12 A2991 RMK AO2 T01560122 $
2026-04-10 06:53:00,METAR KSJC 100653Z 34003KT 10SM SCT030 BKN040 15/12 A2991 RMK AO2 SLP127 T01500117 $
2026-04-10 05:53:00,METAR KSJC 100553Z 34003KT 10SM FEW040 FEW080 15/12 A2992 RMK AO2 SLP130 T01500117 10222 20144 50010 $
2026-04-10 04:53:00,METAR KSJC 100453Z 34006KT 10SM FEW085 16/12 A2992 RMK AO2 SLP131 T01560117 $
2026-04-10 03:53:00,METAR KSJC 100353Z 34011KT 10SM SCT070 SCT090 16/12 A2990 RMK AO2 SLP126 T01610122 $
2026-04-10 02:53:00,METAR KSJC 100253Z 33010KT 10SM SCT090 BKN110 17/12 A2989 RMK AO2 SLP120 T01670122 53002 $
2026-04-10 01:53:00,METAR KSJC 100153Z 34012G19KT 10SM FEW050 SCT080 BKN110 18/12 A2989 RMK AO2 SLP119 T01830122
2026-04-10 00:53:00,METAR KSJC 100053Z 33015KT 10SM FEW050 SCT080 BKN110 21/13 A2988 RMK AO2 SLP116 T02060128
2026-04-09 23:53:00,METAR KSJC 092353Z 32014KT 10SM FEW050 SCT080 BKN110 22/13 A2988 RMK AO2 SLP118 T02220133 10233 20189 57012
2026-04-09 22:53:00,METAR KSJC 092253Z 34010KT 10SM FEW050 SCT080 BKN110 23/14 A2989 RMK AO2 SLP121 T02280139
2026-04-09 21:53:00,METAR KSJC 092153Z 32011KT 10SM SCT050 SCT065 BKN090 23/15 A2991 RMK AO2 SLP127 T02280150
2026-04-09 20:53:00,METAR KSJC 092053Z 33011KT 10SM FEW035TCU SCT065 BKN090 22/14 A2992 RMK AO2 WSHFT 2020 SLP130 TCU W ACSL DSNT N T02220139 58015
2026-04-09 20:40:00,SPECI KSJC 092040Z 33012KT 10SM FEW035TCU SCT065 BKN080 22/14 A2992 RMK AO2 WSHFT 2020 TCU W ACSL DSNT N T02170144
2026-04-09 19:53:00,METAR KSJC 091953Z 27006KT 10SM FEW035TCU SCT065 BKN080 23/13 A2993 RMK AO2 SLP134 TCU W ACSL DSNT N AND NE AND E T02280133
2026-04-09 18:53:00,METAR KSJC 091853Z VRB03KT 9SM FEW035 BKN080 BKN120 20/13 A2995 RMK AO2 SLP141 T02000133
2026-04-09 17:53:00,METAR KSJC 091753Z VRB04KT 9SM FEW028 SCT065 BKN080 19/13 A2996 RMK AO2 SLP144 T01890133 10189 20144 51003
2026-04-09 16:53:00,METAR KSJC 091653Z VRB04KT 8SM SCT013 BKN065 BKN080 18/13 A2996 RMK AO2 SLP144 T01780128
2026-04-09 15:53:00,METAR KSJC 091553Z 00000KT 8SM FEW012 BKN065 BKN080 16/12 A2996 RMK AO2 SLP144 T01610122
2026-04-09 14:53:00,METAR KSJC 091453Z 01003KT 8SM FEW004 SCT012 BKN065 15/12 A2995 RMK AO2 SLP142 T01500122 55001
2026-04-09 13:53:00,METAR KSJC 091353Z 00000KT 10SM FEW002 SCT065 OVC120 14/12 A2995 RMK AO2 SLP140 T01440117
2026-04-09 13:42:00,SPECI KSJC 091342Z 06003KT 10SM FEW002 SCT065 OVC120 14/12 A2995 RMK AO2 T01440117
2026-04-09 12:53:00,METAR KSJC 091253Z 00000KT 10SM OVC011 15/12 A2995 RMK AO2 SLP140 T01500122 $
2026-04-09 11:53:00,METAR KSJC 091153Z AUTO 00000KT 10SM OVC010 14/12 A2995 RMK AO2 SLP142 T01440122 10150 20133 56013 $
2026-04-09 10:53:00,METAR KSJC 091053Z AUTO 00000KT 10SM OVC010 14/12 A2997 RMK AO2 SLP147 T01440122
2026-04-09 09:07:00,SPECI KSJC 090907Z AUTO 35003KT 10SM BKN011 13/12 A2999 RMK AO2 T01330122
2026-04-09 08:53:00,METAR KSJC 090853Z AUTO 00000KT 10SM FEW011 13/12 A2999 RMK AO2 SLP155 T01330122 58001
2026-04-09 07:53:00,METAR KSJC 090753Z AUTO 36003KT 10SM SCT012 14/12 A3000 RMK AO2 SLP158 T01440122 402500111
2026-04-09 06:53:00,METAR KSJC 090653Z 33004KT 10SM FEW012 14/12 A3000 RMK AO2 SLP157 T01390122
2026-04-09 05:53:00,METAR KSJC 090553Z 32008KT 10SM FEW015 FEW030 15/12 A2999 RMK AO2 SLP156 T01500122 10233 20150 51017
2026-04-09 04:53:00,METAR KSJC 090453Z 30008KT 10SM FEW015 FEW030 16/13 A2998 RMK AO2 SLP153 T01610128
2026-04-09 03:53:00,METAR KSJC 090353Z 31007KT 10SM FEW060 FEW080 17/13 A2996 RMK AO2 SLP145 T01720128
2026-04-09 02:53:00,METAR KSJC 090253Z 32008KT 10SM FEW060 FEW080 18/13 A2994 RMK AO2 SLP139 T01830128 53001
2026-04-09 01:53:00,METAR KSJC 090153Z 32011KT 10SM FEW040 FEW050 SCT080 20/13 A2994 RMK AO2 SLP139 T02000133
2026-04-09 00:53:00,METAR KSJC 090053Z 34013KT 10SM FEW045 FEW050TCU SCT080 22/13 A2994 RMK AO2 SLP139 TCU E T02170133
2026-04-08 23:53:00,METAR KSJC 082353Z 32012KT 10SM FEW050TCU FEW080 SCT100 23/14 A2994 RMK AO2 SLP138 TCU E T02280139 10250 20200 56012
2026-04-08 22:53:00,METAR KSJC 082253Z 33012KT 10SM FEW050TCU FEW080 SCT100 24/14 A2995 RMK AO2 SLP140 TCU E T02390139
2026-04-08 21:53:00,METAR KSJC 082153Z 34013KT 10SM FEW050TCU FEW065 SCT080 24/13 A2996 RMK AO2 SLP145 TCU E T02440133
2026-04-08 20:53:00,METAR KSJC 082053Z 33008G18KT 10SM FEW050TCU FEW065 FEW080 24/13 A2998 RMK AO2 SLP150 TCU E T02440128 58017
2026-04-08 19:53:00,METAR KSJC 081953Z 33008KT 10SM FEW050 FEW065 FEW080 22/12 A3000 RMK AO2 SLP158 T02220122
2026-04-08 18:53:00,METAR KSJC 081853Z 34004KT 10SM FEW065 FEW080 FEW110 21/11 A3001 RMK AO2 SLP161 T02110106
2026-04-08 17:53:00,METAR KSJC 081753Z 35003KT 10SM FEW065 FEW080 FEW110 20/10 A3003 RMK AO2 SLP167 T02000100 10200 20111 58008
2026-04-08 16:53:00,METAR KSJC 081653Z 22006KT 10SM SCT065 SCT080 BKN110 18/09 A3004 RMK AO2 SLP170 T01780094
2026-04-08 15:53:00,METAR KSJC 081553Z 00000KT 10SM FEW050 SCT065 SCT080 16/11 A3005 RMK AO2 SLP175 T01560106 $
2026-04-08 14:53:00,METAR KSJC 081453Z 15003KT 10SM FEW010 FEW065 FEW080 13/10 A3005 RMK AO2 SLP176 ACC DSNT W T01330100 53011 $
2026-04-08 13:53:00,METAR KSJC 081353Z VRB03KT 10SM FEW010 FEW065 FEW080 12/09 A3004 RMK AO2 SLP171 ACC DSNT W T01220094 $
2026-04-08 12:53:00,METAR KSJC 081253Z 35003KT 10SM FEW050 FEW080 12/09 A3003 RMK AO2 SLP167 T01220089 $
2026-04-08 11:53:00,METAR KSJC 081153Z AUTO 27003KT 10SM CLR 12/09 A3002 RMK AO2 SLP164 T01220089 10139 20122 56008 $
2026-04-08 10:53:00,METAR KSJC 081053Z AUTO 00000KT 10SM CLR 12/09 A3002 RMK AO2 SLP166 T01220094 $
2026-04-08 09:53:00,METAR KSJC 080953Z AUTO 00000KT 10SM CLR 13/09 A3003 RMK AO2 SLP169 T01280094 $
2026-04-08 08:53:00,METAR KSJC 080853Z AUTO 00000KT 10SM CLR 13/09 A3004 RMK AO2 SLP172 T01280094 58007 $
2026-04-08 07:53:00,METAR KSJC 080753Z AUTO 31004KT 10SM CLR 12/09 A3005 RMK AO2 SLP175 T01220094 402110100 $
2026-04-08 06:53:00,METAR KSJC 080653Z 03005KT 10SM CLR 13/10 A3006 RMK AO2 SLP178 T01330100 $
2026-04-08 05:53:00,METAR KSJC 080553Z 35006KT 10SM CLR 14/09 A3006 RMK AO2 SLP179 T01390094 10200 20139 51012 $
2026-04-08 04:53:00,METAR KSJC 080453Z 32008KT 10SM CLR 14/11 A3006 RMK AO2 SLP178 T01440106 $
2026-04-08 03:53:00,METAR KSJC 080353Z 33007KT 10SM FEW140 15/09 A3004 RMK AO2 SLP172 T01500094 $
2026-04-08 02:53:00,METAR KSJC 080253Z 31007KT 10SM FEW015 FEW100 FEW140 16/10 A3003 RMK AO2 SLP168 T01610100 55004 $
2026-04-08 01:53:00,METAR KSJC 080153Z 31007KT 10SM FEW065 FEW110 FEW150 18/09 A3003 RMK AO2 SLP167 T01780094
2026-04-08 00:53:00,METAR KSJC 080053Z 31010KT 10SM FEW150 19/09 A3003 RMK AO2 SLP169 T01940089
2026-04-07 23:53:00,METAR KSJC 072353Z 33010KT 10SM FEW070 FEW100 FEW150 19/09 A3004 RMK AO2 SLP172 T01940094 10211 20161 56011
2026-04-07 22:53:00,METAR KSJC 072253Z 29010KT 10SM FEW100 FEW150 21/09 A3005 RMK AO2 SLP173 T02060094
2026-04-07 21:53:00,METAR KSJC 072153Z 32008KT 10SM FEW070 FEW100 FEW130 21/11 A3006 RMK AO2 SLP178 T02060106
2026-04-07 20:53:00,METAR KSJC 072053Z 31008KT 10SM FEW070 FEW100 FEW130 21/08 A3007 RMK AO2 SLP183 T02060083 56016
2026-04-07 19:53:00,METAR KSJC 071953Z 33006KT 10SM FEW070 FEW100 FEW130 20/06 A3008 RMK AO2 SLP185 T02000061
2026-04-07 18:53:00,METAR KSJC 071853Z 34006KT 10SM FEW070 SCT100 SCT130 18/08 A3010 RMK AO2 SLP192 T01830083
2026-04-07 17:53:00,METAR KSJC 071753Z 34004KT 10SM FEW015 FEW070 SCT100 16/08 A3012 RMK AO2 SLP199 T01610083 10161 20117 58003
2026-04-07 16:53:00,METAR KSJC 071653Z VRB03KT 10SM FEW015 FEW070 SCT100 14/08 A3014 RMK AO2 SLP204 T01390078
2026-04-07 15:53:00,METAR KSJC 071553Z 36004KT 10SM FEW013 SCT018 13/08 A3014 RMK AO2 SLP204 T01280083
2026-04-07 15:46:00,SPECI KSJC 071546Z 35005KT 10SM FEW013 SCT018 12/08 A3014 RMK AO2 T01220078
2026-04-07 14:53:00,METAR KSJC 071453Z 34004KT 10SM FEW014 OVC018 12/08 A3013 RMK AO2 SLP202 T01170078 53008
2026-04-07 13:53:00,METAR KSJC 071353Z 32007KT 10SM OVC018 12/08 A3012 RMK AO2 SLP199 T01170083
2026-04-07 12:53:00,METAR KSJC 071253Z 30006KT 10SM OVC018 12/08 A3012 RMK AO2 SLP197 T01170083
2026-04-07 11:53:00,METAR KSJC 071153Z AUTO 31003KT 10SM OVC017 12/08 A3011 RMK AO2 SLP194 T01170083 10122 20100 52001
2026-04-07 10:53:00,METAR KSJC 071053Z AUTO 00000KT 10SM OVC016 12/08 A3010 RMK AO2 SLP193 T01170078
2026-04-07 09:53:00,METAR KSJC 070953Z AUTO 30004KT 10SM BKN015 11/08 A3011 RMK AO2 SLP194 T01110078
2026-04-07 09:46:00,SPECI KSJC 070946Z AUTO 32004KT 10SM BKN015 11/08 A3011 RMK AO2 T01060078
2026-04-07 08:53:00,METAR KSJC 070853Z AUTO 04004KT 10SM CLR 12/08 A3010 RMK AO2 SLP193 T01170083 58004
2026-04-07 07:53:00,METAR KSJC 070753Z AUTO 36003KT 10SM CLR 12/09 A3011 RMK AO2 SLP196 T01170089 402000111
2026-04-07 06:53:00,METAR KSJC 070653Z 35005KT 10SM FEW030 12/08 A3011 RMK AO2 SLP196 T01170083
2026-04-07 05:53:00,METAR KSJC 070553Z 34005KT 10SM CLR 12/09 A3012 RMK AO2 SLP197 T01220089 10189 20122 50016
2026-04-07 04:53:00,METAR KSJC 070453Z 34008G18KT 10SM FEW030 13/09 A3012 RMK AO2 SLP198 T01280089
2026-04-07 03:53:00,METAR KSJC 070353Z 34008KT 10SM CLR 13/09 A3009 RMK AO2 SLP190 T01330094
2026-04-07 02:53:00,METAR KSJC 070253Z 35011KT 10SM FEW050 14/09 A3007 RMK AO2 SLP181 T01390094 53007
2026-04-07 01:53:00,METAR KSJC 070153Z 34012KT 10SM CLR 16/09 A3006 RMK AO2 SLP177 T01560094
2026-04-07 00:53:00,METAR KSJC 070053Z 33013KT 10SM CLR 17/10 A3005 RMK AO2 SLP175 T01720100
2026-04-06 23:53:00,METAR KSJC 062353Z 32011KT 10SM CLR 19/11 A3005 RMK AO2 SLP174 T01890106 10200 20161 57008
2026-04-06 22:53:00,METAR KSJC 062253Z 30010KT 10SM CLR 20/12 A3005 RMK AO2 SLP176 T02000117
2026-04-06 21:53:00,METAR KSJC 062153Z 32010KT 10SM CLR 19/12 A3007 RMK AO2 SLP180 T01940117
2026-04-06 20:53:00,METAR KSJC 062053Z 30007G17KT 10SM CLR 19/12 A3007 RMK AO2 SLP182 T01940117 58006
2026-04-06 19:53:00,METAR KSJC 061953Z 31006KT 10SM CLR 18/11 A3008 RMK AO2 SLP185 T01830111
2026-04-06 18:53:00,METAR KSJC 061853Z 33007KT 10SM FEW014 FEW110 18/11 A3009 RMK AO2 SLP190 T01780106
2026-04-06 17:53:00,METAR KSJC 061753Z 33004KT 10SM FEW014 FEW110 16/11 A3009 RMK AO2 SLP188 T01610106 10167 20111 52004
2026-04-06 16:53:00,METAR KSJC 061653Z VRB04KT 10SM FEW008 FEW012 SCT110 16/11 A3009 RMK AO2 SLP188 T01560106
2026-04-06 15:53:00,METAR KSJC 061553Z 00000KT 10SM FEW006 SCT011 BKN110 14/11 A3008 RMK AO2 SLP185 T01390106
2026-04-06 15:37:00,SPECI KSJC 061537Z 00000KT 10SM FEW006 SCT011 SCT110 13/10 A3008 RMK AO2 T01280100
2026-04-06 14:53:00,METAR KSJC 061453Z 00000KT 10SM FEW006 BKN011 BKN110 12/10 A3008 RMK AO2 SLP184 T01220100 53017
2026-04-06 14:29:00,SPECI KSJC 061429Z 36004KT 10SM FEW006 BKN011 BKN110 12/10 A3008 RMK AO2 T01220100
2026-04-06 13:55:00,SPECI KSJC 061355Z 36004KT 10SM FEW004 SCT011 SCT140 12/09 A3006 RMK AO2 T01170094
2026-04-06 13:53:00,METAR KSJC 061353Z 33004KT 10SM FEW002 BKN011 12/09 A3006 RMK AO2 SLP178 T01170094
2026-04-06 13:33:00,SPECI KSJC 061333Z 35006KT 10SM FEW002 BKN011 12/10 A3006 RMK AO2 T01220100
2026-04-06 12:53:00,METAR KSJC 061253Z 32006KT 10SM CLR 12/10 A3004 RMK AO2 SLP172 T01170100
2026-04-06 11:53:00,METAR KSJC 061153Z AUTO 33006KT 10SM CLR 13/11 A3003 RMK AO2 SLP167 T01280106 10161 20122 53005
2026-04-06 10:53:00,METAR KSJC 061053Z AUTO 33008KT 10SM CLR 13/12 A3002 RMK AO2 SLP165 T01330117
2026-04-06 09:53:00,METAR KSJC 060953Z AUTO 30003KT 10SM CLR 14/11 A3001 RMK AO2 SLP161 T01390106
2026-04-06 08:53:00,METAR KSJC 060853Z AUTO 30003KT 10SM CLR 14/12 A3001 RMK AO2 SLP162 T01440117 51005
2026-04-06 07:53:00,METAR KSJC 060753Z AUTO 31004KT 10SM CLR 14/10 A3001 RMK AO2 SLP161 T01440100 402940106
2026-04-06 06:53:00,METAR KSJC 060653Z 31004KT 10SM FEW140 16/10 A3000 RMK AO2 SLP159 T01560100
2026-04-06 05:53:00,METAR KSJC 060553Z 31004KT 10SM FEW140 16/09 A3000 RMK AO2 SLP157 T01610094 10272 20161 51015
2026-04-06 04:53:00,METAR KSJC 060453Z 32007KT 10SM SCT150 17/09 A3000 RMK AO2 SLP157 T01720094
2026-04-06 03:53:00,METAR KSJC 060353Z 33008KT 10SM FEW120 SCT150 19/07 A2998 RMK AO2 SLP151 T01940072
2026-04-06 02:53:00,METAR KSJC 060253Z 34011KT 10SM FEW120 SCT150 22/07 A2995 RMK AO2 SLP142 T02220067 53003
2026-04-06 01:53:00,METAR KSJC 060153Z 33014G20KT 10SM FEW090 FEW130 SCT160 23/08 A2995 RMK AO2 SLP140 T02330083
2026-04-06 00:53:00,METAR KSJC 060053Z 33012KT 10SM FEW090 FEW130 SCT160 26/08 A2994 RMK AO2 SLP138 T02610078
2026-04-05 23:53:00,METAR KSJC 052353Z 33014KT 10SM FEW090 FEW130 SCT160 27/08 A2994 RMK AO2 SLP139 T02720083 10294 20222 56008
2026-04-05 22:53:00,METAR KSJC 052253Z 32013KT 10SM FEW090 SCT130 SCT160 28/07 A2995 RMK AO2 SLP139 T02830072
2026-04-05 21:53:00,METAR KSJC 052153Z 32009KT 10SM FEW090 SCT130 SCT160 28/07 A2996 RMK AO2 SLP143 T02830072
2026-04-05 20:53:00,METAR KSJC 052053Z 33006KT 10SM FEW090 SCT120 SCT160 29/07 A2997 RMK AO2 SLP147 T02890067 58018
2026-04-05 19:53:00,METAR KSJC 051953Z 33006KT 10SM FEW090 SCT120 27/06 A2999 RMK AO2 SLP154 T02720061
2026-04-05 18:53:00,METAR KSJC 051853Z 00000KT 10SM FEW090 SCT120 24/06 A3001 RMK AO2 SLP160 T02440061
2026-04-05 17:53:00,METAR KSJC 051753Z 00000KT 10SM SCT090 BKN100 22/07 A3002 RMK AO2 SLP166 T02220067 10228 20106 58002
2026-04-05 16:53:00,METAR KSJC 051653Z 00000KT 10SM SCT080 BKN100 19/07 A3003 RMK AO2 SLP168 T01890072
2026-04-05 15:53:00,METAR KSJC 051553Z 13003KT 10SM SCT080 BKN100 16/08 A3003 RMK AO2 SLP170 T01610078
2026-04-05 14:53:00,METAR KSJC 051453Z 16003KT 10SM FEW070 BKN100 13/07 A3003 RMK AO2 SLP168 T01330067 53004
2026-04-05 12:53:00,METAR KSJC 051253Z 14004KT 10SM SCT120 12/06 A3001 RMK AO2 SLP163 T01170061
2026-04-05 11:53:00,METAR KSJC 051153Z AUTO 17003KT 10SM CLR 13/07 A3002 RMK AO2 SLP164 T01330067 10189 20122 56012
2026-04-05 10:53:00,METAR KSJC 051053Z AUTO 14003KT 10SM CLR 13/06 A3003 RMK AO2 SLP167 T01330061
2026-04-05 09:53:00,METAR KSJC 050953Z AUTO 11003KT 10SM CLR 14/07 A3004 RMK AO2 SLP170 T01440067
2026-04-05 08:53:00,METAR KSJC 050853Z AUTO 15003KT 10SM CLR 14/06 A3005 RMK AO2 SLP176 T01440061 58001
2026-04-05 07:53:00,METAR KSJC 050753Z AUTO 15003KT 10SM CLR 15/04 A3006 RMK AO2 SLP179 T01500044 402830094
2026-04-05 06:53:00,METAR KSJC 050653Z 00000KT 10SM CLR 18/03 A3005 RMK AO2 SLP176 T01780028
2026-04-05 05:53:00,METAR KSJC 050553Z 21003KT 10SM CLR 18/06 A3005 RMK AO2 SLP176 T01830056 10261 20183 51013
2026-04-05 04:53:00,METAR KSJC 050453Z 30005KT 10SM CLR 19/09 A3005 RMK AO2 SLP175 T01940094
2026-04-05 03:53:00,METAR KSJC 050353Z 31004KT 10SM FEW080 FEW100 21/07 A3003 RMK AO2 SLP168 T02060067
2026-04-05 02:53:00,METAR KSJC 050253Z 34007KT 10SM FEW080 SCT120 23/06 A3002 RMK AO2 SLP163 T02280061 53007
2026-04-05 01:53:00,METAR KSJC 050153Z 33007KT 10SM SCT100 BKN120 24/05 A3001 RMK AO2 SLP161 T02440050
2026-04-05 00:53:00,METAR KSJC 050053Z 33010KT 10SM SCT100 BKN120 25/07 A3000 RMK AO2 SLP157 T02500067
2026-04-04 23:53:00,METAR KSJC 042353Z 32010KT 10SM SCT100 BKN120 26/07 A2999 RMK AO2 SLP156 T02610067 10283 20194 56019
2026-04-04 22:53:00,METAR KSJC 042253Z 33008KT 10SM SCT100 BKN120 28/07 A3000 RMK AO2 SLP159 T02780067
2026-04-04 21:53:00,METAR KSJC 042153Z 22003KT 10SM SCT100 BKN150 28/02 A3003 RMK AO2 SLP167 T02780022
2026-04-04 20:53:00,METAR KSJC 042053Z 00000KT 10SM SCT100 BKN150 26/04 A3005 RMK AO2 SLP174 T02610044 58019
2026-04-04 19:53:00,METAR KSJC 041953Z 00000KT 10SM SCT100 BKN150 24/05 A3008 RMK AO2 SLP183 T02390050
2026-04-04 18:53:00,METAR KSJC 041853Z 00000KT 10SM FEW100 BKN150 22/05 A3009 RMK AO2 SLP190 T02220050 $
2026-04-04 17:53:00,METAR KSJC 041753Z 00000KT 10SM FEW100 BKN150 19/04 A3011 RMK AO2 SLP194 T01940039 10200 20094 50000 $
2026-04-04 16:53:00,METAR KSJC 041653Z 00000KT 10SM BKN150 17/06 A3011 RMK AO2 SLP195 T01670056 $
2026-04-04 15:53:00,METAR KSJC 041553Z 00000KT 10SM BKN150 14/05 A3011 RMK AO2 SLP195 T01390050 $
2026-04-04 14:53:00,METAR KSJC 041453Z 18004KT 10SM BKN150 12/04 A3010 RMK AO2 SLP193 T01170044 53009 $
2026-04-04 13:53:00,METAR KSJC 041353Z 00000KT 10SM FEW080 BKN150 11/04 A3009 RMK AO2 SLP190 T01060044 $
2026-04-04 12:53:00,METAR KSJC 041253Z 00000KT 10SM FEW080 10/04 A3008 RMK AO2 SLP185 T01000039 $
2026-04-04 11:53:00,METAR KSJC 041153Z AUTO 00000KT 10SM CLR 12/03 A3008 RMK AO2 SLP184 T01170033 10161 20094 58013 $
2026-04-04 10:53:00,METAR KSJC 041053Z AUTO 14004KT 10SM CLR 11/04 A3009 RMK AO2 SLP190 T01060039 $
2026-04-04 09:53:00,METAR KSJC 040953Z AUTO 17003KT 10SM CLR 12/04 A3010 RMK AO2 SLP193 T01170039 $
2026-04-04 08:53:00,METAR KSJC 040853Z AUTO 16004KT 10SM CLR 11/03 A3011 RMK AO2 SLP197 T01110033 56001 $
2026-04-04 07:53:00,METAR KSJC 040753Z AUTO 11003KT 10SM CLR 13/04 A3012 RMK AO2 SLP198 T01280039 402390078
2026-04-04 06:53:00,METAR KSJC 040653Z 00000KT 10SM CLR 15/07 A3011 RMK AO2 SLP196 T01500067
2026-04-04 05:53:00,METAR KSJC 040553Z 34003KT 10SM FEW120 15/08 A3012 RMK AO2 SLP198 T01500078 10233 20150 51020
2026-04-04 04:53:00,METAR KSJC 040453Z 36004KT 10SM CLR 16/04 A3011 RMK AO2 SLP196 T01610039
2026-04-04 03:53:00,METAR KSJC 040353Z 33004KT 10SM CLR 18/04 A3009 RMK AO2 SLP188 T01780044
2026-04-04 02:53:00,METAR KSJC 040253Z 32008KT 10SM FEW100 17/05 A3006 RMK AO2 SLP178 T01720050 53007
2026-04-04 01:53:00,METAR KSJC 040153Z 32010KT 10SM FEW100 21/04 A3005 RMK AO2 SLP174 T02060044
2026-04-04 00:53:00,METAR KSJC 040053Z 31009KT 10SM FEW100 23/02 A3004 RMK AO2 SLP171 T02330017
2026-04-03 23:53:00,METAR KSJC 032353Z 32011KT 10SM FEW100 23/02 A3004 RMK AO2 SLP171 T02330017 10239 20183 56013
2026-04-03 22:53:00,METAR KSJC 032253Z 33011KT 10SM FEW100 23/03 A3004 RMK AO2 SLP173 T02330028
2026-04-03 21:53:00,METAR KSJC 032153Z 32011KT 10SM FEW075 23/03 A3007 RMK AO2 SLP180 T02330028
2026-04-03 20:53:00,METAR KSJC 032053Z 33013G17KT 10SM FEW075 23/02 A3008 RMK AO2 SLP185 T02280017 58014
2026-04-03 19:53:00,METAR KSJC 031953Z 32008KT 290V350 10SM FEW075 22/01 A3010 RMK AO2 SLP191 T02170011
2026-04-03 18:53:00,METAR KSJC 031853Z 33009KT 10SM CLR 20/M01 A3011 RMK AO2 SLP196 T02001006
2026-04-03 17:53:00,METAR KSJC 031753Z 35011G19KT 10SM CLR 18/M01 A3012 RMK AO2 SLP198 T01831011 10183 20078 58003
2026-04-03 16:53:00,METAR KSJC 031653Z 30006KT 10SM CLR 16/01 A3013 RMK AO2 SLP200 T01610011
2026-04-03 15:53:00,METAR KSJC 031553Z 25005KT 10SM CLR 14/04 A3013 RMK AO2 SLP203 T01390039
2026-04-03 14:53:00,METAR KSJC 031453Z 24003KT 10SM CLR 09/06 A3013 RMK AO2 SLP201 VIS LWR E T00940061 53007
2026-04-03 13:53:00,METAR KSJC 031353Z 00000KT 10SM CLR 09/06 A3011 RMK AO2 SLP196 T00890056
2026-04-03 12:53:00,METAR KSJC 031253Z 00000KT 10SM CLR 08/06 A3011 RMK AO2 SLP194 T00780056
2026-04-03 11:53:00,METAR KSJC 031153Z AUTO 09003KT 10SM CLR 08/06 A3011 RMK AO2 SLP194 T00830061 10122 20083 55006
2026-04-03 08:53:00,METAR KSJC 030853Z AUTO 11003KT 10SM CLR 10/07 A3013 RMK AO2 SLP201 T01000067 50003
2026-04-03 05:53:00,METAR KSJC 030553Z 28006KT 10SM CLR 12/06 A3012 RMK AO2 SLP197 T01170056 10178 20117 51012
2026-04-03 04:53:00,METAR KSJC 030453Z 30008KT 10SM CLR 12/06 A3011 RMK AO2 SLP197 T01220056
2026-04-03 03:53:00,METAR KSJC 030353Z 30008KT 10SM CLR 13/06 A3010 RMK AO2 SLP191 T01280056
2026-04-03 02:53:00,METAR KSJC 030253Z 32014KT 10SM CLR 14/06 A3008 RMK AO2 SLP186 T01390056 53010
2026-04-03 01:53:00,METAR KSJC 030153Z 32013KT 10SM CLR 16/04 A3007 RMK AO2 SLP180 T01610044
2026-04-03 00:53:00,METAR KSJC 030053Z 32013KT 10SM CLR 18/06 A3006 RMK AO2 SLP178 T01780056
2026-04-02 23:53:00,METAR KSJC 022353Z 32016KT 10SM CLR 18/05 A3005 RMK AO2 SLP175 T01780050 10183 20139 56016
2026-04-02 22:53:00,METAR KSJC 022253Z 31014KT 10SM FEW050 18/05 A3006 RMK AO2 SLP179 T01830050
2026-04-02 21:53:00,METAR KSJC 022153Z 33014G22KT 10SM FEW050 18/06 A3008 RMK AO2 SLP185 T01780056
2026-04-02 20:53:00,METAR KSJC 022053Z 32009G17KT 10SM FEW050 17/05 A3010 RMK AO2 SLP191 T01720050 58012
2026-04-02 19:53:00,METAR KSJC 021953Z 32011G20KT 10SM FEW050 16/06 A3011 RMK AO2 SLP195 T01610061
2026-04-02 18:53:00,METAR KSJC 021853Z 32011G18KT 10SM FEW050 15/06 A3012 RMK AO2 SLP199 T01500061
2026-04-02 17:53:00,METAR KSJC 021753Z 32009KT 10SM FEW010 FEW040 14/06 A3013 RMK AO2 SLP203 T01440056 10144 20100 53007
2026-04-02 16:53:00,METAR KSJC 021653Z 31006KT 10SM FEW010 FEW040 13/06 A3012 RMK AO2 SLP199 T01330061
2026-04-02 15:53:00,METAR KSJC 021553Z 31008KT 10SM FEW010 FEW040 12/07 A3012 RMK AO2 SLP197 T01220067
2026-04-02 14:53:00,METAR KSJC 021453Z 29005KT 10SM FEW010 FEW039 FEW055 11/07 A3011 RMK AO2 SLP195 T01060072 53022
2026-04-02 13:53:00,METAR KSJC 021353Z 32005KT 10SM FEW010 BKN029 BKN055 10/07 A3008 RMK AO2 SLP187 T01000072
2026-04-02 12:53:00,METAR KSJC 021253Z 30006KT 10SM BKN023 BKN030 OVC060 11/09 A3007 RMK AO2 SLP180 T01110089 $
2026-04-02 11:53:00,METAR KSJC 021153Z AUTO 31004KT 10SM BKN016 OVC025 11/09 A3005 RMK AO2 SLP173 60007 70009 T01110089 10150 20111 53006 $
2026-04-02 11:38:00,SPECI KSJC 021138Z AUTO 31006KT 10SM BKN015 OVC065 11/09 A3004 RMK AO2 T01110089 $
2026-04-02 11:17:00,SPECI KSJC 021117Z AUTO 32007KT 10SM FEW015 BKN031 OVC065 11/09 A3004 RMK AO2 T01110094 $
2026-04-02 10:53:00,METAR KSJC 021053Z AUTO 32011KT 9SM FEW009 SCT014 OVC021 12/10 A3004 RMK AO2 RAE0957B31E50 SLP172 P0001 T01170100 $
2026-04-02 10:42:00,SPECI KSJC 021042Z AUTO 32010G19KT 4SM -RA BR FEW009 SCT014 OVC020 12/10 A3004 RMK AO2 RAE0957B31 P0001 T01170100 $
2026-04-02 09:53:00,METAR KSJC 020953Z AUTO 31008KT 9SM -RA BKN023 OVC027 12/10 A3003 RMK AO2 WSHFT 0908 RAB02 SLP167 P0005 T01170100 $
2026-04-02 09:49:00,SPECI KSJC 020949Z AUTO 31007KT 5SM -RA BR FEW009 SCT018 OVC023 11/10 A3003 RMK AO2 WSHFT 0908 RAB02 P0005 $
2026-04-02 09:39:00,SPECI KSJC 020939Z AUTO 31008G19KT 2 1/2SM -RA BR FEW006 SCT012 OVC019 11/10 A3003 RMK AO2 WSHFT 0908 RAB02 P0005 T01110100 $
2026-04-02 09:26:00,SPECI KSJC 020926Z AUTO 30014G20KT 3SM -RA BR SCT006 BKN010 OVC017 12/11 A3003 RMK AO2 WSHFT 0908 RAB02 P0003 T01170106 $
2026-04-02 09:12:00,SPECI KSJC 020912Z AUTO 33013G19KT 2 1/2SM R30L/6000VP6000FT +RA BR FEW008 BKN017 OVC028 13/11 A3002 RMK AO2 VIS 1 1/4V5 RAB02 P0002 T01280111 $
2026-04-02 08:53:00,METAR KSJC 020853Z AUTO 00000KT 10SM BKN028 OVC034 14/11 A3001 RMK AO2 SLP163 60001 T01390111 53006 $
2026-04-02 08:42:00,SPECI KSJC 020842Z AUTO 00000KT 10SM BKN028 BKN041 OVC050 14/11 A3001 RMK AO2 T01390111 $
2026-04-02 08:29:00,SPECI KSJC 020829Z AUTO 18003KT 10SM SCT025 BKN030 OVC050 14/11 A3001 RMK AO2 T01390111 $
2026-04-02 07:53:00,METAR KSJC 020753Z AUTO 22005KT 10SM BKN025 OVC040 14/11 A3001 RMK AO2 RAB01E23 SLP162 P0001 T01440111 402000133 $
2026-04-02 07:17:00,SPECI KSJC 020717Z AUTO 16008KT 9SM -RA SCT029 OVC048 14/11 A3000 RMK AO2 RAB01 P0001 T01440111 $
2026-04-02 07:06:00,SPECI KSJC 020706Z AUTO 17007KT 10SM -RA BKN028 OVC046 14/11 A3000 RMK AO2 RAB01 P0000 T01440106 $
2026-04-02 06:53:00,METAR KSJC 020653Z 17008KT 10SM SCT030 BKN041 BKN075 15/10 A3000 RMK AO2 SLP157 T01500100 $
2026-04-02 05:53:00,METAR KSJC 020553Z 20007KT 10SM FEW028 SCT035 BKN050 15/09 A3000 RMK AO2 SLP157 60000 T01500094 10167 20150 53014 $
2026-04-02 04:53:00,METAR KSJC 020453Z 18004KT 10SM FEW028 SCT035 BKN050 16/09 A2999 RMK AO2 SLP153 T01560094 $
2026-04-02 03:53:00,METAR KSJC 020353Z 25003KT 10SM SCT022 BKN035 BKN040 15/10 A2996 RMK AO2 SLP146 RAB07RAE25 P0000 T01500100 $
2026-04-02 02:53:00,METAR KSJC 020253Z 25004KT 10SM SCT025 BKN032TCU OVC045 16/10 A2996 RMK AO2 SLP143 TCU ALQDS 60000 T01560100 53005 $
2026-04-02 01:53:00,METAR KSJC 020153Z 26007KT 10SM SCT025 BKN032TCU OVC045 16/11 A2995 RMK AO2 RAE04 SLP139 TCU ALQDS P0000 T01610111
2026-04-02 00:53:00,METAR KSJC 020053Z 03004KT 10SM -RA SCT025 BKN032TCU OVC045 16/12 A2994 RMK AO2 RAB34 SLP138 TCU ALQDS P0000 T01610122
2026-04-01 23:53:00,METAR KSJC 012353Z 05003KT 10SM SCT025 BKN032TCU OVC045 17/13 A2994 RMK AO2 RAE22 SLP138 TCU ALQDS P0001 60002 T01670133 10200 20167 55004
2026-04-01 22:53:00,METAR KSJC 012253Z 21008KT 7SM -RA SCT022 BKN030TCU OVC045 17/12 A2994 RMK AO2 RAB34 SLP137 TCU ALQDS P0001 T01720117
2026-04-01 21:53:00,METAR KSJC 012153Z 19006KT 10SM SCT025 BKN032TCU BKN045 19/10 A2994 RMK AO2 SLP138 TCU ALQDS T01940100
2026-04-01 20:53:00,METAR KSJC 012053Z 18010KT 10SM FEW025 BKN035TCU BKN045 19/10 A2995 RMK AO2 SLP142 TCU ALQDS T01890100 58001
2026-04-01 19:53:00,METAR KSJC 011953Z 22010G19KT 10SM FEW025 BKN035 BKN050 19/11 A2996 RMK AO2 SLP144 T01890106
2026-04-01 18:53:00,METAR KSJC 011853Z 18012G22KT 10SM FEW025 BKN037 BKN070 18/09 A2996 RMK AO2 SLP143 T01830094
2026-04-01 17:53:00,METAR KSJC 011753Z 18009G16KT 10SM FEW015 BKN030 BKN060 17/11 A2996 RMK AO2 SLP143 T01670106 10167 20144 53012
2026-04-01 16:53:00,METAR KSJC 011653Z VRB05KT 10SM FEW012 BKN030 OVC060 17/12 A2994 RMK AO2 SLP139 T01670117
2026-04-01 15:53:00,METAR KSJC 011553Z 18008KT 10SM FEW012 SCT025 BKN060 16/12 A2993 RMK AO2 SLP134 T01610117
2026-04-01 14:53:00,METAR KSJC 011453Z 17006KT 10SM FEW012 SCT025 BKN035 15/12 A2992 RMK AO2 SLP131 T01500117 53007
2026-04-01 13:53:00,METAR KSJC 011353Z 15006KT 10SM FEW012 BKN035 OVC060 14/12 A2991 RMK AO2 SLP127 T01440117
2026-04-01 12:53:00,METAR KSJC 011253Z 14008KT 10SM FEW037 OVC050 14/12 A2990 RMK AO2 SLP124 T01440117
2026-04-01 11:53:00,METAR KSJC 011153Z AUTO 14005KT 10SM BKN033 OVC047 14/12 A2990 RMK AO2 SLP125 60000 70002 T01440117 10156 20133 55002
2026-04-01 10:53:00,METAR KSJC 011053Z AUTO 15003KT 10SM BKN034 OVC049 14/11 A2990 RMK AO2 SLP123 T01440111
2026-04-01 09:53:00,METAR KSJC 010953Z AUTO 10005KT 10SM OVC042 14/12 A2989 RMK AO2 SLP122 T01440117
2026-04-01 08:53:00,METAR KSJC 010853Z AUTO 16004KT 10SM CLR 14/12 A2991 RMK AO2 SLP127 60000 T01390117 58001
2026-04-01 07:53:00,METAR KSJC 010753Z AUTO 13009KT 10SM SCT075 BKN100 14/12 A2991 RMK AO2 SLP126 T01440117 401720144
2026-04-01 06:53:00,METAR KSJC 010653Z 15005KT 10SM FEW028 SCT035 BKN060 15/12 A2992 RMK AO2 RAB18E27 SLP131 P0000 T01500122
2026-04-01 05:53:00,METAR KSJC 010553Z 19008KT 10SM FEW022 SCT035 BKN060 16/12 A2991 RMK AO2 RAB0457E13 SLP127 P0001 60001 T01560117 10172 20156 51009
2026-04-01 04:53:00,METAR KSJC 010453Z 17003KT 10SM BKN043 BKN085 16/11 A2991 RMK AO2 RAB0359E09 SLP127 P0000 T01610111
2026-04-01 03:53:00,METAR KSJC 010353Z 14006KT 10SM FEW025 SCT040 BKN085 16/11 A2990 RMK AO2 RAE02 SLP123 P0000 T01610111
2026-04-01 02:53:00,METAR KSJC 010253Z 19006KT 10SM -RA FEW025 SCT050 BKN085 16/11 A2988 RMK AO2 RAB44 SLP118 P0000 60000 T01610111 55001
2026-04-01 01:53:00,METAR KSJC 010153Z 22007KT 10SM FEW045 SCT060 BKN080 17/12 A2988 RMK AO2 SLP118 T01670117
2026-04-01 00:53:00,METAR KSJC 010053Z 18004KT 10SM FEW036 SCT065 BKN090 17/11 A2987 RMK AO2 SLP115 T01720111
2026-03-31 23:53:00,METAR KSJC 312353Z 13005KT 10SM FEW036 SCT065 BKN085 17/12 A2988 RMK AO2 SLP119 60000 T01720117 10172 20150 56012
2026-03-31 22:53:00,METAR KSJC 312253Z 20004KT 10SM FEW030 SCT065 BKN085 17/12 A2989 RMK AO2 SLP121 T01670122
2026-03-31 21:53:00,METAR KSJC 312153Z 13007KT 10SM FEW030 BKN075 BKN110 17/11 A2990 RMK AO2 SLP124 T01670111
2026-03-31 20:53:00,METAR KSJC 312053Z 16007G19KT 140V200 10SM FEW026 BKN075 BKN110 17/12 A2992 RMK AO2 SLP131 60000 T01720117 53006
2026-03-31 19:53:00,METAR KSJC 311953Z 15007KT 10SM FEW022 BKN075 OVC100 16/13 A2991 RMK AO2 RAB19E34 SLP129 P0000 T01610128
2026-03-31 18:53:00,METAR KSJC 311853Z 15008KT 10SM FEW045 BKN075 BKN090 16/13 A2990 RMK AO2 RAB16E49 SLP124 P0000 T01610133
2026-03-31 17:53:00,METAR KSJC 311753Z 14014KT 10SM FEW025 BKN075 OVC110 16/12 A2990 RMK AO2 RAB20E34 SLP124 P0000 60001 T01560122 10167 20150 56004
2026-03-31 16:53:00,METAR KSJC 311653Z 16013KT 10SM FEW026 BKN075 OVC100 15/11 A2990 RMK AO2 RAB02E10B33E47 SLP125 P0000 T01500111 $
2026-03-31 15:53:00,METAR KSJC 311553Z 13013KT 10SM FEW026 BKN075 OVC100 15/12 A2989 RMK AO2 RAB1457E52 PRESFR SLP121 P0001 T01500117 $
2026-03-31 14:53:00,METAR KSJC 311453Z 18006KT 10SM FEW026 BKN070 OVC100 16/11 A2991 RMK AO2 RAB1354E18 SLP128 P0000 60000 T01560111 51010 $
2026-03-31 13:53:00,METAR KSJC 311353Z 22005KT 10SM FEW026 BKN070 OVC110 16/09 A2990 RMK AO2 SLP126 T01610094 $
2026-03-31 12:53:00,METAR KSJC 311253Z 21006KT 10SM OVC100 17/09 A2989 RMK AO2 PRESRR SLP122 T01670089 $
2026-03-31 11:53:00,METAR KSJC 311153Z AUTO 16005KT 10SM OVC100 17/09 A2988 RMK AO2 SLP118 T01670094 10183 20161 56012 $
2026-03-31 10:53:00,METAR KSJC 311053Z AUTO 20011KT 10SM CLR 17/08 A2989 RMK AO2 SLP121 T01670083 $
2026-03-31 09:53:00,METAR KSJC 310953Z AUTO 18009G14KT 10SM SCT120 17/09 A2990 RMK AO2 SLP124 T01720094 $
2026-03-31 08:53:00,METAR KSJC 310853Z AUTO 00000KT 10SM CLR 16/12 A2992 RMK AO2 SLP130 T01610122 51014 $
2026-03-31 07:53:00,METAR KSJC 310753Z AUTO 00000KT 10SM SCT120 17/12 A2990 RMK AO2 SLP125 T01720122 402720133 $
2026-03-31 06:53:00,METAR KSJC 310653Z 31008KT 10SM CLR 18/12 A2989 RMK AO2 SLP121 T01780122 $
2026-03-31 05:53:00,METAR KSJC 310553Z 14005KT 10SM CLR 18/11 A2988 RMK AO2 SLP116 T01780111 10228 20178 50002 $
2026-03-31 04:53:00,METAR KSJC 310453Z 13007KT 10SM CLR 18/11 A2990 RMK AO2 SLP124 T01830111 $
2026-03-31 03:53:00,METAR KSJC 310353Z 15004KT 10SM BKN090 19/07 A2988 RMK AO2 SLP119 T01940067 $
2026-03-31 02:53:00,METAR KSJC 310253Z 00000KT 10SM BKN085 OVC100 20/07 A2987 RMK AO2 SLP114 T02000067 58009 $
2026-03-31 01:53:00,METAR KSJC 310153Z 21008KT 10SM BKN085 OVC100 21/04 A2988 RMK AO2 SLP118 T02110044 $
2026-03-31 00:53:00,METAR KSJC 310053Z VRB03KT 9SM BKN085 OVC100 22/07 A2990 RMK AO2 SLP123 T02220067 $
2026-03-30 23:53:00,METAR KSJC 302353Z 35003KT 10SM FEW060 BKN080 OVC100 22/11 A2990 RMK AO2 SLP123 T02170111 10272 20217 53000 $
2026-03-30 22:53:00,METAR KSJC 302253Z 31013KT 10SM FEW060 BKN080 OVC100 23/10 A2988 RMK AO2 SLP119 T02330100 $
2026-03-30 21:53:00,METAR KSJC 302153Z 32007KT 10SM FEW060 BKN080 OVC100 26/08 A2988 RMK AO2 SLP118 T02560083 $
2026-03-30 20:53:00,METAR KSJC 302053Z 00000KT 10SM FEW055 BKN080 OVC100 27/03 A2990 RMK AO2 SLP123 T02670033 56012 $
2026-03-30 19:53:00,METAR KSJC 301953Z 08003KT 10SM FEW055 BKN080 OVC100 26/04 A2991 RMK AO2 SLP128 T02610039 $
2026-03-30 18:53:00,METAR KSJC 301853Z 16003KT 10SM FEW055 BKN080 OVC100 24/06 A2992 RMK AO2 SLP130 T02440061 $
2026-03-30 17:53:00,METAR KSJC 301753Z 18003KT 10SM FEW055 BKN080 OVC100 22/07 A2993 RMK AO2 SLP135 T02220067 10222 20139 53005 $
2026-03-30 16:53:00,METAR KSJC 301653Z 00000KT 10SM FEW055 BKN080 OVC100 19/06 A2993 RMK AO2 SLP136 T01890061 $
2026-03-30 15:53:00,METAR KSJC 301553Z 18004KT 10SM FEW055 BKN080 OVC110 18/06 A2991 RMK AO2 SLP129 T01780056 $
2026-03-30 14:53:00,METAR KSJC 301453Z 00000KT 10SM FEW055 BKN080 OVC130 16/04 A2992 RMK AO2 SLP130 T01610044 53013 $
2026-03-30 13:53:00,METAR KSJC 301353Z 26003KT 10SM FEW055 BKN080 OVC110 14/04 A2988 RMK AO2 SLP118 T01440044 $
2026-03-30 12:53:00,METAR KSJC 301253Z 17003KT 10SM CLR 14/05 A2988 RMK AO2 SLP116 T01440050 $
2026-03-30 11:53:00,METAR KSJC 301153Z AUTO 14003KT 10SM CLR 14/06 A2988 RMK AO2 SLP117 T01440056 10206 20133 58013 $
2026-03-30 10:53:00,METAR KSJC 301053Z AUTO 16004KT 10SM CLR 13/06 A2989 RMK AO2 SLP121 T01330056 $
2026-03-30 09:53:00,METAR KSJC 300953Z AUTO 16003KT 10SM CLR 15/06 A2991 RMK AO2 SLP128 T01500056 $
2026-03-30 08:53:00,METAR KSJC 300853Z AUTO 15004KT 10SM CLR 17/06 A2992 RMK AO2 SLP130 T01670056 58002 $
2026-03-30 07:53:00,METAR KSJC 300753Z AUTO 13004KT 10SM CLR 17/06 A2992 RMK AO2 SLP130 T01670061 403000111 $
2026-03-30 06:53:00,METAR KSJC 300653Z 16003KT 10SM SCT160 19/06 A2993 RMK AO2 SLP133 T01890061 $
2026-03-30 05:53:00,METAR KSJC 300553Z 00000KT 10SM SCT160 20/04 A2992 RMK AO2 SLP132 T02000044 10283 20194 50006 $
2026-03-30 04:53:00,METAR KSJC 300453Z 29003KT 10SM SCT160 20/03 A2992 RMK AO2 SLP132 T02000033 $
2026-03-30 03:53:00,METAR KSJC 300353Z 35006KT 10SM SCT160 23/02 A2991 RMK AO2 SLP127 T02280022 $
2026-03-30 02:53:00,METAR KSJC 300253Z 33007KT 10SM FEW110 SCT160 23/04 A2990 RMK AO2 SLP125 T02330039 53004
2026-03-30 01:53:00,METAR KSJC 300153Z 34010KT 10SM FEW110 BKN160 25/08 A2990 RMK AO2 SLP123 T02500078
2026-03-30 00:53:00,METAR KSJC 300053Z 32013KT 10SM FEW080 FEW110 BKN160 26/07 A2989 RMK AO2 SLP122 T02610067
2026-03-29 23:53:00,METAR KSJC 292353Z 31014KT 10SM BKN150 28/07 A2989 RMK AO2 SLP122 T02830072 10300 20217 56017
2026-03-29 22:53:00,METAR KSJC 292253Z 32011KT 10SM SCT150 29/07 A2990 RMK AO2 SLP125 T02940072
2026-03-29 21:53:00,METAR KSJC 292153Z 32011KT 10SM BKN150 29/09 A2992 RMK AO2 SLP131 T02940089
2026-03-29 20:53:00,METAR KSJC 292053Z 33011KT 10SM BKN150 28/09 A2994 RMK AO2 SLP138 T02830094 58017
2026-03-29 19:53:00,METAR KSJC 291953Z 34005KT 10SM BKN150 26/09 A2997 RMK AO2 SLP146 T02610094
2026-03-29 18:53:00,METAR KSJC 291853Z 34006KT 10SM BKN150 25/08 A2998 RMK AO2 SLP152 T02500083
2026-03-29 17:53:00,METAR KSJC 291753Z 00000KT 10SM SCT150 22/08 A2999 RMK AO2 SLP156 T02170078 10217 20111 51004
2026-03-29 16:53:00,METAR KSJC 291653Z 00000KT 10SM FEW150 19/08 A2999 RMK AO2 SLP154 T01940078
2026-03-29 14:53:00,METAR KSJC 291453Z 00000KT 10SM CLR 13/07 A2998 RMK AO2 SLP151 T01330067 53010
2026-03-29 13:53:00,METAR KSJC 291353Z 00000KT 10SM FEW040 12/06 A2996 RMK AO2 SLP143 T01220061
2026-03-29 12:53:00,METAR KSJC 291253Z 16004KT 10SM CLR 12/06 A2995 RMK AO2 SLP140 T01220056
2026-03-29 11:53:00,METAR KSJC 291153Z AUTO 16003KT 10SM CLR 13/06 A2995 RMK AO2 SLP141 T01330056 10183 20128 58005
2026-03-29 10:53:00,METAR KSJC 291053Z AUTO 00000KT 10SM CLR 14/06 A2996 RMK AO2 SLP143 T01390056
2026-03-29 09:53:00,METAR KSJC 290953Z AUTO 00000KT 10SM CLR 15/06 A2996 RMK AO2 SLP145 T01500056
2026-03-29 08:53:00,METAR KSJC 290853Z AUTO 15003KT 10SM CLR 15/06 A2996 RMK AO2 SLP146 T01500061 58008
2026-03-29 07:53:00,METAR KSJC 290753Z AUTO 13003KT 10SM CLR 15/07 A2997 RMK AO2 SLP149 T01500072 402720100
2026-03-29 06:53:00,METAR KSJC 290653Z 00000KT 10SM CLR 17/07 A2998 RMK AO2 SLP151 T01720067
2026-03-29 05:53:00,METAR KSJC 290553Z 25003KT 10SM CLR 18/07 A2999 RMK AO2 SLP154 T01830072 10267 20178 50010
2026-03-29 04:53:00,METAR KSJC 290453Z 00000KT 10SM CLR 19/07 A2999 RMK AO2 SLP155 T01890072
2026-03-29 03:53:00,METAR KSJC 290353Z 31003KT 10SM CLR 19/06 A2998 RMK AO2 SLP151 T01890061
2026-03-29 02:53:00,METAR KSJC 290253Z COR 33005KT 10SM FEW080 19/08 A2996 RMK AO2 SLP144 T01940078 53003
2026-03-29 01:53:00,METAR KSJC 290153Z 32007KT 10SM SCT090 22/08 A2995 RMK AO2 SLP140 T02170083
2026-03-29 00:53:00,METAR KSJC 290053Z 31008KT 10SM FEW100 SCT120 25/06 A2995 RMK AO2 SLP140 T02500061
2026-03-28 23:53:00,METAR KSJC 282353Z 32010KT 10SM FEW100 SCT120 27/00 A2995 RMK AO2 SLP142 T02670000 10272 20194 56021
2026-03-28 22:53:00,METAR KSJC 282253Z 35005KT 10SM FEW100 SCT120 27/02 A2996 RMK AO2 SLP145 T02670022
2026-03-28 21:53:00,METAR KSJC 282153Z 29006KT 10SM FEW100 SCT140 26/02 A2998 RMK AO2 SLP153 T02560022
2026-03-28 20:53:00,METAR KSJC 282053Z 33009KT 10SM FEW100 SCT140 23/06 A3001 RMK AO2 SLP162 T02330061 58006
2026-03-28 19:53:00,METAR KSJC 281953Z 32009KT 10SM FEW100 SCT140 22/10 A3003 RMK AO2 SLP167 T02220100
2026-03-28 18:53:00,METAR KSJC 281853Z 31008KT 10SM FEW090 FEW120 21/12 A3004 RMK AO2 SLP170 T02060117
2026-03-28 17:53:00,METAR KSJC 281753Z 33007KT 10SM FEW090 20/08 A3003 RMK AO2 SLP168 T02000083 10206 20100 53007
2026-03-28 16:53:00,METAR KSJC 281653Z 00000KT 10SM CLR 18/07 A3001 RMK AO2 SLP162 T01780072
2026-03-28 15:53:00,METAR KSJC 281553Z 16005KT 10SM CLR 15/07 A3001 RMK AO2 SLP163 T01500072
2026-03-28 14:53:00,METAR KSJC 281453Z 16005KT 10SM CLR 12/06 A3001 RMK AO2 SLP161 T01220061 50012
2026-03-28 13:53:00,METAR KSJC 281353Z 00000KT 10SM CLR 10/06 A3001 RMK AO2 SLP162 T01000061
2026-03-28 12:53:00,METAR KSJC 281253Z 00000KT 10SM CLR 12/04 A2999 RMK AO2 SLP154 T01170044
2026-03-28 11:53:00,METAR KSJC 281153Z AUTO 00000KT 10SM CLR 13/04 A2997 RMK AO2 SLP149 T01280039 10178 20106 53004
2026-03-28 10:53:00,METAR KSJC 281053Z AUTO 14003KT 10SM CLR 11/04 A2996 RMK AO2 SLP145 T01110044
2026-03-28 09:53:00,METAR KSJC 280953Z AUTO 15003KT 10SM CLR 12/05 A2996 RMK AO2 SLP146 T01220050
2026-03-28 08:53:00,METAR KSJC 280853Z AUTO 15004KT 10SM CLR 13/05 A2996 RMK AO2 SLP145 T01330050 53001
2026-03-28 07:53:00,METAR KSJC 280753Z AUTO 00000KT 10SM CLR 16/06 A2996 RMK AO2 SLP145 T01610056 402780111
2026-03-28 06:53:00,METAR KSJC 280653Z 16004KT 10SM FEW140 17/06 A2996 RMK AO2 SLP143 T01720056
2026-03-28 05:53:00,METAR KSJC 280553Z 14003KT 10SM SCT140 17/06 A2996 RMK AO2 SLP144 T01720056 10278 20167 51012
2026-03-28 04:53:00,METAR KSJC 280453Z 24004KT 10SM SCT140 18/05 A2996 RMK AO2 SLP144 T01830050
2026-03-28 03:53:00,METAR KSJC 280353Z 34006KT 10SM FEW110 FEW140 19/06 A2994 RMK AO2 SLP139 T01890061
2026-03-28 02:53:00,METAR KSJC 280253Z 34011KT 10SM FEW080 FEW110 SCT140 20/08 A2993 RMK AO2 SLP133 T02000078 53009
2026-03-28 01:53:00,METAR KSJC 280153Z 32011KT 10SM FEW080 FEW120 SCT150 23/08 A2991 RMK AO2 SLP127 T02280078
2026-03-28 00:53:00,METAR KSJC 280053Z 35008KT 10SM FEW060 FEW110 SCT150 27/05 A2989 RMK AO2 SLP122 T02670050
2026-03-27 23:53:00,METAR KSJC 272353Z 33004KT 10SM FEW080 FEW110 SCT150 27/02 A2990 RMK AO2 SLP124 T02720022 10278 20194 56020
2026-03-27 22:53:00,METAR KSJC 272253Z 31005KT 10SM FEW060 FEW080 SCT110 27/06 A2991 RMK AO2 SLP129 T02720056
2026-03-27 21:53:00,METAR KSJC 272153Z 34006KT 10SM FEW060 FEW080 BKN110 26/05 A2993 RMK AO2 SLP134 VIRGA NW T02610050
2026-03-27 20:53:00,METAR KSJC 272053Z 34003KT 10SM FEW060 BKN080 BKN110 25/03 A2996 RMK AO2 SLP144 VIRGA SE-NW T02500033 57009
2026-03-27 19:53:00,METAR KSJC 271953Z 34003KT 10SM FEW060 BKN080 BKN110 24/04 A2997 RMK AO2 SLP146 VIRGA SW T02390044
2026-03-27 18:53:00,METAR KSJC 271853Z 00000KT 10SM SCT060 BKN080 BKN110 22/04 A2998 RMK AO2 SLP150 T02220044
2026-03-27 17:53:00,METAR KSJC 271753Z 00000KT 10SM SCT055 BKN080 OVC110 19/06 A2999 RMK AO2 SLP153 T01940056 10194 20111 51001
2026-03-27 16:53:00,METAR KSJC 271653Z 00000KT 10SM SCT055 BKN080 OVC110 17/07 A2998 RMK AO2 SLP152 T01720072
2026-03-25 14:53:00,METAR KSJC 251453Z 00000KT 10SM FEW055 FEW085 SCT110 12/03 A3008 RMK AO2 SLP186 T01220028 53012
2026-03-25 13:53:00,METAR KSJC 251353Z COR 17003KT 10SM FEW055 SCT085 SCT170 11/02 A3007 RMK AO2 SLP182 T01110017
2026-03-25 12:53:00,METAR KSJC 251253Z 00000KT 10SM CLR 11/02 A3006 RMK AO2 SLP177 T01110017
2026-03-25 11:53:00,METAR KSJC 251153Z AUTO 00000KT 10SM CLR 11/02 A3005 RMK AO2 SLP175 T01110017 10167 20111 55006
2026-03-25 10:53:00,METAR KSJC 251053Z AUTO 00000KT 10SM CLR 12/00 A3005 RMK AO2 SLP174 T01220000
2026-03-25 09:53:00,METAR KSJC 250953Z AUTO 00000KT 10SM CLR 12/00 A3005 RMK AO2 SLP175 T01170000
2026-03-25 08:53:00,METAR KSJC 250853Z AUTO 00000KT 10SM CLR 13/01 A3007 RMK AO2 SLP181 T01330006 50001
2026-03-25 07:53:00,METAR KSJC 250753Z AUTO 11003KT 10SM CLR 15/M02 A3007 RMK AO2 SLP183 T01501022 402670106
2026-03-25 06:53:00,METAR KSJC 250653Z 34003KT 10SM CLR 16/M05 A3007 RMK AO2 SLP182 T01561050
2026-03-25 05:53:00,METAR KSJC 250553Z 34006KT 10SM CLR 17/M03 A3007 RMK AO2 SLP180 T01671033 10261 20167 53016
2026-03-25 04:53:00,METAR KSJC 250453Z 34009KT 10SM CLR 17/01 A3006 RMK AO2 SLP177 T01720006
2026-03-25 03:53:00,METAR KSJC 250353Z 33006KT 10SM CLR 18/01 A3003 RMK AO2 SLP167 T01780011
2026-03-25 02:53:00,METAR KSJC 250253Z 33010KT 10SM FEW130 20/02 A3002 RMK AO2 SLP164 T02000022 53003
2026-03-25 01:53:00,METAR KSJC 250153Z 34010KT 10SM FEW130 22/03 A3001 RMK AO2 SLP163 T02170028
2026-03-25 00:53:00,METAR KSJC 250053Z 33014KT 10SM FEW080 FEW110 24/04 A3001 RMK AO2 SLP162 T02390044
2026-03-24 23:53:00,METAR KSJC 242353Z 32010KT 10SM FEW110 26/06 A3001 RMK AO2 SLP161 T02610056 10267 20217 56013
2026-03-24 22:53:00,METAR KSJC 242253Z 32011KT 10SM FEW080 FEW110 26/06 A3002 RMK AO2 SLP165 T02610061
2026-03-24 21:53:00,METAR KSJC 242153Z 33013KT 10SM FEW110 26/06 A3003 RMK AO2 SLP169 T02610056
2026-03-24 20:53:00,METAR KSJC 242053Z 33011KT 10SM FEW080 FEW110 27/01 A3005 RMK AO2 SLP174 T02670011 58012
2026-03-24 19:53:00,METAR KSJC 241953Z 32009KT 10SM FEW080 FEW110 26/03 A3006 RMK AO2 SLP179 T02560033
2026-03-24 18:53:00,METAR KSJC 241853Z 33007KT 10SM FEW080 FEW110 24/06 A3008 RMK AO2 SLP185 T02390061
2026-03-24 17:53:00,METAR KSJC 241753Z 30005KT 10SM FEW080 FEW110 22/07 A3008 RMK AO2 SLP185 T02170072 10217 20106 51006
2026-03-24 16:53:00,METAR KSJC 241653Z 00000KT 10SM FEW080 FEW110 19/07 A3008 RMK AO2 SLP183 T01890067
2026-03-24 15:53:00,METAR KSJC 241553Z 00000KT 10SM FEW080 FEW110 16/07 A3007 RMK AO2 SLP183 T01610067
2026-03-24 14:53:00,METAR KSJC 241453Z 14003KT 10SM FEW080 FEW110 13/07 A3006 RMK AO2 SLP179 T01330067 51007 $
2026-03-24 13:53:00,METAR KSJC 241353Z 00000KT 10SM FEW080 FEW110 12/06 A3005 RMK AO2 SLP177 T01170061 $
2026-03-24 12:53:00,METAR KSJC 241253Z 00000KT 10SM CLR 12/06 A3005 RMK AO2 SLP176 T01170061 $
2026-03-24 11:53:00,METAR KSJC 241153Z AUTO 00000KT 10SM CLR 12/07 A3004 RMK AO2 SLP172 T01220067 10183 20122 56007 $
2026-03-24 10:53:00,METAR KSJC 241053Z AUTO 00000KT 10SM CLR 13/07 A3005 RMK AO2 SLP174 T01280067 $
2026-03-24 09:53:00,METAR KSJC 240953Z AUTO 00000KT 10SM CLR 14/07 A3005 RMK AO2 SLP176 T01440067 $
2026-03-24 08:53:00,METAR KSJC 240853Z AUTO 11003KT 10SM CLR 14/07 A3006 RMK AO2 SLP179 T01440067 55001
2026-03-24 07:53:00,METAR KSJC 240753Z AUTO 00000KT 10SM CLR 17/07 A3006 RMK AO2 SLP179 T01670072 402780106
2026-03-24 06:53:00,METAR KSJC 240653Z 00000KT 10SM CLR 16/07 A3006 RMK AO2 SLP180 T01610067
2026-03-24 05:53:00,METAR KSJC 240553Z 01003KT 10SM CLR 17/07 A3007 RMK AO2 SLP180 T01720067 10250 20161 51015
2026-03-24 04:53:00,METAR KSJC 240453Z 35006KT 10SM CLR 18/07 A3007 RMK AO2 SLP180 T01780072
2026-03-24 03:53:00,METAR KSJC 240353Z 34008KT 10SM CLR 19/06 A3005 RMK AO2 SLP175 T01940056
2026-03-24 02:53:00,METAR KSJC 240253Z 33009KT 10SM FEW050 20/05 A3002 RMK AO2 SLP166 T02000050 51006
2026-03-24 01:53:00,METAR KSJC 240153Z 32010KT 10SM FEW070 21/04 A3002 RMK AO2 SLP163 T02110044
2026-03-24 00:53:00,METAR KSJC 240053Z 32014KT 10SM FEW070 FEW100 23/03 A3002 RMK AO2 PK WND 35026/0043 SLP163 T02330028
2026-03-23 23:53:00,METAR KSJC 232353Z 31012KT 10SM FEW070 SCT100 25/03 A3000 RMK AO2 SLP159 T02500028 10278 20206 56007
2026-03-23 22:53:00,METAR KSJC 232253Z 31013KT 10SM FEW070 SCT100 26/07 A3001 RMK AO2 SLP161 T02560067
2026-03-23 21:53:00,METAR KSJC 232153Z 32015KT 10SM FEW070 BKN100 27/07 A3001 RMK AO2 SLP162 T02670067
2026-03-23 20:53:00,METAR KSJC 232053Z 34010KT 10SM FEW070 BKN100 27/04 A3003 RMK AO2 SLP166 T02720044 58011
2026-03-23 19:53:00,METAR KSJC 231953Z 36005KT 10SM FEW070 BKN100 27/04 A3004 RMK AO2 SLP171 T02670039
2026-03-23 18:53:00,METAR KSJC 231853Z 00000KT 10SM FEW070 SCT100 24/07 A3006 RMK AO2 SLP178 T02390067
2026-03-23 17:53:00,METAR KSJC 231753Z 00000KT 10SM FEW070 FEW100 21/09 A3006 RMK AO2 SLP178 T02110089 10211 20106 50000
2026-03-23 17:27:00,SPECI KSJC 231727Z 00000KT 10SM FEW003 FEW070 FEW100 19/10 A3007 RMK AO2 FU FEW003 T01940100
2026-03-23 16:53:00,METAR KSJC 231653Z VRB03KT 9SM FEW070 FEW100 17/10 A3007 RMK AO2 SLP180 T01720100
2026-03-23 15:53:00,METAR KSJC 231553Z 00000KT 9SM FEW070 FEW100 14/10 A3006 RMK AO2 SLP177 T01440100
2026-03-23 14:53:00,METAR KSJC 231453Z 00000KT 9SM FEW007 FEW070 SCT100 12/09 A3006 RMK AO2 SLP178 FU FEW007 T01220089 53005
2026-03-23 14:30:00,SPECI KSJC 231430Z 00000KT 10SM FEW003 FEW070 FEW130 11/08 A3005 RMK AO2 FU FEW003 T01110083
2026-03-23 13:53:00,METAR KSJC 231353Z 17003KT 10SM FEW026 FEW070 11/08 A3004 RMK AO2 SLP172 T01110083
2026-03-23 12:53:00,METAR KSJC 231253Z 00000KT 10SM CLR 12/09 A3005 RMK AO2 SLP175 T01170089
2026-03-23 11:53:00,METAR KSJC 231153Z AUTO 00000KT 10SM CLR 12/09 A3004 RMK AO2 SLP173 T01220094 10133 20111 53005
2026-03-23 10:53:00,METAR KSJC 231053Z AUTO 00000KT 10SM CLR 12/09 A3002 RMK AO2 SLP166 T01170089
2026-03-23 09:53:00,METAR KSJC 230953Z AUTO 00000KT 10SM CLR 12/09 A3004 RMK AO2 SLP171 T01220094
2026-03-23 08:53:00,METAR KSJC 230853Z AUTO 31006KT 10SM CLR 12/09 A3003 RMK AO2 SLP167 T01170094 53006
2026-03-23 07:53:00,METAR KSJC 230753Z AUTO 31003KT 10SM CLR 13/09 A3001 RMK AO2 SLP160 T01280094 402670106
2026-03-23 06:53:00,METAR KSJC 230653Z 32006KT 10SM FEW140 12/09 A3001 RMK AO2 SLP163 T01220094
2026-03-23 05:53:00,METAR KSJC 230553Z 31005KT 10SM FEW140 13/09 A3001 RMK AO2 SLP160 T01280094 10256 20128 50017
2026-03-23 04:53:00,METAR KSJC 230453Z 34006KT 10SM FEW085 SCT140 14/10 A3001 RMK AO2 SLP162 T01440100
2026-03-23 03:53:00,METAR KSJC 230353Z 33009KT 10SM FEW060 SCT140 16/09 A2999 RMK AO2 SLP155 T01560094
2026-03-23 02:53:00,METAR KSJC 230253Z 32010KT 10SM FEW060 FEW080 BKN140 17/09 A2996 RMK AO2 SLP143 T01720094 53011
2026-03-23 01:53:00,METAR KSJC 230153Z 32011KT 10SM FEW080 FEW100 BKN140 19/10 A2994 RMK AO2 SLP137 T01890100
2026-03-23 00:53:00,METAR KSJC 230053Z 30008KT 10SM FEW080 FEW110 BKN140 23/12 A2992 RMK AO2 SLP132 T02330117
2026-03-22 23:53:00,METAR KSJC 222353Z 31011KT 10SM FEW080 FEW110 SCT170 26/08 A2992 RMK AO2 SLP132 T02560083 10267 20178 56016
2026-03-22 22:53:00,METAR KSJC 222253Z 33008KT 10SM FEW080 FEW110 FEW150 26/08 A2993 RMK AO2 SLP134 T02610083
2026-03-22 21:53:00,METAR KSJC 222153Z 30006KT 10SM FEW080 FEW120 26/09 A2994 RMK AO2 SLP137 T02560089
2026-03-22 20:53:00,METAR KSJC 222053Z 36006KT 10SM FEW120 23/09 A2997 RMK AO2 SLP149 T02330094 58012
2026-03-22 19:53:00,METAR KSJC 221953Z 32004KT 10SM SCT110 22/09 A2999 RMK AO2 SLP156 T02170094
2026-03-22 18:53:00,METAR KSJC 221853Z 34004KT 10SM SCT120 19/11 A3000 RMK AO2 SLP159 T01940106
2026-03-22 17:53:00,METAR KSJC 221753Z 34006KT 10SM SCT120 18/10 A3001 RMK AO2 SLP160 T01780100 10178 20106 51003
2026-03-22 16:53:00,METAR KSJC 221653Z 00000KT 9SM FEW090 16/10 A3000 RMK AO2 SLP157 T01560100
2026-03-22 15:53:00,METAR KSJC 221553Z 00000KT 8SM FEW090 13/09 A3001 RMK AO2 SLP161 T01330094
2026-03-22 14:53:00,METAR KSJC 221453Z 00000KT 7SM FEW090 11/09 A3000 RMK AO2 SLP157 T01110089 53009
2026-03-22 13:53:00,METAR KSJC 221353Z 00000KT 9SM FEW050 11/08 A2998 RMK AO2 SLP151 T01110083 $
2026-03-22 12:53:00,METAR KSJC 221253Z 00000KT 8SM CLR 11/09 A2997 RMK AO2 SLP147 T01110089 $
2026-03-22 11:53:00,METAR KSJC 221153Z AUTO 00000KT 8SM CLR 12/10 A2997 RMK AO2 SLP147 T01220100 10144 20106 55007 $
2026-03-22 10:53:00,METAR KSJC 221053Z AUTO 32006KT 8SM CLR 11/09 A2996 RMK AO2 SLP145 T01110089 $
2026-03-22 09:53:00,METAR KSJC 220953Z AUTO 00000KT 9SM CLR 13/09 A2996 RMK AO2 SLP145 T01280094 $
2026-03-22 08:53:00,METAR KSJC 220853Z AUTO 31004KT 9SM CLR 12/09 A2999 RMK AO2 SLP154 T01170094 58001 $
2026-03-22 07:53:00,METAR KSJC 220753Z AUTO 00000KT 9SM CLR 12/10 A3000 RMK AO2 SLP158 T01220100 402610122 $
2026-03-22 06:53:00,METAR KSJC 220653Z 32006KT 9SM CLR 14/10 A3000 RMK AO2 SLP158 T01390100 $
2026-03-22 05:53:00,METAR KSJC 220553Z 34006KT 10SM CLR 14/09 A2999 RMK AO2 SLP155 T01440089 10250 20144 51008 $
2026-03-22 04:53:00,METAR KSJC 220453Z 36006KT 10SM CLR 17/09 A2999 RMK AO2 SLP155 T01670089 $
2026-03-22 03:53:00,METAR KSJC 220353Z 34005KT 10SM CLR 17/11 A2998 RMK AO2 SLP153 T01720106 $
2026-03-22 02:53:00,METAR KSJC 220253Z 35009KT 10SM FEW060 18/09 A2997 RMK AO2 SLP147 T01830094 53005 $
2026-03-22 01:53:00,METAR KSJC 220153Z 33013KT 10SM SCT080 20/10 A2996 RMK AO2 SLP144 T02000100 $
2026-03-22 00:53:00,METAR KSJC 220053Z 32010KT 10SM SCT100 23/12 A2995 RMK AO2 SLP140 T02330122 $
2026-03-21 23:53:00,METAR KSJC 212353Z 32013KT 10SM SCT100 25/12 A2995 RMK AO2 SLP142 T02500117 10261 20200 55008 $
2026-03-21 22:53:00,METAR KSJC 212253Z 31010KT 10SM SCT100 26/12 A2995 RMK AO2 SLP142 T02610117 $
2026-03-21 21:53:00,METAR KSJC 212153Z 32008KT 10SM BKN100 25/12 A2996 RMK AO2 SLP145 T02500122 $
2026-03-21 20:53:00,METAR KSJC 212053Z 33011KT 10SM BKN100 23/13 A2998 RMK AO2 SLP150 T02330128 58004 $
2026-03-21 19:53:00,METAR KSJC 211953Z 33004KT 10SM BKN100 22/14 A2998 RMK AO2 SLP151 T02220139 $
2026-03-21 18:53:00,METAR KSJC 211853Z 34005KT 10SM BKN100 22/14 A2999 RMK AO2 SLP154 T02170139 $
2026-03-21 17:53:00,METAR KSJC 211753Z 00000KT 10SM BKN100 20/14 A2999 RMK AO2 SLP154 T02000139 10200 20144 51011 $
2026-03-21 16:53:00,METAR KSJC 211653Z 00000KT 10SM BKN100 18/13 A2999 RMK AO2 SLP154 T01830133 $
2026-03-21 15:53:00,METAR KSJC 211553Z COR 00000KT 10SM BKN150 17/14 A2998 RMK AO2 SLP150 T01720139 $
2026-03-21 14:53:00,METAR KSJC 211453Z 00000KT 10SM SCT150 16/12 A2995 RMK AO2 SLP143 T01610117 53020
2026-03-21 13:53:00,METAR KSJC 211353Z 00000KT 10SM SCT120 16/12 A2993 RMK AO2 SLP135 T01610122
2026-03-21 12:53:00,METAR KSJC 211253Z 00000KT 10SM SCT100 17/13 A2992 RMK AO2 SLP130 T01670128
2026-03-21 11:53:00,METAR KSJC 211153Z AUTO 32006KT 10SM CLR 16/13 A2990 RMK AO2 SLP123 T01560133 10233 20156 53001
2026-03-21 10:53:00,METAR KSJC 211053Z AUTO 27004KT 10SM CLR 18/11 A2989 RMK AO2 SLP122 T01780111
2026-03-21 09:53:00,METAR KSJC 210953Z AUTO 15009KT 10SM CLR 20/11 A2989 RMK AO2 SLP122 T02000111
2026-03-21 08:53:00,METAR KSJC 210853Z AUTO 15008KT 10SM CLR 20/11 A2989 RMK AO2 SLP122 T02000111 57002
2026-03-21 07:53:00,METAR KSJC 210753Z AUTO 15008KT 10SM CLR 21/11 A2989 RMK AO2 SLP122 T02110111 403110144
2026-03-21 06:53:00,METAR KSJC 210653Z 15007KT 10SM CLR 22/11 A2990 RMK AO2 SLP124 T02220106
2026-03-21 05:53:00,METAR KSJC 210553Z 17006KT 10SM CLR 23/12 A2990 RMK AO2 SLP124 T02330117 10306 20211 53014
2026-03-21 04:53:00,METAR KSJC 210453Z 00000KT 10SM CLR 26/11 A2988 RMK AO2 SLP118 T02560111
2026-03-21 03:53:00,METAR KSJC 210353Z 25003KT 10SM CLR 26/12 A2987 RMK AO2 SLP115 T02610117
2026-03-21 02:53:00,METAR KSJC 210253Z 00000KT 10SM FEW030 FEW140 28/11 A2986 RMK AO2 SLP111 T02780111 55002
2026-03-21 01:53:00,METAR KSJC 210153Z 32005KT 10SM FEW140 28/11 A2986 RMK AO2 SLP110 T02780106
2026-03-21 00:53:00,METAR KSJC 210053Z 31008KT 10SM CLR 30/13 A2986 RMK AO2 SLP110 T03000128
2026-03-20 23:53:00,METAR KSJC 202353Z 31007KT 10SM CLR 31/13 A2987 RMK AO2 SLP112 T03060133 10311 20239 56022
2026-03-20 22:53:00,METAR KSJC 202253Z 34006KT 10SM CLR 31/14 A2988 RMK AO2 SLP117 T03110144
2026-03-20 21:53:00,METAR KSJC 202153Z 32006KT 10SM CLR 31/14 A2990 RMK AO2 SLP125 T03110144
2026-03-20 20:53:00,METAR KSJC 202053Z 00000KT 10SM CLR 31/12 A2993 RMK AO2 SLP135 T03060117 58022
2026-03-20 19:53:00,METAR KSJC 201953Z 00000KT 10SM CLR 28/13 A2995 RMK AO2 SLP142 T02830133
2026-03-20 18:53:00,METAR KSJC 201853Z 00000KT 10SM CLR 27/14 A2997 RMK AO2 SLP149 T02670144
2026-03-20 17:53:00,METAR KSJC 201753Z 00000KT 10SM CLR 24/13 A3000 RMK AO2 SLP156 T02390133 10239 20144 50001
2026-03-20 16:53:00,METAR KSJC 201653Z 00000KT 10SM CLR 21/14 A3000 RMK AO2 SLP158 T02110139
2026-03-20 15:53:00,METAR KSJC 201553Z 00000KT 10SM CLR 19/13 A3000 RMK AO2 SLP156 T01890128
2026-03-20 14:53:00,METAR KSJC 201453Z 16003KT 10SM FEW090 16/11 A2999 RMK AO2 SLP156 T01560111 50001
2026-03-20 13:53:00,METAR KSJC 201353Z 00000KT 10SM FEW090 16/11 A3000 RMK AO2 SLP156 T01560111
2026-03-20 12:53:00,METAR KSJC 201253Z 18003KT 10SM CLR 17/12 A2999 RMK AO2 SLP156 T01670117
2026-03-20 11:53:00,METAR KSJC 201153Z AUTO 00000KT 10SM CLR 17/12 A2999 RMK AO2 SLP155 T01670117 10222 20156 56012
2026-03-20 10:53:00,METAR KSJC 201053Z AUTO 00000KT 10SM CLR 17/12 A3000 RMK AO2 SLP158 T01670117
2026-03-20 09:53:00,METAR KSJC 200953Z AUTO 14005KT 10SM CLR 17/12 A3001 RMK AO2 SLP162 T01670122
2026-03-20 08:53:00,METAR KSJC 200853Z AUTO 14003KT 10SM CLR 18/13 A3003 RMK AO2 SLP166 T01780128 56004
2026-03-20 07:53:00,METAR KSJC 200753Z AUTO 14003KT 10SM CLR 18/13 A3003 RMK AO2 SLP168 T01830133 402940144
2026-03-20 06:53:00,METAR KSJC 200653Z 14003KT 10SM CLR 20/13 A3003 RMK AO2 SLP169 T02000128
2026-03-20 05:53:00,METAR KSJC 200553Z 00000KT 10SM CLR 22/12 A3004 RMK AO2 SLP170 T02170117 10289 20211 51008
2026-03-20 04:53:00,METAR KSJC 200453Z 36003KT 10SM CLR 22/13 A3004 RMK AO2 SLP170 T02170133
2026-03-20 03:53:00,METAR KSJC 200353Z 36005KT 10SM CLR 24/13 A3003 RMK AO2 SLP167 T02390133
2026-03-20 02:53:00,METAR KSJC 200253Z 33007KT 10SM FEW040 26/14 A3001 RMK AO2 SLP162 T02610139 55003
2026-03-20 01:53:00,METAR KSJC 200153Z 32008KT 10SM CLR 27/14 A3001 RMK AO2 SLP161 T02670144
2026-03-20 00:53:00,METAR KSJC 200053Z 33009KT 10SM CLR 28/16 A3001 RMK AO2 SLP162 T02830161
2026-03-19 23:53:00,METAR KSJC 192353Z 33009KT 10SM CLR 29/16 A3002 RMK AO2 SLP165 T02890156 10294 20217 56021
2026-03-19 22:53:00,METAR KSJC 192253Z 32007KT 10SM CLR 29/15 A3004 RMK AO2 SLP172 T02890150
2026-03-19 21:53:00,METAR KSJC 192153Z 32005KT 10SM CLR 29/13 A3006 RMK AO2 SLP177 T02940128
2026-03-19 20:53:00,METAR KSJC 192053Z 00000KT 10SM CLR 28/14 A3008 RMK AO2 SLP186 T02830139 58018
2026-03-19 19:53:00,METAR KSJC 191953Z 00000KT 10SM CLR 26/14 A3011 RMK AO2 SLP195 T02610139
2026-03-19 18:53:00,METAR KSJC 191853Z 00000KT 10SM CLR 24/14 A3013 RMK AO2 SLP200 T02440144
2026-03-19 17:53:00,METAR KSJC 191753Z 33004KT 10SM CLR 22/14 A3014 RMK AO2 SLP204 T02170144 10217 20144 50007
2026-03-19 16:53:00,METAR KSJC 191653Z 00000KT 10SM FEW030 19/15 A3014 RMK AO2 SLP205 T01940150
2026-03-19 15:53:00,METAR KSJC 191553Z 32005KT 10SM FEW010 FEW030 17/14 A3014 RMK AO2 SLP204 T01720144
2026-03-19 14:53:00,METAR KSJC 191453Z 00000KT 10SM FEW010 FEW030 15/12 A3012 RMK AO2 SLP197 T01500122 51012
2026-03-19 13:53:00,METAR KSJC 191353Z COR 00000KT 10SM FEW024 14/12 A3010 RMK AO2 SLP193 T01440117
2026-03-19 12:53:00,METAR KSJC 191253Z 00000KT 10SM CLR 16/13 A3009 RMK AO2 SLP190 T01560128
2026-03-19 11:53:00,METAR KSJC 191153Z AUTO 00000KT 10SM CLR 16/14 A3008 RMK AO2 SLP185 T01610139 10217 20150 56005
2026-03-19 10:53:00,METAR KSJC 191053Z AUTO 00000KT 10SM CLR 17/13 A3008 RMK AO2 SLP186 T01670133
2026-03-19 09:53:00,METAR KSJC 190953Z AUTO 00000KT 10SM CLR 17/12 A3009 RMK AO2 SLP188 T01670122
2026-03-19 08:53:00,METAR KSJC 190853Z AUTO 00000KT 10SM CLR 18/12 A3010 RMK AO2 SLP190 T01830122 51004
2026-03-19 07:53:00,METAR KSJC 190753Z AUTO 27003KT 10SM CLR 19/10 A3009 RMK AO2 SLP190 T01890100 403060144
2026-03-19 06:53:00,METAR KSJC 190653Z 00000KT 10SM CLR 22/09 A3009 RMK AO2 SLP187 T02170089
2026-03-19 05:53:00,METAR KSJC 190553Z 14003KT 10SM CLR 21/09 A3008 RMK AO2 SLP186 T02110089 10294 20194 51015
2026-03-19 04:53:00,METAR KSJC 190453Z 00000KT 10SM CLR 22/08 A3008 RMK AO2 SLP184 T02220083
2026-03-19 03:53:00,METAR KSJC 190353Z 30003KT 10SM CLR 23/09 A3006 RMK AO2 SLP179 T02280089
2026-03-19 02:53:00,METAR KSJC 190253Z 32007KT 10SM CLR 23/10 A3004 RMK AO2 SLP171 T02280100 53014
2026-03-19 01:53:00,METAR KSJC 190153Z 33009KT 10SM CLR 25/12 A3002 RMK AO2 SLP165 T02500122
2026-03-19 00:53:00,METAR KSJC 190053Z 33010KT 10SM CLR 28/15 A3001 RMK AO2 SLP160 T02780150
2026-03-18 23:53:00,METAR KSJC 182353Z 32009KT 10SM CLR 29/14 A3000 RMK AO2 SLP157 T02940144 10306 20233 56009
2026-03-18 22:53:00,METAR KSJC 182253Z 33008KT 10SM CLR 31/16 A3000 RMK AO2 SLP157 T03060156
2026-03-18 21:53:00,METAR KSJC 182153Z 30003KT 10SM CLR 29/16 A3001 RMK AO2 SLP161 T02940156
2026-03-18 20:53:00,METAR KSJC 182053Z 31007KT 10SM CLR 29/13 A3003 RMK AO2 SLP167 T02940133 58010
2026-03-18 19:53:00,METAR KSJC 181953Z 35004KT 10SM CLR 28/14 A3004 RMK AO2 SLP171 T02830144
2026-03-18 18:53:00,METAR KSJC 181853Z 25003KT 10SM CLR 26/14 A3005 RMK AO2 SLP175 T02610139
2026-03-18 17:53:00,METAR KSJC 181753Z 00000KT 10SM CLR 24/13 A3006 RMK AO2 SLP177 T02390133 10239 20144 51008
2026-03-18 16:53:00,METAR KSJC 181653Z 00000KT 10SM FEW090 FEW110 21/13 A3005 RMK AO2 SLP176 T02110133
2026-03-18 15:53:00,METAR KSJC 181553Z 23003KT 10SM FEW065 FEW090 FEW110 19/12 A3004 RMK AO2 SLP170 T01890122
2026-03-18 14:53:00,METAR KSJC 181453Z 15004KT 10SM FEW065 FEW090 FEW110 15/12 A3003 RMK AO2 SLP169 T01500117 53009
2026-03-18 13:53:00,METAR KSJC 181353Z 15003KT 10SM FEW065 FEW090 14/11 A3002 RMK AO2 SLP166 T01440111
2026-03-18 12:53:00,METAR KSJC 181253Z 00000KT 10SM CLR 16/12 A3001 RMK AO2 SLP162 T01560117
2026-03-18 11:53:00,METAR KSJC 181153Z AUTO 00000KT 10SM CLR 17/12 A3000 RMK AO2 SLP159 T01720117 10228 20161 53000
2026-03-18 10:53:00,METAR KSJC 181053Z AUTO 15003KT 10SM CLR 16/12 A3000 RMK AO2 SLP158 T01610117
2026-03-18 09:53:00,METAR KSJC 180953Z AUTO 14003KT 10SM CLR 17/12 A3001 RMK AO2 SLP160 T01670122
2026-03-18 08:53:00,METAR KSJC 180853Z AUTO 15003KT 10SM CLR 18/13 A3000 RMK AO2 SLP159 T01780128 53009
2026-03-18 07:53:00,METAR KSJC 180753Z AUTO 16003KT 10SM CLR 18/12 A2999 RMK AO2 SLP154 T01830122 402940133
2026-03-18 06:53:00,METAR KSJC 180653Z 00000KT 10SM CLR 22/13 A2999 RMK AO2 SLP153 T02170128
2026-03-18 05:53:00,METAR KSJC 180553Z 00000KT 10SM CLR 23/13 A2998 RMK AO2 SLP150 T02280128 10294 20217 51012
2026-03-18 04:53:00,METAR KSJC 180453Z 00000KT 10SM CLR 23/12 A2997 RMK AO2 SLP147 T02330122
2026-03-18 03:53:00,METAR KSJC 180353Z 35005KT 10SM CLR 23/12 A2996 RMK AO2 SLP144 T02280122
2026-03-18 02:53:00,METAR KSJC 180253Z 33006KT 10SM CLR 24/12 A2994 RMK AO2 SLP138 T02440117 53005
2026-03-18 01:53:00,METAR KSJC 180153Z 32008KT 10SM FEW120 FEW160 26/12 A2993 RMK AO2 SLP133 T02610122
2026-03-18 00:53:00,METAR KSJC 180053Z 33007KT 10SM FEW110 FEW160 29/14 A2992 RMK AO2 SLP131 T02890139
2026-03-17 23:53:00,METAR KSJC 172353Z 34008KT 10SM FEW110 FEW150 29/13 A2993 RMK AO2 SLP133 T02940128 10294 20222 56019
2026-03-17 22:53:00,METAR KSJC 172253Z 34007KT 10SM FEW110 FEW150 29/13 A2995 RMK AO2 SLP140 T02940128
2026-03-17 21:53:00,METAR KSJC 172153Z 33005KT 10SM FEW110 FEW150 29/13 A2996 RMK AO2 SLP143 T02940128
2026-03-17 20:53:00,METAR KSJC 172053Z 00000KT 10SM FEW070 BKN110 28/12 A2998 RMK AO2 SLP152 T02830117 58017
2026-03-17 19:53:00,METAR KSJC 171953Z 00000KT 10SM FEW070 BKN110 27/10 A3001 RMK AO2 SLP161 T02670100
2026-03-17 18:53:00,METAR KSJC 171853Z 00000KT 10SM FEW070 BKN110 25/11 A3003 RMK AO2 SLP166 T02500111
2026-03-17 17:53:00,METAR KSJC 171753Z 00000KT 10SM FEW070 SCT110 22/10 A3003 RMK AO2 SLP168 T02220100 10222 20133 50007
2026-03-17 16:53:00,METAR KSJC 171653Z 00000KT 10SM FEW070 FEW110 20/11 A3003 RMK AO2 SLP169 T02000106
2026-03-17 15:53:00,METAR KSJC 171553Z 00000KT 10SM FEW070 FEW110 17/10 A3002 RMK AO2 SLP166 T01720100
2026-03-17 14:53:00,METAR KSJC 171453Z 00000KT 10SM FEW070 FEW110 15/08 A3001 RMK AO2 SLP161 T01500083 53007
2026-03-17 13:53:00,METAR KSJC 171353Z 18003KT 10SM CLR 14/08 A2999 RMK AO2 SLP155 T01440078
2026-03-17 12:53:00,METAR KSJC 171253Z 00000KT 10SM CLR 14/07 A2999 RMK AO2 SLP155 T01390072
2026-03-17 11:53:00,METAR KSJC 171153Z AUTO 00000KT 10SM CLR 15/07 A2999 RMK AO2 SLP154 T01500072 10206 20144 58003
2026-03-17 10:53:00,METAR KSJC 171053Z AUTO 00000KT 10SM CLR 15/08 A2999 RMK AO2 SLP156 T01500078
2026-03-17 09:53:00,METAR KSJC 170953Z AUTO 00000KT 10SM CLR 16/08 A3000 RMK AO2 SLP158 T01560078
2026-03-17 08:53:00,METAR KSJC 170853Z AUTO 13004KT 10SM CLR 16/08 A3000 RMK AO2 SLP158 T01610078 58005
2026-03-17 07:53:00,METAR KSJC 170753Z AUTO 15003KT 10SM CLR 16/08 A3001 RMK AO2 SLP160 T01610083 402940106
2026-03-17 06:53:00,METAR KSJC 170653Z 12003KT 10SM CLR 18/09 A3001 RMK AO2 SLP163 T01780089
2026-03-17 05:53:00,METAR KSJC 170553Z 11003KT 10SM CLR 20/08 A3001 RMK AO2 SLP163 T02000083 10289 20189 51013
2026-03-17 04:53:00,METAR KSJC 170453Z 00000KT 10SM CLR 22/08 A3001 RMK AO2 SLP160 T02170083
2026-03-17 03:53:00,METAR KSJC 170353Z 31007KT 10SM CLR 21/08 A2999 RMK AO2 SLP156 T02060083
2026-03-17 02:53:00,METAR KSJC 170253Z 31008KT 10SM FEW038 23/11 A2998 RMK AO2 SLP149 T02280106 53001
2026-03-17 01:53:00,METAR KSJC 170153Z 32006KT 10SM CLR 24/09 A2996 RMK AO2 SLP145 T02440089
2026-03-17 00:53:00,METAR KSJC 170053Z 31007KT 10SM FEW080 FEW100 28/10 A2996 RMK AO2 SLP146 T02780100
2026-03-16 23:53:00,METAR KSJC 162353Z 32008KT 10SM FEW080 SCT100 29/09 A2997 RMK AO2 SLP149 T02890089 10294 20222 56021
2026-03-16 22:53:00,METAR KSJC 162253Z 31008KT 10SM FEW060 SCT100 29/08 A2999 RMK AO2 SLP155 T02890083
2026-03-16 21:53:00,METAR KSJC 162153Z 32008KT 10SM FEW060 SCT100 29/09 A3001 RMK AO2 SLP161 T02890089
2026-03-16 20:53:00,METAR KSJC 162053Z 32007KT 10SM FEW060 SCT100 28/09 A3003 RMK AO2 SLP169 T02780094 58018
2026-03-16 19:53:00,METAR KSJC 161953Z 34006KT 10SM FEW060 SCT100 27/08 A3006 RMK AO2 SLP179 T02670078
2026-03-16 18:53:00,METAR KSJC 161853Z 00000KT 10SM FEW060 SCT100 25/09 A3008 RMK AO2 SLP184 T02500089
2026-03-16 17:53:00,METAR KSJC 161753Z VRB03KT 10SM FEW060 SCT100 22/09 A3009 RMK AO2 SLP188 T02220089 10222 20106 51006
2026-03-16 16:53:00,METAR KSJC 161653Z 00000KT 10SM FEW060 SCT100 19/08 A3008 RMK AO2 SLP186 T01890083
2026-03-16 15:53:00,METAR KSJC 161553Z 00000KT 10SM FEW060 SCT100 SCT150 16/07 A3008 RMK AO2 SLP184 T01560072
2026-03-16 14:53:00,METAR KSJC 161453Z 00000KT 10SM FEW060 FEW100 12/07 A3007 RMK AO2 SLP181 T01220067 51007
2026-03-16 13:53:00,METAR KSJC 161353Z 00000KT 10SM FEW060 FEW100 13/07 A3006 RMK AO2 SLP179 T01280067
2026-03-16 12:53:00,METAR KSJC 161253Z 16003KT 10SM CLR 11/06 A3006 RMK AO2 SLP177 T01110061 $
2026-03-16 11:53:00,METAR KSJC 161153Z AUTO 00000KT 10SM CLR 13/07 A3005 RMK AO2 SLP174 T01330067 10189 20128 55004 $
2026-03-16 10:53:00,METAR KSJC 161053Z AUTO 00000KT 10SM CLR 13/07 A3005 RMK AO2 SLP173 T01330067 $
2026-03-16 09:53:00,METAR KSJC 160953Z AUTO 16003KT 10SM CLR 14/07 A3005 RMK AO2 SLP176 T01440072 $
2026-03-16 08:53:00,METAR KSJC 160853Z AUTO 00000KT 10SM CLR 14/08 A3006 RMK AO2 SLP178 T01440078 56006 $
2026-03-16 07:53:00,METAR KSJC 160753Z AUTO 00000KT 10SM CLR 16/08 A3006 RMK AO2 SLP180 T01560078 402670100
2026-03-16 06:53:00,METAR KSJC 160653Z 00000KT 10SM CLR 17/08 A3007 RMK AO2 SLP182 T01670083
2026-03-16 05:53:00,METAR KSJC 160553Z 00000KT 10SM CLR 19/08 A3008 RMK AO2 SLP184 T01890078 10256 20183 53006
2026-03-16 04:53:00,METAR KSJC 160453Z 00000KT 10SM CLR 20/08 A3007 RMK AO2 SLP182 T02000078
2026-03-16 03:53:00,METAR KSJC 160353Z 32005KT 10SM CLR 18/08 A3006 RMK AO2 SLP179 T01830078
2026-03-16 02:53:00,METAR KSJC 160253Z 34008KT 10SM FEW180 21/08 A3006 RMK AO2 SLP178 T02110083 53006
2026-03-16 01:53:00,METAR KSJC 160153Z 33009KT 10SM FEW180 23/08 A3005 RMK AO2 SLP173 T02280083
2026-03-16 00:53:00,METAR KSJC 160053Z 32011KT 10SM FEW180 25/07 A3004 RMK AO2 SLP170 T02500067
2026-03-15 23:53:00,METAR KSJC 152353Z 33008KT 10SM FEW180 26/07 A3004 RMK AO2 SLP172 T02560072 10267 20189 55015
2026-03-15 22:53:00,METAR KSJC 152253Z 32009KT 10SM FEW160 27/08 A3004 RMK AO2 SLP171 T02670078
2026-03-15 21:53:00,METAR KSJC 152153Z 33009KT 10SM FEW160 26/08 A3006 RMK AO2 SLP178 T02560078
2026-03-15 20:53:00,METAR KSJC 152053Z 33008KT 10SM FEW160 25/08 A3009 RMK AO2 SLP187 T02500083 58016
2026-03-15 19:53:00,METAR KSJC 151953Z 31007KT 10SM SCT200 23/10 A3011 RMK AO2 SLP194 T02330100
2026-03-15 18:53:00,METAR KSJC 151853Z 35006KT 10SM SCT200 21/11 A3013 RMK AO2 SLP201 T02110106
2026-03-15 17:53:00,METAR KSJC 151753Z 34006KT 10SM SCT200 19/12 A3013 RMK AO2 SLP203 T01890117 10189 20100 50001
2026-03-15 16:53:00,METAR KSJC 151653Z 00000KT 10SM FEW200 16/12 A3014 RMK AO2 SLP206 T01560117
2026-03-15 15:53:00,METAR KSJC 151553Z 15003KT 10SM SCT200 13/10 A3014 RMK AO2 SLP205 T01280100
2026-03-15 14:53:00,METAR KSJC 151453Z 00000KT 10SM FEW012 SCT200 11/09 A3013 RMK AO2 SLP202 T01060089 53012
2026-03-15 13:53:00,METAR KSJC 151353Z 00000KT 10SM FEW085 11/09 A3011 RMK AO2 SLP195 T01060089
2026-03-15 12:53:00,METAR KSJC 151253Z 00000KT 10SM CLR 11/09 A3010 RMK AO2 SLP192 T01110094
2026-03-15 11:53:00,METAR KSJC 151153Z AUTO 00000KT 10SM CLR 12/10 A3009 RMK AO2 SLP190 T01170100 10139 20111 55002
2026-03-15 10:53:00,METAR KSJC 151053Z AUTO 00000KT 10SM CLR 12/10 A3009 RMK AO2 SLP190 T01220100
2026-03-15 09:53:00,METAR KSJC 150953Z AUTO 23003KT 10SM CLR 12/11 A3010 RMK AO2 SLP191 T01220106
2026-03-15 08:53:00,METAR KSJC 150853Z AUTO 00000KT 10SM CLR 13/11 A3010 RMK AO2 SLP192 T01280111 55000
