Time_recorded,METAR
2026-05-02 15:00:00,METAR VRMM 021500Z 25006KT 9999 FEW017TCU SCT022 30/27 Q1008 TEMPO 5000 TSRA
2026-05-02 14:00:00,METAR VRMM 021400Z 25009KT 9999 SCT017TCU BKN022 30/27 Q1008 TEMPO 5000 TSRA
2026-05-02 13:00:00,"METAR VRMM 021300Z 27010KT 9999 FEW017 FEW018CB BKN022 30/28 Q1006 CB N,NNE,SE TEMPO 5000 TSRA"
2026-05-02 12:00:00,"METAR VRMM 021200Z 25010KT 9999 FEW017 FEW018CB BKN100 30/27 Q1007 CB N,ENE TEMPO 5000 TSRA"
2026-05-02 11:00:00,"METAR VRMM 021100Z 27011KT 8000 -RA FEW016 FEW017CB SCT022 BKN100 29/27 Q1007 CB SW,W TEMPO 4000 TSRA"
2026-05-02 10:00:00,"METAR VRMM 021000Z 24005KT 6000 -SHRA FEW016 FEW017CB BKN100 26/26 Q1008 RESHRA CB ENE,S,SW TEMPO 4000 TSRA"
2026-05-02 08:00:00,"METAR VRMM 020800Z 25011KT 9999 FEW017 FEW018CB BKN110 32/29 Q1009 CB N,NNE,NE,W,NW TEMPO 5000 SHRA"
2026-05-02 07:00:00,METAR VRMM 020700Z 24014KT 9999 SCT017 FEW018CB BKN270 32/28 Q1010 CB ENE TEMPO 5000 SHRA
2026-05-02 06:00:00,METAR VRMM 020600Z 25012KT 9999 SCT017TCU BKN270 33/28 Q1011 NOSIG
2026-05-02 05:00:00,METAR VRMM 020500Z 24011KT 9999 SCT017TCU BKN270 32/28 Q1011 NOSIG
2026-05-02 04:00:00,METAR VRMM 020400Z 25010KT 9999 FEW017 FEW018CB BKN270 31/28 Q1011 CB ESE TEMPO 5000 TSRA
2026-05-02 03:00:00,"METAR VRMM 020300Z 23007KT 9999 SCT018 FEW019CB BKN280 31/27 Q1011 CB SE,W TEMPO 5000 TSRA"
2026-05-02 02:00:00,METAR VRMM 020200Z 25011KT 9999 FEW018TCU BKN280 30/27 Q1009 RETS TEMPO 5000 TSRA
2026-05-02 01:00:00,METAR VRMM 020100Z 25008KT 9999 FEW018TCU BKN280 30/27 Q1009 RETS TEMPO 5000 TSRA
2026-05-02 00:00:00,METAR VRMM 020000Z 25007KT 9999 TS FEW018 FEW019CB BKN280 29/27 Q1008 RETS 5000 TSRA
2026-05-01 23:00:00,"METAR VRMM 012300Z 25008KT 9999 FEW018 FEW019CB BKN280 30/27 Q1008 RETS CB NE,ENE 5000 TSRA"
2026-05-01 22:00:00,METAR VRMM 012200Z 25010KT 9999 TS FEW017 FEW018CB BKN280 30/27 Q1008 RETS CB ENE 5000 TSRA
2026-05-01 21:00:00,"METAR VRMM 012100Z 25009KT 9999 TS FEW017 FEW018CB BKN280 30/27 Q1009 RETS CB NNE,NE 5000 TSRA"
2026-05-01 20:00:00,"METAR VRMM 012000Z 25008KT 9999 TS FEW017 FEW018CB BKN280 30/27 Q1009 RETS CB ENE,SE 5000 TSRA"
2026-05-01 19:00:00,METAR VRMM 011900Z 25009KT 9999 FEW018 FEW019CB SCT280 30/26 Q1010 CB N NOSIG
2026-05-01 18:00:00,METAR VRMM 011800Z 26009KT 9999 FEW018TCU BKN270 30/27 Q1011 NOSIG
2026-05-01 17:00:00,METAR VRMM 011700Z 27009KT 9999 FEW018TCU BKN270 30/27 Q1011 NOSIG
2026-05-01 16:00:00,METAR VRMM 011600Z 25008KT 9999 FEW018TCU BKN270 30/27 Q1011 NOSIG
2026-05-01 15:00:00,METAR VRMM 011500Z 26010KT 9999 FEW017 FEW018CB BKN270 30/27 Q1010 CB ESE NOSIG
2026-05-01 14:00:00,METAR VRMM 011400Z 27010KT 9999 FEW017TCU BKN270 30/27 Q1009 NOSIG
2026-05-01 13:00:00,METAR VRMM 011300Z 27008KT 9999 FEW017TCU SCT120 BKN270 30/27 Q1008 NOSIG
2026-05-01 12:00:00,METAR VRMM 011200Z 30009KT 9999 FEW017TCU SCT120 BKN270 31/28 Q1008 NOSIG
2026-05-01 11:00:00,"METAR VRMM 011100Z 30009KT 9999 FEW017 FEW018CB SCT120 BKN270 31/26 Q1007 CB N,NE NOSIG"
2026-05-01 10:00:00,"METAR VRMM 011000Z 29010KT 9999 FEW017 FEW018CB BKN270 31/26 Q1007 CB N,NE NOSIG"
2026-05-01 09:00:00,METAR VRMM 010900Z 29010KT 9999 FEW017 FEW018CB BKN270 32/27 Q1008 CB N NOSIG
2026-05-01 08:00:00,METAR VRMM 010800Z 27011KT 9999 FEW017 FEW018CB BKN270 31/28 Q1009 CB N NOSIG
2026-05-01 07:00:00,METAR VRMM 010700Z 26011KT 9999 FEW017TCU SCT120 BKN260 32/28 Q1010 TEMPO FEW018CB
2026-05-01 06:00:00,METAR VRMM 010600Z 24012KT 9999 FEW017TCU SCT120 BKN260 31/27 Q1011 TEMPO FEW018CB
2026-05-01 05:00:00,METAR VRMM 010500Z 23008KT 9999 SCT017TCU BKN110 31/27 Q1012 TEMPO 4000 TSRA
2026-05-01 04:00:00,METAR VRMM 010400Z 24008KT 9000 -SHRA SCT017TCU OVC100 29/26 Q1012 TEMPO 4000 TSRA
2026-05-01 03:00:00,METAR VRMM 010300Z 25010KT 9999 SCT016 FEW017CB BKN110 29/27 Q1011 CB SW TEMPO 4000 TSRA
2026-05-01 02:00:00,METAR VRMM 010200Z 25004KT 9000 SCT016 FEW017CB BKN110 28/26 Q1010 RETSRA CB ESE TEMPO 4000 TSRA
2026-05-01 01:00:00,"METAR VRMM 010100Z 27006KT 9000 -TSRA SCT017 FEW018CB BKN270 30/27 Q1010 RETS CB ENE,W TEMPO TS"
2026-05-01 00:00:00,"METAR VRMM 010000Z 27008KT 9999 TS FEW017 FEW018CB BKN270 30/27 Q1009 RETS CB E,W TEMPO TS"
2026-04-30 23:00:00,METAR VRMM 302300Z 26010KT 9999 TS FEW017 FEW018CB SCT120 BKN280 30/26 Q1009 RETS CB E TEMPO TS
2026-04-30 22:00:00,METAR VRMM 302200Z 27010KT 9999 TS FEW017 FEW018CB SCT120 BKN280 30/27 Q1008 RETS CB ENE TEMPO TS
2026-04-30 21:00:00,METAR VRMM 302100Z 27010KT 9999 TS FEW017 FEW018CB BKN280 30/27 Q1010 RETS CB NNE TEMPO TS
2026-04-30 19:00:00,METAR VRMM 301900Z 26012KT 9999 FEW018TCU BKN280 30/27 Q1011 NOSIG
2026-04-30 18:00:00,METAR VRMM 301800Z 27013KT 9999 FEW018TCU SCT120 BKN280 30/27 Q1011 NOSIG
2026-04-30 17:00:00,METAR VRMM 301700Z 26010KT 9999 FEW018TCU SCT120 BKN280 30/26 Q1011 NOSIG
2026-04-30 16:00:00,METAR VRMM 301600Z 26012KT 9999 SCT017TCU BKN120 30/27 Q1011 NOSIG
2026-04-30 15:00:00,METAR VRMM 301500Z 26012KT 9999 SCT017TCU BKN120 30/27 Q1011 NOSIG
2026-04-30 14:00:00,METAR VRMM 301400Z 27011KT 9999 SCT017TCU BKN120 30/27 Q1009 NOSIG
2026-04-30 13:00:00,METAR VRMM 301300Z 27012KT 9999 SCT017TCU BKN120 31/27 Q1009 NOSIG
2026-04-30 12:00:00,METAR VRMM 301200Z 28010KT 9999 FEW018TCU BKN120 31/27 Q1008 NOSIG
2026-04-30 11:00:00,METAR VRMM 301100Z 27011KT 9999 SCT017TCU BKN120 32/27 Q1008 NOSIG
2026-04-30 10:00:00,METAR VRMM 301000Z 25010KT 9999 SCT017TCU BKN120 32/28 Q1008 NOSIG
2026-04-30 09:00:00,METAR VRMM 300900Z 26012KT 9999 SCT017TCU BKN120 33/27 Q1009 NOSIG
2026-04-30 08:00:00,METAR VRMM 300800Z 25012KT 9999 SCT017TCU SCT120 34/28 Q1010 NOSIG
2026-04-30 07:00:00,METAR VRMM 300700Z 25010KT 9999 SCT018TCU 33/28 Q1010 NOSIG
2026-04-30 06:00:00,METAR VRMM 300600Z 25007KT 9999 SCT018TCU SCT130 33/28 Q1011 NOSIG
2026-04-30 05:00:00,METAR VRMM 300500Z 25008KT 9999 FEW018TCU SCT270 33/28 Q1011 NOSIG
2026-04-30 04:00:00,METAR VRMM 300400Z 24008KT 9999 FEW017 FEW018CB SCT270 31/26 Q1011 CB ESE NOSIG
2026-04-30 03:00:00,"METAR VRMM 300300Z 23004KT 9999 FEW017 FEW018CB SCT270 30/27 Q1010 CB SE,S NOSIG"
2026-04-30 02:00:00,METAR VRMM 300200Z 25007KT 9999 FEW017 FEW018CB BKN270 30/26 Q1009 CB WSW NOSIG
2026-04-30 01:00:00,METAR VRMM 300100Z 24007KT 9999 FEW017 FEW018CB BKN270 29/26 Q1008 CB NNW TEMPO 5000 TSRA
2026-04-30 00:00:00,METAR VRMM 300000Z 23007KT 9999 FEW017TCU BKN270 30/26 Q1008 TEMPO 5000 TSRA
2026-04-29 23:00:00,METAR VRMM 292300Z 23006KT 9999 FEW017TCU BKN270 29/26 Q1007 TEMPO 5000 TSRA
2026-04-29 22:00:00,METAR VRMM 292200Z 23008KT 9999 FEW017TCU SCT110 29/26 Q1007 TEMPO 5000 TSRA
2026-04-29 21:00:00,METAR VRMM 292100Z 23007KT 9999 FEW017TCU SCT023 BKN110 29/26 Q1008 TEMPO 5000 TSRA
2026-04-29 20:00:00,METAR VRMM 292000Z 24008KT 9999 FEW017TCU BKN110 29/26 Q1009 TEMPO 5000 TSRA
2026-04-29 19:00:00,METAR VRMM 291900Z 23008KT 9999 SCT017TCU BKN110 29/26 Q1010 TEMPO 5000 TSRA
2026-04-29 18:00:00,METAR VRMM 291800Z 25008KT 9999 SCT017TCU BKN110 29/26 Q1011 TEMPO 5000 TSRA
2026-04-29 17:00:00,METAR VRMM 291700Z 24011KT 9999 SCT017TCU BKN110 29/27 Q1010 TEMPO 5000 TSRA
2026-04-29 16:00:00,METAR VRMM 291600Z 25013KT 9999 SCT017TCU BKN110 29/27 Q1010 TEMPO 5000 TSRA
2026-04-29 15:00:00,METAR VRMM 291500Z 27010KT 9999 SCT017TCU BKN110 28/27 Q1009 TEMPO 5000 TSRA
2026-04-29 14:00:00,METAR VRMM 291400Z 26011KT 9999 SCT017TCU BKN110 28/27 Q1008 TEMPO 5000 TSRA
2026-04-29 13:00:00,METAR VRMM 291300Z 23008KT 9999 SCT016TCU OVC100 28/26 Q1009 TEMPO 4000 TSRA
2026-04-29 12:00:00,"METAR VRMM 291200Z 20011KT 9000 -RA SCT016 FEW017CB OVC090 28/26 Q1008 CB S,W TEMPO 4000 TSRA"
2026-04-29 11:00:00,"METAR VRMM 291100Z 21012KT 9000 -SHRA SCT016 FEW017CB OVC100 28/26 Q1008 CB N,NE,E,SW TEMPO 4000 TSRA"
2026-04-29 10:00:00,"METAR VRMM 291000Z 19005KT 9000 FEW016 FEW017CB OVC100 29/27 Q1008 CB SSW,SW TEMPO 4000 TSRA"
2026-04-29 09:00:00,"METAR VRMM 290900Z VRB02KT 9000 -RA FEW016 FEW017CB OVC100 28/27 Q1009 CB N,WSW TEMPO 4000 TSRA"
2026-04-29 08:00:00,"METAR VRMM 290800Z 08005KT 7000 -RA SCT016 FEW017CB OVC100 29/26 Q1010 CB N,NE,S,OVERHEAD TEMPO 4000 TSRA"
2026-04-29 07:00:00,METAR VRMM 290700Z 24005KT 9000 -RA SCT016TCU OVC100 29/26 Q1011 TEMPO 4000 TSRA
2026-04-29 06:00:00,METAR VRMM 290600Z 25004KT 9999 -RA FEW016 FEW017CB OVC100 29/26 Q1011 CB WNW TEMPO 4000 TSRA
2026-04-29 05:00:00,"METAR VRMM 290500Z 23005KT 9999 -SHRA FEW016 FEW017CB BKN110 29/26 Q1011 CB SE,S TEMPO 5000 TSRA"
2026-04-29 04:00:00,"METAR VRMM 290400Z 26005KT 9999 FEW016 FEW017CB SCT023 BKN270 30/26 Q1010 CB NNE,NE,SE TEMPO 5000 TSRA"
2026-04-29 03:00:00,"METAR VRMM 290300Z 21007KT 9999 FEW016 FEW017CB BKN023 29/26 Q1010 CB N,NE,SE TEMPO 5000 TSRA"
2026-04-29 02:00:00,"METAR VRMM 290200Z 25010KT 9999 FEW016 FEW017CB BKN260 28/25 Q1008 CB N,SE TEMPO 3000 TSRA"
2026-04-29 01:00:00,"METAR VRMM 290100Z 26018KT 9999 TS FEW016 SCT017CB 27/26 Q1008 CB SE,S,SW,W,NW TEMPO 3000 TSRA"
2026-04-29 00:00:00,"METAR VRMM 290000Z 22010KT 9999 SCT017 FEW018CB BKN110 28/26 Q1007 CB N,SW TEMPO 5000 TSRA"
2026-04-28 23:00:00,METAR VRMM 282300Z VRB02KT 9999 FEW017TCU BKN110 28/27 Q1007 TEMPO 5000 TSRA
2026-04-28 22:00:00,METAR VRMM 282200Z 22004KT 9999 FEW017TCU BKN100 28/27 Q1007 TEMPO 5000 TSRA
2026-04-28 20:00:00,"METAR VRMM 282000Z 03006KT 6000 -TSRA SCT016 FEW017CB OVC100 27/27 Q1007 RETSRA CB N,NE,E,S,SW TEMPO 2000 +TSRA"
2026-04-28 18:00:00,"METAR VRMM 281800Z 26008KT 9000 TS FEW016 SCT017CB OVC100 30/27 Q1010 RETS CB N,NE,S,SW,W,NW TEMPO 5000 TSRA"
2026-04-28 17:00:00,"METAR VRMM 281700Z 26010KT 9000 TS SCT016 FEW017CB OVC100 30/27 Q1010 RETS CB N,NE,E,SW TEMPO 5000 TSRA"
2026-04-28 16:00:00,"METAR VRMM 281600Z 28009KT 9000 -TSRA SCT016 FEW017CB OVC100 29/26 Q1009 RETS CB N,NE,E,SE TEMPO 5000 TSRA"
2026-04-28 14:00:00,"METAR VRMM 281400Z 31005KT 9999 TS SCT017 FEW018CB BKN260 30/26 Q1007 CB N,NE,E,W,NW TEMPO 5000 TSRA"
2026-04-28 13:00:00,"METAR VRMM 281300Z 28014KT 9999 VCSH FEW017 FEW018CB BKN260 30/26 Q1007 CB N,NE,E,SE TEMPO 3000 TSRA"
2026-04-28 12:00:00,METAR VRMM 281200Z 28010KT 9999 SCT018TCU BKN260 32/27 Q1006 NOSIG
2026-04-28 11:00:00,METAR VRMM 281100Z 27011KT 9999 FEW018 FEW019CB BKN260 32/28 Q1005 CB N NOSIG
2026-04-28 10:00:00,METAR VRMM 281000Z 28010KT 9999 SCT018TCU BKN260 32/28 Q1006 NOSIG
2026-04-28 09:00:00,METAR VRMM 280900Z 27010KT 9999 SCT018TCU BKN260 33/28 Q1006 NOSIG
2026-04-28 08:00:00,"METAR VRMM 280800Z 29009KT 9999 SCT017 FEW018CB BKN270 33/28 Q1008 CB E,S NOSIG"
2026-04-28 07:00:00,METAR VRMM 280700Z 28007KT 9999 FEW017 FEW018CB BKN270 32/27 Q1008 CB S NOSIG
2026-04-28 06:00:00,METAR VRMM 280600Z 27006KT 9999 FEW017 FEW018CB BKN120 32/27 Q1009 CB S NOSIG
2026-04-28 05:00:00,"METAR VRMM 280500Z 28006KT 9999 FEW017 FEW018CB BKN270 32/28 Q1009 CB SSE,S NOSIG"
2026-04-28 04:00:00,"METAR VRMM 280400Z 28005KT 9999 FEW018 FEW019CB BKN270 31/27 Q1009 CB N,E,SSE NOSIG"
2026-04-28 03:00:00,METAR VRMM 280300Z 28005KT 9999 FEW018TCU BKN270 31/27 Q1008 NOSIG
2026-04-28 02:00:00,"METAR VRMM 280200Z 27006KT 9999 FEW018 FEW019CB BKN280 30/27 Q1008 CB E,SE NOSIG"
2026-04-28 01:00:00,METAR VRMM 280100Z 27009KT 9999 FEW018 FEW019CB SCT120 BKN280 30/27 Q1007 CB SE NOSIG
2026-04-28 00:00:00,METAR VRMM 280000Z 27008KT 9999 FEW018TCU BKN280 30/27 Q1007 NOSIG
2026-04-27 23:00:00,METAR VRMM 272300Z 26007KT 9999 FEW018TCU BKN120 30/27 Q1006 NOSIG
2026-04-27 22:00:00,METAR VRMM 272200Z 26007KT 9999 FEW018TCU SCT120 30/27 Q1006 NOSIG
2026-04-27 21:00:00,METAR VRMM 272100Z 26007KT 9999 FEW018TCU SCT280 30/27 Q1007 NOSIG
2026-04-27 20:00:00,METAR VRMM 272000Z 26005KT 9999 FEW018TCU SCT280 30/27 Q1008 NOSIG
2026-04-27 19:00:00,METAR VRMM 271900Z 26005KT 9999 FEW018TCU 30/27 Q1008 NOSIG
2026-04-27 18:00:00,METAR VRMM 271800Z 28004KT 9999 FEW018TCU SCT270 30/27 Q1009 NOSIG
2026-04-27 17:00:00,METAR VRMM 271700Z 27005KT 9999 FEW018TCU SCT270 30/27 Q1009 NOSIG
2026-04-27 16:00:00,METAR VRMM 271600Z 26005KT 9999 FEW018TCU SCT270 30/27 Q1008 NOSIG
2026-04-27 15:00:00,METAR VRMM 271500Z 27005KT 9999 FEW018TCU SCT270 30/27 Q1008 NOSIG
2026-04-27 14:00:00,METAR VRMM 271400Z 26004KT 9999 FEW018TCU BKN270 30/26 Q1007 NOSIG
2026-04-27 13:00:00,METAR VRMM 271300Z 25006KT 9999 FEW018TCU BKN270 30/26 Q1006 NOSIG
2026-04-27 12:00:00,"METAR VRMM 271200Z 24005KT 9999 FEW017 FEW018CB BKN270 30/26 Q1006 CB SE,SW,W TEMPO 5000 SHRA"
2026-04-27 10:54:00,"METAR VRMM 271054Z 27003G19KT 9000 -SHRA SCT017 FEW018CB 27/26 Q1006 RESHRA CB SW,W TEMPO 5000 SHRA"
2026-04-27 10:00:00,"METAR VRMM 271000Z 23006KT 9999 -SHRA SCT018 FEW019CB BKN270 32/27 Q1006 CB NE,OVERHEAD TEMPO 5000 SHRA"
2026-04-27 09:00:00,METAR VRMM 270900Z 25007KT 9999 FEW018 FEW019CB BKN270 34/28 Q1006 CB OVERHEAD TEMPO 5000 SHRA
2026-04-27 08:00:00,METAR VRMM 270800Z 27005KT 9999 FEW018 FEW019CB BKN270 33/27 Q1007 CB OVERHEAD TEMPO 5000 SHRA
2026-04-27 07:00:00,METAR VRMM 270700Z 25005KT 9999 SCT017TCU BKN270 33/27 Q1008 TEMPO FEW018CB
2026-04-27 06:00:00,METAR VRMM 270600Z 27004KT 9999 SCT017TCU BKN270 33/27 Q1009 TEMPO FEW018CB
2026-04-27 05:00:00,METAR VRMM 270500Z 30003KT 9999 SCT017TCU BKN270 31/27 Q1009 TEMPO FEW018CB
2026-04-27 04:00:00,METAR VRMM 270400Z VRB02KT 9999 SCT017TCU BKN280 31/28 Q1009 TEMPO FEW018CB
2026-04-27 03:00:00,METAR VRMM 270300Z 26004KT 240V300 9999 SCT017TCU BKN270 31/27 Q1009 TEMPO FEW018CB
2026-04-27 02:00:00,METAR VRMM 270200Z 26004KT 9999 SCT017TCU SCT280 30/27 Q1008 TEMPO FEW018CB
2026-04-27 01:00:00,METAR VRMM 270100Z 26005KT 9999 -SHRA SCT017TCU 30/27 Q1007 TEMPO FEW018CB
2026-04-27 00:00:00,METAR VRMM 270000Z 26004KT 9999 SCT018TCU 30/27 Q1007 RETS TEMPO FEW018CB
2026-04-26 23:00:00,METAR VRMM 262300Z 26005KT 9999 TS FEW018 FEW019CB 30/27 Q1007 RETS CB N TEMPO 5000 TSRA
2026-04-26 22:00:00,METAR VRMM 262200Z 26005KT 9999 TS FEW018 FEW019CB 30/26 Q1008 RETS CB N TEMPO 5000 TSRA
2026-04-26 21:00:00,METAR VRMM 262100Z 26005KT 9999 TS FEW018 FEW019CB 30/26 Q1008 RETS CB N TEMPO 5000 TSRA
2026-04-26 20:00:00,"METAR VRMM 262000Z VRB02KT 9999 T FEW018 FEW019CB 30/27 Q1008 RETS CB N,NNE TEMPO 5000 TSRA"
2026-04-26 19:00:00,METAR VRMM 261900Z 30003KT 9999 FEW018TCU 30/26 Q1009 NOSIG
2026-04-26 18:00:00,METAR VRMM 261800Z 32003KT 9999 SCT018TCU 31/27 Q1009 NOSIG
2026-04-26 17:00:00,METAR VRMM 261700Z 29003KT 9999 FEW018TCU 30/27 Q1009 NOSIG
2026-04-26 16:00:00,METAR VRMM 261600Z 34003KT 9999 FEW018TCU 31/27 Q1009 NOSIG
2026-04-26 15:00:00,METAR VRMM 261500Z 31003KT 9999 FEW018TCU 31/27 Q1008 NOSIG
2026-04-26 14:00:00,METAR VRMM 261400Z 30003KT 9999 FEW018 FEW019CB 31//27 Q1007 CB NE NOSIG
2026-04-26 13:00:00,METAR VRMM 261300Z 31004KT 270V350 9999 SCT018 FEW019CB 31/37 Q1007 CB NE NOSIG
2026-04-26 12:00:00,METAR VRMM 261200Z 30004KT 9999 SCT018TCU 32/27 Q1006 NOSIG
2026-04-26 11:00:00,METAR VRMM 261100Z 31005KT 9999 SCT018 FEW019CB 33/27 Q1006 CB NE NOSIG
2026-04-26 10:00:00,"METAR VRMM 261000Z 31005KT 9999 FEW018 FEW019CB SCT280 33/27 Q1006 CB NNE,NE NOSIG"
2026-04-26 09:00:00,METAR VRMM 260900Z 31005KT 270V350 9999 FEW018 FEW019CB BKN280 33/27 Q1006 CB E NOSIG
2026-04-26 08:00:00,METAR VRMM 260800Z 30005KT 9999 FEW018TCU SCT280 33/26 Q1007 NOSIG
2026-04-26 07:00:00,METAR VRMM 260700Z 30005KT 9999 SCT018 FEW019CB 33/28 Q1009 CB E NOSIG
2026-04-26 06:00:00,METAR VRMM 260600Z 30005KT 9999 FEW018 FEW019CB 32/27 Q1009 CB E NOSIG
2026-04-26 05:00:00,METAR VRMM 260500Z 30004KT 9999 FEW018 SCT280 32/27 Q1010 NOSIG
2026-04-26 04:00:00,METAR VRMM 260400Z 29003KT 9999 SCT018TCU BKN280 31/26 Q1010 NOSIG
2026-04-26 03:00:00,METAR VRMM 260300Z VRB02KT 9999 SCT018TCU SCT280 31/26 Q1010 NOSIG
2026-04-26 02:00:00,METAR VRMM 260200Z 34003KT 9999 FEW019TCU SCT280 30/27 Q1009 NOSIG
2026-04-26 01:00:00,METAR VRMM 260100Z 22003KT 9999 FEW019TCU SCT280 29/26 Q1008 NOSIG
2026-04-26 00:00:00,METAR VRMM 260000Z 19005KT 9999 FEW018 SCT280 29/26 Q1007 NOSIG
2026-04-25 23:00:00,METAR VRMM 252300Z 15003KT 9999 FEW018 BKN270 29/26 Q1006 NOSIG
2026-04-25 22:00:00,METAR VRMM 252200Z VRB02KT 9999 FEW018 BKN270 29/26 Q1007 NOSIG
2026-04-25 21:00:00,METAR VRMM 252100Z 14003KT 9999 FEW018 BKN270 29/26 Q1007 NOSIG
2026-04-25 20:00:00,METAR VRMM 252000Z VRB01KT 9999 FEW018TCU BKN270 29/26 Q1008 NOSIG
2026-04-25 19:00:00,METAR VRMM 251900Z VRB02KT 9999 FEW018TCU BKN270 30/26 Q1009 NOSIG
2026-04-25 18:00:00,METAR VRMM 251800Z VRB01KT 9999 FEW018TCU BKN270 30/26 Q1010 NOSIG
2026-04-25 17:00:00,METAR VRMM 251700Z 19004KT 9999 FEW018TCU BKN270 30/27 Q1010 NOSIG
2026-04-25 16:00:00,METAR VRMM 251600Z 25003KT 9999 FEW018TCU BKN270 30/27 Q1009 NOSIG
2026-04-25 15:00:00,METAR VRMM 251500Z 32003KT 280V020 9999 FEW018TCU BKN270 30/27 Q1009 NOSIG
2026-04-25 14:00:00,METAR VRMM 251400Z 35003KT 9999 FEW018TCU BKN270 31/26 Q1009 NOSIG
2026-04-25 13:00:00,METAR VRMM 251300Z 09003KT 9999 SCT018TCU BKN270 32/26 Q1008 TEMPO FEW018CB
2026-04-25 12:00:00,METAR VRMM 251200Z 07005KT 050V130 9999 FEW018TCU SCT120 BKN260 32/26 Q1008 TEMPO FEW018CB
2026-04-25 11:00:00,METAR VRMM 251100Z 09005KT 9999 FEW018TCU BKN260 33/26 Q1007 TEMPO FEW018CB
2026-04-25 10:00:00,METAR VRMM 251000Z 32004KT 9999 FEW018TCU SCT120 BKN270 33/26 Q1007 TEMPO FEW018CB
2026-04-25 09:00:00,METAR VRMM 250900Z 03004 KT 9999 FEW018TCU SCT120 BKN270 33/26 Q1007 TEMPO FEW018CB
2026-04-25 08:00:00,METAR VRMM 250800Z 08004KT 9999 F EW018TCU SCT120 BKN270 33/26 Q1008 TEMPO FEW018CB
2026-04-25 07:00:00,METAR VRMM 250700Z 08007KT 9999 FEW018TCU SCT120 BKN270 32/26 Q1009 TEMPO FEW018CB
2026-04-25 06:00:00,METAR VRMM 250600Z 09009KT 9999 SCT018TCU SCT120 SCT270 32/26 Q1010 TEMPO FEW018CB
2026-04-25 05:00:00,METAR VRMM 250500Z 08006KT 9999 FEW018TCU SCT120 BKN270 31/25 Q1010 TEMPO FEW018CB
2026-04-25 03:00:00,"METAR VRMM 250300Z 09007KT 9000 TS SCT016 FEW017CB 29/26 Q1010 RETS CB SE,W,NNW TEMPO 5000 TSRA"
2026-04-25 02:00:00,"METAR VRMM 250200Z 13003KT 9999 TS FEW017 FEW018CB SCT120 BKN270 29/26 Q1009 RETS CB N,NE TEMPO 5000 TSRA"
2026-04-25 01:00:00,"METAR VRMM 250100Z VRB02KT 9999 TS FEW017 FEW018CB 29/27 Q1008 CB N,ENE TEMPO 5000 TSRA"
2026-04-24 23:00:00,METAR VRMM 242300Z 27005KT 9999 FEW018 SCT280 30/26 Q1007 NOSIG
2026-04-24 22:00:00,METAR VRMM 242200Z 25006KT 9999 FEW018 30/26 Q1006 NOSIG
2026-04-24 21:00:00,METAR VRMM 242100Z 25005KT 9999 FEW018 30/26 Q1006 NOSIG
2026-04-24 20:00:00,METAR VRMM 242000Z 28005KT 9999 FEW018 30/26 Q1007 NOSIG
2026-04-24 19:00:00,METAR VRMM 241900Z 24005KT 9999 SCT019 30/27 Q1008 NOSIG
2026-04-24 18:00:00,METAR VRMM 241800Z 24009KT 9999 FEW019 30/27 Q1008 NOSIG
2026-04-24 17:00:00,METAR VRMM 241700Z 24008KT 9999 FEW018 30/27 Q1008 NOSIG
2026-04-24 16:00:00,METAR VRMM 241600Z 24003KT 9999 FEW018 30/26 Q1008 NOSIG
2026-04-24 15:00:00,METAR VRMM 241500Z 27004KT 9999 FEW018 SCT280 31/27 Q1008 NOSIG
2026-04-24 14:00:00,METAR VRMM 241400Z 28004KT 9999 FEW018 SCT280 30/27 Q1008 NOSIG
2026-04-24 13:00:00,METAR VRMM 241300Z 29004KT 9999 FEW018 FEW019CB BKN270 31/26 Q1007 CB ESE NOSIG
2026-04-24 12:00:00,METAR VRMM 241200Z 28006KT 9999 FEW018 FEW019CB BKN270 32/27 Q1006 CB ESE NOSIG
2026-04-24 11:00:00,METAR VRMM 241100Z 29006KT 9999 FEW017 FEW018CB BKN270 33/27 Q1006 CB E NOSIG
2026-04-24 10:00:00,METAR VRMM 241000Z 26008KT 9999 FEW017 FEW018CB BKN270 33/27 Q1006 CB WSW NOSIG
2026-04-24 09:00:00,"METAR VRMM 240900Z 26007KT 9999 SCT017 FEW018CB 33/27 Q1007 CB WSW,WNW NOSIG"
2026-04-24 08:00:00,METAR VRMM 240800Z 20005KT 9999 SCT017 FEW018CB 33/27 Q1007 CB W NOSIG
2026-04-24 07:00:00,"METAR VRMM 240700Z 26005KT 9999 SCT018 FEW019CB 32/27 Q1008 CB N,NE NOSIG"
2026-04-24 06:00:00,METAR VRMM 240600Z 26007KT 9999 SCT018 FEW019CB SCT270 32/27 Q1009 CB E NOSIG
2026-04-24 05:00:00,METAR VRMM 240500Z 25007KT 9999 FEW018TCU 33/27 Q1009 NOSIG
2026-04-24 04:00:00,METAR VRMM 240400Z 25006KT 9999 FEW018TCU 32/28 Q1009 NOSIG
2026-04-24 03:00:00,METAR VRMM 240300Z 24006KT 9999 FEW017 FEW018CB BKN280 30/26 Q1009 CB N NOSIG
2026-04-24 02:00:00,METAR VRMM 240200Z 25007KT 9999 FEW017 FEW018CB 30/26 Q1008 CB N NOSIG
2026-04-24 01:00:00,METAR VRMM 240100Z 22005KT 9999 FEW018 FEW019CB 29/26 Q1007 CB N NOSIG
2026-04-24 00:00:00,METAR VRMM 240000Z 21004KT 9999 FEW018 BKN270 29/26 Q1006 TEMPO FEW017CB
2026-04-23 23:00:00,METAR VRMM 232300Z 22004KT 9999 FEW018TCU BKN270 30/26 Q1006 TEMPO FEW017CB
2026-04-23 22:00:00,METAR VRMM 232200Z 23005KT 9999 FEW018TCU BKN270 30/26 Q1006 TEMPO FEW017CB
2026-04-23 21:00:00,METAR VRMM 232100Z 23005KT 9999 FEW018TCU BKN270 30/27 Q1006 TEMPO FEW017CB
2026-04-23 20:00:00,METAR VRMM 232000Z 23005KT 9999 FEW018TCU BKN270 30/26 Q1007 TEMPO FEW017CB
2026-04-23 19:00:00,METAR VRMM 231900Z 23005KT 9999 FEW018TCU BKN270 30/26 Q1008 TEMPO FEW017CB
2026-04-23 18:00:00,METAR VRMM 231800Z 22004KT 9999 SCT017TCU BKN270 30/27 Q1009 TEMPO FEW017CB
2026-04-23 17:00:00,METAR VRMM 231700Z 22005KT 9999 FEW018TCU BKN270 30/27 Q1009 NOSIG
2026-04-23 16:00:00,METAR VRMM 231600Z 23005KT 9999 SCT018TCU BKN270 30/27 Q1008 TEMPO TS
2026-04-23 15:00:00,METAR VRMM 231500Z 24006KT 9999 FEW018TCU BKN270 30/27 Q1007 TEMPO TS
2026-04-23 14:00:00,METAR VRMM 231400Z 24003KT 200V260 9999 FEW018TCU SCT023 BKN270 30/26 Q1007 TEMPO TS
2026-04-23 13:00:00,METAR VRMM 231300Z 26005KT 9999 -SHRA FEW017 FEW018CB BKN022 BKN270 30/27 Q1006 CB N TEMPO TS
2026-04-23 12:00:00,METAR VRMM 231200Z 25008KT 9999 -SHRA SCT017 FEW018CB 31/28 Q1006 CB OVERHEAD TEMPO 5000 TSRA
2026-04-23 11:00:00,"METAR VRMM 231100Z 21003KT 9999 SCT017 FEW018CB 31/27 Q1006 CB NNE,NE TEMPO 5000 TSRA"
2026-04-23 10:00:00,"METAR VRMM 231000Z 28008KT 7000 -SHRA BKN017 FEW018CB 31/27 Q1006 CB NNE,OVERHEAD TEMPO 5000 SHRA"
2026-04-23 09:00:00,METAR VRMM 230900Z 23004KT 9999 -SHRA SCT017 FEW018CB SCT280 33/27 Q1006 CB W TEMPO 5000 SHRA
2026-04-23 08:00:00,"METAR VRMM 230800Z 23009KT 9999 BKN017 FEW018CB 32/27 Q1007 CB NE,S TEMPO 5000 SHRA"
2026-04-23 07:00:00,"METAR VRMM 230700Z 24007KT 9999 SCT017 FEW018CB 31/27 Q1008 CB SSW,W NOSIG"
2026-04-23 06:00:00,"METAR VRMM 230600Z 29005KT 9999 SCT017 FEW018CB 32/27 Q1009 CB SSW,SW NOSIG"
2026-04-23 05:00:00,METAR VRMM 230500Z 21005KT 9999 SCT017TCU 32/27 Q1009 NOSIG
2026-04-23 04:00:00,"METAR VRMM 230400Z 21005KT 9999 SCT017 FEW018CB 32/27 Q1009 CB N,NE NOSIG"
2026-04-23 03:00:00,METAR VRMM 230300Z 21005KT 9999 SCT017TCU 31/26 Q1008 NOSIG
2026-04-23 02:00:00,METAR VRMM 230200Z VRB02KT 9999 SCT017 FEW018CB 31/26 Q1007 CB SE NOSIG
2026-04-23 01:00:00,"METAR VRMM 230100Z VRB01KT 9999 SCT017 FEW018CB SCT270 30/27 Q1007 CB N,W,WNW NOSIG"
2026-04-23 00:00:00,"METAR VRMM 230000Z VRB02KT 9999 SCT017 FEW018CB BKN270 30/26 Q1006 CB NE,WNW TEMPO 5000 SHRA"
2026-04-22 23:00:00,METAR VRMM 222300Z 26003KT 9999 SCT017TCU BKN270 30/27 Q1006 TEMPO FEW018CB
2026-04-22 22:00:00,METAR VRMM 222200Z 29004KT 9999 SCT017TCU BKN280 30/27 Q1006 NOSIG
2026-04-22 21:00:00,METAR VRMM 222100Z 32003KT 9999 SCT017TCU BKN280 30/27 Q1007 NOSIG
2026-04-22 20:00:00,METAR VRMM 222000Z VRB01KT 9999 SCT017TCU BKN280 30/27 Q1007 NOSIG
2026-04-22 19:00:00,METAR VRMM 221900Z VRB01KT 9999 SCT017 BKN280 30/27 Q1008 NOSIG
2026-04-22 18:00:00,METAR VRMM 221800Z VRB02KT 9999 SCT017 BKN280 30/27 Q1008 NOSIG
2026-04-22 17:00:00,METAR VRMM 221700Z 29004KT 260V350 9999 FEW017 BKN280 30/27 Q1008 NOSIG
2026-04-22 16:00:00,METAR VRMM 221600Z VRB02KT 9999 FEW018 BKN280 30/26 Q1008 NOSIG
2026-04-22 15:00:00,METAR VRMM 221500Z 09003KT 040V150 9999 FEW018 BKN270 31/26 Q1007 NOSIG
2026-04-22 14:00:00,METAR VRMM 221400Z 10003KT 9999 FEW018 BKN270 31/26 Q1007 NOSIG
2026-04-22 13:00:00,METAR VRMM 221300Z 10004KT 9999 FEW018 BKN270 30/25 Q1006 NOSIG
2026-04-22 12:00:00,METAR VRMM 221200Z 10003KT 9999 FEW018 FEW019CB BKN270 33/26 Q1006 CB NNE NOSIG
2026-04-22 11:00:00,METAR VRMM 221100Z 10005KT 9999 FEW018TCU BKN270 33/26 Q1006 NOSIG
2026-04-22 10:00:00,"METAR VRMM 221000Z 08004KT 9999 FEW018 FEW019CB BKN270 33/26 Q1006 CB S,NW TEMPO TS"
2026-04-22 09:00:00,"METAR VRMM 220900Z 10005KT 9999 FEW018CB BKN280 33/27 Q1007 CB N,NNE,NE,S,NNW TEMPO TS"
2026-04-22 08:00:00,"METAR VRMM 220800Z 10005KT 9999 FEW018CB SCT280 34/27 Q1008 CB N,NE,E,S,NNW TEMPO TS"
2026-04-22 07:00:00,"METAR VRMM 220700Z 10006KT 060V140 9999 FEW018 FEW019CB SCT280 33/27 Q1009 CB NNE,NE NOSIG"
2026-04-22 06:00:00,METAR VRMM 220600Z VRB04KT 9999 FEW018 FEW019CB SCT280 33/27 Q1009 CB NNE NOSIG
2026-04-22 05:00:00,METAR VRMM 220500Z 09005KT 9999 FEW018TCU SCT280 33/27 Q1010 NOSIG
2026-04-22 04:00:00,METAR VRMM 220400Z 34004KT 9999 FEW018 SCT280 32/26 Q1010 NOSIG
2026-04-22 03:00:00,METAR VRMM 220300Z 32004KT 9999 FEW018 FEW019CB SCT280 32/26 Q1009 CB S NOSIG
2026-04-22 02:00:00,METAR VRMM 220200Z 01003KT 9999 FEW019 SCT280 30/27 Q1008 NOSIG
2026-04-22 01:00:00,METAR VRMM 220100Z 01003KT 9999 FEW018 SCT280 29/25 Q1007 NOSIG
2026-04-22 00:00:00,METAR VRMM 220000Z 02003KT 9999 FEW019 29/25 Q1007 NOSIG
2026-04-21 23:00:00,METAR VRMM 212300Z 02004KT 9999 FEW019 29/25 Q1007 NOSIG
2026-04-21 22:00:00,METAR VRMM 212200Z 02003KT 9999 FEW018 30/25 Q1006 NOSIG
2026-04-21 21:00:00,METAR VRMM 212100Z 02004KT 9999 FEW018 30/26 Q1007 NOSIG
2026-04-21 20:00:00,METAR VRMM 212000Z 02004KT 9999 FEW018 30/26 Q1008 NOSIG
2026-04-21 19:00:00,METAR VRMM 211900Z 03005KT 9999 FEW018 30/26 Q1009 NOSIG
2026-04-21 18:00:00,METAR VRMM 211800Z 02005KT 9999 FEW018 30/26 Q1009 NOSIG
2026-04-21 17:00:00,METAR VRMM 211700Z 35003KT 320V030 9999 FEW018 30/26 Q1009 TEMPO TS
2026-04-21 16:00:00,METAR VRMM 211600Z 34005KT 310V030 9999 FEW018 30/26 Q1009 TEMPO TS
2026-04-21 15:00:00,METAR VRMM 211500Z 33004KT 300V020 9999 FEW017 30/26 Q1008 TEMPO TS
2026-04-21 14:00:00,METAR VRMM 211400Z 34004KT 9999 FEW017 SCT280 30/26 Q1007 TEMPO TS
2026-04-21 13:00:00,METAR VRMM 211300Z 34003KT 300V030 9999 FEW017 FEW018CB SCT280 31/26 Q1007 CB S TEMPO 5000 SHRA
2026-04-21 12:00:00,METAR VRMM 211200Z 31004KT 290V360 9999 -SHRA SCT017 FEW018CB 32/26 Q1007 CB OVERHEAD TEMPO 5000 SHRA
2026-04-21 11:00:00,"METAR VRMM 211100Z 30004KT 9000 -SHRA SCT017 FEW018CB 32/27 Q1006 CB E,SW,OVERHEAD TEMPO 5000 SHRA"
2026-04-21 10:00:00,METAR VRMM 211000Z 35003KT 9999 -SHRA SCT017 FEW018CB 32/27 Q1006 CB OVERHEAD TEMPO 5000 SHRA
2026-04-21 09:00:00,METAR VRMM 210900Z 28004KT 9999 SCT018 FEW019CB 32/26 Q1007 CB W NOSIG
2026-04-21 08:00:00,METAR VRMM 210800Z 28005KT 9999 FEW018 33/27 Q1007 NOSIG
2026-04-21 07:00:00,METAR VRMM 210700Z 28005KT 9999 FEW018 32/26 Q1008 NOSIG
2026-04-21 06:00:00,METAR VRMM 210600Z 30004KT 9999 FEW018 33/27 Q1009 NOSIG
2026-04-21 05:00:00,METAR VRMM 210500Z 30004KT 9999 FEW018 33/26 Q1009 NOSIG
2026-04-21 04:00:00,METAR VRMM 210400Z 30004KT 9999 FEW018 32/26 Q1009 NOSIG
2026-04-21 03:00:00,METAR VRMM 210300Z VRB02KT 9999 FEW018TCU SCT280 31/26 Q1009 NOSIG
2026-04-21 02:00:00,METAR VRMM 210200Z 00000KT 9999 FEW018 FEW019CB BKN280 30/25 Q1008 CB S NOSIG
2026-04-21 01:00:00,METAR VRMM 210100Z 00000KT 9999 FEW019 SCT280 28/25 Q1007 NOSIG
2026-04-21 00:00:00,METAR VRMM 210000Z VRB01KT 9999 FEW018 29/25 Q1007 NOSIG
2026-04-20 23:00:00,METAR VRMM 202300Z VRB02KT 9999 FEW018 29/25 Q1007 NOSIG
2026-04-20 22:00:00,METAR VRMM 202200Z VRB02KT 9999 FEW019 29/25 Q1007 NOSIG
2026-04-20 21:00:00,METAR VRMM 202100Z VRB02KT 9999 FEW019 SCT280 29/25 Q1007 NOSIG
2026-04-20 20:00:00,METAR VRMM 202000Z VRB01KT 9999 FEW019 SCT280 29/25 Q1008 NOSIG
2026-04-20 19:00:00,METAR VRMM 201900Z VRB02KT 9999 FEW019 SCT280 30/25 Q1009 NOSIG
2026-04-20 18:00:00,METAR VRMM 201800Z VRB01KT 9999 FEW019 BKN280 30/25 Q1009 NOSIG
2026-04-20 17:00:00,METAR VRMM 201700Z 13003KT 9999 FEW019 BKN280 30/25 Q1009 NOSIG
2026-04-20 16:00:00,METAR VRMM 201600Z 11004KT 9999 FEW019 BKN280 30/25 Q1009 NOSIG
2026-04-20 15:00:00,METAR VRMM 201500Z 10004KT 9999 FEW019 SCT130 BKN280 30/25 Q1008 NOSIG
2026-04-20 14:00:00,METAR VRMM 201400Z 08004KT 9999 FEW019 BKN280 31/25 Q1007 NOSIG
2026-04-20 13:00:00,"METAR VRMM 201300Z 12004KT 080V170 9999 FEW018 FEW019CB SCT280 31/25 Q1007 CB N,S NOSIG"
2026-04-20 12:00:00,METAR VRMM 201200Z 11005KT 9999 FEW018 FEW019CB 33/25 Q1007 CB NNW NOSIG
2026-04-20 11:00:00,METAR VRMM 201100Z 10005KT 060V170 9999 FEW018TCU 33/26 Q1007 NOSIG
2026-04-20 10:00:00,METAR VRMM 201000Z 08006KT 9999 SCT018TCU 33/26 Q1007 NOSIG
2026-04-20 09:00:00,METAR VRMM 200900Z 09006KT 060V130 9999 SCT018TCU 34/26 Q1007 NOSIG
2026-04-20 08:00:00,METAR VRMM 200800Z 09006KT 9999 SCT018 33/26 Q1008 NOSIG
2026-04-20 07:00:00,METAR VRMM 200700Z 09005KT 9999 FEW018TCU 33/26 Q1009 NOSIG
2026-04-20 06:00:00,METAR VRMM 200600Z 27004KT 9999 FEW018TCU 32/25 Q1010 NOSIG
2026-04-20 05:00:00,METAR VRMM 200500Z 34004KT 9999 SCT018TCU 32/27 Q1010 NOSIG
2026-04-20 04:00:00,METAR VRMM 200400Z 31004KT 9999 FEW018TCU 32/27 Q1010 NOSIG
2026-04-20 03:00:00,METAR VRMM 200300Z 22003KT 9999 FEW019 31/26 Q1009 NOSIG
2026-04-20 02:00:00,METAR VRMM 200200Z VRB02KT 9999 FEW019 29/26 Q1009 NOSIG
2026-04-20 01:00:00,METAR VRMM 200100Z 25005KT 9999 FEW018 29/26 Q1008 NOSIG
2026-04-20 00:00:00,METAR VRMM 200000Z VRB02KT 9999 FEW018 29/26 Q1008 NOSIG
2026-04-19 23:00:00,METAR VRMM 192300Z VRB02KT 9999 FEW018 29/26 Q1008 NOSIG
2026-04-19 22:00:00,METAR VRMM 192200Z 29004KT 9999 FEW019 29/26 Q1008 NOSIG
2026-04-19 21:00:00,METAR VRMM 192100Z 27004KT 9999 FEW019 30/25 Q1008 NOSIG
2026-04-19 20:00:00,METAR VRMM 192000Z 27004KT 9999 FEW019 30/26 Q1009 NOSIG
2026-04-19 19:00:00,METAR VRMM 191900Z 27003KT 9999 FEW019 30/26 Q1010 NOSIG
2026-04-19 18:00:00,METAR VRMM 191800Z VRB02KT 9999 FEW019 30/26 Q1010 NOSIG
2026-04-19 17:00:00,METAR VRMM 191700Z VRB02KT 9999 FEW019 30/26 Q1011 NOSIG
2026-04-19 16:00:00,METAR VRMM 191600Z 28003KT 9999 FEW019 30/26 Q1010 NOSIG
2026-04-19 15:00:00,METAR VRMM 191500Z 30003KT 9999 FEW019 31/26 Q1009 NOSIG
2026-04-19 14:00:00,METAR VRMM 191400Z VRB02KT 9999 FEW018 31/26 Q1009 NOSIG
2026-04-19 13:00:00,METAR VRMM 191300Z VRB02KT 9999 FEW018 FEW019CB 32/25 Q1008 CB S NOSIG
2026-04-19 12:00:00,METAR VRMM 191200Z VRB05KT 9999 FEW018TCU 32/26 Q1007 NOSIG
2026-04-19 11:00:00,METAR VRMM 191100Z 31005KT 9999 FEW018 32/26 Q1007 NOSIG
2026-04-19 10:00:00,METAR VRMM 191000Z 30004KT 9999 SCT018TCU 33/26 Q1007 NOSIG
2026-04-19 09:00:00,METAR VRMM 190900Z 30003KT 9999 SCT017TCU 33/26 Q1008 NOSIG
2026-04-19 08:00:00,METAR VRMM 190800Z 30004KT 9999 SCT018TCU 32/26 Q1009 NOSIG
2026-04-19 07:00:00,METAR VRMM 190700Z VRB02KT 9999 FEW018 33/26 Q1010 NOSIG
2026-04-19 06:00:00,METAR VRMM 190600Z VRB02KT 9999 SCT018 33/26 Q1010 NOSIG
2026-04-19 05:00:00,METAR VRMM 190500Z 09004KT 9999 FEW018 33/26 Q1010 NOSIG
2026-04-19 04:00:00,METAR VRMM 190400Z 10003KT 9999 SCT018 32/26 Q1011 NOSIG
2026-04-19 03:00:00,METAR VRMM 190300Z 10003KT 9999 FEW018 31/26 Q1010 NOSIG
2026-04-19 02:00:00,METAR VRMM 190200Z 00000KT 9999 FEW018 29/26 Q1009 NOSIG
2026-04-19 01:00:00,METAR VRMM 190100Z 00000KT 9999 SCT018 BKN280 28/26 Q1008 NOSIG
2026-04-19 00:00:00,METAR VRMM 190000Z 00000KT 9999 FEW018 28/25 Q1008 NOSIG
2026-04-18 23:00:00,METAR VRMM 182300Z 00000KT 9999 FEW018 28/26 Q1007 NOSIG
2026-04-18 22:00:00,METAR VRMM 182200Z VRB01KT 9999 FEW018 28/26 Q1008 NOSIG
2026-04-18 21:00:00,METAR VRMM 182100Z 00000KT 9999 FEW018 29/26 Q1008 NOSIG
2026-04-18 20:00:00,METAR VRMM 182000Z 00000KT 9999 FEW018 29/26 Q1009 NOSIG
2026-04-18 18:00:00,METAR VRMM 181800Z VRB02KT 9999 FEW018 29/26 Q1010 NOSIG
2026-04-18 17:00:00,METAR VRMM 181700Z VRB02KT 9999 FEW018 30/26 Q1010 NOSIG
2026-04-18 16:00:00,METAR VRMM 181600Z 01003KT 9999 SCT018 30/25 Q1010 NOSIG
2026-04-18 15:00:00,METAR VRMM 181500Z 03004KT 9999 FEW018 SCT280 30/25 Q1009 NOSIG
2026-04-18 14:00:00,METAR VRMM 181400Z 02003KT 9999 FEW018 SCT280 30/25 Q1008 NOSIG
2026-04-18 13:00:00,METAR VRMM 181300Z 35004KT 320V040 9999 FEW018 SCT280 31/26 Q1008 NOSIG
2026-04-18 12:00:00,METAR VRMM 181200Z 34004KT 9999 SCT018 33/26 Q1007 NOSIG
2026-04-18 11:00:00,METAR VRMM 181100Z 35005KT 9999 SCT018 33/26 Q1007 NOSIG
2026-04-18 10:00:00,METAR VRMM 181000Z VRB05KT 9999 SCT018 33/26 Q1007 NOSIG
2026-04-18 09:00:00,METAR VRMM 180900Z 34005KT 9999 SCT018TCU 33/27 Q1007 NOSIG
2026-04-18 08:00:00,METAR VRMM 180800Z 33005KT 9999 SCT018TCU 32/26 Q1008 NOSIG
2026-04-18 07:00:00,METAR VRMM 180700Z 33006KT 9999 SCT018 SCT280 32/26 Q1009 NOSIG
2026-04-18 06:00:00,METAR VRMM 180600Z 35004KT 9999 SCT018 32/26 Q1010 NOSIG
2026-04-18 05:00:00,METAR VRMM 180500Z 33005KT 9999 FEW018 32/27 Q1010 NOSIG
2026-04-18 04:00:00,METAR VRMM 180400Z 34005KT 9999 FEW018 32/26 Q1010 NOSIG
2026-04-18 03:00:00,METAR VRMM 180300Z 32004KT 9999 SCT018 31/26 Q1010 NOSIG
2026-04-18 02:00:00,METAR VRMM 180200Z VRB02KT 9999 FEW018 30/26 Q1009 NOSIG
2026-04-18 01:00:00,METAR VRMM 180100Z 30003KT 250V340 9999 FEW018 SCT280 29/26 Q1008 NOSIG
2026-04-18 00:00:00,METAR VRMM 180000Z 30005KT 9999 FEW018 29/26 Q1008 NOSIG
2026-04-17 23:00:00,METAR VRMM 172300Z 30005KT 9999 FEW018 29/26 Q1008 NOSIG
2026-04-17 22:00:00,METAR VRMM 172200Z 29005KT 9999 FEW018 29/26 Q1008 NOSIG
2026-04-17 21:00:00,METAR VRMM 172100Z 28005KT 9999 FEW018 29/26 Q1008 NOSIG
2026-04-17 20:00:00,METAR VRMM 172000Z 29005KT 9999 FEW018 30/26 Q1008 NOSIG
2026-04-17 19:00:00,METAR VRMM 171900Z 29003KT 9999 FEW018 30/26 Q1009 NOSIG
2026-04-17 18:00:00,METAR VRMM 171800Z 29005KT 9999 FEW018 SCT280 30/26 Q1010 NOSIG
2026-04-17 17:00:00,METAR VRMM 171700Z 28005KT 9999 FEW018 SCT280 30/26 Q1010 NOSIG
2026-04-17 16:00:00,METAR VRMM 171600Z 28005KT 9999 FEW018 SCT280 30/25 Q1010 NOSIG
2026-04-17 15:00:00,METAR VRMM 171500Z 29005KT 9999 FEW018TCU 30/25 Q1009 NOSIG
2026-04-17 14:00:00,METAR VRMM 171400Z 28005KT 9999 FEW018TCU 30/25 Q1008 NOSIG
2026-04-17 13:00:00,METAR VRMM 171300Z 31005KT 9999 FEW018 FEW019CB 31/25 Q1008 CB NNE NOSIG
2026-04-17 12:00:00,METAR VRMM 171200Z 29005KT 9999 FEW018 32/25 Q1007 NOSIG
2026-04-17 11:00:00,METAR VRMM 171100Z 30005KT 9999 FEW018TCU 32/25 Q1007 NOSIG
2026-04-17 10:00:00,METAR VRMM 171000Z 26005KT 9999 FEW018 SCT290 32/26 Q1007 NOSIG
2026-04-17 09:00:00,METAR VRMM 170900Z 30005KT 9999 FEW018 SCT290 32/25 Q1008 NOSIG
2026-04-17 08:00:00,METAR VRMM 170800Z 28006KT 9999 FEW018 BKN290 32/26 Q1008 NOSIG
2026-04-17 07:00:00,METAR VRMM 170700Z 27006KT 9999 FEW018 SCT280 32/26 Q1009 NOSIG
2026-04-17 06:00:00,METAR VRMM 170600Z 29005KT 9999 FEW018 32/26 Q1010 NOSIG
2026-04-17 05:00:00,METAR VRMM 170500Z 30004KT 9999 FEW018 32/26 Q1011 NOSIG
2026-04-17 04:00:00,METAR VRMM 170400Z 26003KT 9999 FEW018 31/25 Q1010 NOSIG
2026-04-17 03:00:00,METAR VRMM 170300Z 27003KT 9999 FEW018TCU 30/25 Q1010 NOSIG
2026-04-17 02:00:00,METAR VRMM 170200Z 27003KT 9999 FEW018TCU 29/26 Q1009 NOSIG
2026-04-17 00:00:00,"METAR VRMM 170000Z 28005KT 9999 TS FEW018 FEW019 29/24 Q1007 RETS CB N,NNE NOSIG"
2026-04-16 22:00:00,METAR VRMM 162200Z 28003KT 9999 FEW018 SCT120 BKN270 28/25 Q1007 NOSIG
2026-04-16 21:00:00,METAR VRMM 162100Z 27004KT 9999 FEW018 BKN120 28/26 Q1008 NOSIG
2026-04-16 20:00:00,METAR VRMM 162000Z 29004KT 9999 FEW018 BKN120 29/25 Q1009 NOSIG
2026-04-16 19:00:00,METAR VRMM 161900Z VRB01KT 9999 FEW018 BKN120 28/25 Q1009 NOSIG
2026-04-16 18:00:00,METAR VRMM 161800Z 00000KT 9999 FEW017TCU BKN110 28/25 Q1010 TEMPO 5000 TSRA
2026-04-16 17:00:00,METAR VRMM 161700Z 00000KT 9999 FEW017TCU BKN110 28/25 Q1010 TEMPO 5000 TSRA
2026-04-16 16:00:00,METAR VRMM 161600Z 35003KT 9999 FEW017TCU BKN110 28/25 Q1009 TEMPO 5000 TSRA
2026-04-16 15:00:00,METAR VRMM 161500Z VRB02KT 9999 FEW017TCU BKN110 28/24 Q1008 TEMPO 5000 TSRA
2026-04-16 14:00:00,METAR VRMM 161400Z VRB02KT 9999 FEW017TCU SCT023 BKN110 28/25 Q1008 TEMPO 5000 TSRA
2026-04-16 13:00:00,METAR VRMM 161300Z VRB02KT 9999 FEW017TCU SCT023 BKN110 29/25 Q1007 TEMPO 5000 TSRA
2026-04-16 12:00:00,METAR VRMM 161200Z 10003KT 060V140 9999 -RA FEW017TCU SCT023 BKN110 29/25 Q1007 TEMPO 5000 TSRA
2026-04-16 11:00:00,METAR VRMM 161100Z 17005KT 9999 -RA FEW017 FEW018CB SCT023 BKN110 29/24 Q1007 CB SE TEMPO 5000 TSRA
2026-04-16 10:00:00,METAR VRMM 161000Z VRB02KT 9999 FEW017 FEW018CB SCT023 BKN110 29/25 Q1007 CB S TEMPO 5000 TSRA
2026-04-16 09:00:00,"METAR VRMM 160900Z VRB01KT 9999 FEW017 FEW018CB SCT023 BKN110 29/24 Q1007 CB E,SSE TEMPO 5000 TSRA"
2026-04-16 08:00:00,METAR VRMM 160800Z 13003KT 9999 -RA FEW017TCU BKN110 28/25 Q1009 TEMPO 5000 TSRA
2026-04-16 07:00:00,METAR VRMM 160700Z VRB02KT 9999 -RA FEW017TCU BKN110 27/24 Q1010 TEMPO 5000 TSRA
2026-04-16 05:00:00,"METAR VRMM 160500Z 21004KT 8000 -TSRA FEW016 FEW017CB OVC100 26/24 Q1011 RETS CB SE,W TEMPO 4000 TSRA"
2026-04-16 04:00:00,"METAR VRMM 160400Z 28008KT 7000 -TSRA SCT016 FEW017CB OVC100 25/24 Q1011 RETSRA CB ESE,W TEMPO 4000 TSRA"
2026-04-16 02:17:00,"METAR VRMM 160217Z 33020KT 1000 +TSRA FEW010 SCT015 SCT016CB 26/25 Q1010 RETS CB N,NE,E,NW,OVERHEAD TEMPO 4000 TSRA"
2026-04-16 01:00:00,"METAR VRMM 160100Z 26012KT 9999 SCT016 FEW017CB 29/26 Q1008 RETS CB N,NE,SE,S,WNW TEMPO 5000 TSRA"
2026-04-16 00:00:00,METAR VRMM 160000Z 25009KT 9999 TS FEW017 FEW018CB SCT270 29/26 Q1007 RETS CB N TEMPO TS
2026-04-15 23:00:00,METAR VRMM 152300Z 24010KT 9999 TS FEW017 FEW018CB SCT270 29/26 Q1007 RETS CB E TEMPO TS
2026-04-15 22:00:00,"METAR VRMM 152200Z 25009KT 9999 TS FEW017 FEW018CB BKN270 29/26 Q1007 RETS CB N,NNE TEMPO TS"
2026-04-15 21:00:00,"METAR VRMM 152100Z 24009KT 9999 TS FEW017 FEW018CB BKN270 29/26 Q1008 RETS CB N,NNE,NW TEMPO TS"
2026-04-15 20:00:00,"METAR VRMM 152000Z 27010KT 9999 TS SCT017 FEW018CB BKN270 29/27 Q1008 RETS CB N,NNE TEMPO TS"
2026-04-15 19:00:00,"METAR VRMM 151900Z 25010KT 9999 TS SCT017 FEW018CB BKN270 29/26 Q1009 RETS CB N,NNE TEMPO 4000 TSRA"
2026-04-15 18:00:00,METAR VRMM 151800Z 24010KT 9999 TS SCT017 FEW018CB BKN270 30/26 Q1010 RETS CB N TEMPO 4000 TSRA
2026-04-15 17:00:00,METAR VRMM 151700Z 23009KT 9999 TS FEW017 FEW018CB SCT110 BKN270 30/26 Q1010 RETS CB N TEMPO 4000 TSRA
2026-04-15 15:52:00,METAR VRMM 151552Z 24010KT 9999 TS FEW017 FEW018CB SCT110 BKN270 29/26 Q1009 CB NNE TEMPO 4000 TSRA
2026-04-15 15:00:00,METAR VRMM 151500Z 23005KT 9999 FEW017TCU SCT110 BKN270 29/26 Q1009 TEMPO 4000 TSRA
2026-04-15 14:00:00,METAR VRMM 151400Z 22005KT 9999 FEW017 SCT110 BKN270 29/26 Q1008 TEMPO 4000 TSRA
2026-04-15 13:00:00,METAR VRMM 151300Z 26008KT 9999 FEW017TCU SCT022 BKN270 29/27 Q1007 TEMPO 4000 TSRA
2026-04-15 12:00:00,METAR VRMM 151200Z 27008KT 9999 FEW017TCU BKN022 29/27 Q1007 TEMPO 4000 TSRA
2026-04-15 11:00:00,"METAR VRMM 151100Z 28008KT 9999 FEW017 FEW018CB SCT022 BKN110 29/26 Q1007 CB ENE,W TEMPO 4000 TSRA"
2026-04-15 10:00:00,"METAR VRMM 151000Z 23011KT 9999 FEW017 FEW018CB SCT022 BKN110 30/26 Q1007 CB SW,NW TEMPO 4000 TSRA"
2026-04-15 09:00:00,"METAR VRMM 150900Z 24009KT 9999 SCT017 FEW018CB BKN110 30/26 Q1008 CB W,WNW,NNW TEMPO 4000 TSRA"
2026-04-15 08:00:00,"METAR VRMM 150800Z 22006KT 9999 SCT017 FEW018CB BKN110 31/26 Q1009 CB SSE,S,SW TEMPO 4000 TSRA"
2026-04-15 07:00:00,"METAR VRMM 150700Z 25006KT 9999 SCT017 SCT018CB 31/26 Q1009 CB E,SE,S,SSW TEMPO 4000 TSRA"
2026-04-15 06:00:00,METAR VRMM 150600Z 23006KT 9999 SCT017 FEW018CB BKN120 30/25 Q1010 CB NNW TEMPO 5000 SHRA
2026-04-15 05:00:00,"METAR VRMM 150500Z 03005KT 9999 -SHRA SCT016 FEW017CB 30/27 Q1010 RETS CB N,S,W TEMPO 5000 SHRA"
2026-04-15 04:00:00,"METAR VRMM 150400Z 25007KT 9999 SCT016 FEW017CB 30/26 Q1010 CB E,WNW TEMPO 4000 TSRA"
2026-04-15 03:00:00,"METAR VRMM 150300Z 25008KT 9999 SCT017 FEW018CB SCT270 30/26 Q1009 CB NE,W TEMPO 4000 TSRA"
2026-04-15 02:00:00,METAR VRMM 150200Z 25007KT 9999 SCT017 FEW018CB BKN270 30/26 Q1009 CB SW NOSIG
2026-04-15 01:00:00,METAR VRMM 150100Z 22004KT 9999 SCT017 FEW018CB BKN280 29/26 Q1008 CB SE NOSIG
2026-04-15 00:00:00,"METAR VRMM 150000Z 27007KT 9999 SCT017 FEW018CB 29/26 Q1008 CB N,S NOSIG"
2026-04-14 23:00:00,METAR VRMM 142300Z 23006KT 9999 FEW018 29/26 Q1007 NOSIG
2026-04-14 22:00:00,METAR VRMM 142200Z 21008KT 9999 FEW018 30/26 Q1008 NOSIG
2026-04-14 21:00:00,METAR VRMM 142100Z 21006KT 9999 FEW019 29/26 Q1008 NOSIG
2026-04-14 20:00:00,METAR VRMM 142000Z 20006KT 9999 FEW019 30/25 Q1009 NOSIG
2026-04-14 19:00:00,METAR VRMM 141900Z 20005KT 9999 FEW019 SCT130 30/26 Q1010 NOSIG
2026-04-14 18:00:00,METAR VRMM 141800Z 22005KT 9999 FEW018 BKN280 30/26 Q1011 NOSIG
2026-04-14 17:00:00,METAR VRMM 141700Z 24005KT 9999 FEW018 BKN280 30/26 Q1011 NOSIG
2026-04-14 15:00:00,"METAR VRMM 141500Z 24006KT 9999 TS FEW018 FEW018CB SCT280 30/26 Q1010 CB NE,E TEMPO 5000 TSRA"
2026-04-14 14:00:00,METAR VRMM 141400Z 24007KT 9999 FEW018TCU BKN280 30/26 Q1009 NOSIG
2026-04-14 13:00:00,METAR VRMM 141300Z 24006KT 9999 FEW018 FEW019CB BKN280 30/26 Q1009 CB NE NOSIG
2026-04-14 12:00:00,"METAR VRMM 141200Z 25009KT 9999 FEW018 FEW019CB BKN280 31/27 Q1008 CB ENE,ESE NOSIG"
2026-04-14 11:00:00,METAR VRMM 141100Z 24009KT 9999 SCT018TCU SCT120 BKN270 32/27 Q1008 TEMPO FEW018CB
2026-04-14 10:00:00,METAR VRMM 141000Z 25009KT 9999 SCT018TCU BKN120 33/27 Q1008 TEMPO 5000 SHRA FEW017CB
2026-04-14 09:00:00,METAR VRMM 140900Z 28006KT 9999 SCT018TCU SCT120 33/25 Q1009 TEMPO FEW018CB
2026-04-14 08:00:00,METAR VRMM 140800Z 25007KT 9999 SCT018 SCT280 32/26 Q1010 TEMPO FEW018CB
2026-04-14 07:00:00,"METAR VRMM 140700Z 26007KT 9999 -SHRA SCT016 FEW017CB 30/26 Q1011 RESHRA CB SW,W TEMPO 5000 SHRA"
2026-04-14 06:00:00,METAR VRMM 140600Z 27004KT 9999 -SHRA SCT017 FEW018CB 32/26 Q1012 CB S NOSIG
2026-04-14 05:00:00,METAR VRMM 140500Z 26005KT 9999 SCT017TCU 32/26 Q1012 NOSIG
2026-04-14 04:00:00,METAR VRMM 140400Z 28005KT 9999 SCT017TCU 32/26 Q1012 NOSIG
2026-04-14 03:00:00,METAR VRMM 140300Z 30006KT 9999 FEW017 FEW018CB 31/26 Q1011 CB S NOSIG
2026-04-14 02:00:00,METAR VRMM 140200Z 28007KT 9999 FEW017TCU 29/26 Q1010 NOSIG
2026-04-14 01:00:00,METAR VRMM 140100Z 25005KT 9999 FEW017TCU 29/26 Q1009 NOSIG
2026-04-14 00:00:00,METAR VRMM 140000Z 25006KT 9999 SCT017TCU BKN280 29/26 Q1009 NOSIG
2026-04-13 23:00:00,METAR VRMM 132300Z 22005KT 9999 SCT018TCU BKN280 29/26 Q1009 NOSIG
2026-04-13 22:00:00,METAR VRMM 132200Z 20005KT 9999 FEW018TCU BKN280 29/26 Q1009 NOSIG
2026-04-13 20:00:00,"METAR VRMM 132000Z 29006KT 9999 TS FEW017 FEW018CB 30/28 Q1010 RETS CB S,SW,W TEMPO TS"
2026-04-13 19:00:00,METAR VRMM 131900Z 31005KT 9999 SCT018TCU 30/27 Q1011 NOSIG
2026-04-13 18:00:00,METAR VRMM 131800Z 29005KT 9999 FEW018TCU SCT120 30/27 Q1012 NOSIG
2026-04-13 17:00:00,METAR VRMM 131700Z 31005KT 9999 FEW018 SCT120 30/27 Q1012 NOSIG
2026-04-13 16:00:00,METAR VRMM 131600Z 28005KT 9999 FEW018 30/27 Q1011 NOSIG
2026-04-13 15:00:00,METAR VRMM 131500Z 28007KT 9999 FEW018 30/27 Q1011 NOSIG
2026-04-13 14:00:00,METAR VRMM 131400Z 30007KT 9999 FEW018 30/27 Q1010 NOSIG
2026-04-13 13:00:00,METAR VRMM 131300Z 29006KT 9999 FEW018 30/27 Q1009 NOSIG
2026-04-13 12:00:00,METAR VRMM 131200Z 30007KT 280V350 9999 FEW018 31/27 Q1009 NOSIG
2026-04-13 11:00:00,METAR VRMM 131100Z 28009KT 9999 FEW018 32/27 Q1008 NOSIG
2026-04-13 10:00:00,METAR VRMM 131000Z 28007KT 9999 FEW018TCU 32/28 Q1008 NOSIG
2026-04-13 09:00:00,METAR VRMM 130900Z 30006KT 9999 FEW018TCU 32/28 Q1009 NOSIG
2026-04-13 08:00:00,METAR VRMM 130800Z 32005KT 9999 FEW018 SCT110 33/28 Q1010 NOSIG
2026-04-13 07:00:00,METAR VRMM 130700Z 30006KT 9999 FEW018 FEW019CB SCT110 32/28 Q1011 CB NE NOSIG
2026-04-13 06:00:00,METAR VRMM 130600Z 31007KT 9999 SCT017TCU BKN110 31/27 Q1012 TEMPO TS
2026-04-13 05:00:00,METAR VRMM 130500Z 29007KT 9999 FEW017TCU BKN110 32/28 Q1012 TEMPO FEW018CB
2026-04-13 04:00:00,METAR VRMM 130400Z 29006KT 9999 FEW017TCU BKN110 31/27 Q1012 TEMPO FEW018CB
2026-04-13 03:00:00,METAR VRMM 130300Z 30005KT 9999 FEW017TCU SCT110 BKN260 29/27 Q1011 TEMPO FEW018CB
2026-04-13 02:00:00,METAR VRMM 130200Z 25010KT 9999 FEW017TCU BKN110 28/27 Q1010 TEMPO FEW018CB
2026-04-13 01:00:00,METAR VRMM 130100Z 24012KT 9999 FEW017 FEW018CB SCT023 BKN110 28/27 Q1010 CB NE TEMPO 4000 TSRA
2026-04-12 22:00:00,METAR VRMM 122200Z 22006KT 9999 FEW017TCU BKN120 29/26 Q1009 NOSIG
2026-04-12 21:00:00,METAR VRMM 122100Z 20004KT 9999 FEW017TCU BKN120 29/27 Q1009 NOSIG
2026-04-12 20:00:00,METAR VRMM 122000Z 21005KT 9999 FEW017TCU BKN120 29/26 Q1010 NOSIG
2026-04-12 19:00:00,METAR VRMM 121900Z 21005KT 9999 FEW017TCU BKN120 29/26 Q1011 TEMPO 5000 TSRA
2026-04-12 18:00:00,METAR VRMM 121800Z VRB02KT 9999 FEW017TCU BKN120 29/27 Q1010 TEMPO 5000 TSRA
2026-04-12 16:00:00,"METAR VRMM 121600Z 24009KT 9999 -TSRA SCT017 FEW018CB BKN270 29/27 Q1011 RETS CB N,NW TEMPO 5000 TSRA"
2026-04-12 15:00:00,METAR VRMM 121500Z 22009KT 9999 TS FEW017 FEW018CB BKN270 29/26 Q1010 RETS CB E TEMPO 5000 TSRA
2026-04-12 14:00:00,METAR VRMM 121400Z 23011KT 9999 SCT018TCU BKN270 30/27 Q1009 TEMPO 5000 SHRA
2026-04-12 13:00:00,METAR VRMM 121300Z 26011KT 9999 SCT018 FEW019CB BKN270 31/27 Q1009 CB NNW TEMPO 5000 SHRA
2026-04-12 12:00:00,METAR VRMM 121200Z 27009KT 9999 FEW018 FEW019CB BKN270 32/28 Q1008 CB N TEMPO 5000 SHRA
2026-04-12 11:00:00,METAR VRMM 121100Z 28010KT 9999 FEW018 SCT280 32/28 Q1007 TEMPO 5000 SHRA
2026-04-12 10:00:00,METAR VRMM 121000Z 27010KT 9999 FEW018 FEW019CB 32/28 Q1007 CB NNE TEMPO 5000 SHRA
2026-04-12 09:00:00,METAR VRMM 120900Z 27009KT 9999 FEW018 FEW019CB 32/28 Q1008 CB SE TEMPO 5000 SHRA
2026-04-12 08:00:00,METAR VRMM 120800Z 26009KT 9999 FEW017CB FEW018 32/28 Q1008 CB NE TEMPO 5000 SHRA
2026-04-12 07:00:00,METAR VRMM 120700Z 25007KT 9999 -SHRA SCT017TCU 31/28 Q1009 TEMPO 5000 SHRA
2026-04-12 06:00:00,METAR VRMM 120600Z 26007KT 9999 -SHRA SCT017TCU 32/28 Q1010 NOSIG
2026-04-12 05:00:00,METAR VRMM 120500Z 26007KT 9999 SCT017TCU 32/28 Q1010 NOSIG
2026-04-12 04:00:00,METAR VRMM 120400Z 24006KT 9999 SCT018TCU 31/27 Q1011 NOSIG
2026-04-12 03:00:00,METAR VRMM 120300Z 25005KT 9999 SCT018TCU BKN280 31/27 Q1010 NOSIG
2026-04-12 02:00:00,METAR VRMM 120200Z 25006KT 9999 SCT018TCU BKN280 30/27 Q1009 NOSIG
2026-04-12 01:00:00,METAR VRMM 120100Z 24007KT 9999 FEW018TCU SCT025 BKN280 30/26 Q1009 NOSIG
2026-04-12 00:00:00,METAR VRMM 120000Z 25008KT 9999 FEW018TCU BKN120 30/27 Q1008 NOSIG
2026-04-11 23:00:00,METAR VRMM 112300Z 25008KT 9999 FEW018TCU BKN120 30/27 Q1008 NOSIG
2026-04-11 22:00:00,METAR VRMM 112200Z 27007KT 9999 FEW018 SCT120 BKN280 30/27 Q1008 NOSIG
2026-04-11 21:00:00,METAR VRMM 112100Z 26007KT 9999 SCT018TCU BKN280 30/27 Q1009 NOSIG
2026-04-11 20:00:00,METAR VRMM 112000Z 25008KT 9999 SCT018 BKN280 30/27 Q1009 NOSIG
2026-04-11 19:00:00,METAR VRMM 111900Z 28005KT 9999 FEW018 BKN280 30/27 Q1011 NOSIG
2026-04-11 18:00:00,METAR VRMM 111800Z 28005KT 9999 SCT018 BKN280 30/27 Q1011 NOSIG
2026-04-11 17:00:00,METAR VRMM 111700Z 30005KT 9999 FEW018 BKN280 30/27 Q1012 NOSIG
2026-04-11 16:00:00,METAR VRMM 111600Z 33005KT 9999 FEW018 BKN280 30/27 Q1011 NOSIG
2026-04-11 15:00:00,METAR VRMM 111500Z 30005KT 9999 FEW018 BKN280 30/27 Q1011 NOSIG
2026-04-11 14:00:00,METAR VRMM 111400Z 30005KT 9999 FEW018 SCT120 BKN280 30/27 Q1010 NOSIG
2026-04-11 13:00:00,METAR VRMM 111300Z 29007KT 9999 FEW018 BKN110 31/28 Q1009 NOSIG
2026-04-11 12:00:00,METAR VRMM 111200Z 28006KT 9999 FEW018 BKN110 31/27 Q1009 NOSIG
2026-04-11 11:00:00,METAR VRMM 111100Z 29006KT 9999 SCT018 32/27 Q1009 NOSIG
2026-04-11 10:00:00,METAR VRMM 111000Z 29006KT 9999 SCT018 32/28 Q1009 NOSIG
2026-04-11 09:00:00,METAR VRMM 110900Z 29006KT 9999 SCT018 32/28 Q1009 NOSIG
2026-04-11 08:00:00,METAR VRMM 110800Z 30006KT 9999 SCT018 33/27 Q1010 NOSIG
2026-04-11 07:00:00,METAR VRMM 110700Z 31006KT 9999 FEW018 32/27 Q1011 NOSIG
2026-04-11 06:00:00,METAR VRMM 110600Z 27006KT 9999 FEW018 32/27 Q1012 NOSIG
2026-04-11 05:00:00,METAR VRMM 110500Z 30005KT 270V360 9999 SCT018 32/27 Q1012 NOSIG
2026-04-11 04:00:00,METAR VRMM 110400Z 27006KT 9999 FEW018 31/27 Q1012 NOSIG
2026-04-11 03:00:00,METAR VRMM 110300Z 28005KT 9999 FEW018 SCT130 30/26 Q1012 NOSIG
2026-04-11 02:00:00,METAR VRMM 110200Z 28004KT 9999 SCT018 SCT130 30/26 Q1011 NOSIG
2026-04-11 01:00:00,METAR VRMM 110100Z 27005KT 9999 FEW019 SCT130 29/26 Q1010 NOSIG
2026-04-11 00:00:00,METAR VRMM 110000Z 26005KT 9999 FEW018 BKN120 29/26 Q1010 NOSIG
2026-04-10 23:00:00,METAR VRMM 102300Z 28006KT 9999 FEW018 BKN120 29/26 Q1009 NOSIG
2026-04-10 22:00:00,METAR VRMM 102200Z 27006KT 9999 FEW018TCU BKN120 29/26 Q1010 NOSIG
2026-04-10 21:00:00,METAR VRMM 102100Z 27006KT 9999 FEW018TCU SCT120 29/26 Q1010 NOSIG
2026-04-10 20:00:00,METAR VRMM 102000Z 25007KT 9999 FEW018TCU SCT280 29/27 Q1011 NOSIG
2026-04-10 19:00:00,METAR VRMM 101900Z 25005KT 9999 FEW019 BKN280 29/26 Q1012 NOSIG
2026-04-10 18:00:00,METAR VRMM 101800Z 23006KT 9999 FEW019 BKN280 30/26 Q1013 NOSIG
2026-04-10 17:00:00,METAR VRMM 101700Z 22005KT 9999 FEW018 BKN280 30/27 Q1013 NOSIG
2026-04-10 16:00:00,METAR VRMM 101600Z 25005KT 9999 FEW018 BKN280 30/26 Q1013 NOSIG
2026-04-10 15:00:00,METAR VRMM 101500Z 23005KT 200V260 9999 FEW018 BKN280 30/27 Q1012 NOSIG
2026-04-10 14:00:00,METAR VRMM 101400Z 25005KT 9999 FEW018 BKN280 30/27 Q1012 NOSIG
2026-04-10 13:00:00,METAR VRMM 101300Z 24005KT 9999 FEW018 BKN280 31/27 Q1011 NOSIG
2026-04-10 12:00:00,METAR VRMM 101200Z 24007KT 9999 FEW018 BKN280 32/27 Q1010 NOSIG
2026-04-10 11:00:00,METAR VRMM 101100Z 27006KT 9999 FEW018 BKN280 32/27 Q1010 NOSIG
2026-04-10 10:00:00,METAR VRMM 101000Z 29005KT 9999 FEW018 BKN280 33/27 Q1010 NOSIG
2026-04-10 09:00:00,METAR VRMM 100900Z 29005KT 9999 FEW018 BKN280 33/27 Q1010 NOSIG
2026-04-10 08:00:00,METAR VRMM 100800Z 29006KT 9999 FEW018 BKN280 33/28 Q1011 NOSIG
2026-04-10 07:00:00,METAR VRMM 100700Z 25006KT 9999 FEW018 BKN280 32/27 Q1013 NOSIG
2026-04-10 06:00:00,METAR VRMM 100600Z 25005KT 9999 FEW018 BKN280 32/28 Q1013 NOSIG
2026-04-10 05:00:00,METAR VRMM 100500Z 28005KT 260V320 9999 FEW018 BKN280 32/27 Q1013 NOSIG
2026-04-10 04:00:00,METAR VRMM 100400Z 27005KT 9999 FEW018 BKN280 31/26 Q1013 NOSIG
2026-04-10 03:00:00,METAR VRMM 100300Z 28005KT 9999 FEW018 BKN280 31/25 Q1013 NOSIG
2026-04-10 02:00:00,METAR VRMM 100200Z 28004KT 9999 FEW018 BKN280 29/26 Q1012 NOSIG
2026-04-10 01:00:00,METAR VRMM 100100Z 28005KT 9999 FEW018 BKN280 29/26 Q1011 NOSIG
2026-04-10 00:00:00,METAR VRMM 100000Z 28005KT 9999 FEW018 29/26 Q1010 NOSIG
2026-04-09 23:00:00,METAR VRMM 092300Z 27006KT 9999 FEW018 29/26 Q1010 NOSIG
2026-04-09 22:00:00,METAR VRMM 092200Z 28005KT 9999 FEW018 29/26 Q1010 NOSIG
2026-04-09 21:00:00,METAR VRMM 092100Z 29004KT 260V330 9999 FEW018 29/26 Q1010 NOSIG
2026-04-09 20:00:00,METAR VRMM 092000Z 32004KT 290V360 9999 FEW018 29/26 Q1011 NOSIG
2026-04-09 19:00:00,METAR VRMM 091900Z 31005KT 270V360 9999 FEW018 30/26 Q1011 NOSIG
2026-04-09 18:00:00,METAR VRMM 091800Z 33005KT 9999 SCT018 30/27 Q1012 NOSIG
2026-04-09 17:00:00,METAR VRMM 091700Z 36006KT 9999 FEW018 30/26 Q1012 NOSIG
2026-04-09 16:00:00,METAR VRMM 091600Z 36007KT 9999 SCT019 30/26 Q1012 NOSIG
2026-04-09 15:00:00,METAR VRMM 091500Z 35007KT 9999 FEW019 30/26 Q1011 NOSIG
2026-04-09 14:00:00,METAR VRMM 091400Z 34007KT 9999 FEW020 30/26 Q1010 NOSIG
2026-04-09 13:00:00,METAR VRMM 091300Z 35007KT 9999 FEW020 31/26 Q1010 NOSIG
2026-04-09 12:00:00,METAR VRMM 091200Z 35006KT 9999 FEW020 31/25 Q1009 NOSIG
2026-04-09 11:00:00,METAR VRMM 091100Z 33008KT 9999 FEW020 32/26 Q1009 NOSIG
2026-04-09 10:00:00,METAR VRMM 091000Z 32007KT 9999 FEW020 32/26 Q1009 NOSIG
2026-04-09 09:00:00,METAR VRMM 090900Z 30010KT 9999 FEW020 SCT280 32/26 Q1010 NOSIG
2026-04-09 08:00:00,METAR VRMM 090800Z 28013KT 9999 FEW020 SCT280 32/25 Q1011 NOSIG
2026-04-09 07:00:00,METAR VRMM 090700Z 28012KT 9999 FEW020 BKN270 32/25 Q1012 NOSIG
2026-04-09 06:00:00,METAR VRMM 090600Z 29011KT 9999 FEW019 BKN270 32/26 Q1013 NOSIG
2026-04-09 05:00:00,METAR VRMM 090500Z 27012KT 9999 FEW018 BKN270 27/34 Q1013 NOSIG
2026-04-09 04:00:00,METAR VRMM 090400Z 27012KT 9999 FEW018 BKN270 31/25 Q1013 NOSIG
2026-04-09 03:00:00,METAR VRMM 090300Z 27012KT 9999 FEW018 BKN270 31/25 Q1013 NOSIG
2026-04-09 02:00:00,METAR VRMM 090200Z 28012KT 9999 FEW018 BKN270 30/24 Q1012 NOSIG
2026-04-09 01:00:00,METAR VRMM 090100Z 28012KT 9999 FEW018 BKN270 30/25 Q1011 NOSIG
2026-04-09 00:00:00,METAR VRMM 090000Z 29009KT 9999 FEW018 BKN270 30/26 Q1011 NOSIG
2026-04-08 23:00:00,METAR VRMM 082300Z 30011KT 9999 FEW018 BKN270 30/25 Q1011 NOSIG
2026-04-08 22:00:00,METAR VRMM 082200Z 30010KT 9999 FEW018 BKN270 30/25 Q1011 NOSIG
2026-04-08 21:00:00,METAR VRMM 082100Z 31007KT 9999 FEW018 BKN270 30/26 Q1010 NOSIG
2026-04-08 20:00:00,METAR VRMM 082000Z 30009KT 9999 FEW018 BKN270 30/26 Q1011 NOSIG
2026-04-08 19:00:00,METAR VRMM 081900Z 32006KT 9999 FEW018TCU SCT270 30/26 Q1012 NOSIG
2026-04-08 18:00:00,METAR VRMM 081800Z 32007KT 9999 FEW018TCU SCT270 30/25 Q1013 NOSIG
2026-04-08 17:00:00,METAR VRMM 081700Z 32007KT 9999 FEW018 SCT270 30/26 Q1013 NOSIG
2026-04-08 16:00:00,METAR VRMM 081600Z 31007KT 9999 FEW018 BKN270 30/25 Q1012 NOSIG
2026-04-08 15:00:00,METAR VRMM 081500Z 32008KT 9999 FEW018TCU BKN270 30/25 Q1011 NOSIG
2026-04-08 14:00:00,METAR VRMM 081400Z 33009KT 9999 FEW018 BKN270 30/26 Q1011 NOSIG
2026-04-08 13:00:00,METAR VRMM 081300Z 33010KT 9999 FEW018 BKN270 31/26 Q1010 NOSIG
2026-04-08 12:00:00,METAR VRMM 081200Z 34010KT 9999 SCT018TCU BKN270 32/26 Q1009 NOSIG
2026-04-08 11:00:00,METAR VRMM 081100Z 34011KT 9999 FEW018 BKN270 32/26 Q1009 NOSIG
2026-04-08 10:00:00,METAR VRMM 081000Z 32008KT 9999 FEW018 BKN280 32/26 Q1009 NOSIG
2026-04-08 09:00:00,METAR VRMM 080900Z 33008KT 9999 FEW018 BKN280 32/26 Q1009 NOSIG
2026-04-08 08:00:00,METAR VRMM 080800Z 33011KT 9999 FEW018 SCT280 33/27 Q1010 NOSIG
2026-04-08 07:00:00,METAR VRMM 080700Z 34010KT 9999 SCT018 33/26 Q1011 NOSIG
2026-04-08 06:00:00,"METAR VRMM 080600Z 33011KT 9999 FEW018 FEW019CB 33/27 Q1012 CB SE,SSE,S,SW NOSIG"
2026-04-08 05:00:00,METAR VRMM 080500Z 34010KT 9999 FEW018 FEW019 32/26 Q1012 CB SSW NOSIG
2026-04-08 04:00:00,METAR VRMM 080400Z 33011KT 9999 FEW018TCU 31/27 Q1012 NOSIG
2026-04-08 03:00:00,METAR VRMM 080300Z 35012KT 9999 FEW018 31/26 Q1011 NOSIG
2026-04-08 02:00:00,METAR VRMM 080200Z 35007KT 9999 SCT017TCU 30/27 Q1010 NOSIG
2026-04-08 01:00:00,METAR VRMM 080100Z 34009KT 310V030 9999 SCT017TCU BKN280 30/27 Q1010 NOSIG
2026-04-08 00:00:00,METAR VRMM 080000Z 33009KT 310V010 9999 SCT017TCU 30/26 Q1009 NOSIG
2026-04-07 23:00:00,"METAR VRMM 072300Z 30009KT 9999 -SHRA SCT017 FEW018CB 30/27 Q1009 CB SE,SW NOSIG"
2026-04-07 22:00:00,METAR VRMM 072200Z 32008KT 9999 SCT018TCU 30/27 Q1009 NOSIG
2026-04-07 21:00:00,METAR VRMM 072100Z 32007KT 9999 SCT018TCU 30/27 Q1010 NOSIG
2026-04-07 20:00:00,METAR VRMM 072000Z 30007KT 9999 SCT018TCU 30/27 Q1011 NOSIG
2026-04-07 19:00:00,METAR VRMM 071900Z 30007KT 9999 SCT018TCU 30/27 Q1012 NOSIG
2026-04-07 18:00:00,METAR VRMM 071800Z 30008KT 270V340 9999 FEW018 SCT280 30/27 Q1012 NOSIG
2026-04-07 17:00:00,METAR VRMM 071700Z 30009KT 260V320 9999 SCT017TCU BKN280 30/27 Q1012 NOSIG
2026-04-07 16:00:00,METAR VRMM 071600Z 30008KT 9999 FEW018 SCT280 30/27 Q1012 NOSIG
2026-04-07 15:00:00,METAR VRMM 071500Z 29010KT 9999 FEW019 SCT290 30/27 Q1011 NOSIG
2026-04-07 14:00:00,METAR VRMM 071400Z 30010KT 9999 SCT019 BKN290 30/27 Q1011 NOSIG
2026-04-07 13:00:00,METAR VRMM 071300Z 30011KT 9999 FEW019 BKN290 31/27 Q1010 NOSIG
2026-04-07 12:00:00,METAR VRMM 071200Z 30011KT 9999 FEW019 BKN290 31/26 Q1009 NOSIG
2026-04-07 11:00:00,METAR VRMM 071100Z 30010KT 9999 FEW019 32/27 Q1009 NOSIG
2026-04-07 10:00:00,METAR VRMM 071000Z 30010KT 9999 FEW018TCU 32/27 Q1010 NOSIG
2026-04-07 09:00:00,METAR VRMM 070900Z 30010KT 9999 FEW018TCU 32/27 Q1010 NOSIG
2026-04-07 08:00:00,METAR VRMM 070800Z 30010KT 9999 FEW018 FEW019CB 32/26 Q1011 CB NE NOSIG
2026-04-07 07:00:00,METAR VRMM 070700Z 31007KT 280V360 9999 SCT017 FEW018CB 31/27 Q1012 CB W NOSIG
2026-04-07 06:00:00,METAR VRMM 070600Z 29010KT 9999 SCT018TCU BKN280 32/28 Q1013 NOSIG
2026-04-07 05:00:00,METAR VRMM 070500Z 28011KT 9999 SCT018TCU BKN280 32/27 Q1014 NOSIG
2026-04-07 04:00:00,METAR VRMM 070400Z 29011KT 9999 SCT018TCU BKN280 31/27 Q1014 NOSIG
2026-04-07 03:00:00,METAR VRMM 070300Z 25011KT 9999 FEW018TCU SCT280 31/27 Q1013 NOSIG
2026-04-07 02:00:00,METAR VRMM 070200Z 25011KT 9999 SCT018TCU 30/27 Q1012 NOSIG
2026-04-07 01:00:00,METAR VRMM 070100Z 26012KT 9999 SCT018TCU 30/27 Q1012 NOSIG
2026-04-07 00:00:00,METAR VRMM 070000Z 27010KT 9999 SCT018TCU 30/27 Q1010 NOSIG
2026-04-06 23:00:00,METAR VRMM 062300Z 28010KT 9999 -SHRA SCT018TCU 30/27 Q1011 NOSIG
2026-04-06 22:00:00,METAR VRMM 062200Z 27012KT 9999 SCT018 30/27 Q1011 NOSIG
2026-04-06 21:00:00,METAR VRMM 062100Z 27011KT 9999 FEW018 30/26 Q1011 NOSIG
2026-04-06 20:00:00,METAR VRMM 062000Z 26010KT 2000 FEW018 30/27 Q1012 NOSIG
2026-04-06 19:00:00,METAR VRMM 061900Z 27010KT 9999 FEW018 30/27 Q1013 NOSIG
2026-04-06 18:00:00,METAR VRMM 061800Z 27009KT 9999 FEW018 30/26 Q1013 NOSIG
2026-04-06 17:00:00,METAR VRMM 061700Z 28010KT 9999 FEW018 30/26 Q1013 NOSIG
2026-04-06 16:00:00,METAR VRMM 061600Z 28006KT 9999 FEW018 30/26 Q1013 NOSIG
2026-04-06 15:00:00,METAR VRMM 061500Z 28008KT 9999 FEW018 30/27 Q1013 NOSIG
2026-04-06 14:00:00,METAR VRMM 061400Z 28009KT 9999 FEW018TCU 31/27 Q1012 NOSIG
2026-04-06 13:00:00,METAR VRMM 061300Z 27009KT 9999 SCT018TCU 31/26 Q1011 NOSIG
2026-04-06 12:00:00,METAR VRMM 061200Z 26009KT 9999 -SHRA SCT018 FEW019CB 32/27 Q1010 CB SSE NOSIG
2026-04-06 11:00:00,METAR VRMM 061100Z 26011KT 9999 SCT018TCU 33/27 Q1010 NOSIG
2026-04-06 10:00:00,METAR VRMM 061000Z 27009KT 9999 SCT018TCU 33/27 Q1010 NOSIG
2026-04-06 09:00:00,METAR VRMM 060900Z 28008KT 9999 SCT018TCU 33/27 Q1011 NOSIG
2026-04-06 08:00:00,METAR VRMM 060800Z 27008KT 9999 SCT018TCU 33/27 Q1011 NOSIG
2026-04-06 07:00:00,METAR VRMM 060700Z 27009KT 9999 SCT018TCU 33/27 Q1012 NOSIG
2026-04-06 06:00:00,METAR VRMM 060600Z 29008KT 9999 SCT018 32/27 Q1013 NOSIG
2026-04-06 05:00:00,METAR VRMM 060500Z 25010KT 9999 SCT018 33/27 Q1013 NOSIG
2026-04-06 04:00:00,METAR VRMM 060400Z 27009KT 9999 FEW018 32/27 Q1013 NOSIG
2026-04-06 03:00:00,METAR VRMM 060300Z 26009KT 9999 SCT018 31/26 Q1012 NOSIG
2026-04-06 02:00:00,METAR VRMM 060200Z 26008KT 9999 FEW018 30/27 Q1012 NOSIG
2026-04-06 01:00:00,METAR VRMM 060100Z 27009KT 9999 FEW019 29/25 Q1011 NOSIG
2026-04-06 00:00:00,METAR VRMM 060000Z 26009KT 9999 SCT018TCU 29/26 Q1011 NOSIG
2026-04-05 23:00:00,METAR VRMM 052300Z 26009KT 9999 FEW018 29/26 Q1010 NOSIG
2026-04-05 22:00:00,METAR VRMM 052200Z 26008KT 9999 FEW018 29/26 Q1010 NOSIG
2026-04-05 21:00:00,METAR VRMM 052100Z 27007KT 9999 FEW018 29/26 Q1011 NOSIG
2026-04-05 20:00:00,METAR VRMM 052000Z 25005KT 9999 FEW018 SCT280 29/26 Q1011 NOSIG
2026-04-05 19:00:00,METAR VRMM 051900Z 25005KT 9999 FEW018 BKN280 29/26 Q1011 NOSIG
2026-04-05 18:00:00,METAR VRMM 051800Z 25006KT 9999 FEW018 SCT280 30/26 Q1012 NOSIG
2026-04-05 17:00:00,METAR VRMM 051700Z 26006KT 9999 FEW018 BKN280 30/25 Q1012 NOSIG
2026-04-05 16:00:00,METAR VRMM 051600Z 26007KT 9999 FEW018 BKN280 30/25 Q1012 NOSIG
2026-04-05 15:00:00,METAR VRMM 051500Z 27008KT 9999 FEW018TCU BKN280 30/26 Q1011 NOSIG
2026-04-05 13:00:00,METAR VRMM 051300Z 27009KT 9999 FEW018TCU SCT280 31/26 Q1010 NOSIG
2026-04-05 12:00:00,METAR VRMM 051200Z 28007KT 9999 FEW018TCU SCT280 32/26 Q1009 NOSIG
2026-04-05 11:00:00,METAR VRMM 051100Z 28007KT 9999 SCT018TCU 32/26 Q1009 NOSIG
2026-04-05 10:00:00,METAR VRMM 051000Z 31006KT 270V350 9999 SCT018TCU 32/27 Q1008 NOSIG
2026-04-05 09:00:00,METAR VRMM 050900Z 30005KT 9999 SCT018 33/26 Q1009 NOSIG
2026-04-05 08:00:00,METAR VRMM 050800Z 30005KT 260V340 9999 SCT018TCU 32/26 Q1010 NOSIG
2026-04-05 07:00:00,METAR VRMM 050700Z 30005KT 9999 SCT018TCU 32/26 Q1011 NOSIG
2026-04-05 06:00:00,METAR VRMM 050600Z 30004KT 270V350 9999 SCT017TCU 31/26 Q1011 NOSIG
2026-04-05 05:00:00,METAR VRMM 050500Z 32005KT 9999 FEW018 31/26 Q1012 NOSIG
2026-04-05 04:00:00,METAR VRMM 050400Z 30004KT 250V340 9999 FEW018 31/26 Q1012 NOSIG
2026-04-05 03:00:00,METAR VRMM 050300Z 28003KT 9999 FEW019 30/26 Q1011 NOSIG
2026-04-05 02:00:00,METAR VRMM 050200Z 27004KT 9999 FEW019 29/26 Q1010 NOSIG
2026-04-05 01:00:00,METAR VRMM 050100Z 26005KT 9999 FEW018 BKN280 28/26 Q1009 NOSIG
2026-04-05 00:00:00,METAR VRMM 050000Z 21004KT 9999 FEW018 SCT280 29/25 Q1009 NOSIG
2026-04-04 23:00:00,METAR VRMM 042300Z 26004KT 9999 FEW018 BKN280 30/25 Q1009 NOSIG
2026-04-04 22:00:00,METAR VRMM 042200Z 27005KT 9999 FEW018 BKN280 29/26 Q1009 NOSIG
2026-04-04 21:00:00,METAR VRMM 042100Z 27005KT 9999 FEW018 BKN280 29/26 Q1010 NOSIG
2026-04-04 20:00:00,METAR VRMM 042000Z 29004KT 9999 FEW018TCU BKN280 29/26 Q1010 NOSIG
2026-04-04 19:00:00,METAR VRMM 041900Z VRB02KT 9999 FEW018 FEW019CB 30/25 Q1011 CB SSE NOSIG
2026-04-04 18:00:00,METAR VRMM 041800Z VRB02KT 9999 FEW019 30/26 Q1011 NOSIG
2026-04-04 17:00:00,METAR VRMM 041700Z VRB02KT 9999 FEW019 30/25 Q1011 NOSIG
2026-04-04 16:00:00,METAR VRMM 041600Z 19003KT 9999 FEW018 30/25 Q1011 NOSIG
2026-04-04 15:00:00,METAR VRMM 041500Z VRB02KT 9999 FEW018 31/25 Q1010 NOSIG
2026-04-04 14:00:00,METAR VRMM 041400Z 21005KT 9999 FEW018TCU SCT120 BKN280 31/25 Q1010 NOSIG
2026-04-04 13:00:00,METAR VRMM 041300Z VRB02KT 9999 FEW018TCU SCT120 BKN280 31/26 Q1009 NOSIG
2026-04-04 12:00:00,METAR VRMM 041200Z 14005KT 9999 FEW018TCU BKN280 32/25 Q1009 NOSIG
2026-04-04 11:00:00,METAR VRMM 041100Z 16004KT 9999 SCT018TCU BKN280 32/26 Q1008 NOSIG
2026-04-04 10:00:00,METAR VRMM 041000Z VRB05KT 9999 SCT018TCU BKN280 33/26 Q1008 NOSIG
2026-04-04 09:00:00,METAR VRMM 040900Z 15005KT 9999 SCT018 33/26 Q1009 NOSIG
2026-04-04 08:00:00,METAR VRMM 040800Z 11005KT 9999 SCT018 33/27 Q1010 NOSIG
2026-04-04 07:00:00,METAR VRMM 040700Z 09006KT 9999 SCT018 SCT280 33/26 Q1011 NOSIG
2026-04-04 06:00:00,METAR VRMM 040600Z 10006KT 050V170 9999 FEW018 BKN280 33/26 Q1011 NOSIG
2026-04-04 05:00:00,METAR VRMM 040500Z 09005KT 050V160 9999 FEW018 BKN280 32/25 Q1011 NOSIG
2026-04-04 04:00:00,METAR VRMM 040400Z 13005KT 9999 FEW018 SCT280 32/25 Q1011 NOSIG
2026-04-04 03:00:00,METAR VRMM 040300Z 11004KT 9999 FEW018 SCT280 30/24 Q1010 NOSIG
2026-04-04 02:00:00,METAR VRMM 040200Z VRB02KT 9999 FEW018 SCT280 29/26 Q1010 NOSIG
2026-04-04 01:00:00,METAR VRMM 040100Z VRB02KT 9999 FEW018 SCT280 28/25 Q1009 NOSIG
2026-04-04 00:00:00,METAR VRMM 040000Z 11004KT 9999 FEW018 SCT280 28/25 Q1009 NOSIG
2026-04-03 23:00:00,METAR VRMM 032300Z 12005KT 9999 FEW018 SCT270 29/25 Q1009 NOSIG
2026-04-03 22:00:00,METAR VRMM 032200Z 11005KT 9999 FEW018 29/25 Q1009 NOSIG
2026-04-03 21:00:00,METAR VRMM 032100Z 10005KT 9999 FEW018TCU 29/25 Q1009 NOSIG
2026-04-03 20:00:00,METAR VRMM 032000Z 14004KT 9999 SCT018TCU 29/25 Q1010 NOSIG
2026-04-03 19:00:00,METAR VRMM 031900Z 11006KT 9999 FEW018 30/25 Q1011 NOSIG
2026-04-03 18:00:00,METAR VRMM 031800Z 11005KT 9999 FEW019 30/25 Q1012 NOSIG
2026-04-03 17:00:00,METAR VRMM 031700Z 11005KT 9999 FEW018TCU 30/25 Q1012 NOSIG
2026-04-03 16:00:00,METAR VRMM 031600Z 08005KT 9999 SCT018TCU 30/25 Q1012 NOSIG
2026-04-03 15:00:00,METAR VRMM 031500Z 06006KT 9999 SCT018TCU 30/25 Q1011 NOSIG
2026-04-03 14:00:00,METAR VRMM 031400Z 11005KT 9999 SCT018TCU 30/25 Q1010 NOSIG
2026-04-03 13:00:00,METAR VRMM 031300Z 08005KT 9999 SCT018 31/25 Q1009 NOSIG
2026-04-03 12:00:00,METAR VRMM 031200Z 08007KT 9999 SCT018 32/26 Q1009 NOSIG
2026-04-03 11:00:00,METAR VRMM 031100Z 08008KT 9999 SCT018 33/26 Q1009 NOSIG
2026-04-03 10:00:00,METAR VRMM 031000Z 08008KT 9999 FEW018 33/26 Q1009 NOSIG
2026-04-03 09:00:00,METAR VRMM 030900Z 08007KT 040V110 9999 FEW018 33/26 Q1009 NOSIG
2026-04-03 08:00:00,METAR VRMM 030800Z 08008KT 9999 FEW018TCU 33/26 Q1010 NOSIG
2026-04-03 07:00:00,METAR VRMM 030700Z 09006KT 9999 FEW018TCU 33/26 Q1011 NOSIG
2026-04-03 06:00:00,METAR VRMM 030600Z 08005KT 9999 FEW018 33/25 Q1012 NOSIG
2026-04-03 05:00:00,METAR VRMM 030500Z 07005KT 9999 SCT018TCU 33/25 Q1013 NOSIG
2026-04-03 04:00:00,METAR VRMM 030400Z 09005KT 9999 FEW018TCU 32/26 Q1012 NOSIG
2026-04-03 03:00:00,METAR VRMM 030300Z 10004KT 9999 FEW018TCU 31/25 Q1012 NOSIG
2026-04-03 02:00:00,METAR VRMM 030200Z 09005KT 9999 FEW018TCU 30/25 Q1011 NOSIG
2026-04-03 01:00:00,METAR VRMM 030100Z 08004KT 9999 SCT018TCU 28/24 Q1010 NOSIG
2026-04-03 00:00:00,METAR VRMM 030000Z 08004KT 040V100 9999 SCT018TCU 29/25 Q1010 NOSIG
2026-04-02 23:00:00,METAR VRMM 022300Z 10005KT 9999 SCT018TCU 29/24 Q1010 NOSIG
2026-04-02 22:00:00,METAR VRMM 022200Z 09005KT 9999 SCT018TCU 29/24 Q1010 NOSIG
2026-04-02 21:00:00,METAR VRMM 022100Z 10006KT 9999 SCT018TCU 29/24 Q1010 NOSIG
2026-04-02 20:00:00,METAR VRMM 022000Z 10005KT 9999 SCT018 29/24 Q1011 NOSIG
2026-04-02 19:00:00,METAR VRMM 021900Z 11005KT 9999 FEW018 29/24 Q1011 NOSIG
2026-04-02 18:00:00,METAR VRMM 021800Z 11006KT 9999 FEW018 30/24 Q1012 NOSIG
2026-04-02 17:00:00,METAR VRMM 021700Z 11007KT 9999 FEW018 29/24 Q1012 NOSIG
2026-04-02 16:00:00,METAR VRMM 021600Z 11004KT 080V160 9999 FEW019 30/24 Q1011 NOSIG
2026-04-02 15:00:00,METAR VRMM 021500Z 10005KT 9999 FEW019 30/24 Q1011 NOSIG
2026-04-02 14:00:00,METAR VRMM 021400Z 09005KT 9999 FEW019 30/24 Q1010 NOSIG
2026-04-02 13:00:00,METAR VRMM 021300Z 10006KT 9999 FEW019 31/24 Q1009 NOSIG
2026-04-02 12:00:00,METAR VRMM 021200Z 10005KT 9999 FEW019 32/24 Q1009 NOSIG
2026-04-02 11:00:00,METAR VRMM 021100Z 08006KT 9999 FEW019 32/24 Q1009 NOSIG
2026-04-02 10:00:00,METAR VRMM 021000Z 09003KT 9999 FEW018 32/25 Q1009 NOSIG
2026-04-02 09:00:00,METAR VRMM 020900Z 10005KT 9999 FEW019 33/24 Q1009 NOSIG
2026-04-02 08:00:00,METAR VRMM 020800Z 14004KT 060V230 9999 FEW019 BKN280 33/24 Q1010 NOSIG
2026-04-02 07:00:00,METAR VRMM 020700Z 09005KT 9999 FEW019 BKN280 32/24 Q1011 NOSIG
2026-04-02 06:00:00,METAR VRMM 020600Z 13005KT 090V210 9999 FEW019 BKN280 33/24 Q1011 NOSIG
2026-04-02 05:00:00,METAR VRMM 020500Z 10005KT 9999 FEW019 BKN280 32/23 Q1012 NOSIG
2026-04-02 04:00:00,METAR VRMM 020400Z 09005KT 9999 FEW019 BKN280 32/23 Q1012 NOSIG
2026-04-02 03:00:00,METAR VRMM 020300Z 11005KT 9999 FEW019 BKN280 31/24 Q1011 NOSIG
2026-04-02 02:00:00,METAR VRMM 020200Z 14004KT 8000 FEW019 BKN280 29/25 Q1011 NOSIG
2026-04-02 01:00:00,METAR VRMM 020100Z 12004KT 9999 FEW020 BKN280 28/24 Q1010 NOSIG
2026-04-02 00:00:00,METAR VRMM 020000Z 13004KT 8000 FEW019 SCT280 28/24 Q1009 NOSIG
2026-04-01 23:00:00,METAR VRMM 012300Z 12004KT 8000 FEW019 SCT280 28/24 Q1009 NOSIG
2026-04-01 22:00:00,METAR VRMM 012200Z 13004KT 8000 FEW019 SCT280 29/24 Q1009 NOSIG
2026-04-01 21:00:00,METAR VRMM 012100Z 12004KT 8000 FEW019 SCT280 29/24 Q1009 NOSIG
2026-04-01 20:00:00,METAR VRMM 012000Z 11005KT 8000 FEW019 SCT270 29/24 Q1010 NOSIG
2026-04-01 19:00:00,METAR VRMM 011900Z 10005KT 8000 FEW019 SCT270 29/24 Q1011 NOSIG
2026-04-01 18:00:00,METAR VRMM 011800Z 11003KT 8000 FEW020 29/24 Q1011 NOSIG
2026-04-01 17:00:00,METAR VRMM 011700Z 08005KT 8000 FEW020 29/24 Q1011 NOSIG
2026-04-01 16:00:00,METAR VRMM 011600Z 08005KT 8000 SCT018TCU 30/24 Q1010 NOSIG
2026-04-01 15:00:00,METAR VRMM 011500Z 10003KT 8000 FEW018TCU 30/25 Q1010 NOSIG
2026-04-01 14:00:00,METAR VRMM 011400Z 09004KT 8000 FEW018TCU 30/25 Q1009 NOSIG
2026-04-01 13:00:00,METAR VRMM 011300Z 10004KT 060V130 8000 SCT018TCU 31/25 Q1008 NOSIG
2026-04-01 12:00:00,METAR VRMM 011200Z 10004KT 050V150 8000 SCT018TCU BKN280 32/26 Q1007 NOSIG
2026-04-01 11:00:00,METAR VRMM 011100Z 09004KT 8000 SCT018 BKN280 32/25 Q1007 NOSIG
2026-04-01 10:00:00,METAR VRMM 011000Z 10005KT 8000 SCT018 BKN280 32/25 Q1007 NOSIG
2026-04-01 09:00:00,METAR VRMM 010900Z 08006KT 8000 SCT018TCU BKN280 33/25 Q1007 NOSIG
2026-04-01 08:00:00,METAR VRMM 010800Z 11005KT 8000 SCT018TCU SCT280 33/25 Q1008 NOSIG
2026-04-01 07:00:00,METAR VRMM 010700Z VRB06KT 8000 FEW018TCU BKN280 33/26 Q1009 NOSIG
2026-04-01 06:00:00,METAR VRMM 010600Z 10005KT 030V170 8000 FEW018TCU BKN280 32/26 Q1011 NOSIG
2026-04-01 05:00:00,METAR VRMM 010500Z 12005KT 050V190 6000 SCT018TCU BKN270 32/26 Q1011 TEMPO FEW017CB
2026-04-01 04:00:00,METAR VRMM 010400Z 08007KT 6000 SCT018TCU BKN270 31/25 Q1011 TEMPO FEW017CB
2026-04-01 03:00:00,METAR VRMM 010300Z 09004KT 6000 SCT018TCU BKN270 31/26 Q1010 TEMPO FEW017CB
2026-04-01 02:00:00,METAR VRMM 010200Z 10003KT 6000 SCT018TCU BKN270 29/25 Q1010 TEMPO FEW017CB
2026-04-01 01:00:00,METAR VRMM 010100Z 06003KT 9999 FEW018 SCT120 28/25 Q1008 TEMPO FEW017CB
2026-04-01 00:00:00,METAR VRMM 010000Z VRB02KT 9999 FEW018 28/25 Q1008 TEMPO FEW017CB
2026-03-31 23:00:00,METAR VRMM 312300Z 03005KT 9999 FEW018 28/25 Q1008 TEMPO 5000 SHRA FEW017CB
2026-03-31 22:00:00,METAR VRMM 312200Z 02003KT 9999 FEW018 29/26 Q1008 NOSIG
2026-03-31 21:00:00,METAR VRMM 312100Z 01004KT 9999 FEW018 SCT280 29/25 Q1008 NOSIG
2026-03-31 20:00:00,METAR VRMM 312000Z 02003KT 9999 FEW018 BKN270 29/26 Q1009 NOSIG
2026-03-31 19:00:00,METAR VRMM 311900Z 36004KT 320V040 9999 FEW018TCU BKN270 29/25 Q1010 NOSIG
2026-03-31 18:00:00,METAR VRMM 311800Z 32003KT 9999 FEW018TCU BKN270 29/26 Q1010 NOSIG
2026-03-31 17:00:00,METAR VRMM 311700Z 30003KT 9999 FEW018TCU BKN270 29/26 Q1010 NOSIG
2026-03-31 16:00:00,METAR VRMM 311600Z 30003KT 9999 FEW018TCU BKN270 29/26 Q1010 NOSIG
2026-03-31 15:00:00,METAR VRMM 311500Z 29004KT 9999 SCT018TCU BKN270 30/26 Q1009 NOSIG
2026-03-31 14:00:00,METAR VRMM 311400Z 30004KT 9999 SCT018TCU BKN270 30/26 Q1008 NOSIG
2026-03-31 13:00:00,METAR VRMM 311300Z 34004KT 300V020 9999 FEW018TCU BKN270 30/25 Q1008 NOSIG
2026-03-31 12:00:00,METAR VRMM 311200Z 31004KT 9999 FEW018TCU BKN270 30/26 Q1007 NOSIG
2026-03-31 11:00:00,METAR VRMM 311100Z 31005KT 9999 SCT018TCU BKN280 31/26 Q1007 NOSIG
2026-03-31 10:00:00,METAR VRMM 311000Z 29004KT 9999 SCT018TCU BKN280 32/25 Q1007 NOSIG
2026-03-31 09:00:00,METAR VRMM 310900Z 31005KT 9999 FEW018TCU BKN280 32/26 Q1008 NOSIG
2026-03-31 08:00:00,METAR VRMM 310800Z 30006KT 9999 FEW018TCU BKN280 33/26 Q1009 NOSIG
2026-03-31 07:00:00,METAR VRMM 310700Z 30005KT 9999 FEW018 32/25 Q1010 NOSIG
2026-03-31 06:00:00,METAR VRMM 310600Z 30005KT 9999 FEW018TCU 31/25 Q1010 NOSIG
2026-03-31 05:00:00,METAR VRMM 310500Z 33007KT 7000 FEW018TCU 30/24 Q1011 NOSIG
2026-03-31 04:00:00,METAR VRMM 310400Z 30005KT 7000 SCT018TCU 31/26 Q1011 NOSIG
2026-03-31 03:00:00,METAR VRMM 310300Z 26004KT 9000 FEW018TCU 31/26 Q1010 NOSIG
2026-03-31 02:00:00,METAR VRMM 310200Z 25003KT 9999 FEW018TCU 29/26 Q1009 NOSIG
2026-03-31 01:00:00,METAR VRMM 310100Z 25003KT 9999 SCT018TCU 29/26 Q1008 NOSIG
2026-03-31 00:00:00,METAR VRMM 310000Z 20005KT 9999 FEW018TCU 29/25 Q1007 NOSIG
2026-03-30 23:00:00,METAR VRMM 302300Z 23006KT 9999 SCT018TCU 29/26 Q1007 NOSIG
2026-03-30 22:00:00,METAR VRMM 302200Z 23005KT 9999 SCT018TCU 29/26 Q1007 NOSIG
2026-03-30 21:00:00,METAR VRMM 302100Z 25005KT 9999 FEW018 SCT280 29/26 Q1008 NOSIG
2026-03-30 20:00:00,METAR VRMM 302000Z 28005KT 9999 SCT018TCU 29/26 Q1009 NOSIG
2026-03-30 19:00:00,METAR VRMM 301900Z 26006KT 9999 SCT018TCU BKN280 29/26 Q1009 NOSIG
2026-03-30 18:00:00,METAR VRMM 301800Z 28005KT 9999 SCT018TCU BKN280 30/25 Q1010 NOSIG
2026-03-30 17:00:00,METAR VRMM 301700Z 28005KT 9999 SCT018 BKN280 30/26 Q1010 NOSIG
2026-03-30 16:00:00,METAR VRMM 301600Z 30005KT 9999 FEW018 BKN280 30/26 Q1010 NOSIG
2026-03-30 15:00:00,METAR VRMM 301500Z 30005KT 9999 FEW018 BKN280 30/26 Q1009 NOSIG
2026-03-30 14:00:00,METAR VRMM 301400Z 28006KT 9999 FEW018 BKN280 30/26 Q1009 NOSIG
2026-03-30 13:00:00,METAR VRMM 301300Z 28007KT 9999 FEW018 BKN280 30/25 Q1008 NOSIG
2026-03-30 12:00:00,METAR VRMM 301200Z 27006KT 9999 FEW018 BKN280 31/26 Q1007 NOSIG
2026-03-30 11:00:00,METAR VRMM 301100Z 28009KT 9999 FEW018 BKN280 31/26 Q1007 NOSIG
2026-03-30 10:00:00,METAR VRMM 301000Z 25009KT 9999 FEW018 BKN280 32/26 Q1007 NOSIG
2026-03-30 09:00:00,METAR VRMM 300900Z 24011KT 9999 SCT018 BKN280 32/25 Q1008 NOSIG
2026-03-30 08:00:00,METAR VRMM 300800Z 24013KT 9999 -SHRA SCT018TCU BKN280 31/26 Q1009 NOSIG
2026-03-30 07:00:00,METAR VRMM 300700Z 25011KT 9999 SCT018 BKN280 32/25 Q1011 NOSIG
2026-03-30 06:00:00,METAR VRMM 300600Z 24011KT 9999 SCT018 BKN280 32/26 Q1011 NOSIG
2026-03-30 05:00:00,METAR VRMM 300500Z 24010KT 9999 SCT018TCU BKN280 31/26 Q1012 NOSIG
2026-03-30 04:00:00,METAR VRMM 300400Z 25008KT 9999 SCT018 31/26 Q1011 NOSIG
2026-03-30 03:00:00,METAR VRMM 300300Z 25006KT 9999 FEW018 BKN280 31/27 Q1010 NOSIG
2026-03-30 02:00:00,METAR VRMM 300200Z 24006KT 9999 FEW019 BKN280 29/25 Q1009 NOSIG
2026-03-30 01:00:00,METAR VRMM 300100Z 25007KT 9999 FEW019 SCT280 29/26 Q1009 NOSIG
2026-03-30 00:00:00,METAR VRMM 300000Z 27007KT 9999 FEW019 29/26 Q1008 NOSIG
2026-03-29 23:00:00,METAR VRMM 292300Z 27007KT 9999 FEW019 29/26 Q1007 NOSIG
2026-03-29 22:00:00,METAR VRMM 292200Z 28007KT 9999 FEW018 29/26 Q1007 NOSIG
2026-03-29 21:00:00,METAR VRMM 292100Z 28005KT 9999 FEW018 29/26 Q1007 NOSIG
2026-03-29 20:00:00,METAR VRMM 292000Z 29005KT 9999 FEW018 29/26 Q1008 NOSIG
2026-03-29 19:00:00,METAR VRMM 291900Z 28005KT 9999 FEW018 30/26 Q1009 NOSIG
2026-03-29 18:00:00,METAR VRMM 291800Z 28007KT 9999 FEW018 30/26 Q1010 NOSIG
2026-03-29 17:00:00,METAR VRMM 291700Z 27008KT 9999 FEW018 30/27 Q1010 NOSIG
2026-03-29 16:00:00,METAR VRMM 291600Z 28007KT 9999 SCT018TCU 30/27 Q1010 NOSIG
2026-03-29 15:00:00,METAR VRMM 291500Z 28008KT 9999 SCT018 30/27 Q1009 NOSIG
2026-03-29 14:00:00,METAR VRMM 291400Z 29009KT 9999 SCT018 30/27 Q1008 NOSIG
2026-03-29 13:00:00,METAR VRMM 291300Z 29009KT 9999 FEW018 30/27 Q1008 NOSIG
2026-03-29 12:00:00,METAR VRMM 291200Z 29009KT 9999 FEW018 32/26 Q1007 NOSIG
2026-03-29 11:00:00,METAR VRMM 291100Z 30009KT 9999 FEW018 32/26 Q1007 NOSIG
2026-03-29 10:00:00,METAR VRMM 291000Z 30010KT 9999 SCT018 32/27 Q1007 NOSIG
2026-03-29 09:00:00,METAR VRMM 290900Z 31009KT 9999 FEW020 32/26 Q1007 NOSIG
2026-03-29 08:00:00,METAR VRMM 290800Z 31007KT 280V350 9999 FEW019 32/289 Q1008 NOSIG
2026-03-29 07:00:00,METAR VRMM 290700Z 31007KT CAVOK 32/26 Q1009 NOSIG
2026-03-29 06:00:00,METAR VRMM 290600Z 31006KT 270V340 9999 FEW020 32/26 Q1010 NOSIG
2026-03-29 05:00:00,METAR VRMM 290500Z 30007KT CAVOK 31/26 Q1011 NOSIG
2026-03-29 04:00:00,METAR VRMM 290400Z 31006KT 280V350 CAVOK 31/25 Q1011 NOSIG
2026-03-29 03:00:00,METAR VRMM 290300Z 30006KT 9999 FEW019 30/25 Q1010 NOSIG
2026-03-29 02:00:00,METAR VRMM 290200Z 30006KT 9999 FEW019 29/24 Q1010 NOSIG
2026-03-29 01:00:00,METAR VRMM 290100Z 29007KT 9999 FEW019 SCT280 29/29 Q1009 NOSIG
2026-03-29 00:00:00,METAR VRMM 290000Z 29006KT 9999 FEW018 BKN270 29/25 Q1009 NOSIG
2026-03-28 23:00:00,METAR VRMM 282300Z 29006KT 9999 FEW018 BKN270 29/25 Q1008 NOSIG
2026-03-28 22:00:00,METAR VRMM 282200Z 29006KT 9999 SCT018 BKN270 29/26 Q1008 NOSIG
2026-03-28 21:00:00,METAR VRMM 282100Z 29004KT 9999 FEW018 BKN270 29/26 Q1008 NOSIG
2026-03-28 20:00:00,METAR VRMM 282000Z 30004KT 9999 FEW018 BKN270 29/26 Q1009 NOSIG
2026-03-28 19:00:00,METAR VRMM 281900Z 31003KT 280V360 9999 FEW018 BKN270 29/26 Q1009 NOSIG
2026-03-28 18:00:00,METAR VRMM 281800Z 32003KT 290V350 9999 FEW018 BKN270 29/26 Q1010 NOSIG
2026-03-28 17:00:00,METAR VRMM 281700Z 29005KT 260V330 9999 FEW018 BKN280 29/26 Q1010 NOSIG
2026-03-28 16:00:00,METAR VRMM 281600Z 31005KT 9999 FEW018 SCT110 BKN260 29/25 Q1009 NOSIG
2026-03-28 15:00:00,METAR VRMM 281500Z 31005KT 9999 FEW018 BKN260 30/25 Q1009 NOSIG
2026-03-28 14:00:00,METAR VRMM 281400Z 31005KT 9999 FEW018 BKN260 30/26 Q1008 NOSIG
2026-03-28 13:00:00,METAR VRMM 281300Z 32005KT 9999 FEW018 BKN260 30/26 Q1008 NOSIG
2026-03-28 12:00:00,METAR VRMM 281200Z 31005KT 9999 FEW019 BKN270 30/26 Q1008 NOSIG
2026-03-28 11:00:00,METAR VRMM 281100Z 29007KT 9999 FEW019 BKN280 31/26 Q1008 NOSIG
2026-03-28 10:00:00,METAR VRMM 281000Z 30007KT 9999 FEW019 SCT280 32/26 Q1008 NOSIG
2026-03-28 09:00:00,METAR VRMM 280900Z 31007KT 9999 FEW018 32/26 Q1008 NOSIG
2026-03-28 08:00:00,METAR VRMM 280800Z 32007KT 9999 FEW018 32/26 Q1009 NOSIG
2026-03-28 07:00:00,METAR VRMM 280700Z 32006KT 9999 SCT018 32/27 Q1010 NOSIG
2026-03-28 06:00:00,METAR VRMM 280600Z 32007KT 270V360 9999 SCT018 32/26 Q1010 NOSIG
2026-03-28 05:00:00,METAR VRMM 280500Z 34008KT 9999 SCT018 32/26 Q1011 NOSIG
2026-03-28 04:00:00,METAR VRMM 280400Z 34007KT 9999 SCT018 31/26 Q1011 NOSIG
2026-03-28 03:00:00,METAR VRMM 280300Z 32007KT 9999 SCT018 30/27 Q1011 NOSIG
2026-03-28 02:00:00,METAR VRMM 280200Z 32008KT 9999 SCT018 29/26 Q1010 NOSIG
2026-03-28 01:00:00,METAR VRMM 280100Z 33006KT 9999 FEW018 SCT280 29/26 Q1009 NOSIG
2026-03-28 00:00:00,METAR VRMM 280000Z 33006KT 9999 FEW020 29/25 Q1009 NOSIG
2026-03-27 23:00:00,METAR VRMM 272300Z 32005KT 290V040 9999 FEW020 29/25 Q1009 NOSIG
2026-03-27 22:00:00,METAR VRMM 272200Z 30005KT 9999 FEW018 29/25 Q1009 NOSIG
2026-03-27 21:00:00,METAR VRMM 272100Z 30003KT 9999 FEW018 29/26 Q1009 NOSIG
2026-03-27 20:00:00,METAR VRMM 272000Z 33004KT 9999 FEW018 29/25 Q1010 NOSIG
2026-03-27 19:00:00,METAR VRMM 271900Z 32003KT 270V010 9999 FEW018 29/25 Q1011 NOSIG
2026-03-27 18:00:00,METAR VRMM 271800Z VRB02KT 9999 FEW018 29/26 Q1010 NOSIG
2026-03-27 17:00:00,METAR VRMM 271700Z 33003KT 310V030 9999 FEW018 29/26 Q1011 NOSIG
2026-03-27 16:00:00,METAR VRMM 271600Z VRB02KT 9999 FEW018 30/26 Q1011 NOSIG
2026-03-25 15:00:00,METAR VRMM 251500Z 05009KT 9999 SCT018 31/25 Q1009 NOSIG
2026-03-25 14:00:00,METAR VRMM 251400Z 06009KT 9999 FEW018 30/25 Q1008 NOSIG
2026-03-25 13:00:00,METAR VRMM 251300Z 06009KT 9999 FEW018 31/25 Q1008 NOSIG
2026-03-25 12:00:00,METAR VRMM 251200Z 07011KT 9999 FEW018 32/25 Q1007 NOSIG
2026-03-25 11:00:00,METAR VRMM 251100Z 07013KT 9999 FEW018 33/25 Q1007 NOSIG
2026-03-25 10:00:00,METAR VRMM 251000Z 07012KT 9999 FEW018 33/24 Q1007 NOSIG
2026-03-25 09:00:00,METAR VRMM 250900Z 07010KT 9999 SCT018 33/25 Q1008 NOSIG
2026-03-25 08:00:00,METAR VRMM 250800Z 07010KT 9999 SCT018TCU 24/28 Q1009 NOSIG
2026-03-25 07:00:00,METAR VRMM 250700Z 07011KT 9999 FEW018 33/24 Q1010 NOSIG
2026-03-25 06:00:00,METAR VRMM 250600Z 06010KT 9999 FEW018 32/24 Q1011 NOSIG
2026-03-25 05:00:00,METAR VRMM 250500Z 07011KT 9999 SCT018TCU 32/25 Q1011 NOSIG
2026-03-25 04:00:00,METAR VRMM 250400Z 05010KT 9999 SCT018TCU 31/25 Q1011 NOSIG
2026-03-25 03:00:00,METAR VRMM 250300Z 05008KT 9999 FEW018 30/25 Q1010 NOSIG
2026-03-25 02:00:00,METAR VRMM 250200Z 03005KT 9999 FEW019 29/25 Q1010 NOSIG
2026-03-25 01:00:00,METAR VRMM 250100Z 03005KT 9999 FEW019 28/25 Q1009 NOSIG
2026-03-25 00:00:00,METAR VRMM 250000Z 03004KT 9999 FEW019 28/24 Q1008 NOSIG
2026-03-24 23:00:00,METAR VRMM 242300Z 05005KT 9999 FEW018 29/25 Q1008 NOSIG
2026-03-24 22:00:00,METAR VRMM 242200Z 06051KT 9999 FEW018 29/25 Q1008 NOSIG
2026-03-24 21:00:00,METAR VRMM 242100Z 06006KT 9999 FEW018 29/25 Q1008 NOSIG
2026-03-24 20:00:00,METAR VRMM 242000Z 07010KT 9999 FEW018 29/25 Q1009 NOSIG
2026-03-24 19:00:00,METAR VRMM 241900Z 05007KT 9999 FEW018 29/25 Q1009 NOSIG
2026-03-24 18:00:00,METAR VRMM 241800Z 07007KT 9999 SCT017TCU 30/25 Q1010 NOSIG
2026-03-24 17:00:00,METAR VRMM 241700Z 08005KT 9999 SCT017TCU 30/25 Q1010 NOSIG
2026-03-24 16:00:00,METAR VRMM 241600Z 08006KT 9999 FEW018TCU 30/25 Q1010 NOSIG
2026-03-24 15:00:00,METAR VRMM 241500Z 08007KT 9999 FEW018TCU 30/25 Q1010 NOSIG
2026-03-24 14:00:00,METAR VRMM 241400Z 07006KT 9999 FEW018TCU 30/25 Q1009 NOSIG
2026-03-24 13:00:00,METAR VRMM 241300Z 08007KT 9999 FEW018TCU 30/25 Q1008 NOSIG
2026-03-24 12:00:00,METAR VRMM 241200Z 08007KT 9999 FEW018TCU 31/26 Q1008 NOSIG
2026-03-24 11:00:00,METAR VRMM 241100Z 08009KT 9999 FEW018TCU 32/25 Q1008 NOSIG
2026-03-24 10:00:00,METAR VRMM 241000Z 09008KT 9999 SCT018TCU 33/25 Q1008 NOSIG
2026-03-24 09:00:00,METAR VRMM 240900Z 09008KT 9999 FEW018 33/25 Q1008 NOSIG
2026-03-24 08:00:00,METAR VRMM 240800Z 08008KT 9999 FEW018TCU 33/25 Q1009 NOSIG
2026-03-24 07:00:00,METAR VRMM 240700Z 09008KT 9999 FEW018 33/26 Q1010 NOSIG
2026-03-24 06:00:00,METAR VRMM 240600Z 08007KT 9999 FEW018 33/26 Q1011 NOSIG
2026-03-24 05:00:00,METAR VRMM 240500Z 09006KT 9999 FEW018 32/26 Q1011 NOSIG
2026-03-24 04:00:00,METAR VRMM 240400Z 10007KT 9999 FEW018TCU 31/25 Q1011 NOSIG
2026-03-24 03:00:00,METAR VRMM 240300Z 10005KT 9999 SCT017TCU 30/25 Q1011 NOSIG
2026-03-24 02:00:00,METAR VRMM 240200Z 09005KT 9999 SCT017TCU 29/25 Q1010 NOSIG
2026-03-24 01:00:00,METAR VRMM 240100Z 09005KT 9999 SCT018TCU 28/25 Q1009 NOSIG
2026-03-24 00:00:00,METAR VRMM 240000Z 09005KT 9999 FEW018 28/26 Q1009 NOSIG
2026-03-23 23:00:00,METAR VRMM 232300Z 11005KT 9999 FEW018 28/25 Q1009 NOSIG
2026-03-23 22:00:00,METAR VRMM 232200Z 12005KT 9999 FEW018 29/25 Q1009 NOSIG
2026-03-23 21:00:00,METAR VRMM 232100Z 12005KT 9999 FEW018 29/25 Q1009 NOSIG
2026-03-23 20:00:00,METAR VRMM 232000Z 11005KT 9999 SCT018 29/26 Q1010 NOSIG
2026-03-23 19:00:00,METAR VRMM 231900Z 11005KT 9999 FEW018 29/26 Q1010 NOSIG
2026-03-23 18:00:00,METAR VRMM 231800Z 10005KT 9999 FEW018 SCT280 29/26 Q1011 NOSIG
2026-03-23 17:00:00,METAR VRMM 231700Z 11005KT 9999 FEW018 BKN280 29/25 Q1011 NOSIG
2026-03-23 16:00:00,METAR VRMM 231600Z 11006KT 9999 FEW018 BKN280 30/25 Q1011 NOSIG
2026-03-23 15:00:00,METAR VRMM 231500Z 11007KT 9999 FEW018TCU BKN280 30/25 Q1010 NOSIG
2026-03-23 14:00:00,METAR VRMM 231400Z 09007KT 9999 -SHRA FEW018 FEW019CB BKN280 30/26 Q1010 CB WNW NOSIG
2026-03-23 13:00:00,METAR VRMM 231300Z 08008KT 9999 FEW018TCU BKN280 31/25 Q1009 NOSIG
2026-03-23 12:00:00,METAR VRMM 231200Z 09009KT 9999 FEW018 BKN280 32/25 Q1008 NOSIG
2026-03-23 11:00:00,METAR VRMM 231100Z 08009KT 9999 FEW018 BKN280 32/25 Q1008 NOSIG
2026-03-23 10:00:00,METAR VRMM 231000Z 09009KT 9999 FEW018 BKN280 33/25 Q1008 NOSIG
2026-03-23 09:00:00,METAR VRMM 230900Z 09009KT 9999 SCT018 BKN280 33/26 Q1009 NOSIG
2026-03-23 08:00:00,METAR VRMM 230800Z 09010KT 9999 SCT018 SCT280 33/27 Q1009 NOSIG
2026-03-23 07:00:00,METAR VRMM 230700Z 09008KT 9999 FEW018 BKN280 33/27 Q1010 NOSIG
2026-03-23 06:00:00,METAR VRMM 230600Z 09010KT 9999 FEW018 BKN280 33/26 Q1011 NOSIG
2026-03-23 05:00:00,METAR VRMM 230500Z 10010KT 9999 FEW018 SCT280 33/26 Q1012 NOSIG
2026-03-23 04:00:00,METAR VRMM 230400Z 10010KT 9999 SCT018 SCT280 32/25 Q1012 NOSIG
2026-03-23 03:00:00,METAR VRMM 230300Z 09009KT 9999 SCT018 31/25 Q1011 NOSIG
2026-03-23 02:00:00,METAR VRMM 230200Z 10008KT 9999 SCT018 30/25 Q1010 NOSIG
2026-03-23 01:00:00,METAR VRMM 230100Z 10007KT 9999 SCT018 29/25 Q1010 NOSIG
2026-03-23 00:00:00,METAR VRMM 230000Z 09008KT 9999 SCT018 29/25 Q1009 NOSIG
2026-03-22 23:00:00,METAR VRMM 222300Z 10006KT 9999 FEW018 29/25 Q1009 NOSIG
2026-03-22 22:00:00,METAR VRMM 222200Z 11006KT 9999 FEW018 29/25 Q1009 NOSIG
2026-03-22 21:00:00,METAR VRMM 222100Z 11006KT 9999 FEW018 29/25 Q1009 NOSIG
2026-03-22 20:00:00,METAR VRMM 222000Z 11007KT 9999 FEW018 29/25 Q1010 NOSIG
2026-03-22 19:00:00,METAR VRMM 221900Z 09009KT 9999 FEW018 29/25 Q1011 NOSIG
2026-03-22 18:00:00,METAR VRMM 221800Z 10011KT 9999 FEW018 30/24 Q1011 NOSIG
2026-03-22 17:00:00,METAR VRMM 221700Z 10009KT 9999 FEW018 30/25 Q1011 NOSIG
2026-03-22 16:00:00,METAR VRMM 221600Z 09010KT 9999 FEW018 30/25 Q1011 NOSIG
2026-03-22 15:00:00,METAR VRMM 221500Z 10010KT 9999 FEW018 30/25 Q1010 NOSIG
2026-03-22 14:00:00,METAR VRMM 221400Z 10010KT 9999 SCT018 30/25 Q1010 NOSIG
2026-03-22 13:00:00,METAR VRMM 221300Z 06006KT 9999 FEW018 30/25 Q1009 NOSIG
2026-03-22 12:00:00,METAR VRMM 221200Z 06010KT 9999 SCT018TCU 31/25 Q1009 NOSIG
2026-03-22 11:00:00,METAR VRMM 221100Z 11009KT 9999 SCT018TCU 33/26 Q1008 NOSIG
2026-03-22 10:00:00,METAR VRMM 221000Z 11008KT 9999 SCT018 33/26 Q1009 NOSIG
2026-03-22 09:00:00,METAR VRMM 220900Z 11009KT 9999 SCT018 33/25 Q1009 NOSIG
2026-03-22 08:00:00,METAR VRMM 220800Z 10010KT 9999 SCT018 33/26 Q1010 NOSIG
2026-03-22 07:00:00,METAR VRMM 220700Z 11009KT 9999 SCT018 33/26 Q1011 NOSIG
2026-03-22 06:00:00,METAR VRMM 220600Z 11009KT 080V140 9999 SCT018 33/26 Q1011 NOSIG
2026-03-22 05:00:00,METAR VRMM 220500Z 11008KT 9999 SCT018TCU 33/26 Q1012 NOSIG
2026-03-22 04:00:00,METAR VRMM 220400Z 12008KT 9999 SCT018TCU 32/25 Q1012 NOSIG
2026-03-22 03:00:00,METAR VRMM 220300Z 13008KT 9999 SCT018TCU 30/25 Q1011 TEMPO 5000 SHRA FEW017CB
2026-03-22 02:00:00,METAR VRMM 220200Z 12008KT 9999 SCT018TCU SCT280 29/25 Q1011 TEMPO 5000 SHRA FEW017CB
2026-03-22 01:00:00,METAR VRMM 220100Z 13007KT 9999 SCT018TCU SCT280 29/25 Q1010 TEMPO 5000 SHRA FEW017CB
2026-03-22 00:00:00,METAR VRMM 220000Z 13007KT 9999 SCT018 29/25 Q1009 TEMPO 5000 SHRA FEW017CB
2026-03-21 23:00:00,METAR VRMM 212300Z 12010KT 9999 SCT018TCU 29/24 Q1009 TEMPO 5000 SHRA FEW017CB
2026-03-21 22:00:00,METAR VRMM 212200Z 13010KT 9999 SCT018TCU 29/25 Q1009 TEMPO 5000 SHRA FEW017CB
2026-03-21 21:00:00,METAR VRMM 212100Z 13008KT 9999 FEW018TCU 29/25 Q1009 TEMPO 5000 SHRA FEW017CB
2026-03-21 20:00:00,METAR VRMM 212000Z 13009KT 9999 SCT018TCU 29/24 Q1009 TEMPO 5000 SHRA FEW017CB
2026-03-21 19:00:00,METAR VRMM 211900Z 13009KT 9999 SCT018TCU 30/25 Q1010 TEMPO FEW018CB
2026-03-21 18:00:00,METAR VRMM 211800Z 13010KT 9999 SCT018TCU 30/25 Q1011 TEMPO FEW018CB
2026-03-21 17:00:00,METAR VRMM 211700Z 13010KT 9999 FEW018 30/27 Q1011 TEMPO FEW018CB
2026-03-21 16:00:00,METAR VRMM 211600Z 12008KT 9999 SCT017TCU 30/28 Q1010 TEMPO FEW018CB
2026-03-21 15:00:00,METAR VRMM 211500Z 12009KT 9999 SCT017TCU 30/28 Q1010 FEW018CB
2026-03-21 14:00:00,METAR VRMM 211400Z 11006KT 9999 SCT017TCU 30/27 Q1009 FEW018CB
2026-03-21 13:00:00,METAR VRMM 211300Z 08006KT 9999 SCT018TCU 31/27 Q1008 NOSIG
2026-03-21 12:00:00,METAR VRMM 211200Z 10007KT 9999 SCT018 32/27 Q1008 NOSIG
2026-03-21 11:00:00,METAR VRMM 211100Z 10007KT 070V130 9999 SCT018 33/27 Q1008 NOSIG
2026-03-21 10:00:00,METAR VRMM 211000Z 10009KT 9999 SCT018 33/27 Q1008 NOSIG
2026-03-21 09:00:00,METAR VRMM 210900Z 11008KT 9999 FEW018 33/27 Q1008 NOSIG
2026-03-21 08:00:00,METAR VRMM 210800Z 11009KT 070V140 9999 FEW018 33/27 Q1009 NOSIG
2026-03-21 07:00:00,METAR VRMM 210700Z 11011KT 070V130 9999 SCT018 33/27 Q1010 NOSIG
2026-03-21 06:00:00,METAR VRMM 210600Z 11010KT 9999 SCT018 33/28 Q1011 NOSIG
2026-03-21 05:00:00,METAR VRMM 210500Z 10009KT 070V140 9999 SCT018 33/28 Q1011 NOSIG
2026-03-21 04:00:00,METAR VRMM 210400Z 11008KT 9999 FEW018 32/27 Q1011 NOSIG
2026-03-21 03:00:00,METAR VRMM 210300Z 11006KT 9999 FEW019 31/26 Q1010 NOSIG
2026-03-21 02:00:00,METAR VRMM 210200Z 12005KT 9999 FEW018 29/27 Q1010 NOSIG
2026-03-21 01:00:00,METAR VRMM 210100Z 11006KT 9999 FEW018 28/26 Q1009 NOSIG
2026-03-21 00:00:00,METAR VRMM 210000Z 11007KT 9999 FEW018 29/27 Q1008 NOSIG
2026-03-20 23:00:00,METAR VRMM 202300Z 11007KT 9999 FEW018 29/26 Q1008 NOSIG
2026-03-20 22:00:00,METAR VRMM 202200Z 11007KT 9999 FEW018 29/26 Q1008 NOSIG
2026-03-20 21:00:00,METAR VRMM 202100Z 11007KT 9999 FEW018 29/26 Q1008 NOSIG
2026-03-20 20:00:00,METAR VRMM 202000Z 09007KT 9999 FEW018 29/27 Q1009 NOSIG
2026-03-20 19:00:00,METAR VRMM 201900Z 10008KT 9999 FEW018 29/26 Q1010 NOSIG
2026-03-20 18:00:00,METAR VRMM 201800Z 10009KT 9999 FEW018TCU 30/27 Q1011 NOSIG
2026-03-20 17:00:00,METAR VRMM 201700Z 09009KT 9999 FEW018TCU 30/26 Q1011 NOSIG
2026-03-20 16:00:00,METAR VRMM 201600Z 09008KT 9999 FEW018TCU 30/26 Q1011 NOSIG
2026-03-20 15:00:00,METAR VRMM 201500Z 10008KT 9999 FEW018TCU 30/26 Q1010 NOSIG
2026-03-20 14:00:00,METAR VRMM 201400Z 10008KT 9999 FEW018TCU 30/26 Q1009 NOSIG
2026-03-20 13:00:00,METAR VRMM 201300Z 10009KT 9999 SCT018TCU 31/26 Q1008 NOSIG
2026-03-20 12:00:00,METAR VRMM 201200Z 10009KT 9999 SCT018TCU 32/27 Q1008 NOSIG
2026-03-20 11:00:00,METAR VRMM 201100Z 08009KT 9999 SCT018 32/26 Q1007 NOSIG
2026-03-20 10:00:00,METAR VRMM 201000Z 09010KT 9999 FEW018 FEW019CB 33/27 Q1008 CB WNW NOSIG
2026-03-20 09:00:00,METAR VRMM 200900Z 08010KT 9999 SCT018TCU 33/27 Q1008 NOSIG
2026-03-20 08:00:00,METAR VRMM 200800Z 08009KT 9999 SCT018 33/27 Q1009 NOSIG
2026-03-20 07:00:00,METAR VRMM 200700Z 08009KT 9999 SCT018TCU 33/27 Q1010 NOSIG
2026-03-20 06:00:00,METAR VRMM 200600Z 08010KT 9999 SCT018TCU 33/27 Q1011 NOSIG
2026-03-20 05:00:00,METAR VRMM 200500Z 07008KT 9999 SCT018 32/27 Q1012 NOSIG
2026-03-20 04:00:00,METAR VRMM 200400Z 08009KT 9999 SCT018TCU 32/27 Q1012 NOSIG
2026-03-20 03:00:00,METAR VRMM 200300Z 06007KT 9999 FEW018 31/27 Q1011 NOSIG
2026-03-20 02:00:00,METAR VRMM 200200Z 06006KT 9999 FEW018TCU 29/26 Q1010 NOSIG
2026-03-20 01:00:00,METAR VRMM 200100Z 05005KT 9999 SCT018TCU 28/26 Q1010 NOSIG
2026-03-20 00:00:00,METAR VRMM 200000Z 04006KT 9999 SCT018TCU 28/26 Q1009 NOSIG
2026-03-19 23:00:00,METAR VRMM 192300Z 10009KT 9999 FEW018TCU 28/26 Q1009 NOSIG
2026-03-19 22:00:00,METAR VRMM 192200Z 07006KT 9999 FEW018TCU 29/26 Q1009 NOSIG
2026-03-19 21:00:00,METAR VRMM 192100Z 03005KT 9999 FEW018TCU 29/26 Q1009 NOSIG
2026-03-19 20:00:00,METAR VRMM 192000Z 02005KT 9999 FEW018TCU 29/27 Q1010 NOSIG
2026-03-19 19:00:00,METAR VRMM 191900Z 03005KT 9999 FEW019 29/26 Q1011 NOSIG
2026-03-19 18:00:00,METAR VRMM 191800Z 01004KT 9999 FEW019 29/27 Q1011 NOSIG
2026-03-19 17:00:00,METAR VRMM 191700Z 01005KT 9999 FEW019 29/27 Q1012 NOSIG
2026-03-19 16:00:00,METAR VRMM 191600Z 05005KT 9999 FEW018 29/26 Q1011 NOSIG
2026-03-19 15:00:00,METAR VRMM 191500Z 04005KT 010V080 9999 FEW018 30/26 Q1011 NOSIG
2026-03-19 14:00:00,METAR VRMM 191400Z 06007KT 9999 FEW018 30/26 Q1010 NOSIG
2026-03-19 13:00:00,METAR VRMM 191300Z 08006KT 9999 FEW018 30/26 Q1010 NOSIG
2026-03-19 12:00:00,METAR VRMM 191200Z 07006KT 9999 FEW018 31/27 Q1009 NOSIG
2026-03-19 11:00:00,METAR VRMM 191100Z 08006KT 9999 FEW018TCU 32/27 Q1009 NOSIG
2026-03-19 10:00:00,METAR VRMM 191000Z 10007KT 9999 FEW018TCU 33/27 Q1009 NOSIG
2026-03-19 09:00:00,METAR VRMM 190900Z 10007KT 9999 FEW018TCU 33/27 Q1010 NOSIG
2026-03-19 08:00:00,METAR VRMM 190800Z 11009KT 9999 SCT018TCU 33/27 Q1011 NOSIG
2026-03-19 07:00:00,METAR VRMM 190700Z 11008KT 9999 FEW018 33/27 Q1012 NOSIG
2026-03-19 06:00:00,METAR VRMM 190600Z 11007KT 9999 FEW018 33/27 Q1013 NOSIG
2026-03-19 05:00:00,METAR VRMM 190500Z 13006KT 9999 FEW018TCU 32/27 Q1013 NOSIG
2026-03-19 04:00:00,METAR VRMM 190400Z 14006KT 9999 FEW018TCU 31/26 Q1013 NOSIG
2026-03-19 03:00:00,METAR VRMM 190300Z 14005KT 9999 SCT018TCU 31/27 Q1012 NOSIG
2026-03-19 02:00:00,METAR VRMM 190200Z 13005KT 9999 FEW018 29/26 Q1012 NOSIG
2026-03-19 01:00:00,METAR VRMM 190100Z 14005KT 9999 FEW018TCU 28/26 Q1011 NOSIG
2026-03-19 00:00:00,METAR VRMM 190000Z 10004KT 9999 FEW018 28/24 Q1010 NOSIG
2026-03-18 23:00:00,METAR VRMM 182300Z 10003KT 9999 FEW018 29/25 Q1010 NOSIG
2026-03-18 22:00:00,METAR VRMM 182200Z 11003KT 9999 FEW018 29/26 Q1010 NOSIG
2026-03-18 21:00:00,METAR VRMM 182100Z 13003KT 9999 FEW018 29/26 Q1010 NOSIG
2026-03-18 20:00:00,METAR VRMM 182000Z 08004KT 9999 FEW018 29/26 Q1010 NOSIG
2026-03-18 19:00:00,METAR VRMM 181900Z 09004KT 9999 SCT018 29/26 Q1011 NOSIG
2026-03-18 18:00:00,METAR VRMM 181800Z 10005KT 9999 FEW018 29/26 Q1012 NOSIG
2026-03-18 17:00:00,METAR VRMM 181700Z 11005KT 9999 FEW018 29/26 Q1012 NOSIG
2026-03-18 16:00:00,METAR VRMM 181600Z 10005KT 9999 FEW018 29/26 Q1011 NOSIG
2026-03-18 15:00:00,METAR VRMM 181500Z 11005KT 9999 FEW018 30/26 Q1010 NOSIG
2026-03-18 14:00:00,METAR VRMM 181400Z 10006KT 9999 FEW018 30/25 Q1010 NOSIG
2026-03-18 13:00:00,METAR VRMM 181300Z 10005KT 9999 FEW018 30/26 Q1009 NOSIG
2026-03-18 12:00:00,METAR VRMM 181200Z 10006KT 9999 FEW018 31/26 Q1009 NOSIG
2026-03-18 11:00:00,METAR VRMM 181100Z 10006KT 9999 SCT018 32/26 Q1008 NOSIG
2026-03-18 10:00:00,METAR VRMM 181000Z 11007KT 9999 FEW018 32/26 Q1008 NOSIG
2026-03-18 09:00:00,METAR VRMM 180900Z 10007KT 9999 SCT018TCU 32/26 Q1009 NOSIG
2026-03-18 08:00:00,METAR VRMM 180800Z 10007KT 9999 SCT018 32/26 Q1010 NOSIG
2026-03-18 07:00:00,METAR VRMM 180700Z 12007KT 9999 FEW019 32/26 Q1010 NOSIG
2026-03-18 06:00:00,METAR VRMM 180600Z 11008KT 9999 FEW019 32/26 Q1011 NOSIG
2026-03-18 05:00:00,METAR VRMM 180500Z 12007KT 9999 FEW019 32/26 Q1012 NOSIG
2026-03-18 04:00:00,METAR VRMM 180400Z 12009KT 9999 FEW019 32/25 Q1012 NOSIG
2026-03-18 03:00:00,METAR VRMM 180300Z 12007KT 9999 FEW018 31/25 Q1011 NOSIG
2026-03-18 02:00:00,METAR VRMM 180200Z 13006KT 9999 SCT018TCU 29/26 Q1010 NOSIG
2026-03-18 01:00:00,METAR VRMM 180100Z 13006KT 9999 SCT018 29/25 Q1010 NOSIG
2026-03-18 00:00:00,METAR VRMM 180000Z 11006KT 9999 FEW018 28/25 Q1009 NOSIG
2026-03-17 23:00:00,METAR VRMM 172300Z 10006KT 9999 FEW018 28/25 Q1009 NOSIG
2026-03-17 22:00:00,METAR VRMM 172200Z 11005KT 9999 SCT018 28/25 Q1009 NOSIG
2026-03-17 21:00:00,METAR VRMM 172100Z 12005KT 9999 FEW018 28/25 Q1008 NOSIG
2026-03-17 20:00:00,METAR VRMM 172000Z 11005KT 9999 SCT018 28/25 Q1009 NOSIG
2026-03-17 19:00:00,METAR VRMM 171900Z 11008KT 9999 FEW018 29/25 Q1010 NOSIG
2026-03-17 18:00:00,METAR VRMM 171800Z 11007KT 9999 FEW018 29/25 Q1011 NOSIG
2026-03-17 17:00:00,METAR VRMM 171700Z 11008KT 9999 FEW018 29/25 Q1010 NOSIG
2026-03-17 16:00:00,METAR VRMM 171600Z 08009KT 9999 SCT018 29/24 Q1010 NOSIG
2026-03-17 15:00:00,METAR VRMM 171500Z 08008KT 9999 FEW018 SCT280 29/24 Q1009 NOSIG
2026-03-17 14:00:00,METAR VRMM 171400Z 08009KT 9999 FEW018 SCT280 30/24 Q1009 NOSIG
2026-03-17 13:00:00,METAR VRMM 171300Z 09009KT 9999 FEW018 BKN120 30/24 Q1008 NOSIG
2026-03-17 12:00:00,METAR VRMM 171200Z 08009KT 9999 FEW018 BKN120 31/25 Q1008 NOSIG
2026-03-17 11:00:00,METAR VRMM 171100Z 08010KT 9999 FEW018 SCT130 32/25 Q1008 NOSIG
2026-03-17 10:00:00,METAR VRMM 171000Z 08010KT 9999 FEW018 32/25 Q1008 NOSIG
2026-03-17 09:00:00,METAR VRMM 170900Z 08007KT 9999 SCT018 32/25 Q1009 NOSIG
2026-03-17 08:00:00,METAR VRMM 170800Z 10007KT 9999 FEW018 33/26 Q1009 NOSIG
2026-03-17 07:00:00,METAR VRMM 170700Z 09008KT 9999 FEW018 SCT130 32/25 Q1010 NOSIG
2026-03-17 06:00:00,METAR VRMM 170600Z 08008KT 9999 FEW018 SCT130 32/26 Q1011 NOSIG
2026-03-17 05:00:00,METAR VRMM 170500Z 08007KT 060V130 9999 FEW018 SCT130 31/26 Q1012 NOSIG
2026-03-17 04:00:00,METAR VRMM 170400Z 09007KT 9999 FEW018 SCT130 31/25 Q1012 NOSIG
2026-03-17 03:00:00,METAR VRMM 170300Z 10006KT 080V140 9999 FEW018 BKN120 30/25 Q1011 NOSIG
2026-03-17 02:00:00,METAR VRMM 170200Z 09007KT 9999 FEW019 SCT025 29/25 Q1010 NOSIG
2026-03-17 01:00:00,METAR VRMM 170100Z 10007KT 9999 FEW019 SCT025 28/25 Q1009 NOSIG
2026-03-17 00:00:00,METAR VRMM 170000Z 12007KT 9999 FEW019 28/24 Q1009 NOSIG
2026-03-16 23:00:00,METAR VRMM 162300Z 10007KT 9999 FEW018 28/24 Q1009 NOSIG
2026-03-16 22:00:00,METAR VRMM 162200Z 11007KT 9999 FEW018 28/24 Q1008 NOSIG
2026-03-16 21:00:00,METAR VRMM 162100Z 12005KT 9999 FEW018 29/25 Q1009 NOSIG
2026-03-16 20:00:00,METAR VRMM 162000Z 08006KT 9999 FEW018 29/24 Q1009 NOSIG
2026-03-16 19:00:00,METAR VRMM 161900Z 08007KT 9999 FEW018 29/24 Q1010 NOSIG
2026-03-16 18:00:00,METAR VRMM 161800Z 08009KT 9999 FEW018 29/24 Q1011 NOSIG
2026-03-16 17:00:00,METAR VRMM 161700Z 08009KT 9999 FEW019 29/24 Q1011 NOSIG
2026-03-16 16:00:00,METAR VRMM 161600Z 08008KT 9999 FEW019 29/25 Q1010 NOSIG
2026-03-16 15:00:00,METAR VRMM 161500Z 08007KT 9999 FEW019 29/24 Q1010 NOSIG
2026-03-16 14:00:00,METAR VRMM 161400Z 09008KT 9999 FEW020 30/24 Q1009 NOSIG
2026-03-16 13:00:00,METAR VRMM 161300Z 08008KT 9999 FEW018 30/25 Q1009 NOSIG
2026-03-16 12:00:00,METAR VRMM 161200Z 07008KT 9999 FEW018 31/25 Q1009 NOSIG
2026-03-16 11:00:00,METAR VRMM 161100Z 08009KT 9999 SCT018 32/25 Q1008 NOSIG
2026-03-16 10:00:00,METAR VRMM 161000Z 08009KT 9999 SCT018 32/25 Q1008 NOSIG
2026-03-16 09:00:00,METAR VRMM 160900Z 08008KT 9999 FEW018TCU 32/26 Q1009 NOSIG
2026-03-16 08:00:00,METAR VRMM 160800Z 08009KT 9999 FEW018TCU 32/25 Q1010 NOSIG
2026-03-16 07:00:00,METAR VRMM 160700Z 09009KT 9999 FEW018TCU 32/25 Q1011 NOSIG
2026-03-16 06:00:00,METAR VRMM 160600Z 09007KT 9999 FEW018 32/26 Q1012 NOSIG
2026-03-16 05:00:00,METAR VRMM 160500Z 08008KT 9999 FEW018 32/26 Q1013 NOSIG
2026-03-16 04:00:00,METAR VRMM 160400Z 09009KT 9999 SCT018 SCT130 31/26 Q1012 NOSIG
2026-03-16 03:00:00,METAR VRMM 160300Z 10009KT 9999 FEW018 SCT130 30/25 Q1011 NOSIG
2026-03-16 02:00:00,METAR VRMM 160200Z 10009KT 9999 FEW018 SCT130 29/25 Q1010 NOSIG
2026-03-16 01:00:00,METAR VRMM 160100Z 11008KT 9999 FEW018 SCT280 28/25 Q1009 NOSIG
2026-03-16 00:00:00,METAR VRMM 160000Z 11008KT 9999 SCT018 28/25 Q1009 NOSIG
2026-03-15 23:00:00,METAR VRMM 152300Z 10008KT 9999 SCT018 28/25 Q1009 NOSIG
2026-03-15 22:00:00,METAR VRMM 152200Z 11009KT 9999 FEW019 28/25 Q1008 NOSIG
2026-03-15 21:00:00,METAR VRMM 152100Z 11009KT 9999 FEW019 29/25 Q1009 NOSIG
2026-03-15 20:00:00,METAR VRMM 152000Z 10009KT 9999 FEW019 29/25 Q1009 NOSIG
2026-03-15 19:00:00,METAR VRMM 151900Z 10009KT 9999 FEW019 29/25 Q1011 NOSIG
2026-03-15 18:00:00,METAR VRMM 151800Z 09010KT 9999 FEW019 29/25 Q1011 NOSIG
2026-03-15 17:00:00,METAR VRMM 151700Z 10009KT 9999 FEW018 29/25 Q1012 NOSIG
2026-03-15 16:00:00,METAR VRMM 151600Z 09010KT 9999 FEW018 29/25 Q1011 NOSIG
2026-03-15 15:00:00,METAR VRMM 151500Z 10009KT 9999 SCT018 29/25 Q1011 NOSIG
2026-03-15 14:00:00,METAR VRMM 151400Z 09009KT 9999 FEW018 30/25 Q1010 NOSIG
2026-03-15 13:00:00,METAR VRMM 151300Z 08009KT 9999 SCT018TCU 30/25 Q1010 NOSIG
2026-03-15 12:00:00,METAR VRMM 151200Z 08008KT 9999 SCT018TCU 31/25 Q1009 NOSIG
2026-03-15 11:00:00,METAR VRMM 151100Z 08009KT 9999 SCT018TCU 32/25 Q1009 NOSIG
2026-03-15 10:00:00,METAR VRMM 151000Z 09010KT 9999 SCT018 32/25 Q1009 NOSIG
2026-03-15 09:00:00,METAR VRMM 150900Z 08009KT 9999 SCT018 32/25 Q1010 NOSIG
2026-03-15 08:00:00,METAR VRMM 150800Z 09009KT 9999 SCT018 32/25 Q1011 NOSIG
