Time_recorded,METAR,is_cavok,wind_speed,is_gust,visibility_meters,has_thunderstorm,has_heavy_rain,has_low_vis_fog,other_phenomenon
2026-05-02 14:53:00,METAR KHVN 021453Z 18005KT 9SM BKN040 BKN049 OVC085 11/08 A2989 RMK AO2 SLP120 60000 T01110078 51005,0,5.0,0,14481,0,0,0,
2026-05-02 13:53:00,METAR KHVN 021353Z 20005KT 10SM BKN039 OVC090 12/07 A2988 RMK AO2 RAB19E29 SLP119 P0000 T01170072,0,5.0,0,16090,0,0,0,RA
2026-05-02 12:53:00,METAR KHVN 021253Z 30006KT 10SM SCT060 BKN080 OVC095 11/07 A2988 RMK AO2 SLP117 T01110072,0,6.0,0,16090,0,0,0,
2026-05-02 11:53:00,METAR KHVN 021153Z 11007KT 10SM FEW050 OVC070 11/07 A2987 RMK AO2 RAB22E46 SLP115 P0000 60000 T01060072 10106 20089 50001,0,7.0,0,16090,0,0,0,RA
2026-05-02 10:53:00,METAR KHVN 021053Z 00000KT 9SM FEW035 BKN075 OVC095 11/08 A2989 RMK AO2 SLP120 T01060078,0,0.0,0,14481,0,0,0,
2026-05-02 09:53:00,METAR KHVN 020953Z COR 22007KT 9SM OVC075 11/08 A2987 RMK AO2 SLP115 T01060083,0,7.0,0,14481,0,0,0,
2026-05-02 08:53:00,METAR KHVN 020853Z AUTO 22004KT 10SM FEW065 BKN090 OVC120 10/08 A2987 RMK AO2 SLP114 T01000083 55003,0,4.0,0,16090,0,0,0,
2026-05-02 07:53:00,METAR KHVN 020753Z AUTO 00000KT 10SM OVC080 10/07 A2987 RMK AO2 SLP113 T01000072,0,0.0,0,16090,0,0,0,
2026-05-02 06:53:00,METAR KHVN 020653Z AUTO 00000KT 10SM BKN085 OVC100 10/07 A2987 RMK AO2 SLP114 T01000072,0,0.0,0,16090,0,0,0,
2026-05-02 05:53:00,METAR KHVN 020553Z AUTO 00000KT 10SM OVC100 10/07 A2988 RMK AO2 SLP117 T01000067 10117 20094 58007,0,0.0,0,16090,0,0,0,
2026-05-02 04:53:00,METAR KHVN 020453Z AUTO 19005KT 10SM BKN100 10/07 A2989 RMK AO2 SLP122 T01000067 401560061,0,5.0,0,16090,0,0,0,
2026-05-02 03:53:00,METAR KHVN 020353Z AUTO 20005KT 10SM SCT110 11/06 A2989 RMK AO2 SLP123 T01060061,0,5.0,0,16090,0,0,0,
2026-05-02 02:53:00,METAR KHVN 020253Z AUTO 20004KT 10SM FEW080 SCT095 BKN120 11/06 A2990 RMK AO2 SLP124 T01110056 50012,0,4.0,0,16090,0,0,0,
2026-05-02 01:53:00,METAR KHVN 020153Z 24003KT 10SM BKN080 12/06 A2990 RMK AO2 SLP125 T01170061,0,3.0,0,16090,0,0,0,
2026-05-02 00:53:00,METAR KHVN 020053Z 21005KT 10SM OVC080 12/06 A2989 RMK AO2 SLP120 T01170061,0,5.0,0,16090,0,0,0,
2026-05-01 23:53:00,METAR KHVN 012353Z 22004KT 10SM CLR 12/06 A2987 RMK AO2 SLP113 T01170061 10156 20117 53012,0,4.0,0,16090,0,0,0,
2026-05-01 22:53:00,METAR KHVN 012253Z 19010KT 10SM CLR 13/06 A2984 RMK AO2 SLP104 T01330056,0,10.0,0,16090,0,0,0,
2026-05-01 21:53:00,METAR KHVN 012153Z 21009KT 10SM CLR 15/01 A2983 RMK AO2 SLP101 T01500011,0,9.0,0,16090,0,0,0,
2026-05-01 20:53:00,METAR KHVN 012053Z 21008G16KT 10SM CLR 15/01 A2983 RMK AO2 SLP101 T01500006 56011,0,8.0,1,16090,0,0,0,
2026-05-01 19:53:00,METAR KHVN 011953Z 21011G18KT 10SM CLR 14/01 A2983 RMK AO2 SLP102 T01440006,0,11.0,1,16090,0,0,0,
2026-05-01 18:53:00,METAR KHVN 011853Z 21012G20KT 10SM CLR 14/03 A2985 RMK AO2 SLP106 T01390028,0,12.0,1,16090,0,0,0,
2026-05-01 17:53:00,METAR KHVN 011753Z 21010G24KT 10SM SCT040 13/03 A2986 RMK AO2 SLP111 T01280028 10144 20089 58007,0,10.0,1,16090,0,0,0,
2026-05-01 16:53:00,METAR KHVN 011653Z 20008G15KT 10SM SCT040 13/04 A2987 RMK AO2 SLP113 T01280044,0,8.0,1,16090,0,0,0,
2026-05-01 15:53:00,METAR KHVN 011553Z VRB04KT 10SM CLR 13/00 A2988 RMK AO2 SLP119 T01330000,0,4.0,0,16090,0,0,0,
2026-05-01 14:53:00,METAR KHVN 011453Z 34007KT 290V020 10SM FEW050 13/00 A2988 RMK AO2 SLP119 T01280000 58001,0,7.0,0,16090,0,0,0,
2026-05-01 13:53:00,METAR KHVN 011353Z 35007KT 10SM SCT040 12/01 A2989 RMK AO2 SLP122 T01170011,0,7.0,0,16090,0,0,0,
2026-05-01 12:53:00,METAR KHVN 011253Z 32014G17KT 10SM FEW040 10/01 A2989 RMK AO2 SLP122 T01000011,0,14.0,1,16090,0,0,0,
2026-05-01 11:53:00,METAR KHVN 011153Z 33010G18KT 10SM CLR 09/01 A2989 RMK AO2 SLP120 70009 T00890011 10089 20061 52015 $,0,10.0,1,16090,0,0,0,
2026-05-01 10:53:00,METAR KHVN 011053Z 31006KT 10SM CLR 08/01 A2988 RMK AO2 SLP117 T00780011 $,0,6.0,0,16090,0,0,0,
2026-05-01 09:53:00,METAR KHVN 010953Z 31006KT 10SM CLR 07/01 A2985 RMK AO2 SLP109 T00670011 $,0,6.0,0,16090,0,0,0,
2026-05-01 08:53:00,METAR KHVN 010853Z AUTO 32005KT 10SM CLR 08/01 A2984 RMK AO2 SLP106 T00780006 53009 $,0,5.0,0,16090,0,0,0,
2026-05-01 07:53:00,METAR KHVN 010753Z AUTO 33005KT 10SM FEW090 08/01 A2983 RMK AO2 SLP102 T00780006 $,0,5.0,0,16090,0,0,0,
2026-05-01 06:53:00,METAR KHVN 010653Z AUTO 33007KT 10SM BKN110 08/01 A2983 RMK AO2 SLP099 T00830011 $,0,7.0,0,16090,0,0,0,
2026-05-01 05:53:00,METAR KHVN 010553Z AUTO 34004KT 10SM OVC110 09/03 A2982 RMK AO2 SLP097 T00890028 10122 20083 50011 $,0,4.0,0,16090,0,0,0,
2026-05-01 04:53:00,METAR KHVN 010453Z AUTO 32006KT 10SM FEW110 09/03 A2982 RMK AO2 SLP098 T00890033 401220083 $,0,6.0,0,16090,0,0,0,
2026-05-01 03:53:00,METAR KHVN 010353Z AUTO 32007KT 10SM CLR 10/06 A2981 RMK AO2 SLP093 T01000061 $,0,7.0,0,16090,0,0,0,
2026-05-01 02:53:00,METAR KHVN 010253Z AUTO 31004KT 10SM CLR 11/08 A2979 RMK AO2 SLP086 T01060083 53010 $,0,4.0,0,16090,0,0,0,
2026-05-01 01:53:00,METAR KHVN 010153Z 32005KT 10SM CLR 11/08 A2978 RMK AO2 SLP082 T01060083 $,0,5.0,0,16090,0,0,0,
2026-05-01 00:53:00,METAR KHVN 010053Z 34008KT 10SM FEW049 BKN075 12/08 A2977 RMK AO2 SLP079 T01170083 $,0,8.0,0,16090,0,0,0,
2026-04-30 23:53:00,METAR KHVN 302353Z 31004KT 5SM BR SCT020 BKN038 OVC060 12/11 A2976 RMK AO2 RAE2257 SLP076 P0001 60005 T01170106 10122 20100 51013 $,0,4.0,0,8045,0,0,1,"BR,RA"
2026-04-30 22:53:00,METAR KHVN 302253Z 00000KT 4SM -RA BR SCT032 BKN047 OVC055 11/11 A2974 RMK AO2 RAB01 SLP072 P0004 T01110106 $,0,0.0,0,6436,0,0,1,"-RA,BR"
2026-04-30 21:53:00,METAR KHVN 302153Z 23006KT 7SM SCT037 BKN048 OVC060 11/09 A2973 RMK AO2 SLP067 T01110094,0,6.0,0,11263,0,0,0,
2026-04-30 20:53:00,METAR KHVN 302053Z COR 22004KT 8SM BKN032 OVC070 12/09 A2972 RMK AO2 SLP062 T01170094 56004,0,4.0,0,12872,0,0,0,
2026-04-30 19:53:00,METAR KHVN 301953Z 22004KT 10SM OVC021 11/09 A2972 RMK AO2 SLP063 T01110089,0,4.0,0,16090,0,0,0,
2026-04-30 18:53:00,METAR KHVN 301853Z 23009KT 9SM SCT014 OVC027 12/09 A2972 RMK AO2 SLP065 T01170094,0,9.0,0,14481,0,0,0,
2026-04-30 17:53:00,METAR KHVN 301753Z 20007KT 10SM OVC014 10/09 A2973 RMK AO2 SLP067 60004 T01000089 10106 20089 55008,0,7.0,0,16090,0,0,0,
2026-04-30 16:53:00,METAR KHVN 301653Z 21004KT 10SM BKN006 OVC011 11/08 A2972 RMK AO2 SLP064 T01060083,0,4.0,0,16090,0,0,0,
2026-04-30 14:53:00,METAR KHVN 301453Z 19005KT 10SM BKN006 OVC019 09/09 A2975 RMK AO2 SLP075 60004 T00940089 56006,0,5.0,0,16090,0,0,0,
2026-04-30 13:53:00,METAR KHVN 301353Z 20004KT 10SM OVC005 09/09 A2976 RMK AO2 CIG 004V008 SLP076 T00940089,0,4.0,0,16090,0,0,0,
2026-04-30 12:53:00,METAR KHVN 301253Z 16005KT 9SM BKN006 OVC028 09/08 A2975 RMK AO2 RAB1158E20 SLP075 P0004 T00940083,0,5.0,0,14481,0,0,0,RA
2026-04-30 12:21:00,SPECI KHVN 301221Z 15004KT 5SM BR OVC004 09/08 A2976 RMK AO2 RAB1158E20 P0003 T00890083,0,4.0,0,8045,0,0,1,"BR,RA"
2026-04-30 12:05:00,SPECI KHVN 301205Z 16005KT 2SM -RA BR OVC004 09/08 A2977 RMK AO2 RAB1158 P0003 T00890083,0,5.0,0,3218,0,0,1,"-RA,BR,RA"
2026-04-30 11:53:00,METAR KHVN 301153Z 15005KT 3SM BR OVC004 09/08 A2977 RMK AO2 RAB21E49 SLP081 P0001 60015 70025 T00890083 10089 20083 52006,0,5.0,0,4827,0,0,1,"BR,RA"
2026-04-30 10:53:00,METAR KHVN 301053Z 15003KT 2SM BR BKN005 OVC009 09/08 A2977 RMK AO2 CIG 003V008 SLP081 P0001 T00890083,0,3.0,0,3218,0,0,1,BR
2026-04-30 10:41:00,SPECI KHVN 301041Z 16005KT 2 1/2SM BR BKN005 OVC010 09/08 A2977 RMK AO2 P0001 T00890083,0,5.0,0,4022,0,0,1,BR
2026-04-30 10:21:00,SPECI KHVN 301021Z 00000KT 1 1/4SM BR BKN005 OVC011 09/08 A2976 RMK AO2 P0001 T00890083,0,0.0,0,2011,0,0,1,BR
2026-04-30 09:53:00,METAR KHVN 300953Z 00000KT 2SM BR BKN006 BKN014 OVC020 09/08 A2975 RMK AO2 RAE21B31E47 SLP075 P0004 T00890083,0,0.0,0,3218,0,0,1,"BR,RA"
2026-04-30 09:37:00,SPECI KHVN 300937Z AUTO 00000KT 2 1/2SM -RA BR FEW006 BKN022 OVC039 09/08 A2976 RMK AO2 RAE21B31 P0003 T00890083,0,0.0,0,4022,0,0,1,"-RA,BR,RA"
2026-04-30 09:33:00,SPECI KHVN 300933Z AUTO 00000KT 3SM -RA BR BKN023 OVC037 09/08 A2976 RMK AO2 RAE21B31 P0002 T00890083,0,0.0,0,4827,0,0,1,"-RA,BR,RA"
2026-04-30 09:21:00,SPECI KHVN 300921Z AUTO 00000KT 3SM BR FEW008 BKN033 OVC040 09/08 A2976 RMK AO2 RAE21 P0002 T00890083,0,0.0,0,4827,0,0,1,BR
2026-04-30 09:07:00,SPECI KHVN 300907Z AUTO 00000KT 2 1/2SM -RA BR FEW006 BKN029 OVC037 09/08 A2976 RMK AO2 P0001 T00890083,0,0.0,0,4022,0,0,1,"-RA,BR"
2026-04-30 09:01:00,SPECI KHVN 300901Z AUTO 00000KT 3SM -RA BR SCT006 BKN012 OVC029 09/08 A2976 RMK AO2 P0001 T00890083,0,0.0,0,4827,0,0,1,"-RA,BR"
2026-04-30 08:53:00,METAR KHVN 300853Z AUTO 00000KT 3SM -RA BR SCT006 SCT012 OVC027 09/08 A2977 RMK AO2 RAB18 SLP079 P0002 60009 T00890083 58012,0,0.0,0,4827,0,0,1,"-RA,BR"
2026-04-30 08:45:00,SPECI KHVN 300845Z AUTO 00000KT 4SM -RA BR BKN006 OVC029 09/08 A2977 RMK AO2 RAB18 P0002 T00890083,0,0.0,0,6436,0,0,1,"-RA,BR"
2026-04-30 08:33:00,SPECI KHVN 300833Z AUTO 00000KT 2 1/2SM R02/5000VP6000FT -RA BR BKN007 OVC029 09/08 A2977 RMK AO2 RAB18 P0001 T00890083,0,0.0,0,4022,0,0,1,"-RA,BR"
2026-04-30 08:14:00,SPECI KHVN 300814Z AUTO 00000KT 7SM BKN007 OVC011 09/08 A2977 RMK AO2 CIG 006V009 T00890078,0,0.0,0,11263,0,0,0,
2026-04-30 07:53:00,METAR KHVN 300753Z AUTO 00000KT 7SM SCT005 OVC010 09/08 A2978 RMK AO2 RAE28 SLP084 P0002 T00890078,0,0.0,0,11263,0,0,0,
2026-04-30 06:53:00,METAR KHVN 300653Z AUTO 17006KT 4SM -RA BR BKN008 OVC036 09/08 A2980 RMK AO2 SLP091 P0005 T00890078,0,6.0,0,6436,0,0,1,"-RA,BR"
2026-04-30 06:39:00,SPECI KHVN 300639Z AUTO VRB03KT 4SM -RA BR BKN008 OVC047 08/08 A2979 RMK AO2 P0003 T00830078,0,3.0,0,6436,0,0,1,"-RA,BR"
2026-04-30 06:23:00,SPECI KHVN 300623Z AUTO 16006KT 5SM -RA BR BKN010 BKN020 OVC080 09/08 A2981 RMK AO2 P0002 T00890078,0,6.0,0,8045,0,0,1,"-RA,BR"
2026-04-30 05:53:00,METAR KHVN 300553Z AUTO 11003KT 6SM -RA BR FEW065 OVC080 09/08 A2980 RMK AO2 SLP091 P0006 60010 T00890078 10111 20089 58020,0,3.0,0,9654,0,0,1,"-RA,BR"
2026-04-30 04:53:00,METAR KHVN 300453Z AUTO 13003KT 6SM -RA BR SCT065 OVC080 09/08 A2983 RMK AO2 SLP102 P0003 T00890078 401610044,0,3.0,0,9654,0,0,1,"-RA,BR"
2026-04-30 03:53:00,METAR KHVN 300353Z AUTO 16006KT 6SM -RA BR OVC085 09/08 A2986 RMK AO2 RAB16 SLP109 P0001 T00940078,0,6.0,0,9654,0,0,1,"-RA,BR"
2026-04-30 02:53:00,METAR KHVN 300253Z AUTO 15006KT 10SM OVC095 11/07 A2986 RMK AO2 SLP111 T01060067 50003,0,6.0,0,16090,0,0,0,
2026-04-30 01:53:00,METAR KHVN 300153Z 17004KT 10SM SCT110 10/08 A2988 RMK AO2 SLP117 T01000078,0,4.0,0,16090,0,0,0,
2026-04-30 00:53:00,METAR KHVN 300053Z 17003KT 10SM CLR 10/08 A2987 RMK AO2 SLP113 T01000078,0,3.0,0,16090,0,0,0,
2026-04-29 23:53:00,METAR KHVN 292353Z 00000KT 10SM CLR 11/08 A2985 RMK AO2 SLP108 T01110078 10156 20111 58014,0,0.0,0,16090,0,0,0,
2026-04-29 22:53:00,METAR KHVN 292253Z 23006KT 10SM CLR 12/08 A2987 RMK AO2 SLP114 T01170078,0,6.0,0,16090,0,0,0,
2026-04-29 21:53:00,METAR KHVN 292153Z 24005KT 10SM CLR 12/08 A2988 RMK AO2 SLP118 T01220078,0,5.0,0,16090,0,0,0,
2026-04-29 20:53:00,METAR KHVN 292053Z 20007KT 10SM OVC120 13/08 A2989 RMK AO2 SLP122 T01330078 58018,0,7.0,0,16090,0,0,0,
2026-04-29 19:53:00,METAR KHVN 291953Z 17008KT 9SM CLR 14/08 A2993 RMK AO2 SLP135 T01390078,0,8.0,0,14481,0,0,0,
2026-04-29 18:53:00,METAR KHVN 291853Z 16010KT 9SM CLR 13/08 A2994 RMK AO2 SLP140 T01330083,0,10.0,0,14481,0,0,0,
2026-04-29 17:53:00,METAR KHVN 291753Z 13010KT 10SM BKN250 16/04 A2995 RMK AO2 SLP140 T01560039 10161 20106 58014,0,10.0,0,16090,0,0,0,
2026-04-29 16:53:00,METAR KHVN 291653Z 16008KT 10SM SCT250 13/05 A2998 RMK AO2 SLP150 T01330050,0,8.0,0,16090,0,0,0,
2026-04-29 15:53:00,METAR KHVN 291553Z 17010KT 10SM SCT250 12/07 A2999 RMK AO2 SLP156 T01220067,0,10.0,0,16090,0,0,0,
2026-04-29 14:53:00,METAR KHVN 291453Z 12010KT 10SM SCT250 12/06 A2999 RMK AO2 SLP154 T01170056 55015,0,10.0,0,16090,0,0,0,
2026-04-29 13:53:00,METAR KHVN 291353Z 16009KT 10SM FEW250 12/05 A2999 RMK AO2 SLP153 T01170050,0,9.0,0,16090,0,0,0,
2026-04-29 12:53:00,METAR KHVN 291253Z 14004KT 10SM FEW120 12/05 A3000 RMK AO2 SLP159 T01220050,0,4.0,0,16090,0,0,0,
2026-04-29 11:53:00,METAR KHVN 291153Z 00000KT 10SM CLR 11/06 A3003 RMK AO2 SLP168 T01110056 10111 20044 58001,0,0.0,0,16090,0,0,0,
2026-04-29 10:53:00,METAR KHVN 291053Z 04003KT 9SM OVC075 08/06 A3004 RMK AO2 SLP170 T00830061,0,3.0,0,14481,0,0,0,
2026-04-29 09:53:00,METAR KHVN 290953Z 00000KT 10SM CLR 04/03 A3004 RMK AO2 SLP171 T00440033,0,0.0,0,16090,0,0,0,
2026-04-29 08:53:00,METAR KHVN 290853Z AUTO 34003KT 10SM CLR 04/03 A3003 RMK AO2 SLP169 T00440033 55012,0,3.0,0,16090,0,0,0,
2026-04-29 07:53:00,METAR KHVN 290753Z AUTO 00000KT 10SM CLR 06/04 A3002 RMK AO2 SLP166 T00560039,0,0.0,0,16090,0,0,0,
2026-04-29 06:53:00,METAR KHVN 290653Z AUTO 00000KT 10SM FEW095 06/04 A3004 RMK AO2 SLP173 T00610039,0,0.0,0,16090,0,0,0,
2026-04-29 05:53:00,METAR KHVN 290553Z AUTO 00000KT 10SM FEW110 08/06 A3007 RMK AO2 SLP181 T00780056 10117 20078 58005,0,0.0,0,16090,0,0,0,
2026-04-29 04:53:00,METAR KHVN 290453Z AUTO 00000KT 10SM OVC100 10/06 A3009 RMK AO2 SLP189 T01000061 401720028,0,0.0,0,16090,0,0,0,
2026-04-29 03:53:00,METAR KHVN 290353Z AUTO 00000KT 10SM OVC110 11/06 A3008 RMK AO2 SLP187 T01060056,0,0.0,0,16090,0,0,0,
2026-04-29 02:53:00,METAR KHVN 290253Z AUTO 00000KT 10SM OVC110 10/06 A3008 RMK AO2 SLP186 T01000061 50002,0,0.0,0,16090,0,0,0,
2026-04-29 01:53:00,METAR KHVN 290153Z 13007KT 10SM OVC110 11/06 A3009 RMK AO2 SLP189 T01060056,0,7.0,0,16090,0,0,0,
2026-04-29 00:53:00,METAR KHVN 290053Z 12006KT 10SM CLR 11/06 A3008 RMK AO2 SLP186 T01110056,0,6.0,0,16090,0,0,0,
2026-04-28 23:53:00,METAR KHVN 282353Z 13007KT 10SM BKN100 12/06 A3008 RMK AO2 SLP184 T01170061 10172 20117 56002,0,7.0,0,16090,0,0,0,
2026-04-28 22:53:00,METAR KHVN 282253Z 12008KT 10SM OVC250 13/06 A3008 RMK AO2 SLP184 T01280061,0,8.0,0,16090,0,0,0,
2026-04-28 21:53:00,METAR KHVN 282153Z 14006KT 10SM CLR 15/05 A3007 RMK AO2 SLP183 T01500050,0,6.0,0,16090,0,0,0,
2026-04-28 20:53:00,METAR KHVN 282053Z 16006KT 10SM CLR 16/04 A3008 RMK AO2 SLP187 T01610039 56020,0,6.0,0,16090,0,0,0,
2026-04-28 19:53:00,METAR KHVN 281953Z 20006KT 10SM BKN250 17/05 A3010 RMK AO2 SLP192 T01670050,0,6.0,0,16090,0,0,0,
2026-04-28 18:53:00,METAR KHVN 281853Z 21007KT 10SM OVC250 16/03 A3012 RMK AO2 SLP200 T01610033,0,7.0,0,16090,0,0,0,
2026-04-28 17:53:00,METAR KHVN 281753Z 23007KT 10SM CLR 16/03 A3014 RMK AO2 SLP207 T01560028 10161 20100 58012,0,7.0,0,16090,0,0,0,
2026-04-28 16:53:00,METAR KHVN 281653Z 20008KT 10SM CLR 15/02 A3016 RMK AO2 SLP212 T01500022,0,8.0,0,16090,0,0,0,
2026-04-28 15:53:00,METAR KHVN 281553Z 17008KT 10SM CLR 16/04 A3017 RMK AO2 SLP215 T01560044,0,8.0,0,16090,0,0,0,
2026-04-28 14:53:00,METAR KHVN 281453Z 18005KT 10SM CLR 13/07 A3018 RMK AO2 SLP219 T01330067 56004,0,5.0,0,16090,0,0,0,
2026-04-28 13:53:00,METAR KHVN 281353Z 17006KT 10SM CLR 14/05 A3019 RMK AO2 SLP221 T01390050,0,6.0,0,16090,0,0,0,
2026-04-28 12:53:00,METAR KHVN 281253Z 13005KT 10SM CLR 12/05 A3018 RMK AO2 SLP220 T01220050,0,5.0,0,16090,0,0,0,
2026-04-28 11:53:00,METAR KHVN 281153Z 00000KT 10SM CLR 10/06 A3019 RMK AO2 SLP223 T01000061 10100 20028 55000,0,0.0,0,16090,0,0,0,
2026-04-28 10:53:00,METAR KHVN 281053Z 00000KT 10SM CLR 06/04 A3019 RMK AO2 SLP221 T00560039,0,0.0,0,16090,0,0,0,
2026-04-28 09:53:00,METAR KHVN 280953Z 00000KT 10SM CLR 03/03 A3019 RMK AO2 SLP222 T00330028,0,0.0,0,16090,0,0,0,
2026-04-28 08:53:00,METAR KHVN 280853Z AUTO 00000KT 10SM CLR 04/03 A3019 RMK AO2 SLP224 T00390028 51003,0,0.0,0,16090,0,0,0,
2026-04-28 07:53:00,METAR KHVN 280753Z AUTO 00000KT 10SM CLR 05/03 A3019 RMK AO2 SLP223 T00500033,0,0.0,0,16090,0,0,0,
2026-04-28 06:53:00,METAR KHVN 280653Z AUTO 00000KT 10SM CLR 05/03 A3019 RMK AO2 SLP222 T00500033,0,0.0,0,16090,0,0,0,
2026-04-28 05:53:00,METAR KHVN 280553Z AUTO 00000KT 10SM CLR 06/04 A3018 RMK AO2 SLP220 T00560039 10128 20050 58024,0,0.0,0,16090,0,0,0,
2026-04-28 04:53:00,METAR KHVN 280453Z AUTO 00000KT 10SM CLR 06/04 A3021 RMK AO2 SLP229 T00610044 401780017,0,0.0,0,16090,0,0,0,
2026-04-28 03:53:00,METAR KHVN 280353Z AUTO 00000KT 10SM CLR 07/04 A3025 RMK AO2 SLP244 T00670044,0,0.0,0,16090,0,0,0,
2026-04-28 02:53:00,METAR KHVN 280253Z AUTO 00000KT 10SM CLR 08/04 A3026 RMK AO2 SLP245 T00780044 50005,0,0.0,0,16090,0,0,0,
2026-04-28 01:53:00,METAR KHVN 280153Z 10SM CLR 10/03 A3027 RMK AO2 SLP250 T01000033,0,,0,16090,0,0,0,
2026-04-28 00:53:00,METAR KHVN 280053Z 11003KT 10SM CLR 11/06 A3026 RMK AO2 SLP245 T01110056,0,3.0,0,16090,0,0,0,
2026-04-27 23:53:00,METAR KHVN 272353Z 11003KT 10SM CLR 13/04 A3024 RMK AO2 SLP239 T01280039 10178 20128 53003,0,3.0,0,16090,0,0,0,
2026-04-27 22:53:00,METAR KHVN 272253Z 11006KT 10SM CLR 14/04 A3023 RMK AO2 SLP235 T01440044,0,6.0,0,16090,0,0,0,
2026-04-27 21:53:00,METAR KHVN 272153Z 12009KT 10SM CLR 16/04 A3023 RMK AO2 SLP237 T01560039,0,9.0,0,16090,0,0,0,
2026-04-27 20:53:00,METAR KHVN 272053Z 13008KT 10SM CLR 17/03 A3023 RMK AO2 SLP236 T01670033 55002,0,8.0,0,16090,0,0,0,
2026-04-27 19:53:00,METAR KHVN 271953Z 16007KT 10SM CLR 17/03 A3022 RMK AO2 SLP232 T01670033,0,7.0,0,16090,0,0,0,
2026-04-27 18:53:00,METAR KHVN 271853Z 15009KT 10SM CLR 17/03 A3022 RMK AO2 SLP234 T01720028,0,9.0,0,16090,0,0,0,
2026-04-27 17:53:00,METAR KHVN 271753Z 18008KT 10SM CLR 17/03 A3024 RMK AO2 SLP238 T01670033 10167 20094 58001,0,8.0,0,16090,0,0,0,
2026-04-27 16:53:00,METAR KHVN 271653Z 18006KT 10SM CLR 16/03 A3024 RMK AO2 SLP240 T01610033,0,6.0,0,16090,0,0,0,
2026-04-27 15:53:00,METAR KHVN 271553Z 21007KT 10SM CLR 14/03 A3024 RMK AO2 SLP241 T01440028,0,7.0,0,16090,0,0,0,
2026-04-27 14:53:00,METAR KHVN 271453Z 04006KT 9SM CLR 15/03 A3024 RMK AO2 SLP239 T01500028 51006,0,6.0,0,14481,0,0,0,
2026-04-27 13:53:00,METAR KHVN 271353Z 04008KT 10SM CLR 16/03 A3024 RMK AO2 SLP238 T01560028,0,8.0,0,16090,0,0,0,
2026-04-27 12:53:00,METAR KHVN 271253Z 02006KT 10SM CLR 12/04 A3023 RMK AO2 SLP235 T01220044,0,6.0,0,16090,0,0,0,
2026-04-27 11:53:00,METAR KHVN 271153Z 01010KT 10SM CLR 09/04 A3022 RMK AO2 SLP233 T00940039 10094 20017 53008 $,0,10.0,0,16090,0,0,0,
2026-04-27 10:53:00,METAR KHVN 271053Z 01008KT 10SM CLR 07/04 A3021 RMK AO2 SLP230 T00670039 $,0,8.0,0,16090,0,0,0,
2026-04-27 09:53:00,METAR KHVN 270953Z 01005KT 10SM CLR 04/02 A3020 RMK AO2 SLP227 T00390022 $,0,5.0,0,16090,0,0,0,
2026-04-27 08:53:00,METAR KHVN 270853Z AUTO 01003KT 10SM CLR 03/01 A3020 RMK AO2 SLP225 T00280006 53006 $,0,3.0,0,16090,0,0,0,
2026-04-27 07:53:00,METAR KHVN 270753Z AUTO 00000KT 10SM CLR 05/02 A3019 RMK AO2 SLP221 T00500022 $,0,0.0,0,16090,0,0,0,
2026-04-27 06:53:00,METAR KHVN 270653Z AUTO 00000KT 10SM CLR 05/03 A3018 RMK AO2 SLP219 T00500028 $,0,0.0,0,16090,0,0,0,
2026-04-27 05:53:00,METAR KHVN 270553Z AUTO 00000KT 10SM CLR 04/02 A3018 RMK AO2 SLP219 T00390017 10094 20028 58001 $,0,0.0,0,16090,0,0,0,
2026-04-27 04:53:00,METAR KHVN 270453Z AUTO 00000KT 10SM CLR 05/03 A3018 RMK AO2 SLP221 T00500028 401170039 $,0,0.0,0,16090,0,0,0,
2026-04-27 03:53:00,METAR KHVN 270353Z AUTO 00000KT 10SM CLR 04/02 A3018 RMK AO2 SLP220 T00440022 $,0,0.0,0,16090,0,0,0,
2026-04-27 02:53:00,METAR KHVN 270253Z AUTO 00000KT 10SM CLR 05/03 A3018 RMK AO2 SLP219 T00500028 50008 $,0,0.0,0,16090,0,0,0,
2026-04-27 01:53:00,METAR KHVN 270153Z 00000KT 10SM CLR 06/03 A3018 RMK AO2 SLP220 T00560028 $,0,0.0,0,16090,0,0,0,
2026-04-27 00:53:00,METAR KHVN 270053Z 30003KT 10SM CLR 08/05 A3017 RMK AO2 SLP216 T00830050 $,0,3.0,0,16090,0,0,0,
2026-04-26 23:53:00,METAR KHVN 262353Z 00000KT 10SM CLR 09/03 A3016 RMK AO2 SLP211 T00940033 10117 20089 53009 $,0,0.0,0,16090,0,0,0,
2026-04-26 22:53:00,METAR KHVN 262253Z 12005KT 10SM CLR 11/03 A3014 RMK AO2 SLP206 T01060033 $,0,5.0,0,16090,0,0,0,
2026-04-26 21:53:00,METAR KHVN 262153Z 15010KT 10SM CLR 11/03 A3014 RMK AO2 SLP204 T01110028 $,0,10.0,0,16090,0,0,0,
2026-04-26 20:53:00,METAR KHVN 262053Z 14009KT 10SM CLR 11/04 A3013 RMK AO2 SLP202 T01060039 58001 $,0,9.0,0,16090,0,0,0,
2026-04-26 19:53:00,METAR KHVN 261953Z 15007G15KT 10SM CLR 11/04 A3013 RMK AO2 SLP203 T01060044 $,0,7.0,1,16090,0,0,0,
2026-04-26 18:53:00,METAR KHVN 261853Z 15011KT 10SM CLR 11/05 A3013 RMK AO2 SLP203 T01110050 $,0,11.0,0,16090,0,0,0,
2026-04-26 17:53:00,METAR KHVN 261753Z 11012KT 10SM FEW035 11/04 A3013 RMK AO2 SLP203 T01110039 10111 20061 50001 $,0,12.0,0,16090,0,0,0,
2026-04-26 16:53:00,METAR KHVN 261653Z 13011KT 10SM BKN033 OVC065 10/04 A3014 RMK AO2 SLP205 T01000039 $,0,11.0,0,16090,0,0,0,
2026-04-26 15:53:00,METAR KHVN 261553Z 12009KT 10SM FEW030 BKN060 OVC075 11/03 A3014 RMK AO2 SLP205 T01060033 $,0,9.0,0,16090,0,0,0,
2026-04-26 14:53:00,METAR KHVN 261453Z 07006KT 10SM OVC055 09/03 A3013 RMK AO2 SLP202 T00940028 51011 $,0,6.0,0,16090,0,0,0,
2026-04-26 13:53:00,METAR KHVN 261353Z 07005KT 10SM OVC050 08/03 A3012 RMK AO2 SLP199 T00830033 $,0,5.0,0,16090,0,0,0,
2026-04-26 12:53:00,METAR KHVN 261253Z 05005KT 10SM BKN055 OVC070 07/04 A3011 RMK AO2 SLP195 T00720039 $,0,5.0,0,16090,0,0,0,
2026-04-26 11:53:00,METAR KHVN 261153Z 01004KT 10SM BKN060 OVC075 06/04 A3010 RMK AO2 SLP191 60001 70074 T00610039 10061 20050 53012 $,0,4.0,0,16090,0,0,0,
2026-04-26 10:53:00,METAR KHVN 261053Z 01004KT 10SM SCT050 OVC075 05/04 A3008 RMK AO2 SLP186 T00500039 $,0,4.0,0,16090,0,0,0,
2026-04-26 09:53:00,METAR KHVN 260953Z 04005KT 10SM OVC075 05/04 A3006 RMK AO2 RAB27E49 SLP179 P0000 T00500039 $,0,5.0,0,16090,0,0,0,RA
2026-04-26 08:53:00,METAR KHVN 260853Z AUTO 05003KT 10SM FEW048 OVC065 05/04 A3006 RMK AO2 SLP179 60001 T00500044 55005 $,0,3.0,0,16090,0,0,0,
2026-04-26 07:53:00,METAR KHVN 260753Z AUTO 05003KT 10SM OVC070 05/04 A3006 RMK AO2 SLP178 T00500039 $,0,3.0,0,16090,0,0,0,
2026-04-26 06:53:00,METAR KHVN 260653Z AUTO 04005KT 10SM OVC070 05/04 A3006 RMK AO2 RAE13 SLP179 P0001 T00500039 $,0,5.0,0,16090,0,0,0,
2026-04-26 06:36:00,SPECI KHVN 260636Z AUTO 06004KT 10SM FEW009 SCT015 OVC070 05/04 A3006 RMK AO2 RAE13 P0001 T00500039 $,0,4.0,0,16090,0,0,0,
2026-04-26 05:57:00,SPECI KHVN 260557Z AUTO 04005KT 7SM -RA SCT005 BKN013 OVC055 05/04 A3008 RMK AO2 P0001 T00500039 $,0,5.0,0,11263,0,0,0,-RA
2026-04-26 05:53:00,METAR KHVN 260553Z AUTO 02006KT 7SM -RA SCT005 SCT013 OVC055 05/04 A3008 RMK AO2 SLP184 P0004 60067 T00500044 10056 20050 58003 $,0,6.0,0,11263,0,0,0,-RA
2026-04-26 05:25:00,SPECI KHVN 260525Z AUTO 06003KT 7SM -RA FEW007 FEW023 OVC060 05/04 A3008 RMK AO2 P0003 T00500044 $,0,3.0,0,11263,0,0,0,-RA
2026-04-26 04:53:00,METAR KHVN 260453Z AUTO 05003KT 6SM -RA BR OVC065 05/04 A3008 RMK AO2 SLP187 P0010 T00500039 400940011 $,0,3.0,0,9654,0,0,1,"-RA,BR"
2026-04-26 04:07:00,SPECI KHVN 260407Z AUTO 05003KT 4SM RA BR SCT015 OVC043 05/04 A3009 RMK AO2 P0004 T00500039 $,0,3.0,0,6436,0,0,1,"BR,RA"
2026-04-26 03:53:00,METAR KHVN 260353Z AUTO 03003KT 3SM RA BR BKN015 BKN032 OVC041 05/04 A3009 RMK AO2 SLP188 P0024 T00500039 $,0,3.0,0,4827,0,0,1,"BR,RA"
2026-04-26 03:45:00,SPECI KHVN 260345Z AUTO 00000KT 2 1/2SM R02/2000VP6000FT RA BR BKN015 BKN020 OVC041 05/04 A3009 RMK AO2 P0022 T00500039 $,0,0.0,0,4022,0,0,1,"BR,RA"
2026-04-26 03:26:00,SPECI KHVN 260326Z AUTO 00000KT 2 1/2SM R02/2800VP6000FT RA BR BKN041 OVC048 05/04 A3009 RMK AO2 P0013 T00500039 $,0,0.0,0,4022,0,0,1,"BR,RA"
2026-04-26 02:53:00,METAR KHVN 260253Z AUTO 05005KT 3SM RA BR SCT045 BKN055 OVC070 05/04 A3008 RMK AO2 SLP187 P0015 60029 T00500039 50007 $,0,5.0,0,4827,0,0,1,"BR,RA"
2026-04-26 02:00:00,SPECI KHVN 260200Z AUTO 12006KT 3SM -RA BR SCT009 SCT015 OVC047 06/04 A3010 RMK AO2 P0002 T00560044 $,0,6.0,0,4827,0,0,1,"-RA,BR"
2026-04-26 01:53:00,METAR KHVN 260153Z 10003KT 4SM RA BR SCT011 BKN019 OVC060 06/04 A3010 RMK AO2 SLP191 P0008 T00560044 $,0,3.0,0,6436,0,0,1,"BR,RA"
2026-04-26 00:53:00,METAR KHVN 260053Z 10004KT 4SM -RA BR SCT011 BKN019 OVC060 06/04 A3008 RMK AO2 SLP185 P0006 T00560044 $,0,4.0,0,6436,0,0,1,"-RA,BR"
2026-04-26 00:12:00,SPECI KHVN 260012Z 00000KT 6SM -RA BR BKN015 OVC055 06/04 A3007 RMK AO2 P0001 T00560039 $,0,0.0,0,9654,0,0,1,"-RA,BR"
2026-04-25 23:53:00,METAR KHVN 252353Z 14004KT 5SM -RA BR BKN060 OVC070 06/03 A3006 RMK AO2 SLP180 P0003 60006 T00560033 10094 20056 53003 $,0,4.0,0,8045,0,0,1,"-RA,BR"
2026-04-25 22:53:00,METAR KHVN 252253Z 15005KT 6SM -RA OVC075 06/03 A3004 RMK AO2 RAE17B52 SLP171 P0001 T00610033 $,0,5.0,0,9654,0,0,0,"-RA,RA"
2026-04-25 21:53:00,METAR KHVN 252153Z 18005KT 8SM -RA OVC085 07/03 A3005 RMK AO2 RAE2054B53 SLP176 P0000 T00670033 $,0,5.0,0,12872,0,0,0,"-RA,RA"
2026-04-25 20:53:00,METAR KHVN 252053Z 19004KT 6SM -RA FEW018 BKN075 OVC095 07/04 A3006 RMK AO2 RAE18B36 SLP177 P0001 60002 T00720044 56006 $,0,4.0,0,9654,0,0,0,"-RA,RA"
2026-04-25 19:53:00,METAR KHVN 251953Z 20005KT 6SM -RA BKN075 OVC090 07/04 A3006 RMK AO2 RAB1857E09B31 SLP178 P0001 T00670039 $,0,5.0,0,9654,0,0,0,"-RA,RA"
2026-04-25 18:53:00,METAR KHVN 251853Z 20006KT 8SM FEW070 OVC085 07/03 A3006 RMK AO2 SLP180 T00720033 $,0,6.0,0,12872,0,0,0,
2026-04-25 17:53:00,METAR KHVN 251753Z 12008KT 10SM BKN095 09/02 A3007 RMK AO2 SLP183 T00940022 10094 20072 58003 $,0,8.0,0,16090,0,0,0,
2026-04-25 16:53:00,METAR KHVN 251653Z 11012KT 10SM OVC110 09/02 A3008 RMK AO2 SLP186 T00940017 $,0,12.0,0,16090,0,0,0,
2026-04-25 15:53:00,METAR KHVN 251553Z 11009KT 10SM SCT120 09/01 A3008 RMK AO2 SLP185 T00890011 $,0,9.0,0,16090,0,0,0,
2026-04-25 14:53:00,METAR KHVN 251453Z 10010KT 10SM SCT120 09/02 A3008 RMK AO2 SLP186 T00890017 51006 $,0,10.0,0,16090,0,0,0,
2026-04-25 13:53:00,METAR KHVN 251353Z 11010G20KT 10SM FEW027 OVC120 08/02 A3008 RMK AO2 SLP185 T00830022 $,0,10.0,1,16090,0,0,0,
2026-04-25 12:53:00,METAR KHVN 251253Z 11010KT 10SM FEW030 BKN120 08/03 A3007 RMK AO2 SLP183 T00780028 $,0,10.0,0,16090,0,0,0,
2026-04-25 11:53:00,METAR KHVN 251153Z 08007KT 10SM CLR 07/03 A3006 RMK AO2 SLP180 T00720033 10072 20011 51014 $,0,7.0,0,16090,0,0,0,
2026-04-25 10:53:00,METAR KHVN 251053Z 06005KT 10SM CLR 04/02 A3005 RMK AO2 SLP175 T00440022 $,0,5.0,0,16090,0,0,0,
2026-04-25 09:53:00,METAR KHVN 250953Z 00000KT 10SM CLR 02/01 A3004 RMK AO2 SLP171 T00220011 $,0,0.0,0,16090,0,0,0,
2026-04-25 08:53:00,METAR KHVN 250853Z AUTO 00000KT 10SM CLR 02/01 A3002 RMK AO2 SLP166 T00220011 53006 $,0,0.0,0,16090,0,0,0,
2026-04-25 07:53:00,METAR KHVN 250753Z AUTO 00000KT 10SM CLR 03/01 A3001 RMK AO2 SLP163 T00330011 $,0,0.0,0,16090,0,0,0,
2026-04-25 06:53:00,METAR KHVN 250653Z AUTO 06003KT 10SM CLR 04/02 A3001 RMK AO2 SLP162 T00390017 $,0,3.0,0,16090,0,0,0,
2026-04-25 05:53:00,METAR KHVN 250553Z AUTO 00000KT 10SM CLR 04/02 A3000 RMK AO2 SLP160 T00440017 10083 20039 51012 $,0,0.0,0,16090,0,0,0,
2026-04-25 04:53:00,METAR KHVN 250453Z AUTO 00000KT 10SM CLR 06/02 A3000 RMK AO2 SLP158 T00610022 401500061 $,0,0.0,0,16090,0,0,0,
2026-04-25 03:53:00,METAR KHVN 250353Z AUTO 13004KT 10SM CLR 07/02 A2998 RMK AO2 SLP152 T00720017 $,0,4.0,0,16090,0,0,0,
2026-04-25 02:53:00,METAR KHVN 250253Z AUTO 13006KT 10SM CLR 07/03 A2997 RMK AO2 SLP148 T00720033 53019 $,0,6.0,0,16090,0,0,0,
2026-04-25 01:53:00,METAR KHVN 250153Z 14007KT 10SM CLR 08/03 A2995 RMK AO2 SLP143 T00780033 $,0,7.0,0,16090,0,0,0,
2026-04-25 00:53:00,METAR KHVN 250053Z 12006KT 10SM CLR 08/03 A2992 RMK AO2 SLP131 T00780033 $,0,6.0,0,16090,0,0,0,
2026-04-24 23:53:00,METAR KHVN 242353Z 12006KT 10SM CLR 08/04 A2991 RMK AO2 SLP129 T00830039 10150 20083 53035 $,0,6.0,0,16090,0,0,0,
2026-04-24 22:53:00,METAR KHVN 242253Z 12011G17KT 10SM CLR 09/03 A2987 RMK AO2 SLP113 T00940033 $,0,11.0,1,16090,0,0,0,
2026-04-24 21:53:00,METAR KHVN 242153Z 12011G17KT 10SM CLR 12/04 A2984 RMK AO2 SLP104 T01170044 $,0,11.0,1,16090,0,0,0,
2026-04-24 20:53:00,METAR KHVN 242053Z 16009G16KT 10SM CLR 14/M03 A2981 RMK AO2 SLP094 T01441028 $,0,9.0,1,16090,0,0,0,
2026-04-24 19:53:00,METAR KHVN 241953Z 19008KT 10SM CLR 14/01 A2981 RMK AO2 SLP093 T01440011 $,0,8.0,0,16090,0,0,0,
2026-04-24 18:53:00,METAR KHVN 241853Z 18009KT 10SM CLR 13/00 A2980 RMK AO2 SLP092 T01330000 $,0,9.0,0,16090,0,0,0,
2026-04-24 17:53:00,METAR KHVN 241753Z 21011KT 10SM CLR 12/02 A2981 RMK AO2 SLP095 T01220022 10144 20089 $,0,11.0,0,16090,0,0,0,
2026-04-24 16:53:00,METAR KHVN 241653Z 16011KT 10SM CLR 12/02 A2981 RMK AO2 SLP094 T01220017 $,0,11.0,0,16090,0,0,0,
2026-04-24 16:35:00,SPECI KHVN 241635Z 16011KT 10SM 12/04 A2981 RMK AO2 T01170044 $,0,11.0,0,16090,0,0,0,
2026-04-24 15:53:00,METAR KHVN 241553Z 01009G17KT 10SM CLR 14/M03 A2982 RMK AO2 SLP098 T01391028 $,0,9.0,1,16090,0,0,0,
2026-04-24 14:53:00,METAR KHVN 241453Z 02012G18KT 10SM CLR 13/M02 A2984 RMK AO2 SLP104 T01331022 58002 $,0,12.0,1,16090,0,0,0,
2026-04-24 13:53:00,METAR KHVN 241353Z 02009G17KT 10SM CLR 12/00 A2985 RMK AO2 SLP107 T01220000 $,0,9.0,1,16090,0,0,0,
2026-04-24 12:53:00,METAR KHVN 241253Z 36006KT 10SM OVC090 10/02 A2985 RMK AO2 SLP109 T01000022 $,0,6.0,0,16090,0,0,0,
2026-04-24 11:53:00,METAR KHVN 241153Z 03005KT 10SM FEW070 BKN110 09/03 A2984 RMK AO2 SLP105 T00890033 10089 20078 53010,0,5.0,0,16090,0,0,0,
2026-04-24 10:53:00,METAR KHVN 241053Z 04007KT 9SM BKN070 OVC090 08/03 A2983 RMK AO2 SLP102 T00780033,0,7.0,0,14481,0,0,0,
2026-04-24 09:53:00,METAR KHVN 240953Z 05004KT 10SM FEW060 SCT070 OVC090 08/03 A2982 RMK AO2 SLP096 T00780028,0,4.0,0,16090,0,0,0,
2026-04-24 08:53:00,METAR KHVN 240853Z AUTO 10004KT 10SM SCT065 OVC095 08/03 A2981 RMK AO2 SLP095 T00830028 50000,0,4.0,0,16090,0,0,0,
2026-04-24 07:53:00,METAR KHVN 240753Z AUTO 09008G16KT 10SM FEW075 BKN090 OVC110 08/03 A2982 RMK AO2 SLP096 T00830028,0,8.0,1,16090,0,0,0,
2026-04-24 06:53:00,METAR KHVN 240653Z AUTO 09009G19KT 10SM OVC100 08/03 A2983 RMK AO2 SLP100 T00830028,0,9.0,1,16090,0,0,0,
2026-04-24 05:53:00,METAR KHVN 240553Z AUTO 12010G18KT 10SM OVC110 09/03 A2981 RMK AO2 SLP095 T00890028 10194 20089 56006,0,10.0,1,16090,0,0,0,
2026-04-24 04:53:00,METAR KHVN 240453Z AUTO 00000KT 10SM OVC100 16/M01 A2982 RMK AO2 SLP098 T01561006 402220022,0,0.0,0,16090,0,0,0,
2026-04-24 03:53:00,METAR KHVN 240353Z AUTO 34004KT 10SM OVC110 17/M02 A2982 RMK AO2 SLP098 T01671017,0,4.0,0,16090,0,0,0,
2026-04-24 02:53:00,METAR KHVN 240253Z AUTO 33006KT 10SM OVC110 18/M03 A2983 RMK AO2 SLP102 T01781028 50009,0,6.0,0,16090,0,0,0,
2026-04-24 01:53:00,METAR KHVN 240153Z 35008KT 10SM OVC120 18/M03 A2983 RMK AO2 SLP102 T01781028,0,8.0,0,16090,0,0,0,
2026-04-24 00:53:00,METAR KHVN 240053Z 33010G17KT 10SM OVC110 19/M03 A2983 RMK AO2 SLP100 T01891028,0,10.0,1,16090,0,0,0,
2026-04-23 23:53:00,METAR KHVN 232353Z 33010G19KT 10SM BKN120 19/M04 A2980 RMK AO2 SLP092 T01941039 10222 20189 53003,0,10.0,1,16090,0,0,0,
2026-04-23 22:53:00,METAR KHVN 232253Z 33010G18KT 10SM SCT120 21/M03 A2980 RMK AO2 SLP089 T02061028,0,10.0,1,16090,0,0,0,
2026-04-23 21:53:00,METAR KHVN 232153Z 33014G24KT 10SM CLR 22/M02 A2980 RMK AO2 SLP089 T02171022,0,14.0,1,16090,0,0,0,
2026-04-23 20:53:00,METAR KHVN 232053Z 32012G25KT 10SM SCT250 22/M02 A2980 RMK AO2 SLP089 T02221017 56024,0,12.0,1,16090,0,0,0,
2026-04-23 19:53:00,METAR KHVN 231953Z 31014G20KT 10SM SCT250 21/M01 A2980 RMK AO2 SLP092 T02111006,0,14.0,1,16090,0,0,0,
2026-04-23 18:53:00,METAR KHVN 231853Z 31010G17KT 270V350 10SM CLR 20/01 A2983 RMK AO2 SLP101 T02000006,0,10.0,1,16090,0,0,0,
2026-04-23 17:53:00,METAR KHVN 231753Z 35014G30KT 10SM SCT250 19/00 A2987 RMK AO2 PK WND 32026/1710 SLP113 T01890000 10194 20061 56018,0,14.0,1,16090,0,0,0,
2026-04-23 16:53:00,METAR KHVN 231653Z 32014G25KT 10SM FEW075 18/01 A2988 RMK AO2 PK WND 31026/1650 SLP118 T01830006,0,14.0,1,16090,0,0,0,
2026-04-23 15:53:00,METAR KHVN 231553Z 32017G21KT 10SM CLR 18/03 A2990 RMK AO2 SLP124 T01780033,0,17.0,1,16090,0,0,0,
2026-04-23 14:53:00,METAR KHVN 231453Z 31009G15KT 10SM CLR 17/04 A2992 RMK AO2 SLP131 T01720044 58011,0,9.0,1,16090,0,0,0,
2026-04-23 13:53:00,METAR KHVN 231353Z 20007KT 9SM CLR 10/07 A2994 RMK AO2 SLP138 T01000067,0,7.0,0,14481,0,0,0,
2026-04-23 12:53:00,METAR KHVN 231253Z 25003KT 9SM CLR 08/06 A2995 RMK AO2 SLP141 T00780056,0,3.0,0,14481,0,0,0,
2026-04-23 11:53:00,METAR KHVN 231153Z 00000KT 7SM CLR 06/06 A2995 RMK AO2 SLP142 70004 T00610056 10072 20022 51006 $,0,0.0,0,11263,0,0,0,
2026-04-23 11:06:00,SPECI KHVN 231106Z 00000KT 3SM BR FEW008 04/04 A2995 RMK AO2 T00390039 $,0,0.0,0,4827,0,0,1,BR
2026-04-23 10:56:00,SPECI KHVN 231056Z 00000KT 2SM BR SCT007 03/03 A2995 RMK AO2 T00330033 $,0,0.0,0,3218,0,0,1,BR
2026-04-23 10:53:00,METAR KHVN 231053Z 00000KT 1 1/4SM R02/6000VP6000FT BR BKN007 03/03 A2995 RMK AO2 SLP141 T00330033 $,0,0.0,0,2011,0,0,1,BR
2026-04-23 10:49:00,SPECI KHVN 231049Z 00000KT 1/2SM R02/1800VP6000FT FG VV007 03/03 A2995 RMK AO2 $,0,0.0,0,804,0,0,1,FG
2026-04-23 10:41:00,SPECI KHVN 231041Z 00000KT M1/4SM R02/1200V2400FT FG VV007 03/03 A2994 RMK AO2 T00280028 $,0,0.0,0,402,0,0,1,FG
2026-04-23 10:39:00,SPECI KHVN 231039Z 00000KT 1/4SM R02/1200V2000FT FG VV007 03/03 A2994 RMK AO2 T00280028 $,0,0.0,0,402,0,0,1,FG
2026-04-23 10:07:00,SPECI KHVN 231007Z 00000KT 1/4SM R02/1800V4000FT FG VV008 02/02 A2993 RMK AO2 T00220022 $,0,0.0,0,402,0,0,1,FG
2026-04-23 09:57:00,SPECI KHVN 230957Z 00000KT 1/4SM R02/1600V2200FT FG VV008 03/03 A2993 RMK AO2 T00280028 $,0,0.0,0,402,0,0,1,FG
2026-04-23 09:53:00,METAR KHVN 230953Z 00000KT 1/2SM R02/2000V3000FT FG VV008 03/03 A2993 RMK AO2 SLP136 T00330028 $,0,0.0,0,804,0,0,1,FG
2026-04-23 09:49:00,SPECI KHVN 230949Z 00000KT 1/2SM R02/2000V3000FT FG VV008 03/03 A2993 RMK AO2 $,0,0.0,0,804,0,0,1,FG
2026-04-23 09:42:00,SPECI KHVN 230942Z 00000KT 1/4SM R02/2200V3500FT FG VV009 03/03 A2994 RMK AO2 T00280028 $,0,0.0,0,402,0,0,1,FG
2026-04-23 09:02:00,SPECI KHVN 230902Z AUTO 00000KT 1/4SM R02/2400V5000FT FG VV013 03/03 A2994 RMK AO2 T00330033 $,0,0.0,0,402,0,0,1,FG
2026-04-23 08:53:00,METAR KHVN 230853Z AUTO 00000KT 1/2SM R02/2200V5000FT FG VV013 04/03 A2994 RMK AO2 SLP138 T00390033 56005 $,0,0.0,0,804,0,0,1,FG
2026-04-23 08:39:00,SPECI KHVN 230839Z AUTO 00000KT 1/2SM R02/2400V5000FT FG VV014 03/03 A2995 RMK AO2 T00330033 $,0,0.0,0,804,0,0,1,FG
2026-04-23 08:30:00,SPECI KHVN 230830Z AUTO 00000KT 1/4SM R02/2600V3500FT FG VV013 04/03 A2995 RMK AO2 T00390033 $,0,0.0,0,402,0,0,1,FG
2026-04-23 08:23:00,SPECI KHVN 230823Z AUTO 00000KT 1/2SM R02/2800VP6000FT FG VV012 04/03 A2995 RMK AO2 T00390033 $,0,0.0,0,804,0,0,1,FG
2026-04-23 08:01:00,SPECI KHVN 230801Z AUTO 00000KT 1/4SM R02/2000VP6000FT FG VV014 04/04 A2995 RMK AO2 T00390039 $,0,0.0,0,402,0,0,1,FG
2026-04-23 07:53:00,METAR KHVN 230753Z AUTO 00000KT 1/2SM R02/2800VP6000FT FG VV018 04/04 A2995 RMK AO2 SLP140 T00440039 $,0,0.0,0,804,0,0,1,FG
2026-04-23 07:39:00,SPECI KHVN 230739Z AUTO 00000KT 1/2SM R02/4000VP6000FT FG BKN018 BKN055 04/04 A2994 RMK AO2 T00440044 $,0,0.0,0,804,0,0,1,FG
2026-04-23 07:31:00,SPECI KHVN 230731Z AUTO 00000KT 1 3/4SM BR FEW020 SCT055 05/05 A2995 RMK AO2 T00500050 $,0,0.0,0,2816,0,0,1,BR
2026-04-23 07:23:00,SPECI KHVN 230723Z AUTO 00000KT 3SM BR SCT013 SCT055 05/05 A2995 RMK AO2 T00500050 $,0,0.0,0,4827,0,0,1,BR
2026-04-23 07:15:00,SPECI KHVN 230715Z AUTO 01003KT 3SM BR BKN013 05/05 A2995 RMK AO2 T00500050 $,0,3.0,0,4827,0,0,1,BR
2026-04-23 07:10:00,SPECI KHVN 230710Z AUTO 00000KT 1SM R02/3500VP6000FT BR VV013 05/04 A2995 RMK AO2 T00500044 $,0,0.0,0,1609,0,0,1,BR
2026-04-23 06:53:00,METAR KHVN 230653Z AUTO 02003KT 1/4SM R02/1600V6000FT FG VV011 04/04 A2995 RMK AO2 SLP141 T00440044 $,0,3.0,0,402,0,0,1,FG
2026-04-23 06:46:00,SPECI KHVN 230646Z AUTO 00000KT 1/4SM R02/1600VP6000FT FG VV011 05/04 A2995 RMK AO2 T00500044 $,0,0.0,0,402,0,0,1,FG
2026-04-23 06:29:00,SPECI KHVN 230629Z AUTO 00000KT 3/4SM R02/P6000FT BR VV012 06/06 A2995 RMK AO2 T00560056 $,0,0.0,0,1207,0,0,1,BR
2026-04-23 06:27:00,SPECI KHVN 230627Z AUTO 00000KT 1 1/4SM BR FEW012 06/06 A2995 RMK AO2 T00610056 $,0,0.0,0,2011,0,0,1,BR
2026-04-23 05:53:00,METAR KHVN 230553Z AUTO 00000KT 8SM SCT055 OVC075 07/06 A2995 RMK AO2 SLP143 60002 T00720061 10083 20067 58014 $,0,0.0,0,12872,0,0,0,
2026-04-23 04:53:00,METAR KHVN 230453Z AUTO 03003KT 8SM SCT060 BKN075 OVC090 07/06 A2997 RMK AO2 RAE0356 SLP148 P0000 T00670061 400890056 $,0,3.0,0,12872,0,0,0,RA
2026-04-23 03:53:00,METAR KHVN 230353Z AUTO 00000KT 6SM -RA BR SCT042 BKN075 OVC090 07/06 A2999 RMK AO2 RAB25 SLP154 P0002 T00720061 $,0,0.0,0,9654,0,0,1,"-RA,BR"
2026-04-23 03:05:00,SPECI KHVN 230305Z AUTO 05004KT 10SM FEW016 SCT022 OVC120 08/06 A2999 RMK AO2 T00780056 $,0,4.0,0,16090,0,0,0,
2026-04-23 02:53:00,METAR KHVN 230253Z AUTO 05003KT 10SM SCT016 BKN024 OVC100 08/06 A3000 RMK AO2 SLP157 T00780056 58004 $,0,3.0,0,16090,0,0,0,
2026-04-23 01:53:00,METAR KHVN 230153Z 04005KT 10SM OVC025 08/06 A3002 RMK AO2 SLP164 T00830056 $,0,5.0,0,16090,0,0,0,
2026-04-23 00:53:00,METAR KHVN 230053Z 09005KT 10SM OVC026 08/06 A3001 RMK AO2 SLP162 T00830056 $,0,5.0,0,16090,0,0,0,
2026-04-22 23:53:00,METAR KHVN 222353Z 10005KT 10SM OVC026 08/06 A3001 RMK AO2 SLP161 T00830056 10089 20083 58007 $,0,5.0,0,16090,0,0,0,
2026-04-22 22:53:00,METAR KHVN 222253Z 09005KT 10SM OVC027 09/05 A3001 RMK AO2 SLP163 T00890050 $,0,5.0,0,16090,0,0,0,
2026-04-22 21:53:00,METAR KHVN 222153Z 10006KT 10SM OVC029 09/05 A3003 RMK AO2 SLP167 T00890050 $,0,6.0,0,16090,0,0,0,
2026-04-22 21:48:00,SPECI KHVN 222148Z 11006KT 10SM OVC029 09/05 A3003 RMK AO2 $,0,6.0,0,16090,0,0,0,
2026-04-22 20:53:00,METAR KHVN 222053Z 12005KT 10SM OVC032 09/04 A3004 RMK AO2 SLP172 T00890044 56024 $,0,5.0,0,16090,0,0,0,
2026-04-22 19:53:00,METAR KHVN 221953Z 13007KT 10SM BKN030 OVC037 09/04 A3006 RMK AO2 SLP179 T00890044 $,0,7.0,0,16090,0,0,0,
2026-04-22 18:53:00,METAR KHVN 221853Z 16008KT 10SM OVC037 09/04 A3009 RMK AO2 SLP188 T00890044 $,0,8.0,0,16090,0,0,0,
2026-04-22 17:53:00,METAR KHVN 221753Z 16010KT 10SM SCT030 OVC042 08/04 A3011 RMK AO2 SLP196 60002 T00830039 10083 20061 58016 $,0,10.0,0,16090,0,0,0,
2026-04-22 16:53:00,METAR KHVN 221653Z 16010KT 10SM OVC042 08/03 A3013 RMK AO2 SLP202 T00830033 $,0,10.0,0,16090,0,0,0,
2026-04-22 15:53:00,METAR KHVN 221553Z COR 16008KT 10SM FEW024 OVC047 08/04 A3015 RMK AO2 SLP211 T00780044 $,0,8.0,0,16090,0,0,0,
2026-04-22 14:53:00,METAR KHVN 221453Z 15010G18KT 10SM BKN020 OVC048 07/04 A3016 RMK AO2 SLP212 60002 T00670039 57009 $,0,10.0,1,16090,0,0,0,
2026-04-22 13:53:00,METAR KHVN 221353Z 16013KT 10SM SCT017 BKN046 OVC070 07/04 A3017 RMK AO2 RAB03E30 SLP214 P0001 T00670039 $,0,13.0,0,16090,0,0,0,RA
2026-04-22 12:53:00,METAR KHVN 221253Z 16009KT 9SM SCT039 OVC060 06/03 A3018 RMK AO2 RAB11E32 SLP220 P0001 T00610033 $,0,9.0,0,14481,0,0,0,RA
2026-04-22 11:53:00,METAR KHVN 221153Z 16011KT 10SM OVC043 06/03 A3019 RMK AO2 RAB1057E44 SLP222 P0000 60007 70007 T00610028 10067 20056 55004 $,0,11.0,0,16090,0,0,0,RA
2026-04-22 10:53:00,METAR KHVN 221053Z 17010KT 8SM OVC060 06/03 A3018 RMK AO2 RAB00E50 SLP220 P0001 T00560033 $,0,10.0,0,12872,0,0,0,RA
2026-04-22 09:53:00,METAR KHVN 220953Z 19009G17KT 10SM SCT050 OVC075 06/03 A3020 RMK AO2 RAE24 SLP225 P0002 T00560033 $,0,9.0,1,16090,0,0,0,
2026-04-22 08:53:00,METAR KHVN 220853Z AUTO 20007KT 7SM -RA FEW008 OVC055 06/04 A3020 RMK AO2 SLP226 P0004 60004 T00560039 56009 $,0,7.0,0,11263,0,0,0,-RA
2026-04-22 08:41:00,SPECI KHVN 220841Z AUTO 19008KT 6SM -RA BR FEW009 BKN048 OVC055 06/04 A3019 RMK AO2 P0003 T00560039 $,0,8.0,0,9654,0,0,1,"-RA,BR"
2026-04-22 07:53:00,METAR KHVN 220753Z AUTO 20006KT 8SM -RA OVC055 06/03 A3020 RMK AO2 RAB04E25B42 SLP227 P0000 T00560028 $,0,6.0,0,12872,0,0,0,"-RA,RA"
2026-04-22 06:53:00,METAR KHVN 220653Z AUTO 20007KT 10SM BKN060 OVC080 06/01 A3021 RMK AO2 SLP231 T00610006 $,0,7.0,0,16090,0,0,0,
2026-04-22 05:53:00,METAR KHVN 220553Z AUTO 21009KT 10SM OVC100 06/M01 A3023 RMK AO2 SLP234 T00611011 10067 20050 58016 $,0,9.0,0,16090,0,0,0,
2026-04-22 04:53:00,METAR KHVN 220453Z AUTO 22009KT 10SM OVC100 06/M01 A3026 RMK AO2 SLP247 T00611011 400831011 $,0,9.0,0,16090,0,0,0,
2026-04-22 03:53:00,METAR KHVN 220353Z AUTO 21006G14KT 10SM BKN120 06/M02 A3029 RMK AO2 SLP255 T00611022 $,0,6.0,1,16090,0,0,0,
2026-04-22 02:53:00,METAR KHVN 220253Z AUTO 20006KT 10SM CLR 06/M02 A3027 RMK AO2 SLP251 T00561022 50004 $,0,6.0,0,16090,0,0,0,
2026-04-22 01:53:00,METAR KHVN 220153Z 20007KT 10SM CLR 06/M03 A3028 RMK AO2 SLP252 T00561028 $,0,7.0,0,16090,0,0,0,
2026-04-22 00:53:00,METAR KHVN 220053Z 20010G16KT 10SM FEW100 06/M03 A3027 RMK AO2 SLP251 T00561033 $,0,10.0,1,16090,0,0,0,
2026-04-21 23:53:00,METAR KHVN 212353Z 17010G16KT 10SM BKN110 06/M03 A3026 RMK AO2 SLP247 T00561028 10083 20056 55003 $,0,10.0,1,16090,0,0,0,
2026-04-21 22:53:00,METAR KHVN 212253Z 18013G19KT 10SM BKN100 06/M03 A3026 RMK AO2 SLP246 T00611028 $,0,13.0,1,16090,0,0,0,
2026-04-21 21:53:00,METAR KHVN 212153Z 16011KT 10SM FEW110 08/M02 A3026 RMK AO2 SLP246 T00781017 $,0,11.0,0,16090,0,0,0,
2026-04-21 20:53:00,METAR KHVN 212053Z 18011KT 10SM CLR 08/M02 A3027 RMK AO2 SLP250 T00831022 58017 $,0,11.0,0,16090,0,0,0,
2026-04-21 19:53:00,METAR KHVN 211953Z 17008KT 10SM SCT150 07/M03 A3028 RMK AO2 SLP254 T00721033 $,0,8.0,0,16090,0,0,0,
2026-04-21 18:53:00,METAR KHVN 211853Z 19007KT 10SM BKN100 08/M04 A3031 RMK AO2 SLP263 T00781044 $,0,7.0,0,16090,0,0,0,
2026-04-21 17:53:00,METAR KHVN 211753Z 21005KT 10SM FEW110 07/M06 A3032 RMK AO2 SLP267 T00721056 10083 20028 58020 $,0,5.0,0,16090,0,0,0,
2026-04-21 16:53:00,METAR KHVN 211653Z 19007KT 10SM CLR 06/M06 A3035 RMK AO2 SLP276 T00611056 $,0,7.0,0,16090,0,0,0,
2026-04-21 15:53:00,METAR KHVN 211553Z 15011KT 10SM CLR 07/M04 A3037 RMK AO2 SLP283 T00721044 $,0,11.0,0,16090,0,0,0,
2026-04-21 14:53:00,METAR KHVN 211453Z 15010G17KT 10SM CLR 07/M04 A3038 RMK AO2 SLP287 T00671044 58002 $,0,10.0,1,16090,0,0,0,
2026-04-21 13:53:00,METAR KHVN 211353Z VRB03KT 10SM CLR 06/M07 A3039 RMK AO2 SLP289 T00561072 $,0,3.0,0,16090,0,0,0,
2026-04-21 12:53:00,METAR KHVN 211253Z 03007KT 10SM CLR 04/M08 A3039 RMK AO2 SLP290 T00441078 $,0,7.0,0,16090,0,0,0,
2026-04-21 11:53:00,METAR KHVN 211153Z 01008KT 10SM CLR 03/M08 A3039 RMK AO2 SLP289 70001 T00281083 10028 21011 51017 $,0,8.0,0,16090,0,0,0,
2026-04-21 10:53:00,METAR KHVN 211053Z 01008KT 10SM CLR 01/M08 A3038 RMK AO2 SLP286 T00061078 $,0,8.0,0,16090,0,0,0,
2026-04-21 09:53:00,METAR KHVN 210953Z 36007KT 10SM CLR M01/M08 A3035 RMK AO2 SLP276 T10061078 $,0,7.0,0,16090,0,0,0,
2026-04-21 08:53:00,METAR KHVN 210853Z AUTO 36006KT 10SM CLR 01/M09 A3033 RMK AO2 SLP272 T00061089 53003 $,0,6.0,0,16090,0,0,0,
2026-04-21 07:53:00,METAR KHVN 210753Z AUTO 35007KT 10SM CLR 02/M09 A3033 RMK AO2 SLP269 T00171094 $,0,7.0,0,16090,0,0,0,
2026-04-21 06:53:00,METAR KHVN 210653Z AUTO 35004KT 10SM CLR 02/M09 A3032 RMK AO2 SLP267 T00171094 $,0,4.0,0,16090,0,0,0,
2026-04-21 05:53:00,METAR KHVN 210553Z AUTO 34007KT 10SM CLR 02/M09 A3033 RMK AO2 SLP269 T00221094 10067 20022 51010 $,0,7.0,0,16090,0,0,0,
2026-04-21 04:53:00,METAR KHVN 210453Z AUTO 35006KT 10SM CLR 03/M09 A3033 RMK AO2 SLP269 T00331094 401061006 $,0,6.0,0,16090,0,0,0,
2026-04-21 03:53:00,METAR KHVN 210353Z AUTO 35007KT 10SM FEW085 04/M09 A3032 RMK AO2 SLP265 T00391094 $,0,7.0,0,16090,0,0,0,
2026-04-21 02:53:00,METAR KHVN 210253Z AUTO 35008G17KT 10SM BKN080 05/M08 A3030 RMK AO2 SLP258 T00501078 51024 $,0,8.0,1,16090,0,0,0,
2026-04-21 01:53:00,METAR KHVN 210153Z 35005KT 10SM OVC085 06/M06 A3028 RMK AO2 SLP254 T00561061 $,0,5.0,0,16090,0,0,0,
2026-04-21 00:53:00,METAR KHVN 210053Z 34006KT 10SM CLR 06/M07 A3026 RMK AO2 SLP247 T00561072 $,0,6.0,0,16090,0,0,0,
2026-04-20 23:53:00,METAR KHVN 202353Z 33007KT 10SM FEW085 07/M08 A3022 RMK AO2 SLP234 60001 T00671083 10106 20061 53027 $,0,7.0,0,16090,0,0,0,
2026-04-20 22:53:00,METAR KHVN 202253Z 35012G20KT 10SM BKN080 08/M08 A3020 RMK AO2 SLP225 T00781078 $,0,12.0,1,16090,0,0,0,
2026-04-20 21:53:00,METAR KHVN 202153Z 33011G21KT 10SM OVC080 09/M06 A3017 RMK AO2 SLP215 T00941061 $,0,11.0,1,16090,0,0,0,
2026-04-20 20:53:00,METAR KHVN 202053Z 33012G17KT 10SM BKN065 BKN080 11/M04 A3014 RMK AO2 SLP207 60001 T01061039 55001 $,0,12.0,1,16090,0,0,0,
2026-04-20 19:53:00,METAR KHVN 201953Z 32012G23KT 10SM FEW055 FEW080 09/M02 A3013 RMK AO2 SLP201 T00941022 $,0,12.0,1,16090,0,0,0,
2026-04-20 18:53:00,METAR KHVN 201853Z 02005KT 10SM FEW055 09/01 A3013 RMK AO2 RAB1754E10 SLP202 P0001 T00890011 $,0,5.0,0,16090,0,0,0,RA
2026-04-20 17:53:00,METAR KHVN 201753Z 32008KT 8SM FEW027 SCT044 BKN049 08/00 A3015 RMK AO2 SLP208 T00830000 10100 20056 55001 $,0,8.0,0,12872,0,0,0,
2026-04-20 16:53:00,METAR KHVN 201653Z 36016G22KT 10SM FEW035 BKN049 BKN085 08/M01 A3014 RMK AO2 SLP205 T00831011 $,0,16.0,1,16090,0,0,0,
2026-04-20 15:53:00,METAR KHVN 201553Z 35005KT 10SM BKN050 BKN055 OVC070 08/M02 A3014 RMK AO2 SLP206 T00831022 $,0,5.0,0,16090,0,0,0,
2026-04-20 14:53:00,METAR KHVN 201453Z 21005KT 10SM BKN043 OVC055 07/M01 A3015 RMK AO2 SLP208 T00721006 51003 $,0,5.0,0,16090,0,0,0,
2026-04-20 13:53:00,METAR KHVN 201353Z 31003KT 10SM OVC070 07/M02 A3015 RMK AO2 SLP208 T00721017 $,0,3.0,0,16090,0,0,0,
2026-04-20 12:53:00,METAR KHVN 201253Z 24005KT 10SM OVC100 07/M01 A3014 RMK AO2 SLP207 T00721006 $,0,5.0,0,16090,0,0,0,
2026-04-20 11:53:00,METAR KHVN 201153Z 00000KT 10SM FEW110 05/M01 A3014 RMK AO2 SLP206 70005 T00501006 10050 21006 53015 $,0,0.0,0,16090,0,0,0,
2026-04-20 10:53:00,METAR KHVN 201053Z 29003KT 10SM CLR 04/M01 A3012 RMK AO2 SLP200 T00391006 $,0,3.0,0,16090,0,0,0,
2026-04-20 09:53:00,METAR KHVN 200953Z 00000KT 10SM CLR 00/M02 A3010 RMK AO2 SLP191 T00001017 $,0,0.0,0,16090,0,0,0,
2026-04-20 08:53:00,METAR KHVN 200853Z AUTO 24005KT 10SM CLR 03/00 A3010 RMK AO2 SLP191 T00330000 53005 $,0,5.0,0,16090,0,0,0,
2026-04-20 07:53:00,METAR KHVN 200753Z AUTO 00000KT 10SM CLR 02/M01 A3008 RMK AO2 SLP187 T00171006 $,0,0.0,0,16090,0,0,0,
2026-04-20 06:53:00,METAR KHVN 200653Z AUTO 25003KT 10SM CLR 04/00 A3008 RMK AO2 SLP185 T00440000 $,0,3.0,0,16090,0,0,0,
2026-04-20 05:53:00,METAR KHVN 200553Z AUTO 21003KT 10SM CLR 02/M01 A3008 RMK AO2 SLP186 T00221006 10061 20022 50008 $,0,3.0,0,16090,0,0,0,
2026-04-20 04:53:00,METAR KHVN 200453Z AUTO 00000KT 10SM CLR 05/00 A3008 RMK AO2 SLP187 T00500000 401110044 $,0,0.0,0,16090,0,0,0,
2026-04-20 03:53:00,METAR KHVN 200353Z AUTO VRB04KT 10SM CLR 06/01 A3008 RMK AO2 SLP185 T00560011 $,0,4.0,0,16090,0,0,0,
2026-04-20 02:53:00,METAR KHVN 200253Z AUTO 28006KT 10SM CLR 06/01 A3006 RMK AO2 SLP178 T00610011 $,0,6.0,0,16090,0,0,0,
2026-04-20 01:53:00,METAR KHVN 200153Z 29005KT 10SM FEW065 05/01 A3005 RMK AO2 SLP174 T00500011 $,0,5.0,0,16090,0,0,0,
2026-04-20 00:53:00,METAR KHVN 200053Z 00000KT 10SM CLR 06/01 A3001 RMK AO2 SLP162 T00560006 $,0,0.0,0,16090,0,0,0,
2026-04-19 23:53:00,METAR KHVN 192353Z 31006KT 10SM CLR 06/00 A2998 RMK AO2 SLP152 60005 T00610000 10089 20044 51026,0,6.0,0,16090,0,0,0,
2026-04-19 22:53:00,METAR KHVN 192253Z 32011G19KT 10SM CLR 07/00 A2996 RMK AO2 SLP144 T00670000,0,11.0,1,16090,0,0,0,
2026-04-19 22:24:00,SPECI KHVN 192224Z 32007G16KT 10SM SCT027 SCT033 07/01 A2995 RMK AO2 T00670011,0,7.0,1,16090,0,0,0,
2026-04-19 21:53:00,METAR KHVN 192153Z 32011G18KT 10SM FEW018 BKN024 BKN110 06/02 A2993 RMK AO2 RAE01 SLP134 P0000 T00610017,0,11.0,1,16090,0,0,0,
2026-04-19 20:53:00,METAR KHVN 192053Z 33011G19KT 4SM -RA FEW020 BKN028 OVC110 04/02 A2990 RMK AO2 PK WND 36028/2012 RAB24 SLP126 P0002 60005 T00440017 51030,0,11.0,1,6436,0,0,0,-RA
2026-04-19 19:53:00,METAR KHVN 191953Z 32013G26KT 290V360 10SM FEW022 OVC080 06/02 A2989 RMK AO2 PK WND 31031/1902 RAE35 SLP120 P0001 T00560022,0,13.0,1,16090,0,0,0,
2026-04-19 18:53:00,METAR KHVN 191853Z 32017G27KT 6SM -RA OVC060 07/02 A2987 RMK AO2 PK WND 33031/1810 RAB05 SLP113 P0002 T00720022,0,17.0,1,9654,0,0,0,-RA
2026-04-19 17:53:00,METAR KHVN 191753Z 33016G33KT 10SM OVC055 09/02 A2982 RMK AO2 PK WND 35034/1727 SLP096 T00890022 10111 20083 51013,0,16.0,1,16090,0,0,0,
2026-04-19 16:53:00,METAR KHVN 191653Z 34013G28KT 10SM OVC048 09/04 A2980 RMK AO2 PK WND 32034/1556 SLP091 T00940039,0,13.0,1,16090,0,0,0,
2026-04-19 15:53:00,METAR KHVN 191553Z 32012G22KT 10SM FEW029 OVC041 11/06 A2981 RMK AO2 LTG DSNT E SLP095 T01060061,0,12.0,1,16090,0,0,0,DS
2026-04-19 15:38:00,SPECI KHVN 191538Z 33009G21KT 10SM FEW014 OVC041 11/07 A2982 RMK AO2 PRESRR T01060067,0,9.0,1,16090,0,0,0,
2026-04-19 14:53:00,METAR KHVN 191453Z 33005KT 9SM OVC009 11/09 A2978 RMK AO2 SLP084 T01060094 53001,0,5.0,0,14481,0,0,0,
2026-04-19 14:04:00,SPECI KHVN 191404Z 33005KT 1 1/2SM BR OVC006 09/09 A2977 RMK AO2 T00940089,0,5.0,0,2414,0,0,1,BR
2026-04-19 13:53:00,METAR KHVN 191353Z 33007KT 1SM R02/6000VP6000FT BR OVC004 09/09 A2978 RMK AO2 SLP084 T00940089,0,7.0,0,1609,0,0,1,BR
2026-04-19 12:53:00,METAR KHVN 191253Z 02004KT 1SM R02/P6000FT BR OVC004 09/08 A2977 RMK AO2 SLP082 T00890083,0,4.0,0,1609,0,0,1,BR
2026-04-19 12:43:00,SPECI KHVN 191243Z 00000KT 1SM R02/P6000FT BR OVC003 08/08 A2977 RMK AO2 T00830083,0,0.0,0,1609,0,0,1,BR
2026-04-19 11:53:00,METAR KHVN 191153Z 10003KT 1/2SM R02/5000V6000FT FG OVC003 08/08 A2978 RMK AO2 SLP083 T00830078 10083 20078 56021,0,3.0,0,804,0,0,1,FG
2026-04-19 10:53:00,METAR KHVN 191053Z 10004KT 1/2SM R02/5500V6000FT FG VV003 08/08 A2979 RMK AO2 SLP086 T00830078,0,4.0,0,804,0,0,1,FG
2026-04-19 10:26:00,SPECI KHVN 191026Z 11005KT 3/4SM R02/4500V5000FT BR VV003 08/08 A2979 RMK AO2 T00830078,0,5.0,0,1207,0,0,1,BR
2026-04-19 10:11:00,SPECI KHVN 191011Z 12005KT 1SM R02/6000VP6000FT BR VV003 08/08 A2979 RMK AO2 T00830078,0,5.0,0,1609,0,0,1,BR
2026-04-19 09:53:00,METAR KHVN 190953Z 11007KT 3/4SM R02/4000V5500FT BR VV002 08/08 A2980 RMK AO2 SLP092 T00780078,0,7.0,0,1207,0,0,1,BR
2026-04-19 08:53:00,METAR KHVN 190853Z AUTO 14005KT 3/4SM R02/4500V6000FT BR VV002 08/08 A2984 RMK AO2 SLP104 T00780078 56025,0,5.0,0,1207,0,0,1,BR
2026-04-19 08:39:00,SPECI KHVN 190839Z AUTO 13007KT 1/2SM R02/3000V4000FT FG VV002 08/08 A2984 RMK AO2 T00830078,0,7.0,0,804,0,0,1,FG
2026-04-19 08:31:00,SPECI KHVN 190831Z AUTO 12004KT 1/4SM R02/2800V3000FT FG VV002 08/08 A2984 RMK AO2 T00830078,0,4.0,0,402,0,0,1,FG
2026-04-19 07:53:00,METAR KHVN 190753Z AUTO 13006KT 1/2SM R02/4000V4500FT FG VV002 08/08 A2985 RMK AO2 SLP108 T00830078,0,6.0,0,804,0,0,1,FG
2026-04-19 06:53:00,METAR KHVN 190653Z AUTO 12004KT 1/2SM R02/3500V4000FT FG VV002 08/08 A2989 RMK AO2 SLP121 T00830078,0,4.0,0,804,0,0,1,FG
2026-04-19 05:53:00,METAR KHVN 190553Z AUTO 13005KT 1/2SM R02/4500V5000FT FG VV002 08/08 A2991 RMK AO2 SLP129 T00830083 10106 20083 58010,0,5.0,0,804,0,0,1,FG
2026-04-19 04:53:00,METAR KHVN 190453Z AUTO 15007KT 3/4SM R02/5000VP6000FT BR VV003 08/08 A2995 RMK AO2 SLP140 T00830083 401500072,0,7.0,0,1207,0,0,1,BR
2026-04-19 04:48:00,SPECI KHVN 190448Z AUTO 14007KT 3/4SM R02/5500VP6000FT BR VV003 08/08 A2995 RMK AO2,0,7.0,0,1207,0,0,1,BR
2026-04-19 03:53:00,METAR KHVN 190353Z AUTO 15006KT 1SM R02/P6000FT BR VV003 09/08 A2994 RMK AO2 SLP139 T00890083,0,6.0,0,1609,0,0,1,BR
2026-04-19 02:53:00,METAR KHVN 190253Z AUTO 13005KT 1 1/2SM BR OVC002 09/09 A2996 RMK AO2 SLP145 T00890089 58008,0,5.0,0,2414,0,0,1,BR
2026-04-19 02:19:00,SPECI KHVN 190219Z AUTO 12004KT 1 3/4SM BR OVC003 09/09 A2997 RMK AO2 T00890089,0,4.0,0,2816,0,0,1,BR
2026-04-19 02:09:00,SPECI KHVN 190209Z AUTO 12005KT 2SM BR OVC003 09/08 A2998 RMK AO2 T00940083,0,5.0,0,3218,0,0,1,BR
2026-04-19 01:53:00,METAR KHVN 190153Z 14003KT 2SM BR OVC005 09/08 A3000 RMK AO2 SLP157 T00940083,0,3.0,0,3218,0,0,1,BR
2026-04-19 00:53:00,METAR KHVN 190053Z 11005KT 10SM OVC009 10/08 A3000 RMK AO2 CIG 008V012 SLP158 T01000078,0,5.0,0,16090,0,0,0,
2026-04-18 23:53:00,METAR KHVN 182353Z 12008KT 10SM OVC017 11/08 A2999 RMK AO2 SLP153 T01060078 10150 20106 55010,0,8.0,0,16090,0,0,0,
2026-04-18 22:53:00,METAR KHVN 182253Z 11008KT 10SM OVC022 12/09 A2998 RMK AO2 SLP151 T01170089,0,8.0,0,16090,0,0,0,
2026-04-18 21:53:00,METAR KHVN 182153Z 12008KT 10SM OVC026 13/09 A3001 RMK AO2 SLP161 T01280094,0,8.0,0,16090,0,0,0,
2026-04-18 20:53:00,METAR KHVN 182053Z 11009KT 10SM OVC027 13/09 A3002 RMK AO2 SLP164 T01330094 58019,0,9.0,0,16090,0,0,0,
2026-04-18 19:53:00,METAR KHVN 181953Z 12010G25KT 10SM OVC027 13/10 A3003 RMK AO2 SLP168 T01330100,0,10.0,1,16090,0,0,0,
2026-04-18 18:53:00,METAR KHVN 181853Z 11007KT 10SM OVC024 13/10 A3006 RMK AO2 SLP180 T01330100,0,7.0,0,16090,0,0,0,
2026-04-18 17:53:00,METAR KHVN 181753Z 12006KT 10SM OVC024 15/11 A3007 RMK AO2 SLP182 T01500106 10150 20122 56010,0,6.0,0,16090,0,0,0,
2026-04-18 16:53:00,METAR KHVN 181653Z 15010G14KT 10SM OVC022 13/10 A3008 RMK AO2 SLP186 T01330100,0,10.0,1,16090,0,0,0,
2026-04-18 15:53:00,METAR KHVN 181553Z 13009KT 10SM OVC020 13/10 A3008 RMK AO2 SLP187 T01330100,0,9.0,0,16090,0,0,0,
2026-04-18 14:53:00,METAR KHVN 181453Z 13005KT 10SM OVC016 14/10 A3010 RMK AO2 SLP192 T01390100 50008,0,5.0,0,16090,0,0,0,
2026-04-18 14:10:00,SPECI KHVN 181410Z 08005KT 10SM OVC015 13/10 A3011 RMK AO2 T01330100,0,5.0,0,16090,0,0,0,
2026-04-18 13:53:00,METAR KHVN 181353Z COR 05005KT 10SM OVC014 13/09 A3010 RMK AO2 SLP194 T01280094,0,5.0,0,16090,0,0,0,
2026-04-18 12:53:00,METAR KHVN 181253Z 07007G22KT 10SM OVC013 12/09 A3009 RMK AO2 SLP190 T01220094,0,7.0,1,16090,0,0,0,
2026-04-18 11:53:00,METAR KHVN 181153Z 08009KT 10SM BKN022 13/09 A3008 RMK AO2 SLP184 70004 T01280094 10128 20072 53006,0,9.0,0,16090,0,0,0,
2026-04-18 10:53:00,METAR KHVN 181053Z 01005KT 10SM CLR 11/09 A3006 RMK AO2 SLP179 T01060089,0,5.0,0,16090,0,0,0,
2026-04-18 09:53:00,METAR KHVN 180953Z 13005KT 9SM CLR 07/07 A3007 RMK AO2 SLP181 T00720067,0,5.0,0,14481,0,0,0,
2026-04-18 08:53:00,METAR KHVN 180853Z AUTO 00000KT 9SM CLR 08/08 A3006 RMK AO2 SLP178 T00830078 53005,0,0.0,0,14481,0,0,0,
2026-04-18 07:53:00,METAR KHVN 180753Z AUTO 00000KT 9SM CLR 08/07 A3005 RMK AO2 SLP174 T00780072,0,0.0,0,14481,0,0,0,
2026-04-18 06:53:00,METAR KHVN 180653Z AUTO 00000KT 8SM CLR 08/08 A3005 RMK AO2 SLP174 T00830083,0,0.0,0,12872,0,0,0,
2026-04-18 05:53:00,METAR KHVN 180553Z AUTO 00000KT 7SM CLR 09/09 A3004 RMK AO2 SLP173 T00890089 10133 20089 53005,0,0.0,0,11263,0,0,0,
2026-04-18 04:53:00,METAR KHVN 180453Z AUTO 00000KT 9SM CLR 10/10 A3002 RMK AO2 SLP165 T01000100 402500100,0,0.0,0,14481,0,0,0,
2026-04-18 04:06:00,SPECI KHVN 180406Z AUTO 00000KT 10SM FEW008 11/11 A3002 RMK AO2 T01110106,0,0.0,0,16090,0,0,0,
2026-04-18 03:53:00,METAR KHVN 180353Z AUTO 00000KT 10SM CLR 12/11 A3002 RMK AO2 SLP166 T01170106,0,0.0,0,16090,0,0,0,
2026-04-18 02:53:00,METAR KHVN 180253Z AUTO 08004KT 10SM CLR 12/11 A3003 RMK AO2 SLP168 T01170106 51019,0,4.0,0,16090,0,0,0,
2026-04-18 01:53:00,METAR KHVN 180153Z 10006KT 9SM BKN075 OVC100 12/11 A3003 RMK AO2 SLP168 T01170111,0,6.0,0,14481,0,0,0,
2026-04-18 00:53:00,METAR KHVN 180053Z 11010G18KT 9SM FEW005 BKN080 OVC090 12/11 A3001 RMK AO2 SLP161 T01220111,0,10.0,1,14481,0,0,0,
2026-04-17 23:53:00,METAR KHVN 172353Z 10010KT 8SM SCT004 SCT065 OVC080 13/12 A2997 RMK AO2 RAE2257 SLP149 P0000 60004 T01330122 10250 20128 51037,0,10.0,0,12872,0,0,0,RA
2026-04-17 23:18:00,SPECI KHVN 172318Z 11009KT 8SM FEW004 BKN070 OVC110 14/13 A2996 RMK AO2 RAE2257 P0000 T01440133,0,9.0,0,12872,0,0,0,RA
2026-04-17 22:53:00,METAR KHVN 172253Z 11011G19KT 3SM -RA BR FEW042 SCT055 OVC070 15/14 A2994 RMK AO2 WSHFT 2148 RAB32 SLP138 P0004 T01500139,0,11.0,1,4827,0,0,1,"-RA,BR"
2026-04-17 22:08:00,SPECI KHVN 172208Z 12014G21KT 10SM BKN048 BKN060 16/13 A2991 RMK AO2 WSHFT 2148 T01560128,0,14.0,1,16090,0,0,0,
2026-04-17 21:53:00,METAR KHVN 172153Z 10012G21KT 10SM SCT050 SCT095 19/14 A2990 RMK AO2 PRESRR SLP126 T01940144,0,12.0,1,16090,0,0,0,
2026-04-17 20:53:00,METAR KHVN 172053Z 36014G22KT 10SM CLR 24/13 A2986 RMK AO2 SLP112 T02390133 53012,0,14.0,1,16090,0,0,0,
2026-04-17 19:53:00,METAR KHVN 171953Z 36007KT 10SM CLR 23/14 A2984 RMK AO2 SLP102 T02330139,0,7.0,0,16090,0,0,0,
2026-04-17 18:53:00,METAR KHVN 171853Z VRB06KT 10SM BKN060 OVC070 18/14 A2984 RMK AO2 SLP104 T01780139,0,6.0,0,16090,0,0,0,
2026-04-17 17:53:00,METAR KHVN 171753Z 22007KT 10SM FEW050 SCT080 23/16 A2983 RMK AO2 SLP100 T02280156 10228 20144 58004,0,7.0,0,16090,0,0,0,
2026-04-17 16:53:00,METAR KHVN 171653Z 21008KT 10SM BKN060 22/14 A2983 RMK AO2 SLP101 T02170144,0,8.0,0,16090,0,0,0,
2026-04-17 15:53:00,METAR KHVN 171553Z 21006KT 10SM SCT060 BKN075 21/16 A2984 RMK AO2 SLP104 T02110156,0,6.0,0,16090,0,0,0,
2026-04-17 14:53:00,METAR KHVN 171453Z 21009KT 9SM SCT060 20/16 A2984 RMK AO2 SLP105 T02000156 53008,0,9.0,0,14481,0,0,0,
2026-04-17 13:53:00,METAR KHVN 171353Z 21007KT 7SM SCT060 19/14 A2983 RMK AO2 SLP102 T01890144,0,7.0,0,11263,0,0,0,
2026-04-17 12:53:00,METAR KHVN 171253Z 18003KT 8SM BKN060 19/17 A2982 RMK AO2 SLP097 T01940167,0,3.0,0,12872,0,0,0,
2026-04-17 11:53:00,METAR KHVN 171153Z 25006KT 5SM BR FEW055 BKN120 15/13 A2982 RMK AO2 RAE1058 SLP096 P0000 60002 70002 T01500133 10156 20133 53026 $,0,6.0,0,8045,0,0,1,"BR,RA"
2026-04-17 10:53:00,METAR KHVN 171053Z COR 23004KT 5SM -RA BR FEW043 SCT075 OVC110 13/12 A2979 RMK AO2 RAE15B40 SLP088 P0001 T01330122 $,0,4.0,0,8045,0,0,1,"-RA,BR,RA"
2026-04-17 09:53:00,METAR KHVN 170953Z 13005KT 6SM -RA BR OVC110 14/12 A2976 RMK AO2 RAB42 SLP076 P0001 T01390122 $,0,5.0,0,9654,0,0,1,"-RA,BR"
2026-04-17 08:53:00,METAR KHVN 170853Z AUTO 00000KT 7SM OVC100 14/12 A2974 RMK AO2 SLP071 T01440117 53002 $,0,0.0,0,11263,0,0,0,
2026-04-17 07:53:00,METAR KHVN 170753Z AUTO 16003KT 7SM CLR 13/11 A2974 RMK AO2 SLP071 T01330111 $,0,3.0,0,11263,0,0,0,
2026-04-17 06:53:00,METAR KHVN 170653Z AUTO 00000KT 8SM FEW120 14/12 A2973 RMK AO2 SLP066 T01440117 $,0,0.0,0,12872,0,0,0,
2026-04-17 05:53:00,METAR KHVN 170553Z AUTO 00000KT 8SM CLR 15/12 A2974 RMK AO2 SLP069 T01500117 10194 20128 53002 $,0,0.0,0,12872,0,0,0,
2026-04-17 04:53:00,METAR KHVN 170453Z AUTO 00000KT 7SM CLR 13/11 A2973 RMK AO2 SLP066 T01330111 402560122 $,0,0.0,0,11263,0,0,0,
2026-04-17 03:53:00,METAR KHVN 170353Z AUTO 00000KT 8SM CLR 14/11 A2972 RMK AO2 SLP065 T01440111 $,0,0.0,0,12872,0,0,0,
2026-04-17 02:53:00,METAR KHVN 170253Z AUTO 12003KT 8SM CLR 15/11 A2973 RMK AO2 SLP067 T01500111 58005 $,0,3.0,0,12872,0,0,0,
2026-04-17 01:53:00,METAR KHVN 170153Z 15006KT 9SM CLR 17/12 A2974 RMK AO2 SLP072 T01670117 $,0,6.0,0,14481,0,0,0,
2026-04-17 00:53:00,METAR KHVN 170053Z 17003KT 9SM CLR 17/12 A2975 RMK AO2 SLP072 T01720122 $,0,3.0,0,14481,0,0,0,
2026-04-16 23:53:00,METAR KHVN 162353Z 00000KT 9SM CLR 19/13 A2975 RMK AO2 SLP072 T01890128 10256 20183 57005 $,0,0.0,0,14481,0,0,0,
2026-04-16 22:53:00,METAR KHVN 162253Z 25003KT 8SM CLR 19/13 A2975 RMK AO2 SLP075 T01940128 $,0,3.0,0,12872,0,0,0,
2026-04-16 21:53:00,METAR KHVN 162153Z 19016KT 10SM CLR 24/14 A2975 RMK AO2 SLP075 T02390144 $,0,16.0,0,16090,0,0,0,
2026-04-16 20:53:00,METAR KHVN 162053Z 19006G15KT 10SM BKN250 24/14 A2976 RMK AO2 SLP077 T02390144 56026 $,0,6.0,1,16090,0,0,0,
2026-04-16 19:53:00,METAR KHVN 161953Z 19008KT 10SM BKN250 24/15 A2978 RMK AO2 SLP084 T02390150 $,0,8.0,0,16090,0,0,0,
2026-04-16 19:33:00,SPECI KHVN 161933Z 19008KT 10SM FEW002 24/15 A2979 RMK AO2 T02440150 $,0,8.0,0,16090,0,0,0,
2026-04-16 18:53:00,METAR KHVN 161853Z 18005KT 10SM CLR 25/16 A2980 RMK AO2 SLP092 T02500161 $,0,5.0,0,16090,0,0,0,
2026-04-16 17:53:00,METAR KHVN 161753Z 19009KT 10SM BKN250 23/15 A2984 RMK AO2 SLP103 T02280150 10239 20172 58015 $,0,9.0,0,16090,0,0,0,
2026-04-16 16:53:00,METAR KHVN 161653Z 19007KT 9SM CLR 22/16 A2986 RMK AO2 SLP111 T02170156 $,0,7.0,0,14481,0,0,0,
2026-04-16 15:53:00,METAR KHVN 161553Z 21012G18KT 10SM SCT250 23/15 A2987 RMK AO2 SLP115 T02330150 $,0,12.0,1,16090,0,0,0,
2026-04-16 14:53:00,METAR KHVN 161453Z 21008KT 9SM SCT250 22/15 A2988 RMK AO2 SLP119 T02170150 58001 $,0,8.0,0,14481,0,0,0,
2026-04-16 13:53:00,METAR KHVN 161353Z 21007KT 10SM CLR 20/16 A2989 RMK AO2 SLP120 T02000156 $,0,7.0,0,16090,0,0,0,
2026-04-16 12:53:00,METAR KHVN 161253Z 20005KT 9SM CLR 19/14 A2989 RMK AO2 SLP123 T01890144 $,0,5.0,0,14481,0,0,0,
2026-04-16 11:53:00,METAR KHVN 161153Z 26003KT 8SM CLR 18/13 A2989 RMK AO2 SLP120 70003 T01780133 10183 20122 51005 $,0,3.0,0,12872,0,0,0,
2026-04-16 10:53:00,METAR KHVN 161053Z 00000KT 7SM CLR 13/12 A2988 RMK AO2 SLP119 T01330117 $,0,0.0,0,11263,0,0,0,
2026-04-16 09:53:00,METAR KHVN 160953Z 00000KT 8SM CLR 13/11 A2988 RMK AO2 SLP117 T01280111 $,0,0.0,0,12872,0,0,0,
2026-04-16 08:53:00,METAR KHVN 160853Z AUTO 18005KT 8SM CLR 14/12 A2987 RMK AO2 SLP115 T01390122 $,0,5.0,0,12872,0,0,0,
2026-04-16 07:53:00,METAR KHVN 160753Z AUTO 00000KT 9SM FEW100 17/16 A2987 RMK AO2 SLP114 T01720156 $,0,0.0,0,14481,0,0,0,
2026-04-16 06:53:00,METAR KHVN 160653Z AUTO 09003KT 9SM CLR 17/16 A2988 RMK AO2 SLP117 T01720156 $,0,3.0,0,14481,0,0,0,
2026-04-16 05:53:00,METAR KHVN 160553Z AUTO 17004KT 8SM CLR 17/15 A2987 RMK AO2 SLP114 60003 T01670150 10194 20144 56010 $,0,4.0,0,12872,0,0,0,
2026-04-16 04:53:00,METAR KHVN 160453Z AUTO VRB03KT 8SM OVC085 18/15 A2989 RMK AO2 LTG DSNT N AND NE SLP120 T01780150 402560117 $,0,3.0,0,12872,0,0,0,DS
2026-04-16 03:53:00,METAR KHVN 160353Z AUTO 00000KT 5SM BR CLR 14/13 A2986 RMK AO2 RAE07 SLP111 P0001 T01440133 $,0,0.0,0,8045,0,0,1,BR
2026-04-16 02:53:00,METAR KHVN 160253Z AUTO 23005KT 5SM -RA SCT070 BKN085 17/12 A2990 RMK AO2 RAB51 SLP123 P0002 60002 T01720122 53015 $,0,5.0,0,8045,0,0,0,-RA
2026-04-16 01:53:00,METAR KHVN 160153Z 00000KT 10SM CLR 17/12 A2988 RMK AO2 LTG DSNT W SLP118 T01670122 $,0,0.0,0,16090,0,0,0,DS
2026-04-16 00:53:00,METAR KHVN 160053Z 16004KT 10SM CLR 18/12 A2987 RMK AO2 SLP113 T01780122 $,0,4.0,0,16090,0,0,0,
2026-04-15 23:53:00,METAR KHVN 152353Z 21003KT 10SM CLR 19/13 A2985 RMK AO2 SLP108 T01940128 10256 20183 $,0,3.0,0,16090,0,0,0,
2026-04-15 22:53:00,METAR KHVN 152253Z 00000KT 10SM CLR 18/13 A2984 RMK AO2 SLP105 T01830128 $,0,0.0,0,16090,0,0,0,
2026-04-15 21:53:00,METAR KHVN 152153Z 23013KT 10SM CLR 21/14 A2985 RMK AO2 SLP107 T02110139 $,0,13.0,0,16090,0,0,0,
2026-04-15 20:53:00,METAR KHVN 152053Z 22012KT 10SM SCT110 24/15 A2983 RMK AO2 SLP102 T02390150 58008 $,0,12.0,0,16090,0,0,0,
2026-04-15 19:53:00,METAR KHVN 151953Z 20013KT 9SM CLR 22/15 A2984 RMK AO2 SLP103 T02220150 $,0,13.0,0,14481,0,0,0,
2026-04-15 18:53:00,METAR KHVN 151853Z 18005KT 8SM CLR 23/15 A2986 RMK AO2 SLP111 T02280150 $,0,5.0,0,12872,0,0,0,
2026-04-15 17:53:00,METAR KHVN 151753Z 21010KT 10SM SCT080 26/15 A2986 RMK AO2 SLP111 T02560150 10256 20161 56025 $,0,10.0,0,16090,0,0,0,
2026-04-15 16:53:00,METAR KHVN 151653Z 24006KT 10SM SCT080 24/14 A2988 RMK AO2 SLP118 T02440144 $,0,6.0,0,16090,0,0,0,
2026-04-15 15:53:00,METAR KHVN 151553Z 21014KT 10SM SCT080 22/15 A2990 RMK AO2 SLP126 T02220150 $,0,14.0,0,16090,0,0,0,
2026-04-15 14:53:00,METAR KHVN 151453Z 22008KT 10SM SCT075 BKN250 21/15 A2993 RMK AO2 SLP136 T02110150 51008 $,0,8.0,0,16090,0,0,0,
2026-04-15 13:53:00,METAR KHVN 151353Z 19005KT 10SM CLR 22/16 A2993 RMK AO2 SLP134 T02170156 $,0,5.0,0,16090,0,0,0,
2026-04-15 12:53:00,METAR KHVN 151253Z 00000KT 10SM SCT080 18/14 A2993 RMK AO2 SLP136 T01830144 $,0,0.0,0,16090,0,0,0,
2026-04-15 11:53:00,METAR KHVN 151153Z 00000KT 10SM CLR 17/14 A2991 RMK AO2 SLP127 T01670139 10172 20117 $,0,0.0,0,16090,0,0,0,
2026-04-15 10:53:00,METAR KHVN 151053Z 00000KT 9SM CLR 13/12 A2991 RMK AO2 SLP128 T01280117 $,0,0.0,0,14481,0,0,0,
2026-04-15 09:53:00,METAR KHVN 150953Z COR 00000KT 10SM CLR 12/11 A2988 RMK AO2 SLP118 T01220111 $,0,0.0,0,16090,0,0,0,
2026-04-15 08:53:00,METAR KHVN 150853Z AUTO 00000KT 10SM CLR 14/12 A2986 RMK AO2 SLP112 T01390122 58004 $,0,0.0,0,16090,0,0,0,
2026-04-15 07:53:00,METAR KHVN 150753Z AUTO 00000KT 10SM CLR 13/12 A2987 RMK AO2 SLP114 T01330117 $,0,0.0,0,16090,0,0,0,
2026-04-15 06:53:00,METAR KHVN 150653Z AUTO VRB04KT 10SM CLR 17/13 A2988 RMK AO2 SLP116 T01720133 $,0,4.0,0,16090,0,0,0,
2026-04-15 05:53:00,METAR KHVN 150553Z AUTO VRB04KT 10SM CLR 17/12 A2988 RMK AO2 SLP116 T01670122 10189 20139 56004 $,0,4.0,0,16090,0,0,0,
2026-04-15 04:53:00,METAR KHVN 150453Z AUTO 20003KT 10SM CLR 16/12 A2988 RMK AO2 SLP117 T01560122 402500083 $,0,3.0,0,16090,0,0,0,
2026-04-15 03:53:00,METAR KHVN 150353Z AUTO 00000KT 9SM BKN110 16/11 A2987 RMK AO2 SLP115 T01610111 $,0,0.0,0,14481,0,0,0,
2026-04-15 02:53:00,METAR KHVN 150253Z AUTO 36004KT 10SM FEW065 SCT080 BKN100 18/12 A2989 RMK AO2 LTG DSNT N SLP120 T01830117 53027 $,0,4.0,0,16090,0,0,0,DS
2026-04-15 01:53:00,METAR KHVN 150153Z 23007KT 10SM CLR 17/11 A2984 RMK AO2 SLP106 T01720106 $,0,7.0,0,16090,0,0,0,
2026-04-15 00:53:00,METAR KHVN 150053Z 23006KT 10SM CLR 17/11 A2984 RMK AO2 SLP104 T01720106 $,0,6.0,0,16090,0,0,0,
2026-04-14 23:53:00,METAR KHVN 142353Z 19005KT 10SM BKN150 17/11 A2981 RMK AO2 SLP093 T01670106 10250 20167 58006 $,0,5.0,0,16090,0,0,0,
2026-04-14 22:53:00,METAR KHVN 142253Z 23005KT 10SM BKN150 19/11 A2981 RMK AO2 SLP095 T01890106 $,0,5.0,0,16090,0,0,0,
2026-04-14 21:53:00,METAR KHVN 142153Z 23008G17KT 10SM FEW060 BKN250 18/12 A2983 RMK AO2 SLP099 T01780117 $,0,8.0,1,16090,0,0,0,
2026-04-14 20:53:00,METAR KHVN 142053Z 19010KT 10SM CLR 21/14 A2982 RMK AO2 SLP099 T02110139 56034 $,0,10.0,0,16090,0,0,0,
2026-04-14 19:53:00,METAR KHVN 141953Z 17007KT 10SM BKN250 24/14 A2986 RMK AO2 SLP109 T02390139 $,0,7.0,0,16090,0,0,0,
2026-04-14 18:53:00,METAR KHVN 141853Z 22007KT 10SM BKN250 24/14 A2989 RMK AO2 SLP121 T02390144 $,0,7.0,0,16090,0,0,0,
2026-04-14 17:53:00,METAR KHVN 141753Z 22007G16KT 10SM CLR 23/14 A2992 RMK AO2 SLP133 T02330144 10239 20144 58021 $,0,7.0,1,16090,0,0,0,
2026-04-14 16:53:00,METAR KHVN 141653Z 19007KT 7SM CLR 21/14 A2995 RMK AO2 SLP141 T02060144 $,0,7.0,0,11263,0,0,0,
2026-04-14 15:53:00,METAR KHVN 141553Z 19005KT 8SM CLR 20/14 A2997 RMK AO2 SLP150 T02000144 $,0,5.0,0,12872,0,0,0,
2026-04-14 14:53:00,METAR KHVN 141453Z 15008G16KT 10SM CLR 22/14 A2999 RMK AO2 SLP153 T02170144 58005 $,0,8.0,1,16090,0,0,0,
2026-04-14 13:53:00,METAR KHVN 141353Z 11006KT 10SM CLR 21/14 A2999 RMK AO2 SLP156 T02110144 $,0,6.0,0,16090,0,0,0,
2026-04-14 12:53:00,METAR KHVN 141253Z 00000KT 9SM CLR 18/14 A3000 RMK AO2 SLP159 T01830139 $,0,0.0,0,14481,0,0,0,
2026-04-14 11:53:00,METAR KHVN 141153Z 00000KT 6SM BR CLR 14/12 A3000 RMK AO2 SLP158 T01440122 10150 20083 53013 $,0,0.0,0,9654,0,0,1,BR
2026-04-14 10:53:00,METAR KHVN 141053Z 01004KT 5SM BR CLR 10/10 A2999 RMK AO2 SLP153 T01000100 $,0,4.0,0,8045,0,0,1,BR
2026-04-14 10:02:00,SPECI KHVN 141002Z 00000KT 5SM BR CLR 09/09 A2997 RMK AO2 T00940089 $,0,0.0,0,8045,0,0,1,BR
2026-04-14 09:55:00,SPECI KHVN 140955Z 00000KT 2SM BR CLR 09/09 A2997 RMK AO2 T00940094 $,0,0.0,0,3218,0,0,1,BR
2026-04-14 09:53:00,METAR KHVN 140953Z 00000KT 2 1/2SM BR CLR 09/09 A2997 RMK AO2 SLP147 T00940094 $,0,0.0,0,4022,0,0,1,BR
2026-04-14 09:42:00,SPECI KHVN 140942Z AUTO 00000KT 1SM R02/6000VP6000FT BR CLR 09/09 A2996 RMK AO2 T00940094 $,0,0.0,0,1609,0,0,1,BR
2026-04-14 09:07:00,SPECI KHVN 140907Z AUTO 00000KT 2 1/2SM BR CLR 09/09 A2996 RMK AO2 T00940094 $,0,0.0,0,4022,0,0,1,BR
2026-04-14 08:53:00,METAR KHVN 140853Z AUTO 00000KT 3SM BR CLR 09/09 A2996 RMK AO2 SLP145 T00940094 55002 $,0,0.0,0,4827,0,0,1,BR
2026-04-14 07:53:00,METAR KHVN 140753Z AUTO 00000KT 5SM BR CLR 11/10 A2995 RMK AO2 SLP142 T01060100 $,0,0.0,0,8045,0,0,1,BR
2026-04-14 06:53:00,METAR KHVN 140653Z AUTO 00000KT 6SM BR CLR 11/10 A2995 RMK AO2 SLP142 T01110100 $,0,0.0,0,9654,0,0,1,BR
2026-04-14 05:53:00,METAR KHVN 140553Z AUTO 06004KT 6SM BR CLR 11/11 A2997 RMK AO2 SLP147 60000 T01110106 10206 20111 53001 $,0,4.0,0,9654,0,0,1,BR
2026-04-14 04:53:00,METAR KHVN 140453Z AUTO 18004KT 8SM CLR 13/11 A2996 RMK AO2 SLP146 T01280106 402060067 $,0,4.0,0,12872,0,0,0,
2026-04-14 03:53:00,METAR KHVN 140353Z AUTO VRB04KT 9SM BKN090 BKN120 16/12 A2997 RMK AO2 RAE03 SLP147 P0000 T01560122 $,0,4.0,0,14481,0,0,0,
2026-04-14 02:53:00,METAR KHVN 140253Z AUTO 21006KT 6SM -RA SCT065 BKN090 20/13 A2996 RMK AO2 RAB49 SLP146 P0000 60000 T02000133 $,0,6.0,0,9654,0,0,0,-RA
2026-04-14 01:53:00,METAR KHVN 140153Z 21005KT 10SM FEW075 BKN095 OVC110 17/12 A2996 RMK AO2 SLP144 T01670117 $,0,5.0,0,16090,0,0,0,
2026-04-14 00:53:00,METAR KHVN 140053Z 23010G20KT 9SM BKN110 17/11 A2993 RMK AO2 SLP136 T01720111 $,0,10.0,1,14481,0,0,0,
2026-04-13 23:53:00,METAR KHVN 132353Z 24006KT 9SM BKN075 BKN110 16/11 A2991 RMK AO2 SLP129 T01610106 10183 20139 53005 $,0,6.0,0,14481,0,0,0,
2026-04-13 22:53:00,METAR KHVN 132253Z VRB05KT 8SM CLR 16/11 A2988 RMK AO2 SLP118 T01610106 $,0,5.0,0,12872,0,0,0,
2026-04-13 21:53:00,METAR KHVN 132153Z 20011KT 7SM CLR 17/11 A2989 RMK AO2 SLP120 T01720111 $,0,11.0,0,11263,0,0,0,
2026-04-13 20:53:00,METAR KHVN 132053Z VRB03KT 7SM CLR 17/11 A2990 RMK AO2 SLP125 T01670111 56025 $,0,3.0,0,11263,0,0,0,
2026-04-13 19:53:00,METAR KHVN 131953Z 19007KT 7SM CLR 16/11 A2991 RMK AO2 SLP127 T01560111 $,0,7.0,0,11263,0,0,0,
2026-04-13 18:53:00,METAR KHVN 131853Z 21004KT 7SM OVC110 14/11 A2995 RMK AO2 SLP140 T01390106 $,0,4.0,0,11263,0,0,0,
2026-04-13 17:53:00,METAR KHVN 131753Z 22008KT 7SM CLR 15/11 A2997 RMK AO2 SLP150 T01500111 10150 20100 56034 $,0,8.0,0,11263,0,0,0,
2026-04-13 16:53:00,METAR KHVN 131653Z 22007KT 7SM FEW018 FEW023 14/11 A3001 RMK AO2 SLP160 T01390106 $,0,7.0,0,11263,0,0,0,
2026-04-13 15:53:00,METAR KHVN 131553Z 21005KT 7SM OVC014 12/10 A3004 RMK AO2 SLP172 T01220100 $,0,5.0,0,11263,0,0,0,
2026-04-13 14:53:00,METAR KHVN 131453Z 22003KT 7SM OVC012 11/09 A3007 RMK AO2 SLP184 T01110094 58030 $,0,3.0,0,11263,0,0,0,
2026-04-13 14:00:00,SPECI KHVN 131400Z 22006KT 7SM OVC011 11/09 A3010 RMK AO2 T01110089 $,0,6.0,0,11263,0,0,0,
2026-04-13 13:53:00,METAR KHVN 131353Z 22007KT 8SM OVC015 12/09 A3010 RMK AO2 SLP194 T01170089 $,0,7.0,0,12872,0,0,0,
2026-04-13 12:53:00,METAR KHVN 131253Z 19004KT 8SM OVC015 11/08 A3014 RMK AO2 SLP205 T01060083 $,0,4.0,0,12872,0,0,0,
2026-04-13 11:53:00,METAR KHVN 131153Z 14003KT 8SM FEW013 OVC018 10/08 A3016 RMK AO2 SLP213 T01000078 10100 20067 56018 $,0,3.0,0,12872,0,0,0,
2026-04-13 10:53:00,METAR KHVN 131053Z 12004KT 9SM OVC024 09/06 A3017 RMK AO2 SLP217 T00890061 $,0,4.0,0,14481,0,0,0,
2026-04-13 09:53:00,METAR KHVN 130953Z 16004KT 10SM OVC029 09/06 A3019 RMK AO2 SLP223 T00890056 $,0,4.0,0,16090,0,0,0,
2026-04-13 08:53:00,METAR KHVN 130853Z AUTO 14004KT 10SM OVC036 08/04 A3022 RMK AO2 SLP232 T00830044 56023 $,0,4.0,0,16090,0,0,0,
2026-04-13 07:53:00,METAR KHVN 130753Z AUTO 12004KT 10SM CLR 07/04 A3023 RMK AO2 SLP236 T00670039 $,0,4.0,0,16090,0,0,0,
2026-04-13 06:53:00,METAR KHVN 130653Z AUTO 00000KT 9SM CLR 07/06 A3026 RMK AO2 SLP245 T00670056 $,0,0.0,0,14481,0,0,0,
2026-04-13 05:53:00,METAR KHVN 130553Z AUTO 00000KT 9SM CLR 07/06 A3029 RMK AO2 SLP255 T00720056 10072 20067 58023 $,0,0.0,0,14481,0,0,0,
2026-04-13 04:53:00,METAR KHVN 130453Z AUTO 11004KT 9SM CLR 07/05 A3032 RMK AO2 SLP265 T00720050 401170000 $,0,4.0,0,14481,0,0,0,
2026-04-13 03:53:00,METAR KHVN 130353Z AUTO 14003KT 10SM BKN120 07/04 A3034 RMK AO2 SLP272 T00720044 $,0,3.0,0,16090,0,0,0,
2026-04-13 02:53:00,METAR KHVN 130253Z AUTO 15004KT 10SM CLR 07/04 A3035 RMK AO2 SLP278 T00720039 58015 $,0,4.0,0,16090,0,0,0,
2026-04-13 01:53:00,METAR KHVN 130153Z 16006KT 10SM CLR 07/03 A3038 RMK AO2 SLP287 T00720033 $,0,6.0,0,16090,0,0,0,
2026-04-13 00:53:00,METAR KHVN 130053Z 16007KT 10SM CLR 07/03 A3040 RMK AO2 SLP293 T00670033 $,0,7.0,0,16090,0,0,0,
2026-04-12 23:53:00,METAR KHVN 122353Z 17010KT 10SM CLR 07/03 A3040 RMK AO2 SLP293 T00720028 10117 20072 56010 $,0,10.0,0,16090,0,0,0,
2026-04-12 22:53:00,METAR KHVN 122253Z 17011KT 10SM CLR 08/02 A3040 RMK AO2 SLP294 T00780017 $,0,11.0,0,16090,0,0,0,
2026-04-12 21:53:00,METAR KHVN 122153Z 16011G19KT 10SM CLR 09/00 A3041 RMK AO2 SLP298 T00890000 $,0,11.0,1,16090,0,0,0,
2026-04-12 20:53:00,METAR KHVN 122053Z 14007KT 10SM CLR 09/02 A3043 RMK AO2 SLP304 T00940017 56019 $,0,7.0,0,16090,0,0,0,
2026-04-12 19:53:00,METAR KHVN 121953Z 13011KT 10SM CLR 10/M02 A3043 RMK AO2 SLP305 T01001017 $,0,11.0,0,16090,0,0,0,
2026-04-12 18:53:00,METAR KHVN 121853Z 14011KT 10SM CLR 12/M03 A3046 RMK AO2 SLP314 T01171033 $,0,11.0,0,16090,0,0,0,
2026-04-12 17:53:00,METAR KHVN 121753Z 16007KT 10SM CLR 11/M04 A3049 RMK AO2 SLP322 T01061039 10111 20061 58019 $,0,7.0,0,16090,0,0,0,
2026-04-12 16:53:00,METAR KHVN 121653Z 19006KT 10SM CLR 11/M06 A3051 RMK AO2 SLP330 T01061056 $,0,6.0,0,16090,0,0,0,
2026-04-12 15:53:00,METAR KHVN 121553Z 15008KT 10SM CLR 09/M04 A3053 RMK AO2 SLP337 T00941044 $,0,8.0,0,16090,0,0,0,
2026-04-12 14:53:00,METAR KHVN 121453Z 21008KT 10SM CLR 09/M04 A3054 RMK AO2 SLP342 T00891044 53005 $,0,8.0,0,16090,0,0,0,
2026-04-12 13:53:00,METAR KHVN 121353Z 00000KT 10SM CLR 09/M05 A3053 RMK AO2 SLP338 T00891050 $,0,0.0,0,16090,0,0,0,
2026-04-12 12:53:00,METAR KHVN 121253Z 00000KT 10SM CLR 08/M05 A3053 RMK AO2 SLP338 T00781050 $,0,0.0,0,16090,0,0,0,
2026-04-12 11:53:00,METAR KHVN 121153Z 01004KT 10SM CLR 06/M03 A3053 RMK AO2 SLP337 T00611033 10067 20000 51022 $,0,4.0,0,16090,0,0,0,
2026-04-12 10:53:00,METAR KHVN 121053Z 00000KT 10SM CLR 01/M02 A3051 RMK AO2 SLP330 T00111022 $,0,0.0,0,16090,0,0,0,
2026-04-12 09:53:00,METAR KHVN 120953Z 00000KT 10SM CLR 01/M03 A3049 RMK AO2 SLP325 T00061028 $,0,0.0,0,16090,0,0,0,
2026-04-12 08:53:00,METAR KHVN 120853Z AUTO 00000KT 10SM CLR 02/M03 A3046 RMK AO2 SLP315 T00221033 53012 $,0,0.0,0,16090,0,0,0,
2026-04-12 07:53:00,METAR KHVN 120753Z AUTO 35005KT 10SM CLR 04/M03 A3043 RMK AO2 SLP305 T00441033 $,0,5.0,0,16090,0,0,0,
2026-04-12 06:53:00,METAR KHVN 120653Z AUTO 35007KT 10SM CLR 06/M03 A3041 RMK AO2 SLP298 T00611033 $,0,7.0,0,16090,0,0,0,
2026-04-12 05:53:00,METAR KHVN 120553Z AUTO 36006KT 10SM CLR 07/M03 A3043 RMK AO2 SLP303 T00671033 10122 20067 51017 $,0,6.0,0,16090,0,0,0,
2026-04-12 04:53:00,METAR KHVN 120453Z AUTO 01009KT 10SM CLR 07/M03 A3042 RMK AO2 SLP299 T00721033 401610067 $,0,9.0,0,16090,0,0,0,
2026-04-12 03:53:00,METAR KHVN 120353Z AUTO 36010G16KT 10SM CLR 08/M03 A3039 RMK AO2 SLP292 T00831033 $,0,10.0,1,16090,0,0,0,
2026-04-12 02:53:00,METAR KHVN 120253Z AUTO 35007G18KT 10SM CLR 09/M03 A3038 RMK AO2 SLP286 T00891033 51029 $,0,7.0,1,16090,0,0,0,
2026-04-12 01:53:00,METAR KHVN 120153Z 35008KT 10SM CLR 09/M03 A3036 RMK AO2 SLP282 T00941028 $,0,8.0,0,16090,0,0,0,
2026-04-12 00:53:00,METAR KHVN 120053Z 34010KT 10SM CLR 11/M04 A3033 RMK AO2 SLP271 T01111039 $,0,10.0,0,16090,0,0,0,
2026-04-11 23:53:00,METAR KHVN 112353Z 34010G20KT 10SM CLR 12/M04 A3029 RMK AO2 SLP257 T01221039 10161 20122 53028 $,0,10.0,1,16090,0,0,0,
2026-04-11 22:53:00,METAR KHVN 112253Z 34008G17KT 10SM CLR 14/M03 A3026 RMK AO2 SLP246 T01391028 $,0,8.0,1,16090,0,0,0,
2026-04-11 21:53:00,METAR KHVN 112153Z 34010KT 10SM CLR 16/M03 A3023 RMK AO2 SLP235 T01561033 $,0,10.0,0,16090,0,0,0,
2026-04-11 20:53:00,METAR KHVN 112053Z 33012G20KT 10SM CLR 16/M03 A3021 RMK AO2 SLP229 T01611028 53000 $,0,12.0,1,16090,0,0,0,
2026-04-11 19:53:00,METAR KHVN 111953Z 33010G17KT 10SM CLR 15/M02 A3020 RMK AO2 SLP226 T01501022 $,0,10.0,1,16090,0,0,0,
2026-04-11 18:53:00,METAR KHVN 111853Z 31011G21KT 10SM CLR 14/M02 A3021 RMK AO2 PK WND 34027/1822 SLP228 T01441017 $,0,11.0,1,16090,0,0,0,
2026-04-11 17:53:00,METAR KHVN 111753Z 34009G19KT 10SM CLR 16/M01 A3021 RMK AO2 SLP228 T01561006 10156 20111 55001 $,0,9.0,1,16090,0,0,0,
2026-04-11 16:53:00,METAR KHVN 111653Z 34017G26KT 10SM CLR 14/M02 A3020 RMK AO2 SLP228 T01441022 $,0,17.0,1,16090,0,0,0,
2026-04-11 15:53:00,METAR KHVN 111553Z 33013G23KT 290V360 10SM CLR 14/M02 A3021 RMK AO2 PK WND 36028/1500 SLP228 T01391017 $,0,13.0,1,16090,0,0,0,
2026-04-11 14:53:00,METAR KHVN 111453Z 32011G25KT 10SM CLR 12/M01 A3021 RMK AO2 PK WND 36031/1416 SLP229 T01221006 51019 $,0,11.0,1,16090,0,0,0,
2026-04-11 13:53:00,METAR KHVN 111353Z 01018G26KT 10SM CLR 12/01 A3020 RMK AO2 PK WND 32027/1339 SLP226 T01170011 $,0,18.0,1,16090,0,0,0,
2026-04-11 12:53:00,METAR KHVN 111253Z 34015G22KT 10SM CLR 12/02 A3018 RMK AO2 SLP218 T01170017 $,0,15.0,1,16090,0,0,0,
2026-04-11 11:53:00,METAR KHVN 111153Z 34011G22KT 10SM CLR 11/03 A3015 RMK AO2 SLP211 T01110028 10111 20067 51029 $,0,11.0,1,16090,0,0,0,
2026-04-11 10:53:00,METAR KHVN 111053Z 34011G19KT 10SM CLR 10/05 A3013 RMK AO2 SLP203 T01000050 $,0,11.0,1,16090,0,0,0,
2026-04-11 09:53:00,METAR KHVN 110953Z COR 01003KT 8SM SCT033 09/06 A3010 RMK AO2 SLP192 T00940061 $,0,3.0,0,12872,0,0,0,
2026-04-11 09:13:00,SPECI KHVN 110913Z AUTO 32004KT 8SM BKN030 OVC038 09/06 A3008 RMK AO2 T00890061 $,0,4.0,0,12872,0,0,0,
2026-04-11 09:03:00,SPECI KHVN 110903Z AUTO 00000KT 10SM BKN029 OVC038 08/06 A3007 RMK AO2 T00780056 $,0,0.0,0,16090,0,0,0,
2026-04-11 08:53:00,METAR KHVN 110853Z AUTO 00000KT 10SM SCT029 BKN037 07/06 A3007 RMK AO2 SLP182 T00720056 55007 $,0,0.0,0,16090,0,0,0,
2026-04-11 07:53:00,METAR KHVN 110753Z AUTO 00000KT 10SM BKN110 08/05 A3006 RMK AO2 SLP178 T00830050 $,0,0.0,0,16090,0,0,0,
2026-04-11 06:53:00,METAR KHVN 110653Z AUTO 15003KT 10SM BKN110 08/05 A3005 RMK AO2 SLP175 T00780050 $,0,3.0,0,16090,0,0,0,
2026-04-11 05:53:00,METAR KHVN 110553Z AUTO 00000KT 10SM SCT090 OVC110 07/05 A3009 RMK AO2 SLP189 T00720050 10083 20061 56026 $,0,0.0,0,16090,0,0,0,
2026-04-11 04:53:00,METAR KHVN 110453Z AUTO 14003KT 10SM FEW120 07/04 A3011 RMK AO2 SLP194 T00720044 401390033 $,0,3.0,0,16090,0,0,0,
2026-04-11 03:53:00,METAR KHVN 110353Z AUTO 00000KT 10SM BKN120 08/04 A3013 RMK AO2 SLP203 T00780039 $,0,0.0,0,16090,0,0,0,
2026-04-11 02:53:00,METAR KHVN 110253Z AUTO 34007KT 10SM CLR 07/04 A3017 RMK AO2 PRESRR SLP215 T00720039 53002 $,0,7.0,0,16090,0,0,0,
2026-04-11 01:53:00,METAR KHVN 110153Z 00000KT 10SM SCT120 07/03 A3015 RMK AO2 SLP210 T00670033 $,0,0.0,0,16090,0,0,0,
2026-04-11 00:53:00,METAR KHVN 110053Z 20004KT 10SM CLR 08/03 A3016 RMK AO2 SLP213 T00780028 $,0,4.0,0,16090,0,0,0,
2026-04-10 23:53:00,METAR KHVN 102353Z 16004KT 10SM CLR 07/03 A3016 RMK AO2 SLP213 T00720028 10139 20072 56008 $,0,4.0,0,16090,0,0,0,
2026-04-10 22:53:00,METAR KHVN 102253Z 19006KT 10SM CLR 09/02 A3017 RMK AO2 SLP216 T00890022 $,0,6.0,0,16090,0,0,0,
2026-04-10 21:53:00,METAR KHVN 102153Z 17010KT 10SM CLR 11/03 A3017 RMK AO2 SLP215 T01060028 $,0,10.0,0,16090,0,0,0,
2026-04-10 20:53:00,METAR KHVN 102053Z 17008KT 10SM CLR 13/04 A3018 RMK AO2 SLP220 T01330044 $,0,8.0,0,16090,0,0,0,
2026-04-10 19:53:00,METAR KHVN 101953Z 14008KT 10SM CLR 13/04 A3020 RMK AO2 SLP227 T01330039,0,8.0,0,16090,0,0,0,
2026-04-10 18:53:00,METAR KHVN 101853Z 13006KT 10SM CLR 12/04 A3023 RMK AO2 SLP238 T01220039,0,6.0,0,16090,0,0,0,
2026-04-10 17:53:00,METAR KHVN 101753Z 14008KT 10SM CLR 12/04 A3027 RMK AO2 SLP250 T01170039 10122 20056 56025,0,8.0,0,16090,0,0,0,
2026-04-10 16:53:00,METAR KHVN 101653Z 22006KT 10SM CLR 12/04 A3029 RMK AO2 SLP257 T01170039,0,6.0,0,16090,0,0,0,
2026-04-10 15:53:00,METAR KHVN 101553Z VRB04KT 9SM CLR 09/04 A3032 RMK AO2 SLP267 T00890044,0,4.0,0,14481,0,0,0,
2026-04-10 14:53:00,METAR KHVN 101453Z 20007KT 9SM CLR 08/04 A3034 RMK AO2 SLP275 T00780044 58013,0,7.0,0,14481,0,0,0,
2026-04-10 13:53:00,METAR KHVN 101353Z 19008KT 8SM SCT006 07/04 A3036 RMK AO2 SLP281 T00720044,0,8.0,0,12872,0,0,0,
2026-04-10 12:53:00,METAR KHVN 101253Z 22005KT 7SM BKN006 06/04 A3038 RMK AO2 SLP286 T00610039,0,5.0,0,11263,0,0,0,
2026-04-10 11:53:00,METAR KHVN 101153Z 19008KT 8SM BKN006 06/04 A3038 RMK AO2 SLP288 T00560039 10056 20033 55003 $,0,8.0,0,12872,0,0,0,
2026-04-10 10:53:00,METAR KHVN 101053Z 19006KT 5SM BR BKN007 BKN011 04/03 A3038 RMK AO2 SLP287 T00440033 $,0,6.0,0,8045,0,0,1,BR
2026-04-10 09:53:00,METAR KHVN 100953Z 20005KT 9SM BKN008 05/03 A3039 RMK AO2 SLP290 T00500033 $,0,5.0,0,14481,0,0,0,
2026-04-10 09:36:00,SPECI KHVN 100936Z AUTO 20004KT 9SM BKN008 04/03 A3039 RMK AO2 T00440033 $,0,4.0,0,14481,0,0,0,
2026-04-10 09:05:00,SPECI KHVN 100905Z AUTO 21005KT 9SM SCT009 05/03 A3039 RMK AO2 T00500033 $,0,5.0,0,14481,0,0,0,
2026-04-10 08:53:00,METAR KHVN 100853Z AUTO 21005KT 10SM BKN009 OVC013 05/03 A3039 RMK AO2 SLP291 T00500033 56006 $,0,5.0,0,16090,0,0,0,
2026-04-10 07:53:00,METAR KHVN 100753Z AUTO VRB03KT 10SM OVC011 05/03 A3040 RMK AO2 SLP294 T00500033 $,0,3.0,0,16090,0,0,0,
2026-04-10 06:53:00,METAR KHVN 100653Z AUTO 20003KT 10SM BKN011 04/03 A3041 RMK AO2 SLP298 T00440028 $,0,3.0,0,16090,0,0,0,
2026-04-10 06:20:00,SPECI KHVN 100620Z AUTO 22003KT 10SM BKN011 04/03 A3043 RMK AO2 T00440028 $,0,3.0,0,16090,0,0,0,
2026-04-10 05:53:00,METAR KHVN 100553Z AUTO 19003KT 10SM SCT012 03/02 A3044 RMK AO2 SLP309 T00330022 10056 20033 58007 $,0,3.0,0,16090,0,0,0,
2026-04-10 05:06:00,SPECI KHVN 100506Z AUTO 00000KT 10SM BKN013 04/03 A3047 RMK AO2 T00390028 $,0,0.0,0,16090,0,0,0,
2026-04-10 04:53:00,METAR KHVN 100453Z AUTO 00000KT 10SM FEW013 04/02 A3047 RMK AO2 SLP318 T00390022 400941028 $,0,0.0,0,16090,0,0,0,
2026-04-10 03:53:00,METAR KHVN 100353Z AUTO 22003KT 10SM SCT011 04/02 A3046 RMK AO2 SLP316 T00390022 $,0,3.0,0,16090,0,0,0,
2026-04-10 03:51:00,SPECI KHVN 100351Z AUTO 21004KT 10SM SCT011 04/02 A3046 RMK AO2 $,0,4.0,0,16090,0,0,0,
2026-04-10 02:53:00,METAR KHVN 100253Z AUTO 19005KT 10SM OVC011 04/03 A3048 RMK AO2 SLP321 T00440028 58003 $,0,5.0,0,16090,0,0,0,
2026-04-10 01:53:00,METAR KHVN 100153Z 17008KT 10SM BKN013 04/02 A3049 RMK AO2 SLP323 T00440022 $,0,8.0,0,16090,0,0,0,
2026-04-10 01:50:00,SPECI KHVN 100150Z 17006KT 10SM BKN013 04/02 A3049 RMK AO2 $,0,6.0,0,16090,0,0,0,
2026-04-10 00:53:00,METAR KHVN 100053Z 17009KT 10SM CLR 05/02 A3049 RMK AO2 SLP323 T00500022 $,0,9.0,0,16090,0,0,0,
2026-04-09 23:53:00,METAR KHVN 092353Z 14007KT 10SM CLR 06/02 A3049 RMK AO2 SLP324 T00560022 10094 20056 56010 $,0,7.0,0,16090,0,0,0,
2026-04-09 22:53:00,METAR KHVN 092253Z 14011KT 10SM CLR 06/02 A3050 RMK AO2 SLP327 T00610022 $,0,11.0,0,16090,0,0,0,
2026-04-09 21:53:00,METAR KHVN 092153Z 13010KT 10SM CLR 07/02 A3050 RMK AO2 SLP329 T00720022 $,0,10.0,0,16090,0,0,0,
2026-04-09 20:53:00,METAR KHVN 092053Z 16010G14KT 10SM CLR 08/02 A3052 RMK AO2 SLP334 T00780017 57021 $,0,10.0,1,16090,0,0,0,
2026-04-09 19:53:00,METAR KHVN 091953Z 14011G20KT 10SM CLR 08/02 A3054 RMK AO2 SLP341 T00830017 $,0,11.0,1,16090,0,0,0,
2026-04-09 18:53:00,METAR KHVN 091853Z 14010G16KT 10SM CLR 08/02 A3056 RMK AO2 SLP348 T00830017 $,0,10.0,1,16090,0,0,0,
2026-04-09 17:53:00,METAR KHVN 091753Z 13012G18KT 10SM CLR 08/02 A3058 RMK AO2 SLP355 T00830017 10083 20017 56015 $,0,12.0,1,16090,0,0,0,
2026-04-09 16:53:00,METAR KHVN 091653Z 14008KT 110V170 10SM CLR 08/02 A3059 RMK AO2 SLP358 T00830017 $,0,8.0,0,16090,0,0,0,
2026-04-09 15:53:00,METAR KHVN 091553Z 17006KT 10SM CLR 07/00 A3060 RMK AO2 SLP362 T00670000 $,0,6.0,0,16090,0,0,0,
2026-04-09 14:53:00,METAR KHVN 091453Z 18008KT 10SM CLR 06/00 A3062 RMK AO2 SLP370 T00560000 56003 $,0,8.0,0,16090,0,0,0,
2026-04-09 14:18:00,SPECI KHVN 091418Z 16008KT 10SM SCT016 05/00 A3063 RMK AO2 T00500000 $,0,8.0,0,16090,0,0,0,
2026-04-09 13:53:00,METAR KHVN 091353Z 18006KT 10SM BKN015 05/01 A3063 RMK AO2 SLP371 T00500006 $,0,6.0,0,16090,0,0,0,
2026-04-09 13:24:00,SPECI KHVN 091324Z 19006KT 10SM BKN015 05/01 A3063 RMK AO2 T00500006 $,0,6.0,0,16090,0,0,0,
2026-04-09 12:53:00,METAR KHVN 091253Z 16007KT 10SM FEW015 04/01 A3063 RMK AO2 SLP372 T00440006 $,0,7.0,0,16090,0,0,0,
2026-04-09 11:53:00,METAR KHVN 091153Z 00000KT 8SM CLR 02/M01 A3064 RMK AO2 SLP373 T00171006 10028 21028 53012 $,0,0.0,0,12872,0,0,0,
2026-04-09 10:53:00,METAR KHVN 091053Z 00000KT 8SM CLR M02/M03 A3062 RMK AO2 SLP367 T10171028 $,0,0.0,0,12872,0,0,0,
2026-04-09 09:53:00,METAR KHVN 090953Z 00000KT 10SM CLR M02/M03 A3061 RMK AO2 SLP364 T10221033 $,0,0.0,0,16090,0,0,0,
2026-04-09 08:53:00,METAR KHVN 090853Z AUTO 00000KT 10SM CLR M01/M02 A3060 RMK AO2 SLP362 T10111022 56002 $,0,0.0,0,16090,0,0,0,
2026-04-09 07:53:00,METAR KHVN 090753Z AUTO 00000KT 10SM CLR M01/M03 A3060 RMK AO2 SLP363 T10061028 $,0,0.0,0,16090,0,0,0,
2026-04-09 06:53:00,METAR KHVN 090653Z AUTO 20004KT 10SM CLR 02/M01 A3060 RMK AO2 SLP362 T00221011 $,0,4.0,0,16090,0,0,0,
2026-04-09 05:53:00,METAR KHVN 090553Z AUTO 21003KT 10SM CLR 03/M02 A3061 RMK AO2 SLP364 T00281017 10044 20022 58003 $,0,3.0,0,16090,0,0,0,
2026-04-09 04:53:00,METAR KHVN 090453Z AUTO 20005KT 10SM CLR 03/M02 A3063 RMK AO2 SLP370 T00281017 400671028 $,0,5.0,0,16090,0,0,0,
2026-04-09 03:53:00,METAR KHVN 090353Z AUTO 20006KT 10SM CLR 03/M02 A3063 RMK AO2 SLP370 T00281017 $,0,6.0,0,16090,0,0,0,
2026-04-09 02:53:00,METAR KHVN 090253Z AUTO 20006KT 10SM CLR 03/M02 A3062 RMK AO2 SLP367 T00281017 50012 $,0,6.0,0,16090,0,0,0,
2026-04-09 01:53:00,METAR KHVN 090153Z 19009KT 10SM CLR 03/M02 A3062 RMK AO2 SLP368 T00281017 $,0,9.0,0,16090,0,0,0,
2026-04-09 00:53:00,METAR KHVN 090053Z 20006KT 10SM CLR 04/M03 A3061 RMK AO2 SLP364 T00391028 $,0,6.0,0,16090,0,0,0,
2026-04-08 23:53:00,METAR KHVN 082353Z 19007KT 10SM CLR 04/M01 A3058 RMK AO2 SLP356 T00441011 10067 20044 52002 $,0,7.0,0,16090,0,0,0,
2026-04-08 22:53:00,METAR KHVN 082253Z 14006KT 10SM CLR 06/M04 A3058 RMK AO2 SLP354 T00561044 $,0,6.0,0,16090,0,0,0,
2026-04-08 21:53:00,METAR KHVN 082153Z 17006KT 10SM CLR 06/M09 A3058 RMK AO2 SLP355 T00611089 $,0,6.0,0,16090,0,0,0,
2026-04-08 20:53:00,METAR KHVN 082053Z 20007KT 10SM CLR 06/M06 A3058 RMK AO2 SLP354 T00611061 58003 $,0,7.0,0,16090,0,0,0,
2026-04-08 19:53:00,METAR KHVN 081953Z 20010KT 10SM CLR 06/M06 A3058 RMK AO2 SLP354 T00611056 $,0,10.0,0,16090,0,0,0,
2026-04-08 18:53:00,METAR KHVN 081853Z 19009KT 10SM CLR 06/M05 A3059 RMK AO2 SLP357 T00611050 $,0,9.0,0,16090,0,0,0,
2026-04-08 17:53:00,METAR KHVN 081753Z 18011G18KT 10SM CLR 06/M06 A3059 RMK AO2 SLP356 T00561056 10061 21006 56018 $,0,11.0,1,16090,0,0,0,
2026-04-08 16:53:00,METAR KHVN 081653Z 18009KT 10SM CLR 06/M07 A3060 RMK AO2 SLP361 T00561067 $,0,9.0,0,16090,0,0,0,
2026-04-08 15:53:00,METAR KHVN 081553Z 33010KT 10SM CLR 06/M12 A3062 RMK AO2 SLP369 T00561117 $,0,10.0,0,16090,0,0,0,
2026-04-08 14:53:00,METAR KHVN 081453Z 04010G19KT 10SM CLR 04/M12 A3064 RMK AO2 SLP375 T00391122 53008 $,0,10.0,1,16090,0,0,0,
2026-04-08 13:53:00,METAR KHVN 081353Z 01012KT 10SM CLR 03/M11 A3063 RMK AO2 SLP372 T00281111 $,0,12.0,0,16090,0,0,0,
2026-04-08 12:53:00,METAR KHVN 081253Z 01016G22KT 10SM CLR 01/M11 A3062 RMK AO2 SLP367 T00111111 $,0,16.0,1,16090,0,0,0,
2026-04-08 11:53:00,METAR KHVN 081153Z 03009KT 10SM CLR M01/M10 A3062 RMK AO2 SLP366 T10061100 11006 21028 53024 $,0,9.0,0,16090,0,0,0,
2026-04-08 10:53:00,METAR KHVN 081053Z 36008KT 10SM CLR M02/M10 A3058 RMK AO2 SLP356 T10171100 $,0,8.0,0,16090,0,0,0,
2026-04-08 09:53:00,METAR KHVN 080953Z 35009G18KT 10SM CLR M02/M09 A3055 RMK AO2 SLP346 T10171094 $,0,9.0,1,16090,0,0,0,
2026-04-08 08:53:00,METAR KHVN 080853Z AUTO 36008KT 10SM CLR M02/M09 A3054 RMK AO2 SLP343 T10171089 51017 $,0,8.0,0,16090,0,0,0,
2026-04-08 07:53:00,METAR KHVN 080753Z AUTO 00000KT 10SM CLR M02/M09 A3053 RMK AO2 SLP337 T10171094 $,0,0.0,0,16090,0,0,0,
2026-04-08 06:53:00,METAR KHVN 080653Z AUTO 36007KT 10SM CLR M01/M09 A3051 RMK AO2 SLP331 T10111094 $,0,7.0,0,16090,0,0,0,
2026-04-08 05:53:00,METAR KHVN 080553Z AUTO 36008KT 10SM CLR M01/M10 A3049 RMK AO2 SLP326 T10061100 10044 21006 51014 $,0,8.0,0,16090,0,0,0,
2026-04-08 04:53:00,METAR KHVN 080453Z AUTO 35011G19KT 10SM CLR 00/M10 A3049 RMK AO2 SLP325 T00001100 401170000 $,0,11.0,1,16090,0,0,0,
2026-04-08 03:53:00,METAR KHVN 080353Z AUTO 35009G16KT 10SM CLR 00/M09 A3048 RMK AO2 SLP320 T00001094 $,0,9.0,1,16090,0,0,0,
2026-04-08 02:53:00,METAR KHVN 080253Z AUTO 34011G19KT 10SM CLR 01/M09 A3045 RMK AO2 SLP312 T00061094 $,0,11.0,1,16090,0,0,0,
2026-04-08 01:53:00,METAR KHVN 080153Z 33012G24KT 10SM CLR 02/M09 A3043 RMK AO2 PK WND 34026/0054 SLP305 T00171094 $,0,12.0,1,16090,0,0,0,
2026-04-08 00:53:00,METAR KHVN 080053Z 35014G23KT 10SM CLR 03/M09 A3040 RMK AO2 SLP294 T00331094 $,0,14.0,1,16090,0,0,0,
2026-04-07 23:53:00,METAR KHVN 072353Z 34009G15KT 10SM CLR 04/M11 A3035 RMK AO2 PRESRR SLP277 T00441106 10117 20044 53050 $,0,9.0,1,16090,0,0,0,
2026-04-07 22:53:00,METAR KHVN 072253Z 35017G26KT 10SM CLR 06/M11 A3030 RMK AO2 PK WND 28027/2157 SLP259 T00611111 $,0,17.0,1,16090,0,0,0,
2026-04-07 21:53:00,METAR KHVN 072153Z 33019G28KT 10SM CLR 08/M10 A3024 RMK AO2 PK WND 31026/2148 SLP240 T00781100 $,0,19.0,1,16090,0,0,0,
2026-04-07 20:53:00,METAR KHVN 072053Z 30011G24KT 270V340 10SM CLR 08/M09 A3020 RMK AO2 SLP226 T00831094 53023 $,0,11.0,1,16090,0,0,0,
2026-04-07 19:53:00,METAR KHVN 071953Z 30021G27KT 10SM SCT080 10/M06 A3017 RMK AO2 PK WND 30027/1942 SLP216 T01001056 $,0,21.0,1,16090,0,0,0,
2026-04-07 18:53:00,METAR KHVN 071853Z 32014G20KT 10SM BKN085 12/M07 A3014 RMK AO2 PK WND 32029/1851 SLP206 T01171067 $,0,14.0,1,16090,0,0,0,
2026-04-07 17:53:00,METAR KHVN 071753Z 32015G22KT 10SM SCT080 11/M06 A3013 RMK AO2 SLP203 T01111056 10111 20061 53009 $,0,15.0,1,16090,0,0,0,
2026-04-07 16:53:00,METAR KHVN 071653Z 27008G16KT 240V310 10SM BKN080 BKN090 11/M02 A3012 RMK AO2 SLP198 T01061022 $,0,8.0,1,16090,0,0,0,
2026-04-07 15:53:00,METAR KHVN 071553Z 31013G20KT 10SM FEW060 BKN080 OVC095 11/M03 A3011 RMK AO2 SLP195 T01061028 $,0,13.0,1,16090,0,0,0,
2026-04-07 14:53:00,METAR KHVN 071453Z 20007KT 10SM SCT050 BKN060 10/02 A3011 RMK AO2 SLP194 T01000022 53006 $,0,7.0,0,16090,0,0,0,
2026-04-07 13:53:00,METAR KHVN 071353Z 25004KT 10SM CLR 08/03 A3010 RMK AO2 SLP191 T00830028 $,0,4.0,0,16090,0,0,0,
2026-04-07 12:53:00,METAR KHVN 071253Z 00000KT 10SM FEW046 SCT090 07/04 A3009 RMK AO2 SLP189 T00720039 $,0,0.0,0,16090,0,0,0,
2026-04-07 11:53:00,METAR KHVN 071153Z 12008KT 10SM BKN090 OVC100 06/02 A3009 RMK AO2 SLP188 T00610022 10061 20033 53001 $,0,8.0,0,16090,0,0,0,
2026-04-07 10:53:00,METAR KHVN 071053Z 11008KT 10SM OVC100 06/00 A3008 RMK AO2 SLP186 T00560000 $,0,8.0,0,16090,0,0,0,
2026-04-07 09:53:00,METAR KHVN 070953Z 11006KT 10SM BKN100 05/M01 A3008 RMK AO2 SLP184 T00501011 $,0,6.0,0,16090,0,0,0,
2026-04-07 08:53:00,METAR KHVN 070853Z AUTO 03004KT 10SM BKN060 05/M01 A3008 RMK AO2 SLP187 T00501006 58007 $,0,4.0,0,16090,0,0,0,
2026-04-07 07:53:00,METAR KHVN 070753Z AUTO 09004KT 10SM FEW070 BKN090 OVC110 06/M02 A3009 RMK AO2 SLP189 T00561017 $,0,4.0,0,16090,0,0,0,
2026-04-07 06:53:00,METAR KHVN 070653Z AUTO 00000KT 10SM BKN050 OVC070 05/M03 A3011 RMK AO2 SLP194 T00501028 $,0,0.0,0,16090,0,0,0,
2026-04-07 05:53:00,METAR KHVN 070553Z AUTO 00000KT 10SM OVC100 03/M01 A3011 RMK AO2 SLP194 T00331011 10089 20028 53000 $,0,0.0,0,16090,0,0,0,
2026-04-07 04:53:00,METAR KHVN 070453Z AUTO 00000KT 10SM BKN100 03/M03 A3010 RMK AO2 SLP192 T00281028 401000028 $,0,0.0,0,16090,0,0,0,
2026-04-07 03:53:00,METAR KHVN 070353Z AUTO 00000KT 10SM OVC080 06/M04 A3011 RMK AO2 SLP194 T00561044 $,0,0.0,0,16090,0,0,0,
2026-04-07 02:53:00,METAR KHVN 070253Z AUTO 10003KT 10SM OVC080 06/M04 A3011 RMK AO2 SLP194 T00561044 51016 $,0,3.0,0,16090,0,0,0,
2026-04-07 01:53:00,METAR KHVN 070153Z 08003KT 10SM BKN080 OVC100 07/M06 A3010 RMK AO2 SLP193 T00671056 $,0,3.0,0,16090,0,0,0,
2026-04-07 00:53:00,METAR KHVN 070053Z 34004KT 10SM BKN100 08/M07 A3009 RMK AO2 SLP187 T00831067 $,0,4.0,0,16090,0,0,0,
2026-04-06 23:53:00,METAR KHVN 062353Z 32007KT 10SM CLR 09/M06 A3006 RMK AO2 SLP178 T00891061 10100 20089 53022 $,0,7.0,0,16090,0,0,0,
2026-04-06 22:53:00,METAR KHVN 062253Z 32011KT 10SM CLR 09/M06 A3003 RMK AO2 SLP168 T00941056 $,0,11.0,0,16090,0,0,0,
2026-04-06 21:53:00,METAR KHVN 062153Z 30012G19KT 10SM CLR 10/M06 A3001 RMK AO2 SLP161 T01001056 $,0,12.0,1,16090,0,0,0,
2026-04-06 20:53:00,METAR KHVN 062053Z 31010G17KT 10SM CLR 10/M04 A3000 RMK AO2 SLP157 T01001044 55000 $,0,10.0,1,16090,0,0,0,
2026-04-06 19:53:00,METAR KHVN 061953Z 32012G23KT 10SM CLR 10/M05 A2999 RMK AO2 SLP154 T01001050 $,0,12.0,1,16090,0,0,0,
2026-04-06 18:53:00,METAR KHVN 061853Z 28010G24KT 10SM CLR 09/M04 A2998 RMK AO2 SLP153 T00941044 $,0,10.0,1,16090,0,0,0,
2026-04-06 17:53:00,METAR KHVN 061753Z 28011G23KT 10SM CLR 09/M04 A3000 RMK AO2 SLP157 T00891039 10094 20056 $,0,11.0,1,16090,0,0,0,
2026-04-06 16:53:00,METAR KHVN 061653Z 27009G21KT 10SM BKN050 09/M03 A3000 RMK AO2 SLP158 T00891033,0,9.0,1,16090,0,0,0,
2026-04-06 15:53:00,METAR KHVN 061553Z 28009G18KT 10SM OVC050 08/M03 A3001 RMK AO2 SLP160 T00781033,0,9.0,1,16090,0,0,0,
2026-04-06 14:53:00,METAR KHVN 061453Z 28009G14KT 10SM BKN050 07/M03 A3001 RMK AO2 SLP162 T00721033 53008,0,9.0,1,16090,0,0,0,
2026-04-06 13:53:00,METAR KHVN 061353Z 31010G20KT 10SM OVC050 07/M04 A3000 RMK AO2 SLP158 T00721044,0,10.0,1,16090,0,0,0,
2026-04-06 12:53:00,METAR KHVN 061253Z 31011G18KT 10SM BKN050 06/M04 A2999 RMK AO2 SLP156 T00611044,0,11.0,1,16090,0,0,0,
2026-04-06 11:53:00,METAR KHVN 061153Z VRB03KT 10SM BKN050 05/M04 A2999 RMK AO2 SLP154 70015 T00501039 10078 20044 53022,0,3.0,0,16090,0,0,0,
2026-04-06 10:53:00,METAR KHVN 061053Z 29004KT 10SM CLR 04/M04 A2997 RMK AO2 SLP147 T00441039,0,4.0,0,16090,0,0,0,
2026-04-06 09:53:00,METAR KHVN 060953Z COR 28007G16KT 10SM CLR 05/M04 A2994 RMK AO2 PK WND 29026/0904 SLP137 T00501044,0,7.0,1,16090,0,0,0,
2026-04-06 08:53:00,METAR KHVN 060853Z AUTO 31011G26KT 10SM BKN050 06/M03 A2992 RMK AO2 PK WND 29026/0848 SLP132 T00611033 53016,0,11.0,1,16090,0,0,0,
2026-04-06 07:53:00,METAR KHVN 060753Z AUTO 27006KT 10SM OVC060 07/M01 A2989 RMK AO2 SLP121 T00721006,0,6.0,0,16090,0,0,0,
2026-04-06 06:53:00,METAR KHVN 060653Z AUTO 27006KT 10SM SCT060 07/M01 A2987 RMK AO2 SLP115 T00721011,0,6.0,0,16090,0,0,0,
2026-04-06 05:53:00,METAR KHVN 060553Z AUTO 28007KT 10SM BKN060 08/M01 A2988 RMK AO2 SLP116 60000 T00781006 10106 20078 50004,0,7.0,0,16090,0,0,0,
2026-04-06 04:53:00,METAR KHVN 060453Z AUTO 30010G20KT 10SM OVC060 08/00 A2988 RMK AO2 SLP119 T00830000 401110050,0,10.0,1,16090,0,0,0,
2026-04-06 03:53:00,METAR KHVN 060353Z AUTO 30006KT 10SM BKN060 08/03 A2987 RMK AO2 SLP115 T00830033,0,6.0,0,16090,0,0,0,
2026-04-06 02:53:00,METAR KHVN 060253Z AUTO 29003KT 10SM SCT055 08/06 A2986 RMK AO2 SLP113 60000 T00830056 51027,0,3.0,0,16090,0,0,0,
2026-04-06 01:53:00,METAR KHVN 060153Z 32005KT 10SM OVC055 09/06 A2986 RMK AO2 SLP110 T00940061,0,5.0,0,16090,0,0,0,
2026-04-06 00:53:00,METAR KHVN 060053Z 34010G16KT 300V360 10SM FEW024 OVC035 09/07 A2985 RMK AO2 RAB04E34 SLP106 P0000 T00940067,0,10.0,1,16090,0,0,0,RA
2026-04-06 00:12:00,SPECI KHVN 060012Z 34008G19KT 8SM -RA FEW010 BKN017 OVC046 11/08 A2981 RMK AO2 RAB04 PRESRR P0000 T01060083,0,8.0,1,12872,0,0,0,-RA
2026-04-05 23:53:00,METAR KHVN 052353Z 24006KT 9SM FEW013 OVC047 11/09 A2979 RMK AO2 SLP086 60009 T01060094 10111 20083 53016,0,6.0,0,14481,0,0,0,
2026-04-05 22:53:00,METAR KHVN 052253Z 23011G18KT 7SM CLR 09/08 A2977 RMK AO2 SLP082 T00940083,0,11.0,1,11263,0,0,0,
2026-04-05 21:53:00,METAR KHVN 052153Z 23007KT 5SM BR SCT015 BKN035 11/11 A2974 RMK AO2 RAE17 SLP070 P0002 T01110106,0,7.0,0,8045,0,0,1,BR
2026-04-05 20:53:00,METAR KHVN 052053Z 00000KT 1SM R02/P6000FT -RA BR OVC007 09/09 A2974 RMK AO2 SLP070 P0005 60007 T00940089 58019,0,0.0,0,1609,0,0,1,"-RA,BR"
2026-04-05 19:53:00,METAR KHVN 051953Z 21005KT 3/4SM R02/P6000FT -RA BR OVC003 09/09 A2975 RMK AO2 RAB1857E18B42 SLP074 P0001 T00940089,0,5.0,0,1207,0,0,1,"-RA,BR,RA"
2026-04-05 18:53:00,METAR KHVN 051853Z 20008KT 3/4SM R02/5000VP6000FT BR OVC002 08/08 A2979 RMK AO2 RAE22 PRESRR SLP086 P0001 T00830078,0,8.0,0,1207,0,0,1,BR
2026-04-05 18:19:00,SPECI KHVN 051819Z 21004KT 2SM -RA BR BKN002 BKN009 OVC075 09/09 A2977 RMK AO2 P0001 T00940094,0,4.0,0,3218,0,0,1,"-RA,BR"
2026-04-05 18:01:00,SPECI KHVN 051801Z 21005KT 2SM -RA BR FEW005 OVC070 10/09 A2979 RMK AO2 P0000 T01000094,0,5.0,0,3218,0,0,1,"-RA,BR"
2026-04-05 17:53:00,METAR KHVN 051753Z 21007KT 2SM -RA BR FEW036 OVC070 10/10 A2979 RMK AO2 RAE00B21 SLP088 P0005 60006 T01000100 10111 20072 58010,0,7.0,0,3218,0,0,1,"-RA,BR,RA"
2026-04-05 17:43:00,SPECI KHVN 051743Z 21004KT 1 1/2SM -RA BR FEW007 BKN050 OVC065 11/10 A2978 RMK AO2 RAE00B21 P0005 T01060100,0,4.0,0,2414,0,0,1,"-RA,BR,RA"
2026-04-05 17:34:00,SPECI KHVN 051734Z 22005KT 2SM -RA BR SCT009 SCT014 OVC065 11/11 A2980 RMK AO2 RAE00B21 P0003 T01110106,0,5.0,0,3218,0,0,1,"-RA,BR,RA"
2026-04-05 16:53:00,METAR KHVN 051653Z 00000KT 1 1/2SM R02/6000VP6000FT -RA BR OVC006 11/10 A2981 RMK AO2 RAB45 SLP095 P0001 T01060100,0,0.0,0,2414,0,0,1,"-RA,BR"
2026-04-05 15:53:00,METAR KHVN 051553Z 00000KT 2SM BR OVC004 09/09 A2981 RMK AO2 SLP095 T00940094,0,0.0,0,3218,0,0,1,BR
2026-04-05 15:20:00,SPECI KHVN 051520Z 00000KT 2 1/2SM BR OVC003 09/09 A2982 RMK AO2 T00940094,0,0.0,0,4022,0,0,1,BR
2026-04-05 14:53:00,METAR KHVN 051453Z 00000KT 1SM R02/5000VP6000FT BR OVC003 09/09 A2982 RMK AO2 SLP098 T00940089 58015,0,0.0,0,1609,0,0,1,BR
2026-04-05 14:37:00,SPECI KHVN 051437Z 00000KT 3/4SM R02/3500VP6000FT BR VV003 09/09 A2983 RMK AO2 T00890089,0,0.0,0,1207,0,0,1,BR
2026-04-05 13:12:00,SPECI KHVN 051312Z 00000KT 1/4SM R02/1800FT FG VV002 08/08 A2985 RMK AO2 T00780078,0,0.0,0,402,0,0,1,FG
2026-04-05 13:02:00,SPECI KHVN 051302Z 00000KT 1/4SM R02/1800V2600FT FG VV002 08/07 A2985 RMK AO2 T00780072,0,0.0,0,402,0,0,1,FG
2026-04-05 12:53:00,METAR KHVN 051253Z 02003KT 1/4SM R02/1800V2000FT FG VV002 07/07 A2986 RMK AO2 SLP111 T00720072,0,3.0,0,402,0,0,1,FG
2026-04-05 12:48:00,SPECI KHVN 051248Z 02003KT 1/4SM R02/1800V2000FT FG VV002 07/07 A2987 RMK AO2,0,3.0,0,402,0,0,1,FG
2026-04-05 12:11:00,SPECI KHVN 051211Z 04004KT 1/4SM R02/2200V3500FT FG VV002 07/07 A2989 RMK AO2 T00720072,0,4.0,0,402,0,0,1,FG
2026-04-05 11:53:00,METAR KHVN 051153Z 08003KT 1/4SM R02/2000V2200FT FG VV002 07/07 A2990 RMK AO2 SLP123 60004 70004 T00720067 10072 20050 56038,0,3.0,0,402,0,0,1,FG
2026-04-05 11:02:00,SPECI KHVN 051102Z 09005KT 1/4SM R02/3500V4000FT FG VV003 07/06 A2992 RMK AO2 T00670061,0,5.0,0,402,0,0,1,FG
2026-04-05 10:53:00,METAR KHVN 051053Z 09007KT 1/2SM R02/3500V5000FT FG VV003 06/06 A2992 RMK AO2 SLP132 T00610061,0,7.0,0,804,0,0,1,FG
2026-04-05 10:43:00,SPECI KHVN 051043Z 09006KT 3/4SM R02/4500V5500FT BR VV003 06/06 A2993 RMK AO2 T00610056,0,6.0,0,1207,0,0,1,BR
2026-04-05 09:53:00,METAR KHVN 050953Z 09006KT 1 1/4SM BR OVC003 06/05 A2995 RMK AO2 SLP142 T00560050,0,6.0,0,2011,0,0,1,BR
2026-04-05 08:53:00,METAR KHVN 050853Z AUTO 09010KT 1 1/2SM BR OVC004 05/04 A3001 RMK AO2 SLP160 60004 T00500044 56035,0,10.0,0,2414,0,0,1,BR
2026-04-05 07:53:00,METAR KHVN 050753Z AUTO 10012G20KT 1 1/2SM BR OVC004 05/04 A3005 RMK AO2 RAE02 PRESFR SLP176 P0001 T00500044,0,12.0,1,2414,0,0,1,BR
2026-04-05 07:40:00,SPECI KHVN 050740Z AUTO 10011G18KT 2SM BR OVC005 05/04 A3007 RMK AO2 RAE02 PRESFR P0001 T00500039,0,11.0,1,3218,0,0,1,BR
2026-04-05 07:18:00,SPECI KHVN 050718Z AUTO 09009KT 1 3/4SM BR OVC005 05/04 A3009 RMK AO2 RAE02 P0000 T00500039,0,9.0,0,2816,0,0,1,BR
2026-04-05 07:05:00,SPECI KHVN 050705Z AUTO 09009KT 3SM BR OVC005 05/04 A3010 RMK AO2 RAE02 P0000 T00500039,0,9.0,0,4827,0,0,1,BR
2026-04-05 06:53:00,METAR KHVN 050653Z AUTO 10010KT 1 1/2SM -RA BR OVC005 05/04 A3011 RMK AO2 RAB32E47B52 SLP195 P0003 T00500039,0,10.0,0,2414,0,0,1,"-RA,BR,RA"
2026-04-05 06:48:00,SPECI KHVN 050648Z AUTO 09012KT 2SM BR OVC005 05/04 A3011 RMK AO2 RAB32E47 P0003,0,12.0,0,3218,0,0,1,"BR,RA"
2026-04-05 05:53:00,METAR KHVN 050553Z AUTO 09011G24KT 1 3/4SM BR OVC006 05/04 A3016 RMK AO2 SLP212 T00500039 10061 20044 58032,0,11.0,1,2816,0,0,1,BR
2026-04-05 05:39:00,SPECI KHVN 050539Z AUTO 09011G20KT 2SM BR OVC006 05/04 A3016 RMK AO2 T00500039,0,11.0,1,3218,0,0,1,BR
2026-04-05 04:53:00,METAR KHVN 050453Z AUTO 09011G21KT 3SM BR OVC006 05/04 A3020 RMK AO2 SLP226 T00500039 402000044,0,11.0,1,4827,0,0,1,BR
2026-04-05 04:43:00,SPECI KHVN 050443Z AUTO 10009G21KT 2 1/2SM BR OVC007 04/03 A3020 RMK AO2 T00440033,0,9.0,1,4022,0,0,1,BR
2026-04-05 04:35:00,SPECI KHVN 050435Z AUTO 09011G24KT 1 3/4SM BR OVC008 04/04 A3021 RMK AO2 CIG 006V010 T00440039,0,11.0,1,2816,0,0,1,BR
2026-04-05 04:25:00,SPECI KHVN 050425Z AUTO 10013G25KT 2 1/2SM BR OVC008 05/03 A3021 RMK AO2 CIG 006V012 T00500033,0,13.0,1,4022,0,0,1,BR
2026-04-05 04:00:00,SPECI KHVN 050400Z AUTO 10010G19KT 7SM OVC014 05/03 A3023 RMK AO2 T00500028,0,10.0,1,11263,0,0,0,
2026-04-05 03:53:00,METAR KHVN 050353Z AUTO 11009G20KT 7SM OVC016 05/02 A3023 RMK AO2 PK WND 11026/0317 SLP237 T00500022,0,9.0,1,11263,0,0,0,
2026-04-05 03:25:00,SPECI KHVN 050325Z AUTO 11015G26KT 9SM FEW021 OVC028 05/02 A3024 RMK AO2 PK WND 11026/0317 T00500022,0,15.0,1,14481,0,0,0,
2026-04-05 02:53:00,METAR KHVN 050253Z AUTO 10014G29KT 9SM OVC031 05/02 A3025 RMK AO2 PK WND 10029/0249 SLP244 T00500017 58006,0,14.0,1,14481,0,0,0,
2026-04-05 01:53:00,METAR KHVN 050153Z 10013G25KT 9SM OVC035 06/02 A3028 RMK AO2 PK WND 10027/0131 SLP253 T00560022,0,13.0,1,14481,0,0,0,
2026-04-05 00:53:00,METAR KHVN 050053Z 11017G25KT 10SM OVC039 06/02 A3028 RMK AO2 SLP254 T00610022,0,17.0,1,16090,0,0,0,
2026-04-04 23:53:00,METAR KHVN 042353Z 11013G24KT 8SM OVC046 06/03 A3027 RMK AO2 PK WND 10028/2259 SLP250 T00610033 10139 20061 50004,0,13.0,1,12872,0,0,0,
2026-04-04 22:53:00,METAR KHVN 042253Z 11017G33KT 7SM OVC047 07/03 A3027 RMK AO2 PK WND 10033/2245 SLP251 T00670033,0,17.0,1,11263,0,0,0,
2026-04-04 21:53:00,METAR KHVN 042153Z 11019G29KT 8SM OVC048 07/03 A3027 RMK AO2 PK WND 12030/2143 SLP249 T00720033,0,19.0,1,12872,0,0,0,
2026-04-04 20:53:00,METAR KHVN 042053Z 11016G26KT 9SM OVC050 09/03 A3026 RMK AO2 PK WND 12026/2001 SLP246 T00890033 50003,0,16.0,1,14481,0,0,0,
2026-04-04 19:53:00,METAR KHVN 041953Z 11015G22KT 10SM OVC050 09/04 A3027 RMK AO2 PK WND 10028/1938 SLP248 T00890039,0,15.0,1,16090,0,0,0,
2026-04-04 18:53:00,METAR KHVN 041853Z 10017G31KT 10SM OVC050 11/05 A3026 RMK AO2 PK WND 09034/1758 SLP246 T01110050,0,17.0,1,16090,0,0,0,
2026-04-04 17:53:00,METAR KHVN 041753Z 11017G30KT 10SM CLR 14/06 A3025 RMK AO2 PK WND 10032/1736 SLP243 T01390061 10200 20122 53014,0,17.0,1,16090,0,0,0,
2026-04-04 16:56:00,SPECI KHVN 041656Z 17007KT 10SM CLR 19/06 A3021 RMK AO2 T01890056,0,7.0,0,16090,0,0,0,
2026-04-04 16:53:00,METAR KHVN 041653Z 02006KT 10SM BKN120 19/05 A3021 RMK AO2 SLP230 T01890050,0,6.0,0,16090,0,0,0,
2026-04-04 15:53:00,METAR KHVN 041553Z 05008KT 10SM BKN120 18/04 A3021 RMK AO2 SLP230 T01830044,0,8.0,0,16090,0,0,0,
2026-04-04 14:53:00,METAR KHVN 041453Z 01011KT 10SM CLR 18/04 A3021 RMK AO2 SLP230 T01780044 51018,0,11.0,0,16090,0,0,0,
2026-04-04 13:53:00,METAR KHVN 041353Z 01011G17KT 10SM SCT250 17/08 A3020 RMK AO2 SLP227 T01670078,0,11.0,1,16090,0,0,0,
2026-04-04 12:53:00,METAR KHVN 041253Z 35014G17KT 10SM SCT250 16/09 A3018 RMK AO2 SLP220 T01560094,0,14.0,1,16090,0,0,0,
2026-04-04 11:53:00,METAR KHVN 041153Z 35007KT 4SM BR BKN140 12/11 A3016 RMK AO2 SLP211 T01220106 10122 20061 53020,0,7.0,0,6436,0,0,1,BR
2026-04-04 11:29:00,SPECI KHVN 041129Z 35007KT 2SM BR BKN140 09/09 A3014 RMK AO2 T00940094,0,7.0,0,3218,0,0,1,BR
2026-04-04 10:53:00,METAR KHVN 041053Z 00000KT 1 3/4SM BR SCT140 08/08 A3012 RMK AO2 SLP200 T00780078,0,0.0,0,2816,0,0,1,BR
2026-04-04 10:11:00,SPECI KHVN 041011Z 00000KT 1/4SM R02/2600VP6000FT FG BKN003 07/07 A3010 RMK AO2 T00720072,0,0.0,0,402,0,0,1,FG
2026-04-04 09:53:00,METAR KHVN 040953Z 00000KT 1 1/2SM R02/4500VP6000FT BR BKN004 07/07 A3010 RMK AO2 SLP191 T00670067,0,0.0,0,2414,0,0,1,BR
2026-04-04 09:48:00,SPECI KHVN 040948Z 00000KT 2SM R02/4500VP6000FT BR FEW004 07/07 A3010 RMK AO2,0,0.0,0,3218,0,0,1,BR
2026-04-04 09:35:00,SPECI KHVN 040935Z AUTO 00000KT 1 1/4SM R02/4500VP6000FT BR FEW003 07/07 A3009 RMK AO2 T00720067,0,0.0,0,2011,0,0,1,BR
2026-04-04 09:25:00,SPECI KHVN 040925Z AUTO 03004KT 3/4SM R02/2800VP6000FT BR VV004 07/07 A3009 RMK AO2 T00670067,0,4.0,0,1207,0,0,1,BR
2026-04-04 09:13:00,SPECI KHVN 040913Z AUTO 00000KT 1 3/4SM BR FEW005 07/07 A3008 RMK AO2 T00720072,0,0.0,0,2816,0,0,1,BR
2026-04-04 09:06:00,SPECI KHVN 040906Z AUTO 00000KT 1SM R02/P6000FT BR VV005 08/07 A3008 RMK AO2 T00780072,0,0.0,0,1609,0,0,1,BR
2026-04-04 08:53:00,METAR KHVN 040853Z AUTO 00000KT 1 3/4SM BR CLR 08/08 A3008 RMK AO2 SLP184 T00830078 55002,0,0.0,0,2816,0,0,1,BR
2026-04-04 08:51:00,SPECI KHVN 040851Z AUTO 00000KT 1 3/4SM BR CLR 08/07 A3007 RMK AO2,0,0.0,0,2816,0,0,1,BR
2026-04-04 07:53:00,METAR KHVN 040753Z AUTO 19003KT 4SM BR FEW100 09/08 A3007 RMK AO2 SLP182 T00890083,0,3.0,0,6436,0,0,1,BR
2026-04-04 06:53:00,METAR KHVN 040653Z AUTO 00000KT 5SM BR FEW100 09/08 A3008 RMK AO2 SLP186 T00890083,0,0.0,0,8045,0,0,1,BR
2026-04-04 05:53:00,METAR KHVN 040553Z AUTO 18004KT 4SM BR OVC120 09/09 A3009 RMK AO2 SLP187 T00940089 10117 20078 56009,0,4.0,0,6436,0,0,1,BR
2026-04-04 05:03:00,SPECI KHVN 040503Z AUTO 00000KT 3SM BR CLR 09/08 A3011 RMK AO2 T00890083,0,0.0,0,4827,0,0,1,BR
2026-04-04 04:53:00,METAR KHVN 040453Z AUTO 18003KT 1 3/4SM BR CLR 08/08 A3010 RMK AO2 SLP191 T00780078 401170039,0,3.0,0,2816,0,0,1,BR
2026-04-04 04:45:00,SPECI KHVN 040445Z AUTO 17003KT 2SM BR FEW110 08/08 A3010 RMK AO2 T00830083,0,3.0,0,3218,0,0,1,BR
2026-04-04 03:53:00,METAR KHVN 040353Z AUTO VRB03KT 4SM BR FEW003 SCT110 09/09 A3011 RMK AO2 SLP197 T00940089,0,3.0,0,6436,0,0,1,BR
2026-04-04 03:41:00,SPECI KHVN 040341Z AUTO 00000KT 4SM BR SCT003 BKN110 09/09 A3011 RMK AO2 T00890089,0,0.0,0,6436,0,0,1,BR
2026-04-04 03:24:00,SPECI KHVN 040324Z AUTO 00000KT 4SM BR BKN003 BKN110 09/08 A3011 RMK AO2 T00890083,0,0.0,0,6436,0,0,1,BR
2026-04-04 03:15:00,SPECI KHVN 040315Z AUTO 00000KT 3SM BR SCT003 08/08 A3012 RMK AO2 T00830083,0,0.0,0,4827,0,0,1,BR
2026-04-04 02:53:00,METAR KHVN 040253Z AUTO 00000KT 3SM BR FEW090 09/09 A3011 RMK AO2 SLP196 T00940089 50006,0,0.0,0,4827,0,0,1,BR
2026-04-04 01:53:00,METAR KHVN 040153Z 19004KT 5SM BR CLR 09/08 A3012 RMK AO2 SLP199 T00940083,0,4.0,0,8045,0,0,1,BR
2026-04-04 00:53:00,METAR KHVN 040053Z 18005KT 7SM CLR 11/09 A3012 RMK AO2 SLP198 T01110094,0,5.0,0,11263,0,0,0,
2026-04-03 23:53:00,METAR KHVN 032353Z 17003KT 7SM SCT100 09/08 A3009 RMK AO2 SLP190 T00940078 10111 20083 58016,0,3.0,0,11263,0,0,0,
2026-04-03 22:53:00,METAR KHVN 032253Z 00000KT 7SM FEW095 10/07 A3013 RMK AO2 SLP202 T01000072,0,0.0,0,11263,0,0,0,
2026-04-03 21:53:00,METAR KHVN 032153Z 17006KT 7SM CLR 09/07 A3013 RMK AO2 SLP202 T00940072,0,6.0,0,11263,0,0,0,
2026-04-03 20:53:00,METAR KHVN 032053Z 21010KT 6SM HZ CLR 11/08 A3014 RMK AO2 SLP205 T01060078 56024,0,10.0,0,9654,0,0,0,
2026-04-03 19:53:00,METAR KHVN 031953Z 20007KT 7SM CLR 10/07 A3015 RMK AO2 SLP208 T01000072,0,7.0,0,11263,0,0,0,
2026-04-03 18:53:00,METAR KHVN 031853Z 21007KT 8SM FEW012 SCT080 09/07 A3018 RMK AO2 SLP219 T00890067,0,7.0,0,12872,0,0,0,
2026-04-03 18:46:00,SPECI KHVN 031846Z 20007KT 8SM FEW012 BKN080 09/07 A3018 RMK AO2 T00890067,0,7.0,0,12872,0,0,0,
2026-04-03 17:53:00,METAR KHVN 031753Z 20008KT 10SM OVC010 08/06 A3021 RMK AO2 SLP229 T00830061 10083 20044 56024,0,8.0,0,16090,0,0,0,
2026-04-03 17:45:00,SPECI KHVN 031745Z 21008KT 160V250 10SM OVC010 08/06 A3021 RMK AO2 T00830061,0,8.0,0,16090,0,0,0,
2026-04-03 16:53:00,METAR KHVN 031653Z 24007KT 9SM OVC007 08/06 A3023 RMK AO2 SLP236 T00780061,0,7.0,0,14481,0,0,0,
2026-04-03 16:18:00,SPECI KHVN 031618Z 24007KT 10SM OVC006 07/06 A3025 RMK AO2 T00720056,0,7.0,0,16090,0,0,0,
2026-04-03 15:53:00,METAR KHVN 031553Z 19004KT 10SM OVC006 07/06 A3025 RMK AO2 SLP244 T00720056,0,4.0,0,16090,0,0,0,
2026-04-03 14:53:00,METAR KHVN 031453Z VRB03KT 10SM OVC006 07/06 A3028 RMK AO2 SLP253 T00670061 55013,0,3.0,0,16090,0,0,0,
2026-04-03 14:40:00,SPECI KHVN 031440Z 00000KT 7SM BKN004 OVC009 07/06 A3029 RMK AO2 T00670056,0,0.0,0,11263,0,0,0,
2026-04-03 14:25:00,SPECI KHVN 031425Z 29004KT 2SM BR OVC004 06/06 A3029 RMK AO2 T00610056,0,4.0,0,3218,0,0,1,BR
2026-04-03 14:17:00,SPECI KHVN 031417Z 23003KT 3SM BR OVC004 06/06 A3029 RMK AO2 T00610056,0,3.0,0,4827,0,0,1,BR
2026-04-03 14:05:00,SPECI KHVN 031405Z 00000KT 1 1/4SM BR OVC004 06/06 A3030 RMK AO2 T00610056,0,0.0,0,2011,0,0,1,BR
2026-04-03 13:53:00,METAR KHVN 031353Z 00000KT 1 1/4SM BR OVC005 06/06 A3030 RMK AO2 SLP260 T00610056,0,0.0,0,2011,0,0,1,BR
2026-04-03 12:53:00,METAR KHVN 031253Z 00000KT 3/4SM R02/4500VP6000FT BR OVC005 05/04 A3032 RMK AO2 SLP266 T00500044,0,0.0,0,1207,0,0,1,BR
2026-04-03 11:53:00,METAR KHVN 031153Z 12005KT 1SM R02/P6000FT BR BKN004 OVC008 04/04 A3033 RMK AO2 SLP269 70003 T00440039 10044 20039 58015,0,5.0,0,1609,0,0,1,BR
2026-04-03 08:53:00,METAR KHVN 030853Z AUTO 09004KT 2SM BR OVC005 04/03 A3037 RMK AO2 SLP283 T00390033 58023,0,4.0,0,3218,0,0,1,BR
2026-04-03 08:24:00,SPECI KHVN 030824Z AUTO 07004KT 2 1/2SM BR OVC005 04/03 A3039 RMK AO2 T00390033,0,4.0,0,4022,0,0,1,BR
2026-04-03 06:14:00,SPECI KHVN 030614Z AUTO 07004KT 2 1/2SM BR BKN007 OVC010 04/03 A3044 RMK AO2 T00390033,0,4.0,0,4022,0,0,1,BR
2026-04-03 05:53:00,METAR KHVN 030553Z AUTO 07004KT 3SM BR BKN009 OVC015 04/03 A3044 RMK AO2 SLP306 T00390033 10056 20039 58012,0,4.0,0,4827,0,0,1,BR
2026-04-03 05:43:00,SPECI KHVN 030543Z AUTO 07004KT 3SM BR OVC009 04/03 A3045 RMK AO2 T00390028,0,4.0,0,4827,0,0,1,BR
2026-04-03 04:53:00,METAR KHVN 030453Z AUTO 05004KT 2 1/2SM BR OVC006 04/03 A3046 RMK AO2 CIG 005V010 SLP314 T00390033 400940039,0,4.0,0,4022,0,0,1,BR
2026-04-03 04:19:00,SPECI KHVN 030419Z AUTO 05003KT 2SM BR OVC005 04/03 A3046 RMK AO2 CIG 003V010 T00390033,0,3.0,0,3218,0,0,1,BR
2026-04-03 04:03:00,SPECI KHVN 030403Z AUTO 06003KT 1 3/4SM BR OVC005 04/03 A3046 RMK AO2 CIG 003V009 T00390033,0,3.0,0,2816,0,0,1,BR
2026-04-03 03:53:00,METAR KHVN 030353Z AUTO 08003KT 2SM BR BKN007 OVC011 04/03 A3047 RMK AO2 CIG 004V010 SLP316 T00390028,0,3.0,0,3218,0,0,1,BR
2026-04-03 03:47:00,SPECI KHVN 030347Z AUTO 07003KT 2 1/2SM BR BKN007 OVC011 04/03 A3047 RMK AO2 CIG 005V009,0,3.0,0,4022,0,0,1,BR
2026-04-03 03:38:00,SPECI KHVN 030338Z AUTO 07003KT 3SM BR OVC011 04/03 A3047 RMK AO2 T00390028,0,3.0,0,4827,0,0,1,BR
2026-04-03 03:28:00,SPECI KHVN 030328Z AUTO 06005KT 4SM BR OVC009 04/03 A3047 RMK AO2 CIG 007V013 T00390028,0,5.0,0,6436,0,0,1,BR
2026-04-03 02:53:00,METAR KHVN 030253Z AUTO 06005KT 5SM BR OVC013 04/03 A3047 RMK AO2 SLP317 T00440028 58002,0,5.0,0,8045,0,0,1,BR
2026-04-03 01:53:00,METAR KHVN 030153Z 07005KT 10SM OVC014 05/02 A3048 RMK AO2 SLP322 T00500017,0,5.0,0,16090,0,0,0,
2026-04-03 00:53:00,METAR KHVN 030053Z 06006KT 10SM OVC016 05/02 A3048 RMK AO2 SLP322 T00500017,0,6.0,0,16090,0,0,0,
2026-04-02 23:53:00,METAR KHVN 022353Z 06007KT 10SM OVC016 06/02 A3048 RMK AO2 SLP320 T00560022 10067 20056 53003,0,7.0,0,16090,0,0,0,
2026-04-02 22:53:00,METAR KHVN 022253Z 08007KT 10SM OVC017 06/02 A3047 RMK AO2 SLP319 T00560022,0,7.0,0,16090,0,0,0,
2026-04-02 21:53:00,METAR KHVN 022153Z 06010G18KT 10SM OVC017 06/02 A3047 RMK AO2 SLP317 T00610022,0,10.0,1,16090,0,0,0,
2026-04-02 20:53:00,METAR KHVN 022053Z 07010KT 10SM OVC016 06/03 A3047 RMK AO2 SLP317 T00610028 55003,0,10.0,0,16090,0,0,0,
2026-04-02 19:53:00,METAR KHVN 021953Z 06009G18KT 10SM OVC015 07/03 A3046 RMK AO2 SLP315 T00670028,0,9.0,1,16090,0,0,0,
2026-04-02 18:53:00,METAR KHVN 021853Z 07013G19KT 10SM OVC015 07/03 A3047 RMK AO2 SLP316 T00670028,0,13.0,1,16090,0,0,0,
2026-04-02 17:53:00,METAR KHVN 021753Z 03007KT 10SM OVC016 07/03 A3048 RMK AO2 SLP320 60003 T00670033 10067 20050 53003,0,7.0,0,16090,0,0,0,
2026-04-02 16:53:00,METAR KHVN 021653Z 08009KT 10SM OVC015 07/03 A3047 RMK AO2 SLP317 T00670033,0,9.0,0,16090,0,0,0,
2026-04-02 15:53:00,METAR KHVN 021553Z 05007KT 10SM OVC015 06/03 A3047 RMK AO2 SLP317 T00610033,0,7.0,0,16090,0,0,0,
2026-04-02 14:53:00,METAR KHVN 021453Z 06008G16KT 10SM BKN014 OVC026 06/04 A3047 RMK AO2 RAB12E37 SLP317 P0001 60003 T00610039 51013,0,8.0,1,16090,0,0,0,RA
2026-04-02 13:53:00,METAR KHVN 021353Z 05005KT 10SM SCT015 OVC023 06/04 A3047 RMK AO2 RAE28 SLP317 P0000 T00560039,0,5.0,0,16090,0,0,0,
2026-04-02 12:53:00,METAR KHVN 021253Z 04009KT 2SM -RA BR FEW007 BKN013 OVC020 05/04 A3043 RMK AO2 RAB29 SLP305 P0002 T00500039,0,9.0,0,3218,0,0,1,"-RA,BR"
2026-04-02 12:49:00,SPECI KHVN 021249Z 05008KT 2SM -RA BR FEW007 SCT011 OVC020 05/04 A3043 RMK AO2 RAB29 P0001,0,8.0,0,3218,0,0,1,"-RA,BR"
2026-04-02 12:39:00,SPECI KHVN 021239Z 05006KT 2 1/2SM -RA BR SCT011 OVC020 06/04 A3043 RMK AO2 RAB29 P0001 T00560039,0,6.0,0,4022,0,0,1,"-RA,BR"
2026-04-02 12:27:00,SPECI KHVN 021227Z 06007KT 2SM BR SCT008 BKN012 OVC018 06/04 A3044 RMK AO2 T00560039,0,7.0,0,3218,0,0,1,BR
2026-04-02 11:55:00,SPECI KHVN 021155Z 08007KT 1 3/4SM BR BKN008 OVC015 06/04 A3042 RMK AO2 CIG 006V011 T00560044,0,7.0,0,2816,0,0,1,BR
2026-04-02 11:53:00,METAR KHVN 021153Z 08006KT 2SM BR BKN010 OVC015 06/04 A3042 RMK AO2 CIG 006V012 SLP301 60005 70011 T00560044 10083 20056 53023,0,6.0,0,3218,0,0,1,BR
2026-04-02 11:27:00,SPECI KHVN 021127Z 06005KT 2 1/2SM BR BKN013 OVC020 06/04 A3041 RMK AO2 PRESRR T00560044,0,5.0,0,4022,0,0,1,BR
2026-04-02 10:53:00,METAR KHVN 021053Z 07008KT 4SM BR BKN015 OVC020 06/04 A3039 RMK AO2 RAE12 SLP290 P0001 T00610044,0,8.0,0,6436,0,0,1,BR
2026-04-02 09:53:00,METAR KHVN 020953Z 06009G17KT 040V100 9SM -RA BKN016 OVC037 07/04 A3036 RMK AO2 RAE04B51 SLP282 P0000 T00670039,0,9.0,1,14481,0,0,0,"-RA,RA"
2026-04-02 08:53:00,METAR KHVN 020853Z AUTO 05007KT 10SM -RA OVC020 07/04 A3035 RMK AO2 RAB34 SLP278 P0000 60004 T00670044 53013,0,7.0,0,16090,0,0,0,-RA
2026-04-02 07:53:00,METAR KHVN 020753Z AUTO 06008G16KT 10SM SCT018 BKN024 OVC036 07/04 A3034 RMK AO2 SLP273 T00720044,0,8.0,1,16090,0,0,0,
2026-04-02 07:00:00,SPECI KHVN 020700Z AUTO 04008G15KT 10SM SCT013 OVC025 08/06 A3034 RMK AO2 T00780061,0,8.0,1,16090,0,0,0,
2026-04-02 06:53:00,METAR KHVN 020653Z AUTO 05006G16KT 10SM BKN013 OVC023 08/06 A3032 RMK AO2 RAE41 SLP267 P0004 T00780061,0,6.0,1,16090,0,0,0,
2026-04-02 06:43:00,SPECI KHVN 020643Z AUTO 04007KT 9SM BKN013 OVC021 08/07 A3032 RMK AO2 RAE41 P0004 T00780067,0,7.0,0,14481,0,0,0,
2026-04-02 05:53:00,METAR KHVN 020553Z AUTO 05007KT 7SM -RA OVC020 08/06 A3032 RMK AO2 RAE01B22 SLP265 P0002 60003 T00830061 10133 20083 51017,0,7.0,0,11263,0,0,0,"-RA,RA"
2026-04-02 04:53:00,METAR KHVN 020453Z AUTO 05008KT 7SM -RA OVC018 09/06 A3031 RMK AO2 RAB48 SLP263 P0001 T00940061 401940094,0,8.0,0,11263,0,0,0,-RA
2026-04-02 03:53:00,METAR KHVN 020353Z AUTO 07009KT 10SM OVC015 11/07 A3029 RMK AO2 SLP258 T01060072,0,9.0,0,16090,0,0,0,
2026-04-02 03:29:00,SPECI KHVN 020329Z AUTO 07011G18KT 10SM OVC015 11/08 A3029 RMK AO2 T01060078,0,11.0,1,16090,0,0,0,
2026-04-02 02:53:00,METAR KHVN 020253Z AUTO 08008KT 10SM OVC014 11/09 A3027 RMK AO2 SLP249 60000 T01060089 53026,0,8.0,0,16090,0,0,0,
2026-04-02 02:22:00,SPECI KHVN 020222Z AUTO 12004KT 10SM OVC014 11/09 A3026 RMK AO2 T01110094,0,4.0,0,16090,0,0,0,
2026-04-02 01:53:00,METAR KHVN 020153Z 04008KT 10SM BKN016 OVC055 13/10 A3024 RMK AO2 PRESRR SLP239 T01280100,0,8.0,0,16090,0,0,0,
2026-04-02 00:53:00,METAR KHVN 020053Z 03009G16KT 10SM OVC060 13/10 A3020 RMK AO2 RAB35E46 SLP224 P0000 T01280100,0,9.0,1,16090,0,0,0,RA
2026-04-01 23:53:00,METAR KHVN 012353Z 35009KT 10SM OVC055 13/09 A3019 RMK AO2 RAE23 SLP222 P0000 60003 T01330094 10183 20133 53036,0,9.0,0,16090,0,0,0,
2026-04-01 22:53:00,METAR KHVN 012253Z 36008KT 10SM -RA OVC060 14/11 A3015 RMK AO2 RAB22 SLP209 P0003 T01390106,0,8.0,0,16090,0,0,0,-RA
2026-04-01 21:53:00,METAR KHVN 012153Z 02010KT 10SM BKN075 OVC090 17/12 A3011 RMK AO2 SLP194 T01720122,0,10.0,0,16090,0,0,0,
2026-04-01 20:53:00,METAR KHVN 012053Z 02009KT 10SM OVC043 17/15 A3008 RMK AO2 RAB04E47 SLP186 P0000 60000 T01720150 53021,0,9.0,0,16090,0,0,0,RA
2026-04-01 19:53:00,METAR KHVN 011953Z 17005KT 8SM OVC090 14/11 A3004 RMK AO2 SLP172 T01440106,0,5.0,0,12872,0,0,0,
2026-04-01 18:53:00,METAR KHVN 011853Z VRB03KT 8SM OVC100 14/10 A3002 RMK AO2 SLP165 T01440100,0,3.0,0,12872,0,0,0,
2026-04-01 17:53:00,METAR KHVN 011753Z 00000KT 8SM SCT050 OVC100 15/11 A3002 RMK AO2 SLP165 T01500106 10194 20144 51010,0,0.0,0,12872,0,0,0,
2026-04-01 16:53:00,METAR KHVN 011653Z 20007KT 8SM OVC110 15/11 A3001 RMK AO2 SLP163 T01500106,0,7.0,0,12872,0,0,0,
2026-04-01 15:53:00,METAR KHVN 011553Z 21006KT 9SM BKN120 18/12 A3000 RMK AO2 SLP159 T01780117,0,6.0,0,14481,0,0,0,
2026-04-01 14:53:00,METAR KHVN 011453Z 21010KT 9SM BKN250 18/12 A2999 RMK AO2 SLP155 T01780117 51014,0,10.0,0,14481,0,0,0,
2026-04-01 13:53:00,METAR KHVN 011353Z 22008KT 9SM CLR 19/12 A2998 RMK AO2 SLP152 T01890122,0,8.0,0,14481,0,0,0,
2026-04-01 12:53:00,METAR KHVN 011253Z 25007KT 8SM BKN110 15/11 A2997 RMK AO2 SLP148 T01500106,0,7.0,0,12872,0,0,0,
2026-04-01 11:53:00,METAR KHVN 011153Z 23006KT 7SM FEW075 BKN110 15/11 A2995 RMK AO2 SLP141 T01500111 10150 20094 52019,0,6.0,0,11263,0,0,0,
2026-04-01 10:53:00,METAR KHVN 011053Z 24004KT 7SM SCT120 13/11 A2993 RMK AO2 SLP136 T01330106,0,4.0,0,11263,0,0,0,
2026-04-01 09:53:00,METAR KHVN 010953Z 23008KT 8SM CLR 13/10 A2991 RMK AO2 SLP128 T01280100,0,8.0,0,12872,0,0,0,
2026-04-01 08:53:00,METAR KHVN 010853Z AUTO VRB03KT 8SM CLR 12/10 A2989 RMK AO2 SLP122 T01220100 53007,0,3.0,0,12872,0,0,0,
2026-04-01 07:53:00,METAR KHVN 010753Z AUTO 19006KT 8SM CLR 12/09 A2987 RMK AO2 SLP114 T01220094,0,6.0,0,12872,0,0,0,
2026-04-01 06:53:00,METAR KHVN 010653Z AUTO 19003KT 8SM FEW100 12/09 A2989 RMK AO2 SLP120 T01220094,0,3.0,0,12872,0,0,0,
2026-04-01 05:53:00,METAR KHVN 010553Z AUTO 20005KT 7SM CLR 11/08 A2987 RMK AO2 SLP115 T01060083 10139 20106 56013,0,5.0,0,11263,0,0,0,
2026-04-01 04:53:00,METAR KHVN 010453Z AUTO 22004KT 8SM CLR 12/09 A2988 RMK AO2 SLP116 T01220089 402000083,0,4.0,0,12872,0,0,0,
2026-04-01 03:53:00,METAR KHVN 010353Z AUTO 00000KT 8SM CLR 12/09 A2989 RMK AO2 SLP121 T01170089,0,0.0,0,12872,0,0,0,
2026-04-01 02:53:00,METAR KHVN 010253Z AUTO 00000KT 8SM CLR 12/09 A2991 RMK AO2 SLP128 T01220089 50004,0,0.0,0,12872,0,0,0,
2026-04-01 01:53:00,METAR KHVN 010153Z 27003KT 8SM CLR 13/09 A2992 RMK AO2 SLP132 T01280089,0,3.0,0,12872,0,0,0,
2026-04-01 00:53:00,METAR KHVN 010053Z 18004KT 8SM CLR 12/09 A2992 RMK AO2 SLP130 T01220089,0,4.0,0,12872,0,0,0,
2026-03-31 23:53:00,METAR KHVN 312353Z 13004KT 9SM CLR 14/09 A2990 RMK AO2 SLP123 T01390094 10200 20139 50001,0,4.0,0,14481,0,0,0,
2026-03-31 22:53:00,METAR KHVN 312253Z 17003KT 8SM OVC250 16/09 A2990 RMK AO2 SLP125 T01560094,0,3.0,0,12872,0,0,0,
2026-03-31 21:53:00,METAR KHVN 312153Z 17007KT 8SM BKN250 14/09 A2990 RMK AO2 SLP124 T01440089,0,7.0,0,12872,0,0,0,
2026-03-31 20:53:00,METAR KHVN 312053Z 18007KT 9SM CLR 17/10 A2989 RMK AO2 SLP122 T01720100 56023,0,7.0,0,14481,0,0,0,
2026-03-31 19:53:00,METAR KHVN 311953Z 19016G22KT 9SM FEW050 18/10 A2991 RMK AO2 SLP126 T01830100,0,16.0,1,14481,0,0,0,
2026-03-31 18:53:00,METAR KHVN 311853Z 18017KT 9SM SCT150 19/10 A2992 RMK AO2 SLP130 T01890100,0,17.0,0,14481,0,0,0,
2026-03-31 17:53:00,METAR KHVN 311753Z 21011G16KT 9SM FEW120 18/09 A2996 RMK AO2 SLP144 T01780094 10183 20094 58007,0,11.0,1,14481,0,0,0,
2026-03-31 16:53:00,METAR KHVN 311653Z 23007G15KT 9SM FEW120 16/09 A2998 RMK AO2 SLP152 T01610089,0,7.0,1,14481,0,0,0,
2026-03-31 15:53:00,METAR KHVN 311553Z 23011G17KT 9SM SCT110 17/09 A2998 RMK AO2 SLP151 T01670094,0,11.0,1,14481,0,0,0,
2026-03-31 14:53:00,METAR KHVN 311453Z 25009KT 9SM CLR 14/09 A2998 RMK AO2 SLP151 T01440094 58014,0,9.0,0,14481,0,0,0,
2026-03-31 13:53:00,METAR KHVN 311353Z 23005KT 7SM CLR 13/09 A3000 RMK AO2 SLP158 T01280089,0,5.0,0,11263,0,0,0,
2026-03-31 12:53:00,METAR KHVN 311253Z 22003KT 6SM BR FEW120 11/08 A3001 RMK AO2 SLP161 T01060083,0,3.0,0,9654,0,0,1,BR
2026-03-31 11:53:00,METAR KHVN 311153Z 00000KT 5SM BR BKN085 BKN110 09/08 A3002 RMK AO2 SLP165 60007 70007 T00940078 10100 20083 55001 $,0,0.0,0,8045,0,0,1,BR
2026-03-31 10:53:00,METAR KHVN 311053Z 15003KT 6SM BR FEW085 BKN110 08/07 A3002 RMK AO2 SLP164 T00830072 $,0,3.0,0,9654,0,0,1,BR
2026-03-31 09:53:00,METAR KHVN 310953Z 00000KT 6SM BR SCT060 BKN090 09/08 A3001 RMK AO2 RAE38 SLP163 P0004 T00890078 $,0,0.0,0,9654,0,0,1,BR
2026-03-31 09:08:00,SPECI KHVN 310908Z AUTO 00000KT 6SM -RA BR OVC060 09/07 A3003 RMK AO2 P0002 T00890072 $,0,0.0,0,9654,0,0,1,"-RA,BR"
2026-03-31 09:01:00,SPECI KHVN 310901Z AUTO 00000KT 2 1/2SM -RA BR BKN060 OVC070 09/07 A3002 RMK AO2 P0002 T00890072 $,0,0.0,0,4022,0,0,1,"-RA,BR"
2026-03-31 08:53:00,METAR KHVN 310853Z AUTO 16004KT 3SM -RA BR BKN065 OVC080 09/07 A3003 RMK AO2 RAB50 SLP167 P0003 60003 T00940072 55009 $,0,4.0,0,4827,0,0,1,"-RA,BR"
2026-03-31 07:53:00,METAR KHVN 310753Z AUTO 00000KT 8SM BKN070 BKN095 OVC110 09/07 A3001 RMK AO2 SLP163 T00940067 $,0,0.0,0,12872,0,0,0,
2026-03-31 06:53:00,METAR KHVN 310653Z AUTO 00000KT 8SM OVC090 10/07 A3003 RMK AO2 SLP170 T01000067 $,0,0.0,0,12872,0,0,0,
2026-03-31 05:53:00,METAR KHVN 310553Z AUTO 00000KT 8SM SCT090 BKN110 09/06 A3005 RMK AO2 SLP176 T00940061 10122 20094 58010 $,0,0.0,0,12872,0,0,0,
2026-03-31 04:53:00,METAR KHVN 310453Z AUTO 24003KT 9SM OVC090 11/07 A3007 RMK AO2 SLP181 T01060067 401720033 $,0,3.0,0,14481,0,0,0,
2026-03-31 03:53:00,METAR KHVN 310353Z AUTO 24004KT 9SM BKN080 OVC110 11/07 A3008 RMK AO2 SLP186 T01110072 $,0,4.0,0,14481,0,0,0,
2026-03-31 02:53:00,METAR KHVN 310253Z AUTO 24004KT 9SM BKN075 OVC100 11/07 A3008 RMK AO2 SLP186 T01110067 50009 $,0,4.0,0,14481,0,0,0,
2026-03-31 01:53:00,METAR KHVN 310153Z VRB04KT 9SM BKN100 11/06 A3009 RMK AO2 SLP187 T01060061 $,0,4.0,0,14481,0,0,0,
2026-03-31 00:53:00,METAR KHVN 310053Z 22006KT 9SM CLR 12/06 A3008 RMK AO2 SLP184 T01170061 $,0,6.0,0,14481,0,0,0,
2026-03-30 23:53:00,METAR KHVN 302353Z 21004KT 9SM CLR 11/06 A3005 RMK AO2 SLP177 T01110061 10172 20100 53007 $,0,4.0,0,14481,0,0,0,
2026-03-30 22:53:00,METAR KHVN 302253Z 19012KT 8SM CLR 11/06 A3003 RMK AO2 SLP168 T01110061 $,0,12.0,0,12872,0,0,0,
2026-03-30 21:53:00,METAR KHVN 302153Z 19014G21KT 9SM CLR 13/06 A3003 RMK AO2 SLP169 T01280061 $,0,14.0,1,14481,0,0,0,
2026-03-30 20:53:00,METAR KHVN 302053Z 21010G18KT 10SM CLR 15/06 A3003 RMK AO2 SLP170 T01500056 56020 $,0,10.0,1,16090,0,0,0,
2026-03-30 19:53:00,METAR KHVN 301953Z 18008KT 10SM CLR 16/06 A3004 RMK AO2 SLP172 T01560061 $,0,8.0,0,16090,0,0,0,
2026-03-30 18:53:00,METAR KHVN 301853Z 20010G15KT 10SM CLR 17/05 A3006 RMK AO2 SLP179 T01670050 $,0,10.0,1,16090,0,0,0,
2026-03-30 17:53:00,METAR KHVN 301753Z 21010KT 10SM CLR 14/05 A3009 RMK AO2 SLP190 T01440050 10144 20061 58027 $,0,10.0,0,16090,0,0,0,
2026-03-30 16:53:00,METAR KHVN 301653Z 23010G18KT 10SM CLR 12/05 A3012 RMK AO2 SLP200 T01220050 $,0,10.0,1,16090,0,0,0,
2026-03-30 15:53:00,METAR KHVN 301553Z 22008G19KT 10SM FEW100 12/06 A3015 RMK AO2 SLP208 T01170056 $,0,8.0,1,16090,0,0,0,
2026-03-30 14:53:00,METAR KHVN 301453Z 24007KT 10SM CLR 10/06 A3017 RMK AO2 SLP217 T01000056 58015 $,0,7.0,0,16090,0,0,0,
2026-03-30 13:53:00,METAR KHVN 301353Z VRB04KT 8SM OVC090 08/05 A3020 RMK AO2 SLP225 T00780050 $,0,4.0,0,12872,0,0,0,
2026-03-30 12:53:00,METAR KHVN 301253Z 20004KT 8SM OVC090 07/05 A3020 RMK AO2 SLP227 T00670050 $,0,4.0,0,12872,0,0,0,
2026-03-30 11:53:00,METAR KHVN 301153Z 17003KT 8SM BKN095 06/04 A3022 RMK AO2 SLP232 T00610044 10061 20033 56011 $,0,3.0,0,12872,0,0,0,
2026-03-30 10:53:00,METAR KHVN 301053Z 18003KT 8SM OVC100 06/04 A3023 RMK AO2 SLP236 T00560039 $,0,3.0,0,12872,0,0,0,
2026-03-30 09:53:00,METAR KHVN 300953Z 18003KT 10SM SCT120 05/03 A3024 RMK AO2 SLP239 T00500033 $,0,3.0,0,16090,0,0,0,
2026-03-30 08:53:00,METAR KHVN 300853Z AUTO 00000KT 10SM CLR 04/03 A3025 RMK AO2 SLP243 T00440028 56033 $,0,0.0,0,16090,0,0,0,
2026-03-30 07:53:00,METAR KHVN 300753Z AUTO 18003KT 10SM CLR 04/02 A3028 RMK AO2 SLP253 T00440022 $,0,3.0,0,16090,0,0,0,
2026-03-30 06:53:00,METAR KHVN 300653Z AUTO 17003KT 10SM CLR 05/02 A3032 RMK AO2 SLP266 T00500022 $,0,3.0,0,16090,0,0,0,
2026-03-30 05:53:00,METAR KHVN 300553Z AUTO 17003KT 10SM CLR 04/02 A3035 RMK AO2 SLP276 T00440017 10061 20044 58016 $,0,3.0,0,16090,0,0,0,
2026-03-30 04:53:00,METAR KHVN 300453Z AUTO 22003KT 10SM CLR 06/02 A3037 RMK AO2 SLP284 T00560017 400891056 $,0,3.0,0,16090,0,0,0,
2026-03-30 03:53:00,METAR KHVN 300353Z AUTO VRB03KT 10SM SCT120 06/01 A3039 RMK AO2 SLP290 T00560011 $,0,3.0,0,16090,0,0,0,
2026-03-30 02:53:00,METAR KHVN 300253Z AUTO VRB04KT 10SM CLR 06/01 A3039 RMK AO2 SLP292 T00560006 58007 $,0,4.0,0,16090,0,0,0,
2026-03-30 01:53:00,METAR KHVN 300153Z 23004KT 10SM CLR 06/M01 A3040 RMK AO2 SLP293 T00561006 $,0,4.0,0,16090,0,0,0,
2026-03-30 00:53:00,METAR KHVN 300053Z 00000KT 10SM CLR 06/M01 A3041 RMK AO2 SLP298 T00561006 $,0,0.0,0,16090,0,0,0,
2026-03-29 23:53:00,METAR KHVN 292353Z 21009KT 10SM CLR 06/M01 A3042 RMK AO2 SLP299 T00611011 10089 20056 $,0,9.0,0,16090,0,0,0,
2026-03-29 22:53:00,METAR KHVN 292253Z 20006KT 10SM CLR 07/M01 A3043 RMK AO2 SLP302 T00671006 $,0,6.0,0,16090,0,0,0,
2026-03-29 21:53:00,METAR KHVN 292153Z 21011G17KT 10SM CLR 08/M01 A3042 RMK AO2 SLP301 T00781011 $,0,11.0,1,16090,0,0,0,
2026-03-29 20:53:00,METAR KHVN 292053Z 20010G19KT 10SM CLR 08/M03 A3043 RMK AO2 SLP303 T00831033 56023 $,0,10.0,1,16090,0,0,0,
2026-03-29 19:53:00,METAR KHVN 291953Z 20009G15KT 180V240 10SM CLR 08/M04 A3044 RMK AO2 SLP307 T00831039 $,0,9.0,1,16090,0,0,0,
2026-03-29 18:53:00,METAR KHVN 291853Z 21012KT 10SM CLR 08/M01 A3046 RMK AO2 SLP314 T00831006 $,0,12.0,0,16090,0,0,0,
2026-03-29 17:53:00,METAR KHVN 291753Z 18007KT 10SM CLR 07/M03 A3050 RMK AO2 SLP326 T00671033 10067 21017 58034 $,0,7.0,0,16090,0,0,0,
2026-03-29 16:53:00,METAR KHVN 291653Z 17008KT 10SM CLR 06/M04 A3053 RMK AO2 SLP339 T00611044 $,0,8.0,0,16090,0,0,0,
2026-03-29 14:53:00,METAR KHVN 291453Z 21009KT 10SM CLR 04/M07 A3060 RMK AO2 SLP360 T00441072 50002 $,0,9.0,0,16090,0,0,0,
2026-03-29 13:53:00,METAR KHVN 291353Z 23006KT 10SM CLR 04/M06 A3060 RMK AO2 SLP362 T00391061 $,0,6.0,0,16090,0,0,0,
2026-03-29 12:53:00,METAR KHVN 291253Z 25004KT 10SM CLR 03/M05 A3059 RMK AO2 SLP359 T00281050 $,0,4.0,0,16090,0,0,0,
2026-03-29 11:53:00,METAR KHVN 291153Z 00000KT 10SM OVC090 M02/M05 A3059 RMK AO2 SLP358 T10171050 11017 21056 51012 $,0,0.0,0,16090,0,0,0,
2026-03-29 10:53:00,METAR KHVN 291053Z 00000KT 10SM OVC100 M03/M07 A3058 RMK AO2 SLP355 T10331072 $,0,0.0,0,16090,0,0,0,
2026-03-29 09:53:00,METAR KHVN 290953Z 00000KT 10SM OVC110 M04/M08 A3057 RMK AO2 SLP350 T10441078 $,0,0.0,0,16090,0,0,0,
2026-03-29 08:53:00,METAR KHVN 290853Z AUTO 00000KT 10SM CLR M05/M08 A3056 RMK AO2 SLP346 T10501078 53004 $,0,0.0,0,16090,0,0,0,
2026-03-29 07:53:00,METAR KHVN 290753Z AUTO 00000KT 10SM CLR M04/M08 A3055 RMK AO2 SLP344 T10391078 $,0,0.0,0,16090,0,0,0,
2026-03-29 06:53:00,METAR KHVN 290653Z AUTO 00000KT 10SM CLR M03/M06 A3054 RMK AO2 SLP342 T10331061 $,0,0.0,0,16090,0,0,0,
2026-03-29 05:53:00,METAR KHVN 290553Z AUTO 35003KT 10SM CLR M03/M06 A3054 RMK AO2 SLP342 T10281061 10028 21033 51013 $,0,3.0,0,16090,0,0,0,
2026-03-29 04:53:00,METAR KHVN 290453Z AUTO 00000KT 10SM CLR M02/M09 A3054 RMK AO2 SLP341 T10171089 400501017 $,0,0.0,0,16090,0,0,0,
2026-03-29 03:53:00,METAR KHVN 290353Z AUTO 00000KT 10SM CLR M02/M10 A3053 RMK AO2 SLP337 T10171100 $,0,0.0,0,16090,0,0,0,
2026-03-29 02:53:00,METAR KHVN 290253Z AUTO 31004KT 10SM CLR 02/M12 A3051 RMK AO2 SLP329 T00171122 51023 $,0,4.0,0,16090,0,0,0,
2026-03-29 01:53:00,METAR KHVN 290153Z 34004KT 10SM CLR 02/M13 A3049 RMK AO2 SLP324 T00171133 $,0,4.0,0,16090,0,0,0,
2026-03-29 00:53:00,METAR KHVN 290053Z 32004KT 10SM CLR 02/M13 A3047 RMK AO2 SLP319 T00221128 $,0,4.0,0,16090,0,0,0,
2026-03-28 23:53:00,METAR KHVN 282353Z 33006KT 10SM CLR 03/M13 A3044 RMK AO2 SLP306 T00281128 10050 20028 53016 $,0,6.0,0,16090,0,0,0,
2026-03-28 22:53:00,METAR KHVN 282253Z 32010G17KT 300V360 10SM CLR 03/M13 A3042 RMK AO2 SLP300 T00331128 $,0,10.0,1,16090,0,0,0,
2026-03-28 21:53:00,METAR KHVN 282153Z 30009G22KT 10SM FEW080 04/M13 A3040 RMK AO2 SLP294 T00441128 $,0,9.0,1,16090,0,0,0,
2026-03-28 20:53:00,METAR KHVN 282053Z VRB05KT 10SM OVC090 04/M12 A3039 RMK AO2 SLP290 T00441122 56004 $,0,5.0,0,16090,0,0,0,
2026-03-28 19:53:00,METAR KHVN 281953Z 30008G17KT 270V330 10SM SCT095 04/M13 A3039 RMK AO2 SLP291 T00391128 $,0,8.0,1,16090,0,0,0,
2026-03-28 18:53:00,METAR KHVN 281853Z 36011G18KT 10SM BKN075 04/M14 A3039 RMK AO2 SLP292 T00391144 $,0,11.0,1,16090,0,0,0,
2026-03-28 17:53:00,METAR KHVN 281753Z 33013G25KT 10SM SCT045 03/M15 A3040 RMK AO2 PK WND 30026/1709 SLP294 T00331150 10039 21011 58002 $,0,13.0,1,16090,0,0,0,
2026-03-28 16:53:00,METAR KHVN 281653Z 36013G19KT 10SM CLR 03/M14 A3041 RMK AO2 SLP296 T00331144 $,0,13.0,1,16090,0,0,0,
2026-03-28 15:53:00,METAR KHVN 281553Z 33010G20KT 10SM CLR 03/M16 A3041 RMK AO2 SLP296 T00281161 $,0,10.0,1,16090,0,0,0,
2026-03-28 14:53:00,METAR KHVN 281453Z 01011G20KT 10SM CLR 02/M15 A3041 RMK AO2 SLP296 T00171150 51023 $,0,11.0,1,16090,0,0,0,
2026-03-28 13:53:00,METAR KHVN 281353Z 02013G20KT 10SM SCT075 01/M12 A3040 RMK AO2 SLP292 T00111122 $,0,13.0,1,16090,0,0,0,
2026-03-28 12:53:00,METAR KHVN 281253Z 02012G20KT 10SM OVC070 M01/M12 A3037 RMK AO2 SLP283 T10061122 $,0,12.0,1,16090,0,0,0,
2026-03-28 11:53:00,METAR KHVN 281153Z 36011G21KT 10SM BKN065 M01/M12 A3034 RMK AO2 SLP273 T10061122 10017 21006 53037 $,0,11.0,1,16090,0,0,0,
2026-03-28 10:53:00,METAR KHVN 281053Z 02009KT 10SM BKN070 M01/M12 A3030 RMK AO2 SLP259 T10061122 $,0,9.0,0,16090,0,0,0,
2026-03-28 09:53:00,METAR KHVN 280953Z 35010KT 10SM OVC070 01/M12 A3026 RMK AO2 SLP246 T00061117 $,0,10.0,0,16090,0,0,0,
2026-03-28 08:53:00,METAR KHVN 280853Z AUTO 35007KT 10SM OVC070 01/M12 A3023 RMK AO2 SLP236 T00111117 53010 $,0,7.0,0,16090,0,0,0,
2026-03-28 07:53:00,METAR KHVN 280753Z AUTO 36009KT 10SM OVC070 01/M12 A3021 RMK AO2 SLP230 T00111122 $,0,9.0,0,16090,0,0,0,
2026-03-28 06:53:00,METAR KHVN 280653Z AUTO 01008KT 10SM OVC070 02/M12 A3021 RMK AO2 SLP229 T00171117 $,0,8.0,0,16090,0,0,0,
2026-03-28 05:53:00,METAR KHVN 280553Z AUTO 02009KT 10SM OVC070 02/M12 A3020 RMK AO2 SLP226 T00171122 10067 20006 51012 $,0,9.0,0,16090,0,0,0,
2026-03-28 04:53:00,METAR KHVN 280453Z AUTO 01008KT 10SM OVC065 02/M10 A3020 RMK AO2 SLP225 T00221100 401390006 $,0,8.0,0,16090,0,0,0,
2026-03-28 03:53:00,METAR KHVN 280353Z AUTO 03003KT 10SM BKN060 01/M08 A3018 RMK AO2 SLP219 T00061078 $,0,3.0,0,16090,0,0,0,
2026-03-28 02:53:00,METAR KHVN 280253Z AUTO 36003KT 10SM CLR 01/M09 A3016 RMK AO2 SLP213 T00111094 51018 $,0,3.0,0,16090,0,0,0,
2026-03-28 01:53:00,METAR KHVN 280153Z 01004KT 10SM CLR 02/M09 A3015 RMK AO2 SLP210 T00221094 $,0,4.0,0,16090,0,0,0,
2026-03-28 00:53:00,METAR KHVN 280053Z 36007KT 10SM CLR 05/M10 A3015 RMK AO2 SLP207 T00501100 $,0,7.0,0,16090,0,0,0,
2026-03-27 23:53:00,METAR KHVN 272353Z 01007KT 10SM CLR 07/M09 A3011 RMK AO2 SLP196 T00671094 10094 20067 51021 $,0,7.0,0,16090,0,0,0,
2026-03-27 22:53:00,METAR KHVN 272253Z 02007KT 10SM CLR 07/M09 A3010 RMK AO2 SLP190 T00671089 $,0,7.0,0,16090,0,0,0,
2026-03-27 21:53:00,METAR KHVN 272153Z 32005KT 10SM SCT120 07/M06 A3008 RMK AO2 SLP184 T00721061 $,0,5.0,0,16090,0,0,0,
2026-03-27 20:53:00,METAR KHVN 272053Z 36006KT 10SM OVC120 08/M07 A3005 RMK AO2 SLP175 T00781067 50002 $,0,6.0,0,16090,0,0,0,
2026-03-27 19:53:00,METAR KHVN 271953Z 01010G18KT 10SM CLR 08/M06 A3005 RMK AO2 SLP176 T00831061 $,0,10.0,1,16090,0,0,0,
2026-03-27 18:53:00,METAR KHVN 271853Z 01012G17KT 10SM CLR 08/M06 A3004 RMK AO2 SLP173 T00831061 $,0,12.0,1,16090,0,0,0,
2026-03-27 17:53:00,METAR KHVN 271753Z 34012G24KT 10SM BKN049 09/M06 A3004 RMK AO2 PK WND 02028/1719 SLP173 T00891056 10122 20089 51025 $,0,12.0,1,16090,0,0,0,
2026-03-27 16:53:00,METAR KHVN 271653Z 03013G25KT 10SM BKN049 10/M03 A3003 RMK AO2 SLP168 T01001033 $,0,13.0,1,16090,0,0,0,
2026-03-25 14:53:00,METAR KHVN 251453Z 21006KT 10SM OVC250 06/M02 A3040 RMK AO2 SLP294 T00561017 55002,0,6.0,0,16090,0,0,0,
2026-03-25 14:09:00,SPECI KHVN 251409Z 21004KT 10SM OVC250 04/M02 A3040 RMK AO2 T00441017,0,4.0,0,16090,0,0,0,
2026-03-25 13:53:00,METAR KHVN 251353Z 04004KT 10SM CLR 06/M05 A3039 RMK AO2 SLP291 T00561050,0,4.0,0,16090,0,0,0,
2026-03-25 12:53:00,METAR KHVN 251253Z 00000KT 10SM CLR 03/M03 A3041 RMK AO2 SLP297 T00331028,0,0.0,0,16090,0,0,0,
2026-03-25 11:53:00,METAR KHVN 251153Z COR 00000KT 8SM CLR 00/M02 A3041 RMK AO2 SLP296 T00001017 10033 21022 53017 $,0,0.0,0,12872,0,0,0,
2026-03-25 10:53:00,METAR KHVN 251053Z 00000KT 8SM CLR M02/M03 A3038 RMK AO2 SLP287 T10221033 $,0,0.0,0,12872,0,0,0,
2026-03-25 09:53:00,METAR KHVN 250953Z 00000KT 10SM CLR M01/M03 A3036 RMK AO2 SLP281 T10111028 $,0,0.0,0,16090,0,0,0,
2026-03-25 08:53:00,METAR KHVN 250853Z AUTO 35004KT 10SM CLR 02/M01 A3036 RMK AO2 SLP279 T00171011 53004 $,0,4.0,0,16090,0,0,0,
2026-03-25 07:53:00,METAR KHVN 250753Z AUTO 23004KT 10SM CLR 03/00 A3033 RMK AO2 SLP270 T00280000 $,0,4.0,0,16090,0,0,0,
2026-03-25 06:53:00,METAR KHVN 250653Z AUTO 23004KT 10SM CLR 03/00 A3033 RMK AO2 SLP270 T00330000 $,0,4.0,0,16090,0,0,0,
2026-03-25 05:53:00,METAR KHVN 250553Z AUTO VRB04KT 10SM CLR 03/M01 A3034 RMK AO2 SLP274 T00331006 10039 20028 55004 $,0,4.0,0,16090,0,0,0,
2026-03-25 04:53:00,METAR KHVN 250453Z AUTO 22006KT 10SM CLR 03/M02 A3034 RMK AO2 SLP273 T00281017 400781006 $,0,6.0,0,16090,0,0,0,
2026-03-25 03:53:00,METAR KHVN 250353Z AUTO 23007KT 10SM CLR 03/M02 A3034 RMK AO2 SLP275 T00331022 $,0,7.0,0,16090,0,0,0,
2026-03-25 02:53:00,METAR KHVN 250253Z AUTO 23007KT 10SM CLR 03/M04 A3035 RMK AO2 SLP278 T00331039 51008 $,0,7.0,0,16090,0,0,0,
2026-03-25 01:53:00,METAR KHVN 250153Z 23006KT 10SM CLR 03/M04 A3035 RMK AO2 SLP276 T00331039 $,0,6.0,0,16090,0,0,0,
2026-03-25 00:53:00,METAR KHVN 250053Z 23005KT 10SM CLR 04/M03 A3034 RMK AO2 SLP275 T00391033 $,0,5.0,0,16090,0,0,0,
2026-03-24 23:53:00,METAR KHVN 242353Z 21007KT 10SM CLR 04/M04 A3033 RMK AO2 SLP270 T00391039 10078 20039 53005 $,0,7.0,0,16090,0,0,0,
2026-03-24 22:53:00,METAR KHVN 242253Z 21008KT 10SM CLR 05/M04 A3032 RMK AO2 SLP267 T00501044 $,0,8.0,0,16090,0,0,0,
2026-03-24 21:53:00,METAR KHVN 242153Z 21006KT 10SM CLR 06/M08 A3032 RMK AO2 SLP265 T00611083 $,0,6.0,0,16090,0,0,0,
2026-03-24 20:53:00,METAR KHVN 242053Z 22008KT 10SM CLR 06/M04 A3032 RMK AO2 SLP265 T00611044 55008 $,0,8.0,0,16090,0,0,0,
2026-03-24 19:53:00,METAR KHVN 241953Z 21010G19KT 10SM CLR 06/M06 A3031 RMK AO2 WSHFT 1843 SLP263 T00611056 $,0,10.0,1,16090,0,0,0,
2026-03-24 19:03:00,SPECI KHVN 241903Z 19009KT 10SM CLR 06/M02 A3031 RMK AO2 WSHFT 1843 T00611022 $,0,9.0,0,16090,0,0,0,
2026-03-24 18:53:00,METAR KHVN 241853Z 18012KT 10SM CLR 07/M02 A3031 RMK AO2 SLP264 T00671022 $,0,12.0,0,16090,0,0,0,
2026-03-24 17:53:00,METAR KHVN 241753Z 28006KT 10SM CLR 07/M10 A3034 RMK AO2 SLP273 T00721100 10078 20006 58012 $,0,6.0,0,16090,0,0,0,
2026-03-24 16:53:00,METAR KHVN 241653Z 30007KT 10SM CLR 07/M11 A3037 RMK AO2 SLP283 T00671106 $,0,7.0,0,16090,0,0,0,
2026-03-24 15:53:00,METAR KHVN 241553Z 02009G19KT 10SM CLR 06/M08 A3038 RMK AO2 SLP285 T00611083 $,0,9.0,1,16090,0,0,0,
2026-03-24 14:53:00,METAR KHVN 241453Z 01011G18KT 10SM CLR 05/M08 A3037 RMK AO2 SLP285 T00501083 53010 $,0,11.0,1,16090,0,0,0,
2026-03-24 13:53:00,METAR KHVN 241353Z 35010G21KT 10SM CLR 04/M08 A3036 RMK AO2 SLP282 T00391078 $,0,10.0,1,16090,0,0,0,
2026-03-24 12:53:00,METAR KHVN 241253Z 33008G16KT 10SM CLR 02/M08 A3035 RMK AO2 SLP277 T00221078 $,0,8.0,1,16090,0,0,0,
2026-03-24 11:53:00,METAR KHVN 241153Z 34008KT 10SM CLR 01/M08 A3035 RMK AO2 SLP275 70002 T00061078 10011 21006 53029 $,0,8.0,0,16090,0,0,0,
2026-03-24 10:53:00,METAR KHVN 241053Z 36005KT 10SM CLR 00/M08 A3031 RMK AO2 SLP265 T00001078 $,0,5.0,0,16090,0,0,0,
2026-03-24 09:53:00,METAR KHVN 240953Z 35006KT 10SM CLR 00/M08 A3028 RMK AO2 SLP254 T00001078 $,0,6.0,0,16090,0,0,0,
2026-03-24 08:53:00,METAR KHVN 240853Z AUTO 36007KT 10SM CLR 00/M07 A3026 RMK AO2 SLP246 T00001072 53021 $,0,7.0,0,16090,0,0,0,
2026-03-24 07:53:00,METAR KHVN 240753Z AUTO 33005KT 10SM CLR 01/M07 A3023 RMK AO2 SLP237 T00061072 $,0,5.0,0,16090,0,0,0,
2026-03-24 06:53:00,METAR KHVN 240653Z AUTO 36005KT 10SM CLR 01/M07 A3022 RMK AO2 SLP233 T00061067 $,0,5.0,0,16090,0,0,0,
2026-03-24 05:53:00,METAR KHVN 240553Z AUTO 33013G21KT 10SM CLR 01/M07 A3020 RMK AO2 SLP225 T00111067 10039 20011 52018 $,0,13.0,1,16090,0,0,0,
2026-03-24 04:53:00,METAR KHVN 240453Z AUTO 34013G23KT 10SM FEW041 02/M05 A3018 RMK AO2 SLP219 T00171050 400940017 $,0,13.0,1,16090,0,0,0,
2026-03-24 03:53:00,METAR KHVN 240353Z AUTO 33010G21KT 10SM SCT041 02/M04 A3016 RMK AO2 SLP212 T00171044 $,0,10.0,1,16090,0,0,0,
2026-03-24 02:53:00,METAR KHVN 240253Z AUTO 34013G25KT 10SM FEW030 OVC070 03/M03 A3014 RMK AO2 SLP207 T00281033 51033 $,0,13.0,1,16090,0,0,0,
2026-03-24 02:23:00,SPECI KHVN 240223Z AUTO 34010G24KT 10SM SCT030 OVC070 03/M03 A3013 RMK AO2 T00331028 $,0,10.0,1,16090,0,0,0,
2026-03-24 02:05:00,SPECI KHVN 240205Z AUTO 34009G17KT 10SM BKN029 OVC065 03/M02 A3012 RMK AO2 T00331022 $,0,9.0,1,16090,0,0,0,
2026-03-24 01:53:00,METAR KHVN 240153Z 33004G16KT 10SM SCT028 OVC060 03/M02 A3012 RMK AO2 SLP197 T00331022 $,0,4.0,1,16090,0,0,0,
2026-03-24 00:53:00,METAR KHVN 240053Z 33011G17KT 10SM OVC060 04/M02 A3009 RMK AO2 SLP188 T00391022 $,0,11.0,1,16090,0,0,0,
2026-03-23 23:53:00,METAR KHVN 232353Z 33011G17KT 10SM OVC047 04/M02 A3005 RMK AO2 SLP174 60000 T00391017 10050 20039 52042 $,0,11.0,1,16090,0,0,0,
2026-03-23 22:53:00,METAR KHVN 232253Z 33009G19KT 10SM OVC033 04/M01 A3000 RMK AO2 SLP159 T00391006 $,0,9.0,1,16090,0,0,0,
2026-03-23 21:53:00,METAR KHVN 232153Z 35006KT 8SM OVC017 04/02 A2996 RMK AO2 RAB43E53 SLP146 P0000 T00390017 $,0,6.0,0,12872,0,0,0,RA
2026-03-23 21:28:00,SPECI KHVN 232128Z 32009KT 8SM SCT019 BKN028 OVC047 04/01 A2995 RMK AO2 T00440011 $,0,9.0,0,12872,0,0,0,
2026-03-23 20:53:00,METAR KHVN 232053Z 35006KT 10SM OVC055 04/02 A2992 RMK AO2 SLP132 60000 T00440017 53020 $,0,6.0,0,16090,0,0,0,
2026-03-23 19:53:00,METAR KHVN 231953Z 36011KT 10SM FEW015 BKN041 OVC050 04/02 A2989 RMK AO2 RAB03E29 SLP122 P0000 T00390017 $,0,11.0,0,16090,0,0,0,RA
2026-03-23 18:53:00,METAR KHVN 231853Z 34006KT 4SM BR BKN013 OVC020 04/02 A2988 RMK AO2 SLP118 T00390017 $,0,6.0,0,6436,0,0,1,BR
2026-03-23 18:33:00,SPECI KHVN 231833Z 35010KT 9SM BKN013 BKN022 OVC033 04/02 A2987 RMK AO2 T00390017 $,0,10.0,0,14481,0,0,0,
2026-03-23 18:23:00,SPECI KHVN 231823Z 36008KT 9SM SCT011 BKN018 OVC033 04/02 A2987 RMK AO2 T00440022 $,0,8.0,0,14481,0,0,0,
2026-03-23 18:00:00,SPECI KHVN 231800Z 35009G16KT 5SM BR BKN011 BKN018 OVC031 04/02 A2986 RMK AO2 T00390022 $,0,9.0,1,8045,0,0,1,BR
2026-03-23 17:53:00,METAR KHVN 231753Z 01012KT 5SM BR OVC009 04/02 A2986 RMK AO2 SLP112 60002 T00390022 10044 20033 51017 $,0,12.0,0,8045,0,0,1,BR
2026-03-23 16:53:00,METAR KHVN 231653Z 01011KT 4SM BR OVC009 04/02 A2984 RMK AO2 SLP104 T00390022 $,0,11.0,0,6436,0,0,1,BR
2026-03-23 15:53:00,METAR KHVN 231553Z 36011KT 3SM BR OVC010 04/02 A2984 RMK AO2 SLP103 T00390017 $,0,11.0,0,4827,0,0,1,BR
2026-03-23 14:53:00,METAR KHVN 231453Z 02012G19KT 10SM OVC014 04/02 A2981 RMK AO2 SLP094 60002 T00390017 51028 $,0,12.0,1,16090,0,0,0,
2026-03-23 13:53:00,METAR KHVN 231353Z 01012G21KT 6SM BR BKN011 OVC015 03/02 A2978 RMK AO2 CIG 007V013 SLP085 P0001 T00330022 $,0,12.0,1,9654,0,0,1,BR
2026-03-23 13:22:00,SPECI KHVN 231322Z 01015KT 1 3/4SM BR BKN011 OVC031 04/03 A2976 RMK AO2 P0001 T00390028 $,0,15.0,0,2816,0,0,1,BR
2026-03-23 12:53:00,METAR KHVN 231253Z 01010KT 3SM BR OVC012 04/02 A2977 RMK AO2 RAE20 SLP080 P0001 T00390022 $,0,10.0,0,4827,0,0,1,BR
2026-03-23 11:53:00,METAR KHVN 231153Z 03010G18KT 4SM -RA BR SCT011 BKN025 OVC041 04/03 A2973 RMK AO2 SLP066 P0012 60065 70082 T00390028 10094 20039 58003 $,0,10.0,1,6436,0,0,1,"-RA,BR"
2026-03-23 10:53:00,METAR KHVN 231053Z 01012KT 4SM -RA BR SCT009 OVC023 04/04 A2974 RMK AO2 SLP070 P0016 T00440039 $,0,12.0,0,6436,0,0,1,"-RA,BR"
2026-03-23 09:53:00,METAR KHVN 230953Z 04012KT 4SM -RA BR FEW007 BKN016 OVC021 06/04 A2974 RMK AO2 SLP069 P0009 T00560039 $,0,12.0,0,6436,0,0,1,"-RA,BR"
2026-03-23 09:49:00,SPECI KHVN 230949Z AUTO 04011KT 4SM -RA BR FEW007 BKN014 OVC021 06/04 A2974 RMK AO2 P0008 $,0,11.0,0,6436,0,0,1,"-RA,BR"
2026-03-23 09:19:00,SPECI KHVN 230919Z AUTO 03009KT 4SM -RA BR BKN009 OVC016 06/05 A2973 RMK AO2 CIG 006V012 P0003 T00610050 $,0,9.0,0,6436,0,0,1,"-RA,BR"
2026-03-23 09:00:00,SPECI KHVN 230900Z AUTO 03012KT 6SM -RA BR FEW007 OVC016 06/05 A2972 RMK AO2 P0000 T00610050 $,0,12.0,0,9654,0,0,1,"-RA,BR"
2026-03-23 08:53:00,METAR KHVN 230853Z AUTO 02009KT 4SM RA BR SCT012 OVC018 06/06 A2974 RMK AO2 SLP069 P0017 60028 T00610056 50007 $,0,9.0,0,6436,0,0,1,"BR,RA"
2026-03-23 08:37:00,SPECI KHVN 230837Z AUTO 36008KT 5SM -RA BR FEW007 BKN018 OVC070 06/06 A2974 RMK AO2 PRESRR P0013 T00610056 $,0,8.0,0,8045,0,0,1,"-RA,BR"
2026-03-23 08:28:00,SPECI KHVN 230828Z AUTO 01009KT 4SM -RA BR FEW007 BKN050 OVC075 06/06 A2973 RMK AO2 P0012 T00610056 $,0,9.0,0,6436,0,0,1,"-RA,BR"
2026-03-23 07:57:00,SPECI KHVN 230757Z AUTO 01012KT 2 1/2SM RA BR SCT008 BKN033 OVC060 07/06 A2975 RMK AO2 P0001 T00670056 $,0,12.0,0,4022,0,0,1,"BR,RA"
2026-03-23 07:53:00,METAR KHVN 230753Z AUTO 01012G19KT 3SM RA BR SCT008 BKN019 OVC060 07/06 A2975 RMK AO2 SLP075 P0011 T00670056 $,0,12.0,1,4827,0,0,1,"BR,RA"
2026-03-23 07:48:00,SPECI KHVN 230748Z AUTO 36012G20KT 4SM RA BR BKN008 BKN019 OVC060 07/06 A2975 RMK AO2 PRESRR P0008 $,0,12.0,1,6436,0,0,1,"BR,RA"
2026-03-23 07:12:00,SPECI KHVN 230712Z AUTO 04011G19KT 6SM -RA BR FEW007 BKN034 OVC050 09/07 A2972 RMK AO2 P0002 T00890072 $,0,11.0,1,9654,0,0,1,"-RA,BR"
2026-03-23 07:01:00,SPECI KHVN 230701Z AUTO 03012KT 6SM -RA BR SCT009 BKN017 OVC034 09/08 A2973 RMK AO2 P0001 T00890078 $,0,12.0,0,9654,0,0,1,"-RA,BR"
2026-03-23 06:53:00,METAR KHVN 230653Z AUTO 03014G22KT 5SM -RA BR BKN007 BKN015 OVC033 09/08 A2972 RMK AO2 RAB46 CIG 006V011 SLP062 P0000 T00940083 $,0,14.0,1,8045,0,0,1,"-RA,BR"
2026-03-23 06:42:00,SPECI KHVN 230642Z AUTO 01010KT 5SM BR BKN009 OVC033 09/08 A2973 RMK AO2 CIG 007V014 T00940083 $,0,10.0,0,8045,0,0,1,BR
2026-03-23 06:11:00,SPECI KHVN 230611Z AUTO 34006KT 3SM BR SCT034 OVC045 09/08 A2972 RMK AO2 PRESRR T00890083 $,0,6.0,0,4827,0,0,1,BR
2026-03-23 05:53:00,METAR KHVN 230553Z AUTO 00000KT 2SM BR OVC044 08/08 A2970 RMK AO2 RAE02 SLP056 P0000 60016 T00830078 10089 20061 58016 $,0,0.0,0,3218,0,0,1,BR
2026-03-23 05:19:00,SPECI KHVN 230519Z AUTO 00000KT 2 1/2SM BR FEW042 SCT050 BKN110 08/08 A2970 RMK AO2 RAE02 P0000 T00830083 $,0,0.0,0,4022,0,0,1,BR
2026-03-23 04:53:00,METAR KHVN 230453Z AUTO 00000KT 3SM -RA BR FEW021 BKN045 OVC080 09/08 A2971 RMK AO2 RAB45 SLP062 P0001 T00890083 400890044 $,0,0.0,0,4827,0,0,1,"-RA,BR"
2026-03-23 04:45:00,SPECI KHVN 230445Z AUTO 36003KT 3SM -RA BR SCT020 OVC045 09/08 A2973 RMK AO2 RAB45 P0001 T00890083 $,0,3.0,0,4827,0,0,1,"-RA,BR"
2026-03-23 04:16:00,SPECI KHVN 230416Z AUTO 01004KT 3SM BR OVC019 08/08 A2974 RMK AO2 P0001 T00830083 $,0,4.0,0,4827,0,0,1,BR
2026-03-23 04:06:00,SPECI KHVN 230406Z AUTO 04004KT 2 1/2SM BR OVC018 08/08 A2973 RMK AO2 P0001 T00830078 $,0,4.0,0,4022,0,0,1,BR
2026-03-23 03:53:00,METAR KHVN 230353Z AUTO 04003KT 1 3/4SM BR SCT003 OVC020 08/08 A2974 RMK AO2 RAE0259B04E17 SLP070 P0000 T00830078 $,0,3.0,0,2816,0,0,1,"BR,RA"
2026-03-23 03:45:00,SPECI KHVN 230345Z AUTO 02005KT 2SM BR BKN003 OVC020 08/08 A2975 RMK AO2 RAE0259B04E17 P0000 T00830078 $,0,5.0,0,3218,0,0,1,"BR,RA"
2026-03-23 03:08:00,SPECI KHVN 230308Z AUTO 03004KT 3SM -RA BR BKN002 OVC018 07/06 A2975 RMK AO2 RAE0259B04 P0000 T00670061 $,0,4.0,0,4827,0,0,1,"-RA,BR,RA"
2026-03-23 03:01:00,SPECI KHVN 230301Z AUTO 02003KT 3SM BR SCT002 BKN021 OVC070 07/06 A2975 RMK AO2 RAE0259 P0000 T00670061 $,0,3.0,0,4827,0,0,1,"BR,RA"
2026-03-23 02:53:00,METAR KHVN 230253Z AUTO 00000KT 2 1/2SM -RA BR FEW002 BKN021 OVC100 07/06 A2975 RMK AO2 RAE15B34 SLP072 P0004 60015 T00670061 $,0,0.0,0,4022,0,0,1,"-RA,BR,RA"
2026-03-23 02:51:00,SPECI KHVN 230251Z AUTO 00000KT 2 1/2SM -RA BR FEW002 BKN023 OVC100 07/06 A2974 RMK AO2 RAE15B34 P0004 $,0,0.0,0,4022,0,0,1,"-RA,BR,RA"
2026-03-23 02:42:00,SPECI KHVN 230242Z AUTO 14004KT 2 1/2SM -RA BR SCT002 BKN032 OVC070 06/06 A2975 RMK AO2 RAE15B34 P0003 T00610061 $,0,4.0,0,4022,0,0,1,"-RA,BR,RA"
2026-03-23 02:15:00,SPECI KHVN 230215Z AUTO 19003KT 3SM BR BKN002 BKN043 OVC090 07/07 A2976 RMK AO2 RAE15 P0002 T00670067 $,0,3.0,0,4827,0,0,1,BR
2026-03-23 02:09:00,SPECI KHVN 230209Z AUTO 18003KT 2SM -RA BR FEW002 SCT040 OVC080 07/07 A2975 RMK AO2 P0002 T00720072 $,0,3.0,0,3218,0,0,1,"-RA,BR"
2026-03-23 02:00:00,SPECI KHVN 230200Z 00000KT 1 1/2SM RA BR FEW060 BKN075 OVC090 08/08 A2975 RMK AO2 P0002 T00780078 $,0,0.0,0,2414,0,0,1,"BR,RA"
2026-03-23 01:53:00,METAR KHVN 230153Z 00000KT 1 3/4SM RA BR BKN005 08/08 A2976 RMK AO2 RAB23 SLP076 P0010 T00780078 $,0,0.0,0,2816,0,0,1,"BR,RA"
2026-03-23 01:33:00,SPECI KHVN 230133Z 00000KT 1 3/4SM -RA BR BKN006 OVC080 08/07 A2977 RMK AO2 RAB23 P0005 T00780072 $,0,0.0,0,2816,0,0,1,"-RA,BR"
2026-03-23 01:03:00,SPECI KHVN 230103Z 19003KT 1 3/4SM -RA BR BKN006 BKN080 OVC090 08/08 A2977 RMK AO2 P0001 T00780078,0,3.0,0,2816,0,0,1,"-RA,BR"
2026-03-23 00:53:00,METAR KHVN 230053Z 18004KT 1 1/2SM -RA BR SCT004 OVC085 08/08 A2977 RMK AO2 RAB37 SLP080 P0001 T00830078,0,4.0,0,2414,0,0,1,"-RA,BR"
2026-03-22 23:53:00,METAR KHVN 222353Z 00000KT 1 1/2SM BR OVC002 08/08 A2969 RMK AO2 RAE21 SLP055 P0001 60001 T00780078 10089 20067 58005,0,0.0,0,2414,0,0,1,BR
2026-03-22 22:53:00,METAR KHVN 222253Z 00000KT 2SM -RA BR OVC003 08/08 A2976 RMK AO2 RAB53 SLP076 P0000 T00780078,0,0.0,0,3218,0,0,1,"-RA,BR"
2026-03-22 22:34:00,SPECI KHVN 222234Z 07003KT 2SM R02/5500VP6000FT BR OVC003 08/07 A2973 RMK AO2 T00780072,0,3.0,0,3218,0,0,1,BR
2026-03-22 22:15:00,SPECI KHVN 222215Z 00000KT 1/2SM R02/2800VP6000FT FG OVC003 07/07 A2971 RMK AO2 PRESRR T00720072,0,0.0,0,804,0,0,1,FG
2026-03-22 22:00:00,SPECI KHVN 222200Z 14004KT 2SM BR OVC003 08/07 A2969 RMK AO2 VIS 1 1/4V3 T00780072,0,4.0,0,3218,0,0,1,BR
2026-03-22 21:53:00,METAR KHVN 222153Z 13003KT 3SM BR OVC003 08/07 A2968 RMK AO2 SLP051 T00780072,0,3.0,0,4827,0,0,1,BR
2026-03-22 21:30:00,SPECI KHVN 222130Z 11003KT 4SM BR OVC003 08/08 A2969 RMK AO2 T00830078,0,3.0,0,6436,0,0,1,BR
2026-03-22 20:53:00,METAR KHVN 222053Z 06003KT 2SM BR OVC003 08/08 A2971 RMK AO2 SLP060 T00830078 56030,0,3.0,0,3218,0,0,1,BR
2026-03-22 19:53:00,METAR KHVN 221953Z VRB03KT 1 1/4SM R02/5000VP6000FT BR OVC002 07/07 A2975 RMK AO2 SLP073 T00720067,0,3.0,0,2011,0,0,1,BR
2026-03-22 19:34:00,SPECI KHVN 221934Z VRB05KT 1SM R02/5500VP6000FT BR OVC003 07/06 A2972 RMK AO2 T00670061,0,5.0,0,1609,0,0,1,BR
2026-03-22 18:53:00,METAR KHVN 221853Z 15005KT 2SM BR OVC003 08/07 A2972 RMK AO2 PRESFR SLP062 T00780072,0,5.0,0,3218,0,0,1,BR
2026-03-22 18:14:00,SPECI KHVN 221814Z 00000KT 1 1/4SM BR OVC003 07/07 A2980 RMK AO2 T00720067,0,0.0,0,2011,0,0,1,BR
2026-03-22 17:53:00,METAR KHVN 221753Z 00000KT 1 1/2SM BR OVC006 07/06 A2980 RMK AO2 SLP090 T00670061 10078 20050 56021,0,0.0,0,2414,0,0,1,BR
2026-03-22 17:36:00,SPECI KHVN 221736Z 19004KT 1 1/2SM BR OVC007 07/06 A2980 RMK AO2 T00670061,0,4.0,0,2414,0,0,1,BR
2026-03-22 17:21:00,SPECI KHVN 221721Z VRB04KT 2 1/2SM BR OVC009 07/06 A2980 RMK AO2 CIG 006V012 T00720056,0,4.0,0,4022,0,0,1,BR
2026-03-22 16:53:00,METAR KHVN 221653Z 15006KT 8SM OVC013 07/05 A2981 RMK AO2 SLP092 T00720050,0,6.0,0,12872,0,0,0,
2026-03-22 15:53:00,METAR KHVN 221553Z 15007KT 9SM OVC013 07/04 A2983 RMK AO2 SLP102 T00720044,0,7.0,0,14481,0,0,0,
2026-03-22 14:53:00,METAR KHVN 221453Z 14007KT 9SM OVC014 07/04 A2986 RMK AO2 SLP111 T00670039 56020,0,7.0,0,14481,0,0,0,
2026-03-22 13:53:00,METAR KHVN 221353Z 14007KT 9SM OVC014 06/04 A2988 RMK AO2 SLP116 T00610039,0,7.0,0,14481,0,0,0,
2026-03-22 12:53:00,METAR KHVN 221253Z 16010KT 10SM OVC014 06/03 A2989 RMK AO2 SLP119 T00560028,0,10.0,0,16090,0,0,0,
2026-03-22 11:53:00,METAR KHVN 221153Z 15007KT 10SM OVC014 05/02 A2992 RMK AO2 SLP131 T00500022 10050 20044 55012,0,7.0,0,16090,0,0,0,
2026-03-22 11:48:00,SPECI KHVN 221148Z 15008KT 10SM OVC014 05/02 A2992 RMK AO2,0,8.0,0,16090,0,0,0,
2026-03-22 10:53:00,METAR KHVN 221053Z 14009KT 10SM OVC016 04/02 A2994 RMK AO2 SLP138 T00440017,0,9.0,0,16090,0,0,0,
2026-03-22 09:53:00,METAR KHVN 220953Z 14008KT 10SM OVC018 04/02 A2995 RMK AO2 SLP142 T00440017,0,8.0,0,16090,0,0,0,
2026-03-22 08:53:00,METAR KHVN 220853Z AUTO 14007KT 10SM OVC026 04/02 A2999 RMK AO2 SLP156 T00440022 57004,0,7.0,0,16090,0,0,0,
2026-03-22 07:53:00,METAR KHVN 220753Z AUTO 12004KT 10SM BKN024 BKN070 OVC095 05/02 A3000 RMK AO2 SLP159 T00500017,0,4.0,0,16090,0,0,0,
2026-03-22 07:48:00,SPECI KHVN 220748Z AUTO 12005KT 10SM SCT024 BKN075 OVC095 05/02 A3000 RMK AO2,0,5.0,0,16090,0,0,0,
2026-03-22 07:05:00,SPECI KHVN 220705Z AUTO 10004KT 10SM BKN024 BKN110 05/02 A3001 RMK AO2 T00500022,0,4.0,0,16090,0,0,0,
2026-03-22 06:53:00,METAR KHVN 220653Z AUTO 09004KT 10SM SCT024 BKN110 05/02 A3001 RMK AO2 SLP160 T00500022,0,4.0,0,16090,0,0,0,
2026-03-22 05:53:00,METAR KHVN 220553Z AUTO 11006KT 10SM FEW023 SCT049 BKN120 05/03 A2999 RMK AO2 SLP155 T00500028 10083 20050 56003,0,6.0,0,16090,0,0,0,
2026-03-22 04:53:00,METAR KHVN 220453Z AUTO 07004KT 10SM OVC120 06/03 A3000 RMK AO2 SLP159 T00560028 401170050,0,4.0,0,16090,0,0,0,
2026-03-22 03:53:00,METAR KHVN 220353Z AUTO 10008KT 10SM SCT120 06/01 A2997 RMK AO2 SLP148 T00610011,0,8.0,0,16090,0,0,0,
2026-03-22 02:53:00,METAR KHVN 220253Z AUTO 07004KT 10SM CLR 07/M04 A3000 RMK AO2 SLP158 T00671044 53009,0,4.0,0,16090,0,0,0,
2026-03-22 01:53:00,METAR KHVN 220153Z 02007KT 10SM CLR 07/M04 A2999 RMK AO2 SLP153 T00721039,0,7.0,0,16090,0,0,0,
2026-03-22 00:53:00,METAR KHVN 220053Z 02009KT 10SM CLR 08/M03 A2997 RMK AO2 SLP148 T00781028,0,9.0,0,16090,0,0,0,
2026-03-21 23:53:00,METAR KHVN 212353Z 03009KT 10SM CLR 08/M03 A2997 RMK AO2 SLP149 T00831028 10117 20083 51018,0,9.0,0,16090,0,0,0,
2026-03-21 22:53:00,METAR KHVN 212253Z 35006KT 10SM CLR 09/M03 A2997 RMK AO2 SLP147 T00891028,0,6.0,0,16090,0,0,0,
2026-03-21 21:53:00,METAR KHVN 212153Z 02013KT 10SM CLR 09/M02 A2995 RMK AO2 SLP140 T00941022,0,13.0,0,16090,0,0,0,
2026-03-21 20:53:00,METAR KHVN 212053Z 36013G21KT 10SM CLR 11/M02 A2992 RMK AO2 SLP131 T01061022 53016,0,13.0,1,16090,0,0,0,
2026-03-21 19:53:00,METAR KHVN 211953Z 32010G18KT 10SM CLR 11/M02 A2990 RMK AO2 SLP124 T01111017,0,10.0,1,16090,0,0,0,
2026-03-21 18:53:00,METAR KHVN 211853Z 35014G22KT 10SM CLR 12/M01 A2988 RMK AO2 SLP119 T01171011,0,14.0,1,16090,0,0,0,
2026-03-21 17:53:00,METAR KHVN 211753Z 35013G19KT 10SM CLR 12/00 A2987 RMK AO2 SLP116 T01170000 10117 20078 58003,0,13.0,1,16090,0,0,0,
2026-03-21 16:53:00,METAR KHVN 211653Z 34015G25KT 10SM CLR 11/01 A2989 RMK AO2 SLP122 T01060006,0,15.0,1,16090,0,0,0,
2026-03-21 15:53:00,METAR KHVN 211553Z 36017G25KT 10SM CLR 11/02 A2988 RMK AO2 SLP117 T01060017,0,17.0,1,16090,0,0,0,
2026-03-21 14:53:00,METAR KHVN 211453Z 34013G22KT 10SM CLR 11/03 A2988 RMK AO2 SLP118 T01060028 53030,0,13.0,1,16090,0,0,0,
2026-03-21 13:53:00,METAR KHVN 211353Z 36016G21KT 10SM FEW027 BKN037 09/04 A2986 RMK AO2 SLP110 T00940039,0,16.0,1,16090,0,0,0,
2026-03-21 12:53:00,METAR KHVN 211253Z 01015G21KT 10SM FEW048 09/05 A2981 RMK AO2 SLP093 T00940050,0,15.0,1,16090,0,0,0,
2026-03-21 11:53:00,METAR KHVN 211153Z 34007KT 5SM BR FEW055 08/06 A2979 RMK AO2 SLP088 70008 T00780061 10078 20050 53017,0,7.0,0,8045,0,0,1,BR
2026-03-21 10:53:00,METAR KHVN 211053Z 35005KT 2 1/2SM BR OVC060 06/06 A2977 RMK AO2 SLP080 T00610056,0,5.0,0,4022,0,0,1,BR
2026-03-21 10:44:00,SPECI KHVN 211044Z 31003KT 2 1/2SM BR OVC060 06/05 A2976 RMK AO2 T00560050,0,3.0,0,4022,0,0,1,BR
2026-03-21 09:53:00,METAR KHVN 210953Z 33004KT 5SM BR OVC004 06/04 A2976 RMK AO2 SLP078 T00560044,0,4.0,0,8045,0,0,1,BR
2026-03-21 09:36:00,SPECI KHVN 210936Z AUTO 00000KT 5SM BR OVC004 06/04 A2975 RMK AO2 T00560044,0,0.0,0,8045,0,0,1,BR
2026-03-21 08:53:00,METAR KHVN 210853Z AUTO 30003KT 7SM OVC007 05/04 A2974 RMK AO2 SLP071 T00500039 53002,0,3.0,0,11263,0,0,0,
2026-03-21 07:53:00,METAR KHVN 210753Z AUTO 00000KT 7SM BKN008 OVC050 05/04 A2973 RMK AO2 CIG 007V011 SLP067 T00500039,0,0.0,0,11263,0,0,0,
2026-03-21 07:51:00,SPECI KHVN 210751Z AUTO 00000KT 7SM BKN008 OVC050 05/04 A2973 RMK AO2 CIG 007V011,0,0.0,0,11263,0,0,0,
2026-03-21 06:53:00,METAR KHVN 210653Z AUTO 00000KT 7SM OVC012 05/04 A2974 RMK AO2 SLP070 T00500044,0,0.0,0,11263,0,0,0,
2026-03-21 06:13:00,SPECI KHVN 210613Z AUTO 00000KT 8SM BKN013 OVC026 06/04 A2975 RMK AO2 T00560039,0,0.0,0,12872,0,0,0,
2026-03-21 05:53:00,METAR KHVN 210553Z AUTO 00000KT 7SM FEW019 BKN026 OVC032 06/04 A2975 RMK AO2 SLP075 60006 T00560044 10067 20050 57014,0,0.0,0,11263,0,0,0,
2026-03-21 04:53:00,METAR KHVN 210453Z AUTO 00000KT 8SM OVC026 06/04 A2976 RMK AO2 SLP079 T00560044 400941028,0,0.0,0,12872,0,0,0,
2026-03-21 04:35:00,SPECI KHVN 210435Z AUTO 00000KT 8SM OVC029 06/04 A2977 RMK AO2 T00560044,0,0.0,0,12872,0,0,0,
2026-03-21 03:53:00,METAR KHVN 210353Z AUTO 00000KT 6SM BR SCT027 OVC037 06/04 A2978 RMK AO2 RAB10E52 SLP085 P0002 T00560039,0,0.0,0,9654,0,0,1,"BR,RA"
2026-03-21 02:53:00,METAR KHVN 210253Z AUTO 00000KT 6SM BR OVC055 05/03 A2979 RMK AO2 RAB36E46 SLP089 P0000 60004 T00500033 58013,0,0.0,0,9654,0,0,1,"BR,RA"
2026-03-21 01:53:00,METAR KHVN 210153Z 22004KT 7SM BKN070 OVC085 06/03 A2983 RMK AO2 RAB11E47 SLP101 P0001 T00560033,0,4.0,0,11263,0,0,0,RA
2026-03-21 00:53:00,METAR KHVN 210053Z 21003KT 7SM OVC065 06/03 A2985 RMK AO2 RAE46 SLP106 P0003 T00610033,0,3.0,0,11263,0,0,0,
2026-03-20 23:53:00,METAR KHVN 202353Z 21005KT 4SM -RA OVC070 07/03 A2983 RMK AO2 RAB12 SLP101 P0002 60002 T00670028 10094 20067 55006,0,5.0,0,6436,0,0,0,-RA
2026-03-20 22:53:00,METAR KHVN 202253Z 20004KT 9SM SCT070 BKN090 OVC110 07/01 A2982 RMK AO2 SLP097 T00720011,0,4.0,0,14481,0,0,0,
2026-03-20 21:53:00,METAR KHVN 202153Z 21008KT 9SM OVC095 08/01 A2983 RMK AO2 SLP099 T00780011,0,8.0,0,14481,0,0,0,
2026-03-20 20:53:00,METAR KHVN 202053Z 20008KT 10SM CLR 08/02 A2985 RMK AO2 SLP108 T00830017 56044,0,8.0,0,16090,0,0,0,
2026-03-20 19:53:00,METAR KHVN 201953Z 20009G16KT 10SM CLR 09/01 A2987 RMK AO2 SLP116 T00890011,0,9.0,1,16090,0,0,0,
2026-03-20 18:53:00,METAR KHVN 201853Z 19008KT 10SM CLR 08/02 A2992 RMK AO2 SLP132 T00830022,0,8.0,0,16090,0,0,0,
2026-03-20 17:53:00,METAR KHVN 201753Z 15010G19KT 10SM CLR 08/02 A2998 RMK AO2 SLP152 T00830017 10094 21006 58038,0,10.0,1,16090,0,0,0,
2026-03-20 16:53:00,METAR KHVN 201653Z 16007KT 10SM BKN055 09/01 A3002 RMK AO2 SLP166 T00890006,0,7.0,0,16090,0,0,0,
2026-03-20 15:53:00,METAR KHVN 201553Z 15003KT 10SM OVC055 07/M01 A3007 RMK AO2 SLP180 T00721006,0,3.0,0,16090,0,0,0,
2026-03-20 14:53:00,METAR KHVN 201453Z VRB04KT 10SM CLR 06/M01 A3009 RMK AO2 SLP190 T00561006 58012,0,4.0,0,16090,0,0,0,
2026-03-20 13:53:00,METAR KHVN 201353Z 19004KT 10SM CLR 05/M01 A3011 RMK AO2 SLP194 T00501006,0,4.0,0,16090,0,0,0,
2026-03-20 12:53:00,METAR KHVN 201253Z 00000KT 9SM CLR 04/M01 A3012 RMK AO2 SLP200 T00391006,0,0.0,0,14481,0,0,0,
2026-03-20 11:53:00,METAR KHVN 201153Z 00000KT 5SM BR CLR M01/M02 A3013 RMK AO2 SLP202 I6000 T10061017 10022 21028 53006,0,0.0,0,8045,0,0,1,BR
2026-03-20 10:53:00,METAR KHVN 201053Z 00000KT 8SM CLR M03/M03 A3012 RMK AO2 SLP199 I1000 T10281033,0,0.0,0,12872,0,0,0,
2026-03-20 09:53:00,METAR KHVN 200953Z 00000KT 10SM CLR M02/M03 A3011 RMK AO2 SLP196 T10221033,0,0.0,0,16090,0,0,0,
2026-03-20 08:53:00,METAR KHVN 200853Z AUTO 00000KT 10SM CLR M01/M02 A3011 RMK AO2 SLP196 T10111022 56025,0,0.0,0,16090,0,0,0,
2026-03-20 07:53:00,METAR KHVN 200753Z AUTO 00000KT 10SM BKN060 01/M01 A3013 RMK AO2 SLP203 T00111006,0,0.0,0,16090,0,0,0,
2026-03-20 06:53:00,METAR KHVN 200653Z AUTO 00000KT 10SM BKN048 OVC070 02/M01 A3016 RMK AO2 SLP213 T00221006,0,0.0,0,16090,0,0,0,
2026-03-20 05:53:00,METAR KHVN 200553Z AUTO 19003KT 10SM OVC065 02/M01 A3018 RMK AO2 SLP221 T00171011 10022 21011 55005,0,3.0,0,16090,0,0,0,
2026-03-20 04:53:00,METAR KHVN 200453Z AUTO 17004KT 10SM OVC080 02/M02 A3018 RMK AO2 SLP219 T00221017 400331022,0,4.0,0,16090,0,0,0,
2026-03-20 03:53:00,METAR KHVN 200353Z AUTO 18003KT 10SM BKN075 BKN090 02/M02 A3019 RMK AO2 SLP224 T00171017,0,3.0,0,16090,0,0,0,
2026-03-20 02:53:00,METAR KHVN 200253Z AUTO 14004KT 10SM OVC080 02/M01 A3020 RMK AO2 SLP226 T00171006 58002,0,4.0,0,16090,0,0,0,
2026-03-20 01:53:00,METAR KHVN 200153Z 00000KT 10SM OVC075 01/M02 A3021 RMK AO2 SLP229 T00061017,0,0.0,0,16090,0,0,0,
2026-03-20 00:53:00,METAR KHVN 200053Z 00000KT 10SM BKN075 M01/M03 A3020 RMK AO2 SLP227 T10111028,0,0.0,0,16090,0,0,0,
2026-03-19 23:53:00,METAR KHVN 192353Z 00000KT 10SM CLR M01/M03 A3021 RMK AO2 SLP228 T10061028 10033 21006 53006,0,0.0,0,16090,0,0,0,
2026-03-19 22:53:00,METAR KHVN 192253Z 00000KT 10SM FEW060 02/M02 A3019 RMK AO2 SLP222 T00221022,0,0.0,0,16090,0,0,0,
2026-03-19 21:53:00,METAR KHVN 192153Z 00000KT 10SM OVC060 03/M02 A3019 RMK AO2 SLP222 T00281022,0,0.0,0,16090,0,0,0,
2026-03-19 20:53:00,METAR KHVN 192053Z 22005KT 10SM OVC050 03/M03 A3019 RMK AO2 SLP222 T00281028 56025,0,5.0,0,16090,0,0,0,
2026-03-19 19:53:00,METAR KHVN 191953Z 20005KT 10SM OVC060 03/M03 A3022 RMK AO2 SLP231 T00331028,0,5.0,0,16090,0,0,0,
2026-03-19 19:35:00,SPECI KHVN 191935Z 19004KT 10SM OVC060 03/M03 A3022 RMK AO2 T00331028,0,4.0,0,16090,0,0,0,
2026-03-19 18:53:00,METAR KHVN 191853Z 16005KT 10SM OVC060 03/M03 A3023 RMK AO2 SLP238 T00331033,0,5.0,0,16090,0,0,0,
2026-03-19 17:53:00,METAR KHVN 191753Z 25005KT 10SM OVC050 03/M03 A3026 RMK AO2 SLP247 T00331033 10033 21006 58019,0,5.0,0,16090,0,0,0,
2026-03-19 16:53:00,METAR KHVN 191653Z 00000KT 10SM BKN030 BKN055 OVC075 03/M03 A3029 RMK AO2 SLP256 T00281028,0,0.0,0,16090,0,0,0,
2026-03-19 15:53:00,METAR KHVN 191553Z 13005KT 10SM FEW050 OVC070 02/M03 A3030 RMK AO2 SLP260 T00171028,0,5.0,0,16090,0,0,0,
2026-03-19 14:53:00,METAR KHVN 191453Z 14005KT 10SM OVC060 02/M04 A3032 RMK AO2 SLP266 T00171039 56001,0,5.0,0,16090,0,0,0,
2026-03-19 13:53:00,METAR KHVN 191353Z 16005KT 10SM OVC060 02/M05 A3033 RMK AO2 SLP268 T00171050,0,5.0,0,16090,0,0,0,
2026-03-19 12:53:00,METAR KHVN 191253Z 15004KT 10SM BKN060 OVC110 01/M06 A3031 RMK AO2 SLP264 T00111056,0,4.0,0,16090,0,0,0,
2026-03-19 11:53:00,METAR KHVN 191153Z 00000KT 10SM OVC070 M01/M05 A3032 RMK AO2 SLP267 T10061050 11006 21022 56008 $,0,0.0,0,16090,0,0,0,
2026-03-19 10:53:00,METAR KHVN 191053Z COR 00000KT 10SM OVC110 M02/M05 A3032 RMK AO2 SLP267 T10221050 $,0,0.0,0,16090,0,0,0,
2026-03-19 09:53:00,METAR KHVN 190953Z 00000KT 10SM SCT100 M02/M05 A3033 RMK AO2 SLP269 T10171050 $,0,0.0,0,16090,0,0,0,
2026-03-19 08:53:00,METAR KHVN 190853Z AUTO 00000KT 10SM CLR M02/M05 A3034 RMK AO2 SLP275 T10171050 55009 $,0,0.0,0,16090,0,0,0,
2026-03-19 07:53:00,METAR KHVN 190753Z AUTO 00000KT 10SM OVC120 M01/M06 A3034 RMK AO2 SLP273 T10061061 $,0,0.0,0,16090,0,0,0,
2026-03-19 06:53:00,METAR KHVN 190653Z AUTO 19003KT 10SM OVC120 M01/M07 A3035 RMK AO2 SLP276 T10061067 $,0,3.0,0,16090,0,0,0,
2026-03-19 05:53:00,METAR KHVN 190553Z AUTO 21003KT 10SM BKN120 M01/M07 A3037 RMK AO2 SLP283 T10111072 11006 21028 56009 $,0,3.0,0,16090,0,0,0,
2026-03-19 04:53:00,METAR KHVN 190453Z AUTO 17006KT 10SM CLR M02/M07 A3037 RMK AO2 SLP283 T10171072 400171033 $,0,6.0,0,16090,0,0,0,
2026-03-19 03:53:00,METAR KHVN 190353Z AUTO 20005KT 10SM CLR M02/M08 A3039 RMK AO2 SLP290 T10171078 $,0,5.0,0,16090,0,0,0,
2026-03-19 02:53:00,METAR KHVN 190253Z AUTO 20006KT 10SM CLR M01/M08 A3040 RMK AO2 SLP293 T10111083 50004 $,0,6.0,0,16090,0,0,0,
2026-03-19 01:53:00,METAR KHVN 190153Z 20005KT 10SM CLR M02/M09 A3040 RMK AO2 SLP295 T10171094 $,0,5.0,0,16090,0,0,0,
2026-03-19 00:53:00,METAR KHVN 190053Z 19005KT 10SM CLR M01/M10 A3040 RMK AO2 SLP294 T10111100 $,0,5.0,0,16090,0,0,0,
2026-03-18 23:53:00,METAR KHVN 182353Z 17004KT 10SM CLR M02/M11 A3039 RMK AO2 SLP289 T10171106 10017 21017 58003 $,0,4.0,0,16090,0,0,0,
2026-03-18 22:53:00,METAR KHVN 182253Z 16005KT 10SM CLR M01/M12 A3039 RMK AO2 SLP289 T10061122 $,0,5.0,0,16090,0,0,0,
2026-03-18 21:53:00,METAR KHVN 182153Z 17005KT 10SM CLR 01/M13 A3039 RMK AO2 SLP291 T00061133 $,0,5.0,0,16090,0,0,0,
2026-03-18 20:53:00,METAR KHVN 182053Z 21008KT 10SM CLR 01/M13 A3039 RMK AO2 SLP292 T00111133 56002 $,0,8.0,0,16090,0,0,0,
2026-03-18 19:53:00,METAR KHVN 181953Z 20013G18KT 10SM CLR 01/M11 A3039 RMK AO2 SLP292 T00111106 $,0,13.0,1,16090,0,0,0,
2026-03-18 18:53:00,METAR KHVN 181853Z 20010KT 10SM CLR 01/M12 A3039 RMK AO2 SLP291 T00061117 $,0,10.0,0,16090,0,0,0,
2026-03-18 17:53:00,METAR KHVN 181753Z 26004KT 10SM BKN250 01/M14 A3040 RMK AO2 SLP293 T00061139 10011 21028 53000 $,0,4.0,0,16090,0,0,0,
2026-03-18 16:53:00,METAR KHVN 181653Z 04008KT 10SM CLR 00/M14 A3039 RMK AO2 SLP289 T00001139 $,0,8.0,0,16090,0,0,0,
2026-03-18 15:53:00,METAR KHVN 181553Z 34008G15KT 10SM OVC250 M01/M14 A3038 RMK AO2 SLP287 T10111144 $,0,8.0,1,16090,0,0,0,
2026-03-18 14:53:00,METAR KHVN 181453Z 36008G14KT 10SM OVC250 M01/M14 A3040 RMK AO2 SLP293 T10111144 50008 $,0,8.0,1,16090,0,0,0,
2026-03-18 13:53:00,METAR KHVN 181353Z 30006KT 10SM OVC100 M02/M15 A3044 RMK AO2 SLP306 T10221150 $,0,6.0,0,16090,0,0,0,
2026-03-18 12:53:00,METAR KHVN 181253Z 31004KT 10SM CLR M02/M16 A3041 RMK AO2 SLP298 T10221156 $,0,4.0,0,16090,0,0,0,
2026-03-18 11:53:00,METAR KHVN 181153Z 34004KT 10SM CLR M03/M16 A3037 RMK AO2 SLP284 T10281156 11006 21033 52041 $,0,4.0,0,16090,0,0,0,
2026-03-18 10:53:00,METAR KHVN 181053Z 30004KT 10SM CLR M03/M14 A3033 RMK AO2 SLP268 T10331139 $,0,4.0,0,16090,0,0,0,
2026-03-18 09:53:00,METAR KHVN 180953Z 33005KT 10SM CLR M03/M13 A3030 RMK AO2 SLP259 T10281133 $,0,5.0,0,16090,0,0,0,
2026-03-18 08:53:00,METAR KHVN 180853Z AUTO 31007KT 10SM CLR M03/M13 A3025 RMK AO2 SLP243 T10281133 53020 $,0,7.0,0,16090,0,0,0,
2026-03-18 07:53:00,METAR KHVN 180753Z AUTO 31008KT 10SM CLR M02/M14 A3023 RMK AO2 SLP235 T10221139 $,0,8.0,0,16090,0,0,0,
2026-03-18 06:53:00,METAR KHVN 180653Z AUTO 32008G16KT 10SM CLR M02/M14 A3021 RMK AO2 SLP229 T10171139 $,0,8.0,1,16090,0,0,0,
2026-03-18 05:53:00,METAR KHVN 180553Z AUTO 31007G23KT 10SM FEW070 M01/M14 A3019 RMK AO2 SLP223 T10061144 10022 21006 51032 $,0,7.0,1,16090,0,0,0,
2026-03-18 04:53:00,METAR KHVN 180453Z AUTO 32008G19KT 10SM SCT080 00/M14 A3016 RMK AO2 SLP214 T00001139 401170000 $,0,8.0,1,16090,0,0,0,
2026-03-18 03:53:00,METAR KHVN 180353Z AUTO 32008G22KT 10SM SCT075 OVC090 01/M13 A3013 RMK AO2 SLP203 T00061128 $,0,8.0,1,16090,0,0,0,
2026-03-18 02:53:00,METAR KHVN 180253Z AUTO 30006G18KT 10SM OVC090 01/M12 A3010 RMK AO2 SLP191 T00111122 $,0,6.0,1,16090,0,0,0,
2026-03-18 01:53:00,METAR KHVN 180153Z 30005KT 10SM CLR 02/M12 A3006 RMK AO2 SLP177 T00171122 $,0,5.0,0,16090,0,0,0,
2026-03-18 00:53:00,METAR KHVN 180053Z 30008G15KT 10SM SCT075 02/M13 A3002 RMK AO2 SLP166 T00171128 $,0,8.0,1,16090,0,0,0,
2026-03-17 23:53:00,METAR KHVN 172353Z 30008G18KT 10SM SCT075 02/M13 A2999 RMK AO2 SLP155 T00221133 10050 20022 53044,0,8.0,1,16090,0,0,0,
2026-03-17 22:53:00,METAR KHVN 172253Z 30013G24KT 10SM SCT075 03/M13 A2995 RMK AO2 SLP140 T00281128,0,13.0,1,16090,0,0,0,
2026-03-17 21:53:00,METAR KHVN 172153Z 31014G25KT 10SM SCT075 04/M11 A2990 RMK AO2 SLP124 T00391111,0,14.0,1,16090,0,0,0,
2026-03-17 20:53:00,METAR KHVN 172053Z 31017G23KT 10SM SCT070 04/M11 A2986 RMK AO2 PK WND 27030/2012 SLP111 T00441111 53019,0,17.0,1,16090,0,0,0,
2026-03-17 19:53:00,METAR KHVN 171953Z 30014G26KT 10SM SCT070 05/M11 A2984 RMK AO2 SLP103 T00501111,0,14.0,1,16090,0,0,0,
2026-03-17 18:53:00,METAR KHVN 171853Z 30016G25KT 10SM SCT060 05/M09 A2982 RMK AO2 SLP097 T00501094,0,16.0,1,16090,0,0,0,
2026-03-17 17:53:00,METAR KHVN 171753Z 31018G25KT 10SM CLR 04/M09 A2980 RMK AO2 PK WND 30029/1709 SLP092 T00441094 10044 20022 50007,0,18.0,1,16090,0,0,0,
2026-03-17 16:53:00,METAR KHVN 171653Z 28014G26KT 10SM CLR 04/M09 A2981 RMK AO2 PK WND 28029/1640 SLP093 T00391094,0,14.0,1,16090,0,0,0,
2026-03-17 15:53:00,METAR KHVN 171553Z 30020G27KT 10SM FEW050 04/M08 A2979 RMK AO2 PK WND 28027/1548 SLP088 T00391083,0,20.0,1,16090,0,0,0,
2026-03-17 14:53:00,METAR KHVN 171453Z 26014G24KT 10SM SCT050 03/M08 A2978 RMK AO2 SLP085 T00331083 53036,0,14.0,1,16090,0,0,0,
2026-03-17 13:53:00,METAR KHVN 171353Z 28010G25KT 10SM FEW050 03/M08 A2975 RMK AO2 PK WND 25029/1325 SLP074 T00281083,0,10.0,1,16090,0,0,0,
2026-03-17 12:53:00,METAR KHVN 171253Z 27009G21KT 10SM FEW047 03/M07 A2971 RMK AO2 PK WND 29029/1227 SLP061 T00281072,0,9.0,1,16090,0,0,0,
2026-03-17 11:53:00,METAR KHVN 171153Z 27006G17KT 10SM OVC047 03/M06 A2968 RMK AO2 SLP050 60001 70113 T00281061 10100 20028 52059,0,6.0,1,16090,0,0,0,
2026-03-17 10:53:00,METAR KHVN 171053Z 26010G24KT 10SM BKN039 03/M06 A2962 RMK AO2 PK WND 26031/1012 SLP031 T00281061,0,10.0,1,16090,0,0,0,
2026-03-17 09:53:00,METAR KHVN 170953Z 27015G29KT 10SM SCT033 04/M02 A2956 RMK AO2 PK WND 28029/0953 SLP010 T00441017,0,15.0,1,16090,0,0,0,
2026-03-17 09:33:00,SPECI KHVN 170933Z AUTO 25013G26KT 10SM SCT028 OVC035 05/M01 A2955 RMK AO2 PK WND 25026/0929 T00501006,0,13.0,1,16090,0,0,0,
2026-03-17 09:13:00,SPECI KHVN 170913Z AUTO 27009G21KT 230V290 10SM BKN028 OVC033 06/01 A2953 RMK AO2 T00560011,0,9.0,1,16090,0,0,0,
2026-03-17 08:53:00,METAR KHVN 170853Z AUTO 27008G18KT 10SM BKN033 BKN080 06/01 A2951 RMK AO2 PK WND 24029/0819 SLP991 60001 T00610006 51063,0,8.0,1,16090,0,0,0,
2026-03-17 07:53:00,METAR KHVN 170753Z AUTO 26009G19KT 10SM BKN032 OVC070 07/03 A2945 RMK AO2 PK WND 24027/0709 RAE0655 SLP972 P0000 T00720033,0,9.0,1,16090,0,0,0,RA
2026-03-17 06:53:00,METAR KHVN 170653Z AUTO 25007G15KT 10SM -RA BKN050 BKN065 OVC080 09/05 A2938 RMK AO2 PK WND 21034/0554 RAB01E16B36 SLP949 P0001 T00890050,0,7.0,1,16090,0,0,0,"-RA,RA"
2026-03-17 06:29:00,SPECI KHVN 170629Z AUTO 27007G21KT 250V310 10SM FEW017 OVC046 10/06 A2935 RMK AO2 PK WND 21034/0554 RAB01E16 PRESRR P0001 T01000061,0,7.0,1,16090,0,0,0,RA
2026-03-17 05:53:00,METAR KHVN 170553Z AUTO 21022G42KT 6SM BR OVC015 10/09 A2932 RMK AO2 PK WND 22042/0552 RAB29E40 SLP928 P0000 60031 T01000089 10117 20094 55028,0,22.0,1,9654,0,0,1,"BR,RA"
2026-03-17 05:32:00,SPECI KHVN 170532Z AUTO 20019G39KT 4SM -RA BR OVC015 12/11 A2931 RMK AO2 PK WND 20040/0507 RAB29 PRESRR P0000 T01170111,0,19.0,1,6436,0,0,1,"-RA,BR"
2026-03-17 04:53:00,METAR KHVN 170453Z AUTO 18022G37KT 5SM BR OVC013 12/11 A2928 RMK AO2 PK WND 19037/0445 SLP914 T01170111 401280044,0,22.0,1,8045,0,0,1,BR
2026-03-17 04:00:00,SPECI KHVN 170400Z AUTO 18020G33KT 8SM SCT003 OVC010 12/11 A2933 RMK AO2 PK WND 18031/0359 T01170111,0,20.0,1,12872,0,0,0,
2026-03-17 03:53:00,METAR KHVN 170353Z AUTO 18020G33KT 3SM BR BKN003 OVC014 12/11 A2933 RMK AO2 PK WND 19033/0353 RAB06E23B25E36 SLP931 P0002 T01170111,0,20.0,1,4827,0,0,1,"BR,RA"
2026-03-17 03:51:00,SPECI KHVN 170351Z AUTO 18019G29KT 2SM BR BKN003 OVC014 11/11 A2933 RMK AO2 PK WND 16029/0351 RAB06E23B25E36 P0002,0,19.0,1,3218,0,0,1,"BR,RA"
2026-03-17 03:46:00,SPECI KHVN 170346Z AUTO 18014G24KT 3/4SM R02/5000VP6000FT BR BKN003 OVC014 11/11 A2934 RMK AO2 RAB06E23B25E36 P0002 T01060106,0,14.0,1,1207,0,0,1,"BR,RA"
2026-03-17 03:24:00,SPECI KHVN 170324Z AUTO 17013KT 1 1/2SM BR OVC003 11/10 A2936 RMK AO2 RAB06E23 PRESFR P0002 T01060100,0,13.0,0,2414,0,0,1,"BR,RA"
2026-03-17 03:04:00,SPECI KHVN 170304Z AUTO 17013G22KT 2 1/2SM BR BKN002 OVC010 11/10 A2939 RMK AO2 T01060100,0,13.0,1,4022,0,0,1,BR
2026-03-17 02:53:00,METAR KHVN 170253Z AUTO 17012G22KT 8SM SCT004 OVC010 11/11 A2940 RMK AO2 SLP956 60029 T01060106 56036,0,12.0,1,12872,0,0,0,
2026-03-17 02:43:00,SPECI KHVN 170243Z AUTO 16014KT 7SM FEW002 OVC010 11/10 A2941 RMK AO2 T01060100,0,14.0,0,11263,0,0,0,
2026-03-17 02:34:00,SPECI KHVN 170234Z AUTO 16012KT 2SM BR FEW002 OVC010 11/10 A2942 RMK AO2 T01060100,0,12.0,0,3218,0,0,1,BR
2026-03-17 02:27:00,SPECI KHVN 170227Z AUTO 15012KT 1 3/4SM BR OVC010 09/09 A2941 RMK AO2 T00940094,0,12.0,0,2816,0,0,1,BR
2026-03-17 01:57:00,SPECI KHVN 170157Z 18010KT 5SM BR SCT002 OVC013 10/10 A2943 RMK AO2 T01000100,0,10.0,0,8045,0,0,1,BR
2026-03-17 01:53:00,METAR KHVN 170153Z 17010KT 2 1/2SM BR BKN002 OVC013 10/09 A2943 RMK AO2 RAE17 SLP965 P0001 T01000094,0,10.0,0,4022,0,0,1,BR
2026-03-17 00:53:00,METAR KHVN 170053Z 18017G25KT 3SM -RA BR OVC010 11/10 A2948 RMK AO2 PK WND 19027/2354 SLP984 P0028 T01060100,0,17.0,1,4827,0,0,1,"-RA,BR"
2026-03-16 23:53:00,METAR KHVN 162353Z 18015G26KT 3/4SM R02/2800VP6000FT +RA BR BKN005 OVC014 12/11 A2951 RMK AO2 PK WND 16037/2330 LTG DSNT S SLP992 P0067 60077 T01170111 10122 20089 58033,0,15.0,1,1207,0,1,1,"+RA,BR,DS"
2026-03-16 23:45:00,SPECI KHVN 162345Z 17015G27KT 1 1/2SM R02/4500VP6000FT RA BR BKN005 OVC014 11/11 A2952 RMK AO2 PK WND 16037/2330 P0050 T01060106,0,15.0,1,2414,0,0,1,"BR,RA"
2026-03-16 22:53:00,METAR KHVN 162253Z 17009KT 2 1/2SM RA BR BKN005 BKN016 OVC049 09/09 A2956 RMK AO2 RAB25 SLP010 P0008 T00890089,0,9.0,0,4022,0,0,1,"BR,RA"
2026-03-16 22:23:00,SPECI KHVN 162223Z 18008KT 2 1/2SM BR BKN007 BKN027 OVC080 09/09 A2957 RMK AO2 T00940089,0,8.0,0,4022,0,0,1,BR
2026-03-16 21:53:00,METAR KHVN 162153Z 19016G24KT 6SM BR SCT048 OVC065 11/11 A2957 RMK AO2 RAB2055E13 SLP013 P0002 T01110106,0,16.0,1,9654,0,0,1,"BR,RA"
2026-03-16 21:10:00,SPECI KHVN 162110Z 19012G21KT 3SM -RA BR FEW002 BKN039 OVC047 11/11 A2959 RMK AO2 RAB2055 P0002 T01060106,0,12.0,1,4827,0,0,1,"-RA,BR,RA"
2026-03-16 21:02:00,SPECI KHVN 162102Z 19012G21KT 2SM R02/6000VP6000FT -RA BR FEW015 BKN039 OVC046 10/10 A2960 RMK AO2 VIS 3/4V4 RAB2055 P0001 T01000100,0,12.0,1,3218,0,0,1,"-RA,BR,RA"
2026-03-16 20:53:00,METAR KHVN 162053Z 18011G20KT 3SM BR SCT008 BKN041 OVC047 11/10 A2961 RMK AO2 SLP025 T01060100 58021,0,11.0,1,4827,0,0,1,BR
2026-03-16 20:48:00,SPECI KHVN 162048Z 18011G20KT 3SM R02/5500VP6000FT BR BKN004 OVC041 11/11 A2961 RMK AO2,0,11.0,1,4827,0,0,1,BR
2026-03-16 20:45:00,SPECI KHVN 162045Z 18013G23KT 1SM R02/3000VP6000FT BR BKN002 OVC039 11/11 A2961 RMK AO2 T01110106,0,13.0,1,1609,0,0,1,BR
2026-03-16 20:35:00,SPECI KHVN 162035Z 18013G23KT 1/4SM R02/1400V2400FT FG VV002 11/11 A2962 RMK AO2 T01110111,0,13.0,1,402,0,0,1,FG
2026-03-16 20:04:00,SPECI KHVN 162004Z 18009KT M1/4SM R02/1400V1800FT FG VV002 11/11 A2963 RMK AO2 T01110111,0,9.0,0,402,0,0,1,FG
2026-03-16 19:53:00,METAR KHVN 161953Z 18007KT 1/4SM R02/2000VP6000FT FG BKN003 OVC009 11/11 A2963 RMK AO2 SLP034 T01110111,0,7.0,0,402,0,0,1,FG
2026-03-16 19:49:00,SPECI KHVN 161949Z 18009KT 3/4SM R02/2800VP6000FT BR BKN003 OVC009 11/11 A2964 RMK AO2,0,9.0,0,1207,0,0,1,BR
2026-03-16 18:53:00,METAR KHVN 161853Z 18014G25KT 6SM BR BKN005 OVC090 12/11 A2967 RMK AO2 SLP045 T01170111,0,14.0,1,9654,0,0,1,BR
2026-03-16 18:50:00,SPECI KHVN 161850Z 18014G25KT 4SM BR OVC005 12/11 A2967 RMK AO2,0,14.0,1,6436,0,0,1,BR
2026-03-16 18:28:00,SPECI KHVN 161828Z 18010G16KT 3SM BR OVC003 11/11 A2968 RMK AO2 T01110111,0,10.0,1,4827,0,0,1,BR
2026-03-16 18:11:00,SPECI KHVN 161811Z VRB04KT 3/4SM R02/2800VP6000FT BR OVC002 11/11 A2969 RMK AO2 T01110111,0,4.0,0,1207,0,0,1,BR
2026-03-16 18:03:00,SPECI KHVN 161803Z 20006KT 1SM R02/4000VP6000FT BR OVC002 12/12 A2969 RMK AO2 T01170117,0,6.0,0,1609,0,0,1,BR
2026-03-16 17:53:00,METAR KHVN 161753Z 19008KT 1/2SM R02/2000VP6000FT FG VV002 12/12 A2970 RMK AO2 SLP055 60004 T01220122 10128 20083 56021,0,8.0,0,804,0,0,1,FG
2026-03-16 17:47:00,SPECI KHVN 161747Z 20006KT 1/4SM R02/1400V2800FT FG VV002 12/12 A2970 RMK AO2,0,6.0,0,402,0,0,1,FG
2026-03-16 17:42:00,SPECI KHVN 161742Z 19005KT M1/4SM R02/1400V1800FT FG VV002 11/11 A2970 RMK AO2 T01110111,0,5.0,0,402,0,0,1,FG
2026-03-16 16:53:00,METAR KHVN 161653Z 23003KT 1/4SM R02/2600V3500FT FG VV003 12/12 A2971 RMK AO2 RAB07E35 SLP061 P0000 T01170117,0,3.0,0,402,0,0,1,"FG,RA"
2026-03-16 16:43:00,SPECI KHVN 161643Z VRB05KT 1/4SM R02/1400V3500FT FG VV002 12/12 A2972 RMK AO2 RAB07E35 P0000 T01170117,0,5.0,0,402,0,0,1,"FG,RA"
2026-03-16 16:08:00,SPECI KHVN 161608Z VRB05KT M1/4SM R02/1000V1800FT -RA FG VV002 10/10 A2973 RMK AO2 RAB07 P0000 T01000100,0,5.0,0,402,0,0,1,"-RA,FG"
2026-03-16 15:53:00,METAR KHVN 161553Z 17007KT 1/4SM R02/1600V1800FT FG VV002 11/11 A2973 RMK AO2 SLP068 T01060106,0,7.0,0,402,0,0,1,FG
2026-03-16 15:39:00,SPECI KHVN 161539Z 17009KT 1/4SM R02/1400V1600FT FG VV002 11/11 A2974 RMK AO2 T01110106,0,9.0,0,402,0,0,1,FG
2026-03-16 14:53:00,METAR KHVN 161453Z 15006KT M1/4SM R02/1200V1600FT FG VV002 11/10 A2976 RMK AO2 SLP076 60004 T01060100 56026,0,6.0,0,402,0,0,1,FG
2026-03-16 14:29:00,SPECI KHVN 161429Z 17007KT 1/4SM R02/1600V2000FT FG VV003 10/10 A2977 RMK AO2 T01000100,0,7.0,0,402,0,0,1,FG
2026-03-16 13:53:00,METAR KHVN 161353Z 16012KT 1/4SM R02/1800V2600FT FG VV002 10/10 A2978 RMK AO2 PK WND 14027/1320 RAB29E47 SLP084 P0004 T01000100,0,12.0,0,402,0,0,1,"FG,RA"
2026-03-16 13:36:00,SPECI KHVN 161336Z 15011G19KT 1/4SM R02/1400V4000FT RA FG VV002 10/10 A2978 RMK AO2 PK WND 14027/1320 RAB29 P0004 T01000100,0,11.0,1,402,0,0,1,"FG,RA"
2026-03-16 13:29:00,SPECI KHVN 161329Z 15013G27KT M1/4SM R02/1400V1600FT -RA FG VV002 10/10 A2978 RMK AO2 PK WND 14027/1320 RAB29 P0000 T01000100,0,13.0,1,402,0,0,1,"-RA,FG"
2026-03-16 13:08:00,SPECI KHVN 161308Z 15011G19KT 1/4SM R02/1400V2000FT FG VV002 10/10 A2980 RMK AO2 T01000100,0,11.0,1,402,0,0,1,FG
2026-03-16 12:53:00,METAR KHVN 161253Z 15010G15KT M1/4SM R02/1400FT FG VV002 09/09 A2981 RMK AO2 RAB1158E07 SLP093 P0000 T00940094,0,10.0,1,402,0,0,1,"FG,RA"
2026-03-16 12:21:00,SPECI KHVN 161221Z 14010KT M1/4SM R02/1400V1600FT FG VV002 09/09 A2983 RMK AO2 RAB1158E07 P0000 T00890089,0,10.0,0,402,0,0,1,"FG,RA"
2026-03-16 12:08:00,SPECI KHVN 161208Z 14010G16KT 1/4SM R02/1600V1800FT FG VV002 09/08 A2983 RMK AO2 RAB1158E07 P0000 T00890083,0,10.0,1,402,0,0,1,"FG,RA"
2026-03-16 11:53:00,METAR KHVN 161153Z 13011G18KT 1/4SM R02/2200V3000FT FG VV002 08/08 A2983 RMK AO2 RAB30E52 SLP102 P0002 60056 70056 T00830083 10083 20050 58041,0,11.0,1,402,0,0,1,"FG,RA"
2026-03-16 11:34:00,SPECI KHVN 161134Z 14011KT 1/4SM R02/1800V3000FT -RA FG VV002 08/08 A2984 RMK AO2 RAB30 P0001 T00830078,0,11.0,0,402,0,0,1,"-RA,FG"
2026-03-16 10:53:00,METAR KHVN 161053Z 12008G16KT 1 1/4SM R02/5500VP6000FT BR OVC003 08/08 A2987 RMK AO2 PK WND 11029/1035 RAE30 SLP114 P0005 T00830083,0,8.0,1,2011,0,0,1,BR
2026-03-16 10:50:00,SPECI KHVN 161050Z 12010KT 1 3/4SM BR OVC003 08/08 A2987 RMK AO2 PK WND 11029/1035 RAE30 P0005,0,10.0,0,2816,0,0,1,BR
2026-03-16 10:26:00,SPECI KHVN 161026Z 11009KT 4SM -RA BR OVC004 08/07 A2989 RMK AO2 P0005 T00780072,0,9.0,0,6436,0,0,1,"-RA,BR"
2026-03-16 09:53:00,METAR KHVN 160953Z 10011G21KT 2 1/2SM -RA BR OVC004 07/07 A2992 RMK AO2 VIS 1 3/4V4 RAB04 SLP131 P0006 T00720067,0,11.0,1,4022,0,0,1,"-RA,BR"
2026-03-16 09:36:00,SPECI KHVN 160936Z AUTO 10011KT 4SM -RA BR OVC004 07/06 A2993 RMK AO2 RAB04 P0004 T00670061,0,11.0,0,6436,0,0,1,"-RA,BR"
2026-03-16 09:28:00,SPECI KHVN 160928Z AUTO 10012G20KT 2 1/2SM -RA BR OVC004 07/06 A2993 RMK AO2 RAB04 P0004 T00670061,0,12.0,1,4022,0,0,1,"-RA,BR"
2026-03-16 09:11:00,SPECI KHVN 160911Z AUTO 10010G20KT 2SM -RA BR OVC005 07/06 A2994 RMK AO2 RAB04 CIG 004V009 P0001 T00670061,0,10.0,1,3218,0,0,1,"-RA,BR"
2026-03-16 08:53:00,METAR KHVN 160853Z AUTO 10012G18KT 5SM BR OVC006 07/06 A2995 RMK AO2 RAE51 CIG 004V009 SLP142 P0035 60043 T00670061 56057,0,12.0,1,8045,0,0,1,BR
2026-03-16 08:47:00,SPECI KHVN 160847Z AUTO 09011G19KT 3SM -RA BR OVC006 07/06 A2996 RMK AO2 CIG 004V011 P0035,0,11.0,1,4827,0,0,1,"-RA,BR"
2026-03-16 08:08:00,SPECI KHVN 160808Z AUTO 08011G18KT 1 1/4SM +RA BR OVC009 06/05 A2999 RMK AO2 CIG 005V011 P0017 T00560050,0,11.0,1,2011,0,1,1,"+RA,BR"
2026-03-16 07:53:00,METAR KHVN 160753Z AUTO 09014KT 1 3/4SM +RA BR OVC011 06/04 A3000 RMK AO2 RAB36 SLP160 P0008 T00560044,0,14.0,0,2816,0,1,1,"+RA,BR"
2026-03-16 06:53:00,METAR KHVN 160653Z AUTO 09013G20KT 7SM OVC014 06/04 A3006 RMK AO2 SLP178 T00560039,0,13.0,1,11263,0,0,0,
2026-03-16 06:45:00,SPECI KHVN 160645Z AUTO 10013G19KT 7SM OVC014 06/03 A3006 RMK AO2 PRESFR T00560033,0,13.0,1,11263,0,0,0,
2026-03-16 05:53:00,METAR KHVN 160553Z AUTO 10011G20KT 8SM BKN016 OVC060 05/03 A3012 RMK AO2 SLP199 T00500028 10050 20033 56033,0,11.0,1,12872,0,0,0,
2026-03-16 05:48:00,SPECI KHVN 160548Z AUTO 09011G20KT 8SM BKN016 OVC060 04/03 A3012 RMK AO2,0,11.0,1,12872,0,0,0,
2026-03-16 04:53:00,METAR KHVN 160453Z AUTO 10017G26KT 8SM BKN034 BKN065 04/02 A3017 RMK AO2 PK WND 11026/0440 SLP215 T00440022 400561017,0,17.0,1,12872,0,0,0,
2026-03-16 03:53:00,METAR KHVN 160353Z AUTO 10018G27KT 8SM FEW012 BKN035 04/02 A3022 RMK AO2 PK WND 10027/0352 SLP232 T00390022,0,18.0,1,12872,0,0,0,
2026-03-16 02:53:00,METAR KHVN 160253Z AUTO 10011G24KT 9SM FEW036 04/02 A3026 RMK AO2 SLP245 T00390017 58035,0,11.0,1,14481,0,0,0,
2026-03-16 01:53:00,METAR KHVN 160153Z 10012G20KT 10SM OVC034 03/01 A3032 RMK AO2 SLP265 T00330011,0,12.0,1,16090,0,0,0,
2026-03-16 00:53:00,METAR KHVN 160053Z 11013G19KT 10SM CLR 03/01 A3035 RMK AO2 SLP276 T00330006,0,13.0,1,16090,0,0,0,
2026-03-15 23:53:00,METAR KHVN 152353Z 10011G19KT 10SM SCT037 03/00 A3036 RMK AO2 SLP280 T00330000 10039 20028 58023,0,11.0,1,16090,0,0,0,
2026-03-15 22:53:00,METAR KHVN 152253Z 09007G16KT 10SM FEW027 OVC060 03/M01 A3039 RMK AO2 SLP291 T00331006,0,7.0,1,16090,0,0,0,
2026-03-15 21:53:00,METAR KHVN 152153Z COR 12009KT 10SM OVC060 03/M01 A3041 RMK AO2 SLP299 T00331006,0,9.0,0,16090,0,0,0,
2026-03-15 20:53:00,METAR KHVN 152053Z 12010G18KT 10SM OVC060 03/M02 A3043 RMK AO2 SLP303 T00331017 56013,0,10.0,1,16090,0,0,0,
2026-03-15 19:53:00,METAR KHVN 151953Z 12010KT 10SM OVC060 03/M02 A3044 RMK AO2 SLP306 T00331017,0,10.0,0,16090,0,0,0,
2026-03-15 18:53:00,METAR KHVN 151853Z 12013G20KT 10SM OVC065 04/M03 A3046 RMK AO2 PK WND 10029/1836 SLP313 T00391028,0,13.0,1,16090,0,0,0,
2026-03-15 17:53:00,METAR KHVN 151753Z 10012G23KT 10SM OVC070 04/M04 A3047 RMK AO2 SLP317 T00391044 10056 20006 58004,0,12.0,1,16090,0,0,0,
2026-03-15 16:53:00,METAR KHVN 151653Z 11014G19KT 10SM OVC070 04/M06 A3049 RMK AO2 SLP324 T00391056,0,14.0,1,16090,0,0,0,
2026-03-15 15:53:00,METAR KHVN 151553Z 12010KT 10SM BKN070 04/M06 A3049 RMK AO2 SLP324 T00391056,0,10.0,0,16090,0,0,0,
2026-03-15 14:53:00,METAR KHVN 151453Z 10008KT 060V120 10SM FEW110 05/M08 A3048 RMK AO2 SLP320 T00501083 58000,0,8.0,0,16090,0,0,0,
2026-03-15 13:53:00,METAR KHVN 151353Z 00000KT 10SM OVC090 03/M08 A3050 RMK AO2 SLP327 T00281078,0,0.0,0,16090,0,0,0,
2026-03-15 12:53:00,METAR KHVN 151253Z 00000KT 10SM OVC095 02/M07 A3049 RMK AO2 SLP323 T00171072,0,0.0,0,16090,0,0,0,
2026-03-15 11:53:00,METAR KHVN 151153Z 00000KT 10SM SCT110 01/M07 A3048 RMK AO2 SLP321 T00061067 10017 21017 51022,0,0.0,0,16090,0,0,0,
2026-03-15 10:53:00,METAR KHVN 151053Z COR 00000KT 10SM BKN090 OVC120 01/M07 A3046 RMK AO2 SLP315 T00061067,0,0.0,0,16090,0,0,0,
2026-03-15 09:53:00,METAR KHVN 150953Z 00000KT 10SM OVC100 00/M06 A3044 RMK AO2 SLP306 T00001061,0,0.0,0,16090,0,0,0,
2026-03-15 08:53:00,METAR KHVN 150853Z AUTO 00000KT 10SM SCT120 M02/M06 A3042 RMK AO2 SLP299 T10171061 51015,0,0.0,0,16090,0,0,0,
