Time_recorded,METAR,is_cavok,wind_speed,is_gust,visibility_meters,has_thunderstorm,has_heavy_rain,has_low_vis_fog,other_phenomenon
2026-05-02 15:30:00,METAR LEBB 021530Z 13003KT 060V210 9999 -RA FEW025 SCT070 18/17 Q1014 RERA TEMPO TS SCT045CB,0,3,0,10000,1,0,0,"-RA,RA,TS"
2026-05-02 15:00:00,METAR LEBB 021500Z 19003KT 150V220 4000 RA FEW019 SCT048 BKN070 17/15 Q1015 TEMPO TS SCT045CB,0,3,0,4000,1,0,0,"RA,TS"
2026-05-02 14:30:00,METAR LEBB 021430Z VRB02KT 9999 FEW039 18/16 Q1015 TEMPO TS SCT045CB,0,2,0,10000,1,0,0,TS
2026-05-02 14:00:00,METAR LEBB 021400Z 35003KT 290V070 9999 FEW045 17/15 Q1015 TEMPO TS SCT045CB,0,3,0,10000,1,0,0,TS
2026-05-02 13:30:00,METAR LEBB 021330Z VRB03KT 9999 VCTS -SHRA FEW030 FEW045CB BKN047 16/14 Q1016 RETSRA NOSIG,0,3,0,10000,1,0,0,"RA,TS,VC"
2026-05-02 13:15:00,SPECI LEBB 021315Z 25011KT 200V290 6000 2500NW +TSRA FEW016 SCT036CB BKN047 16/13 Q1016 TEMPO NSW,0,11,0,6000,1,0,0,RA
2026-05-02 13:09:00,SPECI LEBB 021309Z 28014G25KT 9999 3000NW TSRA FEW020 SCT037CB BKN056 17/14 Q1016 TEMPO NSW,0,14,1,10000,1,0,0,"RA,TS"
2026-05-02 13:00:00,METAR LEBB 021300Z 28011G21KT 9999 VCTS -SHRA FEW026CB BKN047 19/13 Q1016 TEMPO TS,0,11,1,10000,1,0,0,"RA,TS,VC"
2026-05-02 12:30:00,METAR LEBB 021230Z 16007KT 120V200 9999 FEW030 21/15 Q1015 TEMPO TS SCT045CB,0,7,0,10000,1,0,0,TS
2026-05-02 12:00:00,METAR LEBB 021200Z 10004KT 060V170 9999 FEW030 20/18 Q1015 NOSIG,0,4,0,10000,0,0,0,
2026-05-02 11:30:00,METAR LEBB 021130Z 09004KT 060V130 9999 FEW014 SCT070 18/17 Q1015 RESHRA NOSIG,0,4,0,10000,0,0,0,RA
2026-05-02 11:00:00,METAR LEBB 021100Z 11005KT 070V150 6000 -SHRA VCTS FEW018 FEW040CB BKN060 18/17 Q1016 RETS TEMPO NSW,0,5,0,6000,1,0,0,"RA,TS,VC"
2026-05-02 10:48:00,SPECI LEBB 021048Z 20003KT 150V280 4500 TSRA FEW020 SCT040CB BKN058 18/16 Q1017 NOSIG,0,3,0,4500,1,0,0,"RA,TS"
2026-05-02 10:30:00,METAR LEBB 021030Z 28004KT 230V310 9999 FEW020 FEW035CB BKN049 19/15 Q1017 TEMPO TS,0,4,0,10000,1,0,0,TS
2026-05-02 10:00:00,METAR LEBB 021000Z 29006KT 230V330 9999 FEW019 BKN041 19/16 Q1017 NOSIG,0,6,0,10000,0,0,0,
2026-05-02 09:30:00,METAR LEBB 020930Z 31008KT 290V350 9999 FEW019 BKN044 19/15 Q1017 NOSIG,0,8,0,10000,0,0,0,
2026-05-02 09:00:00,METAR LEBB 020900Z 32012KT 250V340 9999 FEW015 BKN042 19/15 Q1017 NOSIG,0,12,0,10000,0,0,0,
2026-05-02 08:30:00,METAR LEBB 020830Z 11006KT 080V150 9999 FEW045 21/14 Q1016 NOSIG,0,6,0,10000,0,0,0,
2026-05-02 08:00:00,METAR LEBB 020800Z 12006KT 080V160 9999 FEW030 20/14 Q1017 NOSIG,0,6,0,10000,0,0,0,
2026-05-02 07:30:00,METAR LEBB 020730Z 14007KT 110V170 9999 FEW025 20/14 Q1016 NOSIG,0,7,0,10000,0,0,0,
2026-05-02 07:00:00,METAR LEBB 020700Z 12010KT 080V160 9999 FEW025 19/13 Q1016 NOSIG,0,10,0,10000,0,0,0,
2026-05-02 06:30:00,METAR LEBB 020630Z 11010KT 070V140 9999 FEW025 19/13 Q1016 NOSIG,0,10,0,10000,0,0,0,
2026-05-02 06:00:00,METAR LEBB 020600Z 12009KT 070V150 9999 FEW025 19/13 Q1016 NOSIG,0,9,0,10000,0,0,0,
2026-05-02 05:30:00,METAR LEBB 020530Z 14010KT 110V170 CAVOK 20/13 Q1016 NOSIG,1,0,0,9999,0,0,0,
2026-05-02 05:00:00,METAR LEBB 020500Z 14011KT 110V180 CAVOK 20/13 Q1016 NOSIG,1,0,0,9999,0,0,0,
2026-05-02 04:30:00,METAR LEBB 020430Z 14009G19KT 110V210 CAVOK 20/13 Q1016 NOSIG,1,0,0,9999,0,0,0,
2026-05-02 04:00:00,METAR LEBB 020400Z 15009G20KT 120V190 CAVOK 20/13 Q1016 NOSIG,1,0,0,9999,0,0,0,
2026-05-02 03:30:00,METAR LEBB 020330Z 14011KT 120V190 CAVOK 20/13 Q1016 NOSIG,1,0,0,9999,0,0,0,
2026-05-02 03:00:00,METAR LEBB 020300Z 14014KT 100V170 CAVOK 20/13 Q1016 NOSIG,1,0,0,9999,0,0,0,
2026-05-02 02:30:00,METAR LEBB 020230Z AUTO 14010KT 080V170 CAVOK 20/13 Q1016,1,0,0,9999,0,0,0,
2026-05-02 02:00:00,METAR LEBB 020200Z AUTO 16008KT 120V200 CAVOK 21/13 Q1016,1,0,0,9999,0,0,0,
2026-05-02 01:30:00,METAR LEBB 020130Z AUTO 16009G20KT 120V210 CAVOK 21/12 Q1016,1,0,0,9999,0,0,0,
2026-05-02 01:00:00,METAR LEBB 020100Z AUTO 15008KT 100V210 CAVOK 21/13 Q1016,1,0,0,9999,0,0,0,
2026-05-02 00:30:00,METAR LEBB 020030Z AUTO 13008KT 080V170 CAVOK 21/13 Q1016,1,0,0,9999,0,0,0,
2026-05-02 00:00:00,METAR LEBB 020000Z AUTO 14010KT 110V180 CAVOK 21/14 Q1017,1,0,0,9999,0,0,0,
2026-05-01 23:30:00,METAR LEBB 012330Z AUTO VRB01KT CAVOK 20/15 Q1017,1,0,0,9999,0,0,0,
2026-05-01 23:00:00,METAR LEBB 012300Z AUTO VRB03KT CAVOK 21/14 Q1017,1,0,0,9999,0,0,0,
2026-05-01 22:30:00,METAR LEBB 012230Z AUTO VRB03KT CAVOK 17/16 Q1017,1,0,0,9999,0,0,0,
2026-05-01 22:00:00,METAR LEBB 012200Z AUTO 27003KT 220V290 CAVOK 18/16 Q1017,1,0,0,9999,0,0,0,
2026-05-01 21:30:00,METAR LEBB 012130Z 27005KT 230V290 CAVOK 19/17 Q1017 NOSIG,1,0,0,9999,0,0,0,
2026-05-01 21:00:00,METAR LEBB 012100Z 16005KT 100V230 CAVOK 20/16 Q1017 NOSIG,1,0,0,9999,0,0,0,
2026-05-01 20:30:00,METAR LEBB 012030Z 14007KT 080V190 CAVOK 23/15 Q1017 NOSIG,1,0,0,9999,0,0,0,
2026-05-01 20:00:00,METAR LEBB 012000Z 15005KT 110V190 CAVOK 23/15 Q1017 NOSIG,1,0,0,9999,0,0,0,
2026-05-01 19:30:00,METAR LEBB 011930Z 13007KT 080V160 CAVOK 23/15 Q1016 NOSIG,1,0,0,9999,0,0,0,
2026-05-01 19:00:00,METAR LEBB 011900Z 14008KT 110V170 CAVOK 24/15 Q1016 NOSIG,1,0,0,9999,0,0,0,
2026-05-01 18:30:00,METAR LEBB 011830Z 13009KT 080V170 CAVOK 25/15 Q1016 NOSIG,1,0,0,9999,0,0,0,
2026-05-01 18:00:00,METAR LEBB 011800Z 13007KT 080V190 9999 FEW065 25/15 Q1016 NOSIG,0,7,0,10000,0,0,0,
2026-05-01 17:30:00,METAR LEBB 011730Z 09009KT 050V160 CAVOK 25/17 Q1016 NOSIG,1,0,0,9999,0,0,0,
2026-05-01 17:00:00,METAR LEBB 011700Z 10010KT 060V140 CAVOK 25/18 Q1016 NOSIG,1,0,0,9999,0,0,0,
2026-05-01 16:30:00,METAR LEBB 011630Z VRB09KT 9999 FEW060 26/17 Q1016 TEMPO 3000 TSRA SCT035CB,0,9,0,10000,1,0,0,"RA,TS"
2026-05-01 16:00:00,METAR LEBB 011600Z 07010KT 040V110 9999 FEW056 27/17 Q1016 TEMPO 3000 TSRA SCT035CB,0,10,0,10000,1,0,0,"RA,TS"
2026-05-01 15:30:00,METAR LEBB 011530Z 11010G20KT 060V160 9999 FEW060 27/16 Q1016 NOSIG,0,10,1,10000,0,0,0,
2026-05-01 15:00:00,METAR LEBB 011500Z 11010KT 070V150 9999 FEW060 27/16 Q1016 NOSIG,0,10,0,10000,0,0,0,
2026-05-01 14:30:00,METAR LEBB 011430Z 10009KT 070V140 9999 FEW057 26/16 Q1016 NOSIG,0,9,0,10000,0,0,0,
2026-05-01 14:00:00,METAR LEBB 011400Z 10010KT 070V140 9999 FEW056 27/15 Q1017 NOSIG,0,10,0,10000,0,0,0,
2026-05-01 13:30:00,METAR LEBB 011330Z 12006KT 070V160 9999 SCT050 27/15 Q1017 NOSIG,0,6,0,10000,0,0,0,
2026-05-01 13:00:00,METAR LEBB 011300Z VRB05KT 9999 SCT050 26/15 Q1017 NOSIG,0,5,0,10000,0,0,0,
2026-05-01 12:30:00,METAR LEBB 011230Z 12005KT 080V170 9999 SCT049 25/15 Q1017 NOSIG,0,5,0,10000,0,0,0,
2026-05-01 12:00:00,METAR LEBB 011200Z VRB02KT 9999 FEW043 SCT057 26/16 Q1018 NOSIG,0,2,0,10000,0,0,0,
2026-05-01 11:30:00,METAR LEBB 011130Z VRB02KT 9999 SCT042 SCT050 24/15 Q1018 NOSIG,0,2,0,10000,0,0,0,
2026-05-01 11:00:00,METAR LEBB 011100Z VRB02KT CAVOK 24/16 Q1018 NOSIG,1,0,0,9999,0,0,0,
2026-05-01 10:30:00,METAR LEBB 011030Z VRB02KT 9999 FEW030 23/16 Q1019 NOSIG,0,2,0,10000,0,0,0,
2026-05-01 10:00:00,METAR LEBB 011000Z 11003KT 020V160 9999 FEW025 22/15 Q1019 NOSIG,0,3,0,10000,0,0,0,
2026-05-01 09:30:00,METAR LEBB 010930Z VRB02KT 9999 FEW020 21/15 Q1019 NOSIG,0,2,0,10000,0,0,0,
2026-05-01 09:00:00,METAR LEBB 010900Z VRB03KT 9999 FEW019 20/15 Q1019 TEMPO BKN010,0,3,0,10000,0,0,0,
2026-05-01 08:30:00,METAR LEBB 010830Z 11003KT 020V160 CAVOK 19/14 Q1020 TEMPO BKN010,1,0,0,9999,0,0,0,
2026-05-01 08:00:00,METAR LEBB 010800Z 10003KT 060V130 CAVOK 18/15 Q1020 TEMPO BKN010,1,0,0,9999,0,0,0,
2026-05-01 07:30:00,METAR LEBB 010730Z VRB02KT CAVOK 17/15 Q1020 TEMPO BKN010,1,0,0,9999,0,0,0,
2026-05-01 07:00:00,METAR LEBB 010700Z VRB01KT CAVOK 16/15 Q1020 TEMPO BKN010,1,0,0,9999,0,0,0,
2026-05-01 06:30:00,METAR LEBB 010630Z VRB02KT CAVOK 15/14 Q1020 TEMPO BKN010,1,0,0,9999,0,0,0,
2026-05-01 06:00:00,METAR LEBB 010600Z 11003KT 080V140 9999 FEW017 15/14 Q1020 TEMPO BKN010,0,3,0,10000,0,0,0,
2026-05-01 05:30:00,METAR LEBB 010530Z 10003KT 070V130 9999 BKN017 15/14 Q1019 TEMPO BKN010,0,3,0,10000,0,0,0,
2026-05-01 05:00:00,METAR LEBB 010500Z 11003KT 010V150 9999 BKN018 15/14 Q1019 TEMPO BKN010,0,3,0,10000,0,0,0,
2026-05-01 04:30:00,METAR LEBB 010430Z 10002KT 9999 FEW019 15/14 Q1019 TEMPO BKN010,0,2,0,10000,0,0,0,
2026-05-01 04:00:00,METAR LEBB 010400Z 07002KT 9999 FEW017 15/14 Q1019 NOSIG,0,2,0,10000,0,0,0,
2026-05-01 03:30:00,METAR LEBB 010330Z 05005KT 9999 FEW018 15/14 Q1019 NOSIG,0,5,0,10000,0,0,0,
2026-05-01 03:00:00,METAR LEBB 010300Z 09003KT 060V130 9999 FEW019 15/14 Q1019 NOSIG,0,3,0,10000,0,0,0,
2026-05-01 02:30:00,METAR LEBB 010230Z AUTO 07003KT 9999 FEW024 15/14 Q1019,0,3,0,10000,0,0,0,
2026-05-01 02:00:00,METAR LEBB 010200Z AUTO 05002KT 9999 BKN022 BKN027 16/15 Q1019,0,2,0,10000,0,0,0,
2026-05-01 01:30:00,METAR LEBB 010130Z AUTO 10001KT 9999 OVC019 16/14 Q1020,0,1,0,10000,0,0,0,
2026-05-01 01:00:00,METAR LEBB 010100Z AUTO 09003KT 9999 BKN018 15/15 Q1020,0,3,0,10000,0,0,0,
2026-05-01 00:30:00,METAR LEBB 010030Z AUTO VRB02KT 9999 FEW011 OVC018 15/14 Q1020,0,2,0,10000,0,0,0,
2026-05-01 00:00:00,METAR LEBB 010000Z AUTO VRB02KT 9999 OVC016 15/14 Q1020,0,2,0,10000,0,0,0,
2026-04-30 23:30:00,METAR LEBB 302330Z AUTO 06002KT 9999 SCT015 15/14 Q1020,0,2,0,10000,0,0,0,
2026-04-30 23:00:00,METAR LEBB 302300Z AUTO 00000KT CAVOK 15/14 Q1020,1,0,0,9999,0,0,0,
2026-04-30 22:30:00,METAR LEBB 302230Z AUTO VRB01KT CAVOK 15/14 Q1020,1,0,0,9999,0,0,0,
2026-04-30 22:00:00,METAR LEBB 302200Z AUTO 29001KT CAVOK 16/15 Q1020,1,0,0,9999,0,0,0,
2026-04-30 21:30:00,METAR LEBB 302130Z 28003KT 260V320 CAVOK 16/15 Q1020 NOSIG,1,0,0,9999,0,0,0,
2026-04-30 21:00:00,METAR LEBB 302100Z VRB01KT CAVOK 16/15 Q1020 NOSIG,1,0,0,9999,0,0,0,
2026-04-30 20:30:00,METAR LEBB 302030Z 27002KT CAVOK 17/15 Q1020 NOSIG,1,0,0,9999,0,0,0,
2026-04-30 20:00:00,METAR LEBB 302000Z 32003KT 290V030 CAVOK 17/15 Q1019 NOSIG,1,0,0,9999,0,0,0,
2026-04-30 19:30:00,METAR LEBB 301930Z 30006KT CAVOK 17/15 Q1019 NOSIG,1,0,0,9999,0,0,0,
2026-04-30 19:00:00,METAR LEBB 301900Z 27005KT 240V300 CAVOK 17/15 Q1019 NOSIG,1,0,0,9999,0,0,0,
2026-04-30 18:30:00,METAR LEBB 301830Z 36006KT 330V040 CAVOK 18/15 Q1018 NOSIG,1,0,0,9999,0,0,0,
2026-04-30 18:00:00,METAR LEBB 301800Z 01007KT 330V050 CAVOK 19/14 Q1018 NOSIG,1,0,0,9999,0,0,0,
2026-04-30 17:30:00,METAR LEBB 301730Z 36007KT 330V030 9999 FEW042 20/15 Q1018 NOSIG,0,7,0,10000,0,0,0,
2026-04-30 17:00:00,METAR LEBB 301700Z 36006KT 320V070 9999 FEW035 SCT043 21/12 Q1018 NOSIG,0,6,0,10000,0,0,0,
2026-04-30 16:30:00,METAR LEBB 301630Z 36008KT 330V050 9999 SCT042 22/12 Q1017 NOSIG,0,8,0,10000,0,0,0,
2026-04-30 16:00:00,METAR LEBB 301600Z VRB07KT 9999 FEW042 21/12 Q1017 NOSIG,0,7,0,10000,0,0,0,
2026-04-30 14:30:00,METAR LEBB 301430Z 34008KT 290V020 CAVOK 22/13 Q1017 NOSIG,1,0,0,9999,0,0,0,
2026-04-30 14:00:00,METAR LEBB 301400Z 33009KT 290V010 9999 FEW040 22/13 Q1017 NOSIG,0,9,0,10000,0,0,0,
2026-04-30 13:30:00,METAR LEBB 301330Z 31010KT 270V350 9999 FEW040 22/14 Q1016 NOSIG,0,10,0,10000,0,0,0,
2026-04-30 13:00:00,METAR LEBB 301300Z 32007KT 270V360 9999 FEW038 22/14 Q1016 NOSIG,0,7,0,10000,0,0,0,
2026-04-30 12:30:00,METAR LEBB 301230Z 28010KT 250V320 9999 FEW042 22/15 Q1016 NOSIG,0,10,0,10000,0,0,0,
2026-04-30 12:00:00,METAR LEBB 301200Z 27007KT 210V310 9999 FEW040 21/15 Q1016 NOSIG,0,7,0,10000,0,0,0,
2026-04-30 11:30:00,METAR LEBB 301130Z 29007KT 240V320 9999 FEW040 22/14 Q1016 NOSIG,0,7,0,10000,0,0,0,
2026-04-30 11:00:00,METAR LEBB 301100Z 29007KT 250V330 9999 FEW040 21/13 Q1016 NOSIG,0,7,0,10000,0,0,0,
2026-04-30 10:30:00,METAR LEBB 301030Z 32004KT 240V010 9999 FEW030 21/15 Q1016 NOSIG,0,4,0,10000,0,0,0,
2026-04-30 10:00:00,METAR LEBB 301000Z 28006KT 250V310 9999 FEW015 20/17 Q1016 NOSIG,0,6,0,10000,0,0,0,
2026-04-30 09:30:00,METAR LEBB 300930Z 28007KT 240V310 9999 FEW015 19/16 Q1016 NOSIG,0,7,0,10000,0,0,0,
2026-04-30 09:00:00,METAR LEBB 300900Z 27007KT 240V300 CAVOK 19/16 Q1016 NOSIG,1,0,0,9999,0,0,0,
2026-04-30 08:30:00,METAR LEBB 300830Z 26005KT 200V300 CAVOK 20/16 Q1016 NOSIG,1,0,0,9999,0,0,0,
2026-04-30 08:00:00,METAR LEBB 300800Z VRB02KT CAVOK 19/12 Q1015 NOSIG,1,0,0,9999,0,0,0,
2026-04-30 07:30:00,METAR LEBB 300730Z 09003KT 050V150 CAVOK 19/12 Q1015 NOSIG,1,0,0,9999,0,0,0,
2026-04-30 07:00:00,METAR LEBB 300700Z VRB02KT CAVOK 18/13 Q1014 NOSIG,1,0,0,9999,0,0,0,
2026-04-30 06:30:00,METAR LEBB 300630Z VRB02KT 9999 FEW070 16/14 Q1014 NOSIG,0,2,0,10000,0,0,0,
2026-04-30 06:00:00,METAR LEBB 300600Z 08004KT 020V190 9999 FEW070 15/13 Q1014 NOSIG,0,4,0,10000,0,0,0,
2026-04-30 05:30:00,METAR LEBB 300530Z 07004KT 010V150 9999 FEW070 16/13 Q1013 NOSIG,0,4,0,10000,0,0,0,
2026-04-30 05:00:00,METAR LEBB 300500Z 12003KT 070V210 9999 FEW060 15/13 Q1013 NOSIG,0,3,0,10000,0,0,0,
2026-04-30 04:30:00,METAR LEBB 300430Z 09005KT 060V140 9999 FEW060 15/13 Q1013 NOSIG,0,5,0,10000,0,0,0,
2026-04-30 04:00:00,METAR LEBB 300400Z 11004KT 070V150 9999 FEW065 15/14 Q1013 NOSIG,0,4,0,10000,0,0,0,
2026-04-30 03:30:00,METAR LEBB 300330Z 06005KT 040V110 9999 FEW065 15/14 Q1012 NOSIG,0,5,0,10000,0,0,0,
2026-04-30 03:00:00,METAR LEBB 300300Z 04006KT 9999 FEW040 SCT065 17/13 Q1012 NOSIG,0,6,0,10000,0,0,0,
2026-04-30 02:30:00,METAR LEBB 300230Z AUTO 08003KT CAVOK 16/13 Q1012,1,0,0,9999,0,0,0,
2026-04-30 02:00:00,METAR LEBB 300200Z AUTO 08005KT 030V130 CAVOK 16/13 Q1012,1,0,0,9999,0,0,0,
2026-04-30 01:30:00,METAR LEBB 300130Z AUTO VRB06KT CAVOK 16/13 Q1012,1,0,0,9999,0,0,0,
2026-04-30 01:00:00,METAR LEBB 300100Z AUTO 16008KT 120V190 CAVOK 16/13 Q1011,1,0,0,9999,0,0,0,
2026-04-30 00:30:00,METAR LEBB 300030Z AUTO 17009KT 120V240 CAVOK 16/13 Q1011,1,0,0,9999,0,0,0,
2026-04-30 00:00:00,METAR LEBB 300000Z AUTO 09010KT 070V140 9999 -RA FEW068 15/14 Q1010,0,10,0,10000,0,0,0,-RA
2026-04-29 23:30:00,METAR LEBB 292330Z AUTO VRB03KT CAVOK 15/14 Q1011,1,0,0,9999,0,0,0,
2026-04-29 23:00:00,METAR LEBB 292300Z AUTO 10005KT 070V140 CAVOK 15/13 Q1012,1,0,0,9999,0,0,0,
2026-04-29 22:30:00,METAR LEBB 292230Z AUTO 12009KT 070V150 9999 -RA NSC 15/14 Q1012 RETSRA,0,9,0,10000,1,0,0,"-RA,RA"
2026-04-29 22:00:00,METAR LEBB 292200Z 10012KT 070V130 7000 -RA VCTS FEW018 FEW050CB BKN060 15/15 Q1011 RETSRA NOSIG,0,12,0,7000,1,0,0,"-RA,RA,TS,VC"
2026-04-29 21:56:00,SPECI LEBB 292156Z 08012KT 050V120 4000 -RA VCTS FEW018 FEW050CB BKN060 15/15 Q1011 RETSRA BECMG 9000 NSW,0,12,0,4000,1,0,0,"-RA,RA,TS,VC"
2026-04-29 21:50:00,SPECI LEBB 292150Z 06011KT 4000 TSRA FEW018 SCT043CB BKN060 15/15 Q1011 BECMG 9000 NSW,0,11,0,4000,1,0,0,"RA,TS"
2026-04-29 21:36:00,SPECI LEBB 292136Z 18005KT 120V240 4000 +TSRA FEW018 SCT042CB BKN060 16/14 Q1012 BECMG 9000 NSW,0,5,0,4000,1,0,0,RA
2026-04-29 21:30:00,METAR LEBB 292130Z 18005KT 090V260 5000 TSRA FEW018 SCT044CB BKN065 16/14 Q1012 TEMPO 3000,0,5,0,5000,1,0,0,"RA,TS"
2026-04-29 21:13:00,SPECI LEBB 292113Z 06003KT 020V140 8000 TSRA FEW015 SCT045CB BKN065 16/15 Q1011 TEMPO 3000,0,3,0,8000,1,0,0,"RA,TS"
2026-04-29 21:05:00,SPECI LEBB 292105Z 13004KT 070V190 6000 +TSRA FEW015 SCT040CB BKN070 16/15 Q1011 TEMPO 3000,0,4,0,6000,1,0,0,RA
2026-04-29 21:00:00,METAR LEBB 292100Z VRB02KT 9999 TSRA FEW015 SCT040CB BKN070 17/15 Q1011 TEMPO 3000,0,2,0,10000,1,0,0,"RA,TS"
2026-04-29 20:47:00,SPECI LEBB 292047Z VRB02KT 9999 TSRA FEW015 SCT040CB BKN070 17/15 Q1011 TEMPO 3000,0,2,0,10000,1,0,0,"RA,TS"
2026-04-29 20:30:00,METAR LEBB 292030Z VRB03KT 9999 -RA VCTS FEW015 FEW045CB BKN065 16/15 Q1010 TEMPO 3000 TSRA SCT040CB,0,3,0,10000,1,0,0,"-RA,RA,TS,VC"
2026-04-29 20:00:00,METAR LEBB 292000Z 24007KT 170V290 9999 -RA FEW045TCU BKN070 17/14 Q1010 TEMPO 3000 TSRA SCT040CB,0,7,0,10000,1,0,0,"-RA,RA,TS"
2026-04-29 19:46:00,SPECI LEBB 291946Z 23011G21KT 200V280 9999 -RA FEW040TCU BKN065 17/14 Q1009 TEMPO 3000 TSRA SCT040CB,0,11,1,10000,1,0,0,"-RA,RA,TS"
2026-04-29 19:30:00,METAR LEBB 291930Z 14010KT 070V190 9999 RA VCTS FEW040CB BKN067 18/13 Q1009 TEMPO 3000 TSRA SCT040CB,0,10,0,10000,1,0,0,"RA,TS,VC"
2026-04-29 19:26:00,SPECI LEBB 291926Z 12009KT 080V180 9999 RA FEW040TCU SCT070 18/13 Q1009 TEMPO 3000 TSRA SCT040CB,0,9,0,10000,1,0,0,"RA,TS"
2026-04-29 19:00:00,METAR LEBB 291900Z 14005KT 080V170 9999 FEW040TCU SCT070 18/14 Q1009 TEMPO 3000 TSRA SCT040CB,0,5,0,10000,1,0,0,"RA,TS"
2026-04-29 18:30:00,METAR LEBB 291830Z 08007KT 050V120 9999 FEW035 SCT070 18/14 Q1008 TEMPO 3000 TSRA SCT040CB,0,7,0,10000,1,0,0,"RA,TS"
2026-04-29 18:00:00,METAR LEBB 291800Z 07008G19KT 040V110 9999 FEW035 SCT070 18/15 Q1008 NOSIG,0,8,1,10000,0,0,0,
2026-04-29 17:30:00,METAR LEBB 291730Z 12006KT 080V140 9999 FEW035CB SCT070 17/14 Q1007 NOSIG,0,6,0,10000,0,0,0,
2026-04-29 17:00:00,METAR LEBB 291700Z 11009KT 080V140 9999 FEW035CB SCT070 17/14 Q1008 NOSIG,0,9,0,10000,0,0,0,
2026-04-29 16:30:00,METAR LEBB 291630Z 13009KT 080V170 9999 -RA FEW035CB BKN070 18/16 Q1007 RETSRA TEMPO 3000 TSRA SCT035TCU,0,9,0,10000,1,0,0,"-RA,RA,TS"
2026-04-29 16:13:00,SPECI LEBB 291613Z 06012KT 9999 -RA VCTS FEW030 SCT035CB BKN055 18/16 Q1007 RETSRA TEMPO 3000 TSRA,0,12,0,10000,1,0,0,"-RA,RA,TS,VC"
2026-04-29 16:00:00,METAR LEBB 291600Z 28006KT 240V320 9999 -RA SCT035CB BKN065 20/17 Q1007 RERA TEMPO 3000 TSRA SCT035CB,0,6,0,10000,1,0,0,"-RA,RA,TS"
2026-04-29 15:57:00,SPECI LEBB 291557Z 23014G25KT 200V280 9999 4000W TSRA SCT035CB BKN065 19/16 Q1008 TEMPO 3000,0,14,1,10000,1,0,0,"RA,TS"
2026-04-29 15:30:00,METAR LEBB 291530Z 15003KT 110V210 9999 RA FEW030 BKN065 22/15 Q1007 TEMPO 3000 TSRA SCT035CB,0,3,0,10000,1,0,0,"RA,TS"
2026-04-29 15:00:00,METAR LEBB 291500Z 14011KT 090V170 9999 FEW030 23/14 Q1007 NOSIG,0,11,0,10000,0,0,0,
2026-04-29 14:30:00,METAR LEBB 291430Z 13011KT 080V170 9999 FEW028 24/15 Q1007 NOSIG,0,11,0,10000,0,0,0,
2026-04-29 14:00:00,METAR LEBB 291400Z 14012KT 110V200 9999 FEW028 SCT050 23/15 Q1007 NOSIG,0,12,0,10000,0,0,0,
2026-04-29 13:30:00,METAR LEBB 291330Z 15006KT 100V210 9999 FEW028 SCT040 23/15 Q1007 NOSIG,0,6,0,10000,0,0,0,
2026-04-29 13:00:00,METAR LEBB 291300Z 11008KT 070V180 8000 FEW028 23/15 Q1007 NOSIG,0,8,0,8000,0,0,0,
2026-04-29 12:30:00,METAR LEBB 291230Z 10005KT 050V160 8000 FEW028 22/17 Q1007 NOSIG,0,5,0,8000,0,0,0,
2026-04-29 12:00:00,METAR LEBB 291200Z 13003KT 060V230 8000 FEW028 SCT060 21/15 Q1007 NOSIG,0,3,0,8000,0,0,0,
2026-04-29 11:30:00,METAR LEBB 291130Z 11005KT 060V190 8000 FEW025 SCT060 21/16 Q1008 NOSIG,0,5,0,8000,0,0,0,
2026-04-29 11:00:00,METAR LEBB 291100Z 13007KT 080V170 8000 FEW018 SCT060 19/15 Q1008 NOSIG,0,7,0,8000,0,0,0,
2026-04-29 10:30:00,METAR LEBB 291030Z 12005KT 050V160 8000 SCT016 SCT055 18/15 Q1008 NOSIG,0,5,0,8000,0,0,0,
2026-04-29 10:00:00,METAR LEBB 291000Z 08004KT 040V140 8000 FEW009 SCT025 BKN055 17/15 Q1008 NOSIG,0,4,0,8000,0,0,0,
2026-04-29 09:30:00,METAR LEBB 290930Z 11003KT 040V160 8000 FEW009 SCT018 BKN050 17/15 Q1008 NOSIG,0,3,0,8000,0,0,0,
2026-04-29 09:00:00,METAR LEBB 290900Z VRB01KT 6000 -RA SCT007 BKN018 OVC050 16/15 Q1008 TEMPO 3000 RA,0,1,0,6000,0,0,0,"-RA,RA"
2026-04-29 08:30:00,METAR LEBB 290830Z VRB01KT 6000 -RA FEW006 SCT014 OVC035 16/15 Q1009 TEMPO 3000 RA,0,1,0,6000,0,0,0,"-RA,RA"
2026-04-29 08:00:00,METAR LEBB 290800Z VRB02KT 6000 -RA FEW006 SCT010 OVC015 16/15 Q1009 TEMPO 3000 RA,0,2,0,6000,0,0,0,"-RA,RA"
2026-04-29 07:30:00,METAR LEBB 290730Z 00000KT 6000 -RA FEW006 SCT011 OVC016 16/15 Q1009 TEMPO 3000 RA,0,0,0,6000,0,0,0,"-RA,RA"
2026-04-29 07:00:00,METAR LEBB 290700Z 00000KT 6000 -RA FEW008 OVC016 16/15 Q1008 TEMPO 3000 RA,0,0,0,6000,0,0,0,"-RA,RA"
2026-04-29 06:30:00,METAR LEBB 290630Z VRB01KT 6000 -RA FEW008 OVC017 15/15 Q1008 TEMPO 3000 RA,0,1,0,6000,0,0,0,"-RA,RA"
2026-04-29 06:00:00,METAR LEBB 290600Z VRB01KT 6000 FEW008 OVC017 15/14 Q1008 NOSIG,0,1,0,6000,0,0,0,
2026-04-29 05:30:00,METAR LEBB 290530Z VRB01KT 6000 FEW005 OVC018 15/15 Q1008 NOSIG,0,1,0,6000,0,0,0,
2026-04-29 05:00:00,METAR LEBB 290500Z 11002KT 6000 FEW008 OVC018 15/15 Q1008 TEMPO 3000 RA,0,2,0,6000,0,0,0,RA
2026-04-29 04:30:00,METAR LEBB 290430Z VRB01KT 6000 -RA SCT012 BKN020 BKN040 15/15 Q1008 TEMPO 3000 RA,0,1,0,6000,0,0,0,"-RA,RA"
2026-04-29 04:00:00,METAR LEBB 290400Z VRB01KT 6000 -RA SCT009 BKN018 BKN040 15/15 Q1009 TEMPO 3000 RA,0,1,0,6000,0,0,0,"-RA,RA"
2026-04-29 03:30:00,METAR LEBB 290330Z VRB01KT 6000 -RA SCT009 BKN020 BKN042 15/15 Q1009 TEMPO 3000 RA,0,1,0,6000,0,0,0,"-RA,RA"
2026-04-29 03:00:00,METAR LEBB 290300Z VRB02KT 8000 -RA SCT010 BKN020 15/15 Q1009 TEMPO 3000 RA,0,2,0,8000,0,0,0,"-RA,RA"
2026-04-29 02:30:00,METAR LEBB 290230Z AUTO 00000KT 4600 -RA BR FEW006 BKN011 OVC019 15/15 Q1009 RERA,0,0,0,4600,0,0,1,"-RA,BR,RA"
2026-04-29 02:00:00,METAR LEBB 290200Z AUTO 00000KT 6000 RA FEW007 BKN013 OVC020 16/15 Q1010,0,0,0,6000,0,0,0,RA
2026-04-29 01:30:00,METAR LEBB 290130Z AUTO VRB01KT 7000 -RA BKN011 BKN020 OVC025 16/15 Q1010,0,1,0,7000,0,0,0,-RA
2026-04-29 01:00:00,METAR LEBB 290100Z AUTO VRB01KT 9999 -RA FEW013 OVC019 16/15 Q1010,0,1,0,10000,0,0,0,-RA
2026-04-29 00:30:00,METAR LEBB 290030Z AUTO 00000KT 9999 -RA BKN013 BKN019 OVC024 16/15 Q1010,0,0,0,10000,0,0,0,-RA
2026-04-29 00:00:00,METAR LEBB 290000Z AUTO 30002KT 9999 -RA BKN011 BKN020 OVC025 16/15 Q1011,0,2,0,10000,0,0,0,-RA
2026-04-28 23:30:00,METAR LEBB 282330Z AUTO VRB02KT 9999 FEW012 BKN023 OVC032 16/15 Q1011,0,2,0,10000,0,0,0,
2026-04-28 23:00:00,METAR LEBB 282300Z AUTO VRB01KT 9999 FEW011 SCT022 BKN034 16/15 Q1011,0,1,0,10000,0,0,0,
2026-04-28 22:30:00,METAR LEBB 282230Z AUTO 33003KT 310V010 9999 FEW011 BKN032 16/15 Q1011,0,3,0,10000,0,0,0,
2026-04-28 22:00:00,METAR LEBB 282200Z AUTO 31002KT 9999 FEW012 BKN037 BKN058 16/15 Q1012,0,2,0,10000,0,0,0,
2026-04-28 21:30:00,METAR LEBB 282130Z 29003KT 9999 FEW011 BKN035 BKN052 16/15 Q1012 NOSIG,0,3,0,10000,0,0,0,
2026-04-28 21:00:00,METAR LEBB 282100Z 29004KT 270V330 9999 FEW011 BKN034 BKN058 16/15 Q1012 NOSIG,0,4,0,10000,0,0,0,
2026-04-28 20:30:00,METAR LEBB 282030Z 32003KT 290V350 9999 FEW011 BKN032 16/15 Q1012 NOSIG,0,3,0,10000,0,0,0,
2026-04-28 20:00:00,METAR LEBB 282000Z 31003KT 280V360 9999 SCT013 BKN034 BKN056 16/15 Q1011 NOSIG,0,3,0,10000,0,0,0,
2026-04-28 19:30:00,METAR LEBB 281930Z 28003KT 9999 SCT013 BKN030 BKN050 17/15 Q1012 NOSIG,0,3,0,10000,0,0,0,
2026-04-28 19:00:00,METAR LEBB 281900Z 31005KT 9999 FEW015 SCT031 BKN057 17/14 Q1011 NOSIG,0,5,0,10000,0,0,0,
2026-04-28 18:30:00,METAR LEBB 281830Z 30006KT 9999 FEW014 SCT032 BKN057 17/14 Q1011 NOSIG,0,6,0,10000,0,0,0,
2026-04-28 18:00:00,METAR LEBB 281800Z 28005KT 250V310 9999 FEW014 BKN032 17/14 Q1011 NOSIG,0,5,0,10000,0,0,0,
2026-04-28 17:30:00,METAR LEBB 281730Z 29006KT 260V330 9999 SCT014 BKN029 17/14 Q1012 NOSIG,0,6,0,10000,0,0,0,
2026-04-28 17:00:00,METAR LEBB 281700Z 28007KT 250V320 9999 FEW012 BKN027 18/15 Q1012 NOSIG,0,7,0,10000,0,0,0,
2026-04-28 16:30:00,METAR LEBB 281630Z 30005KT 280V350 9999 SCT023 BKN032 18/14 Q1012 NOSIG,0,5,0,10000,0,0,0,
2026-04-28 16:00:00,METAR LEBB 281600Z 32009KT 290V350 9999 SCT021 BKN032 18/15 Q1012 NOSIG,0,9,0,10000,0,0,0,
2026-04-28 15:30:00,METAR LEBB 281530Z 28008KT 240V300 9999 SCT019 BKN027 19/15 Q1012 NOSIG,0,8,0,10000,0,0,0,
2026-04-28 15:00:00,METAR LEBB 281500Z 27007KT 230V290 9999 FEW012 SCT019 BKN027 20/16 Q1012 NOSIG,0,7,0,10000,0,0,0,
2026-04-28 14:30:00,METAR LEBB 281430Z 30007KT 9000 FEW012 BKN019 20/15 Q1012 NOSIG,0,7,0,9000,0,0,0,
2026-04-28 14:00:00,METAR LEBB 281400Z 33007KT 280V350 9000 FEW011 BKN018 20/16 Q1012 NOSIG,0,7,0,9000,0,0,0,
2026-04-28 13:30:00,METAR LEBB 281330Z 30008KT 280V350 9000 FEW010 BKN019 20/16 Q1012 NOSIG,0,8,0,9000,0,0,0,
2026-04-28 13:00:00,METAR LEBB 281300Z 32008KT 280V350 9999 FEW010 BKN019 20/16 Q1013 NOSIG,0,8,0,10000,0,0,0,
2026-04-28 12:30:00,METAR LEBB 281230Z 31007KT 280V360 9999 BKN018 20/16 Q1013 NOSIG,0,7,0,10000,0,0,0,
2026-04-28 12:00:00,METAR LEBB 281200Z 33005KT 250V010 9999 SCT018 SCT030 20/16 Q1013 NOSIG,0,5,0,10000,0,0,0,
2026-04-28 11:30:00,METAR LEBB 281130Z 31007KT 270V350 9999 BKN017 19/16 Q1014 NOSIG,0,7,0,10000,0,0,0,
2026-04-28 11:00:00,METAR LEBB 281100Z VRB04KT 9999 FEW013 SCT025 21/16 Q1014 NOSIG,0,4,0,10000,0,0,0,
2026-04-28 10:30:00,METAR LEBB 281030Z VRB03KT 9999 BKN021 20/15 Q1014 TEMPO BKN010,0,3,0,10000,0,0,0,
2026-04-28 10:00:00,METAR LEBB 281000Z 01003KT 290V070 8000 FEW015 BKN024 19/15 Q1014 TEMPO BKN010,0,3,0,8000,0,0,0,
2026-04-28 09:30:00,METAR LEBB 280930Z VRB01KT 7000 BKN019 18/15 Q1014 TEMPO BKN010,0,1,0,7000,0,0,0,
2026-04-28 09:00:00,METAR LEBB 280900Z VRB01KT 6000 OVC014 17/15 Q1014 BECMG SCT010,0,1,0,6000,0,0,0,
2026-04-28 08:30:00,METAR LEBB 280830Z VRB01KT 6000 OVC014 17/15 Q1014 BECMG SCT010,0,1,0,6000,0,0,0,
2026-04-28 08:00:00,METAR LEBB 280800Z VRB01KT 6000 BKN010 OVC016 17/15 Q1015 BECMG SCT010,0,1,0,6000,0,0,0,
2026-04-28 07:30:00,METAR LEBB 280730Z VRB02KT 6000 BKN010 OVC016 16/15 Q1015 BECMG SCT010,0,2,0,6000,0,0,0,
2026-04-28 07:00:00,METAR LEBB 280700Z 28002KT 6000 BKN010 OVC017 16/15 Q1015 BECMG SCT010,0,2,0,6000,0,0,0,
2026-04-28 06:30:00,METAR LEBB 280630Z VRB01KT 6000 BKN010 OVC020 16/15 Q1015 BECMG SCT010,0,1,0,6000,0,0,0,
2026-04-28 06:00:00,METAR LEBB 280600Z VRB01KT 7000 SCT012 OVC020 16/15 Q1015 TEMPO BKN010,0,1,0,7000,0,0,0,
2026-04-28 05:30:00,METAR LEBB 280530Z 00000KT 8000 FEW010 BKN020 16/15 Q1014 TEMPO BKN010,0,0,0,8000,0,0,0,
2026-04-28 05:00:00,METAR LEBB 280500Z 13002KT 9999 BKN020 16/15 Q1014 TEMPO BKN010,0,2,0,10000,0,0,0,
2026-04-28 04:30:00,METAR LEBB 280430Z 06002KT 9999 OVC019 16/15 Q1015 NOSIG,0,2,0,10000,0,0,0,
2026-04-28 04:00:00,METAR LEBB 280400Z VRB02KT 9999 OVC019 16/15 Q1015 NOSIG,0,2,0,10000,0,0,0,
2026-04-28 03:30:00,METAR LEBB 280330Z 06003KT 030V100 9999 OVC020 16/15 Q1015 NOSIG,0,3,0,10000,0,0,0,
2026-04-28 03:00:00,METAR LEBB 280300Z VRB02KT 9999 OVC020 16/15 Q1015 NOSIG,0,2,0,10000,0,0,0,
2026-04-28 02:30:00,METAR LEBB 280230Z AUTO 00000KT 9999 OVC021 16/15 Q1015,0,0,0,10000,0,0,0,
2026-04-28 02:00:00,METAR LEBB 280200Z AUTO VRB01KT 9999 BKN020 OVC025 16/15 Q1016,0,1,0,10000,0,0,0,
2026-04-28 01:30:00,METAR LEBB 280130Z AUTO VRB01KT 9999 BKN011 OVC017 16/15 Q1016,0,1,0,10000,0,0,0,
2026-04-28 01:00:00,METAR LEBB 280100Z AUTO VRB02KT 9999 BKN009 OVC013 16/15 Q1016,0,2,0,10000,0,0,0,
2026-04-28 00:30:00,METAR LEBB 280030Z AUTO 09003KT 070V130 9999 OVC008 16/15 Q1016,0,3,0,10000,0,0,0,
2026-04-28 00:00:00,METAR LEBB 280000Z AUTO 09004KT 060V140 9999 OVC009 16/15 Q1017,0,4,0,10000,0,0,0,
2026-04-27 23:30:00,METAR LEBB 272330Z AUTO 12003KT 080V140 9999 OVC009 16/15 Q1017,0,3,0,10000,0,0,0,
2026-04-27 23:00:00,METAR LEBB 272300Z AUTO VRB02KT 9999 OVC009 16/15 Q1018,0,2,0,10000,0,0,0,
2026-04-27 22:30:00,METAR LEBB 272230Z AUTO VRB02KT 9999 OVC010 16/15 Q1018,0,2,0,10000,0,0,0,
2026-04-27 22:00:00,METAR LEBB 272200Z AUTO 07003KT 030V120 9999 OVC011 16/15 Q1018,0,3,0,10000,0,0,0,
2026-04-27 21:30:00,METAR LEBB 272130Z 04005KT 010V110 9999 SCT009 BKN013 16/15 Q1018 NOSIG,0,5,0,10000,0,0,0,
2026-04-27 21:00:00,METAR LEBB 272100Z VRB01KT 9999 OVC013 16/15 Q1018 NOSIG,0,1,0,10000,0,0,0,
2026-04-27 20:30:00,METAR LEBB 272030Z VRB02KT 9999 OVC013 16/15 Q1018 NOSIG,0,2,0,10000,0,0,0,
2026-04-27 20:00:00,METAR LEBB 272000Z VRB02KT 9999 BKN013 BKN057 16/15 Q1018 NOSIG,0,2,0,10000,0,0,0,
2026-04-27 19:30:00,METAR LEBB 271930Z 05005KT 360V070 9999 SCT015 BKN057 16/15 Q1017 NOSIG,0,5,0,10000,0,0,0,
2026-04-27 19:00:00,METAR LEBB 271900Z 08006KT 040V170 9999 FEW014 BKN019 17/15 Q1018 NOSIG,0,6,0,10000,0,0,0,
2026-04-27 18:30:00,METAR LEBB 271830Z 08006KT 040V110 9999 FEW014 BKN023 17/15 Q1018 TEMPO 3000 SHRA SCT020TCU,0,6,0,10000,0,0,0,"RA,SH"
2026-04-27 18:00:00,METAR LEBB 271800Z 09006KT 070V130 9999 SCT014 BKN018 FEW020TCU 17/15 Q1018 TEMPO 3000 SHRA SCT020TCU,0,6,0,10000,0,0,0,"RA,SH"
2026-04-27 17:30:00,METAR LEBB 271730Z 09004KT 050V110 9000 -SHRA FEW014 BKN017 FEW020TCU 17/15 Q1018 TEMPO 3000 SHRA SCT020TCU,0,4,0,9000,0,0,0,"RA,SH"
2026-04-27 17:00:00,METAR LEBB 271700Z 06004KT 360V110 9999 SCT015 BKN023 18/16 Q1018 TEMPO 3000 SHRA SCT020TCU,0,4,0,10000,0,0,0,"RA,SH"
2026-04-27 16:30:00,METAR LEBB 271630Z 06004KT 030V120 9999 SCT015 BKN022 18/15 Q1017 TEMPO 3000 SHRA SCT020TCU,0,4,0,10000,0,0,0,"RA,SH"
2026-04-27 16:00:00,METAR LEBB 271600Z 08005KT 050V120 9999 SCT015 BKN021 18/15 Q1018 NOSIG,0,5,0,10000,0,0,0,
2026-04-27 15:30:00,METAR LEBB 271530Z 05007KT 020V080 9999 SCT015 BKN022 18/15 Q1018 NOSIG,0,7,0,10000,0,0,0,
2026-04-27 15:00:00,METAR LEBB 271500Z 10005KT 070V150 9999 SCT015 BKN021 19/15 Q1018 NOSIG,0,5,0,10000,0,0,0,
2026-04-27 14:30:00,METAR LEBB 271430Z 09007KT 060V140 9999 SCT015 BKN024 19/15 Q1018 NOSIG,0,7,0,10000,0,0,0,
2026-04-27 14:00:00,METAR LEBB 271400Z 11004KT 080V160 9999 BKN015 18/15 Q1018 NOSIG,0,4,0,10000,0,0,0,
2026-04-27 13:30:00,METAR LEBB 271330Z 04006KT 350V070 9999 BKN014 18/14 Q1019 NOSIG,0,6,0,10000,0,0,0,
2026-04-27 13:00:00,METAR LEBB 271300Z 04004KT 330V080 9999 BKN014 18/14 Q1019 NOSIG,0,4,0,10000,0,0,0,
2026-04-27 12:30:00,METAR LEBB 271230Z 06005KT 010V100 9999 BKN014 17/14 Q1019 NOSIG,0,5,0,10000,0,0,0,
2026-04-27 12:00:00,METAR LEBB 271200Z 02006KT 350V060 9999 FEW013 BKN016 17/14 Q1019 NOSIG,0,6,0,10000,0,0,0,
2026-04-27 11:30:00,METAR LEBB 271130Z 05004KT 010V090 9999 BKN014 17/14 Q1020 NOSIG,0,4,0,10000,0,0,0,
2026-04-27 11:00:00,METAR LEBB 271100Z 05005KT 010V080 9999 BKN013 17/14 Q1020 NOSIG,0,5,0,10000,0,0,0,
2026-04-27 10:30:00,METAR LEBB 271030Z 05004KT 360V100 9999 BKN013 16/14 Q1020 NOSIG,0,4,0,10000,0,0,0,
2026-04-27 10:00:00,METAR LEBB 271000Z 06004KT 030V170 9999 BKN011 BKN015 16/14 Q1020 NOSIG,0,4,0,10000,0,0,0,
2026-04-27 09:30:00,METAR LEBB 270930Z 07003KT 020V120 9999 SCT011 BKN015 16/14 Q1020 NOSIG,0,3,0,10000,0,0,0,
2026-04-27 09:00:00,METAR LEBB 270900Z 08004KT 030V120 9999 SCT014 BKN018 16/14 Q1020 NOSIG,0,4,0,10000,0,0,0,
2026-04-27 08:30:00,METAR LEBB 270830Z 03003KT 330V080 9999 SCT014 BKN021 16/14 Q1020 NOSIG,0,3,0,10000,0,0,0,
2026-04-27 08:00:00,METAR LEBB 270800Z 03004KT 360V070 9999 SCT014 BKN019 16/14 Q1020 NOSIG,0,4,0,10000,0,0,0,
2026-04-27 07:30:00,METAR LEBB 270730Z 04003KT 350V090 9999 SCT014 BKN022 15/13 Q1021 NOSIG,0,3,0,10000,0,0,0,
2026-04-27 07:00:00,METAR LEBB 270700Z VRB02KT 9999 SCT013 BKN023 16/13 Q1020 NOSIG,0,2,0,10000,0,0,0,
2026-04-27 06:30:00,METAR LEBB 270630Z 00000KT 9999 SCT014 BKN019 15/13 Q1020 NOSIG,0,0,0,10000,0,0,0,
2026-04-27 06:00:00,METAR LEBB 270600Z VRB02KT 9999 SCT013 BKN019 15/13 Q1020 NOSIG,0,2,0,10000,0,0,0,
2026-04-27 05:30:00,METAR LEBB 270530Z 04005KT 360V060 9999 BKN014 15/13 Q1020 NOSIG,0,5,0,10000,0,0,0,
2026-04-27 05:28:00,SPECI LEBB 270528Z 04005KT 360V060 9999 BKN014 15/13 Q1020 NOSIG,0,5,0,10000,0,0,0,
2026-04-27 05:00:00,METAR LEBB 270500Z 04004KT 360V070 9999 BKN019 15/13 Q1020 NOSIG,0,4,0,10000,0,0,0,
2026-04-27 04:30:00,METAR LEBB 270430Z 04002KT 9999 BKN019 16/13 Q1020 NOSIG,0,2,0,10000,0,0,0,
2026-04-27 04:00:00,METAR LEBB 270400Z 00000KT 9999 BKN019 16/12 Q1020 NOSIG,0,0,0,10000,0,0,0,
2026-04-27 03:30:00,METAR LEBB 270330Z VRB01KT 9999 BKN018 16/12 Q1020 NOSIG,0,1,0,10000,0,0,0,
2026-04-27 03:00:00,METAR LEBB 270300Z VRB02KT 9999 BKN018 16/13 Q1020 NOSIG,0,2,0,10000,0,0,0,
2026-04-27 02:30:00,METAR LEBB 270230Z AUTO 01003KT 9999 OVC017 16/12 Q1020,0,3,0,10000,0,0,0,
2026-04-27 02:00:00,METAR LEBB 270200Z AUTO 00000KT 9999 OVC017 16/13 Q1020,0,0,0,10000,0,0,0,
2026-04-27 01:30:00,METAR LEBB 270130Z AUTO VRB01KT 9999 OVC017 16/12 Q1020,0,1,0,10000,0,0,0,
2026-04-27 01:00:00,METAR LEBB 270100Z AUTO VRB02KT 9999 OVC016 16/12 Q1021,0,2,0,10000,0,0,0,
2026-04-27 00:30:00,METAR LEBB 270030Z AUTO VRB01KT 9999 OVC016 16/13 Q1021,0,1,0,10000,0,0,0,
2026-04-27 00:00:00,METAR LEBB 270000Z AUTO 00000KT 9999 OVC016 16/13 Q1021,0,0,0,10000,0,0,0,
2026-04-26 23:30:00,METAR LEBB 262330Z AUTO VRB02KT 9999 OVC016 16/13 Q1021,0,2,0,10000,0,0,0,
2026-04-26 23:00:00,METAR LEBB 262300Z AUTO 26003KT 230V290 9999 OVC016 16/13 Q1021,0,3,0,10000,0,0,0,
2026-04-26 22:30:00,METAR LEBB 262230Z AUTO VRB02KT 9999 OVC016 16/13 Q1021,0,2,0,10000,0,0,0,
2026-04-26 22:00:00,METAR LEBB 262200Z AUTO VRB02KT 9999 OVC016 16/13 Q1021,0,2,0,10000,0,0,0,
2026-04-26 21:30:00,METAR LEBB 262130Z 29004KT 250V330 9999 OVC016 16/13 Q1021 NOSIG,0,4,0,10000,0,0,0,
2026-04-26 21:00:00,METAR LEBB 262100Z 28004KT 9999 OVC016 16/13 Q1021 NOSIG,0,4,0,10000,0,0,0,
2026-04-26 20:30:00,METAR LEBB 262030Z 29004KT 250V320 9999 OVC016 16/13 Q1021 NOSIG,0,4,0,10000,0,0,0,
2026-04-26 20:00:00,METAR LEBB 262000Z 30005KT 230V350 9999 OVC016 16/13 Q1021 NOSIG,0,5,0,10000,0,0,0,
2026-04-26 19:30:00,METAR LEBB 261930Z 28005KT 9999 BKN017 BKN024 16/13 Q1021 NOSIG,0,5,0,10000,0,0,0,
2026-04-26 19:00:00,METAR LEBB 261900Z 28005KT 240V300 9999 FEW026 15/13 Q1020 NOSIG,0,5,0,10000,0,0,0,
2026-04-26 18:30:00,METAR LEBB 261830Z 28008KT 9999 FEW028 16/13 Q1020 NOSIG,0,8,0,10000,0,0,0,
2026-04-26 18:00:00,METAR LEBB 261800Z 28009KT CAVOK 17/13 Q1020 NOSIG,1,0,0,9999,0,0,0,
2026-04-26 17:30:00,METAR LEBB 261730Z 28009KT 230V320 CAVOK 18/13 Q1020 NOSIG,1,0,0,9999,0,0,0,
2026-04-26 17:00:00,METAR LEBB 261700Z 28009KT 240V320 CAVOK 19/13 Q1019 NOSIG,1,0,0,9999,0,0,0,
2026-04-26 16:30:00,METAR LEBB 261630Z 27009KT 230V300 CAVOK 19/13 Q1019 NOSIG,1,0,0,9999,0,0,0,
2026-04-26 16:00:00,METAR LEBB 261600Z 27011KT 230V300 CAVOK 19/13 Q1019 NOSIG,1,0,0,9999,0,0,0,
2026-04-26 15:30:00,METAR LEBB 261530Z 27010KT 230V300 CAVOK 19/13 Q1019 NOSIG,1,0,0,9999,0,0,0,
2026-04-26 15:00:00,METAR LEBB 261500Z 27011KT 230V320 CAVOK 20/13 Q1019 NOSIG,1,0,0,9999,0,0,0,
2026-04-26 14:30:00,METAR LEBB 261430Z 28011KT 240V310 CAVOK 20/14 Q1019 NOSIG,1,0,0,9999,0,0,0,
2026-04-26 14:00:00,METAR LEBB 261400Z 28010KT 230V310 CAVOK 20/13 Q1019 NOSIG,1,0,0,9999,0,0,0,
2026-04-26 13:30:00,METAR LEBB 261330Z 27010KT 210V300 CAVOK 21/14 Q1020 NOSIG,1,0,0,9999,0,0,0,
2026-04-26 13:00:00,METAR LEBB 261300Z 27009KT 230V320 CAVOK 21/14 Q1020 NOSIG,1,0,0,9999,0,0,0,
2026-04-26 12:30:00,METAR LEBB 261230Z 28010KT 240V320 CAVOK 21/14 Q1020 NOSIG,1,0,0,9999,0,0,0,
2026-04-26 12:00:00,METAR LEBB 261200Z VRB03KT CAVOK 21/13 Q1020 NOSIG,1,0,0,9999,0,0,0,
2026-04-26 11:30:00,METAR LEBB 261130Z VRB01KT CAVOK 20/12 Q1020 NOSIG,1,0,0,9999,0,0,0,
2026-04-26 11:00:00,METAR LEBB 261100Z VRB01KT CAVOK 20/11 Q1021 NOSIG,1,0,0,9999,0,0,0,
2026-04-26 10:30:00,METAR LEBB 261030Z VRB02KT CAVOK 19/12 Q1021 NOSIG,1,0,0,9999,0,0,0,
2026-04-26 10:00:00,METAR LEBB 261000Z 03003KT 330V140 9999 BKN023 18/12 Q1021 NOSIG,0,3,0,10000,0,0,0,
2026-04-26 09:30:00,METAR LEBB 260930Z 10003KT 020V170 9999 OVC022 17/11 Q1021 NOSIG,0,3,0,10000,0,0,0,
2026-04-26 09:00:00,METAR LEBB 260900Z 10003KT 050V180 9999 OVC022 17/11 Q1021 NOSIG,0,3,0,10000,0,0,0,
2026-04-26 08:30:00,METAR LEBB 260830Z 07004KT 010V140 9999 OVC022 16/11 Q1021 NOSIG,0,4,0,10000,0,0,0,
2026-04-26 08:00:00,METAR LEBB 260800Z 11004KT 070V130 9999 OVC022 16/11 Q1021 NOSIG,0,4,0,10000,0,0,0,
2026-04-26 07:30:00,METAR LEBB 260730Z 09004KT 050V120 9999 OVC021 16/11 Q1021 NOSIG,0,4,0,10000,0,0,0,
2026-04-26 07:00:00,METAR LEBB 260700Z 06004KT 360V100 9999 OVC021 15/11 Q1021 NOSIG,0,4,0,10000,0,0,0,
2026-04-26 06:30:00,METAR LEBB 260630Z 06004KT 020V100 9999 OVC020 15/12 Q1021 NOSIG,0,4,0,10000,0,0,0,
2026-04-26 06:00:00,METAR LEBB 260600Z 06003KT 010V100 9999 OVC020 15/12 Q1021 NOSIG,0,3,0,10000,0,0,0,
2026-04-26 05:30:00,METAR LEBB 260530Z 05004KT 350V100 9999 OVC019 15/12 Q1021 NOSIG,0,4,0,10000,0,0,0,
2026-04-26 05:00:00,METAR LEBB 260500Z VRB02KT 9999 OVC018 15/12 Q1020 NOSIG,0,2,0,10000,0,0,0,
2026-04-26 04:30:00,METAR LEBB 260430Z 05002KT 9999 OVC017 15/12 Q1020 NOSIG,0,2,0,10000,0,0,0,
2026-04-26 04:00:00,METAR LEBB 260400Z VRB02KT 9999 OVC017 15/12 Q1020 NOSIG,0,2,0,10000,0,0,0,
2026-04-26 03:30:00,METAR LEBB 260330Z 04002KT 9999 OVC017 15/12 Q1020 NOSIG,0,2,0,10000,0,0,0,
2026-04-26 03:00:00,METAR LEBB 260300Z VRB02KT 9999 OVC017 15/12 Q1020 NOSIG,0,2,0,10000,0,0,0,
2026-04-26 02:30:00,METAR LEBB 260230Z AUTO VRB02KT 9999 OVC018 15/12 Q1020,0,2,0,10000,0,0,0,
2026-04-26 02:00:00,METAR LEBB 260200Z AUTO 06003KT 020V080 9999 OVC018 15/12 Q1020,0,3,0,10000,0,0,0,
2026-04-26 01:30:00,METAR LEBB 260130Z AUTO 07003KT 9999 SCT013 OVC020 15/13 Q1021,0,3,0,10000,0,0,0,
2026-04-26 01:00:00,METAR LEBB 260100Z AUTO VRB01KT 9999 OVC019 15/12 Q1021,0,1,0,10000,0,0,0,
2026-04-26 00:30:00,METAR LEBB 260030Z AUTO 00000KT 9999 OVC020 15/12 Q1021,0,0,0,10000,0,0,0,
2026-04-26 00:00:00,METAR LEBB 260000Z AUTO 00000KT 9999 SCT016 OVC021 15/12 Q1021,0,0,0,10000,0,0,0,
2026-04-25 23:30:00,METAR LEBB 252330Z AUTO 00000KT 9999 OVC020 15/12 Q1021,0,0,0,10000,0,0,0,
2026-04-25 23:00:00,METAR LEBB 252300Z AUTO VRB01KT 9999 SCT013 OVC019 15/13 Q1022,0,1,0,10000,0,0,0,
2026-04-25 22:30:00,METAR LEBB 252230Z AUTO 00000KT 9999 OVC017 15/13 Q1022,0,0,0,10000,0,0,0,
2026-04-25 22:00:00,METAR LEBB 252200Z VRB02KT 9999 FEW014 BKN018 15/13 Q1022 NOSIG,0,2,0,10000,0,0,0,
2026-04-25 21:30:00,METAR LEBB 252130Z 32003KT 290V350 9999 FEW014 BKN017 15/13 Q1022 NOSIG,0,3,0,10000,0,0,0,
2026-04-25 21:00:00,METAR LEBB 252100Z 32004KT 280V350 9999 BKN014 15/13 Q1022 NOSIG,0,4,0,10000,0,0,0,
2026-04-25 20:55:00,SPECI LEBB 252055Z 32004KT 280V350 9999 BKN014 15/13 Q1022 NOSIG,0,4,0,10000,0,0,0,
2026-04-25 20:30:00,METAR LEBB 252030Z 31003KT 280V350 9999 BKN015 15/13 Q1022 NOSIG,0,3,0,10000,0,0,0,
2026-04-25 20:00:00,METAR LEBB 252000Z VRB02KT 9999 BKN016 15/12 Q1021 NOSIG,0,2,0,10000,0,0,0,
2026-04-25 19:30:00,METAR LEBB 251930Z 33004KT 290V360 9999 OVC016 15/12 Q1021 NOSIG,0,4,0,10000,0,0,0,
2026-04-25 19:00:00,METAR LEBB 251900Z 31003KT 280V350 9999 OVC017 16/12 Q1021 NOSIG,0,3,0,10000,0,0,0,
2026-04-25 18:30:00,METAR LEBB 251830Z 32003KT 280V010 9999 OVC017 16/12 Q1021 NOSIG,0,3,0,10000,0,0,0,
2026-04-25 18:00:00,METAR LEBB 251800Z 32005KT 280V350 9999 OVC017 16/12 Q1021 NOSIG,0,5,0,10000,0,0,0,
2026-04-25 17:30:00,METAR LEBB 251730Z 31005KT 270V350 9999 BKN017 16/12 Q1021 NOSIG,0,5,0,10000,0,0,0,
2026-04-25 17:00:00,METAR LEBB 251700Z 31007KT 280V350 9999 BKN017 16/12 Q1020 NOSIG,0,7,0,10000,0,0,0,
2026-04-25 16:30:00,METAR LEBB 251630Z 30007KT 9999 BKN018 16/12 Q1020 NOSIG,0,7,0,10000,0,0,0,
2026-04-25 16:00:00,METAR LEBB 251600Z 31007KT 9999 BKN018 17/12 Q1020 NOSIG,0,7,0,10000,0,0,0,
2026-04-25 15:30:00,METAR LEBB 251530Z 30007KT 260V340 9999 BKN020 17/13 Q1020 NOSIG,0,7,0,10000,0,0,0,
2026-04-25 15:00:00,METAR LEBB 251500Z 30007KT 260V340 9999 BKN020 18/13 Q1020 NOSIG,0,7,0,10000,0,0,0,
2026-04-25 14:30:00,METAR LEBB 251430Z 30008KT 250V330 9999 SCT020 18/13 Q1020 NOSIG,0,8,0,10000,0,0,0,
2026-04-25 14:00:00,METAR LEBB 251400Z 29008KT 230V340 9999 SCT021 19/13 Q1020 NOSIG,0,8,0,10000,0,0,0,
2026-04-25 13:30:00,METAR LEBB 251330Z 31007KT 260V340 9999 SCT021 19/14 Q1020 NOSIG,0,7,0,10000,0,0,0,
2026-04-25 13:00:00,METAR LEBB 251300Z 30009KT 260V330 9999 FEW020 18/13 Q1020 NOSIG,0,9,0,10000,0,0,0,
2026-04-25 12:30:00,METAR LEBB 251230Z 30008KT 250V010 9999 FEW021 19/14 Q1020 NOSIG,0,8,0,10000,0,0,0,
2026-04-25 12:00:00,METAR LEBB 251200Z 29007KT 260V350 9999 FEW024 19/13 Q1020 NOSIG,0,7,0,10000,0,0,0,
2026-04-25 11:30:00,METAR LEBB 251130Z 30006KT 240V350 9999 FEW023 19/13 Q1021 NOSIG,0,6,0,10000,0,0,0,
2026-04-25 11:00:00,METAR LEBB 251100Z 32006KT 270V030 9999 FEW024 19/13 Q1021 NOSIG,0,6,0,10000,0,0,0,
2026-04-25 10:30:00,METAR LEBB 251030Z 32004KT 270V050 9999 FEW022 18/12 Q1021 NOSIG,0,4,0,10000,0,0,0,
2026-04-25 10:00:00,METAR LEBB 251000Z VRB03KT 9999 FEW024 18/12 Q1021 NOSIG,0,3,0,10000,0,0,0,
2026-04-25 09:30:00,METAR LEBB 250930Z 27003KT 160V330 9999 FEW023 18/12 Q1021 NOSIG,0,3,0,10000,0,0,0,
2026-04-25 09:00:00,METAR LEBB 250900Z 32004KT 260V030 9999 SCT023 17/11 Q1021 NOSIG,0,4,0,10000,0,0,0,
2026-04-25 08:30:00,METAR LEBB 250830Z 33005KT 290V010 9999 FEW020 SCT023 17/12 Q1021 NOSIG,0,5,0,10000,0,0,0,
2026-04-25 08:00:00,METAR LEBB 250800Z 32006KT 9999 FEW018 BKN022 17/12 Q1021 NOSIG,0,6,0,10000,0,0,0,
2026-04-25 07:30:00,METAR LEBB 250730Z VRB01KT 9999 FEW018 16/12 Q1021 NOSIG,0,1,0,10000,0,0,0,
2026-04-25 07:00:00,METAR LEBB 250700Z 11003KT 060V140 9999 FEW018 15/14 Q1021 NOSIG,0,3,0,10000,0,0,0,
2026-04-25 06:30:00,METAR LEBB 250630Z 09003KT 060V140 9999 FEW017 14/14 Q1021 NOSIG,0,3,0,10000,0,0,0,
2026-04-25 06:00:00,METAR LEBB 250600Z VRB02KT 9999 FEW017 13/13 Q1021 NOSIG,0,2,0,10000,0,0,0,
2026-04-25 05:30:00,METAR LEBB 250530Z VRB01KT 9999 FEW017 SCT042 13/12 Q1020 NOSIG,0,1,0,10000,0,0,0,
2026-04-25 05:00:00,METAR LEBB 250500Z VRB01KT 9999 FEW014 SCT040 13/12 Q1020 NOSIG,0,1,0,10000,0,0,0,
2026-04-25 04:30:00,METAR LEBB 250430Z VRB01KT 9999 SCT018 SCT040 13/13 Q1020 NOSIG,0,1,0,10000,0,0,0,
2026-04-25 04:00:00,METAR LEBB 250400Z 00000KT 9999 SCT017 SCT040 13/12 Q1020 NOSIG,0,0,0,10000,0,0,0,
2026-04-25 03:30:00,METAR LEBB 250330Z VRB01KT 9999 FEW013 SCT038 14/13 Q1020 NOSIG,0,1,0,10000,0,0,0,
2026-04-25 03:00:00,METAR LEBB 250300Z VRB01KT 9999 FEW014 SCT037 14/13 Q1020 NOSIG,0,1,0,10000,0,0,0,
2026-04-25 02:30:00,METAR LEBB 250230Z AUTO VRB01KT 9999 BKN013 BKN018 14/13 Q1020,0,1,0,10000,0,0,0,
2026-04-25 02:00:00,METAR LEBB 250200Z AUTO 05002KT 9999 SCT011 BKN037 14/13 Q1020,0,2,0,10000,0,0,0,
2026-04-25 01:30:00,METAR LEBB 250130Z AUTO 05002KT 9999 SCT013 SCT037 14/13 Q1020,0,2,0,10000,0,0,0,
2026-04-25 01:00:00,METAR LEBB 250100Z AUTO VRB02KT 9999 BKN012 15/13 Q1020,0,2,0,10000,0,0,0,
2026-04-25 00:30:00,METAR LEBB 250030Z AUTO 03003KT 350V060 9999 OVC012 15/13 Q1020,0,3,0,10000,0,0,0,
2026-04-25 00:00:00,METAR LEBB 250000Z AUTO 04003KT 9999 OVC013 16/14 Q1020,0,3,0,10000,0,0,0,
2026-04-24 23:30:00,METAR LEBB 242330Z AUTO 00000KT 9999 OVC013 16/14 Q1020,0,0,0,10000,0,0,0,
2026-04-24 23:00:00,METAR LEBB 242300Z AUTO VRB01KT 9999 OVC013 16/14 Q1020,0,1,0,10000,0,0,0,
2026-04-24 22:30:00,METAR LEBB 242230Z AUTO 04003KT 350V080 9999 OVC012 16/14 Q1020,0,3,0,10000,0,0,0,
2026-04-24 22:00:00,METAR LEBB 242200Z AUTO 05003KT 020V100 9999 OVC013 16/14 Q1020,0,3,0,10000,0,0,0,
2026-04-24 21:30:00,METAR LEBB 242130Z 06003KT 9999 BKN014 16/14 Q1020 NOSIG,0,3,0,10000,0,0,0,
2026-04-24 21:00:00,METAR LEBB 242100Z VRB02KT 9999 BKN015 16/14 Q1020 NOSIG,0,2,0,10000,0,0,0,
2026-04-24 20:30:00,METAR LEBB 242030Z VRB01KT 9999 BKN016 16/14 Q1020 NOSIG,0,1,0,10000,0,0,0,
2026-04-24 20:00:00,METAR LEBB 242000Z 05003KT 350V100 9999 FEW016 16/14 Q1020 NOSIG,0,3,0,10000,0,0,0,
2026-04-24 19:30:00,METAR LEBB 241930Z 06004KT 010V090 9999 FEW020 16/14 Q1019 NOSIG,0,4,0,10000,0,0,0,
2026-04-24 19:00:00,METAR LEBB 241900Z VRB02KT 9999 FEW020 17/13 Q1019 NOSIG,0,2,0,10000,0,0,0,
2026-04-24 18:30:00,METAR LEBB 241830Z 33003KT 250V020 9999 FEW055 17/13 Q1019 NOSIG,0,3,0,10000,0,0,0,
2026-04-24 18:00:00,METAR LEBB 241800Z 32006KT 290V010 9999 FEW028 17/13 Q1018 NOSIG,0,6,0,10000,0,0,0,
2026-04-24 17:30:00,METAR LEBB 241730Z 31005KT 270V340 9999 FEW028 SCT060 17/14 Q1018 NOSIG,0,5,0,10000,0,0,0,
2026-04-24 17:00:00,METAR LEBB 241700Z 31008KT 280V360 9999 FEW024 SCT060 17/13 Q1018 NOSIG,0,8,0,10000,0,0,0,
2026-04-24 16:30:00,METAR LEBB 241630Z COR 32007KT 280V360 9999 FEW060 18/13 Q1018 NOSIG,0,7,0,10000,0,0,0,
2026-04-24 16:00:00,METAR LEBB 241600Z 32009KT 280V350 9999 FEW018 19/14 Q1018 NOSIG,0,9,0,10000,0,0,0,
2026-04-24 15:30:00,METAR LEBB 241530Z 31008KT 270V010 9999 SCT017 SCT026 19/15 Q1017 NOSIG,0,8,0,10000,0,0,0,
2026-04-24 15:00:00,METAR LEBB 241500Z 31009KT 290V350 9999 FEW012 SCT018 19/15 Q1017 NOSIG,0,9,0,10000,0,0,0,
2026-04-24 14:30:00,METAR LEBB 241430Z 30010KT 260V330 9999 SCT012 BKN018 19/15 Q1017 NOSIG,0,10,0,10000,0,0,0,
2026-04-24 14:00:00,METAR LEBB 241400Z 31011KT 260V340 9999 FEW012 21/16 Q1017 NOSIG,0,11,0,10000,0,0,0,
2026-04-24 13:30:00,METAR LEBB 241330Z 29016KT 9999 FEW010 20/16 Q1017 NOSIG,0,16,0,10000,0,0,0,
2026-04-24 13:00:00,METAR LEBB 241300Z 27013KT CAVOK 21/16 Q1016 NOSIG,1,0,0,9999,0,0,0,
2026-04-24 12:30:00,METAR LEBB 241230Z 12005KT 040V160 CAVOK 25/13 Q1016 NOSIG,1,0,0,9999,0,0,0,
2026-04-24 12:00:00,METAR LEBB 241200Z 16005KT 090V240 CAVOK 23/13 Q1016 NOSIG,1,0,0,9999,0,0,0,
2026-04-24 11:30:00,METAR LEBB 241130Z 17005KT 120V250 CAVOK 22/13 Q1017 NOSIG,1,0,0,9999,0,0,0,
2026-04-24 11:00:00,METAR LEBB 241100Z 16006KT 100V220 9999 FEW030 21/13 Q1017 NOSIG,0,6,0,10000,0,0,0,
2026-04-24 10:30:00,METAR LEBB 241030Z COR 10004KT 070V150 9999 FEW030 20/13 Q1017 NOSIG,0,4,0,10000,0,0,0,
2026-04-24 10:00:00,METAR LEBB 241000Z 08007KT 020V130 9999 FEW030 20/12 Q1016 TEMPO 3000 RA,0,7,0,10000,0,0,0,RA
2026-04-24 09:30:00,METAR LEBB 240930Z 13005KT 100V190 9999 FEW030 SCT065 19/12 Q1016 TEMPO 3000 RA,0,5,0,10000,0,0,0,RA
2026-04-24 09:00:00,METAR LEBB 240900Z 18010KT 120V250 9999 -RA FEW035 18/11 Q1017 TEMPO 3000 RA,0,10,0,10000,0,0,0,"-RA,RA"
2026-04-24 08:30:00,METAR LEBB 240830Z 16006G17KT 110V220 9999 -RA FEW055 20/10 Q1017 TEMPO 3000 RA,0,6,1,10000,0,0,0,"-RA,RA"
2026-04-24 08:00:00,METAR LEBB 240800Z VRB07KT 9999 FEW045 20/09 Q1016 TEMPO 3000 RA,0,7,0,10000,0,0,0,RA
2026-04-24 07:30:00,METAR LEBB 240730Z 19007KT 110V260 9999 FEW050 19/11 Q1016 TEMPO 3000 RA,0,7,0,10000,0,0,0,RA
2026-04-24 07:00:00,METAR LEBB 240700Z 17010KT 110V260 9999 -RA FEW012 19/08 Q1015 TEMPO 3000 RA,0,10,0,10000,0,0,0,"-RA,RA"
2026-04-24 06:30:00,METAR LEBB 240630Z 14008KT 070V210 9999 FEW015 20/08 Q1015 TEMPO 3000 RA,0,8,0,10000,0,0,0,RA
2026-04-24 06:00:00,METAR LEBB 240600Z 13009KT 080V200 9999 FEW015 20/07 Q1015 TEMPO 3000 RA,0,9,0,10000,0,0,0,RA
2026-04-24 05:30:00,METAR LEBB 240530Z 12009KT 080V150 9999 FEW015 20/07 Q1014 TEMPO 3000 RA,0,9,0,10000,0,0,0,RA
2026-04-24 05:00:00,METAR LEBB 240500Z 10009KT CAVOK 20/06 Q1014 NOSIG,1,0,0,9999,0,0,0,
2026-04-24 04:30:00,METAR LEBB 240430Z 10004KT 040V150 CAVOK 19/07 Q1014 NOSIG,1,0,0,9999,0,0,0,
2026-04-24 04:00:00,METAR LEBB 240400Z 12006KT 070V190 CAVOK 20/08 Q1014 NOSIG,1,0,0,9999,0,0,0,
2026-04-24 03:30:00,METAR LEBB 240330Z 14006KT 080V210 CAVOK 21/08 Q1014 NOSIG,1,0,0,9999,0,0,0,
2026-04-24 03:00:00,METAR LEBB 240300Z 11007KT 070V150 CAVOK 21/09 Q1014 NOSIG,1,0,0,9999,0,0,0,
2026-04-24 02:30:00,METAR LEBB 240230Z AUTO 12011KT 080V140 CAVOK 20/09 Q1014,1,0,0,9999,0,0,0,
2026-04-24 02:00:00,METAR LEBB 240200Z AUTO 13008KT 080V170 CAVOK 21/09 Q1013,1,0,0,9999,0,0,0,
2026-04-24 01:30:00,METAR LEBB 240130Z AUTO 15009KT 110V180 CAVOK 21/09 Q1013,1,0,0,9999,0,0,0,
2026-04-24 01:00:00,METAR LEBB 240100Z AUTO 13008KT CAVOK 20/09 Q1013,1,0,0,9999,0,0,0,
2026-04-24 00:30:00,METAR LEBB 240030Z AUTO 13010KT 080V180 CAVOK 21/09 Q1014,1,0,0,9999,0,0,0,
2026-04-24 00:00:00,METAR LEBB 240000Z AUTO 12010KT 070V170 CAVOK 21/10 Q1013,1,0,0,9999,0,0,0,
2026-04-23 23:30:00,METAR LEBB 232330Z AUTO 11009KT 070V150 CAVOK 21/11 Q1013,1,0,0,9999,0,0,0,
2026-04-23 23:00:00,METAR LEBB 232300Z AUTO 11008KT 070V140 CAVOK 22/11 Q1013,1,0,0,9999,0,0,0,
2026-04-23 22:30:00,METAR LEBB 232230Z 10007KT 050V140 CAVOK 22/12 Q1013 NOSIG,1,0,0,9999,0,0,0,
2026-04-23 22:00:00,METAR LEBB 232200Z 10006KT 040V140 CAVOK 23/12 Q1013 NOSIG,1,0,0,9999,0,0,0,
2026-04-23 21:30:00,METAR LEBB 232130Z 11005KT 020V170 CAVOK 23/13 Q1013 NOSIG,1,0,0,9999,0,0,0,
2026-04-23 21:00:00,METAR LEBB 232100Z 13005KT 050V220 CAVOK 23/13 Q1013 NOSIG,1,0,0,9999,0,0,0,
2026-04-23 20:30:00,METAR LEBB 232030Z 12007KT 070V170 CAVOK 23/13 Q1013 NOSIG,1,0,0,9999,0,0,0,
2026-04-23 20:00:00,METAR LEBB 232000Z 12008G18KT 050V200 CAVOK 24/13 Q1013 NOSIG,1,0,0,9999,0,0,0,
2026-04-23 19:30:00,METAR LEBB 231930Z 14008G19KT 080V200 CAVOK 24/13 Q1012 NOSIG,1,0,0,9999,0,0,0,
2026-04-23 19:00:00,METAR LEBB 231900Z 13008KT 080V170 CAVOK 25/13 Q1012 NOSIG,1,0,0,9999,0,0,0,
2026-04-23 18:30:00,METAR LEBB 231830Z 14010G21KT 070V190 CAVOK 25/13 Q1012 NOSIG,1,0,0,9999,0,0,0,
2026-04-23 18:00:00,METAR LEBB 231800Z 15009KT 120V210 CAVOK 26/13 Q1012 NOSIG,1,0,0,9999,0,0,0,
2026-04-23 17:30:00,METAR LEBB 231730Z 16008KT 110V190 CAVOK 26/14 Q1012 NOSIG,1,0,0,9999,0,0,0,
2026-04-23 17:00:00,METAR LEBB 231700Z 15009KT 100V200 CAVOK 27/14 Q1012 NOSIG,1,0,0,9999,0,0,0,
2026-04-23 16:30:00,METAR LEBB 231630Z 14008KT 100V190 CAVOK 27/14 Q1012 NOSIG,1,0,0,9999,0,0,0,
2026-04-23 16:00:00,METAR LEBB 231600Z 15008KT 090V200 CAVOK 27/14 Q1012 NOSIG,1,0,0,9999,0,0,0,
2026-04-23 15:30:00,METAR LEBB 231530Z 16007KT 100V210 CAVOK 27/14 Q1012 NOSIG,1,0,0,9999,0,0,0,
2026-04-23 15:00:00,METAR LEBB 231500Z 15006KT 080V210 CAVOK 27/14 Q1013 NOSIG,1,0,0,9999,0,0,0,
2026-04-23 14:30:00,METAR LEBB 231430Z 11009KT 070V140 CAVOK 27/15 Q1013 NOSIG,1,0,0,9999,0,0,0,
2026-04-23 14:00:00,METAR LEBB 231400Z 12010KT 080V150 CAVOK 28/16 Q1013 NOSIG,1,0,0,9999,0,0,0,
2026-04-23 13:30:00,METAR LEBB 231330Z 11010G20KT 080V150 CAVOK 27/15 Q1014 NOSIG,1,0,0,9999,0,0,0,
2026-04-23 13:00:00,METAR LEBB 231300Z 11013KT 080V140 CAVOK 27/15 Q1014 NOSIG,1,0,0,9999,0,0,0,
2026-04-23 12:30:00,METAR LEBB 231230Z 12013KT 090V150 CAVOK 26/15 Q1014 NOSIG,1,0,0,9999,0,0,0,
2026-04-23 12:00:00,METAR LEBB 231200Z 13011KT 080V200 CAVOK 26/15 Q1014 NOSIG,1,0,0,9999,0,0,0,
2026-04-23 11:30:00,METAR LEBB 231130Z 12010KT 070V170 CAVOK 25/14 Q1014 NOSIG,1,0,0,9999,0,0,0,
2026-04-23 11:00:00,METAR LEBB 231100Z 13010KT 070V170 CAVOK 25/14 Q1015 NOSIG,1,0,0,9999,0,0,0,
2026-04-23 10:30:00,METAR LEBB 231030Z 13007KT 080V190 CAVOK 24/13 Q1015 NOSIG,1,0,0,9999,0,0,0,
2026-04-23 10:00:00,METAR LEBB 231000Z 16007KT 100V230 CAVOK 23/13 Q1015 NOSIG,1,0,0,9999,0,0,0,
2026-04-23 09:30:00,METAR LEBB 230930Z 11006KT 060V150 CAVOK 22/12 Q1015 NOSIG,1,0,0,9999,0,0,0,
2026-04-23 09:00:00,METAR LEBB 230900Z 10007KT 070V140 CAVOK 21/12 Q1016 NOSIG,1,0,0,9999,0,0,0,
2026-04-23 08:30:00,METAR LEBB 230830Z 09007KT 050V120 CAVOK 19/12 Q1016 NOSIG,1,0,0,9999,0,0,0,
2026-04-23 08:00:00,METAR LEBB 230800Z 11008KT CAVOK 16/11 Q1016 NOSIG,1,0,0,9999,0,0,0,
2026-04-23 07:30:00,METAR LEBB 230730Z 10005KT 060V140 CAVOK 14/10 Q1016 NOSIG,1,0,0,9999,0,0,0,
2026-04-23 07:00:00,METAR LEBB 230700Z 11005KT 070V140 CAVOK 12/10 Q1016 NOSIG,1,0,0,9999,0,0,0,
2026-04-23 06:30:00,METAR LEBB 230630Z 11005KT CAVOK 11/09 Q1016 NOSIG,1,0,0,9999,0,0,0,
2026-04-23 06:00:00,METAR LEBB 230600Z VRB02KT CAVOK 10/09 Q1016 NOSIG,1,0,0,9999,0,0,0,
2026-04-23 05:30:00,METAR LEBB 230530Z 10003KT 030V140 CAVOK 10/08 Q1016 NOSIG,1,0,0,9999,0,0,0,
2026-04-23 05:00:00,METAR LEBB 230500Z 10004KT 070V130 9999 FEW030 10/08 Q1016 NOSIG,0,4,0,10000,0,0,0,
2026-04-23 04:30:00,METAR LEBB 230430Z 08004KT 060V130 9999 FEW030 10/08 Q1016 NOSIG,0,4,0,10000,0,0,0,
2026-04-23 04:00:00,METAR LEBB 230400Z VRB01KT 9999 FEW030 10/08 Q1016 NOSIG,0,1,0,10000,0,0,0,
2026-04-23 03:30:00,METAR LEBB 230330Z VRB02KT 9999 FEW030 10/08 Q1016 NOSIG,0,2,0,10000,0,0,0,
2026-04-23 03:00:00,METAR LEBB 230300Z VRB02KT 9999 FEW030 10/08 Q1016 NOSIG,0,2,0,10000,0,0,0,
2026-04-23 02:30:00,METAR LEBB 230230Z AUTO VRB02KT CAVOK 10/08 Q1016,1,0,0,9999,0,0,0,
2026-04-23 02:00:00,METAR LEBB 230200Z AUTO 09003KT CAVOK 10/09 Q1016,1,0,0,9999,0,0,0,
2026-04-23 01:30:00,METAR LEBB 230130Z AUTO VRB02KT CAVOK 10/08 Q1016,1,0,0,9999,0,0,0,
2026-04-23 01:00:00,METAR LEBB 230100Z AUTO 10003KT 080V140 CAVOK 11/09 Q1017,1,0,0,9999,0,0,0,
2026-04-23 00:30:00,METAR LEBB 230030Z AUTO 08004KT CAVOK 11/09 Q1017,1,0,0,9999,0,0,0,
2026-04-23 00:00:00,METAR LEBB 230000Z AUTO 09003KT CAVOK 11/09 Q1017,1,0,0,9999,0,0,0,
2026-04-22 23:30:00,METAR LEBB 222330Z AUTO 09004KT CAVOK 11/09 Q1018,1,0,0,9999,0,0,0,
2026-04-22 23:00:00,METAR LEBB 222300Z AUTO 09004KT CAVOK 11/09 Q1018,1,0,0,9999,0,0,0,
2026-04-22 22:30:00,METAR LEBB 222230Z AUTO 09004KT CAVOK 12/10 Q1018,1,0,0,9999,0,0,0,
2026-04-22 22:00:00,METAR LEBB 222200Z AUTO 09003KT CAVOK 12/09 Q1018,1,0,0,9999,0,0,0,
2026-04-22 21:30:00,METAR LEBB 222130Z 08003KT 010V120 CAVOK 13/10 Q1018 NOSIG,1,0,0,9999,0,0,0,
2026-04-22 21:00:00,METAR LEBB 222100Z 00000KT CAVOK 14/10 Q1018 NOSIG,1,0,0,9999,0,0,0,
2026-04-22 20:30:00,METAR LEBB 222030Z VRB01KT 9999 SCT050 15/09 Q1018 NOSIG,0,1,0,10000,0,0,0,
2026-04-22 20:00:00,METAR LEBB 222000Z VRB01KT 9999 OVC050 16/10 Q1018 NOSIG,0,1,0,10000,0,0,0,
2026-04-22 19:30:00,METAR LEBB 221930Z VRB02KT 9999 OVC050 16/08 Q1018 NOSIG,0,2,0,10000,0,0,0,
2026-04-22 19:00:00,METAR LEBB 221900Z 34003KT 300V020 9999 OVC050 16/07 Q1018 NOSIG,0,3,0,10000,0,0,0,
2026-04-22 18:30:00,METAR LEBB 221830Z 32006KT 9999 OVC050 16/07 Q1017 NOSIG,0,6,0,10000,0,0,0,
2026-04-22 18:00:00,METAR LEBB 221800Z 33003KT 290V020 9999 OVC050 17/09 Q1017 NOSIG,0,3,0,10000,0,0,0,
2026-04-22 17:30:00,METAR LEBB 221730Z 32005KT 290V350 9999 OVC050 17/11 Q1017 NOSIG,0,5,0,10000,0,0,0,
2026-04-22 17:00:00,METAR LEBB 221700Z 29004KT 250V330 9999 OVC050 17/12 Q1017 NOSIG,0,4,0,10000,0,0,0,
2026-04-22 16:30:00,METAR LEBB 221630Z 30007KT 270V340 9999 OVC050 18/12 Q1017 NOSIG,0,7,0,10000,0,0,0,
2026-04-22 16:00:00,METAR LEBB 221600Z 32007KT 260V020 9999 OVC050 18/12 Q1017 NOSIG,0,7,0,10000,0,0,0,
2026-04-22 15:30:00,METAR LEBB 221530Z 29009KT 270V340 9999 OVC050 18/12 Q1017 NOSIG,0,9,0,10000,0,0,0,
2026-04-22 15:00:00,METAR LEBB 221500Z 30009KT 270V340 9999 OVC050 18/12 Q1017 NOSIG,0,9,0,10000,0,0,0,
2026-04-22 14:30:00,METAR LEBB 221430Z 31009KT 270V350 9999 OVC050 18/12 Q1017 NOSIG,0,9,0,10000,0,0,0,
2026-04-22 14:00:00,METAR LEBB 221400Z 32009KT 260V350 9999 OVC049 19/12 Q1016 NOSIG,0,9,0,10000,0,0,0,
2026-04-22 13:30:00,METAR LEBB 221330Z 31009KT 270V350 9999 OVC047 19/11 Q1016 NOSIG,0,9,0,10000,0,0,0,
2026-04-22 13:00:00,METAR LEBB 221300Z 31010KT 280V350 9999 OVC047 19/11 Q1016 NOSIG,0,10,0,10000,0,0,0,
2026-04-22 12:30:00,METAR LEBB 221230Z 30011KT 9999 OVC043 20/10 Q1015 NOSIG,0,11,0,10000,0,0,0,
2026-04-22 12:00:00,METAR LEBB 221200Z 32010KT 270V360 9999 OVC041 19/11 Q1015 NOSIG,0,10,0,10000,0,0,0,
2026-04-22 11:30:00,METAR LEBB 221130Z 30014G25KT 280V340 9999 BKN040 BKN048 19/12 Q1014 NOSIG,0,14,1,10000,0,0,0,
2026-04-22 11:00:00,METAR LEBB 221100Z 30014KT 260V330 9999 SCT040 20/13 Q1014 NOSIG,0,14,0,10000,0,0,0,
2026-04-22 10:30:00,METAR LEBB 221030Z 31011KT 270V350 9999 FEW039 20/14 Q1014 NOSIG,0,11,0,10000,0,0,0,
2026-04-22 10:00:00,METAR LEBB 221000Z 30011KT 270V360 CAVOK 21/14 Q1013 NOSIG,1,0,0,9999,0,0,0,
2026-04-22 09:30:00,METAR LEBB 220930Z 30009KT 270V330 CAVOK 21/15 Q1013 NOSIG,1,0,0,9999,0,0,0,
2026-04-22 09:00:00,METAR LEBB 220900Z 30010KT 270V330 CAVOK 20/15 Q1012 NOSIG,1,0,0,9999,0,0,0,
2026-04-22 08:30:00,METAR LEBB 220830Z 31009KT 280V340 CAVOK 19/15 Q1012 NOSIG,1,0,0,9999,0,0,0,
2026-04-22 08:00:00,METAR LEBB 220800Z 34010KT 300V360 CAVOK 19/14 Q1012 NOSIG,1,0,0,9999,0,0,0,
2026-04-22 07:30:00,METAR LEBB 220730Z VRB04KT CAVOK 18/14 Q1011 NOSIG,1,0,0,9999,0,0,0,
2026-04-22 07:00:00,METAR LEBB 220700Z VRB02KT CAVOK 18/14 Q1010 NOSIG,1,0,0,9999,0,0,0,
2026-04-22 06:30:00,METAR LEBB 220630Z 27003KT 230V290 CAVOK 18/13 Q1010 NOSIG,1,0,0,9999,0,0,0,
2026-04-22 06:00:00,METAR LEBB 220600Z 33007KT 290V360 CAVOK 19/12 Q1009 NOSIG,1,0,0,9999,0,0,0,
2026-04-22 05:30:00,METAR LEBB 220530Z VRB02KT CAVOK 20/11 Q1008 NOSIG,1,0,0,9999,0,0,0,
2026-04-22 05:00:00,METAR LEBB 220500Z VRB05KT CAVOK 20/12 Q1007 NOSIG,1,0,0,9999,0,0,0,
2026-04-22 04:30:00,METAR LEBB 220430Z 18007KT 140V240 CAVOK 19/12 Q1007 NOSIG,1,0,0,9999,0,0,0,
2026-04-22 04:00:00,METAR LEBB 220400Z 15004KT 090V240 CAVOK 19/12 Q1006 NOSIG,1,0,0,9999,0,0,0,
2026-04-22 03:30:00,METAR LEBB 220330Z 00000KT CAVOK 19/12 Q1006 NOSIG,1,0,0,9999,0,0,0,
2026-04-22 03:00:00,METAR LEBB 220300Z COR VRB02KT CAVOK 19/13 Q1006 NOSIG,1,0,0,9999,0,0,0,
2026-04-21 23:00:00,METAR LEBB 212300Z AUTO 12004KT 080V160 CAVOK 19/15 Q1006,1,0,0,9999,0,0,0,
2026-04-21 22:30:00,METAR LEBB 212230Z AUTO 12004KT 080V140 CAVOK 19/15 Q1007,1,0,0,9999,0,0,0,
2026-04-21 22:00:00,METAR LEBB 212200Z AUTO VRB02KT CAVOK 19/15 Q1006,1,0,0,9999,0,0,0,
2026-04-21 21:30:00,METAR LEBB 212130Z 09006KT 060V120 CAVOK 20/15 Q1006 NOSIG,1,0,0,9999,0,0,0,
2026-04-21 21:00:00,METAR LEBB 212100Z 09009KT CAVOK 20/15 Q1006 NOSIG,1,0,0,9999,0,0,0,
2026-04-21 20:30:00,METAR LEBB 212030Z 10011KT 070V130 CAVOK 20/15 Q1007 NOSIG,1,0,0,9999,0,0,0,
2026-04-21 20:00:00,METAR LEBB 212000Z 07008KT 030V100 9999 FEW070 20/15 Q1007 TEMPO 3000 SHRA SCT050TCU,0,8,0,10000,0,0,0,"RA,SH"
2026-04-21 19:30:00,METAR LEBB 211930Z 13011KT 110V170 9999 VCTS FEW070CB 21/15 Q1006 RETSRA TEMPO 3000 SHRA SCT050TCU,0,11,0,10000,1,0,0,"RA,SH,TS,VC"
2026-04-21 19:00:00,METAR LEBB 211900Z 26008G20KT 200V320 9000 TSRA FEW050 SCT070CB 21/14 Q1006 TEMPO 3000,0,8,1,9000,1,0,0,"RA,TS"
2026-04-21 18:49:00,SPECI LEBB 211849Z 25011G24KT 180V320 8000 TSRA SCT070CB 25/13 Q1005 TEMPO 3000,0,11,1,8000,1,0,0,"RA,TS"
2026-04-21 18:30:00,METAR LEBB 211830Z 28004KT 9999 VCTS SCT070CB 23/17 Q1004 TEMPO 30018G35KT 3000 TSRA,0,4,0,10000,1,0,0,"RA,TS,VC"
2026-04-21 18:29:00,SPECI LEBB 211829Z 29004KT 260V320 9999 VCTS SCT060CB 23/17 Q1004 TEMPO 30018G35KT 3000 TSRA,0,4,0,10000,1,0,0,"RA,TS,VC"
2026-04-21 18:00:00,METAR LEBB 211800Z 27003KT 230V300 9999 FEW070TCU 23/17 Q1004 TEMPO 18018G35KT 3000 TSRA SCT060CB,0,3,0,10000,1,0,0,"RA,TS"
2026-04-21 17:30:00,METAR LEBB 211730Z 06003KT 340V110 9999 FEW070TCU 24/18 Q1004 NOSIG,0,3,0,10000,0,0,0,
2026-04-21 17:00:00,METAR LEBB 211700Z 07006KT 050V110 9999 FEW070CB 28/17 Q1004 NOSIG,0,6,0,10000,0,0,0,
2026-04-21 16:30:00,METAR LEBB 211630Z 08009G20KT 040V120 9999 FEW070TCU 29/18 Q1004 NOSIG,0,9,1,10000,0,0,0,
2026-04-21 16:00:00,METAR LEBB 211600Z 06007KT 020V140 9999 FEW060 30/17 Q1003 NOSIG,0,7,0,10000,0,0,0,
2026-04-21 15:30:00,METAR LEBB 211530Z 10008KT 060V130 9999 FEW055 31/16 Q1004 NOSIG,0,8,0,10000,0,0,0,
2026-04-21 15:00:00,METAR LEBB 211500Z VRB03KT 9999 FEW055 32/12 Q1004 NOSIG,0,3,0,10000,0,0,0,
2026-04-21 14:30:00,METAR LEBB 211430Z VRB04KT 9999 FEW055 33/12 Q1004 NOSIG,0,4,0,10000,0,0,0,
2026-04-21 14:00:00,METAR LEBB 211400Z VRB04KT 9999 FEW050 32/14 Q1004 NOSIG,0,4,0,10000,0,0,0,
2026-04-21 13:30:00,METAR LEBB 211330Z 15006KT 060V230 9999 FEW050 32/12 Q1005 NOSIG,0,6,0,10000,0,0,0,
2026-04-21 13:00:00,METAR LEBB 211300Z 13006KT 050V200 CAVOK 31/14 Q1005 NOSIG,1,0,0,9999,0,0,0,
2026-04-21 12:30:00,METAR LEBB 211230Z VRB03KT CAVOK 31/15 Q1005 NOSIG,1,0,0,9999,0,0,0,
2026-04-21 12:00:00,METAR LEBB 211200Z 11006KT 050V160 CAVOK 30/15 Q1006 NOSIG,1,0,0,9999,0,0,0,
2026-04-21 11:30:00,METAR LEBB 211130Z 11007KT 070V150 CAVOK 28/15 Q1006 NOSIG,1,0,0,9999,0,0,0,
2026-04-21 11:00:00,METAR LEBB 211100Z 11008KT 050V150 CAVOK 28/15 Q1007 NOSIG,1,0,0,9999,0,0,0,
2026-04-21 10:30:00,METAR LEBB 211030Z 10006KT 060V140 CAVOK 26/15 Q1007 NOSIG,1,0,0,9999,0,0,0,
2026-04-21 10:00:00,METAR LEBB 211000Z 09007KT 040V140 CAVOK 26/15 Q1007 NOSIG,1,0,0,9999,0,0,0,
2026-04-21 09:30:00,METAR LEBB 210930Z 08008KT 050V140 CAVOK 25/16 Q1008 NOSIG,1,0,0,9999,0,0,0,
2026-04-21 09:00:00,METAR LEBB 210900Z 10007KT 070V130 CAVOK 23/16 Q1008 NOSIG,1,0,0,9999,0,0,0,
2026-04-21 08:30:00,METAR LEBB 210830Z 10006KT 070V140 CAVOK 21/16 Q1008 NOSIG,1,0,0,9999,0,0,0,
2026-04-21 08:00:00,METAR LEBB 210800Z 13006KT 100V190 CAVOK 19/15 Q1009 NOSIG,1,0,0,9999,0,0,0,
2026-04-21 07:30:00,METAR LEBB 210730Z 11006KT 080V140 9000 NSC 17/15 Q1009 NOSIG,0,6,0,9000,0,0,0,
2026-04-21 07:00:00,METAR LEBB 210700Z 11006KT 070V140 7000 NSC 16/15 Q1009 NOSIG,0,6,0,7000,0,0,0,
2026-04-21 06:30:00,METAR LEBB 210630Z VRB02KT 6000 FEW010 16/15 Q1009 TEMPO 3000 BR,0,2,0,6000,0,0,1,BR
2026-04-21 06:00:00,METAR LEBB 210600Z 10004KT 080V140 6000 SCT010 15/14 Q1009 TEMPO 3000 BR,0,4,0,6000,0,0,1,BR
2026-04-21 05:30:00,METAR LEBB 210530Z 11004KT 080V140 6000 BKN010 15/14 Q1009 TEMPO 3000 BR,0,4,0,6000,0,0,1,BR
2026-04-21 05:00:00,METAR LEBB 210500Z VRB02KT 8000 OVC010 16/14 Q1010 TEMPO 3000 BR,0,2,0,8000,0,0,1,BR
2026-04-21 04:30:00,METAR LEBB 210430Z VRB01KT 8000 OVC010 16/14 Q1010 TEMPO 3000 BR,0,1,0,8000,0,0,1,BR
2026-04-21 04:00:00,METAR LEBB 210400Z 12004KT 080V150 8000 OVC011 16/15 Q1010 TEMPO 3000 BR,0,4,0,8000,0,0,1,BR
2026-04-21 03:30:00,METAR LEBB 210330Z 10003KT 030V180 9000 OVC011 16/15 Q1010 TEMPO 3000 BR,0,3,0,9000,0,0,1,BR
2026-04-21 03:00:00,METAR LEBB 210300Z VRB02KT 9999 OVC011 16/15 Q1011 TEMPO 3000 BR,0,2,0,10000,0,0,1,BR
2026-04-21 02:30:00,METAR LEBB 210230Z AUTO 00000KT 9999 OVC011 16/15 Q1011,0,0,0,10000,0,0,0,
2026-04-21 02:00:00,METAR LEBB 210200Z AUTO 00000KT 9999 OVC011 16/15 Q1011,0,0,0,10000,0,0,0,
2026-04-21 01:30:00,METAR LEBB 210130Z AUTO VRB01KT 9999 OVC012 16/15 Q1011,0,1,0,10000,0,0,0,
2026-04-21 01:00:00,METAR LEBB 210100Z AUTO VRB01KT 9999 OVC012 16/15 Q1011,0,1,0,10000,0,0,0,
2026-04-21 00:30:00,METAR LEBB 210030Z AUTO VRB01KT 9999 OVC013 16/15 Q1012,0,1,0,10000,0,0,0,
2026-04-21 00:00:00,METAR LEBB 210000Z AUTO 28003KT 9999 OVC013 16/15 Q1012,0,3,0,10000,0,0,0,
2026-04-20 23:30:00,METAR LEBB 202330Z AUTO 29003KT 9999 OVC013 16/15 Q1012,0,3,0,10000,0,0,0,
2026-04-20 23:00:00,METAR LEBB 202300Z AUTO 29004KT 9999 OVC013 16/15 Q1012,0,4,0,10000,0,0,0,
2026-04-20 22:30:00,METAR LEBB 202230Z AUTO 30003KT 9999 OVC012 17/15 Q1012,0,3,0,10000,0,0,0,
2026-04-20 22:00:00,METAR LEBB 202200Z AUTO 30004KT 9999 OVC011 17/15 Q1012,0,4,0,10000,0,0,0,
2026-04-20 21:30:00,METAR LEBB 202130Z 31004KT 9999 BKN010 17/15 Q1012 TEMPO 3000 BR BKN005,0,4,0,10000,0,0,1,BR
2026-04-20 21:00:00,METAR LEBB 202100Z 29005KT 9999 BKN009 17/16 Q1012 TEMPO 3000 BR,0,5,0,10000,0,0,1,BR
2026-04-20 20:30:00,METAR LEBB 202030Z 29005KT 9000 BKN008 17/16 Q1012 TEMPO 3000 BR,0,5,0,9000,0,0,1,BR
2026-04-20 20:00:00,METAR LEBB 202000Z 29006KT 9000 BKN007 17/16 Q1012 TEMPO 3000 BR,0,6,0,9000,0,0,1,BR
2026-04-20 19:30:00,METAR LEBB 201930Z 30006KT 270V330 9000 BKN007 17/16 Q1012 TEMPO 3000 BR,0,6,0,9000,0,0,1,BR
2026-04-20 19:00:00,METAR LEBB 201900Z 30006KT 270V330 9000 BKN007 17/15 Q1011 TEMPO 3000 BR,0,6,0,9000,0,0,1,BR
2026-04-20 18:40:00,SPECI LEBB 201840Z 28007KT 250V310 9000 BKN006 17/16 Q1011 TEMPO 3000 BR,0,7,0,9000,0,0,1,BR
2026-04-20 18:30:00,METAR LEBB 201830Z 28007KT 9000 SCT006 17/16 Q1011 TEMPO 3000 BR BKN005,0,7,0,9000,0,0,1,BR
2026-04-20 18:00:00,METAR LEBB 201800Z 27007KT 230V300 9999 FEW006 18/16 Q1010 NOSIG,0,7,0,10000,0,0,0,
2026-04-20 17:30:00,METAR LEBB 201730Z 27006KT 230V290 CAVOK 19/16 Q1010 NOSIG,1,0,0,9999,0,0,0,
2026-04-20 17:00:00,METAR LEBB 201700Z 27007KT 240V300 CAVOK 19/16 Q1010 NOSIG,1,0,0,9999,0,0,0,
2026-04-20 16:30:00,METAR LEBB 201630Z 27007KT 240V300 CAVOK 20/17 Q1010 NOSIG,1,0,0,9999,0,0,0,
2026-04-20 16:00:00,METAR LEBB 201600Z 27008KT 240V300 9999 FEW055 20/16 Q1011 NOSIG,0,8,0,10000,0,0,0,
2026-04-20 15:30:00,METAR LEBB 201530Z 28009KT 240V300 9999 FEW055 20/16 Q1010 NOSIG,0,9,0,10000,0,0,0,
2026-04-20 15:00:00,METAR LEBB 201500Z 26009KT 210V300 CAVOK 20/16 Q1011 NOSIG,1,0,0,9999,0,0,0,
2026-04-20 14:30:00,METAR LEBB 201430Z 28009KT 250V310 CAVOK 21/16 Q1011 NOSIG,1,0,0,9999,0,0,0,
2026-04-20 14:00:00,METAR LEBB 201400Z 28009KT 240V300 CAVOK 22/17 Q1011 NOSIG,1,0,0,9999,0,0,0,
2026-04-20 13:30:00,METAR LEBB 201330Z 27009KT 240V320 CAVOK 21/17 Q1011 NOSIG,1,0,0,9999,0,0,0,
2026-04-20 13:00:00,METAR LEBB 201300Z 28009KT 240V300 CAVOK 21/17 Q1011 NOSIG,1,0,0,9999,0,0,0,
2026-04-20 12:30:00,METAR LEBB 201230Z 27010KT 230V300 CAVOK 20/17 Q1012 NOSIG,1,0,0,9999,0,0,0,
2026-04-20 12:00:00,METAR LEBB 201200Z 28009KT 230V300 CAVOK 21/17 Q1012 NOSIG,1,0,0,9999,0,0,0,
2026-04-20 11:30:00,METAR LEBB 201130Z 28009KT 240V300 CAVOK 21/17 Q1012 NOSIG,1,0,0,9999,0,0,0,
2026-04-20 11:00:00,METAR LEBB 201100Z 28007KT 240V310 CAVOK 21/17 Q1012 NOSIG,1,0,0,9999,0,0,0,
2026-04-20 10:30:00,METAR LEBB 201030Z 28003KT 240V320 CAVOK 22/17 Q1012 NOSIG,1,0,0,9999,0,0,0,
2026-04-20 10:00:00,METAR LEBB 201000Z 27004KT 200V330 CAVOK 21/16 Q1013 NOSIG,1,0,0,9999,0,0,0,
2026-04-20 09:30:00,METAR LEBB 200930Z VRB02KT 9999 FEW007 20/15 Q1013 NOSIG,0,2,0,10000,0,0,0,
2026-04-20 09:00:00,METAR LEBB 200900Z VRB01KT 9999 FEW007 19/15 Q1013 NOSIG,0,1,0,10000,0,0,0,
2026-04-20 08:30:00,METAR LEBB 200830Z VRB02KT 9999 FEW007 17/15 Q1013 NOSIG,0,2,0,10000,0,0,0,
2026-04-20 08:00:00,METAR LEBB 200800Z VRB01KT 7000 SCT004 15/15 Q1013 NOSIG,0,1,0,7000,0,0,0,
2026-04-20 07:53:00,SPECI LEBB 200753Z VRB02KT 5000 BR BKN004 15/15 Q1013 TEMPO SCT004,0,2,0,5000,0,0,1,BR
2026-04-20 07:30:00,METAR LEBB 200730Z 12005KT 080V150 3000 BR BKN003 15/14 Q1013 TEMPO 6000 NSW SCT003,0,5,0,3000,0,0,1,BR
2026-04-20 07:28:00,SPECI LEBB 200728Z 12005KT 080V170 3000 BR BKN003 14/14 Q1013 TEMPO 6000 NSW SCT003,0,5,0,3000,0,0,1,BR
2026-04-20 07:00:00,METAR LEBB 200700Z 11005KT 070V150 1500 BR BKN002 14/14 Q1013 TEMPO 3000,0,5,0,1500,0,0,1,BR
2026-04-20 06:30:00,METAR LEBB 200630Z 13003KT 100V170 0900 R30/1600N R12/1800D FG VV002 14/14 Q1014 TEMPO 1500 BR,0,3,0,1448100,0,0,1,"BR,FG"
2026-04-20 06:00:00,METAR LEBB 200600Z VRB02KT 2200 BR OVC003 14/14 Q1014 TEMPO 4000,0,2,0,2200,0,0,1,BR
2026-04-20 05:30:00,METAR LEBB 200530Z VRB02KT 2400 BR OVC003 14/14 Q1013 TEMPO 4000,0,2,0,2400,0,0,1,BR
2026-04-20 05:29:00,SPECI LEBB 200529Z VRB02KT 2800 BR OVC003 14/14 Q1013 TEMPO 3000,0,2,0,2800,0,0,1,BR
2026-04-20 05:00:00,METAR LEBB 200500Z VRB02KT 4800 BR BKN003 14/14 Q1013 TEMPO 1500,0,2,0,4800,0,0,1,BR
2026-04-20 04:30:00,METAR LEBB 200430Z 26001KT 4700 BR BKN004 14/14 Q1013 TEMPO 1500,0,1,0,4700,0,0,1,BR
2026-04-20 04:00:00,METAR LEBB 200400Z VRB02KT 4000 BR BKN004 14/14 Q1013 TEMPO 1500,0,2,0,4000,0,0,1,BR
2026-04-20 03:55:00,SPECI LEBB 200355Z VRB02KT 4500 BR BKN004 14/14 Q1013 TEMPO 1500,0,2,0,4500,0,0,1,BR
2026-04-20 03:30:00,METAR LEBB 200330Z 00000KT 5000 BR BKN004 14/14 Q1013 NOSIG,0,0,0,5000,0,0,1,BR
2026-04-20 03:00:00,METAR LEBB 200300Z 00000KT 7000 BKN006 14/13 Q1013 NOSIG,0,0,0,7000,0,0,0,
2026-04-20 02:30:00,METAR LEBB 200230Z AUTO 06002KT 8000 FEW006 14/13 Q1014,0,2,0,8000,0,0,0,
2026-04-20 02:00:00,METAR LEBB 200200Z AUTO VRB02KT 9999 SCT007 14/14 Q1014,0,2,0,10000,0,0,0,
2026-04-20 01:30:00,METAR LEBB 200130Z AUTO 00000KT 9999 FEW007 14/14 Q1014,0,0,0,10000,0,0,0,
2026-04-20 01:00:00,METAR LEBB 200100Z AUTO VRB02KT 9999 FEW008 15/14 Q1014,0,2,0,10000,0,0,0,
2026-04-20 00:30:00,METAR LEBB 200030Z AUTO 15002KT 9999 SCT008 14/13 Q1015,0,2,0,10000,0,0,0,
2026-04-20 00:00:00,METAR LEBB 200000Z AUTO VRB01KT 9999 SCT009 15/14 Q1015,0,1,0,10000,0,0,0,
2026-04-19 23:30:00,METAR LEBB 192330Z AUTO 12002KT 9999 SCT010 15/14 Q1015,0,2,0,10000,0,0,0,
2026-04-19 23:00:00,METAR LEBB 192300Z AUTO VRB01KT 9999 FEW010 15/14 Q1016,0,1,0,10000,0,0,0,
2026-04-19 22:30:00,METAR LEBB 192230Z AUTO 07002KT 9999 SCT010 15/14 Q1016,0,2,0,10000,0,0,0,
2026-04-19 22:00:00,METAR LEBB 192200Z AUTO 30001KT 9999 BKN010 16/14 Q1016,0,1,0,10000,0,0,0,
2026-04-19 21:30:00,METAR LEBB 192130Z 30004KT 9999 BKN010 16/14 Q1016 NOSIG,0,4,0,10000,0,0,0,
2026-04-19 21:00:00,METAR LEBB 192100Z 28004KT 9999 BKN010 16/14 Q1016 NOSIG,0,4,0,10000,0,0,0,
2026-04-19 20:30:00,METAR LEBB 192030Z 29005KT 250V310 9999 BKN009 16/15 Q1017 NOSIG,0,5,0,10000,0,0,0,
2026-04-19 20:00:00,METAR LEBB 192000Z 29006KT 250V320 9999 BKN009 16/15 Q1016 NOSIG,0,6,0,10000,0,0,0,
2026-04-19 19:30:00,METAR LEBB 191930Z 28006KT 250V310 9999 BKN009 16/15 Q1016 NOSIG,0,6,0,10000,0,0,0,
2026-04-19 19:00:00,METAR LEBB 191900Z 29008KT 260V320 9999 BKN008 16/15 Q1016 NOSIG,0,8,0,10000,0,0,0,
2026-04-19 18:58:00,SPECI LEBB 191858Z 29008KT 260V320 9999 BKN008 16/15 Q1016 NOSIG,0,8,0,10000,0,0,0,
2026-04-19 18:30:00,METAR LEBB 191830Z 29009KT 260V320 9999 SCT007 16/15 Q1015 NOSIG,0,9,0,10000,0,0,0,
2026-04-19 18:00:00,METAR LEBB 191800Z 29011KT 260V320 9999 FEW010 17/15 Q1015 NOSIG,0,11,0,10000,0,0,0,
2026-04-19 17:30:00,METAR LEBB 191730Z 29010KT CAVOK 18/15 Q1015 NOSIG,1,0,0,9999,0,0,0,
2026-04-19 17:00:00,METAR LEBB 191700Z 28009KT 250V310 CAVOK 19/15 Q1015 NOSIG,1,0,0,9999,0,0,0,
2026-04-19 16:30:00,METAR LEBB 191630Z 28009KT CAVOK 20/15 Q1015 NOSIG,1,0,0,9999,0,0,0,
2026-04-19 16:00:00,METAR LEBB 191600Z 28010KT CAVOK 21/15 Q1015 NOSIG,1,0,0,9999,0,0,0,
2026-04-19 15:30:00,METAR LEBB 191530Z 28008KT 230V310 CAVOK 22/15 Q1015 NOSIG,1,0,0,9999,0,0,0,
2026-04-19 15:00:00,METAR LEBB 191500Z 28009KT CAVOK 23/16 Q1015 NOSIG,1,0,0,9999,0,0,0,
2026-04-19 14:30:00,METAR LEBB 191430Z 27008KT 220V320 CAVOK 23/16 Q1015 NOSIG,1,0,0,9999,0,0,0,
2026-04-19 14:00:00,METAR LEBB 191400Z 27007KT 240V310 CAVOK 23/16 Q1015 NOSIG,1,0,0,9999,0,0,0,
2026-04-19 13:30:00,METAR LEBB 191330Z VRB02KT CAVOK 23/16 Q1016 NOSIG,1,0,0,9999,0,0,0,
2026-04-19 13:00:00,METAR LEBB 191300Z VRB03KT CAVOK 23/15 Q1016 NOSIG,1,0,0,9999,0,0,0,
2026-04-19 12:30:00,METAR LEBB 191230Z VRB02KT CAVOK 23/15 Q1016 NOSIG,1,0,0,9999,0,0,0,
2026-04-19 12:00:00,METAR LEBB 191200Z VRB02KT CAVOK 22/14 Q1017 NOSIG,1,0,0,9999,0,0,0,
2026-04-19 11:30:00,METAR LEBB 191130Z 10003KT 010V160 CAVOK 21/14 Q1018 NOSIG,1,0,0,9999,0,0,0,
2026-04-19 11:00:00,METAR LEBB 191100Z VRB04KT CAVOK 20/15 Q1018 NOSIG,1,0,0,9999,0,0,0,
2026-04-19 10:30:00,METAR LEBB 191030Z VRB02KT CAVOK 19/13 Q1018 NOSIG,1,0,0,9999,0,0,0,
2026-04-19 10:00:00,METAR LEBB 191000Z VRB01KT 9999 FEW026 17/13 Q1019 NOSIG,0,1,0,10000,0,0,0,
2026-04-19 09:30:00,METAR LEBB 190930Z 25003KT 210V320 9999 FEW026 16/14 Q1019 NOSIG,0,3,0,10000,0,0,0,
2026-04-19 09:00:00,METAR LEBB 190900Z 11004KT 080V160 9999 FEW015 16/13 Q1019 NOSIG,0,4,0,10000,0,0,0,
2026-04-19 08:30:00,METAR LEBB 190830Z 12004KT 080V170 9999 FEW020 16/12 Q1019 NOSIG,0,4,0,10000,0,0,0,
2026-04-19 08:00:00,METAR LEBB 190800Z VRB01KT 9999 FEW020 16/12 Q1019 NOSIG,0,1,0,10000,0,0,0,
2026-04-19 07:30:00,METAR LEBB 190730Z VRB02KT 9999 FEW020 14/12 Q1020 NOSIG,0,2,0,10000,0,0,0,
2026-04-19 07:00:00,METAR LEBB 190700Z VRB02KT 9999 FEW020 12/12 Q1020 NOSIG,0,2,0,10000,0,0,0,
2026-04-19 06:30:00,METAR LEBB 190630Z VRB01KT 9999 FEW015 12/11 Q1019 NOSIG,0,1,0,10000,0,0,0,
2026-04-19 06:00:00,METAR LEBB 190600Z 10004KT 060V180 9999 FEW012 12/11 Q1019 NOSIG,0,4,0,10000,0,0,0,
2026-04-19 05:30:00,METAR LEBB 190530Z 10006KT 070V140 9999 FEW012 12/12 Q1019 NOSIG,0,6,0,10000,0,0,0,
2026-04-19 05:00:00,METAR LEBB 190500Z 10003KT 060V140 9999 FEW055 12/12 Q1020 NOSIG,0,3,0,10000,0,0,0,
2026-04-19 04:30:00,METAR LEBB 190430Z 11003KT 080V140 9999 FEW055 12/12 Q1020 NOSIG,0,3,0,10000,0,0,0,
2026-04-19 04:00:00,METAR LEBB 190400Z 13003KT 080V170 9000 FEW027 12/11 Q1020 NOSIG,0,3,0,9000,0,0,0,
2026-04-19 03:30:00,METAR LEBB 190330Z 04003KT 340V070 9999 FEW027 12/12 Q1021 NOSIG,0,3,0,10000,0,0,0,
2026-04-19 03:00:00,METAR LEBB 190300Z VRB02KT 9999 -RA FEW026 12/12 Q1021 NOSIG,0,2,0,10000,0,0,0,-RA
2026-04-19 02:30:00,METAR LEBB 190230Z AUTO 25003KT 160V300 4900 -RA BR FEW070 12/12 Q1021 RERA,0,3,0,4900,0,0,1,"-RA,BR,RA"
2026-04-19 02:00:00,METAR LEBB 190200Z AUTO 09009KT 070V130 9000 -RA FEW060 12/11 Q1020,0,9,0,9000,0,0,0,-RA
2026-04-19 01:30:00,METAR LEBB 190130Z AUTO 12005KT 9999 -RA NSC 12/11 Q1022,0,5,0,10000,0,0,0,-RA
2026-04-19 01:00:00,METAR LEBB 190100Z AUTO VRB01KT CAVOK 11/11 Q1022,1,0,0,9999,0,0,0,
2026-04-19 00:30:00,METAR LEBB 190030Z AUTO 00000KT CAVOK 11/11 Q1022,1,0,0,9999,0,0,0,
2026-04-19 00:00:00,METAR LEBB 190000Z AUTO VRB02KT CAVOK 11/11 Q1022,1,0,0,9999,0,0,0,
2026-04-18 23:30:00,METAR LEBB 182330Z AUTO 09003KT CAVOK 11/10 Q1022,1,0,0,9999,0,0,0,
2026-04-18 23:00:00,METAR LEBB 182300Z AUTO 09005KT CAVOK 12/11 Q1022,1,0,0,9999,0,0,0,
2026-04-18 22:30:00,METAR LEBB 182230Z AUTO 08005KT CAVOK 12/11 Q1022,1,0,0,9999,0,0,0,
2026-04-18 22:00:00,METAR LEBB 182200Z AUTO 09003KT CAVOK 12/11 Q1023,1,0,0,9999,0,0,0,
2026-04-18 21:30:00,METAR LEBB 182130Z 00000KT 9999 FEW021 12/11 Q1023 NOSIG,0,0,0,10000,0,0,0,
2026-04-18 21:00:00,METAR LEBB 182100Z 27002KT 9999 SCT021 BKN040 13/12 Q1023 NOSIG,0,2,0,10000,0,0,0,
2026-04-18 20:30:00,METAR LEBB 182030Z VRB02KT 9999 SCT020 BKN035 14/12 Q1023 NOSIG,0,2,0,10000,0,0,0,
2026-04-18 20:00:00,METAR LEBB 182000Z VRB02KT 9999 FEW020 BKN029 14/12 Q1023 NOSIG,0,2,0,10000,0,0,0,
2026-04-18 19:30:00,METAR LEBB 181930Z VRB02KT 9999 BKN022 BKN030 15/12 Q1022 NOSIG,0,2,0,10000,0,0,0,
2026-04-18 19:00:00,METAR LEBB 181900Z 01004KT 9999 BKN022 BKN030 15/12 Q1022 NOSIG,0,4,0,10000,0,0,0,
2026-04-18 18:30:00,METAR LEBB 181830Z 01004KT 320V060 9999 BKN022 BKN033 16/13 Q1022 NOSIG,0,4,0,10000,0,0,0,
2026-04-18 18:00:00,METAR LEBB 181800Z 04003KT 010V080 9999 BKN022 BKN033 16/12 Q1022 NOSIG,0,3,0,10000,0,0,0,
2026-04-18 17:30:00,METAR LEBB 181730Z 07003KT 020V140 9999 BKN022 BKN032 16/13 Q1022 NOSIG,0,3,0,10000,0,0,0,
2026-04-18 17:00:00,METAR LEBB 181700Z 01004KT 320V090 9999 BKN022 BKN030 16/13 Q1022 NOSIG,0,4,0,10000,0,0,0,
2026-04-18 16:30:00,METAR LEBB 181630Z 33004KT 300V360 9999 BKN021 BKN030 16/13 Q1022 NOSIG,0,4,0,10000,0,0,0,
2026-04-18 16:00:00,METAR LEBB 181600Z 30004KT 270V340 9999 SCT020 BKN028 16/13 Q1022 NOSIG,0,4,0,10000,0,0,0,
2026-04-18 15:00:00,METAR LEBB 181500Z 34005KT 270V010 9999 SCT022 BKN035 17/13 Q1022 NOSIG,0,5,0,10000,0,0,0,
2026-04-18 14:30:00,METAR LEBB 181430Z 29005KT 260V340 9999 BKN024 BKN035 17/13 Q1022 NOSIG,0,5,0,10000,0,0,0,
2026-04-18 14:00:00,METAR LEBB 181400Z 29007KT 9999 BKN024 BKN032 17/13 Q1022 NOSIG,0,7,0,10000,0,0,0,
2026-04-18 13:30:00,METAR LEBB 181330Z 29007KT 9999 BKN024 BKN034 18/13 Q1022 NOSIG,0,7,0,10000,0,0,0,
2026-04-18 13:00:00,METAR LEBB 181300Z 33007KT 9999 BKN023 BKN035 17/13 Q1022 NOSIG,0,7,0,10000,0,0,0,
2026-04-18 12:30:00,METAR LEBB 181230Z 31004KT 260V020 9999 BKN025 BKN034 18/13 Q1022 NOSIG,0,4,0,10000,0,0,0,
2026-04-18 12:00:00,METAR LEBB 181200Z 28005KT 210V330 9999 SCT026 BKN035 19/15 Q1022 NOSIG,0,5,0,10000,0,0,0,
2026-04-18 11:30:00,METAR LEBB 181130Z VRB01KT 9999 BKN026 BKN035 18/13 Q1022 NOSIG,0,1,0,10000,0,0,0,
2026-04-18 11:00:00,METAR LEBB 181100Z VRB01KT 9999 BKN022 BKN030 17/13 Q1023 NOSIG,0,1,0,10000,0,0,0,
2026-04-18 10:30:00,METAR LEBB 181030Z VRB01KT 9999 BKN022 BKN034 17/13 Q1023 NOSIG,0,1,0,10000,0,0,0,
2026-04-18 10:00:00,METAR LEBB 181000Z VRB01KT 9999 SCT018 BKN035 17/13 Q1023 NOSIG,0,1,0,10000,0,0,0,
2026-04-18 09:30:00,METAR LEBB 180930Z VRB01KT 9999 FEW016 SCT022 BKN033 16/13 Q1023 NOSIG,0,1,0,10000,0,0,0,
2026-04-18 09:00:00,METAR LEBB 180900Z VRB02KT 9999 FEW015 BKN032 16/13 Q1023 NOSIG,0,2,0,10000,0,0,0,
2026-04-18 08:30:00,METAR LEBB 180830Z VRB01KT 9999 FEW013 BKN032 16/13 Q1023 NOSIG,0,1,0,10000,0,0,0,
2026-04-18 08:00:00,METAR LEBB 180800Z VRB02KT 9999 FEW012 BKN030 15/13 Q1023 NOSIG,0,2,0,10000,0,0,0,
2026-04-18 07:30:00,METAR LEBB 180730Z VRB02KT 9999 FEW011 BKN029 15/13 Q1023 NOSIG,0,2,0,10000,0,0,0,
2026-04-18 07:00:00,METAR LEBB 180700Z VRB01KT 9999 FEW011 BKN026 14/13 Q1023 NOSIG,0,1,0,10000,0,0,0,
2026-04-18 06:30:00,METAR LEBB 180630Z 00000KT 9999 FEW011 BKN028 14/13 Q1023 NOSIG,0,0,0,10000,0,0,0,
2026-04-18 06:00:00,METAR LEBB 180600Z 00000KT 9999 FEW011 SCT022 BKN031 13/13 Q1022 NOSIG,0,0,0,10000,0,0,0,
2026-04-18 05:30:00,METAR LEBB 180530Z VRB01KT 9999 FEW011 SCT016 BKN028 13/13 Q1022 NOSIG,0,1,0,10000,0,0,0,
2026-04-18 05:00:00,METAR LEBB 180500Z VRB01KT 9999 SCT015 SCT022 BKN030 13/13 Q1022 NOSIG,0,1,0,10000,0,0,0,
2026-04-18 04:30:00,METAR LEBB 180430Z 00000KT 9999 FEW015 SCT023 BKN039 13/12 Q1022 NOSIG,0,0,0,10000,0,0,0,
2026-04-18 04:00:00,METAR LEBB 180400Z VRB01KT 9999 SCT020 BKN039 14/13 Q1022 NOSIG,0,1,0,10000,0,0,0,
2026-04-18 03:30:00,METAR LEBB 180330Z 00000KT 9999 BKN037 14/13 Q1022 NOSIG,0,0,0,10000,0,0,0,
2026-04-18 03:00:00,METAR LEBB 180300Z 15001KT 9999 BKN037 14/13 Q1022 NOSIG,0,1,0,10000,0,0,0,
2026-04-18 02:30:00,METAR LEBB 180230Z AUTO VRB01KT 9999 FEW021 OVC036 14/13 Q1022,0,1,0,10000,0,0,0,
2026-04-18 02:00:00,METAR LEBB 180200Z AUTO 11001KT 9999 SCT021 OVC036 14/13 Q1022,0,1,0,10000,0,0,0,
2026-04-18 01:30:00,METAR LEBB 180130Z AUTO 08001KT 9999 FEW011 BKN021 OVC036 13/13 Q1022,0,1,0,10000,0,0,0,
2026-04-18 01:00:00,METAR LEBB 180100Z AUTO 08002KT 9999 FEW011 BKN022 BKN039 13/13 Q1022,0,2,0,10000,0,0,0,
2026-04-18 00:30:00,METAR LEBB 180030Z AUTO 07002KT 9999 FEW022 BKN038 14/13 Q1022,0,2,0,10000,0,0,0,
2026-04-18 00:00:00,METAR LEBB 180000Z AUTO 09003KT 070V130 9999 SCT016 OVC040 14/13 Q1023,0,3,0,10000,0,0,0,
2026-04-17 23:30:00,METAR LEBB 172330Z AUTO 11002KT 9999 FEW011 OVC017 14/13 Q1023,0,2,0,10000,0,0,0,
2026-04-17 23:00:00,METAR LEBB 172300Z AUTO 07002KT 9999 SCT010 14/13 Q1023,0,2,0,10000,0,0,0,
2026-04-17 22:30:00,METAR LEBB 172230Z AUTO VRB01KT 9999 SCT011 SCT017 14/13 Q1023,0,1,0,10000,0,0,0,
2026-04-17 22:00:00,METAR LEBB 172200Z AUTO 33001KT 9999 BKN011 14/13 Q1023,0,1,0,10000,0,0,0,
2026-04-17 21:30:00,METAR LEBB 172130Z VRB01KT 9999 FEW011 14/13 Q1023 TEMPO BKN010,0,1,0,10000,0,0,0,
2026-04-17 21:00:00,METAR LEBB 172100Z 29002KT 9999 FEW014 15/13 Q1023 TEMPO BKN010,0,2,0,10000,0,0,0,
2026-04-17 20:30:00,METAR LEBB 172030Z 31003KT 9999 SCT015 15/13 Q1023 TEMPO BKN010,0,3,0,10000,0,0,0,
2026-04-17 20:00:00,METAR LEBB 172000Z 30003KT 9999 SCT015 15/13 Q1022 TEMPO BKN010,0,3,0,10000,0,0,0,
2026-04-17 19:30:00,METAR LEBB 171930Z 30004KT 9999 SCT016 15/13 Q1022 TEMPO BKN010,0,4,0,10000,0,0,0,
2026-04-17 19:00:00,METAR LEBB 171900Z 31006KT 9999 BKN017 16/13 Q1022 TEMPO BKN010,0,6,0,10000,0,0,0,
2026-04-17 18:30:00,METAR LEBB 171830Z 29007KT 9999 BKN017 16/13 Q1021 TEMPO BKN010,0,7,0,10000,0,0,0,
2026-04-17 18:00:00,METAR LEBB 171800Z 29008KT 9999 SCT016 16/13 Q1021 TEMPO BKN010,0,8,0,10000,0,0,0,
2026-04-17 17:30:00,METAR LEBB 171730Z 29008KT 260V320 9999 SCT016 16/13 Q1021 NOSIG,0,8,0,10000,0,0,0,
2026-04-17 17:00:00,METAR LEBB 171700Z 29010KT 9999 FEW015 17/13 Q1021 NOSIG,0,10,0,10000,0,0,0,
2026-04-17 16:30:00,METAR LEBB 171630Z 29010KT 250V310 9999 FEW017 17/13 Q1020 NOSIG,0,10,0,10000,0,0,0,
2026-04-17 16:00:00,METAR LEBB 171600Z 29010KT 260V320 9999 FEW020 18/14 Q1020 NOSIG,0,10,0,10000,0,0,0,
2026-04-17 15:30:00,METAR LEBB 171530Z 28012KT 9999 FEW025 18/14 Q1020 NOSIG,0,12,0,10000,0,0,0,
2026-04-17 15:00:00,METAR LEBB 171500Z 28011KT 9999 FEW025 18/14 Q1020 NOSIG,0,11,0,10000,0,0,0,
2026-04-17 14:30:00,METAR LEBB 171430Z 28010KT 240V310 9999 FEW025 18/14 Q1020 NOSIG,0,10,0,10000,0,0,0,
2026-04-17 14:00:00,METAR LEBB 171400Z 27010KT 240V300 9999 FEW025 18/14 Q1020 NOSIG,0,10,0,10000,0,0,0,
2026-04-17 13:30:00,METAR LEBB 171330Z 28010KT 240V300 9999 FEW025 19/15 Q1020 NOSIG,0,10,0,10000,0,0,0,
2026-04-17 13:00:00,METAR LEBB 171300Z 27009KT 230V300 9999 FEW035 19/15 Q1020 NOSIG,0,9,0,10000,0,0,0,
2026-04-17 12:30:00,METAR LEBB 171230Z 28011KT 230V300 CAVOK 19/15 Q1020 NOSIG,1,0,0,9999,0,0,0,
2026-04-17 12:00:00,METAR LEBB 171200Z 28011KT CAVOK 19/15 Q1020 NOSIG,1,0,0,9999,0,0,0,
2026-04-17 11:30:00,METAR LEBB 171130Z 28011KT CAVOK 19/15 Q1020 NOSIG,1,0,0,9999,0,0,0,
2026-04-17 11:00:00,METAR LEBB 171100Z 28008KT 240V310 CAVOK 20/15 Q1020 NOSIG,1,0,0,9999,0,0,0,
2026-04-17 10:30:00,METAR LEBB 171030Z VRB02KT CAVOK 20/15 Q1020 NOSIG,1,0,0,9999,0,0,0,
2026-04-17 10:00:00,METAR LEBB 171000Z VRB02KT CAVOK 20/14 Q1020 NOSIG,1,0,0,9999,0,0,0,
2026-04-17 09:30:00,METAR LEBB 170930Z 06003KT 360V110 CAVOK 19/13 Q1020 NOSIG,1,0,0,9999,0,0,0,
2026-04-17 09:00:00,METAR LEBB 170900Z 07003KT 020V140 CAVOK 19/13 Q1020 NOSIG,1,0,0,9999,0,0,0,
2026-04-17 08:30:00,METAR LEBB 170830Z 10003KT 070V150 CAVOK 17/13 Q1020 NOSIG,1,0,0,9999,0,0,0,
2026-04-17 08:00:00,METAR LEBB 170800Z VRB02KT CAVOK 16/14 Q1020 NOSIG,1,0,0,9999,0,0,0,
2026-04-17 07:30:00,METAR LEBB 170730Z 09004KT 060V120 CAVOK 14/13 Q1020 NOSIG,1,0,0,9999,0,0,0,
2026-04-17 07:00:00,METAR LEBB 170700Z 09003KT 010V140 CAVOK 13/12 Q1020 NOSIG,1,0,0,9999,0,0,0,
2026-04-17 06:30:00,METAR LEBB 170630Z 08003KT 020V100 9000 NSC 12/11 Q1020 NOSIG,0,3,0,9000,0,0,0,
2026-04-17 06:00:00,METAR LEBB 170600Z 09003KT 050V120 9000 NSC 11/11 Q1020 NOSIG,0,3,0,9000,0,0,0,
2026-04-17 05:30:00,METAR LEBB 170530Z 09004KT 050V120 8000 NSC 11/11 Q1020 NOSIG,0,4,0,8000,0,0,0,
2026-04-17 05:00:00,METAR LEBB 170500Z 09003KT 030V140 CAVOK 11/10 Q1020 NOSIG,1,0,0,9999,0,0,0,
2026-04-17 04:30:00,METAR LEBB 170430Z 08003KT CAVOK 11/10 Q1020 NOSIG,1,0,0,9999,0,0,0,
2026-04-17 04:00:00,METAR LEBB 170400Z 11001KT CAVOK 11/11 Q1020 NOSIG,1,0,0,9999,0,0,0,
2026-04-17 03:30:00,METAR LEBB 170330Z 09002KT 9999 FEW042 11/10 Q1021 NOSIG,0,2,0,10000,0,0,0,
2026-04-17 03:00:00,METAR LEBB 170300Z 07002KT 9999 FEW042 11/11 Q1021 NOSIG,0,2,0,10000,0,0,0,
2026-04-17 02:30:00,METAR LEBB 170230Z AUTO 08001KT CAVOK 12/11 Q1021,1,0,0,9999,0,0,0,
2026-04-17 02:00:00,METAR LEBB 170200Z AUTO 06001KT 9999 BKN041 12/12 Q1021,0,1,0,10000,0,0,0,
2026-04-17 01:30:00,METAR LEBB 170130Z AUTO VRB02KT 9999 OVC042 13/12 Q1021,0,2,0,10000,0,0,0,
2026-04-17 01:00:00,METAR LEBB 170100Z AUTO VRB02KT 9999 OVC042 12/12 Q1022,0,2,0,10000,0,0,0,
2026-04-17 00:30:00,METAR LEBB 170030Z AUTO 10003KT 9999 FEW013 SCT042 12/12 Q1022,0,3,0,10000,0,0,0,
2026-04-17 00:00:00,METAR LEBB 170000Z AUTO 09002KT 9999 SCT012 12/11 Q1022,0,2,0,10000,0,0,0,
2026-04-16 23:30:00,METAR LEBB 162330Z AUTO 07002KT 9999 BKN012 13/12 Q1022,0,2,0,10000,0,0,0,
2026-04-16 23:00:00,METAR LEBB 162300Z AUTO 08003KT 9999 SCT013 12/11 Q1022,0,3,0,10000,0,0,0,
2026-04-16 22:30:00,METAR LEBB 162230Z AUTO 09002KT CAVOK 13/12 Q1022,1,0,0,9999,0,0,0,
2026-04-16 22:00:00,METAR LEBB 162200Z AUTO VRB02KT CAVOK 13/12 Q1022,1,0,0,9999,0,0,0,
2026-04-16 21:30:00,METAR LEBB 162130Z VRB02KT CAVOK 14/13 Q1022 NOSIG,1,0,0,9999,0,0,0,
2026-04-16 21:00:00,METAR LEBB 162100Z VRB01KT 9999 FEW035 14/13 Q1022 NOSIG,0,1,0,10000,0,0,0,
2026-04-16 20:30:00,METAR LEBB 162030Z VRB01KT 9999 BKN034 15/13 Q1022 NOSIG,0,1,0,10000,0,0,0,
2026-04-16 20:00:00,METAR LEBB 162000Z 00000KT 9999 FEW034 15/13 Q1021 NOSIG,0,0,0,10000,0,0,0,
2026-04-16 19:30:00,METAR LEBB 161930Z 00000KT 9999 FEW034 15/13 Q1021 NOSIG,0,0,0,10000,0,0,0,
2026-04-16 19:00:00,METAR LEBB 161900Z 29003KT 260V340 9999 SCT035 BKN046 16/13 Q1021 NOSIG,0,3,0,10000,0,0,0,
2026-04-16 18:30:00,METAR LEBB 161830Z 31004KT 9999 BKN036 16/13 Q1021 NOSIG,0,4,0,10000,0,0,0,
2026-04-16 18:00:00,METAR LEBB 161800Z 31006KT 9999 OVC035 16/14 Q1021 NOSIG,0,6,0,10000,0,0,0,
2026-04-16 17:30:00,METAR LEBB 161730Z 30008KT 9999 OVC036 17/13 Q1020 NOSIG,0,8,0,10000,0,0,0,
2026-04-16 17:00:00,METAR LEBB 161700Z 30011KT 9999 BKN035 17/14 Q1020 NOSIG,0,11,0,10000,0,0,0,
2026-04-16 16:30:00,METAR LEBB 161630Z 28010KT 240V310 9999 SCT035 17/14 Q1020 NOSIG,0,10,0,10000,0,0,0,
2026-04-16 16:00:00,METAR LEBB 161600Z 27012KT 230V300 CAVOK 18/14 Q1020 NOSIG,1,0,0,9999,0,0,0,
2026-04-16 15:30:00,METAR LEBB 161530Z 27011KT 230V300 CAVOK 19/15 Q1019 NOSIG,1,0,0,9999,0,0,0,
2026-04-16 15:00:00,METAR LEBB 161500Z 27012KT 210V300 CAVOK 19/14 Q1019 NOSIG,1,0,0,9999,0,0,0,
2026-04-16 14:30:00,METAR LEBB 161430Z 28013KT CAVOK 20/14 Q1019 NOSIG,1,0,0,9999,0,0,0,
2026-04-16 14:00:00,METAR LEBB 161400Z 28012KT 230V300 CAVOK 21/14 Q1019 NOSIG,1,0,0,9999,0,0,0,
2026-04-16 13:30:00,METAR LEBB 161330Z 28012KT 240V300 CAVOK 21/15 Q1020 NOSIG,1,0,0,9999,0,0,0,
2026-04-16 13:00:00,METAR LEBB 161300Z 28011KT 230V320 CAVOK 21/15 Q1020 NOSIG,1,0,0,9999,0,0,0,
2026-04-16 12:30:00,METAR LEBB 161230Z 32003KT 250V030 CAVOK 23/14 Q1020 NOSIG,1,0,0,9999,0,0,0,
2026-04-16 12:00:00,METAR LEBB 161200Z VRB03KT CAVOK 22/13 Q1020 NOSIG,1,0,0,9999,0,0,0,
2026-04-16 11:30:00,METAR LEBB 161130Z VRB04KT 9999 FEW032 21/13 Q1021 NOSIG,0,4,0,10000,0,0,0,
2026-04-16 11:00:00,METAR LEBB 161100Z 09005KT 030V170 9999 FEW029 20/13 Q1021 NOSIG,0,5,0,10000,0,0,0,
2026-04-16 10:30:00,METAR LEBB 161030Z 07006KT 360V100 9999 FEW029 20/12 Q1021 NOSIG,0,6,0,10000,0,0,0,
2026-04-16 10:00:00,METAR LEBB 161000Z 08005KT 020V140 9999 BKN027 19/13 Q1022 NOSIG,0,5,0,10000,0,0,0,
2026-04-16 09:30:00,METAR LEBB 160930Z 11006KT 050V150 9999 FEW023 SCT028 19/13 Q1022 NOSIG,0,6,0,10000,0,0,0,
2026-04-16 09:00:00,METAR LEBB 160900Z 09004KT 050V160 9999 R30///// SCT031 18/13 Q1022 NOSIG,0,4,0,10000,0,0,0,
2026-04-16 08:30:00,METAR LEBB 160830Z VRB02KT 9999 OVC032 17/13 Q1022 NOSIG,0,2,0,10000,0,0,0,
2026-04-16 08:00:00,METAR LEBB 160800Z VRB01KT 9999 OVC033 15/12 Q1022 NOSIG,0,1,0,10000,0,0,0,
2026-04-16 07:30:00,METAR LEBB 160730Z 00000KT 9999 OVC032 14/13 Q1023 NOSIG,0,0,0,10000,0,0,0,
2026-04-16 07:00:00,METAR LEBB 160700Z 00000KT 9999 FEW026 OVC032 14/12 Q1023 NOSIG,0,0,0,10000,0,0,0,
2026-04-16 06:30:00,METAR LEBB 160630Z 00000KT 9999 BKN026 OVC034 13/12 Q1023 NOSIG,0,0,0,10000,0,0,0,
2026-04-16 06:00:00,METAR LEBB 160600Z VRB01KT 9999 FEW027 OVC036 13/12 Q1023 NOSIG,0,1,0,10000,0,0,0,
2026-04-16 05:30:00,METAR LEBB 160530Z 00000KT 9999 OVC037 12/12 Q1022 NOSIG,0,0,0,10000,0,0,0,
2026-04-16 05:00:00,METAR LEBB 160500Z VRB02KT 9999 OVC038 12/12 Q1023 NOSIG,0,2,0,10000,0,0,0,
2026-04-16 04:30:00,METAR LEBB 160430Z 13001KT 9999 OVC039 12/11 Q1023 NOSIG,0,1,0,10000,0,0,0,
2026-04-16 04:00:00,METAR LEBB 160400Z 08001KT 9999 BKN041 12/11 Q1023 NOSIG,0,1,0,10000,0,0,0,
2026-04-16 03:30:00,METAR LEBB 160330Z 08002KT 9999 SCT040 12/11 Q1023 NOSIG,0,2,0,10000,0,0,0,
2026-04-16 03:00:00,METAR LEBB 160300Z VRB02KT 9999 BKN041 12/11 Q1023 NOSIG,0,2,0,10000,0,0,0,
2026-04-16 02:30:00,METAR LEBB 160230Z AUTO 08002KT 9999 BKN041 11/11 Q1023,0,2,0,10000,0,0,0,
2026-04-16 02:00:00,METAR LEBB 160200Z AUTO VRB01KT 9999 OVC038 12/11 Q1024,0,1,0,10000,0,0,0,
2026-04-16 01:30:00,METAR LEBB 160130Z AUTO 08002KT 9999 SCT038 12/11 Q1024,0,2,0,10000,0,0,0,
2026-04-16 01:00:00,METAR LEBB 160100Z AUTO VRB02KT CAVOK 11/10 Q1024,1,0,0,9999,0,0,0,
2026-04-16 00:30:00,METAR LEBB 160030Z AUTO 09004KT CAVOK 12/11 Q1024,1,0,0,9999,0,0,0,
2026-04-16 00:00:00,METAR LEBB 160000Z AUTO 09004KT CAVOK 12/11 Q1024,1,0,0,9999,0,0,0,
2026-04-15 23:30:00,METAR LEBB 152330Z AUTO 08002KT CAVOK 12/11 Q1025,1,0,0,9999,0,0,0,
2026-04-15 23:00:00,METAR LEBB 152300Z AUTO 07003KT CAVOK 13/12 Q1025,1,0,0,9999,0,0,0,
2026-04-15 22:30:00,METAR LEBB 152230Z AUTO VRB02KT CAVOK 13/12 Q1025,1,0,0,9999,0,0,0,
2026-04-15 22:00:00,METAR LEBB 152200Z AUTO VRB01KT CAVOK 14/12 Q1025,1,0,0,9999,0,0,0,
2026-04-15 21:30:00,METAR LEBB 152130Z VRB02KT 9999 SCT015 14/12 Q1025 NOSIG,0,2,0,10000,0,0,0,
2026-04-15 21:00:00,METAR LEBB 152100Z 10003KT 050V170 9999 BKN015 15/12 Q1025 NOSIG,0,3,0,10000,0,0,0,
2026-04-15 20:30:00,METAR LEBB 152030Z VRB02KT 9999 BKN015 15/12 Q1025 NOSIG,0,2,0,10000,0,0,0,
2026-04-15 20:00:00,METAR LEBB 152000Z 36004KT 330V050 9999 BKN015 15/12 Q1024 NOSIG,0,4,0,10000,0,0,0,
2026-04-15 19:30:00,METAR LEBB 151930Z 35004KT 320V040 9999 BKN015 15/12 Q1024 NOSIG,0,4,0,10000,0,0,0,
2026-04-15 19:00:00,METAR LEBB 151900Z 32004KT 290V350 9999 BKN013 15/12 Q1024 NOSIG,0,4,0,10000,0,0,0,
2026-04-15 18:30:00,METAR LEBB 151830Z 33006KT 9999 BKN014 15/13 Q1023 NOSIG,0,6,0,10000,0,0,0,
2026-04-15 18:00:00,METAR LEBB 151800Z 32005KT 290V350 9999 BKN014 16/13 Q1023 NOSIG,0,5,0,10000,0,0,0,
2026-04-15 17:30:00,METAR LEBB 151730Z 35006KT 260V060 9999 BKN014 16/13 Q1023 NOSIG,0,6,0,10000,0,0,0,
2026-04-15 17:00:00,METAR LEBB 151700Z 29009KT 250V330 9999 BKN014 16/13 Q1023 NOSIG,0,9,0,10000,0,0,0,
2026-04-15 16:51:00,SPECI LEBB 151651Z 30008KT 270V350 9999 BKN014 16/13 Q1023 NOSIG,0,8,0,10000,0,0,0,
2026-04-15 16:30:00,METAR LEBB 151630Z 29011KT 250V320 9999 SCT016 17/14 Q1023 NOSIG,0,11,0,10000,0,0,0,
2026-04-15 16:00:00,METAR LEBB 151600Z 28009KT 250V310 9999 FEW025 18/14 Q1022 NOSIG,0,9,0,10000,0,0,0,
2026-04-15 15:30:00,METAR LEBB 151530Z 28011KT 240V320 9999 FEW027 19/14 Q1022 NOSIG,0,11,0,10000,0,0,0,
2026-04-15 15:00:00,METAR LEBB 151500Z 26009KT 230V300 9999 FEW027 19/14 Q1022 NOSIG,0,9,0,10000,0,0,0,
2026-04-15 14:30:00,METAR LEBB 151430Z 27010KT 230V300 9999 FEW030 20/14 Q1022 NOSIG,0,10,0,10000,0,0,0,
2026-04-15 14:00:00,METAR LEBB 151400Z 28011KT 240V320 9999 FEW050 19/14 Q1022 NOSIG,0,11,0,10000,0,0,0,
2026-04-15 13:30:00,METAR LEBB 151330Z 26012KT 230V290 9999 FEW050 20/14 Q1021 NOSIG,0,12,0,10000,0,0,0,
2026-04-15 13:00:00,METAR LEBB 151300Z 28011KT 240V310 9999 FEW050 21/12 Q1021 NOSIG,0,11,0,10000,0,0,0,
2026-04-15 12:30:00,METAR LEBB 151230Z 27011KT 230V300 9999 FEW050 22/14 Q1021 NOSIG,0,11,0,10000,0,0,0,
2026-04-15 12:00:00,METAR LEBB 151200Z 29009KT 250V310 9999 FEW050 23/14 Q1021 NOSIG,0,9,0,10000,0,0,0,
2026-04-15 11:30:00,METAR LEBB 151130Z VRB02KT 9999 FEW040 23/15 Q1021 NOSIG,0,2,0,10000,0,0,0,
2026-04-15 11:00:00,METAR LEBB 151100Z VRB03KT 9999 FEW035 23/11 Q1021 NOSIG,0,3,0,10000,0,0,0,
2026-04-15 10:30:00,METAR LEBB 151030Z 09004KT 020V140 9999 FEW035 21/11 Q1021 NOSIG,0,4,0,10000,0,0,0,
2026-04-15 10:00:00,METAR LEBB 151000Z 09005KT 040V150 9999 FEW035 20/12 Q1021 NOSIG,0,5,0,10000,0,0,0,
2026-04-15 09:30:00,METAR LEBB 150930Z 09005KT 050V170 9999 FEW035 19/13 Q1021 NOSIG,0,5,0,10000,0,0,0,
2026-04-15 09:00:00,METAR LEBB 150900Z 12007KT 080V150 CAVOK 18/14 Q1021 NOSIG,1,0,0,9999,0,0,0,
2026-04-15 08:30:00,METAR LEBB 150830Z 12005KT 080V160 CAVOK 16/13 Q1021 NOSIG,1,0,0,9999,0,0,0,
2026-04-15 08:00:00,METAR LEBB 150800Z 13004KT CAVOK 15/13 Q1022 NOSIG,1,0,0,9999,0,0,0,
2026-04-15 07:30:00,METAR LEBB 150730Z 11003KT 080V150 9999 FEW006 14/13 Q1022 NOSIG,0,3,0,10000,0,0,0,
2026-04-15 07:00:00,METAR LEBB 150700Z 11005KT 070V140 9999 FEW006 SCT062 13/13 Q1021 NOSIG,0,5,0,10000,0,0,0,
2026-04-15 06:30:00,METAR LEBB 150630Z 09004KT 050V130 9999 BKN062 13/12 Q1021 NOSIG,0,4,0,10000,0,0,0,
2026-04-15 06:00:00,METAR LEBB 150600Z VRB01KT 9999 FEW006 BKN063 12/12 Q1021 NOSIG,0,1,0,10000,0,0,0,
2026-04-15 05:30:00,METAR LEBB 150530Z 09003KT 040V130 9999 4900SE FEW003 SCT062 12/12 Q1021 TEMPO 3000 BR BKN005,0,3,0,10000,0,0,1,BR
2026-04-15 05:00:00,METAR LEBB 150500Z 12003KT 080V140 9999 FEW008 SCT060 12/12 Q1021 TEMPO 3000 BR BKN005,0,3,0,10000,0,0,1,BR
2026-04-15 04:30:00,METAR LEBB 150430Z 09003KT 070V130 9999 FEW008 12/12 Q1021 TEMPO 3000 BR BKN005,0,3,0,10000,0,0,1,BR
2026-04-15 04:00:00,METAR LEBB 150400Z VRB02KT 9999 FEW008 12/12 Q1021 TEMPO 3000 BR BKN005,0,2,0,10000,0,0,1,BR
2026-04-15 03:30:00,METAR LEBB 150330Z 00000KT 8000 FEW008 SCT065 12/12 Q1021 TEMPO 3000 BR BKN005,0,0,0,8000,0,0,1,BR
2026-04-15 03:00:00,METAR LEBB 150300Z VRB02KT 7000 SCT002 BKN065 12/12 Q1021 TEMPO 3000 BR BKN005,0,2,0,7000,0,0,1,BR
2026-04-15 02:30:00,METAR LEBB 150230Z AUTO 00000KT 0450 0400SE R30/1000U R12/1000U FG SCT002 BKN067 12/12 Q1022,0,0,0,724050,0,0,1,FG
2026-04-15 02:00:00,METAR LEBB 150200Z AUTO 09003KT 060V120 0300 0250 R30/0750D R12/0700D FG VV001 12/12 Q1022,0,3,0,482700,0,0,1,FG
2026-04-15 01:30:00,METAR LEBB 150130Z AUTO VRB02KT 7000 FEW002 12/12 Q1022,0,2,0,7000,0,0,0,
2026-04-15 01:00:00,METAR LEBB 150100Z AUTO 08002KT 9000 NSC 13/12 Q1022,0,2,0,9000,0,0,0,
2026-04-15 00:30:00,METAR LEBB 150030Z AUTO VRB01KT CAVOK 13/13 Q1022,1,0,0,9999,0,0,0,
2026-04-15 00:00:00,METAR LEBB 150000Z AUTO 09003KT 060V120 9999 FEW068 13/13 Q1022,0,3,0,10000,0,0,0,
2026-04-14 23:30:00,METAR LEBB 142330Z AUTO 07002KT 9999 BKN069 13/13 Q1023,0,2,0,10000,0,0,0,
2026-04-14 23:00:00,METAR LEBB 142300Z AUTO VRB01KT 9999 SCT069 14/13 Q1023,0,1,0,10000,0,0,0,
2026-04-14 22:30:00,METAR LEBB 142230Z AUTO 08003KT 050V110 CAVOK 14/13 Q1023,1,0,0,9999,0,0,0,
2026-04-14 22:00:00,METAR LEBB 142200Z AUTO VRB02KT CAVOK 14/13 Q1023,1,0,0,9999,0,0,0,
2026-04-14 21:30:00,METAR LEBB 142130Z 08003KT 040V100 9999 FEW020 14/14 Q1023 NOSIG,0,3,0,10000,0,0,0,
2026-04-14 21:00:00,METAR LEBB 142100Z VRB02KT 9999 FEW020 SCT045 14/14 Q1023 NOSIG,0,2,0,10000,0,0,0,
2026-04-14 20:30:00,METAR LEBB 142030Z 09003KT 030V130 9999 FEW035 SCT048 14/14 Q1023 NOSIG,0,3,0,10000,0,0,0,
2026-04-14 20:00:00,METAR LEBB 142000Z 09004KT 050V130 9999 FEW045 14/14 Q1022 NOSIG,0,4,0,10000,0,0,0,
2026-04-14 19:30:00,METAR LEBB 141930Z 10003KT 060V130 9999 SCT055 14/14 Q1022 NOSIG,0,3,0,10000,0,0,0,
2026-04-14 19:00:00,METAR LEBB 141900Z VRB02KT 9999 FEW020 SCT045 15/14 Q1022 NOSIG,0,2,0,10000,0,0,0,
2026-04-14 18:30:00,METAR LEBB 141830Z VRB01KT 9999 SCT020 BKN040 15/14 Q1022 NOSIG,0,1,0,10000,0,0,0,
2026-04-14 18:00:00,METAR LEBB 141800Z 00000KT 9999 SCT018 BKN042 15/14 Q1022 NOSIG,0,0,0,10000,0,0,0,
2026-04-14 17:30:00,METAR LEBB 141730Z 29003KT 220V320 9000 SCT015 BKN028 OVC050 15/14 Q1022 NOSIG,0,3,0,9000,0,0,0,
2026-04-14 17:00:00,METAR LEBB 141700Z 29007KT 260V320 6000 SCT009 BKN016 OVC025 15/14 Q1022 NOSIG,0,7,0,6000,0,0,0,
2026-04-14 16:30:00,METAR LEBB 141630Z 30008KT 7000 FEW009 BKN016 OVC020 15/14 Q1022 NOSIG,0,8,0,7000,0,0,0,
2026-04-14 16:02:00,SPECI LEBB 141602Z 29005KT 240V340 6000 -RA SCT009 BKN016 OVC024 15/14 Q1022 NOSIG,0,5,0,6000,0,0,0,-RA
2026-04-14 16:00:00,METAR LEBB 141600Z 29006KT 240V340 7000 -RA SCT009 BKN016 OVC024 15/14 Q1022 NOSIG,0,6,0,7000,0,0,0,-RA
2026-04-14 15:30:00,METAR LEBB 141530Z VRB01KT 3500 -RA BKN009 OVC016 15/14 Q1022 NOSIG,0,1,0,3500,0,0,0,-RA
2026-04-14 15:06:00,SPECI LEBB 141506Z 00000KT 4000 -RA BKN011 OVC018 15/13 Q1022 NOSIG,0,0,0,4000,0,0,0,-RA
2026-04-14 15:00:00,METAR LEBB 141500Z VRB01KT 6000 -RA SCT010 BKN016 OVC025 15/13 Q1022 NOSIG,0,1,0,6000,0,0,0,-RA
2026-04-14 14:30:00,METAR LEBB 141430Z 00000KT 7000 -RA FEW012 SCT017 BKN022 15/13 Q1022 NOSIG,0,0,0,7000,0,0,0,-RA
2026-04-14 14:22:00,SPECI LEBB 141422Z VRB02KT 4000 -RA SCT014 BKN022 15/13 Q1022 NOSIG,0,2,0,4000,0,0,0,-RA
2026-04-14 14:00:00,METAR LEBB 141400Z VRB01KT 9999 FEW012 SCT016 BKN024 16/13 Q1022 NOSIG,0,1,0,10000,0,0,0,
2026-04-14 13:30:00,METAR LEBB 141330Z 30004KT 260V340 9999 FEW014 BKN026 15/13 Q1022 NOSIG,0,4,0,10000,0,0,0,
2026-04-14 13:00:00,METAR LEBB 141300Z 30008KT 270V330 9999 FEW015 SCT028 BKN040 15/12 Q1022 NOSIG,0,8,0,10000,0,0,0,
2026-04-14 12:30:00,METAR LEBB 141230Z 30011KT 9999 SCT034 BKN044 17/12 Q1022 NOSIG,0,11,0,10000,0,0,0,
2026-04-14 12:00:00,METAR LEBB 141200Z 34007KT 290V030 9999 SCT035 BKN042 19/11 Q1021 NOSIG,0,7,0,10000,0,0,0,
2026-04-14 11:30:00,METAR LEBB 141130Z VRB02KT 9999 SCT036 BKN050 19/10 Q1021 NOSIG,0,2,0,10000,0,0,0,
2026-04-14 11:00:00,METAR LEBB 141100Z 11004KT 050V160 9999 FEW042 BKN059 18/12 Q1021 NOSIG,0,4,0,10000,0,0,0,
2026-04-14 10:30:00,METAR LEBB 141030Z 10004KT 060V150 9999 FEW042 BKN055 17/11 Q1021 NOSIG,0,4,0,10000,0,0,0,
2026-04-14 10:00:00,METAR LEBB 141000Z 10004KT 060V140 9999 BKN042 15/10 Q1021 NOSIG,0,4,0,10000,0,0,0,
2026-04-14 09:30:00,METAR LEBB 140930Z 09005KT 060V130 9999 FEW037 BKN044 14/10 Q1021 NOSIG,0,5,0,10000,0,0,0,
2026-04-14 09:00:00,METAR LEBB 140900Z 09006KT 050V140 9999 BKN043 13/10 Q1021 NOSIG,0,6,0,10000,0,0,0,
2026-04-14 08:30:00,METAR LEBB 140830Z 09006KT 070V140 9999 BKN042 13/09 Q1021 NOSIG,0,6,0,10000,0,0,0,
2026-04-14 08:00:00,METAR LEBB 140800Z 11005KT 080V140 9999 BKN037 OVC060 12/09 Q1021 NOSIG,0,5,0,10000,0,0,0,
2026-04-14 07:30:00,METAR LEBB 140730Z 10004KT 070V140 9999 SCT037 BKN055 11/09 Q1021 NOSIG,0,4,0,10000,0,0,0,
2026-04-14 07:00:00,METAR LEBB 140700Z 10004KT 070V130 9999 FEW040 BKN057 11/09 Q1020 NOSIG,0,4,0,10000,0,0,0,
2026-04-14 06:30:00,METAR LEBB 140630Z 10006KT 070V140 9999 -RA FEW039 BKN060 11/09 Q1020 NOSIG,0,6,0,10000,0,0,0,-RA
2026-04-14 06:00:00,METAR LEBB 140600Z 09004KT 060V130 9999 SCT039 BKN065 11/08 Q1020 NOSIG,0,4,0,10000,0,0,0,
2026-04-14 05:30:00,METAR LEBB 140530Z 10005KT 9999 SCT039 BKN065 10/08 Q1020 NOSIG,0,5,0,10000,0,0,0,
2026-04-14 05:00:00,METAR LEBB 140500Z 09004KT 020V120 9999 FEW039 BKN055 10/08 Q1020 NOSIG,0,4,0,10000,0,0,0,
2026-04-14 04:30:00,METAR LEBB 140430Z 09005KT 070V130 9999 BKN039 OVC055 10/07 Q1020 NOSIG,0,5,0,10000,0,0,0,
2026-04-14 04:00:00,METAR LEBB 140400Z 10004KT 070V140 9999 BKN039 OVC048 11/07 Q1020 NOSIG,0,4,0,10000,0,0,0,
2026-04-14 03:30:00,METAR LEBB 140330Z 14003KT 110V180 9999 BKN039 OVC050 10/07 Q1020 NOSIG,0,3,0,10000,0,0,0,
2026-04-14 03:00:00,METAR LEBB 140300Z VRB02KT 9999 OVC045 10/07 Q1019 NOSIG,0,2,0,10000,0,0,0,
2026-04-14 02:30:00,METAR LEBB 140230Z AUTO 13003KT 100V160 9999 OVC047 10/07 Q1019,0,3,0,10000,0,0,0,
2026-04-14 02:00:00,METAR LEBB 140200Z AUTO 12004KT 9999 BKN047 OVC050 09/07 Q1019,0,4,0,10000,0,0,0,
2026-04-14 01:30:00,METAR LEBB 140130Z AUTO 13003KT 9999 BKN050 OVC066 09/07 Q1019,0,3,0,10000,0,0,0,
2026-04-14 01:00:00,METAR LEBB 140100Z AUTO 12003KT 9999 OVC055 09/07 Q1019,0,3,0,10000,0,0,0,
2026-04-14 00:30:00,METAR LEBB 140030Z AUTO 12004KT 080V140 9999 BKN056 09/07 Q1020,0,4,0,10000,0,0,0,
2026-04-14 00:00:00,METAR LEBB 140000Z AUTO 13003KT 9999 OVC068 09/07 Q1020,0,3,0,10000,0,0,0,
2026-04-13 23:30:00,METAR LEBB 132330Z AUTO VRB01KT 9999 OVC070 08/07 Q1020,0,1,0,10000,0,0,0,
2026-04-13 23:00:00,METAR LEBB 132300Z AUTO 09003KT 060V120 9999 BKN066 08/07 Q1020,0,3,0,10000,0,0,0,
2026-04-13 22:30:00,METAR LEBB 132230Z AUTO 08004KT 9999 BKN069 08/07 Q1020,0,4,0,10000,0,0,0,
2026-04-13 22:00:00,METAR LEBB 132200Z AUTO 08004KT 9999 BKN070 09/07 Q1020,0,4,0,10000,0,0,0,
2026-04-13 21:30:00,METAR LEBB 132130Z 09003KT 020V130 9999 FEW035 08/06 Q1020 NOSIG,0,3,0,10000,0,0,0,
2026-04-13 21:00:00,METAR LEBB 132100Z 08004KT 030V120 9999 FEW035 09/07 Q1020 NOSIG,0,4,0,10000,0,0,0,
2026-04-13 20:30:00,METAR LEBB 132030Z 09004KT 050V130 9999 FEW035 10/07 Q1020 NOSIG,0,4,0,10000,0,0,0,
2026-04-13 20:00:00,METAR LEBB 132000Z 09003KT 040V160 9999 FEW035 10/07 Q1020 NOSIG,0,3,0,10000,0,0,0,
2026-04-13 19:30:00,METAR LEBB 131930Z VRB02KT 9999 FEW035 11/07 Q1019 NOSIG,0,2,0,10000,0,0,0,
2026-04-13 19:00:00,METAR LEBB 131900Z VRB02KT 9999 FEW035 13/07 Q1019 NOSIG,0,2,0,10000,0,0,0,
2026-04-13 18:30:00,METAR LEBB 131830Z 34004KT 300V010 9999 FEW035 13/07 Q1019 NOSIG,0,4,0,10000,0,0,0,
2026-04-13 18:00:00,METAR LEBB 131800Z 33004KT 280V040 9999 FEW035 13/07 Q1019 NOSIG,0,4,0,10000,0,0,0,
2026-04-13 17:30:00,METAR LEBB 131730Z 33006KT 290V010 9999 FEW033 14/07 Q1019 NOSIG,0,6,0,10000,0,0,0,
2026-04-13 17:00:00,METAR LEBB 131700Z 30007KT 9999 FEW030 14/07 Q1018 NOSIG,0,7,0,10000,0,0,0,
2026-04-13 16:30:00,METAR LEBB 131630Z 30009KT 260V330 9999 FEW028 14/06 Q1018 NOSIG,0,9,0,10000,0,0,0,
2026-04-13 16:00:00,METAR LEBB 131600Z 31009KT 270V350 9999 FEW028 SCT065 14/07 Q1018 NOSIG,0,9,0,10000,0,0,0,
2026-04-13 15:30:00,METAR LEBB 131530Z 31010KT 280V360 9999 FEW028 SCT065 15/09 Q1018 NOSIG,0,10,0,10000,0,0,0,
2026-04-13 15:00:00,METAR LEBB 131500Z 31012KT 270V340 9999 FEW030 SCT060 14/07 Q1018 NOSIG,0,12,0,10000,0,0,0,
2026-04-13 14:30:00,METAR LEBB 131430Z 31013KT 250V350 9999 FEW030 SCT055 14/08 Q1018 NOSIG,0,13,0,10000,0,0,0,
2026-04-13 14:00:00,METAR LEBB 131400Z 31011KT 260V340 9999 SCT028 BKN055 14/08 Q1018 NOSIG,0,11,0,10000,0,0,0,
2026-04-13 13:30:00,METAR LEBB 131330Z 29011KT 260V330 9999 SCT032 14/07 Q1018 NOSIG,0,11,0,10000,0,0,0,
2026-04-13 13:00:00,METAR LEBB 131300Z 30015KT 270V330 9999 SCT032 14/07 Q1018 NOSIG,0,15,0,10000,0,0,0,
2026-04-13 12:30:00,METAR LEBB 131230Z 30015KT 270V330 9999 SCT030 SCT050 14/09 Q1018 NOSIG,0,15,0,10000,0,0,0,
2026-04-13 12:00:00,METAR LEBB 131200Z 29013KT 260V330 9999 SCT029 SCT048 14/09 Q1018 NOSIG,0,13,0,10000,0,0,0,
2026-04-13 11:30:00,METAR LEBB 131130Z 30010KT 270V330 9999 SCT026 SCT037 BKN048 13/08 Q1018 TEMPO 3000 RA,0,10,0,10000,0,0,0,RA
2026-04-13 11:00:00,METAR LEBB 131100Z 30008KT 250V340 9999 FEW025 SCT039 BKN050 12/09 Q1018 TEMPO 3000 RA,0,8,0,10000,0,0,0,RA
2026-04-13 10:30:00,METAR LEBB 131030Z 28006KT 240V320 9999 -RA FEW019 SCT030 BKN045 11/09 Q1018 TEMPO 3000 RA,0,6,0,10000,0,0,0,"-RA,RA"
2026-04-13 10:00:00,METAR LEBB 131000Z 27008KT 240V310 9999 -RA FEW019 SCT030 BKN052 10/08 Q1018 TEMPO 3000 RA,0,8,0,10000,0,0,0,"-RA,RA"
2026-04-13 09:30:00,METAR LEBB 130930Z 27008KT 240V320 9999 FEW025 BKN040 BKN055 12/08 Q1018 TEMPO 3000 RA,0,8,0,10000,0,0,0,RA
2026-04-13 09:00:00,METAR LEBB 130900Z 29009KT 9999 FEW025 BKN040 BKN050 11/08 Q1018 TEMPO 3000 RA,0,9,0,10000,0,0,0,RA
2026-04-13 08:30:00,METAR LEBB 130830Z 28007KT 210V310 9999 FEW025 SCT040 BKN052 11/08 Q1018 TEMPO 3000 RA,0,7,0,10000,0,0,0,RA
2026-04-13 08:00:00,METAR LEBB 130800Z 27008KT 240V300 9999 SCT025 SCT037 BKN048 10/07 Q1018 TEMPO 3000 RA,0,8,0,10000,0,0,0,RA
2026-04-13 07:30:00,METAR LEBB 130730Z VRB01KT 9999 SCT023 SCT041 BKN050 10/08 Q1018 TEMPO 3000 RA,0,1,0,10000,0,0,0,RA
2026-04-13 07:00:00,METAR LEBB 130700Z VRB01KT 9999 SCT025 SCT041 BKN055 10/07 Q1017 TEMPO 3000 RA,0,1,0,10000,0,0,0,RA
2026-04-13 06:30:00,METAR LEBB 130630Z VRB02KT 9999 SCT029 BKN050 09/07 Q1017 TEMPO 3000 RA,0,2,0,10000,0,0,0,RA
2026-04-13 06:00:00,METAR LEBB 130600Z 25003KT 220V290 9999 SCT025 BKN034 BKN050 09/07 Q1017 TEMPO 3000 RA,0,3,0,10000,0,0,0,RA
2026-04-13 05:30:00,METAR LEBB 130530Z VRB01KT 9999 -RA FEW021 SCT035 BKN050 09/07 Q1017 TEMPO 3000 SHRA SCT030TCU,0,1,0,10000,0,0,0,"-RA,RA,SH"
2026-04-13 05:00:00,METAR LEBB 130500Z VRB02KT 9999 -RA FEW021 BKN040 09/07 Q1017 TEMPO 3000 SHRA SCT030TCU,0,2,0,10000,0,0,0,"-RA,RA,SH"
2026-04-13 04:30:00,METAR LEBB 130430Z VRB02KT 8000 RA SCT020 BKN032 BKN045 09/08 Q1017 TEMPO 3000 SHRA SCT030TCU,0,2,0,8000,0,0,0,"RA,SH"
2026-04-13 04:00:00,METAR LEBB 130400Z 29005KT 250V320 8000 -RA SCT018 BKN032 BKN050 09/08 Q1017 TEMPO 3000 SHRA SCT030TCU,0,5,0,8000,0,0,0,"-RA,RA,SH"
2026-04-13 03:30:00,METAR LEBB 130330Z VRB02KT 9999 -RA SCT022 BKN036 BKN055 09/07 Q1017 TEMPO 3000 SHRA SCT030TCU,0,2,0,10000,0,0,0,"-RA,RA,SH"
2026-04-13 03:00:00,METAR LEBB 130300Z VRB01KT 9999 -RA FEW022 BKN060 08/07 Q1017 TEMPO 3000 SHRA SCT030TCU,0,1,0,10000,0,0,0,"-RA,RA,SH"
2026-04-13 02:30:00,METAR LEBB 130230Z AUTO 00000KT 9999 3000NW -RA BKN050 BKN060 08/07 Q1017,0,0,0,10000,0,0,0,-RA
2026-04-13 02:00:00,METAR LEBB 130200Z AUTO VRB01KT 9999 SCT049 SCT057 BKN066 08/07 Q1017,0,1,0,10000,0,0,0,
2026-04-13 01:30:00,METAR LEBB 130130Z AUTO VRB01KT 9999 SCT032 SCT043 BKN056 09/07 Q1017 RERA,0,1,0,10000,0,0,0,RA
2026-04-13 01:00:00,METAR LEBB 130100Z AUTO 29003KT 240V330 3900 -RA BR BKN028 BKN042 BKN050 09/07 Q1017,0,3,0,3900,0,0,1,"-RA,BR"
2026-04-13 00:30:00,METAR LEBB 130030Z AUTO 27003KT 220V300 9999 SCT044 BKN060 09/07 Q1017 RERA,0,3,0,10000,0,0,0,RA
2026-04-13 00:00:00,METAR LEBB 130000Z AUTO VRB02KT 2800 RA BKN023 BKN029 09/08 Q1017,0,2,0,2800,0,0,0,RA
2026-04-12 23:30:00,METAR LEBB 122330Z AUTO 25003KT 200V290 6000 -RA SCT031 BKN040 OVC058 09/08 Q1017,0,3,0,6000,0,0,0,-RA
2026-04-12 23:00:00,METAR LEBB 122300Z AUTO 27007KT 230V300 9999 -RA SCT028 BKN036 BKN042 09/07 Q1017,0,7,0,10000,0,0,0,-RA
2026-04-12 22:30:00,METAR LEBB 122230Z AUTO 27005KT 220V320 9999 FEW038 BKN044 BKN050 09/07 Q1017,0,5,0,10000,0,0,0,
2026-04-12 22:00:00,METAR LEBB 122200Z AUTO 29007KT 250V320 8000 -RA SCT029 BKN037 BKN044 09/08 Q1017 RERA,0,7,0,8000,0,0,0,"-RA,RA"
2026-04-12 21:30:00,METAR LEBB 122130Z VRB05KT 6000 SHRA SCT016TCU BKN025 BKN041 09/08 Q1017 TEMPO 3000,0,5,0,6000,0,0,0,"RA,SH"
2026-04-12 21:11:00,SPECI LEBB 122111Z VRB02KT 6000 +SHRA SCT016TCU BKN025 09/08 Q1017 TEMPO 3000,0,2,0,6000,0,0,0,RA
2026-04-12 21:00:00,METAR LEBB 122100Z VRB02KT 9999 -RA FEW016TCU BKN027 09/08 Q1018 RESHRA TEMPO 3000 SHRA,0,2,0,10000,0,0,0,"-RA,RA,SH"
2026-04-12 20:45:00,SPECI LEBB 122045Z VRB01KT 6000 +SHRA SCT019TCU BKN027 09/08 Q1017 TEMPO 3000,0,1,0,6000,0,0,0,RA
2026-04-12 20:42:00,SPECI LEBB 122042Z VRB02KT 9999 -SHRA FEW017TCU BKN027 09/08 Q1017 RESHRA TEMPO 3000 SHRA,0,2,0,10000,0,0,0,"RA,SH"
2026-04-12 20:30:00,METAR LEBB 122030Z 27005KT 230V300 6000 SHRA SCT025TCU BKN042 09/08 Q1017 TEMPO 3000,0,5,0,6000,0,0,0,"RA,SH"
2026-04-12 20:00:00,METAR LEBB 122000Z 28008KT 240V300 6000 SHRA SCT025TCU BKN048 10/08 Q1017 TEMPO 3000,0,8,0,6000,0,0,0,"RA,SH"
2026-04-12 19:30:00,METAR LEBB 121930Z 28009KT 240V320 9999 -SHRA FEW018 SCT030TCU BKN045 10/08 Q1017 RESHRA TEMPO 3000 SHRA,0,9,0,10000,0,0,0,"RA,SH"
2026-04-12 19:20:00,SPECI LEBB 121920Z 29011KT 6000 SHRA FEW017 SCT030TCU BKN040 10/08 Q1017 TEMPO 3000,0,11,0,6000,0,0,0,"RA,SH"
2026-04-12 19:00:00,METAR LEBB 121900Z 34004KT 300V030 9999 SCT030 BKN050 11/08 Q1017 TEMPO 3000 SHRA SCT035TCU,0,4,0,10000,0,0,0,"RA,SH"
2026-04-12 18:30:00,METAR LEBB 121830Z 34004KT 310V030 9999 -RA SCT030 BKN046 11/08 Q1017 TEMPO 3000 SHRA SCT035TCU,0,4,0,10000,0,0,0,"-RA,RA,SH"
2026-04-12 18:00:00,METAR LEBB 121800Z 33007KT 300V020 9000 -RA SCT031 BKN045 11/07 Q1017 TEMPO 3000 SHRA SCT035TCU,0,7,0,9000,0,0,0,"-RA,RA,SH"
2026-04-12 17:30:00,METAR LEBB 121730Z 32007KT 9999 SCT040 13/05 Q1017 NOSIG,0,7,0,10000,0,0,0,
2026-04-12 17:00:00,METAR LEBB 121700Z 32009KT 290V030 9999 SCT038 SCT070 13/05 Q1017 NOSIG,0,9,0,10000,0,0,0,
2026-04-12 16:30:00,METAR LEBB 121630Z 30006KT 260V340 9999 SCT038 SCT070 13/05 Q1017 NOSIG,0,6,0,10000,0,0,0,
2026-04-12 16:00:00,METAR LEBB 121600Z 32007KT 280V360 9999 SCT042 SCT070 13/05 Q1017 NOSIG,0,7,0,10000,0,0,0,
2026-04-12 15:00:00,METAR LEBB 121500Z 31009KT 240V020 9999 FEW045 14/03 Q1017 NOSIG,0,9,0,10000,0,0,0,
2026-04-12 14:30:00,METAR LEBB 121430Z 31010KT 280V340 9999 FEW050 14/02 Q1017 NOSIG,0,10,0,10000,0,0,0,
2026-04-12 14:00:00,METAR LEBB 121400Z 34008KT 260V030 9999 FEW045 14/02 Q1017 NOSIG,0,8,0,10000,0,0,0,
2026-04-12 13:30:00,METAR LEBB 121330Z 34009KT 280V030 9999 FEW050 14/03 Q1017 NOSIG,0,9,0,10000,0,0,0,
2026-04-12 13:00:00,METAR LEBB 121300Z 32009KT 280V350 9999 FEW048 14/03 Q1017 NOSIG,0,9,0,10000,0,0,0,
2026-04-12 12:30:00,METAR LEBB 121230Z 30008KT 260V010 9999 SCT048 14/03 Q1017 NOSIG,0,8,0,10000,0,0,0,
2026-04-12 12:00:00,METAR LEBB 121200Z 31009KT 290V350 9999 SCT046 14/03 Q1018 NOSIG,0,9,0,10000,0,0,0,
2026-04-12 11:30:00,METAR LEBB 121130Z 31008KT 270V340 9999 SCT044 14/04 Q1018 NOSIG,0,8,0,10000,0,0,0,
2026-04-12 11:00:00,METAR LEBB 121100Z 31009KT 280V020 9999 SCT043 13/04 Q1018 NOSIG,0,9,0,10000,0,0,0,
2026-04-12 10:30:00,METAR LEBB 121030Z 30008KT 9999 FEW020 SCT039 13/05 Q1018 NOSIG,0,8,0,10000,0,0,0,
2026-04-12 10:00:00,METAR LEBB 121000Z 32007KT 9999 FEW020 SCT039 BKN050 13/06 Q1018 NOSIG,0,7,0,10000,0,0,0,
2026-04-12 09:30:00,METAR LEBB 120930Z 29003KT 230V340 9999 FEW020 SCT039 BKN055 12/05 Q1018 NOSIG,0,3,0,10000,0,0,0,
2026-04-12 09:00:00,METAR LEBB 120900Z VRB02KT 9999 FEW020 SCT046 11/09 Q1018 NOSIG,0,2,0,10000,0,0,0,
2026-04-12 08:30:00,METAR LEBB 120830Z 26001KT 9999 FEW020 BKN052 10/09 Q1018 NOSIG,0,1,0,10000,0,0,0,
2026-04-12 08:00:00,METAR LEBB 120800Z VRB01KT 9999 FEW012 OVC040 10/09 Q1018 NOSIG,0,1,0,10000,0,0,0,
2026-04-12 07:30:00,METAR LEBB 120730Z VRB01KT 9999 FEW012 OVC043 09/09 Q1018 NOSIG,0,1,0,10000,0,0,0,
2026-04-12 07:00:00,METAR LEBB 120700Z 00000KT 9999 FEW010 OVC042 09/08 Q1018 NOSIG,0,0,0,10000,0,0,0,
2026-04-12 06:30:00,METAR LEBB 120630Z 00000KT 9999 FEW009 BKN041 09/08 Q1018 NOSIG,0,0,0,10000,0,0,0,
2026-04-12 06:00:00,METAR LEBB 120600Z VRB02KT 9999 FEW008 SCT028 BKN040 09/08 Q1018 NOSIG,0,2,0,10000,0,0,0,
2026-04-12 05:30:00,METAR LEBB 120530Z VRB02KT 8000 -RA FEW008 SCT022 BKN039 09/08 Q1018 NOSIG,0,2,0,8000,0,0,0,-RA
2026-04-12 05:00:00,METAR LEBB 120500Z VRB02KT 9999 -RA FEW008 SCT035 BKN050 09/08 Q1018 NOSIG,0,2,0,10000,0,0,0,-RA
2026-04-12 04:30:00,METAR LEBB 120430Z VRB01KT 9999 SCT036 BKN050 10/08 Q1018 NOSIG,0,1,0,10000,0,0,0,
2026-04-12 04:00:00,METAR LEBB 120400Z VRB01KT 9999 SCT037 BKN050 10/08 Q1018 NOSIG,0,1,0,10000,0,0,0,
2026-04-12 03:30:00,METAR LEBB 120330Z VRB01KT 9999 SCT035 BKN050 10/08 Q1018 NOSIG,0,1,0,10000,0,0,0,
2026-04-12 03:00:00,METAR LEBB 120300Z VRB02KT 9999 SCT034 BKN050 10/08 Q1018 NOSIG,0,2,0,10000,0,0,0,
2026-04-12 02:30:00,METAR LEBB 120230Z AUTO VRB02KT 9999 BKN036 BKN044 OVC050 09/09 Q1019,0,2,0,10000,0,0,0,
2026-04-12 02:00:00,METAR LEBB 120200Z AUTO 30002KT 9999 OVC039 10/09 Q1019,0,2,0,10000,0,0,0,
2026-04-12 01:30:00,METAR LEBB 120130Z AUTO 00000KT 9999 OVC042 10/09 Q1019,0,0,0,10000,0,0,0,
2026-04-12 01:00:00,METAR LEBB 120100Z AUTO 00000KT 9999 BKN041 OVC047 10/09 Q1019,0,0,0,10000,0,0,0,
2026-04-12 00:30:00,METAR LEBB 120030Z AUTO VRB01KT 9999 BKN041 OVC048 10/09 Q1020,0,1,0,10000,0,0,0,
2026-04-12 00:00:00,METAR LEBB 120000Z AUTO 10003KT 9999 BKN044 OVC050 10/09 Q1020,0,3,0,10000,0,0,0,
2026-04-11 23:30:00,METAR LEBB 112330Z AUTO VRB01KT 9999 FEW045 BKN050 OVC070 10/09 Q1020,0,1,0,10000,0,0,0,
2026-04-11 23:00:00,METAR LEBB 112300Z AUTO 10003KT 9999 BKN048 BKN057 OVC070 10/09 Q1020,0,3,0,10000,0,0,0,
2026-04-11 22:30:00,METAR LEBB 112230Z AUTO VRB02KT 9999 BKN048 10/09 Q1021,0,2,0,10000,0,0,0,
2026-04-11 22:00:00,METAR LEBB 112200Z AUTO VRB01KT 9999 BKN048 OVC055 10/09 Q1021,0,1,0,10000,0,0,0,
2026-04-11 21:30:00,METAR LEBB 112130Z 00000KT 9999 FEW040 OVC050 10/09 Q1021 NOSIG,0,0,0,10000,0,0,0,
2026-04-11 21:00:00,METAR LEBB 112100Z VRB01KT 9999 FEW039 BKN055 OVC067 10/09 Q1021 NOSIG,0,1,0,10000,0,0,0,
2026-04-11 20:30:00,METAR LEBB 112030Z 08003KT 040V120 9999 FEW041 SCT057 OVC067 10/09 Q1021 NOSIG,0,3,0,10000,0,0,0,
2026-04-11 20:00:00,METAR LEBB 112000Z 11003KT 060V140 9999 FEW037 BKN043 OVC069 10/09 Q1021 NOSIG,0,3,0,10000,0,0,0,
2026-04-11 19:30:00,METAR LEBB 111930Z VRB02KT 9999 SCT045 BKN050 OVC070 10/08 Q1021 NOSIG,0,2,0,10000,0,0,0,
2026-04-11 19:00:00,METAR LEBB 111900Z 00000KT 9999 FEW042 OVC068 10/08 Q1021 NOSIG,0,0,0,10000,0,0,0,
2026-04-11 18:30:00,METAR LEBB 111830Z VRB01KT 9999 OVC067 11/08 Q1020 NOSIG,0,1,0,10000,0,0,0,
2026-04-11 18:00:00,METAR LEBB 111800Z VRB01KT 9999 OVC067 11/09 Q1020 NOSIG,0,1,0,10000,0,0,0,
2026-04-11 17:30:00,METAR LEBB 111730Z 16001KT 9999 FEW044 OVC060 11/09 Q1020 NOSIG,0,1,0,10000,0,0,0,
2026-04-11 17:00:00,METAR LEBB 111700Z VRB02KT 9999 BKN041 OVC057 11/09 Q1020 NOSIG,0,2,0,10000,0,0,0,
2026-04-11 16:30:00,METAR LEBB 111630Z VRB02KT 9999 -RA FEW024 BKN038 OVC050 11/09 Q1020 NOSIG,0,2,0,10000,0,0,0,-RA
2026-04-11 16:00:00,METAR LEBB 111600Z VRB01KT 9000 -RA FEW025 SCT033 OVC042 11/09 Q1020 NOSIG,0,1,0,9000,0,0,0,-RA
2026-04-11 15:30:00,METAR LEBB 111530Z 33006KT 290V030 4600 -RA SCT025 BKN030 OVC044 11/10 Q1020 TEMPO RA,0,6,0,4600,0,0,0,"-RA,RA"
2026-04-11 15:00:00,METAR LEBB 111500Z COR 30006KT 280V340 8000 -RA SCT019 BKN026 OVC034 11/09 Q1020 NOSIG,0,6,0,8000,0,0,0,-RA
2026-04-11 14:30:00,METAR LEBB 111430Z 31010KT 9999 FEW025 BKN030 OVC038 12/09 Q1020 NOSIG,0,10,0,10000,0,0,0,
2026-04-11 14:00:00,METAR LEBB 111400Z 31005KT 290V350 9999 -RA SCT025 OVC038 11/09 Q1020 NOSIG,0,5,0,10000,0,0,0,-RA
2026-04-11 13:30:00,METAR LEBB 111330Z 31007KT 280V350 9000 -RA BKN022 BKN029 OVC038 11/09 Q1020 TEMPO 3000 RA BKN010,0,7,0,9000,0,0,0,"-RA,RA"
2026-04-11 13:00:00,METAR LEBB 111300Z 32008KT 280V350 7000 SCT014 SCT021 OVC033 11/10 Q1020 TEMPO 3000 RA BKN010,0,8,0,7000,0,0,0,RA
2026-04-11 12:30:00,METAR LEBB 111230Z 31013KT 280V340 2000 -RA BKN008 OVC018 11/10 Q1020 TEMPO 3000 RA,0,13,0,2000,0,0,0,"-RA,RA"
2026-04-11 12:00:00,METAR LEBB 111200Z 31016KT 2500 -RA BKN007 12/11 Q1019 TEMPO 3000 RA,0,16,0,2500,0,0,0,"-RA,RA"
2026-04-11 11:45:00,SPECI LEBB 111145Z 30018G30KT 270V330 4200 -RA BKN005 OVC010 12/11 Q1019 RERA TEMPO RA,0,18,1,4200,0,0,0,"-RA,RA"
2026-04-11 11:36:00,SPECI LEBB 111136Z 30019KT 250V320 6000 -RA BKN005 OVC010 12/12 Q1018 RERA TEMPO 3000 RA,0,19,0,6000,0,0,0,"-RA,RA"
2026-04-11 11:30:00,METAR LEBB 111130Z 30016G26KT 250V320 4500 -RA BKN005 BKN010 12/12 Q1018 RERA TEMPO RA,0,16,1,4500,0,0,0,"-RA,RA"
2026-04-11 11:25:00,SPECI LEBB 111125Z 30016G26KT 270V340 3700 -RA BKN006 BKN011 12/12 Q1018 RERA TEMPO RA,0,16,1,3700,0,0,0,"-RA,RA"
2026-04-11 11:15:00,SPECI LEBB 111115Z 30017G28KT 1300 R30/1600D R12/1600D RA BKN006 BKN011 OVC018 12/12 Q1017 NOSIG,0,17,1,1300,0,0,0,RA
2026-04-11 11:00:00,METAR LEBB 111100Z 31016KT 2500 -RA SCT009 BKN019 13/12 Q1018 TEMPO 3000 RA BKN010,0,16,0,2500,0,0,0,"-RA,RA"
2026-04-11 10:55:00,SPECI LEBB 111055Z 30013KT 280V340 2700 -RA FEW008 BKN018 BKN024 14/12 Q1018 NOSIG,0,13,0,2700,0,0,0,-RA
2026-04-11 10:30:00,METAR LEBB 111030Z 30011KT 9999 BKN023 BKN035 OVC046 15/12 Q1017 NOSIG,0,11,0,10000,0,0,0,
2026-04-11 10:00:00,METAR LEBB 111000Z 30008KT 9999 BKN022 15/12 Q1017 NOSIG,0,8,0,10000,0,0,0,
2026-04-11 09:30:00,METAR LEBB 110930Z 31006KT 270V340 9999 BKN026 OVC050 15/12 Q1017 TEMPO RA,0,6,0,10000,0,0,0,RA
2026-04-11 09:00:00,METAR LEBB 110900Z 31009KT 9999 -RA BKN020 OVC025 14/12 Q1016 TEMPO RA,0,9,0,10000,0,0,0,"-RA,RA"
2026-04-11 08:30:00,METAR LEBB 110830Z 31012KT 260V330 9000 -RA FEW016 BKN024 OVC029 14/12 Q1016 TEMPO 3000 RA,0,12,0,9000,0,0,0,"-RA,RA"
2026-04-11 08:00:00,METAR LEBB 110800Z 29010KT 260V320 9999 FEW017 BKN023 OVC029 15/12 Q1016 TEMPO 3000 RA,0,10,0,10000,0,0,0,RA
2026-04-11 07:30:00,METAR LEBB 110730Z 30011KT 280V350 9999 SCT024 BKN035 OVC050 15/12 Q1015 TEMPO 3000 RA,0,11,0,10000,0,0,0,RA
2026-04-11 07:00:00,METAR LEBB 110700Z 31012KT 9999 SCT017 BKN022 OVC042 14/11 Q1015 TEMPO 3000 RA,0,12,0,10000,0,0,0,RA
2026-04-11 06:53:00,SPECI LEBB 110653Z 31011KT 9999 BKN017 BKN023 OVC038 14/11 Q1015 TEMPO 3000 RA,0,11,0,10000,0,0,0,RA
2026-04-11 06:30:00,METAR LEBB 110630Z 30012KT 9999 OVC016 14/12 Q1014 TEMPO 3000 RA,0,12,0,10000,0,0,0,RA
2026-04-11 06:00:00,METAR LEBB 110600Z 31012KT 9999 OVC014 14/12 Q1014 TEMPO 3000 RA,0,12,0,10000,0,0,0,RA
2026-04-11 05:30:00,METAR LEBB 110530Z 31011KT 280V340 9999 BKN009 OVC014 14/13 Q1013 NOSIG,0,11,0,10000,0,0,0,
2026-04-11 05:00:00,METAR LEBB 110500Z 31012KT 280V340 9999 BKN009 OVC013 14/13 Q1013 NOSIG,0,12,0,10000,0,0,0,
2026-04-11 04:30:00,METAR LEBB 110430Z 32011KT 280V350 9999 OVC007 14/13 Q1013 NOSIG,0,11,0,10000,0,0,0,
2026-04-11 04:00:00,METAR LEBB 110400Z 32009KT 280V350 9999 OVC007 15/13 Q1012 NOSIG,0,9,0,10000,0,0,0,
2026-04-11 03:30:00,METAR LEBB 110330Z 32005KT 290V020 9999 OVC007 15/14 Q1012 NOSIG,0,5,0,10000,0,0,0,
2026-04-11 03:00:00,METAR LEBB 110300Z 32007KT 290V350 9000 OVC006 15/14 Q1012 NOSIG,0,7,0,9000,0,0,0,
2026-04-11 02:30:00,METAR LEBB 110230Z AUTO 32008KT 290V350 9000 OVC006 15/14 Q1012,0,8,0,9000,0,0,0,
2026-04-11 02:00:00,METAR LEBB 110200Z AUTO 31008KT 280V350 8000 OVC005 15/14 Q1012,0,8,0,8000,0,0,0,
2026-04-11 01:30:00,METAR LEBB 110130Z AUTO 31007KT 280V340 8000 OVC006 15/14 Q1012,0,7,0,8000,0,0,0,
2026-04-11 01:00:00,METAR LEBB 110100Z AUTO 30004KT 240V350 8000 OVC005 15/14 Q1011,0,4,0,8000,0,0,0,
2026-04-11 00:30:00,METAR LEBB 110030Z AUTO 29005KT 7000 BKN005 15/14 Q1011,0,5,0,7000,0,0,0,
2026-04-11 00:00:00,METAR LEBB 110000Z AUTO 29005KT 7000 BKN005 15/14 Q1011,0,5,0,7000,0,0,0,
2026-04-10 23:30:00,METAR LEBB 102330Z AUTO 27007KT 230V300 9000 FEW005 14/14 Q1011,0,7,0,9000,0,0,0,
2026-04-10 23:00:00,METAR LEBB 102300Z AUTO 27004KT 9000 NCD 14/13 Q1011,0,4,0,9000,0,0,0,
2026-04-10 22:30:00,METAR LEBB 102230Z AUTO VRB01KT CAVOK 15/13 Q1010,1,0,0,9999,0,0,0,
2026-04-10 22:00:00,METAR LEBB 102200Z AUTO 27002KT 9000 NCD 14/13 Q1011,0,2,0,9000,0,0,0,
2026-04-10 21:30:00,METAR LEBB 102130Z 28002KT CAVOK 15/13 Q1011 NOSIG,1,0,0,9999,0,0,0,
2026-04-10 21:00:00,METAR LEBB 102100Z VRB02KT CAVOK 15/14 Q1011 NOSIG,1,0,0,9999,0,0,0,
2026-04-10 20:30:00,METAR LEBB 102030Z 25004KT 220V290 CAVOK 15/14 Q1011 NOSIG,1,0,0,9999,0,0,0,
2026-04-10 20:00:00,METAR LEBB 102000Z 28004KT 230V300 CAVOK 16/14 Q1010 NOSIG,1,0,0,9999,0,0,0,
2026-04-10 19:30:00,METAR LEBB 101930Z 08003KT 030V140 CAVOK 18/14 Q1010 NOSIG,1,0,0,9999,0,0,0,
2026-04-10 19:00:00,METAR LEBB 101900Z 00000KT CAVOK 20/14 Q1010 NOSIG,1,0,0,9999,0,0,0,
2026-04-10 18:30:00,METAR LEBB 101830Z VRB01KT CAVOK 20/14 Q1010 NOSIG,1,0,0,9999,0,0,0,
2026-04-10 18:00:00,METAR LEBB 101800Z 29003KT CAVOK 20/14 Q1010 NOSIG,1,0,0,9999,0,0,0,
2026-04-10 17:30:00,METAR LEBB 101730Z 29003KT 260V320 CAVOK 20/14 Q1010 NOSIG,1,0,0,9999,0,0,0,
2026-04-10 17:00:00,METAR LEBB 101700Z 27004KT 210V320 CAVOK 20/14 Q1010 NOSIG,1,0,0,9999,0,0,0,
2026-04-10 16:30:00,METAR LEBB 101630Z 28007KT 240V300 CAVOK 20/14 Q1011 NOSIG,1,0,0,9999,0,0,0,
2026-04-10 16:00:00,METAR LEBB 101600Z 27008KT 240V300 9999 FEW060 20/14 Q1011 NOSIG,0,8,0,10000,0,0,0,
2026-04-10 15:30:00,METAR LEBB 101530Z 27010KT 240V300 CAVOK 21/14 Q1012 NOSIG,1,0,0,9999,0,0,0,
2026-04-10 15:00:00,METAR LEBB 101500Z 27012KT CAVOK 22/15 Q1012 NOSIG,1,0,0,9999,0,0,0,
2026-04-10 14:30:00,METAR LEBB 101430Z 28010KT CAVOK 24/15 Q1012 NOSIG,1,0,0,9999,0,0,0,
2026-04-10 14:00:00,METAR LEBB 101400Z VRB03KT CAVOK 29/14 Q1012 NOSIG,1,0,0,9999,0,0,0,
2026-04-10 13:30:00,METAR LEBB 101330Z VRB02KT CAVOK 28/14 Q1013 NOSIG,1,0,0,9999,0,0,0,
2026-04-10 13:00:00,METAR LEBB 101300Z VRB03KT CAVOK 27/13 Q1013 NOSIG,1,0,0,9999,0,0,0,
2026-04-10 12:30:00,METAR LEBB 101230Z 12004KT 020V180 CAVOK 26/12 Q1014 NOSIG,1,0,0,9999,0,0,0,
2026-04-10 12:00:00,METAR LEBB 101200Z 10004KT 010V160 CAVOK 25/12 Q1015 NOSIG,1,0,0,9999,0,0,0,
2026-04-10 11:30:00,METAR LEBB 101130Z 09006G17KT 030V130 CAVOK 23/12 Q1015 NOSIG,1,0,0,9999,0,0,0,
2026-04-10 11:00:00,METAR LEBB 101100Z 10005KT 030V140 CAVOK 22/12 Q1016 NOSIG,1,0,0,9999,0,0,0,
2026-04-10 10:30:00,METAR LEBB 101030Z 12004KT 050V160 CAVOK 20/12 Q1017 NOSIG,1,0,0,9999,0,0,0,
2026-04-10 10:00:00,METAR LEBB 101000Z 12004KT 030V170 CAVOK 19/13 Q1018 NOSIG,1,0,0,9999,0,0,0,
2026-04-10 09:30:00,METAR LEBB 100930Z VRB03KT CAVOK 17/12 Q1019 NOSIG,1,0,0,9999,0,0,0,
2026-04-10 09:00:00,METAR LEBB 100900Z 10004KT 030V150 9999 FEW015 16/12 Q1019 NOSIG,0,4,0,10000,0,0,0,
2026-04-10 08:30:00,METAR LEBB 100830Z VRB03KT 9999 FEW015 16/11 Q1019 NOSIG,0,3,0,10000,0,0,0,
2026-04-10 08:00:00,METAR LEBB 100800Z 19003KT 140V240 9999 SCT015 14/11 Q1020 NOSIG,0,3,0,10000,0,0,0,
2026-04-10 07:30:00,METAR LEBB 100730Z 15004KT 080V200 9999 BKN015 14/11 Q1020 NOSIG,0,4,0,10000,0,0,0,
2026-04-10 07:00:00,METAR LEBB 100700Z VRB01KT 9000 BKN016 14/11 Q1020 NOSIG,0,1,0,9000,0,0,0,
2026-04-10 06:30:00,METAR LEBB 100630Z 17004KT 130V220 9000 BKN017 14/11 Q1021 NOSIG,0,4,0,9000,0,0,0,
2026-04-10 06:00:00,METAR LEBB 100600Z VRB02KT 9000 BKN017 14/12 Q1021 NOSIG,0,2,0,9000,0,0,0,
2026-04-10 05:30:00,METAR LEBB 100530Z 00000KT 9000 BKN017 14/11 Q1021 NOSIG,0,0,0,9000,0,0,0,
2026-04-10 05:00:00,METAR LEBB 100500Z 27001KT 9999 BKN016 14/11 Q1021 NOSIG,0,1,0,10000,0,0,0,
2026-04-10 04:30:00,METAR LEBB 100430Z 00000KT 9999 BKN017 14/12 Q1021 NOSIG,0,0,0,10000,0,0,0,
2026-04-10 04:00:00,METAR LEBB 100400Z 00000KT 9999 BKN017 14/12 Q1022 NOSIG,0,0,0,10000,0,0,0,
2026-04-10 03:30:00,METAR LEBB 100330Z 00000KT 9999 BKN017 14/12 Q1022 TEMPO BKN010,0,0,0,10000,0,0,0,
2026-04-10 03:00:00,METAR LEBB 100300Z 00000KT 9999 BKN016 13/12 Q1022 TEMPO BKN010,0,0,0,10000,0,0,0,
2026-04-10 02:30:00,METAR LEBB 100230Z AUTO VRB01KT 9999 OVC016 13/12 Q1023,0,1,0,10000,0,0,0,
2026-04-10 02:00:00,METAR LEBB 100200Z AUTO 34004KT 9999 BKN015 BKN020 13/12 Q1023,0,4,0,10000,0,0,0,
2026-04-10 01:30:00,METAR LEBB 100130Z AUTO VRB01KT 9999 SCT017 13/12 Q1023,0,1,0,10000,0,0,0,
2026-04-10 01:00:00,METAR LEBB 100100Z AUTO VRB01KT 9999 BKN018 14/12 Q1023,0,1,0,10000,0,0,0,
2026-04-10 00:30:00,METAR LEBB 100030Z AUTO VRB02KT 9999 OVC018 14/12 Q1023,0,2,0,10000,0,0,0,
2026-04-10 00:00:00,METAR LEBB 100000Z AUTO VRB02KT 9999 OVC016 14/12 Q1023,0,2,0,10000,0,0,0,
2026-04-09 23:30:00,METAR LEBB 092330Z AUTO VRB02KT 9999 SCT012 BKN017 14/12 Q1023,0,2,0,10000,0,0,0,
2026-04-09 23:00:00,METAR LEBB 092300Z AUTO 00000KT 9999 BKN014 14/12 Q1023,0,0,0,10000,0,0,0,
2026-04-09 22:30:00,METAR LEBB 092230Z AUTO VRB02KT 9999 BKN013 14/12 Q1024,0,2,0,10000,0,0,0,
2026-04-09 22:00:00,METAR LEBB 092200Z VRB01KT 9999 FEW011 SCT025 14/12 Q1023 NOSIG,0,1,0,10000,0,0,0,
2026-04-09 21:30:00,METAR LEBB 092130Z VRB02KT 9999 FEW025 14/12 Q1024 NOSIG,0,2,0,10000,0,0,0,
2026-04-09 21:00:00,METAR LEBB 092100Z 07003KT 010V140 9999 FEW025 13/12 Q1024 NOSIG,0,3,0,10000,0,0,0,
2026-04-09 20:30:00,METAR LEBB 092030Z 06003KT 350V130 9999 FEW025 14/12 Q1023 NOSIG,0,3,0,10000,0,0,0,
2026-04-09 20:00:00,METAR LEBB 092000Z 04004KT 320V070 9999 FEW025 15/12 Q1023 NOSIG,0,4,0,10000,0,0,0,
2026-04-09 19:30:00,METAR LEBB 091930Z 15002KT 9999 FEW025 15/12 Q1023 NOSIG,0,2,0,10000,0,0,0,
2026-04-09 19:00:00,METAR LEBB 091900Z VRB01KT 9999 FEW025 15/13 Q1023 NOSIG,0,1,0,10000,0,0,0,
2026-04-09 18:30:00,METAR LEBB 091830Z 30007KT 9999 FEW025 16/12 Q1023 NOSIG,0,7,0,10000,0,0,0,
2026-04-09 18:00:00,METAR LEBB 091800Z 32009KT 290V350 9999 FEW025 17/12 Q1023 NOSIG,0,9,0,10000,0,0,0,
2026-04-09 17:30:00,METAR LEBB 091730Z 30009KT 260V330 CAVOK 18/12 Q1022 NOSIG,1,0,0,9999,0,0,0,
2026-04-09 17:00:00,METAR LEBB 091700Z 30008KT CAVOK 18/12 Q1022 NOSIG,1,0,0,9999,0,0,0,
2026-04-09 16:30:00,METAR LEBB 091630Z 33009KT 290V010 9999 FEW028 19/11 Q1022 NOSIG,0,9,0,10000,0,0,0,
2026-04-09 16:00:00,METAR LEBB 091600Z 29008KT 260V320 9999 FEW028 20/11 Q1021 NOSIG,0,8,0,10000,0,0,0,
2026-04-09 15:30:00,METAR LEBB 091530Z 29010KT 260V320 9999 FEW028 20/12 Q1021 NOSIG,0,10,0,10000,0,0,0,
2026-04-09 15:00:00,METAR LEBB 091500Z 29011KT 250V320 9999 FEW028 19/13 Q1021 NOSIG,0,11,0,10000,0,0,0,
2026-04-09 14:30:00,METAR LEBB 091430Z 29013KT 240V320 9999 FEW030 20/14 Q1022 NOSIG,0,13,0,10000,0,0,0,
2026-04-09 14:00:00,METAR LEBB 091400Z 28010KT 250V310 9999 FEW030 20/14 Q1021 NOSIG,0,10,0,10000,0,0,0,
2026-04-09 13:30:00,METAR LEBB 091330Z 29013KT 9999 FEW030 20/14 Q1021 NOSIG,0,13,0,10000,0,0,0,
2026-04-09 13:00:00,METAR LEBB 091300Z 29012KT 260V340 9999 FEW030 21/13 Q1021 NOSIG,0,12,0,10000,0,0,0,
2026-04-09 12:30:00,METAR LEBB 091230Z 33011G21KT 290V010 9999 FEW030 24/13 Q1021 NOSIG,0,11,1,10000,0,0,0,
2026-04-09 12:00:00,METAR LEBB 091200Z 29004KT 240V020 9999 FEW030 23/13 Q1021 NOSIG,0,4,0,10000,0,0,0,
2026-04-09 11:30:00,METAR LEBB 091130Z 28005KT 230V320 9999 FEW030 23/12 Q1021 NOSIG,0,5,0,10000,0,0,0,
2026-04-09 11:00:00,METAR LEBB 091100Z 28005KT 210V330 9999 FEW030 23/13 Q1021 NOSIG,0,5,0,10000,0,0,0,
2026-04-09 10:30:00,METAR LEBB 091030Z 26003KT 200V320 9999 FEW030 22/13 Q1021 NOSIG,0,3,0,10000,0,0,0,
2026-04-09 10:00:00,METAR LEBB 091000Z 28003KT 210V330 9999 FEW030 21/13 Q1021 NOSIG,0,3,0,10000,0,0,0,
2026-04-09 09:30:00,METAR LEBB 090930Z VRB02KT 9999 FEW030 20/12 Q1022 NOSIG,0,2,0,10000,0,0,0,
2026-04-09 09:00:00,METAR LEBB 090900Z VRB02KT 9999 FEW030 19/13 Q1022 NOSIG,0,2,0,10000,0,0,0,
2026-04-09 08:30:00,METAR LEBB 090830Z 08003KT 020V140 9999 FEW030 17/13 Q1021 NOSIG,0,3,0,10000,0,0,0,
2026-04-09 08:00:00,METAR LEBB 090800Z VRB02KT 9999 FEW030 14/13 Q1021 NOSIG,0,2,0,10000,0,0,0,
2026-04-09 07:30:00,METAR LEBB 090730Z 07003KT 020V110 9999 FEW030 13/12 Q1021 NOSIG,0,3,0,10000,0,0,0,
2026-04-09 07:00:00,METAR LEBB 090700Z 09005KT 060V120 9999 FEW030 13/12 Q1021 NOSIG,0,5,0,10000,0,0,0,
2026-04-09 06:30:00,METAR LEBB 090630Z 09004KT 9999 FEW030 12/12 Q1021 NOSIG,0,4,0,10000,0,0,0,
2026-04-09 06:00:00,METAR LEBB 090600Z VRB02KT 9999 FEW030 11/10 Q1021 NOSIG,0,2,0,10000,0,0,0,
2026-04-09 05:30:00,METAR LEBB 090530Z VRB02KT 6000 FEW010 SCT030 11/11 Q1021 NOSIG,0,2,0,6000,0,0,0,
2026-04-09 05:00:00,METAR LEBB 090500Z 08003KT 6000 FEW010 SCT030 12/11 Q1020 NOSIG,0,3,0,6000,0,0,0,
2026-04-09 04:30:00,METAR LEBB 090430Z 09003KT 6000 SCT010 SCT030 12/11 Q1020 NOSIG,0,3,0,6000,0,0,0,
2026-04-09 04:00:00,METAR LEBB 090400Z 08004KT 060V120 4000 BR FEW003 SCT030 12/11 Q1020 NOSIG,0,4,0,4000,0,0,1,BR
2026-04-09 03:30:00,METAR LEBB 090330Z VRB02KT 4000 BR FEW003 SCT030 12/12 Q1020 NOSIG,0,2,0,4000,0,0,1,BR
2026-04-09 03:00:00,METAR LEBB 090300Z VRB02KT 3000 BR FEW003 SCT030 12/12 Q1020 NOSIG,0,2,0,3000,0,0,1,BR
2026-04-09 02:30:00,METAR LEBB 090230Z AUTO 08003KT 1400 0900 R30/1900N R12/P2000 BR BCFG VV003 13/12 Q1020,0,3,0,1400,0,0,1,"BC,BR,FG"
2026-04-09 02:00:00,METAR LEBB 090200Z AUTO 11002KT 7000 OVC003 13/13 Q1020,0,2,0,7000,0,0,0,
2026-04-09 01:30:00,METAR LEBB 090130Z AUTO 08003KT 9000 OVC004 14/13 Q1020,0,3,0,9000,0,0,0,
2026-04-09 01:00:00,METAR LEBB 090100Z AUTO 12003KT 9999 OVC005 14/13 Q1021,0,3,0,10000,0,0,0,
2026-04-09 00:30:00,METAR LEBB 090030Z AUTO 10003KT 050V130 9999 OVC005 14/14 Q1021,0,3,0,10000,0,0,0,
2026-04-09 00:00:00,METAR LEBB 090000Z AUTO VRB01KT 9999 BKN006 OVC010 14/14 Q1021,0,1,0,10000,0,0,0,
2026-04-08 23:30:00,METAR LEBB 082330Z AUTO VRB02KT 8000 FEW004 BKN009 14/13 Q1021,0,2,0,8000,0,0,0,
2026-04-08 23:00:00,METAR LEBB 082300Z AUTO 27002KT 9999 SCT005 SCT010 14/13 Q1021,0,2,0,10000,0,0,0,
2026-04-08 22:30:00,METAR LEBB 082230Z AUTO 28003KT 240V300 9000 SCT004 14/14 Q1021,0,3,0,9000,0,0,0,
2026-04-08 22:00:00,METAR LEBB 082200Z AUTO 28003KT 9999 SCT005 14/13 Q1021,0,3,0,10000,0,0,0,
2026-04-08 21:30:00,METAR LEBB 082130Z 27003KT 230V310 CAVOK 14/13 Q1020 NOSIG,1,0,0,9999,0,0,0,
2026-04-08 21:00:00,METAR LEBB 082100Z VRB01KT CAVOK 14/13 Q1020 NOSIG,1,0,0,9999,0,0,0,
2026-04-08 20:30:00,METAR LEBB 082030Z 25003KT 210V300 CAVOK 15/14 Q1020 NOSIG,1,0,0,9999,0,0,0,
2026-04-08 20:00:00,METAR LEBB 082000Z 27004KT CAVOK 15/14 Q1019 NOSIG,1,0,0,9999,0,0,0,
2026-04-08 19:30:00,METAR LEBB 081930Z 26004KT 220V300 CAVOK 15/14 Q1019 NOSIG,1,0,0,9999,0,0,0,
2026-04-08 19:00:00,METAR LEBB 081900Z 25004KT 200V290 CAVOK 16/14 Q1018 NOSIG,1,0,0,9999,0,0,0,
2026-04-08 18:30:00,METAR LEBB 081830Z 28004KT 240V320 CAVOK 17/14 Q1018 NOSIG,1,0,0,9999,0,0,0,
2026-04-08 18:00:00,METAR LEBB 081800Z 26005KT 200V290 CAVOK 18/14 Q1018 NOSIG,1,0,0,9999,0,0,0,
2026-04-08 17:30:00,METAR LEBB 081730Z 27005KT 220V310 CAVOK 19/14 Q1018 NOSIG,1,0,0,9999,0,0,0,
2026-04-08 17:00:00,METAR LEBB 081700Z 28007KT 250V330 CAVOK 20/14 Q1017 NOSIG,1,0,0,9999,0,0,0,
2026-04-08 16:30:00,METAR LEBB 081630Z 28007KT CAVOK 20/15 Q1017 NOSIG,1,0,0,9999,0,0,0,
2026-04-08 16:00:00,METAR LEBB 081600Z 28006KT 210V320 CAVOK 21/15 Q1017 NOSIG,1,0,0,9999,0,0,0,
2026-04-08 15:30:00,METAR LEBB 081530Z 28008KT CAVOK 20/14 Q1017 NOSIG,1,0,0,9999,0,0,0,
2026-04-08 15:00:00,METAR LEBB 081500Z 28007KT 250V310 CAVOK 21/14 Q1017 NOSIG,1,0,0,9999,0,0,0,
2026-04-08 14:30:00,METAR LEBB 081430Z 29007KT 250V320 CAVOK 22/14 Q1017 NOSIG,1,0,0,9999,0,0,0,
2026-04-08 14:00:00,METAR LEBB 081400Z 28008KT 240V310 CAVOK 22/14 Q1017 NOSIG,1,0,0,9999,0,0,0,
2026-04-08 13:30:00,METAR LEBB 081330Z 27008KT 230V300 CAVOK 22/14 Q1017 NOSIG,1,0,0,9999,0,0,0,
2026-04-08 13:00:00,METAR LEBB 081300Z 28010KT CAVOK 22/15 Q1017 NOSIG,1,0,0,9999,0,0,0,
2026-04-08 12:30:00,METAR LEBB 081230Z 27010KT 240V300 CAVOK 23/14 Q1018 NOSIG,1,0,0,9999,0,0,0,
2026-04-08 12:00:00,METAR LEBB 081200Z 27008KT 240V300 CAVOK 24/14 Q1017 NOSIG,1,0,0,9999,0,0,0,
2026-04-08 11:30:00,METAR LEBB 081130Z VRB04KT CAVOK 25/14 Q1018 NOSIG,1,0,0,9999,0,0,0,
2026-04-08 11:00:00,METAR LEBB 081100Z VRB05KT CAVOK 26/06 Q1018 NOSIG,1,0,0,9999,0,0,0,
2026-04-08 10:30:00,METAR LEBB 081030Z 08003KT 010V180 CAVOK 25/09 Q1018 NOSIG,1,0,0,9999,0,0,0,
2026-04-08 10:00:00,METAR LEBB 081000Z VRB01KT CAVOK 24/10 Q1018 NOSIG,1,0,0,9999,0,0,0,
2026-04-08 09:30:00,METAR LEBB 080930Z VRB01KT CAVOK 22/09 Q1019 NOSIG,1,0,0,9999,0,0,0,
2026-04-08 09:00:00,METAR LEBB 080900Z VRB01KT CAVOK 21/11 Q1018 NOSIG,1,0,0,9999,0,0,0,
2026-04-08 08:30:00,METAR LEBB 080830Z 11003KT 080V140 CAVOK 19/10 Q1019 NOSIG,1,0,0,9999,0,0,0,
2026-04-08 08:00:00,METAR LEBB 080800Z 11003KT 070V140 CAVOK 17/10 Q1019 NOSIG,1,0,0,9999,0,0,0,
2026-04-08 07:30:00,METAR LEBB 080730Z 10004KT 070V140 CAVOK 15/10 Q1019 NOSIG,1,0,0,9999,0,0,0,
2026-04-08 07:00:00,METAR LEBB 080700Z VRB02KT CAVOK 14/10 Q1019 NOSIG,1,0,0,9999,0,0,0,
2026-04-08 06:30:00,METAR LEBB 080630Z 09004KT 010V120 CAVOK 13/10 Q1019 NOSIG,1,0,0,9999,0,0,0,
2026-04-08 06:00:00,METAR LEBB 080600Z 09004KT 020V120 CAVOK 12/09 Q1018 NOSIG,1,0,0,9999,0,0,0,
2026-04-08 05:30:00,METAR LEBB 080530Z 07003KT CAVOK 13/10 Q1018 NOSIG,1,0,0,9999,0,0,0,
2026-04-08 05:00:00,METAR LEBB 080500Z 14003KT 120V180 CAVOK 12/10 Q1017 NOSIG,1,0,0,9999,0,0,0,
2026-04-08 04:30:00,METAR LEBB 080430Z 02003KT CAVOK 14/10 Q1017 NOSIG,1,0,0,9999,0,0,0,
2026-04-08 04:00:00,METAR LEBB 080400Z 09004KT CAVOK 13/09 Q1017 NOSIG,1,0,0,9999,0,0,0,
2026-04-08 03:30:00,METAR LEBB 080330Z VRB02KT CAVOK 15/11 Q1017 NOSIG,1,0,0,9999,0,0,0,
2026-04-08 03:00:00,METAR LEBB 080300Z 34003KT 280V020 CAVOK 15/11 Q1017 NOSIG,1,0,0,9999,0,0,0,
2026-04-08 02:30:00,METAR LEBB 080230Z AUTO 25003KT 210V300 CAVOK 16/11 Q1017,1,0,0,9999,0,0,0,
2026-04-08 02:00:00,METAR LEBB 080200Z AUTO 29003KT CAVOK 17/10 Q1017,1,0,0,9999,0,0,0,
2026-04-08 01:30:00,METAR LEBB 080130Z AUTO VRB01KT CAVOK 17/11 Q1017,1,0,0,9999,0,0,0,
2026-04-08 01:00:00,METAR LEBB 080100Z AUTO 08003KT 030V130 CAVOK 17/11 Q1017,1,0,0,9999,0,0,0,
2026-04-08 00:30:00,METAR LEBB 080030Z AUTO VRB01KT CAVOK 18/11 Q1017,1,0,0,9999,0,0,0,
2026-04-08 00:00:00,METAR LEBB 080000Z AUTO VRB02KT CAVOK 20/10 Q1017,1,0,0,9999,0,0,0,
2026-04-07 23:30:00,METAR LEBB 072330Z AUTO VRB01KT CAVOK 19/10 Q1016,1,0,0,9999,0,0,0,
2026-04-07 23:00:00,METAR LEBB 072300Z AUTO VRB03KT CAVOK 20/10 Q1016,1,0,0,9999,0,0,0,
2026-04-07 22:30:00,METAR LEBB 072230Z AUTO 13003KT 030V190 CAVOK 20/10 Q1016,1,0,0,9999,0,0,0,
2026-04-07 22:00:00,METAR LEBB 072200Z AUTO 10003KT 060V180 CAVOK 21/09 Q1016,1,0,0,9999,0,0,0,
2026-04-07 21:30:00,METAR LEBB 072130Z 12006KT 070V150 9999 FEW070 20/10 Q1016 NOSIG,0,6,0,10000,0,0,0,
2026-04-07 21:00:00,METAR LEBB 072100Z 07006KT 030V100 9999 FEW070 22/10 Q1016 NOSIG,0,6,0,10000,0,0,0,
2026-04-07 20:30:00,METAR LEBB 072030Z VRB02KT CAVOK 23/10 Q1015 NOSIG,1,0,0,9999,0,0,0,
2026-04-07 20:00:00,METAR LEBB 072000Z 08004KT CAVOK 23/09 Q1015 NOSIG,1,0,0,9999,0,0,0,
2026-04-07 19:30:00,METAR LEBB 071930Z 09005KT 060V130 CAVOK 22/10 Q1015 NOSIG,1,0,0,9999,0,0,0,
2026-04-07 19:00:00,METAR LEBB 071900Z 11005KT 080V140 CAVOK 24/09 Q1015 NOSIG,1,0,0,9999,0,0,0,
2026-04-07 18:30:00,METAR LEBB 071830Z 14005KT 070V210 CAVOK 25/08 Q1014 NOSIG,1,0,0,9999,0,0,0,
2026-04-07 18:00:00,METAR LEBB 071800Z 17009KT 120V210 CAVOK 26/08 Q1014 NOSIG,1,0,0,9999,0,0,0,
2026-04-07 17:30:00,METAR LEBB 071730Z 13009KT 100V170 CAVOK 26/07 Q1014 NOSIG,1,0,0,9999,0,0,0,
2026-04-07 17:00:00,METAR LEBB 071700Z 14008KT 100V170 CAVOK 27/09 Q1014 NOSIG,1,0,0,9999,0,0,0,
2026-04-07 16:30:00,METAR LEBB 071630Z 14008KT 110V200 CAVOK 27/08 Q1014 NOSIG,1,0,0,9999,0,0,0,
2026-04-07 16:00:00,METAR LEBB 071600Z 14008KT 110V190 CAVOK 28/08 Q1014 NOSIG,1,0,0,9999,0,0,0,
2026-04-07 15:30:00,METAR LEBB 071530Z 14006KT 080V210 CAVOK 27/09 Q1014 NOSIG,1,0,0,9999,0,0,0,
2026-04-07 15:00:00,METAR LEBB 071500Z 15007KT 100V200 CAVOK 26/09 Q1014 NOSIG,1,0,0,9999,0,0,0,
2026-04-07 14:30:00,METAR LEBB 071430Z VRB03KT CAVOK 25/09 Q1014 NOSIG,1,0,0,9999,0,0,0,
2026-04-07 14:00:00,METAR LEBB 071400Z 07005KT 030V100 CAVOK 25/08 Q1015 NOSIG,1,0,0,9999,0,0,0,
2026-04-07 13:30:00,METAR LEBB 071330Z 03004KT 310V080 CAVOK 24/08 Q1015 NOSIG,1,0,0,9999,0,0,0,
2026-04-07 13:00:00,METAR LEBB 071300Z VRB02KT CAVOK 24/08 Q1015 NOSIG,1,0,0,9999,0,0,0,
2026-04-07 12:30:00,METAR LEBB 071230Z 11004KT 070V140 CAVOK 24/08 Q1015 NOSIG,1,0,0,9999,0,0,0,
2026-04-07 12:00:00,METAR LEBB 071200Z 11007KT 050V150 CAVOK 24/08 Q1016 NOSIG,1,0,0,9999,0,0,0,
2026-04-07 11:30:00,METAR LEBB 071130Z VRB04KT CAVOK 23/07 Q1016 NOSIG,1,0,0,9999,0,0,0,
2026-04-07 11:00:00,METAR LEBB 071100Z VRB03KT CAVOK 22/07 Q1016 NOSIG,1,0,0,9999,0,0,0,
2026-04-07 10:30:00,METAR LEBB 071030Z 18007KT 120V250 CAVOK 22/07 Q1016 NOSIG,1,0,0,9999,0,0,0,
2026-04-07 10:00:00,METAR LEBB 071000Z VRB06KT CAVOK 21/06 Q1016 NOSIG,1,0,0,9999,0,0,0,
2026-04-07 09:30:00,METAR LEBB 070930Z 19007KT 130V230 CAVOK 21/07 Q1016 NOSIG,1,0,0,9999,0,0,0,
2026-04-07 09:00:00,METAR LEBB 070900Z 18006KT 100V250 CAVOK 21/06 Q1016 NOSIG,1,0,0,9999,0,0,0,
2026-04-07 08:30:00,METAR LEBB 070830Z VRB05KT CAVOK 20/05 Q1016 NOSIG,1,0,0,9999,0,0,0,
2026-04-07 08:00:00,METAR LEBB 070800Z 09006KT 030V140 CAVOK 20/05 Q1016 NOSIG,1,0,0,9999,0,0,0,
2026-04-07 07:30:00,METAR LEBB 070730Z VRB03KT CAVOK 20/05 Q1016 NOSIG,1,0,0,9999,0,0,0,
2026-04-07 07:00:00,METAR LEBB 070700Z 18006KT 090V240 CAVOK 19/04 Q1016 NOSIG,1,0,0,9999,0,0,0,
2026-04-07 06:30:00,METAR LEBB 070630Z 16009KT 130V220 CAVOK 20/04 Q1016 NOSIG,1,0,0,9999,0,0,0,
2026-04-07 06:00:00,METAR LEBB 070600Z 17006KT 140V240 CAVOK 20/03 Q1016 NOSIG,1,0,0,9999,0,0,0,
2026-04-07 05:30:00,METAR LEBB 070530Z 15009KT 120V190 CAVOK 20/03 Q1016 NOSIG,1,0,0,9999,0,0,0,
2026-04-07 05:00:00,METAR LEBB 070500Z 15010KT 110V200 CAVOK 20/02 Q1016 NOSIG,1,0,0,9999,0,0,0,
2026-04-07 04:30:00,METAR LEBB 070430Z 15010KT 120V190 CAVOK 20/02 Q1016 NOSIG,1,0,0,9999,0,0,0,
2026-04-07 04:00:00,METAR LEBB 070400Z 14012KT 110V170 CAVOK 20/01 Q1016 NOSIG,1,0,0,9999,0,0,0,
2026-04-07 03:30:00,METAR LEBB 070330Z 15008KT 110V190 CAVOK 21/02 Q1016 NOSIG,1,0,0,9999,0,0,0,
2026-04-07 03:00:00,METAR LEBB 070300Z 16010KT 120V200 CAVOK 21/01 Q1015 NOSIG,1,0,0,9999,0,0,0,
2026-04-07 02:30:00,METAR LEBB 070230Z AUTO 15011KT 110V200 CAVOK 21/01 Q1015,1,0,0,9999,0,0,0,
2026-04-07 02:00:00,METAR LEBB 070200Z AUTO 14012KT 100V200 CAVOK 21/02 Q1015,1,0,0,9999,0,0,0,
2026-04-07 01:30:00,METAR LEBB 070130Z AUTO 14013G24KT 080V200 CAVOK 22/02 Q1015,1,0,0,9999,0,0,0,
2026-04-07 01:00:00,METAR LEBB 070100Z AUTO 14018G28KT 110V170 CAVOK 22/02 Q1015,1,0,0,9999,0,0,0,
2026-04-07 00:30:00,METAR LEBB 070030Z AUTO 15015G27KT 100V190 CAVOK 23/02 Q1015,1,0,0,9999,0,0,0,
2026-04-07 00:00:00,METAR LEBB 070000Z AUTO 14015KT 110V190 CAVOK 24/01 Q1015,1,0,0,9999,0,0,0,
2026-04-06 23:30:00,METAR LEBB 062330Z AUTO 14015G26KT 120V180 CAVOK 24/02 Q1015,1,0,0,9999,0,0,0,
2026-04-06 23:00:00,METAR LEBB 062300Z AUTO 14013G23KT 080V200 CAVOK 24/02 Q1015,1,0,0,9999,0,0,0,
2026-04-06 22:30:00,METAR LEBB 062230Z AUTO VRB13G25KT CAVOK 24/02 Q1015,1,0,0,9999,0,0,0,
2026-04-06 22:00:00,METAR LEBB 062200Z 14009KT 100V200 CAVOK 25/03 Q1015 NOSIG,1,0,0,9999,0,0,0,
2026-04-06 21:30:00,METAR LEBB 062130Z 14010KT 100V170 CAVOK 25/04 Q1015 NOSIG,1,0,0,9999,0,0,0,
2026-04-06 21:00:00,METAR LEBB 062100Z 14010KT 110V170 CAVOK 25/05 Q1015 NOSIG,1,0,0,9999,0,0,0,
2026-04-06 20:30:00,METAR LEBB 062030Z 15011KT 120V190 CAVOK 25/06 Q1015 NOSIG,1,0,0,9999,0,0,0,
2026-04-06 20:00:00,METAR LEBB 062000Z 15010G21KT 120V180 CAVOK 25/06 Q1015 NOSIG,1,0,0,9999,0,0,0,
2026-04-06 19:30:00,METAR LEBB 061930Z 15013KT 110V190 CAVOK 26/07 Q1015 NOSIG,1,0,0,9999,0,0,0,
2026-04-06 19:00:00,METAR LEBB 061900Z 15011KT 100V200 CAVOK 27/06 Q1015 NOSIG,1,0,0,9999,0,0,0,
2026-04-06 18:30:00,METAR LEBB 061830Z 15010KT 120V190 CAVOK 27/08 Q1014 NOSIG,1,0,0,9999,0,0,0,
2026-04-06 18:00:00,METAR LEBB 061800Z 16007KT 120V220 CAVOK 28/08 Q1014 NOSIG,1,0,0,9999,0,0,0,
2026-04-06 17:30:00,METAR LEBB 061730Z 16008KT 110V210 CAVOK 29/08 Q1014 NOSIG,1,0,0,9999,0,0,0,
2026-04-06 17:00:00,METAR LEBB 061700Z 15008KT 110V200 CAVOK 30/08 Q1015 NOSIG,1,0,0,9999,0,0,0,
2026-04-06 16:30:00,METAR LEBB 061630Z 16009KT 110V210 9999 FEW040 30/08 Q1015 NOSIG,0,9,0,10000,0,0,0,
2026-04-06 16:00:00,METAR LEBB 061600Z 16012KT 110V210 9999 FEW040 30/08 Q1015 NOSIG,0,12,0,10000,0,0,0,
2026-04-06 15:30:00,METAR LEBB 061530Z 16011KT 120V230 9999 FEW040 31/10 Q1015 NOSIG,0,11,0,10000,0,0,0,
2026-04-06 15:00:00,METAR LEBB 061500Z 16009KT 090V230 9999 FEW040 31/09 Q1015 NOSIG,0,9,0,10000,0,0,0,
2026-04-06 14:30:00,METAR LEBB 061430Z 13008KT 060V170 9999 FEW040 31/09 Q1016 NOSIG,0,8,0,10000,0,0,0,
2026-04-06 14:00:00,METAR LEBB 061400Z 15011G23KT 110V240 CAVOK 31/09 Q1016 NOSIG,1,0,0,9999,0,0,0,
2026-04-06 13:30:00,METAR LEBB 061330Z 14011KT 100V190 CAVOK 30/09 Q1017 NOSIG,1,0,0,9999,0,0,0,
2026-04-06 13:00:00,METAR LEBB 061300Z 13013KT 080V200 CAVOK 30/09 Q1017 NOSIG,1,0,0,9999,0,0,0,
2026-04-06 12:30:00,METAR LEBB 061230Z 13012KT 070V170 CAVOK 29/10 Q1018 NOSIG,1,0,0,9999,0,0,0,
2026-04-06 12:00:00,METAR LEBB 061200Z 13011KT 090V170 CAVOK 29/10 Q1018 NOSIG,1,0,0,9999,0,0,0,
2026-04-06 11:30:00,METAR LEBB 061130Z 15008KT 070V240 CAVOK 28/11 Q1019 NOSIG,1,0,0,9999,0,0,0,
2026-04-06 11:00:00,METAR LEBB 061100Z 14007KT 100V190 CAVOK 27/11 Q1019 NOSIG,1,0,0,9999,0,0,0,
2026-04-06 10:30:00,METAR LEBB 061030Z 15006KT 100V270 CAVOK 26/10 Q1020 NOSIG,1,0,0,9999,0,0,0,
2026-04-06 10:00:00,METAR LEBB 061000Z 11004KT 060V170 CAVOK 25/11 Q1020 NOSIG,1,0,0,9999,0,0,0,
2026-04-06 09:30:00,METAR LEBB 060930Z 10007KT 060V150 CAVOK 24/10 Q1020 NOSIG,1,0,0,9999,0,0,0,
2026-04-06 09:00:00,METAR LEBB 060900Z 09008KT 040V150 CAVOK 23/10 Q1020 NOSIG,1,0,0,9999,0,0,0,
2026-04-06 08:30:00,METAR LEBB 060830Z 10007KT 060V140 CAVOK 22/11 Q1020 NOSIG,1,0,0,9999,0,0,0,
2026-04-06 08:00:00,METAR LEBB 060800Z 12007KT 080V150 CAVOK 19/13 Q1020 NOSIG,1,0,0,9999,0,0,0,
2026-04-06 07:30:00,METAR LEBB 060730Z 12007KT 080V150 CAVOK 15/11 Q1020 NOSIG,1,0,0,9999,0,0,0,
2026-04-06 07:00:00,METAR LEBB 060700Z 12009KT 080V150 CAVOK 13/11 Q1020 NOSIG,1,0,0,9999,0,0,0,
2026-04-06 06:30:00,METAR LEBB 060630Z 10004KT 060V140 9999 BCFG FEW028 11/10 Q1020 NOSIG,0,4,0,10000,0,0,1,"BC,FG"
2026-04-06 06:00:00,METAR LEBB 060600Z 06005G17KT 010V110 9999 BCFG FEW001 10/09 Q1020 TEMPO NSW,0,5,1,10000,0,0,1,"BC,FG"
2026-04-06 05:30:00,METAR LEBB 060530Z VRB02KT 9999 BCFG FEW002 10/09 Q1020 TEMPO 3000 BR,0,2,0,10000,0,0,1,"BC,BR,FG"
2026-04-06 05:00:00,METAR LEBB 060500Z 07005KT 330V140 CAVOK 10/09 Q1021 TEMPO 3000 BR,1,0,0,9999,0,0,0,
2026-04-06 04:30:00,METAR LEBB 060430Z 11006KT 080V150 CAVOK 10/09 Q1021 TEMPO 3000 BR,1,0,0,9999,0,0,0,
2026-04-06 04:00:00,METAR LEBB 060400Z 09004KT CAVOK 10/09 Q1021 TEMPO 3000 BR,1,0,0,9999,0,0,0,
2026-04-06 03:30:00,METAR LEBB 060330Z 09005KT CAVOK 10/09 Q1021 TEMPO 3000 BR,1,0,0,9999,0,0,0,
2026-04-06 03:00:00,METAR LEBB 060300Z 08003KT 9999 FEW010 10/09 Q1022 TEMPO 3000 BR,0,3,0,10000,0,0,1,BR
2026-04-06 02:30:00,METAR LEBB 060230Z AUTO 06003KT CAVOK 10/09 Q1022,1,0,0,9999,0,0,0,
2026-04-06 02:00:00,METAR LEBB 060200Z AUTO VRB02KT CAVOK 10/09 Q1022,1,0,0,9999,0,0,0,
2026-04-06 01:30:00,METAR LEBB 060130Z AUTO 08003KT CAVOK 10/10 Q1023,1,0,0,9999,0,0,0,
2026-04-06 01:00:00,METAR LEBB 060100Z AUTO 08003KT CAVOK 10/10 Q1023,1,0,0,9999,0,0,0,
2026-04-06 00:30:00,METAR LEBB 060030Z AUTO VRB01KT CAVOK 11/10 Q1023,1,0,0,9999,0,0,0,
2026-04-06 00:00:00,METAR LEBB 060000Z AUTO VRB02KT CAVOK 10/09 Q1024,1,0,0,9999,0,0,0,
2026-04-05 23:30:00,METAR LEBB 052330Z AUTO 12003KT 070V140 CAVOK 10/09 Q1024,1,0,0,9999,0,0,0,
2026-04-05 23:00:00,METAR LEBB 052300Z AUTO 08004KT CAVOK 11/10 Q1024,1,0,0,9999,0,0,0,
2026-04-05 22:30:00,METAR LEBB 052230Z AUTO 09002KT CAVOK 11/10 Q1024,1,0,0,9999,0,0,0,
2026-04-05 22:00:00,METAR LEBB 052200Z 05004KT CAVOK 12/10 Q1025 NOSIG,1,0,0,9999,0,0,0,
2026-04-05 21:30:00,METAR LEBB 052130Z VRB02KT CAVOK 12/10 Q1025 NOSIG,1,0,0,9999,0,0,0,
2026-04-05 21:00:00,METAR LEBB 052100Z VRB01KT 9999 FEW017 12/11 Q1025 NOSIG,0,1,0,10000,0,0,0,
2026-04-05 20:30:00,METAR LEBB 052030Z 28001KT 9999 BKN017 13/11 Q1025 NOSIG,0,1,0,10000,0,0,0,
2026-04-05 20:00:00,METAR LEBB 052000Z VRB02KT 9999 FEW017 13/11 Q1025 NOSIG,0,2,0,10000,0,0,0,
2026-04-05 19:30:00,METAR LEBB 051930Z 29005KT 9999 BKN018 13/11 Q1024 NOSIG,0,5,0,10000,0,0,0,
2026-04-05 19:00:00,METAR LEBB 051900Z 28006KT 9999 BKN019 14/11 Q1024 NOSIG,0,6,0,10000,0,0,0,
2026-04-05 18:30:00,METAR LEBB 051830Z 28006KT 9999 BKN019 14/11 Q1024 NOSIG,0,6,0,10000,0,0,0,
2026-04-05 18:00:00,METAR LEBB 051800Z 28006KT 9999 OVC021 15/11 Q1024 NOSIG,0,6,0,10000,0,0,0,
2026-04-05 17:30:00,METAR LEBB 051730Z 27007KT 220V300 9999 BKN022 15/11 Q1024 NOSIG,0,7,0,10000,0,0,0,
2026-04-05 17:00:00,METAR LEBB 051700Z 28010KT 240V310 9999 BKN022 16/11 Q1024 NOSIG,0,10,0,10000,0,0,0,
2026-04-05 16:30:00,METAR LEBB 051630Z 27008KT 220V310 9999 BKN022 17/12 Q1023 NOSIG,0,8,0,10000,0,0,0,
2026-04-05 16:00:00,METAR LEBB 051600Z 30006KT 240V340 9999 BKN022 17/12 Q1024 NOSIG,0,6,0,10000,0,0,0,
2026-04-05 15:30:00,METAR LEBB 051530Z 32007KT 250V020 9999 BKN023 17/12 Q1024 NOSIG,0,7,0,10000,0,0,0,
2026-04-05 15:00:00,METAR LEBB 051500Z 33007KT 280V360 9999 BKN023 18/12 Q1023 NOSIG,0,7,0,10000,0,0,0,
2026-04-05 13:00:00,METAR LEBB 051300Z 30005KT 260V010 9999 BKN022 18/13 Q1024 NOSIG,0,5,0,10000,0,0,0,
2026-04-05 12:30:00,METAR LEBB 051230Z 28005KT 210V340 9999 BKN022 18/12 Q1024 NOSIG,0,5,0,10000,0,0,0,
2026-04-05 12:00:00,METAR LEBB 051200Z 28004KT 230V350 9999 BKN022 17/12 Q1025 NOSIG,0,4,0,10000,0,0,0,
2026-04-05 11:30:00,METAR LEBB 051130Z 29006KT 260V340 9999 BKN021 17/12 Q1025 NOSIG,0,6,0,10000,0,0,0,
2026-04-05 11:00:00,METAR LEBB 051100Z 29006KT 230V350 9999 BKN021 16/12 Q1025 NOSIG,0,6,0,10000,0,0,0,
2026-04-05 10:30:00,METAR LEBB 051030Z 29006KT 250V340 9999 BKN020 16/12 Q1025 NOSIG,0,6,0,10000,0,0,0,
2026-04-05 10:00:00,METAR LEBB 051000Z 26006KT 220V300 9999 BKN020 16/12 Q1025 NOSIG,0,6,0,10000,0,0,0,
2026-04-05 09:30:00,METAR LEBB 050930Z VRB02KT 9999 BKN018 16/11 Q1025 NOSIG,0,2,0,10000,0,0,0,
2026-04-05 09:00:00,METAR LEBB 050900Z 27003KT 200V330 9999 SCT016 15/11 Q1025 NOSIG,0,3,0,10000,0,0,0,
2026-04-05 08:30:00,METAR LEBB 050830Z VRB01KT 9999 SCT013 14/11 Q1024 NOSIG,0,1,0,10000,0,0,0,
2026-04-05 08:00:00,METAR LEBB 050800Z VRB01KT 9999 BKN013 13/11 Q1024 NOSIG,0,1,0,10000,0,0,0,
2026-04-05 07:30:00,METAR LEBB 050730Z VRB02KT 9999 FEW013 12/10 Q1024 NOSIG,0,2,0,10000,0,0,0,
2026-04-05 07:00:00,METAR LEBB 050700Z 10003KT 030V140 CAVOK 11/09 Q1024 NOSIG,1,0,0,9999,0,0,0,
2026-04-05 06:30:00,METAR LEBB 050630Z 07003KT 020V100 CAVOK 10/09 Q1024 NOSIG,1,0,0,9999,0,0,0,
2026-04-05 06:00:00,METAR LEBB 050600Z 10004KT 060V140 9999 FEW012 09/08 Q1023 NOSIG,0,4,0,10000,0,0,0,
2026-04-05 05:30:00,METAR LEBB 050530Z 11003KT 060V150 9999 SCT013 10/09 Q1023 NOSIG,0,3,0,10000,0,0,0,
2026-04-05 05:20:00,SPECI LEBB 050520Z VRB02KT 9999 SCT013 10/09 Q1023 NOSIG,0,2,0,10000,0,0,0,
2026-04-05 05:00:00,METAR LEBB 050500Z VRB02KT 9999 BKN013 10/09 Q1023 NOSIG,0,2,0,10000,0,0,0,
2026-04-05 04:30:00,METAR LEBB 050430Z COR 10003KT 080V140 9999 OVC012 10/09 Q1023 NOSIG,0,3,0,10000,0,0,0,
2026-04-05 04:00:00,METAR LEBB 050400Z 11003KT 9999 FEW011 09/08 Q1023 NOSIG,0,3,0,10000,0,0,0,
2026-04-05 03:30:00,METAR LEBB 050330Z 10002KT 9999 FEW011 10/08 Q1023 NOSIG,0,2,0,10000,0,0,0,
2026-04-05 03:00:00,METAR LEBB 050300Z 10003KT CAVOK 10/08 Q1023 NOSIG,1,0,0,9999,0,0,0,
2026-04-05 02:30:00,METAR LEBB 050230Z AUTO 10004KT 070V140 CAVOK 10/07 Q1023,1,0,0,9999,0,0,0,
2026-04-05 02:00:00,METAR LEBB 050200Z AUTO 10003KT CAVOK 11/08 Q1024,1,0,0,9999,0,0,0,
2026-04-05 01:30:00,METAR LEBB 050130Z AUTO 10004KT 060V140 CAVOK 12/09 Q1024,1,0,0,9999,0,0,0,
2026-04-05 01:00:00,METAR LEBB 050100Z AUTO VRB01KT CAVOK 13/08 Q1024,1,0,0,9999,0,0,0,
2026-04-05 00:30:00,METAR LEBB 050030Z AUTO VRB02KT CAVOK 13/08 Q1023,1,0,0,9999,0,0,0,
2026-04-05 00:00:00,METAR LEBB 050000Z AUTO 30004KT 230V350 CAVOK 14/08 Q1023,1,0,0,9999,0,0,0,
2026-04-04 23:30:00,METAR LEBB 042330Z AUTO 34006KT 300V360 CAVOK 16/08 Q1023,1,0,0,9999,0,0,0,
2026-04-04 23:00:00,METAR LEBB 042300Z AUTO 33005KT 290V360 CAVOK 16/08 Q1023,1,0,0,9999,0,0,0,
2026-04-04 22:30:00,METAR LEBB 042230Z AUTO 30003KT 250V340 CAVOK 15/09 Q1023,1,0,0,9999,0,0,0,
2026-04-04 22:00:00,METAR LEBB 042200Z AUTO 31005KT 280V340 CAVOK 16/09 Q1022,1,0,0,9999,0,0,0,
2026-04-04 21:30:00,METAR LEBB 042130Z VRB02KT CAVOK 15/10 Q1022 NOSIG,1,0,0,9999,0,0,0,
2026-04-04 21:00:00,METAR LEBB 042100Z VRB02KT CAVOK 15/10 Q1021 NOSIG,1,0,0,9999,0,0,0,
2026-04-04 20:30:00,METAR LEBB 042030Z VRB01KT CAVOK 17/10 Q1021 NOSIG,1,0,0,9999,0,0,0,
2026-04-04 20:00:00,METAR LEBB 042000Z 00000KT CAVOK 16/11 Q1021 NOSIG,1,0,0,9999,0,0,0,
2026-04-04 19:30:00,METAR LEBB 041930Z 25003KT CAVOK 19/10 Q1020 NOSIG,1,0,0,9999,0,0,0,
2026-04-04 19:00:00,METAR LEBB 041900Z 28004KT CAVOK 21/10 Q1020 NOSIG,1,0,0,9999,0,0,0,
2026-04-04 18:30:00,METAR LEBB 041830Z 26004KT CAVOK 22/11 Q1019 NOSIG,1,0,0,9999,0,0,0,
2026-04-04 18:00:00,METAR LEBB 041800Z 28005KT CAVOK 23/11 Q1019 NOSIG,1,0,0,9999,0,0,0,
2026-04-04 17:30:00,METAR LEBB 041730Z 28006KT CAVOK 24/11 Q1019 NOSIG,1,0,0,9999,0,0,0,
2026-04-04 17:00:00,METAR LEBB 041700Z 28007KT CAVOK 25/11 Q1019 NOSIG,1,0,0,9999,0,0,0,
2026-04-04 16:30:00,METAR LEBB 041630Z 28007KT 240V310 CAVOK 26/11 Q1019 NOSIG,1,0,0,9999,0,0,0,
2026-04-04 16:00:00,METAR LEBB 041600Z 26008KT 200V300 CAVOK 27/12 Q1019 NOSIG,1,0,0,9999,0,0,0,
2026-04-04 15:30:00,METAR LEBB 041530Z 23006KT 120V290 CAVOK 28/13 Q1019 NOSIG,1,0,0,9999,0,0,0,
2026-04-04 15:00:00,METAR LEBB 041500Z 08004KT 350V150 CAVOK 30/07 Q1019 NOSIG,1,0,0,9999,0,0,0,
2026-04-04 14:30:00,METAR LEBB 041430Z 06003KT 340V120 CAVOK 30/08 Q1019 NOSIG,1,0,0,9999,0,0,0,
2026-04-04 14:00:00,METAR LEBB 041400Z VRB02KT CAVOK 29/09 Q1020 NOSIG,1,0,0,9999,0,0,0,
2026-04-04 13:30:00,METAR LEBB 041330Z 27003KT 200V010 CAVOK 29/09 Q1020 NOSIG,1,0,0,9999,0,0,0,
2026-04-04 13:00:00,METAR LEBB 041300Z VRB03KT CAVOK 28/10 Q1021 NOSIG,1,0,0,9999,0,0,0,
2026-04-04 12:30:00,METAR LEBB 041230Z VRB03KT CAVOK 27/10 Q1021 NOSIG,1,0,0,9999,0,0,0,
2026-04-04 12:00:00,METAR LEBB 041200Z VRB02KT CAVOK 26/10 Q1021 NOSIG,1,0,0,9999,0,0,0,
2026-04-04 11:30:00,METAR LEBB 041130Z 11004KT 050V180 CAVOK 26/10 Q1022 NOSIG,1,0,0,9999,0,0,0,
2026-04-04 11:00:00,METAR LEBB 041100Z 09005KT 060V140 CAVOK 24/10 Q1022 NOSIG,1,0,0,9999,0,0,0,
2026-04-04 10:30:00,METAR LEBB 041030Z 10005KT 050V140 CAVOK 23/10 Q1023 NOSIG,1,0,0,9999,0,0,0,
2026-04-04 10:00:00,METAR LEBB 041000Z 11005KT 080V140 CAVOK 21/09 Q1023 NOSIG,1,0,0,9999,0,0,0,
2026-04-04 09:30:00,METAR LEBB 040930Z VRB02KT CAVOK 19/08 Q1023 NOSIG,1,0,0,9999,0,0,0,
2026-04-04 09:00:00,METAR LEBB 040900Z VRB02KT CAVOK 17/08 Q1024 NOSIG,1,0,0,9999,0,0,0,
2026-04-04 08:30:00,METAR LEBB 040830Z VRB01KT CAVOK 15/06 Q1024 NOSIG,1,0,0,9999,0,0,0,
2026-04-04 08:00:00,METAR LEBB 040800Z 12004KT 070V160 CAVOK 14/06 Q1024 NOSIG,1,0,0,9999,0,0,0,
2026-04-04 07:30:00,METAR LEBB 040730Z 12005KT 040V150 CAVOK 12/06 Q1024 NOSIG,1,0,0,9999,0,0,0,
2026-04-04 07:00:00,METAR LEBB 040700Z 09003KT 010V150 CAVOK 10/05 Q1024 NOSIG,1,0,0,9999,0,0,0,
2026-04-04 06:30:00,METAR LEBB 040630Z VRB02KT CAVOK 09/05 Q1024 NOSIG,1,0,0,9999,0,0,0,
2026-04-04 06:00:00,METAR LEBB 040600Z VRB02KT CAVOK 07/04 Q1024 NOSIG,1,0,0,9999,0,0,0,
2026-04-04 05:30:00,METAR LEBB 040530Z 08003KT 040V150 CAVOK 08/04 Q1024 NOSIG,1,0,0,9999,0,0,0,
2026-04-04 05:00:00,METAR LEBB 040500Z 12004KT 080V150 CAVOK 08/04 Q1024 NOSIG,1,0,0,9999,0,0,0,
2026-04-04 04:30:00,METAR LEBB 040430Z 10004KT 070V140 CAVOK 07/04 Q1024 NOSIG,1,0,0,9999,0,0,0,
2026-04-04 04:00:00,METAR LEBB 040400Z 12005KT 070V190 CAVOK 07/05 Q1024 NOSIG,1,0,0,9999,0,0,0,
2026-04-04 03:30:00,METAR LEBB 040330Z VRB01KT CAVOK 08/05 Q1025 NOSIG,1,0,0,9999,0,0,0,
2026-04-04 03:00:00,METAR LEBB 040300Z COR VRB02KT CAVOK 07/06 Q1025 NOSIG,1,0,0,9999,0,0,0,
2026-04-04 02:30:00,METAR LEBB 040230Z AUTO VRB02KT CAVOK 08/06 Q1025,1,0,0,9999,0,0,0,
2026-04-04 02:00:00,METAR LEBB 040200Z AUTO VRB01KT CAVOK 08/07 Q1025,1,0,0,9999,0,0,0,
2026-04-04 01:30:00,METAR LEBB 040130Z AUTO 11003KT 060V150 CAVOK 08/07 Q1026,1,0,0,9999,0,0,0,
2026-04-04 01:00:00,METAR LEBB 040100Z AUTO VRB02KT CAVOK 09/08 Q1026,1,0,0,9999,0,0,0,
2026-04-04 00:30:00,METAR LEBB 040030Z AUTO VRB01KT CAVOK 08/08 Q1026,1,0,0,9999,0,0,0,
2026-04-04 00:00:00,METAR LEBB 040000Z AUTO 08003KT 050V120 CAVOK 09/08 Q1026,1,0,0,9999,0,0,0,
2026-04-03 23:30:00,METAR LEBB 032330Z AUTO VRB02KT CAVOK 09/08 Q1027,1,0,0,9999,0,0,0,
2026-04-03 23:00:00,METAR LEBB 032300Z AUTO VRB02KT CAVOK 09/09 Q1027,1,0,0,9999,0,0,0,
2026-04-03 22:30:00,METAR LEBB 032230Z AUTO 08004KT CAVOK 09/09 Q1027,1,0,0,9999,0,0,0,
2026-04-03 22:00:00,METAR LEBB 032200Z AUTO 09004KT CAVOK 09/08 Q1027,1,0,0,9999,0,0,0,
2026-04-03 21:30:00,METAR LEBB 032130Z 10004KT 070V130 9999 FEW035 10/09 Q1027 NOSIG,0,4,0,10000,0,0,0,
2026-04-03 21:00:00,METAR LEBB 032100Z VRB02KT 9999 FEW035 10/09 Q1027 NOSIG,0,2,0,10000,0,0,0,
2026-04-03 20:30:00,METAR LEBB 032030Z VRB01KT 9999 FEW035 11/10 Q1027 NOSIG,0,1,0,10000,0,0,0,
2026-04-03 20:00:00,METAR LEBB 032000Z 00000KT 9999 FEW035 11/09 Q1027 NOSIG,0,0,0,10000,0,0,0,
2026-04-03 19:30:00,METAR LEBB 031930Z VRB01KT 9999 FEW035 11/10 Q1027 NOSIG,0,1,0,10000,0,0,0,
2026-04-03 19:00:00,METAR LEBB 031900Z 27003KT 9999 FEW035 12/10 Q1026 NOSIG,0,3,0,10000,0,0,0,
2026-04-03 18:30:00,METAR LEBB 031830Z 28004KT 9999 FEW035 13/10 Q1026 NOSIG,0,4,0,10000,0,0,0,
2026-04-03 18:00:00,METAR LEBB 031800Z 28007KT 240V300 9999 FEW035 14/10 Q1026 NOSIG,0,7,0,10000,0,0,0,
2026-04-03 17:30:00,METAR LEBB 031730Z 28006KT 9999 FEW035 15/11 Q1026 NOSIG,0,6,0,10000,0,0,0,
2026-04-03 17:00:00,METAR LEBB 031700Z 27005KT 230V310 9999 FEW035 16/11 Q1026 NOSIG,0,5,0,10000,0,0,0,
2026-04-03 16:30:00,METAR LEBB 031630Z 29004KT 230V320 9999 FEW035 16/11 Q1026 NOSIG,0,4,0,10000,0,0,0,
2026-04-03 16:00:00,METAR LEBB 031600Z 27004KT 210V300 9999 FEW030 SCT065 16/11 Q1026 NOSIG,0,4,0,10000,0,0,0,
2026-04-03 15:30:00,METAR LEBB 031530Z 27004KT 230V300 9999 FEW030 BKN067 16/11 Q1026 NOSIG,0,4,0,10000,0,0,0,
2026-04-03 15:00:00,METAR LEBB 031500Z 27005KT 220V300 9999 FEW030 BKN066 16/11 Q1026 NOSIG,0,5,0,10000,0,0,0,
2026-04-03 14:30:00,METAR LEBB 031430Z 29005KT 240V340 9999 FEW030 BKN067 16/11 Q1026 NOSIG,0,5,0,10000,0,0,0,
2026-04-03 14:00:00,METAR LEBB 031400Z 28004KT 230V320 9999 FEW030 BKN070 16/10 Q1026 NOSIG,0,4,0,10000,0,0,0,
2026-04-03 13:30:00,METAR LEBB 031330Z VRB03KT 9999 FEW030 BKN070 16/10 Q1026 NOSIG,0,3,0,10000,0,0,0,
2026-04-03 13:00:00,METAR LEBB 031300Z 28004KT 210V320 9999 FEW030 SCT070 15/09 Q1027 NOSIG,0,4,0,10000,0,0,0,
2026-04-03 12:30:00,METAR LEBB 031230Z 30004KT 240V030 9999 SCT030 15/08 Q1027 NOSIG,0,4,0,10000,0,0,0,
2026-04-03 12:00:00,METAR LEBB 031200Z 28005KT 200V350 9999 SCT030 16/09 Q1027 NOSIG,0,5,0,10000,0,0,0,
2026-04-03 11:30:00,METAR LEBB 031130Z 27003KT 190V350 9999 SCT031 16/09 Q1027 NOSIG,0,3,0,10000,0,0,0,
2026-04-03 11:00:00,METAR LEBB 031100Z 30005KT 250V010 9999 FEW025 SCT037 15/07 Q1027 NOSIG,0,5,0,10000,0,0,0,
2026-04-03 10:30:00,METAR LEBB 031030Z 30005KT 240V360 9999 FEW025 SCT038 15/09 Q1027 NOSIG,0,5,0,10000,0,0,0,
2026-04-03 10:00:00,METAR LEBB 031000Z 32006KT 280V350 9999 FEW024 SCT035 14/08 Q1027 NOSIG,0,6,0,10000,0,0,0,
2026-04-03 09:30:00,METAR LEBB 030930Z 29004KT 160V330 9999 FEW025 SCT040 14/08 Q1027 NOSIG,0,4,0,10000,0,0,0,
2026-04-03 09:00:00,METAR LEBB 030900Z 26004KT 200V320 9999 FEW030 SCT040 13/09 Q1027 NOSIG,0,4,0,10000,0,0,0,
2026-04-03 08:30:00,METAR LEBB 030830Z VRB01KT 9999 FEW043 13/09 Q1027 NOSIG,0,1,0,10000,0,0,0,
2026-04-03 08:00:00,METAR LEBB 030800Z VRB01KT 9999 FEW043 11/09 Q1027 NOSIG,0,1,0,10000,0,0,0,
2026-04-03 07:30:00,METAR LEBB 030730Z VRB02KT 9999 FEW043 10/09 Q1026 NOSIG,0,2,0,10000,0,0,0,
2026-04-03 07:00:00,METAR LEBB 030700Z 09003KT 030V120 9999 FEW025 SCT043 09/09 Q1026 NOSIG,0,3,0,10000,0,0,0,
2026-04-03 06:30:00,METAR LEBB 030630Z 10003KT 070V140 9999 FEW025 BKN042 09/08 Q1026 NOSIG,0,3,0,10000,0,0,0,
2026-04-03 06:00:00,METAR LEBB 030600Z 07003KT 030V110 9999 FEW025 BKN042 08/08 Q1026 NOSIG,0,3,0,10000,0,0,0,
2026-04-03 05:30:00,METAR LEBB 030530Z VRB02KT 9999 FEW025 BKN043 08/07 Q1026 NOSIG,0,2,0,10000,0,0,0,
2026-04-03 05:00:00,METAR LEBB 030500Z VRB02KT 9999 BKN044 08/07 Q1026 NOSIG,0,2,0,10000,0,0,0,
2026-04-03 04:30:00,METAR LEBB 030430Z 09002KT 9999 BKN045 08/08 Q1025 NOSIG,0,2,0,10000,0,0,0,
2026-04-03 04:00:00,METAR LEBB 030400Z VRB02KT 9999 BKN045 09/08 Q1025 NOSIG,0,2,0,10000,0,0,0,
2026-04-03 03:30:00,METAR LEBB 030330Z 10003KT 080V140 9999 SCT045 08/07 Q1025 NOSIG,0,3,0,10000,0,0,0,
2026-04-03 03:00:00,METAR LEBB 030300Z 08003KT 060V120 9999 SCT049 10/07 Q1025 NOSIG,0,3,0,10000,0,0,0,
2026-04-03 02:30:00,METAR LEBB 030230Z AUTO VRB01KT 9999 OVC048 10/08 Q1025,0,1,0,10000,0,0,0,
2026-04-03 02:00:00,METAR LEBB 030200Z AUTO 26003KT 210V310 9999 OVC048 10/08 Q1025,0,3,0,10000,0,0,0,
2026-04-03 01:30:00,METAR LEBB 030130Z AUTO 27002KT 9999 OVC049 11/08 Q1026,0,2,0,10000,0,0,0,
2026-04-03 01:00:00,METAR LEBB 030100Z AUTO 26003KT 230V290 9999 FEW023 BKN049 11/08 Q1026,0,3,0,10000,0,0,0,
2026-04-03 00:30:00,METAR LEBB 030030Z AUTO 27003KT 240V300 9999 SCT024 OVC046 11/08 Q1026,0,3,0,10000,0,0,0,
2026-04-03 00:00:00,METAR LEBB 030000Z AUTO 29005KT 260V320 9999 SCT025 OVC045 12/08 Q1026,0,5,0,10000,0,0,0,
2026-04-02 23:30:00,METAR LEBB 022330Z AUTO 29004KT 9999 SCT027 OVC042 11/08 Q1026,0,4,0,10000,0,0,0,
2026-04-02 23:00:00,METAR LEBB 022300Z AUTO 30005KT 260V320 9999 BKN041 OVC050 11/08 Q1026,0,5,0,10000,0,0,0,
2026-04-02 22:30:00,METAR LEBB 022230Z AUTO 30005KT 9999 SCT026 BKN035 OVC042 12/08 Q1026,0,5,0,10000,0,0,0,
2026-04-02 22:00:00,METAR LEBB 022200Z AUTO 31005KT 9999 FEW027 BKN036 12/08 Q1026,0,5,0,10000,0,0,0,
2026-04-02 21:30:00,METAR LEBB 022130Z 31007KT 280V340 9999 FEW025 BKN038 12/08 Q1026 NOSIG,0,7,0,10000,0,0,0,
2026-04-02 21:00:00,METAR LEBB 022100Z 30009KT 9999 FEW022 SCT034 BKN046 12/08 Q1026 NOSIG,0,9,0,10000,0,0,0,
2026-04-02 20:30:00,METAR LEBB 022030Z 30009KT 280V340 9999 FEW022 SCT035 BKN047 12/08 Q1026 NOSIG,0,9,0,10000,0,0,0,
2026-04-02 20:00:00,METAR LEBB 022000Z 31007KT 9999 SCT022 BKN045 12/09 Q1026 NOSIG,0,7,0,10000,0,0,0,
2026-04-02 19:30:00,METAR LEBB 021930Z 31006KT 290V360 9999 SCT027 BKN046 12/09 Q1026 NOSIG,0,6,0,10000,0,0,0,
2026-04-02 19:00:00,METAR LEBB 021900Z 31005KT 9999 SCT019 BKN045 12/10 Q1025 NOSIG,0,5,0,10000,0,0,0,
2026-04-02 18:30:00,METAR LEBB 021830Z 30004KT 270V330 9999 SCT011 BKN022 OVC040 12/11 Q1025 NOSIG,0,4,0,10000,0,0,0,
2026-04-02 18:00:00,METAR LEBB 021800Z 30007KT 280V340 9999 -RA SCT009 BKN033 11/10 Q1025 NOSIG,0,7,0,10000,0,0,0,-RA
2026-04-02 17:30:00,METAR LEBB 021730Z 32007KT 290V350 4500 -RA BR BKN010 OVC028 11/10 Q1025 TEMPO 6000 NSW,0,7,0,4500,0,0,1,"-RA,BR"
2026-04-02 17:17:00,SPECI LEBB 021717Z 32010KT 290V350 3500 -RA BR BKN011 OVC023 11/10 Q1025 TEMPO 6000 NSW,0,10,0,3500,0,0,1,"-RA,BR"
2026-04-02 17:00:00,METAR LEBB 021700Z 32009KT 280V350 7000 BKN012 OVC023 12/10 Q1025 NOSIG,0,9,0,7000,0,0,0,
2026-04-02 16:30:00,METAR LEBB 021630Z 31012KT 280V010 7000 2500NW -RA SCT011 BKN018 OVC040 12/11 Q1025 NOSIG,0,12,0,7000,0,0,0,-RA
2026-04-02 16:00:00,METAR LEBB 021600Z 31011G21KT 280V350 9999 SCT018 SCT034 BKN046 13/10 Q1025 NOSIG,0,11,1,10000,0,0,0,
2026-04-02 15:30:00,METAR LEBB 021530Z 31014G25KT 280V340 9000 -RA SCT019 SCT038 BKN049 13/10 Q1025 NOSIG,0,14,1,9000,0,0,0,-RA
2026-04-02 15:00:00,METAR LEBB 021500Z 30017KT 9999 SCT019 SCT038 BKN070 14/10 Q1025 NOSIG,0,17,0,10000,0,0,0,
2026-04-02 14:30:00,METAR LEBB 021430Z 29014KT 9999 SCT018 SCT035 BKN050 13/11 Q1025 NOSIG,0,14,0,10000,0,0,0,
2026-04-02 14:00:00,METAR LEBB 021400Z 29011KT 9999 SCT018 BKN033 13/10 Q1025 NOSIG,0,11,0,10000,0,0,0,
2026-04-02 13:30:00,METAR LEBB 021330Z 29006KT 240V330 9999 SCT012 BKN028 13/11 Q1025 NOSIG,0,6,0,10000,0,0,0,
2026-04-02 13:00:00,METAR LEBB 021300Z 28006KT 240V320 9999 SCT009 BKN025 BKN060 12/11 Q1026 NOSIG,0,6,0,10000,0,0,0,
2026-04-02 12:30:00,METAR LEBB 021230Z 29008KT 250V330 4000 -RA BR FEW008 BKN016 BKN029 11/10 Q1026 NOSIG,0,8,0,4000,0,0,1,"-RA,BR"
2026-04-02 12:00:00,METAR LEBB 021200Z 31009KT 280V340 6000 -RA FEW011 SCT023 BKN040 12/10 Q1026 TEMPO 3000 RA,0,9,0,6000,0,0,0,"-RA,RA"
2026-04-02 11:30:00,METAR LEBB 021130Z 31010KT 280V340 9999 FEW011 BKN038 BKN060 12/10 Q1026 TEMPO 3000 RA,0,10,0,10000,0,0,0,RA
2026-04-02 11:00:00,METAR LEBB 021100Z 30014KT 9999 FEW015 BKN050 12/10 Q1026 TEMPO 3000 RA,0,14,0,10000,0,0,0,RA
2026-04-02 10:30:00,METAR LEBB 021030Z 31008KT 2500 -RA SCT011 BKN021 BKN030 11/10 Q1026 RERA TEMPO RA,0,8,0,2500,0,0,0,"-RA,RA"
2026-04-02 10:27:00,SPECI LEBB 021027Z 31009KT 270V340 2200 RA SCT014 BKN024 BKN031 12/10 Q1026 NOSIG,0,9,0,2200,0,0,0,RA
2026-04-02 10:00:00,METAR LEBB 021000Z 33008KT 300V010 9999 FEW013 SCT026 BKN048 11/09 Q1026 TEMPO 3000 RA,0,8,0,10000,0,0,0,RA
2026-04-02 09:30:00,METAR LEBB 020930Z 30008KT 250V320 4500 -RA SCT012 BKN021 BKN036 11/09 Q1025 TEMPO RA,0,8,0,4500,0,0,0,"-RA,RA"
2026-04-02 09:00:00,METAR LEBB 020900Z 33010KT 300V020 8000 -RA FEW011 SCT022 BKN045 11/09 Q1025 TEMPO 3000 RA,0,10,0,8000,0,0,0,"-RA,RA"
2026-04-02 08:43:00,SPECI LEBB 020843Z 33010KT 300V020 3000 -RA BR SCT011 BKN018 BKN034 11/10 Q1025 TEMPO RA,0,10,0,3000,0,0,1,"-RA,BR,RA"
2026-04-02 08:30:00,METAR LEBB 020830Z 34008KT 310V020 6000 -RA SCT014 BKN026 BKN043 11/10 Q1024 TEMPO 3000 RA,0,8,0,6000,0,0,0,"-RA,RA"
2026-04-02 08:00:00,METAR LEBB 020800Z 33007KT 290V010 3500 -RA BR FEW008 BKN012 BKN021 11/10 Q1024 TEMPO RA,0,7,0,3500,0,0,1,"-RA,BR,RA"
2026-04-02 07:30:00,METAR LEBB 020730Z 30010KT 3500 -RA FEW008 BKN010 BKN018 11/10 Q1024 RERA TEMPO RA,0,10,0,3500,0,0,0,"-RA,RA"
2026-04-02 07:07:00,SPECI LEBB 020707Z 27006KT 230V300 4000 RA FEW008 BKN010 BKN025 11/10 Q1023 NOSIG,0,6,0,4000,0,0,0,RA
2026-04-02 07:00:00,METAR LEBB 020700Z 27004KT 230V320 9999 FEW008 BKN014 BKN025 11/10 Q1023 TEMPO 3000 RA,0,4,0,10000,0,0,0,RA
2026-04-02 06:30:00,METAR LEBB 020630Z VRB02KT 3000 -RA BR FEW005 BKN012 OVC022 10/10 Q1024 TEMPO RA,0,2,0,3000,0,0,1,"-RA,BR,RA"
2026-04-02 06:25:00,SPECI LEBB 020625Z 23003KT 200V280 1800 -RA BR BKN009 OVC021 10/09 Q1024 TEMPO RA,0,3,0,1800,0,0,1,"-RA,BR,RA"
2026-04-02 06:05:00,SPECI LEBB 020605Z VRB02KT 4000 -RA BR FEW006 BKN011 BKN021 10/09 Q1024 TEMPO RA,0,2,0,4000,0,0,1,"-RA,BR,RA"
2026-04-02 06:00:00,METAR LEBB 020600Z VRB02KT 9999 FEW009 BKN013 BKN028 10/09 Q1024 TEMPO 3000 RA,0,2,0,10000,0,0,0,RA
2026-04-02 05:30:00,METAR LEBB 020530Z 02008KT 340V050 8000 -RA SCT006 BKN018 BKN040 10/09 Q1023 RERA TEMPO 3000 RA,0,8,0,8000,0,0,0,"-RA,RA"
2026-04-02 05:00:00,METAR LEBB 020500Z 31007KT 280V340 2500 RA BKN007 BKN015 11/10 Q1023 NOSIG,0,7,0,2500,0,0,0,RA
2026-04-02 04:45:00,SPECI LEBB 020445Z 32007KT 3000 -RA SCT005 BKN009 BKN015 11/10 Q1023 TEMPO RA,0,7,0,3000,0,0,0,"-RA,RA"
2026-04-02 04:30:00,METAR LEBB 020430Z 32008KT 280V360 7000 -RA SCT015 BKN026 BKN039 10/09 Q1023 TEMPO 3000 RA,0,8,0,7000,0,0,0,"-RA,RA"
2026-04-02 04:00:00,METAR LEBB 020400Z 35008KT 310V040 6000 -RA SCT013 BKN029 BKN039 11/09 Q1023 TEMPO 3000 RA,0,8,0,6000,0,0,0,"-RA,RA"
2026-04-02 03:30:00,METAR LEBB 020330Z 29005KT 260V320 9000 -RA SCT013 BKN027 BKN046 11/09 Q1024 TEMPO 3000 RA,0,5,0,9000,0,0,0,"-RA,RA"
2026-04-02 03:00:00,METAR LEBB 020300Z 26004KT 210V290 9999 FEW012 SCT029 BKN045 11/09 Q1024 TEMPO 3000 RA,0,4,0,10000,0,0,0,RA
2026-04-02 02:30:00,METAR LEBB 020230Z AUTO 29005KT 250V330 9999 SCT036 BKN042 OVC048 11/09 Q1024,0,5,0,10000,0,0,0,
2026-04-02 02:00:00,METAR LEBB 020200Z AUTO 34008KT 300V010 9999 -RA SCT010 BKN015 OVC037 11/10 Q1024,0,8,0,10000,0,0,0,-RA
2026-04-02 01:30:00,METAR LEBB 020130Z AUTO 33009KT 290V010 9999 -RA BKN010 BKN014 BKN026 11/10 Q1024,0,9,0,10000,0,0,0,-RA
2026-04-02 01:00:00,METAR LEBB 020100Z AUTO 34015KT 300V020 4400 -RA BR BKN006 BKN011 11/10 Q1025,0,15,0,4400,0,0,1,"-RA,BR"
2026-04-02 00:30:00,METAR LEBB 020030Z AUTO 31008KT 280V340 3400 -RA BR SCT009 BKN020 OVC034 11/10 Q1025 RERA,0,8,0,3400,0,0,1,"-RA,BR,RA"
2026-04-02 00:00:00,METAR LEBB 020000Z AUTO 33011KT 290V360 2600 RA SCT009 BKN014 OVC029 11/10 Q1025,0,11,0,2600,0,0,0,RA
2026-04-01 23:30:00,METAR LEBB 012330Z AUTO 32010KT 6000 RA BKN009 BKN013 OVC022 11/10 Q1025,0,10,0,6000,0,0,0,RA
2026-04-01 23:00:00,METAR LEBB 012300Z AUTO 29011KT 260V320 9000 -RA BKN014 BKN022 OVC044 12/10 Q1025,0,11,0,9000,0,0,0,-RA
2026-04-01 22:30:00,METAR LEBB 012230Z AUTO 29007KT 260V320 9999 SCT014 BKN021 OVC046 12/10 Q1026,0,7,0,10000,0,0,0,
2026-04-01 22:00:00,METAR LEBB 012200Z AUTO 29008KT 260V330 9999 -RA SCT013 BKN019 OVC036 12/11 Q1026,0,8,0,10000,0,0,0,-RA
2026-04-01 21:30:00,METAR LEBB 012130Z 30008KT 9999 SCT011 BKN021 12/11 Q1026 NOSIG,0,8,0,10000,0,0,0,
2026-04-01 21:00:00,METAR LEBB 012100Z 29008KT 6000 -RA BKN011 BKN018 12/11 Q1026 TEMPO 3000,0,8,0,6000,0,0,0,-RA
2026-04-01 20:30:00,METAR LEBB 012030Z 29007KT 250V340 9999 SCT009 SCT015 BKN034 12/11 Q1026 NOSIG,0,7,0,10000,0,0,0,
2026-04-01 20:00:00,METAR LEBB 012000Z 29007KT 9999 SCT008 SCT014 BKN026 12/11 Q1026 NOSIG,0,7,0,10000,0,0,0,
2026-04-01 19:30:00,METAR LEBB 011930Z 29007KT 9999 BKN008 BKN014 12/11 Q1026 NOSIG,0,7,0,10000,0,0,0,
2026-04-01 19:00:00,METAR LEBB 011900Z 29011KT 260V320 6000 -RA BKN010 BKN018 11/11 Q1027 RERA TEMPO 3000,0,11,0,6000,0,0,0,"-RA,RA"
2026-04-01 18:52:00,SPECI LEBB 011852Z 29007KT 6000 RA BKN011 BKN026 11/11 Q1027 TEMPO 3000,0,7,0,6000,0,0,0,RA
2026-04-01 18:30:00,METAR LEBB 011830Z 31009KT 280V340 6000 -RA SCT007 SCT013 BKN026 12/11 Q1027 TEMPO 3000,0,9,0,6000,0,0,0,-RA
2026-04-01 18:23:00,SPECI LEBB 011823Z 31009KT 5000 -RA BR BKN007 BKN014 12/11 Q1027 TEMPO 3000,0,9,0,5000,0,0,1,"-RA,BR"
2026-04-01 18:00:00,METAR LEBB 011800Z 29011KT 260V320 3000 -RA BR BKN006 BKN010 12/11 Q1027 TEMPO 6000 NSW,0,11,0,3000,0,0,1,"-RA,BR"
2026-04-01 17:53:00,SPECI LEBB 011753Z 30013KT 3000 -RA BKN008 BKN018 12/10 Q1027 TEMPO 6000,0,13,0,3000,0,0,0,-RA
2026-04-01 17:30:00,METAR LEBB 011730Z 32011KT 290V350 9999 FEW015 SCT020 BKN028 13/10 Q1027 NOSIG,0,11,0,10000,0,0,0,
2026-04-01 17:00:00,METAR LEBB 011700Z 31012G22KT 290V350 9999 FEW016 BKN022 13/10 Q1027 NOSIG,0,12,1,10000,0,0,0,
2026-04-01 16:30:00,METAR LEBB 011630Z 30014KT 270V340 9999 FEW018 BKN023 13/10 Q1027 NOSIG,0,14,0,10000,0,0,0,
2026-04-01 16:00:00,METAR LEBB 011600Z 32013KT 290V350 9999 BKN018 BKN026 13/10 Q1027 NOSIG,0,13,0,10000,0,0,0,
2026-04-01 15:30:00,METAR LEBB 011530Z 31015KT 290V350 9999 BKN020 BKN027 14/10 Q1027 NOSIG,0,15,0,10000,0,0,0,
2026-04-01 15:00:00,METAR LEBB 011500Z 31012G23KT 280V340 9999 BKN019 BKN025 14/11 Q1028 NOSIG,0,12,1,10000,0,0,0,
2026-04-01 14:00:00,METAR LEBB 011400Z 32014KT 9999 BKN020 BKN038 15/11 Q1028 NOSIG,0,14,0,10000,0,0,0,
2026-04-01 13:30:00,METAR LEBB 011330Z 32010KT 280V010 9999 SCT022 BKN034 14/10 Q1028 NOSIG,0,10,0,10000,0,0,0,
2026-04-01 13:00:00,METAR LEBB 011300Z 32011KT 290V350 9999 SCT017 BKN032 14/11 Q1029 NOSIG,0,11,0,10000,0,0,0,
2026-04-01 12:30:00,METAR LEBB 011230Z 33011KT 290V360 9999 BKN017 BKN032 14/11 Q1029 NOSIG,0,11,0,10000,0,0,0,
2026-04-01 12:00:00,METAR LEBB 011200Z 32010KT 290V350 9999 BKN013 BKN034 14/11 Q1029 NOSIG,0,10,0,10000,0,0,0,
2026-04-01 11:30:00,METAR LEBB 011130Z 31010KT 9999 BKN014 BKN020 13/11 Q1029 NOSIG,0,10,0,10000,0,0,0,
2026-04-01 11:00:00,METAR LEBB 011100Z 32009KT 290V350 9999 BKN013 BKN023 13/11 Q1029 NOSIG,0,9,0,10000,0,0,0,
2026-04-01 10:30:00,METAR LEBB 011030Z 31009KT 250V340 9999 BKN014 BKN025 13/11 Q1029 NOSIG,0,9,0,10000,0,0,0,
2026-04-01 10:00:00,METAR LEBB 011000Z 31011KT 280V350 9999 BKN014 BKN025 13/11 Q1029 NOSIG,0,11,0,10000,0,0,0,
2026-04-01 09:30:00,METAR LEBB 010930Z 31006KT 280V350 9999 BKN014 BKN025 13/11 Q1029 NOSIG,0,6,0,10000,0,0,0,
2026-04-01 09:00:00,METAR LEBB 010900Z 31008KT 280V340 9999 BKN012 BKN032 13/11 Q1029 NOSIG,0,8,0,10000,0,0,0,
2026-04-01 08:30:00,METAR LEBB 010830Z 32006KT 290V350 9999 BKN012 BKN034 13/11 Q1029 NOSIG,0,6,0,10000,0,0,0,
2026-04-01 08:00:00,METAR LEBB 010800Z 32007KT 280V350 9999 BKN011 BKN039 13/11 Q1029 NOSIG,0,7,0,10000,0,0,0,
2026-04-01 07:30:00,METAR LEBB 010730Z 32008KT 290V360 9999 FEW012 BKN041 13/11 Q1029 NOSIG,0,8,0,10000,0,0,0,
2026-04-01 07:00:00,METAR LEBB 010700Z 32005KT 280V350 9999 FEW012 BKN041 12/11 Q1029 NOSIG,0,5,0,10000,0,0,0,
2026-04-01 06:30:00,METAR LEBB 010630Z 34006KT 300V010 9999 FEW010 SCT025 BKN050 12/11 Q1029 TEMPO 3000 RA,0,6,0,10000,0,0,0,RA
2026-04-01 06:00:00,METAR LEBB 010600Z 32006KT 290V350 9999 BKN010 BKN022 12/11 Q1029 TEMPO 3000 RA,0,6,0,10000,0,0,0,RA
2026-04-01 05:56:00,SPECI LEBB 010556Z 31006KT 4900 -RA BKN010 BKN015 12/11 Q1029 TEMPO RA,0,6,0,4900,0,0,0,"-RA,RA"
2026-04-01 05:30:00,METAR LEBB 010530Z 33006KT 290V030 9999 FEW008 BKN014 BKN028 12/11 Q1029 NOSIG,0,6,0,10000,0,0,0,
2026-04-01 05:00:00,METAR LEBB 010500Z 31006KT 280V350 9999 SCT011 BKN060 12/11 Q1029 NOSIG,0,6,0,10000,0,0,0,
2026-04-01 04:30:00,METAR LEBB 010430Z 30005KT 9999 SCT013 BKN025 12/11 Q1029 TEMPO RA,0,5,0,10000,0,0,0,RA
2026-04-01 04:00:00,METAR LEBB 010400Z 30003KT 260V350 9999 SCT012 BKN060 12/11 Q1029 TEMPO RA,0,3,0,10000,0,0,0,RA
2026-04-01 03:30:00,METAR LEBB 010330Z VRB01KT 9999 SCT010 SCT015 BKN058 12/11 Q1029 TEMPO RA,0,1,0,10000,0,0,0,RA
2026-04-01 03:00:00,METAR LEBB 010300Z 31006KT 270V340 9999 -RA BKN008 BKN015 12/11 Q1030 TEMPO RA,0,6,0,10000,0,0,0,"-RA,RA"
2026-04-01 02:30:00,METAR LEBB 010230Z AUTO 31004KT 4300 -RA BR BKN011 BKN023 OVC028 11/11 Q1030,0,4,0,4300,0,0,1,"-RA,BR"
2026-04-01 02:00:00,METAR LEBB 010200Z AUTO 31005KT 280V350 9999 -RA BKN015 BKN025 OVC034 12/11 Q1030,0,5,0,10000,0,0,0,-RA
2026-04-01 01:30:00,METAR LEBB 010130Z AUTO 27002KT 9999 FEW013 SCT019 OVC034 11/10 Q1030,0,2,0,10000,0,0,0,
2026-04-01 01:00:00,METAR LEBB 010100Z AUTO VRB02KT 9999 FEW022 SCT030 BKN035 11/10 Q1031,0,2,0,10000,0,0,0,
2026-04-01 00:30:00,METAR LEBB 010030Z AUTO 24003KT 210V290 9999 BKN030 BKN036 11/10 Q1031,0,3,0,10000,0,0,0,
2026-04-01 00:00:00,METAR LEBB 010000Z AUTO 34005KT 300V360 9999 FEW017 BKN025 OVC031 11/10 Q1031,0,5,0,10000,0,0,0,
2026-03-31 23:30:00,METAR LEBB 312330Z AUTO 34007KT 300V010 9999 FEW014 SCT022 OVC031 11/10 Q1032,0,7,0,9999,0,0,0,
2026-03-31 23:00:00,METAR LEBB 312300Z AUTO 32004KT 280V340 9000 SCT015 BKN025 OVC033 11/10 Q1032,0,4,0,9000,0,0,0,
2026-03-31 22:30:00,METAR LEBB 312230Z AUTO 32005KT 290V350 3600 -RA BR FEW012 BKN019 OVC025 11/10 Q1032,0,5,0,3600,0,0,1,"-RA,BR"
2026-03-31 22:00:00,METAR LEBB 312200Z AUTO 32004KT 290V350 9999 -RA SCT020 OVC026 12/10 Q1032,0,4,0,9999,0,0,0,-RA
2026-03-31 21:30:00,METAR LEBB 312130Z 32005KT 290V350 9999 FEW020 BKN027 OVC033 12/09 Q1032 NOSIG,0,5,0,9999,0,0,0,
2026-03-31 21:00:00,METAR LEBB 312100Z 31005KT 280V350 9999 FEW025 OVC033 12/08 Q1033 NOSIG,0,5,0,9999,0,0,0,
2026-03-31 20:30:00,METAR LEBB 312030Z 31004KT 270V340 9999 FEW023 SCT032 BKN038 12/08 Q1033 NOSIG,0,4,0,9999,0,0,0,
2026-03-31 20:00:00,METAR LEBB 312000Z 30004KT 260V330 9999 FEW030 BKN037 12/08 Q1033 NOSIG,0,4,0,9999,0,0,0,
2026-03-31 19:30:00,METAR LEBB 311930Z 30005KT 260V340 9999 FEW023 SCT037 12/08 Q1033 NOSIG,0,5,0,9999,0,0,0,
2026-03-31 19:00:00,METAR LEBB 311900Z 31004KT 270V350 9999 FEW023 BKN032 12/08 Q1033 NOSIG,0,4,0,9999,0,0,0,
2026-03-31 18:30:00,METAR LEBB 311830Z 33005KT 270V010 9999 FEW024 BKN035 BKN042 12/08 Q1033 NOSIG,0,5,0,9999,0,0,0,
2026-03-31 18:00:00,METAR LEBB 311800Z 32008KT 290V350 9999 FEW024 BKN032 12/08 Q1033 NOSIG,0,8,0,9999,0,0,0,
2026-03-31 17:30:00,METAR LEBB 311730Z 32008KT 9999 SCT025 BKN038 13/08 Q1032 NOSIG,0,8,0,9999,0,0,0,
2026-03-31 17:00:00,METAR LEBB 311700Z 33005KT 280V050 9999 SCT024 BKN032 BKN040 13/08 Q1032 NOSIG,0,5,0,9999,0,0,0,
2026-03-31 16:30:00,METAR LEBB 311630Z 34008KT 300V010 9999 SCT024 SCT029 BKN041 13/08 Q1033 NOSIG,0,8,0,9999,0,0,0,
2026-03-31 16:00:00,METAR LEBB 311600Z 32008KT 290V360 9999 FEW030 BKN039 13/08 Q1033 NOSIG,0,8,0,9999,0,0,0,
2026-03-31 15:30:00,METAR LEBB 311530Z 34008KT 310V020 9999 FEW028 BKN038 BKN044 13/08 Q1033 NOSIG,0,8,0,9999,0,0,0,
2026-03-31 15:00:00,METAR LEBB 311500Z 36010KT 330V030 9999 FEW028 SCT035 OVC042 13/07 Q1033 NOSIG,0,10,0,9999,0,0,0,
2026-03-31 14:30:00,METAR LEBB 311430Z 33009KT 300V020 9999 SCT028 BKN037 OVC043 13/07 Q1033 NOSIG,0,9,0,9999,0,0,0,
2026-03-31 14:00:00,METAR LEBB 311400Z 32010KT 290V350 9999 FEW026 BKN033 OVC039 14/08 Q1033 NOSIG,0,10,0,9999,0,0,0,
2026-03-31 13:30:00,METAR LEBB 311330Z 36008KT 320V040 9999 FEW028 BKN034 BKN044 14/08 Q1033 NOSIG,0,8,0,9999,0,0,0,
2026-03-31 13:00:00,METAR LEBB 311300Z 35009KT 330V050 9999 SCT033 BKN040 OVC047 14/07 Q1033 NOSIG,0,9,0,9999,0,0,0,
2026-03-31 12:30:00,METAR LEBB 311230Z 35011KT 9999 SCT029 BKN037 OVC048 14/08 Q1034 NOSIG,0,11,0,9999,0,0,0,
2026-03-31 12:00:00,METAR LEBB 311200Z 36009KT 310V060 9999 SCT029 BKN039 OVC047 14/09 Q1034 NOSIG,0,9,0,9999,0,0,0,
2026-03-31 11:30:00,METAR LEBB 311130Z 35010KT 320V030 9999 SCT030 BKN038 OVC049 13/07 Q1034 NOSIG,0,10,0,9999,0,0,0,
2026-03-31 11:00:00,METAR LEBB 311100Z 01006KT 300V070 9999 SCT030 SCT035 OVC049 14/08 Q1034 NOSIG,0,6,0,9999,0,0,0,
2026-03-31 10:30:00,METAR LEBB 311030Z 02009KT 320V060 9999 SCT027 BKN033 OVC049 13/09 Q1034 NOSIG,0,9,0,9999,0,0,0,
2026-03-31 10:00:00,METAR LEBB 311000Z 35007KT 310V040 9999 BKN024 BKN032 OVC040 13/09 Q1034 NOSIG,0,7,0,9999,0,0,0,
2026-03-31 09:30:00,METAR LEBB 310930Z 01006KT 330V060 8000 SCT023 BKN030 OVC050 13/10 Q1034 NOSIG,0,6,0,8000,0,0,0,
2026-03-31 09:00:00,METAR LEBB 310900Z 34005KT 310V040 8000 BKN029 OVC050 12/09 Q1034 NOSIG,0,5,0,8000,0,0,0,
2026-03-31 08:30:00,METAR LEBB 310830Z 32003KT 280V350 9999 BKN029 12/10 Q1034 NOSIG,0,3,0,9999,0,0,0,
2026-03-31 08:00:00,METAR LEBB 310800Z 32003KT 280V360 9999 OVC027 11/10 Q1034 NOSIG,0,3,0,9999,0,0,0,
2026-03-31 07:30:00,METAR LEBB 310730Z 30006KT 8000 -RA OVC026 11/10 Q1033 TEMPO 3000 RA,0,6,0,8000,0,0,0,"-RA,RA"
2026-03-31 07:00:00,METAR LEBB 310700Z 31004KT 9000 -RA FEW019 OVC026 11/10 Q1033 TEMPO 3000 RA,0,4,0,9000,0,0,0,"-RA,RA"
2026-03-31 06:30:00,METAR LEBB 310630Z 33005KT 300V020 6000 -RA SCT015 BKN024 OVC044 12/10 Q1033 NOSIG,0,5,0,6000,0,0,0,-RA
2026-03-31 06:00:00,METAR LEBB 310600Z 32007KT 290V350 9999 FEW016 BKN035 OVC044 12/10 Q1033 NOSIG,0,7,0,9999,0,0,0,
2026-03-31 05:30:00,METAR LEBB 310530Z 31008KT 9999 SCT025 BKN043 OVC050 12/10 Q1033 NOSIG,0,8,0,9999,0,0,0,
2026-03-31 05:00:00,METAR LEBB 310500Z 31008KT 280V340 9999 OVC050 12/10 Q1032 NOSIG,0,8,0,9999,0,0,0,
2026-03-31 04:30:00,METAR LEBB 310430Z 31008KT 9999 FEW031 OVC050 12/09 Q1032 NOSIG,0,8,0,9999,0,0,0,
2026-03-31 04:00:00,METAR LEBB 310400Z 31006KT 9999 BKN044 OVC050 12/09 Q1032 NOSIG,0,6,0,9999,0,0,0,
2026-03-31 03:30:00,METAR LEBB 310330Z 30006KT 9999 OVC050 12/09 Q1032 NOSIG,0,6,0,9999,0,0,0,
2026-03-31 03:00:00,METAR LEBB 310300Z 30006KT 270V330 9999 -RA FEW024 OVC049 11/10 Q1033 NOSIG,0,6,0,9999,0,0,0,-RA
2026-03-31 02:30:00,METAR LEBB 310230Z AUTO 31008KT 9999 -RA SCT015 BKN020 OVC048 12/10 Q1033,0,8,0,9999,0,0,0,-RA
2026-03-31 02:00:00,METAR LEBB 310200Z AUTO 30009KT 9999 SCT024 BKN041 OVC048 12/10 Q1033,0,9,0,9999,0,0,0,
2026-03-31 01:30:00,METAR LEBB 310130Z AUTO 31009KT 9999 -RA SCT026 BKN039 OVC045 12/10 Q1033,0,9,0,9999,0,0,0,-RA
2026-03-31 01:00:00,METAR LEBB 310100Z AUTO 30009KT 8000 -RA BKN027 BKN033 11/10 Q1033,0,9,0,8000,0,0,0,-RA
2026-03-31 00:30:00,METAR LEBB 310030Z AUTO 31009KT 9000 -RA SCT020 SCT026 OVC033 11/10 Q1033,0,9,0,9000,0,0,0,-RA
2026-03-31 00:00:00,METAR LEBB 310000Z AUTO 32009KT 290V010 9000 -RA FEW018 BKN025 OVC032 11/10 Q1033,0,9,0,9000,0,0,0,-RA
2026-03-30 23:30:00,METAR LEBB 302330Z AUTO 32009KT 280V350 8000 -RA FEW017 BKN026 OVC033 11/10 Q1033,0,9,0,8000,0,0,0,-RA
2026-03-30 23:00:00,METAR LEBB 302300Z AUTO 34009KT 290V010 9999 BKN021 OVC027 12/10 Q1033,0,9,0,10000,0,0,0,
2026-03-30 22:30:00,METAR LEBB 302230Z AUTO 33011KT 300V360 3900 -RA BR BKN009 BKN014 OVC025 11/10 Q1033,0,11,0,3900,0,0,1,"-RA,BR"
2026-03-30 22:00:00,METAR LEBB 302200Z AUTO 32009KT 290V350 1400 R30/P2000 R12/P2000 -RA BR BKN006 BKN010 BKN014 12/11 Q1033,0,9,0,1400,0,0,1,"-RA,BR"
2026-03-30 21:30:00,METAR LEBB 302130Z 32009KT 290V360 9000 -RA SCT012 BKN020 12/11 Q1033 RERA NOSIG,0,9,0,9000,0,0,0,"-RA,RA"
2026-03-30 21:22:00,SPECI LEBB 302122Z 31009KT 280V350 3000 RA BKN012 OVC026 12/11 Q1033 TEMPO 8000 NSW SCT012,0,9,0,3000,0,0,0,RA
2026-03-30 21:00:00,METAR LEBB 302100Z 32008KT 9999 SCT015 BKN026 OVC034 12/11 Q1033 NOSIG,0,8,0,10000,0,0,0,
2026-03-30 20:30:00,METAR LEBB 302030Z 32014G24KT 290V350 8000 -DZ SCT007 BKN016 12/12 Q1032 TEMPO BKN007,0,14,1,8000,0,0,0,DZ
2026-03-30 20:00:00,METAR LEBB 302000Z 31013KT 280V360 7000 -DZ BKN007 OVC020 12/12 Q1032 TEMPO SCT007,0,13,0,7000,0,0,0,DZ
2026-03-30 19:31:00,SPECI LEBB 301931Z 29015KT 2000 RA BKN006 12/12 Q1032 TEMPO SCT006,0,15,0,2000,0,0,0,RA
2026-03-30 19:30:00,METAR LEBB 301930Z 29015KT 3000 -RA BKN006 12/12 Q1032 RERA TEMPO SCT006,0,15,0,3000,0,0,0,"-RA,RA"
2026-03-30 19:00:00,METAR LEBB 301900Z 30015KT 260V330 8000 -DZ BKN008 12/11 Q1031 TEMPO SCT008,0,15,0,8000,0,0,0,DZ
2026-03-30 18:59:00,SPECI LEBB 301859Z 30015KT 260V330 8000 -DZ BKN008 12/11 Q1031 TEMPO SCT008,0,15,0,8000,0,0,0,DZ
2026-03-30 18:30:00,METAR LEBB 301830Z 30015KT 270V330 4000 -RA SCT007 BKN010 12/11 Q1031 NOSIG,0,15,0,4000,0,0,0,-RA
2026-03-30 18:00:00,METAR LEBB 301800Z 30013KT 8000 -DZ BKN013 12/11 Q1031 TEMPO SCT013,0,13,0,8000,0,0,0,DZ
2026-03-30 17:30:00,METAR LEBB 301730Z 30011KT 9999 BKN014 12/10 Q1031 NOSIG,0,11,0,10000,0,0,0,
2026-03-30 17:00:00,METAR LEBB 301700Z 30012KT 9000 -DZ BKN016 12/10 Q1032 NOSIG,0,12,0,9000,0,0,0,DZ
2026-03-30 16:30:00,METAR LEBB 301630Z 30017G28KT 270V330 9000 BKN018 12/10 Q1032 NOSIG,0,17,1,9000,0,0,0,
2026-03-30 16:00:00,METAR LEBB 301600Z 31014KT 9999 BKN020 13/10 Q1032 NOSIG,0,14,0,10000,0,0,0,
2026-03-30 15:30:00,METAR LEBB 301530Z 30016KT 9999 BKN021 13/09 Q1032 NOSIG,0,16,0,10000,0,0,0,
2026-03-30 15:00:00,METAR LEBB 301500Z 30013KT 9999 BKN022 12/09 Q1032 NOSIG,0,13,0,10000,0,0,0,
2026-03-30 14:30:00,METAR LEBB 301430Z 30014KT 9999 BKN020 12/09 Q1033 NOSIG,0,14,0,10000,0,0,0,
2026-03-30 14:00:00,METAR LEBB 301400Z 32011KT 9999 SCT024 BKN036 12/09 Q1033 NOSIG,0,11,0,10000,0,0,0,
2026-03-30 13:30:00,METAR LEBB 301330Z 31011KT 270V350 9999 SCT022 BKN040 11/08 Q1033 NOSIG,0,11,0,10000,0,0,0,
2026-03-30 13:00:00,METAR LEBB 301300Z 31012KT 9999 SCT022 BKN038 11/09 Q1034 NOSIG,0,12,0,10000,0,0,0,
2026-03-30 12:30:00,METAR LEBB 301230Z COR 30013KT 7000 -DZ FEW018 BKN022 OVC033 11/09 Q1034 NOSIG,0,13,0,7000,0,0,0,DZ
2026-03-30 12:00:00,METAR LEBB 301200Z 30013KT 280V340 9999 FEW018 BKN022 OVC033 11/08 Q1034 NOSIG,0,13,0,10000,0,0,0,
2026-03-30 11:30:00,METAR LEBB 301130Z 30011KT 9999 SCT015 BKN024 OVC030 10/08 Q1035 NOSIG,0,11,0,10000,0,0,0,
2026-03-30 11:00:00,METAR LEBB 301100Z 29011KT 3000 -DZ FEW007 BKN016 OVC024 10/09 Q1035 TEMPO BKN010,0,11,0,3000,0,0,0,DZ
2026-03-30 10:53:00,SPECI LEBB 301053Z 29011KT 250V310 2500 DZ FEW007 BKN016 OVC024 10/09 Q1035 TEMPO BKN010,0,11,0,2500,0,0,0,DZ
2026-03-30 10:30:00,METAR LEBB 301030Z 29010KT 260V320 2500 DZ FEW007 BKN011 OVC022 10/09 Q1035 TEMPO 7000 NSW,0,10,0,2500,0,0,0,DZ
2026-03-30 10:27:00,SPECI LEBB 301027Z 29009KT 260V320 2500 DZ FEW007 BKN016 OVC030 10/09 Q1035 TEMPO 7000 NSW,0,9,0,2500,0,0,0,DZ
2026-03-30 10:00:00,METAR LEBB 301000Z 29011KT 2000 DZ BKN011 OVC020 10/09 Q1035 TEMPO 7000 NSW,0,11,0,2000,0,0,0,DZ
2026-03-30 09:30:00,METAR LEBB 300930Z 29010KT 2500 DZ BKN012 OVC020 10/08 Q1035 TEMPO 7000 NSW,0,10,0,2500,0,0,0,DZ
2026-03-30 09:29:00,SPECI LEBB 300929Z 29011KT 2500 DZ BKN014 OVC020 10/09 Q1035 TEMPO 7000 NSW,0,11,0,2500,0,0,0,DZ
2026-03-30 09:05:00,SPECI LEBB 300905Z 29012KT 260V320 3000 DZ BKN018 OVC032 10/08 Q1035 TEMPO 7000 NSW,0,12,0,3000,0,0,0,DZ
2026-03-30 09:00:00,METAR LEBB 300900Z 29011KT 260V330 7000 -DZ BKN020 OVC032 11/07 Q1035 NOSIG,0,11,0,7000,0,0,0,DZ
2026-03-30 08:30:00,METAR LEBB 300830Z 28008KT 250V310 9999 BKN030 OVC050 11/06 Q1035 NOSIG,0,8,0,10000,0,0,0,
2026-03-30 08:00:00,METAR LEBB 300800Z 28007KT 210V320 9999 BKN030 OVC044 11/06 Q1035 NOSIG,0,7,0,10000,0,0,0,
2026-03-30 07:30:00,METAR LEBB 300730Z VRB02KT 9999 BKN030 OVC052 10/06 Q1035 NOSIG,0,2,0,10000,0,0,0,
2026-03-30 07:00:00,METAR LEBB 300700Z 00000KT 9999 BKN030 OVC052 09/06 Q1035 NOSIG,0,0,0,10000,0,0,0,
2026-03-30 06:30:00,METAR LEBB 300630Z COR VRB02KT 9999 -DZ OVC032 08/06 Q1035 NOSIG,0,2,0,10000,0,0,0,DZ
2026-03-30 06:00:00,METAR LEBB 300600Z 11003KT 080V140 9999 BKN033 08/05 Q1034 NOSIG,0,3,0,10000,0,0,0,
2026-03-30 05:30:00,METAR LEBB 300530Z 10003KT 060V130 9999 SCT036 BKN049 08/05 Q1034 NOSIG,0,3,0,10000,0,0,0,
2026-03-30 05:00:00,METAR LEBB 300500Z VRB01KT 9999 SCT032 BKN049 08/05 Q1034 NOSIG,0,1,0,10000,0,0,0,
2026-03-30 04:30:00,METAR LEBB 300430Z 10004KT 070V150 9999 BKN032 07/05 Q1034 NOSIG,0,4,0,10000,0,0,0,
2026-03-30 04:00:00,METAR LEBB 300400Z 10003KT 080V140 9999 SCT032 BKN050 07/05 Q1034 NOSIG,0,3,0,10000,0,0,0,
2026-03-30 03:30:00,METAR LEBB 300330Z 11004KT 9999 FEW036 BKN050 06/04 Q1035 NOSIG,0,4,0,10000,0,0,0,
2026-03-30 03:00:00,METAR LEBB 300300Z VRB02KT 9999 FEW036 BKN052 06/04 Q1035 NOSIG,0,2,0,10000,0,0,0,
2026-03-30 02:30:00,METAR LEBB 300230Z AUTO 10003KT 9999 FEW036 BKN044 BKN050 06/05 Q1035,0,3,0,10000,0,0,0,
2026-03-30 02:00:00,METAR LEBB 300200Z AUTO 12003KT 9999 FEW039 BKN050 06/04 Q1035,0,3,0,10000,0,0,0,
2026-03-30 01:30:00,METAR LEBB 300130Z AUTO 12002KT 9999 FEW039 BKN047 BKN050 06/04 Q1035,0,2,0,10000,0,0,0,
2026-03-30 01:00:00,METAR LEBB 300100Z AUTO 11003KT 9999 FEW038 SCT047 06/04 Q1035,0,3,0,10000,0,0,0,
2026-03-30 00:30:00,METAR LEBB 300030Z AUTO 11002KT 9999 FEW038 BKN049 06/04 Q1035,0,2,0,10000,0,0,0,
2026-03-30 00:00:00,METAR LEBB 300000Z AUTO VRB02KT 9999 FEW048 06/04 Q1036,0,2,0,10000,0,0,0,
2026-03-29 23:30:00,METAR LEBB 292330Z AUTO VRB01KT 9999 FEW040 SCT048 07/04 Q1036,0,1,0,10000,0,0,0,
2026-03-29 23:00:00,METAR LEBB 292300Z AUTO VRB01KT 9999 FEW040 SCT046 07/03 Q1036,0,1,0,10000,0,0,0,
2026-03-29 22:30:00,METAR LEBB 292230Z AUTO 32004KT 9999 FEW039 SCT048 09/04 Q1036,0,4,0,10000,0,0,0,
2026-03-29 22:00:00,METAR LEBB 292200Z AUTO 32003KT 280V350 9999 FEW036 SCT047 BKN050 08/04 Q1036,0,3,0,10000,0,0,0,
2026-03-29 21:30:00,METAR LEBB 292130Z 32004KT 270V070 9999 SCT047 09/03 Q1036 NOSIG,0,4,0,10000,0,0,0,
2026-03-29 21:00:00,METAR LEBB 292100Z 31003KT 260V350 9999 FEW038 SCT049 08/04 Q1036 NOSIG,0,3,0,10000,0,0,0,
2026-03-29 20:30:00,METAR LEBB 292030Z 32003KT 260V010 9999 FEW038 SCT050 09/03 Q1036 NOSIG,0,3,0,10000,0,0,0,
2026-03-29 20:00:00,METAR LEBB 292000Z 34006KT 290V010 9999 SCT042 09/03 Q1036 NOSIG,0,6,0,10000,0,0,0,
2026-03-29 19:30:00,METAR LEBB 291930Z 33005KT 300V010 9999 SCT041 10/03 Q1036 NOSIG,0,5,0,10000,0,0,0,
2026-03-29 19:00:00,METAR LEBB 291900Z 35007KT 320V020 9999 SCT042 10/03 Q1036 NOSIG,0,7,0,10000,0,0,0,
2026-03-29 18:30:00,METAR LEBB 291830Z 35009KT 9999 FEW035 SCT048 10/03 Q1036 NOSIG,0,9,0,10000,0,0,0,
2026-03-29 18:00:00,METAR LEBB 291800Z 35010KT 320V020 9999 SCT038 11/03 Q1036 NOSIG,0,10,0,10000,0,0,0,
2026-03-29 17:30:00,METAR LEBB 291730Z 35012KT 320V020 9999 SCT035 SCT050 11/03 Q1035 NOSIG,0,12,0,10000,0,0,0,
2026-03-29 17:00:00,METAR LEBB 291700Z 34013KT 310V030 9999 SCT035 SCT049 12/03 Q1035 NOSIG,0,13,0,10000,0,0,0,
2026-03-29 16:30:00,METAR LEBB 291630Z 36012G24KT 320V060 9999 FEW030 BKN043 12/03 Q1035 NOSIG,0,12,1,10000,0,0,0,
2026-03-29 16:00:00,METAR LEBB 291600Z 34014KT 300V010 9999 FEW030 BKN044 11/02 Q1035 NOSIG,0,14,0,10000,0,0,0,
2026-03-29 15:30:00,METAR LEBB 291530Z 35015KT 320V030 9999 FEW030 BKN043 12/03 Q1035 NOSIG,0,15,0,10000,0,0,0,
2026-03-29 15:00:00,METAR LEBB 291500Z 36013G25KT 310V030 9999 FEW030 BKN045 13/03 Q1035 NOSIG,0,13,1,10000,0,0,0,
2026-03-29 14:30:00,METAR LEBB 291430Z 35015KT 9999 FEW030 BKN045 12/03 Q1035 NOSIG,0,15,0,10000,0,0,0,
2026-03-29 14:00:00,METAR LEBB 291400Z 35012KT 320V030 9999 FEW030 BKN050 12/03 Q1035 NOSIG,0,12,0,10000,0,0,0,
2026-03-29 13:30:00,METAR LEBB 291330Z 36010KT 310V040 9999 FEW030 SCT050 12/03 Q1036 NOSIG,0,10,0,10000,0,0,0,
2026-03-29 13:00:00,METAR LEBB 291300Z 02011KT 330V050 9999 FEW030 SCT055 12/03 Q1036 NOSIG,0,11,0,10000,0,0,0,
2026-03-29 12:30:00,METAR LEBB 291230Z 35013KT 320V020 9999 FEW030 SCT052 12/01 Q1036 NOSIG,0,13,0,10000,0,0,0,
2026-03-29 12:00:00,METAR LEBB 291200Z VRB12KT 9999 FEW030 SCT050 12/03 Q1036 NOSIG,0,12,0,10000,0,0,0,
2026-03-29 11:30:00,METAR LEBB 291130Z 01012KT 320V050 9999 FEW030 BKN048 11/02 Q1036 NOSIG,0,12,0,10000,0,0,0,
2026-03-29 11:00:00,METAR LEBB 291100Z 35014KT 300V030 9999 FEW030 BKN045 12/04 Q1036 NOSIG,0,14,0,10000,0,0,0,
2026-03-29 10:30:00,METAR LEBB 291030Z 31009KT 250V350 9999 FEW028 SCT050 11/06 Q1036 NOSIG,0,9,0,10000,0,0,0,
2026-03-29 10:00:00,METAR LEBB 291000Z 32007KT 290V350 9999 FEW028 BKN045 BKN065 10/05 Q1036 NOSIG,0,7,0,10000,0,0,0,
2026-03-29 09:30:00,METAR LEBB 290930Z 33004KT 280V020 9999 FEW030 BKN043 BKN060 10/05 Q1035 NOSIG,0,4,0,10000,0,0,0,
2026-03-29 09:00:00,METAR LEBB 290900Z 32011KT 280V350 9999 FEW030 SCT050 BKN065 09/05 Q1035 NOSIG,0,11,0,10000,0,0,0,
2026-03-29 08:30:00,METAR LEBB 290830Z 35004KT 290V030 9999 FEW035 SCT047 BKN060 08/05 Q1035 NOSIG,0,4,0,10000,0,0,0,
2026-03-29 08:00:00,METAR LEBB 290800Z 30006KT 9999 FEW025 SCT048 BKN060 08/05 Q1035 NOSIG,0,6,0,10000,0,0,0,
2026-03-29 07:30:00,METAR LEBB 290730Z 33008G18KT 270V010 6000 -RA SCT040 BKN070 07/04 Q1035 NOSIG,0,8,1,6000,0,0,0,-RA
2026-03-29 07:00:00,METAR LEBB 290700Z 01006KT 340V050 9999 SCT045 BKN070 09/03 Q1034 NOSIG,0,6,0,10000,0,0,0,
2026-03-29 06:30:00,METAR LEBB 290630Z 32006KT 9999 FEW040 SCT050 08/04 Q1034 NOSIG,0,6,0,10000,0,0,0,
2026-03-29 06:00:00,METAR LEBB 290600Z 34009G20KT 300V030 9999 SCT044 SCT050 08/03 Q1034 NOSIG,0,9,1,10000,0,0,0,
2026-03-29 05:30:00,METAR LEBB 290530Z 30005KT 280V340 9999 SCT042 SCT050 08/05 Q1033 NOSIG,0,5,0,10000,0,0,0,
2026-03-29 05:00:00,METAR LEBB 290500Z 31010G20KT 9999 SCT042 SCT060 08/05 Q1033 NOSIG,0,10,1,10000,0,0,0,
2026-03-29 04:30:00,METAR LEBB 290430Z 34004KT 280V020 9999 SCT035 SCT050 08/04 Q1033 NOSIG,0,4,0,10000,0,0,0,
2026-03-29 04:00:00,METAR LEBB 290400Z VRB02KT 9999 SCT035 BKN050 09/05 Q1033 TEMPO 3000 RA,0,2,0,10000,0,0,0,RA
2026-03-29 03:30:00,METAR LEBB 290330Z 32007G17KT 280V010 9999 -RA SCT030 BKN050 08/05 Q1033 RERA TEMPO 3000 RA,0,7,1,10000,0,0,0,"-RA,RA"
2026-03-29 03:14:00,SPECI LEBB 290314Z 30010KT 8000 -RA SCT035 BKN060 08/05 Q1033 RERA TEMPO 3000 RA,0,10,0,8000,0,0,0,"-RA,RA"
2026-03-29 03:00:00,METAR LEBB 290300Z VRB02KT 9999 RA SCT035 BKN060 08/06 Q1033 TEMPO 3000,0,2,0,10000,0,0,0,RA
2026-03-29 02:30:00,METAR LEBB 290230Z AUTO 01003KT 330V040 9999 FEW030 SCT060 08/05 Q1033,0,3,0,10000,0,0,0,
2026-03-29 02:00:00,METAR LEBB 290200Z AUTO 33007KT 280V010 9999 SCT032 SCT047 BKN060 09/04 Q1033,0,7,0,10000,0,0,0,
2026-03-29 01:30:00,METAR LEBB 290130Z AUTO 31004KT 260V340 9999 FEW030 SCT044 BKN069 10/05 Q1033,0,4,0,10000,0,0,0,
2026-03-29 01:00:00,METAR LEBB 290100Z AUTO 33007KT 300V020 9999 SCT033 SCT055 BKN070 10/05 Q1034,0,7,0,10000,0,0,0,
2026-03-29 00:30:00,METAR LEBB 290030Z AUTO 30008KT 9999 FEW040 SCT047 09/05 Q1033,0,8,0,10000,0,0,0,
2026-03-29 00:00:00,METAR LEBB 290000Z AUTO 31008KT 280V340 9999 FEW049 09/05 Q1034,0,8,0,10000,0,0,0,
2026-03-28 23:30:00,METAR LEBB 282330Z AUTO 31011G21KT 280V340 9999 -RA SCT039 BKN050 BKN067 09/05 Q1034 RERA,0,11,1,10000,0,0,0,"-RA,RA"
2026-03-28 23:00:00,METAR LEBB 282300Z AUTO 32007KT 280V350 4500 RA SCT036 BKN050 BKN066 09/05 Q1034,0,7,0,4500,0,0,0,RA
2026-03-28 22:30:00,METAR LEBB 282230Z 34008KT 290V030 7000 -RA SCT035 BKN060 09/05 Q1034 NOSIG,0,8,0,7000,0,0,0,-RA
2026-03-28 22:00:00,METAR LEBB 282200Z 29004KT 250V320 9999 -RA FEW040 SCT068 09/04 Q1034 NOSIG,0,4,0,10000,0,0,0,-RA
2026-03-28 21:30:00,METAR LEBB 282130Z 32009KT 290V350 9999 -RA FEW020 SCT056 09/03 Q1034 NOSIG,0,9,0,10000,0,0,0,-RA
2026-03-28 21:00:00,METAR LEBB 282100Z 32006KT 260V360 9999 FEW043 SCT070 10/04 Q1034 NOSIG,0,6,0,10000,0,0,0,
2026-03-28 20:30:00,METAR LEBB 282030Z 32008KT 290V360 9999 SCT038 SCT065 10/04 Q1034 NOSIG,0,8,0,10000,0,0,0,
2026-03-28 20:00:00,METAR LEBB 282000Z 32007KT 280V340 9999 SCT040 SCT065 10/04 Q1033 NOSIG,0,7,0,10000,0,0,0,
2026-03-28 19:30:00,METAR LEBB 281930Z 32007KT 280V340 9999 FEW038 SCT055 10/03 Q1033 NOSIG,0,7,0,10000,0,0,0,
2026-03-28 19:00:00,METAR LEBB 281900Z 34010KT 320V020 9999 FEW039 SCT056 10/04 Q1033 NOSIG,0,10,0,10000,0,0,0,
2026-03-28 18:30:00,METAR LEBB 281830Z 36012KT 300V040 9999 FEW035 SCT056 10/03 Q1032 NOSIG,0,12,0,10000,0,0,0,
2026-03-28 18:00:00,METAR LEBB 281800Z 35009G19KT 320V030 9999 SCT033 SCT056 11/04 Q1032 NOSIG,0,9,1,10000,0,0,0,
2026-03-28 17:30:00,METAR LEBB 281730Z 34006KT 300V010 9999 SCT034 BKN056 11/05 Q1031 NOSIG,0,6,0,10000,0,0,0,
2026-03-28 17:00:00,METAR LEBB 281700Z 36011G23KT 300V050 9999 FEW020 BKN036 OVC048 11/06 Q1031 NOSIG,0,11,1,10000,0,0,0,
2026-03-28 16:30:00,METAR LEBB 281630Z 35011KT 300V020 9999 FEW020 BKN034 OVC043 12/05 Q1030 NOSIG,0,11,0,10000,0,0,0,
2026-03-28 16:00:00,METAR LEBB 281600Z 35010KT 300V030 9999 FEW019 BKN030 12/07 Q1030 NOSIG,0,10,0,10000,0,0,0,
2026-03-28 15:30:00,METAR LEBB 281530Z 35013G27KT 320V030 7000 -RA FEW013 SCT019 BKN032 11/08 Q1029 TEMPO 3000 RA,0,13,1,7000,0,0,0,"-RA,RA"
2026-03-28 15:00:00,METAR LEBB 281500Z 35009KT 320V020 9000 FEW013 SCT021 BKN034 12/08 Q1029 TEMPO 3000 RA,0,9,0,9000,0,0,0,RA
2026-03-28 14:30:00,METAR LEBB 281430Z 36009KT 310V050 9000 FEW013 BKN026 12/09 Q1029 TEMPO 3000 RA,0,9,0,9000,0,0,0,RA
2026-03-28 14:00:00,METAR LEBB 281400Z 34007KT 320V020 9999 FEW013 BKN028 12/10 Q1029 TEMPO 3000 RA,0,7,0,10000,0,0,0,RA
2026-03-28 13:51:00,SPECI LEBB 281351Z 34005KT 290V040 9999 FEW012 BKN028 12/10 Q1029 TEMPO 3000 RA,0,5,0,10000,0,0,0,RA
2026-03-28 13:30:00,METAR LEBB 281330Z 35009KT 320V030 3000 -RA BR FEW006 BKN013 BKN025 11/10 Q1029 TEMPO RA,0,9,0,3000,0,0,1,"-RA,BR,RA"
2026-03-28 13:00:00,METAR LEBB 281300Z 36013G26KT 320V050 2500 -RA BR FEW006 BKN011 BKN018 11/10 Q1029 TEMPO RA,0,13,1,2500,0,0,1,"-RA,BR,RA"
2026-03-28 12:30:00,METAR LEBB 281230Z 30017KT 280V340 3000 -RA BR FEW006 BKN010 BKN018 12/11 Q1028 TEMPO RA,0,17,0,3000,0,0,1,"-RA,BR,RA"
2026-03-28 12:16:00,SPECI LEBB 281216Z 30016KT 3000 -RA BR FEW008 BKN014 BKN023 12/11 Q1028 TEMPO RA,0,16,0,3000,0,0,1,"-RA,BR,RA"
2026-03-28 12:00:00,METAR LEBB 281200Z 29015KT 9999 FEW012 BKN019 BKN030 13/10 Q1028 TEMPO 3000 RA,0,15,0,10000,0,0,0,RA
2026-03-28 11:30:00,METAR LEBB 281130Z 30012KT 270V330 9999 BKN018 BKN029 12/10 Q1028 RERA TEMPO 3000 RA,0,12,0,10000,0,0,0,RA
2026-03-28 11:00:00,METAR LEBB 281100Z 31013KT 6000 RA BKN014 BKN022 12/10 Q1029 TEMPO 3000,0,13,0,6000,0,0,0,RA
2026-03-28 10:41:00,SPECI LEBB 281041Z 29013KT 6000 RA BKN013 BKN024 12/10 Q1029 TEMPO 3000,0,13,0,6000,0,0,0,RA
2026-03-28 10:30:00,METAR LEBB 281030Z 30012KT 250V340 9999 BKN014 BKN023 12/10 Q1029 TEMPO 3000 RA,0,12,0,10000,0,0,0,RA
2026-03-28 10:00:00,METAR LEBB 281000Z 30013KT 9999 4500NW BKN014 OVC021 12/09 Q1029 TEMPO 3000 RA,0,13,0,10000,0,0,0,RA
2026-03-28 09:30:00,METAR LEBB 280930Z 30011KT 260V330 9999 BKN015 BKN025 12/09 Q1029 NOSIG,0,11,0,10000,0,0,0,
2026-03-28 09:00:00,METAR LEBB 280900Z COR VRB03KT 9999 FEW007 BKN014 BKN027 11/10 Q1029 NOSIG,0,3,0,10000,0,0,0,
2026-03-28 08:30:00,METAR LEBB 280830Z 13003KT 9999 FEW007 BKN015 BKN027 08/08 Q1028 TEMPO 3000 RA,0,3,0,10000,0,0,0,RA
2026-03-28 08:00:00,METAR LEBB 280800Z VRB02KT 9000 3500SE -RA FEW006 BKN010 BKN018 08/07 Q1028 TEMPO 3000 RA,0,2,0,9000,0,0,0,"-RA,RA"
2026-03-28 07:30:00,METAR LEBB 280730Z 10003KT 070V140 8000 -RA FEW006 OVC010 07/07 Q1028 TEMPO 3000 RA,0,3,0,8000,0,0,0,"-RA,RA"
2026-03-28 07:00:00,METAR LEBB 280700Z 10004KT 060V140 6000 -RA BKN010 OVC018 07/06 Q1028 TEMPO 3000 RA,0,4,0,6000,0,0,0,"-RA,RA"
2026-03-28 06:30:00,METAR LEBB 280630Z VRB02KT 9999 4000SE -RA BKN010 OVC017 07/06 Q1027 TEMPO 3000 RA,0,2,0,10000,0,0,0,"-RA,RA"
2026-03-28 06:12:00,SPECI LEBB 280612Z VRB02KT 6000 2500SE -RA BKN011 BKN018 07/06 Q1027 TEMPO 3000 RA,0,2,0,6000,0,0,0,"-RA,RA"
2026-03-28 06:00:00,METAR LEBB 280600Z VRB01KT 7000 -RA SCT012 BKN029 BKN037 07/06 Q1027 NOSIG,0,1,0,7000,0,0,0,-RA
2026-03-28 05:30:00,METAR LEBB 280530Z VRB01KT 9999 FEW012 SCT029 BKN035 07/06 Q1027 NOSIG,0,1,0,10000,0,0,0,
2026-03-28 04:00:00,METAR LEBB 280400Z AUTO 09003KT 060V120 9999 BKN045 OVC055 06/05 Q1026,0,3,0,10000,0,0,0,
2026-03-28 03:30:00,METAR LEBB 280330Z AUTO 10003KT 070V130 9999 FEW032 BKN042 OVC048 06/05 Q1026,0,3,0,10000,0,0,0,
2026-03-28 03:00:00,METAR LEBB 280300Z AUTO 09003KT 070V130 9999 BKN033 OVC040 06/05 Q1026,0,3,0,10000,0,0,0,
2026-03-28 02:30:00,METAR LEBB 280230Z AUTO 09003KT 070V130 9999 SCT035 OVC042 06/05 Q1026,0,3,0,10000,0,0,0,
2026-03-28 02:00:00,METAR LEBB 280200Z AUTO 11003KT 9999 BKN045 OVC058 05/04 Q1027,0,3,0,10000,0,0,0,
2026-03-28 01:30:00,METAR LEBB 280130Z AUTO 09002KT 9999 SCT043 BKN058 05/04 Q1027,0,2,0,10000,0,0,0,
2026-03-28 01:00:00,METAR LEBB 280100Z AUTO 08003KT 9999 FEW044 SCT058 05/04 Q1027,0,3,0,10000,0,0,0,
2026-03-28 00:30:00,METAR LEBB 280030Z AUTO 09003KT 9999 BKN041 BKN057 05/04 Q1027,0,3,0,10000,0,0,0,
2026-03-28 00:00:00,METAR LEBB 280000Z AUTO 09002KT 9999 BKN040 05/04 Q1027,0,2,0,10000,0,0,0,
2026-03-27 23:30:00,METAR LEBB 272330Z AUTO VRB01KT 9999 BKN039 05/04 Q1027,0,1,0,10000,0,0,0,
2026-03-27 23:00:00,METAR LEBB 272300Z AUTO 09003KT 9999 FEW036 05/03 Q1027,0,3,0,10000,0,0,0,
2026-03-27 22:30:00,METAR LEBB 272230Z 11004KT 9999 FEW031 05/04 Q1027 NOSIG,0,4,0,10000,0,0,0,
2026-03-27 22:00:00,METAR LEBB 272200Z VRB02KT 9999 FEW032 05/04 Q1027 NOSIG,0,2,0,10000,0,0,0,
2026-03-27 21:30:00,METAR LEBB 272130Z 09003KT 050V110 9999 FEW033 06/04 Q1026 NOSIG,0,3,0,10000,0,0,0,
2026-03-27 21:00:00,METAR LEBB 272100Z VRB01KT CAVOK 07/05 Q1026 NOSIG,1,0,0,9999,0,0,0,
2026-03-27 20:30:00,METAR LEBB 272030Z 00000KT CAVOK 07/05 Q1026 NOSIG,1,0,0,9999,0,0,0,
2026-03-27 20:00:00,METAR LEBB 272000Z 00000KT CAVOK 07/05 Q1026 NOSIG,1,0,0,9999,0,0,0,
2026-03-27 19:30:00,METAR LEBB 271930Z VRB02KT CAVOK 09/05 Q1026 NOSIG,1,0,0,9999,0,0,0,
2026-03-27 19:00:00,METAR LEBB 271900Z 33003KT CAVOK 10/05 Q1026 NOSIG,1,0,0,9999,0,0,0,
2026-03-27 18:30:00,METAR LEBB 271830Z 32004KT 9999 FEW032 10/05 Q1025 NOSIG,0,4,0,10000,0,0,0,
2026-03-27 18:00:00,METAR LEBB 271800Z 34005KT 300V020 9999 FEW031 11/05 Q1025 NOSIG,0,5,0,10000,0,0,0,
2026-03-27 17:30:00,METAR LEBB 271730Z 02006KT 320V080 9999 FEW033 12/05 Q1025 NOSIG,0,6,0,10000,0,0,0,
2026-03-27 17:00:00,METAR LEBB 271700Z 35006KT 280V060 9999 SCT033 13/05 Q1025 NOSIG,0,6,0,10000,0,0,0,
2026-03-27 16:30:00,METAR LEBB 271630Z 35007KT 310V020 9999 FEW035 13/05 Q1025 NOSIG,0,7,0,10000,0,0,0,
2026-03-27 16:00:00,METAR LEBB 271600Z 02008KT 320V080 9999 SCT032 13/04 Q1025 NOSIG,0,8,0,10000,0,0,0,
2026-03-25 15:00:00,METAR LEBB 251500Z 33010KT 290V350 9000 BKN035 12/06 Q1026 NOSIG,0,10,0,9000,0,0,0,
2026-03-25 14:30:00,METAR LEBB 251430Z 30006KT 260V340 9000 FEW025 BKN036 12/06 Q1026 TEMPO 3000 BR,0,6,0,9000,0,0,1,BR
2026-03-25 14:00:00,METAR LEBB 251400Z 31012KT 280V340 7000 FEW018 BKN027 OVC034 12/08 Q1026 TEMPO 3000 BR,0,12,0,7000,0,0,1,BR
2026-03-25 13:30:00,METAR LEBB 251330Z 29009KT 250V330 6000 FEW015 BKN025 OVC034 11/10 Q1026 TEMPO 3000 RA BKN010,0,9,0,6000,0,0,0,RA
2026-03-25 13:00:00,METAR LEBB 251300Z 31009KT 270V340 4000 -RA BR FEW015 BKN020 OVC032 11/09 Q1026 TEMPO RA BKN010,0,9,0,4000,0,0,1,"-RA,BR,RA"
2026-03-25 12:30:00,METAR LEBB 251230Z 33011KT 280V360 6000 -RA FEW010 BKN020 OVC032 12/10 Q1026 TEMPO 3000 RA BKN010,0,11,0,6000,0,0,0,"-RA,RA"
2026-03-25 12:08:00,SPECI LEBB 251208Z 32009G19KT 280V360 4000 -RA BR SCT010 BKN019 OVC030 12/11 Q1026 TEMPO RA BKN010,0,9,1,4000,0,0,1,"-RA,BR,RA"
2026-03-25 12:00:00,METAR LEBB 251200Z 31009KT 280V010 6000 SCT010 BKN019 OVC030 12/11 Q1026 TEMPO 3000 RA BR BKN010,0,9,0,6000,0,0,1,"BR,RA"
2026-03-25 11:58:00,SPECI LEBB 251158Z 31009KT 280V010 4000 BR SCT010 BKN019 OVC030 12/11 Q1026 TEMPO RA BKN010,0,9,0,4000,0,0,1,"BR,RA"
2026-03-25 11:30:00,METAR LEBB 251130Z 31008KT 290V350 2500 -RA BR BKN010 OVC022 12/11 Q1026 TEMPO RA,0,8,0,2500,0,0,1,"-RA,BR,RA"
2026-03-25 11:26:00,SPECI LEBB 251126Z 31011KT 2500 -RA BR BKN010 OVC022 12/11 Q1026 TEMPO RA,0,11,0,2500,0,0,1,"-RA,BR,RA"
2026-03-25 11:00:00,METAR LEBB 251100Z 32008KT 280V350 4000 BR BKN012 OVC021 12/11 Q1026 TEMPO RA,0,8,0,4000,0,0,1,"BR,RA"
2026-03-25 10:30:00,METAR LEBB 251030Z 33008KT 280V010 4000 BR FEW005 BKN012 OVC022 12/11 Q1026 RERA TEMPO RA,0,8,0,4000,0,0,1,"BR,RA"
2026-03-25 10:10:00,SPECI LEBB 251010Z 31012KT 290V360 4000 -RA BR BKN012 OVC022 12/11 Q1026 RERA TEMPO RA,0,12,0,4000,0,0,1,"-RA,BR,RA"
2026-03-25 10:00:00,METAR LEBB 251000Z 31014KT 2500 RA BR BKN009 BKN022 12/11 Q1026 NOSIG,0,14,0,2500,0,0,1,"BR,RA"
2026-03-25 09:55:00,SPECI LEBB 250955Z 31015KT 2500 RA BR SCT010 BKN024 12/11 Q1025 TEMPO BKN010,0,15,0,2500,0,0,1,"BR,RA"
2026-03-25 09:50:00,SPECI LEBB 250950Z 31015KT 4000 RA BR FEW008 BKN024 12/10 Q1025 TEMPO BKN010,0,15,0,4000,0,0,1,"BR,RA"
2026-03-25 09:30:00,METAR LEBB 250930Z 31015KT 9999 SCT024 BKN035 14/09 Q1025 TEMPO 3000 RA BR BKN010,0,15,0,10000,0,0,1,"BR,RA"
2026-03-25 09:00:00,METAR LEBB 250900Z 30011KT 9999 SCT028 BKN046 14/09 Q1025 NOSIG,0,11,0,10000,0,0,0,
2026-03-25 08:30:00,METAR LEBB 250830Z 29010KT 9999 FEW028 BKN046 13/09 Q1025 NOSIG,0,10,0,10000,0,0,0,
2026-03-25 08:00:00,METAR LEBB 250800Z 29008KT 9000 FEW021 SCT042 13/10 Q1024 NOSIG,0,8,0,9000,0,0,0,
2026-03-25 07:30:00,METAR LEBB 250730Z VRB03KT 9000 FEW021 BKN042 10/09 Q1024 NOSIG,0,3,0,9000,0,0,0,
2026-03-25 07:00:00,METAR LEBB 250700Z 11003KT 8000 SCT022 BKN040 09/08 Q1024 NOSIG,0,3,0,8000,0,0,0,
2026-03-25 06:30:00,METAR LEBB 250630Z 10003KT 070V140 7000 BKN037 08/07 Q1024 NOSIG,0,3,0,7000,0,0,0,
2026-03-25 06:00:00,METAR LEBB 250600Z 09003KT 060V120 6000 BKN034 08/07 Q1024 TEMPO 3000 BR,0,3,0,6000,0,0,1,BR
2026-03-25 05:30:00,METAR LEBB 250530Z 07003KT 6000 FEW025 SCT034 07/07 Q1023 TEMPO 3000 BR,0,3,0,6000,0,0,1,BR
2026-03-25 05:00:00,METAR LEBB 250500Z 09002KT 6000 FEW024 SCT031 06/06 Q1023 TEMPO 3000 BR,0,2,0,6000,0,0,1,BR
2026-03-25 04:30:00,METAR LEBB 250430Z 09003KT 060V130 7000 FEW012 07/07 Q1023 NOSIG,0,3,0,7000,0,0,0,
2026-03-25 04:00:00,METAR LEBB 250400Z VRB02KT 7000 FEW001 SCT012 07/07 Q1023 NOSIG,0,2,0,7000,0,0,0,
2026-03-25 03:30:00,METAR LEBB 250330Z AUTO VRB02KT 6000 FEW002 OVC012 07/07 Q1023,0,2,0,6000,0,0,0,
2026-03-25 03:00:00,METAR LEBB 250300Z AUTO 10002KT 7000 FEW012 06/06 Q1022,0,2,0,7000,0,0,0,
2026-03-25 02:30:00,METAR LEBB 250230Z AUTO VRB01KT 8000 NCD 06/05 Q1022,0,1,0,8000,0,0,0,
2026-03-25 02:00:00,METAR LEBB 250200Z AUTO VRB02KT 7000 NCD 06/06 Q1022,0,2,0,7000,0,0,0,
2026-03-25 01:30:00,METAR LEBB 250130Z AUTO 08003KT 8000 NCD 07/06 Q1022,0,3,0,8000,0,0,0,
2026-03-25 01:00:00,METAR LEBB 250100Z AUTO 10003KT 8000 NCD 08/07 Q1022,0,3,0,8000,0,0,0,
2026-03-25 00:30:00,METAR LEBB 250030Z AUTO 09003KT 8000 NCD 08/07 Q1022,0,3,0,8000,0,0,0,
2026-03-25 00:00:00,METAR LEBB 250000Z AUTO 10004KT 8000 NCD 08/07 Q1022,0,4,0,8000,0,0,0,
2026-03-24 23:30:00,METAR LEBB 242330Z AUTO 11003KT 9000 NCD 08/07 Q1022,0,3,0,9000,0,0,0,
2026-03-24 23:00:00,METAR LEBB 242300Z AUTO 04003KT CAVOK 09/08 Q1022,1,0,0,9999,0,0,0,
2026-03-24 22:30:00,METAR LEBB 242230Z 17002KT CAVOK 09/08 Q1022 NOSIG,1,0,0,9999,0,0,0,
2026-03-24 22:00:00,METAR LEBB 242200Z 08003KT 040V140 CAVOK 10/09 Q1022 NOSIG,1,0,0,9999,0,0,0,
2026-03-24 21:30:00,METAR LEBB 242130Z VRB02KT CAVOK 10/09 Q1022 NOSIG,1,0,0,9999,0,0,0,
2026-03-24 21:00:00,METAR LEBB 242100Z VRB02KT CAVOK 11/09 Q1022 NOSIG,1,0,0,9999,0,0,0,
2026-03-24 20:30:00,METAR LEBB 242030Z 00000KT CAVOK 12/11 Q1022 NOSIG,1,0,0,9999,0,0,0,
2026-03-24 20:00:00,METAR LEBB 242000Z VRB02KT CAVOK 12/10 Q1022 NOSIG,1,0,0,9999,0,0,0,
2026-03-24 19:30:00,METAR LEBB 241930Z 29004KT CAVOK 12/10 Q1021 NOSIG,1,0,0,9999,0,0,0,
2026-03-24 19:00:00,METAR LEBB 241900Z 29007KT CAVOK 13/10 Q1021 NOSIG,1,0,0,9999,0,0,0,
2026-03-24 18:30:00,METAR LEBB 241830Z 28005KT CAVOK 14/10 Q1021 NOSIG,1,0,0,9999,0,0,0,
2026-03-24 18:00:00,METAR LEBB 241800Z 28006KT CAVOK 15/09 Q1020 NOSIG,1,0,0,9999,0,0,0,
2026-03-24 17:30:00,METAR LEBB 241730Z 28008KT 250V310 CAVOK 16/09 Q1020 NOSIG,1,0,0,9999,0,0,0,
2026-03-24 17:00:00,METAR LEBB 241700Z 29010KT CAVOK 17/09 Q1020 NOSIG,1,0,0,9999,0,0,0,
2026-03-24 16:30:00,METAR LEBB 241630Z 28010KT CAVOK 18/07 Q1020 NOSIG,1,0,0,9999,0,0,0,
2026-03-24 16:00:00,METAR LEBB 241600Z 28009KT CAVOK 19/08 Q1020 NOSIG,1,0,0,9999,0,0,0,
2026-03-24 15:30:00,METAR LEBB 241530Z 28009KT 240V300 CAVOK 19/08 Q1020 NOSIG,1,0,0,9999,0,0,0,
2026-03-24 15:00:00,METAR LEBB 241500Z 28009KT 240V300 CAVOK 20/08 Q1020 NOSIG,1,0,0,9999,0,0,0,
2026-03-24 14:30:00,METAR LEBB 241430Z 29009KT 260V320 CAVOK 20/09 Q1020 NOSIG,1,0,0,9999,0,0,0,
2026-03-24 14:00:00,METAR LEBB 241400Z 27007KT 170V330 CAVOK 20/09 Q1021 NOSIG,1,0,0,9999,0,0,0,
2026-03-24 13:30:00,METAR LEBB 241330Z VRB02KT CAVOK 21/03 Q1021 NOSIG,1,0,0,9999,0,0,0,
2026-03-24 13:00:00,METAR LEBB 241300Z VRB03KT CAVOK 20/03 Q1021 NOSIG,1,0,0,9999,0,0,0,
2026-03-24 12:30:00,METAR LEBB 241230Z VRB02KT CAVOK 20/03 Q1022 NOSIG,1,0,0,9999,0,0,0,
2026-03-24 12:00:00,METAR LEBB 241200Z 35004KT 300V100 CAVOK 19/06 Q1022 NOSIG,1,0,0,9999,0,0,0,
2026-03-24 11:30:00,METAR LEBB 241130Z VRB03KT CAVOK 19/06 Q1022 NOSIG,1,0,0,9999,0,0,0,
2026-03-24 11:00:00,METAR LEBB 241100Z 08006KT 030V140 CAVOK 18/06 Q1023 NOSIG,1,0,0,9999,0,0,0,
2026-03-24 10:30:00,METAR LEBB 241030Z 10004KT 030V170 CAVOK 17/07 Q1023 NOSIG,1,0,0,9999,0,0,0,
2026-03-24 10:00:00,METAR LEBB 241000Z 12004KT 070V160 CAVOK 15/06 Q1023 NOSIG,1,0,0,9999,0,0,0,
2026-03-24 09:30:00,METAR LEBB 240930Z 11004KT 070V160 CAVOK 13/07 Q1023 NOSIG,1,0,0,9999,0,0,0,
2026-03-24 09:00:00,METAR LEBB 240900Z 13005KT 090V150 9999 FEW030 11/07 Q1023 NOSIG,0,5,0,10000,0,0,0,
2026-03-24 08:30:00,METAR LEBB 240830Z 11004KT 080V140 9999 FEW030 10/06 Q1023 NOSIG,0,4,0,10000,0,0,0,
2026-03-24 08:00:00,METAR LEBB 240800Z 10003KT 070V150 9999 FEW030 08/05 Q1023 NOSIG,0,3,0,10000,0,0,0,
2026-03-24 07:30:00,METAR LEBB 240730Z VRB02KT 9999 FEW030 07/05 Q1023 NOSIG,0,2,0,10000,0,0,0,
2026-03-24 07:00:00,METAR LEBB 240700Z 07003KT 9999 FEW030 06/04 Q1023 NOSIG,0,3,0,10000,0,0,0,
2026-03-24 06:30:00,METAR LEBB 240630Z 11003KT 080V140 9999 FEW030 05/04 Q1023 NOSIG,0,3,0,10000,0,0,0,
2026-03-24 06:00:00,METAR LEBB 240600Z VRB02KT 8000 FEW030 05/04 Q1023 NOSIG,0,2,0,8000,0,0,0,
2026-03-24 05:30:00,METAR LEBB 240530Z VRB02KT 8000 FEW030 05/04 Q1023 NOSIG,0,2,0,8000,0,0,0,
2026-03-24 05:00:00,METAR LEBB 240500Z 08002KT 9999 FEW030 05/04 Q1023 NOSIG,0,2,0,10000,0,0,0,
2026-03-24 04:30:00,METAR LEBB 240430Z 08005KT 9999 FEW030 05/04 Q1023 NOSIG,0,5,0,10000,0,0,0,
2026-03-24 04:00:00,METAR LEBB 240400Z 09005KT 9999 FEW030 05/04 Q1023 NOSIG,0,5,0,10000,0,0,0,
2026-03-24 03:30:00,METAR LEBB 240330Z AUTO 09004KT 9000 NCD 05/04 Q1023,0,4,0,9000,0,0,0,
2026-03-24 03:00:00,METAR LEBB 240300Z AUTO 09004KT CAVOK 06/05 Q1023,1,0,0,9999,0,0,0,
2026-03-24 02:30:00,METAR LEBB 240230Z AUTO 08004KT 9000 NCD 06/05 Q1023,0,4,0,9000,0,0,0,
2026-03-24 02:00:00,METAR LEBB 240200Z AUTO 08003KT CAVOK 07/06 Q1023,1,0,0,9999,0,0,0,
2026-03-24 01:30:00,METAR LEBB 240130Z AUTO 09003KT CAVOK 06/05 Q1024,1,0,0,9999,0,0,0,
2026-03-24 01:00:00,METAR LEBB 240100Z AUTO 09004KT 060V120 CAVOK 07/06 Q1024,1,0,0,9999,0,0,0,
2026-03-24 00:30:00,METAR LEBB 240030Z AUTO 09003KT CAVOK 07/06 Q1024,1,0,0,9999,0,0,0,
2026-03-24 00:00:00,METAR LEBB 240000Z AUTO 09004KT CAVOK 07/07 Q1024,1,0,0,9999,0,0,0,
2026-03-23 23:30:00,METAR LEBB 232330Z AUTO 08004KT 9999 FEW013 07/07 Q1024,0,4,0,10000,0,0,0,
2026-03-23 23:00:00,METAR LEBB 232300Z AUTO 08004KT 9999 FEW013 08/07 Q1024,0,4,0,10000,0,0,0,
2026-03-23 22:30:00,METAR LEBB 232230Z 11003KT 080V140 9999 SCT014 08/07 Q1024 NOSIG,0,3,0,10000,0,0,0,
2026-03-23 22:00:00,METAR LEBB 232200Z 09003KT 030V140 9999 FEW013 09/08 Q1023 NOSIG,0,3,0,10000,0,0,0,
2026-03-23 21:30:00,METAR LEBB 232130Z COR 09003KT 030V140 9999 FEW013 09/08 Q1023 NOSIG,0,3,0,10000,0,0,0,
2026-03-23 21:00:00,METAR LEBB 232100Z VRB02KT CAVOK 09/08 Q1023 NOSIG,1,0,0,9999,0,0,0,
2026-03-23 20:30:00,METAR LEBB 232030Z 00000KT 9999 FEW030 10/08 Q1023 NOSIG,0,0,0,10000,0,0,0,
2026-03-23 20:00:00,METAR LEBB 232000Z 27002KT 9999 FEW030 11/09 Q1023 NOSIG,0,2,0,10000,0,0,0,
2026-03-23 19:30:00,METAR LEBB 231930Z VRB02KT 9999 FEW030 12/10 Q1022 NOSIG,0,2,0,10000,0,0,0,
2026-03-23 19:00:00,METAR LEBB 231900Z 34005KT 320V020 9999 FEW030 13/10 Q1022 NOSIG,0,5,0,10000,0,0,0,
2026-03-23 18:30:00,METAR LEBB 231830Z 29006KT 9999 FEW030 13/10 Q1021 NOSIG,0,6,0,10000,0,0,0,
2026-03-23 18:00:00,METAR LEBB 231800Z 31005KT 260V330 9999 FEW030 14/10 Q1021 NOSIG,0,5,0,10000,0,0,0,
2026-03-23 17:30:00,METAR LEBB 231730Z 33004KT 290V010 9999 FEW030 15/09 Q1021 NOSIG,0,4,0,10000,0,0,0,
2026-03-23 17:00:00,METAR LEBB 231700Z 34005KT 300V010 9999 FEW030 15/09 Q1021 NOSIG,0,5,0,10000,0,0,0,
2026-03-23 16:30:00,METAR LEBB 231630Z 35007KT 320V020 9999 FEW032 15/08 Q1020 NOSIG,0,7,0,10000,0,0,0,
2026-03-23 16:00:00,METAR LEBB 231600Z 35006KT 320V050 9999 FEW030 16/08 Q1020 NOSIG,0,6,0,10000,0,0,0,
2026-03-23 15:30:00,METAR LEBB 231530Z 33007KT 280V010 9999 FEW029 15/07 Q1020 NOSIG,0,7,0,10000,0,0,0,
2026-03-23 15:00:00,METAR LEBB 231500Z 32007KT 280V010 9000 FEW022 SCT032 15/08 Q1020 NOSIG,0,7,0,9000,0,0,0,
2026-03-23 14:30:00,METAR LEBB 231430Z 33008KT 290V010 9000 FEW019 SCT031 BKN058 15/09 Q1021 NOSIG,0,8,0,9000,0,0,0,
2026-03-23 14:00:00,METAR LEBB 231400Z 35008KT 300V030 9000 FEW019 SCT032 BKN062 15/10 Q1021 NOSIG,0,8,0,9000,0,0,0,
2026-03-23 13:30:00,METAR LEBB 231330Z 33008KT 280V010 9000 SCT023 BKN060 15/10 Q1021 NOSIG,0,8,0,9000,0,0,0,
2026-03-23 13:00:00,METAR LEBB 231300Z 31009KT 270V020 9000 FEW021 SCT031 16/09 Q1021 NOSIG,0,9,0,9000,0,0,0,
2026-03-23 12:30:00,METAR LEBB 231230Z 33008KT 280V030 9000 SCT025 SCT066 15/10 Q1021 NOSIG,0,8,0,9000,0,0,0,
2026-03-23 12:00:00,METAR LEBB 231200Z 30008KT 250V340 9999 SCT025 15/09 Q1021 NOSIG,0,8,0,10000,0,0,0,
2026-03-23 11:30:00,METAR LEBB 231130Z 30008KT 260V010 9999 FEW026 SCT068 15/09 Q1021 NOSIG,0,8,0,10000,0,0,0,
2026-03-23 11:00:00,METAR LEBB 231100Z 31010KT 280V350 9999 SCT027 15/09 Q1021 NOSIG,0,10,0,10000,0,0,0,
2026-03-23 10:30:00,METAR LEBB 231030Z 31009KT 260V340 9999 SCT028 15/09 Q1021 NOSIG,0,9,0,10000,0,0,0,
2026-03-23 10:00:00,METAR LEBB 231000Z 31008KT 9999 SCT028 14/08 Q1020 NOSIG,0,8,0,10000,0,0,0,
2026-03-23 09:30:00,METAR LEBB 230930Z 27005KT 220V300 9999 FEW028 14/07 Q1020 NOSIG,0,5,0,10000,0,0,0,
2026-03-23 09:00:00,METAR LEBB 230900Z 27003KT 210V320 9999 FEW027 13/08 Q1019 NOSIG,0,3,0,10000,0,0,0,
2026-03-23 08:30:00,METAR LEBB 230830Z VRB01KT 9000 FEW036 12/08 Q1019 NOSIG,0,1,0,9000,0,0,0,
2026-03-23 08:00:00,METAR LEBB 230800Z 11003KT 060V150 9000 FEW036 BKN067 10/08 Q1019 NOSIG,0,3,0,9000,0,0,0,
2026-03-23 07:30:00,METAR LEBB 230730Z 00000KT 9000 FEW022 SCT036 BKN070 09/07 Q1019 NOSIG,0,0,0,9000,0,0,0,
2026-03-23 07:00:00,METAR LEBB 230700Z VRB02KT 9000 FEW022 SCT035 BKN070 09/07 Q1019 NOSIG,0,2,0,9000,0,0,0,
2026-03-23 06:30:00,METAR LEBB 230630Z VRB01KT 8000 FEW021 SCT038 BKN067 08/07 Q1018 NOSIG,0,1,0,8000,0,0,0,
2026-03-23 06:00:00,METAR LEBB 230600Z 09003KT 8000 FEW021 SCT041 BKN067 08/07 Q1018 NOSIG,0,3,0,8000,0,0,0,
2026-03-23 05:30:00,METAR LEBB 230530Z VRB02KT 9999 SCT023 SCT040 BKN065 08/06 Q1018 NOSIG,0,2,0,10000,0,0,0,
2026-03-23 05:00:00,METAR LEBB 230500Z 07002KT 9999 FEW022 SCT035 BKN049 08/06 Q1017 NOSIG,0,2,0,10000,0,0,0,
2026-03-23 04:30:00,METAR LEBB 230430Z 11004KT 9999 FEW037 SCT050 08/06 Q1017 NOSIG,0,4,0,10000,0,0,0,
2026-03-23 04:00:00,METAR LEBB 230400Z 00000KT 9999 FEW025 SCT045 BKN060 10/07 Q1017 NOSIG,0,0,0,10000,0,0,0,
2026-03-23 03:30:00,METAR LEBB 230330Z AUTO VRB02KT 9999 OVC025 09/07 Q1017,0,2,0,10000,0,0,0,
2026-03-23 03:00:00,METAR LEBB 230300Z AUTO VRB02KT 9999 BKN026 BKN031 10/07 Q1017,0,2,0,10000,0,0,0,
2026-03-23 02:30:00,METAR LEBB 230230Z AUTO VRB01KT 9999 FEW032 10/06 Q1017,0,1,0,10000,0,0,0,
2026-03-23 02:00:00,METAR LEBB 230200Z AUTO 32004KT 9999 BKN029 10/07 Q1017,0,4,0,10000,0,0,0,
2026-03-23 01:30:00,METAR LEBB 230130Z AUTO 32005KT 9999 SCT028 10/07 Q1017,0,5,0,10000,0,0,0,
2026-03-23 01:00:00,METAR LEBB 230100Z AUTO 31005KT 9999 SCT029 SCT034 11/07 Q1017,0,5,0,10000,0,0,0,
2026-03-23 00:30:00,METAR LEBB 230030Z AUTO 31005KT 9999 BKN026 BKN032 11/08 Q1017,0,5,0,10000,0,0,0,
2026-03-23 00:00:00,METAR LEBB 230000Z AUTO 33006KT 290V350 9999 SCT023 BKN029 12/08 Q1016,0,6,0,10000,0,0,0,
2026-03-22 23:30:00,METAR LEBB 222330Z AUTO 32004KT 290V350 9999 BKN024 OVC032 12/09 Q1016,0,4,0,10000,0,0,0,
2026-03-22 23:00:00,METAR LEBB 222300Z AUTO 32004KT 280V350 9999 SCT023 BKN031 OVC037 12/09 Q1016,0,4,0,10000,0,0,0,
2026-03-22 22:30:00,METAR LEBB 222230Z 32004KT 9999 OVC024 12/09 Q1016 NOSIG,0,4,0,10000,0,0,0,
2026-03-22 22:00:00,METAR LEBB 222200Z 31003KT 9999 OVC025 12/09 Q1016 NOSIG,0,3,0,10000,0,0,0,
2026-03-22 21:30:00,METAR LEBB 222130Z 29004KT 260V320 9999 BKN028 12/10 Q1016 TEMPO BKN010,0,4,0,10000,0,0,0,
2026-03-22 21:00:00,METAR LEBB 222100Z 31004KT 9999 BKN025 OVC031 12/10 Q1016 TEMPO BKN010,0,4,0,10000,0,0,0,
2026-03-22 20:30:00,METAR LEBB 222030Z 32004KT 9000 BKN022 BKN030 OVC044 12/10 Q1016 TEMPO BKN010,0,4,0,9000,0,0,0,
2026-03-22 20:00:00,METAR LEBB 222000Z 32004KT 9000 FEW017 BKN023 OVC028 12/10 Q1016 TEMPO BKN010,0,4,0,9000,0,0,0,
2026-03-22 19:30:00,METAR LEBB 221930Z 32004KT 280V350 9000 SCT015 BKN023 OVC044 13/11 Q1015 TEMPO BKN010,0,4,0,9000,0,0,0,
2026-03-22 19:00:00,METAR LEBB 221900Z 32007KT 280V350 9000 SCT022 BKN029 BKN045 13/11 Q1015 TEMPO BKN010,0,7,0,9000,0,0,0,
2026-03-22 18:30:00,METAR LEBB 221830Z 33008KT 310V010 8000 FEW014 SCT020 BKN056 13/11 Q1015 TEMPO BKN010,0,8,0,8000,0,0,0,
2026-03-22 18:00:00,METAR LEBB 221800Z 29007KT 260V320 8000 BKN015 BKN020 BKN028 14/11 Q1014 TEMPO BKN010,0,7,0,8000,0,0,0,
2026-03-22 17:30:00,METAR LEBB 221730Z 29008KT 260V320 9000 BKN015 BKN021 OVC026 14/11 Q1014 TEMPO BKN010,0,8,0,9000,0,0,0,
2026-03-22 17:00:00,METAR LEBB 221700Z 29008KT 260V320 9000 BKN015 BKN022 OVC034 14/11 Q1014 TEMPO BKN010,0,8,0,9000,0,0,0,
2026-03-22 16:30:00,METAR LEBB 221630Z 30008KT 260V330 9999 SCT015 BKN020 OVC030 14/11 Q1014 TEMPO BKN010,0,8,0,10000,0,0,0,
2026-03-22 16:00:00,METAR LEBB 221600Z 30009KT 9999 SCT015 BKN021 15/11 Q1014 TEMPO BKN010,0,9,0,10000,0,0,0,
2026-03-22 15:30:00,METAR LEBB 221530Z 30010KT 260V340 9999 SCT015 OVC020 15/11 Q1014 NOSIG,0,10,0,10000,0,0,0,
2026-03-22 15:00:00,METAR LEBB 221500Z 30012KT 270V340 9999 SCT014 BKN019 OVC024 15/11 Q1014 NOSIG,0,12,0,10000,0,0,0,
2026-03-22 14:30:00,METAR LEBB 221430Z 30012KT 270V340 9999 SCT015 BKN020 15/11 Q1014 NOSIG,0,12,0,10000,0,0,0,
2026-03-22 14:00:00,METAR LEBB 221400Z 30013KT 9999 SCT015 BKN021 16/11 Q1014 NOSIG,0,13,0,10000,0,0,0,
2026-03-22 13:30:00,METAR LEBB 221330Z 30014KT 260V340 9999 FEW018 16/10 Q1014 NOSIG,0,14,0,10000,0,0,0,
2026-03-22 12:30:00,METAR LEBB 221230Z 31014KT 280V350 CAVOK 17/07 Q1014 NOSIG,1,0,0,9999,0,0,0,
2026-03-22 12:00:00,METAR LEBB 221200Z 31012KT 280V350 CAVOK 17/09 Q1014 NOSIG,1,0,0,9999,0,0,0,
2026-03-22 11:30:00,METAR LEBB 221130Z 33010KT 300V360 CAVOK 16/07 Q1014 NOSIG,1,0,0,9999,0,0,0,
2026-03-22 10:30:00,METAR LEBB 221030Z VRB03KT CAVOK 16/08 Q1014 NOSIG,1,0,0,9999,0,0,0,
2026-03-22 10:00:00,METAR LEBB 221000Z VRB03KT CAVOK 14/07 Q1014 NOSIG,1,0,0,9999,0,0,0,
2026-03-22 09:30:00,METAR LEBB 220930Z 00000KT CAVOK 14/07 Q1014 NOSIG,1,0,0,9999,0,0,0,
2026-03-22 08:30:00,METAR LEBB 220830Z VRB02KT CAVOK 10/07 Q1014 NOSIG,1,0,0,9999,0,0,0,
2026-03-22 08:00:00,METAR LEBB 220800Z 08003KT 030V110 CAVOK 09/07 Q1014 NOSIG,1,0,0,9999,0,0,0,
2026-03-22 07:30:00,METAR LEBB 220730Z VRB02KT CAVOK 08/06 Q1014 NOSIG,1,0,0,9999,0,0,0,
2026-03-22 07:00:00,METAR LEBB 220700Z 11003KT 080V140 CAVOK 07/06 Q1014 NOSIG,1,0,0,9999,0,0,0,
2026-03-22 06:30:00,METAR LEBB 220630Z VRB01KT CAVOK 07/06 Q1013 NOSIG,1,0,0,9999,0,0,0,
2026-03-22 06:00:00,METAR LEBB 220600Z VRB02KT CAVOK 06/05 Q1013 NOSIG,1,0,0,9999,0,0,0,
2026-03-22 05:30:00,METAR LEBB 220530Z 09003KT CAVOK 07/06 Q1013 NOSIG,1,0,0,9999,0,0,0,
2026-03-22 05:00:00,METAR LEBB 220500Z 06003KT 020V090 CAVOK 08/07 Q1013 NOSIG,1,0,0,9999,0,0,0,
2026-03-22 04:30:00,METAR LEBB 220430Z 12003KT 090V170 CAVOK 08/07 Q1013 NOSIG,1,0,0,9999,0,0,0,
2026-03-22 03:30:00,METAR LEBB 220330Z AUTO 12003KT 9999 BKN012 09/08 Q1013,0,3,0,10000,0,0,0,
2026-03-22 03:00:00,METAR LEBB 220300Z AUTO 08003KT 030V120 9999 OVC012 09/08 Q1013,0,3,0,10000,0,0,0,
2026-03-22 02:30:00,METAR LEBB 220230Z AUTO VRB02KT 9999 OVC013 09/08 Q1013,0,2,0,10000,0,0,0,
2026-03-22 02:00:00,METAR LEBB 220200Z AUTO VRB02KT 9999 OVC013 10/08 Q1013,0,2,0,10000,0,0,0,
2026-03-22 01:30:00,METAR LEBB 220130Z AUTO 00000KT 9999 OVC013 10/08 Q1013,0,0,0,10000,0,0,0,
2026-03-22 01:00:00,METAR LEBB 220100Z AUTO 00000KT 9999 OVC014 09/08 Q1013,0,0,0,10000,0,0,0,
2026-03-22 00:30:00,METAR LEBB 220030Z AUTO 00000KT 9999 OVC014 10/09 Q1013,0,0,0,10000,0,0,0,
2026-03-22 00:00:00,METAR LEBB 220000Z AUTO 17001KT 9999 OVC014 09/08 Q1013,0,1,0,10000,0,0,0,
2026-03-21 23:30:00,METAR LEBB 212330Z AUTO 05003KT 9999 BKN013 10/08 Q1013,0,3,0,10000,0,0,0,
2026-03-21 23:00:00,METAR LEBB 212300Z AUTO VRB02KT 9999 OVC011 09/08 Q1013,0,2,0,10000,0,0,0,
2026-03-21 22:30:00,METAR LEBB 212230Z VRB02KT 9999 SCT011 09/08 Q1013 NOSIG,0,2,0,10000,0,0,0,
2026-03-21 21:30:00,METAR LEBB 212130Z VRB01KT 9999 FEW011 10/08 Q1013 NOSIG,0,1,0,10000,0,0,0,
2026-03-21 21:00:00,METAR LEBB 212100Z VRB02KT 9999 FEW010 11/09 Q1013 NOSIG,0,2,0,10000,0,0,0,
2026-03-21 20:30:00,METAR LEBB 212030Z VRB01KT CAVOK 11/08 Q1013 NOSIG,1,0,0,9999,0,0,0,
2026-03-21 19:30:00,METAR LEBB 211930Z VRB01KT CAVOK 12/10 Q1012 NOSIG,1,0,0,9999,0,0,0,
2026-03-21 19:00:00,METAR LEBB 211900Z 28004KT CAVOK 12/10 Q1012 NOSIG,1,0,0,9999,0,0,0,
2026-03-21 18:30:00,METAR LEBB 211830Z 28004KT CAVOK 13/10 Q1012 NOSIG,1,0,0,9999,0,0,0,
2026-03-21 18:00:00,METAR LEBB 211800Z 28006KT 240V310 CAVOK 14/11 Q1011 NOSIG,1,0,0,9999,0,0,0,
2026-03-21 17:30:00,METAR LEBB 211730Z 28008KT CAVOK 15/10 Q1011 NOSIG,1,0,0,9999,0,0,0,
2026-03-21 17:00:00,METAR LEBB 211700Z 28007KT 230V300 CAVOK 16/10 Q1011 NOSIG,1,0,0,9999,0,0,0,
2026-03-21 16:30:00,METAR LEBB 211630Z 28008KT CAVOK 17/09 Q1011 NOSIG,1,0,0,9999,0,0,0,
2026-03-21 16:00:00,METAR LEBB 211600Z 28009KT 250V310 CAVOK 17/10 Q1011 NOSIG,1,0,0,9999,0,0,0,
2026-03-21 15:30:00,METAR LEBB 211530Z 28009KT 240V300 CAVOK 17/11 Q1010 NOSIG,1,0,0,9999,0,0,0,
2026-03-21 14:30:00,METAR LEBB 211430Z 28011KT 240V300 9999 FEW030 18/12 Q1011 NOSIG,0,11,0,10000,0,0,0,
2026-03-21 14:00:00,METAR LEBB 211400Z 28011KT 240V300 9999 FEW030 18/10 Q1011 NOSIG,0,11,0,10000,0,0,0,
2026-03-21 13:30:00,METAR LEBB 211330Z 29009KT 240V330 9999 FEW030 18/09 Q1011 NOSIG,0,9,0,10000,0,0,0,
2026-03-21 13:00:00,METAR LEBB 211300Z 34009KT 310V020 9999 FEW030 19/06 Q1011 NOSIG,0,9,0,10000,0,0,0,
2026-03-21 12:30:00,METAR LEBB 211230Z 35011KT 310V020 CAVOK 20/06 Q1011 NOSIG,1,0,0,9999,0,0,0,
2026-03-21 12:00:00,METAR LEBB 211200Z VRB04G15KT CAVOK 20/03 Q1011 NOSIG,1,0,0,9999,0,0,0,
2026-03-21 11:30:00,METAR LEBB 211130Z VRB02KT CAVOK 20/03 Q1011 NOSIG,1,0,0,9999,0,0,0,
2026-03-21 11:00:00,METAR LEBB 211100Z VRB02KT CAVOK 19/03 Q1011 NOSIG,1,0,0,9999,0,0,0,
2026-03-21 10:30:00,METAR LEBB 211030Z VRB02KT CAVOK 19/03 Q1012 NOSIG,1,0,0,9999,0,0,0,
2026-03-21 10:00:00,METAR LEBB 211000Z VRB02KT CAVOK 18/01 Q1012 NOSIG,1,0,0,9999,0,0,0,
2026-03-21 09:30:00,METAR LEBB 210930Z VRB04KT CAVOK 17/01 Q1012 NOSIG,1,0,0,9999,0,0,0,
2026-03-21 09:00:00,METAR LEBB 210900Z VRB02KT CAVOK 16/02 Q1012 NOSIG,1,0,0,9999,0,0,0,
2026-03-21 08:30:00,METAR LEBB 210830Z 09003KT 350V160 CAVOK 16/02 Q1012 NOSIG,1,0,0,9999,0,0,0,
2026-03-21 08:00:00,METAR LEBB 210800Z 00000KT CAVOK 14/03 Q1012 NOSIG,1,0,0,9999,0,0,0,
2026-03-21 07:30:00,METAR LEBB 210730Z VRB01KT CAVOK 12/04 Q1011 NOSIG,1,0,0,9999,0,0,0,
2026-03-21 07:00:00,METAR LEBB 210700Z VRB02KT CAVOK 11/02 Q1011 NOSIG,1,0,0,9999,0,0,0,
2026-03-21 06:30:00,METAR LEBB 210630Z VRB01KT CAVOK 10/02 Q1011 NOSIG,1,0,0,9999,0,0,0,
2026-03-21 06:00:00,METAR LEBB 210600Z 14003KT 080V190 CAVOK 11/01 Q1011 NOSIG,1,0,0,9999,0,0,0,
2026-03-21 05:30:00,METAR LEBB 210530Z 12003KT 080V170 CAVOK 11/01 Q1011 NOSIG,1,0,0,9999,0,0,0,
2026-03-21 05:00:00,METAR LEBB 210500Z VRB02KT CAVOK 10/01 Q1011 NOSIG,1,0,0,9999,0,0,0,
2026-03-21 04:30:00,METAR LEBB 210430Z 11005KT 080V140 CAVOK 11/01 Q1011 NOSIG,1,0,0,9999,0,0,0,
2026-03-21 04:00:00,METAR LEBB 210400Z VRB02KT CAVOK 11/01 Q1011 NOSIG,1,0,0,9999,0,0,0,
2026-03-21 03:30:00,METAR LEBB 210330Z AUTO VRB04KT CAVOK 11/01 Q1011,1,0,0,9999,0,0,0,
2026-03-21 03:00:00,METAR LEBB 210300Z AUTO 12007KT 080V140 CAVOK 13/00 Q1011,1,0,0,9999,0,0,0,
2026-03-21 02:30:00,METAR LEBB 210230Z AUTO 12007KT 080V150 CAVOK 12/01 Q1011,1,0,0,9999,0,0,0,
2026-03-21 02:00:00,METAR LEBB 210200Z AUTO 11007KT 080V140 CAVOK 12/01 Q1011,1,0,0,9999,0,0,0,
2026-03-21 01:30:00,METAR LEBB 210130Z AUTO 10008KT 080V140 CAVOK 13/01 Q1011,1,0,0,9999,0,0,0,
2026-03-21 01:00:00,METAR LEBB 210100Z AUTO 09006KT 070V130 CAVOK 14/01 Q1011,1,0,0,9999,0,0,0,
2026-03-21 00:30:00,METAR LEBB 210030Z AUTO 10007KT 080V140 CAVOK 13/02 Q1011,1,0,0,9999,0,0,0,
2026-03-21 00:00:00,METAR LEBB 210000Z AUTO 12005KT 080V160 CAVOK 13/02 Q1011,1,0,0,9999,0,0,0,
2026-03-20 23:30:00,METAR LEBB 202330Z AUTO 12006KT 080V150 CAVOK 12/02 Q1011,1,0,0,9999,0,0,0,
2026-03-20 23:00:00,METAR LEBB 202300Z AUTO 11006KT 080V140 CAVOK 13/02 Q1011,1,0,0,9999,0,0,0,
2026-03-20 22:30:00,METAR LEBB 202230Z 11007KT 080V170 CAVOK 14/03 Q1012 NOSIG,1,0,0,9999,0,0,0,
2026-03-20 21:30:00,METAR LEBB 202130Z VRB02KT CAVOK 16/02 Q1012 NOSIG,1,0,0,9999,0,0,0,
2026-03-20 21:00:00,METAR LEBB 202100Z 11005KT 080V150 CAVOK 15/03 Q1012 NOSIG,1,0,0,9999,0,0,0,
2026-03-20 20:30:00,METAR LEBB 202030Z 12008KT CAVOK 15/03 Q1011 NOSIG,1,0,0,9999,0,0,0,
2026-03-20 20:00:00,METAR LEBB 202000Z 12006KT 080V150 CAVOK 16/03 Q1011 NOSIG,1,0,0,9999,0,0,0,
2026-03-20 19:30:00,METAR LEBB 201930Z 13007KT 080V180 CAVOK 17/03 Q1011 NOSIG,1,0,0,9999,0,0,0,
2026-03-20 19:00:00,METAR LEBB 201900Z 15008KT 110V200 CAVOK 18/02 Q1011 NOSIG,1,0,0,9999,0,0,0,
2026-03-20 18:30:00,METAR LEBB 201830Z 14010KT 100V170 CAVOK 18/02 Q1011 NOSIG,1,0,0,9999,0,0,0,
2026-03-20 18:00:00,METAR LEBB 201800Z 14010KT 110V200 CAVOK 19/02 Q1010 NOSIG,1,0,0,9999,0,0,0,
2026-03-20 17:30:00,METAR LEBB 201730Z 13009KT 100V160 CAVOK 20/04 Q1010 NOSIG,1,0,0,9999,0,0,0,
2026-03-20 17:00:00,METAR LEBB 201700Z 14009KT 100V170 CAVOK 20/03 Q1010 NOSIG,1,0,0,9999,0,0,0,
2026-03-20 16:30:00,METAR LEBB 201630Z 15008KT 110V190 CAVOK 21/03 Q1010 NOSIG,1,0,0,9999,0,0,0,
2026-03-20 16:00:00,METAR LEBB 201600Z 14009KT 110V180 CAVOK 21/04 Q1010 NOSIG,1,0,0,9999,0,0,0,
2026-03-20 15:30:00,METAR LEBB 201530Z 13008KT 100V210 CAVOK 22/05 Q1010 NOSIG,1,0,0,9999,0,0,0,
2026-03-20 15:00:00,METAR LEBB 201500Z 14009KT 080V190 CAVOK 22/05 Q1010 NOSIG,1,0,0,9999,0,0,0,
2026-03-20 14:30:00,METAR LEBB 201430Z 13012KT 100V160 CAVOK 22/05 Q1010 NOSIG,1,0,0,9999,0,0,0,
2026-03-20 14:00:00,METAR LEBB 201400Z 12009KT 070V170 CAVOK 22/05 Q1010 NOSIG,1,0,0,9999,0,0,0,
2026-03-20 13:30:00,METAR LEBB 201330Z 13011KT 080V170 CAVOK 21/04 Q1011 NOSIG,1,0,0,9999,0,0,0,
2026-03-20 12:30:00,METAR LEBB 201230Z 11012KT 080V140 CAVOK 21/04 Q1011 NOSIG,1,0,0,9999,0,0,0,
2026-03-20 11:30:00,METAR LEBB 201130Z 14008KT 100V190 CAVOK 20/04 Q1012 NOSIG,1,0,0,9999,0,0,0,
2026-03-20 10:30:00,METAR LEBB 201030Z 15009KT 110V230 CAVOK 18/03 Q1013 NOSIG,1,0,0,9999,0,0,0,
2026-03-20 10:00:00,METAR LEBB 201000Z 14008KT 080V200 CAVOK 18/03 Q1013 NOSIG,1,0,0,9999,0,0,0,
2026-03-20 09:30:00,METAR LEBB 200930Z 13008KT 080V190 CAVOK 17/03 Q1013 NOSIG,1,0,0,9999,0,0,0,
2026-03-20 09:00:00,METAR LEBB 200900Z 13007KT 080V190 CAVOK 16/04 Q1013 NOSIG,1,0,0,9999,0,0,0,
2026-03-20 08:30:00,METAR LEBB 200830Z 12009KT 090V150 CAVOK 16/04 Q1013 NOSIG,1,0,0,9999,0,0,0,
2026-03-20 08:00:00,METAR LEBB 200800Z 11005KT 070V160 CAVOK 15/05 Q1013 NOSIG,1,0,0,9999,0,0,0,
2026-03-20 07:30:00,METAR LEBB 200730Z 15006KT 120V190 CAVOK 14/05 Q1013 NOSIG,1,0,0,9999,0,0,0,
2026-03-20 06:30:00,METAR LEBB 200630Z 08005KT 020V130 CAVOK 12/04 Q1013 NOSIG,1,0,0,9999,0,0,0,
2026-03-20 06:00:00,METAR LEBB 200600Z 11006KT 060V140 CAVOK 13/04 Q1012 NOSIG,1,0,0,9999,0,0,0,
2026-03-20 05:30:00,METAR LEBB 200530Z 11006KT 080V140 CAVOK 13/04 Q1012 NOSIG,1,0,0,9999,0,0,0,
2026-03-20 05:00:00,METAR LEBB 200500Z 08006KT 050V130 CAVOK 14/04 Q1012 NOSIG,1,0,0,9999,0,0,0,
2026-03-20 04:30:00,METAR LEBB 200430Z 07006KT 020V140 CAVOK 14/05 Q1012 NOSIG,1,0,0,9999,0,0,0,
2026-03-20 04:00:00,METAR LEBB 200400Z 08003KT 010V150 CAVOK 13/05 Q1012 NOSIG,1,0,0,9999,0,0,0,
2026-03-20 03:30:00,METAR LEBB 200330Z AUTO VRB05KT CAVOK 14/05 Q1012,1,0,0,9999,0,0,0,
2026-03-20 03:00:00,METAR LEBB 200300Z AUTO 08003KT 030V130 CAVOK 14/05 Q1012,1,0,0,9999,0,0,0,
2026-03-20 02:30:00,METAR LEBB 200230Z AUTO 08005KT 030V150 CAVOK 14/05 Q1012,1,0,0,9999,0,0,0,
2026-03-20 02:00:00,METAR LEBB 200200Z AUTO 05005KT 350V130 CAVOK 14/05 Q1013,1,0,0,9999,0,0,0,
2026-03-20 01:30:00,METAR LEBB 200130Z AUTO 09007KT 050V130 CAVOK 14/05 Q1013,1,0,0,9999,0,0,0,
2026-03-20 01:00:00,METAR LEBB 200100Z AUTO VRB02KT CAVOK 13/05 Q1013,1,0,0,9999,0,0,0,
2026-03-20 00:30:00,METAR LEBB 200030Z AUTO VRB01KT CAVOK 14/06 Q1013,1,0,0,9999,0,0,0,
2026-03-20 00:00:00,METAR LEBB 200000Z AUTO VRB06KT CAVOK 15/06 Q1013,1,0,0,9999,0,0,0,
2026-03-19 23:30:00,METAR LEBB 192330Z AUTO 12010KT 080V150 CAVOK 15/06 Q1013,1,0,0,9999,0,0,0,
2026-03-19 23:00:00,METAR LEBB 192300Z 11009KT 060V170 CAVOK 15/06 Q1013 NOSIG,1,0,0,9999,0,0,0,
2026-03-19 22:30:00,METAR LEBB 192230Z 11008KT 070V150 CAVOK 15/06 Q1013 NOSIG,1,0,0,9999,0,0,0,
2026-03-19 22:00:00,METAR LEBB 192200Z 10007KT 070V140 CAVOK 15/06 Q1013 NOSIG,1,0,0,9999,0,0,0,
2026-03-19 21:30:00,METAR LEBB 192130Z 12008KT 060V170 CAVOK 15/07 Q1013 NOSIG,1,0,0,9999,0,0,0,
2026-03-19 21:00:00,METAR LEBB 192100Z 12008KT 080V160 CAVOK 15/07 Q1013 NOSIG,1,0,0,9999,0,0,0,
2026-03-19 20:30:00,METAR LEBB 192030Z 12011KT 080V150 CAVOK 15/07 Q1013 NOSIG,1,0,0,9999,0,0,0,
2026-03-19 20:00:00,METAR LEBB 192000Z 13009KT 070V170 CAVOK 16/07 Q1013 NOSIG,1,0,0,9999,0,0,0,
2026-03-19 19:30:00,METAR LEBB 191930Z 13012KT 100V190 CAVOK 16/07 Q1013 NOSIG,1,0,0,9999,0,0,0,
2026-03-19 19:00:00,METAR LEBB 191900Z 15009KT 110V200 CAVOK 17/07 Q1012 NOSIG,1,0,0,9999,0,0,0,
2026-03-19 18:30:00,METAR LEBB 191830Z 14011G21KT 110V170 CAVOK 17/07 Q1012 NOSIG,1,0,0,9999,0,0,0,
2026-03-19 18:00:00,METAR LEBB 191800Z 14008KT 110V190 CAVOK 18/07 Q1012 NOSIG,1,0,0,9999,0,0,0,
2026-03-19 17:30:00,METAR LEBB 191730Z 15008KT 110V190 CAVOK 19/07 Q1011 NOSIG,1,0,0,9999,0,0,0,
2026-03-19 17:00:00,METAR LEBB 191700Z 13008KT 100V160 CAVOK 20/08 Q1011 NOSIG,1,0,0,9999,0,0,0,
2026-03-19 16:30:00,METAR LEBB 191630Z 14010KT 110V190 CAVOK 21/08 Q1011 NOSIG,1,0,0,9999,0,0,0,
2026-03-19 16:00:00,METAR LEBB 191600Z 13010KT 080V190 CAVOK 21/08 Q1011 NOSIG,1,0,0,9999,0,0,0,
2026-03-19 15:30:00,METAR LEBB 191530Z 14010KT 100V180 CAVOK 21/08 Q1011 NOSIG,1,0,0,9999,0,0,0,
2026-03-19 15:00:00,METAR LEBB 191500Z 13011KT 080V190 CAVOK 21/08 Q1011 NOSIG,1,0,0,9999,0,0,0,
2026-03-19 14:30:00,METAR LEBB 191430Z 11013KT 080V140 CAVOK 21/08 Q1011 NOSIG,1,0,0,9999,0,0,0,
2026-03-19 14:00:00,METAR LEBB 191400Z 12012KT 080V160 CAVOK 21/08 Q1011 NOSIG,1,0,0,9999,0,0,0,
2026-03-19 13:30:00,METAR LEBB 191330Z 12013KT 080V150 CAVOK 21/08 Q1011 NOSIG,1,0,0,9999,0,0,0,
2026-03-19 13:00:00,METAR LEBB 191300Z 13011G21KT 060V180 CAVOK 21/08 Q1012 NOSIG,1,0,0,9999,0,0,0,
2026-03-19 12:30:00,METAR LEBB 191230Z 12014KT 080V160 CAVOK 21/08 Q1012 NOSIG,1,0,0,9999,0,0,0,
2026-03-19 12:00:00,METAR LEBB 191200Z 12012KT 070V170 CAVOK 21/08 Q1012 NOSIG,1,0,0,9999,0,0,0,
2026-03-19 11:30:00,METAR LEBB 191130Z 11015KT 080V140 CAVOK 20/08 Q1012 NOSIG,1,0,0,9999,0,0,0,
2026-03-19 11:00:00,METAR LEBB 191100Z 11012KT 080V140 CAVOK 19/08 Q1012 NOSIG,1,0,0,9999,0,0,0,
2026-03-19 10:30:00,METAR LEBB 191030Z 14008KT 060V200 CAVOK 19/08 Q1012 NOSIG,1,0,0,9999,0,0,0,
2026-03-19 10:00:00,METAR LEBB 191000Z VRB06KT CAVOK 18/08 Q1012 NOSIG,1,0,0,9999,0,0,0,
2026-03-19 09:30:00,METAR LEBB 190930Z 16007KT 110V250 CAVOK 18/08 Q1012 NOSIG,1,0,0,9999,0,0,0,
2026-03-19 09:00:00,METAR LEBB 190900Z 14008KT 080V210 CAVOK 17/08 Q1012 NOSIG,1,0,0,9999,0,0,0,
2026-03-19 08:30:00,METAR LEBB 190830Z 15006KT 090V200 CAVOK 16/08 Q1012 NOSIG,1,0,0,9999,0,0,0,
2026-03-19 08:00:00,METAR LEBB 190800Z 14007KT 110V170 CAVOK 15/08 Q1012 NOSIG,1,0,0,9999,0,0,0,
2026-03-19 07:30:00,METAR LEBB 190730Z VRB06KT CAVOK 14/07 Q1012 NOSIG,1,0,0,9999,0,0,0,
2026-03-19 07:00:00,METAR LEBB 190700Z 08007KT 040V140 CAVOK 13/07 Q1011 NOSIG,1,0,0,9999,0,0,0,
2026-03-19 06:30:00,METAR LEBB 190630Z VRB05KT CAVOK 13/06 Q1011 NOSIG,1,0,0,9999,0,0,0,
2026-03-19 06:00:00,METAR LEBB 190600Z 14005KT 070V200 CAVOK 13/06 Q1011 NOSIG,1,0,0,9999,0,0,0,
2026-03-19 05:30:00,METAR LEBB 190530Z 10004KT 040V180 CAVOK 13/06 Q1010 NOSIG,1,0,0,9999,0,0,0,
2026-03-19 05:00:00,METAR LEBB 190500Z 10006KT 060V170 CAVOK 13/07 Q1010 NOSIG,1,0,0,9999,0,0,0,
2026-03-19 04:30:00,METAR LEBB 190430Z 11008KT 070V170 CAVOK 14/06 Q1010 NOSIG,1,0,0,9999,0,0,0,
2026-03-19 04:00:00,METAR LEBB 190400Z 11010KT 080V140 CAVOK 13/06 Q1010 NOSIG,1,0,0,9999,0,0,0,
2026-03-19 03:30:00,METAR LEBB 190330Z AUTO 10010KT 050V160 CAVOK 14/06 Q1009,1,0,0,9999,0,0,0,
2026-03-19 03:00:00,METAR LEBB 190300Z AUTO 12010KT 080V140 CAVOK 14/07 Q1009,1,0,0,9999,0,0,0,
2026-03-19 02:30:00,METAR LEBB 190230Z AUTO 11012KT 080V140 CAVOK 14/07 Q1009,1,0,0,9999,0,0,0,
2026-03-19 02:00:00,METAR LEBB 190200Z AUTO 12012KT 080V160 CAVOK 14/07 Q1009,1,0,0,9999,0,0,0,
2026-03-19 01:30:00,METAR LEBB 190130Z AUTO 12005G16KT 070V160 CAVOK 13/08 Q1009,1,0,0,9999,0,0,0,
2026-03-19 01:00:00,METAR LEBB 190100Z AUTO VRB01KT CAVOK 09/08 Q1009,1,0,0,9999,0,0,0,
2026-03-19 00:30:00,METAR LEBB 190030Z AUTO 09003KT CAVOK 10/09 Q1009,1,0,0,9999,0,0,0,
2026-03-19 00:00:00,METAR LEBB 190000Z AUTO 10004KT CAVOK 10/09 Q1009,1,0,0,9999,0,0,0,
2026-03-18 23:30:00,METAR LEBB 182330Z AUTO 09005KT CAVOK 11/09 Q1009,1,0,0,9999,0,0,0,
2026-03-18 23:00:00,METAR LEBB 182300Z AUTO 08005KT CAVOK 11/09 Q1008,1,0,0,9999,0,0,0,
2026-03-18 22:30:00,METAR LEBB 182230Z 08005KT CAVOK 11/09 Q1008 NOSIG,1,0,0,9999,0,0,0,
2026-03-18 22:00:00,METAR LEBB 182200Z 08005KT 040V110 CAVOK 12/10 Q1008 NOSIG,1,0,0,9999,0,0,0,
2026-03-18 21:30:00,METAR LEBB 182130Z 10004KT 050V140 CAVOK 11/09 Q1008 NOSIG,1,0,0,9999,0,0,0,
2026-03-18 21:00:00,METAR LEBB 182100Z VRB02KT CAVOK 12/10 Q1008 NOSIG,1,0,0,9999,0,0,0,
2026-03-18 20:30:00,METAR LEBB 182030Z VRB01KT CAVOK 13/11 Q1008 NOSIG,1,0,0,9999,0,0,0,
2026-03-18 20:00:00,METAR LEBB 182000Z VRB01KT CAVOK 13/11 Q1008 NOSIG,1,0,0,9999,0,0,0,
2026-03-18 19:30:00,METAR LEBB 181930Z 24003KT 200V270 CAVOK 13/10 Q1007 NOSIG,1,0,0,9999,0,0,0,
2026-03-18 19:00:00,METAR LEBB 181900Z 25003KT 210V280 CAVOK 14/10 Q1007 NOSIG,1,0,0,9999,0,0,0,
2026-03-18 18:30:00,METAR LEBB 181830Z 28004KT CAVOK 15/11 Q1007 NOSIG,1,0,0,9999,0,0,0,
2026-03-18 18:00:00,METAR LEBB 181800Z 28006KT CAVOK 16/11 Q1006 NOSIG,1,0,0,9999,0,0,0,
2026-03-18 17:30:00,METAR LEBB 181730Z 29007KT CAVOK 18/10 Q1006 NOSIG,1,0,0,9999,0,0,0,
2026-03-18 17:00:00,METAR LEBB 181700Z 28007KT 250V310 CAVOK 18/10 Q1006 NOSIG,1,0,0,9999,0,0,0,
2026-03-18 16:30:00,METAR LEBB 181630Z 28007KT 240V300 CAVOK 19/10 Q1005 NOSIG,1,0,0,9999,0,0,0,
2026-03-18 16:00:00,METAR LEBB 181600Z 27007KT 220V300 CAVOK 19/10 Q1005 NOSIG,1,0,0,9999,0,0,0,
2026-03-18 15:30:00,METAR LEBB 181530Z 28008KT CAVOK 19/11 Q1005 NOSIG,1,0,0,9999,0,0,0,
2026-03-18 15:00:00,METAR LEBB 181500Z 26009KT 220V290 CAVOK 18/10 Q1005 NOSIG,1,0,0,9999,0,0,0,
2026-03-18 14:30:00,METAR LEBB 181430Z 27008KT 220V300 CAVOK 20/11 Q1005 NOSIG,1,0,0,9999,0,0,0,
2026-03-18 14:00:00,METAR LEBB 181400Z 26009KT 210V300 CAVOK 21/12 Q1005 NOSIG,1,0,0,9999,0,0,0,
2026-03-18 13:30:00,METAR LEBB 181330Z 27008KT 230V300 CAVOK 21/11 Q1005 NOSIG,1,0,0,9999,0,0,0,
2026-03-18 13:00:00,METAR LEBB 181300Z 27009KT 240V300 CAVOK 21/10 Q1006 NOSIG,1,0,0,9999,0,0,0,
2026-03-18 12:30:00,METAR LEBB 181230Z 28009KT 240V320 CAVOK 21/11 Q1006 NOSIG,1,0,0,9999,0,0,0,
2026-03-18 12:00:00,METAR LEBB 181200Z 32003KT 280V060 CAVOK 23/12 Q1006 NOSIG,1,0,0,9999,0,0,0,
2026-03-18 11:30:00,METAR LEBB 181130Z VRB02KT CAVOK 24/08 Q1006 NOSIG,1,0,0,9999,0,0,0,
2026-03-18 11:00:00,METAR LEBB 181100Z 17005KT 120V260 CAVOK 24/08 Q1007 NOSIG,1,0,0,9999,0,0,0,
2026-03-18 10:30:00,METAR LEBB 181030Z 13005KT 080V200 CAVOK 23/08 Q1007 NOSIG,1,0,0,9999,0,0,0,
2026-03-18 10:00:00,METAR LEBB 181000Z 15007KT 100V200 CAVOK 22/08 Q1007 NOSIG,1,0,0,9999,0,0,0,
2026-03-18 09:30:00,METAR LEBB 180930Z 17009KT 110V230 CAVOK 21/08 Q1007 NOSIG,1,0,0,9999,0,0,0,
2026-03-18 09:00:00,METAR LEBB 180900Z 25006KT 200V290 CAVOK 19/07 Q1007 NOSIG,1,0,0,9999,0,0,0,
2026-03-18 08:30:00,METAR LEBB 180830Z VRB01KT CAVOK 19/07 Q1007 NOSIG,1,0,0,9999,0,0,0,
2026-03-18 08:00:00,METAR LEBB 180800Z VRB02KT CAVOK 17/06 Q1007 NOSIG,1,0,0,9999,0,0,0,
2026-03-18 07:30:00,METAR LEBB 180730Z VRB02KT CAVOK 16/06 Q1007 NOSIG,1,0,0,9999,0,0,0,
2026-03-18 07:00:00,METAR LEBB 180700Z 12009KT 090V150 CAVOK 15/06 Q1007 NOSIG,1,0,0,9999,0,0,0,
2026-03-18 06:30:00,METAR LEBB 180630Z 12010KT CAVOK 16/06 Q1007 NOSIG,1,0,0,9999,0,0,0,
2026-03-18 06:00:00,METAR LEBB 180600Z 12008KT CAVOK 16/06 Q1007 NOSIG,1,0,0,9999,0,0,0,
2026-03-18 05:30:00,METAR LEBB 180530Z 11012KT 080V140 CAVOK 17/06 Q1007 NOSIG,1,0,0,9999,0,0,0,
2026-03-18 05:00:00,METAR LEBB 180500Z VRB08KT CAVOK 17/05 Q1006 NOSIG,1,0,0,9999,0,0,0,
2026-03-18 04:30:00,METAR LEBB 180430Z 12008KT 080V160 CAVOK 15/06 Q1006 NOSIG,1,0,0,9999,0,0,0,
2026-03-18 04:00:00,METAR LEBB 180400Z 11008KT CAVOK 15/06 Q1006 NOSIG,1,0,0,9999,0,0,0,
2026-03-18 03:30:00,METAR LEBB 180330Z AUTO 11008KT CAVOK 15/05 Q1006,1,0,0,9999,0,0,0,
2026-03-18 03:00:00,METAR LEBB 180300Z AUTO 09010KT CAVOK 16/06 Q1006,1,0,0,9999,0,0,0,
2026-03-18 02:30:00,METAR LEBB 180230Z AUTO 12005KT 080V160 CAVOK 15/06 Q1006,1,0,0,9999,0,0,0,
2026-03-18 02:00:00,METAR LEBB 180200Z AUTO 13006KT 080V150 CAVOK 16/05 Q1007,1,0,0,9999,0,0,0,
2026-03-18 01:30:00,METAR LEBB 180130Z AUTO 14004KT 080V190 CAVOK 17/06 Q1007,1,0,0,9999,0,0,0,
2026-03-18 01:00:00,METAR LEBB 180100Z AUTO 08010KT CAVOK 16/06 Q1007,1,0,0,9999,0,0,0,
2026-03-18 00:30:00,METAR LEBB 180030Z AUTO 08010KT CAVOK 17/06 Q1007,1,0,0,9999,0,0,0,
2026-03-18 00:00:00,METAR LEBB 180000Z AUTO 09007KT CAVOK 18/06 Q1007,1,0,0,9999,0,0,0,
2026-03-17 23:30:00,METAR LEBB 172330Z AUTO 10005KT 050V170 CAVOK 18/06 Q1007,1,0,0,9999,0,0,0,
2026-03-17 23:00:00,METAR LEBB 172300Z AUTO 09005KT 020V140 CAVOK 17/05 Q1007,1,0,0,9999,0,0,0,
2026-03-17 22:30:00,METAR LEBB 172230Z 10006KT 060V140 CAVOK 20/04 Q1007 NOSIG,1,0,0,9999,0,0,0,
2026-03-17 22:00:00,METAR LEBB 172200Z 09006KT 060V120 CAVOK 20/04 Q1007 NOSIG,1,0,0,9999,0,0,0,
2026-03-17 21:30:00,METAR LEBB 172130Z 13007KT 070V170 CAVOK 16/06 Q1007 NOSIG,1,0,0,9999,0,0,0,
2026-03-17 21:00:00,METAR LEBB 172100Z 07004KT 050V130 CAVOK 13/08 Q1008 NOSIG,1,0,0,9999,0,0,0,
2026-03-17 20:30:00,METAR LEBB 172030Z 10003KT 070V140 CAVOK 12/08 Q1008 NOSIG,1,0,0,9999,0,0,0,
2026-03-17 20:00:00,METAR LEBB 172000Z 10003KT 070V140 CAVOK 13/08 Q1008 NOSIG,1,0,0,9999,0,0,0,
2026-03-17 19:30:00,METAR LEBB 171930Z 08003KT 020V140 CAVOK 15/07 Q1008 NOSIG,1,0,0,9999,0,0,0,
2026-03-17 19:00:00,METAR LEBB 171900Z VRB01KT CAVOK 16/08 Q1008 NOSIG,1,0,0,9999,0,0,0,
2026-03-17 18:30:00,METAR LEBB 171830Z 25001KT CAVOK 18/07 Q1008 NOSIG,1,0,0,9999,0,0,0,
2026-03-17 18:00:00,METAR LEBB 171800Z VRB02KT CAVOK 19/07 Q1008 NOSIG,1,0,0,9999,0,0,0,
2026-03-17 17:30:00,METAR LEBB 171730Z 28003KT CAVOK 20/08 Q1008 NOSIG,1,0,0,9999,0,0,0,
2026-03-17 17:00:00,METAR LEBB 171700Z 28003KT 190V310 CAVOK 21/08 Q1008 NOSIG,1,0,0,9999,0,0,0,
2026-03-17 16:30:00,METAR LEBB 171630Z COR 28004KT 250V310 CAVOK 21/06 Q1008 NOSIG,1,0,0,9999,0,0,0,
2026-03-17 16:00:00,METAR LEBB 171600Z 27005KT 220V300 CAVOK 21/09 Q1009 NOSIG,1,0,0,9999,0,0,0,
2026-03-17 15:30:00,METAR LEBB 171530Z 27007KT 220V320 CAVOK 21/06 Q1009 NOSIG,1,0,0,9999,0,0,0,
2026-03-17 15:00:00,METAR LEBB 171500Z 28009KT 250V310 CAVOK 21/07 Q1009 NOSIG,1,0,0,9999,0,0,0,
2026-03-17 14:30:00,METAR LEBB 171430Z 28010KT 250V320 CAVOK 21/07 Q1010 NOSIG,1,0,0,9999,0,0,0,
2026-03-17 14:00:00,METAR LEBB 171400Z 27011KT 240V300 CAVOK 22/07 Q1010 NOSIG,1,0,0,9999,0,0,0,
2026-03-17 13:30:00,METAR LEBB 171330Z VRB03KT CAVOK 24/11 Q1010 NOSIG,1,0,0,9999,0,0,0,
2026-03-17 13:00:00,METAR LEBB 171300Z 10005KT 060V160 CAVOK 27/03 Q1011 NOSIG,1,0,0,9999,0,0,0,
2026-03-17 12:30:00,METAR LEBB 171230Z 11006KT 070V160 CAVOK 26/06 Q1011 NOSIG,1,0,0,9999,0,0,0,
2026-03-17 12:00:00,METAR LEBB 171200Z 12009KT 070V160 CAVOK 26/06 Q1012 NOSIG,1,0,0,9999,0,0,0,
2026-03-17 11:30:00,METAR LEBB 171130Z 12009KT 080V170 CAVOK 25/07 Q1012 NOSIG,1,0,0,9999,0,0,0,
2026-03-17 11:00:00,METAR LEBB 171100Z 10007KT 070V140 CAVOK 23/06 Q1013 NOSIG,1,0,0,9999,0,0,0,
2026-03-17 10:30:00,METAR LEBB 171030Z 09011KT 070V140 CAVOK 22/05 Q1013 NOSIG,1,0,0,9999,0,0,0,
2026-03-17 10:00:00,METAR LEBB 171000Z 12007KT 080V150 CAVOK 20/05 Q1013 NOSIG,1,0,0,9999,0,0,0,
2026-03-17 09:30:00,METAR LEBB 170930Z 08003KT 040V130 CAVOK 17/08 Q1013 NOSIG,1,0,0,9999,0,0,0,
2026-03-17 09:00:00,METAR LEBB 170900Z VRB01KT CAVOK 15/07 Q1014 NOSIG,1,0,0,9999,0,0,0,
2026-03-17 08:30:00,METAR LEBB 170830Z VRB01KT CAVOK 13/07 Q1014 NOSIG,1,0,0,9999,0,0,0,
2026-03-17 08:00:00,METAR LEBB 170800Z VRB02KT CAVOK 11/07 Q1014 NOSIG,1,0,0,9999,0,0,0,
2026-03-17 07:30:00,METAR LEBB 170730Z VRB02KT CAVOK 09/06 Q1014 NOSIG,1,0,0,9999,0,0,0,
2026-03-17 07:00:00,METAR LEBB 170700Z 09003KT 050V190 CAVOK 08/06 Q1015 NOSIG,1,0,0,9999,0,0,0,
2026-03-17 06:30:00,METAR LEBB 170630Z VRB01KT CAVOK 07/05 Q1015 NOSIG,1,0,0,9999,0,0,0,
2026-03-17 06:00:00,METAR LEBB 170600Z VRB02KT CAVOK 07/05 Q1015 NOSIG,1,0,0,9999,0,0,0,
2026-03-17 05:30:00,METAR LEBB 170530Z VRB02KT CAVOK 08/06 Q1015 NOSIG,1,0,0,9999,0,0,0,
2026-03-17 05:00:00,METAR LEBB 170500Z 08003KT 010V140 CAVOK 08/06 Q1015 NOSIG,1,0,0,9999,0,0,0,
2026-03-17 04:30:00,METAR LEBB 170430Z 12007KT 080V140 CAVOK 07/06 Q1016 NOSIG,1,0,0,9999,0,0,0,
2026-03-17 04:00:00,METAR LEBB 170400Z 08003KT 040V120 CAVOK 08/06 Q1016 NOSIG,1,0,0,9999,0,0,0,
2026-03-17 03:30:00,METAR LEBB 170330Z AUTO 12005KT 080V170 CAVOK 08/07 Q1016,1,0,0,9999,0,0,0,
2026-03-17 03:00:00,METAR LEBB 170300Z AUTO VRB02KT CAVOK 08/07 Q1017,1,0,0,9999,0,0,0,
2026-03-17 02:30:00,METAR LEBB 170230Z AUTO VRB02KT CAVOK 08/07 Q1017,1,0,0,9999,0,0,0,
2026-03-17 02:00:00,METAR LEBB 170200Z AUTO 13006KT CAVOK 09/07 Q1018,1,0,0,9999,0,0,0,
2026-03-17 01:30:00,METAR LEBB 170130Z AUTO 11004KT CAVOK 07/06 Q1018,1,0,0,9999,0,0,0,
2026-03-17 01:00:00,METAR LEBB 170100Z AUTO 13004KT CAVOK 08/07 Q1019,1,0,0,9999,0,0,0,
2026-03-17 00:30:00,METAR LEBB 170030Z AUTO 13004KT 090V160 CAVOK 08/07 Q1019,1,0,0,9999,0,0,0,
2026-03-17 00:00:00,METAR LEBB 170000Z AUTO 12003KT 070V150 CAVOK 09/08 Q1020,1,0,0,9999,0,0,0,
2026-03-16 23:30:00,METAR LEBB 162330Z AUTO VRB02KT CAVOK 09/07 Q1020,1,0,0,9999,0,0,0,
2026-03-16 23:00:00,METAR LEBB 162300Z AUTO VRB02KT CAVOK 09/08 Q1021,1,0,0,9999,0,0,0,
2026-03-16 22:30:00,METAR LEBB 162230Z 12003KT 080V140 CAVOK 09/08 Q1021 NOSIG,1,0,0,9999,0,0,0,
2026-03-16 22:00:00,METAR LEBB 162200Z 12003KT 070V170 CAVOK 09/08 Q1021 NOSIG,1,0,0,9999,0,0,0,
2026-03-16 21:30:00,METAR LEBB 162130Z 13003KT 110V170 CAVOK 09/08 Q1022 NOSIG,1,0,0,9999,0,0,0,
2026-03-16 21:00:00,METAR LEBB 162100Z 09005KT 070V130 CAVOK 10/09 Q1022 NOSIG,1,0,0,9999,0,0,0,
2026-03-16 20:30:00,METAR LEBB 162030Z 10004KT 040V130 CAVOK 10/09 Q1022 NOSIG,1,0,0,9999,0,0,0,
2026-03-16 20:00:00,METAR LEBB 162000Z 09004KT CAVOK 11/09 Q1022 NOSIG,1,0,0,9999,0,0,0,
2026-03-16 19:30:00,METAR LEBB 161930Z VRB01KT CAVOK 12/09 Q1023 NOSIG,1,0,0,9999,0,0,0,
2026-03-16 19:00:00,METAR LEBB 161900Z VRB02KT CAVOK 13/09 Q1023 NOSIG,1,0,0,9999,0,0,0,
2026-03-16 18:30:00,METAR LEBB 161830Z VRB02KT CAVOK 13/09 Q1023 NOSIG,1,0,0,9999,0,0,0,
2026-03-16 18:00:00,METAR LEBB 161800Z 27003KT 200V330 CAVOK 15/09 Q1023 NOSIG,1,0,0,9999,0,0,0,
2026-03-16 17:30:00,METAR LEBB 161730Z VRB02KT 9999 FEW025 15/10 Q1023 NOSIG,0,2,0,10000,0,0,0,
2026-03-16 17:00:00,METAR LEBB 161700Z 27005KT 210V320 9999 FEW028 16/10 Q1023 NOSIG,0,5,0,10000,0,0,0,
2026-03-16 16:30:00,METAR LEBB 161630Z 28006KT 9999 FEW027 16/10 Q1023 NOSIG,0,6,0,10000,0,0,0,
2026-03-16 16:00:00,METAR LEBB 161600Z 28003KT 230V010 9999 FEW027 16/10 Q1023 NOSIG,0,3,0,10000,0,0,0,
2026-03-16 15:30:00,METAR LEBB 161530Z VRB01KT 9999 FEW027 16/10 Q1023 NOSIG,0,1,0,10000,0,0,0,
2026-03-16 15:00:00,METAR LEBB 161500Z 34004KT 300V030 9999 FEW027 16/10 Q1024 NOSIG,0,4,0,10000,0,0,0,
2026-03-16 14:30:00,METAR LEBB 161430Z 01007KT 320V050 9999 FEW026 16/10 Q1024 NOSIG,0,7,0,10000,0,0,0,
2026-03-16 14:00:00,METAR LEBB 161400Z VRB04KT 9999 SCT026 16/11 Q1024 NOSIG,0,4,0,10000,0,0,0,
2026-03-16 13:30:00,METAR LEBB 161330Z 36004KT 300V060 9999 SCT023 SCT040 16/11 Q1025 NOSIG,0,4,0,10000,0,0,0,
2026-03-16 13:00:00,METAR LEBB 161300Z 01006KT 9999 SCT023 BKN042 15/11 Q1025 NOSIG,0,6,0,10000,0,0,0,
2026-03-16 12:30:00,METAR LEBB 161230Z VRB02KT 9999 SCT023 BKN044 15/11 Q1025 NOSIG,0,2,0,10000,0,0,0,
2026-03-16 12:00:00,METAR LEBB 161200Z 02003KT 300V090 9999 SCT022 BKN046 16/12 Q1026 NOSIG,0,3,0,10000,0,0,0,
2026-03-16 11:30:00,METAR LEBB 161130Z 36004KT 250V030 9999 SCT015 BKN042 14/11 Q1026 NOSIG,0,4,0,10000,0,0,0,
2026-03-16 11:00:00,METAR LEBB 161100Z 36004KT 320V080 9999 FEW013 SCT022 BKN042 14/11 Q1026 NOSIG,0,4,0,10000,0,0,0,
2026-03-16 10:30:00,METAR LEBB 161030Z VRB02KT 9999 FEW011 SCT020 BKN042 14/11 Q1026 NOSIG,0,2,0,10000,0,0,0,
2026-03-16 10:00:00,METAR LEBB 161000Z VRB02KT 9999 SCT012 BKN045 13/11 Q1026 NOSIG,0,2,0,10000,0,0,0,
2026-03-16 09:30:00,METAR LEBB 160930Z VRB01KT 9999 FEW008 SCT012 BKN031 12/11 Q1026 NOSIG,0,1,0,10000,0,0,0,
2026-03-16 09:00:00,METAR LEBB 160900Z VRB02KT 9999 FEW007 SCT012 BKN023 12/11 Q1025 NOSIG,0,2,0,10000,0,0,0,
2026-03-16 08:30:00,METAR LEBB 160830Z VRB02KT 9000 FEW006 SCT022 BKN046 11/10 Q1025 NOSIG,0,2,0,9000,0,0,0,
2026-03-16 08:00:00,METAR LEBB 160800Z VRB01KT 7000 -DZ FEW006 SCT013 BKN028 11/10 Q1025 NOSIG,0,1,0,7000,0,0,0,DZ
2026-03-16 07:30:00,METAR LEBB 160730Z 09004KT 050V140 9999 FEW005 SCT020 BKN043 10/10 Q1025 NOSIG,0,4,0,10000,0,0,0,
2026-03-16 07:00:00,METAR LEBB 160700Z 11004KT 060V160 9999 FEW005 SCT020 BKN030 10/10 Q1025 NOSIG,0,4,0,10000,0,0,0,
2026-03-16 06:30:00,METAR LEBB 160630Z COR VRB02KT 9999 FEW005 SCT016 BKN030 10/10 Q1025 NOSIG,0,2,0,10000,0,0,0,
2026-03-16 06:00:00,METAR LEBB 160600Z VRB02KT 9999 FEW007 BKN015 10/10 Q1025 TEMPO 3000 DZ BKN010,0,2,0,10000,0,0,0,DZ
2026-03-16 05:30:00,METAR LEBB 160530Z 09001KT 9999 BKN015 10/10 Q1024 TEMPO 3000 DZ BKN010,0,1,0,10000,0,0,0,DZ
2026-03-16 05:00:00,METAR LEBB 160500Z 11003KT 080V140 8000 -DZ BKN015 10/09 Q1024 TEMPO 3000 DZ BKN010,0,3,0,8000,0,0,0,DZ
2026-03-16 04:30:00,METAR LEBB 160430Z VRB02KT 4000 BR BKN017 10/10 Q1024 NOSIG,0,2,0,4000,0,0,1,BR
2026-03-16 04:00:00,METAR LEBB 160400Z 11003KT 080V140 9999 BKN021 10/10 Q1024 NOSIG,0,3,0,10000,0,0,0,
2026-03-16 03:30:00,METAR LEBB 160330Z AUTO 11004KT 9999 BKN022 OVC027 10/09 Q1024,0,4,0,10000,0,0,0,
2026-03-16 03:00:00,METAR LEBB 160300Z AUTO 10003KT 070V130 9999 OVC025 10/09 Q1024,0,3,0,10000,0,0,0,
2026-03-16 02:30:00,METAR LEBB 160230Z AUTO 11003KT 9999 OVC023 10/09 Q1024,0,3,0,10000,0,0,0,
2026-03-16 02:00:00,METAR LEBB 160200Z AUTO 11002KT 9000 OVC021 10/09 Q1024,0,2,0,9000,0,0,0,
2026-03-16 01:30:00,METAR LEBB 160130Z AUTO VRB02KT 9999 BKN022 OVC027 10/09 Q1024,0,2,0,10000,0,0,0,
2026-03-16 01:00:00,METAR LEBB 160100Z AUTO 11003KT 080V140 9999 FEW017 OVC022 10/09 Q1024,0,3,0,10000,0,0,0,
2026-03-16 00:30:00,METAR LEBB 160030Z AUTO 11003KT 9999 BKN023 BKN028 OVC033 10/09 Q1025,0,3,0,10000,0,0,0,
2026-03-16 00:00:00,METAR LEBB 160000Z AUTO 10002KT 9999 FEW021 BKN032 OVC042 10/09 Q1025,0,2,0,10000,0,0,0,
2026-03-15 23:30:00,METAR LEBB 152330Z AUTO 11003KT 080V140 9999 SCT020 BKN034 OVC042 10/09 Q1025,0,3,0,10000,0,0,0,
2026-03-15 23:00:00,METAR LEBB 152300Z AUTO 10003KT 9999 SCT019 BKN027 OVC042 10/09 Q1025,0,3,0,10000,0,0,0,
2026-03-15 22:30:00,METAR LEBB 152230Z 10003KT 070V130 9999 SCT017 BKN024 10/09 Q1025 NOSIG,0,3,0,10000,0,0,0,
2026-03-15 22:00:00,METAR LEBB 152200Z VRB01KT 9999 FEW018 SCT024 BKN042 10/09 Q1025 NOSIG,0,1,0,10000,0,0,0,
2026-03-15 21:30:00,METAR LEBB 152130Z VRB02KT 9999 SCT020 BKN050 10/09 Q1024 NOSIG,0,2,0,10000,0,0,0,
2026-03-15 21:00:00,METAR LEBB 152100Z VRB01KT 9999 SCT020 BKN032 10/09 Q1024 NOSIG,0,1,0,10000,0,0,0,
2026-03-15 20:30:00,METAR LEBB 152030Z 34003KT 320V050 9999 SCT025 BKN032 11/09 Q1024 NOSIG,0,3,0,10000,0,0,0,
2026-03-15 20:00:00,METAR LEBB 152000Z 25001KT 9999 SCT026 BKN040 11/08 Q1024 NOSIG,0,1,0,10000,0,0,0,
2026-03-15 19:30:00,METAR LEBB 151930Z 34003KT 310V020 9999 SCT026 BKN042 11/07 Q1024 NOSIG,0,3,0,10000,0,0,0,
2026-03-15 19:00:00,METAR LEBB 151900Z 33002KT 9999 SCT027 BKN038 11/07 Q1023 NOSIG,0,2,0,10000,0,0,0,
2026-03-15 18:30:00,METAR LEBB 151830Z VRB02KT 9999 SCT028 BKN040 12/07 Q1023 NOSIG,0,2,0,10000,0,0,0,
2026-03-15 18:00:00,METAR LEBB 151800Z 33005KT 290V010 9999 SCT032 BKN050 12/07 Q1023 NOSIG,0,5,0,10000,0,0,0,
2026-03-15 17:30:00,METAR LEBB 151730Z 31006KT 9999 FEW040 BKN052 12/07 Q1022 NOSIG,0,6,0,10000,0,0,0,
2026-03-15 17:00:00,METAR LEBB 151700Z 31011KT 280V340 9999 FEW030 SCT050 12/07 Q1022 NOSIG,0,11,0,10000,0,0,0,
2026-03-15 16:30:00,METAR LEBB 151630Z 30009KT 260V340 9999 FEW024 BKN050 13/06 Q1022 NOSIG,0,9,0,10000,0,0,0,
2026-03-15 16:00:00,METAR LEBB 151600Z 30011KT 9999 FEW024 SCT045 BKN055 12/07 Q1022 NOSIG,0,11,0,10000,0,0,0,
2026-03-15 15:30:00,METAR LEBB 151530Z 29008KT 9999 FEW024 BKN045 12/07 Q1022 NOSIG,0,8,0,10000,0,0,0,
2026-03-15 15:00:00,METAR LEBB 151500Z 29011KT 260V320 9999 FEW024 BKN045 12/07 Q1022 NOSIG,0,11,0,10000,0,0,0,
2026-03-15 14:30:00,METAR LEBB 151430Z 30014KT 9999 FEW024 SCT033 BKN050 12/09 Q1022 NOSIG,0,14,0,10000,0,0,0,
2026-03-15 14:00:00,METAR LEBB 151400Z 31012KT 280V340 9999 SCT030 BKN044 13/07 Q1021 NOSIG,0,12,0,10000,0,0,0,
2026-03-15 13:30:00,METAR LEBB 151330Z 33013KT 280V010 9999 SCT030 BKN045 13/06 Q1022 NOSIG,0,13,0,10000,0,0,0,
2026-03-15 13:00:00,METAR LEBB 151300Z 32010KT 280V360 9999 SCT034 BKN045 13/07 Q1022 NOSIG,0,10,0,10000,0,0,0,
2026-03-15 12:30:00,METAR LEBB 151230Z 32012KT 280V360 9999 SCT032 BKN055 13/07 Q1022 NOSIG,0,12,0,10000,0,0,0,
2026-03-15 12:00:00,METAR LEBB 151200Z 32010KT 9999 FEW030 SCT050 BKN065 12/07 Q1022 NOSIG,0,10,0,10000,0,0,0,
2026-03-15 11:30:00,METAR LEBB 151130Z 32012KT 300V360 9999 FEW030 SCT048 BKN065 13/07 Q1022 NOSIG,0,12,0,10000,0,0,0,
2026-03-15 11:00:00,METAR LEBB 151100Z 30010KT 280V340 9999 SCT030 BKN055 12/07 Q1021 NOSIG,0,10,0,10000,0,0,0,
2026-03-15 10:30:00,METAR LEBB 151030Z 30009KT 9999 SCT030 BKN050 11/08 Q1021 NOSIG,0,9,0,10000,0,0,0,
2026-03-15 10:00:00,METAR LEBB 151000Z 33005KT 9000 -RA SCT030 BKN045 11/08 Q1021 NOSIG,0,5,0,9000,0,0,0,-RA
2026-03-15 09:30:00,METAR LEBB 150930Z VRB11KT 9999 SCT028 BKN044 12/07 Q1021 NOSIG,0,11,0,10000,0,0,0,
2026-03-15 09:00:00,METAR LEBB 150900Z 33004KT 290V360 9999 SCT028 BKN040 11/08 Q1020 NOSIG,0,4,0,10000,0,0,0,
2026-03-15 08:30:00,METAR LEBB 150830Z 01010G20KT 340V040 9999 SCT027 BKN040 10/06 Q1020 NOSIG,0,10,1,10000,0,0,0,
2026-03-15 08:00:00,METAR LEBB 150800Z 30006KT 9999 FEW028 SCT055 10/06 Q1019 NOSIG,0,6,0,10000,0,0,0,
