Time_recorded,METAR,is_cavok,wind_speed,is_gust,visibility_meters,has_thunderstorm,has_heavy_rain,has_low_vis_fog,other_phenomenon
2026-05-02 15:30:00,METAR WMKK 021530Z 05004KT 010V100 9999 FEW030 28/25 Q1009 NOSIG,0,4,0,10000,0,0,0,
2026-05-02 15:00:00,METAR WMKK 021500Z 02003KT 330V070 9000 FEW030 28/26 Q1009 NOSIG,0,3,0,9000,0,0,0,
2026-05-02 14:30:00,METAR WMKK 021430Z 05005KT 350V110 9000 FEW030 28/26 Q1008 NOSIG,0,5,0,9000,0,0,0,
2026-05-02 14:00:00,METAR WMKK 021400Z 06003KT 010V120 9000 FEW017CB 28/26 Q1008 NOSIG,0,3,0,9000,0,0,0,
2026-05-02 13:30:00,METAR WMKK 021330Z 04004KT 360V100 9000 FEW017CB 28/26 Q1008 NOSIG,0,4,0,9000,0,0,0,
2026-05-02 13:00:00,METAR WMKK 021300Z 03005KT 360V080 8000 -RA FEW009 FEW017CB SCT030 28/26 Q1008 NOSIG,0,5,0,8000,0,0,0,-RA
2026-05-02 12:30:00,METAR WMKK 021230Z 03004KT 340V060 7000 -RA FEW008 FEW017CB SCT030 28/26 Q1007 NOSIG,0,4,0,7000,0,0,0,-RA
2026-05-02 12:00:00,METAR WMKK 021200Z 02003KT 330V070 9000 FEW017CB 28/26 Q1007 NOSIG,0,3,0,9000,0,0,0,
2026-05-02 11:30:00,METAR WMKK 021130Z 36003KT 290V060 9999 FEW017CB 28/26 Q1006 NOSIG,0,3,0,10000,0,0,0,
2026-05-02 11:00:00,METAR WMKK 021100Z VRB02KT 9999 FEW017CB 29/26 Q1006 NOSIG,0,2,0,10000,0,0,0,
2026-05-02 10:30:00,METAR WMKK 021030Z VRB02KT 9999 FEW017CB 29/26 Q1005 NOSIG,0,2,0,10000,0,0,0,
2026-05-02 10:00:00,METAR WMKK 021000Z VRB02KT 9999 FEW017CB 29/26 Q1005 RETS NOSIG,0,2,0,10000,1,0,0,TS
2026-05-02 09:30:00,METAR WMKK 020930Z 00000KT 9999 FEW017CB 29/27 Q1005 RETS NOSIG,0,0,0,10000,1,0,0,TS
2026-05-02 09:00:00,METAR WMKK 020900Z COR 00000KT 9000 TS FEW017CB 29/27 Q1005 NOSIG,0,0,0,9000,1,0,0,TS
2026-05-02 08:30:00,METAR WMKK 020830Z 00000KT 8000 -TSRA FEW010 FEW017CB SCT030 29/27 Q1005 NOSIG,0,0,0,8000,1,0,0,RA
2026-05-02 08:00:00,METAR WMKK 020800Z COR VRB02KT 7000 -TSRA FEW010 FEW017CB SCT018 29/27 Q1005 NOSIG,0,2,0,7000,1,0,0,RA
2026-05-02 07:30:00,METAR WMKK 020730Z COR 08006KT 010V140 6000 -TSRA FEW010 FEW017CB SCT018 29/26 Q1006 TEMPO 8000 -TSRA,0,6,0,6000,1,0,0,RA
2026-05-02 07:00:00,METAR WMKK 020700Z VRB03KT 9000 TS VCSH FEW017CB SCT018 31/26 Q1006 TEMPO 4000 TSRA,0,3,0,9000,1,0,0,"RA,SH,TS,VC"
2026-05-02 06:50:00,SPECI WMKK 020650Z VRB04KT 9000 TS VCSH FEW017CB SCT018 31/26 Q1006 NOSIG,0,4,0,9000,1,0,0,"SH,TS,VC"
2026-05-02 06:30:00,METAR WMKK 020630Z VRB04KT 9000 VCSH FEW017CB SCT018 32/26 Q1006 NOSIG,0,4,0,9000,0,0,0,"SH,VC"
2026-05-02 06:00:00,METAR WMKK 020600Z VRB02KT 9999 FEW017CB SCT018 34/25 Q1007 NOSIG,0,2,0,10000,0,0,0,
2026-05-02 05:30:00,METAR WMKK 020530Z VRB03KT 9999 FEW017CB SCT018 35/25 Q1007 NOSIG,0,3,0,10000,0,0,0,
2026-05-02 05:00:00,METAR WMKK 020500Z VRB03KT 9999 FEW017CB SCT018 33/24 Q1008 NOSIG,0,3,0,10000,0,0,0,
2026-05-02 04:30:00,METAR WMKK 020430Z VRB04KT 9999 FEW017CB SCT018 33/24 Q1009 NOSIG,0,4,0,10000,0,0,0,
2026-05-02 04:00:00,METAR WMKK 020400Z 14004KT 080V240 9999 FEW017CB 33/25 Q1009 NOSIG,0,4,0,10000,0,0,0,
2026-05-02 03:30:00,METAR WMKK 020330Z 08004KT 350V140 9999 FEW017CB 33/25 Q1009 NOSIG,0,4,0,10000,0,0,0,
2026-05-02 03:00:00,METAR WMKK 020300Z VRB05KT 9999 FEW018 32/26 Q1010 NOSIG,0,5,0,10000,0,0,0,
2026-05-02 02:30:00,METAR WMKK 020230Z VRB03KT 9999 FEW018 32/25 Q1010 NOSIG,0,3,0,10000,0,0,0,
2026-05-02 02:00:00,METAR WMKK 020200Z 10003KT 020V180 9999 FEW018 31/25 Q1010 NOSIG,0,3,0,10000,0,0,0,
2026-05-02 01:30:00,METAR WMKK 020130Z 12003KT 080V190 9999 FEW018 30/25 Q1009 NOSIG,0,3,0,10000,0,0,0,
2026-05-02 01:00:00,METAR WMKK 020100Z 00000KT 9999 FEW018 29/25 Q1009 NOSIG,0,0,0,10000,0,0,0,
2026-05-02 00:30:00,METAR WMKK 020030Z 00000KT 9999 FEW017CB 27/24 Q1009 NOSIG,0,0,0,10000,0,0,0,
2026-05-02 00:00:00,METAR WMKK 020000Z 00000KT 9999 FEW017CB 26/24 Q1008 NOSIG,0,0,0,10000,0,0,0,
2026-05-01 23:30:00,METAR WMKK 012330Z 00000KT 9000 FEW010 FEW017CB 25/24 Q1008 NOSIG,0,0,0,9000,0,0,0,
2026-05-01 23:00:00,METAR WMKK 012300Z 00000KT 9000 FEW010 FEW017CB 25/24 Q1007 NOSIG,0,0,0,9000,0,0,0,
2026-05-01 22:30:00,METAR WMKK 012230Z 00000KT 9000 FEW010 FEW017CB 25/24 Q1007 NOSIG,0,0,0,9000,0,0,0,
2026-05-01 22:00:00,METAR WMKK 012200Z 00000KT 9000 FEW010 FEW017CB 25/24 Q1007 NOSIG,0,0,0,9000,0,0,0,
2026-05-01 21:30:00,METAR WMKK 012130Z 00000KT 9000 FEW010 FEW017CB 25/24 Q1007 NOSIG,0,0,0,9000,0,0,0,
2026-05-01 21:00:00,METAR WMKK 012100Z 00000KT 9000 FEW010 FEW017CB 25/24 Q1007 NOSIG,0,0,0,9000,0,0,0,
2026-05-01 20:30:00,METAR WMKK 012030Z 00000KT 9000 FEW010 FEW017CB 25/24 Q1007 NOSIG,0,0,0,9000,0,0,0,
2026-05-01 20:00:00,METAR WMKK 012000Z 00000KT 9000 FEW010 25/24 Q1007 NOSIG,0,0,0,9000,0,0,0,
2026-05-01 19:30:00,METAR WMKK 011930Z 00000KT 8000 FEW010 25/24 Q1007 NOSIG,0,0,0,8000,0,0,0,
2026-05-01 19:00:00,METAR WMKK 011900Z VRB02KT 8000 FEW010 25/24 Q1008 NOSIG,0,2,0,8000,0,0,0,
2026-05-01 18:30:00,METAR WMKK 011830Z VRB01KT 8000 FEW010 25/24 Q1008 NOSIG,0,1,0,8000,0,0,0,
2026-05-01 18:00:00,METAR WMKK 011800Z 00000KT 8000 FEW010 25/24 Q1009 NOSIG,0,0,0,8000,0,0,0,
2026-05-01 17:30:00,METAR WMKK 011730Z 00000KT 8000 FEW010 25/24 Q1009 NOSIG,0,0,0,8000,0,0,0,
2026-05-01 17:00:00,METAR WMKK 011700Z VRB02KT 8000 FEW010 25/24 Q1009 NOSIG,0,2,0,8000,0,0,0,
2026-05-01 16:30:00,METAR WMKK 011630Z 00000KT 8000 FEW010 26/25 Q1009 NOSIG,0,0,0,8000,0,0,0,
2026-05-01 16:00:00,METAR WMKK 011600Z 00000KT 9000 FEW030 26/24 Q1009 NOSIG,0,0,0,9000,0,0,0,
2026-05-01 15:30:00,METAR WMKK 011530Z 00000KT 9000 FEW030 26/24 Q1009 NOSIG,0,0,0,9000,0,0,0,
2026-05-01 15:00:00,METAR WMKK 011500Z VRB02KT 9000 FEW030 26/24 Q1009 NOSIG,0,2,0,9000,0,0,0,
2026-05-01 14:30:00,METAR WMKK 011430Z 03003KT 320V070 9000 FEW030 26/24 Q1009 NOSIG,0,3,0,9000,0,0,0,
2026-05-01 14:00:00,METAR WMKK 011400Z VRB03KT 9000 FEW030 26/24 Q1009 NOSIG,0,3,0,9000,0,0,0,
2026-05-01 13:30:00,METAR WMKK 011330Z 03003KT 340V100 9000 FEW010 26/24 Q1009 NOSIG,0,3,0,9000,0,0,0,
2026-05-01 13:00:00,METAR WMKK 011300Z VRB02KT 9000 FEW010 26/24 Q1008 RETSRA NOSIG,0,2,0,9000,1,0,0,RA
2026-05-01 12:30:00,METAR WMKK 011230Z 01005KT 320V060 8000 -TSRA FEW010 FEW017CB SCT030 25/24 Q1008 NOSIG,0,5,0,8000,1,0,0,RA
2026-05-01 12:00:00,METAR WMKK 011200Z 06005KT 360V120 8000 -TSRA FEW009 FEW017CB SCT030 25/24 Q1008 RETSRA NOSIG,0,5,0,8000,1,0,0,RA
2026-05-01 11:30:00,METAR WMKK 011130Z 03004KT 340V080 7000 -TSRA FEW008 FEW017CB SCT030 25/24 Q1008 RETSRA TEMPO 8000 -TSRA,0,4,0,7000,1,0,0,RA
2026-05-01 11:00:00,METAR WMKK 011100Z 35007KT 300V050 5000 TSRA FEW006 FEW017CB SCT030 25/23 Q1007 TEMPO 6000 -TSRA,0,7,0,5000,1,0,0,"RA,TS"
2026-05-01 10:30:00,METAR WMKK 011030Z 35007KT 270V060 4000 TSRA FEW005 FEW017CB SCT030 24/23 Q1007 TEMPO 6000 -TSRA,0,7,0,4000,1,0,0,"RA,TS"
2026-05-01 10:00:00,METAR WMKK 011000Z 06013KT 340V120 2500 TSRA FEW003 FEW017CB SCT030 26/25 Q1008 TEMPO 06015G30KT 2000 +TSRA,0,13,0,2500,1,0,0,"RA,TS"
2026-05-01 09:51:00,SPECI WMKK 010951Z 09013G24KT 010V170 3000 TSRA FEW004 FEW017CB SCT030 28/25 Q1007 TEMPO 09015G30KT 2000 +TSRA,0,13,1,3000,1,0,0,"RA,TS"
2026-05-01 09:30:00,METAR WMKK 010930Z VRB03KT 8000 TS VCSH FEW017CB SCT030 32/25 Q1006 TEMPO 20010G25KT 7000 -TSRA,0,3,0,8000,1,0,0,"RA,SH,TS,VC"
2026-05-01 09:00:00,METAR WMKK 010900Z VRB04KT 9000 TS FEW017CB SCT018 33/26 Q1006 NOSIG,0,4,0,9000,1,0,0,TS
2026-05-01 08:30:00,METAR WMKK 010830Z VRB04KT 9000 TS FEW017CB SCT018 34/26 Q1005 NOSIG,0,4,0,9000,1,0,0,TS
2026-05-01 08:00:00,METAR WMKK 010800Z VRB04KT 9000 TS FEW017CB SCT018 33/26 Q1005 NOSIG,0,4,0,9000,1,0,0,TS
2026-05-01 07:30:00,METAR WMKK 010730Z VRB04KT 9000 TS FEW017CB SCT018 32/25 Q1005 NOSIG,0,4,0,9000,1,0,0,TS
2026-05-01 07:00:00,METAR WMKK 010700Z VRB05KT 8000 TS VCSH FEW017CB SCT018 33/25 Q1006 NOSIG,0,5,0,8000,1,0,0,"SH,TS,VC"
2026-05-01 06:30:00,METAR WMKK 010630Z 26006KT 190V320 8000 TS VCSH FEW017CB SCT018 32/25 Q1007 NOSIG,0,6,0,8000,1,0,0,"SH,TS,VC"
2026-05-01 06:09:00,SPECI WMKK 010609Z VRB05KT 8000 TS VCSH FEW017CB SCT018 32/25 Q1008 NOSIG,0,5,0,8000,1,0,0,"SH,TS,VC"
2026-05-01 06:00:00,METAR WMKK 010600Z VRB05KT 8000 VCSH FEW017CB SCT018 31/25 Q1008 NOSIG,0,5,0,8000,0,0,0,"SH,VC"
2026-05-01 05:30:00,METAR WMKK 010530Z 13005KT 050V210 8000 VCSH FEW017CB SCT018 32/25 Q1008 NOSIG,0,5,0,8000,0,0,0,"SH,VC"
2026-05-01 05:00:00,METAR WMKK 010500Z VRB03KT 9000 VCSH SCT018 34/25 Q1009 NOSIG,0,3,0,9000,0,0,0,"SH,VC"
2026-05-01 04:30:00,METAR WMKK 010430Z 00000KT 9999 SCT018 34/25 Q1009 NOSIG,0,0,0,10000,0,0,0,
2026-05-01 04:00:00,METAR WMKK 010400Z 00000KT 9999 FEW018 33/25 Q1010 NOSIG,0,0,0,10000,0,0,0,
2026-05-01 03:30:00,METAR WMKK 010330Z 03003KT 320V100 9999 FEW018 34/25 Q1010 NOSIG,0,3,0,10000,0,0,0,
2026-05-01 03:00:00,METAR WMKK 010300Z VRB04KT 9999 FEW018 33/25 Q1010 NOSIG,0,4,0,10000,0,0,0,
2026-05-01 02:30:00,METAR WMKK 010230Z 05004KT 340V130 9999 FEW018 32/25 Q1010 NOSIG,0,4,0,10000,0,0,0,
2026-05-01 02:00:00,METAR WMKK 010200Z 07004KT 350V150 9999 FEW018 31/24 Q1010 NOSIG,0,4,0,10000,0,0,0,
2026-05-01 01:30:00,METAR WMKK 010130Z 09004KT 040V150 9999 FEW017CB 30/24 Q1010 NOSIG,0,4,0,10000,0,0,0,
2026-05-01 01:00:00,METAR WMKK 010100Z 00000KT 9999 FEW017CB 29/24 Q1009 NOSIG,0,0,0,10000,0,0,0,
2026-05-01 00:30:00,METAR WMKK 010030Z 00000KT 9999 FEW017CB 28/25 Q1009 NOSIG,0,0,0,10000,0,0,0,
2026-05-01 00:00:00,METAR WMKK 010000Z 00000KT 9999 FEW010 FEW017CB 26/25 Q1008 NOSIG,0,0,0,10000,0,0,0,
2026-04-30 23:30:00,METAR WMKK 302330Z 00000KT 9999 FEW010 FEW017CB 26/25 Q1008 NOSIG,0,0,0,10000,0,0,0,
2026-04-30 23:00:00,METAR WMKK 302300Z 00000KT 9999 FEW010 FEW017CB 26/25 Q1008 NOSIG,0,0,0,10000,0,0,0,
2026-04-30 22:30:00,METAR WMKK 302230Z VRB01KT 9999 FEW010 FEW017CB 26/25 Q1007 NOSIG,0,1,0,10000,0,0,0,
2026-04-30 22:00:00,METAR WMKK 302200Z 00000KT 9999 FEW010 FEW017CB 26/25 Q1007 NOSIG,0,0,0,10000,0,0,0,
2026-04-30 21:30:00,METAR WMKK 302130Z 00000KT 9999 FEW010 FEW017CB 26/25 Q1007 NOSIG,0,0,0,10000,0,0,0,
2026-04-30 21:00:00,METAR WMKK 302100Z 00000KT 9999 FEW010 FEW017CB 27/25 Q1007 NOSIG,0,0,0,10000,0,0,0,
2026-04-30 20:30:00,METAR WMKK 302030Z COR 00000KT 9999 FEW010 FEW017CB 27/25 Q1007 NOSIG,0,0,0,10000,0,0,0,
2026-04-30 20:00:00,METAR WMKK 302000Z 00000KT 9999 FEW010 FEW017CB 27/25 Q1008 NOSIG,0,0,0,10000,0,0,0,
2026-04-30 19:30:00,METAR WMKK 301930Z 00000KT 9999 FEW010 FEW017CB 27/26 Q1008 NOSIG,0,0,0,10000,0,0,0,
2026-04-30 19:00:00,METAR WMKK 301900Z VRB02KT 9999 FEW010 FEW017CB 27/26 Q1008 NOSIG,0,2,0,10000,0,0,0,
2026-04-30 18:30:00,METAR WMKK 301830Z VRB03KT 9999 FEW010 FEW017CB 28/26 Q1009 NOSIG,0,3,0,10000,0,0,0,
2026-04-30 18:00:00,METAR WMKK 301800Z VRB02KT 9999 FEW010 27/26 Q1009 NOSIG,0,2,0,10000,0,0,0,
2026-04-30 17:30:00,METAR WMKK 301730Z 00000KT 9999 SCT030 27/26 Q1010 NOSIG,0,0,0,10000,0,0,0,
2026-04-30 17:00:00,METAR WMKK 301700Z 00000KT 9999 SCT030 28/26 Q1010 NOSIG,0,0,0,10000,0,0,0,
2026-04-30 16:30:00,METAR WMKK 301630Z VRB01KT 9999 SCT030 28/26 Q1010 NOSIG,0,1,0,10000,0,0,0,
2026-04-30 16:00:00,METAR WMKK 301600Z 00000KT 9999 FEW030 28/25 Q1010 NOSIG,0,0,0,10000,0,0,0,
2026-04-30 14:30:00,METAR WMKK 301430Z VRB01KT 9999 TS FEW017CB 28/25 Q1009 NOSIG,0,1,0,10000,1,0,0,TS
2026-04-30 14:00:00,METAR WMKK 301400Z 11003KT 050V170 9999 TS FEW017CB 29/25 Q1009 NOSIG,0,3,0,10000,1,0,0,TS
2026-04-30 13:30:00,METAR WMKK 301330Z 00000KT 9999 TS FEW017CB 28/25 Q1008 NOSIG,0,0,0,10000,1,0,0,TS
2026-04-30 13:00:00,METAR WMKK 301300Z 00000KT 9999 TS FEW017CB 28/25 Q1008 NOSIG,0,0,0,10000,1,0,0,TS
2026-04-30 12:30:00,METAR WMKK 301230Z VRB02KT 9999 TS FEW017CB 29/25 Q1008 NOSIG,0,2,0,10000,1,0,0,TS
2026-04-30 12:00:00,METAR WMKK 301200Z VRB03KT 9999 TS FEW017CB 29/24 Q1007 NOSIG,0,3,0,10000,1,0,0,TS
2026-04-30 11:52:00,SPECI WMKK 301152Z 36003KT 310V060 9999 TS FEW017CB 29/24 Q1007 NOSIG,0,3,0,10000,1,0,0,TS
2026-04-30 11:30:00,METAR WMKK 301130Z VRB02KT 9999 FEW017CB 29/24 Q1007 NOSIG,0,2,0,10000,0,0,0,
2026-04-30 11:00:00,METAR WMKK 301100Z COR VRB02KT 9999 FEW030 29/25 Q1006 NOSIG,0,2,0,10000,0,0,0,
2026-04-30 10:30:00,METAR WMKK 301030Z 29004KT 250V350 9000 FEW018 29/26 Q1006 NOSIG,0,4,0,9000,0,0,0,
2026-04-30 10:00:00,METAR WMKK 301000Z VRB03KT 9000 FEW017CB 30/25 Q1005 RETS NOSIG,0,3,0,9000,1,0,0,TS
2026-04-30 09:30:00,METAR WMKK 300930Z 27004KT 220V330 8000 TS VCSH FEW017CB 31/26 Q1005 NOSIG,0,4,0,8000,1,0,0,"SH,TS,VC"
2026-04-30 09:05:00,SPECI WMKK 300905Z VRB03KT 8000 TS VCSH FEW017CB SCT018 31/26 Q1006 TEMPO 7000 -TSRA,0,3,0,8000,1,0,0,"RA,SH,TS,VC"
2026-04-30 09:00:00,METAR WMKK 300900Z VRB03KT 9000 VCSH FEW017CB SCT018 31/26 Q1006 TEMPO 7000 -TSRA,0,3,0,9000,1,0,0,"RA,SH,VC"
2026-04-30 08:30:00,METAR WMKK 300830Z VRB04KT 9000 VCSH FEW017CB SCT018 32/26 Q1005 TEMPO 7000 -TSRA,0,4,0,9000,1,0,0,"RA,SH,VC"
2026-04-30 08:00:00,METAR WMKK 300800Z VRB03KT 9000 VCSH FEW017CB SCT018 33/27 Q1005 NOSIG,0,3,0,9000,0,0,0,"SH,VC"
2026-04-30 07:30:00,METAR WMKK 300730Z VRB03KT 9999 SCT018 33/27 Q1006 NOSIG,0,3,0,10000,0,0,0,
2026-04-30 07:00:00,METAR WMKK 300700Z 25003KT 170V310 9999 SCT018 33/27 Q1007 NOSIG,0,3,0,10000,0,0,0,
2026-04-30 06:30:00,METAR WMKK 300630Z VRB03KT 9999 SCT018 34/27 Q1007 NOSIG,0,3,0,10000,0,0,0,
2026-04-30 06:00:00,METAR WMKK 300600Z VRB02KT 9999 FEW017CB SCT018 34/27 Q1007 NOSIG,0,2,0,10000,0,0,0,
2026-04-30 05:30:00,METAR WMKK 300530Z VRB03KT 9999 FEW017CB SCT018 33/26 Q1008 NOSIG,0,3,0,10000,0,0,0,
2026-04-30 05:00:00,METAR WMKK 300500Z VRB03KT 9999 SCT018 32/26 Q1008 NOSIG,0,3,0,10000,0,0,0,
2026-04-30 04:30:00,METAR WMKK 300430Z VRB03KT 9999 FEW017CB SCT018 32/26 Q1009 NOSIG,0,3,0,10000,0,0,0,
2026-04-30 04:00:00,METAR WMKK 300400Z VRB01KT 9999 FEW017CB SCT018 32/26 Q1009 NOSIG,0,1,0,10000,0,0,0,
2026-04-30 03:30:00,METAR WMKK 300330Z VRB01KT 9999 FEW017CB SCT018 32/25 Q1010 NOSIG,0,1,0,10000,0,0,0,
2026-04-30 03:00:00,METAR WMKK 300300Z VRB02KT 9999 FEW018 32/25 Q1010 NOSIG,0,2,0,10000,0,0,0,
2026-04-30 02:30:00,METAR WMKK 300230Z VRB03KT 9999 FEW018 32/25 Q1010 NOSIG,0,3,0,10000,0,0,0,
2026-04-30 02:00:00,METAR WMKK 300200Z VRB03KT 9999 FEW018 31/25 Q1009 NOSIG,0,3,0,10000,0,0,0,
2026-04-30 01:30:00,METAR WMKK 300130Z VRB03KT 9999 FEW018 30/26 Q1009 NOSIG,0,3,0,10000,0,0,0,
2026-04-30 01:00:00,METAR WMKK 300100Z 15003KT 080V250 9999 FEW018 29/26 Q1009 NOSIG,0,3,0,10000,0,0,0,
2026-04-30 00:30:00,METAR WMKK 300030Z VRB02KT 9000 FEW030 28/26 Q1009 NOSIG,0,2,0,9000,0,0,0,
2026-04-30 00:00:00,METAR WMKK 300000Z VRB01KT 9999 FEW010 27/25 Q1009 NOSIG,0,1,0,10000,0,0,0,
2026-04-29 23:30:00,METAR WMKK 292330Z 00000KT 9999 FEW010 26/25 Q1008 NOSIG,0,0,0,10000,0,0,0,
2026-04-29 23:00:00,METAR WMKK 292300Z VRB02KT 9999 FEW010 FEW017CB 26/25 Q1008 NOSIG,0,2,0,10000,0,0,0,
2026-04-29 22:30:00,METAR WMKK 292230Z 00000KT 9999 FEW010 FEW017CB 26/25 Q1008 NOSIG,0,0,0,10000,0,0,0,
2026-04-29 22:00:00,METAR WMKK 292200Z VRB02KT 9999 FEW030 27/25 Q1008 NOSIG,0,2,0,10000,0,0,0,
2026-04-29 21:30:00,METAR WMKK 292130Z 00000KT 9999 FEW017CB 27/25 Q1008 NOSIG,0,0,0,10000,0,0,0,
2026-04-29 21:00:00,METAR WMKK 292100Z VRB01KT 9999 FEW017CB 27/25 Q1008 NOSIG,0,1,0,10000,0,0,0,
2026-04-29 20:30:00,METAR WMKK 292030Z VRB02KT 9999 FEW017CB 27/25 Q1008 NOSIG,0,2,0,10000,0,0,0,
2026-04-29 20:00:00,METAR WMKK 292000Z 03003KT 360V100 9999 FEW017CB 27/25 Q1008 NOSIG,0,3,0,10000,0,0,0,
2026-04-29 19:30:00,METAR WMKK 291930Z 00000KT 9999 FEW010 FEW017CB 26/25 Q1008 NOSIG,0,0,0,10000,0,0,0,
2026-04-29 19:00:00,METAR WMKK 291900Z 00000KT 9999 FEW010 FEW017CB 26/25 Q1009 NOSIG,0,0,0,10000,0,0,0,
2026-04-29 18:30:00,METAR WMKK 291830Z 00000KT 9999 FEW017CB 27/25 Q1009 NOSIG,0,0,0,10000,0,0,0,
2026-04-29 18:00:00,METAR WMKK 291800Z 32003KT 290V350 9999 FEW017CB 27/25 Q1009 NOSIG,0,3,0,10000,0,0,0,
2026-04-29 17:30:00,METAR WMKK 291730Z VRB02KT 9999 FEW017CB 27/26 Q1009 NOSIG,0,2,0,10000,0,0,0,
2026-04-29 17:00:00,METAR WMKK 291700Z COR VRB02KT 9999 FEW017CB 27/26 Q1009 NOSIG,0,2,0,10000,0,0,0,
2026-04-29 16:30:00,METAR WMKK 291630Z COR 00000KT 9999 FEW017CB 27/26 Q1009 NOSIG,0,0,0,10000,0,0,0,
2026-04-29 16:00:00,METAR WMKK 291600Z 08003KT 030V130 9000 FEW010 FEW017CB 27/26 Q1009 NOSIG,0,3,0,9000,0,0,0,
2026-04-29 15:30:00,METAR WMKK 291530Z 09005KT 050V110 7000 -RA FEW010 FEW017CB SCT030 28/25 Q1009 RERA BECMG 9000 NSW,0,5,0,7000,0,0,0,"-RA,RA"
2026-04-29 15:00:00,METAR WMKK 291500Z 00000KT 5000 RA FEW008 FEW017CB SCT028 27/26 Q1009 TEMPO 7000 -RA,0,0,0,5000,0,0,0,"-RA,RA"
2026-04-29 14:30:00,METAR WMKK 291430Z VRB02KT 5000 RA FEW008 FEW017CB SCT028 27/25 Q1009 TEMPO 7000 -RA,0,2,0,5000,0,0,0,"-RA,RA"
2026-04-29 14:11:00,SPECI WMKK 291411Z VRB01KT 5000 RA FEW008 FEW017CB SCT030 28/25 Q1009 NOSIG,0,1,0,5000,0,0,0,RA
2026-04-29 14:00:00,METAR WMKK 291400Z VRB02KT 9999 FEW030 29/24 Q1009 NOSIG,0,2,0,10000,0,0,0,
2026-04-29 13:30:00,METAR WMKK 291330Z 07004KT 350V160 9999 FEW030 29/24 Q1009 NOSIG,0,4,0,10000,0,0,0,
2026-04-29 13:00:00,METAR WMKK 291300Z 02003KT 320V060 9999 FEW030 29/24 Q1008 NOSIG,0,3,0,10000,0,0,0,
2026-04-29 12:30:00,METAR WMKK 291230Z 01003KT 320V060 9999 FEW030 28/23 Q1007 NOSIG,0,3,0,10000,0,0,0,
2026-04-29 12:00:00,METAR WMKK 291200Z 36003KT 310V050 9999 FEW030 29/23 Q1007 NOSIG,0,3,0,10000,0,0,0,
2026-04-29 11:30:00,METAR WMKK 291130Z 03003KT 350V100 9999 FEW030 29/23 Q1007 NOSIG,0,3,0,10000,0,0,0,
2026-04-29 11:00:00,METAR WMKK 291100Z VRB03KT 9999 FEW030 29/23 Q1006 NOSIG,0,3,0,10000,0,0,0,
2026-04-29 10:30:00,METAR WMKK 291030Z 03004KT 340V100 9999 FEW030 29/23 Q1006 NOSIG,0,4,0,10000,0,0,0,
2026-04-29 10:00:00,METAR WMKK 291000Z COR 35003KT 290V060 9999 FEW018 28/23 Q1005 RETS NOSIG,0,3,0,10000,1,0,0,TS
2026-04-29 09:30:00,METAR WMKK 290930Z 27004KT 200V330 9999 FEW018 27/24 Q1006 RETS NOSIG,0,4,0,10000,1,0,0,TS
2026-04-29 09:00:00,METAR WMKK 290900Z COR 28006KT 210V350 9000 TS FEW017CB 28/23 Q1006 RETSRA NOSIG,0,6,0,9000,1,0,0,"RA,TS"
2026-04-29 08:30:00,METAR WMKK 290830Z 31013KT 250V350 9000 -TSRA FEW010 FEW017CB SCT030 29/24 Q1006 TEMPO 30015G25KT 5000 TSRA,0,13,0,9000,1,0,0,"RA,TS"
2026-04-29 08:00:00,METAR WMKK 290800Z VRB03KT 9000 -TSRA FEW010 FEW017CB SCT030 31/26 Q1006 TEMPO 7000 -TSRA,0,3,0,9000,1,0,0,RA
2026-04-29 07:30:00,METAR WMKK 290730Z VRB03KT 9000 -TSRA FEW010 FEW017CB SCT018 30/25 Q1006 TEMPO 7000 -TSRA,0,3,0,9000,1,0,0,RA
2026-04-29 07:00:00,METAR WMKK 290700Z 15005KT 080V220 9000 -TSRA FEW010 FEW017CB SCT018 30/25 Q1006 TEMPO 7000 -TSRA,0,5,0,9000,1,0,0,RA
2026-04-29 06:30:00,METAR WMKK 290630Z 25006KT 170V330 9000 TS VCSH FEW017CB SCT018 34/26 Q1006 TEMPO 25010G25KT 7000 -TSRA,0,6,0,9000,1,0,0,"RA,SH,TS,VC"
2026-04-29 06:15:00,SPECI WMKK 290615Z 27004KT 210V320 9000 TS VCSH FEW017CB SCT018 35/26 Q1007 NOSIG,0,4,0,9000,1,0,0,"SH,TS,VC"
2026-04-29 06:00:00,METAR WMKK 290600Z VRB03KT 9999 FEW017CB SCT018 35/24 Q1007 NOSIG,0,3,0,10000,0,0,0,
2026-04-29 05:30:00,METAR WMKK 290530Z VRB03KT 9999 FEW017CB SCT018 35/24 Q1008 NOSIG,0,3,0,10000,0,0,0,
2026-04-29 05:00:00,METAR WMKK 290500Z VRB05KT 9999 FEW017CB SCT018 36/24 Q1008 NOSIG,0,5,0,10000,0,0,0,
2026-04-29 04:30:00,METAR WMKK 290430Z VRB03KT 9999 FEW018 35/25 Q1009 NOSIG,0,3,0,10000,0,0,0,
2026-04-29 04:00:00,METAR WMKK 290400Z VRB02KT 9999 FEW018 34/25 Q1009 NOSIG,0,2,0,10000,0,0,0,
2026-04-29 03:30:00,METAR WMKK 290330Z VRB02KT 9999 FEW018 33/24 Q1009 NOSIG,0,2,0,10000,0,0,0,
2026-04-29 03:00:00,METAR WMKK 290300Z VRB02KT 9999 FEW018 33/25 Q1009 NOSIG,0,2,0,10000,0,0,0,
2026-04-29 02:30:00,METAR WMKK 290230Z VRB03KT 9999 FEW018 32/25 Q1009 NOSIG,0,3,0,10000,0,0,0,
2026-04-29 02:00:00,METAR WMKK 290200Z 02003KT 310V080 9999 FEW018 31/25 Q1009 NOSIG,0,3,0,10000,0,0,0,
2026-04-29 01:30:00,METAR WMKK 290130Z 05005KT 330V120 9999 FEW018 31/25 Q1009 NOSIG,0,5,0,10000,0,0,0,
2026-04-29 01:00:00,METAR WMKK 290100Z 05006KT 310V110 9999 FEW020 30/25 Q1008 NOSIG,0,6,0,10000,0,0,0,
2026-04-29 00:30:00,METAR WMKK 290030Z 01003KT 320V080 9999 FEW018 28/25 Q1008 NOSIG,0,3,0,10000,0,0,0,
2026-04-29 00:00:00,METAR WMKK 290000Z VRB03KT 9999 FEW030 27/25 Q1008 NOSIG,0,3,0,10000,0,0,0,
2026-04-28 23:30:00,METAR WMKK 282330Z VRB03KT 9000 FEW010 26/25 Q1008 NOSIG,0,3,0,9000,0,0,0,
2026-04-28 23:00:00,METAR WMKK 282300Z VRB02KT 9000 FEW010 26/25 Q1007 NOSIG,0,2,0,9000,0,0,0,
2026-04-28 22:30:00,METAR WMKK 282230Z VRB02KT 8000 FEW010 26/25 Q1007 NOSIG,0,2,0,8000,0,0,0,
2026-04-28 22:00:00,METAR WMKK 282200Z 00000KT 9000 FEW010 26/25 Q1007 NOSIG,0,0,0,9000,0,0,0,
2026-04-28 21:30:00,METAR WMKK 282130Z 00000KT 9000 FEW010 26/25 Q1006 NOSIG,0,0,0,9000,0,0,0,
2026-04-28 21:00:00,METAR WMKK 282100Z 00000KT 9000 FEW010 26/25 Q1007 NOSIG,0,0,0,9000,0,0,0,
2026-04-28 20:30:00,METAR WMKK 282030Z 00000KT 9000 FEW010 26/25 Q1006 NOSIG,0,0,0,9000,0,0,0,
2026-04-28 20:00:00,METAR WMKK 282000Z 00000KT 9000 FEW010 26/24 Q1007 NOSIG,0,0,0,9000,0,0,0,
2026-04-28 19:30:00,METAR WMKK 281930Z 00000KT 9000 FEW010 26/25 Q1007 NOSIG,0,0,0,9000,0,0,0,
2026-04-28 19:00:00,METAR WMKK 281900Z 00000KT 9999 FEW030 26/25 Q1007 NOSIG,0,0,0,10000,0,0,0,
2026-04-28 18:30:00,METAR WMKK 281830Z 00000KT 9999 FEW030 26/24 Q1007 NOSIG,0,0,0,10000,0,0,0,
2026-04-28 18:00:00,METAR WMKK 281800Z 00000KT 9999 FEW030 26/25 Q1008 NOSIG,0,0,0,10000,0,0,0,
2026-04-28 17:30:00,METAR WMKK 281730Z VRB02KT 9999 FEW030 27/25 Q1008 NOSIG,0,2,0,10000,0,0,0,
2026-04-28 17:00:00,METAR WMKK 281700Z 36003KT 300V050 9000 FEW017CB 27/24 Q1008 NOSIG,0,3,0,9000,0,0,0,
2026-04-28 16:30:00,METAR WMKK 281630Z 35005KT 310V040 9000 FEW017CB 27/24 Q1008 NOSIG,0,5,0,9000,0,0,0,
2026-04-28 16:00:00,METAR WMKK 281600Z 01004KT 320V060 9000 FEW017CB 27/24 Q1008 NOSIG,0,4,0,9000,0,0,0,
2026-04-28 15:30:00,METAR WMKK 281530Z 03004KT 340V080 9000 FEW017CB 27/24 Q1008 NOSIG,0,4,0,9000,0,0,0,
2026-04-28 15:00:00,METAR WMKK 281500Z 03004KT 330V070 9000 FEW010 FEW017CB 27/25 Q1008 RETSRA NOSIG,0,4,0,9000,1,0,0,RA
2026-04-28 14:30:00,METAR WMKK 281430Z 01004KT 320V060 8000 -TSRA FEW009 FEW017CB SCT030 27/25 Q1008 NOSIG,0,4,0,8000,1,0,0,RA
2026-04-28 14:00:00,METAR WMKK 281400Z 09007KT 050V140 8000 -TSRA FEW009 FEW017CB SCT030 27/25 Q1008 NOSIG,0,7,0,8000,1,0,0,RA
2026-04-28 13:30:00,METAR WMKK 281330Z 03005KT 330V080 7000 -TSRA FEW008 FEW017CB SCT030 27/25 Q1008 NOSIG,0,5,0,7000,1,0,0,RA
2026-04-28 13:00:00,METAR WMKK 281300Z 12008KT 080V200 6000 -TSRA FEW007 FEW017CB SCT030 27/25 Q1007 TEMPO 12010G25KT 5000 TSRA,0,8,0,6000,1,0,0,"RA,TS"
2026-04-28 12:30:00,METAR WMKK 281230Z 06004KT 340V120 9000 TS FEW017CB SCT030 29/25 Q1007 TEMPO 06008G20KT 7000 -TSRA,0,4,0,9000,1,0,0,"RA,TS"
2026-04-28 12:00:00,METAR WMKK 281200Z 01004KT 310V110 9000 TS FEW017CB 31/25 Q1006 NOSIG,0,4,0,9000,1,0,0,TS
2026-04-28 11:30:00,METAR WMKK 281130Z 00000KT 9000 TS FEW017CB 31/27 Q1006 NOSIG,0,0,0,9000,1,0,0,TS
2026-04-28 11:09:00,SPECI WMKK 281109Z VRB02KT 9000 TS FEW017CB 31/26 Q1005 NOSIG,0,2,0,9000,1,0,0,TS
2026-04-28 11:00:00,METAR WMKK 281100Z VRB02KT 9999 FEW017CB 31/26 Q1005 NOSIG,0,2,0,10000,0,0,0,
2026-04-28 10:30:00,METAR WMKK 281030Z VRB03KT 9999 FEW017CB 32/26 Q1004 NOSIG,0,3,0,10000,0,0,0,
2026-04-28 10:00:00,METAR WMKK 281000Z VRB03KT 9999 FEW017CB 33/26 Q1004 NOSIG,0,3,0,10000,0,0,0,
2026-04-28 09:30:00,METAR WMKK 280930Z VRB03KT 9999 FEW017CB 33/27 Q1004 NOSIG,0,3,0,10000,0,0,0,
2026-04-28 09:00:00,METAR WMKK 280900Z VRB04KT 9999 FEW018 34/27 Q1004 NOSIG,0,4,0,10000,0,0,0,
2026-04-28 08:30:00,METAR WMKK 280830Z VRB04KT 9999 FEW018 34/26 Q1004 NOSIG,0,4,0,10000,0,0,0,
2026-04-28 08:00:00,METAR WMKK 280800Z VRB04KT 9999 SCT018 35/25 Q1004 NOSIG,0,4,0,10000,0,0,0,
2026-04-28 07:30:00,METAR WMKK 280730Z 13004KT 070V210 9999 SCT018 35/24 Q1005 NOSIG,0,4,0,10000,0,0,0,
2026-04-28 07:00:00,METAR WMKK 280700Z VRB04KT 9999 SCT018 35/24 Q1005 NOSIG,0,4,0,10000,0,0,0,
2026-04-28 06:30:00,METAR WMKK 280630Z VRB04KT 9999 SCT018 35/25 Q1006 NOSIG,0,4,0,10000,0,0,0,
2026-04-28 06:00:00,METAR WMKK 280600Z VRB05KT 9999 SCT018 36/24 Q1006 NOSIG,0,5,0,10000,0,0,0,
2026-04-28 05:30:00,METAR WMKK 280530Z VRB04KT 9999 SCT018 35/24 Q1007 NOSIG,0,4,0,10000,0,0,0,
2026-04-28 05:00:00,METAR WMKK 280500Z 13004KT 060V200 9999 SCT018 34/25 Q1008 NOSIG,0,4,0,10000,0,0,0,
2026-04-28 04:30:00,METAR WMKK 280430Z VRB04KT 9999 FEW018 35/26 Q1008 NOSIG,0,4,0,10000,0,0,0,
2026-04-28 04:00:00,METAR WMKK 280400Z 08005KT 020V140 9999 FEW018 34/25 Q1008 NOSIG,0,5,0,10000,0,0,0,
2026-04-28 03:30:00,METAR WMKK 280330Z 10005KT 010V170 9999 FEW017 33/26 Q1009 NOSIG,0,5,0,10000,0,0,0,
2026-04-28 03:00:00,METAR WMKK 280300Z VRB04KT 9999 FEW018 33/25 Q1009 NOSIG,0,4,0,10000,0,0,0,
2026-04-28 02:30:00,METAR WMKK 280230Z VRB03KT 9999 FEW018 31/25 Q1009 NOSIG,0,3,0,10000,0,0,0,
2026-04-28 02:00:00,METAR WMKK 280200Z VRB04KT 9999 FEW018 31/25 Q1009 NOSIG,0,4,0,10000,0,0,0,
2026-04-28 01:30:00,METAR WMKK 280130Z 12006KT 070V170 9999 FEW018 30/25 Q1009 NOSIG,0,6,0,10000,0,0,0,
2026-04-28 01:00:00,METAR WMKK 280100Z 14004KT 080V210 9999 FEW018 29/25 Q1008 NOSIG,0,4,0,10000,0,0,0,
2026-04-28 00:30:00,METAR WMKK 280030Z 11005KT 070V160 9000 FEW018 29/25 Q1008 NOSIG,0,5,0,9000,0,0,0,
2026-04-28 00:00:00,METAR WMKK 280000Z VRB02KT 9000 FEW018 27/24 Q1007 NOSIG,0,2,0,9000,0,0,0,
2026-04-27 23:30:00,METAR WMKK 272330Z 00000KT 9000 FEW010 26/24 Q1007 NOSIG,0,0,0,9000,0,0,0,
2026-04-27 23:00:00,METAR WMKK 272300Z VRB03KT 8000 FEW010 25/24 Q1006 NOSIG,0,3,0,8000,0,0,0,
2026-04-27 22:30:00,METAR WMKK 272230Z VRB03KT 8000 FEW008 26/24 Q1006 NOSIG,0,3,0,8000,0,0,0,
2026-04-27 22:00:00,METAR WMKK 272200Z VRB01KT 8000 FEW008 25/24 Q1006 NOSIG,0,1,0,8000,0,0,0,
2026-04-27 21:30:00,METAR WMKK 272130Z VRB02KT 8000 FEW008 25/24 Q1006 NOSIG,0,2,0,8000,0,0,0,
2026-04-27 21:00:00,METAR WMKK 272100Z VRB01KT 8000 FEW008 26/24 Q1006 NOSIG,0,1,0,8000,0,0,0,
2026-04-27 20:30:00,METAR WMKK 272030Z 00000KT 8000 FEW008 25/24 Q1006 NOSIG,0,0,0,8000,0,0,0,
2026-04-27 20:00:00,METAR WMKK 272000Z VRB01KT 8000 FEW008 26/24 Q1006 NOSIG,0,1,0,8000,0,0,0,
2026-04-27 19:30:00,METAR WMKK 271930Z VRB02KT 8000 FEW008 25/24 Q1007 NOSIG,0,2,0,8000,0,0,0,
2026-04-27 19:00:00,METAR WMKK 271900Z 16003KT 110V200 7000 FEW006 25/24 Q1007 NOSIG,0,3,0,7000,0,0,0,
2026-04-27 18:30:00,METAR WMKK 271830Z VRB02KT 8000 FEW008 25/24 Q1007 NOSIG,0,2,0,8000,0,0,0,
2026-04-27 18:00:00,METAR WMKK 271800Z VRB02KT 8000 FEW008 25/24 Q1007 NOSIG,0,2,0,8000,0,0,0,
2026-04-27 17:30:00,METAR WMKK 271730Z 00000KT 8000 FEW008 25/24 Q1008 NOSIG,0,0,0,8000,0,0,0,
2026-04-27 17:00:00,METAR WMKK 271700Z VRB02KT 8000 FEW008 25/24 Q1008 NOSIG,0,2,0,8000,0,0,0,
2026-04-27 16:30:00,METAR WMKK 271630Z 00000KT 9000 FEW010 25/24 Q1009 NOSIG,0,0,0,9000,0,0,0,
2026-04-27 16:00:00,METAR WMKK 271600Z 00000KT 9000 FEW010 26/24 Q1009 NOSIG,0,0,0,9000,0,0,0,
2026-04-27 15:30:00,METAR WMKK 271530Z 00000KT 9999 FEW030 26/24 Q1009 NOSIG,0,0,0,10000,0,0,0,
2026-04-27 15:00:00,METAR WMKK 271500Z 00000KT 9999 FEW030 25/24 Q1009 NOSIG,0,0,0,10000,0,0,0,
2026-04-27 14:30:00,METAR WMKK 271430Z VRB02KT 9999 FEW030 25/24 Q1008 NOSIG,0,2,0,10000,0,0,0,
2026-04-27 14:00:00,METAR WMKK 271400Z VRB02KT 9999 FEW030 26/24 Q1008 NOSIG,0,2,0,10000,0,0,0,
2026-04-27 13:30:00,METAR WMKK 271330Z 00000KT 9999 FEW030 26/24 Q1008 NOSIG,0,0,0,10000,0,0,0,
2026-04-27 13:00:00,METAR WMKK 271300Z 00000KT 9000 FEW010 26/24 Q1008 NOSIG,0,0,0,9000,0,0,0,
2026-04-27 12:30:00,METAR WMKK 271230Z VRB03KT 9000 FEW010 26/24 Q1007 NOSIG,0,3,0,9000,0,0,0,
2026-04-27 12:00:00,METAR WMKK 271200Z 00000KT 9000 FEW010 FEW017CB 25/24 Q1007 NOSIG,0,0,0,9000,0,0,0,
2026-04-27 11:30:00,METAR WMKK 271130Z 14004KT 090V190 9000 FEW010 FEW017CB 25/24 Q1006 NOSIG,0,4,0,9000,0,0,0,
2026-04-27 11:00:00,METAR WMKK 271100Z 15004KT 080V210 9000 FEW010 FEW017CB 25/24 Q1006 NOSIG,0,4,0,9000,0,0,0,
2026-04-27 10:30:00,METAR WMKK 271030Z 00000KT 9000 FEW010 FEW017CB 25/23 Q1006 NOSIG,0,0,0,9000,0,0,0,
2026-04-27 10:00:00,METAR WMKK 271000Z 00000KT 8000 FEW010 FEW017CB SCT030 25/23 Q1006 RETSRA NOSIG,0,0,0,8000,1,0,0,RA
2026-04-27 09:30:00,METAR WMKK 270930Z 11004KT 050V180 7000 -TSRA FEW008 FEW017CB SCT030 25/23 Q1005 RETSRA TEMPO 8000 -TSRA,0,4,0,7000,1,0,0,RA
2026-04-27 09:00:00,METAR WMKK 270900Z VRB02KT 5000 TSRA FEW006 FEW017CB SCT018 25/23 Q1005 RETSRA TEMPO 7000 -TSRA,0,2,0,5000,1,0,0,"RA,TS"
2026-04-27 08:30:00,METAR WMKK 270830Z VRB19G47KT 0500 +TSRA SCT001 FEW016CB SCT018 26/21 Q1006 TEMPO 12025G48KT 0500 +TSRA,0,19,1,804500,1,0,0,RA
2026-04-27 08:27:00,SPECI WMKK 270827Z 12023G47KT 050V210 0500 +TSRA SCT001 FEW016CB SCT018 26/22 Q1006 TEMPO 12025G48KT 0500 +TSRA,0,23,1,804500,1,0,0,RA
2026-04-27 08:13:00,SPECI WMKK 270813Z VRB09G25KT 8000 TS VCSH FEW017CB SCT018 29/25 Q1006 TEMPO 6000 TSRA,0,9,1,8000,1,0,0,"RA,SH,TS,VC"
2026-04-27 08:03:00,SPECI WMKK 270803Z 16006KT 090V260 9000 TS VCSH FEW017CB SCT018 31/27 Q1005 TEMPO 6000 TSRA,0,6,0,9000,1,0,0,"RA,SH,TS,VC"
2026-04-27 08:00:00,METAR WMKK 270800Z 17005KT 090V260 9000 VCSH FEW017CB SCT018 31/27 Q1005 NOSIG,0,5,0,9000,0,0,0,"SH,VC"
2026-04-27 07:30:00,METAR WMKK 270730Z VRB04KT 9000 VCSH FEW017CB SCT018 34/27 Q1005 NOSIG,0,4,0,9000,0,0,0,"SH,VC"
2026-04-27 07:00:00,METAR WMKK 270700Z VRB03KT 9999 FEW017CB SCT018 34/26 Q1005 NOSIG,0,3,0,10000,0,0,0,
2026-04-27 06:30:00,METAR WMKK 270630Z VRB03KT 9999 SCT018 33/26 Q1006 NOSIG,0,3,0,10000,0,0,0,
2026-04-27 06:00:00,METAR WMKK 270600Z VRB03KT 9999 FEW017CB SCT018 35/23 Q1006 NOSIG,0,3,0,10000,0,0,0,
2026-04-27 05:30:00,METAR WMKK 270530Z 12004KT 030V200 9999 FEW017CB SCT018 35/24 Q1007 NOSIG,0,4,0,10000,0,0,0,
2026-04-27 05:00:00,METAR WMKK 270500Z VRB04KT 9999 FEW017CB SCT018 35/24 Q1008 NOSIG,0,4,0,10000,0,0,0,
2026-04-27 04:30:00,METAR WMKK 270430Z VRB05KT 9999 FEW017CB SCT018 35/24 Q1008 NOSIG,0,5,0,10000,0,0,0,
2026-04-27 04:00:00,METAR WMKK 270400Z VRB03KT 9999 FEW017CB SCT018 34/25 Q1008 NOSIG,0,3,0,10000,0,0,0,
2026-04-27 03:30:00,METAR WMKK 270330Z VRB06KT 9999 SCT018 34/24 Q1009 NOSIG,0,6,0,10000,0,0,0,
2026-04-27 03:00:00,METAR WMKK 270300Z VRB05KT 9999 FEW018 33/25 Q1009 NOSIG,0,5,0,10000,0,0,0,
2026-04-27 02:30:00,METAR WMKK 270230Z 10004KT 020V170 9999 FEW018 33/25 Q1009 NOSIG,0,4,0,10000,0,0,0,
2026-04-27 02:00:00,METAR WMKK 270200Z 08003KT 360V160 9999 FEW018 32/25 Q1009 NOSIG,0,3,0,10000,0,0,0,
2026-04-27 01:30:00,METAR WMKK 270130Z VRB02KT 9999 FEW018 31/25 Q1009 NOSIG,0,2,0,10000,0,0,0,
2026-04-27 01:00:00,METAR WMKK 270100Z VRB03KT 9999 FEW018 30/25 Q1008 NOSIG,0,3,0,10000,0,0,0,
2026-04-27 00:30:00,METAR WMKK 270030Z VRB01KT 9999 FEW030 28/25 Q1008 NOSIG,0,1,0,10000,0,0,0,
2026-04-27 00:00:00,METAR WMKK 270000Z VRB02KT 9000 FEW030 27/25 Q1007 NOSIG,0,2,0,9000,0,0,0,
2026-04-26 23:30:00,METAR WMKK 262330Z VRB02KT 9000 FEW030 26/24 Q1007 NOSIG,0,2,0,9000,0,0,0,
2026-04-26 23:00:00,METAR WMKK 262300Z 00000KT 9000 FEW010 26/24 Q1007 NOSIG,0,0,0,9000,0,0,0,
2026-04-26 22:30:00,METAR WMKK 262230Z 00000KT 9000 FEW010 26/24 Q1006 NOSIG,0,0,0,9000,0,0,0,
2026-04-26 22:00:00,METAR WMKK 262200Z 00000KT 9000 FEW010 26/25 Q1006 NOSIG,0,0,0,9000,0,0,0,
2026-04-26 21:30:00,METAR WMKK 262130Z 00000KT 9000 FEW010 26/24 Q1006 NOSIG,0,0,0,9000,0,0,0,
2026-04-26 21:00:00,METAR WMKK 262100Z VRB02KT 9000 FEW010 26/25 Q1006 NOSIG,0,2,0,9000,0,0,0,
2026-04-26 20:30:00,METAR WMKK 262030Z 00000KT 9000 FEW010 26/25 Q1006 NOSIG,0,0,0,9000,0,0,0,
2026-04-26 20:00:00,METAR WMKK 262000Z 00000KT 9000 FEW010 26/25 Q1006 NOSIG,0,0,0,9000,0,0,0,
2026-04-26 19:30:00,METAR WMKK 261930Z VRB02KT 9999 FEW030 26/25 Q1006 NOSIG,0,2,0,10000,0,0,0,
2026-04-26 19:00:00,METAR WMKK 261900Z VRB03KT 9999 FEW030 27/25 Q1006 NOSIG,0,3,0,10000,0,0,0,
2026-04-26 18:30:00,METAR WMKK 261830Z 00000KT 9999 FEW030 26/25 Q1007 NOSIG,0,0,0,10000,0,0,0,
2026-04-26 18:00:00,METAR WMKK 261800Z VRB01KT 9999 FEW030 27/25 Q1007 NOSIG,0,1,0,10000,0,0,0,
2026-04-26 17:30:00,METAR WMKK 261730Z 00000KT 9999 FEW030 27/25 Q1007 NOSIG,0,0,0,10000,0,0,0,
2026-04-26 17:00:00,METAR WMKK 261700Z VRB03KT 9999 FEW030 28/26 Q1008 NOSIG,0,3,0,10000,0,0,0,
2026-04-26 16:30:00,METAR WMKK 261630Z 00000KT 9999 FEW030 28/26 Q1008 NOSIG,0,0,0,10000,0,0,0,
2026-04-26 16:00:00,METAR WMKK 261600Z VRB02KT 9999 FEW030 28/25 Q1008 NOSIG,0,2,0,10000,0,0,0,
2026-04-26 15:30:00,METAR WMKK 261530Z 00000KT 9999 FEW030 28/25 Q1008 NOSIG,0,0,0,10000,0,0,0,
2026-04-26 15:00:00,METAR WMKK 261500Z 07003KT 340V150 9999 FEW030 29/25 Q1008 NOSIG,0,3,0,10000,0,0,0,
2026-04-26 14:30:00,METAR WMKK 261430Z 09005KT 050V140 9999 FEW030 29/25 Q1008 NOSIG,0,5,0,10000,0,0,0,
2026-04-26 14:00:00,METAR WMKK 261400Z VRB02KT 9999 FEW030 28/25 Q1008 NOSIG,0,2,0,10000,0,0,0,
2026-04-26 13:30:00,METAR WMKK 261330Z VRB03KT 9999 FEW030 29/25 Q1008 NOSIG,0,3,0,10000,0,0,0,
2026-04-26 13:00:00,METAR WMKK 261300Z 13004KT 070V190 9999 FEW030 29/25 Q1007 NOSIG,0,4,0,10000,0,0,0,
2026-04-26 12:30:00,METAR WMKK 261230Z VRB01KT 9999 FEW030 29/27 Q1007 NOSIG,0,1,0,10000,0,0,0,
2026-04-26 12:00:00,METAR WMKK 261200Z 00000KT 9999 FEW030 30/26 Q1007 NOSIG,0,0,0,10000,0,0,0,
2026-04-26 11:30:00,METAR WMKK 261130Z VRB01KT 9999 FEW030 30/26 Q1006 NOSIG,0,1,0,10000,0,0,0,
2026-04-26 11:00:00,METAR WMKK 261100Z VRB02KT 9999 FEW020 31/25 Q1006 NOSIG,0,2,0,10000,0,0,0,
2026-04-26 10:30:00,METAR WMKK 261030Z VRB04KT 9999 FEW018 32/26 Q1005 NOSIG,0,4,0,10000,0,0,0,
2026-04-26 10:00:00,METAR WMKK 261000Z VRB03KT 9999 FEW018 32/26 Q1005 NOSIG,0,3,0,10000,0,0,0,
2026-04-26 09:30:00,METAR WMKK 260930Z VRB03KT 9999 FEW018 32/26 Q1005 NOSIG,0,3,0,10000,0,0,0,
2026-04-26 09:00:00,METAR WMKK 260900Z VRB02KT 9999 FEW017CB SCT018 32/26 Q1005 NOSIG,0,2,0,10000,0,0,0,
2026-04-26 08:30:00,METAR WMKK 260830Z 24005KT 160V320 9999 FEW017CB SCT018 33/26 Q1005 NOSIG,0,5,0,10000,0,0,0,
2026-04-26 08:00:00,METAR WMKK 260800Z VRB06KT 9999 FEW017CB SCT018 34/26 Q1005 NOSIG,0,6,0,10000,0,0,0,
2026-04-26 07:30:00,METAR WMKK 260730Z VRB05KT 9999 FEW017CB SCT018 34/26 Q1006 NOSIG,0,5,0,10000,0,0,0,
2026-04-26 07:00:00,METAR WMKK 260700Z VRB04KT 9999 FEW017CB SCT018 35/25 Q1006 NOSIG,0,4,0,10000,0,0,0,
2026-04-26 06:30:00,METAR WMKK 260630Z VRB06KT 9999 FEW017CB SCT018 36/23 Q1006 NOSIG,0,6,0,10000,0,0,0,
2026-04-26 06:00:00,METAR WMKK 260600Z 07008KT 360V130 9999 FEW017CB SCT018 36/23 Q1007 NOSIG,0,8,0,10000,0,0,0,
2026-04-26 05:30:00,METAR WMKK 260530Z 06009KT 360V130 9999 SCT018 36/23 Q1008 NOSIG,0,9,0,10000,0,0,0,
2026-04-26 05:00:00,METAR WMKK 260500Z 06007KT 340V150 9999 SCT018 35/24 Q1008 NOSIG,0,7,0,10000,0,0,0,
2026-04-26 04:30:00,METAR WMKK 260430Z 07007KT 360V140 9999 SCT018 34/24 Q1009 NOSIG,0,7,0,10000,0,0,0,
2026-04-26 04:00:00,METAR WMKK 260400Z 06007KT 340V140 9999 SCT018 34/24 Q1009 NOSIG,0,7,0,10000,0,0,0,
2026-04-26 03:30:00,METAR WMKK 260330Z VRB09KT 9999 FEW018 33/24 Q1009 NOSIG,0,9,0,10000,0,0,0,
2026-04-26 03:00:00,METAR WMKK 260300Z VRB03KT 9999 FEW018 32/25 Q1010 NOSIG,0,3,0,10000,0,0,0,
2026-04-26 02:30:00,METAR WMKK 260230Z VRB02KT 9999 FEW018 30/25 Q1010 NOSIG,0,2,0,10000,0,0,0,
2026-04-26 02:00:00,METAR WMKK 260200Z 00000KT 9999 FEW018 30/25 Q1010 NOSIG,0,0,0,10000,0,0,0,
2026-04-26 01:30:00,METAR WMKK 260130Z 00000KT 9999 FEW018 30/25 Q1010 NOSIG,0,0,0,10000,0,0,0,
2026-04-26 01:00:00,METAR WMKK 260100Z 00000KT 9999 FEW018 29/25 Q1009 NOSIG,0,0,0,10000,0,0,0,
2026-04-26 00:30:00,METAR WMKK 260030Z 00000KT 9999 FEW018 28/25 Q1009 NOSIG,0,0,0,10000,0,0,0,
2026-04-26 00:00:00,METAR WMKK 260000Z VRB02KT 9999 FEW030 26/25 Q1009 NOSIG,0,2,0,10000,0,0,0,
2026-04-25 23:30:00,METAR WMKK 252330Z 00000KT 9000 FEW010 26/25 Q1009 NOSIG,0,0,0,9000,0,0,0,
2026-04-25 23:00:00,METAR WMKK 252300Z 00000KT 9000 FEW010 26/24 Q1008 NOSIG,0,0,0,9000,0,0,0,
2026-04-25 22:30:00,METAR WMKK 252230Z VRB02KT 9000 FEW010 26/24 Q1008 NOSIG,0,2,0,9000,0,0,0,
2026-04-25 22:00:00,METAR WMKK 252200Z 08004KT 020V140 9000 FEW010 27/24 Q1007 NOSIG,0,4,0,9000,0,0,0,
2026-04-25 21:30:00,METAR WMKK 252130Z 00000KT 9000 FEW010 26/25 Q1007 NOSIG,0,0,0,9000,0,0,0,
2026-04-25 21:00:00,METAR WMKK 252100Z 00000KT 9000 FEW010 26/25 Q1007 NOSIG,0,0,0,9000,0,0,0,
2026-04-25 20:30:00,METAR WMKK 252030Z COR 00000KT 9000 FEW010 26/25 Q1007 NOSIG,0,0,0,9000,0,0,0,
2026-04-25 20:00:00,METAR WMKK 252000Z 00000KT 9000 FEW010 FEW017CB 26/25 Q1008 NOSIG,0,0,0,9000,0,0,0,
2026-04-25 19:30:00,METAR WMKK 251930Z VRB02KT 9000 FEW017CB 26/24 Q1008 NOSIG,0,2,0,9000,0,0,0,
2026-04-25 19:00:00,METAR WMKK 251900Z 00000KT 9000 FEW017CB 26/25 Q1008 NOSIG,0,0,0,9000,0,0,0,
2026-04-25 18:30:00,METAR WMKK 251830Z VRB02KT 9000 FEW017CB 26/24 Q1008 NOSIG,0,2,0,9000,0,0,0,
2026-04-25 18:00:00,METAR WMKK 251800Z 00000KT 9000 FEW017CB 26/24 Q1009 NOSIG,0,0,0,9000,0,0,0,
2026-04-25 17:30:00,METAR WMKK 251730Z 00000KT 9000 FEW017CB 26/24 Q1009 NOSIG,0,0,0,9000,0,0,0,
2026-04-25 17:00:00,METAR WMKK 251700Z 00000KT 9000 FEW017CB 26/24 Q1009 NOSIG,0,0,0,9000,0,0,0,
2026-04-25 16:30:00,METAR WMKK 251630Z VRB02KT 9000 FEW017CB 26/24 Q1009 NOSIG,0,2,0,9000,0,0,0,
2026-04-25 16:00:00,METAR WMKK 251600Z VRB02KT 9000 FEW017CB 26/24 Q1010 NOSIG,0,2,0,9000,0,0,0,
2026-04-25 15:30:00,METAR WMKK 251530Z VRB01KT 9000 FEW017CB 26/24 Q1010 NOSIG,0,1,0,9000,0,0,0,
2026-04-25 15:00:00,METAR WMKK 251500Z 00000KT 9000 FEW017CB 26/24 Q1010 NOSIG,0,0,0,9000,0,0,0,
2026-04-25 14:30:00,METAR WMKK 251430Z 00000KT 9000 FEW017CB 26/24 Q1010 NOSIG,0,0,0,9000,0,0,0,
2026-04-25 14:00:00,METAR WMKK 251400Z VRB03KT 9000 FEW017CB 26/24 Q1009 NOSIG,0,3,0,9000,0,0,0,
2026-04-25 13:30:00,METAR WMKK 251330Z VRB03KT 9000 FEW017CB 26/24 Q1009 NOSIG,0,3,0,9000,0,0,0,
2026-04-25 13:00:00,METAR WMKK 251300Z COR 05003KT 350V120 8000 FEW017CB SCT030 26/24 Q1009 NOSIG,0,3,0,8000,0,0,0,
2026-04-25 12:30:00,METAR WMKK 251230Z COR 34003KT 280V020 8000 FEW017CB SCT030 26/24 Q1009 NOSIG,0,3,0,8000,0,0,0,
2026-04-25 12:00:00,METAR WMKK 251200Z COR 01005KT 320V070 8000 FEW017CB SCT030 25/23 Q1008 RETSRA NOSIG,0,5,0,8000,1,0,0,RA
2026-04-25 11:30:00,METAR WMKK 251130Z 03004KT 330V100 6000 -TSRA FEW010 FEW017CB SCT030 26/23 Q1008 NOSIG,0,4,0,6000,1,0,0,RA
2026-04-25 11:00:00,METAR WMKK 251100Z 08009KT 040V120 6000 -TSRA FEW010 FEW017CB SCT030 27/24 Q1008 TEMPO 5000 TSRA,0,9,0,6000,1,0,0,"RA,TS"
2026-04-25 10:30:00,METAR WMKK 251030Z VRB01KT 8000 TS FEW017CB 29/25 Q1007 TEMPO 3000 +TSRA,0,1,0,8000,1,0,0,"RA,TS"
2026-04-25 10:00:00,METAR WMKK 251000Z 30005KT 240V340 9000 TS FEW017CB 30/25 Q1006 NOSIG,0,5,0,9000,1,0,0,TS
2026-04-25 09:55:00,SPECI WMKK 250955Z 31005KT 260V350 9000 TS FEW017CB 30/25 Q1006 NOSIG,0,5,0,9000,1,0,0,TS
2026-04-25 09:30:00,METAR WMKK 250930Z 28004KT 230V330 9000 VCSH FEW017CB 30/25 Q1006 NOSIG,0,4,0,9000,0,0,0,"SH,VC"
2026-04-25 09:00:00,METAR WMKK 250900Z 25005KT 160V320 9000 VCSH FEW017CB 32/26 Q1005 NOSIG,0,5,0,9000,0,0,0,"SH,VC"
2026-04-25 08:30:00,METAR WMKK 250830Z COR VRB04KT 9000 VCSH FEW017CB 34/26 Q1005 NOSIG,0,4,0,9000,0,0,0,"SH,VC"
2026-04-25 08:00:00,METAR WMKK 250800Z VRB04KT 9999 FEW017CB 34/26 Q1005 NOSIG,0,4,0,10000,0,0,0,
2026-04-25 07:30:00,METAR WMKK 250730Z VRB04KT 9999 SCT018 33/27 Q1005 NOSIG,0,4,0,10000,0,0,0,
2026-04-25 07:00:00,METAR WMKK 250700Z VRB03KT 9000 SCT018 31/27 Q1006 NOSIG,0,3,0,9000,0,0,0,
2026-04-25 06:30:00,METAR WMKK 250630Z VRB03KT 9000 VCSH FEW017CB SCT018 33/26 Q1006 NOSIG,0,3,0,9000,0,0,0,"SH,VC"
2026-04-25 06:00:00,METAR WMKK 250600Z 00000KT 9000 VCSH FEW017CB SCT018 36/25 Q1007 NOSIG,0,0,0,9000,0,0,0,"SH,VC"
2026-04-25 05:30:00,METAR WMKK 250530Z VRB04KT 9999 SCT018 35/24 Q1007 NOSIG,0,4,0,10000,0,0,0,
2026-04-25 05:00:00,METAR WMKK 250500Z VRB05KT 9999 SCT018 36/24 Q1008 NOSIG,0,5,0,10000,0,0,0,
2026-04-25 04:30:00,METAR WMKK 250430Z 09006KT 360V150 9999 SCT018 35/25 Q1008 NOSIG,0,6,0,10000,0,0,0,
2026-04-25 04:00:00,METAR WMKK 250400Z VRB04KT 9999 FEW017CB 34/25 Q1009 NOSIG,0,4,0,10000,0,0,0,
2026-04-25 03:30:00,METAR WMKK 250330Z VRB05KT 9999 FEW017CB 34/26 Q1009 NOSIG,0,5,0,10000,0,0,0,
2026-04-25 03:00:00,METAR WMKK 250300Z 02004KT 300V100 9999 FEW017CB 33/25 Q1009 NOSIG,0,4,0,10000,0,0,0,
2026-04-25 02:30:00,METAR WMKK 250230Z 04009KT 340V100 9999 FEW017CB 33/25 Q1009 NOSIG,0,9,0,10000,0,0,0,
2026-04-25 02:00:00,METAR WMKK 250200Z 05006KT 350V120 9999 FEW017CB 32/25 Q1009 NOSIG,0,6,0,10000,0,0,0,
2026-04-25 01:30:00,METAR WMKK 250130Z 04003KT 340V100 9999 FEW017CB 31/25 Q1009 NOSIG,0,3,0,10000,0,0,0,
2026-04-25 01:00:00,METAR WMKK 250100Z VRB02KT 9999 FEW017CB 30/25 Q1009 NOSIG,0,2,0,10000,0,0,0,
2026-04-25 00:30:00,METAR WMKK 250030Z 00000KT 9000 FEW010 FEW017CB 28/25 Q1009 NOSIG,0,0,0,9000,0,0,0,
2026-04-25 00:00:00,METAR WMKK 250000Z 00000KT 9000 FEW010 FEW017CB 27/25 Q1008 NOSIG,0,0,0,9000,0,0,0,
2026-04-24 23:30:00,METAR WMKK 242330Z 00000KT 9000 FEW010 FEW017CB 26/25 Q1008 NOSIG,0,0,0,9000,0,0,0,
2026-04-24 23:00:00,METAR WMKK 242300Z 00000KT 9000 FEW017CB 26/25 Q1008 NOSIG,0,0,0,9000,0,0,0,
2026-04-24 22:30:00,METAR WMKK 242230Z 00000KT 9000 FEW017CB 26/25 Q1007 NOSIG,0,0,0,9000,0,0,0,
2026-04-24 22:00:00,METAR WMKK 242200Z 00000KT 9000 FEW017CB 26/25 Q1007 NOSIG,0,0,0,9000,0,0,0,
2026-04-24 21:30:00,METAR WMKK 242130Z 00000KT 8000 FEW017CB 26/25 Q1007 NOSIG,0,0,0,8000,0,0,0,
2026-04-24 21:00:00,METAR WMKK 242100Z 00000KT 8000 FEW030 27/25 Q1007 NOSIG,0,0,0,8000,0,0,0,
2026-04-24 20:30:00,METAR WMKK 242030Z 00000KT 8000 FEW030 27/25 Q1007 NOSIG,0,0,0,8000,0,0,0,
2026-04-24 20:00:00,METAR WMKK 242000Z 00000KT 9000 FEW030 27/25 Q1007 NOSIG,0,0,0,9000,0,0,0,
2026-04-24 19:30:00,METAR WMKK 241930Z 00000KT 9000 FEW030 27/25 Q1007 NOSIG,0,0,0,9000,0,0,0,
2026-04-24 19:00:00,METAR WMKK 241900Z 00000KT 9000 FEW030 27/25 Q1007 NOSIG,0,0,0,9000,0,0,0,
2026-04-24 18:30:00,METAR WMKK 241830Z 00000KT 9000 FEW030 27/25 Q1007 NOSIG,0,0,0,9000,0,0,0,
2026-04-24 18:00:00,METAR WMKK 241800Z 00000KT 9000 FEW030 28/25 Q1007 NOSIG,0,0,0,9000,0,0,0,
2026-04-24 17:30:00,METAR WMKK 241730Z VRB02KT 9000 FEW030 28/25 Q1008 NOSIG,0,2,0,9000,0,0,0,
2026-04-24 17:00:00,METAR WMKK 241700Z 00000KT 9000 FEW017CB 28/25 Q1008 NOSIG,0,0,0,9000,0,0,0,
2026-04-24 16:30:00,METAR WMKK 241630Z VRB02KT 9000 FEW017CB 28/25 Q1008 NOSIG,0,2,0,9000,0,0,0,
2026-04-24 16:00:00,METAR WMKK 241600Z 02003KT 310V070 9000 FEW017CB 28/25 Q1008 NOSIG,0,3,0,9000,0,0,0,
2026-04-24 15:30:00,METAR WMKK 241530Z 01004KT 300V050 9000 FEW017CB 28/25 Q1008 NOSIG,0,4,0,9000,0,0,0,
2026-04-24 15:00:00,METAR WMKK 241500Z 03004KT 350V080 9000 FEW017CB 29/25 Q1008 NOSIG,0,4,0,9000,0,0,0,
2026-04-24 14:30:00,METAR WMKK 241430Z 04005KT 350V110 9000 FEW017CB 29/26 Q1008 NOSIG,0,5,0,9000,0,0,0,
2026-04-24 14:00:00,METAR WMKK 241400Z 01004KT 320V060 9000 FEW017CB 29/26 Q1008 NOSIG,0,4,0,9000,0,0,0,
2026-04-24 13:30:00,METAR WMKK 241330Z VRB03KT 9000 FEW017CB 29/25 Q1007 NOSIG,0,3,0,9000,0,0,0,
2026-04-24 13:00:00,METAR WMKK 241300Z 13003KT 080V200 9000 FEW017CB 29/25 Q1007 NOSIG,0,3,0,9000,0,0,0,
2026-04-24 12:30:00,METAR WMKK 241230Z 15003KT 100V220 9000 FEW017CB 29/24 Q1007 NOSIG,0,3,0,9000,0,0,0,
2026-04-24 12:00:00,METAR WMKK 241200Z 14003KT 080V210 9000 FEW017CB 30/24 Q1006 NOSIG,0,3,0,9000,0,0,0,
2026-04-24 11:30:00,METAR WMKK 241130Z 08004KT 020V140 9000 FEW030 30/24 Q1006 NOSIG,0,4,0,9000,0,0,0,
2026-04-24 11:00:00,METAR WMKK 241100Z 11006KT 040V190 9000 FEW030 31/24 Q1005 RETS NOSIG,0,6,0,9000,1,0,0,TS
2026-04-24 10:30:00,METAR WMKK 241030Z 14006KT 080V200 9000 FEW017CB 32/24 Q1004 RETS NOSIG,0,6,0,9000,1,0,0,TS
2026-04-24 10:00:00,METAR WMKK 241000Z COR 11008KT 050V170 9000 TS VCSH FEW017CB 32/24 Q1004 NOSIG,0,8,0,9000,1,0,0,"SH,TS,VC"
2026-04-24 09:30:00,METAR WMKK 240930Z 10016KT 9000 TS VCSH FEW017CB 33/24 Q1004 TEMPO 10016G30KT 7000 -TSRA,0,16,0,9000,1,0,0,"RA,SH,TS,VC"
2026-04-24 09:25:00,SPECI WMKK 240925Z 15006KT 9000 TS VCSH FEW017CB 33/26 Q1004 TEMPO 15010G25KT 7000 -TSRA,0,6,0,9000,1,0,0,"RA,SH,TS,VC"
2026-04-24 09:00:00,METAR WMKK 240900Z 16006KT 9000 VCSH FEW017CB 32/26 Q1004 NOSIG,0,6,0,9000,0,0,0,"SH,VC"
2026-04-24 08:30:00,METAR WMKK 240830Z 15005KT 9999 FEW017CB 33/27 Q1003 NOSIG,0,5,0,10000,0,0,0,
2026-04-24 08:00:00,METAR WMKK 240800Z 16005KT 9999 FEW017CB SCT018 33/27 Q1004 NOSIG,0,5,0,10000,0,0,0,
2026-04-24 07:30:00,METAR WMKK 240730Z 15004KT 9999 FEW017CB SCT018 34/27 Q1004 NOSIG,0,4,0,10000,0,0,0,
2026-04-24 07:00:00,METAR WMKK 240700Z COR 12004KT 9999 FEW017CB SCT018 33/27 Q1004 NOSIG,0,4,0,10000,0,0,0,
2026-04-24 06:30:00,METAR WMKK 240630Z 22004KT 9999 FEW017CB SCT018 33/27 Q1005 NOSIG,0,4,0,10000,0,0,0,
2026-04-24 06:00:00,METAR WMKK 240600Z 20003KT 9999 FEW017CB SCT018 34/26 Q1006 NOSIG,0,3,0,10000,0,0,0,
2026-04-24 05:30:00,METAR WMKK 240530Z 12005KT 9999 FEW017CB SCT018 35/25 Q1006 NOSIG,0,5,0,10000,0,0,0,
2026-04-24 05:00:00,METAR WMKK 240500Z 12004KT 9999 SCT018 34/25 Q1007 NOSIG,0,4,0,10000,0,0,0,
2026-04-24 04:30:00,METAR WMKK 240430Z 13005KT 9999 SCT018 34/25 Q1007 NOSIG,0,5,0,10000,0,0,0,
2026-04-24 04:00:00,METAR WMKK 240400Z 12004KT 9999 SCT018 33/25 Q1008 NOSIG,0,4,0,10000,0,0,0,
2026-04-24 03:30:00,METAR WMKK 240330Z 14004KT 9999 SCT018 33/25 Q1008 NOSIG,0,4,0,10000,0,0,0,
2026-04-24 03:00:00,METAR WMKK 240300Z 14004KT 9999 FEW018 32/25 Q1008 NOSIG,0,4,0,10000,0,0,0,
2026-04-24 02:30:00,METAR WMKK 240230Z 13004KT 080V210 9999 FEW018 32/24 Q1008 NOSIG,0,4,0,10000,0,0,0,
2026-04-24 02:00:00,METAR WMKK 240200Z 13003KT 070V240 9000 FEW018 31/25 Q1008 NOSIG,0,3,0,9000,0,0,0,
2026-04-24 01:30:00,METAR WMKK 240130Z 11003KT 050V210 9000 FEW018 30/25 Q1008 NOSIG,0,3,0,9000,0,0,0,
2026-04-24 01:00:00,METAR WMKK 240100Z 12004KT 070V200 9000 FEW018 29/24 Q1008 NOSIG,0,4,0,9000,0,0,0,
2026-04-24 00:30:00,METAR WMKK 240030Z VRB02KT 9000 FEW018 28/24 Q1008 NOSIG,0,2,0,9000,0,0,0,
2026-04-24 00:00:00,METAR WMKK 240000Z VRB01KT 9000 FEW010 27/25 Q1008 NOSIG,0,1,0,9000,0,0,0,
2026-04-23 23:30:00,METAR WMKK 232330Z VRB01KT 8000 FEW010 26/24 Q1007 NOSIG,0,1,0,8000,0,0,0,
2026-04-23 23:00:00,METAR WMKK 232300Z 00000KT 7000 FEW010 26/24 Q1007 NOSIG,0,0,0,7000,0,0,0,
2026-04-23 22:30:00,METAR WMKK 232230Z VRB01KT 7000 FEW010 26/24 Q1007 NOSIG,0,1,0,7000,0,0,0,
2026-04-23 22:00:00,METAR WMKK 232200Z VRB01KT 7000 FEW010 26/24 Q1006 NOSIG,0,1,0,7000,0,0,0,
2026-04-23 21:30:00,METAR WMKK 232130Z 00000KT 7000 FEW010 26/24 Q1006 NOSIG,0,0,0,7000,0,0,0,
2026-04-23 21:00:00,METAR WMKK 232100Z COR 00000KT 7000 FEW010 26/24 Q1006 NOSIG,0,0,0,7000,0,0,0,
2026-04-23 20:30:00,METAR WMKK 232030Z VRB03KT 8000 FEW030 26/24 Q1006 NOSIG,0,3,0,8000,0,0,0,
2026-04-23 20:00:00,METAR WMKK 232000Z VRB02KT 8000 FEW030 26/24 Q1006 NOSIG,0,2,0,8000,0,0,0,
2026-04-23 19:30:00,METAR WMKK 231930Z VRB02KT 9000 FEW030 26/24 Q1006 NOSIG,0,2,0,9000,0,0,0,
2026-04-23 19:00:00,METAR WMKK 231900Z VRB02KT 9000 FEW030 26/24 Q1006 NOSIG,0,2,0,9000,0,0,0,
2026-04-23 18:30:00,METAR WMKK 231830Z 00000KT 9000 FEW030 27/25 Q1007 NOSIG,0,0,0,9000,0,0,0,
2026-04-23 18:00:00,METAR WMKK 231800Z 00000KT 9000 FEW030 27/25 Q1007 NOSIG,0,0,0,9000,0,0,0,
2026-04-23 17:30:00,METAR WMKK 231730Z 15003KT 100V210 9999 FEW030 28/24 Q1007 NOSIG,0,3,0,10000,0,0,0,
2026-04-23 17:00:00,METAR WMKK 231700Z VRB02KT 9999 FEW030 28/24 Q1007 NOSIG,0,2,0,10000,0,0,0,
2026-04-23 16:30:00,METAR WMKK 231630Z 00000KT 9999 FEW030 28/25 Q1008 NOSIG,0,0,0,10000,0,0,0,
2026-04-23 16:00:00,METAR WMKK 231600Z VRB02KT 9999 FEW030 28/24 Q1008 NOSIG,0,2,0,10000,0,0,0,
2026-04-23 15:30:00,METAR WMKK 231530Z VRB02KT 9999 FEW030 27/24 Q1007 NOSIG,0,2,0,10000,0,0,0,
2026-04-23 15:00:00,METAR WMKK 231500Z VRB02KT 9999 FEW030 28/25 Q1007 NOSIG,0,2,0,10000,0,0,0,
2026-04-23 14:30:00,METAR WMKK 231430Z VRB02KT 9999 FEW030 28/24 Q1007 NOSIG,0,2,0,10000,0,0,0,
2026-04-23 14:00:00,METAR WMKK 231400Z 14003KT 080V200 9999 FEW030 29/24 Q1007 NOSIG,0,3,0,10000,0,0,0,
2026-04-23 13:30:00,METAR WMKK 231330Z 12004KT 060V190 9999 FEW017CB 29/24 Q1006 NOSIG,0,4,0,10000,0,0,0,
2026-04-23 13:00:00,METAR WMKK 231300Z VRB03KT 9999 FEW017CB 29/24 Q1006 NOSIG,0,3,0,10000,0,0,0,
2026-04-23 12:30:00,METAR WMKK 231230Z VRB02KT 9999 FEW017CB 29/24 Q1006 NOSIG,0,2,0,10000,0,0,0,
2026-04-23 12:00:00,METAR WMKK 231200Z VRB02KT 9999 FEW017CB 29/24 Q1005 NOSIG,0,2,0,10000,0,0,0,
2026-04-23 11:30:00,METAR WMKK 231130Z VRB02KT 9999 FEW030 30/25 Q1005 NOSIG,0,2,0,10000,0,0,0,
2026-04-23 11:00:00,METAR WMKK 231100Z VRB01KT 9999 FEW018 31/24 Q1005 NOSIG,0,1,0,10000,0,0,0,
2026-04-23 10:30:00,METAR WMKK 231030Z VRB03KT 9999 FEW018 32/23 Q1004 NOSIG,0,3,0,10000,0,0,0,
2026-04-23 10:00:00,METAR WMKK 231000Z VRB03KT 9999 FEW018 32/23 Q1004 NOSIG,0,3,0,10000,0,0,0,
2026-04-23 09:30:00,METAR WMKK 230930Z VRB04KT 9999 FEW018 33/24 Q1004 NOSIG,0,4,0,10000,0,0,0,
2026-04-23 09:00:00,METAR WMKK 230900Z VRB03KT 9999 FEW018 33/24 Q1004 NOSIG,0,3,0,10000,0,0,0,
2026-04-23 08:30:00,METAR WMKK 230830Z VRB03KT 9999 FEW018 33/24 Q1004 NOSIG,0,3,0,10000,0,0,0,
2026-04-23 08:00:00,METAR WMKK 230800Z VRB04KT 9999 FEW018 34/24 Q1005 NOSIG,0,4,0,10000,0,0,0,
2026-04-23 07:30:00,METAR WMKK 230730Z VRB04KT 9999 SCT018 34/24 Q1005 NOSIG,0,4,0,10000,0,0,0,
2026-04-23 07:00:00,METAR WMKK 230700Z VRB04KT 9999 SCT018 34/24 Q1005 NOSIG,0,4,0,10000,0,0,0,
2026-04-23 06:30:00,METAR WMKK 230630Z VRB03KT 9999 SCT018 33/24 Q1006 NOSIG,0,3,0,10000,0,0,0,
2026-04-23 06:00:00,METAR WMKK 230600Z VRB03KT 9999 SCT018 33/24 Q1006 NOSIG,0,3,0,10000,0,0,0,
2026-04-23 05:30:00,METAR WMKK 230530Z 00000KT 9999 SCT018 33/25 Q1007 NOSIG,0,0,0,10000,0,0,0,
2026-04-23 05:00:00,METAR WMKK 230500Z VRB04KT 9999 SCT018 33/24 Q1007 NOSIG,0,4,0,10000,0,0,0,
2026-04-23 04:30:00,METAR WMKK 230430Z VRB03KT 9999 FEW018 33/24 Q1008 NOSIG,0,3,0,10000,0,0,0,
2026-04-23 04:00:00,METAR WMKK 230400Z VRB04KT 9999 FEW018 32/24 Q1008 NOSIG,0,4,0,10000,0,0,0,
2026-04-23 03:30:00,METAR WMKK 230330Z 11004KT 050V190 9999 FEW017CB 33/24 Q1008 NOSIG,0,4,0,10000,0,0,0,
2026-04-23 03:00:00,METAR WMKK 230300Z VRB04KT 9000 FEW017CB 32/24 Q1009 NOSIG,0,4,0,9000,0,0,0,
2026-04-23 02:30:00,METAR WMKK 230230Z 11003KT 030V170 9000 FEW017CB 31/24 Q1009 NOSIG,0,3,0,9000,0,0,0,
2026-04-23 02:00:00,METAR WMKK 230200Z 12005KT 070V190 9000 FEW017CB 31/24 Q1009 NOSIG,0,5,0,9000,0,0,0,
2026-04-23 01:30:00,METAR WMKK 230130Z 10005KT 050V190 9000 FEW017CB 30/24 Q1009 NOSIG,0,5,0,9000,0,0,0,
2026-04-23 01:00:00,METAR WMKK 230100Z VRB01KT 9000 FEW017CB 28/24 Q1008 NOSIG,0,1,0,9000,0,0,0,
2026-04-23 00:30:00,METAR WMKK 230030Z VRB01KT 9000 FEW017CB 27/24 Q1008 NOSIG,0,1,0,9000,0,0,0,
2026-04-23 00:00:00,METAR WMKK 230000Z 00000KT 9000 FEW010 FEW017CB 26/24 Q1008 NOSIG,0,0,0,9000,0,0,0,
2026-04-22 23:30:00,METAR WMKK 222330Z 00000KT 9000 FEW010 FEW017CB 25/24 Q1008 NOSIG,0,0,0,9000,0,0,0,
2026-04-22 23:00:00,METAR WMKK 222300Z 00000KT 9000 FEW010 FEW017CB 25/24 Q1007 NOSIG,0,0,0,9000,0,0,0,
2026-04-22 22:30:00,METAR WMKK 222230Z 00000KT 9000 FEW010 FEW017CB 25/24 Q1007 NOSIG,0,0,0,9000,0,0,0,
2026-04-22 22:00:00,METAR WMKK 222200Z 00000KT 8000 FEW010 FEW017CB 25/24 Q1007 NOSIG,0,0,0,8000,0,0,0,
2026-04-22 21:30:00,METAR WMKK 222130Z 00000KT 8000 FEW010 25/24 Q1006 NOSIG,0,0,0,8000,0,0,0,
2026-04-22 21:00:00,METAR WMKK 222100Z 00000KT 8000 FEW010 25/24 Q1006 NOSIG,0,0,0,8000,0,0,0,
2026-04-22 20:30:00,METAR WMKK 222030Z 00000KT 8000 FEW010 25/24 Q1006 NOSIG,0,0,0,8000,0,0,0,
2026-04-22 20:00:00,METAR WMKK 222000Z 00000KT 9000 FEW010 25/24 Q1006 NOSIG,0,0,0,9000,0,0,0,
2026-04-22 19:30:00,METAR WMKK 221930Z 00000KT 9999 FEW030 26/24 Q1006 NOSIG,0,0,0,10000,0,0,0,
2026-04-22 19:00:00,METAR WMKK 221900Z 00000KT 9999 FEW030 26/24 Q1006 NOSIG,0,0,0,10000,0,0,0,
2026-04-22 18:30:00,METAR WMKK 221830Z 10003KT 050V140 9999 FEW030 27/24 Q1007 NOSIG,0,3,0,10000,0,0,0,
2026-04-22 18:00:00,METAR WMKK 221800Z 07004KT 010V110 9999 FEW030 27/24 Q1007 NOSIG,0,4,0,10000,0,0,0,
2026-04-22 17:30:00,METAR WMKK 221730Z 09005KT 060V140 9999 FEW030 27/24 Q1007 NOSIG,0,5,0,10000,0,0,0,
2026-04-22 17:00:00,METAR WMKK 221700Z 09004KT 040V130 9999 FEW030 27/24 Q1008 NOSIG,0,4,0,10000,0,0,0,
2026-04-22 16:30:00,METAR WMKK 221630Z 09004KT 030V130 9999 FEW030 27/24 Q1008 NOSIG,0,4,0,10000,0,0,0,
2026-04-22 16:00:00,METAR WMKK 221600Z 08005KT 020V120 9999 FEW030 27/24 Q1008 NOSIG,0,5,0,10000,0,0,0,
2026-04-22 15:30:00,METAR WMKK 221530Z 00000KT 9999 FEW017CB 27/24 Q1008 NOSIG,0,0,0,10000,0,0,0,
2026-04-22 15:00:00,METAR WMKK 221500Z 00000KT 9999 FEW017CB 27/25 Q1008 NOSIG,0,0,0,10000,0,0,0,
2026-04-22 14:30:00,METAR WMKK 221430Z 00000KT 9999 FEW017CB 27/25 Q1008 NOSIG,0,0,0,10000,0,0,0,
2026-04-22 14:00:00,METAR WMKK 221400Z 00000KT 9999 FEW017CB 27/25 Q1008 NOSIG,0,0,0,10000,0,0,0,
2026-04-22 13:30:00,METAR WMKK 221330Z 00000KT 9999 FEW017CB 27/25 Q1007 NOSIG,0,0,0,10000,0,0,0,
2026-04-22 13:00:00,METAR WMKK 221300Z 00000KT 9999 FEW030 27/25 Q1007 NOSIG,0,0,0,10000,0,0,0,
2026-04-22 12:30:00,METAR WMKK 221230Z 00000KT 9999 FEW030 27/25 Q1006 NOSIG,0,0,0,10000,0,0,0,
2026-04-22 12:00:00,METAR WMKK 221200Z 00000KT 9999 FEW030 28/25 Q1006 NOSIG,0,0,0,10000,0,0,0,
2026-04-22 11:30:00,METAR WMKK 221130Z 00000KT 9999 FEW030 28/25 Q1005 NOSIG,0,0,0,10000,0,0,0,
2026-04-22 11:00:00,METAR WMKK 221100Z 00000KT 9999 FEW030 29/25 Q1005 NOSIG,0,0,0,10000,0,0,0,
2026-04-22 10:30:00,METAR WMKK 221030Z VRB02KT 9999 FEW018 29/24 Q1005 NOSIG,0,2,0,10000,0,0,0,
2026-04-22 10:00:00,METAR WMKK 221000Z VRB02KT 9999 FEW018 30/24 Q1005 NOSIG,0,2,0,10000,0,0,0,
2026-04-22 09:30:00,METAR WMKK 220930Z VRB03KT 9999 FEW018 30/24 Q1005 NOSIG,0,3,0,10000,0,0,0,
2026-04-22 09:00:00,METAR WMKK 220900Z 24004KT 160V330 9999 FEW018 30/24 Q1005 NOSIG,0,4,0,10000,0,0,0,
2026-04-22 08:30:00,METAR WMKK 220830Z VRB04KT 9999 FEW018 31/25 Q1005 NOSIG,0,4,0,10000,0,0,0,
2026-04-22 08:00:00,METAR WMKK 220800Z VRB03KT 9999 SCT018 31/25 Q1005 NOSIG,0,3,0,10000,0,0,0,
2026-04-22 07:30:00,METAR WMKK 220730Z VRB02KT 9999 SCT018 32/25 Q1005 NOSIG,0,2,0,10000,0,0,0,
2026-04-22 07:00:00,METAR WMKK 220700Z VRB04KT 9999 SCT018 32/25 Q1006 NOSIG,0,4,0,10000,0,0,0,
2026-04-22 06:30:00,METAR WMKK 220630Z VRB03KT 9999 SCT018 32/25 Q1006 NOSIG,0,3,0,10000,0,0,0,
2026-04-22 06:00:00,METAR WMKK 220600Z VRB03KT 9999 SCT018 32/24 Q1007 NOSIG,0,3,0,10000,0,0,0,
2026-04-22 05:30:00,METAR WMKK 220530Z VRB03KT 9999 SCT018 32/24 Q1008 NOSIG,0,3,0,10000,0,0,0,
2026-04-22 05:00:00,METAR WMKK 220500Z VRB04KT 9999 SCT018 32/24 Q1008 NOSIG,0,4,0,10000,0,0,0,
2026-04-22 04:30:00,METAR WMKK 220430Z VRB02KT 9999 SCT018 31/24 Q1008 NOSIG,0,2,0,10000,0,0,0,
2026-04-22 04:00:00,METAR WMKK 220400Z VRB02KT 9999 SCT018 30/23 Q1009 NOSIG,0,2,0,10000,0,0,0,
2026-04-22 03:30:00,METAR WMKK 220330Z 13004KT 050V190 9999 FEW017CB 30/23 Q1009 NOSIG,0,4,0,10000,0,0,0,
2026-04-22 03:00:00,METAR WMKK 220300Z VRB03KT 9999 FEW017CB 31/24 Q1009 NOSIG,0,3,0,10000,0,0,0,
2026-04-22 02:30:00,METAR WMKK 220230Z VRB02KT 9999 FEW017CB 30/23 Q1009 NOSIG,0,2,0,10000,0,0,0,
2026-04-22 02:00:00,METAR WMKK 220200Z VRB03KT 9999 FEW017CB 29/24 Q1009 NOSIG,0,3,0,10000,0,0,0,
2026-04-22 01:30:00,METAR WMKK 220130Z 13003KT 050V220 9999 FEW017CB 28/24 Q1009 NOSIG,0,3,0,10000,0,0,0,
2026-04-22 01:00:00,METAR WMKK 220100Z VRB03KT 9000 FEW017CB 27/24 Q1008 NOSIG,0,3,0,9000,0,0,0,
2026-04-22 00:30:00,METAR WMKK 220030Z VRB03KT 9000 FEW017CB 26/24 Q1008 NOSIG,0,3,0,9000,0,0,0,
2026-04-22 00:00:00,METAR WMKK 220000Z VRB01KT 8000 FEW010 FEW017CB 25/24 Q1008 NOSIG,0,1,0,8000,0,0,0,
2026-04-21 23:30:00,METAR WMKK 212330Z VRB01KT 7000 FEW010 FEW017CB 24/23 Q1007 NOSIG,0,1,0,7000,0,0,0,
2026-04-21 23:00:00,METAR WMKK 212300Z 00000KT 7000 FEW010 FEW017CB 24/23 Q1007 NOSIG,0,0,0,7000,0,0,0,
2026-04-21 22:30:00,METAR WMKK 212230Z 00000KT 6000 FEW008 FEW017CB 24/23 Q1007 NOSIG,0,0,0,6000,0,0,0,
2026-04-21 22:00:00,METAR WMKK 212200Z 00000KT 6000 FEW008 FEW017CB 24/23 Q1007 NOSIG,0,0,0,6000,0,0,0,
2026-04-21 21:30:00,METAR WMKK 212130Z 00000KT 6000 FEW008 FEW017CB 24/24 Q1007 NOSIG,0,0,0,6000,0,0,0,
2026-04-21 21:00:00,METAR WMKK 212100Z 00000KT 6000 FEW008 24/23 Q1007 NOSIG,0,0,0,6000,0,0,0,
2026-04-21 20:30:00,METAR WMKK 212030Z 00000KT 6000 FEW008 24/23 Q1007 NOSIG,0,0,0,6000,0,0,0,
2026-04-21 20:00:00,METAR WMKK 212000Z 00000KT 6000 FEW008 25/24 Q1007 NOSIG,0,0,0,6000,0,0,0,
2026-04-21 19:30:00,METAR WMKK 211930Z VRB02KT 6000 FEW008 24/23 Q1007 NOSIG,0,2,0,6000,0,0,0,
2026-04-21 19:00:00,METAR WMKK 211900Z VRB02KT 6000 FEW010 25/24 Q1007 NOSIG,0,2,0,6000,0,0,0,
2026-04-21 18:30:00,METAR WMKK 211830Z 00000KT 6000 FEW010 25/24 Q1008 NOSIG,0,0,0,6000,0,0,0,
2026-04-21 18:00:00,METAR WMKK 211800Z 00000KT 6000 FEW010 25/24 Q1008 NOSIG,0,0,0,6000,0,0,0,
2026-04-21 17:30:00,METAR WMKK 211730Z VRB03KT 6000 FEW010 25/24 Q1009 NOSIG,0,3,0,6000,0,0,0,
2026-04-21 17:00:00,METAR WMKK 211700Z 06003KT 020V120 6000 FEW010 26/24 Q1009 NOSIG,0,3,0,6000,0,0,0,
2026-04-21 16:30:00,METAR WMKK 211630Z 10004KT 060V140 6000 FEW010 26/25 Q1010 NOSIG,0,4,0,6000,0,0,0,
2026-04-21 16:00:00,METAR WMKK 211600Z 00000KT 6000 FEW010 26/25 Q1010 NOSIG,0,0,0,6000,0,0,0,
2026-04-21 15:30:00,METAR WMKK 211530Z 00000KT 6000 FEW010 26/25 Q1010 NOSIG,0,0,0,6000,0,0,0,
2026-04-21 15:00:00,METAR WMKK 211500Z 00000KT 8000 FEW010 26/25 Q1010 NOSIG,0,0,0,8000,0,0,0,
2026-04-21 14:30:00,METAR WMKK 211430Z 00000KT 8000 FEW010 26/25 Q1009 NOSIG,0,0,0,8000,0,0,0,
2026-04-21 14:00:00,METAR WMKK 211400Z VRB02KT 9999 FEW030 26/25 Q1009 NOSIG,0,2,0,10000,0,0,0,
2026-04-21 13:30:00,METAR WMKK 211330Z VRB02KT 9999 FEW017CB 26/25 Q1009 NOSIG,0,2,0,10000,0,0,0,
2026-04-21 13:00:00,METAR WMKK 211300Z VRB02KT 9999 FEW017CB 26/25 Q1008 NOSIG,0,2,0,10000,0,0,0,
2026-04-21 12:30:00,METAR WMKK 211230Z VRB02KT 9999 FEW017CB 27/25 Q1008 NOSIG,0,2,0,10000,0,0,0,
2026-04-21 12:00:00,METAR WMKK 211200Z VRB02KT 9999 FEW017CB 27/25 Q1008 NOSIG,0,2,0,10000,0,0,0,
2026-04-21 11:30:00,METAR WMKK 211130Z VRB03KT 9999 FEW030 27/25 Q1007 NOSIG,0,3,0,10000,0,0,0,
2026-04-21 11:00:00,METAR WMKK 211100Z COR VRB02KT 9999 FEW030 28/25 Q1007 NOSIG,0,2,0,10000,0,0,0,
2026-04-21 10:30:00,METAR WMKK 211030Z 04003KT 340V090 9999 FEW030 29/25 Q1006 NOSIG,0,3,0,10000,0,0,0,
2026-04-21 10:00:00,METAR WMKK 211000Z 00000KT 9000 FEW018 29/24 Q1006 NOSIG,0,0,0,9000,0,0,0,
2026-04-21 09:30:00,METAR WMKK 210930Z VRB02KT 9000 FEW018 29/24 Q1006 NOSIG,0,2,0,9000,0,0,0,
2026-04-21 09:00:00,METAR WMKK 210900Z VRB02KT 9000 FEW018 29/24 Q1006 NOSIG,0,2,0,9000,0,0,0,
2026-04-21 08:30:00,METAR WMKK 210830Z 36004KT 300V090 9000 FEW018 29/25 Q1006 NOSIG,0,4,0,9000,0,0,0,
2026-04-21 08:00:00,METAR WMKK 210800Z 04005KT 330V120 9000 FEW018 29/25 Q1006 NOSIG,0,5,0,9000,0,0,0,
2026-04-21 07:30:00,METAR WMKK 210730Z 06005KT 360V120 9000 FEW018 29/25 Q1007 NOSIG,0,5,0,9000,0,0,0,
2026-04-21 07:00:00,METAR WMKK 210700Z 06005KT 360V150 9000 FEW010 FEW017CB 27/24 Q1007 RETSRA NOSIG,0,5,0,9000,1,0,0,RA
2026-04-21 06:30:00,METAR WMKK 210630Z 06006KT 360V120 8000 -TSRA FEW010 FEW017CB SCT030 27/25 Q1008 NOSIG,0,6,0,8000,1,0,0,RA
2026-04-21 06:00:00,METAR WMKK 210600Z 03003KT 330V100 8000 -TSRA FEW010 FEW017CB SCT030 27/25 Q1008 RETSRA TEMPO 7000 -TSRA,0,3,0,8000,1,0,0,RA
2026-04-21 05:30:00,METAR WMKK 210530Z VRB02KT 6000 -TSRA FEW010 FEW017CB SCT030 27/25 Q1009 RETSRA TEMPO 7000 -TSRA,0,2,0,6000,1,0,0,RA
2026-04-21 05:00:00,METAR WMKK 210500Z 29003KT 240V340 5000 TSRA FEW008 FEW017CB SCT030 26/24 Q1009 TEMPO 6000 -TSRA,0,3,0,5000,1,0,0,"RA,TS"
2026-04-21 04:30:00,METAR WMKK 210430Z 00000KT 5000 TSRA FEW008 FEW017CB SCT018 25/24 Q1010 NOSIG,0,0,0,5000,1,0,0,"RA,TS"
2026-04-21 04:00:00,METAR WMKK 210400Z 27005KT 210V320 5000 TSRA FEW010 FEW017CB SCT018 24/23 Q1011 TEMPO 25008G20KT 3000 +TSRA,0,5,0,5000,1,0,0,"RA,TS"
2026-04-21 03:57:00,SPECI WMKK 210357Z 27007KT 210V320 6000 TSRA FEW010 FEW017CB SCT018 24/23 Q1011 TEMPO 25008G20KT 3000 +TSRA,0,7,0,6000,1,0,0,"RA,TS"
2026-04-21 03:30:00,METAR WMKK 210330Z 22005KT 130V290 9000 TS VCSH FEW017CB 27/24 Q1011 TEMPO 22005G18KT 6000 TSRA,0,5,0,9000,1,0,0,"RA,SH,TS,VC"
2026-04-21 03:26:00,SPECI WMKK 210326Z VRB03G15KT 9999 TS FEW017CB SCT018 28/24 Q1011 TEMPO 8000 -TSRA,0,3,1,10000,1,0,0,"RA,TS"
2026-04-21 03:00:00,METAR WMKK 210300Z 00000KT 9999 FEW017CB 29/25 Q1010 NOSIG,0,0,0,10000,0,0,0,
2026-04-21 02:30:00,METAR WMKK 210230Z VRB01KT 9999 FEW017CB 28/25 Q1010 NOSIG,0,1,0,10000,0,0,0,
2026-04-21 02:00:00,METAR WMKK 210200Z 00000KT 9999 FEW017CB 28/24 Q1010 NOSIG,0,0,0,10000,0,0,0,
2026-04-21 01:30:00,METAR WMKK 210130Z 00000KT 9999 FEW017CB 27/24 Q1010 NOSIG,0,0,0,10000,0,0,0,
2026-04-21 01:00:00,METAR WMKK 210100Z 00000KT 9999 FEW017CB 26/24 Q1010 NOSIG,0,0,0,10000,0,0,0,
2026-04-21 00:30:00,METAR WMKK 210030Z 00000KT 9000 FEW010 FEW017CB 25/24 Q1009 NOSIG,0,0,0,9000,0,0,0,
2026-04-21 00:00:00,METAR WMKK 210000Z 00000KT 9000 FEW010 FEW017CB 24/24 Q1009 NOSIG,0,0,0,9000,0,0,0,
2026-04-20 23:30:00,METAR WMKK 202330Z VRB01KT 9000 FEW010 FEW017CB SCT030 24/24 Q1008 NOSIG,0,1,0,9000,0,0,0,
2026-04-20 23:00:00,METAR WMKK 202300Z 14004KT 080V190 8000 FEW010 FEW017CB SCT030 24/24 Q1008 NOSIG,0,4,0,8000,0,0,0,
2026-04-20 22:30:00,METAR WMKK 202230Z 14003KT 090V200 8000 FEW010 FEW017CB SCT030 24/23 Q1008 NOSIG,0,3,0,8000,0,0,0,
2026-04-20 22:00:00,METAR WMKK 202200Z 13005KT 070V220 8000 FEW010 FEW017CB SCT030 24/23 Q1008 NOSIG,0,5,0,8000,0,0,0,
2026-04-20 21:30:00,METAR WMKK 202130Z VRB02KT 7000 -RA FEW007 FEW017CB SCT030 24/24 Q1007 NOSIG,0,2,0,7000,0,0,0,-RA
2026-04-20 21:00:00,METAR WMKK 202100Z VRB03KT 7000 -RA FEW007 FEW017CB SCT030 24/24 Q1007 RETSRA NOSIG,0,3,0,7000,1,0,0,"-RA,RA"
2026-04-20 20:30:00,METAR WMKK 202030Z VRB02KT 7000 -TSRA FEW007 FEW017CB SCT030 24/24 Q1007 NOSIG,0,2,0,7000,1,0,0,RA
2026-04-20 20:00:00,METAR WMKK 202000Z 13004KT 090V200 7000 -TSRA FEW007 FEW017CB SCT030 24/24 Q1008 RETSRA NOSIG,0,4,0,7000,1,0,0,RA
2026-04-20 19:30:00,METAR WMKK 201930Z 15005KT 090V210 5000 TSRA FEW005 FEW017CB SCT030 24/24 Q1008 RETSRA BECMG FM1950 8000 -TSRA,0,5,0,5000,1,0,0,"RA,TS"
2026-04-20 19:00:00,METAR WMKK 201900Z 14004KT 100V210 1500 +TSRA SCT001 FEW016CB SCT028 24/24 Q1008 BECMG FM1925 3000 TSRA,0,4,0,1500,1,0,0,"RA,TS"
2026-04-20 18:34:00,SPECI WMKK 201834Z 15003KT 080V210 2000 +TSRA FEW003 FEW016CB SCT028 24/24 Q1009 TEMPO 1500 +TSRA,0,3,0,2000,1,0,0,RA
2026-04-20 18:30:00,METAR WMKK 201830Z 16003KT 080V230 4000 TSRA FEW005 FEW017CB SCT030 25/25 Q1009 TEMPO 3000 TSRA,0,3,0,4000,1,0,0,"RA,TS"
2026-04-20 18:05:00,SPECI WMKK 201805Z VRB03KT 4000 TSRA FEW005 FEW017CB SCT030 25/25 Q1009 TEMPO 3000 TSRA,0,3,0,4000,1,0,0,"RA,TS"
2026-04-20 18:00:00,METAR WMKK 201800Z VRB02KT 6000 -TSRA FEW007 FEW017CB SCT030 25/25 Q1009 TEMPO 5000 TSRA,0,2,0,6000,1,0,0,"RA,TS"
2026-04-20 17:45:00,SPECI WMKK 201745Z VRB03KT 6000 -TSRA FEW007 FEW017CB SCT030 26/25 Q1009 NOSIG,0,3,0,6000,1,0,0,RA
2026-04-20 17:30:00,METAR WMKK 201730Z VRB03KT 7000 FEW010 FEW017CB SCT030 26/25 Q1009 NOSIG,0,3,0,7000,0,0,0,
2026-04-20 17:00:00,METAR WMKK 201700Z 00000KT 8000 FEW010 FEW017CB SCT030 26/25 Q1009 NOSIG,0,0,0,8000,0,0,0,
2026-04-20 16:30:00,METAR WMKK 201630Z VRB02KT 8000 FEW010 FEW017CB SCT030 26/24 Q1010 NOSIG,0,2,0,8000,0,0,0,
2026-04-20 16:00:00,METAR WMKK 201600Z 00000KT 9000 FEW010 FEW017CB SCT030 26/24 Q1010 NOSIG,0,0,0,9000,0,0,0,
2026-04-20 15:30:00,METAR WMKK 201530Z 00000KT 9000 FEW010 FEW017CB 26/25 Q1010 NOSIG,0,0,0,9000,0,0,0,
2026-04-20 15:00:00,METAR WMKK 201500Z 01003KT 330V050 9000 FEW010 FEW017CB 26/24 Q1010 NOSIG,0,3,0,9000,0,0,0,
2026-04-20 14:30:00,METAR WMKK 201430Z VRB02KT 9000 FEW010 FEW017CB 26/24 Q1009 NOSIG,0,2,0,9000,0,0,0,
2026-04-20 14:00:00,METAR WMKK 201400Z 00000KT 8000 FEW010 FEW017CB SCT030 25/25 Q1008 NOSIG,0,0,0,8000,0,0,0,
2026-04-20 13:30:00,METAR WMKK 201330Z 00000KT 8000 FEW010 FEW017CB SCT030 26/24 Q1009 NOSIG,0,0,0,8000,0,0,0,
2026-04-20 13:00:00,METAR WMKK 201300Z VRB03KT 7000 -RA FEW008 FEW017CB SCT030 25/24 Q1008 NOSIG,0,3,0,7000,0,0,0,-RA
2026-04-20 12:30:00,METAR WMKK 201230Z 01003KT 320V070 7000 -RA FEW008 FEW017CB SCT030 25/24 Q1007 NOSIG,0,3,0,7000,0,0,0,-RA
2026-04-20 12:00:00,METAR WMKK 201200Z 35005KT 310V060 7000 -RA FEW010 FEW017CB SCT030 26/24 Q1006 NOSIG,0,5,0,7000,0,0,0,-RA
2026-04-20 11:30:00,METAR WMKK 201130Z 02006KT 320V060 9000 FEW010 FEW017CB SCT030 26/24 Q1006 NOSIG,0,6,0,9000,0,0,0,
2026-04-20 11:00:00,METAR WMKK 201100Z 03004KT 290V100 9000 FEW010 FEW017CB SCT030 26/25 Q1006 RETSRA NOSIG,0,4,0,9000,1,0,0,RA
2026-04-20 10:30:00,METAR WMKK 201030Z COR VRB03KT 9000 FEW010 FEW017CB SCT030 26/25 Q1006 RETSRA NOSIG,0,3,0,9000,1,0,0,RA
2026-04-20 10:00:00,METAR WMKK 201000Z 35005KT 310V070 7000 -TSRA FEW010 FEW017CB SCT030 26/25 Q1006 NOSIG,0,5,0,7000,1,0,0,RA
2026-04-20 09:30:00,METAR WMKK 200930Z 01004KT 320V060 7000 -TSRA FEW010 FEW017CB SCT030 27/26 Q1006 NOSIG,0,4,0,7000,1,0,0,RA
2026-04-20 09:00:00,METAR WMKK 200900Z 00000KT 7000 -TSRA FEW010 FEW017CB SCT018 27/26 Q1005 NOSIG,0,0,0,7000,1,0,0,RA
2026-04-20 08:30:00,METAR WMKK 200830Z COR VRB02KT 7000 -TSRA FEW010 FEW017CB SCT018 27/25 Q1005 NOSIG,0,2,0,7000,1,0,0,RA
2026-04-20 08:00:00,METAR WMKK 200800Z 10004KT 040V150 8000 TS VCSH FEW017CB SCT018 29/25 Q1005 TEMPO 5000 TSRA,0,4,0,8000,1,0,0,"RA,SH,TS,VC"
2026-04-20 07:30:00,METAR WMKK 200730Z 11008KT 050V170 8000 TS VCSH FEW017CB SCT018 31/24 Q1006 TEMPO 5000 TSRA,0,8,0,8000,1,0,0,"RA,SH,TS,VC"
2026-04-20 07:00:00,METAR WMKK 200700Z VRB07KT 8000 TS VCSH FEW017CB SCT018 32/25 Q1005 TEMPO 5000 TSRA,0,7,0,8000,1,0,0,"RA,SH,TS,VC"
2026-04-20 06:30:00,METAR WMKK 200630Z VRB04KT 9000 TS VCSH FEW017CB SCT018 33/25 Q1007 TEMPO 7000 -TSRA,0,4,0,9000,1,0,0,"RA,SH,TS,VC"
2026-04-20 06:26:00,SPECI WMKK 200626Z VRB04KT 9000 TS VCSH FEW017CB SCT018 33/25 Q1007 TEMPO 7000 -TSRA,0,4,0,9000,1,0,0,"RA,SH,TS,VC"
2026-04-20 06:00:00,METAR WMKK 200600Z 26006KT 170V340 9000 VCSH FEW017CB SCT018 32/25 Q1007 NOSIG,0,6,0,9000,0,0,0,"SH,VC"
2026-04-20 05:30:00,METAR WMKK 200530Z VRB04KT 9000 VCSH FEW017CB SCT018 32/25 Q1008 NOSIG,0,4,0,9000,0,0,0,"SH,VC"
2026-04-20 05:00:00,METAR WMKK 200500Z VRB04KT 9999 SCT018 32/24 Q1009 NOSIG,0,4,0,10000,0,0,0,
2026-04-20 04:30:00,METAR WMKK 200430Z VRB04KT 9999 SCT018 32/24 Q1009 NOSIG,0,4,0,10000,0,0,0,
2026-04-20 04:00:00,METAR WMKK 200400Z VRB03KT 9999 SCT018 33/24 Q1009 NOSIG,0,3,0,10000,0,0,0,
2026-04-20 03:30:00,METAR WMKK 200330Z VRB03KT 9999 SCT018 32/24 Q1009 NOSIG,0,3,0,10000,0,0,0,
2026-04-20 03:00:00,METAR WMKK 200300Z VRB02KT 9999 FEW018 32/24 Q1009 NOSIG,0,2,0,10000,0,0,0,
2026-04-20 02:30:00,METAR WMKK 200230Z VRB03KT 9999 FEW018 31/24 Q1009 NOSIG,0,3,0,10000,0,0,0,
2026-04-20 02:00:00,METAR WMKK 200200Z 03007KT 340V080 9999 FEW018 31/24 Q1009 NOSIG,0,7,0,10000,0,0,0,
2026-04-20 01:30:00,METAR WMKK 200130Z 03004KT 320V120 9999 FEW018 30/24 Q1009 NOSIG,0,4,0,10000,0,0,0,
2026-04-20 01:00:00,METAR WMKK 200100Z VRB01KT 9999 FEW017CB 28/24 Q1009 NOSIG,0,1,0,10000,0,0,0,
2026-04-20 00:30:00,METAR WMKK 200030Z 05003KT 330V100 9999 FEW017CB 27/24 Q1008 NOSIG,0,3,0,10000,0,0,0,
2026-04-20 00:00:00,METAR WMKK 200000Z VRB01KT 9000 FEW010 FEW017CB 25/24 Q1008 NOSIG,0,1,0,9000,0,0,0,
2026-04-19 23:30:00,METAR WMKK 192330Z VRB02KT 9000 FEW010 FEW017CB 25/24 Q1008 NOSIG,0,2,0,9000,0,0,0,
2026-04-19 23:00:00,METAR WMKK 192300Z 00000KT 9000 FEW010 FEW017CB 25/24 Q1008 NOSIG,0,0,0,9000,0,0,0,
2026-04-19 22:30:00,METAR WMKK 192230Z 00000KT 9000 FEW017CB 25/24 Q1008 NOSIG,0,0,0,9000,0,0,0,
2026-04-19 22:00:00,METAR WMKK 192200Z VRB01KT 9000 FEW017CB 25/24 Q1008 NOSIG,0,1,0,9000,0,0,0,
2026-04-19 21:30:00,METAR WMKK 192130Z 00000KT 9000 FEW017CB 25/24 Q1007 NOSIG,0,0,0,9000,0,0,0,
2026-04-19 21:00:00,METAR WMKK 192100Z 00000KT 9000 FEW017CB 26/24 Q1007 NOSIG,0,0,0,9000,0,0,0,
2026-04-19 20:30:00,METAR WMKK 192030Z VRB02KT 9000 FEW017CB 26/24 Q1007 NOSIG,0,2,0,9000,0,0,0,
2026-04-19 20:00:00,METAR WMKK 192000Z 00000KT 9000 FEW017CB 26/24 Q1007 NOSIG,0,0,0,9000,0,0,0,
2026-04-19 19:30:00,METAR WMKK 191930Z VRB03KT 9000 FEW017CB 26/24 Q1008 NOSIG,0,3,0,9000,0,0,0,
2026-04-19 19:00:00,METAR WMKK 191900Z 03003KT 340V080 9000 FEW010 26/24 Q1008 NOSIG,0,3,0,9000,0,0,0,
2026-04-19 18:30:00,METAR WMKK 191830Z VRB03KT 9000 FEW010 26/24 Q1008 NOSIG,0,3,0,9000,0,0,0,
2026-04-19 18:00:00,METAR WMKK 191800Z VRB02KT 9000 FEW010 26/25 Q1009 NOSIG,0,2,0,9000,0,0,0,
2026-04-19 17:30:00,METAR WMKK 191730Z VRB02KT 9000 FEW010 26/24 Q1009 NOSIG,0,2,0,9000,0,0,0,
2026-04-19 17:00:00,METAR WMKK 191700Z VRB02KT 9000 FEW010 26/24 Q1009 NOSIG,0,2,0,9000,0,0,0,
2026-04-19 16:30:00,METAR WMKK 191630Z VRB02KT 9000 FEW010 26/25 Q1010 NOSIG,0,2,0,9000,0,0,0,
2026-04-19 16:00:00,METAR WMKK 191600Z 03003KT 350V070 9000 FEW010 26/25 Q1010 NOSIG,0,3,0,9000,0,0,0,
2026-04-19 15:30:00,METAR WMKK 191530Z 00000KT 9000 FEW010 26/25 Q1009 NOSIG,0,0,0,9000,0,0,0,
2026-04-19 15:00:00,METAR WMKK 191500Z 00000KT 9000 FEW010 26/25 Q1009 NOSIG,0,0,0,9000,0,0,0,
2026-04-19 14:30:00,METAR WMKK 191430Z 00000KT 9000 FEW010 26/25 Q1009 NOSIG,0,0,0,9000,0,0,0,
2026-04-19 14:00:00,METAR WMKK 191400Z 00000KT 9999 FEW030 26/25 Q1008 NOSIG,0,0,0,10000,0,0,0,
2026-04-19 13:30:00,METAR WMKK 191330Z 00000KT 9999 FEW030 26/25 Q1008 NOSIG,0,0,0,10000,0,0,0,
2026-04-19 13:00:00,METAR WMKK 191300Z 00000KT 9999 FEW030 26/25 Q1008 NOSIG,0,0,0,10000,0,0,0,
2026-04-19 12:30:00,METAR WMKK 191230Z VRB01KT 9999 FEW030 27/25 Q1008 NOSIG,0,1,0,10000,0,0,0,
2026-04-19 12:00:00,METAR WMKK 191200Z VRB02KT 9999 FEW030 27/25 Q1008 NOSIG,0,2,0,10000,0,0,0,
2026-04-19 11:30:00,METAR WMKK 191130Z 03004KT 360V070 9999 FEW030 27/25 Q1007 NOSIG,0,4,0,10000,0,0,0,
2026-04-19 11:00:00,METAR WMKK 191100Z 05004KT 340V100 9999 FEW030 28/25 Q1007 NOSIG,0,4,0,10000,0,0,0,
2026-04-19 10:30:00,METAR WMKK 191030Z 04003KT 340V110 9999 FEW018 28/25 Q1006 NOSIG,0,3,0,10000,0,0,0,
2026-04-19 10:00:00,METAR WMKK 191000Z 04005KT 340V110 9999 FEW018 28/25 Q1006 NOSIG,0,5,0,10000,0,0,0,
2026-04-19 09:30:00,METAR WMKK 190930Z 07003KT 010V140 9999 FEW018 28/24 Q1006 NOSIG,0,3,0,10000,0,0,0,
2026-04-19 09:00:00,METAR WMKK 190900Z VRB02KT 9999 FEW018 28/24 Q1006 NOSIG,0,2,0,10000,0,0,0,
2026-04-19 08:30:00,METAR WMKK 190830Z 10003KT 050V160 9999 FEW017CB 28/25 Q1006 NOSIG,0,3,0,10000,0,0,0,
2026-04-19 08:00:00,METAR WMKK 190800Z 10003KT 010V170 9999 FEW017CB 29/24 Q1007 NOSIG,0,3,0,10000,0,0,0,
2026-04-19 07:30:00,METAR WMKK 190730Z 09005KT 030V140 9999 FEW017CB SCT018 28/25 Q1007 NOSIG,0,5,0,10000,0,0,0,
2026-04-19 07:00:00,METAR WMKK 190700Z 12004KT 040V210 9000 FEW017CB SCT018 28/25 Q1007 RETS NOSIG,0,4,0,9000,1,0,0,TS
2026-04-19 06:30:00,METAR WMKK 190630Z 12004KT 070V180 8000 TS VCSH FEW017CB SCT018 27/25 Q1008 NOSIG,0,4,0,8000,1,0,0,"SH,TS,VC"
2026-04-19 06:00:00,METAR WMKK 190600Z 12004KT 050V190 7000 TS VCSH FEW017CB SCT018 28/25 Q1008 NOSIG,0,4,0,7000,1,0,0,"SH,TS,VC"
2026-04-19 05:30:00,METAR WMKK 190530Z VRB02KT 7000 TS VCSH FEW017CB SCT018 28/26 Q1009 TEMPO 4000 TSRA,0,2,0,7000,1,0,0,"RA,SH,TS,VC"
2026-04-19 05:00:00,METAR WMKK 190500Z VRB02KT 7000 TS VCSH FEW017CB SCT018 29/25 Q1009 NOSIG,0,2,0,7000,1,0,0,"SH,TS,VC"
2026-04-19 04:50:00,SPECI WMKK 190450Z VRB04KT 7000 TS VCSH FEW017CB SCT018 29/25 Q1009 TEMPO 6000 -TSRA,0,4,0,7000,1,0,0,"RA,SH,TS,VC"
2026-04-19 04:30:00,METAR WMKK 190430Z VRB03KT 7000 VCSH FEW017CB SCT018 28/25 Q1009 NOSIG,0,3,0,7000,0,0,0,"SH,VC"
2026-04-19 04:00:00,METAR WMKK 190400Z VRB03KT 8000 VCSH FEW017CB SCT018 29/26 Q1010 TEMPO 7000 -TSRA,0,3,0,8000,1,0,0,"RA,SH,VC"
2026-04-19 03:30:00,METAR WMKK 190330Z COR VRB03KT 8000 VCSH FEW017CB SCT018 29/25 Q1010 NOSIG,0,3,0,8000,0,0,0,"SH,VC"
2026-04-19 03:00:00,METAR WMKK 190300Z VRB03KT 8000 VCSH FEW017CB SCT018 30/25 Q1010 NOSIG,0,3,0,8000,0,0,0,"SH,VC"
2026-04-19 02:30:00,METAR WMKK 190230Z VRB02KT 9000 FEW018 29/25 Q1010 NOSIG,0,2,0,9000,0,0,0,
2026-04-19 02:00:00,METAR WMKK 190200Z VRB03KT 9000 FEW018 29/25 Q1010 NOSIG,0,3,0,9000,0,0,0,
2026-04-19 01:30:00,METAR WMKK 190130Z VRB02KT 9000 FEW018 28/25 Q1010 NOSIG,0,2,0,9000,0,0,0,
2026-04-19 01:00:00,METAR WMKK 190100Z VRB02KT 8000 FEW018 28/25 Q1009 NOSIG,0,2,0,8000,0,0,0,
2026-04-19 00:30:00,METAR WMKK 190030Z VRB02KT 8000 FEW017CB 27/25 Q1009 NOSIG,0,2,0,8000,0,0,0,
2026-04-19 00:00:00,METAR WMKK 190000Z COR 00000KT 7000 FEW010 FEW017CB 26/24 Q1009 NOSIG,0,0,0,7000,0,0,0,
2026-04-18 23:30:00,METAR WMKK 182330Z 00000KT 7000 FEW010 FEW017CB 25/24 Q1009 NOSIG,0,0,0,7000,0,0,0,
2026-04-18 23:00:00,METAR WMKK 182300Z VRB02KT 6000 FEW010 FEW017CB 25/24 Q1008 NOSIG,0,2,0,6000,0,0,0,
2026-04-18 22:30:00,METAR WMKK 182230Z 00000KT 6000 FEW010 FEW017CB 25/24 Q1008 NOSIG,0,0,0,6000,0,0,0,
2026-04-18 22:00:00,METAR WMKK 182200Z 00000KT 6000 FEW010 FEW017CB 25/24 Q1008 NOSIG,0,0,0,6000,0,0,0,
2026-04-18 21:30:00,METAR WMKK 182130Z VRB01KT 6000 FEW010 FEW017CB 25/24 Q1007 NOSIG,0,1,0,6000,0,0,0,
2026-04-18 21:00:00,METAR WMKK 182100Z 00000KT 6000 FEW010 FEW017CB 25/24 Q1007 NOSIG,0,0,0,6000,0,0,0,
2026-04-18 20:30:00,METAR WMKK 182030Z 00000KT 6000 FEW010 FEW017CB 26/24 Q1008 NOSIG,0,0,0,6000,0,0,0,
2026-04-18 20:00:00,METAR WMKK 182000Z 00000KT 6000 FEW010 FEW017CB 26/24 Q1008 NOSIG,0,0,0,6000,0,0,0,
2026-04-18 19:30:00,METAR WMKK 181930Z COR 00000KT 6000 FEW010 FEW017CB 26/24 Q1008 NOSIG,0,0,0,6000,0,0,0,
2026-04-18 19:00:00,METAR WMKK 181900Z 00000KT 6000 FEW010 FEW017CB 25/24 Q1008 NOSIG,0,0,0,6000,0,0,0,
2026-04-18 18:30:00,METAR WMKK 181830Z VRB02KT 8000 FEW017CB 26/24 Q1008 NOSIG,0,2,0,8000,0,0,0,
2026-04-18 18:00:00,METAR WMKK 181800Z 00000KT 8000 FEW017CB 26/24 Q1009 NOSIG,0,0,0,8000,0,0,0,
2026-04-18 17:30:00,METAR WMKK 181730Z 00000KT 9000 FEW017CB 26/24 Q1009 NOSIG,0,0,0,9000,0,0,0,
2026-04-18 17:00:00,METAR WMKK 181700Z VRB02KT 9000 FEW017CB 26/24 Q1010 NOSIG,0,2,0,9000,0,0,0,
2026-04-18 16:30:00,METAR WMKK 181630Z 00000KT 9000 FEW017CB 26/24 Q1010 NOSIG,0,0,0,9000,0,0,0,
2026-04-18 16:00:00,METAR WMKK 181600Z 00000KT 9000 FEW017CB 26/24 Q1010 NOSIG,0,0,0,9000,0,0,0,
2026-04-18 15:00:00,METAR WMKK 181500Z 00000KT 9000 FEW017CB 26/24 Q1010 NOSIG,0,0,0,9000,0,0,0,
2026-04-18 14:30:00,METAR WMKK 181430Z VRB01KT 9000 FEW017CB 26/24 Q1009 NOSIG,0,1,0,9000,0,0,0,
2026-04-18 14:00:00,METAR WMKK 181400Z VRB03KT 9000 FEW017CB 26/24 Q1009 NOSIG,0,3,0,9000,0,0,0,
2026-04-18 13:30:00,METAR WMKK 181330Z VRB03KT 9000 FEW017CB 26/24 Q1008 NOSIG,0,3,0,9000,0,0,0,
2026-04-18 13:00:00,METAR WMKK 181300Z 03003KT 350V070 9000 FEW017CB 26/24 Q1008 NOSIG,0,3,0,9000,0,0,0,
2026-04-18 12:30:00,METAR WMKK 181230Z 35003KT 300V060 9000 FEW017CB 26/24 Q1008 NOSIG,0,3,0,9000,0,0,0,
2026-04-18 12:00:00,METAR WMKK 181200Z 34003KT 270V030 9000 FEW017CB 26/24 Q1008 NOSIG,0,3,0,9000,0,0,0,
2026-04-18 11:30:00,METAR WMKK 181130Z VRB03KT 9000 FEW017CB 27/24 Q1007 NOSIG,0,3,0,9000,0,0,0,
2026-04-18 11:00:00,METAR WMKK 181100Z 01005KT 320V070 9000 FEW017CB 27/24 Q1007 NOSIG,0,5,0,9000,0,0,0,
2026-04-18 10:30:00,METAR WMKK 181030Z 01005KT 320V060 8000 FEW017CB 27/24 Q1007 NOSIG,0,5,0,8000,0,0,0,
2026-04-18 10:00:00,METAR WMKK 181000Z 07004KT 010V140 8000 FEW017CB 28/24 Q1006 RETS NOSIG,0,4,0,8000,1,0,0,TS
2026-04-18 09:30:00,METAR WMKK 180930Z 05005KT 360V100 8000 TS VCSH FEW017CB 27/24 Q1006 BECMG FM1015 9999 NSW,0,5,0,8000,1,0,0,"SH,TS,VC"
2026-04-18 09:00:00,METAR WMKK 180900Z 34003KT 300V030 8000 TS VCSH FEW017CB 27/24 Q1006 BECMG FM0930 9000 NSW,0,3,0,8000,1,0,0,"SH,TS,VC"
2026-04-18 08:30:00,METAR WMKK 180830Z 06004KT 360V120 8000 TS VCSH FEW017CB SCT018 28/24 Q1006 TEMPO 7000 -TSRA,0,4,0,8000,1,0,0,"RA,SH,TS,VC"
2026-04-18 08:00:00,METAR WMKK 180800Z 09009KT 010V150 8000 TS VCSH FEW017CB SCT018 28/24 Q1006 TEMPO 6000 TSRA,0,9,0,8000,1,0,0,"RA,SH,TS,VC"
2026-04-18 07:30:00,METAR WMKK 180730Z VRB07G18KT 9000 TS VCSH FEW017CB SCT018 31/24 Q1006 TEMPO 12007G20KT 6000 TSRA,0,7,1,9000,1,0,0,"RA,SH,TS,VC"
2026-04-18 07:00:00,METAR WMKK 180700Z VRB04KT 9999 TS FEW017CB SCT018 32/25 Q1006 TEMPO 7000 -TSRA,0,4,0,10000,1,0,0,"RA,TS"
2026-04-18 06:50:00,SPECI WMKK 180650Z VRB05KT 9999 TS FEW017CB SCT018 32/25 Q1006 NOSIG,0,5,0,10000,1,0,0,TS
2026-04-18 06:30:00,METAR WMKK 180630Z VRB05KT 9999 FEW017CB SCT018 32/25 Q1007 NOSIG,0,5,0,10000,0,0,0,
2026-04-18 06:00:00,METAR WMKK 180600Z VRB05KT 9000 SCT018 32/25 Q1007 NOSIG,0,5,0,9000,0,0,0,
2026-04-18 05:30:00,METAR WMKK 180530Z VRB03KT 9000 SCT018 32/25 Q1008 NOSIG,0,3,0,9000,0,0,0,
2026-04-18 05:00:00,METAR WMKK 180500Z VRB04KT 9000 SCT018 31/26 Q1008 NOSIG,0,4,0,9000,0,0,0,
2026-04-18 04:30:00,METAR WMKK 180430Z VRB04KT 9000 SCT018 32/24 Q1009 NOSIG,0,4,0,9000,0,0,0,
2026-04-18 04:00:00,METAR WMKK 180400Z COR VRB03KT 9000 SCT018 31/25 Q1009 NOSIG,0,3,0,9000,0,0,0,
2026-04-18 03:30:00,METAR WMKK 180330Z VRB03KT 9000 SCT018 31/25 Q1009 NOSIG,0,3,0,9000,0,0,0,
2026-04-18 03:00:00,METAR WMKK 180300Z VRB03KT 9999 FEW017CB 31/25 Q1009 NOSIG,0,3,0,10000,0,0,0,
2026-04-18 02:30:00,METAR WMKK 180230Z 18003KT 100V250 9999 FEW017CB 30/25 Q1009 NOSIG,0,3,0,10000,0,0,0,
2026-04-18 02:00:00,METAR WMKK 180200Z VRB02KT 9999 FEW017CB 31/25 Q1009 NOSIG,0,2,0,10000,0,0,0,
2026-04-18 01:30:00,METAR WMKK 180130Z VRB01KT 9999 FEW017CB 29/24 Q1009 NOSIG,0,1,0,10000,0,0,0,
2026-04-18 01:00:00,METAR WMKK 180100Z VRB01KT 9000 FEW017CB 28/25 Q1009 NOSIG,0,1,0,9000,0,0,0,
2026-04-18 00:30:00,METAR WMKK 180030Z VRB02KT 9000 FEW017CB 28/25 Q1008 NOSIG,0,2,0,9000,0,0,0,
2026-04-18 00:00:00,METAR WMKK 180000Z 04003KT 350V090 9999 FEW017CB 27/24 Q1008 NOSIG,0,3,0,10000,0,0,0,
2026-04-17 23:30:00,METAR WMKK 172330Z 00000KT 9999 FEW017CB 26/24 Q1008 NOSIG,0,0,0,10000,0,0,0,
2026-04-17 23:00:00,METAR WMKK 172300Z VRB02KT 9999 FEW017CB 26/24 Q1008 NOSIG,0,2,0,10000,0,0,0,
2026-04-17 22:30:00,METAR WMKK 172230Z 36003KT 290V050 9999 FEW017CB 26/24 Q1007 NOSIG,0,3,0,10000,0,0,0,
2026-04-17 22:00:00,METAR WMKK 172200Z VRB02KT 9999 FEW017CB 26/24 Q1007 NOSIG,0,2,0,10000,0,0,0,
2026-04-17 21:30:00,METAR WMKK 172130Z VRB03KT 9999 FEW017CB 26/24 Q1007 NOSIG,0,3,0,10000,0,0,0,
2026-04-17 21:00:00,METAR WMKK 172100Z 01003KT 320V050 9999 FEW017CB 26/24 Q1007 NOSIG,0,3,0,10000,0,0,0,
2026-04-17 20:30:00,METAR WMKK 172030Z VRB01KT 9999 FEW017CB 26/24 Q1007 NOSIG,0,1,0,10000,0,0,0,
2026-04-17 20:00:00,METAR WMKK 172000Z VRB02KT 9999 FEW017CB 26/24 Q1008 NOSIG,0,2,0,10000,0,0,0,
2026-04-17 19:30:00,METAR WMKK 171930Z 00000KT 9999 FEW017CB 26/24 Q1008 NOSIG,0,0,0,10000,0,0,0,
2026-04-17 19:00:00,METAR WMKK 171900Z VRB02KT 9999 FEW017CB 27/24 Q1008 NOSIG,0,2,0,10000,0,0,0,
2026-04-17 18:30:00,METAR WMKK 171830Z VRB02KT 9999 FEW017CB 27/24 Q1009 NOSIG,0,2,0,10000,0,0,0,
2026-04-17 18:00:00,METAR WMKK 171800Z VRB02KT 9999 FEW017CB 27/23 Q1009 NOSIG,0,2,0,10000,0,0,0,
2026-04-17 17:30:00,METAR WMKK 171730Z VRB01KT 9999 FEW017CB 27/23 Q1009 NOSIG,0,1,0,10000,0,0,0,
2026-04-17 17:00:00,METAR WMKK 171700Z 02003KT 310V050 9999 FEW017CB 27/23 Q1010 NOSIG,0,3,0,10000,0,0,0,
2026-04-17 16:30:00,METAR WMKK 171630Z VRB02KT 9999 FEW017CB 27/23 Q1010 NOSIG,0,2,0,10000,0,0,0,
2026-04-17 16:00:00,METAR WMKK 171600Z 35003KT 320V050 9999 FEW017CB 27/23 Q1010 NOSIG,0,3,0,10000,0,0,0,
2026-04-17 15:30:00,METAR WMKK 171530Z VRB03KT 9999 FEW017CB 27/23 Q1010 NOSIG,0,3,0,10000,0,0,0,
2026-04-17 15:00:00,METAR WMKK 171500Z VRB02KT 9999 FEW017CB 27/23 Q1010 NOSIG,0,2,0,10000,0,0,0,
2026-04-17 14:30:00,METAR WMKK 171430Z VRB02KT 9999 FEW017CB 27/24 Q1009 NOSIG,0,2,0,10000,0,0,0,
2026-04-17 14:00:00,METAR WMKK 171400Z 00000KT 9000 FEW017CB 27/24 Q1009 NOSIG,0,0,0,9000,0,0,0,
2026-04-17 13:30:00,METAR WMKK 171330Z 32003KT 270V060 9000 FEW017CB 28/23 Q1009 NOSIG,0,3,0,9000,0,0,0,
2026-04-17 13:00:00,METAR WMKK 171300Z 33004KT 290V010 9000 FEW017CB 28/23 Q1008 NOSIG,0,4,0,9000,0,0,0,
2026-04-17 12:30:00,METAR WMKK 171230Z 31003KT 270V340 9000 FEW017CB 28/24 Q1008 NOSIG,0,3,0,9000,0,0,0,
2026-04-17 12:00:00,METAR WMKK 171200Z 30003KT 250V010 9000 FEW017CB 29/24 Q1007 NOSIG,0,3,0,9000,0,0,0,
2026-04-17 11:30:00,METAR WMKK 171130Z 00000KT 9000 FEW017CB 30/25 Q1006 NOSIG,0,0,0,9000,0,0,0,
2026-04-17 11:00:00,METAR WMKK 171100Z 00000KT 9000 FEW017CB 31/25 Q1006 NOSIG,0,0,0,9000,0,0,0,
2026-04-17 10:30:00,METAR WMKK 171030Z 19003KT 110V280 9000 FEW017CB 31/25 Q1006 NOSIG,0,3,0,9000,0,0,0,
2026-04-17 10:00:00,METAR WMKK 171000Z VRB03KT 9000 FEW017CB 32/25 Q1005 NOSIG,0,3,0,9000,0,0,0,
2026-04-17 09:30:00,METAR WMKK 170930Z VRB04KT 9000 FEW017CB 32/23 Q1005 NOSIG,0,4,0,9000,0,0,0,
2026-04-17 09:00:00,METAR WMKK 170900Z VRB05KT 9000 FEW017CB 32/24 Q1006 NOSIG,0,5,0,9000,0,0,0,
2026-04-17 08:30:00,METAR WMKK 170830Z VRB04KT 9000 FEW017CB 32/25 Q1006 NOSIG,0,4,0,9000,0,0,0,
2026-04-17 08:00:00,METAR WMKK 170800Z VRB04KT 9000 FEW017CB 32/25 Q1006 NOSIG,0,4,0,9000,0,0,0,
2026-04-17 07:30:00,METAR WMKK 170730Z 11005KT 060V180 9000 FEW017CB 30/25 Q1007 NOSIG,0,5,0,9000,0,0,0,
2026-04-17 07:00:00,METAR WMKK 170700Z 12006KT 050V170 9000 FEW017CB 30/25 Q1007 NOSIG,0,6,0,9000,0,0,0,
2026-04-17 06:30:00,METAR WMKK 170630Z 11007KT 050V180 9000 FEW017CB 31/25 Q1008 NOSIG,0,7,0,9000,0,0,0,
2026-04-17 06:00:00,METAR WMKK 170600Z VRB05KT 9000 FEW017CB SCT018 32/25 Q1008 NOSIG,0,5,0,9000,0,0,0,
2026-04-17 05:30:00,METAR WMKK 170530Z VRB05KT 9000 FEW017CB SCT018 31/25 Q1009 NOSIG,0,5,0,9000,0,0,0,
2026-04-17 05:00:00,METAR WMKK 170500Z VRB05KT 8000 FEW017CB SCT018 30/25 Q1009 NOSIG,0,5,0,8000,0,0,0,
2026-04-17 04:30:00,METAR WMKK 170430Z VRB04KT 8000 FEW017CB SCT030 30/25 Q1010 NOSIG,0,4,0,8000,0,0,0,
2026-04-17 04:00:00,METAR WMKK 170400Z VRB03KT 6000 -RA FEW010 FEW017CB SCT030 28/25 Q1011 NOSIG,0,3,0,6000,0,0,0,-RA
2026-04-17 03:30:00,METAR WMKK 170330Z 23005KT 170V320 6000 -SHRA FEW010 FEW017CB SCT018 27/25 Q1011 NOSIG,0,5,0,6000,0,0,0,RA
2026-04-17 03:00:00,METAR WMKK 170300Z VRB06KT 6000 -SHRA FEW010 FEW017CB SCT018 28/26 Q1011 NOSIG,0,6,0,6000,0,0,0,RA
2026-04-17 02:30:00,METAR WMKK 170230Z VRB03KT 9000 VCSH FEW017CB 31/24 Q1011 NOSIG,0,3,0,9000,0,0,0,"SH,VC"
2026-04-17 02:00:00,METAR WMKK 170200Z VRB02KT 9000 FEW017CB 30/24 Q1011 NOSIG,0,2,0,9000,0,0,0,
2026-04-17 01:30:00,METAR WMKK 170130Z VRB03KT 9000 FEW017CB 30/25 Q1010 NOSIG,0,3,0,9000,0,0,0,
2026-04-17 01:00:00,METAR WMKK 170100Z VRB02KT 9000 FEW017CB 28/25 Q1010 NOSIG,0,2,0,9000,0,0,0,
2026-04-17 00:30:00,METAR WMKK 170030Z VRB01KT 9000 FEW017CB 28/25 Q1009 NOSIG,0,1,0,9000,0,0,0,
2026-04-17 00:00:00,METAR WMKK 170000Z 05003KT 320V090 9000 FEW010 FEW017CB 27/24 Q1009 NOSIG,0,3,0,9000,0,0,0,
2026-04-16 23:30:00,METAR WMKK 162330Z 00000KT 9000 FEW010 FEW017CB 26/25 Q1008 NOSIG,0,0,0,9000,0,0,0,
2026-04-16 23:00:00,METAR WMKK 162300Z 00000KT 9000 FEW017CB 26/25 Q1008 NOSIG,0,0,0,9000,0,0,0,
2026-04-16 22:30:00,METAR WMKK 162230Z 00000KT 9000 FEW017CB 26/24 Q1008 NOSIG,0,0,0,9000,0,0,0,
2026-04-16 22:00:00,METAR WMKK 162200Z VRB01KT 9000 FEW017CB 26/24 Q1008 NOSIG,0,1,0,9000,0,0,0,
2026-04-16 21:30:00,METAR WMKK 162130Z VRB02KT 9000 FEW017CB 26/24 Q1007 NOSIG,0,2,0,9000,0,0,0,
2026-04-16 21:00:00,METAR WMKK 162100Z COR VRB02KT 9000 FEW017CB 26/24 Q1007 NOSIG,0,2,0,9000,0,0,0,
2026-04-16 20:30:00,METAR WMKK 162030Z VRB03KT 9000 FEW017CB 26/24 Q1007 NOSIG,0,3,0,9000,0,0,0,
2026-04-16 20:00:00,METAR WMKK 162000Z 23003KT 190V280 9000 FEW017CB 26/24 Q1008 NOSIG,0,3,0,9000,0,0,0,
2026-04-16 19:30:00,METAR WMKK 161930Z 00000KT 9000 FEW017CB 26/25 Q1008 NOSIG,0,0,0,9000,0,0,0,
2026-04-16 19:00:00,METAR WMKK 161900Z VRB01KT 9999 FEW017CB 27/25 Q1008 TEMPO 8000 -TSRA,0,1,0,10000,1,0,0,RA
2026-04-16 18:30:00,METAR WMKK 161830Z VRB02KT 9999 FEW017CB 26/25 Q1008 NOSIG,0,2,0,10000,0,0,0,
2026-04-16 18:00:00,METAR WMKK 161800Z 00000KT 9999 FEW017CB 27/25 Q1009 NOSIG,0,0,0,10000,0,0,0,
2026-04-16 17:30:00,METAR WMKK 161730Z 00000KT 9999 FEW030 27/25 Q1009 NOSIG,0,0,0,10000,0,0,0,
2026-04-16 17:00:00,METAR WMKK 161700Z 00000KT 9999 FEW030 27/25 Q1009 NOSIG,0,0,0,10000,0,0,0,
2026-04-16 16:30:00,METAR WMKK 161630Z VRB01KT 9999 FEW030 27/25 Q1010 NOSIG,0,1,0,10000,0,0,0,
2026-04-16 16:00:00,METAR WMKK 161600Z VRB03KT 9999 FEW030 28/25 Q1009 NOSIG,0,3,0,10000,0,0,0,
2026-04-16 15:30:00,METAR WMKK 161530Z 07004KT 020V110 9999 FEW030 28/24 Q1009 NOSIG,0,4,0,10000,0,0,0,
2026-04-16 15:00:00,METAR WMKK 161500Z 07005KT 020V120 9999 FEW030 28/25 Q1009 NOSIG,0,5,0,10000,0,0,0,
2026-04-16 14:30:00,METAR WMKK 161430Z 08004KT 030V160 9999 FEW030 29/25 Q1009 NOSIG,0,4,0,10000,0,0,0,
2026-04-16 14:00:00,METAR WMKK 161400Z 08004KT 030V140 9999 FEW030 29/25 Q1008 NOSIG,0,4,0,10000,0,0,0,
2026-04-16 13:30:00,METAR WMKK 161330Z VRB02KT 9999 FEW030 29/25 Q1008 NOSIG,0,2,0,10000,0,0,0,
2026-04-16 13:00:00,METAR WMKK 161300Z 00000KT 9999 FEW030 29/26 Q1008 NOSIG,0,0,0,10000,0,0,0,
2026-04-16 12:30:00,METAR WMKK 161230Z 00000KT 9999 FEW017CB 29/25 Q1007 NOSIG,0,0,0,10000,0,0,0,
2026-04-16 12:00:00,METAR WMKK 161200Z VRB02KT 9999 FEW017CB 30/24 Q1006 NOSIG,0,2,0,10000,0,0,0,
2026-04-16 11:30:00,METAR WMKK 161130Z 17003KT 100V260 9999 FEW017CB 30/25 Q1006 NOSIG,0,3,0,10000,0,0,0,
2026-04-16 11:00:00,METAR WMKK 161100Z 18003KT 100V260 9999 FEW017CB 30/24 Q1006 NOSIG,0,3,0,10000,0,0,0,
2026-04-16 10:30:00,METAR WMKK 161030Z VRB03KT 9999 FEW017CB 31/24 Q1005 NOSIG,0,3,0,10000,0,0,0,
2026-04-16 10:00:00,METAR WMKK 161000Z VRB03KT 9999 FEW017CB 32/23 Q1005 NOSIG,0,3,0,10000,0,0,0,
2026-04-16 09:30:00,METAR WMKK 160930Z VRB04KT 9999 FEW017CB 33/23 Q1005 NOSIG,0,4,0,10000,0,0,0,
2026-04-16 09:00:00,METAR WMKK 160900Z VRB05KT 9999 FEW017CB 33/22 Q1005 NOSIG,0,5,0,10000,0,0,0,
2026-04-16 08:30:00,METAR WMKK 160830Z VRB04KT 9999 FEW017CB SCT018 33/23 Q1005 NOSIG,0,4,0,10000,0,0,0,
2026-04-16 08:00:00,METAR WMKK 160800Z VRB04KT 9999 FEW017CB SCT018 33/23 Q1005 NOSIG,0,4,0,10000,0,0,0,
2026-04-16 07:30:00,METAR WMKK 160730Z VRB05KT 9999 SCT018 33/23 Q1006 NOSIG,0,5,0,10000,0,0,0,
2026-04-16 07:00:00,METAR WMKK 160700Z VRB05KT 9999 SCT018 34/23 Q1006 NOSIG,0,5,0,10000,0,0,0,
2026-04-16 06:00:00,METAR WMKK 160600Z VRB04KT 9999 FEW017CB SCT018 33/24 Q1008 NOSIG,0,4,0,10000,0,0,0,
2026-04-16 05:30:00,METAR WMKK 160530Z VRB03KT 9999 FEW017CB SCT018 33/24 Q1008 NOSIG,0,3,0,10000,0,0,0,
2026-04-16 05:00:00,METAR WMKK 160500Z VRB04KT 9999 SCT018 32/24 Q1009 NOSIG,0,4,0,10000,0,0,0,
2026-04-16 04:30:00,METAR WMKK 160430Z VRB03KT 9999 SCT018 32/24 Q1009 NOSIG,0,3,0,10000,0,0,0,
2026-04-16 04:00:00,METAR WMKK 160400Z VRB03KT 9999 SCT018 33/24 Q1009 NOSIG,0,3,0,10000,0,0,0,
2026-04-16 03:30:00,METAR WMKK 160330Z VRB04KT 9999 FEW017CB 32/23 Q1009 NOSIG,0,4,0,10000,0,0,0,
2026-04-16 03:00:00,METAR WMKK 160300Z VRB04KT 9999 FEW017CB 32/24 Q1009 NOSIG,0,4,0,10000,0,0,0,
2026-04-16 02:30:00,METAR WMKK 160230Z VRB03KT 9999 FEW017CB 31/24 Q1010 NOSIG,0,3,0,10000,0,0,0,
2026-04-16 02:00:00,METAR WMKK 160200Z 11003KT 030V200 9999 FEW017CB 31/24 Q1009 NOSIG,0,3,0,10000,0,0,0,
2026-04-16 01:30:00,METAR WMKK 160130Z VRB03KT 9999 FEW018 30/24 Q1009 NOSIG,0,3,0,10000,0,0,0,
2026-04-16 01:00:00,METAR WMKK 160100Z 05004KT 350V110 9999 FEW018 28/24 Q1009 NOSIG,0,4,0,10000,0,0,0,
2026-04-16 00:30:00,METAR WMKK 160030Z VRB02KT 9999 FEW018 27/24 Q1008 NOSIG,0,2,0,10000,0,0,0,
2026-04-16 00:00:00,METAR WMKK 160000Z 00000KT 9000 FEW010 26/24 Q1008 NOSIG,0,0,0,9000,0,0,0,
2026-04-15 23:30:00,METAR WMKK 152330Z VRB02KT 8000 FEW010 25/24 Q1007 NOSIG,0,2,0,8000,0,0,0,
2026-04-15 23:00:00,METAR WMKK 152300Z VRB01KT 7000 FEW010 25/24 Q1007 NOSIG,0,1,0,7000,0,0,0,
2026-04-15 22:30:00,METAR WMKK 152230Z VRB02KT 7000 FEW010 25/24 Q1007 NOSIG,0,2,0,7000,0,0,0,
2026-04-15 22:00:00,METAR WMKK 152200Z VRB02KT 7000 FEW010 25/24 Q1007 NOSIG,0,2,0,7000,0,0,0,
2026-04-15 21:30:00,METAR WMKK 152130Z 00000KT 7000 FEW010 24/24 Q1007 NOSIG,0,0,0,7000,0,0,0,
2026-04-15 21:00:00,METAR WMKK 152100Z 00000KT 7000 FEW010 25/24 Q1007 NOSIG,0,0,0,7000,0,0,0,
2026-04-15 20:30:00,METAR WMKK 152030Z 00000KT 7000 FEW010 25/24 Q1007 NOSIG,0,0,0,7000,0,0,0,
2026-04-15 20:00:00,METAR WMKK 152000Z 00000KT 7000 FEW010 25/24 Q1007 NOSIG,0,0,0,7000,0,0,0,
2026-04-15 19:30:00,METAR WMKK 151930Z 00000KT 8000 FEW010 25/24 Q1007 NOSIG,0,0,0,8000,0,0,0,
2026-04-15 19:00:00,METAR WMKK 151900Z VRB01KT 9000 FEW030 26/24 Q1008 NOSIG,0,1,0,9000,0,0,0,
2026-04-15 18:30:00,METAR WMKK 151830Z 00000KT 9000 FEW030 26/24 Q1008 NOSIG,0,0,0,9000,0,0,0,
2026-04-15 18:00:00,METAR WMKK 151800Z 06003KT 350V110 9000 FEW030 26/24 Q1008 NOSIG,0,3,0,9000,0,0,0,
2026-04-15 17:30:00,METAR WMKK 151730Z 00000KT 9000 FEW030 26/24 Q1009 NOSIG,0,0,0,9000,0,0,0,
2026-04-15 17:00:00,METAR WMKK 151700Z 00000KT 9000 FEW030 26/24 Q1009 NOSIG,0,0,0,9000,0,0,0,
2026-04-15 16:30:00,METAR WMKK 151630Z 00000KT 9999 FEW030 26/24 Q1009 NOSIG,0,0,0,10000,0,0,0,
2026-04-15 16:00:00,METAR WMKK 151600Z VRB02KT 9999 FEW030 27/24 Q1009 NOSIG,0,2,0,10000,0,0,0,
2026-04-15 15:30:00,METAR WMKK 151530Z 00000KT 9999 FEW030 27/24 Q1009 NOSIG,0,0,0,10000,0,0,0,
2026-04-15 15:00:00,METAR WMKK 151500Z 00000KT 9999 FEW030 27/24 Q1009 NOSIG,0,0,0,10000,0,0,0,
2026-04-15 14:30:00,METAR WMKK 151430Z 00000KT 9999 FEW030 27/24 Q1008 NOSIG,0,0,0,10000,0,0,0,
2026-04-15 14:00:00,METAR WMKK 151400Z 00000KT 9999 FEW030 28/24 Q1008 NOSIG,0,0,0,10000,0,0,0,
2026-04-15 13:30:00,METAR WMKK 151330Z VRB02KT 9999 FEW030 28/24 Q1008 NOSIG,0,2,0,10000,0,0,0,
2026-04-15 13:00:00,METAR WMKK 151300Z VRB03KT 9999 FEW030 28/24 Q1007 NOSIG,0,3,0,10000,0,0,0,
2026-04-15 12:30:00,METAR WMKK 151230Z VRB02KT 9999 FEW030 28/24 Q1007 NOSIG,0,2,0,10000,0,0,0,
2026-04-15 12:00:00,METAR WMKK 151200Z 00000KT 9999 FEW030 28/25 Q1007 NOSIG,0,0,0,10000,0,0,0,
2026-04-15 11:30:00,METAR WMKK 151130Z 00000KT 9999 FEW030 28/25 Q1007 NOSIG,0,0,0,10000,0,0,0,
2026-04-15 11:00:00,METAR WMKK 151100Z 00000KT 9999 FEW030 29/25 Q1007 NOSIG,0,0,0,10000,0,0,0,
2026-04-15 10:30:00,METAR WMKK 151030Z 00000KT 9999 FEW018 29/25 Q1006 NOSIG,0,0,0,10000,0,0,0,
2026-04-15 10:00:00,METAR WMKK 151000Z VRB02KT 9999 FEW017CB 30/25 Q1006 RETS NOSIG,0,2,0,10000,1,0,0,TS
2026-04-15 09:30:00,METAR WMKK 150930Z 00000KT 9999 TS FEW017CB 29/25 Q1006 NOSIG,0,0,0,10000,1,0,0,TS
2026-04-15 09:00:00,METAR WMKK 150900Z 23003KT 150V300 9999 TS FEW017CB 30/25 Q1006 NOSIG,0,3,0,10000,1,0,0,TS
2026-04-15 08:30:00,METAR WMKK 150830Z VRB04KT 9999 TS FEW017CB SCT018 30/25 Q1006 NOSIG,0,4,0,10000,1,0,0,TS
2026-04-15 08:00:00,METAR WMKK 150800Z VRB04KT 9999 TS FEW017CB SCT018 31/24 Q1006 NOSIG,0,4,0,10000,1,0,0,TS
2026-04-15 07:30:00,METAR WMKK 150730Z COR VRB04KT 9000 TS VCSH FEW017CB SCT018 32/24 Q1007 NOSIG,0,4,0,9000,1,0,0,"SH,TS,VC"
2026-04-15 07:00:00,METAR WMKK 150700Z VRB03KT 9000 TS VCSH FEW017CB SCT018 32/24 Q1007 NOSIG,0,3,0,9000,1,0,0,"SH,TS,VC"
2026-04-15 06:30:00,METAR WMKK 150630Z VRB03KT 9000 TS VCSH FEW017CB SCT018 30/23 Q1008 NOSIG,0,3,0,9000,1,0,0,"SH,TS,VC"
2026-04-15 06:22:00,SPECI WMKK 150622Z VRB04KT 9000 TS VCSH FEW017CB SCT018 30/23 Q1008 NOSIG,0,4,0,9000,1,0,0,"SH,TS,VC"
2026-04-15 06:00:00,METAR WMKK 150600Z VRB04KT 9000 VCSH FEW017CB SCT018 30/23 Q1008 NOSIG,0,4,0,9000,0,0,0,"SH,VC"
2026-04-15 05:30:00,METAR WMKK 150530Z VRB05KT 9999 FEW017CB SCT018 31/23 Q1009 NOSIG,0,5,0,10000,0,0,0,
2026-04-15 05:00:00,METAR WMKK 150500Z VRB04KT 9999 SCT018 31/24 Q1009 NOSIG,0,4,0,10000,0,0,0,
2026-04-15 04:30:00,METAR WMKK 150430Z VRB02KT 9999 FEW018 32/24 Q1010 NOSIG,0,2,0,10000,0,0,0,
2026-04-15 04:00:00,METAR WMKK 150400Z VRB02KT 9000 FEW018 31/24 Q1010 NOSIG,0,2,0,9000,0,0,0,
2026-04-15 03:30:00,METAR WMKK 150330Z VRB02KT 9000 FEW018 30/23 Q1011 NOSIG,0,2,0,9000,0,0,0,
2026-04-15 03:00:00,METAR WMKK 150300Z VRB02KT 9000 FEW018 29/24 Q1011 NOSIG,0,2,0,9000,0,0,0,
2026-04-15 02:30:00,METAR WMKK 150230Z VRB02KT 9000 FEW017CB 28/24 Q1010 NOSIG,0,2,0,9000,0,0,0,
2026-04-15 02:00:00,METAR WMKK 150200Z 03004KT 320V070 9000 FEW017CB 27/24 Q1010 NOSIG,0,4,0,9000,0,0,0,
2026-04-15 01:30:00,METAR WMKK 150130Z 03003KT 300V080 9000 FEW017CB 26/24 Q1010 NOSIG,0,3,0,9000,0,0,0,
2026-04-15 01:00:00,METAR WMKK 150100Z 01003KT 280V080 9000 FEW010 FEW017CB 25/24 Q1010 NOSIG,0,3,0,9000,0,0,0,
2026-04-15 00:30:00,METAR WMKK 150030Z VRB03KT 9000 FEW010 25/24 Q1009 NOSIG,0,3,0,9000,0,0,0,
2026-04-15 00:00:00,METAR WMKK 150000Z VRB03KT 8000 FEW010 25/24 Q1009 NOSIG,0,3,0,8000,0,0,0,
2026-04-14 23:30:00,METAR WMKK 142330Z 00000KT 8000 FEW010 24/23 Q1009 NOSIG,0,0,0,8000,0,0,0,
2026-04-14 23:00:00,METAR WMKK 142300Z VRB03KT 8000 FEW010 24/23 Q1008 NOSIG,0,3,0,8000,0,0,0,
2026-04-14 22:30:00,METAR WMKK 142230Z VRB02KT 7000 FEW008 FEW017CB 25/24 Q1008 TEMPO FM2300 4000 TSRA,0,2,0,7000,1,0,0,"RA,TS"
2026-04-14 22:00:00,METAR WMKK 142200Z 00000KT 7000 FEW008 FEW017CB 25/24 Q1008 TEMPO FM2230 4000 TSRA,0,0,0,7000,1,0,0,"RA,TS"
2026-04-14 21:30:00,METAR WMKK 142130Z VRB03KT 7000 FEW008 FEW017CB 25/24 Q1009 TEMPO FM2200 20005G25KT 4000 TSRA,0,3,0,7000,1,0,0,"RA,TS"
2026-04-14 21:00:00,METAR WMKK 142100Z VRB03KT 7000 FEW008 FEW017CB 25/24 Q1009 NOSIG,0,3,0,7000,0,0,0,
2026-04-14 20:30:00,METAR WMKK 142030Z 00000KT 7000 FEW008 FEW017CB 25/24 Q1008 NOSIG,0,0,0,7000,0,0,0,
2026-04-14 20:00:00,METAR WMKK 142000Z VRB01KT 7000 FEW008 FEW017CB 25/24 Q1008 NOSIG,0,1,0,7000,0,0,0,
2026-04-14 19:30:00,METAR WMKK 141930Z 08005KT 040V120 8000 FEW010 FEW017CB 25/24 Q1008 NOSIG,0,5,0,8000,0,0,0,
2026-04-14 19:00:00,METAR WMKK 141900Z 06003KT 020V110 8000 FEW010 FEW017CB 25/24 Q1008 NOSIG,0,3,0,8000,0,0,0,
2026-04-14 18:30:00,METAR WMKK 141830Z 00000KT 8000 FEW010 FEW017CB 25/24 Q1009 NOSIG,0,0,0,8000,0,0,0,
2026-04-14 18:00:00,METAR WMKK 141800Z 00000KT 8000 FEW010 25/24 Q1010 NOSIG,0,0,0,8000,0,0,0,
2026-04-14 17:30:00,METAR WMKK 141730Z 00000KT 8000 FEW010 25/24 Q1010 NOSIG,0,0,0,8000,0,0,0,
2026-04-14 17:00:00,METAR WMKK 141700Z 00000KT 9000 FEW010 25/24 Q1011 NOSIG,0,0,0,9000,0,0,0,
2026-04-14 16:30:00,METAR WMKK 141630Z 00000KT 9000 FEW010 25/24 Q1010 NOSIG,0,0,0,9000,0,0,0,
2026-04-14 16:00:00,METAR WMKK 141600Z 00000KT 9000 FEW010 25/24 Q1010 NOSIG,0,0,0,9000,0,0,0,
2026-04-14 15:30:00,METAR WMKK 141530Z 00000KT 9000 FEW010 25/24 Q1010 NOSIG,0,0,0,9000,0,0,0,
2026-04-14 15:00:00,METAR WMKK 141500Z 00000KT 9000 FEW030 25/24 Q1010 NOSIG,0,0,0,9000,0,0,0,
2026-04-14 14:30:00,METAR WMKK 141430Z VRB01KT 9000 FEW030 25/24 Q1010 NOSIG,0,1,0,9000,0,0,0,
2026-04-14 14:00:00,METAR WMKK 141400Z VRB03KT 9000 FEW030 26/24 Q1010 NOSIG,0,3,0,9000,0,0,0,
2026-04-14 13:30:00,METAR WMKK 141330Z 05005KT 360V100 9000 FEW010 FEW017CB 26/24 Q1010 NOSIG,0,5,0,9000,0,0,0,
2026-04-14 13:00:00,METAR WMKK 141300Z 06005KT 340V120 9000 FEW010 FEW017CB 26/24 Q1010 NOSIG,0,5,0,9000,0,0,0,
2026-04-14 12:30:00,METAR WMKK 141230Z 01004KT 320V050 9000 FEW010 26/24 Q1009 NOSIG,0,4,0,9000,0,0,0,
2026-04-14 12:00:00,METAR WMKK 141200Z VRB01KT 9000 FEW010 25/24 Q1009 NOSIG,0,1,0,9000,0,0,0,
2026-04-14 11:30:00,METAR WMKK 141130Z 35003KT 290V040 9000 FEW010 25/24 Q1009 NOSIG,0,3,0,9000,0,0,0,
2026-04-14 11:00:00,METAR WMKK 141100Z COR 01005KT 320V060 8000 FEW010 25/24 Q1008 NOSIG,0,5,0,8000,0,0,0,
2026-04-14 10:30:00,METAR WMKK 141030Z 06006KT 010V110 7000 -RA FEW010 SCT030 25/24 Q1007 NOSIG,0,6,0,7000,0,0,0,-RA
2026-04-14 10:00:00,METAR WMKK 141000Z 02004KT 330V070 7000 -RA FEW010 SCT030 25/24 Q1007 RETSRA NOSIG,0,4,0,7000,1,0,0,"-RA,RA"
2026-04-14 09:30:00,METAR WMKK 140930Z 03005KT 330V080 7000 -TSRA FEW010 FEW017CB SCT030 24/23 Q1007 RETSRA NOSIG,0,5,0,7000,1,0,0,RA
2026-04-14 09:00:00,METAR WMKK 140900Z 35007KT 270V050 5000 TSRA FEW006 FEW017CB SCT028 25/23 Q1008 TEMPO 7000 -TSRA,0,7,0,5000,1,0,0,"RA,TS"
2026-04-14 08:30:00,METAR WMKK 140830Z 01010KT 310V050 4000 TSRA FEW004 FEW017CB SCT028 24/24 Q1008 TEMPO 5000 TSRA,0,10,0,4000,1,0,0,"RA,TS"
2026-04-14 08:00:00,METAR WMKK 140800Z 03007KT 290V080 7000 -TSRA FEW010 FEW017CB SCT030 27/24 Q1009 TEMPO 6000 -TSRA,0,7,0,7000,1,0,0,RA
2026-04-14 07:30:00,METAR WMKK 140730Z COR 00000KT 7000 -TSRA FEW010 FEW017CB SCT030 28/25 Q1008 NOSIG,0,0,0,7000,1,0,0,RA
2026-04-14 07:00:00,METAR WMKK 140700Z VRB03KT 7000 -TSRA FEW010 FEW016CB SCT030 29/25 Q1009 TEMPO 7000 -TSRA,0,3,0,7000,1,0,0,RA
2026-04-14 06:30:00,METAR WMKK 140630Z VRB05KT 7000 -TSRA FEW010 FEW017CB SCT018 29/25 Q1008 NOSIG,0,5,0,7000,1,0,0,RA
2026-04-14 06:00:00,METAR WMKK 140600Z 26004KT 170V340 7000 -TSRA FEW007 FEW017CB SCT018 29/25 Q1009 NOSIG,0,4,0,7000,1,0,0,RA
2026-04-14 05:30:00,METAR WMKK 140530Z 27005KT 190V340 9000 TS VCSH FEW017CB SCT018 29/26 Q1009 NOSIG,0,5,0,9000,1,0,0,"SH,TS,VC"
2026-04-14 05:00:00,METAR WMKK 140500Z 29007KT 230V350 9000 TS VCSH FEW017CB SCT018 29/24 Q1010 NOSIG,0,7,0,9000,1,0,0,"SH,TS,VC"
2026-04-14 04:35:00,SPECI WMKK 140435Z VRB05KT 9000 TS VCSH FEW017CB SCT018 31/25 Q1011 TEMPO 7000 -TSRA,0,5,0,9000,1,0,0,"RA,SH,TS,VC"
2026-04-14 04:30:00,METAR WMKK 140430Z VRB04KT 9000 VCSH FEW017CB SCT018 31/25 Q1011 NOSIG,0,4,0,9000,0,0,0,"SH,VC"
2026-04-14 04:00:00,METAR WMKK 140400Z VRB02KT 9000 VCSH FEW017CB SCT018 30/25 Q1011 NOSIG,0,2,0,9000,0,0,0,"SH,VC"
2026-04-14 03:30:00,METAR WMKK 140330Z VRB03KT 9000 FEW017CB 31/24 Q1011 NOSIG,0,3,0,9000,0,0,0,
2026-04-14 03:00:00,METAR WMKK 140300Z VRB02KT 9000 FEW017CB 30/25 Q1011 NOSIG,0,2,0,9000,0,0,0,
2026-04-14 02:30:00,METAR WMKK 140230Z VRB02KT 9000 FEW017CB 30/25 Q1011 NOSIG,0,2,0,9000,0,0,0,
2026-04-14 02:00:00,METAR WMKK 140200Z VRB01KT 9000 FEW017CB 29/26 Q1011 NOSIG,0,1,0,9000,0,0,0,
2026-04-14 01:30:00,METAR WMKK 140130Z 00000KT 8000 FEW010 FEW017CB 28/25 Q1011 NOSIG,0,0,0,8000,0,0,0,
2026-04-14 01:00:00,METAR WMKK 140100Z 00000KT 7000 FEW010 FEW017CB 28/25 Q1011 NOSIG,0,0,0,7000,0,0,0,
2026-04-14 00:30:00,METAR WMKK 140030Z 00000KT 7000 FEW010 FEW017CB 27/25 Q1010 NOSIG,0,0,0,7000,0,0,0,
2026-04-14 00:00:00,METAR WMKK 140000Z VRB02KT 9000 FEW010 FEW017CB 27/26 Q1009 NOSIG,0,2,0,9000,0,0,0,
2026-04-13 23:30:00,METAR WMKK 132330Z 00000KT 9000 FEW010 FEW017CB 26/25 Q1009 NOSIG,0,0,0,9000,0,0,0,
2026-04-13 23:00:00,METAR WMKK 132300Z 00000KT 9000 FEW010 FEW017CB 26/25 Q1009 NOSIG,0,0,0,9000,0,0,0,
2026-04-13 22:30:00,METAR WMKK 132230Z COR 00000KT 9000 FEW010 FEW017CB 26/25 Q1009 NOSIG,0,0,0,9000,0,0,0,
2026-04-13 22:00:00,METAR WMKK 132200Z 00000KT 9000 FEW010 FEW017CB SCT030 26/25 Q1009 NOSIG,0,0,0,9000,0,0,0,
2026-04-13 21:30:00,METAR WMKK 132130Z 00000KT 8000 -RA FEW010 FEW017CB SCT030 26/25 Q1008 NOSIG,0,0,0,8000,0,0,0,-RA
2026-04-13 21:00:00,METAR WMKK 132100Z VRB01KT 8000 -RA FEW010 FEW017CB SCT030 26/25 Q1008 RETS NOSIG,0,1,0,8000,1,0,0,"-RA,TS"
2026-04-13 20:30:00,METAR WMKK 132030Z VRB02KT 8000 -RA FEW010 FEW017CB SCT030 26/25 Q1008 RETS NOSIG,0,2,0,8000,1,0,0,"-RA,TS"
2026-04-13 20:00:00,METAR WMKK 132000Z VRB02KT 7000 -TSRA FEW010 FEW017CB SCT030 26/25 Q1009 TEMPO 5000 TSRA,0,2,0,7000,1,0,0,"RA,TS"
2026-04-13 19:30:00,METAR WMKK 131930Z VRB02KT 7000 -TSRA FEW010 FEW017CB SCT030 26/25 Q1008 TEMPO 5000 TSRA,0,2,0,7000,1,0,0,"RA,TS"
2026-04-13 19:00:00,METAR WMKK 131900Z 00000KT 8000 TS FEW017CB SCT030 26/25 Q1009 TEMPO 5000 TSRA,0,0,0,8000,1,0,0,"RA,TS"
2026-04-13 18:30:00,METAR WMKK 131830Z VRB01KT 9000 TS FEW017CB SCT030 27/24 Q1009 NOSIG,0,1,0,9000,1,0,0,TS
2026-04-13 18:00:00,METAR WMKK 131800Z 00000KT 9000 TS FEW017CB SCT030 27/25 Q1009 TEMPO 8000 -TSRA,0,0,0,9000,1,0,0,"RA,TS"
2026-04-13 17:34:00,SPECI WMKK 131734Z 00000KT 9999 TS FEW017CB SCT030 27/24 Q1010 TEMPO 8000 -TSRA,0,0,0,10000,1,0,0,"RA,TS"
2026-04-13 17:30:00,METAR WMKK 131730Z VRB01KT 9999 FEW017CB 27/24 Q1010 NOSIG,0,1,0,10000,0,0,0,
2026-04-13 17:00:00,METAR WMKK 131700Z VRB01KT 9999 FEW017CB 27/24 Q1010 NOSIG,0,1,0,10000,0,0,0,
2026-04-13 16:30:00,METAR WMKK 131630Z 09005KT 050V140 9999 FEW017CB 27/24 Q1011 NOSIG,0,5,0,10000,0,0,0,
2026-04-13 16:00:00,METAR WMKK 131600Z 07004KT 340V140 9999 FEW017CB 27/24 Q1011 NOSIG,0,4,0,10000,0,0,0,
2026-04-13 15:30:00,METAR WMKK 131530Z 35004KT 280V040 9999 FEW017CB 27/24 Q1011 NOSIG,0,4,0,10000,0,0,0,
2026-04-13 15:00:00,METAR WMKK 131500Z 00000KT 9999 FEW017CB 27/25 Q1010 NOSIG,0,0,0,10000,0,0,0,
2026-04-13 14:30:00,METAR WMKK 131430Z VRB02KT 9999 FEW017CB 27/25 Q1011 NOSIG,0,2,0,10000,0,0,0,
2026-04-13 14:00:00,METAR WMKK 131400Z VRB02KT 9999 FEW017CB 27/24 Q1010 NOSIG,0,2,0,10000,0,0,0,
2026-04-13 13:30:00,METAR WMKK 131330Z VRB02KT 9999 FEW017CB 27/24 Q1009 NOSIG,0,2,0,10000,0,0,0,
2026-04-13 13:00:00,METAR WMKK 131300Z 01004KT 290V070 9999 FEW017CB 27/24 Q1009 NOSIG,0,4,0,10000,0,0,0,
2026-04-13 12:30:00,METAR WMKK 131230Z 04005KT 350V100 9999 FEW017CB 28/24 Q1009 NOSIG,0,5,0,10000,0,0,0,
2026-04-13 12:00:00,METAR WMKK 131200Z 07006KT 020V140 9000 FEW017CB 28/24 Q1008 RETS NOSIG,0,6,0,9000,1,0,0,TS
2026-04-13 11:30:00,METAR WMKK 131130Z VRB03KT 9000 FEW017CB 29/24 Q1008 RETS NOSIG,0,3,0,9000,1,0,0,TS
2026-04-13 11:00:00,METAR WMKK 131100Z VRB02KT 9000 TS FEW017CB 28/24 Q1008 NOSIG,0,2,0,9000,1,0,0,TS
2026-04-13 10:30:00,METAR WMKK 131030Z VRB02KT 9000 TS VCSH FEW017CB 29/24 Q1008 NOSIG,0,2,0,9000,1,0,0,"SH,TS,VC"
2026-04-13 10:00:00,METAR WMKK 131000Z VRB04KT 9000 TS VCSH FEW017CB 30/23 Q1008 TEMPO 7000 -TSRA,0,4,0,9000,1,0,0,"RA,SH,TS,VC"
2026-04-13 09:30:00,METAR WMKK 130930Z VRB03KT 9000 TS VCSH FEW017CB 32/24 Q1006 TEMPO 7000 -TSRA,0,3,0,9000,1,0,0,"RA,SH,TS,VC"
2026-04-13 09:00:00,METAR WMKK 130900Z VRB04KT 9000 TS VCSH FEW017CB 33/23 Q1006 NOSIG,0,4,0,9000,1,0,0,"SH,TS,VC"
2026-04-13 08:40:00,SPECI WMKK 130840Z VRB04KT 9999 TS FEW017CB 33/24 Q1006 NOSIG,0,4,0,10000,1,0,0,TS
2026-04-13 08:30:00,METAR WMKK 130830Z VRB04KT 9999 FEW017CB 33/24 Q1006 NOSIG,0,4,0,10000,0,0,0,
2026-04-13 08:00:00,METAR WMKK 130800Z VRB04KT 9999 FEW018 33/24 Q1006 NOSIG,0,4,0,10000,0,0,0,
2026-04-13 07:30:00,METAR WMKK 130730Z VRB04KT 9999 FEW018 34/24 Q1006 NOSIG,0,4,0,10000,0,0,0,
2026-04-13 07:00:00,METAR WMKK 130700Z VRB05KT 9999 FEW017CB SCT018 34/24 Q1007 NOSIG,0,5,0,10000,0,0,0,
2026-04-13 06:30:00,METAR WMKK 130630Z VRB05KT 9999 FEW017CB SCT018 34/24 Q1007 NOSIG,0,5,0,10000,0,0,0,
2026-04-13 06:00:00,METAR WMKK 130600Z VRB04KT 9999 SCT018 34/24 Q1008 NOSIG,0,4,0,10000,0,0,0,
2026-04-13 05:30:00,METAR WMKK 130530Z VRB03KT 9999 SCT018 33/24 Q1009 NOSIG,0,3,0,10000,0,0,0,
2026-04-13 05:00:00,METAR WMKK 130500Z VRB04KT 9999 SCT018 33/25 Q1009 NOSIG,0,4,0,10000,0,0,0,
2026-04-13 04:30:00,METAR WMKK 130430Z VRB03KT 9999 SCT018 34/24 Q1010 NOSIG,0,3,0,10000,0,0,0,
2026-04-13 04:00:00,METAR WMKK 130400Z VRB02KT 9000 FEW017CB SCT018 33/24 Q1010 NOSIG,0,2,0,9000,0,0,0,
2026-04-13 03:30:00,METAR WMKK 130330Z VRB02KT 9000 FEW017CB 33/24 Q1010 NOSIG,0,2,0,9000,0,0,0,
2026-04-13 03:00:00,METAR WMKK 130300Z VRB02KT 9000 FEW017CB 32/24 Q1011 NOSIG,0,2,0,9000,0,0,0,
2026-04-13 02:30:00,METAR WMKK 130230Z VRB02KT 9000 FEW017CB 31/24 Q1011 NOSIG,0,2,0,9000,0,0,0,
2026-04-13 02:00:00,METAR WMKK 130200Z VRB01KT 9000 FEW017CB 31/25 Q1011 NOSIG,0,1,0,9000,0,0,0,
2026-04-13 01:30:00,METAR WMKK 130130Z 00000KT 9000 FEW017CB 29/25 Q1011 NOSIG,0,0,0,9000,0,0,0,
2026-04-13 01:00:00,METAR WMKK 130100Z 00000KT 9000 FEW017CB 28/25 Q1011 NOSIG,0,0,0,9000,0,0,0,
2026-04-13 00:30:00,METAR WMKK 130030Z 00000KT 8000 FEW010 FEW017CB 27/25 Q1010 NOSIG,0,0,0,8000,0,0,0,
2026-04-13 00:00:00,METAR WMKK 130000Z VRB03KT 7000 FEW010 FEW017CB 26/25 Q1010 NOSIG,0,3,0,7000,0,0,0,
2026-04-12 23:30:00,METAR WMKK 122330Z 02003KT 330V060 7000 FEW010 FEW017CB 26/25 Q1009 NOSIG,0,3,0,7000,0,0,0,
2026-04-12 23:00:00,METAR WMKK 122300Z VRB02KT 8000 FEW010 25/25 Q1009 NOSIG,0,2,0,8000,0,0,0,
2026-04-12 22:30:00,METAR WMKK 122230Z 00000KT 8000 FEW010 25/25 Q1009 NOSIG,0,0,0,8000,0,0,0,
2026-04-12 22:00:00,METAR WMKK 122200Z VRB02KT 8000 FEW010 25/24 Q1008 NOSIG,0,2,0,8000,0,0,0,
2026-04-12 21:30:00,METAR WMKK 122130Z 00000KT 9000 FEW010 25/25 Q1008 NOSIG,0,0,0,9000,0,0,0,
2026-04-12 21:00:00,METAR WMKK 122100Z 00000KT 9000 FEW010 25/25 Q1008 NOSIG,0,0,0,9000,0,0,0,
2026-04-12 20:30:00,METAR WMKK 122030Z 00000KT 9000 FEW010 26/25 Q1008 NOSIG,0,0,0,9000,0,0,0,
2026-04-12 20:00:00,METAR WMKK 122000Z 00000KT 9000 FEW010 26/25 Q1008 NOSIG,0,0,0,9000,0,0,0,
2026-04-12 19:30:00,METAR WMKK 121930Z 00000KT 9999 FEW030 26/25 Q1008 NOSIG,0,0,0,10000,0,0,0,
2026-04-12 19:00:00,METAR WMKK 121900Z 00000KT 9999 FEW030 26/25 Q1008 NOSIG,0,0,0,10000,0,0,0,
2026-04-12 18:30:00,METAR WMKK 121830Z 00000KT 9999 FEW030 26/25 Q1009 NOSIG,0,0,0,10000,0,0,0,
2026-04-12 18:00:00,METAR WMKK 121800Z VRB01KT 9999 FEW030 26/25 Q1009 NOSIG,0,1,0,10000,0,0,0,
2026-04-12 17:30:00,METAR WMKK 121730Z 00000KT 9999 FEW030 26/25 Q1009 NOSIG,0,0,0,10000,0,0,0,
2026-04-12 17:00:00,METAR WMKK 121700Z 00000KT 9999 FEW030 26/25 Q1009 NOSIG,0,0,0,10000,0,0,0,
2026-04-12 16:30:00,METAR WMKK 121630Z 05003KT 340V130 9999 FEW030 27/25 Q1009 NOSIG,0,3,0,10000,0,0,0,
2026-04-12 16:00:00,METAR WMKK 121600Z 00000KT 9999 FEW030 27/25 Q1010 NOSIG,0,0,0,10000,0,0,0,
2026-04-12 14:30:00,METAR WMKK 121430Z 00000KT 9999 FEW030 27/25 Q1009 NOSIG,0,0,0,10000,0,0,0,
2026-04-12 14:00:00,METAR WMKK 121400Z VRB02KT 9999 FEW030 27/25 Q1009 NOSIG,0,2,0,10000,0,0,0,
2026-04-12 13:30:00,METAR WMKK 121330Z 00000KT 9999 FEW030 27/25 Q1008 NOSIG,0,0,0,10000,0,0,0,
2026-04-12 13:00:00,METAR WMKK 121300Z 06004KT 010V140 9999 FEW030 28/24 Q1008 NOSIG,0,4,0,10000,0,0,0,
2026-04-12 12:30:00,METAR WMKK 121230Z 00000KT 9999 FEW030 28/25 Q1008 NOSIG,0,0,0,10000,0,0,0,
2026-04-12 12:00:00,METAR WMKK 121200Z VRB02KT 9999 FEW030 29/24 Q1007 NOSIG,0,2,0,10000,0,0,0,
2026-04-12 11:30:00,METAR WMKK 121130Z VRB02KT 9000 FEW030 29/24 Q1006 NOSIG,0,2,0,9000,0,0,0,
2026-04-12 11:00:00,METAR WMKK 121100Z 03004KT 350V070 9000 FEW020 29/24 Q1006 NOSIG,0,4,0,9000,0,0,0,
2026-04-12 10:30:00,METAR WMKK 121030Z 04005KT 350V110 9000 FEW018 30/24 Q1006 NOSIG,0,5,0,9000,0,0,0,
2026-04-12 10:00:00,METAR WMKK 121000Z 05006KT 340V130 8000 VCSH FEW018 30/26 Q1006 RETS NOSIG,0,6,0,8000,1,0,0,"SH,TS,VC"
2026-04-12 09:30:00,METAR WMKK 120930Z VRB03KT 8000 TS VCSH FEW017CB 32/25 Q1006 NOSIG,0,3,0,8000,1,0,0,"SH,TS,VC"
2026-04-12 09:00:00,METAR WMKK 120900Z 26003KT 170V330 8000 TS VCSH FEW017CB 32/25 Q1006 NOSIG,0,3,0,8000,1,0,0,"SH,TS,VC"
2026-04-12 08:30:00,METAR WMKK 120830Z VRB03KT 8000 TS VCSH FEW017CB 31/26 Q1006 NOSIG,0,3,0,8000,1,0,0,"SH,TS,VC"
2026-04-12 08:00:00,METAR WMKK 120800Z COR VRB03KT 8000 TS VCSH FEW017CB 31/26 Q1006 NOSIG,0,3,0,8000,1,0,0,"SH,TS,VC"
2026-04-12 07:30:00,METAR WMKK 120730Z COR VRB03KT 8000 TS VCSH FEW017CB 31/26 Q1007 NOSIG,0,3,0,8000,1,0,0,"SH,TS,VC"
2026-04-12 07:00:00,METAR WMKK 120700Z VRB02KT 9000 TS FEW017CB 30/26 Q1007 NOSIG,0,2,0,9000,1,0,0,TS
2026-04-12 06:30:00,METAR WMKK 120630Z VRB02KT 9000 TS FEW017CB 30/26 Q1007 NOSIG,0,2,0,9000,1,0,0,TS
2026-04-12 06:00:00,METAR WMKK 120600Z VRB02KT 9000 TS FEW010 FEW017CB SCT030 30/27 Q1009 RETSRA NOSIG,0,2,0,9000,1,0,0,"RA,TS"
2026-04-12 05:46:00,SPECI WMKK 120546Z VRB01KT 7000 TS FEW010 FEW017CB SCT030 29/27 Q1009 RETSRA NOSIG,0,1,0,7000,1,0,0,"RA,TS"
2026-04-12 05:30:00,METAR WMKK 120530Z VRB01KT 5000 TSRA FEW008 FEW017CB SCT030 28/27 Q1009 BECMG 0550 7000 -TSRA,0,1,0,5000,1,0,0,"RA,TS"
2026-04-12 05:00:00,METAR WMKK 120500Z 00000KT 4000 TSRA FEW008 FEW017CB SCT030 27/26 Q1010 TEMPO 5000 TSRA,0,0,0,4000,1,0,0,"RA,TS"
2026-04-12 04:30:00,METAR WMKK 120430Z 30003KT 240V340 3000 TSRA FEW008 FEW017CB SCT030 27/26 Q1010 NOSIG,0,3,0,3000,1,0,0,"RA,TS"
2026-04-12 04:00:00,METAR WMKK 120400Z VRB03KT 4000 TSRA FEW008 FEW017CB SCT018 28/26 Q1011 TEMPO 3000 +TSRA,0,3,0,4000,1,0,0,"RA,TS"
2026-04-12 03:55:00,SPECI WMKK 120355Z VRB03KT 4000 TSRA FEW008 FEW017CB SCT018 28/26 Q1011 TEMPO 3000 TSRA,0,3,0,4000,1,0,0,"RA,TS"
2026-04-12 03:40:00,SPECI WMKK 120340Z VRB04KT 4000 SHRA FEW008 FEW017CB SCT018 27/26 Q1011 TEMPO 3000 TSRA,0,4,0,4000,1,0,0,"RA,SH,TS"
2026-04-12 03:30:00,METAR WMKK 120330Z VRB03KT 7000 -SHRA FEW010 FEW017CB SCT018 30/26 Q1011 NOSIG,0,3,0,7000,0,0,0,RA
2026-04-12 03:00:00,METAR WMKK 120300Z VRB02KT 9000 VCSH FEW017CB 31/25 Q1010 NOSIG,0,2,0,9000,0,0,0,"SH,VC"
2026-04-12 02:30:00,METAR WMKK 120230Z VRB02KT 9999 FEW017CB 31/25 Q1010 NOSIG,0,2,0,10000,0,0,0,
2026-04-12 02:00:00,METAR WMKK 120200Z VRB01KT 9999 FEW017CB 31/25 Q1010 NOSIG,0,1,0,10000,0,0,0,
2026-04-12 01:30:00,METAR WMKK 120130Z VRB02KT 9000 FEW017CB 31/26 Q1010 NOSIG,0,2,0,9000,0,0,0,
2026-04-12 01:00:00,METAR WMKK 120100Z VRB01KT 9999 FEW017CB 29/26 Q1010 NOSIG,0,1,0,10000,0,0,0,
2026-04-12 00:30:00,METAR WMKK 120030Z 05005KT 350V100 9999 FEW017CB 28/26 Q1010 NOSIG,0,5,0,10000,0,0,0,
2026-04-12 00:00:00,METAR WMKK 120000Z VRB02KT 9000 FEW010 27/26 Q1009 NOSIG,0,2,0,9000,0,0,0,
2026-04-11 23:30:00,METAR WMKK 112330Z 00000KT 9000 FEW010 26/25 Q1009 NOSIG,0,0,0,9000,0,0,0,
2026-04-11 23:00:00,METAR WMKK 112300Z VRB02KT 8000 FEW010 26/25 Q1008 NOSIG,0,2,0,8000,0,0,0,
2026-04-11 22:30:00,METAR WMKK 112230Z 00000KT 8000 FEW010 26/25 Q1008 NOSIG,0,0,0,8000,0,0,0,
2026-04-11 22:00:00,METAR WMKK 112200Z 00000KT 8000 FEW010 26/25 Q1008 NOSIG,0,0,0,8000,0,0,0,
2026-04-11 21:30:00,METAR WMKK 112130Z 00000KT 8000 FEW010 26/25 Q1008 NOSIG,0,0,0,8000,0,0,0,
2026-04-11 21:00:00,METAR WMKK 112100Z 00000KT 8000 FEW010 26/25 Q1008 NOSIG,0,0,0,8000,0,0,0,
2026-04-11 20:30:00,METAR WMKK 112030Z 00000KT 8000 FEW010 26/25 Q1008 NOSIG,0,0,0,8000,0,0,0,
2026-04-11 20:00:00,METAR WMKK 112000Z COR 00000KT 8000 FEW010 26/25 Q1008 NOSIG,0,0,0,8000,0,0,0,
2026-04-11 19:30:00,METAR WMKK 111930Z 00000KT 8000 FEW010 27/25 Q1008 NOSIG,0,0,0,8000,0,0,0,
2026-04-11 19:00:00,METAR WMKK 111900Z 00000KT 9000 FEW030 27/25 Q1008 NOSIG,0,0,0,9000,0,0,0,
2026-04-11 18:30:00,METAR WMKK 111830Z 00000KT 9000 FEW030 28/26 Q1008 NOSIG,0,0,0,9000,0,0,0,
2026-04-11 18:00:00,METAR WMKK 111800Z VRB02KT 9999 FEW030 28/25 Q1009 NOSIG,0,2,0,10000,0,0,0,
2026-04-11 17:30:00,METAR WMKK 111730Z VRB02KT 9999 FEW030 27/26 Q1009 NOSIG,0,2,0,10000,0,0,0,
2026-04-11 17:00:00,METAR WMKK 111700Z VRB02KT 9999 FEW030 27/25 Q1010 NOSIG,0,2,0,10000,0,0,0,
2026-04-11 16:30:00,METAR WMKK 111630Z VRB02KT 9999 FEW030 27/25 Q1010 NOSIG,0,2,0,10000,0,0,0,
2026-04-11 16:00:00,METAR WMKK 111600Z VRB01KT 9999 FEW030 28/25 Q1010 NOSIG,0,1,0,10000,0,0,0,
2026-04-11 15:30:00,METAR WMKK 111530Z 00000KT 9999 FEW030 29/26 Q1010 NOSIG,0,0,0,10000,0,0,0,
2026-04-11 15:00:00,METAR WMKK 111500Z 00000KT 9999 FEW030 29/26 Q1010 NOSIG,0,0,0,10000,0,0,0,
2026-04-11 14:30:00,METAR WMKK 111430Z 32004KT 280V010 9999 FEW030 29/25 Q1010 NOSIG,0,4,0,10000,0,0,0,
2026-04-11 14:00:00,METAR WMKK 111400Z VRB02KT 9999 FEW030 29/25 Q1010 NOSIG,0,2,0,10000,0,0,0,
2026-04-11 13:30:00,METAR WMKK 111330Z VRB02KT 9999 FEW017CB 29/25 Q1009 NOSIG,0,2,0,10000,0,0,0,
2026-04-11 13:00:00,METAR WMKK 111300Z VRB02KT 9999 FEW017CB 29/25 Q1009 NOSIG,0,2,0,10000,0,0,0,
2026-04-11 12:30:00,METAR WMKK 111230Z 30004KT 260V340 9999 FEW017CB 30/25 Q1009 NOSIG,0,4,0,10000,0,0,0,
2026-04-11 12:00:00,METAR WMKK 111200Z 29004KT 240V330 9999 FEW017CB 30/25 Q1008 NOSIG,0,4,0,10000,0,0,0,
2026-04-11 11:30:00,METAR WMKK 111130Z 27003KT 190V320 9999 FEW017CB 30/26 Q1007 NOSIG,0,3,0,10000,0,0,0,
2026-04-11 11:00:00,METAR WMKK 111100Z COR 26003KT 210V330 9999 FEW017CB 31/25 Q1007 NOSIG,0,3,0,10000,0,0,0,
2026-04-11 10:30:00,METAR WMKK 111030Z 26004KT 190V330 9999 FEW017CB 31/25 Q1007 NOSIG,0,4,0,10000,0,0,0,
2026-04-11 10:00:00,METAR WMKK 111000Z VRB05KT 9999 FEW017CB 32/25 Q1006 NOSIG,0,5,0,10000,0,0,0,
2026-04-11 09:30:00,METAR WMKK 110930Z 26005KT 180V310 9999 FEW018 32/25 Q1006 NOSIG,0,5,0,10000,0,0,0,
2026-04-11 09:00:00,METAR WMKK 110900Z 26006KT 190V340 9999 FEW018 32/25 Q1006 NOSIG,0,6,0,10000,0,0,0,
2026-04-11 08:30:00,METAR WMKK 110830Z 25005KT 170V340 9999 FEW018 32/25 Q1007 NOSIG,0,5,0,10000,0,0,0,
2026-04-11 08:00:00,METAR WMKK 110800Z 27007KT 210V340 9000 SCT018 32/25 Q1007 NOSIG,0,7,0,9000,0,0,0,
2026-04-11 07:30:00,METAR WMKK 110730Z 27008KT 180V320 9000 VCSH SCT018 33/25 Q1007 NOSIG,0,8,0,9000,0,0,0,"SH,VC"
2026-04-11 07:00:00,METAR WMKK 110700Z VRB05KT 9000 VCSH SCT018 33/26 Q1008 NOSIG,0,5,0,9000,0,0,0,"SH,VC"
2026-04-11 06:30:00,METAR WMKK 110630Z VRB08KT 9000 VCSH SCT018 33/25 Q1008 NOSIG,0,8,0,9000,0,0,0,"SH,VC"
2026-04-11 06:00:00,METAR WMKK 110600Z VRB03KT 9000 VCSH SCT018 33/25 Q1009 NOSIG,0,3,0,9000,0,0,0,"SH,VC"
2026-04-11 05:30:00,METAR WMKK 110530Z VRB03KT 9000 VCSH SCT018 33/25 Q1009 NOSIG,0,3,0,9000,0,0,0,"SH,VC"
2026-04-11 05:00:00,METAR WMKK 110500Z VRB03KT 9000 VCSH SCT018 31/26 Q1010 NOSIG,0,3,0,9000,0,0,0,"SH,VC"
2026-04-11 04:30:00,METAR WMKK 110430Z VRB03KT 9999 SCT018 32/25 Q1011 NOSIG,0,3,0,10000,0,0,0,
2026-04-11 04:00:00,METAR WMKK 110400Z VRB03KT 9999 FEW017CB 31/25 Q1011 NOSIG,0,3,0,10000,0,0,0,
2026-04-11 03:30:00,METAR WMKK 110330Z VRB03KT 9999 FEW017CB 32/25 Q1011 NOSIG,0,3,0,10000,0,0,0,
2026-04-11 03:00:00,METAR WMKK 110300Z 00000KT 9999 FEW017CB 31/25 Q1011 NOSIG,0,0,0,10000,0,0,0,
2026-04-11 02:30:00,METAR WMKK 110230Z VRB02KT 9999 FEW017CB 31/25 Q1012 NOSIG,0,2,0,10000,0,0,0,
2026-04-11 02:00:00,METAR WMKK 110200Z VRB02KT 9999 FEW017CB 31/25 Q1011 NOSIG,0,2,0,10000,0,0,0,
2026-04-11 01:30:00,METAR WMKK 110130Z VRB02KT 9999 FEW017CB 30/25 Q1011 NOSIG,0,2,0,10000,0,0,0,
2026-04-11 01:00:00,METAR WMKK 110100Z VRB02KT 9999 FEW017CB 29/25 Q1011 NOSIG,0,2,0,10000,0,0,0,
2026-04-11 00:30:00,METAR WMKK 110030Z 13003KT 080V170 9999 FEW017CB 28/25 Q1011 NOSIG,0,3,0,10000,0,0,0,
2026-04-11 00:00:00,METAR WMKK 110000Z VRB02KT 9000 FEW010 FEW017CB 26/25 Q1010 NOSIG,0,2,0,9000,0,0,0,
2026-04-10 23:30:00,METAR WMKK 102330Z 00000KT 9000 FEW010 FEW017CB 26/24 Q1010 NOSIG,0,0,0,9000,0,0,0,
2026-04-10 23:00:00,METAR WMKK 102300Z VRB02KT 8000 FEW010 FEW017CB 26/24 Q1009 NOSIG,0,2,0,8000,0,0,0,
2026-04-10 22:30:00,METAR WMKK 102230Z 04003KT 360V090 8000 FEW010 26/24 Q1009 NOSIG,0,3,0,8000,0,0,0,
2026-04-10 22:00:00,METAR WMKK 102200Z 00000KT 8000 FEW010 26/25 Q1009 NOSIG,0,0,0,8000,0,0,0,
2026-04-10 21:30:00,METAR WMKK 102130Z 00000KT 8000 FEW010 26/25 Q1009 NOSIG,0,0,0,8000,0,0,0,
2026-04-10 21:00:00,METAR WMKK 102100Z 00000KT 8000 FEW010 26/25 Q1009 NOSIG,0,0,0,8000,0,0,0,
2026-04-10 20:30:00,METAR WMKK 102030Z VRB02KT 8000 FEW010 26/25 Q1009 NOSIG,0,2,0,8000,0,0,0,
2026-04-10 20:00:00,METAR WMKK 102000Z COR 00000KT 8000 FEW010 26/25 Q1009 NOSIG,0,0,0,8000,0,0,0,
2026-04-10 19:30:00,METAR WMKK 101930Z 00000KT 9000 FEW030 26/25 Q1009 NOSIG,0,0,0,9000,0,0,0,
2026-04-10 19:00:00,METAR WMKK 101900Z VRB01KT 9000 FEW030 27/25 Q1010 NOSIG,0,1,0,9000,0,0,0,
2026-04-10 18:30:00,METAR WMKK 101830Z VRB02KT 9000 FEW017CB 27/25 Q1010 NOSIG,0,2,0,9000,0,0,0,
2026-04-10 18:00:00,METAR WMKK 101800Z 00000KT 9000 FEW017CB 27/25 Q1010 NOSIG,0,0,0,9000,0,0,0,
2026-04-10 17:30:00,METAR WMKK 101730Z 01004KT 320V050 9000 FEW017CB 27/25 Q1010 NOSIG,0,4,0,9000,0,0,0,
2026-04-10 17:00:00,METAR WMKK 101700Z 04004KT 350V080 9999 FEW017CB 28/25 Q1011 NOSIG,0,4,0,10000,0,0,0,
2026-04-10 16:30:00,METAR WMKK 101630Z VRB01KT 9999 FEW017CB 28/25 Q1012 NOSIG,0,1,0,10000,0,0,0,
2026-04-10 16:00:00,METAR WMKK 101600Z VRB02KT 9999 FEW017CB 28/25 Q1012 NOSIG,0,2,0,10000,0,0,0,
2026-04-10 15:30:00,METAR WMKK 101530Z VRB02KT 9999 FEW017CB 28/25 Q1012 NOSIG,0,2,0,10000,0,0,0,
2026-04-10 15:00:00,METAR WMKK 101500Z VRB03KT 9999 FEW017CB 28/25 Q1012 NOSIG,0,3,0,10000,0,0,0,
2026-04-10 14:30:00,METAR WMKK 101430Z VRB02KT 9999 FEW017CB 28/25 Q1012 NOSIG,0,2,0,10000,0,0,0,
2026-04-10 14:00:00,METAR WMKK 101400Z VRB02KT 9999 FEW017CB 28/25 Q1011 NOSIG,0,2,0,10000,0,0,0,
2026-04-10 13:30:00,METAR WMKK 101330Z 00000KT 9000 FEW017CB 28/25 Q1011 NOSIG,0,0,0,9000,0,0,0,
2026-04-10 13:00:00,METAR WMKK 101300Z VRB02KT 9000 FEW017CB 29/25 Q1010 NOSIG,0,2,0,9000,0,0,0,
2026-04-10 12:30:00,METAR WMKK 101230Z VRB03KT 9000 FEW017CB 29/25 Q1010 NOSIG,0,3,0,9000,0,0,0,
2026-04-10 12:00:00,METAR WMKK 101200Z VRB02KT 9000 FEW017CB 30/24 Q1009 RETS NOSIG,0,2,0,9000,1,0,0,TS
2026-04-10 11:30:00,METAR WMKK 101130Z VRB02KT 9000 TS FEW017CB 30/25 Q1009 NOSIG,0,2,0,9000,1,0,0,TS
2026-04-10 11:00:00,METAR WMKK 101100Z 00000KT 9000 TS FEW017CB 31/24 Q1009 NOSIG,0,0,0,9000,1,0,0,TS
2026-04-10 10:30:00,METAR WMKK 101030Z VRB02KT 9000 TS FEW017CB 31/24 Q1009 NOSIG,0,2,0,9000,1,0,0,TS
2026-04-10 10:00:00,METAR WMKK 101000Z 27003KT 190V340 9000 TS VCSH FEW017CB 31/25 Q1008 NOSIG,0,3,0,9000,1,0,0,"SH,TS,VC"
2026-04-10 09:30:00,METAR WMKK 100930Z 27004KT 200V330 9000 TS VCSH FEW017CB 31/25 Q1008 NOSIG,0,4,0,9000,1,0,0,"SH,TS,VC"
2026-04-10 09:00:00,METAR WMKK 100900Z VRB04KT 9000 TS VCSH FEW017CB 32/25 Q1008 NOSIG,0,4,0,9000,1,0,0,"SH,TS,VC"
2026-04-10 08:35:00,SPECI WMKK 100835Z 27006KT 210V330 9000 TS VCSH FEW017CB 32/25 Q1008 NOSIG,0,6,0,9000,1,0,0,"SH,TS,VC"
2026-04-10 08:30:00,METAR WMKK 100830Z 27006KT 190V330 9000 VCSH FEW017CB 32/25 Q1008 NOSIG,0,6,0,9000,0,0,0,"SH,VC"
2026-04-10 08:00:00,METAR WMKK 100800Z COR VRB05KT 9000 VCSH FEW017CB SCT018 33/25 Q1008 TEMPO 7000 -TSRA,0,5,0,9000,1,0,0,"RA,SH,VC"
2026-04-10 07:30:00,METAR WMKK 100730Z VRB04KT 9000 VCSH FEW017CB SCT018 32/25 Q1009 TEMPO 7000 -TSRA,0,4,0,9000,1,0,0,"RA,SH,VC"
2026-04-10 07:00:00,METAR WMKK 100700Z 24003KT 170V340 9999 FEW017CB SCT018 32/25 Q1009 NOSIG,0,3,0,10000,0,0,0,
2026-04-10 06:30:00,METAR WMKK 100630Z 26004KT 170V320 9999 FEW017CB SCT018 32/25 Q1009 NOSIG,0,4,0,10000,0,0,0,
2026-04-10 06:00:00,METAR WMKK 100600Z VRB02KT 9999 FEW017CB SCT018 32/25 Q1010 NOSIG,0,2,0,10000,0,0,0,
2026-04-10 05:30:00,METAR WMKK 100530Z VRB02KT 9999 FEW018 32/24 Q1011 NOSIG,0,2,0,10000,0,0,0,
2026-04-10 05:00:00,METAR WMKK 100500Z 28003KT 200V330 9999 FEW018 32/24 Q1011 NOSIG,0,3,0,10000,0,0,0,
2026-04-10 04:30:00,METAR WMKK 100430Z VRB02KT 9999 FEW030 32/24 Q1012 NOSIG,0,2,0,10000,0,0,0,
2026-04-10 04:00:00,METAR WMKK 100400Z 00000KT 9999 FEW018 31/25 Q1012 NOSIG,0,0,0,10000,0,0,0,
2026-04-10 03:30:00,METAR WMKK 100330Z VRB02KT 9999 FEW018 31/25 Q1012 NOSIG,0,2,0,10000,0,0,0,
2026-04-10 03:00:00,METAR WMKK 100300Z VRB03KT 9999 FEW018 30/24 Q1012 NOSIG,0,3,0,10000,0,0,0,
2026-04-10 02:30:00,METAR WMKK 100230Z VRB02KT 9999 FEW018 30/24 Q1012 NOSIG,0,2,0,10000,0,0,0,
2026-04-10 02:00:00,METAR WMKK 100200Z VRB02KT 9999 FEW017CB 29/24 Q1012 NOSIG,0,2,0,10000,0,0,0,
2026-04-10 01:30:00,METAR WMKK 100130Z VRB01KT 9999 FEW017CB 28/24 Q1012 NOSIG,0,1,0,10000,0,0,0,
2026-04-10 01:00:00,METAR WMKK 100100Z 00000KT 9999 FEW018 27/25 Q1011 NOSIG,0,0,0,10000,0,0,0,
2026-04-10 00:30:00,METAR WMKK 100030Z VRB03KT 9000 FEW030 26/24 Q1011 NOSIG,0,3,0,9000,0,0,0,
2026-04-10 00:00:00,METAR WMKK 100000Z VRB01KT 9000 FEW010 25/24 Q1010 NOSIG,0,1,0,9000,0,0,0,
2026-04-09 23:30:00,METAR WMKK 092330Z COR VRB01KT 9000 FEW010 25/24 Q1010 NOSIG,0,1,0,9000,0,0,0,
2026-04-09 23:00:00,METAR WMKK 092300Z 00000KT 9000 FEW017CB 26/24 Q1010 NOSIG,0,0,0,9000,0,0,0,
2026-04-09 22:30:00,METAR WMKK 092230Z 00000KT 9000 FEW017CB 26/24 Q1009 NOSIG,0,0,0,9000,0,0,0,
2026-04-09 22:00:00,METAR WMKK 092200Z VRB03KT 9000 FEW030 26/23 Q1009 NOSIG,0,3,0,9000,0,0,0,
2026-04-09 21:30:00,METAR WMKK 092130Z VRB02KT 9000 FEW030 26/24 Q1009 NOSIG,0,2,0,9000,0,0,0,
2026-04-09 21:00:00,METAR WMKK 092100Z VRB02KT 9000 FEW030 26/24 Q1010 NOSIG,0,2,0,9000,0,0,0,
2026-04-09 20:30:00,METAR WMKK 092030Z 00000KT 8000 FEW010 26/24 Q1010 NOSIG,0,0,0,8000,0,0,0,
2026-04-09 20:00:00,METAR WMKK 092000Z 00000KT 8000 FEW010 26/25 Q1010 NOSIG,0,0,0,8000,0,0,0,
2026-04-09 19:30:00,METAR WMKK 091930Z 00000KT 8000 FEW010 26/24 Q1011 NOSIG,0,0,0,8000,0,0,0,
2026-04-09 19:00:00,METAR WMKK 091900Z VRB01KT 8000 FEW010 26/24 Q1011 NOSIG,0,1,0,8000,0,0,0,
2026-04-09 18:30:00,METAR WMKK 091830Z VRB02KT 8000 FEW010 26/24 Q1012 NOSIG,0,2,0,8000,0,0,0,
2026-04-09 18:00:00,METAR WMKK 091800Z VRB02KT 8000 FEW010 FEW017CB 26/24 Q1012 NOSIG,0,2,0,8000,0,0,0,
2026-04-09 17:30:00,METAR WMKK 091730Z 28003KT 240V330 8000 FEW010 FEW017CB SCT030 26/24 Q1012 NOSIG,0,3,0,8000,0,0,0,
2026-04-09 17:00:00,METAR WMKK 091700Z 34003KT 280V090 8000 FEW010 FEW017CB SCT030 26/24 Q1012 NOSIG,0,3,0,8000,0,0,0,
2026-04-09 16:30:00,METAR WMKK 091630Z 34007KT 280V050 7000 -RA FEW008 FEW017CB SCT030 26/24 Q1012 NOSIG,0,7,0,7000,0,0,0,-RA
2026-04-09 16:00:00,METAR WMKK 091600Z 32005KT 290V360 7000 -RA FEW008 FEW017CB SCT030 27/25 Q1012 NOSIG,0,5,0,7000,0,0,0,-RA
2026-04-09 15:30:00,METAR WMKK 091530Z 35006KT 290V050 7000 -RA FEW008 FEW017CB SCT030 27/25 Q1012 NOSIG,0,6,0,7000,0,0,0,-RA
2026-04-09 15:00:00,METAR WMKK 091500Z 35008KT 290V050 8000 -RA FEW010 FEW017CB SCT030 28/26 Q1012 NOSIG,0,8,0,8000,0,0,0,-RA
2026-04-09 14:30:00,METAR WMKK 091430Z 30004KT 230V350 9000 FEW017CB SCT030 29/25 Q1011 NOSIG,0,4,0,9000,0,0,0,
2026-04-09 14:00:00,METAR WMKK 091400Z 31006KT 260V350 9000 FEW017CB SCT030 29/25 Q1011 NOSIG,0,6,0,9000,0,0,0,
2026-04-09 13:30:00,METAR WMKK 091330Z 29005KT 240V330 9999 FEW017CB 29/24 Q1011 NOSIG,0,5,0,10000,0,0,0,
2026-04-09 13:00:00,METAR WMKK 091300Z 29006KT 230V350 9999 FEW017CB 29/24 Q1011 NOSIG,0,6,0,10000,0,0,0,
2026-04-09 12:30:00,METAR WMKK 091230Z 27003KT 220V330 9999 FEW017CB 29/24 Q1009 NOSIG,0,3,0,10000,0,0,0,
2026-04-09 12:00:00,METAR WMKK 091200Z 25003KT 200V300 9999 FEW017CB 30/24 Q1009 NOSIG,0,3,0,10000,0,0,0,
2026-04-09 11:30:00,METAR WMKK 091130Z VRB03KT 9999 FEW017CB 30/24 Q1009 NOSIG,0,3,0,10000,0,0,0,
2026-04-09 11:00:00,METAR WMKK 091100Z 24004KT 170V300 9999 FEW017CB 31/24 Q1008 NOSIG,0,4,0,10000,0,0,0,
2026-04-09 10:30:00,METAR WMKK 091030Z 23004KT 150V320 9999 FEW017CB 32/24 Q1007 NOSIG,0,4,0,10000,0,0,0,
2026-04-09 10:00:00,METAR WMKK 091000Z VRB04KT 9999 FEW017CB 33/23 Q1007 NOSIG,0,4,0,10000,0,0,0,
2026-04-09 09:30:00,METAR WMKK 090930Z VRB06KT 9999 FEW017CB 33/21 Q1007 NOSIG,0,6,0,10000,0,0,0,
2026-04-09 09:00:00,METAR WMKK 090900Z VRB05KT 9999 FEW018 34/21 Q1007 NOSIG,0,5,0,10000,0,0,0,
2026-04-09 08:30:00,METAR WMKK 090830Z VRB05KT 9999 FEW018 34/22 Q1007 NOSIG,0,5,0,10000,0,0,0,
2026-04-09 08:00:00,METAR WMKK 090800Z VRB04KT 9999 FEW018 34/22 Q1007 NOSIG,0,4,0,10000,0,0,0,
2026-04-09 07:30:00,METAR WMKK 090730Z VRB05KT 9999 FEW018 34/22 Q1008 NOSIG,0,5,0,10000,0,0,0,
2026-04-09 07:00:00,METAR WMKK 090700Z VRB05KT 9999 SCT018 34/22 Q1009 NOSIG,0,5,0,10000,0,0,0,
2026-04-09 06:30:00,METAR WMKK 090630Z VRB05KT 9999 SCT018 34/22 Q1009 NOSIG,0,5,0,10000,0,0,0,
2026-04-09 06:00:00,METAR WMKK 090600Z VRB05KT 9999 SCT018 34/22 Q1010 NOSIG,0,5,0,10000,0,0,0,
2026-04-09 05:30:00,METAR WMKK 090530Z VRB05KT 9999 SCT018 34/22 Q1010 NOSIG,0,5,0,10000,0,0,0,
2026-04-09 05:00:00,METAR WMKK 090500Z VRB05KT 9999 SCT018 33/24 Q1011 NOSIG,0,5,0,10000,0,0,0,
2026-04-09 04:30:00,METAR WMKK 090430Z VRB03KT 9999 SCT018 33/24 Q1011 NOSIG,0,3,0,10000,0,0,0,
2026-04-09 04:00:00,METAR WMKK 090400Z VRB02KT 9999 SCT018 33/24 Q1011 NOSIG,0,2,0,10000,0,0,0,
2026-04-09 03:30:00,METAR WMKK 090330Z VRB02KT 9999 FEW018 32/24 Q1012 NOSIG,0,2,0,10000,0,0,0,
2026-04-09 03:00:00,METAR WMKK 090300Z VRB03KT 9999 FEW018 32/25 Q1012 NOSIG,0,3,0,10000,0,0,0,
2026-04-09 02:30:00,METAR WMKK 090230Z VRB02KT 9999 FEW018 31/24 Q1012 NOSIG,0,2,0,10000,0,0,0,
2026-04-09 02:00:00,METAR WMKK 090200Z COR VRB02KT 9999 FEW018 30/24 Q1012 NOSIG,0,2,0,10000,0,0,0,
2026-04-09 01:30:00,METAR WMKK 090130Z VRB01KT 9999 FEW018 29/24 Q1012 NOSIG,0,1,0,10000,0,0,0,
2026-04-09 01:00:00,METAR WMKK 090100Z 00000KT 9999 FEW018 28/24 Q1011 NOSIG,0,0,0,10000,0,0,0,
2026-04-09 00:30:00,METAR WMKK 090030Z 00000KT 9000 FEW030 27/24 Q1011 NOSIG,0,0,0,9000,0,0,0,
2026-04-09 00:00:00,METAR WMKK 090000Z 00000KT 8000 FEW010 27/24 Q1011 NOSIG,0,0,0,8000,0,0,0,
2026-04-08 23:30:00,METAR WMKK 082330Z VRB02KT 8000 FEW010 26/24 Q1010 NOSIG,0,2,0,8000,0,0,0,
2026-04-08 23:00:00,METAR WMKK 082300Z 00000KT 7000 FEW010 26/25 Q1010 NOSIG,0,0,0,7000,0,0,0,
2026-04-08 22:30:00,METAR WMKK 082230Z 00000KT 7000 FEW010 FEW017CB 26/25 Q1010 NOSIG,0,0,0,7000,0,0,0,
2026-04-08 22:00:00,METAR WMKK 082200Z COR 00000KT 7000 FEW008 FEW017CB 26/25 Q1010 NOSIG,0,0,0,7000,0,0,0,
2026-04-08 21:30:00,METAR WMKK 082130Z 00000KT 8000 FEW008 FEW017CB 25/25 Q1010 NOSIG,0,0,0,8000,0,0,0,
2026-04-08 21:00:00,METAR WMKK 082100Z VRB01KT 8000 FEW010 FEW017CB 26/25 Q1009 NOSIG,0,1,0,8000,0,0,0,
2026-04-08 20:30:00,METAR WMKK 082030Z VRB03KT 9999 FEW017CB 26/24 Q1009 NOSIG,0,3,0,10000,0,0,0,
2026-04-08 20:00:00,METAR WMKK 082000Z 00000KT 9000 FEW010 SCT030 26/25 Q1009 RERA NOSIG,0,0,0,9000,0,0,0,RA
2026-04-08 19:30:00,METAR WMKK 081930Z 00000KT 9000 FEW010 SCT030 26/25 Q1009 RERA NOSIG,0,0,0,9000,0,0,0,RA
2026-04-08 19:00:00,METAR WMKK 081900Z 00000KT 9000 -RA FEW010 SCT030 26/25 Q1009 NOSIG,0,0,0,9000,0,0,0,-RA
2026-04-08 18:30:00,METAR WMKK 081830Z 35004KT 280V060 9000 -RA FEW010 SCT030 27/25 Q1010 NOSIG,0,4,0,9000,0,0,0,-RA
2026-04-08 18:00:00,METAR WMKK 081800Z VRB04KT 9000 -RA FEW010 SCT030 27/25 Q1010 NOSIG,0,4,0,9000,0,0,0,-RA
2026-04-08 17:30:00,METAR WMKK 081730Z 03003KT 290V090 9000 -RA FEW010 SCT030 27/25 Q1011 NOSIG,0,3,0,9000,0,0,0,-RA
2026-04-08 17:00:00,METAR WMKK 081700Z 00000KT 9999 FEW030 27/25 Q1011 NOSIG,0,0,0,10000,0,0,0,
2026-04-08 16:30:00,METAR WMKK 081630Z 01003KT 290V050 9999 FEW030 28/24 Q1011 NOSIG,0,3,0,10000,0,0,0,
2026-04-08 16:00:00,METAR WMKK 081600Z 35003KT 290V060 9000 FEW030 27/25 Q1011 NOSIG,0,3,0,9000,0,0,0,
2026-04-08 15:30:00,METAR WMKK 081530Z 35003KT 290V070 9000 FEW030 28/24 Q1011 NOSIG,0,3,0,9000,0,0,0,
2026-04-08 15:00:00,METAR WMKK 081500Z 01004KT 300V050 9000 FEW030 28/24 Q1011 NOSIG,0,4,0,9000,0,0,0,
2026-04-08 14:30:00,METAR WMKK 081430Z VRB03KT 9000 FEW030 28/25 Q1010 NOSIG,0,3,0,9000,0,0,0,
2026-04-08 14:00:00,METAR WMKK 081400Z 04004KT 340V100 9000 FEW030 28/25 Q1010 NOSIG,0,4,0,9000,0,0,0,
2026-04-08 13:30:00,METAR WMKK 081330Z 04005KT 360V080 9000 FEW030 29/24 Q1010 NOSIG,0,5,0,9000,0,0,0,
2026-04-08 13:00:00,METAR WMKK 081300Z 04004KT 340V100 9000 FEW017CB 29/24 Q1009 NOSIG,0,4,0,9000,0,0,0,
2026-04-08 12:30:00,METAR WMKK 081230Z VRB02KT 9000 FEW017CB 29/24 Q1009 NOSIG,0,2,0,9000,0,0,0,
2026-04-08 12:00:00,METAR WMKK 081200Z 00000KT 9000 FEW030 29/25 Q1009 NOSIG,0,0,0,9000,0,0,0,
2026-04-08 11:30:00,METAR WMKK 081130Z VRB02KT 9000 FEW030 29/24 Q1009 NOSIG,0,2,0,9000,0,0,0,
2026-04-08 11:00:00,METAR WMKK 081100Z 00000KT 9000 FEW020 30/24 Q1008 NOSIG,0,0,0,9000,0,0,0,
2026-04-08 10:30:00,METAR WMKK 081030Z 00000KT 9000 VCSH FEW017CB 30/24 Q1008 NOSIG,0,0,0,9000,0,0,0,"SH,VC"
2026-04-08 10:00:00,METAR WMKK 081000Z VRB02KT 9000 VCSH FEW017CB 30/24 Q1007 NOSIG,0,2,0,9000,0,0,0,"SH,VC"
2026-04-08 09:30:00,METAR WMKK 080930Z 24003KT 170V300 9000 VCSH FEW017CB 31/23 Q1007 NOSIG,0,3,0,9000,0,0,0,"SH,VC"
2026-04-08 09:00:00,METAR WMKK 080900Z 25006KT 190V320 9999 FEW017CB 32/23 Q1007 NOSIG,0,6,0,10000,0,0,0,
2026-04-08 08:30:00,METAR WMKK 080830Z 25006KT 160V320 9999 FEW017CB 32/24 Q1007 NOSIG,0,6,0,10000,0,0,0,
2026-04-08 08:00:00,METAR WMKK 080800Z 24008KT 150V320 9999 FEW017CB 32/24 Q1007 NOSIG,0,8,0,10000,0,0,0,
2026-04-08 07:30:00,METAR WMKK 080730Z VRB06KT 9999 FEW017CB 32/24 Q1007 NOSIG,0,6,0,10000,0,0,0,
2026-04-08 07:00:00,METAR WMKK 080700Z 24005KT 140V310 9999 SCT018 32/25 Q1008 NOSIG,0,5,0,10000,0,0,0,
2026-04-08 06:30:00,METAR WMKK 080630Z 24005KT 160V330 9999 SCT018 32/25 Q1008 NOSIG,0,5,0,10000,0,0,0,
2026-04-08 06:00:00,METAR WMKK 080600Z 25006KT 180V310 9999 SCT018 32/25 Q1009 NOSIG,0,6,0,10000,0,0,0,
2026-04-08 05:30:00,METAR WMKK 080530Z VRB04KT 9999 SCT018 33/24 Q1009 NOSIG,0,4,0,10000,0,0,0,
2026-04-08 05:00:00,METAR WMKK 080500Z VRB03KT 9999 SCT018 33/24 Q1010 NOSIG,0,3,0,10000,0,0,0,
2026-04-08 04:30:00,METAR WMKK 080430Z VRB02KT 9999 SCT018 32/24 Q1010 NOSIG,0,2,0,10000,0,0,0,
2026-04-08 04:00:00,METAR WMKK 080400Z VRB02KT 9999 FEW018 32/24 Q1011 NOSIG,0,2,0,10000,0,0,0,
2026-04-08 03:30:00,METAR WMKK 080330Z VRB04KT 9999 FEW018 31/24 Q1011 NOSIG,0,4,0,10000,0,0,0,
2026-04-08 03:00:00,METAR WMKK 080300Z VRB02KT 9999 FEW018 31/24 Q1011 NOSIG,0,2,0,10000,0,0,0,
2026-04-08 02:30:00,METAR WMKK 080230Z 34004KT 260V050 9999 FEW018 31/24 Q1011 NOSIG,0,4,0,10000,0,0,0,
2026-04-08 02:00:00,METAR WMKK 080200Z 03004KT 320V080 9999 FEW018 30/24 Q1011 NOSIG,0,4,0,10000,0,0,0,
2026-04-08 01:30:00,METAR WMKK 080130Z 06005KT 350V150 9999 FEW018 29/24 Q1011 NOSIG,0,5,0,10000,0,0,0,
2026-04-08 01:00:00,METAR WMKK 080100Z 08004KT 010V140 9000 FEW020 28/24 Q1011 NOSIG,0,4,0,9000,0,0,0,
2026-04-08 00:30:00,METAR WMKK 080030Z VRB02KT 9000 FEW017CB 27/24 Q1011 NOSIG,0,2,0,9000,0,0,0,
2026-04-08 00:00:00,METAR WMKK 080000Z VRB02KT 8000 FEW030 26/24 Q1010 NOSIG,0,2,0,8000,0,0,0,
2026-04-07 23:30:00,METAR WMKK 072330Z VRB02KT 8000 FEW030 26/24 Q1010 NOSIG,0,2,0,8000,0,0,0,
2026-04-07 23:00:00,METAR WMKK 072300Z COR 05003KT 010V110 8000 FEW010 FEW017CB SCT030 25/24 Q1010 RETSRA NOSIG,0,3,0,8000,1,0,0,RA
2026-04-07 22:30:00,METAR WMKK 072230Z 01003KT 310V070 8000 -TSRA FEW010 FEW017CB SCT030 25/24 Q1009 NOSIG,0,3,0,8000,1,0,0,RA
2026-04-07 22:00:00,METAR WMKK 072200Z VRB02KT 6000 -TSRA FEW008 FEW017CB SCT030 25/24 Q1010 NOSIG,0,2,0,6000,1,0,0,RA
2026-04-07 21:30:00,METAR WMKK 072130Z 02003KT 310V070 6000 -TSRA FEW008 FEW017CB SCT030 25/24 Q1010 NOSIG,0,3,0,6000,1,0,0,RA
2026-04-07 21:00:00,METAR WMKK 072100Z VRB01KT 6000 -TSRA FEW008 FEW017CB SCT030 25/25 Q1010 NOSIG,0,1,0,6000,1,0,0,RA
2026-04-07 20:30:00,METAR WMKK 072030Z VRB03KT 6000 -TSRA FEW008 FEW017CB SCT030 25/24 Q1009 RETSRA NOSIG,0,3,0,6000,1,0,0,RA
2026-04-07 20:00:00,METAR WMKK 072000Z COR 35003KT 320V060 4000 TSRA FEW006 FEW017CB SCT030 25/24 Q1010 NOSIG,0,3,0,4000,1,0,0,"RA,TS"
2026-04-07 19:30:00,METAR WMKK 071930Z 34005KT 260V070 4000 TSRA FEW006 FEW017CB SCT030 25/24 Q1010 TEMPO 5000 TSRA,0,5,0,4000,1,0,0,"RA,TS"
2026-04-07 19:00:00,METAR WMKK 071900Z 33009KT 280V030 5000 TSRA FEW006 FEW017CB SCT030 25/24 Q1009 TEMPO 3000 +TSRA,0,9,0,5000,1,0,0,"RA,TS"
2026-04-07 18:35:00,SPECI WMKK 071835Z VRB05KT 5000 TSRA FEW006 FEW017CB SCT030 25/25 Q1009 TEMPO 3000 +TSRA,0,5,0,5000,1,0,0,"RA,TS"
2026-04-07 18:30:00,METAR WMKK 071830Z VRB04KT 6000 -RA FEW007 FEW017CB SCT030 26/25 Q1009 TEMPO 5000 TSRA,0,4,0,6000,1,0,0,"-RA,RA,TS"
2026-04-07 18:00:00,METAR WMKK 071800Z 06005KT 340V110 9000 FEW017CB 27/26 Q1010 NOSIG,0,5,0,9000,0,0,0,
2026-04-07 17:30:00,METAR WMKK 071730Z 00000KT 9000 FEW017CB 27/25 Q1010 NOSIG,0,0,0,9000,0,0,0,
2026-04-07 17:00:00,METAR WMKK 071700Z 00000KT 9000 FEW017CB 27/25 Q1011 NOSIG,0,0,0,9000,0,0,0,
2026-04-07 16:30:00,METAR WMKK 071630Z 00000KT 9000 FEW030 28/25 Q1011 NOSIG,0,0,0,9000,0,0,0,
2026-04-07 16:00:00,METAR WMKK 071600Z 00000KT 9999 FEW030 28/25 Q1011 NOSIG,0,0,0,10000,0,0,0,
2026-04-07 15:30:00,METAR WMKK 071530Z 00000KT 9999 FEW030 28/26 Q1011 NOSIG,0,0,0,10000,0,0,0,
2026-04-07 15:00:00,METAR WMKK 071500Z VRB02KT 9999 FEW030 28/25 Q1011 NOSIG,0,2,0,10000,0,0,0,
2026-04-07 14:30:00,METAR WMKK 071430Z VRB01KT 9999 FEW030 28/25 Q1011 NOSIG,0,1,0,10000,0,0,0,
2026-04-07 14:00:00,METAR WMKK 071400Z 00000KT 9999 FEW030 29/25 Q1010 NOSIG,0,0,0,10000,0,0,0,
2026-04-07 13:30:00,METAR WMKK 071330Z VRB01KT 9999 FEW030 29/25 Q1009 NOSIG,0,1,0,10000,0,0,0,
2026-04-07 13:00:00,METAR WMKK 071300Z 00000KT 9999 FEW030 29/25 Q1008 NOSIG,0,0,0,10000,0,0,0,
2026-04-07 12:30:00,METAR WMKK 071230Z VRB01KT 9999 FEW017CB 29/25 Q1008 NOSIG,0,1,0,10000,0,0,0,
2026-04-07 12:00:00,METAR WMKK 071200Z VRB03KT 9999 FEW017CB 30/25 Q1008 NOSIG,0,3,0,10000,0,0,0,
2026-04-07 11:30:00,METAR WMKK 071130Z 24003KT 160V330 9999 FEW017CB 31/24 Q1008 NOSIG,0,3,0,10000,0,0,0,
2026-04-07 11:00:00,METAR WMKK 071100Z 25004KT 200V340 9999 FEW017CB 32/24 Q1007 NOSIG,0,4,0,10000,0,0,0,
2026-04-07 10:30:00,METAR WMKK 071030Z VRB05KT 9999 FEW017CB 33/24 Q1007 NOSIG,0,5,0,10000,0,0,0,
2026-04-07 10:00:00,METAR WMKK 071000Z 25007KT 180V310 9000 VCSH FEW017CB 34/23 Q1007 NOSIG,0,7,0,9000,0,0,0,"SH,VC"
2026-04-07 09:30:00,METAR WMKK 070930Z VRB07KT 9000 VCSH FEW017CB 34/25 Q1007 NOSIG,0,7,0,9000,0,0,0,"SH,VC"
2026-04-07 09:00:00,METAR WMKK 070900Z 27007KT 190V320 9999 FEW017CB 34/24 Q1007 NOSIG,0,7,0,10000,0,0,0,
2026-04-07 08:30:00,METAR WMKK 070830Z 27005KT 200V010 9999 FEW017CB 35/22 Q1007 NOSIG,0,5,0,10000,0,0,0,
2026-04-07 08:00:00,METAR WMKK 070800Z VRB06KT 9999 FEW017CB 35/22 Q1007 NOSIG,0,6,0,10000,0,0,0,
2026-04-07 07:30:00,METAR WMKK 070730Z VRB05KT 9999 FEW017CB SCT018 34/23 Q1007 NOSIG,0,5,0,10000,0,0,0,
2026-04-07 07:00:00,METAR WMKK 070700Z VRB03KT 9999 FEW017CB SCT018 33/25 Q1008 NOSIG,0,3,0,10000,0,0,0,
2026-04-07 06:30:00,METAR WMKK 070630Z 31005KT 260V350 9999 FEW017CB SCT018 33/23 Q1008 NOSIG,0,5,0,10000,0,0,0,
2026-04-07 06:00:00,METAR WMKK 070600Z 31004KT 230V010 9999 SCT018 34/23 Q1009 NOSIG,0,4,0,10000,0,0,0,
2026-04-07 05:30:00,METAR WMKK 070530Z 27005KT 210V340 9999 SCT018 34/23 Q1010 NOSIG,0,5,0,10000,0,0,0,
2026-04-07 05:00:00,METAR WMKK 070500Z VRB04KT 9999 SCT018 34/23 Q1010 NOSIG,0,4,0,10000,0,0,0,
2026-04-07 04:30:00,METAR WMKK 070430Z 27006KT 210V330 9999 SCT018 34/24 Q1011 NOSIG,0,6,0,10000,0,0,0,
2026-04-07 04:00:00,METAR WMKK 070400Z 31005KT 230V030 9999 SCT018 33/24 Q1011 NOSIG,0,5,0,10000,0,0,0,
2026-04-07 03:30:00,METAR WMKK 070330Z VRB04KT 9999 FEW018 32/24 Q1011 NOSIG,0,4,0,10000,0,0,0,
2026-04-07 03:00:00,METAR WMKK 070300Z 31005KT 260V030 9000 FEW018 32/24 Q1012 NOSIG,0,5,0,9000,0,0,0,
2026-04-07 02:30:00,METAR WMKK 070230Z 32006KT 240V020 9000 FEW018 31/24 Q1012 NOSIG,0,6,0,9000,0,0,0,
2026-04-07 02:00:00,METAR WMKK 070200Z 32006KT 260V010 9000 FEW017CB 30/25 Q1012 NOSIG,0,6,0,9000,0,0,0,
2026-04-07 01:30:00,METAR WMKK 070130Z 32005KT 240V030 8000 FEW017CB 30/24 Q1012 NOSIG,0,5,0,8000,0,0,0,
2026-04-07 01:00:00,METAR WMKK 070100Z 33003KT 260V040 8000 FEW017CB 28/24 Q1011 NOSIG,0,3,0,8000,0,0,0,
2026-04-07 00:30:00,METAR WMKK 070030Z VRB02KT 9000 FEW017CB 27/24 Q1011 NOSIG,0,2,0,9000,0,0,0,
2026-04-07 00:00:00,METAR WMKK 070000Z VRB02KT 9000 FEW017CB 27/24 Q1010 NOSIG,0,2,0,9000,0,0,0,
2026-04-06 23:30:00,METAR WMKK 062330Z VRB02KT 9000 FEW017CB 26/24 Q1010 NOSIG,0,2,0,9000,0,0,0,
2026-04-06 23:00:00,METAR WMKK 062300Z VRB02KT 9000 FEW017CB 26/24 Q1009 NOSIG,0,2,0,9000,0,0,0,
2026-04-06 22:30:00,METAR WMKK 062230Z VRB01KT 9000 FEW017CB 26/25 Q1009 NOSIG,0,1,0,9000,0,0,0,
2026-04-06 22:00:00,METAR WMKK 062200Z VRB03KT 9000 FEW017CB 26/24 Q1009 NOSIG,0,3,0,9000,0,0,0,
2026-04-06 21:30:00,METAR WMKK 062130Z VRB01KT 9000 FEW017CB 26/24 Q1009 NOSIG,0,1,0,9000,0,0,0,
2026-04-06 21:00:00,METAR WMKK 062100Z 00000KT 9000 FEW017CB 26/24 Q1009 NOSIG,0,0,0,9000,0,0,0,
2026-04-06 20:30:00,METAR WMKK 062030Z VRB02KT 9000 FEW017CB 26/24 Q1009 NOSIG,0,2,0,9000,0,0,0,
2026-04-06 20:00:00,METAR WMKK 062000Z VRB02KT 9000 FEW017CB 26/23 Q1009 NOSIG,0,2,0,9000,0,0,0,
2026-04-06 19:30:00,METAR WMKK 061930Z VRB02KT 9999 FEW017CB 26/24 Q1009 NOSIG,0,2,0,10000,0,0,0,
2026-04-06 19:00:00,METAR WMKK 061900Z VRB02KT 9999 FEW017CB 27/24 Q1009 NOSIG,0,2,0,10000,0,0,0,
2026-04-06 18:30:00,METAR WMKK 061830Z VRB01KT 9999 FEW017CB 27/24 Q1009 NOSIG,0,1,0,10000,0,0,0,
2026-04-06 18:00:00,METAR WMKK 061800Z 35003KT 320V030 9999 FEW017CB 27/24 Q1009 NOSIG,0,3,0,10000,0,0,0,
2026-04-06 17:30:00,METAR WMKK 061730Z 02003KT 320V050 9999 FEW030 27/23 Q1010 NOSIG,0,3,0,10000,0,0,0,
2026-04-06 17:00:00,METAR WMKK 061700Z 02003KT 320V050 9999 FEW030 28/23 Q1010 NOSIG,0,3,0,10000,0,0,0,
2026-04-06 16:30:00,METAR WMKK 061630Z 01004KT 310V050 9999 FEW030 28/23 Q1011 NOSIG,0,4,0,10000,0,0,0,
2026-04-06 16:00:00,METAR WMKK 061600Z 01004KT 310V060 9999 FEW030 28/23 Q1011 NOSIG,0,4,0,10000,0,0,0,
2026-04-06 15:30:00,METAR WMKK 061530Z 03005KT 340V070 9999 FEW030 28/23 Q1011 NOSIG,0,5,0,10000,0,0,0,
2026-04-06 15:00:00,METAR WMKK 061500Z 01003KT 310V080 9999 FEW030 28/23 Q1010 NOSIG,0,3,0,10000,0,0,0,
2026-04-06 14:30:00,METAR WMKK 061430Z 01003KT 320V060 9999 FEW030 28/23 Q1010 NOSIG,0,3,0,10000,0,0,0,
2026-04-06 14:00:00,METAR WMKK 061400Z 01003KT 300V070 9999 FEW030 28/23 Q1010 NOSIG,0,3,0,10000,0,0,0,
2026-04-06 13:30:00,METAR WMKK 061330Z VRB03KT 9999 FEW030 29/24 Q1009 NOSIG,0,3,0,10000,0,0,0,
2026-04-06 13:00:00,METAR WMKK 061300Z 03004KT 340V100 9999 FEW030 29/24 Q1009 NOSIG,0,4,0,10000,0,0,0,
2026-04-06 12:30:00,METAR WMKK 061230Z VRB02KT 9999 FEW030 29/24 Q1009 NOSIG,0,2,0,10000,0,0,0,
2026-04-06 12:00:00,METAR WMKK 061200Z 01004KT 290V070 9999 FEW030 29/24 Q1009 NOSIG,0,4,0,10000,0,0,0,
2026-04-06 11:30:00,METAR WMKK 061130Z 04004KT 350V110 9999 FEW030 30/24 Q1008 NOSIG,0,4,0,10000,0,0,0,
2026-04-06 11:00:00,METAR WMKK 061100Z VRB01KT 9999 FEW030 31/24 Q1008 NOSIG,0,1,0,10000,0,0,0,
2026-04-06 10:30:00,METAR WMKK 061030Z 00000KT 9999 FEW018 31/24 Q1008 NOSIG,0,0,0,10000,0,0,0,
2026-04-06 10:00:00,METAR WMKK 061000Z 00000KT 9999 FEW017CB 32/23 Q1007 NOSIG,0,0,0,10000,0,0,0,
2026-04-06 09:30:00,METAR WMKK 060930Z 26003KT 200V320 9999 FEW017CB 32/23 Q1007 NOSIG,0,3,0,10000,0,0,0,
2026-04-06 09:00:00,METAR WMKK 060900Z VRB03KT 9999 FEW017CB 33/24 Q1007 NOSIG,0,3,0,10000,0,0,0,
2026-04-06 08:30:00,METAR WMKK 060830Z VRB04KT 9999 FEW017CB SCT018 33/22 Q1007 NOSIG,0,4,0,10000,0,0,0,
2026-04-06 08:00:00,METAR WMKK 060800Z VRB05KT 9999 FEW017CB SCT018 32/23 Q1007 NOSIG,0,5,0,10000,0,0,0,
2026-04-06 07:30:00,METAR WMKK 060730Z VRB04KT 9999 FEW017CB SCT018 33/24 Q1008 NOSIG,0,4,0,10000,0,0,0,
2026-04-06 07:00:00,METAR WMKK 060700Z VRB05KT 9999 FEW017CB SCT018 32/24 Q1008 NOSIG,0,5,0,10000,0,0,0,
2026-04-06 06:30:00,METAR WMKK 060630Z VRB05KT 9999 FEW017CB SCT018 32/24 Q1009 NOSIG,0,5,0,10000,0,0,0,
2026-04-06 06:00:00,METAR WMKK 060600Z VRB04KT 9999 FEW017CB SCT018 32/24 Q1009 NOSIG,0,4,0,10000,0,0,0,
2026-04-06 05:30:00,METAR WMKK 060530Z VRB04KT 9999 FEW017CB SCT018 32/24 Q1009 NOSIG,0,4,0,10000,0,0,0,
2026-04-06 05:00:00,METAR WMKK 060500Z VRB03KT 9999 SCT018 32/23 Q1010 NOSIG,0,3,0,10000,0,0,0,
2026-04-06 04:30:00,METAR WMKK 060430Z VRB04KT 9999 SCT018 32/23 Q1010 NOSIG,0,4,0,10000,0,0,0,
2026-04-06 04:00:00,METAR WMKK 060400Z VRB03KT 9999 FEW017CB 32/24 Q1011 NOSIG,0,3,0,10000,0,0,0,
2026-04-06 03:30:00,METAR WMKK 060330Z VRB04KT 9999 FEW017CB 31/23 Q1011 NOSIG,0,4,0,10000,0,0,0,
2026-04-06 03:00:00,METAR WMKK 060300Z VRB05KT 9999 FEW017CB 30/23 Q1011 NOSIG,0,5,0,10000,0,0,0,
2026-04-06 02:30:00,METAR WMKK 060230Z VRB04KT 9000 FEW018 30/23 Q1011 NOSIG,0,4,0,9000,0,0,0,
2026-04-06 02:00:00,METAR WMKK 060200Z VRB05KT 9000 FEW018 29/25 Q1011 NOSIG,0,5,0,9000,0,0,0,
2026-04-06 01:30:00,METAR WMKK 060130Z VRB03KT 9000 FEW018 29/25 Q1011 NOSIG,0,3,0,9000,0,0,0,
2026-04-06 01:00:00,METAR WMKK 060100Z 14005KT 070V200 9000 FEW018 28/25 Q1011 NOSIG,0,5,0,9000,0,0,0,
2026-04-06 00:30:00,METAR WMKK 060030Z 13004KT 050V190 9000 FEW017CB 27/24 Q1011 NOSIG,0,4,0,9000,0,0,0,
2026-04-06 00:00:00,METAR WMKK 060000Z VRB03KT 9000 FEW017CB 26/24 Q1010 NOSIG,0,3,0,9000,0,0,0,
2026-04-05 23:30:00,METAR WMKK 052330Z VRB02KT 8000 FEW010 FEW017CB 26/24 Q1010 NOSIG,0,2,0,8000,0,0,0,
2026-04-05 23:00:00,METAR WMKK 052300Z VRB02KT 8000 FEW008 FEW017CB 26/24 Q1009 RETS NOSIG,0,2,0,8000,1,0,0,TS
2026-04-05 22:30:00,METAR WMKK 052230Z VRB03KT 6000 FEW006 26/24 Q1009 RETS NOSIG,0,3,0,6000,1,0,0,TS
2026-04-05 22:00:00,METAR WMKK 052200Z COR 13003KT 050V190 6000 TS FEW008 FEW017CB 26/25 Q1009 NOSIG,0,3,0,6000,1,0,0,TS
2026-04-05 21:30:00,METAR WMKK 052130Z 00000KT 6000 FEW006 FEW017CB 26/25 Q1009 NOSIG,0,0,0,6000,0,0,0,
2026-04-05 21:00:00,METAR WMKK 052100Z VRB01KT 6000 TS FEW006 FEW017CB 26/24 Q1008 NOSIG,0,1,0,6000,1,0,0,TS
2026-04-05 20:30:00,METAR WMKK 052030Z VRB02KT 6000 TS FEW006 FEW017CB 26/25 Q1008 NOSIG,0,2,0,6000,1,0,0,TS
2026-04-05 20:15:00,SPECI WMKK 052015Z VRB03KT 6000 TS FEW006 FEW017CB 26/25 Q1008 NOSIG,0,3,0,6000,1,0,0,TS
2026-04-05 20:00:00,METAR WMKK 052000Z 00000KT 6000 FEW006 FEW017CB 26/25 Q1008 NOSIG,0,0,0,6000,0,0,0,
2026-04-05 19:30:00,METAR WMKK 051930Z 00000KT 6000 FEW006 FEW017CB 26/25 Q1009 NOSIG,0,0,0,6000,0,0,0,
2026-04-05 19:00:00,METAR WMKK 051900Z VRB01KT 7000 FEW008 FEW017CB 26/25 Q1009 NOSIG,0,1,0,7000,0,0,0,
2026-04-05 18:30:00,METAR WMKK 051830Z VRB02KT 7000 FEW008 FEW017CB 26/25 Q1009 NOSIG,0,2,0,7000,0,0,0,
2026-04-05 18:00:00,METAR WMKK 051800Z 00000KT 8000 FEW010 FEW017CB 26/25 Q1009 NOSIG,0,0,0,8000,0,0,0,
2026-04-05 17:30:00,METAR WMKK 051730Z VRB02KT 8000 FEW010 FEW017CB 26/25 Q1010 NOSIG,0,2,0,8000,0,0,0,
2026-04-05 17:00:00,METAR WMKK 051700Z VRB02KT 9000 FEW017CB 27/25 Q1010 NOSIG,0,2,0,9000,0,0,0,
2026-04-05 16:30:00,METAR WMKK 051630Z VRB02KT 9000 FEW017CB 27/25 Q1010 NOSIG,0,2,0,9000,0,0,0,
2026-04-05 16:00:00,METAR WMKK 051600Z VRB02KT 9000 FEW030 28/25 Q1010 NOSIG,0,2,0,9000,0,0,0,
2026-04-05 15:00:00,METAR WMKK 051500Z 00000KT 9999 FEW030 27/25 Q1010 NOSIG,0,0,0,10000,0,0,0,
2026-04-05 14:30:00,METAR WMKK 051430Z 00000KT 9999 FEW030 28/25 Q1010 NOSIG,0,0,0,10000,0,0,0,
2026-04-05 13:00:00,METAR WMKK 051300Z 27003KT 210V320 9999 FEW030 28/25 Q1008 NOSIG,0,3,0,10000,0,0,0,
2026-04-05 12:30:00,METAR WMKK 051230Z VRB03KT 9999 FEW030 28/25 Q1008 NOSIG,0,3,0,10000,0,0,0,
2026-04-05 12:00:00,METAR WMKK 051200Z VRB02KT 9999 FEW030 29/25 Q1007 NOSIG,0,2,0,10000,0,0,0,
2026-04-05 11:30:00,METAR WMKK 051130Z VRB03KT 9999 FEW030 29/24 Q1007 NOSIG,0,3,0,10000,0,0,0,
2026-04-05 11:00:00,METAR WMKK 051100Z VRB03KT 9999 FEW020 30/24 Q1006 NOSIG,0,3,0,10000,0,0,0,
2026-04-05 10:30:00,METAR WMKK 051030Z VRB03KT 9999 FEW017CB 31/23 Q1006 NOSIG,0,3,0,10000,0,0,0,
2026-04-05 10:00:00,METAR WMKK 051000Z 24003KT 180V330 9999 FEW017CB 31/23 Q1005 NOSIG,0,3,0,10000,0,0,0,
2026-04-05 09:30:00,METAR WMKK 050930Z VRB04KT 9999 FEW017CB 32/23 Q1006 NOSIG,0,4,0,10000,0,0,0,
2026-04-05 09:00:00,METAR WMKK 050900Z VRB03KT 9999 FEW017CB 32/23 Q1006 NOSIG,0,3,0,10000,0,0,0,
2026-04-05 08:30:00,METAR WMKK 050830Z VRB04KT 9999 FEW017CB 32/23 Q1005 NOSIG,0,4,0,10000,0,0,0,
2026-04-05 08:00:00,METAR WMKK 050800Z VRB05KT 9999 FEW017CB 33/23 Q1006 NOSIG,0,5,0,10000,0,0,0,
2026-04-05 07:30:00,METAR WMKK 050730Z COR 23005KT 150V300 9999 FEW017CB SCT018 32/23 Q1006 NOSIG,0,5,0,10000,0,0,0,
2026-04-05 07:00:00,METAR WMKK 050700Z 26006KT 190V350 9999 FEW017CB SCT018 33/22 Q1007 NOSIG,0,6,0,10000,0,0,0,
2026-04-05 06:30:00,METAR WMKK 050630Z VRB04KT 9999 FEW017CB SCT018 32/23 Q1007 NOSIG,0,4,0,10000,0,0,0,
2026-04-05 06:00:00,METAR WMKK 050600Z VRB04KT 9999 SCT018 32/24 Q1008 NOSIG,0,4,0,10000,0,0,0,
2026-04-05 05:30:00,METAR WMKK 050530Z 26005KT 200V330 9999 FEW017CB SCT018 32/24 Q1009 NOSIG,0,5,0,10000,0,0,0,
2026-04-05 05:00:00,METAR WMKK 050500Z VRB05KT 9000 FEW017CB SCT018 32/23 Q1009 NOSIG,0,5,0,9000,0,0,0,
2026-04-05 04:30:00,METAR WMKK 050430Z VRB03KT 9999 FEW017CB SCT018 31/23 Q1009 NOSIG,0,3,0,10000,0,0,0,
2026-04-05 04:00:00,METAR WMKK 050400Z VRB04KT 9000 SCT018 31/23 Q1010 NOSIG,0,4,0,9000,0,0,0,
2026-04-05 03:30:00,METAR WMKK 050330Z VRB04KT 9000 FEW018 31/24 Q1010 NOSIG,0,4,0,9000,0,0,0,
2026-04-05 03:00:00,METAR WMKK 050300Z VRB03KT 9000 FEW018 29/25 Q1010 NOSIG,0,3,0,9000,0,0,0,
2026-04-05 02:30:00,METAR WMKK 050230Z VRB03KT 9000 FEW018 29/25 Q1010 NOSIG,0,3,0,9000,0,0,0,
2026-04-05 02:00:00,METAR WMKK 050200Z VRB02KT 9000 FEW017CB 28/25 Q1010 NOSIG,0,2,0,9000,0,0,0,
2026-04-05 01:30:00,METAR WMKK 050130Z VRB03KT 8000 FEW017CB 27/24 Q1009 NOSIG,0,3,0,8000,0,0,0,
2026-04-05 01:00:00,METAR WMKK 050100Z 08005KT 010V140 7000 -RA FEW008 FEW017CB SCT030 26/24 Q1009 RERA TEMPO 8000 -RA,0,5,0,7000,0,0,0,"-RA,RA"
2026-04-05 00:30:00,METAR WMKK 050030Z VRB02KT 6000 -RA FEW007 FEW017CB SCT030 24/23 Q1009 RERA TEMPO 8000 -RA,0,2,0,6000,0,0,0,"-RA,RA"
2026-04-05 00:00:00,METAR WMKK 050000Z 27006KT 190V320 5000 RA FEW008 FEW017CB SCT028 24/23 Q1009 TEMPO 5000 TSRA,0,6,0,5000,1,0,0,"RA,TS"
2026-04-04 23:45:00,SPECI WMKK 042345Z VRB05KT 5000 RA FEW010 FEW017CB SCT030 24/23 Q1009 TEMPO 4000 TSRA,0,5,0,5000,1,0,0,"RA,TS"
2026-04-04 23:30:00,METAR WMKK 042330Z VRB04KT 8000 FEW017CB 25/23 Q1009 TEMPO 4000 TSRA,0,4,0,8000,1,0,0,"RA,TS"
2026-04-04 23:00:00,METAR WMKK 042300Z COR VRB02KT 7000 FEW017CB 26/24 Q1008 NOSIG,0,2,0,7000,0,0,0,
2026-04-04 22:30:00,METAR WMKK 042230Z VRB02KT 8000 FEW017CB 26/24 Q1008 NOSIG,0,2,0,8000,0,0,0,
2026-04-04 22:00:00,METAR WMKK 042200Z 00000KT 8000 FEW017CB 26/24 Q1007 NOSIG,0,0,0,8000,0,0,0,
2026-04-04 21:30:00,METAR WMKK 042130Z 09005KT 060V140 8000 FEW017CB 27/24 Q1007 NOSIG,0,5,0,8000,0,0,0,
2026-04-04 21:00:00,METAR WMKK 042100Z VRB02KT 8000 FEW017CB 26/24 Q1007 NOSIG,0,2,0,8000,0,0,0,
2026-04-04 20:30:00,METAR WMKK 042030Z VRB02KT 8000 FEW017CB 26/24 Q1007 NOSIG,0,2,0,8000,0,0,0,
2026-04-04 20:00:00,METAR WMKK 042000Z VRB03KT 8000 FEW017CB 26/24 Q1007 NOSIG,0,3,0,8000,0,0,0,
2026-04-04 19:30:00,METAR WMKK 041930Z VRB02KT 8000 FEW017CB 26/24 Q1007 NOSIG,0,2,0,8000,0,0,0,
2026-04-04 19:00:00,METAR WMKK 041900Z VRB01KT 8000 FEW017CB 26/25 Q1007 NOSIG,0,1,0,8000,0,0,0,
2026-04-04 18:30:00,METAR WMKK 041830Z VRB01KT 8000 FEW017CB 26/25 Q1007 NOSIG,0,1,0,8000,0,0,0,
2026-04-04 18:00:00,METAR WMKK 041800Z VRB02KT 9000 FEW017CB 27/25 Q1008 NOSIG,0,2,0,9000,0,0,0,
2026-04-04 17:30:00,METAR WMKK 041730Z 00000KT 9000 FEW017CB 27/25 Q1008 NOSIG,0,0,0,9000,0,0,0,
2026-04-04 17:00:00,METAR WMKK 041700Z VRB02KT 9000 FEW017CB 28/25 Q1009 NOSIG,0,2,0,9000,0,0,0,
2026-04-04 16:30:00,METAR WMKK 041630Z 30003KT 250V340 9000 FEW017CB 28/25 Q1009 NOSIG,0,3,0,9000,0,0,0,
2026-04-04 16:00:00,METAR WMKK 041600Z VRB03KT 9000 FEW017CB 28/25 Q1009 NOSIG,0,3,0,9000,0,0,0,
2026-04-04 15:30:00,METAR WMKK 041530Z VRB03KT 9000 FEW017CB 28/25 Q1009 NOSIG,0,3,0,9000,0,0,0,
2026-04-04 15:00:00,METAR WMKK 041500Z VRB02KT 9000 FEW017CB 28/25 Q1009 NOSIG,0,2,0,9000,0,0,0,
2026-04-04 14:30:00,METAR WMKK 041430Z 00000KT 9000 FEW017CB 28/25 Q1008 NOSIG,0,0,0,9000,0,0,0,
2026-04-04 14:00:00,METAR WMKK 041400Z 00000KT 9000 FEW017CB 28/25 Q1008 NOSIG,0,0,0,9000,0,0,0,
2026-04-04 13:30:00,METAR WMKK 041330Z VRB02KT 9000 FEW017CB 28/25 Q1008 NOSIG,0,2,0,9000,0,0,0,
2026-04-04 13:00:00,METAR WMKK 041300Z VRB02KT 9000 FEW017CB 28/24 Q1007 NOSIG,0,2,0,9000,0,0,0,
2026-04-04 12:30:00,METAR WMKK 041230Z VRB02KT 9000 FEW017CB 29/24 Q1007 NOSIG,0,2,0,9000,0,0,0,
2026-04-04 12:00:00,METAR WMKK 041200Z VRB02KT 9000 FEW030 29/25 Q1007 NOSIG,0,2,0,9000,0,0,0,
2026-04-04 11:30:00,METAR WMKK 041130Z 00000KT 9000 FEW030 30/24 Q1006 NOSIG,0,0,0,9000,0,0,0,
2026-04-04 11:00:00,METAR WMKK 041100Z VRB02KT 9000 FEW018 30/24 Q1005 NOSIG,0,2,0,9000,0,0,0,
2026-04-04 10:30:00,METAR WMKK 041030Z VRB02KT 9000 VCSH FEW017CB 31/24 Q1005 NOSIG,0,2,0,9000,0,0,0,"SH,VC"
2026-04-04 10:00:00,METAR WMKK 041000Z VRB04KT 9000 VCSH FEW017CB 32/24 Q1005 NOSIG,0,4,0,9000,0,0,0,"SH,VC"
2026-04-04 09:30:00,METAR WMKK 040930Z VRB04KT 9999 FEW018 32/24 Q1005 NOSIG,0,4,0,10000,0,0,0,
2026-04-04 09:00:00,METAR WMKK 040900Z VRB04KT 9999 FEW018 33/24 Q1005 NOSIG,0,4,0,10000,0,0,0,
2026-04-04 08:30:00,METAR WMKK 040830Z VRB04KT 9999 FEW018 34/24 Q1005 NOSIG,0,4,0,10000,0,0,0,
2026-04-04 08:00:00,METAR WMKK 040800Z VRB04KT 9999 SCT018 34/23 Q1005 NOSIG,0,4,0,10000,0,0,0,
2026-04-04 07:30:00,METAR WMKK 040730Z VRB03KT 9999 SCT018 34/23 Q1006 NOSIG,0,3,0,10000,0,0,0,
2026-04-04 07:00:00,METAR WMKK 040700Z VRB04KT 9999 SCT018 34/23 Q1006 NOSIG,0,4,0,10000,0,0,0,
2026-04-04 06:30:00,METAR WMKK 040630Z VRB03KT 9999 SCT018 33/24 Q1007 NOSIG,0,3,0,10000,0,0,0,
2026-04-04 06:00:00,METAR WMKK 040600Z VRB05KT 9000 FEW017CB SCT018 32/24 Q1007 NOSIG,0,5,0,9000,0,0,0,
2026-04-04 05:30:00,METAR WMKK 040530Z VRB03KT 9999 FEW017CB SCT018 32/23 Q1008 NOSIG,0,3,0,10000,0,0,0,
2026-04-04 05:00:00,METAR WMKK 040500Z VRB03KT 9999 FEW017CB 33/24 Q1008 NOSIG,0,3,0,10000,0,0,0,
2026-04-04 04:30:00,METAR WMKK 040430Z VRB04KT 9999 FEW017CB 32/24 Q1009 NOSIG,0,4,0,10000,0,0,0,
2026-04-04 04:00:00,METAR WMKK 040400Z VRB04KT 9999 FEW017CB 32/24 Q1009 NOSIG,0,4,0,10000,0,0,0,
2026-04-04 03:30:00,METAR WMKK 040330Z VRB05KT 9999 FEW017CB 31/24 Q1010 NOSIG,0,5,0,10000,0,0,0,
2026-04-04 03:00:00,METAR WMKK 040300Z VRB04KT 9999 FEW017CB 31/23 Q1010 NOSIG,0,4,0,10000,0,0,0,
2026-04-04 02:30:00,METAR WMKK 040230Z VRB02KT 9999 FEW017CB 31/23 Q1009 NOSIG,0,2,0,10000,0,0,0,
2026-04-04 02:00:00,METAR WMKK 040200Z VRB02KT 9999 FEW017CB 30/23 Q1010 NOSIG,0,2,0,10000,0,0,0,
2026-04-04 01:30:00,METAR WMKK 040130Z 00000KT 9000 FEW017CB 29/23 Q1010 NOSIG,0,0,0,9000,0,0,0,
2026-04-04 01:00:00,METAR WMKK 040100Z VRB02KT 9000 FEW017CB 28/23 Q1009 NOSIG,0,2,0,9000,0,0,0,
2026-04-04 00:30:00,METAR WMKK 040030Z VRB02KT 9000 FEW017CB 27/23 Q1009 NOSIG,0,2,0,9000,0,0,0,
2026-04-04 00:00:00,METAR WMKK 040000Z 00000KT 8000 FEW010 FEW017CB 26/24 Q1009 NOSIG,0,0,0,8000,0,0,0,
2026-04-03 23:30:00,METAR WMKK 032330Z 00000KT 8000 FEW010 FEW017CB 25/23 Q1008 NOSIG,0,0,0,8000,0,0,0,
2026-04-03 23:00:00,METAR WMKK 032300Z 00000KT 8000 FEW010 FEW017CB 25/23 Q1008 NOSIG,0,0,0,8000,0,0,0,
2026-04-03 22:30:00,METAR WMKK 032230Z 00000KT 8000 FEW010 FEW017CB 25/23 Q1008 NOSIG,0,0,0,8000,0,0,0,
2026-04-03 22:00:00,METAR WMKK 032200Z 00000KT 9000 FEW030 25/24 Q1008 NOSIG,0,0,0,9000,0,0,0,
2026-04-03 21:30:00,METAR WMKK 032130Z 00000KT 9000 FEW030 26/23 Q1008 NOSIG,0,0,0,9000,0,0,0,
2026-04-03 21:00:00,METAR WMKK 032100Z VRB02KT 9000 FEW030 26/23 Q1007 NOSIG,0,2,0,9000,0,0,0,
2026-04-03 20:30:00,METAR WMKK 032030Z 00000KT 9000 FEW030 26/23 Q1007 NOSIG,0,0,0,9000,0,0,0,
2026-04-03 20:00:00,METAR WMKK 032000Z 00000KT 9000 FEW030 26/24 Q1007 NOSIG,0,0,0,9000,0,0,0,
2026-04-03 19:30:00,METAR WMKK 031930Z VRB02KT 9000 FEW030 26/23 Q1008 NOSIG,0,2,0,9000,0,0,0,
2026-04-03 19:00:00,METAR WMKK 031900Z VRB01KT 9000 FEW030 26/23 Q1008 NOSIG,0,1,0,9000,0,0,0,
2026-04-03 18:30:00,METAR WMKK 031830Z 00000KT 9000 FEW030 26/23 Q1008 NOSIG,0,0,0,9000,0,0,0,
2026-04-03 18:00:00,METAR WMKK 031800Z 00000KT 9000 FEW030 26/23 Q1009 NOSIG,0,0,0,9000,0,0,0,
2026-04-03 17:30:00,METAR WMKK 031730Z 00000KT 9000 FEW030 26/24 Q1009 NOSIG,0,0,0,9000,0,0,0,
2026-04-03 17:00:00,METAR WMKK 031700Z 00000KT 9000 FEW030 26/24 Q1009 NOSIG,0,0,0,9000,0,0,0,
2026-04-03 16:30:00,METAR WMKK 031630Z 00000KT 9000 FEW030 27/24 Q1010 NOSIG,0,0,0,9000,0,0,0,
2026-04-03 16:00:00,METAR WMKK 031600Z 00000KT 9000 FEW030 27/24 Q1010 NOSIG,0,0,0,9000,0,0,0,
2026-04-03 15:30:00,METAR WMKK 031530Z 00000KT 9000 FEW030 27/24 Q1009 NOSIG,0,0,0,9000,0,0,0,
2026-04-03 15:00:00,METAR WMKK 031500Z VRB01KT 9000 FEW030 27/24 Q1009 NOSIG,0,1,0,9000,0,0,0,
2026-04-03 14:30:00,METAR WMKK 031430Z 00000KT 9000 FEW030 27/24 Q1009 NOSIG,0,0,0,9000,0,0,0,
2026-04-03 14:00:00,METAR WMKK 031400Z VRB02KT 9000 FEW030 27/23 Q1009 NOSIG,0,2,0,9000,0,0,0,
2026-04-03 13:30:00,METAR WMKK 031330Z VRB02KT 9000 FEW030 28/23 Q1008 NOSIG,0,2,0,9000,0,0,0,
2026-04-03 13:00:00,METAR WMKK 031300Z VRB01KT 9000 FEW030 28/23 Q1008 NOSIG,0,1,0,9000,0,0,0,
2026-04-03 12:30:00,METAR WMKK 031230Z 00000KT 9000 FEW030 28/23 Q1007 NOSIG,0,0,0,9000,0,0,0,
2026-04-03 12:00:00,METAR WMKK 031200Z 00000KT 9000 FEW017CB 29/24 Q1007 NOSIG,0,0,0,9000,0,0,0,
2026-04-03 11:30:00,METAR WMKK 031130Z 00000KT 9000 FEW017CB 30/24 Q1007 NOSIG,0,0,0,9000,0,0,0,
2026-04-03 11:00:00,METAR WMKK 031100Z 00000KT 9000 FEW017CB 31/23 Q1007 NOSIG,0,0,0,9000,0,0,0,
2026-04-03 10:30:00,METAR WMKK 031030Z VRB02KT 9000 FEW017CB 32/22 Q1006 NOSIG,0,2,0,9000,0,0,0,
2026-04-03 10:00:00,METAR WMKK 031000Z VRB03KT 9000 FEW017CB 32/22 Q1006 NOSIG,0,3,0,9000,0,0,0,
2026-04-03 09:30:00,METAR WMKK 030930Z VRB04KT 9000 FEW017CB 33/22 Q1006 NOSIG,0,4,0,9000,0,0,0,
2026-04-03 09:00:00,METAR WMKK 030900Z VRB04KT 9000 FEW017CB 33/22 Q1006 NOSIG,0,4,0,9000,0,0,0,
2026-04-03 08:30:00,METAR WMKK 030830Z VRB05KT 9000 FEW018 33/22 Q1006 NOSIG,0,5,0,9000,0,0,0,
2026-04-03 08:00:00,METAR WMKK 030800Z VRB06KT 9000 FEW018 33/22 Q1006 NOSIG,0,6,0,9000,0,0,0,
2026-04-03 07:30:00,METAR WMKK 030730Z VRB06KT 9000 FEW017CB SCT018 33/22 Q1007 NOSIG,0,6,0,9000,0,0,0,
2026-04-03 07:00:00,METAR WMKK 030700Z VRB05KT 9000 FEW017CB SCT018 34/23 Q1007 NOSIG,0,5,0,9000,0,0,0,
2026-04-03 06:30:00,METAR WMKK 030630Z VRB04KT 9000 FEW017CB SCT018 34/24 Q1007 NOSIG,0,4,0,9000,0,0,0,
2026-04-03 06:00:00,METAR WMKK 030600Z VRB03KT 9999 SCT018 34/23 Q1008 NOSIG,0,3,0,10000,0,0,0,
2026-04-03 05:30:00,METAR WMKK 030530Z VRB02KT 9999 SCT018 34/23 Q1008 NOSIG,0,2,0,10000,0,0,0,
2026-04-03 05:00:00,METAR WMKK 030500Z VRB03KT 9999 SCT018 33/22 Q1009 NOSIG,0,3,0,10000,0,0,0,
2026-04-03 04:30:00,METAR WMKK 030430Z VRB02KT 9999 FEW018 33/23 Q1009 NOSIG,0,2,0,10000,0,0,0,
2026-04-03 04:00:00,METAR WMKK 030400Z VRB02KT 9999 FEW018 33/23 Q1009 NOSIG,0,2,0,10000,0,0,0,
2026-04-03 03:30:00,METAR WMKK 030330Z VRB02KT 9999 FEW018 32/23 Q1010 NOSIG,0,2,0,10000,0,0,0,
2026-04-03 03:00:00,METAR WMKK 030300Z VRB03KT 9999 FEW018 31/23 Q1010 NOSIG,0,3,0,10000,0,0,0,
2026-04-03 02:30:00,METAR WMKK 030230Z VRB03KT 9999 FEW018 30/24 Q1010 NOSIG,0,3,0,10000,0,0,0,
2026-04-03 02:00:00,METAR WMKK 030200Z VRB03KT 9999 FEW017CB 29/23 Q1011 NOSIG,0,3,0,10000,0,0,0,
2026-04-03 01:30:00,METAR WMKK 030130Z VRB03KT 9000 FEW017CB 29/23 Q1010 NOSIG,0,3,0,9000,0,0,0,
2026-04-03 01:00:00,METAR WMKK 030100Z 06005KT 360V140 9000 FEW017CB 29/23 Q1010 NOSIG,0,5,0,9000,0,0,0,
2026-04-03 00:30:00,METAR WMKK 030030Z VRB05KT 9000 FEW018 28/23 Q1010 NOSIG,0,5,0,9000,0,0,0,
2026-04-03 00:00:00,METAR WMKK 030000Z 03003KT 350V080 7000 FEW018 26/23 Q1009 NOSIG,0,3,0,7000,0,0,0,
2026-04-02 23:30:00,METAR WMKK 022330Z VRB03KT 7000 FEW018 25/23 Q1009 NOSIG,0,3,0,7000,0,0,0,
2026-04-02 23:00:00,METAR WMKK 022300Z VRB02KT 8000 FEW030 25/23 Q1008 NOSIG,0,2,0,8000,0,0,0,
2026-04-02 22:30:00,METAR WMKK 022230Z 00000KT 8000 FEW030 25/23 Q1008 NOSIG,0,0,0,8000,0,0,0,
2026-04-02 22:00:00,METAR WMKK 022200Z 07004KT 030V160 8000 FEW030 26/23 Q1008 NOSIG,0,4,0,8000,0,0,0,
2026-04-02 21:30:00,METAR WMKK 022130Z 07004KT 010V140 8000 FEW030 26/23 Q1008 NOSIG,0,4,0,8000,0,0,0,
2026-04-02 21:00:00,METAR WMKK 022100Z 09003KT 060V140 9999 FEW030 26/23 Q1008 NOSIG,0,3,0,10000,0,0,0,
2026-04-02 20:30:00,METAR WMKK 022030Z VRB01KT 9999 FEW030 25/23 Q1008 NOSIG,0,1,0,10000,0,0,0,
2026-04-02 20:00:00,METAR WMKK 022000Z 10003KT 010V140 9999 FEW030 26/23 Q1008 NOSIG,0,3,0,10000,0,0,0,
2026-04-02 19:30:00,METAR WMKK 021930Z 08005KT 360V140 9999 FEW030 26/23 Q1008 NOSIG,0,5,0,10000,0,0,0,
2026-04-02 19:00:00,METAR WMKK 021900Z 09007KT 020V120 9999 FEW030 27/23 Q1009 NOSIG,0,7,0,10000,0,0,0,
2026-04-02 18:30:00,METAR WMKK 021830Z 10005KT 060V200 9999 FEW030 27/23 Q1009 NOSIG,0,5,0,10000,0,0,0,
2026-04-02 18:00:00,METAR WMKK 021800Z 11003KT 050V200 9999 FEW030 27/23 Q1009 NOSIG,0,3,0,10000,0,0,0,
2026-04-02 17:30:00,METAR WMKK 021730Z 12005KT 050V180 9999 FEW030 27/23 Q1010 NOSIG,0,5,0,10000,0,0,0,
2026-04-02 17:00:00,METAR WMKK 021700Z VRB02KT 9999 FEW030 27/24 Q1010 NOSIG,0,2,0,10000,0,0,0,
2026-04-02 16:30:00,METAR WMKK 021630Z 12004KT 070V170 9999 FEW030 28/24 Q1011 NOSIG,0,4,0,10000,0,0,0,
2026-04-02 16:00:00,METAR WMKK 021600Z VRB02KT 9999 FEW030 28/25 Q1010 NOSIG,0,2,0,10000,0,0,0,
2026-04-02 15:30:00,METAR WMKK 021530Z VRB02KT 9999 FEW030 28/25 Q1010 NOSIG,0,2,0,10000,0,0,0,
2026-04-02 15:00:00,METAR WMKK 021500Z VRB02KT 9999 FEW030 28/24 Q1010 NOSIG,0,2,0,10000,0,0,0,
2026-04-02 14:30:00,METAR WMKK 021430Z VRB01KT 9999 FEW030 28/24 Q1010 NOSIG,0,1,0,10000,0,0,0,
2026-04-02 14:00:00,METAR WMKK 021400Z 00000KT 9999 FEW030 29/24 Q1009 NOSIG,0,0,0,10000,0,0,0,
2026-04-02 13:30:00,METAR WMKK 021330Z 00000KT 9999 FEW030 29/24 Q1009 NOSIG,0,0,0,10000,0,0,0,
2026-04-02 13:00:00,METAR WMKK 021300Z 00000KT 9999 FEW030 29/24 Q1008 NOSIG,0,0,0,10000,0,0,0,
2026-04-02 12:30:00,METAR WMKK 021230Z 00000KT 9999 FEW030 29/25 Q1008 NOSIG,0,0,0,10000,0,0,0,
2026-04-02 12:00:00,METAR WMKK 021200Z VRB02KT 9999 FEW030 29/24 Q1008 NOSIG,0,2,0,10000,0,0,0,
2026-04-02 11:30:00,METAR WMKK 021130Z VRB02KT 9999 FEW030 29/24 Q1007 NOSIG,0,2,0,10000,0,0,0,
2026-04-02 11:00:00,METAR WMKK 021100Z VRB03KT 9999 FEW018 30/24 Q1007 NOSIG,0,3,0,10000,0,0,0,
2026-04-02 10:30:00,METAR WMKK 021030Z VRB03KT 9999 FEW017CB 30/24 Q1006 NOSIG,0,3,0,10000,0,0,0,
2026-04-02 10:00:00,METAR WMKK 021000Z VRB04KT 9999 FEW017CB 31/24 Q1006 NOSIG,0,4,0,10000,0,0,0,
2026-04-02 09:30:00,METAR WMKK 020930Z VRB05KT 9999 FEW018 31/24 Q1006 NOSIG,0,5,0,10000,0,0,0,
2026-04-02 09:00:00,METAR WMKK 020900Z VRB05KT 9999 FEW018 31/25 Q1006 NOSIG,0,5,0,10000,0,0,0,
2026-04-02 08:30:00,METAR WMKK 020830Z VRB05KT 9999 SCT018 32/25 Q1006 NOSIG,0,5,0,10000,0,0,0,
2026-04-02 08:00:00,METAR WMKK 020800Z VRB04KT 9999 SCT018 32/25 Q1007 NOSIG,0,4,0,10000,0,0,0,
2026-04-02 07:30:00,METAR WMKK 020730Z VRB06KT 9999 SCT018 33/25 Q1007 NOSIG,0,6,0,10000,0,0,0,
2026-04-02 07:00:00,METAR WMKK 020700Z VRB05KT 9999 SCT018 33/25 Q1007 NOSIG,0,5,0,10000,0,0,0,
2026-04-02 06:30:00,METAR WMKK 020630Z VRB04KT 9999 SCT018 32/25 Q1008 NOSIG,0,4,0,10000,0,0,0,
2026-04-02 06:00:00,METAR WMKK 020600Z VRB03KT 9999 SCT018 33/23 Q1008 NOSIG,0,3,0,10000,0,0,0,
2026-04-02 05:30:00,METAR WMKK 020530Z 15004KT 080V240 9999 SCT018 32/24 Q1009 NOSIG,0,4,0,10000,0,0,0,
2026-04-02 05:00:00,METAR WMKK 020500Z VRB04KT 9999 SCT018 32/24 Q1010 NOSIG,0,4,0,10000,0,0,0,
2026-04-02 04:30:00,METAR WMKK 020430Z VRB04KT 9000 SCT018 32/24 Q1010 NOSIG,0,4,0,9000,0,0,0,
2026-04-02 04:00:00,METAR WMKK 020400Z 12004KT 030V200 9000 FEW018 32/24 Q1011 NOSIG,0,4,0,9000,0,0,0,
2026-04-02 03:30:00,METAR WMKK 020330Z VRB05KT 9000 FEW018 31/24 Q1011 NOSIG,0,5,0,9000,0,0,0,
2026-04-02 03:00:00,METAR WMKK 020300Z VRB04KT 9000 FEW018 31/24 Q1011 NOSIG,0,4,0,9000,0,0,0,
2026-04-02 02:30:00,METAR WMKK 020230Z 11005KT 070V200 9000 FEW018 30/24 Q1011 NOSIG,0,5,0,9000,0,0,0,
2026-04-02 02:00:00,METAR WMKK 020200Z 14004KT 070V230 9000 FEW018 29/24 Q1011 NOSIG,0,4,0,9000,0,0,0,
2026-04-02 01:30:00,METAR WMKK 020130Z 11003KT 030V200 9000 FEW018 29/24 Q1011 NOSIG,0,3,0,9000,0,0,0,
2026-04-02 01:00:00,METAR WMKK 020100Z VRB03KT 9000 FEW018 28/24 Q1010 NOSIG,0,3,0,9000,0,0,0,
2026-04-02 00:30:00,METAR WMKK 020030Z VRB02KT 9000 FEW018 27/24 Q1010 NOSIG,0,2,0,9000,0,0,0,
2026-04-02 00:00:00,METAR WMKK 020000Z VRB03KT 9999 FEW010 26/24 Q1010 NOSIG,0,3,0,10000,0,0,0,
2026-04-01 23:30:00,METAR WMKK 012330Z 00000KT 9999 FEW010 26/24 Q1009 NOSIG,0,0,0,10000,0,0,0,
2026-04-01 23:00:00,METAR WMKK 012300Z VRB02KT 9999 FEW010 26/24 Q1009 NOSIG,0,2,0,10000,0,0,0,
2026-04-01 22:30:00,METAR WMKK 012230Z VRB03KT 9999 FEW010 26/24 Q1009 NOSIG,0,3,0,10000,0,0,0,
2026-04-01 22:00:00,METAR WMKK 012200Z 00000KT 9999 FEW030 26/24 Q1009 NOSIG,0,0,0,10000,0,0,0,
2026-04-01 21:30:00,METAR WMKK 012130Z VRB01KT 9999 FEW030 26/24 Q1009 NOSIG,0,1,0,10000,0,0,0,
2026-04-01 21:00:00,METAR WMKK 012100Z VRB02KT 9999 FEW030 26/24 Q1009 NOSIG,0,2,0,10000,0,0,0,
2026-04-01 20:30:00,METAR WMKK 012030Z VRB02KT 9999 FEW030 26/24 Q1009 NOSIG,0,2,0,10000,0,0,0,
2026-04-01 20:00:00,METAR WMKK 012000Z VRB02KT 9999 FEW030 26/24 Q1009 NOSIG,0,2,0,10000,0,0,0,
2026-04-01 19:30:00,METAR WMKK 011930Z VRB02KT 9999 FEW030 26/24 Q1009 NOSIG,0,2,0,10000,0,0,0,
2026-04-01 19:00:00,METAR WMKK 011900Z VRB02KT 9999 FEW030 26/24 Q1010 NOSIG,0,2,0,10000,0,0,0,
2026-04-01 18:30:00,METAR WMKK 011830Z 00000KT 9999 FEW030 26/24 Q1010 NOSIG,0,0,0,10000,0,0,0,
2026-04-01 18:00:00,METAR WMKK 011800Z VRB02KT 9999 FEW030 26/24 Q1010 NOSIG,0,2,0,10000,0,0,0,
2026-04-01 17:30:00,METAR WMKK 011730Z 00000KT 9999 FEW030 26/24 Q1011 NOSIG,0,0,0,10000,0,0,0,
2026-04-01 17:00:00,METAR WMKK 011700Z VRB02KT 9999 FEW030 26/24 Q1011 NOSIG,0,2,0,10000,0,0,0,
2026-04-01 16:30:00,METAR WMKK 011630Z VRB01KT 9999 FEW030 26/24 Q1011 NOSIG,0,1,0,10000,0,0,0,
2026-04-01 16:00:00,METAR WMKK 011600Z 00000KT 9999 FEW030 26/24 Q1011 NOSIG,0,0,0,10000,0,0,0,
2026-04-01 15:30:00,METAR WMKK 011530Z VRB01KT 9999 FEW030 26/24 Q1011 NOSIG,0,1,0,10000,0,0,0,
2026-04-01 15:00:00,METAR WMKK 011500Z VRB02KT 9999 FEW030 26/24 Q1011 NOSIG,0,2,0,10000,0,0,0,
2026-04-01 14:30:00,METAR WMKK 011430Z VRB02KT 9999 FEW030 26/24 Q1011 NOSIG,0,2,0,10000,0,0,0,
2026-04-01 14:00:00,METAR WMKK 011400Z VRB01KT 9999 FEW017CB 26/24 Q1011 NOSIG,0,1,0,10000,0,0,0,
2026-04-01 13:30:00,METAR WMKK 011330Z 00000KT 9999 FEW017CB 26/24 Q1010 NOSIG,0,0,0,10000,0,0,0,
2026-04-01 13:00:00,METAR WMKK 011300Z VRB02KT 9999 FEW017CB 27/24 Q1009 NOSIG,0,2,0,10000,0,0,0,
2026-04-01 12:30:00,METAR WMKK 011230Z 29003KT 250V340 9999 FEW017CB 27/24 Q1009 NOSIG,0,3,0,10000,0,0,0,
2026-04-01 12:00:00,METAR WMKK 011200Z VRB02KT 9999 FEW017CB 27/24 Q1009 NOSIG,0,2,0,10000,0,0,0,
2026-04-01 11:30:00,METAR WMKK 011130Z VRB02KT 9999 FEW030 27/24 Q1008 NOSIG,0,2,0,10000,0,0,0,
2026-04-01 11:00:00,METAR WMKK 011100Z VRB02KT 9999 FEW030 28/24 Q1008 NOSIG,0,2,0,10000,0,0,0,
2026-04-01 10:30:00,METAR WMKK 011030Z 29006KT 250V340 9000 FEW018 28/24 Q1008 NOSIG,0,6,0,9000,0,0,0,
2026-04-01 10:00:00,METAR WMKK 011000Z 31007KT 250V010 9000 FEW018 28/24 Q1007 NOSIG,0,7,0,9000,0,0,0,
2026-04-01 09:30:00,METAR WMKK 010930Z 29006KT 230V340 9000 FEW018 28/25 Q1007 NOSIG,0,6,0,9000,0,0,0,
2026-04-01 09:00:00,METAR WMKK 010900Z 29007KT 240V340 9000 SCT018 28/25 Q1007 NOSIG,0,7,0,9000,0,0,0,
2026-04-01 08:30:00,METAR WMKK 010830Z 31007KT 250V010 8000 VCSH FEW017CB SCT018 28/25 Q1007 NOSIG,0,7,0,8000,0,0,0,"SH,VC"
2026-04-01 08:00:00,METAR WMKK 010800Z 29009KT 240V340 8000 VCSH FEW017CB SCT018 27/24 Q1008 NOSIG,0,9,0,8000,0,0,0,"SH,VC"
2026-04-01 07:30:00,METAR WMKK 010730Z 30012KT 260V350 8000 VCSH FEW017CB SCT018 28/23 Q1008 TEMPO 5000 TSRA,0,12,0,8000,1,0,0,"RA,SH,TS,VC"
2026-04-01 07:00:00,METAR WMKK 010700Z 28010G20KT 190V330 8000 VCSH FEW017CB SCT018 31/23 Q1008 NOSIG,0,10,1,8000,0,0,0,"SH,VC"
2026-04-01 06:30:00,METAR WMKK 010630Z 35005KT 280V070 9000 FEW017CB SCT018 33/23 Q1009 NOSIG,0,5,0,9000,0,0,0,
2026-04-01 06:00:00,METAR WMKK 010600Z VRB02KT 9000 FEW017CB SCT018 32/23 Q1009 NOSIG,0,2,0,9000,0,0,0,
2026-04-01 05:30:00,METAR WMKK 010530Z VRB04KT 9999 FEW017CB 30/23 Q1010 NOSIG,0,4,0,10000,0,0,0,
2026-04-01 05:00:00,METAR WMKK 010500Z VRB02KT 9000 FEW017CB 29/24 Q1011 NOSIG,0,2,0,9000,0,0,0,
2026-04-01 04:30:00,METAR WMKK 010430Z VRB02KT 9000 FEW017CB 28/23 Q1011 NOSIG,0,2,0,9000,0,0,0,
2026-04-01 04:00:00,METAR WMKK 010400Z 01003KT 300V060 9000 FEW017CB 28/24 Q1012 NOSIG,0,3,0,9000,0,0,0,
2026-04-01 03:30:00,METAR WMKK 010330Z VRB02KT 9000 FEW017CB 28/24 Q1012 NOSIG,0,2,0,9000,0,0,0,
2026-04-01 03:00:00,METAR WMKK 010300Z 34004KT 290V030 9000 FEW017CB 27/24 Q1012 NOSIG,0,4,0,9000,0,0,0,
2026-04-01 02:30:00,METAR WMKK 010230Z VRB04KT 9999 FEW017CB 27/23 Q1012 NOSIG,0,4,0,10000,0,0,0,
2026-04-01 02:00:00,METAR WMKK 010200Z 34004KT 290V050 9999 FEW017CB 27/23 Q1012 NOSIG,0,4,0,10000,0,0,0,
2026-04-01 01:30:00,METAR WMKK 010130Z 35004KT 290V050 9999 FEW017CB 27/22 Q1011 NOSIG,0,4,0,10000,0,0,0,
2026-04-01 01:00:00,METAR WMKK 010100Z 35004KT 300V030 9999 FEW017CB 26/22 Q1011 NOSIG,0,4,0,10000,0,0,0,
2026-04-01 00:30:00,METAR WMKK 010030Z 36004KT 290V070 9999 FEW017CB 25/22 Q1010 NOSIG,0,4,0,10000,0,0,0,
2026-04-01 00:00:00,METAR WMKK 010000Z 35005KT 280V030 9999 FEW017CB 25/22 Q1010 NOSIG,0,5,0,10000,0,0,0,
2026-03-31 23:30:00,METAR WMKK 312330Z 04003KT 330V100 9999 FEW017CB 25/21 Q1009 NOSIG,0,3,0,9999,0,0,0,
2026-03-31 23:00:00,METAR WMKK 312300Z 02003KT 320V060 9999 FEW017CB 25/21 Q1009 NOSIG,0,3,0,9999,0,0,0,
2026-03-31 22:30:00,METAR WMKK 312230Z 01005KT 320V060 9000 FEW017CB 25/21 Q1009 NOSIG,0,5,0,9000,0,0,0,
2026-03-31 22:00:00,METAR WMKK 312200Z 02005KT 330V070 9000 FEW017CB 25/21 Q1008 NOSIG,0,5,0,9000,0,0,0,
2026-03-31 21:30:00,METAR WMKK 312130Z 02007KT 320V050 9000 FEW017CB 26/21 Q1008 TEMPO FM2145 02007G20KT 5000 TSRA,0,7,0,9000,1,0,0,"RA,TS"
2026-03-31 21:00:00,METAR WMKK 312100Z 01005KT 330V040 9000 FEW017CB 26/23 Q1008 TEMPO FM2115 01005G20KT 6000 TSRA,0,5,0,9000,1,0,0,"RA,TS"
2026-03-31 20:30:00,METAR WMKK 312030Z 05004KT 360V080 9000 FEW017CB 27/23 Q1008 TEMPO FM2100 7000 -TSRA,0,4,0,9000,1,0,0,RA
2026-03-31 20:00:00,METAR WMKK 312000Z VRB02KT 9000 FEW017CB 27/24 Q1008 NOSIG,0,2,0,9000,0,0,0,
2026-03-31 19:30:00,METAR WMKK 311930Z 00000KT 9999 FEW030 26/25 Q1008 NOSIG,0,0,0,9999,0,0,0,
2026-03-31 19:00:00,METAR WMKK 311900Z 00000KT 9999 FEW030 26/24 Q1008 NOSIG,0,0,0,9999,0,0,0,
2026-03-31 18:30:00,METAR WMKK 311830Z 00000KT 9999 FEW030 26/24 Q1009 NOSIG,0,0,0,9999,0,0,0,
2026-03-31 18:00:00,METAR WMKK 311800Z 00000KT 9999 FEW030 26/24 Q1009 NOSIG,0,0,0,9999,0,0,0,
2026-03-31 17:30:00,METAR WMKK 311730Z 00000KT 9999 FEW017CB 26/24 Q1009 NOSIG,0,0,0,9999,0,0,0,
2026-03-31 17:00:00,METAR WMKK 311700Z 00000KT 9999 FEW017CB 26/24 Q1010 NOSIG,0,0,0,9999,0,0,0,
2026-03-31 16:30:00,METAR WMKK 311630Z 00000KT 9999 FEW017CB 26/24 Q1010 NOSIG,0,0,0,9999,0,0,0,
2026-03-31 16:00:00,METAR WMKK 311600Z VRB02KT 9999 FEW017CB 26/24 Q1010 NOSIG,0,2,0,9999,0,0,0,
2026-03-31 15:30:00,METAR WMKK 311530Z 00000KT 9999 FEW030 26/24 Q1010 NOSIG,0,0,0,9999,0,0,0,
2026-03-31 15:00:00,METAR WMKK 311500Z VRB02KT 9999 FEW030 27/24 Q1009 NOSIG,0,2,0,9999,0,0,0,
2026-03-31 14:30:00,METAR WMKK 311430Z VRB01KT 9999 FEW030 27/24 Q1009 NOSIG,0,1,0,9999,0,0,0,
2026-03-31 14:00:00,METAR WMKK 311400Z VRB02KT 9999 FEW030 27/24 Q1009 NOSIG,0,2,0,9999,0,0,0,
2026-03-31 13:30:00,METAR WMKK 311330Z VRB02KT 9999 FEW030 27/24 Q1008 NOSIG,0,2,0,9999,0,0,0,
2026-03-31 13:00:00,METAR WMKK 311300Z 00000KT 9999 FEW030 28/24 Q1008 NOSIG,0,0,0,9999,0,0,0,
2026-03-31 12:30:00,METAR WMKK 311230Z VRB02KT 9999 FEW030 28/24 Q1008 NOSIG,0,2,0,9999,0,0,0,
2026-03-31 12:00:00,METAR WMKK 311200Z VRB01KT 9000 FEW030 28/24 Q1007 RETS NOSIG,0,1,0,9000,1,0,0,TS
2026-03-31 11:30:00,METAR WMKK 311130Z VRB02KT 9000 FEW030 29/24 Q1007 RETS NOSIG,0,2,0,9000,1,0,0,TS
2026-03-31 11:00:00,METAR WMKK 311100Z VRB01KT 9000 TS FEW017CB 29/24 Q1006 NOSIG,0,1,0,9000,1,0,0,TS
2026-03-31 10:30:00,METAR WMKK 311030Z 00000KT 9000 TS FEW017CB 29/24 Q1007 NOSIG,0,0,0,9000,1,0,0,TS
2026-03-31 10:00:00,METAR WMKK 311000Z VRB03KT 9000 TS FEW017CB 30/24 Q1006 NOSIG,0,3,0,9000,1,0,0,TS
2026-03-31 09:30:00,METAR WMKK 310930Z VRB03KT 9000 TS FEW017CB 30/24 Q1006 TEMPO 8000 -TSRA,0,3,0,9000,1,0,0,"RA,TS"
2026-03-31 09:00:00,METAR WMKK 310900Z VRB05KT 9000 TS FEW017CB SCT018 31/24 Q1006 NOSIG,0,5,0,9000,1,0,0,TS
2026-03-31 08:43:00,SPECI WMKK 310843Z VRB05KT 9000 TS FEW017CB SCT018 31/24 Q1006 NOSIG,0,5,0,9000,1,0,0,TS
2026-03-31 08:30:00,METAR WMKK 310830Z VRB06KT 9000 FEW017CB SCT018 31/24 Q1006 NOSIG,0,6,0,9000,0,0,0,
2026-03-31 08:00:00,METAR WMKK 310800Z VRB05KT 9000 VCSH FEW017CB SCT018 31/24 Q1006 NOSIG,0,5,0,9000,0,0,0,"SH,VC"
2026-03-31 07:30:00,METAR WMKK 310730Z VRB06KT 9000 VCSH FEW017CB SCT018 32/25 Q1007 NOSIG,0,6,0,9000,0,0,0,"SH,VC"
2026-03-31 07:00:00,METAR WMKK 310700Z VRB04KT 9000 VCSH FEW017CB SCT018 33/25 Q1007 NOSIG,0,4,0,9000,0,0,0,"SH,VC"
2026-03-31 06:30:00,METAR WMKK 310630Z VRB04KT 9999 FEW017CB SCT018 32/25 Q1008 NOSIG,0,4,0,9999,0,0,0,
2026-03-31 06:00:00,METAR WMKK 310600Z VRB04KT 9999 FEW017CB 33/24 Q1009 NOSIG,0,4,0,9999,0,0,0,
2026-03-31 05:30:00,METAR WMKK 310530Z 16004KT 080V250 9999 FEW017CB 32/24 Q1009 NOSIG,0,4,0,9999,0,0,0,
2026-03-31 05:00:00,METAR WMKK 310500Z VRB03KT 9999 FEW018 32/24 Q1010 NOSIG,0,3,0,9999,0,0,0,
2026-03-31 04:30:00,METAR WMKK 310430Z VRB03KT 9999 FEW018 33/24 Q1010 NOSIG,0,3,0,9999,0,0,0,
2026-03-31 04:00:00,METAR WMKK 310400Z VRB03KT 9999 FEW018 31/24 Q1011 NOSIG,0,3,0,9999,0,0,0,
2026-03-31 03:30:00,METAR WMKK 310330Z VRB02KT 9999 FEW018 31/24 Q1011 NOSIG,0,2,0,9999,0,0,0,
2026-03-31 03:00:00,METAR WMKK 310300Z VRB02KT 9999 FEW018 31/24 Q1012 NOSIG,0,2,0,9999,0,0,0,
2026-03-31 02:30:00,METAR WMKK 310230Z VRB03KT 9999 FEW018 31/24 Q1012 NOSIG,0,3,0,9999,0,0,0,
2026-03-31 02:00:00,METAR WMKK 310200Z 05004KT 350V120 9999 FEW018 30/24 Q1012 NOSIG,0,4,0,9999,0,0,0,
2026-03-31 01:30:00,METAR WMKK 310130Z VRB02KT 9999 FEW018 29/23 Q1011 NOSIG,0,2,0,9999,0,0,0,
2026-03-31 01:00:00,METAR WMKK 310100Z 00000KT 9999 FEW018 28/24 Q1011 NOSIG,0,0,0,9999,0,0,0,
2026-03-31 00:30:00,METAR WMKK 310030Z 00000KT 9999 FEW018 27/24 Q1010 NOSIG,0,0,0,9999,0,0,0,
2026-03-31 00:00:00,METAR WMKK 310000Z 00000KT 9999 FEW030 26/24 Q1010 NOSIG,0,0,0,9999,0,0,0,
2026-03-30 23:30:00,METAR WMKK 302330Z 00000KT 9000 FEW010 25/24 Q1010 NOSIG,0,0,0,9000,0,0,0,
2026-03-30 23:00:00,METAR WMKK 302300Z 00000KT 9000 FEW010 25/24 Q1009 NOSIG,0,0,0,9000,0,0,0,
2026-03-30 22:30:00,METAR WMKK 302230Z VRB02KT 9000 FEW010 25/24 Q1009 NOSIG,0,2,0,9000,0,0,0,
2026-03-30 22:00:00,METAR WMKK 302200Z VRB02KT 9000 FEW010 25/24 Q1009 NOSIG,0,2,0,9000,0,0,0,
2026-03-30 21:30:00,METAR WMKK 302130Z VRB02KT 9000 FEW010 25/24 Q1009 NOSIG,0,2,0,9000,0,0,0,
2026-03-30 21:00:00,METAR WMKK 302100Z 00000KT 9000 FEW010 25/24 Q1009 NOSIG,0,0,0,9000,0,0,0,
2026-03-30 20:30:00,METAR WMKK 302030Z VRB02KT 9999 FEW030 26/24 Q1009 NOSIG,0,2,0,10000,0,0,0,
2026-03-30 20:00:00,METAR WMKK 302000Z VRB01KT 9999 FEW030 26/24 Q1009 NOSIG,0,1,0,10000,0,0,0,
2026-03-30 19:30:00,METAR WMKK 301930Z VRB01KT 9999 FEW030 26/24 Q1009 NOSIG,0,1,0,10000,0,0,0,
2026-03-30 19:00:00,METAR WMKK 301900Z VRB01KT 9000 FEW030 26/24 Q1009 NOSIG,0,1,0,9000,0,0,0,
2026-03-30 18:30:00,METAR WMKK 301830Z 00000KT 9000 FEW030 26/24 Q1010 NOSIG,0,0,0,9000,0,0,0,
2026-03-30 18:00:00,METAR WMKK 301800Z VRB01KT 9000 FEW030 26/24 Q1010 NOSIG,0,1,0,9000,0,0,0,
2026-03-30 17:30:00,METAR WMKK 301730Z VRB01KT 9000 FEW030 26/24 Q1010 NOSIG,0,1,0,9000,0,0,0,
2026-03-30 17:00:00,METAR WMKK 301700Z VRB02KT 9999 FEW030 26/24 Q1011 NOSIG,0,2,0,10000,0,0,0,
2026-03-30 16:30:00,METAR WMKK 301630Z VRB02KT 9999 FEW030 27/24 Q1011 NOSIG,0,2,0,10000,0,0,0,
2026-03-30 16:00:00,METAR WMKK 301600Z 10004KT 050V190 9999 FEW030 27/24 Q1011 NOSIG,0,4,0,10000,0,0,0,
2026-03-30 15:30:00,METAR WMKK 301530Z 10005KT 020V150 9999 FEW030 27/23 Q1011 NOSIG,0,5,0,10000,0,0,0,
2026-03-30 15:00:00,METAR WMKK 301500Z 11005KT 050V180 9999 FEW030 27/23 Q1011 NOSIG,0,5,0,10000,0,0,0,
2026-03-30 14:30:00,METAR WMKK 301430Z 13005KT 080V200 9000 FEW030 27/24 Q1010 NOSIG,0,5,0,9000,0,0,0,
2026-03-30 14:00:00,METAR WMKK 301400Z VRB02KT 9000 FEW030 27/24 Q1010 NOSIG,0,2,0,9000,0,0,0,
2026-03-30 13:30:00,METAR WMKK 301330Z 15003KT 090V230 9000 FEW030 27/24 Q1010 NOSIG,0,3,0,9000,0,0,0,
2026-03-30 13:00:00,METAR WMKK 301300Z VRB03KT 9000 FEW030 27/24 Q1009 NOSIG,0,3,0,9000,0,0,0,
2026-03-30 12:30:00,METAR WMKK 301230Z VRB03KT 9000 FEW030 27/24 Q1009 NOSIG,0,3,0,9000,0,0,0,
2026-03-30 12:00:00,METAR WMKK 301200Z 16003KT 080V220 9999 FEW030 27/24 Q1008 NOSIG,0,3,0,10000,0,0,0,
2026-03-30 11:30:00,METAR WMKK 301130Z VRB03KT 9999 FEW030 28/23 Q1008 NOSIG,0,3,0,10000,0,0,0,
2026-03-30 11:00:00,METAR WMKK 301100Z VRB03KT 9000 FEW017CB 28/23 Q1007 NOSIG,0,3,0,9000,0,0,0,
2026-03-30 10:30:00,METAR WMKK 301030Z 09007KT 040V150 9000 FEW017CB 28/23 Q1007 NOSIG,0,7,0,9000,0,0,0,
2026-03-30 10:00:00,METAR WMKK 301000Z 11005KT 040V190 9000 FEW017CB 29/24 Q1006 NOSIG,0,5,0,9000,0,0,0,
2026-03-30 09:30:00,METAR WMKK 300930Z 11005KT 060V170 9000 FEW017CB 30/24 Q1006 NOSIG,0,5,0,9000,0,0,0,
2026-03-30 09:00:00,METAR WMKK 300900Z VRB04KT 8000 FEW017CB 30/25 Q1006 NOSIG,0,4,0,8000,0,0,0,
2026-03-30 08:30:00,METAR WMKK 300830Z VRB05KT 8000 VCSH FEW017CB 30/24 Q1006 NOSIG,0,5,0,8000,0,0,0,"SH,VC"
2026-03-30 08:00:00,METAR WMKK 300800Z VRB04KT 9000 VCSH FEW017CB SCT018 31/24 Q1006 NOSIG,0,4,0,9000,0,0,0,"SH,VC"
2026-03-30 07:30:00,METAR WMKK 300730Z VRB04KT 9000 VCSH FEW017CB SCT018 32/25 Q1006 NOSIG,0,4,0,9000,0,0,0,"SH,VC"
2026-03-30 07:00:00,METAR WMKK 300700Z VRB04KT 9000 VCSH FEW017CB SCT018 31/25 Q1007 NOSIG,0,4,0,9000,0,0,0,"SH,VC"
2026-03-30 06:30:00,METAR WMKK 300630Z VRB05KT 9000 VCSH FEW017CB SCT018 33/24 Q1008 NOSIG,0,5,0,9000,0,0,0,"SH,VC"
2026-03-30 06:00:00,METAR WMKK 300600Z VRB04KT 9000 VCSH FEW017CB SCT018 33/24 Q1008 NOSIG,0,4,0,9000,0,0,0,"SH,VC"
2026-03-30 05:30:00,METAR WMKK 300530Z VRB04KT 9000 VCSH SCT018 33/25 Q1009 NOSIG,0,4,0,9000,0,0,0,"SH,VC"
2026-03-30 05:00:00,METAR WMKK 300500Z VRB04KT 9000 VCSH SCT018 33/25 Q1009 NOSIG,0,4,0,9000,0,0,0,"SH,VC"
2026-03-30 04:30:00,METAR WMKK 300430Z VRB03KT 9999 FEW017CB 31/25 Q1010 NOSIG,0,3,0,10000,0,0,0,
2026-03-30 04:00:00,METAR WMKK 300400Z VRB03KT 9999 FEW017CB 32/24 Q1010 NOSIG,0,3,0,10000,0,0,0,
2026-03-30 03:30:00,METAR WMKK 300330Z VRB02KT 9000 FEW018 32/24 Q1010 NOSIG,0,2,0,9000,0,0,0,
2026-03-30 03:00:00,METAR WMKK 300300Z VRB02KT 9000 FEW018 31/23 Q1010 NOSIG,0,2,0,9000,0,0,0,
2026-03-30 02:30:00,METAR WMKK 300230Z VRB03KT 8000 FEW018 30/24 Q1010 NOSIG,0,3,0,8000,0,0,0,
2026-03-30 02:00:00,METAR WMKK 300200Z VRB02KT 8000 FEW018 30/25 Q1010 NOSIG,0,2,0,8000,0,0,0,
2026-03-30 01:30:00,METAR WMKK 300130Z VRB02KT 7000 FEW018 28/24 Q1010 NOSIG,0,2,0,7000,0,0,0,
2026-03-30 01:00:00,METAR WMKK 300100Z 00000KT 7000 FEW018 27/24 Q1009 NOSIG,0,0,0,7000,0,0,0,
2026-03-30 00:30:00,METAR WMKK 300030Z VRB02KT 7000 FEW010 25/24 Q1009 NOSIG,0,2,0,7000,0,0,0,
2026-03-30 00:00:00,METAR WMKK 300000Z 00000KT 8000 FEW010 25/24 Q1009 NOSIG,0,0,0,8000,0,0,0,
2026-03-29 23:30:00,METAR WMKK 292330Z 00000KT 8000 FEW010 FEW017CB 24/23 Q1008 NOSIG,0,0,0,8000,0,0,0,
2026-03-29 23:00:00,METAR WMKK 292300Z VRB03KT 7000 FEW010 FEW017CB 24/23 Q1008 NOSIG,0,3,0,7000,0,0,0,
2026-03-29 22:30:00,METAR WMKK 292230Z 00000KT 7000 FEW010 FEW017CB 24/23 Q1008 NOSIG,0,0,0,7000,0,0,0,
2026-03-29 22:00:00,METAR WMKK 292200Z 00000KT 7000 FEW010 FEW017CB 25/24 Q1008 NOSIG,0,0,0,7000,0,0,0,
2026-03-29 21:30:00,METAR WMKK 292130Z 00000KT 7000 FEW010 FEW017CB 25/24 Q1007 NOSIG,0,0,0,7000,0,0,0,
2026-03-29 21:00:00,METAR WMKK 292100Z VRB02KT 7000 FEW010 FEW017CB 25/24 Q1007 NOSIG,0,2,0,7000,0,0,0,
2026-03-29 20:30:00,METAR WMKK 292030Z 00000KT 7000 FEW010 FEW017CB 25/24 Q1008 NOSIG,0,0,0,7000,0,0,0,
2026-03-29 20:00:00,METAR WMKK 292000Z VRB02KT 7000 FEW010 25/24 Q1008 NOSIG,0,2,0,7000,0,0,0,
2026-03-29 19:30:00,METAR WMKK 291930Z 00000KT 7000 FEW010 25/24 Q1008 NOSIG,0,0,0,7000,0,0,0,
2026-03-29 19:00:00,METAR WMKK 291900Z 00000KT 7000 FEW008 25/24 Q1008 NOSIG,0,0,0,7000,0,0,0,
2026-03-29 18:30:00,METAR WMKK 291830Z VRB01KT 8000 FEW010 25/24 Q1008 NOSIG,0,1,0,8000,0,0,0,
2026-03-29 18:00:00,METAR WMKK 291800Z 00000KT 8000 FEW010 26/24 Q1009 NOSIG,0,0,0,8000,0,0,0,
2026-03-29 17:30:00,METAR WMKK 291730Z 00000KT 8000 FEW010 26/25 Q1009 NOSIG,0,0,0,8000,0,0,0,
2026-03-29 17:00:00,METAR WMKK 291700Z 13003KT 080V220 8000 FEW030 26/24 Q1010 NOSIG,0,3,0,8000,0,0,0,
2026-03-29 16:30:00,METAR WMKK 291630Z 12004KT 030V190 8000 FEW030 26/24 Q1010 NOSIG,0,4,0,8000,0,0,0,
2026-03-29 16:00:00,METAR WMKK 291600Z VRB02KT 8000 FEW030 26/24 Q1010 NOSIG,0,2,0,8000,0,0,0,
2026-03-29 15:30:00,METAR WMKK 291530Z VRB02KT 8000 FEW030 26/24 Q1010 NOSIG,0,2,0,8000,0,0,0,
2026-03-29 15:00:00,METAR WMKK 291500Z VRB01KT 9000 FEW030 26/24 Q1010 NOSIG,0,1,0,9000,0,0,0,
2026-03-29 14:30:00,METAR WMKK 291430Z 08003KT 030V120 9000 FEW030 27/24 Q1009 NOSIG,0,3,0,9000,0,0,0,
2026-03-29 14:00:00,METAR WMKK 291400Z 07004KT 020V140 9999 FEW030 27/24 Q1009 NOSIG,0,4,0,10000,0,0,0,
2026-03-29 13:30:00,METAR WMKK 291330Z VRB02KT 9999 FEW030 27/24 Q1008 NOSIG,0,2,0,10000,0,0,0,
2026-03-29 13:00:00,METAR WMKK 291300Z VRB03KT 9999 FEW030 27/24 Q1008 NOSIG,0,3,0,10000,0,0,0,
2026-03-29 12:30:00,METAR WMKK 291230Z VRB03KT 9999 FEW030 27/24 Q1008 NOSIG,0,3,0,10000,0,0,0,
2026-03-29 12:00:00,METAR WMKK 291200Z VRB02KT 9999 FEW030 28/25 Q1007 NOSIG,0,2,0,10000,0,0,0,
2026-03-29 11:30:00,METAR WMKK 291130Z 08003KT 020V150 9999 FEW030 28/25 Q1007 NOSIG,0,3,0,10000,0,0,0,
2026-03-29 11:00:00,METAR WMKK 291100Z 00000KT 9999 FEW017CB 29/25 Q1007 NOSIG,0,0,0,10000,0,0,0,
2026-03-29 10:30:00,METAR WMKK 291030Z VRB02KT 9999 FEW017CB 29/25 Q1006 NOSIG,0,2,0,10000,0,0,0,
2026-03-29 10:00:00,METAR WMKK 291000Z VRB02KT 9000 FEW017CB 29/25 Q1006 RETS NOSIG,0,2,0,9000,1,0,0,TS
2026-03-29 09:30:00,METAR WMKK 290930Z 09005KT 010V140 8000 TS VCSH FEW017CB SCT030 29/24 Q1005 NOSIG,0,5,0,8000,1,0,0,"SH,TS,VC"
2026-03-29 09:00:00,METAR WMKK 290900Z 10004KT 040V170 7000 TS VCSH FEW017CB SCT030 28/24 Q1006 NOSIG,0,4,0,7000,1,0,0,"SH,TS,VC"
2026-03-29 08:30:00,METAR WMKK 290830Z 08009KT 050V140 7000 TS VCSH FEW017CB SCT030 28/25 Q1007 TEMPO 10015KT 3000 +TSRA,0,9,0,7000,1,0,0,"RA,SH,TS,VC"
2026-03-29 08:00:00,METAR WMKK 290800Z VRB03KT 8000 TS VCSH FEW017CB 31/25 Q1006 TEMPO 22005G17KT 7000 -TSRA,0,3,0,8000,1,0,0,"RA,SH,TS,VC"
2026-03-29 07:50:00,SPECI WMKK 290750Z VRB06KT 9000 TS VCSH FEW017CB 31/25 Q1007 TEMPO 22005G17KT 7000 -TSRA,0,6,0,9000,1,0,0,"RA,SH,TS,VC"
2026-03-29 07:30:00,METAR WMKK 290730Z 24004KT 150V320 9999 FEW017CB 32/25 Q1007 NOSIG,0,4,0,10000,0,0,0,
2026-03-29 07:00:00,METAR WMKK 290700Z 25003KT 170V320 9000 FEW018 31/25 Q1007 NOSIG,0,3,0,9000,0,0,0,
2026-03-29 06:30:00,METAR WMKK 290630Z VRB02KT 9000 FEW018 30/25 Q1008 NOSIG,0,2,0,9000,0,0,0,
2026-03-29 06:00:00,METAR WMKK 290600Z VRB03KT 9000 FEW018 30/25 Q1008 NOSIG,0,3,0,9000,0,0,0,
2026-03-29 05:30:00,METAR WMKK 290530Z VRB02KT 9000 FEW018 29/25 Q1009 NOSIG,0,2,0,9000,0,0,0,
2026-03-29 05:00:00,METAR WMKK 290500Z VRB02KT 9000 FEW018 29/25 Q1009 NOSIG,0,2,0,9000,0,0,0,
2026-03-29 04:30:00,METAR WMKK 290430Z VRB02KT 9000 FEW018 28/25 Q1010 NOSIG,0,2,0,9000,0,0,0,
2026-03-29 04:00:00,METAR WMKK 290400Z 00000KT 8000 FEW009 FEW017CB 27/25 Q1010 NOSIG,0,0,0,8000,0,0,0,
2026-03-29 03:30:00,METAR WMKK 290330Z VRB02KT 8000 FEW010 FEW017CB 26/25 Q1010 NOSIG,0,2,0,8000,0,0,0,
2026-03-29 03:00:00,METAR WMKK 290300Z VRB02KT 7000 -RA FEW008 FEW017CB SCT030 26/25 Q1010 RETSRA NOSIG,0,2,0,7000,1,0,0,"-RA,RA"
2026-03-29 02:30:00,METAR WMKK 290230Z VRB04KT 5000 TSRA FEW006 FEW017CB SCT030 25/25 Q1010 RETSRA NOSIG,0,4,0,5000,1,0,0,"RA,TS"
2026-03-29 02:00:00,METAR WMKK 290200Z VRB04KT 1500 +TSRA SCT002 FEW017CB SCT028 24/24 Q1011 NOSIG,0,4,0,1500,1,0,0,RA
2026-03-29 01:58:00,SPECI WMKK 290158Z VRB05KT 1500 +TSRA SCT002 FEW017CB SCT028 24/24 Q1011 NOSIG,0,5,0,1500,1,0,0,RA
2026-03-29 01:48:00,SPECI WMKK 290148Z VRB04KT 4000 RA FEW005 FEW017CB SCT030 25/24 Q1010 TEMPO 3000 +TSRA,0,4,0,4000,1,0,0,RA
2026-03-29 01:30:00,METAR WMKK 290130Z VRB02KT 6000 -RA FEW007 FEW017CB SCT030 26/25 Q1010 TEMPO 4000 TSRA,0,2,0,6000,1,0,0,"-RA,RA,TS"
2026-03-29 01:00:00,METAR WMKK 290100Z VRB02KT 8000 VCSH FEW017CB SCT030 27/25 Q1010 NOSIG,0,2,0,8000,0,0,0,"SH,VC"
2026-03-29 00:30:00,METAR WMKK 290030Z 00000KT 9000 VCSH FEW017CB 26/24 Q1009 NOSIG,0,0,0,9000,0,0,0,"SH,VC"
2026-03-29 00:00:00,METAR WMKK 290000Z 00000KT 9000 FEW017CB 26/24 Q1009 NOSIG,0,0,0,9000,0,0,0,
2026-03-28 23:30:00,METAR WMKK 282330Z 00000KT 9000 FEW017CB 26/24 Q1008 NOSIG,0,0,0,9000,0,0,0,
2026-03-28 23:00:00,METAR WMKK 282300Z 00000KT 9000 FEW017CB 26/24 Q1008 NOSIG,0,0,0,9000,0,0,0,
2026-03-28 22:30:00,METAR WMKK 282230Z 00000KT 9000 FEW010 FEW017CB 26/24 Q1008 NOSIG,0,0,0,9000,0,0,0,
2026-03-28 22:00:00,METAR WMKK 282200Z 00000KT 9000 FEW010 FEW017CB 26/24 Q1007 NOSIG,0,0,0,9000,0,0,0,
2026-03-28 21:30:00,METAR WMKK 282130Z 00000KT 9000 FEW010 FEW017CB 26/24 Q1007 NOSIG,0,0,0,9000,0,0,0,
2026-03-28 21:00:00,METAR WMKK 282100Z 00000KT 9000 FEW017CB 26/24 Q1007 NOSIG,0,0,0,9000,0,0,0,
2026-03-28 20:30:00,METAR WMKK 282030Z VRB01KT 9000 FEW017CB 26/24 Q1007 NOSIG,0,1,0,9000,0,0,0,
2026-03-28 20:00:00,METAR WMKK 282000Z VRB02KT 9000 FEW017CB 26/24 Q1007 NOSIG,0,2,0,9000,0,0,0,
2026-03-28 19:30:00,METAR WMKK 281930Z 00000KT 9000 FEW017CB 26/24 Q1007 NOSIG,0,0,0,9000,0,0,0,
2026-03-28 19:00:00,METAR WMKK 281900Z 00000KT 9000 FEW017CB 26/24 Q1007 NOSIG,0,0,0,9000,0,0,0,
2026-03-28 18:30:00,METAR WMKK 281830Z VRB01KT 9000 FEW017CB 26/24 Q1007 NOSIG,0,1,0,9000,0,0,0,
2026-03-28 18:00:00,METAR WMKK 281800Z 00000KT 9000 FEW017CB 27/24 Q1008 NOSIG,0,0,0,9000,0,0,0,
2026-03-28 17:30:00,METAR WMKK 281730Z 04003KT 010V090 9000 FEW017CB 27/23 Q1008 NOSIG,0,3,0,9000,0,0,0,
2026-03-28 17:00:00,METAR WMKK 281700Z VRB01KT 9000 FEW030 27/24 Q1008 NOSIG,0,1,0,9000,0,0,0,
2026-03-28 16:30:00,METAR WMKK 281630Z 09003KT 020V170 9000 FEW030 27/24 Q1008 NOSIG,0,3,0,9000,0,0,0,
2026-03-28 16:00:00,METAR WMKK 281600Z VRB02KT 9000 FEW030 27/24 Q1008 NOSIG,0,2,0,9000,0,0,0,
2026-03-28 15:30:00,METAR WMKK 281530Z VRB02KT 9000 FEW030 27/24 Q1008 NOSIG,0,2,0,9000,0,0,0,
2026-03-28 15:00:00,METAR WMKK 281500Z VRB02KT 9000 FEW030 27/24 Q1008 NOSIG,0,2,0,9000,0,0,0,
2026-03-28 14:30:00,METAR WMKK 281430Z VRB02KT 9000 FEW017CB 27/24 Q1008 NOSIG,0,2,0,9000,0,0,0,
2026-03-28 14:00:00,METAR WMKK 281400Z 00000KT 9000 FEW017CB 28/24 Q1007 NOSIG,0,0,0,9000,0,0,0,
2026-03-28 13:30:00,METAR WMKK 281330Z VRB02KT 9000 FEW017CB 29/24 Q1007 NOSIG,0,2,0,9000,0,0,0,
2026-03-28 13:00:00,METAR WMKK 281300Z VRB02KT 9000 FEW017CB 28/24 Q1007 NOSIG,0,2,0,9000,0,0,0,
2026-03-28 12:30:00,METAR WMKK 281230Z VRB02KT 9000 FEW017CB 28/25 Q1006 NOSIG,0,2,0,9000,0,0,0,
2026-03-28 12:00:00,METAR WMKK 281200Z VRB01KT 9000 FEW030 29/25 Q1006 NOSIG,0,1,0,9000,0,0,0,
2026-03-28 11:30:00,METAR WMKK 281130Z 00000KT 9000 FEW030 29/25 Q1005 NOSIG,0,0,0,9000,0,0,0,
2026-03-28 11:00:00,METAR WMKK 281100Z VRB02KT 9000 FEW018 30/26 Q1005 NOSIG,0,2,0,9000,0,0,0,
2026-03-28 10:30:00,METAR WMKK 281030Z 10003KT 050V170 9000 FEW018 31/23 Q1005 NOSIG,0,3,0,9000,0,0,0,
2026-03-28 10:00:00,METAR WMKK 281000Z 10004KT 060V160 9000 FEW018 31/24 Q1004 NOSIG,0,4,0,9000,0,0,0,
2026-03-28 09:30:00,METAR WMKK 280930Z 08006KT 030V120 9000 FEW018 31/24 Q1004 NOSIG,0,6,0,9000,0,0,0,
2026-03-28 09:00:00,METAR WMKK 280900Z VRB03KT 9000 FEW018 31/24 Q1004 NOSIG,0,3,0,9000,0,0,0,
2026-03-28 08:30:00,METAR WMKK 280830Z VRB05KT 9000 FEW018 31/23 Q1004 NOSIG,0,5,0,9000,0,0,0,
2026-03-28 08:00:00,METAR WMKK 280800Z VRB05KT 9000 SCT018 32/24 Q1005 NOSIG,0,5,0,9000,0,0,0,
2026-03-28 07:30:00,METAR WMKK 280730Z 12004KT 060V200 9000 VCSH SCT018 32/23 Q1006 NOSIG,0,4,0,9000,0,0,0,"SH,VC"
2026-03-28 07:00:00,METAR WMKK 280700Z 15004KT 080V240 9000 VCSH SCT018 31/23 Q1006 NOSIG,0,4,0,9000,0,0,0,"SH,VC"
2026-03-28 06:30:00,METAR WMKK 280630Z VRB03KT 9000 VCSH SCT018 32/23 Q1007 NOSIG,0,3,0,9000,0,0,0,"SH,VC"
2026-03-28 06:00:00,METAR WMKK 280600Z VRB03KT 9000 SCT018 32/23 Q1007 NOSIG,0,3,0,9000,0,0,0,
2026-03-28 05:30:00,METAR WMKK 280530Z 00000KT 9000 SCT018 32/23 Q1008 NOSIG,0,0,0,9000,0,0,0,
2026-03-28 05:00:00,METAR WMKK 280500Z VRB02KT 9000 SCT018 32/23 Q1008 NOSIG,0,2,0,9000,0,0,0,
2026-03-28 04:30:00,METAR WMKK 280430Z VRB04KT 9000 FEW018 32/23 Q1008 NOSIG,0,4,0,9000,0,0,0,
2026-03-28 04:00:00,METAR WMKK 280400Z VRB04KT 9000 FEW018 32/22 Q1008 NOSIG,0,4,0,9000,0,0,0,
2026-03-28 03:30:00,METAR WMKK 280330Z 07004KT 340V150 9000 FEW018 32/23 Q1009 NOSIG,0,4,0,9000,0,0,0,
2026-03-28 03:00:00,METAR WMKK 280300Z 04005KT 320V100 9000 FEW018 32/23 Q1009 NOSIG,0,5,0,9000,0,0,0,
2026-03-28 02:30:00,METAR WMKK 280230Z VRB06KT 9000 FEW018 31/22 Q1009 NOSIG,0,6,0,9000,0,0,0,
2026-03-28 02:00:00,METAR WMKK 280200Z 06007KT 340V110 9000 FEW018 30/22 Q1009 NOSIG,0,7,0,9000,0,0,0,
2026-03-28 01:30:00,METAR WMKK 280130Z 08006KT 360V140 9000 FEW017CB 29/22 Q1008 NOSIG,0,6,0,9000,0,0,0,
2026-03-28 01:00:00,METAR WMKK 280100Z 07006KT 010V130 9000 FEW017CB 28/23 Q1008 NOSIG,0,6,0,9000,0,0,0,
2026-03-28 00:30:00,METAR WMKK 280030Z 07003KT 010V150 9000 FEW017CB 27/22 Q1008 NOSIG,0,3,0,9000,0,0,0,
2026-03-28 00:00:00,METAR WMKK 280000Z VRB01KT 9999 FEW017CB 26/22 Q1008 NOSIG,0,1,0,10000,0,0,0,
2026-03-27 23:30:00,METAR WMKK 272330Z VRB03KT 9999 FEW017CB 26/22 Q1007 NOSIG,0,3,0,10000,0,0,0,
2026-03-27 23:00:00,METAR WMKK 272300Z 07003KT 360V140 9999 FEW017CB 25/22 Q1006 NOSIG,0,3,0,10000,0,0,0,
2026-03-27 22:30:00,METAR WMKK 272230Z VRB02KT 9000 FEW017CB 25/22 Q1006 NOSIG,0,2,0,9000,0,0,0,
2026-03-27 22:00:00,METAR WMKK 272200Z 00000KT 9000 FEW017CB 25/23 Q1006 NOSIG,0,0,0,9000,0,0,0,
2026-03-27 21:30:00,METAR WMKK 272130Z VRB02KT 9000 FEW017CB 25/22 Q1006 NOSIG,0,2,0,9000,0,0,0,
2026-03-27 21:00:00,METAR WMKK 272100Z 09003KT 030V150 9000 FEW017CB 26/22 Q1006 NOSIG,0,3,0,9000,0,0,0,
2026-03-27 20:30:00,METAR WMKK 272030Z 03003KT 340V070 9000 FEW017CB 26/23 Q1006 NOSIG,0,3,0,9000,0,0,0,
2026-03-27 20:00:00,METAR WMKK 272000Z VRB01KT 9000 FEW017CB 26/23 Q1006 NOSIG,0,1,0,9000,0,0,0,
2026-03-27 19:30:00,METAR WMKK 271930Z VRB02KT 9000 FEW030 26/22 Q1007 NOSIG,0,2,0,9000,0,0,0,
2026-03-27 19:00:00,METAR WMKK 271900Z VRB02KT 9000 FEW030 26/23 Q1007 NOSIG,0,2,0,9000,0,0,0,
2026-03-27 18:30:00,METAR WMKK 271830Z 09003KT 040V150 9000 FEW030 27/23 Q1007 NOSIG,0,3,0,9000,0,0,0,
2026-03-27 18:00:00,METAR WMKK 271800Z VRB03KT 9000 FEW030 27/23 Q1007 NOSIG,0,3,0,9000,0,0,0,
2026-03-27 17:30:00,METAR WMKK 271730Z 04003KT 330V080 9000 FEW030 27/23 Q1007 NOSIG,0,3,0,9000,0,0,0,
2026-03-27 17:00:00,METAR WMKK 271700Z 06005KT 360V120 9000 FEW030 27/23 Q1007 NOSIG,0,5,0,9000,0,0,0,
2026-03-27 16:30:00,METAR WMKK 271630Z 08005KT 050V130 9000 FEW030 27/23 Q1008 NOSIG,0,5,0,9000,0,0,0,
2026-03-27 16:00:00,METAR WMKK 271600Z 08006KT 030V120 9000 FEW030 28/23 Q1008 NOSIG,0,6,0,9000,0,0,0,
2026-03-25 15:00:00,METAR WMKK 251500Z 00000KT 9000 FEW030 27/25 Q1009 NOSIG,0,0,0,9000,0,0,0,
2026-03-25 14:30:00,METAR WMKK 251430Z 00000KT 9000 FEW030 28/25 Q1008 NOSIG,0,0,0,9000,0,0,0,
2026-03-25 14:00:00,METAR WMKK 251400Z VRB03KT 9000 FEW017CB 28/25 Q1008 NOSIG,0,3,0,9000,0,0,0,
2026-03-25 13:30:00,METAR WMKK 251330Z 00000KT 9000 FEW017CB 28/25 Q1008 NOSIG,0,0,0,9000,0,0,0,
2026-03-25 13:00:00,METAR WMKK 251300Z VRB02KT 9000 FEW017CB 28/25 Q1008 NOSIG,0,2,0,9000,0,0,0,
2026-03-25 12:30:00,METAR WMKK 251230Z 00000KT 9000 FEW017CB 29/25 Q1007 NOSIG,0,0,0,9000,0,0,0,
2026-03-25 12:00:00,METAR WMKK 251200Z 00000KT 9999 FEW017CB 29/25 Q1007 NOSIG,0,0,0,10000,0,0,0,
2026-03-25 11:30:00,METAR WMKK 251130Z 00000KT 9999 FEW017CB 30/24 Q1007 NOSIG,0,0,0,10000,0,0,0,
2026-03-25 11:00:00,METAR WMKK 251100Z VRB02KT 9999 FEW017CB 31/24 Q1007 NOSIG,0,2,0,10000,0,0,0,
2026-03-25 10:30:00,METAR WMKK 251030Z 23003KT 150V320 9999 FEW017CB 31/24 Q1006 NOSIG,0,3,0,10000,0,0,0,
2026-03-25 10:00:00,METAR WMKK 251000Z 25004KT 190V340 9999 FEW017CB 32/24 Q1006 NOSIG,0,4,0,10000,0,0,0,
2026-03-25 09:30:00,METAR WMKK 250930Z 24004KT 170V310 9999 FEW018 32/24 Q1006 NOSIG,0,4,0,10000,0,0,0,
2026-03-25 09:00:00,METAR WMKK 250900Z 25006KT 160V320 9999 FEW018 33/24 Q1006 NOSIG,0,6,0,10000,0,0,0,
2026-03-25 08:30:00,METAR WMKK 250830Z VRB06KT 9999 FEW018 33/24 Q1006 NOSIG,0,6,0,10000,0,0,0,
2026-03-25 08:00:00,METAR WMKK 250800Z VRB06KT 9999 SCT018 33/23 Q1006 NOSIG,0,6,0,10000,0,0,0,
2026-03-25 07:30:00,METAR WMKK 250730Z VRB06KT 9999 SCT018 33/23 Q1006 NOSIG,0,6,0,10000,0,0,0,
2026-03-25 07:00:00,METAR WMKK 250700Z VRB05KT 9999 SCT018 34/23 Q1006 NOSIG,0,5,0,10000,0,0,0,
2026-03-25 06:30:00,METAR WMKK 250630Z VRB03KT 9999 SCT018 34/21 Q1007 NOSIG,0,3,0,10000,0,0,0,
2026-03-25 06:00:00,METAR WMKK 250600Z VRB03KT 9999 SCT018 34/22 Q1007 NOSIG,0,3,0,10000,0,0,0,
2026-03-25 05:30:00,METAR WMKK 250530Z 31005KT 230V020 9999 SCT018 34/22 Q1008 NOSIG,0,5,0,10000,0,0,0,
2026-03-25 05:00:00,METAR WMKK 250500Z VRB05KT 9999 SCT018 34/22 Q1008 NOSIG,0,5,0,10000,0,0,0,
2026-03-25 04:30:00,METAR WMKK 250430Z 07005KT 360V160 9999 FEW018 34/22 Q1008 NOSIG,0,5,0,10000,0,0,0,
2026-03-25 04:00:00,METAR WMKK 250400Z VRB04KT 9999 FEW018 33/22 Q1009 NOSIG,0,4,0,10000,0,0,0,
2026-03-25 03:30:00,METAR WMKK 250330Z VRB04KT 9999 FEW018 33/22 Q1009 NOSIG,0,4,0,10000,0,0,0,
2026-03-25 03:00:00,METAR WMKK 250300Z 06004KT 340V120 9999 FEW018 32/22 Q1009 NOSIG,0,4,0,10000,0,0,0,
2026-03-25 02:30:00,METAR WMKK 250230Z 06005KT 350V130 9999 FEW018 32/22 Q1010 NOSIG,0,5,0,10000,0,0,0,
2026-03-25 02:00:00,METAR WMKK 250200Z 07006KT 350V120 9999 FEW018 31/22 Q1009 NOSIG,0,6,0,10000,0,0,0,
2026-03-25 01:30:00,METAR WMKK 250130Z 07005KT 350V140 9999 FEW020 30/22 Q1009 NOSIG,0,5,0,10000,0,0,0,
2026-03-25 01:00:00,METAR WMKK 250100Z VRB02KT 9999 FEW020 28/22 Q1009 NOSIG,0,2,0,10000,0,0,0,
2026-03-25 00:30:00,METAR WMKK 250030Z 00000KT 9999 FEW030 27/22 Q1008 NOSIG,0,0,0,10000,0,0,0,
2026-03-25 00:00:00,METAR WMKK 250000Z VRB01KT 9999 FEW030 25/22 Q1008 NOSIG,0,1,0,10000,0,0,0,
2026-03-24 23:30:00,METAR WMKK 242330Z 00000KT 9999 FEW017CB 24/22 Q1008 NOSIG,0,0,0,10000,0,0,0,
2026-03-24 23:00:00,METAR WMKK 242300Z VRB01KT 9999 FEW017CB 24/22 Q1007 NOSIG,0,1,0,10000,0,0,0,
2026-03-24 22:30:00,METAR WMKK 242230Z VRB02KT 9999 FEW030 25/22 Q1007 NOSIG,0,2,0,10000,0,0,0,
2026-03-24 22:00:00,METAR WMKK 242200Z 09004KT 060V140 9999 FEW030 25/22 Q1007 NOSIG,0,4,0,10000,0,0,0,
2026-03-24 21:30:00,METAR WMKK 242130Z VRB02KT 9999 FEW030 25/22 Q1006 NOSIG,0,2,0,10000,0,0,0,
2026-03-24 21:00:00,METAR WMKK 242100Z 00000KT 9999 FEW030 25/23 Q1006 NOSIG,0,0,0,10000,0,0,0,
2026-03-24 20:30:00,METAR WMKK 242030Z VRB02KT 9999 FEW030 26/22 Q1007 NOSIG,0,2,0,10000,0,0,0,
2026-03-24 20:00:00,METAR WMKK 242000Z VRB02KT 9999 FEW030 27/22 Q1007 NOSIG,0,2,0,10000,0,0,0,
2026-03-24 19:30:00,METAR WMKK 241930Z VRB02KT 9999 FEW030 27/23 Q1007 NOSIG,0,2,0,10000,0,0,0,
2026-03-24 19:00:00,METAR WMKK 241900Z 00000KT 9999 FEW030 27/23 Q1007 NOSIG,0,0,0,10000,0,0,0,
2026-03-24 18:30:00,METAR WMKK 241830Z VRB01KT 9999 FEW030 27/23 Q1007 NOSIG,0,1,0,10000,0,0,0,
2026-03-24 18:00:00,METAR WMKK 241800Z VRB02KT 9999 FEW030 27/23 Q1008 NOSIG,0,2,0,10000,0,0,0,
2026-03-24 17:30:00,METAR WMKK 241730Z VRB03KT 9999 FEW030 27/23 Q1008 NOSIG,0,3,0,10000,0,0,0,
2026-03-24 17:00:00,METAR WMKK 241700Z 09004KT 040V140 9999 FEW030 27/23 Q1008 NOSIG,0,4,0,10000,0,0,0,
2026-03-24 16:30:00,METAR WMKK 241630Z VRB01KT 9999 FEW030 28/24 Q1008 NOSIG,0,1,0,10000,0,0,0,
2026-03-24 16:00:00,METAR WMKK 241600Z VRB02KT 9999 FEW030 28/24 Q1008 NOSIG,0,2,0,10000,0,0,0,
2026-03-24 15:30:00,METAR WMKK 241530Z 07003KT 030V140 9999 FEW030 28/24 Q1008 NOSIG,0,3,0,10000,0,0,0,
2026-03-24 15:00:00,METAR WMKK 241500Z 32003KT 290V010 9999 FEW030 28/24 Q1008 NOSIG,0,3,0,10000,0,0,0,
2026-03-24 14:30:00,METAR WMKK 241430Z VRB02KT 9999 FEW030 28/24 Q1008 NOSIG,0,2,0,10000,0,0,0,
2026-03-24 14:00:00,METAR WMKK 241400Z VRB02KT 9999 FEW030 28/24 Q1008 NOSIG,0,2,0,10000,0,0,0,
2026-03-24 13:30:00,METAR WMKK 241330Z VRB01KT 9000 FEW030 28/25 Q1007 NOSIG,0,1,0,9000,0,0,0,
2026-03-24 13:00:00,METAR WMKK 241300Z 00000KT 9000 FEW030 28/25 Q1007 NOSIG,0,0,0,9000,0,0,0,
2026-03-24 12:30:00,METAR WMKK 241230Z 00000KT 9000 FEW030 28/24 Q1007 NOSIG,0,0,0,9000,0,0,0,
2026-03-24 12:00:00,METAR WMKK 241200Z VRB01KT 9000 FEW030 29/24 Q1007 NOSIG,0,1,0,9000,0,0,0,
2026-03-24 11:30:00,METAR WMKK 241130Z VRB02KT 9000 FEW030 29/24 Q1006 NOSIG,0,2,0,9000,0,0,0,
2026-03-24 11:00:00,METAR WMKK 241100Z VRB03KT 9000 FEW030 30/24 Q1006 NOSIG,0,3,0,9000,0,0,0,
2026-03-24 10:30:00,METAR WMKK 241030Z VRB04KT 9000 FEW018 30/23 Q1005 NOSIG,0,4,0,9000,0,0,0,
2026-03-24 10:00:00,METAR WMKK 241000Z VRB04KT 9000 FEW018 31/24 Q1005 NOSIG,0,4,0,9000,0,0,0,
2026-03-24 09:30:00,METAR WMKK 240930Z VRB05KT 9000 FEW018 32/22 Q1005 NOSIG,0,5,0,9000,0,0,0,
2026-03-24 09:00:00,METAR WMKK 240900Z VRB04KT 9999 FEW018 33/22 Q1005 NOSIG,0,4,0,10000,0,0,0,
2026-03-24 08:30:00,METAR WMKK 240830Z 24004KT 150V310 9999 FEW018 33/22 Q1005 NOSIG,0,4,0,10000,0,0,0,
2026-03-24 08:00:00,METAR WMKK 240800Z VRB05KT 9999 SCT018 33/22 Q1006 NOSIG,0,5,0,10000,0,0,0,
2026-03-24 07:30:00,METAR WMKK 240730Z VRB06KT 9999 SCT018 32/23 Q1006 NOSIG,0,6,0,10000,0,0,0,
2026-03-24 07:00:00,METAR WMKK 240700Z VRB06KT 9999 SCT018 33/23 Q1006 NOSIG,0,6,0,10000,0,0,0,
2026-03-24 06:30:00,METAR WMKK 240630Z VRB03KT 9999 SCT018 34/23 Q1006 NOSIG,0,3,0,10000,0,0,0,
2026-03-24 06:00:00,METAR WMKK 240600Z COR VRB04KT 9999 SCT018 34/20 Q1007 NOSIG,0,4,0,10000,0,0,0,
2026-03-24 05:30:00,METAR WMKK 240530Z VRB04KT 9999 SCT018 34/21 Q1007 NOSIG,0,4,0,10000,0,0,0,
2026-03-24 05:00:00,METAR WMKK 240500Z VRB05KT 9999 SCT018 33/21 Q1008 NOSIG,0,5,0,10000,0,0,0,
2026-03-24 04:30:00,METAR WMKK 240430Z VRB03KT 9999 SCT018 33/22 Q1009 NOSIG,0,3,0,10000,0,0,0,
2026-03-24 04:00:00,METAR WMKK 240400Z 11003KT 050V200 9999 FEW018 31/21 Q1009 NOSIG,0,3,0,10000,0,0,0,
2026-03-24 03:30:00,METAR WMKK 240330Z VRB02KT 9999 FEW018 31/22 Q1010 NOSIG,0,2,0,10000,0,0,0,
2026-03-24 03:00:00,METAR WMKK 240300Z VRB03KT 9999 FEW018 31/22 Q1010 NOSIG,0,3,0,10000,0,0,0,
2026-03-24 02:30:00,METAR WMKK 240230Z 07004KT 350V140 9999 FEW018 31/22 Q1010 NOSIG,0,4,0,10000,0,0,0,
2026-03-24 02:00:00,METAR WMKK 240200Z VRB03KT 9999 FEW017CB 30/22 Q1010 NOSIG,0,3,0,10000,0,0,0,
2026-03-24 01:30:00,METAR WMKK 240130Z 07005KT 030V120 9999 FEW017CB 28/23 Q1010 NOSIG,0,5,0,10000,0,0,0,
2026-03-24 01:00:00,METAR WMKK 240100Z 07007KT 010V130 9000 FEW017CB 27/23 Q1009 NOSIG,0,7,0,9000,0,0,0,
2026-03-24 00:30:00,METAR WMKK 240030Z 04003KT 340V150 9000 FEW017CB 27/23 Q1009 NOSIG,0,3,0,9000,0,0,0,
2026-03-24 00:00:00,METAR WMKK 240000Z 06004KT 010V120 9999 FEW017CB 26/23 Q1009 NOSIG,0,4,0,10000,0,0,0,
2026-03-23 23:30:00,METAR WMKK 232330Z 07005KT 020V120 9999 FEW017CB 26/23 Q1008 NOSIG,0,5,0,10000,0,0,0,
2026-03-23 23:00:00,METAR WMKK 232300Z VRB02KT 9999 FEW017CB 26/23 Q1008 NOSIG,0,2,0,10000,0,0,0,
2026-03-23 22:30:00,METAR WMKK 232230Z 09003KT 030V170 9999 FEW017CB 26/23 Q1007 NOSIG,0,3,0,10000,0,0,0,
2026-03-23 22:00:00,METAR WMKK 232200Z 10004KT 050V160 9999 FEW017CB 26/23 Q1007 NOSIG,0,4,0,10000,0,0,0,
2026-03-23 21:30:00,METAR WMKK 232130Z COR 09004KT 020V140 9999 FEW017CB 26/23 Q1007 NOSIG,0,4,0,10000,0,0,0,
2026-03-23 21:00:00,METAR WMKK 232100Z VRB03KT 9999 FEW030 26/23 Q1007 NOSIG,0,3,0,10000,0,0,0,
2026-03-23 20:30:00,METAR WMKK 232030Z VRB02KT 9999 FEW030 26/23 Q1007 NOSIG,0,2,0,10000,0,0,0,
2026-03-23 20:00:00,METAR WMKK 232000Z VRB02KT 9999 FEW030 26/23 Q1008 NOSIG,0,2,0,10000,0,0,0,
2026-03-23 19:30:00,METAR WMKK 231930Z VRB01KT 9999 FEW030 26/23 Q1008 NOSIG,0,1,0,10000,0,0,0,
2026-03-23 19:00:00,METAR WMKK 231900Z VRB03KT 9999 FEW030 26/23 Q1008 NOSIG,0,3,0,10000,0,0,0,
2026-03-23 18:30:00,METAR WMKK 231830Z VRB01KT 9999 FEW030 26/24 Q1008 NOSIG,0,1,0,10000,0,0,0,
2026-03-23 18:00:00,METAR WMKK 231800Z 09003KT 010V150 9999 FEW030 27/23 Q1008 NOSIG,0,3,0,10000,0,0,0,
2026-03-23 17:30:00,METAR WMKK 231730Z 00000KT 9999 FEW030 27/24 Q1009 NOSIG,0,0,0,10000,0,0,0,
2026-03-23 17:00:00,METAR WMKK 231700Z 07003KT 020V140 9999 FEW030 27/24 Q1009 NOSIG,0,3,0,10000,0,0,0,
2026-03-23 16:30:00,METAR WMKK 231630Z VRB03KT 9999 FEW030 27/24 Q1009 NOSIG,0,3,0,10000,0,0,0,
2026-03-23 16:00:00,METAR WMKK 231600Z VRB01KT 9999 FEW030 27/24 Q1009 NOSIG,0,1,0,10000,0,0,0,
2026-03-23 15:30:00,METAR WMKK 231530Z VRB02KT 9999 FEW030 27/25 Q1009 NOSIG,0,2,0,10000,0,0,0,
2026-03-23 15:00:00,METAR WMKK 231500Z 00000KT 9999 FEW030 28/25 Q1009 NOSIG,0,0,0,10000,0,0,0,
2026-03-23 14:30:00,METAR WMKK 231430Z VRB01KT 9999 FEW030 28/25 Q1009 NOSIG,0,1,0,10000,0,0,0,
2026-03-23 14:00:00,METAR WMKK 231400Z VRB02KT 9999 FEW030 29/25 Q1008 NOSIG,0,2,0,10000,0,0,0,
2026-03-23 13:30:00,METAR WMKK 231330Z VRB01KT 9999 FEW030 29/25 Q1008 NOSIG,0,1,0,10000,0,0,0,
2026-03-23 13:00:00,METAR WMKK 231300Z VRB01KT 9000 FEW017CB 29/25 Q1008 NOSIG,0,1,0,9000,0,0,0,
2026-03-23 12:30:00,METAR WMKK 231230Z VRB02KT 9000 FEW017CB 29/25 Q1008 NOSIG,0,2,0,9000,0,0,0,
2026-03-23 12:00:00,METAR WMKK 231200Z VRB01KT 9999 FEW017CB 29/24 Q1007 NOSIG,0,1,0,10000,0,0,0,
2026-03-23 11:30:00,METAR WMKK 231130Z VRB01KT 9999 FEW017CB 30/24 Q1007 NOSIG,0,1,0,10000,0,0,0,
2026-03-23 11:00:00,METAR WMKK 231100Z VRB03KT 9999 FEW017CB 30/24 Q1007 NOSIG,0,3,0,10000,0,0,0,
2026-03-23 10:30:00,METAR WMKK 231030Z 23003KT 130V300 9999 FEW017CB 31/24 Q1007 NOSIG,0,3,0,10000,0,0,0,
2026-03-23 10:00:00,METAR WMKK 231000Z 25005KT 160V320 9999 FEW017CB 32/24 Q1006 NOSIG,0,5,0,10000,0,0,0,
2026-03-23 09:30:00,METAR WMKK 230930Z 25007KT 190V320 9999 FEW018 32/24 Q1006 NOSIG,0,7,0,10000,0,0,0,
2026-03-23 09:00:00,METAR WMKK 230900Z VRB05KT 9999 FEW010 32/25 Q1006 NOSIG,0,5,0,10000,0,0,0,
2026-03-23 08:30:00,METAR WMKK 230830Z COR VRB04KT 9000 FEW010 31/24 Q1006 NOSIG,0,4,0,9000,0,0,0,
2026-03-23 08:00:00,METAR WMKK 230800Z 25006KT 160V320 6000 -SHRA FEW010 SCT018 31/24 Q1007 NOSIG,0,6,0,6000,0,0,0,RA
2026-03-23 07:30:00,METAR WMKK 230730Z VRB03KT 9000 VCSH SCT018 34/25 Q1007 NOSIG,0,3,0,9000,0,0,0,"SH,VC"
2026-03-23 07:00:00,METAR WMKK 230700Z VRB04KT 9000 VCSH SCT018 33/24 Q1007 NOSIG,0,4,0,9000,0,0,0,"SH,VC"
2026-03-23 06:30:00,METAR WMKK 230630Z VRB05KT 9000 VCSH SCT018 33/24 Q1008 NOSIG,0,5,0,9000,0,0,0,"SH,VC"
2026-03-23 06:00:00,METAR WMKK 230600Z COR 08004KT 350V160 9000 VCSH SCT019 34/22 Q1008 NOSIG,0,4,0,9000,0,0,0,"SH,VC"
2026-03-23 05:30:00,METAR WMKK 230530Z VRB04KT 9999 SCT018 33/22 Q1008 NOSIG,0,4,0,10000,0,0,0,
2026-03-23 05:00:00,METAR WMKK 230500Z 30005KT 240V040 9999 FEW018 33/22 Q1009 NOSIG,0,5,0,10000,0,0,0,
2026-03-23 04:30:00,METAR WMKK 230430Z VRB04KT 9999 FEW020 33/22 Q1010 NOSIG,0,4,0,10000,0,0,0,
2026-03-23 04:00:00,METAR WMKK 230400Z 05005KT 340V120 9999 FEW020 33/22 Q1010 NOSIG,0,5,0,10000,0,0,0,
2026-03-23 03:30:00,METAR WMKK 230330Z 05007KT 350V140 9999 FEW020 32/22 Q1010 NOSIG,0,7,0,10000,0,0,0,
2026-03-23 03:00:00,METAR WMKK 230300Z 06008KT 340V140 9999 FEW020 32/22 Q1011 NOSIG,0,8,0,10000,0,0,0,
2026-03-23 02:30:00,METAR WMKK 230230Z 05007KT 340V110 9999 FEW020 31/21 Q1011 NOSIG,0,7,0,10000,0,0,0,
2026-03-23 02:00:00,METAR WMKK 230200Z 09004KT 040V150 9999 FEW020 30/22 Q1011 NOSIG,0,4,0,10000,0,0,0,
2026-03-23 01:30:00,METAR WMKK 230130Z 10004KT 040V190 9999 FEW020 29/21 Q1011 NOSIG,0,4,0,10000,0,0,0,
2026-03-23 01:00:00,METAR WMKK 230100Z COR 06008KT 340V110 9999 FEW018 28/21 Q1010 NOSIG,0,8,0,10000,0,0,0,
2026-03-23 00:30:00,METAR WMKK 230030Z 05008KT 020V110 9999 FEW018 27/20 Q1010 NOSIG,0,8,0,10000,0,0,0,
2026-03-23 00:00:00,METAR WMKK 230000Z 06004KT 020V140 9999 FEW030 27/20 Q1010 NOSIG,0,4,0,10000,0,0,0,
2026-03-22 23:30:00,METAR WMKK 222330Z 05006KT 010V090 9999 FEW030 26/20 Q1009 NOSIG,0,6,0,10000,0,0,0,
2026-03-22 23:00:00,METAR WMKK 222300Z 05007KT 360V100 9999 FEW030 26/20 Q1009 NOSIG,0,7,0,10000,0,0,0,
2026-03-22 22:30:00,METAR WMKK 222230Z 05007KT 010V100 9999 FEW030 27/19 Q1009 NOSIG,0,7,0,10000,0,0,0,
2026-03-22 22:00:00,METAR WMKK 222200Z 04007KT 010V080 9999 FEW030 27/20 Q1009 NOSIG,0,7,0,10000,0,0,0,
2026-03-22 21:30:00,METAR WMKK 222130Z 05007KT 350V100 9999 FEW030 27/20 Q1009 NOSIG,0,7,0,10000,0,0,0,
2026-03-22 21:00:00,METAR WMKK 222100Z 04006KT 360V080 9999 FEW030 27/19 Q1009 NOSIG,0,6,0,10000,0,0,0,
2026-03-22 20:30:00,METAR WMKK 222030Z 04007KT 340V080 9999 FEW030 27/20 Q1008 NOSIG,0,7,0,10000,0,0,0,
2026-03-22 20:00:00,METAR WMKK 222000Z 05006KT 010V110 9999 FEW030 27/20 Q1009 NOSIG,0,6,0,10000,0,0,0,
2026-03-22 19:30:00,METAR WMKK 221930Z 06004KT 020V100 9999 FEW030 27/21 Q1009 NOSIG,0,4,0,10000,0,0,0,
2026-03-22 19:00:00,METAR WMKK 221900Z VRB03KT 9999 FEW030 27/22 Q1009 NOSIG,0,3,0,10000,0,0,0,
2026-03-22 18:30:00,METAR WMKK 221830Z 07004KT 020V120 9999 FEW030 27/22 Q1009 NOSIG,0,4,0,10000,0,0,0,
2026-03-22 18:00:00,METAR WMKK 221800Z VRB03KT 9999 FEW030 27/22 Q1009 NOSIG,0,3,0,10000,0,0,0,
2026-03-22 17:30:00,METAR WMKK 221730Z VRB02KT 9999 FEW030 27/23 Q1010 NOSIG,0,2,0,10000,0,0,0,
2026-03-22 17:00:00,METAR WMKK 221700Z VRB03KT 9999 FEW030 27/23 Q1010 NOSIG,0,3,0,10000,0,0,0,
2026-03-22 16:30:00,METAR WMKK 221630Z 07003KT 020V110 9999 FEW030 28/23 Q1010 NOSIG,0,3,0,10000,0,0,0,
2026-03-22 16:00:00,METAR WMKK 221600Z 09004KT 050V200 9999 FEW030 28/23 Q1010 NOSIG,0,4,0,10000,0,0,0,
2026-03-22 15:30:00,METAR WMKK 221530Z 12004KT 050V170 9999 FEW030 28/23 Q1010 NOSIG,0,4,0,10000,0,0,0,
2026-03-22 15:00:00,METAR WMKK 221500Z VRB02KT 9999 FEW030 28/24 Q1010 NOSIG,0,2,0,10000,0,0,0,
2026-03-22 14:30:00,METAR WMKK 221430Z VRB01KT 9999 FEW030 28/24 Q1010 NOSIG,0,1,0,10000,0,0,0,
2026-03-22 14:00:00,METAR WMKK 221400Z VRB02KT 9999 FEW030 28/24 Q1010 NOSIG,0,2,0,10000,0,0,0,
2026-03-22 13:30:00,METAR WMKK 221330Z 00000KT 9999 FEW030 28/24 Q1009 NOSIG,0,0,0,10000,0,0,0,
2026-03-22 13:00:00,METAR WMKK 221300Z VRB02KT 9999 FEW030 28/24 Q1008 NOSIG,0,2,0,10000,0,0,0,
2026-03-22 12:30:00,METAR WMKK 221230Z VRB01KT 9999 FEW017CB 29/24 Q1008 NOSIG,0,1,0,10000,0,0,0,
2026-03-22 12:00:00,METAR WMKK 221200Z 00000KT 9999 FEW017CB 29/24 Q1008 NOSIG,0,0,0,10000,0,0,0,
2026-03-22 11:30:00,METAR WMKK 221130Z 00000KT 9999 FEW017CB 30/24 Q1008 NOSIG,0,0,0,10000,0,0,0,
2026-03-22 11:00:00,METAR WMKK 221100Z VRB02KT 9999 FEW017CB 30/24 Q1007 NOSIG,0,2,0,10000,0,0,0,
2026-03-22 10:30:00,METAR WMKK 221030Z VRB02KT 9999 FEW017CB 31/24 Q1007 NOSIG,0,2,0,10000,0,0,0,
2026-03-22 10:00:00,METAR WMKK 221000Z VRB03KT 9999 FEW017CB 31/23 Q1007 NOSIG,0,3,0,10000,0,0,0,
2026-03-22 09:30:00,METAR WMKK 220930Z 23005KT 140V310 9999 FEW018 32/23 Q1007 NOSIG,0,5,0,10000,0,0,0,
2026-03-22 09:00:00,METAR WMKK 220900Z 24006KT 160V310 9999 FEW018 32/23 Q1007 NOSIG,0,6,0,10000,0,0,0,
2026-03-22 08:30:00,METAR WMKK 220830Z VRB05KT 9999 FEW018 33/24 Q1007 NOSIG,0,5,0,10000,0,0,0,
2026-03-22 08:00:00,METAR WMKK 220800Z VRB05KT 9999 FEW018 33/24 Q1008 NOSIG,0,5,0,10000,0,0,0,
2026-03-22 07:30:00,METAR WMKK 220730Z VRB04KT 9999 FEW018 33/24 Q1008 NOSIG,0,4,0,10000,0,0,0,
2026-03-22 07:00:00,METAR WMKK 220700Z VRB03KT 9999 FEW018 35/23 Q1008 NOSIG,0,3,0,10000,0,0,0,
2026-03-22 06:30:00,METAR WMKK 220630Z 08004KT 350V150 9999 FEW018 34/23 Q1009 NOSIG,0,4,0,10000,0,0,0,
2026-03-22 06:00:00,METAR WMKK 220600Z VRB03KT 9999 FEW018 34/22 Q1009 NOSIG,0,3,0,10000,0,0,0,
2026-03-22 05:30:00,METAR WMKK 220530Z VRB03KT 9999 FEW018 34/22 Q1010 NOSIG,0,3,0,10000,0,0,0,
2026-03-22 05:00:00,METAR WMKK 220500Z 09005KT 020V160 9999 FEW018 33/22 Q1010 NOSIG,0,5,0,10000,0,0,0,
2026-03-22 04:30:00,METAR WMKK 220430Z 05009KT 350V080 9999 FEW018 33/21 Q1011 NOSIG,0,9,0,10000,0,0,0,
2026-03-22 04:00:00,METAR WMKK 220400Z 05011KT 360V110 9999 FEW018 33/21 Q1011 NOSIG,0,11,0,10000,0,0,0,
2026-03-22 03:30:00,METAR WMKK 220330Z 06009KT 350V120 9999 FEW018 32/22 Q1011 NOSIG,0,9,0,10000,0,0,0,
2026-03-22 03:00:00,METAR WMKK 220300Z 05008KT 360V120 9999 FEW018 32/22 Q1011 NOSIG,0,8,0,10000,0,0,0,
2026-03-22 02:30:00,METAR WMKK 220230Z 07007KT 010V140 9999 FEW018 31/22 Q1011 NOSIG,0,7,0,10000,0,0,0,
2026-03-22 02:00:00,METAR WMKK 220200Z 07006KT 360V160 9999 FEW020 30/23 Q1011 NOSIG,0,6,0,10000,0,0,0,
2026-03-22 01:30:00,METAR WMKK 220130Z 10004KT 040V150 9999 FEW020 29/22 Q1011 NOSIG,0,4,0,10000,0,0,0,
2026-03-22 01:00:00,METAR WMKK 220100Z 08003KT 350V150 9999 FEW020 27/22 Q1010 NOSIG,0,3,0,10000,0,0,0,
2026-03-22 00:30:00,METAR WMKK 220030Z 00000KT 9999 FEW030 25/23 Q1010 NOSIG,0,0,0,10000,0,0,0,
2026-03-22 00:00:00,METAR WMKK 220000Z VRB01KT 9999 FEW030 24/22 Q1010 NOSIG,0,1,0,10000,0,0,0,
2026-03-21 23:30:00,METAR WMKK 212330Z VRB02KT 9999 FEW030 24/22 Q1009 NOSIG,0,2,0,10000,0,0,0,
2026-03-21 23:00:00,METAR WMKK 212300Z VRB03KT 9999 FEW030 24/22 Q1009 NOSIG,0,3,0,10000,0,0,0,
2026-03-21 22:30:00,METAR WMKK 212230Z VRB03KT 9999 FEW030 24/22 Q1009 NOSIG,0,3,0,10000,0,0,0,
2026-03-21 22:00:00,METAR WMKK 212200Z 06004KT 010V130 9999 FEW030 25/22 Q1008 NOSIG,0,4,0,10000,0,0,0,
2026-03-21 21:30:00,METAR WMKK 212130Z VRB02KT 9000 FEW010 25/22 Q1008 NOSIG,0,2,0,9000,0,0,0,
2026-03-21 21:00:00,METAR WMKK 212100Z 00000KT 9000 FEW010 24/23 Q1008 NOSIG,0,0,0,9000,0,0,0,
2026-03-21 20:30:00,METAR WMKK 212030Z 00000KT 9999 FEW030 24/22 Q1008 NOSIG,0,0,0,10000,0,0,0,
2026-03-21 20:00:00,METAR WMKK 212000Z VRB01KT 9999 FEW030 24/22 Q1008 NOSIG,0,1,0,10000,0,0,0,
2026-03-21 19:30:00,METAR WMKK 211930Z 00000KT 9999 FEW030 25/23 Q1009 NOSIG,0,0,0,10000,0,0,0,
2026-03-21 19:00:00,METAR WMKK 211900Z VRB03KT 9999 FEW030 25/22 Q1009 NOSIG,0,3,0,10000,0,0,0,
2026-03-21 18:30:00,METAR WMKK 211830Z 07004KT 010V140 9999 FEW030 26/23 Q1009 NOSIG,0,4,0,10000,0,0,0,
2026-03-21 18:00:00,METAR WMKK 211800Z VRB02KT 9000 FEW030 26/23 Q1009 NOSIG,0,2,0,9000,0,0,0,
2026-03-21 17:30:00,METAR WMKK 211730Z VRB02KT 9000 FEW030 26/23 Q1010 NOSIG,0,2,0,9000,0,0,0,
2026-03-21 17:00:00,METAR WMKK 211700Z VRB01KT 9000 FEW030 27/25 Q1010 NOSIG,0,1,0,9000,0,0,0,
2026-03-21 16:30:00,METAR WMKK 211630Z 00000KT 9000 FEW030 26/25 Q1010 NOSIG,0,0,0,9000,0,0,0,
2026-03-21 16:00:00,METAR WMKK 211600Z 00000KT 9000 FEW030 26/25 Q1010 NOSIG,0,0,0,9000,0,0,0,
2026-03-21 15:30:00,METAR WMKK 211530Z VRB01KT 9000 FEW030 26/25 Q1010 NOSIG,0,1,0,9000,0,0,0,
2026-03-21 14:30:00,METAR WMKK 211430Z 00000KT 9000 FEW030 27/25 Q1009 NOSIG,0,0,0,9000,0,0,0,
2026-03-21 14:00:00,METAR WMKK 211400Z VRB02KT 9000 FEW030 27/25 Q1009 NOSIG,0,2,0,9000,0,0,0,
2026-03-21 13:30:00,METAR WMKK 211330Z 00000KT 9000 FEW030 27/25 Q1009 NOSIG,0,0,0,9000,0,0,0,
2026-03-21 13:00:00,METAR WMKK 211300Z VRB01KT 9000 FEW030 28/25 Q1008 NOSIG,0,1,0,9000,0,0,0,
2026-03-21 12:30:00,METAR WMKK 211230Z VRB02KT 9000 FEW030 28/25 Q1008 NOSIG,0,2,0,9000,0,0,0,
2026-03-21 12:00:00,METAR WMKK 211200Z VRB02KT 9999 FEW030 29/24 Q1008 NOSIG,0,2,0,10000,0,0,0,
2026-03-21 11:30:00,METAR WMKK 211130Z VRB02KT 9999 FEW030 30/25 Q1007 NOSIG,0,2,0,10000,0,0,0,
2026-03-21 11:00:00,METAR WMKK 211100Z VRB01KT 9999 FEW018 30/24 Q1007 NOSIG,0,1,0,10000,0,0,0,
2026-03-21 10:30:00,METAR WMKK 211030Z VRB02KT 9999 FEW018 31/24 Q1007 NOSIG,0,2,0,10000,0,0,0,
2026-03-21 10:00:00,METAR WMKK 211000Z VRB03KT 9999 FEW018 32/24 Q1006 NOSIG,0,3,0,10000,0,0,0,
2026-03-21 09:30:00,METAR WMKK 210930Z VRB03KT 9999 FEW018 32/24 Q1006 NOSIG,0,3,0,10000,0,0,0,
2026-03-21 09:00:00,METAR WMKK 210900Z VRB04KT 9999 FEW018 32/25 Q1007 NOSIG,0,4,0,10000,0,0,0,
2026-03-21 08:30:00,METAR WMKK 210830Z VRB06KT 9999 SCT018 32/24 Q1007 NOSIG,0,6,0,10000,0,0,0,
2026-03-21 08:00:00,METAR WMKK 210800Z VRB04KT 9999 SCT018 33/25 Q1007 NOSIG,0,4,0,10000,0,0,0,
2026-03-21 07:30:00,METAR WMKK 210730Z VRB04KT 9000 VCSH FEW017CB SCT018 33/25 Q1008 NOSIG,0,4,0,9000,0,0,0,"SH,VC"
2026-03-21 07:00:00,METAR WMKK 210700Z VRB05KT 9000 VCSH FEW017CB SCT018 32/25 Q1008 NOSIG,0,5,0,9000,0,0,0,"SH,VC"
2026-03-21 06:30:00,METAR WMKK 210630Z VRB03KT 9999 FEW017CB SCT018 32/26 Q1009 NOSIG,0,3,0,10000,0,0,0,
2026-03-21 06:00:00,METAR WMKK 210600Z VRB03KT 9999 SCT018 32/25 Q1009 NOSIG,0,3,0,10000,0,0,0,
2026-03-21 05:30:00,METAR WMKK 210530Z COR 26004KT 200V330 9999 SCT018 32/25 Q1010 NOSIG,0,4,0,10000,0,0,0,
2026-03-21 05:00:00,METAR WMKK 210500Z VRB02KT 9000 SCT018 32/24 Q1010 NOSIG,0,2,0,9000,0,0,0,
2026-03-21 04:30:00,METAR WMKK 210430Z VRB02KT 9000 SCT018 32/24 Q1011 NOSIG,0,2,0,9000,0,0,0,
2026-03-21 04:00:00,METAR WMKK 210400Z 26003KT 200V320 9000 SCT018 31/24 Q1011 NOSIG,0,3,0,9000,0,0,0,
2026-03-21 03:30:00,METAR WMKK 210330Z VRB02KT 9000 SCT018 31/24 Q1011 NOSIG,0,2,0,9000,0,0,0,
2026-03-21 03:00:00,METAR WMKK 210300Z VRB02KT 8000 FEW018 31/24 Q1011 NOSIG,0,2,0,8000,0,0,0,
2026-03-21 02:30:00,METAR WMKK 210230Z VRB02KT 8000 FEW018 31/24 Q1011 NOSIG,0,2,0,8000,0,0,0,
2026-03-21 02:00:00,METAR WMKK 210200Z 10003KT 050V170 8000 FEW018 29/24 Q1011 NOSIG,0,3,0,8000,0,0,0,
2026-03-21 01:30:00,METAR WMKK 210130Z 13003KT 050V210 9000 FEW018 28/24 Q1011 NOSIG,0,3,0,9000,0,0,0,
2026-03-21 01:00:00,METAR WMKK 210100Z COR VRB02KT 9000 FEW018 27/24 Q1011 NOSIG,0,2,0,9000,0,0,0,
2026-03-21 00:30:00,METAR WMKK 210030Z VRB01KT 9000 FEW010 26/24 Q1010 NOSIG,0,1,0,9000,0,0,0,
2026-03-21 00:00:00,METAR WMKK 210000Z 00000KT 9000 FEW010 25/24 Q1010 NOSIG,0,0,0,9000,0,0,0,
2026-03-20 23:30:00,METAR WMKK 202330Z 00000KT 9000 FEW010 25/24 Q1010 NOSIG,0,0,0,9000,0,0,0,
2026-03-20 23:00:00,METAR WMKK 202300Z VRB01KT 8000 FEW008 25/24 Q1009 NOSIG,0,1,0,8000,0,0,0,
2026-03-20 22:30:00,METAR WMKK 202230Z VRB02KT 9000 FEW010 FEW017CB 25/24 Q1009 NOSIG,0,2,0,9000,0,0,0,
2026-03-20 22:00:00,METAR WMKK 202200Z 00000KT 9000 FEW010 FEW017CB 25/24 Q1009 NOSIG,0,0,0,9000,0,0,0,
2026-03-20 21:30:00,METAR WMKK 202130Z VRB02KT 9000 FEW010 FEW017CB 25/24 Q1009 NOSIG,0,2,0,9000,0,0,0,
2026-03-20 21:00:00,METAR WMKK 202100Z VRB02KT 9000 FEW010 FEW017CB 25/24 Q1009 NOSIG,0,2,0,9000,0,0,0,
2026-03-20 20:30:00,METAR WMKK 202030Z 00000KT 9000 FEW010 FEW017CB 25/24 Q1009 NOSIG,0,0,0,9000,0,0,0,
2026-03-20 20:00:00,METAR WMKK 202000Z 00000KT 9000 FEW010 FEW017CB 26/25 Q1009 NOSIG,0,0,0,9000,0,0,0,
2026-03-20 19:30:00,METAR WMKK 201930Z 09003KT 050V130 9000 FEW010 FEW017CB 26/24 Q1009 NOSIG,0,3,0,9000,0,0,0,
2026-03-20 19:00:00,METAR WMKK 201900Z VRB03KT 9000 FEW010 26/25 Q1010 NOSIG,0,3,0,9000,0,0,0,
2026-03-20 18:30:00,METAR WMKK 201830Z 00000KT 9000 FEW010 26/25 Q1010 NOSIG,0,0,0,9000,0,0,0,
2026-03-20 18:00:00,METAR WMKK 201800Z COR VRB01KT 8000 FEW010 26/25 Q1010 NOSIG,0,1,0,8000,0,0,0,
2026-03-20 17:30:00,METAR WMKK 201730Z VRB02KT 8000 FEW010 SCT030 26/25 Q1011 NOSIG,0,2,0,8000,0,0,0,
2026-03-20 17:00:00,METAR WMKK 201700Z 04003KT 340V110 6000 -RA FEW010 FEW017CB SCT030 26/25 Q1011 RERA BECMG FM1725 8000 NSW,0,3,0,6000,0,0,0,"-RA,RA"
2026-03-20 16:30:00,METAR WMKK 201630Z VRB03KT 6000 -RA FEW010 FEW017CB SCT030 26/25 Q1011 RERA NOSIG,0,3,0,6000,0,0,0,"-RA,RA"
2026-03-20 16:00:00,METAR WMKK 201600Z VRB03KT 3000 RA FEW008 FEW017CB SCT030 25/24 Q1011 TEMPO 6000 -RA,0,3,0,3000,0,0,0,"-RA,RA"
2026-03-20 15:40:00,SPECI WMKK 201540Z 29010KT 230V330 3000 RA FEW008 FEW017CB SCT030 25/22 Q1011 NOSIG,0,10,0,3000,0,0,0,RA
2026-03-20 15:30:00,METAR WMKK 201530Z 35009KT 300V060 6000 -RA FEW010 FEW017CB SCT030 25/25 Q1011 TEMPO 5000 RA,0,9,0,6000,0,0,0,"-RA,RA"
2026-03-20 15:00:00,METAR WMKK 201500Z 04004KT 340V100 9000 FEW017CB 28/25 Q1011 TEMPO 5000 RA,0,4,0,9000,0,0,0,RA
2026-03-20 14:30:00,METAR WMKK 201430Z 00000KT 9000 FEW017CB 27/25 Q1010 NOSIG,0,0,0,9000,0,0,0,
2026-03-20 14:00:00,METAR WMKK 201400Z COR 00000KT 9000 FEW017CB 27/25 Q1010 NOSIG,0,0,0,9000,0,0,0,
2026-03-20 13:30:00,METAR WMKK 201330Z 00000KT 9000 FEW017CB 28/25 Q1009 NOSIG,0,0,0,9000,0,0,0,
2026-03-20 13:00:00,METAR WMKK 201300Z COR 00000KT 9000 FEW017CB 28/25 Q1009 NOSIG,0,0,0,9000,0,0,0,
2026-03-20 12:30:00,METAR WMKK 201230Z 00000KT 9000 FEW017CB 28/25 Q1008 NOSIG,0,0,0,9000,0,0,0,
2026-03-20 12:00:00,METAR WMKK 201200Z 00000KT 9000 FEW017CB 29/25 Q1008 NOSIG,0,0,0,9000,0,0,0,
2026-03-20 11:30:00,METAR WMKK 201130Z VRB03KT 9000 FEW017CB 29/24 Q1007 NOSIG,0,3,0,9000,0,0,0,
2026-03-20 11:00:00,METAR WMKK 201100Z VRB03KT 9000 FEW017CB 30/24 Q1006 NOSIG,0,3,0,9000,0,0,0,
2026-03-20 10:30:00,METAR WMKK 201030Z VRB04KT 9000 FEW018 31/25 Q1006 NOSIG,0,4,0,9000,0,0,0,
2026-03-20 10:00:00,METAR WMKK 201000Z 24005KT 170V320 9000 FEW018 31/25 Q1006 NOSIG,0,5,0,9000,0,0,0,
2026-03-20 09:30:00,METAR WMKK 200930Z VRB05KT 9000 FEW018 32/25 Q1006 NOSIG,0,5,0,9000,0,0,0,
2026-03-20 09:00:00,METAR WMKK 200900Z VRB06KT 9000 FEW018 32/25 Q1006 NOSIG,0,6,0,9000,0,0,0,
2026-03-20 08:30:00,METAR WMKK 200830Z VRB06KT 9000 SCT018 33/25 Q1007 NOSIG,0,6,0,9000,0,0,0,
2026-03-20 08:00:00,METAR WMKK 200800Z 25005KT 140V310 9000 SCT018 33/25 Q1007 NOSIG,0,5,0,9000,0,0,0,
2026-03-20 07:30:00,METAR WMKK 200730Z 23005KT 160V320 9000 SCT018 32/25 Q1007 NOSIG,0,5,0,9000,0,0,0,
2026-03-20 07:00:00,METAR WMKK 200700Z 31006KT 230V030 9000 SCT018 34/23 Q1008 NOSIG,0,6,0,9000,0,0,0,
2026-03-20 06:30:00,METAR WMKK 200630Z VRB05KT 9000 SCT018 35/23 Q1008 NOSIG,0,5,0,9000,0,0,0,
2026-03-20 06:00:00,METAR WMKK 200600Z VRB02KT 9000 SCT018 33/23 Q1009 NOSIG,0,2,0,9000,0,0,0,
2026-03-20 05:30:00,METAR WMKK 200530Z VRB03KT 9000 SCT018 33/23 Q1009 NOSIG,0,3,0,9000,0,0,0,
2026-03-20 05:00:00,METAR WMKK 200500Z 27004KT 200V320 9000 SCT018 33/24 Q1010 NOSIG,0,4,0,9000,0,0,0,
2026-03-20 04:30:00,METAR WMKK 200430Z 00000KT 9000 FEW018 32/24 Q1011 NOSIG,0,0,0,9000,0,0,0,
2026-03-20 04:00:00,METAR WMKK 200400Z VRB02KT 9000 FEW018 32/24 Q1011 NOSIG,0,2,0,9000,0,0,0,
2026-03-20 03:30:00,METAR WMKK 200330Z VRB03KT 9000 FEW018 31/24 Q1011 NOSIG,0,3,0,9000,0,0,0,
2026-03-20 03:00:00,METAR WMKK 200300Z VRB03KT 9000 FEW017CB 31/23 Q1012 NOSIG,0,3,0,9000,0,0,0,
2026-03-20 02:30:00,METAR WMKK 200230Z VRB01KT 9999 FEW017CB 30/24 Q1012 NOSIG,0,1,0,10000,0,0,0,
2026-03-20 02:00:00,METAR WMKK 200200Z VRB02KT 9999 FEW017CB 30/23 Q1012 NOSIG,0,2,0,10000,0,0,0,
2026-03-20 01:30:00,METAR WMKK 200130Z VRB02KT 9999 FEW018 29/23 Q1012 NOSIG,0,2,0,10000,0,0,0,
2026-03-20 01:00:00,METAR WMKK 200100Z 05003KT 350V110 9999 FEW018 28/23 Q1011 NOSIG,0,3,0,10000,0,0,0,
2026-03-20 00:30:00,METAR WMKK 200030Z VRB02KT 9000 FEW018 27/22 Q1011 NOSIG,0,2,0,9000,0,0,0,
2026-03-20 00:00:00,METAR WMKK 200000Z 00000KT 9000 FEW018 25/23 Q1010 NOSIG,0,0,0,9000,0,0,0,
2026-03-19 23:30:00,METAR WMKK 192330Z 06003KT 320V120 9000 FEW030 25/22 Q1010 NOSIG,0,3,0,9000,0,0,0,
2026-03-19 23:00:00,METAR WMKK 192300Z VRB02KT 9000 FEW030 25/22 Q1009 NOSIG,0,2,0,9000,0,0,0,
2026-03-19 22:30:00,METAR WMKK 192230Z VRB02KT 9999 FEW030 25/23 Q1009 NOSIG,0,2,0,10000,0,0,0,
2026-03-19 22:00:00,METAR WMKK 192200Z VRB02KT 9999 FEW030 25/23 Q1009 NOSIG,0,2,0,10000,0,0,0,
2026-03-19 21:30:00,METAR WMKK 192130Z VRB02KT 9999 FEW030 25/23 Q1009 NOSIG,0,2,0,10000,0,0,0,
2026-03-19 21:00:00,METAR WMKK 192100Z VRB02KT 9999 FEW030 25/23 Q1009 NOSIG,0,2,0,10000,0,0,0,
2026-03-19 20:30:00,METAR WMKK 192030Z VRB02KT 9999 FEW030 26/23 Q1009 NOSIG,0,2,0,10000,0,0,0,
2026-03-19 20:00:00,METAR WMKK 192000Z 09003KT 030V140 9999 FEW030 26/23 Q1009 NOSIG,0,3,0,10000,0,0,0,
2026-03-19 19:30:00,METAR WMKK 191930Z VRB03KT 9999 FEW030 26/23 Q1009 NOSIG,0,3,0,10000,0,0,0,
2026-03-19 19:00:00,METAR WMKK 191900Z 00000KT 9999 FEW030 26/24 Q1010 NOSIG,0,0,0,10000,0,0,0,
2026-03-19 18:30:00,METAR WMKK 191830Z VRB02KT 9999 FEW030 26/23 Q1010 NOSIG,0,2,0,10000,0,0,0,
2026-03-19 18:00:00,METAR WMKK 191800Z VRB02KT 9999 FEW030 26/23 Q1010 NOSIG,0,2,0,10000,0,0,0,
2026-03-19 17:30:00,METAR WMKK 191730Z VRB02KT 9999 FEW030 26/23 Q1010 NOSIG,0,2,0,10000,0,0,0,
2026-03-19 17:00:00,METAR WMKK 191700Z VRB01KT 9999 FEW030 27/24 Q1010 NOSIG,0,1,0,10000,0,0,0,
2026-03-19 16:30:00,METAR WMKK 191630Z VRB02KT 9999 FEW030 27/23 Q1010 NOSIG,0,2,0,10000,0,0,0,
2026-03-19 16:00:00,METAR WMKK 191600Z 09004KT 040V120 9999 FEW030 27/23 Q1010 NOSIG,0,4,0,10000,0,0,0,
2026-03-19 15:30:00,METAR WMKK 191530Z 07004KT 020V160 9999 FEW030 27/24 Q1010 NOSIG,0,4,0,10000,0,0,0,
2026-03-19 15:00:00,METAR WMKK 191500Z 35004KT 320V090 9999 FEW030 27/24 Q1010 NOSIG,0,4,0,10000,0,0,0,
2026-03-19 14:30:00,METAR WMKK 191430Z 01004KT 320V060 9999 FEW030 27/24 Q1010 NOSIG,0,4,0,10000,0,0,0,
2026-03-19 14:00:00,METAR WMKK 191400Z 03004KT 340V100 9999 FEW030 27/24 Q1010 NOSIG,0,4,0,10000,0,0,0,
2026-03-19 13:30:00,METAR WMKK 191330Z 03004KT 320V070 9999 FEW030 28/24 Q1009 NOSIG,0,4,0,10000,0,0,0,
2026-03-19 13:00:00,METAR WMKK 191300Z 02005KT 300V080 9999 FEW030 28/24 Q1009 NOSIG,0,5,0,10000,0,0,0,
2026-03-19 12:30:00,METAR WMKK 191230Z 01006KT 330V060 9999 FEW030 29/24 Q1009 NOSIG,0,6,0,10000,0,0,0,
2026-03-19 12:00:00,METAR WMKK 191200Z 30003KT 270V330 9999 FEW017CB 30/23 Q1008 NOSIG,0,3,0,10000,0,0,0,
2026-03-19 11:30:00,METAR WMKK 191130Z VRB02KT 9000 FEW017CB 30/24 Q1008 NOSIG,0,2,0,9000,0,0,0,
2026-03-19 11:00:00,METAR WMKK 191100Z 27003KT 220V320 9999 FEW017CB 30/23 Q1008 NOSIG,0,3,0,10000,0,0,0,
2026-03-19 10:30:00,METAR WMKK 191030Z VRB03KT 9999 FEW017CB 31/23 Q1007 NOSIG,0,3,0,10000,0,0,0,
2026-03-19 10:00:00,METAR WMKK 191000Z VRB04KT 9999 FEW017CB 31/23 Q1006 NOSIG,0,4,0,10000,0,0,0,
2026-03-19 09:30:00,METAR WMKK 190930Z VRB03KT 9999 FEW017CB 32/23 Q1006 NOSIG,0,3,0,10000,0,0,0,
2026-03-19 09:00:00,METAR WMKK 190900Z VRB04KT 9999 FEW017CB 33/23 Q1007 NOSIG,0,4,0,10000,0,0,0,
2026-03-19 08:30:00,METAR WMKK 190830Z VRB04KT 9999 SCT018 33/24 Q1007 NOSIG,0,4,0,10000,0,0,0,
2026-03-19 08:00:00,METAR WMKK 190800Z VRB05KT 9999 SCT018 33/23 Q1007 NOSIG,0,5,0,10000,0,0,0,
2026-03-19 07:30:00,METAR WMKK 190730Z VRB05KT 9999 SCT018 33/24 Q1008 NOSIG,0,5,0,10000,0,0,0,
2026-03-19 07:00:00,METAR WMKK 190700Z VRB05KT 9999 SCT018 33/24 Q1008 NOSIG,0,5,0,10000,0,0,0,
2026-03-19 06:30:00,METAR WMKK 190630Z VRB06KT 9999 FEW017CB SCT018 34/25 Q1009 NOSIG,0,6,0,10000,0,0,0,
2026-03-19 06:00:00,METAR WMKK 190600Z VRB03KT 9999 FEW017CB SCT018 34/22 Q1009 NOSIG,0,3,0,10000,0,0,0,
2026-03-19 05:30:00,METAR WMKK 190530Z VRB04KT 9999 FEW017CB SCT018 34/22 Q1010 NOSIG,0,4,0,10000,0,0,0,
2026-03-19 05:00:00,METAR WMKK 190500Z VRB04KT 9999 SCT018 34/22 Q1011 NOSIG,0,4,0,10000,0,0,0,
2026-03-19 04:30:00,METAR WMKK 190430Z 06005KT 340V140 9999 FEW018 34/23 Q1011 NOSIG,0,5,0,10000,0,0,0,
2026-03-19 04:00:00,METAR WMKK 190400Z VRB02KT 9999 FEW018 32/23 Q1011 NOSIG,0,2,0,10000,0,0,0,
2026-03-19 03:30:00,METAR WMKK 190330Z VRB04KT 9999 FEW018 32/23 Q1012 NOSIG,0,4,0,10000,0,0,0,
2026-03-19 03:00:00,METAR WMKK 190300Z VRB01KT 9999 FEW018 31/23 Q1012 NOSIG,0,1,0,10000,0,0,0,
2026-03-19 02:30:00,METAR WMKK 190230Z VRB02KT 9999 FEW018 30/23 Q1012 NOSIG,0,2,0,10000,0,0,0,
2026-03-19 02:00:00,METAR WMKK 190200Z VRB03KT 9999 FEW018 29/22 Q1012 NOSIG,0,3,0,10000,0,0,0,
2026-03-19 01:30:00,METAR WMKK 190130Z VRB02KT 9999 FEW018 28/23 Q1011 NOSIG,0,2,0,10000,0,0,0,
2026-03-19 01:00:00,METAR WMKK 190100Z VRB04KT 9999 FEW018 28/22 Q1011 NOSIG,0,4,0,10000,0,0,0,
2026-03-19 00:30:00,METAR WMKK 190030Z 09003KT 030V140 9999 FEW018 27/22 Q1011 NOSIG,0,3,0,10000,0,0,0,
2026-03-19 00:00:00,METAR WMKK 190000Z VRB02KT 9999 FEW030 26/22 Q1010 NOSIG,0,2,0,10000,0,0,0,
2026-03-18 23:30:00,METAR WMKK 182330Z 08003KT 030V120 9999 FEW017CB 25/22 Q1010 NOSIG,0,3,0,10000,0,0,0,
2026-03-18 23:00:00,METAR WMKK 182300Z 05005KT 360V110 9999 FEW017CB 25/22 Q1009 NOSIG,0,5,0,10000,0,0,0,
2026-03-18 22:30:00,METAR WMKK 182230Z 00000KT 9000 FEW010 23/22 Q1009 NOSIG,0,0,0,9000,0,0,0,
2026-03-18 22:00:00,METAR WMKK 182200Z 00000KT 9000 FEW010 24/22 Q1009 NOSIG,0,0,0,9000,0,0,0,
2026-03-18 21:30:00,METAR WMKK 182130Z 00000KT 9000 FEW010 24/22 Q1009 NOSIG,0,0,0,9000,0,0,0,
2026-03-18 21:00:00,METAR WMKK 182100Z 00000KT 9000 FEW010 24/22 Q1009 NOSIG,0,0,0,9000,0,0,0,
2026-03-18 20:30:00,METAR WMKK 182030Z 00000KT 9000 FEW030 24/22 Q1009 NOSIG,0,0,0,9000,0,0,0,
2026-03-18 20:00:00,METAR WMKK 182000Z VRB01KT 9000 FEW030 24/23 Q1009 NOSIG,0,1,0,9000,0,0,0,
2026-03-18 19:30:00,METAR WMKK 181930Z VRB02KT 9000 FEW030 24/23 Q1009 NOSIG,0,2,0,9000,0,0,0,
2026-03-18 19:00:00,METAR WMKK 181900Z 00000KT 9000 FEW030 25/23 Q1009 NOSIG,0,0,0,9000,0,0,0,
2026-03-18 18:30:00,METAR WMKK 181830Z VRB01KT 9000 FEW030 25/23 Q1010 NOSIG,0,1,0,9000,0,0,0,
2026-03-18 18:00:00,METAR WMKK 181800Z 08004KT 030V120 9000 FEW030 26/23 Q1010 NOSIG,0,4,0,9000,0,0,0,
2026-03-18 17:30:00,METAR WMKK 181730Z 10005KT 080V140 9000 FEW030 27/23 Q1010 NOSIG,0,5,0,9000,0,0,0,
2026-03-18 17:00:00,METAR WMKK 181700Z VRB03KT 9000 FEW030 27/23 Q1011 NOSIG,0,3,0,9000,0,0,0,
2026-03-18 16:30:00,METAR WMKK 181630Z 08003KT 050V120 9000 FEW030 27/23 Q1011 NOSIG,0,3,0,9000,0,0,0,
2026-03-18 16:00:00,METAR WMKK 181600Z VRB02KT 9000 FEW030 27/24 Q1011 NOSIG,0,2,0,9000,0,0,0,
2026-03-18 15:30:00,METAR WMKK 181530Z 07003KT 020V140 9000 FEW010 27/24 Q1011 NOSIG,0,3,0,9000,0,0,0,
2026-03-18 15:00:00,METAR WMKK 181500Z VRB02KT 9000 FEW010 26/25 Q1011 NOSIG,0,2,0,9000,0,0,0,
2026-03-18 14:30:00,METAR WMKK 181430Z 00000KT 9000 FEW030 26/25 Q1010 NOSIG,0,0,0,9000,0,0,0,
2026-03-18 14:00:00,METAR WMKK 181400Z 00000KT 9000 FEW030 26/25 Q1010 NOSIG,0,0,0,9000,0,0,0,
2026-03-18 13:30:00,METAR WMKK 181330Z 00000KT 9999 FEW030 27/25 Q1009 NOSIG,0,0,0,10000,0,0,0,
2026-03-18 13:00:00,METAR WMKK 181300Z 00000KT 9999 FEW030 27/25 Q1009 NOSIG,0,0,0,10000,0,0,0,
2026-03-18 12:30:00,METAR WMKK 181230Z COR VRB02KT 9999 FEW030 28/25 Q1009 NOSIG,0,2,0,10000,0,0,0,
2026-03-18 12:00:00,METAR WMKK 181200Z VRB02KT 9999 FEW030 28/25 Q1008 NOSIG,0,2,0,10000,0,0,0,
2026-03-18 11:30:00,METAR WMKK 181130Z VRB02KT 9999 FEW030 29/25 Q1008 NOSIG,0,2,0,10000,0,0,0,
2026-03-18 11:00:00,METAR WMKK 181100Z VRB03KT 9999 FEW030 29/24 Q1007 NOSIG,0,3,0,10000,0,0,0,
2026-03-18 10:30:00,METAR WMKK 181030Z VRB02KT 9999 FEW018 30/24 Q1007 NOSIG,0,2,0,10000,0,0,0,
2026-03-18 10:00:00,METAR WMKK 181000Z VRB02KT 9999 FEW018 31/24 Q1007 NOSIG,0,2,0,10000,0,0,0,
2026-03-18 09:30:00,METAR WMKK 180930Z VRB02KT 9999 FEW018 32/24 Q1007 NOSIG,0,2,0,10000,0,0,0,
2026-03-18 09:00:00,METAR WMKK 180900Z VRB03KT 9999 FEW017CB 32/23 Q1007 NOSIG,0,3,0,10000,0,0,0,
2026-03-18 08:30:00,METAR WMKK 180830Z COR 15005KT 080V240 9999 FEW017CB 33/23 Q1007 NOSIG,0,5,0,10000,0,0,0,
2026-03-18 08:00:00,METAR WMKK 180800Z VRB04KT 9999 SCT018 33/23 Q1007 NOSIG,0,4,0,10000,0,0,0,
2026-03-18 07:30:00,METAR WMKK 180730Z VRB04KT 9999 SCT018 33/23 Q1008 NOSIG,0,4,0,10000,0,0,0,
2026-03-18 07:00:00,METAR WMKK 180700Z VRB02KT 9999 SCT018 32/24 Q1009 NOSIG,0,2,0,10000,0,0,0,
2026-03-18 06:30:00,METAR WMKK 180630Z VRB03KT 9999 SCT018 33/24 Q1009 NOSIG,0,3,0,10000,0,0,0,
2026-03-18 06:00:00,METAR WMKK 180600Z VRB03KT 9999 SCT018 33/22 Q1010 NOSIG,0,3,0,10000,0,0,0,
2026-03-18 05:30:00,METAR WMKK 180530Z VRB03KT 9999 FEW018 33/22 Q1010 NOSIG,0,3,0,10000,0,0,0,
2026-03-18 05:00:00,METAR WMKK 180500Z VRB04KT 9999 FEW018 33/22 Q1011 NOSIG,0,4,0,10000,0,0,0,
2026-03-18 04:30:00,METAR WMKK 180430Z VRB03KT 9999 FEW018 33/22 Q1011 NOSIG,0,3,0,10000,0,0,0,
2026-03-18 04:00:00,METAR WMKK 180400Z VRB03KT 9999 FEW018 32/22 Q1012 NOSIG,0,3,0,10000,0,0,0,
2026-03-18 03:30:00,METAR WMKK 180330Z 03005KT 300V110 9000 FEW018 32/21 Q1012 NOSIG,0,5,0,9000,0,0,0,
2026-03-18 03:00:00,METAR WMKK 180300Z 05006KT 340V140 9000 FEW018 32/21 Q1012 NOSIG,0,6,0,9000,0,0,0,
2026-03-18 02:30:00,METAR WMKK 180230Z VRB04KT 9000 FEW018 31/22 Q1012 NOSIG,0,4,0,9000,0,0,0,
2026-03-18 02:00:00,METAR WMKK 180200Z VRB03KT 9000 FEW018 30/22 Q1012 NOSIG,0,3,0,9000,0,0,0,
2026-03-18 01:30:00,METAR WMKK 180130Z 09004KT 050V140 9000 FEW018 29/22 Q1012 NOSIG,0,4,0,9000,0,0,0,
2026-03-18 01:00:00,METAR WMKK 180100Z VRB03KT 9000 FEW018 28/22 Q1011 NOSIG,0,3,0,9000,0,0,0,
2026-03-18 00:30:00,METAR WMKK 180030Z VRB01KT 9000 FEW018 27/22 Q1011 NOSIG,0,1,0,9000,0,0,0,
2026-03-18 00:00:00,METAR WMKK 180000Z 00000KT 9000 FEW018 25/23 Q1011 NOSIG,0,0,0,9000,0,0,0,
2026-03-17 23:30:00,METAR WMKK 172330Z 00000KT 9000 FEW010 24/23 Q1010 NOSIG,0,0,0,9000,0,0,0,
2026-03-17 23:00:00,METAR WMKK 172300Z 00000KT 9000 FEW010 24/23 Q1010 NOSIG,0,0,0,9000,0,0,0,
2026-03-17 22:30:00,METAR WMKK 172230Z VRB02KT 9000 FEW010 24/23 Q1009 NOSIG,0,2,0,9000,0,0,0,
2026-03-17 22:00:00,METAR WMKK 172200Z VRB02KT 9000 FEW010 24/23 Q1009 NOSIG,0,2,0,9000,0,0,0,
2026-03-17 21:30:00,METAR WMKK 172130Z VRB02KT 9000 FEW010 24/23 Q1009 NOSIG,0,2,0,9000,0,0,0,
2026-03-17 21:00:00,METAR WMKK 172100Z 00000KT 9000 FEW010 24/23 Q1009 NOSIG,0,0,0,9000,0,0,0,
2026-03-17 20:30:00,METAR WMKK 172030Z COR VRB01KT 9000 FEW010 24/23 Q1009 NOSIG,0,1,0,9000,0,0,0,
2026-03-17 20:00:00,METAR WMKK 172000Z COR 00000KT 9000 FEW010 FEW017CB 24/23 Q1009 NOSIG,0,0,0,9000,0,0,0,
2026-03-17 19:30:00,METAR WMKK 171930Z 00000KT 9999 FEW017CB 25/23 Q1009 NOSIG,0,0,0,10000,0,0,0,
2026-03-17 19:00:00,METAR WMKK 171900Z VRB01KT 9999 FEW017CB 25/23 Q1009 NOSIG,0,1,0,10000,0,0,0,
2026-03-17 18:30:00,METAR WMKK 171830Z 09003KT 040V140 9999 FEW030 25/23 Q1010 NOSIG,0,3,0,10000,0,0,0,
2026-03-17 18:00:00,METAR WMKK 171800Z 10003KT 060V150 9999 FEW030 26/23 Q1010 NOSIG,0,3,0,10000,0,0,0,
2026-03-17 17:30:00,METAR WMKK 171730Z 10004KT 050V140 9999 FEW030 26/23 Q1010 NOSIG,0,4,0,10000,0,0,0,
2026-03-17 17:00:00,METAR WMKK 171700Z VRB03KT 9999 FEW030 26/24 Q1011 NOSIG,0,3,0,10000,0,0,0,
2026-03-17 16:30:00,METAR WMKK 171630Z 09004KT 060V120 9999 FEW030 26/24 Q1011 NOSIG,0,4,0,10000,0,0,0,
2026-03-17 16:00:00,METAR WMKK 171600Z 00000KT 9999 FEW030 26/24 Q1011 NOSIG,0,0,0,10000,0,0,0,
2026-03-17 15:30:00,METAR WMKK 171530Z VRB02KT 9999 FEW030 26/24 Q1011 NOSIG,0,2,0,10000,0,0,0,
2026-03-17 15:00:00,METAR WMKK 171500Z COR 00000KT 9999 FEW030 26/24 Q1011 NOSIG,0,0,0,10000,0,0,0,
2026-03-17 14:30:00,METAR WMKK 171430Z VRB02KT 9000 FEW017CB 26/24 Q1011 NOSIG,0,2,0,9000,0,0,0,
2026-03-17 14:00:00,METAR WMKK 171400Z VRB03KT 9000 FEW010 FEW017CB 26/24 Q1010 RETSRA NOSIG,0,3,0,9000,1,0,0,RA
2026-03-17 13:30:00,METAR WMKK 171330Z VRB03KT 8000 -TSRA FEW010 FEW017CB SCT030 25/24 Q1010 NOSIG,0,3,0,8000,1,0,0,RA
2026-03-17 13:00:00,METAR WMKK 171300Z VRB02KT 8000 -TSRA FEW010 FEW017CB SCT030 25/24 Q1009 NOSIG,0,2,0,8000,1,0,0,RA
2026-03-17 12:30:00,METAR WMKK 171230Z VRB02KT 8000 -TSRA FEW010 FEW017CB SCT030 25/24 Q1009 NOSIG,0,2,0,8000,1,0,0,RA
2026-03-17 12:00:00,METAR WMKK 171200Z 12005KT 050V200 8000 -TSRA FEW008 FEW017CB SCT030 26/24 Q1009 TEMPO 6000 TSRA,0,5,0,8000,1,0,0,"RA,TS"
2026-03-17 11:30:00,METAR WMKK 171130Z 07011KT 360V150 9000 TS FEW017CB 28/22 Q1009 TEMPO 5000 TSRA,0,11,0,9000,1,0,0,"RA,TS"
2026-03-17 11:00:00,METAR WMKK 171100Z VRB02KT 9000 TS FEW017CB 30/24 Q1008 TEMPO 7000 -TSRA,0,2,0,9000,1,0,0,"RA,TS"
2026-03-17 10:30:00,METAR WMKK 171030Z VRB05KT 9000 TS VCSH FEW017CB 31/24 Q1007 NOSIG,0,5,0,9000,1,0,0,"SH,TS,VC"
2026-03-17 10:06:00,SPECI WMKK 171006Z 24005KT 170V310 9000 TS FEW017CB 31/24 Q1007 NOSIG,0,5,0,9000,1,0,0,TS
2026-03-17 10:00:00,METAR WMKK 171000Z VRB05KT 9999 FEW017CB 31/24 Q1007 NOSIG,0,5,0,10000,0,0,0,
2026-03-17 09:30:00,METAR WMKK 170930Z VRB04KT 9999 FEW017CB 32/24 Q1006 NOSIG,0,4,0,10000,0,0,0,
2026-03-17 09:00:00,METAR WMKK 170900Z VRB03KT 9999 FEW017CB 32/24 Q1006 NOSIG,0,3,0,10000,0,0,0,
2026-03-17 08:30:00,METAR WMKK 170830Z VRB04KT 9999 FEW017CB SCT018 32/23 Q1006 NOSIG,0,4,0,10000,0,0,0,
2026-03-17 08:00:00,METAR WMKK 170800Z VRB04KT 9999 FEW017CB SCT018 33/24 Q1007 NOSIG,0,4,0,10000,0,0,0,
2026-03-17 07:30:00,METAR WMKK 170730Z VRB04KT 9999 FEW017CB SCT018 33/24 Q1007 NOSIG,0,4,0,10000,0,0,0,
2026-03-17 07:00:00,METAR WMKK 170700Z VRB05KT 9999 FEW017CB SCT018 33/24 Q1008 NOSIG,0,5,0,10000,0,0,0,
2026-03-17 06:30:00,METAR WMKK 170630Z VRB03KT 9999 FEW017CB SCT018 34/24 Q1009 NOSIG,0,3,0,10000,0,0,0,
2026-03-17 06:00:00,METAR WMKK 170600Z VRB04KT 9999 SCT018 34/22 Q1009 NOSIG,0,4,0,10000,0,0,0,
2026-03-17 05:30:00,METAR WMKK 170530Z VRB06KT 9999 SCT018 33/22 Q1010 NOSIG,0,6,0,10000,0,0,0,
2026-03-17 05:00:00,METAR WMKK 170500Z VRB05KT 9999 FEW018 33/22 Q1010 NOSIG,0,5,0,10000,0,0,0,
2026-03-17 04:30:00,METAR WMKK 170430Z VRB04KT 9999 FEW018 33/22 Q1011 NOSIG,0,4,0,10000,0,0,0,
2026-03-17 04:00:00,METAR WMKK 170400Z VRB04KT 9999 FEW018 33/22 Q1011 NOSIG,0,4,0,10000,0,0,0,
2026-03-17 03:30:00,METAR WMKK 170330Z VRB03KT 9999 FEW018 32/22 Q1011 NOSIG,0,3,0,10000,0,0,0,
2026-03-17 03:00:00,METAR WMKK 170300Z VRB04KT 9000 FEW018 31/23 Q1011 NOSIG,0,4,0,9000,0,0,0,
2026-03-17 02:30:00,METAR WMKK 170230Z 09005KT 360V170 9000 FEW018 31/22 Q1011 NOSIG,0,5,0,9000,0,0,0,
2026-03-17 02:00:00,METAR WMKK 170200Z 06009KT 340V120 9000 FEW018 30/22 Q1011 NOSIG,0,9,0,9000,0,0,0,
2026-03-17 01:30:00,METAR WMKK 170130Z 06007KT 350V110 9000 FEW018 29/22 Q1011 NOSIG,0,7,0,9000,0,0,0,
2026-03-17 01:00:00,METAR WMKK 170100Z 06006KT 010V120 9000 FEW018 28/22 Q1011 NOSIG,0,6,0,9000,0,0,0,
2026-03-17 00:30:00,METAR WMKK 170030Z 05005KT 350V110 9000 FEW018 26/22 Q1010 NOSIG,0,5,0,9000,0,0,0,
2026-03-17 00:00:00,METAR WMKK 170000Z 00000KT 9000 FEW018 24/22 Q1010 NOSIG,0,0,0,9000,0,0,0,
2026-03-16 23:30:00,METAR WMKK 162330Z 00000KT 9000 FEW030 24/22 Q1009 NOSIG,0,0,0,9000,0,0,0,
2026-03-16 23:00:00,METAR WMKK 162300Z 10003KT 050V140 9000 FEW030 24/22 Q1009 NOSIG,0,3,0,9000,0,0,0,
2026-03-16 22:30:00,METAR WMKK 162230Z 09003KT 030V160 9000 FEW030 25/22 Q1009 NOSIG,0,3,0,9000,0,0,0,
2026-03-16 22:00:00,METAR WMKK 162200Z 07006KT 020V110 9000 FEW010 25/22 Q1008 NOSIG,0,6,0,9000,0,0,0,
2026-03-16 21:30:00,METAR WMKK 162130Z 10004KT 060V150 9000 FEW010 25/22 Q1008 NOSIG,0,4,0,9000,0,0,0,
2026-03-16 21:00:00,METAR WMKK 162100Z 00000KT 9000 FEW010 24/22 Q1008 NOSIG,0,0,0,9000,0,0,0,
2026-03-16 20:30:00,METAR WMKK 162030Z 00000KT 9000 FEW010 24/22 Q1009 NOSIG,0,0,0,9000,0,0,0,
2026-03-16 20:00:00,METAR WMKK 162000Z VRB01KT 9000 FEW030 24/22 Q1009 NOSIG,0,1,0,9000,0,0,0,
2026-03-16 19:30:00,METAR WMKK 161930Z VRB03KT 9000 FEW030 24/22 Q1009 NOSIG,0,3,0,9000,0,0,0,
2026-03-16 19:00:00,METAR WMKK 161900Z 00000KT 9000 FEW010 24/23 Q1009 NOSIG,0,0,0,9000,0,0,0,
2026-03-16 18:30:00,METAR WMKK 161830Z 00000KT 9000 FEW010 24/23 Q1009 NOSIG,0,0,0,9000,0,0,0,
2026-03-16 18:00:00,METAR WMKK 161800Z VRB03KT 9000 FEW010 25/23 Q1009 NOSIG,0,3,0,9000,0,0,0,
2026-03-16 17:30:00,METAR WMKK 161730Z 08003KT 050V120 9000 FEW010 25/23 Q1010 NOSIG,0,3,0,9000,0,0,0,
2026-03-16 17:00:00,METAR WMKK 161700Z 00000KT 9000 FEW010 24/24 Q1010 NOSIG,0,0,0,9000,0,0,0,
2026-03-16 16:30:00,METAR WMKK 161630Z 00000KT 9000 FEW010 25/24 Q1011 NOSIG,0,0,0,9000,0,0,0,
2026-03-16 16:00:00,METAR WMKK 161600Z VRB01KT 9000 FEW010 25/24 Q1011 NOSIG,0,1,0,9000,0,0,0,
2026-03-16 15:30:00,METAR WMKK 161530Z VRB02KT 9000 FEW010 25/23 Q1011 NOSIG,0,2,0,9000,0,0,0,
2026-03-16 15:00:00,METAR WMKK 161500Z COR 00000KT 9000 FEW010 25/24 Q1010 NOSIG,0,0,0,9000,0,0,0,
2026-03-16 14:30:00,METAR WMKK 161430Z 08004KT 030V140 9999 FEW030 26/23 Q1010 NOSIG,0,4,0,10000,0,0,0,
2026-03-16 14:00:00,METAR WMKK 161400Z 00000KT 9999 FEW030 25/23 Q1010 NOSIG,0,0,0,10000,0,0,0,
2026-03-16 13:30:00,METAR WMKK 161330Z VRB03KT 9999 FEW030 25/23 Q1009 NOSIG,0,3,0,10000,0,0,0,
2026-03-16 13:00:00,METAR WMKK 161300Z VRB03KT 9000 FEW010 26/23 Q1009 NOSIG,0,3,0,9000,0,0,0,
2026-03-16 12:30:00,METAR WMKK 161230Z 00000KT 9000 FEW010 25/24 Q1008 NOSIG,0,0,0,9000,0,0,0,
2026-03-16 12:00:00,METAR WMKK 161200Z 00000KT 9000 FEW010 26/24 Q1008 NOSIG,0,0,0,9000,0,0,0,
2026-03-16 11:30:00,METAR WMKK 161130Z 00000KT 9000 FEW010 26/24 Q1008 NOSIG,0,0,0,9000,0,0,0,
2026-03-16 11:00:00,METAR WMKK 161100Z VRB01KT 9000 FEW010 SCT030 26/25 Q1008 RETSRA NOSIG,0,1,0,9000,1,0,0,RA
2026-03-16 10:30:00,METAR WMKK 161030Z VRB03KT 9000 -TSRA FEW010 FEW017CB SCT030 26/24 Q1008 NOSIG,0,3,0,9000,1,0,0,RA
2026-03-16 10:00:00,METAR WMKK 161000Z VRB02KT 9000 -TSRA FEW010 FEW017CB SCT030 25/24 Q1008 NOSIG,0,2,0,9000,1,0,0,RA
2026-03-16 09:30:00,METAR WMKK 160930Z 24003KT 150V320 8000 -TSRA FEW010 FEW017CB SCT030 24/23 Q1008 NOSIG,0,3,0,8000,1,0,0,RA
2026-03-16 09:00:00,METAR WMKK 160900Z VRB03KT 8000 -TSRA FEW010 FEW017CB SCT030 25/23 Q1007 NOSIG,0,3,0,8000,1,0,0,RA
2026-03-16 08:30:00,METAR WMKK 160830Z VRB03KT 8000 -TSRA FEW010 FEW017CB SCT018 26/25 Q1007 TEMPO 6000 -TSRA,0,3,0,8000,1,0,0,RA
2026-03-16 08:26:00,SPECI WMKK 160826Z VRB03KT 8000 -TSRA FEW010 FEW017CB SCT018 26/25 Q1007 TEMPO 6000 -TSRA,0,3,0,8000,1,0,0,RA
2026-03-16 08:00:00,METAR WMKK 160800Z 26005KT 180V320 8000 -SHRA FEW010 FEW017CB SCT018 28/25 Q1007 NOSIG,0,5,0,8000,0,0,0,RA
2026-03-16 07:30:00,METAR WMKK 160730Z VRB03KT 9000 VCSH FEW017CB SCT018 30/24 Q1008 TEMPO 7000 -TSRA,0,3,0,9000,1,0,0,"RA,SH,VC"
2026-03-16 07:00:00,METAR WMKK 160700Z VRB03KT 9000 VCSH FEW017CB SCT018 31/25 Q1008 NOSIG,0,3,0,9000,0,0,0,"SH,VC"
2026-03-16 06:30:00,METAR WMKK 160630Z VRB02KT 9999 FEW017CB SCT018 33/24 Q1009 NOSIG,0,2,0,10000,0,0,0,
2026-03-16 06:00:00,METAR WMKK 160600Z VRB04KT 9999 FEW017CB SCT018 34/23 Q1009 NOSIG,0,4,0,10000,0,0,0,
2026-03-16 05:30:00,METAR WMKK 160530Z VRB03KT 9999 FEW017CB SCT018 33/22 Q1010 NOSIG,0,3,0,10000,0,0,0,
2026-03-16 05:00:00,METAR WMKK 160500Z VRB03KT 9999 FEW017CB SCT018 33/22 Q1010 NOSIG,0,3,0,10000,0,0,0,
2026-03-16 04:30:00,METAR WMKK 160430Z VRB05KT 9999 SCT018 33/22 Q1011 NOSIG,0,5,0,10000,0,0,0,
2026-03-16 04:00:00,METAR WMKK 160400Z 08007KT 360V150 9999 FEW018 33/23 Q1011 NOSIG,0,7,0,10000,0,0,0,
2026-03-16 03:30:00,METAR WMKK 160330Z 04005KT 310V110 9999 FEW018 32/23 Q1012 NOSIG,0,5,0,10000,0,0,0,
2026-03-16 03:00:00,METAR WMKK 160300Z 04007KT 350V080 9999 FEW018 31/22 Q1012 NOSIG,0,7,0,10000,0,0,0,
2026-03-16 02:30:00,METAR WMKK 160230Z 05008KT 350V110 9999 FEW018 30/23 Q1012 NOSIG,0,8,0,10000,0,0,0,
2026-03-16 02:00:00,METAR WMKK 160200Z 04008KT 350V110 9999 FEW018 29/23 Q1011 NOSIG,0,8,0,10000,0,0,0,
2026-03-16 01:30:00,METAR WMKK 160130Z 05008KT 010V120 9999 FEW018 28/22 Q1011 NOSIG,0,8,0,10000,0,0,0,
2026-03-16 01:00:00,METAR WMKK 160100Z 05006KT 350V130 9000 FEW017CB 27/23 Q1010 NOSIG,0,6,0,9000,0,0,0,
2026-03-16 00:30:00,METAR WMKK 160030Z 05004KT 350V110 9000 FEW017CB 26/23 Q1010 NOSIG,0,4,0,9000,0,0,0,
2026-03-16 00:00:00,METAR WMKK 160000Z VRB02KT 8000 FEW010 FEW017CB 24/23 Q1010 NOSIG,0,2,0,8000,0,0,0,
2026-03-15 23:30:00,METAR WMKK 152330Z 00000KT 7000 FEW010 FEW017CB 23/23 Q1010 NOSIG,0,0,0,7000,0,0,0,
2026-03-15 23:00:00,METAR WMKK 152300Z VRB02KT 7000 FEW010 FEW017CB 23/23 Q1009 NOSIG,0,2,0,7000,0,0,0,
2026-03-15 22:30:00,METAR WMKK 152230Z 00000KT 7000 FEW010 FEW017CB 23/23 Q1009 NOSIG,0,0,0,7000,0,0,0,
2026-03-15 22:00:00,METAR WMKK 152200Z 00000KT 7000 FEW010 FEW017CB 23/23 Q1009 NOSIG,0,0,0,7000,0,0,0,
2026-03-15 21:30:00,METAR WMKK 152130Z 00000KT 7000 FEW010 FEW017CB 23/23 Q1009 NOSIG,0,0,0,7000,0,0,0,
2026-03-15 21:00:00,METAR WMKK 152100Z 00000KT 7000 FEW010 24/23 Q1010 NOSIG,0,0,0,7000,0,0,0,
2026-03-15 20:30:00,METAR WMKK 152030Z VRB01KT 7000 FEW010 24/23 Q1009 NOSIG,0,1,0,7000,0,0,0,
2026-03-15 20:00:00,METAR WMKK 152000Z 00000KT 7000 FEW010 24/23 Q1010 NOSIG,0,0,0,7000,0,0,0,
2026-03-15 19:30:00,METAR WMKK 151930Z 00000KT 7000 FEW010 24/23 Q1010 NOSIG,0,0,0,7000,0,0,0,
2026-03-15 19:00:00,METAR WMKK 151900Z VRB01KT 8000 FEW010 24/23 Q1010 NOSIG,0,1,0,8000,0,0,0,
2026-03-15 18:30:00,METAR WMKK 151830Z 00000KT 8000 FEW010 24/23 Q1010 NOSIG,0,0,0,8000,0,0,0,
2026-03-15 18:00:00,METAR WMKK 151800Z 00000KT 9000 FEW010 25/24 Q1011 NOSIG,0,0,0,9000,0,0,0,
2026-03-15 17:30:00,METAR WMKK 151730Z VRB02KT 9000 FEW010 25/23 Q1011 NOSIG,0,2,0,9000,0,0,0,
2026-03-15 17:00:00,METAR WMKK 151700Z VRB02KT 9000 FEW010 24/24 Q1011 NOSIG,0,2,0,9000,0,0,0,
2026-03-15 16:30:00,METAR WMKK 151630Z VRB02KT 9999 FEW030 24/23 Q1012 NOSIG,0,2,0,10000,0,0,0,
2026-03-15 16:00:00,METAR WMKK 151600Z 00000KT 9999 FEW030 24/23 Q1012 NOSIG,0,0,0,10000,0,0,0,
2026-03-15 15:30:00,METAR WMKK 151530Z 00000KT 9999 FEW030 25/23 Q1011 NOSIG,0,0,0,10000,0,0,0,
2026-03-15 15:00:00,METAR WMKK 151500Z VRB02KT 9999 FEW030 25/23 Q1011 NOSIG,0,2,0,10000,0,0,0,
2026-03-15 14:30:00,METAR WMKK 151430Z VRB03KT 9999 FEW030 25/23 Q1011 NOSIG,0,3,0,10000,0,0,0,
2026-03-15 14:00:00,METAR WMKK 151400Z VRB02KT 9999 FEW030 25/23 Q1011 NOSIG,0,2,0,10000,0,0,0,
2026-03-15 13:30:00,METAR WMKK 151330Z 33003KT 270V030 9999 FEW030 25/22 Q1011 NOSIG,0,3,0,10000,0,0,0,
2026-03-15 13:00:00,METAR WMKK 151300Z VRB02KT 9000 FEW030 25/23 Q1010 NOSIG,0,2,0,9000,0,0,0,
2026-03-15 12:30:00,METAR WMKK 151230Z 00000KT 9000 FEW010 FEW017CB 25/24 Q1010 NOSIG,0,0,0,9000,0,0,0,
2026-03-15 12:00:00,METAR WMKK 151200Z VRB03KT 9000 FEW010 FEW017CB 26/23 Q1010 NOSIG,0,3,0,9000,0,0,0,
2026-03-15 11:30:00,METAR WMKK 151130Z 00000KT 9000 FEW010 FEW017CB 26/24 Q1009 NOSIG,0,0,0,9000,0,0,0,
2026-03-15 11:00:00,METAR WMKK 151100Z VRB02KT 9000 FEW010 FEW017CB 26/24 Q1009 NOSIG,0,2,0,9000,0,0,0,
2026-03-15 10:30:00,METAR WMKK 151030Z 00000KT 9000 FEW010 FEW017CB 26/23 Q1009 NOSIG,0,0,0,9000,0,0,0,
2026-03-15 10:00:00,METAR WMKK 151000Z VRB02KT 6000 -RA FEW010 FEW017CB SCT030 25/24 Q1008 RETSRA NOSIG,0,2,0,6000,1,0,0,"-RA,RA"
2026-03-15 09:30:00,METAR WMKK 150930Z COR 25003KT 170V320 6000 -RA FEW010 FEW017CB SCT030 24/24 Q1008 RETSRA NOSIG,0,3,0,6000,1,0,0,"-RA,RA"
2026-03-15 09:00:00,METAR WMKK 150900Z VRB02KT 4000 TSRA FEW008 FEW017CB SCT030 24/23 Q1008 RETSRA TEMPO 5000 TSRA,0,2,0,4000,1,0,0,"RA,TS"
2026-03-15 08:30:00,METAR WMKK 150830Z 27003KT 200V320 4000 TSRA FEW008 FEW017CB SCT030 23/23 Q1009 RETSRA TEMPO 5000 TSRA,0,3,0,4000,1,0,0,"RA,TS"
2026-03-15 08:00:00,METAR WMKK 150800Z 10005KT 060V140 1000 +TSRA SCT006 FEW017CB SCT018 22/22 Q1010 TEMPO 10010G25KT 1000 +TSRA,0,5,0,1000,1,0,0,RA
