Time_recorded,METAR,is_cavok,wind_speed,is_gust,visibility_meters,has_thunderstorm,has_heavy_rain,has_low_vis_fog,other_phenomenon
2026-05-02 15:20:00,METAR EGLF 021520Z 14007KT 110V190 9999 VCSH FEW040 19/11 Q1013,0,7,0,10000,0,0,0,"SH,VC"
2026-05-02 14:50:00,METAR EGLF 021450Z 15008KT 130V190 9999 FEW040 20/11 Q1013,0,8,0,10000,0,0,0,
2026-05-02 14:20:00,METAR EGLF 021420Z 11008KT 080V150 9999 FEW045 20/10 Q1013,0,8,0,10000,0,0,0,
2026-05-02 13:50:00,METAR EGLF 021350Z 15006KT 100V200 9999 FEW045 20/09 Q1014,0,6,0,10000,0,0,0,
2026-05-02 13:20:00,METAR EGLF 021320Z AUTO 14005KT 070V200 9999 NCD 21/10 Q1014,0,5,0,10000,0,0,0,
2026-05-02 12:50:00,METAR EGLF 021250Z AUTO 10006KT 040V190 9999 NCD 20/09 Q1015,0,6,0,10000,0,0,0,
2026-05-02 12:20:00,METAR EGLF 021220Z AUTO VRB04KT 9999 NCD 20/09 Q1015,0,4,0,10000,0,0,0,
2026-05-02 11:50:00,METAR EGLF 021150Z AUTO VRB03KT 9999 NCD 18/09 Q1016,0,3,0,10000,0,0,0,
2026-05-02 11:20:00,METAR EGLF 021120Z AUTO VRB03KT 9999 NCD 17/09 Q1016,0,3,0,10000,0,0,0,
2026-05-02 10:50:00,METAR EGLF 021050Z AUTO VRB04KT 9999 NCD 17/10 Q1017,0,4,0,10000,0,0,0,
2026-05-02 10:20:00,METAR EGLF 021020Z AUTO 17004KT 120V280 9999 FEW024/// 17/10 Q1017,0,4,0,10000,0,0,0,
2026-05-02 09:50:00,METAR EGLF 020950Z AUTO 18004KT 110V250 9999 NCD 15/09 Q1017,0,4,0,10000,0,0,0,
2026-05-02 09:20:00,METAR EGLF 020920Z AUTO VRB02KT 9999 NCD 14/09 Q1018,0,2,0,10000,0,0,0,
2026-05-02 08:50:00,METAR EGLF 020850Z 17003KT 080V230 CAVOK 13/09 Q1018,1,0,0,9999,0,0,0,
2026-05-02 08:20:00,METAR EGLF 020820Z VRB02KT 9999 FEW006 11/09 Q1018,0,2,0,10000,0,0,0,
2026-05-02 07:50:00,METAR EGLF 020750Z VRB02KT 9999 FEW004 SCT007 10/09 Q1018,0,2,0,10000,0,0,0,
2026-05-02 07:20:00,METAR EGLF 020720Z VRB02KT 4800 BR BKN002 10/09 Q1018,0,2,0,4800,0,0,1,BR
2026-05-02 06:50:00,METAR EGLF 020650Z VRB02KT 4000 BR BKN001 09/09 Q1018,0,2,0,4000,0,0,1,BR
2026-05-02 06:20:00,METAR EGLF 020620Z AUTO VRB02KT 3300 BR BKN001/// 09/09 Q1018,0,2,0,3300,0,0,1,BR
2026-05-02 05:50:00,METAR EGLF 020550Z AUTO 18003KT 150V220 2300 BR OVC001/// 09/09 Q1018,0,3,0,2300,0,0,1,BR
2026-05-02 05:20:00,METAR EGLF 020520Z AUTO 21004KT 2800 BR OVC001/// 09/09 Q1018,0,4,0,2800,0,0,1,BR
2026-05-02 04:50:00,METAR EGLF 020450Z AUTO VRB02KT 3600 BR BKN002/// 08/08 Q1018,0,2,0,3600,0,0,1,BR
2026-05-02 04:20:00,METAR EGLF 020420Z AUTO 26002KT 5000 BR OVC002/// 09/09 Q1018,0,2,0,5000,0,0,1,BR
2026-05-02 03:50:00,METAR EGLF 020350Z AUTO 15001KT 4300 BR OVC002/// 10/09 Q1018,0,1,0,4300,0,0,1,BR
2026-05-02 03:20:00,METAR EGLF 020320Z AUTO 15002KT 2500 BR BKN001/// 10/09 Q1018,0,2,0,2500,0,0,1,BR
2026-05-02 02:50:00,METAR EGLF 020250Z AUTO 17001KT 3900 BR BKN001/// 09/09 Q1019,0,1,0,3900,0,0,1,BR
2026-05-02 02:20:00,METAR EGLF 020220Z AUTO 24003KT 220V280 5000 BR BKN002/// BKN029/// 09/08 Q1019,0,3,0,5000,0,0,1,BR
2026-05-02 01:50:00,METAR EGLF 020150Z AUTO 20001KT 4600 BR BKN027/// 08/08 Q1019,0,1,0,4600,0,0,1,BR
2026-05-02 01:20:00,METAR EGLF 020120Z AUTO VRB02KT 3500 HZ NCD 09/08 Q1019,0,2,0,3500,0,0,0,
2026-05-02 00:50:00,METAR EGLF 020050Z AUTO 15001KT 7000 FEW023/// 10/09 Q1019,0,1,0,7000,0,0,0,
2026-05-02 00:20:00,METAR EGLF 020020Z AUTO 22001KT 7000 BKN023/// 10/09 Q1019,0,1,0,7000,0,0,0,
2026-05-01 23:50:00,METAR EGLF 012350Z AUTO 15002KT 9000 BKN022 10/09 Q1020,0,2,0,9000,0,0,0,
2026-05-01 23:20:00,METAR EGLF 012320Z AUTO 16001KT 9999 SCT021/// 10/09 Q1020,0,1,0,10000,0,0,0,
2026-05-01 22:50:00,METAR EGLF 012250Z AUTO VRB02KT 9999 NCD 11/09 Q1020,0,2,0,10000,0,0,0,
2026-05-01 22:20:00,METAR EGLF 012220Z AUTO VRB01KT 9999 NCD 11/09 Q1020,0,1,0,10000,0,0,0,
2026-05-01 21:50:00,METAR EGLF 012150Z AUTO 25004KT 9999 NCD 11/08 Q1020,0,4,0,10000,0,0,0,
2026-05-01 21:20:00,METAR EGLF 012120Z AUTO 25005KT 9999 NCD 12/07 Q1020,0,5,0,10000,0,0,0,
2026-05-01 20:50:00,METAR EGLF 012050Z AUTO 18007KT 9999 NCD 14/07 Q1020,0,7,0,10000,0,0,0,
2026-05-01 20:20:00,METAR EGLF 012020Z AUTO 20006KT 9999 NCD 15/08 Q1019,0,6,0,10000,0,0,0,
2026-05-01 19:50:00,METAR EGLF 011950Z AUTO 19005KT 9999 NCD 15/10 Q1019,0,5,0,10000,0,0,0,
2026-05-01 19:20:00,METAR EGLF 011920Z AUTO 22006KT 9999 NCD 16/10 Q1019,0,6,0,10000,0,0,0,
2026-05-01 18:50:00,METAR EGLF 011850Z AUTO 20007KT 9999 NCD 18/11 Q1019,0,7,0,10000,0,0,0,
2026-05-01 18:20:00,METAR EGLF 011820Z AUTO 22009KT 9999 FEW030/// 18/11 Q1019,0,9,0,10000,0,0,0,
2026-05-01 17:50:00,METAR EGLF 011750Z 24010KT CAVOK 19/11 Q1019,1,0,0,9999,0,0,0,
2026-05-01 17:20:00,METAR EGLF 011720Z 21010KT CAVOK 19/12 Q1019,1,0,0,9999,0,0,0,
2026-05-01 16:50:00,METAR EGLF 011650Z 22011KT 180V250 9999 FEW029 19/12 Q1019,0,11,0,10000,0,0,0,
2026-05-01 16:20:00,METAR EGLF 011620Z 21010KT 180V240 9999 FEW030 20/12 Q1019,0,10,0,10000,0,0,0,
2026-05-01 15:50:00,METAR EGLF 011550Z 21014KT 180V240 9999 SCT037 21/13 Q1019,0,14,0,10000,0,0,0,
2026-05-01 15:20:00,METAR EGLF 011520Z 21010KT 180V250 9999 SCT037 21/12 Q1019,0,10,0,10000,0,0,0,
2026-05-01 14:50:00,METAR EGLF 011450Z 21013KT 190V250 9999 SCT036 22/13 Q1019,0,13,0,10000,0,0,0,
2026-05-01 14:20:00,METAR EGLF 011420Z 22013KT 180V250 9999 SCT037 23/13 Q1019,0,13,0,10000,0,0,0,
2026-05-01 13:50:00,METAR EGLF 011350Z 22011KT 9999 FEW040 23/12 Q1019,0,11,0,10000,0,0,0,
2026-05-01 13:20:00,METAR EGLF 011320Z AUTO 19009KT 150V240 9999 FEW049/// 23/11 Q1019,0,9,0,10000,0,0,0,
2026-05-01 12:50:00,METAR EGLF 011250Z AUTO 20008KT 140V240 9999 NCD 23/10 Q1019,0,8,0,10000,0,0,0,
2026-05-01 12:20:00,METAR EGLF 011220Z AUTO 15008KT 110V190 9999 NCD 23/08 Q1019,0,8,0,10000,0,0,0,
2026-05-01 11:50:00,METAR EGLF 011150Z AUTO 14009KT 100V190 9999 NCD 22/08 Q1019,0,9,0,10000,0,0,0,
2026-05-01 11:20:00,METAR EGLF 011120Z AUTO 15009KT 110V180 9999 NCD 22/08 Q1020,0,9,0,10000,0,0,0,
2026-05-01 10:50:00,METAR EGLF 011050Z AUTO 14006KT 090V180 9999 NCD 21/07 Q1020,0,6,0,10000,0,0,0,
2026-05-01 10:20:00,METAR EGLF 011020Z AUTO 13007KT 090V180 9999 NCD 21/07 Q1020,0,7,0,10000,0,0,0,
2026-05-01 09:50:00,METAR EGLF 010950Z AUTO 14007KT 080V180 9999 NCD 20/06 Q1020,0,7,0,10000,0,0,0,
2026-05-01 09:20:00,METAR EGLF 010920Z AUTO 15006KT 100V180 9999 NCD 19/05 Q1020,0,6,0,10000,0,0,0,
2026-05-01 08:50:00,METAR EGLF 010850Z AUTO 11006KT 070V170 9999 NCD 18/05 Q1020,0,6,0,10000,0,0,0,
2026-05-01 08:20:00,METAR EGLF 010820Z AUTO 14006KT 100V170 9999 NCD 17/04 Q1020,0,6,0,10000,0,0,0,
2026-05-01 07:50:00,METAR EGLF 010750Z AUTO 14006KT 100V190 9999 NCD 16/04 Q1020,0,6,0,10000,0,0,0,
2026-05-01 07:20:00,METAR EGLF 010720Z AUTO 12003KT 060V190 9999 NCD 15/04 Q1020,0,3,0,10000,0,0,0,
2026-05-01 06:50:00,METAR EGLF 010650Z AUTO 13005KT 090V170 9999 NCD 14/03 Q1020,0,5,0,10000,0,0,0,
2026-05-01 06:20:00,METAR EGLF 010620Z AUTO 13004KT 080V160 9999 NCD 13/03 Q1020,0,4,0,10000,0,0,0,
2026-05-01 05:50:00,METAR EGLF 010550Z 12004KT CAVOK 12/03 Q1020,1,0,0,9999,0,0,0,
2026-05-01 05:20:00,METAR EGLF 010520Z AUTO 13004KT 9999 NCD 11/03 Q1020,0,4,0,10000,0,0,0,
2026-05-01 04:50:00,METAR EGLF 010450Z AUTO 14006KT 9999 NCD 11/02 Q1019,0,6,0,10000,0,0,0,
2026-05-01 04:20:00,METAR EGLF 010420Z AUTO 14005KT 9999 NCD 10/03 Q1019,0,5,0,10000,0,0,0,
2026-05-01 03:50:00,METAR EGLF 010350Z AUTO 11003KT 9999 NCD 08/03 Q1019,0,3,0,10000,0,0,0,
2026-05-01 03:20:00,METAR EGLF 010320Z AUTO 11002KT 9999 NCD 07/03 Q1019,0,2,0,10000,0,0,0,
2026-05-01 02:50:00,METAR EGLF 010250Z AUTO 14002KT 9999 NCD 08/04 Q1020,0,2,0,10000,0,0,0,
2026-05-01 02:20:00,METAR EGLF 010220Z AUTO 11002KT 9999 NCD 07/04 Q1020,0,2,0,10000,0,0,0,
2026-05-01 01:50:00,METAR EGLF 010150Z AUTO 15001KT 9999 NCD 07/04 Q1020,0,1,0,10000,0,0,0,
2026-05-01 01:20:00,METAR EGLF 010120Z AUTO 15001KT 9999 NCD 08/04 Q1020,0,1,0,10000,0,0,0,
2026-05-01 00:50:00,METAR EGLF 010050Z AUTO 15002KT 9999 NCD 08/04 Q1020,0,2,0,10000,0,0,0,
2026-05-01 00:20:00,METAR EGLF 010020Z AUTO VRB01KT 9999 NCD 08/04 Q1020,0,1,0,10000,0,0,0,
2026-04-30 23:50:00,METAR EGLF 302350Z AUTO 15002KT 9999 NCD 09/04 Q1020,0,2,0,10000,0,0,0,
2026-04-30 23:20:00,METAR EGLF 302320Z AUTO 15002KT 9999 NCD 10/03 Q1020,0,2,0,10000,0,0,0,
2026-04-30 22:50:00,METAR EGLF 302250Z AUTO 12002KT 9999 NCD 10/04 Q1020,0,2,0,10000,0,0,0,
2026-04-30 22:20:00,METAR EGLF 302220Z AUTO 11004KT 9999 NCD 10/03 Q1020,0,4,0,10000,0,0,0,
2026-04-30 21:50:00,METAR EGLF 302150Z AUTO 10005KT 9999 NCD 12/03 Q1020,0,5,0,10000,0,0,0,
2026-04-30 21:20:00,METAR EGLF 302120Z AUTO 08005KT 9999 NCD 13/04 Q1020,0,5,0,10000,0,0,0,
2026-04-30 20:50:00,METAR EGLF 302050Z AUTO 07006KT 9999 NCD 12/03 Q1020,0,6,0,10000,0,0,0,
2026-04-30 20:20:00,METAR EGLF 302020Z 08006KT CAVOK 13/03 Q1020,1,0,0,9999,0,0,0,
2026-04-30 19:50:00,METAR EGLF 301950Z 07006KT CAVOK 14/04 Q1020,1,0,0,9999,0,0,0,
2026-04-30 19:20:00,METAR EGLF 301920Z 07009KT CAVOK 16/04 Q1020,1,0,0,9999,0,0,0,
2026-04-30 18:50:00,METAR EGLF 301850Z 06009KT CAVOK 17/04 Q1020,1,0,0,9999,0,0,0,
2026-04-30 18:20:00,METAR EGLF 301820Z 07009KT CAVOK 18/05 Q1020,1,0,0,9999,0,0,0,
2026-04-30 17:50:00,METAR EGLF 301750Z 06011KT CAVOK 19/05 Q1019,1,0,0,9999,0,0,0,
2026-04-30 17:20:00,METAR EGLF 301720Z 07010KT CAVOK 20/05 Q1019,1,0,0,9999,0,0,0,
2026-04-30 16:50:00,METAR EGLF 301650Z 07014KT CAVOK 20/05 Q1019,1,0,0,9999,0,0,0,
2026-04-30 16:20:00,METAR EGLF 301620Z AUTO 11012KT 9999 NCD 22/01 Q1019,0,12,0,10000,0,0,0,
2026-04-30 15:50:00,METAR EGLF 301550Z AUTO 10013KT 060V150 9999 NCD 22/M01 Q1019,0,13,0,10000,0,0,0,
2026-04-30 14:50:00,METAR EGLF 301450Z AUTO 11011KT 080V140 9999 NCD 22/M00 Q1019,0,11,0,10000,0,0,0,
2026-04-30 14:20:00,METAR EGLF 301420Z AUTO 11013KT 070V140 9999 NCD 22/M00 Q1020,0,13,0,10000,0,0,0,
2026-04-30 13:50:00,METAR EGLF 301350Z AUTO 08014KT 9999 NCD 22/01 Q1020,0,14,0,10000,0,0,0,
2026-04-30 13:20:00,METAR EGLF 301320Z AUTO 10013KT 070V130 9999 NCD 22/01 Q1020,0,13,0,10000,0,0,0,
2026-04-30 12:50:00,METAR EGLF 301250Z AUTO 10013KT 9999 NCD 22/01 Q1020,0,13,0,10000,0,0,0,
2026-04-30 12:20:00,METAR EGLF 301220Z AUTO 13013KT 100V160 9999 NCD 22/01 Q1020,0,13,0,10000,0,0,0,
2026-04-30 11:50:00,METAR EGLF 301150Z AUTO 11015KT 080V140 9999 NCD 21/01 Q1021,0,15,0,10000,0,0,0,
2026-04-30 11:20:00,METAR EGLF 301120Z AUTO 09015KT 9999 NCD 20/01 Q1021,0,15,0,10000,0,0,0,
2026-04-30 10:50:00,METAR EGLF 301050Z AUTO 09014KT 070V130 9999 NCD 20/02 Q1021,0,14,0,10000,0,0,0,
2026-04-30 10:20:00,METAR EGLF 301020Z AUTO 09013KT 070V130 9999 NCD 19/03 Q1021,0,13,0,10000,0,0,0,
2026-04-30 09:50:00,METAR EGLF 300950Z AUTO 09013KT 9999 NCD 18/03 Q1021,0,13,0,10000,0,0,0,
2026-04-30 09:20:00,METAR EGLF 300920Z AUTO 10011KT 9999 NCD 17/03 Q1021,0,11,0,10000,0,0,0,
2026-04-30 08:50:00,METAR EGLF 300850Z AUTO 10012KT 060V120 9999 NCD 16/02 Q1021,0,12,0,10000,0,0,0,
2026-04-30 08:20:00,METAR EGLF 300820Z AUTO 10013KT 9999 NCD 15/02 Q1022,0,13,0,10000,0,0,0,
2026-04-30 07:50:00,METAR EGLF 300750Z AUTO 09009KT 060V130 9999 NCD 14/02 Q1022,0,9,0,10000,0,0,0,
2026-04-30 07:20:00,METAR EGLF 300720Z AUTO 08009KT 050V110 9999 NCD 13/03 Q1022,0,9,0,10000,0,0,0,
2026-04-30 06:50:00,METAR EGLF 300650Z AUTO 07009KT 9999 NCD 12/04 Q1022,0,9,0,10000,0,0,0,
2026-04-30 06:20:00,METAR EGLF 300620Z 07007KT CAVOK 11/04 Q1022,1,0,0,9999,0,0,0,
2026-04-30 05:50:00,METAR EGLF 300550Z 07007KT CAVOK 10/04 Q1022,1,0,0,9999,0,0,0,
2026-04-30 05:20:00,METAR EGLF 300520Z AUTO 07006KT 9999 NCD 09/04 Q1022,0,6,0,10000,0,0,0,
2026-04-30 04:50:00,METAR EGLF 300450Z AUTO 06006KT 9999 NCD 08/04 Q1022,0,6,0,10000,0,0,0,
2026-04-30 04:20:00,METAR EGLF 300420Z AUTO 06004KT 9999 NCD 08/04 Q1022,0,4,0,10000,0,0,0,
2026-04-30 03:50:00,METAR EGLF 300350Z AUTO 06003KT 9999 NCD 08/04 Q1022,0,3,0,10000,0,0,0,
2026-04-30 03:20:00,METAR EGLF 300320Z AUTO 06007KT 9999 NCD 08/05 Q1022,0,7,0,10000,0,0,0,
2026-04-30 02:50:00,METAR EGLF 300250Z AUTO 06006KT 9999 NCD 08/05 Q1022,0,6,0,10000,0,0,0,
2026-04-30 02:20:00,METAR EGLF 300220Z AUTO 06006KT 9999 NCD 09/05 Q1022,0,6,0,10000,0,0,0,
2026-04-30 01:50:00,METAR EGLF 300150Z AUTO 07007KT 9999 NCD 10/05 Q1022,0,7,0,10000,0,0,0,
2026-04-30 01:20:00,METAR EGLF 300120Z AUTO 07010KT 9999 NCD 10/05 Q1022,0,10,0,10000,0,0,0,
2026-04-30 00:50:00,METAR EGLF 300050Z AUTO 08011KT 9999 NCD 10/05 Q1022,0,11,0,10000,0,0,0,
2026-04-30 00:20:00,METAR EGLF 300020Z AUTO 07012KT 9999 NCD 10/05 Q1022,0,12,0,10000,0,0,0,
2026-04-29 23:50:00,METAR EGLF 292350Z AUTO 07012KT 9999 NCD 11/05 Q1022,0,12,0,10000,0,0,0,
2026-04-29 23:20:00,METAR EGLF 292320Z AUTO 07012KT 9999 NCD 11/05 Q1022,0,12,0,10000,0,0,0,
2026-04-29 22:50:00,METAR EGLF 292250Z AUTO 07013KT 9999 NCD 11/04 Q1022,0,13,0,10000,0,0,0,
2026-04-29 22:20:00,METAR EGLF 292220Z AUTO 07013KT 9999 NCD 11/04 Q1023,0,13,0,10000,0,0,0,
2026-04-29 21:50:00,METAR EGLF 292150Z AUTO 07012KT 9999 NCD 12/03 Q1023,0,12,0,10000,0,0,0,
2026-04-29 21:20:00,METAR EGLF 292120Z AUTO 08013KT 9999 NCD 12/03 Q1023,0,13,0,10000,0,0,0,
2026-04-29 20:50:00,METAR EGLF 292050Z AUTO 08015KT 9999 NCD 12/03 Q1022,0,15,0,10000,0,0,0,
2026-04-29 20:20:00,METAR EGLF 292020Z AUTO 07016KT 9999 NCD 12/02 Q1022,0,16,0,10000,0,0,0,
2026-04-29 19:50:00,METAR EGLF 291950Z AUTO 07014KT 9999 NCD 13/02 Q1022,0,14,0,10000,0,0,0,
2026-04-29 19:20:00,METAR EGLF 291920Z AUTO 06013KT 9999 NCD 13/02 Q1022,0,13,0,10000,0,0,0,
2026-04-29 18:50:00,METAR EGLF 291850Z AUTO 07014KT 9999 NCD 14/02 Q1022,0,14,0,10000,0,0,0,
2026-04-29 18:20:00,METAR EGLF 291820Z AUTO 07016KT 9999 NCD 14/02 Q1021,0,16,0,10000,0,0,0,
2026-04-29 17:50:00,METAR EGLF 291750Z AUTO 06019KT 9999 NCD 15/02 Q1021,0,19,0,10000,0,0,0,
2026-04-29 17:20:00,METAR EGLF 291720Z AUTO 07018KT 9999 NCD 15/01 Q1021,0,18,0,10000,0,0,0,
2026-04-29 16:50:00,METAR EGLF 291650Z AUTO 08021KT 9999 NCD 16/00 Q1021,0,21,0,10000,0,0,0,
2026-04-29 16:20:00,METAR EGLF 291620Z AUTO 07023KT 9999 NCD 16/01 Q1021,0,23,0,10000,0,0,0,
2026-04-29 15:50:00,METAR EGLF 291550Z AUTO 06019KT 9999 NCD 17/02 Q1021,0,19,0,10000,0,0,0,
2026-04-29 15:20:00,METAR EGLF 291520Z AUTO 07020KT 9999 NCD 17/02 Q1022,0,20,0,10000,0,0,0,
2026-04-29 14:50:00,METAR EGLF 291450Z AUTO 06019KT 9999 NCD 18/01 Q1022,0,19,0,10000,0,0,0,
2026-04-29 14:20:00,METAR EGLF 291420Z AUTO 08021KT 9999 NCD 18/01 Q1022,0,21,0,10000,0,0,0,
2026-04-29 13:50:00,METAR EGLF 291350Z AUTO 07021KT 040V110 9999 NCD 18/00 Q1022,0,21,0,10000,0,0,0,
2026-04-29 13:20:00,METAR EGLF 291320Z AUTO 07019G29KT 9999 NCD 18/M00 Q1022,0,19,1,10000,0,0,0,
2026-04-29 12:50:00,METAR EGLF 291250Z AUTO 06018KT 030V090 9999 NCD 18/M00 Q1022,0,18,0,10000,0,0,0,
2026-04-29 12:20:00,METAR EGLF 291220Z AUTO 06021KT 9999 NCD 17/M00 Q1022,0,21,0,10000,0,0,0,
2026-04-29 11:50:00,METAR EGLF 291150Z AUTO 06023KT 9999 NCD 18/01 Q1022,0,23,0,10000,0,0,0,
2026-04-29 11:20:00,METAR EGLF 291120Z AUTO 06022KT 9999 NCD 17/00 Q1022,0,22,0,10000,0,0,0,
2026-04-29 10:50:00,METAR EGLF 291050Z AUTO 07023KT 9999 NCD 17/01 Q1023,0,23,0,10000,0,0,0,
2026-04-29 10:20:00,METAR EGLF 291020Z AUTO 06024KT 9999 NCD 17/01 Q1023,0,24,0,10000,0,0,0,
2026-04-29 09:50:00,METAR EGLF 290950Z AUTO 07022G32KT 9999 NCD 17/01 Q1023,0,22,1,10000,0,0,0,
2026-04-29 09:20:00,METAR EGLF 290920Z AUTO 07021KT 9999 NCD 16/02 Q1023,0,21,0,10000,0,0,0,
2026-04-29 08:50:00,METAR EGLF 290850Z AUTO 07020G30KT 9999 NCD 15/03 Q1023,0,20,1,10000,0,0,0,
2026-04-29 08:20:00,METAR EGLF 290820Z AUTO 06018KT 9999 NCD 14/04 Q1023,0,18,0,10000,0,0,0,
2026-04-29 07:50:00,METAR EGLF 290750Z AUTO 06013KT 020V090 9999 NCD 13/05 Q1023,0,13,0,10000,0,0,0,
2026-04-29 07:20:00,METAR EGLF 290720Z AUTO 05011KT 9999 NCD 12/05 Q1023,0,11,0,10000,0,0,0,
2026-04-29 06:50:00,METAR EGLF 290650Z AUTO 06012KT 9999 NCD 11/05 Q1023,0,12,0,10000,0,0,0,
2026-04-29 06:20:00,METAR EGLF 290620Z AUTO 05012KT 9999 NCD 09/05 Q1023,0,12,0,10000,0,0,0,
2026-04-29 05:50:00,METAR EGLF 290550Z 05008KT CAVOK 09/05 Q1023,1,0,0,9999,0,0,0,
2026-04-29 05:20:00,METAR EGLF 290520Z AUTO 01005KT 9999 NCD 07/04 Q1023,0,5,0,10000,0,0,0,
2026-04-29 04:50:00,METAR EGLF 290450Z AUTO 01003KT 330V060 9999 NCD 07/04 Q1023,0,3,0,10000,0,0,0,
2026-04-29 04:20:00,METAR EGLF 290420Z AUTO 36004KT 9999 NCD 07/04 Q1023,0,4,0,10000,0,0,0,
2026-04-29 03:50:00,METAR EGLF 290350Z AUTO 02004KT 320V040 9999 NCD 07/04 Q1023,0,4,0,10000,0,0,0,
2026-04-29 03:20:00,METAR EGLF 290320Z AUTO 03004KT 9999 NCD 07/04 Q1023,0,4,0,10000,0,0,0,
2026-04-29 02:50:00,METAR EGLF 290250Z AUTO 02008KT 9999 NCD 07/04 Q1023,0,8,0,10000,0,0,0,
2026-04-29 02:20:00,METAR EGLF 290220Z AUTO 02008KT 9999 NCD 07/04 Q1023,0,8,0,10000,0,0,0,
2026-04-29 01:50:00,METAR EGLF 290150Z AUTO 02008KT 9999 NCD 07/03 Q1023,0,8,0,10000,0,0,0,
2026-04-29 01:20:00,METAR EGLF 290120Z AUTO 03008KT 9999 NCD 07/03 Q1023,0,8,0,10000,0,0,0,
2026-04-29 00:50:00,METAR EGLF 290050Z AUTO 03008KT 360V060 9999 NCD 07/02 Q1024,0,8,0,10000,0,0,0,
2026-04-29 00:20:00,METAR EGLF 290020Z AUTO 04009KT 9999 NCD 08/02 Q1024,0,9,0,10000,0,0,0,
2026-04-28 23:50:00,METAR EGLF 282350Z AUTO 04010KT 9999 NCD 08/02 Q1024,0,10,0,10000,0,0,0,
2026-04-28 23:20:00,METAR EGLF 282320Z AUTO 04011KT 9999 NCD 08/01 Q1024,0,11,0,10000,0,0,0,
2026-04-28 22:50:00,METAR EGLF 282250Z AUTO 04013KT 9999 NCD 09/01 Q1024,0,13,0,10000,0,0,0,
2026-04-28 22:20:00,METAR EGLF 282220Z AUTO 04010KT 9999 NCD 09/00 Q1024,0,10,0,10000,0,0,0,
2026-04-28 21:50:00,METAR EGLF 282150Z AUTO 03009KT 9999 NCD 10/M00 Q1024,0,9,0,10000,0,0,0,
2026-04-28 21:20:00,METAR EGLF 282120Z AUTO 04011KT 010V070 9999 NCD 10/M01 Q1024,0,11,0,10000,0,0,0,
2026-04-28 20:50:00,METAR EGLF 282050Z AUTO 04011KT 9999 NCD 11/M01 Q1024,0,11,0,10000,0,0,0,
2026-04-28 20:20:00,METAR EGLF 282020Z AUTO 04011KT 9999 NCD 12/M01 Q1024,0,11,0,10000,0,0,0,
2026-04-28 19:50:00,METAR EGLF 281950Z 04013KT CAVOK 12/M02 Q1023,1,0,0,9999,0,0,0,
2026-04-28 19:20:00,METAR EGLF 281920Z 05012KT CAVOK 13/M02 Q1023,1,0,0,9999,0,0,0,
2026-04-28 18:50:00,METAR EGLF 281850Z 04013KT CAVOK 14/M02 Q1023,1,0,0,9999,0,0,0,
2026-04-28 18:20:00,METAR EGLF 281820Z 05013KT CAVOK 14/M00 Q1022,1,0,0,9999,0,0,0,
2026-04-28 17:50:00,METAR EGLF 281750Z 05016KT CAVOK 15/M00 Q1022,1,0,0,9999,0,0,0,
2026-04-28 17:20:00,METAR EGLF 281720Z 06017KT CAVOK 16/01 Q1022,1,0,0,9999,0,0,0,
2026-04-28 16:50:00,METAR EGLF 281650Z 05015KT 020V080 CAVOK 15/01 Q1022,1,0,0,9999,0,0,0,
2026-04-28 16:20:00,METAR EGLF 281620Z 05015KT CAVOK 16/00 Q1022,1,0,0,9999,0,0,0,
2026-04-28 15:50:00,METAR EGLF 281550Z AUTO 04014KT 9999 NCD 16/02 Q1022,0,14,0,10000,0,0,0,
2026-04-28 15:20:00,METAR EGLF 281520Z AUTO 03014KT 9999 NCD 16/03 Q1022,0,14,0,10000,0,0,0,
2026-04-28 14:50:00,METAR EGLF 281450Z 04014KT 9999 FEW045 16/03 Q1023,0,14,0,10000,0,0,0,
2026-04-28 14:20:00,METAR EGLF 281420Z 04015KT 9999 FEW040 15/04 Q1023,0,15,0,10000,0,0,0,
2026-04-28 13:50:00,METAR EGLF 281350Z 03016G26KT 360V060 9999 FEW040 15/04 Q1023,0,16,1,10000,0,0,0,
2026-04-28 13:20:00,METAR EGLF 281320Z 03017G27KT 9999 SCT035 14/05 Q1023,0,17,1,10000,0,0,0,
2026-04-28 12:50:00,METAR EGLF 281250Z 03014KT 9999 SCT025 13/05 Q1024,0,14,0,10000,0,0,0,
2026-04-28 12:20:00,METAR EGLF 281220Z 04012KT 9999 BKN024 12/06 Q1024,0,12,0,10000,0,0,0,
2026-04-28 11:50:00,METAR EGLF 281150Z 05010KT 9999 BKN023 11/06 Q1025,0,10,0,10000,0,0,0,
2026-04-28 11:20:00,METAR EGLF 281120Z 05011KT 9999 BKN021 OVC024 11/06 Q1025,0,11,0,10000,0,0,0,
2026-04-28 10:50:00,METAR EGLF 281050Z 04011KT 9999 SCT020 BKN024 11/06 Q1025,0,11,0,10000,0,0,0,
2026-04-28 10:20:00,METAR EGLF 281020Z 05011KT 9999 SCT020 BKN021 11/06 Q1025,0,11,0,10000,0,0,0,
2026-04-28 09:50:00,METAR EGLF 280950Z 04014KT 9999 SCT016 BKN021 11/06 Q1024,0,14,0,10000,0,0,0,
2026-04-28 09:20:00,METAR EGLF 280920Z 05010KT 9999 SCT015 BKN020 11/07 Q1024,0,10,0,10000,0,0,0,
2026-04-28 08:50:00,METAR EGLF 280850Z 04009KT 9999 SCT014 BKN019 10/07 Q1024,0,9,0,10000,0,0,0,
2026-04-28 08:20:00,METAR EGLF 280820Z 05012KT 010V070 9999 SCT015 BKN023 10/07 Q1024,0,12,0,10000,0,0,0,
2026-04-28 07:50:00,METAR EGLF 280750Z 05013KT 9999 SCT015 BKN020 11/07 Q1024,0,13,0,10000,0,0,0,
2026-04-28 07:20:00,METAR EGLF 280720Z 05011KT 9999 SCT016 10/06 Q1024,0,11,0,10000,0,0,0,
2026-04-28 06:50:00,METAR EGLF 280650Z 05011KT 9999 FEW010 SCT015 BKN020 10/07 Q1024,0,11,0,10000,0,0,0,
2026-04-28 06:20:00,METAR EGLF 280620Z 02010KT 5000 -DZ HZ BKN008 BKN019 09/08 Q1024,0,10,0,5000,0,0,0,DZ
2026-04-28 05:50:00,METAR EGLF 280550Z 01007KT 9999 BKN010 BKN015 09/07 Q1023,0,7,0,10000,0,0,0,
2026-04-28 05:20:00,METAR EGLF 280520Z AUTO 02006KT 9999 BKN010/// BKN014/// OVC020/// 09/07 Q1023,0,6,0,10000,0,0,0,
2026-04-28 04:50:00,METAR EGLF 280450Z AUTO 02008KT 9999 BKN012/// OVC022/// 09/07 Q1023,0,8,0,10000,0,0,0,
2026-04-28 04:20:00,METAR EGLF 280420Z AUTO 02008KT 9999 OVC015/// 09/06 Q1023,0,8,0,10000,0,0,0,
2026-04-28 03:50:00,METAR EGLF 280350Z AUTO 02008KT 9999 FEW017/// BKN022/// OVC026/// 09/06 Q1023,0,8,0,10000,0,0,0,
2026-04-28 03:20:00,METAR EGLF 280320Z AUTO 03010KT 9999 SCT017/// OVC021/// 09/06 Q1023,0,10,0,10000,0,0,0,
2026-04-28 02:50:00,METAR EGLF 280250Z AUTO 02009KT 9999 OVC016/// 09/06 Q1023,0,9,0,10000,0,0,0,
2026-04-28 02:20:00,METAR EGLF 280220Z AUTO 04012KT 9999 OVC016/// 09/06 Q1024,0,12,0,10000,0,0,0,
2026-04-28 01:50:00,METAR EGLF 280150Z AUTO 02014KT 9999 OVC014/// 10/06 Q1024,0,14,0,10000,0,0,0,
2026-04-28 01:20:00,METAR EGLF 280120Z AUTO 04012KT 9999 BKN014/// 09/06 Q1024,0,12,0,10000,0,0,0,
2026-04-28 00:50:00,METAR EGLF 280050Z AUTO 03009KT 9999 NCD 10/07 Q1023,0,9,0,10000,0,0,0,
2026-04-28 00:20:00,METAR EGLF 280020Z AUTO 01007KT 9999 NCD 11/06 Q1023,0,7,0,10000,0,0,0,
2026-04-27 23:50:00,METAR EGLF 272350Z AUTO 02009KT 350V050 9999 NCD 12/06 Q1023,0,9,0,10000,0,0,0,
2026-04-27 23:20:00,METAR EGLF 272320Z AUTO 02009KT 9999 NCD 12/07 Q1023,0,9,0,10000,0,0,0,
2026-04-27 22:50:00,METAR EGLF 272250Z AUTO 03007KT 9999 NCD 12/07 Q1023,0,7,0,10000,0,0,0,
2026-04-27 22:20:00,METAR EGLF 272220Z AUTO 02010KT 9999 NCD 13/08 Q1023,0,10,0,10000,0,0,0,
2026-04-27 21:50:00,METAR EGLF 272150Z AUTO 01010KT 9999 -RA FEW048/// 13/08 Q1023,0,10,0,10000,0,0,0,-RA
2026-04-27 21:20:00,METAR EGLF 272120Z AUTO 02014KT 9999 -RA BKN045/// 14/07 Q1023,0,14,0,10000,0,0,0,-RA
2026-04-27 20:50:00,METAR EGLF 272050Z AUTO 03014KT 9999 NCD 16/08 Q1022,0,14,0,10000,0,0,0,
2026-04-27 20:20:00,METAR EGLF 272020Z AUTO 02008KT 9999 NCD 17/07 Q1022,0,8,0,10000,0,0,0,
2026-04-27 19:50:00,METAR EGLF 271950Z AUTO 03009KT 9999 NCD 17/07 Q1022,0,9,0,10000,0,0,0,
2026-04-27 19:20:00,METAR EGLF 271920Z AUTO 02008KT 9999 NCD 17/06 Q1022,0,8,0,10000,0,0,0,
2026-04-27 18:50:00,METAR EGLF 271850Z AUTO 35006KT 310V030 9999 NCD 18/06 Q1022,0,6,0,10000,0,0,0,
2026-04-27 18:20:00,METAR EGLF 271820Z AUTO 29003KT 240V350 9999 NCD 18/07 Q1021,0,3,0,10000,0,0,0,
2026-04-27 17:50:00,METAR EGLF 271750Z AUTO 32004KT 280V360 9999 NCD 18/07 Q1021,0,4,0,10000,0,0,0,
2026-04-27 17:20:00,METAR EGLF 271720Z AUTO 36008KT 320V030 9999 NCD 19/05 Q1022,0,8,0,10000,0,0,0,
2026-04-27 16:50:00,METAR EGLF 271650Z AUTO 35007KT 320V020 9999 NCD 20/05 Q1022,0,7,0,10000,0,0,0,
2026-04-27 16:20:00,METAR EGLF 271620Z AUTO 34006KT 280V020 9999 NCD 20/04 Q1022,0,6,0,10000,0,0,0,
2026-04-27 15:50:00,METAR EGLF 271550Z AUTO 35007KT 310V030 9999 NCD 21/02 Q1022,0,7,0,10000,0,0,0,
2026-04-27 15:20:00,METAR EGLF 271520Z AUTO 02007KT 300V100 9999 NCD 21/02 Q1022,0,7,0,10000,0,0,0,
2026-04-27 14:50:00,METAR EGLF 271450Z AUTO VRB02KT 9999 NCD 21/04 Q1022,0,2,0,10000,0,0,0,
2026-04-27 14:20:00,METAR EGLF 271420Z AUTO 07006KT 360V120 9999 NCD 20/03 Q1022,0,6,0,10000,0,0,0,
2026-04-27 13:50:00,METAR EGLF 271350Z AUTO 35005KT 300V080 9999 NCD 21/03 Q1023,0,5,0,10000,0,0,0,
2026-04-27 13:20:00,METAR EGLF 271320Z AUTO VRB07KT 9999 NCD 20/03 Q1023,0,7,0,10000,0,0,0,
2026-04-27 12:50:00,METAR EGLF 271250Z AUTO 07004KT 020V120 9999 NCD 20/02 Q1023,0,4,0,10000,0,0,0,
2026-04-27 12:20:00,METAR EGLF 271220Z AUTO 03005KT 320V070 9999 NCD 20/03 Q1023,0,5,0,10000,0,0,0,
2026-04-27 11:50:00,METAR EGLF 271150Z AUTO 06007KT 020V090 9999 NCD 19/04 Q1024,0,7,0,10000,0,0,0,
2026-04-27 11:20:00,METAR EGLF 271120Z AUTO 07007KT 030V120 9999 NCD 19/04 Q1024,0,7,0,10000,0,0,0,
2026-04-27 10:50:00,METAR EGLF 271050Z AUTO 08006KT 040V110 9999 NCD 18/04 Q1024,0,6,0,10000,0,0,0,
2026-04-27 10:20:00,METAR EGLF 271020Z AUTO 03005KT 360V080 9999 NCD 17/05 Q1024,0,5,0,10000,0,0,0,
2026-04-27 09:50:00,METAR EGLF 270950Z AUTO 10005KT 060V160 9999 NCD 17/05 Q1024,0,5,0,10000,0,0,0,
2026-04-27 09:20:00,METAR EGLF 270920Z AUTO 03003KT 320V120 9999 NCD 16/04 Q1025,0,3,0,10000,0,0,0,
2026-04-27 08:50:00,METAR EGLF 270850Z 02003KT 330V090 CAVOK 15/05 Q1025,1,0,0,9999,0,0,0,
2026-04-27 08:20:00,METAR EGLF 270820Z VRB02KT CAVOK 13/06 Q1025,1,0,0,9999,0,0,0,
2026-04-27 07:50:00,METAR EGLF 270750Z VRB01KT CAVOK 12/07 Q1025,1,0,0,9999,0,0,0,
2026-04-27 07:20:00,METAR EGLF 270720Z VRB01KT CAVOK 11/07 Q1025,1,0,0,9999,0,0,0,
2026-04-27 06:50:00,METAR EGLF 270650Z 18001KT CAVOK 09/06 Q1025,1,0,0,9999,0,0,0,
2026-04-27 06:20:00,METAR EGLF 270620Z VRB01KT CAVOK 06/05 Q1025,1,0,0,9999,0,0,0,
2026-04-27 05:50:00,METAR EGLF 270550Z 25003KT CAVOK 04/03 Q1025,1,0,0,9999,0,0,0,
2026-04-27 05:20:00,METAR EGLF 270520Z AUTO 18002KT 9999 NCD 04/02 Q1024,0,2,0,10000,0,0,0,
2026-04-27 04:50:00,METAR EGLF 270450Z AUTO 24002KT 9999 NCD 04/03 Q1024,0,2,0,10000,0,0,0,
2026-04-27 04:20:00,METAR EGLF 270420Z AUTO 23002KT 9999 NCD 03/02 Q1024,0,2,0,10000,0,0,0,
2026-04-27 03:50:00,METAR EGLF 270350Z AUTO VRB02KT 9999 NCD 04/03 Q1024,0,2,0,10000,0,0,0,
2026-04-27 03:20:00,METAR EGLF 270320Z AUTO 25003KT 9999 NCD 05/03 Q1024,0,3,0,10000,0,0,0,
2026-04-27 02:50:00,METAR EGLF 270250Z AUTO 22003KT 9999 NCD 06/04 Q1024,0,3,0,10000,0,0,0,
2026-04-27 02:20:00,METAR EGLF 270220Z AUTO 20001KT 9999 NCD 06/04 Q1024,0,1,0,10000,0,0,0,
2026-04-27 01:50:00,METAR EGLF 270150Z AUTO VRB02KT 9999 NCD 09/05 Q1024,0,2,0,10000,0,0,0,
2026-04-27 01:20:00,METAR EGLF 270120Z AUTO 05002KT 9999 NCD 08/05 Q1025,0,2,0,10000,0,0,0,
2026-04-27 00:50:00,METAR EGLF 270050Z AUTO VRB02KT 9999 NCD 09/05 Q1025,0,2,0,10000,0,0,0,
2026-04-27 00:20:00,METAR EGLF 270020Z AUTO 12003KT 9999 NCD 10/05 Q1025,0,3,0,10000,0,0,0,
2026-04-26 23:50:00,METAR EGLF 262350Z AUTO 09004KT 9999 NCD 10/05 Q1025,0,4,0,10000,0,0,0,
2026-04-26 23:20:00,METAR EGLF 262320Z AUTO 08005KT 9999 NCD 10/05 Q1025,0,5,0,10000,0,0,0,
2026-04-26 22:50:00,METAR EGLF 262250Z AUTO 09004KT 060V120 9999 NCD 10/05 Q1025,0,4,0,10000,0,0,0,
2026-04-26 22:20:00,METAR EGLF 262220Z AUTO 09005KT 9999 NCD 11/05 Q1024,0,5,0,10000,0,0,0,
2026-04-26 21:50:00,METAR EGLF 262150Z AUTO 09005KT 9999 NCD 12/06 Q1024,0,5,0,10000,0,0,0,
2026-04-26 21:20:00,METAR EGLF 262120Z AUTO 11006KT 9999 NCD 12/06 Q1024,0,6,0,10000,0,0,0,
2026-04-26 20:50:00,METAR EGLF 262050Z AUTO 09007KT 9999 NCD 13/06 Q1024,0,7,0,10000,0,0,0,
2026-04-26 20:20:00,METAR EGLF 262020Z AUTO 08008KT 9999 NCD 14/06 Q1024,0,8,0,10000,0,0,0,
2026-04-26 19:50:00,METAR EGLF 261950Z AUTO 09006KT 9999 NCD 15/06 Q1024,0,6,0,10000,0,0,0,
2026-04-26 19:20:00,METAR EGLF 261920Z AUTO 08009KT 9999 NCD 16/05 Q1023,0,9,0,10000,0,0,0,
2026-04-26 18:50:00,METAR EGLF 261850Z AUTO 08010KT 9999 NCD 16/06 Q1023,0,10,0,10000,0,0,0,
2026-04-26 18:20:00,METAR EGLF 261820Z AUTO 07010KT 9999 NCD 17/06 Q1023,0,10,0,10000,0,0,0,
2026-04-26 17:50:00,METAR EGLF 261750Z AUTO 10004KT 080V140 9999 NCD 18/03 Q1023,0,4,0,10000,0,0,0,
2026-04-26 17:20:00,METAR EGLF 261720Z AUTO 10003KT 050V160 9999 NCD 19/03 Q1023,0,3,0,10000,0,0,0,
2026-04-26 16:50:00,METAR EGLF 261650Z AUTO 08006KT 050V140 9999 NCD 19/02 Q1023,0,6,0,10000,0,0,0,
2026-04-26 16:20:00,METAR EGLF 261620Z AUTO 10005KT 020V150 9999 NCD 19/01 Q1023,0,5,0,10000,0,0,0,
2026-04-26 15:50:00,METAR EGLF 261550Z AUTO 10004KT 050V140 9999 NCD 19/03 Q1023,0,4,0,10000,0,0,0,
2026-04-26 15:20:00,METAR EGLF 261520Z AUTO 22003KT 150V300 9999 NCD 19/03 Q1023,0,3,0,10000,0,0,0,
2026-04-26 14:50:00,METAR EGLF 261450Z AUTO VRB01KT 9999 NCD 19/03 Q1024,0,1,0,10000,0,0,0,
2026-04-26 14:20:00,METAR EGLF 261420Z AUTO 19003KT 140V240 9999 NCD 19/01 Q1024,0,3,0,10000,0,0,0,
2026-04-26 13:50:00,METAR EGLF 261350Z AUTO 07008KT 030V120 9999 NCD 19/02 Q1024,0,8,0,10000,0,0,0,
2026-04-26 13:20:00,METAR EGLF 261320Z AUTO 10004KT 070V130 9999 NCD 18/02 Q1024,0,4,0,10000,0,0,0,
2026-04-26 12:50:00,METAR EGLF 261250Z AUTO 12005KT 060V180 9999 NCD 19/02 Q1024,0,5,0,10000,0,0,0,
2026-04-26 12:20:00,METAR EGLF 261220Z AUTO 11005KT 060V160 9999 NCD 18/02 Q1025,0,5,0,10000,0,0,0,
2026-04-26 11:50:00,METAR EGLF 261150Z AUTO 10004KT 030V160 9999 NCD 18/02 Q1025,0,4,0,10000,0,0,0,
2026-04-26 11:20:00,METAR EGLF 261120Z 10005KT 060V170 CAVOK 18/03 Q1025,1,0,0,9999,0,0,0,
2026-04-26 10:50:00,METAR EGLF 261050Z 13005KT 070V170 CAVOK 17/02 Q1025,1,0,0,9999,0,0,0,
2026-04-26 10:20:00,METAR EGLF 261020Z 09006KT CAVOK 16/04 Q1025,1,0,0,9999,0,0,0,
2026-04-26 09:50:00,METAR EGLF 260950Z 12007KT 090V150 CAVOK 15/04 Q1025,1,0,0,9999,0,0,0,
2026-04-26 09:20:00,METAR EGLF 260920Z 09006KT 050V130 CAVOK 14/05 Q1025,1,0,0,9999,0,0,0,
2026-04-26 08:50:00,METAR EGLF 260850Z 10007KT 050V120 CAVOK 13/05 Q1025,1,0,0,9999,0,0,0,
2026-04-26 08:20:00,METAR EGLF 260820Z 10006KT 070V130 CAVOK 12/06 Q1025,1,0,0,9999,0,0,0,
2026-04-26 07:50:00,METAR EGLF 260750Z 08006KT 060V120 CAVOK 10/06 Q1025,1,0,0,9999,0,0,0,
2026-04-26 07:20:00,METAR EGLF 260720Z 07006KT 9999 NSC 08/06 Q1025,0,6,0,10000,0,0,0,
2026-04-26 06:50:00,METAR EGLF 260650Z 08005KT 050V110 9999 VCFG FEW002 08/05 Q1025,0,5,0,10000,0,0,1,"FG,VC"
2026-04-26 06:20:00,METAR EGLF 260620Z AUTO 10004KT 9999 NCD 07/05 Q1025,0,4,0,10000,0,0,0,
2026-04-26 05:50:00,METAR EGLF 260550Z AUTO 22001KT 9999 NCD 03/00 Q1024,0,1,0,10000,0,0,0,
2026-04-26 05:20:00,METAR EGLF 260520Z AUTO 22001KT 9999 NCD 02/M00 Q1024,0,1,0,10000,0,0,0,
2026-04-26 04:50:00,METAR EGLF 260450Z AUTO 20001KT 9999 NCD 02/M00 Q1024,0,1,0,10000,0,0,0,
2026-04-26 04:20:00,METAR EGLF 260420Z AUTO 21002KT 9999 NCD 02/M01 Q1024,0,2,0,10000,0,0,0,
2026-04-26 03:50:00,METAR EGLF 260350Z AUTO 22001KT 9999 NCD 03/M00 Q1024,0,1,0,10000,0,0,0,
2026-04-26 03:20:00,METAR EGLF 260320Z AUTO 21001KT 9999 NCD 03/M00 Q1023,0,1,0,10000,0,0,0,
2026-04-26 02:50:00,METAR EGLF 260250Z AUTO 24002KT 9999 NCD 03/01 Q1023,0,2,0,10000,0,0,0,
2026-04-26 02:20:00,METAR EGLF 260220Z AUTO 23002KT 9999 NCD 03/01 Q1023,0,2,0,10000,0,0,0,
2026-04-26 01:50:00,METAR EGLF 260150Z AUTO 20001KT 9999 NCD 04/01 Q1023,0,1,0,10000,0,0,0,
2026-04-26 01:20:00,METAR EGLF 260120Z AUTO VRB01KT 9999 NCD 05/01 Q1023,0,1,0,10000,0,0,0,
2026-04-26 00:50:00,METAR EGLF 260050Z AUTO VRB02KT 9999 NCD 04/00 Q1023,0,2,0,10000,0,0,0,
2026-04-26 00:20:00,METAR EGLF 260020Z AUTO 24003KT 9999 NCD 05/01 Q1023,0,3,0,10000,0,0,0,
2026-04-25 23:50:00,METAR EGLF 252350Z AUTO VRB01KT 9999 NCD 06/02 Q1023,0,1,0,10000,0,0,0,
2026-04-25 23:20:00,METAR EGLF 252320Z AUTO 23003KT 9999 NCD 06/02 Q1023,0,3,0,10000,0,0,0,
2026-04-25 22:50:00,METAR EGLF 252250Z AUTO 24003KT 9999 NCD 06/03 Q1023,0,3,0,10000,0,0,0,
2026-04-25 22:20:00,METAR EGLF 252220Z AUTO VRB02KT 9999 NCD 07/03 Q1022,0,2,0,10000,0,0,0,
2026-04-25 21:50:00,METAR EGLF 252150Z AUTO VRB01KT 9999 NCD 10/04 Q1022,0,1,0,10000,0,0,0,
2026-04-25 21:20:00,METAR EGLF 252120Z AUTO VRB02KT 9999 NCD 11/04 Q1022,0,2,0,10000,0,0,0,
2026-04-25 20:50:00,METAR EGLF 252050Z AUTO VRB02KT 9999 NCD 12/05 Q1022,0,2,0,10000,0,0,0,
2026-04-25 20:20:00,METAR EGLF 252020Z AUTO 24003KT 210V270 9999 NCD 13/05 Q1022,0,3,0,10000,0,0,0,
2026-04-25 19:50:00,METAR EGLF 251950Z AUTO VRB02KT 9999 NCD 14/02 Q1021,0,2,0,10000,0,0,0,
2026-04-25 19:20:00,METAR EGLF 251920Z AUTO VRB02KT 9999 NCD 17/M06 Q1021,0,2,0,10000,0,0,0,
2026-04-25 18:50:00,METAR EGLF 251850Z AUTO 06007KT 9999 NCD 17/M05 Q1020,0,7,0,10000,0,0,0,
2026-04-25 18:20:00,METAR EGLF 251820Z AUTO 06007KT 9999 NCD 19/M06 Q1020,0,7,0,10000,0,0,0,
2026-04-25 17:50:00,METAR EGLF 251750Z AUTO 05007KT 9999 NCD 20/M05 Q1020,0,7,0,10000,0,0,0,
2026-04-25 17:20:00,METAR EGLF 251720Z AUTO 03006KT 010V080 9999 NCD 20/M06 Q1020,0,6,0,10000,0,0,0,
2026-04-25 16:50:00,METAR EGLF 251650Z AUTO 34006KT 310V020 9999 NCD 21/M04 Q1020,0,6,0,10000,0,0,0,
2026-04-25 16:20:00,METAR EGLF 251620Z AUTO 31003KT 230V360 9999 NCD 21/M07 Q1020,0,3,0,10000,0,0,0,
2026-04-25 15:50:00,METAR EGLF 251550Z AUTO 05003KT 020V110 9999 NCD 21/M06 Q1020,0,3,0,10000,0,0,0,
2026-04-25 15:20:00,METAR EGLF 251520Z AUTO 21003KT 150V260 9999 NCD 21/M06 Q1020,0,3,0,10000,0,0,0,
2026-04-25 14:50:00,METAR EGLF 251450Z AUTO 29003KT 200V350 9999 NCD 20/M07 Q1020,0,3,0,10000,0,0,0,
2026-04-25 14:20:00,METAR EGLF 251420Z AUTO 05004KT 010V090 9999 NCD 20/M08 Q1020,0,4,0,10000,0,0,0,
2026-04-25 13:50:00,METAR EGLF 251350Z AUTO VRB02KT 9999 NCD 20/M07 Q1021,0,2,0,10000,0,0,0,
2026-04-25 13:20:00,METAR EGLF 251320Z AUTO 15005KT 100V200 9999 NCD 20/M05 Q1021,0,5,0,10000,0,0,0,
2026-04-25 12:50:00,METAR EGLF 251250Z AUTO 31003KT 230V020 9999 NCD 20/M03 Q1021,0,3,0,10000,0,0,0,
2026-04-25 12:20:00,METAR EGLF 251220Z AUTO VRB03KT 9999 NCD 18/M04 Q1021,0,3,0,10000,0,0,0,
2026-04-25 11:50:00,METAR EGLF 251150Z AUTO 02004KT 300V110 9999 NCD 18/M03 Q1021,0,4,0,10000,0,0,0,
2026-04-25 11:20:00,METAR EGLF 251120Z AUTO VRB02KT 9999 NCD 17/M03 Q1021,0,2,0,10000,0,0,0,
2026-04-25 10:50:00,METAR EGLF 251050Z AUTO 02003KT 280V080 9999 NCD 16/M03 Q1022,0,3,0,10000,0,0,0,
2026-04-25 10:20:00,METAR EGLF 251020Z AUTO VRB02KT 9999 NCD 15/M01 Q1022,0,2,0,10000,0,0,0,
2026-04-25 09:50:00,METAR EGLF 250950Z AUTO 05003KT 010V090 9999 NCD 13/02 Q1022,0,3,0,10000,0,0,0,
2026-04-25 09:20:00,METAR EGLF 250920Z AUTO VRB01KT 9999 NCD 12/01 Q1022,0,1,0,10000,0,0,0,
2026-04-25 08:50:00,METAR EGLF 250850Z AUTO VRB01KT 9999 NCD 10/03 Q1022,0,1,0,10000,0,0,0,
2026-04-25 08:20:00,METAR EGLF 250820Z AUTO VRB01KT 9999 NCD 09/04 Q1022,0,1,0,10000,0,0,0,
2026-04-25 07:50:00,METAR EGLF 250750Z VRB01KT CAVOK 06/05 Q1022,1,0,0,9999,0,0,0,
2026-04-25 07:20:00,METAR EGLF 250720Z VRB01KT 1200 R24/0700D BR NSC 05/04 Q1022,0,1,0,1200,0,0,1,BR
2026-04-25 06:50:00,METAR EGLF 250650Z VRB01KT 0500 R24/0375N FG VV/// 04/04 Q1022,0,1,0,804500,0,0,1,FG
2026-04-25 06:20:00,METAR EGLF 250620Z AUTO VRB02KT 0350 R06/0325N FG VV/// 04/04 Q1021 REUP,0,2,0,563150,0,0,1,"FG,UP"
2026-04-25 05:50:00,METAR EGLF 250550Z AUTO 12003KT 090V150 0400 R06/0375N FG VV/// 04/04 Q1021 REUP,0,3,0,643600,0,0,1,"FG,UP"
2026-04-25 05:20:00,METAR EGLF 250520Z AUTO 11001KT 2400 R06/0400N BR VV/// 03/02 Q1021,0,1,0,2400,0,0,1,BR
2026-04-25 04:50:00,METAR EGLF 250450Z AUTO VRB02KT 3100 R06/0750 HZ VV/// 01/00 Q1021,0,2,0,3100,0,0,0,
2026-04-25 04:20:00,METAR EGLF 250420Z AUTO 24003KT 9999 OVC002/// M00/M01 Q1021,0,3,0,10000,0,0,0,
2026-04-25 03:50:00,METAR EGLF 250350Z AUTO 23001KT 9999 BKN003/// M01/M02 Q1021,0,1,0,10000,0,0,0,
2026-04-25 03:20:00,METAR EGLF 250320Z AUTO 24003KT 9999 NCD M01/M02 Q1021,0,3,0,10000,0,0,0,
2026-04-25 02:50:00,METAR EGLF 250250Z AUTO 24002KT 9999 NCD M01/M02 Q1021,0,2,0,10000,0,0,0,
2026-04-25 02:20:00,METAR EGLF 250220Z AUTO 24004KT 9999 NCD M01/M03 Q1022,0,4,0,10000,0,0,0,
2026-04-25 01:50:00,METAR EGLF 250150Z AUTO 23003KT 9999 NCD M00/M03 Q1022,0,3,0,10000,0,0,0,
2026-04-25 01:20:00,METAR EGLF 250120Z AUTO 24002KT 9999 NCD 00/M03 Q1022,0,2,0,10000,0,0,0,
2026-04-25 00:50:00,METAR EGLF 250050Z AUTO 22002KT 9999 NCD 01/M03 Q1022,0,2,0,10000,0,0,0,
2026-04-25 00:20:00,METAR EGLF 250020Z AUTO 21001KT 9999 NCD 02/M02 Q1022,0,1,0,10000,0,0,0,
2026-04-24 23:50:00,METAR EGLF 242350Z AUTO 23001KT 9999 NCD 03/M03 Q1022,0,1,0,10000,0,0,0,
2026-04-24 23:20:00,METAR EGLF 242320Z AUTO 22002KT 9999 NCD 03/M03 Q1023,0,2,0,10000,0,0,0,
2026-04-24 22:50:00,METAR EGLF 242250Z AUTO 21002KT 9999 NCD 03/M03 Q1023,0,2,0,10000,0,0,0,
2026-04-24 22:20:00,METAR EGLF 242220Z AUTO 25002KT 9999 NCD 05/M02 Q1023,0,2,0,10000,0,0,0,
2026-04-24 21:50:00,METAR EGLF 242150Z AUTO 10003KT 9999 NCD 08/M03 Q1023,0,3,0,10000,0,0,0,
2026-04-24 21:20:00,METAR EGLF 242120Z AUTO 11004KT 9999 NCD 09/M02 Q1023,0,4,0,10000,0,0,0,
2026-04-24 20:50:00,METAR EGLF 242050Z AUTO 09005KT 9999 NCD 09/M02 Q1023,0,5,0,10000,0,0,0,
2026-04-24 20:20:00,METAR EGLF 242020Z AUTO 10004KT 9999 NCD 10/M04 Q1023,0,4,0,10000,0,0,0,
2026-04-24 19:50:00,METAR EGLF 241950Z AUTO 10005KT 9999 NCD 11/M05 Q1023,0,5,0,10000,0,0,0,
2026-04-24 19:20:00,METAR EGLF 241920Z AUTO 08007KT 9999 NCD 13/M05 Q1023,0,7,0,10000,0,0,0,
2026-04-24 18:50:00,METAR EGLF 241850Z AUTO 07008KT 9999 NCD 15/M06 Q1022,0,8,0,10000,0,0,0,
2026-04-24 18:20:00,METAR EGLF 241820Z AUTO 07011KT 9999 NCD 16/M06 Q1022,0,11,0,10000,0,0,0,
2026-04-24 17:50:00,METAR EGLF 241750Z AUTO 08011KT 9999 NCD 17/M04 Q1022,0,11,0,10000,0,0,0,
2026-04-24 17:20:00,METAR EGLF 241720Z AUTO 08010KT 9999 NCD 18/M02 Q1022,0,10,0,10000,0,0,0,
2026-04-24 16:50:00,METAR EGLF 241650Z AUTO 06009KT 9999 NCD 19/M04 Q1022,0,9,0,10000,0,0,0,
2026-04-24 16:20:00,METAR EGLF 241620Z AUTO 07009KT 040V100 9999 NCD 19/M04 Q1022,0,9,0,10000,0,0,0,
2026-04-24 15:50:00,METAR EGLF 241550Z AUTO 10009KT 9999 NCD 19/M05 Q1023,0,9,0,10000,0,0,0,
2026-04-24 15:20:00,METAR EGLF 241520Z AUTO 08011KT 9999 NCD 20/M04 Q1023,0,11,0,10000,0,0,0,
2026-04-24 14:50:00,METAR EGLF 241450Z AUTO 08011KT 9999 NCD 20/M03 Q1023,0,11,0,10000,0,0,0,
2026-04-24 14:20:00,METAR EGLF 241420Z AUTO 08011KT 9999 NCD 19/M03 Q1023,0,11,0,10000,0,0,0,
2026-04-24 13:50:00,METAR EGLF 241350Z AUTO 09009KT 050V130 9999 NCD 19/M00 Q1023,0,9,0,10000,0,0,0,
2026-04-24 13:20:00,METAR EGLF 241320Z AUTO 06011KT 040V100 9999 NCD 19/01 Q1024,0,11,0,10000,0,0,0,
2026-04-24 12:50:00,METAR EGLF 241250Z AUTO 06009KT 030V090 9999 NCD 18/02 Q1024,0,9,0,10000,0,0,0,
2026-04-24 12:20:00,METAR EGLF 241220Z AUTO 06009KT 9999 NCD 17/02 Q1025,0,9,0,10000,0,0,0,
2026-04-24 11:50:00,METAR EGLF 241150Z AUTO 04011KT 020V090 9999 NCD 17/02 Q1025,0,11,0,10000,0,0,0,
2026-04-24 11:20:00,METAR EGLF 241120Z AUTO 07008KT 030V110 9999 NCD 16/03 Q1025,0,8,0,10000,0,0,0,
2026-04-24 10:50:00,METAR EGLF 241050Z AUTO 07009KT 040V100 9999 NCD 15/03 Q1025,0,9,0,10000,0,0,0,
2026-04-24 10:20:00,METAR EGLF 241020Z AUTO 08008KT 030V110 9999 NCD 14/04 Q1026,0,8,0,10000,0,0,0,
2026-04-24 09:50:00,METAR EGLF 240950Z AUTO 08005KT 030V120 9999 NCD 12/04 Q1026,0,5,0,10000,0,0,0,
2026-04-24 09:20:00,METAR EGLF 240920Z AUTO 07006KT 020V110 9999 NCD 12/04 Q1026,0,6,0,10000,0,0,0,
2026-04-24 08:50:00,METAR EGLF 240850Z AUTO 07009KT 9999 NCD 11/04 Q1026,0,9,0,10000,0,0,0,
2026-04-24 08:20:00,METAR EGLF 240820Z AUTO 05006KT 020V080 9999 NCD 09/05 Q1026,0,6,0,10000,0,0,0,
2026-04-24 07:50:00,METAR EGLF 240750Z AUTO 06005KT 020V100 9999 NCD 08/05 Q1026,0,5,0,10000,0,0,0,
2026-04-24 07:20:00,METAR EGLF 240720Z AUTO 06005KT 9999 NCD 07/05 Q1026,0,5,0,10000,0,0,0,
2026-04-24 06:50:00,METAR EGLF 240650Z 06007KT 9999 FEW006 SCT010 06/04 Q1026,0,7,0,10000,0,0,0,
2026-04-24 06:20:00,METAR EGLF 240620Z 06007KT 9999 SCT006 SCT010 05/04 Q1026,0,7,0,10000,0,0,0,
2026-04-24 05:50:00,METAR EGLF 240550Z COR 07007KT 9999 SCT005 BKN007 05/04 Q1026,0,7,0,10000,0,0,0,
2026-04-24 05:20:00,METAR EGLF 240520Z AUTO 07007KT 7000 BKN003/// OVC007/// 05/04 Q1026,0,7,0,7000,0,0,0,
2026-04-24 04:50:00,METAR EGLF 240450Z AUTO 07007KT 6000 OVC003/// 05/04 Q1026,0,7,0,6000,0,0,0,
2026-04-24 04:20:00,METAR EGLF 240420Z AUTO 06005KT 7000 OVC004/// 05/04 Q1026,0,5,0,7000,0,0,0,
2026-04-24 03:50:00,METAR EGLF 240350Z AUTO 06006KT 7000 BKN004/// 05/04 Q1026,0,6,0,7000,0,0,0,
2026-04-24 03:20:00,METAR EGLF 240320Z AUTO 06007KT 9000 OVC005/// 05/04 Q1026,0,7,0,9000,0,0,0,
2026-04-24 02:50:00,METAR EGLF 240250Z AUTO 07005KT 9999 OVC006/// 05/04 Q1026,0,5,0,10000,0,0,0,
2026-04-24 02:20:00,METAR EGLF 240220Z AUTO 07005KT 9999 BKN007/// 05/04 Q1027,0,5,0,10000,0,0,0,
2026-04-24 01:50:00,METAR EGLF 240150Z AUTO 07005KT 9999 NCD 05/04 Q1027,0,5,0,10000,0,0,0,
2026-04-24 01:20:00,METAR EGLF 240120Z AUTO 07005KT 030V090 9999 NCD 06/04 Q1027,0,5,0,10000,0,0,0,
2026-04-24 00:50:00,METAR EGLF 240050Z AUTO 07007KT 9999 NCD 06/04 Q1027,0,7,0,10000,0,0,0,
2026-04-24 00:20:00,METAR EGLF 240020Z AUTO 06007KT 9999 NCD 06/05 Q1027,0,7,0,10000,0,0,0,
2026-04-23 23:50:00,METAR EGLF 232350Z AUTO 06007KT 9999 NCD 06/05 Q1027,0,7,0,10000,0,0,0,
2026-04-23 23:20:00,METAR EGLF 232320Z AUTO 07005KT 9999 NCD 06/04 Q1028,0,5,0,10000,0,0,0,
2026-04-23 22:50:00,METAR EGLF 232250Z AUTO 07006KT 9999 NCD 06/04 Q1028,0,6,0,10000,0,0,0,
2026-04-23 22:20:00,METAR EGLF 232220Z AUTO 08008KT 9999 NCD 07/04 Q1028,0,8,0,10000,0,0,0,
2026-04-23 21:50:00,METAR EGLF 232150Z AUTO 08011KT 9999 NCD 08/04 Q1027,0,11,0,10000,0,0,0,
2026-04-23 21:20:00,METAR EGLF 232120Z AUTO 07013KT 9999 NCD 09/03 Q1027,0,13,0,10000,0,0,0,
2026-04-23 20:50:00,METAR EGLF 232050Z AUTO 07010KT 9999 NCD 09/03 Q1027,0,10,0,10000,0,0,0,
2026-04-23 20:20:00,METAR EGLF 232020Z AUTO 07008KT 9999 NCD 09/M01 Q1027,0,8,0,10000,0,0,0,
2026-04-23 19:50:00,METAR EGLF 231950Z AUTO 08011KT 9999 NCD 12/M03 Q1027,0,11,0,10000,0,0,0,
2026-04-23 19:20:00,METAR EGLF 231920Z AUTO 07011KT 9999 NCD 13/M04 Q1027,0,11,0,10000,0,0,0,
2026-04-23 18:50:00,METAR EGLF 231850Z AUTO 08011KT 9999 NCD 14/M02 Q1027,0,11,0,10000,0,0,0,
2026-04-23 18:20:00,METAR EGLF 231820Z AUTO 08009KT 9999 NCD 15/M03 Q1027,0,9,0,10000,0,0,0,
2026-04-23 17:50:00,METAR EGLF 231750Z AUTO 07012KT 9999 NCD 16/M03 Q1027,0,12,0,10000,0,0,0,
2026-04-23 17:20:00,METAR EGLF 231720Z AUTO 07014KT 9999 NCD 17/M02 Q1027,0,14,0,10000,0,0,0,
2026-04-23 16:50:00,METAR EGLF 231650Z AUTO 07014KT 9999 NCD 18/M00 Q1027,0,14,0,10000,0,0,0,
2026-04-23 16:20:00,METAR EGLF 231620Z AUTO 06014KT 9999 NCD 18/01 Q1027,0,14,0,10000,0,0,0,
2026-04-23 15:50:00,METAR EGLF 231550Z AUTO 07013KT 9999 NCD 18/02 Q1027,0,13,0,10000,0,0,0,
2026-04-23 15:20:00,METAR EGLF 231520Z AUTO 08012KT 050V110 9999 NCD 18/03 Q1028,0,12,0,10000,0,0,0,
2026-04-23 14:50:00,METAR EGLF 231450Z AUTO 10014KT 9999 NCD 18/03 Q1028,0,14,0,10000,0,0,0,
2026-04-23 14:20:00,METAR EGLF 231420Z AUTO 07014KT 9999 NCD 18/04 Q1028,0,14,0,10000,0,0,0,
2026-04-23 13:50:00,METAR EGLF 231350Z AUTO 08014KT 9999 NCD 18/03 Q1028,0,14,0,10000,0,0,0,
2026-04-23 13:20:00,METAR EGLF 231320Z AUTO 09013KT 040V120 9999 NCD 18/04 Q1029,0,13,0,10000,0,0,0,
2026-04-23 12:50:00,METAR EGLF 231250Z AUTO 07013KT 040V100 9999 NCD 18/05 Q1029,0,13,0,10000,0,0,0,
2026-04-23 12:20:00,METAR EGLF 231220Z AUTO 09015KT 9999 NCD 18/05 Q1029,0,15,0,10000,0,0,0,
2026-04-23 11:50:00,METAR EGLF 231150Z AUTO 08014KT 9999 NCD 17/05 Q1029,0,14,0,10000,0,0,0,
2026-04-23 11:20:00,METAR EGLF 231120Z AUTO 07014KT 040V100 9999 NCD 16/07 Q1029,0,14,0,10000,0,0,0,
2026-04-23 10:50:00,METAR EGLF 231050Z AUTO 06012KT 9999 NCD 15/07 Q1030,0,12,0,10000,0,0,0,
2026-04-23 10:20:00,METAR EGLF 231020Z AUTO 06012KT 9999 NCD 14/07 Q1030,0,12,0,10000,0,0,0,
2026-04-23 09:50:00,METAR EGLF 230950Z AUTO 06011KT 9999 NCD 13/07 Q1030,0,11,0,10000,0,0,0,
2026-04-23 09:20:00,METAR EGLF 230920Z AUTO 05011KT 9999 NCD 12/07 Q1030,0,11,0,10000,0,0,0,
2026-04-23 08:50:00,METAR EGLF 230850Z AUTO 05010KT 020V080 9999 NCD 12/07 Q1030,0,10,0,10000,0,0,0,
2026-04-23 08:20:00,METAR EGLF 230820Z AUTO 06010KT 9999 FEW012/// 11/07 Q1030,0,10,0,10000,0,0,0,
2026-04-23 07:50:00,METAR EGLF 230750Z AUTO 05011KT 9999 FEW010/// 10/07 Q1030,0,11,0,10000,0,0,0,
2026-04-23 07:20:00,METAR EGLF 230720Z 06012KT 9999 SCT009 09/07 Q1029,0,12,0,10000,0,0,0,
2026-04-23 06:50:00,METAR EGLF 230650Z 06010KT 9999 SCT008 09/07 Q1029,0,10,0,10000,0,0,0,
2026-04-23 06:20:00,METAR EGLF 230620Z 06009KT 9999 BKN007 08/07 Q1029,0,9,0,10000,0,0,0,
2026-04-23 05:50:00,METAR EGLF 230550Z 06008KT 8000 BKN006 08/06 Q1029,0,8,0,8000,0,0,0,
2026-04-23 05:20:00,METAR EGLF 230520Z AUTO 07008KT 6000 OVC005/// 07/06 Q1029,0,8,0,6000,0,0,0,
2026-04-23 04:50:00,METAR EGLF 230450Z AUTO 06008KT 030V090 6000 OVC004/// 07/06 Q1029,0,8,0,6000,0,0,0,
2026-04-23 04:20:00,METAR EGLF 230420Z AUTO 06006KT 7000 OVC005/// 07/06 Q1028,0,6,0,7000,0,0,0,
2026-04-23 03:50:00,METAR EGLF 230350Z AUTO 06006KT 9999 OVC006/// 07/05 Q1028,0,6,0,10000,0,0,0,
2026-04-23 03:20:00,METAR EGLF 230320Z AUTO 06005KT 9999 OVC007/// 07/05 Q1028,0,5,0,10000,0,0,0,
2026-04-23 02:50:00,METAR EGLF 230250Z AUTO 05005KT 020V090 9999 OVC008/// 07/05 Q1028,0,5,0,10000,0,0,0,
2026-04-23 02:20:00,METAR EGLF 230220Z AUTO 06005KT 9999 OVC009/// 07/05 Q1028,0,5,0,10000,0,0,0,
2026-04-23 01:50:00,METAR EGLF 230150Z AUTO 06007KT 9999 FEW009/// 07/05 Q1028,0,7,0,10000,0,0,0,
2026-04-23 01:20:00,METAR EGLF 230120Z AUTO 06008KT 9999 NCD 07/05 Q1028,0,8,0,10000,0,0,0,
2026-04-23 00:50:00,METAR EGLF 230050Z AUTO 07008KT 9999 NCD 07/05 Q1028,0,8,0,10000,0,0,0,
2026-04-23 00:20:00,METAR EGLF 230020Z AUTO 06008KT 9999 NCD 07/04 Q1028,0,8,0,10000,0,0,0,
2026-04-22 23:50:00,METAR EGLF 222350Z AUTO 06008KT 9999 NCD 08/04 Q1028,0,8,0,10000,0,0,0,
2026-04-22 23:20:00,METAR EGLF 222320Z AUTO 07009KT 9999 NCD 08/03 Q1027,0,9,0,10000,0,0,0,
2026-04-22 22:50:00,METAR EGLF 222250Z AUTO 07008KT 9999 NCD 08/02 Q1027,0,8,0,10000,0,0,0,
2026-04-22 22:20:00,METAR EGLF 222220Z AUTO 07008KT 9999 NCD 09/02 Q1027,0,8,0,10000,0,0,0,
2026-04-22 21:50:00,METAR EGLF 222150Z AUTO 07009KT 9999 NCD 09/01 Q1027,0,9,0,10000,0,0,0,
2026-04-22 21:20:00,METAR EGLF 222120Z AUTO 07010KT 9999 NCD 10/01 Q1027,0,10,0,10000,0,0,0,
2026-04-22 20:50:00,METAR EGLF 222050Z AUTO 07011KT 9999 NCD 10/01 Q1026,0,11,0,10000,0,0,0,
2026-04-22 20:20:00,METAR EGLF 222020Z AUTO 07012KT 9999 NCD 10/00 Q1026,0,12,0,10000,0,0,0,
2026-04-22 19:50:00,METAR EGLF 221950Z AUTO 08008KT 9999 NCD 10/01 Q1026,0,8,0,10000,0,0,0,
2026-04-22 19:20:00,METAR EGLF 221920Z AUTO 08014KT 9999 NCD 11/01 Q1026,0,14,0,10000,0,0,0,
2026-04-22 18:50:00,METAR EGLF 221850Z AUTO 08013KT 9999 NCD 12/01 Q1026,0,13,0,10000,0,0,0,
2026-04-22 18:20:00,METAR EGLF 221820Z AUTO 07015KT 9999 NCD 13/00 Q1025,0,15,0,10000,0,0,0,
2026-04-22 17:50:00,METAR EGLF 221750Z AUTO 07013KT 9999 NCD 13/00 Q1025,0,13,0,10000,0,0,0,
2026-04-22 17:20:00,METAR EGLF 221720Z AUTO 07017KT 9999 NCD 14/01 Q1025,0,17,0,10000,0,0,0,
2026-04-22 16:50:00,METAR EGLF 221650Z AUTO 09016KT 9999 NCD 15/01 Q1025,0,16,0,10000,0,0,0,
2026-04-22 16:20:00,METAR EGLF 221620Z AUTO 07017KT 9999 NCD 15/01 Q1025,0,17,0,10000,0,0,0,
2026-04-22 15:50:00,METAR EGLF 221550Z AUTO 09015KT 9999 NCD 16/01 Q1025,0,15,0,10000,0,0,0,
2026-04-22 15:20:00,METAR EGLF 221520Z AUTO 09016KT 9999 NCD 16/00 Q1025,0,16,0,10000,0,0,0,
2026-04-22 14:50:00,METAR EGLF 221450Z AUTO 08016KT 9999 NCD 16/00 Q1024,0,16,0,10000,0,0,0,
2026-04-22 14:20:00,METAR EGLF 221420Z AUTO 08016KT 9999 NCD 17/01 Q1024,0,16,0,10000,0,0,0,
2026-04-22 13:50:00,METAR EGLF 221350Z AUTO 09016KT 9999 NCD 17/01 Q1024,0,16,0,10000,0,0,0,
2026-04-22 13:20:00,METAR EGLF 221320Z AUTO 07018KT 9999 NCD 17/02 Q1024,0,18,0,10000,0,0,0,
2026-04-22 12:50:00,METAR EGLF 221250Z AUTO 07016KT 040V100 9999 NCD 17/03 Q1024,0,16,0,10000,0,0,0,
2026-04-22 12:20:00,METAR EGLF 221220Z AUTO 07019KT 040V100 9999 NCD 16/03 Q1024,0,19,0,10000,0,0,0,
2026-04-22 11:50:00,METAR EGLF 221150Z AUTO 08016KT 9999 NCD 16/03 Q1024,0,16,0,10000,0,0,0,
2026-04-22 11:20:00,METAR EGLF 221120Z AUTO 07017KT 9999 NCD 16/04 Q1024,0,17,0,10000,0,0,0,
2026-04-22 10:50:00,METAR EGLF 221050Z AUTO 07017KT 9999 NCD 15/04 Q1024,0,17,0,10000,0,0,0,
2026-04-22 10:20:00,METAR EGLF 221020Z AUTO 07015KT 9999 FEW038/// 15/04 Q1024,0,15,0,10000,0,0,0,
2026-04-22 09:50:00,METAR EGLF 220950Z AUTO 09015KT 050V120 9999 SCT035/// 14/05 Q1024,0,15,0,10000,0,0,0,
2026-04-22 09:20:00,METAR EGLF 220920Z AUTO 07018KT 9999 NCD 13/05 Q1024,0,18,0,10000,0,0,0,
2026-04-22 08:50:00,METAR EGLF 220850Z AUTO 06018KT 9999 NCD 12/06 Q1024,0,18,0,10000,0,0,0,
2026-04-22 08:20:00,METAR EGLF 220820Z AUTO 07014KT 9999 NCD 11/06 Q1025,0,14,0,10000,0,0,0,
2026-04-22 07:50:00,METAR EGLF 220750Z 07013KT CAVOK 10/06 Q1025,1,0,0,9999,0,0,0,
2026-04-22 07:20:00,METAR EGLF 220720Z 07012KT 9999 FEW007 08/06 Q1025,0,12,0,10000,0,0,0,
2026-04-22 06:50:00,METAR EGLF 220650Z 07008KT 9999 SCT006 07/06 Q1025,0,8,0,10000,0,0,0,
2026-04-22 06:20:00,METAR EGLF 220620Z 06008KT 9000 BKN006 06/05 Q1025,0,8,0,9000,0,0,0,
2026-04-22 05:50:00,METAR EGLF 220550Z 06008KT 8000 BKN007 06/05 Q1025,0,8,0,8000,0,0,0,
2026-04-22 05:20:00,METAR EGLF 220520Z AUTO 06008KT 8000 OVC008/// 05/05 Q1025,0,8,0,8000,0,0,0,
2026-04-22 04:50:00,METAR EGLF 220450Z AUTO 06006KT 9000 BKN008/// 04/03 Q1024,0,6,0,9000,0,0,0,
2026-04-22 04:20:00,METAR EGLF 220420Z AUTO 06007KT 9999 NCD 03/02 Q1024,0,7,0,10000,0,0,0,
2026-04-22 03:50:00,METAR EGLF 220350Z AUTO 07006KT 9999 NCD 04/03 Q1024,0,6,0,10000,0,0,0,
2026-04-22 03:20:00,METAR EGLF 220320Z AUTO 06007KT 9999 NCD 05/04 Q1024,0,7,0,10000,0,0,0,
2026-04-22 02:50:00,METAR EGLF 220250Z AUTO 06007KT 9999 NCD 05/04 Q1024,0,7,0,10000,0,0,0,
2026-04-22 02:20:00,METAR EGLF 220220Z AUTO 06007KT 9999 NCD 05/04 Q1024,0,7,0,10000,0,0,0,
2026-04-22 01:50:00,METAR EGLF 220150Z AUTO 07008KT 9999 NCD 05/03 Q1024,0,8,0,10000,0,0,0,
2026-04-22 01:20:00,METAR EGLF 220120Z AUTO 07007KT 9999 NCD 05/03 Q1024,0,7,0,10000,0,0,0,
2026-04-22 00:50:00,METAR EGLF 220050Z AUTO 06007KT 9999 NCD 06/03 Q1024,0,7,0,10000,0,0,0,
2026-04-22 00:20:00,METAR EGLF 220020Z AUTO 06008KT 9999 FEW017/// 05/03 Q1024,0,8,0,10000,0,0,0,
2026-04-21 23:50:00,METAR EGLF 212350Z AUTO 06007KT 9999 NCD 06/02 Q1025,0,7,0,10000,0,0,0,
2026-04-21 23:20:00,METAR EGLF 212320Z AUTO 06007KT 9999 NCD 06/02 Q1025,0,7,0,10000,0,0,0,
2026-04-21 22:50:00,METAR EGLF 212250Z AUTO 06007KT 9999 NCD 06/02 Q1025,0,7,0,10000,0,0,0,
2026-04-21 22:20:00,METAR EGLF 212220Z AUTO 05006KT 020V080 9999 NCD 07/01 Q1025,0,6,0,10000,0,0,0,
2026-04-21 21:50:00,METAR EGLF 212150Z AUTO 07011KT 9999 NCD 08/01 Q1025,0,11,0,10000,0,0,0,
2026-04-21 21:20:00,METAR EGLF 212120Z AUTO 06012KT 9999 NCD 08/01 Q1025,0,12,0,10000,0,0,0,
2026-04-21 20:50:00,METAR EGLF 212050Z 06012KT CAVOK 08/01 Q1025,1,0,0,9999,0,0,0,
2026-04-21 20:20:00,METAR EGLF 212020Z 08010KT CAVOK 08/01 Q1025,1,0,0,9999,0,0,0,
2026-04-21 19:50:00,METAR EGLF 211950Z 07011KT CAVOK 09/M01 Q1024,1,0,0,9999,0,0,0,
2026-04-21 19:20:00,METAR EGLF 211920Z 08013KT CAVOK 10/M02 Q1024,1,0,0,9999,0,0,0,
2026-04-21 18:50:00,METAR EGLF 211850Z 07011KT CAVOK 10/M01 Q1024,1,0,0,9999,0,0,0,
2026-04-21 18:20:00,METAR EGLF 211820Z 07016KT CAVOK 11/M01 Q1024,1,0,0,9999,0,0,0,
2026-04-21 17:50:00,METAR EGLF 211750Z 08015KT CAVOK 12/02 Q1023,1,0,0,9999,0,0,0,
2026-04-21 17:20:00,METAR EGLF 211720Z 08018KT CAVOK 13/02 Q1023,1,0,0,9999,0,0,0,
2026-04-21 16:50:00,METAR EGLF 211650Z 08017KT CAVOK 14/03 Q1023,1,0,0,9999,0,0,0,
2026-04-21 16:20:00,METAR EGLF 211620Z 07016KT 9999 FEW042 14/04 Q1023,0,16,0,10000,0,0,0,
2026-04-21 15:50:00,METAR EGLF 211550Z 08015KT 9999 FEW040 14/04 Q1023,0,15,0,10000,0,0,0,
2026-04-21 15:20:00,METAR EGLF 211520Z 08016KT 9999 SCT038 14/05 Q1023,0,16,0,10000,0,0,0,
2026-04-21 14:50:00,METAR EGLF 211450Z 08016KT 9999 SCT036 13/05 Q1023,0,16,0,10000,0,0,0,
2026-04-21 14:20:00,METAR EGLF 211420Z 08020KT 9999 BKN038 13/05 Q1024,0,20,0,10000,0,0,0,
2026-04-21 13:50:00,METAR EGLF 211350Z 06014KT 030V090 9999 BKN038 13/05 Q1024,0,14,0,10000,0,0,0,
2026-04-21 13:20:00,METAR EGLF 211320Z 06015KT 9999 BKN042 13/04 Q1024,0,15,0,10000,0,0,0,
2026-04-21 12:50:00,METAR EGLF 211250Z 06016KT 9999 BKN045 13/03 Q1024,0,16,0,10000,0,0,0,
2026-04-21 12:20:00,METAR EGLF 211220Z 07014KT 9999 BKN045 13/03 Q1024,0,14,0,10000,0,0,0,
2026-04-21 11:50:00,METAR EGLF 211150Z 05014KT 020V100 9999 FEW044 14/03 Q1024,0,14,0,10000,0,0,0,
2026-04-21 11:20:00,METAR EGLF 211120Z 05013KT 020V080 9999 FEW040 13/03 Q1024,0,13,0,10000,0,0,0,
2026-04-21 10:50:00,METAR EGLF 211050Z 04012KT 010V070 9999 SCT036 11/03 Q1024,0,12,0,10000,0,0,0,
2026-04-21 10:20:00,METAR EGLF 211020Z 05011KT 020V080 9999 SCT033 11/03 Q1025,0,11,0,10000,0,0,0,
2026-04-21 09:50:00,METAR EGLF 210950Z 08013KT 040V100 9999 SCT030 12/04 Q1025,0,13,0,10000,0,0,0,
2026-04-21 09:20:00,METAR EGLF 210920Z 07013KT 9999 BKN027 11/04 Q1025,0,13,0,10000,0,0,0,
2026-04-21 08:50:00,METAR EGLF 210850Z 06012KT 9999 SCT022 SCT027 10/04 Q1025,0,12,0,10000,0,0,0,
2026-04-21 08:20:00,METAR EGLF 210820Z 05011KT 020V080 9999 SCT018 BKN030 09/05 Q1025,0,11,0,10000,0,0,0,
2026-04-21 07:50:00,METAR EGLF 210750Z 04009KT 010V080 9999 SCT014 BKN030 09/05 Q1025,0,9,0,10000,0,0,0,
2026-04-21 07:20:00,METAR EGLF 210720Z 05007KT 010V070 9999 SCT014 BKN046 08/05 Q1025,0,7,0,10000,0,0,0,
2026-04-21 06:50:00,METAR EGLF 210650Z 03008KT 9999 SCT014 BKN046 07/05 Q1025,0,8,0,10000,0,0,0,
2026-04-21 06:20:00,METAR EGLF 210620Z 03008KT 9999 SCT014 BKN025 06/05 Q1024,0,8,0,10000,0,0,0,
2026-04-21 05:50:00,METAR EGLF 210550Z 03007KT 9999 FEW014 BKN040 06/04 Q1024,0,7,0,10000,0,0,0,
2026-04-21 05:20:00,METAR EGLF 210520Z AUTO 02007KT 9999 BKN010/// OVC047/// 06/04 Q1024,0,7,0,10000,0,0,0,
2026-04-21 04:50:00,METAR EGLF 210450Z AUTO 02007KT 9999 BKN010/// BKN018/// 05/04 Q1024,0,7,0,10000,0,0,0,
2026-04-21 04:20:00,METAR EGLF 210420Z AUTO 03005KT 9999 SCT044/// 04/03 Q1024,0,5,0,10000,0,0,0,
2026-04-21 03:50:00,METAR EGLF 210350Z AUTO 02006KT 9999 SCT040/// 05/03 Q1024,0,6,0,10000,0,0,0,
2026-04-21 03:20:00,METAR EGLF 210320Z AUTO 02005KT 9999 FEW028/// 05/03 Q1024,0,5,0,10000,0,0,0,
2026-04-21 02:50:00,METAR EGLF 210250Z AUTO 03006KT 9999 FEW015/// 05/03 Q1024,0,6,0,10000,0,0,0,
2026-04-21 02:20:00,METAR EGLF 210220Z AUTO 05006KT 9999 SCT013/// 05/03 Q1024,0,6,0,10000,0,0,0,
2026-04-21 01:50:00,METAR EGLF 210150Z AUTO 06006KT 9999 NCD 04/02 Q1024,0,6,0,10000,0,0,0,
2026-04-21 01:20:00,METAR EGLF 210120Z AUTO 05008KT 9999 NCD 05/03 Q1024,0,8,0,10000,0,0,0,
2026-04-21 00:50:00,METAR EGLF 210050Z AUTO 06007KT 9999 NCD 05/02 Q1025,0,7,0,10000,0,0,0,
2026-04-20 22:50:00,METAR EGLF 202250Z AUTO 05008KT 9999 NCD 07/03 Q1024,0,8,0,10000,0,0,0,
2026-04-20 22:20:00,METAR EGLF 202220Z AUTO 05007KT 9999 NCD 07/02 Q1024,0,7,0,10000,0,0,0,
2026-04-20 21:50:00,METAR EGLF 202150Z AUTO 05007KT 9999 NCD 08/02 Q1024,0,7,0,10000,0,0,0,
2026-04-20 21:20:00,METAR EGLF 202120Z AUTO 04007KT 9999 NCD 09/01 Q1024,0,7,0,10000,0,0,0,
2026-04-20 20:50:00,METAR EGLF 202050Z AUTO 04008KT 9999 NCD 09/01 Q1024,0,8,0,10000,0,0,0,
2026-04-20 20:20:00,METAR EGLF 202020Z AUTO 05006KT 9999 NCD 10/01 Q1023,0,6,0,10000,0,0,0,
2026-04-20 19:50:00,METAR EGLF 201950Z AUTO 06007KT 9999 FEW046/// 09/01 Q1023,0,7,0,10000,0,0,0,
2026-04-20 19:20:00,METAR EGLF 201920Z AUTO 05009KT 9999 NCD 11/01 Q1023,0,9,0,10000,0,0,0,
2026-04-20 18:50:00,METAR EGLF 201850Z AUTO 06009KT 9999 NCD 11/01 Q1023,0,9,0,10000,0,0,0,
2026-04-20 18:20:00,METAR EGLF 201820Z AUTO 05010KT 9999 NCD 12/01 Q1023,0,10,0,10000,0,0,0,
2026-04-20 17:50:00,METAR EGLF 201750Z AUTO 06009KT 9999 FEW047/// 12/02 Q1022,0,9,0,10000,0,0,0,
2026-04-20 17:20:00,METAR EGLF 201720Z AUTO 06009KT 9999 FEW045/// 12/02 Q1023,0,9,0,10000,0,0,0,
2026-04-20 16:50:00,METAR EGLF 201650Z AUTO 07013KT 9999 FEW046/// 13/02 Q1023,0,13,0,10000,0,0,0,
2026-04-20 16:20:00,METAR EGLF 201620Z AUTO 07010KT 030V110 9999 NCD 13/02 Q1023,0,10,0,10000,0,0,0,
2026-04-20 15:50:00,METAR EGLF 201550Z 06011KT 9999 FEW048/// 12/02 Q1023,0,11,0,10000,0,0,0,
2026-04-20 15:20:00,METAR EGLF 201520Z AUTO 07009KT 010V100 9999 FEW048/// 13/02 Q1023,0,9,0,10000,0,0,0,
2026-04-20 14:50:00,METAR EGLF 201450Z AUTO 08014G28KT 030V100 9999 FEW049/// 13/02 Q1022,0,14,1,10000,0,0,0,
2026-04-20 14:20:00,METAR EGLF 201420Z AUTO 06008KT 9999 NCD 13/02 Q1023,0,8,0,10000,0,0,0,
2026-04-20 13:50:00,METAR EGLF 201350Z AUTO 07011KT 040V130 9999 NCD 13/01 Q1023,0,11,0,10000,0,0,0,
2026-04-20 13:20:00,METAR EGLF 201320Z 08010KT 040V100 9999 FEW049 14/02 Q1023,0,10,0,10000,0,0,0,
2026-04-20 12:50:00,METAR EGLF 201250Z 06013KT 020V080 9999 SCT049 14/02 Q1023,0,13,0,10000,0,0,0,
2026-04-20 12:20:00,METAR EGLF 201220Z 05011KT 9999 SCT049 12/01 Q1023,0,11,0,10000,0,0,0,
2026-04-20 11:50:00,METAR EGLF 201150Z 04010KT 9999 SCT047 12/01 Q1023,0,10,0,10000,0,0,0,
2026-04-20 11:20:00,METAR EGLF 201120Z 05012KT 9999 SCT048 12/01 Q1023,0,12,0,10000,0,0,0,
2026-04-20 10:50:00,METAR EGLF 201050Z 07010KT 030V090 9999 FEW048 12/01 Q1024,0,10,0,10000,0,0,0,
2026-04-20 10:20:00,METAR EGLF 201020Z 06011KT 9999 FEW043 12/01 Q1024,0,11,0,10000,0,0,0,
2026-04-20 09:50:00,METAR EGLF 200950Z 05011KT 010V080 9999 FEW035 11/00 Q1024,0,11,0,10000,0,0,0,
2026-04-20 09:20:00,METAR EGLF 200920Z 06012KT 9999 FEW030 11/01 Q1024,0,12,0,10000,0,0,0,
2026-04-20 08:50:00,METAR EGLF 200850Z 04008KT 9999 FEW025 10/03 Q1024,0,8,0,10000,0,0,0,
2026-04-20 08:20:00,METAR EGLF 200820Z 06007KT 020V100 9999 FEW011 09/05 Q1024,0,7,0,10000,0,0,0,
2026-04-20 07:50:00,METAR EGLF 200750Z 06005KT 9999 FEW011 08/06 Q1024,0,5,0,10000,0,0,0,
2026-04-20 07:20:00,METAR EGLF 200720Z 07005KT 040V100 9999 SCT012 07/06 Q1024,0,5,0,10000,0,0,0,
2026-04-20 06:50:00,METAR EGLF 200650Z 21001KT CAVOK 05/03 Q1024,1,0,0,9999,0,0,0,
2026-04-20 06:20:00,METAR EGLF 200620Z 22002KT CAVOK 02/02 Q1024,1,0,0,9999,0,0,0,
2026-04-20 05:50:00,METAR EGLF 200550Z 23002KT CAVOK 01/00 Q1024,1,0,0,9999,0,0,0,
2026-04-20 05:20:00,METAR EGLF 200520Z AUTO 24003KT 9999 NCD 01/M00 Q1024,0,3,0,10000,0,0,0,
2026-04-20 04:50:00,METAR EGLF 200450Z AUTO 23003KT 9999 NCD 01/01 Q1024,0,3,0,10000,0,0,0,
2026-04-20 04:20:00,METAR EGLF 200420Z AUTO 23003KT 9999 NCD 01/00 Q1024,0,3,0,10000,0,0,0,
2026-04-20 03:50:00,METAR EGLF 200350Z AUTO 22001KT 9999 NCD 02/01 Q1024,0,1,0,10000,0,0,0,
2026-04-20 03:20:00,METAR EGLF 200320Z AUTO 23002KT 9999 NCD 02/01 Q1024,0,2,0,10000,0,0,0,
2026-04-20 02:50:00,METAR EGLF 200250Z AUTO 24004KT 9999 NCD 02/01 Q1024,0,4,0,10000,0,0,0,
2026-04-20 02:20:00,METAR EGLF 200220Z AUTO 23003KT 9999 NCD 03/02 Q1024,0,3,0,10000,0,0,0,
2026-04-20 01:50:00,METAR EGLF 200150Z AUTO 22002KT 9999 NCD 04/02 Q1024,0,2,0,10000,0,0,0,
2026-04-20 01:20:00,METAR EGLF 200120Z AUTO 23003KT 9999 NCD 03/02 Q1024,0,3,0,10000,0,0,0,
2026-04-20 00:50:00,METAR EGLF 200050Z AUTO VRB01KT 9999 NCD 05/04 Q1024,0,1,0,10000,0,0,0,
2026-04-20 00:20:00,METAR EGLF 200020Z AUTO VRB01KT 9999 NCD 04/02 Q1024,0,1,0,10000,0,0,0,
2026-04-19 23:50:00,METAR EGLF 192350Z AUTO VRB02KT 9999 NCD 03/00 Q1024,0,2,0,10000,0,0,0,
2026-04-19 23:20:00,METAR EGLF 192320Z AUTO 18001KT 9999 NCD 04/01 Q1025,0,1,0,10000,0,0,0,
2026-04-19 22:50:00,METAR EGLF 192250Z AUTO VRB01KT 9999 NCD 03/01 Q1025,0,1,0,10000,0,0,0,
2026-04-19 22:20:00,METAR EGLF 192220Z AUTO 22001KT 9999 NCD 04/00 Q1025,0,1,0,10000,0,0,0,
2026-04-19 21:50:00,METAR EGLF 192150Z AUTO VRB01KT 9999 NCD 05/01 Q1024,0,1,0,10000,0,0,0,
2026-04-19 21:20:00,METAR EGLF 192120Z AUTO VRB02KT 9999 NCD 05/01 Q1024,0,2,0,10000,0,0,0,
2026-04-19 20:50:00,METAR EGLF 192050Z AUTO VRB02KT 9999 NCD 06/01 Q1024,0,2,0,10000,0,0,0,
2026-04-19 20:20:00,METAR EGLF 192020Z AUTO 32002KT 9999 NCD 09/01 Q1024,0,2,0,10000,0,0,0,
2026-04-19 19:50:00,METAR EGLF 191950Z AUTO 33002KT 9999 NCD 11/01 Q1024,0,2,0,10000,0,0,0,
2026-04-19 19:20:00,METAR EGLF 191920Z AUTO 33002KT 9999 NCD 12/00 Q1024,0,2,0,10000,0,0,0,
2026-04-19 18:50:00,METAR EGLF 191850Z AUTO 33004KT 9999 NCD 12/00 Q1024,0,4,0,10000,0,0,0,
2026-04-19 18:20:00,METAR EGLF 191820Z AUTO 34005KT 300V020 9999 NCD 13/M00 Q1024,0,5,0,10000,0,0,0,
2026-04-19 17:50:00,METAR EGLF 191750Z AUTO 34006KT 310V020 9999 NCD 13/M00 Q1024,0,6,0,10000,0,0,0,
2026-04-19 17:20:00,METAR EGLF 191720Z AUTO 01007KT 310V050 9999 NCD 14/M01 Q1024,0,7,0,10000,0,0,0,
2026-04-19 16:50:00,METAR EGLF 191650Z AUTO 35007KT 310V020 9999 NCD 14/M00 Q1024,0,7,0,10000,0,0,0,
2026-04-19 16:20:00,METAR EGLF 191620Z AUTO 33009KT 9999 NCD 14/M00 Q1024,0,9,0,10000,0,0,0,
2026-04-19 15:50:00,METAR EGLF 191550Z AUTO 01008KT 320V050 9999 NCD 14/M01 Q1024,0,8,0,10000,0,0,0,
2026-04-19 15:20:00,METAR EGLF 191520Z AUTO 36006KT 290V060 9999 NCD 14/M01 Q1024,0,6,0,10000,0,0,0,
2026-04-19 14:50:00,METAR EGLF 191450Z AUTO 34007KT 270V040 9999 NCD 15/M00 Q1025,0,7,0,10000,0,0,0,
2026-04-19 14:20:00,METAR EGLF 191420Z AUTO 36008KT 310V050 9999 NCD 14/M00 Q1025,0,8,0,10000,0,0,0,
2026-04-19 13:50:00,METAR EGLF 191350Z AUTO 33009KT 290V360 9999 NCD 14/M00 Q1025,0,9,0,10000,0,0,0,
2026-04-19 13:20:00,METAR EGLF 191320Z AUTO 36008KT 310V040 9999 NCD 14/M00 Q1025,0,8,0,10000,0,0,0,
2026-04-19 12:50:00,METAR EGLF 191250Z AUTO 35007KT 290V050 9999 NCD 14/00 Q1025,0,7,0,10000,0,0,0,
2026-04-19 12:20:00,METAR EGLF 191220Z AUTO 36008KT 310V070 9999 NCD 14/M00 Q1026,0,8,0,10000,0,0,0,
2026-04-19 11:50:00,METAR EGLF 191150Z AUTO 35011KT 9999 NCD 14/01 Q1026,0,11,0,10000,0,0,0,
2026-04-19 11:20:00,METAR EGLF 191120Z AUTO 35009KT 290V030 9999 NCD 13/M00 Q1026,0,9,0,10000,0,0,0,
2026-04-19 10:50:00,METAR EGLF 191050Z AUTO 36008KT 320V060 9999 NCD 13/M01 Q1026,0,8,0,10000,0,0,0,
2026-04-19 10:20:00,METAR EGLF 191020Z AUTO 36008KT 340V040 9999 NCD 13/00 Q1026,0,8,0,10000,0,0,0,
2026-04-19 09:50:00,METAR EGLF 190950Z AUTO 02008KT 320V050 9999 NCD 12/01 Q1026,0,8,0,10000,0,0,0,
2026-04-19 09:20:00,METAR EGLF 190920Z AUTO 02008KT 360V060 9999 NCD 11/01 Q1026,0,8,0,10000,0,0,0,
2026-04-19 08:50:00,METAR EGLF 190850Z AUTO 02006KT 320V050 9999 NCD 10/02 Q1026,0,6,0,10000,0,0,0,
2026-04-19 08:20:00,METAR EGLF 190820Z AUTO 35005KT 310V040 9999 NCD 10/03 Q1026,0,5,0,10000,0,0,0,
2026-04-19 07:50:00,METAR EGLF 190750Z AUTO 33003KT 280V080 9999 NCD 08/04 Q1026,0,3,0,10000,0,0,0,
2026-04-19 07:20:00,METAR EGLF 190720Z 31004KT 270V360 CAVOK 07/04 Q1026,1,0,0,9999,0,0,0,
2026-04-19 06:50:00,METAR EGLF 190650Z 32003KT 270V360 CAVOK 07/04 Q1026,1,0,0,9999,0,0,0,
2026-04-19 06:20:00,METAR EGLF 190620Z AUTO 29003KT 250V330 9999 NCD 05/04 Q1026,0,3,0,10000,0,0,0,
2026-04-19 05:50:00,METAR EGLF 190550Z AUTO 25003KT 9999 NCD 02/01 Q1026,0,3,0,10000,0,0,0,
2026-04-19 05:20:00,METAR EGLF 190520Z AUTO 26003KT 9999 NCD 01/00 Q1025,0,3,0,10000,0,0,0,
2026-04-19 04:50:00,METAR EGLF 190450Z AUTO VRB02KT 9999 NCD 02/01 Q1025,0,2,0,10000,0,0,0,
2026-04-19 04:20:00,METAR EGLF 190420Z AUTO 29003KT 9999 NCD 04/03 Q1025,0,3,0,10000,0,0,0,
2026-04-19 03:50:00,METAR EGLF 190350Z AUTO 28003KT 250V320 9999 NCD 04/03 Q1025,0,3,0,10000,0,0,0,
2026-04-19 03:20:00,METAR EGLF 190320Z AUTO 27003KT 9999 NCD 04/03 Q1025,0,3,0,10000,0,0,0,
2026-04-19 02:50:00,METAR EGLF 190250Z AUTO 27003KT 9999 NCD 03/02 Q1025,0,3,0,10000,0,0,0,
2026-04-19 02:20:00,METAR EGLF 190220Z AUTO 27003KT 9999 NCD 04/02 Q1025,0,3,0,10000,0,0,0,
2026-04-19 01:50:00,METAR EGLF 190150Z AUTO 26003KT 9999 NCD 06/04 Q1025,0,3,0,10000,0,0,0,
2026-04-19 01:20:00,METAR EGLF 190120Z AUTO 28003KT 9999 NCD 04/03 Q1025,0,3,0,10000,0,0,0,
2026-04-19 00:50:00,METAR EGLF 190050Z AUTO 26004KT 9999 NCD 04/03 Q1025,0,4,0,10000,0,0,0,
2026-04-19 00:20:00,METAR EGLF 190020Z AUTO 25003KT 9999 NCD 06/04 Q1025,0,3,0,10000,0,0,0,
2026-04-18 23:50:00,METAR EGLF 182350Z AUTO 32002KT 9999 NCD 07/05 Q1025,0,2,0,10000,0,0,0,
2026-04-18 23:20:00,METAR EGLF 182320Z AUTO 31003KT 270V350 9999 NCD 08/05 Q1025,0,3,0,10000,0,0,0,
2026-04-18 22:50:00,METAR EGLF 182250Z AUTO 27003KT 9999 NCD 09/05 Q1025,0,3,0,10000,0,0,0,
2026-04-18 22:20:00,METAR EGLF 182220Z AUTO 27004KT 9999 NCD 08/06 Q1024,0,4,0,10000,0,0,0,
2026-04-18 21:50:00,METAR EGLF 182150Z AUTO 26004KT 9999 NCD 09/05 Q1024,0,4,0,10000,0,0,0,
2026-04-18 21:20:00,METAR EGLF 182120Z AUTO VRB02KT 9999 NCD 09/06 Q1024,0,2,0,10000,0,0,0,
2026-04-18 20:50:00,METAR EGLF 182050Z AUTO 31005KT 280V340 9999 NCD 10/06 Q1024,0,5,0,10000,0,0,0,
2026-04-18 20:20:00,METAR EGLF 182020Z AUTO 32005KT 290V360 9999 NCD 11/06 Q1024,0,5,0,10000,0,0,0,
2026-04-18 19:50:00,METAR EGLF 181950Z AUTO 33007KT 9999 FEW036/// SCT047/// 11/06 Q1024 RERA,0,7,0,10000,0,0,0,RA
2026-04-18 19:20:00,METAR EGLF 181920Z AUTO 33010KT 310V010 9999 -RA FEW044/// 13/05 Q1023,0,10,0,10000,0,0,0,-RA
2026-04-18 18:50:00,METAR EGLF 181850Z AUTO 32006KT 9999 NCD 14/03 Q1022,0,6,0,10000,0,0,0,
2026-04-18 18:20:00,METAR EGLF 181820Z AUTO 31007KT 280V340 9999 NCD 14/02 Q1022,0,7,0,10000,0,0,0,
2026-04-18 17:50:00,METAR EGLF 181750Z AUTO 32008KT 280V360 9999 NCD 15/02 Q1022,0,8,0,10000,0,0,0,
2026-04-18 17:20:00,METAR EGLF 181720Z AUTO 32009KT 9999 NCD 15/03 Q1022,0,9,0,10000,0,0,0,
2026-04-18 16:50:00,METAR EGLF 181650Z AUTO 29007KT 250V330 9999 NCD 16/03 Q1022,0,7,0,10000,0,0,0,
2026-04-18 16:20:00,METAR EGLF 181620Z AUTO 33006KT 280V040 9999 NCD 15/04 Q1022,0,6,0,10000,0,0,0,
2026-04-18 15:50:00,METAR EGLF 181550Z AUTO 31010KT 9999 NCD 16/03 Q1022,0,10,0,10000,0,0,0,
2026-04-18 15:20:00,METAR EGLF 181520Z AUTO 31010KT 260V350 9999 NCD 16/03 Q1022,0,10,0,10000,0,0,0,
2026-04-18 14:50:00,METAR EGLF 181450Z 28007KT 240V340 CAVOK 16/03 Q1022,1,0,0,9999,0,0,0,
2026-04-18 14:20:00,METAR EGLF 181420Z AUTO VRB06KT 9999 SCT049/// 16/04 Q1022,0,6,0,10000,0,0,0,
2026-04-18 13:50:00,METAR EGLF 181350Z AUTO 28007KT 250V330 9999 NCD 16/04 Q1022,0,7,0,10000,0,0,0,
2026-04-18 13:20:00,METAR EGLF 181320Z AUTO 32009KT 250V350 9999 SCT045/// 15/04 Q1022,0,9,0,10000,0,0,0,
2026-04-18 12:50:00,METAR EGLF 181250Z AUTO 29007KT 230V030 9999 FEW042/// 16/05 Q1022,0,7,0,10000,0,0,0,
2026-04-18 12:20:00,METAR EGLF 181220Z AUTO 28007KT 230V330 9999 FEW041/// 15/05 Q1022,0,7,0,10000,0,0,0,
2026-04-18 11:50:00,METAR EGLF 181150Z AUTO 28007KT 230V320 9999 FEW040/// SCT049/// 15/05 Q1022,0,7,0,10000,0,0,0,
2026-04-18 11:20:00,METAR EGLF 181120Z AUTO 34006KT 260V020 9999 FEW037/// SCT044/// 14/04 Q1022,0,6,0,10000,0,0,0,
2026-04-18 10:50:00,METAR EGLF 181050Z AUTO 29008KT 250V330 9999 FEW035/// 14/05 Q1022,0,8,0,10000,0,0,0,
2026-04-18 10:20:00,METAR EGLF 181020Z AUTO 30009KT 260V340 9999 SCT031/// BKN040/// 14/06 Q1022,0,9,0,10000,0,0,0,
2026-04-18 09:50:00,METAR EGLF 180950Z AUTO 28006KT 240V340 9999 BKN025/// BKN032/// 13/06 Q1022,0,6,0,10000,0,0,0,
2026-04-18 09:20:00,METAR EGLF 180920Z AUTO 30010KT 9999 SCT022/// 12/06 Q1022,0,10,0,10000,0,0,0,
2026-04-18 08:50:00,METAR EGLF 180850Z AUTO 30007KT 250V330 9999 SCT020/// 12/07 Q1022,0,7,0,10000,0,0,0,
2026-04-18 08:20:00,METAR EGLF 180820Z AUTO 27007KT 230V310 9999 NCD 11/07 Q1022,0,7,0,10000,0,0,0,
2026-04-18 07:50:00,METAR EGLF 180750Z AUTO 26006KT 220V320 9999 NCD 10/07 Q1022,0,6,0,10000,0,0,0,
2026-04-18 07:20:00,METAR EGLF 180720Z 26006KT 230V300 CAVOK 09/07 Q1022,1,0,0,9999,0,0,0,
2026-04-18 06:50:00,METAR EGLF 180650Z COR 26005KT CAVOK 08/07 Q1022,1,0,0,9999,0,0,0,
2026-04-18 06:20:00,METAR EGLF 180620Z AUTO 24004KT 9999 NCD 06/06 Q1022,0,4,0,10000,0,0,0,
2026-04-18 05:50:00,METAR EGLF 180550Z AUTO 23002KT 1700 R24/1100D BR NCD 04/04 Q1021,0,2,0,1700,0,0,1,BR
2026-04-18 05:20:00,METAR EGLF 180520Z AUTO 20002KT 1300 R24/P1500 BCFG NCD 04/04 Q1021,0,2,0,1300,0,0,1,"BC,FG"
2026-04-18 04:50:00,METAR EGLF 180450Z AUTO 19002KT 0600 FG NCD 05/04 Q1021 REUP,0,2,0,965400,0,0,1,"FG,UP"
2026-04-18 04:20:00,METAR EGLF 180420Z AUTO 22002KT 0900 FG NCD 06/06 Q1021,0,2,0,1448100,0,0,1,FG
2026-04-18 03:50:00,METAR EGLF 180350Z AUTO VRB02KT 9999 NCD 07/07 Q1021,0,2,0,10000,0,0,0,
2026-04-18 03:20:00,METAR EGLF 180320Z AUTO 22003KT 9999 FEW008/// 08/08 Q1021,0,3,0,10000,0,0,0,
2026-04-18 02:50:00,METAR EGLF 180250Z AUTO VRB02KT 9999 FEW010/// 10/09 Q1020,0,2,0,10000,0,0,0,
2026-04-18 02:20:00,METAR EGLF 180220Z AUTO 27003KT 9999 NCD 10/09 Q1020,0,3,0,10000,0,0,0,
2026-04-18 01:50:00,METAR EGLF 180150Z AUTO 26003KT 9999 SCT034/// 11/09 Q1020,0,3,0,10000,0,0,0,
2026-04-18 01:20:00,METAR EGLF 180120Z AUTO 27004KT 230V290 9999 FEW022/// BKN029/// 10/09 Q1020,0,4,0,10000,0,0,0,
2026-04-18 00:50:00,METAR EGLF 180050Z AUTO 25003KT 9999 OVC021/// 11/10 Q1020,0,3,0,10000,0,0,0,
2026-04-18 00:20:00,METAR EGLF 180020Z AUTO 27003KT 230V290 9999 OVC018/// 11/10 Q1020,0,3,0,10000,0,0,0,
2026-04-17 23:50:00,METAR EGLF 172350Z AUTO 29003KT 240V330 7000 SCT007/// BKN015/// 10/10 Q1020 REDZ,0,3,0,7000,0,0,0,DZ
2026-04-17 23:20:00,METAR EGLF 172320Z AUTO 28005KT 250V320 4100 +DZ BKN006/// BKN016/// 11/10 Q1020 RERA,0,5,0,4100,0,0,0,"DZ,RA"
2026-04-17 22:50:00,METAR EGLF 172250Z AUTO 23007KT 9999 SCT010/// BKN018/// BKN028/// 12/11 Q1020,0,7,0,10000,0,0,0,
2026-04-17 22:20:00,METAR EGLF 172220Z AUTO 22006KT 9999 SCT010/// OVC030/// 12/10 Q1020,0,6,0,10000,0,0,0,
2026-04-17 21:50:00,METAR EGLF 172150Z AUTO 21007KT 9999 OVC032/// 12/10 Q1020,0,7,0,10000,0,0,0,
2026-04-17 21:20:00,METAR EGLF 172120Z AUTO 21008KT 9999 FEW020/// BKN031/// OVC039/// 12/10 Q1020,0,8,0,10000,0,0,0,
2026-04-17 20:50:00,METAR EGLF 172050Z AUTO 21006KT 9999 FEW021/// BKN042/// 12/09 Q1020,0,6,0,10000,0,0,0,
2026-04-17 20:20:00,METAR EGLF 172020Z AUTO 19007KT 9999 BKN047/// 12/09 Q1019,0,7,0,10000,0,0,0,
2026-04-17 19:50:00,METAR EGLF 171950Z AUTO 20007KT 9999 FEW041/// 13/08 Q1019,0,7,0,10000,0,0,0,
2026-04-17 19:20:00,METAR EGLF 171920Z 21007KT CAVOK 13/08 Q1019,1,0,0,9999,0,0,0,
2026-04-17 18:50:00,METAR EGLF 171850Z AUTO 21009KT 9999 NCD 14/08 Q1019,0,9,0,10000,0,0,0,
2026-04-17 18:20:00,METAR EGLF 171820Z AUTO 22011KT 9999 NCD 14/08 Q1019,0,11,0,10000,0,0,0,
2026-04-17 17:50:00,METAR EGLF 171750Z AUTO 22012KT 9999 NCD 15/08 Q1019,0,12,0,10000,0,0,0,
2026-04-17 17:20:00,METAR EGLF 171720Z AUTO 21015KT 9999 FEW032/// 15/08 Q1019,0,15,0,10000,0,0,0,
2026-04-17 16:50:00,METAR EGLF 171650Z AUTO 21010KT 170V230 9999 FEW032/// 16/08 Q1019,0,10,0,10000,0,0,0,
2026-04-17 16:20:00,METAR EGLF 171620Z 21016KT CAVOK 16/08 Q1018,1,0,0,9999,0,0,0,
2026-04-17 15:50:00,METAR EGLF 171550Z 21018KT 9999 FEW030 17/07 Q1018,0,18,0,10000,0,0,0,
2026-04-17 15:20:00,METAR EGLF 171520Z 21014KT 170V240 9999 FEW035 17/08 Q1018,0,14,0,10000,0,0,0,
2026-04-17 14:50:00,METAR EGLF 171450Z 21015KT 180V250 9999 SCT039 17/08 Q1019,0,15,0,10000,0,0,0,
2026-04-17 14:20:00,METAR EGLF 171420Z 21015G25KT 190V260 9999 SCT035 17/08 Q1019,0,15,1,10000,0,0,0,
2026-04-17 13:50:00,METAR EGLF 171350Z 22014KT 9999 SCT033 SCT040 17/09 Q1019,0,14,0,10000,0,0,0,
2026-04-17 13:20:00,METAR EGLF 171320Z 21014G24KT 180V240 9999 FEW032 SCT043 16/08 Q1019,0,14,1,10000,0,0,0,
2026-04-17 12:50:00,METAR EGLF 171250Z 21014G24KT 180V240 9999 FEW030 SCT045 16/09 Q1019,0,14,1,10000,0,0,0,
2026-04-17 12:20:00,METAR EGLF 171220Z 21014KT 9999 SCT030 15/09 Q1019,0,14,0,10000,0,0,0,
2026-04-17 11:50:00,METAR EGLF 171150Z 21014KT 9999 SCT028 16/08 Q1019,0,14,0,10000,0,0,0,
2026-04-17 11:20:00,METAR EGLF 171120Z 22014KT 9999 FEW028 16/09 Q1019,0,14,0,10000,0,0,0,
2026-04-17 10:50:00,METAR EGLF 171050Z 21013KT 9999 FEW026 SCT030 15/09 Q1019,0,13,0,10000,0,0,0,
2026-04-17 10:20:00,METAR EGLF 171020Z 21012KT 9999 FEW015 BKN030 15/09 Q1019,0,12,0,10000,0,0,0,
2026-04-17 09:50:00,METAR EGLF 170950Z 21011KT 180V250 9999 FEW015 BKN030 14/10 Q1020,0,11,0,10000,0,0,0,
2026-04-17 09:20:00,METAR EGLF 170920Z 20009KT 170V230 9999 SCT015 13/10 Q1020,0,9,0,10000,0,0,0,
2026-04-17 08:50:00,METAR EGLF 170850Z 20009KT 170V230 9999 SCT013 13/10 Q1020,0,9,0,10000,0,0,0,
2026-04-17 08:20:00,METAR EGLF 170820Z 20007KT 9999 FEW032 12/10 Q1019,0,7,0,10000,0,0,0,
2026-04-17 07:50:00,METAR EGLF 170750Z 19008KT 9999 FEW032 12/09 Q1019,0,8,0,10000,0,0,0,
2026-04-17 07:20:00,METAR EGLF 170720Z 19007KT 9999 FEW032 11/09 Q1019,0,7,0,10000,0,0,0,
2026-04-17 06:50:00,METAR EGLF 170650Z 18007KT 9999 FEW032 11/09 Q1019,0,7,0,10000,0,0,0,
2026-04-17 06:20:00,METAR EGLF 170620Z 18007KT 9999 FEW032 10/09 Q1019,0,7,0,10000,0,0,0,
2026-04-17 05:50:00,METAR EGLF 170550Z 20003KT 9999 FEW032 10/09 Q1019,0,3,0,10000,0,0,0,
2026-04-17 05:20:00,METAR EGLF 170520Z AUTO 17006KT 9999 NCD 09/08 Q1019,0,6,0,10000,0,0,0,
2026-04-17 04:50:00,METAR EGLF 170450Z AUTO 17007KT 9999 NCD 09/08 Q1019,0,7,0,10000,0,0,0,
2026-04-17 04:20:00,METAR EGLF 170420Z AUTO 17005KT 9999 NCD 09/09 Q1019,0,5,0,10000,0,0,0,
2026-04-17 03:50:00,METAR EGLF 170350Z AUTO 17004KT 9999 NCD 09/08 Q1019,0,4,0,10000,0,0,0,
2026-04-17 03:20:00,METAR EGLF 170320Z AUTO 16004KT 9999 BKN049/// 10/09 Q1019,0,4,0,10000,0,0,0,
2026-04-17 02:50:00,METAR EGLF 170250Z AUTO 18005KT 9999 OVC046/// 10/09 Q1019,0,5,0,10000,0,0,0,
2026-04-17 02:20:00,METAR EGLF 170220Z AUTO 18006KT 9999 OVC038/// 11/09 Q1019,0,6,0,10000,0,0,0,
2026-04-17 01:50:00,METAR EGLF 170150Z AUTO 18005KT 9999 BKN036/// 11/09 Q1020,0,5,0,10000,0,0,0,
2026-04-17 01:20:00,METAR EGLF 170120Z AUTO 18006KT 9999 SCT034/// 10/09 Q1020,0,6,0,10000,0,0,0,
2026-04-17 00:50:00,METAR EGLF 170050Z AUTO 18005KT 9999 FEW034/// 10/09 Q1020,0,5,0,10000,0,0,0,
2026-04-17 00:20:00,METAR EGLF 170020Z AUTO 18005KT 9999 FEW036/// 10/09 Q1020,0,5,0,10000,0,0,0,
2026-04-16 23:50:00,METAR EGLF 162350Z AUTO 18005KT 9999 NCD 10/09 Q1020,0,5,0,10000,0,0,0,
2026-04-16 23:20:00,METAR EGLF 162320Z AUTO 18005KT 9999 NCD 10/09 Q1020,0,5,0,10000,0,0,0,
2026-04-16 22:50:00,METAR EGLF 162250Z AUTO 19005KT 9999 NCD 10/09 Q1020,0,5,0,10000,0,0,0,
2026-04-16 22:20:00,METAR EGLF 162220Z AUTO 19006KT 9999 NCD 10/09 Q1020,0,6,0,10000,0,0,0,
2026-04-16 21:50:00,METAR EGLF 162150Z AUTO 20005KT 9999 NCD 10/09 Q1020,0,5,0,10000,0,0,0,
2026-04-16 21:20:00,METAR EGLF 162120Z AUTO 19003KT 160V230 9999 NCD 11/09 Q1020,0,3,0,10000,0,0,0,
2026-04-16 20:50:00,METAR EGLF 162050Z AUTO 20005KT 9999 NCD 11/09 Q1020,0,5,0,10000,0,0,0,
2026-04-16 20:20:00,METAR EGLF 162020Z AUTO 20005KT 9999 NCD 12/09 Q1020,0,5,0,10000,0,0,0,
2026-04-16 19:50:00,METAR EGLF 161950Z AUTO 20009KT 9999 NCD 12/08 Q1020,0,9,0,10000,0,0,0,
2026-04-16 19:20:00,METAR EGLF 161920Z AUTO 20008KT 9999 NCD 12/08 Q1020,0,8,0,10000,0,0,0,
2026-04-16 18:50:00,METAR EGLF 161850Z AUTO 20008KT 170V230 9999 NCD 13/08 Q1019,0,8,0,10000,0,0,0,
2026-04-16 18:20:00,METAR EGLF 161820Z AUTO 20007KT 170V230 9999 NCD 13/08 Q1019,0,7,0,10000,0,0,0,
2026-04-16 17:50:00,METAR EGLF 161750Z AUTO 21010KT 170V230 9999 NCD 14/08 Q1019,0,10,0,10000,0,0,0,
2026-04-16 17:20:00,METAR EGLF 161720Z 20012KT CAVOK 14/08 Q1019,1,0,0,9999,0,0,0,
2026-04-16 16:50:00,METAR EGLF 161650Z 21012KT 9999 FEW026 15/09 Q1019,0,12,0,10000,0,0,0,
2026-04-16 16:20:00,METAR EGLF 161620Z 20013KT 170V230 9999 FEW028 15/09 Q1019,0,13,0,10000,0,0,0,
2026-04-16 15:50:00,METAR EGLF 161550Z 22014KT 9999 FEW028 16/09 Q1019,0,14,0,10000,0,0,0,
2026-04-16 14:50:00,METAR EGLF 161450Z 21013KT 9999 SCT030 16/08 Q1019,0,13,0,10000,0,0,0,
2026-04-16 14:20:00,METAR EGLF 161420Z 21014KT 9999 FEW032 BKN040 17/09 Q1019,0,14,0,10000,0,0,0,
2026-04-16 13:50:00,METAR EGLF 161350Z 22012KT 9999 FEW032 BKN040 15/09 Q1019,0,12,0,10000,0,0,0,
2026-04-16 13:20:00,METAR EGLF 161320Z 21011KT 9999 FEW024 BKN034 15/09 Q1019,0,11,0,10000,0,0,0,
2026-04-16 12:50:00,METAR EGLF 161250Z 20011KT 160V240 9999 FEW024 BKN038 16/10 Q1019,0,11,0,10000,0,0,0,
2026-04-16 12:20:00,METAR EGLF 161220Z 24013KT 9999 SCT030 BKN045 16/08 Q1019,0,13,0,10000,0,0,0,
2026-04-16 11:50:00,METAR EGLF 161150Z 23012KT 9999 BKN035 17/08 Q1019,0,12,0,10000,0,0,0,
2026-04-16 11:20:00,METAR EGLF 161120Z 23012KT 200V270 9999 SCT032 16/08 Q1019,0,12,0,10000,0,0,0,
2026-04-16 10:50:00,METAR EGLF 161050Z 24011KT 9999 SCT032 14/07 Q1019,0,11,0,10000,0,0,0,
2026-04-16 10:20:00,METAR EGLF 161020Z 26010KT 220V320 9999 BKN030 15/07 Q1019,0,10,0,10000,0,0,0,
2026-04-16 09:50:00,METAR EGLF 160950Z 23012KT 190V270 9999 BKN029 15/08 Q1019,0,12,0,10000,0,0,0,
2026-04-16 09:20:00,METAR EGLF 160920Z 24012KT 9999 FEW028 13/08 Q1019,0,12,0,10000,0,0,0,
2026-04-16 08:50:00,METAR EGLF 160850Z 24011KT 9999 BKN019 BKN024 13/09 Q1019,0,11,0,10000,0,0,0,
2026-04-16 08:20:00,METAR EGLF 160820Z 23011KT 9999 BKN016 BKN025 13/09 Q1018,0,11,0,10000,0,0,0,
2026-04-16 07:50:00,METAR EGLF 160750Z 21010KT 9999 BKN014 BKN030 12/10 Q1018,0,10,0,10000,0,0,0,
2026-04-16 07:20:00,METAR EGLF 160720Z 22013KT 180V240 9999 BKN013 BKN020 12/10 Q1018,0,13,0,10000,0,0,0,
2026-04-16 06:50:00,METAR EGLF 160650Z 21009KT 9999 FEW013 BKN025 12/09 Q1018,0,9,0,10000,0,0,0,
2026-04-16 06:20:00,METAR EGLF 160620Z 21009KT 190V250 9999 SCT014 BKN040 11/09 Q1018,0,9,0,10000,0,0,0,
2026-04-16 05:50:00,METAR EGLF 160550Z 21010KT 9999 FEW015 11/09 Q1017,0,10,0,10000,0,0,0,
2026-04-16 05:20:00,METAR EGLF 160520Z AUTO 21012KT 9999 FEW016/// SCT021/// 11/09 Q1017,0,12,0,10000,0,0,0,
2026-04-16 04:50:00,METAR EGLF 160450Z AUTO 21012KT 9999 FEW018/// SCT023/// 11/09 Q1017,0,12,0,10000,0,0,0,
2026-04-16 04:20:00,METAR EGLF 160420Z AUTO 21011KT 9999 FEW030/// BKN045/// 11/09 Q1017,0,11,0,10000,0,0,0,
2026-04-16 03:50:00,METAR EGLF 160350Z AUTO 21010KT 9999 FEW038/// OVC047/// 11/09 Q1017,0,10,0,10000,0,0,0,
2026-04-16 03:20:00,METAR EGLF 160320Z AUTO 21009KT 9999 BKN043/// 10/08 Q1017,0,9,0,10000,0,0,0,
2026-04-16 02:50:00,METAR EGLF 160250Z AUTO 21011KT 9999 NCD 10/08 Q1017,0,11,0,10000,0,0,0,
2026-04-16 02:20:00,METAR EGLF 160220Z AUTO 21009KT 9999 FEW018/// 10/08 Q1017,0,9,0,10000,0,0,0,
2026-04-16 01:50:00,METAR EGLF 160150Z AUTO 22007KT 9999 FEW014/// 10/08 Q1017,0,7,0,10000,0,0,0,
2026-04-16 01:20:00,METAR EGLF 160120Z AUTO 22008KT 9999 NCD 10/08 Q1017,0,8,0,10000,0,0,0,
2026-04-16 00:50:00,METAR EGLF 160050Z AUTO 21009KT 9999 NCD 10/08 Q1017,0,9,0,10000,0,0,0,
2026-04-16 00:20:00,METAR EGLF 160020Z AUTO 22010KT 9999 FEW016/// 10/08 Q1017,0,10,0,10000,0,0,0,
2026-04-15 23:50:00,METAR EGLF 152350Z AUTO 21010KT 9999 SCT015/// 10/08 Q1017,0,10,0,10000,0,0,0,
2026-04-15 23:20:00,METAR EGLF 152320Z AUTO 22008KT 9999 BKN014/// 10/08 Q1017,0,8,0,10000,0,0,0,
2026-04-15 22:50:00,METAR EGLF 152250Z AUTO 20006KT 9999 SCT014/// 10/08 Q1017,0,6,0,10000,0,0,0,
2026-04-15 22:20:00,METAR EGLF 152220Z AUTO 21007KT 9999 NCD 10/08 Q1017,0,7,0,10000,0,0,0,
2026-04-15 21:50:00,METAR EGLF 152150Z AUTO 22010KT 9999 FEW018/// 10/08 Q1017,0,10,0,10000,0,0,0,
2026-04-15 21:20:00,METAR EGLF 152120Z AUTO 21010KT 9999 FEW015/// 10/08 Q1017,0,10,0,10000,0,0,0,
2026-04-15 20:50:00,METAR EGLF 152050Z 21008KT CAVOK 10/08 Q1016,1,0,0,9999,0,0,0,
2026-04-15 20:20:00,METAR EGLF 152020Z 20007KT CAVOK 10/08 Q1016,1,0,0,9999,0,0,0,
2026-04-15 19:50:00,METAR EGLF 151950Z 20007KT CAVOK 11/08 Q1016,1,0,0,9999,0,0,0,
2026-04-15 19:20:00,METAR EGLF 151920Z 21010KT CAVOK 12/08 Q1016,1,0,0,9999,0,0,0,
2026-04-15 18:50:00,METAR EGLF 151850Z 21010KT CAVOK 12/09 Q1015,1,0,0,9999,0,0,0,
2026-04-15 18:20:00,METAR EGLF 151820Z 22015KT 9999 FEW030 13/09 Q1015,0,15,0,10000,0,0,0,
2026-04-15 17:50:00,METAR EGLF 151750Z 21015KT 9999 SCT030 13/09 Q1015,0,15,0,10000,0,0,0,
2026-04-15 17:20:00,METAR EGLF 151720Z 21014KT 9999 FEW026 14/09 Q1014,0,14,0,10000,0,0,0,
2026-04-15 16:50:00,METAR EGLF 151650Z 21015G25KT 180V240 9999 FEW020 SCT027 14/10 Q1014,0,15,1,10000,0,0,0,
2026-04-15 16:20:00,METAR EGLF 151620Z 21014KT 9999 FEW018 SCT027 14/11 Q1014,0,14,0,10000,0,0,0,
2026-04-15 15:50:00,METAR EGLF 151550Z 21014KT 9999 VCSH BKN016 13/11 Q1014,0,14,0,10000,0,0,0,"SH,VC"
2026-04-15 15:20:00,METAR EGLF 151520Z COR 21014G24KT 3500 -DZRA BKN020 13/11 Q1014,0,14,1,3500,0,0,0,RA
2026-04-15 14:50:00,METAR EGLF 151450Z 19012KT 150V210 9999 VCSH FEW020 SCT032 14/11 Q1014,0,12,0,10000,0,0,0,"SH,VC"
2026-04-15 14:20:00,METAR EGLF 151420Z 20015G25KT 170V230 8000 -DZRA SCT020 BKN032 15/10 Q1015,0,15,1,8000,0,0,0,RA
2026-04-15 13:50:00,METAR EGLF 151350Z 21016G28KT 9999 FEW033 BKN040 15/09 Q1015,0,16,1,10000,0,0,0,
2026-04-15 13:20:00,METAR EGLF 151320Z 21018G29KT 9999 FEW025 SCT040 16/09 Q1014,0,18,1,10000,0,0,0,
2026-04-15 12:50:00,METAR EGLF 151250Z 21017KT 180V250 9999 SCT022 SCT040 16/10 Q1014,0,17,0,10000,0,0,0,
2026-04-15 11:50:00,METAR EGLF 151150Z 20011G21KT 9999 SCT012 BKN036 BKN043 15/12 Q1014,0,11,1,10000,0,0,0,
2026-04-15 11:20:00,METAR EGLF 151120Z 20010KT 9999 SCT012 BKN036 BKN043 14/12 Q1015,0,10,0,10000,0,0,0,
2026-04-15 10:50:00,METAR EGLF 151050Z 20011KT 170V230 9999 FEW009 SCT013 BKN022 14/13 Q1015,0,11,0,10000,0,0,0,
2026-04-15 10:20:00,METAR EGLF 151020Z 18009KT 9999 -DZ FEW009 SCT013 BKN022 14/12 Q1015,0,9,0,10000,0,0,0,DZ
2026-04-15 09:50:00,METAR EGLF 150950Z 20008KT 170V230 5000 BR SCT006 BKN013 BKN018 14/13 Q1015 REDZ,0,8,0,5000,0,0,1,"BR,DZ"
2026-04-15 09:20:00,METAR EGLF 150920Z 20008KT 160V230 7000 DZ FEW007 BKN022 13/13 Q1015,0,8,0,7000,0,0,0,DZ
2026-04-15 08:50:00,METAR EGLF 150850Z 19009KT 4100 DZ FEW007 BKN022 14/13 Q1015,0,9,0,4100,0,0,0,DZ
2026-04-15 08:20:00,METAR EGLF 150820Z 20010KT 9999 BKN005 BKN024 14/13 Q1015,0,10,0,10000,0,0,0,
2026-04-15 07:50:00,METAR EGLF 150750Z 20008KT 170V230 8000 OVC004 13/12 Q1015,0,8,0,8000,0,0,0,
2026-04-15 07:20:00,METAR EGLF 150720Z 19007KT 140V220 9000 OVC004 12/12 Q1015,0,7,0,9000,0,0,0,
2026-04-15 06:50:00,METAR EGLF 150650Z 16004KT 130V190 9000 OVC004 12/12 Q1015,0,4,0,9000,0,0,0,
2026-04-15 06:20:00,METAR EGLF 150620Z 16005KT 130V190 7000 BKN004 OVC009 12/12 Q1015,0,5,0,7000,0,0,0,
2026-04-15 05:50:00,METAR EGLF 150550Z 19006KT 4500 -DZ BR OVC003 12/12 Q1015,0,6,0,4500,0,0,1,"BR,DZ"
2026-04-15 05:20:00,METAR EGLF 150520Z AUTO 18005KT 150V210 4300 BR BKN004/// OVC007/// 12/12 Q1015 REDZ,0,5,0,4300,0,0,1,"BR,DZ"
2026-04-15 04:50:00,METAR EGLF 150450Z AUTO 19005KT 9999 BKN005/// OVC009/// 12/11 Q1015,0,5,0,10000,0,0,0,
2026-04-15 04:20:00,METAR EGLF 150420Z AUTO 20006KT 170V240 8000 -DZ FEW005/// SCT013/// BKN048/// 12/11 Q1015 REDZ,0,6,0,8000,0,0,0,DZ
2026-04-15 03:50:00,METAR EGLF 150350Z AUTO 17008KT 3600 DZ FEW005/// BKN026/// 12/11 Q1015,0,8,0,3600,0,0,0,DZ
2026-04-15 03:20:00,METAR EGLF 150320Z AUTO 18009KT 7000 SCT005/// BKN029/// OVC034/// 12/11 Q1016,0,9,0,7000,0,0,0,
2026-04-15 02:50:00,METAR EGLF 150250Z AUTO 19009KT 150V210 9999 OVC005/// 12/11 Q1016,0,9,0,10000,0,0,0,
2026-04-15 02:20:00,METAR EGLF 150220Z AUTO 19007KT 150V220 9999 OVC006/// 12/11 Q1016,0,7,0,10000,0,0,0,
2026-04-15 01:50:00,METAR EGLF 150150Z AUTO 18007KT 160V220 9999 OVC006/// 12/11 Q1016,0,7,0,10000,0,0,0,
2026-04-15 01:20:00,METAR EGLF 150120Z AUTO 19009KT 9999 OVC008/// 12/11 Q1016,0,9,0,10000,0,0,0,
2026-04-15 00:50:00,METAR EGLF 150050Z AUTO 19007KT 160V220 9999 OVC009/// 12/11 Q1017,0,7,0,10000,0,0,0,
2026-04-15 00:20:00,METAR EGLF 150020Z AUTO 19007KT 160V230 9999 FEW010/// 12/11 Q1017,0,7,0,10000,0,0,0,
2026-04-14 23:50:00,METAR EGLF 142350Z AUTO 20008KT 9999 SCT025/// 12/11 Q1017,0,8,0,10000,0,0,0,
2026-04-14 23:20:00,METAR EGLF 142320Z AUTO 20008KT 9999 OVC023/// 12/11 Q1017,0,8,0,10000,0,0,0,
2026-04-14 22:50:00,METAR EGLF 142250Z AUTO 18006KT 9999 SCT017/// OVC024/// 12/11 Q1017,0,6,0,10000,0,0,0,
2026-04-14 22:20:00,METAR EGLF 142220Z AUTO 17006KT 140V210 9999 FEW005/// BKN026/// 12/11 Q1017,0,6,0,10000,0,0,0,
2026-04-14 21:50:00,METAR EGLF 142150Z AUTO 16005KT 4100 -DZ BR BKN008/// BKN012/// BKN016/// 11/11 Q1017 REDZ,0,5,0,4100,0,0,1,"BR,DZ"
2026-04-14 21:20:00,METAR EGLF 142120Z AUTO 16004KT 9999 FEW012/// OVC016/// 12/10 Q1018,0,4,0,10000,0,0,0,
2026-04-14 20:50:00,METAR EGLF 142050Z AUTO 16004KT 130V190 9999 SCT011/// OVC017/// 11/10 Q1017,0,4,0,10000,0,0,0,
2026-04-14 20:20:00,METAR EGLF 142020Z 16005KT 120V180 9999 SCT016 BKN027 11/10 Q1017,0,5,0,10000,0,0,0,
2026-04-14 19:50:00,METAR EGLF 141950Z 17007KT 140V200 9999 -DZ BKN015 BKN027 12/09 Q1017,0,7,0,10000,0,0,0,DZ
2026-04-14 19:20:00,METAR EGLF 141920Z 17008KT 9999 VCSH FEW016 BKN023 12/09 Q1017,0,8,0,10000,0,0,0,"SH,VC"
2026-04-14 18:50:00,METAR EGLF 141850Z 16007KT 130V200 9999 VCSH FEW021 BKN027 12/09 Q1017,0,7,0,10000,0,0,0,"SH,VC"
2026-04-14 18:20:00,METAR EGLF 141820Z 17009KT 130V190 9999 VCSH SCT017 BKN030 12/09 Q1017,0,9,0,10000,0,0,0,"SH,VC"
2026-04-14 17:50:00,METAR EGLF 141750Z 17009KT 140V200 9999 SCT019 BKN035 13/09 Q1017,0,9,0,10000,0,0,0,
2026-04-14 17:20:00,METAR EGLF 141720Z 18013KT 130V200 9999 BKN022 BKN035 13/08 Q1017,0,13,0,10000,0,0,0,
2026-04-14 16:50:00,METAR EGLF 141650Z 16012KT 140V200 9999 BKN025 13/07 Q1017,0,12,0,10000,0,0,0,
2026-04-14 16:20:00,METAR EGLF 141620Z 16009KT 130V200 9999 BKN024 13/08 Q1017,0,9,0,10000,0,0,0,
2026-04-14 15:50:00,METAR EGLF 141550Z 16010KT 130V190 9999 BKN023 13/08 Q1017,0,10,0,10000,0,0,0,
2026-04-14 15:20:00,METAR EGLF 141520Z 16012KT 130V200 9999 SCT019 BKN024 13/08 Q1017,0,12,0,10000,0,0,0,
2026-04-14 14:50:00,METAR EGLF 141450Z 18011KT 140V230 9999 BKN024 13/08 Q1017,0,11,0,10000,0,0,0,
2026-04-14 14:20:00,METAR EGLF 141420Z 18011KT 160V230 9999 SCT027 14/08 Q1017,0,11,0,10000,0,0,0,
2026-04-14 13:50:00,METAR EGLF 141350Z 18012KT 150V210 9999 SCT038 15/06 Q1017,0,12,0,10000,0,0,0,
2026-04-14 13:20:00,METAR EGLF 141320Z 17012KT 9999 SCT043 15/06 Q1017,0,12,0,10000,0,0,0,
2026-04-14 12:50:00,METAR EGLF 141250Z 17010KT 120V210 9999 FEW045 16/06 Q1017,0,10,0,10000,0,0,0,
2026-04-14 12:20:00,METAR EGLF 141220Z 18011KT 160V230 9999 FEW048 15/06 Q1017,0,11,0,10000,0,0,0,
2026-04-14 11:50:00,METAR EGLF 141150Z 17013KT 130V200 9999 FEW048 15/05 Q1017,0,13,0,10000,0,0,0,
2026-04-14 11:20:00,METAR EGLF 141120Z 20013KT 160V220 CAVOK 15/06 Q1017,1,0,0,9999,0,0,0,
2026-04-14 10:50:00,METAR EGLF 141050Z 17013KT 130V200 9999 FEW040 15/05 Q1017,0,13,0,10000,0,0,0,
2026-04-14 10:20:00,METAR EGLF 141020Z 17011KT 130V210 9999 SCT035 14/06 Q1017,0,11,0,10000,0,0,0,
2026-04-14 09:50:00,METAR EGLF 140950Z 17010KT 110V200 9999 FEW035 14/07 Q1017,0,10,0,10000,0,0,0,
2026-04-14 09:20:00,METAR EGLF 140920Z 14009KT 100V170 9999 FEW048 13/07 Q1017,0,9,0,10000,0,0,0,
2026-04-14 08:50:00,METAR EGLF 140850Z AUTO 15008KT 110V190 9999 NCD 12/07 Q1017,0,8,0,10000,0,0,0,
2026-04-14 08:20:00,METAR EGLF 140820Z AUTO 15007KT 110V190 9999 NCD 11/07 Q1017,0,7,0,10000,0,0,0,
2026-04-14 07:50:00,METAR EGLF 140750Z AUTO 14006KT 9999 NCD 09/07 Q1017,0,6,0,10000,0,0,0,
2026-04-14 07:20:00,METAR EGLF 140720Z 14005KT 110V170 CAVOK 08/06 Q1017,1,0,0,9999,0,0,0,
2026-04-14 06:50:00,METAR EGLF 140650Z 14005KT CAVOK 06/05 Q1017,1,0,0,9999,0,0,0,
2026-04-14 06:20:00,METAR EGLF 140620Z 13003KT CAVOK 04/04 Q1017,1,0,0,9999,0,0,0,
2026-04-14 05:50:00,METAR EGLF 140550Z 12003KT 9999 MIFG FEW001 02/02 Q1017,0,3,0,10000,0,0,1,FG
2026-04-14 05:20:00,METAR EGLF 140520Z AUTO 11001KT 9999 NCD 02/02 Q1017,0,1,0,10000,0,0,0,
2026-04-14 04:50:00,METAR EGLF 140450Z AUTO 13003KT 9999 NCD 01/01 Q1016,0,3,0,10000,0,0,0,
2026-04-14 04:20:00,METAR EGLF 140420Z AUTO 16002KT 9999 NCD 01/01 Q1016,0,2,0,10000,0,0,0,
2026-04-14 03:50:00,METAR EGLF 140350Z AUTO 20001KT 9999 NCD 01/01 Q1016,0,1,0,10000,0,0,0,
2026-04-14 03:20:00,METAR EGLF 140320Z AUTO 28001KT 4800 BR NCD 02/02 Q1016,0,1,0,4800,0,0,1,BR
2026-04-14 02:50:00,METAR EGLF 140250Z AUTO 28001KT 9999 NCD 02/02 Q1016,0,1,0,10000,0,0,0,
2026-04-14 02:20:00,METAR EGLF 140220Z AUTO 28001KT 9999 NCD 03/03 Q1016,0,1,0,10000,0,0,0,
2026-04-14 01:50:00,METAR EGLF 140150Z AUTO VRB01KT 9999 NCD 03/03 Q1016,0,1,0,10000,0,0,0,
2026-04-14 01:20:00,METAR EGLF 140120Z AUTO 17001KT 9999 NCD 03/02 Q1016,0,1,0,10000,0,0,0,
2026-04-14 00:50:00,METAR EGLF 140050Z AUTO VRB01KT 9999 NCD 03/02 Q1016,0,1,0,10000,0,0,0,
2026-04-14 00:20:00,METAR EGLF 140020Z AUTO 00000KT 9999 NCD 05/04 Q1016,0,0,0,10000,0,0,0,
2026-04-13 23:50:00,METAR EGLF 132350Z AUTO 21001KT 9999 NCD 05/04 Q1016,0,1,0,10000,0,0,0,
2026-04-13 23:20:00,METAR EGLF 132320Z AUTO 22001KT 9999 NCD 05/04 Q1016,0,1,0,10000,0,0,0,
2026-04-13 22:50:00,METAR EGLF 132250Z AUTO 17002KT 9999 NCD 04/03 Q1015,0,2,0,10000,0,0,0,
2026-04-13 22:20:00,METAR EGLF 132220Z AUTO VRB01KT 9999 NCD 05/04 Q1015,0,1,0,10000,0,0,0,
2026-04-13 21:50:00,METAR EGLF 132150Z AUTO VRB02KT 9999 NCD 04/03 Q1015,0,2,0,10000,0,0,0,
2026-04-13 21:20:00,METAR EGLF 132120Z AUTO VRB02KT 9999 NCD 06/04 Q1015,0,2,0,10000,0,0,0,
2026-04-13 20:50:00,METAR EGLF 132050Z AUTO VRB02KT 9999 NCD 06/04 Q1015,0,2,0,10000,0,0,0,
2026-04-13 20:20:00,METAR EGLF 132020Z AUTO VRB01KT 9999 NCD 06/04 Q1015,0,1,0,10000,0,0,0,
2026-04-13 19:50:00,METAR EGLF 131950Z 20002KT 9999 FEW036 06/05 Q1015,0,2,0,10000,0,0,0,
2026-04-13 19:20:00,METAR EGLF 131920Z 23004KT 9999 FEW036 07/05 Q1014,0,4,0,10000,0,0,0,
2026-04-13 18:50:00,METAR EGLF 131850Z 19004KT 9999 FEW040 09/05 Q1014,0,4,0,10000,0,0,0,
2026-04-13 18:20:00,METAR EGLF 131820Z 21004KT 9999 FEW036 10/05 Q1014,0,4,0,10000,0,0,0,
2026-04-13 17:50:00,METAR EGLF 131750Z 21005KT 9999 FEW020 11/05 Q1013,0,5,0,10000,0,0,0,
2026-04-13 17:20:00,METAR EGLF 131720Z 21005KT 9999 FEW020 11/05 Q1013,0,5,0,10000,0,0,0,
2026-04-13 16:50:00,METAR EGLF 131650Z VRB02KT 9999 FEW020CB 12/05 Q1013,0,2,0,10000,0,0,0,
2026-04-13 16:20:00,METAR EGLF 131620Z 17003KT 130V220 9999 VCSH FEW020CB 11/06 Q1013,0,3,0,10000,0,0,0,"SH,VC"
2026-04-13 15:50:00,METAR EGLF 131550Z 23008KT 9999 -SHRA FEW033CB 10/06 Q1013,0,8,0,10000,0,0,0,RA
2026-04-13 15:20:00,METAR EGLF 131520Z 23008KT 9999 VCSH SCT041CB 11/05 Q1013,0,8,0,10000,0,0,0,"SH,VC"
2026-04-13 14:50:00,METAR EGLF 131450Z 26006KT 9999 VCSH SCT025CB 11/04 Q1013,0,6,0,10000,0,0,0,"SH,VC"
2026-04-13 14:20:00,METAR EGLF 131420Z 25008KT 220V290 9999 VCSH SCT025CB 11/05 Q1013,0,8,0,10000,0,0,0,"SH,VC"
2026-04-13 13:50:00,METAR EGLF 131350Z 28006KT 240V320 9999 VCSH SCT035CB 11/05 Q1013,0,6,0,10000,0,0,0,"SH,VC"
2026-04-13 13:20:00,METAR EGLF 131320Z 23014KT 9999 -SHRA BKN031CB 10/05 Q1013,0,14,0,10000,0,0,0,RA
2026-04-13 12:50:00,METAR EGLF 131250Z 22005KT 170V290 9999 SCT039CB 12/04 Q1013,0,5,0,10000,0,0,0,
2026-04-13 12:20:00,METAR EGLF 131220Z VRB03KT 9999 SCT040 12/05 Q1013,0,3,0,10000,0,0,0,
2026-04-13 11:50:00,METAR EGLF 131150Z 23010KT 9999 VCSH BKN038 10/06 Q1013,0,10,0,10000,0,0,0,"SH,VC"
2026-04-13 11:20:00,METAR EGLF 131120Z VRB02KT 9999 VCSH BKN040 10/05 Q1013,0,2,0,10000,0,0,0,"SH,VC"
2026-04-13 10:50:00,METAR EGLF 131050Z VRB01KT 9999 FEW030CB BKN042 10/04 Q1013 RERA,0,1,0,10000,0,0,0,RA
2026-04-13 10:20:00,METAR EGLF 131020Z 25005KT 9999 RA FEW030CB SCT038 10/05 Q1013,0,5,0,10000,0,0,0,RA
2026-04-13 09:50:00,METAR EGLF 130950Z 18005KT 140V210 9999 SCT030 12/04 Q1013,0,5,0,10000,0,0,0,
2026-04-13 09:20:00,METAR EGLF 130920Z 20004KT 140V270 9999 FEW023 SCT030 11/05 Q1013,0,4,0,10000,0,0,0,
2026-04-13 08:50:00,METAR EGLF 130850Z 14005KT 100V170 9999 FEW045 10/06 Q1013,0,5,0,10000,0,0,0,
2026-04-13 08:20:00,METAR EGLF 130820Z 15004KT 120V190 9999 FEW045 09/07 Q1013,0,4,0,10000,0,0,0,
2026-04-13 07:50:00,METAR EGLF 130750Z VRB02KT CAVOK 07/07 Q1013,1,0,0,9999,0,0,0,
2026-04-13 07:20:00,METAR EGLF 130720Z 01001KT CAVOK 05/05 Q1013,1,0,0,9999,0,0,0,
2026-04-13 06:50:00,METAR EGLF 130650Z VRB01KT CAVOK 02/02 Q1013,1,0,0,9999,0,0,0,
2026-04-13 06:20:00,METAR EGLF 130620Z 00000KT CAVOK 01/01 Q1013,1,0,0,9999,0,0,0,
2026-04-13 05:50:00,METAR EGLF 130550Z 24001KT 9999 1400E R24/1100D BCFG FEW004 M00/M01 Q1013 REUP,0,1,0,10000,0,0,1,"BC,FG,UP"
2026-04-13 05:20:00,METAR EGLF 130520Z AUTO VRB02KT 1600 UP NCD M01/M01 Q1013,0,2,0,1600,0,0,0,UP
2026-04-13 04:50:00,METAR EGLF 130450Z AUTO 20001KT 0800 FZFG NCD M00/M01 Q1013 REUP,0,1,0,1287200,0,0,1,"FG,UP"
2026-04-13 04:20:00,METAR EGLF 130420Z AUTO 20001KT 1800 BR NCD M00/M00 Q1012 REUP,0,1,0,1800,0,0,1,"BR,UP"
2026-04-13 03:50:00,METAR EGLF 130350Z AUTO 00000KT 3500 BR NCD 01/01 Q1012,0,0,0,3500,0,0,1,BR
2026-04-13 03:20:00,METAR EGLF 130320Z AUTO 20001KT 1000 BR NCD 01/00 Q1013 REUP,0,1,0,1000,0,0,1,"BR,UP"
2026-04-13 02:50:00,METAR EGLF 130250Z AUTO 17002KT 7000 NCD 01/01 Q1013 REUP,0,2,0,7000,0,0,0,UP
2026-04-13 02:20:00,METAR EGLF 130220Z AUTO 26002KT 1100 BR NCD 01/01 Q1013 REUP,0,2,0,1100,0,0,1,"BR,UP"
2026-04-13 01:50:00,METAR EGLF 130150Z AUTO 18002KT 1100 BR NCD 01/01 Q1013 REUP,0,2,0,1100,0,0,1,"BR,UP"
2026-04-13 01:20:00,METAR EGLF 130120Z AUTO 23001KT 1700 BR NCD 02/02 Q1013 REUP,0,1,0,1700,0,0,1,"BR,UP"
2026-04-13 00:50:00,METAR EGLF 130050Z AUTO 01003KT 350V140 7000 NCD 03/03 Q1013 REUP,0,3,0,7000,0,0,0,UP
2026-04-13 00:20:00,METAR EGLF 130020Z AUTO VRB02KT 9999 NCD 03/03 Q1013 REUP,0,2,0,10000,0,0,0,UP
2026-04-12 23:50:00,METAR EGLF 122350Z AUTO 30001KT 9999 NCD 03/03 Q1013 REUP,0,1,0,10000,0,0,0,UP
2026-04-12 23:20:00,METAR EGLF 122320Z AUTO 19002KT 9999 NCD 04/04 Q1013,0,2,0,10000,0,0,0,
2026-04-12 22:50:00,METAR EGLF 122250Z AUTO VRB02KT 9999 NCD 04/04 Q1013 REUP,0,2,0,10000,0,0,0,UP
2026-04-12 22:20:00,METAR EGLF 122220Z AUTO 25001KT 3400 BR NCD 04/04 Q1013 REUP,0,1,0,3400,0,0,1,"BR,UP"
2026-04-12 21:50:00,METAR EGLF 122150Z AUTO 21001KT 0800 -DZ FG NCD 04/03 Q1013 REUP,0,1,0,1287200,0,0,1,"DZ,FG,UP"
2026-04-12 21:20:00,METAR EGLF 122120Z AUTO 18002KT 1400 BR NCD 04/04 Q1013 REUP,0,2,0,1400,0,0,1,"BR,UP"
2026-04-12 20:50:00,METAR EGLF 122050Z AUTO 23001KT 0800 FG NCD 04/04 Q1012 REUP,0,1,0,1287200,0,0,1,"FG,UP"
2026-04-12 20:20:00,METAR EGLF 122020Z AUTO 23003KT 120V270 9999 NCD 05/05 Q1013,0,3,0,10000,0,0,0,
2026-04-12 19:50:00,METAR EGLF 121950Z AUTO VRB02KT 9999 FEW030/// 07/05 Q1013,0,2,0,10000,0,0,0,
2026-04-12 19:20:00,METAR EGLF 121920Z AUTO VRB02KT 9999 FEW038/// 07/06 Q1012,0,2,0,10000,0,0,0,
2026-04-12 18:50:00,METAR EGLF 121850Z 18004KT 9999 FEW043 07/06 Q1012,0,4,0,10000,0,0,0,
2026-04-12 18:20:00,METAR EGLF 121820Z 20004KT 170V230 9999 FEW029CB SCT039 08/07 Q1012,0,4,0,10000,0,0,0,
2026-04-12 17:50:00,METAR EGLF 121750Z 17005KT 9999 -RA BKN033TCU SCT042CB 08/06 Q1011,0,5,0,10000,0,0,0,-RA
2026-04-12 17:20:00,METAR EGLF 121720Z 19008KT 9999 -RA BKN033TCU SCT042CB 09/06 Q1012,0,8,0,10000,0,0,0,-RA
2026-04-12 16:50:00,METAR EGLF 121650Z 22007KT 9999 FEW030 SCT042CB 10/07 Q1011,0,7,0,10000,0,0,0,
2026-04-12 16:20:00,METAR EGLF 121620Z 27006KT 230V300 9999 FEW040 SCT048 10/05 Q1011,0,6,0,10000,0,0,0,
2026-04-12 15:50:00,METAR EGLF 121550Z 27009KT 240V310 9999 VCSH FEW036 SCT042 10/05 Q1011,0,9,0,10000,0,0,0,"SH,VC"
2026-04-12 14:50:00,METAR EGLF 121450Z 21009KT 9999 VCSH FEW041CB 11/07 Q1010,0,9,0,10000,0,0,0,"SH,VC"
2026-04-12 14:20:00,METAR EGLF 121420Z 20014G28KT 160V230 9999 VCSH SCT039CB 11/04 Q1010,0,14,1,10000,0,0,0,"SH,VC"
2026-04-12 13:50:00,METAR EGLF 121350Z 24008KT 220V280 9999 VCSH FEW035CB SCT040 11/05 Q1010,0,8,0,10000,0,0,0,"SH,VC"
2026-04-12 13:20:00,METAR EGLF 121320Z 27009KT 220V310 9999 VCSH FEW035CB SCT040 13/04 Q1010,0,9,0,10000,0,0,0,"SH,VC"
2026-04-12 12:50:00,METAR EGLF 121250Z 21016G26KT 9999 VCSH FEW040 14/04 Q1010,0,16,1,10000,0,0,0,"SH,VC"
2026-04-12 12:20:00,METAR EGLF 121220Z 21016KT 180V240 9999 FEW040 14/04 Q1010,0,16,0,10000,0,0,0,
2026-04-12 11:50:00,METAR EGLF 121150Z 21015KT 9999 FEW038 14/04 Q1010,0,15,0,10000,0,0,0,
2026-04-12 11:20:00,METAR EGLF 121120Z 22015KT 180V250 9999 FEW024 SCT038 13/06 Q1010,0,15,0,10000,0,0,0,
2026-04-12 10:50:00,METAR EGLF 121050Z 21010KT 9999 VCSH FEW017 SCT024 10/07 Q1010,0,10,0,10000,0,0,0,"SH,VC"
2026-04-12 10:20:00,METAR EGLF 121020Z 21014KT 9999 SCT040 12/05 Q1010,0,14,0,10000,0,0,0,
2026-04-12 09:50:00,METAR EGLF 120950Z 22014KT 190V250 9999 FEW035 BKN042 12/03 Q1010,0,14,0,10000,0,0,0,
2026-04-12 09:20:00,METAR EGLF 120920Z 22013KT 9999 BKN040 12/04 Q1010,0,13,0,10000,0,0,0,
2026-04-12 08:50:00,METAR EGLF 120850Z 22013KT 9999 SCT033 11/04 Q1010,0,13,0,10000,0,0,0,
2026-04-12 08:20:00,METAR EGLF 120820Z 22012KT 190V250 9999 FEW031 10/05 Q1010,0,12,0,10000,0,0,0,
2026-04-12 07:50:00,METAR EGLF 120750Z 21013KT 9999 FEW030 10/05 Q1010,0,13,0,10000,0,0,0,
2026-04-12 07:20:00,METAR EGLF 120720Z 21011KT CAVOK 09/04 Q1010,1,0,0,9999,0,0,0,
2026-04-12 06:50:00,METAR EGLF 120650Z 19009KT CAVOK 08/05 Q1010,1,0,0,9999,0,0,0,
2026-04-12 06:20:00,METAR EGLF 120620Z AUTO 20010KT 9999 NCD 07/04 Q1009,0,10,0,10000,0,0,0,
2026-04-12 05:50:00,METAR EGLF 120550Z AUTO 19009KT 9999 NCD 07/05 Q1009,0,9,0,10000,0,0,0,
2026-04-12 05:20:00,METAR EGLF 120520Z AUTO 20008KT 9999 FEW033/// 07/05 Q1009,0,8,0,10000,0,0,0,
2026-04-12 04:50:00,METAR EGLF 120450Z AUTO 19008KT 9999 FEW029/// 08/04 Q1009,0,8,0,10000,0,0,0,
2026-04-12 04:20:00,METAR EGLF 120420Z AUTO 20010KT 9999 FEW029/// SCT049/// 08/05 Q1009,0,10,0,10000,0,0,0,
2026-04-12 03:50:00,METAR EGLF 120350Z AUTO 20011KT 9999 SCT024/// BKN031/// 08/05 Q1009,0,11,0,10000,0,0,0,
2026-04-12 03:20:00,METAR EGLF 120320Z AUTO 21013KT 9999 SCT025/// SCT029/// 08/05 Q1009,0,13,0,10000,0,0,0,
2026-04-12 02:50:00,METAR EGLF 120250Z AUTO 21014KT 9999 FEW022/// 08/05 Q1009,0,14,0,10000,0,0,0,
2026-04-12 02:20:00,METAR EGLF 120220Z AUTO 21012KT 9999 FEW026/// SCT046/// 08/05 Q1009,0,12,0,10000,0,0,0,
2026-04-12 01:50:00,METAR EGLF 120150Z AUTO 21012KT 9999 NCD 08/05 Q1008,0,12,0,10000,0,0,0,
2026-04-12 01:20:00,METAR EGLF 120120Z AUTO 22015KT 9999 FEW021/// 08/04 Q1009,0,15,0,10000,0,0,0,
2026-04-12 00:50:00,METAR EGLF 120050Z AUTO 22015KT 9999 FEW021/// 08/04 Q1009,0,15,0,10000,0,0,0,
2026-04-12 00:20:00,METAR EGLF 120020Z AUTO 22013KT 9999 NCD 08/04 Q1009,0,13,0,10000,0,0,0,
2026-04-11 23:50:00,METAR EGLF 112350Z AUTO 21013KT 9999 FEW036/// 08/04 Q1009,0,13,0,10000,0,0,0,
2026-04-11 23:20:00,METAR EGLF 112320Z AUTO 21013G23KT 180V250 9999 FEW025/// 09/04 Q1009,0,13,1,10000,0,0,0,
2026-04-11 22:50:00,METAR EGLF 112250Z AUTO 22016KT 9999 FEW026/// 08/04 Q1009,0,16,0,10000,0,0,0,
2026-04-11 22:20:00,METAR EGLF 112220Z AUTO 21014KT 9999 NCD 09/04 Q1008,0,14,0,10000,0,0,0,
2026-04-11 21:50:00,METAR EGLF 112150Z AUTO 21015G25KT 9999 SCT031/// SCT043/// 09/04 Q1009,0,15,1,10000,0,0,0,
2026-04-11 21:20:00,METAR EGLF 112120Z AUTO 22011KT 9999 FEW030/// 08/05 Q1009,0,11,0,10000,0,0,0,
2026-04-11 20:50:00,METAR EGLF 112050Z AUTO 20008KT 9999 FEW034/// 08/04 Q1009,0,8,0,10000,0,0,0,
2026-04-11 20:20:00,METAR EGLF 112020Z AUTO 18009KT 9999 SCT031/// 08/03 Q1008,0,9,0,10000,0,0,0,
2026-04-11 19:50:00,METAR EGLF 111950Z AUTO 21014KT 9999 SCT027/// 09/03 Q1009 RERA,0,14,0,10000,0,0,0,RA
2026-04-11 19:20:00,METAR EGLF 111920Z AUTO 21014KT 9999 SCT049/// 09/02 Q1008,0,14,0,10000,0,0,0,
2026-04-11 18:50:00,METAR EGLF 111850Z 21014KT CAVOK 09/02 Q1008,1,0,0,9999,0,0,0,
2026-04-11 18:20:00,METAR EGLF 111820Z 22014KT 180V240 CAVOK 09/00 Q1008,1,0,0,9999,0,0,0,
2026-04-11 17:50:00,METAR EGLF 111750Z 22013KT 180V240 CAVOK 10/M01 Q1008,1,0,0,9999,0,0,0,
2026-04-11 17:20:00,METAR EGLF 111720Z 22017KT 9999 NSC 10/M00 Q1008,0,17,0,10000,0,0,0,
2026-04-11 16:50:00,METAR EGLF 111650Z AUTO 22017KT 9999 NCD 11/M02 Q1008,0,17,0,10000,0,0,0,
2026-04-11 16:20:00,METAR EGLF 111620Z AUTO 23018KT 190V250 9999 NCD 11/M02 Q1007,0,18,0,10000,0,0,0,
2026-04-11 15:50:00,METAR EGLF 111550Z 24021KT CAVOK 12/M03 Q1007,1,0,0,9999,0,0,0,
2026-04-11 15:20:00,METAR EGLF 111520Z 24020KT 9999 VCSH FEW049 12/M01 Q1007,0,20,0,10000,0,0,0,"SH,VC"
2026-04-11 14:50:00,METAR EGLF 111450Z 23019KT 9999 VCSH FEW048 12/M01 Q1007,0,19,0,10000,0,0,0,"SH,VC"
2026-04-11 14:20:00,METAR EGLF 111420Z 24021G31KT 210V270 9999 -RA FEW048 12/M02 Q1007,0,21,1,10000,0,0,0,-RA
2026-04-11 13:50:00,METAR EGLF 111350Z 27012G22KT 230V300 CAVOK 11/M00 Q1007,1,0,0,9999,0,0,0,
2026-04-11 13:20:00,METAR EGLF 111320Z 24021G33KT 200V260 9999 FEW049 13/M02 Q1006,0,21,1,10000,0,0,0,
2026-04-11 12:50:00,METAR EGLF 111250Z 25014KT 220V290 9999 FEW049 12/M02 Q1006,0,14,0,10000,0,0,0,
2026-04-11 12:20:00,METAR EGLF 111220Z 24016KT 220V280 9999 FEW047 12/M01 Q1006,0,16,0,10000,0,0,0,
2026-04-11 11:50:00,METAR EGLF 111150Z 26012KT 230V300 9999 SCT045 11/M01 Q1006,0,12,0,10000,0,0,0,
2026-04-11 11:20:00,METAR EGLF 111120Z 25012KT 220V300 9999 FEW040 11/00 Q1006,0,12,0,10000,0,0,0,
2026-04-11 10:50:00,METAR EGLF 111050Z 27011KT 230V310 9999 FEW035 10/01 Q1006,0,11,0,10000,0,0,0,
2026-04-11 10:20:00,METAR EGLF 111020Z 25015KT 9999 SCT032 BKN038 10/02 Q1006,0,15,0,10000,0,0,0,
2026-04-11 09:50:00,METAR EGLF 110950Z 27014KT 9999 BKN020 10/02 Q1005,0,14,0,10000,0,0,0,
2026-04-11 09:20:00,METAR EGLF 110920Z 27011KT 240V310 9999 FEW025 09/04 Q1005,0,11,0,10000,0,0,0,
2026-04-11 08:50:00,METAR EGLF 110850Z 27007KT 240V320 9999 FEW024 SCT030 08/05 Q1005,0,7,0,10000,0,0,0,
2026-04-11 08:20:00,METAR EGLF 110820Z 27008KT 240V320 9000 VCSH SCT008 BKN025 08/06 Q1004,0,8,0,9000,0,0,0,"SH,VC"
2026-04-11 07:50:00,METAR EGLF 110750Z 27011KT 230V290 9000 VCSH FEW013 BKN028 08/07 Q1004,0,11,0,9000,0,0,0,"SH,VC"
2026-04-11 07:20:00,METAR EGLF 110720Z COR 22012G24KT 200V270 9000 -RA OVC013 11/08 Q1003,0,12,1,9000,0,0,0,-RA
2026-04-11 06:50:00,METAR EGLF 110650Z 21008KT 170V240 9999 BKN015 BKN022 11/08 Q1003,0,8,0,10000,0,0,0,
2026-04-11 06:20:00,METAR EGLF 110620Z AUTO 19007KT 160V230 9999 SCT017/// BKN034/// BKN045/// 11/07 Q1002,0,7,0,10000,0,0,0,
2026-04-11 05:50:00,METAR EGLF 110550Z AUTO 19008KT 160V220 9999 FEW027/// OVC036/// 11/07 Q1003,0,8,0,10000,0,0,0,
2026-04-11 05:20:00,METAR EGLF 110520Z AUTO 18007KT 150V220 9999 FEW028/// OVC034/// 11/06 Q1002,0,7,0,10000,0,0,0,
2026-04-11 04:50:00,METAR EGLF 110450Z AUTO 17006KT 9999 OVC030/// 11/06 Q1003,0,6,0,10000,0,0,0,
2026-04-11 04:20:00,METAR EGLF 110420Z AUTO 17005KT 9999 OVC038/// 10/06 Q1003,0,5,0,10000,0,0,0,
2026-04-11 03:50:00,METAR EGLF 110350Z AUTO 15008KT 110V180 9999 BKN039/// BKN045/// 10/05 Q1003,0,8,0,10000,0,0,0,
2026-04-11 03:20:00,METAR EGLF 110320Z AUTO 15007KT 120V180 9999 BKN045/// 10/05 Q1004,0,7,0,10000,0,0,0,
2026-04-11 02:50:00,METAR EGLF 110250Z AUTO 15008KT 120V180 9999 FEW045/// 09/05 Q1005,0,8,0,10000,0,0,0,
2026-04-11 02:20:00,METAR EGLF 110220Z AUTO 15008KT 120V180 9999 NCD 09/05 Q1005,0,8,0,10000,0,0,0,
2026-04-11 01:50:00,METAR EGLF 110150Z AUTO 15009KT 9999 NCD 09/05 Q1005,0,9,0,10000,0,0,0,
2026-04-11 01:20:00,METAR EGLF 110120Z AUTO 14007KT 110V170 9999 NCD 09/04 Q1006,0,7,0,10000,0,0,0,
2026-04-11 00:50:00,METAR EGLF 110050Z AUTO 14009KT 9999 NCD 08/04 Q1007,0,9,0,10000,0,0,0,
2026-04-11 00:20:00,METAR EGLF 110020Z AUTO 14008KT 9999 NCD 08/03 Q1008,0,8,0,10000,0,0,0,
2026-04-10 23:50:00,METAR EGLF 102350Z AUTO 14006KT 9999 NCD 08/03 Q1008,0,6,0,10000,0,0,0,
2026-04-10 23:20:00,METAR EGLF 102320Z AUTO 14008KT 9999 NCD 08/03 Q1009,0,8,0,10000,0,0,0,
2026-04-10 22:50:00,METAR EGLF 102250Z AUTO 14008KT 9999 NCD 08/03 Q1010,0,8,0,10000,0,0,0,
2026-04-10 22:20:00,METAR EGLF 102220Z AUTO 15008KT 9999 NCD 08/03 Q1010,0,8,0,10000,0,0,0,
2026-04-10 21:50:00,METAR EGLF 102150Z AUTO 13008KT 100V160 9999 NCD 08/02 Q1011,0,8,0,10000,0,0,0,
2026-04-10 21:20:00,METAR EGLF 102120Z AUTO 14008KT 110V170 9999 NCD 08/02 Q1011,0,8,0,10000,0,0,0,
2026-04-10 20:50:00,METAR EGLF 102050Z AUTO 15008KT 9999 NCD 08/02 Q1012,0,8,0,10000,0,0,0,
2026-04-10 20:20:00,METAR EGLF 102020Z AUTO 13007KT 9999 NCD 08/02 Q1012,0,7,0,10000,0,0,0,
2026-04-10 19:50:00,METAR EGLF 101950Z AUTO 17006KT 140V230 9999 NCD 08/02 Q1013,0,6,0,10000,0,0,0,
2026-04-10 19:20:00,METAR EGLF 101920Z AUTO 17007KT 140V200 9999 NCD 09/02 Q1012,0,7,0,10000,0,0,0,
2026-04-10 18:50:00,METAR EGLF 101850Z AUTO 15009KT 120V190 9999 NCD 09/00 Q1012,0,9,0,10000,0,0,0,
2026-04-10 18:20:00,METAR EGLF 101820Z AUTO 15007KT 120V190 9999 NCD 09/M00 Q1013,0,7,0,10000,0,0,0,
2026-04-10 17:50:00,METAR EGLF 101750Z AUTO 14009KT 110V170 9999 NCD 10/M01 Q1012,0,9,0,10000,0,0,0,
2026-04-10 17:20:00,METAR EGLF 101720Z AUTO 13008KT 9999 NCD 10/M00 Q1013,0,8,0,10000,0,0,0,
2026-04-10 16:50:00,METAR EGLF 101650Z AUTO 17008KT 9999 NCD 10/M00 Q1014,0,8,0,10000,0,0,0,
2026-04-10 16:20:00,METAR EGLF 101620Z AUTO 18008KT 150V210 9999 NCD 10/00 Q1015,0,8,0,10000,0,0,0,
2026-04-10 15:50:00,METAR EGLF 101550Z AUTO 19008KT 150V230 9999 NCD 11/01 Q1016,0,8,0,10000,0,0,0,
2026-04-10 15:20:00,METAR EGLF 101520Z AUTO 20009KT 160V230 9999 FEW046/// 11/01 Q1016,0,9,0,10000,0,0,0,
2026-04-10 14:50:00,METAR EGLF 101450Z AUTO 20011KT 160V230 9999 FEW048/// 12/00 Q1017,0,11,0,10000,0,0,0,
2026-04-10 14:20:00,METAR EGLF 101420Z AUTO 20009KT 180V240 9999 NCD 12/M00 Q1017,0,9,0,10000,0,0,0,
2026-04-10 13:50:00,METAR EGLF 101350Z 23011KT 200V270 CAVOK 12/00 Q1017,1,0,0,9999,0,0,0,
2026-04-10 13:20:00,METAR EGLF 101320Z 23012KT 180V260 CAVOK 12/M00 Q1018,1,0,0,9999,0,0,0,
2026-04-10 12:50:00,METAR EGLF 101250Z 23010KT 200V270 9999 FEW046 12/M01 Q1018,0,10,0,10000,0,0,0,
2026-04-10 12:20:00,METAR EGLF 101220Z 21010KT 160V230 9999 FEW045 12/00 Q1019,0,10,0,10000,0,0,0,
2026-04-10 11:50:00,METAR EGLF 101150Z 20009KT 130V250 9999 FEW045 11/00 Q1019,0,9,0,10000,0,0,0,
2026-04-10 11:20:00,METAR EGLF 101120Z AUTO 22008KT 160V270 9999 SCT044/// 11/00 Q1020,0,8,0,10000,0,0,0,
2026-04-10 10:50:00,METAR EGLF 101050Z AUTO 18008KT 130V220 9999 NCD 10/M00 Q1020,0,8,0,10000,0,0,0,
2026-04-10 10:20:00,METAR EGLF 101020Z AUTO 24007KT 190V270 9999 FEW039/// 10/00 Q1021,0,7,0,10000,0,0,0,
2026-04-10 09:50:00,METAR EGLF 100950Z 22005KT 180V260 CAVOK 09/M00 Q1021,1,0,0,9999,0,0,0,
2026-04-10 09:20:00,METAR EGLF 100920Z AUTO 22003KT 170V290 9999 NCD 09/01 Q1021,0,3,0,10000,0,0,0,
2026-04-10 08:50:00,METAR EGLF 100850Z AUTO VRB03KT 9999 NCD 09/00 Q1021,0,3,0,10000,0,0,0,
2026-04-10 08:20:00,METAR EGLF 100820Z AUTO 22003KT 200V280 9999 NCD 08/00 Q1021,0,3,0,10000,0,0,0,
2026-04-10 07:50:00,METAR EGLF 100750Z AUTO 22003KT 190V260 9999 NCD 07/01 Q1021,0,3,0,10000,0,0,0,
2026-04-10 07:20:00,METAR EGLF 100720Z AUTO VRB02KT 9999 NCD 06/01 Q1021,0,2,0,10000,0,0,0,
2026-04-10 06:50:00,METAR EGLF 100650Z AUTO 24002KT 9999 NCD 06/02 Q1021,0,2,0,10000,0,0,0,
2026-04-10 06:20:00,METAR EGLF 100620Z AUTO 25004KT 9999 NCD 05/02 Q1021,0,4,0,10000,0,0,0,
2026-04-10 05:50:00,METAR EGLF 100550Z 16002KT CAVOK 06/00 Q1020,1,0,0,9999,0,0,0,
2026-04-10 05:20:00,METAR EGLF 100520Z AUTO VRB02KT 9999 NCD 06/M00 Q1021,0,2,0,10000,0,0,0,
2026-04-10 04:50:00,METAR EGLF 100450Z AUTO VRB02KT 9999 NCD 06/M00 Q1021,0,2,0,10000,0,0,0,
2026-04-10 04:20:00,METAR EGLF 100420Z AUTO 32003KT 290V350 9999 NCD 06/M00 Q1021,0,3,0,10000,0,0,0,
2026-04-10 03:50:00,METAR EGLF 100350Z AUTO 31004KT 280V350 9999 NCD 06/M00 Q1021,0,4,0,10000,0,0,0,
2026-04-10 03:20:00,METAR EGLF 100320Z AUTO 32005KT 280V010 9999 NCD 06/M00 Q1021,0,5,0,10000,0,0,0,
2026-04-10 02:50:00,METAR EGLF 100250Z AUTO 33009KT 9999 NCD 06/M00 Q1021,0,9,0,10000,0,0,0,
2026-04-10 02:20:00,METAR EGLF 100220Z AUTO 32008KT 9999 NCD 07/M00 Q1022,0,8,0,10000,0,0,0,
2026-04-10 01:50:00,METAR EGLF 100150Z AUTO 31009KT 280V340 9999 NCD 07/00 Q1022,0,9,0,10000,0,0,0,
2026-04-10 01:20:00,METAR EGLF 100120Z AUTO 28007KT 9999 NCD 07/01 Q1023,0,7,0,10000,0,0,0,
2026-04-10 00:50:00,METAR EGLF 100050Z AUTO 27007KT 240V310 9999 NCD 07/01 Q1023,0,7,0,10000,0,0,0,
2026-04-10 00:20:00,METAR EGLF 100020Z AUTO 25007KT 9999 NCD 06/02 Q1023,0,7,0,10000,0,0,0,
2026-04-09 23:50:00,METAR EGLF 092350Z AUTO 25006KT 9999 NCD 06/01 Q1023,0,6,0,10000,0,0,0,
2026-04-09 23:20:00,METAR EGLF 092320Z AUTO 25006KT 9999 NCD 05/M00 Q1022,0,6,0,10000,0,0,0,
2026-04-09 22:50:00,METAR EGLF 092250Z AUTO 25004KT 9999 NCD 06/M00 Q1022,0,4,0,10000,0,0,0,
2026-04-09 22:20:00,METAR EGLF 092220Z AUTO 26007KT 9999 NCD 08/M01 Q1022,0,7,0,10000,0,0,0,
2026-04-09 21:50:00,METAR EGLF 092150Z AUTO 27006KT 240V300 9999 NCD 08/M01 Q1021,0,6,0,10000,0,0,0,
2026-04-09 21:20:00,METAR EGLF 092120Z AUTO 27005KT 250V310 9999 NCD 09/00 Q1020,0,5,0,10000,0,0,0,
2026-04-09 20:50:00,METAR EGLF 092050Z AUTO 31006KT 270V350 9999 NCD 09/00 Q1020,0,6,0,10000,0,0,0,
2026-04-09 20:20:00,METAR EGLF 092020Z AUTO 32006KT 260V020 9999 NCD 09/02 Q1020,0,6,0,10000,0,0,0,
2026-04-09 19:50:00,METAR EGLF 091950Z AUTO 31009KT 270V340 9999 FEW040/// 10/02 Q1020,0,9,0,10000,0,0,0,
2026-04-09 19:20:00,METAR EGLF 091920Z AUTO 32011KT 280V340 9999 SCT033/// BKN042/// BKN049/// 11/04 Q1019,0,11,0,10000,0,0,0,
2026-04-09 18:50:00,METAR EGLF 091850Z AUTO 27010KT 240V300 9999 SCT038/// SCT048/// 11/04 Q1018,0,10,0,10000,0,0,0,
2026-04-09 18:20:00,METAR EGLF 091820Z AUTO 27012KT 9999 NCD 12/04 Q1018,0,12,0,10000,0,0,0,
2026-04-09 17:50:00,METAR EGLF 091750Z AUTO 27014KT 9999 NCD 12/03 Q1018,0,14,0,10000,0,0,0,
2026-04-09 17:20:00,METAR EGLF 091720Z AUTO 27014G24KT 240V300 9999 FEW043/// 12/04 Q1017,0,14,1,10000,0,0,0,
2026-04-09 16:50:00,METAR EGLF 091650Z 27012KT 250V310 9999 FEW025 BKN040 12/04 Q1017,0,12,0,10000,0,0,0,
2026-04-09 16:20:00,METAR EGLF 091620Z 27011KT 250V310 9999 SCT025 BKN034 12/04 Q1017,0,11,0,10000,0,0,0,
2026-04-09 15:50:00,METAR EGLF 091550Z AUTO 28015G25KT 250V310 9999 FEW022/// BKN027/// 14/08 Q1017,0,15,1,10000,0,0,0,
2026-04-09 15:20:00,METAR EGLF 091520Z AUTO 27011KT 240V300 9999 NCD 15/07 Q1016,0,11,0,10000,0,0,0,
2026-04-09 14:50:00,METAR EGLF 091450Z AUTO 27010KT 250V320 9999 NCD 15/07 Q1017,0,10,0,10000,0,0,0,
2026-04-09 14:20:00,METAR EGLF 091420Z AUTO 27009KT 240V310 9999 NCD 15/05 Q1017,0,9,0,10000,0,0,0,
2026-04-09 13:50:00,METAR EGLF 091350Z AUTO 27009KT 240V310 9999 NCD 16/07 Q1017,0,9,0,10000,0,0,0,
2026-04-09 13:20:00,METAR EGLF 091320Z AUTO 28009KT 240V320 9999 NCD 17/09 Q1017,0,9,0,10000,0,0,0,
2026-04-09 12:50:00,METAR EGLF 091250Z AUTO 24014KT 9999 NCD 18/10 Q1017,0,14,0,10000,0,0,0,
2026-04-09 12:20:00,METAR EGLF 091220Z AUTO 24012KT 9999 NCD 18/11 Q1017,0,12,0,10000,0,0,0,
2026-04-09 11:50:00,METAR EGLF 091150Z AUTO 25011KT 220V290 9999 NCD 19/11 Q1017,0,11,0,10000,0,0,0,
2026-04-09 11:20:00,METAR EGLF 091120Z AUTO 27009KT 230V290 9999 NCD 19/11 Q1017,0,9,0,10000,0,0,0,
2026-04-09 10:50:00,METAR EGLF 091050Z AUTO 24012KT 9999 NCD 19/11 Q1017,0,12,0,10000,0,0,0,
2026-04-09 10:20:00,METAR EGLF 091020Z AUTO 24011KT 9999 NCD 19/11 Q1018,0,11,0,10000,0,0,0,
2026-04-09 09:50:00,METAR EGLF 090950Z AUTO 23008KT 9999 NCD 18/11 Q1018,0,8,0,10000,0,0,0,
2026-04-09 09:20:00,METAR EGLF 090920Z AUTO 26006KT 9999 NCD 17/11 Q1018,0,6,0,10000,0,0,0,
2026-04-09 08:50:00,METAR EGLF 090850Z AUTO 26006KT 230V310 9999 NCD 17/10 Q1018,0,6,0,10000,0,0,0,
2026-04-09 08:20:00,METAR EGLF 090820Z AUTO 27004KT 250V310 9999 NCD 16/10 Q1018,0,4,0,10000,0,0,0,
2026-04-09 07:50:00,METAR EGLF 090750Z AUTO 26004KT 9999 NCD 15/11 Q1018,0,4,0,10000,0,0,0,
2026-04-09 07:20:00,METAR EGLF 090720Z AUTO 24003KT 9999 NCD 14/11 Q1018,0,3,0,10000,0,0,0,
2026-04-09 06:50:00,METAR EGLF 090650Z AUTO 24002KT 9999 NCD 12/10 Q1018,0,2,0,10000,0,0,0,
2026-04-09 06:20:00,METAR EGLF 090620Z AUTO 23001KT 9999 NCD 10/09 Q1018,0,1,0,10000,0,0,0,
2026-04-09 05:50:00,METAR EGLF 090550Z 24002KT CAVOK 09/07 Q1018,1,0,0,9999,0,0,0,
2026-04-09 05:20:00,METAR EGLF 090520Z AUTO VRB01KT 9999 NCD 09/08 Q1018,0,1,0,10000,0,0,0,
2026-04-09 04:50:00,METAR EGLF 090450Z AUTO 21002KT 9999 NCD 10/08 Q1018,0,2,0,10000,0,0,0,
2026-04-09 04:20:00,METAR EGLF 090420Z AUTO 30001KT 9999 NCD 11/09 Q1019,0,1,0,10000,0,0,0,
2026-04-09 03:50:00,METAR EGLF 090350Z AUTO 27002KT 9999 NCD 11/09 Q1019,0,2,0,10000,0,0,0,
2026-04-09 03:20:00,METAR EGLF 090320Z AUTO 26002KT 9999 NCD 10/09 Q1019,0,2,0,10000,0,0,0,
2026-04-09 02:50:00,METAR EGLF 090250Z AUTO VRB01KT 9999 NCD 12/09 Q1019,0,1,0,10000,0,0,0,
2026-04-09 02:20:00,METAR EGLF 090220Z AUTO 24004KT 9999 NCD 11/09 Q1019,0,4,0,10000,0,0,0,
2026-04-09 01:50:00,METAR EGLF 090150Z AUTO 26003KT 9999 NCD 11/09 Q1020,0,3,0,10000,0,0,0,
2026-04-09 01:20:00,METAR EGLF 090120Z AUTO 24002KT 9999 NCD 11/08 Q1020,0,2,0,10000,0,0,0,
2026-04-09 00:50:00,METAR EGLF 090050Z AUTO 24002KT 9999 NCD 11/08 Q1020,0,2,0,10000,0,0,0,
2026-04-09 00:20:00,METAR EGLF 090020Z AUTO 29001KT 9999 NCD 11/09 Q1020,0,1,0,10000,0,0,0,
2026-04-08 23:50:00,METAR EGLF 082350Z AUTO 24001KT 9999 NCD 11/09 Q1020,0,1,0,10000,0,0,0,
2026-04-08 23:20:00,METAR EGLF 082320Z AUTO 28002KT 9999 NCD 12/09 Q1021,0,2,0,10000,0,0,0,
2026-04-08 22:50:00,METAR EGLF 082250Z AUTO VRB01KT 9999 NCD 12/10 Q1021,0,1,0,10000,0,0,0,
2026-04-08 22:20:00,METAR EGLF 082220Z AUTO 18001KT 9999 NCD 13/10 Q1021,0,1,0,10000,0,0,0,
2026-04-08 21:50:00,METAR EGLF 082150Z AUTO 23002KT 9999 NCD 13/10 Q1021,0,2,0,10000,0,0,0,
2026-04-08 21:20:00,METAR EGLF 082120Z AUTO 23001KT 9999 NCD 13/10 Q1021,0,1,0,10000,0,0,0,
2026-04-08 20:50:00,METAR EGLF 082050Z AUTO 00000KT 9999 NCD 15/11 Q1021,0,0,0,10000,0,0,0,
2026-04-08 20:20:00,METAR EGLF 082020Z AUTO 22001KT 9999 NCD 16/11 Q1021,0,1,0,10000,0,0,0,
2026-04-08 19:50:00,METAR EGLF 081950Z AUTO 22001KT 9999 NCD 17/11 Q1021,0,1,0,10000,0,0,0,
2026-04-08 19:20:00,METAR EGLF 081920Z AUTO 23003KT 9999 NCD 18/11 Q1021,0,3,0,10000,0,0,0,
2026-04-08 18:50:00,METAR EGLF 081850Z AUTO 24003KT 200V260 9999 NCD 20/12 Q1021,0,3,0,10000,0,0,0,
2026-04-08 18:20:00,METAR EGLF 081820Z AUTO 22004KT 9999 NCD 21/13 Q1021,0,4,0,10000,0,0,0,
2026-04-08 17:50:00,METAR EGLF 081750Z AUTO 23005KT 9999 NCD 22/12 Q1021,0,5,0,10000,0,0,0,
2026-04-08 17:20:00,METAR EGLF 081720Z AUTO 21006KT 9999 NCD 23/12 Q1021,0,6,0,10000,0,0,0,
2026-04-08 16:50:00,METAR EGLF 081650Z AUTO 24007KT 9999 NCD 24/12 Q1021,0,7,0,10000,0,0,0,
2026-04-08 16:20:00,METAR EGLF 081620Z AUTO 21004KT 170V230 9999 NCD 24/11 Q1021,0,4,0,10000,0,0,0,
2026-04-08 15:50:00,METAR EGLF 081550Z AUTO 23007KT 190V260 9999 NCD 24/12 Q1021,0,7,0,10000,0,0,0,
2026-04-08 14:50:00,METAR EGLF 081450Z AUTO 25008KT 210V280 9999 NCD 25/11 Q1021,0,8,0,10000,0,0,0,
2026-04-08 14:20:00,METAR EGLF 081420Z AUTO 20006KT 140V260 9999 NCD 25/11 Q1021,0,6,0,10000,0,0,0,
2026-04-08 13:50:00,METAR EGLF 081350Z AUTO 16007KT 090V210 9999 NCD 25/10 Q1021,0,7,0,10000,0,0,0,
2026-04-08 13:20:00,METAR EGLF 081320Z AUTO 15007KT 100V190 9999 NCD 25/11 Q1021,0,7,0,10000,0,0,0,
2026-04-08 12:50:00,METAR EGLF 081250Z AUTO 16007KT 110V190 9999 NCD 24/11 Q1021,0,7,0,10000,0,0,0,
2026-04-08 12:20:00,METAR EGLF 081220Z 13009KT 100V180 CAVOK 24/10 Q1022,1,0,0,9999,0,0,0,
2026-04-08 11:50:00,METAR EGLF 081150Z 14006KT 090V200 CAVOK 23/10 Q1022,1,0,0,9999,0,0,0,
2026-04-08 11:20:00,METAR EGLF 081120Z AUTO 15006KT 110V210 9999 NCD 22/10 Q1022,0,6,0,10000,0,0,0,
2026-04-08 10:50:00,METAR EGLF 081050Z AUTO 19003KT 130V260 9999 NCD 21/10 Q1023,0,3,0,10000,0,0,0,
2026-04-08 10:20:00,METAR EGLF 081020Z AUTO 13003KT 090V160 9999 NCD 20/09 Q1023,0,3,0,10000,0,0,0,
2026-04-08 09:50:00,METAR EGLF 080950Z AUTO VRB03KT 9999 NCD 19/08 Q1023,0,3,0,10000,0,0,0,
2026-04-08 09:20:00,METAR EGLF 080920Z VRB01KT CAVOK 18/08 Q1023,1,0,0,9999,0,0,0,
2026-04-08 08:50:00,METAR EGLF 080850Z 10003KT 050V150 CAVOK 16/08 Q1023,1,0,0,9999,0,0,0,
2026-04-08 08:20:00,METAR EGLF 080820Z AUTO 11004KT 060V160 9999 NCD 14/07 Q1023,0,4,0,10000,0,0,0,
2026-04-08 07:50:00,METAR EGLF 080750Z AUTO VRB02KT 9999 NCD 13/07 Q1023,0,2,0,10000,0,0,0,
2026-04-08 07:20:00,METAR EGLF 080720Z AUTO VRB02KT 9999 NCD 10/07 Q1022,0,2,0,10000,0,0,0,
2026-04-08 06:50:00,METAR EGLF 080650Z 22001KT CAVOK 08/06 Q1022,1,0,0,9999,0,0,0,
2026-04-08 06:20:00,METAR EGLF 080620Z AUTO 20001KT 9999 NCD 06/05 Q1022,0,1,0,10000,0,0,0,
2026-04-08 05:50:00,METAR EGLF 080550Z VRB01KT CAVOK 05/03 Q1022,1,0,0,9999,0,0,0,
2026-04-08 05:20:00,METAR EGLF 080520Z AUTO VRB02KT 2600 HZ NCD 06/04 Q1022,0,2,0,2600,0,0,0,
2026-04-08 04:50:00,METAR EGLF 080450Z AUTO 04001KT 6000 NCD 05/04 Q1022,0,1,0,6000,0,0,0,
2026-04-08 04:20:00,METAR EGLF 080420Z AUTO 04001KT 3600 HZ NCD 06/05 Q1022,0,1,0,3600,0,0,0,
2026-04-08 03:50:00,METAR EGLF 080350Z AUTO 04001KT 9999 NCD 06/04 Q1022,0,1,0,10000,0,0,0,
2026-04-08 03:20:00,METAR EGLF 080320Z AUTO VRB01KT 9999 NCD 07/04 Q1022,0,1,0,10000,0,0,0,
2026-04-08 02:50:00,METAR EGLF 080250Z AUTO 10003KT 9999 NCD 07/05 Q1022,0,3,0,10000,0,0,0,
2026-04-08 02:20:00,METAR EGLF 080220Z AUTO 08003KT 050V130 9999 NCD 07/05 Q1022,0,3,0,10000,0,0,0,
2026-04-08 01:50:00,METAR EGLF 080150Z AUTO 11004KT 9999 NCD 07/05 Q1022,0,4,0,10000,0,0,0,
2026-04-08 01:20:00,METAR EGLF 080120Z AUTO 13001KT 9999 NCD 07/05 Q1022,0,1,0,10000,0,0,0,
2026-04-08 00:50:00,METAR EGLF 080050Z AUTO 09001KT 9999 NCD 07/05 Q1022,0,1,0,10000,0,0,0,
2026-04-08 00:20:00,METAR EGLF 080020Z AUTO 09001KT 9999 NCD 07/05 Q1022,0,1,0,10000,0,0,0,
2026-04-07 23:50:00,METAR EGLF 072350Z AUTO 09001KT 9999 NCD 08/05 Q1022,0,1,0,10000,0,0,0,
2026-04-07 23:20:00,METAR EGLF 072320Z AUTO 09002KT 9999 NCD 09/06 Q1022,0,2,0,10000,0,0,0,
2026-04-07 22:50:00,METAR EGLF 072250Z AUTO 12003KT 9999 NCD 09/06 Q1022,0,3,0,10000,0,0,0,
2026-04-07 22:20:00,METAR EGLF 072220Z AUTO 08005KT 9999 NCD 10/06 Q1022,0,5,0,10000,0,0,0,
2026-04-07 21:50:00,METAR EGLF 072150Z AUTO 12005KT 9999 NCD 12/07 Q1022,0,5,0,10000,0,0,0,
2026-04-07 21:20:00,METAR EGLF 072120Z AUTO 10007KT 9999 NCD 11/07 Q1022,0,7,0,10000,0,0,0,
2026-04-07 20:50:00,METAR EGLF 072050Z AUTO 09004KT 9999 NCD 12/06 Q1022,0,4,0,10000,0,0,0,
2026-04-07 20:20:00,METAR EGLF 072020Z AUTO 08006KT 9999 NCD 13/06 Q1022,0,6,0,10000,0,0,0,
2026-04-07 19:50:00,METAR EGLF 071950Z AUTO 10006KT 9999 NCD 15/04 Q1021,0,6,0,10000,0,0,0,
2026-04-07 19:20:00,METAR EGLF 071920Z AUTO 10007KT 9999 NCD 16/04 Q1021,0,7,0,10000,0,0,0,
2026-04-07 18:50:00,METAR EGLF 071850Z AUTO 09009KT 9999 NCD 16/04 Q1021,0,9,0,10000,0,0,0,
2026-04-07 18:20:00,METAR EGLF 071820Z AUTO 08008KT 9999 NCD 17/04 Q1021,0,8,0,10000,0,0,0,
2026-04-07 17:50:00,METAR EGLF 071750Z AUTO 09010KT 9999 NCD 19/04 Q1020,0,10,0,10000,0,0,0,
2026-04-07 17:20:00,METAR EGLF 071720Z AUTO 10011KT 9999 NCD 20/05 Q1020,0,11,0,10000,0,0,0,
2026-04-07 16:50:00,METAR EGLF 071650Z AUTO 09011KT 9999 NCD 20/05 Q1020,0,11,0,10000,0,0,0,
2026-04-07 16:20:00,METAR EGLF 071620Z AUTO 09013KT 9999 NCD 21/05 Q1020,0,13,0,10000,0,0,0,
2026-04-07 15:50:00,METAR EGLF 071550Z AUTO 12011KT 090V150 9999 NCD 22/05 Q1020,0,11,0,10000,0,0,0,
2026-04-07 15:20:00,METAR EGLF 071520Z AUTO 11011KT 9999 NCD 21/05 Q1020,0,11,0,10000,0,0,0,
2026-04-07 14:50:00,METAR EGLF 071450Z AUTO 12010KT 9999 NCD 21/04 Q1020,0,10,0,10000,0,0,0,
2026-04-07 14:20:00,METAR EGLF 071420Z AUTO 11011KT 9999 NCD 21/04 Q1020,0,11,0,10000,0,0,0,
2026-04-07 13:50:00,METAR EGLF 071350Z AUTO 12011KT 080V150 9999 NCD 21/03 Q1021,0,11,0,10000,0,0,0,
2026-04-07 13:20:00,METAR EGLF 071320Z AUTO 11011KT 080V150 9999 NCD 21/04 Q1021,0,11,0,10000,0,0,0,
2026-04-07 12:50:00,METAR EGLF 071250Z AUTO 13008KT 100V170 9999 NCD 20/04 Q1021,0,8,0,10000,0,0,0,
2026-04-07 12:20:00,METAR EGLF 071220Z AUTO 12011KT 090V150 9999 NCD 20/03 Q1021,0,11,0,10000,0,0,0,
2026-04-07 11:50:00,METAR EGLF 071150Z AUTO 13011KT 9999 NCD 20/03 Q1022,0,11,0,10000,0,0,0,
2026-04-07 11:20:00,METAR EGLF 071120Z AUTO 13012KT 100V160 9999 NCD 19/03 Q1022,0,12,0,10000,0,0,0,
2026-04-07 10:50:00,METAR EGLF 071050Z AUTO 12011KT 9999 NCD 18/03 Q1022,0,11,0,10000,0,0,0,
2026-04-07 10:20:00,METAR EGLF 071020Z AUTO 12013KT 9999 NCD 17/03 Q1022,0,13,0,10000,0,0,0,
2026-04-07 09:50:00,METAR EGLF 070950Z AUTO 13010KT 9999 NCD 17/04 Q1022,0,10,0,10000,0,0,0,
2026-04-07 09:20:00,METAR EGLF 070920Z AUTO 11009KT 080V150 9999 NCD 15/05 Q1022,0,9,0,10000,0,0,0,
2026-04-07 08:50:00,METAR EGLF 070850Z AUTO 10008KT 9999 NCD 13/05 Q1022,0,8,0,10000,0,0,0,
2026-04-07 08:20:00,METAR EGLF 070820Z AUTO 10006KT 080V140 9999 NCD 11/04 Q1022,0,6,0,10000,0,0,0,
2026-04-07 07:50:00,METAR EGLF 070750Z AUTO 10006KT 9999 NCD 10/04 Q1022,0,6,0,10000,0,0,0,
2026-04-07 07:20:00,METAR EGLF 070720Z AUTO 10004KT 9999 NCD 08/04 Q1022,0,4,0,10000,0,0,0,
2026-04-07 06:50:00,METAR EGLF 070650Z AUTO 12001KT 9999 NCD 04/03 Q1023,0,1,0,10000,0,0,0,
2026-04-07 06:20:00,METAR EGLF 070620Z AUTO 09001KT 9999 NCD 02/01 Q1023,0,1,0,10000,0,0,0,
2026-04-07 05:50:00,METAR EGLF 070550Z 25002KT CAVOK 01/M00 Q1023,1,0,0,9999,0,0,0,
2026-04-07 05:20:00,METAR EGLF 070520Z AUTO 20001KT 9999 NCD 01/M01 Q1022,0,1,0,10000,0,0,0,
2026-04-07 04:50:00,METAR EGLF 070450Z AUTO 23002KT 9999 NCD 01/M01 Q1022,0,2,0,10000,0,0,0,
2026-04-07 04:20:00,METAR EGLF 070420Z AUTO VRB02KT 9999 NCD 02/01 Q1022,0,2,0,10000,0,0,0,
2026-04-07 03:50:00,METAR EGLF 070350Z AUTO VRB02KT 9999 NCD 02/M01 Q1022,0,2,0,10000,0,0,0,
2026-04-07 03:20:00,METAR EGLF 070320Z AUTO 13002KT 9999 NCD 03/01 Q1023,0,2,0,10000,0,0,0,
2026-04-07 02:50:00,METAR EGLF 070250Z AUTO 13004KT 9999 NCD 03/01 Q1023,0,4,0,10000,0,0,0,
2026-04-07 02:20:00,METAR EGLF 070220Z AUTO 11003KT 9999 NCD 04/01 Q1023,0,3,0,10000,0,0,0,
2026-04-07 01:50:00,METAR EGLF 070150Z AUTO 14003KT 110V180 9999 NCD 03/01 Q1023,0,3,0,10000,0,0,0,
2026-04-07 01:20:00,METAR EGLF 070120Z AUTO VRB02KT 9999 NCD 03/M00 Q1023,0,2,0,10000,0,0,0,
2026-04-07 00:50:00,METAR EGLF 070050Z AUTO 13002KT 9999 NCD 04/00 Q1023,0,2,0,10000,0,0,0,
2026-04-07 00:20:00,METAR EGLF 070020Z AUTO 13003KT 9999 NCD 05/01 Q1023,0,3,0,10000,0,0,0,
2026-04-06 23:50:00,METAR EGLF 062350Z AUTO 12003KT 9999 NCD 06/01 Q1023,0,3,0,10000,0,0,0,
2026-04-06 23:20:00,METAR EGLF 062320Z AUTO 12003KT 090V150 9999 NCD 06/00 Q1024,0,3,0,10000,0,0,0,
2026-04-06 22:50:00,METAR EGLF 062250Z AUTO VRB02KT 9999 NCD 05/M01 Q1024,0,2,0,10000,0,0,0,
2026-04-06 22:20:00,METAR EGLF 062220Z AUTO 12003KT 9999 NCD 04/M00 Q1024,0,3,0,10000,0,0,0,
2026-04-06 21:50:00,METAR EGLF 062150Z AUTO 07001KT 9999 NCD 05/M00 Q1024,0,1,0,10000,0,0,0,
2026-04-06 21:20:00,METAR EGLF 062120Z AUTO 07003KT 9999 NCD 08/M02 Q1024,0,3,0,10000,0,0,0,
2026-04-06 20:50:00,METAR EGLF 062050Z AUTO VRB02KT 9999 NCD 07/M01 Q1024,0,2,0,10000,0,0,0,
2026-04-06 20:20:00,METAR EGLF 062020Z AUTO 09003KT 9999 NCD 08/M01 Q1024,0,3,0,10000,0,0,0,
2026-04-06 19:50:00,METAR EGLF 061950Z AUTO 11004KT 9999 NCD 09/M01 Q1024,0,4,0,10000,0,0,0,
2026-04-06 19:20:00,METAR EGLF 061920Z AUTO 11004KT 9999 NCD 10/M01 Q1024,0,4,0,10000,0,0,0,
2026-04-06 18:50:00,METAR EGLF 061850Z AUTO 12005KT 080V140 9999 NCD 11/M00 Q1024,0,5,0,10000,0,0,0,
2026-04-06 18:20:00,METAR EGLF 061820Z AUTO 15005KT 110V170 9999 NCD 12/M00 Q1024,0,5,0,10000,0,0,0,
2026-04-06 17:50:00,METAR EGLF 061750Z AUTO 16007KT 110V180 9999 NCD 13/00 Q1024,0,7,0,10000,0,0,0,
2026-04-06 17:20:00,METAR EGLF 061720Z AUTO 16008KT 110V190 9999 NCD 13/M00 Q1024,0,8,0,10000,0,0,0,
2026-04-06 16:50:00,METAR EGLF 061650Z AUTO 14008KT 9999 NCD 14/M01 Q1024,0,8,0,10000,0,0,0,
2026-04-06 16:20:00,METAR EGLF 061620Z AUTO 16008KT 9999 NCD 14/M01 Q1024,0,8,0,10000,0,0,0,
2026-04-06 15:50:00,METAR EGLF 061550Z AUTO 13008KT 100V170 9999 NCD 14/00 Q1024,0,8,0,10000,0,0,0,
2026-04-06 14:50:00,METAR EGLF 061450Z AUTO 14009KT 110V170 9999 NCD 15/01 Q1025,0,9,0,10000,0,0,0,
2026-04-06 14:20:00,METAR EGLF 061420Z AUTO 14009KT 110V170 9999 NCD 14/03 Q1025,0,9,0,10000,0,0,0,
2026-04-06 13:50:00,METAR EGLF 061350Z AUTO 14009KT 100V180 9999 NCD 15/03 Q1025,0,9,0,10000,0,0,0,
2026-04-06 13:20:00,METAR EGLF 061320Z AUTO 17008KT 130V210 9999 NCD 14/02 Q1025,0,8,0,10000,0,0,0,
2026-04-06 12:50:00,METAR EGLF 061250Z AUTO 13007KT 100V190 9999 NCD 14/02 Q1026,0,7,0,10000,0,0,0,
2026-04-06 12:20:00,METAR EGLF 061220Z AUTO 13010KT 090V180 9999 NCD 14/02 Q1026,0,10,0,10000,0,0,0,
2026-04-06 11:50:00,METAR EGLF 061150Z 13011KT 110V180 CAVOK 14/02 Q1026,1,0,0,9999,0,0,0,
2026-04-06 11:20:00,METAR EGLF 061120Z AUTO 13009KT 090V190 9999 NCD 13/02 Q1026,0,9,0,10000,0,0,0,
2026-04-06 10:50:00,METAR EGLF 061050Z AUTO 16008KT 130V190 9999 NCD 13/01 Q1027,0,8,0,10000,0,0,0,
2026-04-06 10:20:00,METAR EGLF 061020Z AUTO 14007KT 100V190 9999 NCD 12/01 Q1027,0,7,0,10000,0,0,0,
2026-04-06 09:50:00,METAR EGLF 060950Z AUTO 13009KT 110V170 9999 NCD 11/00 Q1027,0,9,0,10000,0,0,0,
2026-04-06 09:20:00,METAR EGLF 060920Z 15008KT 120V180 CAVOK 10/01 Q1027,1,0,0,9999,0,0,0,
2026-04-06 08:50:00,METAR EGLF 060850Z AUTO 12006KT 090V150 9999 NCD 09/02 Q1027,0,6,0,10000,0,0,0,
2026-04-06 08:20:00,METAR EGLF 060820Z AUTO 13007KT 9999 NCD 08/02 Q1027,0,7,0,10000,0,0,0,
2026-04-06 07:50:00,METAR EGLF 060750Z AUTO 14005KT 9999 NCD 06/02 Q1027,0,5,0,10000,0,0,0,
2026-04-06 07:20:00,METAR EGLF 060720Z AUTO 16003KT 080V230 9999 NCD 05/01 Q1027,0,3,0,10000,0,0,0,
2026-04-06 06:50:00,METAR EGLF 060650Z 06002KT CAVOK 02/01 Q1027,1,0,0,9999,0,0,0,
2026-04-06 06:20:00,METAR EGLF 060620Z AUTO 19001KT 9999 NCD M00/M01 Q1027,0,1,0,10000,0,0,0,
2026-04-06 05:50:00,METAR EGLF 060550Z AUTO 19001KT 9999 NCD M00/M02 Q1027,0,1,0,10000,0,0,0,
2026-04-06 05:20:00,METAR EGLF 060520Z AUTO 00000KT 9999 NCD M01/M02 Q1026,0,0,0,10000,0,0,0,
2026-04-06 04:50:00,METAR EGLF 060450Z AUTO 19001KT 9999 NCD M01/M02 Q1026,0,1,0,10000,0,0,0,
2026-04-06 04:20:00,METAR EGLF 060420Z AUTO 22002KT 9999 NCD M01/M03 Q1026,0,2,0,10000,0,0,0,
2026-04-06 03:50:00,METAR EGLF 060350Z AUTO 12001KT 9999 NCD M00/M01 Q1026,0,1,0,10000,0,0,0,
2026-04-06 03:20:00,METAR EGLF 060320Z AUTO VRB02KT 9999 NCD M00/M02 Q1026,0,2,0,10000,0,0,0,
2026-04-06 02:50:00,METAR EGLF 060250Z AUTO 22001KT 9999 NCD M00/M02 Q1026,0,1,0,10000,0,0,0,
2026-04-06 02:20:00,METAR EGLF 060220Z AUTO 15001KT 9999 NCD 01/M01 Q1026,0,1,0,10000,0,0,0,
2026-04-06 01:50:00,METAR EGLF 060150Z AUTO VRB01KT 9999 NCD 01/M01 Q1026,0,1,0,10000,0,0,0,
2026-04-06 01:20:00,METAR EGLF 060120Z AUTO 06001KT 9999 NCD 02/M00 Q1026,0,1,0,10000,0,0,0,
2026-04-06 00:50:00,METAR EGLF 060050Z AUTO VRB03KT 9999 NCD 01/M01 Q1026,0,3,0,10000,0,0,0,
2026-04-06 00:20:00,METAR EGLF 060020Z AUTO 25004KT 9999 NCD 02/M01 Q1026,0,4,0,10000,0,0,0,
2026-04-05 23:50:00,METAR EGLF 052350Z AUTO 25003KT 9999 NCD 02/M01 Q1026,0,3,0,10000,0,0,0,
2026-04-05 23:20:00,METAR EGLF 052320Z AUTO 26003KT 9999 NCD 05/00 Q1026,0,3,0,10000,0,0,0,
2026-04-05 22:50:00,METAR EGLF 052250Z AUTO 24004KT 9999 NCD 03/M00 Q1025,0,4,0,10000,0,0,0,
2026-04-05 22:20:00,METAR EGLF 052220Z AUTO 25005KT 9999 NCD 03/M00 Q1025,0,5,0,10000,0,0,0,
2026-04-05 21:50:00,METAR EGLF 052150Z AUTO 25005KT 9999 NCD 04/M01 Q1025,0,5,0,10000,0,0,0,
2026-04-05 21:20:00,METAR EGLF 052120Z AUTO 24005KT 9999 NCD 04/M01 Q1025,0,5,0,10000,0,0,0,
2026-04-05 20:50:00,METAR EGLF 052050Z AUTO 25006KT 9999 NCD 04/M02 Q1025,0,6,0,10000,0,0,0,
2026-04-05 20:20:00,METAR EGLF 052020Z AUTO 23006KT 9999 NCD 04/M02 Q1025,0,6,0,10000,0,0,0,
2026-04-05 19:50:00,METAR EGLF 051950Z AUTO 27006KT 9999 NCD 08/M03 Q1024,0,6,0,10000,0,0,0,
2026-04-05 19:20:00,METAR EGLF 051920Z AUTO 27007KT 9999 NCD 09/M03 Q1024,0,7,0,10000,0,0,0,
2026-04-05 18:50:00,METAR EGLF 051850Z AUTO 27006KT 240V300 9999 NCD 09/M03 Q1023,0,6,0,10000,0,0,0,
2026-04-05 18:20:00,METAR EGLF 051820Z AUTO 26009KT 240V300 9999 NCD 10/M04 Q1023,0,9,0,10000,0,0,0,
2026-04-05 17:50:00,METAR EGLF 051750Z AUTO 26012KT 240V300 9999 NCD 11/M04 Q1022,0,12,0,10000,0,0,0,
2026-04-05 17:20:00,METAR EGLF 051720Z AUTO 27010KT 230V310 9999 NCD 11/M05 Q1022,0,10,0,10000,0,0,0,
2026-04-05 16:50:00,METAR EGLF 051650Z AUTO 27011KT 240V310 9999 NCD 12/M04 Q1021,0,11,0,10000,0,0,0,
2026-04-05 16:20:00,METAR EGLF 051620Z AUTO 27011KT 240V310 9999 NCD 12/M02 Q1021,0,11,0,10000,0,0,0,
2026-04-05 15:50:00,METAR EGLF 051550Z AUTO 27012G22KT 230V330 9999 NCD 12/M03 Q1021,0,12,1,10000,0,0,0,
2026-04-05 15:20:00,METAR EGLF 051520Z AUTO 27014KT 240V310 9999 NCD 13/M03 Q1020,0,14,0,10000,0,0,0,
2026-04-05 14:50:00,METAR EGLF 051450Z AUTO 26015KT 240V300 9999 NCD 13/M02 Q1020,0,15,0,10000,0,0,0,
2026-04-05 12:50:00,METAR EGLF 051250Z AUTO 26017KT 230V300 9999 NCD 12/M00 Q1019,0,17,0,10000,0,0,0,
2026-04-05 12:20:00,METAR EGLF 051220Z AUTO 28010KT 240V310 9999 NCD 12/M00 Q1018,0,10,0,10000,0,0,0,
2026-04-05 11:50:00,METAR EGLF 051150Z AUTO 27011G21KT 240V310 9999 NCD 11/M00 Q1018,0,11,1,10000,0,0,0,
2026-04-05 11:20:00,METAR EGLF 051120Z AUTO 27013G26KT 230V310 9999 FEW048/// 12/M00 Q1018,0,13,1,10000,0,0,0,
2026-04-05 10:50:00,METAR EGLF 051050Z AUTO 26017KT 9999 SCT045/// 12/00 Q1017,0,17,0,10000,0,0,0,
2026-04-05 10:20:00,METAR EGLF 051020Z 27013KT 230V310 9999 SCT034 SCT040 10/01 Q1017,0,13,0,10000,0,0,0,
2026-04-05 09:50:00,METAR EGLF 050950Z 27014G25KT 230V320 9999 SCT030 SCT038 10/03 Q1017,0,14,1,10000,0,0,0,
2026-04-05 09:20:00,METAR EGLF 050920Z 25016KT 9999 SCT028 SCT034 10/04 Q1016,0,16,0,10000,0,0,0,
2026-04-05 08:50:00,METAR EGLF 050850Z 25012KT 230V310 9999 SCT027 SCT034 10/04 Q1015,0,12,0,10000,0,0,0,
2026-04-05 08:20:00,METAR EGLF 050820Z 25014KT 230V290 9999 FEW026 SCT030 10/04 Q1015,0,14,0,10000,0,0,0,
2026-04-05 07:50:00,METAR EGLF 050750Z 25014KT 9999 SCT026 09/04 Q1014,0,14,0,10000,0,0,0,
2026-04-05 07:20:00,METAR EGLF 050720Z AUTO 24015KT 9999 FEW026/// 09/04 Q1014,0,15,0,10000,0,0,0,
2026-04-05 06:50:00,METAR EGLF 050650Z 24011KT 9999 FEW031 08/04 Q1013,0,11,0,10000,0,0,0,
2026-04-05 06:20:00,METAR EGLF 050620Z AUTO 23008KT 9999 BKN033/// 08/05 Q1013,0,8,0,10000,0,0,0,
2026-04-05 05:50:00,METAR EGLF 050550Z AUTO 24008KT 9999 SCT026/// 08/05 Q1012,0,8,0,10000,0,0,0,
2026-04-05 05:20:00,METAR EGLF 050520Z AUTO 25005KT 9999 FEW025/// SCT047/// 08/04 Q1012,0,5,0,10000,0,0,0,
2026-04-05 04:50:00,METAR EGLF 050450Z AUTO 26008KT 220V280 9999 BKN038/// 08/04 Q1011,0,8,0,10000,0,0,0,
2026-04-05 04:20:00,METAR EGLF 050420Z AUTO 25011KT 9999 OVC045/// 09/03 Q1011,0,11,0,10000,0,0,0,
2026-04-05 03:50:00,METAR EGLF 050350Z AUTO 25013KT 230V300 9999 OVC044/// 09/04 Q1011,0,13,0,10000,0,0,0,
2026-04-05 03:20:00,METAR EGLF 050320Z AUTO 24013KT 9999 BKN032/// OVC042/// 09/04 Q1010,0,13,0,10000,0,0,0,
2026-04-05 02:50:00,METAR EGLF 050250Z AUTO 24015KT 9999 BKN031/// 09/04 Q1010,0,15,0,10000,0,0,0,
2026-04-05 02:20:00,METAR EGLF 050220Z AUTO 24014KT 9999 OVC034/// 10/04 Q1009,0,14,0,10000,0,0,0,
2026-04-05 01:50:00,METAR EGLF 050150Z AUTO 25013KT 220V280 9999 BKN038/// 10/05 Q1009,0,13,0,10000,0,0,0,
2026-04-05 01:20:00,METAR EGLF 050120Z AUTO 24016KT 9999 FEW035/// 09/04 Q1008,0,16,0,10000,0,0,0,
2026-04-05 00:50:00,METAR EGLF 050050Z AUTO 24019KT 9999 FEW033/// 10/05 Q1008,0,19,0,10000,0,0,0,
2026-04-05 00:20:00,METAR EGLF 050020Z AUTO 24017KT 9999 FEW018/// 10/07 Q1007 REDZ,0,17,0,10000,0,0,0,DZ
2026-04-04 23:50:00,METAR EGLF 042350Z AUTO 24022KT 9999 -DZ FEW012/// SCT036/// 11/10 Q1007 RERA REDZ,0,22,0,10000,0,0,0,"DZ,RA"
2026-04-04 23:20:00,METAR EGLF 042320Z AUTO 22020G35KT 9999 SCT015/// BKN020/// BKN027/// 12/09 Q1006,0,20,1,10000,0,0,0,
2026-04-04 22:50:00,METAR EGLF 042250Z AUTO 22020G37KT 190V250 9999 -DZ BKN015/// BKN019/// OVC024/// 11/09 Q1006,0,20,1,10000,0,0,0,DZ
2026-04-04 22:20:00,METAR EGLF 042220Z AUTO 22023G33KT 9999 BKN019/// OVC023/// 12/08 Q1006,0,23,1,10000,0,0,0,
2026-04-04 21:50:00,METAR EGLF 042150Z AUTO 21020KT 180V250 9999 OVC022/// 12/07 Q1007,0,20,0,10000,0,0,0,
2026-04-04 21:20:00,METAR EGLF 042120Z AUTO 21015G26KT 180V250 9999 SCT024/// OVC030/// 12/07 Q1007,0,15,1,10000,0,0,0,
2026-04-04 20:50:00,METAR EGLF 042050Z AUTO 21013KT 9999 BKN030/// OVC040/// 11/06 Q1007,0,13,0,10000,0,0,0,
2026-04-04 20:20:00,METAR EGLF 042020Z AUTO 21012KT 9999 BKN023/// BKN030/// 11/07 Q1008,0,12,0,10000,0,0,0,
2026-04-04 19:50:00,METAR EGLF 041950Z AUTO 22014KT 9999 OVC021/// 11/07 Q1009,0,14,0,10000,0,0,0,
2026-04-04 19:20:00,METAR EGLF 041920Z AUTO 22017G27KT 9999 OVC022/// 12/07 Q1009,0,17,1,10000,0,0,0,
2026-04-04 18:50:00,METAR EGLF 041850Z AUTO 21018G28KT 9999 OVC023/// 12/08 Q1009,0,18,1,10000,0,0,0,
2026-04-04 18:20:00,METAR EGLF 041820Z 22019G30KT 9999 SCT023 SCT031 12/08 Q1009,0,19,1,10000,0,0,0,
2026-04-04 17:50:00,METAR EGLF 041750Z 22016G26KT 9999 SCT020 SCT028 13/08 Q1009,0,16,1,10000,0,0,0,
2026-04-04 17:20:00,METAR EGLF 041720Z 21015KT 170V240 9999 SCT021 SCT034 13/09 Q1010,0,15,0,10000,0,0,0,
2026-04-04 16:50:00,METAR EGLF 041650Z 20016KT 9999 BKN021 SCT034 13/09 Q1010,0,16,0,10000,0,0,0,
2026-04-04 16:20:00,METAR EGLF 041620Z 20011KT 170V230 9999 BKN021 13/09 Q1011,0,11,0,10000,0,0,0,
2026-04-04 15:50:00,METAR EGLF 041550Z 20013KT 9999 BKN020 13/09 Q1012,0,13,0,10000,0,0,0,
2026-04-04 15:20:00,METAR EGLF 041520Z 21012KT 9999 BKN020 13/08 Q1012,0,12,0,10000,0,0,0,
2026-04-04 14:50:00,METAR EGLF 041450Z 21018G28KT 180V240 9999 BKN021 13/08 Q1013,0,18,1,10000,0,0,0,
2026-04-04 14:20:00,METAR EGLF 041420Z 21017KT 180V240 9999 BKN023 13/07 Q1014,0,17,0,10000,0,0,0,
2026-04-04 13:50:00,METAR EGLF 041350Z 21019G30KT 180V240 9999 SCT023 13/07 Q1014,0,19,1,10000,0,0,0,
2026-04-04 13:20:00,METAR EGLF 041320Z 21016KT 9999 FEW021 SCT027 13/07 Q1015,0,16,0,10000,0,0,0,
2026-04-04 12:50:00,METAR EGLF 041250Z 21018G28KT 9999 SCT019 SCT025 13/07 Q1015,0,18,1,10000,0,0,0,
2026-04-04 12:20:00,METAR EGLF 041220Z 20017KT 170V240 9999 SCT015 SCT019 13/08 Q1015,0,17,0,10000,0,0,0,
2026-04-04 11:50:00,METAR EGLF 041150Z 20017KT 9999 SCT010 SCT014 BKN019 11/09 Q1016,0,17,0,10000,0,0,0,
2026-04-04 11:20:00,METAR EGLF 041120Z 21016KT 9999 SCT013 BKN018 12/09 Q1016,0,16,0,10000,0,0,0,
2026-04-04 10:50:00,METAR EGLF 041050Z 22015KT 9999 VCSH SCT012 SCT020 13/10 Q1016,0,15,0,10000,0,0,0,"SH,VC"
2026-04-04 10:20:00,METAR EGLF 041020Z 21011KT 180V240 9999 FEW008 BKN011 12/10 Q1017,0,11,0,10000,0,0,0,
2026-04-04 09:50:00,METAR EGLF 040950Z 20011KT 180V240 8000 SCT006 BKN010 11/10 Q1017,0,11,0,8000,0,0,0,
2026-04-04 09:20:00,METAR EGLF 040920Z COR 20007KT 160V220 6000 BKN005 11/10 Q1017,0,7,0,6000,0,0,0,
2026-04-04 08:50:00,METAR EGLF 040850Z 18008KT 9999 FEW005 BKN012 11/10 Q1017,0,8,0,10000,0,0,0,
2026-04-04 08:20:00,METAR EGLF 040820Z 17006KT 140V210 9999 SCT013 SCT021 BKN030 10/09 Q1017,0,6,0,10000,0,0,0,
2026-04-04 07:50:00,METAR EGLF 040750Z 20007KT 8000 -RA FEW017 SCT022 BKN028 09/08 Q1017,0,7,0,8000,0,0,0,-RA
2026-04-04 07:20:00,METAR EGLF 040720Z 18008KT 9999 FEW025 BKN030 09/07 Q1017,0,8,0,10000,0,0,0,
2026-04-04 06:50:00,METAR EGLF 040650Z 19005KT 9999 SCT029 BKN036 09/06 Q1017,0,5,0,10000,0,0,0,
2026-04-04 06:20:00,METAR EGLF 040620Z AUTO 19006KT 9999 OVC044/// 08/06 Q1017,0,6,0,10000,0,0,0,
2026-04-04 05:50:00,METAR EGLF 040550Z AUTO 19002KT 9999 NCD 07/06 Q1017,0,2,0,10000,0,0,0,
2026-04-04 05:20:00,METAR EGLF 040520Z AUTO 20003KT 9999 NCD 07/05 Q1017,0,3,0,10000,0,0,0,
2026-04-04 04:50:00,METAR EGLF 040450Z AUTO 22005KT 9999 NCD 08/06 Q1017,0,5,0,10000,0,0,0,
2026-04-04 04:20:00,METAR EGLF 040420Z AUTO 23007KT 9999 NCD 07/06 Q1017,0,7,0,10000,0,0,0,
2026-04-04 03:50:00,METAR EGLF 040350Z AUTO 24006KT 9999 NCD 06/05 Q1017,0,6,0,10000,0,0,0,
2026-04-04 03:20:00,METAR EGLF 040320Z AUTO 24007KT 9999 NCD 07/05 Q1017,0,7,0,10000,0,0,0,
2026-04-04 02:50:00,METAR EGLF 040250Z AUTO 24007KT 9999 NCD 06/05 Q1017,0,7,0,10000,0,0,0,
2026-04-04 02:20:00,METAR EGLF 040220Z AUTO 24007KT 9999 NCD 07/05 Q1017,0,7,0,10000,0,0,0,
2026-04-04 01:50:00,METAR EGLF 040150Z AUTO 25007KT 9999 NCD 08/06 Q1017,0,7,0,10000,0,0,0,
2026-04-04 01:20:00,METAR EGLF 040120Z AUTO 24007KT 9999 NCD 08/06 Q1016,0,7,0,10000,0,0,0,
2026-04-04 00:50:00,METAR EGLF 040050Z AUTO 24007KT 9999 NCD 09/06 Q1016,0,7,0,10000,0,0,0,
2026-04-04 00:20:00,METAR EGLF 040020Z AUTO 24011KT 9999 FEW026/// 10/06 Q1016,0,11,0,10000,0,0,0,
2026-04-03 23:50:00,METAR EGLF 032350Z AUTO 25009KT 9999 FEW024/// 10/06 Q1016,0,9,0,10000,0,0,0,
2026-04-03 23:20:00,METAR EGLF 032320Z AUTO 25009KT 9999 NCD 10/06 Q1016,0,9,0,10000,0,0,0,
2026-04-03 22:50:00,METAR EGLF 032250Z AUTO 26010KT 9999 NCD 10/06 Q1015,0,10,0,10000,0,0,0,
2026-04-03 22:20:00,METAR EGLF 032220Z AUTO 26011KT 9999 NCD 11/06 Q1015,0,11,0,10000,0,0,0,
2026-04-03 21:50:00,METAR EGLF 032150Z AUTO 27012KT 230V300 9999 NCD 11/06 Q1014,0,12,0,10000,0,0,0,
2026-04-03 21:20:00,METAR EGLF 032120Z AUTO 27009KT 9999 FEW028/// 12/06 Q1014,0,9,0,10000,0,0,0,
2026-04-03 20:50:00,METAR EGLF 032050Z AUTO 27008KT 9999 BKN027/// BKN033/// 12/07 Q1014,0,8,0,10000,0,0,0,
2026-04-03 20:20:00,METAR EGLF 032020Z AUTO 28010KT 240V330 9999 BKN026/// BKN032/// 13/08 Q1013,0,10,0,10000,0,0,0,
2026-04-03 19:50:00,METAR EGLF 031950Z AUTO 27012G22KT 230V310 9999 SCT018/// SCT023/// BKN028/// 13/09 Q1012,0,12,1,10000,0,0,0,
2026-04-03 19:20:00,METAR EGLF 031920Z AUTO 25013KT 230V290 9999 SCT019/// BKN025/// BKN042/// 14/10 Q1012,0,13,0,10000,0,0,0,
2026-04-03 18:50:00,METAR EGLF 031850Z 24015G25KT 9999 SCT020 SCT039 14/10 Q1011,0,15,1,10000,0,0,0,
2026-04-03 18:20:00,METAR EGLF 031820Z 25015KT 9999 SCT020 SCT028 14/10 Q1011,0,15,0,10000,0,0,0,
2026-04-03 17:50:00,METAR EGLF 031750Z 23014KT 200V260 9999 VCSH SCT020 SCT033 14/11 Q1011,0,14,0,10000,0,0,0,"SH,VC"
2026-04-03 17:20:00,METAR EGLF 031720Z 24014KT 9999 SCT020 BKN028 14/11 Q1011,0,14,0,10000,0,0,0,
2026-04-03 16:50:00,METAR EGLF 031650Z 23015KT 9999 SCT020 BKN028 14/11 Q1010,0,15,0,10000,0,0,0,
2026-04-03 16:20:00,METAR EGLF 031620Z 24016KT 9999 SCT020 BKN030 15/11 Q1010,0,16,0,10000,0,0,0,
2026-04-03 15:50:00,METAR EGLF 031550Z 24015KT 210V270 9999 SCT020 BKN032 15/11 Q1010,0,15,0,10000,0,0,0,
2026-04-03 15:20:00,METAR EGLF 031520Z 24018KT 9999 SCT018 BKN025 15/11 Q1010,0,18,0,10000,0,0,0,
2026-04-03 14:50:00,METAR EGLF 031450Z 23016KT 200V260 9999 VCSH SCT018 BKN025 15/12 Q1010,0,16,0,10000,0,0,0,"SH,VC"
2026-04-03 14:20:00,METAR EGLF 031420Z 23016KT 9999 SCT018 BKN024 15/11 Q1010,0,16,0,10000,0,0,0,
2026-04-03 13:50:00,METAR EGLF 031350Z 24016KT 9999 -RA SCT020 BKN025 14/11 Q1010,0,16,0,10000,0,0,0,-RA
2026-04-03 13:20:00,METAR EGLF 031320Z 23015KT 9999 SCT016 BKN025 14/11 Q1010,0,15,0,10000,0,0,0,
2026-04-03 12:50:00,METAR EGLF 031250Z 23016KT 9999 SCT016 BKN025 14/11 Q1010,0,16,0,10000,0,0,0,
2026-04-03 12:20:00,METAR EGLF 031220Z 24017KT 9999 SCT017 BKN022 BKN027 15/11 Q1010,0,17,0,10000,0,0,0,
2026-04-03 11:50:00,METAR EGLF 031150Z 24013KT 9999 BKN014 14/11 Q1010,0,13,0,10000,0,0,0,
2026-04-03 11:20:00,METAR EGLF 031120Z 23013KT 9999 BKN012 13/11 Q1010,0,13,0,10000,0,0,0,
2026-04-03 10:50:00,METAR EGLF 031050Z 22013KT 190V250 9999 BKN010 13/11 Q1010,0,13,0,10000,0,0,0,
2026-04-03 10:20:00,METAR EGLF 031020Z 22014KT 9999 BKN010 12/11 Q1011,0,14,0,10000,0,0,0,
2026-04-03 09:50:00,METAR EGLF 030950Z 21010KT 9999 SCT009 SCT012 BKN018 12/11 Q1011,0,10,0,10000,0,0,0,
2026-04-03 09:20:00,METAR EGLF 030920Z 21012KT 9999 SCT008 BKN012 12/11 Q1011,0,12,0,10000,0,0,0,
2026-04-03 08:50:00,METAR EGLF 030850Z 21011KT 9999 BKN007 BKN013 11/10 Q1011,0,11,0,10000,0,0,0,
2026-04-03 08:20:00,METAR EGLF 030820Z 20009KT 5000 -RA BR SCT006 BKN010 10/10 Q1011,0,9,0,5000,0,0,1,"-RA,BR"
2026-04-03 07:50:00,METAR EGLF 030750Z 19009KT 5000 -DZ BR FEW007 BKN011 10/09 Q1012,0,9,0,5000,0,0,1,"BR,DZ"
2026-04-03 07:20:00,METAR EGLF 030720Z 19010KT 5000 -DZRA BR FEW006 BKN025 10/09 Q1012,0,10,0,5000,0,0,1,"BR,RA"
2026-04-03 06:50:00,METAR EGLF 030650Z 20012KT 170V240 5000 -DZRA BR FEW008 SCT011 BKN026 09/09 Q1012,0,12,0,5000,0,0,1,"BR,RA"
2026-04-03 06:20:00,METAR EGLF 030620Z AUTO 20012KT 5000 -RA SCT007/// BKN011/// BKN027/// 09/08 Q1012,0,12,0,5000,0,0,0,-RA
2026-04-03 05:50:00,METAR EGLF 030550Z AUTO 20010KT 170V230 4200 -DZ BR FEW008/// OVC012/// 09/08 Q1013,0,10,0,4200,0,0,1,"BR,DZ"
2026-04-03 05:20:00,METAR EGLF 030520Z AUTO 20009KT 7000 -DZ BKN009/// BKN012/// OVC017/// 09/08 Q1013,0,9,0,7000,0,0,0,DZ
2026-04-03 04:50:00,METAR EGLF 030450Z AUTO 20009KT 9999 BKN010/// BKN044/// 08/07 Q1013,0,9,0,10000,0,0,0,
2026-04-03 04:20:00,METAR EGLF 030420Z AUTO 21010KT 6000 -DZ BKN014/// BKN045/// 08/06 Q1013,0,10,0,6000,0,0,0,DZ
2026-04-03 03:50:00,METAR EGLF 030350Z AUTO 21011KT 170V230 9999 OVC043/// 09/06 Q1014,0,11,0,10000,0,0,0,
2026-04-03 03:20:00,METAR EGLF 030320Z AUTO 21010KT 9999 FEW032/// OVC040/// 09/06 Q1014,0,10,0,10000,0,0,0,
2026-04-03 02:50:00,METAR EGLF 030250Z AUTO 21008KT 9999 FEW034/// BKN045/// 08/06 Q1014,0,8,0,10000,0,0,0,
2026-04-03 02:20:00,METAR EGLF 030220Z AUTO 20008KT 9999 SCT046/// 08/06 Q1015,0,8,0,10000,0,0,0,
2026-04-03 01:50:00,METAR EGLF 030150Z AUTO 19007KT 9999 NCD 08/06 Q1015,0,7,0,10000,0,0,0,
2026-04-03 01:20:00,METAR EGLF 030120Z AUTO 20007KT 9999 NCD 08/06 Q1016,0,7,0,10000,0,0,0,
2026-04-03 00:50:00,METAR EGLF 030050Z AUTO 20006KT 9999 NCD 08/05 Q1016,0,6,0,10000,0,0,0,
2026-04-03 00:20:00,METAR EGLF 030020Z AUTO 21008KT 9999 NCD 08/05 Q1017,0,8,0,10000,0,0,0,
2026-04-02 23:50:00,METAR EGLF 022350Z AUTO 21007KT 9999 NCD 08/05 Q1017,0,7,0,10000,0,0,0,
2026-04-02 23:20:00,METAR EGLF 022320Z AUTO 20007KT 9999 NCD 08/05 Q1017,0,7,0,10000,0,0,0,
2026-04-02 22:50:00,METAR EGLF 022250Z AUTO 21006KT 9999 NCD 08/05 Q1017,0,6,0,10000,0,0,0,
2026-04-02 22:20:00,METAR EGLF 022220Z AUTO 21007KT 9999 NCD 08/05 Q1018,0,7,0,10000,0,0,0,
2026-04-02 21:50:00,METAR EGLF 022150Z AUTO 20007KT 9999 NCD 08/05 Q1018,0,7,0,10000,0,0,0,
2026-04-02 21:20:00,METAR EGLF 022120Z AUTO 20008KT 9999 NCD 08/05 Q1019,0,8,0,10000,0,0,0,
2026-04-02 20:50:00,METAR EGLF 022050Z 20009KT CAVOK 08/04 Q1019,1,0,0,9999,0,0,0,
2026-04-02 20:20:00,METAR EGLF 022020Z 20008KT CAVOK 08/04 Q1019,1,0,0,9999,0,0,0,
2026-04-02 19:50:00,METAR EGLF 021950Z 21008KT CAVOK 08/04 Q1019,1,0,0,9999,0,0,0,
2026-04-02 19:20:00,METAR EGLF 021920Z 20006KT CAVOK 08/03 Q1019,1,0,0,9999,0,0,0,
2026-04-02 18:50:00,METAR EGLF 021850Z 19004KT CAVOK 09/01 Q1020,1,0,0,9999,0,0,0,
2026-04-02 18:20:00,METAR EGLF 021820Z 21004KT CAVOK 09/02 Q1020,1,0,0,9999,0,0,0,
2026-04-02 17:50:00,METAR EGLF 021750Z 23007KT CAVOK 10/02 Q1020,1,0,0,9999,0,0,0,
2026-04-02 17:20:00,METAR EGLF 021720Z AUTO 25006KT 9999 NCD 11/02 Q1020,0,6,0,10000,0,0,0,
2026-04-02 16:50:00,METAR EGLF 021650Z AUTO 26005KT 220V290 9999 NCD 11/01 Q1020,0,5,0,10000,0,0,0,
2026-04-02 16:20:00,METAR EGLF 021620Z AUTO 24005KT 9999 NCD 11/01 Q1020,0,5,0,10000,0,0,0,
2026-04-02 15:50:00,METAR EGLF 021550Z AUTO 32003KT 270V350 9999 NCD 11/01 Q1020,0,3,0,10000,0,0,0,
2026-04-02 15:20:00,METAR EGLF 021520Z AUTO 34003KT 280V040 9999 NCD 11/02 Q1020,0,3,0,10000,0,0,0,
2026-04-02 14:50:00,METAR EGLF 021450Z AUTO 29004KT 250V350 9999 SCT038/// 11/01 Q1021,0,4,0,10000,0,0,0,
2026-04-02 14:20:00,METAR EGLF 021420Z AUTO 31003KT 230V360 9999 SCT038/// 11/01 Q1021,0,3,0,10000,0,0,0,
2026-04-02 13:50:00,METAR EGLF 021350Z AUTO VRB03KT 9999 FEW035/// 10/01 Q1021,0,3,0,10000,0,0,0,
2026-04-02 13:20:00,METAR EGLF 021320Z AUTO VRB04KT 9999 SCT034/// 10/01 Q1022,0,4,0,10000,0,0,0,
2026-04-02 12:50:00,METAR EGLF 021250Z AUTO 34007KT 290V040 9999 SCT031/// 10/02 Q1022,0,7,0,10000,0,0,0,
2026-04-02 12:20:00,METAR EGLF 021220Z AUTO 02006KT 340V050 9999 BKN030/// 09/02 Q1022,0,6,0,10000,0,0,0,
2026-04-02 11:50:00,METAR EGLF 021150Z 02005KT 320V080 9999 BKN028 09/02 Q1022,0,5,0,10000,0,0,0,
2026-04-02 11:20:00,METAR EGLF 021120Z 03008KT 9999 BKN027 08/02 Q1022,0,8,0,10000,0,0,0,
2026-04-02 10:50:00,METAR EGLF 021050Z 35006KT 310V030 9999 BKN026 08/01 Q1022,0,6,0,10000,0,0,0,
2026-04-02 10:20:00,METAR EGLF 021020Z 36008KT 320V030 9999 BKN027 08/02 Q1022,0,8,0,10000,0,0,0,
2026-04-02 09:50:00,METAR EGLF 020950Z 01009KT 320V040 9999 BKN026 07/02 Q1022,0,9,0,10000,0,0,0,
2026-04-02 09:20:00,METAR EGLF 020920Z 02010KT 340V050 9999 SCT024 07/02 Q1022,0,10,0,10000,0,0,0,
2026-04-02 08:50:00,METAR EGLF 020850Z 02010KT 340V040 9999 FEW020 SCT030 07/02 Q1022,0,10,0,10000,0,0,0,
2026-04-02 08:20:00,METAR EGLF 020820Z 02011KT 9999 BKN016 07/03 Q1022,0,11,0,10000,0,0,0,
2026-04-02 07:50:00,METAR EGLF 020750Z 36009KT 320V020 9999 FEW015 06/03 Q1022,0,9,0,10000,0,0,0,
2026-04-02 07:20:00,METAR EGLF 020720Z 34005KT 300V020 9999 FEW014 06/03 Q1021,0,5,0,10000,0,0,0,
2026-04-02 06:50:00,METAR EGLF 020650Z 31005KT 280V350 9999 FEW018 05/03 Q1021,0,5,0,10000,0,0,0,
2026-04-02 06:20:00,METAR EGLF 020620Z 32004KT 9999 FEW020 05/03 Q1021,0,4,0,10000,0,0,0,
2026-04-02 05:50:00,METAR EGLF 020550Z 31004KT 270V340 CAVOK 05/02 Q1021,1,0,0,9999,0,0,0,
2026-04-02 05:20:00,METAR EGLF 020520Z AUTO 31004KT 270V360 9999 NCD 05/02 Q1020,0,4,0,10000,0,0,0,
2026-04-02 04:50:00,METAR EGLF 020450Z AUTO 32005KT 280V350 9999 NCD 06/02 Q1020,0,5,0,10000,0,0,0,
2026-04-02 04:20:00,METAR EGLF 020420Z AUTO 32005KT 290V360 9999 SCT038/// 06/02 Q1020,0,5,0,10000,0,0,0,
2026-04-02 03:50:00,METAR EGLF 020350Z AUTO 34004KT 290V030 9999 SCT031/// 07/02 Q1020,0,4,0,10000,0,0,0,
2026-04-02 03:20:00,METAR EGLF 020320Z AUTO 33011KT 9999 BKN028/// 08/03 Q1020,0,11,0,10000,0,0,0,
2026-04-02 02:50:00,METAR EGLF 020250Z AUTO 32006KT 290V350 9999 FEW020/// BKN025/// 08/04 Q1020,0,6,0,10000,0,0,0,
2026-04-02 02:20:00,METAR EGLF 020220Z AUTO 31007KT 260V010 6000 -DZ FEW004/// BKN012/// BKN019/// 09/08 Q1020 REDZ,0,7,0,6000,0,0,0,DZ
2026-04-02 01:50:00,METAR EGLF 020150Z AUTO 27004KT 9999 FEW013/// BKN018/// 09/08 Q1019,0,4,0,10000,0,0,0,
2026-04-02 01:20:00,METAR EGLF 020120Z AUTO 25003KT 9999 FEW021/// BKN035/// 09/08 Q1019,0,3,0,10000,0,0,0,
2026-04-02 00:50:00,METAR EGLF 020050Z AUTO 25003KT 9000 FEW024/// SCT028/// OVC033/// 09/08 Q1020 REDZ,0,3,0,9000,0,0,0,DZ
2026-04-02 00:20:00,METAR EGLF 020020Z AUTO 28003KT 240V320 4300 -DZRA HZ BKN034/// OVC044/// 09/08 Q1020 REDZ,0,3,0,4300,0,0,0,"DZ,RA"
2026-04-01 23:50:00,METAR EGLF 012350Z AUTO 27005KT 9999 -RA BKN042/// 10/07 Q1020,0,5,0,10000,0,0,0,-RA
2026-04-01 23:20:00,METAR EGLF 012320Z AUTO 26004KT 9999 OVC045/// 10/07 Q1020,0,4,0,10000,0,0,0,
2026-04-01 22:50:00,METAR EGLF 012250Z AUTO 25005KT 9999 OVC043/// 10/07 Q1020,0,5,0,10000,0,0,0,
2026-04-01 22:20:00,METAR EGLF 012220Z AUTO 26005KT 9999 OVC043/// 10/07 Q1020,0,5,0,10000,0,0,0,
2026-04-01 21:50:00,METAR EGLF 012150Z AUTO 23003KT 9999 OVC042/// 10/07 Q1020,0,3,0,10000,0,0,0,
2026-04-01 21:20:00,METAR EGLF 012120Z AUTO 25005KT 9999 OVC043/// 10/06 Q1021,0,5,0,10000,0,0,0,
2026-04-01 20:50:00,METAR EGLF 012050Z 25004KT 9999 BKN043 10/06 Q1021,0,4,0,10000,0,0,0,
2026-04-01 20:20:00,METAR EGLF 012020Z 25004KT 9999 BKN042 10/06 Q1021,0,4,0,10000,0,0,0,
2026-04-01 19:50:00,METAR EGLF 011950Z 26004KT 9999 BKN046 11/05 Q1021,0,4,0,10000,0,0,0,
2026-04-01 19:20:00,METAR EGLF 011920Z 25003KT 9999 BKN048 10/06 Q1021,0,3,0,10000,0,0,0,
2026-04-01 18:50:00,METAR EGLF 011850Z 26003KT 9999 SCT030 BKN040 11/06 Q1021,0,3,0,10000,0,0,0,
2026-04-01 18:20:00,METAR EGLF 011820Z 27004KT 250V320 9999 SCT030 BKN040 11/06 Q1021,0,4,0,10000,0,0,0,
2026-04-01 17:50:00,METAR EGLF 011750Z 29004KT 250V320 9999 SCT030 BKN040 12/06 Q1021,0,4,0,10000,0,0,0,
2026-04-01 17:20:00,METAR EGLF 011720Z 29005KT 260V320 9999 SCT030 BKN040 12/06 Q1021,0,5,0,10000,0,0,0,
2026-04-01 16:50:00,METAR EGLF 011650Z 28005KT 250V320 9999 SCT030 BKN040 12/06 Q1022,0,5,0,10000,0,0,0,
2026-04-01 16:20:00,METAR EGLF 011620Z 27004KT 240V310 9999 SCT030 BKN045 12/06 Q1022,0,4,0,10000,0,0,0,
2026-04-01 15:50:00,METAR EGLF 011550Z 27003KT 230V310 9999 FEW028 BKN045 12/06 Q1022,0,3,0,10000,0,0,0,
2026-04-01 15:20:00,METAR EGLF 011520Z 25004KT 9999 FEW031 OVC038 12/06 Q1022,0,4,0,10000,0,0,0,
2026-04-01 14:50:00,METAR EGLF 011450Z 25004KT 9999 FEW032 OVC039 12/06 Q1022,0,4,0,10000,0,0,0,
2026-04-01 13:50:00,METAR EGLF 011350Z 33003KT 290V350 9999 BKN040 12/05 Q1023,0,3,0,10000,0,0,0,
2026-04-01 13:20:00,METAR EGLF 011320Z 32003KT 290V010 9999 BKN042 12/06 Q1023,0,3,0,10000,0,0,0,
2026-04-01 12:50:00,METAR EGLF 011250Z 01002KT 9999 BKN040 12/05 Q1024,0,2,0,10000,0,0,0,
2026-04-01 12:20:00,METAR EGLF 011220Z VRB02KT 9999 FEW028 BKN042 12/06 Q1024,0,2,0,10000,0,0,0,
2026-04-01 11:50:00,METAR EGLF 011150Z VRB02KT 9999 FEW026 BKN043 12/06 Q1024,0,2,0,10000,0,0,0,
2026-04-01 11:20:00,METAR EGLF 011120Z 31003KT 220V010 9999 FEW027 BKN042 12/06 Q1025,0,3,0,10000,0,0,0,
2026-04-01 10:50:00,METAR EGLF 011050Z 27003KT 210V320 9999 FEW024 BKN046 12/07 Q1025,0,3,0,10000,0,0,0,
2026-04-01 10:20:00,METAR EGLF 011020Z 30003KT 250V010 9999 BKN047 12/06 Q1025,0,3,0,10000,0,0,0,
2026-04-01 09:50:00,METAR EGLF 010950Z VRB02KT 9999 BKN048 11/07 Q1025,0,2,0,10000,0,0,0,
2026-04-01 09:20:00,METAR EGLF 010920Z 30003KT 230V010 9999 BKN047 11/08 Q1026,0,3,0,10000,0,0,0,
2026-04-01 08:50:00,METAR EGLF 010850Z 30004KT 260V320 9999 BKN045 10/08 Q1026,0,4,0,10000,0,0,0,
2026-04-01 08:20:00,METAR EGLF 010820Z 29004KT 250V320 9000 BKN045 09/08 Q1026,0,4,0,9000,0,0,0,
2026-04-01 07:50:00,METAR EGLF 010750Z 29003KT 260V330 9000 BKN042 09/08 Q1026,0,3,0,9000,0,0,0,
2026-04-01 07:20:00,METAR EGLF 010720Z 29003KT 250V330 9000 FEW004 BKN042 09/08 Q1026,0,3,0,9000,0,0,0,
2026-04-01 06:50:00,METAR EGLF 010650Z 28003KT 250V330 8000 BKN004 08/08 Q1026,0,3,0,8000,0,0,0,
2026-04-01 06:20:00,METAR EGLF 010620Z VRB02KT 7000 BKN003 08/07 Q1026,0,2,0,7000,0,0,0,
2026-04-01 05:50:00,METAR EGLF 010550Z 29003KT 240V320 6000 BKN002 08/07 Q1026,0,3,0,6000,0,0,0,
2026-04-01 05:20:00,METAR EGLF 010520Z AUTO 29004KT 260V330 6000 OVC002/// 08/07 Q1026,0,4,0,6000,0,0,0,
2026-04-01 04:50:00,METAR EGLF 010450Z AUTO 29004KT 260V320 6000 BKN002/// OVC039/// 08/07 Q1027,0,4,0,6000,0,0,0,
2026-04-01 04:20:00,METAR EGLF 010420Z AUTO 28003KT 250V330 6000 OVC002/// 08/07 Q1027,0,3,0,6000,0,0,0,
2026-04-01 03:50:00,METAR EGLF 010350Z AUTO 31004KT 240V340 7000 BKN002/// OVC005/// 08/07 Q1027,0,4,0,7000,0,0,0,
2026-04-01 03:20:00,METAR EGLF 010320Z AUTO 29003KT 200V350 7000 OVC002/// 08/07 Q1027,0,3,0,7000,0,0,0,
2026-04-01 02:50:00,METAR EGLF 010250Z AUTO 28003KT 240V320 7000 OVC002/// 08/08 Q1027,0,3,0,7000,0,0,0,
2026-04-01 02:20:00,METAR EGLF 010220Z AUTO 28004KT 250V310 7000 OVC002/// 08/08 Q1027,0,4,0,7000,0,0,0,
2026-04-01 01:50:00,METAR EGLF 010150Z AUTO 27006KT 250V310 8000 OVC002/// 08/08 Q1028,0,6,0,8000,0,0,0,
2026-04-01 01:20:00,METAR EGLF 010120Z AUTO 26005KT 230V300 9999 NCD 09/07 Q1028,0,5,0,10000,0,0,0,
2026-04-01 00:50:00,METAR EGLF 010050Z AUTO 26005KT 9999 NCD 09/08 Q1028,0,5,0,10000,0,0,0,
2026-04-01 00:20:00,METAR EGLF 010020Z AUTO 27004KT 9999 NCD 09/08 Q1028,0,4,0,10000,0,0,0,
2026-03-31 23:50:00,METAR EGLF 312350Z AUTO 26005KT 9999 FEW044/// 10/08 Q1028,0,5,0,9999,0,0,0,
2026-03-31 23:20:00,METAR EGLF 312320Z AUTO 26005KT 9999 FEW044/// 11/08 Q1028,0,5,0,9999,0,0,0,
2026-03-31 22:50:00,METAR EGLF 312250Z AUTO 26004KT 9999 NCD 09/07 Q1028,0,4,0,9999,0,0,0,
2026-03-31 22:20:00,METAR EGLF 312220Z AUTO 26004KT 9999 NCD 08/06 Q1029,0,4,0,9999,0,0,0,
2026-03-31 21:50:00,METAR EGLF 312150Z AUTO 26003KT 9999 NCD 09/07 Q1029,0,3,0,9999,0,0,0,
2026-03-31 21:20:00,METAR EGLF 312120Z AUTO 25003KT 9999 NCD 09/06 Q1029,0,3,0,9999,0,0,0,
2026-03-31 20:50:00,METAR EGLF 312050Z AUTO 26004KT 9999 NCD 13/08 Q1029,0,4,0,9999,0,0,0,
2026-03-31 20:20:00,METAR EGLF 312020Z AUTO 26003KT 230V290 9999 NCD 10/07 Q1029,0,3,0,9999,0,0,0,
2026-03-31 19:50:00,METAR EGLF 311950Z AUTO 25002KT 9999 NCD 09/06 Q1029,0,2,0,9999,0,0,0,
2026-03-31 19:20:00,METAR EGLF 311920Z AUTO 31003KT 270V340 9999 NCD 12/08 Q1029,0,3,0,9999,0,0,0,
2026-03-31 18:50:00,METAR EGLF 311850Z AUTO VRB01KT 9999 FEW048/// 15/08 Q1029,0,1,0,9999,0,0,0,
2026-03-31 18:20:00,METAR EGLF 311820Z AUTO VRB02KT 9999 NCD 16/08 Q1028,0,2,0,9999,0,0,0,
2026-03-31 17:50:00,METAR EGLF 311750Z AUTO 33004KT 290V350 9999 NCD 17/08 Q1028,0,4,0,9999,0,0,0,
2026-03-31 17:20:00,METAR EGLF 311720Z AUTO 29007KT 250V330 9999 FEW047/// 18/07 Q1028,0,7,0,9999,0,0,0,
2026-03-31 16:50:00,METAR EGLF 311650Z AUTO 32007KT 240V010 9999 SCT047/// 18/08 Q1028,0,7,0,9999,0,0,0,
2026-03-31 16:20:00,METAR EGLF 311620Z AUTO 01005KT 300V070 9999 NCD 18/08 Q1028,0,5,0,9999,0,0,0,
2026-03-31 15:50:00,METAR EGLF 311550Z AUTO 36005KT 320V030 9999 NCD 17/08 Q1028,0,5,0,9999,0,0,0,
2026-03-31 15:20:00,METAR EGLF 311520Z 35006KT 310V030 9999 FEW048 17/09 Q1029,0,6,0,9999,0,0,0,
2026-03-31 14:50:00,METAR EGLF 311450Z AUTO 33006KT 300V020 9999 NCD 17/08 Q1029,0,6,0,9999,0,0,0,
2026-03-31 14:20:00,METAR EGLF 311420Z AUTO 36005KT 310V050 9999 NCD 17/09 Q1029,0,5,0,9999,0,0,0,
2026-03-31 13:50:00,METAR EGLF 311350Z 34006KT 270V030 9999 FEW030 SCT042 17/09 Q1029,0,6,0,9999,0,0,0,
2026-03-31 13:20:00,METAR EGLF 311320Z AUTO 31007KT 270V020 9999 FEW029/// 17/10 Q1029,0,7,0,9999,0,0,0,
2026-03-31 12:50:00,METAR EGLF 311250Z 36005KT 310V030 9999 SCT030 16/09 Q1030,0,5,0,9999,0,0,0,
2026-03-31 12:20:00,METAR EGLF 311220Z 34006KT 300V020 9999 FEW028 16/09 Q1030,0,6,0,9999,0,0,0,
2026-03-31 11:50:00,METAR EGLF 311150Z 34008KT 300V020 9999 FEW025 15/09 Q1030,0,8,0,9999,0,0,0,
2026-03-31 11:20:00,METAR EGLF 311120Z 32006KT 270V020 9999 FEW022 15/09 Q1030,0,6,0,9999,0,0,0,
2026-03-31 10:50:00,METAR EGLF 311050Z 31009KT 240V350 9999 FEW016 14/09 Q1030,0,9,0,9999,0,0,0,
2026-03-31 10:20:00,METAR EGLF 311020Z 31008KT 250V350 9999 FEW017 13/09 Q1030,0,8,0,9999,0,0,0,
2026-03-31 09:50:00,METAR EGLF 310950Z 32007KT 270V350 9999 BKN016 12/08 Q1030,0,7,0,9999,0,0,0,
2026-03-31 09:20:00,METAR EGLF 310920Z 29006KT 230V330 9999 BKN016 12/08 Q1030,0,6,0,9999,0,0,0,
2026-03-31 08:50:00,METAR EGLF 310850Z 29008KT 260V340 9999 BKN017 11/07 Q1030,0,8,0,9999,0,0,0,
2026-03-31 08:20:00,METAR EGLF 310820Z 28005KT 240V340 9999 BKN018 11/07 Q1030,0,5,0,9999,0,0,0,
2026-03-31 07:50:00,METAR EGLF 310750Z 27004KT 9999 BKN017 10/06 Q1030,0,4,0,9999,0,0,0,
2026-03-31 07:20:00,METAR EGLF 310720Z 26003KT 9999 BKN018 09/06 Q1030,0,3,0,9999,0,0,0,
2026-03-31 06:50:00,METAR EGLF 310650Z 26004KT 9999 SCT018 BKN043 08/06 Q1030,0,4,0,9999,0,0,0,
2026-03-31 06:20:00,METAR EGLF 310620Z VRB01KT 9999 SCT019 BKN045 07/05 Q1030,0,1,0,9999,0,0,0,
2026-03-31 05:50:00,METAR EGLF 310550Z 25004KT 9999 FEW020 SCT046 07/05 Q1030,0,4,0,9999,0,0,0,
2026-03-31 05:20:00,METAR EGLF 310520Z AUTO 26004KT 9999 SCT022/// 07/04 Q1029,0,4,0,9999,0,0,0,
2026-03-31 04:50:00,METAR EGLF 310450Z AUTO 25003KT 9999 OVC022/// 08/05 Q1029,0,3,0,9999,0,0,0,
2026-03-31 04:20:00,METAR EGLF 310420Z AUTO 26005KT 9999 BKN022/// 08/04 Q1029,0,5,0,9999,0,0,0,
2026-03-31 03:50:00,METAR EGLF 310350Z AUTO 26005KT 9999 BKN024/// 09/04 Q1029,0,5,0,9999,0,0,0,
2026-03-31 03:20:00,METAR EGLF 310320Z AUTO 26005KT 230V290 9999 BKN028/// BKN046/// 09/04 Q1030,0,5,0,9999,0,0,0,
2026-03-31 02:50:00,METAR EGLF 310250Z AUTO 27005KT 240V310 9999 NCD 09/04 Q1030,0,5,0,9999,0,0,0,
2026-03-31 02:20:00,METAR EGLF 310220Z AUTO 27005KT 240V300 9999 NCD 09/04 Q1030,0,5,0,9999,0,0,0,
2026-03-31 01:50:00,METAR EGLF 310150Z AUTO 27005KT 9999 NCD 09/04 Q1030,0,5,0,9999,0,0,0,
2026-03-31 01:20:00,METAR EGLF 310120Z AUTO 29004KT 250V320 9999 BKN034/// 09/04 Q1030,0,4,0,9999,0,0,0,
2026-03-31 00:50:00,METAR EGLF 310050Z AUTO 27005KT 9999 OVC035/// 09/03 Q1030,0,5,0,9999,0,0,0,
2026-03-31 00:20:00,METAR EGLF 310020Z AUTO 27005KT 9999 OVC036/// 09/03 Q1030,0,5,0,9999,0,0,0,
2026-03-30 23:50:00,METAR EGLF 302350Z AUTO 26004KT 9999 OVC039/// 09/03 Q1029,0,4,0,10000,0,0,0,
2026-03-30 23:20:00,METAR EGLF 302320Z AUTO 27003KT 9999 OVC045/// 09/03 Q1029,0,3,0,10000,0,0,0,
2026-03-30 22:50:00,METAR EGLF 302250Z AUTO 26003KT 9999 BKN046/// 09/02 Q1029,0,3,0,10000,0,0,0,
2026-03-30 22:20:00,METAR EGLF 302220Z AUTO 27004KT 230V310 9999 OVC046/// 09/02 Q1029,0,4,0,10000,0,0,0,
2026-03-30 21:50:00,METAR EGLF 302150Z AUTO 27003KT 240V300 9999 OVC044/// 09/02 Q1029,0,3,0,10000,0,0,0,
2026-03-30 21:20:00,METAR EGLF 302120Z AUTO VRB02KT 9999 FEW043/// 09/01 Q1029,0,2,0,10000,0,0,0,
2026-03-30 20:50:00,METAR EGLF 302050Z AUTO 31004KT 9999 OVC047/// 10/01 Q1029,0,4,0,10000,0,0,0,
2026-03-30 20:20:00,METAR EGLF 302020Z AUTO 32004KT 280V350 9999 NCD 09/01 Q1028,0,4,0,10000,0,0,0,
2026-03-30 19:50:00,METAR EGLF 301950Z AUTO 36003KT 320V040 9999 NCD 10/00 Q1027,0,3,0,10000,0,0,0,
2026-03-30 19:20:00,METAR EGLF 301920Z AUTO 34006KT 9999 NCD 10/01 Q1027,0,6,0,10000,0,0,0,
2026-03-30 18:50:00,METAR EGLF 301850Z AUTO 35006KT 320V030 9999 NCD 11/00 Q1027,0,6,0,10000,0,0,0,
2026-03-30 18:20:00,METAR EGLF 301820Z AUTO 35009KT 310V020 9999 NCD 11/00 Q1027,0,9,0,10000,0,0,0,
2026-03-30 17:50:00,METAR EGLF 301750Z 34009KT 300V010 CAVOK 12/00 Q1027,1,0,0,9999,0,0,0,
2026-03-30 17:20:00,METAR EGLF 301720Z 35009KT 310V020 CAVOK 11/00 Q1026,1,0,0,9999,0,0,0,
2026-03-30 16:50:00,METAR EGLF 301650Z 34010KT 310V020 CAVOK 12/M00 Q1026,1,0,0,9999,0,0,0,
2026-03-30 16:20:00,METAR EGLF 301620Z 32010KT 280V010 CAVOK 13/01 Q1025,1,0,0,9999,0,0,0,
2026-03-30 15:50:00,METAR EGLF 301550Z AUTO 32012KT 270V360 9999 NCD 12/01 Q1025,0,12,0,10000,0,0,0,
2026-03-30 15:20:00,METAR EGLF 301520Z AUTO 35009KT 310V020 9999 NCD 12/01 Q1025,0,9,0,10000,0,0,0,
2026-03-30 14:50:00,METAR EGLF 301450Z AUTO 34009KT 310V010 9999 NCD 12/00 Q1025,0,9,0,10000,0,0,0,
2026-03-30 14:20:00,METAR EGLF 301420Z AUTO 33012KT 290V010 9999 NCD 13/01 Q1025,0,12,0,10000,0,0,0,
2026-03-30 13:50:00,METAR EGLF 301350Z 32011KT 290V360 9999 SCT047 12/02 Q1025,0,11,0,10000,0,0,0,
2026-03-30 13:20:00,METAR EGLF 301320Z 32010KT 290V360 9999 SCT045 12/01 Q1025,0,10,0,10000,0,0,0,
2026-03-30 12:50:00,METAR EGLF 301250Z 31010KT 280V360 9999 BKN042 SCT049 11/02 Q1025,0,10,0,10000,0,0,0,
2026-03-30 12:20:00,METAR EGLF 301220Z 32012G25KT 290V360 9999 BKN046 12/01 Q1024,0,12,1,10000,0,0,0,
2026-03-30 11:50:00,METAR EGLF 301150Z 30013KT 250V330 9999 SCT044 12/02 Q1024,0,13,0,10000,0,0,0,
2026-03-30 11:20:00,METAR EGLF 301120Z 32012KT 260V350 9999 BKN042 11/02 Q1024,0,12,0,10000,0,0,0,
2026-03-30 10:50:00,METAR EGLF 301050Z COR 30010KT 210V350 9999 BKN036 11/03 Q1024,0,10,0,10000,0,0,0,
2026-03-30 10:20:00,METAR EGLF 301020Z AUTO 30012KT 260V330 9999 FEW037/// SCT045/// 11/03 Q1024,0,12,0,10000,0,0,0,
2026-03-30 09:50:00,METAR EGLF 300950Z AUTO 31011G21KT 9999 SCT034/// BKN041/// BKN049/// 11/03 Q1024,0,11,1,10000,0,0,0,
2026-03-30 09:20:00,METAR EGLF 300920Z AUTO 29010KT 250V340 9999 FEW036/// 10/03 Q1024,0,10,0,10000,0,0,0,
2026-03-30 08:50:00,METAR EGLF 300850Z 28009KT 240V310 9999 FEW021 09/04 Q1024,0,9,0,10000,0,0,0,
2026-03-30 08:20:00,METAR EGLF 300820Z AUTO 27008KT 240V310 9999 NCD 08/04 Q1024,0,8,0,10000,0,0,0,
2026-03-30 07:50:00,METAR EGLF 300750Z AUTO 27009KT 9999 NCD 07/04 Q1023,0,9,0,10000,0,0,0,
2026-03-30 07:20:00,METAR EGLF 300720Z AUTO 26008KT 230V290 9999 NCD 07/04 Q1023,0,8,0,10000,0,0,0,
2026-03-30 06:50:00,METAR EGLF 300650Z AUTO 25008KT 9999 NCD 06/04 Q1023,0,8,0,10000,0,0,0,
2026-03-30 06:20:00,METAR EGLF 300620Z 24008KT CAVOK 05/03 Q1023,1,0,0,9999,0,0,0,
2026-03-30 05:50:00,METAR EGLF 300550Z 25006KT 9999 FEW042 05/03 Q1022,0,6,0,10000,0,0,0,
2026-03-30 05:20:00,METAR EGLF 300520Z AUTO 25006KT 9999 NCD 06/04 Q1022,0,6,0,10000,0,0,0,
2026-03-30 04:50:00,METAR EGLF 300450Z AUTO 25006KT 9999 NCD 06/04 Q1022,0,6,0,10000,0,0,0,
2026-03-30 04:20:00,METAR EGLF 300420Z AUTO 26006KT 220V280 9999 SCT035/// 06/04 Q1022,0,6,0,10000,0,0,0,
2026-03-30 03:50:00,METAR EGLF 300350Z AUTO 26004KT 9999 BKN039/// 06/04 Q1022,0,4,0,10000,0,0,0,
2026-03-30 03:20:00,METAR EGLF 300320Z AUTO 26006KT 9999 NCD 07/04 Q1022,0,6,0,10000,0,0,0,
2026-03-30 02:50:00,METAR EGLF 300250Z AUTO 26006KT 230V290 9999 NCD 07/05 Q1021,0,6,0,10000,0,0,0,
2026-03-30 02:20:00,METAR EGLF 300220Z AUTO 26007KT 9999 NCD 07/06 Q1021,0,7,0,10000,0,0,0,
2026-03-30 01:50:00,METAR EGLF 300150Z AUTO 26007KT 220V280 9999 NCD 07/06 Q1021,0,7,0,10000,0,0,0,
2026-03-30 01:20:00,METAR EGLF 300120Z AUTO 26007KT 9999 NCD 08/06 Q1021,0,7,0,10000,0,0,0,
2026-03-30 00:50:00,METAR EGLF 300050Z AUTO 27007KT 9999 NCD 08/06 Q1021,0,7,0,10000,0,0,0,
2026-03-30 00:20:00,METAR EGLF 300020Z AUTO 27008KT 9999 NCD 09/07 Q1021,0,8,0,10000,0,0,0,
2026-03-29 23:50:00,METAR EGLF 292350Z AUTO 26009KT 9999 FEW015/// 09/07 Q1021,0,9,0,10000,0,0,0,
2026-03-29 23:20:00,METAR EGLF 292320Z AUTO 27008KT 240V320 9999 FEW016/// 09/07 Q1021,0,8,0,10000,0,0,0,
2026-03-29 22:50:00,METAR EGLF 292250Z AUTO 25010KT 9999 NCD 09/07 Q1021,0,10,0,10000,0,0,0,
2026-03-29 22:20:00,METAR EGLF 292220Z AUTO 25010KT 9999 SCT012/// 09/07 Q1021,0,10,0,10000,0,0,0,
2026-03-29 21:50:00,METAR EGLF 292150Z AUTO 25010KT 220V280 9999 OVC012 09/08 Q1021,0,10,0,10000,0,0,0,
2026-03-29 21:20:00,METAR EGLF 292120Z AUTO 25010KT 9999 OVC010/// 09/08 Q1021,0,10,0,10000,0,0,0,
2026-03-29 20:50:00,METAR EGLF 292050Z AUTO 24012KT 9999 SCT009 BKN018 BKN026 09/08 Q1021,0,12,0,10000,0,0,0,
2026-03-29 20:20:00,METAR EGLF 292020Z AUTO 25014KT 9999 SCT009/// BKN018/// BKN026/// 09/08 Q1021,0,14,0,10000,0,0,0,
2026-03-29 19:50:00,METAR EGLF 291950Z AUTO 24014KT 9999 FEW009/// BKN013/// 09/07 Q1021,0,14,0,10000,0,0,0,
2026-03-29 19:20:00,METAR EGLF 291920Z AUTO 24014KT 9999 FEW010/// BKN015/// BKN024/// 09/07 Q1021,0,14,0,10000,0,0,0,
2026-03-29 18:50:00,METAR EGLF 291850Z 24013KT 8000 -DZ FEW010 SCT015 BKN024 08/07 Q1022,0,13,0,8000,0,0,0,DZ
2026-03-29 18:20:00,METAR EGLF 291820Z 24014KT 9000 -DZ SCT012 BKN016 08/07 Q1022,0,14,0,9000,0,0,0,DZ
2026-03-29 17:50:00,METAR EGLF 291750Z 24014KT 8000 -DZ SCT015 BKN020 09/07 Q1023,0,14,0,8000,0,0,0,DZ
2026-03-29 17:20:00,METAR EGLF 291720Z 23017KT 9999 BKN020 09/06 Q1023,0,17,0,10000,0,0,0,
2026-03-29 16:50:00,METAR EGLF 291650Z 23018KT 9999 BKN025 09/06 Q1023,0,18,0,10000,0,0,0,
2026-03-29 16:20:00,METAR EGLF 291620Z 22016KT 9999 FEW022 BKN028 09/06 Q1023,0,16,0,10000,0,0,0,
2026-03-29 15:20:00,METAR EGLF 291520Z 22016KT 9999 FEW022 BKN032 09/06 Q1025,0,16,0,10000,0,0,0,
2026-03-29 14:50:00,METAR EGLF 291450Z 22013KT 9999 VCSH FEW024 SCT035 08/06 Q1026,0,13,0,10000,0,0,0,"SH,VC"
2026-03-29 14:20:00,METAR EGLF 291420Z 25014KT 8000 -RA FEW028 BKN035 08/05 Q1027,0,14,0,8000,0,0,0,-RA
2026-03-29 13:50:00,METAR EGLF 291350Z 24018KT 9999 -RA BKN033 10/03 Q1027,0,18,0,10000,0,0,0,-RA
2026-03-29 13:20:00,METAR EGLF 291320Z 24014KT 9999 SCT035 10/03 Q1027,0,14,0,10000,0,0,0,
2026-03-29 12:50:00,METAR EGLF 291250Z 24014KT 9999 SCT038 10/03 Q1028,0,14,0,10000,0,0,0,
2026-03-29 12:20:00,METAR EGLF 291220Z 23015KT 9999 SCT036 10/03 Q1028,0,15,0,10000,0,0,0,
2026-03-29 11:50:00,METAR EGLF 291150Z 25016KT 9999 SCT040 10/02 Q1029,0,16,0,10000,0,0,0,
2026-03-29 11:20:00,METAR EGLF 291120Z 25012KT 220V280 9999 FEW033 10/02 Q1029,0,12,0,10000,0,0,0,
2026-03-29 10:50:00,METAR EGLF 291050Z 24015KT 9999 SCT028 10/03 Q1030,0,15,0,10000,0,0,0,
2026-03-29 10:20:00,METAR EGLF 291020Z 25011KT 9999 FEW041 09/02 Q1030,0,11,0,10000,0,0,0,
2026-03-29 09:50:00,METAR EGLF 290950Z 24011KT CAVOK 08/02 Q1030,1,0,0,9999,0,0,0,
2026-03-29 09:20:00,METAR EGLF 290920Z 24010KT CAVOK 08/02 Q1030,1,0,0,9999,0,0,0,
2026-03-29 08:50:00,METAR EGLF 290850Z AUTO 25006KT 9999 NCD 07/02 Q1030,0,6,0,10000,0,0,0,
2026-03-29 08:20:00,METAR EGLF 290820Z AUTO 25008KT 9999 NCD 06/02 Q1031,0,8,0,10000,0,0,0,
2026-03-29 07:50:00,METAR EGLF 290750Z AUTO 25007KT 9999 NCD 05/02 Q1031,0,7,0,10000,0,0,0,
2026-03-29 07:20:00,METAR EGLF 290720Z 25007KT CAVOK 05/01 Q1031,1,0,0,9999,0,0,0,
2026-03-29 06:50:00,METAR EGLF 290650Z 25004KT 220V280 CAVOK 04/01 Q1031,1,0,0,9999,0,0,0,
2026-03-29 06:20:00,METAR EGLF 290620Z AUTO 00000KT 9999 NCD 02/M00 Q1031,0,0,0,10000,0,0,0,
2026-03-29 05:50:00,METAR EGLF 290550Z AUTO 21001KT 9999 NCD 01/M01 Q1031,0,1,0,10000,0,0,0,
2026-03-29 05:20:00,METAR EGLF 290520Z AUTO 28002KT 9999 NCD 01/M01 Q1031,0,2,0,10000,0,0,0,
2026-03-29 04:50:00,METAR EGLF 290450Z AUTO 26003KT 230V290 9999 NCD M00/M02 Q1031,0,3,0,10000,0,0,0,
2026-03-29 04:20:00,METAR EGLF 290420Z AUTO 26004KT 9999 NCD 02/M00 Q1032,0,4,0,10000,0,0,0,
2026-03-29 03:50:00,METAR EGLF 290350Z AUTO 26005KT 9999 NCD 03/M00 Q1032,0,5,0,10000,0,0,0,
2026-03-29 03:20:00,METAR EGLF 290320Z AUTO 27006KT 9999 NCD 03/M00 Q1031,0,6,0,10000,0,0,0,
2026-03-29 02:50:00,METAR EGLF 290250Z AUTO 26005KT 9999 NCD 02/M01 Q1031,0,5,0,10000,0,0,0,
2026-03-29 02:20:00,METAR EGLF 290220Z AUTO 26004KT 9999 NCD 02/M01 Q1031,0,4,0,10000,0,0,0,
2026-03-29 01:50:00,METAR EGLF 290150Z AUTO 26005KT 9999 NCD 02/M01 Q1031,0,5,0,10000,0,0,0,
2026-03-29 01:20:00,METAR EGLF 290120Z AUTO 26005KT 9999 NCD 02/M01 Q1031,0,5,0,10000,0,0,0,
2026-03-29 00:50:00,METAR EGLF 290050Z AUTO 26006KT 9999 NCD 03/M00 Q1031,0,6,0,10000,0,0,0,
2026-03-29 00:20:00,METAR EGLF 290020Z AUTO 27005KT 9999 NCD 04/M00 Q1031,0,5,0,10000,0,0,0,
2026-03-28 23:50:00,METAR EGLF 282350Z AUTO 26004KT 9999 NCD 02/M01 Q1031,0,4,0,10000,0,0,0,
2026-03-28 23:20:00,METAR EGLF 282320Z AUTO 26006KT 9999 NCD 04/M00 Q1031,0,6,0,10000,0,0,0,
2026-03-28 22:50:00,METAR EGLF 282250Z AUTO 26006KT 9999 NCD 04/M01 Q1031,0,6,0,10000,0,0,0,
2026-03-28 22:20:00,METAR EGLF 282220Z AUTO 26005KT 9999 NCD 05/M01 Q1031,0,5,0,10000,0,0,0,
2026-03-28 21:50:00,METAR EGLF 282150Z AUTO 27004KT 9999 NCD 05/M01 Q1031,0,4,0,10000,0,0,0,
2026-03-28 21:20:00,METAR EGLF 282120Z AUTO 31005KT 9999 NCD 05/M01 Q1031,0,5,0,10000,0,0,0,
2026-03-28 20:50:00,METAR EGLF 282050Z AUTO 31008KT 270V350 9999 NCD 06/M02 Q1030,0,8,0,10000,0,0,0,
2026-03-28 20:20:00,METAR EGLF 282020Z AUTO 32009KT 280V350 9999 NCD 06/M02 Q1030,0,9,0,10000,0,0,0,
2026-03-28 19:50:00,METAR EGLF 281950Z AUTO 31011KT 9999 NCD 07/M03 Q1030,0,11,0,10000,0,0,0,
2026-03-28 19:20:00,METAR EGLF 281920Z AUTO 31010KT 270V340 9999 NCD 07/M03 Q1029,0,10,0,10000,0,0,0,
2026-03-28 18:50:00,METAR EGLF 281850Z AUTO 31006KT 260V340 9999 NCD 07/M02 Q1029,0,6,0,10000,0,0,0,
2026-03-28 18:20:00,METAR EGLF 281820Z AUTO 31008KT 280V340 9999 NCD 08/M01 Q1028,0,8,0,10000,0,0,0,
2026-03-28 17:50:00,METAR EGLF 281750Z 31008KT 280V340 9999 FEW040 08/M00 Q1028,0,8,0,10000,0,0,0,
2026-03-28 17:20:00,METAR EGLF 281720Z 32007KT 290V350 9999 FEW040 08/M01 Q1027,0,7,0,10000,0,0,0,
2026-03-28 16:50:00,METAR EGLF 281650Z COR 31011KT 270V340 9999 VCSH FEW037 09/M01 Q1027,0,11,0,10000,0,0,0,"SH,VC"
2026-03-28 16:20:00,METAR EGLF 281620Z 32010KT 290V350 9999 FEW044 09/M02 Q1026,0,10,0,10000,0,0,0,
2026-03-28 15:50:00,METAR EGLF 281550Z 32012G28KT 290V350 CAVOK 09/M02 Q1026,1,0,0,9999,0,0,0,
2026-03-28 15:20:00,METAR EGLF 281520Z 33012G23KT 290V020 9999 FEW040CB 09/00 Q1026 RESHRA,0,12,1,10000,0,0,0,RA
2026-03-28 14:50:00,METAR EGLF 281450Z 29010KT 230V320 9999 VCSH FEW035 FEW040CB 10/M00 Q1025,0,10,0,10000,0,0,0,"SH,VC"
2026-03-28 14:20:00,METAR EGLF 281420Z 31009G22KT 260V360 9999 VCSH FEW025 FEW040CB 09/M02 Q1025,0,9,1,10000,0,0,0,"SH,VC"
2026-03-28 13:50:00,METAR EGLF 281350Z 32008KT 290V360 9999 FEW040CB 08/M01 Q1025 RERA,0,8,0,10000,0,0,0,RA
2026-03-28 13:20:00,METAR EGLF 281320Z AUTO 31010KT 260V350 9999 NCD 10/M02 Q1025,0,10,0,10000,0,0,0,
2026-03-28 12:50:00,METAR EGLF 281250Z 31012KT 260V340 CAVOK 10/M03 Q1025,1,0,0,9999,0,0,0,
2026-03-28 12:20:00,METAR EGLF 281220Z 30010KT 250V330 CAVOK 10/M03 Q1025,1,0,0,9999,0,0,0,
2026-03-28 11:50:00,METAR EGLF 281150Z 31012KT 260V350 9999 BKN047 09/M02 Q1025,0,12,0,10000,0,0,0,
2026-03-28 11:20:00,METAR EGLF 281120Z 30012KT 250V340 9999 BKN042 09/M01 Q1025,0,12,0,10000,0,0,0,
2026-03-28 10:50:00,METAR EGLF 281050Z 30011KT 260V340 9999 BKN039 09/M01 Q1025,0,11,0,10000,0,0,0,
2026-03-28 10:20:00,METAR EGLF 281020Z 30011G21KT 260V340 9999 BKN038 08/M00 Q1025,0,11,1,10000,0,0,0,
2026-03-28 09:50:00,METAR EGLF 280950Z 31010KT 260V350 9999 FEW038 08/M01 Q1025,0,10,0,10000,0,0,0,
2026-03-28 09:20:00,METAR EGLF 280920Z AUTO 28011KT 240V320 9999 FEW031/// 08/00 Q1025,0,11,0,10000,0,0,0,
2026-03-28 08:50:00,METAR EGLF 280850Z AUTO 29010KT 250V330 9999 NCD 07/00 Q1024,0,10,0,10000,0,0,0,
2026-03-28 08:20:00,METAR EGLF 280820Z AUTO 27008KT 250V320 9999 NCD 06/01 Q1024,0,8,0,10000,0,0,0,
2026-03-28 07:50:00,METAR EGLF 280750Z 27007KT 230V300 CAVOK 05/01 Q1024,1,0,0,9999,0,0,0,
2026-03-28 07:20:00,METAR EGLF 280720Z AUTO 26006KT 230V300 9999 NCD 05/01 Q1024,0,6,0,10000,0,0,0,
2026-03-28 06:50:00,METAR EGLF 280650Z AUTO 26006KT 9999 NCD 04/00 Q1023,0,6,0,10000,0,0,0,
2026-03-28 06:20:00,METAR EGLF 280620Z AUTO 26006KT 9999 NCD 02/M00 Q1023,0,6,0,10000,0,0,0,
2026-03-28 05:50:00,METAR EGLF 280550Z AUTO 25004KT 9999 NCD 00/M02 Q1023,0,4,0,10000,0,0,0,
2026-03-28 05:20:00,METAR EGLF 280520Z AUTO 26004KT 9999 NCD 03/M01 Q1023,0,4,0,10000,0,0,0,
2026-03-28 04:50:00,METAR EGLF 280450Z AUTO 26004KT 9999 NCD 04/M00 Q1023,0,4,0,10000,0,0,0,
2026-03-28 04:20:00,METAR EGLF 280420Z AUTO 30004KT 270V350 9999 NCD 04/M00 Q1022,0,4,0,10000,0,0,0,
2026-03-28 03:50:00,METAR EGLF 280350Z AUTO 31007KT 270V340 9999 NCD 05/01 Q1022,0,7,0,10000,0,0,0,
2026-03-28 03:20:00,METAR EGLF 280320Z AUTO 30005KT 250V340 9999 NCD 05/01 Q1022,0,5,0,10000,0,0,0,
2026-03-28 02:50:00,METAR EGLF 280250Z AUTO 28004KT 250V310 9999 SCT047/// 06/01 Q1022,0,4,0,10000,0,0,0,
2026-03-28 02:20:00,METAR EGLF 280220Z AUTO 31005KT 9999 FEW042/// 06/01 Q1021,0,5,0,10000,0,0,0,
2026-03-28 01:50:00,METAR EGLF 280150Z AUTO 29005KT 250V330 9999 NCD 06/02 Q1021,0,5,0,10000,0,0,0,
2026-03-28 01:20:00,METAR EGLF 280120Z AUTO 28004KT 250V310 9999 NCD 07/02 Q1021,0,4,0,10000,0,0,0,
2026-03-28 00:50:00,METAR EGLF 280050Z AUTO 28003KT 250V320 9999 NCD 07/02 Q1021,0,3,0,10000,0,0,0,
2026-03-28 00:20:00,METAR EGLF 280020Z AUTO 28003KT 240V320 9999 NCD 07/02 Q1020,0,3,0,10000,0,0,0,
2026-03-27 23:50:00,METAR EGLF 272350Z AUTO 28004KT 250V320 9999 NCD 07/02 Q1020,0,4,0,10000,0,0,0,
2026-03-27 23:20:00,METAR EGLF 272320Z AUTO 27004KT 9999 NCD 07/02 Q1020,0,4,0,10000,0,0,0,
2026-03-27 22:50:00,METAR EGLF 272250Z AUTO 29003KT 240V320 9999 NCD 07/02 Q1020,0,3,0,10000,0,0,0,
2026-03-27 22:20:00,METAR EGLF 272220Z AUTO 31003KT 270V340 9999 NCD 08/02 Q1019,0,3,0,10000,0,0,0,
2026-03-27 21:50:00,METAR EGLF 272150Z AUTO 32006KT 280V340 9999 NCD 08/02 Q1019,0,6,0,10000,0,0,0,
2026-03-27 21:20:00,METAR EGLF 272120Z AUTO 32007KT 280V340 9999 NCD 09/02 Q1019,0,7,0,10000,0,0,0,
2026-03-27 20:50:00,METAR EGLF 272050Z 31007KT 280V350 9999 SCT042 09/03 Q1019,0,7,0,10000,0,0,0,
2026-03-27 20:20:00,METAR EGLF 272020Z 31007KT 270V340 9999 SCT034 10/04 Q1018,0,7,0,10000,0,0,0,
2026-03-27 19:50:00,METAR EGLF 271950Z 29004KT 250V340 9999 BKN033 10/06 Q1018,0,4,0,10000,0,0,0,
2026-03-27 19:20:00,METAR EGLF 271920Z 31009KT 9999 FEW017 BKN026 10/07 Q1018,0,9,0,10000,0,0,0,
2026-03-27 18:50:00,METAR EGLF 271850Z 26007KT 9999 FEW016 BKN038 12/09 Q1017,0,7,0,10000,0,0,0,
2026-03-27 18:20:00,METAR EGLF 271820Z 25008KT 9999 SCT016 BKN026 12/10 Q1017,0,8,0,10000,0,0,0,
2026-03-27 17:50:00,METAR EGLF 271750Z 25007KT 9999 SCT016 BKN024 12/10 Q1017,0,7,0,10000,0,0,0,
2026-03-27 17:20:00,METAR EGLF 271720Z 24010KT 9999 SCT012 BKN021 12/10 Q1017,0,10,0,10000,0,0,0,
2026-03-27 16:50:00,METAR EGLF 271650Z 23009KT 9999 SCT011 BKN024 12/10 Q1017,0,9,0,10000,0,0,0,
2026-03-27 16:20:00,METAR EGLF 271620Z 23010KT 9999 SCT009 BKN016 11/10 Q1017,0,10,0,10000,0,0,0,
2026-03-25 14:50:00,METAR EGLF 251450Z 29011G23KT 240V330 9999 VCSH SCT038CB 08/M00 Q1012,0,11,1,10000,0,0,0,"SH,VC"
2026-03-25 14:20:00,METAR EGLF 251420Z 28014G25KT 240V330 9999 VCSH FEW038CB 08/M00 Q1012,0,14,1,10000,0,0,0,"SH,VC"
2026-03-25 13:50:00,METAR EGLF 251350Z 29012G22KT 250V320 9999 VCSH SCT027CB 07/M00 Q1012,0,12,1,10000,0,0,0,"SH,VC"
2026-03-25 13:20:00,METAR EGLF 251320Z 28011KT 240V320 9999 SCT035CB 09/M03 Q1011,0,11,0,10000,0,0,0,
2026-03-25 12:50:00,METAR EGLF 251250Z 30013G23KT 260V340 CAVOK 09/M03 Q1011,1,0,0,9999,0,0,0,
2026-03-25 12:20:00,METAR EGLF 251220Z 29014G28KT 250V340 9999 SCT047 09/M02 Q1011,0,14,1,10000,0,0,0,
2026-03-25 11:50:00,METAR EGLF 251150Z 30015KT 260V340 9999 SCT045 09/M02 Q1010,0,15,0,10000,0,0,0,
2026-03-25 11:20:00,METAR EGLF 251120Z 30015G25KT 250V340 9999 SCT035 08/M01 Q1010,0,15,1,10000,0,0,0,
2026-03-25 10:50:00,METAR EGLF 251050Z 29011G22KT 260V330 9999 BKN028 08/01 Q1010,0,11,1,10000,0,0,0,
2026-03-25 10:20:00,METAR EGLF 251020Z 30012KT 260V340 9999 SCT024 SCT030 07/01 Q1010,0,12,0,10000,0,0,0,
2026-03-25 09:50:00,METAR EGLF 250950Z 30011KT 250V330 9999 SCT021 SCT030 06/02 Q1010,0,11,0,10000,0,0,0,
2026-03-25 09:20:00,METAR EGLF 250920Z 31012KT 260V340 9999 SCT022 SCT030 06/02 Q1009,0,12,0,10000,0,0,0,
2026-03-25 08:50:00,METAR EGLF 250850Z 29011KT 250V330 9999 -RA SCT016 BKN024 05/03 Q1009,0,11,0,10000,0,0,0,-RA
2026-03-25 08:20:00,METAR EGLF 250820Z 30009KT 260V330 9999 SCT016 BKN030 05/03 Q1008,0,9,0,10000,0,0,0,
2026-03-25 07:50:00,METAR EGLF 250750Z 27008KT 250V310 9999 SCT016 SCT029 05/03 Q1008,0,8,0,10000,0,0,0,
2026-03-25 07:20:00,METAR EGLF 250720Z COR 28009KT 240V330 9999 -RA SCT018 SCT033 05/03 Q1007,0,9,0,10000,0,0,0,-RA
2026-03-25 06:50:00,METAR EGLF 250650Z 28011KT 250V340 9999 SCT022 SCT033 06/02 Q1006,0,11,0,10000,0,0,0,
2026-03-25 06:20:00,METAR EGLF 250620Z AUTO 27009KT 240V300 9999 SCT026/// BKN033/// 06/02 Q1006,0,9,0,10000,0,0,0,
2026-03-25 05:50:00,METAR EGLF 250550Z AUTO 27008KT 230V290 9999 OVC034/// 06/02 Q1005,0,8,0,10000,0,0,0,
2026-03-25 05:20:00,METAR EGLF 250520Z AUTO 26009KT 230V290 9999 SCT037/// 05/02 Q1005,0,9,0,10000,0,0,0,
2026-03-25 04:50:00,METAR EGLF 250450Z AUTO 26010KT 9999 SCT037/// 06/02 Q1005,0,10,0,10000,0,0,0,
2026-03-25 04:20:00,METAR EGLF 250420Z AUTO 25011KT 9999 SCT038/// 06/03 Q1004,0,11,0,10000,0,0,0,
2026-03-25 03:50:00,METAR EGLF 250350Z AUTO 25011KT 9999 NCD 06/03 Q1004,0,11,0,10000,0,0,0,
2026-03-25 03:20:00,METAR EGLF 250320Z AUTO 25011KT 9999 NCD 06/03 Q1004,0,11,0,10000,0,0,0,
2026-03-25 02:50:00,METAR EGLF 250250Z AUTO 25011KT 9999 SCT034/// 06/03 Q1004,0,11,0,10000,0,0,0,
2026-03-25 02:20:00,METAR EGLF 250220Z AUTO 25011KT 9999 NCD 07/03 Q1004,0,11,0,10000,0,0,0,
2026-03-25 01:50:00,METAR EGLF 250150Z AUTO 26013KT 230V290 9999 NCD 07/03 Q1004,0,13,0,10000,0,0,0,
2026-03-25 01:20:00,METAR EGLF 250120Z AUTO 26013KT 240V300 9999 NCD 07/03 Q1004,0,13,0,10000,0,0,0,
2026-03-25 00:50:00,METAR EGLF 250050Z AUTO 26017G27KT 9999 NCD 07/03 Q1004,0,17,1,10000,0,0,0,
2026-03-25 00:20:00,METAR EGLF 250020Z AUTO 26016KT 230V310 9999 FEW035/// 07/03 Q1004,0,16,0,10000,0,0,0,
2026-03-24 23:50:00,METAR EGLF 242350Z AUTO 26017G29KT 9999 FEW036/// 08/02 Q1004 REUP,0,17,1,10000,0,0,0,UP
2026-03-24 23:20:00,METAR EGLF 242320Z AUTO 26013G23KT 240V300 9999 FEW025/// 08/03 Q1004 RERA,0,13,1,10000,0,0,0,RA
2026-03-24 22:50:00,METAR EGLF 242250Z AUTO 26015KT 9999 FEW029/// 09/05 Q1004,0,15,0,10000,0,0,0,
2026-03-24 22:20:00,METAR EGLF 242220Z AUTO 26015KT 9999 FEW026/// 09/06 Q1003,0,15,0,10000,0,0,0,
2026-03-24 21:50:00,METAR EGLF 242150Z 26014KT 9999 FEW020 BKN032 10/07 Q1004 RERA,0,14,0,10000,0,0,0,RA
2026-03-24 21:20:00,METAR EGLF 242120Z 24021G35KT 4900 RA SCT013CB BKN016 11/09 Q1003,0,21,1,4900,0,0,0,RA
2026-03-24 20:50:00,METAR EGLF 242050Z 22018G28KT 9999 -RA BKN012 BKN016 11/09 Q1003,0,18,1,10000,0,0,0,-RA
2026-03-24 20:20:00,METAR EGLF 242020Z 22020G30KT 9999 -RA BKN014 BKN017 11/09 Q1004,0,20,1,10000,0,0,0,-RA
2026-03-24 19:50:00,METAR EGLF 241950Z 22019G29KT 9999 BKN015 BKN025 11/09 Q1005,0,19,1,10000,0,0,0,
2026-03-24 19:20:00,METAR EGLF 241920Z 22019KT 9999 BKN015 BKN020 10/09 Q1005,0,19,0,10000,0,0,0,
2026-03-24 18:50:00,METAR EGLF 241850Z 22018KT 9000 -RA SCT012 BKN016 10/09 Q1006,0,18,0,9000,0,0,0,-RA
2026-03-24 18:20:00,METAR EGLF 241820Z 22018KT 8000 -RA BKN011 OVC016 10/09 Q1007,0,18,0,8000,0,0,0,-RA
2026-03-24 17:50:00,METAR EGLF 241750Z 22017KT 6000 -RA BKN010 OVC015 11/09 Q1008,0,17,0,6000,0,0,0,-RA
2026-03-24 17:20:00,METAR EGLF 241720Z 22019G29KT 9999 VCSH BKN011 11/09 Q1008,0,19,1,10000,0,0,0,"SH,VC"
2026-03-24 16:50:00,METAR EGLF 241650Z 22017KT 9999 -DZ BKN010 11/09 Q1009,0,17,0,10000,0,0,0,DZ
2026-03-24 16:20:00,METAR EGLF 241620Z 22019G30KT 9999 BKN013 11/09 Q1009,0,19,1,10000,0,0,0,
2026-03-24 15:50:00,METAR EGLF 241550Z 23018G32KT 9999 BKN014 11/08 Q1010,0,18,1,10000,0,0,0,
2026-03-24 15:20:00,METAR EGLF 241520Z 23020KT 9999 BKN013 11/09 Q1011,0,20,0,10000,0,0,0,
2026-03-24 14:50:00,METAR EGLF 241450Z 21014KT 9999 BKN014 12/09 Q1011,0,14,0,10000,0,0,0,
2026-03-24 14:20:00,METAR EGLF 241420Z 21011KT 9999 BKN014 11/08 Q1012,0,11,0,10000,0,0,0,
2026-03-24 13:50:00,METAR EGLF 241350Z 22014KT 9999 BKN014 12/08 Q1013,0,14,0,10000,0,0,0,
2026-03-24 13:20:00,METAR EGLF 241320Z 21015KT 9999 BKN014 11/08 Q1013,0,15,0,10000,0,0,0,
2026-03-24 12:50:00,METAR EGLF 241250Z 22013KT 9999 BKN014 12/09 Q1014,0,13,0,10000,0,0,0,
2026-03-24 12:20:00,METAR EGLF 241220Z 22014KT 9999 BKN015 12/09 Q1014,0,14,0,10000,0,0,0,
2026-03-24 11:50:00,METAR EGLF 241150Z 22013KT 9999 BKN014 12/09 Q1015,0,13,0,10000,0,0,0,
2026-03-24 11:20:00,METAR EGLF 241120Z 23014KT 9999 BKN013 11/09 Q1015,0,14,0,10000,0,0,0,
2026-03-24 10:50:00,METAR EGLF 241050Z 22013KT 190V250 9999 BKN013 11/08 Q1016,0,13,0,10000,0,0,0,
2026-03-24 10:20:00,METAR EGLF 241020Z 22012KT 190V250 9999 BKN012 11/08 Q1016,0,12,0,10000,0,0,0,
2026-03-24 09:50:00,METAR EGLF 240950Z 22013KT 9999 BKN013 11/08 Q1016,0,13,0,10000,0,0,0,
2026-03-24 09:20:00,METAR EGLF 240920Z 23014KT 9999 BKN013 11/08 Q1016,0,14,0,10000,0,0,0,
2026-03-24 08:50:00,METAR EGLF 240850Z 23013KT 9999 BKN012 10/08 Q1016,0,13,0,10000,0,0,0,
2026-03-24 08:20:00,METAR EGLF 240820Z 24013KT 9999 BKN013 10/08 Q1017,0,13,0,10000,0,0,0,
2026-03-24 07:50:00,METAR EGLF 240750Z 22011KT 9999 BKN012 10/07 Q1017,0,11,0,10000,0,0,0,
2026-03-24 07:20:00,METAR EGLF 240720Z 23009KT 9000 BKN012 09/07 Q1017,0,9,0,9000,0,0,0,
2026-03-24 06:50:00,METAR EGLF 240650Z 22007KT 9000 BKN012 09/07 Q1017,0,7,0,9000,0,0,0,
2026-03-24 06:20:00,METAR EGLF 240620Z AUTO 22009KT 8000 BKN012/// 09/07 Q1017,0,9,0,8000,0,0,0,
2026-03-24 05:50:00,METAR EGLF 240550Z AUTO 23009KT 7000 BKN012/// 09/07 Q1017,0,9,0,7000,0,0,0,
2026-03-24 05:20:00,METAR EGLF 240520Z AUTO 24010KT 6000 FEW011/// 09/07 Q1017,0,10,0,6000,0,0,0,
2026-03-24 04:50:00,METAR EGLF 240450Z AUTO 23013KT 6000 FEW010/// 09/07 Q1017,0,13,0,6000,0,0,0,
2026-03-24 04:20:00,METAR EGLF 240420Z AUTO 23012KT 5000 HZ FEW010/// 09/07 Q1017,0,12,0,5000,0,0,0,
2026-03-24 03:50:00,METAR EGLF 240350Z AUTO 24009KT 4800 HZ SCT011/// 09/07 Q1018,0,9,0,4800,0,0,0,
2026-03-24 03:20:00,METAR EGLF 240320Z AUTO 23008KT 5000 HZ FEW013/// 09/07 Q1018,0,8,0,5000,0,0,0,
2026-03-24 02:50:00,METAR EGLF 240250Z AUTO 20007KT 4700 HZ NCD 09/07 Q1018,0,7,0,4700,0,0,0,
2026-03-24 02:20:00,METAR EGLF 240220Z AUTO 23007KT 4100 HZ NCD 09/07 Q1018,0,7,0,4100,0,0,0,
2026-03-24 01:50:00,METAR EGLF 240150Z AUTO 22006KT 4500 HZ NCD 09/07 Q1018,0,6,0,4500,0,0,0,
2026-03-24 01:20:00,METAR EGLF 240120Z AUTO 23006KT 4700 HZ SCT014/// 09/07 Q1019,0,6,0,4700,0,0,0,
2026-03-24 00:50:00,METAR EGLF 240050Z AUTO 24009KT 4700 HZ NCD 09/07 Q1019,0,9,0,4700,0,0,0,
2026-03-24 00:20:00,METAR EGLF 240020Z AUTO 23006KT 5000 HZ NCD 09/07 Q1019,0,6,0,5000,0,0,0,
2026-03-23 23:50:00,METAR EGLF 232350Z AUTO 21007KT 5000 HZ NCD 09/07 Q1019,0,7,0,5000,0,0,0,
2026-03-23 23:20:00,METAR EGLF 232320Z AUTO 21007KT 6000 NCD 09/07 Q1019,0,7,0,6000,0,0,0,
2026-03-23 22:50:00,METAR EGLF 232250Z AUTO 22005KT 190V250 6000 NCD 09/06 Q1019,0,5,0,6000,0,0,0,
2026-03-23 22:20:00,METAR EGLF 232220Z AUTO 23006KT 6000 NCD 09/06 Q1020,0,6,0,6000,0,0,0,
2026-03-23 21:50:00,METAR EGLF 232150Z 24005KT 7000 NSC 09/05 Q1020,0,5,0,7000,0,0,0,
2026-03-23 21:20:00,METAR EGLF 232120Z 23004KT 7000 NSC 09/06 Q1020,0,4,0,7000,0,0,0,
2026-03-23 20:50:00,METAR EGLF 232050Z 21006KT 8000 NSC 10/06 Q1020,0,6,0,8000,0,0,0,
2026-03-23 20:20:00,METAR EGLF 232020Z 21006KT 8000 NSC 11/06 Q1020,0,6,0,8000,0,0,0,
2026-03-23 19:50:00,METAR EGLF 231950Z 21007KT 9000 NSC 11/06 Q1020,0,7,0,9000,0,0,0,
2026-03-23 19:20:00,METAR EGLF 231920Z 20008KT 9000 NSC 11/06 Q1020,0,8,0,9000,0,0,0,
2026-03-23 18:50:00,METAR EGLF 231850Z 20007KT 9000 NSC 12/06 Q1020,0,7,0,9000,0,0,0,
2026-03-23 18:20:00,METAR EGLF 231820Z 20007KT 8000 FEW038 12/06 Q1020,0,7,0,8000,0,0,0,
2026-03-23 17:50:00,METAR EGLF 231750Z 21007KT 9000 FEW038 13/06 Q1020,0,7,0,9000,0,0,0,
2026-03-23 17:20:00,METAR EGLF 231720Z 24008KT 9000 FEW038 14/06 Q1020,0,8,0,9000,0,0,0,
2026-03-23 16:50:00,METAR EGLF 231650Z 24007KT 230V290 9000 NSC 14/06 Q1020,0,7,0,9000,0,0,0,
2026-03-23 16:20:00,METAR EGLF 231620Z 23008KT 9000 NSC 14/06 Q1020,0,8,0,9000,0,0,0,
2026-03-23 15:50:00,METAR EGLF 231550Z 23007KT 190V260 9000 NSC 14/06 Q1020,0,7,0,9000,0,0,0,
2026-03-23 15:20:00,METAR EGLF 231520Z 25008KT 220V280 9000 NSC 14/06 Q1020,0,8,0,9000,0,0,0,
2026-03-23 14:50:00,METAR EGLF 231450Z 24008KT 200V260 9000 NSC 15/05 Q1020,0,8,0,9000,0,0,0,
2026-03-23 14:20:00,METAR EGLF 231420Z 24009KT 200V270 9000 NSC 15/06 Q1020,0,9,0,9000,0,0,0,
2026-03-23 13:50:00,METAR EGLF 231350Z 25008KT 210V290 8000 FEW045 15/04 Q1020,0,8,0,8000,0,0,0,
2026-03-23 13:20:00,METAR EGLF 231320Z 25009KT 220V300 8000 NSC 14/05 Q1020,0,9,0,8000,0,0,0,
2026-03-23 12:50:00,METAR EGLF 231250Z 23007KT 190V270 9000 NSC 14/06 Q1020,0,7,0,9000,0,0,0,
2026-03-23 12:20:00,METAR EGLF 231220Z VRB04KT 9000 NSC 14/04 Q1021,0,4,0,9000,0,0,0,
2026-03-23 11:50:00,METAR EGLF 231150Z 13003KT 090V170 9000 NSC 13/04 Q1021,0,3,0,9000,0,0,0,
2026-03-23 11:20:00,METAR EGLF 231120Z COR 14003KT 080V200 7000 NSC 12/05 Q1021,0,3,0,7000,0,0,0,
2026-03-23 10:50:00,METAR EGLF 231050Z AUTO VRB02KT 7000 NCD 11/06 Q1021,0,2,0,7000,0,0,0,
2026-03-23 10:20:00,METAR EGLF 231020Z VRB02KT 5000 HZ NSC 10/06 Q1021,0,2,0,5000,0,0,0,
2026-03-23 09:50:00,METAR EGLF 230950Z 07001KT 5000 HZ NSC 09/06 Q1021,0,1,0,5000,0,0,0,
2026-03-23 09:20:00,METAR EGLF 230920Z 07001KT 4800 HZ NSC 08/06 Q1021,0,1,0,4800,0,0,0,
2026-03-23 08:50:00,METAR EGLF 230850Z VRB01KT 4700 HZ NSC 07/05 Q1021,0,1,0,4700,0,0,0,
2026-03-23 08:20:00,METAR EGLF 230820Z 22001KT 4100 HZ NSC 06/05 Q1021,0,1,0,4100,0,0,0,
2026-03-23 07:50:00,METAR EGLF 230750Z 26002KT 4600 HZ NSC 05/03 Q1021,0,2,0,4600,0,0,0,
2026-03-23 07:20:00,METAR EGLF 230720Z 21001KT 4400 HZ NSC 03/02 Q1020,0,1,0,4400,0,0,0,
2026-03-23 06:50:00,METAR EGLF 230650Z 26002KT 4000 HZ NSC 03/01 Q1020,0,2,0,4000,0,0,0,
2026-03-23 06:20:00,METAR EGLF 230620Z AUTO 26003KT 3600 HZ NCD 02/01 Q1020,0,3,0,3600,0,0,0,
2026-03-23 05:50:00,METAR EGLF 230550Z AUTO 25003KT 7000 NCD 02/00 Q1020,0,3,0,7000,0,0,0,
2026-03-23 05:20:00,METAR EGLF 230520Z AUTO 25003KT 9000 NCD 01/M00 Q1019,0,3,0,9000,0,0,0,
2026-03-23 04:50:00,METAR EGLF 230450Z AUTO 25003KT 8000 NCD 02/01 Q1019,0,3,0,8000,0,0,0,
2026-03-23 04:20:00,METAR EGLF 230420Z AUTO 25001KT 9999 NCD 01/M00 Q1019,0,1,0,10000,0,0,0,
2026-03-23 03:50:00,METAR EGLF 230350Z AUTO 25002KT 9999 NCD 02/00 Q1018,0,2,0,10000,0,0,0,
2026-03-23 03:20:00,METAR EGLF 230320Z AUTO VRB02KT 9999 NCD 02/M00 Q1018,0,2,0,10000,0,0,0,
2026-03-23 02:50:00,METAR EGLF 230250Z AUTO 24003KT 9999 NCD 01/M00 Q1018,0,3,0,10000,0,0,0,
2026-03-23 02:20:00,METAR EGLF 230220Z AUTO 24004KT 9999 FEW032/// 02/00 Q1018,0,4,0,10000,0,0,0,
2026-03-23 01:50:00,METAR EGLF 230150Z AUTO 21001KT 9999 BKN034/// 03/01 Q1018,0,1,0,10000,0,0,0,
2026-03-23 01:20:00,METAR EGLF 230120Z AUTO 23003KT 9999 OVC034/// 03/01 Q1019,0,3,0,10000,0,0,0,
2026-03-23 00:50:00,METAR EGLF 230050Z AUTO 26002KT 9999 BKN034/// 04/01 Q1019,0,2,0,10000,0,0,0,
2026-03-23 00:20:00,METAR EGLF 230020Z AUTO 25003KT 9999 BKN031/// 05/02 Q1019,0,3,0,10000,0,0,0,
2026-03-22 23:50:00,METAR EGLF 222350Z AUTO 21002KT 9999 OVC030/// 05/02 Q1018,0,2,0,10000,0,0,0,
2026-03-22 23:20:00,METAR EGLF 222320Z AUTO 22002KT 9999 SCT027/// BKN035/// 05/02 Q1018,0,2,0,10000,0,0,0,
2026-03-22 22:50:00,METAR EGLF 222250Z AUTO 25002KT 9999 FEW034/// 05/01 Q1018,0,2,0,10000,0,0,0,
2026-03-22 22:20:00,METAR EGLF 222220Z AUTO 26003KT 9999 NCD 06/02 Q1018,0,3,0,10000,0,0,0,
2026-03-22 21:50:00,METAR EGLF 222150Z AUTO 18001KT 9999 NCD 06/02 Q1017,0,1,0,10000,0,0,0,
2026-03-22 21:20:00,METAR EGLF 222120Z AUTO 22003KT 9999 NCD 06/02 Q1017,0,3,0,10000,0,0,0,
2026-03-22 20:50:00,METAR EGLF 222050Z AUTO 25003KT 220V280 9999 NCD 06/02 Q1017,0,3,0,10000,0,0,0,
2026-03-22 20:20:00,METAR EGLF 222020Z AUTO 24002KT 9999 NCD 06/02 Q1017,0,2,0,10000,0,0,0,
2026-03-22 19:50:00,METAR EGLF 221950Z AUTO 23003KT 9999 NCD 07/03 Q1017,0,3,0,10000,0,0,0,
2026-03-22 19:20:00,METAR EGLF 221920Z AUTO 23002KT 9999 NCD 08/03 Q1016,0,2,0,10000,0,0,0,
2026-03-22 18:50:00,METAR EGLF 221850Z AUTO VRB02KT 9999 NCD 10/03 Q1016,0,2,0,10000,0,0,0,
2026-03-22 18:20:00,METAR EGLF 221820Z AUTO VRB02KT 9999 NCD 11/02 Q1016,0,2,0,10000,0,0,0,
2026-03-22 17:50:00,METAR EGLF 221750Z AUTO VRB02KT 9999 NCD 11/02 Q1016,0,2,0,10000,0,0,0,
2026-03-22 17:20:00,METAR EGLF 221720Z AUTO 01003KT 320V030 9999 NCD 12/01 Q1016,0,3,0,10000,0,0,0,
2026-03-22 16:50:00,METAR EGLF 221650Z AUTO 35005KT 320V030 9999 NCD 12/01 Q1016,0,5,0,10000,0,0,0,
2026-03-22 16:20:00,METAR EGLF 221620Z AUTO 35005KT 320V030 9999 NCD 12/02 Q1015,0,5,0,10000,0,0,0,
2026-03-22 15:50:00,METAR EGLF 221550Z AUTO 32007KT 9999 NCD 12/02 Q1015,0,7,0,10000,0,0,0,
2026-03-22 15:20:00,METAR EGLF 221520Z AUTO 35006KT 290V030 9999 NCD 12/02 Q1015,0,6,0,10000,0,0,0,
2026-03-22 14:50:00,METAR EGLF 221450Z AUTO 35003KT 290V040 9999 NCD 12/M01 Q1015,0,3,0,10000,0,0,0,
2026-03-22 14:20:00,METAR EGLF 221420Z AUTO 03003KT 320V090 9999 NCD 12/M06 Q1015,0,3,0,10000,0,0,0,
2026-03-22 13:50:00,METAR EGLF 221350Z AUTO VRB04KT 9999 NCD 12/M01 Q1016,0,4,0,10000,0,0,0,
2026-03-22 13:20:00,METAR EGLF 221320Z VRB05KT CAVOK 12/M01 Q1016,1,0,0,9999,0,0,0,
2026-03-22 12:50:00,METAR EGLF 221250Z 07003KT 340V120 CAVOK 11/M00 Q1016,1,0,0,9999,0,0,0,
2026-03-22 12:20:00,METAR EGLF 221220Z VRB02KT CAVOK 10/M01 Q1016,1,0,0,9999,0,0,0,
2026-03-22 11:50:00,METAR EGLF 221150Z 08003KT 040V180 CAVOK 10/01 Q1016,1,0,0,9999,0,0,0,
2026-03-22 11:20:00,METAR EGLF 221120Z 06003KT 330V120 CAVOK 09/02 Q1016,1,0,0,9999,0,0,0,
2026-03-22 10:50:00,METAR EGLF 221050Z 08004KT 020V150 CAVOK 08/03 Q1016,1,0,0,9999,0,0,0,
2026-03-22 10:20:00,METAR EGLF 221020Z VRB02KT 9000 FEW006 06/03 Q1017,0,2,0,9000,0,0,0,
2026-03-22 09:50:00,METAR EGLF 220950Z 04003KT 350V080 6000 FEW004 04/03 Q1017,0,3,0,6000,0,0,0,
2026-03-22 09:20:00,METAR EGLF 220920Z 09005KT 4000 BR BKN002 04/03 Q1017,0,5,0,4000,0,0,1,BR
2026-03-22 08:50:00,METAR EGLF 220850Z 06003KT 010V090 3000 BR BKN001 BKN004 03/03 Q1017,0,3,0,3000,0,0,1,BR
2026-03-22 08:20:00,METAR EGLF 220820Z VRB01KT 3500 BR OVC001 03/02 Q1017,0,1,0,3500,0,0,1,BR
2026-03-22 07:50:00,METAR EGLF 220750Z VRB02KT 3700 BR OVC001 01/01 Q1017,0,2,0,3700,0,0,1,BR
2026-03-22 07:20:00,METAR EGLF 220720Z AUTO 26001KT 0700 R24/0650D FG OVC001/// 01/M00 Q1017,0,1,0,1126300,0,0,1,FG
2026-03-22 06:50:00,METAR EGLF 220650Z AUTO VRB02KT 9999 OVC001/// M00/M01 Q1016,0,2,0,10000,0,0,0,
2026-03-22 06:20:00,METAR EGLF 220620Z AUTO 23001KT 9999 OVC002/// M01/M02 Q1016,0,1,0,10000,0,0,0,
2026-03-22 05:50:00,METAR EGLF 220550Z AUTO 24002KT 9000 OVC002/// M01/M03 Q1016,0,2,0,9000,0,0,0,
2026-03-22 05:20:00,METAR EGLF 220520Z AUTO 19002KT 9999 BKN002/// M01/M03 Q1016,0,2,0,10000,0,0,0,
2026-03-22 04:50:00,METAR EGLF 220450Z AUTO 22001KT 9999 NCD M02/M03 Q1016,0,1,0,10000,0,0,0,
2026-03-22 04:20:00,METAR EGLF 220420Z AUTO 23001KT 9999 NCD M01/M03 Q1016,0,1,0,10000,0,0,0,
2026-03-22 03:50:00,METAR EGLF 220350Z AUTO 24002KT 9999 NCD M01/M03 Q1016,0,2,0,10000,0,0,0,
2026-03-22 03:20:00,METAR EGLF 220320Z AUTO 24004KT 9999 NCD M01/M02 Q1016,0,4,0,10000,0,0,0,
2026-03-22 02:50:00,METAR EGLF 220250Z AUTO 23004KT 9999 NCD M02/M03 Q1016,0,4,0,10000,0,0,0,
2026-03-22 02:20:00,METAR EGLF 220220Z AUTO 25002KT 9999 NCD M01/M03 Q1016,0,2,0,10000,0,0,0,
2026-03-22 01:50:00,METAR EGLF 220150Z AUTO 22001KT 9999 NCD M01/M03 Q1016,0,1,0,10000,0,0,0,
2026-03-22 01:20:00,METAR EGLF 220120Z AUTO 24004KT 9999 NCD M01/M03 Q1017,0,4,0,10000,0,0,0,
2026-03-22 00:50:00,METAR EGLF 220050Z AUTO 24003KT 9999 NCD M01/M03 Q1017,0,3,0,10000,0,0,0,
2026-03-22 00:20:00,METAR EGLF 220020Z AUTO VRB02KT 9999 NCD 00/M02 Q1017,0,2,0,10000,0,0,0,
2026-03-21 23:50:00,METAR EGLF 212350Z AUTO VRB01KT 9999 NCD 00/M03 Q1017,0,1,0,10000,0,0,0,
2026-03-21 23:20:00,METAR EGLF 212320Z AUTO 20001KT 9999 NCD 01/M02 Q1017,0,1,0,10000,0,0,0,
2026-03-21 22:50:00,METAR EGLF 212250Z AUTO 24002KT 9999 NCD 01/M02 Q1017,0,2,0,10000,0,0,0,
2026-03-21 22:20:00,METAR EGLF 212220Z AUTO 20001KT 9999 NCD 01/M02 Q1018,0,1,0,10000,0,0,0,
2026-03-21 21:50:00,METAR EGLF 212150Z AUTO VRB02KT 9999 NCD 02/M02 Q1018,0,2,0,10000,0,0,0,
2026-03-21 21:20:00,METAR EGLF 212120Z AUTO 18001KT 9999 NCD 02/M03 Q1017,0,1,0,10000,0,0,0,
2026-03-21 20:50:00,METAR EGLF 212050Z AUTO VRB01KT 9999 NCD 03/M03 Q1018,0,1,0,10000,0,0,0,
2026-03-21 20:20:00,METAR EGLF 212020Z AUTO 23003KT 9999 NCD 04/M03 Q1018,0,3,0,10000,0,0,0,
2026-03-21 19:50:00,METAR EGLF 211950Z AUTO VRB02KT 9999 NCD 04/M02 Q1018,0,2,0,10000,0,0,0,
2026-03-21 19:20:00,METAR EGLF 211920Z AUTO 24002KT 9999 NCD 05/M03 Q1017,0,2,0,10000,0,0,0,
2026-03-21 18:50:00,METAR EGLF 211850Z AUTO 06002KT 9999 NCD 10/M05 Q1017,0,2,0,10000,0,0,0,
2026-03-21 18:20:00,METAR EGLF 211820Z AUTO 05005KT 9999 NCD 10/M05 Q1017,0,5,0,10000,0,0,0,
2026-03-21 17:50:00,METAR EGLF 211750Z AUTO 06006KT 9999 NCD 11/M05 Q1017,0,6,0,10000,0,0,0,
2026-03-21 17:20:00,METAR EGLF 211720Z AUTO 04006KT 9999 NCD 13/M06 Q1017,0,6,0,10000,0,0,0,
2026-03-21 16:50:00,METAR EGLF 211650Z AUTO 03007KT 360V070 9999 NCD 13/M06 Q1017,0,7,0,10000,0,0,0,
2026-03-21 16:20:00,METAR EGLF 211620Z AUTO 04007KT 010V070 9999 NCD 14/M06 Q1017,0,7,0,10000,0,0,0,
2026-03-21 15:50:00,METAR EGLF 211550Z AUTO 05007KT 360V080 9999 NCD 14/M06 Q1017,0,7,0,10000,0,0,0,
2026-03-21 14:50:00,METAR EGLF 211450Z AUTO 07007KT 040V100 9999 NCD 14/M07 Q1018,0,7,0,10000,0,0,0,
2026-03-21 14:20:00,METAR EGLF 211420Z AUTO 07006KT 030V110 9999 NCD 13/M06 Q1018,0,6,0,10000,0,0,0,
2026-03-21 13:50:00,METAR EGLF 211350Z AUTO 06008KT 030V100 9999 NCD 13/M06 Q1018,0,8,0,10000,0,0,0,
2026-03-21 13:20:00,METAR EGLF 211320Z AUTO 06007KT 040V100 9999 NCD 13/M03 Q1018,0,7,0,10000,0,0,0,
2026-03-21 12:50:00,METAR EGLF 211250Z AUTO 06008KT 350V130 9999 NCD 13/M04 Q1019,0,8,0,10000,0,0,0,
2026-03-21 12:20:00,METAR EGLF 211220Z AUTO 06010KT 020V090 9999 NCD 12/M04 Q1019,0,10,0,10000,0,0,0,
2026-03-21 11:50:00,METAR EGLF 211150Z AUTO 06007KT 020V100 9999 NCD 12/M02 Q1019,0,7,0,10000,0,0,0,
2026-03-21 11:20:00,METAR EGLF 211120Z AUTO 05008KT 010V080 9999 NCD 11/M01 Q1020,0,8,0,10000,0,0,0,
2026-03-21 10:50:00,METAR EGLF 211050Z AUTO 03005KT 350V090 9999 NCD 10/M02 Q1020,0,5,0,10000,0,0,0,
2026-03-21 10:20:00,METAR EGLF 211020Z AUTO 04007KT 010V080 9999 NCD 10/M01 Q1020,0,7,0,10000,0,0,0,
2026-03-21 09:50:00,METAR EGLF 210950Z 03005KT 330V070 CAVOK 09/00 Q1020,1,0,0,9999,0,0,0,
2026-03-21 09:20:00,METAR EGLF 210920Z 05006KT 010V080 CAVOK 08/01 Q1020,1,0,0,9999,0,0,0,
2026-03-21 08:50:00,METAR EGLF 210850Z 04005KT 020V090 CAVOK 07/03 Q1020,1,0,0,9999,0,0,0,
2026-03-21 08:20:00,METAR EGLF 210820Z 05003KT 350V110 CAVOK 06/04 Q1020,1,0,0,9999,0,0,0,
2026-03-21 07:50:00,METAR EGLF 210750Z 03003KT CAVOK 05/04 Q1020,1,0,0,9999,0,0,0,
2026-03-21 07:20:00,METAR EGLF 210720Z AUTO VRB01KT 9999 NCD 02/01 Q1020,0,1,0,10000,0,0,0,
2026-03-21 06:50:00,METAR EGLF 210650Z AUTO 24002KT 9999 NCD M00/M01 Q1020,0,2,0,10000,0,0,0,
2026-03-21 06:20:00,METAR EGLF 210620Z AUTO 22001KT 9999 NCD M01/M02 Q1020,0,1,0,10000,0,0,0,
2026-03-21 05:50:00,METAR EGLF 210550Z AUTO 24004KT 9999 NCD M01/M02 Q1020,0,4,0,10000,0,0,0,
2026-03-21 05:20:00,METAR EGLF 210520Z AUTO 24003KT 8000 NCD M01/M01 Q1019,0,3,0,8000,0,0,0,
2026-03-21 04:50:00,METAR EGLF 210450Z AUTO VRB02KT 9999 NCD M00/M01 Q1020,0,2,0,10000,0,0,0,
2026-03-21 04:20:00,METAR EGLF 210420Z AUTO 24002KT 7000 NCD M00/M01 Q1020,0,2,0,7000,0,0,0,
2026-03-21 03:50:00,METAR EGLF 210350Z AUTO VRB02KT 9999 NCD 00/M01 Q1020,0,2,0,10000,0,0,0,
2026-03-21 03:20:00,METAR EGLF 210320Z AUTO VRB02KT 8000 NCD 01/01 Q1019,0,2,0,8000,0,0,0,
2026-03-21 02:50:00,METAR EGLF 210250Z AUTO VRB02KT 9999 NCD 02/01 Q1020,0,2,0,10000,0,0,0,
2026-03-21 02:20:00,METAR EGLF 210220Z AUTO 06001KT 9999 NCD 03/02 Q1020,0,1,0,10000,0,0,0,
2026-03-21 01:50:00,METAR EGLF 210150Z AUTO 00000KT 9999 NCD 04/02 Q1020,0,0,0,10000,0,0,0,
2026-03-21 01:20:00,METAR EGLF 210120Z AUTO 07003KT 9999 NCD 05/04 Q1020,0,3,0,10000,0,0,0,
2026-03-21 00:50:00,METAR EGLF 210050Z AUTO 08004KT 9999 NCD 05/03 Q1020,0,4,0,10000,0,0,0,
2026-03-21 00:20:00,METAR EGLF 210020Z AUTO 08003KT 9999 NCD 05/04 Q1020,0,3,0,10000,0,0,0,
2026-03-20 23:50:00,METAR EGLF 202350Z AUTO 08005KT 9999 NCD 05/04 Q1020,0,5,0,10000,0,0,0,
2026-03-20 23:20:00,METAR EGLF 202320Z AUTO 06004KT 9999 NCD 06/04 Q1020,0,4,0,10000,0,0,0,
2026-03-20 22:50:00,METAR EGLF 202250Z AUTO 07005KT 9999 NCD 06/04 Q1020,0,5,0,10000,0,0,0,
2026-03-20 22:20:00,METAR EGLF 202220Z AUTO 06004KT 9999 NCD 06/03 Q1020,0,4,0,10000,0,0,0,
2026-03-20 21:50:00,METAR EGLF 202150Z AUTO 06006KT 9999 NCD 07/03 Q1020,0,6,0,10000,0,0,0,
2026-03-20 21:20:00,METAR EGLF 202120Z AUTO 09005KT 9999 NCD 08/02 Q1020,0,5,0,10000,0,0,0,
2026-03-20 20:50:00,METAR EGLF 202050Z AUTO VRB02KT 9999 NCD 08/04 Q1020,0,2,0,10000,0,0,0,
2026-03-20 20:20:00,METAR EGLF 202020Z AUTO 09001KT 9999 NCD 08/04 Q1020,0,1,0,10000,0,0,0,
2026-03-20 19:50:00,METAR EGLF 201950Z AUTO 09003KT 9999 NCD 09/04 Q1020,0,3,0,10000,0,0,0,
2026-03-20 19:20:00,METAR EGLF 201920Z AUTO 10003KT 9999 NCD 09/05 Q1020,0,3,0,10000,0,0,0,
2026-03-20 18:50:00,METAR EGLF 201850Z AUTO 10005KT 9999 NCD 10/05 Q1020,0,5,0,10000,0,0,0,
2026-03-20 18:20:00,METAR EGLF 201820Z AUTO 09006KT 9999 NCD 11/05 Q1020,0,6,0,10000,0,0,0,
2026-03-20 17:50:00,METAR EGLF 201750Z AUTO 09007KT 9999 NCD 12/05 Q1020,0,7,0,10000,0,0,0,
2026-03-20 17:20:00,METAR EGLF 201720Z AUTO 06007KT 9999 NCD 13/05 Q1020,0,7,0,10000,0,0,0,
2026-03-20 16:50:00,METAR EGLF 201650Z AUTO 05009KT 9999 NCD 13/04 Q1020,0,9,0,10000,0,0,0,
2026-03-20 16:20:00,METAR EGLF 201620Z AUTO 05007KT 010V080 9999 NCD 14/03 Q1020,0,7,0,10000,0,0,0,
2026-03-20 15:50:00,METAR EGLF 201550Z AUTO 07007KT 040V100 9999 NCD 15/02 Q1020,0,7,0,10000,0,0,0,
2026-03-20 15:20:00,METAR EGLF 201520Z AUTO 06007KT 9999 NCD 15/02 Q1020,0,7,0,10000,0,0,0,
2026-03-20 14:50:00,METAR EGLF 201450Z AUTO 05007KT 010V110 9999 NCD 15/02 Q1020,0,7,0,10000,0,0,0,
2026-03-20 14:20:00,METAR EGLF 201420Z AUTO 05007KT 9999 NCD 14/02 Q1021,0,7,0,10000,0,0,0,
2026-03-20 13:50:00,METAR EGLF 201350Z 07007KT CAVOK 14/02 Q1021,1,0,0,9999,0,0,0,
2026-03-20 13:20:00,METAR EGLF 201320Z 05008KT 010V090 CAVOK 14/02 Q1021,1,0,0,9999,0,0,0,
2026-03-20 12:50:00,METAR EGLF 201250Z 05007KT 020V080 CAVOK 14/03 Q1021,1,0,0,9999,0,0,0,
2026-03-20 12:20:00,METAR EGLF 201220Z 05008KT CAVOK 13/02 Q1022,1,0,0,9999,0,0,0,
2026-03-20 11:50:00,METAR EGLF 201150Z 05005KT 010V100 CAVOK 12/04 Q1022,1,0,0,9999,0,0,0,
2026-03-20 11:20:00,METAR EGLF 201120Z 05007KT 020V080 CAVOK 12/04 Q1022,1,0,0,9999,0,0,0,
2026-03-20 10:50:00,METAR EGLF 201050Z 07008KT 030V100 CAVOK 12/04 Q1023,1,0,0,9999,0,0,0,
2026-03-20 10:20:00,METAR EGLF 201020Z 07004KT 020V110 CAVOK 10/04 Q1023,1,0,0,9999,0,0,0,
2026-03-20 09:50:00,METAR EGLF 200950Z VRB03KT 9000 NSC 10/04 Q1023,0,3,0,9000,0,0,0,
2026-03-20 09:20:00,METAR EGLF 200920Z VRB01KT 9000 NSC 08/03 Q1023,0,1,0,9000,0,0,0,
2026-03-20 08:50:00,METAR EGLF 200850Z VRB01KT 9000 NSC 06/03 Q1023,0,1,0,9000,0,0,0,
2026-03-20 08:20:00,METAR EGLF 200820Z 24001KT 8000 NSC 04/03 Q1023,0,1,0,8000,0,0,0,
2026-03-20 07:50:00,METAR EGLF 200750Z 26001KT 8000 NSC 02/01 Q1023,0,1,0,8000,0,0,0,
2026-03-20 07:20:00,METAR EGLF 200720Z 24002KT 7000 NSC 00/M00 Q1023,0,2,0,7000,0,0,0,
2026-03-20 06:50:00,METAR EGLF 200650Z 23003KT 6000 NSC M01/M02 Q1023,0,3,0,6000,0,0,0,
2026-03-20 06:20:00,METAR EGLF 200620Z AUTO 24002KT 4400 HZ NCD M01/M02 Q1023,0,2,0,4400,0,0,0,
2026-03-20 05:50:00,METAR EGLF 200550Z AUTO 25002KT 5000 BR NCD M01/M01 Q1023,0,2,0,5000,0,0,1,BR
2026-03-20 05:20:00,METAR EGLF 200520Z AUTO 24002KT 4300 HZ NCD M01/M02 Q1023,0,2,0,4300,0,0,0,
2026-03-20 04:50:00,METAR EGLF 200450Z AUTO 24003KT 4700 BR NCD M01/M02 Q1023,0,3,0,4700,0,0,1,BR
2026-03-20 04:20:00,METAR EGLF 200420Z AUTO 24004KT 6000 NCD M01/M02 Q1023,0,4,0,6000,0,0,0,
2026-03-20 03:50:00,METAR EGLF 200350Z AUTO 25003KT 5000 HZ NCD M00/M01 Q1023,0,3,0,5000,0,0,0,
2026-03-20 03:20:00,METAR EGLF 200320Z AUTO 24003KT 6000 NCD M01/M01 Q1023,0,3,0,6000,0,0,0,
2026-03-20 02:50:00,METAR EGLF 200250Z AUTO 25003KT 6000 NCD M00/M01 Q1023,0,3,0,6000,0,0,0,
2026-03-20 02:20:00,METAR EGLF 200220Z AUTO 24003KT 7000 NCD 00/M01 Q1023,0,3,0,7000,0,0,0,
2026-03-20 01:50:00,METAR EGLF 200150Z AUTO 24004KT 8000 NCD 00/M01 Q1023,0,4,0,8000,0,0,0,
2026-03-20 01:20:00,METAR EGLF 200120Z AUTO 22003KT 9999 NCD 00/M02 Q1024,0,3,0,10000,0,0,0,
2026-03-20 00:50:00,METAR EGLF 200050Z AUTO 24003KT 9999 NCD 01/M01 Q1024,0,3,0,10000,0,0,0,
2026-03-20 00:20:00,METAR EGLF 200020Z AUTO 24001KT 9999 NCD 02/M00 Q1024,0,1,0,10000,0,0,0,
2026-03-19 23:50:00,METAR EGLF 192350Z AUTO 22002KT 9999 NCD 01/M01 Q1024,0,2,0,10000,0,0,0,
2026-03-19 23:20:00,METAR EGLF 192320Z AUTO 23001KT 9999 NCD 03/00 Q1025,0,1,0,10000,0,0,0,
2026-03-19 22:50:00,METAR EGLF 192250Z AUTO 23002KT 9999 NCD 02/00 Q1025,0,2,0,10000,0,0,0,
2026-03-19 22:20:00,METAR EGLF 192220Z AUTO 24003KT 9999 NCD 03/00 Q1025,0,3,0,10000,0,0,0,
2026-03-19 21:50:00,METAR EGLF 192150Z AUTO 22002KT 9999 NCD 04/00 Q1025,0,2,0,10000,0,0,0,
2026-03-19 21:20:00,METAR EGLF 192120Z AUTO 20001KT 9999 NCD 04/01 Q1025,0,1,0,10000,0,0,0,
2026-03-19 20:50:00,METAR EGLF 192050Z AUTO 20001KT 9999 NCD 06/01 Q1025,0,1,0,10000,0,0,0,
2026-03-19 20:20:00,METAR EGLF 192020Z AUTO 12001KT 9999 NCD 07/01 Q1025,0,1,0,10000,0,0,0,
2026-03-19 19:50:00,METAR EGLF 191950Z AUTO 12001KT 9999 NCD 08/02 Q1024,0,1,0,10000,0,0,0,
2026-03-19 19:20:00,METAR EGLF 191920Z AUTO 13002KT 9999 NCD 09/01 Q1024,0,2,0,10000,0,0,0,
2026-03-19 18:50:00,METAR EGLF 191850Z AUTO 08005KT 9999 NCD 10/01 Q1025,0,5,0,10000,0,0,0,
2026-03-19 18:20:00,METAR EGLF 191820Z AUTO 09007KT 9999 NCD 13/01 Q1024,0,7,0,10000,0,0,0,
2026-03-19 17:50:00,METAR EGLF 191750Z AUTO 07009KT 9999 NCD 14/01 Q1024,0,9,0,10000,0,0,0,
2026-03-19 17:20:00,METAR EGLF 191720Z AUTO 06011KT 9999 NCD 15/02 Q1024,0,11,0,10000,0,0,0,
2026-03-19 16:50:00,METAR EGLF 191650Z AUTO 06010KT 9999 NCD 15/02 Q1024,0,10,0,10000,0,0,0,
2026-03-19 16:20:00,METAR EGLF 191620Z AUTO 05010KT 020V080 9999 NCD 16/03 Q1024,0,10,0,10000,0,0,0,
2026-03-19 15:50:00,METAR EGLF 191550Z AUTO 05009KT 010V070 9999 NCD 17/03 Q1024,0,9,0,10000,0,0,0,
2026-03-19 15:20:00,METAR EGLF 191520Z AUTO 05006KT 010V090 9999 NCD 17/03 Q1024,0,6,0,10000,0,0,0,
2026-03-19 14:50:00,METAR EGLF 191450Z AUTO 06006KT 010V110 9999 NCD 17/03 Q1024,0,6,0,10000,0,0,0,
2026-03-19 14:20:00,METAR EGLF 191420Z AUTO 08009KT 040V130 9999 NCD 17/03 Q1025,0,9,0,10000,0,0,0,
2026-03-19 13:50:00,METAR EGLF 191350Z AUTO 07008KT 030V100 9999 NCD 17/03 Q1025,0,8,0,10000,0,0,0,
2026-03-19 13:20:00,METAR EGLF 191320Z AUTO 06008KT 040V110 9999 NCD 17/03 Q1025,0,8,0,10000,0,0,0,
2026-03-19 12:50:00,METAR EGLF 191250Z 08009KT 050V110 CAVOK 17/04 Q1025,1,0,0,9999,0,0,0,
2026-03-19 12:20:00,METAR EGLF 191220Z AUTO 07010KT 040V100 9999 NCD 16/04 Q1026,0,10,0,10000,0,0,0,
2026-03-19 11:50:00,METAR EGLF 191150Z AUTO 07009KT 040V100 9999 NCD 15/04 Q1026,0,9,0,10000,0,0,0,
2026-03-19 11:20:00,METAR EGLF 191120Z AUTO 08011KT 050V120 9999 NCD 15/04 Q1026,0,11,0,10000,0,0,0,
2026-03-19 10:50:00,METAR EGLF 191050Z AUTO 07010KT 9999 NCD 14/04 Q1026,0,10,0,10000,0,0,0,
2026-03-19 10:20:00,METAR EGLF 191020Z 09008KT 060V120 CAVOK 14/05 Q1026,1,0,0,9999,0,0,0,
2026-03-19 09:50:00,METAR EGLF 190950Z AUTO 07008KT 9999 NCD 12/04 Q1027,0,8,0,10000,0,0,0,
2026-03-19 09:20:00,METAR EGLF 190920Z AUTO 08007KT 9999 NCD 11/05 Q1027,0,7,0,10000,0,0,0,
2026-03-19 08:50:00,METAR EGLF 190850Z 08007KT CAVOK 09/05 Q1027,1,0,0,9999,0,0,0,
2026-03-19 08:20:00,METAR EGLF 190820Z 08007KT CAVOK 08/05 Q1027,1,0,0,9999,0,0,0,
2026-03-19 07:50:00,METAR EGLF 190750Z 22001KT CAVOK 04/04 Q1027,1,0,0,9999,0,0,0,
2026-03-19 07:20:00,METAR EGLF 190720Z VRB02KT 9000 NSC 01/01 Q1027,0,2,0,9000,0,0,0,
2026-03-19 06:50:00,METAR EGLF 190650Z VRB02KT 9000 BCFG NSC M00/M01 Q1026,0,2,0,9000,0,0,1,"BC,FG"
2026-03-19 06:20:00,METAR EGLF 190620Z AUTO 23003KT 6000 NCD M01/M02 Q1026,0,3,0,6000,0,0,0,
2026-03-19 05:50:00,METAR EGLF 190550Z AUTO 24002KT 4900 BR NCD M01/M01 Q1025,0,2,0,4900,0,0,1,BR
2026-03-19 05:20:00,METAR EGLF 190520Z AUTO 24003KT 7000 NCD M01/M02 Q1025,0,3,0,7000,0,0,0,
2026-03-19 04:50:00,METAR EGLF 190450Z AUTO 24003KT 7000 NCD M00/M01 Q1025,0,3,0,7000,0,0,0,
2026-03-19 04:20:00,METAR EGLF 190420Z AUTO 23004KT 7000 NCD 00/M00 Q1025,0,4,0,7000,0,0,0,
2026-03-19 03:50:00,METAR EGLF 190350Z AUTO 29001KT 7000 NCD M00/M01 Q1025,0,1,0,7000,0,0,0,
2026-03-19 03:20:00,METAR EGLF 190320Z AUTO 23002KT 9999 NCD 00/M01 Q1025,0,2,0,10000,0,0,0,
2026-03-19 02:50:00,METAR EGLF 190250Z AUTO VRB02KT 7000 NCD 00/M01 Q1025,0,2,0,7000,0,0,0,
2026-03-19 02:20:00,METAR EGLF 190220Z AUTO VRB02KT 9999 NCD 01/00 Q1025,0,2,0,10000,0,0,0,
2026-03-19 01:50:00,METAR EGLF 190150Z AUTO 20001KT 9999 NCD 01/M00 Q1025,0,1,0,10000,0,0,0,
2026-03-19 01:20:00,METAR EGLF 190120Z AUTO VRB01KT 9999 NCD 02/01 Q1025,0,1,0,10000,0,0,0,
2026-03-19 00:50:00,METAR EGLF 190050Z AUTO 27003KT 240V310 9999 NCD 01/00 Q1025,0,3,0,10000,0,0,0,
2026-03-19 00:20:00,METAR EGLF 190020Z AUTO 24002KT 9999 NCD 02/01 Q1025,0,2,0,10000,0,0,0,
2026-03-18 23:50:00,METAR EGLF 182350Z AUTO VRB02KT 9999 NCD 03/01 Q1025,0,2,0,10000,0,0,0,
2026-03-18 23:20:00,METAR EGLF 182320Z AUTO VRB02KT 9999 NCD 04/01 Q1024,0,2,0,10000,0,0,0,
2026-03-18 22:50:00,METAR EGLF 182250Z AUTO VRB02KT 9999 NCD 06/02 Q1024,0,2,0,10000,0,0,0,
2026-03-18 22:20:00,METAR EGLF 182220Z AUTO VRB02KT 9999 NCD 06/02 Q1024,0,2,0,10000,0,0,0,
2026-03-18 21:50:00,METAR EGLF 182150Z AUTO 07004KT 9999 NCD 07/02 Q1024,0,4,0,10000,0,0,0,
2026-03-18 21:20:00,METAR EGLF 182120Z AUTO 08006KT 9999 NCD 08/02 Q1024,0,6,0,10000,0,0,0,
2026-03-18 20:50:00,METAR EGLF 182050Z AUTO 08007KT 9999 NCD 09/03 Q1024,0,7,0,10000,0,0,0,
2026-03-18 20:20:00,METAR EGLF 182020Z 08005KT CAVOK 10/03 Q1023,1,0,0,9999,0,0,0,
2026-03-18 19:50:00,METAR EGLF 181950Z AUTO 09005KT 9999 NCD 10/04 Q1023,0,5,0,10000,0,0,0,
2026-03-18 19:20:00,METAR EGLF 181920Z AUTO 08006KT 9999 NCD 11/04 Q1023,0,6,0,10000,0,0,0,
2026-03-18 18:50:00,METAR EGLF 181850Z 08009KT CAVOK 12/05 Q1022,1,0,0,9999,0,0,0,
2026-03-18 18:20:00,METAR EGLF 181820Z AUTO 08006KT 9999 NCD 13/00 Q1022,0,6,0,10000,0,0,0,
2026-03-18 17:50:00,METAR EGLF 181750Z AUTO 10007KT 9999 NCD 15/00 Q1021,0,7,0,10000,0,0,0,
2026-03-18 17:20:00,METAR EGLF 181720Z AUTO 09013KT 9999 NCD 16/M00 Q1021,0,13,0,10000,0,0,0,
2026-03-18 16:50:00,METAR EGLF 181650Z AUTO 10010KT 9999 NCD 17/04 Q1021,0,10,0,10000,0,0,0,
2026-03-18 16:20:00,METAR EGLF 181620Z AUTO 08012KT 9999 NCD 18/05 Q1020,0,12,0,10000,0,0,0,
2026-03-18 15:50:00,METAR EGLF 181550Z AUTO 08013KT 9999 NCD 18/04 Q1020,0,13,0,10000,0,0,0,
2026-03-18 15:20:00,METAR EGLF 181520Z AUTO 11006KT 090V150 9999 NCD 18/05 Q1020,0,6,0,10000,0,0,0,
2026-03-18 14:50:00,METAR EGLF 181450Z AUTO 13008KT 9999 NCD 18/05 Q1020,0,8,0,10000,0,0,0,
2026-03-18 14:20:00,METAR EGLF 181420Z AUTO 12007KT 050V180 9999 NCD 18/05 Q1020,0,7,0,10000,0,0,0,
2026-03-18 13:50:00,METAR EGLF 181350Z AUTO 13011KT 080V170 9999 NCD 18/05 Q1020,0,11,0,10000,0,0,0,
2026-03-18 13:20:00,METAR EGLF 181320Z AUTO 15009KT 9999 NCD 18/06 Q1020,0,9,0,10000,0,0,0,
2026-03-18 12:50:00,METAR EGLF 181250Z AUTO 12008KT 080V170 9999 NCD 17/07 Q1020,0,8,0,10000,0,0,0,
2026-03-18 12:20:00,METAR EGLF 181220Z AUTO 14009KT 110V180 9999 NCD 17/07 Q1020,0,9,0,10000,0,0,0,
2026-03-18 11:50:00,METAR EGLF 181150Z AUTO 15011KT 120V180 9999 NCD 17/07 Q1021,0,11,0,10000,0,0,0,
2026-03-18 11:20:00,METAR EGLF 181120Z AUTO 12010KT 9999 NCD 16/07 Q1020,0,10,0,10000,0,0,0,
2026-03-18 10:50:00,METAR EGLF 181050Z AUTO 13012KT 110V170 9999 NCD 16/07 Q1020,0,12,0,10000,0,0,0,
2026-03-18 10:20:00,METAR EGLF 181020Z AUTO 13009KT 100V170 9999 NCD 15/07 Q1020,0,9,0,10000,0,0,0,
2026-03-18 09:50:00,METAR EGLF 180950Z AUTO 13008KT 9999 NCD 14/08 Q1020,0,8,0,10000,0,0,0,
2026-03-18 09:20:00,METAR EGLF 180920Z AUTO 13009KT 100V160 9999 NCD 13/08 Q1020,0,9,0,10000,0,0,0,
2026-03-18 08:50:00,METAR EGLF 180850Z AUTO 13008KT 9999 NCD 12/08 Q1020,0,8,0,10000,0,0,0,
2026-03-18 08:20:00,METAR EGLF 180820Z AUTO 12007KT 100V160 9999 NCD 11/07 Q1020,0,7,0,10000,0,0,0,
2026-03-18 07:50:00,METAR EGLF 180750Z AUTO 12006KT 090V160 9999 NCD 10/07 Q1019,0,6,0,10000,0,0,0,
2026-03-18 07:20:00,METAR EGLF 180720Z AUTO 13004KT 9999 NCD 08/07 Q1019,0,4,0,10000,0,0,0,
2026-03-18 06:50:00,METAR EGLF 180650Z VRB02KT CAVOK 04/04 Q1019,1,0,0,9999,0,0,0,
2026-03-18 06:20:00,METAR EGLF 180620Z AUTO 11003KT 9999 NCD 02/01 Q1018,0,3,0,10000,0,0,0,
2026-03-18 05:50:00,METAR EGLF 180550Z AUTO 10002KT 9999 NCD 03/03 Q1018,0,2,0,10000,0,0,0,
2026-03-18 05:20:00,METAR EGLF 180520Z AUTO VRB01KT 9999 NCD 03/03 Q1017,0,1,0,10000,0,0,0,
2026-03-18 04:50:00,METAR EGLF 180450Z AUTO 23002KT 2200 BR NCD 03/03 Q1017,0,2,0,2200,0,0,1,BR
2026-03-18 04:20:00,METAR EGLF 180420Z AUTO 11003KT 9999 NCD 05/05 Q1017,0,3,0,10000,0,0,0,
2026-03-18 03:50:00,METAR EGLF 180350Z AUTO 06005KT 9999 NCD 06/05 Q1016,0,5,0,10000,0,0,0,
2026-03-18 03:20:00,METAR EGLF 180320Z AUTO 04004KT 010V070 9999 NCD 07/06 Q1016,0,4,0,10000,0,0,0,
2026-03-18 02:50:00,METAR EGLF 180250Z AUTO VRB02KT 9999 NCD 07/06 Q1016,0,2,0,10000,0,0,0,
2026-03-18 02:20:00,METAR EGLF 180220Z AUTO 17003KT 120V190 9999 NCD 08/06 Q1016,0,3,0,10000,0,0,0,
2026-03-18 01:50:00,METAR EGLF 180150Z AUTO 17004KT 9999 NCD 09/07 Q1016,0,4,0,10000,0,0,0,
2026-03-18 01:20:00,METAR EGLF 180120Z AUTO 16005KT 9999 NCD 09/07 Q1015,0,5,0,10000,0,0,0,
2026-03-18 00:50:00,METAR EGLF 180050Z AUTO 17006KT 9999 NCD 09/07 Q1015,0,6,0,10000,0,0,0,
2026-03-18 00:20:00,METAR EGLF 180020Z AUTO 16005KT 9999 NCD 09/07 Q1015,0,5,0,10000,0,0,0,
2026-03-17 23:50:00,METAR EGLF 172350Z AUTO 15003KT 120V210 9999 NCD 09/07 Q1015,0,3,0,10000,0,0,0,
2026-03-17 23:20:00,METAR EGLF 172320Z AUTO 15003KT 120V180 9999 NCD 09/06 Q1015,0,3,0,10000,0,0,0,
2026-03-17 22:50:00,METAR EGLF 172250Z AUTO 11003KT 070V140 9999 NCD 07/05 Q1015,0,3,0,10000,0,0,0,
2026-03-17 22:20:00,METAR EGLF 172220Z AUTO 12003KT 9999 NCD 08/06 Q1015,0,3,0,10000,0,0,0,
2026-03-17 21:50:00,METAR EGLF 172150Z AUTO 14003KT 9999 NCD 09/06 Q1015,0,3,0,10000,0,0,0,
2026-03-17 21:20:00,METAR EGLF 172120Z AUTO 14004KT 9999 NCD 09/06 Q1015,0,4,0,10000,0,0,0,
2026-03-17 20:50:00,METAR EGLF 172050Z AUTO 13004KT 110V170 9999 NCD 09/06 Q1015,0,4,0,10000,0,0,0,
2026-03-17 20:20:00,METAR EGLF 172020Z AUTO 14005KT 9999 NCD 09/06 Q1015,0,5,0,10000,0,0,0,
2026-03-17 19:50:00,METAR EGLF 171950Z AUTO 13006KT 9999 NCD 10/06 Q1015,0,6,0,10000,0,0,0,
2026-03-17 19:20:00,METAR EGLF 171920Z AUTO 13004KT 9999 NCD 10/06 Q1015,0,4,0,10000,0,0,0,
2026-03-17 18:50:00,METAR EGLF 171850Z 14004KT 110V180 CAVOK 11/06 Q1015,1,0,0,9999,0,0,0,
2026-03-17 18:20:00,METAR EGLF 171820Z AUTO 11003KT 040V170 9999 NCD 11/06 Q1014,0,3,0,10000,0,0,0,
2026-03-17 17:50:00,METAR EGLF 171750Z AUTO 17005KT 090V210 9999 NCD 12/06 Q1014,0,5,0,10000,0,0,0,
2026-03-17 17:20:00,METAR EGLF 171720Z AUTO 17006KT 130V220 9999 NCD 13/06 Q1014,0,6,0,10000,0,0,0,
2026-03-17 16:50:00,METAR EGLF 171650Z AUTO 18011KT 150V210 9999 NCD 13/06 Q1014,0,11,0,10000,0,0,0,
2026-03-17 16:20:00,METAR EGLF 171620Z AUTO 18011KT 150V210 9999 NCD 13/06 Q1014,0,11,0,10000,0,0,0,
2026-03-17 15:50:00,METAR EGLF 171550Z 18013KT 140V210 CAVOK 14/06 Q1014,1,0,0,9999,0,0,0,
2026-03-17 14:50:00,METAR EGLF 171450Z AUTO 16011KT 130V200 9999 NCD 14/06 Q1014,0,11,0,10000,0,0,0,
2026-03-17 14:20:00,METAR EGLF 171420Z AUTO 19012KT 160V230 9999 NCD 14/06 Q1014,0,12,0,10000,0,0,0,
2026-03-17 13:50:00,METAR EGLF 171350Z AUTO 18010KT 140V220 9999 NCD 14/07 Q1015,0,10,0,10000,0,0,0,
2026-03-17 13:20:00,METAR EGLF 171320Z AUTO 19009KT 150V230 9999 FEW022/// 14/08 Q1015,0,9,0,10000,0,0,0,
2026-03-17 12:50:00,METAR EGLF 171250Z 21011KT 9999 FEW021 13/07 Q1015,0,11,0,10000,0,0,0,
2026-03-17 12:20:00,METAR EGLF 171220Z AUTO 20010KT 160V220 9999 FEW020/// 13/08 Q1015,0,10,0,10000,0,0,0,
2026-03-17 11:50:00,METAR EGLF 171150Z 20011KT 140V230 9999 SCT018 13/08 Q1015,0,11,0,10000,0,0,0,
2026-03-17 11:20:00,METAR EGLF 171120Z 19013KT 9999 BKN016 11/07 Q1016,0,13,0,10000,0,0,0,
2026-03-17 10:50:00,METAR EGLF 171050Z 19010KT 160V220 9999 BKN016 11/07 Q1016,0,10,0,10000,0,0,0,
2026-03-17 10:20:00,METAR EGLF 171020Z 20011KT 170V240 9999 BKN016 11/07 Q1016,0,11,0,10000,0,0,0,
2026-03-17 09:50:00,METAR EGLF 170950Z 20011KT 170V230 9999 BKN014 10/07 Q1016,0,11,0,10000,0,0,0,
2026-03-17 09:20:00,METAR EGLF 170920Z 20010KT 9999 BKN013 10/07 Q1016,0,10,0,10000,0,0,0,
2026-03-17 08:50:00,METAR EGLF 170850Z 20009KT 9999 BKN011 09/07 Q1016,0,9,0,10000,0,0,0,
2026-03-17 08:20:00,METAR EGLF 170820Z 20010KT 170V230 9999 BKN009 09/07 Q1016,0,10,0,10000,0,0,0,
2026-03-17 07:50:00,METAR EGLF 170750Z 20010KT 170V230 9999 BKN009 09/07 Q1016,0,10,0,10000,0,0,0,
2026-03-17 07:20:00,METAR EGLF 170720Z 21008KT 9999 BKN009 09/07 Q1016,0,8,0,10000,0,0,0,
2026-03-17 06:50:00,METAR EGLF 170650Z 20009KT 9999 BKN009 09/07 Q1016,0,9,0,10000,0,0,0,
2026-03-17 06:20:00,METAR EGLF 170620Z AUTO 21008KT 170V240 9999 OVC009/// 09/07 Q1015,0,8,0,10000,0,0,0,
2026-03-17 05:50:00,METAR EGLF 170550Z AUTO 21009KT 9999 OVC010/// 09/08 Q1015,0,9,0,10000,0,0,0,
2026-03-17 05:20:00,METAR EGLF 170520Z AUTO 21008KT 180V240 9999 OVC010/// 09/08 Q1015,0,8,0,10000,0,0,0,
2026-03-17 04:50:00,METAR EGLF 170450Z AUTO 21009KT 180V240 9999 OVC010/// 09/08 Q1015,0,9,0,10000,0,0,0,
2026-03-17 04:20:00,METAR EGLF 170420Z AUTO 21009KT 160V240 9999 OVC010/// 09/08 Q1015,0,9,0,10000,0,0,0,
2026-03-17 03:50:00,METAR EGLF 170350Z AUTO 21009KT 9999 BKN010/// OVC016/// 09/08 Q1015,0,9,0,10000,0,0,0,
2026-03-17 03:20:00,METAR EGLF 170320Z AUTO 21010KT 9999 SCT012/// BKN016/// 09/08 Q1016,0,10,0,10000,0,0,0,
2026-03-17 02:50:00,METAR EGLF 170250Z AUTO 21009KT 9999 FEW009/// BKN019/// 09/08 Q1016,0,9,0,10000,0,0,0,
2026-03-17 02:20:00,METAR EGLF 170220Z AUTO 21009KT 9999 SCT008/// BKN016/// BKN024/// 09/08 Q1016 REDZ,0,9,0,10000,0,0,0,DZ
2026-03-17 01:50:00,METAR EGLF 170150Z AUTO 22010KT 9999 FEW013/// BKN017/// BKN028/// 09/08 Q1016,0,10,0,10000,0,0,0,
2026-03-17 01:20:00,METAR EGLF 170120Z AUTO 22012KT 9999 FEW010/// BKN014/// 09/08 Q1016 REDZ,0,12,0,10000,0,0,0,DZ
2026-03-17 00:50:00,METAR EGLF 170050Z AUTO 22012KT 7000 DZ OVC012/// 09/08 Q1016,0,12,0,7000,0,0,0,DZ
2026-03-17 00:20:00,METAR EGLF 170020Z AUTO 21009KT 8000 OVC012/// 10/08 Q1016,0,9,0,8000,0,0,0,
2026-03-16 23:50:00,METAR EGLF 162350Z AUTO 21010KT 7000 -DZ OVC012/// 10/08 Q1017,0,10,0,7000,0,0,0,DZ
2026-03-16 23:20:00,METAR EGLF 162320Z AUTO 23011KT 9999 OVC012/// 10/08 Q1017,0,11,0,10000,0,0,0,
2026-03-16 22:50:00,METAR EGLF 162250Z AUTO 22012KT 190V250 9999 OVC012/// 10/08 Q1017,0,12,0,10000,0,0,0,
2026-03-16 22:20:00,METAR EGLF 162220Z AUTO 22010KT 9999 OVC012/// 10/08 Q1017,0,10,0,10000,0,0,0,
2026-03-16 21:50:00,METAR EGLF 162150Z AUTO 22011KT 190V250 9999 OVC012/// 10/08 Q1017,0,11,0,10000,0,0,0,
2026-03-16 21:20:00,METAR EGLF 162120Z AUTO 22010KT 9999 OVC011/// 10/08 Q1017,0,10,0,10000,0,0,0,
2026-03-16 20:50:00,METAR EGLF 162050Z 22010KT 190V260 9999 BKN016 10/08 Q1017,0,10,0,10000,0,0,0,
2026-03-16 20:20:00,METAR EGLF 162020Z 23008KT 160V280 9999 BKN016 10/08 Q1017,0,8,0,10000,0,0,0,
2026-03-16 19:50:00,METAR EGLF 161950Z 23012KT 9999 BKN018 10/07 Q1016,0,12,0,10000,0,0,0,
2026-03-16 19:20:00,METAR EGLF 161920Z AUTO 24013KT 9999 OVC022/// 10/07 Q1016,0,13,0,10000,0,0,0,
2026-03-16 18:50:00,METAR EGLF 161850Z AUTO 23014KT 9999 FEW022/// 10/07 Q1016,0,14,0,10000,0,0,0,
2026-03-16 18:20:00,METAR EGLF 161820Z AUTO 23011KT 9999 FEW027/// BKN036/// BKN042/// 11/07 Q1016,0,11,0,10000,0,0,0,
2026-03-16 17:50:00,METAR EGLF 161750Z AUTO 23010KT 9999 SCT035/// 11/07 Q1017,0,10,0,10000,0,0,0,
2026-03-16 17:20:00,METAR EGLF 161720Z AUTO 21010KT 9999 BKN034/// 11/07 Q1016,0,10,0,10000,0,0,0,
2026-03-16 16:50:00,METAR EGLF 161650Z AUTO 23012KT 9999 BKN035/// 12/07 Q1016,0,12,0,10000,0,0,0,
2026-03-16 16:20:00,METAR EGLF 161620Z AUTO 24010KT 9999 FEW044/// 11/06 Q1016,0,10,0,10000,0,0,0,
2026-03-16 15:50:00,METAR EGLF 161550Z AUTO 24013KT 9999 FEW027/// BKN037/// 12/07 Q1016,0,13,0,10000,0,0,0,
2026-03-16 15:20:00,METAR EGLF 161520Z AUTO 25013KT 220V290 9999 BKN027/// BKN041/// 12/06 Q1016,0,13,0,10000,0,0,0,
2026-03-16 14:50:00,METAR EGLF 161450Z AUTO 26012KT 9999 SCT028/// BKN032/// 12/06 Q1017,0,12,0,10000,0,0,0,
2026-03-16 14:20:00,METAR EGLF 161420Z 25011KT 220V290 9999 SCT026 BKN035 11/06 Q1016,0,11,0,10000,0,0,0,
2026-03-16 13:50:00,METAR EGLF 161350Z 25011KT 220V290 9999 SCT026 SCT032 11/06 Q1016,0,11,0,10000,0,0,0,
2026-03-16 13:20:00,METAR EGLF 161320Z 25013KT 9999 SCT029 11/06 Q1016,0,13,0,10000,0,0,0,
2026-03-16 12:50:00,METAR EGLF 161250Z 25013KT 220V280 9999 SCT029 11/06 Q1017,0,13,0,10000,0,0,0,
2026-03-16 12:20:00,METAR EGLF 161220Z 25011KT 220V280 9999 FEW024 11/06 Q1017,0,11,0,10000,0,0,0,
2026-03-16 11:50:00,METAR EGLF 161150Z 25012KT 9999 FEW022 10/06 Q1017,0,12,0,10000,0,0,0,
2026-03-16 11:20:00,METAR EGLF 161120Z 23013KT 9999 FEW022 10/06 Q1016,0,13,0,10000,0,0,0,
2026-03-16 10:50:00,METAR EGLF 161050Z 23011KT 9999 FEW022 SCT036 09/07 Q1016,0,11,0,10000,0,0,0,
2026-03-16 10:20:00,METAR EGLF 161020Z 25007KT 5000 -RA SCT018 BKN022 08/06 Q1017,0,7,0,5000,0,0,0,-RA
2026-03-16 09:50:00,METAR EGLF 160950Z 24011KT 9999 FEW038 08/05 Q1016,0,11,0,10000,0,0,0,
2026-03-16 09:20:00,METAR EGLF 160920Z 23012KT CAVOK 08/05 Q1016,1,0,0,9999,0,0,0,
2026-03-16 08:50:00,METAR EGLF 160850Z 23010KT 9999 FEW044 07/05 Q1016,0,10,0,10000,0,0,0,
2026-03-16 08:20:00,METAR EGLF 160820Z 22010KT CAVOK 07/04 Q1016,1,0,0,9999,0,0,0,
2026-03-16 07:50:00,METAR EGLF 160750Z 23010KT CAVOK 06/04 Q1015,1,0,0,9999,0,0,0,
2026-03-16 07:20:00,METAR EGLF 160720Z 22009KT CAVOK 06/04 Q1015,1,0,0,9999,0,0,0,
2026-03-16 06:50:00,METAR EGLF 160650Z 22009KT 9999 FEW043 06/04 Q1015,0,9,0,10000,0,0,0,
2026-03-16 06:20:00,METAR EGLF 160620Z AUTO 23009KT 9999 FEW043/// 06/04 Q1015,0,9,0,10000,0,0,0,
2026-03-16 05:50:00,METAR EGLF 160550Z AUTO 21008KT 9999 NCD 05/04 Q1015,0,8,0,10000,0,0,0,
2026-03-16 05:20:00,METAR EGLF 160520Z AUTO 21008KT 9999 NCD 05/04 Q1014,0,8,0,10000,0,0,0,
2026-03-16 04:50:00,METAR EGLF 160450Z AUTO 24009KT 9999 FEW032/// 05/04 Q1014,0,9,0,10000,0,0,0,
2026-03-16 04:20:00,METAR EGLF 160420Z AUTO 24009KT 9999 NCD 04/03 Q1014,0,9,0,10000,0,0,0,
2026-03-16 03:50:00,METAR EGLF 160350Z AUTO 24007KT 9999 NCD 04/02 Q1013,0,7,0,10000,0,0,0,
2026-03-16 03:20:00,METAR EGLF 160320Z AUTO 23007KT 9999 FEW038/// 03/02 Q1013,0,7,0,10000,0,0,0,
2026-03-16 02:50:00,METAR EGLF 160250Z AUTO 25005KT 9999 FEW037/// BKN046/// 05/03 Q1013,0,5,0,10000,0,0,0,
2026-03-16 02:20:00,METAR EGLF 160220Z AUTO 25007KT 9999 NCD 05/03 Q1012,0,7,0,10000,0,0,0,
2026-03-16 01:50:00,METAR EGLF 160150Z AUTO 24009KT 9999 NCD 04/03 Q1012,0,9,0,10000,0,0,0,
2026-03-16 01:20:00,METAR EGLF 160120Z AUTO 25005KT 9999 NCD 05/03 Q1013,0,5,0,10000,0,0,0,
2026-03-16 00:50:00,METAR EGLF 160050Z AUTO 26009KT 230V290 9999 FEW027/// 06/04 Q1012 RERA,0,9,0,10000,0,0,0,RA
2026-03-16 00:20:00,METAR EGLF 160020Z AUTO 25007KT 9999 FEW026/// SCT043/// 06/04 Q1013,0,7,0,10000,0,0,0,
2026-03-15 23:50:00,METAR EGLF 152350Z AUTO 25008KT 9999 FEW034/// 06/04 Q1012,0,8,0,10000,0,0,0,
2026-03-15 23:20:00,METAR EGLF 152320Z AUTO 25009KT 9999 FEW018/// 06/04 Q1012 REDZ RERA,0,9,0,10000,0,0,0,"DZ,RA"
2026-03-15 22:50:00,METAR EGLF 152250Z AUTO 25006KT 7000 -RA SCT024/// BKN035/// BKN042/// 07/04 Q1012 REDZ,0,6,0,7000,0,0,0,"-RA,DZ"
2026-03-15 22:20:00,METAR EGLF 152220Z AUTO 25008KT 9999 -DZ FEW043/// 06/04 Q1011,0,8,0,10000,0,0,0,DZ
2026-03-15 21:50:00,METAR EGLF 152150Z AUTO 25007KT 9999 FEW027/// 07/04 Q1011,0,7,0,10000,0,0,0,
2026-03-15 21:20:00,METAR EGLF 152120Z AUTO 26009KT 9999 SCT029/// BKN042/// 07/05 Q1011,0,9,0,10000,0,0,0,
2026-03-15 20:50:00,METAR EGLF 152050Z AUTO 25010KT 9999 SCT042/// 07/04 Q1011,0,10,0,10000,0,0,0,
2026-03-15 20:20:00,METAR EGLF 152020Z AUTO 25011KT 9999 NCD 07/05 Q1010,0,11,0,10000,0,0,0,
2026-03-15 19:50:00,METAR EGLF 151950Z AUTO 25010KT 9999 NCD 08/05 Q1010,0,10,0,10000,0,0,0,
2026-03-15 19:20:00,METAR EGLF 151920Z AUTO 26012KT 9999 FEW024/// 08/05 Q1010,0,12,0,10000,0,0,0,
2026-03-15 18:50:00,METAR EGLF 151850Z 26011KT 9999 FEW029 08/05 Q1009,0,11,0,10000,0,0,0,
2026-03-15 18:20:00,METAR EGLF 151820Z 26010KT 9999 SCT025 08/06 Q1009,0,10,0,10000,0,0,0,
2026-03-15 17:50:00,METAR EGLF 151750Z 25009KT 9999 SCT027 08/07 Q1008,0,9,0,10000,0,0,0,
2026-03-15 17:20:00,METAR EGLF 151720Z 26015KT 9999 -RA FEW009 BKN039CB 09/07 Q1008,0,15,0,10000,0,0,0,-RA
2026-03-15 16:50:00,METAR EGLF 151650Z 21015KT 4800 -RA SCT008 BKN016CB 09/08 Q1007,0,15,0,4800,0,0,0,-RA
2026-03-15 16:20:00,METAR EGLF 151620Z 21013KT 2500 -RADZ FEW007 BKN015 09/08 Q1007,0,13,0,2500,0,0,0,"-RA,DZ"
2026-03-15 15:50:00,METAR EGLF 151550Z 21014KT 4000 -RADZ HZ FEW011 BKN016 BKN030 09/08 Q1008,0,14,0,4000,0,0,0,"-RA,DZ"
2026-03-15 15:20:00,METAR EGLF 151520Z COR 21018KT 170V240 7000 -RA SCT018 BKN025 10/07 Q1008,0,18,0,7000,0,0,0,-RA
2026-03-15 14:50:00,METAR EGLF 151450Z 21016KT 9999 SCT021 BKN035 11/06 Q1009,0,16,0,10000,0,0,0,
2026-03-15 14:20:00,METAR EGLF 151420Z 21018KT 9999 BKN021 10/06 Q1010,0,18,0,10000,0,0,0,
2026-03-15 13:50:00,METAR EGLF 151350Z 21019G32KT 190V250 9999 BKN023 11/05 Q1010,0,19,1,10000,0,0,0,
2026-03-15 13:20:00,METAR EGLF 151320Z 21019KT 9999 BKN027 11/05 Q1010,0,19,0,10000,0,0,0,
2026-03-15 12:50:00,METAR EGLF 151250Z 22019G29KT 180V240 9999 BKN030 12/05 Q1011,0,19,1,10000,0,0,0,
2026-03-15 12:20:00,METAR EGLF 151220Z 22018KT 9999 SCT030 11/04 Q1011,0,18,0,10000,0,0,0,
2026-03-15 11:50:00,METAR EGLF 151150Z 22014G24KT 180V240 9999 SCT032 12/04 Q1011,0,14,1,10000,0,0,0,
2026-03-15 11:20:00,METAR EGLF 151120Z 22017KT 9999 SCT032 12/04 Q1012,0,17,0,10000,0,0,0,
2026-03-15 10:50:00,METAR EGLF 151050Z 23014KT 9999 FEW030 11/04 Q1012,0,14,0,10000,0,0,0,
2026-03-15 10:20:00,METAR EGLF 151020Z 22014KT 9999 FEW020 SCT023 09/05 Q1013,0,14,0,10000,0,0,0,
2026-03-15 09:50:00,METAR EGLF 150950Z 21015G25KT 9999 SCT020 10/05 Q1013,0,15,1,10000,0,0,0,
2026-03-15 09:20:00,METAR EGLF 150920Z 20009G19KT 170V240 9999 FEW019 08/05 Q1013,0,9,1,10000,0,0,0,
2026-03-15 08:50:00,METAR EGLF 150850Z 19009KT 170V230 CAVOK 07/04 Q1013,1,0,0,9999,0,0,0,
2026-03-15 08:20:00,METAR EGLF 150820Z 19009KT CAVOK 07/03 Q1013,1,0,0,9999,0,0,0,
