Time_recorded,METAR,is_cavok,wind_speed,is_gust,visibility_meters,has_thunderstorm,has_heavy_rain,has_low_vis_fog,other_phenomenon
2026-05-02 15:30:00,METAR LEIB 021530Z 12011KT 090V150 9999 FEW008 BKN013 19/17 Q1018 NOSIG,0,11,0,10000,0,0,0,
2026-05-02 15:00:00,METAR LEIB 021500Z 10007KT 070V140 9999 -DZ SCT010 BKN013 19/17 Q1019 NOSIG,0,7,0,10000,0,0,0,DZ
2026-05-02 14:30:00,METAR LEIB 021430Z 09010KT 040V120 9999 FEW010 SCT013 BKN016 19/17 Q1019 NOSIG,0,10,0,10000,0,0,0,
2026-05-02 14:00:00,METAR LEIB 021400Z 08009KT 050V110 9999 FEW010 SCT013 BKN016 19/16 Q1020 NOSIG,0,9,0,10000,0,0,0,
2026-05-02 13:30:00,METAR LEIB 021330Z 10010KT 060V130 9999 FEW012 BKN019 19/16 Q1020 NOSIG,0,10,0,10000,0,0,0,
2026-05-02 13:00:00,METAR LEIB 021300Z 10010KT 070V140 9999 FEW012 BKN019 19/16 Q1020 NOSIG,0,10,0,10000,0,0,0,
2026-05-02 12:30:00,METAR LEIB 021230Z 10011KT 070V140 9999 SCT014 BKN019 20/16 Q1020 NOSIG,0,11,0,10000,0,0,0,
2026-05-02 12:00:00,METAR LEIB 021200Z 10010KT 070V150 9999 SCT014 BKN019 20/15 Q1020 NOSIG,0,10,0,10000,0,0,0,
2026-05-02 11:30:00,METAR LEIB 021130Z 12009KT 060V150 9999 BKN014 21/15 Q1021 NOSIG,0,9,0,10000,0,0,0,
2026-05-02 11:00:00,METAR LEIB 021100Z 11010KT 080V150 9999 BKN014 21/16 Q1021 NOSIG,0,10,0,10000,0,0,0,
2026-05-02 10:30:00,METAR LEIB 021030Z 12010KT 090V150 9999 BKN014 20/15 Q1021 NOSIG,0,10,0,10000,0,0,0,
2026-05-02 10:00:00,METAR LEIB 021000Z 10010KT 070V140 9999 BKN012 20/16 Q1021 NOSIG,0,10,0,10000,0,0,0,
2026-05-02 09:30:00,METAR LEIB 020930Z 10011KT 070V140 9999 BKN012 20/16 Q1021 NOSIG,0,11,0,10000,0,0,0,
2026-05-02 09:00:00,METAR LEIB 020900Z 10009KT 080V140 9999 BKN012 20/16 Q1021 NOSIG,0,9,0,10000,0,0,0,
2026-05-02 08:30:00,METAR LEIB 020830Z 11010KT 080V150 9999 SCT012 SCT024 19/16 Q1021 NOSIG,0,10,0,10000,0,0,0,
2026-05-02 08:00:00,METAR LEIB 020800Z 10009KT 070V140 9999 SCT012 SCT024 19/16 Q1021 NOSIG,0,9,0,10000,0,0,0,
2026-05-02 07:30:00,METAR LEIB 020730Z 10010KT 080V160 9999 SCT012 SCT024 18/16 Q1021 NOSIG,0,10,0,10000,0,0,0,
2026-05-02 07:00:00,METAR LEIB 020700Z 10008KT 080V140 9999 SCT012 SCT024 18/16 Q1021 NOSIG,0,8,0,10000,0,0,0,
2026-05-02 06:30:00,METAR LEIB 020630Z 10009KT 080V140 9999 -RA BKN011 18/16 Q1021 NOSIG,0,9,0,10000,0,0,0,-RA
2026-05-02 06:16:00,SPECI LEIB 020616Z 10008KT 070V140 9999 -RA BKN010 18/16 Q1021 NOSIG,0,8,0,10000,0,0,0,-RA
2026-05-02 06:00:00,METAR LEIB 020600Z 10009KT 070V130 9999 SCT006 SCT020 18/16 Q1021 NOSIG,0,9,0,10000,0,0,0,
2026-05-02 05:42:00,SPECI LEIB 020542Z 11006KT 070V160 9999 SCT009 SCT019 18/16 Q1021 NOSIG,0,6,0,10000,0,0,0,
2026-05-02 05:30:00,METAR LEIB 020530Z 11007KT 070V150 9999 BKN009 18/16 Q1021 NOSIG,0,7,0,10000,0,0,0,
2026-05-02 05:00:00,METAR LEIB 020500Z 11006KT 080V150 9999 -RA BKN009 18/16 Q1021 NOSIG,0,6,0,10000,0,0,0,-RA
2026-05-02 04:30:00,METAR LEIB 020430Z 12005KT 070V160 9999 -DZ BKN009 18/16 Q1021 NOSIG,0,5,0,10000,0,0,0,DZ
2026-05-02 04:07:00,SPECI LEIB 020407Z 12007KT 080V150 9999 -RA BKN009 18/16 Q1020 NOSIG,0,7,0,10000,0,0,0,-RA
2026-05-02 04:00:00,METAR LEIB 020400Z 11008KT 070V160 9999 -RA BKN010 18/16 Q1020 NOSIG,0,8,0,10000,0,0,0,-RA
2026-05-02 03:30:00,METAR LEIB 020330Z 11006KT 080V150 9999 -DZ BKN010 18/16 Q1021 NOSIG,0,6,0,10000,0,0,0,DZ
2026-05-02 03:00:00,METAR LEIB 020300Z 10006KT 080V140 9999 BKN010 18/16 Q1021 NOSIG,0,6,0,10000,0,0,0,
2026-05-02 02:52:00,SPECI LEIB 020252Z 10008KT 070V140 9999 BKN010 18/16 Q1021 NOSIG,0,8,0,10000,0,0,0,
2026-05-02 02:30:00,METAR LEIB 020230Z 10008KT 9999 SCT010 SCT025 18/16 Q1021 NOSIG,0,8,0,10000,0,0,0,
2026-05-02 02:13:00,SPECI LEIB 020213Z 11007KT 080V140 9999 BKN010 18/16 Q1021 NOSIG,0,7,0,10000,0,0,0,
2026-05-02 02:00:00,METAR LEIB 020200Z 11007KT 070V140 9999 BKN009 18/16 Q1021 NOSIG,0,7,0,10000,0,0,0,
2026-05-02 01:30:00,METAR LEIB 020130Z 09006KT 060V140 9999 BKN009 18/17 Q1021 NOSIG,0,6,0,10000,0,0,0,
2026-05-02 01:00:00,METAR LEIB 020100Z 11005KT 070V150 9999 BKN008 18/17 Q1021 NOSIG,0,5,0,10000,0,0,0,
2026-05-02 00:30:00,METAR LEIB 020030Z 11008KT 070V150 9999 BKN009 18/17 Q1021 NOSIG,0,8,0,10000,0,0,0,
2026-05-02 00:00:00,METAR LEIB 020000Z 09006KT 060V120 9999 -RA BKN008 18/17 Q1021 NOSIG,0,6,0,10000,0,0,0,-RA
2026-05-01 23:30:00,METAR LEIB 012330Z 08004KT 050V110 9999 BKN007 18/17 Q1022 NOSIG,0,4,0,10000,0,0,0,
2026-05-01 23:00:00,METAR LEIB 012300Z 08005KT 9999 SCT007 18/17 Q1022 NOSIG,0,5,0,10000,0,0,0,
2026-05-01 22:30:00,METAR LEIB 012230Z 08004KT 060V120 9999 SCT008 18/17 Q1022 NOSIG,0,4,0,10000,0,0,0,
2026-05-01 22:00:00,METAR LEIB 012200Z 08005KT 9999 SCT007 SCT035 18/17 Q1022 NOSIG,0,5,0,10000,0,0,0,
2026-05-01 21:30:00,METAR LEIB 012130Z 07005KT 9999 SCT011 BKN033 19/17 Q1022 NOSIG,0,5,0,10000,0,0,0,
2026-05-01 21:00:00,METAR LEIB 012100Z 07005KT 050V110 9999 -RA BKN009 19/17 Q1022 NOSIG,0,5,0,10000,0,0,0,-RA
2026-05-01 20:37:00,SPECI LEIB 012037Z 06003KT 020V090 9999 BKN008 18/17 Q1022 NOSIG,0,3,0,10000,0,0,0,
2026-05-01 20:30:00,METAR LEIB 012030Z 05004KT 010V090 9999 BKN010 18/17 Q1022 NOSIG,0,4,0,10000,0,0,0,
2026-05-01 20:08:00,SPECI LEIB 012008Z 05003KT 350V100 9999 BKN013 18/16 Q1022 NOSIG,0,3,0,10000,0,0,0,
2026-05-01 20:00:00,METAR LEIB 012000Z 06004KT 010V080 9999 BKN015 18/16 Q1022 NOSIG,0,4,0,10000,0,0,0,
2026-05-01 19:30:00,METAR LEIB 011930Z 07005KT 9999 FEW013 18/16 Q1021 NOSIG,0,5,0,10000,0,0,0,
2026-05-01 19:00:00,METAR LEIB 011900Z 08006KT 060V120 9999 SCT013 18/17 Q1021 NOSIG,0,6,0,10000,0,0,0,
2026-05-01 18:30:00,METAR LEIB 011830Z 07008KT 9999 FEW015 SCT045 19/16 Q1020 NOSIG,0,8,0,10000,0,0,0,
2026-05-01 18:00:00,METAR LEIB 011800Z 07007KT 040V100 9999 FEW016 BKN045 20/16 Q1020 NOSIG,0,7,0,10000,0,0,0,
2026-05-01 17:30:00,METAR LEIB 011730Z 07005KT 9999 FEW011 BKN047 19/16 Q1020 NOSIG,0,5,0,10000,0,0,0,
2026-05-01 17:00:00,METAR LEIB 011700Z 08006KT 050V110 9999 FEW011 BKN041 19/17 Q1020 NOSIG,0,6,0,10000,0,0,0,
2026-05-01 16:30:00,METAR LEIB 011630Z 08008KT 9999 FEW011 SCT021 BKN045 19/17 Q1020 NOSIG,0,8,0,10000,0,0,0,
2026-05-01 16:00:00,METAR LEIB 011600Z 08006KT 040V110 9999 FEW011 BKN039 19/17 Q1020 NOSIG,0,6,0,10000,0,0,0,
2026-05-01 15:30:00,METAR LEIB 011530Z 08007KT 050V110 9999 SCT011 BKN034 19/17 Q1020 NOSIG,0,7,0,10000,0,0,0,
2026-05-01 15:00:00,METAR LEIB 011500Z 09005KT 060V130 9999 SCT012 BKN032 20/17 Q1020 NOSIG,0,5,0,10000,0,0,0,
2026-05-01 14:30:00,METAR LEIB 011430Z 09007KT 060V120 9999 SCT013 BKN032 20/17 Q1020 NOSIG,0,7,0,10000,0,0,0,
2026-05-01 14:00:00,METAR LEIB 011400Z 09006KT 060V120 9999 FEW012 SCT038 20/17 Q1020 NOSIG,0,6,0,10000,0,0,0,
2026-05-01 13:30:00,METAR LEIB 011330Z 09007KT 9999 -RA SCT020 20/17 Q1020 NOSIG,0,7,0,10000,0,0,0,-RA
2026-05-01 13:00:00,METAR LEIB 011300Z 08006KT 040V100 9999 -RA SCT015 19/16 Q1020 NOSIG,0,6,0,10000,0,0,0,-RA
2026-05-01 12:30:00,METAR LEIB 011230Z 08007KT 050V120 9999 -RA SCT015 19/16 Q1020 NOSIG,0,7,0,10000,0,0,0,-RA
2026-05-01 12:00:00,METAR LEIB 011200Z 06006KT 040V100 9999 -RA SCT020 19/17 Q1020 NOSIG,0,6,0,10000,0,0,0,-RA
2026-05-01 11:30:00,METAR LEIB 011130Z 08008KT 050V110 9000 -RA SCT019 19/17 Q1020 NOSIG,0,8,0,9000,0,0,0,-RA
2026-05-01 11:00:00,METAR LEIB 011100Z 08008KT 050V120 9999 SCT022 20/17 Q1020 NOSIG,0,8,0,10000,0,0,0,
2026-05-01 10:30:00,METAR LEIB 011030Z 11008KT 070V150 9999 SCT023 20/17 Q1020 NOSIG,0,8,0,10000,0,0,0,
2026-05-01 10:00:00,METAR LEIB 011000Z 11004KT 020V170 9999 SCT019 21/16 Q1020 NOSIG,0,4,0,10000,0,0,0,
2026-05-01 09:30:00,METAR LEIB 010930Z 06007KT 030V120 9999 -RA BKN017 OVC030 21/17 Q1020 NOSIG,0,7,0,10000,0,0,0,-RA
2026-05-01 09:00:00,METAR LEIB 010900Z 08005KT 030V110 9999 -RA SCT015 SCT031 20/17 Q1019 NOSIG,0,5,0,10000,0,0,0,-RA
2026-05-01 08:30:00,METAR LEIB 010830Z 06005KT 020V080 9999 BKN016 OVC035 20/17 Q1019 NOSIG,0,5,0,10000,0,0,0,
2026-05-01 08:00:00,METAR LEIB 010800Z VRB05KT 9999 BKN017 OVC027 20/17 Q1019 NOSIG,0,5,0,10000,0,0,0,
2026-05-01 07:30:00,METAR LEIB 010730Z VRB02KT 9999 BKN016 OVC020 19/16 Q1019 NOSIG,0,2,0,10000,0,0,0,
2026-05-01 07:00:00,METAR LEIB 010700Z VRB02KT 9999 -RA FEW018 SCT023 19/16 Q1018 NOSIG,0,2,0,10000,0,0,0,-RA
2026-05-01 06:30:00,METAR LEIB 010630Z 03005KT 360V100 9999 -RA FEW025 19/16 Q1018 NOSIG,0,5,0,10000,0,0,0,-RA
2026-05-01 06:00:00,METAR LEIB 010600Z 04007KT 020V090 9999 -RA FEW025 18/16 Q1017 NOSIG,0,7,0,10000,0,0,0,-RA
2026-05-01 05:30:00,METAR LEIB 010530Z 06009KT 9999 FEW025 19/16 Q1017 NOSIG,0,9,0,10000,0,0,0,
2026-05-01 05:00:00,METAR LEIB 010500Z 05008KT 9999 FEW016 SCT027 19/15 Q1017 NOSIG,0,8,0,10000,0,0,0,
2026-05-01 04:30:00,METAR LEIB 010430Z 04005KT 010V070 9999 FEW016 SCT027 19/16 Q1017 NOSIG,0,5,0,10000,0,0,0,
2026-05-01 04:00:00,METAR LEIB 010400Z 03006KT 360V060 9999 FEW016 BKN027 19/16 Q1017 NOSIG,0,6,0,10000,0,0,0,
2026-05-01 03:30:00,METAR LEIB 010330Z 02005KT 9999 FEW016 BKN025 19/16 Q1018 NOSIG,0,5,0,10000,0,0,0,
2026-05-01 03:00:00,METAR LEIB 010300Z 34006KT 310V010 9999 FEW025 BKN032 19/16 Q1018 NOSIG,0,6,0,10000,0,0,0,
2026-05-01 02:30:00,METAR LEIB 010230Z 33004KT 300V010 9999 FEW025 BKN032 19/16 Q1018 NOSIG,0,4,0,10000,0,0,0,
2026-05-01 02:00:00,METAR LEIB 010200Z 02004KT 360V060 9999 BKN026 19/16 Q1018 NOSIG,0,4,0,10000,0,0,0,
2026-05-01 01:30:00,METAR LEIB 010130Z 36003KT 9999 BKN026 19/16 Q1017 NOSIG,0,3,0,10000,0,0,0,
2026-05-01 01:00:00,METAR LEIB 010100Z 35003KT 320V020 9999 BKN024 19/16 Q1018 NOSIG,0,3,0,10000,0,0,0,
2026-05-01 00:30:00,METAR LEIB 010030Z 00000KT 9999 BKN024 18/16 Q1018 NOSIG,0,0,0,10000,0,0,0,
2026-05-01 00:00:00,METAR LEIB 010000Z VRB02KT 9999 BKN024 18/16 Q1018 NOSIG,0,2,0,10000,0,0,0,
2026-04-30 23:30:00,METAR LEIB 302330Z VRB02KT 9999 BKN027 18/16 Q1018 NOSIG,0,2,0,10000,0,0,0,
2026-04-30 23:00:00,METAR LEIB 302300Z VRB01KT 9999 BKN030 18/15 Q1018 NOSIG,0,1,0,10000,0,0,0,
2026-04-30 22:30:00,METAR LEIB 302230Z 34003KT 9999 SCT027 17/15 Q1017 NOSIG,0,3,0,10000,0,0,0,
2026-04-30 22:00:00,METAR LEIB 302200Z 01004KT 340V070 9999 SCT012 17/15 Q1017 NOSIG,0,4,0,10000,0,0,0,
2026-04-30 21:30:00,METAR LEIB 302130Z 08003KT 040V100 9999 BKN019 18/17 Q1017 NOSIG,0,3,0,10000,0,0,0,
2026-04-30 21:00:00,METAR LEIB 302100Z 08004KT 050V110 9999 BKN017 19/17 Q1017 NOSIG,0,4,0,10000,0,0,0,
2026-04-30 20:30:00,METAR LEIB 302030Z 09004KT 040V110 9999 SCT015 19/17 Q1016 NOSIG,0,4,0,10000,0,0,0,
2026-04-30 20:00:00,METAR LEIB 302000Z 09005KT 9999 SCT015 19/16 Q1016 NOSIG,0,5,0,10000,0,0,0,
2026-04-30 19:30:00,METAR LEIB 301930Z 06003KT 9999 FEW015 19/16 Q1015 NOSIG,0,3,0,10000,0,0,0,
2026-04-30 19:00:00,METAR LEIB 301900Z 10008KT 070V150 CAVOK 19/17 Q1015 NOSIG,1,0,0,9999,0,0,0,
2026-04-30 18:30:00,METAR LEIB 301830Z 12005KT 080V150 9999 FEW018 19/16 Q1015 NOSIG,0,5,0,10000,0,0,0,
2026-04-30 18:00:00,METAR LEIB 301800Z 10005KT 070V150 9999 FEW018 20/16 Q1015 NOSIG,0,5,0,10000,0,0,0,
2026-04-30 17:30:00,METAR LEIB 301730Z 10005KT 070V160 9999 SCT018 20/16 Q1015 NOSIG,0,5,0,10000,0,0,0,
2026-04-30 17:00:00,METAR LEIB 301700Z 12007KT 080V160 9999 SCT018 21/16 Q1015 NOSIG,0,7,0,10000,0,0,0,
2026-04-30 16:30:00,METAR LEIB 301630Z 12006KT 070V170 9999 SCT018 21/16 Q1015 NOSIG,0,6,0,10000,0,0,0,
2026-04-30 16:00:00,METAR LEIB 301600Z 11006KT 080V160 9999 SCT018 21/16 Q1015 NOSIG,0,6,0,10000,0,0,0,
2026-04-30 15:00:00,METAR LEIB 301500Z 12007KT 070V170 9999 FEW021 22/16 Q1015 NOSIG,0,7,0,10000,0,0,0,
2026-04-30 14:30:00,METAR LEIB 301430Z 12008KT 080V160 9999 FEW021 21/16 Q1015 NOSIG,0,8,0,10000,0,0,0,
2026-04-30 14:00:00,METAR LEIB 301400Z 12008KT 080V160 9999 FEW021 22/16 Q1015 NOSIG,0,8,0,10000,0,0,0,
2026-04-30 13:30:00,METAR LEIB 301330Z 09008KT 060V120 9999 SCT021 22/16 Q1015 NOSIG,0,8,0,10000,0,0,0,
2026-04-30 13:00:00,METAR LEIB 301300Z VRB06KT 9999 SCT021 21/16 Q1015 NOSIG,0,6,0,10000,0,0,0,
2026-04-30 12:30:00,METAR LEIB 301230Z VRB05KT 9999 BKN022 23/16 Q1015 NOSIG,0,5,0,10000,0,0,0,
2026-04-30 12:00:00,METAR LEIB 301200Z 18004KT 120V240 9999 BKN022 22/16 Q1015 NOSIG,0,4,0,10000,0,0,0,
2026-04-30 11:30:00,METAR LEIB 301130Z 20005KT 140V260 9999 BKN020 22/16 Q1016 NOSIG,0,5,0,10000,0,0,0,
2026-04-30 11:00:00,METAR LEIB 301100Z VRB02KT 9999 BKN018 OVC025 21/16 Q1016 NOSIG,0,2,0,10000,0,0,0,
2026-04-30 10:30:00,METAR LEIB 301030Z 12003KT 050V170 9999 SCT018 OVC025 21/16 Q1016 NOSIG,0,3,0,10000,0,0,0,
2026-04-30 10:00:00,METAR LEIB 301000Z 12003KT 070V210 9999 OVC023 21/16 Q1016 NOSIG,0,3,0,10000,0,0,0,
2026-04-30 09:30:00,METAR LEIB 300930Z 13004KT 080V190 9999 OVC020 21/16 Q1016 NOSIG,0,4,0,10000,0,0,0,
2026-04-30 09:00:00,METAR LEIB 300900Z 34004KT 280V030 9999 OVC020 21/16 Q1016 NOSIG,0,4,0,10000,0,0,0,
2026-04-30 08:30:00,METAR LEIB 300830Z 34003KT 280V030 9999 OVC021 20/15 Q1015 NOSIG,0,3,0,10000,0,0,0,
2026-04-30 08:00:00,METAR LEIB 300800Z 35003KT 300V060 9999 OVC019 20/15 Q1015 NOSIG,0,3,0,10000,0,0,0,
2026-04-30 07:30:00,METAR LEIB 300730Z 36004KT 320V080 9999 OVC019 19/15 Q1015 NOSIG,0,4,0,10000,0,0,0,
2026-04-30 07:00:00,METAR LEIB 300700Z VRB02KT 9999 OVC018 19/16 Q1015 NOSIG,0,2,0,10000,0,0,0,
2026-04-30 06:30:00,METAR LEIB 300630Z VRB01KT 9999 FEW016 OVC018 18/16 Q1014 NOSIG,0,1,0,10000,0,0,0,
2026-04-30 06:00:00,METAR LEIB 300600Z 25002KT 9999 FEW016 OVC019 17/16 Q1014 NOSIG,0,2,0,10000,0,0,0,
2026-04-30 05:30:00,METAR LEIB 300530Z 24001KT 9999 BKN015 OVC018 17/15 Q1014 NOSIG,0,1,0,10000,0,0,0,
2026-04-30 05:00:00,METAR LEIB 300500Z 00000KT 9999 BKN015 OVC017 17/15 Q1013 NOSIG,0,0,0,10000,0,0,0,
2026-04-30 04:30:00,METAR LEIB 300430Z VRB02KT 9999 SCT012 BKN016 16/15 Q1013 NOSIG,0,2,0,10000,0,0,0,
2026-04-30 04:00:00,METAR LEIB 300400Z 08002KT 9999 SCT012 SCT016 15/14 Q1013 NOSIG,0,2,0,10000,0,0,0,
2026-04-30 03:30:00,METAR LEIB 300330Z 08002KT 9999 SCT012 SCT016 15/14 Q1013 NOSIG,0,2,0,10000,0,0,0,
2026-04-30 03:00:00,METAR LEIB 300300Z VRB01KT 9999 FEW020 14/13 Q1013 NOSIG,0,1,0,10000,0,0,0,
2026-04-30 02:30:00,METAR LEIB 300230Z VRB01KT 9999 FEW020 15/14 Q1013 NOSIG,0,1,0,10000,0,0,0,
2026-04-30 02:00:00,METAR LEIB 300200Z 34004KT 9999 FEW020 16/14 Q1013 NOSIG,0,4,0,10000,0,0,0,
2026-04-30 01:30:00,METAR LEIB 300130Z 00000KT 9999 FEW020 16/14 Q1013 NOSIG,0,0,0,10000,0,0,0,
2026-04-30 01:00:00,METAR LEIB 300100Z 35004KT 9999 FEW020 16/14 Q1013 NOSIG,0,4,0,10000,0,0,0,
2026-04-30 00:30:00,METAR LEIB 300030Z 36004KT 9999 SCT019 17/15 Q1013 NOSIG,0,4,0,10000,0,0,0,
2026-04-30 00:00:00,METAR LEIB 300000Z 03003KT 9999 BKN019 18/15 Q1013 NOSIG,0,3,0,10000,0,0,0,
2026-04-29 23:30:00,METAR LEIB 292330Z 01002KT 9999 BKN019 18/16 Q1013 NOSIG,0,2,0,10000,0,0,0,
2026-04-29 23:00:00,METAR LEIB 292300Z 07003KT 030V090 9999 FEW011 OVC020 18/16 Q1013 NOSIG,0,3,0,10000,0,0,0,
2026-04-29 22:30:00,METAR LEIB 292230Z 07003KT 050V110 9999 SCT011 BKN013 19/16 Q1013 NOSIG,0,3,0,10000,0,0,0,
2026-04-29 22:00:00,METAR LEIB 292200Z VRB01KT 9999 SCT011 BKN015 18/16 Q1013 NOSIG,0,1,0,10000,0,0,0,
2026-04-29 21:30:00,METAR LEIB 292130Z VRB02KT 9999 SCT013 BKN016 18/16 Q1013 NOSIG,0,2,0,10000,0,0,0,
2026-04-29 21:00:00,METAR LEIB 292100Z 36003KT 300V030 9999 SCT010 BKN015 18/16 Q1013 NOSIG,0,3,0,10000,0,0,0,
2026-04-29 20:30:00,METAR LEIB 292030Z 04004KT 9999 FEW010 BKN012 18/16 Q1012 NOSIG,0,4,0,10000,0,0,0,
2026-04-29 20:00:00,METAR LEIB 292000Z 07006KT 040V110 9999 FEW010 BKN013 18/16 Q1012 NOSIG,0,6,0,10000,0,0,0,
2026-04-29 19:30:00,METAR LEIB 291930Z 08008KT 050V110 9999 SCT010 18/17 Q1011 NOSIG,0,8,0,10000,0,0,0,
2026-04-29 19:00:00,METAR LEIB 291900Z 08008KT 9999 FEW010 18/16 Q1010 NOSIG,0,8,0,10000,0,0,0,
2026-04-29 18:30:00,METAR LEIB 291830Z 09009KT 9999 FEW010 18/17 Q1010 NOSIG,0,9,0,10000,0,0,0,
2026-04-29 18:00:00,METAR LEIB 291800Z 08009KT CAVOK 19/17 Q1010 NOSIG,1,0,0,9999,0,0,0,
2026-04-29 17:30:00,METAR LEIB 291730Z 09007KT 060V120 CAVOK 20/16 Q1010 NOSIG,1,0,0,9999,0,0,0,
2026-04-29 17:00:00,METAR LEIB 291700Z 09007KT 060V120 9999 FEW010 20/17 Q1010 NOSIG,0,7,0,10000,0,0,0,
2026-04-29 16:30:00,METAR LEIB 291630Z 09009KT 060V120 9999 FEW010 20/17 Q1010 NOSIG,0,9,0,10000,0,0,0,
2026-04-29 16:00:00,METAR LEIB 291600Z 10009KT 070V140 9999 FEW010 21/17 Q1010 NOSIG,0,9,0,10000,0,0,0,
2026-04-29 15:30:00,METAR LEIB 291530Z 10009KT 9999 SCT010 BKN023 21/17 Q1010 NOSIG,0,9,0,10000,0,0,0,
2026-04-29 15:00:00,METAR LEIB 291500Z 09007KT 050V150 9999 SCT010 BKN023 20/17 Q1010 NOSIG,0,7,0,10000,0,0,0,
2026-04-29 14:30:00,METAR LEIB 291430Z 10008KT 060V150 9999 SCT012 21/17 Q1010 NOSIG,0,8,0,10000,0,0,0,
2026-04-29 14:00:00,METAR LEIB 291400Z 09010KT 060V140 9999 SCT012 21/17 Q1010 NOSIG,0,10,0,10000,0,0,0,
2026-04-29 13:30:00,METAR LEIB 291330Z 10012KT 080V140 9999 FEW012 21/17 Q1010 NOSIG,0,12,0,10000,0,0,0,
2026-04-29 13:00:00,METAR LEIB 291300Z 09010KT 060V140 9999 FEW012 21/17 Q1010 NOSIG,0,10,0,10000,0,0,0,
2026-04-29 12:30:00,METAR LEIB 291230Z 09010KT 060V120 9999 FEW011 21/17 Q1010 NOSIG,0,10,0,10000,0,0,0,
2026-04-29 12:00:00,METAR LEIB 291200Z 10009KT 060V120 9999 FEW011 20/16 Q1010 NOSIG,0,9,0,10000,0,0,0,
2026-04-29 11:30:00,METAR LEIB 291130Z 10010KT 070V130 9999 FEW011 21/17 Q1010 NOSIG,0,10,0,10000,0,0,0,
2026-04-29 11:00:00,METAR LEIB 291100Z 10009KT 060V140 9999 FEW012 20/16 Q1011 NOSIG,0,9,0,10000,0,0,0,
2026-04-29 10:30:00,METAR LEIB 291030Z 10010KT 080V140 9999 FEW010 20/16 Q1011 NOSIG,0,10,0,10000,0,0,0,
2026-04-29 10:00:00,METAR LEIB 291000Z 09009KT 050V120 9999 FEW010 21/16 Q1010 NOSIG,0,9,0,10000,0,0,0,
2026-04-29 09:30:00,METAR LEIB 290930Z 08007KT 9999 FEW010 21/15 Q1010 NOSIG,0,7,0,10000,0,0,0,
2026-04-29 09:00:00,METAR LEIB 290900Z 08009KT 050V110 9999 FEW010 20/16 Q1011 NOSIG,0,9,0,10000,0,0,0,
2026-04-29 08:30:00,METAR LEIB 290830Z 10008KT 070V130 9999 BKN012 OVC021 19/16 Q1011 NOSIG,0,8,0,10000,0,0,0,
2026-04-29 08:00:00,METAR LEIB 290800Z 10008KT 070V140 9999 SCT010 OVC021 19/16 Q1011 NOSIG,0,8,0,10000,0,0,0,
2026-04-29 07:30:00,METAR LEIB 290730Z 08009KT 050V110 9999 SCT010 OVC021 19/16 Q1010 NOSIG,0,9,0,10000,0,0,0,
2026-04-29 07:00:00,METAR LEIB 290700Z 07009KT 9999 FEW010 OVC021 18/16 Q1010 NOSIG,0,9,0,10000,0,0,0,
2026-04-29 06:30:00,METAR LEIB 290630Z 08007KT 060V120 9999 FEW010 SCT014 OVC021 18/16 Q1010 NOSIG,0,7,0,10000,0,0,0,
2026-04-29 06:00:00,METAR LEIB 290600Z 09009KT 9999 FEW011 SCT014 BKN018 18/15 Q1010 NOSIG,0,9,0,10000,0,0,0,
2026-04-29 05:30:00,METAR LEIB 290530Z 09008KT 050V150 9999 SCT011 BKN013 17/15 Q1010 NOSIG,0,8,0,10000,0,0,0,
2026-04-29 05:00:00,METAR LEIB 290500Z 05005KT 020V080 9999 BKN011 16/15 Q1009 NOSIG,0,5,0,10000,0,0,0,
2026-04-29 04:30:00,METAR LEIB 290430Z 05006KT 9999 BKN011 17/15 Q1009 NOSIG,0,6,0,10000,0,0,0,
2026-04-29 04:00:00,METAR LEIB 290400Z 05007KT 9999 BKN011 17/15 Q1009 NOSIG,0,7,0,10000,0,0,0,
2026-04-29 03:30:00,METAR LEIB 290330Z 05006KT 9999 FEW010 SCT013 17/15 Q1009 NOSIG,0,6,0,10000,0,0,0,
2026-04-29 03:00:00,METAR LEIB 290300Z 04007KT 9999 BKN010 BKN017 17/15 Q1009 NOSIG,0,7,0,10000,0,0,0,
2026-04-29 02:30:00,METAR LEIB 290230Z 04004KT 360V070 9999 BKN010 17/15 Q1009 NOSIG,0,4,0,10000,0,0,0,
2026-04-29 02:00:00,METAR LEIB 290200Z 06006KT 020V080 9999 SCT009 BKN010 17/15 Q1009 NOSIG,0,6,0,10000,0,0,0,
2026-04-29 01:30:00,METAR LEIB 290130Z 07006KT 040V100 9999 SCT009 BKN010 17/16 Q1009 NOSIG,0,6,0,10000,0,0,0,
2026-04-29 01:00:00,METAR LEIB 290100Z 07008KT 9999 SCT009 BKN011 18/16 Q1010 NOSIG,0,8,0,10000,0,0,0,
2026-04-29 00:30:00,METAR LEIB 290030Z 04003KT 9999 FEW012 16/14 Q1010 NOSIG,0,3,0,10000,0,0,0,
2026-04-29 00:00:00,METAR LEIB 290000Z 05007KT CAVOK 17/15 Q1010 NOSIG,1,0,0,9999,0,0,0,
2026-04-28 23:30:00,METAR LEIB 282330Z 05008KT CAVOK 17/15 Q1010 NOSIG,1,0,0,9999,0,0,0,
2026-04-28 23:00:00,METAR LEIB 282300Z 05008KT CAVOK 17/15 Q1010 NOSIG,1,0,0,9999,0,0,0,
2026-04-28 22:30:00,METAR LEIB 282230Z 05008KT CAVOK 17/15 Q1010 NOSIG,1,0,0,9999,0,0,0,
2026-04-28 22:00:00,METAR LEIB 282200Z 05007KT 020V090 CAVOK 17/15 Q1010 NOSIG,1,0,0,9999,0,0,0,
2026-04-28 21:30:00,METAR LEIB 282130Z 07005KT CAVOK 17/15 Q1011 NOSIG,1,0,0,9999,0,0,0,
2026-04-28 21:00:00,METAR LEIB 282100Z 14003KT 110V170 CAVOK 17/15 Q1011 NOSIG,1,0,0,9999,0,0,0,
2026-04-28 20:30:00,METAR LEIB 282030Z 16003KT 140V210 9999 FEW021 18/16 Q1011 NOSIG,0,3,0,10000,0,0,0,
2026-04-28 20:00:00,METAR LEIB 282000Z 20005KT 170V230 9999 FEW022 18/16 Q1011 NOSIG,0,5,0,10000,0,0,0,
2026-04-28 19:30:00,METAR LEIB 281930Z 20006KT 160V250 9999 FEW020 SCT027 18/15 Q1011 NOSIG,0,6,0,10000,0,0,0,
2026-04-28 19:00:00,METAR LEIB 281900Z VRB02KT CAVOK 17/15 Q1010 NOSIG,1,0,0,9999,0,0,0,
2026-04-28 18:30:00,METAR LEIB 281830Z 12003KT 080V160 CAVOK 18/15 Q1010 NOSIG,1,0,0,9999,0,0,0,
2026-04-28 18:00:00,METAR LEIB 281800Z 10008KT CAVOK 19/15 Q1010 NOSIG,1,0,0,9999,0,0,0,
2026-04-28 17:30:00,METAR LEIB 281730Z 09010KT 060V120 CAVOK 20/14 Q1009 NOSIG,1,0,0,9999,0,0,0,
2026-04-28 17:00:00,METAR LEIB 281700Z 07010KT 030V110 9999 FEW012 20/13 Q1008 NOSIG,0,10,0,10000,0,0,0,
2026-04-28 16:30:00,METAR LEIB 281630Z 07014KT 030V110 CAVOK 20/13 Q1008 NOSIG,1,0,0,9999,0,0,0,
2026-04-28 16:00:00,METAR LEIB 281600Z 08014KT 060V120 CAVOK 20/14 Q1008 NOSIG,1,0,0,9999,0,0,0,
2026-04-28 15:30:00,METAR LEIB 281530Z 07012KT 040V110 CAVOK 20/15 Q1008 NOSIG,1,0,0,9999,0,0,0,
2026-04-28 15:00:00,METAR LEIB 281500Z 08019G29KT 040V100 9999 FEW041 FEW080TCU 19/15 Q1008 NOSIG,0,19,1,10000,0,0,0,
2026-04-28 14:30:00,METAR LEIB 281430Z 09016KT 9999 FEW048 FEW065TCU 19/15 Q1009 NOSIG,0,16,0,10000,0,0,0,
2026-04-28 14:00:00,METAR LEIB 281400Z 07012KT 040V110 9999 FEW016 20/15 Q1012 NOSIG,0,12,0,10000,0,0,0,
2026-04-28 13:30:00,METAR LEIB 281330Z 11008KT 080V150 9999 FEW020 19/15 Q1013 NOSIG,0,8,0,10000,0,0,0,
2026-04-28 13:00:00,METAR LEIB 281300Z 14008KT 090V200 9999 FEW020 21/15 Q1014 NOSIG,0,8,0,10000,0,0,0,
2026-04-28 12:30:00,METAR LEIB 281230Z 09006KT 050V140 9999 FEW020 20/14 Q1015 NOSIG,0,6,0,10000,0,0,0,
2026-04-28 12:00:00,METAR LEIB 281200Z 10007KT 060V130 9999 FEW020 19/14 Q1014 NOSIG,0,7,0,10000,0,0,0,
2026-04-28 11:30:00,METAR LEIB 281130Z 09009KT 060V140 9999 FEW020 19/14 Q1014 NOSIG,0,9,0,10000,0,0,0,
2026-04-28 11:00:00,METAR LEIB 281100Z 08012KT 050V120 CAVOK 20/14 Q1013 NOSIG,1,0,0,9999,0,0,0,
2026-04-28 10:30:00,METAR LEIB 281030Z 09013KT 060V120 CAVOK 20/14 Q1013 NOSIG,1,0,0,9999,0,0,0,
2026-04-28 10:00:00,METAR LEIB 281000Z 09012KT 060V120 CAVOK 20/14 Q1014 NOSIG,1,0,0,9999,0,0,0,
2026-04-28 09:30:00,METAR LEIB 280930Z 08012KT CAVOK 20/13 Q1013 NOSIG,1,0,0,9999,0,0,0,
2026-04-28 09:00:00,METAR LEIB 280900Z 08009KT 060V130 CAVOK 20/13 Q1014 NOSIG,1,0,0,9999,0,0,0,
2026-04-28 08:30:00,METAR LEIB 280830Z 08009KT 060V120 CAVOK 20/14 Q1014 NOSIG,1,0,0,9999,0,0,0,
2026-04-28 08:00:00,METAR LEIB 280800Z 08009KT 020V110 9999 FEW012 19/15 Q1014 NOSIG,0,9,0,10000,0,0,0,
2026-04-28 07:30:00,METAR LEIB 280730Z 06007KT 030V100 9999 FEW006 19/15 Q1014 NOSIG,0,7,0,10000,0,0,0,
2026-04-28 07:00:00,METAR LEIB 280700Z 06006KT 030V100 9999 FEW015 18/15 Q1014 NOSIG,0,6,0,10000,0,0,0,
2026-04-28 06:30:00,METAR LEIB 280630Z 05006KT 9999 FEW015 17/15 Q1014 NOSIG,0,6,0,10000,0,0,0,
2026-04-28 06:00:00,METAR LEIB 280600Z 04006KT 010V080 9999 FEW015 16/14 Q1013 NOSIG,0,6,0,10000,0,0,0,
2026-04-28 05:30:00,METAR LEIB 280530Z 04005KT 9999 FEW015 15/14 Q1013 NOSIG,0,5,0,10000,0,0,0,
2026-04-28 05:00:00,METAR LEIB 280500Z 04005KT 9999 FEW015 15/13 Q1013 NOSIG,0,5,0,10000,0,0,0,
2026-04-28 04:30:00,METAR LEIB 280430Z 04004KT 9999 FEW015 14/13 Q1013 NOSIG,0,4,0,10000,0,0,0,
2026-04-28 04:00:00,METAR LEIB 280400Z 04004KT CAVOK 15/13 Q1013 NOSIG,1,0,0,9999,0,0,0,
2026-04-28 03:30:00,METAR LEIB 280330Z 04004KT CAVOK 15/13 Q1013 NOSIG,1,0,0,9999,0,0,0,
2026-04-28 03:00:00,METAR LEIB 280300Z 04004KT CAVOK 14/13 Q1014 NOSIG,1,0,0,9999,0,0,0,
2026-04-28 02:30:00,METAR LEIB 280230Z VRB02KT 9999 FEW015 14/12 Q1014 NOSIG,0,2,0,10000,0,0,0,
2026-04-28 02:00:00,METAR LEIB 280200Z 04004KT 9999 FEW015 15/13 Q1014 NOSIG,0,4,0,10000,0,0,0,
2026-04-28 01:30:00,METAR LEIB 280130Z 03005KT 9999 FEW015 15/13 Q1015 NOSIG,0,5,0,10000,0,0,0,
2026-04-28 01:00:00,METAR LEIB 280100Z 06003KT 020V120 9999 SCT015 16/14 Q1015 NOSIG,0,3,0,10000,0,0,0,
2026-04-28 00:30:00,METAR LEIB 280030Z 05004KT 9999 SCT015 16/14 Q1016 NOSIG,0,4,0,10000,0,0,0,
2026-04-28 00:00:00,METAR LEIB 280000Z 05003KT 9999 SCT015 16/13 Q1016 NOSIG,0,3,0,10000,0,0,0,
2026-04-27 23:30:00,METAR LEIB 272330Z 08006KT 050V110 CAVOK 17/14 Q1016 NOSIG,1,0,0,9999,0,0,0,
2026-04-27 23:00:00,METAR LEIB 272300Z 08006KT 060V120 CAVOK 17/14 Q1016 NOSIG,1,0,0,9999,0,0,0,
2026-04-27 22:30:00,METAR LEIB 272230Z 09006KT 050V110 CAVOK 17/14 Q1016 NOSIG,1,0,0,9999,0,0,0,
2026-04-27 22:00:00,METAR LEIB 272200Z 06004KT CAVOK 15/13 Q1016 NOSIG,1,0,0,9999,0,0,0,
2026-04-27 21:30:00,METAR LEIB 272130Z 04005KT CAVOK 16/13 Q1016 NOSIG,1,0,0,9999,0,0,0,
2026-04-27 21:00:00,METAR LEIB 272100Z 04003KT 010V070 CAVOK 16/13 Q1016 NOSIG,1,0,0,9999,0,0,0,
2026-04-27 20:30:00,METAR LEIB 272030Z 07006KT CAVOK 16/14 Q1016 NOSIG,1,0,0,9999,0,0,0,
2026-04-27 20:00:00,METAR LEIB 272000Z 08006KT CAVOK 17/14 Q1016 NOSIG,1,0,0,9999,0,0,0,
2026-04-27 19:30:00,METAR LEIB 271930Z 07006KT CAVOK 17/13 Q1016 NOSIG,1,0,0,9999,0,0,0,
2026-04-27 19:00:00,METAR LEIB 271900Z 08006KT CAVOK 17/14 Q1016 NOSIG,1,0,0,9999,0,0,0,
2026-04-27 18:30:00,METAR LEIB 271830Z 08005KT 050V110 CAVOK 17/14 Q1016 NOSIG,1,0,0,9999,0,0,0,
2026-04-27 18:00:00,METAR LEIB 271800Z 08007KT 050V110 CAVOK 18/14 Q1016 NOSIG,1,0,0,9999,0,0,0,
2026-04-27 17:30:00,METAR LEIB 271730Z 08007KT 050V110 CAVOK 18/13 Q1016 NOSIG,1,0,0,9999,0,0,0,
2026-04-27 17:00:00,METAR LEIB 271700Z 08008KT 050V110 CAVOK 19/14 Q1016 NOSIG,1,0,0,9999,0,0,0,
2026-04-27 16:30:00,METAR LEIB 271630Z 09007KT 040V120 CAVOK 19/14 Q1016 NOSIG,1,0,0,9999,0,0,0,
2026-04-27 16:00:00,METAR LEIB 271600Z 10008KT 060V140 CAVOK 19/14 Q1016 NOSIG,1,0,0,9999,0,0,0,
2026-04-27 15:30:00,METAR LEIB 271530Z 10008KT 050V140 CAVOK 20/14 Q1016 NOSIG,1,0,0,9999,0,0,0,
2026-04-27 15:00:00,METAR LEIB 271500Z 10008KT 060V130 9999 FEW015 20/15 Q1017 NOSIG,0,8,0,10000,0,0,0,
2026-04-27 14:30:00,METAR LEIB 271430Z 10008KT 060V150 9999 FEW014 20/15 Q1017 NOSIG,0,8,0,10000,0,0,0,
2026-04-27 14:00:00,METAR LEIB 271400Z 09008KT 060V140 9999 FEW014 20/15 Q1017 NOSIG,0,8,0,10000,0,0,0,
2026-04-27 13:30:00,METAR LEIB 271330Z 09009KT 060V130 9999 FEW014 20/15 Q1018 NOSIG,0,9,0,10000,0,0,0,
2026-04-27 13:00:00,METAR LEIB 271300Z 10008KT 050V150 9999 FEW014 20/15 Q1018 NOSIG,0,8,0,10000,0,0,0,
2026-04-27 12:30:00,METAR LEIB 271230Z 09009KT 030V140 9999 FEW017 20/15 Q1018 NOSIG,0,9,0,10000,0,0,0,
2026-04-27 12:00:00,METAR LEIB 271200Z 11009KT 060V150 9999 FEW020 20/14 Q1018 NOSIG,0,9,0,10000,0,0,0,
2026-04-27 11:30:00,METAR LEIB 271130Z 09008KT 040V140 9999 FEW020 19/15 Q1018 NOSIG,0,8,0,10000,0,0,0,
2026-04-27 11:00:00,METAR LEIB 271100Z 10009KT 050V150 9999 FEW020 20/15 Q1018 NOSIG,0,9,0,10000,0,0,0,
2026-04-27 10:30:00,METAR LEIB 271030Z 08010KT 050V120 9999 FEW018 19/14 Q1018 NOSIG,0,10,0,10000,0,0,0,
2026-04-27 10:00:00,METAR LEIB 271000Z 10010KT 060V140 9999 FEW018 19/14 Q1019 NOSIG,0,10,0,10000,0,0,0,
2026-04-27 09:30:00,METAR LEIB 270930Z 10010KT 070V140 9999 FEW017 19/14 Q1018 NOSIG,0,10,0,10000,0,0,0,
2026-04-27 09:00:00,METAR LEIB 270900Z 09010KT 060V130 9999 FEW017 19/14 Q1018 NOSIG,0,10,0,10000,0,0,0,
2026-04-27 08:30:00,METAR LEIB 270830Z 09008KT 050V120 9999 FEW017 19/14 Q1018 NOSIG,0,8,0,10000,0,0,0,
2026-04-27 08:00:00,METAR LEIB 270800Z 07008KT 040V110 9999 SCT017 19/14 Q1018 NOSIG,0,8,0,10000,0,0,0,
2026-04-27 07:30:00,METAR LEIB 270730Z 07006KT 040V110 9999 SCT016 18/14 Q1018 NOSIG,0,6,0,10000,0,0,0,
2026-04-27 07:00:00,METAR LEIB 270700Z 06006KT 9999 FEW017 18/14 Q1018 NOSIG,0,6,0,10000,0,0,0,
2026-04-27 06:30:00,METAR LEIB 270630Z VRB01KT 9999 FEW016 17/15 Q1018 NOSIG,0,1,0,10000,0,0,0,
2026-04-27 06:00:00,METAR LEIB 270600Z VRB02KT 9999 BKN015 14/13 Q1018 NOSIG,0,2,0,10000,0,0,0,
2026-04-27 05:30:00,METAR LEIB 270530Z VRB01KT 9999 SCT016 12/11 Q1018 NOSIG,0,1,0,10000,0,0,0,
2026-04-27 05:00:00,METAR LEIB 270500Z 36003KT 9999 FEW015 13/12 Q1018 NOSIG,0,3,0,10000,0,0,0,
2026-04-27 04:30:00,METAR LEIB 270430Z 00000KT 9999 FEW017 12/11 Q1018 NOSIG,0,0,0,10000,0,0,0,
2026-04-27 04:00:00,METAR LEIB 270400Z VRB01KT 9999 FEW016 13/12 Q1018 NOSIG,0,1,0,10000,0,0,0,
2026-04-27 03:30:00,METAR LEIB 270330Z 01003KT 330V050 9999 FEW017 13/12 Q1018 NOSIG,0,3,0,10000,0,0,0,
2026-04-27 03:00:00,METAR LEIB 270300Z VRB01KT 9999 SCT016 13/12 Q1018 NOSIG,0,1,0,10000,0,0,0,
2026-04-27 02:30:00,METAR LEIB 270230Z 36004KT 9999 SCT017 13/12 Q1018 NOSIG,0,4,0,10000,0,0,0,
2026-04-27 02:00:00,METAR LEIB 270200Z 01004KT 360V140 9999 FEW017 13/12 Q1018 NOSIG,0,4,0,10000,0,0,0,
2026-04-27 01:30:00,METAR LEIB 270130Z 36003KT 9999 SCT017 13/12 Q1018 NOSIG,0,3,0,10000,0,0,0,
2026-04-27 01:00:00,METAR LEIB 270100Z 01004KT 9999 SCT017 14/12 Q1019 NOSIG,0,4,0,10000,0,0,0,
2026-04-27 00:30:00,METAR LEIB 270030Z 02004KT 9999 FEW016 14/12 Q1019 NOSIG,0,4,0,10000,0,0,0,
2026-04-27 00:00:00,METAR LEIB 270000Z 03005KT 9999 FEW016 14/12 Q1019 NOSIG,0,5,0,10000,0,0,0,
2026-04-26 23:30:00,METAR LEIB 262330Z 02005KT 9999 FEW016 14/12 Q1019 NOSIG,0,5,0,10000,0,0,0,
2026-04-26 23:00:00,METAR LEIB 262300Z 01004KT CAVOK 14/12 Q1019 NOSIG,1,0,0,9999,0,0,0,
2026-04-26 22:30:00,METAR LEIB 262230Z 02005KT 9999 FEW016 14/12 Q1019 NOSIG,0,5,0,10000,0,0,0,
2026-04-26 22:00:00,METAR LEIB 262200Z 01005KT 340V060 CAVOK 15/12 Q1019 NOSIG,1,0,0,9999,0,0,0,
2026-04-26 21:30:00,METAR LEIB 262130Z VRB02KT CAVOK 15/12 Q1019 NOSIG,1,0,0,9999,0,0,0,
2026-04-26 21:00:00,METAR LEIB 262100Z 04003KT 020V080 CAVOK 16/13 Q1019 NOSIG,1,0,0,9999,0,0,0,
2026-04-26 20:30:00,METAR LEIB 262030Z 06005KT CAVOK 16/13 Q1019 NOSIG,1,0,0,9999,0,0,0,
2026-04-26 20:00:00,METAR LEIB 262000Z 06005KT CAVOK 16/13 Q1019 NOSIG,1,0,0,9999,0,0,0,
2026-04-26 19:30:00,METAR LEIB 261930Z 07006KT CAVOK 16/13 Q1018 NOSIG,1,0,0,9999,0,0,0,
2026-04-26 19:00:00,METAR LEIB 261900Z 08006KT 050V110 CAVOK 17/14 Q1018 NOSIG,1,0,0,9999,0,0,0,
2026-04-26 18:30:00,METAR LEIB 261830Z 08006KT CAVOK 18/14 Q1018 NOSIG,1,0,0,9999,0,0,0,
2026-04-26 18:00:00,METAR LEIB 261800Z 07006KT CAVOK 18/13 Q1018 NOSIG,1,0,0,9999,0,0,0,
2026-04-26 17:30:00,METAR LEIB 261730Z 08007KT CAVOK 18/13 Q1018 NOSIG,1,0,0,9999,0,0,0,
2026-04-26 17:00:00,METAR LEIB 261700Z 08006KT 050V110 CAVOK 19/13 Q1018 NOSIG,1,0,0,9999,0,0,0,
2026-04-26 16:30:00,METAR LEIB 261630Z 09006KT 020V140 CAVOK 19/13 Q1018 NOSIG,1,0,0,9999,0,0,0,
2026-04-26 16:00:00,METAR LEIB 261600Z 09007KT 060V130 CAVOK 19/13 Q1018 NOSIG,1,0,0,9999,0,0,0,
2026-04-26 15:30:00,METAR LEIB 261530Z 09006KT 050V130 CAVOK 19/13 Q1018 NOSIG,1,0,0,9999,0,0,0,
2026-04-26 15:00:00,METAR LEIB 261500Z 09006KT 050V140 CAVOK 19/14 Q1018 NOSIG,1,0,0,9999,0,0,0,
2026-04-26 14:30:00,METAR LEIB 261430Z 09007KT 050V140 CAVOK 19/13 Q1019 NOSIG,1,0,0,9999,0,0,0,
2026-04-26 14:00:00,METAR LEIB 261400Z 09008KT 050V140 9999 FEW020 19/13 Q1019 NOSIG,0,8,0,10000,0,0,0,
2026-04-26 13:30:00,METAR LEIB 261330Z 11008KT 060V150 9999 FEW020 20/13 Q1019 NOSIG,0,8,0,10000,0,0,0,
2026-04-26 13:00:00,METAR LEIB 261300Z 11009KT 060V150 9999 FEW020 19/13 Q1019 NOSIG,0,9,0,10000,0,0,0,
2026-04-26 12:30:00,METAR LEIB 261230Z 10010KT 070V150 9999 FEW020 19/13 Q1019 NOSIG,0,10,0,10000,0,0,0,
2026-04-26 12:00:00,METAR LEIB 261200Z 10009KT 070V160 9999 FEW020 19/13 Q1019 NOSIG,0,9,0,10000,0,0,0,
2026-04-26 11:30:00,METAR LEIB 261130Z 10008KT 060V140 CAVOK 20/13 Q1019 NOSIG,1,0,0,9999,0,0,0,
2026-04-26 11:00:00,METAR LEIB 261100Z 08009KT 050V120 9999 FEW018 19/13 Q1019 NOSIG,0,9,0,10000,0,0,0,
2026-04-26 10:30:00,METAR LEIB 261030Z 10007KT 050V200 9999 FEW018 19/13 Q1019 NOSIG,0,7,0,10000,0,0,0,
2026-04-26 10:00:00,METAR LEIB 261000Z 09009KT 050V130 9999 FEW018 19/12 Q1019 NOSIG,0,9,0,10000,0,0,0,
2026-04-26 09:30:00,METAR LEIB 260930Z 10009KT 060V150 9999 FEW018 19/12 Q1019 NOSIG,0,9,0,10000,0,0,0,
2026-04-26 09:00:00,METAR LEIB 260900Z 09008KT 060V140 9999 SCT019 18/12 Q1019 NOSIG,0,8,0,10000,0,0,0,
2026-04-26 08:30:00,METAR LEIB 260830Z 10011KT 060V140 9999 SCT019 18/12 Q1019 NOSIG,0,11,0,10000,0,0,0,
2026-04-26 08:00:00,METAR LEIB 260800Z 08010KT 9999 FEW020 17/12 Q1019 NOSIG,0,10,0,10000,0,0,0,
2026-04-26 07:30:00,METAR LEIB 260730Z 07006KT 030V120 9999 FEW020 16/13 Q1018 NOSIG,0,6,0,10000,0,0,0,
2026-04-26 07:00:00,METAR LEIB 260700Z 05007KT 9999 FEW020 15/12 Q1018 NOSIG,0,7,0,10000,0,0,0,
2026-04-26 06:30:00,METAR LEIB 260630Z 08007KT 030V120 9999 FEW020 15/12 Q1018 NOSIG,0,7,0,10000,0,0,0,
2026-04-26 06:00:00,METAR LEIB 260600Z 06007KT 020V080 9999 FEW020 14/12 Q1017 NOSIG,0,7,0,10000,0,0,0,
2026-04-26 05:30:00,METAR LEIB 260530Z 04007KT 9999 FEW020 14/12 Q1017 NOSIG,0,7,0,10000,0,0,0,
2026-04-26 05:00:00,METAR LEIB 260500Z 04006KT 9999 FEW020 12/10 Q1017 NOSIG,0,6,0,10000,0,0,0,
2026-04-26 04:30:00,METAR LEIB 260430Z 01006KT 9999 FEW020 12/11 Q1017 NOSIG,0,6,0,10000,0,0,0,
2026-04-26 04:00:00,METAR LEIB 260400Z 01004KT 9999 SCT020 11/10 Q1017 NOSIG,0,4,0,10000,0,0,0,
2026-04-26 03:30:00,METAR LEIB 260330Z 01003KT 9999 SCT020 12/10 Q1017 NOSIG,0,3,0,10000,0,0,0,
2026-04-26 03:00:00,METAR LEIB 260300Z 36003KT 9999 SCT018 12/11 Q1017 NOSIG,0,3,0,10000,0,0,0,
2026-04-26 02:30:00,METAR LEIB 260230Z 00000KT 9999 SCT018 12/10 Q1018 NOSIG,0,0,0,10000,0,0,0,
2026-04-26 02:00:00,METAR LEIB 260200Z VRB01KT 9999 SCT018 12/10 Q1018 NOSIG,0,1,0,10000,0,0,0,
2026-04-26 01:30:00,METAR LEIB 260130Z VRB02KT 9999 SCT018 12/11 Q1018 NOSIG,0,2,0,10000,0,0,0,
2026-04-26 01:00:00,METAR LEIB 260100Z VRB02KT 9999 FEW018 12/10 Q1018 NOSIG,0,2,0,10000,0,0,0,
2026-04-26 00:30:00,METAR LEIB 260030Z VRB01KT 9999 FEW018 12/10 Q1018 NOSIG,0,1,0,10000,0,0,0,
2026-04-26 00:00:00,METAR LEIB 260000Z 34003KT 9999 FEW018 12/11 Q1018 NOSIG,0,3,0,10000,0,0,0,
2026-04-25 23:30:00,METAR LEIB 252330Z 34003KT 9999 FEW018 13/11 Q1018 NOSIG,0,3,0,10000,0,0,0,
2026-04-25 23:00:00,METAR LEIB 252300Z 01004KT 9999 FEW018 13/11 Q1018 NOSIG,0,4,0,10000,0,0,0,
2026-04-25 22:30:00,METAR LEIB 252230Z 03005KT 9999 FEW018 14/11 Q1018 NOSIG,0,5,0,10000,0,0,0,
2026-04-25 22:00:00,METAR LEIB 252200Z 04005KT 9999 FEW018 14/12 Q1018 NOSIG,0,5,0,10000,0,0,0,
2026-04-25 21:30:00,METAR LEIB 252130Z 05006KT CAVOK 15/12 Q1018 NOSIG,1,0,0,9999,0,0,0,
2026-04-25 21:00:00,METAR LEIB 252100Z 08007KT 050V110 9999 FEW018 16/12 Q1018 NOSIG,0,7,0,10000,0,0,0,
2026-04-25 20:30:00,METAR LEIB 252030Z 07007KT 9999 FEW018 16/12 Q1018 NOSIG,0,7,0,10000,0,0,0,
2026-04-25 20:00:00,METAR LEIB 252000Z 08007KT 050V110 9999 FEW018 16/12 Q1018 NOSIG,0,7,0,10000,0,0,0,
2026-04-25 19:30:00,METAR LEIB 251930Z 10006KT 060V120 9999 FEW018 16/12 Q1017 NOSIG,0,6,0,10000,0,0,0,
2026-04-25 19:00:00,METAR LEIB 251900Z 09006KT 9999 FEW012 16/12 Q1017 NOSIG,0,6,0,10000,0,0,0,
2026-04-25 18:30:00,METAR LEIB 251830Z 08006KT 9999 FEW014 16/12 Q1017 NOSIG,0,6,0,10000,0,0,0,
2026-04-25 18:00:00,METAR LEIB 251800Z 09007KT 050V140 9999 FEW014 17/12 Q1017 NOSIG,0,7,0,10000,0,0,0,
2026-04-25 17:30:00,METAR LEIB 251730Z 09007KT 9999 FEW014 17/12 Q1017 NOSIG,0,7,0,10000,0,0,0,
2026-04-25 17:00:00,METAR LEIB 251700Z 09007KT 9999 FEW014 18/12 Q1017 NOSIG,0,7,0,10000,0,0,0,
2026-04-25 16:30:00,METAR LEIB 251630Z 10008KT 080V150 9999 FEW014 18/12 Q1017 NOSIG,0,8,0,10000,0,0,0,
2026-04-25 16:00:00,METAR LEIB 251600Z 11009KT 070V140 9999 FEW014 18/12 Q1016 NOSIG,0,9,0,10000,0,0,0,
2026-04-25 15:30:00,METAR LEIB 251530Z 10009KT 070V140 9999 FEW014 18/13 Q1016 NOSIG,0,9,0,10000,0,0,0,
2026-04-25 15:00:00,METAR LEIB 251500Z 12007KT 080V150 9999 FEW014 18/13 Q1017 NOSIG,0,7,0,10000,0,0,0,
2026-04-25 14:30:00,METAR LEIB 251430Z 10008KT 070V150 9999 FEW014 18/13 Q1017 NOSIG,0,8,0,10000,0,0,0,
2026-04-25 14:00:00,METAR LEIB 251400Z 10007KT 060V150 9999 FEW014 18/12 Q1017 NOSIG,0,7,0,10000,0,0,0,
2026-04-25 13:30:00,METAR LEIB 251330Z 10008KT 050V150 9999 FEW014 19/13 Q1017 NOSIG,0,8,0,10000,0,0,0,
2026-04-25 13:00:00,METAR LEIB 251300Z 10009KT 060V140 9999 FEW014 19/12 Q1018 NOSIG,0,9,0,10000,0,0,0,
2026-04-25 12:30:00,METAR LEIB 251230Z 10008KT 060V160 9999 FEW014 19/13 Q1018 NOSIG,0,8,0,10000,0,0,0,
2026-04-25 12:00:00,METAR LEIB 251200Z 11008KT 070V140 9999 FEW016 19/12 Q1018 NOSIG,0,8,0,10000,0,0,0,
2026-04-25 11:30:00,METAR LEIB 251130Z 10007KT 050V140 9999 FEW016 19/13 Q1018 NOSIG,0,7,0,10000,0,0,0,
2026-04-25 11:00:00,METAR LEIB 251100Z 10007KT 070V140 9999 SCT016 18/12 Q1018 NOSIG,0,7,0,10000,0,0,0,
2026-04-25 10:30:00,METAR LEIB 251030Z 10009KT 060V140 9999 SCT016 18/13 Q1018 NOSIG,0,9,0,10000,0,0,0,
2026-04-25 10:00:00,METAR LEIB 251000Z 09009KT 060V140 9999 SCT016 19/13 Q1018 NOSIG,0,9,0,10000,0,0,0,
2026-04-25 09:30:00,METAR LEIB 250930Z 10009KT 040V140 9999 SCT016 19/13 Q1018 NOSIG,0,9,0,10000,0,0,0,
2026-04-25 09:00:00,METAR LEIB 250900Z 09010KT 060V140 9999 SCT015 18/13 Q1018 NOSIG,0,10,0,10000,0,0,0,
2026-04-25 08:30:00,METAR LEIB 250830Z 09010KT 060V120 9999 SCT015 19/13 Q1018 NOSIG,0,10,0,10000,0,0,0,
2026-04-25 08:00:00,METAR LEIB 250800Z 08010KT 060V120 9999 SCT013 18/13 Q1018 NOSIG,0,10,0,10000,0,0,0,
2026-04-25 07:30:00,METAR LEIB 250730Z 08007KT 050V110 9999 SCT013 18/14 Q1018 NOSIG,0,7,0,10000,0,0,0,
2026-04-25 07:00:00,METAR LEIB 250700Z 05007KT 9999 FEW013 17/14 Q1017 NOSIG,0,7,0,10000,0,0,0,
2026-04-25 06:30:00,METAR LEIB 250630Z 05006KT 9999 FEW013 16/13 Q1017 NOSIG,0,6,0,10000,0,0,0,
2026-04-25 06:00:00,METAR LEIB 250600Z 05004KT 9999 FEW014 15/13 Q1017 NOSIG,0,4,0,10000,0,0,0,
2026-04-25 05:30:00,METAR LEIB 250530Z 04005KT 9999 FEW014 14/13 Q1017 NOSIG,0,5,0,10000,0,0,0,
2026-04-25 05:00:00,METAR LEIB 250500Z 02005KT 9999 FEW014 13/12 Q1017 NOSIG,0,5,0,10000,0,0,0,
2026-04-25 04:30:00,METAR LEIB 250430Z 36004KT 320V020 9999 FEW014 13/12 Q1017 NOSIG,0,4,0,10000,0,0,0,
2026-04-25 04:00:00,METAR LEIB 250400Z 01004KT 9999 FEW014 13/12 Q1017 NOSIG,0,4,0,10000,0,0,0,
2026-04-25 03:30:00,METAR LEIB 250330Z 03003KT 9999 FEW014 14/12 Q1017 NOSIG,0,3,0,10000,0,0,0,
2026-04-25 03:00:00,METAR LEIB 250300Z 02005KT 9999 SCT014 14/12 Q1017 NOSIG,0,5,0,10000,0,0,0,
2026-04-25 02:30:00,METAR LEIB 250230Z VRB02KT 9999 SCT014 14/12 Q1017 NOSIG,0,2,0,10000,0,0,0,
2026-04-25 02:00:00,METAR LEIB 250200Z 01003KT 330V050 9999 FEW014 14/12 Q1017 NOSIG,0,3,0,10000,0,0,0,
2026-04-25 01:30:00,METAR LEIB 250130Z 36004KT 9999 FEW015 14/12 Q1017 NOSIG,0,4,0,10000,0,0,0,
2026-04-25 01:00:00,METAR LEIB 250100Z VRB01KT 9999 FEW015 13/12 Q1017 NOSIG,0,1,0,10000,0,0,0,
2026-04-25 00:30:00,METAR LEIB 250030Z 05004KT 9999 FEW015 13/12 Q1017 NOSIG,0,4,0,10000,0,0,0,
2026-04-25 00:00:00,METAR LEIB 250000Z VRB02KT 9999 FEW018 15/12 Q1018 NOSIG,0,2,0,10000,0,0,0,
2026-04-24 23:30:00,METAR LEIB 242330Z 36003KT 330V040 9999 FEW018 15/13 Q1017 NOSIG,0,3,0,10000,0,0,0,
2026-04-24 23:00:00,METAR LEIB 242300Z 03006KT 9999 FEW018 16/13 Q1017 NOSIG,0,6,0,10000,0,0,0,
2026-04-24 22:30:00,METAR LEIB 242230Z 07007KT 9999 FEW018 16/13 Q1017 NOSIG,0,7,0,10000,0,0,0,
2026-04-24 22:00:00,METAR LEIB 242200Z 07013KT 9999 FEW018 17/13 Q1017 NOSIG,0,13,0,10000,0,0,0,
2026-04-24 21:30:00,METAR LEIB 242130Z 08009KT 9999 FEW018 17/13 Q1018 NOSIG,0,9,0,10000,0,0,0,
2026-04-24 21:00:00,METAR LEIB 242100Z 11008KT 070V150 9999 BKN017 17/13 Q1018 NOSIG,0,8,0,10000,0,0,0,
2026-04-24 20:30:00,METAR LEIB 242030Z 10007KT 070V140 9999 BKN017 17/13 Q1018 NOSIG,0,7,0,10000,0,0,0,
2026-04-24 20:00:00,METAR LEIB 242000Z 09006KT 050V120 9999 SCT017 17/13 Q1018 NOSIG,0,6,0,10000,0,0,0,
2026-04-24 19:30:00,METAR LEIB 241930Z 08006KT 9999 SCT016 17/13 Q1018 NOSIG,0,6,0,10000,0,0,0,
2026-04-24 19:00:00,METAR LEIB 241900Z 08006KT 9999 FEW015 17/14 Q1017 NOSIG,0,6,0,10000,0,0,0,
2026-04-24 18:30:00,METAR LEIB 241830Z 08005KT 9999 SCT014 17/14 Q1017 NOSIG,0,5,0,10000,0,0,0,
2026-04-24 18:00:00,METAR LEIB 241800Z 08004KT 050V110 9999 SCT013 17/14 Q1017 NOSIG,0,4,0,10000,0,0,0,
2026-04-24 17:30:00,METAR LEIB 241730Z 08006KT 050V110 9999 FEW014 18/14 Q1017 NOSIG,0,6,0,10000,0,0,0,
2026-04-24 17:00:00,METAR LEIB 241700Z 10007KT 9999 FEW014 18/14 Q1017 NOSIG,0,7,0,10000,0,0,0,
2026-04-24 16:30:00,METAR LEIB 241630Z 11007KT 070V160 9999 FEW032 19/14 Q1017 NOSIG,0,7,0,10000,0,0,0,
2026-04-24 16:00:00,METAR LEIB 241600Z 09009KT 050V120 9999 FEW035 19/14 Q1017 NOSIG,0,9,0,10000,0,0,0,
2026-04-24 15:30:00,METAR LEIB 241530Z 08010KT 060V120 9999 FEW035 19/14 Q1017 NOSIG,0,10,0,10000,0,0,0,
2026-04-24 15:00:00,METAR LEIB 241500Z 09012KT 9999 FEW035 19/14 Q1017 NOSIG,0,12,0,10000,0,0,0,
2026-04-24 14:30:00,METAR LEIB 241430Z 08011KT 9999 FEW035 19/14 Q1017 NOSIG,0,11,0,10000,0,0,0,
2026-04-24 14:00:00,METAR LEIB 241400Z 08014KT 050V110 9999 FEW035 20/14 Q1017 NOSIG,0,14,0,10000,0,0,0,
2026-04-24 13:30:00,METAR LEIB 241330Z 08015KT 050V110 9999 FEW032 19/13 Q1017 NOSIG,0,15,0,10000,0,0,0,
2026-04-24 13:00:00,METAR LEIB 241300Z 08014KT 050V110 9999 FEW020 20/13 Q1017 NOSIG,0,14,0,10000,0,0,0,
2026-04-24 12:30:00,METAR LEIB 241230Z 08013KT 040V110 9999 FEW025 19/13 Q1017 NOSIG,0,13,0,10000,0,0,0,
2026-04-24 12:00:00,METAR LEIB 241200Z 08012KT 050V110 9999 FEW025 20/13 Q1018 NOSIG,0,12,0,10000,0,0,0,
2026-04-24 11:30:00,METAR LEIB 241130Z 08012KT 9999 FEW028 19/14 Q1018 NOSIG,0,12,0,10000,0,0,0,
2026-04-24 11:00:00,METAR LEIB 241100Z 09013KT 060V120 9999 FEW032 20/13 Q1018 NOSIG,0,13,0,10000,0,0,0,
2026-04-24 10:30:00,METAR LEIB 241030Z 08012KT 050V110 9999 FEW025 20/13 Q1018 NOSIG,0,12,0,10000,0,0,0,
2026-04-24 10:00:00,METAR LEIB 241000Z 08010KT 050V110 9999 FEW023 19/13 Q1018 NOSIG,0,10,0,10000,0,0,0,
2026-04-24 09:30:00,METAR LEIB 240930Z 07011KT 050V110 9999 FEW030 19/13 Q1018 NOSIG,0,11,0,10000,0,0,0,
2026-04-24 09:00:00,METAR LEIB 240900Z 08012KT 9999 FEW032 19/11 Q1018 NOSIG,0,12,0,10000,0,0,0,
2026-04-24 08:30:00,METAR LEIB 240830Z 08011KT 050V110 9999 FEW035 20/11 Q1018 NOSIG,0,11,0,10000,0,0,0,
2026-04-24 08:00:00,METAR LEIB 240800Z 06009KT 030V090 9999 FEW035 18/11 Q1018 NOSIG,0,9,0,10000,0,0,0,
2026-04-24 07:30:00,METAR LEIB 240730Z 05010KT 9999 FEW032 18/10 Q1017 NOSIG,0,10,0,10000,0,0,0,
2026-04-24 07:00:00,METAR LEIB 240700Z 04008KT CAVOK 18/10 Q1017 NOSIG,1,0,0,9999,0,0,0,
2026-04-24 06:30:00,METAR LEIB 240630Z 05013KT CAVOK 17/10 Q1017 NOSIG,1,0,0,9999,0,0,0,
2026-04-24 06:00:00,METAR LEIB 240600Z 05013KT CAVOK 17/11 Q1016 NOSIG,1,0,0,9999,0,0,0,
2026-04-24 05:30:00,METAR LEIB 240530Z 06012KT CAVOK 17/11 Q1016 NOSIG,1,0,0,9999,0,0,0,
2026-04-24 05:00:00,METAR LEIB 240500Z 06013KT CAVOK 17/12 Q1016 NOSIG,1,0,0,9999,0,0,0,
2026-04-24 04:30:00,METAR LEIB 240430Z 06011KT CAVOK 17/12 Q1016 NOSIG,1,0,0,9999,0,0,0,
2026-04-24 04:00:00,METAR LEIB 240400Z 06011KT CAVOK 17/12 Q1016 NOSIG,1,0,0,9999,0,0,0,
2026-04-24 03:30:00,METAR LEIB 240330Z 07010KT 030V100 9999 FEW016 17/13 Q1016 NOSIG,0,10,0,10000,0,0,0,
2026-04-24 03:00:00,METAR LEIB 240300Z 07012KT 9999 SCT015 BKN017 17/14 Q1016 NOSIG,0,12,0,10000,0,0,0,
2026-04-24 02:30:00,METAR LEIB 240230Z 07012KT 030V100 9999 FEW013 SCT024 17/14 Q1016 NOSIG,0,12,0,10000,0,0,0,
2026-04-24 02:00:00,METAR LEIB 240200Z 07012KT 9999 FEW012 SCT014 BKN018 18/15 Q1017 NOSIG,0,12,0,10000,0,0,0,
2026-04-24 01:30:00,METAR LEIB 240130Z 07010KT 050V110 9999 FEW013 SCT016 BKN020 18/15 Q1017 NOSIG,0,10,0,10000,0,0,0,
2026-04-24 01:00:00,METAR LEIB 240100Z 07011KT 9999 FEW013 SCT015 BKN018 17/14 Q1017 NOSIG,0,11,0,10000,0,0,0,
2026-04-24 00:30:00,METAR LEIB 240030Z 07012KT 9999 FEW012 BKN015 17/15 Q1017 NOSIG,0,12,0,10000,0,0,0,
2026-04-24 00:00:00,METAR LEIB 240000Z 08012KT 050V110 9999 SCT014 BKN016 OVC020 18/15 Q1017 NOSIG,0,12,0,10000,0,0,0,
2026-04-23 23:30:00,METAR LEIB 232330Z 08012KT 9999 FEW014 SCT017 BKN020 17/14 Q1017 NOSIG,0,12,0,10000,0,0,0,
2026-04-23 23:00:00,METAR LEIB 232300Z 07013KT 9999 FEW012 SCT014 BKN017 18/14 Q1017 NOSIG,0,13,0,10000,0,0,0,
2026-04-23 22:30:00,METAR LEIB 232230Z 07013KT 9999 FEW010 BKN013 OVC017 18/15 Q1017 NOSIG,0,13,0,10000,0,0,0,
2026-04-23 22:07:00,SPECI LEIB 232207Z 08013KT 9999 FEW010 BKN013 OVC017 18/15 Q1017 NOSIG,0,13,0,10000,0,0,0,
2026-04-23 22:00:00,METAR LEIB 232200Z 07013KT 9999 SCT012 OVC015 18/15 Q1017 NOSIG,0,13,0,10000,0,0,0,
2026-04-23 21:30:00,METAR LEIB 232130Z 07014KT 050V110 9999 FEW014 SCT020 18/15 Q1016 NOSIG,0,14,0,10000,0,0,0,
2026-04-23 21:00:00,METAR LEIB 232100Z 07014KT 9999 FEW012 BKN020 18/15 Q1017 NOSIG,0,14,0,10000,0,0,0,
2026-04-23 20:30:00,METAR LEIB 232030Z 08012KT 9999 FEW016 BKN018 18/15 Q1017 NOSIG,0,12,0,10000,0,0,0,
2026-04-23 20:00:00,METAR LEIB 232000Z 08012KT 9999 SCT013 BKN016 OVC019 18/14 Q1017 NOSIG,0,12,0,10000,0,0,0,
2026-04-23 19:30:00,METAR LEIB 231930Z 07012KT 050V110 9999 SCT013 BKN015 OVC018 18/15 Q1017 NOSIG,0,12,0,10000,0,0,0,
2026-04-23 19:00:00,METAR LEIB 231900Z 09012KT 060V120 9999 SCT010 BKN013 18/15 Q1017 NOSIG,0,12,0,10000,0,0,0,
2026-04-23 18:30:00,METAR LEIB 231830Z 08011KT 040V110 9999 SCT011 BKN014 18/15 Q1016 NOSIG,0,11,0,10000,0,0,0,
2026-04-23 18:00:00,METAR LEIB 231800Z 08011KT 050V110 9999 SCT011 BKN013 18/16 Q1016 NOSIG,0,11,0,10000,0,0,0,
2026-04-23 17:30:00,METAR LEIB 231730Z 07010KT 9999 SCT012 BKN014 19/15 Q1016 NOSIG,0,10,0,10000,0,0,0,
2026-04-23 17:00:00,METAR LEIB 231700Z 07012KT CAVOK 19/15 Q1016 NOSIG,1,0,0,9999,0,0,0,
2026-04-23 16:30:00,METAR LEIB 231630Z 08011KT 050V110 CAVOK 20/14 Q1016 NOSIG,1,0,0,9999,0,0,0,
2026-04-23 16:00:00,METAR LEIB 231600Z 08013KT 050V110 CAVOK 20/14 Q1016 NOSIG,1,0,0,9999,0,0,0,
2026-04-23 15:30:00,METAR LEIB 231530Z 08012KT 050V110 CAVOK 21/13 Q1016 NOSIG,1,0,0,9999,0,0,0,
2026-04-23 15:00:00,METAR LEIB 231500Z 07013KT 040V110 CAVOK 21/12 Q1016 NOSIG,1,0,0,9999,0,0,0,
2026-04-23 14:30:00,METAR LEIB 231430Z 07013KT 040V100 CAVOK 21/13 Q1016 NOSIG,1,0,0,9999,0,0,0,
2026-04-23 14:00:00,METAR LEIB 231400Z 08013KT 050V110 CAVOK 21/14 Q1017 NOSIG,1,0,0,9999,0,0,0,
2026-04-23 13:30:00,METAR LEIB 231330Z 08012KT 050V110 CAVOK 21/15 Q1017 NOSIG,1,0,0,9999,0,0,0,
2026-04-23 13:00:00,METAR LEIB 231300Z 08011KT 050V110 CAVOK 21/15 Q1017 NOSIG,1,0,0,9999,0,0,0,
2026-04-23 12:30:00,METAR LEIB 231230Z 07011KT 050V110 CAVOK 21/14 Q1017 NOSIG,1,0,0,9999,0,0,0,
2026-04-23 12:00:00,METAR LEIB 231200Z 08010KT 040V110 CAVOK 21/14 Q1017 NOSIG,1,0,0,9999,0,0,0,
2026-04-23 11:30:00,METAR LEIB 231130Z 08012KT 050V110 CAVOK 21/15 Q1018 NOSIG,1,0,0,9999,0,0,0,
2026-04-23 11:00:00,METAR LEIB 231100Z 08013KT 050V110 CAVOK 20/15 Q1018 NOSIG,1,0,0,9999,0,0,0,
2026-04-23 10:30:00,METAR LEIB 231030Z 07011KT 040V110 CAVOK 21/15 Q1018 NOSIG,1,0,0,9999,0,0,0,
2026-04-23 10:00:00,METAR LEIB 231000Z 07011KT 050V120 CAVOK 20/15 Q1018 NOSIG,1,0,0,9999,0,0,0,
2026-04-23 09:30:00,METAR LEIB 230930Z 08013KT 050V110 CAVOK 20/16 Q1017 NOSIG,1,0,0,9999,0,0,0,
2026-04-23 09:00:00,METAR LEIB 230900Z 08012KT CAVOK 20/15 Q1017 NOSIG,1,0,0,9999,0,0,0,
2026-04-23 08:30:00,METAR LEIB 230830Z 08011KT 050V110 CAVOK 21/13 Q1017 NOSIG,1,0,0,9999,0,0,0,
2026-04-23 08:00:00,METAR LEIB 230800Z 07009KT 040V100 CAVOK 21/14 Q1017 NOSIG,1,0,0,9999,0,0,0,
2026-04-23 07:30:00,METAR LEIB 230730Z 07008KT CAVOK 20/14 Q1017 NOSIG,1,0,0,9999,0,0,0,
2026-04-23 07:00:00,METAR LEIB 230700Z 05008KT 020V080 CAVOK 19/15 Q1016 NOSIG,1,0,0,9999,0,0,0,
2026-04-23 06:30:00,METAR LEIB 230630Z 05007KT CAVOK 18/15 Q1016 NOSIG,1,0,0,9999,0,0,0,
2026-04-23 06:00:00,METAR LEIB 230600Z 05007KT 9999 NSC 17/16 Q1016 NOSIG,0,7,0,10000,0,0,0,
2026-04-23 05:30:00,METAR LEIB 230530Z 05007KT CAVOK 17/15 Q1016 NOSIG,1,0,0,9999,0,0,0,
2026-04-23 05:00:00,METAR LEIB 230500Z 05006KT CAVOK 16/15 Q1015 NOSIG,1,0,0,9999,0,0,0,
2026-04-23 04:30:00,METAR LEIB 230430Z 05005KT CAVOK 16/15 Q1015 NOSIG,1,0,0,9999,0,0,0,
2026-04-23 04:00:00,METAR LEIB 230400Z 05005KT CAVOK 15/14 Q1015 NOSIG,1,0,0,9999,0,0,0,
2026-04-23 03:30:00,METAR LEIB 230330Z 02004KT CAVOK 16/15 Q1015 NOSIG,1,0,0,9999,0,0,0,
2026-04-23 03:00:00,METAR LEIB 230300Z 03004KT CAVOK 16/15 Q1015 NOSIG,1,0,0,9999,0,0,0,
2026-04-23 02:30:00,METAR LEIB 230230Z 05004KT CAVOK 16/15 Q1015 NOSIG,1,0,0,9999,0,0,0,
2026-04-23 02:00:00,METAR LEIB 230200Z 04005KT 9999 FEW007 17/16 Q1015 NOSIG,0,5,0,10000,0,0,0,
2026-04-23 01:30:00,METAR LEIB 230130Z 06006KT 9999 FEW007 17/16 Q1015 NOSIG,0,6,0,10000,0,0,0,
2026-04-23 01:00:00,METAR LEIB 230100Z 06006KT 9999 FEW007 17/16 Q1015 NOSIG,0,6,0,10000,0,0,0,
2026-04-23 00:30:00,METAR LEIB 230030Z 07007KT 050V110 9999 FEW010 17/16 Q1015 NOSIG,0,7,0,10000,0,0,0,
2026-04-23 00:00:00,METAR LEIB 230000Z 04004KT 9999 FEW010 17/16 Q1015 NOSIG,0,4,0,10000,0,0,0,
2026-04-22 23:30:00,METAR LEIB 222330Z 06006KT CAVOK 17/16 Q1015 NOSIG,1,0,0,9999,0,0,0,
2026-04-22 23:00:00,METAR LEIB 222300Z 05005KT CAVOK 17/15 Q1016 NOSIG,1,0,0,9999,0,0,0,
2026-04-22 22:30:00,METAR LEIB 222230Z 08006KT 060V120 CAVOK 18/16 Q1015 NOSIG,1,0,0,9999,0,0,0,
2026-04-22 22:00:00,METAR LEIB 222200Z 07004KT CAVOK 18/16 Q1015 NOSIG,1,0,0,9999,0,0,0,
2026-04-22 21:30:00,METAR LEIB 222130Z 06003KT 360V100 CAVOK 17/15 Q1015 NOSIG,1,0,0,9999,0,0,0,
2026-04-22 21:00:00,METAR LEIB 222100Z 01003KT 260V060 CAVOK 18/15 Q1014 NOSIG,1,0,0,9999,0,0,0,
2026-04-22 20:30:00,METAR LEIB 222030Z 06004KT CAVOK 18/16 Q1014 NOSIG,1,0,0,9999,0,0,0,
2026-04-22 20:00:00,METAR LEIB 222000Z 06003KT CAVOK 19/17 Q1014 NOSIG,1,0,0,9999,0,0,0,
2026-04-22 19:30:00,METAR LEIB 221930Z 06004KT 040V100 CAVOK 19/17 Q1013 NOSIG,1,0,0,9999,0,0,0,
2026-04-22 19:00:00,METAR LEIB 221900Z 07005KT CAVOK 19/17 Q1013 NOSIG,1,0,0,9999,0,0,0,
2026-04-22 18:30:00,METAR LEIB 221830Z 07004KT CAVOK 19/17 Q1013 NOSIG,1,0,0,9999,0,0,0,
2026-04-22 18:00:00,METAR LEIB 221800Z 06003KT 030V100 CAVOK 20/16 Q1012 NOSIG,1,0,0,9999,0,0,0,
2026-04-22 17:30:00,METAR LEIB 221730Z VRB02KT CAVOK 20/16 Q1012 NOSIG,1,0,0,9999,0,0,0,
2026-04-22 17:00:00,METAR LEIB 221700Z 08005KT 020V110 CAVOK 21/16 Q1012 NOSIG,1,0,0,9999,0,0,0,
2026-04-22 16:30:00,METAR LEIB 221630Z 20003KT 140V250 9999 FEW045 21/17 Q1012 NOSIG,0,3,0,10000,0,0,0,
2026-04-22 16:00:00,METAR LEIB 221600Z 22005KT 170V280 9999 FEW040 21/17 Q1013 NOSIG,0,5,0,10000,0,0,0,
2026-04-22 15:30:00,METAR LEIB 221530Z VRB03KT 9999 FEW040 22/17 Q1012 NOSIG,0,3,0,10000,0,0,0,
2026-04-22 15:00:00,METAR LEIB 221500Z 24009KT 210V280 9999 FEW030 21/16 Q1013 NOSIG,0,9,0,10000,0,0,0,
2026-04-22 14:30:00,METAR LEIB 221430Z 24008KT 210V280 9999 FEW030 21/17 Q1013 NOSIG,0,8,0,10000,0,0,0,
2026-04-22 14:00:00,METAR LEIB 221400Z 21007KT 160V250 CAVOK 22/17 Q1013 NOSIG,1,0,0,9999,0,0,0,
2026-04-22 13:30:00,METAR LEIB 221330Z 14006KT 090V200 CAVOK 24/16 Q1013 NOSIG,1,0,0,9999,0,0,0,
2026-04-22 13:00:00,METAR LEIB 221300Z 11006KT 060V150 CAVOK 23/16 Q1013 NOSIG,1,0,0,9999,0,0,0,
2026-04-22 12:30:00,METAR LEIB 221230Z 10007KT 070V140 CAVOK 22/16 Q1013 NOSIG,1,0,0,9999,0,0,0,
2026-04-22 12:00:00,METAR LEIB 221200Z VRB05KT CAVOK 24/16 Q1013 NOSIG,1,0,0,9999,0,0,0,
2026-04-22 11:30:00,METAR LEIB 221130Z 10006KT 060V200 CAVOK 22/17 Q1013 NOSIG,1,0,0,9999,0,0,0,
2026-04-22 11:00:00,METAR LEIB 221100Z VRB03KT CAVOK 23/16 Q1013 NOSIG,1,0,0,9999,0,0,0,
2026-04-22 10:30:00,METAR LEIB 221030Z VRB02KT CAVOK 23/16 Q1013 NOSIG,1,0,0,9999,0,0,0,
2026-04-22 10:00:00,METAR LEIB 221000Z 23005KT 170V290 CAVOK 22/15 Q1013 NOSIG,1,0,0,9999,0,0,0,
2026-04-22 09:30:00,METAR LEIB 220930Z 21005KT 170V240 CAVOK 21/15 Q1013 NOSIG,1,0,0,9999,0,0,0,
2026-04-22 09:00:00,METAR LEIB 220900Z VRB02KT CAVOK 21/16 Q1013 NOSIG,1,0,0,9999,0,0,0,
2026-04-22 08:30:00,METAR LEIB 220830Z 23003KT 170V280 CAVOK 20/16 Q1013 NOSIG,1,0,0,9999,0,0,0,
2026-04-22 08:00:00,METAR LEIB 220800Z VRB01KT CAVOK 20/17 Q1013 NOSIG,1,0,0,9999,0,0,0,
2026-04-22 07:30:00,METAR LEIB 220730Z VRB02KT CAVOK 19/16 Q1012 NOSIG,1,0,0,9999,0,0,0,
2026-04-22 07:00:00,METAR LEIB 220700Z VRB02KT CAVOK 18/15 Q1012 NOSIG,1,0,0,9999,0,0,0,
2026-04-22 06:30:00,METAR LEIB 220630Z VRB02KT 9999 FEW005 16/14 Q1012 NOSIG,0,2,0,10000,0,0,0,
2026-04-22 06:00:00,METAR LEIB 220600Z 02005KT 9999 FEW005 15/14 Q1011 NOSIG,0,5,0,10000,0,0,0,
2026-04-22 05:30:00,METAR LEIB 220530Z 03004KT 9999 FEW004 14/12 Q1011 NOSIG,0,4,0,10000,0,0,0,
2026-04-22 05:00:00,METAR LEIB 220500Z 02004KT CAVOK 14/12 Q1011 NOSIG,1,0,0,9999,0,0,0,
2026-04-22 04:30:00,METAR LEIB 220430Z VRB01KT CAVOK 14/11 Q1011 NOSIG,1,0,0,9999,0,0,0,
2026-04-22 04:00:00,METAR LEIB 220400Z VRB02KT CAVOK 14/11 Q1010 NOSIG,1,0,0,9999,0,0,0,
2026-04-22 03:30:00,METAR LEIB 220330Z VRB02KT CAVOK 12/09 Q1010 NOSIG,1,0,0,9999,0,0,0,
2026-04-22 03:00:00,METAR LEIB 220300Z 36003KT CAVOK 12/09 Q1011 NOSIG,1,0,0,9999,0,0,0,
2026-04-22 02:30:00,METAR LEIB 220230Z VRB02KT CAVOK 12/09 Q1011 NOSIG,1,0,0,9999,0,0,0,
2026-04-22 02:00:00,METAR LEIB 220200Z VRB02KT CAVOK 12/09 Q1011 NOSIG,1,0,0,9999,0,0,0,
2026-04-22 01:30:00,METAR LEIB 220130Z VRB02KT CAVOK 13/09 Q1011 NOSIG,1,0,0,9999,0,0,0,
2026-04-22 01:00:00,METAR LEIB 220100Z 35005KT 320V030 CAVOK 13/09 Q1011 NOSIG,1,0,0,9999,0,0,0,
2026-04-22 00:30:00,METAR LEIB 220030Z 36003KT CAVOK 13/09 Q1011 NOSIG,1,0,0,9999,0,0,0,
2026-04-22 00:00:00,METAR LEIB 220000Z 35003KT 300V020 CAVOK 14/09 Q1011 NOSIG,1,0,0,9999,0,0,0,
2026-04-21 23:30:00,METAR LEIB 212330Z VRB02KT CAVOK 14/09 Q1011 NOSIG,1,0,0,9999,0,0,0,
2026-04-21 23:00:00,METAR LEIB 212300Z 35005KT CAVOK 14/10 Q1011 NOSIG,1,0,0,9999,0,0,0,
2026-04-21 22:30:00,METAR LEIB 212230Z 36005KT CAVOK 14/10 Q1011 NOSIG,1,0,0,9999,0,0,0,
2026-04-21 22:00:00,METAR LEIB 212200Z VRB02KT CAVOK 15/10 Q1011 NOSIG,1,0,0,9999,0,0,0,
2026-04-21 21:30:00,METAR LEIB 212130Z 01005KT CAVOK 15/11 Q1011 NOSIG,1,0,0,9999,0,0,0,
2026-04-21 21:00:00,METAR LEIB 212100Z 01004KT 340V040 CAVOK 16/12 Q1011 NOSIG,1,0,0,9999,0,0,0,
2026-04-21 20:30:00,METAR LEIB 212030Z 01005KT CAVOK 16/13 Q1011 NOSIG,1,0,0,9999,0,0,0,
2026-04-21 20:00:00,METAR LEIB 212000Z 03004KT 300V060 CAVOK 17/14 Q1011 NOSIG,1,0,0,9999,0,0,0,
2026-04-21 19:30:00,METAR LEIB 211930Z 04003KT 010V070 CAVOK 17/15 Q1010 NOSIG,1,0,0,9999,0,0,0,
2026-04-21 19:00:00,METAR LEIB 211900Z 06005KT CAVOK 17/15 Q1010 NOSIG,1,0,0,9999,0,0,0,
2026-04-21 18:30:00,METAR LEIB 211830Z 05004KT CAVOK 18/15 Q1009 NOSIG,1,0,0,9999,0,0,0,
2026-04-21 18:00:00,METAR LEIB 211800Z 08005KT 040V110 CAVOK 19/15 Q1009 NOSIG,1,0,0,9999,0,0,0,
2026-04-21 17:30:00,METAR LEIB 211730Z 08005KT 040V120 CAVOK 19/15 Q1010 NOSIG,1,0,0,9999,0,0,0,
2026-04-21 17:00:00,METAR LEIB 211700Z 09007KT CAVOK 19/15 Q1010 NOSIG,1,0,0,9999,0,0,0,
2026-04-21 16:30:00,METAR LEIB 211630Z 07007KT CAVOK 20/15 Q1010 NOSIG,1,0,0,9999,0,0,0,
2026-04-21 16:00:00,METAR LEIB 211600Z 09007KT 060V140 CAVOK 20/15 Q1009 NOSIG,1,0,0,9999,0,0,0,
2026-04-21 15:30:00,METAR LEIB 211530Z 10006KT 060V140 CAVOK 21/15 Q1010 NOSIG,1,0,0,9999,0,0,0,
2026-04-21 15:00:00,METAR LEIB 211500Z 10005KT 060V150 CAVOK 21/14 Q1010 NOSIG,1,0,0,9999,0,0,0,
2026-04-21 14:30:00,METAR LEIB 211430Z 10007KT 060V150 CAVOK 21/14 Q1010 NOSIG,1,0,0,9999,0,0,0,
2026-04-21 14:00:00,METAR LEIB 211400Z 09007KT 050V130 CAVOK 21/14 Q1010 NOSIG,1,0,0,9999,0,0,0,
2026-04-21 13:30:00,METAR LEIB 211330Z 09006KT 060V120 CAVOK 21/15 Q1011 NOSIG,1,0,0,9999,0,0,0,
2026-04-21 13:00:00,METAR LEIB 211300Z 09006KT 050V150 CAVOK 21/14 Q1011 NOSIG,1,0,0,9999,0,0,0,
2026-04-21 12:30:00,METAR LEIB 211230Z 08005KT 030V150 CAVOK 21/15 Q1011 NOSIG,1,0,0,9999,0,0,0,
2026-04-21 12:00:00,METAR LEIB 211200Z 10006KT 050V140 CAVOK 21/16 Q1011 NOSIG,1,0,0,9999,0,0,0,
2026-04-21 11:30:00,METAR LEIB 211130Z VRB05KT CAVOK 20/16 Q1011 NOSIG,1,0,0,9999,0,0,0,
2026-04-21 11:00:00,METAR LEIB 211100Z 10006KT 050V150 CAVOK 20/16 Q1011 NOSIG,1,0,0,9999,0,0,0,
2026-04-21 10:30:00,METAR LEIB 211030Z 10007KT 060V120 CAVOK 20/16 Q1011 NOSIG,1,0,0,9999,0,0,0,
2026-04-21 10:00:00,METAR LEIB 211000Z 10006KT 060V150 CAVOK 20/16 Q1012 NOSIG,1,0,0,9999,0,0,0,
2026-04-21 09:30:00,METAR LEIB 210930Z 10007KT 060V130 CAVOK 19/16 Q1012 NOSIG,1,0,0,9999,0,0,0,
2026-04-21 09:00:00,METAR LEIB 210900Z 09007KT 050V120 CAVOK 19/16 Q1012 NOSIG,1,0,0,9999,0,0,0,
2026-04-21 08:30:00,METAR LEIB 210830Z 09005KT 040V170 CAVOK 19/16 Q1012 NOSIG,1,0,0,9999,0,0,0,
2026-04-21 08:00:00,METAR LEIB 210800Z 09006KT 050V140 CAVOK 19/16 Q1012 NOSIG,1,0,0,9999,0,0,0,
2026-04-21 07:30:00,METAR LEIB 210730Z 07005KT 030V090 CAVOK 18/16 Q1012 NOSIG,1,0,0,9999,0,0,0,
2026-04-21 07:00:00,METAR LEIB 210700Z VRB02KT CAVOK 18/15 Q1012 NOSIG,1,0,0,9999,0,0,0,
2026-04-21 06:30:00,METAR LEIB 210630Z VRB02KT CAVOK 15/12 Q1012 NOSIG,1,0,0,9999,0,0,0,
2026-04-21 06:00:00,METAR LEIB 210600Z 36003KT 340V040 CAVOK 13/10 Q1012 NOSIG,1,0,0,9999,0,0,0,
2026-04-21 05:30:00,METAR LEIB 210530Z 36005KT CAVOK 12/09 Q1011 NOSIG,1,0,0,9999,0,0,0,
2026-04-21 05:00:00,METAR LEIB 210500Z 02003KT CAVOK 12/10 Q1011 NOSIG,1,0,0,9999,0,0,0,
2026-04-21 04:30:00,METAR LEIB 210430Z 02003KT CAVOK 12/10 Q1011 NOSIG,1,0,0,9999,0,0,0,
2026-04-21 04:00:00,METAR LEIB 210400Z 03003KT 360V060 CAVOK 13/11 Q1011 NOSIG,1,0,0,9999,0,0,0,
2026-04-21 03:30:00,METAR LEIB 210330Z VRB02KT CAVOK 13/12 Q1011 NOSIG,1,0,0,9999,0,0,0,
2026-04-21 03:00:00,METAR LEIB 210300Z VRB02KT CAVOK 13/12 Q1011 NOSIG,1,0,0,9999,0,0,0,
2026-04-21 02:30:00,METAR LEIB 210230Z 35003KT 320V020 CAVOK 14/13 Q1011 NOSIG,1,0,0,9999,0,0,0,
2026-04-21 02:00:00,METAR LEIB 210200Z 36005KT CAVOK 14/13 Q1012 NOSIG,1,0,0,9999,0,0,0,
2026-04-21 01:30:00,METAR LEIB 210130Z VRB01KT CAVOK 14/13 Q1012 NOSIG,1,0,0,9999,0,0,0,
2026-04-21 01:00:00,METAR LEIB 210100Z 36005KT CAVOK 15/13 Q1012 NOSIG,1,0,0,9999,0,0,0,
2026-04-21 00:30:00,METAR LEIB 210030Z 36006KT CAVOK 15/14 Q1012 NOSIG,1,0,0,9999,0,0,0,
2026-04-21 00:00:00,METAR LEIB 210000Z 02005KT CAVOK 15/14 Q1012 NOSIG,1,0,0,9999,0,0,0,
2026-04-20 23:30:00,METAR LEIB 202330Z 03006KT CAVOK 16/14 Q1012 NOSIG,1,0,0,9999,0,0,0,
2026-04-20 23:00:00,METAR LEIB 202300Z 03005KT CAVOK 15/13 Q1012 NOSIG,1,0,0,9999,0,0,0,
2026-04-20 22:30:00,METAR LEIB 202230Z 03005KT CAVOK 15/13 Q1012 NOSIG,1,0,0,9999,0,0,0,
2026-04-20 22:00:00,METAR LEIB 202200Z 01005KT 350V050 CAVOK 15/13 Q1012 NOSIG,1,0,0,9999,0,0,0,
2026-04-20 21:30:00,METAR LEIB 202130Z 02004KT 340V060 CAVOK 15/13 Q1012 NOSIG,1,0,0,9999,0,0,0,
2026-04-20 21:00:00,METAR LEIB 202100Z 06004KT 020V110 CAVOK 16/14 Q1012 NOSIG,1,0,0,9999,0,0,0,
2026-04-20 20:30:00,METAR LEIB 202030Z 06004KT CAVOK 17/15 Q1012 NOSIG,1,0,0,9999,0,0,0,
2026-04-20 20:00:00,METAR LEIB 202000Z 06004KT CAVOK 17/16 Q1012 NOSIG,1,0,0,9999,0,0,0,
2026-04-20 19:30:00,METAR LEIB 201930Z 06003KT CAVOK 17/15 Q1012 NOSIG,1,0,0,9999,0,0,0,
2026-04-20 19:00:00,METAR LEIB 201900Z VRB02KT CAVOK 17/15 Q1012 NOSIG,1,0,0,9999,0,0,0,
2026-04-20 18:30:00,METAR LEIB 201830Z 13004KT 080V150 CAVOK 18/13 Q1012 NOSIG,1,0,0,9999,0,0,0,
2026-04-20 18:00:00,METAR LEIB 201800Z 15004KT 070V210 CAVOK 20/13 Q1012 NOSIG,1,0,0,9999,0,0,0,
2026-04-20 17:30:00,METAR LEIB 201730Z 14006KT 100V180 CAVOK 20/12 Q1012 NOSIG,1,0,0,9999,0,0,0,
2026-04-20 17:00:00,METAR LEIB 201700Z 17005KT 100V210 CAVOK 22/10 Q1012 NOSIG,1,0,0,9999,0,0,0,
2026-04-20 16:30:00,METAR LEIB 201630Z 14006KT 080V190 CAVOK 22/13 Q1012 NOSIG,1,0,0,9999,0,0,0,
2026-04-20 16:00:00,METAR LEIB 201600Z 18005KT 080V230 CAVOK 22/12 Q1012 NOSIG,1,0,0,9999,0,0,0,
2026-04-20 15:30:00,METAR LEIB 201530Z 18006KT 070V230 CAVOK 23/12 Q1012 NOSIG,1,0,0,9999,0,0,0,
2026-04-20 15:00:00,METAR LEIB 201500Z 16005KT 100V220 CAVOK 23/12 Q1012 NOSIG,1,0,0,9999,0,0,0,
2026-04-20 14:30:00,METAR LEIB 201430Z 16005KT 080V220 CAVOK 23/13 Q1012 NOSIG,1,0,0,9999,0,0,0,
2026-04-20 14:00:00,METAR LEIB 201400Z 13007KT 080V160 CAVOK 23/12 Q1013 NOSIG,1,0,0,9999,0,0,0,
2026-04-20 13:30:00,METAR LEIB 201330Z 13007KT 090V170 CAVOK 23/13 Q1013 NOSIG,1,0,0,9999,0,0,0,
2026-04-20 13:00:00,METAR LEIB 201300Z VRB04KT CAVOK 23/13 Q1013 NOSIG,1,0,0,9999,0,0,0,
2026-04-20 12:30:00,METAR LEIB 201230Z 13007KT 080V190 CAVOK 23/13 Q1014 NOSIG,1,0,0,9999,0,0,0,
2026-04-20 12:00:00,METAR LEIB 201200Z 12007KT 080V150 CAVOK 23/13 Q1014 NOSIG,1,0,0,9999,0,0,0,
2026-04-20 11:30:00,METAR LEIB 201130Z 10008KT 070V130 CAVOK 22/12 Q1014 NOSIG,1,0,0,9999,0,0,0,
2026-04-20 11:00:00,METAR LEIB 201100Z 19005KT 110V260 CAVOK 24/12 Q1014 NOSIG,1,0,0,9999,0,0,0,
2026-04-20 10:30:00,METAR LEIB 201030Z 20005KT 160V230 CAVOK 23/10 Q1014 NOSIG,1,0,0,9999,0,0,0,
2026-04-20 10:00:00,METAR LEIB 201000Z 20006KT 170V240 CAVOK 22/11 Q1015 NOSIG,1,0,0,9999,0,0,0,
2026-04-20 09:30:00,METAR LEIB 200930Z 09005KT 050V130 CAVOK 22/14 Q1014 NOSIG,1,0,0,9999,0,0,0,
2026-04-20 09:00:00,METAR LEIB 200900Z 09005KT 060V120 CAVOK 21/14 Q1014 NOSIG,1,0,0,9999,0,0,0,
2026-04-20 08:30:00,METAR LEIB 200830Z 11003KT 060V170 CAVOK 21/13 Q1014 NOSIG,1,0,0,9999,0,0,0,
2026-04-20 08:00:00,METAR LEIB 200800Z 11001KT CAVOK 21/13 Q1014 NOSIG,1,0,0,9999,0,0,0,
2026-04-20 07:30:00,METAR LEIB 200730Z 00000KT CAVOK 20/13 Q1015 NOSIG,1,0,0,9999,0,0,0,
2026-04-20 07:00:00,METAR LEIB 200700Z 00000KT CAVOK 18/13 Q1015 NOSIG,1,0,0,9999,0,0,0,
2026-04-20 06:30:00,METAR LEIB 200630Z VRB01KT CAVOK 15/11 Q1015 NOSIG,1,0,0,9999,0,0,0,
2026-04-20 06:00:00,METAR LEIB 200600Z 00000KT CAVOK 14/11 Q1014 NOSIG,1,0,0,9999,0,0,0,
2026-04-20 05:30:00,METAR LEIB 200530Z 36003KT 300V030 CAVOK 13/10 Q1014 NOSIG,1,0,0,9999,0,0,0,
2026-04-20 05:00:00,METAR LEIB 200500Z 01002KT CAVOK 12/10 Q1014 NOSIG,1,0,0,9999,0,0,0,
2026-04-20 04:30:00,METAR LEIB 200430Z VRB01KT CAVOK 12/10 Q1014 NOSIG,1,0,0,9999,0,0,0,
2026-04-20 04:00:00,METAR LEIB 200400Z 34002KT CAVOK 12/10 Q1014 NOSIG,1,0,0,9999,0,0,0,
2026-04-20 03:30:00,METAR LEIB 200330Z VRB01KT CAVOK 12/09 Q1015 NOSIG,1,0,0,9999,0,0,0,
2026-04-20 03:00:00,METAR LEIB 200300Z VRB01KT CAVOK 12/09 Q1015 NOSIG,1,0,0,9999,0,0,0,
2026-04-20 02:30:00,METAR LEIB 200230Z 33003KT CAVOK 13/09 Q1015 NOSIG,1,0,0,9999,0,0,0,
2026-04-20 02:00:00,METAR LEIB 200200Z VRB01KT CAVOK 12/09 Q1015 NOSIG,1,0,0,9999,0,0,0,
2026-04-20 01:30:00,METAR LEIB 200130Z VRB01KT CAVOK 12/09 Q1016 NOSIG,1,0,0,9999,0,0,0,
2026-04-20 01:00:00,METAR LEIB 200100Z VRB02KT CAVOK 12/09 Q1016 NOSIG,1,0,0,9999,0,0,0,
2026-04-20 00:30:00,METAR LEIB 200030Z VRB02KT CAVOK 13/08 Q1016 NOSIG,1,0,0,9999,0,0,0,
2026-04-20 00:00:00,METAR LEIB 200000Z VRB01KT CAVOK 13/09 Q1017 NOSIG,1,0,0,9999,0,0,0,
2026-04-19 23:30:00,METAR LEIB 192330Z 00000KT CAVOK 12/09 Q1017 NOSIG,1,0,0,9999,0,0,0,
2026-04-19 23:00:00,METAR LEIB 192300Z VRB02KT CAVOK 13/09 Q1017 NOSIG,1,0,0,9999,0,0,0,
2026-04-19 22:30:00,METAR LEIB 192230Z VRB02KT CAVOK 13/08 Q1017 NOSIG,1,0,0,9999,0,0,0,
2026-04-19 22:00:00,METAR LEIB 192200Z 35003KT 290V020 CAVOK 14/08 Q1017 NOSIG,1,0,0,9999,0,0,0,
2026-04-19 21:30:00,METAR LEIB 192130Z VRB01KT CAVOK 14/08 Q1017 NOSIG,1,0,0,9999,0,0,0,
2026-04-19 21:00:00,METAR LEIB 192100Z VRB01KT CAVOK 15/07 Q1017 NOSIG,1,0,0,9999,0,0,0,
2026-04-19 20:30:00,METAR LEIB 192030Z 34003KT 280V040 CAVOK 15/07 Q1017 NOSIG,1,0,0,9999,0,0,0,
2026-04-19 20:00:00,METAR LEIB 192000Z 35003KT 250V060 CAVOK 16/08 Q1017 NOSIG,1,0,0,9999,0,0,0,
2026-04-19 19:30:00,METAR LEIB 191930Z 35003KT 310V020 CAVOK 17/09 Q1017 NOSIG,1,0,0,9999,0,0,0,
2026-04-19 19:00:00,METAR LEIB 191900Z 25004KT CAVOK 17/12 Q1016 NOSIG,1,0,0,9999,0,0,0,
2026-04-19 18:30:00,METAR LEIB 191830Z 26005KT CAVOK 18/12 Q1016 NOSIG,1,0,0,9999,0,0,0,
2026-04-19 18:00:00,METAR LEIB 191800Z 24005KT CAVOK 19/12 Q1016 NOSIG,1,0,0,9999,0,0,0,
2026-04-19 17:30:00,METAR LEIB 191730Z 25005KT CAVOK 20/12 Q1016 NOSIG,1,0,0,9999,0,0,0,
2026-04-19 17:00:00,METAR LEIB 191700Z 25006KT CAVOK 21/12 Q1016 NOSIG,1,0,0,9999,0,0,0,
2026-04-19 16:30:00,METAR LEIB 191630Z 24006KT 210V270 CAVOK 21/12 Q1016 NOSIG,1,0,0,9999,0,0,0,
2026-04-19 16:00:00,METAR LEIB 191600Z 24007KT 210V270 CAVOK 21/11 Q1017 NOSIG,1,0,0,9999,0,0,0,
2026-04-19 15:30:00,METAR LEIB 191530Z 22007KT 190V260 CAVOK 21/13 Q1017 NOSIG,1,0,0,9999,0,0,0,
2026-04-19 15:00:00,METAR LEIB 191500Z 23006KT 170V260 CAVOK 22/12 Q1017 NOSIG,1,0,0,9999,0,0,0,
2026-04-19 14:30:00,METAR LEIB 191430Z 23008KT 190V260 CAVOK 21/11 Q1017 NOSIG,1,0,0,9999,0,0,0,
2026-04-19 14:00:00,METAR LEIB 191400Z 23007KT 200V280 CAVOK 22/12 Q1018 NOSIG,1,0,0,9999,0,0,0,
2026-04-19 13:30:00,METAR LEIB 191330Z 24008KT 210V280 CAVOK 22/13 Q1018 NOSIG,1,0,0,9999,0,0,0,
2026-04-19 13:00:00,METAR LEIB 191300Z 24008KT 210V280 CAVOK 22/12 Q1018 NOSIG,1,0,0,9999,0,0,0,
2026-04-19 12:30:00,METAR LEIB 191230Z 25008KT CAVOK 22/12 Q1018 NOSIG,1,0,0,9999,0,0,0,
2026-04-19 12:00:00,METAR LEIB 191200Z 25008KT 210V280 CAVOK 22/12 Q1018 NOSIG,1,0,0,9999,0,0,0,
2026-04-19 11:30:00,METAR LEIB 191130Z 24007KT 200V280 CAVOK 22/11 Q1019 NOSIG,1,0,0,9999,0,0,0,
2026-04-19 11:00:00,METAR LEIB 191100Z 23007KT 200V260 CAVOK 22/10 Q1019 NOSIG,1,0,0,9999,0,0,0,
2026-04-19 10:30:00,METAR LEIB 191030Z 22006KT 190V250 CAVOK 21/09 Q1019 NOSIG,1,0,0,9999,0,0,0,
2026-04-19 10:00:00,METAR LEIB 191000Z 23005KT CAVOK 21/10 Q1019 NOSIG,1,0,0,9999,0,0,0,
2026-04-19 09:30:00,METAR LEIB 190930Z 22003KT 160V270 CAVOK 21/10 Q1019 NOSIG,1,0,0,9999,0,0,0,
2026-04-19 09:00:00,METAR LEIB 190900Z 21003KT 180V270 CAVOK 21/10 Q1019 NOSIG,1,0,0,9999,0,0,0,
2026-04-19 08:30:00,METAR LEIB 190830Z 21004KT 180V240 CAVOK 20/09 Q1019 NOSIG,1,0,0,9999,0,0,0,
2026-04-19 08:00:00,METAR LEIB 190800Z 20004KT 160V230 CAVOK 20/09 Q1019 NOSIG,1,0,0,9999,0,0,0,
2026-04-19 07:30:00,METAR LEIB 190730Z VRB01KT CAVOK 19/12 Q1019 NOSIG,1,0,0,9999,0,0,0,
2026-04-19 07:00:00,METAR LEIB 190700Z 00000KT CAVOK 17/12 Q1019 NOSIG,1,0,0,9999,0,0,0,
2026-04-19 06:30:00,METAR LEIB 190630Z VRB02KT CAVOK 15/10 Q1018 NOSIG,1,0,0,9999,0,0,0,
2026-04-19 06:00:00,METAR LEIB 190600Z VRB01KT CAVOK 13/09 Q1018 NOSIG,1,0,0,9999,0,0,0,
2026-04-19 05:30:00,METAR LEIB 190530Z VRB02KT CAVOK 11/07 Q1018 NOSIG,1,0,0,9999,0,0,0,
2026-04-19 05:00:00,METAR LEIB 190500Z 36002KT CAVOK 11/06 Q1018 NOSIG,1,0,0,9999,0,0,0,
2026-04-19 04:30:00,METAR LEIB 190430Z VRB02KT CAVOK 11/06 Q1018 NOSIG,1,0,0,9999,0,0,0,
2026-04-19 04:00:00,METAR LEIB 190400Z 36003KT CAVOK 11/06 Q1018 NOSIG,1,0,0,9999,0,0,0,
2026-04-19 03:30:00,METAR LEIB 190330Z 00000KT CAVOK 10/06 Q1018 NOSIG,1,0,0,9999,0,0,0,
2026-04-19 03:00:00,METAR LEIB 190300Z 34003KT CAVOK 12/06 Q1018 NOSIG,1,0,0,9999,0,0,0,
2026-04-19 02:30:00,METAR LEIB 190230Z 36003KT CAVOK 11/06 Q1018 NOSIG,1,0,0,9999,0,0,0,
2026-04-19 02:00:00,METAR LEIB 190200Z 36005KT CAVOK 12/06 Q1018 NOSIG,1,0,0,9999,0,0,0,
2026-04-19 01:30:00,METAR LEIB 190130Z 36003KT CAVOK 12/06 Q1019 NOSIG,1,0,0,9999,0,0,0,
2026-04-19 01:00:00,METAR LEIB 190100Z 35002KT CAVOK 12/06 Q1019 NOSIG,1,0,0,9999,0,0,0,
2026-04-19 00:30:00,METAR LEIB 190030Z 35003KT CAVOK 13/06 Q1019 NOSIG,1,0,0,9999,0,0,0,
2026-04-19 00:00:00,METAR LEIB 190000Z 36002KT CAVOK 13/06 Q1019 NOSIG,1,0,0,9999,0,0,0,
2026-04-18 23:30:00,METAR LEIB 182330Z 32002KT CAVOK 13/07 Q1019 NOSIG,1,0,0,9999,0,0,0,
2026-04-18 23:00:00,METAR LEIB 182300Z 30002KT CAVOK 15/07 Q1019 NOSIG,1,0,0,9999,0,0,0,
2026-04-18 22:30:00,METAR LEIB 182230Z VRB01KT CAVOK 15/08 Q1019 NOSIG,1,0,0,9999,0,0,0,
2026-04-18 22:00:00,METAR LEIB 182200Z VRB01KT CAVOK 13/08 Q1019 NOSIG,1,0,0,9999,0,0,0,
2026-04-18 21:30:00,METAR LEIB 182130Z 00000KT CAVOK 13/08 Q1019 NOSIG,1,0,0,9999,0,0,0,
2026-04-18 21:00:00,METAR LEIB 182100Z VRB01KT CAVOK 14/08 Q1019 NOSIG,1,0,0,9999,0,0,0,
2026-04-18 20:30:00,METAR LEIB 182030Z VRB03KT CAVOK 15/08 Q1019 NOSIG,1,0,0,9999,0,0,0,
2026-04-18 20:00:00,METAR LEIB 182000Z 31003KT 280V340 CAVOK 16/08 Q1019 NOSIG,1,0,0,9999,0,0,0,
2026-04-18 19:30:00,METAR LEIB 181930Z 31003KT 270V350 CAVOK 17/09 Q1019 NOSIG,1,0,0,9999,0,0,0,
2026-04-18 19:00:00,METAR LEIB 181900Z 25003KT CAVOK 17/13 Q1019 NOSIG,1,0,0,9999,0,0,0,
2026-04-18 18:30:00,METAR LEIB 181830Z 25004KT CAVOK 18/13 Q1018 NOSIG,1,0,0,9999,0,0,0,
2026-04-18 18:00:00,METAR LEIB 181800Z 24004KT CAVOK 19/13 Q1018 NOSIG,1,0,0,9999,0,0,0,
2026-04-18 17:30:00,METAR LEIB 181730Z 24005KT 200V260 CAVOK 20/12 Q1019 NOSIG,1,0,0,9999,0,0,0,
2026-04-18 17:00:00,METAR LEIB 181700Z 23006KT 200V270 CAVOK 20/11 Q1018 NOSIG,1,0,0,9999,0,0,0,
2026-04-18 16:30:00,METAR LEIB 181630Z 23007KT CAVOK 21/10 Q1019 NOSIG,1,0,0,9999,0,0,0,
2026-04-18 16:00:00,METAR LEIB 181600Z 24006KT 190V260 CAVOK 21/11 Q1019 NOSIG,1,0,0,9999,0,0,0,
2026-04-18 15:00:00,METAR LEIB 181500Z 23007KT 200V270 CAVOK 22/10 Q1019 NOSIG,1,0,0,9999,0,0,0,
2026-04-18 14:30:00,METAR LEIB 181430Z 24007KT 200V270 CAVOK 22/10 Q1019 NOSIG,1,0,0,9999,0,0,0,
2026-04-18 14:00:00,METAR LEIB 181400Z 24008KT 210V290 CAVOK 22/09 Q1019 NOSIG,1,0,0,9999,0,0,0,
2026-04-18 13:30:00,METAR LEIB 181330Z 23007KT 200V270 CAVOK 22/08 Q1020 NOSIG,1,0,0,9999,0,0,0,
2026-04-18 13:00:00,METAR LEIB 181300Z 24007KT 180V290 CAVOK 22/07 Q1020 NOSIG,1,0,0,9999,0,0,0,
2026-04-18 12:30:00,METAR LEIB 181230Z 24006KT 190V280 CAVOK 22/10 Q1020 NOSIG,1,0,0,9999,0,0,0,
2026-04-18 12:00:00,METAR LEIB 181200Z 25007KT 210V290 CAVOK 22/11 Q1020 NOSIG,1,0,0,9999,0,0,0,
2026-04-18 11:30:00,METAR LEIB 181130Z 23007KT 200V270 CAVOK 21/10 Q1020 NOSIG,1,0,0,9999,0,0,0,
2026-04-18 11:00:00,METAR LEIB 181100Z 23007KT 200V280 CAVOK 21/11 Q1020 NOSIG,1,0,0,9999,0,0,0,
2026-04-18 10:30:00,METAR LEIB 181030Z 23007KT 190V260 CAVOK 21/10 Q1020 NOSIG,1,0,0,9999,0,0,0,
2026-04-18 10:00:00,METAR LEIB 181000Z 22006KT 170V250 CAVOK 21/10 Q1020 NOSIG,1,0,0,9999,0,0,0,
2026-04-18 09:30:00,METAR LEIB 180930Z 22006KT 170V250 CAVOK 20/08 Q1020 NOSIG,1,0,0,9999,0,0,0,
2026-04-18 09:00:00,METAR LEIB 180900Z 22004KT 170V280 CAVOK 20/09 Q1020 NOSIG,1,0,0,9999,0,0,0,
2026-04-18 08:30:00,METAR LEIB 180830Z 20003KT 150V250 CAVOK 20/12 Q1020 NOSIG,1,0,0,9999,0,0,0,
2026-04-18 08:00:00,METAR LEIB 180800Z VRB02KT CAVOK 19/11 Q1020 NOSIG,1,0,0,9999,0,0,0,
2026-04-18 07:30:00,METAR LEIB 180730Z VRB01KT CAVOK 19/14 Q1020 NOSIG,1,0,0,9999,0,0,0,
2026-04-18 07:00:00,METAR LEIB 180700Z 00000KT CAVOK 18/11 Q1019 NOSIG,1,0,0,9999,0,0,0,
2026-04-18 06:30:00,METAR LEIB 180630Z VRB02KT CAVOK 14/09 Q1020 NOSIG,1,0,0,9999,0,0,0,
2026-04-18 06:00:00,METAR LEIB 180600Z VRB02KT CAVOK 10/07 Q1019 NOSIG,1,0,0,9999,0,0,0,
2026-04-18 05:30:00,METAR LEIB 180530Z VRB02KT CAVOK 11/07 Q1019 NOSIG,1,0,0,9999,0,0,0,
2026-04-18 05:00:00,METAR LEIB 180500Z VRB01KT CAVOK 11/07 Q1019 NOSIG,1,0,0,9999,0,0,0,
2026-04-18 04:30:00,METAR LEIB 180430Z 00000KT CAVOK 10/07 Q1019 NOSIG,1,0,0,9999,0,0,0,
2026-04-18 04:00:00,METAR LEIB 180400Z 34003KT CAVOK 11/07 Q1019 NOSIG,1,0,0,9999,0,0,0,
2026-04-18 03:30:00,METAR LEIB 180330Z VRB01KT CAVOK 10/07 Q1019 NOSIG,1,0,0,9999,0,0,0,
2026-04-18 03:00:00,METAR LEIB 180300Z 34002KT CAVOK 11/07 Q1019 NOSIG,1,0,0,9999,0,0,0,
2026-04-18 02:30:00,METAR LEIB 180230Z 02001KT CAVOK 11/07 Q1019 NOSIG,1,0,0,9999,0,0,0,
2026-04-18 02:00:00,METAR LEIB 180200Z 36001KT CAVOK 11/07 Q1019 NOSIG,1,0,0,9999,0,0,0,
2026-04-18 01:30:00,METAR LEIB 180130Z 36003KT CAVOK 11/07 Q1019 NOSIG,1,0,0,9999,0,0,0,
2026-04-18 01:00:00,METAR LEIB 180100Z 35001KT CAVOK 12/07 Q1020 NOSIG,1,0,0,9999,0,0,0,
2026-04-18 00:30:00,METAR LEIB 180030Z VRB02KT CAVOK 12/08 Q1020 NOSIG,1,0,0,9999,0,0,0,
2026-04-18 00:00:00,METAR LEIB 180000Z 36004KT CAVOK 12/08 Q1020 NOSIG,1,0,0,9999,0,0,0,
2026-04-17 23:30:00,METAR LEIB 172330Z 00000KT CAVOK 12/08 Q1020 NOSIG,1,0,0,9999,0,0,0,
2026-04-17 23:00:00,METAR LEIB 172300Z 33002KT CAVOK 13/08 Q1020 NOSIG,1,0,0,9999,0,0,0,
2026-04-17 22:30:00,METAR LEIB 172230Z VRB01KT CAVOK 13/09 Q1020 NOSIG,1,0,0,9999,0,0,0,
2026-04-17 22:00:00,METAR LEIB 172200Z VRB01KT CAVOK 14/09 Q1020 NOSIG,1,0,0,9999,0,0,0,
2026-04-17 21:30:00,METAR LEIB 172130Z 35002KT CAVOK 14/10 Q1020 NOSIG,1,0,0,9999,0,0,0,
2026-04-17 21:00:00,METAR LEIB 172100Z 35004KT CAVOK 14/11 Q1020 NOSIG,1,0,0,9999,0,0,0,
2026-04-17 20:30:00,METAR LEIB 172030Z 35003KT 290V010 CAVOK 15/11 Q1020 NOSIG,1,0,0,9999,0,0,0,
2026-04-17 20:00:00,METAR LEIB 172000Z 34003KT 300V030 CAVOK 16/11 Q1020 NOSIG,1,0,0,9999,0,0,0,
2026-04-17 19:30:00,METAR LEIB 171930Z VRB02KT CAVOK 16/12 Q1019 NOSIG,1,0,0,9999,0,0,0,
2026-04-17 19:00:00,METAR LEIB 171900Z VRB01KT CAVOK 17/13 Q1019 NOSIG,1,0,0,9999,0,0,0,
2026-04-17 18:30:00,METAR LEIB 171830Z 26004KT CAVOK 17/13 Q1019 NOSIG,1,0,0,9999,0,0,0,
2026-04-17 18:00:00,METAR LEIB 171800Z 25004KT CAVOK 18/14 Q1019 NOSIG,1,0,0,9999,0,0,0,
2026-04-17 17:30:00,METAR LEIB 171730Z 25006KT CAVOK 19/13 Q1019 NOSIG,1,0,0,9999,0,0,0,
2026-04-17 17:00:00,METAR LEIB 171700Z 24006KT 210V280 CAVOK 19/12 Q1019 NOSIG,1,0,0,9999,0,0,0,
2026-04-17 16:30:00,METAR LEIB 171630Z 25007KT CAVOK 20/12 Q1019 NOSIG,1,0,0,9999,0,0,0,
2026-04-17 16:00:00,METAR LEIB 171600Z 24007KT 200V290 CAVOK 20/11 Q1019 NOSIG,1,0,0,9999,0,0,0,
2026-04-17 15:30:00,METAR LEIB 171530Z 25007KT 200V280 CAVOK 20/12 Q1019 NOSIG,1,0,0,9999,0,0,0,
2026-04-17 15:00:00,METAR LEIB 171500Z 24007KT 200V300 CAVOK 21/10 Q1019 NOSIG,1,0,0,9999,0,0,0,
2026-04-17 14:30:00,METAR LEIB 171430Z 24007KT 200V270 CAVOK 21/12 Q1019 NOSIG,1,0,0,9999,0,0,0,
2026-04-17 14:00:00,METAR LEIB 171400Z 23007KT 190V260 CAVOK 21/09 Q1019 NOSIG,1,0,0,9999,0,0,0,
2026-04-17 13:30:00,METAR LEIB 171330Z 24008KT 200V270 CAVOK 21/08 Q1020 NOSIG,1,0,0,9999,0,0,0,
2026-04-17 13:00:00,METAR LEIB 171300Z 25007KT 210V280 CAVOK 21/11 Q1020 NOSIG,1,0,0,9999,0,0,0,
2026-04-17 12:30:00,METAR LEIB 171230Z 23007KT 190V280 CAVOK 21/08 Q1020 NOSIG,1,0,0,9999,0,0,0,
2026-04-17 12:00:00,METAR LEIB 171200Z 22006KT 190V280 CAVOK 21/06 Q1020 NOSIG,1,0,0,9999,0,0,0,
2026-04-17 11:30:00,METAR LEIB 171130Z 24006KT 200V280 CAVOK 21/09 Q1020 NOSIG,1,0,0,9999,0,0,0,
2026-04-17 11:00:00,METAR LEIB 171100Z 24007KT 200V270 CAVOK 20/12 Q1020 NOSIG,1,0,0,9999,0,0,0,
2026-04-17 10:30:00,METAR LEIB 171030Z 22007KT 190V250 CAVOK 20/11 Q1020 NOSIG,1,0,0,9999,0,0,0,
2026-04-17 10:00:00,METAR LEIB 171000Z 22007KT 190V280 CAVOK 19/12 Q1020 NOSIG,1,0,0,9999,0,0,0,
2026-04-17 09:30:00,METAR LEIB 170930Z 22007KT 190V250 CAVOK 19/13 Q1020 NOSIG,1,0,0,9999,0,0,0,
2026-04-17 09:00:00,METAR LEIB 170900Z 23006KT 200V260 CAVOK 19/13 Q1020 NOSIG,1,0,0,9999,0,0,0,
2026-04-17 08:30:00,METAR LEIB 170830Z 22005KT 190V260 CAVOK 19/11 Q1020 NOSIG,1,0,0,9999,0,0,0,
2026-04-17 08:00:00,METAR LEIB 170800Z 20003KT 170V230 CAVOK 18/13 Q1020 NOSIG,1,0,0,9999,0,0,0,
2026-04-17 07:30:00,METAR LEIB 170730Z VRB01KT CAVOK 18/13 Q1020 NOSIG,1,0,0,9999,0,0,0,
2026-04-17 07:00:00,METAR LEIB 170700Z 00000KT CAVOK 17/12 Q1020 NOSIG,1,0,0,9999,0,0,0,
2026-04-17 06:30:00,METAR LEIB 170630Z VRB01KT CAVOK 14/11 Q1020 NOSIG,1,0,0,9999,0,0,0,
2026-04-17 06:00:00,METAR LEIB 170600Z VRB02KT CAVOK 13/11 Q1020 NOSIG,1,0,0,9999,0,0,0,
2026-04-17 05:30:00,METAR LEIB 170530Z VRB02KT CAVOK 11/10 Q1020 NOSIG,1,0,0,9999,0,0,0,
2026-04-17 05:00:00,METAR LEIB 170500Z VRB03KT CAVOK 11/10 Q1020 NOSIG,1,0,0,9999,0,0,0,
2026-04-17 04:30:00,METAR LEIB 170430Z VRB02KT CAVOK 11/10 Q1020 NOSIG,1,0,0,9999,0,0,0,
2026-04-17 04:00:00,METAR LEIB 170400Z VRB02KT CAVOK 11/10 Q1020 NOSIG,1,0,0,9999,0,0,0,
2026-04-17 03:30:00,METAR LEIB 170330Z 34003KT CAVOK 11/10 Q1020 NOSIG,1,0,0,9999,0,0,0,
2026-04-17 03:00:00,METAR LEIB 170300Z 36003KT CAVOK 11/09 Q1020 NOSIG,1,0,0,9999,0,0,0,
2026-04-17 02:30:00,METAR LEIB 170230Z VRB02KT CAVOK 12/09 Q1020 NOSIG,1,0,0,9999,0,0,0,
2026-04-17 02:00:00,METAR LEIB 170200Z 33002KT CAVOK 11/08 Q1020 NOSIG,1,0,0,9999,0,0,0,
2026-04-17 01:30:00,METAR LEIB 170130Z 00000KT CAVOK 11/08 Q1020 NOSIG,1,0,0,9999,0,0,0,
2026-04-17 01:00:00,METAR LEIB 170100Z 32003KT CAVOK 12/08 Q1020 NOSIG,1,0,0,9999,0,0,0,
2026-04-17 00:30:00,METAR LEIB 170030Z 00000KT CAVOK 11/07 Q1020 NOSIG,1,0,0,9999,0,0,0,
2026-04-17 00:00:00,METAR LEIB 170000Z VRB01KT CAVOK 12/08 Q1021 NOSIG,1,0,0,9999,0,0,0,
2026-04-16 23:30:00,METAR LEIB 162330Z VRB02KT CAVOK 13/08 Q1021 NOSIG,1,0,0,9999,0,0,0,
2026-04-16 23:00:00,METAR LEIB 162300Z 36002KT CAVOK 12/07 Q1021 NOSIG,1,0,0,9999,0,0,0,
2026-04-16 22:30:00,METAR LEIB 162230Z 00000KT CAVOK 12/08 Q1021 NOSIG,1,0,0,9999,0,0,0,
2026-04-16 22:00:00,METAR LEIB 162200Z VRB01KT CAVOK 13/08 Q1021 NOSIG,1,0,0,9999,0,0,0,
2026-04-16 21:30:00,METAR LEIB 162130Z VRB02KT CAVOK 14/08 Q1021 NOSIG,1,0,0,9999,0,0,0,
2026-04-16 21:00:00,METAR LEIB 162100Z 00000KT CAVOK 14/09 Q1021 NOSIG,1,0,0,9999,0,0,0,
2026-04-16 20:30:00,METAR LEIB 162030Z 31003KT 260V340 CAVOK 14/10 Q1021 NOSIG,1,0,0,9999,0,0,0,
2026-04-16 20:00:00,METAR LEIB 162000Z 33003KT 270V010 CAVOK 15/10 Q1020 NOSIG,1,0,0,9999,0,0,0,
2026-04-16 19:30:00,METAR LEIB 161930Z 26004KT CAVOK 15/12 Q1020 NOSIG,1,0,0,9999,0,0,0,
2026-04-16 19:00:00,METAR LEIB 161900Z 25005KT CAVOK 15/12 Q1020 NOSIG,1,0,0,9999,0,0,0,
2026-04-16 18:30:00,METAR LEIB 161830Z 24005KT CAVOK 16/13 Q1020 NOSIG,1,0,0,9999,0,0,0,
2026-04-16 18:00:00,METAR LEIB 161800Z 25006KT CAVOK 17/12 Q1020 NOSIG,1,0,0,9999,0,0,0,
2026-04-16 17:30:00,METAR LEIB 161730Z 25005KT 210V280 CAVOK 18/12 Q1020 NOSIG,1,0,0,9999,0,0,0,
2026-04-16 17:00:00,METAR LEIB 161700Z 24007KT 220V280 CAVOK 18/11 Q1020 NOSIG,1,0,0,9999,0,0,0,
2026-04-16 16:30:00,METAR LEIB 161630Z 24008KT CAVOK 19/11 Q1020 NOSIG,1,0,0,9999,0,0,0,
2026-04-16 16:00:00,METAR LEIB 161600Z 23008KT 200V260 CAVOK 19/11 Q1020 NOSIG,1,0,0,9999,0,0,0,
2026-04-16 15:30:00,METAR LEIB 161530Z 23008KT 210V270 CAVOK 19/12 Q1020 NOSIG,1,0,0,9999,0,0,0,
2026-04-16 15:00:00,METAR LEIB 161500Z 24005KT 200V290 CAVOK 20/12 Q1020 NOSIG,1,0,0,9999,0,0,0,
2026-04-16 14:30:00,METAR LEIB 161430Z 26005KT 210V310 CAVOK 20/12 Q1021 NOSIG,1,0,0,9999,0,0,0,
2026-04-16 14:00:00,METAR LEIB 161400Z 24005KT 200V280 CAVOK 20/12 Q1021 NOSIG,1,0,0,9999,0,0,0,
2026-04-16 13:30:00,METAR LEIB 161330Z 24007KT 210V280 CAVOK 19/14 Q1021 NOSIG,1,0,0,9999,0,0,0,
2026-04-16 13:00:00,METAR LEIB 161300Z 22005KT 190V250 CAVOK 20/14 Q1022 NOSIG,1,0,0,9999,0,0,0,
2026-04-16 12:30:00,METAR LEIB 161230Z 23006KT 190V280 CAVOK 20/14 Q1022 NOSIG,1,0,0,9999,0,0,0,
2026-04-16 12:00:00,METAR LEIB 161200Z 22005KT 190V280 CAVOK 21/13 Q1022 NOSIG,1,0,0,9999,0,0,0,
2026-04-16 11:30:00,METAR LEIB 161130Z 08005KT 030V110 CAVOK 21/09 Q1022 NOSIG,1,0,0,9999,0,0,0,
2026-04-16 11:00:00,METAR LEIB 161100Z 10004KT 060V170 CAVOK 21/10 Q1022 NOSIG,1,0,0,9999,0,0,0,
2026-04-16 10:30:00,METAR LEIB 161030Z 11007KT 060V150 CAVOK 20/10 Q1022 NOSIG,1,0,0,9999,0,0,0,
2026-04-16 10:00:00,METAR LEIB 161000Z 10007KT 070V160 CAVOK 20/08 Q1022 NOSIG,1,0,0,9999,0,0,0,
2026-04-16 09:30:00,METAR LEIB 160930Z 10007KT 070V160 CAVOK 19/09 Q1022 NOSIG,1,0,0,9999,0,0,0,
2026-04-16 09:00:00,METAR LEIB 160900Z 10007KT 070V140 CAVOK 19/08 Q1022 NOSIG,1,0,0,9999,0,0,0,
2026-04-16 08:30:00,METAR LEIB 160830Z 08005KT 050V120 9999 FEW011 18/09 Q1022 NOSIG,0,5,0,10000,0,0,0,
2026-04-16 08:00:00,METAR LEIB 160800Z 09005KT 050V120 9999 FEW011 18/08 Q1022 NOSIG,0,5,0,10000,0,0,0,
2026-04-16 07:30:00,METAR LEIB 160730Z 08003KT 050V110 9999 FEW011 17/08 Q1021 NOSIG,0,3,0,10000,0,0,0,
2026-04-16 07:00:00,METAR LEIB 160700Z VRB01KT 9999 FEW011 15/08 Q1021 NOSIG,0,1,0,10000,0,0,0,
2026-04-16 06:30:00,METAR LEIB 160630Z 02003KT 320V090 9999 FEW011 13/08 Q1021 NOSIG,0,3,0,10000,0,0,0,
2026-04-16 06:00:00,METAR LEIB 160600Z 00000KT 9999 FEW011 10/07 Q1021 NOSIG,0,0,0,10000,0,0,0,
2026-04-16 05:30:00,METAR LEIB 160530Z 00000KT 9999 FEW011 09/05 Q1021 NOSIG,0,0,0,10000,0,0,0,
2026-04-16 05:00:00,METAR LEIB 160500Z 35003KT 9999 FEW011 09/06 Q1021 NOSIG,0,3,0,10000,0,0,0,
2026-04-16 04:30:00,METAR LEIB 160430Z 01003KT 9999 FEW008 09/06 Q1021 NOSIG,0,3,0,10000,0,0,0,
2026-04-16 04:00:00,METAR LEIB 160400Z 03003KT 360V060 9999 FEW008 09/06 Q1021 NOSIG,0,3,0,10000,0,0,0,
2026-04-16 03:30:00,METAR LEIB 160330Z VRB02KT 9999 FEW008 08/05 Q1020 NOSIG,0,2,0,10000,0,0,0,
2026-04-16 03:00:00,METAR LEIB 160300Z 36003KT 9999 FEW008 09/06 Q1020 NOSIG,0,3,0,10000,0,0,0,
2026-04-16 02:30:00,METAR LEIB 160230Z 35003KT 320V020 9999 FEW008 10/07 Q1021 NOSIG,0,3,0,10000,0,0,0,
2026-04-16 02:00:00,METAR LEIB 160200Z VRB01KT 9999 FEW008 10/09 Q1021 NOSIG,0,1,0,10000,0,0,0,
2026-04-16 01:30:00,METAR LEIB 160130Z VRB01KT 9999 FEW008 11/10 Q1021 NOSIG,0,1,0,10000,0,0,0,
2026-04-16 01:00:00,METAR LEIB 160100Z VRB02KT 9999 FEW008 12/11 Q1021 NOSIG,0,2,0,10000,0,0,0,
2026-04-16 00:48:00,SPECI LEIB 160048Z VRB01KT 9999 FEW008 12/11 Q1021 NOSIG,0,1,0,10000,0,0,0,
2026-04-16 00:30:00,METAR LEIB 160030Z 36003KT 340V070 9999 BKN008 12/10 Q1021 NOSIG,0,3,0,10000,0,0,0,
2026-04-16 00:00:00,METAR LEIB 160000Z 34004KT 9999 BKN008 12/11 Q1021 NOSIG,0,4,0,10000,0,0,0,
2026-04-15 23:30:00,METAR LEIB 152330Z 36004KT 9999 BKN008 12/11 Q1021 NOSIG,0,4,0,10000,0,0,0,
2026-04-15 23:00:00,METAR LEIB 152300Z VRB02KT 9999 BKN008 13/11 Q1021 NOSIG,0,2,0,10000,0,0,0,
2026-04-15 22:30:00,METAR LEIB 152230Z 00000KT 9999 BKN008 13/11 Q1021 NOSIG,0,0,0,10000,0,0,0,
2026-04-15 22:00:00,METAR LEIB 152200Z VRB02KT 9999 BKN007 13/11 Q1021 NOSIG,0,2,0,10000,0,0,0,
2026-04-15 21:50:00,SPECI LEIB 152150Z VRB02KT 9999 BKN007 12/10 Q1021 NOSIG,0,2,0,10000,0,0,0,
2026-04-15 21:30:00,METAR LEIB 152130Z VRB02KT 9999 SCT007 12/10 Q1021 NOSIG,0,2,0,10000,0,0,0,
2026-04-15 21:00:00,METAR LEIB 152100Z VRB02KT 9999 FEW025 12/09 Q1021 NOSIG,0,2,0,10000,0,0,0,
2026-04-15 20:30:00,METAR LEIB 152030Z 00000KT 9999 FEW025 12/10 Q1021 NOSIG,0,0,0,10000,0,0,0,
2026-04-15 20:00:00,METAR LEIB 152000Z 32004KT 9999 FEW025 14/11 Q1021 NOSIG,0,4,0,10000,0,0,0,
2026-04-15 19:30:00,METAR LEIB 151930Z 26003KT 240V340 9999 FEW025 15/13 Q1020 NOSIG,0,3,0,10000,0,0,0,
2026-04-15 19:00:00,METAR LEIB 151900Z 26004KT 9999 FEW025 15/13 Q1020 NOSIG,0,4,0,10000,0,0,0,
2026-04-15 18:30:00,METAR LEIB 151830Z 25004KT CAVOK 15/13 Q1020 NOSIG,1,0,0,9999,0,0,0,
2026-04-15 18:00:00,METAR LEIB 151800Z 25005KT CAVOK 17/13 Q1020 NOSIG,1,0,0,9999,0,0,0,
2026-04-15 17:30:00,METAR LEIB 151730Z 25006KT CAVOK 17/13 Q1019 NOSIG,1,0,0,9999,0,0,0,
2026-04-15 17:00:00,METAR LEIB 151700Z 23005KT CAVOK 18/13 Q1019 NOSIG,1,0,0,9999,0,0,0,
2026-04-15 16:30:00,METAR LEIB 151630Z 22006KT 180V260 CAVOK 18/12 Q1019 NOSIG,1,0,0,9999,0,0,0,
2026-04-15 16:00:00,METAR LEIB 151600Z 24007KT 210V280 CAVOK 18/12 Q1020 NOSIG,1,0,0,9999,0,0,0,
2026-04-15 15:30:00,METAR LEIB 151530Z 22007KT 190V260 CAVOK 18/12 Q1020 NOSIG,1,0,0,9999,0,0,0,
2026-04-15 15:00:00,METAR LEIB 151500Z 22008KT 170V250 CAVOK 19/11 Q1020 NOSIG,1,0,0,9999,0,0,0,
2026-04-15 14:30:00,METAR LEIB 151430Z 23008KT 190V250 CAVOK 18/12 Q1020 NOSIG,1,0,0,9999,0,0,0,
2026-04-15 14:00:00,METAR LEIB 151400Z 24009KT 190V280 CAVOK 19/12 Q1020 NOSIG,1,0,0,9999,0,0,0,
2026-04-15 13:30:00,METAR LEIB 151330Z 23009KT 200V270 CAVOK 19/13 Q1021 NOSIG,1,0,0,9999,0,0,0,
2026-04-15 13:00:00,METAR LEIB 151300Z 24009KT 190V270 CAVOK 19/12 Q1021 NOSIG,1,0,0,9999,0,0,0,
2026-04-15 12:30:00,METAR LEIB 151230Z 23010KT 190V270 CAVOK 18/12 Q1021 NOSIG,1,0,0,9999,0,0,0,
2026-04-15 12:00:00,METAR LEIB 151200Z 24010KT 190V270 CAVOK 18/12 Q1021 NOSIG,1,0,0,9999,0,0,0,
2026-04-15 11:30:00,METAR LEIB 151130Z 24009KT 200V270 CAVOK 18/12 Q1021 NOSIG,1,0,0,9999,0,0,0,
2026-04-15 11:00:00,METAR LEIB 151100Z 23008KT 200V270 CAVOK 18/12 Q1021 NOSIG,1,0,0,9999,0,0,0,
2026-04-15 10:30:00,METAR LEIB 151030Z 23008KT 190V280 CAVOK 18/12 Q1022 NOSIG,1,0,0,9999,0,0,0,
2026-04-15 10:00:00,METAR LEIB 151000Z 23009KT 200V270 CAVOK 18/13 Q1022 NOSIG,1,0,0,9999,0,0,0,
2026-04-15 09:30:00,METAR LEIB 150930Z 23008KT 200V260 CAVOK 17/12 Q1021 NOSIG,1,0,0,9999,0,0,0,
2026-04-15 09:00:00,METAR LEIB 150900Z 23006KT 190V270 CAVOK 17/11 Q1021 NOSIG,1,0,0,9999,0,0,0,
2026-04-15 08:30:00,METAR LEIB 150830Z 23007KT 190V260 CAVOK 17/12 Q1021 NOSIG,1,0,0,9999,0,0,0,
2026-04-15 08:00:00,METAR LEIB 150800Z 23005KT 190V270 CAVOK 16/12 Q1021 NOSIG,1,0,0,9999,0,0,0,
2026-04-15 07:30:00,METAR LEIB 150730Z 23003KT 190V290 CAVOK 16/11 Q1021 NOSIG,1,0,0,9999,0,0,0,
2026-04-15 07:00:00,METAR LEIB 150700Z VRB02KT CAVOK 14/08 Q1020 NOSIG,1,0,0,9999,0,0,0,
2026-04-15 06:30:00,METAR LEIB 150630Z 01003KT 330V060 CAVOK 11/05 Q1020 NOSIG,1,0,0,9999,0,0,0,
2026-04-15 06:00:00,METAR LEIB 150600Z 35004KT 320V020 CAVOK 09/04 Q1020 NOSIG,1,0,0,9999,0,0,0,
2026-04-15 05:30:00,METAR LEIB 150530Z 00000KT CAVOK 08/02 Q1020 NOSIG,1,0,0,9999,0,0,0,
2026-04-15 05:00:00,METAR LEIB 150500Z VRB02KT CAVOK 08/02 Q1019 NOSIG,1,0,0,9999,0,0,0,
2026-04-15 04:30:00,METAR LEIB 150430Z VRB01KT CAVOK 07/03 Q1019 NOSIG,1,0,0,9999,0,0,0,
2026-04-15 04:00:00,METAR LEIB 150400Z 01003KT CAVOK 08/02 Q1019 NOSIG,1,0,0,9999,0,0,0,
2026-04-15 03:30:00,METAR LEIB 150330Z 36004KT CAVOK 07/03 Q1019 NOSIG,1,0,0,9999,0,0,0,
2026-04-15 03:00:00,METAR LEIB 150300Z VRB01KT CAVOK 08/03 Q1019 NOSIG,1,0,0,9999,0,0,0,
2026-04-15 02:30:00,METAR LEIB 150230Z 00000KT CAVOK 08/03 Q1019 NOSIG,1,0,0,9999,0,0,0,
2026-04-15 02:00:00,METAR LEIB 150200Z VRB02KT CAVOK 08/04 Q1019 NOSIG,1,0,0,9999,0,0,0,
2026-04-15 01:30:00,METAR LEIB 150130Z 36002KT CAVOK 08/05 Q1019 NOSIG,1,0,0,9999,0,0,0,
2026-04-15 01:00:00,METAR LEIB 150100Z 03002KT CAVOK 09/05 Q1020 NOSIG,1,0,0,9999,0,0,0,
2026-04-15 00:30:00,METAR LEIB 150030Z 03003KT 360V060 CAVOK 09/05 Q1020 NOSIG,1,0,0,9999,0,0,0,
2026-04-15 00:00:00,METAR LEIB 150000Z 01003KT 330V060 CAVOK 09/05 Q1020 NOSIG,1,0,0,9999,0,0,0,
2026-04-14 23:30:00,METAR LEIB 142330Z 04002KT CAVOK 09/05 Q1020 NOSIG,1,0,0,9999,0,0,0,
2026-04-14 23:00:00,METAR LEIB 142300Z VRB01KT CAVOK 10/06 Q1020 NOSIG,1,0,0,9999,0,0,0,
2026-04-14 22:30:00,METAR LEIB 142230Z VRB02KT CAVOK 10/06 Q1020 NOSIG,1,0,0,9999,0,0,0,
2026-04-14 22:00:00,METAR LEIB 142200Z VRB02KT CAVOK 10/05 Q1020 NOSIG,1,0,0,9999,0,0,0,
2026-04-14 21:30:00,METAR LEIB 142130Z VRB02KT CAVOK 10/05 Q1020 NOSIG,1,0,0,9999,0,0,0,
2026-04-14 21:00:00,METAR LEIB 142100Z VRB02KT CAVOK 11/05 Q1019 NOSIG,1,0,0,9999,0,0,0,
2026-04-14 20:30:00,METAR LEIB 142030Z VRB01KT CAVOK 11/05 Q1019 NOSIG,1,0,0,9999,0,0,0,
2026-04-14 20:00:00,METAR LEIB 142000Z VRB02KT CAVOK 11/05 Q1019 NOSIG,1,0,0,9999,0,0,0,
2026-04-14 19:30:00,METAR LEIB 141930Z 33004KT CAVOK 12/05 Q1019 NOSIG,1,0,0,9999,0,0,0,
2026-04-14 19:00:00,METAR LEIB 141900Z VRB02KT CAVOK 14/05 Q1018 NOSIG,1,0,0,9999,0,0,0,
2026-04-14 18:30:00,METAR LEIB 141830Z VRB02KT CAVOK 15/09 Q1018 NOSIG,1,0,0,9999,0,0,0,
2026-04-14 18:00:00,METAR LEIB 141800Z 12004KT 070V160 CAVOK 16/09 Q1018 NOSIG,1,0,0,9999,0,0,0,
2026-04-14 17:30:00,METAR LEIB 141730Z 09005KT 050V130 CAVOK 17/08 Q1017 NOSIG,1,0,0,9999,0,0,0,
2026-04-14 17:00:00,METAR LEIB 141700Z 10006KT 070V140 CAVOK 17/07 Q1017 NOSIG,1,0,0,9999,0,0,0,
2026-04-14 16:30:00,METAR LEIB 141630Z 10005KT 060V150 CAVOK 18/05 Q1017 NOSIG,1,0,0,9999,0,0,0,
2026-04-14 16:00:00,METAR LEIB 141600Z VRB05KT CAVOK 18/06 Q1017 NOSIG,1,0,0,9999,0,0,0,
2026-04-14 15:30:00,METAR LEIB 141530Z 12008KT 080V150 CAVOK 18/05 Q1017 NOSIG,1,0,0,9999,0,0,0,
2026-04-14 15:00:00,METAR LEIB 141500Z 13006KT 060V200 CAVOK 19/05 Q1017 NOSIG,1,0,0,9999,0,0,0,
2026-04-14 14:30:00,METAR LEIB 141430Z VRB03KT CAVOK 19/03 Q1017 NOSIG,1,0,0,9999,0,0,0,
2026-04-14 14:00:00,METAR LEIB 141400Z 04005KT CAVOK 19/06 Q1017 NOSIG,1,0,0,9999,0,0,0,
2026-04-14 13:30:00,METAR LEIB 141330Z 32007KT 280V020 CAVOK 19/04 Q1017 NOSIG,1,0,0,9999,0,0,0,
2026-04-14 13:00:00,METAR LEIB 141300Z 33009KT 280V020 CAVOK 19/05 Q1017 NOSIG,1,0,0,9999,0,0,0,
2026-04-14 12:30:00,METAR LEIB 141230Z 33008KT 280V010 CAVOK 18/04 Q1017 NOSIG,1,0,0,9999,0,0,0,
2026-04-14 12:00:00,METAR LEIB 141200Z 01006KT 270V070 CAVOK 18/05 Q1017 NOSIG,1,0,0,9999,0,0,0,
2026-04-14 11:30:00,METAR LEIB 141130Z 26003KT 9999 FEW045 18/05 Q1017 NOSIG,0,3,0,10000,0,0,0,
2026-04-14 11:00:00,METAR LEIB 141100Z 11006KT 070V160 9999 FEW049 17/06 Q1017 NOSIG,0,6,0,10000,0,0,0,
2026-04-14 10:30:00,METAR LEIB 141030Z VRB03KT CAVOK 18/04 Q1017 NOSIG,1,0,0,9999,0,0,0,
2026-04-14 10:00:00,METAR LEIB 141000Z 02007KT 350V050 CAVOK 17/04 Q1017 NOSIG,1,0,0,9999,0,0,0,
2026-04-14 09:30:00,METAR LEIB 140930Z 31006KT 250V350 CAVOK 17/05 Q1017 NOSIG,1,0,0,9999,0,0,0,
2026-04-14 09:00:00,METAR LEIB 140900Z 32009KT 280V020 CAVOK 17/04 Q1017 NOSIG,1,0,0,9999,0,0,0,
2026-04-14 08:30:00,METAR LEIB 140830Z 34007KT 280V030 CAVOK 16/05 Q1017 NOSIG,1,0,0,9999,0,0,0,
2026-04-14 08:00:00,METAR LEIB 140800Z 35006KT 290V010 CAVOK 16/06 Q1016 NOSIG,1,0,0,9999,0,0,0,
2026-04-14 07:30:00,METAR LEIB 140730Z VRB02KT CAVOK 15/07 Q1016 NOSIG,1,0,0,9999,0,0,0,
2026-04-14 07:00:00,METAR LEIB 140700Z 31003KT 250V030 CAVOK 14/07 Q1016 NOSIG,1,0,0,9999,0,0,0,
2026-04-14 06:30:00,METAR LEIB 140630Z VRB01KT CAVOK 09/06 Q1016 NOSIG,1,0,0,9999,0,0,0,
2026-04-14 06:00:00,METAR LEIB 140600Z VRB02KT CAVOK 08/06 Q1016 NOSIG,1,0,0,9999,0,0,0,
2026-04-14 05:30:00,METAR LEIB 140530Z 00000KT CAVOK 08/05 Q1016 NOSIG,1,0,0,9999,0,0,0,
2026-04-14 05:00:00,METAR LEIB 140500Z VRB02KT CAVOK 09/06 Q1016 NOSIG,1,0,0,9999,0,0,0,
2026-04-14 04:30:00,METAR LEIB 140430Z 02003KT 300V050 CAVOK 08/06 Q1015 NOSIG,1,0,0,9999,0,0,0,
2026-04-14 04:00:00,METAR LEIB 140400Z VRB01KT CAVOK 08/07 Q1015 NOSIG,1,0,0,9999,0,0,0,
2026-04-14 03:30:00,METAR LEIB 140330Z VRB01KT CAVOK 08/07 Q1015 NOSIG,1,0,0,9999,0,0,0,
2026-04-14 03:00:00,METAR LEIB 140300Z 00000KT CAVOK 08/06 Q1015 NOSIG,1,0,0,9999,0,0,0,
2026-04-14 02:30:00,METAR LEIB 140230Z 00000KT CAVOK 09/07 Q1015 NOSIG,1,0,0,9999,0,0,0,
2026-04-14 02:00:00,METAR LEIB 140200Z VRB01KT CAVOK 09/08 Q1015 NOSIG,1,0,0,9999,0,0,0,
2026-04-14 01:30:00,METAR LEIB 140130Z 32005KT CAVOK 10/08 Q1015 NOSIG,1,0,0,9999,0,0,0,
2026-04-14 01:00:00,METAR LEIB 140100Z 31005KT CAVOK 11/08 Q1015 NOSIG,1,0,0,9999,0,0,0,
2026-04-14 00:30:00,METAR LEIB 140030Z 31006KT CAVOK 11/08 Q1015 NOSIG,1,0,0,9999,0,0,0,
2026-04-14 00:00:00,METAR LEIB 140000Z 31004KT CAVOK 10/08 Q1015 NOSIG,1,0,0,9999,0,0,0,
2026-04-13 23:30:00,METAR LEIB 132330Z 28005KT CAVOK 11/08 Q1015 NOSIG,1,0,0,9999,0,0,0,
2026-04-13 23:00:00,METAR LEIB 132300Z 32003KT 280V030 CAVOK 11/07 Q1015 NOSIG,1,0,0,9999,0,0,0,
2026-04-13 22:30:00,METAR LEIB 132230Z 31004KT 270V330 CAVOK 11/07 Q1015 NOSIG,1,0,0,9999,0,0,0,
2026-04-13 22:00:00,METAR LEIB 132200Z 30003KT 240V350 CAVOK 12/07 Q1015 NOSIG,1,0,0,9999,0,0,0,
2026-04-13 21:30:00,METAR LEIB 132130Z 31003KT 260V020 CAVOK 12/08 Q1015 NOSIG,1,0,0,9999,0,0,0,
2026-04-13 21:00:00,METAR LEIB 132100Z 27006KT CAVOK 13/08 Q1015 NOSIG,1,0,0,9999,0,0,0,
2026-04-13 20:30:00,METAR LEIB 132030Z 27006KT CAVOK 13/08 Q1014 NOSIG,1,0,0,9999,0,0,0,
2026-04-13 20:00:00,METAR LEIB 132000Z 28004KT 240V320 CAVOK 13/08 Q1014 NOSIG,1,0,0,9999,0,0,0,
2026-04-13 19:30:00,METAR LEIB 131930Z 28005KT 240V300 CAVOK 13/08 Q1013 NOSIG,1,0,0,9999,0,0,0,
2026-04-13 19:00:00,METAR LEIB 131900Z 28004KT CAVOK 13/09 Q1013 NOSIG,1,0,0,9999,0,0,0,
2026-04-13 18:30:00,METAR LEIB 131830Z 26004KT 230V290 CAVOK 13/09 Q1013 NOSIG,1,0,0,9999,0,0,0,
2026-04-13 18:00:00,METAR LEIB 131800Z 25005KT CAVOK 13/08 Q1012 NOSIG,1,0,0,9999,0,0,0,
2026-04-13 17:30:00,METAR LEIB 131730Z 26004KT 230V310 CAVOK 14/07 Q1012 NOSIG,1,0,0,9999,0,0,0,
2026-04-13 17:00:00,METAR LEIB 131700Z 22003KT 190V250 9999 FEW030 14/08 Q1012 NOSIG,0,3,0,10000,0,0,0,
2026-04-13 16:30:00,METAR LEIB 131630Z VRB02KT 9999 FEW030 14/07 Q1012 NOSIG,0,2,0,10000,0,0,0,
2026-04-13 16:00:00,METAR LEIB 131600Z VRB01KT 9999 FEW032 15/06 Q1011 NOSIG,0,1,0,10000,0,0,0,
2026-04-13 15:30:00,METAR LEIB 131530Z 34006KT 300V040 9999 FEW032 15/07 Q1011 NOSIG,0,6,0,10000,0,0,0,
2026-04-13 15:00:00,METAR LEIB 131500Z 02007KT 350V060 9999 FEW032 15/07 Q1011 NOSIG,0,7,0,10000,0,0,0,
2026-04-13 14:30:00,METAR LEIB 131430Z 01004KT 330V080 9999 FEW032 15/07 Q1011 NOSIG,0,4,0,10000,0,0,0,
2026-04-13 14:00:00,METAR LEIB 131400Z VRB08KT 9999 FEW034 SCT049 14/08 Q1011 NOSIG,0,8,0,10000,0,0,0,
2026-04-13 13:30:00,METAR LEIB 131330Z 36006KT 330V040 9999 FEW034 SCT049 14/08 Q1011 NOSIG,0,6,0,10000,0,0,0,
2026-04-13 13:00:00,METAR LEIB 131300Z VRB04KT 9999 -RA FEW034 BKN049 13/08 Q1011 NOSIG,0,4,0,10000,0,0,0,-RA
2026-04-13 12:30:00,METAR LEIB 131230Z 36007KT 310V060 9999 FEW026 BKN044 13/07 Q1011 NOSIG,0,7,0,10000,0,0,0,
2026-04-13 12:00:00,METAR LEIB 131200Z VRB04KT 9999 -RA FEW026 BKN042 13/07 Q1011 NOSIG,0,4,0,10000,0,0,0,-RA
2026-04-13 11:30:00,METAR LEIB 131130Z VRB06KT 9999 -RA FEW023 BKN046 13/08 Q1010 NOSIG,0,6,0,10000,0,0,0,-RA
2026-04-13 11:00:00,METAR LEIB 131100Z 36010KT 320V050 9999 -RA FEW023 BKN046 13/08 Q1010 NOSIG,0,10,0,10000,0,0,0,-RA
2026-04-13 10:30:00,METAR LEIB 131030Z 01006KT 280V070 9999 -RA FEW023 BKN046 12/08 Q1010 NOSIG,0,6,0,10000,0,0,0,-RA
2026-04-13 10:00:00,METAR LEIB 131000Z 01008KT 320V070 9999 -RA FEW020 BKN048 12/08 Q1010 NOSIG,0,8,0,10000,0,0,0,-RA
2026-04-13 09:30:00,METAR LEIB 130930Z 35008KT 320V030 9999 -RA FEW020 BKN049 12/08 Q1009 NOSIG,0,8,0,10000,0,0,0,-RA
2026-04-13 09:00:00,METAR LEIB 130900Z 01006KT 330V060 9999 -RA FEW025 BKN049 12/09 Q1009 NOSIG,0,6,0,10000,0,0,0,-RA
2026-04-13 08:30:00,METAR LEIB 130830Z 03006KT 350V080 9999 -RA FEW025 BKN049 12/09 Q1009 NOSIG,0,6,0,10000,0,0,0,-RA
2026-04-13 08:00:00,METAR LEIB 130800Z 04005KT 350V100 9999 -RA BKN048 12/08 Q1008 NOSIG,0,5,0,10000,0,0,0,-RA
2026-04-13 07:30:00,METAR LEIB 130730Z 04006KT 360V090 9999 -RA BKN048 12/07 Q1008 NOSIG,0,6,0,10000,0,0,0,-RA
2026-04-13 07:00:00,METAR LEIB 130700Z 04003KT 9999 -RA BKN048 11/07 Q1008 NOSIG,0,3,0,10000,0,0,0,-RA
2026-04-13 06:30:00,METAR LEIB 130630Z 01008KT 320V100 9999 -RA BKN047 OVC049 11/07 Q1007 NOSIG,0,8,0,10000,0,0,0,-RA
2026-04-13 06:00:00,METAR LEIB 130600Z 36013G24KT 320V060 9999 -RA SCT044 OVC048 11/06 Q1007 NOSIG,0,13,1,10000,0,0,0,-RA
2026-04-13 05:30:00,METAR LEIB 130530Z 01010KT 330V050 9999 -RA FEW043 OVC048 11/07 Q1006 NOSIG,0,10,0,10000,0,0,0,-RA
2026-04-13 05:00:00,METAR LEIB 130500Z 36012G24KT 330V030 9999 -RA SCT042 BKN048 11/07 Q1006 NOSIG,0,12,1,10000,0,0,0,-RA
2026-04-13 04:30:00,METAR LEIB 130430Z COR 36014G24KT 320V030 9999 -RA FEW025 BKN040 OVC047 10/06 Q1006 NOSIG,0,14,1,10000,0,0,0,-RA
2026-04-13 04:00:00,METAR LEIB 130400Z 35015KT 320V030 9999 -RA FEW013 SCT037 BKN046 11/08 Q1006 RERA NOSIG,0,15,0,10000,0,0,0,"-RA,RA"
2026-04-13 03:44:00,SPECI LEIB 130344Z 36007KT 280V070 9999 -RA FEW012 SCT017 OVC036 11/08 Q1007 NOSIG,0,7,0,10000,0,0,0,-RA
2026-04-13 03:30:00,METAR LEIB 130330Z VRB09KT 9999 RA FEW012 SCT017 BKN032 12/09 Q1007 NOSIG,0,9,0,10000,0,0,0,RA
2026-04-13 03:00:00,METAR LEIB 130300Z 26001KT 9999 SCT024 OVC027 12/08 Q1007 NOSIG,0,1,0,10000,0,0,0,
2026-04-13 02:30:00,METAR LEIB 130230Z 01011KT 320V040 9999 FEW018 SCT023 BKN045 12/08 Q1006 NOSIG,0,11,0,10000,0,0,0,
2026-04-13 02:00:00,METAR LEIB 130200Z 36010KT 320V040 9999 FEW014 BKN016 OVC019 13/09 Q1007 NOSIG,0,10,0,10000,0,0,0,
2026-04-13 01:30:00,METAR LEIB 130130Z 35008KT 300V040 9999 SCT014 BKN016 12/10 Q1007 NOSIG,0,8,0,10000,0,0,0,
2026-04-13 01:00:00,METAR LEIB 130100Z 36010KT 320V060 9000 SCT013 BKN016 12/09 Q1007 NOSIG,0,10,0,9000,0,0,0,
2026-04-13 00:30:00,METAR LEIB 130030Z 01011KT 330V040 9000 BKN013 BKN016 13/10 Q1007 NOSIG,0,11,0,9000,0,0,0,
2026-04-13 00:00:00,METAR LEIB 130000Z 36010KT 320V050 9000 -SHRA FEW014TCU SCT016 BKN020 13/10 Q1007 NOSIG,0,10,0,9000,0,0,0,RA
2026-04-12 23:30:00,METAR LEIB 122330Z 01010KT 320V080 9000 -SHRA FEW014TCU SCT016 BKN020 13/10 Q1007 NOSIG,0,10,0,9000,0,0,0,RA
2026-04-12 23:00:00,METAR LEIB 122300Z 01011KT 350V050 9000 -SHRA FEW014TCU SCT016 BKN020 13/11 Q1008 NOSIG,0,11,0,9000,0,0,0,RA
2026-04-12 22:30:00,METAR LEIB 122230Z 01010KT 9000 -SHRA SCT014TCU BKN017 13/11 Q1008 NOSIG,0,10,0,9000,0,0,0,RA
2026-04-12 22:00:00,METAR LEIB 122200Z 02008KT 340V040 9000 -RADZ BKN014TCU OVC018 14/11 Q1008 NOSIG,0,8,0,9000,0,0,0,"-RA,DZ"
2026-04-12 21:30:00,METAR LEIB 122130Z 01010KT 9000 -SHRA BKN014TCU OVC016 14/11 Q1008 NOSIG,0,10,0,9000,0,0,0,RA
2026-04-12 21:00:00,METAR LEIB 122100Z 01009KT 9999 -SHRA BKN014TCU OVC023 14/12 Q1008 NOSIG,0,9,0,10000,0,0,0,RA
2026-04-12 20:30:00,METAR LEIB 122030Z 36010KT 320V040 9999 -DZ BKN013TCU OVC016 14/12 Q1008 NOSIG,0,10,0,10000,0,0,0,DZ
2026-04-12 20:00:00,METAR LEIB 122000Z 36008KT 310V050 9999 -SHRA FEW016TCU 14/11 Q1008 NOSIG,0,8,0,10000,0,0,0,RA
2026-04-12 19:30:00,METAR LEIB 121930Z 01007KT 330V060 9999 -RA FEW016 14/11 Q1007 NOSIG,0,7,0,10000,0,0,0,-RA
2026-04-12 19:00:00,METAR LEIB 121900Z 02010KT 340V060 9999 -RA FEW026 14/11 Q1007 NOSIG,0,10,0,10000,0,0,0,-RA
2026-04-12 18:30:00,METAR LEIB 121830Z 01012KT 340V050 9999 -RA FEW016 BKN048TCU 14/11 Q1007 NOSIG,0,12,0,10000,0,0,0,-RA
2026-04-12 18:00:00,METAR LEIB 121800Z 01009KT 330V050 9999 -SHRA FEW014 SCT019 BKN045TCU 14/12 Q1007 NOSIG,0,9,0,10000,0,0,0,RA
2026-04-12 17:30:00,METAR LEIB 121730Z 01009KT 340V050 9999 -SHRA FEW015 SCT017 BKN033TCU 14/12 Q1007 NOSIG,0,9,0,10000,0,0,0,RA
2026-04-12 17:00:00,METAR LEIB 121700Z 01011KT 330V050 9999 -DZ FEW012 SCT027 BKN038TCU 14/12 Q1007 NOSIG,0,11,0,10000,0,0,0,DZ
2026-04-12 16:30:00,METAR LEIB 121630Z 36013KT 9999 -RA FEW014 SCT018 BKN042TCU 14/12 Q1007 NOSIG,0,13,0,10000,0,0,0,-RA
2026-04-12 16:00:00,METAR LEIB 121600Z 02015KT 340V060 9999 -RA FEW014 SCT019 BKN042TCU 15/13 Q1006 RERA NOSIG,0,15,0,10000,0,0,0,"-RA,RA"
2026-04-12 15:50:00,SPECI LEIB 121550Z 02015KT 360V070 9999 -RA FEW012 SCT016 BKN032TCU 15/13 Q1006 RERA NOSIG,0,15,0,10000,0,0,0,"-RA,RA"
2026-04-12 15:00:00,METAR LEIB 121500Z 03016KT 360V060 9999 RA FEW010 SCT013 BKN017TCU 15/13 Q1006 NOSIG,0,16,0,10000,0,0,0,RA
2026-04-12 14:48:00,SPECI LEIB 121448Z 03016KT 9999 RA BKN013 BKN017 BKN021TCU 15/13 Q1006 NOSIG,0,16,0,10000,0,0,0,RA
2026-04-12 14:30:00,METAR LEIB 121430Z 03015G25KT 360V060 9999 BKN013 BKN017 BKN021TCU 16/13 Q1006 NOSIG,0,15,1,10000,0,0,0,
2026-04-12 14:00:00,METAR LEIB 121400Z 03016KT 350V050 9999 SCT015 BKN017 OVC022TCU 16/12 Q1006 NOSIG,0,16,0,10000,0,0,0,
2026-04-12 13:30:00,METAR LEIB 121330Z 04017KT 9999 SCT014 OVC017TCU BKN021 16/13 Q1006 NOSIG,0,17,0,10000,0,0,0,
2026-04-12 13:00:00,METAR LEIB 121300Z 04018KT 9999 FEW015 BKN018TCU BKN028 16/13 Q1006 NOSIG,0,18,0,10000,0,0,0,
2026-04-12 12:52:00,SPECI LEIB 121252Z 04020KT 9999 SCT015 BKN018TCU 17/13 Q1006 NOSIG,0,20,0,10000,0,0,0,
2026-04-12 12:30:00,METAR LEIB 121230Z 04019KT 010V070 9999 FEW011 SCT018 17/13 Q1006 NOSIG,0,19,0,10000,0,0,0,
2026-04-12 12:00:00,METAR LEIB 121200Z 03018KT 9999 FEW017 SCT039 17/13 Q1006 NOSIG,0,18,0,10000,0,0,0,
2026-04-12 11:30:00,METAR LEIB 121130Z 04015KT 9999 FEW016 16/13 Q1006 NOSIG,0,15,0,10000,0,0,0,
2026-04-12 11:00:00,METAR LEIB 121100Z 04015KT 9999 FEW015 SCT017 16/13 Q1006 NOSIG,0,15,0,10000,0,0,0,
2026-04-12 10:30:00,METAR LEIB 121030Z 04013KT 360V070 9999 -RA FEW018 16/13 Q1006 NOSIG,0,13,0,10000,0,0,0,-RA
2026-04-12 10:00:00,METAR LEIB 121000Z 02014KT 350V060 9999 -DZ FEW021 SCT036 17/13 Q1006 NOSIG,0,14,0,10000,0,0,0,DZ
2026-04-12 09:30:00,METAR LEIB 120930Z 04015G25KT 9999 FEW021 BKN030 18/13 Q1006 NOSIG,0,15,1,10000,0,0,0,
2026-04-12 09:00:00,METAR LEIB 120900Z 03013KT 350V080 9999 FEW021 18/13 Q1006 NOSIG,0,13,0,10000,0,0,0,
2026-04-12 08:30:00,METAR LEIB 120830Z 05014KT 9999 FEW021 18/13 Q1006 NOSIG,0,14,0,10000,0,0,0,
2026-04-12 08:00:00,METAR LEIB 120800Z 03011KT 350V050 9999 FEW042 18/13 Q1006 NOSIG,0,11,0,10000,0,0,0,
2026-04-12 07:30:00,METAR LEIB 120730Z 04007KT 9999 FEW040 18/12 Q1006 NOSIG,0,7,0,10000,0,0,0,
2026-04-12 07:00:00,METAR LEIB 120700Z 05008KT 360V090 9999 FEW040 17/12 Q1006 NOSIG,0,8,0,10000,0,0,0,
2026-04-12 06:30:00,METAR LEIB 120630Z 06009KT CAVOK 17/12 Q1006 NOSIG,1,0,0,9999,0,0,0,
2026-04-12 06:00:00,METAR LEIB 120600Z 05007KT 020V080 9999 -RA FEW045 17/13 Q1006 NOSIG,0,7,0,10000,0,0,0,-RA
2026-04-12 05:30:00,METAR LEIB 120530Z COR 05007KT 9999 -RA FEW045 17/13 Q1006 NOSIG,0,7,0,10000,0,0,0,-RA
2026-04-12 05:00:00,METAR LEIB 120500Z 07008KT 030V090 CAVOK 17/13 Q1006 NOSIG,1,0,0,9999,0,0,0,
2026-04-12 04:30:00,METAR LEIB 120430Z 07011KT 050V110 CAVOK 17/13 Q1006 NOSIG,1,0,0,9999,0,0,0,
2026-04-12 04:00:00,METAR LEIB 120400Z 04004KT 010V070 CAVOK 17/13 Q1005 NOSIG,1,0,0,9999,0,0,0,
2026-04-12 03:30:00,METAR LEIB 120330Z 07011KT CAVOK 17/13 Q1006 NOSIG,1,0,0,9999,0,0,0,
2026-04-12 03:00:00,METAR LEIB 120300Z 07013KT 050V110 CAVOK 18/13 Q1006 NOSIG,1,0,0,9999,0,0,0,
2026-04-12 02:30:00,METAR LEIB 120230Z 07009KT 040V100 CAVOK 20/09 Q1006 NOSIG,1,0,0,9999,0,0,0,
2026-04-12 02:00:00,METAR LEIB 120200Z 03008KT CAVOK 20/08 Q1006 NOSIG,1,0,0,9999,0,0,0,
2026-04-12 01:30:00,METAR LEIB 120130Z VRB02KT CAVOK 18/11 Q1006 NOSIG,1,0,0,9999,0,0,0,
2026-04-12 01:00:00,METAR LEIB 120100Z 07005KT 030V090 CAVOK 18/11 Q1007 NOSIG,1,0,0,9999,0,0,0,
2026-04-12 00:30:00,METAR LEIB 120030Z 05006KT 020V100 CAVOK 19/11 Q1007 NOSIG,1,0,0,9999,0,0,0,
2026-04-12 00:00:00,METAR LEIB 120000Z 03008KT 350V100 CAVOK 18/13 Q1007 NOSIG,1,0,0,9999,0,0,0,
2026-04-11 23:30:00,METAR LEIB 112330Z 10009KT 060V140 CAVOK 18/12 Q1008 NOSIG,1,0,0,9999,0,0,0,
2026-04-11 23:00:00,METAR LEIB 112300Z VRB04KT CAVOK 19/11 Q1006 NOSIG,1,0,0,9999,0,0,0,
2026-04-11 22:30:00,METAR LEIB 112230Z 02008KT CAVOK 19/11 Q1007 NOSIG,1,0,0,9999,0,0,0,
2026-04-11 22:00:00,METAR LEIB 112200Z 08008KT 040V120 CAVOK 19/12 Q1009 NOSIG,1,0,0,9999,0,0,0,
2026-04-11 21:30:00,METAR LEIB 112130Z 08010KT 050V110 CAVOK 19/11 Q1008 NOSIG,1,0,0,9999,0,0,0,
2026-04-11 21:00:00,METAR LEIB 112100Z 07011KT 050V110 CAVOK 19/11 Q1007 NOSIG,1,0,0,9999,0,0,0,
2026-04-11 20:30:00,METAR LEIB 112030Z 07009KT 050V120 CAVOK 19/11 Q1007 NOSIG,1,0,0,9999,0,0,0,
2026-04-11 20:00:00,METAR LEIB 112000Z 06015KT CAVOK 19/12 Q1007 NOSIG,1,0,0,9999,0,0,0,
2026-04-11 19:30:00,METAR LEIB 111930Z 09011KT 070V130 CAVOK 19/13 Q1006 NOSIG,1,0,0,9999,0,0,0,
2026-04-11 19:00:00,METAR LEIB 111900Z 06009KT CAVOK 18/13 Q1006 NOSIG,1,0,0,9999,0,0,0,
2026-04-11 18:30:00,METAR LEIB 111830Z 05010KT 030V090 CAVOK 18/13 Q1006 NOSIG,1,0,0,9999,0,0,0,
2026-04-11 18:00:00,METAR LEIB 111800Z 08011KT 050V110 CAVOK 18/14 Q1008 NOSIG,1,0,0,9999,0,0,0,
2026-04-11 17:30:00,METAR LEIB 111730Z 06008KT 030V110 CAVOK 18/14 Q1007 NOSIG,1,0,0,9999,0,0,0,
2026-04-11 17:00:00,METAR LEIB 111700Z 06009KT 030V090 CAVOK 18/14 Q1007 NOSIG,1,0,0,9999,0,0,0,
2026-04-11 16:30:00,METAR LEIB 111630Z 07009KT 040V130 CAVOK 19/13 Q1007 NOSIG,1,0,0,9999,0,0,0,
2026-04-11 16:00:00,METAR LEIB 111600Z 06013KT CAVOK 19/13 Q1006 NOSIG,1,0,0,9999,0,0,0,
2026-04-11 15:30:00,METAR LEIB 111530Z 06009KT CAVOK 19/14 Q1007 NOSIG,1,0,0,9999,0,0,0,
2026-04-11 15:00:00,METAR LEIB 111500Z 07010KT 050V120 CAVOK 19/13 Q1008 NOSIG,1,0,0,9999,0,0,0,
2026-04-11 14:30:00,METAR LEIB 111430Z 07011KT CAVOK 19/14 Q1008 NOSIG,1,0,0,9999,0,0,0,
2026-04-11 14:00:00,METAR LEIB 111400Z 07010KT 040V100 CAVOK 20/14 Q1008 NOSIG,1,0,0,9999,0,0,0,
2026-04-11 13:30:00,METAR LEIB 111330Z 08013KT CAVOK 20/13 Q1008 NOSIG,1,0,0,9999,0,0,0,
2026-04-11 13:00:00,METAR LEIB 111300Z 08012KT 050V110 CAVOK 20/14 Q1008 NOSIG,1,0,0,9999,0,0,0,
2026-04-11 12:30:00,METAR LEIB 111230Z 07012KT 040V110 CAVOK 20/14 Q1009 NOSIG,1,0,0,9999,0,0,0,
2026-04-11 12:00:00,METAR LEIB 111200Z 08013KT CAVOK 20/14 Q1009 NOSIG,1,0,0,9999,0,0,0,
2026-04-11 11:30:00,METAR LEIB 111130Z 08014KT 040V100 CAVOK 20/14 Q1009 NOSIG,1,0,0,9999,0,0,0,
2026-04-11 11:00:00,METAR LEIB 111100Z 08014KT 030V110 CAVOK 20/13 Q1009 NOSIG,1,0,0,9999,0,0,0,
2026-04-11 10:30:00,METAR LEIB 111030Z 08015KT 050V110 CAVOK 20/13 Q1009 NOSIG,1,0,0,9999,0,0,0,
2026-04-11 10:00:00,METAR LEIB 111000Z 08015KT CAVOK 20/13 Q1009 NOSIG,1,0,0,9999,0,0,0,
2026-04-11 09:30:00,METAR LEIB 110930Z 08017KT 050V110 CAVOK 20/12 Q1009 NOSIG,1,0,0,9999,0,0,0,
2026-04-11 09:00:00,METAR LEIB 110900Z 08016KT CAVOK 20/12 Q1010 NOSIG,1,0,0,9999,0,0,0,
2026-04-11 08:30:00,METAR LEIB 110830Z 07015KT CAVOK 20/11 Q1010 NOSIG,1,0,0,9999,0,0,0,
2026-04-11 08:00:00,METAR LEIB 110800Z 07013KT 040V110 CAVOK 20/11 Q1010 NOSIG,1,0,0,9999,0,0,0,
2026-04-11 07:30:00,METAR LEIB 110730Z 08013KT 050V110 CAVOK 20/11 Q1010 NOSIG,1,0,0,9999,0,0,0,
2026-04-11 07:00:00,METAR LEIB 110700Z 07010KT CAVOK 19/10 Q1010 NOSIG,1,0,0,9999,0,0,0,
2026-04-11 06:30:00,METAR LEIB 110630Z 07010KT CAVOK 18/10 Q1011 NOSIG,1,0,0,9999,0,0,0,
2026-04-11 06:00:00,METAR LEIB 110600Z 09005KT 030V160 CAVOK 19/10 Q1011 NOSIG,1,0,0,9999,0,0,0,
2026-04-11 05:30:00,METAR LEIB 110530Z 07008KT CAVOK 18/09 Q1010 NOSIG,1,0,0,9999,0,0,0,
2026-04-11 05:00:00,METAR LEIB 110500Z 07009KT CAVOK 18/10 Q1010 NOSIG,1,0,0,9999,0,0,0,
2026-04-11 04:30:00,METAR LEIB 110430Z 07008KT CAVOK 18/09 Q1011 NOSIG,1,0,0,9999,0,0,0,
2026-04-11 04:00:00,METAR LEIB 110400Z 07008KT CAVOK 18/10 Q1011 NOSIG,1,0,0,9999,0,0,0,
2026-04-11 03:30:00,METAR LEIB 110330Z 07007KT CAVOK 17/09 Q1011 NOSIG,1,0,0,9999,0,0,0,
2026-04-11 03:00:00,METAR LEIB 110300Z 06008KT CAVOK 16/09 Q1012 NOSIG,1,0,0,9999,0,0,0,
2026-04-11 02:30:00,METAR LEIB 110230Z 07006KT CAVOK 17/08 Q1012 NOSIG,1,0,0,9999,0,0,0,
2026-04-11 02:00:00,METAR LEIB 110200Z 05008KT CAVOK 18/08 Q1012 NOSIG,1,0,0,9999,0,0,0,
2026-04-11 01:30:00,METAR LEIB 110130Z 06008KT CAVOK 17/08 Q1012 NOSIG,1,0,0,9999,0,0,0,
2026-04-11 01:00:00,METAR LEIB 110100Z 06008KT CAVOK 17/09 Q1013 NOSIG,1,0,0,9999,0,0,0,
2026-04-11 00:30:00,METAR LEIB 110030Z 06008KT CAVOK 17/08 Q1013 NOSIG,1,0,0,9999,0,0,0,
2026-04-11 00:00:00,METAR LEIB 110000Z 06008KT CAVOK 17/08 Q1013 NOSIG,1,0,0,9999,0,0,0,
2026-04-10 23:30:00,METAR LEIB 102330Z 06008KT CAVOK 18/08 Q1013 NOSIG,1,0,0,9999,0,0,0,
2026-04-10 23:00:00,METAR LEIB 102300Z 06008KT CAVOK 18/08 Q1014 NOSIG,1,0,0,9999,0,0,0,
2026-04-10 22:30:00,METAR LEIB 102230Z 06007KT CAVOK 18/08 Q1014 NOSIG,1,0,0,9999,0,0,0,
2026-04-10 22:00:00,METAR LEIB 102200Z 07007KT CAVOK 18/08 Q1014 NOSIG,1,0,0,9999,0,0,0,
2026-04-10 21:30:00,METAR LEIB 102130Z 06007KT CAVOK 18/08 Q1014 NOSIG,1,0,0,9999,0,0,0,
2026-04-10 21:00:00,METAR LEIB 102100Z 07008KT CAVOK 18/07 Q1015 NOSIG,1,0,0,9999,0,0,0,
2026-04-10 20:30:00,METAR LEIB 102030Z 06006KT CAVOK 18/07 Q1015 NOSIG,1,0,0,9999,0,0,0,
2026-04-10 20:00:00,METAR LEIB 102000Z 06005KT CAVOK 18/06 Q1015 NOSIG,1,0,0,9999,0,0,0,
2026-04-10 19:30:00,METAR LEIB 101930Z 06006KT CAVOK 17/07 Q1015 NOSIG,1,0,0,9999,0,0,0,
2026-04-10 19:00:00,METAR LEIB 101900Z 06005KT 9999 FEW005 17/08 Q1015 NOSIG,0,5,0,10000,0,0,0,
2026-04-10 18:30:00,METAR LEIB 101830Z 07005KT 9999 FEW005 17/09 Q1015 NOSIG,0,5,0,10000,0,0,0,
2026-04-10 18:00:00,METAR LEIB 101800Z 07005KT 9999 FEW005 19/10 Q1015 NOSIG,0,5,0,10000,0,0,0,
2026-04-10 17:30:00,METAR LEIB 101730Z 07006KT CAVOK 20/10 Q1015 NOSIG,1,0,0,9999,0,0,0,
2026-04-10 17:00:00,METAR LEIB 101700Z 07005KT CAVOK 20/10 Q1015 NOSIG,1,0,0,9999,0,0,0,
2026-04-10 16:30:00,METAR LEIB 101630Z 09005KT 070V140 CAVOK 21/10 Q1015 NOSIG,1,0,0,9999,0,0,0,
2026-04-10 16:00:00,METAR LEIB 101600Z 08006KT 050V110 CAVOK 21/10 Q1015 NOSIG,1,0,0,9999,0,0,0,
2026-04-10 15:30:00,METAR LEIB 101530Z 08007KT 050V120 CAVOK 21/10 Q1015 NOSIG,1,0,0,9999,0,0,0,
2026-04-10 15:00:00,METAR LEIB 101500Z 07008KT CAVOK 21/12 Q1015 NOSIG,1,0,0,9999,0,0,0,
2026-04-10 14:30:00,METAR LEIB 101430Z 09007KT 060V120 CAVOK 21/11 Q1016 NOSIG,1,0,0,9999,0,0,0,
2026-04-10 14:00:00,METAR LEIB 101400Z 08007KT 050V140 CAVOK 22/11 Q1016 NOSIG,1,0,0,9999,0,0,0,
2026-04-10 13:30:00,METAR LEIB 101330Z 08008KT CAVOK 22/10 Q1016 NOSIG,1,0,0,9999,0,0,0,
2026-04-10 13:00:00,METAR LEIB 101300Z 08007KT 050V120 CAVOK 22/10 Q1017 NOSIG,1,0,0,9999,0,0,0,
2026-04-10 12:30:00,METAR LEIB 101230Z 09007KT 050V130 CAVOK 22/11 Q1017 NOSIG,1,0,0,9999,0,0,0,
2026-04-10 12:00:00,METAR LEIB 101200Z 10007KT 050V130 CAVOK 22/09 Q1017 NOSIG,1,0,0,9999,0,0,0,
2026-04-10 11:30:00,METAR LEIB 101130Z 09006KT 060V120 CAVOK 22/08 Q1018 NOSIG,1,0,0,9999,0,0,0,
2026-04-10 11:00:00,METAR LEIB 101100Z 09007KT 070V130 CAVOK 21/09 Q1018 NOSIG,1,0,0,9999,0,0,0,
2026-04-10 10:30:00,METAR LEIB 101030Z 09007KT 050V120 CAVOK 21/11 Q1018 NOSIG,1,0,0,9999,0,0,0,
2026-04-10 10:00:00,METAR LEIB 101000Z 08007KT 050V110 CAVOK 21/10 Q1018 NOSIG,1,0,0,9999,0,0,0,
2026-04-10 09:30:00,METAR LEIB 100930Z 08007KT CAVOK 21/11 Q1018 NOSIG,1,0,0,9999,0,0,0,
2026-04-10 09:00:00,METAR LEIB 100900Z 09008KT CAVOK 20/10 Q1018 NOSIG,1,0,0,9999,0,0,0,
2026-04-10 08:30:00,METAR LEIB 100830Z 10005KT CAVOK 20/10 Q1018 NOSIG,1,0,0,9999,0,0,0,
2026-04-10 08:00:00,METAR LEIB 100800Z 09004KT 050V110 CAVOK 19/09 Q1017 NOSIG,1,0,0,9999,0,0,0,
2026-04-10 07:30:00,METAR LEIB 100730Z 08004KT CAVOK 18/09 Q1017 NOSIG,1,0,0,9999,0,0,0,
2026-04-10 07:00:00,METAR LEIB 100700Z 08004KT CAVOK 17/11 Q1017 NOSIG,1,0,0,9999,0,0,0,
2026-04-10 06:30:00,METAR LEIB 100630Z 05003KT CAVOK 14/07 Q1017 NOSIG,1,0,0,9999,0,0,0,
2026-04-10 06:00:00,METAR LEIB 100600Z 05003KT CAVOK 13/06 Q1017 NOSIG,1,0,0,9999,0,0,0,
2026-04-10 05:30:00,METAR LEIB 100530Z VRB02KT CAVOK 13/05 Q1017 NOSIG,1,0,0,9999,0,0,0,
2026-04-10 05:00:00,METAR LEIB 100500Z 02003KT CAVOK 12/05 Q1017 NOSIG,1,0,0,9999,0,0,0,
2026-04-10 04:30:00,METAR LEIB 100430Z 03004KT CAVOK 13/05 Q1017 NOSIG,1,0,0,9999,0,0,0,
2026-04-10 04:00:00,METAR LEIB 100400Z 02003KT CAVOK 15/04 Q1017 NOSIG,1,0,0,9999,0,0,0,
2026-04-10 03:30:00,METAR LEIB 100330Z 04002KT CAVOK 13/06 Q1017 NOSIG,1,0,0,9999,0,0,0,
2026-04-10 03:00:00,METAR LEIB 100300Z VRB01KT CAVOK 14/04 Q1017 NOSIG,1,0,0,9999,0,0,0,
2026-04-10 02:30:00,METAR LEIB 100230Z 01003KT CAVOK 14/04 Q1017 NOSIG,1,0,0,9999,0,0,0,
2026-04-10 02:00:00,METAR LEIB 100200Z 02003KT 340V060 CAVOK 14/04 Q1017 NOSIG,1,0,0,9999,0,0,0,
2026-04-10 01:30:00,METAR LEIB 100130Z VRB02KT CAVOK 14/04 Q1018 NOSIG,1,0,0,9999,0,0,0,
2026-04-10 01:00:00,METAR LEIB 100100Z 02004KT CAVOK 14/04 Q1018 NOSIG,1,0,0,9999,0,0,0,
2026-04-10 00:30:00,METAR LEIB 100030Z 02006KT CAVOK 14/03 Q1018 NOSIG,1,0,0,9999,0,0,0,
2026-04-10 00:00:00,METAR LEIB 100000Z 02006KT CAVOK 15/03 Q1018 NOSIG,1,0,0,9999,0,0,0,
2026-04-09 23:30:00,METAR LEIB 092330Z 04005KT CAVOK 15/03 Q1018 NOSIG,1,0,0,9999,0,0,0,
2026-04-09 23:00:00,METAR LEIB 092300Z 05004KT CAVOK 15/05 Q1018 NOSIG,1,0,0,9999,0,0,0,
2026-04-09 22:30:00,METAR LEIB 092230Z 03006KT CAVOK 14/05 Q1018 NOSIG,1,0,0,9999,0,0,0,
2026-04-09 22:00:00,METAR LEIB 092200Z 01004KT 350V050 CAVOK 15/04 Q1018 NOSIG,1,0,0,9999,0,0,0,
2026-04-09 21:30:00,METAR LEIB 092130Z VRB02KT CAVOK 15/05 Q1018 NOSIG,1,0,0,9999,0,0,0,
2026-04-09 21:00:00,METAR LEIB 092100Z 01006KT CAVOK 15/05 Q1018 NOSIG,1,0,0,9999,0,0,0,
2026-04-09 20:30:00,METAR LEIB 092030Z 03004KT CAVOK 16/06 Q1018 NOSIG,1,0,0,9999,0,0,0,
2026-04-09 20:00:00,METAR LEIB 092000Z 03004KT CAVOK 17/08 Q1018 NOSIG,1,0,0,9999,0,0,0,
2026-04-09 19:30:00,METAR LEIB 091930Z 06003KT CAVOK 17/09 Q1018 NOSIG,1,0,0,9999,0,0,0,
2026-04-09 19:00:00,METAR LEIB 091900Z 07007KT CAVOK 17/09 Q1017 NOSIG,1,0,0,9999,0,0,0,
2026-04-09 18:30:00,METAR LEIB 091830Z 07007KT CAVOK 17/09 Q1017 NOSIG,1,0,0,9999,0,0,0,
2026-04-09 18:00:00,METAR LEIB 091800Z 07008KT CAVOK 18/10 Q1017 NOSIG,1,0,0,9999,0,0,0,
2026-04-09 17:30:00,METAR LEIB 091730Z 08007KT CAVOK 19/10 Q1017 NOSIG,1,0,0,9999,0,0,0,
2026-04-09 17:00:00,METAR LEIB 091700Z 08007KT 050V110 CAVOK 20/09 Q1017 NOSIG,1,0,0,9999,0,0,0,
2026-04-09 16:30:00,METAR LEIB 091630Z 08009KT CAVOK 21/09 Q1017 NOSIG,1,0,0,9999,0,0,0,
2026-04-09 16:00:00,METAR LEIB 091600Z 08010KT 050V110 CAVOK 21/07 Q1017 NOSIG,1,0,0,9999,0,0,0,
2026-04-09 15:30:00,METAR LEIB 091530Z 08010KT 050V110 CAVOK 22/07 Q1018 NOSIG,1,0,0,9999,0,0,0,
2026-04-09 15:00:00,METAR LEIB 091500Z 08010KT 050V110 CAVOK 22/08 Q1018 NOSIG,1,0,0,9999,0,0,0,
2026-04-09 14:30:00,METAR LEIB 091430Z 09009KT 060V130 CAVOK 22/11 Q1018 NOSIG,1,0,0,9999,0,0,0,
2026-04-09 14:00:00,METAR LEIB 091400Z 09011KT CAVOK 22/08 Q1018 NOSIG,1,0,0,9999,0,0,0,
2026-04-09 13:30:00,METAR LEIB 091330Z 09010KT 060V120 CAVOK 22/08 Q1018 NOSIG,1,0,0,9999,0,0,0,
2026-04-09 13:00:00,METAR LEIB 091300Z 09010KT 060V120 CAVOK 23/08 Q1018 NOSIG,1,0,0,9999,0,0,0,
2026-04-09 12:30:00,METAR LEIB 091230Z 08012KT CAVOK 23/08 Q1018 NOSIG,1,0,0,9999,0,0,0,
2026-04-09 12:00:00,METAR LEIB 091200Z 08012KT CAVOK 23/06 Q1018 NOSIG,1,0,0,9999,0,0,0,
2026-04-09 11:30:00,METAR LEIB 091130Z 09011KT CAVOK 23/07 Q1019 NOSIG,1,0,0,9999,0,0,0,
2026-04-09 11:00:00,METAR LEIB 091100Z 08010KT 050V110 CAVOK 23/06 Q1019 NOSIG,1,0,0,9999,0,0,0,
2026-04-09 10:30:00,METAR LEIB 091030Z 08010KT CAVOK 22/09 Q1019 NOSIG,1,0,0,9999,0,0,0,
2026-04-09 10:00:00,METAR LEIB 091000Z 09011KT 050V110 CAVOK 22/09 Q1019 NOSIG,1,0,0,9999,0,0,0,
2026-04-09 09:30:00,METAR LEIB 090930Z 09009KT 060V120 CAVOK 21/12 Q1019 NOSIG,1,0,0,9999,0,0,0,
2026-04-09 09:00:00,METAR LEIB 090900Z 10007KT 070V130 CAVOK 21/10 Q1019 NOSIG,1,0,0,9999,0,0,0,
2026-04-09 08:30:00,METAR LEIB 090830Z 10005KT 070V140 CAVOK 22/09 Q1019 NOSIG,1,0,0,9999,0,0,0,
2026-04-09 08:00:00,METAR LEIB 090800Z 07004KT CAVOK 21/07 Q1018 NOSIG,1,0,0,9999,0,0,0,
2026-04-09 07:30:00,METAR LEIB 090730Z 05003KT 360V100 CAVOK 19/08 Q1018 NOSIG,1,0,0,9999,0,0,0,
2026-04-09 07:00:00,METAR LEIB 090700Z VRB02KT CAVOK 16/09 Q1018 NOSIG,1,0,0,9999,0,0,0,
2026-04-09 06:30:00,METAR LEIB 090630Z 08002KT CAVOK 13/10 Q1018 NOSIG,1,0,0,9999,0,0,0,
2026-04-09 06:00:00,METAR LEIB 090600Z 05002KT CAVOK 12/08 Q1018 NOSIG,1,0,0,9999,0,0,0,
2026-04-09 05:30:00,METAR LEIB 090530Z VRB02KT CAVOK 13/07 Q1018 NOSIG,1,0,0,9999,0,0,0,
2026-04-09 05:00:00,METAR LEIB 090500Z 06003KT CAVOK 13/07 Q1018 NOSIG,1,0,0,9999,0,0,0,
2026-04-09 04:30:00,METAR LEIB 090430Z VRB01KT CAVOK 12/07 Q1018 NOSIG,1,0,0,9999,0,0,0,
2026-04-09 04:00:00,METAR LEIB 090400Z 05004KT CAVOK 12/07 Q1018 NOSIG,1,0,0,9999,0,0,0,
2026-04-09 03:30:00,METAR LEIB 090330Z 05002KT CAVOK 13/07 Q1018 NOSIG,1,0,0,9999,0,0,0,
2026-04-09 03:00:00,METAR LEIB 090300Z VRB02KT CAVOK 13/07 Q1018 NOSIG,1,0,0,9999,0,0,0,
2026-04-09 02:30:00,METAR LEIB 090230Z VRB01KT CAVOK 13/06 Q1018 NOSIG,1,0,0,9999,0,0,0,
2026-04-09 02:00:00,METAR LEIB 090200Z VRB02KT CAVOK 13/06 Q1019 NOSIG,1,0,0,9999,0,0,0,
2026-04-09 01:30:00,METAR LEIB 090130Z 00000KT CAVOK 12/06 Q1019 NOSIG,1,0,0,9999,0,0,0,
2026-04-09 01:00:00,METAR LEIB 090100Z VRB02KT CAVOK 13/07 Q1019 NOSIG,1,0,0,9999,0,0,0,
2026-04-09 00:30:00,METAR LEIB 090030Z 04003KT CAVOK 13/06 Q1019 NOSIG,1,0,0,9999,0,0,0,
2026-04-09 00:00:00,METAR LEIB 090000Z VRB01KT CAVOK 14/07 Q1019 NOSIG,1,0,0,9999,0,0,0,
2026-04-08 23:30:00,METAR LEIB 082330Z 00000KT CAVOK 12/07 Q1019 NOSIG,1,0,0,9999,0,0,0,
2026-04-08 23:00:00,METAR LEIB 082300Z 00000KT CAVOK 13/08 Q1019 NOSIG,1,0,0,9999,0,0,0,
2026-04-08 22:30:00,METAR LEIB 082230Z 00000KT CAVOK 13/08 Q1019 NOSIG,1,0,0,9999,0,0,0,
2026-04-08 22:00:00,METAR LEIB 082200Z VRB01KT CAVOK 14/07 Q1019 NOSIG,1,0,0,9999,0,0,0,
2026-04-08 21:30:00,METAR LEIB 082130Z 35004KT 340V050 CAVOK 15/08 Q1019 NOSIG,1,0,0,9999,0,0,0,
2026-04-08 21:00:00,METAR LEIB 082100Z 02004KT CAVOK 15/09 Q1019 NOSIG,1,0,0,9999,0,0,0,
2026-04-08 20:30:00,METAR LEIB 082030Z VRB02KT CAVOK 15/08 Q1019 NOSIG,1,0,0,9999,0,0,0,
2026-04-08 20:00:00,METAR LEIB 082000Z 08003KT 020V110 CAVOK 15/13 Q1019 NOSIG,1,0,0,9999,0,0,0,
2026-04-08 19:30:00,METAR LEIB 081930Z 07004KT CAVOK 15/13 Q1018 NOSIG,1,0,0,9999,0,0,0,
2026-04-08 19:00:00,METAR LEIB 081900Z 06004KT CAVOK 16/14 Q1018 NOSIG,1,0,0,9999,0,0,0,
2026-04-08 18:30:00,METAR LEIB 081830Z 07004KT CAVOK 17/14 Q1018 NOSIG,1,0,0,9999,0,0,0,
2026-04-08 18:00:00,METAR LEIB 081800Z 07003KT CAVOK 18/14 Q1018 NOSIG,1,0,0,9999,0,0,0,
2026-04-08 17:30:00,METAR LEIB 081730Z 27004KT CAVOK 19/14 Q1018 NOSIG,1,0,0,9999,0,0,0,
2026-04-08 17:00:00,METAR LEIB 081700Z 25004KT 210V270 CAVOK 21/15 Q1018 NOSIG,1,0,0,9999,0,0,0,
2026-04-08 16:30:00,METAR LEIB 081630Z 22004KT 190V250 CAVOK 21/14 Q1018 NOSIG,1,0,0,9999,0,0,0,
2026-04-08 16:00:00,METAR LEIB 081600Z 20004KT 170V230 CAVOK 23/12 Q1018 NOSIG,1,0,0,9999,0,0,0,
2026-04-08 15:30:00,METAR LEIB 081530Z 22005KT 190V250 CAVOK 23/12 Q1018 NOSIG,1,0,0,9999,0,0,0,
2026-04-08 15:00:00,METAR LEIB 081500Z 24004KT 190V270 CAVOK 23/11 Q1018 NOSIG,1,0,0,9999,0,0,0,
2026-04-08 14:30:00,METAR LEIB 081430Z 25005KT CAVOK 23/12 Q1018 NOSIG,1,0,0,9999,0,0,0,
2026-04-08 14:00:00,METAR LEIB 081400Z 25006KT CAVOK 23/14 Q1018 NOSIG,1,0,0,9999,0,0,0,
2026-04-08 13:30:00,METAR LEIB 081330Z 24006KT 200V280 CAVOK 23/13 Q1018 NOSIG,1,0,0,9999,0,0,0,
2026-04-08 13:00:00,METAR LEIB 081300Z 25007KT CAVOK 22/14 Q1018 NOSIG,1,0,0,9999,0,0,0,
2026-04-08 12:30:00,METAR LEIB 081230Z 24005KT 190V280 CAVOK 23/14 Q1018 NOSIG,1,0,0,9999,0,0,0,
2026-04-08 12:00:00,METAR LEIB 081200Z 09006KT 060V160 CAVOK 22/15 Q1018 NOSIG,1,0,0,9999,0,0,0,
2026-04-08 11:30:00,METAR LEIB 081130Z 07006KT 050V110 CAVOK 21/14 Q1018 NOSIG,1,0,0,9999,0,0,0,
2026-04-08 11:00:00,METAR LEIB 081100Z 07005KT 030V100 CAVOK 20/14 Q1018 NOSIG,1,0,0,9999,0,0,0,
2026-04-08 10:30:00,METAR LEIB 081030Z 08006KT CAVOK 20/15 Q1018 NOSIG,1,0,0,9999,0,0,0,
2026-04-08 10:00:00,METAR LEIB 081000Z 09006KT 060V120 CAVOK 20/14 Q1018 NOSIG,1,0,0,9999,0,0,0,
2026-04-08 09:30:00,METAR LEIB 080930Z 10005KT 060V120 CAVOK 19/14 Q1018 NOSIG,1,0,0,9999,0,0,0,
2026-04-08 09:00:00,METAR LEIB 080900Z 10005KT 060V120 CAVOK 19/14 Q1018 NOSIG,1,0,0,9999,0,0,0,
2026-04-08 08:30:00,METAR LEIB 080830Z 09006KT CAVOK 18/14 Q1018 NOSIG,1,0,0,9999,0,0,0,
2026-04-08 08:00:00,METAR LEIB 080800Z 08006KT 050V110 CAVOK 18/14 Q1018 NOSIG,1,0,0,9999,0,0,0,
2026-04-08 07:30:00,METAR LEIB 080730Z 10004KT 070V140 CAVOK 18/13 Q1018 NOSIG,1,0,0,9999,0,0,0,
2026-04-08 07:00:00,METAR LEIB 080700Z VRB02KT CAVOK 17/13 Q1017 NOSIG,1,0,0,9999,0,0,0,
2026-04-08 06:30:00,METAR LEIB 080630Z 04003KT CAVOK 14/11 Q1017 NOSIG,1,0,0,9999,0,0,0,
2026-04-08 06:00:00,METAR LEIB 080600Z 06005KT CAVOK 13/10 Q1017 NOSIG,1,0,0,9999,0,0,0,
2026-04-08 05:30:00,METAR LEIB 080530Z 05005KT CAVOK 14/10 Q1017 NOSIG,1,0,0,9999,0,0,0,
2026-04-08 05:00:00,METAR LEIB 080500Z 06005KT CAVOK 14/10 Q1016 NOSIG,1,0,0,9999,0,0,0,
2026-04-08 04:30:00,METAR LEIB 080430Z VRB02KT CAVOK 16/10 Q1017 NOSIG,1,0,0,9999,0,0,0,
2026-04-08 04:00:00,METAR LEIB 080400Z 04006KT CAVOK 16/10 Q1016 NOSIG,1,0,0,9999,0,0,0,
2026-04-08 03:30:00,METAR LEIB 080330Z 02004KT CAVOK 16/09 Q1016 NOSIG,1,0,0,9999,0,0,0,
2026-04-08 03:00:00,METAR LEIB 080300Z 07005KT CAVOK 15/10 Q1017 NOSIG,1,0,0,9999,0,0,0,
2026-04-08 02:30:00,METAR LEIB 080230Z 05007KT CAVOK 15/10 Q1017 NOSIG,1,0,0,9999,0,0,0,
2026-04-08 02:00:00,METAR LEIB 080200Z 06006KT CAVOK 15/10 Q1017 NOSIG,1,0,0,9999,0,0,0,
2026-04-08 01:30:00,METAR LEIB 080130Z 07007KT CAVOK 16/09 Q1018 NOSIG,1,0,0,9999,0,0,0,
2026-04-08 01:00:00,METAR LEIB 080100Z VRB01KT CAVOK 14/08 Q1018 NOSIG,1,0,0,9999,0,0,0,
2026-04-08 00:30:00,METAR LEIB 080030Z 03004KT 010V070 CAVOK 14/09 Q1018 NOSIG,1,0,0,9999,0,0,0,
2026-04-08 00:00:00,METAR LEIB 080000Z 02004KT CAVOK 14/09 Q1018 NOSIG,1,0,0,9999,0,0,0,
2026-04-07 23:30:00,METAR LEIB 072330Z 03005KT CAVOK 13/09 Q1018 NOSIG,1,0,0,9999,0,0,0,
2026-04-07 23:00:00,METAR LEIB 072300Z 02003KT CAVOK 14/09 Q1018 NOSIG,1,0,0,9999,0,0,0,
2026-04-07 22:30:00,METAR LEIB 072230Z 04003KT CAVOK 13/10 Q1018 NOSIG,1,0,0,9999,0,0,0,
2026-04-07 22:00:00,METAR LEIB 072200Z 01005KT 290V030 CAVOK 13/10 Q1018 NOSIG,1,0,0,9999,0,0,0,
2026-04-07 21:30:00,METAR LEIB 072130Z 02004KT CAVOK 13/10 Q1018 NOSIG,1,0,0,9999,0,0,0,
2026-04-07 21:00:00,METAR LEIB 072100Z 06003KT 020V080 CAVOK 13/11 Q1018 NOSIG,1,0,0,9999,0,0,0,
2026-04-07 20:30:00,METAR LEIB 072030Z 03004KT CAVOK 13/11 Q1018 NOSIG,1,0,0,9999,0,0,0,
2026-04-07 20:00:00,METAR LEIB 072000Z 08005KT CAVOK 15/14 Q1018 NOSIG,1,0,0,9999,0,0,0,
2026-04-07 19:30:00,METAR LEIB 071930Z 08005KT CAVOK 16/15 Q1018 NOSIG,1,0,0,9999,0,0,0,
2026-04-07 19:00:00,METAR LEIB 071900Z 08005KT CAVOK 16/15 Q1018 NOSIG,1,0,0,9999,0,0,0,
2026-04-07 18:30:00,METAR LEIB 071830Z 08004KT CAVOK 16/15 Q1018 NOSIG,1,0,0,9999,0,0,0,
2026-04-07 18:00:00,METAR LEIB 071800Z 07004KT CAVOK 16/15 Q1018 NOSIG,1,0,0,9999,0,0,0,
2026-04-07 17:30:00,METAR LEIB 071730Z 09005KT 060V120 CAVOK 17/15 Q1018 NOSIG,1,0,0,9999,0,0,0,
2026-04-07 17:00:00,METAR LEIB 071700Z 10006KT CAVOK 17/15 Q1018 NOSIG,1,0,0,9999,0,0,0,
2026-04-07 16:30:00,METAR LEIB 071630Z 09006KT 060V130 CAVOK 17/15 Q1018 NOSIG,1,0,0,9999,0,0,0,
2026-04-07 16:00:00,METAR LEIB 071600Z 08008KT CAVOK 17/15 Q1018 NOSIG,1,0,0,9999,0,0,0,
2026-04-07 15:30:00,METAR LEIB 071530Z 10007KT 060V150 CAVOK 18/15 Q1018 NOSIG,1,0,0,9999,0,0,0,
2026-04-07 15:00:00,METAR LEIB 071500Z 09008KT 060V130 CAVOK 18/15 Q1018 NOSIG,1,0,0,9999,0,0,0,
2026-04-07 14:30:00,METAR LEIB 071430Z 09009KT 060V120 CAVOK 18/14 Q1019 NOSIG,1,0,0,9999,0,0,0,
2026-04-07 14:00:00,METAR LEIB 071400Z 10008KT 070V140 CAVOK 18/14 Q1019 NOSIG,1,0,0,9999,0,0,0,
2026-04-07 13:30:00,METAR LEIB 071330Z 09010KT CAVOK 17/14 Q1019 NOSIG,1,0,0,9999,0,0,0,
2026-04-07 13:00:00,METAR LEIB 071300Z 09011KT CAVOK 18/14 Q1019 NOSIG,1,0,0,9999,0,0,0,
2026-04-07 12:30:00,METAR LEIB 071230Z 09011KT 070V140 CAVOK 18/14 Q1020 NOSIG,1,0,0,9999,0,0,0,
2026-04-07 12:00:00,METAR LEIB 071200Z 09011KT 060V120 CAVOK 18/13 Q1020 NOSIG,1,0,0,9999,0,0,0,
2026-04-07 11:30:00,METAR LEIB 071130Z 08011KT 050V130 CAVOK 18/12 Q1020 NOSIG,1,0,0,9999,0,0,0,
2026-04-07 11:00:00,METAR LEIB 071100Z 08013KT 050V110 CAVOK 18/12 Q1020 NOSIG,1,0,0,9999,0,0,0,
2026-04-07 10:30:00,METAR LEIB 071030Z 07014KT CAVOK 18/12 Q1020 NOSIG,1,0,0,9999,0,0,0,
2026-04-07 10:00:00,METAR LEIB 071000Z 08012KT 060V120 CAVOK 18/12 Q1021 NOSIG,1,0,0,9999,0,0,0,
2026-04-07 09:30:00,METAR LEIB 070930Z 08012KT 050V110 CAVOK 18/12 Q1021 NOSIG,1,0,0,9999,0,0,0,
2026-04-07 09:00:00,METAR LEIB 070900Z 08013KT CAVOK 18/13 Q1020 NOSIG,1,0,0,9999,0,0,0,
2026-04-07 08:30:00,METAR LEIB 070830Z 08010KT CAVOK 17/13 Q1020 NOSIG,1,0,0,9999,0,0,0,
2026-04-07 08:00:00,METAR LEIB 070800Z 07007KT CAVOK 17/13 Q1020 NOSIG,1,0,0,9999,0,0,0,
2026-04-07 07:30:00,METAR LEIB 070730Z 05010KT CAVOK 16/13 Q1020 NOSIG,1,0,0,9999,0,0,0,
2026-04-07 07:00:00,METAR LEIB 070700Z 05010KT 9999 FEW008 15/12 Q1020 NOSIG,0,10,0,10000,0,0,0,
2026-04-07 06:30:00,METAR LEIB 070630Z 04009KT 9999 FEW008 14/12 Q1020 NOSIG,0,9,0,10000,0,0,0,
2026-04-07 06:00:00,METAR LEIB 070600Z 02004KT 360V060 9999 FEW008 12/11 Q1020 NOSIG,0,4,0,10000,0,0,0,
2026-04-07 05:30:00,METAR LEIB 070530Z 02005KT 360V100 9999 FEW008 12/11 Q1020 NOSIG,0,5,0,10000,0,0,0,
2026-04-07 05:00:00,METAR LEIB 070500Z 04005KT 9999 FEW008 12/11 Q1020 NOSIG,0,5,0,10000,0,0,0,
2026-04-07 04:30:00,METAR LEIB 070430Z 02005KT 9999 FEW007 11/10 Q1020 NOSIG,0,5,0,10000,0,0,0,
2026-04-07 04:00:00,METAR LEIB 070400Z 03006KT 9999 SCT007 11/10 Q1020 NOSIG,0,6,0,10000,0,0,0,
2026-04-07 03:30:00,METAR LEIB 070330Z 03004KT 9999 BKN007 12/11 Q1020 NOSIG,0,4,0,10000,0,0,0,
2026-04-07 03:00:00,METAR LEIB 070300Z 03003KT 9999 BKN007 12/11 Q1021 NOSIG,0,3,0,10000,0,0,0,
2026-04-07 02:30:00,METAR LEIB 070230Z 03003KT 9999 SCT008 13/12 Q1021 NOSIG,0,3,0,10000,0,0,0,
2026-04-07 02:00:00,METAR LEIB 070200Z 05004KT CAVOK 13/12 Q1021 NOSIG,1,0,0,9999,0,0,0,
2026-04-07 01:30:00,METAR LEIB 070130Z 05005KT CAVOK 13/12 Q1021 NOSIG,1,0,0,9999,0,0,0,
2026-04-07 01:00:00,METAR LEIB 070100Z 05005KT CAVOK 13/11 Q1021 NOSIG,1,0,0,9999,0,0,0,
2026-04-07 00:30:00,METAR LEIB 070030Z 06005KT CAVOK 12/11 Q1022 NOSIG,1,0,0,9999,0,0,0,
2026-04-07 00:00:00,METAR LEIB 070000Z 05006KT CAVOK 13/12 Q1022 NOSIG,1,0,0,9999,0,0,0,
2026-04-06 23:30:00,METAR LEIB 062330Z 05006KT CAVOK 13/12 Q1022 NOSIG,1,0,0,9999,0,0,0,
2026-04-06 23:00:00,METAR LEIB 062300Z 05007KT CAVOK 14/12 Q1022 NOSIG,1,0,0,9999,0,0,0,
2026-04-06 22:30:00,METAR LEIB 062230Z 05007KT CAVOK 14/12 Q1022 NOSIG,1,0,0,9999,0,0,0,
2026-04-06 22:00:00,METAR LEIB 062200Z 04006KT CAVOK 14/12 Q1023 NOSIG,1,0,0,9999,0,0,0,
2026-04-06 21:30:00,METAR LEIB 062130Z 05005KT CAVOK 14/13 Q1023 NOSIG,1,0,0,9999,0,0,0,
2026-04-06 21:00:00,METAR LEIB 062100Z 06006KT CAVOK 14/13 Q1023 NOSIG,1,0,0,9999,0,0,0,
2026-04-06 20:30:00,METAR LEIB 062030Z 07007KT CAVOK 15/13 Q1023 NOSIG,1,0,0,9999,0,0,0,
2026-04-06 20:00:00,METAR LEIB 062000Z 07008KT CAVOK 15/13 Q1022 NOSIG,1,0,0,9999,0,0,0,
2026-04-06 19:30:00,METAR LEIB 061930Z 07008KT CAVOK 15/13 Q1022 NOSIG,1,0,0,9999,0,0,0,
2026-04-06 19:00:00,METAR LEIB 061900Z 07009KT CAVOK 15/13 Q1022 NOSIG,1,0,0,9999,0,0,0,
2026-04-06 18:30:00,METAR LEIB 061830Z 07009KT CAVOK 15/13 Q1022 NOSIG,1,0,0,9999,0,0,0,
2026-04-06 18:00:00,METAR LEIB 061800Z 07009KT CAVOK 16/13 Q1022 NOSIG,1,0,0,9999,0,0,0,
2026-04-06 17:30:00,METAR LEIB 061730Z 07010KT CAVOK 16/13 Q1022 NOSIG,1,0,0,9999,0,0,0,
2026-04-06 17:00:00,METAR LEIB 061700Z 07010KT 050V110 CAVOK 17/14 Q1022 NOSIG,1,0,0,9999,0,0,0,
2026-04-06 16:30:00,METAR LEIB 061630Z 08011KT CAVOK 17/13 Q1022 NOSIG,1,0,0,9999,0,0,0,
2026-04-06 16:00:00,METAR LEIB 061600Z 08010KT 050V110 CAVOK 17/14 Q1023 NOSIG,1,0,0,9999,0,0,0,
2026-04-06 15:30:00,METAR LEIB 061530Z 07010KT CAVOK 17/13 Q1023 NOSIG,1,0,0,9999,0,0,0,
2026-04-06 15:00:00,METAR LEIB 061500Z 08010KT 050V110 CAVOK 18/13 Q1023 NOSIG,1,0,0,9999,0,0,0,
2026-04-06 14:30:00,METAR LEIB 061430Z 08011KT 050V110 CAVOK 18/14 Q1023 NOSIG,1,0,0,9999,0,0,0,
2026-04-06 14:00:00,METAR LEIB 061400Z 08011KT 050V110 CAVOK 17/12 Q1024 NOSIG,1,0,0,9999,0,0,0,
2026-04-06 13:30:00,METAR LEIB 061330Z 08011KT 050V110 CAVOK 18/13 Q1024 NOSIG,1,0,0,9999,0,0,0,
2026-04-06 13:00:00,METAR LEIB 061300Z 07011KT 040V110 CAVOK 18/13 Q1024 NOSIG,1,0,0,9999,0,0,0,
2026-04-06 12:30:00,METAR LEIB 061230Z 08011KT 050V110 CAVOK 18/12 Q1024 NOSIG,1,0,0,9999,0,0,0,
2026-04-06 12:00:00,METAR LEIB 061200Z 08012KT CAVOK 18/11 Q1025 NOSIG,1,0,0,9999,0,0,0,
2026-04-06 11:30:00,METAR LEIB 061130Z 08011KT 050V110 CAVOK 18/12 Q1025 NOSIG,1,0,0,9999,0,0,0,
2026-04-06 11:00:00,METAR LEIB 061100Z 08012KT CAVOK 17/11 Q1025 NOSIG,1,0,0,9999,0,0,0,
2026-04-06 10:30:00,METAR LEIB 061030Z 07012KT CAVOK 17/10 Q1025 NOSIG,1,0,0,9999,0,0,0,
2026-04-06 10:00:00,METAR LEIB 061000Z 07011KT 040V100 CAVOK 18/12 Q1025 NOSIG,1,0,0,9999,0,0,0,
2026-04-06 09:30:00,METAR LEIB 060930Z 08010KT 050V110 CAVOK 17/12 Q1025 NOSIG,1,0,0,9999,0,0,0,
2026-04-06 09:00:00,METAR LEIB 060900Z 08010KT 050V120 CAVOK 17/12 Q1025 NOSIG,1,0,0,9999,0,0,0,
2026-04-06 08:30:00,METAR LEIB 060830Z 07009KT CAVOK 17/13 Q1025 NOSIG,1,0,0,9999,0,0,0,
2026-04-06 08:00:00,METAR LEIB 060800Z 08008KT CAVOK 16/12 Q1025 NOSIG,1,0,0,9999,0,0,0,
2026-04-06 07:30:00,METAR LEIB 060730Z 06005KT 040V100 CAVOK 16/12 Q1025 NOSIG,1,0,0,9999,0,0,0,
2026-04-06 07:00:00,METAR LEIB 060700Z 05006KT CAVOK 15/11 Q1025 NOSIG,1,0,0,9999,0,0,0,
2026-04-06 06:30:00,METAR LEIB 060630Z 04006KT CAVOK 13/11 Q1025 NOSIG,1,0,0,9999,0,0,0,
2026-04-06 06:00:00,METAR LEIB 060600Z 04004KT CAVOK 11/09 Q1025 NOSIG,1,0,0,9999,0,0,0,
2026-04-06 05:30:00,METAR LEIB 060530Z 03006KT CAVOK 11/09 Q1025 NOSIG,1,0,0,9999,0,0,0,
2026-04-06 05:00:00,METAR LEIB 060500Z 04005KT CAVOK 11/09 Q1024 NOSIG,1,0,0,9999,0,0,0,
2026-04-06 04:30:00,METAR LEIB 060430Z 04005KT CAVOK 10/08 Q1024 NOSIG,1,0,0,9999,0,0,0,
2026-04-06 04:00:00,METAR LEIB 060400Z 03005KT CAVOK 11/09 Q1025 NOSIG,1,0,0,9999,0,0,0,
2026-04-06 03:30:00,METAR LEIB 060330Z 03006KT CAVOK 12/09 Q1025 NOSIG,1,0,0,9999,0,0,0,
2026-04-06 03:00:00,METAR LEIB 060300Z 03006KT CAVOK 12/09 Q1025 NOSIG,1,0,0,9999,0,0,0,
2026-04-06 02:30:00,METAR LEIB 060230Z 02006KT CAVOK 11/09 Q1025 NOSIG,1,0,0,9999,0,0,0,
2026-04-06 02:00:00,METAR LEIB 060200Z 02006KT CAVOK 11/09 Q1025 NOSIG,1,0,0,9999,0,0,0,
2026-04-06 01:30:00,METAR LEIB 060130Z 02004KT CAVOK 11/09 Q1025 NOSIG,1,0,0,9999,0,0,0,
2026-04-06 01:00:00,METAR LEIB 060100Z 02005KT CAVOK 11/09 Q1025 NOSIG,1,0,0,9999,0,0,0,
2026-04-06 00:30:00,METAR LEIB 060030Z 02005KT CAVOK 11/09 Q1026 NOSIG,1,0,0,9999,0,0,0,
2026-04-06 00:00:00,METAR LEIB 060000Z 02006KT CAVOK 11/09 Q1026 NOSIG,1,0,0,9999,0,0,0,
2026-04-05 23:30:00,METAR LEIB 052330Z 02004KT CAVOK 11/09 Q1026 NOSIG,1,0,0,9999,0,0,0,
2026-04-05 23:00:00,METAR LEIB 052300Z 02004KT CAVOK 11/08 Q1026 NOSIG,1,0,0,9999,0,0,0,
2026-04-05 22:30:00,METAR LEIB 052230Z 02003KT 360V070 CAVOK 11/09 Q1026 NOSIG,1,0,0,9999,0,0,0,
2026-04-05 22:00:00,METAR LEIB 052200Z 01004KT 340V050 CAVOK 11/09 Q1026 NOSIG,1,0,0,9999,0,0,0,
2026-04-05 21:30:00,METAR LEIB 052130Z 02004KT 350V080 CAVOK 12/10 Q1026 NOSIG,1,0,0,9999,0,0,0,
2026-04-05 21:00:00,METAR LEIB 052100Z 36005KT 310V030 CAVOK 12/10 Q1026 NOSIG,1,0,0,9999,0,0,0,
2026-04-05 20:30:00,METAR LEIB 052030Z 01004KT 320V040 CAVOK 13/11 Q1026 NOSIG,1,0,0,9999,0,0,0,
2026-04-05 20:00:00,METAR LEIB 052000Z 04003KT 300V110 CAVOK 14/11 Q1025 NOSIG,1,0,0,9999,0,0,0,
2026-04-05 19:30:00,METAR LEIB 051930Z VRB02KT CAVOK 14/12 Q1025 NOSIG,1,0,0,9999,0,0,0,
2026-04-05 19:00:00,METAR LEIB 051900Z VRB02KT CAVOK 15/12 Q1025 NOSIG,1,0,0,9999,0,0,0,
2026-04-05 18:30:00,METAR LEIB 051830Z 09003KT CAVOK 15/12 Q1025 NOSIG,1,0,0,9999,0,0,0,
2026-04-05 18:00:00,METAR LEIB 051800Z 11004KT 070V140 CAVOK 16/12 Q1025 NOSIG,1,0,0,9999,0,0,0,
2026-04-05 17:30:00,METAR LEIB 051730Z 11005KT 080V150 CAVOK 17/11 Q1025 NOSIG,1,0,0,9999,0,0,0,
2026-04-05 17:00:00,METAR LEIB 051700Z 14004KT 080V240 CAVOK 18/11 Q1025 NOSIG,1,0,0,9999,0,0,0,
2026-04-05 16:30:00,METAR LEIB 051630Z 20005KT 170V250 CAVOK 19/10 Q1025 NOSIG,1,0,0,9999,0,0,0,
2026-04-05 16:00:00,METAR LEIB 051600Z 20006KT 160V230 CAVOK 19/08 Q1025 NOSIG,1,0,0,9999,0,0,0,
2026-04-05 15:30:00,METAR LEIB 051530Z 19007KT 150V230 CAVOK 20/08 Q1025 NOSIG,1,0,0,9999,0,0,0,
2026-04-05 15:00:00,METAR LEIB 051500Z 20008KT 170V230 CAVOK 20/08 Q1025 NOSIG,1,0,0,9999,0,0,0,
2026-04-05 13:00:00,METAR LEIB 051300Z 19008KT 160V230 CAVOK 20/08 Q1026 NOSIG,1,0,0,9999,0,0,0,
2026-04-05 12:30:00,METAR LEIB 051230Z 20006KT 160V250 CAVOK 20/09 Q1026 NOSIG,1,0,0,9999,0,0,0,
2026-04-05 12:00:00,METAR LEIB 051200Z 22006KT 180V270 CAVOK 19/11 Q1026 NOSIG,1,0,0,9999,0,0,0,
2026-04-05 11:30:00,METAR LEIB 051130Z 23006KT 180V260 CAVOK 18/11 Q1026 NOSIG,1,0,0,9999,0,0,0,
2026-04-05 11:00:00,METAR LEIB 051100Z 23007KT CAVOK 18/11 Q1026 NOSIG,1,0,0,9999,0,0,0,
2026-04-05 10:30:00,METAR LEIB 051030Z 23008KT CAVOK 18/11 Q1026 NOSIG,1,0,0,9999,0,0,0,
2026-04-05 10:00:00,METAR LEIB 051000Z 23008KT CAVOK 18/11 Q1026 NOSIG,1,0,0,9999,0,0,0,
2026-04-05 09:30:00,METAR LEIB 050930Z 22007KT 170V260 CAVOK 17/12 Q1026 NOSIG,1,0,0,9999,0,0,0,
2026-04-05 09:00:00,METAR LEIB 050900Z 20006KT 160V240 CAVOK 18/11 Q1026 NOSIG,1,0,0,9999,0,0,0,
2026-04-05 08:30:00,METAR LEIB 050830Z 23006KT 200V260 CAVOK 17/12 Q1025 NOSIG,1,0,0,9999,0,0,0,
2026-04-05 08:00:00,METAR LEIB 050800Z 23006KT 200V260 CAVOK 16/12 Q1025 NOSIG,1,0,0,9999,0,0,0,
2026-04-05 07:30:00,METAR LEIB 050730Z VRB02KT CAVOK 16/12 Q1025 NOSIG,1,0,0,9999,0,0,0,
2026-04-05 07:00:00,METAR LEIB 050700Z 00000KT CAVOK 15/12 Q1025 NOSIG,1,0,0,9999,0,0,0,
2026-04-05 06:30:00,METAR LEIB 050630Z VRB01KT CAVOK 12/10 Q1025 NOSIG,1,0,0,9999,0,0,0,
2026-04-05 06:00:00,METAR LEIB 050600Z VRB01KT CAVOK 09/08 Q1025 NOSIG,1,0,0,9999,0,0,0,
2026-04-05 05:30:00,METAR LEIB 050530Z 33003KT CAVOK 10/08 Q1024 NOSIG,1,0,0,9999,0,0,0,
2026-04-05 05:00:00,METAR LEIB 050500Z 35003KT CAVOK 09/08 Q1024 NOSIG,1,0,0,9999,0,0,0,
2026-04-05 04:30:00,METAR LEIB 050430Z 00000KT CAVOK 10/09 Q1024 NOSIG,1,0,0,9999,0,0,0,
2026-04-05 04:00:00,METAR LEIB 050400Z 00000KT CAVOK 10/09 Q1024 NOSIG,1,0,0,9999,0,0,0,
2026-04-05 03:30:00,METAR LEIB 050330Z 00000KT CAVOK 10/10 Q1024 NOSIG,1,0,0,9999,0,0,0,
2026-04-05 03:00:00,METAR LEIB 050300Z VRB01KT CAVOK 10/09 Q1024 NOSIG,1,0,0,9999,0,0,0,
2026-04-05 02:30:00,METAR LEIB 050230Z VRB01KT CAVOK 10/09 Q1024 NOSIG,1,0,0,9999,0,0,0,
2026-04-05 02:00:00,METAR LEIB 050200Z 00000KT CAVOK 11/09 Q1024 NOSIG,1,0,0,9999,0,0,0,
2026-04-05 01:30:00,METAR LEIB 050130Z VRB01KT CAVOK 10/08 Q1024 NOSIG,1,0,0,9999,0,0,0,
2026-04-05 01:00:00,METAR LEIB 050100Z 30003KT CAVOK 10/09 Q1024 NOSIG,1,0,0,9999,0,0,0,
2026-04-05 00:30:00,METAR LEIB 050030Z 00000KT CAVOK 10/09 Q1024 NOSIG,1,0,0,9999,0,0,0,
2026-04-05 00:00:00,METAR LEIB 050000Z VRB01KT CAVOK 11/09 Q1024 NOSIG,1,0,0,9999,0,0,0,
2026-04-04 23:30:00,METAR LEIB 042330Z VRB01KT CAVOK 11/08 Q1024 NOSIG,1,0,0,9999,0,0,0,
2026-04-04 23:00:00,METAR LEIB 042300Z 31002KT CAVOK 12/09 Q1024 NOSIG,1,0,0,9999,0,0,0,
2026-04-04 22:30:00,METAR LEIB 042230Z 31002KT CAVOK 12/09 Q1024 NOSIG,1,0,0,9999,0,0,0,
2026-04-04 22:00:00,METAR LEIB 042200Z 26005KT CAVOK 13/11 Q1024 NOSIG,1,0,0,9999,0,0,0,
2026-04-04 21:30:00,METAR LEIB 042130Z 29003KT 250V320 CAVOK 13/11 Q1024 NOSIG,1,0,0,9999,0,0,0,
2026-04-04 21:00:00,METAR LEIB 042100Z 25005KT CAVOK 13/11 Q1024 NOSIG,1,0,0,9999,0,0,0,
2026-04-04 20:30:00,METAR LEIB 042030Z 25006KT CAVOK 14/11 Q1024 NOSIG,1,0,0,9999,0,0,0,
2026-04-04 20:00:00,METAR LEIB 042000Z 24006KT CAVOK 14/12 Q1024 NOSIG,1,0,0,9999,0,0,0,
2026-04-04 19:30:00,METAR LEIB 041930Z 25007KT CAVOK 14/12 Q1024 NOSIG,1,0,0,9999,0,0,0,
2026-04-04 19:00:00,METAR LEIB 041900Z 24006KT CAVOK 14/12 Q1024 NOSIG,1,0,0,9999,0,0,0,
2026-04-04 18:30:00,METAR LEIB 041830Z 25007KT CAVOK 14/12 Q1023 NOSIG,1,0,0,9999,0,0,0,
2026-04-04 18:00:00,METAR LEIB 041800Z 24006KT CAVOK 15/12 Q1023 NOSIG,1,0,0,9999,0,0,0,
2026-04-04 17:30:00,METAR LEIB 041730Z 25009KT CAVOK 16/11 Q1023 NOSIG,1,0,0,9999,0,0,0,
2026-04-04 17:00:00,METAR LEIB 041700Z 24010KT 210V270 CAVOK 16/11 Q1023 NOSIG,1,0,0,9999,0,0,0,
2026-04-04 16:30:00,METAR LEIB 041630Z 24010KT CAVOK 17/12 Q1023 NOSIG,1,0,0,9999,0,0,0,
2026-04-04 16:00:00,METAR LEIB 041600Z 24010KT 210V270 CAVOK 17/12 Q1024 NOSIG,1,0,0,9999,0,0,0,
2026-04-04 15:30:00,METAR LEIB 041530Z 24011KT CAVOK 17/12 Q1024 NOSIG,1,0,0,9999,0,0,0,
2026-04-04 15:00:00,METAR LEIB 041500Z 24011KT 210V270 CAVOK 17/11 Q1024 NOSIG,1,0,0,9999,0,0,0,
2026-04-04 14:30:00,METAR LEIB 041430Z 24011KT 210V270 CAVOK 17/11 Q1024 NOSIG,1,0,0,9999,0,0,0,
2026-04-04 14:00:00,METAR LEIB 041400Z 24011KT 200V280 CAVOK 17/12 Q1025 NOSIG,1,0,0,9999,0,0,0,
2026-04-04 13:30:00,METAR LEIB 041330Z 25012KT CAVOK 17/13 Q1025 NOSIG,1,0,0,9999,0,0,0,
2026-04-04 13:00:00,METAR LEIB 041300Z 24011KT 210V280 CAVOK 18/14 Q1025 NOSIG,1,0,0,9999,0,0,0,
2026-04-04 12:30:00,METAR LEIB 041230Z 25012KT CAVOK 17/13 Q1025 NOSIG,1,0,0,9999,0,0,0,
2026-04-04 12:00:00,METAR LEIB 041200Z 25012KT 220V280 9999 FEW020 17/13 Q1025 NOSIG,0,12,0,10000,0,0,0,
2026-04-04 11:30:00,METAR LEIB 041130Z 25012KT 210V280 9999 FEW020 17/13 Q1025 NOSIG,0,12,0,10000,0,0,0,
2026-04-04 11:00:00,METAR LEIB 041100Z 24011KT 200V280 9999 FEW012 17/13 Q1026 NOSIG,0,11,0,10000,0,0,0,
2026-04-04 10:30:00,METAR LEIB 041030Z 25011KT 220V280 9999 FEW012 17/13 Q1026 NOSIG,0,11,0,10000,0,0,0,
2026-04-04 10:00:00,METAR LEIB 041000Z 23011KT 200V260 9999 FEW012 17/12 Q1026 NOSIG,0,11,0,10000,0,0,0,
2026-04-04 09:30:00,METAR LEIB 040930Z 24011KT 210V280 9999 FEW012 16/13 Q1025 NOSIG,0,11,0,10000,0,0,0,
2026-04-04 09:00:00,METAR LEIB 040900Z 25011KT 9999 FEW012 16/13 Q1025 NOSIG,0,11,0,10000,0,0,0,
2026-04-04 08:30:00,METAR LEIB 040830Z 25011KT 210V280 9999 FEW015 16/12 Q1025 NOSIG,0,11,0,10000,0,0,0,
2026-04-04 08:00:00,METAR LEIB 040800Z 25010KT 9999 FEW020 16/12 Q1025 NOSIG,0,10,0,10000,0,0,0,
2026-04-04 07:30:00,METAR LEIB 040730Z 25010KT 9999 FEW020 15/12 Q1025 NOSIG,0,10,0,10000,0,0,0,
2026-04-04 07:00:00,METAR LEIB 040700Z 25009KT 230V290 9999 FEW020 15/12 Q1025 NOSIG,0,9,0,10000,0,0,0,
2026-04-04 06:30:00,METAR LEIB 040630Z 25008KT CAVOK 14/12 Q1024 NOSIG,1,0,0,9999,0,0,0,
2026-04-04 06:00:00,METAR LEIB 040600Z 25009KT CAVOK 13/11 Q1024 NOSIG,1,0,0,9999,0,0,0,
2026-04-04 05:30:00,METAR LEIB 040530Z 25008KT CAVOK 13/11 Q1024 NOSIG,1,0,0,9999,0,0,0,
2026-04-04 05:00:00,METAR LEIB 040500Z 25010KT CAVOK 14/10 Q1024 NOSIG,1,0,0,9999,0,0,0,
2026-04-04 04:30:00,METAR LEIB 040430Z 24008KT CAVOK 14/10 Q1023 NOSIG,1,0,0,9999,0,0,0,
2026-04-04 04:00:00,METAR LEIB 040400Z 24009KT CAVOK 14/10 Q1023 NOSIG,1,0,0,9999,0,0,0,
2026-04-04 03:30:00,METAR LEIB 040330Z 25008KT CAVOK 13/10 Q1023 NOSIG,1,0,0,9999,0,0,0,
2026-04-04 03:00:00,METAR LEIB 040300Z 25008KT CAVOK 13/10 Q1023 NOSIG,1,0,0,9999,0,0,0,
2026-04-04 02:30:00,METAR LEIB 040230Z 25008KT CAVOK 13/11 Q1024 NOSIG,1,0,0,9999,0,0,0,
2026-04-04 02:00:00,METAR LEIB 040200Z 24009KT CAVOK 14/11 Q1024 NOSIG,1,0,0,9999,0,0,0,
2026-04-04 01:30:00,METAR LEIB 040130Z 24009KT CAVOK 14/11 Q1024 NOSIG,1,0,0,9999,0,0,0,
2026-04-04 01:00:00,METAR LEIB 040100Z 24008KT CAVOK 14/11 Q1024 NOSIG,1,0,0,9999,0,0,0,
2026-04-04 00:30:00,METAR LEIB 040030Z 24009KT 210V270 CAVOK 14/10 Q1024 NOSIG,1,0,0,9999,0,0,0,
2026-04-04 00:00:00,METAR LEIB 040000Z 24010KT 210V270 CAVOK 14/10 Q1024 NOSIG,1,0,0,9999,0,0,0,
2026-04-03 23:30:00,METAR LEIB 032330Z 24009KT 210V270 CAVOK 14/10 Q1024 NOSIG,1,0,0,9999,0,0,0,
2026-04-03 23:00:00,METAR LEIB 032300Z 23009KT 200V260 CAVOK 14/10 Q1024 NOSIG,1,0,0,9999,0,0,0,
2026-04-03 22:30:00,METAR LEIB 032230Z 23010KT CAVOK 14/10 Q1024 NOSIG,1,0,0,9999,0,0,0,
2026-04-03 22:00:00,METAR LEIB 032200Z 24008KT CAVOK 14/10 Q1023 NOSIG,1,0,0,9999,0,0,0,
2026-04-03 21:30:00,METAR LEIB 032130Z 24008KT CAVOK 14/09 Q1023 NOSIG,1,0,0,9999,0,0,0,
2026-04-03 21:00:00,METAR LEIB 032100Z 24008KT CAVOK 14/09 Q1023 NOSIG,1,0,0,9999,0,0,0,
2026-04-03 20:30:00,METAR LEIB 032030Z 22008KT 190V260 CAVOK 15/10 Q1023 NOSIG,1,0,0,9999,0,0,0,
2026-04-03 20:00:00,METAR LEIB 032000Z 22008KT 190V250 CAVOK 15/09 Q1023 NOSIG,1,0,0,9999,0,0,0,
2026-04-03 19:30:00,METAR LEIB 031930Z 22008KT 180V250 CAVOK 15/09 Q1022 NOSIG,1,0,0,9999,0,0,0,
2026-04-03 19:00:00,METAR LEIB 031900Z 21007KT 190V250 CAVOK 15/09 Q1022 NOSIG,1,0,0,9999,0,0,0,
2026-04-03 18:30:00,METAR LEIB 031830Z 22007KT CAVOK 15/10 Q1022 NOSIG,1,0,0,9999,0,0,0,
2026-04-03 18:00:00,METAR LEIB 031800Z 22007KT CAVOK 15/09 Q1022 NOSIG,1,0,0,9999,0,0,0,
2026-04-03 17:30:00,METAR LEIB 031730Z 22008KT 190V260 CAVOK 16/10 Q1022 NOSIG,1,0,0,9999,0,0,0,
2026-04-03 17:00:00,METAR LEIB 031700Z 22009KT 200V260 9999 FEW030 16/10 Q1021 NOSIG,0,9,0,10000,0,0,0,
2026-04-03 16:30:00,METAR LEIB 031630Z 23010KT 200V260 9999 FEW030 16/09 Q1021 NOSIG,0,10,0,10000,0,0,0,
2026-04-03 16:00:00,METAR LEIB 031600Z 23008KT 200V260 9999 FEW030 17/10 Q1021 NOSIG,0,8,0,10000,0,0,0,
2026-04-03 15:30:00,METAR LEIB 031530Z 19008KT 160V230 9999 FEW033 18/10 Q1021 NOSIG,0,8,0,10000,0,0,0,
2026-04-03 15:00:00,METAR LEIB 031500Z 18008KT 140V210 9999 FEW033 17/10 Q1021 NOSIG,0,8,0,10000,0,0,0,
2026-04-03 14:30:00,METAR LEIB 031430Z 18007KT 140V260 9999 FEW033 17/10 Q1021 NOSIG,0,7,0,10000,0,0,0,
2026-04-03 14:00:00,METAR LEIB 031400Z 14008KT 070V190 9999 FEW035 18/09 Q1021 NOSIG,0,8,0,10000,0,0,0,
2026-04-03 13:30:00,METAR LEIB 031330Z 11009KT 080V160 9999 FEW035 18/10 Q1021 NOSIG,0,9,0,10000,0,0,0,
2026-04-03 13:00:00,METAR LEIB 031300Z 12008KT 050V170 9999 FEW035 18/10 Q1021 NOSIG,0,8,0,10000,0,0,0,
2026-04-03 12:30:00,METAR LEIB 031230Z 11009KT 070V150 9999 FEW035 17/10 Q1021 NOSIG,0,9,0,10000,0,0,0,
2026-04-03 12:00:00,METAR LEIB 031200Z 05005KT 360V160 9999 FEW035 18/08 Q1021 NOSIG,0,5,0,10000,0,0,0,
2026-04-03 11:30:00,METAR LEIB 031130Z 03007KT 340V080 9999 FEW035 17/08 Q1021 NOSIG,0,7,0,10000,0,0,0,
2026-04-03 11:00:00,METAR LEIB 031100Z 02010KT 340V060 9999 FEW030 17/07 Q1021 NOSIG,0,10,0,10000,0,0,0,
2026-04-03 10:30:00,METAR LEIB 031030Z 04013KT 010V070 CAVOK 17/06 Q1021 NOSIG,1,0,0,9999,0,0,0,
2026-04-03 10:00:00,METAR LEIB 031000Z 03014KT 350V050 CAVOK 17/07 Q1021 NOSIG,1,0,0,9999,0,0,0,
2026-04-03 09:30:00,METAR LEIB 030930Z 02013KT 350V060 CAVOK 16/06 Q1020 NOSIG,1,0,0,9999,0,0,0,
2026-04-03 09:00:00,METAR LEIB 030900Z 02012G22KT 340V060 CAVOK 16/06 Q1020 NOSIG,1,0,0,9999,0,0,0,
2026-04-03 08:30:00,METAR LEIB 030830Z 02014KT 340V050 CAVOK 16/07 Q1020 NOSIG,1,0,0,9999,0,0,0,
2026-04-03 08:00:00,METAR LEIB 030800Z 01015KT 340V040 CAVOK 15/07 Q1019 NOSIG,1,0,0,9999,0,0,0,
2026-04-03 07:30:00,METAR LEIB 030730Z 01013KT 330V060 CAVOK 15/08 Q1019 NOSIG,1,0,0,9999,0,0,0,
2026-04-03 07:00:00,METAR LEIB 030700Z 01010KT 330V030 9999 FEW026 14/08 Q1019 NOSIG,0,10,0,10000,0,0,0,
2026-04-03 06:30:00,METAR LEIB 030630Z 36011KT 340V040 9999 FEW031 13/08 Q1018 NOSIG,0,11,0,10000,0,0,0,
2026-04-03 06:00:00,METAR LEIB 030600Z 36007KT 330V050 9999 FEW031 13/08 Q1018 NOSIG,0,7,0,10000,0,0,0,
2026-04-03 05:30:00,METAR LEIB 030530Z 35006KT 280V020 CAVOK 12/07 Q1017 NOSIG,1,0,0,9999,0,0,0,
2026-04-03 05:00:00,METAR LEIB 030500Z 35008KT CAVOK 12/07 Q1017 NOSIG,1,0,0,9999,0,0,0,
2026-04-03 04:30:00,METAR LEIB 030430Z 36006KT CAVOK 12/08 Q1017 NOSIG,1,0,0,9999,0,0,0,
2026-04-03 04:00:00,METAR LEIB 030400Z 35008KT CAVOK 12/07 Q1017 NOSIG,1,0,0,9999,0,0,0,
2026-04-03 03:30:00,METAR LEIB 030330Z 35005KT 310V010 CAVOK 12/07 Q1017 NOSIG,1,0,0,9999,0,0,0,
2026-04-03 03:00:00,METAR LEIB 030300Z 34008KT 320V020 CAVOK 13/07 Q1017 NOSIG,1,0,0,9999,0,0,0,
2026-04-03 02:30:00,METAR LEIB 030230Z 34008KT 310V010 CAVOK 13/06 Q1017 NOSIG,1,0,0,9999,0,0,0,
2026-04-03 02:00:00,METAR LEIB 030200Z 33007KT 300V010 CAVOK 13/06 Q1017 NOSIG,1,0,0,9999,0,0,0,
2026-04-03 01:30:00,METAR LEIB 030130Z 33010KT CAVOK 14/06 Q1017 NOSIG,1,0,0,9999,0,0,0,
2026-04-03 01:00:00,METAR LEIB 030100Z 33007KT 300V360 CAVOK 13/07 Q1017 NOSIG,1,0,0,9999,0,0,0,
2026-04-03 00:30:00,METAR LEIB 030030Z 34008KT 290V020 CAVOK 14/07 Q1017 NOSIG,1,0,0,9999,0,0,0,
2026-04-03 00:00:00,METAR LEIB 030000Z 31009KT 280V340 CAVOK 14/07 Q1017 NOSIG,1,0,0,9999,0,0,0,
2026-04-02 23:30:00,METAR LEIB 022330Z 31007KT 290V350 CAVOK 14/08 Q1017 NOSIG,1,0,0,9999,0,0,0,
2026-04-02 23:00:00,METAR LEIB 022300Z 31005KT 260V020 CAVOK 14/07 Q1017 NOSIG,1,0,0,9999,0,0,0,
2026-04-02 22:30:00,METAR LEIB 022230Z 29004KT 260V330 CAVOK 14/09 Q1017 NOSIG,1,0,0,9999,0,0,0,
2026-04-02 22:00:00,METAR LEIB 022200Z 29009KT 250V320 CAVOK 14/09 Q1016 NOSIG,1,0,0,9999,0,0,0,
2026-04-02 21:30:00,METAR LEIB 022130Z 29007KT 250V320 CAVOK 14/09 Q1016 NOSIG,1,0,0,9999,0,0,0,
2026-04-02 21:00:00,METAR LEIB 022100Z 29007KT CAVOK 13/09 Q1016 NOSIG,1,0,0,9999,0,0,0,
2026-04-02 20:30:00,METAR LEIB 022030Z 28007KT 240V330 CAVOK 14/10 Q1016 NOSIG,1,0,0,9999,0,0,0,
2026-04-02 20:00:00,METAR LEIB 022000Z 28006KT CAVOK 13/08 Q1016 NOSIG,1,0,0,9999,0,0,0,
2026-04-02 19:30:00,METAR LEIB 021930Z 28004KT CAVOK 14/09 Q1015 NOSIG,1,0,0,9999,0,0,0,
2026-04-02 19:00:00,METAR LEIB 021900Z 26010KT CAVOK 14/09 Q1015 NOSIG,1,0,0,9999,0,0,0,
2026-04-02 18:30:00,METAR LEIB 021830Z 24007KT 210V270 CAVOK 14/09 Q1015 NOSIG,1,0,0,9999,0,0,0,
2026-04-02 18:00:00,METAR LEIB 021800Z 24007KT 220V280 9999 FEW045 15/09 Q1014 NOSIG,0,7,0,10000,0,0,0,
2026-04-02 17:30:00,METAR LEIB 021730Z 24008KT 9999 FEW045 15/09 Q1014 NOSIG,0,8,0,10000,0,0,0,
2026-04-02 17:00:00,METAR LEIB 021700Z 25009KT CAVOK 15/09 Q1014 NOSIG,1,0,0,9999,0,0,0,
2026-04-02 16:30:00,METAR LEIB 021630Z 25011KT CAVOK 15/09 Q1014 NOSIG,1,0,0,9999,0,0,0,
2026-04-02 16:00:00,METAR LEIB 021600Z 24009KT 9999 FEW049 15/09 Q1014 NOSIG,0,9,0,10000,0,0,0,
2026-04-02 15:30:00,METAR LEIB 021530Z 25010KT 9999 FEW048 15/08 Q1014 NOSIG,0,10,0,10000,0,0,0,
2026-04-02 15:00:00,METAR LEIB 021500Z 25012KT 230V290 9999 FEW048 15/09 Q1014 NOSIG,0,12,0,10000,0,0,0,
2026-04-02 14:30:00,METAR LEIB 021430Z 25013KT 9999 FEW041 15/08 Q1014 NOSIG,0,13,0,10000,0,0,0,
2026-04-02 14:00:00,METAR LEIB 021400Z 34008KT 250V020 9999 FEW048 17/06 Q1014 NOSIG,0,8,0,10000,0,0,0,
2026-04-02 13:30:00,METAR LEIB 021330Z VRB09KT 9999 FEW046 SCT049 15/07 Q1015 NOSIG,0,9,0,10000,0,0,0,
2026-04-02 13:00:00,METAR LEIB 021300Z VRB05KT 9999 FEW041 SCT047 16/08 Q1015 NOSIG,0,5,0,10000,0,0,0,
2026-04-02 12:30:00,METAR LEIB 021230Z 20005KT 110V240 9999 FEW042 16/09 Q1015 NOSIG,0,5,0,10000,0,0,0,
2026-04-02 12:00:00,METAR LEIB 021200Z 19005KT 140V270 9999 FEW030 SCT044 15/08 Q1015 NOSIG,0,5,0,10000,0,0,0,
2026-04-02 11:30:00,METAR LEIB 021130Z VRB06KT 9999 FEW041 SCT048 15/09 Q1016 NOSIG,0,6,0,10000,0,0,0,
2026-04-02 11:00:00,METAR LEIB 021100Z VRB03KT 9999 FEW042 16/07 Q1015 NOSIG,0,3,0,10000,0,0,0,
2026-04-02 10:30:00,METAR LEIB 021030Z VRB04KT 9999 FEW040 15/09 Q1015 NOSIG,0,4,0,10000,0,0,0,
2026-04-02 10:00:00,METAR LEIB 021000Z VRB03KT 9999 FEW025 SCT033 BKN042 15/09 Q1015 NOSIG,0,3,0,10000,0,0,0,
2026-04-02 09:30:00,METAR LEIB 020930Z 12006KT 070V180 9999 FEW027 SCT033 BKN042 14/09 Q1016 NOSIG,0,6,0,10000,0,0,0,
2026-04-02 09:00:00,METAR LEIB 020900Z 10006KT 060V150 9999 FEW023 SCT035 13/09 Q1015 NOSIG,0,6,0,10000,0,0,0,
2026-04-02 08:30:00,METAR LEIB 020830Z 10008KT 080V150 9999 FEW023 SCT028 12/09 Q1015 NOSIG,0,8,0,10000,0,0,0,
2026-04-02 08:00:00,METAR LEIB 020800Z 07008KT 030V110 9999 FEW028 SCT036 13/08 Q1015 NOSIG,0,8,0,10000,0,0,0,
2026-04-02 07:30:00,METAR LEIB 020730Z 05009KT 9999 FEW035 SCT044 12/08 Q1014 NOSIG,0,9,0,10000,0,0,0,
2026-04-02 07:00:00,METAR LEIB 020700Z 05012KT 9999 FEW033 SCT044 13/08 Q1014 NOSIG,0,12,0,10000,0,0,0,
2026-04-02 06:30:00,METAR LEIB 020630Z 01012G22KT 330V050 9999 FEW033 BKN044 13/07 Q1014 NOSIG,0,12,1,10000,0,0,0,
2026-04-02 06:00:00,METAR LEIB 020600Z 01009KT 9999 FEW033 BKN044 13/07 Q1013 NOSIG,0,9,0,10000,0,0,0,
2026-04-02 05:30:00,METAR LEIB 020530Z 36005KT 320V040 9999 FEW033 SCT044 12/07 Q1013 NOSIG,0,5,0,10000,0,0,0,
2026-04-02 05:00:00,METAR LEIB 020500Z 02004KT 9999 FEW033 SCT040 12/07 Q1013 NOSIG,0,4,0,10000,0,0,0,
2026-04-02 04:30:00,METAR LEIB 020430Z 01006KT 350V050 9999 FEW036 12/07 Q1013 NOSIG,0,6,0,10000,0,0,0,
2026-04-02 04:00:00,METAR LEIB 020400Z 01007KT 340V040 9999 FEW036 12/07 Q1013 NOSIG,0,7,0,10000,0,0,0,
2026-04-02 03:30:00,METAR LEIB 020330Z VRB02KT 9999 FEW036 10/08 Q1013 NOSIG,0,2,0,10000,0,0,0,
2026-04-02 03:00:00,METAR LEIB 020300Z VRB02KT 9999 FEW036 09/08 Q1013 NOSIG,0,2,0,10000,0,0,0,
2026-04-02 02:30:00,METAR LEIB 020230Z 35003KT 9999 FEW036 10/08 Q1013 NOSIG,0,3,0,10000,0,0,0,
2026-04-02 02:00:00,METAR LEIB 020200Z 33003KT 290V020 9999 SCT036 BKN040 11/09 Q1013 NOSIG,0,3,0,10000,0,0,0,
2026-04-02 01:30:00,METAR LEIB 020130Z VRB04KT 9999 SCT036 BKN040 13/10 Q1014 NOSIG,0,4,0,10000,0,0,0,
2026-04-02 01:00:00,METAR LEIB 020100Z 04006KT 9999 SCT036 BKN040 12/10 Q1014 NOSIG,0,6,0,10000,0,0,0,
2026-04-02 00:30:00,METAR LEIB 020030Z 06006KT 9999 SCT036 BKN040 12/10 Q1014 NOSIG,0,6,0,10000,0,0,0,
2026-04-02 00:00:00,METAR LEIB 020000Z 05006KT 9999 SCT040 11/09 Q1014 NOSIG,0,6,0,10000,0,0,0,
2026-04-01 23:30:00,METAR LEIB 012330Z 05006KT 9999 FEW020 11/10 Q1015 NOSIG,0,6,0,10000,0,0,0,
2026-04-01 23:00:00,METAR LEIB 012300Z 01005KT 9999 FEW020 11/09 Q1015 NOSIG,0,5,0,10000,0,0,0,
2026-04-01 22:30:00,METAR LEIB 012230Z 02004KT 350V050 9999 FEW020 11/09 Q1015 NOSIG,0,4,0,10000,0,0,0,
2026-04-01 22:00:00,METAR LEIB 012200Z 22003KT 150V250 9999 FEW020 13/10 Q1015 NOSIG,0,3,0,10000,0,0,0,
2026-04-01 21:30:00,METAR LEIB 012130Z 24005KT 9999 FEW020 13/10 Q1015 NOSIG,0,5,0,10000,0,0,0,
2026-04-01 21:00:00,METAR LEIB 012100Z 24005KT 210V270 9999 FEW020 14/10 Q1015 NOSIG,0,5,0,10000,0,0,0,
2026-04-01 20:30:00,METAR LEIB 012030Z 24005KT 200V270 9999 -RA FEW022 13/10 Q1015 NOSIG,0,5,0,10000,0,0,0,-RA
2026-04-01 20:00:00,METAR LEIB 012000Z 23007KT 200V260 9999 -RA FEW022 14/09 Q1016 NOSIG,0,7,0,10000,0,0,0,-RA
2026-04-01 19:30:00,METAR LEIB 011930Z 24007KT 9999 -RA FEW022 14/09 Q1015 NOSIG,0,7,0,10000,0,0,0,-RA
2026-04-01 19:00:00,METAR LEIB 011900Z 24007KT 9999 FEW025 14/09 Q1015 NOSIG,0,7,0,10000,0,0,0,
2026-04-01 18:30:00,METAR LEIB 011830Z 23006KT 9999 FEW025 14/08 Q1015 NOSIG,0,6,0,10000,0,0,0,
2026-04-01 18:00:00,METAR LEIB 011800Z 23008KT 210V270 9999 FEW027 14/08 Q1015 NOSIG,0,8,0,10000,0,0,0,
2026-04-01 17:30:00,METAR LEIB 011730Z 25009KT 210V280 9999 FEW027 14/08 Q1015 NOSIG,0,9,0,10000,0,0,0,
2026-04-01 17:00:00,METAR LEIB 011700Z 24009KT 9999 FEW027 15/07 Q1015 NOSIG,0,9,0,10000,0,0,0,
2026-04-01 16:30:00,METAR LEIB 011630Z 24007KT 200V270 9999 FEW027 15/06 Q1015 NOSIG,0,7,0,10000,0,0,0,
2026-04-01 16:00:00,METAR LEIB 011600Z 22007KT 160V250 9999 FEW038 15/06 Q1015 NOSIG,0,7,0,10000,0,0,0,
2026-04-01 15:30:00,METAR LEIB 011530Z 23006KT 190V280 9999 FEW038 15/05 Q1015 NOSIG,0,6,0,10000,0,0,0,
2026-04-01 15:00:00,METAR LEIB 011500Z 19006KT 130V240 9999 FEW038 15/04 Q1015 NOSIG,0,6,0,10000,0,0,0,
2026-04-01 14:00:00,METAR LEIB 011400Z 11008KT 070V160 9999 FEW045 16/04 Q1016 NOSIG,0,8,0,10000,0,0,0,
2026-04-01 13:30:00,METAR LEIB 011330Z 10010KT 080V140 9999 FEW045 15/05 Q1017 NOSIG,0,10,0,10000,0,0,0,
2026-04-01 13:00:00,METAR LEIB 011300Z 08007KT 030V170 9999 FEW045 16/05 Q1017 NOSIG,0,7,0,10000,0,0,0,
2026-04-01 12:30:00,METAR LEIB 011230Z 03007KT 330V070 9999 FEW045 16/05 Q1017 NOSIG,0,7,0,10000,0,0,0,
2026-04-01 12:00:00,METAR LEIB 011200Z 06007KT 360V100 9999 SCT045 16/05 Q1018 NOSIG,0,7,0,10000,0,0,0,
2026-04-01 11:30:00,METAR LEIB 011130Z 06009KT 010V090 9999 BKN048 15/04 Q1018 NOSIG,0,9,0,10000,0,0,0,
2026-04-01 11:00:00,METAR LEIB 011100Z 04010KT 9999 SCT048 15/05 Q1018 NOSIG,0,10,0,10000,0,0,0,
2026-04-01 10:30:00,METAR LEIB 011030Z 05008KT 020V080 9999 FEW030 BKN048 14/05 Q1018 NOSIG,0,8,0,10000,0,0,0,
2026-04-01 10:00:00,METAR LEIB 011000Z 06011KT 9999 FEW030 BKN048 14/05 Q1018 NOSIG,0,11,0,10000,0,0,0,
2026-04-01 09:30:00,METAR LEIB 010930Z 04012KT 9999 FEW030 BKN048 14/04 Q1018 NOSIG,0,12,0,10000,0,0,0,
2026-04-01 09:00:00,METAR LEIB 010900Z 05009KT 010V070 9999 FEW030 BKN048 13/05 Q1018 NOSIG,0,9,0,10000,0,0,0,
2026-04-01 08:30:00,METAR LEIB 010830Z 06010KT 9999 FEW031 BKN042 13/05 Q1018 NOSIG,0,10,0,10000,0,0,0,
2026-04-01 08:00:00,METAR LEIB 010800Z 06008KT 030V090 9999 FEW035 BKN046 13/05 Q1018 NOSIG,0,8,0,10000,0,0,0,
2026-04-01 07:30:00,METAR LEIB 010730Z 05007KT 9999 FEW035 BKN046 13/05 Q1018 NOSIG,0,7,0,10000,0,0,0,
2026-04-01 07:00:00,METAR LEIB 010700Z 03006KT 010V100 9999 FEW034 SCT040 BKN044 12/05 Q1018 NOSIG,0,6,0,10000,0,0,0,
2026-04-01 06:30:00,METAR LEIB 010630Z 05006KT 010V070 9999 FEW033 BKN038 BKN044 12/06 Q1018 NOSIG,0,6,0,10000,0,0,0,
2026-04-01 06:00:00,METAR LEIB 010600Z 05007KT 9999 FEW033 SCT038 BKN041 12/07 Q1018 NOSIG,0,7,0,10000,0,0,0,
2026-04-01 05:30:00,METAR LEIB 010530Z 01006KT 9999 FEW033 SCT040 BKN048 12/08 Q1018 NOSIG,0,6,0,10000,0,0,0,
2026-04-01 05:00:00,METAR LEIB 010500Z 05008KT 9999 FEW035 SCT046 12/08 Q1018 NOSIG,0,8,0,10000,0,0,0,
2026-04-01 04:30:00,METAR LEIB 010430Z 06010KT 9999 FEW035 SCT046 12/08 Q1018 NOSIG,0,10,0,10000,0,0,0,
2026-04-01 04:00:00,METAR LEIB 010400Z 01008KT 9999 FEW035 13/07 Q1018 NOSIG,0,8,0,10000,0,0,0,
2026-04-01 03:30:00,METAR LEIB 010330Z 01011KT CAVOK 13/07 Q1018 NOSIG,1,0,0,9999,0,0,0,
2026-04-01 03:00:00,METAR LEIB 010300Z 35013KT 320V020 CAVOK 14/07 Q1017 NOSIG,1,0,0,9999,0,0,0,
2026-04-01 02:30:00,METAR LEIB 010230Z 35012KT 320V020 9999 FEW024 13/06 Q1017 NOSIG,0,12,0,10000,0,0,0,
2026-04-01 02:00:00,METAR LEIB 010200Z 33004G16KT 9999 FEW024 13/06 Q1018 NOSIG,0,4,1,10000,0,0,0,
2026-04-01 01:30:00,METAR LEIB 010130Z 29008KT 250V330 9999 FEW024 SCT031 14/07 Q1018 NOSIG,0,8,0,10000,0,0,0,
2026-04-01 01:00:00,METAR LEIB 010100Z 26012KT 9999 SCT024 BKN031 13/09 Q1019 NOSIG,0,12,0,10000,0,0,0,
2026-04-01 00:30:00,METAR LEIB 010030Z 25013KT 9999 SCT024 BKN032 14/10 Q1019 NOSIG,0,13,0,10000,0,0,0,
2026-04-01 00:00:00,METAR LEIB 010000Z 22006KT 190V250 9999 SCT024 BKN037 14/09 Q1019 NOSIG,0,6,0,10000,0,0,0,
2026-03-31 23:30:00,METAR LEIB 312330Z 22008KT 180V250 9999 SCT027 BKN040 13/09 Q1020 NOSIG,0,8,0,9999,0,0,0,
2026-03-31 23:00:00,METAR LEIB 312300Z 22006KT 190V260 9999 BKN027 BKN033 13/09 Q1020 NOSIG,0,6,0,9999,0,0,0,
2026-03-31 22:30:00,METAR LEIB 312230Z 22009KT 9999 BKN027 BKN033 14/09 Q1020 NOSIG,0,9,0,9999,0,0,0,
2026-03-31 22:00:00,METAR LEIB 312200Z 21007KT 160V250 9999 FEW020 BKN024 14/09 Q1020 NOSIG,0,7,0,9999,0,0,0,
2026-03-31 21:30:00,METAR LEIB 312130Z 24009KT 9999 SCT025 BKN040 14/10 Q1020 NOSIG,0,9,0,9999,0,0,0,
2026-03-31 21:00:00,METAR LEIB 312100Z 20005KT 9999 SCT035 BKN049 14/10 Q1020 NOSIG,0,5,0,9999,0,0,0,
2026-03-31 20:30:00,METAR LEIB 312030Z 18006KT 140V210 9999 SCT035 14/10 Q1020 NOSIG,0,6,0,9999,0,0,0,
2026-03-31 20:00:00,METAR LEIB 312000Z 16005KT 120V210 9999 SCT025 BKN030 14/09 Q1020 NOSIG,0,5,0,9999,0,0,0,
2026-03-31 19:30:00,METAR LEIB 311930Z VRB02KT 9999 FEW030 13/09 Q1019 NOSIG,0,2,0,9999,0,0,0,
2026-03-31 19:00:00,METAR LEIB 311900Z VRB02KT CAVOK 14/09 Q1019 NOSIG,1,0,0,9999,0,0,0,
2026-03-31 18:30:00,METAR LEIB 311830Z VRB02KT CAVOK 14/09 Q1018 NOSIG,1,0,0,9999,0,0,0,
2026-03-31 18:00:00,METAR LEIB 311800Z VRB02KT CAVOK 15/08 Q1019 NOSIG,1,0,0,9999,0,0,0,
2026-03-31 17:30:00,METAR LEIB 311730Z 10007KT CAVOK 15/09 Q1018 NOSIG,1,0,0,9999,0,0,0,
2026-03-31 17:00:00,METAR LEIB 311700Z 10007KT 070V140 CAVOK 15/09 Q1018 NOSIG,1,0,0,9999,0,0,0,
2026-03-31 16:30:00,METAR LEIB 311630Z 09010KT 060V120 CAVOK 16/10 Q1018 NOSIG,1,0,0,9999,0,0,0,
2026-03-31 16:00:00,METAR LEIB 311600Z 09011KT 060V120 CAVOK 16/10 Q1018 NOSIG,1,0,0,9999,0,0,0,
2026-03-31 15:30:00,METAR LEIB 311530Z 10011KT 070V140 CAVOK 16/10 Q1018 NOSIG,1,0,0,9999,0,0,0,
2026-03-31 15:00:00,METAR LEIB 311500Z 10011KT 070V140 CAVOK 16/10 Q1019 NOSIG,1,0,0,9999,0,0,0,
2026-03-31 14:30:00,METAR LEIB 311430Z 10009KT 050V190 9999 FEW040 17/10 Q1019 NOSIG,0,9,0,9999,0,0,0,
2026-03-31 14:00:00,METAR LEIB 311400Z 35009KT 310V050 9999 FEW040 18/06 Q1019 NOSIG,0,9,0,9999,0,0,0,
2026-03-31 13:30:00,METAR LEIB 311330Z 01008KT 330V060 CAVOK 18/08 Q1019 NOSIG,1,0,0,9999,0,0,0,
2026-03-31 13:00:00,METAR LEIB 311300Z 02011KT 350V070 9999 FEW048 18/07 Q1020 NOSIG,0,11,0,9999,0,0,0,
2026-03-31 12:30:00,METAR LEIB 311230Z 03014KT 010V070 9999 FEW049 18/05 Q1020 NOSIG,0,14,0,9999,0,0,0,
2026-03-31 12:00:00,METAR LEIB 311200Z 01009KT 330V060 9999 FEW049 18/06 Q1020 NOSIG,0,9,0,9999,0,0,0,
2026-03-31 11:30:00,METAR LEIB 311130Z 01008KT 300V060 9999 FEW040 18/08 Q1020 NOSIG,0,8,0,9999,0,0,0,
2026-03-31 11:00:00,METAR LEIB 311100Z 04010KT 350V080 9999 FEW040 17/08 Q1021 NOSIG,0,10,0,9999,0,0,0,
2026-03-31 10:30:00,METAR LEIB 311030Z 03011KT 340V070 CAVOK 18/07 Q1021 NOSIG,1,0,0,9999,0,0,0,
2026-03-31 10:00:00,METAR LEIB 311000Z 02013KT 340V070 CAVOK 18/07 Q1020 NOSIG,1,0,0,9999,0,0,0,
2026-03-31 09:30:00,METAR LEIB 310930Z 03011KT 350V060 CAVOK 17/06 Q1020 NOSIG,1,0,0,9999,0,0,0,
2026-03-31 09:00:00,METAR LEIB 310900Z 04010KT 010V070 CAVOK 17/08 Q1020 NOSIG,1,0,0,9999,0,0,0,
2026-03-31 08:30:00,METAR LEIB 310830Z 04013KT 360V070 CAVOK 16/08 Q1020 NOSIG,1,0,0,9999,0,0,0,
2026-03-31 08:00:00,METAR LEIB 310800Z 04009KT 350V070 CAVOK 16/08 Q1020 NOSIG,1,0,0,9999,0,0,0,
2026-03-31 07:30:00,METAR LEIB 310730Z 04008KT 350V070 CAVOK 16/09 Q1020 NOSIG,1,0,0,9999,0,0,0,
2026-03-31 07:00:00,METAR LEIB 310700Z 08006KT CAVOK 14/10 Q1020 NOSIG,1,0,0,9999,0,0,0,
2026-03-31 06:30:00,METAR LEIB 310630Z 02004KT CAVOK 13/09 Q1020 NOSIG,1,0,0,9999,0,0,0,
2026-03-31 06:00:00,METAR LEIB 310600Z 02005KT CAVOK 10/08 Q1019 NOSIG,1,0,0,9999,0,0,0,
2026-03-31 05:30:00,METAR LEIB 310530Z 05005KT 010V070 CAVOK 11/07 Q1019 NOSIG,1,0,0,9999,0,0,0,
2026-03-31 05:00:00,METAR LEIB 310500Z 36005KT 320V040 CAVOK 13/08 Q1019 NOSIG,1,0,0,9999,0,0,0,
2026-03-31 04:30:00,METAR LEIB 310430Z VRB02KT CAVOK 10/07 Q1019 NOSIG,1,0,0,9999,0,0,0,
2026-03-31 04:00:00,METAR LEIB 310400Z VRB01KT CAVOK 10/08 Q1019 NOSIG,1,0,0,9999,0,0,0,
2026-03-31 03:30:00,METAR LEIB 310330Z VRB01KT CAVOK 09/07 Q1018 NOSIG,1,0,0,9999,0,0,0,
2026-03-31 03:00:00,METAR LEIB 310300Z VRB01KT CAVOK 10/07 Q1019 NOSIG,1,0,0,9999,0,0,0,
2026-03-31 02:30:00,METAR LEIB 310230Z 01004KT CAVOK 10/08 Q1019 NOSIG,1,0,0,9999,0,0,0,
2026-03-31 02:00:00,METAR LEIB 310200Z 30005KT CAVOK 11/08 Q1019 NOSIG,1,0,0,9999,0,0,0,
2026-03-31 01:30:00,METAR LEIB 310130Z 26007KT CAVOK 12/09 Q1019 NOSIG,1,0,0,9999,0,0,0,
2026-03-31 01:00:00,METAR LEIB 310100Z 27008KT 230V290 CAVOK 13/08 Q1020 NOSIG,1,0,0,9999,0,0,0,
2026-03-31 00:30:00,METAR LEIB 310030Z 26012KT CAVOK 13/08 Q1020 NOSIG,1,0,0,9999,0,0,0,
2026-03-31 00:00:00,METAR LEIB 310000Z 26011KT CAVOK 13/08 Q1020 NOSIG,1,0,0,9999,0,0,0,
2026-03-30 23:30:00,METAR LEIB 302330Z 26014KT CAVOK 13/07 Q1020 NOSIG,1,0,0,9999,0,0,0,
2026-03-30 23:00:00,METAR LEIB 302300Z 25012KT CAVOK 13/07 Q1021 NOSIG,1,0,0,9999,0,0,0,
2026-03-30 22:30:00,METAR LEIB 302230Z 25014KT CAVOK 13/07 Q1021 NOSIG,1,0,0,9999,0,0,0,
2026-03-30 22:00:00,METAR LEIB 302200Z 25013KT CAVOK 13/06 Q1021 NOSIG,1,0,0,9999,0,0,0,
2026-03-30 21:30:00,METAR LEIB 302130Z 25012KT CAVOK 13/06 Q1021 NOSIG,1,0,0,9999,0,0,0,
2026-03-30 21:00:00,METAR LEIB 302100Z 25012KT CAVOK 13/06 Q1021 NOSIG,1,0,0,9999,0,0,0,
2026-03-30 20:30:00,METAR LEIB 302030Z 25012KT CAVOK 13/05 Q1021 NOSIG,1,0,0,9999,0,0,0,
2026-03-30 20:00:00,METAR LEIB 302000Z 25012KT CAVOK 13/06 Q1021 NOSIG,1,0,0,9999,0,0,0,
2026-03-30 19:30:00,METAR LEIB 301930Z 26011KT CAVOK 13/04 Q1021 NOSIG,1,0,0,9999,0,0,0,
2026-03-30 19:00:00,METAR LEIB 301900Z 25008KT CAVOK 12/05 Q1021 NOSIG,1,0,0,9999,0,0,0,
2026-03-30 18:30:00,METAR LEIB 301830Z 25009KT CAVOK 12/04 Q1022 NOSIG,1,0,0,9999,0,0,0,
2026-03-30 18:00:00,METAR LEIB 301800Z 25009KT CAVOK 13/04 Q1022 NOSIG,1,0,0,9999,0,0,0,
2026-03-30 17:30:00,METAR LEIB 301730Z 25011KT CAVOK 14/04 Q1022 NOSIG,1,0,0,9999,0,0,0,
2026-03-30 17:00:00,METAR LEIB 301700Z 24008KT CAVOK 14/05 Q1022 NOSIG,1,0,0,9999,0,0,0,
2026-03-30 16:30:00,METAR LEIB 301630Z 25007KT 200V310 CAVOK 15/02 Q1022 NOSIG,1,0,0,9999,0,0,0,
2026-03-30 16:00:00,METAR LEIB 301600Z 28006KT 210V330 CAVOK 16/03 Q1023 NOSIG,1,0,0,9999,0,0,0,
2026-03-30 15:30:00,METAR LEIB 301530Z 34006KT 290V070 CAVOK 16/M01 Q1023 NOSIG,1,0,0,9999,0,0,0,
2026-03-30 15:00:00,METAR LEIB 301500Z 31007KT 250V050 CAVOK 16/03 Q1023 NOSIG,1,0,0,9999,0,0,0,
2026-03-30 14:30:00,METAR LEIB 301430Z 33007KT 280V020 CAVOK 16/03 Q1024 NOSIG,1,0,0,9999,0,0,0,
2026-03-30 14:00:00,METAR LEIB 301400Z 30007KT 260V340 CAVOK 16/03 Q1024 NOSIG,1,0,0,9999,0,0,0,
2026-03-30 13:30:00,METAR LEIB 301330Z 32010KT 290V360 CAVOK 16/02 Q1024 NOSIG,1,0,0,9999,0,0,0,
2026-03-30 13:00:00,METAR LEIB 301300Z 36012KT 330V030 CAVOK 16/03 Q1025 NOSIG,1,0,0,9999,0,0,0,
2026-03-30 12:30:00,METAR LEIB 301230Z 36012KT 320V050 CAVOK 15/03 Q1025 NOSIG,1,0,0,9999,0,0,0,
2026-03-30 12:00:00,METAR LEIB 301200Z 36011KT 330V030 CAVOK 15/04 Q1026 NOSIG,1,0,0,9999,0,0,0,
2026-03-30 11:30:00,METAR LEIB 301130Z 35010KT 320V020 9999 FEW036 16/04 Q1026 NOSIG,0,10,0,10000,0,0,0,
2026-03-30 11:00:00,METAR LEIB 301100Z 35009KT 300V040 9999 FEW036 16/05 Q1026 NOSIG,0,9,0,10000,0,0,0,
2026-03-30 10:30:00,METAR LEIB 301030Z 34010KT 300V010 9999 FEW036 15/05 Q1026 NOSIG,0,10,0,10000,0,0,0,
2026-03-30 10:00:00,METAR LEIB 301000Z 36010KT 320V030 9999 FEW036 15/05 Q1026 NOSIG,0,10,0,10000,0,0,0,
2026-03-30 09:30:00,METAR LEIB 300930Z 01008KT 300V060 9999 FEW036 15/05 Q1026 NOSIG,0,8,0,10000,0,0,0,
2026-03-30 09:00:00,METAR LEIB 300900Z 03011KT 350V080 9999 FEW036 14/04 Q1026 NOSIG,0,11,0,10000,0,0,0,
2026-03-30 08:30:00,METAR LEIB 300830Z 36007KT 300V050 9999 FEW030 14/06 Q1026 NOSIG,0,7,0,10000,0,0,0,
2026-03-30 08:00:00,METAR LEIB 300800Z 02010KT 9999 FEW040 14/05 Q1026 NOSIG,0,10,0,10000,0,0,0,
2026-03-30 07:30:00,METAR LEIB 300730Z 01010KT 350V050 9999 FEW040 13/05 Q1025 NOSIG,0,10,0,10000,0,0,0,
2026-03-30 07:00:00,METAR LEIB 300700Z 02012KT 350V050 9999 FEW040 12/05 Q1025 NOSIG,0,12,0,10000,0,0,0,
2026-03-30 06:30:00,METAR LEIB 300630Z 01004KT 330V040 9999 FEW040 11/05 Q1025 NOSIG,0,4,0,10000,0,0,0,
2026-03-30 06:00:00,METAR LEIB 300600Z 01005KT 9999 FEW040 10/05 Q1025 NOSIG,0,5,0,10000,0,0,0,
2026-03-30 05:30:00,METAR LEIB 300530Z 01008KT 340V040 9999 FEW040 11/05 Q1024 NOSIG,0,8,0,10000,0,0,0,
2026-03-30 05:00:00,METAR LEIB 300500Z 01007KT 320V040 CAVOK 11/05 Q1024 NOSIG,1,0,0,9999,0,0,0,
2026-03-30 04:30:00,METAR LEIB 300430Z 02008KT 350V050 CAVOK 11/04 Q1024 NOSIG,1,0,0,9999,0,0,0,
2026-03-30 04:00:00,METAR LEIB 300400Z 02006KT 9999 SCT048 11/04 Q1024 NOSIG,0,6,0,10000,0,0,0,
2026-03-30 03:30:00,METAR LEIB 300330Z 02009KT 340V060 9999 BKN041 12/05 Q1024 NOSIG,0,9,0,10000,0,0,0,
2026-03-30 03:00:00,METAR LEIB 300300Z 03010KT 350V070 9999 BKN043 12/05 Q1024 NOSIG,0,10,0,10000,0,0,0,
2026-03-30 02:30:00,METAR LEIB 300230Z 03005KT 340V060 9999 BKN047 12/04 Q1024 NOSIG,0,5,0,10000,0,0,0,
2026-03-30 02:00:00,METAR LEIB 300200Z 05006KT 9999 BKN048 11/04 Q1024 NOSIG,0,6,0,10000,0,0,0,
2026-03-30 01:30:00,METAR LEIB 300130Z 05007KT 9999 SCT045 11/04 Q1024 NOSIG,0,7,0,10000,0,0,0,
2026-03-30 01:00:00,METAR LEIB 300100Z 04007KT 9999 SCT048 11/04 Q1024 NOSIG,0,7,0,10000,0,0,0,
2026-03-30 00:30:00,METAR LEIB 300030Z 04007KT 010V070 9999 BKN046 12/04 Q1024 NOSIG,0,7,0,10000,0,0,0,
2026-03-30 00:00:00,METAR LEIB 300000Z 04009KT 010V070 9999 BKN044 12/04 Q1024 NOSIG,0,9,0,10000,0,0,0,
2026-03-29 23:30:00,METAR LEIB 292330Z 02005KT 350V050 9999 SCT045 12/04 Q1024 NOSIG,0,5,0,10000,0,0,0,
2026-03-29 23:00:00,METAR LEIB 292300Z 01006KT 340V040 9999 FEW045 12/04 Q1024 NOSIG,0,6,0,10000,0,0,0,
2026-03-29 22:30:00,METAR LEIB 292230Z 36006KT 9999 FEW045 11/04 Q1024 NOSIG,0,6,0,10000,0,0,0,
2026-03-29 22:00:00,METAR LEIB 292200Z 02006KT CAVOK 11/03 Q1024 NOSIG,1,0,0,9999,0,0,0,
2026-03-29 21:30:00,METAR LEIB 292130Z 03005KT CAVOK 11/03 Q1023 NOSIG,1,0,0,9999,0,0,0,
2026-03-29 21:00:00,METAR LEIB 292100Z 02005KT CAVOK 11/02 Q1023 NOSIG,1,0,0,9999,0,0,0,
2026-03-29 20:30:00,METAR LEIB 292030Z 03005KT CAVOK 11/02 Q1023 NOSIG,1,0,0,9999,0,0,0,
2026-03-29 20:00:00,METAR LEIB 292000Z 03004KT CAVOK 11/02 Q1023 NOSIG,1,0,0,9999,0,0,0,
2026-03-29 19:30:00,METAR LEIB 291930Z 03005KT CAVOK 12/01 Q1022 NOSIG,1,0,0,9999,0,0,0,
2026-03-29 19:00:00,METAR LEIB 291900Z 03005KT CAVOK 11/00 Q1022 NOSIG,1,0,0,9999,0,0,0,
2026-03-29 18:30:00,METAR LEIB 291830Z 04006KT CAVOK 12/M01 Q1022 NOSIG,1,0,0,9999,0,0,0,
2026-03-29 18:00:00,METAR LEIB 291800Z 04009KT CAVOK 13/M02 Q1021 NOSIG,1,0,0,9999,0,0,0,
2026-03-29 17:30:00,METAR LEIB 291730Z 04010KT CAVOK 13/M01 Q1021 NOSIG,1,0,0,9999,0,0,0,
2026-03-29 17:00:00,METAR LEIB 291700Z 03014KT 350V060 CAVOK 14/M01 Q1020 WS R06 NOSIG,1,0,0,9999,0,0,0,
2026-03-29 16:30:00,METAR LEIB 291630Z 02015KT 350V060 CAVOK 14/M01 Q1020 WS R06 NOSIG,1,0,0,9999,0,0,0,
2026-03-29 16:00:00,METAR LEIB 291600Z 03019G30KT 350V060 CAVOK 14/M02 Q1020 WS R06 NOSIG,1,0,0,9999,0,0,0,
2026-03-29 15:30:00,METAR LEIB 291530Z 02017G27KT 350V050 CAVOK 14/M01 Q1020 WS R06 NOSIG,1,0,0,9999,0,0,0,
2026-03-29 15:00:00,METAR LEIB 291500Z 02015G28KT 300V060 CAVOK 14/M01 Q1020 NOSIG,1,0,0,9999,0,0,0,
2026-03-29 14:30:00,METAR LEIB 291430Z 36016G29KT 330V060 CAVOK 14/01 Q1020 NOSIG,1,0,0,9999,0,0,0,
2026-03-29 14:00:00,METAR LEIB 291400Z 01017G29KT 330V050 CAVOK 14/01 Q1020 NOSIG,1,0,0,9999,0,0,0,
2026-03-29 13:30:00,METAR LEIB 291330Z 03017KT 360V060 CAVOK 13/01 Q1020 NOSIG,1,0,0,9999,0,0,0,
2026-03-29 13:00:00,METAR LEIB 291300Z 02015KT 330V050 9999 FEW045 13/01 Q1020 NOSIG,0,15,0,10000,0,0,0,
2026-03-29 12:30:00,METAR LEIB 291230Z 01009KT 340V040 9999 SCT045 11/03 Q1020 NOSIG,0,9,0,10000,0,0,0,
2026-03-29 12:00:00,METAR LEIB 291200Z 01006KT 320V060 9999 -RA BKN045 09/04 Q1020 NOSIG,0,6,0,10000,0,0,0,-RA
2026-03-29 11:30:00,METAR LEIB 291130Z 06011G25KT 330V110 9999 -RA FEW015 BKN040 10/06 Q1020 NOSIG,0,11,1,10000,0,0,0,-RA
2026-03-29 11:00:00,METAR LEIB 291100Z 08004KT 040V120 9999 FEW016 BKN047 10/06 Q1020 NOSIG,0,4,0,10000,0,0,0,
2026-03-29 10:30:00,METAR LEIB 291030Z 09007KT 060V140 9999 FEW015 BKN043 09/07 Q1020 NOSIG,0,7,0,10000,0,0,0,
2026-03-29 10:00:00,METAR LEIB 291000Z 07006KT 9999 FEW015 SCT040 09/06 Q1020 NOSIG,0,6,0,10000,0,0,0,
2026-03-29 09:30:00,METAR LEIB 290930Z 05006KT 9999 FEW010 SCT027 08/06 Q1020 NOSIG,0,6,0,10000,0,0,0,
2026-03-29 09:00:00,METAR LEIB 290900Z 07011KT 040V110 9000 -RA BKN020 07/06 Q1020 RESHRA NOSIG,0,11,0,9000,0,0,0,"-RA,RA"
2026-03-29 08:41:00,SPECI LEIB 290841Z 05022G37KT 9000 -RA BKN017 08/05 Q1020 RESHRA NOSIG,0,22,1,9000,0,0,0,"-RA,RA"
2026-03-29 08:30:00,METAR LEIB 290830Z 04008G22KT 4000 +SHRA BKN014 FEW020TCU 08/06 Q1020 NOSIG,0,8,1,4000,0,0,0,RA
2026-03-29 08:00:00,METAR LEIB 290800Z 05005KT 9999 FEW004 BKN020 09/07 Q1019 RERA NOSIG,0,5,0,10000,0,0,0,RA
2026-03-29 07:45:00,SPECI LEIB 290745Z 04008KT 9000 -RA BKN015 08/06 Q1019 RERA NOSIG,0,8,0,9000,0,0,0,"-RA,RA"
2026-03-29 07:33:00,SPECI LEIB 290733Z 02011KT 7000 +RA BKN016 09/07 Q1019 NOSIG,0,11,0,7000,0,1,0,+RA
2026-03-29 07:30:00,METAR LEIB 290730Z 05009KT 020V080 9999 -RA BKN016 09/07 Q1019 RESHRA NOSIG,0,9,0,10000,0,0,0,"-RA,RA"
2026-03-29 07:21:00,SPECI LEIB 290721Z 04009KT 9000 -RA BKN017 09/07 Q1019 NOSIG,0,9,0,9000,0,0,0,-RA
2026-03-29 07:00:00,METAR LEIB 290700Z 04006KT 360V080 7000 +SHRA BKN015 FEW020TCU 09/07 Q1018 NOSIG,0,6,0,7000,0,0,0,RA
2026-03-29 06:30:00,METAR LEIB 290630Z 03015G26KT 350V080 9999 FEW028 BKN039 11/05 Q1018 NOSIG,0,15,1,10000,0,0,0,
2026-03-29 06:00:00,METAR LEIB 290600Z 01017G32KT 330V040 CAVOK 12/03 Q1017 NOSIG,1,0,0,9999,0,0,0,
2026-03-29 05:30:00,METAR LEIB 290530Z 01013G23KT 330V050 9999 -DZ FEW039 12/03 Q1017 NOSIG,0,13,1,10000,0,0,0,DZ
2026-03-29 05:00:00,METAR LEIB 290500Z 36017G30KT 310V050 9999 FEW041 SCT048 12/02 Q1017 NOSIG,0,17,1,10000,0,0,0,
2026-03-29 04:30:00,METAR LEIB 290430Z 36012G22KT 320V030 9999 FEW039 SCT046 12/03 Q1017 NOSIG,0,12,1,10000,0,0,0,
2026-03-29 04:00:00,METAR LEIB 290400Z 34014G24KT 310V010 9999 SCT039 BKN046 12/03 Q1017 NOSIG,0,14,1,10000,0,0,0,
2026-03-29 03:30:00,METAR LEIB 290330Z 34015G27KT 320V020 9999 FEW042 BKN049 12/03 Q1018 NOSIG,0,15,1,10000,0,0,0,
2026-03-29 03:00:00,METAR LEIB 290300Z 35016G27KT 320V040 CAVOK 12/02 Q1018 NOSIG,1,0,0,9999,0,0,0,
2026-03-29 02:30:00,METAR LEIB 290230Z 35019G30KT 300V030 CAVOK 13/02 Q1018 NOSIG,1,0,0,9999,0,0,0,
2026-03-29 02:00:00,METAR LEIB 290200Z 35021KT 320V020 CAVOK 13/03 Q1018 NOSIG,1,0,0,9999,0,0,0,
2026-03-29 01:30:00,METAR LEIB 290130Z 34021KT 310V010 CAVOK 14/04 Q1018 NOSIG,1,0,0,9999,0,0,0,
2026-03-29 01:00:00,METAR LEIB 290100Z 34013KT 310V030 CAVOK 14/05 Q1018 NOSIG,1,0,0,9999,0,0,0,
2026-03-29 00:30:00,METAR LEIB 290030Z 36005KT 280V080 CAVOK 14/06 Q1019 NOSIG,1,0,0,9999,0,0,0,
2026-03-29 00:00:00,METAR LEIB 290000Z VRB07KT CAVOK 15/09 Q1019 NOSIG,1,0,0,9999,0,0,0,
2026-03-28 23:30:00,METAR LEIB 282330Z 25006KT 220V280 CAVOK 14/11 Q1019 NOSIG,1,0,0,9999,0,0,0,
2026-03-28 23:00:00,METAR LEIB 282300Z 26006KT 230V290 9999 FEW016 14/11 Q1019 NOSIG,0,6,0,10000,0,0,0,
2026-03-28 22:30:00,METAR LEIB 282230Z 25008KT 9999 FEW015 14/11 Q1019 NOSIG,0,8,0,10000,0,0,0,
2026-03-28 22:00:00,METAR LEIB 282200Z 25008KT 220V280 9999 FEW016 14/11 Q1020 NOSIG,0,8,0,10000,0,0,0,
2026-03-28 21:30:00,METAR LEIB 282130Z 26006KT 9999 FEW017 13/10 Q1020 NOSIG,0,6,0,10000,0,0,0,
2026-03-28 21:00:00,METAR LEIB 282100Z 27008KT CAVOK 14/10 Q1020 NOSIG,1,0,0,9999,0,0,0,
2026-03-28 20:30:00,METAR LEIB 282030Z 26006KT CAVOK 13/10 Q1020 NOSIG,1,0,0,9999,0,0,0,
2026-03-28 20:00:00,METAR LEIB 282000Z 25007KT CAVOK 13/10 Q1020 NOSIG,1,0,0,9999,0,0,0,
2026-03-28 19:30:00,METAR LEIB 281930Z 25009KT 9999 FEW038 14/10 Q1019 NOSIG,0,9,0,10000,0,0,0,
2026-03-28 19:00:00,METAR LEIB 281900Z 24007KT 210V270 9999 FEW038 13/10 Q1019 NOSIG,0,7,0,10000,0,0,0,
2026-03-28 18:30:00,METAR LEIB 281830Z 25008KT 210V270 9999 FEW038 13/09 Q1019 NOSIG,0,8,0,10000,0,0,0,
2026-03-28 18:00:00,METAR LEIB 281800Z 24007KT 200V260 CAVOK 14/09 Q1019 NOSIG,1,0,0,9999,0,0,0,
2026-03-28 17:30:00,METAR LEIB 281730Z 25010KT CAVOK 15/09 Q1019 NOSIG,1,0,0,9999,0,0,0,
2026-03-28 17:00:00,METAR LEIB 281700Z 25011KT CAVOK 15/09 Q1019 NOSIG,1,0,0,9999,0,0,0,
2026-03-28 16:30:00,METAR LEIB 281630Z 24012KT 9999 FEW032 15/10 Q1019 NOSIG,0,12,0,10000,0,0,0,
2026-03-28 16:00:00,METAR LEIB 281600Z 24012KT 9999 FEW032 16/09 Q1019 NOSIG,0,12,0,10000,0,0,0,
2026-03-28 15:30:00,METAR LEIB 281530Z 24011KT 9999 SCT034 16/09 Q1019 NOSIG,0,11,0,10000,0,0,0,
2026-03-28 15:00:00,METAR LEIB 281500Z 25013KT 9999 SCT031 BKN036 16/09 Q1019 NOSIG,0,13,0,10000,0,0,0,
2026-03-28 14:30:00,METAR LEIB 281430Z 25014KT 210V270 9999 SCT031 BKN039 16/09 Q1019 NOSIG,0,14,0,10000,0,0,0,
2026-03-28 14:00:00,METAR LEIB 281400Z 25014KT 9999 SCT035 BKN039 16/09 Q1020 NOSIG,0,14,0,10000,0,0,0,
2026-03-28 13:30:00,METAR LEIB 281330Z 25014KT 230V290 9999 SCT038 16/10 Q1020 NOSIG,0,14,0,10000,0,0,0,
2026-03-28 13:00:00,METAR LEIB 281300Z 24014KT 200V270 9999 FEW028 16/08 Q1020 NOSIG,0,14,0,10000,0,0,0,
2026-03-28 12:30:00,METAR LEIB 281230Z 24013KT 210V280 9999 FEW034 16/08 Q1020 NOSIG,0,13,0,10000,0,0,0,
2026-03-28 12:00:00,METAR LEIB 281200Z 25014KT 210V280 9999 FEW034 16/08 Q1020 NOSIG,0,14,0,10000,0,0,0,
2026-03-28 11:30:00,METAR LEIB 281130Z 24013KT 210V270 CAVOK 16/07 Q1020 NOSIG,1,0,0,9999,0,0,0,
2026-03-28 11:00:00,METAR LEIB 281100Z 24012KT 210V280 CAVOK 16/06 Q1021 NOSIG,1,0,0,9999,0,0,0,
2026-03-28 10:30:00,METAR LEIB 281030Z 24011KT 200V260 CAVOK 16/06 Q1021 NOSIG,1,0,0,9999,0,0,0,
2026-03-28 10:00:00,METAR LEIB 281000Z 24009KT 200V260 CAVOK 16/05 Q1021 NOSIG,1,0,0,9999,0,0,0,
2026-03-28 09:30:00,METAR LEIB 280930Z 23009KT 200V280 CAVOK 15/05 Q1021 NOSIG,1,0,0,9999,0,0,0,
2026-03-28 09:00:00,METAR LEIB 280900Z 23008KT 200V260 CAVOK 15/05 Q1021 NOSIG,1,0,0,9999,0,0,0,
2026-03-28 08:30:00,METAR LEIB 280830Z 23008KT CAVOK 15/05 Q1020 NOSIG,1,0,0,9999,0,0,0,
2026-03-28 08:00:00,METAR LEIB 280800Z 22006KT CAVOK 14/04 Q1020 NOSIG,1,0,0,9999,0,0,0,
2026-03-28 07:30:00,METAR LEIB 280730Z 00000KT CAVOK 15/06 Q1020 NOSIG,1,0,0,9999,0,0,0,
2026-03-28 07:00:00,METAR LEIB 280700Z VRB02KT CAVOK 12/06 Q1020 NOSIG,1,0,0,9999,0,0,0,
2026-03-28 06:30:00,METAR LEIB 280630Z VRB01KT 9999 FEW045 10/06 Q1020 NOSIG,0,1,0,10000,0,0,0,
2026-03-28 06:00:00,METAR LEIB 280600Z VRB01KT 9999 SCT048 09/05 Q1020 NOSIG,0,1,0,10000,0,0,0,
2026-03-28 05:30:00,METAR LEIB 280530Z 33004KT 9999 SCT048 09/04 Q1019 NOSIG,0,4,0,10000,0,0,0,
2026-03-28 05:00:00,METAR LEIB 280500Z VRB01KT CAVOK 09/04 Q1019 NOSIG,1,0,0,9999,0,0,0,
2026-03-28 04:30:00,METAR LEIB 280430Z VRB02KT CAVOK 11/04 Q1019 NOSIG,1,0,0,9999,0,0,0,
2026-03-28 04:00:00,METAR LEIB 280400Z AUTO 16003KT 130V200 CAVOK 12/03 Q1019,1,0,0,9999,0,0,0,
2026-03-28 03:30:00,METAR LEIB 280330Z AUTO 16004KT 120V200 CAVOK 12/03 Q1019,1,0,0,9999,0,0,0,
2026-03-28 03:00:00,METAR LEIB 280300Z AUTO 15004KT 110V190 CAVOK 12/03 Q1019,1,0,0,9999,0,0,0,
2026-03-28 02:30:00,METAR LEIB 280230Z AUTO 14003KT 080V200 CAVOK 11/03 Q1019,1,0,0,9999,0,0,0,
2026-03-28 02:00:00,METAR LEIB 280200Z AUTO 14005KT 100V170 9999 FEW045/// 12/03 Q1019,0,5,0,10000,0,0,0,
2026-03-28 01:30:00,METAR LEIB 280130Z AUTO 14006KT 090V190 9999 SCT045/// 12/03 Q1019,0,6,0,10000,0,0,0,
2026-03-28 01:00:00,METAR LEIB 280100Z AUTO 15006KT 100V180 9999 FEW046/// 13/03 Q1019,0,6,0,10000,0,0,0,
2026-03-28 00:30:00,METAR LEIB 280030Z AUTO 13006KT 080V170 9999 SCT041/// BKN046/// 13/03 Q1019,0,6,0,10000,0,0,0,
2026-03-28 00:00:00,METAR LEIB 280000Z AUTO 13007KT 080V180 9999 SCT040/// BKN045/// 13/04 Q1020,0,7,0,10000,0,0,0,
2026-03-27 23:30:00,METAR LEIB 272330Z AUTO 14009KT 080V180 9999 FEW038/// SCT046/// 13/04 Q1020,0,9,0,10000,0,0,0,
2026-03-27 23:00:00,METAR LEIB 272300Z 14010KT 080V180 9999 SCT038 BKN049 13/05 Q1019 NOSIG,0,10,0,10000,0,0,0,
2026-03-27 22:30:00,METAR LEIB 272230Z 15007KT 070V200 9999 FEW035 BKN045 13/05 Q1019 NOSIG,0,7,0,10000,0,0,0,
2026-03-27 22:00:00,METAR LEIB 272200Z 14010G20KT 100V190 9999 FEW034 BKN044 13/05 Q1019 NOSIG,0,10,1,10000,0,0,0,
2026-03-27 21:30:00,METAR LEIB 272130Z 14007KT 100V200 9999 FEW031 BKN038 13/06 Q1019 NOSIG,0,7,0,10000,0,0,0,
2026-03-27 21:00:00,METAR LEIB 272100Z 16006KT 090V200 9999 SCT034 13/05 Q1018 NOSIG,0,6,0,10000,0,0,0,
2026-03-27 20:30:00,METAR LEIB 272030Z 15007KT 100V200 9999 SCT030 13/06 Q1018 NOSIG,0,7,0,10000,0,0,0,
2026-03-27 20:00:00,METAR LEIB 272000Z 15006KT 120V190 9999 FEW025 12/06 Q1018 NOSIG,0,6,0,10000,0,0,0,
2026-03-27 19:30:00,METAR LEIB 271930Z 14005KT 100V170 9999 FEW025 12/06 Q1018 NOSIG,0,5,0,10000,0,0,0,
2026-03-27 19:00:00,METAR LEIB 271900Z 12004KT 080V150 9999 FEW025 12/06 Q1017 NOSIG,0,4,0,10000,0,0,0,
2026-03-27 18:30:00,METAR LEIB 271830Z 10005KT 070V130 CAVOK 12/07 Q1017 NOSIG,1,0,0,9999,0,0,0,
2026-03-27 18:00:00,METAR LEIB 271800Z 10006KT 070V140 CAVOK 13/07 Q1016 NOSIG,1,0,0,9999,0,0,0,
2026-03-27 17:30:00,METAR LEIB 271730Z 10008KT 070V140 9999 FEW048 13/07 Q1016 NOSIG,0,8,0,10000,0,0,0,
2026-03-27 17:00:00,METAR LEIB 271700Z 09008KT 060V120 9999 FEW048 14/06 Q1015 NOSIG,0,8,0,10000,0,0,0,
2026-03-27 16:30:00,METAR LEIB 271630Z 12009KT 080V150 9999 FEW048 15/06 Q1015 NOSIG,0,9,0,10000,0,0,0,
2026-03-27 16:00:00,METAR LEIB 271600Z 11008KT 070V160 9999 FEW048 16/07 Q1015 NOSIG,0,8,0,10000,0,0,0,
2026-03-25 15:00:00,METAR LEIB 251500Z 23011KT 200V260 CAVOK 16/10 Q1017 NOSIG,1,0,0,9999,0,0,0,
2026-03-25 14:30:00,METAR LEIB 251430Z 23011KT 200V260 CAVOK 16/11 Q1017 NOSIG,1,0,0,9999,0,0,0,
2026-03-25 14:00:00,METAR LEIB 251400Z 23010KT CAVOK 16/10 Q1017 NOSIG,1,0,0,9999,0,0,0,
2026-03-25 13:30:00,METAR LEIB 251330Z 22009KT 190V250 CAVOK 17/10 Q1017 NOSIG,1,0,0,9999,0,0,0,
2026-03-25 13:00:00,METAR LEIB 251300Z 22011KT CAVOK 17/10 Q1018 NOSIG,1,0,0,9999,0,0,0,
2026-03-25 12:30:00,METAR LEIB 251230Z 23010KT 190V270 CAVOK 17/11 Q1019 NOSIG,1,0,0,9999,0,0,0,
2026-03-25 12:00:00,METAR LEIB 251200Z 23010KT CAVOK 16/11 Q1019 NOSIG,1,0,0,9999,0,0,0,
2026-03-25 11:30:00,METAR LEIB 251130Z 23010KT 200V260 9999 FEW020 16/11 Q1019 NOSIG,0,10,0,10000,0,0,0,
2026-03-25 11:00:00,METAR LEIB 251100Z 23009KT 190V260 9999 FEW020 16/11 Q1020 NOSIG,0,9,0,10000,0,0,0,
2026-03-25 10:30:00,METAR LEIB 251030Z 23010KT 200V260 9999 FEW020 16/10 Q1020 NOSIG,0,10,0,10000,0,0,0,
2026-03-25 10:00:00,METAR LEIB 251000Z 23011KT 200V260 9999 FEW020 16/10 Q1020 NOSIG,0,11,0,10000,0,0,0,
2026-03-25 09:30:00,METAR LEIB 250930Z 23010KT 9999 FEW020 16/10 Q1020 NOSIG,0,10,0,10000,0,0,0,
2026-03-25 09:00:00,METAR LEIB 250900Z 23010KT 200V260 9999 FEW020 15/10 Q1020 NOSIG,0,10,0,10000,0,0,0,
2026-03-25 08:30:00,METAR LEIB 250830Z 23008KT 200V260 9999 FEW020 15/09 Q1020 NOSIG,0,8,0,10000,0,0,0,
2026-03-25 08:00:00,METAR LEIB 250800Z 23009KT 200V260 9999 FEW020 15/10 Q1020 NOSIG,0,9,0,10000,0,0,0,
2026-03-25 07:30:00,METAR LEIB 250730Z 24008KT 210V270 9999 FEW020 14/10 Q1020 NOSIG,0,8,0,10000,0,0,0,
2026-03-25 07:00:00,METAR LEIB 250700Z 24007KT 9999 FEW018 14/10 Q1020 NOSIG,0,7,0,10000,0,0,0,
2026-03-25 06:30:00,METAR LEIB 250630Z 24007KT 9999 SCT018 13/09 Q1020 NOSIG,0,7,0,10000,0,0,0,
2026-03-25 06:00:00,METAR LEIB 250600Z 24007KT 9999 SCT018 12/09 Q1021 NOSIG,0,7,0,10000,0,0,0,
2026-03-25 05:30:00,METAR LEIB 250530Z 24008KT 9999 SCT017 12/10 Q1020 NOSIG,0,8,0,10000,0,0,0,
2026-03-25 05:00:00,METAR LEIB 250500Z 23008KT 9999 SCT017 13/10 Q1020 NOSIG,0,8,0,10000,0,0,0,
2026-03-25 04:30:00,METAR LEIB 250430Z 24007KT 9999 FEW015 12/09 Q1021 NOSIG,0,7,0,10000,0,0,0,
2026-03-25 04:00:00,METAR LEIB 250400Z AUTO 24007KT 210V270 9999 FEW016/// 12/09 Q1021,0,7,0,10000,0,0,0,
2026-03-25 03:30:00,METAR LEIB 250330Z AUTO 26005KT 230V290 9999 FEW016/// 10/08 Q1021,0,5,0,10000,0,0,0,
2026-03-25 03:00:00,METAR LEIB 250300Z AUTO 24006KT CAVOK 10/09 Q1021,1,0,0,9999,0,0,0,
2026-03-25 02:30:00,METAR LEIB 250230Z AUTO VRB02KT CAVOK 08/07 Q1022,1,0,0,9999,0,0,0,
2026-03-25 02:00:00,METAR LEIB 250200Z AUTO 29003KT CAVOK 08/06 Q1022,1,0,0,9999,0,0,0,
2026-03-25 01:30:00,METAR LEIB 250130Z AUTO 00000KT CAVOK 06/05 Q1022,1,0,0,9999,0,0,0,
2026-03-25 01:00:00,METAR LEIB 250100Z AUTO 00000KT CAVOK 07/06 Q1023,1,0,0,9999,0,0,0,
2026-03-25 00:30:00,METAR LEIB 250030Z AUTO VRB02KT CAVOK 08/06 Q1023,1,0,0,9999,0,0,0,
2026-03-25 00:00:00,METAR LEIB 250000Z AUTO 33004KT CAVOK 08/07 Q1023,1,0,0,9999,0,0,0,
2026-03-24 23:30:00,METAR LEIB 242330Z AUTO VRB01KT CAVOK 08/07 Q1023,1,0,0,9999,0,0,0,
2026-03-24 23:00:00,METAR LEIB 242300Z 34004KT CAVOK 08/07 Q1024 NOSIG,1,0,0,9999,0,0,0,
2026-03-24 22:30:00,METAR LEIB 242230Z 35002KT CAVOK 08/06 Q1024 NOSIG,1,0,0,9999,0,0,0,
2026-03-24 22:00:00,METAR LEIB 242200Z VRB02KT CAVOK 09/07 Q1024 NOSIG,1,0,0,9999,0,0,0,
2026-03-24 21:30:00,METAR LEIB 242130Z 35004KT CAVOK 09/07 Q1024 NOSIG,1,0,0,9999,0,0,0,
2026-03-24 21:00:00,METAR LEIB 242100Z 35002KT CAVOK 09/07 Q1024 NOSIG,1,0,0,9999,0,0,0,
2026-03-24 20:30:00,METAR LEIB 242030Z 34003KT 280V010 CAVOK 10/07 Q1024 NOSIG,1,0,0,9999,0,0,0,
2026-03-24 20:00:00,METAR LEIB 242000Z VRB02KT CAVOK 10/07 Q1024 NOSIG,1,0,0,9999,0,0,0,
2026-03-24 19:30:00,METAR LEIB 241930Z VRB02KT CAVOK 12/07 Q1023 NOSIG,1,0,0,9999,0,0,0,
2026-03-24 19:00:00,METAR LEIB 241900Z 00000KT CAVOK 13/09 Q1023 NOSIG,1,0,0,9999,0,0,0,
2026-03-24 18:30:00,METAR LEIB 241830Z VRB01KT CAVOK 13/08 Q1023 NOSIG,1,0,0,9999,0,0,0,
2026-03-24 18:00:00,METAR LEIB 241800Z 25004KT CAVOK 14/08 Q1023 NOSIG,1,0,0,9999,0,0,0,
2026-03-24 17:30:00,METAR LEIB 241730Z 22004KT 9999 FEW020 15/07 Q1023 NOSIG,0,4,0,10000,0,0,0,
2026-03-24 17:00:00,METAR LEIB 241700Z 24006KT 9999 FEW020 16/07 Q1023 NOSIG,0,6,0,10000,0,0,0,
2026-03-24 16:30:00,METAR LEIB 241630Z 18002KT 9999 FEW020 17/07 Q1022 NOSIG,0,2,0,10000,0,0,0,
2026-03-24 16:00:00,METAR LEIB 241600Z 11005KT 070V150 9999 FEW020 16/08 Q1023 NOSIG,0,5,0,10000,0,0,0,
2026-03-24 15:30:00,METAR LEIB 241530Z 11006KT 080V140 9999 FEW020 16/07 Q1023 NOSIG,0,6,0,10000,0,0,0,
2026-03-24 15:00:00,METAR LEIB 241500Z 10006KT 070V140 CAVOK 16/08 Q1023 NOSIG,1,0,0,9999,0,0,0,
2026-03-24 14:30:00,METAR LEIB 241430Z 12006KT 070V160 CAVOK 17/09 Q1023 NOSIG,1,0,0,9999,0,0,0,
2026-03-24 14:00:00,METAR LEIB 241400Z 12007KT 050V170 CAVOK 17/08 Q1023 NOSIG,1,0,0,9999,0,0,0,
2026-03-24 13:30:00,METAR LEIB 241330Z 11009KT 060V150 CAVOK 17/10 Q1023 NOSIG,1,0,0,9999,0,0,0,
2026-03-24 13:00:00,METAR LEIB 241300Z 10008KT 070V140 CAVOK 17/10 Q1023 NOSIG,1,0,0,9999,0,0,0,
2026-03-24 12:30:00,METAR LEIB 241230Z 10010KT 070V140 CAVOK 17/10 Q1024 NOSIG,1,0,0,9999,0,0,0,
2026-03-24 12:00:00,METAR LEIB 241200Z 11010KT 070V140 CAVOK 16/11 Q1024 NOSIG,1,0,0,9999,0,0,0,
2026-03-24 11:30:00,METAR LEIB 241130Z 10010KT 070V140 CAVOK 16/10 Q1024 NOSIG,1,0,0,9999,0,0,0,
2026-03-24 11:00:00,METAR LEIB 241100Z 11010KT 070V140 CAVOK 16/10 Q1024 NOSIG,1,0,0,9999,0,0,0,
2026-03-24 10:30:00,METAR LEIB 241030Z 11009KT 080V140 CAVOK 16/10 Q1024 NOSIG,1,0,0,9999,0,0,0,
2026-03-24 10:00:00,METAR LEIB 241000Z 11007KT 080V140 CAVOK 16/10 Q1024 NOSIG,1,0,0,9999,0,0,0,
2026-03-24 09:30:00,METAR LEIB 240930Z 08007KT 020V120 CAVOK 16/09 Q1024 NOSIG,1,0,0,9999,0,0,0,
2026-03-24 09:00:00,METAR LEIB 240900Z 05008KT 020V080 CAVOK 15/09 Q1024 NOSIG,1,0,0,9999,0,0,0,
2026-03-24 08:30:00,METAR LEIB 240830Z 06006KT CAVOK 15/09 Q1024 NOSIG,1,0,0,9999,0,0,0,
2026-03-24 08:00:00,METAR LEIB 240800Z 06005KT 9999 FEW020 14/10 Q1023 NOSIG,0,5,0,10000,0,0,0,
2026-03-24 07:30:00,METAR LEIB 240730Z 05002KT 9999 FEW020 13/10 Q1023 NOSIG,0,2,0,10000,0,0,0,
2026-03-24 07:00:00,METAR LEIB 240700Z VRB01KT 9999 FEW020 11/09 Q1023 NOSIG,0,1,0,10000,0,0,0,
2026-03-24 06:30:00,METAR LEIB 240630Z 01004KT 9999 FEW020 08/07 Q1023 NOSIG,0,4,0,10000,0,0,0,
2026-03-24 06:00:00,METAR LEIB 240600Z 01003KT 340V040 9999 FEW020 08/07 Q1022 NOSIG,0,3,0,10000,0,0,0,
2026-03-24 05:30:00,METAR LEIB 240530Z VRB01KT 9999 FEW020 08/07 Q1022 NOSIG,0,1,0,10000,0,0,0,
2026-03-24 05:00:00,METAR LEIB 240500Z 36003KT 320V030 CAVOK 08/07 Q1022 NOSIG,1,0,0,9999,0,0,0,
2026-03-24 04:30:00,METAR LEIB 240430Z VRB03KT CAVOK 08/07 Q1022 NOSIG,1,0,0,9999,0,0,0,
2026-03-24 04:00:00,METAR LEIB 240400Z AUTO 36003KT 340V060 CAVOK 08/07 Q1022,1,0,0,9999,0,0,0,
2026-03-24 03:30:00,METAR LEIB 240330Z AUTO 00000KT CAVOK 10/08 Q1021,1,0,0,9999,0,0,0,
2026-03-24 03:00:00,METAR LEIB 240300Z AUTO 03003KT CAVOK 09/07 Q1021,1,0,0,9999,0,0,0,
2026-03-24 02:30:00,METAR LEIB 240230Z AUTO 05004KT CAVOK 09/07 Q1021,1,0,0,9999,0,0,0,
2026-03-24 02:00:00,METAR LEIB 240200Z AUTO 06004KT CAVOK 10/08 Q1021,1,0,0,9999,0,0,0,
2026-03-24 01:30:00,METAR LEIB 240130Z AUTO 05004KT CAVOK 10/08 Q1021,1,0,0,9999,0,0,0,
2026-03-24 01:00:00,METAR LEIB 240100Z AUTO VRB02KT CAVOK 11/08 Q1021,1,0,0,9999,0,0,0,
2026-03-24 00:30:00,METAR LEIB 240030Z AUTO 04005KT CAVOK 12/08 Q1021,1,0,0,9999,0,0,0,
2026-03-24 00:00:00,METAR LEIB 240000Z AUTO 04006KT 010V070 CAVOK 12/09 Q1021,1,0,0,9999,0,0,0,
2026-03-23 23:30:00,METAR LEIB 232330Z AUTO 03008KT CAVOK 12/09 Q1021,1,0,0,9999,0,0,0,
2026-03-23 23:00:00,METAR LEIB 232300Z 04008KT CAVOK 12/09 Q1021 NOSIG,1,0,0,9999,0,0,0,
2026-03-23 22:30:00,METAR LEIB 232230Z 03010KT CAVOK 12/08 Q1021 NOSIG,1,0,0,9999,0,0,0,
2026-03-23 22:00:00,METAR LEIB 232200Z 03009KT CAVOK 12/08 Q1021 NOSIG,1,0,0,9999,0,0,0,
2026-03-23 21:30:00,METAR LEIB 232130Z 03009KT CAVOK 12/08 Q1021 NOSIG,1,0,0,9999,0,0,0,
2026-03-23 21:00:00,METAR LEIB 232100Z 03011KT CAVOK 12/08 Q1020 NOSIG,1,0,0,9999,0,0,0,
2026-03-23 20:30:00,METAR LEIB 232030Z 03009KT CAVOK 12/08 Q1020 NOSIG,1,0,0,9999,0,0,0,
2026-03-23 20:00:00,METAR LEIB 232000Z 04007KT 010V070 CAVOK 12/08 Q1020 NOSIG,1,0,0,9999,0,0,0,
2026-03-23 19:30:00,METAR LEIB 231930Z 03006KT CAVOK 13/06 Q1019 NOSIG,1,0,0,9999,0,0,0,
2026-03-23 19:00:00,METAR LEIB 231900Z 06005KT 020V080 CAVOK 12/06 Q1019 NOSIG,1,0,0,9999,0,0,0,
2026-03-23 18:30:00,METAR LEIB 231830Z 05007KT CAVOK 13/07 Q1018 NOSIG,1,0,0,9999,0,0,0,
2026-03-23 18:00:00,METAR LEIB 231800Z 05009KT CAVOK 14/07 Q1018 NOSIG,1,0,0,9999,0,0,0,
2026-03-23 17:30:00,METAR LEIB 231730Z 06013KT 9999 FEW020 14/06 Q1018 NOSIG,0,13,0,10000,0,0,0,
2026-03-23 17:00:00,METAR LEIB 231700Z 05012KT 020V080 9999 FEW020 15/07 Q1018 NOSIG,0,12,0,10000,0,0,0,
2026-03-23 16:30:00,METAR LEIB 231630Z 07010KT 9999 FEW020 16/07 Q1017 NOSIG,0,10,0,10000,0,0,0,
2026-03-23 16:00:00,METAR LEIB 231600Z 08009KT 050V110 9999 FEW028 16/09 Q1017 NOSIG,0,9,0,10000,0,0,0,
2026-03-23 15:30:00,METAR LEIB 231530Z 06011KT 030V090 9999 FEW028 16/08 Q1016 NOSIG,0,11,0,10000,0,0,0,
2026-03-23 15:00:00,METAR LEIB 231500Z 08012KT 050V110 9999 SCT032 16/10 Q1016 NOSIG,0,12,0,10000,0,0,0,
2026-03-23 14:30:00,METAR LEIB 231430Z 09012KT 9999 SCT032 15/10 Q1016 NOSIG,0,12,0,10000,0,0,0,
2026-03-23 14:00:00,METAR LEIB 231400Z 09012KT 060V120 9999 SCT025 16/10 Q1016 NOSIG,0,12,0,10000,0,0,0,
2026-03-23 13:30:00,METAR LEIB 231330Z 09011KT 060V120 9999 FEW025 16/10 Q1016 NOSIG,0,11,0,10000,0,0,0,
2026-03-23 13:00:00,METAR LEIB 231300Z 08012KT 050V120 9999 SCT022 16/11 Q1016 NOSIG,0,12,0,10000,0,0,0,
2026-03-23 12:30:00,METAR LEIB 231230Z 09013KT 060V120 9999 SCT022 16/11 Q1015 NOSIG,0,13,0,10000,0,0,0,
2026-03-23 12:00:00,METAR LEIB 231200Z 09010KT 060V120 9999 SCT022 16/11 Q1015 NOSIG,0,10,0,10000,0,0,0,
2026-03-23 11:30:00,METAR LEIB 231130Z 10009KT 060V150 9999 FEW025 17/11 Q1015 NOSIG,0,9,0,10000,0,0,0,
2026-03-23 11:00:00,METAR LEIB 231100Z 11009KT 080V140 9999 FEW025 17/11 Q1015 NOSIG,0,9,0,10000,0,0,0,
2026-03-23 10:30:00,METAR LEIB 231030Z 10009KT 060V120 9999 SCT025 16/11 Q1015 NOSIG,0,9,0,10000,0,0,0,
2026-03-23 10:00:00,METAR LEIB 231000Z 10009KT 070V140 9999 SCT025 16/11 Q1015 NOSIG,0,9,0,10000,0,0,0,
2026-03-23 09:30:00,METAR LEIB 230930Z 10008KT 070V140 9999 FEW021 BKN046 15/11 Q1014 NOSIG,0,8,0,10000,0,0,0,
2026-03-23 09:00:00,METAR LEIB 230900Z 07008KT 040V100 9999 FEW018 BKN028 16/11 Q1014 NOSIG,0,8,0,10000,0,0,0,
2026-03-23 08:30:00,METAR LEIB 230830Z 06005KT 020V080 9999 SCT016 BKN024 14/11 Q1014 NOSIG,0,5,0,10000,0,0,0,
2026-03-23 08:00:00,METAR LEIB 230800Z 08004KT 050V110 9999 SCT016 BKN024 14/11 Q1013 NOSIG,0,4,0,10000,0,0,0,
2026-03-23 07:30:00,METAR LEIB 230730Z 06005KT 9999 SCT016 BKN024 13/11 Q1013 NOSIG,0,5,0,10000,0,0,0,
2026-03-23 07:00:00,METAR LEIB 230700Z 06004KT 030V090 9999 FEW016 BKN026 13/10 Q1012 NOSIG,0,4,0,10000,0,0,0,
2026-03-23 06:30:00,METAR LEIB 230630Z 04002KT 9999 FEW015 BKN022 12/10 Q1012 NOSIG,0,2,0,10000,0,0,0,
2026-03-23 06:00:00,METAR LEIB 230600Z VRB02KT 9999 FEW015 BKN022 12/10 Q1012 NOSIG,0,2,0,10000,0,0,0,
2026-03-23 05:30:00,METAR LEIB 230530Z 24004KT 9999 FEW017 BKN022 13/10 Q1011 NOSIG,0,4,0,10000,0,0,0,
2026-03-23 05:00:00,METAR LEIB 230500Z 25006KT 210V270 9999 FEW016 13/11 Q1011 NOSIG,0,6,0,10000,0,0,0,
2026-03-23 04:30:00,METAR LEIB 230430Z 24008KT 9999 FEW020 13/10 Q1011 NOSIG,0,8,0,10000,0,0,0,
2026-03-23 04:00:00,METAR LEIB 230400Z AUTO 24008KT CAVOK 13/10 Q1011,1,0,0,9999,0,0,0,
2026-03-23 03:30:00,METAR LEIB 230330Z AUTO 24006KT 9999 FEW019/// 13/10 Q1011,0,6,0,10000,0,0,0,
2026-03-23 03:00:00,METAR LEIB 230300Z AUTO 24006KT 9999 FEW021/// 13/10 Q1011,0,6,0,10000,0,0,0,
2026-03-23 02:30:00,METAR LEIB 230230Z AUTO 24007KT 9999 FEW019/// 13/09 Q1011,0,7,0,10000,0,0,0,
2026-03-23 02:00:00,METAR LEIB 230200Z AUTO 24007KT 210V270 9999 FEW018/// SCT020/// 13/10 Q1011,0,7,0,10000,0,0,0,
2026-03-23 01:30:00,METAR LEIB 230130Z AUTO 23009KT 9999 SCT016/// SCT018/// 14/10 Q1011,0,9,0,10000,0,0,0,
2026-03-23 01:00:00,METAR LEIB 230100Z AUTO 22009KT 9999 FEW016/// 14/11 Q1011,0,9,0,10000,0,0,0,
2026-03-23 00:30:00,METAR LEIB 230030Z AUTO 22008KT 9999 FEW018/// 14/10 Q1011,0,8,0,10000,0,0,0,
2026-03-23 00:00:00,METAR LEIB 230000Z AUTO 21007KT 190V250 9999 FEW018/// 14/10 Q1012,0,7,0,10000,0,0,0,
2026-03-22 23:30:00,METAR LEIB 222330Z AUTO 21008KT 9999 FEW020/// 14/10 Q1012,0,8,0,10000,0,0,0,
2026-03-22 23:00:00,METAR LEIB 222300Z 21006KT 170V240 9999 FEW020 14/10 Q1012 NOSIG,0,6,0,10000,0,0,0,
2026-03-22 22:30:00,METAR LEIB 222230Z 21006KT 9999 FEW021 14/09 Q1012 NOSIG,0,6,0,10000,0,0,0,
2026-03-22 22:00:00,METAR LEIB 222200Z 21006KT 160V240 9999 FEW022 14/09 Q1012 NOSIG,0,6,0,10000,0,0,0,
2026-03-22 21:30:00,METAR LEIB 222130Z 21007KT 9999 FEW022 14/09 Q1012 NOSIG,0,7,0,10000,0,0,0,
2026-03-22 21:00:00,METAR LEIB 222100Z 21007KT 170V230 9999 FEW022 14/09 Q1012 NOSIG,0,7,0,10000,0,0,0,
2026-03-22 20:30:00,METAR LEIB 222030Z 21007KT 170V230 9999 FEW022 14/09 Q1012 NOSIG,0,7,0,10000,0,0,0,
2026-03-22 20:00:00,METAR LEIB 222000Z 20007KT 9999 FEW022 14/09 Q1011 NOSIG,0,7,0,10000,0,0,0,
2026-03-22 19:30:00,METAR LEIB 221930Z 20006KT 170V230 9999 FEW020 14/09 Q1011 NOSIG,0,6,0,10000,0,0,0,
2026-03-22 19:00:00,METAR LEIB 221900Z 21006KT 170V230 9999 FEW030 14/09 Q1011 NOSIG,0,6,0,10000,0,0,0,
2026-03-22 18:30:00,METAR LEIB 221830Z 20006KT 9999 FEW030 14/09 Q1010 NOSIG,0,6,0,10000,0,0,0,
2026-03-22 18:00:00,METAR LEIB 221800Z 20005KT CAVOK 14/09 Q1011 NOSIG,1,0,0,9999,0,0,0,
2026-03-22 17:30:00,METAR LEIB 221730Z 21006KT 170V240 CAVOK 15/09 Q1011 NOSIG,1,0,0,9999,0,0,0,
2026-03-22 17:00:00,METAR LEIB 221700Z 23006KT 9999 FEW030 15/09 Q1011 NOSIG,0,6,0,10000,0,0,0,
2026-03-22 16:30:00,METAR LEIB 221630Z 23008KT 200V260 9999 FEW030 15/09 Q1011 NOSIG,0,8,0,10000,0,0,0,
2026-03-22 16:00:00,METAR LEIB 221600Z 23008KT 190V250 9999 FEW030 16/09 Q1011 NOSIG,0,8,0,10000,0,0,0,
2026-03-22 15:30:00,METAR LEIB 221530Z 23007KT 190V270 9999 FEW030 15/08 Q1011 NOSIG,0,7,0,10000,0,0,0,
2026-03-22 15:00:00,METAR LEIB 221500Z 23007KT 190V260 9999 FEW030 15/09 Q1011 NOSIG,0,7,0,10000,0,0,0,
2026-03-22 14:30:00,METAR LEIB 221430Z 23008KT 200V260 9999 FEW030 15/09 Q1011 NOSIG,0,8,0,10000,0,0,0,
2026-03-22 14:00:00,METAR LEIB 221400Z 23008KT 200V280 9999 FEW030 16/09 Q1011 NOSIG,0,8,0,10000,0,0,0,
2026-03-22 13:30:00,METAR LEIB 221330Z 23008KT 200V260 9999 FEW030 16/09 Q1011 NOSIG,0,8,0,10000,0,0,0,
2026-03-22 12:30:00,METAR LEIB 221230Z 23007KT 180V260 9999 FEW030 16/09 Q1011 NOSIG,0,7,0,10000,0,0,0,
2026-03-22 12:00:00,METAR LEIB 221200Z 22007KT 160V260 9999 FEW030 16/09 Q1011 NOSIG,0,7,0,10000,0,0,0,
2026-03-22 11:30:00,METAR LEIB 221130Z 20005KT 160V240 9999 FEW030 16/09 Q1012 NOSIG,0,5,0,10000,0,0,0,
2026-03-22 10:30:00,METAR LEIB 221030Z 21003KT 170V290 9999 FEW030 16/08 Q1012 NOSIG,0,3,0,10000,0,0,0,
2026-03-22 10:00:00,METAR LEIB 221000Z VRB03KT 9999 FEW030 16/09 Q1012 NOSIG,0,3,0,10000,0,0,0,
2026-03-22 09:30:00,METAR LEIB 220930Z 23004KT 190V270 9999 FEW028 14/09 Q1012 NOSIG,0,4,0,10000,0,0,0,
2026-03-22 08:30:00,METAR LEIB 220830Z VRB01KT 9999 FEW027 15/09 Q1012 NOSIG,0,1,0,10000,0,0,0,
2026-03-22 08:00:00,METAR LEIB 220800Z 00000KT 9999 FEW025 13/09 Q1012 NOSIG,0,0,0,10000,0,0,0,
2026-03-22 07:30:00,METAR LEIB 220730Z 00000KT 9999 FEW025 10/08 Q1012 NOSIG,0,0,0,10000,0,0,0,
2026-03-22 07:00:00,METAR LEIB 220700Z 00000KT 9999 FEW030 08/06 Q1012 NOSIG,0,0,0,10000,0,0,0,
2026-03-22 06:30:00,METAR LEIB 220630Z VRB01KT 9999 FEW030 07/05 Q1012 NOSIG,0,1,0,10000,0,0,0,
2026-03-22 06:00:00,METAR LEIB 220600Z 00000KT 9999 FEW030 06/04 Q1011 NOSIG,0,0,0,10000,0,0,0,
2026-03-22 05:30:00,METAR LEIB 220530Z VRB01KT 9999 FEW029 06/04 Q1011 NOSIG,0,1,0,10000,0,0,0,
2026-03-22 05:00:00,METAR LEIB 220500Z VRB01KT 9999 FEW027 06/03 Q1011 NOSIG,0,1,0,10000,0,0,0,
2026-03-22 04:30:00,METAR LEIB 220430Z 00000KT 9999 FEW027 06/04 Q1011 NOSIG,0,0,0,10000,0,0,0,
2026-03-22 03:30:00,METAR LEIB 220330Z AUTO 32003KT CAVOK 07/05 Q1011,1,0,0,9999,0,0,0,
2026-03-22 03:00:00,METAR LEIB 220300Z AUTO 00000KT CAVOK 06/05 Q1011,1,0,0,9999,0,0,0,
2026-03-22 02:30:00,METAR LEIB 220230Z AUTO 00000KT CAVOK 07/05 Q1011,1,0,0,9999,0,0,0,
2026-03-22 02:00:00,METAR LEIB 220200Z AUTO 00000KT CAVOK 06/04 Q1011,1,0,0,9999,0,0,0,
2026-03-22 01:30:00,METAR LEIB 220130Z AUTO VRB01KT CAVOK 06/04 Q1011,1,0,0,9999,0,0,0,
2026-03-22 01:00:00,METAR LEIB 220100Z AUTO VRB01KT CAVOK 07/05 Q1011,1,0,0,9999,0,0,0,
2026-03-22 00:30:00,METAR LEIB 220030Z AUTO VRB02KT CAVOK 07/05 Q1012,1,0,0,9999,0,0,0,
2026-03-22 00:00:00,METAR LEIB 220000Z 33003KT CAVOK 07/05 Q1012 NOSIG,1,0,0,9999,0,0,0,
2026-03-21 23:30:00,METAR LEIB 212330Z VRB02KT CAVOK 07/04 Q1012 NOSIG,1,0,0,9999,0,0,0,
2026-03-21 23:00:00,METAR LEIB 212300Z VRB01KT CAVOK 07/05 Q1012 NOSIG,1,0,0,9999,0,0,0,
2026-03-21 22:30:00,METAR LEIB 212230Z VRB01KT CAVOK 07/05 Q1012 NOSIG,1,0,0,9999,0,0,0,
2026-03-21 21:30:00,METAR LEIB 212130Z VRB02KT CAVOK 08/05 Q1012 NOSIG,1,0,0,9999,0,0,0,
2026-03-21 21:00:00,METAR LEIB 212100Z 00000KT CAVOK 08/05 Q1012 NOSIG,1,0,0,9999,0,0,0,
2026-03-21 20:30:00,METAR LEIB 212030Z VRB02KT CAVOK 08/05 Q1013 NOSIG,1,0,0,9999,0,0,0,
2026-03-21 19:30:00,METAR LEIB 211930Z 36005KT CAVOK 10/06 Q1012 NOSIG,1,0,0,9999,0,0,0,
2026-03-21 19:00:00,METAR LEIB 211900Z 01003KT CAVOK 12/06 Q1012 NOSIG,1,0,0,9999,0,0,0,
2026-03-21 18:30:00,METAR LEIB 211830Z 07004KT CAVOK 13/07 Q1012 NOSIG,1,0,0,9999,0,0,0,
2026-03-21 18:00:00,METAR LEIB 211800Z 08005KT CAVOK 13/07 Q1012 NOSIG,1,0,0,9999,0,0,0,
2026-03-21 17:30:00,METAR LEIB 211730Z 10004KT CAVOK 13/08 Q1012 NOSIG,1,0,0,9999,0,0,0,
2026-03-21 17:00:00,METAR LEIB 211700Z 09004KT 060V140 9999 FEW030 14/08 Q1011 NOSIG,0,4,0,10000,0,0,0,
2026-03-21 16:30:00,METAR LEIB 211630Z 08004KT 9999 FEW030 14/08 Q1011 NOSIG,0,4,0,10000,0,0,0,
2026-03-21 16:00:00,METAR LEIB 211600Z 09004KT 060V130 9999 FEW030 14/08 Q1011 NOSIG,0,4,0,10000,0,0,0,
2026-03-21 15:30:00,METAR LEIB 211530Z 09005KT 060V120 9999 FEW030 14/08 Q1011 NOSIG,0,5,0,10000,0,0,0,
2026-03-21 15:00:00,METAR LEIB 211500Z 08005KT 050V110 9999 FEW029 14/08 Q1011 NOSIG,0,5,0,10000,0,0,0,
2026-03-21 14:30:00,METAR LEIB 211430Z 08006KT 060V120 9999 FEW029 14/08 Q1011 NOSIG,0,6,0,10000,0,0,0,
2026-03-21 14:00:00,METAR LEIB 211400Z 08007KT 050V110 9999 -RA FEW030 14/08 Q1011 NOSIG,0,7,0,10000,0,0,0,-RA
2026-03-21 13:30:00,METAR LEIB 211330Z 07007KT 040V100 9999 FEW030 14/08 Q1012 NOSIG,0,7,0,10000,0,0,0,
2026-03-21 13:00:00,METAR LEIB 211300Z 07006KT 9999 FEW030 14/08 Q1012 NOSIG,0,6,0,10000,0,0,0,
2026-03-21 12:30:00,METAR LEIB 211230Z 09005KT 9999 FEW029 14/08 Q1012 NOSIG,0,5,0,10000,0,0,0,
2026-03-21 12:00:00,METAR LEIB 211200Z 10005KT 070V130 9999 FEW029 14/08 Q1013 NOSIG,0,5,0,10000,0,0,0,
2026-03-21 11:30:00,METAR LEIB 211130Z 09005KT 060V120 9999 SCT030 14/07 Q1013 NOSIG,0,5,0,10000,0,0,0,
2026-03-21 11:00:00,METAR LEIB 211100Z 09006KT 050V120 9999 SCT028 14/08 Q1013 NOSIG,0,6,0,10000,0,0,0,
2026-03-21 10:30:00,METAR LEIB 211030Z 08006KT 050V120 9999 SCT030 14/08 Q1013 NOSIG,0,6,0,10000,0,0,0,
2026-03-21 10:00:00,METAR LEIB 211000Z 07007KT 050V110 9999 SCT028 14/08 Q1013 NOSIG,0,7,0,10000,0,0,0,
2026-03-21 09:30:00,METAR LEIB 210930Z 08006KT 060V120 9999 SCT031 14/07 Q1013 NOSIG,0,6,0,10000,0,0,0,
2026-03-21 09:00:00,METAR LEIB 210900Z 07005KT 040V100 9999 BKN031 14/08 Q1013 NOSIG,0,5,0,10000,0,0,0,
2026-03-21 08:30:00,METAR LEIB 210830Z 05006KT 9999 BKN025 14/09 Q1012 NOSIG,0,6,0,10000,0,0,0,
2026-03-21 08:00:00,METAR LEIB 210800Z 03006KT 9999 SCT024 14/09 Q1012 NOSIG,0,6,0,10000,0,0,0,
2026-03-21 07:30:00,METAR LEIB 210730Z 03006KT 310V050 9999 FEW024 SCT027 BKN032 13/08 Q1012 NOSIG,0,6,0,10000,0,0,0,
2026-03-21 07:00:00,METAR LEIB 210700Z 03005KT 9999 SCT024 BKN032 13/08 Q1012 NOSIG,0,5,0,10000,0,0,0,
2026-03-21 06:30:00,METAR LEIB 210630Z 36005KT 340V040 9999 SCT024 SCT029 12/08 Q1012 NOSIG,0,5,0,10000,0,0,0,
2026-03-21 06:00:00,METAR LEIB 210600Z 06006KT 9999 FEW024 SCT030 13/08 Q1012 NOSIG,0,6,0,10000,0,0,0,
2026-03-21 05:30:00,METAR LEIB 210530Z 08005KT 060V120 9999 FEW025 SCT031 13/08 Q1011 NOSIG,0,5,0,10000,0,0,0,
2026-03-21 05:00:00,METAR LEIB 210500Z 08007KT 9999 FEW024 SCT033 13/08 Q1011 NOSIG,0,7,0,10000,0,0,0,
2026-03-21 04:30:00,METAR LEIB 210430Z 08008KT 040V100 9999 SCT024 BKN033 13/08 Q1011 NOSIG,0,8,0,10000,0,0,0,
2026-03-21 04:00:00,METAR LEIB 210400Z AUTO 06004KT 020V150 9999 SCT024/// BKN033/// 13/08 Q1012,0,4,0,10000,0,0,0,
2026-03-21 03:30:00,METAR LEIB 210330Z AUTO 05006KT 9999 FEW026/// SCT030/// 13/08 Q1011,0,6,0,10000,0,0,0,
2026-03-21 03:00:00,METAR LEIB 210300Z AUTO 03006KT 9999 BKN027/// BKN034/// 13/07 Q1012,0,6,0,10000,0,0,0,
2026-03-21 02:30:00,METAR LEIB 210230Z AUTO 02006KT 9999 FEW028/// 12/08 Q1012,0,6,0,10000,0,0,0,
2026-03-21 02:00:00,METAR LEIB 210200Z AUTO 05007KT 9999 FEW027/// 12/08 Q1012,0,7,0,10000,0,0,0,
2026-03-21 01:30:00,METAR LEIB 210130Z AUTO 05008KT 9999 FEW027/// 12/08 Q1012,0,8,0,10000,0,0,0,
2026-03-21 01:00:00,METAR LEIB 210100Z AUTO 04007KT 9999 FEW027/// 13/08 Q1012,0,7,0,10000,0,0,0,
2026-03-21 00:30:00,METAR LEIB 210030Z AUTO 05008KT 020V080 9999 FEW024/// 13/08 Q1012,0,8,0,10000,0,0,0,
2026-03-21 00:00:00,METAR LEIB 210000Z AUTO 05008KT 9999 FEW025/// SCT030/// 13/08 Q1012,0,8,0,10000,0,0,0,
2026-03-20 23:30:00,METAR LEIB 202330Z AUTO 07010KT 9999 FEW027/// SCT030/// 14/08 Q1013,0,10,0,10000,0,0,0,
2026-03-20 23:00:00,METAR LEIB 202300Z 08013KT 050V110 9999 FEW032 14/07 Q1013 NOSIG,0,13,0,10000,0,0,0,
2026-03-20 22:30:00,METAR LEIB 202230Z 07013KT 040V100 9999 FEW021 14/06 Q1013 NOSIG,0,13,0,10000,0,0,0,
2026-03-20 21:30:00,METAR LEIB 202130Z 08011KT 050V110 9999 FEW023 14/08 Q1013 NOSIG,0,11,0,10000,0,0,0,
2026-03-20 21:00:00,METAR LEIB 202100Z 08009KT 050V110 9999 FEW023 14/08 Q1013 NOSIG,0,9,0,10000,0,0,0,
2026-03-20 20:30:00,METAR LEIB 202030Z 07011KT 9999 FEW023 14/09 Q1013 NOSIG,0,11,0,10000,0,0,0,
2026-03-20 20:00:00,METAR LEIB 202000Z 08010KT 9999 FEW023 14/09 Q1013 NOSIG,0,10,0,10000,0,0,0,
2026-03-20 19:30:00,METAR LEIB 201930Z 08009KT 050V110 9999 FEW023 14/09 Q1013 NOSIG,0,9,0,10000,0,0,0,
2026-03-20 19:00:00,METAR LEIB 201900Z 07010KT 9999 SCT023 14/09 Q1012 NOSIG,0,10,0,10000,0,0,0,
2026-03-20 18:30:00,METAR LEIB 201830Z 08013KT 9999 FEW023 14/09 Q1012 NOSIG,0,13,0,10000,0,0,0,
2026-03-20 18:00:00,METAR LEIB 201800Z 08011KT 9999 FEW024 SCT034 14/09 Q1012 NOSIG,0,11,0,10000,0,0,0,
2026-03-20 17:30:00,METAR LEIB 201730Z 08011KT 060V120 9999 SCT035 14/09 Q1012 NOSIG,0,11,0,10000,0,0,0,
2026-03-20 17:00:00,METAR LEIB 201700Z 08010KT 050V110 9999 SCT035 15/09 Q1012 NOSIG,0,10,0,10000,0,0,0,
2026-03-20 16:30:00,METAR LEIB 201630Z 08011KT 050V120 9999 FEW024 15/09 Q1012 NOSIG,0,11,0,10000,0,0,0,
2026-03-20 16:00:00,METAR LEIB 201600Z 08011KT 050V110 9999 FEW023 SCT039 15/09 Q1012 NOSIG,0,11,0,10000,0,0,0,
2026-03-20 15:30:00,METAR LEIB 201530Z 08011KT 9999 FEW023 SCT027 15/09 Q1013 NOSIG,0,11,0,10000,0,0,0,
2026-03-20 15:00:00,METAR LEIB 201500Z 08012KT 050V110 9999 FEW026 SCT030 15/09 Q1013 NOSIG,0,12,0,10000,0,0,0,
2026-03-20 14:30:00,METAR LEIB 201430Z 08013KT 060V120 9999 FEW025 SCT030 16/09 Q1013 NOSIG,0,13,0,10000,0,0,0,
2026-03-20 14:00:00,METAR LEIB 201400Z 08010KT 9999 FEW025 SCT028 BKN033 15/09 Q1013 NOSIG,0,10,0,10000,0,0,0,
2026-03-20 13:30:00,METAR LEIB 201330Z 07012KT 040V100 9999 FEW027 SCT034 15/09 Q1013 NOSIG,0,12,0,10000,0,0,0,
2026-03-20 12:30:00,METAR LEIB 201230Z 08013KT 9999 FEW027 SCT034 16/09 Q1014 NOSIG,0,13,0,10000,0,0,0,
2026-03-20 11:30:00,METAR LEIB 201130Z 07014KT 040V100 9999 FEW025 SCT032 15/09 Q1014 NOSIG,0,14,0,10000,0,0,0,
2026-03-20 10:30:00,METAR LEIB 201030Z 08012KT 9999 FEW024 BKN031 15/09 Q1015 NOSIG,0,12,0,10000,0,0,0,
2026-03-20 10:00:00,METAR LEIB 201000Z 07014KT 9999 FEW024 BKN031 15/09 Q1015 NOSIG,0,14,0,10000,0,0,0,
2026-03-20 09:30:00,METAR LEIB 200930Z 07014KT 9999 FEW024 BKN031 15/08 Q1015 NOSIG,0,14,0,10000,0,0,0,
2026-03-20 09:00:00,METAR LEIB 200900Z 08014KT 050V110 9999 FEW025 SCT035 15/09 Q1015 NOSIG,0,14,0,10000,0,0,0,
2026-03-20 08:30:00,METAR LEIB 200830Z 07014KT 9999 FEW025 SCT035 15/09 Q1014 NOSIG,0,14,0,10000,0,0,0,
2026-03-20 08:00:00,METAR LEIB 200800Z 08013KT 040V100 9999 FEW024 SCT035 14/09 Q1014 NOSIG,0,13,0,10000,0,0,0,
2026-03-20 07:30:00,METAR LEIB 200730Z 07015KT 9999 FEW024 SCT032 14/08 Q1014 NOSIG,0,15,0,10000,0,0,0,
2026-03-20 06:30:00,METAR LEIB 200630Z 06013KT 030V100 9999 FEW024 SCT031 13/08 Q1013 NOSIG,0,13,0,10000,0,0,0,
2026-03-20 06:00:00,METAR LEIB 200600Z 06011KT 9999 FEW024 SCT030 13/08 Q1013 NOSIG,0,11,0,10000,0,0,0,
2026-03-20 05:30:00,METAR LEIB 200530Z 05009KT 9999 SCT024 BKN030 12/08 Q1013 NOSIG,0,9,0,10000,0,0,0,
2026-03-20 05:00:00,METAR LEIB 200500Z 04008KT 9999 SCT024 BKN030 12/08 Q1014 NOSIG,0,8,0,10000,0,0,0,
2026-03-20 04:30:00,METAR LEIB 200430Z 05008KT 9999 SCT024 BKN028 12/08 Q1014 NOSIG,0,8,0,10000,0,0,0,
2026-03-20 04:00:00,METAR LEIB 200400Z AUTO 05006KT 9999 SCT024/// BKN028/// 12/08 Q1014,0,6,0,10000,0,0,0,
2026-03-20 03:30:00,METAR LEIB 200330Z AUTO 04007KT 010V070 9999 SCT022/// BKN025/// BKN030/// 12/09 Q1014,0,7,0,10000,0,0,0,
2026-03-20 03:00:00,METAR LEIB 200300Z AUTO 04006KT 9999 FEW021/// 12/09 Q1014,0,6,0,10000,0,0,0,
2026-03-20 02:30:00,METAR LEIB 200230Z AUTO 06007KT 9999 SCT021/// SCT024/// 13/09 Q1014,0,7,0,10000,0,0,0,
2026-03-20 02:00:00,METAR LEIB 200200Z AUTO 07009KT 040V100 9999 SCT021/// BKN024/// BKN030/// 13/09 Q1014,0,9,0,10000,0,0,0,
2026-03-20 01:30:00,METAR LEIB 200130Z AUTO 07011KT 9999 BKN020/// BKN025/// BKN037/// 14/09 Q1014,0,11,0,10000,0,0,0,
2026-03-20 01:00:00,METAR LEIB 200100Z AUTO 08011KT 050V110 9999 SCT021/// BKN026/// BKN030/// 14/09 Q1014,0,11,0,10000,0,0,0,
2026-03-20 00:30:00,METAR LEIB 200030Z AUTO 08010KT 9999 SCT023/// BKN027/// BKN030/// 14/09 Q1014,0,10,0,10000,0,0,0,
2026-03-20 00:00:00,METAR LEIB 200000Z AUTO 09009KT 9999 SCT023/// BKN026/// BKN032/// 14/09 Q1015,0,9,0,10000,0,0,0,
2026-03-19 23:30:00,METAR LEIB 192330Z AUTO 08008KT 9999 FEW024/// BKN028/// OVC032/// 14/09 Q1015,0,8,0,10000,0,0,0,
2026-03-19 23:00:00,METAR LEIB 192300Z 09009KT 9999 FEW020 BKN035 14/09 Q1015 NOSIG,0,9,0,10000,0,0,0,
2026-03-19 22:30:00,METAR LEIB 192230Z 08009KT 050V110 9999 FEW020 BKN037 14/09 Q1015 NOSIG,0,9,0,10000,0,0,0,
2026-03-19 22:00:00,METAR LEIB 192200Z 08008KT 050V120 9999 FEW020 SCT035 14/09 Q1015 NOSIG,0,8,0,10000,0,0,0,
2026-03-19 21:30:00,METAR LEIB 192130Z 08009KT 9999 FEW017 SCT034 14/10 Q1015 NOSIG,0,9,0,10000,0,0,0,
2026-03-19 21:00:00,METAR LEIB 192100Z 08009KT 9999 FEW015 SCT028 14/11 Q1015 NOSIG,0,9,0,10000,0,0,0,
2026-03-19 20:30:00,METAR LEIB 192030Z 09008KT 9999 FEW015 SCT024 14/11 Q1015 NOSIG,0,8,0,10000,0,0,0,
2026-03-19 20:00:00,METAR LEIB 192000Z 09009KT 9999 FEW015 SCT028 14/11 Q1015 NOSIG,0,9,0,10000,0,0,0,
2026-03-19 19:30:00,METAR LEIB 191930Z 09010KT 9999 FEW015 SCT026 15/11 Q1015 NOSIG,0,10,0,10000,0,0,0,
2026-03-19 19:00:00,METAR LEIB 191900Z 09007KT 060V130 9999 FEW015 SCT023 15/11 Q1015 NOSIG,0,7,0,10000,0,0,0,
2026-03-19 18:30:00,METAR LEIB 191830Z 07006KT 9999 FEW020 SCT042 14/11 Q1014 NOSIG,0,6,0,10000,0,0,0,
2026-03-19 18:00:00,METAR LEIB 191800Z 08009KT 9999 FEW020 SCT035 15/11 Q1014 NOSIG,0,9,0,10000,0,0,0,
2026-03-19 17:30:00,METAR LEIB 191730Z 07008KT 9999 FEW020 SCT035 15/11 Q1014 NOSIG,0,8,0,10000,0,0,0,
2026-03-19 17:00:00,METAR LEIB 191700Z 08008KT 9999 FEW020 SCT035 15/11 Q1014 NOSIG,0,8,0,10000,0,0,0,
2026-03-19 16:30:00,METAR LEIB 191630Z 08009KT 9999 FEW020 SCT035 16/11 Q1014 NOSIG,0,9,0,10000,0,0,0,
2026-03-19 16:00:00,METAR LEIB 191600Z 08011KT 9999 FEW018 SCT037 16/10 Q1014 NOSIG,0,11,0,10000,0,0,0,
2026-03-19 15:30:00,METAR LEIB 191530Z 08010KT 050V110 9999 FEW018 SCT035 16/11 Q1014 NOSIG,0,10,0,10000,0,0,0,
2026-03-19 15:00:00,METAR LEIB 191500Z 08013KT 050V110 9999 SCT018 16/11 Q1014 NOSIG,0,13,0,10000,0,0,0,
2026-03-19 14:30:00,METAR LEIB 191430Z 08012KT 9999 SCT018 17/11 Q1014 NOSIG,0,12,0,10000,0,0,0,
2026-03-19 14:00:00,METAR LEIB 191400Z 08013KT 9999 SCT018 16/11 Q1014 NOSIG,0,13,0,10000,0,0,0,
2026-03-19 13:30:00,METAR LEIB 191330Z 08012KT 050V120 9999 SCT018 17/12 Q1014 NOSIG,0,12,0,10000,0,0,0,
2026-03-19 13:00:00,METAR LEIB 191300Z 08013KT 050V110 9999 FEW018 16/11 Q1015 NOSIG,0,13,0,10000,0,0,0,
2026-03-19 12:30:00,METAR LEIB 191230Z 08013KT 050V120 9999 SCT018 16/11 Q1015 NOSIG,0,13,0,10000,0,0,0,
2026-03-19 12:00:00,METAR LEIB 191200Z 07013KT 9999 SCT027 16/11 Q1015 NOSIG,0,13,0,10000,0,0,0,
2026-03-19 11:30:00,METAR LEIB 191130Z 08014KT 050V110 9999 SCT027 15/11 Q1015 NOSIG,0,14,0,10000,0,0,0,
2026-03-19 11:00:00,METAR LEIB 191100Z 08014KT 9999 SCT027 15/11 Q1015 NOSIG,0,14,0,10000,0,0,0,
2026-03-19 10:30:00,METAR LEIB 191030Z 08013KT 9999 SCT027 16/11 Q1015 NOSIG,0,13,0,10000,0,0,0,
2026-03-19 10:00:00,METAR LEIB 191000Z 07011KT 9999 FEW018 SCT035 15/10 Q1015 NOSIG,0,11,0,10000,0,0,0,
2026-03-19 09:30:00,METAR LEIB 190930Z 08012KT 060V120 9999 FEW018 SCT035 15/11 Q1015 NOSIG,0,12,0,10000,0,0,0,
2026-03-19 09:00:00,METAR LEIB 190900Z 07012KT 9999 FEW015 SCT037 15/11 Q1015 NOSIG,0,12,0,10000,0,0,0,
2026-03-19 08:30:00,METAR LEIB 190830Z 07012KT 9999 FEW015 SCT032 15/11 Q1014 NOSIG,0,12,0,10000,0,0,0,
2026-03-19 08:00:00,METAR LEIB 190800Z 07010KT 9999 SCT015 BKN030 14/11 Q1014 NOSIG,0,10,0,10000,0,0,0,
2026-03-19 07:30:00,METAR LEIB 190730Z 07010KT 9999 SCT015 BKN030 14/11 Q1014 NOSIG,0,10,0,10000,0,0,0,
2026-03-19 07:00:00,METAR LEIB 190700Z 06010KT 9999 SCT013 BKN030 14/11 Q1014 NOSIG,0,10,0,10000,0,0,0,
2026-03-19 06:30:00,METAR LEIB 190630Z 06010KT 9999 SCT013 BKN016 14/11 Q1013 NOSIG,0,10,0,10000,0,0,0,
2026-03-19 06:00:00,METAR LEIB 190600Z 06010KT 9999 SCT013 BKN018 14/11 Q1013 NOSIG,0,10,0,10000,0,0,0,
2026-03-19 05:30:00,METAR LEIB 190530Z 07011KT 9999 FEW020 SCT024 14/11 Q1013 NOSIG,0,11,0,10000,0,0,0,
2026-03-19 05:00:00,METAR LEIB 190500Z 08011KT 050V110 9999 FEW020 SCT024 14/10 Q1012 NOSIG,0,11,0,10000,0,0,0,
2026-03-19 04:30:00,METAR LEIB 190430Z 08011KT 9999 FEW018 SCT021 14/10 Q1012 NOSIG,0,11,0,10000,0,0,0,
2026-03-19 04:00:00,METAR LEIB 190400Z AUTO 08012KT 050V110 9999 FEW018/// BKN021/// BKN024/// 14/10 Q1012,0,12,0,10000,0,0,0,
2026-03-19 03:30:00,METAR LEIB 190330Z AUTO 07014KT 050V110 9999 SCT018/// BKN020/// 14/10 Q1012,0,14,0,10000,0,0,0,
2026-03-19 03:00:00,METAR LEIB 190300Z 08014KT 9999 FEW014 BKN020 14/10 Q1012 NOSIG,0,14,0,10000,0,0,0,
2026-03-19 02:30:00,METAR LEIB 190230Z 09012KT 9999 FEW014 BKN018 14/10 Q1012 NOSIG,0,12,0,10000,0,0,0,
2026-03-19 02:00:00,METAR LEIB 190200Z 08012KT 9999 FEW014 SCT018 14/11 Q1012 NOSIG,0,12,0,10000,0,0,0,
2026-03-19 01:30:00,METAR LEIB 190130Z 08012KT 9999 FEW014 SCT018 14/11 Q1012 NOSIG,0,12,0,10000,0,0,0,
2026-03-19 01:00:00,METAR LEIB 190100Z 08012KT 9999 FEW014 BKN018 14/11 Q1012 NOSIG,0,12,0,10000,0,0,0,
2026-03-19 00:30:00,METAR LEIB 190030Z 09011KT 9999 FEW014 BKN018 14/11 Q1012 NOSIG,0,11,0,10000,0,0,0,
2026-03-19 00:00:00,METAR LEIB 190000Z 09012KT 9999 BKN014 14/12 Q1012 NOSIG,0,12,0,10000,0,0,0,
2026-03-18 23:30:00,METAR LEIB 182330Z 09013KT 060V120 9999 BKN014 15/12 Q1012 NOSIG,0,13,0,10000,0,0,0,
2026-03-18 23:00:00,METAR LEIB 182300Z 08010KT 9999 FEW012 14/12 Q1012 NOSIG,0,10,0,10000,0,0,0,
2026-03-18 22:30:00,METAR LEIB 182230Z 08011KT CAVOK 15/12 Q1011 NOSIG,1,0,0,9999,0,0,0,
2026-03-18 22:00:00,METAR LEIB 182200Z 08009KT 050V110 CAVOK 14/11 Q1011 NOSIG,1,0,0,9999,0,0,0,
2026-03-18 21:30:00,METAR LEIB 182130Z 08011KT CAVOK 14/11 Q1011 NOSIG,1,0,0,9999,0,0,0,
2026-03-18 21:00:00,METAR LEIB 182100Z 07008KT CAVOK 14/09 Q1010 NOSIG,1,0,0,9999,0,0,0,
2026-03-18 20:30:00,METAR LEIB 182030Z 08010KT CAVOK 14/10 Q1010 NOSIG,1,0,0,9999,0,0,0,
2026-03-18 20:00:00,METAR LEIB 182000Z 08009KT CAVOK 14/11 Q1010 NOSIG,1,0,0,9999,0,0,0,
2026-03-18 19:30:00,METAR LEIB 181930Z 08007KT CAVOK 14/10 Q1010 NOSIG,1,0,0,9999,0,0,0,
2026-03-18 19:00:00,METAR LEIB 181900Z 07006KT CAVOK 14/10 Q1010 NOSIG,1,0,0,9999,0,0,0,
2026-03-18 18:30:00,METAR LEIB 181830Z 07006KT CAVOK 14/10 Q1009 NOSIG,1,0,0,9999,0,0,0,
2026-03-18 18:00:00,METAR LEIB 181800Z 08006KT CAVOK 15/10 Q1009 NOSIG,1,0,0,9999,0,0,0,
2026-03-18 17:30:00,METAR LEIB 181730Z 08006KT 050V110 CAVOK 16/10 Q1009 NOSIG,1,0,0,9999,0,0,0,
2026-03-18 17:00:00,METAR LEIB 181700Z 09005KT CAVOK 16/10 Q1009 NOSIG,1,0,0,9999,0,0,0,
2026-03-18 16:30:00,METAR LEIB 181630Z 09006KT CAVOK 16/10 Q1008 NOSIG,1,0,0,9999,0,0,0,
2026-03-18 16:00:00,METAR LEIB 181600Z 10006KT 070V140 CAVOK 16/10 Q1008 NOSIG,1,0,0,9999,0,0,0,
2026-03-18 15:30:00,METAR LEIB 181530Z 11006KT 050V160 CAVOK 17/11 Q1008 NOSIG,1,0,0,9999,0,0,0,
2026-03-18 15:00:00,METAR LEIB 181500Z 09007KT 060V140 CAVOK 17/11 Q1008 NOSIG,1,0,0,9999,0,0,0,
2026-03-18 14:30:00,METAR LEIB 181430Z 09007KT 040V120 CAVOK 17/10 Q1008 NOSIG,1,0,0,9999,0,0,0,
2026-03-18 14:00:00,METAR LEIB 181400Z 08007KT 050V150 CAVOK 17/11 Q1009 NOSIG,1,0,0,9999,0,0,0,
2026-03-18 13:30:00,METAR LEIB 181330Z 08006KT 050V120 CAVOK 17/12 Q1009 NOSIG,1,0,0,9999,0,0,0,
2026-03-18 13:00:00,METAR LEIB 181300Z 09005KT 030V150 CAVOK 17/12 Q1009 NOSIG,1,0,0,9999,0,0,0,
2026-03-18 12:30:00,METAR LEIB 181230Z 10007KT 070V140 CAVOK 17/11 Q1010 NOSIG,1,0,0,9999,0,0,0,
2026-03-18 12:00:00,METAR LEIB 181200Z 08007KT 050V120 CAVOK 17/11 Q1010 NOSIG,1,0,0,9999,0,0,0,
2026-03-18 11:30:00,METAR LEIB 181130Z 09007KT 060V120 CAVOK 17/11 Q1010 NOSIG,1,0,0,9999,0,0,0,
2026-03-18 11:00:00,METAR LEIB 181100Z 10006KT 070V140 CAVOK 17/13 Q1010 NOSIG,1,0,0,9999,0,0,0,
2026-03-18 10:30:00,METAR LEIB 181030Z 09005KT 050V130 CAVOK 16/11 Q1010 NOSIG,1,0,0,9999,0,0,0,
2026-03-18 10:00:00,METAR LEIB 181000Z 09005KT 050V120 CAVOK 16/11 Q1011 NOSIG,1,0,0,9999,0,0,0,
2026-03-18 09:30:00,METAR LEIB 180930Z 11003KT 060V150 CAVOK 16/11 Q1011 NOSIG,1,0,0,9999,0,0,0,
2026-03-18 09:00:00,METAR LEIB 180900Z 07004KT 050V120 CAVOK 16/11 Q1010 NOSIG,1,0,0,9999,0,0,0,
2026-03-18 08:30:00,METAR LEIB 180830Z 06004KT 040V100 9999 FEW002 15/11 Q1010 NOSIG,0,4,0,10000,0,0,0,
2026-03-18 08:00:00,METAR LEIB 180800Z 06003KT CAVOK 13/10 Q1010 NOSIG,1,0,0,9999,0,0,0,
2026-03-18 07:30:00,METAR LEIB 180730Z VRB02KT CAVOK 11/08 Q1010 NOSIG,1,0,0,9999,0,0,0,
2026-03-18 07:00:00,METAR LEIB 180700Z VRB02KT CAVOK 09/07 Q1010 NOSIG,1,0,0,9999,0,0,0,
2026-03-18 06:30:00,METAR LEIB 180630Z VRB02KT CAVOK 07/05 Q1010 NOSIG,1,0,0,9999,0,0,0,
2026-03-18 06:00:00,METAR LEIB 180600Z VRB02KT CAVOK 07/05 Q1010 NOSIG,1,0,0,9999,0,0,0,
2026-03-18 05:30:00,METAR LEIB 180530Z VRB02KT CAVOK 07/05 Q1010 NOSIG,1,0,0,9999,0,0,0,
2026-03-18 05:00:00,METAR LEIB 180500Z VRB01KT CAVOK 07/05 Q1010 NOSIG,1,0,0,9999,0,0,0,
2026-03-18 04:30:00,METAR LEIB 180430Z 35003KT 320V060 CAVOK 07/06 Q1010 NOSIG,1,0,0,9999,0,0,0,
2026-03-18 04:00:00,METAR LEIB 180400Z AUTO VRB02KT CAVOK 07/05 Q1010,1,0,0,9999,0,0,0,
2026-03-18 03:30:00,METAR LEIB 180330Z AUTO VRB01KT CAVOK 07/06 Q1010,1,0,0,9999,0,0,0,
2026-03-18 03:00:00,METAR LEIB 180300Z AUTO 35005KT CAVOK 07/06 Q1011,1,0,0,9999,0,0,0,
2026-03-18 02:30:00,METAR LEIB 180230Z AUTO 35004KT CAVOK 07/06 Q1011,1,0,0,9999,0,0,0,
2026-03-18 02:00:00,METAR LEIB 180200Z AUTO 35003KT CAVOK 08/07 Q1011,1,0,0,9999,0,0,0,
2026-03-18 01:30:00,METAR LEIB 180130Z AUTO VRB01KT CAVOK 07/06 Q1012,1,0,0,9999,0,0,0,
2026-03-18 01:00:00,METAR LEIB 180100Z AUTO VRB01KT CAVOK 07/06 Q1012,1,0,0,9999,0,0,0,
2026-03-18 00:30:00,METAR LEIB 180030Z AUTO 00000KT CAVOK 07/06 Q1012,1,0,0,9999,0,0,0,
2026-03-18 00:00:00,METAR LEIB 180000Z AUTO VRB01KT CAVOK 08/06 Q1013,1,0,0,9999,0,0,0,
2026-03-17 23:30:00,METAR LEIB 172330Z AUTO VRB01KT CAVOK 07/06 Q1013,1,0,0,9999,0,0,0,
2026-03-17 23:00:00,METAR LEIB 172300Z VRB01KT CAVOK 08/06 Q1013 NOSIG,1,0,0,9999,0,0,0,
2026-03-17 22:30:00,METAR LEIB 172230Z 31004KT CAVOK 11/08 Q1013 NOSIG,1,0,0,9999,0,0,0,
2026-03-17 22:00:00,METAR LEIB 172200Z 31003KT CAVOK 10/08 Q1014 NOSIG,1,0,0,9999,0,0,0,
2026-03-17 21:30:00,METAR LEIB 172130Z VRB02KT CAVOK 10/07 Q1014 NOSIG,1,0,0,9999,0,0,0,
2026-03-17 21:00:00,METAR LEIB 172100Z VRB03KT CAVOK 10/07 Q1014 NOSIG,1,0,0,9999,0,0,0,
2026-03-17 20:30:00,METAR LEIB 172030Z 28003KT CAVOK 13/08 Q1014 NOSIG,1,0,0,9999,0,0,0,
2026-03-17 20:00:00,METAR LEIB 172000Z 25005KT CAVOK 13/09 Q1014 NOSIG,1,0,0,9999,0,0,0,
2026-03-17 19:30:00,METAR LEIB 171930Z 24006KT CAVOK 13/09 Q1014 NOSIG,1,0,0,9999,0,0,0,
2026-03-17 19:00:00,METAR LEIB 171900Z 24006KT CAVOK 13/09 Q1014 NOSIG,1,0,0,9999,0,0,0,
2026-03-17 18:30:00,METAR LEIB 171830Z 23006KT 200V260 CAVOK 14/09 Q1014 NOSIG,1,0,0,9999,0,0,0,
2026-03-17 18:00:00,METAR LEIB 171800Z 23007KT 200V260 CAVOK 15/09 Q1014 NOSIG,1,0,0,9999,0,0,0,
2026-03-17 17:30:00,METAR LEIB 171730Z 23006KT CAVOK 16/09 Q1014 NOSIG,1,0,0,9999,0,0,0,
2026-03-17 17:00:00,METAR LEIB 171700Z 24008KT 210V270 CAVOK 16/10 Q1014 NOSIG,1,0,0,9999,0,0,0,
2026-03-17 16:30:00,METAR LEIB 171630Z 24009KT CAVOK 16/10 Q1014 NOSIG,1,0,0,9999,0,0,0,
2026-03-17 16:00:00,METAR LEIB 171600Z 24009KT 210V270 CAVOK 16/10 Q1015 NOSIG,1,0,0,9999,0,0,0,
2026-03-17 15:30:00,METAR LEIB 171530Z 24009KT 200V270 CAVOK 17/09 Q1015 NOSIG,1,0,0,9999,0,0,0,
2026-03-17 15:00:00,METAR LEIB 171500Z 24009KT CAVOK 17/11 Q1015 NOSIG,1,0,0,9999,0,0,0,
2026-03-17 14:30:00,METAR LEIB 171430Z 24009KT 200V280 CAVOK 17/11 Q1015 NOSIG,1,0,0,9999,0,0,0,
2026-03-17 14:00:00,METAR LEIB 171400Z 24009KT 200V270 CAVOK 17/12 Q1016 NOSIG,1,0,0,9999,0,0,0,
2026-03-17 13:30:00,METAR LEIB 171330Z 24010KT 210V280 CAVOK 17/12 Q1016 NOSIG,1,0,0,9999,0,0,0,
2026-03-17 13:00:00,METAR LEIB 171300Z 24010KT 210V280 CAVOK 17/12 Q1016 NOSIG,1,0,0,9999,0,0,0,
2026-03-17 12:30:00,METAR LEIB 171230Z 24009KT 200V280 CAVOK 17/13 Q1017 NOSIG,1,0,0,9999,0,0,0,
2026-03-17 12:00:00,METAR LEIB 171200Z 25010KT 220V280 CAVOK 17/12 Q1017 NOSIG,1,0,0,9999,0,0,0,
2026-03-17 11:30:00,METAR LEIB 171130Z 25009KT 220V280 CAVOK 17/12 Q1018 NOSIG,1,0,0,9999,0,0,0,
2026-03-17 11:00:00,METAR LEIB 171100Z 25010KT 220V280 CAVOK 17/12 Q1018 NOSIG,1,0,0,9999,0,0,0,
2026-03-17 10:30:00,METAR LEIB 171030Z 25010KT 210V270 CAVOK 17/12 Q1018 NOSIG,1,0,0,9999,0,0,0,
2026-03-17 10:00:00,METAR LEIB 171000Z 25011KT 210V270 CAVOK 16/11 Q1018 NOSIG,1,0,0,9999,0,0,0,
2026-03-17 09:30:00,METAR LEIB 170930Z 25012KT CAVOK 16/11 Q1018 NOSIG,1,0,0,9999,0,0,0,
2026-03-17 09:00:00,METAR LEIB 170900Z 25010KT CAVOK 16/11 Q1018 NOSIG,1,0,0,9999,0,0,0,
2026-03-17 08:30:00,METAR LEIB 170830Z 25009KT CAVOK 15/12 Q1018 NOSIG,1,0,0,9999,0,0,0,
2026-03-17 08:00:00,METAR LEIB 170800Z 25009KT CAVOK 15/12 Q1018 NOSIG,1,0,0,9999,0,0,0,
2026-03-17 07:30:00,METAR LEIB 170730Z 26005KT CAVOK 14/12 Q1018 NOSIG,1,0,0,9999,0,0,0,
2026-03-17 07:00:00,METAR LEIB 170700Z 30004KT CAVOK 11/10 Q1018 NOSIG,1,0,0,9999,0,0,0,
2026-03-17 06:30:00,METAR LEIB 170630Z 31003KT CAVOK 09/07 Q1018 NOSIG,1,0,0,9999,0,0,0,
2026-03-17 06:00:00,METAR LEIB 170600Z 28005KT CAVOK 10/09 Q1017 NOSIG,1,0,0,9999,0,0,0,
2026-03-17 05:30:00,METAR LEIB 170530Z 28005KT CAVOK 10/08 Q1017 NOSIG,1,0,0,9999,0,0,0,
2026-03-17 05:00:00,METAR LEIB 170500Z 27005KT CAVOK 11/09 Q1018 NOSIG,1,0,0,9999,0,0,0,
2026-03-17 04:30:00,METAR LEIB 170430Z 27005KT CAVOK 11/10 Q1018 NOSIG,1,0,0,9999,0,0,0,
2026-03-17 04:00:00,METAR LEIB 170400Z AUTO 27007KT CAVOK 12/10 Q1018,1,0,0,9999,0,0,0,
2026-03-17 03:30:00,METAR LEIB 170330Z AUTO 27007KT CAVOK 12/10 Q1018,1,0,0,9999,0,0,0,
2026-03-17 03:00:00,METAR LEIB 170300Z AUTO 27010KT CAVOK 13/10 Q1018,1,0,0,9999,0,0,0,
2026-03-17 02:30:00,METAR LEIB 170230Z AUTO 26010KT CAVOK 13/10 Q1018,1,0,0,9999,0,0,0,
2026-03-17 02:00:00,METAR LEIB 170200Z AUTO 26011KT CAVOK 13/10 Q1019,1,0,0,9999,0,0,0,
2026-03-17 01:30:00,METAR LEIB 170130Z AUTO 26013KT CAVOK 13/09 Q1019,1,0,0,9999,0,0,0,
2026-03-17 01:00:00,METAR LEIB 170100Z AUTO 25012KT CAVOK 13/09 Q1019,1,0,0,9999,0,0,0,
2026-03-17 00:30:00,METAR LEIB 170030Z AUTO 26012KT CAVOK 13/09 Q1019,1,0,0,9999,0,0,0,
2026-03-17 00:00:00,METAR LEIB 170000Z AUTO 27007KT CAVOK 12/08 Q1020,1,0,0,9999,0,0,0,
2026-03-16 23:30:00,METAR LEIB 162330Z AUTO 27008KT CAVOK 12/07 Q1020,1,0,0,9999,0,0,0,
2026-03-16 23:00:00,METAR LEIB 162300Z 29005KT 230V320 CAVOK 12/08 Q1021 NOSIG,1,0,0,9999,0,0,0,
2026-03-16 22:30:00,METAR LEIB 162230Z 27007KT 240V300 CAVOK 12/08 Q1021 NOSIG,1,0,0,9999,0,0,0,
2026-03-16 22:00:00,METAR LEIB 162200Z 28005KT 240V330 CAVOK 12/08 Q1021 NOSIG,1,0,0,9999,0,0,0,
2026-03-16 21:30:00,METAR LEIB 162130Z 28005KT 250V310 CAVOK 12/08 Q1021 NOSIG,1,0,0,9999,0,0,0,
2026-03-16 21:00:00,METAR LEIB 162100Z 28006KT CAVOK 12/08 Q1021 NOSIG,1,0,0,9999,0,0,0,
2026-03-16 20:30:00,METAR LEIB 162030Z 28006KT 250V310 CAVOK 12/07 Q1021 NOSIG,1,0,0,9999,0,0,0,
2026-03-16 20:00:00,METAR LEIB 162000Z 28005KT CAVOK 12/06 Q1021 NOSIG,1,0,0,9999,0,0,0,
2026-03-16 19:30:00,METAR LEIB 161930Z 26005KT CAVOK 11/06 Q1021 NOSIG,1,0,0,9999,0,0,0,
2026-03-16 19:00:00,METAR LEIB 161900Z 27007KT CAVOK 12/07 Q1020 NOSIG,1,0,0,9999,0,0,0,
2026-03-16 18:30:00,METAR LEIB 161830Z 24006KT CAVOK 12/06 Q1020 NOSIG,1,0,0,9999,0,0,0,
2026-03-16 18:00:00,METAR LEIB 161800Z 24006KT CAVOK 13/07 Q1021 NOSIG,1,0,0,9999,0,0,0,
2026-03-16 17:30:00,METAR LEIB 161730Z 25006KT CAVOK 14/06 Q1020 NOSIG,1,0,0,9999,0,0,0,
2026-03-16 17:00:00,METAR LEIB 161700Z 24009KT CAVOK 15/07 Q1020 NOSIG,1,0,0,9999,0,0,0,
2026-03-16 16:30:00,METAR LEIB 161630Z 24007KT 210V270 CAVOK 16/03 Q1020 NOSIG,1,0,0,9999,0,0,0,
2026-03-16 16:00:00,METAR LEIB 161600Z 25007KT 220V290 CAVOK 17/01 Q1020 NOSIG,1,0,0,9999,0,0,0,
2026-03-16 15:30:00,METAR LEIB 161530Z 34005KT 290V020 CAVOK 18/M01 Q1020 NOSIG,1,0,0,9999,0,0,0,
2026-03-16 15:00:00,METAR LEIB 161500Z 33006KT 280V010 CAVOK 18/M01 Q1020 NOSIG,1,0,0,9999,0,0,0,
2026-03-16 14:30:00,METAR LEIB 161430Z 30009KT 270V340 CAVOK 18/02 Q1021 NOSIG,1,0,0,9999,0,0,0,
2026-03-16 14:00:00,METAR LEIB 161400Z 32008KT 290V350 CAVOK 18/03 Q1021 NOSIG,1,0,0,9999,0,0,0,
2026-03-16 13:30:00,METAR LEIB 161330Z 30006KT 250V010 CAVOK 18/03 Q1021 NOSIG,1,0,0,9999,0,0,0,
2026-03-16 13:00:00,METAR LEIB 161300Z 30005KT 230V350 CAVOK 17/03 Q1021 NOSIG,1,0,0,9999,0,0,0,
2026-03-16 12:30:00,METAR LEIB 161230Z 31006KT 250V020 CAVOK 18/05 Q1022 NOSIG,1,0,0,9999,0,0,0,
2026-03-16 12:00:00,METAR LEIB 161200Z 32005KT 270V360 CAVOK 17/03 Q1022 NOSIG,1,0,0,9999,0,0,0,
2026-03-16 11:30:00,METAR LEIB 161130Z 01006KT 320V080 CAVOK 17/06 Q1022 NOSIG,1,0,0,9999,0,0,0,
2026-03-16 11:00:00,METAR LEIB 161100Z VRB06KT CAVOK 17/05 Q1022 NOSIG,1,0,0,9999,0,0,0,
2026-03-16 10:30:00,METAR LEIB 161030Z 33007KT 290V010 CAVOK 16/06 Q1022 NOSIG,1,0,0,9999,0,0,0,
2026-03-16 10:00:00,METAR LEIB 161000Z 02008KT 340V070 CAVOK 16/05 Q1022 NOSIG,1,0,0,9999,0,0,0,
2026-03-16 09:30:00,METAR LEIB 160930Z 02009KT 340V050 9999 FEW030 15/05 Q1021 NOSIG,0,9,0,10000,0,0,0,
2026-03-16 09:00:00,METAR LEIB 160900Z 03007KT 330V070 9999 FEW030 15/04 Q1021 NOSIG,0,7,0,10000,0,0,0,
2026-03-16 08:30:00,METAR LEIB 160830Z 02005KT 320V110 9999 FEW020 14/07 Q1021 NOSIG,0,5,0,10000,0,0,0,
2026-03-16 08:00:00,METAR LEIB 160800Z 36006KT 330V030 9999 FEW020 13/06 Q1020 NOSIG,0,6,0,10000,0,0,0,
2026-03-16 07:30:00,METAR LEIB 160730Z 36004KT 290V080 9999 FEW020 12/06 Q1020 NOSIG,0,4,0,10000,0,0,0,
2026-03-16 07:00:00,METAR LEIB 160700Z 34005KT 310V010 9999 FEW020 10/06 Q1020 NOSIG,0,5,0,10000,0,0,0,
2026-03-16 06:30:00,METAR LEIB 160630Z VRB02KT 9999 FEW020 09/05 Q1020 NOSIG,0,2,0,10000,0,0,0,
2026-03-16 06:00:00,METAR LEIB 160600Z 33003KT 300V360 9999 FEW020 10/05 Q1020 NOSIG,0,3,0,10000,0,0,0,
2026-03-16 05:30:00,METAR LEIB 160530Z 36004KT 330V040 CAVOK 11/05 Q1019 NOSIG,1,0,0,9999,0,0,0,
2026-03-16 05:00:00,METAR LEIB 160500Z 02004KT CAVOK 11/05 Q1019 NOSIG,1,0,0,9999,0,0,0,
2026-03-16 04:30:00,METAR LEIB 160430Z 01005KT 300V060 CAVOK 12/05 Q1018 NOSIG,1,0,0,9999,0,0,0,
2026-03-16 04:00:00,METAR LEIB 160400Z AUTO 36006KT 330V050 CAVOK 11/06 Q1018,1,0,0,9999,0,0,0,
2026-03-16 03:30:00,METAR LEIB 160330Z AUTO VRB02KT CAVOK 08/06 Q1018,1,0,0,9999,0,0,0,
2026-03-16 03:00:00,METAR LEIB 160300Z AUTO VRB02KT CAVOK 09/06 Q1018,1,0,0,9999,0,0,0,
2026-03-16 02:30:00,METAR LEIB 160230Z AUTO 34006KT CAVOK 09/06 Q1017,1,0,0,9999,0,0,0,
2026-03-16 02:00:00,METAR LEIB 160200Z AUTO 36007KT CAVOK 10/06 Q1017,1,0,0,9999,0,0,0,
2026-03-16 01:30:00,METAR LEIB 160130Z AUTO 36003KT 320V080 CAVOK 10/06 Q1017,1,0,0,9999,0,0,0,
2026-03-16 01:00:00,METAR LEIB 160100Z AUTO 02003KT CAVOK 11/06 Q1017,1,0,0,9999,0,0,0,
2026-03-16 00:30:00,METAR LEIB 160030Z AUTO 04006KT CAVOK 12/06 Q1017,1,0,0,9999,0,0,0,
2026-03-16 00:00:00,METAR LEIB 160000Z AUTO 03008KT 360V060 CAVOK 13/06 Q1017,1,0,0,9999,0,0,0,
2026-03-15 23:30:00,METAR LEIB 152330Z AUTO 03010KT CAVOK 14/05 Q1017,1,0,0,9999,0,0,0,
2026-03-15 23:00:00,METAR LEIB 152300Z 03012KT 350V050 CAVOK 14/05 Q1017 NOSIG,1,0,0,9999,0,0,0,
2026-03-15 22:30:00,METAR LEIB 152230Z 03012KT CAVOK 14/06 Q1016 NOSIG,1,0,0,9999,0,0,0,
2026-03-15 22:00:00,METAR LEIB 152200Z 03009KT CAVOK 14/07 Q1016 NOSIG,1,0,0,9999,0,0,0,
2026-03-15 21:30:00,METAR LEIB 152130Z 04010KT CAVOK 14/07 Q1016 NOSIG,1,0,0,9999,0,0,0,
2026-03-15 21:00:00,METAR LEIB 152100Z 02006KT 320V070 CAVOK 14/04 Q1015 NOSIG,1,0,0,9999,0,0,0,
2026-03-15 20:30:00,METAR LEIB 152030Z 35008KT CAVOK 15/04 Q1015 NOSIG,1,0,0,9999,0,0,0,
2026-03-15 20:00:00,METAR LEIB 152000Z 32006KT CAVOK 14/04 Q1014 NOSIG,1,0,0,9999,0,0,0,
2026-03-15 19:30:00,METAR LEIB 151930Z 33006KT 270V070 CAVOK 14/04 Q1014 NOSIG,1,0,0,9999,0,0,0,
2026-03-15 19:00:00,METAR LEIB 151900Z 31005KT 270V350 CAVOK 13/03 Q1013 NOSIG,1,0,0,9999,0,0,0,
2026-03-15 18:30:00,METAR LEIB 151830Z 32007KT 290V350 CAVOK 14/05 Q1013 NOSIG,1,0,0,9999,0,0,0,
2026-03-15 18:00:00,METAR LEIB 151800Z 32008KT 290V360 CAVOK 14/04 Q1012 NOSIG,1,0,0,9999,0,0,0,
2026-03-15 17:30:00,METAR LEIB 151730Z 33010KT 280V030 CAVOK 15/02 Q1012 NOSIG,1,0,0,9999,0,0,0,
2026-03-15 17:00:00,METAR LEIB 151700Z 33006KT 260V020 CAVOK 16/01 Q1011 NOSIG,1,0,0,9999,0,0,0,
2026-03-15 16:30:00,METAR LEIB 151630Z 35009KT 300V030 CAVOK 16/02 Q1011 NOSIG,1,0,0,9999,0,0,0,
2026-03-15 16:00:00,METAR LEIB 151600Z 34008KT 300V030 CAVOK 16/02 Q1010 NOSIG,1,0,0,9999,0,0,0,
2026-03-15 15:30:00,METAR LEIB 151530Z 36014KT 330V040 CAVOK 16/02 Q1010 NOSIG,1,0,0,9999,0,0,0,
2026-03-15 15:00:00,METAR LEIB 151500Z 36016KT 330V040 CAVOK 16/01 Q1010 NOSIG,1,0,0,9999,0,0,0,
2026-03-15 14:30:00,METAR LEIB 151430Z 35019G30KT 310V020 CAVOK 16/01 Q1010 NOSIG,1,0,0,9999,0,0,0,
2026-03-15 14:00:00,METAR LEIB 151400Z 35016G26KT 300V020 9999 NSC 16/02 Q1009 NOSIG,0,16,1,10000,0,0,0,
2026-03-15 13:30:00,METAR LEIB 151330Z 35019G29KT 320V020 CAVOK 16/01 Q1009 NOSIG,1,0,0,9999,0,0,0,
2026-03-15 13:00:00,METAR LEIB 151300Z 36016G26KT 320V040 CAVOK 16/02 Q1009 NOSIG,1,0,0,9999,0,0,0,
2026-03-15 12:30:00,METAR LEIB 151230Z 34015G26KT 300V020 9999 FEW043 16/03 Q1009 NOSIG,0,15,1,10000,0,0,0,
2026-03-15 12:00:00,METAR LEIB 151200Z 35016KT 320V020 9999 FEW043 15/05 Q1010 NOSIG,0,16,0,10000,0,0,0,
2026-03-15 11:30:00,METAR LEIB 151130Z 35017G27KT 320V030 9999 FEW043 15/04 Q1009 NOSIG,0,17,1,10000,0,0,0,
2026-03-15 11:00:00,METAR LEIB 151100Z 34017G30KT 300V020 9999 FEW042 14/04 Q1010 NOSIG,0,17,1,10000,0,0,0,
2026-03-15 10:30:00,METAR LEIB 151030Z 35014G24KT 300V020 9999 FEW042 14/04 Q1009 NOSIG,0,14,1,10000,0,0,0,
2026-03-15 10:00:00,METAR LEIB 151000Z 35015G27KT 310V020 9999 FEW042 14/04 Q1009 NOSIG,0,15,1,10000,0,0,0,
2026-03-15 09:30:00,METAR LEIB 150930Z 36019KT 9999 FEW043 13/03 Q1009 NOSIG,0,19,0,10000,0,0,0,
2026-03-15 09:00:00,METAR LEIB 150900Z 35014KT 320V030 9999 FEW041 13/04 Q1009 NOSIG,0,14,0,10000,0,0,0,
2026-03-15 08:30:00,METAR LEIB 150830Z 36014G24KT 310V030 9999 FEW043 13/03 Q1009 NOSIG,0,14,1,10000,0,0,0,
2026-03-15 08:00:00,METAR LEIB 150800Z 34015KT 320V020 9999 FEW040 12/03 Q1009 NOSIG,0,15,0,10000,0,0,0,
