Time_recorded,METAR,is_cavok,wind_speed,is_gust,visibility_meters,has_thunderstorm,has_heavy_rain,has_low_vis_fog,other_phenomenon
2026-05-02 15:30:00,METAR LCLK 021530Z 25003KT 220V280 9999 FEW030 21/17 Q1010 NOSIG,0,3,0,10000,0,0,0,
2026-05-02 15:00:00,METAR LCLK 021500Z 23007KT 9999 FEW030 21/18 Q1010 NOSIG,0,7,0,10000,0,0,0,
2026-05-02 14:30:00,METAR LCLK 021430Z 20006KT 9999 FEW030 22/17 Q1010 NOSIG,0,6,0,10000,0,0,0,
2026-05-02 14:00:00,METAR LCLK 021400Z 17005KT 9999 FEW050 22/17 Q1009 NOSIG,0,5,0,10000,0,0,0,
2026-05-02 13:30:00,METAR LCLK 021330Z 16005KT 120V180 9999 FEW050 22/18 Q1009 NOSIG,0,5,0,10000,0,0,0,
2026-05-02 13:00:00,METAR LCLK 021300Z VRB05KT 9999 FEW030 25/13 Q1009 NOSIG,0,5,0,10000,0,0,0,
2026-05-02 12:30:00,METAR LCLK 021230Z 32005KT 270V350 9999 FEW025 25/13 Q1010 NOSIG,0,5,0,10000,0,0,0,
2026-05-02 12:00:00,METAR LCLK 021200Z 29006KT 250V350 9999 FEW025 25/13 Q1010 NOSIG,0,6,0,10000,0,0,0,
2026-05-02 11:30:00,METAR LCLK 021130Z 26006KT 190V350 9999 FEW018 24/16 Q1011 NOSIG,0,6,0,10000,0,0,0,
2026-05-02 11:00:00,METAR LCLK 021100Z 20007KT 9999 -RA FEW018 23/18 Q1011 NOSIG,0,7,0,10000,0,0,0,-RA
2026-05-02 10:30:00,METAR LCLK 021030Z 21004KT 180V240 9999 FEW018 23/17 Q1011 NOSIG,0,4,0,10000,0,0,0,
2026-05-02 10:00:00,METAR LCLK 021000Z 22007KT 180V240 9999 -RA FEW018 22/18 Q1011 NOSIG,0,7,0,10000,0,0,0,-RA
2026-05-02 09:30:00,METAR LCLK 020930Z 21009KT 9999 FEW018 22/17 Q1011 NOSIG,0,9,0,10000,0,0,0,
2026-05-02 09:00:00,METAR LCLK 020900Z 20009KT 9999 FEW018 21/17 Q1011 NOSIG,0,9,0,10000,0,0,0,
2026-05-02 08:30:00,METAR LCLK 020830Z 23012KT 9999 FEW012 21/17 Q1011 NOSIG,0,12,0,10000,0,0,0,
2026-05-02 08:00:00,METAR LCLK 020800Z 22011KT 9999 FEW012 21/17 Q1011 NOSIG,0,11,0,10000,0,0,0,
2026-05-02 07:30:00,METAR LCLK 020730Z 22012KT 9999 FEW018 SCT040 21/17 Q1011 NOSIG,0,12,0,10000,0,0,0,
2026-05-02 07:00:00,METAR LCLK 020700Z 21015KT 9999 FEW018 SCT040 22/17 Q1011 NOSIG,0,15,0,10000,0,0,0,
2026-05-02 06:30:00,METAR LCLK 020630Z 21012KT 9999 FEW018 SCT040 22/17 Q1011 NOSIG,0,12,0,10000,0,0,0,
2026-05-02 06:00:00,METAR LCLK 020600Z 22011KT 9999 FEW009 SCT040 22/17 Q1011 NOSIG,0,11,0,10000,0,0,0,
2026-05-02 05:30:00,METAR LCLK 020530Z 22009KT 9999 FEW009 21/18 Q1011 NOSIG,0,9,0,10000,0,0,0,
2026-05-02 05:00:00,METAR LCLK 020500Z 21005KT 9999 FEW009 20/17 Q1010 NOSIG,0,5,0,10000,0,0,0,
2026-05-02 04:30:00,METAR LCLK 020430Z VRB02KT 9999 FEW009 18/17 Q1010 NOSIG,0,2,0,10000,0,0,0,
2026-05-02 04:00:00,METAR LCLK 020400Z VRB01KT 9999 FEW025 16/16 Q1010 TEMPO 5000 BR BKN005,0,1,0,10000,0,0,1,BR
2026-05-02 03:30:00,METAR LCLK 020330Z 29005KT 250V310 9999 FEW011 15/14 Q1010 TEMPO 5000 BR BKN005,0,5,0,10000,0,0,1,BR
2026-05-02 03:00:00,METAR LCLK 020300Z 30003KT 9999 FEW011 15/14 Q1010 TEMPO 5000 BR BKN005,0,3,0,10000,0,0,1,BR
2026-05-02 02:30:00,METAR LCLK 020230Z 31004KT 9999 FEW011 15/14 Q1010 TEMPO 5000 BR SCT005,0,4,0,10000,0,0,1,BR
2026-05-02 02:00:00,METAR LCLK 020200Z 31004KT 9999 FEW008 15/14 Q1010 TEMPO 5000 BR SCT005,0,4,0,10000,0,0,1,BR
2026-05-02 01:30:00,METAR LCLK 020130Z 33004KT 9999 SCT008 15/14 Q1009 NOSIG,0,4,0,10000,0,0,0,
2026-05-02 01:00:00,METAR LCLK 020100Z 32005KT 9999 SCT006 16/15 Q1010 NOSIG,0,5,0,10000,0,0,0,
2026-05-02 00:30:00,METAR LCLK 020030Z 33005KT 9999 BKN005 SCT010 16/15 Q1010 NOSIG,0,5,0,10000,0,0,0,
2026-05-02 00:00:00,METAR LCLK 020000Z 00000KT 9999 FEW007 15/14 Q1010 NOSIG,0,0,0,10000,0,0,0,
2026-05-01 23:30:00,METAR LCLK 012330Z 34003KT 9999 FEW010 16/15 Q1010 NOSIG,0,3,0,10000,0,0,0,
2026-05-01 23:00:00,METAR LCLK 012300Z 32002KT CAVOK 15/14 Q1011 NOSIG,1,0,0,9999,0,0,0,
2026-05-01 22:30:00,METAR LCLK 012230Z 31004KT CAVOK 16/14 Q1011 NOSIG,1,0,0,9999,0,0,0,
2026-05-01 22:00:00,METAR LCLK 012200Z 09003KT CAVOK 17/15 Q1011 NOSIG,1,0,0,9999,0,0,0,
2026-05-01 21:30:00,METAR LCLK 012130Z VRB01KT CAVOK 17/14 Q1011 NOSIG,1,0,0,9999,0,0,0,
2026-05-01 21:00:00,METAR LCLK 012100Z 34003KT 300V360 9999 FEW025 17/14 Q1011 NOSIG,0,3,0,10000,0,0,0,
2026-05-01 20:30:00,METAR LCLK 012030Z 01003KT 9999 FEW025 17/14 Q1011 NOSIG,0,3,0,10000,0,0,0,
2026-05-01 20:00:00,METAR LCLK 012000Z VRB01KT 9999 FEW025 18/14 Q1011 NOSIG,0,1,0,10000,0,0,0,
2026-05-01 19:30:00,METAR LCLK 011930Z 26003KT 9999 FEW025 18/14 Q1011 NOSIG,0,3,0,10000,0,0,0,
2026-05-01 19:00:00,METAR LCLK 011900Z 26004KT 9999 FEW025 19/15 Q1011 NOSIG,0,4,0,10000,0,0,0,
2026-05-01 18:30:00,METAR LCLK 011830Z 21005KT 9999 FEW025 19/15 Q1011 NOSIG,0,5,0,10000,0,0,0,
2026-05-01 18:00:00,METAR LCLK 011800Z 22006KT 9999 FEW025 20/15 Q1011 NOSIG,0,6,0,10000,0,0,0,
2026-05-01 17:30:00,METAR LCLK 011730Z 22007KT 9999 FEW025 20/16 Q1011 NOSIG,0,7,0,10000,0,0,0,
2026-05-01 17:00:00,METAR LCLK 011700Z 23008KT 9999 FEW025 20/17 Q1010 NOSIG,0,8,0,10000,0,0,0,
2026-05-01 16:30:00,METAR LCLK 011630Z 22011KT CAVOK 21/16 Q1010 NOSIG,1,0,0,9999,0,0,0,
2026-05-01 16:00:00,METAR LCLK 011600Z 22012KT CAVOK 22/17 Q1010 NOSIG,1,0,0,9999,0,0,0,
2026-05-01 15:30:00,METAR LCLK 011530Z 22014KT 9999 FEW020 22/16 Q1010 NOSIG,0,14,0,10000,0,0,0,
2026-05-01 15:00:00,METAR LCLK 011500Z 21014KT 9999 FEW020 23/16 Q1010 NOSIG,0,14,0,10000,0,0,0,
2026-05-01 14:30:00,METAR LCLK 011430Z 22014KT 9999 FEW020 23/16 Q1010 NOSIG,0,14,0,10000,0,0,0,
2026-05-01 14:00:00,METAR LCLK 011400Z 22017KT 9999 FEW020 24/16 Q1010 NOSIG,0,17,0,10000,0,0,0,
2026-05-01 13:30:00,METAR LCLK 011330Z 22017KT 9999 FEW020 23/15 Q1010 NOSIG,0,17,0,10000,0,0,0,
2026-05-01 13:00:00,METAR LCLK 011300Z 21017KT 9999 FEW020 25/14 Q1010 NOSIG,0,17,0,10000,0,0,0,
2026-05-01 12:30:00,METAR LCLK 011230Z 22016KT 9999 FEW020 25/15 Q1011 NOSIG,0,16,0,10000,0,0,0,
2026-05-01 12:00:00,METAR LCLK 011200Z 21013KT 180V240 9999 FEW020 25/15 Q1011 NOSIG,0,13,0,10000,0,0,0,
2026-05-01 11:30:00,METAR LCLK 011130Z 20014KT 160V220 9999 FEW020 25/15 Q1011 NOSIG,0,14,0,10000,0,0,0,
2026-05-01 11:00:00,METAR LCLK 011100Z 20013KT 9999 FEW018 25/16 Q1011 NOSIG,0,13,0,10000,0,0,0,
2026-05-01 10:30:00,METAR LCLK 011030Z 18012KT 9999 FEW018 24/17 Q1011 NOSIG,0,12,0,10000,0,0,0,
2026-05-01 10:00:00,METAR LCLK 011000Z 18011KT 140V210 9999 FEW018 23/18 Q1012 NOSIG,0,11,0,10000,0,0,0,
2026-05-01 09:30:00,METAR LCLK 010930Z 17010KT 140V200 9999 FEW018 23/18 Q1012 NOSIG,0,10,0,10000,0,0,0,
2026-05-01 09:00:00,METAR LCLK 010900Z 17008KT 9999 FEW020 23/18 Q1012 NOSIG,0,8,0,10000,0,0,0,
2026-05-01 08:30:00,METAR LCLK 010830Z 16007KT 120V180 9999 FEW020 22/18 Q1012 NOSIG,0,7,0,10000,0,0,0,
2026-05-01 08:00:00,METAR LCLK 010800Z 13007KT 9999 FEW020 22/17 Q1012 NOSIG,0,7,0,10000,0,0,0,
2026-05-01 07:30:00,METAR LCLK 010730Z 12006KT 090V160 9999 FEW020 22/17 Q1012 NOSIG,0,6,0,10000,0,0,0,
2026-05-01 07:00:00,METAR LCLK 010700Z 13006KT 100V170 9999 FEW020 21/17 Q1012 NOSIG,0,6,0,10000,0,0,0,
2026-05-01 06:30:00,METAR LCLK 010630Z 16006KT 130V200 9999 FEW020 21/16 Q1012 NOSIG,0,6,0,10000,0,0,0,
2026-05-01 06:00:00,METAR LCLK 010600Z 12005KT 9999 FEW020 21/16 Q1012 NOSIG,0,5,0,10000,0,0,0,
2026-05-01 05:30:00,METAR LCLK 010530Z 09003KT 060V120 9999 FEW050 22/15 Q1012 NOSIG,0,3,0,10000,0,0,0,
2026-05-01 05:00:00,METAR LCLK 010500Z VRB02KT 9999 FEW050 20/13 Q1012 NOSIG,0,2,0,10000,0,0,0,
2026-05-01 04:30:00,METAR LCLK 010430Z VRB02KT 9999 FEW050 18/13 Q1012 NOSIG,0,2,0,10000,0,0,0,
2026-05-01 04:00:00,METAR LCLK 010400Z VRB03KT CAVOK 15/12 Q1012 NOSIG,1,0,0,9999,0,0,0,
2026-05-01 03:30:00,METAR LCLK 010330Z 30005KT CAVOK 13/11 Q1012 NOSIG,1,0,0,9999,0,0,0,
2026-05-01 03:00:00,METAR LCLK 010300Z 30004KT CAVOK 13/10 Q1012 NOSIG,1,0,0,9999,0,0,0,
2026-05-01 02:30:00,METAR LCLK 010230Z 31005KT CAVOK 14/11 Q1012 NOSIG,1,0,0,9999,0,0,0,
2026-05-01 02:00:00,METAR LCLK 010200Z 33003KT CAVOK 14/11 Q1012 NOSIG,1,0,0,9999,0,0,0,
2026-05-01 01:30:00,METAR LCLK 010130Z 28004KT CAVOK 14/11 Q1012 NOSIG,1,0,0,9999,0,0,0,
2026-05-01 01:00:00,METAR LCLK 010100Z 28004KT CAVOK 14/11 Q1012 NOSIG,1,0,0,9999,0,0,0,
2026-05-01 00:30:00,METAR LCLK 010030Z 29005KT CAVOK 14/12 Q1012 NOSIG,1,0,0,9999,0,0,0,
2026-05-01 00:00:00,METAR LCLK 010000Z VRB01KT CAVOK 15/13 Q1012 NOSIG,1,0,0,9999,0,0,0,
2026-04-30 23:30:00,METAR LCLK 302330Z 30005KT CAVOK 15/14 Q1012 NOSIG,1,0,0,9999,0,0,0,
2026-04-30 23:00:00,METAR LCLK 302300Z 31005KT CAVOK 15/14 Q1012 NOSIG,1,0,0,9999,0,0,0,
2026-04-30 22:30:00,METAR LCLK 302230Z 30005KT CAVOK 15/14 Q1013 NOSIG,1,0,0,9999,0,0,0,
2026-04-30 22:00:00,METAR LCLK 302200Z 31005KT CAVOK 16/15 Q1013 NOSIG,1,0,0,9999,0,0,0,
2026-04-30 21:30:00,METAR LCLK 302130Z 30004KT CAVOK 16/14 Q1013 NOSIG,1,0,0,9999,0,0,0,
2026-04-30 21:00:00,METAR LCLK 302100Z 35005KT CAVOK 17/15 Q1013 NOSIG,1,0,0,9999,0,0,0,
2026-04-30 20:30:00,METAR LCLK 302030Z 35004KT CAVOK 17/15 Q1013 NOSIG,1,0,0,9999,0,0,0,
2026-04-30 20:00:00,METAR LCLK 302000Z 35005KT CAVOK 18/15 Q1013 NOSIG,1,0,0,9999,0,0,0,
2026-04-30 19:30:00,METAR LCLK 301930Z 01005KT CAVOK 19/16 Q1013 NOSIG,1,0,0,9999,0,0,0,
2026-04-30 19:00:00,METAR LCLK 301900Z 36004KT CAVOK 19/15 Q1013 NOSIG,1,0,0,9999,0,0,0,
2026-04-30 18:30:00,METAR LCLK 301830Z 33007KT CAVOK 19/14 Q1013 NOSIG,1,0,0,9999,0,0,0,
2026-04-30 18:00:00,METAR LCLK 301800Z 33005KT 250V020 CAVOK 19/15 Q1013 NOSIG,1,0,0,9999,0,0,0,
2026-04-30 17:30:00,METAR LCLK 301730Z 25004KT CAVOK 20/16 Q1013 NOSIG,1,0,0,9999,0,0,0,
2026-04-30 17:00:00,METAR LCLK 301700Z 23007KT CAVOK 20/16 Q1012 NOSIG,1,0,0,9999,0,0,0,
2026-04-30 16:30:00,METAR LCLK 301630Z 22010KT CAVOK 21/17 Q1012 NOSIG,1,0,0,9999,0,0,0,
2026-04-30 16:00:00,METAR LCLK 301600Z 22010KT 9999 FEW025 22/17 Q1012 NOSIG,0,10,0,10000,0,0,0,
2026-04-30 15:00:00,METAR LCLK 301500Z 21013KT 9999 FEW025 FEW030TCU 23/16 Q1012 NOSIG,0,13,0,10000,0,0,0,
2026-04-30 14:30:00,METAR LCLK 301430Z 21013KT 9999 FEW025 FEW030TCU 24/16 Q1012 NOSIG,0,13,0,10000,0,0,0,
2026-04-30 14:00:00,METAR LCLK 301400Z 21013KT 9999 FEW025 FEW030TCU 24/15 Q1013 NOSIG,0,13,0,10000,0,0,0,
2026-04-30 13:30:00,METAR LCLK 301330Z 21013KT 9999 FEW025 FEW030TCU 24/15 Q1013 NOSIG,0,13,0,10000,0,0,0,
2026-04-30 13:00:00,METAR LCLK 301300Z 20012KT 9999 FEW025 FEW030TCU 25/15 Q1013 NOSIG,0,12,0,10000,0,0,0,
2026-04-30 12:30:00,METAR LCLK 301230Z 19012KT 9999 FEW025 FEW030TCU 26/15 Q1013 NOSIG,0,12,0,10000,0,0,0,
2026-04-30 12:00:00,METAR LCLK 301200Z 20011KT 9999 FEW025 FEW030TCU 26/16 Q1013 NOSIG,0,11,0,10000,0,0,0,
2026-04-30 11:30:00,METAR LCLK 301130Z 19009KT 150V220 9999 FEW025 25/15 Q1014 NOSIG,0,9,0,10000,0,0,0,
2026-04-30 11:00:00,METAR LCLK 301100Z 17007KT 140V200 9999 FEW025 24/16 Q1014 NOSIG,0,7,0,10000,0,0,0,
2026-04-30 10:30:00,METAR LCLK 301030Z 16009KT 130V190 8000 FEW025 24/18 Q1014 NOSIG,0,9,0,8000,0,0,0,
2026-04-30 10:00:00,METAR LCLK 301000Z 18006KT 120V230 8000 FEW025 24/17 Q1015 NOSIG,0,6,0,8000,0,0,0,
2026-04-30 09:30:00,METAR LCLK 300930Z 18009KT 150V230 8000 FEW025 23/18 Q1015 NOSIG,0,9,0,8000,0,0,0,
2026-04-30 09:00:00,METAR LCLK 300900Z 18009KT 150V210 8000 FEW025 22/18 Q1015 NOSIG,0,9,0,8000,0,0,0,
2026-04-30 08:30:00,METAR LCLK 300830Z 15008KT 130V190 8000 FEW025 22/18 Q1015 BECMG 22012KT,0,8,0,8000,0,0,0,
2026-04-30 08:00:00,METAR LCLK 300800Z 13007KT 110V170 8000 FEW025 22/18 Q1015 NOSIG,0,7,0,8000,0,0,0,
2026-04-30 07:30:00,METAR LCLK 300730Z 12005KT 080V150 8000 FEW013 22/18 Q1015 NOSIG,0,5,0,8000,0,0,0,
2026-04-30 07:00:00,METAR LCLK 300700Z 08005KT 030V100 8000 FEW013 21/17 Q1015 NOSIG,0,5,0,8000,0,0,0,
2026-04-30 06:30:00,METAR LCLK 300630Z 03005KT 360V060 8000 FEW013 21/17 Q1015 NOSIG,0,5,0,8000,0,0,0,
2026-04-30 06:00:00,METAR LCLK 300600Z 03008KT 8000 FEW013 21/18 Q1015 NOSIG,0,8,0,8000,0,0,0,
2026-04-30 05:30:00,METAR LCLK 300530Z 03007KT 350V050 8000 SCT006 20/17 Q1015 NOSIG,0,7,0,8000,0,0,0,
2026-04-30 05:00:00,METAR LCLK 300500Z 33005KT 290V020 8000 BKN006 18/17 Q1015 NOSIG,0,5,0,8000,0,0,0,
2026-04-30 04:30:00,METAR LCLK 300430Z 31005KT 8000 BKN006 16/16 Q1015 NOSIG,0,5,0,8000,0,0,0,
2026-04-30 04:00:00,METAR LCLK 300400Z 33005KT 250V020 8000 BKN006 16/15 Q1015 NOSIG,0,5,0,8000,0,0,0,
2026-04-30 03:30:00,METAR LCLK 300330Z 32005KT 7000 BKN005 15/15 Q1015 NOSIG,0,5,0,7000,0,0,0,
2026-04-30 03:00:00,METAR LCLK 300300Z 33006KT 280V350 7000 BKN005 14/13 Q1014 NOSIG,0,6,0,7000,0,0,0,
2026-04-30 02:30:00,METAR LCLK 300230Z 31006KT 9999 SCT005 14/13 Q1014 NOSIG,0,6,0,10000,0,0,0,
2026-04-30 02:00:00,METAR LCLK 300200Z 31006KT 9999 FEW010 14/14 Q1014 NOSIG,0,6,0,10000,0,0,0,
2026-04-30 01:30:00,METAR LCLK 300130Z 31008KT 9999 SCT008 15/15 Q1014 NOSIG,0,8,0,10000,0,0,0,
2026-04-30 01:00:00,METAR LCLK 300100Z 32006KT 9999 FEW012 15/14 Q1014 NOSIG,0,6,0,10000,0,0,0,
2026-04-30 00:30:00,METAR LCLK 300030Z 34005KT CAVOK 15/14 Q1014 NOSIG,1,0,0,9999,0,0,0,
2026-04-30 00:00:00,METAR LCLK 300000Z 32005KT CAVOK 15/14 Q1014 NOSIG,1,0,0,9999,0,0,0,
2026-04-29 23:30:00,METAR LCLK 292330Z 31005KT CAVOK 15/14 Q1014 NOSIG,1,0,0,9999,0,0,0,
2026-04-29 23:00:00,METAR LCLK 292300Z 32004KT CAVOK 15/14 Q1014 NOSIG,1,0,0,9999,0,0,0,
2026-04-29 22:30:00,METAR LCLK 292230Z 30004KT CAVOK 15/14 Q1014 NOSIG,1,0,0,9999,0,0,0,
2026-04-29 22:00:00,METAR LCLK 292200Z 30004KT CAVOK 16/14 Q1014 NOSIG,1,0,0,9999,0,0,0,
2026-04-29 21:30:00,METAR LCLK 292130Z 30002KT CAVOK 16/15 Q1014 NOSIG,1,0,0,9999,0,0,0,
2026-04-29 21:00:00,METAR LCLK 292100Z 36001KT CAVOK 17/15 Q1014 NOSIG,1,0,0,9999,0,0,0,
2026-04-29 20:30:00,METAR LCLK 292030Z VRB02KT CAVOK 17/15 Q1014 NOSIG,1,0,0,9999,0,0,0,
2026-04-29 20:00:00,METAR LCLK 292000Z 00000KT CAVOK 18/15 Q1014 NOSIG,1,0,0,9999,0,0,0,
2026-04-29 19:30:00,METAR LCLK 291930Z 22003KT CAVOK 19/16 Q1014 NOSIG,1,0,0,9999,0,0,0,
2026-04-29 19:00:00,METAR LCLK 291900Z 21004KT CAVOK 19/16 Q1014 NOSIG,1,0,0,9999,0,0,0,
2026-04-29 18:30:00,METAR LCLK 291830Z 21004KT CAVOK 19/16 Q1014 NOSIG,1,0,0,9999,0,0,0,
2026-04-29 18:00:00,METAR LCLK 291800Z 22006KT CAVOK 19/16 Q1014 NOSIG,1,0,0,9999,0,0,0,
2026-04-29 17:30:00,METAR LCLK 291730Z 23010KT 9999 FEW030 20/16 Q1013 NOSIG,0,10,0,10000,0,0,0,
2026-04-29 17:00:00,METAR LCLK 291700Z 23012KT 9999 FEW030 20/17 Q1013 NOSIG,0,12,0,10000,0,0,0,
2026-04-29 16:30:00,METAR LCLK 291630Z 22013KT 9999 FEW003 21/18 Q1012 NOSIG,0,13,0,10000,0,0,0,
2026-04-29 16:00:00,METAR LCLK 291600Z 22017KT 9999 FEW035 21/18 Q1012 NOSIG,0,17,0,10000,0,0,0,
2026-04-29 15:30:00,METAR LCLK 291530Z 22017KT 9999 FEW035 22/18 Q1012 NOSIG,0,17,0,10000,0,0,0,
2026-04-29 15:00:00,METAR LCLK 291500Z 21016KT 9999 FEW035 23/18 Q1012 NOSIG,0,16,0,10000,0,0,0,
2026-04-29 14:30:00,METAR LCLK 291430Z 21015KT 9999 FEW025 23/18 Q1012 NOSIG,0,15,0,10000,0,0,0,
2026-04-29 14:00:00,METAR LCLK 291400Z 21016KT 9999 FEW025 FEW035TCU 24/18 Q1012 NOSIG,0,16,0,10000,0,0,0,
2026-04-29 13:30:00,METAR LCLK 291330Z 21016KT 9999 FEW025 FEW035CB 24/17 Q1012 NOSIG RMK CB TO N,0,16,0,10000,0,0,0,
2026-04-29 13:00:00,METAR LCLK 291300Z 21017KT 9999 FEW025 FEW035CB 25/17 Q1012 NOSIG RMK CB TO N,0,17,0,10000,0,0,0,
2026-04-29 12:30:00,METAR LCLK 291230Z 21018KT 9999 FEW025 FEW035CB 25/17 Q1013 NOSIG RMK CB TO N,0,18,0,10000,0,0,0,
2026-04-29 12:00:00,METAR LCLK 291200Z 21017KT 9999 FEW025 FEW035CB 25/18 Q1013 NOSIG RMK DISTANT CB TO N,0,17,0,10000,0,0,0,
2026-04-29 11:30:00,METAR LCLK 291130Z 21013KT 9999 FEW025 FEW030TCU FEW035CB 25/17 Q1013 NOSIG RMK DISTANT CB TO NW,0,13,0,10000,0,0,0,
2026-04-29 11:00:00,METAR LCLK 291100Z 20014KT 9999 FEW025 FEW030TCU FEW035CB 25/18 Q1013 NOSIG RMK DISTANT CB TO W,0,14,0,10000,0,0,0,
2026-04-29 10:30:00,METAR LCLK 291030Z 19012KT 160V220 9999 FEW025 FEW030TCU FEW035CB 24/18 Q1014 NOSIG RMK DISTANT CB TO W,0,12,0,10000,0,0,0,
2026-04-29 10:00:00,METAR LCLK 291000Z 17010KT 9999 FEW018 23/18 Q1013 NOSIG,0,10,0,10000,0,0,0,
2026-04-29 09:30:00,METAR LCLK 290930Z 16010KT 9999 FEW018 23/19 Q1014 NOSIG,0,10,0,10000,0,0,0,
2026-04-29 09:00:00,METAR LCLK 290900Z 15009KT 120V180 9999 FEW018 23/18 Q1014 NOSIG,0,9,0,10000,0,0,0,
2026-04-29 08:30:00,METAR LCLK 290830Z 14008KT 9999 FEW018 23/18 Q1014 NOSIG,0,8,0,10000,0,0,0,
2026-04-29 08:00:00,METAR LCLK 290800Z 12007KT 9999 FEW018 23/18 Q1014 NOSIG,0,7,0,10000,0,0,0,
2026-04-29 07:30:00,METAR LCLK 290730Z 10006KT 9999 FEW018 23/18 Q1014 NOSIG,0,6,0,10000,0,0,0,
2026-04-29 07:00:00,METAR LCLK 290700Z 07005KT 9999 FEW018 22/18 Q1013 NOSIG,0,5,0,10000,0,0,0,
2026-04-29 06:30:00,METAR LCLK 290630Z 06005KT 030V090 9999 FEW018 22/18 Q1013 NOSIG,0,5,0,10000,0,0,0,
2026-04-29 06:00:00,METAR LCLK 290600Z 06004KT 030V090 9999 FEW018 21/18 Q1013 NOSIG,0,4,0,10000,0,0,0,
2026-04-29 05:30:00,METAR LCLK 290530Z 03004KT 350V080 9999 FEW018 21/17 Q1013 NOSIG,0,4,0,10000,0,0,0,
2026-04-29 05:00:00,METAR LCLK 290500Z 31004KT 270V350 CAVOK 20/17 Q1013 NOSIG,1,0,0,9999,0,0,0,
2026-04-29 04:30:00,METAR LCLK 290430Z 31005KT CAVOK 18/16 Q1013 NOSIG,1,0,0,9999,0,0,0,
2026-04-29 04:00:00,METAR LCLK 290400Z 32005KT CAVOK 16/15 Q1012 NOSIG,1,0,0,9999,0,0,0,
2026-04-29 03:30:00,METAR LCLK 290330Z 30005KT CAVOK 15/14 Q1012 NOSIG,1,0,0,9999,0,0,0,
2026-04-29 03:00:00,METAR LCLK 290300Z 31004KT 270V330 CAVOK 15/14 Q1012 NOSIG,1,0,0,9999,0,0,0,
2026-04-29 02:30:00,METAR LCLK 290230Z 33004KT CAVOK 15/15 Q1012 NOSIG,1,0,0,9999,0,0,0,
2026-04-29 02:00:00,METAR LCLK 290200Z 34004KT 9999 FEW008 16/15 Q1011 NOSIG,0,4,0,10000,0,0,0,
2026-04-29 01:30:00,METAR LCLK 290130Z 33005KT 9999 FEW008 16/15 Q1011 NOSIG,0,5,0,10000,0,0,0,
2026-04-29 01:00:00,METAR LCLK 290100Z 34004KT 9000 FEW007 16/16 Q1012 NOSIG,0,4,0,9000,0,0,0,
2026-04-29 00:30:00,METAR LCLK 290030Z 33004KT 9000 SCT006 17/16 Q1012 NOSIG,0,4,0,9000,0,0,0,
2026-04-29 00:00:00,METAR LCLK 290000Z VRB02KT 9000 BKN006 17/16 Q1011 NOSIG,0,2,0,9000,0,0,0,
2026-04-28 23:30:00,METAR LCLK 282330Z VRB03KT 9000 SCT008 16/16 Q1011 NOSIG,0,3,0,9000,0,0,0,
2026-04-28 23:00:00,METAR LCLK 282300Z 12003KT CAVOK 17/16 Q1011 NOSIG,1,0,0,9999,0,0,0,
2026-04-28 22:30:00,METAR LCLK 282230Z 17002KT CAVOK 17/16 Q1012 NOSIG,1,0,0,9999,0,0,0,
2026-04-28 22:00:00,METAR LCLK 282200Z 00000KT CAVOK 17/16 Q1012 NOSIG,1,0,0,9999,0,0,0,
2026-04-28 21:30:00,METAR LCLK 282130Z VRB01KT CAVOK 18/17 Q1012 NOSIG,1,0,0,9999,0,0,0,
2026-04-28 21:00:00,METAR LCLK 282100Z 35005KT 320V020 CAVOK 18/17 Q1012 NOSIG,1,0,0,9999,0,0,0,
2026-04-28 20:30:00,METAR LCLK 282030Z 36004KT 330V060 CAVOK 18/17 Q1012 NOSIG,1,0,0,9999,0,0,0,
2026-04-28 20:00:00,METAR LCLK 282000Z 35004KT 270V040 CAVOK 18/17 Q1012 NOSIG,1,0,0,9999,0,0,0,
2026-04-28 19:30:00,METAR LCLK 281930Z 22003KT CAVOK 19/17 Q1012 NOSIG,1,0,0,9999,0,0,0,
2026-04-28 19:00:00,METAR LCLK 281900Z 22004KT CAVOK 19/18 Q1012 NOSIG,1,0,0,9999,0,0,0,
2026-04-28 18:30:00,METAR LCLK 281830Z 22007KT CAVOK 20/18 Q1011 NOSIG,1,0,0,9999,0,0,0,
2026-04-28 18:00:00,METAR LCLK 281800Z 22008KT CAVOK 20/18 Q1011 NOSIG,1,0,0,9999,0,0,0,
2026-04-28 17:30:00,METAR LCLK 281730Z 22008KT CAVOK 20/18 Q1011 NOSIG,1,0,0,9999,0,0,0,
2026-04-28 17:00:00,METAR LCLK 281700Z 23009KT CAVOK 20/18 Q1010 NOSIG,1,0,0,9999,0,0,0,
2026-04-28 16:30:00,METAR LCLK 281630Z 22012KT CAVOK 21/19 Q1010 NOSIG,1,0,0,9999,0,0,0,
2026-04-28 16:00:00,METAR LCLK 281600Z 21015KT CAVOK 21/19 Q1010 NOSIG,1,0,0,9999,0,0,0,
2026-04-28 15:30:00,METAR LCLK 281530Z 22016KT 9999 FEW030 22/19 Q1010 NOSIG,0,16,0,10000,0,0,0,
2026-04-28 15:00:00,METAR LCLK 281500Z 22016KT 9999 FEW030 22/19 Q1010 NOSIG,0,16,0,10000,0,0,0,
2026-04-28 14:30:00,METAR LCLK 281430Z 22017KT 9999 FEW030 23/19 Q1010 NOSIG,0,17,0,10000,0,0,0,
2026-04-28 14:00:00,METAR LCLK 281400Z 22014KT 9999 FEW020 FEW040CB 24/20 Q1010 NOSIG RMK CB TO NE,0,14,0,10000,0,0,0,
2026-04-28 13:30:00,METAR LCLK 281330Z 21012KT 9999 FEW020 FEW040CB 25/19 Q1010 NOSIG RMK CB TO NE,0,12,0,10000,0,0,0,
2026-04-28 13:00:00,METAR LCLK 281300Z 19011KT 9999 FEW020 FEW030TCU FEW040CB 25/19 Q1011 NOSIG RMK CB TO N,0,11,0,10000,0,0,0,
2026-04-28 12:30:00,METAR LCLK 281230Z 23012KT 9999 FEW020 FEW030TCU FEW040CB 24/19 Q1011 NOSIG RMK CB TO W AND N,0,12,0,10000,0,0,0,
2026-04-28 12:00:00,METAR LCLK 281200Z 21017KT 9999 FEW020 FEW030TCU FEW040CB 24/19 Q1011 NOSIG RMK CB TO W AND N,0,17,0,10000,0,0,0,
2026-04-28 11:30:00,METAR LCLK 281130Z 21017KT 9999 FEW020 FEW030TCU FEW040CB 23/19 Q1011 NOSIG RMK CB TO W AND N,0,17,0,10000,0,0,0,
2026-04-28 11:00:00,METAR LCLK 281100Z 21016KT 9999 FEW020 FEW030TCU FEW040CB 23/19 Q1012 NOSIG RMK CB TO W,0,16,0,10000,0,0,0,
2026-04-28 10:30:00,METAR LCLK 281030Z 22016KT 9999 FEW020 FEW040CB 24/19 Q1012 NOSIG RMK CB TO W,0,16,0,10000,0,0,0,
2026-04-28 10:00:00,METAR LCLK 281000Z 21016KT 9999 FEW020 FEW040CB 24/19 Q1012 NOSIG RMK CB TO W,0,16,0,10000,0,0,0,
2026-04-28 09:30:00,METAR LCLK 280930Z 21014KT 9999 FEW020 FEW040CB 25/19 Q1012 NOSIG RMK CB TO W,0,14,0,10000,0,0,0,
2026-04-28 09:00:00,METAR LCLK 280900Z 19012KT 9999 FEW020 FEW030CB 25/19 Q1012 NOSIG RMK CB TO W,0,12,0,10000,0,0,0,
2026-04-28 08:30:00,METAR LCLK 280830Z 19010KT 9999 FEW020 FEW030CB 24/19 Q1012 NOSIG RMK CB TO W,0,10,0,10000,0,0,0,
2026-04-28 08:00:00,METAR LCLK 280800Z 16008KT 140V200 9999 FEW020 23/19 Q1012 NOSIG,0,8,0,10000,0,0,0,
2026-04-28 07:30:00,METAR LCLK 280730Z 15006KT 120V190 9999 FEW020 23/19 Q1012 NOSIG,0,6,0,10000,0,0,0,
2026-04-28 07:00:00,METAR LCLK 280700Z 17005KT 130V210 9000 FEW020 22/19 Q1013 NOSIG,0,5,0,9000,0,0,0,
2026-04-28 06:30:00,METAR LCLK 280630Z 12005KT 100V180 8000 FEW008 22/19 Q1012 NOSIG,0,5,0,8000,0,0,0,
2026-04-28 06:00:00,METAR LCLK 280600Z 13005KT 100V180 9999 FEW008 21/18 Q1012 NOSIG,0,5,0,10000,0,0,0,
2026-04-28 05:30:00,METAR LCLK 280530Z 13005KT 9999 FEW012 21/18 Q1012 NOSIG,0,5,0,10000,0,0,0,
2026-04-28 05:00:00,METAR LCLK 280500Z 13004KT 090V160 9999 FEW012 20/17 Q1012 NOSIG,0,4,0,10000,0,0,0,
2026-04-28 04:30:00,METAR LCLK 280430Z VRB03KT 9999 FEW012 19/16 Q1012 NOSIG,0,3,0,10000,0,0,0,
2026-04-28 04:00:00,METAR LCLK 280400Z 20002KT CAVOK 18/16 Q1012 NOSIG,1,0,0,9999,0,0,0,
2026-04-28 03:30:00,METAR LCLK 280330Z 21004KT CAVOK 16/14 Q1011 NOSIG,1,0,0,9999,0,0,0,
2026-04-28 03:00:00,METAR LCLK 280300Z 29005KT CAVOK 15/13 Q1011 NOSIG,1,0,0,9999,0,0,0,
2026-04-28 02:30:00,METAR LCLK 280230Z 33006KT CAVOK 16/14 Q1011 NOSIG,1,0,0,9999,0,0,0,
2026-04-28 02:00:00,METAR LCLK 280200Z 31004KT 270V340 CAVOK 16/15 Q1011 NOSIG,1,0,0,9999,0,0,0,
2026-04-28 01:30:00,METAR LCLK 280130Z 27002KT CAVOK 16/15 Q1011 NOSIG,1,0,0,9999,0,0,0,
2026-04-28 01:00:00,METAR LCLK 280100Z 26003KT CAVOK 16/15 Q1011 NOSIG,1,0,0,9999,0,0,0,
2026-04-28 00:30:00,METAR LCLK 280030Z 30002KT CAVOK 16/15 Q1011 NOSIG,1,0,0,9999,0,0,0,
2026-04-28 00:00:00,METAR LCLK 280000Z 29004KT CAVOK 16/15 Q1011 NOSIG,1,0,0,9999,0,0,0,
2026-04-27 23:30:00,METAR LCLK 272330Z 30004KT CAVOK 16/15 Q1012 NOSIG,1,0,0,9999,0,0,0,
2026-04-27 23:00:00,METAR LCLK 272300Z 30004KT CAVOK 16/15 Q1012 NOSIG,1,0,0,9999,0,0,0,
2026-04-27 22:30:00,METAR LCLK 272230Z 30004KT CAVOK 16/15 Q1012 NOSIG,1,0,0,9999,0,0,0,
2026-04-27 22:00:00,METAR LCLK 272200Z 27003KT CAVOK 17/16 Q1012 NOSIG,1,0,0,9999,0,0,0,
2026-04-27 21:30:00,METAR LCLK 272130Z 00000KT CAVOK 18/16 Q1012 NOSIG,1,0,0,9999,0,0,0,
2026-04-27 21:00:00,METAR LCLK 272100Z 32003KT 280V340 CAVOK 18/16 Q1012 NOSIG,1,0,0,9999,0,0,0,
2026-04-27 20:30:00,METAR LCLK 272030Z VRB03KT CAVOK 18/16 Q1012 NOSIG,1,0,0,9999,0,0,0,
2026-04-27 20:00:00,METAR LCLK 272000Z 33005KT 290V360 CAVOK 18/16 Q1012 NOSIG,1,0,0,9999,0,0,0,
2026-04-27 19:30:00,METAR LCLK 271930Z 30004KT CAVOK 18/16 Q1013 NOSIG,1,0,0,9999,0,0,0,
2026-04-27 19:00:00,METAR LCLK 271900Z VRB01KT CAVOK 19/17 Q1013 NOSIG,1,0,0,9999,0,0,0,
2026-04-27 18:30:00,METAR LCLK 271830Z 00000KT CAVOK 20/17 Q1013 NOSIG,1,0,0,9999,0,0,0,
2026-04-27 18:00:00,METAR LCLK 271800Z 21005KT CAVOK 20/17 Q1012 NOSIG,1,0,0,9999,0,0,0,
2026-04-27 17:30:00,METAR LCLK 271730Z 18003KT CAVOK 21/17 Q1012 NOSIG,1,0,0,9999,0,0,0,
2026-04-27 17:00:00,METAR LCLK 271700Z 25004KT CAVOK 21/17 Q1011 NOSIG,1,0,0,9999,0,0,0,
2026-04-27 16:30:00,METAR LCLK 271630Z 31010KT 9999 FEW050 22/17 Q1011 NOSIG,0,10,0,10000,0,0,0,
2026-04-27 16:00:00,METAR LCLK 271600Z 31009KT 270V340 9999 FEW050 23/18 Q1010 NOSIG,0,9,0,10000,0,0,0,
2026-04-27 15:30:00,METAR LCLK 271530Z 23008KT 200V260 9999 FEW025 23/17 Q1010 NOSIG,0,8,0,10000,0,0,0,
2026-04-27 15:00:00,METAR LCLK 271500Z 23010KT 9999 FEW025 24/15 Q1010 NOSIG,0,10,0,10000,0,0,0,
2026-04-27 14:30:00,METAR LCLK 271430Z 21008KT 9999 FEW025 24/16 Q1011 NOSIG,0,8,0,10000,0,0,0,
2026-04-27 14:00:00,METAR LCLK 271400Z 21009KT 180V240 9999 FEW025 24/16 Q1011 NOSIG,0,9,0,10000,0,0,0,
2026-04-27 13:30:00,METAR LCLK 271330Z 21010KT 9999 FEW025 24/16 Q1011 NOSIG,0,10,0,10000,0,0,0,
2026-04-27 13:00:00,METAR LCLK 271300Z 20010KT 9999 FEW025 24/16 Q1011 NOSIG,0,10,0,10000,0,0,0,
2026-04-27 12:30:00,METAR LCLK 271230Z 18011KT 9999 FEW025 25/16 Q1012 NOSIG,0,11,0,10000,0,0,0,
2026-04-27 12:00:00,METAR LCLK 271200Z 19009KT 150V220 9999 FEW025 24/16 Q1012 NOSIG,0,9,0,10000,0,0,0,
2026-04-27 11:30:00,METAR LCLK 271130Z 18010KT 9999 FEW025 24/17 Q1012 NOSIG,0,10,0,10000,0,0,0,
2026-04-27 11:00:00,METAR LCLK 271100Z 19009KT 160V220 9999 FEW020 24/16 Q1013 NOSIG,0,9,0,10000,0,0,0,
2026-04-27 10:30:00,METAR LCLK 271030Z 19010KT 9999 FEW020 23/17 Q1013 NOSIG,0,10,0,10000,0,0,0,
2026-04-27 10:00:00,METAR LCLK 271000Z 19010KT 160V220 9999 FEW020 23/17 Q1013 NOSIG,0,10,0,10000,0,0,0,
2026-04-27 09:30:00,METAR LCLK 270930Z 17010KT 120V210 9999 FEW020 23/17 Q1013 NOSIG,0,10,0,10000,0,0,0,
2026-04-27 09:00:00,METAR LCLK 270900Z 17009KT 140V200 9999 FEW020 22/17 Q1013 NOSIG,0,9,0,10000,0,0,0,
2026-04-27 08:30:00,METAR LCLK 270830Z 17009KT 9999 FEW020 22/17 Q1013 NOSIG,0,9,0,10000,0,0,0,
2026-04-27 08:00:00,METAR LCLK 270800Z 17008KT 9999 SCT020 22/17 Q1013 NOSIG,0,8,0,10000,0,0,0,
2026-04-27 07:30:00,METAR LCLK 270730Z 16008KT 9999 FEW020 SCT025 22/17 Q1013 NOSIG,0,8,0,10000,0,0,0,
2026-04-27 07:00:00,METAR LCLK 270700Z 19007KT 150V290 9999 SCT016 SCT024 22/17 Q1013 NOSIG,0,7,0,10000,0,0,0,
2026-04-27 06:30:00,METAR LCLK 270630Z 18005KT 140V240 9999 FEW015 BKN018 22/17 Q1013 NOSIG,0,5,0,10000,0,0,0,
2026-04-27 06:00:00,METAR LCLK 270600Z 23004KT 190V290 9999 SCT012 BKN016 20/17 Q1012 NOSIG,0,4,0,10000,0,0,0,
2026-04-27 05:30:00,METAR LCLK 270530Z 27003KT 170V320 7000 SCT009 BKN018 19/17 Q1012 TEMPO 5000 BR BKN008,0,3,0,7000,0,0,1,BR
2026-04-27 05:00:00,METAR LCLK 270500Z 28004KT 7000 SCT007 BKN016 18/17 Q1012 TEMPO 5000 BR BKN008,0,4,0,7000,0,0,1,BR
2026-04-27 04:30:00,METAR LCLK 270430Z 31004KT 7000 SCT007 BKN013 18/16 Q1012 TEMPO 5000 BR BKN008,0,4,0,7000,0,0,1,BR
2026-04-27 04:00:00,METAR LCLK 270400Z 19005KT 7000 FEW020 17/16 Q1011 NOSIG,0,5,0,7000,0,0,0,
2026-04-27 03:30:00,METAR LCLK 270330Z 19006KT 7000 FEW020 SCT030 16/16 Q1011 NOSIG,0,6,0,7000,0,0,0,
2026-04-27 03:00:00,METAR LCLK 270300Z 20003KT 7000 FEW020 SCT030 16/15 Q1011 NOSIG,0,3,0,7000,0,0,0,
2026-04-27 02:30:00,METAR LCLK 270230Z 19004KT 9999 SCT030 15/15 Q1011 NOSIG,0,4,0,10000,0,0,0,
2026-04-27 02:00:00,METAR LCLK 270200Z 33006KT 9999 FEW030 16/15 Q1011 NOSIG,0,6,0,10000,0,0,0,
2026-04-27 01:30:00,METAR LCLK 270130Z 32008KT 9999 SCT030 15/15 Q1011 NOSIG,0,8,0,10000,0,0,0,
2026-04-27 01:00:00,METAR LCLK 270100Z 30004KT 9999 SCT030 15/14 Q1011 NOSIG,0,4,0,10000,0,0,0,
2026-04-27 00:30:00,METAR LCLK 270030Z 20004KT 9999 FEW008 15/14 Q1011 NOSIG,0,4,0,10000,0,0,0,
2026-04-27 00:00:00,METAR LCLK 270000Z 00000KT 9999 FEW008 16/15 Q1011 NOSIG,0,0,0,10000,0,0,0,
2026-04-26 23:30:00,METAR LCLK 262330Z VRB03KT 9999 FEW008 16/15 Q1011 NOSIG,0,3,0,10000,0,0,0,
2026-04-26 23:00:00,METAR LCLK 262300Z 26005KT 9999 FEW008 16/15 Q1011 NOSIG,0,5,0,10000,0,0,0,
2026-04-26 22:30:00,METAR LCLK 262230Z 27004KT CAVOK 16/15 Q1011 NOSIG,1,0,0,9999,0,0,0,
2026-04-26 22:00:00,METAR LCLK 262200Z VRB03KT CAVOK 16/15 Q1011 NOSIG,1,0,0,9999,0,0,0,
2026-04-26 21:30:00,METAR LCLK 262130Z 30004KT CAVOK 17/16 Q1011 NOSIG,1,0,0,9999,0,0,0,
2026-04-26 21:00:00,METAR LCLK 262100Z 26004KT 230V300 CAVOK 18/17 Q1011 NOSIG,1,0,0,9999,0,0,0,
2026-04-26 20:30:00,METAR LCLK 262030Z 21005KT CAVOK 19/18 Q1010 NOSIG,1,0,0,9999,0,0,0,
2026-04-26 20:00:00,METAR LCLK 262000Z 22008KT CAVOK 19/18 Q1010 NOSIG,1,0,0,9999,0,0,0,
2026-04-26 19:30:00,METAR LCLK 261930Z 20007KT 9999 FEW030 19/17 Q1010 NOSIG,0,7,0,10000,0,0,0,
2026-04-26 19:00:00,METAR LCLK 261900Z 34004KT 300V360 9999 FEW030 18/16 Q1010 NOSIG,0,4,0,10000,0,0,0,
2026-04-26 18:30:00,METAR LCLK 261830Z 32004KT 270V340 9999 FEW030 19/16 Q1009 NOSIG,0,4,0,10000,0,0,0,
2026-04-26 18:00:00,METAR LCLK 261800Z VRB03KT 9999 FEW030 20/16 Q1009 NOSIG,0,3,0,10000,0,0,0,
2026-04-26 17:30:00,METAR LCLK 261730Z VRB02KT 9999 FEW030 20/17 Q1009 NOSIG,0,2,0,10000,0,0,0,
2026-04-26 17:00:00,METAR LCLK 261700Z 22004KT 9999 FEW030 21/17 Q1009 NOSIG,0,4,0,10000,0,0,0,
2026-04-26 16:30:00,METAR LCLK 261630Z 25004KT 9999 FEW030 22/17 Q1009 NOSIG,0,4,0,10000,0,0,0,
2026-04-26 16:00:00,METAR LCLK 261600Z 23008KT 9999 FEW030 22/18 Q1009 NOSIG,0,8,0,10000,0,0,0,
2026-04-26 15:30:00,METAR LCLK 261530Z 20010G21KT 180V240 9999 FEW030 23/18 Q1009 NOSIG,0,10,1,10000,0,0,0,
2026-04-26 15:00:00,METAR LCLK 261500Z 13004KT 090V170 9999 FEW030 24/18 Q1009 NOSIG,0,4,0,10000,0,0,0,
2026-04-26 14:30:00,METAR LCLK 261430Z 09006KT 9999 FEW030 24/18 Q1009 NOSIG,0,6,0,10000,0,0,0,
2026-04-26 14:00:00,METAR LCLK 261400Z 08008KT 050V120 9999 FEW030 27/16 Q1008 NOSIG,0,8,0,10000,0,0,0,
2026-04-26 13:30:00,METAR LCLK 261330Z 07010KT 9999 FEW030 27/15 Q1008 NOSIG,0,10,0,10000,0,0,0,
2026-04-26 13:00:00,METAR LCLK 261300Z 06009KT 9999 FEW030 27/16 Q1008 NOSIG,0,9,0,10000,0,0,0,
2026-04-26 12:30:00,METAR LCLK 261230Z 07011KT 9999 FEW030 27/18 Q1009 NOSIG,0,11,0,10000,0,0,0,
2026-04-26 12:00:00,METAR LCLK 261200Z 05015KT 9999 FEW030 27/16 Q1009 NOSIG,0,15,0,10000,0,0,0,
2026-04-26 11:30:00,METAR LCLK 261130Z 04007KT 360V070 9999 FEW030 25/17 Q1010 NOSIG,0,7,0,10000,0,0,0,
2026-04-26 11:00:00,METAR LCLK 261100Z 10012KT 9999 FEW030 26/16 Q1011 NOSIG,0,12,0,10000,0,0,0,
2026-04-26 10:30:00,METAR LCLK 261030Z 05007KT 350V110 9999 FEW030 26/15 Q1011 NOSIG,0,7,0,10000,0,0,0,
2026-04-26 10:00:00,METAR LCLK 261000Z 04011KT 9999 FEW030 26/15 Q1011 NOSIG,0,11,0,10000,0,0,0,
2026-04-26 09:30:00,METAR LCLK 260930Z 03011KT 9999 FEW030 26/15 Q1010 NOSIG,0,11,0,10000,0,0,0,
2026-04-26 09:00:00,METAR LCLK 260900Z 08003KT 050V110 9999 FEW030 25/15 Q1011 NOSIG,0,3,0,10000,0,0,0,
2026-04-26 08:30:00,METAR LCLK 260830Z VRB01KT 9999 FEW030 25/16 Q1012 NOSIG,0,1,0,10000,0,0,0,
2026-04-26 08:00:00,METAR LCLK 260800Z 06003KT 020V130 9999 FEW030 26/15 Q1011 NOSIG,0,3,0,10000,0,0,0,
2026-04-26 07:30:00,METAR LCLK 260730Z VRB02KT 9999 FEW030 26/15 Q1012 NOSIG,0,2,0,10000,0,0,0,
2026-04-26 07:00:00,METAR LCLK 260700Z 05006KT 020V090 9999 FEW030 25/15 Q1011 NOSIG,0,6,0,10000,0,0,0,
2026-04-26 06:30:00,METAR LCLK 260630Z 35004KT 290V030 9999 FEW030 25/14 Q1011 NOSIG,0,4,0,10000,0,0,0,
2026-04-26 06:00:00,METAR LCLK 260600Z 04006KT 9999 FEW030 24/15 Q1010 NOSIG,0,6,0,10000,0,0,0,
2026-04-26 05:30:00,METAR LCLK 260530Z 03007KT 9999 FEW030 24/14 Q1010 NOSIG,0,7,0,10000,0,0,0,
2026-04-26 05:00:00,METAR LCLK 260500Z 02005KT 350V050 9999 FEW030 24/13 Q1010 NOSIG,0,5,0,10000,0,0,0,
2026-04-26 04:30:00,METAR LCLK 260430Z 33003KT 9999 FEW030 22/12 Q1009 NOSIG,0,3,0,10000,0,0,0,
2026-04-26 04:00:00,METAR LCLK 260400Z 32005KT 9999 FEW030 20/12 Q1009 NOSIG,0,5,0,10000,0,0,0,
2026-04-26 03:30:00,METAR LCLK 260330Z 32005KT 9999 FEW030 19/11 Q1009 NOSIG,0,5,0,10000,0,0,0,
2026-04-26 03:00:00,METAR LCLK 260300Z 32006KT 310V020 9999 FEW030 18/11 Q1009 NOSIG,0,6,0,10000,0,0,0,
2026-04-26 02:30:00,METAR LCLK 260230Z 33005KT 9999 FEW030 19/11 Q1009 NOSIG,0,5,0,10000,0,0,0,
2026-04-26 02:00:00,METAR LCLK 260200Z 31005KT 9999 FEW030 19/11 Q1009 NOSIG,0,5,0,10000,0,0,0,
2026-04-26 01:30:00,METAR LCLK 260130Z 33005KT CAVOK 18/11 Q1009 NOSIG,1,0,0,9999,0,0,0,
2026-04-26 01:00:00,METAR LCLK 260100Z 34006KT CAVOK 17/11 Q1009 NOSIG,1,0,0,9999,0,0,0,
2026-04-26 00:30:00,METAR LCLK 260030Z 32005KT CAVOK 17/12 Q1009 NOSIG,1,0,0,9999,0,0,0,
2026-04-26 00:00:00,METAR LCLK 260000Z 32005KT 290V030 CAVOK 17/11 Q1009 NOSIG,1,0,0,9999,0,0,0,
2026-04-25 23:30:00,METAR LCLK 252330Z 32005KT CAVOK 17/11 Q1009 NOSIG,1,0,0,9999,0,0,0,
2026-04-25 23:00:00,METAR LCLK 252300Z 31006KT CAVOK 17/11 Q1010 NOSIG,1,0,0,9999,0,0,0,
2026-04-25 22:30:00,METAR LCLK 252230Z 32005KT CAVOK 17/12 Q1010 NOSIG,1,0,0,9999,0,0,0,
2026-04-25 22:00:00,METAR LCLK 252200Z 31004KT CAVOK 17/12 Q1010 NOSIG,1,0,0,9999,0,0,0,
2026-04-25 21:30:00,METAR LCLK 252130Z 32004KT CAVOK 18/12 Q1010 NOSIG,1,0,0,9999,0,0,0,
2026-04-25 21:00:00,METAR LCLK 252100Z 31004KT CAVOK 18/12 Q1011 NOSIG,1,0,0,9999,0,0,0,
2026-04-25 20:30:00,METAR LCLK 252030Z 31006KT CAVOK 18/13 Q1011 NOSIG,1,0,0,9999,0,0,0,
2026-04-25 20:00:00,METAR LCLK 252000Z 31007KT CAVOK 19/12 Q1011 NOSIG,1,0,0,9999,0,0,0,
2026-04-25 19:30:00,METAR LCLK 251930Z 30005KT CAVOK 17/12 Q1011 NOSIG,1,0,0,9999,0,0,0,
2026-04-25 19:00:00,METAR LCLK 251900Z 33004KT 280V060 CAVOK 19/13 Q1011 NOSIG,1,0,0,9999,0,0,0,
2026-04-25 18:30:00,METAR LCLK 251830Z 34005KT 310V040 CAVOK 19/14 Q1011 NOSIG,1,0,0,9999,0,0,0,
2026-04-25 18:00:00,METAR LCLK 251800Z 34005KT 330V050 CAVOK 20/14 Q1011 NOSIG,1,0,0,9999,0,0,0,
2026-04-25 17:30:00,METAR LCLK 251730Z 01007KT 9999 FEW030 23/15 Q1010 NOSIG,0,7,0,10000,0,0,0,
2026-04-25 17:00:00,METAR LCLK 251700Z 02006KT 9999 FEW030 23/14 Q1010 NOSIG,0,6,0,10000,0,0,0,
2026-04-25 16:30:00,METAR LCLK 251630Z 02006KT 9999 FEW030TCU 23/15 Q1010 NOSIG,0,6,0,10000,0,0,0,
2026-04-25 16:00:00,METAR LCLK 251600Z 04006KT CAVOK 23/14 Q1010 NOSIG,1,0,0,9999,0,0,0,
2026-04-25 15:30:00,METAR LCLK 251530Z 07007KT CAVOK 24/15 Q1010 NOSIG,1,0,0,9999,0,0,0,
2026-04-25 15:00:00,METAR LCLK 251500Z 07006KT CAVOK 25/16 Q1010 NOSIG,1,0,0,9999,0,0,0,
2026-04-25 14:30:00,METAR LCLK 251430Z 07008KT CAVOK 25/17 Q1010 NOSIG,1,0,0,9999,0,0,0,
2026-04-25 14:00:00,METAR LCLK 251400Z 07010KT CAVOK 25/16 Q1010 NOSIG,1,0,0,9999,0,0,0,
2026-04-25 13:30:00,METAR LCLK 251330Z 08009KT CAVOK 25/18 Q1010 NOSIG,1,0,0,9999,0,0,0,
2026-04-25 13:00:00,METAR LCLK 251300Z 09011KT CAVOK 24/18 Q1010 NOSIG,1,0,0,9999,0,0,0,
2026-04-25 12:30:00,METAR LCLK 251230Z 10011KT CAVOK 24/18 Q1010 NOSIG,1,0,0,9999,0,0,0,
2026-04-25 12:00:00,METAR LCLK 251200Z 10010KT CAVOK 25/18 Q1010 NOSIG,1,0,0,9999,0,0,0,
2026-04-25 11:30:00,METAR LCLK 251130Z 08009KT CAVOK 26/17 Q1011 NOSIG,1,0,0,9999,0,0,0,
2026-04-25 11:00:00,METAR LCLK 251100Z 07008KT CAVOK 25/17 Q1011 NOSIG,1,0,0,9999,0,0,0,
2026-04-25 10:30:00,METAR LCLK 251030Z 06009KT CAVOK 25/17 Q1011 NOSIG,1,0,0,9999,0,0,0,
2026-04-25 10:00:00,METAR LCLK 251000Z 04010KT CAVOK 25/17 Q1011 NOSIG,1,0,0,9999,0,0,0,
2026-04-25 09:30:00,METAR LCLK 250930Z 05008KT CAVOK 24/16 Q1011 NOSIG,1,0,0,9999,0,0,0,
2026-04-25 09:00:00,METAR LCLK 250900Z 07007KT CAVOK 23/17 Q1012 NOSIG,1,0,0,9999,0,0,0,
2026-04-25 08:30:00,METAR LCLK 250830Z 07008KT CAVOK 23/16 Q1012 NOSIG,1,0,0,9999,0,0,0,
2026-04-25 08:00:00,METAR LCLK 250800Z 05009KT CAVOK 22/16 Q1012 NOSIG,1,0,0,9999,0,0,0,
2026-04-25 07:30:00,METAR LCLK 250730Z 04008KT CAVOK 22/17 Q1012 NOSIG,1,0,0,9999,0,0,0,
2026-04-25 07:00:00,METAR LCLK 250700Z 03010KT CAVOK 21/17 Q1012 NOSIG,1,0,0,9999,0,0,0,
2026-04-25 06:30:00,METAR LCLK 250630Z 03011KT CAVOK 21/16 Q1012 NOSIG,1,0,0,9999,0,0,0,
2026-04-25 06:00:00,METAR LCLK 250600Z 03010KT CAVOK 20/16 Q1012 NOSIG,1,0,0,9999,0,0,0,
2026-04-25 05:30:00,METAR LCLK 250530Z 03009KT CAVOK 20/16 Q1012 NOSIG,1,0,0,9999,0,0,0,
2026-04-25 05:00:00,METAR LCLK 250500Z 02007KT CAVOK 19/17 Q1012 NOSIG,1,0,0,9999,0,0,0,
2026-04-25 04:30:00,METAR LCLK 250430Z 02006KT 9999 FEW030 18/17 Q1012 NOSIG,0,6,0,10000,0,0,0,
2026-04-25 04:00:00,METAR LCLK 250400Z 02008KT 9999 FEW030 18/17 Q1012 NOSIG,0,8,0,10000,0,0,0,
2026-04-25 03:30:00,METAR LCLK 250330Z 02008KT CAVOK 18/17 Q1011 NOSIG,1,0,0,9999,0,0,0,
2026-04-25 03:00:00,METAR LCLK 250300Z 05008KT CAVOK 18/17 Q1011 NOSIG,1,0,0,9999,0,0,0,
2026-04-25 02:30:00,METAR LCLK 250230Z 04010KT CAVOK 18/17 Q1011 NOSIG,1,0,0,9999,0,0,0,
2026-04-25 02:00:00,METAR LCLK 250200Z 05010KT CAVOK 18/17 Q1011 NOSIG,1,0,0,9999,0,0,0,
2026-04-25 01:30:00,METAR LCLK 250130Z 04009KT 9999 FEW030 18/16 Q1011 NOSIG,0,9,0,10000,0,0,0,
2026-04-25 01:00:00,METAR LCLK 250100Z 03011KT 9999 FEW030 18/17 Q1011 NOSIG,0,11,0,10000,0,0,0,
2026-04-25 00:30:00,METAR LCLK 250030Z 05008KT CAVOK 18/16 Q1011 NOSIG,1,0,0,9999,0,0,0,
2026-04-25 00:00:00,METAR LCLK 250000Z 04009KT CAVOK 18/16 Q1011 NOSIG,1,0,0,9999,0,0,0,
2026-04-24 23:30:00,METAR LCLK 242330Z 03011KT CAVOK 18/15 Q1011 NOSIG,1,0,0,9999,0,0,0,
2026-04-24 23:00:00,METAR LCLK 242300Z 03013KT CAVOK 18/15 Q1011 NOSIG,1,0,0,9999,0,0,0,
2026-04-24 22:30:00,METAR LCLK 242230Z 04009KT CAVOK 18/15 Q1011 NOSIG,1,0,0,9999,0,0,0,
2026-04-24 22:00:00,METAR LCLK 242200Z 01005KT 330V040 CAVOK 16/15 Q1011 NOSIG,1,0,0,9999,0,0,0,
2026-04-24 21:30:00,METAR LCLK 242130Z 31002KT CAVOK 16/15 Q1011 NOSIG,1,0,0,9999,0,0,0,
2026-04-24 21:00:00,METAR LCLK 242100Z 36005KT CAVOK 17/15 Q1011 NOSIG,1,0,0,9999,0,0,0,
2026-04-24 20:30:00,METAR LCLK 242030Z 35004KT 300V020 CAVOK 18/15 Q1011 NOSIG,1,0,0,9999,0,0,0,
2026-04-24 20:00:00,METAR LCLK 242000Z 33007KT CAVOK 18/15 Q1011 NOSIG,1,0,0,9999,0,0,0,
2026-04-24 19:30:00,METAR LCLK 241930Z 33007KT CAVOK 18/15 Q1012 NOSIG,1,0,0,9999,0,0,0,
2026-04-24 19:00:00,METAR LCLK 241900Z 33007KT 9999 FEW030 19/16 Q1012 NOSIG,0,7,0,10000,0,0,0,
2026-04-24 18:30:00,METAR LCLK 241830Z 33009KT 280V350 9999 FEW030 19/16 Q1012 NOSIG,0,9,0,10000,0,0,0,
2026-04-24 18:00:00,METAR LCLK 241800Z 30004KT 9999 FEW030 19/15 Q1011 NOSIG,0,4,0,10000,0,0,0,
2026-04-24 17:30:00,METAR LCLK 241730Z 26004KT 9999 FEW030 19/16 Q1011 NOSIG,0,4,0,10000,0,0,0,
2026-04-24 17:00:00,METAR LCLK 241700Z 22005KT 9999 FEW030 20/16 Q1011 NOSIG,0,5,0,10000,0,0,0,
2026-04-24 16:30:00,METAR LCLK 241630Z 22006KT 9999 FEW030 20/16 Q1011 NOSIG,0,6,0,10000,0,0,0,
2026-04-24 16:00:00,METAR LCLK 241600Z 22007KT 9999 FEW030 21/15 Q1011 NOSIG,0,7,0,10000,0,0,0,
2026-04-24 15:30:00,METAR LCLK 241530Z 21006KT 9999 FEW030 21/15 Q1011 NOSIG,0,6,0,10000,0,0,0,
2026-04-24 15:00:00,METAR LCLK 241500Z 21007KT 9999 FEW030 22/15 Q1010 NOSIG,0,7,0,10000,0,0,0,
2026-04-24 14:30:00,METAR LCLK 241430Z 21008KT 190V250 9999 FEW030 22/16 Q1010 NOSIG,0,8,0,10000,0,0,0,
2026-04-24 14:00:00,METAR LCLK 241400Z 19009KT 9999 FEW030 23/15 Q1010 NOSIG,0,9,0,10000,0,0,0,
2026-04-24 13:30:00,METAR LCLK 241330Z 18009KT 9999 FEW030 23/14 Q1010 NOSIG,0,9,0,10000,0,0,0,
2026-04-24 13:00:00,METAR LCLK 241300Z 18010KT 9999 FEW030 23/15 Q1010 NOSIG,0,10,0,10000,0,0,0,
2026-04-24 12:30:00,METAR LCLK 241230Z 16009KT 9999 FEW030 24/15 Q1010 NOSIG,0,9,0,10000,0,0,0,
2026-04-24 12:00:00,METAR LCLK 241200Z 16008KT 130V210 9999 FEW030 24/15 Q1010 NOSIG,0,8,0,10000,0,0,0,
2026-04-24 11:30:00,METAR LCLK 241130Z 18007KT 130V220 9999 FEW030 23/15 Q1011 NOSIG,0,7,0,10000,0,0,0,
2026-04-24 11:00:00,METAR LCLK 241100Z 16009KT 9999 FEW030 23/15 Q1011 NOSIG,0,9,0,10000,0,0,0,
2026-04-24 10:30:00,METAR LCLK 241030Z 16006KT 110V190 9999 FEW030 22/15 Q1011 NOSIG,0,6,0,10000,0,0,0,
2026-04-24 10:00:00,METAR LCLK 241000Z 13008KT 9999 FEW030 22/16 Q1011 NOSIG,0,8,0,10000,0,0,0,
2026-04-24 09:30:00,METAR LCLK 240930Z 12009KT 9999 FEW020 22/16 Q1012 NOSIG,0,9,0,10000,0,0,0,
2026-04-24 09:00:00,METAR LCLK 240900Z 12008KT 9999 FEW020 22/16 Q1012 NOSIG,0,8,0,10000,0,0,0,
2026-04-24 08:30:00,METAR LCLK 240830Z 10008KT 9999 FEW020 22/16 Q1012 NOSIG,0,8,0,10000,0,0,0,
2026-04-24 08:00:00,METAR LCLK 240800Z 09006KT 9999 FEW020 21/16 Q1012 NOSIG,0,6,0,10000,0,0,0,
2026-04-24 07:30:00,METAR LCLK 240730Z 07005KT 040V120 9999 FEW020 21/16 Q1012 NOSIG,0,5,0,10000,0,0,0,
2026-04-24 07:00:00,METAR LCLK 240700Z 09004KT 060V120 9999 FEW020 21/15 Q1012 NOSIG,0,4,0,10000,0,0,0,
2026-04-24 06:30:00,METAR LCLK 240630Z 08004KT 030V110 9999 FEW020 21/15 Q1011 NOSIG,0,4,0,10000,0,0,0,
2026-04-24 06:00:00,METAR LCLK 240600Z 09003KT 050V130 9999 FEW020 21/15 Q1012 NOSIG,0,3,0,10000,0,0,0,
2026-04-24 05:30:00,METAR LCLK 240530Z VRB03KT 9999 FEW020 20/15 Q1011 NOSIG,0,3,0,10000,0,0,0,
2026-04-24 05:00:00,METAR LCLK 240500Z 33004KT 9999 FEW020 18/15 Q1011 NOSIG,0,4,0,10000,0,0,0,
2026-04-24 04:30:00,METAR LCLK 240430Z 33003KT 9999 FEW020 15/14 Q1011 NOSIG,0,3,0,10000,0,0,0,
2026-04-24 04:00:00,METAR LCLK 240400Z 31002KT 9999 FEW012 13/13 Q1011 NOSIG,0,2,0,10000,0,0,0,
2026-04-24 03:30:00,METAR LCLK 240330Z 30002KT 9999 FEW020 12/12 Q1011 NOSIG,0,2,0,10000,0,0,0,
2026-04-24 03:00:00,METAR LCLK 240300Z 30002KT 9999 FEW020 12/12 Q1011 NOSIG,0,2,0,10000,0,0,0,
2026-04-24 02:30:00,METAR LCLK 240230Z 32002KT 9999 FEW020 13/12 Q1011 NOSIG,0,2,0,10000,0,0,0,
2026-04-24 02:00:00,METAR LCLK 240200Z 32002KT 9999 FEW020 12/12 Q1010 NOSIG,0,2,0,10000,0,0,0,
2026-04-24 01:30:00,METAR LCLK 240130Z 27002KT 9999 FEW020 13/12 Q1010 NOSIG,0,2,0,10000,0,0,0,
2026-04-24 01:00:00,METAR LCLK 240100Z 29002KT 9999 FEW020 13/12 Q1010 NOSIG,0,2,0,10000,0,0,0,
2026-04-24 00:30:00,METAR LCLK 240030Z VRB02KT 9999 FEW020 13/13 Q1010 NOSIG,0,2,0,10000,0,0,0,
2026-04-24 00:00:00,METAR LCLK 240000Z COR VRB03KT 9999 SCT020 13/12 Q1011 NOSIG,0,3,0,10000,0,0,0,
2026-04-23 23:30:00,METAR LCLK 232330Z 24003KT CAVOK 13/12 Q1011 NOSIG,1,0,0,9999,0,0,0,
2026-04-23 23:00:00,METAR LCLK 232300Z 00000KT CAVOK 14/13 Q1011 NOSIG,1,0,0,9999,0,0,0,
2026-04-23 22:30:00,METAR LCLK 232230Z VRB02KT 9999 FEW020 14/13 Q1011 NOSIG,0,2,0,10000,0,0,0,
2026-04-23 22:00:00,METAR LCLK 232200Z 33002KT CAVOK 14/13 Q1011 NOSIG,1,0,0,9999,0,0,0,
2026-04-23 21:30:00,METAR LCLK 232130Z VRB02KT CAVOK 15/13 Q1011 NOSIG,1,0,0,9999,0,0,0,
2026-04-23 21:00:00,METAR LCLK 232100Z 33003KT CAVOK 15/13 Q1011 NOSIG,1,0,0,9999,0,0,0,
2026-04-23 20:30:00,METAR LCLK 232030Z 29004KT CAVOK 16/13 Q1011 NOSIG,1,0,0,9999,0,0,0,
2026-04-23 20:00:00,METAR LCLK 232000Z 28002KT CAVOK 16/14 Q1011 NOSIG,1,0,0,9999,0,0,0,
2026-04-23 19:30:00,METAR LCLK 231930Z 27004KT CAVOK 16/13 Q1011 NOSIG,1,0,0,9999,0,0,0,
2026-04-23 19:00:00,METAR LCLK 231900Z 27004KT CAVOK 16/14 Q1011 NOSIG,1,0,0,9999,0,0,0,
2026-04-23 18:30:00,METAR LCLK 231830Z 25004KT 9999 FEW020 17/14 Q1011 NOSIG,0,4,0,10000,0,0,0,
2026-04-23 18:00:00,METAR LCLK 231800Z 27004KT 250V310 9999 FEW020 17/14 Q1011 NOSIG,0,4,0,10000,0,0,0,
2026-04-23 17:30:00,METAR LCLK 231730Z 28004KT 9999 FEW020 SCT050 18/14 Q1010 NOSIG,0,4,0,10000,0,0,0,
2026-04-23 17:00:00,METAR LCLK 231700Z 25007KT 220V280 9999 FEW020 SCT050 18/14 Q1010 NOSIG,0,7,0,10000,0,0,0,
2026-04-23 16:30:00,METAR LCLK 231630Z 22010KT 9999 FEW020 SCT048 19/14 Q1010 NOSIG,0,10,0,10000,0,0,0,
2026-04-23 16:00:00,METAR LCLK 231600Z 22013KT 9999 FEW020 SCT048 19/14 Q1010 NOSIG,0,13,0,10000,0,0,0,
2026-04-23 15:30:00,METAR LCLK 231530Z 22016KT 9999 FEW020 SCT046 20/15 Q1010 NOSIG,0,16,0,10000,0,0,0,
2026-04-23 15:00:00,METAR LCLK 231500Z 22015KT 9999 FEW020 BKN046 21/15 Q1010 NOSIG,0,15,0,10000,0,0,0,
2026-04-23 14:30:00,METAR LCLK 231430Z 21017KT 9999 FEW020 BKN049 21/15 Q1010 NOSIG,0,17,0,10000,0,0,0,
2026-04-23 14:00:00,METAR LCLK 231400Z 21015KT 9999 FEW020 21/15 Q1010 NOSIG,0,15,0,10000,0,0,0,
2026-04-23 13:30:00,METAR LCLK 231330Z 21017KT 9999 FEW020 22/15 Q1010 NOSIG,0,17,0,10000,0,0,0,
2026-04-23 13:00:00,METAR LCLK 231300Z 21016KT 9999 FEW020 22/14 Q1010 NOSIG,0,16,0,10000,0,0,0,
2026-04-23 12:30:00,METAR LCLK 231230Z 20016KT 9999 FEW020 22/15 Q1011 NOSIG,0,16,0,10000,0,0,0,
2026-04-23 12:00:00,METAR LCLK 231200Z 21015KT 9999 FEW020 23/15 Q1011 NOSIG,0,15,0,10000,0,0,0,
2026-04-23 11:30:00,METAR LCLK 231130Z 20014KT 9999 FEW017 23/15 Q1011 NOSIG,0,14,0,10000,0,0,0,
2026-04-23 11:00:00,METAR LCLK 231100Z 19013KT 9999 FEW017 23/14 Q1012 NOSIG,0,13,0,10000,0,0,0,
2026-04-23 10:30:00,METAR LCLK 231030Z 19013KT 9999 FEW017 23/15 Q1012 NOSIG,0,13,0,10000,0,0,0,
2026-04-23 10:00:00,METAR LCLK 231000Z 19011KT 9999 FEW017 22/15 Q1012 NOSIG,0,11,0,10000,0,0,0,
2026-04-23 09:30:00,METAR LCLK 230930Z 17010KT 150V210 9999 FEW017 SCT025 22/16 Q1012 NOSIG,0,10,0,10000,0,0,0,
2026-04-23 09:00:00,METAR LCLK 230900Z 13009KT 9999 FEW017 SCT025 22/16 Q1013 NOSIG,0,9,0,10000,0,0,0,
2026-04-23 08:30:00,METAR LCLK 230830Z 13009KT 9999 SCT017 21/16 Q1013 NOSIG,0,9,0,10000,0,0,0,
2026-04-23 08:00:00,METAR LCLK 230800Z 12007KT 9999 SCT017 21/15 Q1013 NOSIG,0,7,0,10000,0,0,0,
2026-04-23 07:30:00,METAR LCLK 230730Z 10007KT 9999 SCT017 21/15 Q1013 NOSIG,0,7,0,10000,0,0,0,
2026-04-23 07:00:00,METAR LCLK 230700Z 08006KT 9999 BKN017 21/15 Q1013 NOSIG,0,6,0,10000,0,0,0,
2026-04-23 06:30:00,METAR LCLK 230630Z 07005KT 9999 BKN017 21/15 Q1013 NOSIG,0,5,0,10000,0,0,0,
2026-04-23 06:00:00,METAR LCLK 230600Z 02004KT 320V060 9999 SCT020 19/16 Q1012 NOSIG,0,4,0,10000,0,0,0,
2026-04-23 05:30:00,METAR LCLK 230530Z 34005KT 9999 FEW020 19/15 Q1012 NOSIG,0,5,0,10000,0,0,0,
2026-04-23 05:00:00,METAR LCLK 230500Z 33004KT 9999 FEW020 17/15 Q1012 NOSIG,0,4,0,10000,0,0,0,
2026-04-23 04:30:00,METAR LCLK 230430Z 32004KT 280V350 8000 FEW020 15/14 Q1012 NOSIG,0,4,0,8000,0,0,0,
2026-04-23 04:00:00,METAR LCLK 230400Z 32005KT 8000 NSC 13/13 Q1012 NOSIG,0,5,0,8000,0,0,0,
2026-04-23 03:30:00,METAR LCLK 230330Z 31003KT 8000 FEW008 12/11 Q1012 TEMPO BKN008,0,3,0,8000,0,0,0,
2026-04-23 03:00:00,METAR LCLK 230300Z 32003KT 8000 FEW008 11/11 Q1012 TEMPO BKN008,0,3,0,8000,0,0,0,
2026-04-23 02:30:00,METAR LCLK 230230Z 30002KT 8000 FEW008 12/11 Q1012 TEMPO BKN008,0,2,0,8000,0,0,0,
2026-04-23 02:00:00,METAR LCLK 230200Z 34004KT 290V360 9999 FEW006 12/12 Q1012 NOSIG,0,4,0,10000,0,0,0,
2026-04-23 01:30:00,METAR LCLK 230130Z 33003KT 9999 FEW006 12/12 Q1012 NOSIG,0,3,0,10000,0,0,0,
2026-04-23 01:00:00,METAR LCLK 230100Z 33004KT 9999 FEW006 12/12 Q1012 NOSIG,0,4,0,10000,0,0,0,
2026-04-23 00:30:00,METAR LCLK 230030Z 30003KT 9999 FEW006 12/12 Q1012 NOSIG,0,3,0,10000,0,0,0,
2026-04-23 00:00:00,METAR LCLK 230000Z 30005KT CAVOK 12/12 Q1012 NOSIG,1,0,0,9999,0,0,0,
2026-04-22 23:30:00,METAR LCLK 222330Z 27004KT CAVOK 12/12 Q1012 NOSIG,1,0,0,9999,0,0,0,
2026-04-22 23:00:00,METAR LCLK 222300Z 30003KT CAVOK 13/12 Q1012 NOSIG,1,0,0,9999,0,0,0,
2026-04-22 22:30:00,METAR LCLK 222230Z 31003KT CAVOK 13/12 Q1013 NOSIG,1,0,0,9999,0,0,0,
2026-04-22 22:00:00,METAR LCLK 222200Z 29003KT CAVOK 13/12 Q1013 NOSIG,1,0,0,9999,0,0,0,
2026-04-22 21:30:00,METAR LCLK 222130Z 28004KT CAVOK 14/13 Q1013 NOSIG,1,0,0,9999,0,0,0,
2026-04-22 21:00:00,METAR LCLK 222100Z VRB03KT CAVOK 14/13 Q1013 NOSIG,1,0,0,9999,0,0,0,
2026-04-22 20:30:00,METAR LCLK 222030Z 28002KT CAVOK 14/13 Q1014 NOSIG,1,0,0,9999,0,0,0,
2026-04-22 20:00:00,METAR LCLK 222000Z 26002KT CAVOK 15/13 Q1014 NOSIG,1,0,0,9999,0,0,0,
2026-04-22 19:30:00,METAR LCLK 221930Z 30004KT CAVOK 15/13 Q1014 NOSIG,1,0,0,9999,0,0,0,
2026-04-22 19:00:00,METAR LCLK 221900Z 29004KT CAVOK 16/14 Q1014 NOSIG,1,0,0,9999,0,0,0,
2026-04-22 18:30:00,METAR LCLK 221830Z 28004KT CAVOK 16/14 Q1013 NOSIG,1,0,0,9999,0,0,0,
2026-04-22 18:00:00,METAR LCLK 221800Z 27004KT CAVOK 17/14 Q1013 NOSIG,1,0,0,9999,0,0,0,
2026-04-22 17:30:00,METAR LCLK 221730Z 26004KT 9999 FEW035 18/15 Q1013 NOSIG,0,4,0,10000,0,0,0,
2026-04-22 17:00:00,METAR LCLK 221700Z 25006KT 9999 FEW040 19/15 Q1013 NOSIG,0,6,0,10000,0,0,0,
2026-04-22 16:30:00,METAR LCLK 221630Z 23009KT 9999 FEW030 19/16 Q1013 NOSIG,0,9,0,10000,0,0,0,
2026-04-22 16:00:00,METAR LCLK 221600Z 22013KT 9999 FEW020 19/16 Q1013 NOSIG,0,13,0,10000,0,0,0,
2026-04-22 15:30:00,METAR LCLK 221530Z 22014KT 9999 FEW020 20/16 Q1013 NOSIG,0,14,0,10000,0,0,0,
2026-04-22 15:00:00,METAR LCLK 221500Z 21014KT 9999 FEW020 21/16 Q1013 NOSIG,0,14,0,10000,0,0,0,
2026-04-22 14:30:00,METAR LCLK 221430Z 21016KT 9999 FEW020 21/16 Q1013 NOSIG,0,16,0,10000,0,0,0,
2026-04-22 14:00:00,METAR LCLK 221400Z 21015KT 9999 FEW020 22/16 Q1013 NOSIG,0,15,0,10000,0,0,0,
2026-04-22 13:30:00,METAR LCLK 221330Z 21014KT 9999 FEW020 22/16 Q1013 NOSIG,0,14,0,10000,0,0,0,
2026-04-22 13:00:00,METAR LCLK 221300Z 19013KT 9999 FEW020 22/13 Q1013 NOSIG,0,13,0,10000,0,0,0,
2026-04-22 12:30:00,METAR LCLK 221230Z 18012KT 9999 FEW020 23/15 Q1014 NOSIG,0,12,0,10000,0,0,0,
2026-04-22 12:00:00,METAR LCLK 221200Z 18011KT 9999 FEW020 23/16 Q1014 NOSIG,0,11,0,10000,0,0,0,
2026-04-22 11:30:00,METAR LCLK 221130Z 18009KT 150V210 9999 FEW020 22/15 Q1014 NOSIG,0,9,0,10000,0,0,0,
2026-04-22 11:00:00,METAR LCLK 221100Z 17010KT 140V210 9999 FEW020 22/16 Q1014 NOSIG,0,10,0,10000,0,0,0,
2026-04-22 10:30:00,METAR LCLK 221030Z 16010KT 9999 FEW020 22/15 Q1014 NOSIG,0,10,0,10000,0,0,0,
2026-04-22 10:00:00,METAR LCLK 221000Z 17010KT 9999 FEW020 22/15 Q1015 NOSIG,0,10,0,10000,0,0,0,
2026-04-22 09:30:00,METAR LCLK 220930Z 17009KT 130V200 9999 FEW020 22/16 Q1015 NOSIG,0,9,0,10000,0,0,0,
2026-04-22 09:00:00,METAR LCLK 220900Z 16007KT 120V200 9999 FEW020 21/16 Q1015 NOSIG,0,7,0,10000,0,0,0,
2026-04-22 08:30:00,METAR LCLK 220830Z 15007KT 110V200 9999 FEW020 21/15 Q1015 NOSIG,0,7,0,10000,0,0,0,
2026-04-22 08:00:00,METAR LCLK 220800Z 13008KT 100V170 9999 FEW020 21/15 Q1015 NOSIG,0,8,0,10000,0,0,0,
2026-04-22 07:30:00,METAR LCLK 220730Z 12007KT 090V150 9999 FEW020 21/15 Q1015 NOSIG,0,7,0,10000,0,0,0,
2026-04-22 07:00:00,METAR LCLK 220700Z 10006KT 9999 FEW020 21/15 Q1015 NOSIG,0,6,0,10000,0,0,0,
2026-04-22 06:30:00,METAR LCLK 220630Z 09005KT 9999 FEW020 20/15 Q1015 NOSIG,0,5,0,10000,0,0,0,
2026-04-22 06:00:00,METAR LCLK 220600Z VRB03KT 9999 FEW016 SCT020 19/15 Q1015 NOSIG,0,3,0,10000,0,0,0,
2026-04-22 05:30:00,METAR LCLK 220530Z VRB02KT 9999 SCT016 19/14 Q1015 NOSIG,0,2,0,10000,0,0,0,
2026-04-22 05:00:00,METAR LCLK 220500Z VRB03KT 9999 SCT016 18/14 Q1015 NOSIG,0,3,0,10000,0,0,0,
2026-04-22 04:30:00,METAR LCLK 220430Z 31003KT 9999 FEW020 15/13 Q1014 NOSIG,0,3,0,10000,0,0,0,
2026-04-22 04:00:00,METAR LCLK 220400Z 31005KT 9999 FEW020 12/11 Q1014 NOSIG,0,5,0,10000,0,0,0,
2026-04-22 03:30:00,METAR LCLK 220330Z 32006KT 9999 FEW020 11/10 Q1014 NOSIG,0,6,0,10000,0,0,0,
2026-04-22 03:00:00,METAR LCLK 220300Z 33005KT 9999 FEW020 11/10 Q1014 NOSIG,0,5,0,10000,0,0,0,
2026-04-22 02:30:00,METAR LCLK 220230Z 30004KT 9999 FEW020 11/11 Q1014 NOSIG,0,4,0,10000,0,0,0,
2026-04-22 02:00:00,METAR LCLK 220200Z 30003KT CAVOK 11/10 Q1014 NOSIG,1,0,0,9999,0,0,0,
2026-04-22 01:30:00,METAR LCLK 220130Z 30006KT CAVOK 11/10 Q1014 NOSIG,1,0,0,9999,0,0,0,
2026-04-22 01:00:00,METAR LCLK 220100Z 32004KT CAVOK 11/11 Q1014 NOSIG,1,0,0,9999,0,0,0,
2026-04-22 00:30:00,METAR LCLK 220030Z 33004KT CAVOK 12/11 Q1014 NOSIG,1,0,0,9999,0,0,0,
2026-04-22 00:00:00,METAR LCLK 220000Z 30004KT CAVOK 12/10 Q1014 NOSIG,1,0,0,9999,0,0,0,
2026-04-21 23:30:00,METAR LCLK 212330Z 31006KT CAVOK 12/11 Q1014 NOSIG,1,0,0,9999,0,0,0,
2026-04-21 23:00:00,METAR LCLK 212300Z 32004KT CAVOK 13/11 Q1014 NOSIG,1,0,0,9999,0,0,0,
2026-04-21 22:30:00,METAR LCLK 212230Z 32004KT CAVOK 13/11 Q1014 NOSIG,1,0,0,9999,0,0,0,
2026-04-21 22:00:00,METAR LCLK 212200Z 34004KT CAVOK 14/11 Q1014 NOSIG,1,0,0,9999,0,0,0,
2026-04-21 21:30:00,METAR LCLK 212130Z 34004KT CAVOK 13/10 Q1014 NOSIG,1,0,0,9999,0,0,0,
2026-04-21 21:00:00,METAR LCLK 212100Z 35002KT CAVOK 14/11 Q1014 NOSIG,1,0,0,9999,0,0,0,
2026-04-21 20:30:00,METAR LCLK 212030Z VRB02KT CAVOK 14/11 Q1014 NOSIG,1,0,0,9999,0,0,0,
2026-04-21 20:00:00,METAR LCLK 212000Z VRB03KT CAVOK 15/11 Q1014 NOSIG,1,0,0,9999,0,0,0,
2026-04-21 19:30:00,METAR LCLK 211930Z 28006KT CAVOK 16/12 Q1014 NOSIG,1,0,0,9999,0,0,0,
2026-04-21 19:00:00,METAR LCLK 211900Z 25005KT CAVOK 16/11 Q1014 NOSIG,1,0,0,9999,0,0,0,
2026-04-21 18:30:00,METAR LCLK 211830Z 26005KT CAVOK 16/12 Q1014 NOSIG,1,0,0,9999,0,0,0,
2026-04-21 18:00:00,METAR LCLK 211800Z 25005KT CAVOK 17/13 Q1014 NOSIG,1,0,0,9999,0,0,0,
2026-04-21 17:30:00,METAR LCLK 211730Z 22008KT CAVOK 17/13 Q1013 NOSIG,1,0,0,9999,0,0,0,
2026-04-21 17:00:00,METAR LCLK 211700Z 22009KT CAVOK 18/13 Q1013 NOSIG,1,0,0,9999,0,0,0,
2026-04-21 16:30:00,METAR LCLK 211630Z 22013KT 9999 FEW045 18/14 Q1013 NOSIG,0,13,0,10000,0,0,0,
2026-04-21 16:00:00,METAR LCLK 211600Z 23016KT 9999 FEW045 19/14 Q1013 NOSIG,0,16,0,10000,0,0,0,
2026-04-21 15:30:00,METAR LCLK 211530Z 22017KT 9999 FEW045 20/13 Q1012 NOSIG,0,17,0,10000,0,0,0,
2026-04-21 15:00:00,METAR LCLK 211500Z 22018KT 9999 FEW020 20/14 Q1012 NOSIG,0,18,0,10000,0,0,0,
2026-04-21 14:30:00,METAR LCLK 211430Z 22020KT 9999 FEW020 21/14 Q1013 NOSIG,0,20,0,10000,0,0,0,
2026-04-21 14:00:00,METAR LCLK 211400Z 22018KT 9999 FEW020 21/13 Q1012 NOSIG,0,18,0,10000,0,0,0,
2026-04-21 13:30:00,METAR LCLK 211330Z 22018KT 9999 FEW020 22/13 Q1012 NOSIG,0,18,0,10000,0,0,0,
2026-04-21 13:00:00,METAR LCLK 211300Z 21018KT 9999 FEW020 22/13 Q1013 NOSIG,0,18,0,10000,0,0,0,
2026-04-21 12:30:00,METAR LCLK 211230Z 22018KT 9999 FEW020 23/12 Q1013 NOSIG,0,18,0,10000,0,0,0,
2026-04-21 12:00:00,METAR LCLK 211200Z 21016KT 9999 FEW020 23/12 Q1013 NOSIG,0,16,0,10000,0,0,0,
2026-04-21 11:30:00,METAR LCLK 211130Z 22015KT 9999 FEW020 23/12 Q1013 NOSIG,0,15,0,10000,0,0,0,
2026-04-21 11:00:00,METAR LCLK 211100Z 20012KT 9999 FEW020 23/12 Q1013 NOSIG,0,12,0,10000,0,0,0,
2026-04-21 10:30:00,METAR LCLK 211030Z 20012KT 170V230 9999 FEW020 24/12 Q1013 NOSIG,0,12,0,10000,0,0,0,
2026-04-21 10:00:00,METAR LCLK 211000Z 19011KT 160V220 9999 FEW020 23/08 Q1013 NOSIG,0,11,0,10000,0,0,0,
2026-04-21 09:30:00,METAR LCLK 210930Z 18010KT 150V210 9999 FEW020 23/09 Q1013 NOSIG,0,10,0,10000,0,0,0,
2026-04-21 09:00:00,METAR LCLK 210900Z 19010KT 9999 FEW020 23/12 Q1013 NOSIG,0,10,0,10000,0,0,0,
2026-04-21 08:30:00,METAR LCLK 210830Z 17009KT 140V200 9999 FEW020 22/13 Q1013 NOSIG,0,9,0,10000,0,0,0,
2026-04-21 08:00:00,METAR LCLK 210800Z COR 14007KT 110V190 9999 FEW020 22/13 Q1013 NOSIG,0,7,0,10000,0,0,0,
2026-04-21 07:30:00,METAR LCLK 210730Z 12006KT 100V160 9999 FEW020 22/12 Q1013 NOSIG,0,6,0,10000,0,0,0,
2026-04-21 07:00:00,METAR LCLK 210700Z 12006KT 9999 FEW020 21/12 Q1013 NOSIG,0,6,0,10000,0,0,0,
2026-04-21 06:30:00,METAR LCLK 210630Z 17004KT 080V250 9999 FEW020 21/12 Q1013 NOSIG,0,4,0,10000,0,0,0,
2026-04-21 06:00:00,METAR LCLK 210600Z 09004KT 040V120 9999 FEW020 21/12 Q1013 NOSIG,0,4,0,10000,0,0,0,
2026-04-21 05:30:00,METAR LCLK 210530Z VRB03KT 9999 FEW020 21/12 Q1013 NOSIG,0,3,0,10000,0,0,0,
2026-04-21 05:00:00,METAR LCLK 210500Z 32004KT 9999 FEW020 19/12 Q1013 NOSIG,0,4,0,10000,0,0,0,
2026-04-21 04:30:00,METAR LCLK 210430Z 32005KT 9999 FEW020 15/10 Q1013 NOSIG,0,5,0,10000,0,0,0,
2026-04-21 04:00:00,METAR LCLK 210400Z 32004KT 9999 FEW020 13/09 Q1012 NOSIG,0,4,0,10000,0,0,0,
2026-04-21 03:30:00,METAR LCLK 210330Z 32005KT 9999 FEW020 11/07 Q1012 NOSIG,0,5,0,10000,0,0,0,
2026-04-21 03:00:00,METAR LCLK 210300Z 33004KT 9999 FEW070 11/07 Q1012 NOSIG,0,4,0,10000,0,0,0,
2026-04-21 02:30:00,METAR LCLK 210230Z 32003KT 9999 FEW070 12/06 Q1012 NOSIG,0,3,0,10000,0,0,0,
2026-04-21 02:00:00,METAR LCLK 210200Z VRB02KT CAVOK 12/07 Q1012 NOSIG,1,0,0,9999,0,0,0,
2026-04-21 01:30:00,METAR LCLK 210130Z 25003KT CAVOK 13/07 Q1012 NOSIG,1,0,0,9999,0,0,0,
2026-04-21 01:00:00,METAR LCLK 210100Z 27004KT 210V320 CAVOK 14/07 Q1012 NOSIG,1,0,0,9999,0,0,0,
2026-04-21 00:30:00,METAR LCLK 210030Z 26006KT CAVOK 14/07 Q1012 NOSIG,1,0,0,9999,0,0,0,
2026-04-21 00:00:00,METAR LCLK 210000Z 26009KT CAVOK 15/08 Q1012 NOSIG,1,0,0,9999,0,0,0,
2026-04-20 23:30:00,METAR LCLK 202330Z 24006KT CAVOK 14/08 Q1012 NOSIG,1,0,0,9999,0,0,0,
2026-04-20 23:00:00,METAR LCLK 202300Z 30006KT CAVOK 15/09 Q1012 NOSIG,1,0,0,9999,0,0,0,
2026-04-20 22:30:00,METAR LCLK 202230Z 31008KT CAVOK 15/10 Q1012 NOSIG,1,0,0,9999,0,0,0,
2026-04-20 22:00:00,METAR LCLK 202200Z 31011KT CAVOK 15/10 Q1011 NOSIG,1,0,0,9999,0,0,0,
2026-04-20 21:30:00,METAR LCLK 202130Z 32011KT CAVOK 16/10 Q1012 NOSIG,1,0,0,9999,0,0,0,
2026-04-20 21:00:00,METAR LCLK 202100Z 31009KT CAVOK 16/09 Q1012 NOSIG,1,0,0,9999,0,0,0,
2026-04-20 20:30:00,METAR LCLK 202030Z 32009KT CAVOK 16/08 Q1012 NOSIG,1,0,0,9999,0,0,0,
2026-04-20 20:00:00,METAR LCLK 202000Z 31006KT CAVOK 16/07 Q1012 NOSIG,1,0,0,9999,0,0,0,
2026-04-20 19:30:00,METAR LCLK 201930Z 31006KT CAVOK 16/07 Q1012 NOSIG,1,0,0,9999,0,0,0,
2026-04-20 19:00:00,METAR LCLK 201900Z 31006KT CAVOK 16/08 Q1011 NOSIG,1,0,0,9999,0,0,0,
2026-04-20 18:30:00,METAR LCLK 201830Z 31006KT CAVOK 16/07 Q1011 NOSIG,1,0,0,9999,0,0,0,
2026-04-20 18:00:00,METAR LCLK 201800Z 33007KT CAVOK 17/07 Q1011 NOSIG,1,0,0,9999,0,0,0,
2026-04-20 17:30:00,METAR LCLK 201730Z 32009KT CAVOK 18/07 Q1011 NOSIG,1,0,0,9999,0,0,0,
2026-04-20 17:00:00,METAR LCLK 201700Z 32008KT 9999 FEW030 19/07 Q1010 NOSIG,0,8,0,10000,0,0,0,
2026-04-20 16:30:00,METAR LCLK 201630Z 31008KT 9999 FEW030 19/07 Q1010 NOSIG,0,8,0,10000,0,0,0,
2026-04-20 16:00:00,METAR LCLK 201600Z 31009KT 9999 FEW030 21/07 Q1010 NOSIG,0,9,0,10000,0,0,0,
2026-04-20 15:30:00,METAR LCLK 201530Z 31012KT 9999 FEW030 22/06 Q1010 NOSIG,0,12,0,10000,0,0,0,
2026-04-20 15:00:00,METAR LCLK 201500Z 31013KT 9999 FEW030 SCT055 23/07 Q1009 NOSIG,0,13,0,10000,0,0,0,
2026-04-20 14:30:00,METAR LCLK 201430Z 31013KT 280V340 9999 FEW030 SCT055 24/07 Q1009 NOSIG,0,13,0,10000,0,0,0,
2026-04-20 14:00:00,METAR LCLK 201400Z 34006KT 270V030 9999 FEW030 SCT055 25/07 Q1009 NOSIG,0,6,0,10000,0,0,0,
2026-04-20 13:30:00,METAR LCLK 201330Z 21013KT 160V220 9999 FEW030 SCT045 24/11 Q1009 NOSIG,0,13,0,10000,0,0,0,
2026-04-20 13:00:00,METAR LCLK 201300Z 19012KT 9999 FEW030 SCT045 23/13 Q1009 NOSIG,0,12,0,10000,0,0,0,
2026-04-20 12:30:00,METAR LCLK 201230Z 18013KT 9999 FEW030 SCT045 23/15 Q1009 NOSIG,0,13,0,10000,0,0,0,
2026-04-20 12:00:00,METAR LCLK 201200Z 19013KT 9999 FEW030 SCT045 23/15 Q1009 NOSIG,0,13,0,10000,0,0,0,
2026-04-20 11:30:00,METAR LCLK 201130Z 18013KT 9999 FEW030 SCT045 23/16 Q1010 NOSIG,0,13,0,10000,0,0,0,
2026-04-20 11:00:00,METAR LCLK 201100Z 18014KT 9999 FEW030 SCT045 23/15 Q1010 NOSIG,0,14,0,10000,0,0,0,
2026-04-20 10:30:00,METAR LCLK 201030Z 18014KT 9999 FEW030 SCT045 22/15 Q1010 NOSIG,0,14,0,10000,0,0,0,
2026-04-20 10:00:00,METAR LCLK 201000Z 18014KT 9999 FEW030 SCT045 22/15 Q1010 NOSIG,0,14,0,10000,0,0,0,
2026-04-20 09:30:00,METAR LCLK 200930Z 19014KT 9999 FEW030 SCT045 22/15 Q1010 NOSIG,0,14,0,10000,0,0,0,
2026-04-20 09:00:00,METAR LCLK 200900Z 18014KT 9999 FEW030 SCT045 22/16 Q1010 NOSIG,0,14,0,10000,0,0,0,
2026-04-20 08:30:00,METAR LCLK 200830Z 19013KT 9999 FEW030 SCT045 22/15 Q1010 NOSIG,0,13,0,10000,0,0,0,
2026-04-20 08:00:00,METAR LCLK 200800Z 19012KT 9999 FEW030 SCT045 21/15 Q1010 NOSIG,0,12,0,10000,0,0,0,
2026-04-20 07:30:00,METAR LCLK 200730Z VRB05KT 9999 FEW030 SCT045 20/15 Q1010 BECMG 20012KT,0,5,0,10000,0,0,0,
2026-04-20 07:00:00,METAR LCLK 200700Z 32005KT 290V010 9999 FEW030 SCT045 22/11 Q1010 BECMG 20012KT,0,5,0,10000,0,0,0,
2026-04-20 06:30:00,METAR LCLK 200630Z 33006KT 300V010 9999 FEW030 22/12 Q1009 BECMG 20012KT,0,6,0,10000,0,0,0,
2026-04-20 06:00:00,METAR LCLK 200600Z 33008KT 9999 FEW030 21/12 Q1009 NOSIG,0,8,0,10000,0,0,0,
2026-04-20 05:30:00,METAR LCLK 200530Z 29004KT 260V330 9999 FEW030 20/12 Q1009 NOSIG,0,4,0,10000,0,0,0,
2026-04-20 05:00:00,METAR LCLK 200500Z 31005KT 9999 FEW030 18/14 Q1009 NOSIG,0,5,0,10000,0,0,0,
2026-04-20 04:30:00,METAR LCLK 200430Z 32004KT 9999 FEW025TCU 16/14 Q1009 NOSIG,0,4,0,10000,0,0,0,
2026-04-20 04:00:00,METAR LCLK 200400Z 32005KT 280V340 9999 FEW025TCU SCT050 14/13 Q1009 NOSIG,0,5,0,10000,0,0,0,
2026-04-20 03:30:00,METAR LCLK 200330Z 31004KT 9999 FEW030 SCT050 13/12 Q1008 NOSIG,0,4,0,10000,0,0,0,
2026-04-20 03:00:00,METAR LCLK 200300Z 00000KT 9999 FEW050 13/12 Q1008 NOSIG,0,0,0,10000,0,0,0,
2026-04-20 02:30:00,METAR LCLK 200230Z 31003KT 9999 FEW050 13/12 Q1008 NOSIG,0,3,0,10000,0,0,0,
2026-04-20 02:00:00,METAR LCLK 200200Z 32003KT 9999 FEW050 13/12 Q1008 NOSIG,0,3,0,10000,0,0,0,
2026-04-20 01:30:00,METAR LCLK 200130Z 30003KT 9999 FEW050 13/12 Q1008 NOSIG,0,3,0,10000,0,0,0,
2026-04-20 01:00:00,METAR LCLK 200100Z 31004KT 9999 SCT050 14/12 Q1008 NOSIG,0,4,0,10000,0,0,0,
2026-04-20 00:30:00,METAR LCLK 200030Z 30005KT 9999 SCT050 14/12 Q1008 NOSIG,0,5,0,10000,0,0,0,
2026-04-20 00:00:00,METAR LCLK 200000Z 31005KT 9999 FEW040 14/12 Q1008 NOSIG,0,5,0,10000,0,0,0,
2026-04-19 23:30:00,METAR LCLK 192330Z 31005KT 9999 FEW040 14/12 Q1008 NOSIG,0,5,0,10000,0,0,0,
2026-04-19 23:00:00,METAR LCLK 192300Z 31005KT 9999 FEW040 14/12 Q1008 NOSIG,0,5,0,10000,0,0,0,
2026-04-19 22:30:00,METAR LCLK 192230Z 30004KT 9999 FEW040 14/13 Q1008 NOSIG,0,4,0,10000,0,0,0,
2026-04-19 22:00:00,METAR LCLK 192200Z VRB03KT 9999 FEW020 15/13 Q1008 NOSIG,0,3,0,10000,0,0,0,
2026-04-19 21:30:00,METAR LCLK 192130Z 35002KT 9999 FEW020 SCT030 16/14 Q1008 NOSIG,0,2,0,10000,0,0,0,
2026-04-19 21:00:00,METAR LCLK 192100Z 36005KT 330V030 9999 FEW020 SCT030 17/14 Q1008 NOSIG,0,5,0,10000,0,0,0,
2026-04-19 20:30:00,METAR LCLK 192030Z 35004KT 9999 FEW020 SCT030 17/14 Q1008 NOSIG,0,4,0,10000,0,0,0,
2026-04-19 20:00:00,METAR LCLK 192000Z 01001KT 9999 FEW020 SCT030 18/14 Q1008 NOSIG,0,1,0,10000,0,0,0,
2026-04-19 19:30:00,METAR LCLK 191930Z VRB02KT 9999 FEW016 BKN025 18/15 Q1008 NOSIG,0,2,0,10000,0,0,0,
2026-04-19 19:00:00,METAR LCLK 191900Z VRB03KT 9999 FEW016 BKN025 18/16 Q1008 NOSIG,0,3,0,10000,0,0,0,
2026-04-19 18:30:00,METAR LCLK 191830Z VRB02KT 9999 FEW016 BKN025 18/16 Q1008 NOSIG,0,2,0,10000,0,0,0,
2026-04-19 18:00:00,METAR LCLK 191800Z 31006KT 280V350 9999 -SHRA FEW020 FEW030TCU SCT050 18/16 Q1008 NOSIG,0,6,0,10000,0,0,0,RA
2026-04-19 17:30:00,METAR LCLK 191730Z 25011KT 9999 FEW025 FEW030TCU SCT050 18/16 Q1007 NOSIG,0,11,0,10000,0,0,0,
2026-04-19 17:00:00,METAR LCLK 191700Z 23011KT 9999 FEW025 FEW030TCU SCT050 18/16 Q1007 NOSIG,0,11,0,10000,0,0,0,
2026-04-19 16:30:00,METAR LCLK 191630Z 23013KT 9999 FEW024 FEW030TCU SCT044 19/16 Q1007 NOSIG,0,13,0,10000,0,0,0,
2026-04-19 16:00:00,METAR LCLK 191600Z 22014KT 9999 FEW024 FEW030TCU SCT044 19/16 Q1006 NOSIG,0,14,0,10000,0,0,0,
2026-04-19 15:30:00,METAR LCLK 191530Z 22015KT 9999 FEW024 FEW030TCU SCT044 20/17 Q1006 NOSIG,0,15,0,10000,0,0,0,
2026-04-19 15:00:00,METAR LCLK 191500Z 22017KT 9999 FEW024 FEW030TCU SCT050 21/17 Q1006 NOSIG,0,17,0,10000,0,0,0,
2026-04-19 14:30:00,METAR LCLK 191430Z 22019KT 9999 FEW024 FEW030TCU SCT050 21/17 Q1006 NOSIG,0,19,0,10000,0,0,0,
2026-04-19 14:00:00,METAR LCLK 191400Z 22021KT 9999 FEW030TCU SCT050 21/17 Q1006 NOSIG,0,21,0,10000,0,0,0,
2026-04-19 13:30:00,METAR LCLK 191330Z 22022G32KT 9999 FEW025TCU SCT060 22/17 Q1006 NOSIG,0,22,1,10000,0,0,0,
2026-04-19 13:00:00,METAR LCLK 191300Z 21022KT 9999 FEW025TCU 22/17 Q1006 NOSIG,0,22,0,10000,0,0,0,
2026-04-19 12:30:00,METAR LCLK 191230Z 21022KT 9999 FEW025TCU 22/17 Q1006 NOSIG,0,22,0,10000,0,0,0,
2026-04-19 12:00:00,METAR LCLK 191200Z 22022KT 9999 FEW025TCU 22/17 Q1006 NOSIG,0,22,0,10000,0,0,0,
2026-04-19 11:30:00,METAR LCLK 191130Z 21022KT 9999 FEW025TCU 22/17 Q1006 NOSIG,0,22,0,10000,0,0,0,
2026-04-19 11:00:00,METAR LCLK 191100Z 22019KT 180V250 9999 FEW025TCU SCT070 22/16 Q1007 NOSIG,0,19,0,10000,0,0,0,
2026-04-19 10:30:00,METAR LCLK 191030Z 22021KT 9999 FEW025TCU SCT070 22/16 Q1007 NOSIG,0,21,0,10000,0,0,0,
2026-04-19 10:00:00,METAR LCLK 191000Z 21020KT 9999 FEW018 FEW025TCU SCT035 BKN070 21/16 Q1007 NOSIG,0,20,0,10000,0,0,0,
2026-04-19 09:30:00,METAR LCLK 190930Z 21018KT 9999 FEW018 FEW020TCU SCT035 BKN070 22/16 Q1007 NOSIG,0,18,0,10000,0,0,0,
2026-04-19 09:00:00,METAR LCLK 190900Z 20014KT 9999 FEW016 FEW020TCU SCT035 BKN070 21/16 Q1007 NOSIG,0,14,0,10000,0,0,0,
2026-04-19 08:30:00,METAR LCLK 190830Z 21016KT 9999 FEW015 FEW018TCU SCT035 BKN060 21/17 Q1007 NOSIG,0,16,0,10000,0,0,0,
2026-04-19 08:00:00,METAR LCLK 190800Z 20016KT 9999 FEW015 SCT020 FEW025TCU 21/17 Q1007 NOSIG,0,16,0,10000,0,0,0,
2026-04-19 07:30:00,METAR LCLK 190730Z 20014KT 9999 FEW025TCU 22/17 Q1007 NOSIG,0,14,0,10000,0,0,0,
2026-04-19 07:00:00,METAR LCLK 190700Z 21015KT 9999 FEW025TCU 21/17 Q1007 NOSIG,0,15,0,10000,0,0,0,
2026-04-19 06:30:00,METAR LCLK 190630Z 21013KT 9999 FEW030 21/17 Q1006 NOSIG,0,13,0,10000,0,0,0,
2026-04-19 06:00:00,METAR LCLK 190600Z 22011KT 190V250 9999 FEW030 21/17 Q1006 NOSIG,0,11,0,10000,0,0,0,
2026-04-19 05:30:00,METAR LCLK 190530Z 21004KT 170V270 CAVOK 19/16 Q1006 NOSIG,1,0,0,9999,0,0,0,
2026-04-19 05:00:00,METAR LCLK 190500Z 20003KT 160V230 5000 BR NSC 17/15 Q1006 TEMPO 3000 BR,0,3,0,5000,0,0,1,BR
2026-04-19 04:30:00,METAR LCLK 190430Z VRB02KT 5000 BR NSC 16/15 Q1006 TEMPO 3000 BR,0,2,0,5000,0,0,1,BR
2026-04-19 04:00:00,METAR LCLK 190400Z 30003KT 260V340 5000 BR FEW050 14/14 Q1006 TEMPO 3000 BR,0,3,0,5000,0,0,1,BR
2026-04-19 03:30:00,METAR LCLK 190330Z VRB02KT 5000 BR FEW050 14/14 Q1006 TEMPO 3000 BR,0,2,0,5000,0,0,1,BR
2026-04-19 03:00:00,METAR LCLK 190300Z 26003KT 5000 BR FEW050 14/13 Q1006 TEMPO 3000 BR,0,3,0,5000,0,0,1,BR
2026-04-19 02:30:00,METAR LCLK 190230Z 24003KT 8000 FEW050 14/14 Q1005 NOSIG,0,3,0,8000,0,0,0,
2026-04-19 02:00:00,METAR LCLK 190200Z 02003KT 8000 NSC 15/14 Q1005 NOSIG,0,3,0,8000,0,0,0,
2026-04-19 01:30:00,METAR LCLK 190130Z 33001KT 8000 NSC 15/14 Q1005 NOSIG,0,1,0,8000,0,0,0,
2026-04-19 01:00:00,METAR LCLK 190100Z VRB02KT 8000 NSC 16/15 Q1005 NOSIG,0,2,0,8000,0,0,0,
2026-04-19 00:30:00,METAR LCLK 190030Z 22004KT 8000 NSC 16/15 Q1005 NOSIG,0,4,0,8000,0,0,0,
2026-04-19 00:00:00,METAR LCLK 190000Z 22005KT 8000 NSC 16/15 Q1005 NOSIG,0,5,0,8000,0,0,0,
2026-04-18 23:30:00,METAR LCLK 182330Z 28003KT 8000 NSC 15/14 Q1005 NOSIG,0,3,0,8000,0,0,0,
2026-04-18 23:00:00,METAR LCLK 182300Z 30004KT 260V330 8000 NSC 16/14 Q1005 NOSIG,0,4,0,8000,0,0,0,
2026-04-18 22:30:00,METAR LCLK 182230Z 36004KT 9999 FEW030 17/15 Q1005 NOSIG,0,4,0,10000,0,0,0,
2026-04-18 22:00:00,METAR LCLK 182200Z 33002KT 9999 FEW030 17/15 Q1005 NOSIG,0,2,0,10000,0,0,0,
2026-04-18 21:30:00,METAR LCLK 182130Z 00000KT 9999 FEW030 18/15 Q1005 NOSIG,0,0,0,10000,0,0,0,
2026-04-18 21:00:00,METAR LCLK 182100Z 26006KT 210V290 9999 FEW030 SCT060 18/15 Q1005 NOSIG,0,6,0,10000,0,0,0,
2026-04-18 20:30:00,METAR LCLK 182030Z 33004KT 270V360 9999 FEW030 SCT060 18/15 Q1005 NOSIG,0,4,0,10000,0,0,0,
2026-04-18 20:00:00,METAR LCLK 182000Z 29004KT 260V320 9999 SCT070 17/15 Q1005 NOSIG,0,4,0,10000,0,0,0,
2026-04-18 19:30:00,METAR LCLK 181930Z 29006KT 9999 FEW030 SCT070 17/15 Q1004 NOSIG,0,6,0,10000,0,0,0,
2026-04-18 19:00:00,METAR LCLK 181900Z 29004KT 260V320 9999 FEW020 SCT060 17/15 Q1004 NOSIG,0,4,0,10000,0,0,0,
2026-04-18 18:30:00,METAR LCLK 181830Z 28005KT 9999 FEW020 SCT060 17/15 Q1004 NOSIG,0,5,0,10000,0,0,0,
2026-04-18 18:00:00,METAR LCLK 181800Z 30007KT 9999 FEW020 SCT060 18/15 Q1004 NOSIG,0,7,0,10000,0,0,0,
2026-04-18 17:30:00,METAR LCLK 181730Z 30005KT 260V330 9999 FEW020 SCT060 18/16 Q1003 NOSIG,0,5,0,10000,0,0,0,
2026-04-18 17:00:00,METAR LCLK 181700Z VRB01KT 9999 FEW020 SCT060 18/17 Q1002 NOSIG,0,1,0,10000,0,0,0,
2026-04-18 16:30:00,METAR LCLK 181630Z 23008KT 9999 FEW020 19/17 Q1002 NOSIG,0,8,0,10000,0,0,0,
2026-04-18 16:00:00,METAR LCLK 181600Z 22009KT 9999 FEW020 SCT060 19/17 Q1001 NOSIG,0,9,0,10000,0,0,0,
2026-04-18 15:00:00,METAR LCLK 181500Z 23016KT 9999 FEW012 SCT020 FEW030TCU 19/17 Q1001 NOSIG,0,16,0,10000,0,0,0,
2026-04-18 14:30:00,METAR LCLK 181430Z 21020KT 9999 FEW025 FEW030TCU 20/17 Q1001 NOSIG,0,20,0,10000,0,0,0,
2026-04-18 14:00:00,METAR LCLK 181400Z 21022KT 9999 FEW025 FEW030TCU 21/17 Q1001 NOSIG,0,22,0,10000,0,0,0,
2026-04-18 13:30:00,METAR LCLK 181330Z 22020KT 9999 FEW025 21/17 Q1001 NOSIG,0,20,0,10000,0,0,0,
2026-04-18 13:00:00,METAR LCLK 181300Z 21022KT 9999 FEW025 21/17 Q1001 NOSIG,0,22,0,10000,0,0,0,
2026-04-18 12:30:00,METAR LCLK 181230Z 22021KT 9000 FEW025 SCT060 22/17 Q1001 NOSIG,0,21,0,9000,0,0,0,
2026-04-18 12:00:00,METAR LCLK 181200Z 21013KT 7000 FEW025 SCT060 21/19 Q1000 RETS NOSIG,0,13,0,7000,1,0,0,TS
2026-04-18 11:30:00,METAR LCLK 181130Z 21011KT 4000 TS DU FEW012 FEW030CB 20/19 Q1001 RERA BECMG 6000 RMK CB TO S SE,0,11,0,4000,1,0,0,"RA,TS"
2026-04-18 11:00:00,METAR LCLK 181100Z 19010KT 2000 -TSRA DU BKN012 FEW030CB BKN060 21/18 Q1001 BECMG 6000 RMK CB TO W NW,0,10,0,2000,1,0,0,RA
2026-04-18 10:30:00,METAR LCLK 181030Z 19014KT 3000 DU FEW011 FEW030CB BKN060 22/18 Q1001 TEMPO 2000 TSRA SCT025CB RMK CB TO W NW,0,14,0,3000,1,0,0,"RA,TS"
2026-04-18 10:00:00,METAR LCLK 181000Z 20017KT 3000 DU FEW025 FEW030CB 23/18 Q1001 BECMG 6000 RMK CB TO W NW,0,17,0,3000,0,0,0,
2026-04-18 09:30:00,METAR LCLK 180930Z 20019KT 2500 DU FEW025 24/18 Q1001 BECMG 6000,0,19,0,2500,0,0,0,
2026-04-18 09:00:00,METAR LCLK 180900Z 20018KT 1500 DU FEW025 24/18 Q1001 NOSIG,0,18,0,1500,0,0,0,
2026-04-18 08:30:00,METAR LCLK 180830Z 19014KT 1500 DU FEW020TCU SCT060 23/18 Q1001 TEMPO 1000 DU SHRA SCT020TCU FEW025CB,0,14,0,1500,0,0,0,"RA,SH"
2026-04-18 08:00:00,METAR LCLK 180800Z 21014KT 1500 DU FEW020TCU 22/18 Q1001 TEMPO 1000 DU SHRA SCT020TCU FEW025CB,0,14,0,1500,0,0,0,"RA,SH"
2026-04-18 07:30:00,METAR LCLK 180730Z 20009KT 170V230 1500 DU FEW020TCU 22/18 Q1001 TEMPO 1500 DU SHRA SCT020TCU FEW025CB,0,9,0,1500,0,0,0,"RA,SH"
2026-04-18 07:00:00,METAR LCLK 180700Z 21009KT 2500 DU FEW020TCU BKN030 21/18 Q1001 RERA TEMPO 1000 DU SHRA SCT020TCU,0,9,0,2500,0,0,0,"RA,SH"
2026-04-18 06:30:00,METAR LCLK 180630Z VRB02KT 2000 DU FEW005 BKN023 20/17 Q1001 TEMPO 1000 DU,0,2,0,2000,0,0,0,
2026-04-18 06:00:00,METAR LCLK 180600Z 02004KT 2500 DU FEW005 BKN023 20/17 Q1001 TEMPO 1000 DU,0,4,0,2500,0,0,0,
2026-04-18 05:30:00,METAR LCLK 180530Z VRB03KT 2500 DU FEW005 BKN023 19/18 Q1001 TEMPO 1000 DU,0,3,0,2500,0,0,0,
2026-04-18 05:00:00,METAR LCLK 180500Z VRB02KT 3100 -SHRA DU FEW005 BKN023 18/18 Q1001 NOSIG,0,2,0,3100,0,0,0,RA
2026-04-18 04:30:00,METAR LCLK 180430Z 07002KT 3100 DU FEW005 BKN015 18/18 Q1001 NOSIG,0,2,0,3100,0,0,0,
2026-04-18 04:00:00,METAR LCLK 180400Z VRB02KT 3100 DU SCT005 17/17 Q1001 NOSIG,0,2,0,3100,0,0,0,
2026-04-18 03:30:00,METAR LCLK 180330Z 00000KT 3100 DU SCT005 17/17 Q1001 NOSIG,0,0,0,3100,0,0,0,
2026-04-18 03:00:00,METAR LCLK 180300Z VRB03KT 4000 DU SCT005 17/17 Q1001 NOSIG,0,3,0,4000,0,0,0,
2026-04-18 02:30:00,METAR LCLK 180230Z 29004KT 4000 DU FEW003 SCT005 17/17 Q1001 NOSIG,0,4,0,4000,0,0,0,
2026-04-18 02:00:00,METAR LCLK 180200Z 23003KT 4000 DU FEW002 SCT005 18/18 Q1002 NOSIG,0,3,0,4000,0,0,0,
2026-04-18 01:30:00,METAR LCLK 180130Z 21004KT 180V240 6000 FEW002 BKN005 18/18 Q1002 NOSIG,0,4,0,6000,0,0,0,
2026-04-18 01:00:00,METAR LCLK 180100Z 16004KT 6000 BKN005 19/18 Q1002 NOSIG,0,4,0,6000,0,0,0,
2026-04-18 00:30:00,METAR LCLK 180030Z 14008KT 6000 FEW003 BKN016 18/18 Q1002 NOSIG,0,8,0,6000,0,0,0,
2026-04-18 00:00:00,METAR LCLK 180000Z 00000KT 7000 BKN002 16/15 Q1002 BECMG 5000 DU,0,0,0,7000,0,0,0,
2026-04-17 23:30:00,METAR LCLK 172330Z VRB02KT 7000 FEW011 16/15 Q1002 BECMG 5000 DU,0,2,0,7000,0,0,0,
2026-04-17 23:00:00,METAR LCLK 172300Z 34003KT 300V010 7000 NSC 16/16 Q1002 BECMG 5000 DU,0,3,0,7000,0,0,0,
2026-04-17 22:30:00,METAR LCLK 172230Z 29003KT 7000 NSC 16/15 Q1002 BECMG 5000 DU,0,3,0,7000,0,0,0,
2026-04-17 22:00:00,METAR LCLK 172200Z 35003KT 7000 FEW030 17/16 Q1002 BECMG 5000 DU,0,3,0,7000,0,0,0,
2026-04-17 21:30:00,METAR LCLK 172130Z 35004KT 280V030 7000 FEW030 17/16 Q1002 BECMG 5000 DU,0,4,0,7000,0,0,0,
2026-04-17 21:00:00,METAR LCLK 172100Z 33006KT 7000 FEW030 17/16 Q1002 BECMG 5000 DU,0,6,0,7000,0,0,0,
2026-04-17 20:30:00,METAR LCLK 172030Z 30006KT 7000 SCT020 17/16 Q1003 BECMG 5000 DU,0,6,0,7000,0,0,0,
2026-04-17 20:00:00,METAR LCLK 172000Z 33003KT 270V020 7000 SCT019 18/16 Q1003 BECMG 5000 DU,0,3,0,7000,0,0,0,
2026-04-17 19:30:00,METAR LCLK 171930Z 30005KT 7000 BKN019 19/17 Q1004 BECMG 5000 DU,0,5,0,7000,0,0,0,
2026-04-17 19:00:00,METAR LCLK 171900Z 25006KT 230V290 7000 BKN019 19/17 Q1004 BECMG 5000 DU,0,6,0,7000,0,0,0,
2026-04-17 18:30:00,METAR LCLK 171830Z 23004KT 7000 FEW030 SCT043 19/17 Q1004 BECMG 3000 DU,0,4,0,7000,0,0,0,
2026-04-17 18:00:00,METAR LCLK 171800Z VRB02KT 7000 NSC 19/17 Q1004 BECMG 3000 DU,0,2,0,7000,0,0,0,
2026-04-17 17:30:00,METAR LCLK 171730Z 03005KT 360V060 7000 FEW030 20/17 Q1003 BECMG 3000 DU,0,5,0,7000,0,0,0,
2026-04-17 17:00:00,METAR LCLK 171700Z 06014KT 7000 FEW030 20/17 Q1003 BECMG 3000 DU,0,14,0,7000,0,0,0,
2026-04-17 16:30:00,METAR LCLK 171630Z 05013KT 8000 FEW030 20/17 Q1002 BECMG 3000 DU,0,13,0,8000,0,0,0,
2026-04-17 16:00:00,METAR LCLK 171600Z 05014KT 8000 FEW030 21/17 Q1002 BECMG 3000 DU,0,14,0,8000,0,0,0,
2026-04-17 15:30:00,METAR LCLK 171530Z 05018KT 8000 FEW030TCU 21/17 Q1002 BECMG 5000 DU,0,18,0,8000,0,0,0,
2026-04-17 15:00:00,METAR LCLK 171500Z 04015KT 9999 FEW030TCU 22/17 Q1003 RETS BECMG 5000 DU,0,15,0,10000,1,0,0,TS
2026-04-17 14:30:00,METAR LCLK 171430Z 04015KT 9999 TS FEW030CB 22/17 Q1003 RERA BECMG NSW RMK CB TO NE,0,15,0,10000,1,0,0,"RA,TS"
2026-04-17 14:00:00,METAR LCLK 171400Z 05017KT 9999 -TSRA FEW030CB 23/17 Q1003 BECMG NSW RMK CB TO NE,0,17,0,10000,1,0,0,RA
2026-04-17 13:30:00,METAR LCLK 171330Z 05019KT CAVOK 24/17 Q1002 NOSIG,1,0,0,9999,0,0,0,
2026-04-17 13:00:00,METAR LCLK 171300Z 05019KT CAVOK 24/17 Q1003 NOSIG,1,0,0,9999,0,0,0,
2026-04-17 12:30:00,METAR LCLK 171230Z 05016KT 9999 FEW040 23/17 Q1003 NOSIG,0,16,0,10000,0,0,0,
2026-04-17 12:00:00,METAR LCLK 171200Z 03011KT 9999 FEW035TCU 23/17 Q1004 NOSIG,0,11,0,10000,0,0,0,
2026-04-17 11:30:00,METAR LCLK 171130Z 04014KT 9999 FEW035TCU 23/17 Q1003 NOSIG,0,14,0,10000,0,0,0,
2026-04-17 11:00:00,METAR LCLK 171100Z 04014KT 9999 FEW035CB 23/17 Q1003 NOSIG RMK CB TO N,0,14,0,10000,0,0,0,
2026-04-17 10:30:00,METAR LCLK 171030Z 04017KT 9999 FEW035CB SCT060 22/17 Q1003 NOSIG RMK CB TO N,0,17,0,10000,0,0,0,
2026-04-17 10:00:00,METAR LCLK 171000Z 03016KT 9999 FEW035CB FEW045TCU 21/17 Q1003 RETSRA NOSIG RMK CB TO N,0,16,0,10000,1,0,0,RA
2026-04-17 09:30:00,METAR LCLK 170930Z 35010KT 8000 TSRA FEW035CB FEW045TCU SCT060 21/17 Q1004 TEMPO NSW RMK CB TO W-SW,0,10,0,8000,1,0,0,"RA,TS"
2026-04-17 09:00:00,METAR LCLK 170900Z 04013KT 9999 FEW035CB FEW045TCU SCT060 22/16 Q1004 RETS TEMPO TS RMK CB TO W-NW,0,13,0,10000,1,0,0,TS
2026-04-17 08:30:00,METAR LCLK 170830Z 33008KT 8000 -TSRA FEW035CB FEW045TCU 21/17 Q1005 TEMPO 5000 TSRA RMK CB TO W-NW,0,8,0,8000,1,0,0,"RA,TS"
2026-04-17 08:00:00,METAR LCLK 170800Z 03007KT 9000 VCSH TS FEW035CB 22/16 Q1004 TEMPO 5000 TSRA RMK CB TO S-SW,0,7,0,9000,1,0,0,"RA,SH,TS,VC"
2026-04-17 07:30:00,METAR LCLK 170730Z 02008KT 9999 FEW035CB 22/16 Q1005 TEMPO 5000 TSRA RMK CB TO S-SW,0,8,0,10000,1,0,0,"RA,TS"
2026-04-17 07:00:00,METAR LCLK 170700Z 03012KT 9999 FEW035CB 22/16 Q1005 RETS TEMPO TS,0,12,0,10000,1,0,0,TS
2026-04-17 06:30:00,METAR LCLK 170630Z 04016KT 9999 FEW035CB 21/16 Q1004 RETS NOSIG,0,16,0,10000,1,0,0,TS
2026-04-17 06:00:00,METAR LCLK 170600Z 05014KT 9000 -TSRA FEW035CB 22/16 Q1005 BECMG NSW,0,14,0,9000,1,0,0,RA
2026-04-17 05:30:00,METAR LCLK 170530Z 03010KT CAVOK 22/15 Q1005 NOSIG,1,0,0,9999,0,0,0,
2026-04-17 05:00:00,METAR LCLK 170500Z 03010KT CAVOK 22/15 Q1005 NOSIG,1,0,0,9999,0,0,0,
2026-04-17 04:30:00,METAR LCLK 170430Z 03011KT CAVOK 21/15 Q1005 NOSIG,1,0,0,9999,0,0,0,
2026-04-17 04:00:00,METAR LCLK 170400Z 03012KT CAVOK 21/15 Q1005 NOSIG,1,0,0,9999,0,0,0,
2026-04-17 03:30:00,METAR LCLK 170330Z 02014KT CAVOK 21/14 Q1005 NOSIG,1,0,0,9999,0,0,0,
2026-04-17 03:00:00,METAR LCLK 170300Z 02012KT CAVOK 21/14 Q1005 NOSIG,1,0,0,9999,0,0,0,
2026-04-17 02:30:00,METAR LCLK 170230Z 02009KT CAVOK 21/14 Q1005 NOSIG,1,0,0,9999,0,0,0,
2026-04-17 02:00:00,METAR LCLK 170200Z 03009KT CAVOK 21/14 Q1005 NOSIG,1,0,0,9999,0,0,0,
2026-04-17 01:30:00,METAR LCLK 170130Z 02012KT CAVOK 21/13 Q1005 NOSIG,1,0,0,9999,0,0,0,
2026-04-17 01:00:00,METAR LCLK 170100Z 02014KT CAVOK 21/14 Q1005 NOSIG,1,0,0,9999,0,0,0,
2026-04-17 00:30:00,METAR LCLK 170030Z 04013KT CAVOK 21/15 Q1005 NOSIG,1,0,0,9999,0,0,0,
2026-04-17 00:00:00,METAR LCLK 170000Z 03012KT CAVOK 21/15 Q1005 NOSIG,1,0,0,9999,0,0,0,
2026-04-16 23:30:00,METAR LCLK 162330Z 02013KT CAVOK 21/15 Q1006 NOSIG,1,0,0,9999,0,0,0,
2026-04-16 23:00:00,METAR LCLK 162300Z 02014KT CAVOK 21/15 Q1006 NOSIG,1,0,0,9999,0,0,0,
2026-04-16 22:30:00,METAR LCLK 162230Z 02012KT CAVOK 22/14 Q1006 NOSIG,1,0,0,9999,0,0,0,
2026-04-16 22:00:00,METAR LCLK 162200Z 02013KT CAVOK 22/14 Q1006 NOSIG,1,0,0,9999,0,0,0,
2026-04-16 21:30:00,METAR LCLK 162130Z 01011KT CAVOK 22/14 Q1007 NOSIG,1,0,0,9999,0,0,0,
2026-04-16 21:00:00,METAR LCLK 162100Z 01011KT CAVOK 22/14 Q1007 NOSIG,1,0,0,9999,0,0,0,
2026-04-16 20:30:00,METAR LCLK 162030Z 01011KT CAVOK 22/14 Q1007 NOSIG,1,0,0,9999,0,0,0,
2026-04-16 20:00:00,METAR LCLK 162000Z 01010KT CAVOK 22/14 Q1007 NOSIG,1,0,0,9999,0,0,0,
2026-04-16 19:30:00,METAR LCLK 161930Z 01010KT CAVOK 22/14 Q1007 NOSIG,1,0,0,9999,0,0,0,
2026-04-16 19:00:00,METAR LCLK 161900Z 01010KT CAVOK 22/14 Q1007 NOSIG,1,0,0,9999,0,0,0,
2026-04-16 18:30:00,METAR LCLK 161830Z 01010KT CAVOK 22/14 Q1007 NOSIG,1,0,0,9999,0,0,0,
2026-04-16 18:00:00,METAR LCLK 161800Z 01011KT CAVOK 22/15 Q1007 NOSIG,1,0,0,9999,0,0,0,
2026-04-16 17:30:00,METAR LCLK 161730Z 01011KT CAVOK 22/15 Q1007 NOSIG,1,0,0,9999,0,0,0,
2026-04-16 17:00:00,METAR LCLK 161700Z 01011KT CAVOK 23/14 Q1007 NOSIG,1,0,0,9999,0,0,0,
2026-04-16 16:30:00,METAR LCLK 161630Z 01010KT 350V050 CAVOK 23/14 Q1007 NOSIG,1,0,0,9999,0,0,0,
2026-04-16 16:00:00,METAR LCLK 161600Z 02011KT CAVOK 23/14 Q1007 NOSIG,1,0,0,9999,0,0,0,
2026-04-16 15:30:00,METAR LCLK 161530Z 03010KT CAVOK 24/13 Q1007 NOSIG,1,0,0,9999,0,0,0,
2026-04-16 15:00:00,METAR LCLK 161500Z 03010KT CAVOK 25/13 Q1008 NOSIG,1,0,0,9999,0,0,0,
2026-04-16 14:30:00,METAR LCLK 161430Z 04010KT CAVOK 26/12 Q1008 NOSIG,1,0,0,9999,0,0,0,
2026-04-16 14:00:00,METAR LCLK 161400Z 04011KT CAVOK 26/11 Q1007 NOSIG,1,0,0,9999,0,0,0,
2026-04-16 13:30:00,METAR LCLK 161330Z 05014KT CAVOK 27/13 Q1007 NOSIG,1,0,0,9999,0,0,0,
2026-04-16 13:00:00,METAR LCLK 161300Z 04009KT CAVOK 27/12 Q1007 NOSIG,1,0,0,9999,0,0,0,
2026-04-16 12:30:00,METAR LCLK 161230Z 05013KT CAVOK 27/11 Q1008 NOSIG,1,0,0,9999,0,0,0,
2026-04-16 12:00:00,METAR LCLK 161200Z 05014KT CAVOK 26/13 Q1008 NOSIG,1,0,0,9999,0,0,0,
2026-04-16 11:30:00,METAR LCLK 161130Z 05018KT CAVOK 27/12 Q1009 NOSIG,1,0,0,9999,0,0,0,
2026-04-16 11:00:00,METAR LCLK 161100Z 06015KT CAVOK 27/14 Q1009 NOSIG,1,0,0,9999,0,0,0,
2026-04-16 10:30:00,METAR LCLK 161030Z 06016KT CAVOK 27/13 Q1009 NOSIG,1,0,0,9999,0,0,0,
2026-04-16 10:00:00,METAR LCLK 161000Z 05013KT CAVOK 26/13 Q1009 NOSIG,1,0,0,9999,0,0,0,
2026-04-16 09:30:00,METAR LCLK 160930Z 05018KT CAVOK 26/12 Q1009 NOSIG,1,0,0,9999,0,0,0,
2026-04-16 09:00:00,METAR LCLK 160900Z 05013KT CAVOK 26/13 Q1010 NOSIG,1,0,0,9999,0,0,0,
2026-04-16 08:30:00,METAR LCLK 160830Z 04016KT CAVOK 26/11 Q1010 NOSIG,1,0,0,9999,0,0,0,
2026-04-16 08:00:00,METAR LCLK 160800Z 04014KT CAVOK 26/12 Q1010 NOSIG,1,0,0,9999,0,0,0,
2026-04-16 07:30:00,METAR LCLK 160730Z 04014KT CAVOK 25/12 Q1010 NOSIG,1,0,0,9999,0,0,0,
2026-04-16 07:00:00,METAR LCLK 160700Z 04014KT CAVOK 23/13 Q1010 NOSIG,1,0,0,9999,0,0,0,
2026-04-16 06:30:00,METAR LCLK 160630Z 03015KT CAVOK 23/14 Q1010 NOSIG,1,0,0,9999,0,0,0,
2026-04-16 06:00:00,METAR LCLK 160600Z 03013KT CAVOK 22/13 Q1010 NOSIG,1,0,0,9999,0,0,0,
2026-04-16 05:30:00,METAR LCLK 160530Z 02013KT CAVOK 22/12 Q1010 NOSIG,1,0,0,9999,0,0,0,
2026-04-16 05:00:00,METAR LCLK 160500Z 02012KT CAVOK 21/12 Q1010 NOSIG,1,0,0,9999,0,0,0,
2026-04-16 04:30:00,METAR LCLK 160430Z 02013KT 9999 FEW025 21/11 Q1010 NOSIG,0,13,0,10000,0,0,0,
2026-04-16 04:00:00,METAR LCLK 160400Z 01011KT 9999 FEW025 20/11 Q1010 NOSIG,0,11,0,10000,0,0,0,
2026-04-16 03:30:00,METAR LCLK 160330Z 35010KT CAVOK 18/12 Q1010 NOSIG,1,0,0,9999,0,0,0,
2026-04-16 03:00:00,METAR LCLK 160300Z 01009KT CAVOK 19/13 Q1010 NOSIG,1,0,0,9999,0,0,0,
2026-04-16 02:30:00,METAR LCLK 160230Z 36008KT CAVOK 19/14 Q1010 NOSIG,1,0,0,9999,0,0,0,
2026-04-16 02:00:00,METAR LCLK 160200Z 02011KT CAVOK 20/14 Q1010 NOSIG,1,0,0,9999,0,0,0,
2026-04-16 01:30:00,METAR LCLK 160130Z 01012KT CAVOK 20/13 Q1010 NOSIG,1,0,0,9999,0,0,0,
2026-04-16 01:00:00,METAR LCLK 160100Z 02009KT CAVOK 20/12 Q1010 NOSIG,1,0,0,9999,0,0,0,
2026-04-16 00:30:00,METAR LCLK 160030Z 01010KT CAVOK 19/12 Q1010 NOSIG,1,0,0,9999,0,0,0,
2026-04-16 00:00:00,METAR LCLK 160000Z 36007KT 330V030 CAVOK 19/12 Q1010 NOSIG,1,0,0,9999,0,0,0,
2026-04-15 23:30:00,METAR LCLK 152330Z 35007KT CAVOK 19/12 Q1011 NOSIG,1,0,0,9999,0,0,0,
2026-04-15 23:00:00,METAR LCLK 152300Z 36009KT CAVOK 19/12 Q1011 NOSIG,1,0,0,9999,0,0,0,
2026-04-15 22:30:00,METAR LCLK 152230Z 36008KT CAVOK 19/13 Q1011 NOSIG,1,0,0,9999,0,0,0,
2026-04-15 22:00:00,METAR LCLK 152200Z 01010KT CAVOK 19/13 Q1012 NOSIG,1,0,0,9999,0,0,0,
2026-04-15 21:30:00,METAR LCLK 152130Z 36008KT CAVOK 19/12 Q1012 NOSIG,1,0,0,9999,0,0,0,
2026-04-15 21:00:00,METAR LCLK 152100Z 36008KT 340V050 CAVOK 19/13 Q1012 NOSIG,1,0,0,9999,0,0,0,
2026-04-15 20:30:00,METAR LCLK 152030Z 36009KT CAVOK 20/13 Q1012 NOSIG,1,0,0,9999,0,0,0,
2026-04-15 20:00:00,METAR LCLK 152000Z 36009KT CAVOK 19/13 Q1012 NOSIG,1,0,0,9999,0,0,0,
2026-04-15 19:30:00,METAR LCLK 151930Z 03008KT CAVOK 20/13 Q1012 NOSIG,1,0,0,9999,0,0,0,
2026-04-15 19:00:00,METAR LCLK 151900Z 34007G20KT 300V080 CAVOK 20/12 Q1013 NOSIG,1,0,0,9999,0,0,0,
2026-04-15 18:30:00,METAR LCLK 151830Z 35008KT 330V040 CAVOK 20/12 Q1013 NOSIG,1,0,0,9999,0,0,0,
2026-04-15 18:00:00,METAR LCLK 151800Z 01008KT CAVOK 21/14 Q1013 NOSIG,1,0,0,9999,0,0,0,
2026-04-15 17:30:00,METAR LCLK 151730Z 02010KT CAVOK 22/13 Q1013 NOSIG,1,0,0,9999,0,0,0,
2026-04-15 17:00:00,METAR LCLK 151700Z 01009KT CAVOK 22/13 Q1013 NOSIG,1,0,0,9999,0,0,0,
2026-04-15 16:30:00,METAR LCLK 151630Z 01009KT CAVOK 22/13 Q1013 NOSIG,1,0,0,9999,0,0,0,
2026-04-15 16:00:00,METAR LCLK 151600Z 03010KT CAVOK 22/13 Q1013 NOSIG,1,0,0,9999,0,0,0,
2026-04-15 15:30:00,METAR LCLK 151530Z 05011KT CAVOK 22/13 Q1013 NOSIG,1,0,0,9999,0,0,0,
2026-04-15 15:00:00,METAR LCLK 151500Z 04011KT CAVOK 23/12 Q1013 NOSIG,1,0,0,9999,0,0,0,
2026-04-15 14:30:00,METAR LCLK 151430Z 03007KT CAVOK 23/12 Q1013 NOSIG,1,0,0,9999,0,0,0,
2026-04-15 14:00:00,METAR LCLK 151400Z 04010KT CAVOK 24/12 Q1013 NOSIG,1,0,0,9999,0,0,0,
2026-04-15 13:30:00,METAR LCLK 151330Z 04008KT CAVOK 24/12 Q1014 NOSIG,1,0,0,9999,0,0,0,
2026-04-15 13:00:00,METAR LCLK 151300Z 04010KT CAVOK 25/11 Q1014 NOSIG,1,0,0,9999,0,0,0,
2026-04-15 12:30:00,METAR LCLK 151230Z 06007KT CAVOK 25/12 Q1014 NOSIG,1,0,0,9999,0,0,0,
2026-04-15 12:00:00,METAR LCLK 151200Z 05010KT CAVOK 25/11 Q1014 NOSIG,1,0,0,9999,0,0,0,
2026-04-15 11:30:00,METAR LCLK 151130Z 04011KT CAVOK 25/11 Q1015 NOSIG,1,0,0,9999,0,0,0,
2026-04-15 11:00:00,METAR LCLK 151100Z 06009KT CAVOK 25/12 Q1015 NOSIG,1,0,0,9999,0,0,0,
2026-04-15 10:30:00,METAR LCLK 151030Z 05008KT CAVOK 25/11 Q1015 NOSIG,1,0,0,9999,0,0,0,
2026-04-15 10:00:00,METAR LCLK 151000Z 05009KT CAVOK 25/11 Q1016 NOSIG,1,0,0,9999,0,0,0,
2026-04-15 09:30:00,METAR LCLK 150930Z 03012KT CAVOK 24/10 Q1016 NOSIG,1,0,0,9999,0,0,0,
2026-04-15 09:00:00,METAR LCLK 150900Z 03011KT CAVOK 23/11 Q1016 NOSIG,1,0,0,9999,0,0,0,
2026-04-15 08:30:00,METAR LCLK 150830Z 03011KT CAVOK 23/12 Q1017 NOSIG,1,0,0,9999,0,0,0,
2026-04-15 08:00:00,METAR LCLK 150800Z 03010KT CAVOK 22/12 Q1017 NOSIG,1,0,0,9999,0,0,0,
2026-04-15 07:30:00,METAR LCLK 150730Z 02011KT 9999 FEW020 21/11 Q1017 NOSIG,0,11,0,10000,0,0,0,
2026-04-15 07:00:00,METAR LCLK 150700Z 01013KT 9999 FEW020 21/10 Q1017 NOSIG,0,13,0,10000,0,0,0,
2026-04-15 06:30:00,METAR LCLK 150630Z COR 36010KT 9999 FEW020 20/10 Q1017 NOSIG,0,10,0,10000,0,0,0,
2026-04-15 06:00:00,METAR LCLK 150600Z 36010KT 9999 FEW020 20/10 Q1017 NOSIG,0,10,0,10000,0,0,0,
2026-04-15 05:30:00,METAR LCLK 150530Z 35007KT CAVOK 19/10 Q1017 NOSIG,1,0,0,9999,0,0,0,
2026-04-15 05:00:00,METAR LCLK 150500Z 36010KT CAVOK 18/10 Q1016 NOSIG,1,0,0,9999,0,0,0,
2026-04-15 04:30:00,METAR LCLK 150430Z 34008KT CAVOK 16/10 Q1016 NOSIG,1,0,0,9999,0,0,0,
2026-04-15 04:00:00,METAR LCLK 150400Z 34008KT CAVOK 14/10 Q1016 NOSIG,1,0,0,9999,0,0,0,
2026-04-15 03:30:00,METAR LCLK 150330Z 34008KT CAVOK 14/11 Q1016 NOSIG,1,0,0,9999,0,0,0,
2026-04-15 03:00:00,METAR LCLK 150300Z 35009KT CAVOK 14/11 Q1016 NOSIG,1,0,0,9999,0,0,0,
2026-04-15 02:30:00,METAR LCLK 150230Z 35007KT CAVOK 14/12 Q1017 NOSIG,1,0,0,9999,0,0,0,
2026-04-15 02:00:00,METAR LCLK 150200Z 36007KT CAVOK 14/12 Q1017 NOSIG,1,0,0,9999,0,0,0,
2026-04-15 01:30:00,METAR LCLK 150130Z 36006KT CAVOK 14/12 Q1017 NOSIG,1,0,0,9999,0,0,0,
2026-04-15 01:00:00,METAR LCLK 150100Z 01007KT CAVOK 15/12 Q1017 NOSIG,1,0,0,9999,0,0,0,
2026-04-15 00:30:00,METAR LCLK 150030Z 01008KT CAVOK 15/13 Q1017 NOSIG,1,0,0,9999,0,0,0,
2026-04-15 00:00:00,METAR LCLK 150000Z 02008KT CAVOK 14/13 Q1017 NOSIG,1,0,0,9999,0,0,0,
2026-04-14 23:30:00,METAR LCLK 142330Z 36005KT CAVOK 14/12 Q1018 NOSIG,1,0,0,9999,0,0,0,
2026-04-14 23:00:00,METAR LCLK 142300Z 35004KT CAVOK 14/12 Q1018 NOSIG,1,0,0,9999,0,0,0,
2026-04-14 22:30:00,METAR LCLK 142230Z 36006KT CAVOK 14/12 Q1018 NOSIG,1,0,0,9999,0,0,0,
2026-04-14 22:00:00,METAR LCLK 142200Z 34005KT CAVOK 15/12 Q1018 NOSIG,1,0,0,9999,0,0,0,
2026-04-14 21:30:00,METAR LCLK 142130Z 34007KT CAVOK 14/12 Q1018 NOSIG,1,0,0,9999,0,0,0,
2026-04-14 21:00:00,METAR LCLK 142100Z 33005KT CAVOK 15/12 Q1019 NOSIG,1,0,0,9999,0,0,0,
2026-04-14 20:30:00,METAR LCLK 142030Z 35004KT CAVOK 16/12 Q1019 NOSIG,1,0,0,9999,0,0,0,
2026-04-14 20:00:00,METAR LCLK 142000Z 01006KT CAVOK 16/13 Q1019 NOSIG,1,0,0,9999,0,0,0,
2026-04-14 19:30:00,METAR LCLK 141930Z 36005KT CAVOK 15/12 Q1019 NOSIG,1,0,0,9999,0,0,0,
2026-04-14 19:00:00,METAR LCLK 141900Z 34004KT CAVOK 16/12 Q1020 NOSIG,1,0,0,9999,0,0,0,
2026-04-14 18:30:00,METAR LCLK 141830Z 34005KT CAVOK 16/12 Q1020 NOSIG,1,0,0,9999,0,0,0,
2026-04-14 18:00:00,METAR LCLK 141800Z 01006KT CAVOK 18/12 Q1019 NOSIG,1,0,0,9999,0,0,0,
2026-04-14 17:30:00,METAR LCLK 141730Z 02006KT CAVOK 18/12 Q1019 NOSIG,1,0,0,9999,0,0,0,
2026-04-14 17:00:00,METAR LCLK 141700Z 02006KT CAVOK 19/13 Q1019 NOSIG,1,0,0,9999,0,0,0,
2026-04-14 16:30:00,METAR LCLK 141630Z 03010KT CAVOK 19/12 Q1019 NOSIG,1,0,0,9999,0,0,0,
2026-04-14 16:00:00,METAR LCLK 141600Z 05010KT CAVOK 19/13 Q1018 NOSIG,1,0,0,9999,0,0,0,
2026-04-14 15:30:00,METAR LCLK 141530Z 06008KT CAVOK 20/13 Q1019 NOSIG,1,0,0,9999,0,0,0,
2026-04-14 15:00:00,METAR LCLK 141500Z 10008KT CAVOK 20/14 Q1019 NOSIG,1,0,0,9999,0,0,0,
2026-04-14 14:30:00,METAR LCLK 141430Z 12008KT CAVOK 20/14 Q1019 NOSIG,1,0,0,9999,0,0,0,
2026-04-14 14:00:00,METAR LCLK 141400Z 11006KT CAVOK 21/11 Q1020 NOSIG,1,0,0,9999,0,0,0,
2026-04-14 13:30:00,METAR LCLK 141330Z 08004KT 360V120 CAVOK 21/11 Q1020 NOSIG,1,0,0,9999,0,0,0,
2026-04-14 13:00:00,METAR LCLK 141300Z 11006KT CAVOK 21/11 Q1020 NOSIG,1,0,0,9999,0,0,0,
2026-04-14 12:30:00,METAR LCLK 141230Z 10006KT 070V130 CAVOK 22/07 Q1020 NOSIG,1,0,0,9999,0,0,0,
2026-04-14 12:00:00,METAR LCLK 141200Z 11008KT 070V130 CAVOK 22/11 Q1021 NOSIG,1,0,0,9999,0,0,0,
2026-04-14 11:30:00,METAR LCLK 141130Z 10010KT 9999 FEW025 21/14 Q1021 NOSIG,0,10,0,10000,0,0,0,
2026-04-14 11:00:00,METAR LCLK 141100Z 11011KT 9999 FEW025 21/14 Q1021 NOSIG,0,11,0,10000,0,0,0,
2026-04-14 10:30:00,METAR LCLK 141030Z 11011KT CAVOK 21/14 Q1021 NOSIG,1,0,0,9999,0,0,0,
2026-04-14 10:00:00,METAR LCLK 141000Z 11010KT CAVOK 22/15 Q1022 NOSIG,1,0,0,9999,0,0,0,
2026-04-14 09:30:00,METAR LCLK 140930Z 11008KT CAVOK 22/14 Q1022 NOSIG,1,0,0,9999,0,0,0,
2026-04-14 09:00:00,METAR LCLK 140900Z 10009KT CAVOK 22/13 Q1022 NOSIG,1,0,0,9999,0,0,0,
2026-04-14 08:30:00,METAR LCLK 140830Z 08006KT CAVOK 22/11 Q1022 NOSIG,1,0,0,9999,0,0,0,
2026-04-14 08:00:00,METAR LCLK 140800Z 06007KT CAVOK 21/11 Q1022 NOSIG,1,0,0,9999,0,0,0,
2026-04-14 07:30:00,METAR LCLK 140730Z 05007KT CAVOK 20/13 Q1023 NOSIG,1,0,0,9999,0,0,0,
2026-04-14 07:00:00,METAR LCLK 140700Z 03009KT CAVOK 19/13 Q1023 NOSIG,1,0,0,9999,0,0,0,
2026-04-14 06:30:00,METAR LCLK 140630Z 04008KT CAVOK 19/14 Q1022 NOSIG,1,0,0,9999,0,0,0,
2026-04-14 06:00:00,METAR LCLK 140600Z 03008KT CAVOK 19/13 Q1022 NOSIG,1,0,0,9999,0,0,0,
2026-04-14 05:30:00,METAR LCLK 140530Z 35006KT CAVOK 17/13 Q1022 NOSIG,1,0,0,9999,0,0,0,
2026-04-14 05:00:00,METAR LCLK 140500Z 33004KT CAVOK 15/12 Q1022 NOSIG,1,0,0,9999,0,0,0,
2026-04-14 04:30:00,METAR LCLK 140430Z 31006KT 290V360 CAVOK 13/11 Q1021 NOSIG,1,0,0,9999,0,0,0,
2026-04-14 04:00:00,METAR LCLK 140400Z 31005KT CAVOK 11/10 Q1021 NOSIG,1,0,0,9999,0,0,0,
2026-04-14 03:30:00,METAR LCLK 140330Z 33005KT 290V360 CAVOK 11/10 Q1021 NOSIG,1,0,0,9999,0,0,0,
2026-04-14 03:00:00,METAR LCLK 140300Z 32005KT CAVOK 10/09 Q1021 NOSIG,1,0,0,9999,0,0,0,
2026-04-14 02:30:00,METAR LCLK 140230Z 32005KT CAVOK 10/09 Q1021 NOSIG,1,0,0,9999,0,0,0,
2026-04-14 02:00:00,METAR LCLK 140200Z 33004KT CAVOK 11/10 Q1020 NOSIG,1,0,0,9999,0,0,0,
2026-04-14 01:30:00,METAR LCLK 140130Z 32004KT CAVOK 10/09 Q1020 NOSIG,1,0,0,9999,0,0,0,
2026-04-14 01:00:00,METAR LCLK 140100Z 33004KT CAVOK 11/10 Q1020 NOSIG,1,0,0,9999,0,0,0,
2026-04-14 00:30:00,METAR LCLK 140030Z 32003KT CAVOK 11/10 Q1020 NOSIG,1,0,0,9999,0,0,0,
2026-04-14 00:00:00,METAR LCLK 140000Z 03003KT CAVOK 12/10 Q1020 NOSIG,1,0,0,9999,0,0,0,
2026-04-13 23:30:00,METAR LCLK 132330Z VRB02KT CAVOK 12/11 Q1021 NOSIG,1,0,0,9999,0,0,0,
2026-04-13 23:00:00,METAR LCLK 132300Z 30003KT CAVOK 11/10 Q1021 NOSIG,1,0,0,9999,0,0,0,
2026-04-13 22:30:00,METAR LCLK 132230Z VRB02KT CAVOK 12/10 Q1021 NOSIG,1,0,0,9999,0,0,0,
2026-04-13 22:00:00,METAR LCLK 132200Z VRB02KT CAVOK 12/10 Q1021 NOSIG,1,0,0,9999,0,0,0,
2026-04-13 21:30:00,METAR LCLK 132130Z 35004KT CAVOK 13/11 Q1021 NOSIG,1,0,0,9999,0,0,0,
2026-04-13 21:00:00,METAR LCLK 132100Z 35005KT 310V050 CAVOK 13/11 Q1021 NOSIG,1,0,0,9999,0,0,0,
2026-04-13 20:30:00,METAR LCLK 132030Z 27005KT CAVOK 13/11 Q1021 NOSIG,1,0,0,9999,0,0,0,
2026-04-13 20:00:00,METAR LCLK 132000Z 28005KT 250V310 CAVOK 14/11 Q1020 NOSIG,1,0,0,9999,0,0,0,
2026-04-13 19:30:00,METAR LCLK 131930Z 26007KT CAVOK 15/11 Q1020 NOSIG,1,0,0,9999,0,0,0,
2026-04-13 19:00:00,METAR LCLK 131900Z 27006KT CAVOK 16/12 Q1020 NOSIG,1,0,0,9999,0,0,0,
2026-04-13 18:30:00,METAR LCLK 131830Z 25007KT CAVOK 16/12 Q1020 NOSIG,1,0,0,9999,0,0,0,
2026-04-13 18:00:00,METAR LCLK 131800Z VRB03KT CAVOK 16/12 Q1020 NOSIG,1,0,0,9999,0,0,0,
2026-04-13 17:30:00,METAR LCLK 131730Z 22004KT CAVOK 17/12 Q1019 NOSIG,1,0,0,9999,0,0,0,
2026-04-13 17:00:00,METAR LCLK 131700Z 22005KT CAVOK 16/11 Q1019 NOSIG,1,0,0,9999,0,0,0,
2026-04-13 16:30:00,METAR LCLK 131630Z 21007KT 9999 FEW040 17/11 Q1019 NOSIG,0,7,0,10000,0,0,0,
2026-04-13 16:00:00,METAR LCLK 131600Z 20008KT 9999 FEW040 18/11 Q1019 NOSIG,0,8,0,10000,0,0,0,
2026-04-13 15:30:00,METAR LCLK 131530Z 20009KT 9999 FEW040 19/10 Q1019 NOSIG,0,9,0,10000,0,0,0,
2026-04-13 15:00:00,METAR LCLK 131500Z 19009KT 9999 FEW040 20/08 Q1019 NOSIG,0,9,0,10000,0,0,0,
2026-04-13 14:30:00,METAR LCLK 131430Z 18010KT 9999 FEW040 20/09 Q1019 NOSIG,0,10,0,10000,0,0,0,
2026-04-13 14:00:00,METAR LCLK 131400Z 18010KT 150V210 9999 FEW040 20/10 Q1019 NOSIG,0,10,0,10000,0,0,0,
2026-04-13 13:30:00,METAR LCLK 131330Z 16010KT 9999 FEW040 21/09 Q1018 NOSIG,0,10,0,10000,0,0,0,
2026-04-13 13:00:00,METAR LCLK 131300Z 16010KT 120V190 9999 FEW040 21/09 Q1018 NOSIG,0,10,0,10000,0,0,0,
2026-04-13 12:30:00,METAR LCLK 131230Z 14010KT 9999 FEW040 21/08 Q1018 NOSIG,0,10,0,10000,0,0,0,
2026-04-13 12:00:00,METAR LCLK 131200Z 14010KT 9999 FEW040 21/09 Q1018 NOSIG,0,10,0,10000,0,0,0,
2026-04-13 11:30:00,METAR LCLK 131130Z 15010KT 120V180 9999 FEW040 21/08 Q1019 NOSIG,0,10,0,10000,0,0,0,
2026-04-13 11:00:00,METAR LCLK 131100Z 15011KT 9999 FEW040 21/07 Q1018 NOSIG,0,11,0,10000,0,0,0,
2026-04-13 10:30:00,METAR LCLK 131030Z 15010KT 9999 FEW040 21/07 Q1018 NOSIG,0,10,0,10000,0,0,0,
2026-04-13 10:00:00,METAR LCLK 131000Z 14010KT 9999 FEW040 21/08 Q1018 NOSIG,0,10,0,10000,0,0,0,
2026-04-13 09:30:00,METAR LCLK 130930Z 12008KT 9999 FEW040 21/08 Q1018 NOSIG,0,8,0,10000,0,0,0,
2026-04-13 09:00:00,METAR LCLK 130900Z 12007KT 090V150 9999 FEW040 21/08 Q1018 NOSIG,0,7,0,10000,0,0,0,
2026-04-13 08:30:00,METAR LCLK 130830Z 11009KT 9999 FEW030 21/08 Q1019 NOSIG,0,9,0,10000,0,0,0,
2026-04-13 08:00:00,METAR LCLK 130800Z 10008KT 9999 FEW030 20/07 Q1019 NOSIG,0,8,0,10000,0,0,0,
2026-04-13 07:30:00,METAR LCLK 130730Z 06007KT 9999 FEW040 20/06 Q1018 NOSIG,0,7,0,10000,0,0,0,
2026-04-13 07:00:00,METAR LCLK 130700Z 05007KT 010V070 9999 FEW040 20/04 Q1018 NOSIG,0,7,0,10000,0,0,0,
2026-04-13 06:30:00,METAR LCLK 130630Z 35008KT 330V030 9999 FEW040 20/05 Q1018 NOSIG,0,8,0,10000,0,0,0,
2026-04-13 06:00:00,METAR LCLK 130600Z 35009KT 320V020 9999 FEW040 19/06 Q1018 NOSIG,0,9,0,10000,0,0,0,
2026-04-13 05:30:00,METAR LCLK 130530Z 33005KT 9999 FEW040 18/09 Q1018 NOSIG,0,5,0,10000,0,0,0,
2026-04-13 05:00:00,METAR LCLK 130500Z 31005KT 9999 FEW040 15/10 Q1017 NOSIG,0,5,0,10000,0,0,0,
2026-04-13 04:30:00,METAR LCLK 130430Z 31006KT 9999 FEW040 14/09 Q1017 NOSIG,0,6,0,10000,0,0,0,
2026-04-13 04:00:00,METAR LCLK 130400Z 31006KT 9999 FEW050 13/08 Q1017 NOSIG,0,6,0,10000,0,0,0,
2026-04-13 03:30:00,METAR LCLK 130330Z 32007KT 9999 FEW050 12/08 Q1017 NOSIG,0,7,0,10000,0,0,0,
2026-04-13 03:00:00,METAR LCLK 130300Z VRB03KT 9999 FEW050 11/08 Q1016 NOSIG,0,3,0,10000,0,0,0,
2026-04-13 02:30:00,METAR LCLK 130230Z 31003KT CAVOK 11/08 Q1016 NOSIG,1,0,0,9999,0,0,0,
2026-04-13 02:00:00,METAR LCLK 130200Z VRB02KT CAVOK 11/08 Q1016 NOSIG,1,0,0,9999,0,0,0,
2026-04-13 01:30:00,METAR LCLK 130130Z 29003KT CAVOK 11/08 Q1015 NOSIG,1,0,0,9999,0,0,0,
2026-04-13 01:00:00,METAR LCLK 130100Z 31005KT CAVOK 11/08 Q1015 NOSIG,1,0,0,9999,0,0,0,
2026-04-13 00:30:00,METAR LCLK 130030Z 30003KT CAVOK 12/08 Q1015 NOSIG,1,0,0,9999,0,0,0,
2026-04-13 00:00:00,METAR LCLK 130000Z 30005KT CAVOK 12/08 Q1015 NOSIG,1,0,0,9999,0,0,0,
2026-04-12 23:30:00,METAR LCLK 122330Z 31004KT CAVOK 12/08 Q1015 NOSIG,1,0,0,9999,0,0,0,
2026-04-12 23:00:00,METAR LCLK 122300Z 29006KT CAVOK 13/07 Q1015 NOSIG,1,0,0,9999,0,0,0,
2026-04-12 22:30:00,METAR LCLK 122230Z 29008KT CAVOK 13/08 Q1016 NOSIG,1,0,0,9999,0,0,0,
2026-04-12 22:00:00,METAR LCLK 122200Z 30008KT CAVOK 14/07 Q1016 NOSIG,1,0,0,9999,0,0,0,
2026-04-12 21:30:00,METAR LCLK 122130Z 30008KT CAVOK 13/07 Q1016 NOSIG,1,0,0,9999,0,0,0,
2026-04-12 21:00:00,METAR LCLK 122100Z 29007KT CAVOK 12/07 Q1016 NOSIG,1,0,0,9999,0,0,0,
2026-04-12 20:30:00,METAR LCLK 122030Z VRB01KT CAVOK 12/07 Q1016 NOSIG,1,0,0,9999,0,0,0,
2026-04-12 20:00:00,METAR LCLK 122000Z 29006KT 9999 FEW030 13/07 Q1015 NOSIG,0,6,0,10000,0,0,0,
2026-04-12 19:30:00,METAR LCLK 121930Z 25004KT 220V310 9999 FEW030 14/07 Q1015 NOSIG,0,4,0,10000,0,0,0,
2026-04-12 19:00:00,METAR LCLK 121900Z 26006KT 230V290 9999 FEW030 14/08 Q1015 NOSIG,0,6,0,10000,0,0,0,
2026-04-12 18:30:00,METAR LCLK 121830Z 32008KT 9999 FEW030 15/07 Q1015 NOSIG,0,8,0,10000,0,0,0,
2026-04-12 18:00:00,METAR LCLK 121800Z VRB03KT 9999 FEW030 15/07 Q1015 NOSIG,0,3,0,10000,0,0,0,
2026-04-12 17:30:00,METAR LCLK 121730Z 32004KT 270V360 9999 FEW030 16/07 Q1015 NOSIG,0,4,0,10000,0,0,0,
2026-04-12 17:00:00,METAR LCLK 121700Z 32006KT 260V350 9999 FEW030 16/06 Q1014 NOSIG,0,6,0,10000,0,0,0,
2026-04-12 16:30:00,METAR LCLK 121630Z 33010KT 9999 FEW030 18/06 Q1014 NOSIG,0,10,0,10000,0,0,0,
2026-04-12 16:00:00,METAR LCLK 121600Z 32011KT 9999 FEW030 19/05 Q1013 NOSIG,0,11,0,10000,0,0,0,
2026-04-12 15:00:00,METAR LCLK 121500Z 33012KT 9999 FEW030 22/03 Q1013 NOSIG,0,12,0,10000,0,0,0,
2026-04-12 14:30:00,METAR LCLK 121430Z 31011KT 9999 FEW025 FEW030TCU 23/03 Q1013 NOSIG,0,11,0,10000,0,0,0,
2026-04-12 14:00:00,METAR LCLK 121400Z 22012KT 9999 FEW025 FEW030TCU 22/12 Q1012 NOSIG,0,12,0,10000,0,0,0,
2026-04-12 13:30:00,METAR LCLK 121330Z 21015KT 9999 FEW025 FEW030TCU 22/13 Q1012 NOSIG,0,15,0,10000,0,0,0,
2026-04-12 13:00:00,METAR LCLK 121300Z 20016KT 9999 FEW025 SCT040 22/13 Q1012 NOSIG,0,16,0,10000,0,0,0,
2026-04-12 12:30:00,METAR LCLK 121230Z 21019KT 9999 FEW025 SCT060 22/14 Q1013 NOSIG,0,19,0,10000,0,0,0,
2026-04-12 12:00:00,METAR LCLK 121200Z 22019KT 9999 FEW025 FEW030TCU SCT060 22/13 Q1013 NOSIG,0,19,0,10000,0,0,0,
2026-04-12 11:30:00,METAR LCLK 121130Z 22019KT 9999 FEW025 FEW030TCU SCT060 22/14 Q1013 NOSIG,0,19,0,10000,0,0,0,
2026-04-12 11:00:00,METAR LCLK 121100Z 22019KT 9999 FEW025 SCT060 23/13 Q1013 NOSIG,0,19,0,10000,0,0,0,
2026-04-12 10:30:00,METAR LCLK 121030Z 22015KT 9999 FEW025 SCT060 23/12 Q1013 NOSIG,0,15,0,10000,0,0,0,
2026-04-12 10:00:00,METAR LCLK 121000Z 22013KT 190V250 9999 FEW025 SCT060 23/10 Q1014 NOSIG,0,13,0,10000,0,0,0,
2026-04-12 09:30:00,METAR LCLK 120930Z 19013KT 9999 FEW025 SCT060 23/10 Q1014 NOSIG,0,13,0,10000,0,0,0,
2026-04-12 09:00:00,METAR LCLK 120900Z 20010KT 9999 FEW025 SCT060 22/11 Q1014 NOSIG,0,10,0,10000,0,0,0,
2026-04-12 08:30:00,METAR LCLK 120830Z VRB05KT 9999 FEW025 FEW030TCU SCT060 21/11 Q1014 BECMG 22016KT,0,5,0,10000,0,0,0,
2026-04-12 08:00:00,METAR LCLK 120800Z 27008KT 180V330 9999 SCT025 FEW030TCU 22/09 Q1014 BECMG 22015KT,0,8,0,10000,0,0,0,
2026-04-12 07:30:00,METAR LCLK 120730Z 31010KT 270V340 9999 SCT025 FEW030TCU 22/09 Q1014 BECMG 22015KT,0,10,0,10000,0,0,0,
2026-04-12 07:00:00,METAR LCLK 120700Z 29011KT 9999 SCT025 FEW030TCU 21/11 Q1014 BECMG 22015KT,0,11,0,10000,0,0,0,
2026-04-12 06:30:00,METAR LCLK 120630Z 30011KT 270V330 9999 FEW025 FEW030TCU 21/12 Q1014 NOSIG,0,11,0,10000,0,0,0,
2026-04-12 06:00:00,METAR LCLK 120600Z 30009KT 270V340 9999 FEW030TCU 20/11 Q1014 NOSIG,0,9,0,10000,0,0,0,
2026-04-12 05:30:00,METAR LCLK 120530Z VRB03KT 9999 FEW030TCU 18/10 Q1014 NOSIG,0,3,0,10000,0,0,0,
2026-04-12 05:00:00,METAR LCLK 120500Z VRB02KT 9999 FEW040 15/09 Q1014 NOSIG,0,2,0,10000,0,0,0,
2026-04-12 04:30:00,METAR LCLK 120430Z 32005KT 9999 FEW040 13/09 Q1014 NOSIG,0,5,0,10000,0,0,0,
2026-04-12 04:00:00,METAR LCLK 120400Z 32006KT 9999 FEW040 10/08 Q1013 NOSIG,0,6,0,10000,0,0,0,
2026-04-12 03:30:00,METAR LCLK 120330Z 31004KT 270V330 9999 FEW040 09/07 Q1013 NOSIG,0,4,0,10000,0,0,0,
2026-04-12 03:00:00,METAR LCLK 120300Z 28004KT CAVOK 09/07 Q1013 NOSIG,1,0,0,9999,0,0,0,
2026-04-12 02:30:00,METAR LCLK 120230Z 30004KT CAVOK 09/07 Q1013 NOSIG,1,0,0,9999,0,0,0,
2026-04-12 02:00:00,METAR LCLK 120200Z VRB01KT CAVOK 10/08 Q1013 NOSIG,1,0,0,9999,0,0,0,
2026-04-12 01:30:00,METAR LCLK 120130Z 00000KT CAVOK 11/08 Q1013 NOSIG,1,0,0,9999,0,0,0,
2026-04-12 01:00:00,METAR LCLK 120100Z 30003KT CAVOK 12/09 Q1013 NOSIG,1,0,0,9999,0,0,0,
2026-04-12 00:30:00,METAR LCLK 120030Z VRB02KT CAVOK 13/09 Q1013 NOSIG,1,0,0,9999,0,0,0,
2026-04-12 00:00:00,METAR LCLK 120000Z 22005KT CAVOK 13/09 Q1013 NOSIG,1,0,0,9999,0,0,0,
2026-04-11 23:30:00,METAR LCLK 112330Z 24002KT CAVOK 13/09 Q1014 NOSIG,1,0,0,9999,0,0,0,
2026-04-11 23:00:00,METAR LCLK 112300Z 24003KT CAVOK 13/09 Q1014 NOSIG,1,0,0,9999,0,0,0,
2026-04-11 22:30:00,METAR LCLK 112230Z 25002KT CAVOK 13/09 Q1014 NOSIG,1,0,0,9999,0,0,0,
2026-04-11 22:00:00,METAR LCLK 112200Z 27003KT CAVOK 13/09 Q1015 NOSIG,1,0,0,9999,0,0,0,
2026-04-11 21:30:00,METAR LCLK 112130Z 32003KT CAVOK 13/08 Q1015 NOSIG,1,0,0,9999,0,0,0,
2026-04-11 21:00:00,METAR LCLK 112100Z VRB02KT CAVOK 13/08 Q1015 NOSIG,1,0,0,9999,0,0,0,
2026-04-11 20:30:00,METAR LCLK 112030Z VRB01KT 9999 FEW050 13/07 Q1015 NOSIG,0,1,0,10000,0,0,0,
2026-04-11 20:00:00,METAR LCLK 112000Z VRB03KT 9999 FEW050 13/08 Q1015 NOSIG,0,3,0,10000,0,0,0,
2026-04-11 19:30:00,METAR LCLK 111930Z VRB02KT 9999 FEW050 13/07 Q1015 NOSIG,0,2,0,10000,0,0,0,
2026-04-11 19:00:00,METAR LCLK 111900Z VRB02KT 9999 FEW050 13/07 Q1015 NOSIG,0,2,0,10000,0,0,0,
2026-04-11 18:30:00,METAR LCLK 111830Z 29004KT 250V310 9999 FEW050 14/08 Q1015 NOSIG,0,4,0,10000,0,0,0,
2026-04-11 18:00:00,METAR LCLK 111800Z 27004KT 9999 FEW050 14/07 Q1015 NOSIG,0,4,0,10000,0,0,0,
2026-04-11 17:30:00,METAR LCLK 111730Z 28004KT 250V310 9999 FEW050 15/08 Q1015 NOSIG,0,4,0,10000,0,0,0,
2026-04-11 17:00:00,METAR LCLK 111700Z 30005KT 9999 FEW040 16/07 Q1014 NOSIG,0,5,0,10000,0,0,0,
2026-04-11 16:30:00,METAR LCLK 111630Z 28005KT 250V310 9999 FEW040 17/08 Q1014 NOSIG,0,5,0,10000,0,0,0,
2026-04-11 16:00:00,METAR LCLK 111600Z 30007KT 9999 FEW040 18/08 Q1014 NOSIG,0,7,0,10000,0,0,0,
2026-04-11 15:30:00,METAR LCLK 111530Z 31009KT 270V340 9999 FEW040 19/08 Q1014 NOSIG,0,9,0,10000,0,0,0,
2026-04-11 15:00:00,METAR LCLK 111500Z 24007KT 200V270 9999 FEW040 SCT050 19/12 Q1014 NOSIG,0,7,0,10000,0,0,0,
2026-04-11 14:30:00,METAR LCLK 111430Z 22008KT 9999 FEW040 BKN050 19/12 Q1014 NOSIG,0,8,0,10000,0,0,0,
2026-04-11 14:00:00,METAR LCLK 111400Z 22011KT 9999 FEW040 SCT050 19/13 Q1013 NOSIG,0,11,0,10000,0,0,0,
2026-04-11 13:30:00,METAR LCLK 111330Z 22014KT 9999 FEW025 FEW030TCU BKN050 19/13 Q1013 NOSIG,0,14,0,10000,0,0,0,
2026-04-11 13:00:00,METAR LCLK 111300Z 20011KT 9999 FEW025 FEW030TCU SCT060 19/14 Q1013 NOSIG,0,11,0,10000,0,0,0,
2026-04-11 12:30:00,METAR LCLK 111230Z 21012KT 9999 FEW025 FEW030TCU SCT060 18/14 Q1014 NOSIG,0,12,0,10000,0,0,0,
2026-04-11 12:00:00,METAR LCLK 111200Z 22015KT 9999 -SHRA FEW025 FEW030TCU BKN060 18/14 Q1014 NOSIG,0,15,0,10000,0,0,0,RA
2026-04-11 11:30:00,METAR LCLK 111130Z 21016KT 9999 -SHRA FEW025 FEW030TCU BKN040 18/14 Q1014 NOSIG,0,16,0,10000,0,0,0,RA
2026-04-11 11:00:00,METAR LCLK 111100Z 22016KT 9999 FEW025 SCT040 19/14 Q1014 NOSIG,0,16,0,10000,0,0,0,
2026-04-11 10:30:00,METAR LCLK 111030Z 22016KT 9999 FEW025 SCT040 20/14 Q1014 NOSIG,0,16,0,10000,0,0,0,
2026-04-11 10:00:00,METAR LCLK 111000Z 21018KT 9999 FEW035TCU BKN050 21/14 Q1014 NOSIG,0,18,0,10000,0,0,0,
2026-04-11 09:30:00,METAR LCLK 110930Z 21018KT 9999 FEW035TCU SCT060 21/14 Q1014 NOSIG,0,18,0,10000,0,0,0,
2026-04-11 09:00:00,METAR LCLK 110900Z 22018KT 9999 SCT030 21/13 Q1014 NOSIG,0,18,0,10000,0,0,0,
2026-04-11 08:30:00,METAR LCLK 110830Z 21018KT 9999 FEW040 SCT060 20/14 Q1014 NOSIG,0,18,0,10000,0,0,0,
2026-04-11 08:00:00,METAR LCLK 110800Z 21017KT 9999 FEW040 SCT060 21/14 Q1014 NOSIG,0,17,0,10000,0,0,0,
2026-04-11 07:30:00,METAR LCLK 110730Z 21016KT 9999 FEW040 21/14 Q1014 NOSIG,0,16,0,10000,0,0,0,
2026-04-11 07:00:00,METAR LCLK 110700Z 22016KT 9999 FEW040 20/14 Q1014 NOSIG,0,16,0,10000,0,0,0,
2026-04-11 06:30:00,METAR LCLK 110630Z 22015KT 9999 FEW040 19/14 Q1014 NOSIG,0,15,0,10000,0,0,0,
2026-04-11 06:00:00,METAR LCLK 110600Z 22013KT 9999 FEW040 18/14 Q1014 NOSIG,0,13,0,10000,0,0,0,
2026-04-11 05:30:00,METAR LCLK 110530Z 22010KT 9999 FEW040 17/13 Q1014 NOSIG,0,10,0,10000,0,0,0,
2026-04-11 05:00:00,METAR LCLK 110500Z 22011KT 9999 FEW040 16/12 Q1014 NOSIG,0,11,0,10000,0,0,0,
2026-04-11 04:30:00,METAR LCLK 110430Z 20007KT 9999 FEW040 14/10 Q1014 NOSIG,0,7,0,10000,0,0,0,
2026-04-11 04:00:00,METAR LCLK 110400Z 30003KT 9999 FEW040 09/06 Q1014 NOSIG,0,3,0,10000,0,0,0,
2026-04-11 03:30:00,METAR LCLK 110330Z 32004KT 9999 FEW040 08/05 Q1014 NOSIG,0,4,0,10000,0,0,0,
2026-04-11 03:00:00,METAR LCLK 110300Z 30004KT 9999 FEW040 09/05 Q1014 NOSIG,0,4,0,10000,0,0,0,
2026-04-11 02:30:00,METAR LCLK 110230Z 30003KT 260V330 9999 FEW040 09/05 Q1014 NOSIG,0,3,0,10000,0,0,0,
2026-04-11 02:00:00,METAR LCLK 110200Z 27004KT CAVOK 10/05 Q1013 NOSIG,1,0,0,9999,0,0,0,
2026-04-11 01:30:00,METAR LCLK 110130Z 27003KT CAVOK 09/05 Q1013 NOSIG,1,0,0,9999,0,0,0,
2026-04-11 01:00:00,METAR LCLK 110100Z VRB03KT CAVOK 10/06 Q1013 NOSIG,1,0,0,9999,0,0,0,
2026-04-11 00:30:00,METAR LCLK 110030Z 29003KT CAVOK 11/06 Q1013 NOSIG,1,0,0,9999,0,0,0,
2026-04-11 00:00:00,METAR LCLK 110000Z 27004KT 230V300 CAVOK 13/06 Q1014 NOSIG,1,0,0,9999,0,0,0,
2026-04-10 23:30:00,METAR LCLK 102330Z 24007KT CAVOK 12/06 Q1014 NOSIG,1,0,0,9999,0,0,0,
2026-04-10 23:00:00,METAR LCLK 102300Z 27004KT 240V300 CAVOK 11/06 Q1014 NOSIG,1,0,0,9999,0,0,0,
2026-04-10 22:30:00,METAR LCLK 102230Z 29003KT CAVOK 11/06 Q1014 NOSIG,1,0,0,9999,0,0,0,
2026-04-10 22:00:00,METAR LCLK 102200Z 26004KT CAVOK 10/06 Q1014 NOSIG,1,0,0,9999,0,0,0,
2026-04-10 21:30:00,METAR LCLK 102130Z 28003KT 240V330 CAVOK 12/07 Q1014 NOSIG,1,0,0,9999,0,0,0,
2026-04-10 21:00:00,METAR LCLK 102100Z 26004KT 200V310 CAVOK 13/07 Q1014 NOSIG,1,0,0,9999,0,0,0,
2026-04-10 20:30:00,METAR LCLK 102030Z 24003KT 220V280 CAVOK 12/07 Q1014 NOSIG,1,0,0,9999,0,0,0,
2026-04-10 20:00:00,METAR LCLK 102000Z 24004KT 200V270 CAVOK 12/07 Q1014 NOSIG,1,0,0,9999,0,0,0,
2026-04-10 19:30:00,METAR LCLK 101930Z 22004KT CAVOK 12/07 Q1014 NOSIG,1,0,0,9999,0,0,0,
2026-04-10 19:00:00,METAR LCLK 101900Z VRB02KT CAVOK 12/07 Q1014 NOSIG,1,0,0,9999,0,0,0,
2026-04-10 18:30:00,METAR LCLK 101830Z 29004KT 260V330 CAVOK 13/07 Q1014 NOSIG,1,0,0,9999,0,0,0,
2026-04-10 18:00:00,METAR LCLK 101800Z VRB03KT CAVOK 15/07 Q1014 NOSIG,1,0,0,9999,0,0,0,
2026-04-10 17:30:00,METAR LCLK 101730Z 18003KT CAVOK 15/06 Q1013 NOSIG,1,0,0,9999,0,0,0,
2026-04-10 17:00:00,METAR LCLK 101700Z 29006KT 9999 FEW050 16/06 Q1013 NOSIG,0,6,0,10000,0,0,0,
2026-04-10 16:30:00,METAR LCLK 101630Z 27008KT 9999 FEW050 18/05 Q1013 NOSIG,0,8,0,10000,0,0,0,
2026-04-10 16:00:00,METAR LCLK 101600Z 31011KT 9999 FEW050 19/03 Q1013 NOSIG,0,11,0,10000,0,0,0,
2026-04-10 15:30:00,METAR LCLK 101530Z 31012KT 270V340 9999 FEW020 SCT070 19/04 Q1012 NOSIG,0,12,0,10000,0,0,0,
2026-04-10 15:00:00,METAR LCLK 101500Z 32010KT 290V350 9999 FEW020 SCT070 20/06 Q1012 NOSIG,0,10,0,10000,0,0,0,
2026-04-10 14:30:00,METAR LCLK 101430Z 33011KT 9999 FEW020 SCT050 21/08 Q1012 NOSIG,0,11,0,10000,0,0,0,
2026-04-10 14:00:00,METAR LCLK 101400Z 32011KT 9999 FEW020 SCT050 21/07 Q1012 NOSIG,0,11,0,10000,0,0,0,
2026-04-10 13:30:00,METAR LCLK 101330Z 32012KT 9999 FEW020 SCT050 22/09 Q1011 NOSIG,0,12,0,10000,0,0,0,
2026-04-10 13:00:00,METAR LCLK 101300Z 33011KT 290V360 9999 FEW020 SCT050 22/09 Q1011 NOSIG,0,11,0,10000,0,0,0,
2026-04-10 12:30:00,METAR LCLK 101230Z VRB04KT 9999 FEW020 SCT045 21/12 Q1012 NOSIG,0,4,0,10000,0,0,0,
2026-04-10 12:00:00,METAR LCLK 101200Z 27008KT 230V300 9999 FEW020 FEW030TCU BKN045 21/11 Q1012 NOSIG,0,8,0,10000,0,0,0,
2026-04-10 11:30:00,METAR LCLK 101130Z 23008KT 150V320 9999 FEW020 FEW030TCU BKN045 22/12 Q1012 NOSIG,0,8,0,10000,0,0,0,
2026-04-10 11:00:00,METAR LCLK 101100Z 21009KT 150V270 9999 FEW020 FEW030TCU BKN045 21/13 Q1012 NOSIG,0,9,0,10000,0,0,0,
2026-04-10 10:30:00,METAR LCLK 101030Z 31006KT 260V340 9999 FEW030TCU BKN050 21/13 Q1012 NOSIG,0,6,0,10000,0,0,0,
2026-04-10 10:00:00,METAR LCLK 101000Z 27010KT 200V310 9999 FEW030TCU BKN060 22/14 Q1012 NOSIG,0,10,0,10000,0,0,0,
2026-04-10 09:30:00,METAR LCLK 100930Z 23003KT 190V360 9999 FEW030TCU BKN060 21/14 Q1012 NOSIG,0,3,0,10000,0,0,0,
2026-04-10 09:00:00,METAR LCLK 100900Z 23004KT 180V270 9999 FEW030TCU SCT035 21/15 Q1012 NOSIG,0,4,0,10000,0,0,0,
2026-04-10 08:30:00,METAR LCLK 100830Z VRB04KT 9999 FEW025 FEW030TCU SCT035 BKN050 20/14 Q1012 NOSIG,0,4,0,10000,0,0,0,
2026-04-10 08:00:00,METAR LCLK 100800Z VRB03KT 9999 FEW025 FEW030TCU SCT035 BKN050 20/14 Q1012 NOSIG,0,3,0,10000,0,0,0,
2026-04-10 07:30:00,METAR LCLK 100730Z VRB02KT 9999 FEW025 FEW030TCU SCT035 21/14 Q1012 NOSIG,0,2,0,10000,0,0,0,
2026-04-10 07:00:00,METAR LCLK 100700Z 30005KT 230V340 9999 FEW025 FEW030TCU SCT050 20/15 Q1012 NOSIG,0,5,0,10000,0,0,0,
2026-04-10 06:30:00,METAR LCLK 100630Z 29004KT 250V350 9999 FEW025 FEW030TCU 19/16 Q1012 NOSIG,0,4,0,10000,0,0,0,
2026-04-10 06:00:00,METAR LCLK 100600Z VRB03KT 9999 FEW025 FEW030TCU BKN060 17/14 Q1012 NOSIG,0,3,0,10000,0,0,0,
2026-04-10 05:30:00,METAR LCLK 100530Z 00000KT 9999 FEW025 FEW030TCU BKN060 16/14 Q1011 NOSIG,0,0,0,10000,0,0,0,
2026-04-10 05:00:00,METAR LCLK 100500Z VRB02KT 9999 FEW025 FEW030TCU BKN060 15/13 Q1011 NOSIG,0,2,0,10000,0,0,0,
2026-04-10 04:30:00,METAR LCLK 100430Z 32005KT 9999 FEW025 FEW030TCU 15/14 Q1011 NOSIG,0,5,0,10000,0,0,0,
2026-04-10 04:00:00,METAR LCLK 100400Z 27006KT 9999 FEW025 FEW030TCU 15/13 Q1011 NOSIG,0,6,0,10000,0,0,0,
2026-04-10 03:30:00,METAR LCLK 100330Z 27005KT 9999 FEW030 15/13 Q1011 NOSIG,0,5,0,10000,0,0,0,
2026-04-10 03:00:00,METAR LCLK 100300Z 27006KT 240V300 9999 FEW030 14/12 Q1011 NOSIG,0,6,0,10000,0,0,0,
2026-04-10 02:30:00,METAR LCLK 100230Z 31009KT 270V350 9999 FEW030 14/13 Q1011 NOSIG,0,9,0,10000,0,0,0,
2026-04-10 02:00:00,METAR LCLK 100200Z 23009KT CAVOK 15/13 Q1010 NOSIG,1,0,0,9999,0,0,0,
2026-04-10 01:30:00,METAR LCLK 100130Z 24008KT CAVOK 15/13 Q1010 NOSIG,1,0,0,9999,0,0,0,
2026-04-10 01:00:00,METAR LCLK 100100Z 25007KT CAVOK 15/13 Q1010 NOSIG,1,0,0,9999,0,0,0,
2026-04-10 00:30:00,METAR LCLK 100030Z 24008KT CAVOK 15/13 Q1010 NOSIG,1,0,0,9999,0,0,0,
2026-04-10 00:00:00,METAR LCLK 100000Z 26006KT 9999 FEW025 16/13 Q1010 NOSIG,0,6,0,10000,0,0,0,
2026-04-09 23:30:00,METAR LCLK 092330Z 27006KT 240V320 9999 FEW025 15/13 Q1011 NOSIG,0,6,0,10000,0,0,0,
2026-04-09 23:00:00,METAR LCLK 092300Z 24011KT 9999 FEW025 16/13 Q1011 NOSIG,0,11,0,10000,0,0,0,
2026-04-09 22:30:00,METAR LCLK 092230Z 24011KT 9999 FEW025 16/13 Q1011 NOSIG,0,11,0,10000,0,0,0,
2026-04-09 22:00:00,METAR LCLK 092200Z 22014KT 9999 FEW025 16/14 Q1011 NOSIG,0,14,0,10000,0,0,0,
2026-04-09 21:30:00,METAR LCLK 092130Z 24013KT 9999 FEW025 17/14 Q1011 NOSIG,0,13,0,10000,0,0,0,
2026-04-09 21:00:00,METAR LCLK 092100Z 25011KT 9999 FEW030 16/14 Q1011 NOSIG,0,11,0,10000,0,0,0,
2026-04-09 20:30:00,METAR LCLK 092030Z 23008KT 9999 FEW030 16/15 Q1011 NOSIG,0,8,0,10000,0,0,0,
2026-04-09 20:00:00,METAR LCLK 092000Z 23009KT 9999 FEW030 16/15 Q1011 NOSIG,0,9,0,10000,0,0,0,
2026-04-09 19:30:00,METAR LCLK 091930Z 22007KT CAVOK 15/14 Q1011 NOSIG,1,0,0,9999,0,0,0,
2026-04-09 19:00:00,METAR LCLK 091900Z 26007KT CAVOK 15/14 Q1012 NOSIG,1,0,0,9999,0,0,0,
2026-04-09 18:30:00,METAR LCLK 091830Z 28005KT 250V310 CAVOK 15/14 Q1012 NOSIG,1,0,0,9999,0,0,0,
2026-04-09 18:00:00,METAR LCLK 091800Z 24007KT CAVOK 16/15 Q1011 NOSIG,1,0,0,9999,0,0,0,
2026-04-09 17:30:00,METAR LCLK 091730Z 23010KT 9999 FEW050 16/15 Q1011 NOSIG,0,10,0,10000,0,0,0,
2026-04-09 17:00:00,METAR LCLK 091700Z 24010KT 9999 FEW030 17/15 Q1011 NOSIG,0,10,0,10000,0,0,0,
2026-04-09 16:30:00,METAR LCLK 091630Z 23012KT 9999 FEW030 17/15 Q1011 NOSIG,0,12,0,10000,0,0,0,
2026-04-09 16:00:00,METAR LCLK 091600Z 22016KT 9999 FEW030 18/16 Q1011 NOSIG,0,16,0,10000,0,0,0,
2026-04-09 15:30:00,METAR LCLK 091530Z 22014KT 9999 FEW030 18/16 Q1011 NOSIG,0,14,0,10000,0,0,0,
2026-04-09 15:00:00,METAR LCLK 091500Z 21015KT 9999 FEW016 FEW020CB FEW030TCU SCT060 18/17 Q1011 NOSIG RMK CB TO E,0,15,0,10000,0,0,0,
2026-04-09 14:30:00,METAR LCLK 091430Z 21014KT 9999 -SHRA FEW016 FEW030TCU BKN055 18/17 Q1011 NOSIG,0,14,0,10000,0,0,0,RA
2026-04-09 14:00:00,METAR LCLK 091400Z 22017KT 9999 -SHRA FEW016 FEW030CB BKN055 18/17 Q1011 NOSIG RMK CB TO S. E,0,17,0,10000,0,0,0,RA
2026-04-09 13:30:00,METAR LCLK 091330Z 22017KT 9999 -SHRA FEW016 FEW030CB SCT050 18/17 Q1011 NOSIG RMK CB TO S. E,0,17,0,10000,0,0,0,RA
2026-04-09 13:00:00,METAR LCLK 091300Z 22019KT 9999 -DZ FEW016 SCT020 FEW030CB 18/16 Q1011 NOSIG RMK CB TO S,0,19,0,10000,0,0,0,DZ
2026-04-09 12:30:00,METAR LCLK 091230Z 22020KT 9999 FEW016 SCT020 FEW030CB 18/16 Q1011 NOSIG RMK CB TO S,0,20,0,10000,0,0,0,
2026-04-09 12:00:00,METAR LCLK 091200Z 21018KT 9999 -SHRA FEW016 SCT020 FEW030CB 19/17 Q1011 TEMPO TS RMK CB TO NW,0,18,0,10000,1,0,0,"RA,TS"
2026-04-09 11:30:00,METAR LCLK 091130Z 22020KT 9999 -SHRA FEW016 SCT020 FEW030CB 20/17 Q1011 TEMPO TS RMK CB TO NW,0,20,0,10000,1,0,0,"RA,TS"
2026-04-09 11:00:00,METAR LCLK 091100Z 22020KT 9999 FEW016 FEW030CB SCT040 22/17 Q1011 NOSIG RMK CB TO NW,0,20,0,10000,0,0,0,
2026-04-09 10:30:00,METAR LCLK 091030Z 21018KT 9999 FEW020 FEW030TCU SCT040 23/17 Q1011 NOSIG,0,18,0,10000,0,0,0,
2026-04-09 10:00:00,METAR LCLK 091000Z 21017KT 9999 FEW020 FEW030TCU 23/17 Q1011 NOSIG,0,17,0,10000,0,0,0,
2026-04-09 09:30:00,METAR LCLK 090930Z 19014KT 9999 FEW020 FEW030TCU 21/17 Q1012 NOSIG,0,14,0,10000,0,0,0,
2026-04-09 09:00:00,METAR LCLK 090900Z 19013KT 9999 FEW020 FEW030TCU 22/17 Q1012 NOSIG,0,13,0,10000,0,0,0,
2026-04-09 08:30:00,METAR LCLK 090830Z 22012KT 9999 FEW020 FEW030TCU 22/15 Q1012 NOSIG,0,12,0,10000,0,0,0,
2026-04-09 08:00:00,METAR LCLK 090800Z 22011KT 9999 FEW020 FEW030TCU SCT040 21/16 Q1012 NOSIG,0,11,0,10000,0,0,0,
2026-04-09 07:30:00,METAR LCLK 090730Z 21012KT 9999 SCT020 FEW030TCU SCT040 20/16 Q1012 NOSIG,0,12,0,10000,0,0,0,
2026-04-09 07:00:00,METAR LCLK 090700Z 17006KT 070V230 9999 SCT020 FEW030TCU SCT050 20/16 Q1012 NOSIG,0,6,0,10000,0,0,0,
2026-04-09 06:30:00,METAR LCLK 090630Z 25008KT 9999 FEW020 FEW030TCU SCT050 19/15 Q1012 NOSIG,0,8,0,10000,0,0,0,
2026-04-09 06:00:00,METAR LCLK 090600Z 24011KT 9999 FEW020 FEW030TCU SCT050 20/15 Q1012 NOSIG,0,11,0,10000,0,0,0,
2026-04-09 05:30:00,METAR LCLK 090530Z 23010KT 9999 FEW035 18/15 Q1012 NOSIG,0,10,0,10000,0,0,0,
2026-04-09 05:00:00,METAR LCLK 090500Z 23011KT 9999 FEW035 17/14 Q1012 NOSIG,0,11,0,10000,0,0,0,
2026-04-09 04:30:00,METAR LCLK 090430Z 23011KT 9999 FEW035 16/13 Q1012 NOSIG,0,11,0,10000,0,0,0,
2026-04-09 04:00:00,METAR LCLK 090400Z 24013KT 9999 FEW030TCU 15/13 Q1012 NOSIG,0,13,0,10000,0,0,0,
2026-04-09 03:30:00,METAR LCLK 090330Z 23012KT 9999 FEW030 15/14 Q1011 NOSIG,0,12,0,10000,0,0,0,
2026-04-09 03:00:00,METAR LCLK 090300Z 23010KT 9999 FEW030 15/14 Q1011 NOSIG,0,10,0,10000,0,0,0,
2026-04-09 02:30:00,METAR LCLK 090230Z 21007KT 9999 FEW030 14/13 Q1011 NOSIG,0,7,0,10000,0,0,0,
2026-04-09 02:00:00,METAR LCLK 090200Z 22005KT CAVOK 13/11 Q1011 NOSIG,1,0,0,9999,0,0,0,
2026-04-09 01:30:00,METAR LCLK 090130Z 21007KT CAVOK 14/11 Q1012 NOSIG,1,0,0,9999,0,0,0,
2026-04-09 01:00:00,METAR LCLK 090100Z 22007KT CAVOK 14/11 Q1012 NOSIG,1,0,0,9999,0,0,0,
2026-04-09 00:30:00,METAR LCLK 090030Z 26002KT CAVOK 11/09 Q1012 NOSIG,1,0,0,9999,0,0,0,
2026-04-09 00:00:00,METAR LCLK 090000Z 27006KT CAVOK 11/09 Q1012 NOSIG,1,0,0,9999,0,0,0,
2026-04-08 23:30:00,METAR LCLK 082330Z 29003KT 240V330 CAVOK 11/10 Q1012 NOSIG,1,0,0,9999,0,0,0,
2026-04-08 23:00:00,METAR LCLK 082300Z 30004KT 280V340 CAVOK 12/10 Q1013 NOSIG,1,0,0,9999,0,0,0,
2026-04-08 22:30:00,METAR LCLK 082230Z 29007KT 240V340 CAVOK 15/12 Q1013 NOSIG,1,0,0,9999,0,0,0,
2026-04-08 22:00:00,METAR LCLK 082200Z 25005KT CAVOK 14/11 Q1013 NOSIG,1,0,0,9999,0,0,0,
2026-04-08 21:30:00,METAR LCLK 082130Z 24007KT CAVOK 15/12 Q1013 NOSIG,1,0,0,9999,0,0,0,
2026-04-08 21:00:00,METAR LCLK 082100Z 23010KT CAVOK 15/13 Q1013 NOSIG,1,0,0,9999,0,0,0,
2026-04-08 20:30:00,METAR LCLK 082030Z 24008KT CAVOK 15/12 Q1013 NOSIG,1,0,0,9999,0,0,0,
2026-04-08 20:00:00,METAR LCLK 082000Z 22010KT CAVOK 15/12 Q1013 NOSIG,1,0,0,9999,0,0,0,
2026-04-08 19:30:00,METAR LCLK 081930Z 23011KT CAVOK 16/13 Q1013 NOSIG,1,0,0,9999,0,0,0,
2026-04-08 19:00:00,METAR LCLK 081900Z 23012KT CAVOK 16/13 Q1013 NOSIG,1,0,0,9999,0,0,0,
2026-04-08 18:30:00,METAR LCLK 081830Z 23012KT CAVOK 17/13 Q1013 NOSIG,1,0,0,9999,0,0,0,
2026-04-08 18:00:00,METAR LCLK 081800Z 23014KT CAVOK 17/13 Q1013 NOSIG,1,0,0,9999,0,0,0,
2026-04-08 17:30:00,METAR LCLK 081730Z 23014KT 9999 FEW030 17/14 Q1012 NOSIG,0,14,0,10000,0,0,0,
2026-04-08 17:00:00,METAR LCLK 081700Z 23015KT 9999 FEW030 17/14 Q1012 NOSIG,0,15,0,10000,0,0,0,
2026-04-08 16:30:00,METAR LCLK 081630Z 22015KT 9999 FEW030 18/14 Q1012 NOSIG,0,15,0,10000,0,0,0,
2026-04-08 16:00:00,METAR LCLK 081600Z 23020KT 9999 FEW030 18/14 Q1012 NOSIG,0,20,0,10000,0,0,0,
2026-04-08 15:30:00,METAR LCLK 081530Z 22022KT 9999 FEW030 19/15 Q1012 NOSIG,0,22,0,10000,0,0,0,
2026-04-08 15:00:00,METAR LCLK 081500Z 23019KT 9999 FEW030 20/14 Q1012 NOSIG,0,19,0,10000,0,0,0,
2026-04-08 14:30:00,METAR LCLK 081430Z 22023G33KT 9999 FEW030 20/14 Q1012 NOSIG,0,23,1,10000,0,0,0,
2026-04-08 14:00:00,METAR LCLK 081400Z 22024KT 9999 FEW030 21/13 Q1012 NOSIG,0,24,0,10000,0,0,0,
2026-04-08 13:30:00,METAR LCLK 081330Z 22024KT 9999 FEW030 22/14 Q1012 NOSIG,0,24,0,10000,0,0,0,
2026-04-08 13:00:00,METAR LCLK 081300Z 22025KT 9999 FEW030 23/15 Q1012 NOSIG,0,25,0,10000,0,0,0,
2026-04-08 12:30:00,METAR LCLK 081230Z 22027KT 9999 FEW030 SCT040 23/15 Q1012 NOSIG,0,27,0,10000,0,0,0,
2026-04-08 12:00:00,METAR LCLK 081200Z 22025KT 9999 FEW030 23/15 Q1012 NOSIG,0,25,0,10000,0,0,0,
2026-04-08 11:30:00,METAR LCLK 081130Z 22026KT 9999 FEW030 23/15 Q1013 NOSIG,0,26,0,10000,0,0,0,
2026-04-08 11:00:00,METAR LCLK 081100Z 22025KT 9999 FEW030 22/15 Q1013 NOSIG,0,25,0,10000,0,0,0,
2026-04-08 10:30:00,METAR LCLK 081030Z 22025KT 9999 FEW030 23/15 Q1014 NOSIG,0,25,0,10000,0,0,0,
2026-04-08 10:00:00,METAR LCLK 081000Z 22025KT 9999 FEW030 22/16 Q1014 NOSIG,0,25,0,10000,0,0,0,
2026-04-08 09:30:00,METAR LCLK 080930Z 22023KT 9999 FEW030 22/16 Q1014 NOSIG,0,23,0,10000,0,0,0,
2026-04-08 09:00:00,METAR LCLK 080900Z 21021KT 9999 FEW030 23/16 Q1014 NOSIG,0,21,0,10000,0,0,0,
2026-04-08 08:30:00,METAR LCLK 080830Z 21020KT 9999 FEW025 23/16 Q1014 NOSIG,0,20,0,10000,0,0,0,
2026-04-08 08:00:00,METAR LCLK 080800Z 22017KT 9999 FEW025 22/16 Q1015 NOSIG,0,17,0,10000,0,0,0,
2026-04-08 07:30:00,METAR LCLK 080730Z 21016KT 9999 FEW025 22/16 Q1015 NOSIG,0,16,0,10000,0,0,0,
2026-04-08 07:00:00,METAR LCLK 080700Z 24010KT 9999 FEW025 21/15 Q1015 BECMG 22020KT,0,10,0,10000,0,0,0,
2026-04-08 06:30:00,METAR LCLK 080630Z 22010KT 9999 FEW025 19/13 Q1015 BECMG 22020KT,0,10,0,10000,0,0,0,
2026-04-08 06:00:00,METAR LCLK 080600Z 22009KT 9999 FEW025 18/15 Q1015 BECMG 22020KT,0,9,0,10000,0,0,0,
2026-04-08 05:30:00,METAR LCLK 080530Z 21007KT 6000 FEW025 16/15 Q1015 BECMG 9999,0,7,0,6000,0,0,0,
2026-04-08 05:00:00,METAR LCLK 080500Z 21004KT 4000 BR FEW050 15/15 Q1015 BECMG 5000,0,4,0,4000,0,0,1,BR
2026-04-08 04:30:00,METAR LCLK 080430Z VRB02KT 4500 BR FEW050 13/13 Q1015 BECMG 8000,0,2,0,4500,0,0,1,BR
2026-04-08 04:00:00,METAR LCLK 080400Z 28003KT 4000 BR FEW050 11/11 Q1015 BECMG 8000,0,3,0,4000,0,0,1,BR
2026-04-08 03:30:00,METAR LCLK 080330Z 30003KT 240V330 5000 BR FEW040 11/10 Q1015 BECMG 9999,0,3,0,5000,0,0,1,BR
2026-04-08 03:00:00,METAR LCLK 080300Z 33004KT 260V340 9999 FEW040 11/11 Q1015 NOSIG,0,4,0,10000,0,0,0,
2026-04-08 02:30:00,METAR LCLK 080230Z 32002KT CAVOK 11/11 Q1015 NOSIG,1,0,0,9999,0,0,0,
2026-04-08 02:00:00,METAR LCLK 080200Z 27002KT CAVOK 11/11 Q1015 NOSIG,1,0,0,9999,0,0,0,
2026-04-08 01:30:00,METAR LCLK 080130Z 31005KT CAVOK 11/11 Q1015 NOSIG,1,0,0,9999,0,0,0,
2026-04-08 01:00:00,METAR LCLK 080100Z 28002KT CAVOK 11/11 Q1015 NOSIG,1,0,0,9999,0,0,0,
2026-04-08 00:30:00,METAR LCLK 080030Z VRB03KT CAVOK 12/11 Q1015 NOSIG,1,0,0,9999,0,0,0,
2026-04-08 00:00:00,METAR LCLK 080000Z 31004KT CAVOK 12/11 Q1016 NOSIG,1,0,0,9999,0,0,0,
2026-04-07 23:30:00,METAR LCLK 072330Z 32003KT CAVOK 12/11 Q1015 NOSIG,1,0,0,9999,0,0,0,
2026-04-07 23:00:00,METAR LCLK 072300Z 31004KT CAVOK 12/11 Q1016 NOSIG,1,0,0,9999,0,0,0,
2026-04-07 22:30:00,METAR LCLK 072230Z 31004KT CAVOK 12/12 Q1016 NOSIG,1,0,0,9999,0,0,0,
2026-04-07 22:00:00,METAR LCLK 072200Z 32004KT CAVOK 13/12 Q1016 NOSIG,1,0,0,9999,0,0,0,
2026-04-07 21:30:00,METAR LCLK 072130Z 30003KT 270V330 CAVOK 13/13 Q1016 NOSIG,1,0,0,9999,0,0,0,
2026-04-07 21:00:00,METAR LCLK 072100Z VRB03KT CAVOK 14/13 Q1016 NOSIG,1,0,0,9999,0,0,0,
2026-04-07 20:30:00,METAR LCLK 072030Z 34005KT CAVOK 14/13 Q1016 NOSIG,1,0,0,9999,0,0,0,
2026-04-07 20:00:00,METAR LCLK 072000Z 33005KT 290V360 CAVOK 15/14 Q1016 NOSIG,1,0,0,9999,0,0,0,
2026-04-07 19:30:00,METAR LCLK 071930Z 32005KT CAVOK 15/14 Q1016 NOSIG,1,0,0,9999,0,0,0,
2026-04-07 19:00:00,METAR LCLK 071900Z 32005KT CAVOK 16/14 Q1017 NOSIG,1,0,0,9999,0,0,0,
2026-04-07 18:30:00,METAR LCLK 071830Z 29007KT CAVOK 16/14 Q1016 NOSIG,1,0,0,9999,0,0,0,
2026-04-07 18:00:00,METAR LCLK 071800Z 31003KT 240V330 CAVOK 16/13 Q1016 NOSIG,1,0,0,9999,0,0,0,
2026-04-07 17:30:00,METAR LCLK 071730Z VRB03KT CAVOK 16/14 Q1016 NOSIG,1,0,0,9999,0,0,0,
2026-04-07 17:00:00,METAR LCLK 071700Z 22006KT CAVOK 17/14 Q1016 NOSIG,1,0,0,9999,0,0,0,
2026-04-07 16:30:00,METAR LCLK 071630Z 23008KT 9999 FEW023 17/15 Q1015 NOSIG,0,8,0,10000,0,0,0,
2026-04-07 16:00:00,METAR LCLK 071600Z 23011KT 9999 FEW023 18/14 Q1015 NOSIG,0,11,0,10000,0,0,0,
2026-04-07 15:30:00,METAR LCLK 071530Z 22011KT 9999 FEW023 19/15 Q1015 NOSIG,0,11,0,10000,0,0,0,
2026-04-07 15:00:00,METAR LCLK 071500Z 21011KT 9999 FEW022 FEW030TCU 20/14 Q1015 NOSIG,0,11,0,10000,0,0,0,
2026-04-07 14:30:00,METAR LCLK 071430Z 22013KT 9999 FEW022 FEW030TCU 20/15 Q1015 NOSIG,0,13,0,10000,0,0,0,
2026-04-07 14:00:00,METAR LCLK 071400Z 21013KT 9999 FEW022 FEW030TCU 21/15 Q1015 NOSIG,0,13,0,10000,0,0,0,
2026-04-07 13:30:00,METAR LCLK 071330Z 21013KT 9999 FEW022 FEW030TCU 22/14 Q1016 NOSIG,0,13,0,10000,0,0,0,
2026-04-07 13:00:00,METAR LCLK 071300Z 21015KT 9999 FEW022 FEW030TCU SCT045 22/13 Q1016 NOSIG,0,15,0,10000,0,0,0,
2026-04-07 12:30:00,METAR LCLK 071230Z 22015KT 9999 FEW022 FEW025CB FEW030TCU SCT045 21/13 Q1016 NOSIG RMK CB TO SE,0,15,0,10000,0,0,0,
2026-04-07 12:00:00,METAR LCLK 071200Z 21016KT 9999 FEW022 FEW025CB FEW030TCU SCT047 21/15 Q1016 NOSIG RMK CB TO E,0,16,0,10000,0,0,0,
2026-04-07 11:30:00,METAR LCLK 071130Z 21014KT 9999 FEW022 FEW025CB FEW030TCU SCT043 20/15 Q1017 NOSIG RMK CB TO NE,0,14,0,10000,0,0,0,
2026-04-07 11:00:00,METAR LCLK 071100Z 21014KT 9999 FEW022 FEW025CB FEW030TCU SCT043 21/14 Q1017 NOSIG RMK CB TO NE,0,14,0,10000,0,0,0,
2026-04-07 10:30:00,METAR LCLK 071030Z 20013KT 9999 FEW022 FEW030TCU 22/15 Q1017 NOSIG,0,13,0,10000,0,0,0,
2026-04-07 10:00:00,METAR LCLK 071000Z 20013KT 9999 FEW022 FEW030TCU 21/15 Q1017 NOSIG,0,13,0,10000,0,0,0,
2026-04-07 09:30:00,METAR LCLK 070930Z 19014KT 9999 FEW022 FEW030TCU 21/15 Q1017 NOSIG,0,14,0,10000,0,0,0,
2026-04-07 09:00:00,METAR LCLK 070900Z 19011KT 9999 FEW022 FEW030TCU 21/14 Q1017 NOSIG,0,11,0,10000,0,0,0,
2026-04-07 08:30:00,METAR LCLK 070830Z 19009KT 9999 FEW022 FEW030TCU 20/14 Q1017 NOSIG,0,9,0,10000,0,0,0,
2026-04-07 08:00:00,METAR LCLK 070800Z 21008KT 170V240 9999 SCT022 FEW025CB FEW030TCU SCT043 19/14 Q1018 NOSIG RMK DISTANT CB TO N,0,8,0,10000,0,0,0,
2026-04-07 07:30:00,METAR LCLK 070730Z 19007KT 160V230 9999 SCT022 FEW025CB FEW030TCU BKN043 19/13 Q1018 NOSIG RMK DISTANT CB TO N,0,7,0,10000,0,0,0,
2026-04-07 07:00:00,METAR LCLK 070700Z 26003KT 210V360 9999 FEW022 FEW025CB FEW030TCU SCT035 21/14 Q1018 NOSIG RMK DISTANT CB TO N,0,3,0,10000,0,0,0,
2026-04-07 06:30:00,METAR LCLK 070630Z 29003KT 240V340 9999 FEW022 FEW025CB FEW030TCU 20/15 Q1018 NOSIG RMK DISTANT CB TO N,0,3,0,10000,0,0,0,
2026-04-07 06:00:00,METAR LCLK 070600Z 27004KT 240V310 9999 FEW025CB FEW030TCU 19/14 Q1018 NOSIG RMK DISTANT CB TO N,0,4,0,10000,0,0,0,
2026-04-07 05:30:00,METAR LCLK 070530Z VRB03KT 9999 FEW025 FEW030TCU 17/14 Q1017 NOSIG,0,3,0,10000,0,0,0,
2026-04-07 05:00:00,METAR LCLK 070500Z VRB03KT 9999 FEW025CB FEW035TCU 15/14 Q1017 NOSIG RMK DISTANCE CB TO S SE N,0,3,0,10000,0,0,0,
2026-04-07 04:30:00,METAR LCLK 070430Z 29003KT 240V300 9999 FEW025CB FEW035TCU 12/12 Q1017 NOSIG RMK DISTANCE CB TO S SE N,0,3,0,10000,0,0,0,
2026-04-07 04:00:00,METAR LCLK 070400Z 29003KT 260V320 9999 FEW025CB FEW035TCU 11/11 Q1017 NOSIG RMK DISTANCE CB TO S SE N,0,3,0,10000,0,0,0,
2026-04-07 03:30:00,METAR LCLK 070330Z 32004KT 280V340 9999 FEW025CB FEW035TCU 11/11 Q1017 NOSIG RMK DISTANCE CB TO S AND E,0,4,0,10000,0,0,0,
2026-04-07 03:00:00,METAR LCLK 070300Z VRB03KT 9999 FEW025TCU 11/10 Q1017 NOSIG,0,3,0,10000,0,0,0,
2026-04-07 02:30:00,METAR LCLK 070230Z 32003KT 9999 FEW030 11/11 Q1017 NOSIG,0,3,0,10000,0,0,0,
2026-04-07 02:00:00,METAR LCLK 070200Z 30003KT CAVOK 11/10 Q1017 NOSIG,1,0,0,9999,0,0,0,
2026-04-07 01:30:00,METAR LCLK 070130Z 30004KT CAVOK 11/11 Q1017 NOSIG,1,0,0,9999,0,0,0,
2026-04-07 01:00:00,METAR LCLK 070100Z 31004KT CAVOK 11/11 Q1017 NOSIG,1,0,0,9999,0,0,0,
2026-04-07 00:30:00,METAR LCLK 070030Z 29003KT CAVOK 11/10 Q1017 NOSIG,1,0,0,9999,0,0,0,
2026-04-07 00:00:00,METAR LCLK 070000Z 30002KT CAVOK 12/11 Q1017 NOSIG,1,0,0,9999,0,0,0,
2026-04-06 23:30:00,METAR LCLK 062330Z 32004KT 280V350 CAVOK 12/11 Q1017 NOSIG,1,0,0,9999,0,0,0,
2026-04-06 23:00:00,METAR LCLK 062300Z VRB02KT CAVOK 13/12 Q1017 NOSIG,1,0,0,9999,0,0,0,
2026-04-06 22:30:00,METAR LCLK 062230Z 23003KT CAVOK 13/13 Q1018 NOSIG,1,0,0,9999,0,0,0,
2026-04-06 22:00:00,METAR LCLK 062200Z 26003KT CAVOK 13/13 Q1018 NOSIG,1,0,0,9999,0,0,0,
2026-04-06 21:30:00,METAR LCLK 062130Z 23003KT CAVOK 13/12 Q1018 NOSIG,1,0,0,9999,0,0,0,
2026-04-06 21:00:00,METAR LCLK 062100Z 27002KT CAVOK 13/12 Q1018 NOSIG,1,0,0,9999,0,0,0,
2026-04-06 20:30:00,METAR LCLK 062030Z 26003KT CAVOK 13/12 Q1018 NOSIG,1,0,0,9999,0,0,0,
2026-04-06 20:00:00,METAR LCLK 062000Z VRB02KT CAVOK 13/12 Q1018 NOSIG,1,0,0,9999,0,0,0,
2026-04-06 19:30:00,METAR LCLK 061930Z VRB03KT CAVOK 13/12 Q1019 NOSIG,1,0,0,9999,0,0,0,
2026-04-06 19:00:00,METAR LCLK 061900Z 31005KT 260V350 CAVOK 13/12 Q1019 NOSIG,1,0,0,9999,0,0,0,
2026-04-06 18:30:00,METAR LCLK 061830Z 30004KT 9999 FEW025 14/12 Q1018 NOSIG,0,4,0,10000,0,0,0,
2026-04-06 18:00:00,METAR LCLK 061800Z 30005KT 9999 FEW025 14/12 Q1018 NOSIG,0,5,0,10000,0,0,0,
2026-04-06 17:30:00,METAR LCLK 061730Z VRB03KT 9999 FEW025 15/12 Q1018 NOSIG,0,3,0,10000,0,0,0,
2026-04-06 17:00:00,METAR LCLK 061700Z VRB03KT 9999 FEW025 FEW030TCU 16/12 Q1018 NOSIG,0,3,0,10000,0,0,0,
2026-04-06 16:30:00,METAR LCLK 061630Z 26004KT 220V340 9999 FEW025 FEW030TCU 16/13 Q1018 NOSIG,0,4,0,10000,0,0,0,
2026-04-06 16:00:00,METAR LCLK 061600Z 28004KT 220V330 9999 FEW025 FEW030TCU 16/14 Q1017 NOSIG,0,4,0,10000,0,0,0,
2026-04-06 15:30:00,METAR LCLK 061530Z 27007KT 9999 -SHRA FEW025TCU 18/14 Q1017 NOSIG,0,7,0,10000,0,0,0,RA
2026-04-06 15:00:00,METAR LCLK 061500Z 23006KT 9999 FEW025TCU 18/14 Q1018 NOSIG,0,6,0,10000,0,0,0,
2026-04-06 14:30:00,METAR LCLK 061430Z 21011KT 9999 FEW025TCU FEW030CB 20/13 Q1017 NOSIG RMK CB TO W AND N,0,11,0,10000,0,0,0,
2026-04-06 14:00:00,METAR LCLK 061400Z 21016KT 9999 FEW025TCU FEW030CB 20/15 Q1017 NOSIG RMK CB TO W AND N,0,16,0,10000,0,0,0,
2026-04-06 13:30:00,METAR LCLK 061330Z 22015KT 9999 FEW025TCU FEW030CB 20/14 Q1017 NOSIG RMK CB TO W AND N,0,15,0,10000,0,0,0,
2026-04-06 13:00:00,METAR LCLK 061300Z 22016KT 9999 FEW025TCU FEW030CB 20/14 Q1017 NOSIG RMK CB TO W AND N,0,16,0,10000,0,0,0,
2026-04-06 12:30:00,METAR LCLK 061230Z 22015KT 9999 FEW025TCU FEW030CB 20/14 Q1017 NOSIG RMK CB TO W AND N,0,15,0,10000,0,0,0,
2026-04-06 12:00:00,METAR LCLK 061200Z 21013KT 9999 FEW025TCU FEW030CB 21/14 Q1018 TEMPO 5000 TS SHRA SCT025TCU FEW030CB RMK CB TO W AND N,0,13,0,10000,1,0,0,"RA,SH,TS"
2026-04-06 11:30:00,METAR LCLK 061130Z 20011KT 180V240 9999 FEW025TCU FEW030CB 21/14 Q1018 TEMPO 5000 TS SHRA SCT025TCU FEW030CB RMK CB TO W AND N,0,11,0,10000,1,0,0,"RA,SH,TS"
2026-04-06 11:00:00,METAR LCLK 061100Z 19011KT 170V230 9999 FEW025 FEW030TCU FEW035CB 20/14 Q1018 NOSIG RMK CB TO W,0,11,0,10000,0,0,0,
2026-04-06 10:30:00,METAR LCLK 061030Z 18012KT 9999 FEW025 FEW030TCU FEW035CB 20/15 Q1018 NOSIG RMK CB TO W,0,12,0,10000,0,0,0,
2026-04-06 10:00:00,METAR LCLK 061000Z 18010KT 160V220 9999 FEW025 FEW030TCU FEW035CB 20/14 Q1018 TEMPO 5000 SHRA SCT025TCU RMK CB TO W,0,10,0,10000,0,0,0,"RA,SH"
2026-04-06 09:30:00,METAR LCLK 060930Z 17009KT 140V200 9999 FEW030 20/14 Q1019 NOSIG,0,9,0,10000,0,0,0,
2026-04-06 09:00:00,METAR LCLK 060900Z 17007KT 120V200 9999 FEW030 20/14 Q1019 NOSIG,0,7,0,10000,0,0,0,
2026-04-06 08:30:00,METAR LCLK 060830Z 16007KT 120V190 9999 SCT030 20/14 Q1019 NOSIG,0,7,0,10000,0,0,0,
2026-04-06 08:00:00,METAR LCLK 060800Z 13005KT 9999 SCT020 FEW025TCU 20/14 Q1019 NOSIG,0,5,0,10000,0,0,0,
2026-04-06 07:30:00,METAR LCLK 060730Z 10005KT 9999 SCT020 FEW025TCU 20/14 Q1019 NOSIG,0,5,0,10000,0,0,0,
2026-04-06 07:00:00,METAR LCLK 060700Z 10004KT 9999 SCT020 FEW025CB 20/13 Q1019 NOSIG RMK DISTANT CB TO SE,0,4,0,10000,0,0,0,
2026-04-06 06:30:00,METAR LCLK 060630Z 07004KT 040V100 9999 FEW020 FEW025CB 18/14 Q1019 NOSIG RMK DISTANT CB TO SE,0,4,0,10000,0,0,0,
2026-04-06 06:00:00,METAR LCLK 060600Z 36004KT 9999 FEW020 FEW025TCU 17/14 Q1018 NOSIG,0,4,0,10000,0,0,0,
2026-04-06 05:30:00,METAR LCLK 060530Z 34003KT 300V360 9999 FEW020TCU 16/15 Q1018 NOSIG,0,3,0,10000,0,0,0,
2026-04-06 05:00:00,METAR LCLK 060500Z VRB03KT 9999 FEW020TCU 14/13 Q1018 NOSIG,0,3,0,10000,0,0,0,
2026-04-06 04:30:00,METAR LCLK 060430Z 30005KT 9999 FEW020TCU FEW030CB 12/12 Q1018 NOSIG RMK DISTANT CB TO S E,0,5,0,10000,0,0,0,
2026-04-06 04:00:00,METAR LCLK 060400Z 31005KT 280V340 9999 FEW025 FEW030CB 11/11 Q1018 NOSIG RMK DISTANT CB TO SE,0,5,0,10000,0,0,0,
2026-04-06 03:30:00,METAR LCLK 060330Z 31005KT 9999 FEW025 FEW030CB 11/10 Q1017 NOSIG RMK DISTANT CB TO SE,0,5,0,10000,0,0,0,
2026-04-06 03:00:00,METAR LCLK 060300Z 31004KT 9999 FEW025 11/11 Q1017 NOSIG,0,4,0,10000,0,0,0,
2026-04-06 02:30:00,METAR LCLK 060230Z 31003KT 9999 FEW040 11/11 Q1017 NOSIG,0,3,0,10000,0,0,0,
2026-04-06 02:00:00,METAR LCLK 060200Z 32004KT 260V350 9999 FEW040 11/11 Q1017 NOSIG,0,4,0,10000,0,0,0,
2026-04-06 01:30:00,METAR LCLK 060130Z 31004KT CAVOK 11/11 Q1017 NOSIG,1,0,0,9999,0,0,0,
2026-04-06 01:00:00,METAR LCLK 060100Z 30006KT CAVOK 11/11 Q1017 NOSIG,1,0,0,9999,0,0,0,
2026-04-06 00:30:00,METAR LCLK 060030Z 31006KT CAVOK 11/11 Q1017 NOSIG,1,0,0,9999,0,0,0,
2026-04-06 00:00:00,METAR LCLK 060000Z 30006KT 9999 FEW030 11/11 Q1016 NOSIG,0,6,0,10000,0,0,0,
2026-04-05 23:30:00,METAR LCLK 052330Z 29005KT 9999 FEW030 11/11 Q1017 NOSIG,0,5,0,10000,0,0,0,
2026-04-05 23:00:00,METAR LCLK 052300Z 31005KT 9999 FEW030 11/11 Q1017 NOSIG,0,5,0,10000,0,0,0,
2026-04-05 22:30:00,METAR LCLK 052230Z 32006KT 9999 FEW030 11/11 Q1017 NOSIG,0,6,0,10000,0,0,0,
2026-04-05 22:00:00,METAR LCLK 052200Z 29004KT 9999 FEW030 11/11 Q1017 NOSIG,0,4,0,10000,0,0,0,
2026-04-05 21:30:00,METAR LCLK 052130Z 31005KT 9999 FEW030 12/11 Q1017 NOSIG,0,5,0,10000,0,0,0,
2026-04-05 21:00:00,METAR LCLK 052100Z 31005KT 9999 FEW030 12/11 Q1017 NOSIG,0,5,0,10000,0,0,0,
2026-04-05 20:30:00,METAR LCLK 052030Z 31004KT 9999 FEW030 12/11 Q1017 NOSIG,0,4,0,10000,0,0,0,
2026-04-05 20:00:00,METAR LCLK 052000Z 31005KT 9999 FEW025 SCT050 12/11 Q1018 NOSIG,0,5,0,10000,0,0,0,
2026-04-05 19:30:00,METAR LCLK 051930Z 32004KT 280V350 9999 FEW025 SCT050 12/11 Q1018 NOSIG,0,4,0,10000,0,0,0,
2026-04-05 19:00:00,METAR LCLK 051900Z 31006KT 9999 FEW025 SCT050 13/12 Q1018 NOSIG,0,6,0,10000,0,0,0,
2026-04-05 18:30:00,METAR LCLK 051830Z 30005KT 9999 FEW030 13/12 Q1018 NOSIG,0,5,0,10000,0,0,0,
2026-04-05 18:00:00,METAR LCLK 051800Z VRB03KT 9999 FEW030 14/13 Q1017 NOSIG,0,3,0,10000,0,0,0,
2026-04-05 17:30:00,METAR LCLK 051730Z 26003KT 9999 FEW030 15/14 Q1017 NOSIG,0,3,0,10000,0,0,0,
2026-04-05 17:00:00,METAR LCLK 051700Z 21003KT 9999 FEW030 15/14 Q1016 NOSIG,0,3,0,10000,0,0,0,
2026-04-05 16:30:00,METAR LCLK 051630Z VRB02KT 9999 FEW030TCU 16/14 Q1016 NOSIG,0,2,0,10000,0,0,0,
2026-04-05 16:00:00,METAR LCLK 051600Z 24003KT 9999 FEW030TCU 16/14 Q1016 NOSIG,0,3,0,10000,0,0,0,
2026-04-05 15:30:00,METAR LCLK 051530Z VRB02KT 9999 FEW020 FEW030TCU 17/15 Q1016 NOSIG,0,2,0,10000,0,0,0,
2026-04-05 15:00:00,METAR LCLK 051500Z 23007KT 9999 SCT020 FEW030TCU SCT040 16/15 Q1016 NOSIG,0,7,0,10000,0,0,0,
2026-04-05 13:00:00,METAR LCLK 051300Z 28008KT 250V310 9999 BKN020 FEW030CB 18/13 Q1016 TEMPO TS RMK CB TO N,0,8,0,10000,1,0,0,TS
2026-04-05 12:30:00,METAR LCLK 051230Z 21015KT 9999 FEW030TCU FEW035CB 20/14 Q1016 TEMPO TS RMK CB TO N,0,15,0,10000,1,0,0,TS
2026-04-05 12:00:00,METAR LCLK 051200Z 21014KT 9999 FEW025 FEW030TCU FEW035CB 19/14 Q1016 NOSIG RMK CB TO N,0,14,0,10000,0,0,0,
2026-04-05 11:30:00,METAR LCLK 051130Z 21012KT 180V240 9999 FEW025 FEW030TCU FEW035CB 20/13 Q1016 NOSIG RMK CB TO N,0,12,0,10000,0,0,0,
2026-04-05 11:00:00,METAR LCLK 051100Z 21013KT 180V240 9999 FEW025 FEW030TCU FEW035CB 19/14 Q1016 NOSIG RMK CB TO N,0,13,0,10000,0,0,0,
2026-04-05 10:30:00,METAR LCLK 051030Z 20015KT 9999 FEW025 FEW030TCU 20/13 Q1016 NOSIG,0,15,0,10000,0,0,0,
2026-04-05 10:00:00,METAR LCLK 051000Z 21013KT 9999 FEW025 FEW030TCU SCT040 20/14 Q1017 NOSIG,0,13,0,10000,0,0,0,
2026-04-05 09:30:00,METAR LCLK 050930Z 22015KT 9999 FEW025TCU SCT040 20/14 Q1017 NOSIG,0,15,0,10000,0,0,0,
2026-04-05 09:00:00,METAR LCLK 050900Z 21017KT 9999 FEW025TCU SCT030 19/13 Q1017 NOSIG,0,17,0,10000,0,0,0,
2026-04-05 08:30:00,METAR LCLK 050830Z 18012KT 160V220 9999 FEW025CB SCT030 20/14 Q1017 RMK CB TO S,0,12,0,10000,0,0,0,
2026-04-05 08:00:00,METAR LCLK 050800Z 18007KT 120V240 9999 FEW025CB SCT030 20/13 Q1017 NOSIG RMK CB TO S,0,7,0,10000,0,0,0,
2026-04-05 07:30:00,METAR LCLK 050730Z 16006KT 120V200 9999 FEW025CB 19/12 Q1017 NOSIG RMK CB TO S,0,6,0,10000,0,0,0,
2026-04-05 07:00:00,METAR LCLK 050700Z 22005KT 180V260 9999 FEW025CB 19/13 Q1016 NOSIG RMK CB TO S,0,5,0,10000,0,0,0,
2026-04-05 06:30:00,METAR LCLK 050630Z 15004KT 070V230 9999 FEW025CB 18/12 Q1016 NOSIG RMK CB TO S,0,4,0,10000,0,0,0,
2026-04-05 06:00:00,METAR LCLK 050600Z VRB01KT 9999 FEW025TCU 18/12 Q1016 NOSIG,0,1,0,10000,0,0,0,
2026-04-05 05:30:00,METAR LCLK 050530Z VRB02KT 9999 FEW025TCU 16/11 Q1016 NOSIG,0,2,0,10000,0,0,0,
2026-04-05 05:00:00,METAR LCLK 050500Z VRB02KT 9999 FEW025TCU 13/10 Q1016 NOSIG,0,2,0,10000,0,0,0,
2026-04-05 04:30:00,METAR LCLK 050430Z 33005KT 9999 FEW025TCU FEW030CB 11/09 Q1016 NOSIG RMK DISTANT CB TO SE,0,5,0,10000,0,0,0,
2026-04-05 04:00:00,METAR LCLK 050400Z 31004KT 290V350 9999 FEW025TCU FEW030CB 09/08 Q1016 NOSIG RMK DISTANT CB TO SE,0,4,0,10000,0,0,0,
2026-04-05 03:30:00,METAR LCLK 050330Z 30003KT 9999 FEW025 FEW030CB 08/08 Q1016 NOSIG RMK DISTANT CB TO S,0,3,0,10000,0,0,0,
2026-04-05 03:00:00,METAR LCLK 050300Z 29004KT 230V320 9999 FEW025 09/08 Q1015 NOSIG,0,4,0,10000,0,0,0,
2026-04-05 02:30:00,METAR LCLK 050230Z VRB01KT CAVOK 09/08 Q1015 NOSIG,1,0,0,9999,0,0,0,
2026-04-05 02:00:00,METAR LCLK 050200Z 32004KT CAVOK 09/08 Q1015 NOSIG,1,0,0,9999,0,0,0,
2026-04-05 01:30:00,METAR LCLK 050130Z 30004KT CAVOK 09/08 Q1015 NOSIG,1,0,0,9999,0,0,0,
2026-04-05 01:00:00,METAR LCLK 050100Z VRB03KT CAVOK 10/09 Q1015 NOSIG,1,0,0,9999,0,0,0,
2026-04-05 00:30:00,METAR LCLK 050030Z VRB02KT 9999 FEW050 10/09 Q1015 NOSIG,0,2,0,10000,0,0,0,
2026-04-05 00:00:00,METAR LCLK 050000Z 29003KT 9999 FEW030 10/09 Q1015 NOSIG,0,3,0,10000,0,0,0,
2026-04-04 23:30:00,METAR LCLK 042330Z 28003KT 250V310 9999 FEW020 12/09 Q1015 NOSIG,0,3,0,10000,0,0,0,
2026-04-04 23:00:00,METAR LCLK 042300Z 24004KT 210V270 9999 FEW020 12/10 Q1016 NOSIG,0,4,0,10000,0,0,0,
2026-04-04 22:30:00,METAR LCLK 042230Z VRB03KT CAVOK 12/10 Q1015 NOSIG,1,0,0,9999,0,0,0,
2026-04-04 22:00:00,METAR LCLK 042200Z 31004KT 230V340 CAVOK 14/11 Q1015 NOSIG,1,0,0,9999,0,0,0,
2026-04-04 21:30:00,METAR LCLK 042130Z 23009KT 9999 FEW050 15/12 Q1015 NOSIG,0,9,0,10000,0,0,0,
2026-04-04 21:00:00,METAR LCLK 042100Z 23008KT 9999 FEW050 14/11 Q1015 NOSIG,0,8,0,10000,0,0,0,
2026-04-04 20:30:00,METAR LCLK 042030Z 23007KT 9999 FEW050 14/11 Q1015 NOSIG,0,7,0,10000,0,0,0,
2026-04-04 20:00:00,METAR LCLK 042000Z 25006KT CAVOK 14/10 Q1015 NOSIG,1,0,0,9999,0,0,0,
2026-04-04 19:30:00,METAR LCLK 041930Z 24007KT CAVOK 13/10 Q1015 NOSIG,1,0,0,9999,0,0,0,
2026-04-04 19:00:00,METAR LCLK 041900Z 23006KT CAVOK 13/11 Q1015 NOSIG,1,0,0,9999,0,0,0,
2026-04-04 18:30:00,METAR LCLK 041830Z 24004KT 9999 FEW050 13/11 Q1015 NOSIG,0,4,0,10000,0,0,0,
2026-04-04 18:00:00,METAR LCLK 041800Z 28007KT 9999 FEW050 13/11 Q1015 NOSIG,0,7,0,10000,0,0,0,
2026-04-04 17:30:00,METAR LCLK 041730Z 31006KT 270V330 9999 FEW025 14/12 Q1015 NOSIG,0,6,0,10000,0,0,0,
2026-04-04 17:00:00,METAR LCLK 041700Z 31007KT 9999 FEW025 SCT050 14/12 Q1015 NOSIG,0,7,0,10000,0,0,0,
2026-04-04 16:30:00,METAR LCLK 041630Z 36007KT 9999 VCSH FEW025 FEW030TCU BKN050 15/12 Q1015 NOSIG,0,7,0,10000,0,0,0,"SH,VC"
2026-04-04 16:00:00,METAR LCLK 041600Z 29010KT 270V330 9999 -SHRA FEW025 FEW030TCU BKN050 15/12 Q1015 NOSIG,0,10,0,10000,0,0,0,RA
2026-04-04 15:30:00,METAR LCLK 041530Z 24011KT 9999 -SHRA FEW030 SCT050 17/13 Q1015 NOSIG,0,11,0,10000,0,0,0,RA
2026-04-04 15:00:00,METAR LCLK 041500Z 21004KT 9999 FEW030 SCT050 17/12 Q1015 NOSIG,0,4,0,10000,0,0,0,
2026-04-04 14:30:00,METAR LCLK 041430Z 19003KT 160V220 9999 FEW030 SCT050 18/12 Q1014 NOSIG,0,3,0,10000,0,0,0,
2026-04-04 14:00:00,METAR LCLK 041400Z 29005KT 260V320 9999 FEW025CB SCT050 17/13 Q1014 NOSIG,0,5,0,10000,0,0,0,
2026-04-04 13:30:00,METAR LCLK 041330Z 30008KT 250V340 9999 FEW025CB SCT050 16/13 Q1014 RETS NOSIG,0,8,0,10000,1,0,0,TS
2026-04-04 13:00:00,METAR LCLK 041300Z 30010KT 270V340 8000 -TSRA FEW025CB SCT030 BKN050 15/13 Q1014 TEMPO 5000 SHRA FEW025CB,0,10,0,8000,1,0,0,"RA,SH"
2026-04-04 12:30:00,METAR LCLK 041230Z 31011KT 9999 TS FEW025CB BKN050 19/12 Q1015 TEMPO 5000 SHRA FEW025CB RMK CB TO W NW,0,11,0,10000,1,0,0,"RA,SH,TS"
2026-04-04 12:00:00,METAR LCLK 041200Z 23019KT 8000 FEW025CB SCT060 21/14 Q1014 NOSIG RMK CB TO NE,0,19,0,8000,0,0,0,
2026-04-04 11:30:00,METAR LCLK 041130Z 22018KT 8000 -SHRA FEW025CB BKN060 20/14 Q1014 NOSIG RMK CB TO N,0,18,0,8000,0,0,0,RA
2026-04-04 11:00:00,METAR LCLK 041100Z 22018KT 6000 FEW025TCU SCT030 BKN070 21/14 Q1014 NOSIG,0,18,0,6000,0,0,0,
2026-04-04 10:30:00,METAR LCLK 041030Z 22021KT 6000 FEW025 21/14 Q1014 NOSIG,0,21,0,6000,0,0,0,
2026-04-04 10:00:00,METAR LCLK 041000Z 22018KT 6000 FEW025 21/14 Q1014 NOSIG,0,18,0,6000,0,0,0,
2026-04-04 09:30:00,METAR LCLK 040930Z 22018KT 6000 FEW030 21/13 Q1014 NOSIG,0,18,0,6000,0,0,0,
2026-04-04 09:00:00,METAR LCLK 040900Z 22018KT 6000 FEW030 21/12 Q1014 NOSIG,0,18,0,6000,0,0,0,
2026-04-04 08:30:00,METAR LCLK 040830Z 22016KT 6000 FEW030 20/13 Q1014 NOSIG,0,16,0,6000,0,0,0,
2026-04-04 08:00:00,METAR LCLK 040800Z 22017KT 6000 NSC 20/13 Q1014 NOSIG,0,17,0,6000,0,0,0,
2026-04-04 07:30:00,METAR LCLK 040730Z 22017KT 6000 NSC 20/12 Q1014 NOSIG,0,17,0,6000,0,0,0,
2026-04-04 07:00:00,METAR LCLK 040700Z 22013KT 6000 NSC 20/12 Q1014 NOSIG,0,13,0,6000,0,0,0,
2026-04-04 06:30:00,METAR LCLK 040630Z 22012KT 5000 DU NSC 19/13 Q1014 NOSIG,0,12,0,5000,0,0,0,
2026-04-04 06:00:00,METAR LCLK 040600Z 23009KT 5000 DU NSC 17/11 Q1014 NOSIG,0,9,0,5000,0,0,0,
2026-04-04 05:30:00,METAR LCLK 040530Z 22008KT 4000 DU NSC 15/11 Q1014 BECMG 5000 DU,0,8,0,4000,0,0,0,
2026-04-04 05:00:00,METAR LCLK 040500Z 21007KT 3500 DU NSC 13/10 Q1014 BECMG 5000 DU,0,7,0,3500,0,0,0,
2026-04-04 04:30:00,METAR LCLK 040430Z VRB02KT 3500 DU NSC 10/09 Q1014 BECMG 5000 DU,0,2,0,3500,0,0,0,
2026-04-04 04:00:00,METAR LCLK 040400Z 32004KT 250V330 3200 DU NSC 09/08 Q1014 BECMG 5000 DU,0,4,0,3200,0,0,0,
2026-04-04 03:30:00,METAR LCLK 040330Z 30005KT 3200 DU NSC 09/08 Q1014 BECMG 5000 DU,0,5,0,3200,0,0,0,
2026-04-04 03:00:00,METAR LCLK 040300Z VRB02KT 4000 DU NSC 09/07 Q1014 BECMG 5000 DU,0,2,0,4000,0,0,0,
2026-04-04 02:30:00,METAR LCLK 040230Z 32006KT 4000 DU NSC 10/08 Q1014 BECMG 5000 DU,0,6,0,4000,0,0,0,
2026-04-04 02:00:00,METAR LCLK 040200Z 31004KT 4000 DU NSC 10/08 Q1013 BECMG 5000 DU,0,4,0,4000,0,0,0,
2026-04-04 01:30:00,METAR LCLK 040130Z 30004KT 4000 DU NSC 10/08 Q1014 BECMG 5000 DU,0,4,0,4000,0,0,0,
2026-04-04 01:00:00,METAR LCLK 040100Z 29004KT 4000 DU NSC 10/08 Q1014 BECMG 5000 DU,0,4,0,4000,0,0,0,
2026-04-04 00:30:00,METAR LCLK 040030Z VRB03KT 4000 DU NSC 10/08 Q1014 BECMG 5000 DU,0,3,0,4000,0,0,0,
2026-04-04 00:00:00,METAR LCLK 040000Z 31006KT 4000 DU NSC 11/08 Q1014 BECMG 5000 DU,0,6,0,4000,0,0,0,
2026-04-03 23:30:00,METAR LCLK 032330Z 33007KT 4000 DU NSC 11/09 Q1014 BECMG 5000 DU,0,7,0,4000,0,0,0,
2026-04-03 23:00:00,METAR LCLK 032300Z 32005KT 3500 DU NSC 12/10 Q1014 BECMG 5000 DU,0,5,0,3500,0,0,0,
2026-04-03 22:30:00,METAR LCLK 032230Z 29004KT 240V310 3500 DU NSC 13/11 Q1014 BECMG 5000 DU,0,4,0,3500,0,0,0,
2026-04-03 22:00:00,METAR LCLK 032200Z 24005KT 190V350 3500 DU NSC 14/12 Q1014 BECMG 5000 DU,0,5,0,3500,0,0,0,
2026-04-03 21:30:00,METAR LCLK 032130Z 25004KT 200V300 3500 DU NSC 15/12 Q1014 BECMG 5000 DU,0,4,0,3500,0,0,0,
2026-04-03 21:00:00,METAR LCLK 032100Z 22006KT 190V300 3500 DU NSC 14/13 Q1014 BECMG 5000 DU,0,6,0,3500,0,0,0,
2026-04-03 20:30:00,METAR LCLK 032030Z 21008KT 3500 DU NSC 14/13 Q1014 BECMG 5000 DU,0,8,0,3500,0,0,0,
2026-04-03 20:00:00,METAR LCLK 032000Z 20007KT 3500 DU NSC 16/13 Q1014 BECMG 5000 DU,0,7,0,3500,0,0,0,
2026-04-03 19:30:00,METAR LCLK 031930Z 23008KT 3500 DU NSC 16/14 Q1014 BECMG 5000 DU,0,8,0,3500,0,0,0,
2026-04-03 19:00:00,METAR LCLK 031900Z 24006KT 3500 DU NSC 16/14 Q1014 BECMG 5000 DU,0,6,0,3500,0,0,0,
2026-04-03 18:30:00,METAR LCLK 031830Z 25010KT 3500 DU NSC 17/14 Q1014 BECMG 5000 DU,0,10,0,3500,0,0,0,
2026-04-03 18:00:00,METAR LCLK 031800Z 24009KT 3500 DU NSC 17/14 Q1013 BECMG 5000 DU,0,9,0,3500,0,0,0,
2026-04-03 17:30:00,METAR LCLK 031730Z 23009KT 3500 DU NSC 17/14 Q1013 BECMG 5000 DU,0,9,0,3500,0,0,0,
2026-04-03 17:00:00,METAR LCLK 031700Z 23009KT 3500 DU NSC 17/14 Q1013 BECMG 5000 DU,0,9,0,3500,0,0,0,
2026-04-03 16:30:00,METAR LCLK 031630Z 23011KT 2500 DU NSC 18/14 Q1013 NOSIG,0,11,0,2500,0,0,0,
2026-04-03 16:00:00,METAR LCLK 031600Z 23014KT 3500 DU NSC 18/14 Q1012 BECMG 5000 DU,0,14,0,3500,0,0,0,
2026-04-03 15:30:00,METAR LCLK 031530Z 23017KT 4000 DU NSC 19/15 Q1012 BECMG 5000 DU,0,17,0,4000,0,0,0,
2026-04-03 15:00:00,METAR LCLK 031500Z 22017KT 4000 DU NSC 19/15 Q1012 BECMG 5000 DU,0,17,0,4000,0,0,0,
2026-04-03 14:30:00,METAR LCLK 031430Z 22019KT 3500 DU FEW050 20/14 Q1012 BECMG 5000 DU,0,19,0,3500,0,0,0,
2026-04-03 14:00:00,METAR LCLK 031400Z 22017KT 3500 DU FEW040 20/14 Q1013 BECMG 5000 DU,0,17,0,3500,0,0,0,
2026-04-03 13:30:00,METAR LCLK 031330Z 22019KT 3500 DU FEW040 20/14 Q1013 BECMG 5000 DU,0,19,0,3500,0,0,0,
2026-04-03 13:00:00,METAR LCLK 031300Z 22019KT 3000 DU FEW040 20/15 Q1013 BECMG 5000 DU,0,19,0,3000,0,0,0,
2026-04-03 12:30:00,METAR LCLK 031230Z 21019KT 2500 DU FEW040 21/15 Q1013 BECMG 3000 DU,0,19,0,2500,0,0,0,
2026-04-03 12:00:00,METAR LCLK 031200Z 21022KT 2500 DU FEW030 21/15 Q1013 BECMG 3000 DU,0,22,0,2500,0,0,0,
2026-04-03 11:30:00,METAR LCLK 031130Z 21020KT 2000 DU FEW030 21/15 Q1013 BECMG 3000 DU,0,20,0,2000,0,0,0,
2026-04-03 11:00:00,METAR LCLK 031100Z 22019KT 2000 DU FEW025 FEW030TCU SCT050 21/15 Q1013 BECMG 3000 DU,0,19,0,2000,0,0,0,
2026-04-03 10:30:00,METAR LCLK 031030Z 21020KT 1800 DU FEW025 FEW030TCU 21/15 Q1013 TEMPO 0800 DU,0,20,0,1800,0,0,0,
2026-04-03 10:00:00,METAR LCLK 031000Z 22020KT 1800 DU FEW025 FEW030TCU 21/15 Q1013 TEMPO 0800 DU,0,20,0,1800,0,0,0,
2026-04-03 09:30:00,METAR LCLK 030930Z 21021KT 1800 DU NSC 21/15 Q1014 TEMPO 0800 DU,0,21,0,1800,0,0,0,
2026-04-03 09:00:00,METAR LCLK 030900Z 21022KT 1200 R22/P2000 R04/1700 DU NSC 21/14 Q1014 TEMPO 0800 DU,0,22,0,1200,0,0,0,
2026-04-03 08:30:00,METAR LCLK 030830Z 22019KT 1100 R22/P2000 R04/1500 DU NSC 20/13 Q1014 TEMPO 0800 DU,0,19,0,1100,0,0,0,
2026-04-03 08:00:00,METAR LCLK 030800Z 21016KT 1100 R22/P2000 R04/1700 DU NSC 20/14 Q1014 TEMPO 0800 DU,0,16,0,1100,0,0,0,
2026-04-03 07:30:00,METAR LCLK 030730Z 21013KT 1100 R22/P2000 R04/1900 DU NSC 19/13 Q1014 TEMPO 0800 DU,0,13,0,1100,0,0,0,
2026-04-03 07:00:00,METAR LCLK 030700Z 21013KT 1200 R22/P2000 R04/1900 DU NSC 19/13 Q1014 TEMPO 0800 DU,0,13,0,1200,0,0,0,
2026-04-03 06:30:00,METAR LCLK 030630Z 21008KT 1800 DU NSC 18/13 Q1014 TEMPO 0800 DU,0,8,0,1800,0,0,0,
2026-04-03 06:00:00,METAR LCLK 030600Z 22008KT 2500 DU NSC 17/13 Q1014 TEMPO 0800 DU,0,8,0,2500,0,0,0,
2026-04-03 05:30:00,METAR LCLK 030530Z 21006KT 3000 DU NSC 16/13 Q1014 TEMPO 0800 DU,0,6,0,3000,0,0,0,
2026-04-03 05:00:00,METAR LCLK 030500Z 21006KT 1300 R22/P2000 R04/P2000 DU NSC 15/11 Q1013 TEMPO 0800 DU,0,6,0,1300,0,0,0,
2026-04-03 04:30:00,METAR LCLK 030430Z 21006KT 1300 R22/P2000 R04/P2000 DU NSC 15/11 Q1013 TEMPO 0800 DU,0,6,0,1300,0,0,0,
2026-04-03 04:00:00,METAR LCLK 030400Z 21008KT 1300 R22/P2000 R04/P2000 DU NSC 13/10 Q1013 TEMPO 0800 DU,0,8,0,1300,0,0,0,
2026-04-03 03:30:00,METAR LCLK 030330Z 21007KT 2000 DU NSC 14/10 Q1013 TEMPO 1500 DU,0,7,0,2000,0,0,0,
2026-04-03 03:00:00,METAR LCLK 030300Z 24010KT 4000 DU NSC 16/09 Q1013 TEMPO 3000 DU,0,10,0,4000,0,0,0,
2026-04-03 02:30:00,METAR LCLK 030230Z 23008KT 4000 DU NSC 15/09 Q1012 TEMPO 3000 DU,0,8,0,4000,0,0,0,
2026-04-03 02:00:00,METAR LCLK 030200Z 23012KT 4000 DU NSC 15/09 Q1012 TEMPO 3000 DU,0,12,0,4000,0,0,0,
2026-04-03 01:30:00,METAR LCLK 030130Z 27006KT 5000 DU FEW050 15/09 Q1012 TEMPO 3000 DU,0,6,0,5000,0,0,0,
2026-04-03 01:00:00,METAR LCLK 030100Z 24008KT 5000 DU FEW050 15/09 Q1012 TEMPO 3000 DU,0,8,0,5000,0,0,0,
2026-04-03 00:30:00,METAR LCLK 030030Z 27006KT 7000 FEW050 14/10 Q1012 TEMPO 5000 DU,0,6,0,7000,0,0,0,
2026-04-03 00:00:00,METAR LCLK 030000Z 24010KT 9999 FEW050 14/11 Q1011 NOSIG,0,10,0,10000,0,0,0,
2026-04-02 23:30:00,METAR LCLK 022330Z 22008KT 9999 FEW050 14/12 Q1011 NOSIG,0,8,0,10000,0,0,0,
2026-04-02 23:00:00,METAR LCLK 022300Z 21009KT 9999 FEW050 15/12 Q1011 NOSIG,0,9,0,10000,0,0,0,
2026-04-02 22:30:00,METAR LCLK 022230Z 23007KT 9999 SCT050 16/12 Q1012 NOSIG,0,7,0,10000,0,0,0,
2026-04-02 22:00:00,METAR LCLK 022200Z 23011KT 9999 BKN060 16/12 Q1012 NOSIG,0,11,0,10000,0,0,0,
2026-04-02 21:30:00,METAR LCLK 022130Z 23013KT 9999 BKN060 16/12 Q1011 NOSIG,0,13,0,10000,0,0,0,
2026-04-02 21:00:00,METAR LCLK 022100Z 23012KT 9999 BKN060 16/13 Q1011 NOSIG,0,12,0,10000,0,0,0,
2026-04-02 20:30:00,METAR LCLK 022030Z 23011KT 9999 SCT060 16/13 Q1011 NOSIG,0,11,0,10000,0,0,0,
2026-04-02 20:00:00,METAR LCLK 022000Z 22007KT 9999 FEW020 15/13 Q1011 NOSIG,0,7,0,10000,0,0,0,
2026-04-02 19:30:00,METAR LCLK 021930Z VRB03KT 9999 FEW020 16/14 Q1010 NOSIG,0,3,0,10000,0,0,0,
2026-04-02 19:00:00,METAR LCLK 021900Z 28005KT 9999 FEW020 16/14 Q1010 NOSIG,0,5,0,10000,0,0,0,
2026-04-02 18:30:00,METAR LCLK 021830Z 24005KT 8000 FEW020 17/15 Q1010 NOSIG,0,5,0,8000,0,0,0,
2026-04-02 18:00:00,METAR LCLK 021800Z 23006KT 8000 SCT020 17/15 Q1010 NOSIG,0,6,0,8000,0,0,0,
2026-04-02 17:30:00,METAR LCLK 021730Z 25004KT 230V300 8000 BKN020 18/15 Q1009 NOSIG,0,4,0,8000,0,0,0,
2026-04-02 17:00:00,METAR LCLK 021700Z 22008KT 7000 SCT020 18/16 Q1009 NOSIG,0,8,0,7000,0,0,0,
2026-04-02 16:30:00,METAR LCLK 021630Z 26006KT 7000 SCT020 18/16 Q1008 NOSIG,0,6,0,7000,0,0,0,
2026-04-02 16:00:00,METAR LCLK 021600Z 22005KT 7000 FEW010 19/17 Q1008 NOSIG,0,5,0,7000,0,0,0,
2026-04-02 15:30:00,METAR LCLK 021530Z 22009KT 5000 DU BKN035 20/17 Q1007 TEMPO 3000 DU,0,9,0,5000,0,0,0,
2026-04-02 15:00:00,METAR LCLK 021500Z 22012KT 5000 DU BKN025 SCT050 20/17 Q1007 TEMPO 3000 DU,0,12,0,5000,0,0,0,
2026-04-02 14:30:00,METAR LCLK 021430Z 22011KT 5000 DU BKN025 SCT050 20/17 Q1006 TEMPO 3000 DU,0,11,0,5000,0,0,0,
2026-04-02 14:00:00,METAR LCLK 021400Z 21009KT 5000 DU BKN025 21/18 Q1006 TEMPO 3000 DU,0,9,0,5000,0,0,0,
2026-04-02 13:30:00,METAR LCLK 021330Z 22012KT 8000 SCT020 22/18 Q1006 NOSIG,0,12,0,8000,0,0,0,
2026-04-02 13:00:00,METAR LCLK 021300Z 22012KT 8000 FEW020 22/18 Q1006 NOSIG,0,12,0,8000,0,0,0,
2026-04-02 12:30:00,METAR LCLK 021230Z 18007KT 150V210 7000 FEW020 23/19 Q1006 NOSIG,0,7,0,7000,0,0,0,
2026-04-02 12:00:00,METAR LCLK 021200Z 16009KT 7000 FEW020 22/18 Q1006 NOSIG,0,9,0,7000,0,0,0,
2026-04-02 11:30:00,METAR LCLK 021130Z 17007KT 140V200 7000 SCT030 22/18 Q1006 NOSIG,0,7,0,7000,0,0,0,
2026-04-02 11:00:00,METAR LCLK 021100Z 12006KT 7000 SCT020 SCT025 22/19 Q1006 NOSIG,0,6,0,7000,0,0,0,
2026-04-02 10:30:00,METAR LCLK 021030Z 12006KT 7000 SCT020 SCT025 22/18 Q1006 NOSIG,0,6,0,7000,0,0,0,
2026-04-02 10:00:00,METAR LCLK 021000Z 09004KT 7000 SCT020 21/18 Q1006 NOSIG,0,4,0,7000,0,0,0,
2026-04-02 09:30:00,METAR LCLK 020930Z 05004KT 020V100 7000 FEW014 SCT020 21/18 Q1006 NOSIG,0,4,0,7000,0,0,0,
2026-04-02 09:00:00,METAR LCLK 020900Z 03004KT 350V060 7000 FEW025 SCT040 20/18 Q1006 NOSIG,0,4,0,7000,0,0,0,
2026-04-02 08:30:00,METAR LCLK 020830Z 02006KT 340V050 7000 FEW018 SCT040 19/18 Q1006 NOSIG,0,6,0,7000,0,0,0,
2026-04-02 08:00:00,METAR LCLK 020800Z 04006KT 7000 FEW010 SCT018 BKN050 18/17 Q1006 NOSIG,0,6,0,7000,0,0,0,
2026-04-02 07:30:00,METAR LCLK 020730Z 03008KT 7000 FEW010 SCT018 BKN040 17/17 Q1006 NOSIG,0,8,0,7000,0,0,0,
2026-04-02 07:00:00,METAR LCLK 020700Z 01006KT 8000 FEW010 SCT018 BKN040 17/17 Q1006 NOSIG,0,6,0,8000,0,0,0,
2026-04-02 06:30:00,METAR LCLK 020630Z 05008KT 020V080 8000 SCT005 SCT018 BKN025 18/17 Q1006 NOSIG RMK WINDSHEAR IN APROACH,0,8,0,8000,0,0,0,
2026-04-02 06:00:00,METAR LCLK 020600Z 08005KT 010V110 8000 FEW003 SCT005 BKN020 17/17 Q1005 NOSIG RMK WINDSHEAR IN APROACH,0,5,0,8000,0,0,0,
2026-04-02 05:30:00,METAR LCLK 020530Z VRB02KT 8000 -RA BKN005 BKN018 OVC060 17/17 Q1005 BECMG 5000 RA DU,0,2,0,8000,0,0,0,"-RA,RA"
2026-04-02 05:00:00,METAR LCLK 020500Z VRB05KT 8000 -RA FEW005 BKN018 OVC060 17/16 Q1006 NOSIG,0,5,0,8000,0,0,0,-RA
2026-04-02 04:30:00,METAR LCLK 020430Z 05009KT 9999 FEW004 SCT022 OVC060 17/16 Q1005 NOSIG,0,9,0,10000,0,0,0,
2026-04-02 04:00:00,METAR LCLK 020400Z 04012KT 9999 FEW004 SCT018 FEW021TCU OVC024 16/16 Q1006 NOSIG,0,12,0,10000,0,0,0,
2026-04-02 03:30:00,METAR LCLK 020330Z 04011KT 9999 SCT016 FEW021TCU OVC027 16/16 Q1005 NOSIG,0,11,0,10000,0,0,0,
2026-04-02 03:00:00,METAR LCLK 020300Z 04011KT 8000 -RA SCT016 FEW021TCU OVC027 16/15 Q1005 NOSIG RMK RAIN,0,11,0,8000,0,0,0,"-RA,RA"
2026-04-02 02:30:00,METAR LCLK 020230Z 05011KT 8000 -RA SCT016 FEW021TCU OVC027 16/15 Q1006 NOSIG RMK RAIN,0,11,0,8000,0,0,0,"-RA,RA"
2026-04-02 02:00:00,METAR LCLK 020200Z 05010KT 8000 -RA SCT016 FEW021TCU OVC027 16/15 Q1006 RETS NOSIG RMK RAIN,0,10,0,8000,1,0,0,"-RA,RA,TS"
2026-04-02 01:30:00,METAR LCLK 020130Z 05009KT 010V070 5000 -TSRA SCT016 FEW020CB OVC028 16/15 Q1007 NOSIG RMK RAIN,0,9,0,5000,1,0,0,RA
2026-04-02 01:00:00,METAR LCLK 020100Z 05013KT 9999 SCT018 OVC028 16/15 Q1006 NOSIG,0,13,0,10000,0,0,0,
2026-04-02 00:30:00,METAR LCLK 020030Z 05013KT 9999 SCT015 SCT020 BKN028 16/15 Q1007 NOSIG,0,13,0,10000,0,0,0,
2026-04-02 00:00:00,METAR LCLK 020000Z 04011KT 9000 -RA SCT018 OVC050 16/15 Q1007 NOSIG,0,11,0,9000,0,0,0,-RA
2026-04-01 23:30:00,METAR LCLK 012330Z 07012KT 9000 -RA SCT018 OVC050 16/15 Q1008 NOSIG,0,12,0,9000,0,0,0,-RA
2026-04-01 23:00:00,METAR LCLK 012300Z 09011KT 9000 -RA SCT022 BKN050 16/15 Q1008 NOSIG,0,11,0,9000,0,0,0,-RA
2026-04-01 22:30:00,METAR LCLK 012230Z 11012KT 7000 -RA SCT019 16/15 Q1009 RERA NOSIG,0,12,0,7000,0,0,0,"-RA,RA"
2026-04-01 22:00:00,METAR LCLK 012200Z 11014KT 8000 -RA SCT022 16/15 Q1008 NOSIG,0,14,0,8000,0,0,0,-RA
2026-04-01 21:30:00,METAR LCLK 012130Z 12013KT 9000 -RA SCT022 17/15 Q1009 NOSIG,0,13,0,9000,0,0,0,-RA
2026-04-01 21:00:00,METAR LCLK 012100Z 12011KT 9000 -RA FEW025 SCT040 16/15 Q1011 NOSIG,0,11,0,9000,0,0,0,-RA
2026-04-01 20:30:00,METAR LCLK 012030Z 11011KT 9000 -RA FEW025 SCT040 16/15 Q1010 NOSIG,0,11,0,9000,0,0,0,-RA
2026-04-01 20:00:00,METAR LCLK 012000Z 13005KT 9000 -RA FEW013 SCT031 16/15 Q1011 NOSIG,0,5,0,9000,0,0,0,-RA
2026-04-01 19:30:00,METAR LCLK 011930Z 16005KT 9000 -RA FEW013 SCT025 16/15 Q1011 NOSIG,0,5,0,9000,0,0,0,-RA
2026-04-01 19:00:00,METAR LCLK 011900Z 16008KT 9000 -RA FEW013 SCT018 BKN030 17/15 Q1011 NOSIG,0,8,0,9000,0,0,0,-RA
2026-04-01 18:30:00,METAR LCLK 011830Z 11004KT 9999 -RA SCT018 BKN030 17/16 Q1012 NOSIG,0,4,0,10000,0,0,0,-RA
2026-04-01 18:00:00,METAR LCLK 011800Z 00000KT 9999 -RA SCT035 17/16 Q1012 NOSIG,0,0,0,10000,0,0,0,-RA
2026-04-01 17:30:00,METAR LCLK 011730Z 10002KT 9999 -RA FEW070 17/16 Q1012 NOSIG,0,2,0,10000,0,0,0,-RA
2026-04-01 17:00:00,METAR LCLK 011700Z 03003KT 9999 -RA SCT070 17/15 Q1012 NOSIG,0,3,0,10000,0,0,0,-RA
2026-04-01 16:30:00,METAR LCLK 011630Z 03004KT 350V060 9999 -RA SCT070 18/15 Q1012 NOSIG,0,4,0,10000,0,0,0,-RA
2026-04-01 16:00:00,METAR LCLK 011600Z VRB02KT 9999 -SHRA SCT070 18/15 Q1012 NOSIG,0,2,0,10000,0,0,0,RA
2026-04-01 15:30:00,METAR LCLK 011530Z 02005KT 340V050 9999 SCT070 18/15 Q1012 NOSIG,0,5,0,10000,0,0,0,
2026-04-01 15:00:00,METAR LCLK 011500Z 04009KT 9999 SCT070 18/15 Q1012 NOSIG,0,9,0,10000,0,0,0,
2026-04-01 14:00:00,METAR LCLK 011400Z 03011KT CAVOK 18/15 Q1012 NOSIG,1,0,0,9999,0,0,0,
2026-04-01 13:30:00,METAR LCLK 011330Z 05011KT 9999 FEW025 18/15 Q1011 NOSIG,0,11,0,10000,0,0,0,
2026-04-01 13:00:00,METAR LCLK 011300Z 05011KT 9999 FEW050 19/15 Q1011 NOSIG,0,11,0,10000,0,0,0,
2026-04-01 12:30:00,METAR LCLK 011230Z 07006KT 9999 FEW050 19/15 Q1012 NOSIG,0,6,0,10000,0,0,0,
2026-04-01 12:00:00,METAR LCLK 011200Z 08005KT 9999 FEW050 19/15 Q1012 NOSIG,0,5,0,10000,0,0,0,
2026-04-01 11:30:00,METAR LCLK 011130Z 06008KT 9999 FEW050 20/13 Q1012 NOSIG,0,8,0,10000,0,0,0,
2026-04-01 11:00:00,METAR LCLK 011100Z 06010KT 9999 SCT050 20/12 Q1012 NOSIG,0,10,0,10000,0,0,0,
2026-04-01 10:30:00,METAR LCLK 011030Z 06011KT 9999 SCT050 20/13 Q1012 NOSIG,0,11,0,10000,0,0,0,
2026-04-01 10:00:00,METAR LCLK 011000Z 06014KT 9999 FEW025 SCT050 19/13 Q1012 NOSIG,0,14,0,10000,0,0,0,
2026-04-01 09:30:00,METAR LCLK 010930Z 05016KT 9999 FEW025 SCT050 19/13 Q1012 NOSIG,0,16,0,10000,0,0,0,
2026-04-01 09:00:00,METAR LCLK 010900Z 03015KT 9999 FEW025 19/13 Q1013 NOSIG,0,15,0,10000,0,0,0,
2026-04-01 08:30:00,METAR LCLK 010830Z 07012KT 9999 FEW020 19/14 Q1014 NOSIG,0,12,0,10000,0,0,0,
2026-04-01 08:00:00,METAR LCLK 010800Z 07010KT 9999 FEW020 19/13 Q1013 NOSIG,0,10,0,10000,0,0,0,
2026-04-01 07:30:00,METAR LCLK 010730Z 06011KT 9999 FEW020 19/13 Q1013 NOSIG,0,11,0,10000,0,0,0,
2026-04-01 07:00:00,METAR LCLK 010700Z 04012KT 9999 FEW020 18/14 Q1013 NOSIG,0,12,0,10000,0,0,0,
2026-04-01 06:30:00,METAR LCLK 010630Z 04012KT 9999 FEW020 18/13 Q1012 NOSIG,0,12,0,10000,0,0,0,
2026-04-01 06:00:00,METAR LCLK 010600Z 04013KT 9999 FEW020 17/13 Q1013 NOSIG,0,13,0,10000,0,0,0,
2026-04-01 05:30:00,METAR LCLK 010530Z 03010KT 9999 FEW020 17/13 Q1013 NOSIG,0,10,0,10000,0,0,0,
2026-04-01 05:00:00,METAR LCLK 010500Z 34005KT 9999 FEW020 14/13 Q1013 NOSIG,0,5,0,10000,0,0,0,
2026-04-01 04:30:00,METAR LCLK 010430Z 32004KT 9999 FEW020 12/11 Q1014 NOSIG,0,4,0,10000,0,0,0,
2026-04-01 04:00:00,METAR LCLK 010400Z 31006KT 260V010 9999 FEW020 11/10 Q1013 NOSIG,0,6,0,10000,0,0,0,
2026-04-01 03:30:00,METAR LCLK 010330Z 30004KT 9999 FEW020 10/09 Q1013 NOSIG,0,4,0,10000,0,0,0,
2026-04-01 03:00:00,METAR LCLK 010300Z 34005KT 290V010 9999 FEW030 11/10 Q1013 NOSIG,0,5,0,10000,0,0,0,
2026-04-01 02:30:00,METAR LCLK 010230Z 32005KT 9999 FEW050 10/10 Q1013 NOSIG,0,5,0,10000,0,0,0,
2026-04-01 02:00:00,METAR LCLK 010200Z 31004KT CAVOK 10/09 Q1013 NOSIG,1,0,0,9999,0,0,0,
2026-04-01 01:30:00,METAR LCLK 010130Z 32005KT CAVOK 10/09 Q1013 NOSIG,1,0,0,9999,0,0,0,
2026-04-01 01:00:00,METAR LCLK 010100Z 33004KT CAVOK 11/10 Q1013 NOSIG,1,0,0,9999,0,0,0,
2026-04-01 00:30:00,METAR LCLK 010030Z 34003KT CAVOK 10/09 Q1013 NOSIG,1,0,0,9999,0,0,0,
2026-04-01 00:00:00,METAR LCLK 010000Z 33003KT CAVOK 11/10 Q1013 NOSIG,1,0,0,9999,0,0,0,
2026-03-31 23:30:00,METAR LCLK 312330Z 32006KT CAVOK 11/10 Q1013 NOSIG,1,0,0,9999,0,0,0,
2026-03-31 23:00:00,METAR LCLK 312300Z 30004KT 9999 FEW030 11/10 Q1014 NOSIG,0,4,0,9999,0,0,0,
2026-03-31 22:30:00,METAR LCLK 312230Z VRB03KT 9999 FEW030 11/10 Q1014 NOSIG,0,3,0,9999,0,0,0,
2026-03-31 22:00:00,METAR LCLK 312200Z 34004KT CAVOK 12/10 Q1014 NOSIG,1,0,0,9999,0,0,0,
2026-03-31 21:30:00,METAR LCLK 312130Z 32004KT CAVOK 12/10 Q1014 NOSIG,1,0,0,9999,0,0,0,
2026-03-31 21:00:00,METAR LCLK 312100Z 32003KT CAVOK 12/10 Q1014 NOSIG,1,0,0,9999,0,0,0,
2026-03-31 20:30:00,METAR LCLK 312030Z 32003KT 290V360 CAVOK 13/10 Q1014 NOSIG,1,0,0,9999,0,0,0,
2026-03-31 20:00:00,METAR LCLK 312000Z 33003KT 280V340 CAVOK 14/11 Q1014 NOSIG,1,0,0,9999,0,0,0,
2026-03-31 19:30:00,METAR LCLK 311930Z 27004KT 9999 FEW040 15/11 Q1014 NOSIG,0,4,0,9999,0,0,0,
2026-03-31 19:00:00,METAR LCLK 311900Z 25006KT 230V290 9999 FEW040 16/11 Q1015 NOSIG,0,6,0,9999,0,0,0,
2026-03-31 18:30:00,METAR LCLK 311830Z 25005KT 9999 FEW030 SCT040 17/11 Q1015 NOSIG,0,5,0,9999,0,0,0,
2026-03-31 18:00:00,METAR LCLK 311800Z 24005KT 9999 FEW030 BKN040 16/11 Q1014 NOSIG,0,5,0,9999,0,0,0,
2026-03-31 17:30:00,METAR LCLK 311730Z 25007KT 9999 FEW030 SCT040 16/11 Q1014 NOSIG,0,7,0,9999,0,0,0,
2026-03-31 17:00:00,METAR LCLK 311700Z 24007KT 9999 FEW030 SCT040 17/11 Q1014 NOSIG,0,7,0,9999,0,0,0,
2026-03-31 16:30:00,METAR LCLK 311630Z 23006KT 9999 FEW030 SCT040 17/11 Q1013 NOSIG,0,6,0,9999,0,0,0,
2026-03-31 16:00:00,METAR LCLK 311600Z 22007KT 9999 FEW030 SCT040 17/11 Q1013 NOSIG,0,7,0,9999,0,0,0,
2026-03-31 15:30:00,METAR LCLK 311530Z 22008KT 9999 FEW030 18/11 Q1013 NOSIG,0,8,0,9999,0,0,0,
2026-03-31 15:00:00,METAR LCLK 311500Z 22012KT 9999 FEW030 SCT040 19/11 Q1013 NOSIG,0,12,0,9999,0,0,0,
2026-03-31 14:30:00,METAR LCLK 311430Z 21012KT 9999 FEW025 19/11 Q1013 NOSIG,0,12,0,9999,0,0,0,
2026-03-31 14:00:00,METAR LCLK 311400Z 21014KT 9999 FEW025 20/11 Q1012 NOSIG,0,14,0,9999,0,0,0,
2026-03-31 13:30:00,METAR LCLK 311330Z 20014KT 9999 FEW025 20/11 Q1012 NOSIG,0,14,0,9999,0,0,0,
2026-03-31 13:00:00,METAR LCLK 311300Z 20014KT 9999 FEW025 20/11 Q1012 NOSIG,0,14,0,9999,0,0,0,
2026-03-31 12:30:00,METAR LCLK 311230Z 20014KT 170V230 9999 FEW025 21/11 Q1012 NOSIG,0,14,0,9999,0,0,0,
2026-03-31 12:00:00,METAR LCLK 311200Z 19015KT 9999 FEW025 21/11 Q1012 NOSIG,0,15,0,9999,0,0,0,
2026-03-31 11:30:00,METAR LCLK 311130Z 19015KT 9999 FEW025 21/11 Q1012 NOSIG,0,15,0,9999,0,0,0,
2026-03-31 11:00:00,METAR LCLK 311100Z 20015KT 9999 FEW025 21/08 Q1012 NOSIG,0,15,0,9999,0,0,0,
2026-03-31 10:30:00,METAR LCLK 311030Z 21014KT 9999 FEW025 21/10 Q1012 NOSIG,0,14,0,9999,0,0,0,
2026-03-31 10:00:00,METAR LCLK 311000Z 20014KT 170V230 9999 FEW025 21/10 Q1012 NOSIG,0,14,0,9999,0,0,0,
2026-03-31 09:30:00,METAR LCLK 310930Z 20010KT 170V230 9999 FEW030 21/11 Q1012 NOSIG,0,10,0,9999,0,0,0,
2026-03-31 09:00:00,METAR LCLK 310900Z 20010KT 160V220 9999 FEW030 20/09 Q1012 NOSIG,0,10,0,9999,0,0,0,
2026-03-31 08:30:00,METAR LCLK 310830Z 15007KT 110V190 9999 FEW030 19/11 Q1012 NOSIG,0,7,0,9999,0,0,0,
2026-03-31 08:00:00,METAR LCLK 310800Z 13007KT 100V160 9999 FEW030 19/12 Q1012 NOSIG,0,7,0,9999,0,0,0,
2026-03-31 07:30:00,METAR LCLK 310730Z 10007KT 9999 FEW030 19/12 Q1012 NOSIG,0,7,0,9999,0,0,0,
2026-03-31 07:00:00,METAR LCLK 310700Z 08007KT 9999 FEW035 18/11 Q1012 NOSIG,0,7,0,9999,0,0,0,
2026-03-31 06:30:00,METAR LCLK 310630Z 07004KT 040V100 9999 FEW035 18/11 Q1012 NOSIG,0,4,0,9999,0,0,0,
2026-03-31 06:00:00,METAR LCLK 310600Z VRB02KT 9999 FEW035 17/11 Q1012 NOSIG,0,2,0,9999,0,0,0,
2026-03-31 05:30:00,METAR LCLK 310530Z 34003KT 9999 FEW035 16/11 Q1012 NOSIG,0,3,0,9999,0,0,0,
2026-03-31 05:00:00,METAR LCLK 310500Z 33003KT 9999 FEW035 13/10 Q1012 NOSIG,0,3,0,9999,0,0,0,
2026-03-31 04:30:00,METAR LCLK 310430Z VRB03KT 9999 FEW035 10/08 Q1011 NOSIG,0,3,0,9999,0,0,0,
2026-03-31 04:00:00,METAR LCLK 310400Z 30004KT 9999 FEW035 08/07 Q1011 NOSIG,0,4,0,9999,0,0,0,
2026-03-31 03:30:00,METAR LCLK 310330Z 32004KT 280V360 9999 FEW030 07/06 Q1010 NOSIG,0,4,0,9999,0,0,0,
2026-03-31 03:00:00,METAR LCLK 310300Z 30004KT 9999 FEW030 07/06 Q1010 NOSIG,0,4,0,9999,0,0,0,
2026-03-31 02:30:00,METAR LCLK 310230Z 31004KT CAVOK 08/06 Q1010 NOSIG,1,0,0,9999,0,0,0,
2026-03-31 02:00:00,METAR LCLK 310200Z 32003KT CAVOK 08/06 Q1010 NOSIG,1,0,0,9999,0,0,0,
2026-03-31 01:30:00,METAR LCLK 310130Z 30004KT CAVOK 07/06 Q1010 NOSIG,1,0,0,9999,0,0,0,
2026-03-31 01:00:00,METAR LCLK 310100Z 32004KT CAVOK 08/06 Q1010 NOSIG,1,0,0,9999,0,0,0,
2026-03-31 00:30:00,METAR LCLK 310030Z 23003KT CAVOK 09/07 Q1010 NOSIG,1,0,0,9999,0,0,0,
2026-03-31 00:00:00,METAR LCLK 310000Z 21003KT 180V250 CAVOK 08/06 Q1010 NOSIG,1,0,0,9999,0,0,0,
2026-03-30 23:30:00,METAR LCLK 302330Z VRB02KT CAVOK 09/06 Q1010 NOSIG,1,0,0,9999,0,0,0,
2026-03-30 23:00:00,METAR LCLK 302300Z VRB03KT CAVOK 09/07 Q1010 NOSIG,1,0,0,9999,0,0,0,
2026-03-30 22:30:00,METAR LCLK 302230Z VRB01KT CAVOK 09/06 Q1010 NOSIG,1,0,0,9999,0,0,0,
2026-03-30 22:00:00,METAR LCLK 302200Z 00000KT CAVOK 10/08 Q1010 NOSIG,1,0,0,9999,0,0,0,
2026-03-30 21:30:00,METAR LCLK 302130Z VRB02KT CAVOK 11/07 Q1010 NOSIG,1,0,0,9999,0,0,0,
2026-03-30 21:00:00,METAR LCLK 302100Z 19005KT CAVOK 11/08 Q1010 NOSIG,1,0,0,9999,0,0,0,
2026-03-30 20:30:00,METAR LCLK 302030Z VRB03KT CAVOK 11/08 Q1010 NOSIG,1,0,0,9999,0,0,0,
2026-03-30 20:00:00,METAR LCLK 302000Z 24003KT CAVOK 11/07 Q1009 NOSIG,1,0,0,9999,0,0,0,
2026-03-30 19:30:00,METAR LCLK 301930Z 25006KT CAVOK 12/08 Q1009 NOSIG,1,0,0,9999,0,0,0,
2026-03-30 19:00:00,METAR LCLK 301900Z 21005KT CAVOK 13/08 Q1009 NOSIG,1,0,0,9999,0,0,0,
2026-03-30 18:30:00,METAR LCLK 301830Z 25003KT 210V020 CAVOK 13/08 Q1009 NOSIG,1,0,0,9999,0,0,0,
2026-03-30 18:00:00,METAR LCLK 301800Z 23004KT 170V280 CAVOK 13/08 Q1009 NOSIG,1,0,0,9999,0,0,0,
2026-03-30 17:30:00,METAR LCLK 301730Z 27006KT 240V300 9999 FEW025 14/08 Q1008 NOSIG,0,6,0,10000,0,0,0,
2026-03-30 17:00:00,METAR LCLK 301700Z 26003KT 9999 FEW025 14/09 Q1008 NOSIG,0,3,0,10000,0,0,0,
2026-03-30 16:30:00,METAR LCLK 301630Z 29008KT 9999 FEW025 15/09 Q1008 NOSIG,0,8,0,10000,0,0,0,
2026-03-30 16:00:00,METAR LCLK 301600Z 30010KT 9999 FEW025 17/09 Q1008 NOSIG,0,10,0,10000,0,0,0,
2026-03-30 15:30:00,METAR LCLK 301530Z 30011KT 250V330 9999 FEW025 SCT050 18/09 Q1007 NOSIG,0,11,0,10000,0,0,0,
2026-03-30 15:00:00,METAR LCLK 301500Z 29009KT 260V330 9999 FEW025 BKN050 19/10 Q1007 NOSIG,0,9,0,10000,0,0,0,
2026-03-30 14:30:00,METAR LCLK 301430Z 29007KT 250V330 9999 FEW025 BKN050 19/09 Q1007 NOSIG,0,7,0,10000,0,0,0,
2026-03-30 14:00:00,METAR LCLK 301400Z 30009KT 260V330 9999 FEW025 BKN050 19/09 Q1007 NOSIG,0,9,0,10000,0,0,0,
2026-03-30 13:30:00,METAR LCLK 301330Z 23006KT 140V300 9999 FEW025 BKN050 19/10 Q1007 NOSIG,0,6,0,10000,0,0,0,
2026-03-30 13:00:00,METAR LCLK 301300Z 29010KT 9999 FEW025 BKN050 19/10 Q1007 NOSIG,0,10,0,10000,0,0,0,
2026-03-30 12:30:00,METAR LCLK 301230Z 31012KT 9999 -SHRA SCT025 BKN050 19/11 Q1007 NOSIG,0,12,0,10000,0,0,0,RA
2026-03-30 12:00:00,METAR LCLK 301200Z 22015KT 190V310 9999 SCT025 BKN050 20/10 Q1007 NOSIG,0,15,0,10000,0,0,0,
2026-03-30 11:30:00,METAR LCLK 301130Z 32006KT 280V350 9999 SCT025 BKN050 21/09 Q1007 NOSIG,0,6,0,10000,0,0,0,
2026-03-30 11:00:00,METAR LCLK 301100Z 32007KT 270V360 9999 SCT025 BKN050 20/09 Q1007 NOSIG,0,7,0,10000,0,0,0,
2026-03-30 10:30:00,METAR LCLK 301030Z 21019KT 180V240 9999 SCT025 BKN050 21/09 Q1007 NOSIG,0,19,0,10000,0,0,0,
2026-03-30 10:00:00,METAR LCLK 301000Z 22021KT 9999 SCT025 BKN050 20/10 Q1008 NOSIG,0,21,0,10000,0,0,0,
2026-03-30 09:30:00,METAR LCLK 300930Z 21018KT 180V240 9999 FEW025 SCT040 21/10 Q1008 NOSIG,0,18,0,10000,0,0,0,
2026-03-30 09:00:00,METAR LCLK 300900Z 20013KT 150V230 9999 SCT025 21/08 Q1008 NOSIG,0,13,0,10000,0,0,0,
2026-03-30 08:30:00,METAR LCLK 300830Z 14007KT 080V210 9999 FEW025 21/08 Q1009 NOSIG,0,7,0,10000,0,0,0,
2026-03-30 08:00:00,METAR LCLK 300800Z 17006KT 130V210 9999 FEW025 20/07 Q1009 NOSIG,0,6,0,10000,0,0,0,
2026-03-30 07:30:00,METAR LCLK 300730Z 15006KT 110V210 9999 FEW025 19/09 Q1009 NOSIG,0,6,0,10000,0,0,0,
2026-03-30 07:00:00,METAR LCLK 300700Z 12006KT 090V150 9999 FEW025TCU 19/08 Q1009 NOSIG,0,6,0,10000,0,0,0,
2026-03-30 06:30:00,METAR LCLK 300630Z VRB03KT 9999 FEW025TCU 19/09 Q1009 NOSIG,0,3,0,10000,0,0,0,
2026-03-30 06:00:00,METAR LCLK 300600Z VRB02KT 9999 FEW025TCU 18/10 Q1009 NOSIG,0,2,0,10000,0,0,0,
2026-03-30 05:30:00,METAR LCLK 300530Z VRB02KT 9999 FEW025TCU 16/10 Q1008 NOSIG,0,2,0,10000,0,0,0,
2026-03-30 05:00:00,METAR LCLK 300500Z 29004KT 9999 FEW025CB FEW030TCU 13/09 Q1008 NOSIG RMK CB TO NE,0,4,0,10000,0,0,0,
2026-03-30 04:30:00,METAR LCLK 300430Z VRB02KT 9999 FEW025CB FEW030TCU 10/08 Q1008 NOSIG RMK CB TO NE,0,2,0,10000,0,0,0,
2026-03-30 04:00:00,METAR LCLK 300400Z 22004KT 9999 FEW025CB FEW030TCU 09/07 Q1008 NOSIG RMK CB TO NE,0,4,0,10000,0,0,0,
2026-03-30 03:30:00,METAR LCLK 300330Z 27003KT 240V300 9999 FEW025CB FEW030TCU 08/07 Q1007 NOSIG RMK CB TO NE,0,3,0,10000,0,0,0,
2026-03-30 03:00:00,METAR LCLK 300300Z 29004KT 270V330 9999 FEW025CB 08/07 Q1007 NOSIG RMK CB TO NE,0,4,0,10000,0,0,0,
2026-03-30 02:30:00,METAR LCLK 300230Z 29004KT 9999 FEW050 09/07 Q1007 NOSIG,0,4,0,10000,0,0,0,
2026-03-30 02:00:00,METAR LCLK 300200Z VRB03KT 9999 FEW050 09/07 Q1007 NOSIG,0,3,0,10000,0,0,0,
2026-03-30 01:30:00,METAR LCLK 300130Z 29004KT 260V330 9999 FEW025CB 10/08 Q1006 NOSIG RMK CB TO N,0,4,0,10000,0,0,0,
2026-03-30 01:00:00,METAR LCLK 300100Z 30003KT 9999 FEW025CB 11/08 Q1006 NOSIG RMK CB TO N,0,3,0,10000,0,0,0,
2026-03-30 00:30:00,METAR LCLK 300030Z 26004KT 9999 FEW025CB 11/08 Q1006 NOSIG RMK CB TO N,0,4,0,10000,0,0,0,
2026-03-30 00:00:00,METAR LCLK 300000Z 29005KT 260V320 9999 FEW025CB 11/08 Q1007 NOSIG RMK CB TO N,0,5,0,10000,0,0,0,
2026-03-29 23:30:00,METAR LCLK 292330Z 32008KT 270V340 9999 FEW025CB 14/09 Q1007 NOSIG RMK CB TO N,0,8,0,10000,0,0,0,
2026-03-29 23:00:00,METAR LCLK 292300Z 23008KT 9999 FEW025CB 14/10 Q1007 NOSIG RMK CB TO N,0,8,0,10000,0,0,0,
2026-03-29 22:30:00,METAR LCLK 292230Z 23010KT 9999 FEW025CB 14/09 Q1007 NOSIG RMK CB TO N,0,10,0,10000,0,0,0,
2026-03-29 22:00:00,METAR LCLK 292200Z 23007KT 9999 FEW030 14/09 Q1007 NOSIG,0,7,0,10000,0,0,0,
2026-03-29 21:30:00,METAR LCLK 292130Z 23009KT 9999 FEW030 15/09 Q1007 NOSIG,0,9,0,10000,0,0,0,
2026-03-29 21:00:00,METAR LCLK 292100Z 24016KT 9999 FEW050 15/09 Q1007 NOSIG,0,16,0,10000,0,0,0,
2026-03-29 20:30:00,METAR LCLK 292030Z 22013KT 9999 FEW050 15/09 Q1007 NOSIG,0,13,0,10000,0,0,0,
2026-03-29 20:00:00,METAR LCLK 292000Z 24011KT 9999 FEW050 15/09 Q1007 NOSIG,0,11,0,10000,0,0,0,
2026-03-29 19:30:00,METAR LCLK 291930Z 24010KT 9999 FEW050 15/09 Q1007 NOSIG,0,10,0,10000,0,0,0,
2026-03-29 19:00:00,METAR LCLK 291900Z 24011KT 9999 FEW050 15/09 Q1007 NOSIG,0,11,0,10000,0,0,0,
2026-03-29 18:30:00,METAR LCLK 291830Z 23010KT 9999 FEW050 15/09 Q1007 NOSIG,0,10,0,10000,0,0,0,
2026-03-29 18:00:00,METAR LCLK 291800Z 22013KT 9999 FEW025CB 14/09 Q1007 NOSIG RMK CB TO E,0,13,0,10000,0,0,0,
2026-03-29 17:30:00,METAR LCLK 291730Z 24011KT 9999 FEW030 15/09 Q1007 NOSIG,0,11,0,10000,0,0,0,
2026-03-29 17:00:00,METAR LCLK 291700Z 23011KT 9999 FEW030 15/09 Q1007 NOSIG,0,11,0,10000,0,0,0,
2026-03-29 16:30:00,METAR LCLK 291630Z 22012KT 9999 FEW025CB 15/08 Q1006 NOSIG,0,12,0,10000,0,0,0,
2026-03-29 16:00:00,METAR LCLK 291600Z 24018KT 9999 FEW025CB 17/08 Q1006 TEMPO 5000 SHRA FEW025CB SCT030TCU,0,18,0,10000,0,0,0,"RA,SH"
2026-03-29 15:30:00,METAR LCLK 291530Z 24017KT 9999 FEW025CB 17/08 Q1006 TEMPO 5000 SHRA FEW025CB SCT030TCU,0,17,0,10000,0,0,0,"RA,SH"
2026-03-29 15:00:00,METAR LCLK 291500Z 24016KT 9999 FEW025CB 18/08 Q1006 NOSIG,0,16,0,10000,0,0,0,
2026-03-29 14:30:00,METAR LCLK 291430Z 25023KT 9999 FEW025TCU 18/08 Q1006 NOSIG,0,23,0,10000,0,0,0,
2026-03-29 14:00:00,METAR LCLK 291400Z 23022KT 9999 FEW025TCU 19/10 Q1005 NOSIG,0,22,0,10000,0,0,0,
2026-03-29 13:30:00,METAR LCLK 291330Z 22024KT 9999 FEW025TCU 20/10 Q1005 NOSIG,0,24,0,10000,0,0,0,
2026-03-29 13:00:00,METAR LCLK 291300Z 23025KT 9999 FEW025TCU 20/10 Q1004 NOSIG,0,25,0,10000,0,0,0,
2026-03-29 12:30:00,METAR LCLK 291230Z 22027KT 9999 FEW025TCU 21/11 Q1004 NOSIG,0,27,0,10000,0,0,0,
2026-03-29 12:00:00,METAR LCLK 291200Z 23026KT 9999 FEW025TCU 21/11 Q1004 NOSIG,0,26,0,10000,0,0,0,
2026-03-29 11:30:00,METAR LCLK 291130Z 23026KT 9999 FEW025TCU 21/10 Q1004 NOSIG,0,26,0,10000,0,0,0,
2026-03-29 11:00:00,METAR LCLK 291100Z 22026KT 9999 FEW025TCU 22/10 Q1004 NOSIG,0,26,0,10000,0,0,0,
2026-03-29 10:30:00,METAR LCLK 291030Z 23025KT 9999 FEW030 21/11 Q1004 NOSIG,0,25,0,10000,0,0,0,
2026-03-29 10:00:00,METAR LCLK 291000Z 22025KT 9999 FEW030 22/11 Q1004 NOSIG,0,25,0,10000,0,0,0,
2026-03-29 09:30:00,METAR LCLK 290930Z 22021KT 9999 FEW030 22/12 Q1004 NOSIG,0,21,0,10000,0,0,0,
2026-03-29 09:00:00,METAR LCLK 290900Z 13008KT 090V180 9999 FEW030 SCT040 21/12 Q1004 NOSIG,0,8,0,10000,0,0,0,
2026-03-29 08:30:00,METAR LCLK 290830Z 30006KT 260V350 9999 FEW030 SCT040 21/12 Q1004 NOSIG,0,6,0,10000,0,0,0,
2026-03-29 08:00:00,METAR LCLK 290800Z 26005G15KT 210V340 9999 FEW030 SCT040 20/12 Q1004 NOSIG,0,5,1,10000,0,0,0,
2026-03-29 07:30:00,METAR LCLK 290730Z 33008KT 9999 FEW030 SCT040 21/12 Q1003 NOSIG,0,8,0,10000,0,0,0,
2026-03-29 07:00:00,METAR LCLK 290700Z VRB03KT 9999 FEW030 SCT040 19/14 Q1003 NOSIG,0,3,0,10000,0,0,0,
2026-03-29 06:30:00,METAR LCLK 290630Z 29009KT 260V320 9999 FEW030 SCT040 20/13 Q1003 NOSIG,0,9,0,10000,0,0,0,
2026-03-29 06:00:00,METAR LCLK 290600Z 30012KT 260V330 9999 FEW025 SCT045 18/14 Q1002 NOSIG,0,12,0,10000,0,0,0,
2026-03-29 05:30:00,METAR LCLK 290530Z 31017KT 9999 FEW025 SCT040 18/14 Q1001 NOSIG,0,17,0,10000,0,0,0,
2026-03-29 05:00:00,METAR LCLK 290500Z 31014KT 280V340 9999 FEW025 SCT040 18/14 Q1001 NOSIG,0,14,0,10000,0,0,0,
2026-03-29 04:30:00,METAR LCLK 290430Z 21007KT 9999 FEW025 18/15 Q1000 NOSIG,0,7,0,10000,0,0,0,
2026-03-29 04:00:00,METAR LCLK 290400Z 22007KT 180V250 9999 FEW025 19/14 Q1000 NOSIG,0,7,0,10000,0,0,0,
2026-03-29 03:30:00,METAR LCLK 290330Z 17011KT 140V200 9999 -SHRA SCT050 19/14 Q1000 NOSIG,0,11,0,10000,0,0,0,RA
2026-03-29 03:00:00,METAR LCLK 290300Z 13009KT CAVOK 18/14 Q1000 NOSIG,1,0,0,9999,0,0,0,
2026-03-29 02:30:00,METAR LCLK 290230Z 11010KT CAVOK 18/14 Q1001 NOSIG,1,0,0,9999,0,0,0,
2026-03-29 02:00:00,METAR LCLK 290200Z 11007KT CAVOK 18/14 Q1001 NOSIG,1,0,0,9999,0,0,0,
2026-03-29 01:30:00,METAR LCLK 290130Z 09008KT CAVOK 18/14 Q1002 NOSIG,1,0,0,9999,0,0,0,
2026-03-29 01:00:00,METAR LCLK 290100Z 12007KT CAVOK 18/14 Q1002 NOSIG,1,0,0,9999,0,0,0,
2026-03-29 00:30:00,METAR LCLK 290030Z 13012KT CAVOK 18/14 Q1002 NOSIG,1,0,0,9999,0,0,0,
2026-03-29 00:00:00,METAR LCLK 290000Z 16010KT CAVOK 18/14 Q1004 NOSIG,1,0,0,9999,0,0,0,
2026-03-28 23:30:00,METAR LCLK 282330Z 14010KT CAVOK 18/15 Q1004 NOSIG,1,0,0,9999,0,0,0,
2026-03-28 23:00:00,METAR LCLK 282300Z 14010KT CAVOK 18/14 Q1004 NOSIG,1,0,0,9999,0,0,0,
2026-03-28 22:30:00,METAR LCLK 282230Z 14011KT CAVOK 18/15 Q1005 NOSIG,1,0,0,9999,0,0,0,
2026-03-28 22:00:00,METAR LCLK 282200Z 14013KT CAVOK 18/15 Q1005 NOSIG,1,0,0,9999,0,0,0,
2026-03-28 21:30:00,METAR LCLK 282130Z 14013KT CAVOK 18/16 Q1005 NOSIG,1,0,0,9999,0,0,0,
2026-03-28 21:00:00,METAR LCLK 282100Z 14013KT CAVOK 18/15 Q1006 NOSIG,1,0,0,9999,0,0,0,
2026-03-28 20:30:00,METAR LCLK 282030Z 14012KT CAVOK 18/15 Q1007 NOSIG,1,0,0,9999,0,0,0,
2026-03-28 20:00:00,METAR LCLK 282000Z 15012KT CAVOK 18/15 Q1007 NOSIG,1,0,0,9999,0,0,0,
2026-03-28 19:30:00,METAR LCLK 281930Z 16008KT CAVOK 18/14 Q1008 NOSIG,1,0,0,9999,0,0,0,
2026-03-28 19:00:00,METAR LCLK 281900Z 15006KT CAVOK 18/14 Q1008 NOSIG,1,0,0,9999,0,0,0,
2026-03-28 18:30:00,METAR LCLK 281830Z 18007KT 9999 FEW050 18/15 Q1009 NOSIG,0,7,0,10000,0,0,0,
2026-03-28 18:00:00,METAR LCLK 281800Z 17006KT 9999 FEW050 17/15 Q1009 NOSIG,0,6,0,10000,0,0,0,
2026-03-28 17:30:00,METAR LCLK 281730Z 20005KT 9999 FEW050 17/15 Q1010 NOSIG,0,5,0,10000,0,0,0,
2026-03-28 17:00:00,METAR LCLK 281700Z 19007KT 9999 FEW050 18/15 Q1010 NOSIG,0,7,0,10000,0,0,0,
2026-03-28 16:30:00,METAR LCLK 281630Z 20009KT 9999 FEW050 17/15 Q1010 NOSIG,0,9,0,10000,0,0,0,
2026-03-28 16:00:00,METAR LCLK 281600Z 20008KT 9999 FEW050 18/15 Q1009 NOSIG,0,8,0,10000,0,0,0,
2026-03-28 15:30:00,METAR LCLK 281530Z 19009KT 9999 FEW050 18/15 Q1010 NOSIG,0,9,0,10000,0,0,0,
2026-03-28 15:00:00,METAR LCLK 281500Z 19010KT 9999 FEW025 19/14 Q1010 NOSIG,0,10,0,10000,0,0,0,
2026-03-28 14:30:00,METAR LCLK 281430Z 19010KT 9999 FEW025 19/14 Q1010 NOSIG,0,10,0,10000,0,0,0,
2026-03-28 14:00:00,METAR LCLK 281400Z 19009KT 9999 FEW025 19/13 Q1010 NOSIG,0,9,0,10000,0,0,0,
2026-03-28 13:30:00,METAR LCLK 281330Z 20011KT 9999 FEW025 19/14 Q1010 NOSIG,0,11,0,10000,0,0,0,
2026-03-28 13:00:00,METAR LCLK 281300Z 20013KT 9999 FEW025 19/13 Q1011 NOSIG,0,13,0,10000,0,0,0,
2026-03-28 12:30:00,METAR LCLK 281230Z 20012KT 9999 FEW025 20/14 Q1011 NOSIG,0,12,0,10000,0,0,0,
2026-03-28 12:00:00,METAR LCLK 281200Z 20012KT 9999 FEW025 21/13 Q1011 NOSIG,0,12,0,10000,0,0,0,
2026-03-28 11:30:00,METAR LCLK 281130Z 21014KT 170V230 9999 FEW025 21/13 Q1011 NOSIG,0,14,0,10000,0,0,0,
2026-03-28 11:00:00,METAR LCLK 281100Z 22014KT 9999 FEW025 21/12 Q1011 NOSIG,0,14,0,10000,0,0,0,
2026-03-28 10:30:00,METAR LCLK 281030Z 21014KT 9999 FEW025 21/12 Q1011 NOSIG,0,14,0,10000,0,0,0,
2026-03-28 10:00:00,METAR LCLK 281000Z 21014KT 9999 FEW025 21/13 Q1011 NOSIG,0,14,0,10000,0,0,0,
2026-03-28 09:30:00,METAR LCLK 280930Z 22014KT 9999 FEW020 21/14 Q1012 NOSIG,0,14,0,10000,0,0,0,
2026-03-28 09:00:00,METAR LCLK 280900Z 22017KT 9999 FEW020 21/14 Q1012 NOSIG,0,17,0,10000,0,0,0,
2026-03-28 08:30:00,METAR LCLK 280830Z 21016KT 9999 FEW020 20/14 Q1012 NOSIG,0,16,0,10000,0,0,0,
2026-03-28 08:00:00,METAR LCLK 280800Z 21016KT 9999 FEW020 19/13 Q1012 NOSIG,0,16,0,10000,0,0,0,
2026-03-28 07:30:00,METAR LCLK 280730Z 21016KT 9999 FEW020 20/14 Q1012 NOSIG,0,16,0,10000,0,0,0,
2026-03-28 07:00:00,METAR LCLK 280700Z 22017KT 9999 FEW020 19/14 Q1012 NOSIG,0,17,0,10000,0,0,0,
2026-03-28 06:30:00,METAR LCLK 280630Z 21012KT 9999 FEW020 18/14 Q1012 NOSIG,0,12,0,10000,0,0,0,
2026-03-28 06:00:00,METAR LCLK 280600Z 21010KT 9999 FEW020 17/13 Q1012 NOSIG,0,10,0,10000,0,0,0,
2026-03-28 05:30:00,METAR LCLK 280530Z 22007KT 9999 FEW020 15/11 Q1012 NOSIG,0,7,0,10000,0,0,0,
2026-03-28 05:00:00,METAR LCLK 280500Z 21006KT 9999 FEW020 14/11 Q1012 NOSIG,0,6,0,10000,0,0,0,
2026-03-28 04:30:00,METAR LCLK 280430Z 24004KT 220V280 9999 FEW020 12/10 Q1012 NOSIG,0,4,0,10000,0,0,0,
2026-03-28 04:00:00,METAR LCLK 280400Z 26003KT 9999 FEW020 09/07 Q1012 NOSIG,0,3,0,10000,0,0,0,
2026-03-28 03:30:00,METAR LCLK 280330Z VRB03KT 9999 FEW020 09/07 Q1012 NOSIG,0,3,0,10000,0,0,0,
2026-03-28 03:00:00,METAR LCLK 280300Z VRB03KT 9999 FEW020 09/07 Q1012 NOSIG,0,3,0,10000,0,0,0,
2026-03-28 02:30:00,METAR LCLK 280230Z 28004KT CAVOK 09/08 Q1012 NOSIG,1,0,0,9999,0,0,0,
2026-03-28 02:00:00,METAR LCLK 280200Z VRB03KT CAVOK 09/08 Q1012 NOSIG,1,0,0,9999,0,0,0,
2026-03-28 01:30:00,METAR LCLK 280130Z 31004KT 260V340 CAVOK 10/09 Q1012 NOSIG,1,0,0,9999,0,0,0,
2026-03-28 01:00:00,METAR LCLK 280100Z 00000KT CAVOK 11/09 Q1012 NOSIG,1,0,0,9999,0,0,0,
2026-03-28 00:30:00,METAR LCLK 280030Z 31002KT CAVOK 12/09 Q1012 NOSIG,1,0,0,9999,0,0,0,
2026-03-28 00:00:00,METAR LCLK 280000Z 30003KT CAVOK 14/10 Q1012 NOSIG,1,0,0,9999,0,0,0,
2026-03-27 23:30:00,METAR LCLK 272330Z 28006KT CAVOK 12/10 Q1012 NOSIG,1,0,0,9999,0,0,0,
2026-03-27 23:00:00,METAR LCLK 272300Z 21009KT CAVOK 13/10 Q1013 NOSIG,1,0,0,9999,0,0,0,
2026-03-27 22:30:00,METAR LCLK 272230Z 23009KT CAVOK 14/11 Q1013 NOSIG,1,0,0,9999,0,0,0,
2026-03-27 22:00:00,METAR LCLK 272200Z 26008KT CAVOK 13/10 Q1013 NOSIG,1,0,0,9999,0,0,0,
2026-03-27 21:30:00,METAR LCLK 272130Z COR 25009KT CAVOK 14/11 Q1013 NOSIG,1,0,0,9999,0,0,0,
2026-03-27 21:00:00,METAR LCLK 272100Z 24008KT CAVOK 15/11 Q1012 NOSIG,1,0,0,9999,0,0,0,
2026-03-27 20:30:00,METAR LCLK 272030Z 24013KT CAVOK 15/11 Q1013 NOSIG,1,0,0,9999,0,0,0,
2026-03-27 20:00:00,METAR LCLK 272000Z 23010KT CAVOK 15/11 Q1012 NOSIG,1,0,0,9999,0,0,0,
2026-03-27 19:30:00,METAR LCLK 271930Z 23011KT CAVOK 15/11 Q1012 NOSIG,1,0,0,9999,0,0,0,
2026-03-27 19:00:00,METAR LCLK 271900Z 23010KT CAVOK 15/11 Q1012 NOSIG,1,0,0,9999,0,0,0,
2026-03-27 18:30:00,METAR LCLK 271830Z 25007KT 9999 FEW035 15/11 Q1012 NOSIG,0,7,0,10000,0,0,0,
2026-03-27 18:00:00,METAR LCLK 271800Z 25007KT 9999 FEW035 15/11 Q1012 NOSIG,0,7,0,10000,0,0,0,
2026-03-27 17:30:00,METAR LCLK 271730Z 27006KT 9999 FEW030 15/11 Q1011 NOSIG,0,6,0,10000,0,0,0,
2026-03-27 17:00:00,METAR LCLK 271700Z 25008KT 9999 FEW020 16/11 Q1011 NOSIG,0,8,0,10000,0,0,0,
2026-03-27 16:30:00,METAR LCLK 271630Z 24010KT 9999 FEW020 17/12 Q1010 NOSIG,0,10,0,10000,0,0,0,
2026-03-27 16:00:00,METAR LCLK 271600Z 24010KT 9999 FEW020 18/12 Q1010 NOSIG,0,10,0,10000,0,0,0,
2026-03-25 15:00:00,METAR LCLK 251500Z 32004KT 270V350 9999 FEW030TCU SCT035 BKN050 16/12 Q0997 NOSIG,0,4,0,10000,0,0,0,
2026-03-25 14:30:00,METAR LCLK 251430Z VRB01KT 9999 FEW030TCU SCT035 BKN050 16/12 Q0997 NOSIG RMK CB TO N,0,1,0,10000,0,0,0,
2026-03-25 14:00:00,METAR LCLK 251400Z VRB01KT 9999 FEW030TCU SCT035 BKN050 16/11 Q0998 NOSIG RMK CB TO N,0,1,0,10000,0,0,0,
2026-03-25 13:30:00,METAR LCLK 251330Z VRB03KT 9999 FEW030CB SCT035 BKN050 16/12 Q0998 NOSIG RMK CB TO N,0,3,0,10000,0,0,0,
2026-03-25 13:00:00,METAR LCLK 251300Z 12004KT 080V160 9999 FEW030CB SCT035 17/12 Q0998 NOSIG RMK CB TO N,0,4,0,10000,0,0,0,
2026-03-25 12:30:00,METAR LCLK 251230Z 11005KT 070V150 9999 FEW030CB SCT040 17/12 Q0998 NOSIG RMK CB TO N,0,5,0,10000,0,0,0,
2026-03-25 12:00:00,METAR LCLK 251200Z 12005KT 080V150 9999 FEW020 FEW030CB 17/12 Q0998 NOSIG RMK CB TO N,0,5,0,10000,0,0,0,
2026-03-25 11:30:00,METAR LCLK 251130Z 08006KT 040V100 9999 FEW020 FEW030CB 17/11 Q0998 NOSIG RMK CB TO N AND E,0,6,0,10000,0,0,0,
2026-03-25 11:00:00,METAR LCLK 251100Z 09004KT 040V130 9999 FEW020CB 17/12 Q0999 NOSIG RMK CB TO N AND E,0,4,0,10000,0,0,0,
2026-03-25 10:30:00,METAR LCLK 251030Z VRB03KT 9999 FEW020TCU 16/12 Q0999 NOSIG,0,3,0,10000,0,0,0,
2026-03-25 10:00:00,METAR LCLK 251000Z 31003KT 250V360 9999 FEW020TCU SCT040 16/13 Q0999 TEMPO 5000 SHRA SCT020TCU FEW025CB,0,3,0,10000,0,0,0,"RA,SH"
2026-03-25 09:30:00,METAR LCLK 250930Z 29004KT 260V330 9999 FEW020TCU SCT040 15/12 Q1000 TEMPO 5000 SHRA SCT020TCU FEW025CB,0,4,0,10000,0,0,0,"RA,SH"
2026-03-25 09:00:00,METAR LCLK 250900Z 27005KT 8000 -SHRA FEW020TCU SCT040 14/12 Q1000 TEMPO 5000 SHRA SCT020TCU FEW025CB,0,5,0,8000,0,0,0,"RA,SH"
2026-03-25 08:30:00,METAR LCLK 250830Z 29007KT 250V310 8000 -SHRA FEW018 FEW020CB BKN040 14/12 Q1000 TEMPO 5000 TSRA SCT020CB RMK CB TO S SW,0,7,0,8000,1,0,0,"RA,TS"
2026-03-25 08:00:00,METAR LCLK 250800Z 16006KT 110V220 8000 -SHRA FEW018 FEW020CB BKN060 16/11 Q1001 TEMPO 5000 TSRA SCT020CB RMK CB TO S SW,0,6,0,8000,1,0,0,"RA,TS"
2026-03-25 07:30:00,METAR LCLK 250730Z 13006KT 9999 FEW018 FEW020TCU SCT025 BKN040 16/12 Q1001 TEMPO 5000 SHRA SCT020TCU,0,6,0,10000,0,0,0,"RA,SH"
2026-03-25 07:00:00,METAR LCLK 250700Z 14008KT 9999 FEW018 FEW020TCU SCT025 BKN040 15/12 Q1001 NOSIG,0,8,0,10000,0,0,0,
2026-03-25 06:30:00,METAR LCLK 250630Z 14006KT 120V180 9999 FEW018 FEW025TCU BKN030 16/12 Q1001 NOSIG,0,6,0,10000,0,0,0,
2026-03-25 06:00:00,METAR LCLK 250600Z 12004KT 080V150 9999 FEW018 FEW025TCU 15/13 Q1001 NOSIG,0,4,0,10000,0,0,0,
2026-03-25 05:30:00,METAR LCLK 250530Z VRB02KT 9999 FEW018 FEW025TCU SCT050 14/13 Q1001 NOSIG,0,2,0,10000,0,0,0,
2026-03-25 05:00:00,METAR LCLK 250500Z 00000KT 9999 FEW018 FEW025TCU SCT050 12/12 Q1001 NOSIG,0,0,0,10000,0,0,0,
2026-03-25 04:30:00,METAR LCLK 250430Z 34004KT 9999 FEW018 FEW025TCU SCT050 12/11 Q1001 NOSIG,0,4,0,10000,0,0,0,
2026-03-25 04:00:00,METAR LCLK 250400Z VRB02KT 9999 FEW018 FEW025CB SCT060 12/11 Q1001 NOSIG,0,2,0,10000,0,0,0,
2026-03-25 03:30:00,METAR LCLK 250330Z 12007KT 9999 -SHRA FEW018 FEW025CB FEW030TCU SCT060 12/11 Q1001 NOSIG,0,7,0,10000,0,0,0,RA
2026-03-25 03:00:00,METAR LCLK 250300Z 07005KT 9999 -SHRA FEW020 FEW025CB FEW030TCU SCT060 12/12 Q1001 RETS NOSIG,0,5,0,10000,1,0,0,"RA,TS"
2026-03-25 02:30:00,METAR LCLK 250230Z 35003KT 9999 TS FEW022 FEW025CB FEW030TCU SCT060 12/11 Q1001 NOSIG,0,3,0,10000,1,0,0,TS
2026-03-25 02:00:00,METAR LCLK 250200Z 32003KT 9999 TS FEW022 FEW025CB FEW030TCU SCT060 12/11 Q1001 NOSIG,0,3,0,10000,1,0,0,TS
2026-03-25 01:30:00,METAR LCLK 250130Z 29004KT 9999 TS FEW022 FEW025CB FEW030TCU SCT060 12/11 Q1001 NOSIG,0,4,0,10000,1,0,0,TS
2026-03-25 01:00:00,METAR LCLK 250100Z 30004KT 9999 TS FEW022 FEW025CB FEW030TCU SCT070 12/11 Q1002 NOSIG,0,4,0,10000,1,0,0,TS
2026-03-25 00:30:00,METAR LCLK 250030Z 31003KT 9999 TS FEW022 FEW025CB SCT070 12/11 Q1002 NOSIG,0,3,0,10000,1,0,0,TS
2026-03-25 00:00:00,METAR LCLK 250000Z 30005KT 250V310 9999 TS FEW017 FEW025CB SCT070 12/11 Q1002 NOSIG,0,5,0,10000,1,0,0,TS
2026-03-24 23:30:00,METAR LCLK 242330Z 32006KT 9999 FEW017 SCT070 12/11 Q1003 NOSIG RMK LIGHTNING FAR TO SE,0,6,0,10000,0,0,0,
2026-03-24 23:00:00,METAR LCLK 242300Z 31005KT 9999 FEW017 SCT060 12/11 Q1003 NOSIG,0,5,0,10000,0,0,0,
2026-03-24 22:30:00,METAR LCLK 242230Z 30004KT 9999 FEW030 SCT060 12/11 Q1003 NOSIG,0,4,0,10000,0,0,0,
2026-03-24 22:00:00,METAR LCLK 242200Z 31004KT 9999 FEW030 SCT060 12/12 Q1004 NOSIG,0,4,0,10000,0,0,0,
2026-03-24 21:30:00,METAR LCLK 242130Z 03003KT 9999 -SHRA FEW030 SCT060 13/12 Q1004 NOSIG,0,3,0,10000,0,0,0,RA
2026-03-24 21:00:00,METAR LCLK 242100Z 32004KT 9999 FEW030 SCT060 13/12 Q1004 NOSIG,0,4,0,10000,0,0,0,
2026-03-24 20:30:00,METAR LCLK 242030Z 32002KT 9999 FEW030 BKN060 13/12 Q1004 NOSIG,0,2,0,10000,0,0,0,
2026-03-24 20:00:00,METAR LCLK 242000Z VRB01KT 9999 FEW030 BKN060 13/13 Q1004 NOSIG,0,1,0,10000,0,0,0,
2026-03-24 19:30:00,METAR LCLK 241930Z 04002KT 9999 FEW030 13/12 Q1005 NOSIG,0,2,0,10000,0,0,0,
2026-03-24 19:00:00,METAR LCLK 241900Z 32003KT 260V330 9999 FEW030 14/12 Q1005 NOSIG,0,3,0,10000,0,0,0,
2026-03-24 18:30:00,METAR LCLK 241830Z 31004KT 9999 FEW020 FEW030TCU 14/12 Q1005 NOSIG,0,4,0,10000,0,0,0,
2026-03-24 18:00:00,METAR LCLK 241800Z 27005KT 240V310 9999 FEW020 FEW030TCU SCT050 14/12 Q1005 NOSIG,0,5,0,10000,0,0,0,
2026-03-24 17:30:00,METAR LCLK 241730Z 29002KT 9999 FEW020 FEW030TCU SCT040 15/12 Q1005 NOSIG,0,2,0,10000,0,0,0,
2026-03-24 17:00:00,METAR LCLK 241700Z 26004KT 9999 FEW020 FEW025CB 15/12 Q1005 NOSIG RMK CB TO S,0,4,0,10000,0,0,0,
2026-03-24 16:30:00,METAR LCLK 241630Z 24006KT 9999 FEW020 FEW025CB 15/12 Q1005 NOSIG RMK CB TO S,0,6,0,10000,0,0,0,
2026-03-24 16:00:00,METAR LCLK 241600Z 24006KT 9999 FEW020 FEW025CB 16/12 Q1005 NOSIG RMK CB TO S,0,6,0,10000,0,0,0,
2026-03-24 15:30:00,METAR LCLK 241530Z 23008KT 9999 FEW020 FEW025CB 16/11 Q1005 NOSIG RMK CB TO S,0,8,0,10000,0,0,0,
2026-03-24 15:00:00,METAR LCLK 241500Z 21008KT 180V240 9999 FEW020 FEW025CB 17/12 Q1005 NOSIG RMK CB TO N NW,0,8,0,10000,0,0,0,
2026-03-24 14:30:00,METAR LCLK 241430Z 20008KT 9999 FEW020 FEW025CB 18/13 Q1005 NOSIG RMK CB TO N NW,0,8,0,10000,0,0,0,
2026-03-24 14:00:00,METAR LCLK 241400Z 19008KT 160V220 9999 FEW020 FEW025CB 18/13 Q1005 NOSIG RMK CB TO N NW,0,8,0,10000,0,0,0,
2026-03-24 13:30:00,METAR LCLK 241330Z 18007KT 9999 FEW020 FEW025CB 18/12 Q1005 NOSIG RMK CB TO N,0,7,0,10000,0,0,0,
2026-03-24 13:00:00,METAR LCLK 241300Z 17006KT 140V200 9999 FEW020 FEW025CB 18/11 Q1005 NOSIG RMK CB TO N NE SW,0,6,0,10000,0,0,0,
2026-03-24 12:30:00,METAR LCLK 241230Z 19008KT 9999 FEW020 FEW025CB 18/13 Q1005 NOSIG RMK CB TO N NE SW,0,8,0,10000,0,0,0,
2026-03-24 12:00:00,METAR LCLK 241200Z 20008KT 170V230 9999 FEW020 FEW025CB 18/13 Q1006 NOSIG RMK CB TO N NE SW,0,8,0,10000,0,0,0,
2026-03-24 11:30:00,METAR LCLK 241130Z 19008KT 160V220 9999 FEW020 FEW025CB 19/13 Q1006 NOSIG RMK CB TO N NE,0,8,0,10000,0,0,0,
2026-03-24 11:00:00,METAR LCLK 241100Z 19005KT 150V220 9999 FEW020 FEW025CB SCT035 18/13 Q1006 NOSIG RMK CB TO N SW,0,5,0,10000,0,0,0,
2026-03-24 10:30:00,METAR LCLK 241030Z 21006KT 180V250 9999 FEW018 FEW025CB SCT035 18/12 Q1007 NOSIG RMK CB TO N SW W,0,6,0,10000,0,0,0,
2026-03-24 10:00:00,METAR LCLK 241000Z 20010KT 170V230 9999 FEW018 FEW025CB 19/13 Q1007 NOSIG RMK CB TO N NE W,0,10,0,10000,0,0,0,
2026-03-24 09:30:00,METAR LCLK 240930Z 14008KT 110V210 9999 FEW018 FEW025CB SCT030 18/13 Q1007 NOSIG RMK CB TO N NE W,0,8,0,10000,0,0,0,
2026-03-24 09:00:00,METAR LCLK 240900Z 13008KT 9999 FEW018 FEW030CB SCT040 18/14 Q1007 NOSIG RMK CB TO N SW W,0,8,0,10000,0,0,0,
2026-03-24 08:30:00,METAR LCLK 240830Z 12007KT 9999 FEW025 FEW030CB FEW035TCU 18/14 Q1007 NOSIG RMK CB TO N NE SW,0,7,0,10000,0,0,0,
2026-03-24 08:00:00,METAR LCLK 240800Z 09005KT 9999 FEW025 FEW030CB FEW035TCU 19/14 Q1007 NOSIG RMK CB TO N NE SW,0,5,0,10000,0,0,0,
2026-03-24 07:30:00,METAR LCLK 240730Z 07004KT 030V120 9999 FEW025 FEW030CB FEW035TCU 18/14 Q1008 NOSIG RMK CB TO N NE SW,0,4,0,10000,0,0,0,
2026-03-24 07:00:00,METAR LCLK 240700Z VRB03KT 9999 FEW025 FEW030CB FEW035TCU 18/13 Q1008 NOSIG RMK CB TO E SW,0,3,0,10000,0,0,0,
2026-03-24 06:30:00,METAR LCLK 240630Z 07004KT 040V100 9999 FEW025 FEW030CB 17/13 Q1008 NOSIG RMK CB TO SE S,0,4,0,10000,0,0,0,
2026-03-24 06:00:00,METAR LCLK 240600Z VRB03KT 9999 FEW030CB FEW040TCU 15/12 Q1008 NOSIG RMK DISTANT CB TO SE,0,3,0,10000,0,0,0,
2026-03-24 05:30:00,METAR LCLK 240530Z 33004KT 9999 FEW040TCU 13/11 Q1008 NOSIG,0,4,0,10000,0,0,0,
2026-03-24 05:00:00,METAR LCLK 240500Z 32005KT 9999 FEW040TCU 11/10 Q1008 NOSIG,0,5,0,10000,0,0,0,
2026-03-24 04:30:00,METAR LCLK 240430Z 31005KT 9999 FEW040TCU 09/09 Q1008 NOSIG,0,5,0,10000,0,0,0,
2026-03-24 04:00:00,METAR LCLK 240400Z 31006KT 270V340 9999 FEW040TCU 08/08 Q1008 NOSIG,0,6,0,10000,0,0,0,
2026-03-24 03:30:00,METAR LCLK 240330Z 31006KT 9999 FEW040TCU 08/08 Q1008 NOSIG,0,6,0,10000,0,0,0,
2026-03-24 03:00:00,METAR LCLK 240300Z 31005KT 9999 FEW040TCU 08/08 Q1008 NOSIG,0,5,0,10000,0,0,0,
2026-03-24 02:30:00,METAR LCLK 240230Z 33006KT 9999 FEW070 09/08 Q1008 NOSIG,0,6,0,10000,0,0,0,
2026-03-24 02:00:00,METAR LCLK 240200Z 31006KT 9999 FEW070 09/08 Q1008 NOSIG,0,6,0,10000,0,0,0,
2026-03-24 01:30:00,METAR LCLK 240130Z 31005KT 9999 FEW070 09/08 Q1008 NOSIG,0,5,0,10000,0,0,0,
2026-03-24 01:00:00,METAR LCLK 240100Z 32005KT 9999 SCT070 09/09 Q1008 NOSIG,0,5,0,10000,0,0,0,
2026-03-24 00:30:00,METAR LCLK 240030Z 31004KT 9999 SCT060 09/09 Q1008 NOSIG,0,4,0,10000,0,0,0,
2026-03-24 00:00:00,METAR LCLK 240000Z 30004KT 9999 SCT060 09/09 Q1008 NOSIG,0,4,0,10000,0,0,0,
2026-03-23 23:30:00,METAR LCLK 232330Z VRB02KT 9999 FEW030 SCT070 10/09 Q1008 NOSIG,0,2,0,10000,0,0,0,
2026-03-23 23:00:00,METAR LCLK 232300Z VRB03KT 9999 FEW030 BKN070 10/10 Q1008 NOSIG,0,3,0,10000,0,0,0,
2026-03-23 22:30:00,METAR LCLK 232230Z 31004KT 9999 FEW030 BKN070 10/10 Q1009 NOSIG,0,4,0,10000,0,0,0,
2026-03-23 22:00:00,METAR LCLK 232200Z COR 34004KT 9999 FEW030 SCT060 11/10 Q1009 NOSIG,0,4,0,10000,0,0,0,
2026-03-23 21:30:00,METAR LCLK 232130Z VRB01KT 9999 FEW030 SCT060 10/10 Q1009 NOSIG,0,1,0,10000,0,0,0,
2026-03-23 21:00:00,METAR LCLK 232100Z 31005KT 9999 FEW030 SCT060 10/10 Q1009 NOSIG,0,5,0,10000,0,0,0,
2026-03-23 20:30:00,METAR LCLK 232030Z 31004KT 9999 FEW030 SCT060 11/10 Q1009 NOSIG,0,4,0,10000,0,0,0,
2026-03-23 20:00:00,METAR LCLK 232000Z 31004KT 9999 FEW030 11/10 Q1009 NOSIG,0,4,0,10000,0,0,0,
2026-03-23 19:30:00,METAR LCLK 231930Z VRB03KT 9999 FEW030 11/11 Q1009 NOSIG,0,3,0,10000,0,0,0,
2026-03-23 19:00:00,METAR LCLK 231900Z VRB02KT 9999 FEW030 12/11 Q1009 NOSIG,0,2,0,10000,0,0,0,
2026-03-23 18:30:00,METAR LCLK 231830Z 30003KT 280V340 9999 FEW030 13/12 Q1009 NOSIG,0,3,0,10000,0,0,0,
2026-03-23 18:00:00,METAR LCLK 231800Z 33003KT 9999 FEW030 13/12 Q1010 NOSIG,0,3,0,10000,0,0,0,
2026-03-23 17:30:00,METAR LCLK 231730Z VRB03KT 9999 FEW030 13/12 Q1009 NOSIG,0,3,0,10000,0,0,0,
2026-03-23 17:00:00,METAR LCLK 231700Z 32004KT 9999 FEW030 13/12 Q1009 NOSIG,0,4,0,10000,0,0,0,
2026-03-23 16:30:00,METAR LCLK 231630Z 31005KT 250V340 9999 FEW020 SCT040 14/12 Q1009 NOSIG,0,5,0,10000,0,0,0,
2026-03-23 16:00:00,METAR LCLK 231600Z 31007KT 270V340 9999 SCT020 FEW030CB SCT040 14/12 Q1009 NOSIG,0,7,0,10000,0,0,0,
2026-03-23 15:30:00,METAR LCLK 231530Z 32005KT 270V360 9999 SCT020 FEW030CB SCT040 14/12 Q1009 TEMPO 5000 SHRA SCT020TCU,0,5,0,10000,0,0,0,"RA,SH"
2026-03-23 15:00:00,METAR LCLK 231500Z 32006KT 9999 SCT020 FEW030CB SCT040 15/12 Q1009 TEMPO 5000 SHRA SCT020TCU,0,6,0,10000,0,0,0,"RA,SH"
2026-03-23 14:30:00,METAR LCLK 231430Z 30009KT 270V330 9999 SCT020 FEW030CB SCT060 16/12 Q1009 NOSIG,0,9,0,10000,0,0,0,
2026-03-23 14:00:00,METAR LCLK 231400Z 21011KT 9999 FEW020 FEW030TCU SCT060 18/12 Q1008 NOSIG,0,11,0,10000,0,0,0,
2026-03-23 13:30:00,METAR LCLK 231330Z 21010KT 170V230 9999 FEW020 FEW030TCU SCT060 19/11 Q1008 NOSIG,0,10,0,10000,0,0,0,
2026-03-23 13:00:00,METAR LCLK 231300Z 21012KT 9999 FEW020 FEW030TCU SCT060 19/12 Q1008 NOSIG,0,12,0,10000,0,0,0,
2026-03-23 12:30:00,METAR LCLK 231230Z 20012KT 9999 FEW020 SCT060 19/13 Q1008 NOSIG,0,12,0,10000,0,0,0,
2026-03-23 12:00:00,METAR LCLK 231200Z 19011KT 9999 FEW020 FEW025CB SCT060 19/13 Q1008 NOSIG,0,11,0,10000,0,0,0,
2026-03-23 11:30:00,METAR LCLK 231130Z 18012KT 9999 FEW020 FEW025CB SCT040 19/13 Q1008 NOSIG,0,12,0,10000,0,0,0,
2026-03-23 11:00:00,METAR LCLK 231100Z 18012KT 9999 FEW020 FEW025CB SCT040 19/14 Q1008 NOSIG,0,12,0,10000,0,0,0,
2026-03-23 10:30:00,METAR LCLK 231030Z 17012KT 9999 FEW020TCU FEW025CB SCT040 19/14 Q1009 NOSIG,0,12,0,10000,0,0,0,
2026-03-23 10:00:00,METAR LCLK 231000Z 17009KT 140V210 9999 FEW020TCU FEW025CB SCT040 19/13 Q1009 NOSIG,0,9,0,10000,0,0,0,
2026-03-23 09:30:00,METAR LCLK 230930Z 16009KT 9999 FEW020TCU FEW025CB SCT040 19/14 Q1009 NOSIG,0,9,0,10000,0,0,0,
2026-03-23 09:00:00,METAR LCLK 230900Z 16008KT 9999 FEW020TCU FEW025CB SCT040 18/13 Q1009 NOSIG,0,8,0,10000,0,0,0,
2026-03-23 08:30:00,METAR LCLK 230830Z 16008KT 130V190 9999 FEW020 FEW025CB SCT040 18/13 Q1009 NOSIG,0,8,0,10000,0,0,0,
2026-03-23 08:00:00,METAR LCLK 230800Z 12006KT 9999 FEW025CB 18/12 Q1009 NOSIG,0,6,0,10000,0,0,0,
2026-03-23 07:30:00,METAR LCLK 230730Z 09004KT 050V120 9999 FEW025CB 18/12 Q1009 NOSIG,0,4,0,10000,0,0,0,
2026-03-23 07:00:00,METAR LCLK 230700Z 11003KT 9999 FEW025CB 16/11 Q1009 NOSIG,0,3,0,10000,0,0,0,
2026-03-23 06:30:00,METAR LCLK 230630Z 00000KT 9999 FEW025CB SCT060 16/12 Q1009 NOSIG,0,0,0,10000,0,0,0,
2026-03-23 06:00:00,METAR LCLK 230600Z VRB02KT 9999 FEW025CB 15/13 Q1009 NOSIG,0,2,0,10000,0,0,0,
2026-03-23 05:30:00,METAR LCLK 230530Z VRB03KT 9999 FEW025CB 13/12 Q1009 NOSIG,0,3,0,10000,0,0,0,
2026-03-23 05:00:00,METAR LCLK 230500Z 31003KT 9999 FEW025CB SCT060 11/11 Q1009 NOSIG,0,3,0,10000,0,0,0,
2026-03-23 04:30:00,METAR LCLK 230430Z 31004KT 9999 FEW025CB SCT060 10/10 Q1008 NOSIG,0,4,0,10000,0,0,0,
2026-03-23 04:00:00,METAR LCLK 230400Z 32003KT 9999 FEW025TCU BKN050 10/09 Q1008 NOSIG,0,3,0,10000,0,0,0,
2026-03-23 03:30:00,METAR LCLK 230330Z 30003KT 9999 FEW025TCU 10/09 Q1008 NOSIG,0,3,0,10000,0,0,0,
2026-03-23 03:00:00,METAR LCLK 230300Z 29003KT 9999 FEW025CB 10/09 Q1008 NOSIG,0,3,0,10000,0,0,0,
2026-03-23 02:30:00,METAR LCLK 230230Z 30004KT CAVOK 10/09 Q1008 NOSIG,1,0,0,9999,0,0,0,
2026-03-23 02:00:00,METAR LCLK 230200Z VRB03KT CAVOK 11/10 Q1008 NOSIG,1,0,0,9999,0,0,0,
2026-03-23 01:30:00,METAR LCLK 230130Z 29003KT 240V310 9999 BKN070 11/10 Q1008 NOSIG,0,3,0,10000,0,0,0,
2026-03-23 01:00:00,METAR LCLK 230100Z 23004KT 200V280 9999 BKN070 10/10 Q1008 NOSIG,0,4,0,10000,0,0,0,
2026-03-23 00:30:00,METAR LCLK 230030Z VRB03KT 9999 BKN070 10/10 Q1008 NOSIG,0,3,0,10000,0,0,0,
2026-03-23 00:00:00,METAR LCLK 230000Z 29003KT 9999 BKN060 09/09 Q1008 NOSIG,0,3,0,10000,0,0,0,
2026-03-22 23:30:00,METAR LCLK 222330Z 28004KT 9999 SCT060 09/09 Q1008 NOSIG,0,4,0,10000,0,0,0,
2026-03-22 23:00:00,METAR LCLK 222300Z VRB03KT 9999 SCT060 10/09 Q1008 NOSIG,0,3,0,10000,0,0,0,
2026-03-22 22:30:00,METAR LCLK 222230Z 30003KT 9999 SCT060 10/09 Q1008 NOSIG,0,3,0,10000,0,0,0,
2026-03-22 22:00:00,METAR LCLK 222200Z 29004KT 9999 SCT060 10/10 Q1008 NOSIG,0,4,0,10000,0,0,0,
2026-03-22 21:30:00,METAR LCLK 222130Z 32002KT CAVOK 10/10 Q1008 NOSIG,1,0,0,9999,0,0,0,
2026-03-22 21:00:00,METAR LCLK 222100Z 30003KT CAVOK 11/10 Q1008 NOSIG,1,0,0,9999,0,0,0,
2026-03-22 20:30:00,METAR LCLK 222030Z 28004KT 240V340 CAVOK 11/10 Q1008 NOSIG,1,0,0,9999,0,0,0,
2026-03-22 20:00:00,METAR LCLK 222000Z VRB02KT 9999 FEW020 SCT060 12/11 Q1008 NOSIG,0,2,0,10000,0,0,0,
2026-03-22 19:30:00,METAR LCLK 221930Z 30003KT 250V340 9999 FEW020 12/11 Q1008 NOSIG,0,3,0,10000,0,0,0,
2026-03-22 19:00:00,METAR LCLK 221900Z 31004KT 9999 FEW020 13/11 Q1008 NOSIG,0,4,0,10000,0,0,0,
2026-03-22 18:30:00,METAR LCLK 221830Z VRB02KT 9999 FEW020 13/11 Q1008 NOSIG,0,2,0,10000,0,0,0,
2026-03-22 18:00:00,METAR LCLK 221800Z 23003KT 9999 FEW020 14/12 Q1007 NOSIG,0,3,0,10000,0,0,0,
2026-03-22 17:30:00,METAR LCLK 221730Z 27004KT 9999 FEW020 FEW025TCU 14/12 Q1007 NOSIG,0,4,0,10000,0,0,0,
2026-03-22 17:00:00,METAR LCLK 221700Z 23004KT 9999 FEW020 FEW025TCU 15/12 Q1007 NOSIG,0,4,0,10000,0,0,0,
2026-03-22 16:30:00,METAR LCLK 221630Z 23006KT 9999 FEW020 FEW025TCU 15/12 Q1007 NOSIG,0,6,0,10000,0,0,0,
2026-03-22 16:00:00,METAR LCLK 221600Z 22008KT 9999 FEW020 FEW025TCU FEW030CB 16/12 Q1007 NOSIG,0,8,0,10000,0,0,0,
2026-03-22 15:30:00,METAR LCLK 221530Z 21011KT 9999 FEW020 FEW025TCU FEW030CB 17/12 Q1006 NOSIG,0,11,0,10000,0,0,0,
2026-03-22 15:00:00,METAR LCLK 221500Z 21013KT 9999 FEW020 FEW025TCU FEW030CB 18/12 Q1006 NOSIG,0,13,0,10000,0,0,0,
2026-03-22 14:30:00,METAR LCLK 221430Z 21012KT 9999 FEW020 FEW025TCU FEW030CB 18/12 Q1006 NOSIG,0,12,0,10000,0,0,0,
2026-03-22 14:00:00,METAR LCLK 221400Z 23010KT 9999 FEW020 FEW025TCU FEW030CB 17/12 Q1006 NOSIG RMK CB TO N NE,0,10,0,10000,0,0,0,
2026-03-22 13:30:00,METAR LCLK 221330Z 21013KT 9999 FEW020 FEW025TCU FEW030CB 18/12 Q1006 NOSIG RMK CB TO N NE,0,13,0,10000,0,0,0,
2026-03-22 12:30:00,METAR LCLK 221230Z 21015KT 9999 FEW020 FEW025TCU FEW030CB 19/12 Q1006 NOSIG RMK CB TO N NE,0,15,0,10000,0,0,0,
2026-03-22 12:00:00,METAR LCLK 221200Z 21015KT 9999 FEW020 FEW025TCU FEW030CB 19/12 Q1006 NOSIG RMK CB TO N NE,0,15,0,10000,0,0,0,
2026-03-22 11:30:00,METAR LCLK 221130Z 20016KT 9999 FEW020 FEW025TCU FEW030CB 20/12 Q1006 NOSIG RMK CB TO N NE,0,16,0,10000,0,0,0,
2026-03-22 11:00:00,METAR LCLK 221100Z 20013KT 9999 FEW020 FEW025TCU FEW030CB 19/12 Q1006 NOSIG RMK CB TO N NE,0,13,0,10000,0,0,0,
2026-03-22 10:30:00,METAR LCLK 221030Z 20012KT 9999 FEW020 FEW025TCU FEW030CB 18/12 Q1006 NOSIG RMK CB TO NE,0,12,0,10000,0,0,0,
2026-03-22 09:30:00,METAR LCLK 220930Z 22010KT 180V250 9999 FEW020 FEW025TCU FEW030CB 18/12 Q1007 NOSIG RMK CB TO NE,0,10,0,10000,0,0,0,
2026-03-22 09:00:00,METAR LCLK 220900Z 21013KT 9999 FEW020 FEW025TCU FEW030CB 18/12 Q1007 NOSIG RMK CB TO NE,0,13,0,10000,0,0,0,
2026-03-22 08:30:00,METAR LCLK 220830Z 21013KT 9999 FEW020 FEW025TCU FEW030CB 18/12 Q1007 NOSIG RMK CB TO SE,0,13,0,10000,0,0,0,
2026-03-22 08:00:00,METAR LCLK 220800Z 19012KT 9999 FEW020 FEW025TCU FEW030CB 18/12 Q1007 NOSIG RMK CB TO SE,0,12,0,10000,0,0,0,
2026-03-22 07:30:00,METAR LCLK 220730Z 21011KT 170V240 9999 FEW022TCU FEW030CB 19/13 Q1007 NOSIG RMK CB TO SE,0,11,0,10000,0,0,0,
2026-03-22 07:00:00,METAR LCLK 220700Z 22009KT 180V240 9999 FEW022TCU FEW030CB 18/12 Q1006 NOSIG RMK CB TO SE,0,9,0,10000,0,0,0,
2026-03-22 06:30:00,METAR LCLK 220630Z 22006KT 180V250 9999 FEW022TCU FEW030CB 16/12 Q1006 NOSIG RMK CB TO SE,0,6,0,10000,0,0,0,
2026-03-22 06:00:00,METAR LCLK 220600Z 27002KT 9999 FEW022TCU FEW030CB 13/11 Q1006 NOSIG,0,2,0,10000,0,0,0,
2026-03-22 05:30:00,METAR LCLK 220530Z 34004KT 9999 FEW018 FEW030CB BKN060 12/09 Q1006 NOSIG,0,4,0,10000,0,0,0,
2026-03-22 05:00:00,METAR LCLK 220500Z VRB02KT 9999 FEW018 FEW030CB SCT060 10/09 Q1006 NOSIG,0,2,0,10000,0,0,0,
2026-03-22 04:30:00,METAR LCLK 220430Z 32002KT 9999 FEW018 FEW030CB FEW035TCU SCT070 09/08 Q1005 NOSIG,0,2,0,10000,0,0,0,
2026-03-22 03:30:00,METAR LCLK 220330Z VRB02KT 9999 FEW018 FEW030CB FEW035TCU SCT070 09/08 Q1005 NOSIG,0,2,0,10000,0,0,0,
2026-03-22 03:00:00,METAR LCLK 220300Z 26002KT 9999 FEW030TCU SCT070 09/08 Q1005 NOSIG,0,2,0,10000,0,0,0,
2026-03-22 02:30:00,METAR LCLK 220230Z VRB01KT 9999 FEW030 09/08 Q1004 NOSIG,0,1,0,10000,0,0,0,
2026-03-22 02:00:00,METAR LCLK 220200Z 28002KT 9999 FEW030 10/08 Q1005 NOSIG,0,2,0,10000,0,0,0,
2026-03-22 01:30:00,METAR LCLK 220130Z 24006KT 9999 FEW030 11/09 Q1004 NOSIG,0,6,0,10000,0,0,0,
2026-03-22 01:00:00,METAR LCLK 220100Z 21005KT 9999 FEW030 SCT070 10/08 Q1004 NOSIG,0,5,0,10000,0,0,0,
2026-03-22 00:30:00,METAR LCLK 220030Z 21006KT 9999 FEW030 SCT060 12/09 Q1004 NOSIG,0,6,0,10000,0,0,0,
2026-03-22 00:00:00,METAR LCLK 220000Z 23006KT 9999 FEW030 SCT060 12/09 Q1004 NOSIG,0,6,0,10000,0,0,0,
2026-03-21 23:30:00,METAR LCLK 212330Z 26004KT 9999 FEW030 SCT060 12/09 Q1004 NOSIG,0,4,0,10000,0,0,0,
2026-03-21 23:00:00,METAR LCLK 212300Z 23007KT 9999 SCT060 13/09 Q1004 NOSIG,0,7,0,10000,0,0,0,
2026-03-21 22:30:00,METAR LCLK 212230Z 22007KT 9999 FEW030 SCT060 13/09 Q1004 NOSIG,0,7,0,10000,0,0,0,
2026-03-21 22:00:00,METAR LCLK 212200Z 22007KT 9999 FEW030 BKN060 12/10 Q1004 NOSIG,0,7,0,10000,0,0,0,
2026-03-21 21:30:00,METAR LCLK 212130Z 22007KT 9999 FEW030 SCT060 13/09 Q1004 NOSIG,0,7,0,10000,0,0,0,
2026-03-21 21:00:00,METAR LCLK 212100Z 23008KT 9999 FEW030 SCT060 12/10 Q1004 NOSIG,0,8,0,10000,0,0,0,
2026-03-21 20:30:00,METAR LCLK 212030Z 21006KT 9999 FEW030TCU 11/09 Q1004 NOSIG,0,6,0,10000,0,0,0,
2026-03-21 20:00:00,METAR LCLK 212000Z 22006KT 9999 FEW030TCU 12/10 Q1004 NOSIG,0,6,0,10000,0,0,0,
2026-03-21 19:30:00,METAR LCLK 211930Z 23007KT 9999 FEW030CB 13/10 Q1003 NOSIG RMK CB TO E,0,7,0,10000,0,0,0,
2026-03-21 19:00:00,METAR LCLK 211900Z 22006KT 9999 FEW030 14/10 Q1003 NOSIG,0,6,0,10000,0,0,0,
2026-03-21 18:30:00,METAR LCLK 211830Z 24008KT 9999 FEW060 13/10 Q1003 NOSIG,0,8,0,10000,0,0,0,
2026-03-21 18:00:00,METAR LCLK 211800Z 24005KT 9999 SCT060 13/10 Q1003 NOSIG,0,5,0,10000,0,0,0,
2026-03-21 17:30:00,METAR LCLK 211730Z 25008KT 9999 FEW050 14/10 Q1003 NOSIG,0,8,0,10000,0,0,0,
2026-03-21 17:00:00,METAR LCLK 211700Z 23007KT 9999 FEW025 14/11 Q1003 NOSIG,0,7,0,10000,0,0,0,
2026-03-21 16:30:00,METAR LCLK 211630Z 23007KT 9999 FEW025 15/11 Q1002 NOSIG,0,7,0,10000,0,0,0,
2026-03-21 16:00:00,METAR LCLK 211600Z 23010KT 9999 FEW025 15/11 Q1002 NOSIG,0,10,0,10000,0,0,0,
2026-03-21 15:30:00,METAR LCLK 211530Z 22010KT 9999 FEW025 FEW030CB 16/11 Q1002 NOSIG,0,10,0,10000,0,0,0,
2026-03-21 15:00:00,METAR LCLK 211500Z 23011KT 9999 FEW025 16/11 Q1002 NOSIG,0,11,0,10000,0,0,0,
2026-03-21 14:30:00,METAR LCLK 211430Z 24015KT 9999 FEW025 17/10 Q1001 NOSIG,0,15,0,10000,0,0,0,
2026-03-21 14:00:00,METAR LCLK 211400Z 25013KT 9999 FEW025 FEW030TCU SCT035 17/11 Q1001 NOSIG,0,13,0,10000,0,0,0,
2026-03-21 13:30:00,METAR LCLK 211330Z 24018KT 9999 SCT025 SCT030 16/12 Q1001 NOSIG,0,18,0,10000,0,0,0,
2026-03-21 13:00:00,METAR LCLK 211300Z 23017KT 9999 FEW020 18/12 Q1000 NOSIG,0,17,0,10000,0,0,0,
2026-03-21 12:30:00,METAR LCLK 211230Z 22020KT 7000 -SHRA FEW020 SCT060 18/11 Q1000 NOSIG,0,20,0,7000,0,0,0,RA
2026-03-21 12:00:00,METAR LCLK 211200Z 22018KT 9999 FEW020 SCT060 19/13 Q1000 NOSIG,0,18,0,10000,0,0,0,
2026-03-21 11:30:00,METAR LCLK 211130Z 22016KT 9999 FEW020 SCT060 18/13 Q1000 NOSIG,0,16,0,10000,0,0,0,
2026-03-21 11:00:00,METAR LCLK 211100Z 22014KT 9999 FEW020 FEW030TCU SCT060 16/12 Q1000 NOSIG,0,14,0,10000,0,0,0,
2026-03-21 10:30:00,METAR LCLK 211030Z 22012KT 9999 FEW020 FEW030TCU SCT060 16/12 Q1001 NOSIG,0,12,0,10000,0,0,0,
2026-03-21 10:00:00,METAR LCLK 211000Z 22014KT 9999 FEW020 FEW025CB FEW030TCU SCT060 17/12 Q1001 NOSIG,0,14,0,10000,0,0,0,
2026-03-21 09:30:00,METAR LCLK 210930Z 23011KT 9999 FEW020 FEW025CB FEW030TCU SCT060 17/13 Q1001 NOSIG,0,11,0,10000,0,0,0,
2026-03-21 09:00:00,METAR LCLK 210900Z 22011KT 9999 FEW013 FEW025CB SCT040 BKN050 16/13 Q1001 TEMPO 3000 TSRA SCT025CB,0,11,0,10000,1,0,0,"RA,TS"
2026-03-21 08:30:00,METAR LCLK 210830Z 21009KT 9999 FEW013 FEW025CB SCT040 BKN050 15/13 Q1000 TEMPO 3000 TSRA SCT025CB,0,9,0,10000,1,0,0,"RA,TS"
2026-03-21 08:00:00,METAR LCLK 210800Z 22005KT 9999 FEW013 FEW025CB SCT040 BKN050 15/13 Q1000 TEMPO 3000 TSRA SCT025CB,0,5,0,10000,1,0,0,"RA,TS"
2026-03-21 07:30:00,METAR LCLK 210730Z 21009KT 8000 -SHRA FEW013 FEW025CB SCT040 BKN050 14/13 Q1000 TEMPO 3000 TSRA SCT025CB,0,9,0,8000,1,0,0,"RA,TS"
2026-03-21 07:00:00,METAR LCLK 210700Z 24005KT 210V270 9999 FEW013 FEW025TCU SCT040 15/13 Q1000 NOSIG,0,5,0,10000,0,0,0,
2026-03-21 06:30:00,METAR LCLK 210630Z 20006KT 9999 FEW013 FEW025TCU SCT040 14/13 Q0999 NOSIG,0,6,0,10000,0,0,0,
2026-03-21 06:00:00,METAR LCLK 210600Z 22010KT 9999 -RA FEW013 FEW025TCU SCT040 14/13 Q0999 NOSIG,0,10,0,10000,0,0,0,-RA
2026-03-21 05:30:00,METAR LCLK 210530Z 22009KT 9999 -RA FEW013 FEW025TCU SCT040 13/12 Q0999 NOSIG,0,9,0,10000,0,0,0,-RA
2026-03-21 05:00:00,METAR LCLK 210500Z 26005KT 9999 -RA FEW013 FEW025TCU SCT040 13/12 Q0999 NOSIG,0,5,0,10000,0,0,0,-RA
2026-03-21 04:30:00,METAR LCLK 210430Z 23004KT 9999 -RA FEW013 FEW025TCU SCT040 12/12 Q0999 NOSIG,0,4,0,10000,0,0,0,-RA
2026-03-21 04:00:00,METAR LCLK 210400Z 25005KT 230V300 9999 -RA FEW013 FEW025TCU SCT040 12/11 Q0998 NOSIG,0,5,0,10000,0,0,0,-RA
2026-03-21 03:30:00,METAR LCLK 210330Z VRB03KT 9999 FEW020TCU SCT040 11/11 Q0998 NOSIG,0,3,0,10000,0,0,0,
2026-03-21 03:00:00,METAR LCLK 210300Z 29004KT 9999 FEW020TCU SCT040 11/11 Q0998 TEMPO 5000 TSRA,0,4,0,10000,1,0,0,"RA,TS"
2026-03-21 02:30:00,METAR LCLK 210230Z 32004KT 9999 FEW020TCU SCT040 12/11 Q0998 TEMPO 5000 TSRA,0,4,0,10000,1,0,0,"RA,TS"
2026-03-21 02:00:00,METAR LCLK 210200Z 25007KT 9999 FEW020TCU SCT040 13/11 Q0998 TEMPO 5000 TSRA,0,7,0,10000,1,0,0,"RA,TS"
2026-03-21 01:30:00,METAR LCLK 210130Z 21013KT 8000 FEW020TCU SCT040 13/12 Q0997 TEMPO 5000 TSRA,0,13,0,8000,1,0,0,"RA,TS"
2026-03-21 01:00:00,METAR LCLK 210100Z 23011KT 9999 -RA FEW025TCU SCT040 13/12 Q0997 TEMPO 5000 TSRA,0,11,0,10000,1,0,0,"-RA,RA,TS"
2026-03-21 00:30:00,METAR LCLK 210030Z 23010KT 9999 -RA FEW025TCU SCT040 13/12 Q0998 TEMPO 5000 TSRA,0,10,0,10000,1,0,0,"-RA,RA,TS"
2026-03-21 00:00:00,METAR LCLK 210000Z 23010KT 9999 -RA FEW025TCU 13/12 Q0998 TEMPO 5000 TSRA,0,10,0,10000,1,0,0,"-RA,RA,TS"
2026-03-20 23:30:00,METAR LCLK 202330Z 22013KT 9999 FEW013 FEW025TCU SCT040 13/11 Q0998 RERA TEMPO 3000 TSRA,0,13,0,10000,1,0,0,"RA,TS"
2026-03-20 23:00:00,METAR LCLK 202300Z 22018KT 5000 SHRA FEW013 FEW025TCU SCT030 BKN040 13/12 Q0998 TEMPO 3000 TSRA,0,18,0,5000,1,0,0,"RA,SH,TS"
2026-03-20 22:30:00,METAR LCLK 202230Z 25010KT 6000 SHRA FEW013 FEW025TCU BKN040 14/11 Q0998 TEMPO 5000 TSRA,0,10,0,6000,1,0,0,"RA,SH,TS"
2026-03-20 21:30:00,METAR LCLK 202130Z 24013KT 9999 FEW013 FEW025TCU SCT040 13/12 Q0998 RERA TEMPO 5000 TSRA,0,13,0,10000,1,0,0,"RA,TS"
2026-03-20 21:00:00,METAR LCLK 202100Z 22016KT 8000 -SHRA FEW013 FEW025TCU SCT050 14/11 Q0998 RERA TEMPO 5000 TSRA,0,16,0,8000,1,0,0,"RA,TS"
2026-03-20 20:30:00,METAR LCLK 202030Z 20017KT 5000 -SHRA FEW015 FEW020TCU SCT030 BKN050 13/12 Q0998 BECMG 9999,0,17,0,5000,0,0,0,RA
2026-03-20 20:00:00,METAR LCLK 202000Z 22016G27KT 5000 -SHRA FEW015 FEW020TCU SCT030 BKN050 14/12 Q0998 RERA TEMPO 8000,0,16,1,5000,0,0,0,RA
2026-03-20 19:30:00,METAR LCLK 201930Z 24025G35KT 5000 SHRA FEW015 FEW020CB SCT030 BKN050 14/11 Q0999 TEMPO 3000 SHRA RMK CB TO E,0,25,1,5000,0,0,0,"RA,SH"
2026-03-20 19:00:00,METAR LCLK 201900Z 22022G32KT 8000 FEW015 FEW020CB SCT050 15/12 Q0998 NOSIG RMK CB TO E,0,22,1,8000,0,0,0,
2026-03-20 18:30:00,METAR LCLK 201830Z 22022G36KT 9999 FEW015 FEW020CB 15/12 Q0998 RETS NOSIG RMK CB TO E,0,22,1,10000,1,0,0,TS
2026-03-20 18:00:00,METAR LCLK 201800Z 22009KT 190V250 8000 -TSRA FEW015 FEW020CB FEW025TCU SCT030 BKN040 14/13 Q0999 RERA NOSIG RMK CB TO NE-SE-S,0,9,0,8000,1,0,0,RA
2026-03-20 17:30:00,METAR LCLK 201730Z 22006KT 190V250 9999 TS FEW020CB FEW025TCU SCT050 13/12 Q0998 TEMPO 5000 TSRA RMK CB TO NE-SE-S,0,6,0,10000,1,0,0,"RA,TS"
2026-03-20 17:00:00,METAR LCLK 201700Z 20008KT 9999 TS FEW020CB FEW025TCU SCT050 14/12 Q0999 NOSIG RMK CB TO SE-S,0,8,0,10000,1,0,0,TS
2026-03-20 16:30:00,METAR LCLK 201630Z 20005KT 9999 TS FEW020CB SCT050 13/12 Q0999 NOSIG RMK CB TO SE,0,5,0,10000,1,0,0,TS
2026-03-20 15:30:00,METAR LCLK 201530Z 26008KT 9999 TS FEW014 FEW018CB SCT045 14/11 Q1000 NOSIG RMK CB TO SW NE,0,8,0,10000,1,0,0,TS
2026-03-20 15:00:00,METAR LCLK 201500Z 26011KT 8000 -SHRA FEW014 FEW018CB SCT023 13/11 Q1000 RETSRA NOSIG RMK CB TO W-N,0,11,0,8000,1,0,0,RA
2026-03-20 14:30:00,METAR LCLK 201430Z 25016KT 7000 TSRA FEW010 SCT023 FEW030CB BKN036 15/11 Q1000 TEMPO 5000 TSRA FEW020CB RMK CB TO W-N,0,16,0,7000,1,0,0,"RA,TS"
2026-03-20 14:00:00,METAR LCLK 201400Z 19021KT 9999 VCSH FEW010 BKN023 FEW030CB 19/14 Q1000 TEMPO 5000 TSRA FEW020CB RMK CB TO W NW,0,21,0,10000,1,0,0,"RA,SH,TS,VC"
2026-03-20 13:30:00,METAR LCLK 201330Z 20019KT 9999 FEW010 SCT020 FEW030CB 20/15 Q1000 NOSIG RMK CB TO W NW,0,19,0,10000,0,0,0,
2026-03-20 12:30:00,METAR LCLK 201230Z 21020KT 9999 SCT018 FEW030CB SCT040 20/15 Q1000 NOSIG RMK CB TO NW NE,0,20,0,10000,0,0,0,
2026-03-20 12:00:00,METAR LCLK 201200Z 21015KT 9999 SCT018 FEW030CB SCT050 20/15 Q1000 NOSIG RMK CB TO NW NE,0,15,0,10000,0,0,0,
2026-03-20 11:30:00,METAR LCLK 201130Z 21017KT 9999 SCT025 FEW030CB SCT060 20/15 Q1001 NOSIG RMK CB TO NW NE,0,17,0,10000,0,0,0,
2026-03-20 11:00:00,METAR LCLK 201100Z 23018KT 200V260 9999 FEW007 SCT025 FEW030CB 19/13 Q1001 NOSIG RMK CB TO NW NE,0,18,0,10000,0,0,0,
2026-03-20 10:30:00,METAR LCLK 201030Z 21019KT 9999 SCT025 FEW030CB FEW035TCU 19/14 Q1001 NOSIG RMK CB TO NE SE W,0,19,0,10000,0,0,0,
2026-03-20 10:00:00,METAR LCLK 201000Z 22020KT 9999 FEW025 FEW030CB FEW035TCU 21/14 Q1001 NOSIG RMK CB TO N SE,0,20,0,10000,0,0,0,
2026-03-20 09:30:00,METAR LCLK 200930Z 22022KT 9999 FEW030 FEW035TCU 21/14 Q1001 NOSIG,0,22,0,10000,0,0,0,
2026-03-20 09:00:00,METAR LCLK 200900Z 22021KT 9999 FEW030 FEW035TCU 20/14 Q1001 NOSIG,0,21,0,10000,0,0,0,
2026-03-20 08:30:00,METAR LCLK 200830Z 21018KT 9999 FEW030 FEW035TCU 20/14 Q1001 NOSIG,0,18,0,10000,0,0,0,
2026-03-20 08:00:00,METAR LCLK 200800Z 23019KT 200V260 9999 FEW030 FEW035TCU SCT060 20/12 Q1001 NOSIG,0,19,0,10000,0,0,0,
2026-03-20 07:30:00,METAR LCLK 200730Z 22016KT 9999 FEW020 FEW030TCU 20/13 Q1001 NOSIG,0,16,0,10000,0,0,0,
2026-03-20 06:30:00,METAR LCLK 200630Z 22013KT 9999 FEW020 FEW035TCU 18/13 Q1001 NOSIG,0,13,0,10000,0,0,0,
2026-03-20 06:00:00,METAR LCLK 200600Z 22013KT 9999 FEW020 FEW035TCU SCT060 17/14 Q1001 NOSIG,0,13,0,10000,0,0,0,
2026-03-20 05:30:00,METAR LCLK 200530Z 22014KT 9999 FEW020 FEW035TCU SCT060 15/13 Q1001 NOSIG,0,14,0,10000,0,0,0,
2026-03-20 05:00:00,METAR LCLK 200500Z 22014KT 9999 FEW020 BKN060 15/13 Q1001 NOSIG,0,14,0,10000,0,0,0,
2026-03-20 04:30:00,METAR LCLK 200430Z 26005KT 210V280 9999 FEW020 SCT060 13/12 Q1000 NOSIG,0,5,0,10000,0,0,0,
2026-03-20 04:00:00,METAR LCLK 200400Z 25005KT 9999 FEW020 12/11 Q1000 NOSIG,0,5,0,10000,0,0,0,
2026-03-20 03:30:00,METAR LCLK 200330Z 00000KT 9999 FEW020 SCT060 12/11 Q1001 NOSIG,0,0,0,10000,0,0,0,
2026-03-20 03:00:00,METAR LCLK 200300Z 29003KT 9999 FEW020 12/11 Q1001 NOSIG,0,3,0,10000,0,0,0,
2026-03-20 02:30:00,METAR LCLK 200230Z 29003KT 260V320 9999 FEW020 13/11 Q1000 NOSIG,0,3,0,10000,0,0,0,
2026-03-20 02:00:00,METAR LCLK 200200Z 27005KT 240V320 9999 FEW020 14/12 Q1000 NOSIG,0,5,0,10000,0,0,0,
2026-03-20 01:30:00,METAR LCLK 200130Z 23003KT 9999 FEW018 13/12 Q1000 NOSIG,0,3,0,10000,0,0,0,
2026-03-20 01:00:00,METAR LCLK 200100Z 25002KT 9999 FEW018 14/13 Q1000 NOSIG,0,2,0,10000,0,0,0,
2026-03-20 00:30:00,METAR LCLK 200030Z 20004KT 160V240 9999 FEW018 14/13 Q1000 NOSIG,0,4,0,10000,0,0,0,
2026-03-20 00:00:00,METAR LCLK 200000Z 00000KT 9999 FEW018 SCT040 14/13 Q1001 NOSIG,0,0,0,10000,0,0,0,
2026-03-19 23:30:00,METAR LCLK 192330Z 28004KT 220V330 9999 FEW020 SCT040 15/13 Q1001 NOSIG,0,4,0,10000,0,0,0,
2026-03-19 23:00:00,METAR LCLK 192300Z 33004KT 9999 -SHRA FEW023 SCT060 15/13 Q1001 NOSIG,0,4,0,10000,0,0,0,RA
2026-03-19 22:30:00,METAR LCLK 192230Z 28004KT 9999 FEW023 15/13 Q1001 NOSIG,0,4,0,10000,0,0,0,
2026-03-19 22:00:00,METAR LCLK 192200Z 28004KT 9999 FEW023 SCT045 15/13 Q1001 NOSIG,0,4,0,10000,0,0,0,
2026-03-19 21:30:00,METAR LCLK 192130Z 31007KT 9999 FEW023 SCT060 15/13 Q1001 NOSIG,0,7,0,10000,0,0,0,
2026-03-19 21:00:00,METAR LCLK 192100Z 27006KT 220V300 9999 FEW023 SCT060 15/13 Q1001 NOSIG,0,6,0,10000,0,0,0,
2026-03-19 20:30:00,METAR LCLK 192030Z 32008KT 9999 FEW023 SCT050 15/13 Q1001 NOSIG,0,8,0,10000,0,0,0,
2026-03-19 20:00:00,METAR LCLK 192000Z 30008KT 9999 FEW023 BKN050 16/13 Q1001 NOSIG,0,8,0,10000,0,0,0,
2026-03-19 19:30:00,METAR LCLK 191930Z 30004KT 260V340 9999 SCT023 FEW025CB BKN042 16/13 Q1001 RETS NOSIG RMK LIGHTNING TO SE,0,4,0,10000,1,0,0,TS
2026-03-19 19:00:00,METAR LCLK 191900Z 26006KT 230V290 9999 VCTS SCT023 FEW025CB BKN042 16/13 Q1001 NOSIG,0,6,0,10000,1,0,0,"TS,VC"
2026-03-19 18:30:00,METAR LCLK 191830Z 25005KT 9999 FEW023 FEW025CB SCT031 15/13 Q1001 NOSIG RMK LIGHTNING TO S,0,5,0,10000,0,0,0,
2026-03-19 18:00:00,METAR LCLK 191800Z 27004KT 9999 FEW025 FEW025CB SCT031 15/13 Q1001 NOSIG RMK LIGHTNING TO S,0,4,0,10000,0,0,0,
2026-03-19 17:30:00,METAR LCLK 191730Z 24006KT 200V270 9999 FEW020 FEW025CB SCT037 16/13 Q1001 NOSIG,0,6,0,10000,0,0,0,
2026-03-19 17:00:00,METAR LCLK 191700Z 21004KT 9999 FEW020 SCT045 15/14 Q1000 NOSIG,0,4,0,10000,0,0,0,
2026-03-19 16:30:00,METAR LCLK 191630Z 21004KT 9999 FEW020 SCT045 16/14 Q1000 NOSIG,0,4,0,10000,0,0,0,
2026-03-19 16:00:00,METAR LCLK 191600Z 25004KT 9999 FEW020 SCT050 16/14 Q1000 NOSIG,0,4,0,10000,0,0,0,
2026-03-19 15:30:00,METAR LCLK 191530Z VRB03KT 9999 FEW020 FEW030CB SCT050 17/15 Q1000 RETS NOSIG RMK CB TO N,0,3,0,10000,1,0,0,TS
2026-03-19 15:00:00,METAR LCLK 191500Z 20007KT 9999 TS FEW020 FEW030CB BKN050 17/15 Q1000 NOSIG RMK CB TO N,0,7,0,10000,1,0,0,TS
2026-03-19 14:30:00,METAR LCLK 191430Z 19006KT 9999 TS FEW020 FEW030CB BKN050 17/15 Q1000 NOSIG RMK CB TO N,0,6,0,10000,1,0,0,TS
2026-03-19 14:00:00,METAR LCLK 191400Z 18006KT 160V220 9999 -SHRA FEW020 FEW030CB SCT050 17/15 Q1000 NOSIG,0,6,0,10000,0,0,0,RA
2026-03-19 13:30:00,METAR LCLK 191330Z VRB03KT 9999 FEW020 FEW030CB SCT050 17/15 Q1000 NOSIG,0,3,0,10000,0,0,0,
2026-03-19 13:00:00,METAR LCLK 191300Z 10004KT 9999 FEW020 FEW030CB SCT050 17/16 Q0999 NOSIG,0,4,0,10000,0,0,0,
2026-03-19 12:30:00,METAR LCLK 191230Z 00000KT 9999 FEW020 SCT050 17/15 Q0999 NOSIG,0,0,0,10000,0,0,0,
2026-03-19 12:00:00,METAR LCLK 191200Z 00000KT 9999 FEW020 SCT050 16/15 Q0999 NOSIG,0,0,0,10000,0,0,0,
2026-03-19 11:30:00,METAR LCLK 191130Z VRB02KT 9999 SCT016 FEW030CB SCT050 16/15 Q0999 NOSIG,0,2,0,10000,0,0,0,
2026-03-19 11:00:00,METAR LCLK 191100Z VRB02KT 9999 -SHRA FEW010 SCT016 FEW030CB 16/15 Q0999 NOSIG,0,2,0,10000,0,0,0,RA
2026-03-19 10:30:00,METAR LCLK 191030Z 27005KT 9999 FEW009 SCT016 FEW030CB 16/15 Q1000 NOSIG,0,5,0,10000,0,0,0,
2026-03-19 10:00:00,METAR LCLK 191000Z 08005KT 9999 FEW009 SCT018 FEW030CB 16/15 Q0999 TEMPO 3000 SCT025CB,0,5,0,10000,0,0,0,
2026-03-19 09:30:00,METAR LCLK 190930Z 07012KT 9999 FEW009 FEW030CB SCT050 16/15 Q0999 TEMPO 3000 SCT025CB,0,12,0,10000,0,0,0,
2026-03-19 09:00:00,METAR LCLK 190900Z 06007KT 9999 -RA FEW025 FEW030CB SCT050 16/15 Q1000 RETS TEMPO 3000 SCT025CB,0,7,0,10000,1,0,0,"-RA,TS"
2026-03-19 08:30:00,METAR LCLK 190830Z 03007KT 9999 -TSRA FEW025 FEW030CB SCT050 16/15 Q1000 TEMPO 3000 SCT025CB,0,7,0,10000,1,0,0,RA
2026-03-19 08:00:00,METAR LCLK 190800Z 36006KT 9000 -TSRA FEW025 FEW030CB SCT050 16/15 Q1000 TEMPO 3000 SCT025CB,0,6,0,9000,1,0,0,RA
2026-03-19 07:30:00,METAR LCLK 190730Z 34008KT 9999 -TSRA FEW025 FEW035CB SCT050 16/14 Q1000 TEMPO 3000 NSW SCT025CB,0,8,0,10000,1,0,0,RA
2026-03-19 07:00:00,METAR LCLK 190700Z 35006KT 9999 TS FEW025 FEW035CB SCT040 16/14 Q1000 TEMPO 3000 NSW SCT025CB,0,6,0,10000,1,0,0,TS
2026-03-19 06:30:00,METAR LCLK 190630Z 32009KT 9999 TS FEW025 FEW035CB SCT040 16/14 Q0999 TEMPO 3000 NSW SCT025CB,0,9,0,10000,1,0,0,TS
2026-03-19 06:00:00,METAR LCLK 190600Z 35005KT 9999 FEW025 SCT040 16/14 Q0999 TEMPO 3000 NSW SCT025CB,0,5,0,10000,0,0,0,
2026-03-19 05:30:00,METAR LCLK 190530Z 35008KT 9999 FEW025 SCT040 15/14 Q0999 NOSIG,0,8,0,10000,0,0,0,
2026-03-19 05:00:00,METAR LCLK 190500Z 36009KT 9999 FEW025 SCT060 15/14 Q0999 NOSIG,0,9,0,10000,0,0,0,
2026-03-19 04:30:00,METAR LCLK 190430Z 35006KT 9999 FEW020TCU SCT060 15/14 Q0999 NOSIG,0,6,0,10000,0,0,0,
2026-03-19 04:00:00,METAR LCLK 190400Z 35007KT 9999 FEW020TCU SCT050 15/13 Q0999 NOSIG,0,7,0,10000,0,0,0,
2026-03-19 03:30:00,METAR LCLK 190330Z 36010KT 9999 FEW020CB BKN060 15/14 Q0999 RETS NOSIG,0,10,0,10000,1,0,0,TS
2026-03-19 03:00:00,METAR LCLK 190300Z 36009KT 9999 TS FEW020CB BKN050 16/14 Q0999 TEMPO 4000 TSRA SCT020CB,0,9,0,10000,1,0,0,"RA,TS"
2026-03-19 02:30:00,METAR LCLK 190230Z 03012KT 8000 -TSRA FEW020CB BKN050 16/14 Q1000 RERA TEMPO 4000 TSRA SCT020CB,0,12,0,8000,1,0,0,"RA,TS"
2026-03-19 02:00:00,METAR LCLK 190200Z 04011KT 7000 TSRA FEW020CB BKN050 16/14 Q1000 TEMPO 4000 TSRA SCT020CB,0,11,0,7000,1,0,0,"RA,TS"
2026-03-19 01:30:00,METAR LCLK 190130Z 02016KT 9999 TS FEW020CB SCT060 16/14 Q0999 TEMPO 4000 TSRA SCT020CB,0,16,0,10000,1,0,0,"RA,TS"
2026-03-19 01:00:00,METAR LCLK 190100Z 02016KT 9999 TS FEW020CB SCT060 16/14 Q0999 TEMPO 5000 TSRA SCT020CB,0,16,0,10000,1,0,0,"RA,TS"
2026-03-19 00:30:00,METAR LCLK 190030Z 03013KT 9999 SCT050 16/15 Q1000 RETS NOSIG,0,13,0,10000,1,0,0,TS
2026-03-19 00:00:00,METAR LCLK 190000Z 02017KT 9000 -TSRA FEW030CB SCT050 16/15 Q0999 RERA NOSIG,0,17,0,9000,1,0,0,RA
2026-03-18 23:30:00,METAR LCLK 182330Z VRB03KT 6000 TSRA FEW030CB BKN050 16/15 Q1001 TEMPO 5000 SHRA,0,3,0,6000,1,0,0,"RA,SH,TS"
2026-03-18 23:00:00,METAR LCLK 182300Z 19009KT 6000 -RA SCT050 17/16 Q1002 RERA TEMPO 5000 SHRA,0,9,0,6000,0,0,0,"-RA,RA,SH"
2026-03-18 22:30:00,METAR LCLK 182230Z 09008KT 060V120 7000 -RA SCT060 17/15 Q1002 TEMPO 5000 SHRA,0,8,0,7000,0,0,0,"-RA,RA,SH"
2026-03-18 22:00:00,METAR LCLK 182200Z 04011KT 8000 -RA SCT060 18/16 Q1001 TEMPO 5000 SHRA,0,11,0,8000,0,0,0,"-RA,RA,SH"
2026-03-18 21:30:00,METAR LCLK 182130Z 08014KT 8000 -SHRA SCT060 19/16 Q1001 NOSIG,0,14,0,8000,0,0,0,RA
2026-03-18 21:00:00,METAR LCLK 182100Z 07013KT 8000 -SHRA SCT060 19/17 Q1001 NOSIG,0,13,0,8000,0,0,0,RA
2026-03-18 20:30:00,METAR LCLK 182030Z 03013KT 8000 -SHRA NSC 20/16 Q1001 NOSIG,0,13,0,8000,0,0,0,RA
2026-03-18 20:00:00,METAR LCLK 182000Z 03014KT 8000 NSC 20/16 Q1002 NOSIG,0,14,0,8000,0,0,0,
2026-03-18 19:30:00,METAR LCLK 181930Z 04015KT 8000 NSC 20/15 Q1002 NOSIG,0,15,0,8000,0,0,0,
2026-03-18 19:00:00,METAR LCLK 181900Z 04010KT 8000 -SHRA NSC 20/15 Q1003 NOSIG,0,10,0,8000,0,0,0,RA
2026-03-18 18:30:00,METAR LCLK 181830Z 03015KT 8000 NSC 20/15 Q1002 NOSIG,0,15,0,8000,0,0,0,
2026-03-18 18:00:00,METAR LCLK 181800Z 01011KT 350V060 8000 NSC 20/15 Q1002 NOSIG,0,11,0,8000,0,0,0,
2026-03-18 17:30:00,METAR LCLK 181730Z 36012KT 8000 NSC 20/15 Q1002 NOSIG,0,12,0,8000,0,0,0,
2026-03-18 17:00:00,METAR LCLK 181700Z 01014KT 8000 NSC 19/15 Q1002 NOSIG,0,14,0,8000,0,0,0,
2026-03-18 16:30:00,METAR LCLK 181630Z 01014KT 8000 NSC 20/15 Q1002 NOSIG,0,14,0,8000,0,0,0,
2026-03-18 16:00:00,METAR LCLK 181600Z 01012KT 8000 NSC 19/15 Q1003 NOSIG,0,12,0,8000,0,0,0,
2026-03-18 15:30:00,METAR LCLK 181530Z 06011KT 030V090 8000 -SHRA NSC 20/16 Q1005 NOSIG,0,11,0,8000,0,0,0,RA
2026-03-18 15:00:00,METAR LCLK 181500Z 06014KT 8000 NSC 20/15 Q1005 NOSIG,0,14,0,8000,0,0,0,
2026-03-18 14:30:00,METAR LCLK 181430Z 04021KT 8000 NSC 20/15 Q1003 NOSIG,0,21,0,8000,0,0,0,
2026-03-18 14:00:00,METAR LCLK 181400Z 05022KT 8000 NSC 20/15 Q1004 NOSIG,0,22,0,8000,0,0,0,
2026-03-18 13:30:00,METAR LCLK 181330Z 05022KT 8000 NSC 20/14 Q1004 NOSIG,0,22,0,8000,0,0,0,
2026-03-18 13:00:00,METAR LCLK 181300Z 04019KT 8000 NSC 21/14 Q1005 NOSIG,0,19,0,8000,0,0,0,
2026-03-18 12:30:00,METAR LCLK 181230Z 04017KT 8000 NSC 21/14 Q1006 NOSIG,0,17,0,8000,0,0,0,
2026-03-18 12:00:00,METAR LCLK 181200Z 05020KT 7000 NSC 21/14 Q1005 NOSIG,0,20,0,7000,0,0,0,
2026-03-18 11:30:00,METAR LCLK 181130Z 04019KT 7000 NSC 21/14 Q1006 NOSIG,0,19,0,7000,0,0,0,
2026-03-18 11:00:00,METAR LCLK 181100Z 04016KT 9000 NSC 21/14 Q1006 NOSIG,0,16,0,9000,0,0,0,
2026-03-18 10:30:00,METAR LCLK 181030Z 04014KT 9000 NSC 21/14 Q1007 NOSIG,0,14,0,9000,0,0,0,
2026-03-18 10:00:00,METAR LCLK 181000Z 04015KT 9000 NSC 21/13 Q1008 NOSIG,0,15,0,9000,0,0,0,
2026-03-18 09:30:00,METAR LCLK 180930Z 04017KT 9000 NSC 22/14 Q1008 NOSIG,0,17,0,9000,0,0,0,
2026-03-18 09:00:00,METAR LCLK 180900Z 04017KT 9000 NSC 21/13 Q1008 NOSIG,0,17,0,9000,0,0,0,
2026-03-18 08:30:00,METAR LCLK 180830Z 04015KT 9000 NSC 21/14 Q1009 NOSIG,0,15,0,9000,0,0,0,
2026-03-18 08:00:00,METAR LCLK 180800Z 03017KT CAVOK 20/15 Q1009 NOSIG,1,0,0,9999,0,0,0,
2026-03-18 07:30:00,METAR LCLK 180730Z 04018KT CAVOK 20/15 Q1009 NOSIG,1,0,0,9999,0,0,0,
2026-03-18 07:00:00,METAR LCLK 180700Z 04016KT CAVOK 19/15 Q1009 NOSIG,1,0,0,9999,0,0,0,
2026-03-18 06:30:00,METAR LCLK 180630Z 03014KT CAVOK 18/15 Q1009 NOSIG,1,0,0,9999,0,0,0,
2026-03-18 06:00:00,METAR LCLK 180600Z 02014KT CAVOK 18/14 Q1009 NOSIG,1,0,0,9999,0,0,0,
2026-03-18 05:30:00,METAR LCLK 180530Z 02012KT CAVOK 17/14 Q1009 NOSIG,1,0,0,9999,0,0,0,
2026-03-18 05:00:00,METAR LCLK 180500Z 01011KT 9999 FEW025 16/14 Q1009 NOSIG,0,11,0,10000,0,0,0,
2026-03-18 04:30:00,METAR LCLK 180430Z 36009KT 9999 FEW025 15/14 Q1009 NOSIG,0,9,0,10000,0,0,0,
2026-03-18 04:00:00,METAR LCLK 180400Z 34011KT 320V020 9999 FEW025 14/14 Q1009 NOSIG,0,11,0,10000,0,0,0,
2026-03-18 03:30:00,METAR LCLK 180330Z 33006KT 9999 FEW025 14/14 Q1010 NOSIG,0,6,0,10000,0,0,0,
2026-03-18 03:00:00,METAR LCLK 180300Z 34006KT CAVOK 14/14 Q1010 NOSIG,1,0,0,9999,0,0,0,
2026-03-18 02:30:00,METAR LCLK 180230Z 33004KT CAVOK 14/13 Q1010 NOSIG,1,0,0,9999,0,0,0,
2026-03-18 02:00:00,METAR LCLK 180200Z 31006KT CAVOK 14/13 Q1010 NOSIG,1,0,0,9999,0,0,0,
2026-03-18 01:30:00,METAR LCLK 180130Z 33007KT CAVOK 13/12 Q1010 NOSIG,1,0,0,9999,0,0,0,
2026-03-18 01:00:00,METAR LCLK 180100Z 32006KT CAVOK 13/12 Q1010 NOSIG,1,0,0,9999,0,0,0,
2026-03-18 00:30:00,METAR LCLK 180030Z 35007KT CAVOK 13/11 Q1010 NOSIG,1,0,0,9999,0,0,0,
2026-03-18 00:00:00,METAR LCLK 180000Z 34007KT CAVOK 13/11 Q1010 NOSIG,1,0,0,9999,0,0,0,
2026-03-17 23:30:00,METAR LCLK 172330Z 33007KT CAVOK 13/11 Q1011 NOSIG,1,0,0,9999,0,0,0,
2026-03-17 23:00:00,METAR LCLK 172300Z 34007KT CAVOK 12/11 Q1011 NOSIG,1,0,0,9999,0,0,0,
2026-03-17 22:30:00,METAR LCLK 172230Z 34008KT CAVOK 12/10 Q1011 NOSIG,1,0,0,9999,0,0,0,
2026-03-17 22:00:00,METAR LCLK 172200Z 35007KT CAVOK 12/10 Q1012 NOSIG,1,0,0,9999,0,0,0,
2026-03-17 21:30:00,METAR LCLK 172130Z 32005KT CAVOK 12/10 Q1012 NOSIG,1,0,0,9999,0,0,0,
2026-03-17 21:00:00,METAR LCLK 172100Z 34006KT CAVOK 12/10 Q1012 NOSIG,1,0,0,9999,0,0,0,
2026-03-17 20:30:00,METAR LCLK 172030Z 35005KT CAVOK 12/10 Q1012 NOSIG,1,0,0,9999,0,0,0,
2026-03-17 20:00:00,METAR LCLK 172000Z 36007KT CAVOK 12/10 Q1012 NOSIG,1,0,0,9999,0,0,0,
2026-03-17 19:30:00,METAR LCLK 171930Z 35005KT CAVOK 12/10 Q1012 NOSIG,1,0,0,9999,0,0,0,
2026-03-17 19:00:00,METAR LCLK 171900Z 33004KT 300V010 CAVOK 12/10 Q1013 NOSIG,1,0,0,9999,0,0,0,
2026-03-17 18:30:00,METAR LCLK 171830Z 33005KT 310V030 CAVOK 12/10 Q1013 NOSIG,1,0,0,9999,0,0,0,
2026-03-17 18:00:00,METAR LCLK 171800Z 31004KT 290V360 CAVOK 13/10 Q1013 NOSIG,1,0,0,9999,0,0,0,
2026-03-17 17:30:00,METAR LCLK 171730Z 07004KT CAVOK 16/10 Q1013 NOSIG,1,0,0,9999,0,0,0,
2026-03-17 17:00:00,METAR LCLK 171700Z 07005KT CAVOK 16/11 Q1012 NOSIG,1,0,0,9999,0,0,0,
2026-03-17 16:30:00,METAR LCLK 171630Z 08002KT CAVOK 16/10 Q1012 NOSIG,1,0,0,9999,0,0,0,
2026-03-17 16:00:00,METAR LCLK 171600Z 08003KT 050V110 CAVOK 17/10 Q1012 NOSIG,1,0,0,9999,0,0,0,
2026-03-17 15:30:00,METAR LCLK 171530Z 11001KT CAVOK 17/10 Q1012 NOSIG,1,0,0,9999,0,0,0,
2026-03-17 15:00:00,METAR LCLK 171500Z 14002KT 9999 FEW025 18/10 Q1012 NOSIG,0,2,0,10000,0,0,0,
2026-03-17 14:30:00,METAR LCLK 171430Z VRB02KT 9999 FEW025 18/11 Q1012 NOSIG,0,2,0,10000,0,0,0,
2026-03-17 14:00:00,METAR LCLK 171400Z 13004KT 360V160 9999 FEW025 18/10 Q1013 NOSIG,0,4,0,10000,0,0,0,
2026-03-17 13:30:00,METAR LCLK 171330Z 12004KT 080V150 9999 FEW025 19/10 Q1013 NOSIG,0,4,0,10000,0,0,0,
2026-03-17 13:00:00,METAR LCLK 171300Z 15004KT 100V190 9999 FEW025 19/11 Q1013 NOSIG,0,4,0,10000,0,0,0,
2026-03-17 12:30:00,METAR LCLK 171230Z 13005KT 070V190 9999 FEW025 19/11 Q1013 NOSIG,0,5,0,10000,0,0,0,
2026-03-17 12:00:00,METAR LCLK 171200Z 12006KT 090V160 9999 FEW025 19/11 Q1013 NOSIG,0,6,0,10000,0,0,0,
2026-03-17 11:30:00,METAR LCLK 171130Z 13006KT 090V180 9999 FEW025 19/11 Q1013 NOSIG,0,6,0,10000,0,0,0,
2026-03-17 11:00:00,METAR LCLK 171100Z 14006KT 100V180 9999 FEW025 19/11 Q1014 NOSIG,0,6,0,10000,0,0,0,
2026-03-17 10:30:00,METAR LCLK 171030Z 11006KT 070V140 9999 FEW025 19/11 Q1014 NOSIG,0,6,0,10000,0,0,0,
2026-03-17 10:00:00,METAR LCLK 171000Z 08004KT 040V110 9999 FEW025 19/11 Q1014 NOSIG,0,4,0,10000,0,0,0,
2026-03-17 09:30:00,METAR LCLK 170930Z VRB03KT 9999 FEW025 19/11 Q1015 NOSIG,0,3,0,10000,0,0,0,
2026-03-17 09:00:00,METAR LCLK 170900Z 09004KT 020V150 9999 FEW025 19/11 Q1015 NOSIG,0,4,0,10000,0,0,0,
2026-03-17 08:30:00,METAR LCLK 170830Z 07003KT 010V120 9999 FEW025 18/10 Q1015 NOSIG,0,3,0,10000,0,0,0,
2026-03-17 08:00:00,METAR LCLK 170800Z 07004KT 030V100 9999 FEW025 18/10 Q1015 NOSIG,0,4,0,10000,0,0,0,
2026-03-17 07:30:00,METAR LCLK 170730Z 06004KT 030V100 9999 FEW025 18/11 Q1015 NOSIG,0,4,0,10000,0,0,0,
2026-03-17 07:00:00,METAR LCLK 170700Z VRB02KT 9999 FEW025 18/11 Q1015 NOSIG,0,2,0,10000,0,0,0,
2026-03-17 06:30:00,METAR LCLK 170630Z 34004KT CAVOK 18/12 Q1014 NOSIG,1,0,0,9999,0,0,0,
2026-03-17 06:00:00,METAR LCLK 170600Z 33004KT 9999 FEW030 15/12 Q1014 NOSIG,0,4,0,10000,0,0,0,
2026-03-17 05:30:00,METAR LCLK 170530Z 33005KT 9999 FEW030 12/11 Q1014 NOSIG,0,5,0,10000,0,0,0,
2026-03-17 05:00:00,METAR LCLK 170500Z 30006KT 9999 SCT030 BKN050 10/09 Q1014 NOSIG,0,6,0,10000,0,0,0,
2026-03-17 04:30:00,METAR LCLK 170430Z 30004KT 270V330 9999 SCT030 BKN050 10/10 Q1014 NOSIG,0,4,0,10000,0,0,0,
2026-03-17 04:00:00,METAR LCLK 170400Z 31003KT 9999 SCT030 BKN040 10/09 Q1014 NOSIG,0,3,0,10000,0,0,0,
2026-03-17 03:30:00,METAR LCLK 170330Z VRB03KT 9999 SCT030 BKN040 11/10 Q1014 NOSIG,0,3,0,10000,0,0,0,
2026-03-17 03:00:00,METAR LCLK 170300Z 29002KT 9999 SCT030 BKN050 10/10 Q1014 NOSIG,0,2,0,10000,0,0,0,
2026-03-17 02:30:00,METAR LCLK 170230Z 31003KT 270V330 9999 SCT030 BKN050 10/10 Q1014 NOSIG,0,3,0,10000,0,0,0,
2026-03-17 02:00:00,METAR LCLK 170200Z VRB02KT 9999 SCT030 BKN050 10/09 Q1014 NOSIG,0,2,0,10000,0,0,0,
2026-03-17 01:30:00,METAR LCLK 170130Z VRB01KT 9999 FEW030 BKN050 10/09 Q1014 NOSIG,0,1,0,10000,0,0,0,
2026-03-17 01:00:00,METAR LCLK 170100Z 00000KT 9999 FEW030 SCT050 10/09 Q1014 NOSIG,0,0,0,10000,0,0,0,
2026-03-17 00:30:00,METAR LCLK 170030Z 30002KT 9999 FEW030 SCT050 09/09 Q1014 NOSIG,0,2,0,10000,0,0,0,
2026-03-17 00:00:00,METAR LCLK 170000Z 29004KT 9999 FEW050 10/09 Q1014 NOSIG,0,4,0,10000,0,0,0,
2026-03-16 23:30:00,METAR LCLK 162330Z 31004KT 9999 FEW050 10/09 Q1014 NOSIG,0,4,0,10000,0,0,0,
2026-03-16 23:00:00,METAR LCLK 162300Z 30004KT 9999 FEW050 10/09 Q1014 NOSIG,0,4,0,10000,0,0,0,
2026-03-16 22:30:00,METAR LCLK 162230Z 32004KT CAVOK 10/09 Q1014 NOSIG,1,0,0,9999,0,0,0,
2026-03-16 22:00:00,METAR LCLK 162200Z 31003KT CAVOK 11/10 Q1014 NOSIG,1,0,0,9999,0,0,0,
2026-03-16 21:30:00,METAR LCLK 162130Z 33004KT CAVOK 12/10 Q1014 NOSIG,1,0,0,9999,0,0,0,
2026-03-16 21:00:00,METAR LCLK 162100Z 30002KT CAVOK 12/11 Q1014 NOSIG,1,0,0,9999,0,0,0,
2026-03-16 20:30:00,METAR LCLK 162030Z 23003KT CAVOK 12/11 Q1014 NOSIG,1,0,0,9999,0,0,0,
2026-03-16 20:00:00,METAR LCLK 162000Z 24003KT 210V290 CAVOK 12/11 Q1014 NOSIG,1,0,0,9999,0,0,0,
2026-03-16 19:30:00,METAR LCLK 161930Z 31005KT CAVOK 13/11 Q1014 NOSIG,1,0,0,9999,0,0,0,
2026-03-16 19:00:00,METAR LCLK 161900Z 33006KT CAVOK 14/12 Q1014 NOSIG,1,0,0,9999,0,0,0,
2026-03-16 18:30:00,METAR LCLK 161830Z 32004KT 260V340 9999 FEW030 14/12 Q1014 NOSIG,0,4,0,10000,0,0,0,
2026-03-16 18:00:00,METAR LCLK 161800Z 30003KT 9999 FEW030 15/12 Q1013 NOSIG,0,3,0,10000,0,0,0,
2026-03-16 17:30:00,METAR LCLK 161730Z 29003KT 250V330 9999 FEW025 SCT035 16/12 Q1013 NOSIG,0,3,0,10000,0,0,0,
2026-03-16 17:00:00,METAR LCLK 161700Z VRB02KT 9999 FEW025 SCT035 16/12 Q1013 NOSIG,0,2,0,10000,0,0,0,
2026-03-16 16:30:00,METAR LCLK 161630Z 23009KT 9999 FEW025 BKN035 16/12 Q1013 NOSIG,0,9,0,10000,0,0,0,
2026-03-16 16:00:00,METAR LCLK 161600Z 22008KT 9999 FEW025 SCT035 17/12 Q1012 NOSIG,0,8,0,10000,0,0,0,
2026-03-16 15:30:00,METAR LCLK 161530Z 22012KT 9999 FEW025 17/12 Q1012 NOSIG,0,12,0,10000,0,0,0,
2026-03-16 15:00:00,METAR LCLK 161500Z 22016KT 9999 FEW025 18/13 Q1012 NOSIG,0,16,0,10000,0,0,0,
2026-03-16 14:30:00,METAR LCLK 161430Z 22017KT 9999 FEW025 19/13 Q1011 NOSIG,0,17,0,10000,0,0,0,
2026-03-16 14:00:00,METAR LCLK 161400Z 22019KT 9999 FEW025 SCT050 19/13 Q1011 NOSIG,0,19,0,10000,0,0,0,
2026-03-16 13:30:00,METAR LCLK 161330Z 22018KT 9999 FEW025 FEW030CB SCT050 19/13 Q1011 NOSIG,0,18,0,10000,0,0,0,
2026-03-16 13:00:00,METAR LCLK 161300Z 22020KT 9999 FEW025 FEW030TCU SCT050 20/13 Q1011 NOSIG,0,20,0,10000,0,0,0,
2026-03-16 12:30:00,METAR LCLK 161230Z 22023KT 9999 FEW025 20/13 Q1011 NOSIG,0,23,0,10000,0,0,0,
2026-03-16 12:00:00,METAR LCLK 161200Z 22022KT 9999 FEW025 20/13 Q1011 NOSIG,0,22,0,10000,0,0,0,
2026-03-16 11:30:00,METAR LCLK 161130Z 22022KT 9999 FEW025 21/14 Q1011 NOSIG,0,22,0,10000,0,0,0,
2026-03-16 11:00:00,METAR LCLK 161100Z 22021KT 9999 FEW025 21/13 Q1011 NOSIG,0,21,0,10000,0,0,0,
2026-03-16 10:30:00,METAR LCLK 161030Z 22021KT 9999 FEW025 21/14 Q1011 NOSIG,0,21,0,10000,0,0,0,
2026-03-16 10:00:00,METAR LCLK 161000Z 22022KT 9999 FEW025 21/14 Q1011 NOSIG,0,22,0,10000,0,0,0,
2026-03-16 09:30:00,METAR LCLK 160930Z 22018KT 9999 FEW025 21/14 Q1011 NOSIG,0,18,0,10000,0,0,0,
2026-03-16 09:00:00,METAR LCLK 160900Z 22018KT 9999 FEW025 21/13 Q1011 NOSIG,0,18,0,10000,0,0,0,
2026-03-16 08:30:00,METAR LCLK 160830Z 22013KT 9999 FEW025 21/13 Q1011 NOSIG,0,13,0,10000,0,0,0,
2026-03-16 08:00:00,METAR LCLK 160800Z 25011KT 9999 FEW025 20/13 Q1011 NOSIG,0,11,0,10000,0,0,0,
2026-03-16 07:30:00,METAR LCLK 160730Z 24016KT 9999 FEW025 19/12 Q1011 NOSIG,0,16,0,10000,0,0,0,
2026-03-16 07:00:00,METAR LCLK 160700Z 25011KT 9999 FEW025 19/12 Q1011 NOSIG,0,11,0,10000,0,0,0,
2026-03-16 06:30:00,METAR LCLK 160630Z 25009KT 9999 FEW025 17/12 Q1010 NOSIG,0,9,0,10000,0,0,0,
2026-03-16 06:00:00,METAR LCLK 160600Z 24007KT 200V260 9999 FEW025 16/11 Q1010 NOSIG,0,7,0,10000,0,0,0,
2026-03-16 05:30:00,METAR LCLK 160530Z 28003KT 240V300 9999 FEW025 13/10 Q1010 NOSIG,0,3,0,10000,0,0,0,
2026-03-16 05:00:00,METAR LCLK 160500Z 32004KT 300V360 9999 FEW025 10/08 Q1010 NOSIG,0,4,0,10000,0,0,0,
2026-03-16 04:30:00,METAR LCLK 160430Z 28003KT 9999 FEW025 09/07 Q1009 NOSIG,0,3,0,10000,0,0,0,
2026-03-16 04:00:00,METAR LCLK 160400Z 31004KT 9999 FEW025 09/07 Q1009 NOSIG,0,4,0,10000,0,0,0,
2026-03-16 03:30:00,METAR LCLK 160330Z 31004KT 270V330 9999 FEW025 11/08 Q1009 NOSIG,0,4,0,10000,0,0,0,
2026-03-16 03:00:00,METAR LCLK 160300Z 30005KT 260V330 CAVOK 13/10 Q1008 NOSIG,1,0,0,9999,0,0,0,
2026-03-16 02:30:00,METAR LCLK 160230Z 22008KT CAVOK 12/10 Q1008 NOSIG,1,0,0,9999,0,0,0,
2026-03-16 02:00:00,METAR LCLK 160200Z 22006KT CAVOK 12/09 Q1008 NOSIG,1,0,0,9999,0,0,0,
2026-03-16 01:30:00,METAR LCLK 160130Z 24007KT CAVOK 12/10 Q1008 NOSIG,1,0,0,9999,0,0,0,
2026-03-16 01:00:00,METAR LCLK 160100Z 26005KT CAVOK 12/10 Q1008 NOSIG,1,0,0,9999,0,0,0,
2026-03-16 00:30:00,METAR LCLK 160030Z 29005KT CAVOK 12/09 Q1008 NOSIG,1,0,0,9999,0,0,0,
2026-03-16 00:00:00,METAR LCLK 160000Z 28007KT CAVOK 14/10 Q1008 NOSIG,1,0,0,9999,0,0,0,
2026-03-15 23:30:00,METAR LCLK 152330Z 24012KT CAVOK 14/10 Q1007 NOSIG,1,0,0,9999,0,0,0,
2026-03-15 23:00:00,METAR LCLK 152300Z 23010KT CAVOK 14/10 Q1007 NOSIG,1,0,0,9999,0,0,0,
2026-03-15 22:30:00,METAR LCLK 152230Z 22011KT CAVOK 14/11 Q1007 NOSIG,1,0,0,9999,0,0,0,
2026-03-15 22:00:00,METAR LCLK 152200Z 22012KT CAVOK 14/10 Q1007 NOSIG,1,0,0,9999,0,0,0,
2026-03-15 21:30:00,METAR LCLK 152130Z 23013KT CAVOK 15/10 Q1007 NOSIG,1,0,0,9999,0,0,0,
2026-03-15 21:00:00,METAR LCLK 152100Z 23013KT CAVOK 15/10 Q1007 NOSIG,1,0,0,9999,0,0,0,
2026-03-15 20:30:00,METAR LCLK 152030Z 23011KT CAVOK 15/11 Q1007 NOSIG,1,0,0,9999,0,0,0,
2026-03-15 20:00:00,METAR LCLK 152000Z 23012KT CAVOK 15/11 Q1007 NOSIG,1,0,0,9999,0,0,0,
2026-03-15 19:30:00,METAR LCLK 151930Z 23011KT CAVOK 15/11 Q1007 NOSIG,1,0,0,9999,0,0,0,
2026-03-15 19:00:00,METAR LCLK 151900Z 23012KT 9999 FEW050 15/12 Q1006 NOSIG,0,12,0,10000,0,0,0,
2026-03-15 18:30:00,METAR LCLK 151830Z 24013KT 9999 FEW030 SCT050 16/11 Q1006 NOSIG,0,13,0,10000,0,0,0,
2026-03-15 18:00:00,METAR LCLK 151800Z 24015KT 9999 FEW030 SCT050 16/11 Q1006 NOSIG,0,15,0,10000,0,0,0,
2026-03-15 17:30:00,METAR LCLK 151730Z 24016KT 9999 FEW030 SCT050 16/12 Q1005 NOSIG,0,16,0,10000,0,0,0,
2026-03-15 17:00:00,METAR LCLK 151700Z 23016KT 9999 FEW030 SCT050 16/11 Q1005 NOSIG,0,16,0,10000,0,0,0,
2026-03-15 16:30:00,METAR LCLK 151630Z 24018G28KT 9999 FEW020 SCT050 16/12 Q1005 NOSIG,0,18,1,10000,0,0,0,
2026-03-15 16:00:00,METAR LCLK 151600Z 24015KT 9999 FEW020 SCT050 16/11 Q1004 NOSIG,0,15,0,10000,0,0,0,
2026-03-15 15:30:00,METAR LCLK 151530Z 24021KT 9999 FEW020 SCT040 BKN070 15/09 Q1003 NOSIG,0,21,0,10000,0,0,0,
2026-03-15 15:00:00,METAR LCLK 151500Z 24021G31KT 9999 FEW020 SCT040 BKN070 15/10 Q1003 NOSIG,0,21,1,10000,0,0,0,
2026-03-15 14:30:00,METAR LCLK 151430Z 25021KT 9999 FEW020 SCT040 BKN070 14/10 Q1003 NOSIG,0,21,0,10000,0,0,0,
2026-03-15 14:00:00,METAR LCLK 151400Z 24025KT 9999 -SHRA SCT020 SCT040 BKN070 14/10 Q1003 NOSIG,0,25,0,10000,0,0,0,RA
2026-03-15 13:30:00,METAR LCLK 151330Z 23019KT 9999 -SHRA SCT020 SCT040 BKN060 14/11 Q1002 NOSIG,0,19,0,10000,0,0,0,RA
2026-03-15 13:00:00,METAR LCLK 151300Z 23028G40KT 9999 -SHRA SCT020 SCT040 BKN060 14/12 Q1002 NOSIG,0,28,1,10000,0,0,0,RA
2026-03-15 12:30:00,METAR LCLK 151230Z 23028G38KT 9999 SCT020 SCT040 BKN060 14/10 Q1001 NOSIG,0,28,1,10000,0,0,0,
2026-03-15 12:00:00,METAR LCLK 151200Z 24029G39KT 9999 -SHRA SCT020 SCT040 BKN060 15/09 Q1001 NOSIG,0,29,1,10000,0,0,0,RA
2026-03-15 11:30:00,METAR LCLK 151130Z 24030G41KT 9999 SCT020 SCT040 BKN060 16/10 Q1000 BECMG 5000 SHRA FEW025TCU,0,30,1,10000,0,0,0,"RA,SH"
2026-03-15 11:00:00,METAR LCLK 151100Z 24027KT 9999 -SHRA SCT020 SCT040 BKN060 16/11 Q0999 BECMG 5000 SHRA FEW025TCU,0,27,0,10000,0,0,0,"RA,SH"
2026-03-15 10:30:00,METAR LCLK 151030Z 24027G37KT 9999 -SHRA SCT020 BKN050 16/11 Q0999 BECMG 5000 SHRA FEW025TCU,0,27,1,10000,0,0,0,"RA,SH"
2026-03-15 10:00:00,METAR LCLK 151000Z 24030G42KT 9999 SCT020 BKN050 16/11 Q0998 BECMG 5000 SHRA FEW025TCU,0,30,1,10000,0,0,0,"RA,SH"
2026-03-15 09:30:00,METAR LCLK 150930Z 23030G42KT 9999 SCT020 BKN050 16/12 Q0997 NOSIG,0,30,1,10000,0,0,0,
2026-03-15 09:00:00,METAR LCLK 150900Z 23031G49KT 9999 SCT020 BKN050 17/13 Q0996 NOSIG,0,31,1,10000,0,0,0,
2026-03-15 08:30:00,METAR LCLK 150830Z 23026G37KT 9999 SCT018 BKN050 18/15 Q0996 NOSIG,0,26,1,10000,0,0,0,
2026-03-15 08:00:00,METAR LCLK 150800Z 24019KT 6000 FEW012 SCT020 BKN040 19/16 Q0995 NOSIG,0,19,0,6000,0,0,0,
