Time_recorded,METAR,is_cavok,wind_speed,is_gust,visibility_meters,has_thunderstorm,has_heavy_rain,has_low_vis_fog,other_phenomenon
2026-05-02 15:38:00,SPECI KLAX 021538Z 08004KT 6SM HZ OVC010 16/13 A2998 RMK AO2 T01610133,0,4.0,0,9654.0,0,0,0,
2026-05-02 14:53:00,METAR KLAX 021453Z VRB03KT 6SM BR OVC008 16/13 A2997 RMK AO2 SLP146 T01560133 51009,0,3.0,0,9654.0,0,0,1,BR
2026-05-02 13:53:00,METAR KLAX 021353Z 32004KT 6SM BR OVC007 15/13 A2996 RMK AO2 SLP143 T01500133,0,4.0,0,9654.0,0,0,1,BR
2026-05-02 12:53:00,METAR KLAX 021253Z 26004KT 8SM OVC008 15/13 A2995 RMK AO2 SLP139 T01500133,0,4.0,0,12872.0,0,0,0,
2026-05-02 11:53:00,METAR KLAX 021153Z 24005KT 8SM OVC007 15/13 A2994 RMK AO2 SLP136 T01500133 10150 20144 53001,0,5.0,0,12872.0,0,0,0,
2026-05-02 10:53:00,METAR KLAX 021053Z 24005KT 7SM OVC007 15/13 A2993 RMK AO2 SLP133 T01500133,0,5.0,0,11263.0,0,0,0,
2026-05-02 09:53:00,METAR KLAX 020953Z 24005KT 7SM OVC007 15/13 A2993 RMK AO2 SLP132 T01500133,0,5.0,0,11263.0,0,0,0,
2026-05-02 08:53:00,METAR KLAX 020853Z 27005KT 7SM OVC008 15/13 A2993 RMK AO2 SLP135 T01500133 58004,0,5.0,0,11263.0,0,0,0,
2026-05-02 07:53:00,METAR KLAX 020753Z 25004KT 9SM SCT009 BKN010 14/13 A2995 RMK AO2 SLP139 T01440128 402110144,0,4.0,0,14481.0,0,0,0,
2026-05-02 07:11:00,SPECI KLAX 020711Z 26003KT 9SM SCT009 BKN010 15/13 A2996 RMK AO2 T01500128,0,3.0,0,14481.0,0,0,0,
2026-05-02 06:53:00,METAR KLAX 020653Z 22004KT 9SM BKN010 15/13 A2995 RMK AO2 SLP141 T01500128,0,4.0,0,14481.0,0,0,0,
2026-05-02 05:53:00,METAR KLAX 020553Z 25005KT 10SM BKN011 15/13 A2995 RMK AO2 SLP139 T01500128 10194 20150 51015,0,5.0,0,16090.0,0,0,0,
2026-05-02 04:53:00,METAR KLAX 020453Z 23008KT 10SM OVC010 15/13 A2995 RMK AO2 SLP138 T01500128,0,8.0,0,16090.0,0,0,0,
2026-05-02 03:53:00,METAR KLAX 020353Z 24009KT 10SM BKN010 16/13 A2993 RMK AO2 SLP133 T01560133,0,9.0,0,16090.0,0,0,0,
2026-05-02 03:41:00,SPECI KLAX 020341Z 25008KT 10SM BKN011 16/13 A2992 RMK AO2 T01560133,0,8.0,0,16090.0,0,0,0,
2026-05-02 02:53:00,METAR KLAX 020253Z 27014KT 10SM SCT010 SCT200 16/13 A2990 RMK AO2 SLP123 T01610133 53003,0,14.0,0,16090.0,0,0,0,
2026-05-02 01:53:00,METAR KLAX 020153Z 26015KT 10SM SCT012 SCT250 17/13 A2989 RMK AO2 SLP120 T01670133,0,15.0,0,16090.0,0,0,0,
2026-05-02 00:53:00,METAR KLAX 020053Z 27015KT 10SM FEW013 FEW250 18/13 A2989 RMK AO2 SLP119 T01830128,0,15.0,0,16090.0,0,0,0,
2026-05-01 23:53:00,METAR KLAX 012353Z 26014KT 10SM FEW014 FEW060 19/13 A2989 RMK AO2 SLP119 T01940133 10211 20189 56016,0,14.0,0,16090.0,0,0,0,
2026-05-01 22:53:00,METAR KLAX 012253Z 24012KT 10SM FEW029 SCT060 19/13 A2990 RMK AO2 SLP123 T01940133,0,12.0,0,16090.0,0,0,0,
2026-05-01 21:53:00,METAR KLAX 012153Z 25012KT 9SM FEW044 FEW070 20/13 A2992 RMK AO2 SLP130 T02000128,0,12.0,0,14481.0,0,0,0,
2026-05-01 20:53:00,METAR KLAX 012053Z 26012KT 10SM FEW045 FEW070 21/13 A2994 RMK AO2 SLP135 T02060128 56013,0,12.0,0,16090.0,0,0,0,
2026-05-01 19:53:00,METAR KLAX 011953Z 24011KT 10SM FEW030 FEW070 21/13 A2995 RMK AO2 SLP139 T02060128,0,11.0,0,16090.0,0,0,0,
2026-05-01 18:53:00,METAR KLAX 011853Z 25009KT 9SM SCT027 21/13 A2996 RMK AO2 SLP144 T02060133,0,9.0,0,14481.0,0,0,0,
2026-05-01 18:40:00,SPECI KLAX 011840Z 26009KT 10SM SCT027 21/13 A2997 RMK AO2 T02060128,0,9.0,0,16090.0,0,0,0,
2026-05-01 17:53:00,METAR KLAX 011753Z 18004KT 10SM BKN025 20/12 A2997 RMK AO2 SLP148 T02000122 10200 20161 50004,0,4.0,0,16090.0,0,0,0,
2026-05-01 16:53:00,METAR KLAX 011653Z 06006KT 10SM OVC023 18/12 A2998 RMK AO2 SLP152 T01830122,0,6.0,0,16090.0,0,0,0,
2026-05-01 15:53:00,METAR KLAX 011553Z VRB05KT 10SM OVC021 18/12 A2998 RMK AO2 SLP151 T01780122,0,5.0,0,16090.0,0,0,0,
2026-05-01 14:53:00,METAR KLAX 011453Z 07005KT 10SM OVC019 17/12 A2997 RMK AO2 SLP146 T01720122 53013,0,5.0,0,16090.0,0,0,0,
2026-05-01 13:53:00,METAR KLAX 011353Z VRB05KT 10SM FEW011 OVC018 17/12 A2995 RMK AO2 SLP141 T01670122,0,5.0,0,16090.0,0,0,0,
2026-05-01 12:53:00,METAR KLAX 011253Z 08006KT 10SM FEW012 OVC017 17/12 A2993 RMK AO2 SLP135 T01670122,0,6.0,0,16090.0,0,0,0,
2026-05-01 11:53:00,METAR KLAX 011153Z 00000KT 10SM FEW011 OVC017 17/13 A2993 RMK AO2 SLP133 T01670128 10167 20156 55001,0,0.0,0,16090.0,0,0,0,
2026-05-01 10:53:00,METAR KLAX 011053Z VRB05KT 10SM FEW011 OVC016 17/13 A2992 RMK AO2 SLP128 T01670128,0,5.0,0,16090.0,0,0,0,
2026-05-01 09:53:00,METAR KLAX 010953Z 08004KT 10SM FEW011 BKN016 16/13 A2992 RMK AO2 SLP129 T01610133,0,4.0,0,16090.0,0,0,0,
2026-05-01 08:53:00,METAR KLAX 010853Z 00000KT 10SM FEW012 BKN016 16/13 A2993 RMK AO2 SLP133 T01610128 50002,0,0.0,0,16090.0,0,0,0,
2026-05-01 08:20:00,SPECI KLAX 010820Z 00000KT 10SM FEW012 BKN016 BKN200 16/13 A2994 RMK AO2 T01610133,0,0.0,0,16090.0,0,0,0,
2026-05-01 07:53:00,METAR KLAX 010753Z VRB04KT 10SM FEW012 SCT160 16/13 A2994 RMK AO2 SLP136 T01610133 402110156,0,4.0,0,16090.0,0,0,0,
2026-05-01 06:53:00,METAR KLAX 010653Z 00000KT 10SM FEW012 FEW016 16/13 A2993 RMK AO2 SLP133 T01610128,0,0.0,0,16090.0,0,0,0,
2026-05-01 05:53:00,METAR KLAX 010553Z 18003KT 10SM FEW012 SCT016 16/13 A2992 RMK AO2 SLP131 T01610133 10183 20156 51014,0,3.0,0,16090.0,0,0,0,
2026-05-01 04:53:00,METAR KLAX 010453Z 23006KT 10SM FEW014 16/13 A2992 RMK AO2 SLP130 T01610133,0,6.0,0,16090.0,0,0,0,
2026-05-01 03:53:00,METAR KLAX 010353Z 21004KT 10SM FEW014 16/13 A2990 RMK AO2 SLP123 T01610133,0,4.0,0,16090.0,0,0,0,
2026-05-01 02:53:00,METAR KLAX 010253Z 18005KT 10SM FEW014 FEW040 16/13 A2988 RMK AO2 SLP117 T01610133 53009,0,5.0,0,16090.0,0,0,0,
2026-05-01 01:53:00,METAR KLAX 010153Z 24010KT 10SM FEW013 17/13 A2986 RMK AO2 SLP111 T01720133,0,10.0,0,16090.0,0,0,0,
2026-05-01 00:53:00,METAR KLAX 010053Z 24012KT 10SM FEW010 FEW040 18/13 A2986 RMK AO2 SLP109 T01780133,0,12.0,0,16090.0,0,0,0,
2026-04-30 23:53:00,METAR KLAX 302353Z 24013KT 10SM FEW010 FEW050 18/13 A2985 RMK AO2 SLP108 T01830133 10211 20183 56009,0,13.0,0,16090.0,0,0,0,
2026-04-30 22:53:00,METAR KLAX 302253Z 27013KT 10SM FEW010 FEW050 19/13 A2986 RMK AO2 SLP110 T01940128,0,13.0,0,16090.0,0,0,0,
2026-04-30 21:53:00,METAR KLAX 302153Z 25013G23KT 10SM FEW010 FEW050 20/13 A2987 RMK AO2 SLP115 T02000128,0,13.0,1,16090.0,0,0,0,
2026-04-30 20:53:00,METAR KLAX 302053Z 23013KT 10SM FEW010 FEW180 20/12 A2988 RMK AO2 SLP117 T02000122 56009,0,13.0,0,16090.0,0,0,0,
2026-04-30 19:53:00,METAR KLAX 301953Z 25013KT 10SM FEW160 20/12 A2989 RMK AO2 SLP118 T02000122,0,13.0,0,16090.0,0,0,0,
2026-04-30 18:53:00,METAR KLAX 301853Z 26010KT 10SM FEW011 FEW140 20/12 A2990 RMK AO2 SLP124 T02000117,0,10.0,0,16090.0,0,0,0,
2026-04-30 17:53:00,METAR KLAX 301753Z 26009KT 10SM FEW009 FEW025 SCT140 19/12 A2991 RMK AO2 SLP127 T01940122 10194 20156 58005,0,9.0,0,16090.0,0,0,0,
2026-04-30 17:07:00,SPECI KLAX 301707Z VRB05KT 9SM FEW009 SCT024 19/13 A2991 RMK AO2 T01890128,0,5.0,0,14481.0,0,0,0,
2026-04-30 16:53:00,METAR KLAX 301653Z 00000KT 9SM FEW009 BKN023 18/12 A2992 RMK AO2 SLP129 T01780122,0,0.0,0,14481.0,0,0,0,
2026-04-30 15:53:00,METAR KLAX 301553Z 00000KT 9SM FEW009 OVC020 17/12 A2992 RMK AO2 SLP132 T01720122,0,0.0,0,14481.0,0,0,0,
2026-04-30 14:53:00,METAR KLAX 301453Z 00000KT 10SM FEW009 OVC016 16/12 A2993 RMK AO2 SLP133 T01610122 53003,0,0.0,0,16090.0,0,0,0,
2026-04-30 13:53:00,METAR KLAX 301353Z 00000KT 10SM FEW009 BKN017 OVC022 16/12 A2992 RMK AO2 SLP131 T01610122,0,0.0,0,16090.0,0,0,0,
2026-04-30 12:53:00,METAR KLAX 301253Z 00000KT 10SM FEW009 SCT012 BKN018 16/13 A2991 RMK AO2 SLP127 T01560128,0,0.0,0,16090.0,0,0,0,
2026-04-30 11:53:00,METAR KLAX 301153Z 26004KT 10SM FEW008 FEW012 BKN016 16/13 A2992 RMK AO2 SLP130 T01560128 10161 20156 56015,0,4.0,0,16090.0,0,0,0,
2026-04-30 10:53:00,METAR KLAX 301053Z 25004KT 10SM FEW008 BKN015 16/13 A2993 RMK AO2 SLP134 T01560128,0,4.0,0,16090.0,0,0,0,
2026-04-30 10:27:00,SPECI KLAX 301027Z 23004KT 10SM FEW008 BKN015 16/13 A2994 RMK AO2 T01610128,0,4.0,0,16090.0,0,0,0,
2026-04-30 09:53:00,METAR KLAX 300953Z 27003KT 10SM FEW008 BKN014 16/13 A2994 RMK AO2 SLP136 T01610128,0,3.0,0,16090.0,0,0,0,
2026-04-30 08:53:00,METAR KLAX 300853Z 25007KT 10SM FEW009 BKN012 16/13 A2996 RMK AO2 SLP144 T01610133 56008,0,7.0,0,16090.0,0,0,0,
2026-04-30 07:53:00,METAR KLAX 300753Z 19003KT 10SM FEW009 BKN012 16/14 A2998 RMK AO2 SLP148 T01610139 402110122,0,3.0,0,16090.0,0,0,0,
2026-04-30 07:39:00,SPECI KLAX 300739Z 20004KT 10SM FEW009 BKN012 16/14 A2998 RMK AO2 T01610139,0,4.0,0,16090.0,0,0,0,
2026-04-30 06:53:00,METAR KLAX 300653Z 26004KT 10SM FEW010 FEW014 16/13 A2998 RMK AO2 SLP149 T01560128,0,4.0,0,16090.0,0,0,0,
2026-04-30 05:53:00,METAR KLAX 300553Z COR 24006KT 10SM FEW010 FEW010 16/13 A2999 RMK AO2 SLP153 T01610128 10194 20161 50006,0,6.0,0,16090.0,0,0,0,
2026-04-30 04:53:00,METAR KLAX 300453Z 25005KT 10SM CLR 16/13 A2999 RMK AO2 SLP155 T01610133,0,5.0,0,16090.0,0,0,0,
2026-04-30 03:53:00,METAR KLAX 300353Z 25004KT 10SM CLR 16/13 A2998 RMK AO2 SLP150 T01610133,0,4.0,0,16090.0,0,0,0,
2026-04-30 02:53:00,METAR KLAX 300253Z 24008KT 10SM FEW150 17/13 A2997 RMK AO2 SLP147 T01670128 53003,0,8.0,0,16090.0,0,0,0,
2026-04-30 01:53:00,METAR KLAX 300153Z 24009KT 10SM FEW150 FEW250 17/13 A2996 RMK AO2 SLP145 T01720128,0,9.0,0,16090.0,0,0,0,
2026-04-30 00:53:00,METAR KLAX 300053Z 26010KT 10SM FEW080 FEW250 18/13 A2995 RMK AO2 SLP142 T01830133,0,10.0,0,16090.0,0,0,0,
2026-04-29 23:53:00,METAR KLAX 292353Z 25012KT 10SM FEW250 19/11 A2996 RMK AO2 SLP144 T01940111 10211 20194 58011,0,12.0,0,16090.0,0,0,0,
2026-04-29 22:53:00,METAR KLAX 292253Z 25012KT 10SM FEW150 FEW250 19/11 A2997 RMK AO2 SLP148 T01940111,0,12.0,0,16090.0,0,0,0,
2026-04-29 21:53:00,METAR KLAX 292153Z 24013KT 10SM FEW150 20/12 A2999 RMK AO2 SLP154 T02000117,0,13.0,0,16090.0,0,0,0,
2026-04-29 20:53:00,METAR KLAX 292053Z 24014KT 10SM FEW140 20/12 A2999 RMK AO2 PK WND 20026/2016 SLP156 T02000117 56012,0,14.0,0,16090.0,0,0,0,
2026-04-29 19:53:00,METAR KLAX 291953Z 24013KT 10SM FEW160 20/11 A3000 RMK AO2 SLP158 T02000111,0,13.0,0,16090.0,0,0,0,
2026-04-29 18:53:00,METAR KLAX 291853Z 25011KT 10SM CLR 20/12 A3002 RMK AO2 SLP164 T02000122,0,11.0,0,16090.0,0,0,0,
2026-04-29 17:53:00,METAR KLAX 291753Z 26007KT 10SM CLR 19/12 A3003 RMK AO2 SLP167 T01940117 10200 20122 58005,0,7.0,0,16090.0,0,0,0,
2026-04-29 16:53:00,METAR KLAX 291653Z 00000KT 10SM CLR 19/09 A3003 RMK AO2 SLP169 T01890094,0,0.0,0,16090.0,0,0,0,
2026-04-29 15:53:00,METAR KLAX 291553Z VRB03KT 10SM FEW010 17/10 A3004 RMK AO2 SLP171 T01720100,0,3.0,0,16090.0,0,0,0,
2026-04-29 14:53:00,METAR KLAX 291453Z 09004KT 10SM SCT015 16/12 A3005 RMK AO2 SLP174 T01560117 50001,0,4.0,0,16090.0,0,0,0,
2026-04-29 13:53:00,METAR KLAX 291353Z 00000KT 10SM SCT011 14/12 A3005 RMK AO2 SLP174 T01390117 $,0,0.0,0,16090.0,0,0,0,
2026-04-29 12:53:00,METAR KLAX 291253Z 05005KT 10SM FEW010 FEW014 SCT040 SCT150 13/11 A3005 RMK AO2 SLP173 T01330111 $,0,5.0,0,16090.0,0,0,0,
2026-04-29 11:53:00,METAR KLAX 291153Z 00000KT 10SM FEW012 13/11 A3004 RMK AO2 SLP171 T01330111 10156 20122 53004 $,0,0.0,0,16090.0,0,0,0,
2026-04-29 10:53:00,METAR KLAX 291053Z 08003KT 10SM FEW012 FEW250 13/11 A3003 RMK AO2 SLP167 T01280111 $,0,3.0,0,16090.0,0,0,0,
2026-04-29 09:53:00,METAR KLAX 290953Z 00000KT 10SM FEW250 13/11 A3002 RMK AO2 SLP164 T01330111 $,0,0.0,0,16090.0,0,0,0,
2026-04-29 08:53:00,METAR KLAX 290853Z 07003KT 10SM FEW250 14/11 A3003 RMK AO2 SLP167 T01440111 58004 $,0,3.0,0,16090.0,0,0,0,
2026-04-29 07:53:00,METAR KLAX 290753Z 00000KT 10SM FEW250 15/12 A3005 RMK AO2 SLP174 T01500117 402060117 $,0,0.0,0,16090.0,0,0,0,
2026-04-29 06:53:00,METAR KLAX 290653Z 23004KT 10SM FEW250 15/12 A3005 RMK AO2 SLP173 T01500122 $,0,4.0,0,16090.0,0,0,0,
2026-04-29 05:53:00,METAR KLAX 290553Z 23005KT 10SM FEW250 16/11 A3004 RMK AO2 SLP171 T01560111 10189 20156 50008 $,0,5.0,0,16090.0,0,0,0,
2026-04-29 04:53:00,METAR KLAX 290453Z 24008KT 10SM CLR 16/10 A3004 RMK AO2 SLP172 T01610100 $,0,8.0,0,16090.0,0,0,0,
2026-04-29 03:53:00,METAR KLAX 290353Z 22009G17KT 10SM CLR 16/09 A3003 RMK AO2 SLP166 T01610089 $,0,9.0,1,16090.0,0,0,0,
2026-04-29 02:53:00,METAR KLAX 290253Z 24008KT 10SM FEW250 16/10 A3002 RMK AO2 SLP164 T01560100 54000 $,0,8.0,0,16090.0,0,0,0,
2026-04-29 01:53:00,METAR KLAX 290153Z 25012KT 10SM FEW250 17/11 A3002 RMK AO2 SLP163 T01670111 $,0,12.0,0,16090.0,0,0,0,
2026-04-29 00:53:00,METAR KLAX 290053Z 25012KT 10SM CLR 18/11 A3002 RMK AO2 SLP165 T01780111 $,0,12.0,0,16090.0,0,0,0,
2026-04-28 23:53:00,METAR KLAX 282353Z 26012KT 10SM FEW250 19/10 A3002 RMK AO2 SLP163 T01890100 10206 20183 56008 $,0,12.0,0,16090.0,0,0,0,
2026-04-28 22:53:00,METAR KLAX 282253Z 25013KT 10SM CLR 19/11 A3002 RMK AO2 SLP165 T01890106 $,0,13.0,0,16090.0,0,0,0,
2026-04-28 21:53:00,METAR KLAX 282153Z 24016G21KT 10SM FEW250 19/10 A3003 RMK AO2 SLP169 T01940100 $,0,16.0,1,16090.0,0,0,0,
2026-04-28 20:53:00,METAR KLAX 282053Z 26016KT 10SM FEW250 20/09 A3004 RMK AO2 SLP172 T02000089 56007 $,0,16.0,0,16090.0,0,0,0,
2026-04-28 19:53:00,METAR KLAX 281953Z 25014KT 10SM FEW250 19/07 A3004 RMK AO2 SLP173 T01940072 $,0,14.0,0,16090.0,0,0,0,
2026-04-28 18:53:00,METAR KLAX 281853Z 24010KT 10SM FEW160 FEW200 20/08 A3005 RMK AO2 SLP175 T02000078 $,0,10.0,0,16090.0,0,0,0,
2026-04-28 17:53:00,METAR KLAX 281753Z 22003KT 10SM FEW160 FEW180 19/06 A3006 RMK AO2 SLP179 T01940061 10194 20117 58004 $,0,3.0,0,16090.0,0,0,0,
2026-04-28 16:53:00,METAR KLAX 281653Z VRB04KT 10SM FEW160 FEW180 18/07 A3006 RMK AO2 SLP180 T01830067 $,0,4.0,0,16090.0,0,0,0,
2026-04-28 15:53:00,METAR KLAX 281553Z VRB03KT 10SM FEW120 FEW160 SCT200 17/08 A3008 RMK AO2 SLP184 T01670083 $,0,3.0,0,16090.0,0,0,0,
2026-04-28 14:53:00,METAR KLAX 281453Z 08005KT 10SM FEW120 SCT160 BKN180 BKN250 14/08 A3008 RMK AO2 SLP184 T01440078 51016 $,0,5.0,0,16090.0,0,0,0,
2026-04-28 13:53:00,METAR KLAX 281353Z VRB03KT 10SM FEW120 SCT160 BKN200 BKN250 13/07 A3007 RMK AO2 SLP181 T01280072 $,0,3.0,0,16090.0,0,0,0,
2026-04-28 12:53:00,METAR KLAX 281253Z 07004KT 10SM FEW200 SCT250 12/08 A3004 RMK AO2 SLP171 T01220078 $,0,4.0,0,16090.0,0,0,0,
2026-04-28 11:53:00,METAR KLAX 281153Z 05004KT 10SM FEW200 FEW250 13/08 A3003 RMK AO2 SLP168 T01280083 10161 20117 55006 $,0,4.0,0,16090.0,0,0,0,
2026-04-28 10:53:00,METAR KLAX 281053Z 06003KT 10SM FEW200 13/09 A3003 RMK AO2 SLP167 T01280089 $,0,3.0,0,16090.0,0,0,0,
2026-04-28 09:53:00,METAR KLAX 280953Z 08003KT 10SM FEW200 13/08 A3003 RMK AO2 SLP167 T01330078 $,0,3.0,0,16090.0,0,0,0,
2026-04-28 08:53:00,METAR KLAX 280853Z COR 01003KT 10SM FEW200 14/07 A3005 RMK AO2 SLP173 T01440067 58003 $,0,3.0,0,16090.0,0,0,0,
2026-04-28 07:53:00,METAR KLAX 280753Z 00000KT 10SM FEW010 FEW200 15/07 A3006 RMK AO2 SLP179 FU FEW010 T01500072 401890144 $,0,0.0,0,16090.0,0,0,0,
2026-04-28 06:53:00,METAR KLAX 280653Z VRB03KT 10SM FEW012 FEW060 SCT200 16/08 A3007 RMK AO2 SLP180 T01560078 $,0,3.0,0,16090.0,0,0,0,
2026-04-28 05:53:00,METAR KLAX 280553Z VRB03KT 10SM FEW012 FEW060 SCT200 16/09 A3006 RMK AO2 SLP176 T01560089 10178 20156 51012 $,0,3.0,0,16090.0,0,0,0,
2026-04-28 04:53:00,METAR KLAX 280453Z 32004KT 10SM FEW050 16/10 A3005 RMK AO2 SLP175 T01560100 $,0,4.0,0,16090.0,0,0,0,
2026-04-28 03:53:00,METAR KLAX 280353Z 24009KT 10SM CLR 16/10 A3003 RMK AO2 SLP167 T01560100 $,0,9.0,0,16090.0,0,0,0,
2026-04-28 02:53:00,METAR KLAX 280253Z 24011KT 10SM FEW060 16/08 A3002 RMK AO2 SLP165 T01560083 53005,0,11.0,0,16090.0,0,0,0,
2026-04-28 01:53:00,METAR KLAX 280153Z 23010KT 10SM FEW020 FEW060 16/08 A3001 RMK AO2 SLP160 T01610083,0,10.0,0,16090.0,0,0,0,
2026-04-28 00:53:00,METAR KLAX 280053Z 25011G16KT 10SM FEW025 FEW090 17/08 A3001 RMK AO2 SLP159 T01720083,0,11.0,1,16090.0,0,0,0,
2026-04-27 23:53:00,METAR KLAX 272353Z 25010KT 10SM FEW030 FEW090 18/08 A3000 RMK AO2 SLP159 T01780078 10189 20178 55007,0,10.0,0,16090.0,0,0,0,
2026-04-27 22:53:00,METAR KLAX 272253Z 26014KT 10SM FEW030 FEW090 18/08 A3000 RMK AO2 SLP157 T01830083,0,14.0,0,16090.0,0,0,0,
2026-04-27 21:53:00,METAR KLAX 272153Z 26012KT 10SM FEW030 FEW090 18/08 A3002 RMK AO2 SLP163 T01830078,0,12.0,0,16090.0,0,0,0,
2026-04-27 20:53:00,METAR KLAX 272053Z 24014G20KT 10SM FEW010 FEW050 SCT075 19/06 A3002 RMK AO2 SLP166 TCU DSNT SE T01890061 56067,0,14.0,1,16090.0,0,0,0,DS
2026-04-27 19:53:00,METAR KLAX 271953Z COR 27015G25KT 10SM FEW010 FEW045 SCT070 18/09 A3003 RMK AO2 SLP169 TCU DSNT E T01780089,0,15.0,1,16090.0,0,0,0,DS
2026-04-27 18:53:00,METAR KLAX 271853Z 24011KT 10SM FEW010 FEW042 SCT070 18/08 A3004 RMK AO2 PRESFR SLP169 PRESRR T01780083 $,0,11.0,0,16090.0,0,0,0,
2026-04-27 17:53:00,METAR KLAX 271753Z 24006KT 10SM FEW010 FEW042 SCT070 18/07 A3001 RMK AO2 SLP230 T01780072 10178 20144 VISNO RWY24 $,0,6.0,0,16090.0,0,0,0,
2026-04-27 16:53:00,METAR KLAX 271653Z 27010KT 10SM FEW010 FEW040 SCT070 17/06 A3002 RMK AO2 SLP164 T01720061,0,10.0,0,16090.0,0,0,0,
2026-04-27 15:53:00,METAR KLAX 271553Z 28010KT 10SM FEW010 SCT035 SCT070 16/08 A3001 RMK AO2 SLP160 T01610083,0,10.0,0,16090.0,0,0,0,
2026-04-27 14:53:00,METAR KLAX 271453Z 27008KT 10SM FEW010 SCT026 BKN070 15/08 A3000 RMK AO2 SLP159 T01500083 53008,0,8.0,0,16090.0,0,0,0,
2026-04-27 13:53:00,METAR KLAX 271353Z 28008KT 10SM FEW010 SCT025 BKN070 14/09 A2998 RMK AO2 SLP152 T01440089 $,0,8.0,0,16090.0,0,0,0,
2026-04-27 12:53:00,METAR KLAX 271253Z 28008KT 10SM FEW012 FEW020 BKN070 15/08 A2997 RMK AO2 SLP148 T01500083 $,0,8.0,0,16090.0,0,0,0,
2026-04-27 11:53:00,METAR KLAX 271153Z 26011KT 10SM FEW020 OVC070 15/09 A2998 RMK AO2 SLP149 T01500089 10156 20144 56004 $,0,11.0,0,16090.0,0,0,0,
2026-04-27 10:53:00,METAR KLAX 271053Z 27009KT 10SM FEW020 OVC065 15/09 A2998 RMK AO2 SLP149 T01500094 $,0,9.0,0,16090.0,0,0,0,
2026-04-27 09:53:00,METAR KLAX 270953Z 26009KT 10SM FEW020 BKN065 15/08 A2998 RMK AO2 SLP149 T01500078 $,0,9.0,0,16090.0,0,0,0,
2026-04-27 08:53:00,METAR KLAX 270853Z 27009KT 10SM FEW020 BKN060 15/09 A2999 RMK AO2 SLP154 T01500094 58004 $,0,9.0,0,16090.0,0,0,0,
2026-04-27 07:53:00,METAR KLAX 270753Z 27009KT 10SM FEW020 BKN060 16/09 A3000 RMK AO2 SLP156 T01560089 401890128 $,0,9.0,0,16090.0,0,0,0,
2026-04-27 06:53:00,METAR KLAX 270653Z 27008KT 10SM FEW022 BKN060 16/08 A3000 RMK AO2 SLP158 T01560078 $,0,8.0,0,16090.0,0,0,0,
2026-04-27 05:53:00,METAR KLAX 270553Z 25007KT 10SM FEW022 BKN060 16/09 A3000 RMK AO2 SLP157 T01560089 51010 $,0,7.0,0,16090.0,0,0,0,
2026-04-27 04:53:00,METAR KLAX 270453Z 24006KT 10SM FEW025 FEW060 15/09 A3000 RMK AO2 SLP157 T01500094 $,0,6.0,0,16090.0,0,0,0,
2026-04-27 03:53:00,METAR KLAX 270353Z 24009KT 10SM FEW025 FEW060 15/08 A2998 RMK AO2 SLP152 T01500083 $,0,9.0,0,16090.0,0,0,0,
2026-04-27 02:53:00,METAR KLAX 270253Z 24013KT 10SM FEW028 15/08 A2997 RMK AO2 SLP148 T01500078 53004 $,0,13.0,0,16090.0,0,0,0,
2026-04-27 01:53:00,METAR KLAX 270153Z 25012KT 10SM FEW028 FEW070 16/09 A2997 RMK AO2 SLP146 T01610089 $,0,12.0,0,16090.0,0,0,0,
2026-04-27 00:53:00,METAR KLAX 270053Z 23017KT 10SM FEW028 FEW090 17/09 A2996 RMK AO2 SLP145 T01720094 $,0,17.0,0,16090.0,0,0,0,
2026-04-26 23:53:00,METAR KLAX 262353Z 25018KT 10SM FEW028 FEW090 18/09 A2996 RMK AO2 SLP144 T01780094 58003 $,0,18.0,0,16090.0,0,0,0,
2026-04-26 22:53:00,METAR KLAX 262253Z 24019G25KT 10SM FEW024 FEW090 18/08 A2996 RMK AO2 SLP143 T01830083 $,0,19.0,1,16090.0,0,0,0,
2026-04-26 21:53:00,METAR KLAX 262153Z 23020KT 10SM FEW024 FEW060 19/08 A2997 RMK AO2 PK WND 26028/2110 SLP146 T01890078 $,0,20.0,0,16090.0,0,0,0,
2026-04-26 20:53:00,METAR KLAX 262053Z 25019G30KT 10SM SCT024 SCT055 19/07 A2996 RMK AO2 PK WND 25030/2051 SLP146 T01890072 53003 $,0,19.0,1,16090.0,0,0,0,
2026-04-26 19:53:00,METAR KLAX 261953Z 24019G26KT 10SM SCT024 SCT055 18/09 A2996 RMK AO2 PK WND 27027/1910 SLP144 T01780089 $,0,19.0,1,16090.0,0,0,0,
2026-04-26 18:53:00,METAR KLAX 261853Z 23014KT 10SM SCT024 SCT055 17/09 A2996 RMK AO2 SLP144 T01720094 $,0,14.0,0,16090.0,0,0,0,
2026-04-26 17:53:00,METAR KLAX 261753Z 27012KT 10SM SCT024 SCT050 17/08 A2995 RMK AO2 SLP142 T01720083 10172 20133 51011 $,0,12.0,0,16090.0,0,0,0,
2026-04-26 16:53:00,METAR KLAX 261653Z 26013KT 10SM SCT029 SCT050 16/10 A2994 RMK AO2 SLP139 T01610100 $,0,13.0,0,16090.0,0,0,0,
2026-04-26 15:53:00,METAR KLAX 261553Z COR 27008KT 10SM SCT028 SCT046 16/08 A2994 RMK AO2 SLP137 T01560083 $,0,8.0,0,16090.0,0,0,0,
2026-04-26 15:11:00,SPECI KLAX 261511Z 27008KT 10SM FEW013 SCT024 BKN044 14/09 A2992 RMK AO2 T01440089 $,0,8.0,0,16090.0,0,0,0,
2026-04-26 14:53:00,METAR KLAX 261453Z 28006KT 10SM FEW013 BKN024 BKN044 14/09 A2992 RMK AO2 SLP132 T01390089 53017 $,0,6.0,0,16090.0,0,0,0,
2026-04-26 14:23:00,SPECI KLAX 261423Z 32008G18KT 10SM FEW012 BKN024 BKN042 14/08 A2992 RMK AO2 T01390083 $,0,8.0,1,16090.0,0,0,0,
2026-04-26 13:53:00,METAR KLAX 261353Z 28013KT 10SM SCT012 SCT025 14/09 A2991 RMK AO2 SLP126 T01390094 $,0,13.0,0,16090.0,0,0,0,
2026-04-26 12:53:00,METAR KLAX 261253Z 28013KT 10SM SCT012 SCT025 BKN049 13/09 A2989 RMK AO2 SLP120 T01330094 $,0,13.0,0,16090.0,0,0,0,
2026-04-26 11:53:00,METAR KLAX 261153Z 28010KT 10SM FEW012 FEW025 BKN049 13/10 A2987 RMK AO2 SLP115 60029 70030 T01330100 10144 20128 55002 $,0,10.0,0,16090.0,0,0,0,
2026-04-26 10:53:00,METAR KLAX 261053Z 26010KT 10SM FEW012 FEW025 BKN049 14/09 A2987 RMK AO2 SLP114 T01390089 $,0,10.0,0,16090.0,0,0,0,
2026-04-26 09:53:00,METAR KLAX 260953Z 27011KT 10SM FEW012 SCT025 OVC049 14/09 A2987 RMK AO2 SLP114 T01390094 $,0,11.0,0,16090.0,0,0,0,
2026-04-26 08:53:00,METAR KLAX 260853Z 23005KT 10SM FEW012 BKN025 OVC049 13/12 A2988 RMK AO2 RAE38 SLP117 P0018 60029 T01330117 58007,0,5.0,0,16090.0,0,0,0,
2026-04-26 07:53:00,METAR KLAX 260753Z 22006KT 10SM -RA SCT027 BKN033 OVC055 13/12 A2989 RMK AO2 SLP120 P0009 T01330117 401890128,0,6.0,0,16090.0,0,0,0,-RA
2026-04-26 07:51:00,SPECI KLAX 260751Z 21005KT 10SM -RA SCT027 BKN033 OVC055 13/12 A2989 RMK AO2 P0009,0,5.0,0,16090.0,0,0,0,-RA
2026-04-26 07:27:00,SPECI KLAX 260727Z 23007KT 7SM -RA SCT011 BKN018 BKN031 13/12 A2990 RMK AO2 P0008 T01280117,0,7.0,0,11263.0,0,0,0,-RA
2026-04-26 07:16:00,SPECI KLAX 260716Z COR 210/07 2 1/2SM R25L/5500VP6000FT RA BR SCT011 BKN018 OVC050 13/12 A2990 RMK AO2 P0002 T01330117,0,,0,4022.0,0,0,1,"BR,RA"
2026-04-26 06:53:00,METAR KLAX 260653Z 24004KT 10SM -RA SCT013 BKN020 OVC055 13/12 A2990 RMK AO2 RAB0555 SLP124 P0002 T01330117,0,4.0,0,16090.0,0,0,0,"-RA,RA"
2026-04-26 05:53:00,METAR KLAX 260553Z 22007KT 10SM BKN019 BKN034 OVC085 14/11 A2990 RMK AO2 RAB21E39 SLP123 P0001 60001 T01440111 10161 20139 50004,0,7.0,0,16090.0,0,0,0,RA
2026-04-26 04:53:00,METAR KLAX 260453Z 27012KT 10SM SCT020 BKN070 OVC110 15/10 A2991 RMK AO2 SLP125 T01500100,0,12.0,0,16090.0,0,0,0,
2026-04-26 03:53:00,METAR KLAX 260353Z 27011KT 10SM SCT019 BKN075 OVC110 15/10 A2990 RMK AO2 SLP124 T01500100,0,11.0,0,16090.0,0,0,0,
2026-04-26 02:53:00,METAR KLAX 260253Z 24008KT 10SM SCT020 BKN031 OVC050 15/10 A2989 RMK AO2 SLP120 T01500100 51003,0,8.0,0,16090.0,0,0,0,
2026-04-26 01:53:00,METAR KLAX 260153Z 25009KT 10SM FEW022 BKN035 OVC100 16/10 A2988 RMK AO2 SLP119 T01560100,0,9.0,0,16090.0,0,0,0,
2026-04-26 00:53:00,METAR KLAX 260053Z 25011KT 10SM SCT023 BKN035 BKN060 BKN200 16/10 A2988 RMK AO2 SLP119 T01560100,0,11.0,0,16090.0,0,0,0,
2026-04-25 23:53:00,METAR KLAX 252353Z 26014KT 10SM FEW020 SCT045 BKN070 OVC200 16/10 A2988 RMK AO2 RAB29E41 SLP116 P0000 60000 T01610100 10189 20156 58005,0,14.0,0,16090.0,0,0,0,RA
2026-04-25 22:53:00,METAR KLAX 252253Z 24010G19KT 10SM FEW022 SCT037 BKN120 OVC200 17/10 A2989 RMK AO2 SLP120 T01670100,0,10.0,1,16090.0,0,0,0,
2026-04-25 21:53:00,METAR KLAX 252153Z 22012G18KT 10SM FEW023 SCT040 BKN120 BKN200 17/09 A2989 RMK AO2 SLP121 T01670094,0,12.0,1,16090.0,0,0,0,
2026-04-25 20:53:00,METAR KLAX 252053Z 22012G19KT 10SM FEW022 SCT040 BKN110 BKN200 17/09 A2989 RMK AO2 PK WND 24026/1958 SLP121 T01720094 56009,0,12.0,1,16090.0,0,0,0,
2026-04-25 19:53:00,METAR KLAX 251953Z 20013G23KT 10SM FEW022 BKN040 BKN150 BKN200 18/10 A2990 RMK AO2 PK WND 18030/1937 SLP124 T01830100,0,13.0,1,16090.0,0,0,0,
2026-04-25 18:53:00,METAR KLAX 251853Z 21008KT 10SM FEW022 SCT026 BKN042 BKN200 18/09 A2991 RMK AO2 SLP127 T01780089,0,8.0,0,16090.0,0,0,0,
2026-04-25 17:53:00,METAR KLAX 251753Z 19008KT 10SM FEW009 FEW030 BKN045 BKN200 18/09 A2992 RMK AO2 SLP130 FU FEW009 T01780094 10183 20150 51002,0,8.0,0,16090.0,0,0,0,
2026-04-25 17:50:00,SPECI KLAX 251750Z VRB03KT 10SM FEW009 FEW030 BKN045 BKN200 18/10 A2992 RMK AO2 FU FEW009,0,3.0,0,16090.0,0,0,0,
2026-04-25 16:53:00,METAR KLAX 251653Z COR VRB05KT 10SM SCT023 SCT030 BKN050 BKN200 17/09 A2992 RMK AO2 SLP129 T01670094,0,5.0,0,16090.0,0,0,0,
2026-04-25 15:53:00,METAR KLAX 251553Z 24008KT 10SM FEW020 SCT025 BKN030 BKN200 17/10 A2992 RMK AO2 SLP131 T01670100,0,8.0,0,16090.0,0,0,0,
2026-04-25 15:50:00,SPECI KLAX 251550Z 24009KT 10SM FEW020 SCT025 BKN030 BKN200 16/10 A2992 RMK AO2,0,9.0,0,16090.0,0,0,0,
2026-04-25 14:53:00,METAR KLAX 251453Z 24009KT 10SM SCT019 BKN029 BKN045 BKN200 16/10 A2992 RMK AO2 SLP128 T01560100 53010,0,9.0,0,16090.0,0,0,0,
2026-04-25 13:53:00,METAR KLAX 251353Z 19006KT 10SM SCT017 BKN028 BKN037 BKN200 15/11 A2990 RMK AO2 SLP122 T01500106 $,0,6.0,0,16090.0,0,0,0,
2026-04-25 12:53:00,METAR KLAX 251253Z 28003KT 10SM BKN016 BKN035 BKN200 15/11 A2988 RMK AO2 SLP116 T01500111 $,0,3.0,0,16090.0,0,0,0,
2026-04-25 11:53:00,METAR KLAX 251153Z 18004KT 10SM SCT014 BKN021 BKN030 16/12 A2988 RMK AO2 SLP118 T01560122 10156 20150 53004 $,0,4.0,0,16090.0,0,0,0,
2026-04-25 10:53:00,METAR KLAX 251053Z 21003KT 10SM SCT021 BKN029 BKN034 15/12 A2988 RMK AO2 SLP117 T01500117 $,0,3.0,0,16090.0,0,0,0,
2026-04-25 09:53:00,METAR KLAX 250953Z 17003KT 10SM BKN020 BKN220 15/12 A2987 RMK AO2 SLP113 T01500117 $,0,3.0,0,16090.0,0,0,0,
2026-04-25 09:51:00,SPECI KLAX 250951Z VRB04KT 10SM BKN020 BKN220 15/12 A2987 RMK AO2 $,0,4.0,0,16090.0,0,0,0,
2026-04-25 08:53:00,METAR KLAX 250853Z 18004KT 10SM FEW012 SCT220 BKN280 15/12 A2988 RMK AO2 SLP114 T01500117 58007 $,0,4.0,0,16090.0,0,0,0,
2026-04-25 07:53:00,METAR KLAX 250753Z 19008KT 10SM FEW012 FEW220 SCT280 15/12 A2989 RMK AO2 SLP119 T01500117 402330139 $,0,8.0,0,16090.0,0,0,0,
2026-04-25 06:53:00,METAR KLAX 250653Z 22006KT 10SM FEW012 FEW220 SCT280 16/11 A2989 RMK AO2 SLP118 T01560111 $,0,6.0,0,16090.0,0,0,0,
2026-04-25 05:53:00,METAR KLAX 250553Z 23008KT 10SM FEW012 FEW220 SCT280 16/12 A2990 RMK AO2 SLP121 T01560122 10194 20156 50012 $,0,8.0,0,16090.0,0,0,0,
2026-04-25 04:53:00,METAR KLAX 250453Z 23007KT 10SM FEW013 SCT280 16/13 A2990 RMK AO2 SLP123 T01560128 $,0,7.0,0,16090.0,0,0,0,
2026-04-25 03:53:00,METAR KLAX 250353Z 21006KT 10SM FEW013 FEW075 SCT280 16/13 A2988 RMK AO2 SLP118 T01610133 $,0,6.0,0,16090.0,0,0,0,
2026-04-25 02:53:00,METAR KLAX 250253Z 25007KT 10SM FEW012 SCT075 SCT280 17/12 A2986 RMK AO2 SLP111 T01670122 53002 $,0,7.0,0,16090.0,0,0,0,
2026-04-25 01:53:00,METAR KLAX 250153Z 28009KT 10SM SCT012 SCT075 BKN270 17/13 A2986 RMK AO2 SLP109 T01720133 $,0,9.0,0,16090.0,0,0,0,
2026-04-25 00:53:00,METAR KLAX 250053Z 26009KT 10SM FEW012 FEW080 SCT160 SCT270 18/13 A2986 RMK AO2 SLP110 T01780128 $,0,9.0,0,16090.0,0,0,0,
2026-04-24 23:53:00,METAR KLAX 242353Z 26012KT 10SM FEW012 FEW080 SCT160 19/13 A2986 RMK AO2 SLP109 T01890128 10233 20189 56011 $,0,12.0,0,16090.0,0,0,0,
2026-04-24 22:53:00,METAR KLAX 242253Z 24011KT 10SM FEW035 SCT100 SCT140 19/13 A2986 RMK AO2 SLP112 T01940128 $,0,11.0,0,16090.0,0,0,0,
2026-04-24 21:53:00,METAR KLAX 242153Z 24014KT 10SM FEW010 FEW035 SCT100 BKN140 BKN250 21/12 A2988 RMK AO2 SLP116 T02110117 $,0,14.0,0,16090.0,0,0,0,
2026-04-24 20:53:00,METAR KLAX 242053Z 23007G17KT 10SM FEW010 FEW035 SCT120 SCT160 BKN250 22/12 A2989 RMK AO2 SLP119 T02220122 56014 $,0,7.0,1,16090.0,0,0,0,
2026-04-24 19:53:00,METAR KLAX 241953Z COR 12003KT 10SM FEW010 FEW160 23/09 A2989 RMK AO2 SLP121 T02280089 $,0,3.0,0,16090.0,0,0,0,
2026-04-24 18:53:00,METAR KLAX 241853Z VRB06KT 10SM FEW018 SCT150 22/11 A2991 RMK AO2 SLP127 T02220106 $,0,6.0,0,16090.0,0,0,0,
2026-04-24 17:53:00,METAR KLAX 241753Z 16006KT 10SM FEW016 SCT140 22/11 A2993 RMK AO2 SLP133 T02170111 10217 20139 58001 $,0,6.0,0,16090.0,0,0,0,
2026-04-24 16:53:00,METAR KLAX 241653Z COR 09006KT 10SM FEW015 SCT027 BKN160 20/12 A2993 RMK AO2 SLP133 T02000117 $,0,6.0,0,16090.0,0,0,0,
2026-04-24 15:53:00,METAR KLAX 241553Z 12008KT 10SM FEW014 SCT025 BKN160 18/12 A2994 RMK AO2 SLP135 T01830122 $,0,8.0,0,16090.0,0,0,0,
2026-04-24 14:53:00,METAR KLAX 241453Z 08007KT 10SM FEW010 FEW019 SCT160 BKN200 17/12 A2993 RMK AO2 SLP135 T01670122 53010 $,0,7.0,0,16090.0,0,0,0,
2026-04-24 13:53:00,METAR KLAX 241353Z 09008KT 10SM FEW010 SCT018 SCT160 BKN200 15/11 A2992 RMK AO2 SLP131 T01500111 $,0,8.0,0,16090.0,0,0,0,
2026-04-24 12:53:00,METAR KLAX 241253Z 07004KT 10SM FEW010 SCT016 SCT170 BKN250 15/12 A2990 RMK AO2 SLP124 T01500117 $,0,4.0,0,16090.0,0,0,0,
2026-04-24 11:53:00,METAR KLAX 241153Z 08004KT 10SM FEW011 FEW018 SCT200 SCT250 14/11 A2991 RMK AO2 SLP125 T01390111 10172 20139 55005 $,0,4.0,0,16090.0,0,0,0,
2026-04-24 10:53:00,METAR KLAX 241053Z 08004KT 10SM FEW011 FEW018 SCT200 SCT250 14/12 A2991 RMK AO2 SLP125 T01440117 $,0,4.0,0,16090.0,0,0,0,
2026-04-24 09:53:00,METAR KLAX 240953Z 08004KT 10SM FEW200 SCT250 15/12 A2991 RMK AO2 SLP127 T01500117 $,0,4.0,0,16090.0,0,0,0,
2026-04-24 08:53:00,METAR KLAX 240853Z 00000KT 10SM SCT250 16/12 A2992 RMK AO2 SLP129 T01610122 58003 $,0,0.0,0,16090.0,0,0,0,
2026-04-24 07:53:00,METAR KLAX 240753Z 06003KT 10SM FEW250 16/12 A2993 RMK AO2 SLP132 T01610122 402220122 $,0,3.0,0,16090.0,0,0,0,
2026-04-24 06:53:00,METAR KLAX 240653Z 24003KT 10SM FEW250 16/13 A2993 RMK AO2 SLP134 T01610128 $,0,3.0,0,16090.0,0,0,0,
2026-04-24 05:53:00,METAR KLAX 240553Z 21003KT 10SM FEW250 17/13 A2993 RMK AO2 SLP132 T01670128 10206 20161 50010 $,0,3.0,0,16090.0,0,0,0,
2026-04-24 04:53:00,METAR KLAX 240453Z 22006KT 10SM CLR 17/13 A2993 RMK AO2 SLP134 T01670128 $,0,6.0,0,16090.0,0,0,0,
2026-04-24 03:53:00,METAR KLAX 240353Z 24008KT 10SM FEW250 18/11 A2991 RMK AO2 SLP129 T01780106 $,0,8.0,0,16090.0,0,0,0,
2026-04-24 02:53:00,METAR KLAX 240253Z 23009KT 10SM FEW250 17/09 A2990 RMK AO2 SLP123 T01720094 56004 $,0,9.0,0,16090.0,0,0,0,
2026-04-24 01:53:00,METAR KLAX 240153Z 25011KT 10SM SCT250 18/10 A2990 RMK AO2 SLP125 T01780100 $,0,11.0,0,16090.0,0,0,0,
2026-04-24 00:53:00,METAR KLAX 240053Z 27011KT 10SM BKN250 19/11 A2990 RMK AO2 SLP125 T01940111 $,0,11.0,0,16090.0,0,0,0,
2026-04-23 23:53:00,METAR KLAX 232353Z 25014KT 10SM FEW095 FEW250 20/10 A2991 RMK AO2 SLP127 T02000100 10222 20189 56018 $,0,14.0,0,16090.0,0,0,0,
2026-04-23 22:53:00,METAR KLAX 232253Z 25013KT 10SM FEW095 FEW250 21/10 A2992 RMK AO2 SLP130 T02060100 $,0,13.0,0,16090.0,0,0,0,
2026-04-23 21:53:00,METAR KLAX 232153Z 27013KT 10SM FEW095 FEW250 21/08 A2994 RMK AO2 SLP137 T02060083 $,0,13.0,0,16090.0,0,0,0,
2026-04-23 20:53:00,METAR KLAX 232053Z 24014KT 10SM FEW095 FEW240 SCT290 21/11 A2996 RMK AO2 SLP145 T02060106 56015 $,0,14.0,0,16090.0,0,0,0,
2026-04-23 19:53:00,METAR KLAX 231953Z 25010KT 10SM FEW220 FEW280 22/11 A2997 RMK AO2 SLP148 T02170106 $,0,10.0,0,16090.0,0,0,0,
2026-04-23 18:53:00,METAR KLAX 231853Z VRB03KT 10SM FEW220 FEW280 21/09 A2999 RMK AO2 SLP155 T02110089 $,0,3.0,0,16090.0,0,0,0,
2026-04-23 17:53:00,METAR KLAX 231753Z 32003KT 10SM FEW019 SCT240 SCT280 19/10 A3001 RMK AO2 SLP160 T01940100 10206 20122 58003 $,0,3.0,0,16090.0,0,0,0,
2026-04-23 16:53:00,METAR KLAX 231653Z 10004KT 10SM FEW019 SCT240 SCT280 18/11 A3002 RMK AO2 SLP164 T01780106 $,0,4.0,0,16090.0,0,0,0,
2026-04-23 15:53:00,METAR KLAX 231553Z VRB06KT 10SM FEW018 FEW190 SCT240 SCT280 17/09 A3002 RMK AO2 SLP163 T01720094 $,0,6.0,0,16090.0,0,0,0,
2026-04-23 14:53:00,METAR KLAX 231453Z 07007KT 10SM FEW018 SCT190 SCT230 BKN270 16/09 A3002 RMK AO2 SLP164 T01560094 53009,0,7.0,0,16090.0,0,0,0,
2026-04-23 13:53:00,METAR KLAX 231353Z 08004KT 10SM FEW016 SCT190 SCT230 BKN270 14/09 A3001 RMK AO2 SLP162 T01390094,0,4.0,0,16090.0,0,0,0,
2026-04-23 12:53:00,METAR KLAX 231253Z 07004KT 10SM FEW014 FEW050 SCT150 SCT250 13/09 A3000 RMK AO2 SLP155 T01330089 $,0,4.0,0,16090.0,0,0,0,
2026-04-23 11:54:00,METAR KLAX 231154Z AUTO 00000KT 13/09 A2999 RMK AO2 SLP155 6//// 7//// T01330094 10161 20133 RVRNO CHINO RWY24 VISNO RWY24 $,0,0.0,0,,0,0,0,
2026-04-23 11:53:00,METAR KLAX 231153Z COR 08004KT 10SM FEW012 FEW250 13/09 A2999 RMK AO2 SLP155 T01330094 10161 20133,0,4.0,0,16090.0,0,0,0,
2026-04-23 10:53:00,METAR KLAX 231053Z 09006KT 10SM FEW012 FEW250 12/10 A3000,0,6.0,0,16090.0,0,0,0,
2026-04-23 09:53:00,METAR KLAX 230953Z VRB03KT 10SM FEW012 FEW250 14/11 A2999 RMK AO2 SLP155 T01390106 $,0,3.0,0,16090.0,0,0,0,
2026-04-23 08:53:00,METAR KLAX 230853Z 36004KT 10SM FEW250 15/12 A3001 RMK AO2 SLP161 T01500117 58008 $,0,4.0,0,16090.0,0,0,0,
2026-04-23 07:53:00,METAR KLAX 230753Z 25009KT 10SM FEW250 16/12 A3003 RMK AO2 SLP166 T01560117 401940128 $,0,9.0,0,16090.0,0,0,0,
2026-04-23 06:53:00,METAR KLAX 230653Z 26009KT 10SM FEW250 16/12 A3004 RMK AO2 SLP169 T01560117 $,0,9.0,0,16090.0,0,0,0,
2026-04-23 05:53:00,METAR KLAX 230553Z 23006KT 10SM FEW250 16/12 A3004 RMK AO2 SLP170 T01560117 10189 20156 50004 $,0,6.0,0,16090.0,0,0,0,
2026-04-23 04:53:00,METAR KLAX 230453Z 27013KT 10SM CLR 16/12 A3005 RMK AO2 SLP172 T01610117 $,0,13.0,0,16090.0,0,0,0,
2026-04-23 03:53:00,METAR KLAX 230353Z 26017KT 10SM CLR 16/11 A3004 RMK AO2 SLP170 T01610111 $,0,17.0,0,16090.0,0,0,0,
2026-04-23 02:53:00,METAR KLAX 230253Z 26014KT 10SM FEW050 FEW250 17/11 A3002 RMK AO2 SLP165 T01670111 56010 $,0,14.0,0,16090.0,0,0,0,
2026-04-23 01:53:00,METAR KLAX 230153Z 26017KT 10SM FEW060 17/11 A3003 RMK AO2 SLP168 T01720106 $,0,17.0,0,16090.0,0,0,0,
2026-04-23 00:53:00,METAR KLAX 230053Z 25016KT 10SM FEW060 FEW250 18/09 A3003 RMK AO2 SLP170 T01830094 $,0,16.0,0,16090.0,0,0,0,
2026-04-22 23:53:00,METAR KLAX 222353Z 24015G25KT 10SM FEW010 FEW100 SCT250 18/09 A3005 RMK AO2 PK WND 23026/2320 SLP177 T01830089 10194 20183 57023 $,0,15.0,1,16090.0,0,0,0,
2026-04-22 22:53:00,METAR KLAX 222253Z 26016G26KT 10SM FEW010 FEW100 SCT250 18/09 A3007 RMK AO2 PK WND 25026/2245 SLP183 T01830089 $,0,16.0,1,16090.0,0,0,0,
2026-04-22 21:53:00,METAR KLAX 222153Z 25015G24KT 10SM FEW010 FEW100 SCT250 18/08 A3010 RMK AO2 SLP192 T01830083 $,0,15.0,1,16090.0,0,0,0,
2026-04-22 20:53:00,METAR KLAX 222053Z 26014KT 10SM FEW010 FEW180 19/09 A3012 RMK AO2 SLP199 T01890089 58013 $,0,14.0,0,16090.0,0,0,0,
2026-04-22 19:53:00,METAR KLAX 221953Z 23012KT 10SM FEW010 FEW025 SCT160 SCT250 18/08 A3014 RMK AO2 SLP204 T01830083 $,0,12.0,0,16090.0,0,0,0,
2026-04-22 18:53:00,METAR KLAX 221853Z 24011G18KT 10SM FEW019 FEW025 SCT150 SCT250 18/09 A3015 RMK AO2 SLP210 T01830094 $,0,11.0,1,16090.0,0,0,0,
2026-04-22 17:53:00,METAR KLAX 221753Z 26011KT 10SM FEW018 FEW025 SCT140 SCT250 19/09 A3016 RMK AO2 SLP213 T01890094 10189 20128 51007 $,0,11.0,0,16090.0,0,0,0,
2026-04-22 16:53:00,METAR KLAX 221653Z 23007KT 10SM CLR 18/09 A3015 RMK AO2 SLP210 T01780089 $,0,7.0,0,16090.0,0,0,0,
2026-04-22 15:53:00,METAR KLAX 221553Z 25007KT 220V290 10SM FEW018 FEW070 SCT160 BKN250 17/09 A3015 RMK AO2 SLP208 T01720089 $,0,7.0,0,16090.0,0,0,0,
2026-04-22 14:53:00,METAR KLAX 221453Z 33003KT 10SM FEW015 FEW060 SCT160 BKN250 16/09 A3014 RMK AO2 SLP205 T01560089 53010 $,0,3.0,0,16090.0,0,0,0,
2026-04-22 13:53:00,METAR KLAX 221353Z VRB04KT 10SM FEW014 FEW050 BKN160 BKN250 14/09 A3013 RMK AO2 SLP201 T01390094 $,0,4.0,0,16090.0,0,0,0,
2026-04-22 12:53:00,METAR KLAX 221253Z 01005KT 10SM FEW012 FEW050 SCT200 SCT250 13/09 A3012 RMK AO2 SLP198 T01280094 $,0,5.0,0,16090.0,0,0,0,
2026-04-22 11:53:00,METAR KLAX 221153Z 00000KT 10SM FEW014 FEW020 SCT060 SCT150 13/09 A3011 RMK AO2 SLP194 70001 T01280094 10161 20128 55001 $,0,0.0,0,16090.0,0,0,0,
2026-04-22 10:53:00,METAR KLAX 221053Z 00000KT 10SM FEW012 FEW020 SCT050 SCT150 14/08 A3010 RMK AO2 SLP191 T01390083 $,0,0.0,0,16090.0,0,0,0,
2026-04-22 09:53:00,METAR KLAX 220953Z 33003KT 10SM FEW012 FEW020 SCT050 SCT150 14/09 A3011 RMK AO2 SLP193 T01440089 $,0,3.0,0,16090.0,0,0,0,
2026-04-22 08:53:00,METAR KLAX 220853Z 27005KT 10SM FEW012 FEW020 SCT050 SCT150 15/10 A3011 RMK AO2 SLP194 T01500100 50004 $,0,5.0,0,16090.0,0,0,0,
2026-04-22 07:53:00,METAR KLAX 220753Z VRB04KT 10SM FEW015 FEW020 SCT050 SCT150 16/11 A3011 RMK AO2 SLP196 T01560111 402110133 $,0,4.0,0,16090.0,0,0,0,
2026-04-22 06:53:00,METAR KLAX 220653Z 28008KT 10SM FEW015 FEW020 SCT050 16/12 A3011 RMK AO2 SLP194 T01560117 $,0,8.0,0,16090.0,0,0,0,
2026-04-22 05:53:00,METAR KLAX 220553Z 27008KT 10SM FEW015 FEW020 SCT050 16/12 A3010 RMK AO2 SLP191 T01610117 10194 20161 51016 $,0,8.0,0,16090.0,0,0,0,
2026-04-22 04:53:00,METAR KLAX 220453Z 27010KT 10SM FEW018 16/12 A3010 RMK AO2 SLP191 T01610117 $,0,10.0,0,16090.0,0,0,0,
2026-04-22 03:53:00,METAR KLAX 220353Z 26012KT 10SM FEW018 17/12 A3008 RMK AO2 SLP184 T01670117 $,0,12.0,0,16090.0,0,0,0,
2026-04-22 02:53:00,METAR KLAX 220253Z 25012KT 10SM FEW017 FEW050 17/12 A3005 RMK AO2 SLP176 T01670117 51003 $,0,12.0,0,16090.0,0,0,0,
2026-04-22 01:53:00,METAR KLAX 220153Z 26012KT 10SM FEW017 FEW050 SCT250 17/12 A3005 RMK AO2 SLP174 T01720117 $,0,12.0,0,16090.0,0,0,0,
2026-04-22 00:53:00,METAR KLAX 220053Z 25012KT 10SM FEW016 FEW025 SCT060 18/13 A3005 RMK AO2 SLP175 T01830133 $,0,12.0,0,16090.0,0,0,0,
2026-04-21 23:53:00,METAR KLAX 212353Z 27014KT 10SM FEW018 FEW025 SCT060 19/13 A3004 RMK AO2 RAB35E44 SLP172 P0000 60000 T01940128 10211 20161 55004 $,0,14.0,0,16090.0,0,0,0,RA
2026-04-21 22:53:00,METAR KLAX 212253Z 20014KT 10SM FEW029 FEW055 21/13 A3004 RMK AO2 SLP170 T02060128 $,0,14.0,0,16090.0,0,0,0,
2026-04-21 21:53:00,METAR KLAX 212153Z 22011G18KT 10SM FEW010 SCT025 BKN048 BKN200 20/12 A3005 RMK AO2 SLP174 T02000122 $,0,11.0,1,16090.0,0,0,0,
2026-04-21 20:53:00,METAR KLAX 212053Z 21010G15KT 10SM SCT010 BKN032 BKN140 BKN180 21/12 A3005 RMK AO2 SLP175 60000 T02110117 56004 $,0,10.0,1,16090.0,0,0,0,
2026-04-21 19:53:00,METAR KLAX 211953Z 23008KT 8SM FEW011 BKN030 BKN140 18/11 A3005 RMK AO2 SLP176 T01830111 $,0,8.0,0,12872.0,0,0,0,
2026-04-21 19:44:00,SPECI KLAX 211944Z 17006KT 8SM FEW011 OVC029 18/11 A3005 RMK AO2 T01830111 $,0,6.0,0,12872.0,0,0,0,
2026-04-21 18:53:00,METAR KLAX 211853Z 00000KT 8SM FEW012 SCT023 OVC035 18/11 A3006 RMK AO2 RAE04 SLP177 P0000 T01780111 $,0,0.0,0,12872.0,0,0,0,
2026-04-21 17:53:00,METAR KLAX 211753Z 19004KT 8SM -RA FEW011 SCT027 OVC037 17/12 A3007 RMK AO2 RAB30 SLP180 P0001 60001 T01670117 10189 20133 53014 $,0,4.0,0,12872.0,0,0,0,-RA
2026-04-21 17:35:00,SPECI KLAX 211735Z COR 16003KT 6SM -RA BR FEW014 BKN038 OVC048 18/11 A3006 RMK AO2 RAB30 P0000 T01780106 $,0,3.0,0,9654.0,0,0,1,"-RA,BR"
2026-04-21 16:53:00,METAR KLAX 211653Z 12009KT 10SM FEW025 BKN055 BKN160 BKN250 19/10 A3004 RMK AO2 SLP173 T01890100 $,0,9.0,0,16090.0,0,0,0,
2026-04-21 15:53:00,METAR KLAX 211553Z 13004KT 10SM FEW020 BKN035 BKN160 BKN250 17/12 A3004 RMK AO2 SLP171 T01670117 $,0,4.0,0,16090.0,0,0,0,
2026-04-21 14:53:00,METAR KLAX 211453Z 09007KT 10SM FEW017 SCT025 BKN160 BKN250 16/12 A3002 RMK AO2 SLP165 T01610117 53006 $,0,7.0,0,16090.0,0,0,0,
2026-04-21 14:17:00,SPECI KLAX 211417Z 09007KT 10SM FEW017 SCT025 BKN160 14/12 A3002 RMK AO2 T01440122 $,0,7.0,0,16090.0,0,0,0,
2026-04-21 13:53:00,METAR KLAX 211353Z COR 10005KT 8SM SCT016 BKN026 BKN160 14/12 A3001 RMK AO2 SLP162 T01390122 $,0,5.0,0,12872.0,0,0,0,
2026-04-21 13:43:00,SPECI KLAX 211343Z 09005KT 10SM SCT016 BKN027 BKN160 13/12 A3001 RMK AO2 T01330117 $,0,5.0,0,16090.0,0,0,0,
2026-04-21 12:53:00,METAR KLAX 211253Z 08004KT 10SM FEW010 FEW019 SCT070 SCT160 14/12 A3001 RMK AO2 SLP159 T01390117 $,0,4.0,0,16090.0,0,0,0,
2026-04-21 11:53:00,METAR KLAX 211153Z 00000KT 10SM FEW012 FEW020 SCT160 SCT250 15/12 A3001 RMK AO2 SLP159 T01500117 10156 20144 56005 $,0,0.0,0,16090.0,0,0,0,
2026-04-21 10:53:00,METAR KLAX 211053Z 05003KT 10SM FEW015 SCT020 SCT160 BKN250 14/12 A3001 RMK AO2 SLP160 T01440117 $,0,3.0,0,16090.0,0,0,0,
2026-04-21 10:35:00,SPECI KLAX 211035Z 04003KT 10SM FEW015 SCT018 SCT250 15/12 A3001 RMK AO2 T01500122 $,0,3.0,0,16090.0,0,0,0,
2026-04-21 09:53:00,METAR KLAX 210953Z 33003KT 10SM FEW015 BKN018 BKN250 15/12 A3001 RMK AO2 SLP160 T01500122 $,0,3.0,0,16090.0,0,0,0,
2026-04-21 09:42:00,SPECI KLAX 210942Z 28005KT 10SM FEW015 BKN018 BKN250 15/12 A3001 RMK AO2 T01500117 $,0,5.0,0,16090.0,0,0,0,
2026-04-21 08:53:00,METAR KLAX 210853Z 26004KT 10SM FEW016 SCT020 BKN250 15/12 A3002 RMK AO2 SLP165 T01500117 50001 $,0,4.0,0,16090.0,0,0,0,
2026-04-21 07:53:00,METAR KLAX 210753Z 25005KT 10SM FEW018 SCT250 15/12 A3003 RMK AO2 SLP167 T01500122 402110133 $,0,5.0,0,16090.0,0,0,0,
2026-04-21 06:53:00,METAR KLAX 210653Z 25007KT 10SM FEW018 SCT250 16/12 A3002 RMK AO2 SLP163 T01560122 $,0,7.0,0,16090.0,0,0,0,
2026-04-21 05:53:00,METAR KLAX 210553Z 25006KT 10SM FEW018 BKN250 16/12 A3002 RMK AO2 SLP163 T01560122 10189 20156 51017 $,0,6.0,0,16090.0,0,0,0,
2026-04-21 04:53:00,METAR KLAX 210453Z 27009KT 10SM FEW018 SCT250 16/12 A3001 RMK AO2 SLP162 T01610122 $,0,9.0,0,16090.0,0,0,0,
2026-04-21 03:53:00,METAR KLAX 210353Z 26011KT 10SM FEW015 FEW250 16/12 A3000 RMK AO2 SLP157 T01610122 $,0,11.0,0,16090.0,0,0,0,
2026-04-21 02:53:00,METAR KLAX 210253Z 26010KT 10SM FEW015 FEW250 16/12 A2997 RMK AO2 SLP146 T01610122 53001 $,0,10.0,0,16090.0,0,0,0,
2026-04-21 01:53:00,METAR KLAX 210153Z 25012KT 10SM FEW015 BKN250 17/12 A2996 RMK AO2 SLP146 T01720122 $,0,12.0,0,16090.0,0,0,0,
2026-04-21 00:53:00,METAR KLAX 210053Z 26012KT 10SM FEW015 BKN250 18/12 A2996 RMK AO2 SLP145 T01830122 $,0,12.0,0,16090.0,0,0,0,
2026-04-20 23:53:00,METAR KLAX 202353Z 27014KT 10SM BKN250 18/12 A2996 RMK AO2 SLP145 T01830117 10211 20183 58015 $,0,14.0,0,16090.0,0,0,0,
2026-04-20 22:53:00,METAR KLAX 202253Z COR 26015KT 10SM FEW250 20/12 A2997 RMK AO2 SLP150 T02000122 $,0,15.0,0,16090.0,0,0,0,
2026-04-20 21:53:00,METAR KLAX 202153Z 26014KT 10SM FEW250 21/12 A3000 RMK AO2 SLP158 T02060122 $,0,14.0,0,16090.0,0,0,0,
2026-04-20 20:53:00,METAR KLAX 202053Z 26013KT 10SM FEW030 FEW180 SCT250 21/13 A3001 RMK AO2 SLP161 T02060128 $,0,13.0,0,16090.0,0,0,0,
2026-04-20 19:53:00,METAR KLAX 201953Z 25013KT 10SM FEW027 FEW180 SCT250 21/12 A3001 RMK AO2 SLP161 T02110122 $,0,13.0,0,16090.0,0,0,0,
2026-04-20 18:53:00,METAR KLAX 201853Z 25008KT 10SM FEW025 SCT180 21/13 A3001 RMK AO2 SLP162 T02060128 $,0,8.0,0,16090.0,0,0,0,
2026-04-20 17:53:00,METAR KLAX 201753Z 26008KT 10SM FEW020 SCT150 21/12 A3002 RMK AO2 SLP163 T02060122 10206 20133 51006,0,8.0,0,16090.0,0,0,0,
2026-04-20 16:53:00,METAR KLAX 201653Z 18004KT 10SM FEW017 FEW023 SCT140 19/12 A3001 RMK AO2 SLP161 T01940117,0,4.0,0,16090.0,0,0,0,
2026-04-20 15:53:00,METAR KLAX 201553Z 00000KT 10SM SCT016 BKN140 17/12 A3001 RMK AO2 SLP161 T01670122,0,0.0,0,16090.0,0,0,0,
2026-04-20 15:31:00,SPECI KLAX 201531Z VRB03KT 10SM BKN015 BKN140 17/13 A3001 RMK AO2 T01720128,0,3.0,0,16090.0,0,0,0,
2026-04-20 15:08:00,SPECI KLAX 201508Z 05003KT 10SM BKN014 BKN140 16/13 A3000 RMK AO2 T01610128,0,3.0,0,16090.0,0,0,0,
2026-04-20 14:53:00,METAR KLAX 201453Z 00000KT 10SM SCT013 BKN140 BKN180 16/13 A3000 RMK AO2 SLP158 SCT V BKN T01610128 53013,0,0.0,0,16090.0,0,0,0,
2026-04-20 13:53:00,METAR KLAX 201353Z 09003KT 10SM FEW014 FEW140 SCT180 BKN250 14/12 A2998 RMK AO2 SLP150 T01390122,0,3.0,0,16090.0,0,0,0,
2026-04-20 12:53:00,METAR KLAX 201253Z 00000KT 10SM FEW013 SCT250 14/12 A2996 RMK AO2 SLP144 T01390122,0,0.0,0,16090.0,0,0,0,
2026-04-20 11:53:00,METAR KLAX 201153Z 26003KT 10SM SCT013 14/12 A2996 RMK AO2 SLP144 T01440122 10156 20144 56001,0,3.0,0,16090.0,0,0,0,
2026-04-20 11:11:00,SPECI KLAX 201111Z 25004KT 10SM BKN013 14/12 A2996 RMK AO2 T01440122,0,4.0,0,16090.0,0,0,0,
2026-04-20 10:53:00,METAR KLAX 201053Z 24004KT 10SM SCT013 14/13 A2996 RMK AO2 SLP144 T01440128,0,4.0,0,16090.0,0,0,0,
2026-04-20 09:53:00,METAR KLAX 200953Z 23005KT 10SM FEW011 15/12 A2997 RMK AO2 SLP144 T01500117,0,5.0,0,16090.0,0,0,0,
2026-04-20 08:53:00,METAR KLAX 200853Z 00000KT 10SM CLR 15/12 A2997 RMK AO2 SLP146 T01500122 50006,0,0.0,0,16090.0,0,0,0,
2026-04-20 07:53:00,METAR KLAX 200753Z 24004KT 10SM FEW011 15/13 A2997 RMK AO2 SLP147 T01500128 402220150,0,4.0,0,16090.0,0,0,0,
2026-04-20 06:53:00,METAR KLAX 200653Z 24005KT 10SM FEW011 16/13 A2995 RMK AO2 SLP141 T01560133,0,5.0,0,16090.0,0,0,0,
2026-04-20 05:53:00,METAR KLAX 200553Z 23007KT 10SM SCT011 16/13 A2995 RMK AO2 SLP139 T01560133 10206 20156 51017,0,7.0,0,16090.0,0,0,0,
2026-04-20 04:53:00,METAR KLAX 200453Z 24009KT 10SM SCT011 16/13 A2994 RMK AO2 SLP136 T01610133,0,9.0,0,16090.0,0,0,0,
2026-04-20 03:53:00,METAR KLAX 200353Z 24009KT 10SM FEW015 17/14 A2992 RMK AO2 SLP129 T01670139,0,9.0,0,16090.0,0,0,0,
2026-04-20 02:53:00,METAR KLAX 200253Z 26011KT 10SM FEW015 FEW250 17/14 A2990 RMK AO2 SLP123 T01720139 53003,0,11.0,0,16090.0,0,0,0,
2026-04-20 01:53:00,METAR KLAX 200153Z 26010KT 10SM FEW015 FEW250 18/14 A2988 RMK AO2 SLP118 T01830139,0,10.0,0,16090.0,0,0,0,
2026-04-20 00:53:00,METAR KLAX 200053Z 26010KT 10SM FEW015 FEW250 19/13 A2988 RMK AO2 SLP117 T01940128 $,0,10.0,0,16090.0,0,0,0,
2026-04-19 23:53:00,METAR KLAX 192353Z 24010KT 10SM FEW250 20/13 A2989 RMK AO2 SLP119 T02000128 10222 20200 56013 $,0,10.0,0,16090.0,0,0,0,
2026-04-19 22:53:00,METAR KLAX 192253Z 24011KT 10SM FEW250 21/11 A2990 RMK AO2 SLP122 T02110111 $,0,11.0,0,16090.0,0,0,0,
2026-04-19 21:53:00,METAR KLAX 192153Z 25012KT 10SM FEW200 FEW250 21/12 A2991 RMK AO2 SLP127 T02110122 $,0,12.0,0,16090.0,0,0,0,
2026-04-19 20:53:00,METAR KLAX 192053Z 26010KT 10SM FEW006 FEW220 SCT260 SCT300 21/14 A2992 RMK AO2 SLP132 T02060144 58002 $,0,10.0,0,16090.0,0,0,0,
2026-04-19 19:53:00,METAR KLAX 191953Z 26011KT 10SM FEW006 FEW220 SCT260 SCT300 21/14 A2993 RMK AO2 SLP135 T02060144 $,0,11.0,0,16090.0,0,0,0,
2026-04-19 18:53:00,METAR KLAX 191853Z 26009KT 10SM FEW005 FEW240 SCT300 22/14 A2993 RMK AO2 SLP135 T02170139 $,0,9.0,0,16090.0,0,0,0,
2026-04-19 17:53:00,METAR KLAX 191753Z 25008KT 10SM FEW005 FEW240 SCT300 21/13 A2993 RMK AO2 SLP134 T02060133 10211 20161 51010 $,0,8.0,0,16090.0,0,0,0,
2026-04-19 16:53:00,METAR KLAX 191653Z 26007KT 10SM FEW006 FEW190 SCT240 SCT300 20/13 A2992 RMK AO2 SLP130 T02000128 $,0,7.0,0,16090.0,0,0,0,
2026-04-19 15:53:00,METAR KLAX 191553Z 27005KT 10SM FEW006 FEW190 SCT240 SCT300 19/13 A2991 RMK AO2 SLP127 T01940128 $,0,5.0,0,16090.0,0,0,0,
2026-04-19 15:06:00,SPECI KLAX 191506Z COR 25003KT 10SM FEW006 FEW190 SCT220 BKN280 18/12 A2990 RMK AO2 T01780122 $,0,3.0,0,16090.0,0,0,0,
2026-04-19 14:53:00,METAR KLAX 191453Z 31003KT 10SM FEW190 SCT220 BKN280 18/12 A2990 RMK AO2 SLP123 T01780117 53009 $,0,3.0,0,16090.0,0,0,0,
2026-04-19 13:53:00,METAR KLAX 191353Z 32004KT 10SM FEW190 SCT220 BKN280 16/11 A2988 RMK AO2 SLP116 T01610111 $,0,4.0,0,16090.0,0,0,0,
2026-04-19 12:53:00,METAR KLAX 191253Z 24003KT 10SM SCT220 17/13 A2987 RMK AO2 SLP112 T01720133 $,0,3.0,0,16090.0,0,0,0,
2026-04-19 11:53:00,METAR KLAX 191153Z 00000KT 10SM BKN220 17/13 A2988 RMK AO2 SLP114 T01720133 10183 20161 56014 $,0,0.0,0,16090.0,0,0,0,
2026-04-19 10:53:00,METAR KLAX 191053Z 02003KT 10SM BKN220 17/13 A2989 RMK AO2 SLP118 T01670133 $,0,3.0,0,16090.0,0,0,0,
2026-04-19 09:53:00,METAR KLAX 190953Z 32003KT 10SM BKN220 17/14 A2990 RMK AO2 SLP124 T01720144 $,0,3.0,0,16090.0,0,0,0,
2026-04-19 08:53:00,METAR KLAX 190853Z 00000KT 10SM BKN220 17/13 A2992 RMK AO2 SLP127 T01720133 58009 $,0,0.0,0,16090.0,0,0,0,
2026-04-19 07:53:00,METAR KLAX 190753Z VRB03KT 10SM SCT220 18/14 A2994 RMK AO2 SLP134 T01780144 402440144 $,0,3.0,0,16090.0,0,0,0,
2026-04-19 06:53:00,METAR KLAX 190653Z 01005KT 10SM SCT220 18/14 A2995 RMK AO2 SLP137 T01780139 $,0,5.0,0,16090.0,0,0,0,
2026-04-19 05:53:00,METAR KLAX 190553Z 00000KT 10SM SCT220 18/11 A2994 RMK AO2 SLP136 T01780111 10211 20178 51014 $,0,0.0,0,16090.0,0,0,0,
2026-04-19 04:53:00,METAR KLAX 190453Z 18004KT 10SM SCT220 18/12 A2993 RMK AO2 SLP134 T01830122 $,0,4.0,0,16090.0,0,0,0,
2026-04-19 03:53:00,METAR KLAX 190353Z 17003KT 10SM SCT250 18/12 A2992 RMK AO2 SLP129 T01830117 $,0,3.0,0,16090.0,0,0,0,
2026-04-19 02:53:00,METAR KLAX 190253Z 26006KT 10SM SCT250 18/12 A2990 RMK AO2 SLP124 T01830117 55001 $,0,6.0,0,16090.0,0,0,0,
2026-04-19 01:53:00,METAR KLAX 190153Z 25009KT 10SM SCT220 SCT300 19/12 A2990 RMK AO2 SLP123 T01890122 $,0,9.0,0,16090.0,0,0,0,
2026-04-19 00:53:00,METAR KLAX 190053Z 26012KT 10SM SCT250 20/12 A2990 RMK AO2 SLP123 T02000122 $,0,12.0,0,16090.0,0,0,0,
2026-04-18 23:53:00,METAR KLAX 182353Z 26016KT 10SM SCT250 21/12 A2990 RMK AO2 SLP124 T02110122 10244 20211 56015 $,0,16.0,0,16090.0,0,0,0,
2026-04-18 22:53:00,METAR KLAX 182253Z 25011KT 10SM SCT250 22/14 A2991 RMK AO2 SLP128 T02170139 $,0,11.0,0,16090.0,0,0,0,
2026-04-18 21:53:00,METAR KLAX 182153Z 26011KT 10SM SCT300 23/14 A2993 RMK AO2 SLP134 T02280139 $,0,11.0,0,16090.0,0,0,0,
2026-04-18 20:53:00,METAR KLAX 182053Z 24009KT 10SM SCT300 24/14 A2994 RMK AO2 SLP139 T02390139 58011 $,0,9.0,0,16090.0,0,0,0,
2026-04-18 19:53:00,METAR KLAX 181953Z 26008KT 10SM SCT300 24/13 A2996 RMK AO2 SLP143 T02440128 $,0,8.0,0,16090.0,0,0,0,
2026-04-18 18:53:00,METAR KLAX 181853Z 25008KT 10SM SCT300 23/13 A2998 RMK AO2 SLP150 T02330128 $,0,8.0,0,16090.0,0,0,0,
2026-04-18 17:53:00,METAR KLAX 181753Z 27006KT 10SM SCT300 23/11 A2998 RMK AO2 SLP149 T02330106 10233 20144 51007 $,0,6.0,0,16090.0,0,0,0,
2026-04-18 16:53:00,METAR KLAX 181653Z 00000KT 10SM FEW250 SCT300 21/11 A2998 RMK AO2 SLP149 T02060106 $,0,0.0,0,16090.0,0,0,0,
2026-04-18 15:53:00,METAR KLAX 181553Z VRB03KT 10SM SCT250 BKN300 19/13 A2997 RMK AO2 SLP147 T01890128 $,0,3.0,0,16090.0,0,0,0,
2026-04-18 14:53:00,METAR KLAX 181453Z 09005KT 10SM SCT250 BKN300 17/13 A2996 RMK AO2 SLP144 T01670128 53008 $,0,5.0,0,16090.0,0,0,0,
2026-04-18 13:53:00,METAR KLAX 181353Z 09004KT 10SM SCT250 14/12 A2995 RMK AO2 SLP140 T01440122 $,0,4.0,0,16090.0,0,0,0,
2026-04-18 12:53:00,METAR KLAX 181253Z 07004KT 10SM FEW250 15/12 A2994 RMK AO2 SLP136 T01500122 $,0,4.0,0,16090.0,0,0,0,
2026-04-18 11:53:00,METAR KLAX 181153Z VRB04KT 10SM CLR 15/12 A2994 RMK AO2 SLP136 T01500117 10172 20144 56009,0,4.0,0,16090.0,0,0,0,
2026-04-18 10:53:00,METAR KLAX 181053Z 07003KT 10SM CLR 16/12 A2995 RMK AO2 SLP138 T01560117,0,3.0,0,16090.0,0,0,0,
2026-04-18 09:53:00,METAR KLAX 180953Z 06006KT 10SM CLR 16/11 A2995 RMK AO2 SLP139 T01610111,0,6.0,0,16090.0,0,0,0,
2026-04-18 08:53:00,METAR KLAX 180853Z 05006KT 10SM CLR 16/11 A2996 RMK AO2 SLP144 T01610111 50002,0,6.0,0,16090.0,0,0,0,
2026-04-18 07:53:00,METAR KLAX 180753Z 08006KT 10SM CLR 16/11 A2997 RMK AO2 SLP146 T01610111 402280133,0,6.0,0,16090.0,0,0,0,
2026-04-18 06:53:00,METAR KLAX 180653Z 10005KT 10SM CLR 16/11 A2997 RMK AO2 SLP146 T01610111,0,5.0,0,16090.0,0,0,0,
2026-04-18 05:53:00,METAR KLAX 180553Z 13004KT 10SM CLR 18/12 A2996 RMK AO2 SLP142 T01780122 10206 20172 51012,0,4.0,0,16090.0,0,0,0,
2026-04-18 04:53:00,METAR KLAX 180453Z 11004KT 10SM CLR 18/12 A2995 RMK AO2 SLP141 T01780122,0,4.0,0,16090.0,0,0,0,
2026-04-18 03:53:00,METAR KLAX 180353Z 27005KT 10SM CLR 18/13 A2993 RMK AO2 SLP134 T01830128,0,5.0,0,16090.0,0,0,0,
2026-04-18 02:53:00,METAR KLAX 180253Z 25012KT 10SM CLR 18/12 A2992 RMK AO2 SLP131 T01780122 56009,0,12.0,0,16090.0,0,0,0,
2026-04-18 01:53:00,METAR KLAX 180153Z 26016KT 10SM CLR 19/12 A2993 RMK AO2 SLP133 T01890122,0,16.0,0,16090.0,0,0,0,
2026-04-18 00:53:00,METAR KLAX 180053Z 27017KT 10SM FEW016 FEW060 19/12 A2994 RMK AO2 SLP136 T01940122,0,17.0,0,16090.0,0,0,0,
2026-04-17 23:53:00,METAR KLAX 172353Z 27015KT 10SM FEW060 20/12 A2995 RMK AO2 SLP140 T02000122 10228 20189 58011,0,15.0,0,16090.0,0,0,0,
2026-04-17 22:53:00,METAR KLAX 172253Z 27016KT 10SM FEW065 21/12 A2996 RMK AO2 SLP144 T02110122,0,16.0,0,16090.0,0,0,0,
2026-04-17 21:53:00,METAR KLAX 172153Z 26012G19KT 10SM FEW070 21/12 A2998 RMK AO2 SLP150 T02110122,0,12.0,1,16090.0,0,0,0,
2026-04-17 20:53:00,METAR KLAX 172053Z 24010KT 10SM CLR 22/12 A2998 RMK AO2 SLP150 T02220117 58011,0,10.0,0,16090.0,0,0,0,
2026-04-17 19:53:00,METAR KLAX 171953Z 20007KT 10SM FEW035 22/11 A2999 RMK AO2 SLP153 T02220111,0,7.0,0,16090.0,0,0,0,
2026-04-17 18:53:00,METAR KLAX 171853Z VRB03KT 10SM FEW018 FEW032 21/09 A3000 RMK AO2 SLP159 T02110094,0,3.0,0,16090.0,0,0,0,
2026-04-17 17:53:00,METAR KLAX 171753Z 29003KT 10SM SCT017 SCT030 19/10 A3001 RMK AO2 SLP163 T01890100 10194 20133 51012,0,3.0,0,16090.0,0,0,0,
2026-04-17 16:53:00,METAR KLAX 171653Z 15004KT 10SM SCT017 BKN030 18/11 A3001 RMK AO2 SLP161 T01780106,0,4.0,0,16090.0,0,0,0,
2026-04-17 15:53:00,METAR KLAX 171553Z 10007KT 10SM FEW015 SCT029 BKN140 BKN180 17/12 A3000 RMK AO2 SLP156 T01720117,0,7.0,0,16090.0,0,0,0,
2026-04-17 14:53:00,METAR KLAX 171453Z 11007KT 10SM FEW014 SCT025 BKN140 BKN180 16/12 A2998 RMK AO2 SLP151 T01560117 53019,0,7.0,0,16090.0,0,0,0,
2026-04-17 13:53:00,METAR KLAX 171353Z 10004KT 10SM FEW013 SCT025 SCT140 BKN180 14/12 A2996 RMK AO2 SLP143 T01440117,0,4.0,0,16090.0,0,0,0,
2026-04-17 12:53:00,METAR KLAX 171253Z 08006KT 10SM FEW012 FEW020 SCT150 14/12 A2994 RMK AO2 SLP136 T01390117,0,6.0,0,16090.0,0,0,0,
2026-04-17 11:53:00,METAR KLAX 171153Z 08005KT 10SM FEW012 FEW018 14/12 A2992 RMK AO2 SLP131 T01440117 10167 20139 52003,0,5.0,0,16090.0,0,0,0,
2026-04-17 10:53:00,METAR KLAX 171053Z 09006KT 10SM FEW012 SCT018 14/12 A2992 RMK AO2 SLP130 T01440122,0,6.0,0,16090.0,0,0,0,
2026-04-17 10:49:00,SPECI KLAX 171049Z 09006KT 10SM FEW012 SCT018 14/12 A2992 RMK AO2,0,6.0,0,16090.0,0,0,0,
2026-04-17 10:25:00,SPECI KLAX 171025Z 08006KT 10SM FEW012 BKN018 14/13 A2992 RMK AO2 T01440128,0,6.0,0,16090.0,0,0,0,
2026-04-17 09:53:00,METAR KLAX 170953Z 08004KT 10SM FEW012 SCT016 15/13 A2992 RMK AO2 SLP130 T01500128,0,4.0,0,16090.0,0,0,0,
2026-04-17 08:53:00,METAR KLAX 170853Z 00000KT 10SM FEW014 FEW250 16/13 A2992 RMK AO2 SLP129 T01560128 50005,0,0.0,0,16090.0,0,0,0,
2026-04-17 07:53:00,METAR KLAX 170753Z 00000KT 10SM FEW014 FEW250 16/13 A2992 RMK AO2 SLP128 T01560133 402110133,0,0.0,0,16090.0,0,0,0,
2026-04-17 06:53:00,METAR KLAX 170653Z 00000KT 10SM FEW014 FEW250 16/13 A2990 RMK AO2 SLP123 T01610133,0,0.0,0,16090.0,0,0,0,
2026-04-17 05:53:00,METAR KLAX 170553Z 18004KT 10SM FEW014 FEW250 17/13 A2990 RMK AO2 SLP122 T01670133 10194 20161 50008,0,4.0,0,16090.0,0,0,0,
2026-04-17 04:53:00,METAR KLAX 170453Z 22003KT 10SM CLR 16/14 A2990 RMK AO2 SLP124 T01610139,0,3.0,0,16090.0,0,0,0,
2026-04-17 03:53:00,METAR KLAX 170353Z 26005KT 10SM CLR 16/13 A2989 RMK AO2 SLP121 T01610133,0,5.0,0,16090.0,0,0,0,
2026-04-17 02:53:00,METAR KLAX 170253Z 24008KT 10SM FEW015 FEW250 17/14 A2987 RMK AO2 SLP115 T01670139 55002,0,8.0,0,16090.0,0,0,0,
2026-04-17 01:53:00,METAR KLAX 170153Z 25009KT 10SM FEW250 17/13 A2987 RMK AO2 SLP115 T01720133,0,9.0,0,16090.0,0,0,0,
2026-04-17 00:53:00,METAR KLAX 170053Z 23009KT 10SM FEW015 FEW250 18/13 A2988 RMK AO2 SLP116 T01830128,0,9.0,0,16090.0,0,0,0,
2026-04-16 23:53:00,METAR KLAX 162353Z 25011KT 10SM FEW015 SCT250 19/13 A2988 RMK AO2 SLP117 T01940128 10211 20189 56014,0,11.0,0,16090.0,0,0,0,
2026-04-16 22:53:00,METAR KLAX 162253Z 26011KT 10SM FEW050 BKN250 19/12 A2989 RMK AO2 SLP121 T01940122,0,11.0,0,16090.0,0,0,0,
2026-04-16 21:53:00,METAR KLAX 162153Z 24011KT 10SM BKN250 20/12 A2991 RMK AO2 SLP126 T02000117,0,11.0,0,16090.0,0,0,0,
2026-04-16 20:53:00,METAR KLAX 162053Z 25011KT 10SM FEW010 FEW037 SCT100 BKN160 20/11 A2992 RMK AO2 SLP131 T02000106 58013,0,11.0,0,16090.0,0,0,0,
2026-04-16 19:53:00,METAR KLAX 161953Z 27009KT 10SM FEW009 FEW035 SCT100 BKN160 21/12 A2993 RMK AO2 SLP135 T02060117,0,9.0,0,16090.0,0,0,0,
2026-04-16 18:53:00,METAR KLAX 161853Z 26009KT 10SM FEW009 FEW032 BKN140 BKN180 20/12 A2995 RMK AO2 SLP142 T02000122,0,9.0,0,16090.0,0,0,0,
2026-04-16 17:53:00,METAR KLAX 161753Z 24006KT 10SM FEW009 FEW029 BKN140 OVC200 20/13 A2996 RMK AO2 SLP143 T02000128 10200 20150 51009,0,6.0,0,16090.0,0,0,0,
2026-04-16 16:53:00,METAR KLAX 161653Z 08003KT 10SM FEW009 SCT015 BKN140 BKN200 19/12 A2996 RMK AO2 SLP143 T01890122,0,3.0,0,16090.0,0,0,0,
2026-04-16 15:53:00,METAR KLAX 161553Z 11004KT 10SM FEW009 SCT014 BKN140 BKN200 17/13 A2995 RMK AO2 SLP140 SCT V BKN T01720128,0,4.0,0,16090.0,0,0,0,
2026-04-16 14:53:00,METAR KLAX 161453Z 11003KT 10SM FEW009 SCT012 BKN140 BKN180 16/13 A2994 RMK AO2 SLP136 T01610128 53009,0,3.0,0,16090.0,0,0,0,
2026-04-16 14:34:00,SPECI KLAX 161434Z 00000KT 10SM FEW009 SCT012 BKN140 BKN180 16/13 A2993 RMK AO2 T01560128,0,0.0,0,16090.0,0,0,0,
2026-04-16 13:53:00,METAR KLAX 161353Z 00000KT 10SM FEW009 BKN012 OVC160 16/13 A2992 RMK AO2 SLP131 T01560133,0,0.0,0,16090.0,0,0,0,
2026-04-16 13:20:00,SPECI KLAX 161320Z 27003KT 10SM FEW009 BKN012 OVC160 15/13 A2992 RMK AO2 T01500128,0,3.0,0,16090.0,0,0,0,
2026-04-16 12:53:00,METAR KLAX 161253Z 24003KT 10SM FEW009 FEW012 BKN200 BKN250 15/13 A2991 RMK AO2 SLP127 T01500128,0,3.0,0,16090.0,0,0,0,
2026-04-16 11:53:00,METAR KLAX 161153Z 24004KT 10SM FEW009 FEW012 BKN200 BKN250 15/13 A2991 RMK AO2 SLP126 T01500128 10161 20133 56009,0,4.0,0,16090.0,0,0,0,
2026-04-16 11:09:00,SPECI KLAX 161109Z 26003KT 10SM FEW009 FEW012 BKN200 BKN250 15/13 A2991 RMK AO2 T01500128,0,3.0,0,16090.0,0,0,0,
2026-04-16 10:53:00,METAR KLAX 161053Z 00000KT 10SM SCT200 BKN250 15/13 A2991 RMK AO2 SLP127 T01500128,0,0.0,0,16090.0,0,0,0,
2026-04-16 09:53:00,METAR KLAX 160953Z 00000KT 10SM SCT200 BKN250 15/12 A2992 RMK AO2 SLP130 T01500122,0,0.0,0,16090.0,0,0,0,
2026-04-16 08:53:00,METAR KLAX 160853Z 11004KT 10SM FEW250 14/11 A2994 RMK AO2 SLP136 T01390111 58015,0,4.0,0,16090.0,0,0,0,
2026-04-16 07:53:00,METAR KLAX 160753Z VRB03KT 10SM FEW250 16/12 A2996 RMK AO2 SLP145 T01560122 402110128,0,3.0,0,16090.0,0,0,0,
2026-04-16 06:53:00,METAR KLAX 160653Z 19003KT 10SM FEW250 16/12 A2998 RMK AO2 SLP151 T01560117,0,3.0,0,16090.0,0,0,0,
2026-04-16 05:53:00,METAR KLAX 160553Z 14004KT 10SM FEW250 16/12 A2998 RMK AO2 SLP151 T01610117 10189 20156 50006,0,4.0,0,16090.0,0,0,0,
2026-04-16 04:53:00,METAR KLAX 160453Z 23006KT 10SM CLR 16/12 A2998 RMK AO2 SLP152 T01560117,0,6.0,0,16090.0,0,0,0,
2026-04-16 03:53:00,METAR KLAX 160353Z 25008KT 10SM CLR 16/12 A2998 RMK AO2 SLP150 T01560122,0,8.0,0,16090.0,0,0,0,
2026-04-16 02:53:00,METAR KLAX 160253Z 27014KT 10SM FEW015 FEW250 16/12 A2996 RMK AO2 SLP145 T01610122 56006,0,14.0,0,16090.0,0,0,0,
2026-04-16 01:53:00,METAR KLAX 160153Z 26012KT 10SM FEW015 FEW250 17/13 A2996 RMK AO2 SLP146 T01670128,0,12.0,0,16090.0,0,0,0,
2026-04-16 00:53:00,METAR KLAX 160053Z 25010KT 10SM FEW050 FEW250 18/13 A2997 RMK AO2 SLP146 T01830128,0,10.0,0,16090.0,0,0,0,
2026-04-15 23:53:00,METAR KLAX 152353Z 26012KT 10SM FEW050 FEW250 19/13 A2998 RMK AO2 SLP151 T01940128 10211 20189 58016,0,12.0,0,16090.0,0,0,0,
2026-04-15 22:53:00,METAR KLAX 152253Z 27013KT 10SM FEW050 FEW250 19/13 A3000 RMK AO2 SLP157 T01940128,0,13.0,0,16090.0,0,0,0,
2026-04-15 21:53:00,METAR KLAX 152153Z 24011KT 10SM FEW050 FEW250 21/12 A3001 RMK AO2 SLP162 T02060122,0,11.0,0,16090.0,0,0,0,
2026-04-15 20:53:00,METAR KLAX 152053Z 24011KT 10SM FEW010 FEW050 SCT080 BKN250 20/12 A3003 RMK AO2 SLP167 T02000122 58009,0,11.0,0,16090.0,0,0,0,
2026-04-15 19:53:00,METAR KLAX 151953Z 24010KT 10SM FEW010 FEW180 BKN250 20/12 A3004 RMK AO2 SLP172 T02000122,0,10.0,0,16090.0,0,0,0,
2026-04-15 18:53:00,METAR KLAX 151853Z 27011KT 10SM FEW010 FEW180 SCT250 20/13 A3005 RMK AO2 SLP176 T02000128,0,11.0,0,16090.0,0,0,0,
2026-04-15 17:53:00,METAR KLAX 151753Z 24007KT 10SM FEW010 FEW180 19/13 A3005 RMK AO2 SLP176 T01940128 10194 20133 52006,0,7.0,0,16090.0,0,0,0,
2026-04-15 16:53:00,METAR KLAX 151653Z 26004KT 10SM FEW010 FEW180 18/12 A3005 RMK AO2 SLP174 T01830122,0,4.0,0,16090.0,0,0,0,
2026-04-15 15:53:00,METAR KLAX 151553Z 00000KT 10SM FEW009 FEW200 17/11 A3004 RMK AO2 SLP172 T01670111,0,0.0,0,16090.0,0,0,0,
2026-04-15 14:53:00,METAR KLAX 151453Z 08003KT 10SM FEW009 FEW250 16/11 A3004 RMK AO2 SLP170 T01560106 53010,0,3.0,0,16090.0,0,0,0,
2026-04-15 13:53:00,METAR KLAX 151353Z 00000KT 10SM FEW009 FEW250 14/10 A3003 RMK AO2 SLP168 T01390100,0,0.0,0,16090.0,0,0,0,
2026-04-15 12:53:00,METAR KLAX 151253Z 00000KT 10SM FEW008 SCT250 13/12 A3001 RMK AO2 SLP161 T01330117,0,0.0,0,16090.0,0,0,0,
2026-04-15 11:53:00,METAR KLAX 151153Z 08003KT 10SM FEW008 FEW010 SCT250 13/12 A3001 RMK AO2 SLP160 FU FEW010 T01330117 10161 20128 56006,0,3.0,0,16090.0,0,0,0,
2026-04-15 10:53:00,METAR KLAX 151053Z 07003KT 10SM FEW008 13/12 A3001 RMK AO2 SLP160 T01280117,0,3.0,0,16090.0,0,0,0,
2026-04-15 09:53:00,METAR KLAX 150953Z 07003KT 10SM FEW008 14/12 A3002 RMK AO2 SLP165 T01440122,0,3.0,0,16090.0,0,0,0,
2026-04-15 08:53:00,METAR KLAX 150853Z 10003KT 10SM FEW008 13/12 A3003 RMK AO2 SLP166 T01330117 58004,0,3.0,0,16090.0,0,0,0,
2026-04-15 07:53:00,METAR KLAX 150753Z 21004KT 10SM FEW008 FEW012 16/12 A3004 RMK AO2 SLP170 T01560122 402060111,0,4.0,0,16090.0,0,0,0,
2026-04-15 07:38:00,SPECI KLAX 150738Z 22003KT 10SM FEW008 FEW012 16/12 A3003 RMK AO2 T01560122,0,3.0,0,16090.0,0,0,0,
2026-04-15 06:53:00,METAR KLAX 150653Z 22003KT 10SM FEW010 FEW012 16/12 A3003 RMK AO2 SLP168 T01560122,0,3.0,0,16090.0,0,0,0,
2026-04-15 05:53:00,METAR KLAX 150553Z COR 24006KT 10SM FEW012 16/13 A3004 RMK AO2 SLP170 T01610128 10194 20156 50004,0,6.0,0,16090.0,0,0,0,
2026-04-15 04:53:00,METAR KLAX 150453Z 25010KT 10SM CLR 16/13 A3004 RMK AO2 SLP170 T01610128,0,10.0,0,16090.0,0,0,0,
2026-04-15 03:53:00,METAR KLAX 150353Z 25012KT 10SM CLR 16/13 A3003 RMK AO2 SLP167 T01610128,0,12.0,0,16090.0,0,0,0,
2026-04-15 02:53:00,METAR KLAX 150253Z 24011KT 10SM FEW250 16/12 A3002 RMK AO2 SLP166 T01610117 55005,0,11.0,0,16090.0,0,0,0,
2026-04-15 01:53:00,METAR KLAX 150153Z 26013KT 10SM FEW060 17/12 A3002 RMK AO2 SLP166 T01720117,0,13.0,0,16090.0,0,0,0,
2026-04-15 00:53:00,METAR KLAX 150053Z 26013KT 10SM FEW015 FEW070 18/12 A3003 RMK AO2 SLP168 T01830117,0,13.0,0,16090.0,0,0,0,
2026-04-14 23:53:00,METAR KLAX 142353Z 26011KT 10SM FEW015 FEW070 19/10 A3004 RMK AO2 SLP170 T01940100 10206 20189 58015,0,11.0,0,16090.0,0,0,0,
2026-04-14 22:53:00,METAR KLAX 142253Z 24013G23KT 10SM FEW015 FEW070 20/12 A3005 RMK AO2 SLP175 T02000122,0,13.0,1,16090.0,0,0,0,
2026-04-14 21:53:00,METAR KLAX 142153Z 26013KT 10SM FEW015 FEW070 19/11 A3007 RMK AO2 SLP181 T01940111,0,13.0,0,16090.0,0,0,0,
2026-04-14 20:53:00,METAR KLAX 142053Z 24011KT 10SM FEW010 FEW035 20/11 A3008 RMK AO2 SLP186 T02000106 58014,0,11.0,0,16090.0,0,0,0,
2026-04-14 19:53:00,METAR KLAX 141953Z 23010KT 10SM FEW010 FEW030 20/09 A3009 RMK AO2 SLP189 T02000094,0,10.0,0,16090.0,0,0,0,
2026-04-14 18:53:00,METAR KLAX 141853Z 24007KT 210V290 10SM FEW010 FEW030 19/10 A3011 RMK AO2 SLP196 T01940100,0,7.0,0,16090.0,0,0,0,
2026-04-14 17:53:00,METAR KLAX 141753Z 14003KT 10SM FEW010 FEW028 19/08 A3012 RMK AO2 SLP199 T01890083 10189 20111 51006,0,3.0,0,16090.0,0,0,0,
2026-04-14 16:53:00,METAR KLAX 141653Z 11003KT 10SM FEW018 FEW027 18/09 A3012 RMK AO2 SLP197 T01830089,0,3.0,0,16090.0,0,0,0,
2026-04-14 15:53:00,METAR KLAX 141553Z VRB03KT 10SM FEW017 FEW025 17/09 A3011 RMK AO2 SLP196 T01670094,0,3.0,0,16090.0,0,0,0,
2026-04-14 14:53:00,METAR KLAX 141453Z 05005KT 10SM FEW014 FEW025 14/08 A3011 RMK AO2 SLP194 T01440083 53012,0,5.0,0,16090.0,0,0,0,
2026-04-14 13:53:00,METAR KLAX 141353Z 06004KT 10SM FEW014 13/08 A3009 RMK AO2 SLP187 T01280083 $,0,4.0,0,16090.0,0,0,0,
2026-04-14 12:53:00,METAR KLAX 141253Z 04006KT 10SM FEW015 12/08 A3008 RMK AO2 SLP184 T01170083 $,0,6.0,0,16090.0,0,0,0,
2026-04-14 11:53:00,METAR KLAX 141153Z 06005KT 10SM FEW015 13/09 A3007 RMK AO2 SLP182 T01280089 10150 20117 55002 $,0,5.0,0,16090.0,0,0,0,
2026-04-14 10:53:00,METAR KLAX 141053Z 08006KT 10SM FEW015 12/08 A3007 RMK AO2 SLP180 T01220083 $,0,6.0,0,16090.0,0,0,0,
2026-04-14 09:53:00,METAR KLAX 140953Z 06006KT 10SM FEW015 13/08 A3007 RMK AO2 SLP179 T01330083 $,0,6.0,0,16090.0,0,0,0,
2026-04-14 08:53:00,METAR KLAX 140853Z 27004KT 10SM FEW015 15/11 A3008 RMK AO2 SLP183 T01500111 51003 $,0,4.0,0,16090.0,0,0,0,
2026-04-14 07:53:00,METAR KLAX 140753Z 24006KT 10SM FEW015 14/11 A3008 RMK AO2 SLP183 T01440111 401890133 $,0,6.0,0,16090.0,0,0,0,
2026-04-14 06:53:00,METAR KLAX 140653Z 25006KT 10SM FEW015 15/11 A3007 RMK AO2 SLP182 T01500106 $,0,6.0,0,16090.0,0,0,0,
2026-04-14 05:53:00,METAR KLAX 140553Z 25012KT 10SM CLR 15/11 A3007 RMK AO2 SLP179 T01500111 10189 20150 51014 $,0,12.0,0,16090.0,0,0,0,
2026-04-14 04:53:00,METAR KLAX 140453Z 26010KT 10SM CLR 16/11 A3006 RMK AO2 SLP178 T01560111 $,0,10.0,0,16090.0,0,0,0,
2026-04-14 03:53:00,METAR KLAX 140353Z 26018KT 10SM CLR 16/11 A3005 RMK AO2 SLP174 T01560106 $,0,18.0,0,16090.0,0,0,0,
2026-04-14 02:53:00,METAR KLAX 140253Z 25022KT 10SM FEW080 16/09 A3002 RMK AO2 SLP166 T01610094 53004 $,0,22.0,0,16090.0,0,0,0,
2026-04-14 01:53:00,METAR KLAX 140153Z 26016KT 10SM FEW085 17/09 A3001 RMK AO2 SLP163 T01670089 $,0,16.0,0,16090.0,0,0,0,
2026-04-14 00:53:00,METAR KLAX 140053Z 25019KT 10SM FEW070 FEW095 18/08 A3001 RMK AO2 SLP161 T01780078 $,0,19.0,0,16090.0,0,0,0,
2026-04-13 23:53:00,METAR KLAX 132353Z 25019KT 10SM FEW075 FEW100 18/08 A3001 RMK AO2 SLP161 T01830078 10189 20167 56009 $,0,19.0,0,16090.0,0,0,0,
2026-04-13 22:53:00,METAR KLAX 132253Z 25017KT 10SM FEW070 FEW100 19/08 A3002 RMK AO2 SLP163 T01890078 $,0,17.0,0,16090.0,0,0,0,
2026-04-13 21:53:00,METAR KLAX 132153Z 27016KT 10SM FEW040 FEW070 SCT085 18/07 A3003 RMK AO2 LTG DSNT NE SLP167 TCU DSNT NE T01830072,0,16.0,0,16090.0,0,0,0,DS
2026-04-13 20:53:00,METAR KLAX 132053Z 26017G24KT 10SM FEW027 FEW070 SCT140 18/08 A3004 RMK AO2 LTG DSNT N SLP171 CB DSNT N T01830083 58009,0,17.0,1,16090.0,0,0,0,DS
2026-04-13 19:53:00,METAR KLAX 131953Z 27016G22KT 10SM FEW026 FEW065 SCT120 18/08 A3005 RMK AO2 SLP175 T01830083 $,0,16.0,1,16090.0,0,0,0,
2026-04-13 18:53:00,METAR KLAX 131853Z 23011KT 10SM FEW025 FEW060 SCT100 17/09 A3007 RMK AO2 SLP182 T01720089 $,0,11.0,0,16090.0,0,0,0,
2026-04-13 17:53:00,METAR KLAX 131753Z 24009KT 10SM FEW022 FEW050 SCT080 SCT160 17/09 A3007 RMK AO2 SLP180 T01720094 10178 20133 51009 $,0,9.0,0,16090.0,0,0,0,
2026-04-13 16:53:00,METAR KLAX 131653Z 25008KT 10SM FEW019 FEW050 SCT080 BKN150 17/09 A3006 RMK AO2 SLP179 T01670094 $,0,8.0,0,16090.0,0,0,0,
2026-04-13 15:53:00,METAR KLAX 131553Z 29008KT 10SM FEW018 SCT050 BKN075 16/09 A3005 RMK AO2 SLP175 T01560089 $,0,8.0,0,16090.0,0,0,0,
2026-04-13 14:53:00,METAR KLAX 131453Z 30005KT 10SM FEW017 SCT050 BKN075 15/09 A3004 RMK AO2 SLP172 T01500089 53010 $,0,5.0,0,16090.0,0,0,0,
2026-04-13 13:53:00,METAR KLAX 131353Z 31005KT 10SM FEW015 FEW050 SCT100 14/08 A3002 RMK AO2 SLP166 T01390083 $,0,5.0,0,16090.0,0,0,0,
2026-04-13 12:53:00,METAR KLAX 131253Z VRB03KT 10SM FEW014 FEW050 SCT070 14/09 A3001 RMK AO2 SLP162 T01390089 $,0,3.0,0,16090.0,0,0,0,
2026-04-13 11:53:00,METAR KLAX 131153Z 00000KT 10SM FEW014 FEW045 SCT060 14/08 A3001 RMK AO2 SLP161 70016 T01390083 10161 20139 56008 $,0,0.0,0,16090.0,0,0,0,
2026-04-13 10:53:00,METAR KLAX 131053Z 00000KT 10SM FEW014 BKN045 BKN075 14/08 A3002 RMK AO2 SLP164 T01440083 $,0,0.0,0,16090.0,0,0,0,
2026-04-13 09:53:00,METAR KLAX 130953Z 32003KT 10SM FEW015 BKN060 BKN160 14/08 A3002 RMK AO2 SLP165 T01440083 $,0,3.0,0,16090.0,0,0,0,
2026-04-13 08:53:00,METAR KLAX 130853Z 01004KT 10SM FEW014 FEW028 BKN070 BKN160 14/08 A3004 RMK AO2 SLP170 T01440078 58002 $,0,4.0,0,16090.0,0,0,0,
2026-04-13 07:53:00,METAR KLAX 130753Z VRB05KT 10SM FEW014 FEW028 SCT060 BKN160 15/08 A3005 RMK AO2 SLP175 T01500078 402060144 $,0,5.0,0,16090.0,0,0,0,
2026-04-13 06:53:00,METAR KLAX 130653Z 30005KT 10SM FEW014 FEW030 SCT080 SCT160 15/08 A3005 RMK AO2 SLP174 T01500083 $,0,5.0,0,16090.0,0,0,0,
2026-04-13 05:53:00,METAR KLAX 130553Z 31006G18KT 10SM FEW014 FEW030 SCT080 16/09 A3004 RMK AO2 SLP172 T01560094 10183 20156 52009 $,0,6.0,1,16090.0,0,0,0,
2026-04-13 04:53:00,METAR KLAX 130453Z 27011KT 10SM FEW020 FEW080 16/09 A3004 RMK AO2 SLP169 T01560094 $,0,11.0,0,16090.0,0,0,0,
2026-04-13 03:53:00,METAR KLAX 130353Z 27011KT 10SM FEW020 FEW080 16/10 A3002 RMK AO2 SLP166 T01560100 $,0,11.0,0,16090.0,0,0,0,
2026-04-13 02:53:00,METAR KLAX 130253Z 26012KT 10SM FEW020 FEW080 16/10 A3002 RMK AO2 SLP163 T01610100 53009 $,0,12.0,0,16090.0,0,0,0,
2026-04-13 01:53:00,METAR KLAX 130153Z 26013KT 10SM FEW060 FEW085 SCT250 17/09 A3000 RMK AO2 SLP157 T01670089 $,0,13.0,0,16090.0,0,0,0,
2026-04-13 00:53:00,METAR KLAX 130053Z 26016KT 10SM FEW060 FEW085 SCT250 18/09 A2999 RMK AO2 SLP155 T01780094 $,0,16.0,0,16090.0,0,0,0,
2026-04-12 23:53:00,METAR KLAX 122353Z 24013KT 10SM FEW065 FEW085 SCT250 18/08 A2999 RMK AO2 SLP154 60000 T01830078 10206 20178 58003 $,0,13.0,0,16090.0,0,0,0,
2026-04-12 22:53:00,METAR KLAX 122253Z 23013KT 10SM FEW065 BKN080 18/08 A3000 RMK AO2 SLP157 T01830083 $,0,13.0,0,16090.0,0,0,0,
2026-04-12 21:53:00,METAR KLAX 122153Z 25013G22KT 10SM FEW065 BKN080 19/07 A2999 RMK AO2 SLP156 T01890067 $,0,13.0,1,16090.0,0,0,0,
2026-04-12 20:53:00,METAR KLAX 122053Z 24014KT 10SM SCT065 SCT075 BKN095 20/04 A3000 RMK AO2 SLP156 60000 T02000039 58002 $,0,14.0,0,16090.0,0,0,0,
2026-04-12 19:53:00,METAR KLAX 121953Z 26012KT 10SM FEW028 SCT050 BKN070 19/07 A3000 RMK AO2 RAB1857E06 SLP157 P0000 T01890072 $,0,12.0,0,16090.0,0,0,0,RA
2026-04-12 18:53:00,METAR KLAX 121853Z 26015KT 10SM FEW027 SCT046 BKN065 19/09 A3001 RMK AO2 SLP161 T01890094 $,0,15.0,0,16090.0,0,0,0,
2026-04-12 17:53:00,METAR KLAX 121753Z 25013KT 10SM FEW024 SCT046 BKN065 18/11 A3000 RMK AO2 SLP159 60016 T01780106 10183 20144 53013 $,0,13.0,0,16090.0,0,0,0,
2026-04-12 16:53:00,METAR KLAX 121653Z 27013KT 10SM FEW017 FEW042 BKN065 17/12 A2999 RMK AO2 SLP154 T01720122 $,0,13.0,0,16090.0,0,0,0,
2026-04-12 15:53:00,METAR KLAX 121553Z 26011KT 10SM FEW011 FEW023 BKN038 16/13 A2998 RMK AO2 RAB00E28 SLP150 P0006 T01560133 $,0,11.0,0,16090.0,0,0,0,RA
2026-04-12 14:53:00,METAR KLAX 121453Z 24010KT 5SM BR FEW010 BKN023 OVC030 16/13 A2997 RMK AO2 WSHFT 1354 RAE42 SLP146 VIS E 2 P0010 60010 T01560133 53016 $,0,10.0,0,8045.0,0,0,1,BR
2026-04-12 14:38:00,SPECI KLAX 121438Z 21007KT 3SM -RA BR FEW010 BKN024 OVC031 15/13 A2996 RMK AO2 WSHFT 1354 VIS NE-E 1 1/2 P0010 T01500133 $,0,7.0,0,4827.0,0,0,1,"-RA,BR"
2026-04-12 14:10:00,SPECI KLAX 121410Z 23012G21KT 2SM RA BR FEW009 BKN020 OVC027 14/13 A2996 RMK AO2 WSHFT 1354 VIS SW-NW 1 1/4 P0005 T01440133 $,0,12.0,1,3218.0,0,0,1,"BR,RA"
2026-04-12 14:07:00,SPECI KLAX 121407Z 22014KT 2 1/2SM +RA BR SCT019 BKN026 OVC050 15/13 A2995 RMK AO2 VIS SW-NW 1 1/2 P0004 T01500133 $,0,14.0,0,4022.0,0,1,1,"+RA,BR"
2026-04-12 13:53:00,METAR KLAX 121353Z 18009KT 4SM -RA BKN020 BKN027 OVC050 16/13 A2994 RMK AO2 RAB40 SLP137 VIS SW-NW 2 P0000 T01610128 $,0,9.0,0,6436.0,0,0,0,-RA
2026-04-12 13:40:00,SPECI KLAX 121340Z 18008KT 10SM -RA SCT022 BKN027 OVC055 17/12 A2993 RMK AO2 RAB40 P0000 T01670117 $,0,8.0,0,16090.0,0,0,0,-RA
2026-04-12 12:53:00,METAR KLAX 121253Z 18007KT 10SM SCT026 BKN035 OVC060 17/12 A2992 RMK AO2 SLP130 T01670117 $,0,7.0,0,16090.0,0,0,0,
2026-04-12 11:53:00,METAR KLAX 121153Z 16005KT 10SM FEW020 FEW035 BKN065 16/12 A2992 RMK AO2 SLP130 60000 T01610117 10167 20161 56014 $,0,5.0,0,16090.0,0,0,0,
2026-04-12 10:53:00,METAR KLAX 121053Z 15006KT 10SM FEW018 BKN030 BKN065 16/12 A2993 RMK AO2 SLP133 T01610117 $,0,6.0,0,16090.0,0,0,0,
2026-04-12 09:53:00,METAR KLAX 120953Z 13004KT 10SM FEW018 SCT030 BKN065 16/12 A2994 RMK AO2 SLP136 T01610117 $,0,4.0,0,16090.0,0,0,0,
2026-04-12 08:53:00,METAR KLAX 120853Z 14007KT 10SM FEW018 SCT024 BKN030 16/12 A2996 RMK AO2 SLP143 60000 T01610122 58009 $,0,7.0,0,16090.0,0,0,0,
2026-04-12 07:53:00,METAR KLAX 120753Z 15005KT 10SM SCT025 BKN036 OVC055 17/12 A2997 RMK AO2 RAB42E51 SLP146 P0000 T01670117 402060150 $,0,5.0,0,16090.0,0,0,0,RA
2026-04-12 07:06:00,SPECI KLAX 120706Z 25008KT 10SM FEW025 BKN033 BKN055 17/11 A2999 RMK AO2 T01670111 $,0,8.0,0,16090.0,0,0,0,
2026-04-12 06:53:00,METAR KLAX 120653Z 24008KT 10SM SCT023 BKN028 16/11 A2998 RMK AO2 SLP151 T01610111 $,0,8.0,0,16090.0,0,0,0,
2026-04-12 05:53:00,METAR KLAX 120553Z 25006KT 10SM SCT024 BKN030 17/12 A2999 RMK AO2 SLP152 T01670117 10189 20161 51008 $,0,6.0,0,16090.0,0,0,0,
2026-04-12 05:34:00,SPECI KLAX 120534Z 24005KT 10SM SCT024 BKN030 16/12 A2998 RMK AO2 T01610117 $,0,5.0,0,16090.0,0,0,0,
2026-04-12 04:53:00,METAR KLAX 120453Z 26008KT 10SM BKN020 17/12 A2999 RMK AO2 SLP153 T01670117 $,0,8.0,0,16090.0,0,0,0,
2026-04-12 03:53:00,METAR KLAX 120353Z 23007KT 10SM SCT020 17/12 A2998 RMK AO2 SLP149 T01670122 $,0,7.0,0,16090.0,0,0,0,
2026-04-12 02:53:00,METAR KLAX 120253Z 24007KT 10SM FEW018 SCT030 SCT050 17/12 A2996 RMK AO2 SLP144 T01670122 $,0,7.0,0,16090.0,0,0,0,
2026-04-12 01:53:00,METAR KLAX 120153Z 26012KT 10SM FEW019 SCT033 SCT060 17/12 A2995 RMK AO2 SLP141 T01720117 $,0,12.0,0,16090.0,0,0,0,
2026-04-12 00:53:00,METAR KLAX 120053Z 26013G17KT 10SM FEW019 SCT035 SCT060 18/11 A2995 RMK AO2 SLP142 T01830111 $,0,13.0,1,16090.0,0,0,0,
2026-04-11 23:53:00,METAR KLAX 112353Z 26012G18KT 10SM FEW019 FEW040 SCT070 19/12 A2995 RMK AO2 SLP140 T01890117 10206 20189 58016 $,0,12.0,1,16090.0,0,0,0,
2026-04-11 22:53:00,METAR KLAX 112253Z 25013KT 10SM FEW020 FEW039 SCT070 19/12 A2997 RMK AO2 SLP147 T01940117 $,0,13.0,0,16090.0,0,0,0,
2026-04-11 21:53:00,METAR KLAX 112153Z 27014G21KT 10SM FEW022 FEW040 SCT080 19/12 A2998 RMK AO2 SLP153 T01940117 $,0,14.0,1,16090.0,0,0,0,
2026-04-11 20:53:00,METAR KLAX 112053Z 25010KT 10SM FEW023 FEW045 SCT080 20/12 A2999 RMK AO2 SLP155 T02000117 58017 $,0,10.0,0,16090.0,0,0,0,
2026-04-11 19:53:00,METAR KLAX 111953Z 24012G20KT 10SM FEW042 SCT085 20/12 A3002 RMK AO2 SLP162 T02000122 $,0,12.0,1,16090.0,0,0,0,
2026-04-11 18:53:00,METAR KLAX 111853Z 27011G21KT 10SM FEW034 SCT060 SCT085 20/12 A3003 RMK AO2 SLP167 T02000122 $,0,11.0,1,16090.0,0,0,0,
2026-04-11 17:53:00,METAR KLAX 111753Z 26008KT 10SM FEW032 SCT055 19/12 A3004 RMK AO2 SLP172 T01940122 10194 20150 53013 $,0,8.0,0,16090.0,0,0,0,
2026-04-11 16:53:00,METAR KLAX 111653Z 24005KT 10SM FEW020 SCT036 SCT055 18/12 A3003 RMK AO2 SLP166 T01830122 $,0,5.0,0,16090.0,0,0,0,
2026-04-11 15:53:00,METAR KLAX 111553Z 24005KT 10SM FEW019 SCT032 SCT055 18/12 A3002 RMK AO2 SLP164 T01780122 $,0,5.0,0,16090.0,0,0,0,
2026-04-11 14:53:00,METAR KLAX 111453Z 03003KT 10SM FEW017 SCT031 SCT055 17/13 A3001 RMK AO2 SLP160 T01670128 53013 $,0,3.0,0,16090.0,0,0,0,
2026-04-11 13:53:00,METAR KLAX 111353Z 32003KT 10SM FEW012 FEW017 SCT050 SCT200 15/13 A2999 RMK AO2 SLP153 T01500133 $,0,3.0,0,16090.0,0,0,0,
2026-04-11 12:53:00,METAR KLAX 111253Z 00000KT 10SM FEW012 FEW050 SCT200 16/13 A2998 RMK AO2 SLP149 T01560128 $,0,0.0,0,16090.0,0,0,0,
2026-04-11 11:53:00,METAR KLAX 111153Z 00000KT 10SM FEW012 FEW024 SCT050 16/13 A2997 RMK AO2 SLP147 T01560133 10167 20156 53001 $,0,0.0,0,16090.0,0,0,0,
2026-04-11 10:53:00,METAR KLAX 111053Z 00000KT 10SM FEW012 FEW024 SCT050 16/13 A2996 RMK AO2 SLP143 T01560133 $,0,0.0,0,16090.0,0,0,0,
2026-04-11 09:53:00,METAR KLAX 110953Z 28006KT 10SM FEW012 SCT042 SCT055 16/14 A2996 RMK AO2 SLP145 T01610139 $,0,6.0,0,16090.0,0,0,0,
2026-04-11 08:53:00,METAR KLAX 110853Z 28006KT 10SM FEW012 SCT024 BKN045 16/14 A2997 RMK AO2 SLP146 T01610139 58003 $,0,6.0,0,16090.0,0,0,0,
2026-04-11 08:32:00,SPECI KLAX 110832Z 29007KT 10SM SCT012 SCT024 BKN045 16/14 A2997 RMK AO2 T01610139 $,0,7.0,0,16090.0,0,0,0,
2026-04-11 07:53:00,METAR KLAX 110753Z 26007KT 10SM FEW012 BKN025 BKN045 16/14 A2997 RMK AO2 SLP148 T01610139 401940150 $,0,7.0,0,16090.0,0,0,0,
2026-04-11 07:31:00,SPECI KLAX 110731Z 26007KT 10SM FEW012 BKN025 BKN045 16/14 A2997 RMK AO2 T01610139 $,0,7.0,0,16090.0,0,0,0,
2026-04-11 06:53:00,METAR KLAX 110653Z 25006KT 10SM FEW012 SCT025 BKN045 16/14 A2997 RMK AO2 SLP147 T01610139 $,0,6.0,0,16090.0,0,0,0,
2026-04-11 05:53:00,METAR KLAX 110553Z 26011KT 10SM FEW012 SCT042 BKN055 17/14 A2997 RMK AO2 SLP149 T01670139 10189 20167 50013 $,0,11.0,0,16090.0,0,0,0,
2026-04-11 04:53:00,METAR KLAX 110453Z 27012KT 10SM SCT015 SCT043 BKN055 17/13 A2998 RMK AO2 SLP149 T01670128 $,0,12.0,0,16090.0,0,0,0,
2026-04-11 04:36:00,SPECI KLAX 110436Z 26014KT 10SM SCT015 BKN043 BKN055 17/13 A2997 RMK AO2 T01670133 $,0,14.0,0,16090.0,0,0,0,
2026-04-11 04:13:00,SPECI KLAX 110413Z 26014KT 10SM BKN015 BKN043 OVC055 17/13 A2997 RMK AO2 T01670133 $,0,14.0,0,16090.0,0,0,0,
2026-04-11 03:53:00,METAR KLAX 110353Z 27016KT 10SM BKN014 BKN055 BKN220 17/13 A2996 RMK AO2 SLP143 T01670133 $,0,16.0,0,16090.0,0,0,0,
2026-04-11 03:33:00,SPECI KLAX 110333Z 25013KT 10SM BKN013 BKN055 BKN220 17/14 A2995 RMK AO2 T01670139 $,0,13.0,0,16090.0,0,0,0,
2026-04-11 02:53:00,METAR KLAX 110253Z 26014KT 10SM FEW013 SCT060 SCT220 17/13 A2994 RMK AO2 SLP136 T01670133 53003 $,0,14.0,0,16090.0,0,0,0,
2026-04-11 01:53:00,METAR KLAX 110153Z 27013KT 10SM SCT013 SCT065 BKN200 BKN240 17/13 A2993 RMK AO2 SLP133 T01720133 $,0,13.0,0,16090.0,0,0,0,
2026-04-11 00:53:00,METAR KLAX 110053Z 25013KT 10SM SCT013 SCT065 BKN200 BKN240 18/13 A2993 RMK AO2 SLP133 T01780133 $,0,13.0,0,16090.0,0,0,0,
2026-04-10 23:53:00,METAR KLAX 102353Z 25011KT 10SM FEW014 FEW065 SCT110 SCT240 18/13 A2993 RMK AO2 SLP133 T01830133 10194 20178 58015 $,0,11.0,0,16090.0,0,0,0,
2026-04-10 22:53:00,METAR KLAX 102253Z 25011KT 10SM FEW016 FEW045 SCT110 BKN240 19/13 A2994 RMK AO2 SLP139 T01890128 $,0,11.0,0,16090.0,0,0,0,
2026-04-10 21:53:00,METAR KLAX 102153Z 25011KT 10SM FEW015 SCT045 BKN100 BKN240 19/13 A2996 RMK AO2 SLP144 T01890128,0,11.0,0,16090.0,0,0,0,
2026-04-10 21:33:00,SPECI KLAX 102133Z 25010KT 10SM SCT014 BKN045 BKN100 19/13 A2996 RMK AO2 T01890133,0,10.0,0,16090.0,0,0,0,
2026-04-10 20:53:00,METAR KLAX 102053Z 24010KT 10SM BKN013 BKN050 BKN100 19/13 A2997 RMK AO2 SLP148 T01940133 58010,0,10.0,0,16090.0,0,0,0,
2026-04-10 19:53:00,METAR KLAX 101953Z 25011KT 10SM BKN013 BKN100 19/13 A2999 RMK AO2 SLP153 T01890133,0,11.0,0,16090.0,0,0,0,
2026-04-10 18:53:00,METAR KLAX 101853Z 26010KT 10SM SCT013 BKN100 BKN280 18/13 A3000 RMK AO2 SLP157 T01830133,0,10.0,0,16090.0,0,0,0,
2026-04-10 18:16:00,SPECI KLAX 101816Z 22010KT 10SM FEW008 SCT016 BKN280 18/13 A3000 RMK AO2 T01830133,0,10.0,0,16090.0,0,0,0,
2026-04-10 17:53:00,METAR KLAX 101753Z 24011KT 10SM FEW010 BKN017 BKN280 18/14 A3000 RMK AO2 SLP159 T01780139 10178 20150 53014,0,11.0,0,16090.0,0,0,0,
2026-04-10 16:53:00,METAR KLAX 101653Z 24006KT 9SM FEW010 OVC015 17/14 A2998 RMK AO2 SLP152 T01720139,0,6.0,0,14481.0,0,0,0,
2026-04-10 15:53:00,METAR KLAX 101553Z 26006KT 9SM FEW010 BKN014 BKN110 BKN250 17/14 A2997 RMK AO2 SLP147 T01670139,0,6.0,0,14481.0,0,0,0,
2026-04-10 15:40:00,SPECI KLAX 101540Z COR 26006KT 9SM FEW010 BKN013 BKN110 BKN250 17/14 A2997 RMK AO2 T01670139,0,6.0,0,14481.0,0,0,0,
2026-04-10 14:53:00,METAR KLAX 101453Z 24005KT 9SM FEW009 FEW016 BKN110 BKN250 16/14 A2996 RMK AO2 SLP144 T01610139 53013,0,5.0,0,14481.0,0,0,0,
2026-04-10 13:53:00,METAR KLAX 101353Z 00000KT 10SM FEW009 FEW016 BKN110 16/13 A2994 RMK AO2 SLP137 T01560133 $,0,0.0,0,16090.0,0,0,0,
2026-04-10 13:37:00,SPECI KLAX 101337Z 00000KT 10SM SCT016 BKN110 15/13 A2994 RMK AO2 T01500133 $,0,0.0,0,16090.0,0,0,0,
2026-04-10 12:53:00,METAR KLAX 101253Z 00000KT 10SM FEW008 BKN015 15/13 A2993 RMK AO2 SLP133 T01500133 $,0,0.0,0,16090.0,0,0,0,
2026-04-10 12:50:00,SPECI KLAX 101250Z 00000KT 10SM FEW008 BKN015 15/13 A2993 RMK AO2 $,0,0.0,0,16090.0,0,0,0,
2026-04-10 12:43:00,SPECI KLAX 101243Z 00000KT 10SM FEW008 BKN014 15/13 A2993 RMK AO2 T01500133 $,0,0.0,0,16090.0,0,0,0,
2026-04-10 11:53:00,METAR KLAX 101153Z 26003KT 10SM FEW008 SCT012 SCT250 15/13 A2993 RMK AO2 SLP132 T01500133 10172 20150 56012 $,0,3.0,0,16090.0,0,0,0,
2026-04-10 11:32:00,SPECI KLAX 101132Z 27003KT 10SM FEW008 SCT012 SCT250 15/13 A2993 RMK AO2 T01500133 $,0,3.0,0,16090.0,0,0,0,
2026-04-10 10:53:00,METAR KLAX 101053Z 24004KT 10SM BKN009 BKN012 16/13 A2993 RMK AO2 SLP135 T01560133 $,0,4.0,0,16090.0,0,0,0,
2026-04-10 09:53:00,METAR KLAX 100953Z 27006KT 10SM BKN008 BKN012 16/13 A2995 RMK AO2 SLP138 T01560133 $,0,6.0,0,16090.0,0,0,0,
2026-04-10 08:53:00,METAR KLAX 100853Z 25005KT 10SM BKN008 BKN012 16/13 A2996 RMK AO2 SLP143 T01560133 50001 $,0,5.0,0,16090.0,0,0,0,
2026-04-10 07:53:00,METAR KLAX 100753Z 25007KT 10SM BKN008 BKN012 16/14 A2997 RMK AO2 SLP145 T01610139 402220156 $,0,7.0,0,16090.0,0,0,0,
2026-04-10 07:34:00,SPECI KLAX 100734Z 26010KT 10SM BKN008 BKN012 16/14 A2997 RMK AO2 T01610144 $,0,10.0,0,16090.0,0,0,0,
2026-04-10 06:53:00,METAR KLAX 100653Z 25004KT 10SM FEW008 FEW012 SCT250 16/14 A2997 RMK AO2 SLP146 T01610139 $,0,4.0,0,16090.0,0,0,0,
2026-04-10 06:43:00,SPECI KLAX 100643Z 24008KT 10SM FEW008 FEW012 SCT250 16/14 A2997 RMK AO2 T01610139 $,0,8.0,0,16090.0,0,0,0,
2026-04-10 05:53:00,METAR KLAX 100553Z 23004KT 10SM FEW010 BKN250 17/13 A2996 RMK AO2 SLP142 T01670133 10194 20167 50009 $,0,4.0,0,16090.0,0,0,0,
2026-04-10 04:53:00,METAR KLAX 100453Z 26006KT 10SM FEW010 BKN250 17/15 A2996 RMK AO2 SLP144 T01720150 $,0,6.0,0,16090.0,0,0,0,
2026-04-10 03:53:00,METAR KLAX 100353Z 25007KT 10SM FEW010 BKN250 18/16 A2995 RMK AO2 SLP138 T01780156 $,0,7.0,0,16090.0,0,0,0,
2026-04-10 03:34:00,SPECI KLAX 100334Z 29005KT 10SM FEW009 BKN250 18/16 A2993 RMK AO2 T01830156 $,0,5.0,0,16090.0,0,0,0,
2026-04-10 02:53:00,METAR KLAX 100253Z 23006KT 10SM FEW011 BKN250 18/16 A2993 RMK AO2 SLP133 T01780156 56000 $,0,6.0,0,16090.0,0,0,0,
2026-04-10 01:53:00,METAR KLAX 100153Z 26010KT 10SM FEW009 FEW200 BKN250 18/16 A2993 RMK AO2 SLP133 T01830156 $,0,10.0,0,16090.0,0,0,0,
2026-04-10 01:28:00,SPECI KLAX 100128Z 26010KT 10SM SCT009 SCT200 BKN250 18/16 A2993 RMK AO2 T01830161 $,0,10.0,0,16090.0,0,0,0,
2026-04-10 00:53:00,METAR KLAX 100053Z 26009KT 10SM FEW015 FEW050 SCT200 BKN250 19/16 A2992 RMK AO2 SLP132 T01890156 $,0,9.0,0,16090.0,0,0,0,
2026-04-09 23:53:00,METAR KLAX 092353Z 26008KT 10SM FEW015 FEW060 SCT200 BKN250 19/16 A2993 RMK AO2 SLP133 T01940156 10222 20194 57008 $,0,8.0,0,16090.0,0,0,0,
2026-04-09 22:53:00,METAR KLAX 092253Z COR 26009KT 10SM FEW060 FEW200 BKN250 20/16 A2994 RMK AO2 SLP136 T02000156 $,0,9.0,0,16090.0,0,0,0,
2026-04-09 21:53:00,METAR KLAX 092153Z 25009KT 10SM FEW060 BKN250 21/16 A2994 RMK AO2 SLP138 T02060156 $,0,9.0,0,16090.0,0,0,0,
2026-04-09 20:53:00,METAR KLAX 092053Z COR 25010GKT 10SM FEW032 SCT120 BKN160 BKN240 21/15 A2995 RMK AO2 SLP141 T02060150 58005 $,0,,0,16090.0,0,0,0,
2026-04-09 19:53:00,METAR KLAX 091953Z 25009KT 10SM FEW025 SCT120 BKN160 OVC200 21/15 A2996 RMK AO2 SLP142 T02060150 $,0,9.0,0,16090.0,0,0,0,
2026-04-09 18:53:00,METAR KLAX 091853Z 25010KT 10SM FEW018 SCT110 BKN180 21/15 A2997 RMK AO2 SLP146 T02110150 $,0,10.0,0,16090.0,0,0,0,
2026-04-09 17:53:00,METAR KLAX 091753Z VRB03KT 10SM FEW009 SCT018 BKN250 22/14 A2996 RMK AO2 SLP146 T02170139 10222 20161 51006 $,0,3.0,0,16090.0,0,0,0,
2026-04-09 16:53:00,METAR KLAX 091653Z 15005KT 8SM FEW009 SCT015 21/14 A2996 RMK AO2 SLP143 T02060144 $,0,5.0,0,12872.0,0,0,0,
2026-04-09 16:31:00,SPECI KLAX 091631Z 15004KT 8SM FEW009 SCT015 19/14 A2996 RMK AO2 T01940144 $,0,4.0,0,12872.0,0,0,0,
2026-04-09 16:17:00,SPECI KLAX 091617Z 15004KT 8SM FEW009 BKN015 19/14 A2996 RMK AO2 T01940144 $,0,4.0,0,12872.0,0,0,0,
2026-04-09 15:53:00,METAR KLAX 091553Z 11005KT 8SM OVC013 18/14 A2996 RMK AO2 SLP144 T01830144 $,0,5.0,0,12872.0,0,0,0,
2026-04-09 14:53:00,METAR KLAX 091453Z 08004KT 7SM OVC012 17/15 A2995 RMK AO2 SLP141 T01720150 53014 $,0,4.0,0,11263.0,0,0,0,
2026-04-09 14:23:00,SPECI KLAX 091423Z 09004KT 6SM BR OVC010 17/15 A2994 RMK AO2 CIG 009V012 T01720150 $,0,4.0,0,9654.0,0,0,1,BR
2026-04-09 13:53:00,METAR KLAX 091353Z 09004KT 8SM BKN009 BKN011 OVC140 17/15 A2993 RMK AO2 SLP134 T01670150 $,0,4.0,0,12872.0,0,0,0,
2026-04-09 12:53:00,METAR KLAX 091253Z 00000KT 9SM FEW008 SCT011 BKN250 16/14 A2992 RMK AO2 SLP130 T01610144 $,0,0.0,0,14481.0,0,0,0,
2026-04-09 12:36:00,SPECI KLAX 091236Z 07003KT 9SM FEW008 SCT010 BKN250 16/14 A2991 RMK AO2 SCT V BKN T01610144 $,0,3.0,0,14481.0,0,0,0,
2026-04-09 12:27:00,SPECI KLAX 091227Z 00000KT 9SM FEW008 BKN010 BKN250 17/14 A2991 RMK AO2 T01670144 $,0,0.0,0,14481.0,0,0,0,
2026-04-09 11:53:00,METAR KLAX 091153Z 08003KT 9SM FEW004 FEW010 BKN250 16/14 A2991 RMK AO2 SLP126 T01610144 10183 20156 56004 $,0,3.0,0,14481.0,0,0,0,
2026-04-09 11:36:00,SPECI KLAX 091136Z 10004KT 9SM FEW004 SCT011 BKN250 16/14 A2991 RMK AO2 T01610144 $,0,4.0,0,14481.0,0,0,0,
2026-04-09 10:53:00,METAR KLAX 091053Z 06003KT 10SM FEW011 BKN250 16/14 A2991 RMK AO2 SLP126 T01610139 $,0,3.0,0,16090.0,0,0,0,
2026-04-09 09:53:00,METAR KLAX 090953Z 05004KT 10SM FEW011 SCT250 17/14 A2991 RMK AO2 SLP127 T01670144 $,0,4.0,0,16090.0,0,0,0,
2026-04-09 08:53:00,METAR KLAX 090853Z 05005KT 10SM FEW011 SCT250 17/14 A2992 RMK AO2 SLP130 T01670144 $,0,5.0,0,16090.0,0,0,0,
2026-04-09 07:53:00,METAR KLAX 090753Z VRB04KT 10SM FEW011 SCT250 18/15 A2993 RMK AO2 SLP134 T01780150 402170144 $,0,4.0,0,16090.0,0,0,0,
2026-04-09 06:53:00,METAR KLAX 090653Z 00000KT 10SM FEW010 SCT250 18/15 A2993 RMK AO2 SLP132 T01780150 $,0,0.0,0,16090.0,0,0,0,
2026-04-09 05:53:00,METAR KLAX 090553Z 22003KT 10SM FEW010 FEW250 17/15 A2992 RMK AO2 SLP128 T01720150 10200 20172 51012 $,0,3.0,0,16090.0,0,0,0,
2026-04-09 04:53:00,METAR KLAX 090453Z 16003KT 10SM FEW010 17/15 A2991 RMK AO2 SLP127 T01720150 $,0,3.0,0,16090.0,0,0,0,
2026-04-09 03:53:00,METAR KLAX 090353Z 25004KT 10SM FEW013 17/15 A2989 RMK AO2 SLP122 T01720150 $,0,4.0,0,16090.0,0,0,0,
2026-04-09 02:53:00,METAR KLAX 090253Z 25006KT 10SM FEW013 FEW250 17/15 A2988 RMK AO2 SLP117 T01720150 55001 $,0,6.0,0,16090.0,0,0,0,
2026-04-09 01:53:00,METAR KLAX 090153Z 27006KT 10SM FEW250 19/14 A2987 RMK AO2 SLP113 T01890139 $,0,6.0,0,16090.0,0,0,0,
2026-04-09 00:53:00,METAR KLAX 090053Z 24008KT 10SM FEW013 FEW250 19/14 A2987 RMK AO2 SLP115 T01890144 $,0,8.0,0,16090.0,0,0,0,
2026-04-08 23:53:00,METAR KLAX 082353Z 27012KT 10SM FEW015 20/15 A2988 RMK AO2 SLP118 T02000150 10217 20200 58010 $,0,12.0,0,16090.0,0,0,0,
2026-04-08 22:53:00,METAR KLAX 082253Z 25011KT 10SM FEW015 FEW040 21/14 A2989 RMK AO2 SLP121 T02060144 $,0,11.0,0,16090.0,0,0,0,
2026-04-08 21:53:00,METAR KLAX 082153Z 24012KT 10SM FEW015 FEW040 21/14 A2990 RMK AO2 SLP125 T02110144 $,0,12.0,0,16090.0,0,0,0,
2026-04-08 20:53:00,METAR KLAX 082053Z 25008KT 10SM FEW025 21/14 A2991 RMK AO2 SLP127 T02110144 58011 $,0,8.0,0,16090.0,0,0,0,
2026-04-08 19:53:00,METAR KLAX 081953Z 23009KT 9SM FEW018 21/14 A2992 RMK AO2 SLP131 T02060144 $,0,9.0,0,14481.0,0,0,0,
2026-04-08 18:53:00,METAR KLAX 081853Z 21006KT 8SM FEW017 SCT180 21/14 A2994 RMK AO2 SLP136 T02060144 $,0,6.0,0,12872.0,0,0,0,
2026-04-08 17:53:00,METAR KLAX 081753Z 23005KT 7SM FEW016 SCT160 20/14 A2994 RMK AO2 SLP138 T02000144 10206 20144 50001 $,0,5.0,0,11263.0,0,0,0,
2026-04-08 17:09:00,SPECI KLAX 081709Z 27004KT 6SM HZ SCT015 SCT160 19/14 A2995 RMK AO2 T01890144 $,0,4.0,0,9654.0,0,0,0,
2026-04-08 16:53:00,METAR KLAX 081653Z 00000KT 7SM FEW009 BKN013 18/14 A2995 RMK AO2 SLP142 T01830144 $,0,0.0,0,11263.0,0,0,0,
2026-04-08 16:24:00,SPECI KLAX 081624Z 00000KT 5SM HZ FEW008 BKN010 17/14 A2996 RMK AO2 T01720144 $,0,0.0,0,8045.0,0,0,0,
2026-04-08 15:53:00,METAR KLAX 081553Z 10004KT 4SM BR BKN008 BKN012 17/14 A2995 RMK AO2 SLP142 T01670144 $,0,4.0,0,6436.0,0,0,1,BR
2026-04-08 15:20:00,SPECI KLAX 081520Z 14004KT 4SM BR BKN009 BKN012 16/14 A2995 RMK AO2 T01610144 $,0,4.0,0,6436.0,0,0,1,BR
2026-04-08 15:11:00,SPECI KLAX 081511Z 15004KT 5SM BR SCT008 BKN012 16/14 A2995 RMK AO2 T01610144 $,0,4.0,0,8045.0,0,0,1,BR
2026-04-08 14:53:00,METAR KLAX 081453Z 15005KT 6SM BR FEW009 FEW016 16/14 A2994 RMK AO2 SLP138 T01610139 53015 $,0,5.0,0,9654.0,0,0,1,BR
2026-04-08 13:53:00,METAR KLAX 081353Z 09003KT 8SM FEW008 FEW014 15/13 A2992 RMK AO2 SLP131 T01500133 $,0,3.0,0,12872.0,0,0,0,
2026-04-08 12:53:00,METAR KLAX 081253Z 08003KT 10SM FEW007 FEW012 14/13 A2990 RMK AO2 SLP124 T01440128 $,0,3.0,0,16090.0,0,0,0,
2026-04-08 11:53:00,METAR KLAX 081153Z 00000KT 10SM FEW007 FEW012 15/14 A2990 RMK AO2 SLP123 T01500139 10172 20150 56007 $,0,0.0,0,16090.0,0,0,0,
2026-04-08 10:53:00,METAR KLAX 081053Z COR 00000KT 10SM FEW007 FEW014 16/14 A2990 RMK AO2 SLP124 T01560139 $,0,0.0,0,16090.0,0,0,0,
2026-04-08 09:53:00,METAR KLAX 080953Z 00000KT 10SM FEW007 FEW014 16/14 A2991 RMK AO2 SLP126 T01560144 $,0,0.0,0,16090.0,0,0,0,
2026-04-08 08:53:00,METAR KLAX 080853Z 00000KT 10SM FEW007 FEW015 16/14 A2992 RMK AO2 SLP129 T01610144 58004 $,0,0.0,0,16090.0,0,0,0,
2026-04-08 07:53:00,METAR KLAX 080753Z 00000KT 10SM FEW007 FEW015 17/14 A2993 RMK AO2 SLP132 T01670139 402110144 $,0,0.0,0,16090.0,0,0,0,
2026-04-08 06:53:00,METAR KLAX 080653Z VRB03KT 10SM FEW007 FEW015 17/14 A2993 RMK AO2 SLP132 T01720144 $,0,3.0,0,16090.0,0,0,0,
2026-04-08 05:53:00,METAR KLAX 080553Z 23004KT 10SM FEW007 FEW015 17/15 A2993 RMK AO2 SLP134 T01670150 10194 20167 51008 $,0,4.0,0,16090.0,0,0,0,
2026-04-08 05:45:00,SPECI KLAX 080545Z 23005KT 10SM FEW007 FEW015 17/15 A2994 RMK AO2 T01670150 $,0,5.0,0,16090.0,0,0,0,
2026-04-08 04:53:00,METAR KLAX 080453Z 29003KT 10SM FEW015 17/14 A2993 RMK AO2 SLP133 T01720144 $,0,3.0,0,16090.0,0,0,0,
2026-04-08 03:53:00,METAR KLAX 080353Z 26006KT 10SM FEW015 17/14 A2992 RMK AO2 SLP131 T01720144 $,0,6.0,0,16090.0,0,0,0,
2026-04-08 02:53:00,METAR KLAX 080253Z 23005KT 10SM FEW015 17/14 A2991 RMK AO2 SLP126 T01720144 55003 $,0,5.0,0,16090.0,0,0,0,
2026-04-08 01:53:00,METAR KLAX 080153Z 26006KT 10SM FEW015 18/14 A2991 RMK AO2 SLP126 T01780144 $,0,6.0,0,16090.0,0,0,0,
2026-04-08 00:53:00,METAR KLAX 080053Z 27009KT 10SM FEW015 19/14 A2990 RMK AO2 SLP125 T01890139 $,0,9.0,0,16090.0,0,0,0,
2026-04-07 23:53:00,METAR KLAX 072353Z 24011KT 10SM FEW015 19/14 A2992 RMK AO2 SLP130 T01940139 10211 20189 56017 $,0,11.0,0,16090.0,0,0,0,
2026-04-07 22:53:00,METAR KLAX 072253Z 26015KT 10SM FEW015 FEW060 19/13 A2993 RMK AO2 SLP134 T01940133 $,0,15.0,0,16090.0,0,0,0,
2026-04-07 21:53:00,METAR KLAX 072153Z 26011KT 10SM FEW015 FEW060 21/13 A2995 RMK AO2 SLP139 T02060133 $,0,11.0,0,16090.0,0,0,0,
2026-04-07 20:53:00,METAR KLAX 072053Z 25011KT 10SM FEW160 21/13 A2997 RMK AO2 SLP146 T02060133 56015 $,0,11.0,0,16090.0,0,0,0,
2026-04-07 19:53:00,METAR KLAX 071953Z 26011KT 10SM FEW022 20/14 A2998 RMK AO2 SLP151 T02000139 $,0,11.0,0,16090.0,0,0,0,
2026-04-07 18:53:00,METAR KLAX 071853Z 25008KT 8SM FEW019 21/14 A2999 RMK AO2 SLP155 T02060139 $,0,8.0,0,12872.0,0,0,0,
2026-04-07 17:53:00,METAR KLAX 071753Z 26006KT 8SM FEW018 FEW140 19/14 A3001 RMK AO2 SLP161 T01940139 10200 20150 50001 $,0,6.0,0,12872.0,0,0,0,
2026-04-07 16:53:00,METAR KLAX 071653Z 22003KT 7SM SCT017 SCT140 19/13 A3001 RMK AO2 SLP163 T01890133 $,0,3.0,0,11263.0,0,0,0,
2026-04-07 15:53:00,METAR KLAX 071553Z VRB03KT 6SM HZ SCT010 SCT140 17/14 A3001 RMK AO2 SLP162 T01720139 $,0,3.0,0,9654.0,0,0,0,
2026-04-07 14:53:00,METAR KLAX 071453Z 04004KT 5SM HZ SCT010 SCT140 16/13 A3001 RMK AO2 SLP160 T01610133 53008 $,0,4.0,0,8045.0,0,0,0,
2026-04-07 13:53:00,METAR KLAX 071353Z COR 00000KT 6SM HZ SCT010 SCT140 15/13 A3000 RMK AO2 SLP156 T01500128 $,0,0.0,0,9654.0,0,0,0,
2026-04-07 12:53:00,METAR KLAX 071253Z 00000KT 10SM SCT011 15/13 A2999 RMK AO2 SLP154 T01500133 $,0,0.0,0,16090.0,0,0,0,
2026-04-07 11:53:00,METAR KLAX 071153Z 00000KT 10SM FEW011 16/13 A2998 RMK AO2 SLP151 T01560133 10167 20144 56011 $,0,0.0,0,16090.0,0,0,0,
2026-04-07 10:53:00,METAR KLAX 071053Z 00000KT 10SM FEW011 15/13 A2999 RMK AO2 SLP155 T01500133 $,0,0.0,0,16090.0,0,0,0,
2026-04-07 10:22:00,SPECI KLAX 071022Z 00000KT 10SM SCT011 16/13 A3000 RMK AO2 T01560133 $,0,0.0,0,16090.0,0,0,0,
2026-04-07 09:53:00,METAR KLAX 070953Z 00000KT 10SM BKN011 16/14 A3000 RMK AO2 SLP158 T01610139 $,0,0.0,0,16090.0,0,0,0,
2026-04-07 09:30:00,SPECI KLAX 070930Z 24004KT 10SM BKN012 16/14 A3001 RMK AO2 T01610139 $,0,4.0,0,16090.0,0,0,0,
2026-04-07 09:27:00,SPECI KLAX 070927Z COR 25003KT 10SM BKN012 16/14 A3001 RMK AO2 T01610139 $,0,3.0,0,16090.0,0,0,0,
2026-04-07 08:53:00,METAR KLAX 070853Z COR 00000KT 10SM FEW012 16/13 A3002 RMK AO2 SLP162 T01610133 58002 $,0,0.0,0,16090.0,0,0,0,
2026-04-07 07:53:00,METAR KLAX 070753Z 00000KT 10SM FEW011 16/13 A3003 RMK AO2 SLP165 T01610133 402560161 $,0,0.0,0,16090.0,0,0,0,
2026-04-07 06:53:00,METAR KLAX 070653Z 24007KT 10SM FEW011 16/13 A3003 RMK AO2 SLP164 T01610128 $,0,7.0,0,16090.0,0,0,0,
2026-04-07 05:53:00,METAR KLAX 070553Z 23008KT 10SM FEW011 17/13 A3002 RMK AO2 SLP163 T01670128 10206 20167 51015 $,0,8.0,0,16090.0,0,0,0,
2026-04-07 04:53:00,METAR KLAX 070453Z 24004KT 10SM FEW011 17/14 A3002 RMK AO2 SLP162 T01670139 $,0,4.0,0,16090.0,0,0,0,
2026-04-07 03:53:00,METAR KLAX 070353Z 25009KT 10SM FEW012 17/14 A3000 RMK AO2 SLP158 T01670144 $,0,9.0,0,16090.0,0,0,0,
2026-04-07 02:53:00,METAR KLAX 070253Z 25012KT 10SM FEW250 17/14 A2998 RMK AO2 SLP149 T01720139 54000 $,0,12.0,0,16090.0,0,0,0,
2026-04-07 01:53:00,METAR KLAX 070153Z 25011KT 10SM FEW010 18/13 A2998 RMK AO2 SLP150 T01780133 $,0,11.0,0,16090.0,0,0,0,
2026-04-07 00:53:00,METAR KLAX 070053Z 25010KT 10SM FEW010 19/13 A2997 RMK AO2 SLP148 T01940128 $,0,10.0,0,16090.0,0,0,0,
2026-04-06 23:53:00,METAR KLAX 062353Z 26010KT 10SM CLR 21/12 A2997 RMK AO2 SLP148 T02060117 10256 20200 56014 $,0,10.0,0,16090.0,0,0,0,
2026-04-06 22:53:00,METAR KLAX 062253Z 25013KT 10SM FEW250 21/13 A2999 RMK AO2 SLP153 T02060133 $,0,13.0,0,16090.0,0,0,0,
2026-04-06 21:53:00,METAR KLAX 062153Z 27014KT 10SM FEW015 FEW070 SCT250 21/14 A3000 RMK AO2 SLP157 T02060139 $,0,14.0,0,16090.0,0,0,0,
2026-04-06 20:53:00,METAR KLAX 062053Z 26015G24KT 10SM FEW011 FEW030 SCT180 22/14 A3001 RMK AO2 SLP163 T02170139 56006 $,0,15.0,1,16090.0,0,0,0,
2026-04-06 19:53:00,METAR KLAX 061953Z 24014KT 10SM FEW028 FEW140 SCT180 22/14 A3002 RMK AO2 SLP165 T02170139 $,0,14.0,0,16090.0,0,0,0,
2026-04-06 18:53:00,METAR KLAX 061853Z 19007KT 140V210 10SM FEW015 FEW025 SCT140 BKN180 25/10 A3002 RMK AO2 SLP165 T02500100 $,0,7.0,0,16090.0,0,0,0,
2026-04-06 17:53:00,METAR KLAX 061753Z 08005KT 10SM FEW012 SCT019 SCT120 BKN160 24/12 A3003 RMK AO2 SLP168 T02390122 10239 20172 51007 $,0,5.0,0,16090.0,0,0,0,
2026-04-06 16:53:00,METAR KLAX 061653Z 03004KT 10SM FEW011 FEW018 SCT120 BKN160 22/13 A3002 RMK AO2 SLP166 T02170133 $,0,4.0,0,16090.0,0,0,0,
2026-04-06 15:53:00,METAR KLAX 061553Z 00000KT 10SM FEW017 SCT120 BKN160 19/15 A3003 RMK AO2 SLP167 T01890150 $,0,0.0,0,16090.0,0,0,0,
2026-04-06 14:53:00,METAR KLAX 061453Z 10004KT 10SM FEW009 FEW120 OVC150 18/14 A3002 RMK AO2 SLP162 T01780139 53014 $,0,4.0,0,16090.0,0,0,0,
2026-04-06 13:53:00,METAR KLAX 061353Z 08003KT 10SM FEW008 FEW120 BKN140 OVC160 17/15 A2999 RMK AO2 SLP152 T01720150 $,0,3.0,0,16090.0,0,0,0,
2026-04-06 12:53:00,METAR KLAX 061253Z 35003KT 10SM FEW007 FEW025 OVC140 17/16 A2998 RMK AO2 SLP151 T01720156 $,0,3.0,0,16090.0,0,0,0,
2026-04-06 11:53:00,METAR KLAX 061153Z 22004KT 10SM FEW006 OVC150 17/15 A2997 RMK AO2 SLP148 T01720150 10183 20167 55004 $,0,4.0,0,16090.0,0,0,0,
2026-04-06 10:53:00,METAR KLAX 061053Z 00000KT 10SM FEW007 BKN190 OVC240 17/16 A2997 RMK AO2 SLP146 T01720156 $,0,0.0,0,16090.0,0,0,0,
2026-04-06 10:25:00,SPECI KLAX 061025Z 22005KT 10SM FEW004 SCT009 SCT180 OVC240 17/16 A2998 RMK AO2 T01720156 $,0,5.0,0,16090.0,0,0,0,
2026-04-06 09:53:00,METAR KLAX 060953Z 20006KT 10SM FEW004 SCT200 OVC240 17/15 A2998 RMK AO2 SLP149 T01720150 $,0,6.0,0,16090.0,0,0,0,
2026-04-06 09:47:00,SPECI KLAX 060947Z 18004KT 10SM FEW004 SCT200 OVC240 17/14 A2997 RMK AO2 T01720144 $,0,4.0,0,16090.0,0,0,0,
2026-04-06 08:53:00,METAR KLAX 060853Z 19005KT 10SM OVC200 18/14 A2999 RMK AO2 SLP151 T01780144 52004 $,0,5.0,0,16090.0,0,0,0,
2026-04-06 07:53:00,METAR KLAX 060753Z 25004KT 10SM BKN200 OVC240 18/13 A2998 RMK AO2 SLP150 T01830133 402560139 $,0,4.0,0,16090.0,0,0,0,
2026-04-06 06:53:00,METAR KLAX 060653Z 14004KT 10SM BKN210 OVC280 18/14 A2998 RMK AO2 SLP148 T01780139 $,0,4.0,0,16090.0,0,0,0,
2026-04-06 05:53:00,METAR KLAX 060553Z 15003KT 10SM SCT210 BKN280 18/14 A2997 RMK AO2 SLP147 T01780139 10228 20178 50005 $,0,3.0,0,16090.0,0,0,0,
2026-04-06 04:53:00,METAR KLAX 060453Z 23005KT 10SM BKN250 18/14 A2998 RMK AO2 SLP148 T01780139 $,0,5.0,0,16090.0,0,0,0,
2026-04-06 03:53:00,METAR KLAX 060353Z 25007KT 10SM FEW150 SCT250 18/14 A2997 RMK AO2 SLP148 T01780139 $,0,7.0,0,16090.0,0,0,0,
2026-04-06 02:53:00,METAR KLAX 060253Z 25007KT 10SM BKN150 BKN250 18/14 A2996 RMK AO2 SLP143 T01830144 56004 $,0,7.0,0,16090.0,0,0,0,
2026-04-06 01:53:00,METAR KLAX 060153Z 26010KT 10SM SCT150 BKN240 19/13 A2996 RMK AO2 SLP143 T01940133 $,0,10.0,0,16090.0,0,0,0,
2026-04-06 00:53:00,METAR KLAX 060053Z 25011KT 10SM FEW150 SCT250 21/11 A2996 RMK AO2 SLP145 T02110111 $,0,11.0,0,16090.0,0,0,0,
2026-04-05 23:53:00,METAR KLAX 052353Z 25009KT 10SM FEW150 BKN250 22/09 A2997 RMK AO2 SLP146 T02220089 10239 20217 56012 $,0,9.0,0,16090.0,0,0,0,
2026-04-05 22:53:00,METAR KLAX 052253Z 26010KT 10SM BKN250 22/09 A2997 RMK AO2 SLP148 T02170089 $,0,10.0,0,16090.0,0,0,0,
2026-04-05 21:53:00,METAR KLAX 052153Z 27013KT 10SM BKN250 23/11 A2999 RMK AO2 SLP153 T02280106 $,0,13.0,0,16090.0,0,0,0,
2026-04-05 20:53:00,METAR KLAX 052053Z 24011KT 10SM FEW220 FEW260 SCT300 23/11 A3000 RMK AO2 SLP158 T02330106 58003 $,0,11.0,0,16090.0,0,0,0,
2026-04-05 19:53:00,METAR KLAX 051953Z 25009KT 10SM FEW240 SCT300 22/12 A3001 RMK AO2 SLP160 T02220117 $,0,9.0,0,16090.0,0,0,0,
2026-04-05 18:53:00,METAR KLAX 051853Z 26009KT 10SM FEW220 SCT260 BKN300 22/12 A3001 RMK AO2 SLP162 T02220117 $,0,9.0,0,16090.0,0,0,0,
2026-04-05 17:53:00,METAR KLAX 051753Z 26009KT 10SM FEW220 SCT270 BKN300 24/11 A3001 RMK AO2 SLP160 T02390111 10256 20139 53008 $,0,9.0,0,16090.0,0,0,0,
2026-04-05 16:53:00,METAR KLAX 051653Z VRB03KT 10SM FEW220 SCT270 BKN300 24/02 A3000 RMK AO2 SLP156 T02390017 $,0,3.0,0,16090.0,0,0,0,
2026-04-05 15:53:00,METAR KLAX 051553Z 10006KT 10SM R25L/1200VP6000FT FEW230 SCT270 BKN300 20/01 A2999 RMK AO2 SLP155 T02000011 $,0,6.0,0,16090.0,0,0,0,
2026-04-05 14:53:00,METAR KLAX 051453Z 06004KT 10SM FEW230 SCT270 BKN300 17/08 A2999 RMK AO2 SLP153 T01670078 53005 $,0,4.0,0,16090.0,0,0,0,
2026-04-05 12:53:00,METAR KLAX 051253Z 11003KT 10SM FEW250 15/08 A2998 RMK AO2 SLP148 T01500083 $,0,3.0,0,16090.0,0,0,0,
2026-04-05 11:53:00,METAR KLAX 051153Z 09005KT 10SM FEW250 15/07 A2997 RMK AO2 SLP147 T01500067 10194 20144 58008 $,0,5.0,0,16090.0,0,0,0,
2026-04-05 10:53:00,METAR KLAX 051053Z 08005KT 10SM CLR 14/06 A2998 RMK AO2 SLP150 T01440061 $,0,5.0,0,16090.0,0,0,0,
2026-04-05 09:53:00,METAR KLAX 050953Z 09005KT 10SM CLR 17/04 A2999 RMK AO2 SLP153 T01670039 $,0,5.0,0,16090.0,0,0,0,
2026-04-05 08:53:00,METAR KLAX 050853Z 10004KT 10SM CLR 17/08 A3000 RMK AO2 SLP154 T01670083 50001 $,0,4.0,0,16090.0,0,0,0,
2026-04-05 07:53:00,METAR KLAX 050753Z 10005KT 10SM CLR 17/09 A3000 RMK AO2 SLP155 T01670094 403060133 $,0,5.0,0,16090.0,0,0,0,
2026-04-05 06:53:00,METAR KLAX 050653Z 11003KT 10SM CLR 18/11 A2999 RMK AO2 SLP153 T01830106 $,0,3.0,0,16090.0,0,0,0,
2026-04-05 05:53:00,METAR KLAX 050553Z 10003KT 10SM CLR 18/09 A2999 RMK AO2 SLP153 T01830089 10250 20183 51013 $,0,3.0,0,16090.0,0,0,0,
2026-04-05 04:53:00,METAR KLAX 050453Z 21003KT 10SM SCT240 21/08 A2998 RMK AO2 SLP151 T02060083 $,0,3.0,0,16090.0,0,0,0,
2026-04-05 03:53:00,METAR KLAX 050353Z 25009KT 10SM SCT240 20/10 A2997 RMK AO2 SLP145 T02000100 $,0,9.0,0,16090.0,0,0,0,
2026-04-05 02:53:00,METAR KLAX 050253Z 25010KT 10SM FEW200 SCT250 22/03 A2995 RMK AO2 SLP141 T02170033 52001 $,0,10.0,0,16090.0,0,0,0,
2026-04-05 01:53:00,METAR KLAX 050153Z 26015KT 10SM SCT220 SCT280 23/02 A2995 RMK AO2 SLP141 T02280022 $,0,15.0,0,16090.0,0,0,0,
2026-04-05 00:53:00,METAR KLAX 050053Z 26016KT 10SM SCT220 SCT280 24/05 A2995 RMK AO2 SLP141 T02390050 $,0,16.0,0,16090.0,0,0,0,
2026-04-04 23:53:00,METAR KLAX 042353Z 26013KT 10SM SCT230 SCT280 24/03 A2995 RMK AO2 SLP140 T02440028 10306 20228 56014 $,0,13.0,0,16090.0,0,0,0,
2026-04-04 22:53:00,METAR KLAX 042253Z 27015KT 10SM FEW240 SCT300 24/10 A2996 RMK AO2 SLP144 T02390100 $,0,15.0,0,16090.0,0,0,0,
2026-04-04 21:53:00,METAR KLAX 042153Z 24013KT 10SM FEW250 SCT300 26/07 A2997 RMK AO2 SLP148 T02610072 $,0,13.0,0,16090.0,0,0,0,
2026-04-04 20:53:00,METAR KLAX 042053Z 26012KT 10SM FEW260 SCT300 28/01 A2999 RMK AO2 SLP153 T02780011 58016 $,0,12.0,0,16090.0,0,0,0,
2026-04-04 19:53:00,METAR KLAX 041953Z 25007KT 10SM FEW260 SCT300 29/00 A3000 RMK AO2 SLP158 T02940000 $,0,7.0,0,16090.0,0,0,0,
2026-04-04 18:53:00,METAR KLAX 041853Z VRB04KT 10SM FEW260 SCT300 29/M08 A3002 RMK AO2 SLP163 T02941078 $,0,4.0,0,16090.0,0,0,0,
2026-04-04 17:53:00,METAR KLAX 041753Z VRB03KT 10SM FEW260 FEW300 26/M07 A3003 RMK AO2 SLP169 T02611067 10261 20139 51005 $,0,3.0,0,16090.0,0,0,0,
2026-04-04 16:53:00,METAR KLAX 041653Z VRB04KT 10SM FEW220 FEW260 SCT300 24/01 A3003 RMK AO2 SLP169 T02440006 $,0,4.0,0,16090.0,0,0,0,
2026-04-04 15:53:00,METAR KLAX 041553Z 00000KT 10SM FEW220 FEW260 SCT300 22/06 A3003 RMK AO2 SLP168 T02170056 $,0,0.0,0,16090.0,0,0,0,
2026-04-04 14:53:00,METAR KLAX 041453Z 00000KT 10SM FEW190 FEW240 SCT290 17/09 A3002 RMK AO2 SLP166 T01670094 53016 $,0,0.0,0,16090.0,0,0,0,
2026-04-04 13:53:00,METAR KLAX 041353Z 13004KT 10SM FEW190 FEW240 SCT290 15/09 A3001 RMK AO2 SLP159 T01500089 $,0,4.0,0,16090.0,0,0,0,
2026-04-04 12:53:00,METAR KLAX 041253Z VRB03KT 10SM FEW240 FEW290 16/08 A2998 RMK AO2 SLP151 T01560083 $,0,3.0,0,16090.0,0,0,0,
2026-04-04 11:53:00,METAR KLAX 041153Z 00000KT 10SM FEW240 FEW290 16/11 A2998 RMK AO2 SLP148 T01560106 10200 20133 58019 $,0,0.0,0,16090.0,0,0,0,
2026-04-04 10:53:00,METAR KLAX 041053Z 00000KT 10SM FEW240 FEW290 14/13 A3000 RMK AO2 SLP156 T01390128 $,0,0.0,0,16090.0,0,0,0,
2026-04-04 09:53:00,METAR KLAX 040953Z 06003KT 10SM FEW240 SCT290 16/14 A3002 RMK AO2 SLP162 T01610144 $,0,3.0,0,16090.0,0,0,0,
2026-04-04 08:53:00,METAR KLAX 040853Z 00000KT 10SM FEW240 SCT290 17/14 A3003 RMK AO2 SLP168 T01670144 50001 $,0,0.0,0,16090.0,0,0,0,
2026-04-04 07:53:00,METAR KLAX 040753Z 12007KT 10SM FEW240 SCT290 17/14 A3004 RMK AO2 SLP170 T01720144 402560133 $,0,7.0,0,16090.0,0,0,0,
2026-04-04 06:53:00,METAR KLAX 040653Z VRB04KT 10SM SCT240 SCT290 19/12 A3004 RMK AO2 SLP168 T01890122 $,0,4.0,0,16090.0,0,0,0,
2026-04-04 05:53:00,METAR KLAX 040553Z 09003KT 10SM FEW190 SCT240 SCT290 19/11 A3003 RMK AO2 SLP167 T01940106 10206 20183 51017 $,0,3.0,0,16090.0,0,0,0,
2026-04-04 04:53:00,METAR KLAX 040453Z 00000KT 10SM FEW190 SCT240 SCT290 20/11 A3002 RMK AO2 SLP163 T02000106 $,0,0.0,0,16090.0,0,0,0,
2026-04-04 03:53:00,METAR KLAX 040353Z 00000KT 10SM FEW190 SCT240 SCT290 19/11 A3000 RMK AO2 SLP157 T01940111 $,0,0.0,0,16090.0,0,0,0,
2026-04-04 02:53:00,METAR KLAX 040253Z 25004KT 10SM FEW190 SCT240 SCT290 19/13 A2998 RMK AO2 SLP152 T01890128 53008 $,0,4.0,0,16090.0,0,0,0,
2026-04-04 01:53:00,METAR KLAX 040153Z 26008KT 10SM FEW230 BKN290 19/14 A2997 RMK AO2 SLP149 T01890139 $,0,8.0,0,16090.0,0,0,0,
2026-04-04 00:53:00,METAR KLAX 040053Z 26009KT 10SM FEW240 BKN280 20/13 A2996 RMK AO2 SLP144 T02000133 $,0,9.0,0,16090.0,0,0,0,
2026-04-03 23:53:00,METAR KLAX 032353Z 27012KT 10SM FEW240 BKN280 21/13 A2996 RMK AO2 SLP144 T02060133 10256 20200 58014 $,0,12.0,0,16090.0,0,0,0,
2026-04-03 22:53:00,METAR KLAX 032253Z 27013KT 10SM FEW230 SCT270 BKN300 21/14 A2997 RMK AO2 SLP148 T02060139 $,0,13.0,0,16090.0,0,0,0,
2026-04-03 21:53:00,METAR KLAX 032153Z 28013KT 10SM FEW230 SCT270 BKN300 21/13 A2999 RMK AO2 SLP155 T02110133 $,0,13.0,0,16090.0,0,0,0,
2026-04-03 20:53:00,METAR KLAX 032053Z 27011KT 10SM FEW060 SCT120 BKN160 BKN250 22/14 A3000 RMK AO2 SLP157 T02220139 58004 $,0,11.0,0,16090.0,0,0,0,
2026-04-03 19:53:00,METAR KLAX 031953Z 32006KT 10SM FEW060 SCT100 BKN160 BKN250 26/09 A3000 RMK AO2 SLP157 T02560089 $,0,6.0,0,16090.0,0,0,0,
2026-04-03 18:53:00,METAR KLAX 031853Z 12003KT 10SM FEW060 SCT100 BKN160 BKN250 22/09 A3000 RMK AO2 SLP159 T02220094 $,0,3.0,0,16090.0,0,0,0,
2026-04-03 17:53:00,METAR KLAX 031753Z 08004KT 10SM FEW100 SCT160 BKN250 21/11 A3001 RMK AO2 SLP160 T02110111 10211 20133 51005 $,0,4.0,0,16090.0,0,0,0,
2026-04-03 16:53:00,METAR KLAX 031653Z 12005KT 10SM FEW010 SCT160 BKN250 19/12 A3001 RMK AO2 SLP161 T01940117 $,0,5.0,0,16090.0,0,0,0,
2026-04-03 15:53:00,METAR KLAX 031553Z 13003KT 10SM FEW010 SCT160 BKN180 17/12 A3001 RMK AO2 SLP160 T01720122 $,0,3.0,0,16090.0,0,0,0,
2026-04-03 14:53:00,METAR KLAX 031453Z 06003KT 10SM FEW016 FEW160 SCT250 16/13 A3000 RMK AO2 SLP156 T01560128 53018 $,0,3.0,0,16090.0,0,0,0,
2026-04-03 13:53:00,METAR KLAX 031353Z VRB03KT 10SM FEW015 SCT200 15/12 A2997 RMK AO2 SLP147 T01500117 $,0,3.0,0,16090.0,0,0,0,
2026-04-03 12:53:00,METAR KLAX 031253Z 08003KT 10SM FEW015 FEW200 13/11 A2996 RMK AO2 SLP142 T01330111 $,0,3.0,0,16090.0,0,0,0,
2026-04-03 11:53:00,METAR KLAX 031153Z 07003KT 10SM FEW016 FEW200 13/12 A2995 RMK AO2 SLP138 T01330117 10167 20133 56006 $,0,3.0,0,16090.0,0,0,0,
2026-04-03 08:53:00,METAR KLAX 030853Z 08003KT 10SM FEW050 FEW200 15/12 A2996 RMK AO2 SLP144 402000150 T01500122 50003 $,0,3.0,0,16090.0,0,0,0,
2026-04-03 05:53:00,METAR KLAX 030553Z 00000KT 10SM FEW020 SCT050 16/13 A2995 RMK AO2 SLP141 T01610128 10189 20161 51011 $,0,0.0,0,16090.0,0,0,0,
2026-04-03 04:53:00,METAR KLAX 030453Z 24008KT 10SM FEW050 16/13 A2995 RMK AO2 SLP139 T01610128 $,0,8.0,0,16090.0,0,0,0,
2026-04-03 03:53:00,METAR KLAX 030353Z 26013KT 10SM FEW055 16/13 A2993 RMK AO2 SLP134 T01610128 $,0,13.0,0,16090.0,0,0,0,
2026-04-03 02:53:00,METAR KLAX 030253Z 25008KT 10SM FEW015 FEW055 SCT250 17/13 A2992 RMK AO2 SLP131 T01670133 50001 $,0,8.0,0,16090.0,0,0,0,
2026-04-03 01:53:00,METAR KLAX 030153Z 25008KT 10SM FEW010 FEW055 SCT250 17/12 A2992 RMK AO2 SLP131 T01720122 $,0,8.0,0,16090.0,0,0,0,
2026-04-03 00:53:00,METAR KLAX 030053Z 27012KT 10SM FEW060 FEW250 18/12 A2992 RMK AO2 SLP130 T01830122 $,0,12.0,0,16090.0,0,0,0,
2026-04-02 23:53:00,METAR KLAX 022353Z 24010KT 10SM FEW015 FEW060 SCT250 19/12 A2992 RMK AO2 SLP130 T01890122 10200 20183 56017 $,0,10.0,0,16090.0,0,0,0,
2026-04-02 22:53:00,METAR KLAX 022253Z 25012KT 10SM FEW015 FEW060 SCT250 19/12 A2993 RMK AO2 SLP133 T01890117 $,0,12.0,0,16090.0,0,0,0,
2026-04-02 21:53:00,METAR KLAX 022153Z 24013KT 10SM FEW015 FEW060 SCT250 19/11 A2994 RMK AO2 SLP139 T01940111 $,0,13.0,0,16090.0,0,0,0,
2026-04-02 20:53:00,METAR KLAX 022053Z 24012G19KT 10SM FEW010 SCT160 SCT250 20/12 A2997 RMK AO2 SLP147 T02000117 58014 $,0,12.0,1,16090.0,0,0,0,
2026-04-02 19:53:00,METAR KLAX 021953Z 25011KT 10SM FEW010 SCT160 BKN250 19/11 A2998 RMK AO2 SLP152 T01940111 $,0,11.0,0,16090.0,0,0,0,
2026-04-02 18:53:00,METAR KLAX 021853Z 25008KT 10SM FEW010 SCT160 BKN250 18/11 A3000 RMK AO2 SLP158 T01830111 $,0,8.0,0,16090.0,0,0,0,
2026-04-02 17:53:00,METAR KLAX 021753Z 26005KT 10SM FEW024 FEW031 SCT160 BKN250 18/11 A3001 RMK AO2 SLP161 T01830111 10183 20150 51013 $,0,5.0,0,16090.0,0,0,0,
2026-04-02 16:53:00,METAR KLAX 021653Z 27008KT 10SM FEW010 BKN033 BKN160 BKN250 17/12 A3000 RMK AO2 SLP159 T01670117 $,0,8.0,0,16090.0,0,0,0,
2026-04-02 15:53:00,METAR KLAX 021553Z 27010KT 10SM FEW010 FEW024 BKN035 BKN160 17/12 A2999 RMK AO2 SLP154 T01670117 $,0,10.0,0,16090.0,0,0,0,
2026-04-02 14:53:00,METAR KLAX 021453Z 27010KT 10SM FEW010 BKN033 BKN160 17/12 A2997 RMK AO2 SLP148 T01670122 53006 $,0,10.0,0,16090.0,0,0,0,
2026-04-02 13:53:00,METAR KLAX 021353Z COR 26007KT 10SM FEW011 FEW020 SCT045 BKN250 16/12 A2996 RMK AO2 SLP142 T01560117 $,0,7.0,0,16090.0,0,0,0,
2026-04-02 12:53:00,METAR KLAX 021253Z 28006KT 10SM FEW011 FEW020 SCT045 BKN250 15/12 A2996 RMK AO2 SLP143 T01500122 $,0,6.0,0,16090.0,0,0,0,
2026-04-02 11:53:00,METAR KLAX 021153Z 27009KT 10SM FEW012 FEW021 SCT042 BKN250 16/12 A2996 RMK AO2 SLP142 T01560122 10167 20150 56015 $,0,9.0,0,16090.0,0,0,0,
2026-04-02 10:53:00,METAR KLAX 021053Z 27012KT 10SM FEW012 SCT021 BKN050 BKN250 16/12 A2996 RMK AO2 SLP144 T01560122 $,0,12.0,0,16090.0,0,0,0,
2026-04-02 10:48:00,SPECI KLAX 021048Z 28013KT 10SM FEW012 SCT021 BKN050 BKN250 16/12 A2997 RMK AO2 $,0,13.0,0,16090.0,0,0,0,
2026-04-02 10:18:00,SPECI KLAX 021018Z 27014KT 10SM FEW012 BKN021 BKN050 BKN250 16/12 A2998 RMK AO2 T01560122 $,0,14.0,0,16090.0,0,0,0,
2026-04-02 09:53:00,METAR KLAX 020953Z 26009KT 10SM FEW012 BKN045 BKN250 16/13 A2998 RMK AO2 SLP151 T01560128 $,0,9.0,0,16090.0,0,0,0,
2026-04-02 08:53:00,METAR KLAX 020853Z 28010KT 10SM FEW012 BKN045 BKN250 16/13 A3000 RMK AO2 SLP157 T01560128 56001 $,0,10.0,0,16090.0,0,0,0,
2026-04-02 07:53:00,METAR KLAX 020753Z 26008KT 10SM FEW015 BKN045 BKN250 16/13 A3000 RMK AO2 SLP157 T01610128 402000150 $,0,8.0,0,16090.0,0,0,0,
2026-04-02 06:53:00,METAR KLAX 020653Z 28013KT 10SM FEW015 FEW040 SCT150 SCT250 16/12 A3000 RMK AO2 SLP157 T01610117 $,0,13.0,0,16090.0,0,0,0,
2026-04-02 05:53:00,METAR KLAX 020553Z 27013KT 10SM FEW015 FEW040 SCT150 SCT250 16/12 A3000 RMK AO2 SLP158 T01610122 10189 20161 51009 $,0,13.0,0,16090.0,0,0,0,
2026-04-02 04:53:00,METAR KLAX 020453Z 27015KT 10SM FEW015 FEW040 SCT250 17/13 A3000 RMK AO2 SLP157 T01670128 $,0,15.0,0,16090.0,0,0,0,
2026-04-02 03:53:00,METAR KLAX 020353Z 27013KT 10SM FEW015 FEW050 SCT250 17/14 A2998 RMK AO2 SLP150 T01670139 $,0,13.0,0,16090.0,0,0,0,
2026-04-02 02:53:00,METAR KLAX 020253Z 25013KT 10SM FEW015 FEW050 SCT250 17/13 A2997 RMK AO2 SLP149 T01670133 53005 $,0,13.0,0,16090.0,0,0,0,
2026-04-02 01:53:00,METAR KLAX 020153Z 25016KT 10SM FEW015 FEW050 SCT250 17/14 A2997 RMK AO2 SLP146 T01720139 $,0,16.0,0,16090.0,0,0,0,
2026-04-02 00:53:00,METAR KLAX 020053Z 26016KT 10SM FEW015 SCT060 SCT250 18/14 A2996 RMK AO2 SLP144 T01830139 $,0,16.0,0,16090.0,0,0,0,
2026-04-01 23:53:00,METAR KLAX 012353Z 26015KT 10SM FEW015 FEW060 SCT250 19/12 A2996 RMK AO2 SLP144 T01890117 10200 20183 56012 $,0,15.0,0,16090.0,0,0,0,
2026-04-01 22:53:00,METAR KLAX 012253Z 25013KT 10SM FEW015 FEW060 SCT250 19/11 A2997 RMK AO2 SLP148 T01940106 $,0,13.0,0,16090.0,0,0,0,
2026-04-01 21:53:00,METAR KLAX 012153Z 25014KT 10SM FEW015 FEW060 19/12 A2998 RMK AO2 SLP151 T01940117 $,0,14.0,0,16090.0,0,0,0,
2026-04-01 20:53:00,METAR KLAX 012053Z 27011KT 10SM FEW012 FEW029 SCT180 19/11 A2999 RMK AO2 SLP155 T01940111 58005 $,0,11.0,0,16090.0,0,0,0,
2026-04-01 19:53:00,METAR KLAX 011953Z COR 27010KT 10SM FEW010 FEW027 SCT160 19/12 A3001 RMK AO2 SLP161 T01940122 $,0,10.0,0,16090.0,0,0,0,
2026-04-01 18:53:00,METAR KLAX 011853Z 24009KT 10SM FEW010 FEW025 SCT150 SCT180 19/13 A3002 RMK AO2 SLP163 T01940128 $,0,9.0,0,16090.0,0,0,0,
2026-04-01 17:53:00,METAR KLAX 011753Z 25007KT 10SM FEW022 FEW060 SCT140 SCT180 19/13 A3001 RMK AO2 SLP160 T01890128 10189 20150 53015 $,0,7.0,0,16090.0,0,0,0,
2026-04-01 16:53:00,METAR KLAX 011653Z 24008KT 10SM FEW009 FEW019 SCT060 BKN140 18/13 A2999 RMK AO2 SLP154 T01830133 $,0,8.0,0,16090.0,0,0,0,
2026-04-01 15:53:00,METAR KLAX 011553Z 22007KT 10SM FEW009 SCT029 BKN055 BKN140 17/14 A2998 RMK AO2 SLP151 T01720139 $,0,7.0,0,16090.0,0,0,0,
2026-04-01 14:58:00,SPECI KLAX 011458Z 24005KT 10SM FEW009 SCT026 BKN140 16/13 A2997 RMK AO2 T01560133,0,5.0,0,16090.0,0,0,0,
2026-04-01 14:53:00,METAR KLAX 011453Z 25006KT 10SM FEW006 BKN026 BKN065 BKN140 16/13 A2997 RMK AO2 SLP146 T01560133 53014 $,0,6.0,0,16090.0,0,0,0,
2026-04-01 13:53:00,METAR KLAX 011353Z 24006KT 10SM FEW007 FEW025 SCT060 BKN140 16/13 A2995 RMK AO2 SLP141 T01560133 $,0,6.0,0,16090.0,0,0,0,
2026-04-01 12:53:00,METAR KLAX 011253Z 25007KT 10SM FEW008 FEW020 SCT060 BKN150 15/13 A2994 RMK AO2 SLP135 T01500133 $,0,7.0,0,16090.0,0,0,0,
2026-04-01 12:30:00,SPECI KLAX 011230Z 28005KT 10SM FEW008 SCT018 SCT060 BKN150 16/13 A2994 RMK AO2 T01610133 $,0,5.0,0,16090.0,0,0,0,
2026-04-01 11:53:00,METAR KLAX 011153Z 29008KT 10SM FEW008 BKN018 BKN026 17/14 A2993 RMK AO2 SLP132 60009 70011 T01670139 10178 20161 55002 $,0,8.0,0,16090.0,0,0,0,
2026-04-01 10:53:00,METAR KLAX 011053Z 26007KT 10SM FEW007 BKN018 BKN055 16/14 A2992 RMK AO2 SLP129 T01610144 $,0,7.0,0,16090.0,0,0,0,
2026-04-01 10:22:00,SPECI KLAX 011022Z 26005KT 10SM SCT008 BKN016 BKN055 16/14 A2992 RMK AO2 T01610144 $,0,5.0,0,16090.0,0,0,0,
2026-04-01 09:53:00,METAR KLAX 010953Z 30007KT 9SM FEW007 SCT011 BKN060 16/15 A2992 RMK AO2 RAE0857 SLP130 P0000 T01610150 $,0,7.0,0,14481.0,0,0,0,RA
2026-04-01 08:53:00,METAR KLAX 010853Z 29006KT 7SM -RA FEW008 SCT020 OVC060 17/16 A2993 RMK AO2 SLP134 P0004 60009 T01670156 50000 $,0,6.0,0,11263.0,0,0,0,-RA
2026-04-01 08:24:00,SPECI KLAX 010824Z 29005KT 8SM -RA FEW008 SCT020 OVC060 17/16 A2994 RMK AO2 P0002 T01670156 $,0,5.0,0,12872.0,0,0,0,-RA
2026-04-01 07:53:00,METAR KLAX 010753Z 27013KT 9SM -RA FEW009 BKN016 OVC065 17/16 A2996 RMK AO2 SLP141 P0003 T01670156 402060167 $,0,13.0,0,14481.0,0,0,0,-RA
2026-04-01 07:47:00,SPECI KLAX 010747Z 27013KT 8SM -RA FEW009 BKN016 OVC065 17/16 A2997 RMK AO2 P0002 T01670156 $,0,13.0,0,12872.0,0,0,0,-RA
2026-04-01 06:53:00,METAR KLAX 010653Z 26007KT 9SM -RA SCT014 BKN022 OVC065 17/16 A2996 RMK AO2 SLP142 P0002 T01720156 $,0,7.0,0,14481.0,0,0,0,-RA
2026-04-01 06:37:00,SPECI KLAX 010637Z 27011KT 9SM -RA SCT014 BKN025 OVC080 17/16 A2995 RMK AO2 P0002 T01720156 $,0,11.0,0,14481.0,0,0,0,-RA
2026-04-01 05:53:00,METAR KLAX 010553Z 00000KT 10SM -RA FEW018 FEW025 OVC080 18/15 A2993 RMK AO2 SLP134 P0002 60002 T01780150 10189 20172 55000 $,0,0.0,0,16090.0,0,0,0,-RA
2026-04-01 04:53:00,METAR KLAX 010453Z 10008KT 9SM -RA OVC090 18/15 A2992 RMK AO2 RAE00B24 SLP129 P0000 T01780150 $,0,8.0,0,14481.0,0,0,0,"-RA,RA"
2026-04-01 03:53:00,METAR KLAX 010353Z 10009KT 10SM -RA OVC095 17/14 A2991 RMK AO2 RAB26 SLP127 P0000 T01720144 $,0,9.0,0,16090.0,0,0,0,-RA
2026-04-01 02:53:00,METAR KLAX 010253Z 25004KT 10SM SCT037 OVC095 18/14 A2993 RMK AO2 SLP134 T01780139 56006 $,0,4.0,0,16090.0,0,0,0,
2026-04-01 01:53:00,METAR KLAX 010153Z 24006KT 10SM FEW027 OVC110 18/14 A2993 RMK AO2 SLP134 T01830139 $,0,6.0,0,16090.0,0,0,0,
2026-04-01 00:53:00,METAR KLAX 010053Z 30007KT 10SM FEW027 OVC120 18/14 A2994 RMK AO2 SLP136 T01830139 $,0,7.0,0,16090.0,0,0,0,
2026-03-31 23:53:00,METAR KLAX 312353Z 30009KT 10SM FEW023 FEW036 OVC130 18/15 A2995 RMK AO2 SLP140 T01830150 10206 20183 55007 $,0,9.0,0,16090.0,0,0,0,
2026-03-31 22:53:00,METAR KLAX 312253Z 25008KT 10SM FEW032 SCT080 SCT110 OVC150 19/16 A2995 RMK AO2 SLP139 T01940156 $,0,8.0,0,16090.0,0,0,0,
2026-03-31 21:53:00,METAR KLAX 312153Z 13004G15KT 10SM FEW026 FEW040 OVC150 21/14 A2995 RMK AO2 SLP142 T02060139 $,0,4.0,1,16090.0,0,0,0,
2026-03-31 20:53:00,METAR KLAX 312053Z VRB04KT 10SM FEW025 SCT030 OVC039 21/14 A2997 RMK AO2 SLP147 T02060144 58002 $,0,4.0,0,16090.0,0,0,0,
2026-03-31 20:43:00,SPECI KLAX 312043Z 17005KT 10SM SCT027 BKN038 21/14 A2997 RMK AO2 T02060144 $,0,5.0,0,16090.0,0,0,0,
2026-03-31 20:08:00,SPECI KLAX 312008Z 23005KT 10SM BKN029 OVC035 21/14 A2996 RMK AO2 T02060139 $,0,5.0,0,16090.0,0,0,0,
2026-03-31 19:53:00,METAR KLAX 311953Z 19004KT 10SM BKN030 BKN034 21/14 A2997 RMK AO2 SLP147 T02060144 $,0,4.0,0,16090.0,0,0,0,
2026-03-31 18:53:00,METAR KLAX 311853Z 16008KT 10SM SCT025 OVC031 20/14 A2998 RMK AO2 SLP149 T02000139 $,0,8.0,0,16090.0,0,0,0,
2026-03-31 18:21:00,SPECI KLAX 311821Z 16006KT 10SM SCT024 BKN033 20/14 A2998 RMK AO2 T02000144,0,6.0,0,16090.0,0,0,0,
2026-03-31 17:53:00,METAR KLAX 311753Z 12009G18KT 10SM SCT025 OVC140 20/14 A2998 RMK AO2 SLP149 SCT V BKN T02000144 10200 20178 50012,0,9.0,1,16090.0,0,0,0,
2026-03-31 17:37:00,SPECI KLAX 311737Z 11009KT 10SM SCT025 OVC030 19/14 A2997 RMK AO2 T01940144,0,9.0,0,16090.0,0,0,0,
2026-03-31 16:53:00,METAR KLAX 311653Z 00000KT 10SM BKN023 OVC029 18/14 A2999 RMK AO2 SLP155 T01830144,0,0.0,0,16090.0,0,0,0,
2026-03-31 16:28:00,SPECI KLAX 311628Z 23006KT 9SM OVC023 18/14 A3000 RMK AO2 T01830144,0,6.0,0,14481.0,0,0,0,
2026-03-31 15:53:00,METAR KLAX 311553Z 21009KT 10SM SCT021 BKN030 OVC180 19/14 A3000 RMK AO2 SLP156 T01890144,0,9.0,0,16090.0,0,0,0,
2026-03-31 14:53:00,METAR KLAX 311453Z 11007KT 10SM FEW025 SCT034 OVC180 18/14 A2994 RMK AO2 SLP138 T01830144 50001,0,7.0,0,16090.0,0,0,0,
2026-03-31 14:07:00,SPECI KLAX 311407Z 12008KT 10SM SCT022 BKN032 OVC180 18/14 A2995 RMK AO2 T01830144,0,8.0,0,16090.0,0,0,0,
2026-03-31 13:53:00,METAR KLAX 311353Z 10009KT 10SM SCT022 BKN029 OVC180 18/14 A2995 RMK AO2 SLP141 T01830144,0,9.0,0,16090.0,0,0,0,
2026-03-31 13:32:00,SPECI KLAX 311332Z 08007KT 10SM FEW023 BKN029 OVC180 18/14 A2995 RMK AO2 T01830144,0,7.0,0,16090.0,0,0,0,
2026-03-31 12:53:00,METAR KLAX 311253Z 15003KT 10SM SCT016 BKN030 OVC200 18/14 A2995 RMK AO2 SLP141 T01830144,0,3.0,0,16090.0,0,0,0,
2026-03-31 12:35:00,SPECI KLAX 311235Z 14004KT 10SM FEW014 BKN030 OVC200 18/14 A2995 RMK AO2 T01830144,0,4.0,0,16090.0,0,0,0,
2026-03-31 11:53:00,METAR KLAX 311153Z 16003KT 10SM FEW014 BKN025 OVC250 18/14 A2994 RMK AO2 SLP136 T01830144 10183 20172 55011,0,3.0,0,16090.0,0,0,0,
2026-03-31 10:53:00,METAR KLAX 311053Z 00000KT 10SM SCT018 BKN022 OVC250 18/14 A2993 RMK AO2 SLP135 T01830139,0,0.0,0,16090.0,0,0,0,
2026-03-31 09:53:00,METAR KLAX 310953Z 06005KT 10SM BKN018 OVC250 18/14 A2994 RMK AO2 SLP136 T01780139,0,5.0,0,16090.0,0,0,0,
2026-03-31 08:53:00,METAR KLAX 310853Z 21005KT 10SM BKN016 OVC250 18/14 A2997 RMK AO2 SLP147 T01830139 55004,0,5.0,0,16090.0,0,0,0,
2026-03-31 07:53:00,METAR KLAX 310753Z 16005KT 10SM BKN016 OVC250 18/14 A2995 RMK AO2 SLP141 T01830144 402110133,0,5.0,0,16090.0,0,0,0,
2026-03-31 07:17:00,SPECI KLAX 310717Z 16005KT 10SM BKN016 OVC250 18/14 A2997 RMK AO2 T01830144,0,5.0,0,16090.0,0,0,0,
2026-03-31 06:53:00,METAR KLAX 310653Z 09006KT 10SM SCT016 BKN250 17/14 A2995 RMK AO2 SLP139 T01720139,0,6.0,0,16090.0,0,0,0,
2026-03-31 06:45:00,SPECI KLAX 310645Z VRB06KT 10SM SCT016 BKN250 17/14 A2995 RMK AO2 T01720144,0,6.0,0,16090.0,0,0,0,
2026-03-31 06:04:00,SPECI KLAX 310604Z 15004KT 10SM BKN016 BKN250 18/14 A2998 RMK AO2 T01780139,0,4.0,0,16090.0,0,0,0,
2026-03-31 05:53:00,METAR KLAX 310553Z 16005KT 10SM SCT016 BKN250 18/14 A2998 RMK AO2 SLP151 T01780144 10183 20167 50003,0,5.0,0,16090.0,0,0,0,
2026-03-31 04:53:00,METAR KLAX 310453Z 00000KT 10SM FEW009 FEW015 BKN250 17/14 A3000 RMK AO2 SLP156 FU FEW009 T01720139,0,0.0,0,16090.0,0,0,0,
2026-03-31 04:51:00,SPECI KLAX 310451Z 00000KT 10SM FEW009 FEW015 BKN250 17/14 A2999 RMK AO2 FU FEW009,0,0.0,0,16090.0,0,0,0,
2026-03-31 03:53:00,METAR KLAX 310353Z 02003KT 10SM FEW015 OVC250 17/14 A2998 RMK AO2 SLP150 T01720139,0,3.0,0,16090.0,0,0,0,
2026-03-31 03:11:00,SPECI KLAX 310311Z 00000KT 10SM FEW017 OVC250 17/14 A2997 RMK AO2 T01720139,0,0.0,0,16090.0,0,0,0,
2026-03-31 02:53:00,METAR KLAX 310253Z 25004KT 10SM BKN017 OVC250 17/14 A2998 RMK AO2 SLP149 T01720139 56002,0,4.0,0,16090.0,0,0,0,
2026-03-31 01:53:00,METAR KLAX 310153Z 26007KT 10SM FEW018 OVC250 17/14 A2998 RMK AO2 SLP151 T01720139,0,7.0,0,16090.0,0,0,0,
2026-03-31 00:53:00,METAR KLAX 310053Z 25007KT 10SM FEW020 OVC250 18/14 A2998 RMK AO2 SLP151 T01780139,0,7.0,0,16090.0,0,0,0,
2026-03-30 23:53:00,METAR KLAX 302353Z 25009KT 10SM FEW020 OVC240 18/14 A2998 RMK AO2 SLP150 T01830144 10211 20183 56013,0,9.0,0,16090.0,0,0,0,
2026-03-30 22:53:00,METAR KLAX 302253Z 26010KT 10SM FEW020 OVC250 19/14 A2998 RMK AO2 SLP151 T01890139,0,10.0,0,16090.0,0,0,0,
2026-03-30 21:53:00,METAR KLAX 302153Z 24007KT 10SM FEW020 OVC250 20/14 A2999 RMK AO2 SLP155 T02000139,0,7.0,0,16090.0,0,0,0,
2026-03-30 20:53:00,METAR KLAX 302053Z 25011KT 10SM FEW019 BKN160 OVC250 21/14 A3001 RMK AO2 SLP163 T02060144 56011,0,11.0,0,16090.0,0,0,0,
2026-03-30 19:53:00,METAR KLAX 301953Z 27009KT 10SM FEW018 BKN160 OVC250 21/14 A3001 RMK AO2 SLP163 T02060139,0,9.0,0,16090.0,0,0,0,
2026-03-30 18:53:00,METAR KLAX 301853Z 14003KT 10SM FEW019 BKN140 BKN180 20/13 A3004 RMK AO2 SLP172 T02000133,0,3.0,0,16090.0,0,0,0,
2026-03-30 17:53:00,METAR KLAX 301753Z 10006KT 7SM FEW018 BKN140 BKN180 20/13 A3005 RMK AO2 SLP174 T02000133 10200 20139 51025,0,6.0,0,11263.0,0,0,0,
2026-03-30 16:53:00,METAR KLAX 301653Z VRB06KT 6SM HZ SCT016 BKN140 BKN180 17/13 A3002 RMK AO2 SLP164 T01720133,0,6.0,0,9654.0,0,0,0,
2026-03-30 16:23:00,SPECI KLAX 301623Z COR VRB06KT 4SM BR SCT012 BKN140 17/13 A3002 RMK AO2 SCT V BKN T01670133,0,6.0,0,6436.0,0,0,1,BR
2026-03-30 15:53:00,METAR KLAX 301553Z VRB03KT 3SM BCFG BR BKN010 16/13 A3001 RMK AO2 SLP161 VIS 2 1/2V4 VIS SW-NW 1 3/4 T01610133,0,3.0,0,4827.0,0,0,1,"BC,BR,FG"
2026-03-30 15:49:00,SPECI KLAX 301549Z 10003KT 3SM BCFG BR BKN010 16/13 A3001 RMK AO2 VIS 2 1/2V4 VIS SW-NW 1 3/4,0,3.0,0,4827.0,0,0,1,"BC,BR,FG"
2026-03-30 15:28:00,SPECI KLAX 301528Z 11004KT 3SM BCFG BR BKN009 16/14 A2999 RMK AO2 VIS SW-NW 1 3/4 T01560139,0,4.0,0,4827.0,0,0,1,"BC,BR,FG"
2026-03-30 14:53:00,METAR KLAX 301453Z 11005KT 2 1/2SM BCFG BR OVC007 14/13 A2998 RMK AO2 SLP150 VIS 1 3/4V3 VIS SW-N 1 1/2 T01440133 53017 $,0,5.0,0,4022.0,0,0,1,"BC,BR,FG"
2026-03-30 14:43:00,SPECI KLAX 301443Z 13005KT 2SM BCFG BR OVC006 14/13 A2997 RMK AO2 VIS 1 3/4V3 T01390133 $,0,5.0,0,3218.0,0,0,1,"BC,BR,FG"
2026-03-30 14:26:00,SPECI KLAX 301426Z 08005KT 1 3/4SM BCFG BR OVC005 14/14 A2997 RMK AO2 VIS 1V2 T01390139 $,0,5.0,0,2816.0,0,0,1,"BC,BR,FG"
2026-03-30 14:15:00,SPECI KLAX 301415Z 12005KT 1 1/2SM BCFG BR OVC004 14/14 A2996 RMK AO2 VIS 3/4V1 3/4 T01390139 $,0,5.0,0,2414.0,0,0,1,"BC,BR,FG"
2026-03-30 14:09:00,SPECI KLAX 301409Z COR 11005KT 1/2SM R25L/P6000FT FG OVC003 14/14 A2996 RMK AO2 T01390139 $,0,5.0,0,804.0,0,0,1,FG
2026-03-30 13:53:00,METAR KLAX 301353Z 11005KT 1/8SM R25L/3500VP6000FT FG VV001 14/14 A2996 RMK AO2 SLP143 VIS N 1/4 T01390139 $,0,5.0,0,201.0,0,0,1,FG
2026-03-30 12:53:00,METAR KLAX 301253Z 00000KT 1/8SM R25L/2000V4000FT FG VV001 14/14 A2993 RMK AO2 SLP134 VIS N 1/4 T01390139 $,0,0.0,0,201.0,0,0,1,FG
2026-03-30 12:46:00,SPECI KLAX 301246Z 00000KT 1/8SM R25L/1800V2600FT FG VV001 14/14 A2993 RMK AO2 VIS N 1/4 T01390139 $,0,0.0,0,201.0,0,0,1,FG
2026-03-30 11:53:00,METAR KLAX 301153Z 00000KT 1/16SM R25L/1200V1600FT FG VV001 14/14 A2993 RMK AO2 SLP132 T01390139 10150 20133 58004 $,0,0.0,0,101.0,0,0,1,FG
2026-03-30 11:40:00,SPECI KLAX 301140Z 00000KT 1/16SM R25L/1400V1800FT FG VV001 14/14 A2993 RMK AO2 T01390139 $,0,0.0,0,101.0,0,0,1,FG
2026-03-30 11:30:00,SPECI KLAX 301130Z 00000KT 1/16SM R25L/1400V2400FT FG VV001 14/14 A2993 RMK AO2 T01390139 $,0,0.0,0,101.0,0,0,1,FG
2026-03-30 11:11:00,SPECI KLAX 301111Z 00000KT 1/16SM R25L/1200V1600FT FG VV001 14/13 A2993 RMK AO2 T01390133 $,0,0.0,0,101.0,0,0,1,FG
2026-03-30 10:53:00,METAR KLAX 301053Z 00000KT 1/16SM R25L/1800V3500FT FG VV001 14/13 A2994 RMK AO2 SLP136 T01390133 $,0,0.0,0,101.0,0,0,1,FG
2026-03-30 10:45:00,SPECI KLAX 301045Z 33003KT 1/8SM R25L/1400V3000FT FG VV001 14/13 A2994 RMK AO2 VIS SE 1/4 T01390133 $,0,3.0,0,201.0,0,0,1,FG
2026-03-30 10:36:00,SPECI KLAX 301036Z 00000KT 1/8SM R25L/1200V1800FT FG VV001 14/13 A2994 RMK AO2 VIS SE 1/4 T01390133 $,0,0.0,0,201.0,0,0,1,FG
2026-03-30 09:53:00,METAR KLAX 300953Z 00000KT 1/8SM R25L/P6000FT FG VV002 14/13 A2994 RMK AO2 SLP137 VIS SE 1/2 T01390133 $,0,0.0,0,201.0,0,0,1,FG
2026-03-30 09:40:00,SPECI KLAX 300940Z 00000KT 1/8SM R25L/P6000FT FG VV002 14/13 A2994 RMK AO2 VIS SE 1/2 T01390133 $,0,0.0,0,201.0,0,0,1,FG
2026-03-30 09:36:00,SPECI KLAX 300936Z 00000KT 1/4SM R25L/P6000FT FG VV002 14/13 A2994 RMK AO2 VIS SE 1 T01390133 $,0,0.0,0,402.0,0,0,1,FG
2026-03-30 08:53:00,METAR KLAX 300853Z 00000KT 3/4SM R25L/P6000FT BR FEW001 BKN003 14/13 A2994 RMK AO2 SLP136 VIS N 1/2 VIS SE 2 T01390133 55001 $,0,0.0,0,1207.0,0,0,1,BR
2026-03-30 08:01:00,SPECI KLAX 300801Z 00000KT 3/4SM R25L/P6000FT BR FEW001 BKN003 14/13 A2994 RMK AO2 VIS N 1/4 VIS SE 2 T01390133 $,0,0.0,0,1207.0,0,0,1,BR
2026-03-30 07:53:00,METAR KLAX 300753Z 00000KT 1 1/4SM BR FEW001 SCT003 14/13 A2994 RMK AO2 SLP136 VIS SE 2 1/2 T01390133 402280139 $,0,0.0,0,2011.0,0,0,1,BR
2026-03-30 07:24:00,SPECI KLAX 300724Z 22003KT 1 1/2SM BR FEW001 SCT003 14/13 A2994 RMK AO2 VIS 3/4V2 1/2 SCT V BKN T01390133 $,0,3.0,0,2414.0,0,0,1,BR
2026-03-30 06:53:00,METAR KLAX 300653Z 00000KT 1 1/2SM BR FEW001 BKN003 BKN006 14/13 A2993 RMK AO2 SLP133 VIS 3/4V3 T01440133 $,0,0.0,0,2414.0,0,0,1,BR
2026-03-30 06:06:00,SPECI KLAX 300606Z 32004KT 1 1/2SM BR FEW001 BKN003 OVC006 14/14 A2994 RMK AO2 VIS 1V2 T01440139 $,0,4.0,0,2414.0,0,0,1,BR
2026-03-30 05:53:00,METAR KLAX 300553Z 25005KT 2SM BR FEW001 BKN003 OVC008 14/13 A2994 RMK AO2 SLP138 VIS 1 1/4V3 T01440133 10200 20144 50007 $,0,5.0,0,3218.0,0,0,1,BR
2026-03-30 05:48:00,SPECI KLAX 300548Z 23005KT 2SM BR FEW001 BKN003 OVC008 14/13 A2995 RMK AO2 VIS 1 1/4V3 $,0,5.0,0,3218.0,0,0,1,BR
2026-03-30 05:29:00,SPECI KLAX 300529Z 26006KT 2 1/2SM BR FEW001 SCT002 BKN008 15/14 A2995 RMK AO2 VIS 1 3/4V7 CIG 006V010 T01500139 $,0,6.0,0,4022.0,0,0,1,BR
2026-03-30 04:53:00,METAR KLAX 300453Z 26005KT 7SM BKN005 15/14 A2995 RMK AO2 SLP141 T01500139 $,0,5.0,0,11263.0,0,0,0,
2026-03-30 04:12:00,SPECI KLAX 300412Z 29007KT 6SM BR OVC006 16/14 A2994 RMK AO2 T01560144 $,0,7.0,0,9654.0,0,0,1,BR
2026-03-30 03:53:00,METAR KLAX 300353Z 24008KT 10SM SCT007 16/14 A2994 RMK AO2 SLP137 VIS NW 3 T01560144 $,0,8.0,0,16090.0,0,0,0,
2026-03-30 02:53:00,METAR KLAX 300253Z 27009KT 10SM SCT008 17/14 A2992 RMK AO2 SLP131 T01670144 53003 $,0,9.0,0,16090.0,0,0,0,
2026-03-30 01:53:00,METAR KLAX 300153Z 26010KT 10SM FEW006 17/14 A2991 RMK AO2 SLP128 T01720144 $,0,10.0,0,16090.0,0,0,0,
2026-03-30 00:53:00,METAR KLAX 300053Z 25010KT 10SM FEW005 FEW200 19/15 A2991 RMK AO2 SLP127 T01890150 $,0,10.0,0,16090.0,0,0,0,
2026-03-29 23:53:00,METAR KLAX 292353Z 26011KT 10SM FEW002 FEW200 20/14 A2991 RMK AO2 SLP128 FG BNK W-NW T02000144 10228 20200 55013 $,0,11.0,0,16090.0,0,0,1,FG
2026-03-29 22:53:00,METAR KLAX 292253Z 27007KT 10SM FEW200 22/14 A2990 RMK AO2 SLP125 T02170139 $,0,7.0,0,16090.0,0,0,0,
2026-03-29 21:53:00,METAR KLAX 292153Z 25009KT 10SM FEW002 FEW210 SCT250 22/13 A2992 RMK AO2 SLP130 FG BNK S-W T02170133 $,0,9.0,0,16090.0,0,0,1,FG
2026-03-29 20:53:00,METAR KLAX 292053Z 25009KT 10SM FEW002 FEW210 SCT260 22/14 A2995 RMK AO2 SLP140 T02220144 58004 $,0,9.0,0,16090.0,0,0,0,
2026-03-29 19:53:00,METAR KLAX 291953Z 26008KT 10SM FEW002 FEW190 SCT230 SCT280 22/14 A2995 RMK AO2 SLP141 T02170139 $,0,8.0,0,16090.0,0,0,0,
2026-03-29 18:53:00,METAR KLAX 291853Z 25007KT 10SM FEW002 FEW190 SCT230 SCT280 22/14 A2996 RMK AO2 SLP143 T02170139 $,0,7.0,0,16090.0,0,0,0,
2026-03-29 17:53:00,METAR KLAX 291753Z 26008KT 10SM FEW002 FEW180 SCT220 SCT280 20/13 A2996 RMK AO2 SLP144 CCSL DSNT E T02000133 10200 20139 53016,0,8.0,0,16090.0,0,0,0,DS
2026-03-29 16:53:00,METAR KLAX 291653Z 25008KT 6SM HZ FEW002 SCT220 BKN280 18/13 A2995 RMK AO2 SLP139 VIS W 1 3/4 CCSL DSNT E T01780133,0,8.0,0,9654.0,0,0,0,DS
2026-03-29 16:13:00,SPECI KLAX 291613Z 24007KT 3SM HZ FEW004 SCT220 BKN280 17/14 A2993 RMK AO2 VIS SW-W 2 CCSL DSNT E T01720139,0,7.0,0,4827.0,0,0,0,DS
2026-03-29 15:39:00,SPECI KLAX 291539Z 31004KT 2 1/2SM BR SCT004 BKN220 BKN280 15/14 A2992 RMK AO2 VIS SW-W 1 1/4 T01500139,0,4.0,0,4022.0,0,0,1,BR
2026-03-29 15:24:00,SPECI KLAX 291524Z VRB05KT 2SM BR BKN004 BKN220 BKN280 15/14 A2992 RMK AO2 VIS SW-W 1 T01500144,0,5.0,0,3218.0,0,0,1,BR
2026-03-29 14:53:00,METAR KLAX 291453Z VRB04KT 1SM R25L/6000VP6000FT BR OVC002 15/14 A2992 RMK AO2 SLP128 VIS SW-NW 1/2 T01500144 53013,0,4.0,0,1609.0,0,0,1,BR
2026-03-29 14:08:00,SPECI KLAX 291408Z 33005KT 1SM R25L/P6000FT BR OVC003 15/14 A2990 RMK AO2 VIS SW-W 1/2 T01500144,0,5.0,0,1609.0,0,0,1,BR
2026-03-29 13:53:00,METAR KLAX 291353Z 32006KT 3/4SM R25L/P6000FT BR OVC003 15/15 A2989 RMK AO2 SLP120 VIS SW-W 1/4 T01500150,0,6.0,0,1207.0,0,0,1,BR
2026-03-29 13:27:00,SPECI KLAX 291327Z 26006KT 1/2SM R25L/2800VP6000FT FG OVC002 15/15 A2989 RMK AO2 T01500150,0,6.0,0,804.0,0,0,1,FG
2026-03-29 13:15:00,SPECI KLAX 291315Z 26006KT 1/4SM R25L/2400VP6000FT FG VV002 15/14 A2989 RMK AO2 T01500144,0,6.0,0,402.0,0,0,1,FG
2026-03-29 12:56:00,SPECI KLAX 291256Z 26007KT 1/8SM R25L/1000V2400FT FG VV001 15/14 A2989 RMK AO2 T01500144,0,7.0,0,201.0,0,0,1,FG
2026-03-29 12:53:00,METAR KLAX 291253Z 25007KT 1/4SM R25L/0800V1400FT FG VV001 15/14 A2989 RMK AO2 SLP120 T01500144,0,7.0,0,402.0,0,0,1,FG
2026-03-29 12:36:00,SPECI KLAX 291236Z 26007KT 1/4SM R25L/0700V1000FT FG BKN001 15/14 A2988 RMK AO2 T01500144,0,7.0,0,402.0,0,0,1,FG
2026-03-29 12:24:00,SPECI KLAX 291224Z 26005KT 1/4SM R25L/0600V1200FT FG SCT001 14/14 A2988 RMK AO2 VIS N-E 6 T01440139,0,5.0,0,402.0,0,0,1,FG
2026-03-29 11:53:00,METAR KLAX 291153Z 30003KT 5SM BR CLR 14/13 A2988 RMK AO2 SLP115 T01440128 10156 20139 56017,0,3.0,0,8045.0,0,0,1,BR
2026-03-29 10:53:00,METAR KLAX 291053Z 00000KT 6SM BR CLR 14/13 A2989 RMK AO2 SLP120 T01440133,0,0.0,0,9654.0,0,0,1,BR
2026-03-29 09:53:00,METAR KLAX 290953Z 00000KT 6SM BR CLR 14/14 A2991 RMK AO2 SLP127 T01440139,0,0.0,0,9654.0,0,0,1,BR
2026-03-29 08:53:00,METAR KLAX 290853Z 09003KT 6SM BR FEW006 14/14 A2993 RMK AO2 SLP132 T01440139 58010,0,3.0,0,9654.0,0,0,1,BR
2026-03-29 07:53:00,METAR KLAX 290753Z 10003KT 6SM BR FEW006 15/14 A2994 RMK AO2 SLP137 T01500139 402000144,0,3.0,0,9654.0,0,0,1,BR
2026-03-29 06:53:00,METAR KLAX 290653Z 00000KT 6SM BR FEW006 16/14 A2996 RMK AO2 SLP142 T01560139,0,0.0,0,9654.0,0,0,1,BR
2026-03-29 05:53:00,METAR KLAX 290553Z 00000KT 5SM BR FEW006 15/14 A2996 RMK AO2 SLP143 T01500139 10189 20150 50004,0,0.0,0,8045.0,0,0,1,BR
2026-03-29 05:43:00,SPECI KLAX 290543Z 18003KT 5SM BR FEW006 16/14 A2996 RMK AO2 T01560139,0,3.0,0,8045.0,0,0,1,BR
2026-03-29 05:33:00,SPECI KLAX 290533Z 19004KT 5SM BR BKN005 16/14 A2996 RMK AO2 T01560144,0,4.0,0,8045.0,0,0,1,BR
2026-03-29 04:53:00,METAR KLAX 290453Z COR 23003KT 5SM BR BKN005 16/14 A2996 RMK AO2 SLP144 T01560144,0,3.0,0,8045.0,0,0,1,BR
2026-03-29 03:53:00,METAR KLAX 290353Z 23007KT 3SM BR OVC004 16/14 A2996 RMK AO2 SLP144 VIS W 1 1/2 T01560144,0,7.0,0,4827.0,0,0,1,BR
2026-03-29 03:28:00,SPECI KLAX 290328Z 24006KT 1 1/2SM BR OVC005 16/14 A2995 RMK AO2 T01560144,0,6.0,0,2414.0,0,0,1,BR
2026-03-29 02:53:00,METAR KLAX 290253Z 25009KT 10SM BKN007 BKN200 BKN250 17/14 A2994 RMK AO2 SLP138 T01670144 53004,0,9.0,0,16090.0,0,0,0,
2026-03-29 02:44:00,SPECI KLAX 290244Z 26009KT 10SM SCT007 BKN200 BKN250 17/14 A2994 RMK AO2 T01670144,0,9.0,0,16090.0,0,0,0,
2026-03-29 02:27:00,SPECI KLAX 290227Z 26011KT 10SM BKN007 BKN200 BKN250 17/14 A2993 RMK AO2 T01670144,0,11.0,0,16090.0,0,0,0,
2026-03-29 01:53:00,METAR KLAX 290153Z 26011KT 10SM FEW007 SCT200 BKN250 17/14 A2993 RMK AO2 SLP134 T01670144,0,11.0,0,16090.0,0,0,0,
2026-03-29 00:53:00,METAR KLAX 290053Z 27011KT 10SM FEW007 SCT220 BKN250 18/14 A2992 RMK AO2 SLP132 T01780144,0,11.0,0,16090.0,0,0,0,
2026-03-28 23:53:00,METAR KLAX 282353Z 27011KT 10SM FEW007 SCT220 BKN280 19/14 A2993 RMK AO2 SLP135 T01890144 10200 20178 56015,0,11.0,0,16090.0,0,0,0,
2026-03-28 22:53:00,METAR KLAX 282253Z 27011KT 10SM FEW008 SCT250 BKN300 19/14 A2994 RMK AO2 SLP139 T01890139,0,11.0,0,16090.0,0,0,0,
2026-03-28 21:53:00,METAR KLAX 282153Z 28012KT 10SM FEW007 SCT250 BKN300 19/14 A2996 RMK AO2 SLP144 T01890139,0,12.0,0,16090.0,0,0,0,
2026-03-28 20:53:00,METAR KLAX 282053Z 25010KT 9SM FEW007 FEW230 SCT270 BKN300 19/14 A2997 RMK AO2 SLP149 T01890139 58015,0,10.0,0,14481.0,0,0,0,
2026-03-28 19:53:00,METAR KLAX 281953Z 27009KT 9SM FEW007 SCT220 SCT260 BKN300 19/14 A2999 RMK AO2 SLP155 CCSL DSNT E T01890139,0,9.0,0,14481.0,0,0,0,DS
2026-03-28 18:53:00,METAR KLAX 281853Z 27008KT 10SM FEW006 SCT190 SCT230 BKN300 18/13 A3001 RMK AO2 SLP161 CCSL DSNT NE AND E T01830133 $,0,8.0,0,16090.0,0,0,0,DS
2026-03-28 17:53:00,METAR KLAX 281753Z 26008KT 9SM FEW006 SCT190 SCT230 BKN300 18/13 A3002 RMK AO2 SLP164 CCSL DSNT NE AND E T01780133 10183 20144 50005 $,0,8.0,0,14481.0,0,0,0,DS
2026-03-28 16:53:00,METAR KLAX 281653Z 31005KT 6SM HZ FEW005 SCT008 SCT220 BKN280 17/13 A3002 RMK AO2 SLP165 T01720133 $,0,5.0,0,9654.0,0,0,0,
2026-03-28 16:40:00,SPECI KLAX 281640Z 32004KT 6SM HZ FEW005 SCT008 BKN220 17/13 A3002 RMK AO2 T01670133 $,0,4.0,0,9654.0,0,0,0,
2026-03-28 15:53:00,METAR KLAX 281553Z 29006KT 5SM BR FEW004 BKN007 BKN220 16/14 A3002 RMK AO2 SLP165 T01560139 $,0,6.0,0,8045.0,0,0,1,BR
2026-03-28 14:53:00,METAR KLAX 281453Z 27005KT 4SM BR OVC007 15/13 A3001 RMK AO2 SLP160 T01500133 53012 $,0,5.0,0,6436.0,0,0,1,BR
2026-03-28 13:53:00,METAR KLAX 281353Z 29007KT 5SM BR OVC007 15/13 A2999 RMK AO2 SLP154 T01500133 $,0,7.0,0,8045.0,0,0,1,BR
2026-03-28 12:53:00,METAR KLAX 281253Z 29006KT 5SM BR BKN007 15/13 A2998 RMK AO2 SLP150 T01500133 $,0,6.0,0,8045.0,0,0,1,BR
2026-03-28 12:33:00,SPECI KLAX 281233Z 30005KT 5SM BR BKN006 14/13 A2998 RMK AO2 T01440133 $,0,5.0,0,8045.0,0,0,1,BR
2026-03-28 11:53:00,METAR KLAX 281153Z 32004KT 5SM BR SCT005 14/13 A2997 RMK AO2 SLP147 T01440133 10156 20144 56005 $,0,4.0,0,8045.0,0,0,1,BR
2026-03-28 10:53:00,METAR KLAX 281053Z 32004KT 7SM SCT010 15/13 A2997 RMK AO2 SLP148 T01500133 $,0,4.0,0,11263.0,0,0,0,
2026-03-28 09:53:00,METAR KLAX 280953Z 32006KT 8SM SCT010 15/13 A2998 RMK AO2 SLP151 T01500133 $,0,6.0,0,12872.0,0,0,0,
2026-03-28 08:53:00,METAR KLAX 280853Z 31004KT 8SM SCT010 15/13 A2999 RMK AO2 SLP152 T01500133 58002 $,0,4.0,0,12872.0,0,0,0,
2026-03-28 08:41:00,SPECI KLAX 280841Z 32005KT 8SM SCT010 15/13 A2999 RMK AO2 T01500133 $,0,5.0,0,12872.0,0,0,0,
2026-03-28 07:53:00,METAR KLAX 280753Z 26003KT 9SM BKN012 16/13 A2999 RMK AO2 SLP153 T01560133 402170150 $,0,3.0,0,14481.0,0,0,0,
2026-03-28 07:50:00,SPECI KLAX 280750Z 27005KT 9SM BKN012 16/13 A2999 RMK AO2 $,0,5.0,0,14481.0,0,0,0,
2026-03-28 06:53:00,METAR KLAX 280653Z 25005KT 9SM FEW010 15/13 A2999 RMK AO2 SLP154 T01500133 $,0,5.0,0,14481.0,0,0,0,
2026-03-28 05:53:00,METAR KLAX 280553Z 24005KT 8SM BKN010 15/13 A2999 RMK AO2 SLP153 T01500133 10189 20150 50011 $,0,5.0,0,12872.0,0,0,0,
2026-03-28 04:53:00,METAR KLAX 280453Z 25007KT 9SM SCT009 16/13 A2999 RMK AO2 SLP153 T01560133 $,0,7.0,0,14481.0,0,0,0,
2026-03-28 04:41:00,SPECI KLAX 280441Z 25007KT 9SM SCT009 16/13 A2999 RMK AO2 T01560133 $,0,7.0,0,14481.0,0,0,0,
2026-03-28 03:53:00,METAR KLAX 280353Z 29008KT 10SM BKN009 BKN270 16/13 A2997 RMK AO2 SLP148 T01560133 $,0,8.0,0,16090.0,0,0,0,
2026-03-28 03:31:00,SPECI KLAX 280331Z 24008KT 10SM BKN009 OVC270 16/13 A2997 RMK AO2 T01560133 $,0,8.0,0,16090.0,0,0,0,
2026-03-28 02:53:00,METAR KLAX 280253Z 25010KT 10SM SCT009 SCT260 BKN300 16/14 A2996 RMK AO2 SLP142 T01610139 53010 $,0,10.0,0,16090.0,0,0,0,
2026-03-28 01:53:00,METAR KLAX 280153Z 27010KT 10SM FEW009 SCT210 BKN260 BKN300 17/14 A2993 RMK AO2 SLP135 T01720139 $,0,10.0,0,16090.0,0,0,0,
2026-03-28 01:32:00,SPECI KLAX 280132Z 26009KT 10SM FEW009 SCT210 BKN260 BKN300 17/14 A2993 RMK AO2 T01720139 $,0,9.0,0,16090.0,0,0,0,
2026-03-28 00:53:00,METAR KLAX 280053Z COR 25009KT 9SM FEW010 SCT210 SCT260 BKN300 18/14 A2993 RMK AO2 SLP133 T01780139 $,0,9.0,0,14481.0,0,0,0,
2026-03-27 23:53:00,METAR KLAX 272353Z 26010KT 7SM FEW011 FEW220 SCT270 BKN300 18/14 A2993 RMK AO2 SLP132 T01830139 10217 20183 55007,0,10.0,0,11263.0,0,0,0,
2026-03-27 22:53:00,METAR KLAX 272253Z 27009KT 7SM FEW220 SCT270 BKN300 19/14 A2992 RMK AO2 SLP132 T01890144,0,9.0,0,11263.0,0,0,0,
2026-03-27 21:53:00,METAR KLAX 272153Z 25010KT 7SM FEW160 SCT250 BKN300 20/14 A2993 RMK AO2 SLP134 T02000144,0,10.0,0,11263.0,0,0,0,
2026-03-27 20:53:00,METAR KLAX 272053Z 26010KT 5SM HZ FEW019 SCT160 BKN250 21/14 A2995 RMK AO2 SLP139 T02110144 58014,0,10.0,0,8045.0,0,0,0,
2026-03-27 19:53:00,METAR KLAX 271953Z 29006KT 4SM HZ FEW018 SCT160 BKN250 21/14 A2996 RMK AO2 SLP143 T02060144,0,6.0,0,6436.0,0,0,0,
2026-03-27 18:53:00,METAR KLAX 271853Z 24007KT 210V270 4SM HZ FEW015 SCT160 BKN250 21/14 A2998 RMK AO2 SLP150 T02060144,0,7.0,0,6436.0,0,0,0,
2026-03-27 17:53:00,METAR KLAX 271753Z VRB04KT 4SM HZ SCT014 BKN160 BKN250 19/14 A2999 RMK AO2 SLP153 T01940139 10200 20156 51007,0,4.0,0,6436.0,0,0,0,
2026-03-27 17:33:00,SPECI KLAX 271733Z 00000KT 4SM HZ SCT014 BKN160 18/14 A2999 RMK AO2 SCT V BKN T01830139,0,0.0,0,6436.0,0,0,0,
2026-03-27 17:18:00,SPECI KLAX 271718Z 16004KT 3SM HZ BKN013 BKN160 18/14 A2999 RMK AO2 BKN013 V SCT T01830139,0,4.0,0,4827.0,0,0,0,
2026-03-27 17:01:00,SPECI KLAX 271701Z 09003KT 3SM HZ BKN009 BKN160 18/14 A2999 RMK AO2 T01780139,0,3.0,0,4827.0,0,0,0,
2026-03-27 16:53:00,METAR KLAX 271653Z VRB03KT 2 1/2SM HZ BKN009 OVC250 17/14 A2999 RMK AO2 SLP152 VIS 2V3 T01720139,0,3.0,0,4022.0,0,0,0,
2026-03-27 16:05:00,SPECI KLAX 271605Z 12003KT 2 1/2SM BR OVC007 16/14 A2998 RMK AO2 T01610144,0,3.0,0,4022.0,0,0,1,BR
2026-03-27 15:53:00,METAR KLAX 271553Z 09004KT 2 1/2SM BR OVC004 16/14 A2998 RMK AO2 SLP150 T01610144,0,4.0,0,4022.0,0,0,1,BR
2026-03-25 14:53:00,METAR KLAX 251453Z 34004KT 5SM HZ OVC012 17/14 A3001 RMK AO2 SLP159 T01670139 53006,0,4.0,0,8045.0,0,0,0,
2026-03-25 13:53:00,METAR KLAX 251353Z 25004KT 7SM OVC013 17/13 A3000 RMK AO2 SLP156 T01670133,0,4.0,0,11263.0,0,0,0,
2026-03-25 12:53:00,METAR KLAX 251253Z 29004KT 6SM HZ FEW008 OVC012 17/14 A2999 RMK AO2 SLP154 T01670139,0,4.0,0,9654.0,0,0,0,
2026-03-25 11:53:00,METAR KLAX 251153Z VRB03KT 6SM HZ FEW008 OVC012 17/14 A2999 RMK AO2 SLP152 T01670139 10172 20161 56008,0,3.0,0,9654.0,0,0,0,
2026-03-25 10:53:00,METAR KLAX 251053Z 00000KT 6SM HZ SCT008 OVC011 17/14 A2999 RMK AO2 SLP154 T01670139,0,0.0,0,9654.0,0,0,0,
2026-03-25 09:53:00,METAR KLAX 250953Z 18003KT 7SM SCT008 OVC010 17/14 A3000 RMK AO2 SLP157 T01670144,0,3.0,0,11263.0,0,0,0,
2026-03-25 09:24:00,SPECI KLAX 250924Z 00000KT 6SM BR SCT008 OVC010 17/14 A3001 RMK AO2 T01670144,0,0.0,0,9654.0,0,0,1,BR
2026-03-25 08:53:00,METAR KLAX 250853Z 00000KT 7SM OVC008 17/14 A3001 RMK AO2 SLP161 T01670144 56000,0,0.0,0,11263.0,0,0,0,
2026-03-25 07:53:00,METAR KLAX 250753Z 19003KT 8SM OVC008 17/14 A3001 RMK AO2 SLP161 T01670144 402110161,0,3.0,0,12872.0,0,0,0,
2026-03-25 06:53:00,METAR KLAX 250653Z 00000KT 9SM OVC008 17/14 A3001 RMK AO2 SLP161 T01670144,0,0.0,0,14481.0,0,0,0,
2026-03-25 05:53:00,METAR KLAX 250553Z 26004KT 10SM OVC008 17/14 A3001 RMK AO2 SLP161 T01670144 10194 20161 53012,0,4.0,0,16090.0,0,0,0,
2026-03-25 04:53:00,METAR KLAX 250453Z 28006KT 10SM OVC009 17/14 A3001 RMK AO2 SLP160 T01670144,0,6.0,0,16090.0,0,0,0,
2026-03-25 04:33:00,SPECI KLAX 250433Z 27006KT 10SM BKN009 17/14 A3000 RMK AO2 T01670144,0,6.0,0,16090.0,0,0,0,
2026-03-25 03:53:00,METAR KLAX 250353Z 27007KT 10SM SCT008 16/14 A2999 RMK AO2 SLP153 T01610144,0,7.0,0,16090.0,0,0,0,
2026-03-25 02:53:00,METAR KLAX 250253Z 24008KT 9SM SCT009 17/14 A2998 RMK AO2 SLP151 T01670144 53004,0,8.0,0,14481.0,0,0,0,
2026-03-25 02:25:00,SPECI KLAX 250225Z 26011KT 10SM FEW009 17/14 A2998 RMK AO2 T01670144,0,11.0,0,16090.0,0,0,0,
2026-03-25 01:53:00,METAR KLAX 250153Z 26011KT 10SM FEW010 17/14 A2997 RMK AO2 SLP148 T01720144,0,11.0,0,16090.0,0,0,0,
2026-03-25 00:53:00,METAR KLAX 250053Z 26011KT 10SM FEW010 FEW250 18/14 A2997 RMK AO2 SLP147 T01830144,0,11.0,0,16090.0,0,0,0,
2026-03-24 23:53:00,METAR KLAX 242353Z 25009KT 10SM FEW250 19/14 A2997 RMK AO2 SLP147 T01940144 10211 20194 56009,0,9.0,0,16090.0,0,0,0,
2026-03-24 22:53:00,METAR KLAX 242253Z 25009KT 10SM FEW250 21/14 A2997 RMK AO2 SLP149 T02060144,0,9.0,0,16090.0,0,0,0,
2026-03-24 21:53:00,METAR KLAX 242153Z 23008KT 10SM FEW250 21/14 A2998 RMK AO2 SLP150 T02060144,0,8.0,0,16090.0,0,0,0,
2026-03-24 20:53:00,METAR KLAX 242053Z 27009KT 10SM FEW020 FEW140 21/14 A2999 RMK AO2 SLP155 T02060144 58008,0,9.0,0,16090.0,0,0,0,
2026-03-24 19:53:00,METAR KLAX 241953Z 26009KT 7SM FEW019 SCT140 21/14 A3001 RMK AO2 SLP162 T02060144,0,9.0,0,11263.0,0,0,0,
2026-03-24 18:53:00,METAR KLAX 241853Z 23006KT 6SM HZ FEW018 SCT140 21/14 A3002 RMK AO2 SLP164 T02060144,0,6.0,0,9654.0,0,0,0,
2026-03-24 17:53:00,METAR KLAX 241753Z 25004KT 6SM HZ SCT016 BKN140 20/15 A3002 RMK AO2 SLP164 T02000150 10200 20161 53010,0,4.0,0,9654.0,0,0,0,
2026-03-24 16:59:00,SPECI KLAX 241659Z 14003KT 5SM HZ SCT015 BKN140 19/14 A3001 RMK AO2 T01890144,0,3.0,0,8045.0,0,0,0,
2026-03-24 16:53:00,METAR KLAX 241653Z 00000KT 5SM HZ BKN014 BKN250 19/14 A3001 RMK AO2 SLP161 BKN014 V SCT T01890144,0,0.0,0,8045.0,0,0,0,
2026-03-24 15:53:00,METAR KLAX 241553Z 11004KT 5SM HZ OVC012 18/14 A3000 RMK AO2 SLP158 T01780144,0,4.0,0,8045.0,0,0,0,
2026-03-24 14:53:00,METAR KLAX 241453Z 09003KT 4SM BR OVC011 17/14 A2999 RMK AO2 SLP155 T01670144 53012,0,3.0,0,6436.0,0,0,1,BR
2026-03-24 13:53:00,METAR KLAX 241353Z 00000KT 6SM BR OVC010 17/14 A2998 RMK AO2 SLP150 T01670144,0,0.0,0,9654.0,0,0,1,BR
2026-03-24 13:17:00,SPECI KLAX 241317Z VRB04KT 6SM BR OVC010 17/14 A2997 RMK AO2 T01670144,0,4.0,0,9654.0,0,0,1,BR
2026-03-24 12:53:00,METAR KLAX 241253Z 00000KT 5SM BR OVC008 17/14 A2997 RMK AO2 SLP146 T01670144,0,0.0,0,8045.0,0,0,1,BR
2026-03-24 11:53:00,METAR KLAX 241153Z 00000KT 5SM BR OVC008 16/14 A2996 RMK AO2 SLP143 T01610144 10167 20156 56006,0,0.0,0,8045.0,0,0,1,BR
2026-03-24 10:53:00,METAR KLAX 241053Z 00000KT 7SM OVC008 17/14 A2996 RMK AO2 SLP142 T01670144,0,0.0,0,11263.0,0,0,0,
2026-03-24 09:53:00,METAR KLAX 240953Z 09005KT 7SM OVC008 17/14 A2997 RMK AO2 SLP145 T01670144,0,5.0,0,11263.0,0,0,0,
2026-03-24 08:53:00,METAR KLAX 240853Z VRB03KT 7SM OVC008 16/14 A2998 RMK AO2 SLP148 T01610144 50000,0,3.0,0,11263.0,0,0,0,
2026-03-24 07:53:00,METAR KLAX 240753Z 07003KT 8SM OVC008 16/14 A2998 RMK AO2 SLP148 T01610144 402170150,0,3.0,0,12872.0,0,0,0,
2026-03-24 06:53:00,METAR KLAX 240653Z 00000KT 8SM BKN008 16/14 A2998 RMK AO2 SLP148 T01610144,0,0.0,0,12872.0,0,0,0,
2026-03-24 05:53:00,METAR KLAX 240553Z 00000KT 8SM BKN009 16/14 A2998 RMK AO2 SLP149 T01610139 10189 20156 51014,0,0.0,0,12872.0,0,0,0,
2026-03-24 04:53:00,METAR KLAX 240453Z 23004KT 8SM BKN009 16/14 A2997 RMK AO2 SLP148 T01560139,0,4.0,0,12872.0,0,0,0,
2026-03-24 03:53:00,METAR KLAX 240353Z 24006KT 9SM BKN009 16/14 A2996 RMK AO2 SLP144 T01610139,0,6.0,0,14481.0,0,0,0,
2026-03-24 02:53:00,METAR KLAX 240253Z 25006KT 10SM SCT009 16/14 A2993 RMK AO2 SLP134 T01610139 53008,0,6.0,0,16090.0,0,0,0,
2026-03-24 02:37:00,SPECI KLAX 240237Z 25007KT 10SM FEW009 16/14 A2993 RMK AO2 T01610139,0,7.0,0,16090.0,0,0,0,
2026-03-24 02:06:00,SPECI KLAX 240206Z 26008KT 8SM BKN009 17/14 A2993 RMK AO2 T01670144,0,8.0,0,12872.0,0,0,0,
2026-03-24 01:53:00,METAR KLAX 240153Z 25008KT 8SM SCT009 17/14 A2992 RMK AO2 SLP131 T01670144,0,8.0,0,12872.0,0,0,0,
2026-03-24 01:21:00,SPECI KLAX 240121Z 28009KT 8SM SCT008 SCT250 17/14 A2991 RMK AO2 T01720144,0,9.0,0,12872.0,0,0,0,
2026-03-24 00:53:00,METAR KLAX 240053Z 26007KT 8SM FEW010 SCT250 18/14 A2991 RMK AO2 SLP127 T01780144,0,7.0,0,12872.0,0,0,0,
2026-03-23 23:53:00,METAR KLAX 232353Z 26007KT 7SM FEW010 FEW250 18/14 A2991 RMK AO2 SLP126 T01830144 10217 20183 56009,0,7.0,0,11263.0,0,0,0,
2026-03-23 22:53:00,METAR KLAX 232253Z 25009KT 5SM HZ FEW010 FEW250 19/14 A2991 RMK AO2 SLP129 T01940144,0,9.0,0,8045.0,0,0,0,
2026-03-23 21:53:00,METAR KLAX 232153Z 26010KT 3SM HZ FEW010 FEW250 19/15 A2992 RMK AO2 SLP131 T01940150,0,10.0,0,4827.0,0,0,0,
2026-03-23 20:53:00,METAR KLAX 232053Z 26010KT 3SM HZ FEW010 SCT014 SCT100 20/15 A2993 RMK AO2 SLP135 T02000150 58006,0,10.0,0,4827.0,0,0,0,
2026-03-23 19:53:00,METAR KLAX 231953Z 26009KT 3SM HZ FEW010 SCT015 20/15 A2995 RMK AO2 SLP141 T02000150,0,9.0,0,4827.0,0,0,0,
2026-03-23 18:53:00,METAR KLAX 231853Z 26008KT 3SM HZ FEW010 SCT018 22/15 A2994 RMK AO2 SLP139 T02170150,0,8.0,0,4827.0,0,0,0,
2026-03-23 18:20:00,SPECI KLAX 231820Z 00000KT 3SM HZ FEW011 SCT015 19/14 A2995 RMK AO2 VIS SW-N 2 1/2 T01940144,0,0.0,0,4827.0,0,0,0,
2026-03-23 18:02:00,SPECI KLAX 231802Z VRB03KT 2 1/2SM HZ FEW012 SCT014 19/14 A2995 RMK AO2 VIS 2V3 T01890144,0,3.0,0,4022.0,0,0,0,
2026-03-23 17:53:00,METAR KLAX 231753Z 14004KT 2 1/2SM HZ FEW012 BKN014 19/14 A2995 RMK AO2 SLP141 VIS 2V3 BKN V SCT T01890144 10189 20150 50003,0,4.0,0,4022.0,0,0,0,
2026-03-23 16:53:00,METAR KLAX 231653Z COR 10004KT 2SM BR OVC010 17/14 A2996 RMK AO2 SLP143 T01720144,0,4.0,0,3218.0,0,0,1,BR
2026-03-23 16:04:00,SPECI KLAX 231604Z VRB04KT 2SM BR OVC009 17/14 A2995 RMK AO2 T01670144,0,4.0,0,3218.0,0,0,1,BR
2026-03-23 15:53:00,METAR KLAX 231553Z 00000KT 1 3/4SM BR OVC009 17/14 A2995 RMK AO2 SLP141 T01670144,0,0.0,0,2816.0,0,0,1,BR
2026-03-23 14:53:00,METAR KLAX 231453Z 00000KT 1 3/4SM BR FEW002 OVC005 16/14 A2995 RMK AO2 SLP139 VIS SW-N 3/4 T01560144 53019,0,0.0,0,2816.0,0,0,1,BR
2026-03-23 14:30:00,SPECI KLAX 231430Z 00000KT 1 3/4SM BR FEW002 OVC005 16/14 A2994 RMK AO2 VIS SW-N 3/4 T01560139,0,0.0,0,2816.0,0,0,1,BR
2026-03-23 13:53:00,METAR KLAX 231353Z 07004KT 2SM BR FEW002 OVC005 16/14 A2992 RMK AO2 SLP129 VIS SW-N 1 1/2 T01560144,0,4.0,0,3218.0,0,0,1,BR
2026-03-23 12:53:00,METAR KLAX 231253Z 14003KT 2SM BR FEW002 OVC005 16/14 A2990 RMK AO2 SLP123 VIS SW-N 1 1/2 T01560144,0,3.0,0,3218.0,0,0,1,BR
2026-03-23 12:24:00,SPECI KLAX 231224Z 13003KT 2SM BR FEW002 OVC005 16/14 A2990 RMK AO2 VIS SW-N 1 1/2 T01560144,0,3.0,0,3218.0,0,0,1,BR
2026-03-23 11:53:00,METAR KLAX 231153Z 00000KT 2SM BR FEW002 OVC004 16/14 A2989 RMK AO2 SLP120 VIS W 1 1/2 T01560144 10161 20150 58003,0,0.0,0,3218.0,0,0,1,BR
2026-03-23 11:12:00,SPECI KLAX 231112Z 00000KT 2SM BR FEW002 OVC004 16/14 A2989 RMK AO2 VIS W 1 1/2 T01560144,0,0.0,0,3218.0,0,0,1,BR
2026-03-23 10:53:00,METAR KLAX 231053Z 29003KT 2SM BR FEW002 OVC005 16/14 A2989 RMK AO2 SLP121 T01560144,0,3.0,0,3218.0,0,0,1,BR
2026-03-23 09:53:00,METAR KLAX 230953Z 27004KT 2SM BR FEW002 OVC005 16/15 A2991 RMK AO2 SLP124 T01610150,0,4.0,0,3218.0,0,0,1,BR
2026-03-23 08:53:00,METAR KLAX 230853Z 00000KT 2SM BR FEW002 OVC005 16/15 A2990 RMK AO2 SLP123 T01560150 56004,0,0.0,0,3218.0,0,0,1,BR
2026-03-23 07:53:00,METAR KLAX 230753Z 23005KT 2 1/2SM BR FEW002 BKN005 16/14 A2990 RMK AO2 SLP124 T01560144 402110156,0,5.0,0,4022.0,0,0,1,BR
2026-03-23 06:53:00,METAR KLAX 230653Z 19003KT 2 1/2SM BR FEW002 FEW003 BKN005 16/14 A2990 RMK AO2 SLP125 T01560144,0,3.0,0,4022.0,0,0,1,BR
2026-03-23 05:53:00,METAR KLAX 230553Z 24004KT 2 1/2SM BR FEW002 SCT003 BKN005 16/15 A2991 RMK AO2 SLP127 T01560150 10189 20156 50010,0,4.0,0,4022.0,0,0,1,BR
2026-03-23 05:39:00,SPECI KLAX 230539Z 24005KT 2 1/2SM BR FEW002 SCT003 BKN005 16/15 A2991 RMK AO2 T01560150,0,5.0,0,4022.0,0,0,1,BR
2026-03-23 04:53:00,METAR KLAX 230453Z 28005KT 4SM BR FEW007 16/15 A2991 RMK AO2 SLP128 T01610150,0,5.0,0,6436.0,0,0,1,BR
2026-03-23 04:18:00,SPECI KLAX 230418Z VRB04KT 4SM BR SCT007 16/14 A2991 RMK AO2 T01610144,0,4.0,0,6436.0,0,0,1,BR
2026-03-23 03:53:00,METAR KLAX 230353Z 27004KT 4SM BR BKN007 16/14 A2990 RMK AO2 SLP122 T01610144,0,4.0,0,6436.0,0,0,1,BR
2026-03-23 03:23:00,SPECI KLAX 230323Z 27006KT 4SM BR SCT007 16/14 A2989 RMK AO2 T01610144,0,6.0,0,6436.0,0,0,1,BR
2026-03-23 02:53:00,METAR KLAX 230253Z 27008KT 4SM BR OVC007 16/15 A2988 RMK AO2 SLP117 T01610150 53004,0,8.0,0,6436.0,0,0,1,BR
2026-03-23 01:53:00,METAR KLAX 230153Z 25008KT 4SM BR BKN007 16/14 A2987 RMK AO2 SLP114 T01610144,0,8.0,0,6436.0,0,0,1,BR
2026-03-23 01:51:00,SPECI KLAX 230151Z 26009KT 4SM BR BKN008 16/14 A2987 RMK AO2,0,9.0,0,6436.0,0,0,1,BR
2026-03-23 01:22:00,SPECI KLAX 230122Z 27009KT 6SM BR SCT007 SCT150 17/14 A2987 RMK AO2 T01670144,0,9.0,0,9654.0,0,0,1,BR
2026-03-23 00:53:00,METAR KLAX 230053Z 27009KT 7SM FEW010 FEW150 18/14 A2987 RMK AO2 SLP112 T01780144,0,9.0,0,11263.0,0,0,0,
2026-03-22 23:53:00,METAR KLAX 222353Z 24007KT 9SM FEW010 FEW150 SCT250 19/14 A2987 RMK AO2 SLP114 T01890144 10211 20178 56013,0,7.0,0,14481.0,0,0,0,
2026-03-22 22:53:00,METAR KLAX 222253Z 25007KT 10SM FEW010 FEW150 SCT250 19/14 A2988 RMK AO2 SLP118 T01940144,0,7.0,0,16090.0,0,0,0,
2026-03-22 21:53:00,METAR KLAX 222153Z 28011KT 10SM FEW009 FEW250 20/14 A2989 RMK AO2 SLP120 T02000144,0,11.0,0,16090.0,0,0,0,
2026-03-22 20:53:00,METAR KLAX 222053Z 26008KT 230V300 6SM HZ FEW009 SCT230 BKN300 19/14 A2991 RMK AO2 SLP127 T01940144 58006,0,8.0,0,9654.0,0,0,0,
2026-03-22 20:04:00,SPECI KLAX 222004Z 26008KT 4SM HZ FEW009 SCT180 BKN230 BKN300 19/14 A2992 RMK AO2 T01940144,0,8.0,0,6436.0,0,0,0,
2026-03-22 19:53:00,METAR KLAX 221953Z 26009KT 5SM HZ FEW010 SCT180 SCT240 BKN300 18/14 A2993 RMK AO2 SLP134 T01830144,0,9.0,0,8045.0,0,0,0,
2026-03-22 18:53:00,METAR KLAX 221853Z 27010KT 6SM HZ FEW011 FEW180 SCT240 BKN300 20/15 A2993 RMK AO2 SLP133 T02000150,0,10.0,0,9654.0,0,0,0,
2026-03-22 17:53:00,METAR KLAX 221753Z VRB05KT 5SM HZ FEW012 FEW190 SCT230 BKN280 20/14 A2992 RMK AO2 SLP132 T02000139 10200 20161 50004,0,5.0,0,8045.0,0,0,0,
2026-03-22 16:53:00,METAR KLAX 221653Z 00000KT 3SM HZ FEW013 SCT220 BKN280 18/14 A2993 RMK AO2 SLP135 T01830144,0,0.0,0,4827.0,0,0,0,
2026-03-22 16:41:00,SPECI KLAX 221641Z 00000KT 3SM HZ SCT013 BKN220 BKN280 18/14 A2994 RMK AO2 T01780139,0,0.0,0,4827.0,0,0,0,
2026-03-22 16:09:00,SPECI KLAX 221609Z 11006KT 3SM HZ BKN012 BKN220 OVC280 18/14 A2994 RMK AO2 T01780139,0,6.0,0,4827.0,0,0,0,
2026-03-22 15:53:00,METAR KLAX 221553Z VRB03KT 2 1/2SM HZ BKN011 BKN220 OVC280 17/14 A2993 RMK AO2 SLP134 T01670139,0,3.0,0,4022.0,0,0,0,
2026-03-22 15:24:00,SPECI KLAX 221524Z 10003KT 2 1/2SM HZ OVC010 17/14 A2992 RMK AO2 VIS W 1 3/4 T01670139,0,3.0,0,4022.0,0,0,0,
2026-03-22 14:53:00,METAR KLAX 221453Z 00000KT 2 1/2SM BR OVC008 16/14 A2991 RMK AO2 SLP128 VIS SW-W 1 3/4 T01610144 52013,0,0.0,0,4022.0,0,0,1,BR
2026-03-22 14:15:00,SPECI KLAX 221415Z 25003KT 2 1/2SM BR OVC008 16/14 A2991 RMK AO2 VIS SW-W 1 3/4 T01610144,0,3.0,0,4022.0,0,0,1,BR
2026-03-22 13:53:00,METAR KLAX 221353Z 25006KT 3SM BR OVC008 16/14 A2990 RMK AO2 SLP123 VIS S-W 2 T01610144,0,6.0,0,4827.0,0,0,1,BR
2026-03-22 12:53:00,METAR KLAX 221253Z 15004KT 5SM BR OVC009 16/14 A2989 RMK AO2 SLP120 T01610139,0,4.0,0,8045.0,0,0,1,BR
2026-03-22 11:53:00,METAR KLAX 221153Z 10003KT 5SM BR OVC009 16/14 A2988 RMK AO2 SLP115 T01610144 10161 20156 56010,0,3.0,0,8045.0,0,0,1,BR
2026-03-22 10:53:00,METAR KLAX 221053Z 00000KT 5SM BR OVC009 16/14 A2988 RMK AO2 SLP117 T01610144,0,0.0,0,8045.0,0,0,1,BR
2026-03-22 09:53:00,METAR KLAX 220953Z 00000KT 5SM BR OVC008 16/14 A2990 RMK AO2 SLP121 T01610144,0,0.0,0,8045.0,0,0,1,BR
2026-03-22 08:53:00,METAR KLAX 220853Z 07003KT 6SM BR OVC005 16/14 A2991 RMK AO2 SLP125 T01610144 56007,0,3.0,0,9654.0,0,0,1,BR
2026-03-22 08:51:00,SPECI KLAX 220851Z 09003KT 6SM BR OVC005 16/14 A2991 RMK AO2,0,3.0,0,9654.0,0,0,1,BR
2026-03-22 07:53:00,METAR KLAX 220753Z 00000KT 3SM BR OVC002 16/15 A2992 RMK AO2 SLP128 T01560150 402330156,0,0.0,0,4827.0,0,0,1,BR
2026-03-22 07:44:00,SPECI KLAX 220744Z 00000KT 3SM BR OVC002 16/15 A2992 RMK AO2 T01560150,0,0.0,0,4827.0,0,0,1,BR
2026-03-22 06:53:00,METAR KLAX 220653Z 25007KT 3/4SM R25L/P6000FT BR OVC002 16/15 A2993 RMK AO2 SLP131 VIS W 1/2 T01560150,0,7.0,0,1207.0,0,0,1,BR
2026-03-22 06:51:00,SPECI KLAX 220651Z 25007KT 3/4SM R25L/P6000FT BR OVC002 16/15 A2993 RMK AO2 VIS W 1/2,0,7.0,0,1207.0,0,0,1,BR
2026-03-22 05:53:00,METAR KLAX 220553Z 24008KT 1SM R25L/P6000FT BR OVC002 16/15 A2992 RMK AO2 SLP130 T01610150 10178 20156 51009,0,8.0,0,1609.0,0,0,1,BR
2026-03-22 04:53:00,METAR KLAX 220453Z 27009KT 2SM BR OVC002 16/15 A2992 RMK AO2 SLP128 VIS W 1/2 T01560150,0,9.0,0,3218.0,0,0,1,BR
2026-03-22 04:15:00,SPECI KLAX 220415Z 24007KT 2SM BR OVC002 16/15 A2991 RMK AO2 VIS SW-NW 1/2 T01560150,0,7.0,0,3218.0,0,0,1,BR
2026-03-22 03:53:00,METAR KLAX 220353Z 25010KT 1 1/2SM BR OVC002 16/15 A2991 RMK AO2 SLP127 T01560150,0,10.0,0,2414.0,0,0,1,BR
2026-03-22 02:53:00,METAR KLAX 220253Z 25008KT 2SM BR OVC003 16/15 A2989 RMK AO2 SLP121 T01610150 51001,0,8.0,0,3218.0,0,0,1,BR
2026-03-22 02:49:00,SPECI KLAX 220249Z 27008KT 2SM BR OVC002 16/15 A2989 RMK AO2,0,8.0,0,3218.0,0,0,1,BR
2026-03-22 02:16:00,SPECI KLAX 220216Z 27009KT 1SM R25L/2800VP6000FT BR OVC002 16/15 A2990 RMK AO2 T01610150,0,9.0,0,1609.0,0,0,1,BR
2026-03-22 01:53:00,METAR KLAX 220153Z 27010KT 1/4SM R25L/1200V5000FT FG VV002 16/16 A2990 RMK AO2 SLP122 T01610156,0,10.0,0,402.0,0,0,1,FG
2026-03-22 00:53:00,METAR KLAX 220053Z 25009KT 1/2SM R25L/2000VP6000FT FG OVC002 17/16 A2989 RMK AO2 SLP120 T01670156,0,9.0,0,804.0,0,0,1,FG
2026-03-22 00:06:00,SPECI KLAX 220006Z 28010KT 1/2SM R25L/5000VP6000FT FG OVC002 17/16 A2989 RMK AO2 T01720156,0,10.0,0,804.0,0,0,1,FG
2026-03-21 23:53:00,METAR KLAX 212353Z 27010KT 1 1/2SM R25L/4000VP6000FT BR OVC002 18/16 A2990 RMK AO2 SLP123 VIS S-NW 1/2 T01780161 10233 20172 56015,0,10.0,0,2414.0,0,0,1,BR
2026-03-21 23:10:00,SPECI KLAX 212310Z 26012KT 1SM R25L/P6000FT HZ BKN004 19/16 A2991 RMK AO2 VIS SE-S AND W 1/2 T01890156,0,12.0,0,1609.0,0,0,0,
2026-03-21 22:53:00,METAR KLAX 212253Z 25009KT 5SM HZ SCT004 SCT250 19/16 A2990 RMK AO2 SLP125 VIS SW-NW 1 T01940161,0,9.0,0,8045.0,0,0,0,
2026-03-21 21:53:00,METAR KLAX 212153Z 24009KT 10SM FEW005 FEW150 SCT250 20/16 A2992 RMK AO2 SLP129 FG BNK S-NW T02000156,0,9.0,0,16090.0,0,0,1,FG
2026-03-21 20:53:00,METAR KLAX 212053Z 26011KT 7SM BCFG FEW000 SCT004 SCT240 BKN300 19/16 A2994 RMK AO2 SLP137 VIS SW-NW 1 1/2 FG FEW000 T01940156 58008,0,11.0,0,11263.0,0,0,1,"BC,FG"
2026-03-21 20:30:00,SPECI KLAX 212030Z 24013KT 7SM BCFG FEW000 SCT004 BKN240 BKN300 19/16 A2994 RMK AO2 VIS SW-NW 1 FG FEW000 T01940156,0,13.0,0,11263.0,0,0,1,"BC,FG"
2026-03-21 20:13:00,SPECI KLAX 212013Z 24012KT 4SM BCFG FEW000 BKN004 BKN240 OVC300 21/16 A2995 RMK AO2 VIS SW-NW 3/4 FG FEW000 T02060161,0,12.0,0,6436.0,0,0,1,"BC,FG"
2026-03-21 19:53:00,METAR KLAX 211953Z 25013KT 10SM FEW002 SCT240 SCT300 22/16 A2995 RMK AO2 SLP141 VIS W-NW 1 1/2 T02220161,0,13.0,0,16090.0,0,0,0,
2026-03-21 19:07:00,SPECI KLAX 211907Z 26008KT 10SM FEW003 FEW240 SCT300 23/16 A2995 RMK AO2 T02330161,0,8.0,0,16090.0,0,0,0,
2026-03-21 18:53:00,METAR KLAX 211853Z 25008KT 10SM FEW240 SCT300 23/16 A2995 RMK AO2 SLP141 T02280156,0,8.0,0,16090.0,0,0,0,
2026-03-21 17:53:00,METAR KLAX 211753Z 26007KT 10SM FEW220 SCT300 23/17 A2996 RMK AO2 SLP145 T02280167 10233 20156 51009,0,7.0,0,16090.0,0,0,0,
2026-03-21 16:53:00,METAR KLAX 211653Z 00000KT 9SM SCT220 BKN300 22/16 A2996 RMK AO2 SLP143 T02170161,0,0.0,0,14481.0,0,0,0,
2026-03-21 15:53:00,METAR KLAX 211553Z 00000KT 7SM FEW002 SCT220 SCT300 19/16 A2995 RMK AO2 SLP141 VIS W 2 1/2 T01940161,0,0.0,0,11263.0,0,0,0,
2026-03-21 14:53:00,METAR KLAX 211453Z VRB03KT 7SM VCFG FEW000 FEW210 SCT280 17/16 A2994 RMK AO2 SLP136 VIS W-NW 2 FG FEW000 T01720161 53012,0,3.0,0,11263.0,0,0,1,"FG,VC"
2026-03-21 13:53:00,METAR KLAX 211353Z 00000KT 7SM VCFG FEW000 FEW210 SCT280 17/16 A2993 RMK AO2 SLP131 VIS SW-NW 1 3/4 FG FEW000 T01670161,0,0.0,0,11263.0,0,0,1,"FG,VC"
2026-03-21 12:53:00,METAR KLAX 211253Z 25004KT 8SM FEW002 17/16 A2992 RMK AO2 SLP128 VIS W 2 T01670161,0,4.0,0,12872.0,0,0,0,
2026-03-21 11:53:00,METAR KLAX 211153Z 27003KT 8SM FEW002 17/16 A2990 RMK AO2 SLP123 T01720161 10183 20167 56007,0,3.0,0,12872.0,0,0,0,
2026-03-21 10:53:00,METAR KLAX 211053Z 25003KT 9SM FEW002 17/16 A2991 RMK AO2 SLP126 T01720156,0,3.0,0,14481.0,0,0,0,
2026-03-21 09:53:00,METAR KLAX 210953Z 00000KT 8SM CLR 18/16 A2992 RMK AO2 SLP130 T01780156,0,0.0,0,12872.0,0,0,0,
2026-03-21 08:53:00,METAR KLAX 210853Z 09005KT 10SM CLR 17/16 A2992 RMK AO2 SLP128 T01720156 58005,0,5.0,0,16090.0,0,0,0,
2026-03-21 07:53:00,METAR KLAX 210753Z 11003KT 10SM CLR 18/16 A2992 RMK AO2 SLP129 T01780156 402940172,0,3.0,0,16090.0,0,0,0,
2026-03-21 06:53:00,METAR KLAX 210653Z 13003KT 10SM CLR 18/16 A2993 RMK AO2 SLP131 T01830161,0,3.0,0,16090.0,0,0,0,
2026-03-21 05:53:00,METAR KLAX 210553Z 23004KT 10SM FEW002 18/16 A2993 RMK AO2 SLP132 T01780161 10239 20178 50007,0,4.0,0,16090.0,0,0,0,
2026-03-21 04:53:00,METAR KLAX 210453Z 25006KT 10SM FEW002 18/17 A2993 RMK AO2 SLP133 T01780167,0,6.0,0,16090.0,0,0,0,
2026-03-21 03:53:00,METAR KLAX 210353Z 25009KT 10SM CLR 18/17 A2993 RMK AO2 SLP132 T01830167,0,9.0,0,16090.0,0,0,0,
2026-03-21 02:53:00,METAR KLAX 210253Z 25007KT 10SM FEW270 19/17 A2991 RMK AO2 SLP127 T01890167 53001,0,7.0,0,16090.0,0,0,0,
2026-03-21 01:53:00,METAR KLAX 210153Z 25009KT 10SM CLR 20/16 A2991 RMK AO2 SLP126 T02000161,0,9.0,0,16090.0,0,0,0,
2026-03-21 00:53:00,METAR KLAX 210053Z 26009KT 10SM CLR 22/14 A2990 RMK AO2 SLP124 T02220144,0,9.0,0,16090.0,0,0,0,
2026-03-20 23:53:00,METAR KLAX 202353Z 27010KT 10SM CLR 24/14 A2990 RMK AO2 SLP125 T02390139 10294 20239 56015,0,10.0,0,16090.0,0,0,0,
2026-03-20 22:53:00,METAR KLAX 202253Z 26010KT 10SM CLR 24/15 A2992 RMK AO2 SLP129 T02440150,0,10.0,0,16090.0,0,0,0,
2026-03-20 21:53:00,METAR KLAX 202153Z 27011KT 10SM CLR 25/14 A2993 RMK AO2 SLP134 T02500144,0,11.0,0,16090.0,0,0,0,
2026-03-20 20:53:00,METAR KLAX 202053Z 27011KT 10SM FEW250 26/14 A2995 RMK AO2 SLP140 T02560144 56009,0,11.0,0,16090.0,0,0,0,
2026-03-20 19:53:00,METAR KLAX 201953Z 25009KT 10SM CLR 28/15 A2996 RMK AO2 SLP142 T02780150,0,9.0,0,16090.0,0,0,0,
2026-03-20 18:53:00,METAR KLAX 201853Z 25005KT 10SM CLR 28/14 A2996 RMK AO2 SLP144 T02780144,0,5.0,0,16090.0,0,0,0,
2026-03-20 17:53:00,METAR KLAX 201753Z 26008KT 10SM CLR 27/15 A2998 RMK AO2 SLP148 T02670150 10278 20172 51003,0,8.0,0,16090.0,0,0,0,
2026-03-20 16:53:00,METAR KLAX 201653Z 00000KT 10SM CLR 24/13 A2997 RMK AO2 SLP149 T02440128,0,0.0,0,16090.0,0,0,0,
2026-03-20 15:53:00,METAR KLAX 201553Z 04004KT 9SM CLR 22/14 A2997 RMK AO2 SLP148 T02170144,0,4.0,0,14481.0,0,0,0,
2026-03-20 14:53:00,METAR KLAX 201453Z 33005KT 8SM CLR 19/16 A2997 RMK AO2 SLP147 T01890156 53006,0,5.0,0,12872.0,0,0,0,
2026-03-20 13:53:00,METAR KLAX 201353Z 00000KT 9SM CLR 18/15 A2996 RMK AO2 SLP144 T01780150,0,0.0,0,14481.0,0,0,0,
2026-03-20 12:53:00,METAR KLAX 201253Z 00000KT 10SM CLR 17/15 A2996 RMK AO2 SLP141 T01720150,0,0.0,0,16090.0,0,0,0,
2026-03-20 11:53:00,METAR KLAX 201153Z 00000KT 10SM FEW008 18/15 A2995 RMK AO2 SLP140 T01780150 10206 20172 56013,0,0.0,0,16090.0,0,0,0,
2026-03-20 11:48:00,SPECI KLAX 201148Z 00000KT 10SM FEW008 18/15 A2995 RMK AO2,0,0.0,0,16090.0,0,0,0,
2026-03-20 10:53:00,METAR KLAX 201053Z 00000KT 9SM CLR 18/14 A2996 RMK AO2 SLP143 T01830144,0,0.0,0,14481.0,0,0,0,
2026-03-20 09:53:00,METAR KLAX 200953Z 01003KT 10SM CLR 19/14 A2998 RMK AO2 SLP148 T01890144,0,3.0,0,16090.0,0,0,0,
2026-03-20 08:53:00,METAR KLAX 200853Z 00000KT 10SM CLR 19/14 A2999 RMK AO2 SLP153 T01940144 51004,0,0.0,0,16090.0,0,0,0,
2026-03-20 07:53:00,METAR KLAX 200753Z 00000KT 10SM CLR 20/14 A2999 RMK AO2 SLP153 T02000139 402830167,0,0.0,0,16090.0,0,0,0,
2026-03-20 06:53:00,METAR KLAX 200653Z 00000KT 10SM CLR 19/16 A2999 RMK AO2 SLP151 T01940156,0,0.0,0,16090.0,0,0,0,
2026-03-20 05:53:00,METAR KLAX 200553Z 19005KT 10SM CLR 19/16 A2998 RMK AO2 SLP148 T01940156 10244 20194 53012,0,5.0,0,16090.0,0,0,0,
2026-03-20 04:53:00,METAR KLAX 200453Z 00000KT 10SM CLR 21/16 A2997 RMK AO2 SLP145 T02060156,0,0.0,0,16090.0,0,0,0,
2026-03-20 03:53:00,METAR KLAX 200353Z 25005KT 10SM CLR 20/16 A2995 RMK AO2 SLP140 T02000156,0,5.0,0,16090.0,0,0,0,
2026-03-20 02:53:00,METAR KLAX 200253Z 26007KT 10SM CLR 21/16 A2994 RMK AO2 SLP138 T02060156 56001,0,7.0,0,16090.0,0,0,0,
2026-03-20 01:53:00,METAR KLAX 200153Z 27010KT 10SM CLR 21/15 A2994 RMK AO2 SLP138 T02110150,0,10.0,0,16090.0,0,0,0,
2026-03-20 00:53:00,METAR KLAX 200053Z 27009KT 10SM CLR 23/14 A2994 RMK AO2 SLP136 T02330144,0,9.0,0,16090.0,0,0,0,
2026-03-19 23:53:00,METAR KLAX 192353Z 26008KT 10SM CLR 24/14 A2994 RMK AO2 SLP138 T02440144 10283 20239 56022,0,8.0,0,16090.0,0,0,0,
2026-03-19 22:53:00,METAR KLAX 192253Z 27010KT 10SM CLR 25/14 A2997 RMK AO2 SLP146 T02500144,0,10.0,0,16090.0,0,0,0,
2026-03-19 21:53:00,METAR KLAX 192153Z 27011KT 10SM CLR 26/15 A2998 RMK AO2 SLP152 T02560150,0,11.0,0,16090.0,0,0,0,
2026-03-19 20:53:00,METAR KLAX 192053Z 27010KT 10SM CLR 25/16 A3001 RMK AO2 SLP161 T02500161 58017,0,10.0,0,16090.0,0,0,0,
2026-03-19 19:53:00,METAR KLAX 191953Z 27010KT 10SM CLR 26/17 A3003 RMK AO2 SLP167 T02560167 $,0,10.0,0,16090.0,0,0,0,
2026-03-19 18:53:00,METAR KLAX 191853Z 26008KT 10SM CLR 27/17 A3005 RMK AO2 SLP172 T02720167 $,0,8.0,0,16090.0,0,0,0,
2026-03-19 17:53:00,METAR KLAX 191753Z 13004KT 10SM CLR 27/14 A3006 RMK AO2 SLP177 T02670139 10267 20167 50005 $,0,4.0,0,16090.0,0,0,0,
2026-03-19 16:53:00,METAR KLAX 191653Z 10003KT 9SM FEW009 24/15 A3007 RMK AO2 SLP180 T02390150 $,0,3.0,0,14481.0,0,0,0,
2026-03-19 15:53:00,METAR KLAX 191553Z 10004KT 10SM FEW009 21/16 A3006 RMK AO2 SLP178 T02110156 $,0,4.0,0,16090.0,0,0,0,
2026-03-19 14:53:00,METAR KLAX 191453Z 08005KT 7SM FEW009 18/17 A3005 RMK AO2 SLP173 T01830167 53012 $,0,5.0,0,11263.0,0,0,0,
2026-03-19 13:53:00,METAR KLAX 191353Z 08004KT 7SM FEW009 FEW070 18/17 A3004 RMK AO2 SLP168 T01780167 $,0,4.0,0,11263.0,0,0,0,
2026-03-19 12:53:00,METAR KLAX 191253Z 09004KT 8SM FEW002 FEW009 17/16 A3002 RMK AO2 SLP163 VIS S 2 3/4 T01720161 $,0,4.0,0,12872.0,0,0,0,
2026-03-19 11:53:00,METAR KLAX 191153Z 09005KT 10SM FEW004 FEW010 17/16 A3001 RMK AO2 SLP160 T01720156 10211 20167 56007 $,0,5.0,0,16090.0,0,0,0,
2026-03-19 10:53:00,METAR KLAX 191053Z 08004KT 10SM FEW012 17/16 A3002 RMK AO2 SLP161 T01720156 $,0,4.0,0,16090.0,0,0,0,
2026-03-19 09:53:00,METAR KLAX 190953Z 08005KT 10SM FEW012 17/15 A3003 RMK AO2 SLP165 T01720150 $,0,5.0,0,16090.0,0,0,0,
2026-03-19 08:53:00,METAR KLAX 190853Z 07005KT 10SM CLR 18/14 A3004 RMK AO2 SLP168 T01780144 50001 $,0,5.0,0,16090.0,0,0,0,
2026-03-19 07:53:00,METAR KLAX 190753Z 08006KT 10SM CLR 21/14 A3004 RMK AO2 SLP168 T02060139 402780172 $,0,6.0,0,16090.0,0,0,0,
2026-03-19 06:53:00,METAR KLAX 190653Z 12003KT 10SM CLR 20/14 A3004 RMK AO2 SLP167 T02000139 $,0,3.0,0,16090.0,0,0,0,
2026-03-19 05:53:00,METAR KLAX 190553Z 12004KT 10SM CLR 20/15 A3003 RMK AO2 SLP166 T02000150 10261 20200 51012 $,0,4.0,0,16090.0,0,0,0,
2026-03-19 04:53:00,METAR KLAX 190453Z 13004KT 10SM CLR 21/16 A3002 RMK AO2 SLP163 T02060156 $,0,4.0,0,16090.0,0,0,0,
2026-03-19 03:53:00,METAR KLAX 190353Z 23005KT 10SM CLR 21/15 A3001 RMK AO2 SLP158 T02060150 $,0,5.0,0,16090.0,0,0,0,
2026-03-19 02:53:00,METAR KLAX 190253Z COR 26006KT 10SM CLR 21/15 A2999 RMK AO2 SLP154 T02110150 53006 $,0,6.0,0,16090.0,0,0,0,
2026-03-19 01:53:00,METAR KLAX 190153Z 26010KT 10SM FEW250 23/14 A2998 RMK AO2 SLP149 T02280144 $,0,10.0,0,16090.0,0,0,0,
2026-03-19 00:53:00,METAR KLAX 190053Z 26010KT 10SM FEW250 24/13 A2997 RMK AO2 SLP147 T02440128 $,0,10.0,0,16090.0,0,0,0,
2026-03-18 23:53:00,METAR KLAX 182353Z 26011KT 10SM FEW250 26/12 A2997 RMK AO2 SLP147 T02610122 10278 20250 56013 $,0,11.0,0,16090.0,0,0,0,
2026-03-18 22:53:00,METAR KLAX 182253Z 26011KT 10SM FEW250 27/13 A2998 RMK AO2 SLP150 T02670128 $,0,11.0,0,16090.0,0,0,0,
2026-03-18 21:53:00,METAR KLAX 182153Z 27012KT 10SM FEW250 27/12 A2999 RMK AO2 SLP154 T02670117 $,0,12.0,0,16090.0,0,0,0,
2026-03-18 20:53:00,METAR KLAX 182053Z 25009KT 10SM FEW250 27/13 A3001 RMK AO2 SLP161 T02670128 58007 $,0,9.0,0,16090.0,0,0,0,
2026-03-18 19:53:00,METAR KLAX 181953Z 27009KT 10SM FEW250 27/14 A3003 RMK AO2 SLP167 T02670139 $,0,9.0,0,16090.0,0,0,0,
2026-03-18 18:53:00,METAR KLAX 181853Z 27007KT 10SM FEW250 27/14 A3003 RMK AO2 SLP167 T02720144 $,0,7.0,0,16090.0,0,0,0,
2026-03-18 17:53:00,METAR KLAX 181753Z 25007KT 10SM FEW250 25/15 A3003 RMK AO2 SLP167 T02500150 10272 20172 51015 $,0,7.0,0,16090.0,0,0,0,
2026-03-18 16:53:00,METAR KLAX 181653Z 03003KT 10SM CLR 27/10 A3002 RMK AO2 SLP164 T02670100 $,0,3.0,0,16090.0,0,0,0,
2026-03-18 15:53:00,METAR KLAX 181553Z 00000KT 10SM FEW250 23/12 A3001 RMK AO2 SLP161 T02330117 $,0,0.0,0,16090.0,0,0,0,
2026-03-18 14:53:00,METAR KLAX 181453Z 10004KT 10SM FEW009 19/14 A2999 RMK AO2 SLP153 T01940144 53008 $,0,4.0,0,16090.0,0,0,0,
2026-03-18 13:53:00,METAR KLAX 181353Z 09005KT 10SM FEW009 18/14 A2998 RMK AO2 SLP148 T01780144 $,0,5.0,0,16090.0,0,0,0,
2026-03-18 12:53:00,METAR KLAX 181253Z 09004KT 10SM FEW008 18/15 A2997 RMK AO2 SLP145 T01780150 $,0,4.0,0,16090.0,0,0,0,
2026-03-18 11:53:00,METAR KLAX 181153Z 09005KT 10SM FEW008 FEW250 17/14 A2997 RMK AO2 SLP145 T01720144 10222 20172 56003 $,0,5.0,0,16090.0,0,0,0,
2026-03-18 11:51:00,SPECI KLAX 181151Z 10004KT 10SM FEW008 FEW250 17/14 A2997 RMK AO2 $,0,4.0,0,16090.0,0,0,0,
2026-03-18 10:53:00,METAR KLAX 181053Z 07005KT 10SM CLR 18/15 A2997 RMK AO2 SLP144 T01830150 $,0,5.0,0,16090.0,0,0,0,
2026-03-18 09:53:00,METAR KLAX 180953Z 09004KT 10SM CLR 18/14 A2997 RMK AO2 SLP147 T01830139 $,0,4.0,0,16090.0,0,0,0,
2026-03-18 08:53:00,METAR KLAX 180853Z 08005KT 10SM CLR 19/12 A2998 RMK AO2 SLP148 T01890117 51008 $,0,5.0,0,16090.0,0,0,0,
2026-03-18 07:53:00,METAR KLAX 180753Z 09004KT 10SM CLR 21/11 A2997 RMK AO2 SLP146 T02060111 403330150 $,0,4.0,0,16090.0,0,0,0,
2026-03-18 06:53:00,METAR KLAX 180653Z 10003KT 10SM CLR 20/13 A2996 RMK AO2 SLP143 T02000133 $,0,3.0,0,16090.0,0,0,0,
2026-03-18 05:53:00,METAR KLAX 180553Z 00000KT 10SM CLR 22/12 A2995 RMK AO2 SLP138 T02220122 10278 20222 53015 $,0,0.0,0,16090.0,0,0,0,
2026-03-18 04:53:00,METAR KLAX 180453Z 25005KT 10SM CLR 22/11 A2993 RMK AO2 SLP133 T02220106 $,0,5.0,0,16090.0,0,0,0,
2026-03-18 03:53:00,METAR KLAX 180353Z 23005KT 10SM CLR 23/09 A2992 RMK AO2 SLP128 T02330094 $,0,5.0,0,16090.0,0,0,0,
2026-03-18 02:53:00,METAR KLAX 180253Z 24005KT 10SM FEW250 24/09 A2990 RMK AO2 SLP125 T02390094 53007 $,0,5.0,0,16090.0,0,0,0,
2026-03-18 01:53:00,METAR KLAX 180153Z COR 27006KT 10SM FEW250 FEW300 25/08 A2989 RMK AO2 SLP120 T02500078 $,0,6.0,0,16090.0,0,0,0,
2026-03-18 00:53:00,METAR KLAX 180053Z 25008KT 10SM FEW250 FEW300 27/08 A2988 RMK AO2 SLP116 T02670083 $,0,8.0,0,16090.0,0,0,0,
2026-03-17 23:53:00,METAR KLAX 172353Z 26012KT 10SM FEW250 FEW300 28/08 A2988 RMK AO2 SLP118 T02830078 10333 20267 56012 $,0,12.0,0,16090.0,0,0,0,
2026-03-17 22:53:00,METAR KLAX 172253Z 26009KT 10SM FEW250 FEW300 28/10 A2989 RMK AO2 SLP121 T02830100 $,0,9.0,0,16090.0,0,0,0,
2026-03-17 21:53:00,METAR KLAX 172153Z 26010KT 10SM FEW250 FEW300 27/12 A2990 RMK AO2 SLP125 T02720117 $,0,10.0,0,16090.0,0,0,0,
2026-03-17 20:53:00,METAR KLAX 172053Z 25010KT 10SM FEW260 SCT300 27/13 A2992 RMK AO2 SLP130 T02670133 58008 $,0,10.0,0,16090.0,0,0,0,
2026-03-17 19:53:00,METAR KLAX 171953Z 26010KT 10SM FEW260 FEW300 29/11 A2993 RMK AO2 SLP134 T02940111 $,0,10.0,0,16090.0,0,0,0,
2026-03-17 18:53:00,METAR KLAX 171853Z 26010KT 10SM FEW260 FEW300 30/12 A2993 RMK AO2 SLP135 T03000117 $,0,10.0,0,16090.0,0,0,0,
2026-03-17 17:53:00,METAR KLAX 171753Z VRB03KT 10SM FEW260 SCT300 32/05 A2994 RMK AO2 SLP137 T03220050 10322 20150 51010 $,0,3.0,0,16090.0,0,0,0,
2026-03-17 16:53:00,METAR KLAX 171653Z 00000KT 10SM FEW220 FEW260 SCT300 29/08 A2994 RMK AO2 SLP136 T02890083 $,0,0.0,0,16090.0,0,0,0,
2026-03-17 15:53:00,METAR KLAX 171553Z 08003KT 10SM FEW220 FEW260 SCT300 23/09 A2993 RMK AO2 SLP136 T02330094 $,0,3.0,0,16090.0,0,0,0,
2026-03-17 14:53:00,METAR KLAX 171453Z 00000KT 10SM FEW200 SCT250 20/09 A2992 RMK AO2 SLP129 T02000094 51006 $,0,0.0,0,16090.0,0,0,0,
2026-03-17 13:53:00,METAR KLAX 171353Z 05004KT 10SM FEW200 FEW250 17/12 A2991 RMK AO2 SLP128 T01720117 $,0,4.0,0,16090.0,0,0,0,
2026-03-17 12:53:00,METAR KLAX 171253Z 00000KT 10SM FEW250 17/13 A2991 RMK AO2 SLP126 T01720133 $,0,0.0,0,16090.0,0,0,0,
2026-03-17 11:53:00,METAR KLAX 171153Z 12003KT 10SM FEW250 16/13 A2990 RMK AO2 SLP124 T01610133 10189 20156 55007 $,0,3.0,0,16090.0,0,0,0,
2026-03-17 10:53:00,METAR KLAX 171053Z 12003KT 10SM FEW250 16/14 A2990 RMK AO2 SLP123 T01610139 $,0,3.0,0,16090.0,0,0,0,
2026-03-17 09:53:00,METAR KLAX 170953Z 00000KT 10SM FEW250 18/14 A2991 RMK AO2 SLP126 T01780144 $,0,0.0,0,16090.0,0,0,0,
2026-03-17 08:53:00,METAR KLAX 170853Z 01003KT 10SM FEW250 18/14 A2992 RMK AO2 SLP130 T01780144 58005 $,0,3.0,0,16090.0,0,0,0,
2026-03-17 07:53:00,METAR KLAX 170753Z 16003KT 10SM FEW250 17/14 A2993 RMK AO2 SLP133 T01720144 402170139 $,0,3.0,0,16090.0,0,0,0,
2026-03-17 06:53:00,METAR KLAX 170653Z 03004KT 10SM FEW250 18/15 A2994 RMK AO2 SLP136 T01830150 $,0,4.0,0,16090.0,0,0,0,
2026-03-17 05:53:00,METAR KLAX 170553Z VRB03KT 10SM FEW200 17/15 A2994 RMK AO2 SLP136 T01720150 10194 20167 51005 $,0,3.0,0,16090.0,0,0,0,
2026-03-17 04:53:00,METAR KLAX 170453Z 25005KT 10SM FEW200 17/14 A2993 RMK AO2 SLP135 T01720144 $,0,5.0,0,16090.0,0,0,0,
2026-03-17 03:53:00,METAR KLAX 170353Z 23005KT 10SM FEW200 17/15 A2993 RMK AO2 SLP135 T01670150 $,0,5.0,0,16090.0,0,0,0,
2026-03-17 02:53:00,METAR KLAX 170253Z 26007KT 10SM SCT080 SCT200 17/15 A2992 RMK AO2 SLP132 T01720150 53005 $,0,7.0,0,16090.0,0,0,0,
2026-03-17 01:53:00,METAR KLAX 170153Z 25008KT 10SM SCT080 SCT220 17/14 A2992 RMK AO2 SLP129 T01720144 $,0,8.0,0,16090.0,0,0,0,
2026-03-17 00:53:00,METAR KLAX 170053Z 26011KT 10SM FEW005 SCT090 SCT220 18/14 A2991 RMK AO2 SLP127 T01780144 $,0,11.0,0,16090.0,0,0,0,
2026-03-16 23:53:00,METAR KLAX 162353Z 25008KT 8SM FEW006 SCT110 SCT250 19/14 A2991 RMK AO2 SLP127 T01890144 10217 20178 56014 $,0,8.0,0,12872.0,0,0,0,
2026-03-16 22:53:00,METAR KLAX 162253Z 26009KT 10SM FEW006 SCT150 SCT250 19/14 A2991 RMK AO2 SLP129 T01940144 $,0,9.0,0,16090.0,0,0,0,
2026-03-16 21:53:00,METAR KLAX 162153Z 26010KT 10SM FEW009 SCT180 SCT250 21/14 A2992 RMK AO2 SLP131 T02060139 $,0,10.0,0,16090.0,0,0,0,
2026-03-16 20:53:00,METAR KLAX 162053Z 28007KT 10SM FEW009 SCT180 BKN250 21/13 A2995 RMK AO2 SLP140 FG BANK W T02060133 58018 $,0,7.0,0,16090.0,0,0,1,FG
2026-03-16 19:53:00,METAR KLAX 161953Z 26009KT 8SM FEW008 SCT160 BKN250 21/14 A2997 RMK AO2 SLP148 FG BANK W T02060144 $,0,9.0,0,12872.0,0,0,1,FG
2026-03-16 18:53:00,METAR KLAX 161853Z 24006KT 6SM HZ FEW005 BKN250 18/14 A2999 RMK AO2 SLP156 FG BANK W T01830144 $,0,6.0,0,9654.0,0,0,1,FG
2026-03-16 18:00:00,SPECI KLAX 161800Z 26007KT 3SM BCFG BR SCT000 SCT005 BKN250 18/14 A3000 RMK AO2 VIS SW-N 1/2 FG SCT000 T01830144 $,0,7.0,0,4827.0,0,0,1,"BC,BR,FG"
2026-03-16 17:53:00,METAR KLAX 161753Z COR 27006KT 1SM R25L/P6000FT BCFG BR SCT000 SCT005 BKN250 18/15 A3000 RMK AO2 SLP158 VIS 1/2V1 1/2 VIS SW-N 1/2 FG SCT000 SCT005 V BKN T01830150 10183 20139 50004 $,0,6.0,0,1609.0,0,0,1,"BC,BR,FG"
2026-03-16 17:36:00,SPECI KLAX 161736Z COR 26007KT 3/4SM R25L/P6000FT BCFG BR SCT000 BKN005 BKN250 17/14 A3001 RMK AO2 VIS 1/2V1 1/2 VIS SW-N 1/2 FG SCT000 T01720144 $,0,7.0,0,1207.0,0,0,1,"BC,BR,FG"
2026-03-16 17:07:00,SPECI KLAX 161707Z 25006KT 1/2SM R25L/P6000FT FG SCT000 BKN005 17/15 A3001 RMK AO2 VIS 1/8V3/4 FG SCT000 T01670150 $,0,6.0,0,804.0,0,0,1,FG
2026-03-16 16:53:00,METAR KLAX 161653Z 27005KT 1/4SM R25L/P6000FT FG SCT000 OVC005 16/14 A3001 RMK AO2 SLP161 VIS 1/8V3/4 FG SCT000 T01610144 $,0,5.0,0,402.0,0,0,1,FG
2026-03-16 16:29:00,SPECI KLAX 161629Z 27006KT 1/2SM R25L/P6000FT FG SCT000 OVC002 16/14 A3001 RMK AO2 VIS 1/8V3/4 FG SCT000 T01560144 $,0,6.0,0,804.0,0,0,1,FG
2026-03-16 16:07:00,SPECI KLAX 161607Z 25005KT 1/4SM R25L/4500VP6000FT FG BKN000 OVC250 16/16 A3001 RMK AO2 VIS 1/8V3/4 FG BKN000 T01560156 $,0,5.0,0,402.0,0,0,1,FG
2026-03-16 15:53:00,METAR KLAX 161553Z 26005KT 1/2SM R25L/2000VP6000FT FG BKN000 OVC250 14/14 A3001 RMK AO2 SLP160 VIS 1/8V3/4 FG BKN000 T01440144 $,0,5.0,0,804.0,0,0,1,FG
2026-03-16 15:43:00,SPECI KLAX 161543Z 26006KT 1/4SM R25L/1200V3000FT FG BKN000 OVC250 15/14 A3000 RMK AO2 VIS 1/8V3/4 FG BKN000 T01500144 $,0,6.0,0,402.0,0,0,1,FG
2026-03-16 15:30:00,SPECI KLAX 161530Z 25003KT 1/4SM R25L/1200V1600FT FG BKN000 OVC250 15/14 A3000 RMK AO2 VIS 1/8V3/4 FG BKN000 T01500144 $,0,3.0,0,402.0,0,0,1,FG
2026-03-16 15:19:00,SPECI KLAX 161519Z 21004KT 1/4SM R25L/1000V2000FT FG VV002 15/14 A3000 RMK AO2 T01500144 $,0,4.0,0,402.0,0,0,1,FG
2026-03-16 14:53:00,METAR KLAX 161453Z 26003KT 1/4SM R25L/1400V6000FT FG VV002 14/14 A2999 RMK AO2 SLP156 VIS 1/8V3/4 T01440139 53004 $,0,3.0,0,402.0,0,0,1,FG
2026-03-16 14:44:00,SPECI KLAX 161444Z 25005KT 1/2SM R25L/1800V6000FT FG VV003 14/14 A2999 RMK AO2 VIS 1/4V1 T01390139 $,0,5.0,0,804.0,0,0,1,FG
2026-03-16 14:22:00,SPECI KLAX 161422Z 25006KT 1/2SM R25L/P6000FT FG SCT000 BKN160 BKN250 14/13 A2998 RMK AO2 VIS 1/4V1 1/2 VIS NE-SE 3 FG SCT000 T01390133 $,0,6.0,0,804.0,0,0,1,FG
2026-03-16 13:53:00,METAR KLAX 161353Z COR 00000KT 6SM BR FEW000 FEW005 BKN250 15/14 A2998 RMK AO2 SLP150 FG FEW000 FG BANK W T01500139 $,0,0.0,0,9654.0,0,0,1,"BR,FG"
2026-03-16 12:53:00,METAR KLAX 161253Z 00000KT 4SM BCFG BR FEW000 FEW004 SCT220 15/14 A2998 RMK AO2 SLP149 VIS NW-N 2 FG FEW000 FG BANK W-N T01500139 $,0,0.0,0,6436.0,0,0,1,"BC,BR,FG"
2026-03-16 11:53:00,METAR KLAX 161153Z 00000KT 4SM BCFG BR FEW000 FEW006 SCT200 14/14 A2998 RMK AO2 SLP150 VIS W-N 3/4 FG FEW000 FG BANK W-N T01440139 10161 20144 56010 $,0,0.0,0,6436.0,0,0,1,"BC,BR,FG"
2026-03-16 10:53:00,METAR KLAX 161053Z 00000KT 6SM BCFG BR FEW000 FEW006 SCT200 15/14 A2998 RMK AO2 SLP150 VIS NW-N 2 FG FEW000 FG BANK NW-N T01500144 $,0,0.0,0,9654.0,0,0,1,"BC,BR,FG"
2026-03-16 09:53:00,METAR KLAX 160953Z 00000KT 6SM BR FEW002 SCT006 BKN200 16/14 A3000 RMK AO2 SLP158 VIS NW-N 2 T01560144 $,0,0.0,0,9654.0,0,0,1,BR
2026-03-16 08:53:00,METAR KLAX 160853Z 00000KT 8SM SCT006 BKN200 16/14 A3001 RMK AO2 SLP160 T01560144 51005 $,0,0.0,0,12872.0,0,0,0,
2026-03-16 07:53:00,METAR KLAX 160753Z 00000KT 10SM FEW006 SCT200 16/14 A3001 RMK AO2 SLP160 T01610144 402060139 $,0,0.0,0,16090.0,0,0,0,
2026-03-16 06:53:00,METAR KLAX 160653Z 23004KT 10SM FEW006 SCT200 16/14 A3001 RMK AO2 SLP161 T01610144 $,0,4.0,0,16090.0,0,0,0,
2026-03-16 05:53:00,METAR KLAX 160553Z 22004KT 10SM FEW006 FEW200 16/14 A2999 RMK AO2 SLP154 T01610144 10189 20156 51012 $,0,4.0,0,16090.0,0,0,0,
2026-03-16 04:53:00,METAR KLAX 160453Z 24004KT 10SM FEW006 16/14 A2998 RMK AO2 SLP152 T01610144 $,0,4.0,0,16090.0,0,0,0,
2026-03-16 04:51:00,SPECI KLAX 160451Z 25004KT 10SM FEW006 16/14 A2998 RMK AO2 $,0,4.0,0,16090.0,0,0,0,
2026-03-16 03:53:00,METAR KLAX 160353Z 26007KT 9SM CLR 17/14 A2997 RMK AO2 SLP147 T01670144 $,0,7.0,0,14481.0,0,0,0,
2026-03-16 02:53:00,METAR KLAX 160253Z 22004KT 9SM FEW250 16/14 A2996 RMK AO2 SLP143 T01610139 53004 $,0,4.0,0,14481.0,0,0,0,
2026-03-16 01:53:00,METAR KLAX 160153Z 26005KT 10SM FEW250 17/14 A2994 RMK AO2 SLP139 T01670139 $,0,5.0,0,16090.0,0,0,0,
2026-03-16 00:53:00,METAR KLAX 160053Z 26008KT 10SM FEW250 18/14 A2994 RMK AO2 SLP137 T01830139 $,0,8.0,0,16090.0,0,0,0,
2026-03-15 23:53:00,METAR KLAX 152353Z 24009KT 10SM FEW250 19/14 A2994 RMK AO2 SLP138 T01890139 10206 20183 56017 $,0,9.0,0,16090.0,0,0,0,
2026-03-15 22:53:00,METAR KLAX 152253Z 25009KT 10SM FEW250 19/14 A2996 RMK AO2 SLP143 T01940139 $,0,9.0,0,16090.0,0,0,0,
2026-03-15 21:53:00,METAR KLAX 152153Z 26009KT 10SM FEW250 19/14 A2997 RMK AO2 SLP148 T01940139 $,0,9.0,0,16090.0,0,0,0,
2026-03-15 20:53:00,METAR KLAX 152053Z 27008KT 10SM SCT280 19/13 A2999 RMK AO2 SLP155 T01940133 58010 $,0,8.0,0,16090.0,0,0,0,
2026-03-15 19:53:00,METAR KLAX 151953Z 26009KT 10SM FEW280 19/13 A3001 RMK AO2 SLP160 T01940133 $,0,9.0,0,16090.0,0,0,0,
2026-03-15 18:53:00,METAR KLAX 151853Z 24006KT 10SM FEW230 FEW300 19/13 A3001 RMK AO2 SLP163 T01940128 $,0,6.0,0,16090.0,0,0,0,
2026-03-15 17:53:00,METAR KLAX 151753Z 09003KT 10SM FEW230 SCT300 19/13 A3002 RMK AO2 SLP165 T01940128 10194 20139 51012 $,0,3.0,0,16090.0,0,0,0,
2026-03-15 16:53:00,METAR KLAX 151653Z VRB04KT 8SM FEW010 SCT300 18/13 A3001 RMK AO2 SLP163 T01780128 $,0,4.0,0,12872.0,0,0,0,
2026-03-15 15:53:00,METAR KLAX 151553Z 12004KT 7SM FEW012 BKN300 16/13 A3000 RMK AO2 SLP159 T01610128 $,0,4.0,0,11263.0,0,0,0,
2026-03-15 15:34:00,SPECI KLAX 151534Z 00000KT 7SM SCT012 BKN300 16/13 A3000 RMK AO2 T01560128 $,0,0.0,0,11263.0,0,0,0,
2026-03-15 14:53:00,METAR KLAX 151453Z 12006KT 6SM BR BKN011 BKN300 15/12 A2999 RMK AO2 SLP154 T01500122 53013 $,0,6.0,0,9654.0,0,0,1,BR
2026-03-15 13:53:00,METAR KLAX 151353Z 15005KT 6SM BR BKN011 14/13 A2997 RMK AO2 SLP149 T01440128 $,0,5.0,0,9654.0,0,0,1,BR
2026-03-15 12:53:00,METAR KLAX 151253Z 00000KT 6SM BR OVC010 14/13 A2996 RMK AO2 SLP142 T01440128 $,0,0.0,0,9654.0,0,0,1,BR
2026-03-15 11:53:00,METAR KLAX 151153Z VRB03KT 7SM OVC010 15/13 A2995 RMK AO2 SLP140 T01500128 10161 20144 56003 $,0,3.0,0,11263.0,0,0,0,
2026-03-15 11:51:00,SPECI KLAX 151151Z 07004KT 7SM OVC010 15/13 A2995 RMK AO2 $,0,4.0,0,11263.0,0,0,0,
2026-03-15 10:53:00,METAR KLAX 151053Z VRB04KT 6SM BR OVC008 15/13 A2995 RMK AO2 SLP140 T01500133 $,0,4.0,0,9654.0,0,0,1,BR
2026-03-15 09:53:00,METAR KLAX 150953Z 09005KT 7SM BKN009 15/13 A2996 RMK AO2 SLP143 T01500133 $,0,5.0,0,11263.0,0,0,0,
2026-03-15 08:53:00,METAR KLAX 150853Z 10005KT 6SM BR BKN009 15/13 A2997 RMK AO2 SLP146 T01500133 50001 $,0,5.0,0,9654.0,0,0,1,BR
