Time_recorded,METAR,is_cavok,wind_speed,is_gust,visibility_meters,has_thunderstorm,has_heavy_rain,has_low_vis_fog,other_phenomenon
2026-05-02 15:20:00,METAR EGSS 021520Z AUTO 13005KT 060V220 9999 NCD 22/09 Q1013,0,5,0,10000,0,0,0,
2026-05-02 14:50:00,METAR EGSS 021450Z AUTO 15006KT 100V190 9999 NCD 22/09 Q1014,0,6,0,10000,0,0,0,
2026-05-02 14:20:00,METAR EGSS 021420Z AUTO VRB06KT 9999 NCD 22/08 Q1014,0,6,0,10000,0,0,0,
2026-05-02 13:50:00,METAR EGSS 021350Z AUTO 17007KT 120V200 9999 NCD 21/07 Q1015,0,7,0,10000,0,0,0,
2026-05-02 13:20:00,METAR EGSS 021320Z AUTO 19006KT 140V230 9999 NCD 21/08 Q1015,0,6,0,10000,0,0,0,
2026-05-02 12:50:00,METAR EGSS 021250Z AUTO 16006KT 100V220 9999 NCD 20/08 Q1015,0,6,0,10000,0,0,0,
2026-05-02 12:20:00,METAR EGSS 021220Z AUTO 15006KT 100V210 9999 NCD 20/09 Q1016,0,6,0,10000,0,0,0,
2026-05-02 11:50:00,METAR EGSS 021150Z AUTO VRB04KT 9999 NCD 19/07 Q1016,0,4,0,10000,0,0,0,
2026-05-02 11:20:00,METAR EGSS 021120Z AUTO 17006KT 120V230 9999 FEW037 19/08 Q1017,0,6,0,10000,0,0,0,
2026-05-02 10:50:00,METAR EGSS 021050Z AUTO VRB02KT 9999 NCD 18/09 Q1017,0,2,0,10000,0,0,0,
2026-05-02 10:20:00,METAR EGSS 021020Z AUTO VRB04KT 9999 NCD 17/09 Q1017,0,4,0,10000,0,0,0,
2026-05-02 09:50:00,METAR EGSS 020950Z AUTO 17004KT 060V240 9999 NCD 17/08 Q1017,0,4,0,10000,0,0,0,
2026-05-02 09:20:00,METAR EGSS 020920Z AUTO 21004KT 160V270 9999 NCD 17/10 Q1018,0,4,0,10000,0,0,0,
2026-05-02 08:50:00,METAR EGSS 020850Z 22005KT 170V250 CAVOK 15/11 Q1018,1,0,0,9999,0,0,0,
2026-05-02 08:20:00,METAR EGSS 020820Z 22004KT 170V280 9000 NSC 14/11 Q1018,0,4,0,9000,0,0,0,
2026-05-02 07:50:00,METAR EGSS 020750Z 22004KT 190V270 7000 NSC 13/11 Q1018,0,4,0,7000,0,0,0,
2026-05-02 07:20:00,METAR EGSS 020720Z VRB02KT 6000 SCT003 12/10 Q1018,0,2,0,6000,0,0,0,
2026-05-02 06:50:00,METAR EGSS 020650Z AUTO 25004KT 8000 BKN004 12/10 Q1018,0,4,0,8000,0,0,0,
2026-05-02 06:20:00,METAR EGSS 020620Z 30003KT 270V350 7000 SCT009 11/09 Q1018,0,3,0,7000,0,0,0,
2026-05-02 05:50:00,METAR EGSS 020550Z AUTO 24004KT 7000 BKN011 10/09 Q1018,0,4,0,7000,0,0,0,
2026-05-02 05:20:00,METAR EGSS 020520Z AUTO 24004KT 7000 NCD 09/08 Q1018,0,4,0,7000,0,0,0,
2026-05-02 04:50:00,METAR EGSS 020450Z AUTO 26002KT 8000 NCD 09/08 Q1018,0,2,0,8000,0,0,0,
2026-05-02 04:20:00,METAR EGSS 020420Z AUTO VRB02KT 9999 NCD 09/08 Q1018,0,2,0,10000,0,0,0,
2026-05-02 03:50:00,METAR EGSS 020350Z AUTO 26002KT 9999 NCD 09/07 Q1018,0,2,0,10000,0,0,0,
2026-05-02 03:20:00,METAR EGSS 020320Z AUTO 22006KT 9999 NCD 09/07 Q1018,0,6,0,10000,0,0,0,
2026-05-02 02:50:00,METAR EGSS 020250Z AUTO 24003KT 9999 NCD 10/08 Q1018,0,3,0,10000,0,0,0,
2026-05-02 02:20:00,METAR EGSS 020220Z AUTO VRB02KT 9999 NCD 11/08 Q1018,0,2,0,10000,0,0,0,
2026-05-02 01:50:00,METAR EGSS 020150Z AUTO 23005KT 9999 NCD 10/08 Q1018,0,5,0,10000,0,0,0,
2026-05-02 01:20:00,METAR EGSS 020120Z AUTO 22007KT 9999 NCD 11/09 Q1019,0,7,0,10000,0,0,0,
2026-05-02 00:50:00,METAR EGSS 020050Z AUTO 26004KT 9999 NCD 14/10 Q1019,0,4,0,10000,0,0,0,
2026-05-02 00:20:00,METAR EGSS 020020Z AUTO 24005KT 9999 NCD 14/11 Q1019,0,5,0,10000,0,0,0,
2026-05-01 23:50:00,METAR EGSS 012350Z AUTO 23007KT 9999 NCD 14/11 Q1019,0,7,0,10000,0,0,0,
2026-05-01 23:20:00,METAR EGSS 012320Z AUTO 21006KT 9999 NCD 15/11 Q1019,0,6,0,10000,0,0,0,
2026-05-01 22:50:00,METAR EGSS 012250Z AUTO 22007KT 9999 NCD 16/11 Q1019,0,7,0,10000,0,0,0,
2026-05-01 22:20:00,METAR EGSS 012220Z AUTO 20007KT 9999 NCD 17/11 Q1019,0,7,0,10000,0,0,0,
2026-05-01 21:50:00,METAR EGSS 012150Z AUTO 20007KT 9999 NCD 18/11 Q1019,0,7,0,10000,0,0,0,
2026-05-01 21:20:00,METAR EGSS 012120Z AUTO 21005KT 9999 NCD 17/11 Q1019,0,5,0,10000,0,0,0,
2026-05-01 20:50:00,METAR EGSS 012050Z AUTO 22007KT 9999 NCD 17/12 Q1019,0,7,0,10000,0,0,0,
2026-05-01 20:20:00,METAR EGSS 012020Z AUTO 19008KT 9999 NCD 18/12 Q1019,0,8,0,10000,0,0,0,
2026-05-01 19:50:00,METAR EGSS 011950Z AUTO 19008KT 9999 NCD 19/12 Q1019,0,8,0,10000,0,0,0,
2026-05-01 19:20:00,METAR EGSS 011920Z AUTO 19008KT 9999 NCD 19/13 Q1018,0,8,0,10000,0,0,0,
2026-05-01 18:50:00,METAR EGSS 011850Z AUTO 19010KT 9999 NCD 20/13 Q1018,0,10,0,10000,0,0,0,
2026-05-01 18:20:00,METAR EGSS 011820Z AUTO 19013KT 9999 FEW046 21/13 Q1018,0,13,0,10000,0,0,0,
2026-05-01 17:50:00,METAR EGSS 011750Z AUTO 18012KT 9999 BKN048 23/12 Q1018,0,12,0,10000,0,0,0,
2026-05-01 17:20:00,METAR EGSS 011720Z AUTO 15009KT 9999 NCD 22/11 Q1018,0,9,0,10000,0,0,0,
2026-05-01 16:50:00,METAR EGSS 011650Z AUTO 14011KT 9999 NCD 23/10 Q1018,0,11,0,10000,0,0,0,
2026-05-01 16:20:00,METAR EGSS 011620Z AUTO 14011KT 9999 NCD 23/09 Q1018,0,11,0,10000,0,0,0,
2026-05-01 15:50:00,METAR EGSS 011550Z AUTO 14012KT 9999 NCD 23/08 Q1019,0,12,0,10000,0,0,0,
2026-05-01 15:20:00,METAR EGSS 011520Z AUTO 17011KT 9999 NCD 23/08 Q1019,0,11,0,10000,0,0,0,
2026-05-01 14:50:00,METAR EGSS 011450Z AUTO 15012KT 9999 NCD 23/08 Q1019,0,12,0,10000,0,0,0,
2026-05-01 14:20:00,METAR EGSS 011420Z AUTO 17012KT 130V200 9999 NCD 24/07 Q1019,0,12,0,10000,0,0,0,
2026-05-01 13:50:00,METAR EGSS 011350Z AUTO 15011KT 120V190 9999 NCD 23/07 Q1020,0,11,0,10000,0,0,0,
2026-05-01 13:20:00,METAR EGSS 011320Z AUTO 14010KT 110V200 9999 NCD 23/07 Q1020,0,10,0,10000,0,0,0,
2026-05-01 12:50:00,METAR EGSS 011250Z AUTO 11012KT 9999 NCD 22/07 Q1020,0,12,0,10000,0,0,0,
2026-05-01 12:20:00,METAR EGSS 011220Z AUTO 13011KT 9999 NCD 22/05 Q1020,0,11,0,10000,0,0,0,
2026-05-01 11:50:00,METAR EGSS 011150Z AUTO 11011KT 080V160 9999 NCD 21/06 Q1020,0,11,0,10000,0,0,0,
2026-05-01 11:20:00,METAR EGSS 011120Z AUTO 13010KT 9999 NCD 21/05 Q1021,0,10,0,10000,0,0,0,
2026-05-01 10:50:00,METAR EGSS 011050Z AUTO 12010KT 9999 NCD 20/05 Q1021,0,10,0,10000,0,0,0,
2026-05-01 10:20:00,METAR EGSS 011020Z AUTO 11007KT 030V140 9999 NCD 19/05 Q1021,0,7,0,10000,0,0,0,
2026-05-01 09:50:00,METAR EGSS 010950Z AUTO 10008KT 9999 NCD 18/06 Q1022,0,8,0,10000,0,0,0,
2026-05-01 09:20:00,METAR EGSS 010920Z AUTO VRB08KT 9999 NCD 17/06 Q1022,0,8,0,10000,0,0,0,
2026-05-01 08:50:00,METAR EGSS 010850Z AUTO 11009KT 9999 NCD 17/05 Q1022,0,9,0,10000,0,0,0,
2026-05-01 08:20:00,METAR EGSS 010820Z AUTO 12009KT 9999 NCD 16/05 Q1021,0,9,0,10000,0,0,0,
2026-05-01 07:50:00,METAR EGSS 010750Z AUTO 11008KT 060V140 9999 NCD 15/05 Q1021,0,8,0,10000,0,0,0,
2026-05-01 07:20:00,METAR EGSS 010720Z AUTO 12009KT 9999 NCD 14/05 Q1021,0,9,0,10000,0,0,0,
2026-05-01 06:50:00,METAR EGSS 010650Z AUTO 12008KT 9999 NCD 13/05 Q1021,0,8,0,10000,0,0,0,
2026-05-01 06:20:00,METAR EGSS 010620Z AUTO 12009KT 9999 NCD 12/05 Q1021,0,9,0,10000,0,0,0,
2026-05-01 05:50:00,METAR EGSS 010550Z AUTO 11007KT 080V160 9999 NCD 11/04 Q1021,0,7,0,10000,0,0,0,
2026-05-01 05:20:00,METAR EGSS 010520Z AUTO 11008KT 030V130 9999 NCD 10/04 Q1021,0,8,0,10000,0,0,0,
2026-05-01 04:50:00,METAR EGSS 010450Z AUTO 11009KT 9999 NCD 10/04 Q1021,0,9,0,10000,0,0,0,
2026-05-01 04:20:00,METAR EGSS 010420Z AUTO 11008KT 9999 NCD 10/04 Q1021,0,8,0,10000,0,0,0,
2026-05-01 03:50:00,METAR EGSS 010350Z AUTO 11007KT 9999 NCD 10/04 Q1021,0,7,0,10000,0,0,0,
2026-05-01 03:20:00,METAR EGSS 010320Z 10007KT CAVOK 10/04 Q1021,1,0,0,9999,0,0,0,
2026-05-01 02:50:00,METAR EGSS 010250Z AUTO 10008KT 9999 NCD 10/04 Q1021,0,8,0,10000,0,0,0,
2026-05-01 02:20:00,METAR EGSS 010220Z AUTO 11008KT 9999 NCD 11/04 Q1021,0,8,0,10000,0,0,0,
2026-05-01 01:50:00,METAR EGSS 010150Z AUTO 11007KT 9999 NCD 11/04 Q1021,0,7,0,10000,0,0,0,
2026-05-01 01:20:00,METAR EGSS 010120Z AUTO 10007KT 9999 NCD 10/04 Q1022,0,7,0,10000,0,0,0,
2026-05-01 00:50:00,METAR EGSS 010050Z AUTO 11008KT 9999 NCD 11/05 Q1022,0,8,0,10000,0,0,0,
2026-05-01 00:20:00,METAR EGSS 010020Z AUTO 10008KT 9999 NCD 11/05 Q1022,0,8,0,10000,0,0,0,
2026-04-30 23:50:00,METAR EGSS 302350Z AUTO 10009KT 9999 NCD 12/04 Q1022,0,9,0,10000,0,0,0,
2026-04-30 23:20:00,METAR EGSS 302320Z AUTO 10009KT 9999 NCD 12/04 Q1022,0,9,0,10000,0,0,0,
2026-04-30 22:50:00,METAR EGSS 302250Z AUTO 09009KT 9999 NCD 11/03 Q1022,0,9,0,10000,0,0,0,
2026-04-30 22:20:00,METAR EGSS 302220Z AUTO 09010KT 9999 NCD 12/02 Q1022,0,10,0,10000,0,0,0,
2026-04-30 21:50:00,METAR EGSS 302150Z AUTO 09009KT 9999 NCD 12/02 Q1022,0,9,0,10000,0,0,0,
2026-04-30 21:20:00,METAR EGSS 302120Z AUTO 09009KT 9999 NCD 12/02 Q1022,0,9,0,10000,0,0,0,
2026-04-30 20:50:00,METAR EGSS 302050Z AUTO 07007KT 9999 NCD 12/01 Q1022,0,7,0,10000,0,0,0,
2026-04-30 20:20:00,METAR EGSS 302020Z AUTO 08008KT 320V100 9999 NCD 13/01 Q1022,0,8,0,10000,0,0,0,
2026-04-30 19:50:00,METAR EGSS 301950Z AUTO 09008KT 9999 NCD 14/01 Q1022,0,8,0,10000,0,0,0,
2026-04-30 19:20:00,METAR EGSS 301920Z AUTO 09009KT 350V120 9999 NCD 15/01 Q1021,0,9,0,10000,0,0,0,
2026-04-30 18:50:00,METAR EGSS 301850Z AUTO 10010KT 9999 NCD 15/01 Q1021,0,10,0,10000,0,0,0,
2026-04-30 18:20:00,METAR EGSS 301820Z AUTO 10010KT 9999 NCD 16/01 Q1021,0,10,0,10000,0,0,0,
2026-04-30 17:50:00,METAR EGSS 301750Z AUTO 10012KT 060V120 9999 NCD 17/00 Q1021,0,12,0,10000,0,0,0,
2026-04-30 17:20:00,METAR EGSS 301720Z AUTO 09014KT 9999 NCD 17/00 Q1021,0,14,0,10000,0,0,0,
2026-04-30 16:50:00,METAR EGSS 301650Z AUTO 09014KT 9999 NCD 17/00 Q1022,0,14,0,10000,0,0,0,
2026-04-30 16:20:00,METAR EGSS 301620Z AUTO 08015KT 9999 NCD 18/01 Q1022,0,15,0,10000,0,0,0,
2026-04-30 14:50:00,METAR EGSS 301450Z AUTO 10016KT 9999 NCD 19/01 Q1022,0,16,0,10000,0,0,0,
2026-04-30 14:20:00,METAR EGSS 301420Z AUTO 11016KT 9999 NCD 19/01 Q1022,0,16,0,10000,0,0,0,
2026-04-30 13:50:00,METAR EGSS 301350Z AUTO 11013KT 9999 NCD 19/02 Q1023,0,13,0,10000,0,0,0,
2026-04-30 13:20:00,METAR EGSS 301320Z AUTO 13016KT 060V150 9999 NCD 19/02 Q1023,0,16,0,10000,0,0,0,
2026-04-30 12:50:00,METAR EGSS 301250Z AUTO 11016KT 9999 NCD 19/01 Q1023,0,16,0,10000,0,0,0,
2026-04-30 12:20:00,METAR EGSS 301220Z AUTO 10016KT 9999 NCD 20/02 Q1023,0,16,0,10000,0,0,0,
2026-04-30 11:50:00,METAR EGSS 301150Z AUTO 11017KT 9999 NCD 19/02 Q1023,0,17,0,10000,0,0,0,
2026-04-30 11:20:00,METAR EGSS 301120Z AUTO 11014KT 9999 NCD 19/03 Q1023,0,14,0,10000,0,0,0,
2026-04-30 10:50:00,METAR EGSS 301050Z AUTO 10016KT 9999 NCD 18/03 Q1024,0,16,0,10000,0,0,0,
2026-04-30 10:20:00,METAR EGSS 301020Z AUTO 10015KT 9999 NCD 17/03 Q1024,0,15,0,10000,0,0,0,
2026-04-30 09:50:00,METAR EGSS 300950Z AUTO 10013KT 9999 NCD 17/04 Q1024,0,13,0,10000,0,0,0,
2026-04-30 09:20:00,METAR EGSS 300920Z AUTO 10013KT 050V120 9999 NCD 16/04 Q1024,0,13,0,10000,0,0,0,
2026-04-30 08:50:00,METAR EGSS 300850Z AUTO 11014KT 9999 NCD 15/04 Q1024,0,14,0,10000,0,0,0,
2026-04-30 08:20:00,METAR EGSS 300820Z AUTO 11015KT 9999 NCD 14/05 Q1024,0,15,0,10000,0,0,0,
2026-04-30 07:50:00,METAR EGSS 300750Z AUTO 11012KT 060V120 9999 NCD 14/05 Q1024,0,12,0,10000,0,0,0,
2026-04-30 07:20:00,METAR EGSS 300720Z AUTO 10014KT 060V120 9999 NCD 13/05 Q1024,0,14,0,10000,0,0,0,
2026-04-30 06:50:00,METAR EGSS 300650Z AUTO 10010KT 050V130 9999 NCD 12/05 Q1024,0,10,0,10000,0,0,0,
2026-04-30 06:20:00,METAR EGSS 300620Z AUTO 09010KT 9999 NCD 11/05 Q1024,0,10,0,10000,0,0,0,
2026-04-30 05:50:00,METAR EGSS 300550Z AUTO 08009KT 030V100 9999 NCD 10/05 Q1024,0,9,0,10000,0,0,0,
2026-04-30 05:20:00,METAR EGSS 300520Z AUTO 07007KT 9999 NCD 08/04 Q1024,0,7,0,10000,0,0,0,
2026-04-30 04:50:00,METAR EGSS 300450Z AUTO 07005KT 9999 NCD 07/03 Q1024,0,5,0,10000,0,0,0,
2026-04-30 04:20:00,METAR EGSS 300420Z AUTO 07005KT 9999 NCD 07/03 Q1024,0,5,0,10000,0,0,0,
2026-04-30 03:50:00,METAR EGSS 300350Z AUTO 06008KT 9999 NCD 07/04 Q1024,0,8,0,10000,0,0,0,
2026-04-30 03:20:00,METAR EGSS 300320Z AUTO 06006KT 9999 NCD 07/03 Q1024,0,6,0,10000,0,0,0,
2026-04-30 02:50:00,METAR EGSS 300250Z AUTO 06008KT 9999 NCD 07/04 Q1024,0,8,0,10000,0,0,0,
2026-04-30 02:20:00,METAR EGSS 300220Z AUTO 06008KT 9999 NCD 07/04 Q1024,0,8,0,10000,0,0,0,
2026-04-30 01:50:00,METAR EGSS 300150Z AUTO 06008KT 9999 NCD 08/04 Q1024,0,8,0,10000,0,0,0,
2026-04-30 01:20:00,METAR EGSS 300120Z AUTO 05011KT 9999 NCD 08/05 Q1024,0,11,0,10000,0,0,0,
2026-04-30 00:50:00,METAR EGSS 300050Z AUTO 05009KT 9999 NCD 08/05 Q1025,0,9,0,10000,0,0,0,
2026-04-30 00:20:00,METAR EGSS 300020Z AUTO 05008KT 9999 NCD 07/05 Q1025,0,8,0,10000,0,0,0,
2026-04-29 23:50:00,METAR EGSS 292350Z AUTO 06009KT 9999 NCD 07/05 Q1025,0,9,0,10000,0,0,0,
2026-04-29 23:20:00,METAR EGSS 292320Z 06007KT CAVOK 08/05 Q1025,1,0,0,9999,0,0,0,
2026-04-29 22:50:00,METAR EGSS 292250Z AUTO 05008KT 9999 NCD 08/05 Q1025,0,8,0,10000,0,0,0,
2026-04-29 22:20:00,METAR EGSS 292220Z AUTO 05010KT 9999 NCD 08/05 Q1025,0,10,0,10000,0,0,0,
2026-04-29 21:50:00,METAR EGSS 292150Z AUTO 05011KT 9999 NCD 09/05 Q1025,0,11,0,10000,0,0,0,
2026-04-29 21:20:00,METAR EGSS 292120Z AUTO 06012KT 9999 NCD 09/04 Q1025,0,12,0,10000,0,0,0,
2026-04-29 20:50:00,METAR EGSS 292050Z AUTO 06012KT 9999 NCD 10/04 Q1025,0,12,0,10000,0,0,0,
2026-04-29 20:20:00,METAR EGSS 292020Z AUTO 05012KT 9999 NCD 10/03 Q1024,0,12,0,10000,0,0,0,
2026-04-29 19:50:00,METAR EGSS 291950Z AUTO 05012KT 9999 NCD 11/02 Q1024,0,12,0,10000,0,0,0,
2026-04-29 19:20:00,METAR EGSS 291920Z AUTO 06015KT 9999 NCD 12/02 Q1024,0,15,0,10000,0,0,0,
2026-04-29 18:50:00,METAR EGSS 291850Z AUTO 06013KT 9999 NCD 12/02 Q1024,0,13,0,10000,0,0,0,
2026-04-29 18:20:00,METAR EGSS 291820Z AUTO 06018KT 9999 NCD 13/02 Q1024,0,18,0,10000,0,0,0,
2026-04-29 17:50:00,METAR EGSS 291750Z AUTO 06017KT 9999 NCD 14/02 Q1024,0,17,0,10000,0,0,0,
2026-04-29 17:20:00,METAR EGSS 291720Z AUTO 07016KT 9999 NCD 15/02 Q1024,0,16,0,10000,0,0,0,
2026-04-29 16:50:00,METAR EGSS 291650Z AUTO 07017KT 9999 NCD 15/02 Q1024,0,17,0,10000,0,0,0,
2026-04-29 16:20:00,METAR EGSS 291620Z AUTO 06017KT 9999 NCD 16/02 Q1024,0,17,0,10000,0,0,0,
2026-04-29 15:50:00,METAR EGSS 291550Z AUTO 07017KT 9999 NCD 16/02 Q1025,0,17,0,10000,0,0,0,
2026-04-29 15:20:00,METAR EGSS 291520Z AUTO 07016KT 9999 NCD 16/02 Q1025,0,16,0,10000,0,0,0,
2026-04-29 14:50:00,METAR EGSS 291450Z AUTO 07019KT 9999 NCD 17/M00 Q1025,0,19,0,10000,0,0,0,
2026-04-29 14:20:00,METAR EGSS 291420Z AUTO 08018KT 9999 NCD 18/M00 Q1025,0,18,0,10000,0,0,0,
2026-04-29 13:50:00,METAR EGSS 291350Z AUTO 08016KT 9999 NCD 18/M01 Q1025,0,16,0,10000,0,0,0,
2026-04-29 13:20:00,METAR EGSS 291320Z AUTO 07019KT 9999 NCD 17/M01 Q1025,0,19,0,10000,0,0,0,
2026-04-29 12:50:00,METAR EGSS 291250Z AUTO 07017KT 9999 NCD 17/M01 Q1025,0,17,0,10000,0,0,0,
2026-04-29 12:20:00,METAR EGSS 291220Z AUTO 08018KT 9999 NCD 17/M00 Q1025,0,18,0,10000,0,0,0,
2026-04-29 11:50:00,METAR EGSS 291150Z AUTO 07020KT 9999 NCD 17/00 Q1025,0,20,0,10000,0,0,0,
2026-04-29 11:20:00,METAR EGSS 291120Z AUTO 07018KT 9999 NCD 17/01 Q1026,0,18,0,10000,0,0,0,
2026-04-29 10:50:00,METAR EGSS 291050Z AUTO 08019KT 9999 NCD 17/01 Q1026,0,19,0,10000,0,0,0,
2026-04-29 10:20:00,METAR EGSS 291020Z AUTO 07020KT 9999 NCD 16/01 Q1026,0,20,0,10000,0,0,0,
2026-04-29 09:50:00,METAR EGSS 290950Z AUTO 08020KT 9999 NCD 16/01 Q1026,0,20,0,10000,0,0,0,
2026-04-29 09:20:00,METAR EGSS 290920Z AUTO 08017KT 9999 NCD 16/01 Q1026,0,17,0,10000,0,0,0,
2026-04-29 08:50:00,METAR EGSS 290850Z AUTO 08019KT 9999 NCD 15/02 Q1026,0,19,0,10000,0,0,0,
2026-04-29 08:20:00,METAR EGSS 290820Z AUTO 08016KT 9999 NCD 14/03 Q1026,0,16,0,10000,0,0,0,
2026-04-29 07:50:00,METAR EGSS 290750Z AUTO 07014KT 9999 NCD 13/04 Q1025,0,14,0,10000,0,0,0,
2026-04-29 07:20:00,METAR EGSS 290720Z AUTO 07015KT 9999 NCD 12/04 Q1025,0,15,0,10000,0,0,0,
2026-04-29 06:50:00,METAR EGSS 290650Z AUTO 06014KT 9999 NCD 10/05 Q1025,0,14,0,10000,0,0,0,
2026-04-29 06:20:00,METAR EGSS 290620Z AUTO 05013KT 9999 NCD 09/05 Q1025,0,13,0,10000,0,0,0,
2026-04-29 05:50:00,METAR EGSS 290550Z AUTO 05012KT 9999 NCD 08/05 Q1025,0,12,0,10000,0,0,0,
2026-04-29 05:20:00,METAR EGSS 290520Z AUTO 05011KT 9999 NCD 07/05 Q1025,0,11,0,10000,0,0,0,
2026-04-29 04:50:00,METAR EGSS 290450Z AUTO 05011KT 9999 NCD 07/05 Q1024,0,11,0,10000,0,0,0,
2026-04-29 04:20:00,METAR EGSS 290420Z AUTO 05011KT 9999 NCD 07/05 Q1024,0,11,0,10000,0,0,0,
2026-04-29 03:50:00,METAR EGSS 290350Z AUTO 04012KT 9999 NCD 07/05 Q1024,0,12,0,10000,0,0,0,
2026-04-29 03:20:00,METAR EGSS 290320Z AUTO 04012KT 9999 NCD 07/05 Q1024,0,12,0,10000,0,0,0,
2026-04-29 02:50:00,METAR EGSS 290250Z AUTO 04012KT 9999 NCD 07/05 Q1024,0,12,0,10000,0,0,0,
2026-04-29 02:20:00,METAR EGSS 290220Z AUTO 04012KT 9999 NCD 07/05 Q1025,0,12,0,10000,0,0,0,
2026-04-29 01:50:00,METAR EGSS 290150Z AUTO 04012KT 9999 NCD 07/05 Q1025,0,12,0,10000,0,0,0,
2026-04-29 01:20:00,METAR EGSS 290120Z AUTO 03012KT 9999 NCD 07/05 Q1025,0,12,0,10000,0,0,0,
2026-04-29 00:50:00,METAR EGSS 290050Z AUTO 04012KT 9999 NCD 07/05 Q1025,0,12,0,10000,0,0,0,
2026-04-29 00:20:00,METAR EGSS 290020Z AUTO 03011KT 9999 NCD 07/04 Q1025,0,11,0,10000,0,0,0,
2026-04-28 23:50:00,METAR EGSS 282350Z AUTO 02011KT 9999 NCD 07/04 Q1025,0,11,0,10000,0,0,0,
2026-04-28 23:20:00,METAR EGSS 282320Z AUTO 02010KT 9999 NCD 07/03 Q1025,0,10,0,10000,0,0,0,
2026-04-28 22:50:00,METAR EGSS 282250Z AUTO 02010KT 9999 NCD 07/03 Q1025,0,10,0,10000,0,0,0,
2026-04-28 22:20:00,METAR EGSS 282220Z AUTO 02009KT 9999 NCD 07/02 Q1025,0,9,0,10000,0,0,0,
2026-04-28 21:50:00,METAR EGSS 282150Z AUTO 02011KT 9999 NCD 07/02 Q1025,0,11,0,10000,0,0,0,
2026-04-28 21:20:00,METAR EGSS 282120Z AUTO 03012KT 9999 NCD 08/02 Q1025,0,12,0,10000,0,0,0,
2026-04-28 20:50:00,METAR EGSS 282050Z AUTO 03011KT 9999 NCD 08/02 Q1025,0,11,0,10000,0,0,0,
2026-04-28 20:20:00,METAR EGSS 282020Z AUTO 03011KT 9999 NCD 08/02 Q1025,0,11,0,10000,0,0,0,
2026-04-28 19:50:00,METAR EGSS 281950Z AUTO 03011KT 9999 NCD 09/01 Q1025,0,11,0,10000,0,0,0,
2026-04-28 19:20:00,METAR EGSS 281920Z AUTO 04014KT 9999 NCD 10/00 Q1025,0,14,0,10000,0,0,0,
2026-04-28 18:50:00,METAR EGSS 281850Z AUTO 04015KT 9999 NCD 11/M00 Q1025,0,15,0,10000,0,0,0,
2026-04-28 18:20:00,METAR EGSS 281820Z AUTO 05016KT 9999 NCD 12/M00 Q1024,0,16,0,10000,0,0,0,
2026-04-28 17:50:00,METAR EGSS 281750Z AUTO 04016KT 9999 NCD 13/00 Q1024,0,16,0,10000,0,0,0,
2026-04-28 17:20:00,METAR EGSS 281720Z AUTO 05015KT 9999 NCD 13/01 Q1024,0,15,0,10000,0,0,0,
2026-04-28 16:50:00,METAR EGSS 281650Z AUTO 04016KT 9999 NCD 14/01 Q1024,0,16,0,10000,0,0,0,
2026-04-28 16:20:00,METAR EGSS 281620Z AUTO 04017KT 9999 NCD 15/00 Q1024,0,17,0,10000,0,0,0,
2026-04-28 15:50:00,METAR EGSS 281550Z AUTO 04016KT 9999 NCD 15/02 Q1024,0,16,0,10000,0,0,0,
2026-04-28 15:20:00,METAR EGSS 281520Z AUTO 05016KT 9999 NCD 16/03 Q1024,0,16,0,10000,0,0,0,
2026-04-28 14:50:00,METAR EGSS 281450Z AUTO 04017KT 9999 NCD 16/03 Q1024,0,17,0,10000,0,0,0,
2026-04-28 14:20:00,METAR EGSS 281420Z AUTO 04016KT 9999 NCD 16/04 Q1024,0,16,0,10000,0,0,0,
2026-04-28 13:50:00,METAR EGSS 281350Z AUTO 04016KT 9999 NCD 16/03 Q1024,0,16,0,10000,0,0,0,
2026-04-28 13:20:00,METAR EGSS 281320Z AUTO 04016KT 9999 NCD 16/03 Q1024,0,16,0,10000,0,0,0,
2026-04-28 12:50:00,METAR EGSS 281250Z AUTO 04017KT 360V070 9999 FEW041 15/04 Q1025,0,17,0,10000,0,0,0,
2026-04-28 12:20:00,METAR EGSS 281220Z AUTO 04013KT 9999 SCT034 15/05 Q1025,0,13,0,10000,0,0,0,
2026-04-28 11:50:00,METAR EGSS 281150Z AUTO 03014KT 360V070 9999 BKN026 14/06 Q1025,0,14,0,10000,0,0,0,
2026-04-28 11:20:00,METAR EGSS 281120Z AUTO 03014KT 9999 BKN024 BKN033 13/06 Q1025,0,14,0,10000,0,0,0,
2026-04-28 10:50:00,METAR EGSS 281050Z AUTO 02012KT 350V060 9999 BKN018 BKN022 13/07 Q1026,0,12,0,10000,0,0,0,
2026-04-28 10:20:00,METAR EGSS 281020Z AUTO 03011KT 9999 OVC017 10/06 Q1026,0,11,0,10000,0,0,0,
2026-04-28 09:50:00,METAR EGSS 280950Z AUTO 03013KT 9999 OVC016 11/07 Q1025,0,13,0,10000,0,0,0,
2026-04-28 09:20:00,METAR EGSS 280920Z AUTO 04014KT 9999 BKN015 OVC029 10/06 Q1025,0,14,0,10000,0,0,0,
2026-04-28 08:50:00,METAR EGSS 280850Z AUTO 04015KT 9999 BKN014 OVC047 09/06 Q1025,0,15,0,10000,0,0,0,
2026-04-28 08:20:00,METAR EGSS 280820Z AUTO 03015KT 9999 -RA SCT009 BKN014 09/07 Q1025,0,15,0,10000,0,0,0,-RA
2026-04-28 07:50:00,METAR EGSS 280750Z AUTO 03012KT 9999 OVC007 09/07 Q1025,0,12,0,10000,0,0,0,
2026-04-28 07:20:00,METAR EGSS 280720Z AUTO 04011KT 9999 BKN010 OVC013 09/07 Q1025,0,11,0,10000,0,0,0,
2026-04-28 06:50:00,METAR EGSS 280650Z AUTO 03012KT 9999 BKN009 OVC018 09/07 Q1025,0,12,0,10000,0,0,0,
2026-04-28 06:20:00,METAR EGSS 280620Z 03011KT 8000 BKN005 09/08 Q1025,0,11,0,8000,0,0,0,
2026-04-28 05:50:00,METAR EGSS 280550Z AUTO 04009KT 7000 OVC004 08/08 Q1024,0,9,0,7000,0,0,0,
2026-04-28 05:20:00,METAR EGSS 280520Z AUTO 03010KT 9999 BKN006 OVC011 08/07 Q1024,0,10,0,10000,0,0,0,
2026-04-28 04:50:00,METAR EGSS 280450Z AUTO 03009KT 9999 BKN010 BKN016 08/07 Q1024,0,9,0,10000,0,0,0,
2026-04-28 04:20:00,METAR EGSS 280420Z AUTO 04010KT 9999 SCT009 BKN047 08/07 Q1024,0,10,0,10000,0,0,0,
2026-04-28 03:50:00,METAR EGSS 280350Z AUTO 05009KT 8000 -RA BKN003 BKN008 OVC012 09/08 Q1023 REDZ,0,9,0,8000,0,0,0,"-RA,DZ"
2026-04-28 03:20:00,METAR EGSS 280320Z 36005KT 2700 DZ OVC003 09/08 Q1023,0,5,0,2700,0,0,0,DZ
2026-04-28 02:50:00,METAR EGSS 280250Z AUTO 35006KT 2900 BR OVC003 08/08 Q1024,0,6,0,2900,0,0,1,BR
2026-04-28 02:20:00,METAR EGSS 280220Z AUTO 35005KT 2700 -RADZ OVC004 08/08 Q1024,0,5,0,2700,0,0,0,"-RA,DZ"
2026-04-28 01:50:00,METAR EGSS 280150Z AUTO 36006KT 5000 HZ BKN007 OVC011 09/07 Q1024,0,6,0,5000,0,0,0,
2026-04-28 01:20:00,METAR EGSS 280120Z AUTO 01006KT 9999 OVC010 09/07 Q1024,0,6,0,10000,0,0,0,
2026-04-28 00:50:00,METAR EGSS 280050Z AUTO 02007KT 9999 OVC009 09/07 Q1024,0,7,0,10000,0,0,0,
2026-04-28 00:20:00,METAR EGSS 280020Z AUTO 36010KT 9999 OVC010 09/07 Q1024,0,10,0,10000,0,0,0,
2026-04-27 23:50:00,METAR EGSS 272350Z AUTO 36010KT 9999 OVC009 09/07 Q1024,0,10,0,10000,0,0,0,
2026-04-27 23:20:00,METAR EGSS 272320Z AUTO 36008KT 9999 OVC009 09/07 Q1024,0,8,0,10000,0,0,0,
2026-04-27 22:50:00,METAR EGSS 272250Z AUTO 01009KT 9999 OVC007 09/07 Q1024,0,9,0,10000,0,0,0,
2026-04-27 22:20:00,METAR EGSS 272220Z AUTO 36009KT 8000 OVC005 09/08 Q1024,0,9,0,8000,0,0,0,
2026-04-27 21:50:00,METAR EGSS 272150Z AUTO 35008KT 7000 BKN005 09/08 Q1024,0,8,0,7000,0,0,0,
2026-04-27 21:20:00,METAR EGSS 272120Z AUTO 34009KT 9999 NCD 10/08 Q1024,0,9,0,10000,0,0,0,
2026-04-27 20:50:00,METAR EGSS 272050Z AUTO 34007KT 320V020 9999 NCD 12/08 Q1024,0,7,0,10000,0,0,0,
2026-04-27 20:20:00,METAR EGSS 272020Z AUTO 02005KT 9999 NCD 12/08 Q1023,0,5,0,10000,0,0,0,
2026-04-27 19:50:00,METAR EGSS 271950Z 01005KT 9999 BKN055TCU 11/09 Q1023,0,5,0,10000,0,0,0,
2026-04-27 19:20:00,METAR EGSS 271920Z 05011KT 9999 VCSH FEW034 BKN053TCU 12/08 Q1023,0,11,0,10000,0,0,0,"SH,VC"
2026-04-27 18:50:00,METAR EGSS 271850Z AUTO 04013KT 9999 -RA SCT034/// //////CB 13/08 Q1023,0,13,0,10000,0,0,0,-RA
2026-04-27 18:20:00,METAR EGSS 271820Z 04013KT 9999 VCSH OVC060CB 15/09 Q1023,0,13,0,10000,0,0,0,"SH,VC"
2026-04-27 17:50:00,METAR EGSS 271750Z AUTO 01009KT 9999 //////TCU 17/07 Q1022,0,9,0,10000,0,0,0,
2026-04-27 17:20:00,METAR EGSS 271720Z AUTO 01007KT 9999 NCD 17/09 Q1022,0,7,0,10000,0,0,0,
2026-04-27 16:50:00,METAR EGSS 271650Z AUTO 03006KT 9999 NCD 18/09 Q1022,0,6,0,10000,0,0,0,
2026-04-27 16:20:00,METAR EGSS 271620Z AUTO 01008KT 9999 NCD 17/08 Q1022,0,8,0,10000,0,0,0,
2026-04-27 15:50:00,METAR EGSS 271550Z AUTO 34003KT 300V020 9999 NCD 18/04 Q1022,0,3,0,10000,0,0,0,
2026-04-27 15:20:00,METAR EGSS 271520Z AUTO VRB02KT 9999 NCD 19/04 Q1022,0,2,0,10000,0,0,0,
2026-04-27 14:50:00,METAR EGSS 271450Z AUTO 04005KT 320V110 9999 NCD 20/03 Q1022,0,5,0,10000,0,0,0,
2026-04-27 14:20:00,METAR EGSS 271420Z AUTO 02006KT 330V070 9999 NCD 20/03 Q1023,0,6,0,10000,0,0,0,
2026-04-27 13:50:00,METAR EGSS 271350Z AUTO 03008KT 270V080 9999 NCD 21/03 Q1023,0,8,0,10000,0,0,0,
2026-04-27 13:20:00,METAR EGSS 271320Z AUTO VRB03KT 9999 NCD 20/04 Q1023,0,3,0,10000,0,0,0,
2026-04-27 12:50:00,METAR EGSS 271250Z AUTO 04005KT 310V090 9999 NCD 20/04 Q1024,0,5,0,10000,0,0,0,
2026-04-27 12:20:00,METAR EGSS 271220Z AUTO VRB04KT 9999 NCD 19/05 Q1024,0,4,0,10000,0,0,0,
2026-04-27 11:50:00,METAR EGSS 271150Z AUTO 32004KT 250V050 9999 FEW049 19/06 Q1024,0,4,0,10000,0,0,0,
2026-04-27 11:20:00,METAR EGSS 271120Z AUTO 02005KT 290V080 9999 NCD 19/07 Q1024,0,5,0,10000,0,0,0,
2026-04-27 10:50:00,METAR EGSS 271050Z AUTO 08003KT 330V140 9999 NCD 18/07 Q1025,0,3,0,10000,0,0,0,
2026-04-27 10:20:00,METAR EGSS 271020Z AUTO VRB03KT 9999 NCD 17/07 Q1025,0,3,0,10000,0,0,0,
2026-04-27 09:50:00,METAR EGSS 270950Z AUTO 32003KT 240V010 9999 NCD 17/07 Q1025,0,3,0,10000,0,0,0,
2026-04-27 09:20:00,METAR EGSS 270920Z AUTO 14003KT 060V230 9999 NCD 16/06 Q1025,0,3,0,10000,0,0,0,
2026-04-27 08:50:00,METAR EGSS 270850Z VRB01KT CAVOK 15/07 Q1025,1,0,0,9999,0,0,0,
2026-04-27 08:20:00,METAR EGSS 270820Z AUTO VRB01KT 9999 NCD 14/07 Q1025,0,1,0,10000,0,0,0,
2026-04-27 07:50:00,METAR EGSS 270750Z AUTO VRB01KT 9999 NCD 12/08 Q1025,0,1,0,10000,0,0,0,
2026-04-27 07:20:00,METAR EGSS 270720Z AUTO VRB02KT 9999 NCD 12/07 Q1025,0,2,0,10000,0,0,0,
2026-04-27 06:50:00,METAR EGSS 270650Z AUTO VRB01KT 9999 NCD 10/07 Q1025,0,1,0,10000,0,0,0,
2026-04-27 06:20:00,METAR EGSS 270620Z AUTO 03002KT 9999 NCD 08/07 Q1025,0,2,0,10000,0,0,0,
2026-04-27 05:50:00,METAR EGSS 270550Z AUTO 36002KT 8000 NCD 06/06 Q1025,0,2,0,8000,0,0,0,
2026-04-27 05:20:00,METAR EGSS 270520Z AUTO 01003KT 5000 BR NCD 04/04 Q1025,0,3,0,5000,0,0,1,BR
2026-04-27 04:50:00,METAR EGSS 270450Z AUTO 33003KT 7000 NCD 04/03 Q1024,0,3,0,7000,0,0,0,
2026-04-27 04:20:00,METAR EGSS 270420Z AUTO 31003KT 290V360 8000 NCD 05/04 Q1024,0,3,0,8000,0,0,0,
2026-04-27 03:50:00,METAR EGSS 270350Z AUTO VRB01KT 9999 NCD 06/05 Q1025,0,1,0,10000,0,0,0,
2026-04-27 03:20:00,METAR EGSS 270320Z AUTO 25002KT 9999 NCD 07/06 Q1025,0,2,0,10000,0,0,0,
2026-04-27 02:50:00,METAR EGSS 270250Z AUTO VRB02KT 9999 NCD 08/06 Q1024,0,2,0,10000,0,0,0,
2026-04-27 02:20:00,METAR EGSS 270220Z AUTO 10004KT 9999 NCD 08/06 Q1025,0,4,0,10000,0,0,0,
2026-04-27 01:50:00,METAR EGSS 270150Z AUTO 09005KT 9999 NCD 08/06 Q1025,0,5,0,10000,0,0,0,
2026-04-27 01:20:00,METAR EGSS 270120Z AUTO 12006KT 9999 NCD 08/06 Q1025,0,6,0,10000,0,0,0,
2026-04-27 00:50:00,METAR EGSS 270050Z AUTO 12003KT 9999 NCD 08/06 Q1025,0,3,0,10000,0,0,0,
2026-04-27 00:20:00,METAR EGSS 270020Z AUTO 18003KT 9999 NCD 07/06 Q1025,0,3,0,10000,0,0,0,
2026-04-26 23:50:00,METAR EGSS 262350Z AUTO 15004KT 9999 NCD 08/06 Q1025,0,4,0,10000,0,0,0,
2026-04-26 23:20:00,METAR EGSS 262320Z AUTO 10004KT 9999 NCD 08/06 Q1025,0,4,0,10000,0,0,0,
2026-04-26 22:50:00,METAR EGSS 262250Z AUTO 15003KT 110V200 9999 NCD 08/06 Q1025,0,3,0,10000,0,0,0,
2026-04-26 22:20:00,METAR EGSS 262220Z AUTO 12005KT 9999 NCD 09/06 Q1025,0,5,0,10000,0,0,0,
2026-04-26 21:50:00,METAR EGSS 262150Z AUTO 11007KT 9999 NCD 09/06 Q1025,0,7,0,10000,0,0,0,
2026-04-26 21:20:00,METAR EGSS 262120Z AUTO 12007KT 9999 NCD 09/07 Q1025,0,7,0,10000,0,0,0,
2026-04-26 20:50:00,METAR EGSS 262050Z AUTO 12007KT 060V140 9999 NCD 09/07 Q1025,0,7,0,10000,0,0,0,
2026-04-26 20:20:00,METAR EGSS 262020Z AUTO VRB06G19KT 9999 NCD 10/07 Q1025,0,6,1,10000,0,0,0,
2026-04-26 19:50:00,METAR EGSS 261950Z AUTO 13007KT 9999 NCD 10/07 Q1025,0,7,0,10000,0,0,0,
2026-04-26 19:20:00,METAR EGSS 261920Z AUTO 12007KT 090V150 9999 NCD 11/07 Q1025,0,7,0,10000,0,0,0,
2026-04-26 18:50:00,METAR EGSS 261850Z AUTO 12007KT 9999 NCD 12/07 Q1024,0,7,0,10000,0,0,0,
2026-04-26 18:20:00,METAR EGSS 261820Z AUTO 12008KT 9999 NCD 13/07 Q1024,0,8,0,10000,0,0,0,
2026-04-26 17:50:00,METAR EGSS 261750Z AUTO 13008KT 9999 NCD 13/08 Q1024,0,8,0,10000,0,0,0,
2026-04-26 17:20:00,METAR EGSS 261720Z AUTO 13010KT 9999 NCD 14/08 Q1025,0,10,0,10000,0,0,0,
2026-04-26 16:50:00,METAR EGSS 261650Z AUTO 13008KT 9999 NCD 15/08 Q1025,0,8,0,10000,0,0,0,
2026-04-26 16:20:00,METAR EGSS 261620Z AUTO 13007KT 090V200 9999 NCD 16/08 Q1025,0,7,0,10000,0,0,0,
2026-04-26 15:50:00,METAR EGSS 261550Z AUTO 12007KT 9999 NCD 16/08 Q1025,0,7,0,10000,0,0,0,
2026-04-26 15:20:00,METAR EGSS 261520Z AUTO 11006KT 9999 NCD 16/08 Q1025,0,6,0,10000,0,0,0,
2026-04-26 14:50:00,METAR EGSS 261450Z 11006KT 070V180 CAVOK 17/07 Q1025,1,0,0,9999,0,0,0,
2026-04-26 14:20:00,METAR EGSS 261420Z AUTO 12005KT 060V160 9999 NCD 17/07 Q1025,0,5,0,10000,0,0,0,
2026-04-26 13:50:00,METAR EGSS 261350Z AUTO 10006KT 050V140 9999 NCD 16/07 Q1025,0,6,0,10000,0,0,0,
2026-04-26 13:20:00,METAR EGSS 261320Z AUTO 11006KT 070V140 9999 NCD 16/07 Q1025,0,6,0,10000,0,0,0,
2026-04-26 12:50:00,METAR EGSS 261250Z AUTO 13006KT 060V170 9999 NCD 16/07 Q1025,0,6,0,10000,0,0,0,
2026-04-26 12:20:00,METAR EGSS 261220Z AUTO VRB05KT 9999 NCD 15/07 Q1026,0,5,0,10000,0,0,0,
2026-04-26 11:50:00,METAR EGSS 261150Z AUTO 10007KT 060V180 9999 NCD 16/08 Q1026,0,7,0,10000,0,0,0,
2026-04-26 11:20:00,METAR EGSS 261120Z AUTO 12006KT 080V170 9999 NCD 15/07 Q1026,0,6,0,10000,0,0,0,
2026-04-26 10:50:00,METAR EGSS 261050Z AUTO 13007KT 020V170 9999 NCD 15/07 Q1026,0,7,0,10000,0,0,0,
2026-04-26 10:20:00,METAR EGSS 261020Z AUTO VRB07KT 9999 NCD 14/07 Q1026,0,7,0,10000,0,0,0,
2026-04-26 09:50:00,METAR EGSS 260950Z AUTO 12007G19KT 350V170 9999 NCD 14/07 Q1026,0,7,1,10000,0,0,0,
2026-04-26 09:20:00,METAR EGSS 260920Z AUTO 12008KT 090V150 9999 NCD 14/08 Q1026,0,8,0,10000,0,0,0,
2026-04-26 08:50:00,METAR EGSS 260850Z AUTO 12009KT 090V250 9999 FEW013 12/07 Q1026,0,9,0,10000,0,0,0,
2026-04-26 08:20:00,METAR EGSS 260820Z AUTO 11009KT 9999 BKN012 11/07 Q1026,0,9,0,10000,0,0,0,
2026-04-26 07:50:00,METAR EGSS 260750Z AUTO 12009KT 100V170 9999 BKN010 10/07 Q1026,0,9,0,10000,0,0,0,
2026-04-26 07:20:00,METAR EGSS 260720Z AUTO VRB10KT 9999 BKN009 10/07 Q1026,0,10,0,10000,0,0,0,
2026-04-26 06:50:00,METAR EGSS 260650Z AUTO 11008KT 9999 FEW008 09/07 Q1026,0,8,0,10000,0,0,0,
2026-04-26 06:20:00,METAR EGSS 260620Z AUTO 09006KT 9000 SCT006 08/07 Q1026,0,6,0,9000,0,0,0,
2026-04-26 05:50:00,METAR EGSS 260550Z AUTO 06006KT 010V090 6000 OVC004 07/07 Q1025,0,6,0,6000,0,0,0,
2026-04-26 05:20:00,METAR EGSS 260520Z AUTO 06004KT 4200 BR BKN002 OVC005 07/07 Q1025,0,4,0,4200,0,0,1,BR
2026-04-26 04:50:00,METAR EGSS 260450Z AUTO 10005KT 2900 BR OVC002 06/06 Q1025,0,5,0,2900,0,0,1,BR
2026-04-26 04:20:00,METAR EGSS 260420Z AUTO 09008KT 2400 BR OVC001 06/06 Q1025,0,8,0,2400,0,0,1,BR
2026-04-26 03:50:00,METAR EGSS 260350Z AUTO 08008KT 0900 FG OVC001 06/06 Q1025,0,8,0,1448100,0,0,1,FG
2026-04-26 03:20:00,METAR EGSS 260320Z AUTO 06005KT 2800 BR OVC002 06/05 Q1025,0,5,0,2800,0,0,1,BR
2026-04-26 02:50:00,METAR EGSS 260250Z AUTO 07005KT 3700 BR SCT003 05/05 Q1024,0,5,0,3700,0,0,1,BR
2026-04-26 02:20:00,METAR EGSS 260220Z AUTO 06005KT 4000 HZ SCT003 04/04 Q1024,0,5,0,4000,0,0,0,
2026-04-26 01:50:00,METAR EGSS 260150Z AUTO 07005KT 6000 FEW004 05/04 Q1024,0,5,0,6000,0,0,0,
2026-04-26 01:20:00,METAR EGSS 260120Z AUTO 08005KT 9999 NCD 06/04 Q1024,0,5,0,10000,0,0,0,
2026-04-26 00:50:00,METAR EGSS 260050Z AUTO 06004KT 9999 NCD 05/03 Q1024,0,4,0,10000,0,0,0,
2026-04-26 00:20:00,METAR EGSS 260020Z AUTO 07006KT 9999 NCD 07/02 Q1024,0,6,0,10000,0,0,0,
2026-04-25 23:50:00,METAR EGSS 252350Z 09006KT CAVOK 08/03 Q1024,1,0,0,9999,0,0,0,
2026-04-25 23:20:00,METAR EGSS 252320Z AUTO 11005KT 9999 NCD 08/03 Q1024,0,5,0,10000,0,0,0,
2026-04-25 22:50:00,METAR EGSS 252250Z AUTO 08005KT 9999 NCD 09/02 Q1023,0,5,0,10000,0,0,0,
2026-04-25 22:20:00,METAR EGSS 252220Z AUTO 08006KT 9999 NCD 09/02 Q1023,0,6,0,10000,0,0,0,
2026-04-25 21:50:00,METAR EGSS 252150Z AUTO 07006KT 9999 NCD 08/02 Q1023,0,6,0,10000,0,0,0,
2026-04-25 21:20:00,METAR EGSS 252120Z AUTO 06008KT 9999 NCD 10/03 Q1023,0,8,0,10000,0,0,0,
2026-04-25 20:50:00,METAR EGSS 252050Z AUTO 06007KT 9999 NCD 10/03 Q1023,0,7,0,10000,0,0,0,
2026-04-25 20:20:00,METAR EGSS 252020Z AUTO 06008KT 9999 NCD 12/04 Q1022,0,8,0,10000,0,0,0,
2026-04-25 19:50:00,METAR EGSS 251950Z AUTO VRB07KT 9999 NCD 14/00 Q1022,0,7,0,10000,0,0,0,
2026-04-25 19:20:00,METAR EGSS 251920Z AUTO 16005KT 9999 NCD 15/M00 Q1021,0,5,0,10000,0,0,0,
2026-04-25 18:50:00,METAR EGSS 251850Z AUTO 03002KT 9999 NCD 17/M01 Q1021,0,2,0,10000,0,0,0,
2026-04-25 18:20:00,METAR EGSS 251820Z AUTO 03003KT 9999 NCD 18/01 Q1021,0,3,0,10000,0,0,0,
2026-04-25 17:50:00,METAR EGSS 251750Z AUTO 03003KT 320V060 9999 NCD 19/01 Q1021,0,3,0,10000,0,0,0,
2026-04-25 17:20:00,METAR EGSS 251720Z AUTO 10004KT 070V130 9999 NCD 19/M01 Q1021,0,4,0,10000,0,0,0,
2026-04-25 16:50:00,METAR EGSS 251650Z AUTO VRB04KT 9999 NCD 20/M00 Q1021,0,4,0,10000,0,0,0,
2026-04-25 16:20:00,METAR EGSS 251620Z AUTO 20004KT 160V230 9999 NCD 20/M02 Q1021,0,4,0,10000,0,0,0,
2026-04-25 15:50:00,METAR EGSS 251550Z AUTO VRB02KT 9999 NCD 20/M04 Q1021,0,2,0,10000,0,0,0,
2026-04-25 15:20:00,METAR EGSS 251520Z AUTO VRB03KT 9999 NCD 20/M03 Q1021,0,3,0,10000,0,0,0,
2026-04-25 14:50:00,METAR EGSS 251450Z AUTO 31003KT 210V030 9999 NCD 20/M04 Q1021,0,3,0,10000,0,0,0,
2026-04-25 14:20:00,METAR EGSS 251420Z AUTO 20005KT 140V250 9999 NCD 20/M03 Q1021,0,5,0,10000,0,0,0,
2026-04-25 13:50:00,METAR EGSS 251350Z AUTO VRB01KT 9999 NCD 19/M03 Q1021,0,1,0,10000,0,0,0,
2026-04-25 13:20:00,METAR EGSS 251320Z AUTO 33003KT 290V070 9999 NCD 19/M04 Q1021,0,3,0,10000,0,0,0,
2026-04-25 12:50:00,METAR EGSS 251250Z AUTO VRB03KT 9999 NCD 19/M03 Q1021,0,3,0,10000,0,0,0,
2026-04-25 12:20:00,METAR EGSS 251220Z AUTO 15004KT 060V230 9999 NCD 18/M02 Q1021,0,4,0,10000,0,0,0,
2026-04-25 11:50:00,METAR EGSS 251150Z AUTO 14004KT 050V220 9999 NCD 17/M00 Q1022,0,4,0,10000,0,0,0,
2026-04-25 11:20:00,METAR EGSS 251120Z AUTO 18003KT 120V290 9999 NCD 16/M01 Q1022,0,3,0,10000,0,0,0,
2026-04-25 10:50:00,METAR EGSS 251050Z AUTO 16004KT 110V200 9999 NCD 16/01 Q1022,0,4,0,10000,0,0,0,
2026-04-25 10:20:00,METAR EGSS 251020Z AUTO VRB02KT 9999 NCD 14/M01 Q1022,0,2,0,10000,0,0,0,
2026-04-25 09:50:00,METAR EGSS 250950Z AUTO VRB02KT 9999 NCD 13/02 Q1022,0,2,0,10000,0,0,0,
2026-04-25 09:20:00,METAR EGSS 250920Z AUTO 15003KT 050V220 9999 NCD 11/04 Q1022,0,3,0,10000,0,0,0,
2026-04-25 08:50:00,METAR EGSS 250850Z AUTO 19004KT 160V220 9999 NCD 09/06 Q1022,0,4,0,10000,0,0,0,
2026-04-25 08:20:00,METAR EGSS 250820Z AUTO 18003KT 130V220 9999 NCD 07/06 Q1022,0,3,0,10000,0,0,0,
2026-04-25 07:50:00,METAR EGSS 250750Z 19003KT 130V230 9999 SCT001 05/05 Q1022,0,3,0,10000,0,0,0,
2026-04-25 07:20:00,METAR EGSS 250720Z AUTO 17003KT 140V210 1100 R22/P1500N BR VV/// 04/04 Q1022,0,3,0,1100,0,0,1,BR
2026-04-25 06:50:00,METAR EGSS 250650Z AUTO VRB02KT 0300 R22/P1500U BCFG VV/// 03/03 Q1022,0,2,0,482700,0,0,1,"BC,FG"
2026-04-25 06:20:00,METAR EGSS 250620Z AUTO 23003KT 0150 R22/0250N FG VV/// 01/01 Q1022,0,3,0,241350,0,0,1,FG
2026-04-25 05:50:00,METAR EGSS 250550Z VRB01KT 0150 R22/0275N FZFG VV/// M00/M00 Q1022,0,1,0,241350,0,0,1,FG
2026-04-25 05:20:00,METAR EGSS 250520Z 31002KT 0100 R22/0175N FZFG VV/// M00/M00 Q1022,0,2,0,160900,0,0,1,FG
2026-04-25 04:50:00,METAR EGSS 250450Z 22003KT 0100 R22/0200N FZFG VV/// M01/M01 Q1021,0,3,0,160900,0,0,1,FG
2026-04-25 04:20:00,METAR EGSS 250420Z AUTO 15001KT 0050 R22/0275D FZFG VV/// M01/M01 Q1021,0,1,0,80450,0,0,1,FG
2026-04-25 03:50:00,METAR EGSS 250350Z VRB02KT 0200 R04/1400D FZFG VV/// M01/M01 Q1021,0,2,0,321800,0,0,1,FG
2026-04-25 03:20:00,METAR EGSS 250320Z 01001KT 0450 R04/1400U BCFG VV/// M00/M01 Q1022,0,1,0,724050,0,0,1,"BC,FG"
2026-04-25 02:50:00,METAR EGSS 250250Z AUTO 34001KT 0200 R04/P1500N FZFG VV/// M01/M01 Q1022,0,1,0,321800,0,0,1,FG
2026-04-25 02:20:00,METAR EGSS 250220Z 34002KT 6000 BCFG SCT001 00/M00 Q1022,0,2,0,6000,0,0,1,"BC,FG"
2026-04-25 01:50:00,METAR EGSS 250150Z AUTO 34001KT 4100 BR FEW002 01/M00 Q1022,0,1,0,4100,0,0,1,BR
2026-04-25 01:20:00,METAR EGSS 250120Z AUTO 36001KT 4900 HZ NCD 01/00 Q1022,0,1,0,4900,0,0,0,
2026-04-25 00:50:00,METAR EGSS 250050Z AUTO VRB02KT 4000 HZ NCD 02/01 Q1022,0,2,0,4000,0,0,0,
2026-04-25 00:20:00,METAR EGSS 250020Z AUTO VRB02KT 7000 NCD 04/03 Q1023,0,2,0,7000,0,0,0,
2026-04-24 23:50:00,METAR EGSS 242350Z AUTO 14004KT 9999 NCD 06/04 Q1023,0,4,0,10000,0,0,0,
2026-04-24 23:20:00,METAR EGSS 242320Z AUTO 14003KT 9999 NCD 06/04 Q1023,0,3,0,10000,0,0,0,
2026-04-24 22:50:00,METAR EGSS 242250Z AUTO 14005KT 9999 NCD 06/04 Q1023,0,5,0,10000,0,0,0,
2026-04-24 22:20:00,METAR EGSS 242220Z AUTO 13005KT 9999 NCD 07/04 Q1023,0,5,0,10000,0,0,0,
2026-04-24 21:50:00,METAR EGSS 242150Z AUTO 13005KT 9999 NCD 07/04 Q1024,0,5,0,10000,0,0,0,
2026-04-24 21:20:00,METAR EGSS 242120Z AUTO VRB05G15KT 9999 NCD 08/05 Q1024,0,5,1,10000,0,0,0,
2026-04-24 20:50:00,METAR EGSS 242050Z AUTO 13006KT 100V210 9999 NCD 08/05 Q1024,0,6,0,10000,0,0,0,
2026-04-24 20:20:00,METAR EGSS 242020Z AUTO 13007KT 080V150 9999 NCD 09/05 Q1024,0,7,0,10000,0,0,0,
2026-04-24 19:50:00,METAR EGSS 241950Z AUTO 13007KT 9999 NCD 10/04 Q1024,0,7,0,10000,0,0,0,
2026-04-24 19:20:00,METAR EGSS 241920Z AUTO 13006KT 110V180 9999 NCD 11/04 Q1023,0,6,0,10000,0,0,0,
2026-04-24 18:50:00,METAR EGSS 241850Z AUTO 14008KT 9999 NCD 12/03 Q1023,0,8,0,10000,0,0,0,
2026-04-24 18:20:00,METAR EGSS 241820Z AUTO 13009KT 9999 NCD 13/02 Q1023,0,9,0,10000,0,0,0,
2026-04-24 17:50:00,METAR EGSS 241750Z AUTO 13010KT 9999 NCD 14/01 Q1023,0,10,0,10000,0,0,0,
2026-04-24 17:20:00,METAR EGSS 241720Z AUTO 12010KT 9999 NCD 15/01 Q1023,0,10,0,10000,0,0,0,
2026-04-24 16:50:00,METAR EGSS 241650Z AUTO 12010KT 060V200 9999 NCD 17/04 Q1023,0,10,0,10000,0,0,0,
2026-04-24 16:20:00,METAR EGSS 241620Z AUTO 14010KT 9999 NCD 17/03 Q1023,0,10,0,10000,0,0,0,
2026-04-24 15:50:00,METAR EGSS 241550Z AUTO 09008KT 060V120 9999 NCD 19/02 Q1024,0,8,0,10000,0,0,0,
2026-04-24 15:20:00,METAR EGSS 241520Z AUTO 07008KT 040V110 9999 NCD 19/01 Q1024,0,8,0,10000,0,0,0,
2026-04-24 14:50:00,METAR EGSS 241450Z AUTO 07009KT 9999 NCD 19/01 Q1024,0,9,0,10000,0,0,0,
2026-04-24 14:20:00,METAR EGSS 241420Z AUTO 06007KT 030V120 9999 NCD 19/01 Q1025,0,7,0,10000,0,0,0,
2026-04-24 13:50:00,METAR EGSS 241350Z AUTO 06006KT 360V140 9999 NCD 18/02 Q1025,0,6,0,10000,0,0,0,
2026-04-24 13:20:00,METAR EGSS 241320Z AUTO 07005KT 340V120 9999 NCD 17/00 Q1025,0,5,0,10000,0,0,0,
2026-04-24 12:50:00,METAR EGSS 241250Z AUTO 05006KT 010V100 9999 NCD 17/01 Q1026,0,6,0,10000,0,0,0,
2026-04-24 12:20:00,METAR EGSS 241220Z AUTO 06007KT 360V110 9999 NCD 17/01 Q1026,0,7,0,10000,0,0,0,
2026-04-24 11:50:00,METAR EGSS 241150Z AUTO 07007KT 360V100 9999 NCD 16/01 Q1026,0,7,0,10000,0,0,0,
2026-04-24 11:20:00,METAR EGSS 241120Z AUTO 08006KT 020V120 9999 NCD 15/01 Q1027,0,6,0,10000,0,0,0,
2026-04-24 10:50:00,METAR EGSS 241050Z AUTO 08007KT 050V110 9999 NCD 14/01 Q1027,0,7,0,10000,0,0,0,
2026-04-24 10:20:00,METAR EGSS 241020Z AUTO 06006KT 030V130 9999 NCD 14/02 Q1027,0,6,0,10000,0,0,0,
2026-04-24 09:50:00,METAR EGSS 240950Z AUTO 07006KT 020V100 9999 NCD 12/02 Q1027,0,6,0,10000,0,0,0,
2026-04-24 09:20:00,METAR EGSS 240920Z AUTO 03006KT 360V090 9999 NCD 11/03 Q1027,0,6,0,10000,0,0,0,
2026-04-24 08:50:00,METAR EGSS 240850Z AUTO 02005KT 330V060 9999 NCD 09/04 Q1027,0,5,0,10000,0,0,0,
2026-04-24 08:20:00,METAR EGSS 240820Z AUTO 02004KT 350V060 9999 NCD 06/05 Q1027,0,4,0,10000,0,0,0,
2026-04-24 07:50:00,METAR EGSS 240750Z AUTO 32004KT 270V060 8000 SCT003 04/04 Q1027,0,4,0,8000,0,0,0,
2026-04-24 07:20:00,METAR EGSS 240720Z AUTO 36003KT 320V050 7000 BKN002 03/03 Q1027,0,3,0,7000,0,0,0,
2026-04-24 06:50:00,METAR EGSS 240650Z AUTO 01004KT 3700 BR BKN001 02/02 Q1027,0,4,0,3700,0,0,1,BR
2026-04-24 06:20:00,METAR EGSS 240620Z AUTO 04005KT 1100 R04/1000U BR VV/// 02/02 Q1027,0,5,0,1100,0,0,1,BR
2026-04-24 05:50:00,METAR EGSS 240550Z AUTO 03006KT 0450 R04/0750N FG VV/// 01/01 Q1027,0,6,0,724050,0,0,1,FG
2026-04-24 05:20:00,METAR EGSS 240520Z AUTO 03006KT 0450 R04/0600N FG VV/// 01/01 Q1027,0,6,0,724050,0,0,1,FG
2026-04-24 04:50:00,METAR EGSS 240450Z AUTO 02006KT 0350 R04/1000D FG VV/// 01/01 Q1027,0,6,0,563150,0,0,1,FG
2026-04-24 04:20:00,METAR EGSS 240420Z AUTO 02005KT 0450 R04/1100N FG VV/// 01/01 Q1027,0,5,0,724050,0,0,1,FG
2026-04-24 03:50:00,METAR EGSS 240350Z AUTO 03005KT 0350 R04/1200D FG VV/// 02/02 Q1027,0,5,0,563150,0,0,1,FG
2026-04-24 03:20:00,METAR EGSS 240320Z AUTO 03006KT 0300 R04/0750U FG VV/// 02/02 Q1027,0,6,0,482700,0,0,1,FG
2026-04-24 02:50:00,METAR EGSS 240250Z AUTO 03005KT 0250 R04/0550N FG VV/// 02/02 Q1028,0,5,0,402250,0,0,1,FG
2026-04-24 02:20:00,METAR EGSS 240220Z AUTO 03004KT 0200 R04/0400N FG VV/// 03/02 Q1028,0,4,0,321800,0,0,1,FG
2026-04-24 01:50:00,METAR EGSS 240150Z AUTO 04003KT 0150 R04/0375N FG VV/// 02/02 Q1028,0,3,0,241350,0,0,1,FG
2026-04-24 01:20:00,METAR EGSS 240120Z AUTO 06005KT 0300 R04/P1500 FG SCT001 01/01 Q1028,0,5,0,482700,0,0,1,FG
2026-04-24 00:50:00,METAR EGSS 240050Z AUTO 05004KT 2700 BR NCD 02/02 Q1028,0,4,0,2700,0,0,1,BR
2026-04-24 00:20:00,METAR EGSS 240020Z AUTO 06006KT 6000 NCD 03/03 Q1028,0,6,0,6000,0,0,0,
2026-04-23 23:50:00,METAR EGSS 232350Z AUTO 05007KT 9999 NCD 03/02 Q1028,0,7,0,10000,0,0,0,
2026-04-23 23:20:00,METAR EGSS 232320Z AUTO 05007KT 9999 NCD 04/03 Q1029,0,7,0,10000,0,0,0,
2026-04-23 22:50:00,METAR EGSS 232250Z AUTO 05007KT 9999 NCD 04/03 Q1029,0,7,0,10000,0,0,0,
2026-04-23 22:20:00,METAR EGSS 232220Z AUTO 04006KT 9999 NCD 05/03 Q1029,0,6,0,10000,0,0,0,
2026-04-23 21:50:00,METAR EGSS 232150Z AUTO 04007KT 9999 NCD 05/03 Q1029,0,7,0,10000,0,0,0,
2026-04-23 21:20:00,METAR EGSS 232120Z AUTO 04007KT 9999 NCD 06/03 Q1029,0,7,0,10000,0,0,0,
2026-04-23 20:50:00,METAR EGSS 232050Z AUTO 05007KT 020V090 9999 NCD 06/03 Q1029,0,7,0,10000,0,0,0,
2026-04-23 20:20:00,METAR EGSS 232020Z AUTO 07008KT 9999 NCD 09/04 Q1029,0,8,0,10000,0,0,0,
2026-04-23 19:50:00,METAR EGSS 231950Z AUTO 08007KT 9999 NCD 10/04 Q1029,0,7,0,10000,0,0,0,
2026-04-23 19:20:00,METAR EGSS 231920Z AUTO 06007KT 9999 NCD 11/04 Q1028,0,7,0,10000,0,0,0,
2026-04-23 18:50:00,METAR EGSS 231850Z AUTO 06008KT 9999 NCD 13/04 Q1028,0,8,0,10000,0,0,0,
2026-04-23 18:20:00,METAR EGSS 231820Z AUTO 07010KT 030V090 9999 NCD 14/04 Q1028,0,10,0,10000,0,0,0,
2026-04-23 17:50:00,METAR EGSS 231750Z AUTO 07011KT 9999 NCD 15/03 Q1028,0,11,0,10000,0,0,0,
2026-04-23 17:20:00,METAR EGSS 231720Z AUTO 06010KT 9999 NCD 16/03 Q1028,0,10,0,10000,0,0,0,
2026-04-23 16:50:00,METAR EGSS 231650Z AUTO 07010KT 9999 NCD 17/02 Q1029,0,10,0,10000,0,0,0,
2026-04-23 16:20:00,METAR EGSS 231620Z AUTO 05010KT 030V100 9999 NCD 17/02 Q1029,0,10,0,10000,0,0,0,
2026-04-23 15:50:00,METAR EGSS 231550Z AUTO 07011KT 9999 NCD 18/02 Q1029,0,11,0,10000,0,0,0,
2026-04-23 15:20:00,METAR EGSS 231520Z AUTO 06010KT 9999 NCD 18/03 Q1029,0,10,0,10000,0,0,0,
2026-04-23 14:50:00,METAR EGSS 231450Z 07010KT 030V100 CAVOK 18/03 Q1029,1,0,0,9999,0,0,0,
2026-04-23 14:20:00,METAR EGSS 231420Z AUTO 08009KT 040V100 9999 NCD 18/04 Q1030,0,9,0,10000,0,0,0,
2026-04-23 13:50:00,METAR EGSS 231350Z AUTO 06009KT 030V110 9999 NCD 18/05 Q1030,0,9,0,10000,0,0,0,
2026-04-23 13:20:00,METAR EGSS 231320Z AUTO 09010KT 050V120 9999 NCD 17/04 Q1030,0,10,0,10000,0,0,0,
2026-04-23 12:50:00,METAR EGSS 231250Z AUTO 07009KT 040V110 9999 NCD 17/05 Q1031,0,9,0,10000,0,0,0,
2026-04-23 12:20:00,METAR EGSS 231220Z AUTO 07010KT 020V110 9999 NCD 16/06 Q1031,0,10,0,10000,0,0,0,
2026-04-23 11:50:00,METAR EGSS 231150Z AUTO 07009KT 030V110 9999 NCD 16/06 Q1031,0,9,0,10000,0,0,0,
2026-04-23 11:20:00,METAR EGSS 231120Z AUTO 07009KT 020V090 9999 NCD 15/06 Q1031,0,9,0,10000,0,0,0,
2026-04-23 10:50:00,METAR EGSS 231050Z AUTO 07009KT 9999 NCD 15/07 Q1031,0,9,0,10000,0,0,0,
2026-04-23 10:20:00,METAR EGSS 231020Z AUTO 06008KT 030V100 9999 NCD 14/06 Q1032,0,8,0,10000,0,0,0,
2026-04-23 09:50:00,METAR EGSS 230950Z AUTO 06007KT 020V100 9999 NCD 13/06 Q1032,0,7,0,10000,0,0,0,
2026-04-23 09:20:00,METAR EGSS 230920Z AUTO 07010KT 030V100 9999 NCD 12/07 Q1031,0,10,0,10000,0,0,0,
2026-04-23 08:50:00,METAR EGSS 230850Z AUTO 07010KT 9999 NCD 11/06 Q1031,0,10,0,10000,0,0,0,
2026-04-23 08:20:00,METAR EGSS 230820Z AUTO 06011KT 9999 NCD 10/06 Q1031,0,11,0,10000,0,0,0,
2026-04-23 07:50:00,METAR EGSS 230750Z AUTO 05010KT 9999 NCD 09/06 Q1031,0,10,0,10000,0,0,0,
2026-04-23 07:20:00,METAR EGSS 230720Z AUTO 06010KT 9000 FEW007 08/06 Q1031,0,10,0,9000,0,0,0,
2026-04-23 06:50:00,METAR EGSS 230650Z AUTO 05008KT 7000 BKN004 07/06 Q1031,0,8,0,7000,0,0,0,
2026-04-23 06:20:00,METAR EGSS 230620Z AUTO 05008KT 6000 BKN003 06/06 Q1031,0,8,0,6000,0,0,0,
2026-04-23 05:50:00,METAR EGSS 230550Z AUTO 05009KT 4600 BR OVC002 05/05 Q1031,0,9,0,4600,0,0,1,BR
2026-04-23 05:20:00,METAR EGSS 230520Z AUTO 06010KT 3300 BR BKN002 05/05 Q1030,0,10,0,3300,0,0,1,BR
2026-04-23 04:50:00,METAR EGSS 230450Z AUTO 06010KT 4200 BR BKN003 05/05 Q1030,0,10,0,4200,0,0,1,BR
2026-04-23 04:20:00,METAR EGSS 230420Z AUTO 05010KT 4400 BR BKN003 05/04 Q1030,0,10,0,4400,0,0,1,BR
2026-04-23 03:50:00,METAR EGSS 230350Z AUTO 05009KT 5000 BR NCD 05/04 Q1030,0,9,0,5000,0,0,1,BR
2026-04-23 03:20:00,METAR EGSS 230320Z AUTO 05008KT 5000 BR NCD 05/04 Q1030,0,8,0,5000,0,0,1,BR
2026-04-23 02:50:00,METAR EGSS 230250Z AUTO 05009KT 5000 BR NCD 05/04 Q1029,0,9,0,5000,0,0,1,BR
2026-04-23 02:20:00,METAR EGSS 230220Z AUTO 05009KT 6000 NCD 05/04 Q1029,0,9,0,6000,0,0,0,
2026-04-23 01:50:00,METAR EGSS 230150Z AUTO 05008KT 7000 NCD 05/04 Q1029,0,8,0,7000,0,0,0,
2026-04-23 01:20:00,METAR EGSS 230120Z AUTO 05008KT 8000 NCD 05/04 Q1029,0,8,0,8000,0,0,0,
2026-04-23 00:50:00,METAR EGSS 230050Z AUTO 06011KT 9999 NCD 06/05 Q1029,0,11,0,10000,0,0,0,
2026-04-23 00:20:00,METAR EGSS 230020Z AUTO 06012KT 9999 NCD 06/05 Q1029,0,12,0,10000,0,0,0,
2026-04-22 23:50:00,METAR EGSS 222350Z AUTO 06010KT 9999 NCD 06/04 Q1029,0,10,0,10000,0,0,0,
2026-04-22 23:20:00,METAR EGSS 222320Z AUTO 05009KT 9999 NCD 06/04 Q1029,0,9,0,10000,0,0,0,
2026-04-22 22:50:00,METAR EGSS 222250Z AUTO 05010KT 9999 NCD 06/04 Q1029,0,10,0,10000,0,0,0,
2026-04-22 22:20:00,METAR EGSS 222220Z AUTO 05011KT 9999 NCD 06/04 Q1028,0,11,0,10000,0,0,0,
2026-04-22 21:50:00,METAR EGSS 222150Z AUTO 05011KT 9999 NCD 06/04 Q1028,0,11,0,10000,0,0,0,
2026-04-22 21:20:00,METAR EGSS 222120Z AUTO 05010KT 9999 NCD 07/04 Q1028,0,10,0,10000,0,0,0,
2026-04-22 20:50:00,METAR EGSS 222050Z AUTO 05010KT 9999 NCD 07/03 Q1028,0,10,0,10000,0,0,0,
2026-04-22 20:20:00,METAR EGSS 222020Z AUTO 05010KT 9999 NCD 08/02 Q1028,0,10,0,10000,0,0,0,
2026-04-22 19:50:00,METAR EGSS 221950Z AUTO 05008KT 9999 NCD 08/01 Q1028,0,8,0,10000,0,0,0,
2026-04-22 19:20:00,METAR EGSS 221920Z AUTO 05009KT 9999 NCD 09/01 Q1027,0,9,0,10000,0,0,0,
2026-04-22 18:50:00,METAR EGSS 221850Z AUTO 06009KT 9999 NCD 10/01 Q1027,0,9,0,10000,0,0,0,
2026-04-22 18:20:00,METAR EGSS 221820Z AUTO 06010KT 9999 NCD 12/01 Q1027,0,10,0,10000,0,0,0,
2026-04-22 17:50:00,METAR EGSS 221750Z AUTO 08012KT 9999 NCD 13/01 Q1027,0,12,0,10000,0,0,0,
2026-04-22 17:20:00,METAR EGSS 221720Z AUTO 07012KT 9999 NCD 14/01 Q1027,0,12,0,10000,0,0,0,
2026-04-22 16:50:00,METAR EGSS 221650Z AUTO 09014KT 9999 NCD 14/M00 Q1027,0,14,0,10000,0,0,0,
2026-04-22 16:20:00,METAR EGSS 221620Z AUTO 08014KT 9999 NCD 15/00 Q1027,0,14,0,10000,0,0,0,
2026-04-22 15:50:00,METAR EGSS 221550Z AUTO 09014KT 9999 NCD 15/00 Q1027,0,14,0,10000,0,0,0,
2026-04-22 15:20:00,METAR EGSS 221520Z AUTO 09015KT 9999 NCD 16/00 Q1027,0,15,0,10000,0,0,0,
2026-04-22 14:50:00,METAR EGSS 221450Z 09016KT CAVOK 16/01 Q1026,1,0,0,9999,0,0,0,
2026-04-22 14:20:00,METAR EGSS 221420Z AUTO 08015KT 9999 NCD 16/01 Q1027,0,15,0,10000,0,0,0,
2026-04-22 13:50:00,METAR EGSS 221350Z AUTO 08015KT 9999 NCD 16/M00 Q1026,0,15,0,10000,0,0,0,
2026-04-22 13:20:00,METAR EGSS 221320Z AUTO 09016KT 9999 NCD 16/01 Q1026,0,16,0,10000,0,0,0,
2026-04-22 12:50:00,METAR EGSS 221250Z AUTO 10015KT 9999 NCD 16/01 Q1026,0,15,0,10000,0,0,0,
2026-04-22 12:20:00,METAR EGSS 221220Z AUTO 08017KT 9999 NCD 16/01 Q1026,0,17,0,10000,0,0,0,
2026-04-22 11:50:00,METAR EGSS 221150Z AUTO 09016KT 060V120 9999 NCD 16/02 Q1026,0,16,0,10000,0,0,0,
2026-04-22 11:20:00,METAR EGSS 221120Z AUTO 10016KT 9999 NCD 15/02 Q1026,0,16,0,10000,0,0,0,
2026-04-22 10:50:00,METAR EGSS 221050Z AUTO 09014KT 9999 NCD 15/02 Q1027,0,14,0,10000,0,0,0,
2026-04-22 10:20:00,METAR EGSS 221020Z AUTO 08017KT 9999 NCD 15/02 Q1027,0,17,0,10000,0,0,0,
2026-04-22 09:50:00,METAR EGSS 220950Z AUTO 08015KT 9999 NCD 14/03 Q1027,0,15,0,10000,0,0,0,
2026-04-22 09:20:00,METAR EGSS 220920Z AUTO 08015KT 9999 NCD 14/05 Q1027,0,15,0,10000,0,0,0,
2026-04-22 08:50:00,METAR EGSS 220850Z AUTO 08014KT 9999 NCD 13/04 Q1027,0,14,0,10000,0,0,0,
2026-04-22 08:20:00,METAR EGSS 220820Z AUTO 07013KT 9999 NCD 12/05 Q1027,0,13,0,10000,0,0,0,
2026-04-22 07:50:00,METAR EGSS 220750Z AUTO 07012KT 9999 NCD 10/06 Q1027,0,12,0,10000,0,0,0,
2026-04-22 07:20:00,METAR EGSS 220720Z AUTO 06012KT 9999 NCD 09/06 Q1026,0,12,0,10000,0,0,0,
2026-04-22 06:50:00,METAR EGSS 220650Z AUTO 06012KT 9999 NCD 08/06 Q1026,0,12,0,10000,0,0,0,
2026-04-22 06:20:00,METAR EGSS 220620Z AUTO 06010KT 9999 NCD 07/05 Q1026,0,10,0,10000,0,0,0,
2026-04-22 05:50:00,METAR EGSS 220550Z AUTO 06010KT 9999 NCD 06/05 Q1026,0,10,0,10000,0,0,0,
2026-04-22 05:20:00,METAR EGSS 220520Z AUTO 05011KT 9000 NCD 05/04 Q1026,0,11,0,9000,0,0,0,
2026-04-22 04:50:00,METAR EGSS 220450Z AUTO 05010KT 9000 NCD 05/04 Q1026,0,10,0,9000,0,0,0,
2026-04-22 04:20:00,METAR EGSS 220420Z AUTO 05009KT 9000 NCD 04/04 Q1026,0,9,0,9000,0,0,0,
2026-04-22 03:50:00,METAR EGSS 220350Z AUTO 05009KT 9000 NCD 04/04 Q1026,0,9,0,9000,0,0,0,
2026-04-22 03:20:00,METAR EGSS 220320Z AUTO 05008KT 9000 NCD 04/04 Q1026,0,8,0,9000,0,0,0,
2026-04-22 02:50:00,METAR EGSS 220250Z AUTO 05009KT 9999 NCD 05/04 Q1026,0,9,0,10000,0,0,0,
2026-04-22 02:20:00,METAR EGSS 220220Z AUTO 05009KT 9999 NCD 05/04 Q1025,0,9,0,10000,0,0,0,
2026-04-22 01:50:00,METAR EGSS 220150Z AUTO 05009KT 9999 NCD 05/04 Q1025,0,9,0,10000,0,0,0,
2026-04-22 01:20:00,METAR EGSS 220120Z AUTO 05010KT 9999 NCD 05/04 Q1025,0,10,0,10000,0,0,0,
2026-04-22 00:50:00,METAR EGSS 220050Z AUTO 05010KT 9999 NCD 05/04 Q1026,0,10,0,10000,0,0,0,
2026-04-22 00:20:00,METAR EGSS 220020Z AUTO 05008KT 9999 NCD 04/03 Q1026,0,8,0,10000,0,0,0,
2026-04-21 23:50:00,METAR EGSS 212350Z AUTO 04008KT 9999 NCD 05/03 Q1026,0,8,0,10000,0,0,0,
2026-04-21 23:20:00,METAR EGSS 212320Z AUTO 05010KT 9999 NCD 05/03 Q1026,0,10,0,10000,0,0,0,
2026-04-21 22:50:00,METAR EGSS 212250Z AUTO 05009KT 9999 NCD 05/03 Q1026,0,9,0,10000,0,0,0,
2026-04-21 22:20:00,METAR EGSS 212220Z AUTO 04008KT 9999 NCD 04/02 Q1026,0,8,0,10000,0,0,0,
2026-04-21 21:50:00,METAR EGSS 212150Z AUTO 05009KT 9999 NCD 05/02 Q1026,0,9,0,10000,0,0,0,
2026-04-21 21:20:00,METAR EGSS 212120Z AUTO 05010KT 9999 NCD 06/02 Q1026,0,10,0,10000,0,0,0,
2026-04-21 20:50:00,METAR EGSS 212050Z AUTO 04009KT 9999 NCD 06/02 Q1026,0,9,0,10000,0,0,0,
2026-04-21 20:20:00,METAR EGSS 212020Z AUTO 04008KT 9999 NCD 06/01 Q1026,0,8,0,10000,0,0,0,
2026-04-21 19:50:00,METAR EGSS 211950Z AUTO 05011KT 9999 NCD 07/01 Q1026,0,11,0,10000,0,0,0,
2026-04-21 19:20:00,METAR EGSS 211920Z AUTO 05010KT 9999 NCD 07/01 Q1026,0,10,0,10000,0,0,0,
2026-04-21 18:50:00,METAR EGSS 211850Z AUTO 06011KT 9999 NCD 08/01 Q1026,0,11,0,10000,0,0,0,
2026-04-21 18:20:00,METAR EGSS 211820Z AUTO 06014KT 9999 NCD 10/01 Q1025,0,14,0,10000,0,0,0,
2026-04-21 17:50:00,METAR EGSS 211750Z AUTO 06015KT 9999 NCD 10/00 Q1025,0,15,0,10000,0,0,0,
2026-04-21 17:20:00,METAR EGSS 211720Z AUTO 06014KT 9999 NCD 11/01 Q1025,0,14,0,10000,0,0,0,
2026-04-21 16:50:00,METAR EGSS 211650Z AUTO 07015KT 9999 NCD 12/M00 Q1025,0,15,0,10000,0,0,0,
2026-04-21 16:20:00,METAR EGSS 211620Z AUTO 08016KT 9999 NCD 13/M01 Q1025,0,16,0,10000,0,0,0,
2026-04-21 15:50:00,METAR EGSS 211550Z AUTO 06015KT 9999 NCD 13/M01 Q1025,0,15,0,10000,0,0,0,
2026-04-21 15:20:00,METAR EGSS 211520Z AUTO 05015KT 9999 NCD 13/01 Q1025,0,15,0,10000,0,0,0,
2026-04-21 14:50:00,METAR EGSS 211450Z AUTO 06016KT 9999 SCT039 14/03 Q1025,0,16,0,10000,0,0,0,
2026-04-21 14:20:00,METAR EGSS 211420Z AUTO 07015KT 030V090 9999 SCT038 14/04 Q1025,0,15,0,10000,0,0,0,
2026-04-21 13:50:00,METAR EGSS 211350Z AUTO 06014KT 9999 BKN038 14/04 Q1026,0,14,0,10000,0,0,0,
2026-04-21 13:20:00,METAR EGSS 211320Z AUTO 07014KT 9999 BKN035 BKN041 13/04 Q1026,0,14,0,10000,0,0,0,
2026-04-21 12:50:00,METAR EGSS 211250Z AUTO 06015KT 9999 BKN032/// 12/04 Q1026,0,15,0,10000,0,0,0,
2026-04-21 12:20:00,METAR EGSS 211220Z AUTO 06014KT 9999 BKN031 14/06 Q1026,0,14,0,10000,0,0,0,
2026-04-21 11:50:00,METAR EGSS 211150Z AUTO 06014KT 9999 BKN035 13/04 Q1026,0,14,0,10000,0,0,0,
2026-04-21 11:20:00,METAR EGSS 211120Z AUTO 06012KT 9999 BKN034 13/04 Q1026,0,12,0,10000,0,0,0,
2026-04-21 10:50:00,METAR EGSS 211050Z AUTO 05012KT 9999 SCT032 12/04 Q1026,0,12,0,10000,0,0,0,
2026-04-21 10:20:00,METAR EGSS 211020Z AUTO 07012KT 9999 SCT030 12/03 Q1026,0,12,0,10000,0,0,0,
2026-04-21 09:50:00,METAR EGSS 210950Z AUTO 06012KT 030V100 9999 FEW030 11/03 Q1026,0,12,0,10000,0,0,0,
2026-04-21 09:20:00,METAR EGSS 210920Z AUTO 05013KT 9999 SCT027 10/03 Q1026,0,13,0,10000,0,0,0,
2026-04-21 08:50:00,METAR EGSS 210850Z AUTO 05013KT 9999 BKN023 10/04 Q1026,0,13,0,10000,0,0,0,
2026-04-21 08:20:00,METAR EGSS 210820Z AUTO 04013KT 9999 BKN023 09/04 Q1026,0,13,0,10000,0,0,0,
2026-04-21 07:50:00,METAR EGSS 210750Z AUTO 04011KT 9999 FEW022 09/04 Q1026,0,11,0,10000,0,0,0,
2026-04-21 07:20:00,METAR EGSS 210720Z AUTO 05012KT 9999 NCD 08/05 Q1026,0,12,0,10000,0,0,0,
2026-04-21 06:50:00,METAR EGSS 210650Z AUTO 04010KT 9999 NCD 07/05 Q1025,0,10,0,10000,0,0,0,
2026-04-21 06:20:00,METAR EGSS 210620Z AUTO 03010KT 9999 NCD 06/05 Q1025,0,10,0,10000,0,0,0,
2026-04-21 05:50:00,METAR EGSS 210550Z AUTO 03009KT 9999 NCD 05/05 Q1025,0,9,0,10000,0,0,0,
2026-04-21 05:20:00,METAR EGSS 210520Z AUTO 03009KT 9999 NCD 05/04 Q1025,0,9,0,10000,0,0,0,
2026-04-21 04:50:00,METAR EGSS 210450Z AUTO 03007KT 9999 FEW011 BKN044 05/04 Q1025,0,7,0,10000,0,0,0,
2026-04-21 04:20:00,METAR EGSS 210420Z AUTO 02007KT 9999 SCT023 SCT033 OVC041 06/05 Q1025,0,7,0,10000,0,0,0,
2026-04-21 03:50:00,METAR EGSS 210350Z AUTO 36006KT 7000 -RA SCT014 BKN020 OVC040 06/05 Q1025,0,6,0,7000,0,0,0,-RA
2026-04-21 03:20:00,METAR EGSS 210320Z AUTO 36006KT 9999 BKN016 BKN023 OVC028 05/04 Q1025,0,6,0,10000,0,0,0,
2026-04-21 02:50:00,METAR EGSS 210250Z AUTO 36006KT 9999 BKN010 05/04 Q1025,0,6,0,10000,0,0,0,
2026-04-21 02:20:00,METAR EGSS 210220Z AUTO 01006KT 9999 SCT013 BKN042 05/04 Q1025,0,6,0,10000,0,0,0,
2026-04-21 01:50:00,METAR EGSS 210150Z AUTO 01006KT 9999 OVC040 05/04 Q1025,0,6,0,10000,0,0,0,
2026-04-21 01:20:00,METAR EGSS 210120Z AUTO 02007KT 9999 OVC038 05/04 Q1025,0,7,0,10000,0,0,0,
2026-04-21 00:50:00,METAR EGSS 210050Z AUTO 01006KT 9999 FEW015 SCT024 BKN039 05/03 Q1025,0,6,0,10000,0,0,0,
2026-04-20 22:50:00,METAR EGSS 202250Z AUTO 02006KT 9999 NCD 04/02 Q1025,0,6,0,10000,0,0,0,
2026-04-20 22:20:00,METAR EGSS 202220Z AUTO 03006KT 9999 NCD 04/02 Q1025,0,6,0,10000,0,0,0,
2026-04-20 21:50:00,METAR EGSS 202150Z AUTO 02006KT 9999 NCD 05/03 Q1025,0,6,0,10000,0,0,0,
2026-04-20 21:20:00,METAR EGSS 202120Z AUTO 03006KT 9999 NCD 05/03 Q1025,0,6,0,10000,0,0,0,
2026-04-20 20:50:00,METAR EGSS 202050Z AUTO 03006KT 9999 NCD 05/04 Q1025,0,6,0,10000,0,0,0,
2026-04-20 20:20:00,METAR EGSS 202020Z AUTO 05007KT 9999 FEW027 06/04 Q1025,0,7,0,10000,0,0,0,
2026-04-20 19:50:00,METAR EGSS 201950Z AUTO 05008KT 9999 SCT042 07/04 Q1024,0,8,0,10000,0,0,0,
2026-04-20 19:20:00,METAR EGSS 201920Z AUTO 03007KT 9999 NCD 07/03 Q1024,0,7,0,10000,0,0,0,
2026-04-20 18:50:00,METAR EGSS 201850Z AUTO 04010KT 9999 BKN047 09/03 Q1024,0,10,0,10000,0,0,0,
2026-04-20 18:20:00,METAR EGSS 201820Z AUTO 03008KT 9999 NCD 10/02 Q1023,0,8,0,10000,0,0,0,
2026-04-20 17:50:00,METAR EGSS 201750Z AUTO 03010KT 9999 FEW044 11/02 Q1023,0,10,0,10000,0,0,0,
2026-04-20 17:20:00,METAR EGSS 201720Z AUTO 03011KT 9999 FEW046 11/02 Q1023,0,11,0,10000,0,0,0,
2026-04-20 16:50:00,METAR EGSS 201650Z 04011KT 9999 SCT047 12/01 Q1023,0,11,0,10000,0,0,0,
2026-04-20 16:20:00,METAR EGSS 201620Z 05011KT 9999 SCT049 12/02 Q1023,0,11,0,10000,0,0,0,
2026-04-20 15:50:00,METAR EGSS 201550Z AUTO 04011KT 9999 FEW046 12/02 Q1023,0,11,0,10000,0,0,0,
2026-04-20 15:20:00,METAR EGSS 201520Z AUTO 03009KT 9999 NCD 12/02 Q1023,0,9,0,10000,0,0,0,
2026-04-20 14:50:00,METAR EGSS 201450Z AUTO 04007KT 010V080 9999 NCD 11/03 Q1023,0,7,0,10000,0,0,0,
2026-04-20 14:20:00,METAR EGSS 201420Z AUTO 02006KT 360V060 9999 NCD 11/03 Q1023,0,6,0,10000,0,0,0,
2026-04-20 13:50:00,METAR EGSS 201350Z AUTO 03006KT 9999 NCD 11/03 Q1024,0,6,0,10000,0,0,0,
2026-04-20 13:20:00,METAR EGSS 201320Z AUTO 01007KT 9999 NCD 11/03 Q1024,0,7,0,10000,0,0,0,
2026-04-20 12:50:00,METAR EGSS 201250Z AUTO 02008KT 9999 FEW039 11/03 Q1024,0,8,0,10000,0,0,0,
2026-04-20 12:20:00,METAR EGSS 201220Z AUTO 04010KT 9999 BKN040 11/03 Q1024,0,10,0,10000,0,0,0,
2026-04-20 11:50:00,METAR EGSS 201150Z AUTO 07009KT 030V100 9999 SCT041 BKN048 13/03 Q1024,0,9,0,10000,0,0,0,
2026-04-20 11:20:00,METAR EGSS 201120Z AUTO 03011KT 9999 SCT036 BKN042 11/02 Q1024,0,11,0,10000,0,0,0,
2026-04-20 10:50:00,METAR EGSS 201050Z AUTO 06010KT 030V090 9999 FEW033 SCT041 12/03 Q1024,0,10,0,10000,0,0,0,
2026-04-20 10:20:00,METAR EGSS 201020Z AUTO 03008KT 9999 BKN032 BKN038 11/04 Q1024,0,8,0,10000,0,0,0,
2026-04-20 09:50:00,METAR EGSS 200950Z AUTO 04009KT 340V090 9999 BKN030 11/03 Q1025,0,9,0,10000,0,0,0,
2026-04-20 09:20:00,METAR EGSS 200920Z AUTO 03009KT 340V070 9999 BKN028 10/03 Q1025,0,9,0,10000,0,0,0,
2026-04-20 08:50:00,METAR EGSS 200850Z AUTO 02007KT 9999 SCT025 BKN029 09/04 Q1025,0,7,0,10000,0,0,0,
2026-04-20 08:20:00,METAR EGSS 200820Z AUTO 03008KT 9999 NCD 09/04 Q1025,0,8,0,10000,0,0,0,
2026-04-20 07:50:00,METAR EGSS 200750Z AUTO 02005KT 9999 NCD 08/05 Q1025,0,5,0,10000,0,0,0,
2026-04-20 07:20:00,METAR EGSS 200720Z AUTO 01004KT 330V040 9999 NCD 07/05 Q1025,0,4,0,10000,0,0,0,
2026-04-20 06:50:00,METAR EGSS 200650Z AUTO 36004KT 9999 NCD 05/05 Q1025,0,4,0,10000,0,0,0,
2026-04-20 06:20:00,METAR EGSS 200620Z 35003KT CAVOK 04/03 Q1025,1,0,0,9999,0,0,0,
2026-04-20 05:50:00,METAR EGSS 200550Z AUTO 34003KT 9999 NCD 02/02 Q1024,0,3,0,10000,0,0,0,
2026-04-20 05:20:00,METAR EGSS 200520Z AUTO 33002KT 7000 NCD 01/00 Q1024,0,2,0,7000,0,0,0,
2026-04-20 04:50:00,METAR EGSS 200450Z AUTO 32002KT 7000 NCD 01/00 Q1024,0,2,0,7000,0,0,0,
2026-04-20 04:20:00,METAR EGSS 200420Z AUTO VRB01KT 7000 NCD 01/01 Q1024,0,1,0,7000,0,0,0,
2026-04-20 03:50:00,METAR EGSS 200350Z AUTO 02002KT 9000 NCD 02/01 Q1024,0,2,0,9000,0,0,0,
2026-04-20 03:20:00,METAR EGSS 200320Z AUTO 03002KT 9999 NCD 03/02 Q1024,0,2,0,10000,0,0,0,
2026-04-20 02:50:00,METAR EGSS 200250Z AUTO 04005KT 9999 FEW008 02/02 Q1025,0,5,0,10000,0,0,0,
2026-04-20 02:20:00,METAR EGSS 200220Z AUTO 01004KT 6000 NCD 03/03 Q1025,0,4,0,6000,0,0,0,
2026-04-20 01:50:00,METAR EGSS 200150Z AUTO 33003KT 6000 NCD 03/03 Q1025,0,3,0,6000,0,0,0,
2026-04-20 01:20:00,METAR EGSS 200120Z AUTO 35003KT 5000 BR NCD 04/03 Q1025,0,3,0,5000,0,0,1,BR
2026-04-20 00:50:00,METAR EGSS 200050Z AUTO 35002KT 8000 NCD 04/03 Q1025,0,2,0,8000,0,0,0,
2026-04-20 00:20:00,METAR EGSS 200020Z AUTO 34002KT 9999 NCD 04/03 Q1025,0,2,0,10000,0,0,0,
2026-04-19 23:50:00,METAR EGSS 192350Z AUTO 32002KT 9999 NCD 04/03 Q1025,0,2,0,10000,0,0,0,
2026-04-19 23:20:00,METAR EGSS 192320Z AUTO VRB01KT 9999 NCD 05/04 Q1025,0,1,0,10000,0,0,0,
2026-04-19 22:50:00,METAR EGSS 192250Z AUTO VRB01KT 9999 NCD 07/05 Q1025,0,1,0,10000,0,0,0,
2026-04-19 22:20:00,METAR EGSS 192220Z AUTO 12003KT 9999 NCD 08/06 Q1025,0,3,0,10000,0,0,0,
2026-04-19 21:50:00,METAR EGSS 192150Z AUTO 10004KT 9999 NCD 08/06 Q1025,0,4,0,10000,0,0,0,
2026-04-19 21:20:00,METAR EGSS 192120Z AUTO 10005KT 050V140 9999 NCD 08/06 Q1025,0,5,0,10000,0,0,0,
2026-04-19 20:50:00,METAR EGSS 192050Z AUTO 11007KT 030V130 9999 NCD 08/06 Q1025,0,7,0,10000,0,0,0,
2026-04-19 20:20:00,METAR EGSS 192020Z AUTO VRB06G18KT 9999 NCD 09/06 Q1025,0,6,1,10000,0,0,0,
2026-04-19 19:50:00,METAR EGSS 191950Z AUTO 12007KT 9999 NCD 09/06 Q1025,0,7,0,10000,0,0,0,
2026-04-19 19:20:00,METAR EGSS 191920Z AUTO 10008KT 060V130 9999 NCD 10/05 Q1025,0,8,0,10000,0,0,0,
2026-04-19 18:50:00,METAR EGSS 191850Z AUTO 04007KT 9999 NCD 09/03 Q1025,0,7,0,10000,0,0,0,
2026-04-19 18:20:00,METAR EGSS 191820Z AUTO 03006KT 9999 NCD 10/02 Q1025,0,6,0,10000,0,0,0,
2026-04-19 17:50:00,METAR EGSS 191750Z AUTO 03006KT 9999 NCD 11/02 Q1025,0,6,0,10000,0,0,0,
2026-04-19 17:20:00,METAR EGSS 191720Z AUTO 01005KT 9999 NCD 12/01 Q1025,0,5,0,10000,0,0,0,
2026-04-19 16:50:00,METAR EGSS 191650Z AUTO 03007KT 9999 NCD 13/03 Q1025,0,7,0,10000,0,0,0,
2026-04-19 16:20:00,METAR EGSS 191620Z AUTO 03007KT 360V070 9999 NCD 13/02 Q1025,0,7,0,10000,0,0,0,
2026-04-19 15:50:00,METAR EGSS 191550Z AUTO 36005KT 290V040 9999 NCD 12/01 Q1025,0,5,0,10000,0,0,0,
2026-04-19 15:20:00,METAR EGSS 191520Z AUTO 01008KT 330V100 9999 NCD 13/01 Q1025,0,8,0,10000,0,0,0,
2026-04-19 14:50:00,METAR EGSS 191450Z AUTO 35008KT 310V020 9999 NCD 13/01 Q1025,0,8,0,10000,0,0,0,
2026-04-19 14:20:00,METAR EGSS 191420Z AUTO 35007KT 320V030 9999 NCD 13/00 Q1025,0,7,0,10000,0,0,0,
2026-04-19 13:50:00,METAR EGSS 191350Z AUTO 36007KT 330V030 9999 NCD 12/00 Q1025,0,7,0,10000,0,0,0,
2026-04-19 13:20:00,METAR EGSS 191320Z AUTO 35008KT 320V040 9999 NCD 13/01 Q1025,0,8,0,10000,0,0,0,
2026-04-19 12:50:00,METAR EGSS 191250Z AUTO 33007KT 290V020 9999 SCT046 12/02 Q1025,0,7,0,10000,0,0,0,
2026-04-19 12:20:00,METAR EGSS 191220Z AUTO 34007KT 290V030 9999 SCT043 13/02 Q1025,0,7,0,10000,0,0,0,
2026-04-19 11:50:00,METAR EGSS 191150Z AUTO 35007KT 280V040 9999 SCT041 14/03 Q1026,0,7,0,10000,0,0,0,
2026-04-19 11:20:00,METAR EGSS 191120Z AUTO 35008KT 310V020 9999 FEW043 13/02 Q1026,0,8,0,10000,0,0,0,
2026-04-19 10:50:00,METAR EGSS 191050Z AUTO 35009KT 320V030 9999 NCD 12/03 Q1026,0,9,0,10000,0,0,0,
2026-04-19 10:20:00,METAR EGSS 191020Z AUTO 33008KT 310V010 9999 NCD 12/03 Q1026,0,8,0,10000,0,0,0,
2026-04-19 09:50:00,METAR EGSS 190950Z AUTO 33008KT 300V020 9999 NCD 11/03 Q1026,0,8,0,10000,0,0,0,
2026-04-19 09:20:00,METAR EGSS 190920Z AUTO 33007KT 300V020 9999 NCD 11/04 Q1026,0,7,0,10000,0,0,0,
2026-04-19 08:50:00,METAR EGSS 190850Z AUTO 33007KT 290V360 9999 NCD 10/03 Q1026,0,7,0,10000,0,0,0,
2026-04-19 08:20:00,METAR EGSS 190820Z AUTO 32008KT 300V010 9999 NCD 09/04 Q1026,0,8,0,10000,0,0,0,
2026-04-19 07:50:00,METAR EGSS 190750Z AUTO 34009KT 9999 NCD 08/03 Q1025,0,9,0,10000,0,0,0,
2026-04-19 07:20:00,METAR EGSS 190720Z AUTO 32007KT 290V360 9999 NCD 08/03 Q1025,0,7,0,10000,0,0,0,
2026-04-19 06:50:00,METAR EGSS 190650Z AUTO 31006KT 280V350 9999 NCD 07/03 Q1025,0,6,0,10000,0,0,0,
2026-04-19 06:20:00,METAR EGSS 190620Z AUTO 31003KT 260V360 9999 NCD 06/03 Q1025,0,3,0,10000,0,0,0,
2026-04-19 05:50:00,METAR EGSS 190550Z AUTO 31003KT 280V340 9999 NCD 04/02 Q1025,0,3,0,10000,0,0,0,
2026-04-19 05:20:00,METAR EGSS 190520Z AUTO VRB02KT 9999 NCD 04/02 Q1025,0,2,0,10000,0,0,0,
2026-04-19 04:50:00,METAR EGSS 190450Z AUTO VRB01KT 9999 NCD 04/02 Q1025,0,1,0,10000,0,0,0,
2026-04-19 04:20:00,METAR EGSS 190420Z AUTO 29003KT 9999 NCD 04/02 Q1025,0,3,0,10000,0,0,0,
2026-04-19 03:50:00,METAR EGSS 190350Z AUTO 31004KT 9999 NCD 05/02 Q1025,0,4,0,10000,0,0,0,
2026-04-19 03:20:00,METAR EGSS 190320Z AUTO 31004KT 9999 NCD 05/02 Q1025,0,4,0,10000,0,0,0,
2026-04-19 02:50:00,METAR EGSS 190250Z AUTO 30004KT 9999 NCD 05/02 Q1024,0,4,0,10000,0,0,0,
2026-04-19 02:20:00,METAR EGSS 190220Z AUTO 31004KT 9999 NCD 05/03 Q1024,0,4,0,10000,0,0,0,
2026-04-19 01:50:00,METAR EGSS 190150Z AUTO 32005KT 9999 NCD 06/03 Q1024,0,5,0,10000,0,0,0,
2026-04-19 01:20:00,METAR EGSS 190120Z AUTO 32005KT 9999 NCD 06/03 Q1024,0,5,0,10000,0,0,0,
2026-04-19 00:50:00,METAR EGSS 190050Z AUTO 32005KT 9999 NCD 07/03 Q1024,0,5,0,10000,0,0,0,
2026-04-19 00:20:00,METAR EGSS 190020Z AUTO 32006KT 9999 NCD 07/04 Q1024,0,6,0,10000,0,0,0,
2026-04-18 23:50:00,METAR EGSS 182350Z AUTO 31005KT 9999 NCD 08/04 Q1024,0,5,0,10000,0,0,0,
2026-04-18 23:20:00,METAR EGSS 182320Z AUTO 32005KT 9999 NCD 08/04 Q1024,0,5,0,10000,0,0,0,
2026-04-18 22:50:00,METAR EGSS 182250Z AUTO 31005KT 9999 NCD 09/05 Q1024,0,5,0,10000,0,0,0,
2026-04-18 22:20:00,METAR EGSS 182220Z AUTO 32004KT 280V350 9999 NCD 09/05 Q1024,0,4,0,10000,0,0,0,
2026-04-18 21:50:00,METAR EGSS 182150Z AUTO 31004KT 280V350 9999 NCD 10/05 Q1024,0,4,0,10000,0,0,0,
2026-04-18 21:20:00,METAR EGSS 182120Z AUTO 32003KT 270V340 9999 SCT039 SCT045 11/05 Q1024,0,3,0,10000,0,0,0,
2026-04-18 20:50:00,METAR EGSS 182050Z AUTO 34005KT 9999 BKN041 BKN049 11/05 Q1024,0,5,0,10000,0,0,0,
2026-04-18 20:20:00,METAR EGSS 182020Z AUTO 31007KT 9999 //////CB 12/05 Q1023,0,7,0,10000,0,0,0,
2026-04-18 19:50:00,METAR EGSS 181950Z AUTO 30005KT 9999 //////TCU 11/05 Q1023,0,5,0,10000,0,0,0,
2026-04-18 19:20:00,METAR EGSS 181920Z AUTO 31005KT 9999 NCD 12/04 Q1023,0,5,0,10000,0,0,0,
2026-04-18 18:50:00,METAR EGSS 181850Z AUTO 31005KT 9999 NCD 12/03 Q1022,0,5,0,10000,0,0,0,
2026-04-18 18:20:00,METAR EGSS 181820Z AUTO 31006KT 9999 NCD 13/03 Q1022,0,6,0,10000,0,0,0,
2026-04-18 17:50:00,METAR EGSS 181750Z AUTO 31008KT 9999 NCD 14/02 Q1022,0,8,0,10000,0,0,0,
2026-04-18 17:20:00,METAR EGSS 181720Z AUTO 31008KT 280V350 9999 NCD 15/03 Q1022,0,8,0,10000,0,0,0,
2026-04-18 16:50:00,METAR EGSS 181650Z AUTO 31006KT 280V350 9999 NCD 14/03 Q1021,0,6,0,10000,0,0,0,
2026-04-18 16:20:00,METAR EGSS 181620Z AUTO 32008KT 9999 NCD 14/03 Q1021,0,8,0,10000,0,0,0,
2026-04-18 15:50:00,METAR EGSS 181550Z AUTO 31008KT 280V010 9999 NCD 15/04 Q1021,0,8,0,10000,0,0,0,
2026-04-18 15:20:00,METAR EGSS 181520Z AUTO 28009KT 250V320 9999 NCD 15/04 Q1021,0,9,0,10000,0,0,0,
2026-04-18 14:50:00,METAR EGSS 181450Z AUTO 28010KT 250V320 9999 NCD 16/04 Q1021,0,10,0,10000,0,0,0,
2026-04-18 14:20:00,METAR EGSS 181420Z AUTO 30009KT 270V340 9999 NCD 15/04 Q1021,0,9,0,10000,0,0,0,
2026-04-18 13:50:00,METAR EGSS 181350Z AUTO 30007KT 270V340 9999 FEW048 15/04 Q1021,0,7,0,10000,0,0,0,
2026-04-18 13:20:00,METAR EGSS 181320Z AUTO 29008KT 260V330 9999 BKN044 14/04 Q1021,0,8,0,10000,0,0,0,
2026-04-18 12:50:00,METAR EGSS 181250Z AUTO 27006KT 230V330 9999 SCT044 16/05 Q1021,0,6,0,10000,0,0,0,
2026-04-18 12:20:00,METAR EGSS 181220Z AUTO 29009KT 250V330 9999 SCT045 16/04 Q1021,0,9,0,10000,0,0,0,
2026-04-18 11:50:00,METAR EGSS 181150Z AUTO 27007KT 230V330 9999 SCT041 SCT049 16/05 Q1021,0,7,0,10000,0,0,0,
2026-04-18 11:20:00,METAR EGSS 181120Z AUTO 30008KT 260V330 9999 SCT037 15/06 Q1022,0,8,0,10000,0,0,0,
2026-04-18 10:50:00,METAR EGSS 181050Z AUTO 29008KT 250V360 9999 SCT035 14/05 Q1022,0,8,0,10000,0,0,0,
2026-04-18 10:20:00,METAR EGSS 181020Z AUTO 28007KT 250V340 9999 BKN033 13/06 Q1022,0,7,0,10000,0,0,0,
2026-04-18 09:50:00,METAR EGSS 180950Z AUTO 27008KT 240V300 9999 BKN031 14/06 Q1022,0,8,0,10000,0,0,0,
2026-04-18 09:20:00,METAR EGSS 180920Z AUTO 29007KT 250V320 9999 SCT026 13/06 Q1022,0,7,0,10000,0,0,0,
2026-04-18 08:50:00,METAR EGSS 180850Z AUTO 27009KT 9999 FEW024 12/06 Q1021,0,9,0,10000,0,0,0,
2026-04-18 08:20:00,METAR EGSS 180820Z 26006KT 230V300 CAVOK 12/06 Q1021,1,0,0,9999,0,0,0,
2026-04-18 07:50:00,METAR EGSS 180750Z 26007KT CAVOK 11/07 Q1021,1,0,0,9999,0,0,0,
2026-04-18 07:20:00,METAR EGSS 180720Z 26008KT CAVOK 10/07 Q1021,1,0,0,9999,0,0,0,
2026-04-18 06:50:00,METAR EGSS 180650Z AUTO 27006KT 9999 NCD 09/07 Q1021,0,6,0,10000,0,0,0,
2026-04-18 06:20:00,METAR EGSS 180620Z AUTO 24005KT 9999 NCD 09/07 Q1021,0,5,0,10000,0,0,0,
2026-04-18 05:50:00,METAR EGSS 180550Z AUTO 24005KT 9999 NCD 07/06 Q1021,0,5,0,10000,0,0,0,
2026-04-18 05:20:00,METAR EGSS 180520Z AUTO 25005KT 9999 NCD 07/06 Q1021,0,5,0,10000,0,0,0,
2026-04-18 04:50:00,METAR EGSS 180450Z AUTO 25004KT 9999 NCD 08/05 Q1020,0,4,0,10000,0,0,0,
2026-04-18 04:20:00,METAR EGSS 180420Z AUTO 26004KT 9999 NCD 08/05 Q1020,0,4,0,10000,0,0,0,
2026-04-18 03:50:00,METAR EGSS 180350Z AUTO 26006KT 9999 FEW037 10/06 Q1020,0,6,0,10000,0,0,0,
2026-04-18 03:20:00,METAR EGSS 180320Z AUTO 27004KT 9999 OVC033 11/07 Q1020,0,4,0,10000,0,0,0,
2026-04-18 02:50:00,METAR EGSS 180250Z AUTO 26005KT 9999 OVC031 11/07 Q1020,0,5,0,10000,0,0,0,
2026-04-18 02:20:00,METAR EGSS 180220Z AUTO 26005KT 9999 OVC026 11/06 Q1020,0,5,0,10000,0,0,0,
2026-04-18 01:50:00,METAR EGSS 180150Z AUTO 26004KT 9999 BKN025 OVC030 11/06 Q1020,0,4,0,10000,0,0,0,
2026-04-18 01:20:00,METAR EGSS 180120Z AUTO 26005KT 9999 OVC023 11/07 Q1020,0,5,0,10000,0,0,0,
2026-04-18 00:50:00,METAR EGSS 180050Z AUTO 26005KT 9999 OVC020 11/07 Q1020,0,5,0,10000,0,0,0,
2026-04-18 00:20:00,METAR EGSS 180020Z AUTO 27005KT 9999 OVC018 11/08 Q1020,0,5,0,10000,0,0,0,
2026-04-17 23:50:00,METAR EGSS 172350Z AUTO 27004KT 9999 BKN015 OVC020 11/08 Q1020,0,4,0,10000,0,0,0,
2026-04-17 23:20:00,METAR EGSS 172320Z AUTO 29005KT 250V310 9999 OVC020 11/08 Q1020,0,5,0,10000,0,0,0,
2026-04-17 22:50:00,METAR EGSS 172250Z AUTO 31005KT 270V340 9999 BKN021 OVC026 12/09 Q1020,0,5,0,10000,0,0,0,
2026-04-17 22:20:00,METAR EGSS 172220Z AUTO 23007KT 9999 OVC024 13/09 Q1020,0,7,0,10000,0,0,0,
2026-04-17 21:50:00,METAR EGSS 172150Z AUTO 20008KT 9999 OVC027 13/08 Q1019,0,8,0,10000,0,0,0,
2026-04-17 21:20:00,METAR EGSS 172120Z AUTO 19008KT 9999 BKN030 13/08 Q1019,0,8,0,10000,0,0,0,
2026-04-17 20:50:00,METAR EGSS 172050Z AUTO 20008KT 9999 FEW043 13/08 Q1019,0,8,0,10000,0,0,0,
2026-04-17 20:20:00,METAR EGSS 172020Z AUTO 21010KT 9999 OVC043 14/07 Q1019,0,10,0,10000,0,0,0,
2026-04-17 19:50:00,METAR EGSS 171950Z AUTO 21009KT 9999 BKN048 14/07 Q1019,0,9,0,10000,0,0,0,
2026-04-17 19:20:00,METAR EGSS 171920Z AUTO 22009KT 9999 NCD 13/07 Q1019,0,9,0,10000,0,0,0,
2026-04-17 18:50:00,METAR EGSS 171850Z AUTO 22009KT 9999 NCD 13/07 Q1019,0,9,0,10000,0,0,0,
2026-04-17 18:20:00,METAR EGSS 171820Z AUTO 22013KT 9999 NCD 15/07 Q1018,0,13,0,10000,0,0,0,
2026-04-17 17:50:00,METAR EGSS 171750Z 20011KT 9999 FEW043 16/08 Q1018,0,11,0,10000,0,0,0,
2026-04-17 17:20:00,METAR EGSS 171720Z AUTO 22013KT 9999 BKN041 16/08 Q1018,0,13,0,10000,0,0,0,
2026-04-17 16:50:00,METAR EGSS 171650Z AUTO 20013KT 9999 BKN040 17/08 Q1018,0,13,0,10000,0,0,0,
2026-04-17 16:20:00,METAR EGSS 171620Z 20015KT 9999 BKN040 17/08 Q1018,0,15,0,10000,0,0,0,
2026-04-17 15:50:00,METAR EGSS 171550Z AUTO 22016KT 9999 OVC041 17/08 Q1018,0,16,0,10000,0,0,0,
2026-04-17 15:20:00,METAR EGSS 171520Z AUTO 22015KT 9999 BKN041 16/07 Q1018,0,15,0,10000,0,0,0,
2026-04-17 14:50:00,METAR EGSS 171450Z AUTO 22014KT 9999 OVC041 16/08 Q1018,0,14,0,10000,0,0,0,
2026-04-17 14:20:00,METAR EGSS 171420Z AUTO 21014KT 9999 OVC042 16/07 Q1019,0,14,0,10000,0,0,0,
2026-04-17 13:50:00,METAR EGSS 171350Z AUTO 21014KT 9999 OVC043 17/08 Q1019,0,14,0,10000,0,0,0,
2026-04-17 13:20:00,METAR EGSS 171320Z AUTO 20013KT 9999 OVC041 16/08 Q1019,0,13,0,10000,0,0,0,
2026-04-17 12:50:00,METAR EGSS 171250Z AUTO 21013KT 9999 BKN037 BKN044 16/08 Q1019,0,13,0,10000,0,0,0,
2026-04-17 12:20:00,METAR EGSS 171220Z AUTO 21014KT 9999 FEW036 OVC042 16/08 Q1019,0,14,0,10000,0,0,0,
2026-04-17 11:50:00,METAR EGSS 171150Z AUTO 20012KT 160V230 9999 SCT034 BKN040 16/08 Q1019,0,12,0,10000,0,0,0,
2026-04-17 11:20:00,METAR EGSS 171120Z AUTO 21013KT 9999 SCT030 BKN041 16/08 Q1019,0,13,0,10000,0,0,0,
2026-04-17 10:50:00,METAR EGSS 171050Z AUTO 20013KT 9999 SCT029 BKN034 16/08 Q1019,0,13,0,10000,0,0,0,
2026-04-17 10:20:00,METAR EGSS 171020Z AUTO 20014KT 9999 FEW027 15/08 Q1020,0,14,0,10000,0,0,0,
2026-04-17 09:50:00,METAR EGSS 170950Z AUTO 20012KT 9999 FEW026 15/09 Q1020,0,12,0,10000,0,0,0,
2026-04-17 09:20:00,METAR EGSS 170920Z AUTO 20011KT 9999 SCT022 14/09 Q1020,0,11,0,10000,0,0,0,
2026-04-17 08:50:00,METAR EGSS 170850Z AUTO 19010KT 9999 NCD 14/10 Q1019,0,10,0,10000,0,0,0,
2026-04-17 08:20:00,METAR EGSS 170820Z AUTO 20008KT 9999 NCD 13/10 Q1019,0,8,0,10000,0,0,0,
2026-04-17 07:50:00,METAR EGSS 170750Z AUTO 19008KT 9999 NCD 12/09 Q1019,0,8,0,10000,0,0,0,
2026-04-17 07:20:00,METAR EGSS 170720Z AUTO 19007KT 9999 NCD 12/09 Q1020,0,7,0,10000,0,0,0,
2026-04-17 06:50:00,METAR EGSS 170650Z AUTO 19008KT 9999 NCD 11/09 Q1020,0,8,0,10000,0,0,0,
2026-04-17 06:20:00,METAR EGSS 170620Z 17007KT 9999 OVC047 11/09 Q1019,0,7,0,10000,0,0,0,
2026-04-17 05:50:00,METAR EGSS 170550Z AUTO 16006KT 9999 BKN047 10/09 Q1019,0,6,0,10000,0,0,0,
2026-04-17 05:20:00,METAR EGSS 170520Z AUTO 18007KT 9999 BKN042 10/09 Q1019,0,7,0,10000,0,0,0,
2026-04-17 04:50:00,METAR EGSS 170450Z AUTO 17007KT 9999 -RA BKN042 10/09 Q1019,0,7,0,10000,0,0,0,-RA
2026-04-17 04:20:00,METAR EGSS 170420Z AUTO 17007KT 9999 BKN044 10/09 Q1019,0,7,0,10000,0,0,0,
2026-04-17 03:50:00,METAR EGSS 170350Z AUTO 18007KT 9999 BKN039 10/08 Q1019,0,7,0,10000,0,0,0,
2026-04-17 03:20:00,METAR EGSS 170320Z AUTO 17006KT 9999 FEW039 10/08 Q1019,0,6,0,10000,0,0,0,
2026-04-17 02:50:00,METAR EGSS 170250Z AUTO 18006KT 9999 SCT042 10/08 Q1019,0,6,0,10000,0,0,0,
2026-04-17 02:20:00,METAR EGSS 170220Z AUTO 17006KT 9999 FEW049 10/08 Q1019,0,6,0,10000,0,0,0,
2026-04-17 01:50:00,METAR EGSS 170150Z AUTO 17003KT 9999 NCD 10/08 Q1020,0,3,0,10000,0,0,0,
2026-04-17 01:20:00,METAR EGSS 170120Z 19006KT CAVOK 09/08 Q1020,1,0,0,9999,0,0,0,
2026-04-17 00:50:00,METAR EGSS 170050Z 19008KT CAVOK 10/08 Q1020,1,0,0,9999,0,0,0,
2026-04-17 00:20:00,METAR EGSS 170020Z AUTO 20008KT 9999 NCD 10/08 Q1020,0,8,0,10000,0,0,0,
2026-04-16 23:50:00,METAR EGSS 162350Z AUTO 20008KT 9999 NCD 10/08 Q1020,0,8,0,10000,0,0,0,
2026-04-16 23:20:00,METAR EGSS 162320Z AUTO 21008KT 9999 NCD 11/08 Q1020,0,8,0,10000,0,0,0,
2026-04-16 22:50:00,METAR EGSS 162250Z AUTO 20006KT 9999 NCD 11/08 Q1020,0,6,0,10000,0,0,0,
2026-04-16 22:20:00,METAR EGSS 162220Z AUTO 21007KT 9999 NCD 12/08 Q1020,0,7,0,10000,0,0,0,
2026-04-16 21:50:00,METAR EGSS 162150Z AUTO 21007KT 9999 NCD 12/08 Q1020,0,7,0,10000,0,0,0,
2026-04-16 21:20:00,METAR EGSS 162120Z AUTO 20006KT 9999 NCD 12/08 Q1020,0,6,0,10000,0,0,0,
2026-04-16 20:50:00,METAR EGSS 162050Z AUTO 20007KT 9999 NCD 12/08 Q1020,0,7,0,10000,0,0,0,
2026-04-16 20:20:00,METAR EGSS 162020Z 21009KT CAVOK 13/08 Q1020,1,0,0,9999,0,0,0,
2026-04-16 19:50:00,METAR EGSS 161950Z AUTO 21010KT 9999 NCD 13/08 Q1019,0,10,0,10000,0,0,0,
2026-04-16 19:20:00,METAR EGSS 161920Z AUTO 21009KT 9999 NCD 13/08 Q1019,0,9,0,10000,0,0,0,
2026-04-16 18:50:00,METAR EGSS 161850Z AUTO 22009KT 9999 SCT041 13/08 Q1019,0,9,0,10000,0,0,0,
2026-04-16 18:20:00,METAR EGSS 161820Z AUTO 22007KT 9999 FEW041 SCT049 14/08 Q1019,0,7,0,10000,0,0,0,
2026-04-16 17:50:00,METAR EGSS 161750Z AUTO 23007KT 9999 NCD 15/08 Q1019,0,7,0,10000,0,0,0,
2026-04-16 17:20:00,METAR EGSS 161720Z AUTO 23009KT 9999 NCD 15/07 Q1019,0,9,0,10000,0,0,0,
2026-04-16 16:50:00,METAR EGSS 161650Z 22008KT 9999 SCT043 16/08 Q1019,0,8,0,10000,0,0,0,
2026-04-16 16:20:00,METAR EGSS 161620Z AUTO 22012KT 9999 SCT046 16/07 Q1019,0,12,0,10000,0,0,0,
2026-04-16 15:50:00,METAR EGSS 161550Z AUTO 22010KT 9999 BKN049 16/06 Q1019,0,10,0,10000,0,0,0,
2026-04-16 14:50:00,METAR EGSS 161450Z AUTO 24010KT 9999 NCD 16/06 Q1019,0,10,0,10000,0,0,0,
2026-04-16 14:20:00,METAR EGSS 161420Z AUTO 23013KT 9999 NCD 18/06 Q1019,0,13,0,10000,0,0,0,
2026-04-16 13:50:00,METAR EGSS 161350Z AUTO 25008KT 170V340 9999 BKN046 17/06 Q1019,0,8,0,10000,0,0,0,
2026-04-16 13:20:00,METAR EGSS 161320Z AUTO 23013KT 9999 NCD 17/07 Q1019,0,13,0,10000,0,0,0,
2026-04-16 12:50:00,METAR EGSS 161250Z AUTO 24013KT 9999 FEW036 SCT046 17/08 Q1019,0,13,0,10000,0,0,0,
2026-04-16 12:20:00,METAR EGSS 161220Z AUTO 22014KT 9999 SCT035 BKN045 16/08 Q1019,0,14,0,10000,0,0,0,
2026-04-16 11:50:00,METAR EGSS 161150Z AUTO 23013KT 200V270 9999 FEW033 16/08 Q1019,0,13,0,10000,0,0,0,
2026-04-16 11:20:00,METAR EGSS 161120Z 22012KT 200V260 9999 SCT026 16/09 Q1019,0,12,0,10000,0,0,0,
2026-04-16 10:50:00,METAR EGSS 161050Z AUTO 22011KT 200V260 9999 FEW024 SCT031 15/10 Q1019,0,11,0,10000,0,0,0,
2026-04-16 10:20:00,METAR EGSS 161020Z AUTO 22012KT 9999 BKN025 OVC035 12/09 Q1019,0,12,0,10000,0,0,0,
2026-04-16 09:50:00,METAR EGSS 160950Z AUTO 22010KT 9999 OVC023 12/09 Q1019,0,10,0,10000,0,0,0,
2026-04-16 09:20:00,METAR EGSS 160920Z AUTO 22014KT 9999 BKN029 OVC035 12/09 Q1018,0,14,0,10000,0,0,0,
2026-04-16 08:50:00,METAR EGSS 160850Z AUTO 22016KT 9999 SCT017 BKN029 OVC036 13/09 Q1018,0,16,0,10000,0,0,0,
2026-04-16 08:20:00,METAR EGSS 160820Z AUTO 23011KT 9999 BKN016 12/09 Q1018,0,11,0,10000,0,0,0,
2026-04-16 07:50:00,METAR EGSS 160750Z AUTO 23011KT 9999 BKN013 12/09 Q1018,0,11,0,10000,0,0,0,
2026-04-16 07:20:00,METAR EGSS 160720Z AUTO 21012KT 9999 BKN013 BKN039 11/09 Q1018,0,12,0,10000,0,0,0,
2026-04-16 06:50:00,METAR EGSS 160650Z AUTO 21009KT 9000 FEW013 SCT039 10/09 Q1018,0,9,0,9000,0,0,0,
2026-04-16 06:20:00,METAR EGSS 160620Z AUTO 22010KT 9000 SCT009 BKN015 10/09 Q1017,0,10,0,9000,0,0,0,
2026-04-16 05:50:00,METAR EGSS 160550Z AUTO 22012KT 7000 -RA BKN011 BKN018 OVC038 10/09 Q1017,0,12,0,7000,0,0,0,-RA
2026-04-16 05:20:00,METAR EGSS 160520Z AUTO 21010KT 9999 BKN015 BKN033 10/08 Q1017,0,10,0,10000,0,0,0,
2026-04-16 04:50:00,METAR EGSS 160450Z AUTO 21010KT 9999 FEW016 SCT035 BKN043 10/08 Q1017,0,10,0,10000,0,0,0,
2026-04-16 04:20:00,METAR EGSS 160420Z AUTO 20009KT 9999 FEW015 10/08 Q1017,0,9,0,10000,0,0,0,
2026-04-16 03:50:00,METAR EGSS 160350Z AUTO 21009KT 9999 NCD 09/08 Q1017,0,9,0,10000,0,0,0,
2026-04-16 03:20:00,METAR EGSS 160320Z AUTO 21012KT 9999 NCD 09/08 Q1017,0,12,0,10000,0,0,0,
2026-04-16 02:50:00,METAR EGSS 160250Z AUTO 21010KT 9999 NCD 09/08 Q1017,0,10,0,10000,0,0,0,
2026-04-16 02:20:00,METAR EGSS 160220Z AUTO 21010KT 9999 NCD 09/08 Q1017,0,10,0,10000,0,0,0,
2026-04-16 01:50:00,METAR EGSS 160150Z AUTO 22009KT 9999 FEW014 09/08 Q1017,0,9,0,10000,0,0,0,
2026-04-16 01:20:00,METAR EGSS 160120Z AUTO 22009KT 9999 FEW013 09/08 Q1017,0,9,0,10000,0,0,0,
2026-04-16 00:50:00,METAR EGSS 160050Z AUTO 22008KT 9999 FEW013 08/07 Q1017,0,8,0,10000,0,0,0,
2026-04-16 00:20:00,METAR EGSS 160020Z AUTO 22009KT 9999 NCD 08/07 Q1017,0,9,0,10000,0,0,0,
2026-04-15 23:50:00,METAR EGSS 152350Z AUTO 22008KT 9999 NCD 08/07 Q1017,0,8,0,10000,0,0,0,
2026-04-15 23:20:00,METAR EGSS 152320Z AUTO 21010KT 9999 NCD 09/07 Q1016,0,10,0,10000,0,0,0,
2026-04-15 22:50:00,METAR EGSS 152250Z AUTO 21011KT 9999 NCD 10/08 Q1016,0,11,0,10000,0,0,0,
2026-04-15 22:20:00,METAR EGSS 152220Z AUTO 21009KT 9999 NCD 09/08 Q1016,0,9,0,10000,0,0,0,
2026-04-15 21:50:00,METAR EGSS 152150Z AUTO 21011KT 9999 NCD 10/08 Q1016,0,11,0,10000,0,0,0,
2026-04-15 21:20:00,METAR EGSS 152120Z AUTO 21009KT 9999 NCD 10/07 Q1016,0,9,0,10000,0,0,0,
2026-04-15 20:50:00,METAR EGSS 152050Z AUTO 21010KT 9999 NCD 11/08 Q1016,0,10,0,10000,0,0,0,
2026-04-15 20:20:00,METAR EGSS 152020Z AUTO 22011KT 9999 NCD 11/07 Q1016,0,11,0,10000,0,0,0,
2026-04-15 19:50:00,METAR EGSS 151950Z AUTO 22013KT 9999 NCD 12/07 Q1015,0,13,0,10000,0,0,0,
2026-04-15 19:20:00,METAR EGSS 151920Z AUTO 22016KT 9999 FEW037 12/07 Q1015,0,16,0,10000,0,0,0,
2026-04-15 18:50:00,METAR EGSS 151850Z AUTO 21013KT 9999 BKN028 BKN037 13/08 Q1014,0,13,0,10000,0,0,0,
2026-04-15 18:20:00,METAR EGSS 151820Z AUTO 21014KT 9999 BKN028 13/09 Q1014,0,14,0,10000,0,0,0,
2026-04-15 17:50:00,METAR EGSS 151750Z 21018KT 9999 SCT021 BKN031 14/09 Q1014,0,18,0,10000,0,0,0,
2026-04-15 17:20:00,METAR EGSS 151720Z AUTO 20017KT 9999 SCT019 BKN025 OVC030 14/10 Q1014,0,17,0,10000,0,0,0,
2026-04-15 16:50:00,METAR EGSS 151650Z AUTO 20016KT 9999 BKN026 15/09 Q1014,0,16,0,10000,0,0,0,
2026-04-15 16:20:00,METAR EGSS 151620Z AUTO 20016KT 9999 BKN032 BKN039 16/09 Q1014,0,16,0,10000,0,0,0,
2026-04-15 15:50:00,METAR EGSS 151550Z 21017KT 9999 BKN035 BKN041 OVC048 15/09 Q1014,0,17,0,10000,0,0,0,
2026-04-15 15:20:00,METAR EGSS 151520Z AUTO 20014KT 9999 BKN038 BKN049 16/09 Q1014,0,14,0,10000,0,0,0,
2026-04-15 14:50:00,METAR EGSS 151450Z AUTO 20019KT 9999 FEW036 SCT042 16/09 Q1014,0,19,0,10000,0,0,0,
2026-04-15 14:20:00,METAR EGSS 151420Z AUTO 20018G28KT 9999 SCT023 BKN031 BKN039 16/11 Q1014,0,18,1,10000,0,0,0,
2026-04-15 13:50:00,METAR EGSS 151350Z AUTO 19014KT 9999 FEW027 BKN038 16/11 Q1014,0,14,0,10000,0,0,0,
2026-04-15 13:20:00,METAR EGSS 151320Z AUTO 19016KT 9999 FEW013 SCT049 16/12 Q1014,0,16,0,10000,0,0,0,
2026-04-15 12:50:00,METAR EGSS 151250Z AUTO 20015KT 9999 -RA SCT015 BKN026 BKN044 15/13 Q1014 RERA,0,15,0,10000,0,0,0,"-RA,RA"
2026-04-15 12:20:00,METAR EGSS 151220Z AUTO 18014KT 9999 BKN017/// BKN024/// //////TCU 15/12 Q1015,0,14,0,10000,0,0,0,
2026-04-15 11:50:00,METAR EGSS 151150Z AUTO 17012KT 9999 BKN016/// BKN022/// OVC027/// //////TCU 15/12 Q1015,0,12,0,10000,0,0,0,
2026-04-15 11:20:00,METAR EGSS 151120Z AUTO 19012KT 9999 BKN015 OVC025 15/12 Q1015,0,12,0,10000,0,0,0,
2026-04-15 10:50:00,METAR EGSS 151050Z AUTO 18013KT 9999 BKN014 OVC019 14/11 Q1015,0,13,0,10000,0,0,0,
2026-04-15 10:20:00,METAR EGSS 151020Z AUTO 18010KT 9999 BKN013 OVC019 14/11 Q1015,0,10,0,10000,0,0,0,
2026-04-15 09:50:00,METAR EGSS 150950Z AUTO 18011KT 9999 OVC010 14/12 Q1015,0,11,0,10000,0,0,0,
2026-04-15 09:20:00,METAR EGSS 150920Z AUTO 19013KT 9999 BKN010 OVC016 14/11 Q1016,0,13,0,10000,0,0,0,
2026-04-15 08:50:00,METAR EGSS 150850Z AUTO 18011KT 9999 OVC009 13/11 Q1016,0,11,0,10000,0,0,0,
2026-04-15 08:20:00,METAR EGSS 150820Z AUTO 19010KT 9999 BKN009 OVC013 13/11 Q1016,0,10,0,10000,0,0,0,
2026-04-15 07:50:00,METAR EGSS 150750Z 18011KT 9999 OVC010 13/11 Q1016,0,11,0,10000,0,0,0,
2026-04-15 07:20:00,METAR EGSS 150720Z 17011KT 9999 BKN009 OVC036 13/11 Q1016,0,11,0,10000,0,0,0,
2026-04-15 06:50:00,METAR EGSS 150650Z AUTO 17010KT 9999 BKN007 OVC036 13/11 Q1016,0,10,0,10000,0,0,0,
2026-04-15 06:20:00,METAR EGSS 150620Z AUTO 17011KT 9999 OVC007 12/11 Q1016,0,11,0,10000,0,0,0,
2026-04-15 05:50:00,METAR EGSS 150550Z AUTO 17010KT 9999 OVC008 12/11 Q1016,0,10,0,10000,0,0,0,
2026-04-15 05:20:00,METAR EGSS 150520Z AUTO 17010KT 9999 OVC009 13/11 Q1016,0,10,0,10000,0,0,0,
2026-04-15 04:50:00,METAR EGSS 150450Z AUTO 17009KT 9999 OVC010 12/11 Q1016,0,9,0,10000,0,0,0,
2026-04-15 04:20:00,METAR EGSS 150420Z AUTO 16008KT 9999 OVC011 12/10 Q1016,0,8,0,10000,0,0,0,
2026-04-15 03:50:00,METAR EGSS 150350Z AUTO 16009KT 9999 OVC012 12/10 Q1016,0,9,0,10000,0,0,0,
2026-04-15 03:20:00,METAR EGSS 150320Z AUTO 16009KT 9999 OVC013 12/10 Q1016,0,9,0,10000,0,0,0,
2026-04-15 02:50:00,METAR EGSS 150250Z AUTO 16009KT 9999 OVC014 12/09 Q1016,0,9,0,10000,0,0,0,
2026-04-15 02:20:00,METAR EGSS 150220Z AUTO 16009KT 9999 OVC015 12/09 Q1017,0,9,0,10000,0,0,0,
2026-04-15 01:50:00,METAR EGSS 150150Z AUTO 16010KT 9999 BKN015 BKN024 OVC047 12/09 Q1017,0,10,0,10000,0,0,0,
2026-04-15 01:20:00,METAR EGSS 150120Z AUTO 16011KT 9999 BKN016 BKN022 12/08 Q1017,0,11,0,10000,0,0,0,
2026-04-15 00:50:00,METAR EGSS 150050Z AUTO 16010KT 9999 BKN018 OVC049 12/08 Q1017,0,10,0,10000,0,0,0,
2026-04-15 00:20:00,METAR EGSS 150020Z AUTO 16010KT 9999 BKN024 12/07 Q1017,0,10,0,10000,0,0,0,
2026-04-14 23:50:00,METAR EGSS 142350Z AUTO 16009KT 9999 SCT024 OVC037 12/07 Q1017,0,9,0,10000,0,0,0,
2026-04-14 23:20:00,METAR EGSS 142320Z AUTO 16010KT 9999 FEW028 OVC037 12/06 Q1018,0,10,0,10000,0,0,0,
2026-04-14 22:50:00,METAR EGSS 142250Z AUTO 16010KT 9999 BKN028 13/06 Q1018,0,10,0,10000,0,0,0,
2026-04-14 22:20:00,METAR EGSS 142220Z AUTO 15010KT 9999 BKN028 OVC036 13/06 Q1018,0,10,0,10000,0,0,0,
2026-04-14 21:50:00,METAR EGSS 142150Z AUTO 16009KT 9999 OVC027 13/06 Q1018,0,9,0,10000,0,0,0,
2026-04-14 21:20:00,METAR EGSS 142120Z AUTO 15008KT 9999 OVC030 12/06 Q1018,0,8,0,10000,0,0,0,
2026-04-14 20:50:00,METAR EGSS 142050Z AUTO 14008KT 130V200 9999 OVC028 13/06 Q1018,0,8,0,10000,0,0,0,
2026-04-14 20:20:00,METAR EGSS 142020Z AUTO 16007KT 9999 OVC030 13/06 Q1018,0,7,0,10000,0,0,0,
2026-04-14 19:50:00,METAR EGSS 141950Z AUTO 18011KT 9999 OVC031 13/06 Q1018,0,11,0,10000,0,0,0,
2026-04-14 19:20:00,METAR EGSS 141920Z AUTO 18011KT 9999 OVC030 13/06 Q1018,0,11,0,10000,0,0,0,
2026-04-14 18:50:00,METAR EGSS 141850Z AUTO 18010KT 9999 OVC031 14/05 Q1018,0,10,0,10000,0,0,0,
2026-04-14 18:20:00,METAR EGSS 141820Z AUTO 18009KT 9999 BKN032 OVC043 14/05 Q1018,0,9,0,10000,0,0,0,
2026-04-14 17:50:00,METAR EGSS 141750Z AUTO 18011KT 9999 BKN035 OVC046 14/05 Q1018,0,11,0,10000,0,0,0,
2026-04-14 17:20:00,METAR EGSS 141720Z AUTO 18014KT 9999 OVC035 14/04 Q1018,0,14,0,10000,0,0,0,
2026-04-14 16:50:00,METAR EGSS 141650Z AUTO 19013KT 9999 OVC038 15/05 Q1017,0,13,0,10000,0,0,0,
2026-04-14 16:20:00,METAR EGSS 141620Z AUTO 18014KT 9999 BKN041 15/04 Q1017,0,14,0,10000,0,0,0,
2026-04-14 15:50:00,METAR EGSS 141550Z AUTO 17014KT 9999 SCT043 15/04 Q1017,0,14,0,10000,0,0,0,
2026-04-14 15:20:00,METAR EGSS 141520Z AUTO 19014KT 9999 NCD 15/04 Q1017,0,14,0,10000,0,0,0,
2026-04-14 14:50:00,METAR EGSS 141450Z AUTO 18015KT 9999 NCD 16/04 Q1018,0,15,0,10000,0,0,0,
2026-04-14 14:20:00,METAR EGSS 141420Z AUTO 18014KT 9999 NCD 16/05 Q1018,0,14,0,10000,0,0,0,
2026-04-14 13:50:00,METAR EGSS 141350Z 17014KT 9999 SCT048 16/05 Q1018,0,14,0,10000,0,0,0,
2026-04-14 13:20:00,METAR EGSS 141320Z AUTO 16015KT 9999 SCT046 16/05 Q1018,0,15,0,10000,0,0,0,
2026-04-14 12:50:00,METAR EGSS 141250Z AUTO 17013KT 9999 SCT044 16/06 Q1018,0,13,0,10000,0,0,0,
2026-04-14 12:20:00,METAR EGSS 141220Z AUTO 17014KT 140V210 9999 BKN039 BKN048 15/06 Q1018,0,14,0,10000,0,0,0,
2026-04-14 11:50:00,METAR EGSS 141150Z AUTO 17013KT 9999 BKN035 BKN044 15/06 Q1018,0,13,0,10000,0,0,0,
2026-04-14 11:20:00,METAR EGSS 141120Z AUTO 17013KT 9999 BKN033 14/07 Q1018,0,13,0,10000,0,0,0,
2026-04-14 10:50:00,METAR EGSS 141050Z AUTO 17012KT 9999 BKN028 13/07 Q1018,0,12,0,10000,0,0,0,
2026-04-14 10:20:00,METAR EGSS 141020Z AUTO 17011KT 130V200 9999 SCT026 13/07 Q1018,0,11,0,10000,0,0,0,
2026-04-14 09:50:00,METAR EGSS 140950Z AUTO 16009KT 9999 FEW023 12/07 Q1019,0,9,0,10000,0,0,0,
2026-04-14 09:20:00,METAR EGSS 140920Z AUTO 16009KT 9999 FEW020 12/07 Q1019,0,9,0,10000,0,0,0,
2026-04-14 08:50:00,METAR EGSS 140850Z AUTO 18009KT 9999 NCD 11/07 Q1018,0,9,0,10000,0,0,0,
2026-04-14 08:20:00,METAR EGSS 140820Z AUTO 16007KT 9999 NCD 10/07 Q1018,0,7,0,10000,0,0,0,
2026-04-14 07:50:00,METAR EGSS 140750Z AUTO 17007KT 9999 NCD 09/07 Q1018,0,7,0,10000,0,0,0,
2026-04-14 07:20:00,METAR EGSS 140720Z AUTO 17006KT 9999 NCD 07/06 Q1018,0,6,0,10000,0,0,0,
2026-04-14 06:50:00,METAR EGSS 140650Z AUTO 16006KT 9999 NCD 06/05 Q1018,0,6,0,10000,0,0,0,
2026-04-14 06:20:00,METAR EGSS 140620Z AUTO 16004KT 8000 NCD 05/04 Q1017,0,4,0,8000,0,0,0,
2026-04-14 05:50:00,METAR EGSS 140550Z AUTO 16004KT 6000 NCD 04/04 Q1017,0,4,0,6000,0,0,0,
2026-04-14 05:20:00,METAR EGSS 140520Z AUTO 16004KT 9000 NCD 04/03 Q1017,0,4,0,9000,0,0,0,
2026-04-14 04:50:00,METAR EGSS 140450Z AUTO 16003KT 9999 NCD 03/03 Q1017,0,3,0,10000,0,0,0,
2026-04-14 04:20:00,METAR EGSS 140420Z AUTO 20004KT 9999 NCD 03/03 Q1017,0,4,0,10000,0,0,0,
2026-04-14 03:50:00,METAR EGSS 140350Z AUTO 21003KT 9999 NCD 03/03 Q1017,0,3,0,10000,0,0,0,
2026-04-14 03:20:00,METAR EGSS 140320Z AUTO 22005KT 9999 NCD 03/02 Q1016,0,5,0,10000,0,0,0,
2026-04-14 02:50:00,METAR EGSS 140250Z AUTO 22005KT 9999 NCD 03/03 Q1016,0,5,0,10000,0,0,0,
2026-04-14 02:20:00,METAR EGSS 140220Z AUTO 22005KT 9999 NCD 03/03 Q1016,0,5,0,10000,0,0,0,
2026-04-14 01:50:00,METAR EGSS 140150Z AUTO 22004KT 9999 NCD 04/03 Q1016,0,4,0,10000,0,0,0,
2026-04-14 01:20:00,METAR EGSS 140120Z AUTO 20003KT 5000 BR NCD 04/04 Q1016,0,3,0,5000,0,0,1,BR
2026-04-14 00:50:00,METAR EGSS 140050Z AUTO 20003KT 9999 NCD 04/03 Q1016,0,3,0,10000,0,0,0,
2026-04-14 00:20:00,METAR EGSS 140020Z AUTO 18004KT 9999 NCD 05/04 Q1016,0,4,0,10000,0,0,0,
2026-04-13 23:50:00,METAR EGSS 132350Z AUTO 17004KT 9999 NCD 05/04 Q1016,0,4,0,10000,0,0,0,
2026-04-13 23:20:00,METAR EGSS 132320Z AUTO 20006KT 9999 NCD 05/04 Q1015,0,6,0,10000,0,0,0,
2026-04-13 22:50:00,METAR EGSS 132250Z AUTO VRB02KT 9999 NCD 05/04 Q1015,0,2,0,10000,0,0,0,
2026-04-13 22:20:00,METAR EGSS 132220Z AUTO 19004KT 9999 NCD 06/04 Q1015,0,4,0,10000,0,0,0,
2026-04-13 21:50:00,METAR EGSS 132150Z AUTO 18006KT 9999 NCD 06/05 Q1015,0,6,0,10000,0,0,0,
2026-04-13 21:20:00,METAR EGSS 132120Z AUTO 17005KT 9999 NCD 06/05 Q1015,0,5,0,10000,0,0,0,
2026-04-13 20:50:00,METAR EGSS 132050Z AUTO 16006KT 9999 NCD 06/05 Q1015,0,6,0,10000,0,0,0,
2026-04-13 20:20:00,METAR EGSS 132020Z AUTO 16006KT 9999 NCD 07/05 Q1015,0,6,0,10000,0,0,0,
2026-04-13 19:50:00,METAR EGSS 131950Z AUTO 15006KT 9999 NCD 07/05 Q1015,0,6,0,10000,0,0,0,
2026-04-13 19:20:00,METAR EGSS 131920Z AUTO 14006KT 110V180 9999 NCD 07/05 Q1014,0,6,0,10000,0,0,0,
2026-04-13 18:50:00,METAR EGSS 131850Z AUTO 14006KT 120V180 9999 NCD 08/05 Q1014,0,6,0,10000,0,0,0,
2026-04-13 18:20:00,METAR EGSS 131820Z AUTO 14006KT 110V180 9999 NCD 09/06 Q1014,0,6,0,10000,0,0,0,
2026-04-13 17:50:00,METAR EGSS 131750Z AUTO 14007KT 9999 //////CB 09/06 Q1013,0,7,0,10000,0,0,0,
2026-04-13 17:20:00,METAR EGSS 131720Z AUTO 13007KT 9999 -RA FEW043/// //////CB 09/06 Q1014 RERA,0,7,0,10000,0,0,0,"-RA,RA"
2026-04-13 16:50:00,METAR EGSS 131650Z AUTO 19013KT 5000 -RA SCT038/// BKN044/// //////CB 09/06 Q1014,0,13,0,5000,0,0,0,-RA
2026-04-13 16:20:00,METAR EGSS 131620Z AUTO 12008KT 080V160 9999 SCT045/// //////CB 11/06 Q1013,0,8,0,10000,0,0,0,
2026-04-13 15:50:00,METAR EGSS 131550Z AUTO 12009KT 090V150 9999 SCT044/// //////CB 11/05 Q1013,0,9,0,10000,0,0,0,
2026-04-13 15:20:00,METAR EGSS 131520Z AUTO 26004KT 190V300 9999 //////CB 12/03 Q1013,0,4,0,10000,0,0,0,
2026-04-13 14:50:00,METAR EGSS 131450Z AUTO 26007KT 9999 -RA BKN047/// //////CB 12/04 Q1013,0,7,0,10000,0,0,0,-RA
2026-04-13 14:20:00,METAR EGSS 131420Z AUTO 21006KT 9999 -RA //////TCU 12/04 Q1013,0,6,0,10000,0,0,0,-RA
2026-04-13 13:50:00,METAR EGSS 131350Z AUTO VRB02KT 9999 //////CB 13/02 Q1013,0,2,0,10000,0,0,0,
2026-04-13 13:20:00,METAR EGSS 131320Z AUTO 27003KT 200V320 9999 NCD 13/03 Q1013,0,3,0,10000,0,0,0,
2026-04-13 12:50:00,METAR EGSS 131250Z AUTO 18006KT 160V230 9999 SCT043 12/03 Q1013,0,6,0,10000,0,0,0,
2026-04-13 12:20:00,METAR EGSS 131220Z AUTO VRB03KT 9999 FEW041 12/02 Q1013,0,3,0,10000,0,0,0,
2026-04-13 11:50:00,METAR EGSS 131150Z AUTO 21006KT 180V250 9999 NCD 12/03 Q1013,0,6,0,10000,0,0,0,
2026-04-13 11:20:00,METAR EGSS 131120Z AUTO 28003KT 210V310 9999 FEW031 SCT044 11/04 Q1013,0,3,0,10000,0,0,0,
2026-04-13 10:50:00,METAR EGSS 131050Z AUTO 21006KT 160V240 9999 SCT031 12/05 Q1013,0,6,0,10000,0,0,0,
2026-04-13 10:20:00,METAR EGSS 131020Z AUTO 19003KT 170V260 9999 SCT028 SCT037 BKN044 10/04 Q1013,0,3,0,10000,0,0,0,
2026-04-13 09:50:00,METAR EGSS 130950Z AUTO 22004KT 160V280 9999 FEW024 10/05 Q1013,0,4,0,10000,0,0,0,
2026-04-13 09:20:00,METAR EGSS 130920Z AUTO 24005KT 9999 FEW021 10/05 Q1013,0,5,0,10000,0,0,0,
2026-04-13 08:50:00,METAR EGSS 130850Z AUTO VRB02KT 9999 NCD 10/05 Q1014,0,2,0,10000,0,0,0,
2026-04-13 08:20:00,METAR EGSS 130820Z AUTO 18003KT 100V250 9999 NCD 09/05 Q1014,0,3,0,10000,0,0,0,
2026-04-13 07:50:00,METAR EGSS 130750Z AUTO VRB02KT 9999 NCD 08/05 Q1014,0,2,0,10000,0,0,0,
2026-04-13 07:20:00,METAR EGSS 130720Z AUTO 24003KT 210V280 9999 NCD 07/05 Q1014,0,3,0,10000,0,0,0,
2026-04-13 06:50:00,METAR EGSS 130650Z AUTO 18004KT 9999 NCD 05/04 Q1013,0,4,0,10000,0,0,0,
2026-04-13 06:20:00,METAR EGSS 130620Z 17003KT 140V210 CAVOK 04/04 Q1013,1,0,0,9999,0,0,0,
2026-04-13 05:50:00,METAR EGSS 130550Z AUTO 16003KT 140V200 9000 NCD 03/03 Q1013,0,3,0,9000,0,0,0,
2026-04-13 05:20:00,METAR EGSS 130520Z AUTO VRB02KT 7000 NCD 02/02 Q1013,0,2,0,7000,0,0,0,
2026-04-13 04:50:00,METAR EGSS 130450Z 27001KT 8000 VCFG NSC 02/01 Q1013,0,1,0,8000,0,0,1,"FG,VC"
2026-04-13 04:20:00,METAR EGSS 130420Z AUTO 22003KT 9999 NCD 03/02 Q1013,0,3,0,10000,0,0,0,
2026-04-13 03:50:00,METAR EGSS 130350Z AUTO 15003KT 9999 NCD 03/02 Q1013,0,3,0,10000,0,0,0,
2026-04-13 03:20:00,METAR EGSS 130320Z AUTO VRB02KT 9999 NCD 03/02 Q1013,0,2,0,10000,0,0,0,
2026-04-13 02:50:00,METAR EGSS 130250Z AUTO 18003KT 130V220 9999 NCD 03/02 Q1012,0,3,0,10000,0,0,0,
2026-04-13 02:20:00,METAR EGSS 130220Z AUTO 20002KT 9999 NCD 04/03 Q1012,0,2,0,10000,0,0,0,
2026-04-13 01:50:00,METAR EGSS 130150Z AUTO 22003KT 9999 NCD 04/03 Q1012,0,3,0,10000,0,0,0,
2026-04-13 01:20:00,METAR EGSS 130120Z AUTO 19002KT 9999 NCD 04/02 Q1012,0,2,0,10000,0,0,0,
2026-04-13 00:50:00,METAR EGSS 130050Z AUTO 18003KT 9999 NCD 04/02 Q1012,0,3,0,10000,0,0,0,
2026-04-13 00:20:00,METAR EGSS 130020Z AUTO 23005KT 9999 NCD 03/02 Q1013,0,5,0,10000,0,0,0,
2026-04-12 23:50:00,METAR EGSS 122350Z 21003KT 170V230 CAVOK 05/03 Q1013,1,0,0,9999,0,0,0,
2026-04-12 23:20:00,METAR EGSS 122320Z 19003KT CAVOK 05/03 Q1013,1,0,0,9999,0,0,0,
2026-04-12 22:50:00,METAR EGSS 122250Z AUTO 22005KT 9999 NCD 05/03 Q1012,0,5,0,10000,0,0,0,
2026-04-12 22:20:00,METAR EGSS 122220Z AUTO 22004KT 9999 NCD 05/03 Q1012,0,4,0,10000,0,0,0,
2026-04-12 21:50:00,METAR EGSS 122150Z AUTO 20006KT 9999 NCD 06/04 Q1012,0,6,0,10000,0,0,0,
2026-04-12 21:20:00,METAR EGSS 122120Z AUTO 22005KT 9999 NCD 05/03 Q1012,0,5,0,10000,0,0,0,
2026-04-12 20:50:00,METAR EGSS 122050Z AUTO 20005KT 9999 NCD 07/03 Q1012,0,5,0,10000,0,0,0,
2026-04-12 20:20:00,METAR EGSS 122020Z AUTO 21007KT 9999 NCD 07/04 Q1012,0,7,0,10000,0,0,0,
2026-04-12 19:50:00,METAR EGSS 121950Z AUTO 19006KT 9999 NCD 08/04 Q1012,0,6,0,10000,0,0,0,
2026-04-12 19:20:00,METAR EGSS 121920Z AUTO 17006KT 9999 NCD 08/04 Q1012,0,6,0,10000,0,0,0,
2026-04-12 18:50:00,METAR EGSS 121850Z AUTO 17006KT 9999 //////TCU 08/04 Q1012,0,6,0,10000,0,0,0,
2026-04-12 18:20:00,METAR EGSS 121820Z AUTO 20009KT 9999 NCD 10/04 Q1011,0,9,0,10000,0,0,0,
2026-04-12 17:50:00,METAR EGSS 121750Z AUTO 25006KT 9999 NCD 10/04 Q1011,0,6,0,10000,0,0,0,
2026-04-12 17:20:00,METAR EGSS 121720Z AUTO 26009KT 230V300 9999 //////CB 09/05 Q1011,0,9,0,10000,0,0,0,
2026-04-12 16:50:00,METAR EGSS 121650Z AUTO 26010KT 230V290 9999 -RA //////CB 10/05 Q1011,0,10,0,10000,0,0,0,-RA
2026-04-12 16:20:00,METAR EGSS 121620Z AUTO 24014KT 9999 //////CB 12/03 Q1010,0,14,0,10000,0,0,0,
2026-04-12 15:50:00,METAR EGSS 121550Z AUTO 24015KT 9999 //////CB 13/04 Q1010,0,15,0,10000,0,0,0,
2026-04-12 14:50:00,METAR EGSS 121450Z AUTO 23021KT 5000 -RA FEW030/// SCT046/// //////CB 11/03 Q1010,0,21,0,5000,0,0,0,-RA
2026-04-12 14:20:00,METAR EGSS 121420Z AUTO 21017KT 9999 //////CB 14/02 Q1009,0,17,0,10000,0,0,0,
2026-04-12 13:50:00,METAR EGSS 121350Z AUTO 20017KT 9999 SCT047/// //////CB 15/03 Q1009,0,17,0,10000,0,0,0,
2026-04-12 13:20:00,METAR EGSS 121320Z AUTO 22015KT 200V260 9999 FEW046 15/04 Q1010,0,15,0,10000,0,0,0,
2026-04-12 12:50:00,METAR EGSS 121250Z AUTO 21017KT 9999 SCT044 14/04 Q1010,0,17,0,10000,0,0,0,
2026-04-12 12:20:00,METAR EGSS 121220Z AUTO 21017KT 9999 SCT045 15/04 Q1010,0,17,0,10000,0,0,0,
2026-04-12 11:50:00,METAR EGSS 121150Z AUTO 22015KT 9999 SCT047 14/03 Q1010,0,15,0,10000,0,0,0,
2026-04-12 11:20:00,METAR EGSS 121120Z AUTO 21016KT 9999 SCT043 12/03 Q1010,0,16,0,10000,0,0,0,
2026-04-12 10:50:00,METAR EGSS 121050Z AUTO 22017KT 200V260 9999 SCT041 13/03 Q1010,0,17,0,10000,0,0,0,
2026-04-12 10:20:00,METAR EGSS 121020Z AUTO 20018KT 9999 BKN040 13/03 Q1010,0,18,0,10000,0,0,0,
2026-04-12 09:50:00,METAR EGSS 120950Z AUTO 21018KT 180V240 9999 SCT037 12/03 Q1010,0,18,0,10000,0,0,0,
2026-04-12 09:20:00,METAR EGSS 120920Z AUTO 20016KT 9999 SCT033 12/04 Q1010,0,16,0,10000,0,0,0,
2026-04-12 08:50:00,METAR EGSS 120850Z AUTO 21017KT 9999 SCT029 SCT034 11/04 Q1010,0,17,0,10000,0,0,0,
2026-04-12 08:20:00,METAR EGSS 120820Z AUTO 20016KT 9999 SCT028 11/04 Q1010,0,16,0,10000,0,0,0,
2026-04-12 07:50:00,METAR EGSS 120750Z AUTO 20014KT 9999 FEW028 10/04 Q1010,0,14,0,10000,0,0,0,
2026-04-12 07:20:00,METAR EGSS 120720Z AUTO 20014KT 9999 NCD 09/04 Q1010,0,14,0,10000,0,0,0,
2026-04-12 06:50:00,METAR EGSS 120650Z 20011KT CAVOK 09/04 Q1010,1,0,0,9999,0,0,0,
2026-04-12 06:20:00,METAR EGSS 120620Z AUTO 20013KT 9999 BKN028 BKN036 08/04 Q1009,0,13,0,10000,0,0,0,
2026-04-12 05:50:00,METAR EGSS 120550Z AUTO 20013KT 9999 NCD 08/04 Q1009,0,13,0,10000,0,0,0,
2026-04-12 05:20:00,METAR EGSS 120520Z AUTO 20013KT 9999 SCT031 07/04 Q1009,0,13,0,10000,0,0,0,
2026-04-12 04:50:00,METAR EGSS 120450Z AUTO 20014KT 9999 BKN033 07/04 Q1009,0,14,0,10000,0,0,0,
2026-04-12 04:20:00,METAR EGSS 120420Z AUTO 21015KT 9999 SCT034 07/04 Q1008,0,15,0,10000,0,0,0,
2026-04-12 03:50:00,METAR EGSS 120350Z AUTO 21014KT 9999 NCD 08/04 Q1008,0,14,0,10000,0,0,0,
2026-04-12 03:20:00,METAR EGSS 120320Z AUTO 21013KT 9999 BKN024 08/04 Q1008,0,13,0,10000,0,0,0,
2026-04-12 02:50:00,METAR EGSS 120250Z AUTO 21015KT 9999 NCD 08/04 Q1008,0,15,0,10000,0,0,0,
2026-04-12 02:20:00,METAR EGSS 120220Z AUTO 21018KT 9999 SCT027 08/04 Q1008,0,18,0,10000,0,0,0,
2026-04-12 01:50:00,METAR EGSS 120150Z AUTO 20015KT 9999 BKN026 08/04 Q1008,0,15,0,10000,0,0,0,
2026-04-12 01:20:00,METAR EGSS 120120Z AUTO 21018KT 9999 NCD 08/04 Q1008,0,18,0,10000,0,0,0,
2026-04-12 00:50:00,METAR EGSS 120050Z AUTO 21017KT 9999 NCD 08/03 Q1008,0,17,0,10000,0,0,0,
2026-04-12 00:20:00,METAR EGSS 120020Z AUTO 21020KT 9999 NCD 08/03 Q1008,0,20,0,10000,0,0,0,
2026-04-11 23:50:00,METAR EGSS 112350Z AUTO 21017KT 9999 NCD 08/03 Q1008,0,17,0,10000,0,0,0,
2026-04-11 23:20:00,METAR EGSS 112320Z AUTO 20019KT 9999 NCD 08/03 Q1008,0,19,0,10000,0,0,0,
2026-04-11 22:50:00,METAR EGSS 112250Z AUTO 20016KT 9999 SCT032 08/03 Q1008,0,16,0,10000,0,0,0,
2026-04-11 22:20:00,METAR EGSS 112220Z AUTO 19015KT 9999 BKN032 08/03 Q1008,0,15,0,10000,0,0,0,
2026-04-11 21:50:00,METAR EGSS 112150Z AUTO 19014KT 9999 FEW041 07/02 Q1008,0,14,0,10000,0,0,0,
2026-04-11 21:20:00,METAR EGSS 112120Z AUTO 19015KT 9999 NCD 07/02 Q1008,0,15,0,10000,0,0,0,
2026-04-11 20:50:00,METAR EGSS 112050Z AUTO 19014KT 9999 NCD 08/01 Q1008,0,14,0,10000,0,0,0,
2026-04-11 20:20:00,METAR EGSS 112020Z AUTO 20015KT 9999 NCD 08/00 Q1008,0,15,0,10000,0,0,0,
2026-04-11 19:50:00,METAR EGSS 111950Z AUTO 20014KT 9999 NCD 08/00 Q1008,0,14,0,10000,0,0,0,
2026-04-11 19:20:00,METAR EGSS 111920Z AUTO 21017KT 9999 NCD 09/M01 Q1008,0,17,0,10000,0,0,0,
2026-04-11 18:50:00,METAR EGSS 111850Z AUTO 20013KT 9999 NCD 09/M02 Q1008,0,13,0,10000,0,0,0,
2026-04-11 18:20:00,METAR EGSS 111820Z 22013KT CAVOK 09/M02 Q1007,1,0,0,9999,0,0,0,
2026-04-11 17:50:00,METAR EGSS 111750Z 22012KT CAVOK 10/M01 Q1007,1,0,0,9999,0,0,0,
2026-04-11 17:20:00,METAR EGSS 111720Z 23011KT CAVOK 10/M01 Q1007,1,0,0,9999,0,0,0,
2026-04-11 16:50:00,METAR EGSS 111650Z AUTO 26011KT 9999 //////CB 10/01 Q1007,0,11,0,10000,0,0,0,
2026-04-11 16:20:00,METAR EGSS 111620Z AUTO 23014KT 9999 //////CB 11/M00 Q1007,0,14,0,10000,0,0,0,
2026-04-11 15:50:00,METAR EGSS 111550Z AUTO 25015G25KT 9999 //////TCU 11/M00 Q1007,0,15,1,10000,0,0,0,
2026-04-11 15:20:00,METAR EGSS 111520Z AUTO 24016KT 210V270 9999 NCD 12/M00 Q1006,0,16,0,10000,0,0,0,
2026-04-11 14:50:00,METAR EGSS 111450Z AUTO 23019KT 210V270 9999 NCD 11/M02 Q1006,0,19,0,10000,0,0,0,
2026-04-11 14:20:00,METAR EGSS 111420Z AUTO 24018G28KT 9999 NCD 12/M02 Q1006,0,18,1,10000,0,0,0,
2026-04-11 13:50:00,METAR EGSS 111350Z AUTO 25014G26KT 220V280 9999 NCD 12/M01 Q1006,0,14,1,10000,0,0,0,
2026-04-11 13:20:00,METAR EGSS 111320Z AUTO 25014KT 220V310 9999 NCD 12/00 Q1005,0,14,0,10000,0,0,0,
2026-04-11 12:50:00,METAR EGSS 111250Z AUTO 25015KT 9999 FEW046 11/01 Q1005,0,15,0,10000,0,0,0,
2026-04-11 12:20:00,METAR EGSS 111220Z AUTO 26013KT 240V310 9999 FEW032 SCT040 11/01 Q1005,0,13,0,10000,0,0,0,
2026-04-11 11:50:00,METAR EGSS 111150Z AUTO 26010KT 220V300 9999 NCD 10/03 Q1005,0,10,0,10000,0,0,0,
2026-04-11 11:20:00,METAR EGSS 111120Z AUTO 26011KT 230V290 9999 NCD 09/02 Q1005,0,11,0,10000,0,0,0,
2026-04-11 10:50:00,METAR EGSS 111050Z AUTO 27010KT 9999 BKN047 09/02 Q1005,0,10,0,10000,0,0,0,
2026-04-11 10:20:00,METAR EGSS 111020Z AUTO 28008KT 240V310 9999 FEW013 OVC035 08/04 Q1004,0,8,0,10000,0,0,0,
2026-04-11 09:50:00,METAR EGSS 110950Z 26013KT 9999 SCT010 BKN019 BKN025 07/05 Q1004,0,13,0,10000,0,0,0,
2026-04-11 09:20:00,METAR EGSS 110920Z 27012KT 240V300 9999 -RA FEW010 OVC015 08/06 Q1004,0,12,0,10000,0,0,0,-RA
2026-04-11 08:50:00,METAR EGSS 110850Z AUTO 18011KT 9999 OVC019 11/07 Q1003,0,11,0,10000,0,0,0,
2026-04-11 08:20:00,METAR EGSS 110820Z AUTO 18011KT 9999 BKN021 OVC044 11/07 Q1003,0,11,0,10000,0,0,0,
2026-04-11 07:50:00,METAR EGSS 110750Z AUTO 17011KT 9999 BKN037 OVC048 11/06 Q1003,0,11,0,10000,0,0,0,
2026-04-11 07:20:00,METAR EGSS 110720Z 17012KT 9999 BKN028 OVC035 11/06 Q1003,0,12,0,10000,0,0,0,
2026-04-11 06:50:00,METAR EGSS 110650Z AUTO 16013KT 9999 SCT030 OVC043 10/06 Q1003,0,13,0,10000,0,0,0,
2026-04-11 06:20:00,METAR EGSS 110620Z AUTO 16010KT 9999 FEW033 BKN039 10/05 Q1003,0,10,0,10000,0,0,0,
2026-04-11 05:50:00,METAR EGSS 110550Z AUTO 15011KT 9999 BKN038 BKN045 10/04 Q1003,0,11,0,10000,0,0,0,
2026-04-11 05:20:00,METAR EGSS 110520Z AUTO 15013KT 9999 BKN038 OVC044 10/04 Q1003,0,13,0,10000,0,0,0,
2026-04-11 04:50:00,METAR EGSS 110450Z AUTO 14012KT 9999 BKN040 09/04 Q1004,0,12,0,10000,0,0,0,
2026-04-11 04:20:00,METAR EGSS 110420Z AUTO 14012KT 9999 BKN048 09/03 Q1004,0,12,0,10000,0,0,0,
2026-04-11 03:50:00,METAR EGSS 110350Z AUTO 13011KT 9999 NCD 08/03 Q1005,0,11,0,10000,0,0,0,
2026-04-11 03:20:00,METAR EGSS 110320Z AUTO 14012KT 9999 NCD 08/03 Q1006,0,12,0,10000,0,0,0,
2026-04-11 02:50:00,METAR EGSS 110250Z AUTO 14011KT 9999 NCD 08/03 Q1006,0,11,0,10000,0,0,0,
2026-04-11 02:20:00,METAR EGSS 110220Z AUTO 13013KT 9999 NCD 08/04 Q1006,0,13,0,10000,0,0,0,
2026-04-11 01:50:00,METAR EGSS 110150Z AUTO 14012KT 9999 NCD 08/04 Q1007,0,12,0,10000,0,0,0,
2026-04-11 01:20:00,METAR EGSS 110120Z AUTO 13013KT 9999 NCD 08/04 Q1008,0,13,0,10000,0,0,0,
2026-04-11 00:50:00,METAR EGSS 110050Z AUTO 13014KT 9999 NCD 09/04 Q1008,0,14,0,10000,0,0,0,
2026-04-11 00:20:00,METAR EGSS 110020Z AUTO 13014KT 9999 NCD 08/04 Q1009,0,14,0,10000,0,0,0,
2026-04-10 23:50:00,METAR EGSS 102350Z AUTO 13012KT 9999 NCD 08/05 Q1010,0,12,0,10000,0,0,0,
2026-04-10 23:20:00,METAR EGSS 102320Z AUTO 13013KT 9999 NCD 08/04 Q1011,0,13,0,10000,0,0,0,
2026-04-10 22:50:00,METAR EGSS 102250Z AUTO 14011KT 9999 NCD 08/02 Q1011,0,11,0,10000,0,0,0,
2026-04-10 22:20:00,METAR EGSS 102220Z AUTO 15011KT 9999 NCD 08/02 Q1012,0,11,0,10000,0,0,0,
2026-04-10 21:50:00,METAR EGSS 102150Z AUTO 15010KT 9999 NCD 08/01 Q1012,0,10,0,10000,0,0,0,
2026-04-10 21:20:00,METAR EGSS 102120Z AUTO 15011KT 9999 NCD 08/01 Q1012,0,11,0,10000,0,0,0,
2026-04-10 20:50:00,METAR EGSS 102050Z AUTO 16010KT 9999 NCD 08/01 Q1013,0,10,0,10000,0,0,0,
2026-04-10 20:20:00,METAR EGSS 102020Z AUTO 16011KT 9999 NCD 09/01 Q1013,0,11,0,10000,0,0,0,
2026-04-10 19:50:00,METAR EGSS 101950Z AUTO 16009KT 9999 NCD 09/M00 Q1013,0,9,0,10000,0,0,0,
2026-04-10 19:20:00,METAR EGSS 101920Z AUTO 16009KT 9999 NCD 10/M00 Q1013,0,9,0,10000,0,0,0,
2026-04-10 18:50:00,METAR EGSS 101850Z AUTO 15010KT 9999 NCD 10/M01 Q1013,0,10,0,10000,0,0,0,
2026-04-10 18:20:00,METAR EGSS 101820Z AUTO 14010KT 9999 NCD 10/02 Q1013,0,10,0,10000,0,0,0,
2026-04-10 17:50:00,METAR EGSS 101750Z AUTO 13011KT 9999 NCD 10/03 Q1014,0,11,0,10000,0,0,0,
2026-04-10 17:20:00,METAR EGSS 101720Z AUTO 15010KT 130V190 9999 NCD 11/M00 Q1014,0,10,0,10000,0,0,0,
2026-04-10 16:50:00,METAR EGSS 101650Z AUTO 17010KT 9999 NCD 11/M01 Q1015,0,10,0,10000,0,0,0,
2026-04-10 16:20:00,METAR EGSS 101620Z AUTO 16011KT 9999 NCD 12/M00 Q1015,0,11,0,10000,0,0,0,
2026-04-10 15:50:00,METAR EGSS 101550Z AUTO 17012KT 9999 NCD 12/M00 Q1016,0,12,0,10000,0,0,0,
2026-04-10 15:20:00,METAR EGSS 101520Z 18010KT CAVOK 12/M01 Q1016,1,0,0,9999,0,0,0,
2026-04-10 14:50:00,METAR EGSS 101450Z 19009KT 150V220 CAVOK 12/00 Q1017,1,0,0,9999,0,0,0,
2026-04-10 14:20:00,METAR EGSS 101420Z AUTO 16007KT 060V220 9999 NCD 12/01 Q1017,0,7,0,10000,0,0,0,
2026-04-10 13:50:00,METAR EGSS 101350Z AUTO 17008KT 130V210 9999 NCD 11/M00 Q1018,0,8,0,10000,0,0,0,
2026-04-10 13:20:00,METAR EGSS 101320Z AUTO 21007KT 160V250 9999 NCD 12/M01 Q1018,0,7,0,10000,0,0,0,
2026-04-10 12:50:00,METAR EGSS 101250Z AUTO 23007KT 180V270 9999 BKN045 11/01 Q1019,0,7,0,10000,0,0,0,
2026-04-10 12:20:00,METAR EGSS 101220Z AUTO 22007KT 170V250 9999 SCT043 10/01 Q1019,0,7,0,10000,0,0,0,
2026-04-10 11:50:00,METAR EGSS 101150Z AUTO 23007KT 200V280 9999 FEW039 10/01 Q1019,0,7,0,10000,0,0,0,
2026-04-10 11:20:00,METAR EGSS 101120Z AUTO 23005KT 140V310 9999 FEW039 10/01 Q1020,0,5,0,10000,0,0,0,
2026-04-10 10:50:00,METAR EGSS 101050Z AUTO 20008KT 160V230 9999 SCT036 10/01 Q1020,0,8,0,10000,0,0,0,
2026-04-10 10:20:00,METAR EGSS 101020Z AUTO 24006KT 190V270 9999 NCD 09/01 Q1021,0,6,0,10000,0,0,0,
2026-04-10 09:50:00,METAR EGSS 100950Z AUTO 30004KT 240V010 9999 NCD 09/02 Q1021,0,4,0,10000,0,0,0,
2026-04-10 09:20:00,METAR EGSS 100920Z AUTO 29004KT 220V350 9999 NCD 08/01 Q1021,0,4,0,10000,0,0,0,
2026-04-10 08:50:00,METAR EGSS 100850Z AUTO 28005KT 240V330 9999 NCD 08/02 Q1021,0,5,0,10000,0,0,0,
2026-04-10 08:20:00,METAR EGSS 100820Z AUTO 29004KT 230V330 9999 NCD 07/02 Q1020,0,4,0,10000,0,0,0,
2026-04-10 07:50:00,METAR EGSS 100750Z AUTO 27003KT 210V320 9999 NCD 07/02 Q1020,0,3,0,10000,0,0,0,
2026-04-10 07:20:00,METAR EGSS 100720Z AUTO 35006KT 280V020 9999 NCD 06/02 Q1019,0,6,0,10000,0,0,0,
2026-04-10 06:50:00,METAR EGSS 100650Z AUTO 31004KT 270V350 9999 NCD 05/02 Q1020,0,4,0,10000,0,0,0,
2026-04-10 06:20:00,METAR EGSS 100620Z AUTO 31003KT 250V350 9999 NCD 05/01 Q1020,0,3,0,10000,0,0,0,
2026-04-10 05:50:00,METAR EGSS 100550Z AUTO 26002KT 9999 NCD 05/01 Q1020,0,2,0,10000,0,0,0,
2026-04-10 05:20:00,METAR EGSS 100520Z AUTO VRB02KT 9999 NCD 05/01 Q1020,0,2,0,10000,0,0,0,
2026-04-10 04:50:00,METAR EGSS 100450Z AUTO 34005KT 9999 NCD 05/01 Q1020,0,5,0,10000,0,0,0,
2026-04-10 04:20:00,METAR EGSS 100420Z AUTO 33007KT 9999 NCD 05/01 Q1020,0,7,0,10000,0,0,0,
2026-04-10 03:50:00,METAR EGSS 100350Z AUTO 33007KT 9999 NCD 05/01 Q1021,0,7,0,10000,0,0,0,
2026-04-10 03:20:00,METAR EGSS 100320Z AUTO 31007KT 270V340 9999 NCD 06/01 Q1022,0,7,0,10000,0,0,0,
2026-04-10 02:50:00,METAR EGSS 100250Z AUTO 28006KT 9999 NCD 06/01 Q1022,0,6,0,10000,0,0,0,
2026-04-10 02:20:00,METAR EGSS 100220Z AUTO 27006KT 240V300 9999 NCD 06/01 Q1022,0,6,0,10000,0,0,0,
2026-04-10 01:50:00,METAR EGSS 100150Z AUTO 28006KT 240V300 9999 NCD 06/01 Q1022,0,6,0,10000,0,0,0,
2026-04-10 01:20:00,METAR EGSS 100120Z AUTO 26007KT 9999 NCD 06/01 Q1022,0,7,0,10000,0,0,0,
2026-04-10 00:50:00,METAR EGSS 100050Z AUTO 26008KT 230V290 9999 NCD 06/01 Q1022,0,8,0,10000,0,0,0,
2026-04-10 00:20:00,METAR EGSS 100020Z AUTO 26009KT 9999 NCD 05/01 Q1021,0,9,0,10000,0,0,0,
2026-04-09 23:50:00,METAR EGSS 092350Z AUTO 26008KT 9999 NCD 05/00 Q1021,0,8,0,10000,0,0,0,
2026-04-09 23:20:00,METAR EGSS 092320Z AUTO 24008KT 9999 NCD 05/00 Q1021,0,8,0,10000,0,0,0,
2026-04-09 22:50:00,METAR EGSS 092250Z AUTO 25007KT 9999 SCT043 06/01 Q1020,0,7,0,10000,0,0,0,
2026-04-09 22:20:00,METAR EGSS 092220Z AUTO 26005KT 9999 SCT039 06/01 Q1020,0,5,0,10000,0,0,0,
2026-04-09 21:50:00,METAR EGSS 092150Z AUTO 27005KT 250V310 9999 NCD 06/02 Q1019,0,5,0,10000,0,0,0,
2026-04-09 21:20:00,METAR EGSS 092120Z AUTO 25003KT 9999 NCD 07/01 Q1019,0,3,0,10000,0,0,0,
2026-04-09 20:50:00,METAR EGSS 092050Z AUTO 29004KT 250V320 9999 SCT036 07/01 Q1019,0,4,0,10000,0,0,0,
2026-04-09 20:20:00,METAR EGSS 092020Z AUTO 31009KT 9999 FEW047 08/00 Q1019,0,9,0,10000,0,0,0,
2026-04-09 19:50:00,METAR EGSS 091950Z AUTO 31013KT 280V340 9999 SCT031 BKN043 10/02 Q1019,0,13,0,10000,0,0,0,
2026-04-09 19:20:00,METAR EGSS 091920Z AUTO 29012KT 260V330 9999 SCT044 10/04 Q1018,0,12,0,10000,0,0,0,
2026-04-09 18:50:00,METAR EGSS 091850Z AUTO 30012KT 260V330 9999 BKN035 OVC049 11/04 Q1017,0,12,0,10000,0,0,0,
2026-04-09 18:20:00,METAR EGSS 091820Z AUTO 29007KT 250V340 9999 FEW024 BKN030 BKN041 12/08 Q1016,0,7,0,10000,0,0,0,
2026-04-09 17:50:00,METAR EGSS 091750Z AUTO 27005KT 240V300 9999 FEW027 BKN047 12/08 Q1016,0,5,0,10000,0,0,0,
2026-04-09 17:20:00,METAR EGSS 091720Z 29007KT 9999 FEW033 BKN039 12/08 Q1016,0,7,0,10000,0,0,0,
2026-04-09 16:50:00,METAR EGSS 091650Z AUTO 27016KT 9999 BKN021 OVC030 12/08 Q1016,0,16,0,10000,0,0,0,
2026-04-09 16:20:00,METAR EGSS 091620Z AUTO 26010KT 230V300 9999 SCT037 15/07 Q1015,0,10,0,10000,0,0,0,
2026-04-09 15:50:00,METAR EGSS 091550Z AUTO 24011KT 9999 NCD 15/06 Q1015,0,11,0,10000,0,0,0,
2026-04-09 15:20:00,METAR EGSS 091520Z 25010KT CAVOK 16/05 Q1015,1,0,0,9999,0,0,0,
2026-04-09 14:50:00,METAR EGSS 091450Z AUTO 27008KT 240V300 9999 NCD 17/07 Q1015,0,8,0,10000,0,0,0,
2026-04-09 14:20:00,METAR EGSS 091420Z AUTO 26010KT 9999 FEW041 18/10 Q1015,0,10,0,10000,0,0,0,
2026-04-09 13:50:00,METAR EGSS 091350Z 26009KT 9999 SCT040 18/11 Q1015,0,9,0,10000,0,0,0,
2026-04-09 13:20:00,METAR EGSS 091320Z AUTO 25009KT 220V290 9999 NCD 19/12 Q1015,0,9,0,10000,0,0,0,
2026-04-09 12:50:00,METAR EGSS 091250Z AUTO 22014KT 9999 NCD 20/11 Q1016,0,14,0,10000,0,0,0,
2026-04-09 12:20:00,METAR EGSS 091220Z AUTO 24011KT 9999 NCD 21/11 Q1016,0,11,0,10000,0,0,0,
2026-04-09 11:50:00,METAR EGSS 091150Z 23012KT CAVOK 20/11 Q1016,1,0,0,9999,0,0,0,
2026-04-09 11:20:00,METAR EGSS 091120Z AUTO 24010KT 210V280 9999 NCD 20/11 Q1016,0,10,0,10000,0,0,0,
2026-04-09 10:50:00,METAR EGSS 091050Z AUTO 23008KT 9999 NCD 20/13 Q1016,0,8,0,10000,0,0,0,
2026-04-09 10:20:00,METAR EGSS 091020Z AUTO 22010KT 9999 NCD 20/12 Q1017,0,10,0,10000,0,0,0,
2026-04-09 09:50:00,METAR EGSS 090950Z AUTO 23009KT 9999 NCD 19/13 Q1017,0,9,0,10000,0,0,0,
2026-04-09 09:20:00,METAR EGSS 090920Z AUTO 23009KT 9999 NCD 18/13 Q1017,0,9,0,10000,0,0,0,
2026-04-09 08:50:00,METAR EGSS 090850Z AUTO 22007KT 9999 NCD 17/13 Q1017,0,7,0,10000,0,0,0,
2026-04-09 08:20:00,METAR EGSS 090820Z AUTO 22006KT 9999 NCD 16/12 Q1017,0,6,0,10000,0,0,0,
2026-04-09 07:50:00,METAR EGSS 090750Z AUTO 23005KT 9999 NCD 16/12 Q1018,0,5,0,10000,0,0,0,
2026-04-09 07:20:00,METAR EGSS 090720Z AUTO 23004KT 9999 NCD 14/12 Q1018,0,4,0,10000,0,0,0,
2026-04-09 06:50:00,METAR EGSS 090650Z 21003KT CAVOK 13/11 Q1018,1,0,0,9999,0,0,0,
2026-04-09 06:20:00,METAR EGSS 090620Z AUTO 25003KT 8000 NCD 12/10 Q1018,0,3,0,8000,0,0,0,
2026-04-09 05:50:00,METAR EGSS 090550Z AUTO 22005KT 8000 NCD 11/10 Q1018,0,5,0,8000,0,0,0,
2026-04-09 05:20:00,METAR EGSS 090520Z AUTO 21002KT 6000 NCD 11/10 Q1018,0,2,0,6000,0,0,0,
2026-04-09 04:50:00,METAR EGSS 090450Z AUTO 21002KT 7000 NCD 11/10 Q1018,0,2,0,7000,0,0,0,
2026-04-09 04:20:00,METAR EGSS 090420Z AUTO 22003KT 8000 NCD 11/10 Q1018,0,3,0,8000,0,0,0,
2026-04-09 03:50:00,METAR EGSS 090350Z AUTO 23002KT 8000 NCD 12/09 Q1019,0,2,0,8000,0,0,0,
2026-04-09 03:20:00,METAR EGSS 090320Z AUTO 24003KT 9000 NCD 11/09 Q1019,0,3,0,9000,0,0,0,
2026-04-09 02:50:00,METAR EGSS 090250Z AUTO 26002KT 9999 NCD 11/08 Q1019,0,2,0,10000,0,0,0,
2026-04-09 02:20:00,METAR EGSS 090220Z AUTO 19002KT 9999 NCD 12/08 Q1019,0,2,0,10000,0,0,0,
2026-04-09 01:50:00,METAR EGSS 090150Z AUTO 27002KT 9999 NCD 10/08 Q1019,0,2,0,10000,0,0,0,
2026-04-09 01:20:00,METAR EGSS 090120Z AUTO 28003KT 9999 NCD 11/08 Q1019,0,3,0,10000,0,0,0,
2026-04-09 00:50:00,METAR EGSS 090050Z AUTO 20002KT 9999 NCD 12/08 Q1020,0,2,0,10000,0,0,0,
2026-04-09 00:20:00,METAR EGSS 090020Z AUTO 18002KT 9999 NCD 11/08 Q1020,0,2,0,10000,0,0,0,
2026-04-08 23:50:00,METAR EGSS 082350Z AUTO 32001KT 9999 NCD 11/08 Q1020,0,1,0,10000,0,0,0,
2026-04-08 23:20:00,METAR EGSS 082320Z AUTO 33002KT 9999 NCD 10/07 Q1020,0,2,0,10000,0,0,0,
2026-04-08 22:50:00,METAR EGSS 082250Z AUTO 18001KT 9999 NCD 11/08 Q1020,0,1,0,10000,0,0,0,
2026-04-08 22:20:00,METAR EGSS 082220Z AUTO 15003KT 120V200 9999 NCD 13/08 Q1020,0,3,0,10000,0,0,0,
2026-04-08 21:50:00,METAR EGSS 082150Z AUTO 14005KT 120V210 9999 NCD 14/08 Q1020,0,5,0,10000,0,0,0,
2026-04-08 21:20:00,METAR EGSS 082120Z AUTO 11005KT 050V170 9999 NCD 14/08 Q1021,0,5,0,10000,0,0,0,
2026-04-08 20:50:00,METAR EGSS 082050Z AUTO 12005KT 090V160 9999 NCD 15/08 Q1021,0,5,0,10000,0,0,0,
2026-04-08 20:20:00,METAR EGSS 082020Z AUTO 12005KT 090V180 9999 NCD 16/08 Q1021,0,5,0,10000,0,0,0,
2026-04-08 19:50:00,METAR EGSS 081950Z AUTO 11006KT 070V160 9999 NCD 17/08 Q1021,0,6,0,10000,0,0,0,
2026-04-08 19:20:00,METAR EGSS 081920Z AUTO 11003KT 070V160 9999 NCD 17/08 Q1021,0,3,0,10000,0,0,0,
2026-04-08 18:50:00,METAR EGSS 081850Z AUTO 12004KT 090V170 9999 NCD 18/08 Q1021,0,4,0,10000,0,0,0,
2026-04-08 18:20:00,METAR EGSS 081820Z AUTO 12006KT 9999 NCD 19/10 Q1021,0,6,0,10000,0,0,0,
2026-04-08 17:50:00,METAR EGSS 081750Z AUTO 12007KT 080V150 9999 NCD 20/11 Q1021,0,7,0,10000,0,0,0,
2026-04-08 17:20:00,METAR EGSS 081720Z AUTO 11008KT 9999 NCD 21/11 Q1021,0,8,0,10000,0,0,0,
2026-04-08 16:50:00,METAR EGSS 081650Z AUTO 14008KT 9999 NCD 23/09 Q1021,0,8,0,10000,0,0,0,
2026-04-08 16:20:00,METAR EGSS 081620Z AUTO 15008KT 9999 NCD 23/10 Q1021,0,8,0,10000,0,0,0,
2026-04-08 15:50:00,METAR EGSS 081550Z AUTO 16008KT 9999 NCD 24/10 Q1021,0,8,0,10000,0,0,0,
2026-04-08 15:20:00,METAR EGSS 081520Z AUTO 15008KT 9999 NCD 24/10 Q1021,0,8,0,10000,0,0,0,
2026-04-08 14:50:00,METAR EGSS 081450Z AUTO 17009KT 130V200 9999 NCD 24/11 Q1021,0,9,0,10000,0,0,0,
2026-04-08 14:20:00,METAR EGSS 081420Z 15009KT CAVOK 24/10 Q1021,1,0,0,9999,0,0,0,
2026-04-08 13:50:00,METAR EGSS 081350Z AUTO 16008KT 130V190 9999 NCD 24/10 Q1022,0,8,0,10000,0,0,0,
2026-04-08 13:20:00,METAR EGSS 081320Z AUTO 18010KT 9999 NCD 23/10 Q1022,0,10,0,10000,0,0,0,
2026-04-08 12:50:00,METAR EGSS 081250Z AUTO 15009KT 9999 NCD 23/10 Q1022,0,9,0,10000,0,0,0,
2026-04-08 12:20:00,METAR EGSS 081220Z AUTO 16007KT 130V200 9999 NCD 22/10 Q1022,0,7,0,10000,0,0,0,
2026-04-08 11:50:00,METAR EGSS 081150Z 16010KT CAVOK 21/10 Q1023,1,0,0,9999,0,0,0,
2026-04-08 11:20:00,METAR EGSS 081120Z AUTO 17006KT 9999 NCD 21/10 Q1023,0,6,0,10000,0,0,0,
2026-04-08 10:50:00,METAR EGSS 081050Z AUTO 16006KT 130V200 9999 NCD 20/10 Q1023,0,6,0,10000,0,0,0,
2026-04-08 10:20:00,METAR EGSS 081020Z AUTO 18005KT 130V210 9999 NCD 19/09 Q1024,0,5,0,10000,0,0,0,
2026-04-08 09:50:00,METAR EGSS 080950Z 18006KT 130V220 CAVOK 18/09 Q1023,1,0,0,9999,0,0,0,
2026-04-08 09:20:00,METAR EGSS 080920Z AUTO 17007KT 9999 NCD 17/08 Q1023,0,7,0,10000,0,0,0,
2026-04-08 08:50:00,METAR EGSS 080850Z AUTO 15005KT 9999 NCD 16/08 Q1023,0,5,0,10000,0,0,0,
2026-04-08 08:20:00,METAR EGSS 080820Z AUTO 14003KT 100V190 9999 NCD 14/08 Q1023,0,3,0,10000,0,0,0,
2026-04-08 07:50:00,METAR EGSS 080750Z AUTO 13006KT 9999 NCD 12/07 Q1023,0,6,0,10000,0,0,0,
2026-04-08 07:20:00,METAR EGSS 080720Z AUTO 12007KT 060V140 9999 NCD 11/06 Q1023,0,7,0,10000,0,0,0,
2026-04-08 06:50:00,METAR EGSS 080650Z AUTO 10007KT 040V170 9999 NCD 10/06 Q1023,0,7,0,10000,0,0,0,
2026-04-08 06:20:00,METAR EGSS 080620Z AUTO 10007KT 030V120 9999 NCD 09/05 Q1023,0,7,0,10000,0,0,0,
2026-04-08 05:50:00,METAR EGSS 080550Z AUTO 09008KT 9999 NCD 08/05 Q1023,0,8,0,10000,0,0,0,
2026-04-08 05:20:00,METAR EGSS 080520Z AUTO 09008KT 070V150 9999 NCD 09/05 Q1023,0,8,0,10000,0,0,0,
2026-04-08 04:50:00,METAR EGSS 080450Z AUTO 08006KT 9999 NCD 07/05 Q1023,0,6,0,10000,0,0,0,
2026-04-08 04:20:00,METAR EGSS 080420Z AUTO 09007KT 9999 NCD 08/05 Q1022,0,7,0,10000,0,0,0,
2026-04-08 03:50:00,METAR EGSS 080350Z AUTO 11009KT 9999 NCD 08/06 Q1022,0,9,0,10000,0,0,0,
2026-04-08 03:20:00,METAR EGSS 080320Z AUTO 12009KT 9999 NCD 09/06 Q1023,0,9,0,10000,0,0,0,
2026-04-08 02:50:00,METAR EGSS 080250Z AUTO 12009KT 9999 NCD 09/06 Q1023,0,9,0,10000,0,0,0,
2026-04-08 02:20:00,METAR EGSS 080220Z AUTO 11008KT 9999 NCD 09/06 Q1023,0,8,0,10000,0,0,0,
2026-04-08 01:50:00,METAR EGSS 080150Z AUTO 11009KT 9999 NCD 09/06 Q1023,0,9,0,10000,0,0,0,
2026-04-08 01:20:00,METAR EGSS 080120Z AUTO 11008KT 9999 NCD 09/06 Q1023,0,8,0,10000,0,0,0,
2026-04-08 00:50:00,METAR EGSS 080050Z AUTO 11006KT 9999 NCD 08/05 Q1023,0,6,0,10000,0,0,0,
2026-04-08 00:20:00,METAR EGSS 080020Z AUTO 11006KT 9999 NCD 09/05 Q1023,0,6,0,10000,0,0,0,
2026-04-07 23:50:00,METAR EGSS 072350Z AUTO 11008KT 9999 NCD 09/05 Q1023,0,8,0,10000,0,0,0,
2026-04-07 23:20:00,METAR EGSS 072320Z AUTO 10009KT 9999 NCD 09/05 Q1023,0,9,0,10000,0,0,0,
2026-04-07 22:50:00,METAR EGSS 072250Z AUTO 11008KT 9999 NCD 09/05 Q1023,0,8,0,10000,0,0,0,
2026-04-07 22:20:00,METAR EGSS 072220Z AUTO 11008KT 9999 NCD 09/05 Q1023,0,8,0,10000,0,0,0,
2026-04-07 21:50:00,METAR EGSS 072150Z AUTO 11009KT 9999 NCD 09/05 Q1023,0,9,0,10000,0,0,0,
2026-04-07 21:20:00,METAR EGSS 072120Z AUTO 11011KT 9999 NCD 10/05 Q1023,0,11,0,10000,0,0,0,
2026-04-07 20:50:00,METAR EGSS 072050Z AUTO 10011KT 9999 NCD 10/04 Q1023,0,11,0,10000,0,0,0,
2026-04-07 20:20:00,METAR EGSS 072020Z AUTO 10009KT 9999 NCD 10/04 Q1023,0,9,0,10000,0,0,0,
2026-04-07 19:50:00,METAR EGSS 071950Z AUTO 11010KT 9999 NCD 11/04 Q1023,0,10,0,10000,0,0,0,
2026-04-07 19:20:00,METAR EGSS 071920Z AUTO 11008KT 020V120 9999 NCD 11/04 Q1023,0,8,0,10000,0,0,0,
2026-04-07 18:50:00,METAR EGSS 071850Z AUTO 11009KT 9999 NCD 12/04 Q1023,0,9,0,10000,0,0,0,
2026-04-07 18:20:00,METAR EGSS 071820Z AUTO 10008KT 9999 NCD 13/04 Q1022,0,8,0,10000,0,0,0,
2026-04-07 17:50:00,METAR EGSS 071750Z AUTO 11012KT 9999 NCD 14/05 Q1022,0,12,0,10000,0,0,0,
2026-04-07 17:20:00,METAR EGSS 071720Z AUTO 12014KT 9999 NCD 15/05 Q1022,0,14,0,10000,0,0,0,
2026-04-07 16:50:00,METAR EGSS 071650Z AUTO 12014KT 9999 NCD 15/05 Q1023,0,14,0,10000,0,0,0,
2026-04-07 16:20:00,METAR EGSS 071620Z AUTO 12014KT 9999 NCD 15/05 Q1023,0,14,0,10000,0,0,0,
2026-04-07 15:50:00,METAR EGSS 071550Z AUTO 11017KT 9999 NCD 16/05 Q1023,0,17,0,10000,0,0,0,
2026-04-07 15:20:00,METAR EGSS 071520Z AUTO 12014KT 9999 NCD 16/05 Q1023,0,14,0,10000,0,0,0,
2026-04-07 14:50:00,METAR EGSS 071450Z AUTO 12015KT 9999 NCD 16/04 Q1023,0,15,0,10000,0,0,0,
2026-04-07 14:20:00,METAR EGSS 071420Z AUTO 12015KT 9999 NCD 16/04 Q1023,0,15,0,10000,0,0,0,
2026-04-07 13:50:00,METAR EGSS 071350Z AUTO 12016KT 9999 NCD 16/04 Q1023,0,16,0,10000,0,0,0,
2026-04-07 13:20:00,METAR EGSS 071320Z AUTO 13016KT 9999 NCD 17/04 Q1023,0,16,0,10000,0,0,0,
2026-04-07 12:50:00,METAR EGSS 071250Z AUTO 12015KT 9999 NCD 16/04 Q1023,0,15,0,10000,0,0,0,
2026-04-07 12:20:00,METAR EGSS 071220Z AUTO 11016KT 9999 NCD 16/04 Q1023,0,16,0,10000,0,0,0,
2026-04-07 11:50:00,METAR EGSS 071150Z AUTO 12015KT 090V150 9999 NCD 16/04 Q1024,0,15,0,10000,0,0,0,
2026-04-07 11:20:00,METAR EGSS 071120Z AUTO 11016KT 9999 NCD 16/05 Q1024,0,16,0,10000,0,0,0,
2026-04-07 10:50:00,METAR EGSS 071050Z 11015KT 070V130 CAVOK 15/06 Q1024,1,0,0,9999,0,0,0,
2026-04-07 10:20:00,METAR EGSS 071020Z 10014KT CAVOK 15/06 Q1024,1,0,0,9999,0,0,0,
2026-04-07 09:50:00,METAR EGSS 070950Z AUTO 12012KT 9999 NCD 15/06 Q1024,0,12,0,10000,0,0,0,
2026-04-07 09:20:00,METAR EGSS 070920Z AUTO 12013KT 9999 NCD 14/07 Q1024,0,13,0,10000,0,0,0,
2026-04-07 08:50:00,METAR EGSS 070850Z AUTO 11013KT 9999 NCD 12/06 Q1024,0,13,0,10000,0,0,0,
2026-04-07 08:20:00,METAR EGSS 070820Z AUTO 11010KT 9999 NCD 11/06 Q1024,0,10,0,10000,0,0,0,
2026-04-07 07:50:00,METAR EGSS 070750Z 11011KT CAVOK 10/06 Q1024,1,0,0,9999,0,0,0,
2026-04-07 07:20:00,METAR EGSS 070720Z 11009KT CAVOK 09/06 Q1024,1,0,0,9999,0,0,0,
2026-04-07 06:50:00,METAR EGSS 070650Z AUTO 10007KT 9999 NCD 08/05 Q1024,0,7,0,10000,0,0,0,
2026-04-07 06:20:00,METAR EGSS 070620Z 11009KT CAVOK 07/05 Q1024,1,0,0,9999,0,0,0,
2026-04-07 05:50:00,METAR EGSS 070550Z AUTO 10009KT 9999 NCD 06/05 Q1023,0,9,0,10000,0,0,0,
2026-04-07 05:20:00,METAR EGSS 070520Z AUTO 10010KT 9999 NCD 06/04 Q1024,0,10,0,10000,0,0,0,
2026-04-07 04:50:00,METAR EGSS 070450Z AUTO 10007KT 9999 NCD 06/04 Q1024,0,7,0,10000,0,0,0,
2026-04-07 04:20:00,METAR EGSS 070420Z AUTO 09006KT 9999 NCD 06/04 Q1024,0,6,0,10000,0,0,0,
2026-04-07 03:50:00,METAR EGSS 070350Z AUTO 10007KT 9999 NCD 06/04 Q1024,0,7,0,10000,0,0,0,
2026-04-07 03:20:00,METAR EGSS 070320Z AUTO 10009KT 9999 NCD 06/05 Q1024,0,9,0,10000,0,0,0,
2026-04-07 02:50:00,METAR EGSS 070250Z AUTO 10008KT 9999 NCD 06/04 Q1024,0,8,0,10000,0,0,0,
2026-04-07 02:20:00,METAR EGSS 070220Z AUTO 10009KT 9999 NCD 06/05 Q1024,0,9,0,10000,0,0,0,
2026-04-07 01:50:00,METAR EGSS 070150Z AUTO 10008KT 9999 NCD 06/04 Q1024,0,8,0,10000,0,0,0,
2026-04-07 01:20:00,METAR EGSS 070120Z AUTO 10008KT 9999 NCD 06/04 Q1025,0,8,0,10000,0,0,0,
2026-04-07 00:50:00,METAR EGSS 070050Z AUTO 09007KT 9999 NCD 06/04 Q1025,0,7,0,10000,0,0,0,
2026-04-07 00:20:00,METAR EGSS 070020Z AUTO 09007KT 9999 NCD 06/04 Q1025,0,7,0,10000,0,0,0,
2026-04-06 23:50:00,METAR EGSS 062350Z AUTO 09008KT 9999 NCD 06/05 Q1025,0,8,0,10000,0,0,0,
2026-04-06 23:20:00,METAR EGSS 062320Z AUTO 10007KT 9999 NCD 06/04 Q1025,0,7,0,10000,0,0,0,
2026-04-06 22:50:00,METAR EGSS 062250Z AUTO 11007KT 9999 NCD 06/04 Q1025,0,7,0,10000,0,0,0,
2026-04-06 22:20:00,METAR EGSS 062220Z AUTO 12007KT 9999 NCD 07/04 Q1025,0,7,0,10000,0,0,0,
2026-04-06 21:50:00,METAR EGSS 062150Z AUTO 11007KT 080V160 9999 NCD 07/04 Q1025,0,7,0,10000,0,0,0,
2026-04-06 21:20:00,METAR EGSS 062120Z AUTO 11009KT 080V140 9999 NCD 07/04 Q1025,0,9,0,10000,0,0,0,
2026-04-06 20:50:00,METAR EGSS 062050Z AUTO 11008KT 9999 NCD 07/04 Q1025,0,8,0,10000,0,0,0,
2026-04-06 20:20:00,METAR EGSS 062020Z AUTO 12007KT 9999 NCD 08/04 Q1025,0,7,0,10000,0,0,0,
2026-04-06 19:50:00,METAR EGSS 061950Z AUTO 12009KT 090V150 9999 NCD 08/04 Q1025,0,9,0,10000,0,0,0,
2026-04-06 19:20:00,METAR EGSS 061920Z AUTO 12010KT 9999 NCD 09/04 Q1025,0,10,0,10000,0,0,0,
2026-04-06 18:50:00,METAR EGSS 061850Z AUTO 12009KT 9999 NCD 10/03 Q1025,0,9,0,10000,0,0,0,
2026-04-06 18:20:00,METAR EGSS 061820Z AUTO 13009KT 100V160 9999 NCD 12/01 Q1025,0,9,0,10000,0,0,0,
2026-04-06 17:50:00,METAR EGSS 061750Z 13011KT CAVOK 12/01 Q1025,1,0,0,9999,0,0,0,
2026-04-06 17:20:00,METAR EGSS 061720Z AUTO 13012KT 090V150 9999 NCD 13/02 Q1025,0,12,0,10000,0,0,0,
2026-04-06 16:50:00,METAR EGSS 061650Z AUTO 12011KT 110V170 9999 NCD 14/03 Q1025,0,11,0,10000,0,0,0,
2026-04-06 16:20:00,METAR EGSS 061620Z AUTO 13012KT 100V180 9999 NCD 14/02 Q1025,0,12,0,10000,0,0,0,
2026-04-06 15:50:00,METAR EGSS 061550Z AUTO 15009KT 9999 NCD 14/01 Q1025,0,9,0,10000,0,0,0,
2026-04-06 14:50:00,METAR EGSS 061450Z AUTO 15010KT 110V180 9999 NCD 15/01 Q1026,0,10,0,10000,0,0,0,
2026-04-06 14:20:00,METAR EGSS 061420Z AUTO 14010KT 9999 NCD 14/00 Q1026,0,10,0,10000,0,0,0,
2026-04-06 13:50:00,METAR EGSS 061350Z AUTO 17009KT 140V210 9999 NCD 14/01 Q1026,0,9,0,10000,0,0,0,
2026-04-06 13:20:00,METAR EGSS 061320Z AUTO 16011KT 9999 NCD 14/M00 Q1026,0,11,0,10000,0,0,0,
2026-04-06 12:50:00,METAR EGSS 061250Z AUTO 17008KT 120V210 9999 NCD 14/01 Q1026,0,8,0,10000,0,0,0,
2026-04-06 12:20:00,METAR EGSS 061220Z AUTO 16007KT 130V200 9999 NCD 13/01 Q1027,0,7,0,10000,0,0,0,
2026-04-06 11:50:00,METAR EGSS 061150Z 16008KT 090V220 CAVOK 13/02 Q1027,1,0,0,9999,0,0,0,
2026-04-06 11:20:00,METAR EGSS 061120Z AUTO 16007KT 100V210 9999 NCD 12/02 Q1027,0,7,0,10000,0,0,0,
2026-04-06 10:50:00,METAR EGSS 061050Z AUTO 17007KT 110V220 9999 NCD 12/02 Q1027,0,7,0,10000,0,0,0,
2026-04-06 10:20:00,METAR EGSS 061020Z AUTO 19007KT 160V230 9999 NCD 11/02 Q1028,0,7,0,10000,0,0,0,
2026-04-06 09:50:00,METAR EGSS 060950Z AUTO 16008KT 140V200 9999 NCD 11/02 Q1028,0,8,0,10000,0,0,0,
2026-04-06 09:20:00,METAR EGSS 060920Z AUTO 17008KT 9999 NCD 10/03 Q1028,0,8,0,10000,0,0,0,
2026-04-06 08:50:00,METAR EGSS 060850Z AUTO 16004KT 110V200 9999 NCD 09/03 Q1028,0,4,0,10000,0,0,0,
2026-04-06 08:20:00,METAR EGSS 060820Z AUTO 21004KT 170V230 9999 NCD 08/03 Q1028,0,4,0,10000,0,0,0,
2026-04-06 07:50:00,METAR EGSS 060750Z AUTO 18004KT 9999 NCD 06/03 Q1027,0,4,0,10000,0,0,0,
2026-04-06 07:20:00,METAR EGSS 060720Z AUTO 18004KT 9999 NCD 05/02 Q1027,0,4,0,10000,0,0,0,
2026-04-06 06:50:00,METAR EGSS 060650Z AUTO 17004KT 9999 NCD 04/02 Q1027,0,4,0,10000,0,0,0,
2026-04-06 06:20:00,METAR EGSS 060620Z AUTO 17003KT 130V220 9999 NCD 03/01 Q1027,0,3,0,10000,0,0,0,
2026-04-06 05:50:00,METAR EGSS 060550Z AUTO VRB02KT 9999 NCD 02/00 Q1027,0,2,0,10000,0,0,0,
2026-04-06 05:20:00,METAR EGSS 060520Z AUTO 25001KT 9999 NCD 00/M01 Q1026,0,1,0,10000,0,0,0,
2026-04-06 04:50:00,METAR EGSS 060450Z AUTO 17001KT 9999 NCD 01/M00 Q1026,0,1,0,10000,0,0,0,
2026-04-06 04:20:00,METAR EGSS 060420Z AUTO 17002KT 9999 NCD 02/M00 Q1026,0,2,0,10000,0,0,0,
2026-04-06 03:50:00,METAR EGSS 060350Z AUTO 20003KT 9999 NCD 02/M00 Q1026,0,3,0,10000,0,0,0,
2026-04-06 03:20:00,METAR EGSS 060320Z AUTO 21003KT 9999 NCD 02/M01 Q1026,0,3,0,10000,0,0,0,
2026-04-06 02:50:00,METAR EGSS 060250Z AUTO 29002KT 9999 NCD 02/M01 Q1026,0,2,0,10000,0,0,0,
2026-04-06 02:20:00,METAR EGSS 060220Z AUTO 23004KT 9999 NCD 02/M00 Q1026,0,4,0,10000,0,0,0,
2026-04-06 01:50:00,METAR EGSS 060150Z AUTO 22003KT 9999 NCD 03/M00 Q1026,0,3,0,10000,0,0,0,
2026-04-06 01:20:00,METAR EGSS 060120Z AUTO 24002KT 9999 NCD 03/M00 Q1026,0,2,0,10000,0,0,0,
2026-04-06 00:50:00,METAR EGSS 060050Z AUTO 27003KT 9999 NCD 03/M00 Q1026,0,3,0,10000,0,0,0,
2026-04-06 00:20:00,METAR EGSS 060020Z AUTO 23004KT 9999 NCD 02/M01 Q1026,0,4,0,10000,0,0,0,
2026-04-05 23:50:00,METAR EGSS 052350Z AUTO 24003KT 9999 NCD 05/00 Q1025,0,3,0,10000,0,0,0,
2026-04-05 23:20:00,METAR EGSS 052320Z AUTO 26002KT 9999 NCD 05/00 Q1025,0,2,0,10000,0,0,0,
2026-04-05 22:50:00,METAR EGSS 052250Z AUTO 26002KT 9999 NCD 05/M00 Q1025,0,2,0,10000,0,0,0,
2026-04-05 22:20:00,METAR EGSS 052220Z AUTO 24004KT 9999 NCD 05/M01 Q1025,0,4,0,10000,0,0,0,
2026-04-05 21:50:00,METAR EGSS 052150Z AUTO 22003KT 9999 NCD 05/M02 Q1024,0,3,0,10000,0,0,0,
2026-04-05 21:20:00,METAR EGSS 052120Z AUTO 25003KT 9999 NCD 06/M03 Q1024,0,3,0,10000,0,0,0,
2026-04-05 20:50:00,METAR EGSS 052050Z AUTO 27003KT 9999 NCD 06/M03 Q1024,0,3,0,10000,0,0,0,
2026-04-05 20:20:00,METAR EGSS 052020Z AUTO 27003KT 9999 NCD 07/M03 Q1024,0,3,0,10000,0,0,0,
2026-04-05 19:50:00,METAR EGSS 051950Z AUTO 26002KT 9999 NCD 07/M03 Q1023,0,2,0,10000,0,0,0,
2026-04-05 19:20:00,METAR EGSS 051920Z AUTO 28003KT 9999 NCD 08/M03 Q1023,0,3,0,10000,0,0,0,
2026-04-05 18:50:00,METAR EGSS 051850Z AUTO 30006KT 9999 NCD 09/M02 Q1022,0,6,0,10000,0,0,0,
2026-04-05 18:20:00,METAR EGSS 051820Z AUTO 29006KT 9999 NCD 09/M02 Q1021,0,6,0,10000,0,0,0,
2026-04-05 17:50:00,METAR EGSS 051750Z AUTO 28008KT 250V320 9999 NCD 10/M03 Q1021,0,8,0,10000,0,0,0,
2026-04-05 17:20:00,METAR EGSS 051720Z AUTO 28009KT 9999 NCD 11/M02 Q1021,0,9,0,10000,0,0,0,
2026-04-05 16:50:00,METAR EGSS 051650Z AUTO 29010KT 9999 NCD 11/M02 Q1020,0,10,0,10000,0,0,0,
2026-04-05 16:20:00,METAR EGSS 051620Z AUTO 29011KT 260V320 9999 NCD 12/M02 Q1020,0,11,0,10000,0,0,0,
2026-04-05 15:50:00,METAR EGSS 051550Z AUTO 28011KT 240V310 9999 NCD 12/M02 Q1019,0,11,0,10000,0,0,0,
2026-04-05 15:20:00,METAR EGSS 051520Z AUTO 30010KT 260V320 9999 NCD 11/M01 Q1019,0,10,0,10000,0,0,0,
2026-04-05 14:50:00,METAR EGSS 051450Z AUTO 26014G25KT 230V300 9999 NCD 13/M02 Q1019,0,14,1,10000,0,0,0,
2026-04-05 12:50:00,METAR EGSS 051250Z AUTO 26015KT 9999 NCD 12/00 Q1017,0,15,0,10000,0,0,0,
2026-04-05 12:20:00,METAR EGSS 051220Z AUTO 29012KT 260V320 9999 -RA FEW040 SCT047 12/02 Q1017,0,12,0,10000,0,0,0,-RA
2026-04-05 11:50:00,METAR EGSS 051150Z AUTO 27012KT 220V290 9999 //////TCU 11/04 Q1017,0,12,0,10000,0,0,0,
2026-04-05 11:20:00,METAR EGSS 051120Z AUTO 25012KT 9000 -RA FEW014/// BKN042/// //////TCU 08/04 Q1016,0,12,0,9000,0,0,0,-RA
2026-04-05 10:50:00,METAR EGSS 051050Z AUTO 26015KT 9999 FEW038/// //////TCU 12/02 Q1015,0,15,0,10000,0,0,0,
2026-04-05 10:20:00,METAR EGSS 051020Z AUTO 27011KT 240V310 9999 BKN032/// BKN038/// //////TCU 11/04 Q1015,0,11,0,10000,0,0,0,
2026-04-05 09:50:00,METAR EGSS 050950Z AUTO 26013KT 9999 BKN028 BKN040 10/04 Q1015,0,13,0,10000,0,0,0,
2026-04-05 09:20:00,METAR EGSS 050920Z AUTO 25013KT 210V280 9999 BKN026 10/05 Q1014,0,13,0,10000,0,0,0,
2026-04-05 08:50:00,METAR EGSS 050850Z AUTO 24015KT 9999 //////TCU 09/05 Q1014,0,15,0,10000,0,0,0,
2026-04-05 08:20:00,METAR EGSS 050820Z AUTO 23014KT 9999 SCT035/// //////TCU 08/05 Q1013,0,14,0,10000,0,0,0,
2026-04-05 07:50:00,METAR EGSS 050750Z AUTO 24014KT 9999 NCD 08/04 Q1013,0,14,0,10000,0,0,0,
2026-04-05 07:20:00,METAR EGSS 050720Z AUTO 23012KT 9999 NCD 07/03 Q1013,0,12,0,10000,0,0,0,
2026-04-05 06:50:00,METAR EGSS 050650Z AUTO 23009KT 9999 NCD 07/03 Q1012,0,9,0,10000,0,0,0,
2026-04-05 06:20:00,METAR EGSS 050620Z 22008KT CAVOK 06/03 Q1012,1,0,0,9999,0,0,0,
2026-04-05 05:50:00,METAR EGSS 050550Z AUTO 25007KT 9999 NCD 06/01 Q1011,0,7,0,10000,0,0,0,
2026-04-05 05:20:00,METAR EGSS 050520Z AUTO 26009KT 9999 NCD 07/01 Q1010,0,9,0,10000,0,0,0,
2026-04-05 04:50:00,METAR EGSS 050450Z AUTO 26010KT 9999 FEW029 08/03 Q1010,0,10,0,10000,0,0,0,
2026-04-05 04:20:00,METAR EGSS 050420Z AUTO 26011KT 9999 BKN027 OVC033 09/04 Q1009,0,11,0,10000,0,0,0,
2026-04-05 03:50:00,METAR EGSS 050350Z AUTO 25012KT 9999 BKN029 09/04 Q1009,0,12,0,10000,0,0,0,
2026-04-05 03:20:00,METAR EGSS 050320Z AUTO 25014KT 9999 NCD 09/03 Q1008,0,14,0,10000,0,0,0,
2026-04-05 02:50:00,METAR EGSS 050250Z AUTO 25016G26KT 9999 SCT033 09/04 Q1007,0,16,1,10000,0,0,0,
2026-04-05 02:20:00,METAR EGSS 050220Z AUTO 24016G26KT 9999 BKN034 09/04 Q1007,0,16,1,10000,0,0,0,
2026-04-05 01:50:00,METAR EGSS 050150Z AUTO 25020G31KT 9999 BKN036 10/04 Q1006,0,20,1,10000,0,0,0,
2026-04-05 01:20:00,METAR EGSS 050120Z AUTO 24019G30KT 9999 FEW036 09/04 Q1006,0,19,1,10000,0,0,0,
2026-04-05 00:50:00,METAR EGSS 050050Z AUTO 24018KT 9999 FEW018 SCT023 BKN045 10/06 Q1005,0,18,0,10000,0,0,0,
2026-04-05 00:20:00,METAR EGSS 050020Z AUTO 24020G31KT 6000 -RA BKN014 OVC029 11/09 Q1004,0,20,1,6000,0,0,0,-RA
2026-04-04 23:50:00,METAR EGSS 042350Z AUTO 22023G36KT 9999 BKN020 OVC026 12/08 Q1004,0,23,1,10000,0,0,0,
2026-04-04 23:20:00,METAR EGSS 042320Z AUTO 22026G36KT 9999 BKN021 OVC026 11/08 Q1004,0,26,1,10000,0,0,0,
2026-04-04 22:50:00,METAR EGSS 042250Z AUTO 21024G37KT 9999 OVC024 12/07 Q1004,0,24,1,10000,0,0,0,
2026-04-04 22:20:00,METAR EGSS 042220Z AUTO 21023KT 9999 BKN025 OVC042 11/07 Q1004,0,23,0,10000,0,0,0,
2026-04-04 21:50:00,METAR EGSS 042150Z AUTO 21021KT 9999 BKN027 11/06 Q1005,0,21,0,10000,0,0,0,
2026-04-04 21:20:00,METAR EGSS 042120Z AUTO 22024KT 9999 SCT025 SCT030 11/06 Q1006,0,24,0,10000,0,0,0,
2026-04-04 20:50:00,METAR EGSS 042050Z AUTO 21020KT 9999 SCT026 11/07 Q1006,0,20,0,10000,0,0,0,
2026-04-04 20:20:00,METAR EGSS 042020Z 21022G32KT 9999 SCT026 BKN032 11/07 Q1007,0,22,1,10000,0,0,0,
2026-04-04 19:50:00,METAR EGSS 041950Z AUTO 21026G38KT 9999 SCT026 12/07 Q1007,0,26,1,10000,0,0,0,
2026-04-04 19:20:00,METAR EGSS 041920Z AUTO 21020G31KT 9999 BKN026 13/08 Q1007,0,20,1,10000,0,0,0,
2026-04-04 18:50:00,METAR EGSS 041850Z AUTO 19017KT 9999 BKN027 BKN032 13/09 Q1007,0,17,0,10000,0,0,0,
2026-04-04 18:20:00,METAR EGSS 041820Z AUTO 20019KT 9999 BKN027 BKN032 13/09 Q1008,0,19,0,10000,0,0,0,
2026-04-04 17:50:00,METAR EGSS 041750Z AUTO 20016G28KT 9999 BKN026 OVC033 13/09 Q1009,0,16,1,10000,0,0,0,
2026-04-04 17:20:00,METAR EGSS 041720Z AUTO 20017G27KT 9999 OVC025 13/08 Q1009,0,17,1,10000,0,0,0,
2026-04-04 16:50:00,METAR EGSS 041650Z AUTO 20020KT 9999 BKN026 OVC030 13/08 Q1010,0,20,0,10000,0,0,0,
2026-04-04 16:20:00,METAR EGSS 041620Z AUTO 21020G30KT 9999 BKN027 13/08 Q1011,0,20,1,10000,0,0,0,
2026-04-04 15:50:00,METAR EGSS 041550Z AUTO 20021KT 9999 BKN029 13/07 Q1011,0,21,0,10000,0,0,0,
2026-04-04 15:20:00,METAR EGSS 041520Z AUTO 20023KT 9999 BKN029 14/07 Q1012,0,23,0,10000,0,0,0,
2026-04-04 14:50:00,METAR EGSS 041450Z AUTO 21022KT 9999 SCT028 14/07 Q1012,0,22,0,10000,0,0,0,
2026-04-04 14:20:00,METAR EGSS 041420Z AUTO 19020KT 9999 BKN025 14/08 Q1013,0,20,0,10000,0,0,0,
2026-04-04 13:50:00,METAR EGSS 041350Z AUTO 19021KT 9999 BKN021 14/09 Q1013,0,21,0,10000,0,0,0,
2026-04-04 13:20:00,METAR EGSS 041320Z AUTO 20018KT 9999 BKN023 15/09 Q1014,0,18,0,10000,0,0,0,
2026-04-04 12:50:00,METAR EGSS 041250Z AUTO 21019KT 9999 SCT025 BKN032 15/09 Q1014,0,19,0,10000,0,0,0,
2026-04-04 12:20:00,METAR EGSS 041220Z AUTO 20019KT 9999 BKN025 BKN032 15/09 Q1015,0,19,0,10000,0,0,0,
2026-04-04 11:50:00,METAR EGSS 041150Z AUTO 20014KT 9999 BKN021 15/10 Q1015,0,14,0,10000,0,0,0,
2026-04-04 11:20:00,METAR EGSS 041120Z AUTO 21014KT 9999 BKN017 OVC028 13/09 Q1016,0,14,0,10000,0,0,0,
2026-04-04 10:50:00,METAR EGSS 041050Z AUTO 20012KT 9999 OVC016 13/09 Q1016,0,12,0,10000,0,0,0,
2026-04-04 10:20:00,METAR EGSS 041020Z AUTO 21013KT 9999 BKN017 BKN022 OVC035 12/08 Q1016,0,13,0,10000,0,0,0,
2026-04-04 09:50:00,METAR EGSS 040950Z AUTO 20011KT 9999 FEW023 SCT031 12/08 Q1017,0,11,0,10000,0,0,0,
2026-04-04 09:20:00,METAR EGSS 040920Z AUTO 22011KT 9999 SCT031 SCT038 11/07 Q1017,0,11,0,10000,0,0,0,
2026-04-04 08:50:00,METAR EGSS 040850Z AUTO 22011KT 9999 BKN036 11/07 Q1017,0,11,0,10000,0,0,0,
2026-04-04 08:20:00,METAR EGSS 040820Z AUTO 22009KT 9999 SCT036 10/07 Q1017,0,9,0,10000,0,0,0,
2026-04-04 07:50:00,METAR EGSS 040750Z AUTO 22008KT 9999 NCD 09/07 Q1017,0,8,0,10000,0,0,0,
2026-04-04 07:20:00,METAR EGSS 040720Z AUTO 22008KT 9999 NCD 08/07 Q1017,0,8,0,10000,0,0,0,
2026-04-04 06:50:00,METAR EGSS 040650Z AUTO 22008KT 9999 NCD 08/07 Q1017,0,8,0,10000,0,0,0,
2026-04-04 06:20:00,METAR EGSS 040620Z AUTO 22007KT 9999 NCD 07/06 Q1017,0,7,0,10000,0,0,0,
2026-04-04 05:50:00,METAR EGSS 040550Z AUTO 22007KT 9999 NCD 06/05 Q1017,0,7,0,10000,0,0,0,
2026-04-04 05:20:00,METAR EGSS 040520Z AUTO 22006KT 9999 NCD 05/05 Q1017,0,6,0,10000,0,0,0,
2026-04-04 04:50:00,METAR EGSS 040450Z AUTO 21006KT 9999 NCD 05/05 Q1016,0,6,0,10000,0,0,0,
2026-04-04 04:20:00,METAR EGSS 040420Z 22007KT CAVOK 06/05 Q1016,1,0,0,9999,0,0,0,
2026-04-04 03:50:00,METAR EGSS 040350Z AUTO 24007KT 9999 NCD 07/06 Q1016,0,7,0,10000,0,0,0,
2026-04-04 03:20:00,METAR EGSS 040320Z AUTO 23006KT 9999 NCD 06/05 Q1016,0,6,0,10000,0,0,0,
2026-04-04 02:50:00,METAR EGSS 040250Z AUTO 24006KT 9999 NCD 08/06 Q1016,0,6,0,10000,0,0,0,
2026-04-04 02:20:00,METAR EGSS 040220Z AUTO 24006KT 9999 NCD 08/07 Q1016,0,6,0,10000,0,0,0,
2026-04-04 01:50:00,METAR EGSS 040150Z AUTO 25008KT 9999 NCD 09/07 Q1016,0,8,0,10000,0,0,0,
2026-04-04 01:20:00,METAR EGSS 040120Z AUTO 24008KT 9999 NCD 09/07 Q1016,0,8,0,10000,0,0,0,
2026-04-04 00:50:00,METAR EGSS 040050Z AUTO 24008KT 9999 FEW028 BKN040 10/07 Q1016,0,8,0,10000,0,0,0,
2026-04-04 00:20:00,METAR EGSS 040020Z AUTO 24007KT 9999 NCD 10/07 Q1015,0,7,0,10000,0,0,0,
2026-04-03 23:50:00,METAR EGSS 032350Z AUTO 25008KT 9999 NCD 10/07 Q1015,0,8,0,10000,0,0,0,
2026-04-03 23:20:00,METAR EGSS 032320Z AUTO 24009KT 9999 NCD 10/07 Q1014,0,9,0,10000,0,0,0,
2026-04-03 22:50:00,METAR EGSS 032250Z AUTO 26009KT 9999 FEW043 11/07 Q1014,0,9,0,10000,0,0,0,
2026-04-03 22:20:00,METAR EGSS 032220Z AUTO 25009KT 230V290 9999 OVC039 11/07 Q1013,0,9,0,10000,0,0,0,
2026-04-03 21:50:00,METAR EGSS 032150Z AUTO 25011KT 9999 BKN034 OVC044 11/07 Q1013,0,11,0,10000,0,0,0,
2026-04-03 21:20:00,METAR EGSS 032120Z AUTO 26011KT 9999 BKN039 11/07 Q1012,0,11,0,10000,0,0,0,
2026-04-03 20:50:00,METAR EGSS 032050Z AUTO 25012KT 9999 NCD 12/07 Q1012,0,12,0,10000,0,0,0,
2026-04-03 20:20:00,METAR EGSS 032020Z AUTO 25012KT 9999 NCD 12/07 Q1011,0,12,0,10000,0,0,0,
2026-04-03 19:50:00,METAR EGSS 031950Z AUTO 25015KT 9999 NCD 12/08 Q1011,0,15,0,10000,0,0,0,
2026-04-03 19:20:00,METAR EGSS 031920Z AUTO 25016KT 9999 SCT027 13/08 Q1010,0,16,0,10000,0,0,0,
2026-04-03 18:50:00,METAR EGSS 031850Z AUTO 26016KT 9999 BKN025 OVC030 14/09 Q1010,0,16,0,10000,0,0,0,
2026-04-03 18:20:00,METAR EGSS 031820Z AUTO 25015KT 9999 OVC026 14/09 Q1009,0,15,0,10000,0,0,0,
2026-04-03 17:50:00,METAR EGSS 031750Z AUTO 24017KT 9999 BKN027 BKN034 14/09 Q1009,0,17,0,10000,0,0,0,
2026-04-03 17:20:00,METAR EGSS 031720Z AUTO 24018KT 9999 SCT027 14/09 Q1009,0,18,0,10000,0,0,0,
2026-04-03 16:50:00,METAR EGSS 031650Z AUTO 24016KT 9999 SCT027 15/10 Q1008,0,16,0,10000,0,0,0,
2026-04-03 16:20:00,METAR EGSS 031620Z AUTO 25017KT 9999 BKN029 BKN037 15/10 Q1008,0,17,0,10000,0,0,0,
2026-04-03 15:50:00,METAR EGSS 031550Z AUTO 24016KT 9999 SCT025 BKN031 BKN037 15/10 Q1008,0,16,0,10000,0,0,0,
2026-04-03 15:20:00,METAR EGSS 031520Z AUTO 24015KT 9999 BKN023 15/11 Q1008,0,15,0,10000,0,0,0,
2026-04-03 14:50:00,METAR EGSS 031450Z AUTO 23018KT 9999 SCT023 BKN028 15/11 Q1008,0,18,0,10000,0,0,0,
2026-04-03 14:20:00,METAR EGSS 031420Z AUTO 23015KT 9999 BKN022 OVC037 15/11 Q1008,0,15,0,10000,0,0,0,
2026-04-03 13:50:00,METAR EGSS 031350Z AUTO 21016KT 9999 BKN019 OVC024 14/11 Q1008,0,16,0,10000,0,0,0,
2026-04-03 13:20:00,METAR EGSS 031320Z AUTO 21016KT 9999 BKN015 BKN023 OVC029 14/11 Q1008,0,16,0,10000,0,0,0,
2026-04-03 12:50:00,METAR EGSS 031250Z AUTO 21015KT 9999 BKN014 OVC020 13/11 Q1009,0,15,0,10000,0,0,0,
2026-04-03 12:20:00,METAR EGSS 031220Z AUTO 22018KT 9999 BKN012 BKN016 OVC023 14/11 Q1009,0,18,0,10000,0,0,0,
2026-04-03 11:50:00,METAR EGSS 031150Z AUTO 22018KT 9999 OVC011 13/10 Q1009,0,18,0,10000,0,0,0,
2026-04-03 11:20:00,METAR EGSS 031120Z AUTO 22019KT 9999 OVC012 13/10 Q1009,0,19,0,10000,0,0,0,
2026-04-03 10:50:00,METAR EGSS 031050Z AUTO 22019KT 9999 OVC011 13/10 Q1009,0,19,0,10000,0,0,0,
2026-04-03 10:20:00,METAR EGSS 031020Z AUTO 22017KT 9999 BKN011 OVC015 12/10 Q1010,0,17,0,10000,0,0,0,
2026-04-03 09:50:00,METAR EGSS 030950Z AUTO 21018KT 9999 OVC009 12/09 Q1010,0,18,0,10000,0,0,0,
2026-04-03 09:20:00,METAR EGSS 030920Z AUTO 21017KT 9999 OVC010 11/09 Q1010,0,17,0,10000,0,0,0,
2026-04-03 08:50:00,METAR EGSS 030850Z AUTO 21016KT 9999 OVC010 11/09 Q1010,0,16,0,10000,0,0,0,
2026-04-03 08:20:00,METAR EGSS 030820Z AUTO 21016KT 9999 OVC010 10/08 Q1011,0,16,0,10000,0,0,0,
2026-04-03 07:50:00,METAR EGSS 030750Z AUTO 21018KT 9999 OVC010 10/08 Q1011,0,18,0,10000,0,0,0,
2026-04-03 07:20:00,METAR EGSS 030720Z AUTO 21014KT 9999 -RA OVC011 09/07 Q1011,0,14,0,10000,0,0,0,-RA
2026-04-03 06:50:00,METAR EGSS 030650Z AUTO 20013KT 9999 -RA OVC012 09/07 Q1011,0,13,0,10000,0,0,0,-RA
2026-04-03 06:20:00,METAR EGSS 030620Z AUTO 20012KT 9999 OVC013 08/06 Q1012,0,12,0,10000,0,0,0,
2026-04-03 05:50:00,METAR EGSS 030550Z AUTO 20012KT 9999 OVC014 08/06 Q1012,0,12,0,10000,0,0,0,
2026-04-03 05:20:00,METAR EGSS 030520Z AUTO 21013KT 9999 BKN015 OVC028 08/06 Q1012,0,13,0,10000,0,0,0,
2026-04-03 04:50:00,METAR EGSS 030450Z AUTO 20012KT 9999 BKN016 08/05 Q1013,0,12,0,10000,0,0,0,
2026-04-03 04:20:00,METAR EGSS 030420Z AUTO 20011KT 9999 BKN022 08/05 Q1013,0,11,0,10000,0,0,0,
2026-04-03 03:50:00,METAR EGSS 030350Z AUTO 20011KT 9999 FEW027 SCT038 08/05 Q1013,0,11,0,10000,0,0,0,
2026-04-03 03:20:00,METAR EGSS 030320Z AUTO 19010KT 9999 BKN032 OVC044 08/05 Q1014,0,10,0,10000,0,0,0,
2026-04-03 02:50:00,METAR EGSS 030250Z AUTO 19010KT 9999 BKN036 BKN045 07/05 Q1014,0,10,0,10000,0,0,0,
2026-04-03 02:20:00,METAR EGSS 030220Z AUTO 17007KT 9999 BKN040 BKN049 08/05 Q1015,0,7,0,10000,0,0,0,
2026-04-03 01:50:00,METAR EGSS 030150Z AUTO 20009KT 9999 NCD 08/05 Q1015,0,9,0,10000,0,0,0,
2026-04-03 01:20:00,METAR EGSS 030120Z 20009KT CAVOK 08/05 Q1015,1,0,0,9999,0,0,0,
2026-04-03 00:50:00,METAR EGSS 030050Z AUTO 21009KT 9999 NCD 08/04 Q1016,0,9,0,10000,0,0,0,
2026-04-03 00:20:00,METAR EGSS 030020Z AUTO 20008KT 9999 NCD 07/04 Q1016,0,8,0,10000,0,0,0,
2026-04-02 23:50:00,METAR EGSS 022350Z AUTO 19008KT 9999 FEW037 07/04 Q1017,0,8,0,10000,0,0,0,
2026-04-02 23:20:00,METAR EGSS 022320Z AUTO 20009KT 9999 FEW036 07/04 Q1017,0,9,0,10000,0,0,0,
2026-04-02 22:50:00,METAR EGSS 022250Z AUTO 20007KT 9999 NCD 07/03 Q1017,0,7,0,10000,0,0,0,
2026-04-02 22:20:00,METAR EGSS 022220Z AUTO 18008KT 9999 NCD 07/02 Q1017,0,8,0,10000,0,0,0,
2026-04-02 21:50:00,METAR EGSS 022150Z AUTO 17008KT 9999 NCD 07/01 Q1018,0,8,0,10000,0,0,0,
2026-04-02 21:20:00,METAR EGSS 022120Z AUTO 16007KT 9999 NCD 07/01 Q1018,0,7,0,10000,0,0,0,
2026-04-02 20:50:00,METAR EGSS 022050Z AUTO 16005KT 9999 NCD 07/00 Q1019,0,5,0,10000,0,0,0,
2026-04-02 20:20:00,METAR EGSS 022020Z AUTO 17005KT 140V200 9999 NCD 07/00 Q1019,0,5,0,10000,0,0,0,
2026-04-02 19:50:00,METAR EGSS 021950Z AUTO 16006KT 9999 NCD 08/00 Q1019,0,6,0,10000,0,0,0,
2026-04-02 19:20:00,METAR EGSS 021920Z AUTO 15005KT 130V200 9999 NCD 08/00 Q1019,0,5,0,10000,0,0,0,
2026-04-02 18:50:00,METAR EGSS 021850Z AUTO 17004KT 9999 NCD 09/00 Q1020,0,4,0,10000,0,0,0,
2026-04-02 18:20:00,METAR EGSS 021820Z AUTO 17004KT 9999 NCD 09/M00 Q1019,0,4,0,10000,0,0,0,
2026-04-02 17:50:00,METAR EGSS 021750Z AUTO 21004KT 9999 NCD 09/01 Q1019,0,4,0,10000,0,0,0,
2026-04-02 17:20:00,METAR EGSS 021720Z AUTO 17003KT 110V250 9999 NCD 10/M00 Q1019,0,3,0,10000,0,0,0,
2026-04-02 16:50:00,METAR EGSS 021650Z AUTO 29003KT 250V360 9999 NCD 11/00 Q1020,0,3,0,10000,0,0,0,
2026-04-02 16:20:00,METAR EGSS 021620Z AUTO 29004KT 260V330 9999 FEW045 11/00 Q1020,0,4,0,10000,0,0,0,
2026-04-02 15:50:00,METAR EGSS 021550Z AUTO 32004KT 290V360 9999 NCD 10/00 Q1020,0,4,0,10000,0,0,0,
2026-04-02 15:20:00,METAR EGSS 021520Z AUTO 36005KT 290V050 9999 NCD 11/01 Q1020,0,5,0,10000,0,0,0,
2026-04-02 14:50:00,METAR EGSS 021450Z AUTO 34005KT 280V010 9999 NCD 10/01 Q1021,0,5,0,10000,0,0,0,
2026-04-02 14:20:00,METAR EGSS 021420Z AUTO 01005KT 310V110 9999 FEW042 11/01 Q1021,0,5,0,10000,0,0,0,
2026-04-02 13:50:00,METAR EGSS 021350Z AUTO 35006KT 300V030 9999 SCT039 10/00 Q1021,0,6,0,10000,0,0,0,
2026-04-02 13:20:00,METAR EGSS 021320Z AUTO 02007KT 340V070 9999 BKN038 10/01 Q1021,0,7,0,10000,0,0,0,
2026-04-02 12:50:00,METAR EGSS 021250Z AUTO 34006KT 280V050 9999 FEW037 10/02 Q1021,0,6,0,10000,0,0,0,
2026-04-02 12:20:00,METAR EGSS 021220Z AUTO 34006KT 9999 BKN030 09/02 Q1021,0,6,0,10000,0,0,0,
2026-04-02 11:50:00,METAR EGSS 021150Z AUTO 34007KT 300V040 9999 BKN030 OVC038 08/02 Q1021,0,7,0,10000,0,0,0,
2026-04-02 11:20:00,METAR EGSS 021120Z AUTO 35006KT 300V030 9999 SCT027 BKN031 08/02 Q1022,0,6,0,10000,0,0,0,
2026-04-02 10:50:00,METAR EGSS 021050Z AUTO 36009KT 9999 OVC023 07/02 Q1022,0,9,0,10000,0,0,0,
2026-04-02 10:20:00,METAR EGSS 021020Z AUTO 36007KT 330V030 9999 FEW018 BKN024 07/03 Q1022,0,7,0,10000,0,0,0,
2026-04-02 09:50:00,METAR EGSS 020950Z AUTO 32008KT 9999 FEW016 BKN026 07/03 Q1022,0,8,0,10000,0,0,0,
2026-04-02 09:20:00,METAR EGSS 020920Z 32009KT 9999 BKN010 BKN032 06/04 Q1022,0,9,0,10000,0,0,0,
2026-04-02 08:50:00,METAR EGSS 020850Z AUTO 35011KT 320V020 9999 BKN010 BKN022 OVC026 06/04 Q1022,0,11,0,10000,0,0,0,
2026-04-02 08:20:00,METAR EGSS 020820Z AUTO 33008KT 300V360 8000 -RA BKN013 BKN018 OVC032 05/03 Q1021,0,8,0,8000,0,0,0,-RA
2026-04-02 07:50:00,METAR EGSS 020750Z AUTO 33008KT 9999 BKN016 BKN022 BKN029 06/03 Q1021,0,8,0,10000,0,0,0,
2026-04-02 07:20:00,METAR EGSS 020720Z AUTO 33008KT 9999 FEW017 SCT023 OVC028 06/02 Q1020,0,8,0,10000,0,0,0,
2026-04-02 06:50:00,METAR EGSS 020650Z AUTO 33008KT 9999 BKN012 BKN018 OVC023 05/03 Q1020,0,8,0,10000,0,0,0,
2026-04-02 06:20:00,METAR EGSS 020620Z AUTO 33009KT 9999 BKN012 BKN016 OVC022 05/03 Q1020,0,9,0,10000,0,0,0,
2026-04-02 05:50:00,METAR EGSS 020550Z AUTO 33009KT 9999 OVC013 05/03 Q1020,0,9,0,10000,0,0,0,
2026-04-02 05:20:00,METAR EGSS 020520Z AUTO 32010KT 9999 BKN012 05/02 Q1019,0,10,0,10000,0,0,0,
2026-04-02 04:50:00,METAR EGSS 020450Z AUTO 32008KT 9999 FEW014 05/02 Q1019,0,8,0,10000,0,0,0,
2026-04-02 04:20:00,METAR EGSS 020420Z AUTO 32008KT 9999 FEW018 05/02 Q1019,0,8,0,10000,0,0,0,
2026-04-02 03:50:00,METAR EGSS 020350Z AUTO 31010KT 9999 NCD 07/02 Q1019,0,10,0,10000,0,0,0,
2026-04-02 03:20:00,METAR EGSS 020320Z AUTO 31010KT 290V350 9999 FEW022 07/02 Q1019,0,10,0,10000,0,0,0,
2026-04-02 02:50:00,METAR EGSS 020250Z AUTO 31010KT 9999 NCD 08/02 Q1019,0,10,0,10000,0,0,0,
2026-04-02 02:20:00,METAR EGSS 020220Z AUTO 30010KT 9999 SCT013 08/04 Q1018,0,10,0,10000,0,0,0,
2026-04-02 01:50:00,METAR EGSS 020150Z AUTO 29007KT 250V320 9999 BKN012 BKN023 09/07 Q1019,0,7,0,10000,0,0,0,
2026-04-02 01:20:00,METAR EGSS 020120Z AUTO 29004KT 9999 BKN017 BKN041 09/07 Q1019,0,4,0,10000,0,0,0,
2026-04-02 00:50:00,METAR EGSS 020050Z AUTO 28004KT 9999 SCT021 SCT027 BKN031 09/07 Q1019,0,4,0,10000,0,0,0,
2026-04-02 00:20:00,METAR EGSS 020020Z AUTO 26005KT 9999 BKN037 OVC047 09/06 Q1019,0,5,0,10000,0,0,0,
2026-04-01 23:50:00,METAR EGSS 012350Z AUTO 25004KT 9999 OVC034 10/06 Q1019,0,4,0,10000,0,0,0,
2026-04-01 23:20:00,METAR EGSS 012320Z 25005KT 9999 BKN034 10/06 Q1019,0,5,0,10000,0,0,0,
2026-04-01 22:50:00,METAR EGSS 012250Z AUTO 25005KT 9999 BKN035 OVC044 10/06 Q1020,0,5,0,10000,0,0,0,
2026-04-01 22:20:00,METAR EGSS 012220Z AUTO 26005KT 9999 OVC034 10/06 Q1020,0,5,0,10000,0,0,0,
2026-04-01 21:50:00,METAR EGSS 012150Z AUTO 27004KT 9999 OVC039 10/05 Q1020,0,4,0,10000,0,0,0,
2026-04-01 21:20:00,METAR EGSS 012120Z AUTO 24005KT 200V270 9999 OVC044 10/06 Q1020,0,5,0,10000,0,0,0,
2026-04-01 20:50:00,METAR EGSS 012050Z AUTO 25005KT 9999 OVC043 10/06 Q1020,0,5,0,10000,0,0,0,
2026-04-01 20:20:00,METAR EGSS 012020Z AUTO 25004KT 9999 OVC041 10/06 Q1020,0,4,0,10000,0,0,0,
2026-04-01 19:50:00,METAR EGSS 011950Z AUTO 25004KT 9999 OVC041 10/05 Q1021,0,4,0,10000,0,0,0,
2026-04-01 19:20:00,METAR EGSS 011920Z AUTO 26004KT 230V290 9999 OVC042 11/06 Q1021,0,4,0,10000,0,0,0,
2026-04-01 18:50:00,METAR EGSS 011850Z AUTO 25004KT 9999 OVC046 10/05 Q1021,0,4,0,10000,0,0,0,
2026-04-01 18:20:00,METAR EGSS 011820Z AUTO 25004KT 9999 OVC044 11/05 Q1021,0,4,0,10000,0,0,0,
2026-04-01 17:50:00,METAR EGSS 011750Z AUTO 27005KT 9999 OVC041 11/05 Q1021,0,5,0,10000,0,0,0,
2026-04-01 17:20:00,METAR EGSS 011720Z 26005KT 9999 OVC041 11/06 Q1021,0,5,0,10000,0,0,0,
2026-04-01 16:50:00,METAR EGSS 011650Z 26005KT 9999 OVC044 12/05 Q1021,0,5,0,10000,0,0,0,
2026-04-01 16:20:00,METAR EGSS 011620Z 26004KT 220V280 9999 OVC044 12/04 Q1021,0,4,0,10000,0,0,0,
2026-04-01 15:50:00,METAR EGSS 011550Z AUTO 28003KT 240V320 9999 OVC048 13/04 Q1021,0,3,0,10000,0,0,0,
2026-04-01 15:20:00,METAR EGSS 011520Z 27005KT 240V300 9999 OVC048 13/05 Q1022,0,5,0,10000,0,0,0,
2026-04-01 14:50:00,METAR EGSS 011450Z AUTO 30005KT 9999 BKN049 13/05 Q1022,0,5,0,10000,0,0,0,
2026-04-01 13:50:00,METAR EGSS 011350Z AUTO 28004KT 230V330 9999 SCT036 OVC045 13/05 Q1023,0,4,0,10000,0,0,0,
2026-04-01 13:20:00,METAR EGSS 011320Z AUTO 30004KT 250V350 9999 BKN037 OVC048 13/04 Q1023,0,4,0,10000,0,0,0,
2026-04-01 12:50:00,METAR EGSS 011250Z AUTO 31004KT 260V360 9999 BKN041 OVC048 13/04 Q1023,0,4,0,10000,0,0,0,
2026-04-01 12:20:00,METAR EGSS 011220Z AUTO 29005KT 240V330 9999 BKN039 12/04 Q1024,0,5,0,10000,0,0,0,
2026-04-01 11:50:00,METAR EGSS 011150Z AUTO 29005KT 240V340 9999 OVC038 12/04 Q1024,0,5,0,10000,0,0,0,
2026-04-01 11:20:00,METAR EGSS 011120Z AUTO 32007KT 280V360 9999 OVC040 13/05 Q1024,0,7,0,10000,0,0,0,
2026-04-01 10:50:00,METAR EGSS 011050Z AUTO 29006KT 250V330 9999 OVC046 13/04 Q1025,0,6,0,10000,0,0,0,
2026-04-01 10:20:00,METAR EGSS 011020Z AUTO 30007KT 270V330 9999 OVC047 12/04 Q1025,0,7,0,10000,0,0,0,
2026-04-01 09:50:00,METAR EGSS 010950Z AUTO 31008KT 9999 OVC046 12/04 Q1025,0,8,0,10000,0,0,0,
2026-04-01 09:20:00,METAR EGSS 010920Z AUTO 31007KT 9999 OVC045 12/06 Q1025,0,7,0,10000,0,0,0,
2026-04-01 08:50:00,METAR EGSS 010850Z AUTO 30005KT 270V340 9999 OVC045 11/06 Q1025,0,5,0,10000,0,0,0,
2026-04-01 08:20:00,METAR EGSS 010820Z AUTO 30004KT 260V330 9999 OVC045 10/06 Q1025,0,4,0,10000,0,0,0,
2026-04-01 07:50:00,METAR EGSS 010750Z AUTO 29003KT 9999 OVC045 10/06 Q1026,0,3,0,10000,0,0,0,
2026-04-01 07:20:00,METAR EGSS 010720Z AUTO 28003KT 9999 OVC046 09/06 Q1026,0,3,0,10000,0,0,0,
2026-04-01 06:50:00,METAR EGSS 010650Z AUTO 26001KT 9999 OVC047 09/06 Q1026,0,1,0,10000,0,0,0,
2026-04-01 06:20:00,METAR EGSS 010620Z AUTO 31001KT 9999 OVC046 08/06 Q1026,0,1,0,10000,0,0,0,
2026-04-01 05:50:00,METAR EGSS 010550Z AUTO 33002KT 9999 OVC044 08/06 Q1026,0,2,0,10000,0,0,0,
2026-04-01 05:20:00,METAR EGSS 010520Z AUTO 32002KT 9999 OVC046 08/06 Q1026,0,2,0,10000,0,0,0,
2026-04-01 04:50:00,METAR EGSS 010450Z AUTO 33003KT 9999 OVC046 08/06 Q1026,0,3,0,10000,0,0,0,
2026-04-01 04:20:00,METAR EGSS 010420Z AUTO 33004KT 9999 OVC046 09/07 Q1026,0,4,0,10000,0,0,0,
2026-04-01 03:50:00,METAR EGSS 010350Z AUTO 34004KT 9999 FEW028 BKN036 09/07 Q1026,0,4,0,10000,0,0,0,
2026-04-01 03:20:00,METAR EGSS 010320Z AUTO 35003KT 320V020 9999 BKN024 OVC046 09/07 Q1027,0,3,0,10000,0,0,0,
2026-04-01 02:50:00,METAR EGSS 010250Z AUTO 31003KT 9999 FEW024 SCT033 BKN049 08/07 Q1027,0,3,0,10000,0,0,0,
2026-04-01 02:20:00,METAR EGSS 010220Z 34003KT CAVOK 09/07 Q1027,1,0,0,9999,0,0,0,
2026-04-01 01:50:00,METAR EGSS 010150Z AUTO 34004KT 9999 SCT030 09/07 Q1027,0,4,0,10000,0,0,0,
2026-04-01 01:20:00,METAR EGSS 010120Z AUTO 34002KT 9999 FEW033 09/07 Q1027,0,2,0,10000,0,0,0,
2026-04-01 00:50:00,METAR EGSS 010050Z AUTO 34003KT 9999 BKN031 10/08 Q1028,0,3,0,10000,0,0,0,
2026-04-01 00:20:00,METAR EGSS 010020Z AUTO 36004KT 9999 BKN031 10/08 Q1028,0,4,0,10000,0,0,0,
2026-03-31 23:50:00,METAR EGSS 312350Z AUTO 32002KT 9999 BKN033 08/07 Q1028,0,2,0,9999,0,0,0,
2026-03-31 23:20:00,METAR EGSS 312320Z AUTO 27003KT 9999 SCT036 BKN047 09/07 Q1028,0,3,0,9999,0,0,0,
2026-03-31 22:50:00,METAR EGSS 312250Z AUTO 27002KT 9999 SCT037 11/08 Q1028,0,2,0,9999,0,0,0,
2026-03-31 22:20:00,METAR EGSS 312220Z AUTO 24001KT 9999 SCT039 SCT045 12/08 Q1028,0,1,0,9999,0,0,0,
2026-03-31 21:50:00,METAR EGSS 312150Z AUTO 26003KT 9999 BKN038 12/08 Q1028,0,3,0,9999,0,0,0,
2026-03-31 21:20:00,METAR EGSS 312120Z AUTO VRB02KT 9999 BKN039 BKN049 12/08 Q1028,0,2,0,9999,0,0,0,
2026-03-31 20:50:00,METAR EGSS 312050Z AUTO VRB02KT 9999 BKN039 11/08 Q1029,0,2,0,9999,0,0,0,
2026-03-31 20:20:00,METAR EGSS 312020Z AUTO VRB02KT 9999 SCT041 11/08 Q1029,0,2,0,9999,0,0,0,
2026-03-31 19:50:00,METAR EGSS 311950Z AUTO 01001KT 9999 SCT046 11/08 Q1029,0,1,0,9999,0,0,0,
2026-03-31 19:20:00,METAR EGSS 311920Z AUTO 01002KT 9999 SCT049 13/08 Q1029,0,2,0,9999,0,0,0,
2026-03-31 18:50:00,METAR EGSS 311850Z AUTO 34003KT 9999 BKN048 13/08 Q1029,0,3,0,9999,0,0,0,
2026-03-31 18:20:00,METAR EGSS 311820Z AUTO 34002KT 9999 NCD 14/08 Q1028,0,2,0,9999,0,0,0,
2026-03-31 17:50:00,METAR EGSS 311750Z AUTO 33005KT 9999 NCD 15/08 Q1028,0,5,0,9999,0,0,0,
2026-03-31 17:20:00,METAR EGSS 311720Z 33004KT 280V030 CAVOK 16/09 Q1028,1,0,0,9999,0,0,0,
2026-03-31 16:50:00,METAR EGSS 311650Z AUTO 31003KT 270V340 9999 NCD 15/09 Q1028,0,3,0,9999,0,0,0,
2026-03-31 16:20:00,METAR EGSS 311620Z AUTO 33006KT 9999 NCD 16/09 Q1028,0,6,0,9999,0,0,0,
2026-03-31 15:50:00,METAR EGSS 311550Z 32007KT CAVOK 15/09 Q1028,1,0,0,9999,0,0,0,
2026-03-31 15:20:00,METAR EGSS 311520Z AUTO 31006KT 280V350 9999 NCD 15/10 Q1029,0,6,0,9999,0,0,0,
2026-03-31 14:50:00,METAR EGSS 311450Z AUTO 31005KT 280V340 9999 -RA SCT024 BKN029 BKN036 14/10 Q1029,0,5,0,9999,0,0,0,-RA
2026-03-31 14:20:00,METAR EGSS 311420Z AUTO 32007KT 290V350 9999 SCT024 BKN030 15/10 Q1029,0,7,0,9999,0,0,0,
2026-03-31 13:50:00,METAR EGSS 311350Z 31008KT 280V340 9999 BKN021 BKN025 15/10 Q1029,0,8,0,9999,0,0,0,
2026-03-31 13:20:00,METAR EGSS 311320Z 29010KT 260V350 9999 BKN020 15/10 Q1029,0,10,0,9999,0,0,0,
2026-03-31 12:50:00,METAR EGSS 311250Z 30007KT 270V340 9999 BKN018 BKN028 14/10 Q1029,0,7,0,9999,0,0,0,
2026-03-31 12:20:00,METAR EGSS 311220Z AUTO 32007KT 290V360 9999 BKN016 13/09 Q1030,0,7,0,9999,0,0,0,
2026-03-31 11:50:00,METAR EGSS 311150Z AUTO 31009KT 9999 BKN013 13/09 Q1030,0,9,0,9999,0,0,0,
2026-03-31 11:20:00,METAR EGSS 311120Z AUTO 30009KT 9999 BKN012 12/09 Q1030,0,9,0,9999,0,0,0,
2026-03-31 10:50:00,METAR EGSS 311050Z AUTO 30008KT 9999 BKN012 OVC018 11/09 Q1030,0,8,0,9999,0,0,0,
2026-03-31 10:20:00,METAR EGSS 311020Z AUTO 30007KT 9999 BKN012 OVC018 12/09 Q1030,0,7,0,9999,0,0,0,
2026-03-31 09:50:00,METAR EGSS 310950Z AUTO 29005KT 250V340 9999 OVC012 11/09 Q1030,0,5,0,9999,0,0,0,
2026-03-31 09:20:00,METAR EGSS 310920Z AUTO 29005KT 9999 OVC013 10/08 Q1030,0,5,0,9999,0,0,0,
2026-03-31 08:50:00,METAR EGSS 310850Z AUTO 27006KT 9999 BKN011 OVC015 09/08 Q1030,0,6,0,9999,0,0,0,
2026-03-31 08:20:00,METAR EGSS 310820Z AUTO 25005KT 9999 OVC012 08/07 Q1030,0,5,0,9999,0,0,0,
2026-03-31 07:50:00,METAR EGSS 310750Z AUTO 25004KT 9999 OVC013 07/07 Q1029,0,4,0,9999,0,0,0,
2026-03-31 07:20:00,METAR EGSS 310720Z AUTO 25004KT 8000 OVC012 07/07 Q1029,0,4,0,8000,0,0,0,
2026-03-31 06:50:00,METAR EGSS 310650Z AUTO 25004KT 3000 BR FEW005 BKN013 OVC019 07/07 Q1029 REDZ,0,4,0,3000,0,0,1,"BR,DZ"
2026-03-31 06:20:00,METAR EGSS 310620Z AUTO 26005KT 2500 DZ SCT012 BKN016 BKN021 07/06 Q1029,0,5,0,2500,0,0,0,DZ
2026-03-31 05:50:00,METAR EGSS 310550Z AUTO 27004KT 240V310 9999 SCT014 BKN022 OVC027 08/05 Q1029,0,4,0,9999,0,0,0,
2026-03-31 05:20:00,METAR EGSS 310520Z AUTO 28004KT 250V320 9999 FEW020 SCT026 OVC033 08/05 Q1029,0,4,0,9999,0,0,0,
2026-03-31 04:50:00,METAR EGSS 310450Z AUTO 28004KT 9999 SCT026 OVC039 08/05 Q1028,0,4,0,9999,0,0,0,
2026-03-31 04:20:00,METAR EGSS 310420Z AUTO 27004KT 9999 OVC040 07/05 Q1028,0,4,0,9999,0,0,0,
2026-03-31 03:50:00,METAR EGSS 310350Z AUTO 27003KT 9999 OVC040 07/05 Q1028,0,3,0,9999,0,0,0,
2026-03-31 03:20:00,METAR EGSS 310320Z AUTO 28006KT 9999 OVC043 07/04 Q1029,0,6,0,9999,0,0,0,
2026-03-31 02:50:00,METAR EGSS 310250Z AUTO 28005KT 9999 SCT034 OVC048 07/04 Q1029,0,5,0,9999,0,0,0,
2026-03-31 02:20:00,METAR EGSS 310220Z AUTO 27003KT 9999 SCT031 SCT038 07/04 Q1029,0,3,0,9999,0,0,0,
2026-03-31 01:50:00,METAR EGSS 310150Z AUTO 29005KT 9999 FEW041 07/04 Q1029,0,5,0,9999,0,0,0,
2026-03-31 01:20:00,METAR EGSS 310120Z AUTO 30004KT 9999 FEW045 07/03 Q1029,0,4,0,9999,0,0,0,
2026-03-31 00:50:00,METAR EGSS 310050Z AUTO 29004KT 9999 NCD 07/03 Q1029,0,4,0,9999,0,0,0,
2026-03-31 00:20:00,METAR EGSS 310020Z AUTO 30003KT 9999 NCD 06/03 Q1028,0,3,0,9999,0,0,0,
2026-03-30 23:50:00,METAR EGSS 302350Z AUTO 30004KT 9999 NCD 06/03 Q1028,0,4,0,10000,0,0,0,
2026-03-30 23:20:00,METAR EGSS 302320Z AUTO 29004KT 9999 NCD 06/03 Q1028,0,4,0,10000,0,0,0,
2026-03-30 22:50:00,METAR EGSS 302250Z AUTO 29003KT 9999 NCD 06/02 Q1028,0,3,0,10000,0,0,0,
2026-03-30 22:20:00,METAR EGSS 302220Z AUTO 29004KT 9999 NCD 06/02 Q1028,0,4,0,10000,0,0,0,
2026-03-30 21:50:00,METAR EGSS 302150Z AUTO 30005KT 9999 NCD 06/02 Q1028,0,5,0,10000,0,0,0,
2026-03-30 21:20:00,METAR EGSS 302120Z AUTO 29006KT 9999 NCD 06/02 Q1028,0,6,0,10000,0,0,0,
2026-03-30 20:50:00,METAR EGSS 302050Z AUTO 29005KT 9999 NCD 06/02 Q1027,0,5,0,10000,0,0,0,
2026-03-30 20:20:00,METAR EGSS 302020Z AUTO 31005KT 9999 NCD 07/02 Q1027,0,5,0,10000,0,0,0,
2026-03-30 19:50:00,METAR EGSS 301950Z AUTO 31006KT 9999 NCD 08/02 Q1027,0,6,0,10000,0,0,0,
2026-03-30 19:20:00,METAR EGSS 301920Z AUTO 32007KT 9999 NCD 09/02 Q1027,0,7,0,10000,0,0,0,
2026-03-30 18:50:00,METAR EGSS 301850Z AUTO 31007KT 9999 NCD 09/02 Q1026,0,7,0,10000,0,0,0,
2026-03-30 18:20:00,METAR EGSS 301820Z AUTO 32009KT 280V350 9999 SCT042 09/02 Q1026,0,9,0,10000,0,0,0,
2026-03-30 17:50:00,METAR EGSS 301750Z 32008KT 300V360 9999 FEW045 10/02 Q1026,0,8,0,10000,0,0,0,
2026-03-30 17:20:00,METAR EGSS 301720Z AUTO 32012KT 9999 BKN044 10/02 Q1025,0,12,0,10000,0,0,0,
2026-03-30 16:50:00,METAR EGSS 301650Z AUTO 32011KT 280V340 9999 FEW045 11/03 Q1025,0,11,0,10000,0,0,0,
2026-03-30 16:20:00,METAR EGSS 301620Z AUTO 32010KT 280V340 9999 FEW037 10/02 Q1025,0,10,0,10000,0,0,0,
2026-03-30 15:50:00,METAR EGSS 301550Z AUTO 31010KT 9999 FEW038 BKN047 10/03 Q1024,0,10,0,10000,0,0,0,
2026-03-30 15:20:00,METAR EGSS 301520Z AUTO 31011KT 9999 SCT042 BKN048 09/03 Q1024,0,11,0,10000,0,0,0,
2026-03-30 14:50:00,METAR EGSS 301450Z AUTO 31013KT 9999 SCT043 SCT049 11/02 Q1024,0,13,0,10000,0,0,0,
2026-03-30 14:20:00,METAR EGSS 301420Z AUTO 32012KT 280V350 9999 SCT042 11/02 Q1023,0,12,0,10000,0,0,0,
2026-03-30 13:50:00,METAR EGSS 301350Z AUTO 32011KT 290V350 9999 NCD 11/04 Q1024,0,11,0,10000,0,0,0,
2026-03-30 13:20:00,METAR EGSS 301320Z AUTO 33013G23KT 290V010 9999 BKN038 09/03 Q1023,0,13,1,10000,0,0,0,
2026-03-30 12:50:00,METAR EGSS 301250Z AUTO 32017KT 9999 FEW035 SCT042 10/02 Q1023,0,17,0,10000,0,0,0,
2026-03-30 12:20:00,METAR EGSS 301220Z AUTO 31010KT 270V350 9999 SCT029 SCT044 10/05 Q1023,0,10,0,10000,0,0,0,
2026-03-30 11:50:00,METAR EGSS 301150Z AUTO 31012G23KT 270V010 8000 -RA SCT023 BKN030 OVC039 07/05 Q1023,0,12,1,8000,0,0,0,-RA
2026-03-30 11:20:00,METAR EGSS 301120Z AUTO 30012G24KT 9999 -RA BKN032 BKN039 09/03 Q1023,0,12,1,10000,0,0,0,-RA
2026-03-30 10:50:00,METAR EGSS 301050Z AUTO 30013KT 260V330 9999 BKN033 09/03 Q1023,0,13,0,10000,0,0,0,
2026-03-30 10:20:00,METAR EGSS 301020Z AUTO 31009KT 260V340 9999 BKN032 09/03 Q1023,0,9,0,10000,0,0,0,
2026-03-30 09:50:00,METAR EGSS 300950Z AUTO 30013KT 270V330 9999 BKN031 09/04 Q1022,0,13,0,10000,0,0,0,
2026-03-30 09:20:00,METAR EGSS 300920Z AUTO 28010KT 240V320 9999 FEW029 BKN035 08/04 Q1022,0,10,0,10000,0,0,0,
2026-03-30 08:50:00,METAR EGSS 300850Z AUTO 30013G24KT 270V330 8000 -RA SCT030 BKN038 BKN049 08/03 Q1022,0,13,1,8000,0,0,0,-RA
2026-03-30 08:20:00,METAR EGSS 300820Z AUTO 29011KT 9999 NCD 08/03 Q1022,0,11,0,10000,0,0,0,
2026-03-30 07:50:00,METAR EGSS 300750Z AUTO 28010KT 240V310 9999 NCD 08/03 Q1021,0,10,0,10000,0,0,0,
2026-03-30 07:20:00,METAR EGSS 300720Z AUTO 27009KT 9999 BKN034 07/03 Q1021,0,9,0,10000,0,0,0,
2026-03-30 06:50:00,METAR EGSS 300650Z AUTO 26008KT 9999 NCD 06/02 Q1021,0,8,0,10000,0,0,0,
2026-03-30 06:20:00,METAR EGSS 300620Z AUTO 26006KT 9999 FEW046 05/02 Q1021,0,6,0,10000,0,0,0,
2026-03-30 05:50:00,METAR EGSS 300550Z AUTO 29007KT 260V320 9999 SCT042 06/02 Q1020,0,7,0,10000,0,0,0,
2026-03-30 05:20:00,METAR EGSS 300520Z AUTO 29007KT 9999 FEW038 05/02 Q1020,0,7,0,10000,0,0,0,
2026-03-30 04:50:00,METAR EGSS 300450Z AUTO 27007KT 9999 FEW039 05/02 Q1020,0,7,0,10000,0,0,0,
2026-03-30 04:20:00,METAR EGSS 300420Z AUTO 25006KT 9999 BKN036 05/02 Q1020,0,6,0,10000,0,0,0,
2026-03-30 03:50:00,METAR EGSS 300350Z AUTO 28006KT 250V310 9999 SCT042 06/02 Q1019,0,6,0,10000,0,0,0,
2026-03-30 03:20:00,METAR EGSS 300320Z AUTO 27008KT 9999 FEW043 06/03 Q1019,0,8,0,10000,0,0,0,
2026-03-30 02:50:00,METAR EGSS 300250Z AUTO 26007KT 9999 FEW044 06/04 Q1020,0,7,0,10000,0,0,0,
2026-03-30 02:20:00,METAR EGSS 300220Z AUTO 28004KT 9999 NCD 06/04 Q1020,0,4,0,10000,0,0,0,
2026-03-30 01:50:00,METAR EGSS 300150Z AUTO 28004KT 240V300 9999 NCD 06/05 Q1020,0,4,0,10000,0,0,0,
2026-03-30 01:20:00,METAR EGSS 300120Z AUTO 27005KT 9999 NCD 07/05 Q1019,0,5,0,10000,0,0,0,
2026-03-30 00:50:00,METAR EGSS 300050Z AUTO 28005KT 250V310 9999 NCD 07/05 Q1019,0,5,0,10000,0,0,0,
2026-03-30 00:20:00,METAR EGSS 300020Z AUTO 28009KT 250V310 9999 NCD 08/05 Q1020,0,9,0,10000,0,0,0,
2026-03-29 23:50:00,METAR EGSS 292350Z AUTO 29013G23KT 9999 -RA FEW015 SCT041 08/05 Q1020,0,13,1,10000,0,0,0,-RA
2026-03-29 23:20:00,METAR EGSS 292320Z AUTO 27012KT 250V310 9999 -RA FEW017 SCT049 09/06 Q1019,0,12,0,10000,0,0,0,-RA
2026-03-29 22:50:00,METAR EGSS 292250Z AUTO 29010KT 9999 NCD 09/06 Q1019,0,10,0,10000,0,0,0,
2026-03-29 22:20:00,METAR EGSS 292220Z AUTO 26008KT 9999 NCD 08/06 Q1019,0,8,0,10000,0,0,0,
2026-03-29 21:50:00,METAR EGSS 292150Z AUTO 25010KT 9999 NCD 08/07 Q1019,0,10,0,10000,0,0,0,
2026-03-29 21:20:00,METAR EGSS 292120Z 25009KT CAVOK 08/07 Q1019,1,0,0,9999,0,0,0,
2026-03-29 20:50:00,METAR EGSS 292050Z AUTO 24011KT 9999 FEW013 08/07 Q1019,0,11,0,10000,0,0,0,
2026-03-29 20:20:00,METAR EGSS 292020Z AUTO 23013KT 9999 SCT009 BKN017 08/07 Q1019,0,13,0,10000,0,0,0,
2026-03-29 19:50:00,METAR EGSS 291950Z AUTO 23013KT 9999 BKN007 BKN012 08/07 Q1019,0,13,0,10000,0,0,0,
2026-03-29 19:20:00,METAR EGSS 291920Z AUTO 24014KT 9999 BKN006 OVC010 08/07 Q1020,0,14,0,10000,0,0,0,
2026-03-29 18:50:00,METAR EGSS 291850Z AUTO 23017KT 9000 OVC006 07/07 Q1019,0,17,0,9000,0,0,0,
2026-03-29 18:20:00,METAR EGSS 291820Z AUTO 23015KT 9999 -RA BKN006 OVC010 07/07 Q1020,0,15,0,10000,0,0,0,-RA
2026-03-29 17:50:00,METAR EGSS 291750Z AUTO 23018KT 3300 -RA BKN006 OVC009 07/07 Q1020 RERA,0,18,0,3300,0,0,0,"-RA,RA"
2026-03-29 17:20:00,METAR EGSS 291720Z AUTO 23017KT 3300 RA BKN010 OVC022 08/06 Q1021,0,17,0,3300,0,0,0,RA
2026-03-29 16:50:00,METAR EGSS 291650Z AUTO 23019KT 9999 OVC016 08/05 Q1021,0,19,0,10000,0,0,0,
2026-03-29 16:20:00,METAR EGSS 291620Z AUTO 23016G27KT 9999 OVC018 08/05 Q1021,0,16,1,10000,0,0,0,
2026-03-29 15:20:00,METAR EGSS 291520Z AUTO 23020KT 9999 SCT022 BKN031 08/05 Q1023,0,20,0,10000,0,0,0,
2026-03-29 14:50:00,METAR EGSS 291450Z AUTO 23016KT 9999 -RA BKN023 08/05 Q1024,0,16,0,10000,0,0,0,-RA
2026-03-29 14:20:00,METAR EGSS 291420Z AUTO 23017KT 9999 -RA OVC028 08/04 Q1024,0,17,0,10000,0,0,0,-RA
2026-03-29 13:50:00,METAR EGSS 291350Z AUTO 23017KT 9999 OVC032 09/03 Q1025,0,17,0,10000,0,0,0,
2026-03-29 13:20:00,METAR EGSS 291320Z AUTO 24014KT 9999 BKN033 OVC046 09/03 Q1026,0,14,0,10000,0,0,0,
2026-03-29 12:50:00,METAR EGSS 291250Z AUTO 22016KT 9999 BKN040 09/03 Q1026,0,16,0,10000,0,0,0,
2026-03-29 12:20:00,METAR EGSS 291220Z AUTO 23015KT 9999 FEW034 BKN047 09/02 Q1027,0,15,0,10000,0,0,0,
2026-03-29 11:50:00,METAR EGSS 291150Z AUTO 23014KT 9999 FEW033 09/02 Q1028,0,14,0,10000,0,0,0,
2026-03-29 11:20:00,METAR EGSS 291120Z AUTO 23014KT 9999 NCD 09/02 Q1028,0,14,0,10000,0,0,0,
2026-03-29 10:50:00,METAR EGSS 291050Z AUTO 23013KT 9999 NCD 09/02 Q1029,0,13,0,10000,0,0,0,
2026-03-29 10:20:00,METAR EGSS 291020Z AUTO 23012KT 9999 NCD 08/03 Q1029,0,12,0,10000,0,0,0,
2026-03-29 09:50:00,METAR EGSS 290950Z AUTO 22012KT 9999 NCD 08/03 Q1029,0,12,0,10000,0,0,0,
2026-03-29 09:20:00,METAR EGSS 290920Z AUTO 22010KT 9999 NCD 07/03 Q1029,0,10,0,10000,0,0,0,
2026-03-29 08:50:00,METAR EGSS 290850Z AUTO 21008KT 9999 NCD 07/03 Q1029,0,8,0,10000,0,0,0,
2026-03-29 08:20:00,METAR EGSS 290820Z AUTO 24007KT 9999 NCD 06/02 Q1030,0,7,0,10000,0,0,0,
2026-03-29 07:50:00,METAR EGSS 290750Z AUTO 24008KT 9999 NCD 05/02 Q1030,0,8,0,10000,0,0,0,
2026-03-29 07:20:00,METAR EGSS 290720Z AUTO 24007KT 9999 NCD 03/01 Q1030,0,7,0,10000,0,0,0,
2026-03-29 06:50:00,METAR EGSS 290650Z AUTO 23005KT 9999 NCD 02/00 Q1030,0,5,0,10000,0,0,0,
2026-03-29 06:20:00,METAR EGSS 290620Z AUTO 22006KT 9999 NCD 00/M00 Q1030,0,6,0,10000,0,0,0,
2026-03-29 05:50:00,METAR EGSS 290550Z AUTO 22005KT 9999 NCD M00/M01 Q1030,0,5,0,10000,0,0,0,
2026-03-29 05:20:00,METAR EGSS 290520Z AUTO 27003KT 9999 NCD 01/M00 Q1030,0,3,0,10000,0,0,0,
2026-03-29 04:50:00,METAR EGSS 290450Z AUTO 24003KT 9999 NCD 01/M01 Q1030,0,3,0,10000,0,0,0,
2026-03-29 04:20:00,METAR EGSS 290420Z AUTO 28004KT 9999 NCD 02/M00 Q1031,0,4,0,10000,0,0,0,
2026-03-29 03:50:00,METAR EGSS 290350Z AUTO 30004KT 9999 NCD 02/00 Q1030,0,4,0,10000,0,0,0,
2026-03-29 03:20:00,METAR EGSS 290320Z AUTO 29004KT 9999 NCD 02/00 Q1030,0,4,0,10000,0,0,0,
2026-03-29 02:50:00,METAR EGSS 290250Z AUTO 29004KT 9999 NCD 02/00 Q1030,0,4,0,10000,0,0,0,
2026-03-29 02:20:00,METAR EGSS 290220Z AUTO 30006KT 9999 NCD 02/00 Q1030,0,6,0,10000,0,0,0,
2026-03-29 01:50:00,METAR EGSS 290150Z AUTO 29004KT 9999 NCD 02/00 Q1030,0,4,0,10000,0,0,0,
2026-03-29 01:20:00,METAR EGSS 290120Z AUTO 29005KT 9999 NCD 02/M00 Q1030,0,5,0,10000,0,0,0,
2026-03-29 00:50:00,METAR EGSS 290050Z AUTO 30004KT 9999 NCD 02/M00 Q1030,0,4,0,10000,0,0,0,
2026-03-29 00:20:00,METAR EGSS 290020Z AUTO 30005KT 9999 NCD 03/M00 Q1030,0,5,0,10000,0,0,0,
2026-03-28 23:50:00,METAR EGSS 282350Z AUTO 30006KT 9999 NCD 03/00 Q1030,0,6,0,10000,0,0,0,
2026-03-28 23:20:00,METAR EGSS 282320Z AUTO 30006KT 9999 NCD 03/00 Q1030,0,6,0,10000,0,0,0,
2026-03-28 22:50:00,METAR EGSS 282250Z AUTO 30006KT 9999 NCD 04/00 Q1030,0,6,0,10000,0,0,0,
2026-03-28 22:20:00,METAR EGSS 282220Z AUTO 30007KT 9999 NCD 04/M00 Q1029,0,7,0,10000,0,0,0,
2026-03-28 21:50:00,METAR EGSS 282150Z AUTO 30008KT 9999 NCD 04/00 Q1029,0,8,0,10000,0,0,0,
2026-03-28 21:20:00,METAR EGSS 282120Z AUTO 30008KT 9999 NCD 05/00 Q1029,0,8,0,10000,0,0,0,
2026-03-28 20:50:00,METAR EGSS 282050Z AUTO 30009KT 9999 NCD 05/00 Q1029,0,9,0,10000,0,0,0,
2026-03-28 20:20:00,METAR EGSS 282020Z AUTO 31010KT 9999 NCD 05/M00 Q1028,0,10,0,10000,0,0,0,
2026-03-28 19:50:00,METAR EGSS 281950Z AUTO 31009KT 9999 NCD 05/M01 Q1028,0,9,0,10000,0,0,0,
2026-03-28 19:20:00,METAR EGSS 281920Z AUTO 31009KT 9999 NCD 06/M01 Q1028,0,9,0,10000,0,0,0,
2026-03-28 18:50:00,METAR EGSS 281850Z AUTO 30009KT 9999 NCD 06/01 Q1027,0,9,0,10000,0,0,0,
2026-03-28 18:20:00,METAR EGSS 281820Z AUTO 30010KT 9999 NCD 06/00 Q1027,0,10,0,10000,0,0,0,
2026-03-28 17:50:00,METAR EGSS 281750Z AUTO 31012G23KT 9999 NCD 07/M00 Q1026,0,12,1,10000,0,0,0,
2026-03-28 17:20:00,METAR EGSS 281720Z AUTO 30014KT 270V330 9999 FEW042 08/01 Q1026,0,14,0,10000,0,0,0,
2026-03-28 16:50:00,METAR EGSS 281650Z AUTO 31012G26KT 9999 FEW044 08/M01 Q1025,0,12,1,10000,0,0,0,
2026-03-28 16:20:00,METAR EGSS 281620Z AUTO 31014KT 9999 SCT048 09/M01 Q1025,0,14,0,10000,0,0,0,
2026-03-28 15:50:00,METAR EGSS 281550Z AUTO 32011G21KT 280V360 9999 -RA SCT047/// //////TCU 08/M00 Q1024,0,11,1,10000,0,0,0,-RA
2026-03-28 15:20:00,METAR EGSS 281520Z AUTO 31014KT 280V340 9999 FEW049/// //////TCU 09/M01 Q1024,0,14,0,10000,0,0,0,
2026-03-28 14:50:00,METAR EGSS 281450Z AUTO 31015G27KT 9999 //////TCU 09/M03 Q1024,0,15,1,10000,0,0,0,
2026-03-28 14:20:00,METAR EGSS 281420Z AUTO 31014G25KT 260V340 9999 //////TCU 10/M02 Q1024,0,14,1,10000,0,0,0,
2026-03-28 13:50:00,METAR EGSS 281350Z AUTO 30011KT 9999 //////CB 09/M02 Q1024,0,11,0,10000,0,0,0,
2026-03-28 13:20:00,METAR EGSS 281320Z AUTO 30012KT 9999 //////TCU 09/M02 Q1024,0,12,0,10000,0,0,0,
2026-03-28 12:50:00,METAR EGSS 281250Z AUTO 30012KT 270V330 9999 BKN048 09/M01 Q1023,0,12,0,10000,0,0,0,
2026-03-28 12:20:00,METAR EGSS 281220Z AUTO 31011KT 270V340 9999 BKN047 09/M01 Q1023,0,11,0,10000,0,0,0,
2026-03-28 11:50:00,METAR EGSS 281150Z AUTO 29014KT 250V320 9999 SCT044 09/M01 Q1024,0,14,0,10000,0,0,0,
2026-03-28 11:20:00,METAR EGSS 281120Z AUTO 30012KT 260V330 9999 SCT036 BKN044 08/M01 Q1024,0,12,0,10000,0,0,0,
2026-03-28 10:50:00,METAR EGSS 281050Z AUTO 31009KT 280V350 9999 BKN036 08/01 Q1024,0,9,0,10000,0,0,0,
2026-03-28 10:20:00,METAR EGSS 281020Z AUTO 31012KT 270V340 9999 SCT035 BKN046 07/00 Q1023,0,12,0,10000,0,0,0,
2026-03-28 09:50:00,METAR EGSS 280950Z AUTO 31011KT 260V340 9999 BKN028 BKN039 07/01 Q1023,0,11,0,10000,0,0,0,
2026-03-28 09:20:00,METAR EGSS 280920Z AUTO 29010KT 250V330 9999 BKN026 BKN035 07/01 Q1023,0,10,0,10000,0,0,0,
2026-03-28 08:50:00,METAR EGSS 280850Z AUTO 29011KT 250V320 9999 NCD 06/01 Q1023,0,11,0,10000,0,0,0,
2026-03-28 08:20:00,METAR EGSS 280820Z AUTO 29009KT 250V320 9999 NCD 06/01 Q1023,0,9,0,10000,0,0,0,
2026-03-28 07:50:00,METAR EGSS 280750Z AUTO 28008KT 9999 NCD 05/01 Q1022,0,8,0,10000,0,0,0,
2026-03-28 07:20:00,METAR EGSS 280720Z AUTO 29005KT 9999 NCD 04/01 Q1022,0,5,0,10000,0,0,0,
2026-03-28 06:50:00,METAR EGSS 280650Z AUTO 29005KT 9999 NCD 03/M00 Q1022,0,5,0,10000,0,0,0,
2026-03-28 06:20:00,METAR EGSS 280620Z AUTO 29005KT 9999 NCD 03/M00 Q1022,0,5,0,10000,0,0,0,
2026-03-28 05:50:00,METAR EGSS 280550Z AUTO 29006KT 9999 NCD 03/M00 Q1021,0,6,0,10000,0,0,0,
2026-03-28 05:20:00,METAR EGSS 280520Z AUTO 29006KT 9999 NCD 03/00 Q1021,0,6,0,10000,0,0,0,
2026-03-28 04:50:00,METAR EGSS 280450Z AUTO 29007KT 9999 NCD 03/01 Q1021,0,7,0,10000,0,0,0,
2026-03-28 04:20:00,METAR EGSS 280420Z AUTO 29007KT 9999 NCD 03/01 Q1021,0,7,0,10000,0,0,0,
2026-03-28 03:50:00,METAR EGSS 280350Z AUTO 30007KT 9999 NCD 04/01 Q1021,0,7,0,10000,0,0,0,
2026-03-28 03:20:00,METAR EGSS 280320Z AUTO 30007KT 260V330 9999 NCD 04/02 Q1020,0,7,0,10000,0,0,0,
2026-03-28 02:50:00,METAR EGSS 280250Z AUTO 30007KT 9999 NCD 05/02 Q1020,0,7,0,10000,0,0,0,
2026-03-28 02:20:00,METAR EGSS 280220Z AUTO 30008KT 9999 NCD 05/02 Q1020,0,8,0,10000,0,0,0,
2026-03-28 01:50:00,METAR EGSS 280150Z AUTO 31008KT 9999 NCD 05/03 Q1020,0,8,0,10000,0,0,0,
2026-03-28 01:20:00,METAR EGSS 280120Z AUTO 30008KT 9999 NCD 06/04 Q1019,0,8,0,10000,0,0,0,
2026-03-28 00:50:00,METAR EGSS 280050Z AUTO 31007KT 270V330 9999 NCD 06/04 Q1019,0,7,0,10000,0,0,0,
2026-03-28 00:20:00,METAR EGSS 280020Z AUTO 31005KT 260V340 9999 NCD 06/04 Q1019,0,5,0,10000,0,0,0,
2026-03-27 23:50:00,METAR EGSS 272350Z AUTO 30005KT 9999 NCD 06/04 Q1019,0,5,0,10000,0,0,0,
2026-03-27 23:20:00,METAR EGSS 272320Z AUTO 30007KT 250V330 9999 BKN038 06/04 Q1019,0,7,0,10000,0,0,0,
2026-03-27 22:50:00,METAR EGSS 272250Z AUTO 29005KT 9999 NCD 06/04 Q1019,0,5,0,10000,0,0,0,
2026-03-27 22:20:00,METAR EGSS 272220Z AUTO 30005KT 9999 NCD 06/04 Q1018,0,5,0,10000,0,0,0,
2026-03-27 21:50:00,METAR EGSS 272150Z AUTO 30006KT 9999 NCD 07/05 Q1018,0,6,0,10000,0,0,0,
2026-03-27 21:20:00,METAR EGSS 272120Z AUTO 29006KT 9999 NCD 07/06 Q1018,0,6,0,10000,0,0,0,
2026-03-27 20:50:00,METAR EGSS 272050Z AUTO 29004KT 9999 FEW048 07/06 Q1018,0,4,0,10000,0,0,0,
2026-03-27 20:20:00,METAR EGSS 272020Z AUTO 30005KT 9999 OVC044 08/07 Q1018,0,5,0,10000,0,0,0,
2026-03-27 19:50:00,METAR EGSS 271950Z AUTO 30006KT 9999 BKN030 OVC048 08/07 Q1018,0,6,0,10000,0,0,0,
2026-03-27 19:20:00,METAR EGSS 271920Z AUTO 31006KT 9999 SCT022/// BKN029/// OVC044/// //////CB 09/07 Q1017,0,6,0,10000,0,0,0,
2026-03-27 18:50:00,METAR EGSS 271850Z AUTO 31007KT 9999 BKN017/// OVC027/// //////TCU 09/08 Q1017 RERA REDZ,0,7,0,10000,0,0,0,"DZ,RA"
2026-03-27 18:20:00,METAR EGSS 271820Z AUTO 32012KT 4900 RADZ BKN003/// OVC023/// //////TCU 09/09 Q1017,0,12,0,4900,0,0,0,"DZ,RA"
2026-03-27 17:50:00,METAR EGSS 271750Z AUTO 23008KT 2900 DZ BKN004 OVC008 11/10 Q1016,0,8,0,2900,0,0,0,DZ
2026-03-27 17:20:00,METAR EGSS 271720Z AUTO 22009KT 6000 OVC007 11/10 Q1016,0,9,0,6000,0,0,0,
2026-03-27 16:50:00,METAR EGSS 271650Z AUTO 22009KT 7000 -RA BKN004 OVC010 11/10 Q1016,0,9,0,7000,0,0,0,-RA
2026-03-27 16:20:00,METAR EGSS 271620Z AUTO 22010KT 2700 -RADZ BKN003 OVC008 10/10 Q1016,0,10,0,2700,0,0,0,"-RA,DZ"
2026-03-25 14:50:00,METAR EGSS 251450Z AUTO 31011KT 9999 SCT035/// BKN045/// //////TCU 07/01 Q1010,0,11,0,10000,0,0,0,
2026-03-25 14:20:00,METAR EGSS 251420Z AUTO 30019G30KT 260V320 9999 -RA SCT035/// SCT046/// //////CB 07/01 Q1009,0,19,1,10000,0,0,0,-RA
2026-03-25 13:50:00,METAR EGSS 251350Z AUTO 30015G26KT 9999 -RA SCT040/// //////CB 07/00 Q1009,0,15,1,10000,0,0,0,-RA
2026-03-25 13:20:00,METAR EGSS 251320Z AUTO 31014KT 9999 FEW033/// SCT042/// //////CB 08/00 Q1009,0,14,0,10000,0,0,0,
2026-03-25 12:50:00,METAR EGSS 251250Z AUTO 29013KT 260V330 9999 FEW033/// SCT044/// //////CB 07/01 Q1009,0,13,0,10000,0,0,0,
2026-03-25 12:20:00,METAR EGSS 251220Z AUTO 29017G28KT 9999 -RA FEW019/// BKN037/// //////CB 04/00 Q1009,0,17,1,10000,0,0,0,-RA
2026-03-25 11:50:00,METAR EGSS 251150Z AUTO 29017G27KT 9999 BKN035 08/00 Q1008,0,17,1,10000,0,0,0,
2026-03-25 11:20:00,METAR EGSS 251120Z AUTO 30014G27KT 9999 BKN034/// //////TCU 07/00 Q1008,0,14,1,10000,0,0,0,
2026-03-25 10:50:00,METAR EGSS 251050Z AUTO 30011G25KT 9999 -RA BKN027/// BKN034/// //////TCU 06/01 Q1008,0,11,1,10000,0,0,0,-RA
2026-03-25 10:20:00,METAR EGSS 251020Z AUTO 29013KT 9999 -RA BKN019 BKN032 OVC049 05/02 Q1008,0,13,0,10000,0,0,0,-RA
2026-03-25 09:50:00,METAR EGSS 250950Z AUTO 29014KT 9999 BKN018 BKN023 06/02 Q1007,0,14,0,10000,0,0,0,
2026-03-25 09:20:00,METAR EGSS 250920Z AUTO 29013KT 270V330 9999 BKN019/// BKN026/// //////TCU 06/02 Q1007,0,13,0,10000,0,0,0,
2026-03-25 08:50:00,METAR EGSS 250850Z AUTO 29015KT 9999 BKN020 BKN025 06/02 Q1006,0,15,0,10000,0,0,0,
2026-03-25 08:20:00,METAR EGSS 250820Z AUTO 29013KT 9999 SCT020 BKN024 06/02 Q1006,0,13,0,10000,0,0,0,
2026-03-25 07:50:00,METAR EGSS 250750Z AUTO 29014KT 9999 SCT019 06/03 Q1005,0,14,0,10000,0,0,0,
2026-03-25 07:20:00,METAR EGSS 250720Z AUTO 29010KT 9999 SCT017 06/03 Q1005,0,10,0,10000,0,0,0,
2026-03-25 06:50:00,METAR EGSS 250650Z AUTO 29009KT 250V330 9999 FEW018 05/03 Q1004,0,9,0,10000,0,0,0,
2026-03-25 06:20:00,METAR EGSS 250620Z AUTO 29010KT 9999 BKN043/// //////TCU 05/03 Q1004,0,10,0,10000,0,0,0,
2026-03-25 05:50:00,METAR EGSS 250550Z AUTO 29012KT 260V330 9999 -RA BKN018/// //////CB 05/03 Q1003,0,12,0,10000,0,0,0,-RA
2026-03-25 05:20:00,METAR EGSS 250520Z AUTO 28010KT 9999 -RA BKN022/// OVC035/// //////TCU 06/02 Q1003,0,10,0,10000,0,0,0,-RA
2026-03-25 04:50:00,METAR EGSS 250450Z AUTO 27010KT 9999 BKN025 OVC030 06/02 Q1002,0,10,0,10000,0,0,0,
2026-03-25 04:20:00,METAR EGSS 250420Z AUTO 27011KT 250V310 9999 BKN027 OVC034 06/02 Q1002,0,11,0,10000,0,0,0,
2026-03-25 03:50:00,METAR EGSS 250350Z AUTO 26011KT 9999 BKN028 06/02 Q1002,0,11,0,10000,0,0,0,
2026-03-25 03:20:00,METAR EGSS 250320Z AUTO 26011KT 9999 BKN028 06/02 Q1002,0,11,0,10000,0,0,0,
2026-03-25 02:50:00,METAR EGSS 250250Z AUTO 26012G23KT 9999 SCT030 06/02 Q1001,0,12,1,10000,0,0,0,
2026-03-25 02:20:00,METAR EGSS 250220Z AUTO 26011KT 9999 BKN030 06/02 Q1001,0,11,0,10000,0,0,0,
2026-03-25 01:50:00,METAR EGSS 250150Z 26015KT 9999 BKN029 BKN038 07/02 Q1001,0,15,0,10000,0,0,0,
2026-03-25 01:20:00,METAR EGSS 250120Z AUTO 25015KT 9999 BKN034 07/02 Q1001,0,15,0,10000,0,0,0,
2026-03-25 00:50:00,METAR EGSS 250050Z AUTO 26015KT 9999 FEW038 07/02 Q1001,0,15,0,10000,0,0,0,
2026-03-25 00:20:00,METAR EGSS 250020Z AUTO 26015KT 9999 SCT034 08/03 Q1001,0,15,0,10000,0,0,0,
2026-03-24 23:50:00,METAR EGSS 242350Z AUTO 27015G26KT 9999 SCT030 SCT039 08/03 Q1001,0,15,1,10000,0,0,0,
2026-03-24 23:20:00,METAR EGSS 242320Z AUTO 26016G30KT 9999 BKN027 BKN032 BKN038 09/05 Q1001,0,16,1,10000,0,0,0,
2026-03-24 22:50:00,METAR EGSS 242250Z AUTO 26014G25KT 9999 SCT026 09/05 Q1000,0,14,1,10000,0,0,0,
2026-03-24 22:20:00,METAR EGSS 242220Z AUTO 25016KT 9999 BKN027/// //////TCU 09/06 Q1000,0,16,0,10000,0,0,0,
2026-03-24 21:50:00,METAR EGSS 242150Z AUTO 24022G42KT 220V280 9999 -RA BKN010/// BKN020/// OVC049/// //////CB 10/08 Q1001 RERA REDZ,0,22,1,10000,0,0,0,"-RA,DZ,RA"
2026-03-24 21:20:00,METAR EGSS 242120Z AUTO 22021KT 3300 -RADZ BKN011 OVC021 10/09 Q1000,0,21,0,3300,0,0,0,"-RA,DZ"
2026-03-24 20:50:00,METAR EGSS 242050Z AUTO 22021KT 9000 -RA BKN012 OVC016 10/09 Q1001,0,21,0,9000,0,0,0,-RA
2026-03-24 20:20:00,METAR EGSS 242020Z AUTO 22022G32KT 9999 BKN016 OVC020 11/08 Q1002,0,22,1,10000,0,0,0,
2026-03-24 19:50:00,METAR EGSS 241950Z AUTO 22023KT 9999 OVC015 11/08 Q1003,0,23,0,10000,0,0,0,
2026-03-24 19:20:00,METAR EGSS 241920Z AUTO 22021KT 9999 BKN014 OVC020 11/09 Q1004,0,21,0,10000,0,0,0,
2026-03-24 18:50:00,METAR EGSS 241850Z AUTO 22023KT 9999 BKN013 OVC018 11/09 Q1004,0,23,0,10000,0,0,0,
2026-03-24 18:20:00,METAR EGSS 241820Z AUTO 21022KT 9999 BKN014 OVC019 11/09 Q1005,0,22,0,10000,0,0,0,
2026-03-24 17:50:00,METAR EGSS 241750Z AUTO 22019KT 9999 BKN016 OVC027 11/08 Q1006,0,19,0,10000,0,0,0,
2026-03-24 17:20:00,METAR EGSS 241720Z AUTO 23019KT 9999 OVC015 11/08 Q1006,0,19,0,10000,0,0,0,
2026-03-24 16:50:00,METAR EGSS 241650Z AUTO 22020KT 9999 OVC015 11/09 Q1007,0,20,0,10000,0,0,0,
2026-03-24 16:20:00,METAR EGSS 241620Z AUTO 21018KT 9999 OVC015 12/09 Q1008,0,18,0,10000,0,0,0,
2026-03-24 15:50:00,METAR EGSS 241550Z AUTO 22019KT 9999 BKN017 12/09 Q1008,0,19,0,10000,0,0,0,
2026-03-24 15:20:00,METAR EGSS 241520Z AUTO 22020G30KT 9999 OVC017 12/09 Q1009,0,20,1,10000,0,0,0,
2026-03-24 14:50:00,METAR EGSS 241450Z AUTO 22015KT 9999 OVC017 12/09 Q1010,0,15,0,10000,0,0,0,
2026-03-24 14:20:00,METAR EGSS 241420Z AUTO 22018KT 9999 OVC016 12/09 Q1010,0,18,0,10000,0,0,0,
2026-03-24 13:50:00,METAR EGSS 241350Z AUTO 22021KT 9999 OVC016 12/09 Q1011,0,21,0,10000,0,0,0,
2026-03-24 13:20:00,METAR EGSS 241320Z AUTO 22019KT 9999 OVC016 12/09 Q1011,0,19,0,10000,0,0,0,
2026-03-24 12:50:00,METAR EGSS 241250Z AUTO 22019KT 9999 OVC017 12/09 Q1012,0,19,0,10000,0,0,0,
2026-03-24 12:20:00,METAR EGSS 241220Z AUTO 22018KT 9999 OVC018 12/09 Q1013,0,18,0,10000,0,0,0,
2026-03-24 11:50:00,METAR EGSS 241150Z AUTO 22017KT 9999 BKN015 12/09 Q1013,0,17,0,10000,0,0,0,
2026-03-24 11:20:00,METAR EGSS 241120Z AUTO 23018KT 9999 BKN014 12/09 Q1014,0,18,0,10000,0,0,0,
2026-03-24 10:50:00,METAR EGSS 241050Z AUTO 23015KT 9999 OVC014 11/08 Q1014,0,15,0,10000,0,0,0,
2026-03-24 10:20:00,METAR EGSS 241020Z AUTO 22017KT 9999 OVC012 11/08 Q1014,0,17,0,10000,0,0,0,
2026-03-24 09:50:00,METAR EGSS 240950Z AUTO 23016KT 9999 OVC011 10/08 Q1015,0,16,0,10000,0,0,0,
2026-03-24 09:20:00,METAR EGSS 240920Z AUTO 23014KT 9999 OVC010 10/08 Q1015,0,14,0,10000,0,0,0,
2026-03-24 08:50:00,METAR EGSS 240850Z AUTO 23016KT 9999 OVC010 10/08 Q1015,0,16,0,10000,0,0,0,
2026-03-24 08:20:00,METAR EGSS 240820Z AUTO 23014KT 9000 BKN010 10/08 Q1015,0,14,0,9000,0,0,0,
2026-03-24 07:50:00,METAR EGSS 240750Z AUTO 23014KT 9000 OVC011 09/07 Q1015,0,14,0,9000,0,0,0,
2026-03-24 07:20:00,METAR EGSS 240720Z 23014KT 7000 BKN010 09/07 Q1015,0,14,0,7000,0,0,0,
2026-03-24 06:50:00,METAR EGSS 240650Z AUTO 23013KT 5000 HZ BKN011 09/07 Q1015,0,13,0,5000,0,0,0,
2026-03-24 06:20:00,METAR EGSS 240620Z AUTO 23014KT 4400 HZ FEW011 08/07 Q1015,0,14,0,4400,0,0,0,
2026-03-24 05:50:00,METAR EGSS 240550Z AUTO 22013KT 3700 HZ SCT010 08/07 Q1015,0,13,0,3700,0,0,0,
2026-03-24 05:20:00,METAR EGSS 240520Z AUTO 23011KT 3400 HZ FEW011 08/07 Q1016,0,11,0,3400,0,0,0,
2026-03-24 04:50:00,METAR EGSS 240450Z AUTO 22012KT 3400 HZ NCD 08/07 Q1016,0,12,0,3400,0,0,0,
2026-03-24 04:20:00,METAR EGSS 240420Z AUTO 23011KT 3700 HZ SCT011 08/07 Q1016,0,11,0,3700,0,0,0,
2026-03-24 03:50:00,METAR EGSS 240350Z AUTO 23011KT 3900 HZ NCD 08/07 Q1016,0,11,0,3900,0,0,0,
2026-03-24 03:20:00,METAR EGSS 240320Z AUTO 23011KT 4800 HZ NCD 08/07 Q1017,0,11,0,4800,0,0,0,
2026-03-24 02:50:00,METAR EGSS 240250Z AUTO 22011KT 5000 HZ NCD 08/06 Q1016,0,11,0,5000,0,0,0,
2026-03-24 02:20:00,METAR EGSS 240220Z AUTO 23011KT 6000 NCD 09/06 Q1017,0,11,0,6000,0,0,0,
2026-03-24 01:50:00,METAR EGSS 240150Z AUTO 22010KT 6000 NCD 09/06 Q1017,0,10,0,6000,0,0,0,
2026-03-24 01:20:00,METAR EGSS 240120Z AUTO 22010KT 6000 NCD 09/06 Q1017,0,10,0,6000,0,0,0,
2026-03-24 00:50:00,METAR EGSS 240050Z AUTO 21009KT 5000 HZ NCD 09/06 Q1018,0,9,0,5000,0,0,0,
2026-03-24 00:20:00,METAR EGSS 240020Z AUTO 22008KT 6000 NCD 09/07 Q1018,0,8,0,6000,0,0,0,
2026-03-23 23:50:00,METAR EGSS 232350Z AUTO 22008KT 6000 NCD 09/07 Q1018,0,8,0,6000,0,0,0,
2026-03-23 23:20:00,METAR EGSS 232320Z AUTO 21008KT 6000 NCD 09/07 Q1018,0,8,0,6000,0,0,0,
2026-03-23 22:50:00,METAR EGSS 232250Z AUTO 21008KT 6000 NCD 10/07 Q1018,0,8,0,6000,0,0,0,
2026-03-23 22:20:00,METAR EGSS 232220Z AUTO 22009KT 6000 NCD 09/06 Q1019,0,9,0,6000,0,0,0,
2026-03-23 21:50:00,METAR EGSS 232150Z AUTO 22008KT 7000 NCD 09/06 Q1019,0,8,0,7000,0,0,0,
2026-03-23 21:20:00,METAR EGSS 232120Z AUTO 21008KT 8000 NCD 10/06 Q1019,0,8,0,8000,0,0,0,
2026-03-23 20:50:00,METAR EGSS 232050Z AUTO 22007KT 8000 NCD 11/07 Q1019,0,7,0,8000,0,0,0,
2026-03-23 20:20:00,METAR EGSS 232020Z AUTO 24005KT 9000 NCD 11/06 Q1019,0,5,0,9000,0,0,0,
2026-03-23 19:50:00,METAR EGSS 231950Z AUTO 23005KT 7000 NCD 10/06 Q1019,0,5,0,7000,0,0,0,
2026-03-23 19:20:00,METAR EGSS 231920Z AUTO 21006KT 7000 NCD 11/06 Q1019,0,6,0,7000,0,0,0,
2026-03-23 18:50:00,METAR EGSS 231850Z AUTO 22006KT 7000 NCD 11/06 Q1019,0,6,0,7000,0,0,0,
2026-03-23 18:20:00,METAR EGSS 231820Z AUTO 22006KT 7000 NCD 11/06 Q1019,0,6,0,7000,0,0,0,
2026-03-23 17:50:00,METAR EGSS 231750Z AUTO 23006KT 8000 NCD 12/06 Q1019,0,6,0,8000,0,0,0,
2026-03-23 17:20:00,METAR EGSS 231720Z AUTO 24005KT 8000 FEW042 13/06 Q1020,0,5,0,8000,0,0,0,
2026-03-23 16:50:00,METAR EGSS 231650Z AUTO 23006KT 8000 NCD 13/06 Q1020,0,6,0,8000,0,0,0,
2026-03-23 16:20:00,METAR EGSS 231620Z AUTO 22008KT 8000 NCD 13/06 Q1020,0,8,0,8000,0,0,0,
2026-03-23 15:50:00,METAR EGSS 231550Z AUTO 21007KT 9000 FEW037 13/06 Q1020,0,7,0,9000,0,0,0,
2026-03-23 15:20:00,METAR EGSS 231520Z 22007KT 9000 FEW035 13/07 Q1020,0,7,0,9000,0,0,0,
2026-03-23 14:50:00,METAR EGSS 231450Z AUTO 22006KT 8000 SCT036 13/07 Q1020,0,6,0,8000,0,0,0,
2026-03-23 14:20:00,METAR EGSS 231420Z 28003KT 230V320 9000 BKN033 13/06 Q1020,0,3,0,9000,0,0,0,
2026-03-23 13:50:00,METAR EGSS 231350Z AUTO 22006KT 190V290 9000 SCT028 BKN038 14/07 Q1020,0,6,0,9000,0,0,0,
2026-03-23 13:20:00,METAR EGSS 231320Z AUTO 24005KT 200V280 9999 FEW026 SCT032 13/07 Q1020,0,5,0,10000,0,0,0,
2026-03-23 12:50:00,METAR EGSS 231250Z AUTO 25005KT 170V300 8000 SCT024 BKN028 12/07 Q1020,0,5,0,8000,0,0,0,
2026-03-23 12:20:00,METAR EGSS 231220Z AUTO 25004KT 140V290 8000 FEW021 12/07 Q1021,0,4,0,8000,0,0,0,
2026-03-23 11:50:00,METAR EGSS 231150Z AUTO 19005KT 150V270 7000 SCT018 12/08 Q1021,0,5,0,7000,0,0,0,
2026-03-23 11:20:00,METAR EGSS 231120Z AUTO 18003KT 120V230 7000 SCT015 11/08 Q1021,0,3,0,7000,0,0,0,
2026-03-23 10:50:00,METAR EGSS 231050Z AUTO VRB02KT 7000 NCD 11/08 Q1021,0,2,0,7000,0,0,0,
2026-03-23 10:20:00,METAR EGSS 231020Z AUTO VRB01KT 7000 NCD 10/08 Q1021,0,1,0,7000,0,0,0,
2026-03-23 09:50:00,METAR EGSS 230950Z AUTO VRB01KT 5000 HZ NCD 09/08 Q1021,0,1,0,5000,0,0,0,
2026-03-23 09:20:00,METAR EGSS 230920Z AUTO VRB02KT 4500 HZ NCD 08/07 Q1021,0,2,0,4500,0,0,0,
2026-03-23 08:50:00,METAR EGSS 230850Z AUTO 33003KT 300V360 4200 HZ NCD 07/06 Q1021,0,3,0,4200,0,0,0,
2026-03-23 08:20:00,METAR EGSS 230820Z AUTO VRB02KT 3900 HZ NCD 06/06 Q1020,0,2,0,3900,0,0,0,
2026-03-23 07:50:00,METAR EGSS 230750Z AUTO 35003KT 4200 BR NCD 05/04 Q1020,0,3,0,4200,0,0,1,BR
2026-03-23 07:20:00,METAR EGSS 230720Z AUTO 34004KT 4700 BR NCD 04/04 Q1020,0,4,0,4700,0,0,1,BR
2026-03-23 06:50:00,METAR EGSS 230650Z AUTO 34004KT 7000 NCD 03/02 Q1020,0,4,0,7000,0,0,0,
2026-03-23 06:20:00,METAR EGSS 230620Z AUTO 34002KT 8000 NCD 03/02 Q1020,0,2,0,8000,0,0,0,
2026-03-23 05:50:00,METAR EGSS 230550Z AUTO 34002KT 8000 NCD 02/01 Q1019,0,2,0,8000,0,0,0,
2026-03-23 05:20:00,METAR EGSS 230520Z AUTO 33003KT 8000 NCD 01/01 Q1019,0,3,0,8000,0,0,0,
2026-03-23 04:50:00,METAR EGSS 230450Z AUTO 32002KT 2900 BR NCD 01/00 Q1019,0,2,0,2900,0,0,1,BR
2026-03-23 04:20:00,METAR EGSS 230420Z AUTO 32002KT 3500 BR NCD 01/01 Q1019,0,2,0,3500,0,0,1,BR
2026-03-23 03:50:00,METAR EGSS 230350Z AUTO 31003KT 2300 BR NCD 01/01 Q1019,0,3,0,2300,0,0,1,BR
2026-03-23 03:20:00,METAR EGSS 230320Z AUTO 31001KT 3600 BR NCD 02/02 Q1018,0,1,0,3600,0,0,1,BR
2026-03-23 02:50:00,METAR EGSS 230250Z AUTO 29002KT 5000 BR NCD 02/02 Q1018,0,2,0,5000,0,0,1,BR
2026-03-23 02:20:00,METAR EGSS 230220Z AUTO 32001KT 3800 BR NCD 03/02 Q1018,0,1,0,3800,0,0,1,BR
2026-03-23 01:50:00,METAR EGSS 230150Z AUTO 33001KT 4200 HZ NCD 03/02 Q1018,0,1,0,4200,0,0,0,
2026-03-23 01:20:00,METAR EGSS 230120Z AUTO 34002KT 5000 HZ NCD 04/03 Q1018,0,2,0,5000,0,0,0,
2026-03-23 00:50:00,METAR EGSS 230050Z AUTO 32002KT 6000 NCD 04/03 Q1019,0,2,0,6000,0,0,0,
2026-03-23 00:20:00,METAR EGSS 230020Z AUTO 33003KT 8000 NCD 05/03 Q1018,0,3,0,8000,0,0,0,
2026-03-22 23:50:00,METAR EGSS 222350Z AUTO 32003KT 290V360 9000 FEW031 05/04 Q1018,0,3,0,9000,0,0,0,
2026-03-22 23:20:00,METAR EGSS 222320Z AUTO 33003KT 9999 BKN033 06/04 Q1018,0,3,0,10000,0,0,0,
2026-03-22 22:50:00,METAR EGSS 222250Z AUTO 32003KT 9000 NCD 05/04 Q1018,0,3,0,9000,0,0,0,
2026-03-22 22:20:00,METAR EGSS 222220Z AUTO 33002KT 9999 NCD 06/04 Q1018,0,2,0,10000,0,0,0,
2026-03-22 21:50:00,METAR EGSS 222150Z AUTO 06003KT 360V100 9999 NCD 07/04 Q1017,0,3,0,10000,0,0,0,
2026-03-22 21:20:00,METAR EGSS 222120Z AUTO 32002KT 9999 NCD 06/04 Q1018,0,2,0,10000,0,0,0,
2026-03-22 20:50:00,METAR EGSS 222050Z AUTO 05003KT 010V110 9999 NCD 07/04 Q1018,0,3,0,10000,0,0,0,
2026-03-22 20:20:00,METAR EGSS 222020Z AUTO 36002KT 9999 NCD 08/04 Q1017,0,2,0,10000,0,0,0,
2026-03-22 19:50:00,METAR EGSS 221950Z AUTO 34002KT 9999 NCD 08/04 Q1017,0,2,0,10000,0,0,0,
2026-03-22 19:20:00,METAR EGSS 221920Z AUTO 32003KT 9999 NCD 08/04 Q1017,0,3,0,10000,0,0,0,
2026-03-22 18:50:00,METAR EGSS 221850Z AUTO 34002KT 9999 NCD 09/04 Q1016,0,2,0,10000,0,0,0,
2026-03-22 18:20:00,METAR EGSS 221820Z AUTO 34002KT 9999 NCD 09/04 Q1016,0,2,0,10000,0,0,0,
2026-03-22 17:50:00,METAR EGSS 221750Z AUTO 33004KT 9999 NCD 10/05 Q1016,0,4,0,10000,0,0,0,
2026-03-22 17:20:00,METAR EGSS 221720Z AUTO 33004KT 9999 NCD 10/04 Q1016,0,4,0,10000,0,0,0,
2026-03-22 16:50:00,METAR EGSS 221650Z AUTO 34004KT 300V020 9999 NCD 11/04 Q1016,0,4,0,10000,0,0,0,
2026-03-22 16:20:00,METAR EGSS 221620Z AUTO 03003KT 9999 NCD 11/05 Q1015,0,3,0,10000,0,0,0,
2026-03-22 15:50:00,METAR EGSS 221550Z AUTO 03004KT 340V050 9999 NCD 11/04 Q1015,0,4,0,10000,0,0,0,
2026-03-22 15:20:00,METAR EGSS 221520Z AUTO 03005KT 360V110 9999 NCD 11/05 Q1015,0,5,0,10000,0,0,0,
2026-03-22 14:50:00,METAR EGSS 221450Z AUTO 03004KT 320V080 9999 NCD 11/05 Q1016,0,4,0,10000,0,0,0,
2026-03-22 14:20:00,METAR EGSS 221420Z AUTO 06004KT 020V130 9999 NCD 12/04 Q1016,0,4,0,10000,0,0,0,
2026-03-22 13:50:00,METAR EGSS 221350Z AUTO VRB04KT 9999 NCD 12/04 Q1016,0,4,0,10000,0,0,0,
2026-03-22 13:20:00,METAR EGSS 221320Z AUTO VRB02KT 9999 NCD 12/05 Q1016,0,2,0,10000,0,0,0,
2026-03-22 12:50:00,METAR EGSS 221250Z AUTO 03004KT 330V070 9999 FEW026 11/05 Q1016,0,4,0,10000,0,0,0,
2026-03-22 12:20:00,METAR EGSS 221220Z AUTO VRB03KT 9999 BKN024 11/05 Q1016,0,3,0,10000,0,0,0,
2026-03-22 11:50:00,METAR EGSS 221150Z AUTO VRB02KT 9999 FEW021 10/05 Q1016,0,2,0,10000,0,0,0,
2026-03-22 11:20:00,METAR EGSS 221120Z AUTO 11004KT 050V200 9999 SCT019 10/05 Q1016,0,4,0,10000,0,0,0,
2026-03-22 10:50:00,METAR EGSS 221050Z AUTO 12006KT 070V160 9999 SCT017 09/05 Q1016,0,6,0,10000,0,0,0,
2026-03-22 10:20:00,METAR EGSS 221020Z AUTO VRB03KT 9999 BKN014 08/05 Q1017,0,3,0,10000,0,0,0,
2026-03-22 09:50:00,METAR EGSS 220950Z AUTO 07006KT 030V120 9999 BKN010 08/05 Q1017,0,6,0,10000,0,0,0,
2026-03-22 09:20:00,METAR EGSS 220920Z AUTO 07008KT 7000 BKN010 07/05 Q1017,0,8,0,7000,0,0,0,
2026-03-22 08:50:00,METAR EGSS 220850Z AUTO 01003KT 350V080 7000 SCT013 06/06 Q1017,0,3,0,7000,0,0,0,
2026-03-22 08:20:00,METAR EGSS 220820Z AUTO 01004KT 5000 BR BKN012 05/05 Q1017,0,4,0,5000,0,0,1,BR
2026-03-22 07:50:00,METAR EGSS 220750Z AUTO VRB02KT 2700 BR BKN012 03/03 Q1017,0,2,0,2700,0,0,1,BR
2026-03-22 07:20:00,METAR EGSS 220720Z AUTO 33002KT 2500 BR FEW012 01/01 Q1017,0,2,0,2500,0,0,1,BR
2026-03-22 06:50:00,METAR EGSS 220650Z AUTO 33002KT 2600 BR FEW011 M00/M00 Q1017,0,2,0,2600,0,0,1,BR
2026-03-22 06:20:00,METAR EGSS 220620Z AUTO 35003KT 1800 BR SCT010 M00/M00 Q1017,0,3,0,1800,0,0,1,BR
2026-03-22 05:50:00,METAR EGSS 220550Z AUTO 34003KT 320V020 3000 BR BKN006 M01/M01 Q1016,0,3,0,3000,0,0,1,BR
2026-03-22 05:20:00,METAR EGSS 220520Z 03002KT 1000 R04/P1500 BR BKN006 M01/M01 Q1016,0,2,0,1000,0,0,1,BR
2026-03-22 04:50:00,METAR EGSS 220450Z 34002KT 2000 BR FEW008 M00/M00 Q1017,0,2,0,2000,0,0,1,BR
2026-03-22 04:20:00,METAR EGSS 220420Z COR 33002KT 2000 BR FEW007 M00/M00 Q1017,0,2,0,2000,0,0,1,BR
2026-03-22 03:50:00,METAR EGSS 220350Z AUTO 01003KT 2100 BR BKN006 01/01 Q1017,0,3,0,2100,0,0,1,BR
2026-03-22 03:20:00,METAR EGSS 220320Z 01003KT 3700 BR BKN003 01/01 Q1017,0,3,0,3700,0,0,1,BR
2026-03-22 02:50:00,METAR EGSS 220250Z COR 36003KT 3500 BR FEW006 00/00 Q1017,0,3,0,3500,0,0,1,BR
2026-03-22 02:20:00,METAR EGSS 220220Z AUTO 33003KT 4900 BR NCD M01/M01 Q1017,0,3,0,4900,0,0,1,BR
2026-03-22 01:50:00,METAR EGSS 220150Z 33003KT 7000 NSC M00/M00 Q1017,0,3,0,7000,0,0,0,
2026-03-22 01:20:00,METAR EGSS 220120Z AUTO 01002KT 1300 BR NCD 01/01 Q1017,0,2,0,1300,0,0,1,BR
2026-03-22 00:50:00,METAR EGSS 220050Z AUTO 36002KT 4400 BR NCD 02/02 Q1017,0,2,0,4400,0,0,1,BR
2026-03-22 00:20:00,METAR EGSS 220020Z AUTO 02003KT 6000 NCD 02/02 Q1017,0,3,0,6000,0,0,0,
2026-03-21 23:50:00,METAR EGSS 212350Z AUTO 08003KT 9999 NCD 02/02 Q1017,0,3,0,10000,0,0,0,
2026-03-21 23:20:00,METAR EGSS 212320Z AUTO 06003KT 2900 BR NCD 02/02 Q1018,0,3,0,2900,0,0,1,BR
2026-03-21 22:50:00,METAR EGSS 212250Z AUTO 10003KT 9000 NCD 03/03 Q1018,0,3,0,9000,0,0,0,
2026-03-21 22:20:00,METAR EGSS 212220Z AUTO 14004KT 9999 NCD 04/03 Q1018,0,4,0,10000,0,0,0,
2026-03-21 21:50:00,METAR EGSS 212150Z AUTO 13004KT 9999 NCD 04/04 Q1018,0,4,0,10000,0,0,0,
2026-03-21 21:20:00,METAR EGSS 212120Z AUTO 13005KT 9999 NCD 05/04 Q1018,0,5,0,10000,0,0,0,
2026-03-21 20:50:00,METAR EGSS 212050Z AUTO 14007G19KT 110V270 9999 NCD 06/04 Q1018,0,7,1,10000,0,0,0,
2026-03-21 20:20:00,METAR EGSS 212020Z AUTO 14007KT 120V210 9999 NCD 06/05 Q1018,0,7,0,10000,0,0,0,
2026-03-21 19:50:00,METAR EGSS 211950Z AUTO 13004KT 110V220 9999 NCD 07/05 Q1018,0,4,0,10000,0,0,0,
2026-03-21 19:20:00,METAR EGSS 211920Z AUTO VRB03KT 9999 NCD 08/04 Q1018,0,3,0,10000,0,0,0,
2026-03-21 18:50:00,METAR EGSS 211850Z AUTO 02003KT 9999 NCD 08/M00 Q1018,0,3,0,10000,0,0,0,
2026-03-21 18:20:00,METAR EGSS 211820Z AUTO 04005KT 9999 NCD 09/00 Q1018,0,5,0,10000,0,0,0,
2026-03-21 17:50:00,METAR EGSS 211750Z AUTO 03005KT 9999 NCD 09/01 Q1018,0,5,0,10000,0,0,0,
2026-03-21 17:20:00,METAR EGSS 211720Z AUTO 06006KT 030V100 9999 NCD 11/01 Q1018,0,6,0,10000,0,0,0,
2026-03-21 16:50:00,METAR EGSS 211650Z AUTO 05007KT 020V080 9999 NCD 12/00 Q1018,0,7,0,10000,0,0,0,
2026-03-21 16:20:00,METAR EGSS 211620Z AUTO 05005KT 9999 NCD 12/01 Q1018,0,5,0,10000,0,0,0,
2026-03-21 15:50:00,METAR EGSS 211550Z AUTO 04007KT 9999 NCD 13/00 Q1018,0,7,0,10000,0,0,0,
2026-03-21 14:50:00,METAR EGSS 211450Z AUTO 02004KT 320V070 9999 NCD 12/02 Q1018,0,4,0,10000,0,0,0,
2026-03-21 14:20:00,METAR EGSS 211420Z AUTO 08005KT 360V120 9999 NCD 12/01 Q1018,0,5,0,10000,0,0,0,
2026-03-21 13:50:00,METAR EGSS 211350Z AUTO VRB03KT 9999 NCD 12/01 Q1019,0,3,0,10000,0,0,0,
2026-03-21 13:20:00,METAR EGSS 211320Z AUTO VRB04KT 9999 NCD 12/02 Q1019,0,4,0,10000,0,0,0,
2026-03-21 12:50:00,METAR EGSS 211250Z AUTO 08005G16KT 030V120 9999 NCD 11/01 Q1019,0,5,1,10000,0,0,0,
2026-03-21 12:20:00,METAR EGSS 211220Z AUTO 07006KT 020V100 9999 NCD 11/00 Q1020,0,6,0,10000,0,0,0,
2026-03-21 11:50:00,METAR EGSS 211150Z AUTO 05007KT 010V100 9999 NCD 11/02 Q1020,0,7,0,10000,0,0,0,
2026-03-21 11:20:00,METAR EGSS 211120Z AUTO 05008KT 020V080 9999 NCD 10/01 Q1020,0,8,0,10000,0,0,0,
2026-03-21 10:50:00,METAR EGSS 211050Z AUTO 06007KT 9999 NCD 09/02 Q1020,0,7,0,10000,0,0,0,
2026-03-21 10:20:00,METAR EGSS 211020Z AUTO 04007KT 9999 NCD 07/03 Q1021,0,7,0,10000,0,0,0,
2026-03-21 09:50:00,METAR EGSS 210950Z AUTO 03006KT 350V060 9999 FEW006 06/06 Q1021,0,6,0,10000,0,0,0,
2026-03-21 09:20:00,METAR EGSS 210920Z AUTO 02005KT 350V100 9999 BKN003 05/05 Q1021,0,5,0,10000,0,0,0,
2026-03-21 08:50:00,METAR EGSS 210850Z AUTO 06005KT 4900 BR OVC002 04/04 Q1020,0,5,0,4900,0,0,1,BR
2026-03-21 08:20:00,METAR EGSS 210820Z AUTO 02005KT 340V050 0550 R04/0750U FG VV/// 04/04 Q1020,0,5,0,884950,0,0,1,FG
2026-03-21 07:50:00,METAR EGSS 210750Z AUTO 03005KT 0350 R04/0750U FG VV/// 03/03 Q1020,0,5,0,563150,0,0,1,FG
2026-03-21 07:20:00,METAR EGSS 210720Z AUTO 02004KT 360V060 0350 R04/0550N FG VV/// 02/02 Q1020,0,4,0,563150,0,0,1,FG
2026-03-21 06:50:00,METAR EGSS 210650Z AUTO 03004KT 340V060 0250 R04/0375N FG VV/// 02/02 Q1020,0,4,0,402250,0,0,1,FG
2026-03-21 06:20:00,METAR EGSS 210620Z AUTO 01004KT 0250 R04/0450N FG VV/// 01/01 Q1020,0,4,0,402250,0,0,1,FG
2026-03-21 05:50:00,METAR EGSS 210550Z AUTO 03005KT 0250 R04/0600N FG VV/// 01/01 Q1020,0,5,0,402250,0,0,1,FG
2026-03-21 05:20:00,METAR EGSS 210520Z AUTO 02003KT 0200 R04/0450N FG VV/// 02/02 Q1020,0,3,0,321800,0,0,1,FG
2026-03-21 04:50:00,METAR EGSS 210450Z 03004KT 0900 R04/0400 FG BKN001 02/02 Q1020,0,4,0,1448100,0,0,1,FG
2026-03-21 04:20:00,METAR EGSS 210420Z AUTO 02004KT 8000 NCD 02/02 Q1020,0,4,0,8000,0,0,0,
2026-03-21 03:50:00,METAR EGSS 210350Z AUTO 03005KT 9999 NCD 02/01 Q1020,0,5,0,10000,0,0,0,
2026-03-21 03:20:00,METAR EGSS 210320Z AUTO 06006KT 9999 NCD 01/01 Q1020,0,6,0,10000,0,0,0,
2026-03-21 02:50:00,METAR EGSS 210250Z AUTO 05005KT 9999 NCD 02/01 Q1020,0,5,0,10000,0,0,0,
2026-03-21 02:20:00,METAR EGSS 210220Z AUTO 06005KT 9999 NCD 01/01 Q1020,0,5,0,10000,0,0,0,
2026-03-21 01:50:00,METAR EGSS 210150Z AUTO 05003KT 9999 NCD 02/02 Q1020,0,3,0,10000,0,0,0,
2026-03-21 01:20:00,METAR EGSS 210120Z AUTO 05004KT 9999 NCD 02/01 Q1021,0,4,0,10000,0,0,0,
2026-03-21 00:50:00,METAR EGSS 210050Z AUTO 07005KT 9999 NCD 03/02 Q1021,0,5,0,10000,0,0,0,
2026-03-21 00:20:00,METAR EGSS 210020Z AUTO 06004KT 9999 NCD 02/02 Q1021,0,4,0,10000,0,0,0,
2026-03-20 23:50:00,METAR EGSS 202350Z AUTO 07004KT 9999 NCD 03/02 Q1021,0,4,0,10000,0,0,0,
2026-03-20 23:20:00,METAR EGSS 202320Z AUTO 07006KT 9999 NCD 03/02 Q1021,0,6,0,10000,0,0,0,
2026-03-20 22:50:00,METAR EGSS 202250Z AUTO 07005KT 9999 NCD 04/03 Q1021,0,5,0,10000,0,0,0,
2026-03-20 22:20:00,METAR EGSS 202220Z AUTO 06006KT 9999 NCD 04/03 Q1021,0,6,0,10000,0,0,0,
2026-03-20 21:50:00,METAR EGSS 202150Z 07005KT CAVOK 05/03 Q1021,1,0,0,9999,0,0,0,
2026-03-20 21:20:00,METAR EGSS 202120Z AUTO 07004KT 9999 NCD 05/03 Q1021,0,4,0,10000,0,0,0,
2026-03-20 20:50:00,METAR EGSS 202050Z AUTO 09008KT 040V110 9999 NCD 07/03 Q1021,0,8,0,10000,0,0,0,
2026-03-20 20:20:00,METAR EGSS 202020Z AUTO 09007KT 9999 NCD 07/03 Q1021,0,7,0,10000,0,0,0,
2026-03-20 19:50:00,METAR EGSS 201950Z AUTO 10007KT 040V110 9999 NCD 08/03 Q1021,0,7,0,10000,0,0,0,
2026-03-20 19:20:00,METAR EGSS 201920Z AUTO 10008KT 040V200 9999 NCD 08/03 Q1021,0,8,0,10000,0,0,0,
2026-03-20 18:50:00,METAR EGSS 201850Z AUTO 10008KT 9999 NCD 09/04 Q1021,0,8,0,10000,0,0,0,
2026-03-20 18:20:00,METAR EGSS 201820Z AUTO 09009KT 9999 NCD 10/05 Q1021,0,9,0,10000,0,0,0,
2026-03-20 17:50:00,METAR EGSS 201750Z AUTO 10009KT 9999 BKN029 11/06 Q1021,0,9,0,10000,0,0,0,
2026-03-20 17:20:00,METAR EGSS 201720Z AUTO 05005KT 030V150 9999 BKN031 11/07 Q1021,0,5,0,10000,0,0,0,
2026-03-20 16:50:00,METAR EGSS 201650Z AUTO 06006KT 9999 BKN027 12/07 Q1021,0,6,0,10000,0,0,0,
2026-03-20 16:20:00,METAR EGSS 201620Z AUTO 07007KT 9999 OVC028 12/07 Q1021,0,7,0,10000,0,0,0,
2026-03-20 15:50:00,METAR EGSS 201550Z AUTO 05006KT 020V090 9999 BKN027 13/07 Q1021,0,6,0,10000,0,0,0,
2026-03-20 15:20:00,METAR EGSS 201520Z AUTO 06006KT 010V100 9999 FEW029 13/07 Q1021,0,6,0,10000,0,0,0,
2026-03-20 14:50:00,METAR EGSS 201450Z AUTO 04007KT 9999 NCD 13/07 Q1021,0,7,0,10000,0,0,0,
2026-03-20 14:20:00,METAR EGSS 201420Z AUTO 03006KT 350V060 9999 NCD 13/07 Q1022,0,6,0,10000,0,0,0,
2026-03-20 13:50:00,METAR EGSS 201350Z AUTO 03006KT 9999 NCD 12/06 Q1022,0,6,0,10000,0,0,0,
2026-03-20 13:20:00,METAR EGSS 201320Z AUTO 03005KT 350V070 9999 NCD 12/06 Q1022,0,5,0,10000,0,0,0,
2026-03-20 12:50:00,METAR EGSS 201250Z AUTO 04004KT 340V090 9999 NCD 12/06 Q1022,0,4,0,10000,0,0,0,
2026-03-20 12:20:00,METAR EGSS 201220Z AUTO 04003KT 330V110 9999 NCD 11/07 Q1023,0,3,0,10000,0,0,0,
2026-03-20 11:50:00,METAR EGSS 201150Z AUTO 03003KT 340V050 9999 NCD 10/07 Q1023,0,3,0,10000,0,0,0,
2026-03-20 11:20:00,METAR EGSS 201120Z AUTO 01003KT 300V070 8000 BKN006 09/07 Q1023,0,3,0,8000,0,0,0,
2026-03-20 10:50:00,METAR EGSS 201050Z AUTO 04005KT 350V100 7000 SCT005 08/06 Q1024,0,5,0,7000,0,0,0,
2026-03-20 10:20:00,METAR EGSS 201020Z AUTO 03006KT 350V050 6000 BKN004 07/07 Q1024,0,6,0,6000,0,0,0,
2026-03-20 09:50:00,METAR EGSS 200950Z AUTO 03005KT 4200 BR BKN003 06/06 Q1024,0,5,0,4200,0,0,1,BR
2026-03-20 09:20:00,METAR EGSS 200920Z AUTO 02005KT 3900 BR BKN003 06/06 Q1024,0,5,0,3900,0,0,1,BR
2026-03-20 08:50:00,METAR EGSS 200850Z AUTO 04007KT 2500 BR OVC001 05/05 Q1024,0,7,0,2500,0,0,1,BR
2026-03-20 08:20:00,METAR EGSS 200820Z AUTO 36005KT 0700 R04/0750N FG VV/// 04/04 Q1024,0,5,0,1126300,0,0,1,FG
2026-03-20 07:50:00,METAR EGSS 200750Z AUTO 34005KT 0300 R04/0600D FG VV/// 03/03 Q1024,0,5,0,482700,0,0,1,FG
2026-03-20 07:20:00,METAR EGSS 200720Z AUTO 34004KT 310V020 0300 R04/0450N FG VV/// 02/02 Q1024,0,4,0,482700,0,0,1,FG
2026-03-20 06:50:00,METAR EGSS 200650Z AUTO 34006KT 0300 R04/0550N FG BKN001 02/01 Q1024,0,6,0,482700,0,0,1,FG
2026-03-20 06:20:00,METAR EGSS 200620Z AUTO 34005KT 2400 BR NCD 02/01 Q1023,0,5,0,2400,0,0,1,BR
2026-03-20 05:50:00,METAR EGSS 200550Z AUTO 34003KT 2800 BR NCD 02/01 Q1023,0,3,0,2800,0,0,1,BR
2026-03-20 05:20:00,METAR EGSS 200520Z AUTO 34004KT 3200 BR NCD 02/01 Q1023,0,4,0,3200,0,0,1,BR
2026-03-20 04:50:00,METAR EGSS 200450Z AUTO 35004KT 3700 BR NCD 02/01 Q1023,0,4,0,3700,0,0,1,BR
2026-03-20 04:20:00,METAR EGSS 200420Z AUTO 35003KT 4700 HZ NCD 02/01 Q1023,0,3,0,4700,0,0,0,
2026-03-20 03:50:00,METAR EGSS 200350Z AUTO 35003KT 6000 NCD 02/01 Q1023,0,3,0,6000,0,0,0,
2026-03-20 03:20:00,METAR EGSS 200320Z AUTO 34003KT 7000 NCD 02/01 Q1024,0,3,0,7000,0,0,0,
2026-03-20 02:50:00,METAR EGSS 200250Z AUTO 35003KT 8000 NCD 02/01 Q1024,0,3,0,8000,0,0,0,
2026-03-20 02:20:00,METAR EGSS 200220Z AUTO 01002KT 9999 NCD 03/01 Q1024,0,2,0,10000,0,0,0,
2026-03-20 01:50:00,METAR EGSS 200150Z AUTO 01003KT 9999 NCD 04/01 Q1024,0,3,0,10000,0,0,0,
2026-03-20 01:20:00,METAR EGSS 200120Z AUTO 05005KT 9999 NCD 03/01 Q1024,0,5,0,10000,0,0,0,
2026-03-20 00:50:00,METAR EGSS 200050Z AUTO 04004KT 9999 NCD 04/00 Q1024,0,4,0,10000,0,0,0,
2026-03-20 00:20:00,METAR EGSS 200020Z AUTO 02003KT 9999 NCD 05/01 Q1025,0,3,0,10000,0,0,0,
2026-03-19 23:50:00,METAR EGSS 192350Z AUTO 03005KT 9999 NCD 04/01 Q1025,0,5,0,10000,0,0,0,
2026-03-19 23:20:00,METAR EGSS 192320Z AUTO 02004KT 9999 NCD 05/02 Q1025,0,4,0,10000,0,0,0,
2026-03-19 22:50:00,METAR EGSS 192250Z AUTO 05007KT 9999 NCD 05/02 Q1025,0,7,0,10000,0,0,0,
2026-03-19 22:20:00,METAR EGSS 192220Z AUTO 06007KT 9999 NCD 06/02 Q1025,0,7,0,10000,0,0,0,
2026-03-19 21:50:00,METAR EGSS 192150Z AUTO 05007KT 9999 NCD 05/02 Q1025,0,7,0,10000,0,0,0,
2026-03-19 21:20:00,METAR EGSS 192120Z AUTO 05006KT 9999 NCD 05/02 Q1025,0,6,0,10000,0,0,0,
2026-03-19 20:50:00,METAR EGSS 192050Z AUTO 07003KT 9999 NCD 07/02 Q1025,0,3,0,10000,0,0,0,
2026-03-19 20:20:00,METAR EGSS 192020Z AUTO 07005KT 350V120 9999 NCD 09/02 Q1025,0,5,0,10000,0,0,0,
2026-03-19 19:50:00,METAR EGSS 191950Z AUTO 09005KT 9999 NCD 09/02 Q1025,0,5,0,10000,0,0,0,
2026-03-19 19:20:00,METAR EGSS 191920Z AUTO 11006KT 9999 NCD 10/02 Q1025,0,6,0,10000,0,0,0,
2026-03-19 18:50:00,METAR EGSS 191850Z AUTO 13005KT 9999 NCD 11/03 Q1025,0,5,0,10000,0,0,0,
2026-03-19 18:20:00,METAR EGSS 191820Z AUTO 05006KT 9999 NCD 10/03 Q1025,0,6,0,10000,0,0,0,
2026-03-19 17:50:00,METAR EGSS 191750Z AUTO 04006KT 9999 NCD 11/04 Q1025,0,6,0,10000,0,0,0,
2026-03-19 17:20:00,METAR EGSS 191720Z AUTO 04007KT 9999 NCD 13/04 Q1025,0,7,0,10000,0,0,0,
2026-03-19 16:50:00,METAR EGSS 191650Z AUTO 05007KT 9999 NCD 15/04 Q1025,0,7,0,10000,0,0,0,
2026-03-19 16:20:00,METAR EGSS 191620Z AUTO 05007KT 9999 NCD 15/04 Q1025,0,7,0,10000,0,0,0,
2026-03-19 15:50:00,METAR EGSS 191550Z AUTO 07005KT 020V110 9999 NCD 16/03 Q1025,0,5,0,10000,0,0,0,
2026-03-19 15:20:00,METAR EGSS 191520Z AUTO 06006KT 9999 NCD 16/02 Q1025,0,6,0,10000,0,0,0,
2026-03-19 14:50:00,METAR EGSS 191450Z AUTO 08007KT 030V110 9999 NCD 16/03 Q1026,0,7,0,10000,0,0,0,
2026-03-19 14:20:00,METAR EGSS 191420Z AUTO 10007KT 060V150 9999 NCD 16/03 Q1026,0,7,0,10000,0,0,0,
2026-03-19 13:50:00,METAR EGSS 191350Z AUTO 09006KT 340V140 9999 NCD 16/02 Q1026,0,6,0,10000,0,0,0,
2026-03-19 13:20:00,METAR EGSS 191320Z AUTO 08008KT 050V120 9999 NCD 16/03 Q1026,0,8,0,10000,0,0,0,
2026-03-19 12:50:00,METAR EGSS 191250Z AUTO 08009KT 9999 NCD 16/04 Q1027,0,9,0,10000,0,0,0,
2026-03-19 12:20:00,METAR EGSS 191220Z AUTO 10009G19KT 060V130 9999 NCD 16/03 Q1027,0,9,1,10000,0,0,0,
2026-03-19 11:50:00,METAR EGSS 191150Z AUTO 08007KT 040V120 9999 NCD 15/05 Q1027,0,7,0,10000,0,0,0,
2026-03-19 11:20:00,METAR EGSS 191120Z AUTO 08008KT 9999 NCD 15/05 Q1027,0,8,0,10000,0,0,0,
2026-03-19 10:50:00,METAR EGSS 191050Z AUTO 07007KT 040V110 9999 NCD 14/06 Q1028,0,7,0,10000,0,0,0,
2026-03-19 10:20:00,METAR EGSS 191020Z AUTO 06006KT 9999 NCD 13/06 Q1028,0,6,0,10000,0,0,0,
2026-03-19 09:50:00,METAR EGSS 190950Z AUTO 06007KT 9999 NCD 12/06 Q1028,0,7,0,10000,0,0,0,
2026-03-19 09:20:00,METAR EGSS 190920Z AUTO 07006KT 330V100 9999 NCD 11/06 Q1028,0,6,0,10000,0,0,0,
2026-03-19 08:50:00,METAR EGSS 190850Z AUTO 08007KT 9999 NCD 10/05 Q1028,0,7,0,10000,0,0,0,
2026-03-19 08:20:00,METAR EGSS 190820Z AUTO 06006KT 9999 NCD 09/05 Q1028,0,6,0,10000,0,0,0,
2026-03-19 07:50:00,METAR EGSS 190750Z AUTO 06006KT 340V080 9999 NCD 07/05 Q1027,0,6,0,10000,0,0,0,
2026-03-19 07:20:00,METAR EGSS 190720Z AUTO 07007KT 9999 NCD 06/04 Q1027,0,7,0,10000,0,0,0,
2026-03-19 06:50:00,METAR EGSS 190650Z AUTO 04004KT 020V080 9000 NCD 05/03 Q1027,0,4,0,9000,0,0,0,
2026-03-19 06:20:00,METAR EGSS 190620Z AUTO 03005KT 8000 NCD 03/02 Q1027,0,5,0,8000,0,0,0,
2026-03-19 05:50:00,METAR EGSS 190550Z AUTO 01004KT 9000 NCD 03/02 Q1027,0,4,0,9000,0,0,0,
2026-03-19 05:20:00,METAR EGSS 190520Z AUTO 02004KT 9999 NCD 02/01 Q1026,0,4,0,10000,0,0,0,
2026-03-19 04:50:00,METAR EGSS 190450Z AUTO 35004KT 9999 NCD 03/01 Q1026,0,4,0,10000,0,0,0,
2026-03-19 04:20:00,METAR EGSS 190420Z AUTO 35004KT 330V030 9999 NCD 02/01 Q1026,0,4,0,10000,0,0,0,
2026-03-19 03:50:00,METAR EGSS 190350Z AUTO 05005KT 9999 NCD 02/01 Q1026,0,5,0,10000,0,0,0,
2026-03-19 03:20:00,METAR EGSS 190320Z AUTO 07005KT 9999 NCD 03/01 Q1026,0,5,0,10000,0,0,0,
2026-03-19 02:50:00,METAR EGSS 190250Z AUTO 08005KT 9999 NCD 03/02 Q1026,0,5,0,10000,0,0,0,
2026-03-19 02:20:00,METAR EGSS 190220Z AUTO 09006KT 9999 NCD 04/02 Q1026,0,6,0,10000,0,0,0,
2026-03-19 01:50:00,METAR EGSS 190150Z AUTO 09007KT 9999 NCD 04/02 Q1026,0,7,0,10000,0,0,0,
2026-03-19 01:20:00,METAR EGSS 190120Z AUTO 07006KT 9999 NCD 04/02 Q1026,0,6,0,10000,0,0,0,
2026-03-19 00:50:00,METAR EGSS 190050Z AUTO 07007KT 9999 NCD 05/02 Q1026,0,7,0,10000,0,0,0,
2026-03-19 00:20:00,METAR EGSS 190020Z AUTO 05006KT 9999 NCD 04/02 Q1026,0,6,0,10000,0,0,0,
2026-03-18 23:50:00,METAR EGSS 182350Z AUTO 06007KT 9999 NCD 04/02 Q1026,0,7,0,10000,0,0,0,
2026-03-18 23:20:00,METAR EGSS 182320Z AUTO 07006KT 9999 NCD 05/02 Q1025,0,6,0,10000,0,0,0,
2026-03-18 22:50:00,METAR EGSS 182250Z AUTO 07007KT 9999 NCD 06/03 Q1025,0,7,0,10000,0,0,0,
2026-03-18 22:20:00,METAR EGSS 182220Z AUTO 08008KT 9999 NCD 07/02 Q1025,0,8,0,10000,0,0,0,
2026-03-18 21:50:00,METAR EGSS 182150Z AUTO 08008KT 9999 NCD 07/02 Q1025,0,8,0,10000,0,0,0,
2026-03-18 21:20:00,METAR EGSS 182120Z AUTO 08009KT 020V100 9999 NCD 08/03 Q1025,0,9,0,10000,0,0,0,
2026-03-18 20:50:00,METAR EGSS 182050Z AUTO 08008KT 040V110 9999 NCD 07/03 Q1025,0,8,0,10000,0,0,0,
2026-03-18 20:20:00,METAR EGSS 182020Z AUTO 08008G20KT 320V110 9999 NCD 08/03 Q1025,0,8,1,10000,0,0,0,
2026-03-18 19:50:00,METAR EGSS 181950Z AUTO 08008KT 9999 NCD 08/03 Q1024,0,8,0,10000,0,0,0,
2026-03-18 19:20:00,METAR EGSS 181920Z AUTO 08007KT 9999 NCD 08/03 Q1024,0,7,0,10000,0,0,0,
2026-03-18 18:50:00,METAR EGSS 181850Z AUTO 09007KT 310V100 9999 NCD 09/03 Q1024,0,7,0,10000,0,0,0,
2026-03-18 18:20:00,METAR EGSS 181820Z AUTO 10007KT 040V120 9999 NCD 10/03 Q1024,0,7,0,10000,0,0,0,
2026-03-18 17:50:00,METAR EGSS 181750Z AUTO 10008KT 9999 NCD 11/03 Q1023,0,8,0,10000,0,0,0,
2026-03-18 17:20:00,METAR EGSS 181720Z AUTO 10008KT 060V120 9999 NCD 12/03 Q1023,0,8,0,10000,0,0,0,
2026-03-18 16:50:00,METAR EGSS 181650Z AUTO 11010KT 9999 NCD 13/04 Q1023,0,10,0,10000,0,0,0,
2026-03-18 16:20:00,METAR EGSS 181620Z AUTO 10011KT 030V130 9999 NCD 14/05 Q1022,0,11,0,10000,0,0,0,
2026-03-18 15:50:00,METAR EGSS 181550Z AUTO 10010KT 9999 NCD 14/06 Q1022,0,10,0,10000,0,0,0,
2026-03-18 15:20:00,METAR EGSS 181520Z AUTO 09011KT 9999 NCD 15/07 Q1022,0,11,0,10000,0,0,0,
2026-03-18 14:50:00,METAR EGSS 181450Z AUTO 09010KT 9999 NCD 15/08 Q1022,0,10,0,10000,0,0,0,
2026-03-18 14:20:00,METAR EGSS 181420Z AUTO 11009KT 9999 NCD 16/08 Q1022,0,9,0,10000,0,0,0,
2026-03-18 13:50:00,METAR EGSS 181350Z 11010KT CAVOK 16/08 Q1022,1,0,0,9999,0,0,0,
2026-03-18 13:20:00,METAR EGSS 181320Z AUTO 12010KT 9999 NCD 16/08 Q1022,0,10,0,10000,0,0,0,
2026-03-18 12:50:00,METAR EGSS 181250Z AUTO 12008KT 090V170 9999 NCD 16/08 Q1022,0,8,0,10000,0,0,0,
2026-03-18 12:20:00,METAR EGSS 181220Z AUTO 13010KT 100V170 9999 NCD 16/08 Q1022,0,10,0,10000,0,0,0,
2026-03-18 11:50:00,METAR EGSS 181150Z AUTO 13010KT 100V180 9999 NCD 15/08 Q1022,0,10,0,10000,0,0,0,
2026-03-18 11:20:00,METAR EGSS 181120Z AUTO 13011KT 100V170 9999 NCD 15/08 Q1022,0,11,0,10000,0,0,0,
2026-03-18 10:50:00,METAR EGSS 181050Z AUTO 14011KT 9999 NCD 15/08 Q1022,0,11,0,10000,0,0,0,
2026-03-18 10:20:00,METAR EGSS 181020Z AUTO 14011KT 120V180 9999 NCD 14/08 Q1022,0,11,0,10000,0,0,0,
2026-03-18 09:50:00,METAR EGSS 180950Z AUTO 13012KT 9999 NCD 13/08 Q1022,0,12,0,10000,0,0,0,
2026-03-18 09:20:00,METAR EGSS 180920Z AUTO 13011KT 9999 NCD 12/08 Q1021,0,11,0,10000,0,0,0,
2026-03-18 08:50:00,METAR EGSS 180850Z AUTO 13010KT 9999 NCD 11/08 Q1021,0,10,0,10000,0,0,0,
2026-03-18 08:20:00,METAR EGSS 180820Z AUTO 12008KT 090V170 9999 NCD 10/08 Q1021,0,8,0,10000,0,0,0,
2026-03-18 07:50:00,METAR EGSS 180750Z AUTO 11008KT 9999 NCD 09/08 Q1020,0,8,0,10000,0,0,0,
2026-03-18 07:20:00,METAR EGSS 180720Z AUTO 12009KT 100V170 9999 NCD 08/07 Q1020,0,9,0,10000,0,0,0,
2026-03-18 06:50:00,METAR EGSS 180650Z AUTO 12008KT 100V160 9999 NCD 08/07 Q1020,0,8,0,10000,0,0,0,
2026-03-18 06:20:00,METAR EGSS 180620Z AUTO 11007KT 090V170 9999 NCD 07/06 Q1019,0,7,0,10000,0,0,0,
2026-03-18 05:50:00,METAR EGSS 180550Z AUTO 11008KT 9999 NCD 07/06 Q1019,0,8,0,10000,0,0,0,
2026-03-18 05:20:00,METAR EGSS 180520Z AUTO 12007KT 9999 NCD 08/06 Q1018,0,7,0,10000,0,0,0,
2026-03-18 04:50:00,METAR EGSS 180450Z AUTO 13006KT 9999 NCD 07/06 Q1018,0,6,0,10000,0,0,0,
2026-03-18 04:20:00,METAR EGSS 180420Z AUTO 13006KT 120V180 9999 NCD 07/06 Q1018,0,6,0,10000,0,0,0,
2026-03-18 03:50:00,METAR EGSS 180350Z AUTO 13007KT 120V190 9999 NCD 07/06 Q1017,0,7,0,10000,0,0,0,
2026-03-18 03:20:00,METAR EGSS 180320Z AUTO 14006KT 9999 NCD 07/06 Q1017,0,6,0,10000,0,0,0,
2026-03-18 02:50:00,METAR EGSS 180250Z AUTO 13006KT 9999 NCD 07/06 Q1017,0,6,0,10000,0,0,0,
2026-03-18 02:20:00,METAR EGSS 180220Z AUTO 12007KT 9999 NCD 07/06 Q1017,0,7,0,10000,0,0,0,
2026-03-18 01:50:00,METAR EGSS 180150Z AUTO 13007KT 9999 NCD 07/06 Q1016,0,7,0,10000,0,0,0,
2026-03-18 01:20:00,METAR EGSS 180120Z AUTO 13007KT 9999 NCD 07/06 Q1016,0,7,0,10000,0,0,0,
2026-03-18 00:50:00,METAR EGSS 180050Z AUTO 13007KT 9999 NCD 07/06 Q1016,0,7,0,10000,0,0,0,
2026-03-18 00:20:00,METAR EGSS 180020Z AUTO 13006KT 9999 NCD 07/06 Q1016,0,6,0,10000,0,0,0,
2026-03-17 23:50:00,METAR EGSS 172350Z 13007KT CAVOK 08/06 Q1016,1,0,0,9999,0,0,0,
2026-03-17 23:20:00,METAR EGSS 172320Z AUTO 13007KT 9999 NCD 08/06 Q1016,0,7,0,10000,0,0,0,
2026-03-17 22:50:00,METAR EGSS 172250Z AUTO 12008KT 090V170 9999 NCD 09/06 Q1016,0,8,0,10000,0,0,0,
2026-03-17 22:20:00,METAR EGSS 172220Z AUTO 13007KT 9999 NCD 08/06 Q1016,0,7,0,10000,0,0,0,
2026-03-17 21:50:00,METAR EGSS 172150Z AUTO 13009KT 9999 NCD 09/06 Q1016,0,9,0,10000,0,0,0,
2026-03-17 21:20:00,METAR EGSS 172120Z AUTO 14007KT 9999 NCD 09/06 Q1016,0,7,0,10000,0,0,0,
2026-03-17 20:50:00,METAR EGSS 172050Z AUTO 15008KT 9999 NCD 09/06 Q1016,0,8,0,10000,0,0,0,
2026-03-17 20:20:00,METAR EGSS 172020Z AUTO 14008KT 9999 NCD 09/06 Q1015,0,8,0,10000,0,0,0,
2026-03-17 19:50:00,METAR EGSS 171950Z AUTO 15006KT 9999 NCD 09/06 Q1015,0,6,0,10000,0,0,0,
2026-03-17 19:20:00,METAR EGSS 171920Z AUTO 17007KT 9999 NCD 10/06 Q1015,0,7,0,10000,0,0,0,
2026-03-17 18:50:00,METAR EGSS 171850Z AUTO 17008KT 9999 NCD 10/06 Q1015,0,8,0,10000,0,0,0,
2026-03-17 18:20:00,METAR EGSS 171820Z AUTO 18010KT 9999 NCD 11/06 Q1015,0,10,0,10000,0,0,0,
2026-03-17 17:50:00,METAR EGSS 171750Z AUTO 18009KT 9999 NCD 12/06 Q1015,0,9,0,10000,0,0,0,
2026-03-17 17:20:00,METAR EGSS 171720Z AUTO 18014KT 9999 NCD 13/06 Q1014,0,14,0,10000,0,0,0,
2026-03-17 16:50:00,METAR EGSS 171650Z AUTO 18015KT 9999 NCD 14/06 Q1014,0,15,0,10000,0,0,0,
2026-03-17 16:20:00,METAR EGSS 171620Z AUTO 18014KT 9999 NCD 14/06 Q1014,0,14,0,10000,0,0,0,
2026-03-17 15:50:00,METAR EGSS 171550Z AUTO 18013KT 9999 NCD 15/07 Q1014,0,13,0,10000,0,0,0,
2026-03-17 14:50:00,METAR EGSS 171450Z AUTO 18015KT 9999 NCD 15/07 Q1014,0,15,0,10000,0,0,0,
2026-03-17 14:20:00,METAR EGSS 171420Z AUTO 18015KT 9999 NCD 15/08 Q1014,0,15,0,10000,0,0,0,
2026-03-17 13:50:00,METAR EGSS 171350Z AUTO 18014KT 9999 NCD 15/08 Q1015,0,14,0,10000,0,0,0,
2026-03-17 13:20:00,METAR EGSS 171320Z AUTO 18013KT 9999 NCD 14/08 Q1015,0,13,0,10000,0,0,0,
2026-03-17 12:50:00,METAR EGSS 171250Z AUTO 19014KT 9999 NCD 13/08 Q1015,0,14,0,10000,0,0,0,
2026-03-17 12:20:00,METAR EGSS 171220Z AUTO 19014KT 9999 BKN015 12/08 Q1015,0,14,0,10000,0,0,0,
2026-03-17 11:50:00,METAR EGSS 171150Z AUTO 19012KT 9999 OVC012 11/08 Q1016,0,12,0,10000,0,0,0,
2026-03-17 11:20:00,METAR EGSS 171120Z AUTO 20014KT 9999 OVC011 10/08 Q1016,0,14,0,10000,0,0,0,
2026-03-17 10:50:00,METAR EGSS 171050Z AUTO 20011KT 9999 OVC010 10/08 Q1016,0,11,0,10000,0,0,0,
2026-03-17 10:20:00,METAR EGSS 171020Z AUTO 20013KT 9999 OVC009 10/08 Q1016,0,13,0,10000,0,0,0,
2026-03-17 09:50:00,METAR EGSS 170950Z AUTO 19013KT 9999 OVC009 10/08 Q1016,0,13,0,10000,0,0,0,
2026-03-17 09:20:00,METAR EGSS 170920Z AUTO 20014KT 9999 BKN009 OVC013 09/08 Q1016,0,14,0,10000,0,0,0,
2026-03-17 08:50:00,METAR EGSS 170850Z AUTO 21015KT 9999 OVC009 09/08 Q1016,0,15,0,10000,0,0,0,
2026-03-17 08:20:00,METAR EGSS 170820Z AUTO 20015KT 9999 OVC010 09/08 Q1016,0,15,0,10000,0,0,0,
2026-03-17 07:50:00,METAR EGSS 170750Z AUTO 21013KT 9999 OVC010 09/08 Q1015,0,13,0,10000,0,0,0,
2026-03-17 07:20:00,METAR EGSS 170720Z AUTO 20010KT 9999 OVC009 09/08 Q1016,0,10,0,10000,0,0,0,
2026-03-17 06:50:00,METAR EGSS 170650Z AUTO 21012KT 9999 OVC010 09/08 Q1015,0,12,0,10000,0,0,0,
2026-03-17 06:20:00,METAR EGSS 170620Z AUTO 22014KT 9999 OVC010 09/08 Q1015,0,14,0,10000,0,0,0,
2026-03-17 05:50:00,METAR EGSS 170550Z AUTO 22013KT 9999 OVC010 09/08 Q1015,0,13,0,10000,0,0,0,
2026-03-17 05:20:00,METAR EGSS 170520Z AUTO 22016KT 9999 OVC010 09/08 Q1015,0,16,0,10000,0,0,0,
2026-03-17 04:50:00,METAR EGSS 170450Z AUTO 21013KT 9999 BKN010 OVC015 09/08 Q1015,0,13,0,10000,0,0,0,
2026-03-17 04:20:00,METAR EGSS 170420Z AUTO 22014KT 9999 BKN011 OVC017 09/08 Q1015,0,14,0,10000,0,0,0,
2026-03-17 03:50:00,METAR EGSS 170350Z AUTO 22012KT 9999 OVC012 09/08 Q1015,0,12,0,10000,0,0,0,
2026-03-17 03:20:00,METAR EGSS 170320Z AUTO 22012KT 9999 BKN011 OVC016 09/08 Q1015,0,12,0,10000,0,0,0,
2026-03-17 02:50:00,METAR EGSS 170250Z AUTO 22010KT 9999 OVC009 09/08 Q1016,0,10,0,10000,0,0,0,
2026-03-17 02:20:00,METAR EGSS 170220Z AUTO 22012KT 9999 BKN009 OVC013 09/08 Q1016,0,12,0,10000,0,0,0,
2026-03-17 01:50:00,METAR EGSS 170150Z AUTO 23012KT 9999 OVC009 09/08 Q1016,0,12,0,10000,0,0,0,
2026-03-17 01:20:00,METAR EGSS 170120Z AUTO 22010KT 9999 OVC009 09/08 Q1016,0,10,0,10000,0,0,0,
2026-03-17 00:50:00,METAR EGSS 170050Z AUTO 21009KT 9999 OVC009 09/08 Q1016,0,9,0,10000,0,0,0,
2026-03-17 00:20:00,METAR EGSS 170020Z AUTO 21009KT 9999 BKN010 OVC015 09/08 Q1016,0,9,0,10000,0,0,0,
2026-03-16 23:50:00,METAR EGSS 162350Z AUTO 22010KT 9999 OVC011 09/08 Q1016,0,10,0,10000,0,0,0,
2026-03-16 23:20:00,METAR EGSS 162320Z AUTO 22009KT 9999 OVC012 10/08 Q1016,0,9,0,10000,0,0,0,
2026-03-16 22:50:00,METAR EGSS 162250Z AUTO 22011KT 9999 OVC014 10/08 Q1016,0,11,0,10000,0,0,0,
2026-03-16 22:20:00,METAR EGSS 162220Z AUTO 22011KT 9999 OVC015 09/07 Q1016,0,11,0,10000,0,0,0,
2026-03-16 21:50:00,METAR EGSS 162150Z AUTO 21010KT 9999 BKN016 09/07 Q1016,0,10,0,10000,0,0,0,
2026-03-16 21:20:00,METAR EGSS 162120Z AUTO 20012KT 9999 FEW018 SCT040 09/07 Q1016,0,12,0,10000,0,0,0,
2026-03-16 20:50:00,METAR EGSS 162050Z AUTO 21012KT 9999 BKN020 OVC040 10/07 Q1016,0,12,0,10000,0,0,0,
2026-03-16 20:20:00,METAR EGSS 162020Z AUTO 19008KT 9999 BKN024 OVC037 10/07 Q1016,0,8,0,10000,0,0,0,
2026-03-16 19:50:00,METAR EGSS 161950Z AUTO 20008KT 9999 OVC025 10/07 Q1016,0,8,0,10000,0,0,0,
2026-03-16 19:20:00,METAR EGSS 161920Z AUTO 20007KT 9999 OVC028 10/07 Q1016,0,7,0,10000,0,0,0,
2026-03-16 18:50:00,METAR EGSS 161850Z AUTO 19006KT 9999 BKN034 BKN047 09/07 Q1016,0,6,0,10000,0,0,0,
2026-03-16 18:20:00,METAR EGSS 161820Z 19008KT 9999 OVC048 09/07 Q1016,0,8,0,10000,0,0,0,
2026-03-16 17:50:00,METAR EGSS 161750Z 21007KT 9999 SCT050TCU 09/07 Q1016,0,7,0,10000,0,0,0,
2026-03-16 17:20:00,METAR EGSS 161720Z AUTO 23008KT 9999 -RA //////TCU 09/07 Q1016,0,8,0,10000,0,0,0,-RA
2026-03-16 16:50:00,METAR EGSS 161650Z AUTO 24009KT 9999 -RA FEW043/// //////TCU 10/07 Q1016,0,9,0,10000,0,0,0,-RA
2026-03-16 16:20:00,METAR EGSS 161620Z AUTO 24008KT 9999 -RA BKN027 BKN031 10/06 Q1016,0,8,0,10000,0,0,0,-RA
2026-03-16 15:50:00,METAR EGSS 161550Z AUTO 24010KT 9999 -RA BKN028 OVC034 10/06 Q1016,0,10,0,10000,0,0,0,-RA
2026-03-16 15:20:00,METAR EGSS 161520Z AUTO 25010KT 9999 BKN028 OVC038 11/06 Q1016,0,10,0,10000,0,0,0,
2026-03-16 14:50:00,METAR EGSS 161450Z AUTO 24010KT 9999 BKN028 11/05 Q1016,0,10,0,10000,0,0,0,
2026-03-16 14:20:00,METAR EGSS 161420Z AUTO 25010KT 220V280 9999 BKN031 OVC039 11/05 Q1015,0,10,0,10000,0,0,0,
2026-03-16 13:50:00,METAR EGSS 161350Z AUTO 25010KT 9999 BKN031 OVC039 11/05 Q1015,0,10,0,10000,0,0,0,
2026-03-16 13:20:00,METAR EGSS 161320Z AUTO 25015KT 9999 BKN033 11/04 Q1015,0,15,0,10000,0,0,0,
2026-03-16 12:50:00,METAR EGSS 161250Z AUTO 24014KT 9999 BKN030 11/05 Q1015,0,14,0,10000,0,0,0,
2026-03-16 12:20:00,METAR EGSS 161220Z AUTO 24013KT 9999 BKN028 11/05 Q1015,0,13,0,10000,0,0,0,
2026-03-16 11:50:00,METAR EGSS 161150Z AUTO 23013KT 9999 SCT029 BKN034 11/05 Q1015,0,13,0,10000,0,0,0,
2026-03-16 11:20:00,METAR EGSS 161120Z AUTO 24011KT 9999 NCD 10/04 Q1015,0,11,0,10000,0,0,0,
2026-03-16 10:50:00,METAR EGSS 161050Z AUTO 25013KT 9999 NCD 09/04 Q1015,0,13,0,10000,0,0,0,
2026-03-16 10:20:00,METAR EGSS 161020Z AUTO 25013KT 9999 NCD 09/04 Q1015,0,13,0,10000,0,0,0,
2026-03-16 09:50:00,METAR EGSS 160950Z AUTO 25013KT 9999 NCD 09/05 Q1015,0,13,0,10000,0,0,0,
2026-03-16 09:20:00,METAR EGSS 160920Z AUTO 25010KT 9999 NCD 08/04 Q1015,0,10,0,10000,0,0,0,
2026-03-16 08:50:00,METAR EGSS 160850Z AUTO 24011KT 9999 FEW039 06/04 Q1014,0,11,0,10000,0,0,0,
2026-03-16 08:20:00,METAR EGSS 160820Z AUTO 25010KT 9999 FEW038 06/04 Q1014,0,10,0,10000,0,0,0,
2026-03-16 07:50:00,METAR EGSS 160750Z AUTO 24011KT 9999 NCD 05/03 Q1014,0,11,0,10000,0,0,0,
2026-03-16 07:20:00,METAR EGSS 160720Z AUTO 24009KT 9999 NCD 05/03 Q1014,0,9,0,10000,0,0,0,
2026-03-16 06:50:00,METAR EGSS 160650Z AUTO 24009KT 9999 NCD 04/02 Q1013,0,9,0,10000,0,0,0,
2026-03-16 06:20:00,METAR EGSS 160620Z AUTO 24008KT 9999 NCD 04/02 Q1013,0,8,0,10000,0,0,0,
2026-03-16 05:50:00,METAR EGSS 160550Z AUTO 24008KT 9999 NCD 04/02 Q1013,0,8,0,10000,0,0,0,
2026-03-16 05:20:00,METAR EGSS 160520Z AUTO 24009KT 9999 NCD 04/02 Q1012,0,9,0,10000,0,0,0,
2026-03-16 04:50:00,METAR EGSS 160450Z AUTO 24010KT 9999 NCD 04/02 Q1012,0,10,0,10000,0,0,0,
2026-03-16 04:20:00,METAR EGSS 160420Z AUTO 24011KT 9999 NCD 04/02 Q1011,0,11,0,10000,0,0,0,
2026-03-16 03:50:00,METAR EGSS 160350Z AUTO 26010KT 210V290 9999 NCD 05/02 Q1011,0,10,0,10000,0,0,0,
2026-03-16 03:20:00,METAR EGSS 160320Z AUTO 26010KT 9999 NCD 05/01 Q1011,0,10,0,10000,0,0,0,
2026-03-16 02:50:00,METAR EGSS 160250Z AUTO 26011KT 9999 NCD 05/02 Q1011,0,11,0,10000,0,0,0,
2026-03-16 02:20:00,METAR EGSS 160220Z AUTO 25010KT 9999 NCD 04/02 Q1011,0,10,0,10000,0,0,0,
2026-03-16 01:50:00,METAR EGSS 160150Z AUTO 26009KT 9999 NCD 05/02 Q1011,0,9,0,10000,0,0,0,
2026-03-16 01:20:00,METAR EGSS 160120Z AUTO 25008KT 9999 NCD 05/02 Q1010,0,8,0,10000,0,0,0,
2026-03-16 00:50:00,METAR EGSS 160050Z AUTO 26009KT 9999 NCD 05/02 Q1010,0,9,0,10000,0,0,0,
2026-03-16 00:20:00,METAR EGSS 160020Z AUTO 26011KT 9999 NCD 06/03 Q1010,0,11,0,10000,0,0,0,
2026-03-15 23:50:00,METAR EGSS 152350Z AUTO 26010KT 230V300 9999 NCD 05/03 Q1010,0,10,0,10000,0,0,0,
2026-03-15 22:50:00,METAR EGSS 152250Z AUTO 22009KT 9999 NCD 04/03 Q1009,0,9,0,10000,0,0,0,
2026-03-15 22:20:00,METAR EGSS 152220Z AUTO 23010KT 9999 -RA FEW031 05/04 Q1009,0,10,0,10000,0,0,0,-RA
2026-03-15 21:50:00,METAR EGSS 152150Z AUTO 22008KT 9999 FEW037 04/04 Q1009,0,8,0,10000,0,0,0,
2026-03-15 21:20:00,METAR EGSS 152120Z AUTO 24008KT 9999 NCD 06/04 Q1009,0,8,0,10000,0,0,0,
2026-03-15 20:50:00,METAR EGSS 152050Z AUTO 24010KT 9999 NCD 06/04 Q1009,0,10,0,10000,0,0,0,
2026-03-15 20:20:00,METAR EGSS 152020Z AUTO 25009KT 9999 NCD 06/05 Q1008,0,9,0,10000,0,0,0,
2026-03-15 19:50:00,METAR EGSS 151950Z AUTO 25009KT 9999 FEW017 07/05 Q1008,0,9,0,10000,0,0,0,
2026-03-15 19:20:00,METAR EGSS 151920Z AUTO 27008KT 230V310 9999 -RA SCT012/// SCT022/// //////TCU 08/07 Q1007,0,8,0,10000,0,0,0,-RA
2026-03-15 18:50:00,METAR EGSS 151850Z AUTO 25011KT 6000 -RA SCT009/// BKN013/// OVC026/// //////TCU 08/07 Q1007,0,11,0,6000,0,0,0,-RA
2026-03-15 18:20:00,METAR EGSS 151820Z AUTO 22013KT 9000 -RA BKN004/// BKN012/// BKN031/// //////TCU 08/08 Q1006 RERA,0,13,0,9000,0,0,0,"-RA,RA"
2026-03-15 17:50:00,METAR EGSS 151750Z 22013KT 3100 RA BKN004TCU OVC009 08/08 Q1006 RERA,0,13,0,3100,0,0,0,RA
2026-03-15 17:20:00,METAR EGSS 151720Z AUTO 21014KT 3300 -RA OVC006/// //////TCU 08/08 Q1007 RERA,0,14,0,3300,0,0,0,"-RA,RA"
2026-03-15 16:50:00,METAR EGSS 151650Z AUTO 20014KT 4200 RA BKN007/// OVC014/// //////TCU 08/08 Q1007 RERA,0,14,0,4200,0,0,0,RA
2026-03-15 16:20:00,METAR EGSS 151620Z AUTO 20017KT 5000 HZ BKN013 OVC019 09/07 Q1007,0,17,0,5000,0,0,0,
2026-03-15 15:50:00,METAR EGSS 151550Z AUTO 20019KT 9999 -RA BKN021 OVC032 09/06 Q1007,0,19,0,10000,0,0,0,-RA
2026-03-15 15:20:00,METAR EGSS 151520Z AUTO 20021KT 9999 -RA BKN029 OVC037 11/05 Q1007,0,21,0,10000,0,0,0,-RA
2026-03-15 14:50:00,METAR EGSS 151450Z AUTO 21022KT 9999 OVC033 11/04 Q1008,0,22,0,10000,0,0,0,
2026-03-15 14:20:00,METAR EGSS 151420Z AUTO 21024KT 9999 BKN036 11/04 Q1008,0,24,0,10000,0,0,0,
2026-03-15 13:50:00,METAR EGSS 151350Z AUTO 22020G30KT 9999 FEW039 12/04 Q1009,0,20,1,10000,0,0,0,
2026-03-15 13:20:00,METAR EGSS 151320Z AUTO 21020KT 9999 SCT041 12/03 Q1009,0,20,0,10000,0,0,0,
2026-03-15 12:50:00,METAR EGSS 151250Z AUTO 21020KT 9999 SCT037 12/04 Q1010,0,20,0,10000,0,0,0,
2026-03-15 12:20:00,METAR EGSS 151220Z AUTO 20021KT 9999 BKN033 12/04 Q1010,0,21,0,10000,0,0,0,
2026-03-15 11:50:00,METAR EGSS 151150Z AUTO 21020KT 9999 BKN030 11/04 Q1011,0,20,0,10000,0,0,0,
2026-03-15 11:20:00,METAR EGSS 151120Z AUTO 21018KT 9999 SCT030 11/04 Q1011,0,18,0,10000,0,0,0,
2026-03-15 10:50:00,METAR EGSS 151050Z AUTO 20019KT 9999 FEW032 10/03 Q1012,0,19,0,10000,0,0,0,
2026-03-15 10:20:00,METAR EGSS 151020Z AUTO 21019KT 9999 NCD 09/03 Q1012,0,19,0,10000,0,0,0,
2026-03-15 09:50:00,METAR EGSS 150950Z AUTO 21016KT 9999 NCD 09/03 Q1012,0,16,0,10000,0,0,0,
2026-03-15 09:20:00,METAR EGSS 150920Z AUTO 20012KT 9999 NCD 08/03 Q1012,0,12,0,10000,0,0,0,
2026-03-15 08:50:00,METAR EGSS 150850Z AUTO 19010KT 9999 NCD 07/04 Q1012,0,10,0,10000,0,0,0,
2026-03-15 08:20:00,METAR EGSS 150820Z AUTO 20010KT 9999 NCD 06/03 Q1012,0,10,0,10000,0,0,0,
