Time_recorded,METAR,is_cavok,wind_speed,is_gust,visibility_meters,has_thunderstorm,has_heavy_rain,has_low_vis_fog,other_phenomenon
2026-04-30 15:00:00,METAR UUEE 301500Z 29004MPS CAVOK 04/M05 Q1021 R24L/CLRD62 R24C/CLRD62 NOSIG,1,0.0,0,9999,0,0,0,
2026-04-30 14:30:00,METAR UUEE 301430Z 31003G08MPS CAVOK 04/M05 Q1021 R24L/CLRD62 R24C/CLRD62 NOSIG,1,0.0,0,9999,0,0,0,
2026-04-30 14:00:00,METAR UUEE 301400Z 31004MPS 280V350 CAVOK 04/M04 Q1021 R24L/CLRD62 R24C/CLRD62 NOSIG,1,0.0,0,9999,0,0,0,
2026-04-30 13:30:00,METAR UUEE 301330Z 30004MPS 220V350 9999 FEW042 05/M05 Q1021 R24L/CLRD62 R24C/CLRD62 NOSIG,0,4.0,0,10000,0,0,0,
2026-04-30 13:00:00,METAR UUEE 301300Z 33002G08MPS CAVOK 04/M06 Q1021 R24L/CLRD62 R24C/CLRD62 NOSIG,1,0.0,0,9999,0,0,0,
2026-04-30 12:30:00,METAR UUEE 301230Z 34003G08MPS CAVOK 04/M03 Q1021 R24L/CLRD62 R24C/CLRD62 NOSIG,1,0.0,0,9999,0,0,0,
2026-04-30 12:00:00,METAR UUEE 301200Z 33005MPS 270V360 CAVOK 04/M03 Q1022 R24L/CLRD62 R24C/CLRD62 NOSIG,1,0.0,0,9999,0,0,0,
2026-04-30 11:30:00,METAR UUEE 301130Z 29005MPS CAVOK 04/M05 Q1022 R24L/CLRD62 R24C/CLRD62 NOSIG,1,0.0,0,9999,0,0,0,
2026-04-30 11:00:00,METAR UUEE 301100Z 29004MPS 260V320 CAVOK 04/M04 Q1022 R24L/CLRD62 R24C/CLRD62 NOSIG,1,0.0,0,9999,0,0,0,
2026-04-30 10:30:00,METAR UUEE 301030Z 25005MPS CAVOK 03/M03 Q1022 R24L/CLRD62 R24C/CLRD62 NOSIG,1,0.0,0,9999,0,0,0,
2026-04-30 10:23:00,SPECI UUEE 301023Z 26005MPS CAVOK 03/M03 Q1022 R24L/CLRD62 R24C/CLRD62 NOSIG,1,0.0,0,9999,0,0,0,
2026-04-30 10:00:00,METAR UUEE 301000Z 32005MPS 9999 SCT049CB 03/M03 Q1022 R24L/CLRD62 NOSIG,0,5.0,0,10000,0,0,0,
2026-04-30 09:59:00,SPECI UUEE 300959Z 29005MPS 270V340 9999 SCT047CB 03/M02 Q1022 R24L/CLRD62 NOSIG,0,5.0,0,10000,0,0,0,
2026-04-30 09:30:00,METAR UUEE 300930Z 35005MPS 9999 -SHSNRA SCT023CB 03/M03 Q1022 R24C/CLRD62 NOSIG,0,5.0,0,10000,0,0,0,RA
2026-04-30 09:00:00,METAR UUEE 300900Z 31004MPS 280V340 9999 FEW027 04/M02 Q1022 R24C/CLRD62 NOSIG,0,4.0,0,10000,0,0,0,
2026-04-30 08:30:00,METAR UUEE 300830Z 28005G10MPS 240V320 9999 FEW022 04/M01 Q1022 R24L/CLRD62 R24C/CLRD62 NOSIG,0,5.0,1,10000,0,0,0,
2026-04-30 08:00:00,METAR UUEE 300800Z 31003G08MPS 9999 FEW021 03/M01 Q1022 R24L/CLRD62 R24C/CLRD62 NOSIG,0,3.0,1,10000,0,0,0,
2026-04-30 07:30:00,METAR UUEE 300730Z 31004MPS 260V340 9999 FEW020 03/M01 Q1022 R24L/CLRD62 R24C/CLRD62 NOSIG,0,4.0,0,10000,0,0,0,
2026-04-30 07:00:00,METAR UUEE 300700Z 35004MPS 320V020 9999 FEW018 03/M01 Q1022 R24L/220151 R24C/220151 NOSIG,0,4.0,0,10000,0,0,0,
2026-04-30 06:30:00,METAR UUEE 300630Z 32004G09MPS 220V340 CAVOK 03/M01 Q1022 R24L/220151 R24C/220151 NOSIG,1,0.0,0,9999,0,0,0,
2026-04-30 06:00:00,METAR UUEE 300600Z 32004MPS 280V340 CAVOK 02/M01 Q1022 R24L/220151 R24C/220151 NOSIG,1,0.0,0,9999,0,0,0,
2026-04-30 05:30:00,METAR UUEE 300530Z 32004MPS 210V350 CAVOK 02/M01 Q1022 R24L/220151 R24C/220151 NOSIG,1,0.0,0,9999,0,0,0,
2026-04-30 05:00:00,METAR UUEE 300500Z 33003MPS CAVOK 01/M01 Q1022 R24L/220151 R24C/220151 NOSIG,1,0.0,0,9999,0,0,0,
2026-04-30 04:30:00,METAR UUEE 300430Z 32003MPS CAVOK 01/M01 Q1022 R24L/220151 R24C/220151 NOSIG,1,0.0,0,9999,0,0,0,
2026-04-30 04:00:00,METAR UUEE 300400Z 32003MPS 290V360 CAVOK 01/M02 Q1021 R24L/250145 R24C/250145 NOSIG,1,0.0,0,9999,0,0,0,
2026-04-30 03:30:00,METAR UUEE 300330Z 34003MPS CAVOK 01/M01 Q1021 R24L/250145 R24C/250145 NOSIG,1,0.0,0,9999,0,0,0,
2026-04-30 03:00:00,METAR UUEE 300300Z 33003MPS CAVOK 01/M02 Q1021 R24C/250145 NOSIG,1,0.0,0,9999,0,0,0,
2026-04-30 02:30:00,METAR UUEE 300230Z 30003MPS CAVOK 01/M01 Q1021 R24C/250145 NOSIG,1,0.0,0,9999,0,0,0,
2026-04-30 02:00:00,METAR UUEE 300200Z 31003MPS 9999 FEW049 01/M02 Q1021 R24C/250145 NOSIG,0,3.0,0,10000,0,0,0,
2026-04-30 01:30:00,METAR UUEE 300130Z 30003MPS CAVOK 01/M02 Q1021 R24C/250145 NOSIG,1,0.0,0,9999,0,0,0,
2026-04-30 01:00:00,METAR UUEE 300100Z 30003MPS CAVOK 01/M02 Q1021 R24L/250145 NOSIG,1,0.0,0,9999,0,0,0,
2026-04-30 00:30:00,METAR UUEE 300030Z 30003MPS CAVOK 01/M02 Q1021 R24L/250145 NOSIG,1,0.0,0,9999,0,0,0,
2026-04-30 00:00:00,METAR UUEE 300000Z 31003MPS CAVOK 01/M02 Q1021 R24L/250145 NOSIG,1,0.0,0,9999,0,0,0,
2026-04-29 23:30:00,METAR UUEE 292330Z 30003MPS CAVOK 01/M01 Q1021 R24L/250145 NOSIG,1,0.0,0,9999,0,0,0,
2026-04-29 23:00:00,METAR UUEE 292300Z 32003MPS CAVOK 01/M01 Q1020 R24L/250145 NOSIG,1,0.0,0,9999,0,0,0,
2026-04-29 22:30:00,METAR UUEE 292230Z 32004MPS CAVOK 01/M01 Q1021 R24L/250145 R24C/250145 NOSIG,1,0.0,0,9999,0,0,0,
2026-04-29 22:00:00,METAR UUEE 292200Z 33003MPS CAVOK 01/M01 Q1020 R24L/250145 R24C/250145 NOSIG,1,0.0,0,9999,0,0,0,
2026-04-29 21:30:00,METAR UUEE 292130Z 30003MPS 270V330 CAVOK 01/M01 Q1020 R24L/250145 R24C/250145 NOSIG,1,0.0,0,9999,0,0,0,
2026-04-29 21:00:00,METAR UUEE 292100Z 31003MPS 270V350 9999 -SN NSC 01/M01 Q1020 R24L/250145 R24C/250145 NOSIG,0,3.0,0,10000,0,0,0,SN
2026-04-29 20:30:00,METAR UUEE 292030Z 30002MPS 270V330 9999 -SN NSC 01/M01 Q1020 R24L/290145 R24C/290145 NOSIG,0,2.0,0,10000,0,0,0,SN
2026-04-29 20:00:00,METAR UUEE 292000Z 29003MPS 250V320 9999 -SN NSC 01/M01 Q1020 R24L/290145 R24C/290145 NOSIG,0,3.0,0,10000,0,0,0,SN
2026-04-29 19:30:00,METAR UUEE 291930Z 32003MPS 9999 -SN NSC 01/M01 Q1020 R24L/290145 R24C/290145 NOSIG,0,3.0,0,10000,0,0,0,SN
2026-04-29 19:00:00,METAR UUEE 291900Z 31004MPS 260V330 CAVOK 01/M01 Q1020 R24L/290145 R24C/290145 NOSIG,1,0.0,0,9999,0,0,0,
2026-04-29 18:30:00,METAR UUEE 291830Z 30004MPS 260V330 CAVOK 01/M01 Q1019 R24L/290145 R24C/290145 NOSIG,1,0.0,0,9999,0,0,0,
2026-04-29 18:00:00,METAR UUEE 291800Z 31004MPS 9999 -SHSN SCT014 BKN030CB 01/M00 Q1019 RESHSN R24L/290145 R24C/290145 TEMPO 1000 SHSN BKN010CB,0,4.0,0,10000,0,0,0,"SH,SN"
2026-04-29 17:30:00,METAR UUEE 291730Z 31003MPS 270V340 9999 -SN SCT027 02/M00 Q1019 R24L/290145 R24C/290145 NOSIG,0,3.0,0,10000,0,0,0,SN
2026-04-29 17:00:00,METAR UUEE 291700Z 29003G10MPS CAVOK 02/M01 Q1019 R24L/290145 R24C/290145 NOSIG,1,0.0,0,9999,0,0,0,
2026-04-29 16:30:00,METAR UUEE 291630Z 30004G10MPS 220V330 CAVOK 02/M01 Q1018 R24L/290145 R24C/290145 NOSIG,1,0.0,0,9999,0,0,0,
2026-04-29 16:00:00,METAR UUEE 291600Z 32004MPS 290V360 9999 BKN017 03/M01 Q1018 R24L/290145 R24C/290145 NOSIG,0,4.0,0,10000,0,0,0,
2026-04-29 15:30:00,METAR UUEE 291530Z 29004MPS 9999 SCT023 03/M01 Q1018 R24L/290145 R24C/290145 NOSIG,0,4.0,0,10000,0,0,0,
2026-04-29 15:00:00,METAR UUEE 291500Z 29004MPS 250V340 CAVOK 02/M01 Q1018 R24L/290145 R24C/290145 TEMPO 1000 SHSN BKN010CB,1,0.0,0,9999,0,0,0,
2026-04-29 14:30:00,METAR UUEE 291430Z 29004MPS 260V320 CAVOK 02/M01 Q1018 R24L/290145 R24C/290145 TEMPO 1000 SHSN BKN010CB,1,0.0,0,9999,0,0,0,
2026-04-29 14:00:00,METAR UUEE 291400Z 30004MPS 9999 -SN NSC 02/M01 Q1018 RESHSN RESHGS R24L/290145 R24C/290145 TEMPO 1000 SHSN BKN010CB,0,4.0,0,10000,0,0,0,"GS,SH,SN"
2026-04-29 13:48:00,SPECI UUEE 291348Z 31005MPS 260V340 9000 -SHSN BKN025CB 02/M00 Q1017 R24L/290145 R24C/290145 TEMPO 1000 SHSN BKN010CB,0,5.0,0,9000,0,0,0,"SH,SN"
2026-04-29 13:36:00,SPECI UUEE 291336Z 33005G10MPS 300V020 1200 0800NE R24L/0900D R24C/1000D +SHSNGS BKN003 BKN023CB 01/M01 Q1017 R24L/290145 R24C/290145 TEMPO 1000 SHSN BKN010CB,0,5.0,1,1200,1,0,0,"GS,SH,SN"
2026-04-29 13:35:00,SPECI UUEE 291335Z 32006G11MPS 280V350 1500 0800NE R24L/0800D R24C/1000D +SHSNGS BKN008 BKN023CB 01/M01 Q1017 R24L/290145 R24C/290145 TEMPO 1000 SHSN BKN010CB,0,6.0,1,1500,1,0,0,"GS,SH,SN"
2026-04-29 13:33:00,SPECI UUEE 291333Z 31005G10MPS 280V340 9999 1500NW SHSNGS BKN008 BKN023CB 02/M01 Q1017 R24L/290145 R24C/290145 TEMPO 1000 SHSN BKN010CB,0,5.0,1,10000,1,0,0,"GS,SH,SN"
2026-04-29 13:30:00,METAR UUEE 291330Z 31005G10MPS 270V360 9999 -SN BKN008 03/M01 Q1017 R24L/290145 R24C/290145 TEMPO 1000 SHSN BKN010CB,0,5.0,1,10000,0,0,0,"SH,SN"
2026-04-29 13:00:00,METAR UUEE 291300Z 31006MPS 270V340 9999 FEW018 03/M01 Q1017 R24L/590240 R24C/590240 TEMPO 1000 SHSN BKN010CB,0,6.0,0,10000,0,0,0,"SH,SN"
2026-04-29 12:30:00,METAR UUEE 291230Z 31005G10MPS CAVOK 03/M01 Q1017 R24L/590240 R24C/590240 TEMPO 1000 SHSN BKN010CB,1,0.0,0,9999,0,0,0,
2026-04-29 12:00:00,METAR UUEE 291200Z 30005MPS 270V340 9999 SCT014 03/M01 Q1017 R24L/590240 R24C/590240 TEMPO 1000 SHSN BKN010CB,0,5.0,0,10000,0,0,0,"SH,SN"
2026-04-29 11:30:00,METAR UUEE 291130Z 32005MPS 280V340 9999 SCT015 03/M01 Q1016 R24L/590240 R24C/590240 TEMPO 0700 +SHSN BKN010CB,0,5.0,0,10000,0,0,0,SN
2026-04-29 11:00:00,METAR UUEE 291100Z 32005MPS 9999 SCT005 03/00 Q1016 R24L/590240 R24C/590240 TEMPO 0700 +SHSN BKN010CB,0,5.0,0,10000,0,0,0,SN
2026-04-29 10:30:00,METAR UUEE 291030Z 32005MPS 9999 BKN017 02/00 Q1016 RESHSN R24L/590240 R24C/590240 TEMPO 0700 +SHSN BKN010CB,0,5.0,0,10000,0,0,0,SN
2026-04-29 10:21:00,SPECI UUEE 291021Z 32004MPS 300V360 9999 -SN SCT010 02/M00 Q1015 R24L/590240 R24C/590240 TEMPO 0700 +SHSN BKN010CB,0,4.0,0,10000,0,0,0,SN
2026-04-29 10:08:00,SPECI UUEE 291008Z 31006MPS 270V360 9999 1300NE R24L/1400D R24C/1300D SHSN SCT006 BKN027CB 01/M01 Q1015 R24L/590240 R24C/590240 TEMPO 0700 +SHSN BKN010CB,0,6.0,0,10000,0,0,0,"SH,SN"
2026-04-29 10:00:00,METAR UUEE 291000Z 30006MPS 9999 SCT015 03/M01 Q1015 R24L/590240 R24C/590240 TEMPO 0700 +SHSN BKN010CB,0,6.0,0,10000,0,0,0,SN
2026-04-29 09:30:00,METAR UUEE 290930Z 30006MPS 9999 SCT018 03/M01 Q1015 RESHSN R24L/590240 R24C/590240 TEMPO 0700 +SHSN BKN010CB,0,6.0,0,10000,0,0,0,SN
2026-04-29 09:16:00,SPECI UUEE 290916Z 31004MPS 270V360 9999 -SN SCT010 02/M00 Q1014 R24L/590240 R24C/590240 TEMPO 0700 +SHSN BKN010CB,0,4.0,0,10000,0,0,0,SN
2026-04-29 09:04:00,SPECI UUEE 290904Z 30007MPS 260V330 7000 0900NE +SHSN BKN010 BKN030CB 01/M01 Q1014 R24L/590240 R24C/590240 TEMPO 0700 +SHSN BKN010CB,0,7.0,0,7000,0,0,0,SN
2026-04-29 09:00:00,METAR UUEE 290900Z 32006MPS 9000 2500NW -SHSN BKN006 BKN030CB 02/M00 Q1014 R24L/590240 R24C/590240 TEMPO 0700 +SHSN BKN010CB,0,6.0,0,9000,0,0,0,SN
2026-04-29 08:41:00,SPECI UUEE 290841Z 31005MPS 290V350 9999 -SN BKN012 02/00 Q1014 R24L/590240 R24C/590240 NOSIG,0,5.0,0,10000,0,0,0,SN
2026-04-29 08:30:00,METAR UUEE 290830Z 32005MPS 290V360 9000 0800NE R24L/0800D R24C/0900D +SHSN BKN002 BKN040CB 01/M01 Q1014 R24L/590240 R24C/590240 NOSIG,0,5.0,0,9000,0,0,0,SN
2026-04-29 08:28:00,SPECI UUEE 290828Z 32005MPS 280V360 9000 0500NE R24L/0550D R24C/0550D +SHSN BKN006 BKN040CB 01/M01 Q1014 R24L/590240 R24C/590240 NOSIG,0,5.0,0,9000,0,0,0,SN
2026-04-29 08:27:00,SPECI UUEE 290827Z 32005MPS 280V360 9000 0650NE R24L/0750D R24C/0700D +SHSN BKN006 BKN040CB 01/M01 Q1014 R24L/590240 R24C/590240 NOSIG,0,5.0,0,9000,0,0,0,SN
2026-04-29 08:26:00,SPECI UUEE 290826Z 31005MPS 280V340 9000 0800NE R24L/1500D R24C/0900D +SHSN BKN006 BKN040CB 01/M01 Q1014 R24L/590240 R24C/590240 NOSIG,0,5.0,0,9000,0,0,0,SN
2026-04-29 08:00:00,METAR UUEE 290800Z 32005MPS 9999 -SN BKN009 02/M00 Q1014 RESN R24L/590240 R24C/590240 NOSIG,0,5.0,0,10000,0,0,0,SN
2026-04-29 07:50:00,SPECI UUEE 290750Z 30006MPS 9000 0700NE +SN BKN010 02/M01 Q1013 R24L/590240 R24C/590240 NOSIG,0,6.0,0,9000,0,0,0,SN
2026-04-29 07:49:00,SPECI UUEE 290749Z 30006MPS 9000 1800NE SN BKN010 02/M01 Q1013 R24L/590240 R24C/590240 NOSIG,0,6.0,0,9000,0,0,0,SN
2026-04-29 07:30:00,METAR UUEE 290730Z 29006MPS 9999 BKN010 02/M01 Q1013 R24L/590240 R24C/590240 NOSIG,0,6.0,0,10000,0,0,0,
2026-04-29 07:00:00,METAR UUEE 290700Z 29006MPS 260V320 9000 -SN BKN005 02/M01 Q1013 R24L/590240 R24C/590240 NOSIG,0,6.0,0,9000,0,0,0,SN
2026-04-29 06:30:00,METAR UUEE 290630Z 29005MPS 220V320 9000 -SN BKN007 OVC026 01/M01 Q1012 R24L/590240 R24C/590240 NOSIG,0,5.0,0,9000,0,0,0,SN
2026-04-29 06:00:00,METAR UUEE 290600Z 30005MPS 9000 -SN BKN008 01/M00 Q1012 RESN R24L/590240 R24C/590240 NOSIG,0,5.0,0,9000,0,0,0,SN
2026-04-29 05:43:00,SPECI UUEE 290543Z 29005G10MPS 9999 2000NW SN BKN008 01/M01 Q1012 R24L/590240 R24C/590240 NOSIG,0,5.0,1,10000,0,0,0,SN
2026-04-29 05:42:00,SPECI UUEE 290542Z 29005G10MPS 9999 2700NW -SN BKN008 01/M01 Q1012 R24L/590240 R24C/590240 NOSIG,0,5.0,1,10000,0,0,0,SN
2026-04-29 05:30:00,METAR UUEE 290530Z 29005MPS 9999 -SN SCT011 01/M01 Q1011 R24L/590240 R24C/590240 NOSIG,0,5.0,0,10000,0,0,0,SN
2026-04-29 05:00:00,METAR UUEE 290500Z 29005G11MPS 230V340 9999 -SN SCT009 01/M01 Q1011 R24L/590335 R24C/590335 NOSIG,0,5.0,1,10000,0,0,0,SN
2026-04-29 04:30:00,METAR UUEE 290430Z 30005MPS 9000 -RASN SCT007 01/M01 Q1010 R24L/590335 R24C/590335 NOSIG,0,5.0,0,9000,0,0,0,"-RA,SN"
2026-04-29 04:00:00,METAR UUEE 290400Z 29005MPS 9999 -SN SCT010 OVC034 00/M00 Q1010 R24L/590335 R24C/590335 NOSIG,0,5.0,0,10000,0,0,0,SN
2026-04-29 03:52:00,SPECI UUEE 290352Z 29006MPS 9999 -SN SCT010 OVC030 00/M00 Q1010 R24L/590335 R24C/590335 NOSIG,0,6.0,0,10000,0,0,0,SN
2026-04-29 03:30:00,METAR UUEE 290330Z 29006MPS 9000 -SN BKN008 OVC019 00/M00 Q1010 RESN R24L/590335 R24C/590335 NOSIG,0,6.0,0,9000,0,0,0,SN
2026-04-29 03:28:00,SPECI UUEE 290328Z 29006MPS 9000 -SN BKN009 OVC019 00/M00 Q1010 R24L/590335 R24C/590335 NOSIG,0,6.0,0,9000,0,0,0,SN
2026-04-29 03:17:00,SPECI UUEE 290317Z 30006MPS 4600 1500NE R24C/1500U SN BKN007 OVC019 00/M00 Q1010 R24L/590335 R24C/590335 NOSIG,0,6.0,0,4600,0,0,0,SN
2026-04-29 03:03:00,SPECI UUEE 290303Z 29007MPS 1300 0800NE +SN BKN006 OVC022 00/M00 Q1009 R24L/590335 R24C/590335 NOSIG,0,7.0,0,1300,0,0,0,SN
2026-04-29 03:01:00,SPECI UUEE 290301Z 29007MPS 2700 1200SW SN BKN005 OVC022 00/M00 Q1009 R24L/590335 R24C/590335 NOSIG,0,7.0,0,2700,0,0,0,SN
2026-04-29 03:00:00,METAR UUEE 290300Z 28006MPS 2900 -SN BKN005 OVC022 00/M00 Q1009 R24L/590335 R24C/590335 NOSIG,0,6.0,0,2900,0,0,0,SN
2026-04-29 02:58:00,SPECI UUEE 290258Z 28006MPS 2900 1200NW SN BKN006 OVC022 00/M00 Q1009 R24L/590335 R24C/590335 NOSIG,0,6.0,0,2900,0,0,0,SN
2026-04-29 02:57:00,SPECI UUEE 290257Z 28006MPS 2800 -SN BKN006 OVC022 00/M00 Q1009 R24L/590335 R24C/590335 NOSIG,0,6.0,0,2800,0,0,0,SN
2026-04-29 02:45:00,SPECI UUEE 290245Z 29006MPS 2400 1300NE R24L/1700U R24C/1300U SN BKN005 OVC020 00/M00 Q1009 R24L/590335 R24C/590335 NOSIG,0,6.0,0,2400,0,0,0,SN
2026-04-29 02:33:00,SPECI UUEE 290233Z 29006MPS 2900 0900NE R24L/1600U R24C/0900U +SN BKN007 OVC020 00/M01 Q1009 R24L/590335 R24C/590335 NOSIG,0,6.0,0,2900,0,0,0,SN
2026-04-29 02:32:00,SPECI UUEE 290232Z 29006MPS 4200 0800NE R24L/1000U R24C/0800U +SN BKN005 OVC020 00/M01 Q1009 R24L/590335 R24C/590335 NOSIG,0,6.0,0,4200,0,0,0,SN
2026-04-29 02:30:00,METAR UUEE 290230Z 29006MPS 5000 0800NE R24L/0900U R24C/0800N +SN BKN004 OVC020 00/M01 Q1009 R24L/590335 R24C/590335 NOSIG,0,6.0,0,5000,0,0,0,SN
2026-04-29 02:29:00,SPECI UUEE 290229Z 29006MPS 5000 0800NE R24L/0900N R24C/0800N +SN BKN005 OVC020 00/M01 Q1009 R24L/590335 R24C/590335 NOSIG,0,6.0,0,5000,0,0,0,SN
2026-04-29 02:09:00,SPECI UUEE 290209Z 29005MPS 0800 0650NE R24L/0750N R24C/0650N +SN VV003 00/M01 Q1009 R24L/590340 R24C/590340 NOSIG,0,5.0,0,1287200,0,0,0,SN
2026-04-29 02:07:00,SPECI UUEE 290207Z 29005MPS 1400 0700NE R24L/0800N R24C/0700N +SN BKN005 OVC018 00/M01 Q1009 R24L/590340 R24C/590340 NOSIG,0,5.0,0,1400,0,0,0,SN
2026-04-29 02:02:00,SPECI UUEE 290202Z 29005MPS 1700 0650NE R24L/0700D R24C/0650D +SN BKN007 OVC019 00/M01 Q1009 R24L/590340 R24C/590340 NOSIG,0,5.0,0,1700,0,0,0,SN
2026-04-29 02:01:00,SPECI UUEE 290201Z 29005MPS 1700 0750NE R24L/0800D R24C/0750D +SN BKN007 OVC019 00/M01 Q1009 R24L/590340 R24C/590340 NOSIG,0,5.0,0,1700,0,0,0,SN
2026-04-29 02:00:00,METAR UUEE 290200Z 29005MPS 1800 0900NE R24L/0900D R24C/1200D +SN BKN004 OVC019 00/M01 Q1009 R24L/590340 R24C/590340 NOSIG,0,5.0,0,1800,0,0,0,SN
2026-04-29 01:59:00,SPECI UUEE 290159Z 28006MPS 1800 0900NE R24L/0900N R24C/1200N +SN BKN007 OVC019 00/M01 Q1009 R24L/590340 R24C/590340 NOSIG,0,6.0,0,1800,0,0,0,SN
2026-04-29 01:58:00,SPECI UUEE 290158Z 28006MPS 1400 1000NE R24L/1000U R24C/1300N SN BKN007 OVC019 00/M01 Q1009 R24L/590340 R24C/590340 NOSIG,0,6.0,0,1400,0,0,0,SN
2026-04-29 01:47:00,SPECI UUEE 290147Z 28007MPS 2400 0900SW +SN BKN008 OVC019 01/M01 Q1008 R24L/590340 R24C/590340 NOSIG,0,7.0,0,2400,0,0,0,SN
2026-04-29 01:43:00,SPECI UUEE 290143Z 28007MPS 2900 1300NW SN BKN008 OVC020 01/M01 Q1008 R24L/590340 R24C/590340 NOSIG,0,7.0,0,2900,0,0,0,SN
2026-04-29 01:42:00,SPECI UUEE 290142Z 28007MPS 5000 1300NW SN BKN008 OVC020 01/M01 Q1008 R24L/590340 R24C/590340 NOSIG,0,7.0,0,5000,0,0,0,SN
2026-04-29 01:30:00,METAR UUEE 290130Z 28007MPS 4800 -SN BKN009 OVC020 01/M01 Q1008 RESN R24L/590340 R24C/590340 NOSIG,0,7.0,0,4800,0,0,0,SN
2026-04-29 01:29:00,SPECI UUEE 290129Z 28007MPS 4700 -SN BKN008 OVC020 01/M00 Q1008 R24L/590340 R24C/590340 NOSIG,0,7.0,0,4700,0,0,0,SN
2026-04-29 01:07:00,SPECI UUEE 290107Z 29006MPS 2900 -SN BKN006 OVC018 01/M01 Q1008 R24L/590340 NOSIG,0,6.0,0,2900,0,0,0,SN
2026-04-29 01:00:00,METAR UUEE 290100Z 28006MPS 3400 -SN BKN007 OVC018 01/M01 Q1008 RESN R24L/590340 NOSIG,0,6.0,0,3400,0,0,0,SN
2026-04-29 00:47:00,SPECI UUEE 290047Z 28006MPS 4200 -SN BKN007 OVC020 01/M01 Q1008 R24L/590340 NOSIG,0,6.0,0,4200,0,0,0,SN
2026-04-29 00:30:00,METAR UUEE 290030Z 27007MPS 2100 1400NE SN BKN007 OVC019 01/M01 Q1008 R24L/590340 NOSIG,0,7.0,0,2100,0,0,0,SN
2026-04-29 00:26:00,SPECI UUEE 290026Z 27007MPS 2000 R24L/P2000D SN BKN007 OVC019 01/M01 Q1008 R24L/590340 NOSIG,0,7.0,0,2000,0,0,0,SN
2026-04-29 00:17:00,SPECI UUEE 290017Z 27007MPS 2800 -SN BKN008 OVC020 01/M01 Q1008 R24L/590340 NOSIG,0,7.0,0,2800,0,0,0,SN
2026-04-29 00:00:00,METAR UUEE 290000Z 28006MPS 3200 -SN BKN009 OVC020 01/M01 Q1008 RESN R24L/590340 NOSIG,0,6.0,0,3200,0,0,0,SN
2026-04-28 23:46:00,SPECI UUEE 282346Z 27007G12MPS 2900 R24C/P2000D -SN BKN005 OVC022 01/M01 Q1008 R24C/590340 NOSIG,0,7.0,1,2900,0,0,0,SN
2026-04-28 23:45:00,SPECI UUEE 282345Z 27007G12MPS 5000 1900NE R24C/P2000D SN BKN008 OVC022 01/M01 Q1008 R24C/590340 NOSIG,0,7.0,1,5000,0,0,0,SN
2026-04-28 23:30:00,METAR UUEE 282330Z 27007MPS 6000 -SN BKN008 OVC022 01/M01 Q1008 R24C/590340 NOSIG,0,7.0,0,6000,0,0,0,SN
2026-04-28 23:00:00,METAR UUEE 282300Z 27007MPS 5000 -SN BKN007 OVC022 01/M01 Q1008 RESN R24C/590340 NOSIG,0,7.0,0,5000,0,0,0,SN
2026-04-28 22:53:00,SPECI UUEE 282253Z 27007MPS 3800 1700NE SN BKN008 OVC022 01/M01 Q1007 R24C/590340 NOSIG,0,7.0,0,3800,0,0,0,SN
2026-04-28 22:48:00,SPECI UUEE 282248Z 27007MPS 2800 -SN BKN006 OVC022 01/M01 Q1007 R24C/590340 NOSIG,0,7.0,0,2800,0,0,0,SN
2026-04-28 22:47:00,SPECI UUEE 282247Z 26007MPS 3200 -SN BKN007 OVC022 01/M01 Q1007 R24C/590340 NOSIG,0,7.0,0,3200,0,0,0,SN
2026-04-28 22:30:00,METAR UUEE 282230Z 26007MPS 2800 -SN BKN007 OVC022 01/M00 Q1007 R24C/590340 NOSIG,0,7.0,0,2800,0,0,0,SN
2026-04-28 22:08:00,SPECI UUEE 282208Z 26007MPS 2300 1300NE R24L/P2000D SN BKN006 OVC022 01/M00 Q1007 R24L/590340 R24C/590340 NOSIG,0,7.0,0,2300,0,0,0,SN
2026-04-28 22:00:00,METAR UUEE 282200Z 26007MPS 2900 -SN BKN007 OVC022 01/M00 Q1007 R24L/590340 R24C/590340 NOSIG,0,7.0,0,2900,0,0,0,SN
2026-04-28 21:59:00,SPECI UUEE 282159Z 26007MPS 2900 -SN BKN007 OVC022 01/M00 Q1007 R24L/590340 R24C/590340 NOSIG,0,7.0,0,2900,0,0,0,SN
2026-04-28 21:31:00,SPECI UUEE 282131Z 26007MPS 1400 1300NE R24L/P2000D R24C/P2000D SN BKN007 OVC022 01/M01 Q1007 R24L/590340 R24C/590340 NOSIG,0,7.0,0,1400,0,0,0,SN
2026-04-28 21:30:00,METAR UUEE 282130Z 26007MPS 1500 1300NE R24L/P2000D R24C/P2000D SN BKN007 OVC022 01/M01 Q1007 R24L/590340 R24C/590340 NOSIG,0,7.0,0,1500,0,0,0,SN
2026-04-28 21:00:00,METAR UUEE 282100Z 26007MPS 1800 1400NE SN BKN008 OVC022 01/M01 Q1007 R24L/590340 R24C/590340 NOSIG,0,7.0,0,1800,0,0,0,SN
2026-04-28 20:59:00,SPECI UUEE 282059Z 26007MPS 1800 R24C/P2000D SN BKN008 OVC022 01/M01 Q1007 R24L/590340 R24C/590340 NOSIG,0,7.0,0,1800,0,0,0,SN
2026-04-28 20:57:00,SPECI UUEE 282057Z 26007MPS 2400 -SN BKN009 OVC022 01/M01 Q1007 R24L/590340 R24C/590340 NOSIG,0,7.0,0,2400,0,0,0,SN
2026-04-28 20:55:00,SPECI UUEE 282055Z 26007MPS 4600 -SN BKN008 OVC022 01/M01 Q1007 R24L/590340 R24C/590340 NOSIG,0,7.0,0,4600,0,0,0,SN
2026-04-28 20:53:00,SPECI UUEE 282053Z 26007MPS 5000 1800NE SN BKN009 OVC022 01/M01 Q1007 R24L/590340 R24C/590340 NOSIG,0,7.0,0,5000,0,0,0,SN
2026-04-28 20:51:00,SPECI UUEE 282051Z 26007MPS 6000 2100NE -SN BKN009 OVC022 01/M01 Q1007 R24L/590340 R24C/590340 NOSIG,0,7.0,0,6000,0,0,0,SN
2026-04-28 20:39:00,SPECI UUEE 282039Z 26007MPS 6000 1800NE SN BKN009 OVC022 01/M01 Q1007 R24L/590340 R24C/590340 NOSIG,0,7.0,0,6000,0,0,0,SN
2026-04-28 20:30:00,METAR UUEE 282030Z 26007MPS 6000 -SN BKN007 OVC022 01/M01 Q1007 RESN R24L/590340 R24C/590340 NOSIG,0,7.0,0,6000,0,0,0,SN
2026-04-28 20:18:00,SPECI UUEE 282018Z 26008MPS 4600 -SN BKN008 OVC022 01/M00 Q1007 R24L/590340 R24C/590340 NOSIG,0,8.0,0,4600,0,0,0,SN
2026-04-28 20:00:00,METAR UUEE 282000Z 26007MPS 2500 -SN BKN007 OVC022 01/M01 Q1007 R24L/590340 R24C/590340 NOSIG,0,7.0,0,2500,0,0,0,SN
2026-04-28 19:48:00,SPECI UUEE 281948Z 27007MPS 2800 -SN BKN007 OVC022 01/M01 Q1007 R24L/590340 R24C/590340 NOSIG,0,7.0,0,2800,0,0,0,SN
2026-04-28 19:42:00,SPECI UUEE 281942Z 26007MPS 3800 -SN BKN008 OVC022 01/M01 Q1007 R24L/590340 R24C/590340 NOSIG,0,7.0,0,3800,0,0,0,SN
2026-04-28 19:30:00,METAR UUEE 281930Z 26008MPS 8000 -SN BKN010 OVC022 01/M01 Q1007 RESN R24L/590340 R24C/590340 NOSIG,0,8.0,0,8000,0,0,0,SN
2026-04-28 19:22:00,SPECI UUEE 281922Z 26007MPS 8000 -SN BKN011 OVC022 01/M01 Q1007 R24L/590340 R24C/590340 NOSIG,0,7.0,0,8000,0,0,0,SN
2026-04-28 19:06:00,SPECI UUEE 281906Z 26007MPS 4500 -SN BKN009 OVC022 01/M01 Q1007 R24L/590340 R24C/590340 NOSIG,0,7.0,0,4500,0,0,0,SN
2026-04-28 19:00:00,METAR UUEE 281900Z 26008MPS 6000 -SN BKN009 OVC022 01/M01 Q1007 RESN R24L/590340 R24C/590340 NOSIG,0,8.0,0,6000,0,0,0,SN
2026-04-28 18:52:00,SPECI UUEE 281852Z 26008MPS 4800 -SN BKN009 OVC022 01/M00 Q1007 R24L/590340 R24C/590340 NOSIG,0,8.0,0,4800,0,0,0,SN
2026-04-28 18:30:00,METAR UUEE 281830Z 26008MPS 2700 -SN BKN008 OVC022 01/M01 Q1007 R24L/590340 R24C/590340 NOSIG,0,8.0,0,2700,0,0,0,SN
2026-04-28 18:26:00,SPECI UUEE 281826Z 26008MPS 2700 -SN BKN009 OVC022 01/M01 Q1007 R24L/590340 R24C/590340 NOSIG,0,8.0,0,2700,0,0,0,SN
2026-04-28 18:25:00,SPECI UUEE 281825Z 26008MPS 4600 2000SW SN BKN009 OVC022 01/M01 Q1007 R24L/590340 R24C/590340 NOSIG,0,8.0,0,4600,0,0,0,SN
2026-04-28 18:24:00,SPECI UUEE 281824Z 26008MPS 2800 -SN BKN010 OVC022 01/M01 Q1007 R24L/590340 R24C/590340 NOSIG,0,8.0,0,2800,0,0,0,SN
2026-04-28 18:21:00,SPECI UUEE 281821Z 26008MPS 5000 -SN BKN010 OVC022 01/M01 Q1007 R24L/590340 R24C/590340 NOSIG,0,8.0,0,5000,0,0,0,SN
2026-04-28 18:09:00,SPECI UUEE 281809Z 27008MPS 4200 1700SW SN BKN010 OVC022 01/M01 Q1007 R24L/590340 R24C/590340 NOSIG,0,8.0,0,4200,0,0,0,SN
2026-04-28 18:08:00,SPECI UUEE 281808Z 27008MPS 2700 -SN BKN010 OVC022 01/M01 Q1007 R24L/590340 R24C/590340 NOSIG,0,8.0,0,2700,0,0,0,SN
2026-04-28 18:07:00,SPECI UUEE 281807Z 27008MPS 4800 2200SW -SN BKN010 OVC022 01/M01 Q1007 R24L/590340 R24C/590340 NOSIG,0,8.0,0,4800,0,0,0,SN
2026-04-28 18:00:00,METAR UUEE 281800Z 27008MPS 6000 -SN BKN010 OVC022 01/M01 Q1007 R24L/590340 R24C/590340 NOSIG,0,8.0,0,6000,0,0,0,SN
2026-04-28 17:56:00,SPECI UUEE 281756Z 28007G12MPS 6000 -SN BKN010 OVC022 01/M01 Q1007 R24L/590340 R24C/590340 NOSIG,0,7.0,1,6000,0,0,0,SN
2026-04-28 17:37:00,SPECI UUEE 281737Z 26008MPS 4900 -SN BKN010 OVC022 01/M01 Q1007 R24L/590340 R24C/590340 NOSIG,0,8.0,0,4900,0,0,0,SN
2026-04-28 17:30:00,METAR UUEE 281730Z 26008MPS 9000 -SN BKN010 OVC022 01/M01 Q1006 R24L/590340 R24C/590340 NOSIG,0,8.0,0,9000,0,0,0,SN
2026-04-28 17:00:00,METAR UUEE 281700Z 26007MPS 9999 -SN BKN011 OVC022 01/M01 Q1006 R24L/590340 R24C/590340 NOSIG,0,7.0,0,10000,0,0,0,SN
2026-04-28 16:30:00,METAR UUEE 281630Z 26009MPS 9999 -SN BKN011 OVC019 01/M01 Q1006 RESN R24L/590340 R24C/590340 NOSIG,0,9.0,0,10000,0,0,0,SN
2026-04-28 16:00:00,METAR UUEE 281600Z 26009MPS 9000 -RA BKN011 OVC019 02/M01 Q1006 R24L/590340 R24C/590340 NOSIG,0,9.0,0,9000,0,0,0,-RA
2026-04-28 15:44:00,SPECI UUEE 281544Z 27009MPS 9999 -RA BKN011 OVC019 02/M01 Q1006 R24L/590340 R24C/590340 NOSIG,0,9.0,0,10000,0,0,0,-RA
2026-04-28 15:30:00,METAR UUEE 281530Z 27009G14MPS 9999 -RA BKN011 OVC019 02/M00 Q1006 R24L/590340 R24C/590340 NOSIG,0,9.0,1,10000,0,0,0,-RA
2026-04-28 15:29:00,SPECI UUEE 281529Z 27009G14MPS 9000 -RA BKN011 OVC019 02/M00 Q1006 R24L/590340 R24C/590340 NOSIG,0,9.0,1,9000,0,0,0,-RA
2026-04-28 15:00:00,METAR UUEE 281500Z 27009MPS 9000 -SN BKN011 OVC019 02/M01 Q1005 R24L/590340 R24C/590340 NOSIG,0,9.0,0,9000,0,0,0,SN
2026-04-28 14:46:00,SPECI UUEE 281446Z 26009G15MPS 5000 -SN BKN009 OVC019 01/M00 Q1005 R24L/590340 R24C/590340 NOSIG,0,9.0,1,5000,0,0,0,SN
2026-04-28 14:30:00,METAR UUEE 281430Z 26008MPS 4400 -RASN BKN007 OVC021 01/M00 Q1005 RERASN R24L/590340 R24C/590340 NOSIG,0,8.0,0,4400,0,0,0,"-RA,SN"
2026-04-28 14:19:00,SPECI UUEE 281419Z 26009MPS 4800 -RASN BKN007 OVC022 01/M01 Q1005 R24L/590340 R24C/590340 NOSIG,0,9.0,0,4800,0,0,0,"-RA,SN"
2026-04-28 14:13:00,SPECI UUEE 281413Z 26009MPS 5000 -RASN BKN009 OVC022 01/M00 Q1005 R24L/590340 R24C/590340 NOSIG,0,9.0,0,5000,0,0,0,"-RA,SN"
2026-04-28 14:00:00,METAR UUEE 281400Z 26009G14MPS 4700 -RASN BKN009 OVC021 01/M01 Q1005 RERASN R24L/590340 R24C/590340 NOSIG,0,9.0,1,4700,0,0,0,"-RA,SN"
2026-04-28 13:58:00,SPECI UUEE 281358Z 26010MPS 4900 -RASN BKN009 OVC021 02/M00 Q1005 R24L/590340 R24C/590340 NOSIG,0,10.0,0,4900,0,0,0,"-RA,SN"
2026-04-28 13:55:00,SPECI UUEE 281355Z 26009G14MPS 5000 -RASN BKN009 OVC021 01/M01 Q1005 R24L/590340 R24C/590340 NOSIG,0,9.0,1,5000,0,0,0,"-RA,SN"
2026-04-28 13:42:00,SPECI UUEE 281342Z 27009G14MPS 3600 -RASN BKN009 OVC021 01/M01 Q1004 R24L/590340 R24C/590340 NOSIG,0,9.0,1,3600,0,0,0,"-RA,SN"
2026-04-28 13:30:00,METAR UUEE 281330Z 26009MPS 3400 -RASN BKN009 OVC020 02/M00 Q1004 RERASN R24L/590340 R24C/590340 NOSIG,0,9.0,0,3400,0,0,0,"-RA,SN"
2026-04-28 13:26:00,SPECI UUEE 281326Z 27009MPS 2800 -RASN BKN009 OVC020 02/M00 Q1004 R24L/590340 R24C/590340 NOSIG,0,9.0,0,2800,0,0,0,"-RA,SN"
2026-04-28 13:20:00,SPECI UUEE 281320Z 27010MPS 4900 -RASN BKN010 OVC021 01/M01 Q1004 R24L/590340 R24C/590340 NOSIG,0,10.0,0,4900,0,0,0,"-RA,SN"
2026-04-28 13:16:00,SPECI UUEE 281316Z 27009G14MPS 6000 -RASN BKN009 OVC021 01/M01 Q1004 R24L/590340 R24C/590340 NOSIG,0,9.0,1,6000,0,0,0,"-RA,SN"
2026-04-28 13:03:00,SPECI UUEE 281303Z 27008G15MPS 4600 -RASN BKN009 OVC021 01/M01 Q1004 R24L/590340 R24C/590340 NOSIG,0,8.0,1,4600,0,0,0,"-RA,SN"
2026-04-28 13:00:00,METAR UUEE 281300Z 26010MPS 4500 -RASN BKN010 OVC021 01/M01 Q1004 RERASN R24L/590340 R24C/590340 NOSIG,0,10.0,0,4500,0,0,0,"-RA,SN"
2026-04-28 12:46:00,SPECI UUEE 281246Z 26010MPS 3300 -SNRA BKN009 OVC021 01/M01 Q1004 R24L/590340 R24C/590340 NOSIG,0,10.0,0,3300,0,0,0,RA
2026-04-28 12:30:00,METAR UUEE 281230Z 26010MPS 2300 -RASN BKN007 OVC020 01/M01 Q1004 R24L/590340 R24C/590340 NOSIG,0,10.0,0,2300,0,0,0,"-RA,SN"
2026-04-28 12:00:00,METAR UUEE 281200Z 27007G12MPS 2700 -RASN BKN010 OVC018 01/M01 Q1003 R24L/590340 R24C/590340 NOSIG,0,7.0,1,2700,0,0,0,"-RA,SN"
2026-04-28 11:58:00,SPECI UUEE 281158Z 27007G12MPS 3300 -RASN BKN009 OVC018 01/M01 Q1003 R24L/590340 R24C/590340 NOSIG,0,7.0,1,3300,0,0,0,"-RA,SN"
2026-04-28 11:30:00,METAR UUEE 281130Z 27008G13MPS 2400 -SN BKN007 OVC020 01/M01 Q1003 RERASN R24L/590340 R24C/590340 NOSIG,0,8.0,1,2400,0,0,0,SN
2026-04-28 11:20:00,SPECI UUEE 281120Z 26011MPS 2000 R24C/2000U SN BKN009 OVC019 01/M00 Q1003 R24L/590340 R24C/590340 NOSIG,0,11.0,0,2000,0,0,0,SN
2026-04-28 11:09:00,SPECI UUEE 281109Z 27010G15MPS 1400 1300SW R24L/1400D R24C/1400D SN BKN007 OVC019 01/M00 Q1002 R24L/590340 R24C/590340 NOSIG,0,10.0,1,1400,0,0,0,SN
2026-04-28 11:00:00,METAR UUEE 281100Z 27009G15MPS 2000 1400SW SNRA BKN006 OVC020 01/M00 Q1002 R24L/590340 R24C/590340 NOSIG,0,9.0,1,2000,0,0,0,"RA,SN"
2026-04-28 10:56:00,SPECI UUEE 281056Z 26011MPS 2300 1400SW SNRA BKN008 OVC020 01/M00 Q1002 R24L/590340 R24C/590340 NOSIG,0,11.0,0,2300,0,0,0,"RA,SN"
2026-04-28 10:51:00,SPECI UUEE 281051Z 26011MPS 2500 -SNRA BKN007 OVC020 01/M00 Q1002 R24L/590340 R24C/590340 NOSIG,0,11.0,0,2500,0,0,0,RA
2026-04-28 10:30:00,METAR UUEE 281030Z 26010MPS 1800 1400SW R24L/1900U R24C/1700N SNRA BKN008 OVC019 01/M00 Q1002 R24L/590340 R24C/590340 NOSIG,0,10.0,0,1800,0,0,0,"RA,SN"
2026-04-28 10:00:00,METAR UUEE 281000Z 26011MPS 1600 1300SW R24L/1600U R24C/1600U SN BKN007 OVC020 01/M01 Q1001 R24L/590340 R24C/590340 NOSIG,0,11.0,0,1600,0,0,0,SN
2026-04-28 09:44:00,SPECI UUEE 280944Z 26010MPS 1400 R24L/1900N R24C/1700N SN BKN008 OVC020 01/M01 Q1001 R24L/590340 R24C/590340 NOSIG,0,10.0,0,1400,0,0,0,SN
2026-04-28 09:30:00,METAR UUEE 280930Z 26011G16MPS 1600 1100SW R24L/1600U R24C/1400N SN BKN008 OVC022 01/M01 Q1000 R24L/590340 R24C/590340 NOSIG,0,11.0,1,1600,0,0,0,SN
2026-04-28 09:14:00,SPECI UUEE 280914Z 27008G13MPS 1300 1000SW R24L/1300N R24C/1300N SN BKN009 OVC022 01/M01 Q1000 R24L/590340 R24C/590340 NOSIG,0,8.0,1,1300,0,0,0,SN
2026-04-28 09:12:00,SPECI UUEE 280912Z 26010G15MPS 1600 1400SW R24L/1600D R24C/1500D SN BKN009 OVC022 01/M01 Q1000 R24L/590340 R24C/590340 NOSIG,0,10.0,1,1600,0,0,0,SN
2026-04-28 09:00:00,METAR UUEE 280900Z 26010MPS 1500 1400SW R24L/1500U R24C/1500N SN BKN008 OVC022 01/M01 Q1000 R24L/590340 R24C/590340 NOSIG,0,10.0,0,1500,0,0,0,SN
2026-04-28 08:30:00,METAR UUEE 280830Z 28008G13MPS 1300 1200NE R24L/1300N R24C/1200U SN BKN008 OVC022 01/M01 Q0999 R24L/590340 R24C/590340 NOSIG,0,8.0,1,1300,0,0,0,SN
2026-04-28 08:08:00,SPECI UUEE 280808Z 26010G15MPS 1300 1200NE R24L/1300N R24C/1200N SN BKN008 OVC022 01/M01 Q0999 R24L/590340 R24C/590340 NOSIG,0,10.0,1,1300,0,0,0,SN
2026-04-28 08:01:00,SPECI UUEE 280801Z 26010MPS 1400 1200NE R24L/1300D R24C/1200D SN BKN009 OVC022 01/M01 Q0999 R24L/590340 R24C/590340 NOSIG,0,10.0,0,1400,0,0,0,SN
2026-04-28 08:00:00,METAR UUEE 280800Z 26010MPS 1700 1100NE R24L/1300D R24C/1100D SN BKN010 OVC022 01/M01 Q0999 R24L/590340 R24C/590340 NOSIG,0,10.0,0,1700,0,0,0,SN
2026-04-28 07:55:00,SPECI UUEE 280755Z 27008G13MPS 2000 R24C/2000D SN BKN010 OVC022 01/M01 Q0998 R24L/590340 R24C/590340 NOSIG,0,8.0,1,2000,0,0,0,SN
2026-04-28 07:30:00,METAR UUEE 280730Z 27010G15MPS 2700 -SN BKN012 OVC020 01/M01 Q0998 RESN R24L/590340 R24C/590340 NOSIG,0,10.0,1,2700,0,0,0,SN
2026-04-28 07:17:00,SPECI UUEE 280717Z 26010G15MPS 2900 -SN BKN011 OVC020 01/M01 Q0998 R24L/590340 R24C/590340 NOSIG,0,10.0,1,2900,0,0,0,SN
2026-04-28 07:15:00,SPECI UUEE 280715Z 26010G15MPS 3500 -SN BKN011 OVC020 01/M01 Q0998 R24L/590340 R24C/590340 NOSIG,0,10.0,1,3500,0,0,0,SN
2026-04-28 07:14:00,SPECI UUEE 280714Z 26010MPS 3500 -SN BKN011 OVC020 01/M01 Q0998 R24L/590340 R24C/590340 NOSIG,0,10.0,0,3500,0,0,0,SN
2026-04-28 07:00:00,METAR UUEE 280700Z 27009G14MPS 1700 R24L/1700U R24C/1600U SN BKN010 OVC021 01/M01 Q0997 R24L/590340 R24C/590340 NOSIG,0,9.0,1,1700,0,0,0,SN
2026-04-28 06:52:00,SPECI UUEE 280652Z 27009G14MPS 1400 1300SW R24L/1800D R24C/1400D SN BKN010 OVC021 01/M02 Q0997 R24L/590340 R24C/590340 NOSIG,0,9.0,1,1400,0,0,0,SN
2026-04-28 06:43:00,SPECI UUEE 280643Z 26011G16MPS 2100 1400SW R24C/1900D SN BKN012 OVC021 01/M01 Q0997 R24L/590340 R24C/590340 NOSIG,0,11.0,1,2100,0,0,0,SN
2026-04-28 06:42:00,SPECI UUEE 280642Z 26011G16MPS 2200 R24C/2000D -SN BKN011 OVC021 01/M01 Q0997 R24L/590340 R24C/590340 NOSIG,0,11.0,1,2200,0,0,0,SN
2026-04-28 06:30:00,METAR UUEE 280630Z 26011MPS 2400 -SN BKN011 OVC021 01/M01 Q0997 R24L/590340 R24C/590340 NOSIG,0,11.0,0,2400,0,0,0,SN
2026-04-28 06:21:00,SPECI UUEE 280621Z 26011MPS 1900 R24L/2000U R24C/1700U SN BKN010 OVC020 00/M01 Q0997 R24L/590340 R24C/590340 NOSIG,0,11.0,0,1900,0,0,0,SN
2026-04-28 06:07:00,SPECI UUEE 280607Z 27007G12MPS 240V300 1400 1300NW R24L/1300D R24C/1300D SN BKN009 OVC020 01/M01 Q0997 R24L/590340 R24C/590340 NOSIG,0,7.0,1,1400,0,0,0,SN
2026-04-28 06:04:00,SPECI UUEE 280604Z 26010G15MPS 2300 1400NE R24L/1800D R24C/1400D SN BKN009 OVC020 00/M01 Q0997 R24L/590340 R24C/590340 NOSIG,0,10.0,1,2300,0,0,0,SN
2026-04-28 06:02:00,SPECI UUEE 280602Z 26010G15MPS 2700 -SN BKN009 OVC020 00/M01 Q0997 R24L/590340 R24C/590340 NOSIG,0,10.0,1,2700,0,0,0,SN
2026-04-28 06:00:00,METAR UUEE 280600Z 26009G15MPS 3200 -SN BKN010 OVC020 00/M01 Q0997 RESN R24L/590340 R24C/590340 NOSIG,0,9.0,1,3200,0,0,0,SN
2026-04-28 05:55:00,SPECI UUEE 280555Z 26009G15MPS 2000 R24L/2000U R24C/1800U SN BKN008 OVC019 00/M01 Q0997 R24L/590340 R24C/590340 NOSIG,0,9.0,1,2000,0,0,0,SN
2026-04-28 05:54:00,SPECI UUEE 280554Z 26009MPS 1900 R24L/1900U R24C/1700U SN BKN009 OVC019 00/M01 Q0997 R24L/590340 R24C/590340 NOSIG,0,9.0,0,1900,0,0,0,SN
2026-04-28 05:30:00,METAR UUEE 280530Z 26009MPS 1000 0900NE R24L/1000U R24C/0900U +SN BKN006 OVC019 00/M01 Q0996 R24L/590340 R24C/590340 NOSIG,0,9.0,0,1000,0,0,0,SN
2026-04-28 05:24:00,SPECI UUEE 280524Z 26010MPS 1000 0750NE R24L/1000D R24C/1000D +SN BKN007 OVC019 00/M01 Q0996 R24L/590340 R24C/590340 NOSIG,0,10.0,0,1000,0,0,0,SN
2026-04-28 05:04:00,SPECI UUEE 280504Z 26009G16MPS 1300 1200NE R24L/1300N R24C/1200N SN BKN007 OVC019 00/M01 Q0996 R24L/590340 R24C/590340 NOSIG,0,9.0,1,1300,0,0,0,SN
2026-04-28 05:00:00,METAR UUEE 280500Z 26009MPS 1200 1100NE R24L/1200U R24C/1200N SN BKN007 OVC019 00/M01 Q0996 R24L/590340 R24C/590340 NOSIG,0,9.0,0,1200,0,0,0,SN
2026-04-28 04:30:00,METAR UUEE 280430Z 27009MPS 240V300 1100 1000SW R24L/1200N R24C/1100N SN BKN006 OVC019 M00/M01 Q0996 R24L/590340 R24C/590340 NOSIG,0,9.0,0,1100,0,0,0,SN
2026-04-28 04:09:00,SPECI UUEE 280409Z 27009MPS 1400 1300NW R24L/1600N R24C/1400N SN BKN008 OVC019 M00/M01 Q0995 R24L/590340 R24C/590340 NOSIG,0,9.0,0,1400,0,0,0,SN
2026-04-28 04:00:00,METAR UUEE 280400Z 27009MPS 1500 1200SW R24L/1600D R24C/1500N SN BKN008 OVC018 M00/M01 Q0995 R24L/590340 R24C/590340 NOSIG,0,9.0,0,1500,0,0,0,SN
2026-04-28 03:54:00,SPECI UUEE 280354Z 27009MPS 1400 1300NW R24L/1700N R24C/1400U SN BKN008 OVC021 M00/M01 Q0995 R24L/590340 R24C/590340 NOSIG,0,9.0,0,1400,0,0,0,SN
2026-04-28 03:30:00,METAR UUEE 280330Z 27009MPS 1600 1300SW R24L/1700U R24C/1600U SN BKN008 OVC023 M00/M02 Q0995 R24L/590340 R24C/590340 NOSIG,0,9.0,0,1600,0,0,0,SN
2026-04-28 03:22:00,SPECI UUEE 280322Z 27009G14MPS 1400 1200SW R24C/1400D SN BKN008 OVC020 00/M02 Q0995 R24L/590340 R24C/590340 NOSIG,0,9.0,1,1400,0,0,0,SN
2026-04-28 03:06:00,SPECI UUEE 280306Z 28007G12MPS 2000 R24C/2000D SN BKN009 OVC026 M00/M02 Q0995 R24L/590340 R24C/590340 NOSIG,0,7.0,1,2000,0,0,0,SN
2026-04-28 03:00:00,METAR UUEE 280300Z 27009G14MPS 2100 -SN BKN009 OVC021 M00/M02 Q0995 R24L/590340 R24C/590340 NOSIG,0,9.0,1,2100,0,0,0,SN
2026-04-28 02:53:00,SPECI UUEE 280253Z 27009G14MPS 2800 -SN OVC010 00/M02 Q0994 R24L/590340 R24C/590340 NOSIG,0,9.0,1,2800,0,0,0,SN
2026-04-28 02:51:00,SPECI UUEE 280251Z 27009G14MPS 3300 -SN OVC011 00/M02 Q0994 R24L/590340 R24C/590340 NOSIG,0,9.0,1,3300,0,0,0,SN
2026-04-28 02:46:00,SPECI UUEE 280246Z 27009MPS 3700 -SN OVC011 00/M01 Q0994 R24L/590340 R24C/590340 NOSIG,0,9.0,0,3700,0,0,0,SN
2026-04-28 02:30:00,METAR UUEE 280230Z 29008G14MPS 1800 R24L/2000N R24C/1700U SN OVC010 M00/M01 Q0994 R24L/590340 R24C/590340 NOSIG,0,8.0,1,1800,0,0,0,SN
2026-04-28 02:00:00,METAR UUEE 280200Z 28008MPS 1700 R24L/1700U R24C/1500U SN OVC009 M00/M01 Q0994 R24L/590340 R24C/590340 NOSIG,0,8.0,0,1700,0,0,0,SN
2026-04-28 01:55:00,SPECI UUEE 280155Z 28007G12MPS 1600 R24L/1500U R24C/1500U SN OVC008 M00/M01 Q0994 R24L/590340 R24C/590340 NOSIG,0,7.0,1,1600,0,0,0,SN
2026-04-28 01:37:00,SPECI UUEE 280137Z 27009MPS 1100 0900SW R24L/1200D R24C/1100D +SN OVC008 M00/M01 Q0994 R24L/590340 R24C/590340 NOSIG,0,9.0,0,1100,0,0,0,SN
2026-04-28 01:30:00,METAR UUEE 280130Z 29008G14MPS 1200 1000NW R24L/1300D R24C/1200D SN OVC008 00/M01 Q0994 R24L/590340 R24C/590340 NOSIG,0,8.0,1,1200,0,0,0,SN
2026-04-28 01:27:00,SPECI UUEE 280127Z 28009G14MPS 1400 1100NW R24C/1400U SN OVC008 00/M01 Q0994 R24L/590340 R24C/590340 NOSIG,0,9.0,1,1400,0,0,0,SN
2026-04-28 01:21:00,SPECI UUEE 280121Z 28008G13MPS 1700 R24L/1900U R24C/1600N SN OVC009 00/M01 Q0994 R24L/590340 R24C/590340 NOSIG,0,8.0,1,1700,0,0,0,SN
2026-04-28 01:07:00,SPECI UUEE 280107Z 27010MPS 1100 0900SW R24L/P2000N R24C/2000D +SN OVC007 00/M01 Q0993 R24L/590340 R24C/590340 NOSIG,0,10.0,0,1100,0,0,0,SN
2026-04-28 01:00:00,METAR UUEE 280100Z 28007G12MPS 260V320 1300 1100NW R24L/P2000N R24C/P2000N SN OVC007 00/M01 Q0993 R24L/590340 R24C/590340 NOSIG,0,7.0,1,1300,0,0,0,SN
2026-04-28 00:49:00,SPECI UUEE 280049Z 27009MPS 1400 1200SW R24L/P2000U R24C/P2000U SN OVC008 00/M01 Q0993 R24L/590340 R24C/590340 NOSIG,0,9.0,0,1400,0,0,0,SN
2026-04-28 00:34:00,SPECI UUEE 280034Z 28010MPS 1100 0900SW R24L/P2000N R24C/2000N +SN OVC006 00/M01 Q0993 R24L/590340 R24C/590340 NOSIG,0,10.0,0,1100,0,0,0,SN
2026-04-28 00:30:00,METAR UUEE 280030Z 29008G13MPS 1200 1000SW R24L/P2000D R24C/2000D SN OVC007 00/M01 Q0993 R24L/590340 R24C/590340 NOSIG,0,8.0,1,1200,0,0,0,SN
2026-04-28 00:00:00,METAR UUEE 280000Z 28010G15MPS 1000 0900SW R24L/P2000N R24C/1900N +SN BKN007 OVC019 00/M01 Q0993 R24L/590340 R24C/590335 NOSIG,0,10.0,1,1000,0,0,0,SN
2026-04-27 23:45:00,SPECI UUEE 272345Z 28011G16MPS 1000 0900NW R24L/P2000D R24C/2000D +SN BKN007 OVC016 00/M01 Q0993 R24L/590340 R24C/590335 NOSIG,0,11.0,1,1000,0,0,0,SN
2026-04-27 23:30:00,METAR UUEE 272330Z 28010G15MPS 1200 1100SW R24L/P2000N R24C/P2000N SN BKN007 OVC016 00/M01 Q0992 R24L/590340 R24C/590335 NOSIG,0,10.0,1,1200,0,0,0,SN
2026-04-27 23:18:00,SPECI UUEE 272318Z 29009G14MPS 1300 R24L/P2000D R24C/P2000D SN BKN007 OVC018 00/M01 Q0992 R24L/590340 R24C/590335 NOSIG,0,9.0,1,1300,0,0,0,SN
2026-04-27 23:15:00,SPECI UUEE 272315Z 28011MPS 1500 1200SW R24L/P2000D R24C/P2000D SN BKN007 OVC018 00/M01 Q0992 R24L/590340 R24C/590335 NOSIG,0,11.0,0,1500,0,0,0,SN
2026-04-27 23:00:00,METAR UUEE 272300Z 29009G14MPS 0900 R24L/P2000U R24C/1900N +SN VV006 00/M00 Q0992 R24L/590340 R24C/590340 NOSIG,0,9.0,1,1448100,0,0,0,SN
2026-04-27 22:48:00,SPECI UUEE 272248Z 28010G16MPS 1000 0900NE R24L/P2000N R24C/1900D +SN BKN005 OVC021 00/M00 Q0992 R24L/590340 R24C/590340 NOSIG,0,10.0,1,1000,0,0,0,SN
2026-04-27 22:30:00,METAR UUEE 272230Z 28011G17MPS 1400 1200NE R24L/P2000N R24C/P2000N SN BKN007 OVC021 00/M00 Q0992 R24L/590340 R24C/590340 NOSIG,0,11.0,1,1400,0,0,0,SN
2026-04-27 22:15:00,SPECI UUEE 272215Z 29008G13MPS 1300 1200SW R24L/P2000U R24C/P2000U SN BKN007 OVC021 00/M00 Q0992 R24L/590340 R24C/590340 NOSIG,0,8.0,1,1300,0,0,0,SN
2026-04-27 22:00:00,METAR UUEE 272200Z 28010G15MPS 1300 1100SW R24L/P2000D R24C/P2000D SN BKN007 OVC023 00/M00 Q0992 WS R24L WS R24C R24L/590340 R24C/590340 NOSIG,0,10.0,1,1300,0,0,0,SN
2026-04-27 21:30:00,METAR UUEE 272130Z 28010G16MPS 1300 1100SW R24L/P2000U R24C/P2000U SN BKN007 OVC023 00/M00 Q0991 WS R24L WS R24C R24L/590340 R24C/590340 NOSIG,0,10.0,1,1300,0,0,0,SN
2026-04-27 21:25:00,SPECI UUEE 272125Z 28011G16MPS 1300 1000SW R24L/P2000N R24C/P2000D SN BKN007 OVC023 00/M00 Q0991 WS R24L WS R24C R24L/590340 R24C/590340 NOSIG,0,11.0,1,1300,0,0,0,SN
2026-04-27 21:14:00,SPECI UUEE 272114Z 28007G13MPS 260V320 1300 1100SW R24L/P2000N R24C/P2000U SN BKN007 OVC022 00/M00 Q0991 R24L/590340 R24C/590340 NOSIG,0,7.0,1,1300,0,0,0,SN
2026-04-27 21:00:00,METAR UUEE 272100Z 29009G14MPS 1200 1000SW R24L/P2000N R24C/1900N SN BKN007 OVC022 00/M00 Q0991 WS R24L WS R24C R24L/590340 R24C/590340 NOSIG,0,9.0,1,1200,0,0,0,SN
2026-04-27 20:55:00,SPECI UUEE 272055Z 28010G15MPS 1200 1000SW R24L/P2000N R24C/2000N SN BKN007 OVC022 00/M00 Q0991 WS R24L WS R24C R24L/590340 R24C/590340 NOSIG,0,10.0,1,1200,0,0,0,SN
2026-04-27 20:44:00,SPECI UUEE 272044Z 29009G15MPS 1200 0900SW R24L/P2000N R24C/P2000U +SN BKN007 OVC022 00/M00 Q0991 WS R24L WS R24C R24L/590340 R24C/590340 NOSIG,0,9.0,1,1200,0,0,0,SN
2026-04-27 20:40:00,SPECI UUEE 272040Z 29009G14MPS 1100 0900SW R24L/P2000U R24C/2000N +SN BKN007 OVC022 00/M00 Q0991 R24L/590340 R24C/590340 NOSIG,0,9.0,1,1100,0,0,0,SN
2026-04-27 20:30:00,METAR UUEE 272030Z 29009G15MPS 1100 1000SW R24L/P2000D R24C/P2000D SN BKN007 OVC022 00/M00 Q0990 R24L/590340 R24C/590340 NOSIG,0,9.0,1,1100,0,0,0,SN
2026-04-27 20:00:00,METAR UUEE 272000Z 28011G17MPS 1000 0800NE R24L/P2000U R24C/2000U +SN BKN006 OVC023 00/M00 Q0990 R24L/590340 R24C/590340 NOSIG,0,11.0,1,1000,0,0,0,SN
2026-04-27 19:35:00,SPECI UUEE 271935Z 28011G16MPS 1200 0900NE R24L/P2000N R24C/P2000N +SN BKN007 OVC023 00/M00 Q0990 R24L/590340 R24C/590340 NOSIG,0,11.0,1,1200,0,0,0,SN
2026-04-27 19:30:00,METAR UUEE 271930Z 28010G15MPS 1200 1000NE R24L/P2000N R24C/P2000N SN BKN007 OVC023 00/M00 Q0990 R24L/590340 R24C/590340 NOSIG,0,10.0,1,1200,0,0,0,SN
2026-04-27 19:25:00,SPECI UUEE 271925Z 28012G18MPS 1200 1000NE R24L/P2000N R24C/P2000N SN BKN008 OVC023 00/M00 Q0990 R24L/590340 R24C/590340 NOSIG,0,12.0,1,1200,0,0,0,SN
2026-04-27 19:00:00,METAR UUEE 271900Z 28012G17MPS 0900 0800NE R24L/P2000U R24C/2000U +SN VV006 00/M00 Q0989 R24L/590340 R24C/590340 NOSIG,0,12.0,1,1448100,0,0,0,SN
2026-04-27 18:45:00,SPECI UUEE 271845Z 28012G18MPS 1100 0900NE R24L/P2000N R24C/P2000D +SN BKN007 OVC024 00/M00 Q0989 R24L/590340 R24C/590340 NOSIG,0,12.0,1,1100,0,0,0,SN
2026-04-27 18:42:00,SPECI UUEE 271842Z 28012G18MPS 1200 1000NW R24L/P2000D R24C/P2000D SN BKN007 OVC024 00/M01 Q0989 R24L/590340 R24C/590340 NOSIG,0,12.0,1,1200,0,0,0,SN
2026-04-27 18:30:00,METAR UUEE 271830Z 28010G15MPS 1100 0900NE R24L/P2000N R24C/P2000U +SN BKN007 OVC022 00/M01 Q0989 R24L/590340 R24C/590340 NOSIG,0,10.0,1,1100,0,0,0,SN
2026-04-27 18:00:00,METAR UUEE 271800Z 28012G17MPS 1000 0800NE R24L/P2000U R24C/2000N +SN BKN007 OVC022 01/M00 Q0989 R24L/590340 R24C/590340 NOSIG,0,12.0,1,1000,0,0,0,SN
2026-04-27 17:43:00,SPECI UUEE 271743Z 28011G16MPS 1100 0900NE R24L/1200D R24C/1200D +SN BKN006 OVC022 01/M01 Q0989 R24L/590340 R24C/590340 NOSIG,0,11.0,1,1100,0,0,0,SN
2026-04-27 17:30:00,METAR UUEE 271730Z 27012G17MPS 1200 1000SW R24L/1300U R24C/1200N SN OVC007 01/M01 Q0988 R24L/590340 R24C/590340 NOSIG,0,12.0,1,1200,0,0,0,SN
2026-04-27 17:25:00,SPECI UUEE 271725Z 27012G17MPS 1100 0900NE R24L/1500U R24C/1500U +SN OVC008 01/M00 Q0988 R24L/590340 R24C/590340 NOSIG,0,12.0,1,1100,0,0,0,SN
2026-04-27 17:13:00,SPECI UUEE 271713Z 28011G18MPS 0750 0700SW R24L/1000N R24C/1000N +SN VV005 01/M00 Q0988 R24L/590340 R24C/590340 NOSIG,0,11.0,1,1206750,0,0,0,SN
2026-04-27 17:00:00,METAR UUEE 271700Z 27011G16MPS 1000 0900NE R24L/1100N R24C/1100N +SN OVC006 01/M01 Q0988 R24L/590340 R24C/590340 NOSIG,0,11.0,1,1000,0,0,0,SN
2026-04-27 16:53:00,SPECI UUEE 271653Z 29011G19MPS 0900 0800NE R24L/1000U R24C/0900U +SN VV006 01/M00 Q0988 R24L/590340 R24C/590340 NOSIG,0,11.0,1,1448100,0,0,0,SN
2026-04-27 16:42:00,SPECI UUEE 271642Z 27011G17MPS 0800 0750NE R24L/0900N R24C/0750N +SN VV005 01/M00 Q0988 R24L/590340 R24C/590340 NOSIG,0,11.0,1,1287200,0,0,0,SN
2026-04-27 16:34:00,SPECI UUEE 271634Z 28012G18MPS 240V300 1100 0900NE R24L/1100D R24C/1100D +SN OVC005 01/M01 Q0987 R24L/590340 R24C/590340 NOSIG,0,12.0,1,1100,0,0,0,SN
2026-04-27 16:30:00,METAR UUEE 271630Z 28012G18MPS 240V300 1200 1100NE R24L/1300D R24C/1300D SN OVC006 01/M00 Q0987 R24L/590340 R24C/590340 NOSIG,0,12.0,1,1200,0,0,0,SN
2026-04-27 16:00:00,METAR UUEE 271600Z 27011G18MPS 1000 0900NE R24L/1500U R24C/1100U +SN OVC007 01/M00 Q0987 R24L/590340 R24C/590340 NOSIG,0,11.0,1,1000,0,0,0,SN
2026-04-27 15:30:00,METAR UUEE 271530Z 27011G17MPS 1300 0800NE R24L/1400D R24C/1400N +SN OVC007 01/M00 Q0987 R24L/590340 R24C/590340 NOSIG,0,11.0,1,1300,0,0,0,SN
2026-04-27 15:24:00,SPECI UUEE 271524Z 27012G18MPS 1300 0700NE R24L/1900U R24C/1300N +SN OVC007 01/M00 Q0987 R24L/590340 R24C/590340 NOSIG,0,12.0,1,1300,0,0,0,SN
2026-04-27 15:19:00,SPECI UUEE 271519Z 26013G18MPS 1600 0900NE R24L/1700U R24C/1700U +SN OVC008 01/M00 Q0987 R24L/590340 R24C/590340 NOSIG,0,13.0,1,1600,0,0,0,SN
2026-04-27 15:00:00,METAR UUEE 271500Z 27012G17MPS 1400 1000NE R24C/1000D SN OVC007 01/M00 Q0986 R24L/590340 R24C/590340 NOSIG,0,12.0,1,1400,0,0,0,SN
2026-04-27 14:57:00,SPECI UUEE 271457Z 27011G16MPS 1400 1200NW R24C/1400D SN OVC007 01/M00 Q0987 R24L/590340 R24C/590340 NOSIG,0,11.0,1,1400,0,0,0,SN
2026-04-27 14:52:00,SPECI UUEE 271452Z 26013G18MPS 2800 1200SW SN OVC008 01/M00 Q0987 R24L/590340 R24C/590340 NOSIG,0,13.0,1,2800,0,0,0,SN
2026-04-27 14:51:00,SPECI UUEE 271451Z 26012G18MPS 3100 1200SW SN OVC008 01/00 Q0987 R24L/590340 R24C/590340 NOSIG,0,12.0,1,3100,0,0,0,SN
2026-04-27 14:30:00,METAR UUEE 271430Z 26013G18MPS 1500 0800SW R24L/1500U R24C/1100N +SN OVC008 01/M00 Q0986 R24L/590340 R24C/590340 NOSIG,0,13.0,1,1500,0,0,0,SN
2026-04-27 14:22:00,SPECI UUEE 271422Z 25013G18MPS 1300 0750SW R24L/1200N R24C/0900N +SN OVC008 01/M00 Q0986 R24L/590340 R24C/590340 NOSIG,0,13.0,1,1300,0,0,0,SN
2026-04-27 14:11:00,SPECI UUEE 271411Z 25013MPS 1400 0650NE R24L/1000N R24C/0650N +SN OVC007 01/M00 Q0986 R24L/590340 R24C/590340 NOSIG,0,13.0,0,1400,0,0,0,SN
2026-04-27 14:00:00,METAR UUEE 271400Z 25013G18MPS 1600 0700NE R24L/1100D R24C/0700D +SN OVC008 01/00 Q0986 RERA R24L/590340 R24C/590340 NOSIG,0,13.0,1,1600,0,0,0,"RA,SN"
2026-04-27 13:56:00,SPECI UUEE 271356Z 27011G17MPS 1400 0650NE R24L/0800D R24C/0650N +SNRA OVC007 01/M00 Q0986 R24L/590340 R24C/590340 NOSIG,0,11.0,1,1400,0,0,0,RA
2026-04-27 13:48:00,SPECI UUEE 271348Z 25012G17MPS 1900 0650NE R24L/1900U R24C/0650N +SNRA OVC007 01/M00 Q0986 R24L/590340 R24C/590340 NOSIG,0,12.0,1,1900,0,0,0,RA
2026-04-27 13:30:00,METAR UUEE 271330Z 25012G18MPS 1100 0650SW R24L/1100N R24C/0750D +SNRA OVC007 01/M00 Q0986 R24L/590340 R24C/590340 NOSIG,0,12.0,1,1100,0,0,0,RA
2026-04-27 13:19:00,SPECI UUEE 271319Z 27011G17MPS 1300 0800NE R24L/1300N R24C/0800U +SNRA OVC007 01/M00 Q0986 R24L/590340 R24C/590340 NOSIG,0,11.0,1,1300,0,0,0,RA
2026-04-27 13:11:00,SPECI UUEE 271311Z 27010G17MPS 1500 0600NE R24L/1100U R24C/0600N +SNRA BKN008 OVC017 01/00 Q0986 R24L/590340 R24C/590340 NOSIG,0,10.0,1,1500,0,0,0,RA
2026-04-27 13:00:00,METAR UUEE 271300Z 27011G18MPS 1400 0550NE R24L/1000U R24C/0550N +SN BKN007 OVC022 01/M00 Q0986 RERA R24L/590340 R24C/590340 NOSIG,0,11.0,1,1400,0,0,0,"RA,SN"
2026-04-27 12:34:00,SPECI UUEE 271234Z 25012G17MPS 1300 0500NE R24L/0700D R24C/0550N +SNRA BKN006 OVC021 01/00 Q0986 R24L/590340 R24C/590340 NOSIG,0,12.0,1,1300,0,0,0,RA
2026-04-27 12:30:00,METAR UUEE 271230Z 25012G19MPS 1600 0500NE R24L/0750N R24C/0550N +SNRA BKN006 OVC021 01/00 Q0986 R24L/590340 R24C/590340 NOSIG,0,12.0,1,1600,0,0,0,RA
2026-04-27 12:29:00,SPECI UUEE 271229Z 25012G19MPS 1600 0550NE R24L/0900N R24C/0550D +SNRA BKN006 OVC021 01/00 Q0986 R24L/590340 R24C/590340 NOSIG,0,12.0,1,1600,0,0,0,RA
2026-04-27 12:27:00,SPECI UUEE 271227Z 25012G19MPS 1400 0600NE R24L/0750D R24C/0600D +SNRA BKN007 OVC021 01/00 Q0986 R24L/590340 R24C/590340 NOSIG,0,12.0,1,1400,0,0,0,RA
2026-04-27 12:22:00,SPECI UUEE 271222Z 25012G19MPS 1500 0700NE R24L/0750N R24C/0700N +SNRA BKN007 OVC021 01/00 Q0986 R24L/590340 R24C/590340 NOSIG,0,12.0,1,1500,0,0,0,RA
2026-04-27 12:00:00,METAR UUEE 271200Z 25013G18MPS 1400 0650NE R24L/1100N R24C/0650N +SN BKN006 OVC023 01/00 Q0986 R24L/590340 R24C/590340 NOSIG,0,13.0,1,1400,0,0,0,SN
2026-04-27 11:59:00,SPECI UUEE 271159Z 26011G16MPS 1700 0650NE R24L/1100N R24C/0650N +SN BKN006 OVC023 01/00 Q0986 R24L/590340 R24C/590340 NOSIG,0,11.0,1,1700,0,0,0,SN
2026-04-27 11:41:00,SPECI UUEE 271141Z 26011G16MPS 1100 0550NE R24L/1000D R24C/0550N +SN BKN007 OVC023 01/00 Q0985 R24L/590340 R24C/590340 NOSIG,0,11.0,1,1100,0,0,0,SN
2026-04-27 11:30:00,METAR UUEE 271130Z 26012G17MPS 0900 0600NE R24L/0900U R24C/0600N +SN VV007 01/00 Q0985 R24L/590340 R24C/590340 NOSIG,0,12.0,1,1448100,0,0,0,SN
2026-04-27 11:19:00,SPECI UUEE 271119Z 25012G18MPS 1200 0600NE R24L/0750N R24C/0600N +SN BKN007 OVC023 01/00 Q0985 R24L/590340 R24C/590340 NOSIG,0,12.0,1,1200,0,0,0,SN
2026-04-27 11:16:00,SPECI UUEE 271116Z 27011G16MPS 1300 0550NE R24L/0900D R24C/0600N +SN BKN007 OVC023 01/00 Q0985 R24L/590340 R24C/590340 NOSIG,0,11.0,1,1300,0,0,0,SN
2026-04-27 11:03:00,SPECI UUEE 271103Z 25012G18MPS 1400 0650SW R24L/0750N R24C/0750N +SN BKN007 OVC023 01/00 Q0985 R24L/590340 R24C/590340 NOSIG,0,12.0,1,1400,0,0,0,SN
2026-04-27 11:00:00,METAR UUEE 271100Z 25012G18MPS 1300 0600SW R24L/0800N R24C/0750D +SN BKN007 OVC023 01/00 Q0985 R24L/590340 R24C/590340 NOSIG,0,12.0,1,1300,0,0,0,SN
2026-04-27 10:59:00,SPECI UUEE 271059Z 25013G18MPS 1400 0600SW R24L/0750N R24C/0700D +SN BKN007 OVC023 01/00 Q0985 R24L/590340 R24C/590340 NOSIG,0,13.0,1,1400,0,0,0,SN
2026-04-27 10:58:00,SPECI UUEE 271058Z 25013G18MPS 1400 0600SW R24L/0800N R24C/0750N +SN BKN007 OVC023 01/00 Q0985 R24L/590340 R24C/590340 NOSIG,0,13.0,1,1400,0,0,0,SN
2026-04-27 10:50:00,SPECI UUEE 271050Z 25013G18MPS 1200 0700SW R24L/0750N R24C/0800N +SN BKN007 OVC023 01/00 Q0985 R24L/590340 R24C/590340 NOSIG,0,13.0,1,1200,0,0,0,SN
2026-04-27 10:45:00,SPECI UUEE 271045Z 25013G18MPS 1400 0550NE R24L/1000D R24C/0600D +SN BKN007 OVC023 01/M00 Q0985 R24L/590340 R24C/590340 NOSIG,0,13.0,1,1400,0,0,0,SN
2026-04-27 10:42:00,SPECI UUEE 271042Z 25013G18MPS 1500 0750NE R24L/1000N R24C/0750D +SN BKN007 OVC023 01/M00 Q0985 R24L/590340 R24C/590340 NOSIG,0,13.0,1,1500,0,0,0,SN
2026-04-27 10:30:00,METAR UUEE 271030Z 26012G17MPS 1100 0700SW R24L/1100D R24C/0800N +SN BKN007 OVC023 01/M00 Q0985 R24L/590340 R24C/590340 NOSIG,0,12.0,1,1100,0,0,0,SN
2026-04-27 10:21:00,SPECI UUEE 271021Z 25013MPS 1300 0550NE R24L/1100U R24C/0600N +SN BKN007 OVC023 01/M00 Q0985 R24L/590340 R24C/590340 NOSIG,0,13.0,0,1300,0,0,0,SN
2026-04-27 10:20:00,SPECI UUEE 271020Z 25013MPS 1500 0550NE R24L/1500U R24C/0550N +SN BKN007 OVC023 01/M00 Q0985 R24L/590340 R24C/590340 NOSIG,0,13.0,0,1500,0,0,0,SN
2026-04-27 10:09:00,SPECI UUEE 271009Z 25014G19MPS 1300 0500NE R24L/0550D R24C/0550N +SN BKN006 OVC023 01/M00 Q0985 R24L/590340 R24C/590340 NOSIG,0,14.0,1,1300,0,0,0,SN
2026-04-27 10:02:00,SPECI UUEE 271002Z 25013G19MPS 1400 0500NE R24L/0750D R24C/0550N +SN BKN007 OVC023 01/M00 Q0985 R24L/590340 R24C/590340 NOSIG,0,13.0,1,1400,0,0,0,SN
2026-04-27 10:00:00,METAR UUEE 271000Z 27011G16MPS 1400 0550NE R24L/1400U R24C/0550N +SN BKN007 OVC023 01/M00 Q0985 R24L/590340 R24C/590340 NOSIG,0,11.0,1,1400,0,0,0,SN
2026-04-27 09:48:00,SPECI UUEE 270948Z 26011G16MPS 1400 0700NE R24L/1400D R24C/0700N +SN BKN007 OVC023 01/M00 Q0985 R24L/590340 R24C/590340 NOSIG,0,11.0,1,1400,0,0,0,SN
2026-04-27 09:35:00,SPECI UUEE 270935Z 26013G18MPS 1400 0900SW R24L/1400N R24C/1200N +SN BKN007 OVC023 01/M00 Q0984 R24L/590340 R24C/590335 NOSIG,0,13.0,1,1400,0,0,0,SN
2026-04-27 09:33:00,SPECI UUEE 270933Z 26013G18MPS 1500 0750SW R24L/1400N R24C/1300N +SN BKN008 OVC023 01/M00 Q0984 R24L/590340 R24C/590335 NOSIG,0,13.0,1,1500,0,0,0,SN
2026-04-27 09:31:00,SPECI UUEE 270931Z 26013G18MPS 1400 1100SW R24L/1400U R24C/1200N SN BKN008 OVC023 01/M00 Q0984 R24L/590340 R24C/590335 NOSIG,0,13.0,1,1400,0,0,0,SN
2026-04-27 09:30:00,METAR UUEE 270930Z 26013G18MPS 1500 1100SW R24L/1500U R24C/1200N SN BKN007 OVC023 01/M00 Q0984 R24L/590340 R24C/590335 NOSIG,0,13.0,1,1500,0,0,0,SN
2026-04-27 09:01:00,SPECI UUEE 270901Z 26012G18MPS 1400 1300NE R24L/1400D R24C/1300N SN BKN008 OVC023 01/M00 Q0984 R24L/590335 R24C/590335 NOSIG,0,12.0,1,1400,0,0,0,SN
2026-04-27 09:00:00,METAR UUEE 270900Z 26012G18MPS 1600 1400NE R24L/1400D R24C/1400D SN BKN008 OVC023 01/M00 Q0984 R24L/590335 R24C/590335 NOSIG,0,12.0,1,1600,0,0,0,SN
2026-04-27 08:30:00,METAR UUEE 270830Z 26014G19MPS 1600 1300SW R24L/1500U R24C/1500U SN BKN007 OVC023 01/M00 Q0984 R24L/590335 R24C/590335 NOSIG,0,14.0,1,1600,0,0,0,SN
2026-04-27 08:04:00,SPECI UUEE 270804Z 26013G19MPS 1400 1300SW R24L/1700D R24C/1600N SN BKN008 OVC023 01/00 Q0984 R24L/590335 R24C/590335 NOSIG,0,13.0,1,1400,0,0,0,SN
2026-04-27 08:00:00,METAR UUEE 270800Z 26013G19MPS 1700 1400NE R24L/1800D R24C/1700D SN BKN007 OVC023 01/00 Q0983 R24L/590335 R24C/590335 NOSIG,0,13.0,1,1700,0,0,0,SN
2026-04-27 07:45:00,SPECI UUEE 270745Z 27012G17MPS 1600 R24L/1800U R24C/1600N SN BKN008 OVC021 01/M00 Q0983 R24L/590335 R24C/590335 NOSIG,0,12.0,1,1600,0,0,0,SN
2026-04-27 07:30:00,METAR UUEE 270730Z 27012G17MPS 1300 1200NE R24L/1300D R24C/1200N SN BKN007 OVC021 01/M00 Q0983 R24L/590335 R24C/590335 NOSIG,0,12.0,1,1300,0,0,0,SN
2026-04-27 07:25:00,SPECI UUEE 270725Z 28011G16MPS 1400 1300NE R24L/1400N R24C/1300N SN BKN007 OVC021 01/00 Q0983 R24L/590335 R24C/590335 NOSIG,0,11.0,1,1400,0,0,0,SN
2026-04-27 07:14:00,SPECI UUEE 270714Z 28010G15MPS 1500 1400NE R24L/1500D R24C/1400N SN BKN007 OVC021 00/M00 Q0983 R24L/590335 R24C/590335 NOSIG,0,10.0,1,1500,0,0,0,SN
2026-04-27 07:00:00,METAR UUEE 270700Z 28011G17MPS 1300 1200NE R24L/1300N R24C/1200N SN BKN007 OVC021 00/M00 Q0983 R24L/590335 R24C/590335 NOSIG,0,11.0,1,1300,0,0,0,SN
2026-04-27 06:45:00,SPECI UUEE 270645Z 27011G17MPS 1200 1100NE R24L/1100N R24C/1100U SN BKN007 OVC021 00/M00 Q0983 R24L/590335 R24C/590335 NOSIG,0,11.0,1,1200,0,0,0,SN
2026-04-27 06:30:00,METAR UUEE 270630Z 27012G24MPS 1200 1000NE R24L/1200N R24C/1000U SN BKN006 OVC021 00/M00 Q0983 R24L/590335 R24C/590335 NOSIG,0,12.0,1,1200,0,0,0,SN
2026-04-27 06:25:00,SPECI UUEE 270625Z 27012G24MPS 1100 1000NE R24L/1100N R24C/1000D SN BKN007 OVC021 00/M00 Q0983 R24L/590335 R24C/590335 NOSIG,0,12.0,1,1100,0,0,0,SN
2026-04-27 06:00:00,METAR UUEE 270600Z 27011G16MPS 0900 0800NE R24L/0900N R24C/0900U +SN VV006 00/M01 Q0983 R24L/590340 R24C/590340 NOSIG,0,11.0,1,1448100,0,0,0,SN
2026-04-27 05:58:00,SPECI UUEE 270558Z 27011G16MPS 0900 0800NW R24L/0900N R24C/0800N +SN VV006 00/M01 Q0983 R24L/590340 R24C/590340 NOSIG,0,11.0,1,1448100,0,0,0,SN
2026-04-27 05:45:00,SPECI UUEE 270545Z 27010G15MPS 0800 0750NE R24L/0800N R24C/0750N +SN VV005 M00/M01 Q0983 R24L/590340 R24C/590340 NOSIG,0,10.0,1,1287200,0,0,0,SN
2026-04-27 05:30:00,METAR UUEE 270530Z 27011G17MPS 0800 0700SW R24L/0800N R24C/0800N +SN VV005 M00/M01 Q0983 R24L/590340 R24C/590340 NOSIG,0,11.0,1,1287200,0,0,0,SN
2026-04-27 05:29:00,SPECI UUEE 270529Z 27011G17MPS 0800 0700SW R24L/0800N R24C/0800N +SN VV005 M00/M01 Q0983 R24L/590340 R24C/590340 NOSIG,0,11.0,1,1287200,0,0,0,SN
2026-04-27 05:02:00,SPECI UUEE 270502Z 27011G17MPS 0700 0650NE R24L/0700N R24C/0650N +SN VV005 M00/M01 Q0983 R24L/590240 R24C/590240 NOSIG,0,11.0,1,1126300,0,0,0,SN
2026-04-27 05:01:00,SPECI UUEE 270501Z 27010G17MPS 0700 0650SW R24L/0800N R24C/0750N +SN VV005 M00/M01 Q0983 R24L/590240 R24C/590240 NOSIG,0,10.0,1,1126300,0,0,0,SN
2026-04-27 05:00:00,METAR UUEE 270500Z 27010G17MPS 0700 0650SW R24L/0800N R24C/0800N +SN VV005 M00/M01 Q0983 R24L/590240 R24C/590240 NOSIG,0,10.0,1,1126300,0,0,0,SN
2026-04-27 04:52:00,SPECI UUEE 270452Z 28008G13MPS 0700 R24L/0700N R24C/0700N +SN VV005 M00/M01 Q0983 R24L/590240 R24C/590240 NOSIG,0,8.0,1,1126300,0,0,0,SN
2026-04-27 04:51:00,SPECI UUEE 270451Z 28008G13MPS 0750 0700NW R24L/0800N R24C/0700N +SN VV005 M00/M01 Q0983 R24L/590240 R24C/590240 NOSIG,0,8.0,1,1206750,0,0,0,SN
2026-04-27 04:46:00,SPECI UUEE 270446Z 29009G14MPS 0750 0700NW R24L/0800N R24C/0800N +SN VV004 M00/M01 Q0984 R24L/590240 R24C/590240 NOSIG,0,9.0,1,1206750,0,0,0,SN
2026-04-27 04:45:00,SPECI UUEE 270445Z 28009G14MPS 0800 0700NW R24L/0800N R24C/0800N +SN VV004 M00/M01 Q0984 R24L/590240 R24C/590240 NOSIG,0,9.0,1,1287200,0,0,0,SN
2026-04-27 04:32:00,SPECI UUEE 270432Z 28008G13MPS 0750 R24L/0750N R24C/0750N +SN VV005 M00/M01 Q0984 R24L/590240 R24C/590240 NOSIG,0,8.0,1,1206750,0,0,0,SN
2026-04-27 04:31:00,SPECI UUEE 270431Z 28008G13MPS 250V310 0800 0750NW R24L/0750N R24C/0750N +SN VV005 M00/M01 Q0984 R24L/590240 R24C/590240 NOSIG,0,8.0,1,1287200,0,0,0,SN
2026-04-27 04:30:00,METAR UUEE 270430Z 28008G13MPS 250V310 0800 0750NW R24L/0800N R24C/0750N +SN VV005 M00/M01 Q0984 R24L/590240 R24C/590240 NOSIG,0,8.0,1,1287200,0,0,0,SN
2026-04-27 04:28:00,SPECI UUEE 270428Z 28009G14MPS 250V310 0800 0750NW R24L/0800N R24C/0750N +SN VV004 M00/M01 Q0984 R24L/590240 R24C/590240 NOSIG,0,9.0,1,1287200,0,0,0,SN
2026-04-27 04:27:00,SPECI UUEE 270427Z 28009G14MPS 250V310 0800 0750NW R24L/0750N R24C/0750N +SN VV005 M00/M01 Q0984 R24L/590240 R24C/590240 NOSIG,0,9.0,1,1287200,0,0,0,SN
2026-04-27 04:26:00,SPECI UUEE 270426Z 28009G14MPS 250V310 0750 R24L/0800N R24C/0750N +SN VV005 M00/M01 Q0984 R24L/590240 R24C/590240 NOSIG,0,9.0,1,1206750,0,0,0,SN
2026-04-27 04:25:00,SPECI UUEE 270425Z 28009G14MPS 250V310 0800 0750NW R24L/0800N R24C/0750N +SN VV005 M00/M01 Q0984 R24L/590240 R24C/590240 NOSIG,0,9.0,1,1287200,0,0,0,SN
2026-04-27 04:13:00,SPECI UUEE 270413Z 28008G13MPS 0900 0700NE R24L/0700N R24C/0750N +SN VV004 M00/M01 Q0984 R24L/590240 R24C/590240 NOSIG,0,8.0,1,1448100,0,0,0,SN
2026-04-27 04:12:00,SPECI UUEE 270412Z 28008G13MPS 0900 0750NE R24L/0750D R24C/0800N +SN VV004 M00/M01 Q0984 R24L/590240 R24C/590240 NOSIG,0,8.0,1,1448100,0,0,0,SN
2026-04-27 04:08:00,SPECI UUEE 270408Z 28007G13MPS 0900 0750NE R24L/0750N R24C/0800N +SN VV005 M00/M01 Q0984 R24L/590240 R24C/590240 NOSIG,0,7.0,1,1448100,0,0,0,SN
2026-04-27 04:00:00,METAR UUEE 270400Z 29009G14MPS 0900 0800NE R24L/0800N R24C/0800N +SN VV005 M00/M01 Q0984 R24L/590240 R24C/590240 NOSIG,0,9.0,1,1448100,0,0,0,SN
2026-04-27 03:42:00,SPECI UUEE 270342Z 27010G15MPS 0900 R24L/0900N R24C/0900N +SN VV005 M00/M01 Q0984 R24L/590240 R24C/590240 NOSIG,0,10.0,1,1448100,0,0,0,SN
2026-04-27 03:30:00,METAR UUEE 270330Z 27010MPS 0900 0800SW R24L/0900N R24C/0900N +SN VV006 M00/M01 Q0984 R24L/590240 R24C/590240 NOSIG,0,10.0,0,1448100,0,0,0,SN
2026-04-27 03:16:00,SPECI UUEE 270316Z 28009G14MPS 0900 0800NE R24L/0900N R24C/0800N +SN VV005 M01/M01 Q0985 R24L/590240 R24C/590240 NOSIG,0,9.0,1,1448100,0,0,0,SN
2026-04-27 03:11:00,SPECI UUEE 270311Z 27009MPS 0900 0800NE R24L/0800N R24C/0800N +SN VV006 M01/M01 Q0985 R24L/590240 R24C/590240 NOSIG,0,9.0,0,1448100,0,0,0,SN
2026-04-27 03:00:00,METAR UUEE 270300Z 28010MPS 0800 0700NE R24L/0700N R24C/0700N +SN VV005 M00/M01 Q0985 R24L/590240 R24C/590240 NOSIG,0,10.0,0,1287200,0,0,0,SN
2026-04-27 02:56:00,SPECI UUEE 270256Z 28009G14MPS 0800 0650NE R24L/0700N R24C/0650N +SN VV004 M01/M01 Q0985 R24L/590240 R24C/590240 NOSIG,0,9.0,1,1287200,0,0,0,SN
2026-04-27 02:32:00,SPECI UUEE 270232Z 28009MPS 0750 0700SW R24L/0750N R24C/0750N +SN VV004 M00/M01 Q0985 R24L/590240 R24C/590240 NOSIG,0,9.0,0,1206750,0,0,0,SN
2026-04-27 02:30:00,METAR UUEE 270230Z 28009MPS 0800 0700SW R24L/0750N R24C/0750N +SN VV004 M00/M01 Q0985 R24L/590240 R24C/590240 NOSIG,0,9.0,0,1287200,0,0,0,SN
2026-04-27 02:17:00,SPECI UUEE 270217Z 29008G13MPS 0750 0700NW R24L/0750N R24C/0750N +SN VV004 M00/M01 Q0985 R24L/590240 R24C/590240 NOSIG,0,8.0,1,1206750,0,0,0,SN
2026-04-27 02:12:00,SPECI UUEE 270212Z 28009MPS 0750 R24L/0900N R24C/0750D +SN VV004 M00/M01 Q0985 R24L/590240 R24C/590240 NOSIG,0,9.0,0,1206750,0,0,0,SN
2026-04-27 02:08:00,SPECI UUEE 270208Z 29006G11MPS 260V320 0750 0700NW R24L/0900N R24C/0900N +SN VV005 M00/M01 Q0985 R24L/590240 R24C/590240 NOSIG,0,6.0,1,1206750,0,0,0,SN
2026-04-27 02:04:00,SPECI UUEE 270204Z 29008G13MPS 0800 0750NW R24L/1000N R24C/0900N +SN VV004 M00/M01 Q0985 R24L/590240 R24C/590240 NOSIG,0,8.0,1,1287200,0,0,0,SN
2026-04-27 02:00:00,METAR UUEE 270200Z 29006G11MPS 0900 0800NW R24L/1000N R24C/1000D +SN VV005 M00/M01 Q0985 R24L/590240 R24C/590240 NOSIG,0,6.0,1,1448100,0,0,0,SN
2026-04-27 01:30:00,METAR UUEE 270130Z 28008MPS 1100 0900NE R24L/1000N R24C/1000N +SN OVC005 M00/M01 Q0986 R24L/590240 R24C/590240 NOSIG,0,8.0,0,1100,0,0,0,SN
2026-04-27 01:15:00,SPECI UUEE 270115Z 28008G13MPS 1100 0900NE R24L/1700D R24C/1700D +SN OVC005 M00/M01 Q0986 R24L/590240 R24C/590240 NOSIG,0,8.0,1,1100,0,0,0,SN
2026-04-27 01:12:00,SPECI UUEE 270112Z 29008MPS 1100 0900NE R24L/1900N R24C/1900N +SN OVC005 M00/M01 Q0986 R24L/590240 R24C/590240 NOSIG,0,8.0,0,1100,0,0,0,SN
2026-04-27 01:00:00,METAR UUEE 270100Z 28009MPS 1200 1100NE R24L/1900N R24C/1900N SN OVC005 M00/M01 Q0987 R24L/590240 R24C/590240 NOSIG,0,9.0,0,1200,0,0,0,SN
2026-04-27 00:30:00,METAR UUEE 270030Z 30007G12MPS 0900 0800NW R24L/2000N R24C/2000N +SN VV005 M00/M01 Q0987 R24L/590240 R24C/590240 NOSIG,0,7.0,1,1448100,0,0,0,SN
2026-04-27 00:26:00,SPECI UUEE 270026Z 30007G12MPS 0900 0750NW R24L/P2000D R24C/P2000D +SN VV004 M00/M01 Q0987 R24L/590240 R24C/290145 NOSIG,0,7.0,1,1448100,0,0,0,SN
2026-04-27 00:19:00,SPECI UUEE 270019Z 28008MPS 1000 0900SW R24L/P2000U R24C/P2000U +SN OVC005 M00/M01 Q0987 R24L/590240 R24C/290145 NOSIG,0,8.0,0,1000,0,0,0,SN
2026-04-27 00:11:00,SPECI UUEE 270011Z 29008MPS 1200 1100NW R24L/P2000N R24C/2000N SN BKN005 OVC014 M00/M01 Q0987 R24L/590240 R24C/290145 NOSIG,0,8.0,0,1200,0,0,0,SN
2026-04-27 00:00:00,METAR UUEE 270000Z 30006G11MPS 1400 1300NE R24L/P2000N R24C/P2000N SN BKN005 OVC014 M00/M01 Q0987 R24L/290145 R24C/290145 NOSIG,0,6.0,1,1400,0,0,0,SN
2026-04-26 23:30:00,METAR UUEE 262330Z 29007MPS 1200 1100NW R24L/P2000N R24C/2000N SN BKN005 OVC022 M00/M01 Q0988 R24L/290145 R24C/290145 NOSIG,0,7.0,0,1200,0,0,0,SN
2026-04-26 23:00:00,METAR UUEE 262300Z 30007MPS 1200 1100NW R24L/P2000D R24C/2000D SN SCT005 OVC015 M00/M01 Q0988 R24L/290145 R24C/290145 NOSIG,0,7.0,0,1200,0,0,0,SN
2026-04-26 22:30:00,METAR UUEE 262230Z 30007G12MPS 270V330 1400 1100NE R24L/P2000U R24C/2000U SN SCT006 OVC015 00/M01 Q0989 R24L/290145 R24C/290145 NOSIG,0,7.0,1,1400,0,0,0,SN
2026-04-26 22:19:00,SPECI UUEE 262219Z 29008G14MPS 1400 1300NE R24L/P2000D R24C/P2000D SN SCT006 OVC015 00/M01 Q0989 R24L/290145 R24C/290145 NOSIG,0,8.0,1,1400,0,0,0,SN
2026-04-26 22:10:00,SPECI UUEE 262210Z 29008G14MPS 1700 1400NE R24L/P2000N R24C/P2000N SN SCT006 OVC015 00/M01 Q0989 R24L/290145 R24C/290145 NOSIG,0,8.0,1,1700,0,0,0,SN
2026-04-26 22:00:00,METAR UUEE 262200Z 29007MPS 1900 1400NE R24L/P2000N R24C/P2000N SN SCT005 OVC014 00/M01 Q0989 R24L/290145 R24C/290145 NOSIG,0,7.0,0,1900,0,0,0,SN
2026-04-26 21:52:00,SPECI UUEE 262152Z 30007MPS 2000 R24L/P2000D R24C/P2000N SN SCT005 OVC014 00/M01 Q0989 R24L/290145 R24C/290145 TEMPO 1000 SN,0,7.0,0,2000,0,0,0,SN
2026-04-26 21:51:00,SPECI UUEE 262151Z 30007MPS 2100 R24L/P2000D R24C/P2000N -SN SCT005 OVC014 00/M01 Q0989 R24L/290145 R24C/290145 TEMPO 1000 SN,0,7.0,0,2100,0,0,0,SN
2026-04-26 21:46:00,SPECI UUEE 262146Z 31006G11MPS 2500 1300NE R24C/P2000N SN SCT006 OVC017 00/M01 Q0989 R24L/290145 R24C/290145 TEMPO 1000 SN,0,6.0,1,2500,0,0,0,SN
2026-04-26 21:37:00,SPECI UUEE 262137Z 29007MPS 270V330 2400 R24C/P2000U -SN SCT007 OVC014 00/M01 Q0989 R24L/290145 R24C/290145 TEMPO 1000 SN,0,7.0,0,2400,0,0,0,SN
2026-04-26 21:30:00,METAR UUEE 262130Z 30007MPS 1800 1300NE R24L/P2000D R24C/P2000D SN SCT006 OVC015 01/M00 Q0989 R24L/290145 R24C/290145 TEMPO 1000 SN,0,7.0,0,1800,0,0,0,SN
2026-04-26 21:15:00,SPECI UUEE 262115Z 31006MPS 2000 SN SCT006 OVC015 01/M01 Q0989 R24L/290145 R24C/290145 TEMPO 1000 SN,0,6.0,0,2000,0,0,0,SN
2026-04-26 21:08:00,SPECI UUEE 262108Z 31005G10MPS 280V340 6000 1800SW SN SCT007 OVC015 01/M00 Q0990 R24L/290145 R24C/290145 TEMPO 1000 SN,0,5.0,1,6000,0,0,0,SN
2026-04-26 21:00:00,METAR UUEE 262100Z 30007MPS 4800 2200SW -SN SCT006 OVC017 01/M01 Q0990 R24L/290145 R24C/290145 TEMPO 1000 SN,0,7.0,0,4800,0,0,0,SN
2026-04-26 20:59:00,SPECI UUEE 262059Z 30007MPS 4400 2000SW SN SCT006 OVC017 01/M01 Q0990 R24L/290145 R24C/290145 TEMPO 1000 SHRASN BKN016CB,0,7.0,0,4400,0,0,0,"SH,SN"
2026-04-26 20:57:00,SPECI UUEE 262057Z 30007MPS 5000 1800SW SN SCT007 OVC017 01/M00 Q0990 R24L/290145 R24C/290145 TEMPO 1000 SHRASN BKN016CB,0,7.0,0,5000,0,0,0,"SH,SN"
2026-04-26 20:56:00,SPECI UUEE 262056Z 30007MPS 2900 -SN SCT006 OVC017 01/M00 Q0990 R24L/290145 R24C/290145 TEMPO 1000 SHRASN BKN016CB,0,7.0,0,2900,0,0,0,"SH,SN"
2026-04-26 20:54:00,SPECI UUEE 262054Z 30007G12MPS 4500 1900SW SN SCT006 OVC017 01/M01 Q0990 R24L/290145 R24C/290145 TEMPO 1000 SHRASN BKN016CB,0,7.0,1,4500,0,0,0,"SH,SN"
2026-04-26 20:45:00,SPECI UUEE 262045Z 30007MPS 7000 2000NW SN SCT007 OVC016 01/M00 Q0990 R24L/290145 R24C/290145 TEMPO 1000 SHRASN BKN016CB,0,7.0,0,7000,0,0,0,"SH,SN"
2026-04-26 20:30:00,METAR UUEE 262030Z 31007G14MPS 9000 3900NW -RASN SCT006 OVC016 01/M00 Q0990 RERASN R24L/290145 R24C/290145 TEMPO 1000 SHRASN BKN016CB,0,7.0,1,9000,0,0,0,"-RA,SH,SN"
2026-04-26 20:22:00,SPECI UUEE 262022Z 30008G14MPS 230V330 9000 -RASN SCT007 OVC015 01/00 Q0990 R24L/290145 R24C/290145 TEMPO 1000 SHRASN BKN016CB,0,8.0,1,9000,0,0,0,"-RA,SH,SN"
2026-04-26 20:00:00,METAR UUEE 262000Z 30007MPS 9000 -SN SCT005 OVC015 01/M00 Q0991 R24L/290145 R24C/290145 TEMPO 1000 SHRASN BKN016CB,0,7.0,0,9000,0,0,0,"SH,SN"
2026-04-26 19:30:00,METAR UUEE 261930Z 30007MPS 9000 -RASN SCT006 OVC028 02/00 Q0991 R24L/290145 R24C/290145 TEMPO 1000 SHRASN BKN016CB,0,7.0,0,9000,0,0,0,"-RA,SH,SN"
2026-04-26 19:15:00,SPECI UUEE 261915Z 30007MPS 9000 -RA SCT006 OVC028 02/00 Q0991 R24L/290145 R24C/290145 NOSIG,0,7.0,0,9000,0,0,0,-RA
2026-04-26 19:00:00,METAR UUEE 261900Z 29007MPS 9999 -RA OVC010 03/00 Q0991 R24L/290145 R24C/290145 NOSIG,0,7.0,0,10000,0,0,0,-RA
2026-04-26 18:30:00,METAR UUEE 261830Z 29007MPS 260V320 9999 -RA OVC036 03/M00 Q0991 R24L/290145 R24C/290145 NOSIG,0,7.0,0,10000,0,0,0,-RA
2026-04-26 18:00:00,METAR UUEE 261800Z 31007MPS 280V340 CAVOK 04/01 Q0991 R24L/290145 R24C/290145 NOSIG,1,0.0,0,9999,0,0,0,
2026-04-26 17:30:00,METAR UUEE 261730Z 31004G11MPS 250V340 9999 -RA OVC037 04/02 Q0992 R24L/290145 R24C/290145 NOSIG,0,4.0,1,10000,0,0,0,-RA
2026-04-26 17:00:00,METAR UUEE 261700Z 32005MPS 9999 -RA OVC035 04/02 Q0992 R24L/290145 R24C/290145 NOSIG,0,5.0,0,10000,0,0,0,-RA
2026-04-26 16:30:00,METAR UUEE 261630Z 32004MPS 9999 -RA OVC021 05/03 Q0992 R24L/290145 R24C/290145 NOSIG,0,4.0,0,10000,0,0,0,-RA
2026-04-26 16:00:00,METAR UUEE 261600Z 32005MPS 9999 -RA OVC017 05/03 Q0992 R24L/290145 R24C/290145 NOSIG,0,5.0,0,10000,0,0,0,-RA
2026-04-26 15:30:00,METAR UUEE 261530Z 31007MPS 9999 -RA OVC015 05/03 Q0992 R24L/290145 R24C/290145 NOSIG,0,7.0,0,10000,0,0,0,-RA
2026-04-26 15:00:00,METAR UUEE 261500Z 32005G10MPS 210V360 9999 -RA OVC021 06/04 Q0992 R24L/290145 R24C/290145 NOSIG,0,5.0,1,10000,0,0,0,-RA
2026-04-26 14:30:00,METAR UUEE 261430Z 31006MPS 9000 -RA OVC024 07/04 Q0992 R24L/290145 R24C/290145 NOSIG,0,6.0,0,9000,0,0,0,-RA
2026-04-26 14:00:00,METAR UUEE 261400Z 34003MPS 310V010 9999 -RA OVC024 08/05 Q0992 R24L/290145 R24C/290145 NOSIG,0,3.0,0,10000,0,0,0,-RA
2026-04-26 13:30:00,METAR UUEE 261330Z 34002MPS 290V020 9999 -RA FEW031 08/05 Q0992 R24L/290145 R24C/290145 NOSIG,0,2.0,0,10000,0,0,0,-RA
2026-04-26 13:00:00,METAR UUEE 261300Z 34003G09MPS 300V010 9999 SCT019 08/05 Q0992 R24L/290145 R24C/290145 NOSIG,0,3.0,1,10000,0,0,0,
2026-04-26 12:30:00,METAR UUEE 261230Z 32002MPS 230V020 9999 SCT025 08/05 Q0992 R24L/290145 R24C/290145 NOSIG,0,2.0,0,10000,0,0,0,
2026-04-26 12:00:00,METAR UUEE 261200Z 29003MPS CAVOK 07/04 Q0992 R24L/290145 R24C/290145 NOSIG,1,0.0,0,9999,0,0,0,
2026-04-26 11:30:00,METAR UUEE 261130Z 29004MPS 260V320 CAVOK 08/05 Q0992 R24L/290145 R24C/290145 NOSIG,1,0.0,0,9999,0,0,0,
2026-04-26 11:00:00,METAR UUEE 261100Z 27003MPS 230V340 9999 SCT046 07/04 Q0992 R24L/290145 R24C/290145 NOSIG,0,3.0,0,10000,0,0,0,
2026-04-26 10:30:00,METAR UUEE 261030Z 29006G12MPS 250V320 9000 -SHRA SCT016CB 08/04 Q0993 R24L/290145 R24C/290145 NOSIG,0,6.0,1,9000,0,0,0,RA
2026-04-26 10:00:00,METAR UUEE 261000Z 25005MPS 9999 SCT011 09/05 Q0992 R24L/290145 R24C/290145 NOSIG,0,5.0,0,10000,0,0,0,
2026-04-26 09:30:00,METAR UUEE 260930Z 24006MPS 9999 SCT011 08/04 Q0992 R24L/290145 R24C/290145 NOSIG,0,6.0,0,10000,0,0,0,
2026-04-26 09:13:00,SPECI UUEE 260913Z 25006MPS 9999 SCT026 09/06 Q0992 R24L/290145 R24C/290145 NOSIG,0,6.0,0,10000,0,0,0,
2026-04-26 09:00:00,METAR UUEE 260900Z 25008MPS 7000 -SHRA BKN016CB 07/05 Q0992 RESHRA R24L/290145 R24C/290145 TEMPO 1200 SHRA BKN016CB,0,8.0,0,7000,0,0,0,"RA,SH"
2026-04-26 08:53:00,SPECI UUEE 260853Z 25008MPS 7000 -SHRA BKN013CB 06/04 Q0993 R24L/290145 R24C/290145 TEMPO 1200 SHRA BKN016CB,0,8.0,0,7000,0,0,0,"RA,SH"
2026-04-26 08:30:00,METAR UUEE 260830Z 25008G14MPS 210V300 9999 2400NW -SHRA BKN016CB 09/05 Q0992 RESHRA R24L/290145 R24C/290145 NOSIG,0,8.0,1,10000,0,0,0,RA
2026-04-26 08:27:00,SPECI UUEE 260827Z 21008G13MPS 9999 -SHRA BKN020CB 09/05 Q0992 R24L/290145 R24C/290145 NOSIG,0,8.0,1,10000,0,0,0,RA
2026-04-26 08:00:00,METAR UUEE 260800Z 21007MPS 9999 BKN016 09/06 Q0992 R24L/290145 R24C/290145 NOSIG,0,7.0,0,10000,0,0,0,
2026-04-26 07:38:00,SPECI UUEE 260738Z 22007MPS 9999 BKN014 09/05 Q0991 R24L/290145 R24C/290145 NOSIG,0,7.0,0,10000,0,0,0,
2026-04-26 07:30:00,METAR UUEE 260730Z 19007MPS 9999 SCT013 09/06 Q0991 R24L/290145 R24C/290145 NOSIG,0,7.0,0,10000,0,0,0,
2026-04-26 07:29:00,SPECI UUEE 260729Z 19007MPS 9999 SCT013 09/06 Q0991 R24L/290145 R24C/290145 NOSIG,0,7.0,0,10000,0,0,0,
2026-04-26 07:18:00,SPECI UUEE 260718Z 19006MPS 9999 BKN011 08/06 Q0992 R24L/290145 R24C/290145 NOSIG,0,6.0,0,10000,0,0,0,
2026-04-26 07:00:00,METAR UUEE 260700Z 21005MPS 180V240 9999 -SHRA SCT008 BKN020CB 08/06 Q0992 R24L/290145 R24C/290145 NOSIG,0,5.0,0,10000,0,0,0,RA
2026-04-26 06:47:00,SPECI UUEE 260647Z 21005MPS 9999 BKN011 OVC031 08/06 Q0992 R24L/290145 R24C/290145 NOSIG,0,5.0,0,10000,0,0,0,
2026-04-26 06:30:00,METAR UUEE 260630Z 19005MPS 9999 SCT009 BKN021 08/06 Q0992 R24L/290145 R24C/290145 NOSIG,0,5.0,0,10000,0,0,0,
2026-04-26 06:16:00,SPECI UUEE 260616Z 19005MPS 9999 BKN009 OVC021 07/06 Q0992 R24L/290145 R24C/290145 NOSIG,0,5.0,0,10000,0,0,0,
2026-04-26 06:00:00,METAR UUEE 260600Z 21005MPS 9999 SCT007 BKN021 07/06 Q0992 R24L/290145 R24C/290145 NOSIG,0,5.0,0,10000,0,0,0,
2026-04-26 05:46:00,SPECI UUEE 260546Z 21005MPS 9999 SCT009 BKN023 07/06 Q0992 R24L/290145 R24C/290145 NOSIG,0,5.0,0,10000,0,0,0,
2026-04-26 05:30:00,METAR UUEE 260530Z 20006MPS 9999 BKN008 07/06 Q0992 R24L/290145 R24C/290145 NOSIG,0,6.0,0,10000,0,0,0,
2026-04-26 05:05:00,SPECI UUEE 260505Z 20005MPS 9000 -RA OVC014 07/05 Q0992 R24L/290145 R24C/290145 NOSIG,0,5.0,0,9000,0,0,0,-RA
2026-04-26 05:00:00,METAR UUEE 260500Z 20005MPS 9000 -RA SCT007 OVC046 07/05 Q0992 R24L/290145 R24C/290145 NOSIG,0,5.0,0,9000,0,0,0,-RA
2026-04-26 04:30:00,METAR UUEE 260430Z 19006MPS 9000 -RA BKN008 OVC023 07/05 Q0992 R24L/290145 R24C/290145 NOSIG,0,6.0,0,9000,0,0,0,-RA
2026-04-26 04:00:00,METAR UUEE 260400Z 17006MPS 9000 -RA BKN007 OVC026 07/05 Q0992 R24L/290145 R24C/290145 NOSIG,0,6.0,0,9000,0,0,0,-RA
2026-04-26 03:58:00,SPECI UUEE 260358Z 17006MPS 9000 -RA BKN008 OVC026 07/05 Q0992 R24L/290145 R24C/290145 NOSIG,0,6.0,0,9000,0,0,0,-RA
2026-04-26 03:30:00,METAR UUEE 260330Z 18005MPS 9000 -RA SCT011 OVC030 07/05 Q0992 R24L/290145 R24C/290145 NOSIG,0,5.0,0,9000,0,0,0,-RA
2026-04-26 03:00:00,METAR UUEE 260300Z 19005MPS 160V220 9999 -RA BKN015 07/05 Q0993 R24L/290145 R24C/290145 NOSIG,0,5.0,0,10000,0,0,0,-RA
2026-04-26 02:30:00,METAR UUEE 260230Z 19005MPS 9999 SCT023 07/04 Q0993 R24L/290145 R24C/290145 NOSIG,0,5.0,0,10000,0,0,0,
2026-04-26 02:00:00,METAR UUEE 260200Z 17005MPS CAVOK 07/04 Q0993 R24L/290145 R24C/290145 NOSIG,1,0.0,0,9999,0,0,0,
2026-04-26 01:30:00,METAR UUEE 260130Z 18005MPS CAVOK 07/04 Q0993 R24L/290145 R24C/290145 NOSIG,1,0.0,0,9999,0,0,0,
2026-04-26 01:00:00,METAR UUEE 260100Z 18005MPS 9999 -RA BKN040 07/04 Q0993 R24L/290145 R24C/290145 NOSIG,0,5.0,0,10000,0,0,0,-RA
2026-04-26 00:30:00,METAR UUEE 260030Z 18005MPS 9999 -RA BKN038 07/04 Q0994 R24L/290145 R24C/290145 NOSIG,0,5.0,0,10000,0,0,0,-RA
2026-04-26 00:00:00,METAR UUEE 260000Z 19006MPS 9999 -SN BKN018 08/03 Q0994 R24L/290145 R24C/290145 NOSIG,0,6.0,0,10000,0,0,0,SN
2026-04-25 23:30:00,METAR UUEE 252330Z 19005MPS CAVOK 08/03 Q0995 R24L/290145 R24C/290145 NOSIG,1,0.0,0,9999,0,0,0,
2026-04-25 23:00:00,METAR UUEE 252300Z 18005MPS CAVOK 08/02 Q0995 R24L/290145 R24C/290145 NOSIG,1,0.0,0,9999,0,0,0,
2026-04-25 22:30:00,METAR UUEE 252230Z 17005MPS CAVOK 08/02 Q0995 R24L/290145 R24C/290145 NOSIG,1,0.0,0,9999,0,0,0,
2026-04-25 22:00:00,METAR UUEE 252200Z 18004MPS CAVOK 08/03 Q0996 R24L/290145 R24C/290145 NOSIG,1,0.0,0,9999,0,0,0,
2026-04-25 21:30:00,METAR UUEE 252130Z 18005MPS CAVOK 08/03 Q0996 R24L/290145 R24C/290145 NOSIG,1,0.0,0,9999,0,0,0,
2026-04-25 21:00:00,METAR UUEE 252100Z 17003MPS 9999 -RA BKN039 07/03 Q0997 R24L/290145 R24C/290145 NOSIG,0,3.0,0,10000,0,0,0,-RA
2026-04-25 20:30:00,METAR UUEE 252030Z 19004MPS 160V220 9000 -RA OVC018 08/02 Q0997 R24L/290145 R24C/290145 NOSIG,0,4.0,0,9000,0,0,0,-RA
2026-04-25 20:00:00,METAR UUEE 252000Z 16004MPS 9999 -RA SCT039 08/M03 Q0998 R24L/CLRD62 R24C/CLRD62 NOSIG,0,4.0,0,10000,0,0,0,-RA
2026-04-25 19:30:00,METAR UUEE 251930Z 16003MPS CAVOK 08/M03 Q0998 R24L/CLRD62 R24C/CLRD62 NOSIG,1,0.0,0,9999,0,0,0,
2026-04-25 19:00:00,METAR UUEE 251900Z 10003MPS 070V130 CAVOK 08/M04 Q0999 R24L/CLRD62 R24C/CLRD62 NOSIG,1,0.0,0,9999,0,0,0,
2026-04-25 18:30:00,METAR UUEE 251830Z 15003MPS CAVOK 07/M04 Q0999 R24L/CLRD62 R24C/CLRD62 NOSIG,1,0.0,0,9999,0,0,0,
2026-04-25 18:00:00,METAR UUEE 251800Z 15003MPS CAVOK 09/M05 Q0999 R24L/CLRD62 R24C/CLRD62 NOSIG,1,0.0,0,9999,0,0,0,
2026-04-25 17:30:00,METAR UUEE 251730Z 14003MPS CAVOK 09/M05 Q0999 R24L/CLRD62 R24C/CLRD62 NOSIG,1,0.0,0,9999,0,0,0,
2026-04-25 17:00:00,METAR UUEE 251700Z 14003MPS CAVOK 09/M05 Q1000 R88/CLRD62 NOSIG,1,0.0,0,9999,0,0,0,
2026-04-25 16:30:00,METAR UUEE 251630Z 16002MPS CAVOK 09/M05 Q1000 R88/CLRD62 NOSIG,1,0.0,0,9999,0,0,0,
2026-04-25 16:00:00,METAR UUEE 251600Z 20003MPS 160V240 CAVOK 09/M06 Q1000 R88/CLRD62 NOSIG,1,0.0,0,9999,0,0,0,
2026-04-25 15:30:00,METAR UUEE 251530Z 22003MPS 180V260 CAVOK 09/M05 Q1000 R88/CLRD62 NOSIG,1,0.0,0,9999,0,0,0,
2026-04-25 15:00:00,METAR UUEE 251500Z 21003MPS 140V260 CAVOK 09/M05 Q1000 R88/CLRD62 NOSIG,1,0.0,0,9999,0,0,0,
2026-04-25 14:30:00,METAR UUEE 251430Z 26003MPS 230V290 CAVOK 09/M07 Q1000 R88/CLRD62 NOSIG,1,0.0,0,9999,0,0,0,
2026-04-25 14:00:00,METAR UUEE 251400Z 27005MPS 240V300 CAVOK 09/M07 Q1000 R88/CLRD62 NOSIG,1,0.0,0,9999,0,0,0,
2026-04-25 13:30:00,METAR UUEE 251330Z 26004MPS 240V300 CAVOK 09/M06 Q1001 R88/CLRD62 NOSIG,1,0.0,0,9999,0,0,0,
2026-04-25 13:00:00,METAR UUEE 251300Z 25006MPS 230V290 CAVOK 09/M07 Q1001 R88/CLRD62 NOSIG,1,0.0,0,9999,0,0,0,
2026-04-25 12:30:00,METAR UUEE 251230Z 27003G08MPS CAVOK 09/M08 Q1001 R88/CLRD62 NOSIG,1,0.0,0,9999,0,0,0,
2026-04-25 12:00:00,METAR UUEE 251200Z 26005MPS 220V290 CAVOK 08/M08 Q1001 R88/CLRD62 NOSIG,1,0.0,0,9999,0,0,0,
2026-04-25 11:30:00,METAR UUEE 251130Z 27003G08MPS CAVOK 08/M09 Q1001 R88/CLRD62 NOSIG,1,0.0,0,9999,0,0,0,
2026-04-25 11:00:00,METAR UUEE 251100Z 28004MPS CAVOK 08/M08 Q1002 R88/CLRD62 NOSIG,1,0.0,0,9999,0,0,0,
2026-04-25 10:30:00,METAR UUEE 251030Z 30004G09MPS 240V360 CAVOK 07/M08 Q1002 R88/CLRD62 NOSIG,1,0.0,0,9999,0,0,0,
2026-04-25 10:00:00,METAR UUEE 251000Z 27004G09MPS 230V340 CAVOK 07/M09 Q1002 R88/CLRD62 NOSIG,1,0.0,0,9999,0,0,0,
2026-04-25 09:30:00,METAR UUEE 250930Z 27004G09MPS CAVOK 07/M08 Q1002 R88/CLRD62 NOSIG,1,0.0,0,9999,0,0,0,
2026-04-25 09:00:00,METAR UUEE 250900Z 32004G10MPS CAVOK 06/M10 Q1002 R88/CLRD62 NOSIG,1,0.0,0,9999,0,0,0,
2026-04-25 08:30:00,METAR UUEE 250830Z 31005MPS 260V020 CAVOK 06/M09 Q1002 R88/CLRD62 NOSIG,1,0.0,0,9999,0,0,0,
2026-04-25 08:00:00,METAR UUEE 250800Z 31005G10MPS 280V350 CAVOK 06/M09 Q1001 R24L/CLRD62 R24C/CLRD62 NOSIG,1,0.0,0,9999,0,0,0,
2026-04-25 07:30:00,METAR UUEE 250730Z 32006MPS 280V030 CAVOK 04/M10 Q1001 R24L/CLRD62 R24C/CLRD62 NOSIG,1,0.0,0,9999,0,0,0,
2026-04-25 07:00:00,METAR UUEE 250700Z 34005MPS 280V020 CAVOK 04/M09 Q1001 R24L/CLRD62 R24C/CLRD62 NOSIG,1,0.0,0,9999,0,0,0,
2026-04-25 06:30:00,METAR UUEE 250630Z 33006G11MPS 290V020 CAVOK 04/M10 Q1001 R24L/CLRD62 R24C/CLRD62 NOSIG,1,0.0,0,9999,0,0,0,
2026-04-25 06:00:00,METAR UUEE 250600Z 33006MPS CAVOK 04/M09 Q1001 R24L/CLRD62 R24C/CLRD62 NOSIG,1,0.0,0,9999,0,0,0,
2026-04-25 05:30:00,METAR UUEE 250530Z 33006MPS 290V360 CAVOK 03/M09 Q1001 R24L/CLRD62 R24C/CLRD62 NOSIG,1,0.0,0,9999,0,0,0,
2026-04-25 05:00:00,METAR UUEE 250500Z 34006MPS CAVOK 02/M07 Q1001 R24L/CLRD62 R24C/CLRD62 NOSIG,1,0.0,0,9999,0,0,0,
2026-04-25 04:30:00,METAR UUEE 250430Z 34007MPS CAVOK 02/M06 Q1000 R24L/CLRD62 R24C/CLRD62 NOSIG,1,0.0,0,9999,0,0,0,
2026-04-25 04:00:00,METAR UUEE 250400Z 33006MPS CAVOK 02/M04 Q1000 R24L/CLRD62 R24C/CLRD62 NOSIG,1,0.0,0,9999,0,0,0,
2026-04-25 03:30:00,METAR UUEE 250330Z 32005MPS CAVOK 01/M03 Q1000 R24L/CLRD62 R24C/CLRD62 NOSIG,1,0.0,0,9999,0,0,0,
2026-04-25 03:00:00,METAR UUEE 250300Z 32004MPS 300V360 CAVOK 01/M03 Q1000 R24L/CLRD62 R24C/CLRD62 NOSIG,1,0.0,0,9999,0,0,0,
2026-04-25 02:30:00,METAR UUEE 250230Z 30004MPS CAVOK 01/M03 Q0999 R24L/CLRD62 NOSIG,1,0.0,0,9999,0,0,0,
2026-04-25 02:00:00,METAR UUEE 250200Z 30004MPS CAVOK 01/M03 Q0999 R24L/CLRD62 NOSIG,1,0.0,0,9999,0,0,0,
2026-04-25 01:30:00,METAR UUEE 250130Z 29004MPS CAVOK 01/M03 Q0999 R24L/CLRD62 NOSIG,1,0.0,0,9999,0,0,0,
2026-04-25 01:00:00,METAR UUEE 250100Z 29004MPS CAVOK 02/M03 Q0999 R24L/CLRD62 NOSIG,1,0.0,0,9999,0,0,0,
2026-04-25 00:30:00,METAR UUEE 250030Z 28005MPS 9999 SCT046 03/M03 Q0999 R24L/CLRD62 NOSIG,0,5.0,0,10000,0,0,0,
2026-04-25 00:00:00,METAR UUEE 250000Z 27005MPS CAVOK 03/M04 Q0999 R24L/CLRD62 NOSIG,1,0.0,0,9999,0,0,0,
2026-04-24 23:30:00,METAR UUEE 242330Z 26005MPS CAVOK 02/M04 Q0998 R24L/CLRD62 NOSIG,1,0.0,0,9999,0,0,0,
2026-04-24 23:00:00,METAR UUEE 242300Z 28004MPS CAVOK 02/M04 Q0999 R24L/CLRD62 NOSIG,1,0.0,0,9999,0,0,0,
2026-04-24 22:30:00,METAR UUEE 242230Z 24004MPS CAVOK 01/M04 Q0999 R24L/CLRD62 NOSIG,1,0.0,0,9999,0,0,0,
2026-04-24 22:00:00,METAR UUEE 242200Z 25004MPS CAVOK 01/M04 Q0999 R24L/CLRD62 NOSIG,1,0.0,0,9999,0,0,0,
2026-04-24 21:30:00,METAR UUEE 242130Z 24004MPS CAVOK 01/M04 Q0999 R24L/CLRD62 R24C/CLRD62 NOSIG,1,0.0,0,9999,0,0,0,
2026-04-24 21:00:00,METAR UUEE 242100Z 26005MPS CAVOK 03/M04 Q0999 R24L/CLRD62 R24C/CLRD62 NOSIG,1,0.0,0,9999,0,0,0,
2026-04-24 20:30:00,METAR UUEE 242030Z 25004MPS CAVOK 02/M04 Q0999 R24L/CLRD62 R24C/CLRD62 NOSIG,1,0.0,0,9999,0,0,0,
2026-04-24 20:00:00,METAR UUEE 242000Z 25003G09MPS 200V300 CAVOK 03/M05 Q0999 R24L/CLRD62 R24C/CLRD62 NOSIG,1,0.0,0,9999,0,0,0,
2026-04-24 19:30:00,METAR UUEE 241930Z 27005MPS CAVOK 03/M05 Q0999 R24L/CLRD62 R24C/CLRD62 NOSIG,1,0.0,0,9999,0,0,0,
2026-04-24 19:00:00,METAR UUEE 241900Z 27005MPS CAVOK 03/M05 Q0999 R24L/CLRD62 R24C/CLRD62 NOSIG,1,0.0,0,9999,0,0,0,
2026-04-24 18:30:00,METAR UUEE 241830Z 27004MPS CAVOK 04/M05 Q0999 R24L/CLRD62 R24C/CLRD62 NOSIG,1,0.0,0,9999,0,0,0,
2026-04-24 18:00:00,METAR UUEE 241800Z 27004G09MPS 170V310 CAVOK 04/M06 Q0999 R24L/CLRD62 R24C/CLRD62 NOSIG,1,0.0,0,9999,0,0,0,
2026-04-24 17:30:00,METAR UUEE 241730Z 28003G08MPS 190V330 CAVOK 04/M06 Q0999 R24L/CLRD62 R24C/CLRD62 NOSIG,1,0.0,0,9999,0,0,0,
2026-04-24 17:00:00,METAR UUEE 241700Z 29004MPS CAVOK 04/M06 Q0999 R24L/CLRD62 R24C/CLRD62 NOSIG,1,0.0,0,9999,0,0,0,
2026-04-24 16:30:00,METAR UUEE 241630Z 30003G09MPS 200V330 CAVOK 04/M06 Q0999 R24L/CLRD62 R24C/CLRD62 NOSIG,1,0.0,0,9999,0,0,0,
2026-04-24 16:00:00,METAR UUEE 241600Z 31004MPS 270V340 CAVOK 05/M07 Q0999 R24L/CLRD62 R24C/CLRD62 NOSIG,1,0.0,0,9999,0,0,0,
2026-04-24 15:30:00,METAR UUEE 241530Z 33006MPS 290V360 CAVOK 05/M07 Q0999 R24L/CLRD62 R24C/CLRD62 NOSIG,1,0.0,0,9999,0,0,0,
2026-04-24 15:02:00,SPECI UUEE 241502Z 33006G12MPS 290V080 CAVOK 05/M07 Q0999 R24L/CLRD62 R24C/CLRD62 NOSIG,1,0.0,0,9999,0,0,0,
2026-04-24 15:00:00,METAR UUEE 241500Z 33006G12MPS 290V080 CAVOK 05/M07 Q0999 WS R24L WS R24C R24L/CLRD62 R24C/CLRD62 NOSIG,1,0.0,0,9999,0,0,0,
2026-04-24 14:30:00,METAR UUEE 241430Z 33008MPS 300V360 CAVOK 05/M07 Q0999 WS R24L WS R24C R24L/CLRD62 R24C/CLRD62 NOSIG,1,0.0,0,9999,0,0,0,
2026-04-24 14:20:00,SPECI UUEE 241420Z 34007G13MPS 310V010 CAVOK 05/M07 Q0999 WS R24L WS R24C R24L/CLRD62 R24C/CLRD62 NOSIG,1,0.0,0,9999,0,0,0,
2026-04-24 14:04:00,SPECI UUEE 241404Z 34008MPS 310V010 CAVOK 05/M07 Q0999 WS R24L WS R24C R24L/CLRD62 R24C/CLRD62 NOSIG,1,0.0,0,9999,0,0,0,
2026-04-24 14:00:00,METAR UUEE 241400Z 34004G09MPS 290V040 CAVOK 05/M07 Q0999 R24L/CLRD62 R24C/CLRD62 NOSIG,1,0.0,0,9999,0,0,0,
2026-04-24 13:30:00,METAR UUEE 241330Z 34006G12MPS 320V040 CAVOK 05/M07 Q0999 R24L/CLRD62 R24C/CLRD62 NOSIG,1,0.0,0,9999,0,0,0,
2026-04-24 13:00:00,METAR UUEE 241300Z 32008G13MPS 9999 BKN049 05/M07 Q0998 R24L/CLRD62 R24C/CLRD62 NOSIG,0,8.0,1,10000,0,0,0,
2026-04-24 12:30:00,METAR UUEE 241230Z 33008G13MPS 300V360 CAVOK 04/M07 Q0998 R24L/CLRD62 R24C/CLRD62 NOSIG,1,0.0,0,9999,0,0,0,
2026-04-24 12:00:00,METAR UUEE 241200Z 33008G14MPS 9999 BKN046 04/M07 Q0998 R24L/CLRD62 R24C/CLRD62 NOSIG,0,8.0,1,10000,0,0,0,
2026-04-24 11:30:00,METAR UUEE 241130Z 34006G11MPS 310V010 9999 BKN048 04/M07 Q0998 R24L/CLRD62 R24C/CLRD62 NOSIG,0,6.0,1,10000,0,0,0,
2026-04-24 11:00:00,METAR UUEE 241100Z 34007G12MPS 300V010 9999 BKN047 04/M07 Q0998 R24L/CLRD62 R24C/CLRD62 NOSIG,0,7.0,1,10000,0,0,0,
2026-04-24 10:30:00,METAR UUEE 241030Z 35004G09MPS 310V030 9999 BKN043 03/M07 Q0998 R24L/CLRD62 R24C/CLRD62 NOSIG,0,4.0,1,10000,0,0,0,
2026-04-24 10:00:00,METAR UUEE 241000Z 34007MPS 9999 BKN041 03/M06 Q0998 R24L/CLRD62 R24C/CLRD62 NOSIG,0,7.0,0,10000,0,0,0,
2026-04-24 09:30:00,METAR UUEE 240930Z 34008MPS 300V010 9999 BKN041 03/M06 Q0998 R24L/CLRD62 R24C/CLRD62 NOSIG,0,8.0,0,10000,0,0,0,
2026-04-24 09:00:00,METAR UUEE 240900Z 33007G12MPS 9999 BKN041 03/M06 Q0998 R24L/CLRD62 R24C/CLRD62 NOSIG,0,7.0,1,10000,0,0,0,
2026-04-24 08:30:00,METAR UUEE 240830Z 36006G11MPS 320V040 9999 BKN043 03/M07 Q0998 R24L/CLRD62 R24C/CLRD62 NOSIG,0,6.0,1,10000,0,0,0,
2026-04-24 08:17:00,SPECI UUEE 240817Z 35007G13MPS 9999 BKN042 03/M07 Q0998 R24L/CLRD62 R24C/CLRD62 NOSIG,0,7.0,1,10000,0,0,0,
2026-04-24 08:00:00,METAR UUEE 240800Z 33008MPS 9999 BKN042 03/M07 Q0998 R06R/CLRD62 R06C/CLRD62 NOSIG,0,8.0,0,10000,0,0,0,
2026-04-24 07:30:00,METAR UUEE 240730Z 01005G11MPS 330V040 9999 BKN042 03/M07 Q0997 R06R/CLRD62 R06C/CLRD62 NOSIG,0,5.0,1,10000,0,0,0,
2026-04-24 07:25:00,SPECI UUEE 240725Z 34008MPS 320V040 9999 BKN040 03/M08 Q0997 R06R/CLRD62 R06C/CLRD62 NOSIG,0,8.0,0,10000,0,0,0,
2026-04-24 07:04:00,SPECI UUEE 240704Z 34008G13MPS 320V020 9999 BKN039 03/M06 Q0997 R06R/CLRD62 R06C/CLRD62 NOSIG,0,8.0,1,10000,0,0,0,
2026-04-24 07:00:00,METAR UUEE 240700Z 35008MPS 9999 BKN038 03/M06 Q0997 R06R/CLRD62 R06C/CLRD62 NOSIG,0,8.0,0,10000,0,0,0,
2026-04-24 06:30:00,METAR UUEE 240630Z 34007G12MPS 9999 BKN035 03/M05 Q0997 R06R/CLRD62 R06C/CLRD62 NOSIG,0,7.0,1,10000,0,0,0,
2026-04-24 06:00:00,METAR UUEE 240600Z 34007G12MPS 9999 BKN031 02/M05 Q0997 R06R/CLRD62 R06C/CLRD62 NOSIG,0,7.0,1,10000,0,0,0,
2026-04-24 05:30:00,METAR UUEE 240530Z 34008G13MPS 9999 BKN025 02/M05 Q0997 R06R/CLRD62 R06C/CLRD62 NOSIG,0,8.0,1,10000,0,0,0,
2026-04-24 05:00:00,METAR UUEE 240500Z 36006G11MPS 320V040 9999 BKN024 01/M04 Q0997 R06R/CLRD62 R06C/CLRD62 NOSIG,0,6.0,1,10000,0,0,0,
2026-04-24 04:57:00,SPECI UUEE 240457Z 33008G13MPS 310V010 9999 BKN024 01/M04 Q0997 R06R/CLRD62 R06C/CLRD62 NOSIG,0,8.0,1,10000,0,0,0,
2026-04-24 04:30:00,METAR UUEE 240430Z 34008MPS 9999 BKN024 01/M04 Q0997 R06R/CLRD62 R06C/CLRD62 NOSIG,0,8.0,0,10000,0,0,0,
2026-04-24 04:00:00,METAR UUEE 240400Z 34006G13MPS 310V030 9999 BKN023 01/M04 Q0997 R06R/CLRD62 R06C/CLRD62 NOSIG,0,6.0,1,10000,0,0,0,
2026-04-24 03:30:00,METAR UUEE 240330Z 34006MPS 9999 BKN024 01/M04 Q0996 R06R/CLRD62 R06C/CLRD62 NOSIG,0,6.0,0,10000,0,0,0,
2026-04-24 03:00:00,METAR UUEE 240300Z 34007MPS 9999 BKN047 01/M04 Q0996 R06R/CLRD62 R06C/CLRD62 NOSIG,0,7.0,0,10000,0,0,0,
2026-04-24 02:30:00,METAR UUEE 240230Z 34005G10MPS 310V010 9999 BKN023 01/M04 Q0996 R06R/CLRD62 NOSIG,0,5.0,1,10000,0,0,0,
2026-04-24 02:00:00,METAR UUEE 240200Z 34006MPS 9999 BKN023 01/M04 Q0996 R06C/CLRD62 NOSIG,0,6.0,0,10000,0,0,0,
2026-04-24 01:30:00,METAR UUEE 240130Z 34006MPS 310V010 9999 BKN043 01/M04 Q0996 R06C/CLRD62 NOSIG,0,6.0,0,10000,0,0,0,
2026-04-24 01:00:00,METAR UUEE 240100Z 34007MPS 9999 BKN022 01/M04 Q0996 R06C/CLRD62 NOSIG,0,7.0,0,10000,0,0,0,
2026-04-24 00:30:00,METAR UUEE 240030Z 34007MPS 9999 BKN023 01/M03 Q0996 R06C/290151 NOSIG,0,7.0,0,10000,0,0,0,
2026-04-24 00:00:00,METAR UUEE 240000Z 34006MPS 300V010 9999 BKN020 01/M03 Q0996 R06C/290151 NOSIG,0,6.0,0,10000,0,0,0,
2026-04-23 23:30:00,METAR UUEE 232330Z 34007G12MPS 9999 BKN049 01/M03 Q0996 R06C/290151 NOSIG,0,7.0,1,10000,0,0,0,
2026-04-23 23:00:00,METAR UUEE 232300Z 34008MPS 320V020 CAVOK 01/M03 Q0996 R06C/290151 NOSIG,1,0.0,0,9999,0,0,0,
2026-04-23 22:30:00,METAR UUEE 232230Z 34006G11MPS 9999 BKN021 02/M03 Q0996 R06C/290151 NOSIG,0,6.0,1,10000,0,0,0,
2026-04-23 22:00:00,METAR UUEE 232200Z 34007G12MPS 310V010 9999 BKN022 02/M02 Q0996 R06R/290151 R06C/290151 NOSIG,0,7.0,1,10000,0,0,0,
2026-04-23 21:30:00,METAR UUEE 232130Z 34008MPS 9999 BKN024 02/M02 Q0996 R06R/290151 R06C/290151 NOSIG,0,8.0,0,10000,0,0,0,
2026-04-23 21:00:00,METAR UUEE 232100Z 33006G11MPS 290V350 9999 BKN032 02/M02 Q0996 R06R/290151 R06C/290151 NOSIG,0,6.0,1,10000,0,0,0,
2026-04-23 20:30:00,METAR UUEE 232030Z 34005MPS 320V020 9999 BKN032 02/M02 Q0996 R06R/290151 R06C/290151 NOSIG,0,5.0,0,10000,0,0,0,
2026-04-23 20:00:00,METAR UUEE 232000Z 34005G10MPS 9999 BKN033 03/M02 Q0996 R06R/290151 R06C/290151 NOSIG,0,5.0,1,10000,0,0,0,
2026-04-23 19:30:00,METAR UUEE 231930Z 35006MPS 9999 BKN031 03/M01 Q0996 R06R/290151 R06C/290151 NOSIG,0,6.0,0,10000,0,0,0,
2026-04-23 19:00:00,METAR UUEE 231900Z 35006MPS 320V030 9999 BKN028 03/M02 Q0996 R06R/290151 R06C/290151 NOSIG,0,6.0,0,10000,0,0,0,
2026-04-23 18:30:00,METAR UUEE 231830Z 36007G13MPS 9999 BKN030 03/M01 Q0996 R06R/290151 R06C/290151 NOSIG,0,7.0,1,10000,0,0,0,
2026-04-23 18:28:00,SPECI UUEE 231828Z 36006G13MPS 9999 BKN025 03/M01 Q0996 R06R/290151 R06C/290151 NOSIG,0,6.0,1,10000,0,0,0,
2026-04-23 18:00:00,METAR UUEE 231800Z 35006G17MPS 9999 BKN021 03/M01 Q0996 WS R24L WS R24C R24L/290151 R24C/290151 NOSIG,0,6.0,1,10000,0,0,0,
2026-04-23 17:57:00,SPECI UUEE 231757Z 35006G17MPS 9999 BKN022 03/M01 Q0996 WS R24L WS R24C R24L/290151 R24C/290151 NOSIG,0,6.0,1,10000,0,0,0,
2026-04-23 17:30:00,METAR UUEE 231730Z 36006G11MPS 320V030 9999 -SHRA BKN020CB 03/00 Q0995 R24L/290151 R24C/290151 NOSIG,0,6.0,1,10000,0,0,0,RA
2026-04-23 17:00:00,METAR UUEE 231700Z 36007G14MPS 330V130 9999 -SHRA SCT013 BKN032CB 03/00 Q0995 R24L/290151 R24C/290151 NOSIG,0,7.0,1,10000,0,0,0,RA
2026-04-23 16:30:00,METAR UUEE 231630Z 35007G12MPS 290V020 9999 -SHRA BKN020CB 03/01 Q0994 R24L/290151 R24C/290151 NOSIG,0,7.0,1,10000,0,0,0,RA
2026-04-23 16:23:00,SPECI UUEE 231623Z 35008MPS 320V020 9999 -SHRA BKN014CB 03/01 Q0994 R24L/290151 R24C/290151 NOSIG,0,8.0,0,10000,0,0,0,RA
2026-04-23 16:00:00,METAR UUEE 231600Z 34007MPS 300V020 9999 -SHRA SCT013 BKN031CB 03/01 Q0994 R24L/290151 R24C/290151 NOSIG,0,7.0,0,10000,0,0,0,RA
2026-04-23 15:56:00,SPECI UUEE 231556Z 34007MPS 300V020 9999 -SHRA SCT013 BKN027CB 03/01 Q0994 R24L/290151 R24C/290151 NOSIG,0,7.0,0,10000,0,0,0,RA
2026-04-23 15:30:00,METAR UUEE 231530Z 35006G11MPS 310V030 9999 -RA BKN012 03/01 Q0994 R24L/250151 R24C/290151 NOSIG,0,6.0,1,10000,0,0,0,-RA
2026-04-23 15:00:00,METAR UUEE 231500Z 34008G13MPS 9999 OVC013 03/01 Q0993 R24L/250151 R24C/250151 NOSIG,0,8.0,1,10000,0,0,0,
2026-04-23 14:30:00,METAR UUEE 231430Z 34007G12MPS 300V010 9999 -RA BKN012 03/01 Q0993 R24L/250151 R24C/250151 NOSIG,0,7.0,1,10000,0,0,0,-RA
2026-04-23 14:00:00,METAR UUEE 231400Z 34009G14MPS 280V350 9999 -RA BKN010 03/01 Q0993 R24L/250151 R24C/250151 NOSIG,0,9.0,1,10000,0,0,0,-RA
2026-04-23 13:51:00,SPECI UUEE 231351Z 33008G14MPS 9999 -RA BKN010 03/01 Q0993 R24L/250151 R24C/250151 NOSIG,0,8.0,1,10000,0,0,0,-RA
2026-04-23 13:38:00,SPECI UUEE 231338Z 34009MPS 270V360 9999 -RA BKN010 03/01 Q0992 R24L/250151 R24C/250151 NOSIG,0,9.0,0,10000,0,0,0,-RA
2026-04-23 13:30:00,METAR UUEE 231330Z 33008MPS 300V360 9999 -RA BKN011 03/01 Q0992 WS R24L WS R24C R24L/250151 R24C/250151 NOSIG,0,8.0,0,10000,0,0,0,-RA
2026-04-23 13:08:00,SPECI UUEE 231308Z 34008MPS 9999 -DZ OVC010 03/01 Q0992 WS R24L WS R24C R24L/250151 R24C/250151 NOSIG,0,8.0,0,10000,0,0,0,DZ
2026-04-23 13:00:00,METAR UUEE 231300Z 34009G17MPS 300V360 9999 -DZ OVC011 03/01 Q0992 R24L/250151 R24C/250151 NOSIG,0,9.0,1,10000,0,0,0,DZ
2026-04-23 12:30:00,METAR UUEE 231230Z 33008G13MPS 9999 -RA BKN010 03/01 Q0992 R24L/250151 R24C/250151 NOSIG,0,8.0,1,10000,0,0,0,-RA
2026-04-23 12:07:00,SPECI UUEE 231207Z 34009G14MPS 9999 BKN010 03/01 Q0991 R24L/290145 R24C/290145 NOSIG,0,9.0,1,10000,0,0,0,
2026-04-23 12:00:00,METAR UUEE 231200Z 33009MPS 9999 BKN010 03/01 Q0991 R24L/290145 R24C/290145 NOSIG,0,9.0,0,10000,0,0,0,
2026-04-23 11:30:00,METAR UUEE 231130Z 35007G12MPS 310V020 9999 OVC010 03/01 Q0991 R24L/290145 R24C/290145 NOSIG,0,7.0,1,10000,0,0,0,
2026-04-23 11:00:00,METAR UUEE 231100Z 35006G11MPS 320V020 9999 OVC009 03/01 Q0991 R24L/290345 R24C/290345 NOSIG,0,6.0,1,10000,0,0,0,
2026-04-23 10:30:00,METAR UUEE 231030Z 34006G11MPS 310V030 9999 -RA BKN009 OVC024 03/01 Q0990 R24L/290345 R24C/290345 NOSIG,0,6.0,1,10000,0,0,0,-RA
2026-04-23 10:00:00,METAR UUEE 231000Z 34006G11MPS 310V030 9999 -RA BKN008 OVC024 04/02 Q0990 R24L/290345 R24C/290345 NOSIG,0,6.0,1,10000,0,0,0,-RA
2026-04-23 09:51:00,SPECI UUEE 230951Z 34007G12MPS 320V020 9999 -RA BKN007 OVC024 03/02 Q0989 R24L/290345 R24C/290345 NOSIG,0,7.0,1,10000,0,0,0,-RA
2026-04-23 09:35:00,SPECI UUEE 230935Z 33008G13MPS 300V360 9999 -RA BKN008 OVC027 03/02 Q0989 WS R24L WS R24C R24L/290345 R24C/290345 NOSIG,0,8.0,1,10000,0,0,0,-RA
2026-04-23 09:34:00,SPECI UUEE 230934Z 32008MPS 300V360 9999 -RA BKN008 OVC027 03/02 Q0989 WS R24L WS R24C R24L/290345 R24C/290345 NOSIG,0,8.0,0,10000,0,0,0,-RA
2026-04-23 09:30:00,METAR UUEE 230930Z 32008MPS 300V360 9999 -RA SCT009 OVC027 03/02 Q0989 WS R24L WS R24C R24L/290345 R24C/290345 NOSIG,0,8.0,0,10000,0,0,0,-RA
2026-04-23 09:21:00,SPECI UUEE 230921Z 33008MPS 290V360 9999 -RA SCT008 OVC027 03/02 Q0989 WS R24L WS R24C R24L/290345 R24C/290345 NOSIG,0,8.0,0,10000,0,0,0,-RA
2026-04-23 09:05:00,SPECI UUEE 230905Z 34009G16MPS 310V030 9999 -RA SCT008 OVC024 04/02 Q0989 R24L/290345 R24C/290345 NOSIG,0,9.0,1,10000,0,0,0,-RA
2026-04-23 09:00:00,METAR UUEE 230900Z 33009MPS 9999 -RA OVC010 04/02 Q0989 R24L/290345 R24C/290345 NOSIG,0,9.0,0,10000,0,0,0,-RA
2026-04-23 08:54:00,SPECI UUEE 230854Z 34008MPS 310V010 9999 -RA BKN009 OVC023 04/02 Q0989 R24L/290345 R24C/290345 NOSIG,0,8.0,0,10000,0,0,0,-RA
2026-04-23 08:46:00,SPECI UUEE 230846Z 34007G12MPS 9999 -RA BKN006 OVC026 04/02 Q0988 WS R24L WS R24C R24L/290345 R24C/290345 NOSIG,0,7.0,1,10000,0,0,0,-RA
2026-04-23 08:41:00,SPECI UUEE 230841Z 33007MPS 9999 -RA BKN007 OVC026 04/02 Q0988 R24L/290345 R24C/290345 NOSIG,0,7.0,0,10000,0,0,0,-RA
2026-04-23 08:30:00,METAR UUEE 230830Z 33008G14MPS 300V010 9999 -RA BKN007 OVC026 04/02 Q0988 R24L/290345 R24C/290345 NOSIG,0,8.0,1,10000,0,0,0,-RA
2026-04-23 08:00:00,METAR UUEE 230800Z 34006G11MPS 9999 -RA BKN007 BKN025 05/03 Q0988 R24L/290345 R24C/290345 NOSIG,0,6.0,1,10000,0,0,0,-RA
2026-04-23 07:30:00,METAR UUEE 230730Z 32006MPS 9999 -RA BKN007 OVC022 05/03 Q0988 R24L/290345 R24C/290345 NOSIG,0,6.0,0,10000,0,0,0,-RA
2026-04-23 07:00:00,METAR UUEE 230700Z 33006MPS 290V350 9999 -RA BKN009 OVC029 05/02 Q0987 R24L/290345 R24C/290345 NOSIG,0,6.0,0,10000,0,0,0,-RA
2026-04-23 06:30:00,METAR UUEE 230630Z 33004G10MPS 210V360 9999 -RA BKN008 OVC029 05/03 Q0987 R24L/290345 R24C/290345 NOSIG,0,4.0,1,10000,0,0,0,-RA
2026-04-23 06:00:00,METAR UUEE 230600Z 35005G10MPS 290V060 9999 -RA BKN009 OVC029 04/03 Q0987 R24L/290345 R24C/290345 NOSIG,0,5.0,1,10000,0,0,0,-RA
2026-04-23 05:30:00,METAR UUEE 230530Z 34005G10MPS 300V010 9999 -RA BKN006 OVC040 04/03 Q0987 R24L/290345 R24C/290345 NOSIG,0,5.0,1,10000,0,0,0,-RA
2026-04-23 05:00:00,METAR UUEE 230500Z 35004MPS 320V020 9999 -RA OVC005 04/02 Q0987 R24L/290345 R24C/290345 NOSIG,0,4.0,0,10000,0,0,0,-RA
2026-04-23 04:30:00,METAR UUEE 230430Z 32005MPS 9999 -RA BKN008 OVC031 04/02 Q0987 R24L/290345 R24C/290345 NOSIG,0,5.0,0,10000,0,0,0,-RA
2026-04-23 04:00:00,METAR UUEE 230400Z 31005MPS 9999 -RA BKN008 OVC033 03/02 Q0987 R24L/290345 R24C/290345 NOSIG,0,5.0,0,10000,0,0,0,-RA
2026-04-23 03:30:00,METAR UUEE 230330Z 27004MPS 9999 -RA BKN008 OVC028 04/02 Q0987 R24L/290345 R24C/290345 NOSIG,0,4.0,0,10000,0,0,0,-RA
2026-04-23 03:00:00,METAR UUEE 230300Z 27005MPS 9000 -RA BKN007 OVC022 03/02 Q0987 R24L/290345 R24C/290345 NOSIG,0,5.0,0,9000,0,0,0,-RA
2026-04-23 02:30:00,METAR UUEE 230230Z 28004MPS 8000 -RA SCT006 OVC019 04/02 Q0987 R24L/290345 R24C/290345 NOSIG,0,4.0,0,8000,0,0,0,-RA
2026-04-23 02:00:00,METAR UUEE 230200Z 30004MPS 9000 -RA OVC015 04/02 Q0987 R24L/290345 R24C/290345 NOSIG,0,4.0,0,9000,0,0,0,-RA
2026-04-23 01:30:00,METAR UUEE 230130Z 30006MPS 9999 -RA OVC014 04/02 Q0987 R24L/290345 R24C/290345 NOSIG,0,6.0,0,10000,0,0,0,-RA
2026-04-23 01:16:00,SPECI UUEE 230116Z 30005MPS 9000 -RA OVC014 05/03 Q0988 R24L/290345 R24C/290345 NOSIG,0,5.0,0,9000,0,0,0,-RA
2026-04-23 01:00:00,METAR UUEE 230100Z 31005MPS 280V350 8000 -RA SCT009 OVC022 05/04 Q0988 R24L/290145 R24C/290145 NOSIG,0,5.0,0,8000,0,0,0,-RA
2026-04-23 00:59:00,SPECI UUEE 230059Z 31005MPS 280V350 8000 -RA SCT008 OVC022 06/04 Q0988 R24L/290145 R24C/290145 NOSIG,0,5.0,0,8000,0,0,0,-RA
2026-04-23 00:30:00,METAR UUEE 230030Z 25005MPS 9999 -RA OVC012 06/03 Q0988 R24L/290145 R24C/290145 NOSIG,0,5.0,0,10000,0,0,0,-RA
2026-04-23 00:00:00,METAR UUEE 230000Z 28005MPS 9999 -RA OVC024 07/03 Q0988 R24L/290145 R24C/290145 NOSIG,0,5.0,0,10000,0,0,0,-RA
2026-04-22 23:30:00,METAR UUEE 222330Z 28007MPS 9999 -RA NSC 08/02 Q0989 R24L/290145 R24C/290145 NOSIG,0,7.0,0,10000,0,0,0,-RA
2026-04-22 23:00:00,METAR UUEE 222300Z 27008MPS 9999 -RA NSC 09/01 Q0989 R24L/CLRD62 R24C/CLRD62 NOSIG,0,8.0,0,10000,0,0,0,-RA
2026-04-22 22:41:00,SPECI UUEE 222241Z 27008G13MPS CAVOK 09/M01 Q0990 R24L/CLRD62 R24C/CLRD62 NOSIG,1,0.0,0,9999,0,0,0,
2026-04-22 22:30:00,METAR UUEE 222230Z 26008MPS 230V300 CAVOK 09/M01 Q0990 R24L/CLRD62 R24C/CLRD62 NOSIG,1,0.0,0,9999,0,0,0,
2026-04-22 22:00:00,METAR UUEE 222200Z 24005MPS CAVOK 09/M02 Q0991 R24L/CLRD62 R24C/CLRD62 NOSIG,1,0.0,0,9999,0,0,0,
2026-04-22 21:30:00,METAR UUEE 222130Z 24007MPS 220V280 CAVOK 10/M02 Q0991 R24L/CLRD62 R24C/CLRD62 NOSIG,1,0.0,0,9999,0,0,0,
2026-04-22 21:00:00,METAR UUEE 222100Z 24007G13MPS CAVOK 10/M02 Q0992 R24L/CLRD62 R24C/CLRD62 NOSIG,1,0.0,0,9999,0,0,0,
2026-04-22 20:30:00,METAR UUEE 222030Z 24005MPS 200V260 CAVOK 10/M03 Q0992 R24L/CLRD62 R24C/CLRD62 NOSIG,1,0.0,0,9999,0,0,0,
2026-04-22 20:00:00,METAR UUEE 222000Z 24006MPS CAVOK 10/M03 Q0993 R24L/CLRD62 R24C/CLRD62 NOSIG,1,0.0,0,9999,0,0,0,
2026-04-22 19:30:00,METAR UUEE 221930Z 21006MPS CAVOK 10/M03 Q0994 R24L/CLRD62 R24C/CLRD62 NOSIG,1,0.0,0,9999,0,0,0,
2026-04-22 19:00:00,METAR UUEE 221900Z 20006MPS CAVOK 10/M04 Q0995 R24L/CLRD62 R24C/CLRD62 NOSIG,1,0.0,0,9999,0,0,0,
2026-04-22 18:30:00,METAR UUEE 221830Z 21005MPS CAVOK 10/M04 Q0995 R24L/CLRD62 R24C/CLRD62 NOSIG,1,0.0,0,9999,0,0,0,
2026-04-22 18:00:00,METAR UUEE 221800Z 20005MPS CAVOK 10/M05 Q0996 R24L/CLRD62 R24C/CLRD62 NOSIG,1,0.0,0,9999,0,0,0,
2026-04-22 17:30:00,METAR UUEE 221730Z 20004MPS CAVOK 10/M05 Q0997 R24L/CLRD62 R24C/CLRD62 NOSIG,1,0.0,0,9999,0,0,0,
2026-04-22 17:00:00,METAR UUEE 221700Z 21004MPS CAVOK 11/M06 Q0997 R24L/CLRD62 R24C/CLRD62 NOSIG,1,0.0,0,9999,0,0,0,
2026-04-22 16:30:00,METAR UUEE 221630Z 23004MPS CAVOK 11/M07 Q0998 R24L/CLRD62 R24C/CLRD62 NOSIG,1,0.0,0,9999,0,0,0,
2026-04-22 16:00:00,METAR UUEE 221600Z 25005MPS CAVOK 11/M07 Q0999 R24L/CLRD62 R24C/CLRD62 NOSIG,1,0.0,0,9999,0,0,0,
2026-04-22 15:30:00,METAR UUEE 221530Z 27006MPS CAVOK 12/M08 Q0999 R24L/CLRD62 R24C/CLRD62 NOSIG,1,0.0,0,9999,0,0,0,
2026-04-22 15:00:00,METAR UUEE 221500Z 26007MPS 230V290 CAVOK 12/M08 Q1000 R24L/CLRD62 R24C/CLRD62 NOSIG,1,0.0,0,9999,0,0,0,
2026-04-22 14:30:00,METAR UUEE 221430Z 25007MPS CAVOK 12/M05 Q1000 R24L/CLRD62 R24C/CLRD62 NOSIG,1,0.0,0,9999,0,0,0,
2026-04-22 14:00:00,METAR UUEE 221400Z 26007MPS 240V310 CAVOK 12/M04 Q1000 R24L/CLRD62 R24C/CLRD62 NOSIG,1,0.0,0,9999,0,0,0,
2026-04-22 13:30:00,METAR UUEE 221330Z 25007MPS 230V300 CAVOK 12/M06 Q1001 R24L/CLRD62 R24C/CLRD62 NOSIG,1,0.0,0,9999,0,0,0,
2026-04-22 13:06:00,SPECI UUEE 221306Z 27007MPS 240V300 CAVOK 13/M05 Q1001 R24L/CLRD62 R24C/CLRD62 NOSIG,1,0.0,0,9999,0,0,0,
2026-04-22 13:00:00,METAR UUEE 221300Z 30004G09MPS 230V330 CAVOK 12/M06 Q1001 WS R24L WS R24C R24L/CLRD62 R24C/CLRD62 NOSIG,1,0.0,0,9999,0,0,0,
2026-04-22 12:35:00,SPECI UUEE 221235Z 27006G11MPS 240V320 CAVOK 13/M06 Q1002 WS R24L WS R24C R24L/CLRD62 R24C/CLRD62 NOSIG,1,0.0,0,9999,0,0,0,
2026-04-22 12:30:00,METAR UUEE 221230Z 28005G11MPS 240V320 CAVOK 14/M05 Q1002 R24L/CLRD62 R24C/CLRD62 NOSIG,1,0.0,0,9999,0,0,0,
2026-04-22 12:00:00,METAR UUEE 221200Z 28005G10MPS 250V310 CAVOK 13/M05 Q1003 R24L/CLRD62 R24C/CLRD62 NOSIG,1,0.0,0,9999,0,0,0,
2026-04-22 11:30:00,METAR UUEE 221130Z 26006MPS CAVOK 13/M05 Q1003 R24L/CLRD62 R24C/CLRD62 NOSIG,1,0.0,0,9999,0,0,0,
2026-04-22 11:03:00,SPECI UUEE 221103Z 24006MPS 200V270 CAVOK 12/M07 Q1004 R24L/CLRD62 R24C/CLRD62 NOSIG,1,0.0,0,9999,0,0,0,
2026-04-22 11:00:00,METAR UUEE 221100Z 30003G08MPS CAVOK 12/M05 Q1004 R24L/CLRD62 R24C/CLRD62 NOSIG,1,0.0,0,9999,0,0,0,
2026-04-22 10:30:00,METAR UUEE 221030Z 27004MPS 220V330 CAVOK 12/M06 Q1004 R24L/CLRD62 R24C/CLRD62 NOSIG,1,0.0,0,9999,0,0,0,
2026-04-22 10:00:00,METAR UUEE 221000Z 26004G09MPS 220V330 CAVOK 12/M06 Q1005 R24L/CLRD62 R24C/CLRD62 NOSIG,1,0.0,0,9999,0,0,0,
2026-04-22 09:40:00,SPECI UUEE 220940Z 26005MPS 200V310 CAVOK 11/M07 Q1005 R24L/CLRD62 R24C/CLRD62 NOSIG,1,0.0,0,9999,0,0,0,
2026-04-22 09:30:00,METAR UUEE 220930Z 33004G10MPS 280V020 CAVOK 11/M08 Q1005 R24L/CLRD62 R24C/CLRD62 NOSIG,1,0.0,0,9999,0,0,0,
2026-04-22 09:00:00,METAR UUEE 220900Z 30005MPS 250V350 CAVOK 11/M09 Q1005 R24L/CLRD62 R24C/CLRD62 NOSIG,1,0.0,0,9999,0,0,0,
2026-04-22 08:30:00,METAR UUEE 220830Z 29003G08MPS 230V350 CAVOK 10/M08 Q1006 R24L/CLRD62 R24C/CLRD62 NOSIG,1,0.0,0,9999,0,0,0,
2026-04-22 08:00:00,METAR UUEE 220800Z 27004G09MPS 190V300 CAVOK 10/M07 Q1006 R24L/CLRD62 R24C/CLRD62 NOSIG,1,0.0,0,9999,0,0,0,
2026-04-22 07:30:00,METAR UUEE 220730Z 34005MPS 260V030 CAVOK 10/M08 Q1007 R24L/CLRD62 R24C/CLRD62 NOSIG,1,0.0,0,9999,0,0,0,
2026-04-22 07:00:00,METAR UUEE 220700Z 29005MPS 230V320 CAVOK 10/M08 Q1007 R24L/CLRD62 R24C/CLRD62 NOSIG,1,0.0,0,9999,0,0,0,
2026-04-22 06:30:00,METAR UUEE 220630Z 32004MPS 270V350 CAVOK 09/M08 Q1008 R24L/CLRD62 R24C/CLRD62 NOSIG,1,0.0,0,9999,0,0,0,
2026-04-22 06:00:00,METAR UUEE 220600Z 33004MPS 290V010 CAVOK 08/M08 Q1008 R24L/CLRD62 R24C/CLRD62 NOSIG,1,0.0,0,9999,0,0,0,
2026-04-22 05:54:00,SPECI UUEE 220554Z 32003G08MPS 270V010 CAVOK 09/M08 Q1008 R24L/CLRD62 R24C/CLRD62 NOSIG,1,0.0,0,9999,0,0,0,
2026-04-22 05:30:00,METAR UUEE 220530Z 34003MPS CAVOK 07/M06 Q1008 R24L/CLRD62 R24C/CLRD62 NOSIG,1,0.0,0,9999,0,0,0,
2026-04-22 05:00:00,METAR UUEE 220500Z 32002MPS 270V010 CAVOK 06/M06 Q1008 R24L/CLRD62 R24C/CLRD62 NOSIG,1,0.0,0,9999,0,0,0,
2026-04-22 04:56:00,SPECI UUEE 220456Z 33002MPS 300V010 CAVOK 06/M06 Q1008 R24L/CLRD62 R24C/CLRD62 NOSIG,1,0.0,0,9999,0,0,0,
2026-04-22 04:30:00,METAR UUEE 220430Z 29002MPS 250V350 CAVOK 04/M07 Q1008 R24L/CLRD62 R24C/CLRD62 NOSIG,1,0.0,0,9999,0,0,0,
2026-04-22 04:18:00,SPECI UUEE 220418Z 30002G07MPS CAVOK 04/M07 Q1008 R24L/CLRD62 R24C/CLRD62 NOSIG,1,0.0,0,9999,0,0,0,
2026-04-22 04:00:00,METAR UUEE 220400Z 26002MPS CAVOK 02/M06 Q1008 R24L/CLRD62 R24C/CLRD62 NOSIG,1,0.0,0,9999,0,0,0,
2026-04-22 03:30:00,METAR UUEE 220330Z 25002MPS CAVOK 01/M06 Q1008 R24L/CLRD62 R24C/CLRD62 NOSIG,1,0.0,0,9999,0,0,0,
2026-04-22 03:21:00,SPECI UUEE 220321Z 24002MPS CAVOK 01/M07 Q1008 R24L/CLRD62 R24C/CLRD62 NOSIG,1,0.0,0,9999,0,0,0,
2026-04-22 03:00:00,METAR UUEE 220300Z 29002MPS 190V320 CAVOK M01/M07 Q1008 R24L/CLRD62 R24C/CLRD62 NOSIG,1,0.0,0,9999,0,0,0,
2026-04-22 02:30:00,METAR UUEE 220230Z 30002MPS CAVOK M02/M07 Q1008 R24L/CLRD62 R24C/CLRD62 NOSIG,1,0.0,0,9999,0,0,0,
2026-04-22 02:00:00,METAR UUEE 220200Z 31002MPS CAVOK M02/M07 Q1009 R24L/CLRD62 R24C/CLRD62 NOSIG,1,0.0,0,9999,0,0,0,
2026-04-22 01:30:00,METAR UUEE 220130Z VRB01MPS CAVOK M01/M08 Q1009 R06R/CLRD62 NOSIG,1,0.0,0,9999,0,0,0,
2026-04-22 01:00:00,METAR UUEE 220100Z VRB01MPS CAVOK M01/M08 Q1009 R06C/CLRD62 NOSIG,1,0.0,0,9999,0,0,0,
2026-04-22 00:30:00,METAR UUEE 220030Z 28002MPS 250V310 CAVOK M01/M08 Q1009 R06C/CLRD62 NOSIG,1,0.0,0,9999,0,0,0,
2026-04-22 00:00:00,METAR UUEE 220000Z 30002MPS 270V010 CAVOK M00/M08 Q1009 R06C/CLRD62 NOSIG,1,0.0,0,9999,0,0,0,
2026-04-21 23:30:00,METAR UUEE 212330Z 31002MPS 290V020 CAVOK M00/M08 Q1009 R06R/CLRD62 R06C/CLRD62 NOSIG,1,0.0,0,9999,0,0,0,
2026-04-21 23:00:00,METAR UUEE 212300Z 27002MPS 250V320 CAVOK 00/M08 Q1009 R06R/CLRD62 R06C/CLRD62 NOSIG,1,0.0,0,9999,0,0,0,
2026-04-21 22:30:00,METAR UUEE 212230Z 31003MPS CAVOK 01/M08 Q1010 R06R/CLRD62 R06C/CLRD62 NOSIG,1,0.0,0,9999,0,0,0,
2026-04-21 22:00:00,METAR UUEE 212200Z 31002G07MPS 260V340 CAVOK 02/M09 Q1010 R06R/CLRD62 R06C/CLRD62 NOSIG,1,0.0,0,9999,0,0,0,
2026-04-21 21:30:00,METAR UUEE 212130Z 31003MPS CAVOK 02/M09 Q1010 R06R/CLRD62 R06C/CLRD62 NOSIG,1,0.0,0,9999,0,0,0,
2026-04-21 21:00:00,METAR UUEE 212100Z 32003MPS CAVOK 03/M09 Q1010 R06R/CLRD62 R06C/CLRD62 NOSIG,1,0.0,0,9999,0,0,0,
2026-04-21 20:30:00,METAR UUEE 212030Z 32003MPS CAVOK 03/M10 Q1010 R06R/CLRD62 R06C/CLRD62 NOSIG,1,0.0,0,9999,0,0,0,
2026-04-21 20:00:00,METAR UUEE 212000Z 32003MPS CAVOK 03/M09 Q1010 R06R/CLRD62 R06C/CLRD62 NOSIG,1,0.0,0,9999,0,0,0,
2026-04-21 19:30:00,METAR UUEE 211930Z 33003G08MPS CAVOK 03/M10 Q1010 R06R/CLRD62 R06C/CLRD62 NOSIG,1,0.0,0,9999,0,0,0,
2026-04-21 19:00:00,METAR UUEE 211900Z 32003MPS CAVOK 04/M09 Q1010 R06R/CLRD62 R06C/CLRD62 NOSIG,1,0.0,0,9999,0,0,0,
2026-04-21 18:30:00,METAR UUEE 211830Z 32003MPS CAVOK 05/M11 Q1010 R06R/CLRD62 R06C/CLRD62 NOSIG,1,0.0,0,9999,0,0,0,
2026-04-21 18:00:00,METAR UUEE 211800Z 34003G08MPS CAVOK 06/M11 Q1010 R06R/CLRD62 R06C/CLRD62 NOSIG,1,0.0,0,9999,0,0,0,
2026-04-21 17:30:00,METAR UUEE 211730Z 35003MPS 280V050 CAVOK 06/M11 Q1010 R06R/CLRD62 R06C/CLRD62 NOSIG,1,0.0,0,9999,0,0,0,
2026-04-21 17:00:00,METAR UUEE 211700Z 35003MPS 300V100 CAVOK 07/M11 Q1010 R06R/CLRD62 R06C/CLRD62 NOSIG,1,0.0,0,9999,0,0,0,
2026-04-21 16:30:00,METAR UUEE 211630Z 35004MPS 320V020 CAVOK 08/M12 Q1009 R06R/CLRD62 R06C/CLRD62 NOSIG,1,0.0,0,9999,0,0,0,
2026-04-21 16:00:00,METAR UUEE 211600Z 36004G09MPS CAVOK 08/M13 Q1009 R06R/CLRD62 R06C/CLRD62 NOSIG,1,0.0,0,9999,0,0,0,
2026-04-21 15:30:00,METAR UUEE 211530Z 01007MPS 340V040 CAVOK 08/M14 Q1009 R06R/CLRD62 R06C/CLRD62 NOSIG,1,0.0,0,9999,0,0,0,
2026-04-21 15:00:00,METAR UUEE 211500Z 35006MPS 310V030 CAVOK 09/M12 Q1009 R06R/CLRD62 R06C/CLRD62 NOSIG,1,0.0,0,9999,0,0,0,
2026-04-21 14:40:00,SPECI UUEE 211440Z 02007MPS CAVOK 09/M13 Q1009 R06R/CLRD62 R06C/CLRD62 NOSIG,1,0.0,0,9999,0,0,0,
2026-04-21 14:30:00,METAR UUEE 211430Z 36006MPS 320V060 CAVOK 09/M13 Q1009 WS R06R WS R06C R06R/CLRD62 R06C/CLRD62 NOSIG,1,0.0,0,9999,0,0,0,
2026-04-21 14:08:00,SPECI UUEE 211408Z 36006G11MPS 320V040 CAVOK 09/M13 Q1009 WS R06R WS R06C R06R/CLRD62 R06C/CLRD62 NOSIG,1,0.0,0,9999,0,0,0,
2026-04-21 14:00:00,METAR UUEE 211400Z 35007MPS 320V030 CAVOK 09/M12 Q1009 R06R/CLRD62 R06C/CLRD62 NOSIG,1,0.0,0,9999,0,0,0,
2026-04-21 13:30:00,METAR UUEE 211330Z 03007G12MPS 350V050 CAVOK 09/M11 Q1009 R06R/CLRD62 R06C/CLRD62 NOSIG,1,0.0,0,9999,0,0,0,
2026-04-21 13:00:00,METAR UUEE 211300Z 36008MPS 330V040 CAVOK 09/M11 Q1009 R06R/CLRD62 R06C/CLRD62 NOSIG,1,0.0,0,9999,0,0,0,
2026-04-21 12:30:00,METAR UUEE 211230Z 36007G12MPS 320V050 CAVOK 08/M11 Q1009 R06R/CLRD62 R06C/CLRD62 NOSIG,1,0.0,0,9999,0,0,0,
2026-04-21 12:16:00,SPECI UUEE 211216Z 36007MPS 330V040 CAVOK 08/M11 Q1009 R06R/CLRD62 R06C/CLRD62 NOSIG,1,0.0,0,9999,0,0,0,
2026-04-21 12:00:00,METAR UUEE 211200Z 01008G13MPS 310V050 CAVOK 08/M11 Q1009 R06R/CLRD62 R06C/CLRD62 NOSIG,1,0.0,0,9999,0,0,0,
2026-04-21 11:53:00,SPECI UUEE 211153Z 36007G13MPS 310V040 CAVOK 07/M11 Q1009 R06R/CLRD62 R06C/CLRD62 NOSIG,1,0.0,0,9999,0,0,0,
2026-04-21 11:30:00,METAR UUEE 211130Z 35008MPS 320V040 CAVOK 07/M10 Q1009 R06R/CLRD62 R06C/CLRD62 NOSIG,1,0.0,0,9999,0,0,0,
2026-04-21 11:00:00,METAR UUEE 211100Z 35007G12MPS 320V020 CAVOK 08/M09 Q1008 R06R/CLRD62 R06C/CLRD62 NOSIG,1,0.0,0,9999,0,0,0,
2026-04-21 10:30:00,METAR UUEE 211030Z 36007G13MPS 320V020 CAVOK 07/M10 Q1008 R06R/CLRD62 R06C/CLRD62 NOSIG,1,0.0,0,9999,0,0,0,
2026-04-21 10:00:00,METAR UUEE 211000Z 35006G12MPS 320V050 CAVOK 07/M10 Q1008 R06R/CLRD62 R06C/CLRD62 NOSIG,1,0.0,0,9999,0,0,0,
2026-04-21 09:53:00,SPECI UUEE 210953Z 33009MPS 300V360 CAVOK 08/M08 Q1008 R06R/CLRD62 R06C/CLRD62 NOSIG,1,0.0,0,9999,0,0,0,
2026-04-21 09:30:00,METAR UUEE 210930Z 34008G13MPS 310V020 CAVOK 06/M09 Q1008 R06R/CLRD62 R06C/CLRD62 NOSIG,1,0.0,0,9999,0,0,0,
2026-04-21 09:00:00,METAR UUEE 210900Z 35008G13MPS 310V030 CAVOK 06/M09 Q1008 R06R/CLRD62 R06C/CLRD62 NOSIG,1,0.0,0,9999,0,0,0,
2026-04-21 08:46:00,SPECI UUEE 210846Z 34008G14MPS 300V010 CAVOK 06/M08 Q1008 R06R/CLRD62 R06C/CLRD62 NOSIG,1,0.0,0,9999,0,0,0,
2026-04-21 08:38:00,SPECI UUEE 210838Z 34008MPS 310V020 CAVOK 05/M09 Q1008 R06R/CLRD62 R06C/CLRD62 NOSIG,1,0.0,0,9999,0,0,0,
2026-04-21 08:30:00,METAR UUEE 210830Z 35006G11MPS 300V030 CAVOK 05/M09 Q1008 WS R06R WS R06C R06R/CLRD62 R06C/CLRD62 NOSIG,1,0.0,0,9999,0,0,0,
2026-04-21 08:06:00,SPECI UUEE 210806Z 36009G14MPS 320V030 CAVOK 04/M10 Q1008 WS R06R WS R06C R06R/CLRD62 R06C/CLRD62 NOSIG,1,0.0,0,9999,0,0,0,
2026-04-21 08:00:00,METAR UUEE 210800Z 01008G13MPS 320V040 CAVOK 04/M10 Q1009 R06R/CLRD62 R06C/CLRD62 NOSIG,1,0.0,0,9999,0,0,0,
2026-04-21 07:30:00,METAR UUEE 210730Z 36008G13MPS 300V030 CAVOK 04/M09 Q1008 R06R/CLRD62 R06C/CLRD62 NOSIG,1,0.0,0,9999,0,0,0,
2026-04-21 07:00:00,METAR UUEE 210700Z 36006G11MPS 320V050 CAVOK 03/M09 Q1009 R06R/CLRD62 R06C/CLRD62 NOSIG,1,0.0,0,9999,0,0,0,
2026-04-21 06:30:00,METAR UUEE 210630Z 36007G12MPS 320V030 CAVOK 02/M09 Q1008 R06R/CLRD62 R06C/CLRD62 NOSIG,1,0.0,0,9999,0,0,0,
2026-04-21 06:00:00,METAR UUEE 210600Z 35008G13MPS 320V020 CAVOK 02/M09 Q1008 R06R/CLRD62 R06C/CLRD62 NOSIG,1,0.0,0,9999,0,0,0,
2026-04-21 05:59:00,SPECI UUEE 210559Z 35008G13MPS 320V020 CAVOK 02/M09 Q1008 R06R/CLRD62 R06C/CLRD62 NOSIG,1,0.0,0,9999,0,0,0,
2026-04-21 05:30:00,METAR UUEE 210530Z 34008MPS 320V020 CAVOK 01/M09 Q1008 R06R/CLRD62 R06C/CLRD62 NOSIG,1,0.0,0,9999,0,0,0,
2026-04-21 05:21:00,SPECI UUEE 210521Z 34008MPS 320V020 CAVOK 01/M09 Q1008 R06R/CLRD62 R06C/CLRD62 NOSIG,1,0.0,0,9999,0,0,0,
2026-04-21 05:00:00,METAR UUEE 210500Z 34008G13MPS CAVOK 01/M09 Q1008 R06R/CLRD62 R06C/CLRD62 NOSIG,1,0.0,0,9999,0,0,0,
2026-04-21 04:59:00,SPECI UUEE 210459Z 34008G13MPS CAVOK 01/M09 Q1008 R06R/CLRD62 R06C/CLRD62 NOSIG,1,0.0,0,9999,0,0,0,
2026-04-21 04:30:00,METAR UUEE 210430Z 35008MPS 320V020 CAVOK 01/M09 Q1009 R06R/CLRD62 R06C/CLRD62 NOSIG,1,0.0,0,9999,0,0,0,
2026-04-21 04:00:00,METAR UUEE 210400Z 35005G10MPS 320V030 CAVOK 01/M08 Q1009 R06R/CLRD62 R06C/CLRD62 NOSIG,1,0.0,0,9999,0,0,0,
2026-04-21 03:30:00,METAR UUEE 210330Z 33007MPS CAVOK 01/M09 Q1009 R06R/CLRD62 R06C/CLRD62 NOSIG,1,0.0,0,9999,0,0,0,
2026-04-21 03:00:00,METAR UUEE 210300Z 34006MPS CAVOK 01/M08 Q1009 R06R/CLRD62 R06C/CLRD62 NOSIG,1,0.0,0,9999,0,0,0,
2026-04-21 02:30:00,METAR UUEE 210230Z 35004G09MPS 310V010 CAVOK 01/M08 Q1009 R06R/CLRD62 R06C/CLRD62 NOSIG,1,0.0,0,9999,0,0,0,
2026-04-21 02:00:00,METAR UUEE 210200Z 34006MPS 310V010 CAVOK 01/M08 Q1009 R06R/CLRD62 R06C/CLRD62 NOSIG,1,0.0,0,9999,0,0,0,
2026-04-21 01:30:00,METAR UUEE 210130Z 34006MPS CAVOK 01/M08 Q1009 R06R/CLRD62 R06C/CLRD62 NOSIG,1,0.0,0,9999,0,0,0,
2026-04-21 01:00:00,METAR UUEE 210100Z 34006MPS CAVOK 01/M08 Q1009 R06R/CLRD62 R06C/CLRD62 NOSIG,1,0.0,0,9999,0,0,0,
2026-04-21 00:30:00,METAR UUEE 210030Z 34006MPS CAVOK 01/M08 Q1009 R06R/CLRD62 R06C/CLRD62 NOSIG,1,0.0,0,9999,0,0,0,
2026-04-21 00:00:00,METAR UUEE 210000Z 34006MPS CAVOK 01/M08 Q1009 R06R/CLRD62 R06C/CLRD62 NOSIG,1,0.0,0,9999,0,0,0,
2026-04-20 23:30:00,METAR UUEE 202330Z 34005MPS CAVOK 01/M07 Q1009 R06R/CLRD62 R06C/CLRD62 NOSIG,1,0.0,0,9999,0,0,0,
2026-04-20 23:00:00,METAR UUEE 202300Z 35006MPS 320V020 CAVOK 01/M07 Q1009 R06R/CLRD62 R06C/CLRD62 NOSIG,1,0.0,0,9999,0,0,0,
2026-04-20 22:30:00,METAR UUEE 202230Z 33005MPS 260V360 CAVOK 02/M07 Q1009 R06R/CLRD62 R06C/CLRD62 NOSIG,1,0.0,0,9999,0,0,0,
2026-04-20 22:00:00,METAR UUEE 202200Z 32004MPS 260V360 CAVOK 02/M07 Q1009 R06R/CLRD62 R06C/CLRD62 NOSIG,1,0.0,0,9999,0,0,0,
2026-04-20 21:30:00,METAR UUEE 202130Z 32004G11MPS CAVOK 02/M06 Q1010 R06R/CLRD62 R06C/CLRD62 NOSIG,1,0.0,0,9999,0,0,0,
2026-04-20 21:00:00,METAR UUEE 202100Z 32004MPS 300V010 CAVOK 03/M06 Q1010 R06R/CLRD62 R06C/CLRD62 NOSIG,1,0.0,0,9999,0,0,0,
2026-04-20 20:30:00,METAR UUEE 202030Z 32004G13MPS CAVOK 03/M06 Q1010 R06R/CLRD62 R06C/CLRD62 NOSIG,1,0.0,0,9999,0,0,0,
2026-04-20 20:00:00,METAR UUEE 202000Z 33006MPS CAVOK 04/M07 Q1010 R06R/CLRD62 R06C/CLRD62 NOSIG,1,0.0,0,9999,0,0,0,
2026-04-20 19:30:00,METAR UUEE 201930Z 33006MPS 300V360 CAVOK 04/M07 Q1011 R06R/CLRD62 R06C/CLRD62 NOSIG,1,0.0,0,9999,0,0,0,
2026-04-20 19:00:00,METAR UUEE 201900Z 33005MPS 300V360 CAVOK 04/M06 Q1011 R06R/CLRD62 R06C/CLRD62 NOSIG,1,0.0,0,9999,0,0,0,
2026-04-20 18:56:00,SPECI UUEE 201856Z 34005G12MPS 310V020 CAVOK 04/M06 Q1011 R06R/CLRD62 R06C/CLRD62 NOSIG,1,0.0,0,9999,0,0,0,
2026-04-20 18:30:00,METAR UUEE 201830Z 36007MPS 320V040 CAVOK 03/M06 Q1011 WS R06R WS R06C R06R/CLRD62 R06C/CLRD62 NOSIG,1,0.0,0,9999,0,0,0,
2026-04-20 18:00:00,METAR UUEE 201800Z 34006G11MPS 310V030 CAVOK 03/M06 Q1011 WS R06R WS R06C R06R/CLRD62 R06C/CLRD62 NOSIG,1,0.0,0,9999,0,0,0,
2026-04-20 17:30:00,METAR UUEE 201730Z 35006MPS 320V020 9999 SCT045 03/M06 Q1012 WS R06R WS R06C R06R/CLRD62 R06C/CLRD62 NOSIG,0,6.0,0,10000,0,0,0,
2026-04-20 17:15:00,SPECI UUEE 201715Z 36007G13MPS 320V040 CAVOK 03/M06 Q1012 WS R06R WS R06C R06R/CLRD62 R06C/CLRD62 NOSIG,1,0.0,0,9999,0,0,0,
2026-04-20 17:00:00,METAR UUEE 201700Z 35007MPS 310V020 9999 SCT048 03/M06 Q1012 R06R/CLRD62 R06C/CLRD62 NOSIG,0,7.0,0,10000,0,0,0,
2026-04-20 16:30:00,METAR UUEE 201630Z 34006G11MPS 310V010 9999 SCT042 03/M06 Q1012 R06R/CLRD62 R06C/CLRD62 NOSIG,0,6.0,1,10000,0,0,0,
2026-04-20 16:00:00,METAR UUEE 201600Z 35005G11MPS 320V030 CAVOK 03/M06 Q1011 R06R/CLRD62 R06C/CLRD62 NOSIG,1,0.0,0,9999,0,0,0,
2026-04-20 15:30:00,METAR UUEE 201530Z 36006G11MPS CAVOK 03/M06 Q1011 R06R/CLRD62 R06C/CLRD62 NOSIG,1,0.0,0,9999,0,0,0,
2026-04-20 15:00:00,METAR UUEE 201500Z 35008MPS 320V020 9999 FEW046 04/M06 Q1011 R06R/CLRD62 R06C/CLRD62 NOSIG,0,8.0,0,10000,0,0,0,
2026-04-20 14:39:00,SPECI UUEE 201439Z 01006G13MPS 330V050 CAVOK 04/M07 Q1011 R06R/CLRD62 R06C/CLRD62 NOSIG,1,0.0,0,9999,0,0,0,
2026-04-20 14:30:00,METAR UUEE 201430Z 35006G11MPS 320V050 CAVOK 04/M07 Q1011 WS R06R WS R06C R06R/CLRD62 R06C/CLRD62 NOSIG,1,0.0,0,9999,0,0,0,
2026-04-20 14:06:00,SPECI UUEE 201406Z 36009G14MPS 320V040 9999 FEW047 04/M06 Q1011 WS R06R WS R06C R06R/CLRD62 R06C/CLRD62 NOSIG,0,9.0,1,10000,0,0,0,
2026-04-20 14:04:00,SPECI UUEE 201404Z 35008G14MPS 310V040 CAVOK 04/M06 Q1011 R06R/CLRD62 R06C/CLRD62 NOSIG,1,0.0,0,9999,0,0,0,
2026-04-20 14:00:00,METAR UUEE 201400Z 35009G14MPS 320V020 CAVOK 04/M07 Q1011 WS R06R WS R06C R06R/CLRD62 R06C/CLRD62 NOSIG,1,0.0,0,9999,0,0,0,
2026-04-20 13:30:00,METAR UUEE 201330Z 36007G12MPS 330V030 CAVOK 04/M07 Q1011 WS R06R WS R06C R06R/CLRD62 R06C/CLRD62 NOSIG,1,0.0,0,9999,0,0,0,
2026-04-20 13:14:00,SPECI UUEE 201314Z 35009G18MPS 310V030 CAVOK 04/M07 Q1011 WS R06R WS R06C R06R/CLRD62 R06C/CLRD62 NOSIG,1,0.0,0,9999,0,0,0,
2026-04-20 13:00:00,METAR UUEE 201300Z 02009G14MPS CAVOK 05/M08 Q1011 R06R/CLRD62 R06C/CLRD62 NOSIG,1,0.0,0,9999,0,0,0,
2026-04-20 12:36:00,SPECI UUEE 201236Z 01009G17MPS 340V040 CAVOK 05/M08 Q1011 R06R/CLRD62 R06C/CLRD62 NOSIG,1,0.0,0,9999,0,0,0,
2026-04-20 12:30:00,METAR UUEE 201230Z 01006G11MPS 300V040 CAVOK 05/M08 Q1011 R06R/CLRD62 R06C/CLRD62 NOSIG,1,0.0,0,9999,0,0,0,
2026-04-20 12:29:00,SPECI UUEE 201229Z 01009MPS 340V040 CAVOK 05/M09 Q1011 R06R/CLRD62 R06C/CLRD62 NOSIG,1,0.0,0,9999,0,0,0,
2026-04-20 12:00:00,METAR UUEE 201200Z 35008G14MPS CAVOK 05/M09 Q1011 R06R/CLRD62 R06C/CLRD62 NOSIG,1,0.0,0,9999,0,0,0,
2026-04-20 11:30:00,METAR UUEE 201130Z 35008G14MPS 320V020 CAVOK 05/M09 Q1011 R06R/CLRD62 R06C/CLRD62 NOSIG,1,0.0,0,9999,0,0,0,
2026-04-20 11:00:00,METAR UUEE 201100Z 02006G11MPS 350V050 CAVOK 05/M09 Q1011 R06R/CLRD62 R06C/CLRD62 NOSIG,1,0.0,0,9999,0,0,0,
2026-04-20 10:30:00,METAR UUEE 201030Z 36007G13MPS 320V030 CAVOK 05/M09 Q1011 R06R/CLRD62 R06C/CLRD62 NOSIG,1,0.0,0,9999,0,0,0,
2026-04-20 10:00:00,METAR UUEE 201000Z 01006G12MPS 330V040 CAVOK 05/M09 Q1011 R06R/CLRD62 R06C/CLRD62 NOSIG,1,0.0,0,9999,0,0,0,
2026-04-20 09:30:00,METAR UUEE 200930Z 02006G11MPS 350V060 CAVOK 04/M08 Q1011 R06R/CLRD62 NOSIG,1,0.0,0,9999,0,0,0,
2026-04-20 09:00:00,METAR UUEE 200900Z 01007G12MPS CAVOK 04/M08 Q1011 R06R/CLRD62 R06C/CLRD62 NOSIG,1,0.0,0,9999,0,0,0,
2026-04-20 08:30:00,METAR UUEE 200830Z 02009MPS CAVOK 04/M09 Q1011 R06R/CLRD62 R06C/CLRD62 NOSIG,1,0.0,0,9999,0,0,0,
2026-04-20 08:00:00,METAR UUEE 200800Z 01008MPS 340V050 CAVOK 03/M09 Q1011 R06R/CLRD62 R06C/CLRD62 NOSIG,1,0.0,0,9999,0,0,0,
2026-04-20 07:30:00,METAR UUEE 200730Z 36008MPS CAVOK 03/M08 Q1011 R06R/CLRD62 R06C/CLRD62 NOSIG,1,0.0,0,9999,0,0,0,
2026-04-20 07:00:00,METAR UUEE 200700Z 36007MPS CAVOK 02/M07 Q1011 R06R/CLRD62 R06C/CLRD62 NOSIG,1,0.0,0,9999,0,0,0,
2026-04-20 06:30:00,METAR UUEE 200630Z 35007G12MPS CAVOK 02/M06 Q1011 R06R/CLRD62 R06C/CLRD62 NOSIG,1,0.0,0,9999,0,0,0,
2026-04-20 06:00:00,METAR UUEE 200600Z 36008MPS CAVOK 02/M07 Q1011 R06R/CLRD62 R06C/CLRD62 NOSIG,1,0.0,0,9999,0,0,0,
2026-04-20 05:30:00,METAR UUEE 200530Z 35007G13MPS CAVOK 02/M06 Q1011 R06R/CLRD62 R06C/CLRD62 NOSIG,1,0.0,0,9999,0,0,0,
2026-04-20 05:00:00,METAR UUEE 200500Z 35006MPS 320V020 CAVOK 01/M06 Q1011 R24L/CLRD62 R24C/CLRD62 NOSIG,1,0.0,0,9999,0,0,0,
2026-04-20 04:30:00,METAR UUEE 200430Z 36006MPS 320V020 CAVOK 01/M05 Q1012 R24L/CLRD62 R24C/CLRD62 NOSIG,1,0.0,0,9999,0,0,0,
2026-04-20 04:00:00,METAR UUEE 200400Z 35005MPS CAVOK 01/M04 Q1012 R24L/CLRD62 R24C/CLRD62 NOSIG,1,0.0,0,9999,0,0,0,
2026-04-20 03:30:00,METAR UUEE 200330Z 35006MPS CAVOK 01/M04 Q1012 R24L/290145 R24C/290145 NOSIG,1,0.0,0,9999,0,0,0,
2026-04-20 03:00:00,METAR UUEE 200300Z 35005MPS CAVOK 01/M04 Q1012 R24L/290145 R24C/290145 NOSIG,1,0.0,0,9999,0,0,0,
2026-04-20 02:30:00,METAR UUEE 200230Z 35006MPS CAVOK 01/M03 Q1012 R24L/290145 R24C/290145 NOSIG,1,0.0,0,9999,0,0,0,
2026-04-20 02:00:00,METAR UUEE 200200Z 35006MPS CAVOK 01/M03 Q1012 R24C/290145 NOSIG,1,0.0,0,9999,0,0,0,
2026-04-20 01:30:00,METAR UUEE 200130Z 35006MPS CAVOK 02/M03 Q1012 R24C/290145 NOSIG,1,0.0,0,9999,0,0,0,
2026-04-20 01:00:00,METAR UUEE 200100Z 35004MPS 320V030 CAVOK 01/M02 Q1012 R24L/290145 R24C/290145 NOSIG,1,0.0,0,9999,0,0,0,
2026-04-20 00:30:00,METAR UUEE 200030Z 33004MPS CAVOK 01/M01 Q1012 R24L/290145 R24C/290145 NOSIG,1,0.0,0,9999,0,0,0,
2026-04-20 00:00:00,METAR UUEE 200000Z 32004MPS CAVOK 01/M01 Q1012 R24L/290145 R24C/290145 NOSIG,1,0.0,0,9999,0,0,0,
2026-04-19 23:30:00,METAR UUEE 192330Z 33004MPS CAVOK 01/M01 Q1013 R06R/290145 R06C/290145 NOSIG,1,0.0,0,9999,0,0,0,
2026-04-19 23:00:00,METAR UUEE 192300Z 34004MPS 9999 SCT054CB 01/M01 Q1013 R06R/290145 R06C/290145 NOSIG,0,4.0,0,10000,0,0,0,
2026-04-19 22:30:00,METAR UUEE 192230Z 35004MPS 9999 -SHSN BKN043CB 01/M01 Q1013 R06R/290145 R06C/290145 NOSIG,0,4.0,0,10000,0,0,0,SN
2026-04-19 22:00:00,METAR UUEE 192200Z 03006MPS 9000 -SHSN BKN021CB 01/M01 Q1014 R06R/290145 R06C/290145 NOSIG,0,6.0,0,9000,0,0,0,SN
2026-04-19 21:30:00,METAR UUEE 192130Z 03006MPS 360V060 9999 -SN BKN038 02/M03 Q1014 R06R/CLRD62 R06C/CLRD62 NOSIG,0,6.0,0,10000,0,0,0,SN
2026-04-19 21:00:00,METAR UUEE 192100Z 01005MPS 330V070 9999 SCT049 02/M04 Q1014 R06R/CLRD62 R06C/CLRD62 NOSIG,0,5.0,0,10000,0,0,0,
2026-04-19 20:30:00,METAR UUEE 192030Z 35005MPS CAVOK 02/M04 Q1014 R06R/CLRD62 R06C/CLRD62 NOSIG,1,0.0,0,9999,0,0,0,
2026-04-19 20:00:00,METAR UUEE 192000Z 36004G09MPS 320V050 CAVOK 02/M03 Q1014 R06R/CLRD62 R06C/CLRD62 NOSIG,1,0.0,0,9999,0,0,0,
2026-04-19 19:30:00,METAR UUEE 191930Z 35004MPS CAVOK 02/M03 Q1014 R06R/CLRD62 R06C/CLRD62 NOSIG,1,0.0,0,9999,0,0,0,
2026-04-19 19:00:00,METAR UUEE 191900Z 35004MPS CAVOK 03/M03 Q1015 R06R/CLRD62 R06C/CLRD62 NOSIG,1,0.0,0,9999,0,0,0,
2026-04-19 18:30:00,METAR UUEE 191830Z 01004G09MPS 9999 BKN035 03/M03 Q1015 R06R/CLRD62 R06C/CLRD62 NOSIG,0,4.0,1,10000,0,0,0,
2026-04-19 18:00:00,METAR UUEE 191800Z 01005MPS 9999 BKN035 03/M04 Q1015 R06R/CLRD62 R06C/CLRD62 NOSIG,0,5.0,0,10000,0,0,0,
2026-04-19 17:30:00,METAR UUEE 191730Z 01005MPS 350V050 9999 BKN049 03/M04 Q1015 R06R/CLRD62 R06C/CLRD62 NOSIG,0,5.0,0,10000,0,0,0,
2026-04-19 17:00:00,METAR UUEE 191700Z 01005G10MPS 9999 BKN046 03/M04 Q1015 R06R/CLRD62 R06C/CLRD62 NOSIG,0,5.0,1,10000,0,0,0,
2026-04-19 16:30:00,METAR UUEE 191630Z 02006MPS 340V050 9999 BKN043 03/M04 Q1015 R06R/CLRD62 R06C/CLRD62 NOSIG,0,6.0,0,10000,0,0,0,
2026-04-19 16:00:00,METAR UUEE 191600Z 03007MPS 9999 BKN044 04/M06 Q1015 R06R/CLRD62 R06C/CLRD62 NOSIG,0,7.0,0,10000,0,0,0,
2026-04-19 15:30:00,METAR UUEE 191530Z 04007MPS 9999 SCT035 04/M05 Q1015 R06R/CLRD62 R06C/CLRD62 NOSIG,0,7.0,0,10000,0,0,0,
2026-04-19 15:00:00,METAR UUEE 191500Z 04006MPS 360V090 9999 SCT047 04/M05 Q1015 R06R/CLRD62 R06C/CLRD62 NOSIG,0,6.0,0,10000,0,0,0,
2026-04-19 14:30:00,METAR UUEE 191430Z 04005MPS 9999 BKN040 04/M04 Q1015 R06R/CLRD62 R06C/CLRD62 NOSIG,0,5.0,0,10000,0,0,0,
2026-04-19 14:00:00,METAR UUEE 191400Z 03006MPS 360V060 9999 BKN038 04/M04 Q1015 R06R/CLRD62 R06C/CLRD62 NOSIG,0,6.0,0,10000,0,0,0,
2026-04-19 13:30:00,METAR UUEE 191330Z 36005G10MPS 330V030 9999 BKN038 04/M05 Q1015 R06R/CLRD62 R06C/CLRD62 NOSIG,0,5.0,1,10000,0,0,0,
2026-04-19 13:00:00,METAR UUEE 191300Z 36006MPS 9999 BKN048 04/M05 Q1015 R06R/CLRD62 R06C/CLRD62 NOSIG,0,6.0,0,10000,0,0,0,
2026-04-19 12:30:00,METAR UUEE 191230Z 01005MPS 330V040 9999 BKN037 04/M04 Q1015 R06R/CLRD62 R06C/CLRD62 NOSIG,0,5.0,0,10000,0,0,0,
2026-04-19 12:00:00,METAR UUEE 191200Z 35007MPS 9999 BKN041 04/M04 Q1015 R06R/CLRD62 R06C/CLRD62 NOSIG,0,7.0,0,10000,0,0,0,
2026-04-19 11:30:00,METAR UUEE 191130Z 01006MPS 340V040 9999 BKN039 04/M05 Q1015 R06R/CLRD62 R06C/CLRD62 NOSIG,0,6.0,0,10000,0,0,0,
2026-04-19 11:00:00,METAR UUEE 191100Z 02007MPS 350V050 9999 BKN040 04/M04 Q1015 R06R/CLRD62 R06C/CLRD62 NOSIG,0,7.0,0,10000,0,0,0,
2026-04-19 10:30:00,METAR UUEE 191030Z 03006MPS 9999 BKN039 04/M05 Q1015 R06R/CLRD62 R06C/CLRD62 NOSIG,0,6.0,0,10000,0,0,0,
2026-04-19 10:00:00,METAR UUEE 191000Z 02005G13MPS 350V080 9999 BKN036 04/M05 Q1015 R06R/CLRD62 R06C/CLRD62 NOSIG,0,5.0,1,10000,0,0,0,
2026-04-19 09:30:00,METAR UUEE 190930Z 02006MPS 9999 BKN032 04/M04 Q1015 R06R/CLRD62 R06C/CLRD62 NOSIG,0,6.0,0,10000,0,0,0,
2026-04-19 09:00:00,METAR UUEE 190900Z 01007MPS 330V040 9999 BKN026 03/M03 Q1015 R06R/CLRD62 R06C/CLRD62 NOSIG,0,7.0,0,10000,0,0,0,
2026-04-19 08:30:00,METAR UUEE 190830Z 01007MPS 9999 BKN027 03/M03 Q1015 R06R/CLRD62 NOSIG,0,7.0,0,10000,0,0,0,
2026-04-19 08:00:00,METAR UUEE 190800Z 36007MPS 9999 BKN032 03/M03 Q1015 R06R/CLRD62 R06C/CLRD62 NOSIG,0,7.0,0,10000,0,0,0,
2026-04-19 07:30:00,METAR UUEE 190730Z 02006MPS 9999 BKN037 04/M03 Q1015 R06R/CLRD62 R06C/CLRD62 NOSIG,0,6.0,0,10000,0,0,0,
2026-04-19 07:00:00,METAR UUEE 190700Z 01006G11MPS 330V070 9999 BKN029 04/M03 Q1015 R06R/CLRD62 R06C/CLRD62 NOSIG,0,6.0,1,10000,0,0,0,
2026-04-19 06:30:00,METAR UUEE 190630Z 36007MPS 9999 SCT028 03/M03 Q1014 R06R/CLRD62 R06C/CLRD62 NOSIG,0,7.0,0,10000,0,0,0,
2026-04-19 06:00:00,METAR UUEE 190600Z 03007MPS 350V060 9999 SCT032 04/M03 Q1014 R06R/CLRD62 R06C/CLRD62 NOSIG,0,7.0,0,10000,0,0,0,
2026-04-19 05:30:00,METAR UUEE 190530Z 01006G11MPS 9999 FEW026 03/M03 Q1014 R06R/CLRD62 R06C/CLRD62 NOSIG,0,6.0,1,10000,0,0,0,
2026-04-19 05:00:00,METAR UUEE 190500Z 02007MPS 330V060 CAVOK 03/M02 Q1014 R06R/290145 R06C/290145 NOSIG,1,0.0,0,9999,0,0,0,
2026-04-19 04:30:00,METAR UUEE 190430Z 03006MPS 360V060 CAVOK 03/M02 Q1014 R06R/290145 R06C/290145 NOSIG,1,0.0,0,9999,0,0,0,
2026-04-19 04:00:00,METAR UUEE 190400Z 02005MPS CAVOK 02/M02 Q1014 R06R/290145 R06C/290145 NOSIG,1,0.0,0,9999,0,0,0,
2026-04-19 03:30:00,METAR UUEE 190330Z 02006MPS 9999 FEW039 02/M02 Q1014 R06R/290145 R06C/290145 NOSIG,0,6.0,0,10000,0,0,0,
2026-04-19 03:00:00,METAR UUEE 190300Z 02006MPS 9999 BKN045 02/M01 Q1014 R06R/290145 R06C/290145 NOSIG,0,6.0,0,10000,0,0,0,
2026-04-19 02:30:00,METAR UUEE 190230Z 01005MPS 9999 BKN044 02/M02 Q1014 R06R/290145 R06C/290145 NOSIG,0,5.0,0,10000,0,0,0,
2026-04-19 02:00:00,METAR UUEE 190200Z 01005MPS 9999 SCT042 02/M02 Q1014 R06R/290145 R06C/290145 NOSIG,0,5.0,0,10000,0,0,0,
2026-04-19 01:30:00,METAR UUEE 190130Z 01006MPS CAVOK 02/M01 Q1014 R06R/290145 R06C/290145 NOSIG,1,0.0,0,9999,0,0,0,
2026-04-19 01:00:00,METAR UUEE 190100Z 36005MPS CAVOK 02/M01 Q1014 R06R/290145 R06C/290145 NOSIG,1,0.0,0,9999,0,0,0,
2026-04-19 00:30:00,METAR UUEE 190030Z 36004MPS 9999 OVC042 02/M01 Q1014 R06R/290145 R06C/290145 NOSIG,0,4.0,0,10000,0,0,0,
2026-04-19 00:00:00,METAR UUEE 190000Z 35004MPS 9999 OVC042 02/M00 Q1014 R06R/290145 R06C/290145 NOSIG,0,4.0,0,10000,0,0,0,
2026-04-18 23:30:00,METAR UUEE 182330Z 01004G11MPS 9999 SCT037 03/M00 Q1014 R06R/290145 R06C/290145 NOSIG,0,4.0,1,10000,0,0,0,
2026-04-18 23:00:00,METAR UUEE 182300Z 36006MPS CAVOK 02/00 Q1014 R06R/290145 R06C/290145 NOSIG,1,0.0,0,9999,0,0,0,
2026-04-18 22:30:00,METAR UUEE 182230Z 36006MPS CAVOK 03/01 Q1014 R06R/290145 R06C/290145 NOSIG,1,0.0,0,9999,0,0,0,
2026-04-18 22:00:00,METAR UUEE 182200Z 35005MPS 280V020 9999 FEW027 03/01 Q1014 R06R/290145 R06C/290145 NOSIG,0,5.0,0,10000,0,0,0,
2026-04-18 21:30:00,METAR UUEE 182130Z 34004MPS 9999 -RA NSC 03/01 Q1014 R06R/290145 R06C/290145 NOSIG,0,4.0,0,10000,0,0,0,-RA
2026-04-18 21:00:00,METAR UUEE 182100Z 35003G08MPS 320V110 9999 -RA NSC 03/02 Q1014 R06R/290145 R06C/290145 NOSIG,0,3.0,1,10000,0,0,0,-RA
2026-04-18 20:30:00,METAR UUEE 182030Z 35004MPS 320V020 9999 -RA BKN012 03/02 Q1014 R06R/290145 R06C/290145 NOSIG,0,4.0,0,10000,0,0,0,-RA
2026-04-18 20:00:00,METAR UUEE 182000Z 36004G10MPS 330V080 9999 -RA BKN011 03/02 Q1014 R06R/290145 R06C/290145 NOSIG,0,4.0,1,10000,0,0,0,-RA
2026-04-18 19:30:00,METAR UUEE 181930Z 36005MPS 9999 -RA BKN011 03/02 Q1014 R06R/290145 R06C/290145 NOSIG,0,5.0,0,10000,0,0,0,-RA
2026-04-18 19:02:00,SPECI UUEE 181902Z 35005MPS 9999 -RA BKN012 03/02 Q1014 R06R/290145 R06C/290145 NOSIG,0,5.0,0,10000,0,0,0,-RA
2026-04-18 19:00:00,METAR UUEE 181900Z 35005MPS 320V030 9999 -RA SCT010 OVC031 03/02 Q1014 R06R/290145 R06C/290145 NOSIG,0,5.0,0,10000,0,0,0,-RA
2026-04-18 18:30:00,METAR UUEE 181830Z 35005MPS 9999 -RA SCT008 OVC023 03/02 Q1014 R06R/290145 R06C/290145 NOSIG,0,5.0,0,10000,0,0,0,-RA
2026-04-18 18:00:00,METAR UUEE 181800Z 35005G10MPS 330V030 9999 -RA SCT008 OVC023 03/02 Q1014 R06R/290145 R06C/290145 NOSIG,0,5.0,1,10000,0,0,0,-RA
2026-04-18 17:30:00,METAR UUEE 181730Z 35006MPS 330V040 9999 -RA SCT009 OVC022 03/02 Q1014 R06R/290145 R06C/290145 NOSIG,0,6.0,0,10000,0,0,0,-RA
2026-04-18 17:00:00,METAR UUEE 181700Z 36006MPS 9999 -RA SCT009 OVC023 04/02 Q1014 R06R/290145 R06C/290145 NOSIG,0,6.0,0,10000,0,0,0,-RA
2026-04-18 16:54:00,SPECI UUEE 181654Z 36007MPS 9999 -RA SCT010 OVC019 04/02 Q1014 R06R/290145 R06C/290145 NOSIG,0,7.0,0,10000,0,0,0,-RA
2026-04-18 16:30:00,METAR UUEE 181630Z 36007MPS 330V030 9999 -SHRA SCT008 BKN022CB 04/02 Q1013 R06R/290145 R06C/290145 NOSIG,0,7.0,0,10000,0,0,0,RA
2026-04-18 16:01:00,SPECI UUEE 181601Z 35006MPS 330V040 9999 -RA BKN010 04/03 Q1013 R06R/290145 R06C/290145 NOSIG,0,6.0,0,10000,0,0,0,-RA
2026-04-18 16:00:00,METAR UUEE 181600Z 01005G10MPS 330V050 9999 -RA SCT009 OVC029 04/03 Q1013 R06R/290145 R06C/290145 NOSIG,0,5.0,1,10000,0,0,0,-RA
2026-04-18 15:00:00,METAR UUEE 181500Z 01007G12MPS 340V040 9999 -RA SCT009 OVC031 05/03 Q1013 R06R/290145 R06C/290145 NOSIG,0,7.0,1,10000,0,0,0,-RA
2026-04-18 14:30:00,METAR UUEE 181430Z 36006G12MPS 330V030 9999 -RA SCT010 OVC026 05/03 Q1013 R06R/290145 R06C/290145 NOSIG,0,6.0,1,10000,0,0,0,-RA
2026-04-18 14:29:00,SPECI UUEE 181429Z 36006G12MPS 330V030 9999 -RA SCT010 OVC026 05/03 Q1013 R06R/290145 R06C/290145 NOSIG,0,6.0,1,10000,0,0,0,-RA
2026-04-18 14:00:00,METAR UUEE 181400Z 36006G11MPS 330V050 9999 -RA BKN009 OVC018 05/04 Q1012 R06R/290145 R06C/290145 NOSIG,0,6.0,1,10000,0,0,0,-RA
2026-04-18 13:30:00,METAR UUEE 181330Z 03005G10MPS 350V060 9999 BKN009 06/03 Q1012 R06R/290145 R06C/290145 NOSIG,0,5.0,1,10000,0,0,0,
2026-04-18 13:00:00,METAR UUEE 181300Z 36007MPS 330V040 9999 BKN008 OVC017 05/04 Q1012 R06R/290145 R06C/290145 NOSIG,0,7.0,0,10000,0,0,0,
2026-04-18 12:30:00,METAR UUEE 181230Z 36007MPS 330V030 9999 -DZ OVC008 05/04 Q1012 R06R/290145 R06C/290145 NOSIG,0,7.0,0,10000,0,0,0,DZ
2026-04-18 12:14:00,SPECI UUEE 181214Z 01007G13MPS 9999 -DZ OVC007 05/04 Q1012 R06R/290145 R06C/290145 NOSIG,0,7.0,1,10000,0,0,0,DZ
2026-04-18 12:00:00,METAR UUEE 181200Z 01005G10MPS 330V060 9999 -RA SCT008 OVC030 06/04 Q1012 R06R/290145 R06C/290145 NOSIG,0,5.0,1,10000,0,0,0,-RA
2026-04-18 11:30:00,METAR UUEE 181130Z 36006MPS 320V030 9999 -RA SCT010 OVC030 06/04 Q1012 R06R/290145 R06C/290145 NOSIG,0,6.0,0,10000,0,0,0,-RA
2026-04-18 11:00:00,METAR UUEE 181100Z 36006G12MPS 330V030 9999 -RA SCT010 OVC030 06/04 Q1011 R06R/290145 R06C/290145 NOSIG,0,6.0,1,10000,0,0,0,-RA
2026-04-18 10:30:00,METAR UUEE 181030Z 01007MPS 340V040 9999 -RA SCT010 OVC046 06/05 Q1011 R06R/290145 R06C/290145 NOSIG,0,7.0,0,10000,0,0,0,-RA
2026-04-18 10:00:00,METAR UUEE 181000Z 01006MPS 9999 -RA FEW008 OVC025 06/04 Q1011 R06R/290145 R06C/290145 NOSIG,0,6.0,0,10000,0,0,0,-RA
2026-04-18 09:30:00,METAR UUEE 180930Z 02006MPS 340V050 9999 -RA OVC013 06/04 Q1011 R06R/290145 R06C/290145 NOSIG,0,6.0,0,10000,0,0,0,-RA
2026-04-18 09:00:00,METAR UUEE 180900Z 01005MPS 340V060 9999 -RA SCT007 OVC023 06/04 Q1010 R06R/290145 R06C/290145 NOSIG,0,5.0,0,10000,0,0,0,-RA
2026-04-18 08:58:00,SPECI UUEE 180858Z 01005MPS 340V040 9999 -RA SCT009 OVC024 06/04 Q1010 R06R/290145 R06C/290145 NOSIG,0,5.0,0,10000,0,0,0,-RA
2026-04-18 08:30:00,METAR UUEE 180830Z 01006MPS 340V050 9999 BKN008 OVC021 07/04 Q1010 R06R/CLRD62 R06C/CLRD62 NOSIG,0,6.0,0,10000,0,0,0,
2026-04-18 08:00:00,METAR UUEE 180800Z 01005G11MPS 340V040 9999 BKN008 OVC021 07/04 Q1010 R24L/CLRD62 R24C/CLRD62 NOSIG,0,5.0,1,10000,0,0,0,
2026-04-18 07:30:00,METAR UUEE 180730Z 34004G09MPS 310V050 9000 OVC005 06/05 Q1010 R24L/CLRD62 R24C/CLRD62 NOSIG,0,4.0,1,9000,0,0,0,
2026-04-18 07:00:00,METAR UUEE 180700Z 34004G10MPS 9999 BKN003 07/05 Q1010 R24L/CLRD62 R24C/CLRD62 NOSIG,0,4.0,1,10000,0,0,0,
2026-04-18 06:55:00,SPECI UUEE 180655Z 33004G10MPS 250V020 9999 BKN003 07/05 Q1010 R24L/CLRD62 R24C/CLRD62 NOSIG,0,4.0,1,10000,0,0,0,
2026-04-18 06:30:00,METAR UUEE 180630Z 31003G10MPS 240V360 9999 SCT007 07/05 Q1010 R24L/CLRD62 R24C/CLRD62 NOSIG,0,3.0,1,10000,0,0,0,
2026-04-18 06:00:00,METAR UUEE 180600Z 31003G09MPS 270V350 9999 SCT006 08/05 Q1010 R24L/CLRD62 R24C/CLRD62 NOSIG,0,3.0,1,10000,0,0,0,
2026-04-18 05:44:00,SPECI UUEE 180544Z 32003G09MPS CAVOK 08/05 Q1010 R24L/CLRD62 R24C/CLRD62 NOSIG,1,0.0,0,9999,0,0,0,
2026-04-18 05:30:00,METAR UUEE 180530Z 32003G09MPS CAVOK 06/04 Q1010 R24L/CLRD62 R24C/CLRD62 NOSIG,1,0.0,0,9999,0,0,0,
2026-04-18 05:00:00,METAR UUEE 180500Z 29003MPS 260V320 CAVOK 05/03 Q1010 R24L/CLRD62 R24C/CLRD62 NOSIG,1,0.0,0,9999,0,0,0,
2026-04-18 04:30:00,METAR UUEE 180430Z 28003MPS CAVOK 05/03 Q1010 R24L/CLRD62 R24C/CLRD62 NOSIG,1,0.0,0,9999,0,0,0,
2026-04-18 04:00:00,METAR UUEE 180400Z 26002MPS CAVOK 04/02 Q1010 R24L/CLRD62 R24C/CLRD62 NOSIG,1,0.0,0,9999,0,0,0,
2026-04-18 03:30:00,METAR UUEE 180330Z 25003MPS CAVOK 03/02 Q1010 R24L/CLRD62 R24C/CLRD62 NOSIG,1,0.0,0,9999,0,0,0,
2026-04-18 03:00:00,METAR UUEE 180300Z VRB01MPS CAVOK 04/02 Q1010 R24C/CLRD62 NOSIG,1,0.0,0,9999,0,0,0,
2026-04-18 02:30:00,METAR UUEE 180230Z 26002MPS 240V300 CAVOK 04/02 Q1010 R24C/CLRD62 NOSIG,1,0.0,0,9999,0,0,0,
2026-04-18 02:00:00,METAR UUEE 180200Z 28002MPS CAVOK 05/03 Q1010 R24C/CLRD62 NOSIG,1,0.0,0,9999,0,0,0,
2026-04-18 01:30:00,METAR UUEE 180130Z 31001MPS CAVOK 04/02 Q1011 R24C/CLRD62 NOSIG,1,0.0,0,9999,0,0,0,
2026-04-18 01:00:00,METAR UUEE 180100Z 23001MPS CAVOK 04/02 Q1011 R24C/CLRD62 NOSIG,1,0.0,0,9999,0,0,0,
2026-04-18 00:30:00,METAR UUEE 180030Z VRB01MPS CAVOK 05/02 Q1011 R24C/CLRD62 NOSIG,1,0.0,0,9999,0,0,0,
2026-04-18 00:00:00,METAR UUEE 180000Z 22002MPS CAVOK 04/02 Q1011 R24C/CLRD62 NOSIG,1,0.0,0,9999,0,0,0,
2026-04-17 23:30:00,METAR UUEE 172330Z 26002MPS CAVOK 05/02 Q1011 R24C/CLRD62 NOSIG,1,0.0,0,9999,0,0,0,
2026-04-17 23:00:00,METAR UUEE 172300Z VRB01MPS CAVOK 06/02 Q1011 R24C/CLRD62 NOSIG,1,0.0,0,9999,0,0,0,
2026-04-17 22:30:00,METAR UUEE 172230Z 27003MPS 230V340 CAVOK 06/03 Q1012 R24C/CLRD62 NOSIG,1,0.0,0,9999,0,0,0,
2026-04-17 22:00:00,METAR UUEE 172200Z 25002MPS 210V320 CAVOK 06/02 Q1012 R24C/CLRD62 NOSIG,1,0.0,0,9999,0,0,0,
2026-04-17 21:30:00,METAR UUEE 172130Z 27003G10MPS 220V330 CAVOK 06/03 Q1012 R24L/CLRD62 R24C/CLRD62 NOSIG,1,0.0,0,9999,0,0,0,
2026-04-17 21:00:00,METAR UUEE 172100Z 25002MPS CAVOK 07/03 Q1012 R24L/CLRD62 R24C/CLRD62 NOSIG,1,0.0,0,9999,0,0,0,
2026-04-17 20:30:00,METAR UUEE 172030Z 24002MPS 230V290 CAVOK 07/03 Q1012 R24L/CLRD62 R24C/CLRD62 NOSIG,1,0.0,0,9999,0,0,0,
2026-04-17 20:00:00,METAR UUEE 172000Z VRB01MPS CAVOK 07/03 Q1012 R24L/CLRD62 R24C/CLRD62 NOSIG,1,0.0,0,9999,0,0,0,
2026-04-17 19:30:00,METAR UUEE 171930Z 22002MPS 200V280 CAVOK 07/02 Q1012 R24L/CLRD62 R24C/CLRD62 NOSIG,1,0.0,0,9999,0,0,0,
2026-04-17 19:00:00,METAR UUEE 171900Z 20002MPS 170V230 CAVOK 08/02 Q1012 R24L/CLRD62 R24C/CLRD62 NOSIG,1,0.0,0,9999,0,0,0,
2026-04-17 18:30:00,METAR UUEE 171830Z 24002MPS CAVOK 10/02 Q1012 R24L/CLRD62 R24C/CLRD62 NOSIG,1,0.0,0,9999,0,0,0,
2026-04-17 18:00:00,METAR UUEE 171800Z 20002MPS 170V240 CAVOK 09/02 Q1012 R24L/CLRD62 R24C/CLRD62 NOSIG,1,0.0,0,9999,0,0,0,
2026-04-17 17:30:00,METAR UUEE 171730Z 21003MPS CAVOK 10/02 Q1012 R24L/CLRD62 R24C/CLRD62 NOSIG,1,0.0,0,9999,0,0,0,
2026-04-17 17:00:00,METAR UUEE 171700Z 20003MPS CAVOK 10/02 Q1012 R24L/CLRD62 R24C/CLRD62 NOSIG,1,0.0,0,9999,0,0,0,
2026-04-17 16:30:00,METAR UUEE 171630Z 21003MPS 190V250 CAVOK 10/03 Q1012 R24L/CLRD62 R24C/CLRD62 NOSIG,1,0.0,0,9999,0,0,0,
2026-04-17 16:00:00,METAR UUEE 171600Z 23002MPS CAVOK 10/03 Q1012 R24L/CLRD62 R24C/CLRD62 NOSIG,1,0.0,0,9999,0,0,0,
2026-04-17 15:30:00,METAR UUEE 171530Z 25003MPS CAVOK 11/03 Q1012 R24L/CLRD62 R24C/CLRD62 NOSIG,1,0.0,0,9999,0,0,0,
2026-04-17 15:00:00,METAR UUEE 171500Z 24003MPS CAVOK 11/03 Q1013 R24L/CLRD62 R24C/CLRD62 NOSIG,1,0.0,0,9999,0,0,0,
2026-04-17 14:30:00,METAR UUEE 171430Z 24004MPS CAVOK 11/04 Q1013 R24L/CLRD62 R24C/CLRD62 NOSIG,1,0.0,0,9999,0,0,0,
2026-04-17 14:00:00,METAR UUEE 171400Z 27004MPS CAVOK 11/03 Q1013 R24L/CLRD62 R24C/CLRD62 NOSIG,1,0.0,0,9999,0,0,0,
2026-04-17 13:30:00,METAR UUEE 171330Z 21005MPS CAVOK 11/02 Q1013 R24L/CLRD62 R24C/CLRD62 NOSIG,1,0.0,0,9999,0,0,0,
2026-04-17 13:00:00,METAR UUEE 171300Z 21005MPS 9999 SCT040 12/02 Q1013 R24L/CLRD62 R24C/CLRD62 NOSIG,0,5.0,0,10000,0,0,0,
2026-04-17 12:30:00,METAR UUEE 171230Z 20004MPS 170V250 9999 SCT040TCU 12/03 Q1013 R24L/290145 R24C/290145 NOSIG,0,4.0,0,10000,0,0,0,
2026-04-17 12:00:00,METAR UUEE 171200Z 19004MPS 160V220 9999 SCT038TCU 11/03 Q1013 R24L/290145 R24C/290145 NOSIG,0,4.0,0,10000,0,0,0,
2026-04-17 11:30:00,METAR UUEE 171130Z 20004MPS 9999 SCT028TCU 10/04 Q1014 R24L/290145 R24C/290145 NOSIG,0,4.0,0,10000,0,0,0,
2026-04-17 11:00:00,METAR UUEE 171100Z 23003MPS 200V280 9999 SCT030TCU 10/06 Q1014 R24L/290145 R24C/290145 NOSIG,0,3.0,0,10000,0,0,0,
2026-04-17 10:30:00,METAR UUEE 171030Z 23005MPS 9999 BKN016CB 09/06 Q1014 R24L/290145 R24C/290145 NOSIG,0,5.0,0,10000,0,0,0,
2026-04-17 10:00:00,METAR UUEE 171000Z 24004MPS 9999 FEW012 BKN022CB 09/06 Q1014 R24L/290145 R24C/290145 NOSIG,0,4.0,0,10000,0,0,0,
2026-04-17 09:30:00,METAR UUEE 170930Z 24003MPS 200V270 9999 FEW007 09/07 Q1013 R24L/290145 R24C/290145 NOSIG,0,3.0,0,10000,0,0,0,
2026-04-17 09:00:00,METAR UUEE 170900Z 22005MPS 9000 -SHRA SCT011 BKN027CB 08/06 Q1014 R24L/290145 R24C/290145 NOSIG,0,5.0,0,9000,0,0,0,RA
2026-04-17 08:56:00,SPECI UUEE 170856Z 21005MPS 9000 -SHRA SCT011 BKN032CB 08/06 Q1014 R24L/290145 R24C/290145 NOSIG,0,5.0,0,9000,0,0,0,RA
2026-04-17 08:30:00,METAR UUEE 170830Z 24003MPS 9999 -RA BKN011 09/05 Q1013 R24L/290145 R24C/290145 NOSIG,0,3.0,0,10000,0,0,0,-RA
2026-04-17 08:00:00,METAR UUEE 170800Z 22004MPS 9999 -RA BKN014 10/06 Q1013 R24L/CLRD62 R24C/CLRD62 NOSIG,0,4.0,0,10000,0,0,0,-RA
2026-04-17 07:30:00,METAR UUEE 170730Z 18003MPS 130V210 9999 -RA NSC 10/05 Q1013 R24L/CLRD62 R24C/CLRD62 NOSIG,0,3.0,0,10000,0,0,0,-RA
2026-04-17 07:00:00,METAR UUEE 170700Z 21004MPS 180V240 CAVOK 10/05 Q1013 R24L/CLRD62 R24C/CLRD62 NOSIG,1,0.0,0,9999,0,0,0,
2026-04-17 06:30:00,METAR UUEE 170630Z 23005MPS CAVOK 10/05 Q1013 R24L/CLRD62 R24C/CLRD62 NOSIG,1,0.0,0,9999,0,0,0,
2026-04-17 06:00:00,METAR UUEE 170600Z 20004MPS 160V220 CAVOK 10/05 Q1013 R24L/CLRD62 R24C/CLRD62 NOSIG,1,0.0,0,9999,0,0,0,
2026-04-17 05:30:00,METAR UUEE 170530Z 11003MPS 080V150 CAVOK 10/06 Q1014 R24L/CLRD62 R24C/CLRD62 NOSIG,1,0.0,0,9999,0,0,0,
2026-04-17 05:00:00,METAR UUEE 170500Z 09004MPS CAVOK 09/06 Q1014 R24L/CLRD62 R24C/CLRD62 NOSIG,1,0.0,0,9999,0,0,0,
2026-04-17 04:30:00,METAR UUEE 170430Z 08004MPS CAVOK 08/06 Q1014 R24L/CLRD62 R24C/CLRD62 NOSIG,1,0.0,0,9999,0,0,0,
2026-04-17 04:00:00,METAR UUEE 170400Z 10003MPS CAVOK 07/05 Q1014 R24L/CLRD62 R24C/CLRD62 NOSIG,1,0.0,0,9999,0,0,0,
2026-04-17 03:30:00,METAR UUEE 170330Z 10003MPS 9000 NSC 06/05 Q1014 R24L/CLRD62 R24C/CLRD62 NOSIG,0,3.0,0,9000,0,0,0,
2026-04-17 03:24:00,SPECI UUEE 170324Z 09003MPS 9000 3900NW BR NSC 06/05 Q1014 R24L/CLRD62 R24C/CLRD62 NOSIG,0,3.0,0,9000,0,0,1,BR
2026-04-17 03:00:00,METAR UUEE 170300Z 07002MPS 6000 0800NW PRFG NSC 04/03 Q1014 R24L/CLRD62 R24C/CLRD62 NOSIG,0,2.0,0,6000,0,0,1,FG
2026-04-17 02:30:00,METAR UUEE 170230Z 11002MPS 6000 0100NW PRFG NSC 04/03 Q1015 R24L/CLRD62 R24C/CLRD62 TEMPO 0300 FG OVC002,0,2.0,0,6000,0,0,1,FG
2026-04-17 02:20:00,SPECI UUEE 170220Z 09002MPS 6000 0150NW PRFG NSC 04/03 Q1015 R24L/CLRD62 R24C/CLRD62 TEMPO 0300 FG OVC002,0,2.0,0,6000,0,0,1,FG
2026-04-17 02:06:00,SPECI UUEE 170206Z 08002MPS 4700 0700NW PRFG NSC 03/02 Q1015 R24L/CLRD62 R24C/CLRD62 TEMPO 0300 FG OVC002,0,2.0,0,4700,0,0,1,FG
2026-04-17 02:00:00,METAR UUEE 170200Z 10002MPS 7000 0400NW PRFG NSC 03/02 Q1015 R24L/CLRD62 R24C/CLRD62 TEMPO 0300 FG OVC002,0,2.0,0,7000,0,0,1,FG
2026-04-17 01:30:00,METAR UUEE 170130Z 33001MPS 7000 0550NW PRFG NSC 05/05 Q1015 R24L/CLRD62 R24C/CLRD62 TEMPO 0300 FG OVC002,0,1.0,0,7000,0,0,1,FG
2026-04-17 01:25:00,SPECI UUEE 170125Z 09001MPS 6000 0650NW PRFG NSC 05/04 Q1015 R24L/CLRD62 R24C/CLRD62 TEMPO 0300 FG OVC002,0,1.0,0,6000,0,0,1,FG
2026-04-17 01:05:00,SPECI UUEE 170105Z 00000MPS 4600 0250NW PRFG NSC 04/04 Q1015 R24L/CLRD62 R24C/CLRD62 TEMPO 0300 FG OVC002,0,0.0,0,4600,0,0,1,FG
2026-04-17 01:00:00,METAR UUEE 170100Z 00000MPS 7000 0450NW PRFG NSC 05/04 Q1015 R24L/CLRD62 R24C/CLRD62 TEMPO 0300 FG OVC002,0,0.0,0,7000,0,0,1,FG
2026-04-17 00:41:00,SPECI UUEE 170041Z 00000MPS 6000 0150NW PRFG NSC 05/05 Q1015 R24L/CLRD62 R24C/CLRD62 TEMPO 0300 FG OVC002,0,0.0,0,6000,0,0,1,FG
2026-04-17 00:30:00,METAR UUEE 170030Z 09001MPS 4800 0100NW PRFG NSC 05/04 Q1015 R24L/CLRD62 R24C/CLRD62 NOSIG,0,1.0,0,4800,0,0,1,FG
2026-04-17 00:17:00,SPECI UUEE 170017Z 10001MPS 0750 0150NW FG NSC 04/03 Q1016 R24L/CLRD62 R24C/CLRD62 TEMPO 0300 FG BKN001,0,1.0,0,1206750,0,0,1,FG
2026-04-17 00:05:00,SPECI UUEE 170005Z 00000MPS 2600 0150NW PRFG NSC 06/05 Q1016 R24L/CLRD62 R24C/CLRD62 TEMPO 0300 FG BKN001,0,0.0,0,2600,0,0,1,FG
2026-04-17 00:00:00,METAR UUEE 170000Z 21001MPS 3800 0200NW PRFG NSC 06/05 Q1016 R24L/CLRD62 R24C/CLRD62 TEMPO 0300 FG BKN001,0,1.0,0,3800,0,0,1,FG
2026-04-16 23:54:00,SPECI UUEE 162354Z 21001MPS 4900 0150NW PRFG NSC 06/05 Q1016 R24L/CLRD62 R24C/CLRD62 TEMPO 0300 FG BKN001,0,1.0,0,4900,0,0,1,FG
2026-04-16 23:30:00,METAR UUEE 162330Z 21001MPS 6000 0600NW PRFG NSC 07/05 Q1016 R24L/CLRD62 R24C/CLRD62 TEMPO 0300 FG BKN001,0,1.0,0,6000,0,0,1,FG
2026-04-16 23:00:00,METAR UUEE 162300Z 20003MPS 9999 4000NW BR FEW003 08/06 Q1016 R24L/CLRD62 R24C/CLRD62 TEMPO 0300 FG BKN001,0,3.0,0,10000,0,0,1,"BR,FG"
2026-04-16 22:30:00,METAR UUEE 162230Z 20003MPS 9999 4400NW BR NSC 08/06 Q1016 R24L/CLRD62 R24C/CLRD62 TEMPO 1000 BR,0,3.0,0,10000,0,0,1,BR
2026-04-16 22:00:00,METAR UUEE 162200Z 20003MPS CAVOK 09/07 Q1016 R24L/CLRD62 R24C/CLRD62 NOSIG,1,0.0,0,9999,0,0,0,
2026-04-16 21:30:00,METAR UUEE 162130Z VRB01MPS CAVOK 09/06 Q1016 R24L/CLRD62 R24C/CLRD62 NOSIG,1,0.0,0,9999,0,0,0,
2026-04-16 21:00:00,METAR UUEE 162100Z VRB01MPS CAVOK 09/06 Q1016 R24L/CLRD62 R24C/CLRD62 NOSIG,1,0.0,0,9999,0,0,0,
2026-04-16 20:30:00,METAR UUEE 162030Z 15002MPS 120V190 CAVOK 09/06 Q1016 R24L/CLRD62 R24C/CLRD62 NOSIG,1,0.0,0,9999,0,0,0,
2026-04-16 20:00:00,METAR UUEE 162000Z 13002MPS 9999 BKN019 10/06 Q1016 R24L/220157 R24C/220157 NOSIG,0,2.0,0,10000,0,0,0,
2026-04-16 19:55:00,SPECI UUEE 161955Z 12002MPS 9999 BKN017 10/06 Q1016 R24L/220157 R24C/220157 NOSIG,0,2.0,0,10000,0,0,0,
2026-04-16 19:30:00,METAR UUEE 161930Z 07002MPS 050V120 9999 SCT020 08/06 Q1017 R24L/220157 R24C/220157 NOSIG,0,2.0,0,10000,0,0,0,
2026-04-16 19:00:00,METAR UUEE 161900Z 06001MPS 9999 SCT024 08/05 Q1017 R24L/220157 R24C/220157 NOSIG,0,1.0,0,10000,0,0,0,
2026-04-16 18:30:00,METAR UUEE 161830Z 00000MPS 9999 SCT022 09/06 Q1017 R24L/220157 R24C/220157 NOSIG,0,0.0,0,10000,0,0,0,
2026-04-16 18:00:00,METAR UUEE 161800Z 16002MPS 120V260 9999 SCT027 10/06 Q1017 R24L/220157 R24C/220157 NOSIG,0,2.0,0,10000,0,0,0,
2026-04-16 17:30:00,METAR UUEE 161730Z 15002MPS 9999 SCT025 10/06 Q1017 R24L/220157 R24C/220157 NOSIG,0,2.0,0,10000,0,0,0,
2026-04-16 17:00:00,METAR UUEE 161700Z 18002MPS 9999 SCT025 11/06 Q1017 R24L/290145 R24C/290145 NOSIG,0,2.0,0,10000,0,0,0,
2026-04-16 16:30:00,METAR UUEE 161630Z 15002MPS 9999 SCT028 11/05 Q1017 R24L/290145 R24C/290145 NOSIG,0,2.0,0,10000,0,0,0,
2026-04-16 16:00:00,METAR UUEE 161600Z 17003MPS 9999 SCT027 11/05 Q1017 R24L/290145 R24C/290145 NOSIG,0,3.0,0,10000,0,0,0,
2026-04-16 15:30:00,METAR UUEE 161530Z 15003MPS 9999 SCT046CB 11/06 Q1017 R24L/290145 R24C/290145 NOSIG,0,3.0,0,10000,0,0,0,
2026-04-16 15:00:00,METAR UUEE 161500Z 15003MPS 120V190 9999 SCT045 11/05 Q1018 R24L/290145 R24C/290145 NOSIG,0,3.0,0,10000,0,0,0,
2026-04-16 14:30:00,METAR UUEE 161430Z 16003MPS 9999 SCT034CB 11/05 Q1018 R24L/290145 R24C/290145 NOSIG,0,3.0,0,10000,0,0,0,
2026-04-16 14:00:00,METAR UUEE 161400Z 18004MPS 150V220 9000 -SHRA SCT038CB 12/06 Q1018 R24L/CLRD62 R24C/CLRD62 NOSIG,0,4.0,0,9000,0,0,0,RA
2026-04-16 13:30:00,METAR UUEE 161330Z 16004MPS 9999 SCT042 12/04 Q1018 R24L/CLRD62 R24C/CLRD62 NOSIG,0,4.0,0,10000,0,0,0,
2026-04-16 13:00:00,METAR UUEE 161300Z 17004MPS 140V210 9999 SCT040 13/04 Q1018 R24L/CLRD62 R24C/290145 NOSIG,0,4.0,0,10000,0,0,0,
2026-04-16 12:30:00,METAR UUEE 161230Z 20004MPS 170V230 9999 SCT033CB 13/04 Q1018 R24C/290145 NOSIG,0,4.0,0,10000,0,0,0,
2026-04-16 12:00:00,METAR UUEE 161200Z 18002MPS 150V220 CAVOK 13/05 Q1018 R24C/290145 NOSIG,1,0.0,0,9999,0,0,0,
2026-04-16 11:30:00,METAR UUEE 161130Z 21002MPS CAVOK 12/06 Q1018 R06R/290145 NOSIG,1,0.0,0,9999,0,0,0,
2026-04-16 11:00:00,METAR UUEE 161100Z 22003MPS 9999 BKN055CB 12/04 Q1018 R88/290145 NOSIG,0,3.0,0,10000,0,0,0,
2026-04-16 10:30:00,METAR UUEE 161030Z 19003MPS 9999 -SHRA BKN053CB 12/05 Q1018 R88/CLRD62 NOSIG,0,3.0,0,10000,0,0,0,RA
2026-04-16 10:00:00,METAR UUEE 161000Z 13003MPS 080V150 CAVOK 13/02 Q1018 R88/CLRD62 NOSIG,1,0.0,0,9999,0,0,0,
2026-04-16 09:30:00,METAR UUEE 160930Z 10003MPS 060V180 CAVOK 13/02 Q1018 R88/CLRD62 NOSIG,1,0.0,0,9999,0,0,0,
2026-04-16 09:00:00,METAR UUEE 160900Z 14002MPS 110V180 CAVOK 13/03 Q1019 R06R/CLRD62 R06C/CLRD62 NOSIG,1,0.0,0,9999,0,0,0,
2026-04-16 08:30:00,METAR UUEE 160830Z 15002MPS 080V190 CAVOK 12/03 Q1019 R06R/CLRD62 R06C/CLRD62 NOSIG,1,0.0,0,9999,0,0,0,
2026-04-16 08:00:00,METAR UUEE 160800Z 14002MPS 100V170 CAVOK 12/03 Q1019 R06R/CLRD62 R06C/CLRD62 NOSIG,1,0.0,0,9999,0,0,0,
2026-04-16 07:30:00,METAR UUEE 160730Z 15002MPS 120V190 CAVOK 12/03 Q1019 R06R/CLRD62 R06C/CLRD62 NOSIG,1,0.0,0,9999,0,0,0,
2026-04-16 07:00:00,METAR UUEE 160700Z 11003MPS CAVOK 11/03 Q1019 R06R/CLRD62 R06C/CLRD62 NOSIG,1,0.0,0,9999,0,0,0,
2026-04-16 06:30:00,METAR UUEE 160630Z 10004MPS CAVOK 10/03 Q1019 R06R/CLRD62 R06C/CLRD62 NOSIG,1,0.0,0,9999,0,0,0,
2026-04-16 06:00:00,METAR UUEE 160600Z 09004MPS CAVOK 10/03 Q1019 R06R/CLRD62 R06C/CLRD62 NOSIG,1,0.0,0,9999,0,0,0,
2026-04-16 05:30:00,METAR UUEE 160530Z 08004MPS CAVOK 09/02 Q1019 R06R/290145 R06C/290145 NOSIG,1,0.0,0,9999,0,0,0,
2026-04-16 05:00:00,METAR UUEE 160500Z 06004MPS 020V080 CAVOK 09/04 Q1019 R06R/290145 R06C/290145 NOSIG,1,0.0,0,9999,0,0,0,
2026-04-16 04:30:00,METAR UUEE 160430Z 10003MPS CAVOK 09/03 Q1019 R06R/290145 R06C/290145 NOSIG,1,0.0,0,9999,0,0,0,
2026-04-16 04:00:00,METAR UUEE 160400Z 08004MPS CAVOK 08/03 Q1019 R06R/290145 R06C/290145 NOSIG,1,0.0,0,9999,0,0,0,
2026-04-16 03:30:00,METAR UUEE 160330Z 07003MPS CAVOK 07/04 Q1019 R06R/290145 R06C/290145 NOSIG,1,0.0,0,9999,0,0,0,
2026-04-16 03:00:00,METAR UUEE 160300Z 07003MPS CAVOK 07/04 Q1020 R06R/290145 R06C/290145 NOSIG,1,0.0,0,9999,0,0,0,
2026-04-16 02:30:00,METAR UUEE 160230Z 07003MPS CAVOK 07/05 Q1019 R06R/290145 R06C/290145 NOSIG,1,0.0,0,9999,0,0,0,
2026-04-16 02:00:00,METAR UUEE 160200Z 07003MPS 9999 4300NW BR NSC 07/05 Q1020 R06C/290145 NOSIG,0,3.0,0,10000,0,0,1,BR
2026-04-16 01:30:00,METAR UUEE 160130Z 06004MPS 9999 4300NW BR NSC 07/06 Q1020 R06R/290145 R06C/290145 NOSIG,0,4.0,0,10000,0,0,1,BR
2026-04-16 01:00:00,METAR UUEE 160100Z 08003MPS 9000 0500NW PRFG NSC 07/06 Q1020 R06R/290145 R06C/290145 NOSIG,0,3.0,0,9000,0,0,1,FG
2026-04-16 00:47:00,SPECI UUEE 160047Z 08003MPS 5000 0500NW PRFG NSC 07/06 Q1020 R06R/290145 R06C/290145 NOSIG,0,3.0,0,5000,0,0,1,FG
2026-04-16 00:36:00,SPECI UUEE 160036Z 08003MPS 3100 0250SW R06R/0750D R06C/P2000D PRFG NSC 07/06 Q1020 R06R/290145 R06C/290145 NOSIG,0,3.0,0,3100,0,0,1,FG
2026-04-16 00:33:00,SPECI UUEE 160033Z 08003MPS 2900 0350NW PRFG NSC 07/06 Q1020 R06R/290145 R06C/290145 NOSIG,0,3.0,0,2900,0,0,1,FG
2026-04-16 00:30:00,METAR UUEE 160030Z 08003MPS 3700 0300NW R06R/P2000D PRFG NSC 07/06 Q1020 R06R/290145 R06C/290145 NOSIG,0,3.0,0,3700,0,0,1,FG
2026-04-16 00:27:00,SPECI UUEE 160027Z 08003MPS 4000 0250NW PRFG NSC 07/07 Q1020 R06R/290145 R06C/290145 NOSIG,0,3.0,0,4000,0,0,1,FG
2026-04-16 00:00:00,METAR UUEE 160000Z 08001MPS 2100 0750NW PRFG NSC 07/07 Q1020 R06R/290145 R06C/290145 NOSIG,0,1.0,0,2100,0,0,1,FG
2026-04-15 23:32:00,SPECI UUEE 152332Z 05002MPS 010V080 2800 BR NSC 07/07 Q1020 R06R/290145 R06C/290145 NOSIG,0,2.0,0,2800,0,0,1,BR
2026-04-15 23:30:00,METAR UUEE 152330Z 04002MPS 010V080 3800 1800NE BR NSC 08/07 Q1020 R06R/290145 R06C/290145 NOSIG,0,2.0,0,3800,0,0,1,BR
2026-04-15 23:25:00,SPECI UUEE 152325Z 03002MPS 010V080 3100 1000NW BR NSC 08/08 Q1020 R06R/290145 R06C/290145 NOSIG,0,2.0,0,3100,0,0,1,BR
2026-04-15 23:11:00,SPECI UUEE 152311Z 05001MPS 2800 0800NW PRFG FEW002 07/07 Q1020 R06R/290145 R06C/290145 NOSIG,0,1.0,0,2800,0,0,1,FG
2026-04-15 23:00:00,METAR UUEE 152300Z 23001MPS 7000 1800NW BR FEW002 08/07 Q1020 R06R/290145 R06C/290145 NOSIG,0,1.0,0,7000,0,0,1,BR
2026-04-15 22:48:00,SPECI UUEE 152248Z 25002MPS 5000 1100NW BR FEW001 08/08 Q1020 R06R/290145 R06C/290145 NOSIG RMK QBB050,0,2.0,0,5000,0,0,1,BR
2026-04-15 22:30:00,METAR UUEE 152230Z 25003MPS 0700 0200NW R06R/1900D R06C/P2000D FG FEW001 08/07 Q1020 R06R/290145 R06C/290145 NOSIG RMK QBB040,0,3.0,0,1126300,0,0,1,FG
2026-04-15 22:17:00,SPECI UUEE 152217Z 25002MPS 1300 0200NW PRFG FEW001 08/08 Q1020 R06R/290145 R06C/290145 NOSIG RMK QBB050,0,2.0,0,1300,0,0,1,FG
2026-04-15 22:10:00,SPECI UUEE 152210Z 24002MPS 2800 0150NW PRFG FEW001 08/07 Q1020 R06R/290145 R06C/290145 NOSIG RMK QBB040,0,2.0,0,2800,0,0,1,FG
2026-04-15 22:02:00,SPECI UUEE 152202Z 24001MPS 4900 0200NW PRFG NSC 08/07 Q1020 R06R/290145 R06C/290145 NOSIG,0,1.0,0,4900,0,0,1,FG
2026-04-15 22:00:00,METAR UUEE 152200Z VRB01MPS 5000 0200NW PRFG NSC 08/07 Q1020 R06R/290145 R06C/290145 NOSIG,0,1.0,0,5000,0,0,1,FG
2026-04-15 21:48:00,SPECI UUEE 152148Z 03002MPS 360V110 4900 0350NW PRFG NSC 08/06 Q1020 R06R/290145 R06C/290145 NOSIG,0,2.0,0,4900,0,0,1,FG
2026-04-15 21:30:00,METAR UUEE 152130Z 01003MPS 9000 0300NW PRFG NSC 10/08 Q1020 R06R/290145 R06C/290145 NOSIG,0,3.0,0,9000,0,0,1,FG
2026-04-15 21:00:00,METAR UUEE 152100Z 36002G07MPS 300V080 9999 0650NW PRFG NSC 10/08 Q1020 R06R/290145 R06C/290145 NOSIG,0,2.0,1,10000,0,0,1,FG
2026-04-15 20:30:00,METAR UUEE 152030Z 36002MPS CAVOK 10/08 Q1021 R06R/290145 R06C/290145 NOSIG,1,0.0,0,9999,0,0,0,
2026-04-15 20:00:00,METAR UUEE 152000Z 34002G08MPS 9000 2900NW BR NSC 10/09 Q1021 R06R/290145 R06C/290145 NOSIG,0,2.0,1,9000,0,0,1,BR
2026-04-15 19:30:00,METAR UUEE 151930Z 26002MPS 230V310 9999 3300NW BR NSC 09/08 Q1021 R06R/290145 R06C/290145 NOSIG,0,2.0,0,10000,0,0,1,BR
2026-04-15 19:00:00,METAR UUEE 151900Z 29002MPS 230V330 9000 NSC 10/08 Q1021 R06R/290145 R06C/290145 NOSIG,0,2.0,0,9000,0,0,0,
2026-04-15 18:30:00,METAR UUEE 151830Z 30001MPS CAVOK 10/09 Q1021 R06R/290145 R06C/290145 NOSIG,1,0.0,0,9999,0,0,0,
2026-04-15 18:00:00,METAR UUEE 151800Z 24002MPS 9000 NSC 10/08 Q1021 R06R/290145 R06C/290145 NOSIG,0,2.0,0,9000,0,0,0,
2026-04-15 17:30:00,METAR UUEE 151730Z VRB01MPS 9999 SCT053CB 11/08 Q1021 R06R/290145 R06C/290145 NOSIG,0,1.0,0,10000,0,0,0,
2026-04-15 17:00:00,METAR UUEE 151700Z 20002MPS 9000 -SHRA SCT043CB 10/08 Q1021 R06R/290145 R06C/290145 NOSIG,0,2.0,0,9000,0,0,0,RA
2026-04-15 16:30:00,METAR UUEE 151630Z 23002MPS 9000 -SHRA SCT049CB 10/08 Q1021 R06R/220157 R06C/220157 NOSIG,0,2.0,0,9000,0,0,0,RA
2026-04-15 16:00:00,METAR UUEE 151600Z 25003MPS 220V310 9999 BKN045 11/08 Q1021 R06R/220157 R06C/220157 NOSIG,0,3.0,0,10000,0,0,0,
2026-04-15 15:30:00,METAR UUEE 151530Z 25002MPS 9999 BKN042 11/08 Q1021 R06R/220157 R06C/220157 NOSIG,0,2.0,0,10000,0,0,0,
2026-04-15 15:00:00,METAR UUEE 151500Z 28001MPS 9999 OVC039 12/08 Q1021 R06R/220157 R06C/220157 NOSIG,0,1.0,0,10000,0,0,0,
2026-04-15 14:30:00,METAR UUEE 151430Z 25002MPS 9999 OVC041 11/08 Q1021 R06R/220157 R06C/220157 NOSIG,0,2.0,0,10000,0,0,0,
2026-04-15 14:00:00,METAR UUEE 151400Z 09002MPS 020V160 9999 BKN039 12/08 Q1021 R06R/250145 R06C/250145 NOSIG,0,2.0,0,10000,0,0,0,
2026-04-15 13:30:00,METAR UUEE 151330Z 05002MPS 350V090 9999 BKN038 12/08 Q1021 R06R/250145 R06C/290145 NOSIG,0,2.0,0,10000,0,0,0,
2026-04-15 13:00:00,METAR UUEE 151300Z 02002MPS 340V060 9999 BKN036 11/07 Q1021 R06R/250145 R06C/290145 NOSIG,0,2.0,0,10000,0,0,0,
2026-04-15 12:30:00,METAR UUEE 151230Z 03002MPS 9999 BKN035CB 11/07 Q1021 R06R/290145 R06C/290145 NOSIG,0,2.0,0,10000,0,0,0,
2026-04-15 12:00:00,METAR UUEE 151200Z 00000MPS 9999 -SHRA BKN033CB 10/06 Q1021 R06R/290145 R06C/290145 NOSIG,0,0.0,0,10000,0,0,0,RA
2026-04-15 11:30:00,METAR UUEE 151130Z 08002MPS 9999 BKN027 10/07 Q1021 R06R/290145 R06C/290145 NOSIG,0,2.0,0,10000,0,0,0,
2026-04-15 11:00:00,METAR UUEE 151100Z 09002MPS 9999 BKN025 09/06 Q1021 R06R/290145 R06C/290145 NOSIG,0,2.0,0,10000,0,0,0,
2026-04-15 10:30:00,METAR UUEE 151030Z 07003MPS 9999 BKN022 09/06 Q1021 R06R/290345 R06C/290345 NOSIG,0,3.0,0,10000,0,0,0,
2026-04-15 10:00:00,METAR UUEE 151000Z 07002MPS 030V110 9999 -SHRA BKN020CB 08/06 Q1021 R06R/290345 R06C/290345 NOSIG,0,2.0,0,10000,0,0,0,RA
2026-04-15 09:30:00,METAR UUEE 150930Z 06004MPS 9999 -SHRA BKN019CB 08/06 Q1021 R06R/290345 R06C/290345 NOSIG,0,4.0,0,10000,0,0,0,RA
2026-04-15 09:00:00,METAR UUEE 150900Z 06005MPS 020V080 9999 -SHRA BKN021CB 08/06 Q1021 R06R/290345 R06C/290345 NOSIG,0,5.0,0,10000,0,0,0,RA
2026-04-15 08:30:00,METAR UUEE 150830Z 05004MPS 360V100 8000 -SHRA BKN037CB 07/06 Q1021 R06R/290345 R06C/290345 NOSIG,0,4.0,0,8000,0,0,0,RA
2026-04-15 08:00:00,METAR UUEE 150800Z 06005MPS 9999 BKN018CB 07/06 Q1021 R06R/290345 R06C/290345 NOSIG,0,5.0,0,10000,0,0,0,
2026-04-15 07:30:00,METAR UUEE 150730Z 07005MPS 9999 -SHRA BKN018CB 07/06 Q1021 R06R/290345 R06C/290345 NOSIG,0,5.0,0,10000,0,0,0,RA
2026-04-15 07:00:00,METAR UUEE 150700Z 06004MPS 8000 -SHRA BKN016CB 07/05 Q1021 R06R/290345 R06C/290345 NOSIG,0,4.0,0,8000,0,0,0,RA
2026-04-15 06:30:00,METAR UUEE 150630Z 07003MPS 030V110 9000 -SHRA BKN015CB 07/05 Q1021 R06R/290345 R06C/290345 NOSIG,0,3.0,0,9000,0,0,0,RA
2026-04-15 06:00:00,METAR UUEE 150600Z 07003MPS 9999 -SHRA BKN018CB 07/06 Q1020 R06R/290345 R06C/290345 NOSIG,0,3.0,0,10000,0,0,0,RA
2026-04-15 05:30:00,METAR UUEE 150530Z 04003MPS 360V070 8000 -SHRA BKN018CB 08/05 Q1020 R06R/290345 R06C/290345 NOSIG,0,3.0,0,8000,0,0,0,RA
2026-04-15 05:00:00,METAR UUEE 150500Z 07004MPS 030V110 9000 -SHRA BKN019CB 08/05 Q1020 R06R/290145 R06C/290145 TEMPO -TSRA BKN016CB,0,4.0,0,9000,1,0,0,RA
2026-04-15 04:30:00,METAR UUEE 150430Z 01004MPS 330V080 9999 -SHRA BKN024CB 09/04 Q1019 R06R/290145 R06C/290145 NOSIG,0,4.0,0,10000,0,0,0,RA
2026-04-15 04:00:00,METAR UUEE 150400Z 04004MPS 9000 -SHRA BKN022CB 09/04 Q1020 R06R/290145 R06C/290145 NOSIG,0,4.0,0,9000,0,0,0,RA
2026-04-15 03:30:00,METAR UUEE 150330Z 06005MPS 9000 -SHRA BKN021CB 09/03 Q1020 R06R/290145 R06C/290145 NOSIG,0,5.0,0,9000,0,0,0,RA
2026-04-15 03:00:00,METAR UUEE 150300Z 04005MPS 9999 -SHRA BKN023CB 10/02 Q1019 R06R/290145 R06C/290145 NOSIG,0,5.0,0,10000,0,0,0,RA
2026-04-15 02:30:00,METAR UUEE 150230Z 05005MPS 9999 BKN023 10/02 Q1019 R06R/290145 NOSIG,0,5.0,0,10000,0,0,0,
2026-04-15 02:00:00,METAR UUEE 150200Z 04004MPS 9999 BKN026 09/03 Q1019 R06C/290145 NOSIG,0,4.0,0,10000,0,0,0,
2026-04-15 01:30:00,METAR UUEE 150130Z 04004MPS 9999 BKN027 09/03 Q1019 R06C/290145 NOSIG,0,4.0,0,10000,0,0,0,
2026-04-15 01:00:00,METAR UUEE 150100Z 03005MPS 9999 BKN026 10/03 Q1019 R06C/290145 NOSIG,0,5.0,0,10000,0,0,0,
2026-04-15 00:30:00,METAR UUEE 150030Z 03006MPS 9999 BKN025 09/03 Q1019 R06C/290145 NOSIG,0,6.0,0,10000,0,0,0,
2026-04-15 00:00:00,METAR UUEE 150000Z 02006MPS 9999 BKN024 09/03 Q1019 R06C/290145 NOSIG,0,6.0,0,10000,0,0,0,
2026-04-14 23:30:00,METAR UUEE 142330Z 01006MPS 9999 BKN025 09/04 Q1019 R06C/290145 NOSIG,0,6.0,0,10000,0,0,0,
2026-04-14 23:00:00,METAR UUEE 142300Z 01005MPS 360V070 9999 BKN027 08/04 Q1019 R06C/290145 NOSIG,0,5.0,0,10000,0,0,0,
2026-04-14 22:30:00,METAR UUEE 142230Z 01005MPS 9999 BKN028 08/04 Q1019 R06C/290145 NOSIG,0,5.0,0,10000,0,0,0,
2026-04-14 22:00:00,METAR UUEE 142200Z 01006MPS 350V050 9999 BKN034 08/04 Q1019 R06R/290145 R06C/290145 NOSIG,0,6.0,0,10000,0,0,0,
2026-04-14 21:30:00,METAR UUEE 142130Z 36005G10MPS 330V030 9999 -SHRA BKN030CB 08/04 Q1019 R06R/290145 R06C/290145 NOSIG,0,5.0,1,10000,0,0,0,RA
2026-04-14 21:00:00,METAR UUEE 142100Z 01005MPS 350V080 9999 -SHRA BKN031CB 08/04 Q1019 R06R/290145 R06C/290145 NOSIG,0,5.0,0,10000,0,0,0,RA
2026-04-14 20:30:00,METAR UUEE 142030Z 36006MPS 340V070 9999 OVC032 08/04 Q1019 R06R/290145 R06C/290145 NOSIG,0,6.0,0,10000,0,0,0,
2026-04-14 20:00:00,METAR UUEE 142000Z 36006G12MPS 310V040 9999 OVC033 08/04 Q1019 R06R/290145 R06C/290145 NOSIG,0,6.0,1,10000,0,0,0,
2026-04-14 19:30:00,METAR UUEE 141930Z 36007MPS 9999 -RA OVC032 08/04 Q1020 R06R/290145 R06C/290145 NOSIG,0,7.0,0,10000,0,0,0,-RA
2026-04-14 19:00:00,METAR UUEE 141900Z 36006MPS 330V030 9999 OVC032 08/05 Q1020 R06R/290145 R06C/290145 NOSIG,0,6.0,0,10000,0,0,0,
2026-04-14 18:30:00,METAR UUEE 141830Z 36006MPS 9999 OVC037 08/04 Q1020 R06R/290145 R06C/290145 NOSIG,0,6.0,0,10000,0,0,0,
2026-04-14 18:00:00,METAR UUEE 141800Z 36006MPS 320V020 9999 OVC038 08/05 Q1020 R06R/290145 R06C/290145 NOSIG,0,6.0,0,10000,0,0,0,
2026-04-14 17:30:00,METAR UUEE 141730Z 35007MPS 9999 OVC040 08/05 Q1020 R06R/290145 R06C/290145 NOSIG,0,7.0,0,10000,0,0,0,
2026-04-14 17:00:00,METAR UUEE 141700Z 01006G11MPS 340V050 9999 -SHRA BKN043CB 08/05 Q1020 R06R/290145 R06C/290145 NOSIG,0,6.0,1,10000,0,0,0,RA
2026-04-14 16:42:00,SPECI UUEE 141642Z 35008G13MPS 320V020 9999 OVC043 08/05 Q1020 R06R/290145 R06C/290145 NOSIG,0,8.0,1,10000,0,0,0,
2026-04-14 16:30:00,METAR UUEE 141630Z 35007MPS 9999 -SHRA BKN043CB 08/05 Q1020 R06R/290145 R06C/290145 NOSIG,0,7.0,0,10000,0,0,0,RA
2026-04-14 16:00:00,METAR UUEE 141600Z 34006MPS 9000 -SHRA BKN044CB 07/05 Q1020 R06R/290145 R06C/290145 NOSIG,0,6.0,0,9000,0,0,0,RA
2026-04-14 15:30:00,METAR UUEE 141530Z 35006MPS 9999 -RA OVC044 08/05 Q1021 R06R/290145 R06C/290145 NOSIG,0,6.0,0,10000,0,0,0,-RA
2026-04-14 15:00:00,METAR UUEE 141500Z 35005MPS 9999 -RA BKN044 08/05 Q1021 R06R/290145 R06C/290145 NOSIG,0,5.0,0,10000,0,0,0,-RA
2026-04-14 14:30:00,METAR UUEE 141430Z 01005MPS 340V080 8000 -SHRA BKN042CB 08/05 Q1021 R06R/290145 R06C/290145 NOSIG,0,5.0,0,8000,0,0,0,RA
2026-04-14 14:00:00,METAR UUEE 141400Z 01006MPS 330V040 9999 -SHRA BKN042CB 08/04 Q1021 R88/290145 NOSIG,0,6.0,0,10000,0,0,0,RA
2026-04-14 13:58:00,SPECI UUEE 141358Z 01007MPS 9999 -SHRA BKN040CB 08/04 Q1021 R88/290145 NOSIG,0,7.0,0,10000,0,0,0,RA
2026-04-14 13:30:00,METAR UUEE 141330Z 03008G14MPS 9999 -RA NSC 09/03 Q1021 R88/290145 NOSIG,0,8.0,1,10000,0,0,0,-RA
2026-04-14 13:00:00,METAR UUEE 141300Z 02010G16MPS 9999 -SHRA BKN032CB 10/02 Q1021 R88/290145 NOSIG,0,10.0,1,10000,0,0,0,RA
2026-04-14 12:30:00,METAR UUEE 141230Z 02009G14MPS 340V060 9999 -RA NSC 12/01 Q1021 R06R/290145 R06C/290145 R06L/CLRD62 NOSIG,0,9.0,1,10000,0,0,0,-RA
2026-04-14 12:00:00,METAR UUEE 141200Z 03011G16MPS 360V060 CAVOK 13/M02 Q1020 R88/CLRD62 NOSIG,1,0.0,0,9999,0,0,0,
2026-04-14 11:54:00,SPECI UUEE 141154Z 03009G16MPS 360V060 9999 -RA NSC 13/M02 Q1020 R88/CLRD62 NOSIG,0,9.0,1,10000,0,0,0,-RA
2026-04-14 11:30:00,METAR UUEE 141130Z 04006G11MPS 350V080 9999 -RA NSC 13/M01 Q1020 R88/CLRD62 NOSIG,0,6.0,1,10000,0,0,0,-RA
2026-04-14 11:11:00,SPECI UUEE 141111Z 04007G12MPS 350V070 9999 -RA NSC 13/M02 Q1020 R88/CLRD62 NOSIG,0,7.0,1,10000,0,0,0,-RA
2026-04-14 11:00:00,METAR UUEE 141100Z 02010G18MPS CAVOK 14/M04 Q1020 WS R06R WS R06C R88/CLRD62 NOSIG,1,0.0,0,9999,0,0,0,
2026-04-14 10:48:00,SPECI UUEE 141048Z 01008G14MPS 340V040 CAVOK 14/M04 Q1020 WS R06R WS R06C R88/CLRD62 NOSIG,1,0.0,0,9999,0,0,0,
2026-04-14 10:41:00,SPECI UUEE 141041Z 02007MPS 350V050 CAVOK 14/M05 Q1020 WS R06R WS R06C R88/CLRD62 NOSIG,1,0.0,0,9999,0,0,0,
2026-04-14 10:30:00,METAR UUEE 141030Z 03005G10MPS 350V070 CAVOK 14/M05 Q1020 R88/CLRD62 NOSIG,1,0.0,0,9999,0,0,0,
2026-04-14 10:00:00,METAR UUEE 141000Z 01006G12MPS 330V040 CAVOK 13/M04 Q1020 R88/CLRD62 NOSIG,1,0.0,0,9999,0,0,0,
2026-04-14 09:30:00,METAR UUEE 140930Z 01008MPS CAVOK 13/M04 Q1021 R06R/CLRD62 R06L/CLRD62 NOSIG,1,0.0,0,9999,0,0,0,
2026-04-14 09:00:00,METAR UUEE 140900Z 02005G10MPS 340V050 CAVOK 13/M04 Q1021 R06R/CLRD62 R06L/CLRD62 NOSIG,1,0.0,0,9999,0,0,0,
2026-04-14 08:30:00,METAR UUEE 140830Z 02006G11MPS 350V050 CAVOK 13/M04 Q1021 R06R/CLRD62 R06C/CLRD62 NOSIG,1,0.0,0,9999,0,0,0,
2026-04-14 08:02:00,SPECI UUEE 140802Z 36009G16MPS 340V050 CAVOK 12/M04 Q1021 R06R/CLRD62 R06C/CLRD62 NOSIG,1,0.0,0,9999,0,0,0,
2026-04-14 08:00:00,METAR UUEE 140800Z 36006G11MPS 330V030 CAVOK 12/M04 Q1021 R06R/CLRD62 R06C/CLRD62 NOSIG,1,0.0,0,9999,0,0,0,
2026-04-14 07:30:00,METAR UUEE 140730Z 36007G13MPS 340V060 CAVOK 11/M03 Q1022 R06R/CLRD62 R06C/CLRD62 NOSIG,1,0.0,0,9999,0,0,0,
2026-04-14 07:00:00,METAR UUEE 140700Z 36007MPS 340V040 CAVOK 11/M04 Q1022 R06R/CLRD62 R06C/CLRD62 NOSIG,1,0.0,0,9999,0,0,0,
2026-04-14 06:30:00,METAR UUEE 140630Z 35006MPS 330V030 CAVOK 10/M04 Q1022 R06R/CLRD62 R06C/CLRD62 NOSIG,1,0.0,0,9999,0,0,0,
2026-04-14 06:00:00,METAR UUEE 140600Z 35006MPS 320V030 CAVOK 09/M04 Q1023 R06R/CLRD62 R06C/CLRD62 NOSIG,1,0.0,0,9999,0,0,0,
2026-04-14 05:30:00,METAR UUEE 140530Z 35005G10MPS 320V030 CAVOK 08/M04 Q1023 R06R/CLRD62 R06C/CLRD62 NOSIG,1,0.0,0,9999,0,0,0,
2026-04-14 05:00:00,METAR UUEE 140500Z 35006MPS 320V090 CAVOK 07/M04 Q1023 R06R/CLRD62 R06C/CLRD62 NOSIG,1,0.0,0,9999,0,0,0,
2026-04-14 04:30:00,METAR UUEE 140430Z 35006MPS CAVOK 07/M04 Q1023 R06R/CLRD62 R06C/CLRD62 NOSIG,1,0.0,0,9999,0,0,0,
2026-04-14 04:00:00,METAR UUEE 140400Z 35006MPS CAVOK 06/M04 Q1024 R06R/CLRD62 R06C/CLRD62 NOSIG,1,0.0,0,9999,0,0,0,
2026-04-14 03:30:00,METAR UUEE 140330Z 35006MPS CAVOK 06/M04 Q1024 R06R/CLRD62 R06C/CLRD62 NOSIG,1,0.0,0,9999,0,0,0,
2026-04-14 03:00:00,METAR UUEE 140300Z 35005MPS CAVOK 06/M04 Q1024 R06R/CLRD62 NOSIG,1,0.0,0,9999,0,0,0,
2026-04-14 02:30:00,METAR UUEE 140230Z 35006MPS CAVOK 06/M04 Q1024 R06R/CLRD62 NOSIG,1,0.0,0,9999,0,0,0,
2026-04-14 02:00:00,METAR UUEE 140200Z 35005MPS CAVOK 06/M04 Q1024 R06C/CLRD62 NOSIG,1,0.0,0,9999,0,0,0,
2026-04-14 01:30:00,METAR UUEE 140130Z 34005MPS CAVOK 06/M04 Q1024 R06R/CLRD62 R06C/CLRD62 NOSIG,1,0.0,0,9999,0,0,0,
2026-04-14 01:00:00,METAR UUEE 140100Z 34005MPS CAVOK 06/M04 Q1024 R06R/CLRD62 R06C/CLRD62 NOSIG,1,0.0,0,9999,0,0,0,
2026-04-14 00:30:00,METAR UUEE 140030Z 35005MPS CAVOK 06/M04 Q1025 R06R/CLRD62 R06C/CLRD62 NOSIG,1,0.0,0,9999,0,0,0,
2026-04-14 00:00:00,METAR UUEE 140000Z 35005MPS CAVOK 07/M04 Q1025 R06R/CLRD62 R06C/CLRD62 NOSIG,1,0.0,0,9999,0,0,0,
2026-04-13 23:30:00,METAR UUEE 132330Z 35005MPS CAVOK 07/M04 Q1025 R06R/CLRD62 R06C/CLRD62 NOSIG,1,0.0,0,9999,0,0,0,
2026-04-13 23:00:00,METAR UUEE 132300Z 34005MPS CAVOK 07/M04 Q1025 R06R/CLRD62 R06C/CLRD62 NOSIG,1,0.0,0,9999,0,0,0,
2026-04-13 22:30:00,METAR UUEE 132230Z 35005MPS CAVOK 07/M04 Q1025 R06R/CLRD62 R06C/CLRD62 NOSIG,1,0.0,0,9999,0,0,0,
2026-04-13 22:00:00,METAR UUEE 132200Z 34005G10MPS CAVOK 08/M04 Q1025 R06R/CLRD62 R06C/CLRD62 NOSIG,1,0.0,0,9999,0,0,0,
2026-04-13 21:30:00,METAR UUEE 132130Z 34004G11MPS 290V060 CAVOK 08/M03 Q1025 R06R/CLRD62 R06C/CLRD62 NOSIG,1,0.0,0,9999,0,0,0,
2026-04-13 21:00:00,METAR UUEE 132100Z 35004G10MPS 320V070 CAVOK 08/M04 Q1025 R06R/CLRD62 R06C/CLRD62 NOSIG,1,0.0,0,9999,0,0,0,
2026-04-13 20:30:00,METAR UUEE 132030Z 35004G10MPS 330V060 CAVOK 08/M03 Q1026 R06R/CLRD62 R06C/CLRD62 NOSIG,1,0.0,0,9999,0,0,0,
2026-04-13 20:00:00,METAR UUEE 132000Z 35005MPS CAVOK 09/M03 Q1026 R06R/CLRD62 R06C/CLRD62 NOSIG,1,0.0,0,9999,0,0,0,
2026-04-13 19:30:00,METAR UUEE 131930Z 35004MPS CAVOK 09/M03 Q1026 R06R/CLRD62 R06C/CLRD62 NOSIG,1,0.0,0,9999,0,0,0,
2026-04-13 19:00:00,METAR UUEE 131900Z 35005MPS CAVOK 09/M03 Q1026 R06R/CLRD62 R06C/CLRD62 NOSIG,1,0.0,0,9999,0,0,0,
2026-04-13 18:30:00,METAR UUEE 131830Z 35004MPS CAVOK 09/M02 Q1026 R06R/CLRD62 R06C/CLRD62 NOSIG,1,0.0,0,9999,0,0,0,
2026-04-13 18:00:00,METAR UUEE 131800Z 34004MPS 320V060 CAVOK 10/M02 Q1026 R06R/CLRD62 R06C/CLRD62 NOSIG,1,0.0,0,9999,0,0,0,
2026-04-13 17:30:00,METAR UUEE 131730Z 33004G10MPS CAVOK 10/M02 Q1026 R06R/CLRD62 R06C/CLRD62 NOSIG,1,0.0,0,9999,0,0,0,
2026-04-13 17:00:00,METAR UUEE 131700Z 34004MPS CAVOK 10/M02 Q1026 R06R/CLRD62 R06C/CLRD62 NOSIG,1,0.0,0,9999,0,0,0,
2026-04-13 16:30:00,METAR UUEE 131630Z 32003MPS CAVOK 11/M01 Q1026 R06R/CLRD62 R06C/CLRD62 NOSIG,1,0.0,0,9999,0,0,0,
2026-04-13 16:00:00,METAR UUEE 131600Z 33004MPS CAVOK 11/M01 Q1026 R06R/CLRD62 R06C/CLRD62 NOSIG,1,0.0,0,9999,0,0,0,
2026-04-13 15:30:00,METAR UUEE 131530Z 34004MPS CAVOK 11/M00 Q1026 R06R/CLRD62 R06C/CLRD62 NOSIG,1,0.0,0,9999,0,0,0,
2026-04-13 15:00:00,METAR UUEE 131500Z 35004G09MPS CAVOK 11/M01 Q1026 R06R/CLRD62 R06C/CLRD62 NOSIG,1,0.0,0,9999,0,0,0,
2026-04-13 14:30:00,METAR UUEE 131430Z 36005G14MPS CAVOK 11/M01 Q1026 R06R/CLRD62 R06C/CLRD62 NOSIG,1,0.0,0,9999,0,0,0,
2026-04-13 14:00:00,METAR UUEE 131400Z 36006MPS 320V040 CAVOK 12/M01 Q1026 R06R/CLRD62 R06C/CLRD62 NOSIG,1,0.0,0,9999,0,0,0,
2026-04-13 13:30:00,METAR UUEE 131330Z 01005G10MPS 360V080 9999 SCT049 12/M01 Q1027 R06R/CLRD62 R06C/CLRD62 NOSIG,0,5.0,1,10000,0,0,0,
2026-04-13 13:00:00,METAR UUEE 131300Z 36006G11MPS 320V060 9999 SCT046 11/M01 Q1027 R06R/CLRD62 R06C/CLRD62 NOSIG,0,6.0,1,10000,0,0,0,
2026-04-13 12:30:00,METAR UUEE 131230Z 01005G10MPS 9999 SCT045 12/01 Q1027 R06R/CLRD62 R06C/CLRD62 NOSIG,0,5.0,1,10000,0,0,0,
2026-04-13 12:00:00,METAR UUEE 131200Z 35006MPS 320V060 9999 SCT040 11/00 Q1027 R06R/CLRD62 R06C/CLRD62 NOSIG,0,6.0,0,10000,0,0,0,
2026-04-13 11:47:00,SPECI UUEE 131147Z 35005G10MPS 300V050 9999 SCT042 11/M00 Q1027 R06R/CLRD62 R06C/CLRD62 NOSIG,0,5.0,1,10000,0,0,0,
2026-04-13 11:46:00,SPECI UUEE 131146Z 05005MPS 350V090 9999 SCT042 11/00 Q1027 R06R/CLRD62 R06C/CLRD62 NOSIG,0,5.0,0,10000,0,0,0,
2026-04-13 11:30:00,METAR UUEE 131130Z 35005G11MPS 9999 SCT042 11/01 Q1027 R06R/CLRD62 R06C/CLRD62 NOSIG,0,5.0,1,10000,0,0,0,
2026-04-13 11:00:00,METAR UUEE 131100Z 03005MPS 360V060 9999 SCT037 11/01 Q1027 R06R/CLRD62 R06C/CLRD62 NOSIG,0,5.0,0,10000,0,0,0,
2026-04-13 10:30:00,METAR UUEE 131030Z 36004G10MPS 320V090 9999 SCT035 10/02 Q1027 R06R/CLRD62 R06C/CLRD62 NOSIG,0,4.0,1,10000,0,0,0,
2026-04-13 10:00:00,METAR UUEE 131000Z 36005MPS 320V030 9999 FEW033 10/02 Q1027 R06R/CLRD62 R06C/CLRD62 NOSIG,0,5.0,0,10000,0,0,0,
2026-04-13 09:30:00,METAR UUEE 130930Z 02005MPS 330V060 9999 FEW029 10/01 Q1028 R06R/CLRD62 R06C/CLRD62 NOSIG,0,5.0,0,10000,0,0,0,
2026-04-13 09:19:00,SPECI UUEE 130919Z COR 35005MPS 9999 FEW029 09/01 Q1028 R06R/CLRD62 R06C/CLRD62 NOSIG,0,5.0,0,10000,0,0,0,
2026-04-13 09:00:00,METAR UUEE 130900Z 36005MPS 9999 FEW028 09/02 Q1028 R06R/CLRD62 R06C/CLRD62 NOSIG,0,5.0,0,10000,0,0,0,
2026-04-13 08:30:00,METAR UUEE 130830Z 01005MPS 340V040 9999 FEW025 08/02 Q1028 R06R/CLRD62 R06C/CLRD62 NOSIG,0,5.0,0,10000,0,0,0,
2026-04-13 08:00:00,METAR UUEE 130800Z 05004MPS 020V080 9999 FEW024 08/02 Q1028 R06R/CLRD62 R06C/CLRD62 NOSIG,0,4.0,0,10000,0,0,0,
2026-04-13 07:30:00,METAR UUEE 130730Z 05004MPS 9999 FEW024 07/02 Q1028 R06C/CLRD62 NOSIG,0,4.0,0,10000,0,0,0,
2026-04-13 07:00:00,METAR UUEE 130700Z 34005MPS 250V010 CAVOK 07/02 Q1028 R06C/CLRD62 NOSIG,1,0.0,0,9999,0,0,0,
2026-04-13 06:48:00,SPECI UUEE 130648Z 04002MPS 350V090 CAVOK 07/02 Q1028 R06R/CLRD62 R06C/CLRD62 NOSIG,1,0.0,0,9999,0,0,0,
2026-04-13 06:30:00,METAR UUEE 130630Z 04002MPS 350V090 CAVOK 05/02 Q1028 R06R/CLRD62 R06C/CLRD62 NOSIG,1,0.0,0,9999,0,0,0,
2026-04-13 06:00:00,METAR UUEE 130600Z 03003MPS 350V110 CAVOK 04/01 Q1028 R06R/CLRD62 R06C/CLRD62 NOSIG,1,0.0,0,9999,0,0,0,
2026-04-13 05:30:00,METAR UUEE 130530Z 03002MPS 360V070 CAVOK 03/01 Q1028 R06R/CLRD62 R06C/CLRD62 NOSIG,1,0.0,0,9999,0,0,0,
2026-04-13 05:00:00,METAR UUEE 130500Z 03002MPS 340V060 CAVOK 02/00 Q1028 R06R/CLRD62 R06C/CLRD62 NOSIG,1,0.0,0,9999,0,0,0,
2026-04-13 04:30:00,METAR UUEE 130430Z 06002MPS 020V080 9000 NSC 01/00 Q1028 R06R/CLRD62 R06C/CLRD62 NOSIG,0,2.0,0,9000,0,0,0,
2026-04-13 04:00:00,METAR UUEE 130400Z 02002MPS 350V060 9000 NSC 00/M01 Q1028 R06R/CLRD62 R06C/CLRD62 NOSIG,0,2.0,0,9000,0,0,0,
2026-04-13 03:30:00,METAR UUEE 130330Z 36002MPS 310V100 9000 NSC 00/M00 Q1027 R06R/CLRD62 R06C/CLRD62 NOSIG,0,2.0,0,9000,0,0,0,
2026-04-13 03:00:00,METAR UUEE 130300Z 36003MPS 9000 4200NW BR NSC 00/M01 Q1027 R06R/CLRD62 R06C/CLRD62 NOSIG,0,3.0,0,9000,0,0,1,BR
2026-04-13 02:30:00,METAR UUEE 130230Z 01002MPS 9000 2100NW BR NSC 00/M01 Q1027 R06R/CLRD62 R06C/CLRD62 NOSIG,0,2.0,0,9000,0,0,1,BR
2026-04-13 02:00:00,METAR UUEE 130200Z 36002MPS 9000 2100NW BR NSC 00/M00 Q1027 R06R/CLRD62 R06C/CLRD62 NOSIG,0,2.0,0,9000,0,0,1,BR
2026-04-13 01:30:00,METAR UUEE 130130Z 36002MPS 9000 3200NW BR NSC 01/00 Q1027 R06R/CLRD62 R06C/CLRD62 NOSIG,0,2.0,0,9000,0,0,1,BR
2026-04-13 01:00:00,METAR UUEE 130100Z 03002MPS 9000 2600NW BR NSC 00/M01 Q1027 R06R/CLRD62 R06C/CLRD62 NOSIG,0,2.0,0,9000,0,0,1,BR
2026-04-13 00:30:00,METAR UUEE 130030Z 05002MPS 9000 4200NW BR NSC 01/01 Q1027 R06R/CLRD62 R06C/CLRD62 NOSIG,0,2.0,0,9000,0,0,1,BR
2026-04-13 00:00:00,METAR UUEE 130000Z 07002MPS 9000 4000NW BR NSC 01/00 Q1027 R06R/250145 R06C/250145 NOSIG,0,2.0,0,9000,0,0,1,BR
2026-04-12 23:30:00,METAR UUEE 122330Z 06003MPS 9000 NSC 01/00 Q1027 R06R/250145 R06C/250145 NOSIG,0,3.0,0,9000,0,0,0,
2026-04-12 23:00:00,METAR UUEE 122300Z 07004MPS CAVOK 02/01 Q1027 R06R/250145 R06C/250145 NOSIG,1,0.0,0,9999,0,0,0,
2026-04-12 22:30:00,METAR UUEE 122230Z 06003MPS CAVOK 02/01 Q1027 R06R/250145 R06C/250145 NOSIG,1,0.0,0,9999,0,0,0,
2026-04-12 22:00:00,METAR UUEE 122200Z 07004MPS CAVOK 02/01 Q1027 R06R/250145 R06C/250145 NOSIG,1,0.0,0,9999,0,0,0,
2026-04-12 21:30:00,METAR UUEE 122130Z 07004MPS CAVOK 03/01 Q1027 R06R/250145 R06C/250145 NOSIG,1,0.0,0,9999,0,0,0,
2026-04-12 21:00:00,METAR UUEE 122100Z 07005MPS CAVOK 03/01 Q1026 R06R/250145 R06C/250145 NOSIG,1,0.0,0,9999,0,0,0,
2026-04-12 20:30:00,METAR UUEE 122030Z 07005MPS CAVOK 03/01 Q1026 R06R/250145 R06C/250145 NOSIG,1,0.0,0,9999,0,0,0,
2026-04-12 20:00:00,METAR UUEE 122000Z 07006MPS CAVOK 03/01 Q1026 R06R/250145 R06C/250145 NOSIG,1,0.0,0,9999,0,0,0,
2026-04-12 19:30:00,METAR UUEE 121930Z 07005MPS CAVOK 04/01 Q1026 R06R/250145 R06C/250145 NOSIG,1,0.0,0,9999,0,0,0,
2026-04-12 19:00:00,METAR UUEE 121900Z 07005MPS CAVOK 04/01 Q1026 R06R/250145 R06C/250145 NOSIG,1,0.0,0,9999,0,0,0,
2026-04-12 18:30:00,METAR UUEE 121830Z 07005MPS CAVOK 05/02 Q1026 R06R/250145 R06C/250145 NOSIG,1,0.0,0,9999,0,0,0,
2026-04-12 18:00:00,METAR UUEE 121800Z 08004MPS CAVOK 06/02 Q1026 R06R/250145 R06C/250145 NOSIG,1,0.0,0,9999,0,0,0,
2026-04-12 17:30:00,METAR UUEE 121730Z 07006MPS 9999 SCT040 07/02 Q1026 R06R/290145 R06C/290145 NOSIG,0,6.0,0,10000,0,0,0,
2026-04-12 17:00:00,METAR UUEE 121700Z 07006MPS 9999 SCT039 08/03 Q1025 R06R/290145 R06C/290145 NOSIG,0,6.0,0,10000,0,0,0,
2026-04-12 16:30:00,METAR UUEE 121630Z 01003MPS 320V090 9999 -SHRA SCT048CB 08/02 Q1025 R06R/290145 R06C/290145 NOSIG,0,3.0,0,10000,0,0,0,RA
2026-04-12 16:00:00,METAR UUEE 121600Z 20003MPS 9999 -SHRA SCT044CB 08/02 Q1025 R06R/CLRD62 R06C/CLRD62 NOSIG,0,3.0,0,10000,0,0,0,RA
2026-04-12 15:00:00,METAR UUEE 121500Z 08003MPS 9999 SCT043TCU 10/00 Q1025 R06R/CLRD62 R06C/CLRD62 NOSIG,0,3.0,0,10000,0,0,0,
2026-04-12 14:30:00,METAR UUEE 121430Z 10004MPS 9999 SCT041 10/M00 Q1025 R06R/CLRD62 R06C/CLRD62 NOSIG,0,4.0,0,10000,0,0,0,
2026-04-12 14:00:00,METAR UUEE 121400Z 09006MPS 9999 SCT041CB 10/M01 Q1025 R06R/CLRD62 R06C/CLRD62 NOSIG,0,6.0,0,10000,0,0,0,
2026-04-12 13:30:00,METAR UUEE 121330Z 11003G08MPS 060V160 9999 SCT041CB 10/00 Q1025 R06R/CLRD62 R06C/CLRD62 NOSIG,0,3.0,1,10000,0,0,0,
2026-04-12 13:00:00,METAR UUEE 121300Z 04004MPS 360V080 9999 SCT041 11/01 Q1025 R06R/CLRD62 R06C/CLRD62 NOSIG,0,4.0,0,10000,0,0,0,
2026-04-12 12:30:00,METAR UUEE 121230Z 10004MPS 020V180 9999 SCT041 10/01 Q1025 R06R/CLRD62 R06C/CLRD62 NOSIG,0,4.0,0,10000,0,0,0,
2026-04-12 12:00:00,METAR UUEE 121200Z 11004MPS 060V180 9999 SCT036 10/00 Q1025 R06R/CLRD62 R06C/CLRD62 NOSIG,0,4.0,0,10000,0,0,0,
2026-04-12 11:30:00,METAR UUEE 121130Z 10004MPS 080V140 9999 SCT036 10/01 Q1025 R06R/CLRD62 R06C/CLRD62 NOSIG,0,4.0,0,10000,0,0,0,
2026-04-12 11:25:00,SPECI UUEE 121125Z 07004MPS 030V140 9999 SCT036 11/02 Q1025 R06R/CLRD62 R06C/CLRD62 NOSIG,0,4.0,0,10000,0,0,0,
2026-04-12 11:00:00,METAR UUEE 121100Z 09004MPS 9999 FEW036 09/01 Q1025 R06R/CLRD62 R06C/CLRD62 NOSIG,0,4.0,0,10000,0,0,0,
2026-04-12 10:30:00,METAR UUEE 121030Z 05004MPS 340V130 9999 FEW028 10/02 Q1026 R06R/CLRD62 R06C/CLRD62 NOSIG,0,4.0,0,10000,0,0,0,
2026-04-12 10:00:00,METAR UUEE 121000Z 08004MPS 9999 SCT023 09/02 Q1026 R06R/CLRD62 R06C/CLRD62 NOSIG,0,4.0,0,10000,0,0,0,
2026-04-12 09:30:00,METAR UUEE 120930Z 10004MPS 9999 FEW020 08/03 Q1026 R06R/CLRD62 R06C/CLRD62 NOSIG,0,4.0,0,10000,0,0,0,
2026-04-12 09:00:00,METAR UUEE 120900Z 05004MPS 020V110 9999 SCT018 07/03 Q1026 R06R/CLRD62 R06C/CLRD62 NOSIG,0,4.0,0,10000,0,0,0,
2026-04-12 08:30:00,METAR UUEE 120830Z 05005MPS 9999 FEW016 07/03 Q1026 R06R/CLRD62 NOSIG,0,5.0,0,10000,0,0,0,
2026-04-12 08:00:00,METAR UUEE 120800Z 08005MPS 9999 FEW015 06/03 Q1026 R06R/250145 R06C/250145 NOSIG,0,5.0,0,10000,0,0,0,
2026-04-12 07:30:00,METAR UUEE 120730Z 08004MPS 050V110 9999 FEW013 06/03 Q1026 R06R/250145 R06C/250145 NOSIG,0,4.0,0,10000,0,0,0,
2026-04-12 07:00:00,METAR UUEE 120700Z 06005MPS 9999 SCT012 05/03 Q1025 R06R/250145 R06C/250145 NOSIG,0,5.0,0,10000,0,0,0,
2026-04-12 06:50:00,SPECI UUEE 120650Z 07004MPS 9999 SCT011 05/03 Q1025 R06R/250145 R06C/250145 NOSIG,0,4.0,0,10000,0,0,0,
2026-04-12 06:30:00,METAR UUEE 120630Z 10004MPS 9999 BKN010 05/03 Q1025 R06R/250145 R06C/250145 NOSIG,0,4.0,0,10000,0,0,0,
2026-04-12 06:00:00,METAR UUEE 120600Z 11005MPS 9999 BKN009 05/03 Q1025 R06R/250145 R06C/250145 NOSIG,0,5.0,0,10000,0,0,0,
2026-04-12 05:46:00,SPECI UUEE 120546Z 09005MPS 9999 BKN008 05/03 Q1025 R06R/250145 R06C/250145 NOSIG,0,5.0,0,10000,0,0,0,
2026-04-12 05:30:00,METAR UUEE 120530Z 10005MPS 9000 SCT009 04/03 Q1025 R06R/250145 R06C/250145 NOSIG,0,5.0,0,9000,0,0,0,
2026-04-12 05:00:00,METAR UUEE 120500Z 08004MPS 9000 SCT009 04/03 Q1025 R06R/250145 R06C/250145 NOSIG,0,4.0,0,9000,0,0,0,
2026-04-12 04:30:00,METAR UUEE 120430Z 09004MPS 7000 FEW007 04/03 Q1025 R06R/250145 R06C/250145 NOSIG,0,4.0,0,7000,0,0,0,
2026-04-12 04:00:00,METAR UUEE 120400Z 07004MPS 6000 SCT016 04/03 Q1024 R06R/250145 R06C/250145 NOSIG,0,4.0,0,6000,0,0,0,
2026-04-12 03:42:00,SPECI UUEE 120342Z 09004MPS 5000 BR SCT006 04/03 Q1024 R06R/250145 R06C/250145 NOSIG,0,4.0,0,5000,0,0,1,BR
2026-04-12 03:30:00,METAR UUEE 120330Z 08004MPS 5000 BR BKN006 04/03 Q1024 R06R/250145 R06C/250145 NOSIG,0,4.0,0,5000,0,0,1,BR
2026-04-12 03:00:00,METAR UUEE 120300Z 09005MPS 5000 BR BKN004 04/03 Q1024 R06R/250145 R06C/250145 NOSIG,0,5.0,0,5000,0,0,1,BR
2026-04-12 02:30:00,METAR UUEE 120230Z 09004MPS 6000 OVC005 04/03 Q1024 R06R/250145 R06C/250145 NOSIG,0,4.0,0,6000,0,0,0,
2026-04-12 02:00:00,METAR UUEE 120200Z 08004MPS 6000 OVC005 03/03 Q1024 R06R/290245 R06C/290245 NOSIG,0,4.0,0,6000,0,0,0,
2026-04-12 01:30:00,METAR UUEE 120130Z 05004MPS 5000 BR OVC004 04/03 Q1024 R06R/290245 R06C/290245 NOSIG,0,4.0,0,5000,0,0,1,BR
2026-04-12 01:00:00,METAR UUEE 120100Z 07005MPS 7000 OVC005 04/03 Q1024 R06R/290245 R06C/290245 NOSIG,0,5.0,0,7000,0,0,0,
2026-04-12 00:30:00,METAR UUEE 120030Z 07004MPS 8000 OVC006 03/02 Q1024 R06R/290245 R06C/290245 NOSIG,0,4.0,0,8000,0,0,0,
2026-04-12 00:00:00,METAR UUEE 120000Z 08004MPS 7000 OVC006 04/03 Q1023 R06R/290245 R06C/290245 NOSIG,0,4.0,0,7000,0,0,0,
2026-04-11 23:30:00,METAR UUEE 112330Z 08004MPS 8000 OVC006 04/03 Q1023 R06R/290245 R06C/290245 NOSIG,0,4.0,0,8000,0,0,0,
2026-04-11 23:00:00,METAR UUEE 112300Z 09004MPS 9000 OVC006 04/03 Q1023 R06R/290245 R06C/290245 NOSIG,0,4.0,0,9000,0,0,0,
2026-04-11 22:30:00,METAR UUEE 112230Z 11004MPS 070V130 9999 OVC007 04/03 Q1023 R06R/290245 R06C/290245 NOSIG,0,4.0,0,10000,0,0,0,
2026-04-11 22:00:00,METAR UUEE 112200Z 11005MPS 9999 OVC006 04/03 Q1023 R06R/290245 R06C/290245 NOSIG,0,5.0,0,10000,0,0,0,
2026-04-11 21:30:00,METAR UUEE 112130Z 11005MPS 9999 OVC006 04/03 Q1023 R06R/290245 R06C/290245 NOSIG,0,5.0,0,10000,0,0,0,
2026-04-11 21:00:00,METAR UUEE 112100Z 10005MPS 9999 BKN007 04/03 Q1023 R06R/290245 R06C/290245 NOSIG,0,5.0,0,10000,0,0,0,
2026-04-11 20:30:00,METAR UUEE 112030Z 10005MPS 9999 BKN007 04/03 Q1023 R06R/290245 R06C/290245 NOSIG,0,5.0,0,10000,0,0,0,
2026-04-11 20:00:00,METAR UUEE 112000Z 08006MPS 9999 BKN007 04/03 Q1023 R06R/290245 R06C/290245 NOSIG,0,6.0,0,10000,0,0,0,
2026-04-11 19:30:00,METAR UUEE 111930Z 07006MPS 9999 BKN008 04/03 Q1023 R06R/290245 R06C/290245 NOSIG,0,6.0,0,10000,0,0,0,
2026-04-11 19:06:00,SPECI UUEE 111906Z 09005MPS 9999 BKN009 04/03 Q1023 R06R/290245 R06C/290245 NOSIG,0,5.0,0,10000,0,0,0,
2026-04-11 19:00:00,METAR UUEE 111900Z 09005MPS 9999 SCT009 BKN024 04/03 Q1023 R06R/290245 R06C/290245 NOSIG,0,5.0,0,10000,0,0,0,
2026-04-11 18:30:00,METAR UUEE 111830Z 08005MPS 9999 SCT009 BKN036 04/03 Q1023 R06R/290245 R06C/290245 NOSIG,0,5.0,0,10000,0,0,0,
2026-04-11 18:00:00,METAR UUEE 111800Z 07005MPS 9999 SCT014 04/03 Q1022 R06R/290245 R06C/290245 NOSIG,0,5.0,0,10000,0,0,0,
2026-04-11 17:30:00,METAR UUEE 111730Z 08005MPS 9999 SCT012 04/03 Q1022 R06R/290245 R06C/290245 NOSIG,0,5.0,0,10000,0,0,0,
2026-04-11 17:00:00,METAR UUEE 111700Z 07006MPS CAVOK 04/03 Q1022 R06R/290245 R06C/290245 NOSIG,1,0.0,0,9999,0,0,0,
2026-04-11 16:30:00,METAR UUEE 111630Z 06005MPS 9999 -SHRA SCT010 BKN032CB 04/03 Q1022 R06R/290245 R06C/290245 NOSIG,0,5.0,0,10000,0,0,0,RA
2026-04-11 16:00:00,METAR UUEE 111600Z 06004MPS 7000 -SHRA SCT009 BKN026CB 04/03 Q1021 R06R/290245 R06C/290245 NOSIG,0,4.0,0,7000,0,0,0,RA
2026-04-11 15:30:00,METAR UUEE 111530Z 08004MPS 8000 -SHRA SCT015 BKN023CB 04/03 Q1021 R06R/290245 R06C/290245 NOSIG,0,4.0,0,8000,0,0,0,RA
2026-04-11 15:25:00,SPECI UUEE 111525Z 07004MPS 9000 -SHRA BKN014CB 04/03 Q1021 R06R/290245 R06C/290245 NOSIG,0,4.0,0,9000,0,0,0,RA
2026-04-11 15:00:00,METAR UUEE 111500Z 07006MPS 9999 -SHRA SCT009 BKN022CB 04/03 Q1021 R06R/290245 R06C/290245 NOSIG,0,6.0,0,10000,0,0,0,RA
2026-04-11 14:30:00,METAR UUEE 111430Z 08006MPS 9000 -SHRA SCT010 BKN025CB 04/03 Q1021 R06R/290245 R06C/290245 NOSIG,0,6.0,0,9000,0,0,0,RA
2026-04-11 14:00:00,METAR UUEE 111400Z 08007MPS 9000 -SHRA SCT011 BKN024CB 04/03 Q1021 R06R/290245 R06C/290245 NOSIG,0,7.0,0,9000,0,0,0,RA
2026-04-11 13:30:00,METAR UUEE 111330Z 07007MPS 9999 -SHRA SCT014 BKN023CB 05/02 Q1021 R06R/290145 R06C/290145 NOSIG,0,7.0,0,10000,0,0,0,RA
2026-04-11 13:00:00,METAR UUEE 111300Z 08006MPS 9999 -SHRA BKN015CB 05/02 Q1021 R06R/250145 R06C/250145 NOSIG,0,6.0,0,10000,0,0,0,RA
2026-04-11 12:30:00,METAR UUEE 111230Z 07008MPS 9999 BKN014 05/02 Q1021 R06R/250145 R06C/250145 NOSIG,0,8.0,0,10000,0,0,0,
2026-04-11 12:00:00,METAR UUEE 111200Z 07007MPS 9999 BKN014 05/02 Q1021 R06R/250145 R06C/250145 NOSIG,0,7.0,0,10000,0,0,0,
2026-04-11 11:30:00,METAR UUEE 111130Z 08007MPS 9999 OVC013 05/02 Q1021 R06R/250145 R06C/250145 NOSIG,0,7.0,0,10000,0,0,0,
2026-04-11 11:00:00,METAR UUEE 111100Z 08007MPS 9999 -RA BKN012 04/02 Q1021 R06R/250145 R06C/250145 NOSIG,0,7.0,0,10000,0,0,0,-RA
2026-04-11 10:30:00,METAR UUEE 111030Z 07007MPS 9000 -RA BKN011 04/02 Q1020 R06R/250145 R06C/250145 NOSIG,0,7.0,0,9000,0,0,0,-RA
2026-04-11 10:00:00,METAR UUEE 111000Z 07008MPS 9999 -DZ OVC011 04/02 Q1020 R06R/250145 R06C/250145 NOSIG,0,8.0,0,10000,0,0,0,DZ
2026-04-11 09:30:00,METAR UUEE 110930Z 07008MPS 9999 OVC010 04/02 Q1020 R06R/250145 R06C/250145 NOSIG,0,8.0,0,10000,0,0,0,
2026-04-11 09:00:00,METAR UUEE 110900Z 07008MPS 9999 BKN010 04/02 Q1020 R06R/250145 NOSIG,0,8.0,0,10000,0,0,0,
2026-04-11 08:30:00,METAR UUEE 110830Z 07008MPS 9999 BKN010 04/01 Q1020 R06C/290145 NOSIG,0,8.0,0,10000,0,0,0,
2026-04-11 08:00:00,METAR UUEE 110800Z 08009MPS 9999 BKN010 04/02 Q1020 R06R/290145 R06C/290145 NOSIG,0,9.0,0,10000,0,0,0,
2026-04-11 07:30:00,METAR UUEE 110730Z 08009MPS 9999 BKN009 04/02 Q1019 R06R/290145 R06C/290145 NOSIG,0,9.0,0,10000,0,0,0,
2026-04-11 07:00:00,METAR UUEE 110700Z 07009MPS 9999 BKN009 03/02 Q1019 R06R/290145 R06C/290145 NOSIG,0,9.0,0,10000,0,0,0,
2026-04-11 06:30:00,METAR UUEE 110630Z 08007MPS 9999 BKN008 03/01 Q1019 R06R/290145 R06C/290145 NOSIG,0,7.0,0,10000,0,0,0,
2026-04-11 06:00:00,METAR UUEE 110600Z 07008MPS 9999 BKN006 03/02 Q1019 R06R/290145 R06C/290145 NOSIG,0,8.0,0,10000,0,0,0,
2026-04-11 05:30:00,METAR UUEE 110530Z 06008MPS 9000 OVC005 03/02 Q1018 R06R/290145 R06C/290145 NOSIG,0,8.0,0,9000,0,0,0,
2026-04-11 05:17:00,SPECI UUEE 110517Z 06008MPS 6000 OVC004 03/02 Q1018 R06R/290145 R06C/290145 NOSIG,0,8.0,0,6000,0,0,0,
2026-04-11 05:00:00,METAR UUEE 110500Z 07008MPS 4500 BR OVC004 03/02 Q1019 R06R/290145 R06C/290145 NOSIG,0,8.0,0,4500,0,0,1,BR
2026-04-11 04:52:00,SPECI UUEE 110452Z 07008MPS 4900 BR OVC004 03/02 Q1019 R06R/290145 R06C/290145 NOSIG,0,8.0,0,4900,0,0,1,BR
2026-04-11 04:30:00,METAR UUEE 110430Z 08008MPS 7000 OVC004 02/02 Q1018 R06R/290145 R06C/290145 NOSIG,0,8.0,0,7000,0,0,0,
2026-04-11 04:00:00,METAR UUEE 110400Z 07008MPS 5000 BR OVC004 03/02 Q1018 R06R/290145 R06C/290145 NOSIG,0,8.0,0,5000,0,0,1,BR
2026-04-11 03:49:00,SPECI UUEE 110349Z 07008MPS 4900 BR OVC005 03/02 Q1018 R06R/290145 R06C/290145 NOSIG,0,8.0,0,4900,0,0,1,BR
2026-04-11 03:30:00,METAR UUEE 110330Z 08008MPS 9999 OVC006 03/02 Q1018 R06R/290145 R06C/290145 NOSIG,0,8.0,0,10000,0,0,0,
2026-04-11 03:00:00,METAR UUEE 110300Z 07008MPS 9000 OVC007 03/02 Q1018 R06R/290145 R06C/290145 NOSIG,0,8.0,0,9000,0,0,0,
2026-04-11 02:30:00,METAR UUEE 110230Z 07008MPS 9999 OVC008 03/01 Q1017 R06R/290145 R06C/290145 NOSIG,0,8.0,0,10000,0,0,0,
2026-04-11 02:00:00,METAR UUEE 110200Z 06008MPS 9999 OVC008 03/01 Q1017 R06R/290145 R06C/290145 NOSIG,0,8.0,0,10000,0,0,0,
2026-04-11 01:30:00,METAR UUEE 110130Z 06007MPS 9999 OVC009 03/01 Q1017 R06R/290145 R06C/290145 NOSIG,0,7.0,0,10000,0,0,0,
2026-04-11 01:00:00,METAR UUEE 110100Z 06006MPS 9999 OVC008 03/01 Q1017 R06R/290145 R06C/290145 NOSIG,0,6.0,0,10000,0,0,0,
2026-04-11 00:30:00,METAR UUEE 110030Z 08006MPS 9999 OVC009 03/01 Q1017 R06R/290145 R06C/290145 NOSIG,0,6.0,0,10000,0,0,0,
2026-04-11 00:17:00,SPECI UUEE 110017Z 07007MPS 9999 OVC010 03/01 Q1017 R06R/290145 R06C/290145 NOSIG,0,7.0,0,10000,0,0,0,
2026-04-11 00:00:00,METAR UUEE 110000Z 08006MPS 9999 SCT010 BKN020 03/01 Q1017 R06R/290145 R06C/290145 NOSIG,0,6.0,0,10000,0,0,0,
2026-04-10 23:30:00,METAR UUEE 102330Z 08007MPS 9999 OVC008 03/01 Q1017 R06R/290145 R06C/290145 NOSIG,0,7.0,0,10000,0,0,0,
2026-04-10 23:00:00,METAR UUEE 102300Z 07008MPS 9999 OVC008 03/01 Q1017 R06R/290145 R06C/290145 NOSIG,0,8.0,0,10000,0,0,0,
2026-04-10 22:30:00,METAR UUEE 102230Z 07008MPS 9999 OVC008 03/01 Q1017 R06R/290145 R06C/290145 NOSIG,0,8.0,0,10000,0,0,0,
2026-04-10 22:00:00,METAR UUEE 102200Z 06008MPS 9999 OVC009 03/01 Q1017 R06R/290145 R06C/290145 NOSIG,0,8.0,0,10000,0,0,0,
2026-04-10 21:30:00,METAR UUEE 102130Z 07009MPS 9999 OVC009 03/01 Q1017 R06R/290145 R06C/290145 NOSIG,0,9.0,0,10000,0,0,0,
2026-04-10 21:00:00,METAR UUEE 102100Z 07009MPS 9999 OVC009 03/01 Q1017 R06R/290145 R06C/290145 NOSIG,0,9.0,0,10000,0,0,0,
2026-04-10 20:30:00,METAR UUEE 102030Z 06010MPS 9999 OVC010 03/01 Q1017 R06R/290145 R06C/290145 NOSIG,0,10.0,0,10000,0,0,0,
2026-04-10 20:13:00,SPECI UUEE 102013Z 06009G14MPS 030V090 9999 OVC011 03/01 Q1017 R06R/290145 R06C/290145 NOSIG,0,9.0,1,10000,0,0,0,
2026-04-10 20:00:00,METAR UUEE 102000Z 06009MPS 9999 OVC011 03/01 Q1016 R06R/290145 R06C/290145 NOSIG,0,9.0,0,10000,0,0,0,
2026-04-10 19:30:00,METAR UUEE 101930Z 06008MPS 9999 OVC011 03/01 Q1016 R06R/290145 R06C/290145 NOSIG,0,8.0,0,10000,0,0,0,
2026-04-10 19:00:00,METAR UUEE 101900Z 06007G12MPS 9999 OVC012 03/01 Q1016 R06R/290145 R06C/290145 NOSIG,0,7.0,1,10000,0,0,0,
2026-04-10 18:30:00,METAR UUEE 101830Z 07009MPS 9999 OVC012 03/01 Q1016 R06R/290145 R06C/290145 NOSIG,0,9.0,0,10000,0,0,0,
2026-04-10 18:00:00,METAR UUEE 101800Z 06010MPS 9999 OVC013 03/01 Q1016 R06R/290145 R06C/290145 NOSIG,0,10.0,0,10000,0,0,0,
2026-04-10 17:30:00,METAR UUEE 101730Z 07010MPS 9999 OVC014 03/01 Q1016 R06R/290145 R06C/290145 NOSIG,0,10.0,0,10000,0,0,0,
2026-04-10 17:00:00,METAR UUEE 101700Z 06009G14MPS 9999 OVC015 03/01 Q1016 R06R/290145 R06C/290145 NOSIG,0,9.0,1,10000,0,0,0,
2026-04-10 16:57:00,SPECI UUEE 101657Z 06009G14MPS 9999 OVC015 04/01 Q1016 R06R/290145 R06C/290145 NOSIG,0,9.0,1,10000,0,0,0,
2026-04-10 16:54:00,SPECI UUEE 101654Z 06009MPS 9999 OVC015 04/01 Q1016 R06R/290145 R06C/290145 NOSIG,0,9.0,0,10000,0,0,0,
2026-04-10 16:30:00,METAR UUEE 101630Z 06008G14MPS 9999 OVC016 04/01 Q1016 R06R/290145 R06C/290145 NOSIG,0,8.0,1,10000,0,0,0,
2026-04-10 16:00:00,METAR UUEE 101600Z 06009G14MPS 9999 OVC017 04/01 Q1015 R06R/290145 R06C/290145 NOSIG,0,9.0,1,10000,0,0,0,
2026-04-10 15:43:00,SPECI UUEE 101543Z 06009G14MPS 9999 BKN018 04/01 Q1015 R06R/290145 R06C/290145 NOSIG,0,9.0,1,10000,0,0,0,
2026-04-10 15:30:00,METAR UUEE 101530Z 07009MPS 9999 BKN019 04/01 Q1015 R06R/520145 R06C/520145 NOSIG,0,9.0,0,10000,0,0,0,
2026-04-10 15:00:00,METAR UUEE 101500Z 06009MPS 9999 BKN019 04/01 Q1014 R06R/520145 R06C/520145 NOSIG,0,9.0,0,10000,0,0,0,
2026-04-10 14:30:00,METAR UUEE 101430Z 06008G13MPS 020V080 9999 BKN019 05/01 Q1014 R06R/520145 R06C/520145 NOSIG,0,8.0,1,10000,0,0,0,
2026-04-10 14:00:00,METAR UUEE 101400Z 05010MPS 9999 OVC019 04/01 Q1014 R06R/520145 R06C/520145 NOSIG,0,10.0,0,10000,0,0,0,
2026-04-10 13:30:00,METAR UUEE 101330Z 06008MPS 9999 OVC018 04/01 Q1013 R06R/520145 R06C/520145 NOSIG,0,8.0,0,10000,0,0,0,
2026-04-10 13:00:00,METAR UUEE 101300Z 04008MPS 9999 OVC017 03/01 Q1013 R06R/520145 R06C/520145 NOSIG,0,8.0,0,10000,0,0,0,
2026-04-10 12:30:00,METAR UUEE 101230Z 03007MPS 9999 OVC015 03/01 Q1013 R06R/520145 R06C/520145 NOSIG,0,7.0,0,10000,0,0,0,
2026-04-10 12:00:00,METAR UUEE 101200Z 03007MPS 9999 -SN OVC013 03/00 Q1013 R06R/520145 R06C/520145 NOSIG,0,7.0,0,10000,0,0,0,SN
2026-04-10 11:30:00,METAR UUEE 101130Z 03008MPS 9999 -RA OVC011 02/M00 Q1013 R06R/520145 R06C/520145 NOSIG,0,8.0,0,10000,0,0,0,-RA
2026-04-10 11:00:00,METAR UUEE 101100Z 03008MPS 9000 -SNRA OVC011 01/M00 Q1013 RERASN R06R/520145 R06C/520145 TEMPO 1200 SHSNRA BKN006 BKN016CB,0,8.0,0,9000,0,0,0,"RA,SH,SN"
2026-04-10 10:30:00,METAR UUEE 101030Z 04007MPS 8000 -SNRA OVC011 01/M01 Q1013 RERASN R06R/520145 R06C/520145 TEMPO 1200 SHSNRA BKN006 BKN016CB,0,7.0,0,8000,0,0,0,"RA,SH,SN"
2026-04-10 10:24:00,SPECI UUEE 101024Z 03008MPS 6000 -SNRA BKN010 OVC023 01/M01 Q1013 R06R/520145 R06C/520145 NOSIG,0,8.0,0,6000,0,0,0,RA
2026-04-10 10:13:00,SPECI UUEE 101013Z 03009MPS 4800 -SN BKN009 OVC023 01/M01 Q1013 R06R/520145 R06C/520145 NOSIG,0,9.0,0,4800,0,0,0,SN
2026-04-10 10:00:00,METAR UUEE 101000Z 02008MPS 9000 -SN BKN011 01/M01 Q1012 R06R/520145 R06C/520145 NOSIG,0,8.0,0,9000,0,0,0,SN
2026-04-10 09:30:00,METAR UUEE 100930Z 03009MPS 9999 -SN BKN015 01/M02 Q1012 RESHSN R06C/520145 NOSIG,0,9.0,0,10000,0,0,0,SN
2026-04-10 09:19:00,SPECI UUEE 100919Z 02007G12MPS 360V060 8000 -SN BKN013 01/M02 Q1012 R06C/520145 NOSIG,0,7.0,1,8000,0,0,0,SN
2026-04-10 09:09:00,SPECI UUEE 100909Z 03006G12MPS 4300 1600SW R06R/1600D R06C/1900D SHSN SCT014 BKN032CB 01/M02 Q1012 R06R/520145 R06C/520145 TEMPO 1600 SHSNRA BKN016CB,0,6.0,1,4300,0,0,0,"RA,SH,SN"
2026-04-10 09:08:00,SPECI UUEE 100908Z 03007G12MPS 360V060 4800 2100SW -SHSN BKN014CB 01/M02 Q1012 R06R/520145 R06C/520145 TEMPO 1600 SHSNRA BKN016CB,0,7.0,1,4800,0,0,0,"RA,SH,SN"
2026-04-10 09:06:00,SPECI UUEE 100906Z 03008MPS 8000 1800NE SHSN BKN013CB 01/M02 Q1012 R06R/520145 R06C/520145 TEMPO 1600 SHSNRA BKN016CB,0,8.0,0,8000,0,0,0,"RA,SH,SN"
2026-04-10 09:00:00,METAR UUEE 100900Z 03008MPS 340V060 9000 -SHSN BKN014CB 01/M02 Q1012 R06R/520145 R06C/520145 TEMPO 1600 SHSNRA BKN016CB,0,8.0,0,9000,0,0,0,"RA,SH,SN"
2026-04-10 08:30:00,METAR UUEE 100830Z 03008MPS 9999 -SN OVC018 01/M03 Q1012 R06R/520145 R06C/520145 TEMPO 1600 SHSNRA BKN016CB,0,8.0,0,10000,0,0,0,"RA,SH,SN"
2026-04-10 08:17:00,SPECI UUEE 100817Z 02008MPS 9999 -SN OVC018 01/M03 Q1012 R06R/520145 R06C/520145 TEMPO 1100 SN BR,0,8.0,0,10000,0,0,1,"BR,SN"
2026-04-10 08:00:00,METAR UUEE 100800Z 02008G14MPS 360V080 9999 -SN OVC019 00/M03 Q1012 R06R/520145 R06C/520145 TEMPO 1100 SN BR,0,8.0,1,10000,0,0,1,"BR,SN"
2026-04-10 07:57:00,SPECI UUEE 100757Z 02008G14MPS 360V080 9000 -SN OVC021 00/M03 Q1012 R06R/520145 R06C/520145 TEMPO 1100 SN BR,0,8.0,1,9000,0,0,1,"BR,SN"
2026-04-10 07:30:00,METAR UUEE 100730Z 02008MPS 9999 -SN OVC021 00/M03 Q1012 R06R/520145 R06C/520145 TEMPO 1100 SN BR,0,8.0,0,10000,0,0,1,"BR,SN"
2026-04-10 07:28:00,SPECI UUEE 100728Z 02008MPS 9999 -SN OVC021 00/M03 Q1012 R06R/520145 R06C/520145 TEMPO 1100 SN BR,0,8.0,0,10000,0,0,1,"BR,SN"
2026-04-10 07:19:00,SPECI UUEE 100719Z 02008G16MPS 9999 -SN OVC021 00/M03 Q1012 WS R06R WS R06C R06R/520145 R06C/520145 TEMPO 1100 SN BR,0,8.0,1,10000,0,0,1,"BR,SN"
2026-04-10 07:18:00,SPECI UUEE 100718Z 02008G16MPS 9999 -SN OVC021 M00/M03 Q1012 R06R/520145 R06C/520145 TEMPO 1100 SN BR,0,8.0,1,10000,0,0,1,"BR,SN"
2026-04-10 07:12:00,SPECI UUEE 100712Z 02008G16MPS 9999 -SN OVC021 M00/M03 Q1012 WS R06R WS R06C R06R/520145 R06C/520145 TEMPO 1100 SN BR,0,8.0,1,10000,0,0,1,"BR,SN"
2026-04-10 07:00:00,METAR UUEE 100700Z 02009MPS 9000 -SN OVC024 M00/M03 Q1012 RESN WS R06R WS R06C R06R/520145 R06C/520145 TEMPO 1100 SN BR,0,9.0,0,9000,0,0,1,"BR,SN"
2026-04-10 06:56:00,SPECI UUEE 100656Z 02009MPS 8000 -SN OVC027 M00/M03 Q1012 WS R06R WS R06C R06R/520145 R06C/520145 TEMPO 1100 SN BR,0,9.0,0,8000,0,0,1,"BR,SN"
2026-04-10 06:54:00,SPECI UUEE 100654Z 02009MPS 7000 -SN OVC025 M00/M03 Q1012 R06R/520145 R06C/520145 TEMPO 1100 SN BR,0,9.0,0,7000,0,0,1,"BR,SN"
2026-04-10 06:41:00,SPECI UUEE 100641Z 03008G13MPS 3800 -SN OVC021 M00/M04 Q1012 R06R/520145 R06C/520145 TEMPO 1100 SN BR,0,8.0,1,3800,0,0,1,"BR,SN"
2026-04-10 06:33:00,SPECI UUEE 100633Z 02008MPS 9000 2000NE SN OVC018 M00/M04 Q1012 R06R/520145 R06C/520145 TEMPO 1100 SN BR,0,8.0,0,9000,0,0,1,"BR,SN"
2026-04-10 06:30:00,METAR UUEE 100630Z 02008MPS 9999 -SN OVC021 M00/M04 Q1012 R06R/520145 R06C/520145 NOSIG,0,8.0,0,10000,0,0,0,SN
2026-04-10 06:00:00,METAR UUEE 100600Z 04005G10MPS 350V070 9999 OVC025 M00/M04 Q1011 R06R/520145 R06C/520145 NOSIG,0,5.0,1,10000,0,0,0,
2026-04-10 05:30:00,METAR UUEE 100530Z 02008MPS 340V050 9999 OVC024 M00/M05 Q1011 R06R/520145 R06C/520145 NOSIG,0,8.0,0,10000,0,0,0,
2026-04-10 05:00:00,METAR UUEE 100500Z 02008MPS 9999 OVC024 M01/M04 Q1011 R06R/520145 R06C/520145 NOSIG,0,8.0,0,10000,0,0,0,
2026-04-10 04:39:00,SPECI UUEE 100439Z 01007G13MPS 350V050 8000 -SN OVC021 M01/M04 Q1012 R06R/550140 R06C/520145 NOSIG,0,7.0,1,8000,0,0,0,SN
2026-04-10 04:30:00,METAR UUEE 100430Z 02008MPS 8000 -SN OVC021 M01/M04 Q1012 R06R/550140 R06C/520145 NOSIG,0,8.0,0,8000,0,0,0,SN
2026-04-10 04:27:00,SPECI UUEE 100427Z 02009MPS 9000 -SN OVC028 M01/M04 Q1012 R06R/520145 R06C/550140 NOSIG,0,9.0,0,9000,0,0,0,SN
2026-04-10 04:02:00,SPECI UUEE 100402Z 02009G15MPS 340V040 8000 -SN OVC030 M01/M05 Q1011 R06R/520145 R06C/520145 NOSIG,0,9.0,1,8000,0,0,0,SN
2026-04-10 04:00:00,METAR UUEE 100400Z 02009MPS 9000 -SN OVC028 M01/M05 Q1011 R06R/520145 R06C/520145 NOSIG,0,9.0,0,9000,0,0,0,SN
2026-04-10 03:30:00,METAR UUEE 100330Z 02007MPS 350V050 9999 -SN OVC040 M00/M05 Q1012 R06R/CLRD62 R06C/290145 NOSIG,0,7.0,0,10000,0,0,0,SN
2026-04-10 03:00:00,METAR UUEE 100300Z 01007MPS 9999 -SN OVC040 M00/M06 Q1012 R06R/CLRD62 R06C/290145 NOSIG,0,7.0,0,10000,0,0,0,SN
2026-04-10 02:30:00,METAR UUEE 100230Z 02005G10MPS 350V050 9999 BKN038 M00/M06 Q1012 R06R/290145 R06C/290145 NOSIG,0,5.0,1,10000,0,0,0,
2026-04-10 02:00:00,METAR UUEE 100200Z 01008MPS 9999 BKN034 M00/M05 Q1012 R06R/290145 R06C/290145 NOSIG,0,8.0,0,10000,0,0,0,
2026-04-10 01:30:00,METAR UUEE 100130Z 02005G10MPS 310V070 9999 BKN034 00/M05 Q1012 R06R/290145 R06C/290145 NOSIG,0,5.0,1,10000,0,0,0,
2026-04-10 01:00:00,METAR UUEE 100100Z 36007MPS 9999 BKN034 00/M04 Q1013 R06R/290145 R06C/290145 NOSIG,0,7.0,0,10000,0,0,0,
2026-04-10 00:30:00,METAR UUEE 100030Z 36007MPS 9999 BKN031 00/M04 Q1013 R06R/290145 R06C/290145 NOSIG,0,7.0,0,10000,0,0,0,
2026-04-10 00:00:00,METAR UUEE 100000Z 36007G12MPS 9999 BKN030 00/M03 Q1013 R06R/290145 R06C/290145 NOSIG,0,7.0,1,10000,0,0,0,
2026-04-09 23:30:00,METAR UUEE 092330Z 36007G12MPS 9999 BKN032 00/M03 Q1013 R06R/290145 R06C/290145 NOSIG,0,7.0,1,10000,0,0,0,
2026-04-09 23:00:00,METAR UUEE 092300Z 36006MPS 9999 BKN032 00/M02 Q1013 R06R/290145 R06C/290145 NOSIG,0,6.0,0,10000,0,0,0,
2026-04-09 22:30:00,METAR UUEE 092230Z 36006MPS 340V070 9999 BKN032 00/M02 Q1014 R06R/290145 R06C/290145 NOSIG,0,6.0,0,10000,0,0,0,
2026-04-09 22:00:00,METAR UUEE 092200Z 01005MPS 9999 BKN031 00/M02 Q1014 R06R/290145 R06C/290145 NOSIG,0,5.0,0,10000,0,0,0,
2026-04-09 21:30:00,METAR UUEE 092130Z 01005MPS 9999 BKN028 00/M02 Q1014 R06R/290145 R06C/290145 NOSIG,0,5.0,0,10000,0,0,0,
2026-04-09 21:00:00,METAR UUEE 092100Z 36006MPS 9999 BKN031 00/M02 Q1014 R06R/290145 R06C/290145 NOSIG,0,6.0,0,10000,0,0,0,
2026-04-09 20:30:00,METAR UUEE 092030Z 01006MPS 340V050 9999 BKN039 00/M02 Q1015 R06R/290145 R06C/290145 NOSIG,0,6.0,0,10000,0,0,0,
2026-04-09 20:00:00,METAR UUEE 092000Z 36006MPS 9999 BKN037 00/M02 Q1015 R06R/290145 R06C/290145 NOSIG,0,6.0,0,10000,0,0,0,
2026-04-09 19:30:00,METAR UUEE 091930Z 01006G11MPS 9999 BKN038 00/M02 Q1015 R06R/290145 R06C/290145 NOSIG,0,6.0,1,10000,0,0,0,
2026-04-09 19:00:00,METAR UUEE 091900Z 36006G11MPS 330V040 9999 SCT012 BKN036 00/M02 Q1015 R06R/290145 R06C/290145 NOSIG,0,6.0,1,10000,0,0,0,
2026-04-09 18:30:00,METAR UUEE 091830Z 01006MPS 340V060 9999 BKN019 00/M02 Q1016 R06R/290145 R06C/290145 NOSIG,0,6.0,0,10000,0,0,0,
2026-04-09 18:00:00,METAR UUEE 091800Z 01006MPS 9999 -SN OVC018 00/M02 Q1016 R06R/290145 R06C/290145 NOSIG,0,6.0,0,10000,0,0,0,SN
2026-04-09 17:30:00,METAR UUEE 091730Z 02007MPS 9999 -SN BKN012 OVC022 M00/M02 Q1016 R06R/290145 R06C/290145 NOSIG,0,7.0,0,10000,0,0,0,SN
2026-04-09 17:00:00,METAR UUEE 091700Z 02007G14MPS 9999 -SN BKN010 OVC021 M00/M02 Q1016 RESN R06R/290145 R06C/290145 NOSIG,0,7.0,1,10000,0,0,0,SN
2026-04-09 16:54:00,SPECI UUEE 091654Z 02007G14MPS 9999 -SN BKN009 OVC021 M00/M02 Q1016 R06R/290145 R06C/290145 NOSIG,0,7.0,1,10000,0,0,0,SN
2026-04-09 16:50:00,SPECI UUEE 091650Z 02008MPS 9000 -SN BKN009 OVC023 M00/M02 Q1016 R06R/290145 R06C/290145 NOSIG,0,8.0,0,9000,0,0,0,SN
2026-04-09 16:30:00,METAR UUEE 091630Z 01007MPS 3500 -SN BKN007 OVC023 M00/M01 Q1016 R06R/290145 R06C/290145 NOSIG,0,7.0,0,3500,0,0,0,SN
2026-04-09 16:25:00,SPECI UUEE 091625Z 01007MPS 340V040 2800 -SN BKN007 OVC023 M00/M01 Q1016 R06R/290145 R06C/290145 NOSIG,0,7.0,0,2800,0,0,0,SN
2026-04-09 16:00:00,METAR UUEE 091600Z 01006MPS 3500 -SN BKN007 OVC024 M00/M01 Q1016 RESN R06R/290145 R06C/290145 NOSIG,0,6.0,0,3500,0,0,0,SN
2026-04-09 15:54:00,SPECI UUEE 091554Z 01006MPS 340V040 3000 -SN BKN006 OVC024 M00/M01 Q1016 R06R/290145 R06C/290145 NOSIG,0,6.0,0,3000,0,0,0,SN
2026-04-09 15:30:00,METAR UUEE 091530Z 01007MPS 350V050 1700 1200SW R06R/1300D R06C/1200D SN BKN007 OVC022 M00/M01 Q1015 R06R/290145 R06C/290145 NOSIG,0,7.0,0,1700,0,0,0,SN
2026-04-09 15:25:00,SPECI UUEE 091525Z 01007MPS 1700 R06R/1600D R06C/1700D SN BKN007 OVC020 M00/M01 Q1015 R06R/290145 R06C/290145 NOSIG,0,7.0,0,1700,0,0,0,SN
2026-04-09 15:22:00,SPECI UUEE 091522Z 01007MPS 2600 -SN BKN007 OVC020 M00/M01 Q1015 R06R/290145 R06C/290145 NOSIG,0,7.0,0,2600,0,0,0,SN
2026-04-09 15:14:00,SPECI UUEE 091514Z 01006G11MPS 340V040 3600 1700NE R06R/1900D SN BKN007 OVC020 M00/M01 Q1015 R06R/290145 R06C/290145 NOSIG,0,6.0,1,3600,0,0,0,SN
2026-04-09 15:09:00,SPECI UUEE 091509Z 01007MPS 2800 -SN BKN007 OVC020 M00/M01 Q1015 R06R/290145 R06C/290145 NOSIG,0,7.0,0,2800,0,0,0,SN
2026-04-09 15:05:00,SPECI UUEE 091505Z 01007MPS 3700 1800NE SN BKN006 OVC020 M00/M01 Q1015 R06R/290145 R06C/290145 NOSIG,0,7.0,0,3700,0,0,0,SN
2026-04-09 15:04:00,SPECI UUEE 091504Z 01007G12MPS 2900 -SN BKN006 OVC022 M00/M01 Q1015 R06R/290145 R06C/290145 NOSIG,0,7.0,1,2900,0,0,0,SN
2026-04-09 15:02:00,SPECI UUEE 091502Z 01007G12MPS 4900 1900NE SN BKN007 OVC022 M00/M01 Q1015 R06R/290145 R06C/290145 NOSIG,0,7.0,1,4900,0,0,0,SN
2026-04-09 15:00:00,METAR UUEE 091500Z 01008MPS 5000 2400NE -SN BKN007 OVC022 M00/M01 Q1015 R06R/290145 R06C/290145 NOSIG,0,8.0,0,5000,0,0,0,SN
2026-04-09 14:58:00,SPECI UUEE 091458Z 01008MPS 5000 -SN BKN006 OVC022 M00/M01 Q1015 R06R/290145 R06C/290145 NOSIG,0,8.0,0,5000,0,0,0,SN
2026-04-09 14:30:00,METAR UUEE 091430Z 01006MPS 1700 R06R/1700U R06C/1700U SN BKN006 OVC019 M00/M01 Q1015 RESHSN R06R/290145 R06C/290145 NOSIG,0,6.0,0,1700,0,0,0,SN
2026-04-09 14:04:00,SPECI UUEE 091404Z 01006MPS 330V040 1400 1300NE R06R/1900D R06C/2000D SHSN BKN005 BKN025CB M00/M01 Q1015 R06R/290145 R06C/290145 NOSIG,0,6.0,0,1400,0,0,0,"SH,SN"
2026-04-09 14:00:00,METAR UUEE 091400Z 01006G11MPS 320V030 1900 1200SW R06R/1400N R06C/1200N SHSN BKN006 BKN025CB M00/M01 Q1015 R06R/290145 R06C/290145 NOSIG,0,6.0,1,1900,0,0,0,"SH,SN"
2026-04-09 13:48:00,SPECI UUEE 091348Z 36007MPS 1300 1100NW R06R/1300U R06C/1300U SHSN BKN004 BKN022CB M00/M01 Q1015 R06R/290145 R06C/290145 NOSIG,0,7.0,0,1300,0,0,0,"SH,SN"
2026-04-09 13:30:00,METAR UUEE 091330Z 36006G11MPS 0900 R06R/0900N R06C/0900N +SHSN VV004 00/M01 Q1015 R06R/290145 R06C/290145 NOSIG,0,6.0,1,1448100,0,0,0,SN
2026-04-09 13:27:00,SPECI UUEE 091327Z 01006MPS 340V050 0900 0800NE R06R/0900N R06C/0900N +SHSN VV004 00/M01 Q1015 R06R/290145 R06C/290145 NOSIG,0,6.0,0,1448100,0,0,0,SN
2026-04-09 13:24:00,SPECI UUEE 091324Z 01006MPS 340V050 0900 R06R/0900N R06C/0900D +SHSN VV005 00/M01 Q1015 R06R/290145 R06C/290145 NOSIG,0,6.0,0,1448100,0,0,0,SN
2026-04-09 13:04:00,SPECI UUEE 091304Z 01006MPS 320V040 1100 0900NE R06R/1100D R06C/1100D +SHSN BKN005 BKN020CB 00/M01 Q1015 R06R/290145 R06C/290145 NOSIG,0,6.0,0,1100,0,0,0,SN
2026-04-09 13:00:00,METAR UUEE 091300Z 02006G11MPS 350V070 1300 1100NE R06R/1400D R06C/1400D SHSN BKN005 BKN020CB 00/M01 Q1015 RESN R06R/290145 R06C/290145 NOSIG,0,6.0,1,1300,0,0,0,"SH,SN"
2026-04-09 12:41:00,SPECI UUEE 091241Z 02007MPS 340V040 1400 1300NW R06R/1500D R06C/1400D SHSN BKN007 BKN021CB 01/M01 Q1015 R06R/290145 R06C/290145 NOSIG,0,7.0,0,1400,0,0,0,"SH,SN"
2026-04-09 12:39:00,SPECI UUEE 091239Z 36007MPS 2000 1400NE R06R/2000D SHSN BKN007 BKN021CB 01/M01 Q1015 R06R/290145 R06C/290145 NOSIG,0,7.0,0,2000,0,0,0,"SH,SN"
2026-04-09 12:36:00,SPECI UUEE 091236Z 01007G12MPS 5000 1700NE SHSN BKN007 BKN021CB 01/M01 Q1015 R06R/290145 R06C/290145 NOSIG,0,7.0,1,5000,0,0,0,"SH,SN"
2026-04-09 12:30:00,METAR UUEE 091230Z 01008G13MPS 8000 -SN BKN009 OVC021 01/M01 Q1015 R06R/290145 R06C/290145 NOSIG,0,8.0,1,8000,0,0,0,SN
2026-04-09 12:00:00,METAR UUEE 091200Z 01006G11MPS 330V030 9999 -SN BKN010 OVC025 01/M01 Q1014 R06R/290145 R06C/290145 NOSIG,0,6.0,1,10000,0,0,0,SN
2026-04-09 11:30:00,METAR UUEE 091130Z 36009MPS 340V040 9999 -SN BKN009 OVC023 01/M01 Q1014 RESHSN R06R/290145 R06C/290145 NOSIG,0,9.0,0,10000,0,0,0,SN
2026-04-09 11:14:00,SPECI UUEE 091114Z 02006G11MPS 340V060 9999 -SN BKN008 OVC023 01/M00 Q1014 R06R/290145 R06C/290145 NOSIG,0,6.0,1,10000,0,0,0,SN
2026-04-09 11:03:00,SPECI UUEE 091103Z 01009MPS 7000 2000NW SHSN BKN008 BKN020CB 01/M00 Q1014 R06R/290145 R06C/290145 NOSIG,0,9.0,0,7000,0,0,0,"SH,SN"
2026-04-09 11:00:00,METAR UUEE 091100Z 01008G13MPS 5000 -SHSN BKN005 BKN020CB 01/M00 Q1014 RESHSN R06R/290145 R06C/290145 NOSIG,0,8.0,1,5000,0,0,0,SN
2026-04-09 10:54:00,SPECI UUEE 091054Z 02007G12MPS 3200 -SHSN BKN007 BKN020CB 01/M00 Q1014 R06R/290145 R06C/290145 NOSIG,0,7.0,1,3200,0,0,0,SN
2026-04-09 10:52:00,SPECI UUEE 091052Z 01008G13MPS 340V040 6000 2000NE SHSN BKN007 BKN020CB 01/M00 Q1014 R06R/290145 R06C/290145 NOSIG,0,8.0,1,6000,0,0,0,"SH,SN"
2026-04-09 10:51:00,SPECI UUEE 091051Z 02008G13MPS 4600 2200NE -SHSN BKN007 BKN020CB 01/M01 Q1014 R06R/290145 R06C/290145 NOSIG,0,8.0,1,4600,0,0,0,SN
2026-04-09 10:38:00,SPECI UUEE 091038Z 01006G12MPS 340V050 8000 1700NW SN BKN009 OVC023 01/M01 Q1014 R06R/290145 R06C/290145 NOSIG,0,6.0,1,8000,0,0,0,SN
2026-04-09 10:30:00,METAR UUEE 091030Z 02007G12MPS 9000 -SN BKN009 OVC023 02/M00 Q1014 RESN R06R/290145 R06C/290145 NOSIG,0,7.0,1,9000,0,0,0,SN
2026-04-09 10:00:00,METAR UUEE 091000Z 02008G15MPS 340V050 9000 -SHSN BKN007 BKN020CB 01/M00 Q1014 R06R/290145 R06C/290145 NOSIG,0,8.0,1,9000,0,0,0,SN
2026-04-09 09:30:00,METAR UUEE 090930Z 01008G13MPS 340V040 9999 -SN BKN010 OVC023 02/M00 Q1014 R06R/290145 R06C/290145 NOSIG,0,8.0,1,10000,0,0,0,SN
2026-04-09 09:21:00,SPECI UUEE 090921Z 01008G13MPS 340V040 9999 -SN BKN009 OVC021 02/M00 Q1014 R06R/290145 R06C/290145 NOSIG,0,8.0,1,10000,0,0,0,SN
2026-04-09 09:00:00,METAR UUEE 090900Z 02008MPS 9999 -SN BKN009 OVC019 02/M00 Q1014 R06C/290145 NOSIG,0,8.0,0,10000,0,0,0,SN
2026-04-09 08:48:00,SPECI UUEE 090848Z 01008MPS 9999 -SN BKN010 OVC024 02/M00 Q1014 R06C/290145 NOSIG,0,8.0,0,10000,0,0,0,SN
2026-04-09 08:30:00,METAR UUEE 090830Z 01008G13MPS 9999 -SN BKN010 OVC020 02/M00 Q1014 R06C/290145 NOSIG,0,8.0,1,10000,0,0,0,SN
2026-04-09 08:00:00,METAR UUEE 090800Z 01007G12MPS 340V040 9999 -RA BKN010 OVC018 02/M01 Q1014 R06R/290145 R06C/290145 NOSIG,0,7.0,1,10000,0,0,0,-RA
2026-04-09 07:30:00,METAR UUEE 090730Z 01007G12MPS 9999 -RA BKN009 OVC017 02/M00 Q1013 R06R/290145 R06C/290145 NOSIG,0,7.0,1,10000,0,0,0,-RA
2026-04-09 07:13:00,SPECI UUEE 090713Z 01008G13MPS 330V040 9999 -SNRA OVC008 02/M00 Q1013 R06R/290145 R06C/290145 NOSIG,0,8.0,1,10000,0,0,0,RA
2026-04-09 07:00:00,METAR UUEE 090700Z 01008MPS 9999 -DZ OVC009 02/00 Q1013 R06R/290145 R06C/290145 NOSIG,0,8.0,0,10000,0,0,0,DZ
2026-04-09 06:30:00,METAR UUEE 090630Z 03007G12MPS 9999 -DZ OVC007 02/00 Q1013 R06R/290145 R06C/290145 NOSIG,0,7.0,1,10000,0,0,0,DZ
2026-04-09 06:03:00,SPECI UUEE 090603Z 02008G14MPS 9999 -DZ OVC006 02/01 Q1013 R06R/290145 R06C/290145 NOSIG,0,8.0,1,10000,0,0,0,DZ
2026-04-09 06:00:00,METAR UUEE 090600Z 02008MPS 9999 -DZ OVC007 02/01 Q1013 R06R/290145 R06C/290145 NOSIG,0,8.0,0,10000,0,0,0,DZ
2026-04-09 05:30:00,METAR UUEE 090530Z 02008MPS 9999 -RA BKN007 OVC016 02/01 Q1013 R06R/290145 R06C/290145 NOSIG,0,8.0,0,10000,0,0,0,-RA
2026-04-09 05:11:00,SPECI UUEE 090511Z 02007G13MPS 9999 -RA BKN008 OVC018 02/01 Q1013 R06R/290145 R06C/290145 NOSIG,0,7.0,1,10000,0,0,0,-RA
2026-04-09 05:00:00,METAR UUEE 090500Z 02008MPS 9999 -RA BKN007 OVC023 02/01 Q1013 R06R/290145 R06C/290145 NOSIG,0,8.0,0,10000,0,0,0,-RA
2026-04-09 04:30:00,METAR UUEE 090430Z 04005G11MPS 9999 -RA BKN008 OVC023 03/01 Q1013 R06R/290145 R06C/290145 NOSIG,0,5.0,1,10000,0,0,0,-RA
2026-04-09 04:00:00,METAR UUEE 090400Z 01006MPS 9999 -RA BKN007 OVC017 03/02 Q1012 R06R/290145 R06C/290145 NOSIG,0,6.0,0,10000,0,0,0,-RA
2026-04-09 03:30:00,METAR UUEE 090330Z 01006MPS 9999 -DZ OVC005 03/02 Q1012 R06R/290145 R06C/290145 NOSIG,0,6.0,0,10000,0,0,0,DZ
2026-04-09 03:00:00,METAR UUEE 090300Z 01005MPS 9999 -DZ OVC003 03/02 Q1012 R06R/290145 R06C/290145 NOSIG,0,5.0,0,10000,0,0,0,DZ
2026-04-09 02:30:00,METAR UUEE 090230Z 01005MPS 9999 OVC002 02/02 Q1012 R06R/250145 NOSIG,0,5.0,0,10000,0,0,0,
2026-04-09 02:00:00,METAR UUEE 090200Z 36005MPS 9000 OVC002 02/01 Q1012 R06C/250145 NOSIG,0,5.0,0,9000,0,0,0,
2026-04-09 01:30:00,METAR UUEE 090130Z 35004MPS 9999 OVC002 02/01 Q1012 R06R/250145 R06C/250145 NOSIG,0,4.0,0,10000,0,0,0,
2026-04-09 01:00:00,METAR UUEE 090100Z 36004MPS 9000 OVC002 01/01 Q1012 R06R/250145 R06C/250145 NOSIG,0,4.0,0,9000,0,0,0,
2026-04-09 00:30:00,METAR UUEE 090030Z 36005MPS 5000 BR OVC002 01/01 Q1012 R06R/250145 R06C/250145 NOSIG,0,5.0,0,5000,0,0,1,BR
2026-04-09 00:14:00,SPECI UUEE 090014Z 36005MPS 3500 BR OVC002 01/01 Q1012 R06R/250145 R06C/250145 NOSIG RMK QBB060,0,5.0,0,3500,0,0,1,BR
2026-04-09 00:00:00,METAR UUEE 090000Z 35006MPS 2100 BR OVC002 01/01 Q1012 R06R/250145 R06C/250145 NOSIG RMK QBB060,0,6.0,0,2100,0,0,1,BR
2026-04-08 23:30:00,METAR UUEE 082330Z 36004MPS 340V050 2400 1400NE BR OVC002 01/00 Q1012 R06R/250145 R06C/250145 NOSIG RMK QBB060,0,4.0,0,2400,0,0,1,BR
2026-04-08 23:00:00,METAR UUEE 082300Z 36005MPS 2700 R06C/P2000D BR OVC002 01/00 Q1012 R06R/250145 R06C/250145 NOSIG,0,5.0,0,2700,0,0,1,BR
2026-04-08 22:49:00,SPECI UUEE 082249Z 34004MPS 310V010 2900 BR OVC002 01/00 Q1012 R06R/250145 R06C/250145 NOSIG RMK QBB060,0,4.0,0,2900,0,0,1,BR
2026-04-08 22:46:00,SPECI UUEE 082246Z 34004MPS 310V010 4900 BR OVC002 01/00 Q1012 R06R/250145 R06C/250145 NOSIG RMK QBB060,0,4.0,0,4900,0,0,1,BR
2026-04-08 22:30:00,METAR UUEE 082230Z 35004MPS 9000 OVC002 01/00 Q1012 R06R/250145 R06C/250145 NOSIG,0,4.0,0,9000,0,0,0,
2026-04-08 22:00:00,METAR UUEE 082200Z 01004MPS 330V040 9999 OVC003 01/00 Q1012 R06R/250145 R06C/250145 NOSIG,0,4.0,0,10000,0,0,0,
2026-04-08 21:30:00,METAR UUEE 082130Z 01004MPS 9999 OVC003 01/00 Q1012 R06R/250145 R06C/250145 NOSIG,0,4.0,0,10000,0,0,0,
2026-04-08 21:00:00,METAR UUEE 082100Z 35004MPS 310V040 9999 OVC002 01/00 Q1012 R06R/250145 R06C/250145 NOSIG,0,4.0,0,10000,0,0,0,
2026-04-08 20:30:00,METAR UUEE 082030Z 36005MPS 9999 OVC003 01/00 Q1012 R06R/250145 R06C/250145 NOSIG,0,5.0,0,10000,0,0,0,
2026-04-08 20:00:00,METAR UUEE 082000Z 36006MPS 9999 OVC003 01/M00 Q1011 R06R/250145 R06C/250145 NOSIG,0,6.0,0,10000,0,0,0,
2026-04-08 19:30:00,METAR UUEE 081930Z 36006G13MPS 320V020 9999 OVC004 01/M00 Q1012 R06R/290145 R06C/250145 NOSIG,0,6.0,1,10000,0,0,0,
2026-04-08 19:00:00,METAR UUEE 081900Z 02005MPS 340V050 9999 OVC005 01/M00 Q1012 R06R/290145 R06C/290145 NOSIG,0,5.0,0,10000,0,0,0,
2026-04-08 18:30:00,METAR UUEE 081830Z 36006MPS 320V030 9999 OVC006 01/M00 Q1012 R06R/290145 R06C/290145 NOSIG,0,6.0,0,10000,0,0,0,
2026-04-08 18:00:00,METAR UUEE 081800Z 36006MPS 9999 BKN007 OVC016 02/00 Q1011 R06R/290145 R06C/290145 NOSIG,0,6.0,0,10000,0,0,0,
2026-04-08 17:30:00,METAR UUEE 081730Z 35005MPS 9999 BKN007 OVC016 02/00 Q1011 R06R/290145 R06C/290145 NOSIG,0,5.0,0,10000,0,0,0,
2026-04-08 17:00:00,METAR UUEE 081700Z 35005MPS 9999 BKN007 OVC016 02/00 Q1011 R06R/290145 R06C/290145 NOSIG,0,5.0,0,10000,0,0,0,
2026-04-08 16:30:00,METAR UUEE 081630Z 35005G10MPS 9999 -RA BKN007 OVC026 02/01 Q1010 R06R/290145 R06C/290145 NOSIG,0,5.0,1,10000,0,0,0,-RA
2026-04-08 16:00:00,METAR UUEE 081600Z 35005G10MPS 320V040 9999 -RA BKN007 OVC018 02/01 Q1010 R06R/290145 R06C/290145 NOSIG,0,5.0,1,10000,0,0,0,-RA
2026-04-08 15:30:00,METAR UUEE 081530Z 35005MPS 330V040 9999 -RA BKN007 OVC022 03/01 Q1010 R06R/290145 R06C/290145 NOSIG,0,5.0,0,10000,0,0,0,-RA
2026-04-08 15:06:00,SPECI UUEE 081506Z 35005MPS 320V030 9999 -RA BKN007 OVC024 03/02 Q1010 R06R/290145 R06C/290145 NOSIG,0,5.0,0,10000,0,0,0,-RA
2026-04-08 15:00:00,METAR UUEE 081500Z 36005MPS 330V060 9999 -RA SCT007 OVC024 03/01 Q1010 R06R/290145 R06C/290145 NOSIG,0,5.0,0,10000,0,0,0,-RA
2026-04-08 14:30:00,METAR UUEE 081430Z 35006MPS 320V040 9999 -SHRA SCT008 BKN027CB 03/01 Q1009 RERA R06R/290145 R06C/290145 NOSIG,0,6.0,0,10000,0,0,0,RA
2026-04-08 14:19:00,SPECI UUEE 081419Z 34006MPS 310V050 9999 -RA SCT008 OVC025 03/01 Q1009 R06R/290145 R06C/290145 NOSIG,0,6.0,0,10000,0,0,0,-RA
2026-04-08 14:00:00,METAR UUEE 081400Z 35003MPS 9999 -RA OVC014 04/01 Q1009 R06R/290145 R06C/290145 NOSIG,0,3.0,0,10000,0,0,0,-RA
2026-04-08 13:30:00,METAR UUEE 081330Z 01005MPS 9999 -SHRA BKN019CB 04/01 Q1009 R06R/290145 R06C/290145 NOSIG,0,5.0,0,10000,0,0,0,RA
2026-04-08 13:00:00,METAR UUEE 081300Z 35006MPS 310V020 9999 -SHRA BKN020CB 03/01 Q1009 R06R/290145 R06C/290145 NOSIG,0,6.0,0,10000,0,0,0,RA
2026-04-08 12:50:00,SPECI UUEE 081250Z 35005MPS 320V080 9999 -SHRA BKN020CB 05/00 Q1008 R06R/290145 R06C/290145 NOSIG,0,5.0,0,10000,0,0,0,RA
2026-04-08 12:30:00,METAR UUEE 081230Z 09003MPS 9999 SCT024 04/M00 Q1008 R06R/290145 R06C/290145 NOSIG,0,3.0,0,10000,0,0,0,
2026-04-08 12:00:00,METAR UUEE 081200Z 36004MPS 320V030 9999 BKN024 05/01 Q1008 R06R/290145 R06C/290145 NOSIG,0,4.0,0,10000,0,0,0,
2026-04-08 11:30:00,METAR UUEE 081130Z 34005G10MPS 9999 BKN019 04/01 Q1008 R06R/290145 R06C/290145 NOSIG,0,5.0,1,10000,0,0,0,
2026-04-08 11:00:00,METAR UUEE 081100Z 31004MPS 9999 -RA BKN010 04/01 Q1008 R06R/290145 R06C/290145 NOSIG,0,4.0,0,10000,0,0,0,-RA
2026-04-08 10:30:00,METAR UUEE 081030Z 33004MPS 310V050 9999 -RA SCT015 04/01 Q1007 R06R/290145 R06C/290145 NOSIG,0,4.0,0,10000,0,0,0,-RA
2026-04-08 10:00:00,METAR UUEE 081000Z 36003MPS 320V020 9999 -RA SCT014 04/01 Q1007 R24L/290145 R24C/290145 NOSIG,0,3.0,0,10000,0,0,0,-RA
2026-04-08 09:30:00,METAR UUEE 080930Z 30004MPS 9999 -RA SCT028 03/01 Q1007 R24L/290145 R24C/290145 NOSIG,0,4.0,0,10000,0,0,0,-RA
2026-04-08 09:06:00,SPECI UUEE 080906Z 32004MPS 9999 SCT019 06/M01 Q1006 R24L/290145 R24C/290145 NOSIG,0,4.0,0,10000,0,0,0,
2026-04-08 09:00:00,METAR UUEE 080900Z 32004MPS 9999 SCT018 04/M01 Q1006 R24L/290145 R24C/290145 NOSIG,0,4.0,0,10000,0,0,0,
2026-04-08 08:30:00,METAR UUEE 080830Z 34002G09MPS 280V020 9999 SCT019 04/M01 Q1006 R24L/290145 R24C/290145 NOSIG,0,2.0,1,10000,0,0,0,
2026-04-08 08:00:00,METAR UUEE 080800Z 33003MPS 300V010 9999 SCT021 04/M00 Q1006 R24L/290145 R24C/290145 NOSIG,0,3.0,0,10000,0,0,0,
2026-04-08 07:30:00,METAR UUEE 080730Z 32002G08MPS 9999 SCT013 03/M00 Q1005 R24L/290145 R24C/290145 NOSIG,0,2.0,1,10000,0,0,0,
2026-04-08 07:00:00,METAR UUEE 080700Z 32003MPS 280V350 9999 SCT015 03/M00 Q1005 R24L/290145 R24C/290145 NOSIG,0,3.0,0,10000,0,0,0,
2026-04-08 06:49:00,SPECI UUEE 080649Z 33003G09MPS 9999 SCT009 02/M00 Q1005 R24L/290145 R24C/290145 NOSIG,0,3.0,1,10000,0,0,0,
2026-04-08 06:30:00,METAR UUEE 080630Z 29002G08MPS 9999 BKN012 02/00 Q1005 R24L/290145 R24C/290145 NOSIG,0,2.0,1,10000,0,0,0,
2026-04-08 06:00:00,METAR UUEE 080600Z 31003MPS 9999 -RA BKN009 02/M00 Q1005 R24L/290145 R24C/290145 NOSIG,0,3.0,0,10000,0,0,0,-RA
2026-04-08 05:30:00,METAR UUEE 080530Z 32003MPS 9999 BKN009 02/00 Q1004 R24L/290145 R24C/290145 NOSIG,0,3.0,0,10000,0,0,0,
2026-04-08 05:00:00,METAR UUEE 080500Z 32003MPS 290V350 9999 BKN009 02/M00 Q1004 R24L/290145 R24C/290145 NOSIG,0,3.0,0,10000,0,0,0,
2026-04-08 04:30:00,METAR UUEE 080430Z 30003MPS 270V350 9999 -RA BKN011 02/M00 Q1004 R24L/290145 R24C/290145 NOSIG,0,3.0,0,10000,0,0,0,-RA
2026-04-08 04:00:00,METAR UUEE 080400Z 30003MPS 9999 -RA BKN008 02/00 Q1003 R24L/290145 R24C/290145 NOSIG,0,3.0,0,10000,0,0,0,-RA
2026-04-08 03:30:00,METAR UUEE 080330Z 29004MPS 9999 BKN009 01/M00 Q1003 R24L/290145 R24C/290145 NOSIG,0,4.0,0,10000,0,0,0,
2026-04-08 03:18:00,SPECI UUEE 080318Z 31003MPS 9999 BKN009 01/M00 Q1003 R24L/290145 R24C/290145 NOSIG,0,3.0,0,10000,0,0,0,
2026-04-08 03:00:00,METAR UUEE 080300Z 30003MPS 9999 -RA SCT009 02/00 Q1003 R24L/290145 R24C/290145 NOSIG,0,3.0,0,10000,0,0,0,-RA
2026-04-08 02:30:00,METAR UUEE 080230Z 30003MPS 9999 -RA SCT014 02/M00 Q1002 R24L/290145 R24C/290145 NOSIG,0,3.0,0,10000,0,0,0,-RA
2026-04-08 02:00:00,METAR UUEE 080200Z 31003MPS 9999 -SHRA SCT010 BKN027CB 02/00 Q1002 R24L/290145 R24C/290145 NOSIG,0,3.0,0,10000,0,0,0,RA
2026-04-08 01:30:00,METAR UUEE 080130Z 29004MPS 9999 -SHRA SCT012 BKN023CB 02/00 Q1002 R24L/290145 R24C/290145 NOSIG,0,4.0,0,10000,0,0,0,RA
2026-04-08 01:00:00,METAR UUEE 080100Z 30004MPS 9999 -SHRA SCT007 BKN022CB 02/00 Q1002 R24L/290145 R24C/290145 NOSIG,0,4.0,0,10000,0,0,0,RA
2026-04-08 00:30:00,METAR UUEE 080030Z 29004MPS 9999 -SHRA SCT009 BKN024CB 02/00 Q1002 R24L/290145 R24C/290145 NOSIG,0,4.0,0,10000,0,0,0,RA
2026-04-08 00:17:00,SPECI UUEE 080017Z 29004MPS 9999 -SHRA SCT009 BKN024CB 02/00 Q1002 R24L/290145 R24C/290145 NOSIG,0,4.0,0,10000,0,0,0,RA
2026-04-08 00:00:00,METAR UUEE 080000Z 28004MPS 9999 BKN009 02/00 Q1002 R24L/290145 R24C/290145 NOSIG,0,4.0,0,10000,0,0,0,
2026-04-07 23:30:00,METAR UUEE 072330Z 29004MPS 9999 BKN009 02/01 Q1002 R24L/290145 R24C/290145 NOSIG,0,4.0,0,10000,0,0,0,
2026-04-07 23:00:00,METAR UUEE 072300Z 29004MPS 9999 BKN009 02/01 Q1001 R24L/290145 R24C/290145 NOSIG,0,4.0,0,10000,0,0,0,
2026-04-07 22:30:00,METAR UUEE 072230Z 31004MPS 9999 BKN010 02/00 Q1001 R24L/290145 R24C/290145 NOSIG,0,4.0,0,10000,0,0,0,
2026-04-07 22:00:00,METAR UUEE 072200Z 31005G11MPS 270V330 9999 BKN008 03/01 Q1001 R24L/290145 R24C/290145 NOSIG,0,5.0,1,10000,0,0,0,
2026-04-07 21:30:00,METAR UUEE 072130Z 32004MPS 9999 BKN009 03/02 Q1001 R24L/290145 R24C/290145 NOSIG,0,4.0,0,10000,0,0,0,
2026-04-07 21:00:00,METAR UUEE 072100Z 30004MPS 9999 BKN014 03/01 Q1001 R24L/290145 R24C/290145 NOSIG,0,4.0,0,10000,0,0,0,
2026-04-07 20:31:00,SPECI UUEE 072031Z 31004G11MPS 9999 BKN008 03/02 Q1001 R24L/290145 R24C/290145 NOSIG,0,4.0,1,10000,0,0,0,
2026-04-07 20:30:00,METAR UUEE 072030Z 31004G11MPS 9999 -SHRA SCT008 BKN022CB 03/02 Q1001 R24L/290145 R24C/290145 NOSIG,0,4.0,1,10000,0,0,0,RA
2026-04-07 20:00:00,METAR UUEE 072000Z 29004G10MPS 210V320 9999 -SHRA SCT008 BKN027CB 04/02 Q1001 R24L/290145 R24C/290145 NOSIG,0,4.0,1,10000,0,0,0,RA
2026-04-07 19:30:00,METAR UUEE 071930Z 30005MPS 9000 -SHRA BKN018CB 04/02 Q1000 R24L/290145 R24C/290145 NOSIG,0,5.0,0,9000,0,0,0,RA
2026-04-07 19:00:00,METAR UUEE 071900Z 28005MPS 9999 BKN013 04/02 Q1000 R24L/290145 R24C/290145 NOSIG,0,5.0,0,10000,0,0,0,
2026-04-07 18:30:00,METAR UUEE 071830Z 27005MPS 9999 FEW019 05/02 Q1000 R24L/290145 R24C/290145 NOSIG,0,5.0,0,10000,0,0,0,
2026-04-07 18:00:00,METAR UUEE 071800Z 26005MPS 9999 SCT033 04/02 Q1000 R24L/290145 R24C/290145 NOSIG,0,5.0,0,10000,0,0,0,
2026-04-07 17:30:00,METAR UUEE 071730Z 28005MPS 9999 FEW029CB 04/01 Q1000 R24L/290145 R24C/290145 NOSIG,0,5.0,0,10000,0,0,0,
2026-04-07 17:00:00,METAR UUEE 071700Z 31006MPS 270V340 9000 -SHRA BKN019CB 04/02 Q1000 R24L/290145 R24C/290145 NOSIG,0,6.0,0,9000,0,0,0,RA
2026-04-07 16:50:00,SPECI UUEE 071650Z 32005MPS 290V360 9999 -SHRA BKN017CB 05/02 Q1000 R24L/290145 R24C/290145 NOSIG,0,5.0,0,10000,0,0,0,RA
2026-04-07 16:30:00,METAR UUEE 071630Z 26005MPS 9999 SCT035CB 05/01 Q1000 R24L/CLRD62 R24C/CLRD62 NOSIG,0,5.0,0,10000,0,0,0,
2026-04-07 16:00:00,METAR UUEE 071600Z 24006MPS 9999 SCT036 05/01 Q1000 R24L/CLRD62 R24C/CLRD62 NOSIG,0,6.0,0,10000,0,0,0,
2026-04-07 15:30:00,METAR UUEE 071530Z 26006MPS 9999 FEW036 06/00 Q1000 R24L/CLRD62 R24C/CLRD62 NOSIG,0,6.0,0,10000,0,0,0,
2026-04-07 15:00:00,METAR UUEE 071500Z 27006MPS 9999 FEW040 06/M00 Q0999 R24L/CLRD62 R24C/CLRD62 NOSIG,0,6.0,0,10000,0,0,0,
2026-04-07 14:30:00,METAR UUEE 071430Z 30005G12MPS 250V330 9999 FEW033 07/M01 Q0999 R24L/CLRD62 R24C/CLRD62 NOSIG,0,5.0,1,10000,0,0,0,
2026-04-07 14:00:00,METAR UUEE 071400Z 31005MPS 280V350 9999 FEW033 07/M00 Q0999 R24L/CLRD62 R24C/CLRD62 NOSIG,0,5.0,0,10000,0,0,0,
2026-04-07 13:30:00,METAR UUEE 071330Z 33005G12MPS 9999 SCT026 07/00 Q0999 R24L/CLRD62 R24C/CLRD62 NOSIG,0,5.0,1,10000,0,0,0,
2026-04-07 13:00:00,METAR UUEE 071300Z 36005MPS 9999 SCT021 06/01 Q0999 R24L/CLRD62 R24C/CLRD62 NOSIG,0,5.0,0,10000,0,0,0,
2026-04-07 12:30:00,METAR UUEE 071230Z 33005G10MPS 230V360 9999 SCT021 06/01 Q0999 R24L/CLRD62 R24C/CLRD62 NOSIG,0,5.0,1,10000,0,0,0,
2026-04-07 12:09:00,SPECI UUEE 071209Z 34004MPS 290V030 9999 SCT036 07/01 Q0999 R24L/CLRD62 R24C/CLRD62 NOSIG,0,4.0,0,10000,0,0,0,
2026-04-07 12:00:00,METAR UUEE 071200Z 35004G09MPS 9999 BKN033 05/01 Q0999 R24L/CLRD62 R24C/CLRD62 NOSIG,0,4.0,1,10000,0,0,0,
2026-04-07 11:30:00,METAR UUEE 071130Z 33006MPS 9999 BKN020 05/01 Q0999 R24L/CLRD62 R24C/CLRD62 NOSIG,0,6.0,0,10000,0,0,0,
2026-04-07 11:26:00,SPECI UUEE 071126Z 35005MPS 310V020 9999 BKN023 05/01 Q0999 R24L/CLRD62 R24C/CLRD62 NOSIG,0,5.0,0,10000,0,0,0,
2026-04-07 11:00:00,METAR UUEE 071100Z 29005MPS 260V320 9999 BKN018 07/01 Q0998 R24L/CLRD62 R24C/CLRD62 NOSIG,0,5.0,0,10000,0,0,0,
2026-04-07 10:30:00,METAR UUEE 071030Z 30005MPS 9999 BKN017 06/01 Q0998 R24L/CLRD62 R24C/CLRD62 NOSIG,0,5.0,0,10000,0,0,0,
2026-04-07 10:00:00,METAR UUEE 071000Z 28006MPS 250V310 9999 BKN015 05/01 Q0998 R24C/CLRD62 NOSIG,0,6.0,0,10000,0,0,0,
2026-04-07 09:30:00,METAR UUEE 070930Z 28006G14MPS 9999 BKN012 05/02 Q0998 R24C/CLRD62 NOSIG,0,6.0,1,10000,0,0,0,
2026-04-07 09:00:00,METAR UUEE 070900Z 28006G11MPS 260V320 9999 BKN011 04/01 Q0997 R24L/CLRD62 R24C/CLRD62 NOSIG,0,6.0,1,10000,0,0,0,
2026-04-07 08:30:00,METAR UUEE 070830Z 28005MPS 9999 BKN008 04/02 Q0997 R24L/CLRD62 NOSIG,0,5.0,0,10000,0,0,0,
2026-04-07 08:00:00,METAR UUEE 070800Z 27006MPS 9999 OVC005 03/01 Q0997 R24L/CLRD62 R24C/CLRD62 NOSIG,0,6.0,0,10000,0,0,0,
2026-04-07 07:30:00,METAR UUEE 070730Z 28005G10MPS 230V320 9999 OVC005 03/01 Q0997 R24L/CLRD62 R24C/CLRD62 NOSIG,0,5.0,1,10000,0,0,0,
2026-04-07 07:00:00,METAR UUEE 070700Z 29005MPS 9999 OVC004 02/01 Q0997 R24L/CLRD62 R24C/CLRD62 NOSIG,0,5.0,0,10000,0,0,0,
2026-04-07 06:30:00,METAR UUEE 070630Z 27005MPS 9000 OVC003 02/01 Q0996 R24L/CLRD62 R24C/CLRD62 NOSIG,0,5.0,0,9000,0,0,0,
2026-04-07 06:00:00,METAR UUEE 070600Z 29004MPS 9000 OVC003 02/01 Q0996 R24L/CLRD62 R24C/CLRD62 NOSIG,0,4.0,0,9000,0,0,0,
2026-04-07 05:30:00,METAR UUEE 070530Z 30004MPS 240V330 9000 OVC002 02/01 Q0996 R24L/CLRD62 R24C/CLRD62 NOSIG,0,4.0,0,9000,0,0,0,
2026-04-07 05:00:00,METAR UUEE 070500Z 31003MPS 9000 OVC002 01/00 Q0996 R24L/290145 R24C/290145 NOSIG,0,3.0,0,9000,0,0,0,
2026-04-07 04:30:00,METAR UUEE 070430Z 31004MPS 250V330 9999 OVC003 01/00 Q0996 R24L/290145 R24C/290145 NOSIG,0,4.0,0,10000,0,0,0,
2026-04-07 04:02:00,SPECI UUEE 070402Z 30003MPS 270V340 9999 BKN003 01/M00 Q0996 R24L/290145 R24C/290145 NOSIG,0,3.0,0,10000,0,0,0,
2026-04-07 04:00:00,METAR UUEE 070400Z 31004MPS 9999 SCT003 01/M00 Q0996 R24L/290145 R24C/290145 NOSIG,0,4.0,0,10000,0,0,0,
2026-04-07 03:30:00,METAR UUEE 070330Z 30003MPS CAVOK 01/M00 Q0996 R24L/290145 R24C/290145 NOSIG,1,0.0,0,9999,0,0,0,
2026-04-07 03:00:00,METAR UUEE 070300Z 34002MPS 300V360 CAVOK 01/00 Q0996 R24L/290145 R24C/290145 NOSIG,1,0.0,0,9999,0,0,0,
2026-04-07 02:30:00,METAR UUEE 070230Z 28002MPS 250V330 CAVOK 01/00 Q0996 R24L/290145 R24C/290145 NOSIG,1,0.0,0,9999,0,0,0,
2026-04-07 02:00:00,METAR UUEE 070200Z 28003MPS CAVOK 01/00 Q0996 R24L/290145 R24C/290145 NOSIG,1,0.0,0,9999,0,0,0,
2026-04-07 01:52:00,SPECI UUEE 070152Z 28003MPS 7000 SCT001 01/00 Q0996 R24L/290145 R24C/290145 NOSIG RMK QBB040,0,3.0,0,7000,0,0,0,
2026-04-07 01:30:00,METAR UUEE 070130Z 28002MPS 0300 0200SW R24L/0800N R24C/0800D FG VV001 00/00 Q0996 R24L/290145 R24C/290145 NOSIG RMK QBB040,0,2.0,0,482700,0,0,1,FG
2026-04-07 01:29:00,SPECI UUEE 070129Z 28002MPS 0300 0200SW R24L/0800D R24C/0900D FG VV001 00/00 Q0996 R24L/290145 R24C/290145 NOSIG RMK QBB040,0,2.0,0,482700,0,0,1,FG
2026-04-07 01:18:00,SPECI UUEE 070118Z 25002MPS 0250 0200NW R24L/0750N R24C/1100U FG VV001 01/00 Q0996 R24L/290145 R24C/290145 NOSIG RMK QBB040,0,2.0,0,402250,0,0,1,FG
2026-04-07 01:00:00,METAR UUEE 070100Z 24002MPS 0150 0100NE R24L/0400N R24C/0400N FG VV001 01/01 Q0996 R24L/290145 R24C/290145 NOSIG RMK QBB040,0,2.0,0,241350,0,0,1,FG
2026-04-07 00:30:00,METAR UUEE 070030Z 08002MPS 0150 R24L/0550N R24C/0500N FG VV001 01/01 Q0997 R24L/290145 R24C/290145 NOSIG RMK QBB040,0,2.0,0,241350,0,0,1,FG
2026-04-07 00:16:00,SPECI UUEE 070016Z 06002MPS 030V160 0250 0150NE R24L/0550N R24C/0550N FG VV001 01/01 Q0997 R24L/290145 R24C/290145 NOSIG RMK QBB040,0,2.0,0,402250,0,0,1,FG
2026-04-07 00:00:00,METAR UUEE 070000Z 04002MPS 0250 0150NE R24L/0600N R24C/0550N FG VV001 01/01 Q0997 R24L/290145 R24C/290145 NOSIG RMK QBB040,0,2.0,0,402250,0,0,1,FG
2026-04-06 23:48:00,SPECI UUEE 062348Z 11002MPS 0300 0150NE R24L/0550N R24C/0550N FG VV001 01/01 Q0997 R24L/290145 R24C/290145 NOSIG RMK QBB040,0,2.0,0,482700,0,0,1,FG
2026-04-06 23:47:00,SPECI UUEE 062347Z 10002MPS 0300 0200NE R24L/0600D R24C/0550D FG VV001 01/01 Q0997 R24L/290145 R24C/290145 NOSIG RMK QBB040,0,2.0,0,482700,0,0,1,FG
2026-04-06 23:42:00,SPECI UUEE 062342Z 11001MPS 0300 0200NE R24L/0750D R24C/0700D FG VV001 01/01 Q0997 R24L/290145 R24C/290145 NOSIG RMK QBB040,0,1.0,0,482700,0,0,1,FG
2026-04-06 23:30:00,METAR UUEE 062330Z 16001MPS 0300 0200NW R24L/0800N R24C/0750N FG VV001 01/01 Q0997 R24L/290145 R24C/290145 NOSIG RMK QBB040,0,1.0,0,482700,0,0,1,FG
2026-04-06 23:28:00,SPECI UUEE 062328Z VRB01MPS 0300 0200NW R24L/0800N R24C/0750N FG VV001 01/01 Q0997 R24L/290145 R24C/290145 NOSIG RMK QBB040,0,1.0,0,482700,0,0,1,FG
2026-04-06 23:00:00,METAR UUEE 062300Z 24002MPS 0200 0100NW R24L/0800U R24C/0800N FG VV001 01/00 Q0998 R24L/290145 R24C/290145 NOSIG RMK QBB040,0,2.0,0,321800,0,0,1,FG
2026-04-06 22:48:00,SPECI UUEE 062248Z 24002MPS 0150 0100NW R24L/0600N R24C/0550N FG VV001 01/01 Q0998 R24L/290145 R24C/290145 NOSIG RMK QBB040,0,2.0,0,241350,0,0,1,FG
2026-04-06 22:35:00,SPECI UUEE 062235Z 31001MPS 0150 0100NE R24L/0350N R24C/0325N FG VV001 01/01 Q0998 R24L/290145 R24C/290145 NOSIG RMK QBB040,0,1.0,0,241350,0,0,1,FG
2026-04-06 22:30:00,METAR UUEE 062230Z 32001MPS 0150 0100NE R24L/0375N R24C/0400D FG VV001 01/01 Q0998 R24L/290145 R24C/290145 NOSIG RMK QBB050,0,1.0,0,241350,0,0,1,FG
2026-04-06 22:00:00,METAR UUEE 062200Z 32001MPS 0150 0100NW R24L/0500N R24C/0500N FG VV001 01/01 Q0998 R24L/290145 R24C/290145 NOSIG RMK QBB050,0,1.0,0,241350,0,0,1,FG
2026-04-06 21:52:00,SPECI UUEE 062152Z 30001MPS 0150 0100NW R24L/0550D R24C/0550N FG VV001 02/01 Q0998 R24L/290145 R24C/290145 NOSIG RMK QBB050,0,1.0,0,241350,0,0,1,FG
2026-04-06 21:35:00,SPECI UUEE 062135Z 34001MPS 0150 0100NW R24L/0550N R24C/0600U FG VV001 02/01 Q0998 R24L/290145 R24C/290145 NOSIG RMK QBB050,0,1.0,0,241350,0,0,1,FG
2026-04-06 21:30:00,METAR UUEE 062130Z 33001MPS 0150 R24L/0600N R24C/0550N FG VV001 02/01 Q0998 R24L/290145 R24C/290145 NOSIG RMK QBB050,0,1.0,0,241350,0,0,1,FG
2026-04-06 21:26:00,SPECI UUEE 062126Z 34001MPS 0200 0150NE R24L/0650N R24C/0550N FG VV001 02/01 Q0998 R24L/290145 R24C/290145 NOSIG RMK QBB050,0,1.0,0,321800,0,0,1,FG
2026-04-06 21:19:00,SPECI UUEE 062119Z VRB01MPS 0250 0150NE R24L/0750D R24C/0700D FG VV002 02/01 Q0998 R24L/290145 R24C/290145 NOSIG RMK QBB060,0,1.0,0,402250,0,0,1,FG
2026-04-06 21:17:00,SPECI UUEE 062117Z VRB01MPS 0300 0150NE R24L/0800D R24C/0750N FG BKN002 02/01 Q0998 R24L/290145 R24C/290145 NOSIG RMK QBB060,0,1.0,0,482700,0,0,1,FG
2026-04-06 21:11:00,SPECI UUEE 062111Z VRB01MPS 0450 0200NE R24L/1100D R24C/0800N FG BKN002 02/01 Q0998 R24L/290145 R24C/290145 NOSIG RMK QBB060,0,1.0,0,724050,0,0,1,FG
2026-04-06 21:00:00,METAR UUEE 062100Z 25001MPS 0500 0200NE R24L/0750U R24C/0650N FG BKN002 02/01 Q0998 R24L/290145 R24C/290145 NOSIG RMK QBB060,0,1.0,0,804500,0,0,1,FG
2026-04-06 20:55:00,SPECI UUEE 062055Z 21002MPS 160V260 0450 0250NE R24L/0750D R24C/0650N FG BKN001 02/01 Q0998 R24L/290145 R24C/290145 NOSIG RMK QBB050,0,2.0,0,724050,0,0,1,FG
2026-04-06 20:52:00,SPECI UUEE 062052Z 22002MPS 160V260 0500 0250NE R24L/0800D R24C/0750D FG SCT002 02/01 Q0998 R24L/290145 R24C/290145 TEMPO 0500 FG RMK QBB060,0,2.0,0,804500,0,0,1,FG
2026-04-06 20:44:00,SPECI UUEE 062044Z 04002MPS 320V120 0600 0250NW R24L/1300D R24C/0900D FG SCT002 02/01 Q0998 R24L/290145 R24C/290145 TEMPO 0500 FG RMK QBB060,0,2.0,0,965400,0,0,1,FG
2026-04-06 20:43:00,SPECI UUEE 062043Z 04002MPS 320V120 1400 0250NW R24L/1100D R24C/0800D PRFG SCT002 02/01 Q0998 R24L/290145 R24C/290145 TEMPO 0500 FG RMK QBB060,0,2.0,0,1400,0,0,1,FG
2026-04-06 20:41:00,SPECI UUEE 062041Z 05002MPS 320V120 2900 0250NW R24L/1000D R24C/1100D PRFG SCT001 02/01 Q0998 R24L/290145 R24C/290145 TEMPO 0500 FG RMK QBB050,0,2.0,0,2900,0,0,1,FG
2026-04-06 20:40:00,SPECI UUEE 062040Z 06002MPS 320V120 4700 0250NE R24L/0750D R24C/0800D PRFG SCT002 02/01 Q0998 R24L/290145 R24C/290145 TEMPO 0500 FG RMK QBB060,0,2.0,0,4700,0,0,1,FG
2026-04-06 20:30:00,METAR UUEE 062030Z 11003MPS 080V140 6000 0250NW R24L/P2000D R24C/P2000D PRFG SCT001 02/01 Q0998 R24L/290145 R24C/290145 TEMPO 0500 FG RMK QBB050,0,3.0,0,6000,0,0,1,FG
2026-04-06 20:00:00,METAR UUEE 062000Z 02002G07MPS 9000 4400NW BR NSC 02/01 Q0999 R24L/290145 R24C/290145 NOSIG,0,2.0,1,9000,0,0,1,BR
2026-04-06 19:30:00,METAR UUEE 061930Z 35003G08MPS 320V050 CAVOK 02/01 Q0999 R24L/290145 R24C/290145 NOSIG,1,0.0,0,9999,0,0,0,
2026-04-06 19:00:00,METAR UUEE 061900Z 31003MPS 260V330 CAVOK 03/02 Q0999 R24L/290145 R24C/290145 NOSIG,1,0.0,0,9999,0,0,0,
2026-04-06 18:30:00,METAR UUEE 061830Z 29004MPS 250V320 CAVOK 04/02 Q1000 R24L/290145 R24C/290145 NOSIG,1,0.0,0,9999,0,0,0,
2026-04-06 18:00:00,METAR UUEE 061800Z 27003G08MPS 200V300 CAVOK 04/02 Q1000 R24L/290145 R24C/290145 NOSIG,1,0.0,0,9999,0,0,0,
2026-04-06 17:30:00,METAR UUEE 061730Z 28005MPS 9999 BKN011 04/02 Q1000 R24L/290145 R24C/290145 NOSIG,0,5.0,0,10000,0,0,0,
2026-04-06 17:00:00,METAR UUEE 061700Z 28005G10MPS 240V320 9999 SCT009 05/02 Q1000 R24L/290145 R24C/290145 NOSIG,0,5.0,1,10000,0,0,0,
2026-04-06 16:51:00,SPECI UUEE 061651Z 27005MPS 9999 SCT009 05/03 Q1000 R24L/290145 R24C/290145 NOSIG,0,5.0,0,10000,0,0,0,
2026-04-06 16:30:00,METAR UUEE 061630Z 28004MPS 9999 BKN009 04/03 Q1000 R24L/290145 R24C/290145 NOSIG,0,4.0,0,10000,0,0,0,
2026-04-06 16:00:00,METAR UUEE 061600Z 27004G10MPS 220V320 9999 BKN010 05/03 Q1000 R24L/290145 R24C/290145 NOSIG,0,4.0,1,10000,0,0,0,
2026-04-06 15:30:00,METAR UUEE 061530Z 28003MPS 9999 -RA BKN013 04/03 Q1000 R24L/290145 R24C/290145 NOSIG,0,3.0,0,10000,0,0,0,-RA
2026-04-06 15:00:00,METAR UUEE 061500Z 29005MPS 260V320 9999 -RA SCT008 OVC023 05/03 Q1000 R24L/290145 R24C/290145 NOSIG,0,5.0,0,10000,0,0,0,-RA
2026-04-06 14:30:00,METAR UUEE 061430Z 25005MPS 9999 -RA SCT010 OVC033 05/03 Q1000 R24L/290145 R24C/290145 NOSIG,0,5.0,0,10000,0,0,0,-RA
2026-04-06 14:00:00,METAR UUEE 061400Z 21005MPS 6000 -RA SCT006 OVC023 05/03 Q1000 R24L/290145 R24C/290145 NOSIG,0,5.0,0,6000,0,0,0,-RA
2026-04-06 13:45:00,SPECI UUEE 061345Z 22007MPS 8000 -RA SCT007 OVC023 05/03 Q1000 R24L/290145 R24C/290145 NOSIG,0,7.0,0,8000,0,0,0,-RA
2026-04-06 13:30:00,METAR UUEE 061330Z 22006MPS 9000 -RA OVC012 06/04 Q1000 R24L/290145 R24C/290145 NOSIG,0,6.0,0,9000,0,0,0,-RA
2026-04-06 13:17:00,SPECI UUEE 061317Z 20005MPS 160V230 9000 -RA OVC010 06/03 Q1000 R24L/290145 R24C/290145 NOSIG,0,5.0,0,9000,0,0,0,-RA
2026-04-06 13:00:00,METAR UUEE 061300Z 14004MPS 9999 -RA OVC015 06/03 Q1000 R06R/290145 R06C/290145 NOSIG,0,4.0,0,10000,0,0,0,-RA
2026-04-06 12:30:00,METAR UUEE 061230Z 16004MPS 9999 OVC019 06/02 Q1000 R06R/290145 R06C/290145 NOSIG,0,4.0,0,10000,0,0,0,
2026-04-06 12:00:00,METAR UUEE 061200Z 15004MPS 9999 OVC019 06/02 Q1001 R06R/290145 R06C/290145 NOSIG,0,4.0,0,10000,0,0,0,
2026-04-06 11:30:00,METAR UUEE 061130Z 13005MPS 9999 OVC020 06/03 Q1001 R24L/290145 R24C/290145 NOSIG,0,5.0,0,10000,0,0,0,
2026-04-06 11:00:00,METAR UUEE 061100Z 13006MPS 9999 OVC041 06/02 Q1001 R24L/290145 R24C/290145 NOSIG,0,6.0,0,10000,0,0,0,
2026-04-06 10:30:00,METAR UUEE 061030Z 13005MPS 9999 -RA NSC 06/03 Q1002 R24L/290145 R24C/290145 NOSIG,0,5.0,0,10000,0,0,0,-RA
2026-04-06 10:00:00,METAR UUEE 061000Z 16005MPS 130V200 9999 -RA OVC036 06/02 Q1002 R24L/290145 R24C/290145 NOSIG,0,5.0,0,10000,0,0,0,-RA
2026-04-06 09:30:00,METAR UUEE 060930Z 20005MPS 150V240 9999 -RA OVC028 06/01 Q1003 R24C/290145 NOSIG,0,5.0,0,10000,0,0,0,-RA
2026-04-06 09:00:00,METAR UUEE 060900Z 22006MPS 9999 -RA SCT029 07/M00 Q1003 R24C/CLRD62 NOSIG,0,6.0,0,10000,0,0,0,-RA
2026-04-06 08:30:00,METAR UUEE 060830Z 22005MPS 190V250 CAVOK 07/M01 Q1003 R24L/CLRD62 R24C/CLRD62 NOSIG,1,0.0,0,9999,0,0,0,
2026-04-06 08:00:00,METAR UUEE 060800Z 21004MPS 170V240 CAVOK 07/M00 Q1004 R24L/CLRD62 R24C/CLRD62 NOSIG,1,0.0,0,9999,0,0,0,
2026-04-06 07:30:00,METAR UUEE 060730Z 22006MPS CAVOK 07/00 Q1004 R24L/CLRD62 R24C/CLRD62 NOSIG,1,0.0,0,9999,0,0,0,
2026-04-06 07:00:00,METAR UUEE 060700Z 22004MPS 200V260 CAVOK 06/01 Q1004 R24L/CLRD62 R24C/CLRD62 NOSIG,1,0.0,0,9999,0,0,0,
2026-04-06 06:30:00,METAR UUEE 060630Z 22004MPS CAVOK 06/00 Q1004 R24L/CLRD62 R24C/CLRD62 NOSIG,1,0.0,0,9999,0,0,0,
2026-04-06 06:00:00,METAR UUEE 060600Z 18002MPS 160V220 CAVOK 05/01 Q1005 R24L/CLRD62 R24C/CLRD62 NOSIG,1,0.0,0,9999,0,0,0,
2026-04-06 05:59:00,SPECI UUEE 060559Z 19002MPS 160V220 CAVOK 05/01 Q1005 R24L/CLRD62 R24C/CLRD62 NOSIG,1,0.0,0,9999,0,0,0,
2026-04-06 05:30:00,METAR UUEE 060530Z 22003MPS 170V240 CAVOK 03/01 Q1005 R24L/CLRD62 R24C/CLRD62 NOSIG,1,0.0,0,9999,0,0,0,
2026-04-06 05:00:00,METAR UUEE 060500Z 24003MPS CAVOK 03/01 Q1006 R24L/CLRD62 R24C/CLRD62 NOSIG,1,0.0,0,9999,0,0,0,
2026-04-06 04:30:00,METAR UUEE 060430Z 23004MPS CAVOK 02/01 Q1006 R24L/CLRD62 R24C/CLRD62 NOSIG,1,0.0,0,9999,0,0,0,
2026-04-06 04:00:00,METAR UUEE 060400Z 23004MPS CAVOK 02/00 Q1006 R24L/CLRD62 R24C/CLRD62 NOSIG,1,0.0,0,9999,0,0,0,
2026-04-06 03:30:00,METAR UUEE 060330Z 25003MPS CAVOK 01/M00 Q1006 R24L/CLRD62 R24C/CLRD62 NOSIG,1,0.0,0,9999,0,0,0,
2026-04-06 03:00:00,METAR UUEE 060300Z 23003MPS CAVOK 01/M00 Q1006 R24L/CLRD62 R24C/CLRD62 NOSIG,1,0.0,0,9999,0,0,0,
2026-04-06 02:30:00,METAR UUEE 060230Z 24004MPS CAVOK 00/M01 Q1006 R24L/CLRD62 NOSIG,1,0.0,0,9999,0,0,0,
2026-04-06 02:00:00,METAR UUEE 060200Z 23003MPS CAVOK 01/M00 Q1007 R24C/CLRD62 NOSIG,1,0.0,0,9999,0,0,0,
2026-04-06 01:30:00,METAR UUEE 060130Z 26004MPS CAVOK 01/M00 Q1007 R24L/CLRD62 R24C/CLRD62 NOSIG,1,0.0,0,9999,0,0,0,
2026-04-06 01:00:00,METAR UUEE 060100Z 26005MPS CAVOK 02/00 Q1007 R24L/CLRD62 R24C/CLRD62 NOSIG,1,0.0,0,9999,0,0,0,
2026-04-06 00:30:00,METAR UUEE 060030Z 27005MPS CAVOK 02/00 Q1007 R24L/CLRD62 R24C/CLRD62 NOSIG,1,0.0,0,9999,0,0,0,
2026-04-06 00:00:00,METAR UUEE 060000Z 27005MPS CAVOK 03/M00 Q1007 R24L/CLRD62 R24C/CLRD62 NOSIG,1,0.0,0,9999,0,0,0,
2026-04-05 23:30:00,METAR UUEE 052330Z 27006G11MPS CAVOK 03/M00 Q1007 R24L/CLRD62 R24C/CLRD62 NOSIG,1,0.0,0,9999,0,0,0,
2026-04-05 23:00:00,METAR UUEE 052300Z 27006MPS 9999 SCT045 04/M00 Q1007 R24L/CLRD62 R24C/CLRD62 NOSIG,0,6.0,0,10000,0,0,0,
2026-04-05 22:30:00,METAR UUEE 052230Z 28006MPS 9999 SCT046 04/00 Q1007 R24L/CLRD62 R24C/CLRD62 NOSIG,0,6.0,0,10000,0,0,0,
2026-04-05 22:00:00,METAR UUEE 052200Z 28006MPS 9999 SCT047 05/01 Q1007 R24L/CLRD62 R24C/CLRD62 NOSIG,0,6.0,0,10000,0,0,0,
2026-04-05 21:30:00,METAR UUEE 052130Z 29006MPS 9999 BKN046 05/02 Q1007 R24L/250145 R24C/250145 NOSIG,0,6.0,0,10000,0,0,0,
2026-04-05 21:00:00,METAR UUEE 052100Z 27006MPS 9999 BKN044 05/02 Q1006 R24L/250145 R24C/250145 NOSIG,0,6.0,0,10000,0,0,0,
2026-04-05 20:30:00,METAR UUEE 052030Z 27006MPS 9999 BKN041 05/02 Q1006 R24L/250145 R24C/250145 NOSIG,0,6.0,0,10000,0,0,0,
2026-04-05 20:00:00,METAR UUEE 052000Z 27007MPS 9999 SCT038 05/02 Q1006 R24L/250145 R24C/250145 NOSIG,0,7.0,0,10000,0,0,0,
2026-04-05 19:30:00,METAR UUEE 051930Z 27006MPS 9999 SCT036 05/02 Q1006 R24L/290145 R24C/250145 NOSIG,0,6.0,0,10000,0,0,0,
2026-04-05 19:00:00,METAR UUEE 051900Z 27006MPS 9999 SCT033 05/02 Q1006 R24L/290145 R24C/290145 NOSIG,0,6.0,0,10000,0,0,0,
2026-04-05 18:30:00,METAR UUEE 051830Z 27006MPS 9999 SCT033 05/02 Q1006 R24L/290145 R24C/290145 NOSIG,0,6.0,0,10000,0,0,0,
2026-04-05 18:00:00,METAR UUEE 051800Z 27006MPS 9999 SCT033 05/02 Q1006 R24L/290145 R24C/290145 NOSIG,0,6.0,0,10000,0,0,0,
2026-04-05 17:30:00,METAR UUEE 051730Z 29004MPS 9999 BKN029 05/01 Q1006 R24L/290145 R24C/290145 NOSIG,0,4.0,0,10000,0,0,0,
2026-04-05 17:00:00,METAR UUEE 051700Z 30004MPS 9999 SCT022 05/02 Q1006 R24L/290145 R24C/290145 NOSIG,0,4.0,0,10000,0,0,0,
2026-04-05 16:30:00,METAR UUEE 051630Z 31004G10MPS 220V340 9999 SCT026CB 05/02 Q1005 R24L/290145 R24C/290145 NOSIG,0,4.0,1,10000,0,0,0,
2026-04-05 16:00:00,METAR UUEE 051600Z 31004MPS 260V360 9999 -SHRA SCT015CB 05/02 Q1005 R24L/290145 R24C/290145 NOSIG,0,4.0,0,10000,0,0,0,RA
2026-04-05 15:00:00,METAR UUEE 051500Z 29006MPS 9999 SCT018CB 06/02 Q1004 R24L/290145 R24C/290145 NOSIG,0,6.0,0,10000,0,0,0,
2026-04-05 13:13:00,SPECI UUEE 051313Z 27006G13MPS 240V320 9999 -SHRA SCT015CB 07/03 Q1003 R24L/290145 R24C/290145 NOSIG,0,6.0,1,10000,0,0,0,RA
2026-04-05 13:00:00,METAR UUEE 051300Z 26005MPS 9999 BKN024CB 07/03 Q1002 R24L/290145 R24C/290145 NOSIG,0,5.0,0,10000,0,0,0,
2026-04-05 12:48:00,SPECI UUEE 051248Z 26005MPS 230V300 9999 FEW015 SCT050TCU 07/04 Q1003 R24L/290145 R24C/290145 NOSIG,0,5.0,0,10000,0,0,0,
2026-04-05 12:30:00,METAR UUEE 051230Z 25004MPS 210V300 9999 SCT050TCU 05/02 Q1002 R24L/290145 R24C/290145 NOSIG,0,4.0,0,10000,0,0,0,
2026-04-05 12:00:00,METAR UUEE 051200Z 26007MPS 9000 -SHRA SCT017CB 05/03 Q1002 R24L/290145 R24C/290145 NOSIG,0,7.0,0,9000,0,0,0,RA
2026-04-05 11:30:00,METAR UUEE 051130Z 27007G12MPS 230V320 9999 -SHRA SCT015CB 06/01 Q1002 R24L/290145 R24C/290145 NOSIG,0,7.0,1,10000,0,0,0,RA
2026-04-05 11:00:00,METAR UUEE 051100Z 32004MPS 9999 -SHRA BKN028CB 06/03 Q1002 R24C/290145 NOSIG,0,4.0,0,10000,0,0,0,RA
2026-04-05 10:30:00,METAR UUEE 051030Z 30006MPS 250V350 9999 SCT019CB 07/03 Q1001 R24C/290145 NOSIG,0,6.0,0,10000,0,0,0,
2026-04-05 10:00:00,METAR UUEE 051000Z 27008MPS 9999 -SHRA BKN013CB 06/02 Q1001 R24L/290145 R24C/290145 NOSIG,0,8.0,0,10000,0,0,0,RA
2026-04-05 09:30:00,METAR UUEE 050930Z 26007MPS 9999 BKN014 06/02 Q1001 R24L/290145 R24C/290145 NOSIG,0,7.0,0,10000,0,0,0,
2026-04-05 09:26:00,SPECI UUEE 050926Z 26006MPS 9999 BKN013 06/02 Q1001 R24L/290145 R24C/290145 NOSIG,0,6.0,0,10000,0,0,0,
2026-04-05 09:12:00,SPECI UUEE 050912Z 27006MPS 9999 -SHRA SCT011CB 05/03 Q1001 R24L/290145 R24C/290145 NOSIG,0,6.0,0,10000,0,0,0,RA
2026-04-05 09:00:00,METAR UUEE 050900Z 28008MPS 5000 -SHRA BKN010CB 03/02 Q1001 RESHRA R24L/290145 R24C/290145 NOSIG,0,8.0,0,5000,0,0,0,RA
2026-04-05 08:30:00,METAR UUEE 050830Z 27006MPS 9999 SCT020CB 05/01 Q1001 R24L/290145 R24C/290145 NOSIG,0,6.0,0,10000,0,0,0,
2026-04-05 08:00:00,METAR UUEE 050800Z 27006MPS 240V300 9999 SCT015CB 05/02 Q1001 R24L/290145 R24C/290145 NOSIG,0,6.0,0,10000,0,0,0,
2026-04-05 07:30:00,METAR UUEE 050730Z 26007MPS 9999 SCT016CB 05/01 Q1001 R24L/290145 R24C/290145 NOSIG,0,7.0,0,10000,0,0,0,
2026-04-05 07:00:00,METAR UUEE 050700Z 26006MPS 9999 SCT014 05/02 Q1001 R24L/290145 R24C/290145 NOSIG,0,6.0,0,10000,0,0,0,
2026-04-05 06:45:00,SPECI UUEE 050645Z 25007MPS 9999 SCT013 05/02 Q1001 R24L/290145 R24C/290145 NOSIG,0,7.0,0,10000,0,0,0,
2026-04-05 06:30:00,METAR UUEE 050630Z 25007MPS 9999 BKN012 05/02 Q1001 R24L/290145 R24C/290145 NOSIG,0,7.0,0,10000,0,0,0,
2026-04-05 06:00:00,METAR UUEE 050600Z 25006MPS 9999 BKN009 04/02 Q1001 R24L/290145 R24C/290145 NOSIG,0,6.0,0,10000,0,0,0,
2026-04-05 05:44:00,SPECI UUEE 050544Z 25005MPS 9999 BKN008 04/02 Q1001 R24L/290145 R24C/290145 NOSIG,0,5.0,0,10000,0,0,0,
2026-04-05 05:30:00,METAR UUEE 050530Z 24005MPS 9999 SCT008 04/02 Q1001 R24L/290145 R24C/290145 NOSIG,0,5.0,0,10000,0,0,0,
2026-04-05 05:29:00,SPECI UUEE 050529Z 24005MPS 9999 SCT008 04/02 Q1001 R24L/290145 R24C/290145 NOSIG,0,5.0,0,10000,0,0,0,
2026-04-05 05:00:00,METAR UUEE 050500Z 22005MPS 9999 BKN008 03/02 Q1001 R24L/290145 R24C/290145 NOSIG,0,5.0,0,10000,0,0,0,
2026-04-05 04:30:00,METAR UUEE 050430Z 24004MPS 9999 -RA BKN008 03/02 Q1001 R24L/290145 R24C/290145 NOSIG,0,4.0,0,10000,0,0,0,-RA
2026-04-05 04:00:00,METAR UUEE 050400Z 24004MPS 9999 -RA BKN008 03/01 Q1001 R24L/290145 R24C/290145 NOSIG,0,4.0,0,10000,0,0,0,-RA
2026-04-05 03:30:00,METAR UUEE 050330Z 22005MPS 9999 -RA BKN009 03/01 Q1001 R24L/290145 R24C/290145 NOSIG,0,5.0,0,10000,0,0,0,-RA
2026-04-05 03:00:00,METAR UUEE 050300Z 24005MPS 9999 -RA BKN015 03/00 Q1001 R24L/290145 R24C/290145 NOSIG,0,5.0,0,10000,0,0,0,-RA
2026-04-05 02:30:00,METAR UUEE 050230Z 25004MPS 9999 BKN040 03/M00 Q1001 R24L/290145 R24C/290145 NOSIG,0,4.0,0,10000,0,0,0,
2026-04-05 02:00:00,METAR UUEE 050200Z 26006MPS 9999 -RA BKN040 04/00 Q1001 R24L/290145 R24C/290145 NOSIG,0,6.0,0,10000,0,0,0,-RA
2026-04-05 01:30:00,METAR UUEE 050130Z 27006MPS 9999 BKN034 04/M01 Q1001 R24L/CLRD62 R24C/CLRD62 NOSIG,0,6.0,0,10000,0,0,0,
2026-04-05 01:00:00,METAR UUEE 050100Z 24003MPS CAVOK 04/M01 Q1001 R24L/CLRD62 R24C/CLRD62 NOSIG,1,0.0,0,9999,0,0,0,
2026-04-05 00:30:00,METAR UUEE 050030Z 26003MPS CAVOK 05/M01 Q1001 R24L/CLRD62 R24C/CLRD62 NOSIG,1,0.0,0,9999,0,0,0,
2026-04-05 00:00:00,METAR UUEE 050000Z 28002MPS 240V320 CAVOK 05/M01 Q1001 R24L/CLRD62 R24C/CLRD62 NOSIG,1,0.0,0,9999,0,0,0,
2026-04-04 23:30:00,METAR UUEE 042330Z 26002MPS 230V300 CAVOK 05/M01 Q1002 R24L/CLRD62 R24C/CLRD62 NOSIG,1,0.0,0,9999,0,0,0,
2026-04-04 23:00:00,METAR UUEE 042300Z 29003MPS CAVOK 05/M01 Q1002 R24L/CLRD62 R24C/CLRD62 NOSIG,1,0.0,0,9999,0,0,0,
2026-04-04 22:30:00,METAR UUEE 042230Z 30004MPS CAVOK 05/M02 Q1002 R24L/CLRD62 R24C/CLRD62 NOSIG,1,0.0,0,9999,0,0,0,
2026-04-04 22:00:00,METAR UUEE 042200Z 30004MPS CAVOK 05/M02 Q1003 R24L/CLRD62 R24C/CLRD62 NOSIG,1,0.0,0,9999,0,0,0,
2026-04-04 21:30:00,METAR UUEE 042130Z 29004MPS CAVOK 05/M02 Q1003 R24L/CLRD62 R24C/CLRD62 NOSIG,1,0.0,0,9999,0,0,0,
2026-04-04 21:00:00,METAR UUEE 042100Z 28003G09MPS 190V330 CAVOK 06/M02 Q1003 R24L/CLRD62 R24C/CLRD62 NOSIG,1,0.0,0,9999,0,0,0,
2026-04-04 20:30:00,METAR UUEE 042030Z 28003MPS 240V310 CAVOK 06/M02 Q1003 R24L/CLRD62 R24C/CLRD62 NOSIG,1,0.0,0,9999,0,0,0,
2026-04-04 20:00:00,METAR UUEE 042000Z 32002MPS CAVOK 07/M02 Q1003 R24L/CLRD62 R24C/CLRD62 NOSIG,1,0.0,0,9999,0,0,0,
2026-04-04 19:30:00,METAR UUEE 041930Z 26002MPS CAVOK 08/M02 Q1003 R24L/CLRD62 R24C/CLRD62 NOSIG,1,0.0,0,9999,0,0,0,
2026-04-04 19:00:00,METAR UUEE 041900Z 08002MPS 050V110 CAVOK 08/M02 Q1003 R24L/CLRD62 R24C/CLRD62 NOSIG,1,0.0,0,9999,0,0,0,
2026-04-04 18:30:00,METAR UUEE 041830Z 02003MPS 340V060 CAVOK 08/M02 Q1003 R24L/CLRD62 R24C/CLRD62 NOSIG,1,0.0,0,9999,0,0,0,
2026-04-04 18:00:00,METAR UUEE 041800Z 35003G09MPS CAVOK 09/M02 Q1003 R24L/CLRD62 R24C/CLRD62 NOSIG,1,0.0,0,9999,0,0,0,
2026-04-04 17:30:00,METAR UUEE 041730Z 30005MPS 240V340 CAVOK 11/M03 Q1003 R24L/CLRD62 R24C/CLRD62 NOSIG,1,0.0,0,9999,0,0,0,
2026-04-04 17:00:00,METAR UUEE 041700Z 27004MPS 240V300 CAVOK 12/M04 Q1003 R24L/CLRD62 R24C/CLRD62 NOSIG,1,0.0,0,9999,0,0,0,
2026-04-04 16:30:00,METAR UUEE 041630Z 21003MPS CAVOK 12/M04 Q1003 R24L/CLRD62 R24C/CLRD62 NOSIG,1,0.0,0,9999,0,0,0,
2026-04-04 16:00:00,METAR UUEE 041600Z 25005MPS 220V290 9999 SCT050CB 12/M02 Q1003 R24L/CLRD62 R24C/CLRD62 NOSIG,0,5.0,0,10000,0,0,0,
2026-04-04 15:30:00,METAR UUEE 041530Z 24004MPS CAVOK 12/M04 Q1003 R24L/CLRD62 R24C/CLRD62 NOSIG,1,0.0,0,9999,0,0,0,
2026-04-04 15:00:00,METAR UUEE 041500Z 25006MPS CAVOK 13/M04 Q1003 R24L/CLRD62 R24C/CLRD62 NOSIG,1,0.0,0,9999,0,0,0,
2026-04-04 14:30:00,METAR UUEE 041430Z 20006MPS CAVOK 14/M05 Q1003 R24L/CLRD62 R24C/CLRD62 NOSIG,1,0.0,0,9999,0,0,0,
2026-04-04 14:00:00,METAR UUEE 041400Z 20005MPS 170V230 CAVOK 13/M04 Q1003 R24L/CLRD62 R24C/CLRD62 NOSIG,1,0.0,0,9999,0,0,0,
2026-04-04 13:30:00,METAR UUEE 041330Z 23004MPS 200V270 CAVOK 14/M04 Q1004 R24L/CLRD62 R24C/CLRD62 NOSIG,1,0.0,0,9999,0,0,0,
2026-04-04 13:00:00,METAR UUEE 041300Z 25005MPS CAVOK 13/M06 Q1004 R24L/CLRD62 R24C/CLRD62 NOSIG,1,0.0,0,9999,0,0,0,
2026-04-04 12:30:00,METAR UUEE 041230Z 23005MPS 160V260 CAVOK 14/M04 Q1004 R24L/CLRD62 R24C/CLRD62 NOSIG,1,0.0,0,9999,0,0,0,
2026-04-04 12:24:00,SPECI UUEE 041224Z 19005MPS 150V250 CAVOK 14/M03 Q1004 R24L/CLRD62 R24C/CLRD62 NOSIG,1,0.0,0,9999,0,0,0,
2026-04-04 12:00:00,METAR UUEE 041200Z 25005MPS CAVOK 14/M02 Q1005 R24L/CLRD62 R24C/CLRD62 NOSIG,1,0.0,0,9999,0,0,0,
2026-04-04 11:30:00,METAR UUEE 041130Z 22005MPS CAVOK 13/M04 Q1005 R24L/CLRD62 R24C/CLRD62 NOSIG,1,0.0,0,9999,0,0,0,
2026-04-04 11:00:00,METAR UUEE 041100Z 23005MPS 160V290 CAVOK 13/M04 Q1005 R24L/CLRD62 R24C/CLRD62 NOSIG,1,0.0,0,9999,0,0,0,
2026-04-04 10:53:00,SPECI UUEE 041053Z 22004MPS 180V250 CAVOK 14/M02 Q1005 R24L/CLRD62 R24C/CLRD62 NOSIG,1,0.0,0,9999,0,0,0,
2026-04-04 10:30:00,METAR UUEE 041030Z 21005MPS 140V270 CAVOK 12/M03 Q1005 R24L/CLRD62 R24C/CLRD62 NOSIG,1,0.0,0,9999,0,0,0,
2026-04-04 10:00:00,METAR UUEE 041000Z 21005MPS 180V240 CAVOK 13/M02 Q1005 R24L/CLRD62 R24C/CLRD62 NOSIG,1,0.0,0,9999,0,0,0,
2026-04-04 09:42:00,SPECI UUEE 040942Z 22003MPS CAVOK 14/M02 Q1006 R24L/CLRD62 R24C/CLRD62 NOSIG,1,0.0,0,9999,0,0,0,
2026-04-04 09:30:00,METAR UUEE 040930Z 22003MPS CAVOK 12/M02 Q1006 R24L/CLRD62 R24C/CLRD62 NOSIG,1,0.0,0,9999,0,0,0,
2026-04-04 09:00:00,METAR UUEE 040900Z 16003MPS 080V230 CAVOK 12/M05 Q1006 R24C/CLRD62 NOSIG,1,0.0,0,9999,0,0,0,
2026-04-04 08:30:00,METAR UUEE 040830Z 26004MPS CAVOK 12/M03 Q1006 R24C/CLRD62 NOSIG,1,0.0,0,9999,0,0,0,
2026-04-04 08:00:00,METAR UUEE 040800Z 25003MPS CAVOK 12/M03 Q1006 R24L/CLRD62 R24C/CLRD62 NOSIG,1,0.0,0,9999,0,0,0,
2026-04-04 07:30:00,METAR UUEE 040730Z 26003MPS 170V340 CAVOK 12/M02 Q1007 R24L/CLRD62 R24C/CLRD62 NOSIG,1,0.0,0,9999,0,0,0,
2026-04-04 07:00:00,METAR UUEE 040700Z 23003MPS 160V280 CAVOK 11/M02 Q1007 R24L/CLRD62 R24C/CLRD62 NOSIG,1,0.0,0,9999,0,0,0,
2026-04-04 06:30:00,METAR UUEE 040630Z 25002MPS 210V270 CAVOK 11/M01 Q1007 R24L/CLRD62 R24C/CLRD62 NOSIG,1,0.0,0,9999,0,0,0,
2026-04-04 06:29:00,SPECI UUEE 040629Z 25002MPS CAVOK 11/M01 Q1007 R24L/CLRD62 R24C/CLRD62 NOSIG,1,0.0,0,9999,0,0,0,
2026-04-04 06:00:00,METAR UUEE 040600Z 20002MPS 160V240 CAVOK 09/M02 Q1007 R24L/CLRD62 R24C/CLRD62 NOSIG,1,0.0,0,9999,0,0,0,
2026-04-04 05:30:00,METAR UUEE 040530Z 23002MPS CAVOK 08/M01 Q1007 R24L/CLRD62 R24C/CLRD62 NOSIG,1,0.0,0,9999,0,0,0,
2026-04-04 05:00:00,METAR UUEE 040500Z 25002MPS 220V330 CAVOK 07/M02 Q1007 R24L/CLRD62 R24C/CLRD62 NOSIG,1,0.0,0,9999,0,0,0,
2026-04-04 04:56:00,SPECI UUEE 040456Z VRB01MPS CAVOK 07/M02 Q1007 R24L/CLRD62 R24C/CLRD62 NOSIG,1,0.0,0,9999,0,0,0,
2026-04-04 04:30:00,METAR UUEE 040430Z VRB01MPS CAVOK 05/M02 Q1007 R24L/CLRD62 R24C/CLRD62 NOSIG,1,0.0,0,9999,0,0,0,
2026-04-04 04:17:00,SPECI UUEE 040417Z VRB01MPS CAVOK 05/M01 Q1007 R24L/CLRD62 R24C/CLRD62 NOSIG,1,0.0,0,9999,0,0,0,
2026-04-04 04:00:00,METAR UUEE 040400Z 31001MPS CAVOK 03/M02 Q1007 R24L/CLRD62 R24C/CLRD62 NOSIG,1,0.0,0,9999,0,0,0,
2026-04-04 03:30:00,METAR UUEE 040330Z 31001MPS CAVOK 03/M02 Q1006 R24L/CLRD62 R24C/CLRD62 NOSIG,1,0.0,0,9999,0,0,0,
2026-04-04 03:00:00,METAR UUEE 040300Z 29002MPS 230V320 CAVOK 03/M03 Q1007 R24L/CLRD62 R24C/CLRD62 NOSIG,1,0.0,0,9999,0,0,0,
2026-04-04 02:38:00,SPECI UUEE 040238Z 24002MPS CAVOK 03/M03 Q1006 R24C/CLRD62 NOSIG,1,0.0,0,9999,0,0,0,
2026-04-04 02:30:00,METAR UUEE 040230Z 24002MPS CAVOK 01/M03 Q1006 R24C/CLRD62 NOSIG,1,0.0,0,9999,0,0,0,
2026-04-04 02:00:00,METAR UUEE 040200Z 22001MPS CAVOK 03/M03 Q1006 R24C/CLRD62 NOSIG,1,0.0,0,9999,0,0,0,
2026-04-04 01:30:00,METAR UUEE 040130Z 32002MPS 250V020 CAVOK 04/M02 Q1006 R24C/CLRD62 NOSIG,1,0.0,0,9999,0,0,0,
2026-04-04 01:00:00,METAR UUEE 040100Z 28002MPS 230V310 CAVOK 03/M03 Q1006 R24C/CLRD62 NOSIG,1,0.0,0,9999,0,0,0,
2026-04-04 00:30:00,METAR UUEE 040030Z VRB01MPS CAVOK 03/M03 Q1006 R24C/CLRD62 NOSIG,1,0.0,0,9999,0,0,0,
2026-04-04 00:00:00,METAR UUEE 040000Z 23002MPS CAVOK 04/M03 Q1006 R24C/CLRD62 NOSIG,1,0.0,0,9999,0,0,0,
2026-04-03 23:30:00,METAR UUEE 032330Z VRB01MPS CAVOK 04/M03 Q1006 R24C/CLRD62 NOSIG,1,0.0,0,9999,0,0,0,
2026-04-03 23:00:00,METAR UUEE 032300Z 33001MPS CAVOK 05/M04 Q1006 R24L/CLRD62 R24C/CLRD62 NOSIG,1,0.0,0,9999,0,0,0,
2026-04-03 22:30:00,METAR UUEE 032230Z 33001MPS CAVOK 06/M04 Q1006 R24L/CLRD62 R24C/CLRD62 NOSIG,1,0.0,0,9999,0,0,0,
2026-04-03 22:00:00,METAR UUEE 032200Z 26002MPS CAVOK 07/M05 Q1006 R24L/CLRD62 R24C/CLRD62 NOSIG,1,0.0,0,9999,0,0,0,
2026-04-03 21:30:00,METAR UUEE 032130Z 31002MPS CAVOK 08/M05 Q1006 R24L/CLRD62 R24C/CLRD62 NOSIG,1,0.0,0,9999,0,0,0,
2026-04-03 21:00:00,METAR UUEE 032100Z 29002MPS 260V320 CAVOK 08/M05 Q1006 R24L/CLRD62 R24C/CLRD62 NOSIG,1,0.0,0,9999,0,0,0,
2026-04-03 20:30:00,METAR UUEE 032030Z 26002MPS CAVOK 08/M05 Q1006 R24L/CLRD62 R24C/CLRD62 NOSIG,1,0.0,0,9999,0,0,0,
2026-04-03 20:00:00,METAR UUEE 032000Z 32002G08MPS CAVOK 09/M05 Q1006 R24L/CLRD62 R24C/CLRD62 NOSIG,1,0.0,0,9999,0,0,0,
2026-04-03 19:30:00,METAR UUEE 031930Z 34003MPS CAVOK 09/M05 Q1006 R24L/CLRD62 R24C/CLRD62 NOSIG,1,0.0,0,9999,0,0,0,
2026-04-03 19:00:00,METAR UUEE 031900Z 33004MPS 280V350 CAVOK 09/M06 Q1005 R24L/CLRD62 R24C/CLRD62 NOSIG,1,0.0,0,9999,0,0,0,
2026-04-03 18:30:00,METAR UUEE 031830Z 33003MPS 270V350 CAVOK 09/M05 Q1005 R24L/CLRD62 R24C/CLRD62 NOSIG,1,0.0,0,9999,0,0,0,
2026-04-03 18:00:00,METAR UUEE 031800Z 32003G10MPS CAVOK 10/M06 Q1005 R24L/CLRD62 R24C/CLRD62 NOSIG,1,0.0,0,9999,0,0,0,
2026-04-03 17:30:00,METAR UUEE 031730Z 32003MPS CAVOK 10/M05 Q1005 R24L/CLRD62 R24C/CLRD62 NOSIG,1,0.0,0,9999,0,0,0,
2026-04-03 17:00:00,METAR UUEE 031700Z 31004MPS 270V330 CAVOK 11/M06 Q1005 R24L/CLRD62 R24C/CLRD62 NOSIG,1,0.0,0,9999,0,0,0,
2026-04-03 16:30:00,METAR UUEE 031630Z 30003G10MPS CAVOK 11/M05 Q1005 R24L/CLRD62 R24C/CLRD62 NOSIG,1,0.0,0,9999,0,0,0,
2026-04-03 16:00:00,METAR UUEE 031600Z 30004MPS 270V330 CAVOK 12/M04 Q1004 R24L/CLRD62 R24C/CLRD62 NOSIG,1,0.0,0,9999,0,0,0,
2026-04-03 15:30:00,METAR UUEE 031530Z 31005G14MPS 270V330 CAVOK 13/M04 Q1004 R24L/CLRD62 R24C/CLRD62 NOSIG,1,0.0,0,9999,0,0,0,
2026-04-03 15:00:00,METAR UUEE 031500Z 29005MPS CAVOK 14/M04 Q1004 R24L/CLRD62 R24C/CLRD62 NOSIG,1,0.0,0,9999,0,0,0,
2026-04-03 14:30:00,METAR UUEE 031430Z 29005MPS CAVOK 14/M03 Q1004 R24L/CLRD62 R24C/CLRD62 NOSIG,1,0.0,0,9999,0,0,0,
2026-04-03 14:00:00,METAR UUEE 031400Z 27006MPS 250V310 CAVOK 14/M04 Q1004 R24L/CLRD62 R24C/CLRD62 NOSIG,1,0.0,0,9999,0,0,0,
2026-04-03 13:30:00,METAR UUEE 031330Z 26006MPS 220V280 CAVOK 15/M03 Q1004 R24L/CLRD62 R24C/CLRD62 NOSIG,1,0.0,0,9999,0,0,0,
2026-04-03 13:00:00,METAR UUEE 031300Z 27007MPS 240V310 CAVOK 15/M02 Q1004 R24L/CLRD62 R24C/CLRD62 NOSIG,1,0.0,0,9999,0,0,0,
2026-04-03 12:30:00,METAR UUEE 031230Z 31005MPS 270V010 CAVOK 14/M02 Q1004 R24L/CLRD62 R24C/CLRD62 NOSIG,1,0.0,0,9999,0,0,0,
2026-04-03 12:00:00,METAR UUEE 031200Z 31005MPS 280V350 CAVOK 14/M01 Q1004 R24L/CLRD62 R24C/CLRD62 NOSIG,1,0.0,0,9999,0,0,0,
2026-04-03 11:30:00,METAR UUEE 031130Z 29006MPS CAVOK 14/M02 Q1004 R24L/CLRD62 R24C/CLRD62 NOSIG,1,0.0,0,9999,0,0,0,
2026-04-03 11:00:00,METAR UUEE 031100Z 28006MPS 250V310 CAVOK 14/M00 Q1004 R24L/CLRD62 R24C/CLRD62 NOSIG,1,0.0,0,9999,0,0,0,
2026-04-03 10:30:00,METAR UUEE 031030Z 27006MPS CAVOK 13/03 Q1004 R24L/CLRD62 R24C/CLRD62 NOSIG,1,0.0,0,9999,0,0,0,
2026-04-03 10:00:00,METAR UUEE 031000Z 30006MPS 250V330 9999 FEW046 13/02 Q1004 R24L/CLRD62 R24C/CLRD62 NOSIG,0,6.0,0,10000,0,0,0,
2026-04-03 09:30:00,METAR UUEE 030930Z 31005MPS CAVOK 13/03 Q1004 R24L/CLRD62 R24C/CLRD62 NOSIG,1,0.0,0,9999,0,0,0,
2026-04-03 09:00:00,METAR UUEE 030900Z 29005MPS CAVOK 12/03 Q1004 R24L/CLRD62 R24C/CLRD62 NOSIG,1,0.0,0,9999,0,0,0,
2026-04-03 08:30:00,METAR UUEE 030830Z 28005MPS 230V330 CAVOK 12/04 Q1004 R24L/CLRD62 R24C/CLRD62 NOSIG,1,0.0,0,9999,0,0,0,
2026-04-03 08:00:00,METAR UUEE 030800Z 28005MPS 250V320 CAVOK 12/03 Q1004 R24L/CLRD62 R24C/CLRD62 NOSIG,1,0.0,0,9999,0,0,0,
2026-04-03 07:30:00,METAR UUEE 030730Z 25005MPS CAVOK 11/04 Q1004 R24L/CLRD62 R24C/CLRD62 NOSIG,1,0.0,0,9999,0,0,0,
2026-04-03 07:00:00,METAR UUEE 030700Z 26004MPS 230V300 CAVOK 11/04 Q1004 R24L/CLRD62 R24C/CLRD62 NOSIG,1,0.0,0,9999,0,0,0,
2026-04-03 06:30:00,METAR UUEE 030630Z 26004MPS 230V290 CAVOK 10/04 Q1004 R24L/CLRD62 R24C/CLRD62 NOSIG,1,0.0,0,9999,0,0,0,
2026-04-03 06:00:00,METAR UUEE 030600Z 31003MPS CAVOK 09/04 Q1004 R24L/CLRD62 R24C/CLRD62 NOSIG,1,0.0,0,9999,0,0,0,
2026-04-03 05:54:00,SPECI UUEE 030554Z 31003MPS CAVOK 10/05 Q1004 R24L/CLRD62 R24C/CLRD62 NOSIG,1,0.0,0,9999,0,0,0,
2026-04-03 05:30:00,METAR UUEE 030530Z 29004MPS CAVOK 08/04 Q1004 R24L/290145 R24C/290145 NOSIG,1,0.0,0,9999,0,0,0,
2026-04-03 05:00:00,METAR UUEE 030500Z 31003MPS 280V340 CAVOK 08/04 Q1003 R24L/290145 R24C/290145 NOSIG,1,0.0,0,9999,0,0,0,
2026-04-03 04:30:00,METAR UUEE 030430Z 31003MPS CAVOK 07/04 Q1003 R24L/290145 R24C/290145 NOSIG,1,0.0,0,9999,0,0,0,
2026-04-03 04:00:00,METAR UUEE 030400Z 29003MPS CAVOK 07/03 Q1004 R24L/290145 R24C/290145 NOSIG,1,0.0,0,9999,0,0,0,
2026-04-03 03:30:00,METAR UUEE 030330Z 31003MPS CAVOK 06/04 Q1003 R24L/290145 R24C/290145 NOSIG,1,0.0,0,9999,0,0,0,
2026-04-03 03:00:00,METAR UUEE 030300Z 33003MPS CAVOK 06/04 Q1003 R24L/290145 R24C/290145 NOSIG,1,0.0,0,9999,0,0,0,
2026-04-03 02:30:00,METAR UUEE 030230Z 27003G10MPS 240V320 9999 -RA NSC 06/04 Q1003 R24L/290145 R24C/290145 NOSIG,0,3.0,1,10000,0,0,0,-RA
2026-04-03 02:00:00,METAR UUEE 030200Z 30004MPS CAVOK 07/04 Q1003 R24L/290145 R24C/290145 NOSIG,1,0.0,0,9999,0,0,0,
2026-04-03 01:30:00,METAR UUEE 030130Z 32003MPS CAVOK 06/04 Q1003 R24L/290145 R24C/290145 NOSIG,1,0.0,0,9999,0,0,0,
2026-04-03 01:00:00,METAR UUEE 030100Z 32003MPS CAVOK 06/04 Q1003 R24L/290145 R24C/290145 NOSIG,1,0.0,0,9999,0,0,0,
2026-04-03 00:30:00,METAR UUEE 030030Z 32003MPS CAVOK 07/04 Q1003 R24L/290145 R24C/290145 NOSIG,1,0.0,0,9999,0,0,0,
2026-04-03 00:00:00,METAR UUEE 030000Z 32003MPS CAVOK 07/04 Q1003 R24L/290145 R24C/290145 NOSIG,1,0.0,0,9999,0,0,0,
2026-04-02 23:30:00,METAR UUEE 022330Z 30004MPS CAVOK 07/04 Q1003 R24L/290145 R24C/290145 NOSIG,1,0.0,0,9999,0,0,0,
2026-04-02 23:00:00,METAR UUEE 022300Z 32003MPS CAVOK 07/04 Q1003 R24L/290145 R24C/290145 NOSIG,1,0.0,0,9999,0,0,0,
2026-04-02 22:30:00,METAR UUEE 022230Z 33003MPS CAVOK 07/05 Q1003 R24L/290145 R24C/290145 NOSIG,1,0.0,0,9999,0,0,0,
2026-04-02 22:00:00,METAR UUEE 022200Z 30003G10MPS CAVOK 07/05 Q1003 R24L/290145 R24C/290145 NOSIG,1,0.0,0,9999,0,0,0,
2026-04-02 21:30:00,METAR UUEE 022130Z 29004MPS CAVOK 07/05 Q1003 R24L/290145 R24C/290145 NOSIG,1,0.0,0,9999,0,0,0,
2026-04-02 21:00:00,METAR UUEE 022100Z 28003G09MPS 190V320 CAVOK 07/05 Q1003 R24L/290145 R24C/290145 NOSIG,1,0.0,0,9999,0,0,0,
2026-04-02 20:30:00,METAR UUEE 022030Z 30003MPS 260V320 CAVOK 08/05 Q1004 R24L/290145 R24C/290145 NOSIG,1,0.0,0,9999,0,0,0,
2026-04-02 20:00:00,METAR UUEE 022000Z 30003G10MPS 9999 -SHRA BKN049CB 08/05 Q1004 R24L/290145 R24C/290145 NOSIG,0,3.0,1,10000,0,0,0,RA
2026-04-02 19:30:00,METAR UUEE 021930Z 34003G08MPS 290V060 9999 -SHRA BKN032CB 08/05 Q1004 R24L/290145 R24C/290145 NOSIG,0,3.0,1,10000,0,0,0,RA
2026-04-02 19:00:00,METAR UUEE 021900Z 32003MPS 9999 OVC033 08/05 Q1004 R24L/290145 R24C/290145 NOSIG,0,3.0,0,10000,0,0,0,
2026-04-02 18:30:00,METAR UUEE 021830Z 32003G09MPS 9999 BKN035 08/05 Q1005 R24L/290145 R24C/290145 NOSIG,0,3.0,1,10000,0,0,0,
2026-04-02 18:00:00,METAR UUEE 021800Z 33004MPS 9000 -SHRA BKN030CB 08/05 Q1005 R24L/290145 R24C/290145 NOSIG,0,4.0,0,9000,0,0,0,RA
2026-04-02 17:30:00,METAR UUEE 021730Z 33004G12MPS 9000 -SHRA BKN034CB 08/06 Q1005 R24L/290145 R24C/290145 NOSIG,0,4.0,1,9000,0,0,0,RA
2026-04-02 17:00:00,METAR UUEE 021700Z 33004MPS 280V360 9999 BKN041 08/05 Q1005 R24L/290145 R24C/290145 NOSIG,0,4.0,0,10000,0,0,0,
2026-04-02 16:30:00,METAR UUEE 021630Z 32005MPS 290V350 9999 -RA BKN038 08/05 Q1005 R24L/290145 R24C/290145 NOSIG,0,5.0,0,10000,0,0,0,-RA
2026-04-02 16:00:00,METAR UUEE 021600Z 34005MPS 280V360 9999 -RA SCT042 09/05 Q1005 R24L/290145 R24C/290145 NOSIG,0,5.0,0,10000,0,0,0,-RA
2026-04-02 15:30:00,METAR UUEE 021530Z 35004MPS 320V130 9000 -SHRA SCT045CB 09/05 Q1005 R24L/290145 R24C/290145 NOSIG,0,4.0,0,9000,0,0,0,RA
2026-04-02 15:00:00,METAR UUEE 021500Z 32004MPS 9999 -SHRA FEW050CB 09/05 Q1005 R24L/290145 R24C/290145 NOSIG,0,4.0,0,10000,0,0,0,RA
2026-04-02 14:30:00,METAR UUEE 021430Z 01003G09MPS 310V060 9999 -SHRA SCT050CB 10/04 Q1006 R24L/290145 R24C/290145 NOSIG,0,3.0,1,10000,0,0,0,RA
2026-04-02 14:00:00,METAR UUEE 021400Z 34004MPS 300V010 CAVOK 10/03 Q1006 R24L/290145 R24C/290145 NOSIG,1,0.0,0,9999,0,0,0,
2026-04-02 13:30:00,METAR UUEE 021330Z 34005MPS 300V360 CAVOK 10/03 Q1006 R24L/290145 R24C/290145 NOSIG,1,0.0,0,9999,0,0,0,
2026-04-02 13:00:00,METAR UUEE 021300Z 33005MPS CAVOK 09/03 Q1006 R24L/290145 R24C/290145 NOSIG,1,0.0,0,9999,0,0,0,
2026-04-02 12:30:00,METAR UUEE 021230Z 32006MPS 290V350 9999 -RA NSC 09/04 Q1006 R24L/290145 R24C/290145 NOSIG,0,6.0,0,10000,0,0,0,-RA
2026-04-02 12:00:00,METAR UUEE 021200Z 32005MPS CAVOK 09/03 Q1007 R24L/290145 R24C/290145 NOSIG,1,0.0,0,9999,0,0,0,
2026-04-02 11:30:00,METAR UUEE 021130Z 33005MPS 270V350 9999 -RA NSC 09/03 Q1007 R24L/290145 R24C/290145 NOSIG,0,5.0,0,10000,0,0,0,-RA
2026-04-02 11:00:00,METAR UUEE 021100Z 34004MPS 9999 -RA NSC 09/03 Q1008 R24L/290145 R24C/290145 NOSIG,0,4.0,0,10000,0,0,0,-RA
2026-04-02 10:30:00,METAR UUEE 021030Z 34005MPS 9999 -RA NSC 09/03 Q1008 R24L/290145 R24C/290145 NOSIG,0,5.0,0,10000,0,0,0,-RA
2026-04-02 10:00:00,METAR UUEE 021000Z 34005MPS 9999 -RA NSC 09/03 Q1008 R24L/290145 R24C/290145 NOSIG,0,5.0,0,10000,0,0,0,-RA
2026-04-02 09:30:00,METAR UUEE 020930Z 35004MPS 320V050 CAVOK 09/02 Q1008 R24L/CLRD62 R24C/CLRD62 NOSIG,1,0.0,0,9999,0,0,0,
2026-04-02 09:00:00,METAR UUEE 020900Z 33004G09MPS 260V360 CAVOK 09/02 Q1008 R24L/CLRD62 R24C/CLRD62 NOSIG,1,0.0,0,9999,0,0,0,
2026-04-02 08:30:00,METAR UUEE 020830Z 36004G10MPS 310V110 CAVOK 08/02 Q1008 R06R/CLRD62 R06C/CLRD62 NOSIG,1,0.0,0,9999,0,0,0,
2026-04-02 08:00:00,METAR UUEE 020800Z 35003G08MPS 300V110 CAVOK 08/02 Q1008 R06R/CLRD62 R06C/CLRD62 NOSIG,1,0.0,0,9999,0,0,0,
2026-04-02 07:30:00,METAR UUEE 020730Z 36004G09MPS 330V070 CAVOK 07/02 Q1009 R06R/CLRD62 R06C/CLRD62 NOSIG,1,0.0,0,9999,0,0,0,
2026-04-02 07:00:00,METAR UUEE 020700Z 36004MPS 320V120 CAVOK 07/01 Q1009 R06R/CLRD62 R06C/CLRD62 NOSIG,1,0.0,0,9999,0,0,0,
2026-04-02 06:30:00,METAR UUEE 020630Z 36003G10MPS 320V090 CAVOK 06/02 Q1009 R06R/CLRD62 R06C/CLRD62 NOSIG,1,0.0,0,9999,0,0,0,
2026-04-02 06:00:00,METAR UUEE 020600Z 35003G08MPS CAVOK 06/02 Q1009 R06R/CLRD62 R06C/CLRD62 NOSIG,1,0.0,0,9999,0,0,0,
2026-04-02 05:30:00,METAR UUEE 020530Z 34004MPS 280V010 CAVOK 06/02 Q1009 R06R/CLRD62 R06C/CLRD62 NOSIG,1,0.0,0,9999,0,0,0,
2026-04-02 05:00:00,METAR UUEE 020500Z 34004G11MPS CAVOK 06/02 Q1010 R06R/CLRD62 R06C/CLRD62 NOSIG,1,0.0,0,9999,0,0,0,
2026-04-02 04:30:00,METAR UUEE 020430Z 36003MPS 330V030 CAVOK 05/02 Q1010 R06R/CLRD62 R06C/CLRD62 NOSIG,1,0.0,0,9999,0,0,0,
2026-04-02 04:00:00,METAR UUEE 020400Z 01003MPS 340V040 CAVOK 05/02 Q1009 R06R/CLRD62 R06C/CLRD62 NOSIG,1,0.0,0,9999,0,0,0,
2026-04-02 03:30:00,METAR UUEE 020330Z 36003MPS CAVOK 05/02 Q1009 R06R/CLRD62 R06C/CLRD62 NOSIG,1,0.0,0,9999,0,0,0,
2026-04-02 03:00:00,METAR UUEE 020300Z 01003MPS 340V040 CAVOK 06/02 Q1010 R06R/CLRD62 R06C/CLRD62 NOSIG,1,0.0,0,9999,0,0,0,
2026-04-02 02:30:00,METAR UUEE 020230Z 35004MPS CAVOK 06/02 Q1010 R06R/CLRD62 R06C/CLRD62 NOSIG,1,0.0,0,9999,0,0,0,
2026-04-02 02:00:00,METAR UUEE 020200Z 36003MPS 330V040 CAVOK 06/02 Q1010 R06R/CLRD62 R06C/CLRD62 NOSIG,1,0.0,0,9999,0,0,0,
2026-04-02 01:30:00,METAR UUEE 020130Z 34004MPS CAVOK 06/03 Q1010 R06R/CLRD62 R06C/CLRD62 NOSIG,1,0.0,0,9999,0,0,0,
2026-04-02 01:00:00,METAR UUEE 020100Z 35005MPS CAVOK 07/03 Q1010 R06R/CLRD62 R06C/CLRD62 NOSIG,1,0.0,0,9999,0,0,0,
2026-04-02 00:30:00,METAR UUEE 020030Z 35006MPS CAVOK 07/03 Q1010 R06R/CLRD62 R06C/CLRD62 NOSIG,1,0.0,0,9999,0,0,0,
2026-04-02 00:00:00,METAR UUEE 020000Z 35006MPS CAVOK 08/03 Q1010 R06R/CLRD62 R06C/CLRD62 NOSIG,1,0.0,0,9999,0,0,0,
2026-04-01 23:30:00,METAR UUEE 012330Z 35005G10MPS CAVOK 08/03 Q1010 R06R/CLRD62 R06C/CLRD62 NOSIG,1,0.0,0,9999,0,0,0,
2026-04-01 23:00:00,METAR UUEE 012300Z 35006MPS CAVOK 09/04 Q1011 R06R/CLRD62 R06C/CLRD62 NOSIG,1,0.0,0,9999,0,0,0,
2026-04-01 22:30:00,METAR UUEE 012230Z 35005MPS 320V050 CAVOK 09/04 Q1011 R06R/CLRD62 R06C/CLRD62 NOSIG,1,0.0,0,9999,0,0,0,
2026-04-01 22:00:00,METAR UUEE 012200Z 35005MPS CAVOK 10/04 Q1011 R06R/CLRD62 R06C/CLRD62 NOSIG,1,0.0,0,9999,0,0,0,
2026-04-01 21:30:00,METAR UUEE 012130Z 36005MPS 300V060 CAVOK 10/04 Q1011 R06R/CLRD62 R06C/CLRD62 NOSIG,1,0.0,0,9999,0,0,0,
2026-04-01 21:00:00,METAR UUEE 012100Z 36006MPS 310V020 CAVOK 10/04 Q1011 R06R/CLRD62 R06C/CLRD62 NOSIG,1,0.0,0,9999,0,0,0,
2026-04-01 20:30:00,METAR UUEE 012030Z 36006G17MPS 320V040 CAVOK 11/05 Q1011 R06R/CLRD62 R06C/CLRD62 NOSIG,1,0.0,0,9999,0,0,0,
2026-04-01 20:00:00,METAR UUEE 012000Z 35005MPS CAVOK 11/05 Q1011 R06R/CLRD62 R06C/CLRD62 NOSIG,1,0.0,0,9999,0,0,0,
2026-04-01 19:30:00,METAR UUEE 011930Z 35005MPS CAVOK 11/05 Q1011 R06R/CLRD62 R06C/CLRD62 NOSIG,1,0.0,0,9999,0,0,0,
2026-04-01 19:00:00,METAR UUEE 011900Z 35004G11MPS CAVOK 12/05 Q1011 R06R/CLRD62 R06C/CLRD62 NOSIG,1,0.0,0,9999,0,0,0,
2026-04-01 18:30:00,METAR UUEE 011830Z 35004G10MPS 340V130 CAVOK 12/04 Q1011 R06R/CLRD62 R06C/CLRD62 NOSIG,1,0.0,0,9999,0,0,0,
2026-04-01 18:00:00,METAR UUEE 011800Z 36004MPS 330V050 CAVOK 12/04 Q1011 R06R/CLRD62 R06C/CLRD62 NOSIG,1,0.0,0,9999,0,0,0,
2026-04-01 17:30:00,METAR UUEE 011730Z 36004G10MPS 340V140 CAVOK 13/03 Q1011 R06R/CLRD62 R06C/CLRD62 NOSIG,1,0.0,0,9999,0,0,0,
2026-04-01 17:00:00,METAR UUEE 011700Z 35004G10MPS CAVOK 13/01 Q1011 R06R/CLRD62 R06C/CLRD62 NOSIG,1,0.0,0,9999,0,0,0,
2026-04-01 16:30:00,METAR UUEE 011630Z 02004MPS 330V070 CAVOK 15/01 Q1011 R06R/CLRD62 R06C/CLRD62 NOSIG,1,0.0,0,9999,0,0,0,
2026-04-01 16:00:00,METAR UUEE 011600Z 05004MPS 020V080 CAVOK 15/01 Q1011 R06R/CLRD62 R06C/CLRD62 NOSIG,1,0.0,0,9999,0,0,0,
2026-04-01 15:30:00,METAR UUEE 011530Z 36003MPS CAVOK 15/02 Q1011 R06R/290145 R06C/290145 NOSIG,1,0.0,0,9999,0,0,0,
2026-04-01 15:00:00,METAR UUEE 011500Z 36004MPS 340V060 CAVOK 16/01 Q1011 R06R/290145 R06C/290145 NOSIG,1,0.0,0,9999,0,0,0,
2026-04-01 14:00:00,METAR UUEE 011400Z 36004G11MPS 310V060 9999 -SHRA SCT053CB 17/02 Q1011 R06R/290145 R06C/290145 NOSIG,0,4.0,1,10000,0,0,0,RA
2026-04-01 13:30:00,METAR UUEE 011330Z 35005G10MPS 330V040 9999 FEW059CB 18/01 Q1011 R06R/CLRD62 R06C/CLRD62 NOSIG,0,5.0,1,10000,0,0,0,
2026-04-01 13:00:00,METAR UUEE 011300Z 36004G10MPS CAVOK 18/01 Q1011 R06R/CLRD62 R06C/CLRD62 NOSIG,1,0.0,0,9999,0,0,0,
2026-04-01 12:30:00,METAR UUEE 011230Z 01004MPS 330V050 CAVOK 17/M00 Q1011 R06R/CLRD62 R06C/CLRD62 NOSIG,1,0.0,0,9999,0,0,0,
2026-04-01 12:00:00,METAR UUEE 011200Z 06004MPS 020V100 CAVOK 17/01 Q1011 R06R/CLRD62 R06C/CLRD62 NOSIG,1,0.0,0,9999,0,0,0,
2026-04-01 11:30:00,METAR UUEE 011130Z 03004MPS 360V070 CAVOK 17/02 Q1011 R06C/CLRD62 NOSIG,1,0.0,0,9999,0,0,0,
2026-04-01 11:00:00,METAR UUEE 011100Z 06004MPS 020V100 CAVOK 17/02 Q1011 R06C/CLRD62 NOSIG,1,0.0,0,9999,0,0,0,
2026-04-01 10:30:00,METAR UUEE 011030Z 04003MPS 350V080 CAVOK 17/03 Q1011 R06C/CLRD62 NOSIG,1,0.0,0,9999,0,0,0,
2026-04-01 10:00:00,METAR UUEE 011000Z 02003MPS 340V060 CAVOK 16/02 Q1011 R06R/CLRD62 NOSIG,1,0.0,0,9999,0,0,0,
2026-04-01 09:30:00,METAR UUEE 010930Z 06003MPS 330V110 CAVOK 16/03 Q1011 R06R/CLRD62 R06C/CLRD62 NOSIG,1,0.0,0,9999,0,0,0,
2026-04-01 09:00:00,METAR UUEE 010900Z 02004MPS 350V110 CAVOK 15/02 Q1011 R06R/CLRD62 R06C/CLRD62 NOSIG,1,0.0,0,9999,0,0,0,
2026-04-01 08:30:00,METAR UUEE 010830Z 05003MPS 020V080 CAVOK 15/03 Q1011 R06R/CLRD62 R06C/CLRD62 NOSIG,1,0.0,0,9999,0,0,0,
2026-04-01 08:00:00,METAR UUEE 010800Z 04004MPS CAVOK 14/03 Q1011 R06R/CLRD62 R06C/CLRD62 NOSIG,1,0.0,0,9999,0,0,0,
2026-04-01 07:30:00,METAR UUEE 010730Z 01005MPS 350V110 CAVOK 13/03 Q1011 R06R/CLRD62 R06C/CLRD62 NOSIG,1,0.0,0,9999,0,0,0,
2026-04-01 07:00:00,METAR UUEE 010700Z 01003G09MPS 280V090 CAVOK 14/03 Q1011 R06R/CLRD62 R06C/CLRD62 NOSIG,1,0.0,0,9999,0,0,0,
2026-04-01 06:30:00,METAR UUEE 010630Z 02002MPS 320V080 CAVOK 13/03 Q1011 R06R/CLRD62 R06C/CLRD62 NOSIG,1,0.0,0,9999,0,0,0,
2026-04-01 06:25:00,SPECI UUEE 010625Z 02002MPS 340V080 CAVOK 13/03 Q1011 R06R/CLRD62 R06C/CLRD62 NOSIG,1,0.0,0,9999,0,0,0,
2026-04-01 06:00:00,METAR UUEE 010600Z VRB01MPS CAVOK 11/03 Q1011 R06R/CLRD62 R06C/CLRD62 NOSIG,1,0.0,0,9999,0,0,0,
2026-04-01 05:53:00,SPECI UUEE 010553Z VRB01MPS CAVOK 12/03 Q1011 R06R/CLRD62 R06C/CLRD62 NOSIG,1,0.0,0,9999,0,0,0,
2026-04-01 05:30:00,METAR UUEE 010530Z 09003MPS CAVOK 10/02 Q1011 R06R/CLRD62 R06C/CLRD62 NOSIG,1,0.0,0,9999,0,0,0,
2026-04-01 05:00:00,METAR UUEE 010500Z 08003MPS CAVOK 09/03 Q1011 R06R/CLRD62 R06C/CLRD62 NOSIG,1,0.0,0,9999,0,0,0,
2026-04-01 04:30:00,METAR UUEE 010430Z 07003MPS CAVOK 08/03 Q1011 R06R/CLRD62 R06C/CLRD62 NOSIG,1,0.0,0,9999,0,0,0,
2026-04-01 04:00:00,METAR UUEE 010400Z 33002MPS CAVOK 07/03 Q1011 R06R/CLRD62 R06C/CLRD62 NOSIG,1,0.0,0,9999,0,0,0,
2026-04-01 03:54:00,SPECI UUEE 010354Z 07003MPS CAVOK 07/03 Q1011 R06R/CLRD62 R06C/CLRD62 NOSIG,1,0.0,0,9999,0,0,0,
2026-04-01 03:30:00,METAR UUEE 010330Z 10003MPS CAVOK 05/03 Q1011 R06R/CLRD62 R06C/CLRD62 NOSIG,1,0.0,0,9999,0,0,0,
2026-04-01 03:00:00,METAR UUEE 010300Z 33002MPS CAVOK 06/03 Q1010 R06R/CLRD62 R06C/CLRD62 NOSIG,1,0.0,0,9999,0,0,0,
2026-04-01 02:30:00,METAR UUEE 010230Z 04002MPS CAVOK 06/02 Q1010 R06R/CLRD62 R06C/CLRD62 NOSIG,1,0.0,0,9999,0,0,0,
2026-04-01 02:00:00,METAR UUEE 010200Z 07003MPS CAVOK 05/02 Q1011 R06R/CLRD62 R06C/CLRD62 NOSIG,1,0.0,0,9999,0,0,0,
2026-04-01 01:30:00,METAR UUEE 010130Z 07003MPS CAVOK 05/03 Q1010 R06R/CLRD62 R06C/CLRD62 NOSIG,1,0.0,0,9999,0,0,0,
2026-04-01 01:00:00,METAR UUEE 010100Z 07003MPS CAVOK 06/03 Q1010 R06R/CLRD62 R06C/CLRD62 NOSIG,1,0.0,0,9999,0,0,0,
2026-04-01 00:30:00,METAR UUEE 010030Z 07003MPS CAVOK 06/03 Q1011 R06R/CLRD62 R06C/CLRD62 NOSIG,1,0.0,0,9999,0,0,0,
2026-04-01 00:02:00,SPECI UUEE 010002Z 05003MPS CAVOK 08/04 Q1010 R06R/CLRD62 R06C/CLRD62 NOSIG,1,0.0,0,9999,0,0,0,
2026-04-01 00:00:00,METAR UUEE 010000Z 08004MPS CAVOK 06/04 Q1010 R06R/CLRD62 R06C/CLRD62 NOSIG,1,0.0,0,9999,0,0,0,
2026-03-31 23:30:00,METAR UUEE 312330Z 04003MPS CAVOK 09/04 Q1010 R06R/CLRD62 R06C/CLRD62 NOSIG,1,0.0,0,9999,0,0,0,
2026-03-31 23:00:00,METAR UUEE 312300Z 07003MPS CAVOK 08/04 Q1011 R06R/CLRD62 R06C/CLRD62 NOSIG,1,0.0,0,9999,0,0,0,
2026-03-31 22:30:00,METAR UUEE 312230Z 06003MPS CAVOK 07/04 Q1011 R06R/CLRD62 R06C/CLRD62 NOSIG,1,0.0,0,9999,0,0,0,
2026-03-31 22:00:00,METAR UUEE 312200Z 08004MPS 9999 FEW046 07/04 Q1011 R06R/CLRD62 R06C/CLRD62 NOSIG,0,,0,9999,0,0,0,
2026-03-31 21:30:00,METAR UUEE 312130Z 07004MPS 9999 FEW046 08/04 Q1010 R06R/CLRD62 R06C/CLRD62 NOSIG,0,,0,9999,0,0,0,
2026-03-31 21:00:00,METAR UUEE 312100Z 06004MPS 360V080 9999 FEW040 08/04 Q1010 R06R/CLRD62 R06C/CLRD62 NOSIG,0,,0,9999,0,0,0,
2026-03-31 20:30:00,METAR UUEE 312030Z 07004MPS 9999 FEW040 09/04 Q1010 R06R/CLRD62 R06C/CLRD62 NOSIG,0,,0,9999,0,0,0,
2026-03-31 20:00:00,METAR UUEE 312000Z 07004MPS CAVOK 10/04 Q1010 R06R/CLRD62 R06C/CLRD62 NOSIG,1,0.0,0,9999,0,0,0,
2026-03-31 19:30:00,METAR UUEE 311930Z 07004MPS CAVOK 09/04 Q1010 R06R/CLRD62 R06C/CLRD62 NOSIG,1,0.0,0,9999,0,0,0,
2026-03-31 19:00:00,METAR UUEE 311900Z 07004MPS CAVOK 09/04 Q1010 R06R/CLRD62 R06C/CLRD62 NOSIG,1,0.0,0,9999,0,0,0,
2026-03-31 18:30:00,METAR UUEE 311830Z 08004MPS CAVOK 09/04 Q1010 R06R/CLRD62 R06C/CLRD62 NOSIG,1,0.0,0,9999,0,0,0,
2026-03-31 18:00:00,METAR UUEE 311800Z 08004MPS CAVOK 10/04 Q1010 R06R/CLRD62 R06C/CLRD62 NOSIG,1,0.0,0,9999,0,0,0,
2026-03-31 17:30:00,METAR UUEE 311730Z 08004MPS CAVOK 10/03 Q1010 R06R/CLRD62 R06C/CLRD62 NOSIG,1,0.0,0,9999,0,0,0,
2026-03-31 17:00:00,METAR UUEE 311700Z 08004MPS CAVOK 10/03 Q1010 R06R/CLRD62 R06C/CLRD62 NOSIG,1,0.0,0,9999,0,0,0,
2026-03-31 16:30:00,METAR UUEE 311630Z 08004MPS CAVOK 11/03 Q1010 R06R/CLRD62 R06C/CLRD62 NOSIG,1,0.0,0,9999,0,0,0,
2026-03-31 16:00:00,METAR UUEE 311600Z 08004MPS CAVOK 13/03 Q1010 R06R/CLRD62 R06C/CLRD62 NOSIG,1,0.0,0,9999,0,0,0,
2026-03-31 15:30:00,METAR UUEE 311530Z 09004MPS CAVOK 14/03 Q1010 R06R/CLRD62 R06C/CLRD62 NOSIG,1,0.0,0,9999,0,0,0,
2026-03-31 15:00:00,METAR UUEE 311500Z 11005MPS CAVOK 16/03 Q1009 R06R/CLRD62 R06C/CLRD62 NOSIG,1,0.0,0,9999,0,0,0,
2026-03-31 14:30:00,METAR UUEE 311430Z 10005MPS CAVOK 16/02 Q1009 R06R/CLRD62 R06C/CLRD62 NOSIG,1,0.0,0,9999,0,0,0,
2026-03-31 14:00:00,METAR UUEE 311400Z 08005MPS CAVOK 17/02 Q1009 R06R/CLRD62 R06C/CLRD62 NOSIG,1,0.0,0,9999,0,0,0,
2026-03-31 13:30:00,METAR UUEE 311330Z 08005MPS CAVOK 17/02 Q1009 R06R/CLRD62 R06C/CLRD62 NOSIG,1,0.0,0,9999,0,0,0,
2026-03-31 13:00:00,METAR UUEE 311300Z 07005MPS 050V110 CAVOK 17/02 Q1009 R06R/CLRD62 R06C/CLRD62 NOSIG,1,0.0,0,9999,0,0,0,
2026-03-31 12:30:00,METAR UUEE 311230Z 09005MPS 060V130 CAVOK 18/02 Q1009 R06R/CLRD62 R06C/CLRD62 NOSIG,1,0.0,0,9999,0,0,0,
2026-03-31 12:00:00,METAR UUEE 311200Z 07005MPS 040V110 CAVOK 17/02 Q1009 R06R/CLRD62 R06C/CLRD62 NOSIG,1,0.0,0,9999,0,0,0,
2026-03-31 11:30:00,METAR UUEE 311130Z 11004MPS 070V140 CAVOK 17/03 Q1009 R06R/CLRD62 R06C/CLRD62 NOSIG,1,0.0,0,9999,0,0,0,
2026-03-31 11:00:00,METAR UUEE 311100Z 07005MPS 030V110 CAVOK 16/02 Q1009 R06R/CLRD62 R06C/CLRD62 NOSIG,1,0.0,0,9999,0,0,0,
2026-03-31 10:30:00,METAR UUEE 311030Z 08005MPS 050V110 CAVOK 16/03 Q1009 R06R/CLRD62 R06C/CLRD62 NOSIG,1,0.0,0,9999,0,0,0,
2026-03-31 10:00:00,METAR UUEE 311000Z 05005MPS 020V080 CAVOK 16/02 Q1009 R06C/CLRD62 NOSIG,1,0.0,0,9999,0,0,0,
2026-03-31 09:30:00,METAR UUEE 310930Z 06005MPS 030V100 CAVOK 15/01 Q1009 R06C/CLRD62 NOSIG,1,0.0,0,9999,0,0,0,
2026-03-31 09:00:00,METAR UUEE 310900Z 09004MPS 060V140 CAVOK 14/01 Q1009 R06R/CLRD62 R06C/CLRD62 NOSIG,1,0.0,0,9999,0,0,0,
2026-03-31 08:30:00,METAR UUEE 310830Z 07005MPS 050V110 CAVOK 14/02 Q1009 R06R/CLRD62 R06C/CLRD62 NOSIG,1,0.0,0,9999,0,0,0,
2026-03-31 08:00:00,METAR UUEE 310800Z 08005MPS CAVOK 13/02 Q1010 R06R/CLRD62 R06C/CLRD62 NOSIG,1,0.0,0,9999,0,0,0,
2026-03-31 07:30:00,METAR UUEE 310730Z 10005MPS CAVOK 12/01 Q1010 R06R/CLRD62 R06C/CLRD62 NOSIG,1,0.0,0,9999,0,0,0,
2026-03-31 07:00:00,METAR UUEE 310700Z 07004MPS 040V100 CAVOK 11/01 Q1010 R06R/CLRD62 R06C/CLRD62 NOSIG,1,0.0,0,9999,0,0,0,
2026-03-31 06:30:00,METAR UUEE 310630Z 09004MPS CAVOK 10/01 Q1010 R06R/CLRD62 R06C/CLRD62 NOSIG,1,0.0,0,9999,0,0,0,
2026-03-31 06:00:00,METAR UUEE 310600Z 09005MPS CAVOK 09/01 Q1010 R06R/CLRD62 R06C/CLRD62 NOSIG,1,0.0,0,9999,0,0,0,
2026-03-31 05:30:00,METAR UUEE 310530Z 07005MPS CAVOK 08/00 Q1010 R06R/CLRD62 R06C/CLRD62 NOSIG,1,0.0,0,9999,0,0,0,
2026-03-31 05:00:00,METAR UUEE 310500Z 08005MPS CAVOK 07/01 Q1010 R06R/CLRD62 R06C/CLRD62 NOSIG,1,0.0,0,9999,0,0,0,
2026-03-31 04:30:00,METAR UUEE 310430Z 05004MPS 010V070 CAVOK 07/M00 Q1010 R06R/CLRD62 R06C/CLRD62 NOSIG,1,0.0,0,9999,0,0,0,
2026-03-31 04:00:00,METAR UUEE 310400Z 06004MPS CAVOK 06/00 Q1010 R06R/CLRD62 R06C/CLRD62 NOSIG,1,0.0,0,9999,0,0,0,
2026-03-31 03:30:00,METAR UUEE 310330Z 06004MPS CAVOK 05/00 Q1010 R06R/CLRD62 R06C/CLRD62 NOSIG,1,0.0,0,9999,0,0,0,
2026-03-31 03:00:00,METAR UUEE 310300Z 07004MPS CAVOK 05/M00 Q1010 R06R/CLRD62 R06C/CLRD62 NOSIG,1,0.0,0,9999,0,0,0,
2026-03-31 02:30:00,METAR UUEE 310230Z 06004MPS CAVOK 05/M00 Q1010 R06C/CLRD62 NOSIG,1,0.0,0,9999,0,0,0,
2026-03-31 02:00:00,METAR UUEE 310200Z 07003MPS CAVOK 05/00 Q1010 R06R/CLRD62 R06C/CLRD62 NOSIG,1,0.0,0,9999,0,0,0,
2026-03-31 01:30:00,METAR UUEE 310130Z 08004MPS CAVOK 06/00 Q1010 R06R/CLRD62 R06C/CLRD62 NOSIG,1,0.0,0,9999,0,0,0,
2026-03-31 01:00:00,METAR UUEE 310100Z 07003MPS CAVOK 06/00 Q1010 R06R/CLRD62 R06C/CLRD62 NOSIG,1,0.0,0,9999,0,0,0,
2026-03-31 00:30:00,METAR UUEE 310030Z 08004MPS CAVOK 06/00 Q1010 R06R/CLRD62 R06C/CLRD62 NOSIG,1,0.0,0,9999,0,0,0,
2026-03-31 00:00:00,METAR UUEE 310000Z 06004MPS CAVOK 05/00 Q1010 R06R/CLRD62 R06C/CLRD62 NOSIG,1,0.0,0,9999,0,0,0,
2026-03-30 23:30:00,METAR UUEE 302330Z 08004MPS CAVOK 05/M00 Q1010 R06R/CLRD62 R06C/CLRD62 NOSIG,1,0.0,0,9999,0,0,0,
2026-03-30 23:00:00,METAR UUEE 302300Z 06003G08MPS 350V110 CAVOK 05/M01 Q1010 R06R/CLRD62 R06C/CLRD62 NOSIG,1,0.0,0,9999,0,0,0,
2026-03-30 22:30:00,METAR UUEE 302230Z 07004MPS CAVOK 06/M00 Q1010 R06R/CLRD62 R06C/CLRD62 NOSIG,1,0.0,0,9999,0,0,0,
2026-03-30 22:00:00,METAR UUEE 302200Z 08004MPS CAVOK 06/M00 Q1011 R06R/CLRD62 R06C/CLRD62 NOSIG,1,0.0,0,9999,0,0,0,
2026-03-30 21:30:00,METAR UUEE 302130Z 07004MPS CAVOK 06/M00 Q1011 R06R/CLRD62 R06C/CLRD62 NOSIG,1,0.0,0,9999,0,0,0,
2026-03-30 21:00:00,METAR UUEE 302100Z 07004MPS CAVOK 07/M00 Q1011 R06R/CLRD62 R06C/CLRD62 NOSIG,1,0.0,0,9999,0,0,0,
2026-03-30 20:32:00,SPECI UUEE 302032Z 06003G11MPS 360V080 CAVOK 09/00 Q1011 R06R/CLRD62 R06C/CLRD62 NOSIG,1,0.0,0,9999,0,0,0,
2026-03-30 20:30:00,METAR UUEE 302030Z 06003G08MPS 360V070 CAVOK 07/00 Q1011 R06R/CLRD62 R06C/CLRD62 NOSIG,1,0.0,0,9999,0,0,0,
2026-03-30 20:00:00,METAR UUEE 302000Z 07005MPS CAVOK 08/00 Q1011 R06R/CLRD62 R06C/CLRD62 NOSIG,1,0.0,0,9999,0,0,0,
2026-03-30 19:39:00,SPECI UUEE 301939Z 04004G12MPS 360V070 CAVOK 10/01 Q1011 R06R/CLRD62 R06C/CLRD62 NOSIG,1,0.0,0,9999,0,0,0,
2026-03-30 19:30:00,METAR UUEE 301930Z 06005MPS CAVOK 08/00 Q1011 R06R/CLRD62 R06C/CLRD62 NOSIG,1,0.0,0,9999,0,0,0,
2026-03-30 19:00:00,METAR UUEE 301900Z 06006MPS CAVOK 10/00 Q1011 R06R/CLRD62 R06C/CLRD62 NOSIG,1,0.0,0,9999,0,0,0,
2026-03-30 18:30:00,METAR UUEE 301830Z 06005MPS CAVOK 09/00 Q1011 R06R/CLRD62 R06C/CLRD62 NOSIG,1,0.0,0,9999,0,0,0,
2026-03-30 18:00:00,METAR UUEE 301800Z 06006MPS CAVOK 11/00 Q1011 R06R/CLRD62 R06C/CLRD62 NOSIG,1,0.0,0,9999,0,0,0,
2026-03-30 17:30:00,METAR UUEE 301730Z 06006MPS CAVOK 11/00 Q1011 R06R/CLRD62 R06C/CLRD62 NOSIG,1,0.0,0,9999,0,0,0,
2026-03-30 17:00:00,METAR UUEE 301700Z 05005MPS CAVOK 12/00 Q1011 R06R/CLRD62 R06C/CLRD62 NOSIG,1,0.0,0,9999,0,0,0,
2026-03-30 16:30:00,METAR UUEE 301630Z 05006MPS CAVOK 12/M00 Q1011 R06R/CLRD62 R06C/CLRD62 NOSIG,1,0.0,0,9999,0,0,0,
2026-03-30 16:00:00,METAR UUEE 301600Z 05004G11MPS 020V080 CAVOK 13/00 Q1011 R06R/CLRD62 R06C/CLRD62 NOSIG,1,0.0,0,9999,0,0,0,
2026-03-30 15:30:00,METAR UUEE 301530Z 06006MPS CAVOK 14/M00 Q1011 R06R/CLRD62 R06C/CLRD62 NOSIG,1,0.0,0,9999,0,0,0,
2026-03-30 15:00:00,METAR UUEE 301500Z 07007MPS CAVOK 15/M00 Q1011 R06R/CLRD62 R06C/CLRD62 NOSIG,1,0.0,0,9999,0,0,0,
2026-03-30 14:30:00,METAR UUEE 301430Z 06007MPS CAVOK 15/M00 Q1011 R06R/CLRD62 R06C/CLRD62 NOSIG,1,0.0,0,9999,0,0,0,
2026-03-30 14:00:00,METAR UUEE 301400Z 06007MPS CAVOK 16/M01 Q1011 R06R/CLRD62 R06C/CLRD62 NOSIG,1,0.0,0,9999,0,0,0,
2026-03-30 13:30:00,METAR UUEE 301330Z 08008MPS CAVOK 16/M01 Q1011 R06R/CLRD62 R06C/CLRD62 NOSIG,1,0.0,0,9999,0,0,0,
2026-03-30 13:00:00,METAR UUEE 301300Z 05007MPS 020V080 CAVOK 17/M01 Q1011 R06R/CLRD62 R06C/CLRD62 NOSIG,1,0.0,0,9999,0,0,0,
2026-03-30 12:30:00,METAR UUEE 301230Z 05006MPS CAVOK 17/M01 Q1011 R06R/CLRD62 R06C/CLRD62 NOSIG,1,0.0,0,9999,0,0,0,
2026-03-30 12:00:00,METAR UUEE 301200Z 07007MPS CAVOK 17/M01 Q1012 R06R/CLRD62 R06C/CLRD62 NOSIG,1,0.0,0,9999,0,0,0,
2026-03-30 11:30:00,METAR UUEE 301130Z 06006MPS 020V090 CAVOK 17/M00 Q1012 R06R/CLRD62 R06C/CLRD62 NOSIG,1,0.0,0,9999,0,0,0,
2026-03-30 11:00:00,METAR UUEE 301100Z 07006MPS 050V110 CAVOK 16/M01 Q1012 R06R/CLRD62 R06C/CLRD62 NOSIG,1,0.0,0,9999,0,0,0,
2026-03-30 10:30:00,METAR UUEE 301030Z 05004G09MPS 010V100 CAVOK 16/M01 Q1012 R06R/CLRD62 R06C/CLRD62 NOSIG,1,0.0,0,9999,0,0,0,
2026-03-30 10:00:00,METAR UUEE 301000Z 06006MPS 030V120 CAVOK 16/M01 Q1012 R06R/CLRD62 NOSIG,1,0.0,0,9999,0,0,0,
2026-03-30 09:30:00,METAR UUEE 300930Z 08005MPS CAVOK 15/01 Q1012 R06R/CLRD62 NOSIG,1,0.0,0,9999,0,0,0,
2026-03-30 09:00:00,METAR UUEE 300900Z 08007MPS CAVOK 15/00 Q1013 R06R/CLRD62 R06C/CLRD62 NOSIG,1,0.0,0,9999,0,0,0,
2026-03-30 08:30:00,METAR UUEE 300830Z 10006MPS CAVOK 15/01 Q1013 R06R/CLRD62 R06C/CLRD62 NOSIG,1,0.0,0,9999,0,0,0,
2026-03-30 08:00:00,METAR UUEE 300800Z 06005MPS CAVOK 14/01 Q1013 R06R/CLRD62 R06C/CLRD62 NOSIG,1,0.0,0,9999,0,0,0,
2026-03-30 07:30:00,METAR UUEE 300730Z 09006MPS CAVOK 14/01 Q1013 R06R/CLRD62 R06C/CLRD62 NOSIG,1,0.0,0,9999,0,0,0,
2026-03-30 07:00:00,METAR UUEE 300700Z 07005MPS CAVOK 13/01 Q1013 R06R/CLRD62 R06C/CLRD62 NOSIG,1,0.0,0,9999,0,0,0,
2026-03-30 06:30:00,METAR UUEE 300630Z 08005MPS CAVOK 12/01 Q1013 R06R/CLRD62 R06C/CLRD62 NOSIG,1,0.0,0,9999,0,0,0,
2026-03-30 06:26:00,SPECI UUEE 300626Z 08005MPS CAVOK 12/01 Q1013 R06R/CLRD62 R06C/CLRD62 NOSIG,1,0.0,0,9999,0,0,0,
2026-03-30 06:00:00,METAR UUEE 300600Z 07004MPS CAVOK 10/00 Q1013 R06R/CLRD62 R06C/CLRD62 NOSIG,1,0.0,0,9999,0,0,0,
2026-03-30 05:53:00,SPECI UUEE 300553Z 06004MPS CAVOK 10/01 Q1013 R06R/CLRD62 R06C/CLRD62 NOSIG,1,0.0,0,9999,0,0,0,
2026-03-30 05:30:00,METAR UUEE 300530Z 07004MPS CAVOK 08/01 Q1014 R06R/CLRD62 R06C/CLRD62 NOSIG,1,0.0,0,9999,0,0,0,
2026-03-30 05:00:00,METAR UUEE 300500Z 09002MPS CAVOK 07/00 Q1014 R06R/CLRD62 R06C/CLRD62 NOSIG,1,0.0,0,9999,0,0,0,
2026-03-30 04:56:00,SPECI UUEE 300456Z 10002MPS CAVOK 07/01 Q1014 R06R/CLRD62 R06C/CLRD62 NOSIG,1,0.0,0,9999,0,0,0,
2026-03-30 04:30:00,METAR UUEE 300430Z 32001MPS CAVOK 05/00 Q1014 R06R/CLRD62 R06C/CLRD62 NOSIG,1,0.0,0,9999,0,0,0,
2026-03-30 04:13:00,SPECI UUEE 300413Z 12002MPS CAVOK 04/00 Q1014 R06R/CLRD62 R06C/CLRD62 NOSIG,1,0.0,0,9999,0,0,0,
2026-03-30 04:00:00,METAR UUEE 300400Z 10002MPS CAVOK 02/M01 Q1014 R06R/CLRD62 R06C/CLRD62 NOSIG,1,0.0,0,9999,0,0,0,
2026-03-30 03:30:00,METAR UUEE 300330Z 07002MPS 030V090 CAVOK 01/M01 Q1014 R06R/CLRD62 R06C/CLRD62 NOSIG,1,0.0,0,9999,0,0,0,
2026-03-30 03:00:00,METAR UUEE 300300Z 33002MPS CAVOK 03/M01 Q1014 R06R/CLRD62 R06C/CLRD62 NOSIG,1,0.0,0,9999,0,0,0,
2026-03-30 02:30:00,METAR UUEE 300230Z 32002MPS CAVOK 03/M01 Q1014 R06R/CLRD62 R06C/CLRD62 NOSIG,1,0.0,0,9999,0,0,0,
2026-03-30 02:00:00,METAR UUEE 300200Z 33002MPS CAVOK 03/M00 Q1014 R06R/CLRD62 R06C/CLRD62 NOSIG,1,0.0,0,9999,0,0,0,
2026-03-30 01:30:00,METAR UUEE 300130Z 32002MPS CAVOK 03/M00 Q1015 R06R/CLRD62 R06C/CLRD62 NOSIG,1,0.0,0,9999,0,0,0,
2026-03-30 01:14:00,SPECI UUEE 300114Z 33002MPS CAVOK 03/M00 Q1015 R06R/CLRD62 R06C/CLRD62 NOSIG,1,0.0,0,9999,0,0,0,
2026-03-30 01:00:00,METAR UUEE 300100Z 33001MPS CAVOK 01/M01 Q1015 R06R/CLRD62 R06C/CLRD62 NOSIG,1,0.0,0,9999,0,0,0,
2026-03-30 00:30:00,METAR UUEE 300030Z 36002MPS CAVOK 04/M00 Q1015 R06R/CLRD62 R06C/CLRD62 NOSIG,1,0.0,0,9999,0,0,0,
2026-03-30 00:00:00,METAR UUEE 300000Z 33002MPS CAVOK 05/00 Q1015 R06R/CLRD62 R06C/CLRD62 NOSIG,1,0.0,0,9999,0,0,0,
2026-03-29 23:30:00,METAR UUEE 292330Z 33002MPS 310V040 CAVOK 06/M00 Q1015 R06R/CLRD62 R06C/CLRD62 NOSIG,1,0.0,0,9999,0,0,0,
2026-03-29 23:00:00,METAR UUEE 292300Z 30002MPS CAVOK 05/00 Q1015 R06R/CLRD62 R06C/CLRD62 NOSIG,1,0.0,0,9999,0,0,0,
2026-03-29 22:30:00,METAR UUEE 292230Z 07003MPS CAVOK 05/00 Q1015 R06R/CLRD62 R06C/CLRD62 NOSIG,1,0.0,0,9999,0,0,0,
2026-03-29 22:00:00,METAR UUEE 292200Z 07003MPS CAVOK 07/00 Q1015 R06R/CLRD62 R06C/CLRD62 NOSIG,1,0.0,0,9999,0,0,0,
2026-03-29 21:30:00,METAR UUEE 292130Z 07003MPS CAVOK 06/00 Q1015 R06R/CLRD62 R06C/CLRD62 NOSIG,1,0.0,0,9999,0,0,0,
2026-03-29 21:00:00,METAR UUEE 292100Z 07003MPS CAVOK 07/00 Q1015 R06R/CLRD62 R06C/CLRD62 NOSIG,1,0.0,0,9999,0,0,0,
2026-03-29 20:30:00,METAR UUEE 292030Z 07003MPS CAVOK 07/00 Q1015 R06R/CLRD62 R06C/CLRD62 NOSIG,1,0.0,0,9999,0,0,0,
2026-03-29 20:00:00,METAR UUEE 292000Z 08003MPS CAVOK 07/01 Q1015 R06R/CLRD62 R06C/CLRD62 NOSIG,1,0.0,0,9999,0,0,0,
2026-03-29 19:30:00,METAR UUEE 291930Z 08003MPS CAVOK 08/01 Q1016 R06R/CLRD62 R06C/CLRD62 NOSIG,1,0.0,0,9999,0,0,0,
2026-03-29 19:00:00,METAR UUEE 291900Z 08003MPS CAVOK 08/01 Q1016 R06R/CLRD62 R06C/CLRD62 NOSIG,1,0.0,0,9999,0,0,0,
2026-03-29 18:30:00,METAR UUEE 291830Z 08004MPS CAVOK 07/01 Q1016 R06R/CLRD62 R06C/CLRD62 NOSIG,1,0.0,0,9999,0,0,0,
2026-03-29 18:00:00,METAR UUEE 291800Z 09004MPS CAVOK 09/01 Q1016 R06R/CLRD62 R06C/CLRD62 NOSIG,1,0.0,0,9999,0,0,0,
2026-03-29 17:30:00,METAR UUEE 291730Z 06004MPS CAVOK 09/02 Q1016 R06R/CLRD62 R06C/CLRD62 NOSIG,1,0.0,0,9999,0,0,0,
2026-03-29 17:00:00,METAR UUEE 291700Z 06006MPS CAVOK 11/02 Q1016 R06R/CLRD62 R06C/CLRD62 NOSIG,1,0.0,0,9999,0,0,0,
2026-03-29 16:30:00,METAR UUEE 291630Z 06006MPS CAVOK 13/02 Q1016 R06R/CLRD62 R06C/CLRD62 NOSIG,1,0.0,0,9999,0,0,0,
2026-03-29 16:00:00,METAR UUEE 291600Z 06005MPS CAVOK 14/02 Q1016 R06R/CLRD62 R06C/CLRD62 NOSIG,1,0.0,0,9999,0,0,0,
2026-03-29 15:30:00,METAR UUEE 291530Z 04004MPS 010V080 CAVOK 15/02 Q1016 R06R/CLRD62 R06C/CLRD62 NOSIG,1,0.0,0,9999,0,0,0,
2026-03-29 15:00:00,METAR UUEE 291500Z 07005MPS CAVOK 15/02 Q1016 R06R/CLRD62 R06C/CLRD62 NOSIG,1,0.0,0,9999,0,0,0,
2026-03-29 14:30:00,METAR UUEE 291430Z 08004MPS CAVOK 16/02 Q1016 R06R/CLRD62 R06C/CLRD62 NOSIG,1,0.0,0,9999,0,0,0,
2026-03-29 14:00:00,METAR UUEE 291400Z 09004MPS CAVOK 16/02 Q1016 R06R/CLRD62 R06C/CLRD62 NOSIG,1,0.0,0,9999,0,0,0,
2026-03-29 13:30:00,METAR UUEE 291330Z 06005MPS 030V090 CAVOK 16/02 Q1016 R06R/CLRD62 R06C/CLRD62 NOSIG,1,0.0,0,9999,0,0,0,
2026-03-29 13:00:00,METAR UUEE 291300Z 08005MPS CAVOK 16/01 Q1016 R06R/CLRD62 R06C/CLRD62 NOSIG,1,0.0,0,9999,0,0,0,
2026-03-29 12:30:00,METAR UUEE 291230Z 08004MPS CAVOK 17/02 Q1016 R06R/CLRD62 R06C/CLRD62 NOSIG,1,0.0,0,9999,0,0,0,
2026-03-29 12:23:00,SPECI UUEE 291223Z 05005G10MPS 010V080 CAVOK 17/02 Q1016 R06R/CLRD62 R06C/CLRD62 NOSIG,1,0.0,0,9999,0,0,0,
2026-03-29 12:00:00,METAR UUEE 291200Z 11004MPS CAVOK 16/02 Q1016 R06R/CLRD62 R06C/CLRD62 NOSIG,1,0.0,0,9999,0,0,0,
2026-03-29 11:30:00,METAR UUEE 291130Z 08005MPS 040V110 CAVOK 16/03 Q1016 R06R/CLRD62 R06C/CLRD62 NOSIG,1,0.0,0,9999,0,0,0,
2026-03-29 11:00:00,METAR UUEE 291100Z 06005MPS CAVOK 16/03 Q1017 R06R/CLRD62 R06C/CLRD62 NOSIG,1,0.0,0,9999,0,0,0,
2026-03-29 10:30:00,METAR UUEE 291030Z 08005MPS CAVOK 16/03 Q1017 R06R/CLRD62 R06C/CLRD62 NOSIG,1,0.0,0,9999,0,0,0,
2026-03-29 10:00:00,METAR UUEE 291000Z 05005MPS 020V080 CAVOK 16/02 Q1017 R06R/CLRD62 R06C/CLRD62 NOSIG,1,0.0,0,9999,0,0,0,
2026-03-29 09:30:00,METAR UUEE 290930Z 07005MPS 030V100 CAVOK 15/03 Q1017 R06R/CLRD62 R06C/CLRD62 NOSIG,1,0.0,0,9999,0,0,0,
2026-03-29 09:00:00,METAR UUEE 290900Z 06002MPS 330V090 CAVOK 14/02 Q1017 R06R/CLRD62 R06C/CLRD62 NOSIG,1,0.0,0,9999,0,0,0,
2026-03-29 08:30:00,METAR UUEE 290830Z 05002MPS 010V100 CAVOK 14/02 Q1017 R06R/CLRD62 R06C/CLRD62 NOSIG,1,0.0,0,9999,0,0,0,
2026-03-29 08:25:00,SPECI UUEE 290825Z 01002G08MPS 290V070 CAVOK 14/02 Q1017 R06R/CLRD62 R06C/CLRD62 NOSIG,1,0.0,0,9999,0,0,0,
2026-03-29 08:00:00,METAR UUEE 290800Z 34002G07MPS 270V050 CAVOK 12/02 Q1018 R06C/CLRD62 NOSIG,1,0.0,0,9999,0,0,0,
2026-03-29 07:30:00,METAR UUEE 290730Z 09002MPS 060V130 CAVOK 12/01 Q1018 R06C/CLRD62 NOSIG,1,0.0,0,9999,0,0,0,
2026-03-29 07:21:00,SPECI UUEE 290721Z 11003MPS CAVOK 12/02 Q1018 R06C/CLRD62 NOSIG,1,0.0,0,9999,0,0,0,
2026-03-29 07:00:00,METAR UUEE 290700Z 08003MPS CAVOK 10/01 Q1017 R06R/CLRD62 R06C/CLRD62 NOSIG,1,0.0,0,9999,0,0,0,
2026-03-29 06:30:00,METAR UUEE 290630Z 05003MPS CAVOK 09/01 Q1018 R06R/CLRD62 R06C/CLRD62 NOSIG,1,0.0,0,9999,0,0,0,
2026-03-29 06:00:00,METAR UUEE 290600Z 01003MPS CAVOK 08/00 Q1018 R06R/CLRD62 R06C/CLRD62 NOSIG,1,0.0,0,9999,0,0,0,
2026-03-29 05:30:00,METAR UUEE 290530Z 02003MPS 360V060 CAVOK 07/01 Q1017 R06R/250145 R06C/CLRD62 NOSIG,1,0.0,0,9999,0,0,0,
2026-03-29 05:00:00,METAR UUEE 290500Z 02003MPS 340V070 CAVOK 07/00 Q1017 R06R/250145 R06C/CLRD62 NOSIG,1,0.0,0,9999,0,0,0,
2026-03-29 04:30:00,METAR UUEE 290430Z 01003MPS 350V060 CAVOK 07/M00 Q1017 R06R/250145 R06C/CLRD62 NOSIG,1,0.0,0,9999,0,0,0,
2026-03-29 04:00:00,METAR UUEE 290400Z 01002MPS CAVOK 06/M00 Q1017 R06R/250145 R06C/CLRD62 NOSIG,1,0.0,0,9999,0,0,0,
2026-03-29 03:30:00,METAR UUEE 290330Z 01003MPS 350V050 CAVOK 07/00 Q1017 R06R/250145 R06C/CLRD62 NOSIG,1,0.0,0,9999,0,0,0,
2026-03-29 03:00:00,METAR UUEE 290300Z 02002MPS CAVOK 07/M00 Q1017 R06R/250145 R06C/CLRD62 NOSIG,1,0.0,0,9999,0,0,0,
2026-03-29 02:30:00,METAR UUEE 290230Z 01002MPS 330V050 CAVOK 07/M00 Q1017 R06R/250145 R06C/CLRD62 NOSIG,1,0.0,0,9999,0,0,0,
2026-03-29 02:00:00,METAR UUEE 290200Z 35002MPS CAVOK 07/M00 Q1017 R06R/250145 R06C/CLRD62 NOSIG,1,0.0,0,9999,0,0,0,
2026-03-29 01:30:00,METAR UUEE 290130Z 02003MPS CAVOK 07/00 Q1017 R06R/250145 R06C/CLRD62 NOSIG,1,0.0,0,9999,0,0,0,
2026-03-29 01:00:00,METAR UUEE 290100Z 02004MPS CAVOK 07/00 Q1017 R06R/250145 R06C/CLRD62 NOSIG,1,0.0,0,9999,0,0,0,
2026-03-29 00:30:00,METAR UUEE 290030Z 36002MPS CAVOK 07/00 Q1017 R06R/250145 R06C/CLRD62 NOSIG,1,0.0,0,9999,0,0,0,
2026-03-29 00:00:00,METAR UUEE 290000Z 01002MPS CAVOK 07/00 Q1016 R06R/250145 R06C/CLRD62 NOSIG,1,0.0,0,9999,0,0,0,
2026-03-28 23:30:00,METAR UUEE 282330Z 01002MPS CAVOK 08/00 Q1017 R06R/250145 R06C/CLRD62 NOSIG,1,0.0,0,9999,0,0,0,
2026-03-28 23:00:00,METAR UUEE 282300Z 35002MPS CAVOK 08/00 Q1017 R06R/250145 R06C/CLRD62 NOSIG,1,0.0,0,9999,0,0,0,
2026-03-28 22:30:00,METAR UUEE 282230Z 04004G10MPS CAVOK 08/00 Q1017 R06R/250145 R06C/CLRD62 NOSIG,1,0.0,0,9999,0,0,0,
2026-03-28 22:00:00,METAR UUEE 282200Z 03003MPS CAVOK 09/01 Q1017 R06R/250145 R06C/CLRD62 NOSIG,1,0.0,0,9999,0,0,0,
2026-03-28 21:30:00,METAR UUEE 282130Z 05004MPS CAVOK 09/00 Q1017 R06R/250145 R06C/CLRD62 NOSIG,1,0.0,0,9999,0,0,0,
2026-03-28 21:00:00,METAR UUEE 282100Z 05005MPS CAVOK 10/01 Q1017 R06R/250145 R06C/CLRD62 NOSIG,1,0.0,0,9999,0,0,0,
2026-03-28 20:30:00,METAR UUEE 282030Z 05005MPS CAVOK 10/00 Q1017 R06R/250145 R06C/CLRD62 NOSIG,1,0.0,0,9999,0,0,0,
2026-03-28 20:00:00,METAR UUEE 282000Z 06005MPS CAVOK 10/01 Q1017 R06R/250145 R06C/CLRD62 NOSIG,1,0.0,0,9999,0,0,0,
2026-03-28 19:30:00,METAR UUEE 281930Z 04004G10MPS 020V080 9999 -RA NSC 10/00 Q1017 R06R/250145 R06C/CLRD62 NOSIG,0,4.0,1,10000,0,0,0,-RA
2026-03-28 19:00:00,METAR UUEE 281900Z 05005MPS CAVOK 11/00 Q1017 R06R/CLRD62 R06C/CLRD62 NOSIG,1,0.0,0,9999,0,0,0,
2026-03-28 18:30:00,METAR UUEE 281830Z 03004MPS CAVOK 11/M00 Q1017 R06R/CLRD62 R06C/CLRD62 NOSIG,1,0.0,0,9999,0,0,0,
2026-03-28 18:00:00,METAR UUEE 281800Z 04005MPS 9999 SCT049 11/M00 Q1017 R06R/CLRD62 R06C/CLRD62 NOSIG,0,5.0,0,10000,0,0,0,
2026-03-28 17:30:00,METAR UUEE 281730Z 04004MPS 360V080 CAVOK 11/M00 Q1016 R06R/CLRD62 R06C/CLRD62 NOSIG,1,0.0,0,9999,0,0,0,
2026-03-28 17:00:00,METAR UUEE 281700Z 02004G09MPS 350V090 CAVOK 11/M02 Q1016 R06R/CLRD62 R06C/CLRD62 NOSIG,1,0.0,0,9999,0,0,0,
2026-03-28 16:30:00,METAR UUEE 281630Z 03004MPS CAVOK 11/01 Q1016 R06R/CLRD62 R06C/CLRD62 NOSIG,1,0.0,0,9999,0,0,0,
2026-03-28 16:00:00,METAR UUEE 281600Z 03004MPS 350V060 CAVOK 13/M01 Q1016 R06R/CLRD62 R06C/CLRD62 NOSIG,1,0.0,0,9999,0,0,0,
2026-03-28 15:30:00,METAR UUEE 281530Z 03004MPS 010V070 CAVOK 13/00 Q1015 R06R/CLRD62 R06C/CLRD62 NOSIG,1,0.0,0,9999,0,0,0,
2026-03-28 15:00:00,METAR UUEE 281500Z 03003G08MPS 350V120 CAVOK 13/M01 Q1015 R06R/CLRD62 R06C/CLRD62 NOSIG,1,0.0,0,9999,0,0,0,
2026-03-28 14:30:00,METAR UUEE 281430Z 04004G09MPS 350V090 CAVOK 14/M02 Q1015 R06R/CLRD62 R06C/CLRD62 NOSIG,1,0.0,0,9999,0,0,0,
2026-03-28 14:00:00,METAR UUEE 281400Z 06004MPS CAVOK 14/M01 Q1015 R06R/CLRD62 R06C/CLRD62 NOSIG,1,0.0,0,9999,0,0,0,
2026-03-28 13:30:00,METAR UUEE 281330Z 07004MPS CAVOK 14/M00 Q1015 R06R/CLRD62 R06C/CLRD62 NOSIG,1,0.0,0,9999,0,0,0,
2026-03-28 13:00:00,METAR UUEE 281300Z 07005MPS CAVOK 14/M01 Q1015 R06R/CLRD62 R06C/CLRD62 NOSIG,1,0.0,0,9999,0,0,0,
2026-03-28 12:30:00,METAR UUEE 281230Z 05006MPS 9999 SCT045 14/M00 Q1015 R06R/CLRD62 R06C/CLRD62 NOSIG,0,6.0,0,10000,0,0,0,
2026-03-28 12:00:00,METAR UUEE 281200Z 05005MPS 350V070 9999 FEW045 14/00 Q1015 R06R/CLRD62 R06C/CLRD62 NOSIG,0,5.0,0,10000,0,0,0,
2026-03-28 11:30:00,METAR UUEE 281130Z 03005MPS 360V070 CAVOK 14/M00 Q1016 R06R/CLRD62 R06C/CLRD62 NOSIG,1,0.0,0,9999,0,0,0,
2026-03-28 11:00:00,METAR UUEE 281100Z 06004MPS 010V090 9999 FEW046 14/01 Q1016 R06R/CLRD62 R06C/CLRD62 NOSIG,0,4.0,0,10000,0,0,0,
2026-03-28 10:30:00,METAR UUEE 281030Z 36004MPS 330V030 9999 FEW042 13/00 Q1016 R06R/CLRD62 R06C/CLRD62 NOSIG,0,4.0,0,10000,0,0,0,
2026-03-28 10:00:00,METAR UUEE 281000Z 35004G09MPS 290V050 CAVOK 13/01 Q1016 R06R/CLRD62 R06C/CLRD62 NOSIG,1,0.0,0,9999,0,0,0,
2026-03-28 09:30:00,METAR UUEE 280930Z 36004MPS 320V070 CAVOK 13/01 Q1016 R06R/CLRD62 R06C/CLRD62 NOSIG,1,0.0,0,9999,0,0,0,
2026-03-28 09:00:00,METAR UUEE 280900Z 35004G10MPS 320V060 CAVOK 13/01 Q1016 R06R/CLRD62 R06C/CLRD62 NOSIG,1,0.0,0,9999,0,0,0,
2026-03-28 08:30:00,METAR UUEE 280830Z 03004MPS 350V060 CAVOK 12/01 Q1016 R06R/CLRD62 R06C/CLRD62 NOSIG,1,0.0,0,9999,0,0,0,
2026-03-28 08:00:00,METAR UUEE 280800Z 01004MPS CAVOK 12/00 Q1016 R06R/CLRD62 R06C/CLRD62 NOSIG,1,0.0,0,9999,0,0,0,
2026-03-28 07:44:00,SPECI UUEE 280744Z 36005MPS CAVOK 12/01 Q1016 R06R/CLRD62 R06C/CLRD62 NOSIG,1,0.0,0,9999,0,0,0,
2026-03-28 07:30:00,METAR UUEE 280730Z 06004MPS CAVOK 12/00 Q1016 R06R/CLRD62 R06C/CLRD62 NOSIG,1,0.0,0,9999,0,0,0,
2026-03-28 07:00:00,METAR UUEE 280700Z 02004MPS CAVOK 11/01 Q1016 R06R/CLRD62 R06C/CLRD62 NOSIG,1,0.0,0,9999,0,0,0,
2026-03-28 06:48:00,SPECI UUEE 280648Z 03004MPS CAVOK 10/00 Q1015 R06R/CLRD62 R06C/CLRD62 NOSIG,1,0.0,0,9999,0,0,0,
2026-03-28 06:30:00,METAR UUEE 280630Z 01004MPS 330V080 CAVOK 08/01 Q1015 R06R/250145 R06C/CLRD62 NOSIG,1,0.0,0,9999,0,0,0,
2026-03-28 06:00:00,METAR UUEE 280600Z 02004MPS 340V090 CAVOK 07/00 Q1015 R06R/250145 R06C/CLRD62 NOSIG,1,0.0,0,9999,0,0,0,
2026-03-28 05:30:00,METAR UUEE 280530Z 36005G11MPS 340V060 CAVOK 07/00 Q1015 R06R/250145 R06C/CLRD62 NOSIG,1,0.0,0,9999,0,0,0,
2026-03-28 05:00:00,METAR UUEE 280500Z 01004MPS CAVOK 07/00 Q1015 R06R/250145 R06C/CLRD62 NOSIG,1,0.0,0,9999,0,0,0,
2026-03-28 04:30:00,METAR UUEE 280430Z 01002MPS CAVOK 06/00 Q1015 R06R/250145 R06C/CLRD62 NOSIG,1,0.0,0,9999,0,0,0,
2026-03-28 04:00:00,METAR UUEE 280400Z 35003MPS 330V120 CAVOK 05/00 Q1015 R06R/250145 R06C/CLRD62 NOSIG,1,0.0,0,9999,0,0,0,
2026-03-28 03:30:00,METAR UUEE 280330Z 32002MPS CAVOK 04/00 Q1015 R06R/250145 R06C/CLRD62 NOSIG,1,0.0,0,9999,0,0,0,
2026-03-28 03:00:00,METAR UUEE 280300Z 32002MPS CAVOK 04/01 Q1014 R06R/250145 R06C/CLRD62 NOSIG,1,0.0,0,9999,0,0,0,
2026-03-28 02:30:00,METAR UUEE 280230Z 32001MPS CAVOK 04/01 Q1014 R06C/CLRD62 NOSIG,1,0.0,0,9999,0,0,0,
2026-03-28 02:00:00,METAR UUEE 280200Z 01002MPS CAVOK 05/01 Q1014 R06C/CLRD62 NOSIG,1,0.0,0,9999,0,0,0,
2026-03-28 01:30:00,METAR UUEE 280130Z 32002MPS CAVOK 06/01 Q1014 R06C/CLRD62 NOSIG,1,0.0,0,9999,0,0,0,
2026-03-28 01:00:00,METAR UUEE 280100Z 34002MPS CAVOK 06/02 Q1014 R06C/CLRD62 NOSIG,1,0.0,0,9999,0,0,0,
2026-03-28 00:30:00,METAR UUEE 280030Z 32002MPS CAVOK 06/02 Q1014 R06C/CLRD62 NOSIG,1,0.0,0,9999,0,0,0,
2026-03-28 00:08:00,SPECI UUEE 280008Z 35002MPS CAVOK 08/01 Q1014 R06C/CLRD62 NOSIG,1,0.0,0,9999,0,0,0,
2026-03-28 00:00:00,METAR UUEE 280000Z 33001MPS CAVOK 06/02 Q1014 R06C/CLRD62 NOSIG,1,0.0,0,9999,0,0,0,
2026-03-27 23:30:00,METAR UUEE 272330Z 03002MPS 350V070 CAVOK 06/02 Q1014 R06C/CLRD62 NOSIG,1,0.0,0,9999,0,0,0,
2026-03-27 23:00:00,METAR UUEE 272300Z 07004MPS CAVOK 07/02 Q1014 R06C/CLRD62 NOSIG,1,0.0,0,9999,0,0,0,
2026-03-27 22:30:00,METAR UUEE 272230Z 08004MPS CAVOK 07/02 Q1014 R06C/CLRD62 NOSIG,1,0.0,0,9999,0,0,0,
2026-03-27 22:00:00,METAR UUEE 272200Z 35003MPS CAVOK 09/02 Q1014 R06R/250145 R06C/CLRD62 NOSIG,1,0.0,0,9999,0,0,0,
2026-03-27 21:30:00,METAR UUEE 272130Z 36004G09MPS 280V070 CAVOK 09/03 Q1014 R06R/250145 R06C/CLRD62 NOSIG,1,0.0,0,9999,0,0,0,
2026-03-27 21:00:00,METAR UUEE 272100Z 01003G08MPS 320V130 CAVOK 10/02 Q1013 R06R/250145 R06C/CLRD62 NOSIG,1,0.0,0,9999,0,0,0,
2026-03-27 20:30:00,METAR UUEE 272030Z 35003MPS 330V080 CAVOK 09/03 Q1013 R06R/250145 R06C/CLRD62 NOSIG,1,0.0,0,9999,0,0,0,
2026-03-27 20:00:00,METAR UUEE 272000Z 01002MPS 320V060 CAVOK 10/03 Q1013 R06R/250145 R06C/CLRD62 NOSIG,1,0.0,0,9999,0,0,0,
2026-03-27 19:30:00,METAR UUEE 271930Z 32002MPS CAVOK 10/03 Q1013 R06R/250145 R06C/CLRD62 NOSIG,1,0.0,0,9999,0,0,0,
2026-03-27 19:00:00,METAR UUEE 271900Z 01003G08MPS 330V080 CAVOK 12/02 Q1013 R06R/250145 R06C/CLRD62 NOSIG,1,0.0,0,9999,0,0,0,
2026-03-27 18:30:00,METAR UUEE 271830Z 32002MPS CAVOK 11/03 Q1013 R06R/250145 R06C/CLRD62 NOSIG,1,0.0,0,9999,0,0,0,
2026-03-27 18:00:00,METAR UUEE 271800Z 06002MPS CAVOK 10/03 Q1013 R06R/250145 R06C/CLRD62 NOSIG,1,0.0,0,9999,0,0,0,
2026-03-27 17:30:00,METAR UUEE 271730Z 07002MPS CAVOK 11/03 Q1013 R06R/250145 R06C/CLRD62 NOSIG,1,0.0,0,9999,0,0,0,
2026-03-27 17:00:00,METAR UUEE 271700Z 07003MPS CAVOK 10/03 Q1013 R06R/250145 R06C/CLRD62 NOSIG,1,0.0,0,9999,0,0,0,
2026-03-27 16:30:00,METAR UUEE 271630Z 07002MPS CAVOK 10/04 Q1013 R06R/250145 R06C/CLRD62 NOSIG,1,0.0,0,9999,0,0,0,
2026-03-27 16:00:00,METAR UUEE 271600Z 06002MPS CAVOK 13/03 Q1013 R06R/250145 R06C/CLRD62 NOSIG,1,0.0,0,9999,0,0,0,
2026-03-25 15:00:00,METAR UUEE 251500Z 17005MPS 150V210 CAVOK 12/M03 Q1009 R24L/250145 R24C/250145 NOSIG,1,0.0,0,9999,0,0,0,
2026-03-25 14:30:00,METAR UUEE 251430Z 20005MPS CAVOK 12/M03 Q1009 R24L/250145 R24C/250145 NOSIG,1,0.0,0,9999,0,0,0,
2026-03-25 14:00:00,METAR UUEE 251400Z 20004MPS 170V230 CAVOK 12/M03 Q1009 R24L/250145 R24C/250145 NOSIG,1,0.0,0,9999,0,0,0,
2026-03-25 13:30:00,METAR UUEE 251330Z 20004MPS 160V240 CAVOK 12/M03 Q1009 R24L/250145 R24C/250145 NOSIG,1,0.0,0,9999,0,0,0,
2026-03-25 13:00:00,METAR UUEE 251300Z 19004MPS 170V230 CAVOK 13/M04 Q1009 R24L/250145 R24C/250145 NOSIG,1,0.0,0,9999,0,0,0,
2026-03-25 12:30:00,METAR UUEE 251230Z 19005MPS 160V220 CAVOK 12/M03 Q1010 R24L/250145 R24C/250145 NOSIG,1,0.0,0,9999,0,0,0,
2026-03-25 12:00:00,METAR UUEE 251200Z 20005MPS 160V220 CAVOK 13/M03 Q1010 R24L/250145 R24C/250145 NOSIG,1,0.0,0,9999,0,0,0,
2026-03-25 11:30:00,METAR UUEE 251130Z 22005MPS CAVOK 12/M03 Q1010 R24L/250145 R24C/250145 NOSIG,1,0.0,0,9999,0,0,0,
2026-03-25 11:00:00,METAR UUEE 251100Z 24005MPS CAVOK 12/M02 Q1010 R24L/250145 NOSIG,1,0.0,0,9999,0,0,0,
2026-03-25 10:30:00,METAR UUEE 251030Z 23005MPS 190V250 CAVOK 12/M01 Q1010 R24L/250145 NOSIG,1,0.0,0,9999,0,0,0,
2026-03-25 10:00:00,METAR UUEE 251000Z 20005MPS 180V240 CAVOK 12/M03 Q1011 R24L/250145 R24C/250145 NOSIG,1,0.0,0,9999,0,0,0,
2026-03-25 09:30:00,METAR UUEE 250930Z 20005MPS 170V230 CAVOK 11/M03 Q1011 R24L/250145 R24C/250145 NOSIG,1,0.0,0,9999,0,0,0,
2026-03-25 09:00:00,METAR UUEE 250900Z 21005MPS CAVOK 11/M02 Q1011 R24L/250145 R24C/250145 NOSIG,1,0.0,0,9999,0,0,0,
2026-03-25 08:30:00,METAR UUEE 250830Z 23004MPS 190V250 CAVOK 10/M03 Q1011 R24L/250145 R24C/250145 NOSIG,1,0.0,0,9999,0,0,0,
2026-03-25 08:00:00,METAR UUEE 250800Z 20003MPS 160V240 CAVOK 10/M03 Q1012 R24L/250145 R24C/250145 NOSIG,1,0.0,0,9999,0,0,0,
2026-03-25 07:30:00,METAR UUEE 250730Z 21002MPS 190V250 CAVOK 09/M02 Q1012 R24L/250145 R24C/250145 NOSIG,1,0.0,0,9999,0,0,0,
2026-03-25 07:00:00,METAR UUEE 250700Z 22002MPS 160V250 CAVOK 08/M02 Q1012 R24L/250145 R24C/250145 NOSIG,1,0.0,0,9999,0,0,0,
2026-03-25 06:30:00,METAR UUEE 250630Z 21002MPS 170V230 CAVOK 07/M02 Q1012 R24L/250145 R24C/250145 NOSIG,1,0.0,0,9999,0,0,0,
2026-03-25 06:26:00,SPECI UUEE 250626Z 21002MPS 170V230 CAVOK 07/M03 Q1012 R24L/250145 R24C/250145 NOSIG,1,0.0,0,9999,0,0,0,
2026-03-25 06:00:00,METAR UUEE 250600Z 22002MPS 170V230 CAVOK 05/M03 Q1012 R24L/250145 R24C/250145 NOSIG,1,0.0,0,9999,0,0,0,
2026-03-25 05:30:00,METAR UUEE 250530Z VRB01MPS CAVOK 04/M03 Q1012 R24L/250145 R24C/250145 NOSIG,1,0.0,0,9999,0,0,0,
2026-03-25 05:00:00,METAR UUEE 250500Z VRB01MPS CAVOK 04/M04 Q1012 R24L/250145 R24C/250145 NOSIG,1,0.0,0,9999,0,0,0,
2026-03-25 04:45:00,SPECI UUEE 250445Z 00000MPS CAVOK 05/M03 Q1012 R24L/250145 R24C/250145 NOSIG,1,0.0,0,9999,0,0,0,
2026-03-25 04:30:00,METAR UUEE 250430Z VRB01MPS CAVOK 03/M03 Q1012 R24L/250145 R24C/250145 NOSIG,1,0.0,0,9999,0,0,0,
2026-03-25 04:00:00,METAR UUEE 250400Z 00000MPS CAVOK 02/M04 Q1012 R24L/250145 R24C/250145 NOSIG,1,0.0,0,9999,0,0,0,
2026-03-25 03:30:00,METAR UUEE 250330Z 19002MPS 150V220 CAVOK 02/M04 Q1012 R24L/250145 R24C/250145 NOSIG,1,0.0,0,9999,0,0,0,
2026-03-25 03:00:00,METAR UUEE 250300Z 21001MPS CAVOK 01/M04 Q1012 R24L/250145 R24C/250145 NOSIG,1,0.0,0,9999,0,0,0,
2026-03-25 02:30:00,METAR UUEE 250230Z 23001MPS CAVOK 01/M04 Q1012 R24C/250145 NOSIG,1,0.0,0,9999,0,0,0,
2026-03-25 02:00:00,METAR UUEE 250200Z 32001MPS CAVOK 02/M04 Q1012 R24C/250145 NOSIG,1,0.0,0,9999,0,0,0,
2026-03-25 01:30:00,METAR UUEE 250130Z 20001MPS CAVOK 02/M04 Q1012 R24L/250145 R24C/250145 NOSIG,1,0.0,0,9999,0,0,0,
2026-03-25 01:00:00,METAR UUEE 250100Z 22002MPS CAVOK 02/M04 Q1012 R24L/250145 R24C/250145 NOSIG,1,0.0,0,9999,0,0,0,
2026-03-25 00:30:00,METAR UUEE 250030Z 22001MPS CAVOK 02/M04 Q1012 R24L/250145 R24C/250145 NOSIG,1,0.0,0,9999,0,0,0,
2026-03-25 00:00:00,METAR UUEE 250000Z 22001MPS CAVOK 02/M04 Q1012 R24L/250145 R24C/250145 NOSIG,1,0.0,0,9999,0,0,0,
2026-03-24 23:30:00,METAR UUEE 242330Z 21002MPS CAVOK 02/M04 Q1012 R24L/250145 R24C/250145 NOSIG,1,0.0,0,9999,0,0,0,
2026-03-24 23:00:00,METAR UUEE 242300Z 23002MPS CAVOK 03/M04 Q1013 R24L/250145 R24C/250145 NOSIG,1,0.0,0,9999,0,0,0,
2026-03-24 22:30:00,METAR UUEE 242230Z 23002MPS CAVOK 04/M03 Q1013 R24L/250145 R24C/250145 NOSIG,1,0.0,0,9999,0,0,0,
2026-03-24 22:00:00,METAR UUEE 242200Z 23003MPS CAVOK 04/M04 Q1013 R24L/250145 R24C/250145 NOSIG,1,0.0,0,9999,0,0,0,
2026-03-24 21:30:00,METAR UUEE 242130Z 21002MPS 190V250 CAVOK 04/M03 Q1013 R24L/250145 R24C/250145 NOSIG,1,0.0,0,9999,0,0,0,
2026-03-24 21:00:00,METAR UUEE 242100Z 24002MPS 210V270 CAVOK 05/M04 Q1013 R24L/250145 R24C/250145 NOSIG,1,0.0,0,9999,0,0,0,
2026-03-24 20:30:00,METAR UUEE 242030Z 19002MPS CAVOK 06/M03 Q1013 R24L/250145 R24C/250145 NOSIG,1,0.0,0,9999,0,0,0,
2026-03-24 20:00:00,METAR UUEE 242000Z VRB01MPS CAVOK 05/M03 Q1013 R24L/250145 R24C/250145 NOSIG,1,0.0,0,9999,0,0,0,
2026-03-24 19:30:00,METAR UUEE 241930Z 32002MPS CAVOK 06/M03 Q1013 R24L/250145 R24C/250145 NOSIG,1,0.0,0,9999,0,0,0,
2026-03-24 19:00:00,METAR UUEE 241900Z 23002MPS 200V270 CAVOK 06/M03 Q1013 R24L/250145 R24C/250145 NOSIG,1,0.0,0,9999,0,0,0,
2026-03-24 18:30:00,METAR UUEE 241830Z 24002MPS CAVOK 07/M03 Q1013 R24L/250145 R24C/250145 NOSIG,1,0.0,0,9999,0,0,0,
2026-03-24 18:00:00,METAR UUEE 241800Z 24002MPS 200V280 CAVOK 08/M03 Q1013 R24L/250145 R24C/250145 NOSIG,1,0.0,0,9999,0,0,0,
2026-03-24 17:30:00,METAR UUEE 241730Z 24002MPS 210V280 CAVOK 08/M02 Q1013 R24L/250145 R24C/250145 NOSIG,1,0.0,0,9999,0,0,0,
2026-03-24 17:00:00,METAR UUEE 241700Z 26003MPS CAVOK 10/M04 Q1013 R24L/250145 R24C/250145 NOSIG,1,0.0,0,9999,0,0,0,
2026-03-24 16:30:00,METAR UUEE 241630Z 31003MPS CAVOK 10/M04 Q1013 R24L/250145 R24C/250145 NOSIG,1,0.0,0,9999,0,0,0,
2026-03-24 16:00:00,METAR UUEE 241600Z 28004MPS 250V310 CAVOK 11/M04 Q1013 R24L/250145 R24C/250145 NOSIG,1,0.0,0,9999,0,0,0,
2026-03-24 15:30:00,METAR UUEE 241530Z 28003MPS CAVOK 10/M03 Q1013 R24L/250145 R24C/250145 NOSIG,1,0.0,0,9999,0,0,0,
2026-03-24 15:00:00,METAR UUEE 241500Z 30003MPS CAVOK 11/M04 Q1013 R24L/250145 R24C/250145 NOSIG,1,0.0,0,9999,0,0,0,
2026-03-24 14:30:00,METAR UUEE 241430Z 31003MPS 280V340 CAVOK 12/M05 Q1013 R24L/250145 R24C/250145 NOSIG,1,0.0,0,9999,0,0,0,
2026-03-24 14:00:00,METAR UUEE 241400Z 33003G08MPS CAVOK 12/M04 Q1013 R24L/250145 R24C/250145 NOSIG,1,0.0,0,9999,0,0,0,
2026-03-24 13:30:00,METAR UUEE 241330Z 33002G09MPS CAVOK 11/M04 Q1013 R24L/250145 R24C/250145 NOSIG,1,0.0,0,9999,0,0,0,
2026-03-24 13:00:00,METAR UUEE 241300Z 29005MPS CAVOK 12/M03 Q1013 R24L/250145 R24C/250145 NOSIG,1,0.0,0,9999,0,0,0,
2026-03-24 12:30:00,METAR UUEE 241230Z 31004MPS 260V350 CAVOK 12/M04 Q1013 R24L/250145 R24C/250145 NOSIG,1,0.0,0,9999,0,0,0,
2026-03-24 12:00:00,METAR UUEE 241200Z 29005MPS CAVOK 12/M03 Q1014 R24L/250145 R24C/250145 NOSIG,1,0.0,0,9999,0,0,0,
2026-03-24 11:30:00,METAR UUEE 241130Z 29005MPS 230V330 CAVOK 12/M04 Q1014 R24L/250145 R24C/250145 NOSIG,1,0.0,0,9999,0,0,0,
2026-03-24 11:29:00,SPECI UUEE 241129Z 28005MPS 230V330 CAVOK 13/M02 Q1014 R24L/250145 R24C/250145 NOSIG,1,0.0,0,9999,0,0,0,
2026-03-24 11:00:00,METAR UUEE 241100Z 25005MPS 220V290 CAVOK 11/M04 Q1014 R24L/250145 NOSIG,1,0.0,0,9999,0,0,0,
2026-03-24 10:30:00,METAR UUEE 241030Z 25005MPS CAVOK 11/M03 Q1014 R24L/250145 NOSIG,1,0.0,0,9999,0,0,0,
2026-03-24 10:00:00,METAR UUEE 241000Z 27005MPS 240V310 CAVOK 11/M03 Q1014 R24C/250145 NOSIG,1,0.0,0,9999,0,0,0,
2026-03-24 09:30:00,METAR UUEE 240930Z 23005MPS CAVOK 10/M03 Q1014 R24C/250145 NOSIG,1,0.0,0,9999,0,0,0,
2026-03-24 09:00:00,METAR UUEE 240900Z 24004MPS CAVOK 10/M03 Q1015 R24L/250145 R24C/250145 NOSIG,1,0.0,0,9999,0,0,0,
2026-03-24 08:30:00,METAR UUEE 240830Z 24003MPS CAVOK 09/M02 Q1015 R24L/250145 R24C/250145 NOSIG,1,0.0,0,9999,0,0,0,
2026-03-24 08:00:00,METAR UUEE 240800Z 22003MPS 180V240 CAVOK 08/M03 Q1015 R24L/250145 R24C/250145 NOSIG,1,0.0,0,9999,0,0,0,
2026-03-24 07:30:00,METAR UUEE 240730Z 20003MPS CAVOK 07/M04 Q1015 R24L/250145 R24C/250145 NOSIG,1,0.0,0,9999,0,0,0,
2026-03-24 07:25:00,SPECI UUEE 240725Z 20003MPS CAVOK 07/M04 Q1015 R24L/250145 R24C/250145 NOSIG,1,0.0,0,9999,0,0,0,
2026-03-24 07:00:00,METAR UUEE 240700Z 20003MPS CAVOK 05/M04 Q1015 R24L/250145 R24C/250145 NOSIG,1,0.0,0,9999,0,0,0,
2026-03-24 06:57:00,SPECI UUEE 240657Z 21003MPS CAVOK 06/M03 Q1015 R24L/250145 R24C/250145 NOSIG,1,0.0,0,9999,0,0,0,
2026-03-24 06:30:00,METAR UUEE 240630Z 22003MPS CAVOK 04/M04 Q1015 R24L/250145 R24C/250145 NOSIG,1,0.0,0,9999,0,0,0,
2026-03-24 06:00:00,METAR UUEE 240600Z 24003MPS CAVOK 03/M04 Q1016 R24L/250145 R24C/250145 NOSIG,1,0.0,0,9999,0,0,0,
2026-03-24 05:30:00,METAR UUEE 240530Z 23004MPS CAVOK 02/M04 Q1016 R24L/250145 R24C/250145 NOSIG,1,0.0,0,9999,0,0,0,
2026-03-24 05:00:00,METAR UUEE 240500Z 23004MPS 190V250 CAVOK 01/M05 Q1016 R24L/250145 R24C/250145 NOSIG,1,0.0,0,9999,0,0,0,
2026-03-24 04:30:00,METAR UUEE 240430Z 22003MPS CAVOK 01/M05 Q1016 R24L/250145 R24C/250145 NOSIG,1,0.0,0,9999,0,0,0,
2026-03-24 04:00:00,METAR UUEE 240400Z 24003MPS CAVOK M00/M05 Q1016 R24L/250145 R24C/250145 NOSIG,1,0.0,0,9999,0,0,0,
2026-03-24 03:30:00,METAR UUEE 240330Z 22003MPS CAVOK 00/M05 Q1016 R24L/250145 R24C/250145 NOSIG,1,0.0,0,9999,0,0,0,
2026-03-24 03:00:00,METAR UUEE 240300Z 21003MPS CAVOK 01/M05 Q1016 R24L/250145 R24C/250145 NOSIG,1,0.0,0,9999,0,0,0,
2026-03-24 02:30:00,METAR UUEE 240230Z 22003MPS CAVOK 01/M05 Q1016 R24L/250145 R24C/250145 NOSIG,1,0.0,0,9999,0,0,0,
2026-03-24 02:00:00,METAR UUEE 240200Z 21003MPS CAVOK 01/M05 Q1015 R24L/250145 R24C/250145 NOSIG,1,0.0,0,9999,0,0,0,
2026-03-24 01:30:00,METAR UUEE 240130Z 21003MPS CAVOK 02/M05 Q1016 R24L/250145 R24C/250145 NOSIG,1,0.0,0,9999,0,0,0,
2026-03-24 01:00:00,METAR UUEE 240100Z 22003MPS CAVOK 02/M05 Q1016 R24L/250145 R24C/250145 NOSIG,1,0.0,0,9999,0,0,0,
2026-03-24 00:30:00,METAR UUEE 240030Z 21004MPS CAVOK 02/M05 Q1016 R24L/250145 R24C/250145 NOSIG,1,0.0,0,9999,0,0,0,
2026-03-24 00:00:00,METAR UUEE 240000Z 22004MPS CAVOK 02/M05 Q1016 R24L/250145 R24C/250145 NOSIG,1,0.0,0,9999,0,0,0,
2026-03-23 23:30:00,METAR UUEE 232330Z 21004MPS CAVOK 03/M05 Q1016 R24L/250145 R24C/250145 NOSIG,1,0.0,0,9999,0,0,0,
2026-03-23 23:00:00,METAR UUEE 232300Z 20003MPS CAVOK 03/M05 Q1017 R24L/250145 R24C/250145 NOSIG,1,0.0,0,9999,0,0,0,
2026-03-23 22:30:00,METAR UUEE 232230Z 20003MPS CAVOK 04/M05 Q1017 R24L/250145 R24C/250145 NOSIG,1,0.0,0,9999,0,0,0,
2026-03-23 22:00:00,METAR UUEE 232200Z 24003MPS CAVOK 04/M04 Q1017 R24L/250145 R24C/250145 NOSIG,1,0.0,0,9999,0,0,0,
2026-03-23 21:30:00,METAR UUEE 232130Z 21004MPS CAVOK 05/M04 Q1017 R24L/250145 R24C/250145 NOSIG,1,0.0,0,9999,0,0,0,
2026-03-23 21:00:00,METAR UUEE 232100Z 21004MPS CAVOK 05/M05 Q1017 R24L/250145 R24C/250145 NOSIG,1,0.0,0,9999,0,0,0,
2026-03-23 20:30:00,METAR UUEE 232030Z 20004MPS CAVOK 06/M05 Q1017 R24L/250145 R24C/250145 NOSIG,1,0.0,0,9999,0,0,0,
2026-03-23 20:00:00,METAR UUEE 232000Z 21003MPS CAVOK 06/M05 Q1017 R24L/250145 R24C/250145 NOSIG,1,0.0,0,9999,0,0,0,
2026-03-23 19:30:00,METAR UUEE 231930Z 25003MPS CAVOK 06/M05 Q1017 R24L/250145 R24C/250145 NOSIG,1,0.0,0,9999,0,0,0,
2026-03-23 19:00:00,METAR UUEE 231900Z 25003MPS CAVOK 06/M04 Q1018 R24L/250145 R24C/250145 NOSIG,1,0.0,0,9999,0,0,0,
2026-03-23 18:30:00,METAR UUEE 231830Z 21005MPS CAVOK 07/M04 Q1018 R24L/250145 R24C/250145 NOSIG,1,0.0,0,9999,0,0,0,
2026-03-23 18:00:00,METAR UUEE 231800Z 20004MPS CAVOK 07/M04 Q1017 R24L/250145 R24C/250145 NOSIG,1,0.0,0,9999,0,0,0,
2026-03-23 17:30:00,METAR UUEE 231730Z 20004MPS 170V230 CAVOK 08/M03 Q1017 R24L/250145 R24C/250145 NOSIG,1,0.0,0,9999,0,0,0,
2026-03-23 17:00:00,METAR UUEE 231700Z 20003MPS CAVOK 09/M03 Q1017 R24L/250145 R24C/250145 NOSIG,1,0.0,0,9999,0,0,0,
2026-03-23 16:30:00,METAR UUEE 231630Z 22003MPS CAVOK 09/M03 Q1017 R24L/250145 R24C/250145 NOSIG,1,0.0,0,9999,0,0,0,
2026-03-23 16:00:00,METAR UUEE 231600Z 21003MPS CAVOK 09/M02 Q1017 R24L/250145 R24C/250145 NOSIG,1,0.0,0,9999,0,0,0,
2026-03-23 15:30:00,METAR UUEE 231530Z 23003MPS CAVOK 10/M02 Q1017 R24L/250145 R24C/250145 NOSIG,1,0.0,0,9999,0,0,0,
2026-03-23 15:00:00,METAR UUEE 231500Z 23004MPS CAVOK 10/M02 Q1017 R24L/250145 R24C/250145 NOSIG,1,0.0,0,9999,0,0,0,
2026-03-23 14:30:00,METAR UUEE 231430Z 24004MPS CAVOK 11/M02 Q1018 R24L/250145 R24C/250145 NOSIG,1,0.0,0,9999,0,0,0,
2026-03-23 14:00:00,METAR UUEE 231400Z 25004MPS CAVOK 11/M01 Q1018 R24L/250145 R24C/250145 NOSIG,1,0.0,0,9999,0,0,0,
2026-03-23 13:30:00,METAR UUEE 231330Z 22004MPS CAVOK 11/M02 Q1018 R24L/250145 R24C/250145 NOSIG,1,0.0,0,9999,0,0,0,
2026-03-23 13:00:00,METAR UUEE 231300Z 23004MPS CAVOK 11/M02 Q1019 R24L/250145 R24C/250145 NOSIG,1,0.0,0,9999,0,0,0,
2026-03-23 12:30:00,METAR UUEE 231230Z 23004MPS 200V260 CAVOK 11/M02 Q1019 R24L/250145 R24C/250145 NOSIG,1,0.0,0,9999,0,0,0,
2026-03-23 12:00:00,METAR UUEE 231200Z 22004MPS CAVOK 12/M00 Q1019 R24L/250145 R24C/250145 NOSIG,1,0.0,0,9999,0,0,0,
2026-03-23 11:30:00,METAR UUEE 231130Z 21004MPS 170V240 CAVOK 12/M02 Q1020 R24L/250145 R24C/250145 NOSIG,1,0.0,0,9999,0,0,0,
2026-03-23 11:00:00,METAR UUEE 231100Z 21003MPS 180V250 CAVOK 12/M01 Q1020 R24C/250145 NOSIG,1,0.0,0,9999,0,0,0,
2026-03-23 10:30:00,METAR UUEE 231030Z 19003MPS 160V220 CAVOK 12/M00 Q1020 R24C/250145 NOSIG,1,0.0,0,9999,0,0,0,
2026-03-23 10:00:00,METAR UUEE 231000Z 23003MPS 140V290 CAVOK 11/M01 Q1020 R24L/250145 R24C/250145 NOSIG,1,0.0,0,9999,0,0,0,
2026-03-23 09:30:00,METAR UUEE 230930Z 24003MPS 200V280 CAVOK 11/M01 Q1021 R24L/250145 R24C/250145 NOSIG,1,0.0,0,9999,0,0,0,
2026-03-23 09:00:00,METAR UUEE 230900Z 23002MPS 170V280 CAVOK 10/M00 Q1021 R24L/250145 R24C/250145 NOSIG,1,0.0,0,9999,0,0,0,
2026-03-23 08:30:00,METAR UUEE 230830Z 23002MPS 200V280 CAVOK 09/M00 Q1021 R24L/250145 R24C/250145 NOSIG,1,0.0,0,9999,0,0,0,
2026-03-23 08:00:00,METAR UUEE 230800Z 21002MPS 160V260 CAVOK 08/M00 Q1021 R24L/250145 R24C/250145 NOSIG,1,0.0,0,9999,0,0,0,
2026-03-23 07:49:00,SPECI UUEE 230749Z 21002MPS 170V240 CAVOK 09/M01 Q1021 R24L/250145 R24C/250145 NOSIG,1,0.0,0,9999,0,0,0,
2026-03-23 07:30:00,METAR UUEE 230730Z 22002MPS 180V250 CAVOK 07/M01 Q1021 R24L/250145 R24C/250145 NOSIG,1,0.0,0,9999,0,0,0,
2026-03-23 07:20:00,SPECI UUEE 230720Z 21002MPS 180V240 CAVOK 07/M01 Q1021 R24L/250145 R24C/250145 NOSIG,1,0.0,0,9999,0,0,0,
2026-03-23 07:00:00,METAR UUEE 230700Z 25002MPS CAVOK 05/M01 Q1021 R24L/250145 R24C/250145 NOSIG,1,0.0,0,9999,0,0,0,
2026-03-23 06:30:00,METAR UUEE 230630Z 25002MPS CAVOK 04/M02 Q1022 R24L/250145 R24C/250145 NOSIG,1,0.0,0,9999,0,0,0,
2026-03-23 06:00:00,METAR UUEE 230600Z 22002MPS CAVOK 03/M03 Q1022 R24L/250145 R24C/250145 NOSIG,1,0.0,0,9999,0,0,0,
2026-03-23 05:30:00,METAR UUEE 230530Z 23002MPS CAVOK 02/M03 Q1022 R24L/250145 R24C/250145 NOSIG,1,0.0,0,9999,0,0,0,
2026-03-23 05:00:00,METAR UUEE 230500Z 23002MPS CAVOK 01/M03 Q1022 R24L/250145 R24C/250145 NOSIG,1,0.0,0,9999,0,0,0,
2026-03-23 04:30:00,METAR UUEE 230430Z 22002MPS CAVOK M00/M03 Q1021 R24L/250145 R24C/250145 NOSIG,1,0.0,0,9999,0,0,0,
2026-03-23 04:00:00,METAR UUEE 230400Z 23002MPS CAVOK M00/M03 Q1021 R24L/250145 R24C/250145 NOSIG,1,0.0,0,9999,0,0,0,
2026-03-23 03:30:00,METAR UUEE 230330Z 22002MPS CAVOK M00/M04 Q1021 R24L/250145 R24C/250145 NOSIG,1,0.0,0,9999,0,0,0,
2026-03-23 03:00:00,METAR UUEE 230300Z 22001MPS CAVOK M01/M04 Q1021 R24L/250145 R24C/250145 NOSIG,1,0.0,0,9999,0,0,0,
2026-03-23 02:30:00,METAR UUEE 230230Z VRB01MPS CAVOK M01/M04 Q1021 R24L/250145 R24C/250145 NOSIG,1,0.0,0,9999,0,0,0,
2026-03-23 02:00:00,METAR UUEE 230200Z 32001MPS CAVOK M01/M04 Q1021 R24L/250145 R24C/250145 NOSIG,1,0.0,0,9999,0,0,0,
2026-03-23 01:30:00,METAR UUEE 230130Z VRB01MPS CAVOK M00/M04 Q1021 R24L/250145 R24C/250145 NOSIG,1,0.0,0,9999,0,0,0,
2026-03-23 01:00:00,METAR UUEE 230100Z 22001MPS CAVOK M01/M04 Q1021 R24L/250145 R24C/250145 NOSIG,1,0.0,0,9999,0,0,0,
2026-03-23 00:30:00,METAR UUEE 230030Z 24002MPS CAVOK M01/M05 Q1022 R24L/250145 R24C/250145 NOSIG,1,0.0,0,9999,0,0,0,
2026-03-23 00:00:00,METAR UUEE 230000Z 23001MPS CAVOK M00/M05 Q1022 R24L/250145 R24C/250145 NOSIG,1,0.0,0,9999,0,0,0,
2026-03-22 23:30:00,METAR UUEE 222330Z 23002MPS CAVOK M01/M05 Q1022 R24L/250145 R24C/250145 NOSIG,1,0.0,0,9999,0,0,0,
2026-03-22 23:00:00,METAR UUEE 222300Z 23002MPS CAVOK M00/M04 Q1022 R24L/250145 R24C/250145 NOSIG,1,0.0,0,9999,0,0,0,
2026-03-22 22:30:00,METAR UUEE 222230Z 31001MPS CAVOK M00/M05 Q1022 R24L/250145 R24C/250145 NOSIG,1,0.0,0,9999,0,0,0,
2026-03-22 22:00:00,METAR UUEE 222200Z 26002MPS CAVOK 02/M05 Q1022 R24L/250145 R24C/250145 NOSIG,1,0.0,0,9999,0,0,0,
2026-03-22 21:30:00,METAR UUEE 222130Z VRB01MPS CAVOK 02/M05 Q1022 R24L/250145 R24C/250145 NOSIG,1,0.0,0,9999,0,0,0,
2026-03-22 21:00:00,METAR UUEE 222100Z 24002MPS CAVOK 01/M04 Q1022 R24L/250145 R24C/250145 NOSIG,1,0.0,0,9999,0,0,0,
2026-03-22 20:30:00,METAR UUEE 222030Z 32001MPS CAVOK 03/M05 Q1022 R24L/250145 R24C/250145 NOSIG,1,0.0,0,9999,0,0,0,
2026-03-22 20:00:00,METAR UUEE 222000Z 25002MPS 220V290 CAVOK 03/M05 Q1022 R24L/250145 R24C/250145 NOSIG,1,0.0,0,9999,0,0,0,
2026-03-22 19:30:00,METAR UUEE 221930Z 33001MPS CAVOK 04/M05 Q1022 R24L/250145 R24C/250145 NOSIG,1,0.0,0,9999,0,0,0,
2026-03-22 19:00:00,METAR UUEE 221900Z 23002MPS 200V260 CAVOK 05/M05 Q1022 R24L/250145 R24C/250145 NOSIG,1,0.0,0,9999,0,0,0,
2026-03-22 18:30:00,METAR UUEE 221830Z 32002MPS CAVOK 04/M06 Q1022 R24L/250145 R24C/250145 NOSIG,1,0.0,0,9999,0,0,0,
2026-03-22 18:00:00,METAR UUEE 221800Z 28002MPS 220V340 CAVOK 06/M06 Q1022 R24L/250145 R24C/250145 NOSIG,1,0.0,0,9999,0,0,0,
2026-03-22 17:30:00,METAR UUEE 221730Z 30003MPS 250V340 CAVOK 08/M07 Q1022 R24L/250145 R24C/250145 NOSIG,1,0.0,0,9999,0,0,0,
2026-03-22 17:00:00,METAR UUEE 221700Z 29002G07MPS CAVOK 08/M08 Q1022 R24L/250145 R24C/250145 NOSIG,1,0.0,0,9999,0,0,0,
2026-03-22 16:30:00,METAR UUEE 221630Z 29003G08MPS 170V330 CAVOK 09/M08 Q1022 R24L/250145 R24C/250145 NOSIG,1,0.0,0,9999,0,0,0,
2026-03-22 16:00:00,METAR UUEE 221600Z 29003MPS CAVOK 09/M08 Q1022 R24L/250145 R24C/250145 NOSIG,1,0.0,0,9999,0,0,0,
2026-03-22 15:47:00,SPECI UUEE 221547Z 28004MPS 240V310 CAVOK 10/M09 Q1022 R24L/250145 R24C/250145 NOSIG,1,0.0,0,9999,0,0,0,
2026-03-22 15:30:00,METAR UUEE 221530Z 25004MPS CAVOK 08/M04 Q1022 R24L/250145 R24C/250145 NOSIG,1,0.0,0,9999,0,0,0,
2026-03-22 15:00:00,METAR UUEE 221500Z 28004MPS CAVOK 10/M07 Q1022 R24L/250145 R24C/250145 NOSIG,1,0.0,0,9999,0,0,0,
2026-03-22 14:30:00,METAR UUEE 221430Z 29005MPS 260V320 CAVOK 11/M09 Q1022 R24L/250145 R24C/250145 NOSIG,1,0.0,0,9999,0,0,0,
2026-03-22 14:00:00,METAR UUEE 221400Z 30005MPS CAVOK 11/M08 Q1022 R24L/250145 R24C/250145 NOSIG,1,0.0,0,9999,0,0,0,
2026-03-22 13:30:00,METAR UUEE 221330Z 26004MPS CAVOK 10/M03 Q1022 R24L/250145 R24C/250145 NOSIG,1,0.0,0,9999,0,0,0,
2026-03-22 12:30:00,METAR UUEE 221230Z 24004MPS CAVOK 11/M04 Q1023 R24L/250145 R24C/250145 NOSIG,1,0.0,0,9999,0,0,0,
2026-03-22 12:00:00,METAR UUEE 221200Z 25003MPS CAVOK 10/M04 Q1023 R24L/250145 R24C/250145 NOSIG,1,0.0,0,9999,0,0,0,
2026-03-22 11:30:00,METAR UUEE 221130Z 24004MPS CAVOK 10/M03 Q1023 R24L/250145 R24C/250145 NOSIG,1,0.0,0,9999,0,0,0,
2026-03-22 10:30:00,METAR UUEE 221030Z 26004MPS CAVOK 10/M04 Q1024 R24L/250145 R24C/250145 NOSIG,1,0.0,0,9999,0,0,0,
2026-03-22 10:00:00,METAR UUEE 221000Z 25005MPS CAVOK 09/M03 Q1024 R24L/250145 R24C/250145 NOSIG,1,0.0,0,9999,0,0,0,
2026-03-22 09:30:00,METAR UUEE 220930Z 25004MPS 230V290 CAVOK 09/M02 Q1024 R24L/250145 R24C/250145 NOSIG,1,0.0,0,9999,0,0,0,
2026-03-22 09:00:00,METAR UUEE 220900Z 25003MPS 220V300 CAVOK 09/M03 Q1025 R24L/250145 R24C/250145 NOSIG,1,0.0,0,9999,0,0,0,
2026-03-22 08:30:00,METAR UUEE 220830Z 23003MPS CAVOK 08/M03 Q1025 R24L/250145 R24C/250145 NOSIG,1,0.0,0,9999,0,0,0,
2026-03-22 08:00:00,METAR UUEE 220800Z 23002MPS CAVOK 07/M02 Q1025 R24L/250145 R24C/250145 NOSIG,1,0.0,0,9999,0,0,0,
2026-03-22 07:30:00,METAR UUEE 220730Z 22002MPS CAVOK 07/M03 Q1025 R24L/250145 R24C/250145 NOSIG,1,0.0,0,9999,0,0,0,
2026-03-22 07:00:00,METAR UUEE 220700Z 22002MPS CAVOK 05/M02 Q1025 R24L/250145 R24C/250145 NOSIG,1,0.0,0,9999,0,0,0,
2026-03-22 06:30:00,METAR UUEE 220630Z 22002MPS CAVOK 04/M03 Q1025 R24L/250145 R24C/250145 NOSIG,1,0.0,0,9999,0,0,0,
2026-03-22 06:25:00,SPECI UUEE 220625Z 22002MPS CAVOK 04/M03 Q1025 R24L/250145 R24C/250145 NOSIG,1,0.0,0,9999,0,0,0,
2026-03-22 06:00:00,METAR UUEE 220600Z 23002MPS CAVOK 02/M03 Q1025 R24L/250145 R24C/250145 NOSIG,1,0.0,0,9999,0,0,0,
2026-03-22 05:30:00,METAR UUEE 220530Z 25003MPS CAVOK 01/M03 Q1025 R24L/250145 R24C/250145 NOSIG,1,0.0,0,9999,0,0,0,
2026-03-22 05:00:00,METAR UUEE 220500Z 20001MPS CAVOK 01/M04 Q1025 R24L/250145 R24C/250145 NOSIG,1,0.0,0,9999,0,0,0,
2026-03-22 04:30:00,METAR UUEE 220430Z 27002MPS 210V340 CAVOK 00/M04 Q1025 R24L/250145 R24C/250145 NOSIG,1,0.0,0,9999,0,0,0,
2026-03-22 04:00:00,METAR UUEE 220400Z 22001MPS CAVOK M01/M04 Q1024 R24L/250145 R24C/250145 NOSIG,1,0.0,0,9999,0,0,0,
2026-03-22 03:30:00,METAR UUEE 220330Z 25002MPS CAVOK M01/M04 Q1024 R24L/250145 R24C/250145 NOSIG,1,0.0,0,9999,0,0,0,
2026-03-22 03:00:00,METAR UUEE 220300Z 24003MPS CAVOK M01/M04 Q1024 R24L/250145 R24C/250145 NOSIG,1,0.0,0,9999,0,0,0,
2026-03-22 02:30:00,METAR UUEE 220230Z 25002MPS CAVOK M01/M04 Q1024 R24L/250145 R24C/250145 NOSIG,1,0.0,0,9999,0,0,0,
2026-03-22 02:00:00,METAR UUEE 220200Z 25002MPS CAVOK M00/M04 Q1024 R24L/250145 NOSIG,1,0.0,0,9999,0,0,0,
2026-03-22 01:30:00,METAR UUEE 220130Z 25002MPS CAVOK M00/M04 Q1024 R24C/250145 NOSIG,1,0.0,0,9999,0,0,0,
2026-03-22 01:00:00,METAR UUEE 220100Z 23002MPS CAVOK M01/M04 Q1024 R24L/250145 R24C/250145 NOSIG,1,0.0,0,9999,0,0,0,
2026-03-22 00:30:00,METAR UUEE 220030Z 25002MPS CAVOK M00/M04 Q1024 R24L/250145 R24C/250145 NOSIG,1,0.0,0,9999,0,0,0,
2026-03-22 00:00:00,METAR UUEE 220000Z 26002MPS CAVOK M00/M04 Q1024 R24L/250145 R24C/250145 NOSIG,1,0.0,0,9999,0,0,0,
2026-03-21 23:30:00,METAR UUEE 212330Z 29002MPS 250V340 CAVOK 00/M03 Q1024 R24L/250145 R24C/250145 NOSIG,1,0.0,0,9999,0,0,0,
2026-03-21 23:00:00,METAR UUEE 212300Z 26003MPS CAVOK 01/M03 Q1024 R24L/250145 R24C/250145 NOSIG,1,0.0,0,9999,0,0,0,
2026-03-21 22:30:00,METAR UUEE 212230Z 25001MPS CAVOK 01/M04 Q1024 R24L/250145 R24C/250145 NOSIG,1,0.0,0,9999,0,0,0,
2026-03-21 22:00:00,METAR UUEE 212200Z 24002MPS CAVOK 01/M03 Q1024 R24L/250145 R24C/250145 NOSIG,1,0.0,0,9999,0,0,0,
2026-03-21 21:30:00,METAR UUEE 212130Z 25003MPS CAVOK 02/M03 Q1024 R24L/250145 R24C/250145 NOSIG,1,0.0,0,9999,0,0,0,
2026-03-21 21:00:00,METAR UUEE 212100Z 23002MPS CAVOK 02/M04 Q1024 R24L/250145 R24C/250145 NOSIG,1,0.0,0,9999,0,0,0,
2026-03-21 20:30:00,METAR UUEE 212030Z 24002MPS CAVOK 02/M04 Q1024 R24L/250145 R24C/250145 NOSIG,1,0.0,0,9999,0,0,0,
2026-03-21 20:00:00,METAR UUEE 212000Z 26002MPS 230V290 CAVOK 02/M04 Q1024 R24L/250145 R24C/250145 NOSIG,1,0.0,0,9999,0,0,0,
2026-03-21 19:30:00,METAR UUEE 211930Z 28002MPS 180V330 CAVOK 03/M04 Q1024 R24L/250145 R24C/250145 NOSIG,1,0.0,0,9999,0,0,0,
2026-03-21 19:00:00,METAR UUEE 211900Z 30003MPS 260V320 CAVOK 04/M04 Q1024 R24L/250145 R24C/250145 NOSIG,1,0.0,0,9999,0,0,0,
2026-03-21 18:30:00,METAR UUEE 211830Z 31003MPS 260V340 CAVOK 06/M04 Q1024 R24L/250145 R24C/250145 NOSIG,1,0.0,0,9999,0,0,0,
2026-03-21 18:00:00,METAR UUEE 211800Z 32003MPS 270V340 CAVOK 05/M04 Q1024 R24L/250145 R24C/250145 NOSIG,1,0.0,0,9999,0,0,0,
2026-03-21 17:30:00,METAR UUEE 211730Z 32003MPS 260V350 CAVOK 06/M04 Q1023 R24L/250145 R24C/250145 NOSIG,1,0.0,0,9999,0,0,0,
2026-03-21 17:00:00,METAR UUEE 211700Z 31003MPS CAVOK 06/M04 Q1023 R24L/250145 R24C/250145 NOSIG,1,0.0,0,9999,0,0,0,
2026-03-21 16:30:00,METAR UUEE 211630Z 30003MPS 260V320 CAVOK 07/M04 Q1023 R24L/250145 R24C/250145 NOSIG,1,0.0,0,9999,0,0,0,
2026-03-21 16:00:00,METAR UUEE 211600Z 31003MPS CAVOK 07/M03 Q1023 R24L/250145 R24C/250145 NOSIG,1,0.0,0,9999,0,0,0,
2026-03-21 15:30:00,METAR UUEE 211530Z 33003MPS 260V350 CAVOK 08/M04 Q1023 R24L/250145 R24C/250145 NOSIG,1,0.0,0,9999,0,0,0,
2026-03-21 15:00:00,METAR UUEE 211500Z 34003MPS 320V020 CAVOK 08/M04 Q1022 R24L/250145 R24C/250145 NOSIG,1,0.0,0,9999,0,0,0,
2026-03-21 14:30:00,METAR UUEE 211430Z 33004MPS 300V360 CAVOK 08/M03 Q1022 R24L/250145 R24C/250145 NOSIG,1,0.0,0,9999,0,0,0,
2026-03-21 14:00:00,METAR UUEE 211400Z 01004MPS 330V040 CAVOK 09/M03 Q1022 R24L/250145 R24C/250145 NOSIG,1,0.0,0,9999,0,0,0,
2026-03-21 13:30:00,METAR UUEE 211330Z 34004MPS CAVOK 09/M04 Q1022 R24L/250145 R24C/250145 NOSIG,1,0.0,0,9999,0,0,0,
2026-03-21 13:00:00,METAR UUEE 211300Z 34005MPS CAVOK 09/M05 Q1022 R24L/250145 R24C/250145 NOSIG,1,0.0,0,9999,0,0,0,
2026-03-21 12:30:00,METAR UUEE 211230Z 29003MPS 260V350 CAVOK 09/M05 Q1022 R24L/250145 R24C/250145 NOSIG,1,0.0,0,9999,0,0,0,
2026-03-21 12:00:00,METAR UUEE 211200Z 35003MPS 320V050 CAVOK 08/M03 Q1022 R24L/250145 R24C/250145 NOSIG,1,0.0,0,9999,0,0,0,
2026-03-21 11:30:00,METAR UUEE 211130Z 26002MPS CAVOK 08/M03 Q1022 R24L/250145 R24C/250145 NOSIG,1,0.0,0,9999,0,0,0,
2026-03-21 11:00:00,METAR UUEE 211100Z 34004MPS 310V020 CAVOK 08/M04 Q1022 R06R/250145 R06C/250145 NOSIG,1,0.0,0,9999,0,0,0,
2026-03-21 10:30:00,METAR UUEE 211030Z 35002G08MPS CAVOK 08/M02 Q1023 R06R/250145 R06C/250145 NOSIG,1,0.0,0,9999,0,0,0,
2026-03-21 10:00:00,METAR UUEE 211000Z 02003MPS 310V060 CAVOK 08/M01 Q1023 R06R/250145 R06C/250145 NOSIG,1,0.0,0,9999,0,0,0,
2026-03-21 09:58:00,SPECI UUEE 210958Z 28002G07MPS 180V340 CAVOK 08/M01 Q1023 R06R/250145 R06C/250145 NOSIG,1,0.0,0,9999,0,0,0,
2026-03-21 09:30:00,METAR UUEE 210930Z 01003MPS 320V080 CAVOK 06/M01 Q1023 R06R/250145 R06C/250145 NOSIG,1,0.0,0,9999,0,0,0,
2026-03-21 09:00:00,METAR UUEE 210900Z 10002MPS CAVOK 06/M01 Q1023 R06R/250145 R06C/250145 NOSIG,1,0.0,0,9999,0,0,0,
2026-03-21 08:30:00,METAR UUEE 210830Z 32002MPS CAVOK 05/M00 Q1023 R06R/250145 R06C/250145 NOSIG,1,0.0,0,9999,0,0,0,
2026-03-21 08:00:00,METAR UUEE 210800Z 23002MPS CAVOK 04/M01 Q1023 R06R/250145 R06C/250145 NOSIG,1,0.0,0,9999,0,0,0,
2026-03-21 07:30:00,METAR UUEE 210730Z 21002MPS CAVOK 03/M01 Q1023 R06R/250145 R06C/250145 NOSIG,1,0.0,0,9999,0,0,0,
2026-03-21 07:00:00,METAR UUEE 210700Z 34002MPS 300V020 CAVOK 02/M02 Q1022 R06R/250145 R06C/250145 NOSIG,1,0.0,0,9999,0,0,0,
2026-03-21 06:30:00,METAR UUEE 210630Z 33003MPS 9999 FEW014 02/M02 Q1022 R06R/250145 R06C/250145 NOSIG,0,3.0,0,10000,0,0,0,
2026-03-21 06:00:00,METAR UUEE 210600Z 34003MPS 290V040 9999 SCT013 02/M02 Q1022 R06R/250145 R06C/250145 NOSIG,0,3.0,0,10000,0,0,0,
2026-03-21 05:30:00,METAR UUEE 210530Z 01004MPS 320V120 9999 BKN012 01/M02 Q1022 R06R/250145 R06C/250145 NOSIG,0,4.0,0,10000,0,0,0,
2026-03-21 05:00:00,METAR UUEE 210500Z 03003MPS 350V070 9999 BKN012 01/M02 Q1022 R06R/250145 R06C/250145 NOSIG,0,3.0,0,10000,0,0,0,
2026-03-21 04:30:00,METAR UUEE 210430Z 01003MPS 340V060 9999 BKN012 01/M02 Q1021 R06R/250145 R06C/250145 NOSIG,0,3.0,0,10000,0,0,0,
2026-03-21 04:00:00,METAR UUEE 210400Z 35004MPS 320V050 9999 BKN012 01/M02 Q1021 R06R/250145 R06C/250145 NOSIG,0,4.0,0,10000,0,0,0,
2026-03-21 03:30:00,METAR UUEE 210330Z 36003MPS 320V040 9999 BKN013 02/M02 Q1021 R24L/250145 R24C/250145 NOSIG,0,3.0,0,10000,0,0,0,
2026-03-21 03:00:00,METAR UUEE 210300Z 36004MPS 330V030 9999 BKN014 02/M02 Q1021 R24C/250145 NOSIG,0,4.0,0,10000,0,0,0,
2026-03-21 02:30:00,METAR UUEE 210230Z 36005MPS 330V040 9999 BKN015 02/M02 Q1020 R24C/250145 NOSIG,0,5.0,0,10000,0,0,0,
2026-03-21 02:00:00,METAR UUEE 210200Z 36004MPS 320V040 9999 BKN016 02/M01 Q1020 R24C/250145 NOSIG,0,4.0,0,10000,0,0,0,
2026-03-21 01:30:00,METAR UUEE 210130Z 36003G08MPS 320V030 9999 BKN016 02/M02 Q1020 R24C/250145 NOSIG,0,3.0,1,10000,0,0,0,
2026-03-21 01:10:00,SPECI UUEE 210110Z 35004MPS 9999 BKN013 01/M01 Q1020 R24C/250145 NOSIG,0,4.0,0,10000,0,0,0,
2026-03-21 01:00:00,METAR UUEE 210100Z 35003MPS 320V020 9999 SCT013 01/M01 Q1019 R24C/250145 NOSIG,0,3.0,0,10000,0,0,0,
2026-03-21 00:30:00,METAR UUEE 210030Z 34003MPS 9999 SCT013 01/M01 Q1019 R24C/250145 NOSIG,0,3.0,0,10000,0,0,0,
2026-03-21 00:00:00,METAR UUEE 210000Z 32002MPS CAVOK 01/M01 Q1019 R24C/250145 NOSIG,1,0.0,0,9999,0,0,0,
2026-03-20 23:30:00,METAR UUEE 202330Z 35003MPS 320V020 CAVOK 02/M01 Q1019 R24C/250145 NOSIG,1,0.0,0,9999,0,0,0,
2026-03-20 23:00:00,METAR UUEE 202300Z 35003MPS CAVOK 02/M01 Q1018 R24C/250145 NOSIG,1,0.0,0,9999,0,0,0,
2026-03-20 22:30:00,METAR UUEE 202230Z 36003MPS 320V030 CAVOK 02/M01 Q1018 R24C/250145 NOSIG,1,0.0,0,9999,0,0,0,
2026-03-20 21:30:00,METAR UUEE 202130Z 33003MPS 290V360 CAVOK 03/M01 Q1018 R24L/250145 R24C/250145 NOSIG,1,0.0,0,9999,0,0,0,
2026-03-20 21:00:00,METAR UUEE 202100Z 02003G08MPS 340V110 CAVOK 04/M01 Q1017 R24L/250145 R24C/250145 NOSIG,1,0.0,0,9999,0,0,0,
2026-03-20 20:30:00,METAR UUEE 202030Z 33003MPS 220V020 CAVOK 04/M02 Q1017 R24L/250145 R24C/250145 NOSIG,1,0.0,0,9999,0,0,0,
2026-03-20 20:00:00,METAR UUEE 202000Z 35003MPS 290V010 CAVOK 05/M02 Q1017 R24L/250145 R24C/250145 NOSIG,1,0.0,0,9999,0,0,0,
2026-03-20 19:30:00,METAR UUEE 201930Z 35003G10MPS 300V110 CAVOK 05/M02 Q1017 R24L/250145 R24C/250145 NOSIG,1,0.0,0,9999,0,0,0,
2026-03-20 18:30:00,METAR UUEE 201830Z 35004MPS 290V010 CAVOK 06/M02 Q1016 R24L/250145 R24C/250145 NOSIG,1,0.0,0,9999,0,0,0,
2026-03-20 18:00:00,METAR UUEE 201800Z 35004G10MPS CAVOK 07/M03 Q1016 R24L/250145 R24C/250145 NOSIG,1,0.0,0,9999,0,0,0,
2026-03-20 17:30:00,METAR UUEE 201730Z 33005MPS 270V010 CAVOK 07/M03 Q1015 R24L/250145 R24C/250145 NOSIG,1,0.0,0,9999,0,0,0,
2026-03-20 17:00:00,METAR UUEE 201700Z 33003MPS 260V350 CAVOK 08/M03 Q1015 R24L/250145 R24C/250145 NOSIG,1,0.0,0,9999,0,0,0,
2026-03-20 16:30:00,METAR UUEE 201630Z 31002G08MPS CAVOK 08/M04 Q1015 R24L/250145 R24C/250145 NOSIG,1,0.0,0,9999,0,0,0,
2026-03-20 16:00:00,METAR UUEE 201600Z 34002MPS CAVOK 09/M04 Q1014 R24L/250145 R24C/250145 NOSIG,1,0.0,0,9999,0,0,0,
2026-03-20 15:30:00,METAR UUEE 201530Z 01003MPS CAVOK 09/M04 Q1014 R24L/250145 R24C/250145 NOSIG,1,0.0,0,9999,0,0,0,
2026-03-20 15:00:00,METAR UUEE 201500Z 01003MPS 320V030 CAVOK 09/M04 Q1013 R24L/250145 R24C/250145 NOSIG,1,0.0,0,9999,0,0,0,
2026-03-20 14:30:00,METAR UUEE 201430Z 27003G09MPS CAVOK 10/M04 Q1013 R24L/250145 R24C/250145 NOSIG,1,0.0,0,9999,0,0,0,
2026-03-20 14:00:00,METAR UUEE 201400Z 25003MPS CAVOK 10/M04 Q1013 R24L/250145 R24C/250145 NOSIG,1,0.0,0,9999,0,0,0,
2026-03-20 13:30:00,METAR UUEE 201330Z 24003MPS 200V290 CAVOK 10/M04 Q1013 R24L/250145 R24C/250145 NOSIG,1,0.0,0,9999,0,0,0,
2026-03-20 12:30:00,METAR UUEE 201230Z 22003MPS CAVOK 09/M03 Q1013 R24L/250145 R24C/250145 NOSIG,1,0.0,0,9999,0,0,0,
2026-03-20 11:30:00,METAR UUEE 201130Z 02002MPS 320V100 CAVOK 10/M04 Q1013 R24L/250145 R24C/250145 NOSIG,1,0.0,0,9999,0,0,0,
2026-03-20 10:30:00,METAR UUEE 201030Z 24002MPS CAVOK 09/M03 Q1013 R24L/250145 R24C/250145 NOSIG,1,0.0,0,9999,0,0,0,
2026-03-20 10:00:00,METAR UUEE 201000Z 24002MPS CAVOK 08/M02 Q1013 R24L/250145 R24C/250145 NOSIG,1,0.0,0,9999,0,0,0,
2026-03-20 09:30:00,METAR UUEE 200930Z 25003MPS CAVOK 07/M02 Q1013 R24C/250145 NOSIG,1,0.0,0,9999,0,0,0,
2026-03-20 09:00:00,METAR UUEE 200900Z 25003MPS 230V290 9000 NSC 07/M02 Q1013 R24C/250145 NOSIG,0,3.0,0,9000,0,0,0,
2026-03-20 08:30:00,METAR UUEE 200830Z VRB01MPS 9000 NSC 07/M02 Q1013 R24L/250145 R24C/250145 NOSIG,0,1.0,0,9000,0,0,0,
2026-03-20 08:00:00,METAR UUEE 200800Z 19002MPS 150V220 9000 NSC 06/M00 Q1013 R24L/250145 R24C/250145 NOSIG,0,2.0,0,9000,0,0,0,
2026-03-20 07:50:00,SPECI UUEE 200750Z 20002MPS 170V260 9000 NSC 06/M01 Q1013 R24L/250145 R24C/250145 NOSIG,0,2.0,0,9000,0,0,0,
2026-03-20 07:30:00,METAR UUEE 200730Z 24002MPS 200V260 9000 NSC 04/M01 Q1013 R24L/250145 R24C/250145 NOSIG,0,2.0,0,9000,0,0,0,
2026-03-20 07:00:00,METAR UUEE 200700Z 22002MPS 180V240 9000 NSC 03/M02 Q1013 R24L/250145 R24C/250145 NOSIG,0,2.0,0,9000,0,0,0,
2026-03-20 06:30:00,METAR UUEE 200630Z 25002MPS 220V280 8000 NSC 02/M02 Q1013 R24L/250145 R24C/250145 NOSIG,0,2.0,0,8000,0,0,0,
2026-03-20 06:00:00,METAR UUEE 200600Z 22002MPS 9000 NSC 02/M02 Q1013 R24L/250145 R24C/250145 NOSIG,0,2.0,0,9000,0,0,0,
2026-03-20 05:30:00,METAR UUEE 200530Z 21003MPS 9000 NSC 02/M02 Q1013 R24L/250145 R24C/250145 NOSIG,0,3.0,0,9000,0,0,0,
2026-03-20 05:00:00,METAR UUEE 200500Z 20003MPS 160V240 8000 NSC 01/M02 Q1013 R24L/250145 R24C/250145 NOSIG,0,3.0,0,8000,0,0,0,
2026-03-20 04:30:00,METAR UUEE 200430Z 20003MPS 9000 NSC 01/M02 Q1013 R24L/250145 R24C/250145 NOSIG,0,3.0,0,9000,0,0,0,
2026-03-20 04:00:00,METAR UUEE 200400Z 22002MPS 8000 NSC 01/M02 Q1013 R24L/250145 R24C/250145 NOSIG,0,2.0,0,8000,0,0,0,
2026-03-20 03:30:00,METAR UUEE 200330Z 20003MPS 9000 NSC 01/M03 Q1013 R24L/250145 R24C/250145 NOSIG,0,3.0,0,9000,0,0,0,
2026-03-20 03:00:00,METAR UUEE 200300Z 22002MPS 9000 NSC 00/M03 Q1013 R24L/250145 R24C/250145 NOSIG,0,2.0,0,9000,0,0,0,
2026-03-20 02:30:00,METAR UUEE 200230Z 18002MPS 140V210 9000 NSC M00/M03 Q1013 R24L/250145 R24C/250145 NOSIG,0,2.0,0,9000,0,0,0,
2026-03-20 02:00:00,METAR UUEE 200200Z 20001MPS CAVOK 01/M03 Q1013 R24C/250145 NOSIG,1,0.0,0,9999,0,0,0,
2026-03-20 01:30:00,METAR UUEE 200130Z 20002MPS CAVOK 01/M03 Q1013 R24L/250145 R24C/250145 NOSIG,1,0.0,0,9999,0,0,0,
2026-03-20 01:00:00,METAR UUEE 200100Z 18002MPS CAVOK 02/M03 Q1013 R24L/250145 R24C/250145 NOSIG,1,0.0,0,9999,0,0,0,
2026-03-20 00:30:00,METAR UUEE 200030Z 17002MPS CAVOK 02/M03 Q1014 R24L/250145 R24C/250145 NOSIG,1,0.0,0,9999,0,0,0,
2026-03-20 00:00:00,METAR UUEE 200000Z 22002MPS 200V260 CAVOK 02/M02 Q1014 R24L/250145 R24C/250145 NOSIG,1,0.0,0,9999,0,0,0,
2026-03-19 23:30:00,METAR UUEE 192330Z 22002MPS CAVOK 03/M03 Q1014 R24L/250145 R24C/250145 NOSIG,1,0.0,0,9999,0,0,0,
2026-03-19 23:00:00,METAR UUEE 192300Z 20002MPS CAVOK 03/M02 Q1015 R24L/250145 R24C/250145 NOSIG,1,0.0,0,9999,0,0,0,
2026-03-19 22:30:00,METAR UUEE 192230Z 19002MPS CAVOK 03/M03 Q1015 R24L/250145 R24C/250145 NOSIG,1,0.0,0,9999,0,0,0,
2026-03-19 22:00:00,METAR UUEE 192200Z 20003MPS CAVOK 03/M02 Q1015 R24L/250145 R24C/250145 NOSIG,1,0.0,0,9999,0,0,0,
2026-03-19 21:30:00,METAR UUEE 192130Z 24003MPS CAVOK 03/M03 Q1016 R24L/250145 R24C/250145 NOSIG,1,0.0,0,9999,0,0,0,
2026-03-19 21:00:00,METAR UUEE 192100Z 20004MPS CAVOK 04/M02 Q1016 R24L/250145 R24C/250145 NOSIG,1,0.0,0,9999,0,0,0,
2026-03-19 20:30:00,METAR UUEE 192030Z 20003MPS CAVOK 04/M03 Q1016 R24L/250145 R24C/250145 NOSIG,1,0.0,0,9999,0,0,0,
2026-03-19 20:00:00,METAR UUEE 192000Z 19003MPS 170V230 CAVOK 05/M03 Q1016 R24L/250145 R24C/250145 NOSIG,1,0.0,0,9999,0,0,0,
2026-03-19 19:30:00,METAR UUEE 191930Z 21002MPS CAVOK 05/M03 Q1017 R24L/250145 R24C/250145 NOSIG,1,0.0,0,9999,0,0,0,
2026-03-19 19:00:00,METAR UUEE 191900Z 19003MPS CAVOK 06/M04 Q1017 R24L/250145 R24C/250145 NOSIG,1,0.0,0,9999,0,0,0,
2026-03-19 18:30:00,METAR UUEE 191830Z 21002MPS CAVOK 05/M04 Q1017 R24L/250145 R24C/250145 NOSIG,1,0.0,0,9999,0,0,0,
2026-03-19 18:00:00,METAR UUEE 191800Z 22003MPS 180V250 CAVOK 06/M04 Q1017 R06R/250145 R06C/250145 NOSIG,1,0.0,0,9999,0,0,0,
2026-03-19 17:30:00,METAR UUEE 191730Z 24003MPS CAVOK 06/M04 Q1017 R06R/250145 R06C/250145 NOSIG,1,0.0,0,9999,0,0,0,
2026-03-19 17:00:00,METAR UUEE 191700Z 20003MPS 180V250 CAVOK 06/M04 Q1017 R06R/250145 R06C/250145 NOSIG,1,0.0,0,9999,0,0,0,
2026-03-19 16:30:00,METAR UUEE 191630Z 22002MPS CAVOK 08/M04 Q1018 R06R/250145 R06C/250145 NOSIG,1,0.0,0,9999,0,0,0,
2026-03-19 16:29:00,SPECI UUEE 191629Z 22002MPS 190V250 CAVOK 08/M05 Q1018 R06R/250145 R06C/250145 NOSIG,1,0.0,0,9999,0,0,0,
2026-03-19 16:24:00,SPECI UUEE 191624Z 23002MPS 190V260 CAVOK 06/M05 Q1018 R06R/250145 R06C/250145 NOSIG,1,0.0,0,9999,0,0,0,
2026-03-19 16:00:00,METAR UUEE 191600Z 24002MPS 210V290 CAVOK 04/M03 Q1018 R06R/250145 R06C/250145 NOSIG,1,0.0,0,9999,0,0,0,
2026-03-19 15:30:00,METAR UUEE 191530Z 05003MPS CAVOK 08/M04 Q1018 R06R/250145 R06C/250145 NOSIG,1,0.0,0,9999,0,0,0,
2026-03-19 15:00:00,METAR UUEE 191500Z 07004MPS CAVOK 09/M05 Q1018 R06R/250145 R06C/250145 NOSIG,1,0.0,0,9999,0,0,0,
2026-03-19 14:30:00,METAR UUEE 191430Z 07004MPS CAVOK 10/M06 Q1019 R06R/250145 R06C/250145 NOSIG,1,0.0,0,9999,0,0,0,
2026-03-19 14:00:00,METAR UUEE 191400Z 09004MPS CAVOK 09/M03 Q1019 R06R/250145 R06C/250145 NOSIG,1,0.0,0,9999,0,0,0,
2026-03-19 13:30:00,METAR UUEE 191330Z 08003MPS CAVOK 10/M05 Q1020 R06R/250145 R06C/250145 NOSIG,1,0.0,0,9999,0,0,0,
2026-03-19 13:00:00,METAR UUEE 191300Z 11003MPS 070V140 CAVOK 11/M05 Q1020 R06R/250145 R06C/250145 NOSIG,1,0.0,0,9999,0,0,0,
2026-03-19 12:30:00,METAR UUEE 191230Z 13002MPS 110V170 CAVOK 11/M04 Q1021 R06R/250145 R06C/250145 NOSIG,1,0.0,0,9999,0,0,0,
2026-03-19 12:00:00,METAR UUEE 191200Z 08003MPS 050V140 CAVOK 11/M05 Q1021 R06R/250145 R06C/250145 NOSIG,1,0.0,0,9999,0,0,0,
2026-03-19 11:30:00,METAR UUEE 191130Z 08003MPS 050V130 CAVOK 10/M04 Q1022 R06R/250145 R06C/250145 NOSIG,1,0.0,0,9999,0,0,0,
2026-03-19 11:00:00,METAR UUEE 191100Z 08003MPS CAVOK 10/M04 Q1022 R06R/250145 R06C/250145 NOSIG,1,0.0,0,9999,0,0,0,
2026-03-19 10:30:00,METAR UUEE 191030Z 07003MPS CAVOK 10/M06 Q1023 R06R/250145 R06C/250145 NOSIG,1,0.0,0,9999,0,0,0,
2026-03-19 10:00:00,METAR UUEE 191000Z 08003MPS CAVOK 10/M04 Q1023 R06C/250145 NOSIG,1,0.0,0,9999,0,0,0,
2026-03-19 09:30:00,METAR UUEE 190930Z 13003MPS CAVOK 10/M03 Q1024 R06C/250145 NOSIG,1,0.0,0,9999,0,0,0,
2026-03-19 09:00:00,METAR UUEE 190900Z 07003MPS CAVOK 09/M04 Q1024 R06R/250145 R06C/250145 NOSIG,1,0.0,0,9999,0,0,0,
2026-03-19 08:30:00,METAR UUEE 190830Z 07002MPS CAVOK 09/M04 Q1024 R06R/250145 R06C/250145 NOSIG,1,0.0,0,9999,0,0,0,
2026-03-19 08:00:00,METAR UUEE 190800Z 11002MPS CAVOK 08/M03 Q1025 R06R/250145 R06C/250145 NOSIG,1,0.0,0,9999,0,0,0,
2026-03-19 07:30:00,METAR UUEE 190730Z 07002MPS 040V100 CAVOK 07/M03 Q1025 R06R/250145 R06C/250145 NOSIG,1,0.0,0,9999,0,0,0,
2026-03-19 07:00:00,METAR UUEE 190700Z 10002MPS CAVOK 06/M03 Q1025 R06R/250145 R06C/250145 NOSIG,1,0.0,0,9999,0,0,0,
2026-03-19 06:30:00,METAR UUEE 190630Z 07003MPS CAVOK 05/M04 Q1025 R06R/250145 R06C/250145 NOSIG,1,0.0,0,9999,0,0,0,
2026-03-19 06:26:00,SPECI UUEE 190626Z 07003MPS CAVOK 05/M03 Q1025 R06R/250145 R06C/250145 NOSIG,1,0.0,0,9999,0,0,0,
2026-03-19 06:00:00,METAR UUEE 190600Z 09002MPS CAVOK 03/M03 Q1026 R06R/250145 R06C/250145 NOSIG,1,0.0,0,9999,0,0,0,
2026-03-19 05:30:00,METAR UUEE 190530Z 07002MPS 320V090 CAVOK 02/M04 Q1026 R06R/250145 R06C/250145 NOSIG,1,0.0,0,9999,0,0,0,
2026-03-19 05:25:00,SPECI UUEE 190525Z 34001MPS CAVOK 02/M03 Q1026 R06R/250145 R06C/250145 NOSIG,1,0.0,0,9999,0,0,0,
2026-03-19 05:00:00,METAR UUEE 190500Z 33001MPS CAVOK 00/M04 Q1026 R06R/250145 R06C/250145 NOSIG,1,0.0,0,9999,0,0,0,
2026-03-19 04:30:00,METAR UUEE 190430Z 32001MPS CAVOK M01/M04 Q1026 R06R/250145 R06C/250145 NOSIG,1,0.0,0,9999,0,0,0,
2026-03-19 04:00:00,METAR UUEE 190400Z 32001MPS CAVOK M02/M05 Q1026 R06R/250145 R06C/250145 NOSIG,1,0.0,0,9999,0,0,0,
2026-03-19 03:30:00,METAR UUEE 190330Z 33001MPS CAVOK M02/M05 Q1027 R06R/250145 R06C/250145 NOSIG,1,0.0,0,9999,0,0,0,
2026-03-19 03:00:00,METAR UUEE 190300Z 33001MPS CAVOK M02/M05 Q1027 R06R/250145 R06C/250145 NOSIG,1,0.0,0,9999,0,0,0,
2026-03-19 02:30:00,METAR UUEE 190230Z 33001MPS CAVOK M02/M05 Q1027 R06R/250145 R06C/250145 NOSIG,1,0.0,0,9999,0,0,0,
2026-03-19 02:00:00,METAR UUEE 190200Z 32001MPS CAVOK M02/M05 Q1027 R06R/250145 R06C/250145 NOSIG,1,0.0,0,9999,0,0,0,
2026-03-19 01:30:00,METAR UUEE 190130Z 32001MPS CAVOK M02/M05 Q1027 R06R/250145 NOSIG,1,0.0,0,9999,0,0,0,
2026-03-19 01:00:00,METAR UUEE 190100Z 33001MPS CAVOK M01/M05 Q1027 R06C/250145 NOSIG,1,0.0,0,9999,0,0,0,
2026-03-19 00:30:00,METAR UUEE 190030Z 33002MPS CAVOK M01/M05 Q1028 R06C/250145 NOSIG,1,0.0,0,9999,0,0,0,
2026-03-19 00:00:00,METAR UUEE 190000Z 33001MPS CAVOK M01/M05 Q1028 R06C/250145 NOSIG,1,0.0,0,9999,0,0,0,
2026-03-18 23:30:00,METAR UUEE 182330Z 32001MPS CAVOK M01/M04 Q1028 R06C/250145 NOSIG,1,0.0,0,9999,0,0,0,
2026-03-18 23:00:00,METAR UUEE 182300Z 31001MPS CAVOK M01/M05 Q1028 R06C/250145 NOSIG,1,0.0,0,9999,0,0,0,
2026-03-18 22:30:00,METAR UUEE 182230Z 32001MPS CAVOK 00/M04 Q1028 R06C/250145 NOSIG,1,0.0,0,9999,0,0,0,
2026-03-18 22:00:00,METAR UUEE 182200Z 32001MPS CAVOK 00/M04 Q1029 R06C/250145 NOSIG,1,0.0,0,9999,0,0,0,
2026-03-18 21:30:00,METAR UUEE 182130Z 30001MPS CAVOK 01/M05 Q1029 R06C/250145 NOSIG,1,0.0,0,9999,0,0,0,
2026-03-18 21:00:00,METAR UUEE 182100Z 32002MPS CAVOK 02/M05 Q1029 R06R/250145 R06C/250145 NOSIG,1,0.0,0,9999,0,0,0,
2026-03-18 20:30:00,METAR UUEE 182030Z 32002MPS CAVOK 04/M05 Q1029 R06R/250145 R06C/250145 NOSIG,1,0.0,0,9999,0,0,0,
2026-03-18 20:00:00,METAR UUEE 182000Z 04002MPS 300V080 CAVOK 02/M05 Q1029 R06R/250145 R06C/250145 NOSIG,1,0.0,0,9999,0,0,0,
2026-03-18 19:30:00,METAR UUEE 181930Z 08003MPS CAVOK 03/M05 Q1029 R06R/250145 R06C/250145 NOSIG,1,0.0,0,9999,0,0,0,
2026-03-18 19:00:00,METAR UUEE 181900Z 07003MPS CAVOK 02/M05 Q1029 R06R/250145 R06C/250145 NOSIG,1,0.0,0,9999,0,0,0,
2026-03-18 18:30:00,METAR UUEE 181830Z 04003MPS CAVOK 04/M05 Q1029 R06R/250145 R06C/250145 NOSIG,1,0.0,0,9999,0,0,0,
2026-03-18 18:00:00,METAR UUEE 181800Z 07003MPS 030V100 CAVOK 04/M04 Q1029 R06R/250145 R06C/250145 NOSIG,1,0.0,0,9999,0,0,0,
2026-03-18 17:30:00,METAR UUEE 181730Z 08004MPS CAVOK 04/M05 Q1029 R06R/250145 R06C/250145 NOSIG,1,0.0,0,9999,0,0,0,
2026-03-18 17:00:00,METAR UUEE 181700Z 06004MPS CAVOK 06/M05 Q1029 R06R/250145 R06C/250145 NOSIG,1,0.0,0,9999,0,0,0,
2026-03-18 16:30:00,METAR UUEE 181630Z 06005MPS CAVOK 06/M05 Q1029 R06R/250145 R06C/250145 NOSIG,1,0.0,0,9999,0,0,0,
2026-03-18 16:00:00,METAR UUEE 181600Z 07004MPS CAVOK 08/M05 Q1029 R06R/250145 R06C/250145 NOSIG,1,0.0,0,9999,0,0,0,
2026-03-18 15:30:00,METAR UUEE 181530Z 07004MPS CAVOK 08/M05 Q1029 R06R/250145 R06C/250145 NOSIG,1,0.0,0,9999,0,0,0,
2026-03-18 15:00:00,METAR UUEE 181500Z 08005MPS CAVOK 08/M04 Q1029 R06R/250145 R06C/250145 NOSIG,1,0.0,0,9999,0,0,0,
2026-03-18 14:30:00,METAR UUEE 181430Z 06005MPS CAVOK 09/M04 Q1029 R06R/250145 R06C/250145 NOSIG,1,0.0,0,9999,0,0,0,
2026-03-18 14:00:00,METAR UUEE 181400Z 07005MPS CAVOK 09/M03 Q1030 R06R/250145 R06C/250145 NOSIG,1,0.0,0,9999,0,0,0,
2026-03-18 13:30:00,METAR UUEE 181330Z 08006MPS CAVOK 10/M04 Q1030 R06R/250145 R06C/250145 NOSIG,1,0.0,0,9999,0,0,0,
2026-03-18 13:00:00,METAR UUEE 181300Z 08005MPS CAVOK 10/M04 Q1030 R06R/250145 R06C/250145 NOSIG,1,0.0,0,9999,0,0,0,
2026-03-18 12:30:00,METAR UUEE 181230Z 08005MPS CAVOK 10/M04 Q1030 R06R/250145 R06C/250145 NOSIG,1,0.0,0,9999,0,0,0,
2026-03-18 12:00:00,METAR UUEE 181200Z 08004MPS CAVOK 11/M04 Q1030 R06R/250145 R06C/250145 NOSIG,1,0.0,0,9999,0,0,0,
2026-03-18 11:30:00,METAR UUEE 181130Z 07005MPS CAVOK 11/M04 Q1030 R06R/250145 R06C/250145 NOSIG,1,0.0,0,9999,0,0,0,
2026-03-18 11:00:00,METAR UUEE 181100Z 10005MPS CAVOK 10/M04 Q1031 R06R/250145 R06C/250145 NOSIG,1,0.0,0,9999,0,0,0,
2026-03-18 10:30:00,METAR UUEE 181030Z 06004MPS 030V090 CAVOK 10/M04 Q1031 R06R/250145 R06C/250145 NOSIG,1,0.0,0,9999,0,0,0,
2026-03-18 10:00:00,METAR UUEE 181000Z 08005MPS CAVOK 10/M04 Q1031 R06R/250145 R06C/250145 NOSIG,1,0.0,0,9999,0,0,0,
2026-03-18 09:30:00,METAR UUEE 180930Z 08004MPS CAVOK 10/M02 Q1031 R06R/250145 R06C/250145 NOSIG,1,0.0,0,9999,0,0,0,
2026-03-18 09:00:00,METAR UUEE 180900Z 06004MPS 020V090 CAVOK 09/M04 Q1031 R06R/250145 R06C/250145 NOSIG,1,0.0,0,9999,0,0,0,
2026-03-18 08:30:00,METAR UUEE 180830Z 06003MPS CAVOK 08/M04 Q1031 R06R/250145 R06C/250145 NOSIG,1,0.0,0,9999,0,0,0,
2026-03-18 08:00:00,METAR UUEE 180800Z 08003MPS CAVOK 07/M02 Q1031 R06C/250145 NOSIG,1,0.0,0,9999,0,0,0,
2026-03-18 07:56:00,SPECI UUEE 180756Z 08003MPS CAVOK 07/M04 Q1031 R06C/250145 NOSIG,1,0.0,0,9999,0,0,0,
2026-03-18 07:30:00,METAR UUEE 180730Z 07004MPS CAVOK 05/M04 Q1031 R06C/250145 NOSIG,1,0.0,0,9999,0,0,0,
2026-03-18 07:00:00,METAR UUEE 180700Z 07003MPS CAVOK 05/M03 Q1031 R06R/250145 R06C/250145 NOSIG,1,0.0,0,9999,0,0,0,
2026-03-18 06:30:00,METAR UUEE 180630Z 07004MPS CAVOK 04/M04 Q1031 R06R/250145 R06C/250145 NOSIG,1,0.0,0,9999,0,0,0,
2026-03-18 06:00:00,METAR UUEE 180600Z 07003MPS CAVOK 03/M03 Q1031 R06R/250145 R06C/250145 NOSIG,1,0.0,0,9999,0,0,0,
2026-03-18 05:30:00,METAR UUEE 180530Z 05003MPS 350V080 CAVOK 02/M04 Q1031 R06R/250145 R06C/250145 NOSIG,1,0.0,0,9999,0,0,0,
2026-03-18 05:00:00,METAR UUEE 180500Z 03003G08MPS 350V080 CAVOK 01/M04 Q1031 R06R/250145 R06C/250145 NOSIG,1,0.0,0,9999,0,0,0,
2026-03-18 04:30:00,METAR UUEE 180430Z 36002MPS 350V050 CAVOK 01/M04 Q1030 R06R/250145 R06C/250145 NOSIG,1,0.0,0,9999,0,0,0,
2026-03-18 04:21:00,SPECI UUEE 180421Z 01002MPS CAVOK 01/M04 Q1030 R06R/250145 R06C/250145 NOSIG,1,0.0,0,9999,0,0,0,
2026-03-18 04:00:00,METAR UUEE 180400Z 12002MPS CAVOK M01/M04 Q1030 R06R/250145 R06C/250145 NOSIG,1,0.0,0,9999,0,0,0,
2026-03-18 03:30:00,METAR UUEE 180330Z 02002MPS CAVOK 01/M04 Q1030 R06R/250145 R06C/250145 NOSIG,1,0.0,0,9999,0,0,0,
2026-03-18 03:00:00,METAR UUEE 180300Z 01002MPS CAVOK 01/M04 Q1030 R06R/250145 R06C/250145 NOSIG,1,0.0,0,9999,0,0,0,
2026-03-18 02:30:00,METAR UUEE 180230Z 35002MPS CAVOK 00/M04 Q1030 R06R/250145 R06C/250145 NOSIG,1,0.0,0,9999,0,0,0,
2026-03-18 02:00:00,METAR UUEE 180200Z 07003MPS CAVOK 01/M04 Q1030 R06R/250145 R06C/250145 NOSIG,1,0.0,0,9999,0,0,0,
2026-03-18 01:30:00,METAR UUEE 180130Z 06002MPS CAVOK 00/M03 Q1030 R06R/250145 R06C/250145 NOSIG,1,0.0,0,9999,0,0,0,
2026-03-18 01:00:00,METAR UUEE 180100Z 07002MPS CAVOK 01/M04 Q1030 R06R/250145 R06C/250145 NOSIG,1,0.0,0,9999,0,0,0,
2026-03-18 00:30:00,METAR UUEE 180030Z 02002MPS CAVOK 01/M04 Q1030 R06R/250145 R06C/250145 NOSIG,1,0.0,0,9999,0,0,0,
2026-03-18 00:00:00,METAR UUEE 180000Z 05001MPS CAVOK 01/M04 Q1030 R06R/250145 R06C/250145 NOSIG,1,0.0,0,9999,0,0,0,
2026-03-17 23:54:00,SPECI UUEE 172354Z 06002MPS CAVOK 01/M04 Q1030 R06R/250145 R06C/250145 NOSIG,1,0.0,0,9999,0,0,0,
2026-03-17 23:30:00,METAR UUEE 172330Z 05002MPS CAVOK M01/M04 Q1030 R06R/250145 R06C/250145 NOSIG,1,0.0,0,9999,0,0,0,
2026-03-17 23:00:00,METAR UUEE 172300Z 06002MPS CAVOK M00/M04 Q1030 R06R/250145 R06C/250145 NOSIG,1,0.0,0,9999,0,0,0,
2026-03-17 22:30:00,METAR UUEE 172230Z 07002MPS CAVOK M00/M04 Q1030 R06R/250145 R06C/250145 NOSIG,1,0.0,0,9999,0,0,0,
2026-03-17 22:00:00,METAR UUEE 172200Z 06002MPS CAVOK M00/M04 Q1029 R06R/250145 R06C/250145 NOSIG,1,0.0,0,9999,0,0,0,
2026-03-17 21:30:00,METAR UUEE 172130Z 08003MPS CAVOK 01/M04 Q1029 R06R/250145 R06C/250145 NOSIG,1,0.0,0,9999,0,0,0,
2026-03-17 21:00:00,METAR UUEE 172100Z 08003MPS CAVOK 01/M04 Q1029 R06R/250145 R06C/250145 NOSIG,1,0.0,0,9999,0,0,0,
2026-03-17 20:30:00,METAR UUEE 172030Z 08003MPS CAVOK 02/M04 Q1029 R06R/250145 R06C/250145 NOSIG,1,0.0,0,9999,0,0,0,
2026-03-17 20:00:00,METAR UUEE 172000Z 08003MPS CAVOK 02/M04 Q1029 R06R/250145 R06C/250145 NOSIG,1,0.0,0,9999,0,0,0,
2026-03-17 19:30:00,METAR UUEE 171930Z 08003MPS CAVOK 02/M04 Q1029 R06R/250145 R06C/250145 NOSIG,1,0.0,0,9999,0,0,0,
2026-03-17 19:00:00,METAR UUEE 171900Z 08004MPS CAVOK 02/M04 Q1029 R06R/250145 R06C/250145 NOSIG,1,0.0,0,9999,0,0,0,
2026-03-17 18:30:00,METAR UUEE 171830Z 07004MPS CAVOK 03/M04 Q1029 R06R/250145 R06C/250145 NOSIG,1,0.0,0,9999,0,0,0,
2026-03-17 18:00:00,METAR UUEE 171800Z 07004MPS CAVOK 03/M04 Q1029 R06R/250145 R06C/250145 NOSIG,1,0.0,0,9999,0,0,0,
2026-03-17 17:30:00,METAR UUEE 171730Z 08003MPS CAVOK 02/M03 Q1028 R06R/250145 R06C/250145 NOSIG,1,0.0,0,9999,0,0,0,
2026-03-17 17:00:00,METAR UUEE 171700Z 05003MPS CAVOK 06/M04 Q1028 R06R/250145 R06C/250145 NOSIG,1,0.0,0,9999,0,0,0,
2026-03-17 16:30:00,METAR UUEE 171630Z 06002MPS CAVOK 06/M04 Q1028 R06R/250145 R06C/250145 NOSIG,1,0.0,0,9999,0,0,0,
2026-03-17 16:00:00,METAR UUEE 171600Z 07002MPS CAVOK 06/M04 Q1028 R06R/250145 R06C/250145 NOSIG,1,0.0,0,9999,0,0,0,
2026-03-17 15:30:00,METAR UUEE 171530Z 09003MPS CAVOK 08/M04 Q1028 R06R/250145 R06C/250145 NOSIG,1,0.0,0,9999,0,0,0,
2026-03-17 15:00:00,METAR UUEE 171500Z 08003MPS CAVOK 08/M04 Q1028 R06R/250145 R06C/250145 NOSIG,1,0.0,0,9999,0,0,0,
2026-03-17 14:30:00,METAR UUEE 171430Z 09004MPS CAVOK 08/M02 Q1028 R06R/250145 R06C/250145 NOSIG,1,0.0,0,9999,0,0,0,
2026-03-17 14:00:00,METAR UUEE 171400Z 08004MPS CAVOK 08/M02 Q1028 R06R/250145 R06C/250145 NOSIG,1,0.0,0,9999,0,0,0,
2026-03-17 13:30:00,METAR UUEE 171330Z 09004MPS CAVOK 09/M01 Q1028 R06R/250145 R06C/250145 NOSIG,1,0.0,0,9999,0,0,0,
2026-03-17 13:00:00,METAR UUEE 171300Z 11005MPS CAVOK 09/M04 Q1028 R06R/250145 R06C/250145 NOSIG,1,0.0,0,9999,0,0,0,
2026-03-17 12:30:00,METAR UUEE 171230Z 11006MPS CAVOK 10/M03 Q1028 R06R/250145 R06C/250145 NOSIG,1,0.0,0,9999,0,0,0,
2026-03-17 12:00:00,METAR UUEE 171200Z 09006MPS CAVOK 09/M03 Q1028 R06R/250145 R06C/250145 NOSIG,1,0.0,0,9999,0,0,0,
2026-03-17 11:30:00,METAR UUEE 171130Z 10005MPS CAVOK 09/M03 Q1028 R06R/250145 R06C/250145 NOSIG,1,0.0,0,9999,0,0,0,
2026-03-17 11:00:00,METAR UUEE 171100Z 08005MPS CAVOK 09/M02 Q1028 R06R/250145 NOSIG,1,0.0,0,9999,0,0,0,
2026-03-17 10:30:00,METAR UUEE 171030Z 09004MPS CAVOK 09/M02 Q1028 R06R/250145 NOSIG,1,0.0,0,9999,0,0,0,
2026-03-17 10:00:00,METAR UUEE 171000Z 08004MPS CAVOK 08/M01 Q1028 R06R/250145 R06C/250145 NOSIG,1,0.0,0,9999,0,0,0,
2026-03-17 09:30:00,METAR UUEE 170930Z 06005MPS CAVOK 07/M03 Q1028 R06R/250145 R06C/250145 NOSIG,1,0.0,0,9999,0,0,0,
2026-03-17 09:00:00,METAR UUEE 170900Z 08004MPS CAVOK 07/M03 Q1028 R06R/250145 R06C/250145 NOSIG,1,0.0,0,9999,0,0,0,
2026-03-17 08:30:00,METAR UUEE 170830Z 09003MPS CAVOK 06/M03 Q1028 R06R/250145 R06C/250145 NOSIG,1,0.0,0,9999,0,0,0,
2026-03-17 08:00:00,METAR UUEE 170800Z 09003MPS CAVOK 05/M03 Q1028 R06R/250145 R06C/250145 NOSIG,1,0.0,0,9999,0,0,0,
2026-03-17 07:30:00,METAR UUEE 170730Z 07003MPS CAVOK 04/M02 Q1028 R06R/250145 R06C/250145 NOSIG,1,0.0,0,9999,0,0,0,
2026-03-17 07:25:00,SPECI UUEE 170725Z 08003MPS CAVOK 04/M02 Q1028 R06R/250145 R06C/250145 NOSIG,1,0.0,0,9999,0,0,0,
2026-03-17 07:00:00,METAR UUEE 170700Z 07003MPS CAVOK 02/M03 Q1028 R06R/250145 R06C/250145 NOSIG,1,0.0,0,9999,0,0,0,
2026-03-17 06:30:00,METAR UUEE 170630Z 08003MPS CAVOK 02/M03 Q1028 R06R/250145 R06C/250145 NOSIG,1,0.0,0,9999,0,0,0,
2026-03-17 06:00:00,METAR UUEE 170600Z 07003MPS CAVOK 01/M03 Q1028 R06R/250145 R06C/250145 NOSIG,1,0.0,0,9999,0,0,0,
2026-03-17 05:30:00,METAR UUEE 170530Z 07002MPS CAVOK 00/M04 Q1027 R06R/250145 R06C/250145 NOSIG,1,0.0,0,9999,0,0,0,
2026-03-17 05:00:00,METAR UUEE 170500Z VRB01MPS CAVOK M01/M04 Q1027 R24L/250145 R24C/250145 NOSIG,1,0.0,0,9999,0,0,0,
2026-03-17 04:30:00,METAR UUEE 170430Z 07003MPS 020V080 CAVOK M02/M04 Q1027 R24L/250145 R24C/250145 NOSIG,1,0.0,0,9999,0,0,0,
2026-03-17 04:00:00,METAR UUEE 170400Z 08002MPS CAVOK M02/M05 Q1027 R24L/250145 R24C/250145 NOSIG,1,0.0,0,9999,0,0,0,
2026-03-17 03:30:00,METAR UUEE 170330Z 03001MPS CAVOK M02/M05 Q1027 R24L/250145 R24C/250145 NOSIG,1,0.0,0,9999,0,0,0,
2026-03-17 03:00:00,METAR UUEE 170300Z 03002MPS 350V070 CAVOK M01/M05 Q1027 R24L/250145 R24C/250145 NOSIG,1,0.0,0,9999,0,0,0,
2026-03-17 02:30:00,METAR UUEE 170230Z 06002MPS CAVOK M03/M05 Q1027 R24C/250145 NOSIG,1,0.0,0,9999,0,0,0,
2026-03-17 02:00:00,METAR UUEE 170200Z 05002MPS CAVOK M02/M05 Q1026 R24C/250145 NOSIG,1,0.0,0,9999,0,0,0,
2026-03-17 01:30:00,METAR UUEE 170130Z 07002MPS CAVOK M03/M05 Q1026 R24C/250145 NOSIG,1,0.0,0,9999,0,0,0,
2026-03-17 01:00:00,METAR UUEE 170100Z 06002MPS CAVOK M03/M05 Q1026 R24C/250145 NOSIG,1,0.0,0,9999,0,0,0,
2026-03-17 00:30:00,METAR UUEE 170030Z 07003MPS 9999 4400NW BR NSC M03/M05 Q1026 R24C/250145 NOSIG,0,3.0,0,10000,0,0,1,BR
2026-03-17 00:00:00,METAR UUEE 170000Z 05002MPS CAVOK M02/M05 Q1026 R24C/250145 NOSIG,1,0.0,0,9999,0,0,0,
2026-03-16 23:30:00,METAR UUEE 162330Z 08002MPS CAVOK M02/M05 Q1026 R24C/250145 NOSIG,1,0.0,0,9999,0,0,0,
2026-03-16 23:00:00,METAR UUEE 162300Z 08002MPS CAVOK M02/M05 Q1026 R24C/250145 NOSIG,1,0.0,0,9999,0,0,0,
2026-03-16 22:30:00,METAR UUEE 162230Z 10002MPS CAVOK M02/M05 Q1026 R24C/250145 NOSIG,1,0.0,0,9999,0,0,0,
2026-03-16 22:00:00,METAR UUEE 162200Z VRB01MPS CAVOK M00/M05 Q1026 R24C/250145 NOSIG,1,0.0,0,9999,0,0,0,
2026-03-16 21:30:00,METAR UUEE 162130Z 15002MPS CAVOK 03/M05 Q1026 R24L/250145 R24C/250145 NOSIG,1,0.0,0,9999,0,0,0,
2026-03-16 21:00:00,METAR UUEE 162100Z 15002MPS CAVOK 03/M05 Q1026 R24L/250145 R24C/250145 NOSIG,1,0.0,0,9999,0,0,0,
2026-03-16 20:30:00,METAR UUEE 162030Z 14002MPS CAVOK 03/M05 Q1026 R24L/250145 R24C/250145 NOSIG,1,0.0,0,9999,0,0,0,
2026-03-16 20:00:00,METAR UUEE 162000Z 14003MPS 110V180 CAVOK 04/M05 Q1026 R24L/250145 R24C/250145 NOSIG,1,0.0,0,9999,0,0,0,
2026-03-16 19:30:00,METAR UUEE 161930Z 14003MPS 100V160 CAVOK 04/M06 Q1025 R24L/250145 R24C/250145 NOSIG,1,0.0,0,9999,0,0,0,
2026-03-16 19:00:00,METAR UUEE 161900Z 12003MPS 080V150 CAVOK 04/M05 Q1025 R24L/250145 R24C/250145 NOSIG,1,0.0,0,9999,0,0,0,
2026-03-16 18:30:00,METAR UUEE 161830Z 12003MPS 100V190 CAVOK 05/M05 Q1025 R24L/250145 R24C/250145 NOSIG,1,0.0,0,9999,0,0,0,
2026-03-16 18:00:00,METAR UUEE 161800Z 11003MPS CAVOK 05/M04 Q1025 R24L/250145 R24C/250145 NOSIG,1,0.0,0,9999,0,0,0,
2026-03-16 17:30:00,METAR UUEE 161730Z 13003MPS CAVOK 05/M04 Q1025 R24L/250145 R24C/250145 NOSIG,1,0.0,0,9999,0,0,0,
2026-03-16 17:00:00,METAR UUEE 161700Z 13004MPS CAVOK 05/M03 Q1025 R24L/250145 R24C/250145 NOSIG,1,0.0,0,9999,0,0,0,
2026-03-16 16:30:00,METAR UUEE 161630Z 12003MPS CAVOK 06/M03 Q1025 R24L/250145 R24C/250145 NOSIG,1,0.0,0,9999,0,0,0,
2026-03-16 16:00:00,METAR UUEE 161600Z 13003MPS CAVOK 07/M03 Q1025 R24L/250145 R24C/250145 NOSIG,1,0.0,0,9999,0,0,0,
2026-03-16 15:30:00,METAR UUEE 161530Z 13004MPS CAVOK 08/M04 Q1024 R24L/250145 R24C/250145 NOSIG,1,0.0,0,9999,0,0,0,
2026-03-16 15:00:00,METAR UUEE 161500Z 13005MPS CAVOK 08/M03 Q1024 R24L/250145 R24C/250145 NOSIG,1,0.0,0,9999,0,0,0,
2026-03-16 14:30:00,METAR UUEE 161430Z 13005MPS CAVOK 08/M02 Q1024 R24L/250145 R24C/250145 NOSIG,1,0.0,0,9999,0,0,0,
2026-03-16 14:00:00,METAR UUEE 161400Z 12005MPS CAVOK 09/M02 Q1024 R24L/250145 R24C/250145 NOSIG,1,0.0,0,9999,0,0,0,
2026-03-16 13:30:00,METAR UUEE 161330Z 12004MPS CAVOK 09/M02 Q1024 R24L/250145 R24C/250145 NOSIG,1,0.0,0,9999,0,0,0,
2026-03-16 13:00:00,METAR UUEE 161300Z 16004MPS CAVOK 09/M03 Q1024 R24L/250145 R24C/250145 NOSIG,1,0.0,0,9999,0,0,0,
2026-03-16 12:30:00,METAR UUEE 161230Z 16004MPS CAVOK 09/M03 Q1025 R24L/250145 R24C/250145 NOSIG,1,0.0,0,9999,0,0,0,
2026-03-16 12:00:00,METAR UUEE 161200Z 16004MPS CAVOK 09/M04 Q1025 R24L/250145 R24C/250145 NOSIG,1,0.0,0,9999,0,0,0,
2026-03-16 11:30:00,METAR UUEE 161130Z 14004MPS CAVOK 09/M04 Q1025 R24L/250145 R24C/250145 NOSIG,1,0.0,0,9999,0,0,0,
2026-03-16 11:00:00,METAR UUEE 161100Z 17004MPS CAVOK 10/M03 Q1025 R24L/250145 R24C/250145 NOSIG,1,0.0,0,9999,0,0,0,
2026-03-16 10:30:00,METAR UUEE 161030Z 15003MPS 120V180 CAVOK 10/M01 Q1025 R24L/250145 R24C/250145 NOSIG,1,0.0,0,9999,0,0,0,
2026-03-16 10:00:00,METAR UUEE 161000Z 18003MPS 150V210 CAVOK 09/M03 Q1025 R24L/250145 R24C/250145 NOSIG,1,0.0,0,9999,0,0,0,
2026-03-16 09:30:00,METAR UUEE 160930Z 17003MPS 130V200 CAVOK 08/M03 Q1025 R24L/250145 R24C/250145 NOSIG,1,0.0,0,9999,0,0,0,
2026-03-16 09:21:00,SPECI UUEE 160921Z 17003MPS 130V200 CAVOK 09/M03 Q1025 R24L/250145 R24C/250145 NOSIG,1,0.0,0,9999,0,0,0,
2026-03-16 09:00:00,METAR UUEE 160900Z 19003MPS 150V220 CAVOK 07/M04 Q1025 R24L/250145 R24C/250145 NOSIG,1,0.0,0,9999,0,0,0,
2026-03-16 08:30:00,METAR UUEE 160830Z 20003G09MPS 160V290 CAVOK 07/M06 Q1026 R24L/250145 R24C/250145 NOSIG,1,0.0,0,9999,0,0,0,
2026-03-16 08:00:00,METAR UUEE 160800Z 20003MPS CAVOK 07/M06 Q1026 R24L/250145 R24C/250145 NOSIG,1,0.0,0,9999,0,0,0,
2026-03-16 07:57:00,SPECI UUEE 160757Z 20003MPS CAVOK 08/M05 Q1026 R24L/250145 R24C/250145 NOSIG,1,0.0,0,9999,0,0,0,
2026-03-16 07:30:00,METAR UUEE 160730Z 20003MPS CAVOK 06/M05 Q1026 R24L/250145 R24C/250145 NOSIG,1,0.0,0,9999,0,0,0,
2026-03-16 07:11:00,SPECI UUEE 160711Z 16002MPS 120V220 CAVOK 07/M04 Q1026 R24L/250145 R24C/250145 NOSIG,1,0.0,0,9999,0,0,0,
2026-03-16 07:00:00,METAR UUEE 160700Z 15002MPS CAVOK 05/M04 Q1026 R24L/250145 R24C/250145 NOSIG,1,0.0,0,9999,0,0,0,
2026-03-16 06:30:00,METAR UUEE 160630Z 07001MPS CAVOK 04/M04 Q1026 R24L/250145 R24C/250145 NOSIG,1,0.0,0,9999,0,0,0,
2026-03-16 06:00:00,METAR UUEE 160600Z VRB01MPS CAVOK 03/M05 Q1026 R24L/250145 R24C/250145 NOSIG,1,0.0,0,9999,0,0,0,
2026-03-16 05:30:00,METAR UUEE 160530Z 00000MPS CAVOK 02/M06 Q1026 R24L/250145 R24C/250145 NOSIG,1,0.0,0,9999,0,0,0,
2026-03-16 05:26:00,SPECI UUEE 160526Z 00000MPS CAVOK 02/M06 Q1026 R24L/250145 R24C/250145 NOSIG,1,0.0,0,9999,0,0,0,
2026-03-16 05:00:00,METAR UUEE 160500Z 00000MPS CAVOK M00/M05 Q1026 R24L/250145 R24C/250145 NOSIG,1,0.0,0,9999,0,0,0,
2026-03-16 04:30:00,METAR UUEE 160430Z VRB01MPS CAVOK M00/M07 Q1026 R24L/250145 R24C/250145 NOSIG,1,0.0,0,9999,0,0,0,
2026-03-16 04:00:00,METAR UUEE 160400Z 17002MPS CAVOK M00/M07 Q1026 R24L/250145 R24C/250145 NOSIG,1,0.0,0,9999,0,0,0,
2026-03-16 03:30:00,METAR UUEE 160330Z 36001MPS CAVOK M01/M07 Q1026 R24L/250145 R24C/250145 NOSIG,1,0.0,0,9999,0,0,0,
2026-03-16 03:00:00,METAR UUEE 160300Z VRB01MPS CAVOK M02/M07 Q1026 R24L/250145 R24C/250145 NOSIG,1,0.0,0,9999,0,0,0,
2026-03-16 02:30:00,METAR UUEE 160230Z 18002MPS CAVOK M03/M07 Q1026 R24L/250145 R24C/250145 NOSIG,1,0.0,0,9999,0,0,0,
2026-03-16 02:00:00,METAR UUEE 160200Z 16002MPS CAVOK M02/M07 Q1026 R24L/250145 R24C/250145 NOSIG,1,0.0,0,9999,0,0,0,
2026-03-16 01:30:00,METAR UUEE 160130Z 19001MPS CAVOK M00/M08 Q1026 R24L/250145 R24C/250145 NOSIG,1,0.0,0,9999,0,0,0,
2026-03-16 01:00:00,METAR UUEE 160100Z 00000MPS CAVOK 01/M08 Q1026 R24L/250145 R24C/250145 NOSIG,1,0.0,0,9999,0,0,0,
2026-03-16 00:30:00,METAR UUEE 160030Z VRB01MPS CAVOK 01/M08 Q1026 R24L/250145 R24C/250145 NOSIG,1,0.0,0,9999,0,0,0,
2026-03-16 00:00:00,METAR UUEE 160000Z 19002MPS CAVOK 01/M08 Q1026 R24L/250145 NOSIG,1,0.0,0,9999,0,0,0,
2026-03-15 23:30:00,METAR UUEE 152330Z 21002MPS CAVOK 01/M07 Q1026 R24C/250145 NOSIG,1,0.0,0,9999,0,0,0,
2026-03-15 23:00:00,METAR UUEE 152300Z 16002MPS 130V190 CAVOK 02/M07 Q1026 R24C/250145 NOSIG,1,0.0,0,9999,0,0,0,
2026-03-15 22:30:00,METAR UUEE 152230Z 16002MPS CAVOK 03/M06 Q1026 R24C/250145 NOSIG,1,0.0,0,9999,0,0,0,
2026-03-15 22:00:00,METAR UUEE 152200Z 13002MPS 110V170 CAVOK 03/M06 Q1026 R24L/250145 R24C/250145 NOSIG,1,0.0,0,9999,0,0,0,
2026-03-15 21:30:00,METAR UUEE 152130Z 14002MPS 100V160 CAVOK 04/M06 Q1026 R24L/250145 R24C/250145 NOSIG,1,0.0,0,9999,0,0,0,
2026-03-15 21:00:00,METAR UUEE 152100Z 19003MPS CAVOK 03/M06 Q1026 R24L/250145 R24C/250145 NOSIG,1,0.0,0,9999,0,0,0,
2026-03-15 20:30:00,METAR UUEE 152030Z 16003MPS 140V200 CAVOK 04/M05 Q1026 R24L/250145 R24C/250145 NOSIG,1,0.0,0,9999,0,0,0,
2026-03-15 20:00:00,METAR UUEE 152000Z 20003MPS CAVOK 05/M04 Q1026 R24L/250145 R24C/250145 NOSIG,1,0.0,0,9999,0,0,0,
2026-03-15 19:30:00,METAR UUEE 151930Z 18002MPS CAVOK 05/M03 Q1026 R24L/250145 R24C/250145 NOSIG,1,0.0,0,9999,0,0,0,
2026-03-15 19:00:00,METAR UUEE 151900Z 17003MPS CAVOK 05/M03 Q1026 R24L/250145 R24C/250145 NOSIG,1,0.0,0,9999,0,0,0,
2026-03-15 18:30:00,METAR UUEE 151830Z 15003MPS CAVOK 06/M03 Q1026 R24L/250145 R24C/250145 NOSIG,1,0.0,0,9999,0,0,0,
2026-03-15 18:00:00,METAR UUEE 151800Z 16003MPS CAVOK 06/M03 Q1027 R24L/250145 R24C/250145 NOSIG,1,0.0,0,9999,0,0,0,
2026-03-15 17:30:00,METAR UUEE 151730Z 14004MPS CAVOK 06/M03 Q1027 R24L/250145 R24C/250145 NOSIG,1,0.0,0,9999,0,0,0,
2026-03-15 17:00:00,METAR UUEE 151700Z 14004MPS 090V160 CAVOK 07/M03 Q1027 R24L/250145 R24C/250145 NOSIG,1,0.0,0,9999,0,0,0,
2026-03-15 16:30:00,METAR UUEE 151630Z 14003MPS CAVOK 07/M03 Q1027 R24L/250145 R24C/250145 NOSIG,1,0.0,0,9999,0,0,0,
2026-03-15 16:00:00,METAR UUEE 151600Z 13004MPS CAVOK 08/M03 Q1027 R24L/250145 R24C/250145 NOSIG,1,0.0,0,9999,0,0,0,
2026-03-15 15:30:00,METAR UUEE 151530Z 13004MPS CAVOK 08/M04 Q1027 R24L/250145 R24C/250145 NOSIG,1,0.0,0,9999,0,0,0,
2026-03-15 15:00:00,METAR UUEE 151500Z 14004MPS CAVOK 09/M04 Q1027 R24L/250145 R24C/250145 NOSIG,1,0.0,0,9999,0,0,0,
2026-03-15 14:30:00,METAR UUEE 151430Z 16004MPS CAVOK 10/M07 Q1027 R24L/250145 R24C/250145 NOSIG,1,0.0,0,9999,0,0,0,
2026-03-15 14:00:00,METAR UUEE 151400Z 16005MPS CAVOK 10/M06 Q1027 R24L/250145 R24C/250145 NOSIG,1,0.0,0,9999,0,0,0,
2026-03-15 13:30:00,METAR UUEE 151330Z 16006MPS CAVOK 10/M07 Q1027 R24L/250145 R24C/250145 NOSIG,1,0.0,0,9999,0,0,0,
2026-03-15 13:00:00,METAR UUEE 151300Z 16005MPS CAVOK 10/M07 Q1028 R24L/250145 R24C/250145 NOSIG,1,0.0,0,9999,0,0,0,
2026-03-15 12:30:00,METAR UUEE 151230Z 16006MPS CAVOK 10/M07 Q1028 R24L/250145 R24C/250145 NOSIG,1,0.0,0,9999,0,0,0,
2026-03-15 12:00:00,METAR UUEE 151200Z 17005MPS 140V200 CAVOK 10/M06 Q1028 R24L/250145 R24C/250145 NOSIG,1,0.0,0,9999,0,0,0,
2026-03-15 11:30:00,METAR UUEE 151130Z 16005MPS 130V190 CAVOK 10/M06 Q1028 R24L/250145 R24C/250145 NOSIG,1,0.0,0,9999,0,0,0,
2026-03-15 11:00:00,METAR UUEE 151100Z 18006MPS CAVOK 09/M07 Q1028 R24L/250145 R24C/250145 NOSIG,1,0.0,0,9999,0,0,0,
2026-03-15 10:30:00,METAR UUEE 151030Z 17005MPS 140V210 CAVOK 09/M06 Q1029 R24L/250145 R24C/250145 NOSIG,1,0.0,0,9999,0,0,0,
2026-03-15 10:00:00,METAR UUEE 151000Z 16005MPS CAVOK 09/M06 Q1029 R24L/250145 R24C/250145 NOSIG,1,0.0,0,9999,0,0,0,
2026-03-15 09:30:00,METAR UUEE 150930Z 16004MPS CAVOK 09/M05 Q1029 R24L/250145 R24C/250145 NOSIG,1,0.0,0,9999,0,0,0,
2026-03-15 09:00:00,METAR UUEE 150900Z 16004MPS CAVOK 08/M05 Q1029 R24L/250145 R24C/250145 NOSIG,1,0.0,0,9999,0,0,0,
2026-03-15 08:30:00,METAR UUEE 150830Z 15004MPS CAVOK 08/M04 Q1029 R24L/250145 R24C/250145 NOSIG,1,0.0,0,9999,0,0,0,
2026-03-15 08:00:00,METAR UUEE 150800Z 15003MPS CAVOK 07/M04 Q1029 R24L/250145 R24C/250145 NOSIG,1,0.0,0,9999,0,0,0,
