Time_recorded,METAR,is_cavok,wind_speed,is_gust,visibility_meters,has_thunderstorm,has_heavy_rain,has_low_vis_fog,other_phenomenon
2026-05-02 15:30:00,METAR ZBTJ 021530Z 01005MPS 9999 FEW013 11/09 Q1010 NOSIG,0,5.0,0,10000,0,0,0,
2026-05-02 15:00:00,METAR ZBTJ 021500Z 01007MPS 9999 -SHRA SCT013 11/09 Q1010 NOSIG,0,7.0,0,10000,0,0,0,RA
2026-05-02 14:30:00,METAR ZBTJ 021430Z 02008MPS 9999 -SHRA SCT013 12/09 Q1010 NOSIG,0,8.0,0,10000,0,0,0,RA
2026-05-02 14:00:00,METAR ZBTJ 021400Z 02007MPS 9999 -SHRA SCT013 12/10 Q1010 NOSIG,0,7.0,0,10000,0,0,0,RA
2026-05-02 13:30:00,METAR ZBTJ 021330Z 02006MPS 9999 -SHRA SCT013 12/10 Q1010 NOSIG,0,6.0,0,10000,0,0,0,RA
2026-05-02 13:00:00,METAR ZBTJ 021300Z 03007MPS 9999 -SHRA SCT013 13/11 Q1009 NOSIG,0,7.0,0,10000,0,0,0,RA
2026-05-02 12:30:00,METAR ZBTJ 021230Z 02006G11MPS 9999 -SHRA SCT013 13/11 Q1009 NOSIG,0,6.0,1,10000,0,0,0,RA
2026-05-02 12:00:00,METAR ZBTJ 021200Z 03009MPS 9999 -SHRA NSC 14/12 Q1008 NOSIG,0,9.0,0,10000,0,0,0,RA
2026-05-02 11:30:00,METAR ZBTJ 021130Z 33007MPS 9999 -SHRA NSC 14/10 Q1007 NOSIG,0,7.0,0,10000,0,0,0,RA
2026-05-02 11:00:00,METAR ZBTJ 021100Z 34008MPS CAVOK 15/08 Q1007 NOSIG,1,0.0,0,9999,0,0,0,
2026-05-02 10:30:00,METAR ZBTJ 021030Z 35007MPS CAVOK 16/08 Q1006 NOSIG,1,0.0,0,9999,0,0,0,
2026-05-02 10:00:00,METAR ZBTJ 021000Z 35008MPS 9999 -SHRA NSC 16/08 Q1006 NOSIG,0,8.0,0,10000,0,0,0,RA
2026-05-02 09:30:00,METAR ZBTJ 020930Z 35005MPS 9999 -SHRA NSC 16/11 Q1006 NOSIG,0,5.0,0,10000,0,0,0,RA
2026-05-02 09:00:00,METAR ZBTJ 020900Z 35007MPS 9999 -SHRA NSC 15/11 Q1006 NOSIG,0,7.0,0,10000,0,0,0,RA
2026-05-02 08:30:00,METAR ZBTJ 020830Z 33008MPS 9999 -SHRA NSC 16/12 Q1005 NOSIG,0,8.0,0,10000,0,0,0,RA
2026-05-02 08:00:00,METAR ZBTJ 020800Z 17004MPS 9999 -SHRA NSC 21/11 Q1004 BECMG TL0930 34006MPS,0,4.0,0,10000,0,0,0,RA
2026-05-02 07:30:00,METAR ZBTJ 020730Z 16002MPS CAVOK 22/09 Q1004 NOSIG,1,0.0,0,9999,0,0,0,
2026-05-02 07:00:00,METAR ZBTJ 020700Z 18003MPS CAVOK 22/09 Q1005 BECMG TL0830 34006MPS,1,0.0,0,9999,0,0,0,
2026-05-02 06:30:00,METAR ZBTJ 020630Z 17002MPS 140V220 CAVOK 22/09 Q1005 NOSIG,1,0.0,0,9999,0,0,0,
2026-05-02 06:00:00,METAR ZBTJ 020600Z 21002MPS 170V240 CAVOK 22/09 Q1006 NOSIG,1,0.0,0,9999,0,0,0,
2026-05-02 05:30:00,METAR ZBTJ 020530Z VRB01MPS CAVOK 23/09 Q1006 NOSIG,1,0.0,0,9999,0,0,0,
2026-05-02 05:00:00,METAR ZBTJ 020500Z 22003MPS 180V260 CAVOK 22/09 Q1006 BECMG TL0650 16005MPS,1,0.0,0,9999,0,0,0,
2026-05-02 04:30:00,METAR ZBTJ 020430Z 21004MPS 180V240 CAVOK 22/09 Q1006 NOSIG,1,0.0,0,9999,0,0,0,
2026-05-02 04:00:00,METAR ZBTJ 020400Z 22003MPS CAVOK 22/09 Q1006 NOSIG,1,0.0,0,9999,0,0,0,
2026-05-02 03:30:00,METAR ZBTJ 020330Z 22004MPS 180V270 CAVOK 23/08 Q1007 NOSIG,1,0.0,0,9999,0,0,0,
2026-05-02 03:00:00,METAR ZBTJ 020300Z 24004MPS 210V280 CAVOK 23/08 Q1007 NOSIG,1,0.0,0,9999,0,0,0,
2026-05-02 02:30:00,METAR ZBTJ 020230Z 25005MPS 190V280 CAVOK 23/08 Q1007 NOSIG,1,0.0,0,9999,0,0,0,
2026-05-02 02:00:00,METAR ZBTJ 020200Z 22004MPS 190V250 CAVOK 23/09 Q1007 NOSIG,1,0.0,0,9999,0,0,0,
2026-05-02 01:30:00,METAR ZBTJ 020130Z 25003MPS 210V290 CAVOK 22/09 Q1008 NOSIG,1,0.0,0,9999,0,0,0,
2026-05-02 01:00:00,METAR ZBTJ 020100Z 24003MPS 210V290 CAVOK 21/09 Q1008 NOSIG,1,0.0,0,9999,0,0,0,
2026-05-02 00:30:00,METAR ZBTJ 020030Z 28003MPS 240V310 CAVOK 21/09 Q1008 NOSIG,1,0.0,0,9999,0,0,0,
2026-05-02 00:00:00,METAR ZBTJ 020000Z 31003MPS CAVOK 20/10 Q1007 NOSIG,1,0.0,0,9999,0,0,0,
2026-05-01 23:30:00,METAR ZBTJ 012330Z VRB01MPS CAVOK 20/12 Q1008 NOSIG,1,0.0,0,9999,0,0,0,
2026-05-01 23:00:00,METAR ZBTJ 012300Z 17001MPS 8000 NSC 19/13 Q1008 NOSIG,0,1.0,0,8000,0,0,0,
2026-05-01 22:30:00,METAR ZBTJ 012230Z 18001MPS CAVOK 17/13 Q1008 NOSIG,1,0.0,0,9999,0,0,0,
2026-05-01 22:00:00,METAR ZBTJ 012200Z 16002MPS CAVOK 15/12 Q1008 NOSIG,1,0.0,0,9999,0,0,0,
2026-05-01 21:30:00,METAR ZBTJ 012130Z 13001MPS CAVOK 15/11 Q1007 NOSIG,1,0.0,0,9999,0,0,0,
2026-05-01 21:00:00,METAR ZBTJ 012100Z 11001MPS CAVOK 15/11 Q1008 NOSIG,1,0.0,0,9999,0,0,0,
2026-05-01 20:30:00,METAR ZBTJ 012030Z VRB01MPS CAVOK 16/11 Q1008 NOSIG,1,0.0,0,9999,0,0,0,
2026-05-01 20:00:00,METAR ZBTJ 012000Z 00000MPS CAVOK 16/11 Q1008 NOSIG,1,0.0,0,9999,0,0,0,
2026-05-01 19:30:00,METAR ZBTJ 011930Z 17001MPS CAVOK 16/11 Q1008 NOSIG,1,0.0,0,9999,0,0,0,
2026-05-01 19:00:00,METAR ZBTJ 011900Z 17002MPS CAVOK 16/10 Q1008 NOSIG,1,0.0,0,9999,0,0,0,
2026-05-01 18:30:00,METAR ZBTJ 011830Z 17001MPS CAVOK 16/10 Q1008 NOSIG,1,0.0,0,9999,0,0,0,
2026-05-01 18:00:00,METAR ZBTJ 011800Z 15001MPS CAVOK 16/10 Q1008 NOSIG,1,0.0,0,9999,0,0,0,
2026-05-01 17:30:00,METAR ZBTJ 011730Z 15001MPS CAVOK 16/08 Q1009 NOSIG,1,0.0,0,9999,0,0,0,
2026-05-01 17:00:00,METAR ZBTJ 011700Z 15001MPS CAVOK 16/07 Q1009 NOSIG,1,0.0,0,9999,0,0,0,
2026-05-01 16:30:00,METAR ZBTJ 011630Z 13002MPS CAVOK 16/06 Q1009 NOSIG,1,0.0,0,9999,0,0,0,
2026-05-01 16:00:00,METAR ZBTJ 011600Z 11002MPS CAVOK 17/05 Q1009 NOSIG,1,0.0,0,9999,0,0,0,
2026-05-01 15:30:00,METAR ZBTJ 011530Z 11002MPS CAVOK 17/05 Q1009 NOSIG,1,0.0,0,9999,0,0,0,
2026-05-01 15:00:00,METAR ZBTJ 011500Z 12002MPS CAVOK 17/05 Q1010 NOSIG,1,0.0,0,9999,0,0,0,
2026-05-01 14:30:00,METAR ZBTJ 011430Z 11002MPS CAVOK 17/05 Q1009 NOSIG,1,0.0,0,9999,0,0,0,
2026-05-01 14:00:00,METAR ZBTJ 011400Z 11003MPS CAVOK 17/05 Q1010 NOSIG,1,0.0,0,9999,0,0,0,
2026-05-01 13:30:00,METAR ZBTJ 011330Z 11003MPS CAVOK 17/06 Q1010 NOSIG,1,0.0,0,9999,0,0,0,
2026-05-01 13:00:00,METAR ZBTJ 011300Z 09002MPS CAVOK 17/05 Q1010 NOSIG,1,0.0,0,9999,0,0,0,
2026-05-01 12:30:00,METAR ZBTJ 011230Z 13002MPS CAVOK 17/04 Q1010 NOSIG,1,0.0,0,9999,0,0,0,
2026-05-01 12:00:00,METAR ZBTJ 011200Z 16003MPS CAVOK 17/04 Q1010 NOSIG,1,0.0,0,9999,0,0,0,
2026-05-01 11:30:00,METAR ZBTJ 011130Z 15004MPS CAVOK 17/03 Q1009 NOSIG,1,0.0,0,9999,0,0,0,
2026-05-01 11:00:00,METAR ZBTJ 011100Z 15003MPS CAVOK 18/04 Q1009 NOSIG,1,0.0,0,9999,0,0,0,
2026-05-01 10:30:00,METAR ZBTJ 011030Z 15004MPS CAVOK 19/04 Q1009 NOSIG,1,0.0,0,9999,0,0,0,
2026-05-01 10:00:00,METAR ZBTJ 011000Z 11004MPS CAVOK 20/03 Q1009 NOSIG,1,0.0,0,9999,0,0,0,
2026-05-01 09:30:00,METAR ZBTJ 010930Z 11005MPS CAVOK 20/02 Q1009 NOSIG,1,0.0,0,9999,0,0,0,
2026-05-01 09:00:00,METAR ZBTJ 010900Z 12006MPS CAVOK 20/02 Q1009 NOSIG,1,0.0,0,9999,0,0,0,
2026-05-01 08:30:00,METAR ZBTJ 010830Z 12006MPS CAVOK 21/02 Q1009 NOSIG,1,0.0,0,9999,0,0,0,
2026-05-01 08:00:00,METAR ZBTJ 010800Z 13006MPS CAVOK 21/03 Q1009 NOSIG,1,0.0,0,9999,0,0,0,
2026-05-01 07:30:00,METAR ZBTJ 010730Z 13006MPS CAVOK 22/04 Q1009 NOSIG,1,0.0,0,9999,0,0,0,
2026-05-01 07:00:00,METAR ZBTJ 010700Z 12007MPS CAVOK 22/03 Q1010 NOSIG,1,0.0,0,9999,0,0,0,
2026-05-01 06:30:00,METAR ZBTJ 010630Z 13007MPS CAVOK 22/04 Q1010 NOSIG,1,0.0,0,9999,0,0,0,
2026-05-01 06:00:00,METAR ZBTJ 010600Z 11008MPS CAVOK 22/05 Q1010 NOSIG,1,0.0,0,9999,0,0,0,
2026-05-01 05:30:00,METAR ZBTJ 010530Z 12008MPS 6000 BLDU NSC 22/09 Q1010 NOSIG,0,8.0,0,6000,0,0,0,
2026-05-01 05:00:00,METAR ZBTJ 010500Z 11008MPS 6000 BLDU NSC 23/10 Q1010 BECMG TL0550 NSW,0,8.0,0,6000,0,0,0,
2026-05-01 04:30:00,METAR ZBTJ 010430Z 10008MPS 5000 BLDU NSC 23/11 Q1010 NOSIG,0,8.0,0,5000,0,0,0,
2026-05-01 04:00:00,METAR ZBTJ 010400Z 10007MPS 7000 BLDU NSC 25/11 Q1010 BECMG TL0550 NSW,0,7.0,0,7000,0,0,0,
2026-05-01 03:30:00,METAR ZBTJ 010330Z 10007MPS 9000 NSC 25/10 Q1010 NOSIG,0,7.0,0,9000,0,0,0,
2026-05-01 03:00:00,METAR ZBTJ 010300Z 09006MPS 070V130 9000 NSC 24/10 Q1010 NOSIG,0,6.0,0,9000,0,0,0,
2026-05-01 02:30:00,METAR ZBTJ 010230Z 08005MPS 030V120 8000 NSC 24/11 Q1010 NOSIG,0,5.0,0,8000,0,0,0,
2026-05-01 02:00:00,METAR ZBTJ 010200Z 09004MPS 060V120 8000 NSC 24/11 Q1010 NOSIG,0,4.0,0,8000,0,0,0,
2026-05-01 01:30:00,METAR ZBTJ 010130Z 10004MPS 080V180 8000 NSC 23/11 Q1010 NOSIG,0,4.0,0,8000,0,0,0,
2026-05-01 01:00:00,METAR ZBTJ 010100Z 09003MPS 060V120 9000 NSC 22/11 Q1010 NOSIG,0,3.0,0,9000,0,0,0,
2026-05-01 00:30:00,METAR ZBTJ 010030Z VRB02MPS 9000 NSC 21/10 Q1010 NOSIG,0,2.0,0,9000,0,0,0,
2026-05-01 00:00:00,METAR ZBTJ 010000Z VRB01MPS 8000 NSC 21/10 Q1010 NOSIG,0,1.0,0,8000,0,0,0,
2026-04-30 23:30:00,METAR ZBTJ 302330Z VRB01MPS 8000 NSC 20/10 Q1010 NOSIG,0,1.0,0,8000,0,0,0,
2026-04-30 23:00:00,METAR ZBTJ 302300Z 14002MPS 8000 NSC 19/10 Q1010 NOSIG,0,2.0,0,8000,0,0,0,
2026-04-30 22:30:00,METAR ZBTJ 302230Z 10002MPS 8000 NSC 17/10 Q1010 NOSIG,0,2.0,0,8000,0,0,0,
2026-04-30 22:00:00,METAR ZBTJ 302200Z VRB01MPS 5000 HZ NSC 15/10 Q1009 NOSIG,0,1.0,0,5000,0,0,0,
2026-04-30 21:30:00,METAR ZBTJ 302130Z 16001MPS 5000 BR NSC 14/09 Q1009 NOSIG,0,1.0,0,5000,0,0,1,BR
2026-04-30 21:00:00,METAR ZBTJ 302100Z 12001MPS 5000 BR NSC 14/10 Q1009 NOSIG,0,1.0,0,5000,0,0,1,BR
2026-04-30 20:30:00,METAR ZBTJ 302030Z 15002MPS 6000 NSC 14/09 Q1009 NOSIG,0,2.0,0,6000,0,0,0,
2026-04-30 20:00:00,METAR ZBTJ 302000Z 17002MPS 9000 NSC 15/09 Q1009 NOSIG,0,2.0,0,9000,0,0,0,
2026-04-30 19:30:00,METAR ZBTJ 301930Z 19002MPS 9000 NSC 15/09 Q1009 NOSIG,0,2.0,0,9000,0,0,0,
2026-04-30 19:00:00,METAR ZBTJ 301900Z 20001MPS CAVOK 16/10 Q1009 NOSIG,1,0.0,0,9999,0,0,0,
2026-04-30 18:30:00,METAR ZBTJ 301830Z 20002MPS CAVOK 16/09 Q1009 NOSIG,1,0.0,0,9999,0,0,0,
2026-04-30 18:00:00,METAR ZBTJ 301800Z 18001MPS CAVOK 16/09 Q1009 NOSIG,1,0.0,0,9999,0,0,0,
2026-04-30 17:30:00,METAR ZBTJ 301730Z 21002MPS CAVOK 18/08 Q1009 NOSIG,1,0.0,0,9999,0,0,0,
2026-04-30 17:00:00,METAR ZBTJ 301700Z 21002MPS 180V250 CAVOK 19/08 Q1010 NOSIG,1,0.0,0,9999,0,0,0,
2026-04-30 16:30:00,METAR ZBTJ 301630Z 22002MPS 190V250 CAVOK 19/09 Q1010 NOSIG,1,0.0,0,9999,0,0,0,
2026-04-30 16:00:00,METAR ZBTJ 301600Z 22003MPS 180V250 CAVOK 20/09 Q1010 NOSIG,1,0.0,0,9999,0,0,0,
2026-04-30 15:00:00,METAR ZBTJ 301500Z 22004MPS 190V250 CAVOK 20/08 Q1010 NOSIG,1,0.0,0,9999,0,0,0,
2026-04-30 14:30:00,METAR ZBTJ 301430Z 22003MPS 190V250 CAVOK 20/08 Q1010 NOSIG,1,0.0,0,9999,0,0,0,
2026-04-30 14:00:00,METAR ZBTJ 301400Z 21003MPS CAVOK 21/08 Q1010 NOSIG,1,0.0,0,9999,0,0,0,
2026-04-30 13:30:00,METAR ZBTJ 301330Z 19002MPS 170V230 CAVOK 20/08 Q1010 NOSIG,1,0.0,0,9999,0,0,0,
2026-04-30 13:00:00,METAR ZBTJ 301300Z 21002MPS CAVOK 21/07 Q1010 NOSIG,1,0.0,0,9999,0,0,0,
2026-04-30 12:30:00,METAR ZBTJ 301230Z 20002MPS 170V230 CAVOK 21/07 Q1010 NOSIG,1,0.0,0,9999,0,0,0,
2026-04-30 12:00:00,METAR ZBTJ 301200Z 21003MPS CAVOK 22/07 Q1010 NOSIG,1,0.0,0,9999,0,0,0,
2026-04-30 11:30:00,METAR ZBTJ 301130Z 21004MPS CAVOK 23/07 Q1009 NOSIG,1,0.0,0,9999,0,0,0,
2026-04-30 11:00:00,METAR ZBTJ 301100Z 21004MPS CAVOK 23/06 Q1009 NOSIG,1,0.0,0,9999,0,0,0,
2026-04-30 10:30:00,METAR ZBTJ 301030Z 22004MPS CAVOK 24/03 Q1008 NOSIG,1,0.0,0,9999,0,0,0,
2026-04-30 10:00:00,METAR ZBTJ 301000Z 23004MPS CAVOK 25/03 Q1008 NOSIG,1,0.0,0,9999,0,0,0,
2026-04-30 09:30:00,METAR ZBTJ 300930Z 22005MPS 190V260 CAVOK 26/03 Q1009 NOSIG,1,0.0,0,9999,0,0,0,
2026-04-30 09:00:00,METAR ZBTJ 300900Z 24005MPS 210V270 CAVOK 26/03 Q1009 NOSIG,1,0.0,0,9999,0,0,0,
2026-04-30 08:30:00,METAR ZBTJ 300830Z 22005MPS 190V250 CAVOK 26/03 Q1009 NOSIG,1,0.0,0,9999,0,0,0,
2026-04-30 08:00:00,METAR ZBTJ 300800Z 23004MPS 170V280 CAVOK 26/02 Q1009 NOSIG,1,0.0,0,9999,0,0,0,
2026-04-30 07:30:00,METAR ZBTJ 300730Z 22005MPS 190V280 CAVOK 26/03 Q1009 NOSIG,1,0.0,0,9999,0,0,0,
2026-04-30 07:00:00,METAR ZBTJ 300700Z 24004MPS 170V280 CAVOK 26/03 Q1010 NOSIG,1,0.0,0,9999,0,0,0,
2026-04-30 06:30:00,METAR ZBTJ 300630Z 24004MPS 210V280 CAVOK 26/03 Q1010 NOSIG,1,0.0,0,9999,0,0,0,
2026-04-30 06:00:00,METAR ZBTJ 300600Z 25004MPS 190V290 CAVOK 26/04 Q1011 NOSIG,1,0.0,0,9999,0,0,0,
2026-04-30 05:30:00,METAR ZBTJ 300530Z 25004MPS 220V300 CAVOK 25/03 Q1011 NOSIG,1,0.0,0,9999,0,0,0,
2026-04-30 05:00:00,METAR ZBTJ 300500Z 20004MPS CAVOK 25/04 Q1012 NOSIG,1,0.0,0,9999,0,0,0,
2026-04-30 04:30:00,METAR ZBTJ 300430Z 20004MPS 160V240 CAVOK 25/03 Q1012 NOSIG,1,0.0,0,9999,0,0,0,
2026-04-30 04:00:00,METAR ZBTJ 300400Z 22004MPS 160V250 CAVOK 24/03 Q1013 NOSIG,1,0.0,0,9999,0,0,0,
2026-04-30 03:30:00,METAR ZBTJ 300330Z 22003MPS 160V300 CAVOK 24/04 Q1013 NOSIG,1,0.0,0,9999,0,0,0,
2026-04-30 03:00:00,METAR ZBTJ 300300Z 22004MPS 180V260 CAVOK 23/03 Q1014 NOSIG,1,0.0,0,9999,0,0,0,
2026-04-30 02:30:00,METAR ZBTJ 300230Z 25003MPS 190V290 CAVOK 23/04 Q1014 NOSIG,1,0.0,0,9999,0,0,0,
2026-04-30 02:00:00,METAR ZBTJ 300200Z 23003MPS 200V270 CAVOK 22/04 Q1014 NOSIG,1,0.0,0,9999,0,0,0,
2026-04-30 01:30:00,METAR ZBTJ 300130Z 25004MPS 210V280 CAVOK 21/04 Q1014 NOSIG,1,0.0,0,9999,0,0,0,
2026-04-30 01:00:00,METAR ZBTJ 300100Z 24004MPS 210V280 CAVOK 21/03 Q1015 NOSIG,1,0.0,0,9999,0,0,0,
2026-04-30 00:30:00,METAR ZBTJ 300030Z 23004MPS CAVOK 20/03 Q1015 NOSIG,1,0.0,0,9999,0,0,0,
2026-04-30 00:00:00,METAR ZBTJ 300000Z 24004MPS CAVOK 19/03 Q1015 NOSIG,1,0.0,0,9999,0,0,0,
2026-04-29 23:30:00,METAR ZBTJ 292330Z 24003MPS 210V280 CAVOK 18/04 Q1015 NOSIG,1,0.0,0,9999,0,0,0,
2026-04-29 23:00:00,METAR ZBTJ 292300Z 24003MPS 210V270 CAVOK 17/04 Q1015 NOSIG,1,0.0,0,9999,0,0,0,
2026-04-29 22:30:00,METAR ZBTJ 292230Z 23002MPS CAVOK 16/04 Q1015 NOSIG,1,0.0,0,9999,0,0,0,
2026-04-29 22:00:00,METAR ZBTJ 292200Z VRB01MPS CAVOK 14/04 Q1015 NOSIG,1,0.0,0,9999,0,0,0,
2026-04-29 21:30:00,METAR ZBTJ 292130Z VRB01MPS CAVOK 13/05 Q1014 NOSIG,1,0.0,0,9999,0,0,0,
2026-04-29 21:00:00,METAR ZBTJ 292100Z 25001MPS CAVOK 15/04 Q1015 NOSIG,1,0.0,0,9999,0,0,0,
2026-04-29 20:30:00,METAR ZBTJ 292030Z 26002MPS 220V290 CAVOK 15/04 Q1015 NOSIG,1,0.0,0,9999,0,0,0,
2026-04-29 20:00:00,METAR ZBTJ 292000Z 24003MPS CAVOK 15/04 Q1015 NOSIG,1,0.0,0,9999,0,0,0,
2026-04-29 19:30:00,METAR ZBTJ 291930Z 24002MPS CAVOK 15/05 Q1015 NOSIG,1,0.0,0,9999,0,0,0,
2026-04-29 19:00:00,METAR ZBTJ 291900Z 22002MPS CAVOK 16/05 Q1015 NOSIG,1,0.0,0,9999,0,0,0,
2026-04-29 18:30:00,METAR ZBTJ 291830Z 22002MPS 190V250 CAVOK 16/05 Q1015 NOSIG,1,0.0,0,9999,0,0,0,
2026-04-29 18:00:00,METAR ZBTJ 291800Z 21002MPS 190V250 CAVOK 16/04 Q1015 NOSIG,1,0.0,0,9999,0,0,0,
2026-04-29 17:30:00,METAR ZBTJ 291730Z 22002MPS CAVOK 16/03 Q1016 NOSIG,1,0.0,0,9999,0,0,0,
2026-04-29 17:00:00,METAR ZBTJ 291700Z 22002MPS CAVOK 16/02 Q1016 NOSIG,1,0.0,0,9999,0,0,0,
2026-04-29 16:30:00,METAR ZBTJ 291630Z 22002MPS 190V250 CAVOK 16/02 Q1016 NOSIG,1,0.0,0,9999,0,0,0,
2026-04-29 16:00:00,METAR ZBTJ 291600Z 20002MPS CAVOK 15/03 Q1017 NOSIG,1,0.0,0,9999,0,0,0,
2026-04-29 15:30:00,METAR ZBTJ 291530Z 15002MPS CAVOK 13/04 Q1017 NOSIG,1,0.0,0,9999,0,0,0,
2026-04-29 15:00:00,METAR ZBTJ 291500Z 22001MPS CAVOK 15/03 Q1017 NOSIG,1,0.0,0,9999,0,0,0,
2026-04-29 14:30:00,METAR ZBTJ 291430Z 20001MPS CAVOK 16/02 Q1017 NOSIG,1,0.0,0,9999,0,0,0,
2026-04-29 14:00:00,METAR ZBTJ 291400Z 21002MPS CAVOK 18/M00 Q1017 NOSIG,1,0.0,0,9999,0,0,0,
2026-04-29 13:30:00,METAR ZBTJ 291330Z 20002MPS CAVOK 18/M00 Q1017 NOSIG,1,0.0,0,9999,0,0,0,
2026-04-29 13:00:00,METAR ZBTJ 291300Z 21002MPS CAVOK 19/M00 Q1016 NOSIG,1,0.0,0,9999,0,0,0,
2026-04-29 12:30:00,METAR ZBTJ 291230Z 22002MPS CAVOK 20/M01 Q1016 NOSIG,1,0.0,0,9999,0,0,0,
2026-04-29 12:00:00,METAR ZBTJ 291200Z 23002MPS CAVOK 20/M01 Q1016 NOSIG,1,0.0,0,9999,0,0,0,
2026-04-29 11:30:00,METAR ZBTJ 291130Z 22003MPS 190V250 CAVOK 21/M02 Q1016 NOSIG,1,0.0,0,9999,0,0,0,
2026-04-29 11:00:00,METAR ZBTJ 291100Z 23003MPS CAVOK 21/M02 Q1016 NOSIG,1,0.0,0,9999,0,0,0,
2026-04-29 10:30:00,METAR ZBTJ 291030Z 24003MPS 210V270 CAVOK 22/M02 Q1015 NOSIG,1,0.0,0,9999,0,0,0,
2026-04-29 10:00:00,METAR ZBTJ 291000Z 22004MPS 200V260 CAVOK 22/M02 Q1015 NOSIG,1,0.0,0,9999,0,0,0,
2026-04-29 09:30:00,METAR ZBTJ 290930Z 32002MPS 260V010 CAVOK 23/M03 Q1015 NOSIG,1,0.0,0,9999,0,0,0,
2026-04-29 09:00:00,METAR ZBTJ 290900Z 31003MPS 210V350 CAVOK 23/M04 Q1015 NOSIG,1,0.0,0,9999,0,0,0,
2026-04-29 08:30:00,METAR ZBTJ 290830Z VRB02MPS CAVOK 24/M04 Q1016 NOSIG,1,0.0,0,9999,0,0,0,
2026-04-29 08:00:00,METAR ZBTJ 290800Z VRB03MPS CAVOK 24/M02 Q1016 BECMG TL0930 24005MPS,1,0.0,0,9999,0,0,0,
2026-04-29 07:30:00,METAR ZBTJ 290730Z 29003MPS 220V360 CAVOK 23/M04 Q1016 NOSIG,1,0.0,0,9999,0,0,0,
2026-04-29 07:00:00,METAR ZBTJ 290700Z 33003MPS 290V040 CAVOK 24/M04 Q1017 NOSIG,1,0.0,0,9999,0,0,0,
2026-04-29 06:30:00,METAR ZBTJ 290630Z 26004MPS 210V300 CAVOK 23/M04 Q1017 NOSIG,1,0.0,0,9999,0,0,0,
2026-04-29 06:00:00,METAR ZBTJ 290600Z VRB02MPS CAVOK 23/M05 Q1018 NOSIG,1,0.0,0,9999,0,0,0,
2026-04-29 05:30:00,METAR ZBTJ 290530Z 30004MPS 260V350 CAVOK 23/M05 Q1018 NOSIG,1,0.0,0,9999,0,0,0,
2026-04-29 05:00:00,METAR ZBTJ 290500Z VRB03MPS CAVOK 23/M04 Q1019 NOSIG,1,0.0,0,9999,0,0,0,
2026-04-29 04:30:00,METAR ZBTJ 290430Z 25004MPS CAVOK 22/M05 Q1019 NOSIG,1,0.0,0,9999,0,0,0,
2026-04-29 04:00:00,METAR ZBTJ 290400Z 27004MPS 210V310 CAVOK 22/M04 Q1020 NOSIG,1,0.0,0,9999,0,0,0,
2026-04-29 03:30:00,METAR ZBTJ 290330Z 30002MPS 210V350 CAVOK 22/M03 Q1020 NOSIG,1,0.0,0,9999,0,0,0,
2026-04-29 03:00:00,METAR ZBTJ 290300Z 27004MPS 240V310 CAVOK 21/M03 Q1021 NOSIG,1,0.0,0,9999,0,0,0,
2026-04-29 02:30:00,METAR ZBTJ 290230Z 31002MPS 250V350 CAVOK 21/M00 Q1021 NOSIG,1,0.0,0,9999,0,0,0,
2026-04-29 02:00:00,METAR ZBTJ 290200Z 32003MPS 280V350 CAVOK 20/M01 Q1021 NOSIG,1,0.0,0,9999,0,0,0,
2026-04-29 01:30:00,METAR ZBTJ 290130Z 33003MPS 300V020 CAVOK 20/00 Q1021 NOSIG,1,0.0,0,9999,0,0,0,
2026-04-29 01:00:00,METAR ZBTJ 290100Z 34004MPS 310V010 CAVOK 19/00 Q1021 NOSIG,1,0.0,0,9999,0,0,0,
2026-04-29 00:30:00,METAR ZBTJ 290030Z 32003MPS 290V350 CAVOK 17/01 Q1022 NOSIG,1,0.0,0,9999,0,0,0,
2026-04-29 00:00:00,METAR ZBTJ 290000Z 32003MPS CAVOK 16/02 Q1022 NOSIG,1,0.0,0,9999,0,0,0,
2026-04-28 23:30:00,METAR ZBTJ 282330Z 33004MPS CAVOK 15/03 Q1021 NOSIG,1,0.0,0,9999,0,0,0,
2026-04-28 23:00:00,METAR ZBTJ 282300Z 32003MPS CAVOK 14/03 Q1021 NOSIG,1,0.0,0,9999,0,0,0,
2026-04-28 22:30:00,METAR ZBTJ 282230Z 30002MPS CAVOK 13/06 Q1021 NOSIG,1,0.0,0,9999,0,0,0,
2026-04-28 22:00:00,METAR ZBTJ 282200Z VRB01MPS CAVOK 10/06 Q1021 NOSIG,1,0.0,0,9999,0,0,0,
2026-04-28 21:30:00,METAR ZBTJ 282130Z VRB01MPS CAVOK 11/05 Q1021 NOSIG,1,0.0,0,9999,0,0,0,
2026-04-28 21:00:00,METAR ZBTJ 282100Z 24001MPS CAVOK 09/05 Q1021 NOSIG,1,0.0,0,9999,0,0,0,
2026-04-28 20:30:00,METAR ZBTJ 282030Z 24001MPS CAVOK 09/05 Q1021 NOSIG,1,0.0,0,9999,0,0,0,
2026-04-28 20:00:00,METAR ZBTJ 282000Z 00000MPS CAVOK 11/05 Q1021 NOSIG,1,0.0,0,9999,0,0,0,
2026-04-28 19:30:00,METAR ZBTJ 281930Z VRB01MPS CAVOK 11/05 Q1021 NOSIG,1,0.0,0,9999,0,0,0,
2026-04-28 19:00:00,METAR ZBTJ 281900Z 24002MPS CAVOK 13/05 Q1021 NOSIG,1,0.0,0,9999,0,0,0,
2026-04-28 18:30:00,METAR ZBTJ 281830Z 24002MPS CAVOK 13/05 Q1021 NOSIG,1,0.0,0,9999,0,0,0,
2026-04-28 18:00:00,METAR ZBTJ 281800Z 22001MPS CAVOK 10/06 Q1021 NOSIG,1,0.0,0,9999,0,0,0,
2026-04-28 17:30:00,METAR ZBTJ 281730Z 20001MPS CAVOK 12/06 Q1022 NOSIG,1,0.0,0,9999,0,0,0,
2026-04-28 17:00:00,METAR ZBTJ 281700Z 21002MPS CAVOK 13/05 Q1022 NOSIG,1,0.0,0,9999,0,0,0,
2026-04-28 16:30:00,METAR ZBTJ 281630Z VRB01MPS CAVOK 10/07 Q1022 NOSIG,1,0.0,0,9999,0,0,0,
2026-04-28 16:00:00,METAR ZBTJ 281600Z 00000MPS CAVOK 11/07 Q1022 NOSIG,1,0.0,0,9999,0,0,0,
2026-04-28 15:30:00,METAR ZBTJ 281530Z 23001MPS CAVOK 12/05 Q1022 NOSIG,1,0.0,0,9999,0,0,0,
2026-04-28 15:00:00,METAR ZBTJ 281500Z 21001MPS CAVOK 11/08 Q1022 NOSIG,1,0.0,0,9999,0,0,0,
2026-04-28 14:30:00,METAR ZBTJ 281430Z 22001MPS CAVOK 12/07 Q1022 NOSIG,1,0.0,0,9999,0,0,0,
2026-04-28 14:00:00,METAR ZBTJ 281400Z 20001MPS CAVOK 11/07 Q1022 NOSIG,1,0.0,0,9999,0,0,0,
2026-04-28 13:30:00,METAR ZBTJ 281330Z 22001MPS CAVOK 15/04 Q1022 NOSIG,1,0.0,0,9999,0,0,0,
2026-04-28 13:00:00,METAR ZBTJ 281300Z 23002MPS CAVOK 15/03 Q1022 NOSIG,1,0.0,0,9999,0,0,0,
2026-04-28 12:30:00,METAR ZBTJ 281230Z 24002MPS CAVOK 15/04 Q1021 NOSIG,1,0.0,0,9999,0,0,0,
2026-04-28 12:00:00,METAR ZBTJ 281200Z 25002MPS CAVOK 15/05 Q1021 NOSIG,1,0.0,0,9999,0,0,0,
2026-04-28 11:30:00,METAR ZBTJ 281130Z 26002MPS CAVOK 16/05 Q1021 NOSIG,1,0.0,0,9999,0,0,0,
2026-04-28 11:00:00,METAR ZBTJ 281100Z 00000MPS CAVOK 16/02 Q1020 NOSIG,1,0.0,0,9999,0,0,0,
2026-04-28 10:30:00,METAR ZBTJ 281030Z 20002MPS CAVOK 16/03 Q1020 NOSIG,1,0.0,0,9999,0,0,0,
2026-04-28 10:00:00,METAR ZBTJ 281000Z 12004MPS 080V190 CAVOK 17/01 Q1020 RETS NOSIG,1,0.0,0,9999,0,0,0,
2026-04-28 09:42:00,SPECI ZBTJ 280942Z 07004G10MPS 360V150 9999 -TSRA SCT040 SCT040CB 15/03 Q1020 NOSIG,0,4.0,1,10000,1,0,0,RA
2026-04-28 09:30:00,METAR ZBTJ 280930Z 01009MPS 9999 -TSRA SCT040 SCT040CB 14/04 Q1021 NOSIG,0,9.0,0,10000,1,0,0,RA
2026-04-28 09:17:00,SPECI ZBTJ 280917Z 36007G14MPS 9999 -TSRA BKN040 FEW040CB 17/02 Q1020 NOSIG,0,7.0,1,10000,1,0,0,RA
2026-04-28 09:00:00,METAR ZBTJ 280900Z 21003MPS 170V250 CAVOK 18/04 Q1020 BECMG TL1000 36010G16MPS TSRA,1,0.0,0,9999,0,0,0,
2026-04-28 08:30:00,METAR ZBTJ 280830Z 20004MPS 180V240 CAVOK 18/05 Q1020 NOSIG,1,0.0,0,9999,0,0,0,
2026-04-28 08:00:00,METAR ZBTJ 280800Z 20004MPS 160V240 CAVOK 18/05 Q1020 BECMG TL0930 34008MPS -TSRA,1,0.0,0,9999,0,0,0,
2026-04-28 07:30:00,METAR ZBTJ 280730Z 20002MPS 110V280 CAVOK 18/03 Q1020 NOSIG,1,0.0,0,9999,0,0,0,
2026-04-28 07:00:00,METAR ZBTJ 280700Z VRB03MPS CAVOK 19/04 Q1020 NOSIG,1,0.0,0,9999,0,0,0,
2026-04-28 06:30:00,METAR ZBTJ 280630Z 16003MPS 090V220 CAVOK 17/04 Q1021 NOSIG,1,0.0,0,9999,0,0,0,
2026-04-28 06:00:00,METAR ZBTJ 280600Z 18004MPS 130V220 CAVOK 17/04 Q1021 BECMG TL0730 34005MPS,1,0.0,0,9999,0,0,0,
2026-04-28 05:30:00,METAR ZBTJ 280530Z 09003MPS 050V130 9999 BKN046 16/04 Q1021 NOSIG,0,3.0,0,10000,0,0,0,
2026-04-28 05:00:00,METAR ZBTJ 280500Z 15003MPS 080V200 9999 BKN046 16/03 Q1021 BECMG TL0630 03007MPS,0,3.0,0,10000,0,0,0,
2026-04-28 04:30:00,METAR ZBTJ 280430Z 17004MPS 140V200 9999 SCT046 FEW046CB 15/03 Q1021 RETS NOSIG,0,4.0,0,10000,1,0,0,TS
2026-04-28 04:20:00,SPECI ZBTJ 280420Z 18003MPS 140V200 9999 SCT046 FEW046CB 15/04 Q1021 RETS NOSIG,0,3.0,0,10000,1,0,0,TS
2026-04-28 04:00:00,METAR ZBTJ 280400Z 08004MPS 050V130 9999 TS BKN046 FEW046CB 14/03 Q1021 BECMG TL0500 33005MPS NSW,0,4.0,0,10000,1,0,0,TS
2026-04-28 03:30:00,METAR ZBTJ 280330Z 01007G13MPS 330V040 9999 -TSRA BKN046 FEW046CB 14/02 Q1022 NOSIG,0,7.0,1,10000,1,0,0,RA
2026-04-28 03:17:00,SPECI ZBTJ 280317Z 29003MPS 210V350 9999 -TSRA BKN046 FEW046CB 16/03 Q1021 NOSIG,0,3.0,0,10000,1,0,0,RA
2026-04-28 03:00:00,METAR ZBTJ 280300Z VRB02MPS 9999 BKN040 FEW040TCU 17/04 Q1021 BECMG TL0430 33005MPS,0,2.0,0,10000,0,0,0,
2026-04-28 02:30:00,METAR ZBTJ 280230Z VRB01MPS 9999 SCT040 FEW040TCU 16/04 Q1022 NOSIG,0,1.0,0,10000,0,0,0,
2026-04-28 02:00:00,METAR ZBTJ 280200Z VRB01MPS CAVOK 16/05 Q1022 BECMG TL0350 33005MPS,1,0.0,0,9999,0,0,0,
2026-04-28 01:30:00,METAR ZBTJ 280130Z VRB01MPS CAVOK 15/05 Q1022 NOSIG,1,0.0,0,9999,0,0,0,
2026-04-28 01:00:00,METAR ZBTJ 280100Z VRB01MPS CAVOK 15/05 Q1021 NOSIG,1,0.0,0,9999,0,0,0,
2026-04-28 00:30:00,METAR ZBTJ 280030Z VRB01MPS CAVOK 14/05 Q1021 NOSIG,1,0.0,0,9999,0,0,0,
2026-04-28 00:00:00,METAR ZBTJ 280000Z 36002MPS 320V020 CAVOK 14/06 Q1021 NOSIG,1,0.0,0,9999,0,0,0,
2026-04-27 23:30:00,METAR ZBTJ 272330Z VRB01MPS CAVOK 14/06 Q1021 NOSIG,1,0.0,0,9999,0,0,0,
2026-04-27 23:00:00,METAR ZBTJ 272300Z VRB01MPS CAVOK 13/06 Q1020 NOSIG,1,0.0,0,9999,0,0,0,
2026-04-27 22:30:00,METAR ZBTJ 272230Z 06002MPS CAVOK 12/06 Q1020 NOSIG,1,0.0,0,9999,0,0,0,
2026-04-27 22:00:00,METAR ZBTJ 272200Z 13001MPS CAVOK 11/06 Q1020 NOSIG,1,0.0,0,9999,0,0,0,
2026-04-27 21:30:00,METAR ZBTJ 272130Z 13001MPS CAVOK 11/06 Q1019 NOSIG,1,0.0,0,9999,0,0,0,
2026-04-27 21:00:00,METAR ZBTJ 272100Z VRB01MPS CAVOK 12/05 Q1019 NOSIG,1,0.0,0,9999,0,0,0,
2026-04-27 20:30:00,METAR ZBTJ 272030Z VRB01MPS CAVOK 12/05 Q1019 NOSIG,1,0.0,0,9999,0,0,0,
2026-04-27 20:00:00,METAR ZBTJ 272000Z 05002MPS CAVOK 12/05 Q1019 NOSIG,1,0.0,0,9999,0,0,0,
2026-04-27 19:30:00,METAR ZBTJ 271930Z 05001MPS CAVOK 11/05 Q1019 NOSIG,1,0.0,0,9999,0,0,0,
2026-04-27 19:00:00,METAR ZBTJ 271900Z 00000MPS CAVOK 11/05 Q1019 NOSIG,1,0.0,0,9999,0,0,0,
2026-04-27 18:30:00,METAR ZBTJ 271830Z VRB01MPS CAVOK 11/05 Q1019 NOSIG,1,0.0,0,9999,0,0,0,
2026-04-27 18:00:00,METAR ZBTJ 271800Z VRB01MPS CAVOK 12/04 Q1018 NOSIG,1,0.0,0,9999,0,0,0,
2026-04-27 17:30:00,METAR ZBTJ 271730Z 18001MPS CAVOK 11/04 Q1018 NOSIG,1,0.0,0,9999,0,0,0,
2026-04-27 17:00:00,METAR ZBTJ 271700Z 15002MPS CAVOK 11/04 Q1018 NOSIG,1,0.0,0,9999,0,0,0,
2026-04-27 16:30:00,METAR ZBTJ 271630Z 18002MPS CAVOK 11/04 Q1018 NOSIG,1,0.0,0,9999,0,0,0,
2026-04-27 16:00:00,METAR ZBTJ 271600Z 13002MPS CAVOK 10/05 Q1018 NOSIG,1,0.0,0,9999,0,0,0,
2026-04-27 15:30:00,METAR ZBTJ 271530Z 10002MPS CAVOK 12/06 Q1018 NOSIG,1,0.0,0,9999,0,0,0,
2026-04-27 15:00:00,METAR ZBTJ 271500Z 15003MPS CAVOK 11/05 Q1018 NOSIG,1,0.0,0,9999,0,0,0,
2026-04-27 14:30:00,METAR ZBTJ 271430Z 16003MPS CAVOK 12/06 Q1018 NOSIG,1,0.0,0,9999,0,0,0,
2026-04-27 14:00:00,METAR ZBTJ 271400Z 16003MPS CAVOK 11/06 Q1018 NOSIG,1,0.0,0,9999,0,0,0,
2026-04-27 13:30:00,METAR ZBTJ 271330Z 16003MPS CAVOK 12/06 Q1018 NOSIG,1,0.0,0,9999,0,0,0,
2026-04-27 13:00:00,METAR ZBTJ 271300Z 16004MPS CAVOK 12/07 Q1018 NOSIG,1,0.0,0,9999,0,0,0,
2026-04-27 12:30:00,METAR ZBTJ 271230Z 16004MPS CAVOK 12/07 Q1017 NOSIG,1,0.0,0,9999,0,0,0,
2026-04-27 12:00:00,METAR ZBTJ 271200Z 17004MPS CAVOK 13/07 Q1017 NOSIG,1,0.0,0,9999,0,0,0,
2026-04-27 11:30:00,METAR ZBTJ 271130Z 15004MPS CAVOK 13/07 Q1016 NOSIG,1,0.0,0,9999,0,0,0,
2026-04-27 11:00:00,METAR ZBTJ 271100Z 15006MPS CAVOK 14/07 Q1015 NOSIG,1,0.0,0,9999,0,0,0,
2026-04-27 10:30:00,METAR ZBTJ 271030Z 15005MPS CAVOK 15/08 Q1015 NOSIG,1,0.0,0,9999,0,0,0,
2026-04-27 10:00:00,METAR ZBTJ 271000Z 15005MPS 110V170 9999 FEW046 15/08 Q1014 NOSIG,0,5.0,0,10000,0,0,0,
2026-04-27 09:30:00,METAR ZBTJ 270930Z 13006MPS 9999 FEW046 17/08 Q1014 NOSIG,0,6.0,0,10000,0,0,0,
2026-04-27 09:00:00,METAR ZBTJ 270900Z 02006MPS 350V130 9999 FEW046 22/M00 Q1013 BECMG TL1000 12006MPS,0,6.0,0,10000,0,0,0,
2026-04-27 08:30:00,METAR ZBTJ 270830Z 35008MPS 9999 SCT046 22/M02 Q1012 NOSIG,0,8.0,0,10000,0,0,0,
2026-04-27 08:00:00,METAR ZBTJ 270800Z 36008G13MPS 330V040 9999 SCT046 23/M02 Q1012 BECMG TL0930 08006G11MPS,0,8.0,1,10000,0,0,0,
2026-04-27 07:30:00,METAR ZBTJ 270730Z 01008MPS 9999 SCT046 23/M01 Q1012 NOSIG,0,8.0,0,10000,0,0,0,
2026-04-27 07:00:00,METAR ZBTJ 270700Z 36008MPS 9999 SCT046 23/M01 Q1012 BECMG TL0850 06007G12MPS,0,8.0,0,10000,0,0,0,
2026-04-27 06:30:00,METAR ZBTJ 270630Z 34006MPS 310V010 9999 SCT046 23/M00 Q1012 NOSIG,0,6.0,0,10000,0,0,0,
2026-04-27 06:00:00,METAR ZBTJ 270600Z 34007G12MPS 310V020 9999 SCT046 23/M00 Q1012 NOSIG,0,7.0,1,10000,0,0,0,
2026-04-27 05:30:00,METAR ZBTJ 270530Z 33009MPS 300V010 CAVOK 22/M00 Q1012 NOSIG,1,0.0,0,9999,0,0,0,
2026-04-27 05:00:00,METAR ZBTJ 270500Z 34009G14MPS 300V360 CAVOK 22/00 Q1012 NOSIG,1,0.0,0,9999,0,0,0,
2026-04-27 04:30:00,METAR ZBTJ 270430Z 33012MPS 9999 FEW046 22/00 Q1012 NOSIG,0,12.0,0,10000,0,0,0,
2026-04-27 04:00:00,METAR ZBTJ 270400Z 34010G15MPS 9999 FEW046 22/00 Q1012 NOSIG,0,10.0,1,10000,0,0,0,
2026-04-27 03:30:00,METAR ZBTJ 270330Z 34012MPS 9999 FEW040 22/M00 Q1012 NOSIG,0,12.0,0,10000,0,0,0,
2026-04-27 03:00:00,METAR ZBTJ 270300Z 34013MPS 9999 FEW040 21/01 Q1012 NOSIG,0,13.0,0,10000,0,0,0,
2026-04-27 02:30:00,METAR ZBTJ 270230Z 34012MPS 9999 FEW033 21/02 Q1011 NOSIG,0,12.0,0,10000,0,0,0,
2026-04-27 02:00:00,METAR ZBTJ 270200Z 33012G18MPS 290V350 9999 FEW033 20/02 Q1012 NOSIG,0,12.0,1,10000,0,0,0,
2026-04-27 01:30:00,METAR ZBTJ 270130Z 33007G13MPS 290V360 CAVOK 20/03 Q1012 NOSIG,1,0.0,0,9999,0,0,0,
2026-04-27 01:00:00,METAR ZBTJ 270100Z 33004MPS CAVOK 19/04 Q1011 BECMG TL0230 35009G14MPS,1,0.0,0,9999,0,0,0,
2026-04-27 00:30:00,METAR ZBTJ 270030Z 34002MPS 310V020 CAVOK 17/04 Q1011 NOSIG,1,0.0,0,9999,0,0,0,
2026-04-27 00:00:00,METAR ZBTJ 270000Z 35002MPS 320V030 CAVOK 16/03 Q1011 BECMG TL0130 35008MPS,1,0.0,0,9999,0,0,0,
2026-04-26 23:30:00,METAR ZBTJ 262330Z 01002MPS 330V050 CAVOK 15/04 Q1011 NOSIG,1,0.0,0,9999,0,0,0,
2026-04-26 23:00:00,METAR ZBTJ 262300Z VRB01MPS CAVOK 14/05 Q1011 BECMG TL0030 35005MPS,1,0.0,0,9999,0,0,0,
2026-04-26 22:30:00,METAR ZBTJ 262230Z 01002MPS CAVOK 13/05 Q1011 NOSIG,1,0.0,0,9999,0,0,0,
2026-04-26 22:00:00,METAR ZBTJ 262200Z VRB01MPS CAVOK 13/05 Q1010 NOSIG,1,0.0,0,9999,0,0,0,
2026-04-26 21:30:00,METAR ZBTJ 262130Z 36004MPS CAVOK 13/05 Q1010 NOSIG,1,0.0,0,9999,0,0,0,
2026-04-26 21:00:00,METAR ZBTJ 262100Z 33004MPS CAVOK 12/06 Q1011 NOSIG,1,0.0,0,9999,0,0,0,
2026-04-26 20:30:00,METAR ZBTJ 262030Z 32005MPS CAVOK 12/05 Q1010 NOSIG,1,0.0,0,9999,0,0,0,
2026-04-26 20:00:00,METAR ZBTJ 262000Z 34002MPS CAVOK 11/05 Q1010 NOSIG,1,0.0,0,9999,0,0,0,
2026-04-26 19:30:00,METAR ZBTJ 261930Z 35003MPS CAVOK 10/06 Q1010 NOSIG,1,0.0,0,9999,0,0,0,
2026-04-26 19:00:00,METAR ZBTJ 261900Z 34001MPS CAVOK 11/04 Q1010 NOSIG,1,0.0,0,9999,0,0,0,
2026-04-26 18:30:00,METAR ZBTJ 261830Z VRB01MPS CAVOK 11/05 Q1010 NOSIG,1,0.0,0,9999,0,0,0,
2026-04-26 18:00:00,METAR ZBTJ 261800Z 02003MPS CAVOK 12/04 Q1010 NOSIG,1,0.0,0,9999,0,0,0,
2026-04-26 17:30:00,METAR ZBTJ 261730Z 35002MPS CAVOK 11/04 Q1011 NOSIG,1,0.0,0,9999,0,0,0,
2026-04-26 17:00:00,METAR ZBTJ 261700Z 34002MPS CAVOK 11/04 Q1012 NOSIG,1,0.0,0,9999,0,0,0,
2026-04-26 16:30:00,METAR ZBTJ 261630Z 05001MPS CAVOK 12/03 Q1012 NOSIG,1,0.0,0,9999,0,0,0,
2026-04-26 16:00:00,METAR ZBTJ 261600Z 00000MPS CAVOK 11/03 Q1012 NOSIG,1,0.0,0,9999,0,0,0,
2026-04-26 15:30:00,METAR ZBTJ 261530Z 00000MPS CAVOK 13/02 Q1012 NOSIG,1,0.0,0,9999,0,0,0,
2026-04-26 15:00:00,METAR ZBTJ 261500Z VRB01MPS CAVOK 13/02 Q1013 NOSIG,1,0.0,0,9999,0,0,0,
2026-04-26 14:30:00,METAR ZBTJ 261430Z 02002MPS 320V070 CAVOK 14/02 Q1013 NOSIG,1,0.0,0,9999,0,0,0,
2026-04-26 14:00:00,METAR ZBTJ 261400Z 08001MPS CAVOK 13/02 Q1012 NOSIG,1,0.0,0,9999,0,0,0,
2026-04-26 13:30:00,METAR ZBTJ 261330Z VRB01MPS CAVOK 13/02 Q1012 NOSIG,1,0.0,0,9999,0,0,0,
2026-04-26 13:00:00,METAR ZBTJ 261300Z 15001MPS CAVOK 13/02 Q1012 NOSIG,1,0.0,0,9999,0,0,0,
2026-04-26 12:30:00,METAR ZBTJ 261230Z 12002MPS CAVOK 14/02 Q1012 NOSIG,1,0.0,0,9999,0,0,0,
2026-04-26 12:00:00,METAR ZBTJ 261200Z 12002MPS CAVOK 15/02 Q1012 NOSIG,1,0.0,0,9999,0,0,0,
2026-04-26 11:30:00,METAR ZBTJ 261130Z 13003MPS CAVOK 15/01 Q1011 NOSIG,1,0.0,0,9999,0,0,0,
2026-04-26 11:00:00,METAR ZBTJ 261100Z 12004MPS CAVOK 16/01 Q1011 NOSIG,1,0.0,0,9999,0,0,0,
2026-04-26 10:30:00,METAR ZBTJ 261030Z 12005MPS CAVOK 17/M00 Q1011 NOSIG,1,0.0,0,9999,0,0,0,
2026-04-26 10:00:00,METAR ZBTJ 261000Z 12006MPS CAVOK 17/00 Q1011 NOSIG,1,0.0,0,9999,0,0,0,
2026-04-26 09:30:00,METAR ZBTJ 260930Z 11006MPS CAVOK 18/01 Q1011 NOSIG,1,0.0,0,9999,0,0,0,
2026-04-26 09:00:00,METAR ZBTJ 260900Z 12006MPS CAVOK 18/01 Q1011 NOSIG,1,0.0,0,9999,0,0,0,
2026-04-26 08:30:00,METAR ZBTJ 260830Z 10005MPS CAVOK 18/02 Q1011 NOSIG,1,0.0,0,9999,0,0,0,
2026-04-26 08:00:00,METAR ZBTJ 260800Z 11006MPS CAVOK 18/03 Q1011 NOSIG,1,0.0,0,9999,0,0,0,
2026-04-26 07:30:00,METAR ZBTJ 260730Z 13006MPS 090V150 CAVOK 18/03 Q1011 NOSIG,1,0.0,0,9999,0,0,0,
2026-04-26 07:00:00,METAR ZBTJ 260700Z 12007MPS CAVOK 19/04 Q1012 NOSIG,1,0.0,0,9999,0,0,0,
2026-04-26 06:30:00,METAR ZBTJ 260630Z 10006MPS CAVOK 19/06 Q1012 NOSIG,1,0.0,0,9999,0,0,0,
2026-04-26 06:00:00,METAR ZBTJ 260600Z 08007MPS CAVOK 19/05 Q1012 NOSIG,1,0.0,0,9999,0,0,0,
2026-04-26 05:30:00,METAR ZBTJ 260530Z 10007MPS CAVOK 18/05 Q1012 NOSIG,1,0.0,0,9999,0,0,0,
2026-04-26 05:00:00,METAR ZBTJ 260500Z 11009MPS CAVOK 19/06 Q1012 NOSIG,1,0.0,0,9999,0,0,0,
2026-04-26 04:30:00,METAR ZBTJ 260430Z 10010MPS 9999 BKN040 18/07 Q1011 NOSIG,0,10.0,0,10000,0,0,0,
2026-04-26 04:00:00,METAR ZBTJ 260400Z 09010MPS 9999 BKN040 18/08 Q1011 NOSIG,0,10.0,0,10000,0,0,0,
2026-04-26 03:30:00,METAR ZBTJ 260330Z 06009MPS 9999 OVC040 20/10 Q1011 NOSIG,0,9.0,0,10000,0,0,0,
2026-04-26 03:00:00,METAR ZBTJ 260300Z 04005MPS 9999 OVC040 20/12 Q1011 BECMG TL0430 10007MPS,0,5.0,0,10000,0,0,0,
2026-04-26 02:30:00,METAR ZBTJ 260230Z 04006MPS 9999 OVC040 20/12 Q1011 NOSIG,0,6.0,0,10000,0,0,0,
2026-04-26 02:00:00,METAR ZBTJ 260200Z 02005MPS 9999 OVC040 20/12 Q1010 BECMG TL0300 08007MPS,0,5.0,0,10000,0,0,0,
2026-04-26 01:30:00,METAR ZBTJ 260130Z 02003MPS 360V070 9999 OVC040 20/12 Q1010 NOSIG,0,3.0,0,10000,0,0,0,
2026-04-26 01:00:00,METAR ZBTJ 260100Z VRB01MPS 9999 OVC040 19/11 Q1010 BECMG TL0230 08007MPS,0,1.0,0,10000,0,0,0,
2026-04-26 00:30:00,METAR ZBTJ 260030Z VRB01MPS 9999 OVC033 19/11 Q1010 NOSIG,0,1.0,0,10000,0,0,0,
2026-04-26 00:00:00,METAR ZBTJ 260000Z 22002MPS 190V260 9999 OVC033 19/11 Q1010 NOSIG,0,2.0,0,10000,0,0,0,
2026-04-25 23:30:00,METAR ZBTJ 252330Z VRB01MPS 9999 OVC033 18/11 Q1009 NOSIG,0,1.0,0,10000,0,0,0,
2026-04-25 23:00:00,METAR ZBTJ 252300Z 20002MPS 9999 OVC033 18/11 Q1009 NOSIG,0,2.0,0,10000,0,0,0,
2026-04-25 22:30:00,METAR ZBTJ 252230Z 15002MPS 9999 OVC033 17/11 Q1009 NOSIG,0,2.0,0,10000,0,0,0,
2026-04-25 22:00:00,METAR ZBTJ 252200Z 18002MPS 9999 BKN033 17/11 Q1009 NOSIG,0,2.0,0,10000,0,0,0,
2026-04-25 21:30:00,METAR ZBTJ 252130Z 17002MPS CAVOK 17/10 Q1008 NOSIG,1,0.0,0,9999,0,0,0,
2026-04-25 21:00:00,METAR ZBTJ 252100Z 18002MPS CAVOK 17/10 Q1008 NOSIG,1,0.0,0,9999,0,0,0,
2026-04-25 20:30:00,METAR ZBTJ 252030Z 17002MPS CAVOK 17/10 Q1008 NOSIG,1,0.0,0,9999,0,0,0,
2026-04-25 20:00:00,METAR ZBTJ 252000Z 17001MPS CAVOK 17/10 Q1008 NOSIG,1,0.0,0,9999,0,0,0,
2026-04-25 19:30:00,METAR ZBTJ 251930Z 19003MPS 160V230 CAVOK 18/10 Q1008 NOSIG,1,0.0,0,9999,0,0,0,
2026-04-25 19:00:00,METAR ZBTJ 251900Z 20003MPS 170V230 CAVOK 18/10 Q1007 NOSIG,1,0.0,0,9999,0,0,0,
2026-04-25 18:30:00,METAR ZBTJ 251830Z 19005MPS CAVOK 19/11 Q1007 NOSIG,1,0.0,0,9999,0,0,0,
2026-04-25 18:00:00,METAR ZBTJ 251800Z 18004MPS CAVOK 19/11 Q1007 NOSIG,1,0.0,0,9999,0,0,0,
2026-04-25 17:30:00,METAR ZBTJ 251730Z 19003MPS CAVOK 19/11 Q1008 NOSIG,1,0.0,0,9999,0,0,0,
2026-04-25 17:00:00,METAR ZBTJ 251700Z 19003MPS CAVOK 19/11 Q1008 NOSIG,1,0.0,0,9999,0,0,0,
2026-04-25 16:30:00,METAR ZBTJ 251630Z 20002MPS 150V230 CAVOK 20/11 Q1009 NOSIG,1,0.0,0,9999,0,0,0,
2026-04-25 16:00:00,METAR ZBTJ 251600Z 20004MPS 170V230 CAVOK 20/10 Q1008 NOSIG,1,0.0,0,9999,0,0,0,
2026-04-25 15:30:00,METAR ZBTJ 251530Z 21003MPS 140V250 CAVOK 21/11 Q1009 NOSIG,1,0.0,0,9999,0,0,0,
2026-04-25 15:00:00,METAR ZBTJ 251500Z 20004MPS CAVOK 21/11 Q1009 NOSIG,1,0.0,0,9999,0,0,0,
2026-04-25 14:30:00,METAR ZBTJ 251430Z 21004MPS 180V240 CAVOK 21/11 Q1009 NOSIG,1,0.0,0,9999,0,0,0,
2026-04-25 14:00:00,METAR ZBTJ 251400Z 21002MPS CAVOK 22/11 Q1010 NOSIG,1,0.0,0,9999,0,0,0,
2026-04-25 13:30:00,METAR ZBTJ 251330Z 23003MPS 180V270 CAVOK 22/11 Q1010 NOSIG,1,0.0,0,9999,0,0,0,
2026-04-25 13:00:00,METAR ZBTJ 251300Z 21004MPS 180V240 CAVOK 22/11 Q1010 NOSIG,1,0.0,0,9999,0,0,0,
2026-04-25 12:30:00,METAR ZBTJ 251230Z 21004MPS CAVOK 22/11 Q1009 NOSIG,1,0.0,0,9999,0,0,0,
2026-04-25 12:00:00,METAR ZBTJ 251200Z 21006MPS CAVOK 23/10 Q1009 NOSIG,1,0.0,0,9999,0,0,0,
2026-04-25 11:30:00,METAR ZBTJ 251130Z 21006MPS 180V240 CAVOK 23/11 Q1008 NOSIG,1,0.0,0,9999,0,0,0,
2026-04-25 11:00:00,METAR ZBTJ 251100Z 21005MPS CAVOK 24/12 Q1008 NOSIG,1,0.0,0,9999,0,0,0,
2026-04-25 10:30:00,METAR ZBTJ 251030Z 22005MPS 190V250 CAVOK 24/11 Q1008 NOSIG,1,0.0,0,9999,0,0,0,
2026-04-25 10:00:00,METAR ZBTJ 251000Z 22005G10MPS 190V250 CAVOK 25/08 Q1008 NOSIG,1,0.0,0,9999,0,0,0,
2026-04-25 09:30:00,METAR ZBTJ 250930Z 21007MPS 180V240 CAVOK 26/08 Q1008 NOSIG,1,0.0,0,9999,0,0,0,
2026-04-25 09:00:00,METAR ZBTJ 250900Z 20007MPS 180V240 CAVOK 26/08 Q1008 NOSIG,1,0.0,0,9999,0,0,0,
2026-04-25 08:30:00,METAR ZBTJ 250830Z 19007MPS CAVOK 26/10 Q1008 NOSIG,1,0.0,0,9999,0,0,0,
2026-04-25 08:00:00,METAR ZBTJ 250800Z 22006MPS 200V260 CAVOK 27/12 Q1008 NOSIG,1,0.0,0,9999,0,0,0,
2026-04-25 07:30:00,METAR ZBTJ 250730Z 22008MPS 190V250 CAVOK 27/12 Q1009 NOSIG,1,0.0,0,9999,0,0,0,
2026-04-25 07:00:00,METAR ZBTJ 250700Z 23007MPS 190V260 CAVOK 27/12 Q1009 NOSIG,1,0.0,0,9999,0,0,0,
2026-04-25 06:30:00,METAR ZBTJ 250630Z 23006MPS 190V270 CAVOK 27/12 Q1009 NOSIG,1,0.0,0,9999,0,0,0,
2026-04-25 06:00:00,METAR ZBTJ 250600Z 20007MPS CAVOK 26/12 Q1010 NOSIG,1,0.0,0,9999,0,0,0,
2026-04-25 05:30:00,METAR ZBTJ 250530Z 20007G12MPS 170V230 CAVOK 27/12 Q1010 NOSIG,1,0.0,0,9999,0,0,0,
2026-04-25 05:00:00,METAR ZBTJ 250500Z 20007MPS 170V230 CAVOK 26/13 Q1011 NOSIG,1,0.0,0,9999,0,0,0,
2026-04-25 04:30:00,METAR ZBTJ 250430Z 20005G10MPS 170V230 CAVOK 26/13 Q1011 NOSIG,1,0.0,0,9999,0,0,0,
2026-04-25 04:00:00,METAR ZBTJ 250400Z 22005MPS 190V250 CAVOK 25/13 Q1012 NOSIG,1,0.0,0,9999,0,0,0,
2026-04-25 03:30:00,METAR ZBTJ 250330Z 21005MPS 180V250 CAVOK 24/13 Q1012 NOSIG,1,0.0,0,9999,0,0,0,
2026-04-25 03:00:00,METAR ZBTJ 250300Z 21004MPS 180V290 CAVOK 23/13 Q1013 NOSIG,1,0.0,0,9999,0,0,0,
2026-04-25 02:30:00,METAR ZBTJ 250230Z 23004MPS 190V250 CAVOK 22/13 Q1013 NOSIG,1,0.0,0,9999,0,0,0,
2026-04-25 02:00:00,METAR ZBTJ 250200Z 23004MPS 210V280 CAVOK 21/12 Q1014 NOSIG,1,0.0,0,9999,0,0,0,
2026-04-25 01:30:00,METAR ZBTJ 250130Z 25005MPS 210V290 CAVOK 20/12 Q1014 NOSIG,1,0.0,0,9999,0,0,0,
2026-04-25 01:00:00,METAR ZBTJ 250100Z 23005MPS 200V260 CAVOK 20/12 Q1014 NOSIG,1,0.0,0,9999,0,0,0,
2026-04-25 00:30:00,METAR ZBTJ 250030Z 22005MPS 190V250 CAVOK 19/12 Q1013 NOSIG,1,0.0,0,9999,0,0,0,
2026-04-25 00:00:00,METAR ZBTJ 250000Z 22005MPS 190V250 CAVOK 19/12 Q1013 NOSIG,1,0.0,0,9999,0,0,0,
2026-04-24 23:30:00,METAR ZBTJ 242330Z 22005MPS CAVOK 18/11 Q1014 NOSIG,1,0.0,0,9999,0,0,0,
2026-04-24 23:00:00,METAR ZBTJ 242300Z 21005MPS CAVOK 18/12 Q1013 NOSIG,1,0.0,0,9999,0,0,0,
2026-04-24 22:30:00,METAR ZBTJ 242230Z 19003MPS CAVOK 17/12 Q1013 NOSIG,1,0.0,0,9999,0,0,0,
2026-04-24 22:00:00,METAR ZBTJ 242200Z 20003MPS CAVOK 17/11 Q1013 NOSIG,1,0.0,0,9999,0,0,0,
2026-04-24 21:30:00,METAR ZBTJ 242130Z VRB01MPS CAVOK 17/11 Q1013 NOSIG,1,0.0,0,9999,0,0,0,
2026-04-24 21:00:00,METAR ZBTJ 242100Z 22003MPS 190V250 CAVOK 18/11 Q1013 NOSIG,1,0.0,0,9999,0,0,0,
2026-04-24 20:30:00,METAR ZBTJ 242030Z 23003MPS 200V260 CAVOK 18/11 Q1013 NOSIG,1,0.0,0,9999,0,0,0,
2026-04-24 20:00:00,METAR ZBTJ 242000Z 23003MPS 190V260 CAVOK 18/11 Q1013 NOSIG,1,0.0,0,9999,0,0,0,
2026-04-24 19:30:00,METAR ZBTJ 241930Z 22004MPS 170V250 CAVOK 18/11 Q1013 NOSIG,1,0.0,0,9999,0,0,0,
2026-04-24 19:00:00,METAR ZBTJ 241900Z 22004MPS 190V260 CAVOK 19/11 Q1013 NOSIG,1,0.0,0,9999,0,0,0,
2026-04-24 18:30:00,METAR ZBTJ 241830Z 21003MPS 180V250 CAVOK 19/11 Q1012 NOSIG,1,0.0,0,9999,0,0,0,
2026-04-24 18:00:00,METAR ZBTJ 241800Z 21003MPS 180V240 CAVOK 19/10 Q1012 NOSIG,1,0.0,0,9999,0,0,0,
2026-04-24 17:30:00,METAR ZBTJ 241730Z 20004MPS CAVOK 19/10 Q1012 NOSIG,1,0.0,0,9999,0,0,0,
2026-04-24 17:00:00,METAR ZBTJ 241700Z 21003MPS CAVOK 20/10 Q1013 NOSIG,1,0.0,0,9999,0,0,0,
2026-04-24 16:30:00,METAR ZBTJ 241630Z 19003MPS CAVOK 19/10 Q1013 NOSIG,1,0.0,0,9999,0,0,0,
2026-04-24 16:00:00,METAR ZBTJ 241600Z 18002MPS CAVOK 18/11 Q1013 NOSIG,1,0.0,0,9999,0,0,0,
2026-04-24 15:30:00,METAR ZBTJ 241530Z 19002MPS 160V220 CAVOK 20/10 Q1013 NOSIG,1,0.0,0,9999,0,0,0,
2026-04-24 15:00:00,METAR ZBTJ 241500Z 20002MPS 160V230 CAVOK 21/10 Q1013 NOSIG,1,0.0,0,9999,0,0,0,
2026-04-24 14:30:00,METAR ZBTJ 241430Z 21003MPS CAVOK 21/11 Q1012 NOSIG,1,0.0,0,9999,0,0,0,
2026-04-24 14:00:00,METAR ZBTJ 241400Z 22002MPS 190V250 CAVOK 22/11 Q1012 NOSIG,1,0.0,0,9999,0,0,0,
2026-04-24 13:30:00,METAR ZBTJ 241330Z 23003MPS 200V260 CAVOK 22/11 Q1012 NOSIG,1,0.0,0,9999,0,0,0,
2026-04-24 13:00:00,METAR ZBTJ 241300Z 23004MPS 200V280 CAVOK 23/12 Q1012 NOSIG,1,0.0,0,9999,0,0,0,
2026-04-24 12:30:00,METAR ZBTJ 241230Z 23003MPS 190V260 CAVOK 23/13 Q1011 NOSIG,1,0.0,0,9999,0,0,0,
2026-04-24 12:00:00,METAR ZBTJ 241200Z 24004MPS 200V280 CAVOK 24/13 Q1011 NOSIG,1,0.0,0,9999,0,0,0,
2026-04-24 11:30:00,METAR ZBTJ 241130Z 24004MPS CAVOK 24/12 Q1010 NOSIG,1,0.0,0,9999,0,0,0,
2026-04-24 11:00:00,METAR ZBTJ 241100Z 23004MPS 210V270 CAVOK 25/12 Q1010 NOSIG,1,0.0,0,9999,0,0,0,
2026-04-24 10:30:00,METAR ZBTJ 241030Z 22004MPS 190V250 CAVOK 25/11 Q1009 NOSIG,1,0.0,0,9999,0,0,0,
2026-04-24 10:00:00,METAR ZBTJ 241000Z 22004MPS 190V250 CAVOK 26/10 Q1009 NOSIG,1,0.0,0,9999,0,0,0,
2026-04-24 09:30:00,METAR ZBTJ 240930Z 22004MPS 200V260 CAVOK 26/10 Q1009 NOSIG,1,0.0,0,9999,0,0,0,
2026-04-24 09:00:00,METAR ZBTJ 240900Z 26003MPS 220V290 CAVOK 27/10 Q1009 NOSIG,1,0.0,0,9999,0,0,0,
2026-04-24 08:30:00,METAR ZBTJ 240830Z 22004MPS 180V270 CAVOK 27/10 Q1009 NOSIG,1,0.0,0,9999,0,0,0,
2026-04-24 08:00:00,METAR ZBTJ 240800Z 23004MPS 190V280 CAVOK 27/10 Q1009 NOSIG,1,0.0,0,9999,0,0,0,
2026-04-24 07:30:00,METAR ZBTJ 240730Z 24004MPS 180V290 CAVOK 27/10 Q1009 NOSIG,1,0.0,0,9999,0,0,0,
2026-04-24 07:00:00,METAR ZBTJ 240700Z 25005MPS 220V280 CAVOK 26/10 Q1008 NOSIG,1,0.0,0,9999,0,0,0,
2026-04-24 06:30:00,METAR ZBTJ 240630Z 25004MPS 190V280 CAVOK 26/10 Q1009 NOSIG,1,0.0,0,9999,0,0,0,
2026-04-24 06:00:00,METAR ZBTJ 240600Z 23005MPS 180V270 CAVOK 26/10 Q1009 NOSIG,1,0.0,0,9999,0,0,0,
2026-04-24 05:30:00,METAR ZBTJ 240530Z 23004MPS 170V270 CAVOK 25/10 Q1009 NOSIG,1,0.0,0,9999,0,0,0,
2026-04-24 05:00:00,METAR ZBTJ 240500Z 23004MPS 190V260 CAVOK 25/11 Q1009 NOSIG,1,0.0,0,9999,0,0,0,
2026-04-24 04:30:00,METAR ZBTJ 240430Z 22004MPS 180V260 CAVOK 24/11 Q1010 NOSIG,1,0.0,0,9999,0,0,0,
2026-04-24 04:00:00,METAR ZBTJ 240400Z 25005MPS CAVOK 23/11 Q1010 NOSIG,1,0.0,0,9999,0,0,0,
2026-04-24 03:30:00,METAR ZBTJ 240330Z 23004MPS 190V270 CAVOK 22/11 Q1010 NOSIG,1,0.0,0,9999,0,0,0,
2026-04-24 03:00:00,METAR ZBTJ 240300Z 21004MPS 180V240 CAVOK 21/12 Q1010 NOSIG,1,0.0,0,9999,0,0,0,
2026-04-24 02:30:00,METAR ZBTJ 240230Z 22003MPS 190V250 CAVOK 21/12 Q1011 NOSIG,1,0.0,0,9999,0,0,0,
2026-04-24 02:00:00,METAR ZBTJ 240200Z 22003MPS 140V290 CAVOK 20/11 Q1011 NOSIG,1,0.0,0,9999,0,0,0,
2026-04-24 01:30:00,METAR ZBTJ 240130Z 21004MPS 170V250 CAVOK 19/11 Q1011 NOSIG,1,0.0,0,9999,0,0,0,
2026-04-24 01:00:00,METAR ZBTJ 240100Z 24004MPS 190V260 CAVOK 18/11 Q1011 NOSIG,1,0.0,0,9999,0,0,0,
2026-04-24 00:30:00,METAR ZBTJ 240030Z 23004MPS 180V250 CAVOK 18/11 Q1011 NOSIG,1,0.0,0,9999,0,0,0,
2026-04-24 00:00:00,METAR ZBTJ 240000Z 23003MPS 190V270 CAVOK 17/11 Q1011 NOSIG,1,0.0,0,9999,0,0,0,
2026-04-23 23:30:00,METAR ZBTJ 232330Z 22004MPS 190V250 CAVOK 16/10 Q1011 NOSIG,1,0.0,0,9999,0,0,0,
2026-04-23 23:00:00,METAR ZBTJ 232300Z 21003MPS 180V250 CAVOK 16/10 Q1011 NOSIG,1,0.0,0,9999,0,0,0,
2026-04-23 22:30:00,METAR ZBTJ 232230Z 20003MPS 180V240 CAVOK 15/10 Q1010 NOSIG,1,0.0,0,9999,0,0,0,
2026-04-23 22:00:00,METAR ZBTJ 232200Z 19003MPS 160V230 CAVOK 15/10 Q1010 NOSIG,1,0.0,0,9999,0,0,0,
2026-04-23 21:30:00,METAR ZBTJ 232130Z 19002MPS 150V220 CAVOK 15/10 Q1010 NOSIG,1,0.0,0,9999,0,0,0,
2026-04-23 21:00:00,METAR ZBTJ 232100Z 19002MPS 150V230 CAVOK 15/10 Q1010 NOSIG,1,0.0,0,9999,0,0,0,
2026-04-23 20:30:00,METAR ZBTJ 232030Z 18003MPS CAVOK 15/10 Q1010 NOSIG,1,0.0,0,9999,0,0,0,
2026-04-23 20:00:00,METAR ZBTJ 232000Z 20003MPS 170V230 CAVOK 16/10 Q1010 NOSIG,1,0.0,0,9999,0,0,0,
2026-04-23 19:30:00,METAR ZBTJ 231930Z 20003MPS 170V240 CAVOK 16/10 Q1010 NOSIG,1,0.0,0,9999,0,0,0,
2026-04-23 19:00:00,METAR ZBTJ 231900Z 21003MPS CAVOK 17/10 Q1010 NOSIG,1,0.0,0,9999,0,0,0,
2026-04-23 18:30:00,METAR ZBTJ 231830Z 21003MPS 180V240 CAVOK 17/10 Q1010 NOSIG,1,0.0,0,9999,0,0,0,
2026-04-23 18:00:00,METAR ZBTJ 231800Z 21003MPS 180V250 CAVOK 17/10 Q1010 NOSIG,1,0.0,0,9999,0,0,0,
2026-04-23 17:30:00,METAR ZBTJ 231730Z 21003MPS 170V250 CAVOK 18/10 Q1010 NOSIG,1,0.0,0,9999,0,0,0,
2026-04-23 17:00:00,METAR ZBTJ 231700Z 21003MPS 180V240 CAVOK 18/11 Q1011 NOSIG,1,0.0,0,9999,0,0,0,
2026-04-23 16:30:00,METAR ZBTJ 231630Z 21003MPS 170V260 CAVOK 18/11 Q1011 NOSIG,1,0.0,0,9999,0,0,0,
2026-04-23 16:00:00,METAR ZBTJ 231600Z 21004MPS CAVOK 18/12 Q1011 NOSIG,1,0.0,0,9999,0,0,0,
2026-04-23 15:30:00,METAR ZBTJ 231530Z 21004MPS CAVOK 19/12 Q1011 NOSIG,1,0.0,0,9999,0,0,0,
2026-04-23 15:00:00,METAR ZBTJ 231500Z 21003MPS CAVOK 19/12 Q1011 NOSIG,1,0.0,0,9999,0,0,0,
2026-04-23 14:30:00,METAR ZBTJ 231430Z 21003MPS CAVOK 19/11 Q1011 NOSIG,1,0.0,0,9999,0,0,0,
2026-04-23 14:00:00,METAR ZBTJ 231400Z 21003MPS 180V240 CAVOK 20/11 Q1011 NOSIG,1,0.0,0,9999,0,0,0,
2026-04-23 13:30:00,METAR ZBTJ 231330Z 22004MPS CAVOK 20/11 Q1011 NOSIG,1,0.0,0,9999,0,0,0,
2026-04-23 13:00:00,METAR ZBTJ 231300Z 21004MPS CAVOK 20/11 Q1011 NOSIG,1,0.0,0,9999,0,0,0,
2026-04-23 12:30:00,METAR ZBTJ 231230Z 19003MPS 170V230 CAVOK 20/11 Q1010 NOSIG,1,0.0,0,9999,0,0,0,
2026-04-23 12:00:00,METAR ZBTJ 231200Z 20004MPS CAVOK 21/11 Q1010 NOSIG,1,0.0,0,9999,0,0,0,
2026-04-23 11:30:00,METAR ZBTJ 231130Z 20004MPS CAVOK 21/11 Q1010 NOSIG,1,0.0,0,9999,0,0,0,
2026-04-23 11:00:00,METAR ZBTJ 231100Z 21004MPS 180V250 CAVOK 22/09 Q1010 NOSIG,1,0.0,0,9999,0,0,0,
2026-04-23 10:30:00,METAR ZBTJ 231030Z 20005MPS 180V240 CAVOK 22/09 Q1009 NOSIG,1,0.0,0,9999,0,0,0,
2026-04-23 10:00:00,METAR ZBTJ 231000Z 20005MPS 160V230 CAVOK 23/09 Q1009 NOSIG,1,0.0,0,9999,0,0,0,
2026-04-23 09:30:00,METAR ZBTJ 230930Z 20004MPS 180V240 CAVOK 23/08 Q1009 NOSIG,1,0.0,0,9999,0,0,0,
2026-04-23 09:00:00,METAR ZBTJ 230900Z 22004MPS 190V260 CAVOK 24/08 Q1009 NOSIG,1,0.0,0,9999,0,0,0,
2026-04-23 08:30:00,METAR ZBTJ 230830Z 21005MPS 170V260 CAVOK 24/08 Q1009 NOSIG,1,0.0,0,9999,0,0,0,
2026-04-23 08:00:00,METAR ZBTJ 230800Z 21004MPS 160V250 CAVOK 24/08 Q1009 NOSIG,1,0.0,0,9999,0,0,0,
2026-04-23 07:30:00,METAR ZBTJ 230730Z 20005MPS 170V240 CAVOK 24/08 Q1009 NOSIG,1,0.0,0,9999,0,0,0,
2026-04-23 07:00:00,METAR ZBTJ 230700Z 19006MPS 160V220 CAVOK 24/08 Q1010 NOSIG,1,0.0,0,9999,0,0,0,
2026-04-23 06:30:00,METAR ZBTJ 230630Z 20005MPS CAVOK 23/07 Q1010 NOSIG,1,0.0,0,9999,0,0,0,
2026-04-23 06:00:00,METAR ZBTJ 230600Z 23005MPS 180V260 CAVOK 24/07 Q1010 NOSIG,1,0.0,0,9999,0,0,0,
2026-04-23 05:30:00,METAR ZBTJ 230530Z 20005MPS 160V240 CAVOK 23/06 Q1011 NOSIG,1,0.0,0,9999,0,0,0,
2026-04-23 05:00:00,METAR ZBTJ 230500Z 21005MPS 170V280 CAVOK 23/07 Q1011 NOSIG,1,0.0,0,9999,0,0,0,
2026-04-23 04:30:00,METAR ZBTJ 230430Z 19004MPS 150V240 CAVOK 23/07 Q1011 NOSIG,1,0.0,0,9999,0,0,0,
2026-04-23 04:00:00,METAR ZBTJ 230400Z 28003MPS 240V330 CAVOK 23/09 Q1012 NOSIG,1,0.0,0,9999,0,0,0,
2026-04-23 03:30:00,METAR ZBTJ 230330Z 25004MPS 200V280 CAVOK 21/08 Q1012 NOSIG,1,0.0,0,9999,0,0,0,
2026-04-23 03:00:00,METAR ZBTJ 230300Z 23004MPS 190V270 CAVOK 22/08 Q1012 NOSIG,1,0.0,0,9999,0,0,0,
2026-04-23 02:30:00,METAR ZBTJ 230230Z 21004MPS 170V240 CAVOK 21/08 Q1013 NOSIG,1,0.0,0,9999,0,0,0,
2026-04-23 02:00:00,METAR ZBTJ 230200Z 22005MPS 180V260 CAVOK 20/07 Q1013 NOSIG,1,0.0,0,9999,0,0,0,
2026-04-23 01:30:00,METAR ZBTJ 230130Z 20004MPS CAVOK 20/09 Q1013 NOSIG,1,0.0,0,9999,0,0,0,
2026-04-23 01:00:00,METAR ZBTJ 230100Z 19003MPS 160V220 CAVOK 19/10 Q1013 NOSIG,1,0.0,0,9999,0,0,0,
2026-04-23 00:30:00,METAR ZBTJ 230030Z 19002MPS 140V230 8000 NSC 18/10 Q1013 NOSIG,0,2.0,0,8000,0,0,0,
2026-04-23 00:00:00,METAR ZBTJ 230000Z VRB01MPS 6000 NSC 16/11 Q1013 NOSIG,0,1.0,0,6000,0,0,0,
2026-04-22 23:30:00,METAR ZBTJ 222330Z VRB01MPS 5000 BR NSC 15/11 Q1013 NOSIG,0,1.0,0,5000,0,0,1,BR
2026-04-22 23:00:00,METAR ZBTJ 222300Z 13001MPS 5000 BR NSC 13/10 Q1013 NOSIG,0,1.0,0,5000,0,0,1,BR
2026-04-22 22:30:00,METAR ZBTJ 222230Z 13001MPS 5000 BR NSC 12/09 Q1013 NOSIG,0,1.0,0,5000,0,0,1,BR
2026-04-22 22:00:00,METAR ZBTJ 222200Z 14002MPS 5000 BR NSC 11/08 Q1013 NOSIG,0,2.0,0,5000,0,0,1,BR
2026-04-22 21:30:00,METAR ZBTJ 222130Z 09001MPS 5000 BR NSC 11/08 Q1013 NOSIG,0,1.0,0,5000,0,0,1,BR
2026-04-22 21:00:00,METAR ZBTJ 222100Z 05001MPS 6000 NSC 12/09 Q1013 NOSIG,0,1.0,0,6000,0,0,0,
2026-04-22 20:30:00,METAR ZBTJ 222030Z 00000MPS 6000 NSC 12/08 Q1013 NOSIG,0,0.0,0,6000,0,0,0,
2026-04-22 20:00:00,METAR ZBTJ 222000Z 11001MPS 6000 NSC 12/08 Q1013 NOSIG,0,1.0,0,6000,0,0,0,
2026-04-22 19:30:00,METAR ZBTJ 221930Z VRB01MPS 6000 NSC 12/08 Q1013 NOSIG,0,1.0,0,6000,0,0,0,
2026-04-22 19:00:00,METAR ZBTJ 221900Z 14001MPS 6000 NSC 11/08 Q1013 NOSIG,0,1.0,0,6000,0,0,0,
2026-04-22 18:30:00,METAR ZBTJ 221830Z VRB01MPS 6000 NSC 12/08 Q1013 NOSIG,0,1.0,0,6000,0,0,0,
2026-04-22 18:00:00,METAR ZBTJ 221800Z 13001MPS 7000 NSC 11/08 Q1014 NOSIG,0,1.0,0,7000,0,0,0,
2026-04-22 17:30:00,METAR ZBTJ 221730Z 10001MPS 7000 NSC 12/08 Q1014 NOSIG,0,1.0,0,7000,0,0,0,
2026-04-22 17:00:00,METAR ZBTJ 221700Z 11001MPS 7000 NSC 12/08 Q1014 NOSIG,0,1.0,0,7000,0,0,0,
2026-04-22 16:30:00,METAR ZBTJ 221630Z VRB01MPS 7000 NSC 12/08 Q1014 NOSIG,0,1.0,0,7000,0,0,0,
2026-04-22 16:00:00,METAR ZBTJ 221600Z 12001MPS 7000 NSC 12/08 Q1015 NOSIG,0,1.0,0,7000,0,0,0,
2026-04-22 15:30:00,METAR ZBTJ 221530Z 14003MPS 8000 NSC 12/09 Q1015 NOSIG,0,3.0,0,8000,0,0,0,
2026-04-22 15:00:00,METAR ZBTJ 221500Z 18002MPS 8000 NSC 13/09 Q1015 NOSIG,0,2.0,0,8000,0,0,0,
2026-04-22 14:30:00,METAR ZBTJ 221430Z 13003MPS CAVOK 13/08 Q1015 NOSIG,1,0.0,0,9999,0,0,0,
2026-04-22 14:00:00,METAR ZBTJ 221400Z 15003MPS CAVOK 13/08 Q1015 NOSIG,1,0.0,0,9999,0,0,0,
2026-04-22 13:30:00,METAR ZBTJ 221330Z 15004MPS CAVOK 13/08 Q1014 NOSIG,1,0.0,0,9999,0,0,0,
2026-04-22 13:00:00,METAR ZBTJ 221300Z 16004MPS CAVOK 14/08 Q1014 NOSIG,1,0.0,0,9999,0,0,0,
2026-04-22 12:30:00,METAR ZBTJ 221230Z 15004MPS CAVOK 15/07 Q1014 NOSIG,1,0.0,0,9999,0,0,0,
2026-04-22 12:00:00,METAR ZBTJ 221200Z 15004MPS CAVOK 15/06 Q1013 NOSIG,1,0.0,0,9999,0,0,0,
2026-04-22 11:30:00,METAR ZBTJ 221130Z 15004MPS CAVOK 16/07 Q1013 NOSIG,1,0.0,0,9999,0,0,0,
2026-04-22 11:00:00,METAR ZBTJ 221100Z 15004MPS CAVOK 16/08 Q1012 NOSIG,1,0.0,0,9999,0,0,0,
2026-04-22 10:30:00,METAR ZBTJ 221030Z 15005MPS CAVOK 18/08 Q1012 NOSIG,1,0.0,0,9999,0,0,0,
2026-04-22 10:00:00,METAR ZBTJ 221000Z 14005MPS CAVOK 19/09 Q1012 NOSIG,1,0.0,0,9999,0,0,0,
2026-04-22 09:30:00,METAR ZBTJ 220930Z 16005MPS CAVOK 20/09 Q1012 NOSIG,1,0.0,0,9999,0,0,0,
2026-04-22 09:00:00,METAR ZBTJ 220900Z 16005MPS CAVOK 20/09 Q1012 NOSIG,1,0.0,0,9999,0,0,0,
2026-04-22 08:30:00,METAR ZBTJ 220830Z 15005MPS CAVOK 21/09 Q1012 NOSIG,1,0.0,0,9999,0,0,0,
2026-04-22 08:00:00,METAR ZBTJ 220800Z 14004MPS 100V180 CAVOK 22/10 Q1012 NOSIG,1,0.0,0,9999,0,0,0,
2026-04-22 07:30:00,METAR ZBTJ 220730Z 17003MPS 090V220 CAVOK 22/08 Q1012 NOSIG,1,0.0,0,9999,0,0,0,
2026-04-22 07:00:00,METAR ZBTJ 220700Z 21004MPS 180V240 CAVOK 21/08 Q1013 NOSIG,1,0.0,0,9999,0,0,0,
2026-04-22 06:30:00,METAR ZBTJ 220630Z 19004MPS 130V220 CAVOK 21/08 Q1013 NOSIG,1,0.0,0,9999,0,0,0,
2026-04-22 06:00:00,METAR ZBTJ 220600Z 19004MPS 130V250 CAVOK 22/08 Q1013 NOSIG,1,0.0,0,9999,0,0,0,
2026-04-22 05:30:00,METAR ZBTJ 220530Z 15005MPS CAVOK 21/08 Q1013 NOSIG,1,0.0,0,9999,0,0,0,
2026-04-22 05:00:00,METAR ZBTJ 220500Z 17004MPS 130V210 CAVOK 21/08 Q1013 NOSIG,1,0.0,0,9999,0,0,0,
2026-04-22 04:30:00,METAR ZBTJ 220430Z VRB02MPS CAVOK 22/08 Q1014 NOSIG,1,0.0,0,9999,0,0,0,
2026-04-22 04:00:00,METAR ZBTJ 220400Z VRB03MPS CAVOK 21/07 Q1014 NOSIG,1,0.0,0,9999,0,0,0,
2026-04-22 03:30:00,METAR ZBTJ 220330Z 20003MPS 100V250 CAVOK 20/07 Q1014 NOSIG,1,0.0,0,9999,0,0,0,
2026-04-22 03:00:00,METAR ZBTJ 220300Z 14003MPS 100V180 CAVOK 20/07 Q1014 NOSIG,1,0.0,0,9999,0,0,0,
2026-04-22 02:30:00,METAR ZBTJ 220230Z 17003MPS 080V230 CAVOK 19/07 Q1014 NOSIG,1,0.0,0,9999,0,0,0,
2026-04-22 02:00:00,METAR ZBTJ 220200Z VRB01MPS CAVOK 18/08 Q1014 NOSIG,1,0.0,0,9999,0,0,0,
2026-04-22 01:30:00,METAR ZBTJ 220130Z 16002MPS 100V210 CAVOK 17/07 Q1014 NOSIG,1,0.0,0,9999,0,0,0,
2026-04-22 01:00:00,METAR ZBTJ 220100Z VRB01MPS CAVOK 16/07 Q1014 NOSIG,1,0.0,0,9999,0,0,0,
2026-04-22 00:30:00,METAR ZBTJ 220030Z 21002MPS 160V330 CAVOK 15/07 Q1014 NOSIG,1,0.0,0,9999,0,0,0,
2026-04-22 00:00:00,METAR ZBTJ 220000Z 19002MPS 140V240 CAVOK 14/06 Q1014 NOSIG,1,0.0,0,9999,0,0,0,
2026-04-21 23:30:00,METAR ZBTJ 212330Z 15002MPS 130V190 CAVOK 14/07 Q1014 NOSIG,1,0.0,0,9999,0,0,0,
2026-04-21 23:00:00,METAR ZBTJ 212300Z 16003MPS CAVOK 13/07 Q1014 NOSIG,1,0.0,0,9999,0,0,0,
2026-04-21 22:30:00,METAR ZBTJ 212230Z VRB01MPS CAVOK 11/07 Q1013 NOSIG,1,0.0,0,9999,0,0,0,
2026-04-21 22:00:00,METAR ZBTJ 212200Z 09001MPS CAVOK 11/07 Q1013 NOSIG,1,0.0,0,9999,0,0,0,
2026-04-21 21:30:00,METAR ZBTJ 212130Z VRB01MPS CAVOK 10/05 Q1013 NOSIG,1,0.0,0,9999,0,0,0,
2026-04-21 21:00:00,METAR ZBTJ 212100Z VRB01MPS CAVOK 11/06 Q1013 NOSIG,1,0.0,0,9999,0,0,0,
2026-04-21 20:30:00,METAR ZBTJ 212030Z 22002MPS CAVOK 12/06 Q1012 NOSIG,1,0.0,0,9999,0,0,0,
2026-04-21 20:00:00,METAR ZBTJ 212000Z 22002MPS 190V260 CAVOK 12/05 Q1012 NOSIG,1,0.0,0,9999,0,0,0,
2026-04-21 19:30:00,METAR ZBTJ 211930Z 22003MPS CAVOK 13/05 Q1012 NOSIG,1,0.0,0,9999,0,0,0,
2026-04-21 19:00:00,METAR ZBTJ 211900Z 23004MPS 200V260 CAVOK 13/05 Q1012 NOSIG,1,0.0,0,9999,0,0,0,
2026-04-21 18:30:00,METAR ZBTJ 211830Z 24004MPS CAVOK 13/05 Q1012 NOSIG,1,0.0,0,9999,0,0,0,
2026-04-21 18:00:00,METAR ZBTJ 211800Z 23004MPS 210V270 CAVOK 14/05 Q1012 NOSIG,1,0.0,0,9999,0,0,0,
2026-04-21 17:30:00,METAR ZBTJ 211730Z 23005MPS CAVOK 14/05 Q1012 NOSIG,1,0.0,0,9999,0,0,0,
2026-04-21 17:00:00,METAR ZBTJ 211700Z 23007MPS 200V260 CAVOK 14/05 Q1012 NOSIG,1,0.0,0,9999,0,0,0,
2026-04-21 16:30:00,METAR ZBTJ 211630Z 23005MPS 190V260 CAVOK 15/04 Q1013 NOSIG,1,0.0,0,9999,0,0,0,
2026-04-21 16:00:00,METAR ZBTJ 211600Z 23005G10MPS 200V260 CAVOK 15/04 Q1012 NOSIG,1,0.0,0,9999,0,0,0,
2026-04-21 15:30:00,METAR ZBTJ 211530Z 24006MPS 210V270 CAVOK 16/04 Q1012 NOSIG,1,0.0,0,9999,0,0,0,
2026-04-21 15:00:00,METAR ZBTJ 211500Z 24006MPS 200V270 CAVOK 16/04 Q1012 NOSIG,1,0.0,0,9999,0,0,0,
2026-04-21 14:30:00,METAR ZBTJ 211430Z 24006MPS 210V270 CAVOK 16/05 Q1012 NOSIG,1,0.0,0,9999,0,0,0,
2026-04-21 14:00:00,METAR ZBTJ 211400Z 23005G10MPS 210V280 CAVOK 16/05 Q1012 NOSIG,1,0.0,0,9999,0,0,0,
2026-04-21 13:30:00,METAR ZBTJ 211330Z 24006MPS CAVOK 17/06 Q1012 NOSIG,1,0.0,0,9999,0,0,0,
2026-04-21 13:00:00,METAR ZBTJ 211300Z 23006G11MPS CAVOK 17/07 Q1012 NOSIG,1,0.0,0,9999,0,0,0,
2026-04-21 12:30:00,METAR ZBTJ 211230Z 23005MPS 200V260 CAVOK 17/07 Q1012 NOSIG,1,0.0,0,9999,0,0,0,
2026-04-21 12:00:00,METAR ZBTJ 211200Z 22006MPS CAVOK 18/07 Q1012 NOSIG,1,0.0,0,9999,0,0,0,
2026-04-21 11:30:00,METAR ZBTJ 211130Z 23005MPS 190V260 CAVOK 18/06 Q1011 NOSIG,1,0.0,0,9999,0,0,0,
2026-04-21 11:00:00,METAR ZBTJ 211100Z 23005MPS 190V250 CAVOK 19/05 Q1011 NOSIG,1,0.0,0,9999,0,0,0,
2026-04-21 10:30:00,METAR ZBTJ 211030Z 22005MPS 190V270 CAVOK 19/05 Q1011 NOSIG,1,0.0,0,9999,0,0,0,
2026-04-21 10:00:00,METAR ZBTJ 211000Z 23005MPS 200V270 CAVOK 20/05 Q1011 NOSIG,1,0.0,0,9999,0,0,0,
2026-04-21 09:30:00,METAR ZBTJ 210930Z 24006MPS CAVOK 21/04 Q1011 NOSIG,1,0.0,0,9999,0,0,0,
2026-04-21 09:00:00,METAR ZBTJ 210900Z 23006MPS 190V260 CAVOK 21/03 Q1011 NOSIG,1,0.0,0,9999,0,0,0,
2026-04-21 08:30:00,METAR ZBTJ 210830Z 22006MPS CAVOK 22/03 Q1011 NOSIG,1,0.0,0,9999,0,0,0,
2026-04-21 08:00:00,METAR ZBTJ 210800Z 22006MPS 190V250 CAVOK 22/02 Q1011 NOSIG,1,0.0,0,9999,0,0,0,
2026-04-21 07:30:00,METAR ZBTJ 210730Z 22007MPS 190V250 CAVOK 23/00 Q1011 NOSIG,1,0.0,0,9999,0,0,0,
2026-04-21 07:00:00,METAR ZBTJ 210700Z 22006MPS 190V260 CAVOK 23/M01 Q1012 NOSIG,1,0.0,0,9999,0,0,0,
2026-04-21 06:30:00,METAR ZBTJ 210630Z 24006MPS 200V280 CAVOK 24/M01 Q1012 NOSIG,1,0.0,0,9999,0,0,0,
2026-04-21 06:00:00,METAR ZBTJ 210600Z 21007MPS CAVOK 25/01 Q1012 NOSIG,1,0.0,0,9999,0,0,0,
2026-04-21 05:30:00,METAR ZBTJ 210530Z 23006MPS 190V260 CAVOK 24/02 Q1012 NOSIG,1,0.0,0,9999,0,0,0,
2026-04-21 05:00:00,METAR ZBTJ 210500Z 24005MPS 200V270 CAVOK 23/05 Q1013 NOSIG,1,0.0,0,9999,0,0,0,
2026-04-21 04:30:00,METAR ZBTJ 210430Z 21004MPS 180V250 CAVOK 22/06 Q1013 NOSIG,1,0.0,0,9999,0,0,0,
2026-04-21 04:00:00,METAR ZBTJ 210400Z 23005MPS 190V270 CAVOK 22/06 Q1014 NOSIG,1,0.0,0,9999,0,0,0,
2026-04-21 03:30:00,METAR ZBTJ 210330Z 23004MPS 180V270 CAVOK 21/07 Q1014 NOSIG,1,0.0,0,9999,0,0,0,
2026-04-21 03:00:00,METAR ZBTJ 210300Z 21004MPS 180V250 CAVOK 21/06 Q1015 NOSIG,1,0.0,0,9999,0,0,0,
2026-04-21 02:30:00,METAR ZBTJ 210230Z 24004MPS 210V270 CAVOK 20/05 Q1015 NOSIG,1,0.0,0,9999,0,0,0,
2026-04-21 02:00:00,METAR ZBTJ 210200Z 23003MPS 180V280 CAVOK 19/05 Q1015 NOSIG,1,0.0,0,9999,0,0,0,
2026-04-21 01:30:00,METAR ZBTJ 210130Z 24004MPS 210V270 CAVOK 18/04 Q1015 NOSIG,1,0.0,0,9999,0,0,0,
2026-04-21 01:00:00,METAR ZBTJ 210100Z 25004MPS 220V280 CAVOK 17/05 Q1015 NOSIG,1,0.0,0,9999,0,0,0,
2026-04-21 00:30:00,METAR ZBTJ 210030Z 24005MPS CAVOK 16/05 Q1015 NOSIG,1,0.0,0,9999,0,0,0,
2026-04-21 00:00:00,METAR ZBTJ 210000Z 24003MPS 210V270 CAVOK 15/06 Q1015 NOSIG,1,0.0,0,9999,0,0,0,
2026-04-20 23:30:00,METAR ZBTJ 202330Z 24004MPS 210V270 CAVOK 14/06 Q1015 NOSIG,1,0.0,0,9999,0,0,0,
2026-04-20 23:00:00,METAR ZBTJ 202300Z 24004MPS CAVOK 13/05 Q1015 NOSIG,1,0.0,0,9999,0,0,0,
2026-04-20 22:30:00,METAR ZBTJ 202230Z 23004MPS CAVOK 13/05 Q1015 NOSIG,1,0.0,0,9999,0,0,0,
2026-04-20 22:00:00,METAR ZBTJ 202200Z 23003MPS CAVOK 13/04 Q1015 NOSIG,1,0.0,0,9999,0,0,0,
2026-04-20 21:30:00,METAR ZBTJ 202130Z 23003MPS 200V260 CAVOK 13/04 Q1015 NOSIG,1,0.0,0,9999,0,0,0,
2026-04-20 21:00:00,METAR ZBTJ 202100Z 23003MPS CAVOK 13/03 Q1015 NOSIG,1,0.0,0,9999,0,0,0,
2026-04-20 20:30:00,METAR ZBTJ 202030Z 24003MPS CAVOK 13/03 Q1015 NOSIG,1,0.0,0,9999,0,0,0,
2026-04-20 20:00:00,METAR ZBTJ 202000Z 23004MPS 200V260 CAVOK 13/03 Q1015 NOSIG,1,0.0,0,9999,0,0,0,
2026-04-20 19:30:00,METAR ZBTJ 201930Z 24003MPS 210V270 CAVOK 14/03 Q1015 NOSIG,1,0.0,0,9999,0,0,0,
2026-04-20 19:00:00,METAR ZBTJ 201900Z 23004MPS CAVOK 14/03 Q1016 NOSIG,1,0.0,0,9999,0,0,0,
2026-04-20 18:30:00,METAR ZBTJ 201830Z 24004MPS 210V270 CAVOK 14/02 Q1016 NOSIG,1,0.0,0,9999,0,0,0,
2026-04-20 18:00:00,METAR ZBTJ 201800Z 24004MPS 210V270 CAVOK 14/03 Q1016 NOSIG,1,0.0,0,9999,0,0,0,
2026-04-20 17:30:00,METAR ZBTJ 201730Z 24004MPS CAVOK 14/02 Q1016 NOSIG,1,0.0,0,9999,0,0,0,
2026-04-20 17:00:00,METAR ZBTJ 201700Z 24004MPS 210V270 CAVOK 15/01 Q1016 NOSIG,1,0.0,0,9999,0,0,0,
2026-04-20 16:30:00,METAR ZBTJ 201630Z 24005MPS CAVOK 15/01 Q1016 NOSIG,1,0.0,0,9999,0,0,0,
2026-04-20 16:00:00,METAR ZBTJ 201600Z 24004MPS CAVOK 15/01 Q1016 NOSIG,1,0.0,0,9999,0,0,0,
2026-04-20 15:30:00,METAR ZBTJ 201530Z 23005MPS CAVOK 15/01 Q1016 NOSIG,1,0.0,0,9999,0,0,0,
2026-04-20 15:00:00,METAR ZBTJ 201500Z 24006MPS CAVOK 15/02 Q1016 NOSIG,1,0.0,0,9999,0,0,0,
2026-04-20 14:30:00,METAR ZBTJ 201430Z 24007MPS CAVOK 16/02 Q1015 NOSIG,1,0.0,0,9999,0,0,0,
2026-04-20 14:00:00,METAR ZBTJ 201400Z 24006MPS 200V260 CAVOK 16/02 Q1015 NOSIG,1,0.0,0,9999,0,0,0,
2026-04-20 13:30:00,METAR ZBTJ 201330Z 23006MPS CAVOK 16/00 Q1015 NOSIG,1,0.0,0,9999,0,0,0,
2026-04-20 13:00:00,METAR ZBTJ 201300Z 24006MPS CAVOK 17/M01 Q1015 NOSIG,1,0.0,0,9999,0,0,0,
2026-04-20 12:30:00,METAR ZBTJ 201230Z 24006MPS CAVOK 17/M01 Q1015 NOSIG,1,0.0,0,9999,0,0,0,
2026-04-20 12:00:00,METAR ZBTJ 201200Z 24006MPS CAVOK 18/M01 Q1015 NOSIG,1,0.0,0,9999,0,0,0,
2026-04-20 11:30:00,METAR ZBTJ 201130Z 24006MPS 200V290 CAVOK 18/M04 Q1014 NOSIG,1,0.0,0,9999,0,0,0,
2026-04-20 11:00:00,METAR ZBTJ 201100Z 24006MPS CAVOK 19/M05 Q1014 NOSIG,1,0.0,0,9999,0,0,0,
2026-04-20 10:30:00,METAR ZBTJ 201030Z 25006MPS 220V280 CAVOK 19/M04 Q1014 NOSIG,1,0.0,0,9999,0,0,0,
2026-04-20 10:00:00,METAR ZBTJ 201000Z 24006MPS 210V270 CAVOK 20/M05 Q1014 NOSIG,1,0.0,0,9999,0,0,0,
2026-04-20 09:30:00,METAR ZBTJ 200930Z 24006MPS 210V280 CAVOK 20/M05 Q1013 NOSIG,1,0.0,0,9999,0,0,0,
2026-04-20 09:00:00,METAR ZBTJ 200900Z 25006MPS CAVOK 21/M07 Q1014 NOSIG,1,0.0,0,9999,0,0,0,
2026-04-20 08:30:00,METAR ZBTJ 200830Z 25006MPS 220V290 CAVOK 21/M06 Q1014 NOSIG,1,0.0,0,9999,0,0,0,
2026-04-20 08:00:00,METAR ZBTJ 200800Z 24006MPS 210V270 CAVOK 21/M08 Q1014 NOSIG,1,0.0,0,9999,0,0,0,
2026-04-20 07:30:00,METAR ZBTJ 200730Z 25007MPS 210V290 CAVOK 20/M07 Q1014 NOSIG,1,0.0,0,9999,0,0,0,
2026-04-20 07:00:00,METAR ZBTJ 200700Z 26006MPS 210V290 CAVOK 20/M07 Q1015 NOSIG,1,0.0,0,9999,0,0,0,
2026-04-20 06:30:00,METAR ZBTJ 200630Z 25007MPS 210V290 CAVOK 20/M06 Q1015 NOSIG,1,0.0,0,9999,0,0,0,
2026-04-20 06:00:00,METAR ZBTJ 200600Z 26006MPS 220V290 CAVOK 19/M07 Q1016 NOSIG,1,0.0,0,9999,0,0,0,
2026-04-20 05:30:00,METAR ZBTJ 200530Z 25006MPS 210V290 CAVOK 19/M08 Q1016 NOSIG,1,0.0,0,9999,0,0,0,
2026-04-20 05:00:00,METAR ZBTJ 200500Z 26006MPS 220V300 CAVOK 18/M08 Q1017 NOSIG,1,0.0,0,9999,0,0,0,
2026-04-20 04:30:00,METAR ZBTJ 200430Z 26006MPS 240V310 CAVOK 18/M08 Q1017 NOSIG,1,0.0,0,9999,0,0,0,
2026-04-20 04:00:00,METAR ZBTJ 200400Z 26006MPS 220V290 CAVOK 17/M10 Q1018 NOSIG,1,0.0,0,9999,0,0,0,
2026-04-20 03:30:00,METAR ZBTJ 200330Z 26006G11MPS 210V290 CAVOK 17/M10 Q1018 NOSIG,1,0.0,0,9999,0,0,0,
2026-04-20 03:00:00,METAR ZBTJ 200300Z 26006MPS 230V290 CAVOK 16/M12 Q1019 NOSIG,1,0.0,0,9999,0,0,0,
2026-04-20 02:30:00,METAR ZBTJ 200230Z 27005MPS 240V310 CAVOK 15/M14 Q1019 NOSIG,1,0.0,0,9999,0,0,0,
2026-04-20 02:00:00,METAR ZBTJ 200200Z 26005MPS 220V300 CAVOK 15/M13 Q1019 NOSIG,1,0.0,0,9999,0,0,0,
2026-04-20 01:30:00,METAR ZBTJ 200130Z 29005MPS CAVOK 14/M14 Q1019 NOSIG,1,0.0,0,9999,0,0,0,
2026-04-20 01:00:00,METAR ZBTJ 200100Z 32005MPS 290V350 CAVOK 14/M13 Q1020 BECMG TL0230 25005MPS,1,0.0,0,9999,0,0,0,
2026-04-20 00:30:00,METAR ZBTJ 200030Z 32005MPS CAVOK 13/M14 Q1020 NOSIG,1,0.0,0,9999,0,0,0,
2026-04-20 00:00:00,METAR ZBTJ 200000Z 31005MPS CAVOK 12/M15 Q1020 NOSIG,1,0.0,0,9999,0,0,0,
2026-04-19 23:30:00,METAR ZBTJ 192330Z 32002MPS 280V340 CAVOK 12/M11 Q1021 NOSIG,1,0.0,0,9999,0,0,0,
2026-04-19 23:00:00,METAR ZBTJ 192300Z 29002MPS 260V320 CAVOK 10/M12 Q1021 NOSIG,1,0.0,0,9999,0,0,0,
2026-04-19 22:30:00,METAR ZBTJ 192230Z 26001MPS CAVOK 09/M11 Q1020 NOSIG,1,0.0,0,9999,0,0,0,
2026-04-19 22:00:00,METAR ZBTJ 192200Z VRB01MPS CAVOK 08/M11 Q1020 NOSIG,1,0.0,0,9999,0,0,0,
2026-04-19 21:30:00,METAR ZBTJ 192130Z VRB01MPS CAVOK 08/M11 Q1020 NOSIG,1,0.0,0,9999,0,0,0,
2026-04-19 21:00:00,METAR ZBTJ 192100Z 34001MPS CAVOK 08/M11 Q1020 NOSIG,1,0.0,0,9999,0,0,0,
2026-04-19 20:30:00,METAR ZBTJ 192030Z 33004MPS CAVOK 08/M13 Q1020 NOSIG,1,0.0,0,9999,0,0,0,
2026-04-19 20:00:00,METAR ZBTJ 192000Z 33004MPS CAVOK 08/M12 Q1020 NOSIG,1,0.0,0,9999,0,0,0,
2026-04-19 19:30:00,METAR ZBTJ 191930Z 34005MPS CAVOK 08/M12 Q1020 NOSIG,1,0.0,0,9999,0,0,0,
2026-04-19 19:00:00,METAR ZBTJ 191900Z 35007MPS CAVOK 10/M14 Q1020 NOSIG,1,0.0,0,9999,0,0,0,
2026-04-19 18:30:00,METAR ZBTJ 191830Z 35009MPS CAVOK 10/M15 Q1020 NOSIG,1,0.0,0,9999,0,0,0,
2026-04-19 18:00:00,METAR ZBTJ 191800Z 34009MPS CAVOK 11/M14 Q1019 NOSIG,1,0.0,0,9999,0,0,0,
2026-04-19 17:30:00,METAR ZBTJ 191730Z 35008MPS CAVOK 11/M13 Q1019 NOSIG,1,0.0,0,9999,0,0,0,
2026-04-19 17:00:00,METAR ZBTJ 191700Z 35008MPS CAVOK 12/M11 Q1019 NOSIG,1,0.0,0,9999,0,0,0,
2026-04-19 16:30:00,METAR ZBTJ 191630Z 35009G14MPS CAVOK 12/M12 Q1019 NOSIG,1,0.0,0,9999,0,0,0,
2026-04-19 16:00:00,METAR ZBTJ 191600Z 34010MPS CAVOK 13/M11 Q1018 NOSIG,1,0.0,0,9999,0,0,0,
2026-04-19 15:30:00,METAR ZBTJ 191530Z 34006MPS CAVOK 13/M04 Q1017 NOSIG,1,0.0,0,9999,0,0,0,
2026-04-19 15:00:00,METAR ZBTJ 191500Z 33007MPS CAVOK 14/M04 Q1016 NOSIG,1,0.0,0,9999,0,0,0,
2026-04-19 14:30:00,METAR ZBTJ 191430Z 34006MPS CAVOK 14/M02 Q1016 NOSIG,1,0.0,0,9999,0,0,0,
2026-04-19 14:00:00,METAR ZBTJ 191400Z 34007MPS CAVOK 14/M01 Q1015 NOSIG,1,0.0,0,9999,0,0,0,
2026-04-19 13:30:00,METAR ZBTJ 191330Z 34007MPS CAVOK 14/04 Q1015 NOSIG,1,0.0,0,9999,0,0,0,
2026-04-19 13:00:00,METAR ZBTJ 191300Z 33004MPS CAVOK 14/09 Q1015 BECMG TL1430 34009G17MPS,1,0.0,0,9999,0,0,0,
2026-04-19 12:30:00,METAR ZBTJ 191230Z 33004MPS 290V360 9999 -SHRA NSC 13/09 Q1014 NOSIG,0,4.0,0,10000,0,0,0,RA
2026-04-19 12:00:00,METAR ZBTJ 191200Z 32004MPS CAVOK 13/10 Q1014 BECMG TL1330 34009G17MPS,1,0.0,0,9999,0,0,0,
2026-04-19 11:30:00,METAR ZBTJ 191130Z 34004MPS 9999 -SHRA NSC 13/10 Q1013 NOSIG,0,4.0,0,10000,0,0,0,RA
2026-04-19 11:00:00,METAR ZBTJ 191100Z 34004MPS 9999 -SHRA NSC 13/10 Q1013 BECMG TL1250 34009MPS,0,4.0,0,10000,0,0,0,RA
2026-04-19 10:30:00,METAR ZBTJ 191030Z 34006MPS 9999 -SHRA NSC 13/09 Q1012 NOSIG,0,6.0,0,10000,0,0,0,RA
2026-04-19 10:22:00,SPECI ZBTJ 191022Z 35006MPS 9999 -SHRA NSC 13/09 Q1012 NOSIG,0,6.0,0,10000,0,0,0,RA
2026-04-19 10:00:00,METAR ZBTJ 191000Z 34011MPS 9999 -SHRA NSC 14/08 Q1012 BECMG TL1100 33005MPS,0,11.0,0,10000,0,0,0,RA
2026-04-19 09:30:00,METAR ZBTJ 190930Z 35009MPS 9999 SCT026 16/06 Q1011 NOSIG,0,9.0,0,10000,0,0,0,
2026-04-19 09:00:00,METAR ZBTJ 190900Z 34011MPS 9999 SCT026 17/06 Q1010 BECMG TL1030 33005MPS,0,11.0,0,10000,0,0,0,
2026-04-19 08:30:00,METAR ZBTJ 190830Z 34013MPS 9999 R34R/1300N R34L/P2000N FEW023 17/07 Q1010 NOSIG,0,13.0,0,10000,0,0,0,
2026-04-19 08:00:00,METAR ZBTJ 190800Z 34014G19MPS 7000 -SHRA BLSA FEW033CB BKN040 17/09 Q1010 BECMG TL0900 33009MPS SHRA,0,14.0,1,7000,0,0,0,"RA,SH"
2026-04-19 07:30:00,METAR ZBTJ 190730Z 33011MPS 2500 BLSA BKN026 FEW026CB 22/07 Q1009 NOSIG,0,11.0,0,2500,0,0,0,
2026-04-19 07:00:00,METAR ZBTJ 190700Z 33008MPS 8000 BLDU OVC043 24/12 Q1008 BECMG TL0800 2800,0,8.0,0,8000,0,0,0,
2026-04-19 06:30:00,METAR ZBTJ 190630Z 27005MPS CAVOK 25/12 Q1007 NOSIG,1,0.0,0,9999,0,0,0,
2026-04-19 06:00:00,METAR ZBTJ 190600Z 26005G10MPS 230V290 CAVOK 27/11 Q1008 BECMG TL0730 33009G15MPS,1,0.0,0,9999,0,0,0,
2026-04-19 05:30:00,METAR ZBTJ 190530Z 23006MPS 200V270 CAVOK 26/11 Q1008 NOSIG,1,0.0,0,9999,0,0,0,
2026-04-19 05:00:00,METAR ZBTJ 190500Z 23007MPS 200V260 9000 BLDU NSC 26/11 Q1008 BECMG TL0600 NSW,0,7.0,0,9000,0,0,0,
2026-04-19 04:30:00,METAR ZBTJ 190430Z 22006MPS 190V270 8000 BLDU NSC 25/11 Q1008 NOSIG,0,6.0,0,8000,0,0,0,
2026-04-19 04:00:00,METAR ZBTJ 190400Z 23006G11MPS 200V270 9000 BLDU NSC 25/12 Q1008 BECMG TL0530 NSW,0,6.0,1,9000,0,0,0,
2026-04-19 03:30:00,METAR ZBTJ 190330Z 23006MPS 190V270 8000 BLDU NSC 25/12 Q1009 NOSIG,0,6.0,0,8000,0,0,0,
2026-04-19 03:00:00,METAR ZBTJ 190300Z 22008G13MPS 190V250 8000 BLDU NSC 24/12 Q1008 BECMG TL0430 NSW,0,8.0,1,8000,0,0,0,
2026-04-19 02:30:00,METAR ZBTJ 190230Z 21008G13MPS 180V240 9000 BLDU NSC 24/12 Q1008 NOSIG,0,8.0,1,9000,0,0,0,
2026-04-19 02:00:00,METAR ZBTJ 190200Z 20006G11MPS 170V230 9000 BLDU NSC 22/11 Q1008 BECMG TL0300 NSW,0,6.0,1,9000,0,0,0,
2026-04-19 01:30:00,METAR ZBTJ 190130Z 20007MPS 9000 BLDU NSC 22/11 Q1008 NOSIG,0,7.0,0,9000,0,0,0,
2026-04-19 01:00:00,METAR ZBTJ 190100Z 20008MPS CAVOK 22/09 Q1009 NOSIG,1,0.0,0,9999,0,0,0,
2026-04-19 00:30:00,METAR ZBTJ 190030Z 21007G14MPS 180V240 CAVOK 22/10 Q1009 NOSIG,1,0.0,0,9999,0,0,0,
2026-04-19 00:00:00,METAR ZBTJ 190000Z 22007MPS 190V260 8000 NSC 21/11 Q1009 NOSIG,0,7.0,0,8000,0,0,0,
2026-04-18 23:30:00,METAR ZBTJ 182330Z 21005MPS 180V250 7000 NSC 20/12 Q1009 NOSIG,0,5.0,0,7000,0,0,0,
2026-04-18 23:00:00,METAR ZBTJ 182300Z 21005MPS 180V240 8000 NSC 19/11 Q1009 NOSIG,0,5.0,0,8000,0,0,0,
2026-04-18 22:30:00,METAR ZBTJ 182230Z 21004MPS CAVOK 19/11 Q1009 NOSIG,1,0.0,0,9999,0,0,0,
2026-04-18 22:00:00,METAR ZBTJ 182200Z 21004MPS 180V240 CAVOK 19/10 Q1009 NOSIG,1,0.0,0,9999,0,0,0,
2026-04-18 21:30:00,METAR ZBTJ 182130Z 20003MPS 160V230 CAVOK 18/10 Q1009 NOSIG,1,0.0,0,9999,0,0,0,
2026-04-18 21:00:00,METAR ZBTJ 182100Z 20002MPS 180V240 CAVOK 18/09 Q1009 NOSIG,1,0.0,0,9999,0,0,0,
2026-04-18 20:30:00,METAR ZBTJ 182030Z 17003MPS CAVOK 17/09 Q1009 NOSIG,1,0.0,0,9999,0,0,0,
2026-04-18 20:00:00,METAR ZBTJ 182000Z 17003MPS CAVOK 17/08 Q1009 NOSIG,1,0.0,0,9999,0,0,0,
2026-04-18 19:30:00,METAR ZBTJ 181930Z VRB01MPS CAVOK 16/09 Q1010 NOSIG,1,0.0,0,9999,0,0,0,
2026-04-18 19:00:00,METAR ZBTJ 181900Z VRB01MPS CAVOK 17/09 Q1009 NOSIG,1,0.0,0,9999,0,0,0,
2026-04-18 18:30:00,METAR ZBTJ 181830Z 14001MPS CAVOK 17/08 Q1009 NOSIG,1,0.0,0,9999,0,0,0,
2026-04-18 18:00:00,METAR ZBTJ 181800Z VRB01MPS CAVOK 16/09 Q1009 NOSIG,1,0.0,0,9999,0,0,0,
2026-04-18 17:30:00,METAR ZBTJ 181730Z 15003MPS CAVOK 16/08 Q1009 NOSIG,1,0.0,0,9999,0,0,0,
2026-04-18 17:00:00,METAR ZBTJ 181700Z 18003MPS CAVOK 19/08 Q1009 NOSIG,1,0.0,0,9999,0,0,0,
2026-04-18 16:30:00,METAR ZBTJ 181630Z 18003MPS CAVOK 19/08 Q1010 NOSIG,1,0.0,0,9999,0,0,0,
2026-04-18 16:00:00,METAR ZBTJ 181600Z 16002MPS CAVOK 18/08 Q1010 NOSIG,1,0.0,0,9999,0,0,0,
2026-04-18 15:00:00,METAR ZBTJ 181500Z 18002MPS CAVOK 21/07 Q1010 NOSIG,1,0.0,0,9999,0,0,0,
2026-04-18 14:30:00,METAR ZBTJ 181430Z 19002MPS CAVOK 21/08 Q1011 NOSIG,1,0.0,0,9999,0,0,0,
2026-04-18 14:00:00,METAR ZBTJ 181400Z 20002MPS CAVOK 22/08 Q1011 NOSIG,1,0.0,0,9999,0,0,0,
2026-04-18 13:30:00,METAR ZBTJ 181330Z 19003MPS CAVOK 22/08 Q1011 NOSIG,1,0.0,0,9999,0,0,0,
2026-04-18 13:00:00,METAR ZBTJ 181300Z 19003MPS CAVOK 23/09 Q1010 NOSIG,1,0.0,0,9999,0,0,0,
2026-04-18 12:30:00,METAR ZBTJ 181230Z 20004MPS CAVOK 24/09 Q1010 NOSIG,1,0.0,0,9999,0,0,0,
2026-04-18 12:00:00,METAR ZBTJ 181200Z 18004MPS CAVOK 24/10 Q1010 NOSIG,1,0.0,0,9999,0,0,0,
2026-04-18 11:30:00,METAR ZBTJ 181130Z 19004MPS CAVOK 25/09 Q1009 NOSIG,1,0.0,0,9999,0,0,0,
2026-04-18 11:00:00,METAR ZBTJ 181100Z 20006MPS 170V230 CAVOK 26/08 Q1009 NOSIG,1,0.0,0,9999,0,0,0,
2026-04-18 10:30:00,METAR ZBTJ 181030Z 20006MPS CAVOK 26/07 Q1009 NOSIG,1,0.0,0,9999,0,0,0,
2026-04-18 10:00:00,METAR ZBTJ 181000Z 21006MPS CAVOK 27/06 Q1009 NOSIG,1,0.0,0,9999,0,0,0,
2026-04-18 09:30:00,METAR ZBTJ 180930Z 20006MPS 170V230 CAVOK 28/07 Q1009 NOSIG,1,0.0,0,9999,0,0,0,
2026-04-18 09:00:00,METAR ZBTJ 180900Z 20007MPS 170V230 CAVOK 28/06 Q1009 NOSIG,1,0.0,0,9999,0,0,0,
2026-04-18 08:30:00,METAR ZBTJ 180830Z 21006MPS 180V240 CAVOK 29/09 Q1009 NOSIG,1,0.0,0,9999,0,0,0,
2026-04-18 08:00:00,METAR ZBTJ 180800Z 22006MPS 190V260 CAVOK 29/05 Q1009 NOSIG,1,0.0,0,9999,0,0,0,
2026-04-18 07:30:00,METAR ZBTJ 180730Z 20007MPS 170V250 CAVOK 29/04 Q1009 NOSIG,1,0.0,0,9999,0,0,0,
2026-04-18 07:00:00,METAR ZBTJ 180700Z 21006MPS 170V250 CAVOK 29/06 Q1009 NOSIG,1,0.0,0,9999,0,0,0,
2026-04-18 06:30:00,METAR ZBTJ 180630Z 21007MPS 180V260 CAVOK 29/06 Q1009 NOSIG,1,0.0,0,9999,0,0,0,
2026-04-18 06:00:00,METAR ZBTJ 180600Z 23004MPS 170V260 CAVOK 29/09 Q1010 BECMG TL0730 17005MPS,1,0.0,0,9999,0,0,0,
2026-04-18 05:30:00,METAR ZBTJ 180530Z 22006MPS 190V260 CAVOK 28/09 Q1010 NOSIG,1,0.0,0,9999,0,0,0,
2026-04-18 05:00:00,METAR ZBTJ 180500Z 22006MPS 190V260 CAVOK 28/08 Q1011 NOSIG,1,0.0,0,9999,0,0,0,
2026-04-18 04:30:00,METAR ZBTJ 180430Z 23005MPS 180V280 CAVOK 28/10 Q1011 NOSIG,1,0.0,0,9999,0,0,0,
2026-04-18 04:00:00,METAR ZBTJ 180400Z 23004MPS 200V270 9000 NSC 27/12 Q1011 NOSIG,0,4.0,0,9000,0,0,0,
2026-04-18 03:30:00,METAR ZBTJ 180330Z 24004MPS 200V290 7000 NSC 26/13 Q1012 NOSIG,0,4.0,0,7000,0,0,0,
2026-04-18 03:00:00,METAR ZBTJ 180300Z 24004MPS 200V310 6000 NSC 25/13 Q1012 NOSIG,0,4.0,0,6000,0,0,0,
2026-04-18 02:30:00,METAR ZBTJ 180230Z 22005MPS 180V270 5000 HZ NSC 24/13 Q1012 NOSIG,0,5.0,0,5000,0,0,0,
2026-04-18 02:00:00,METAR ZBTJ 180200Z 24003MPS 190V280 5000 HZ NSC 23/13 Q1012 NOSIG,0,3.0,0,5000,0,0,0,
2026-04-18 01:30:00,METAR ZBTJ 180130Z 22003MPS 170V250 5000 HZ NSC 23/15 Q1012 NOSIG,0,3.0,0,5000,0,0,0,
2026-04-18 01:00:00,METAR ZBTJ 180100Z 24003MPS 3700 HZ NSC 21/15 Q1012 NOSIG,0,3.0,0,3700,0,0,0,
2026-04-18 00:30:00,METAR ZBTJ 180030Z 19003MPS 150V220 3000 HZ NSC 20/15 Q1012 NOSIG,0,3.0,0,3000,0,0,0,
2026-04-18 00:00:00,METAR ZBTJ 180000Z 18002MPS 2200 BR NSC 19/16 Q1012 BECMG TL0130 3000,0,2.0,0,2200,0,0,1,BR
2026-04-17 23:30:00,METAR ZBTJ 172330Z 15003MPS 1600 R16L/1400N R16R/1500N BR NSC 18/16 Q1012 NOSIG,0,3.0,0,1600,0,0,1,BR
2026-04-17 23:00:00,METAR ZBTJ 172300Z 15002MPS 1200 R16L/1300N R16R/1300N BR NSC 16/16 Q1012 BECMG TL0030 1500,0,2.0,0,1200,0,0,1,BR
2026-04-17 22:30:00,METAR ZBTJ 172230Z 15003MPS 1200 R16L/1000N R16R/1300N BR NSC 15/15 Q1011 NOSIG,0,3.0,0,1200,0,0,1,BR
2026-04-17 22:00:00,METAR ZBTJ 172200Z 15003MPS 1200 R16L/1500D R16R/1600N BR NSC 13/13 Q1011 BECMG TL2350 1500,0,3.0,0,1200,0,0,1,BR
2026-04-17 21:30:00,METAR ZBTJ 172130Z 16002MPS 1400 R16L/P2000D R16R/P2000D BR NSC 13/13 Q1011 NOSIG,0,2.0,0,1400,0,0,1,BR
2026-04-17 21:00:00,METAR ZBTJ 172100Z 16002MPS 1600 BR NSC 13/12 Q1011 BECMG TL2200 1400,0,2.0,0,1600,0,0,1,BR
2026-04-17 20:30:00,METAR ZBTJ 172030Z 16001MPS 1700 BR NSC 13/13 Q1011 NOSIG,0,1.0,0,1700,0,0,1,BR
2026-04-17 20:00:00,METAR ZBTJ 172000Z 15001MPS 1700 BR NSC 13/13 Q1011 BECMG TL2130 1400,0,1.0,0,1700,0,0,1,BR
2026-04-17 19:30:00,METAR ZBTJ 171930Z 12001MPS 2000 BR NSC 13/12 Q1011 NOSIG,0,1.0,0,2000,0,0,1,BR
2026-04-17 19:00:00,METAR ZBTJ 171900Z 12001MPS 2000 BR NSC 14/12 Q1011 NOSIG,0,1.0,0,2000,0,0,1,BR
2026-04-17 18:30:00,METAR ZBTJ 171830Z 13001MPS 2000 BR NSC 14/13 Q1012 NOSIG,0,1.0,0,2000,0,0,1,BR
2026-04-17 18:00:00,METAR ZBTJ 171800Z 12001MPS 2300 BR NSC 14/12 Q1012 NOSIG,0,1.0,0,2300,0,0,1,BR
2026-04-17 17:30:00,METAR ZBTJ 171730Z 12001MPS 2300 BR NSC 14/13 Q1012 NOSIG,0,1.0,0,2300,0,0,1,BR
2026-04-17 17:00:00,METAR ZBTJ 171700Z 12001MPS 2300 BR NSC 14/12 Q1012 BECMG TL1850 1400,0,1.0,0,2300,0,0,1,BR
2026-04-17 16:30:00,METAR ZBTJ 171630Z 10001MPS 2300 BR NSC 15/13 Q1012 NOSIG,0,1.0,0,2300,0,0,1,BR
2026-04-17 16:00:00,METAR ZBTJ 171600Z 14002MPS 2300 BR NSC 15/12 Q1012 NOSIG,0,2.0,0,2300,0,0,1,BR
2026-04-17 15:30:00,METAR ZBTJ 171530Z 15002MPS 2500 BR NSC 14/12 Q1012 NOSIG,0,2.0,0,2500,0,0,1,BR
2026-04-17 15:00:00,METAR ZBTJ 171500Z 16002MPS 2500 BR NSC 15/13 Q1012 NOSIG,0,2.0,0,2500,0,0,1,BR
2026-04-17 14:30:00,METAR ZBTJ 171430Z 16002MPS 2800 BR NSC 15/12 Q1012 NOSIG,0,2.0,0,2800,0,0,1,BR
2026-04-17 14:00:00,METAR ZBTJ 171400Z 15002MPS 3500 BR NSC 16/13 Q1012 BECMG TL1530 2800,0,2.0,0,3500,0,0,1,BR
2026-04-17 13:30:00,METAR ZBTJ 171330Z 16002MPS 3500 BR NSC 16/13 Q1012 NOSIG,0,2.0,0,3500,0,0,1,BR
2026-04-17 13:00:00,METAR ZBTJ 171300Z 15003MPS 3500 BR NSC 16/13 Q1012 BECMG TL1430 2800,0,3.0,0,3500,0,0,1,BR
2026-04-17 12:30:00,METAR ZBTJ 171230Z 16003MPS 4000 BR NSC 17/13 Q1012 NOSIG,0,3.0,0,4000,0,0,1,BR
2026-04-17 12:00:00,METAR ZBTJ 171200Z 15003MPS 4500 BR NSC 17/13 Q1011 NOSIG,0,3.0,0,4500,0,0,1,BR
2026-04-17 11:30:00,METAR ZBTJ 171130Z 15004MPS 5000 HZ NSC 18/13 Q1011 NOSIG,0,4.0,0,5000,0,0,0,
2026-04-17 11:00:00,METAR ZBTJ 171100Z 16002MPS 140V230 5000 HZ NSC 20/13 Q1011 NOSIG,0,2.0,0,5000,0,0,0,
2026-04-17 10:30:00,METAR ZBTJ 171030Z 24002MPS 6000 NSC 22/12 Q1010 NOSIG,0,2.0,0,6000,0,0,0,
2026-04-17 10:00:00,METAR ZBTJ 171000Z 23002MPS 190V270 6000 NSC 22/12 Q1010 NOSIG,0,2.0,0,6000,0,0,0,
2026-04-17 09:30:00,METAR ZBTJ 170930Z 22003MPS 190V260 7000 NSC 23/12 Q1010 NOSIG,0,3.0,0,7000,0,0,0,
2026-04-17 09:00:00,METAR ZBTJ 170900Z 20003MPS 170V260 7000 NSC 23/12 Q1009 NOSIG,0,3.0,0,7000,0,0,0,
2026-04-17 08:30:00,METAR ZBTJ 170830Z 22002MPS 160V250 7000 NSC 23/12 Q1010 NOSIG,0,2.0,0,7000,0,0,0,
2026-04-17 08:00:00,METAR ZBTJ 170800Z 22003MPS 180V260 7000 NSC 23/11 Q1010 NOSIG,0,3.0,0,7000,0,0,0,
2026-04-17 07:30:00,METAR ZBTJ 170730Z 25002MPS 180V300 8000 NSC 24/12 Q1010 NOSIG,0,2.0,0,8000,0,0,0,
2026-04-17 07:00:00,METAR ZBTJ 170700Z 27003MPS 8000 NSC 24/12 Q1010 NOSIG,0,3.0,0,8000,0,0,0,
2026-04-17 06:30:00,METAR ZBTJ 170630Z 27002MPS 170V330 8000 NSC 23/13 Q1011 NOSIG,0,2.0,0,8000,0,0,0,
2026-04-17 06:00:00,METAR ZBTJ 170600Z VRB02G07MPS 7000 NSC 23/13 Q1011 NOSIG,0,2.0,1,7000,0,0,0,
2026-04-17 05:30:00,METAR ZBTJ 170530Z VRB02MPS 7000 BKN040 22/12 Q1011 NOSIG,0,2.0,0,7000,0,0,0,
2026-04-17 05:00:00,METAR ZBTJ 170500Z VRB03MPS 6000 BKN036 22/12 Q1012 NOSIG,0,3.0,0,6000,0,0,0,
2026-04-17 04:30:00,METAR ZBTJ 170430Z VRB02MPS 6000 BKN036 21/12 Q1012 NOSIG,0,2.0,0,6000,0,0,0,
2026-04-17 04:00:00,METAR ZBTJ 170400Z 21003MPS 170V320 6000 BKN033 21/13 Q1012 NOSIG,0,3.0,0,6000,0,0,0,
2026-04-17 03:30:00,METAR ZBTJ 170330Z 24002MPS 170V310 5000 HZ BKN030 21/12 Q1013 NOSIG,0,2.0,0,5000,0,0,0,
2026-04-17 03:00:00,METAR ZBTJ 170300Z 30002MPS 240V350 5000 HZ BKN026 20/13 Q1013 NOSIG,0,2.0,0,5000,0,0,0,
2026-04-17 02:30:00,METAR ZBTJ 170230Z VRB02MPS 4500 HZ BKN023 19/12 Q1013 NOSIG,0,2.0,0,4500,0,0,0,
2026-04-17 02:00:00,METAR ZBTJ 170200Z VRB01MPS 4500 HZ BKN020 18/12 Q1013 NOSIG,0,1.0,0,4500,0,0,0,
2026-04-17 01:30:00,METAR ZBTJ 170130Z 26003MPS 210V320 4500 HZ BKN020 18/12 Q1013 NOSIG,0,3.0,0,4500,0,0,0,
2026-04-17 01:00:00,METAR ZBTJ 170100Z 26002MPS 220V320 4000 HZ NSC 17/12 Q1013 NOSIG,0,2.0,0,4000,0,0,0,
2026-04-17 00:30:00,METAR ZBTJ 170030Z 24003MPS 4000 BR NSC 16/12 Q1013 NOSIG,0,3.0,0,4000,0,0,1,BR
2026-04-17 00:00:00,METAR ZBTJ 170000Z 20002MPS 3500 BR NSC 16/13 Q1013 NOSIG,0,2.0,0,3500,0,0,1,BR
2026-04-16 23:30:00,METAR ZBTJ 162330Z VRB01MPS 2800 BR NSC 14/13 Q1013 NOSIG,0,1.0,0,2800,0,0,1,BR
2026-04-16 23:00:00,METAR ZBTJ 162300Z VRB01MPS 3000 BR NSC 13/13 Q1013 BECMG TL2330 2800,0,1.0,0,3000,0,0,1,BR
2026-04-16 22:30:00,METAR ZBTJ 162230Z 15001MPS 3000 BR NSC 12/12 Q1012 NOSIG,0,1.0,0,3000,0,0,1,BR
2026-04-16 22:00:00,METAR ZBTJ 162200Z VRB01MPS 3000 BR NSC 12/12 Q1012 BECMG TL2300 2800,0,1.0,0,3000,0,0,1,BR
2026-04-16 21:30:00,METAR ZBTJ 162130Z 13001MPS 3000 BR NSC 11/11 Q1012 NOSIG,0,1.0,0,3000,0,0,1,BR
2026-04-16 21:00:00,METAR ZBTJ 162100Z 16002MPS 2000 BR NSC 11/11 Q1012 BECMG TL2230 3000,0,2.0,0,2000,0,0,1,BR
2026-04-16 20:30:00,METAR ZBTJ 162030Z 13001MPS 2000 BR NSC 11/11 Q1012 NOSIG,0,1.0,0,2000,0,0,1,BR
2026-04-16 20:00:00,METAR ZBTJ 162000Z 08001MPS 2000 BR NSC 12/12 Q1012 BECMG TL2130 3000,0,1.0,0,2000,0,0,1,BR
2026-04-16 19:30:00,METAR ZBTJ 161930Z VRB01MPS 3000 BR NSC 12/12 Q1012 NOSIG,0,1.0,0,3000,0,0,1,BR
2026-04-16 19:00:00,METAR ZBTJ 161900Z 15001MPS 2500 BR BCFG NSC 12/12 Q1012 NOSIG,0,1.0,0,2500,0,0,1,"BC,BR,FG"
2026-04-16 18:30:00,METAR ZBTJ 161830Z 13001MPS 3000 BR NSC 13/13 Q1013 NOSIG,0,1.0,0,3000,0,0,1,BR
2026-04-16 18:00:00,METAR ZBTJ 161800Z 00000MPS 3000 BR NSC 14/14 Q1013 BECMG TL1950 2800,0,0.0,0,3000,0,0,1,BR
2026-04-16 17:30:00,METAR ZBTJ 161730Z 09001MPS 2600 BR NSC 14/14 Q1013 NOSIG,0,1.0,0,2600,0,0,1,BR
2026-04-16 17:00:00,METAR ZBTJ 161700Z 07001MPS 2200 BR NSC 14/14 Q1014 BECMG TL1750 3000,0,1.0,0,2200,0,0,1,BR
2026-04-16 16:30:00,METAR ZBTJ 161630Z VRB01MPS 2200 BR NSC 14/14 Q1014 NOSIG,0,1.0,0,2200,0,0,1,BR
2026-04-16 16:00:00,METAR ZBTJ 161600Z VRB01MPS 2200 BR NSC 15/14 Q1014 BECMG TL1750 3000,0,1.0,0,2200,0,0,1,BR
2026-04-16 15:00:00,METAR ZBTJ 161500Z 13002MPS 2500 BR NSC 14/14 Q1013 NOSIG,0,2.0,0,2500,0,0,1,BR
2026-04-16 14:30:00,METAR ZBTJ 161430Z 08003MPS 3000 BR NSC 14/14 Q1013 NOSIG,0,3.0,0,3000,0,0,1,BR
2026-04-16 14:00:00,METAR ZBTJ 161400Z 09003MPS 060V130 3500 BR NSC 15/14 Q1013 NOSIG,0,3.0,0,3500,0,0,1,BR
2026-04-16 13:30:00,METAR ZBTJ 161330Z 05002MPS 4000 BR NSC 15/14 Q1014 NOSIG,0,2.0,0,4000,0,0,1,BR
2026-04-16 13:00:00,METAR ZBTJ 161300Z 03003MPS 360V060 3500 -SHRA BR NSC 15/15 Q1014 NOSIG,0,3.0,0,3500,0,0,1,"BR,RA"
2026-04-16 12:30:00,METAR ZBTJ 161230Z 04002MPS 010V080 3000 -SHRA BR NSC 15/15 Q1014 NOSIG,0,2.0,0,3000,0,0,1,"BR,RA"
2026-04-16 12:00:00,METAR ZBTJ 161200Z 01002MPS 4000 -SHRA BR NSC 16/14 Q1013 NOSIG,0,2.0,0,4000,0,0,1,"BR,RA"
2026-04-16 11:30:00,METAR ZBTJ 161130Z 33003MPS 6000 -SHRA NSC 15/14 Q1013 NOSIG,0,3.0,0,6000,0,0,0,RA
2026-04-16 11:00:00,METAR ZBTJ 161100Z 34004MPS 9999 -SHRA NSC 16/13 Q1012 NOSIG,0,4.0,0,10000,0,0,0,RA
2026-04-16 10:30:00,METAR ZBTJ 161030Z VRB01MPS CAVOK 16/13 Q1012 NOSIG,1,0.0,0,9999,0,0,0,
2026-04-16 10:00:00,METAR ZBTJ 161000Z 00000MPS 9999 -SHRA NSC 16/13 Q1012 NOSIG,0,0.0,0,10000,0,0,0,RA
2026-04-16 09:30:00,METAR ZBTJ 160930Z 12003MPS 6000 -SHRA NSC 15/13 Q1012 NOSIG,0,3.0,0,6000,0,0,0,RA
2026-04-16 09:00:00,METAR ZBTJ 160900Z 16007MPS 130V190 9999 -SHRA NSC 20/09 Q1011 NOSIG,0,7.0,0,10000,0,0,0,RA
2026-04-16 08:30:00,METAR ZBTJ 160830Z 17003MPS 140V200 CAVOK 21/09 Q1011 NOSIG,1,0.0,0,9999,0,0,0,
2026-04-16 08:00:00,METAR ZBTJ 160800Z 16002MPS 120V210 CAVOK 19/11 Q1011 NOSIG,1,0.0,0,9999,0,0,0,
2026-04-16 07:30:00,METAR ZBTJ 160730Z 23003G10MPS 170V290 7000 -SHRA NSC 21/11 Q1011 NOSIG,0,3.0,1,7000,0,0,0,RA
2026-04-16 07:00:00,METAR ZBTJ 160700Z 29003MPS 7000 NSC 21/14 Q1011 NOSIG,0,3.0,0,7000,0,0,0,
2026-04-16 06:30:00,METAR ZBTJ 160630Z 24004MPS 200V290 9999 -SHRA BKN040 22/13 Q1011 NOSIG,0,4.0,0,10000,0,0,0,RA
2026-04-16 06:00:00,METAR ZBTJ 160600Z 22003MPS 200V260 CAVOK 22/12 Q1011 NOSIG,1,0.0,0,9999,0,0,0,
2026-04-16 05:30:00,METAR ZBTJ 160530Z 25004MPS 220V280 CAVOK 22/12 Q1011 NOSIG,1,0.0,0,9999,0,0,0,
2026-04-16 05:00:00,METAR ZBTJ 160500Z 24004MPS 210V270 CAVOK 23/12 Q1012 NOSIG,1,0.0,0,9999,0,0,0,
2026-04-16 04:30:00,METAR ZBTJ 160430Z 24003MPS 200V280 CAVOK 23/12 Q1012 NOSIG,1,0.0,0,9999,0,0,0,
2026-04-16 04:00:00,METAR ZBTJ 160400Z 22005MPS 190V260 CAVOK 23/12 Q1012 NOSIG,1,0.0,0,9999,0,0,0,
2026-04-16 03:30:00,METAR ZBTJ 160330Z 18006MPS 150V220 CAVOK 23/11 Q1012 NOSIG,1,0.0,0,9999,0,0,0,
2026-04-16 03:00:00,METAR ZBTJ 160300Z 21004MPS 180V250 8000 NSC 21/11 Q1013 NOSIG,0,4.0,0,8000,0,0,0,
2026-04-16 02:30:00,METAR ZBTJ 160230Z 21005MPS 6000 NSC 21/12 Q1013 NOSIG,0,5.0,0,6000,0,0,0,
2026-04-16 02:00:00,METAR ZBTJ 160200Z 19004MPS 5000 HZ NSC 21/12 Q1013 NOSIG,0,4.0,0,5000,0,0,0,
2026-04-16 01:30:00,METAR ZBTJ 160130Z 20002MPS 160V260 4000 HZ NSC 21/13 Q1013 NOSIG,0,2.0,0,4000,0,0,0,
2026-04-16 01:00:00,METAR ZBTJ 160100Z VRB01MPS 3000 HZ NSC 20/13 Q1013 NOSIG,0,1.0,0,3000,0,0,0,
2026-04-16 00:30:00,METAR ZBTJ 160030Z VRB01MPS 2800 BR NSC 19/13 Q1012 NOSIG,0,1.0,0,2800,0,0,1,BR
2026-04-16 00:00:00,METAR ZBTJ 160000Z 12002MPS 080V140 2800 BR NSC 18/13 Q1012 BECMG TL0100 3000,0,2.0,0,2800,0,0,1,BR
2026-04-15 23:30:00,METAR ZBTJ 152330Z 15001MPS 2800 BR NSC 17/13 Q1012 NOSIG,0,1.0,0,2800,0,0,1,BR
2026-04-15 23:00:00,METAR ZBTJ 152300Z 10001MPS 2800 BR NSC 16/13 Q1012 BECMG TL2350 3000,0,1.0,0,2800,0,0,1,BR
2026-04-15 22:30:00,METAR ZBTJ 152230Z 14001MPS 2800 BR NSC 15/12 Q1012 NOSIG,0,1.0,0,2800,0,0,1,BR
2026-04-15 22:00:00,METAR ZBTJ 152200Z 09001MPS 2800 BR NSC 16/12 Q1012 BECMG TL2330 3000,0,1.0,0,2800,0,0,1,BR
2026-04-15 21:30:00,METAR ZBTJ 152130Z 14001MPS 2800 BR NSC 15/12 Q1012 NOSIG,0,1.0,0,2800,0,0,1,BR
2026-04-15 21:00:00,METAR ZBTJ 152100Z VRB01MPS 3000 BR NSC 16/12 Q1012 BECMG TL2200 2800,0,1.0,0,3000,0,0,1,BR
2026-04-15 20:30:00,METAR ZBTJ 152030Z 17001MPS 3000 BR NSC 15/12 Q1012 NOSIG,0,1.0,0,3000,0,0,1,BR
2026-04-15 20:00:00,METAR ZBTJ 152000Z 18001MPS 3000 BR NSC 15/12 Q1012 BECMG TL2130 2800,0,1.0,0,3000,0,0,1,BR
2026-04-15 19:30:00,METAR ZBTJ 151930Z 15001MPS 3000 BR NSC 15/12 Q1012 NOSIG,0,1.0,0,3000,0,0,1,BR
2026-04-15 19:00:00,METAR ZBTJ 151900Z 17003MPS 3000 BR NSC 16/12 Q1012 NOSIG,0,3.0,0,3000,0,0,1,BR
2026-04-15 18:30:00,METAR ZBTJ 151830Z 16002MPS 3000 BR NSC 15/12 Q1012 NOSIG,0,2.0,0,3000,0,0,1,BR
2026-04-15 18:00:00,METAR ZBTJ 151800Z 15002MPS 3000 BR NSC 15/12 Q1012 NOSIG,0,2.0,0,3000,0,0,1,BR
2026-04-15 17:30:00,METAR ZBTJ 151730Z 16003MPS 3500 BR NSC 15/11 Q1012 NOSIG,0,3.0,0,3500,0,0,1,BR
2026-04-15 17:00:00,METAR ZBTJ 151700Z 15003MPS 3500 BR NSC 14/11 Q1013 NOSIG,0,3.0,0,3500,0,0,1,BR
2026-04-15 16:30:00,METAR ZBTJ 151630Z 16003MPS 3500 BR NSC 15/11 Q1013 NOSIG,0,3.0,0,3500,0,0,1,BR
2026-04-15 16:00:00,METAR ZBTJ 151600Z 15003MPS 3500 HZ NSC 15/10 Q1012 NOSIG,0,3.0,0,3500,0,0,0,
2026-04-15 15:30:00,METAR ZBTJ 151530Z 17002MPS 4500 HZ NSC 15/09 Q1012 NOSIG,0,2.0,0,4500,0,0,0,
2026-04-15 15:00:00,METAR ZBTJ 151500Z 15002MPS 4500 HZ NSC 15/08 Q1012 NOSIG,0,2.0,0,4500,0,0,0,
2026-04-15 14:30:00,METAR ZBTJ 151430Z 14001MPS 5000 HZ NSC 15/08 Q1013 NOSIG,0,1.0,0,5000,0,0,0,
2026-04-15 14:00:00,METAR ZBTJ 151400Z 16001MPS 5000 HZ NSC 15/08 Q1013 NOSIG,0,1.0,0,5000,0,0,0,
2026-04-15 13:30:00,METAR ZBTJ 151330Z 11002MPS 5000 HZ NSC 15/08 Q1013 NOSIG,0,2.0,0,5000,0,0,0,
2026-04-15 13:00:00,METAR ZBTJ 151300Z 11002MPS 5000 HZ NSC 15/08 Q1013 NOSIG,0,2.0,0,5000,0,0,0,
2026-04-15 12:30:00,METAR ZBTJ 151230Z 14003MPS 5000 HZ NSC 15/07 Q1013 NOSIG,0,3.0,0,5000,0,0,0,
2026-04-15 12:00:00,METAR ZBTJ 151200Z 14002MPS 5000 HZ NSC 15/07 Q1012 NOSIG,0,2.0,0,5000,0,0,0,
2026-04-15 11:30:00,METAR ZBTJ 151130Z 15003MPS 5000 HZ NSC 16/08 Q1012 NOSIG,0,3.0,0,5000,0,0,0,
2026-04-15 11:00:00,METAR ZBTJ 151100Z 15003MPS 5000 HZ NSC 17/08 Q1012 NOSIG,0,3.0,0,5000,0,0,0,
2026-04-15 10:30:00,METAR ZBTJ 151030Z 15004MPS 6000 NSC 18/09 Q1011 NOSIG,0,4.0,0,6000,0,0,0,
2026-04-15 10:00:00,METAR ZBTJ 151000Z 15004MPS 6000 NSC 19/09 Q1011 NOSIG,0,4.0,0,6000,0,0,0,
2026-04-15 09:30:00,METAR ZBTJ 150930Z 16004MPS 7000 NSC 20/09 Q1011 NOSIG,0,4.0,0,7000,0,0,0,
2026-04-15 09:00:00,METAR ZBTJ 150900Z 15004MPS 7000 NSC 22/09 Q1011 NOSIG,0,4.0,0,7000,0,0,0,
2026-04-15 08:30:00,METAR ZBTJ 150830Z 13004MPS 7000 NSC 22/09 Q1011 NOSIG,0,4.0,0,7000,0,0,0,
2026-04-15 08:00:00,METAR ZBTJ 150800Z 14004MPS 8000 NSC 23/09 Q1011 NOSIG,0,4.0,0,8000,0,0,0,
2026-04-15 07:30:00,METAR ZBTJ 150730Z 13003MPS 090V170 8000 NSC 22/08 Q1011 NOSIG,0,3.0,0,8000,0,0,0,
2026-04-15 07:00:00,METAR ZBTJ 150700Z 15003MPS 110V230 9000 NSC 22/08 Q1012 NOSIG,0,3.0,0,9000,0,0,0,
2026-04-15 06:30:00,METAR ZBTJ 150630Z 17003MPS 110V220 9000 NSC 21/07 Q1012 NOSIG,0,3.0,0,9000,0,0,0,
2026-04-15 06:00:00,METAR ZBTJ 150600Z 14004MPS 090V180 9000 NSC 21/07 Q1012 NOSIG,0,4.0,0,9000,0,0,0,
2026-04-15 05:30:00,METAR ZBTJ 150530Z 16003MPS 100V210 CAVOK 21/07 Q1013 NOSIG,1,0.0,0,9999,0,0,0,
2026-04-15 05:00:00,METAR ZBTJ 150500Z 16003MPS 130V200 CAVOK 21/07 Q1014 NOSIG,1,0.0,0,9999,0,0,0,
2026-04-15 04:30:00,METAR ZBTJ 150430Z 15004MPS 110V180 CAVOK 20/06 Q1014 NOSIG,1,0.0,0,9999,0,0,0,
2026-04-15 04:00:00,METAR ZBTJ 150400Z 18003MPS 150V210 CAVOK 20/05 Q1015 NOSIG,1,0.0,0,9999,0,0,0,
2026-04-15 03:30:00,METAR ZBTJ 150330Z 12004MPS 070V170 CAVOK 19/04 Q1015 NOSIG,1,0.0,0,9999,0,0,0,
2026-04-15 03:00:00,METAR ZBTJ 150300Z 13004MPS 110V170 CAVOK 18/04 Q1015 NOSIG,1,0.0,0,9999,0,0,0,
2026-04-15 02:30:00,METAR ZBTJ 150230Z 15004MPS 120V180 CAVOK 18/04 Q1015 NOSIG,1,0.0,0,9999,0,0,0,
2026-04-15 02:00:00,METAR ZBTJ 150200Z 14003MPS 090V190 CAVOK 17/03 Q1015 NOSIG,1,0.0,0,9999,0,0,0,
2026-04-15 01:30:00,METAR ZBTJ 150130Z 15004MPS 090V180 CAVOK 17/02 Q1015 NOSIG,1,0.0,0,9999,0,0,0,
2026-04-15 01:00:00,METAR ZBTJ 150100Z 12004MPS CAVOK 16/01 Q1015 NOSIG,1,0.0,0,9999,0,0,0,
2026-04-15 00:30:00,METAR ZBTJ 150030Z 10004MPS 9999 SCT030 15/02 Q1015 NOSIG,0,4.0,0,10000,0,0,0,
2026-04-15 00:00:00,METAR ZBTJ 150000Z 12003MPS 9999 BKN030 14/01 Q1015 NOSIG,0,3.0,0,10000,0,0,0,
2026-04-14 23:30:00,METAR ZBTJ 142330Z 11003MPS 8000 BKN030 13/02 Q1015 NOSIG,0,3.0,0,8000,0,0,0,
2026-04-14 23:00:00,METAR ZBTJ 142300Z 12003MPS 8000 BKN033 12/01 Q1015 NOSIG,0,3.0,0,8000,0,0,0,
2026-04-14 22:30:00,METAR ZBTJ 142230Z 10003MPS 8000 BKN033 12/02 Q1014 NOSIG,0,3.0,0,8000,0,0,0,
2026-04-14 22:00:00,METAR ZBTJ 142200Z 11002MPS 8000 BKN033 12/02 Q1014 NOSIG,0,2.0,0,8000,0,0,0,
2026-04-14 21:30:00,METAR ZBTJ 142130Z 08002MPS 8000 BKN033 12/02 Q1014 NOSIG,0,2.0,0,8000,0,0,0,
2026-04-14 21:00:00,METAR ZBTJ 142100Z 07001MPS 7000 BKN033 11/03 Q1014 NOSIG,0,1.0,0,7000,0,0,0,
2026-04-14 20:30:00,METAR ZBTJ 142030Z 08002MPS 7000 BKN033 11/04 Q1014 NOSIG,0,2.0,0,7000,0,0,0,
2026-04-14 20:00:00,METAR ZBTJ 142000Z 06002MPS 6000 BKN033 11/04 Q1014 NOSIG,0,2.0,0,6000,0,0,0,
2026-04-14 19:30:00,METAR ZBTJ 141930Z 11002MPS 070V130 6000 BKN033 11/04 Q1014 NOSIG,0,2.0,0,6000,0,0,0,
2026-04-14 19:00:00,METAR ZBTJ 141900Z 09002MPS 6000 SCT040 11/04 Q1014 NOSIG,0,2.0,0,6000,0,0,0,
2026-04-14 18:30:00,METAR ZBTJ 141830Z 11002MPS 5000 HZ FEW040 10/04 Q1014 NOSIG,0,2.0,0,5000,0,0,0,
2026-04-14 18:00:00,METAR ZBTJ 141800Z 10002MPS 4800 HZ NSC 10/05 Q1014 NOSIG,0,2.0,0,4800,0,0,0,
2026-04-14 17:30:00,METAR ZBTJ 141730Z VRB01MPS 4500 HZ NSC 11/04 Q1014 NOSIG,0,1.0,0,4500,0,0,0,
2026-04-14 17:00:00,METAR ZBTJ 141700Z 12001MPS 4500 HZ NSC 10/04 Q1015 NOSIG,0,1.0,0,4500,0,0,0,
2026-04-14 16:30:00,METAR ZBTJ 141630Z 09002MPS 5000 HZ NSC 11/04 Q1015 NOSIG,0,2.0,0,5000,0,0,0,
2026-04-14 16:00:00,METAR ZBTJ 141600Z VRB01MPS 5000 HZ NSC 11/04 Q1015 NOSIG,0,1.0,0,5000,0,0,0,
2026-04-14 15:30:00,METAR ZBTJ 141530Z VRB01MPS 6000 NSC 12/04 Q1014 NOSIG,0,1.0,0,6000,0,0,0,
2026-04-14 15:00:00,METAR ZBTJ 141500Z 17003MPS 6000 NSC 12/04 Q1014 NOSIG,0,3.0,0,6000,0,0,0,
2026-04-14 14:30:00,METAR ZBTJ 141430Z 17002MPS 6000 NSC 13/04 Q1014 NOSIG,0,2.0,0,6000,0,0,0,
2026-04-14 14:00:00,METAR ZBTJ 141400Z 17003MPS 7000 NSC 13/04 Q1014 NOSIG,0,3.0,0,7000,0,0,0,
2026-04-14 13:30:00,METAR ZBTJ 141330Z 17002MPS 7000 NSC 14/03 Q1013 NOSIG,0,2.0,0,7000,0,0,0,
2026-04-14 13:00:00,METAR ZBTJ 141300Z 17002MPS 7000 NSC 13/04 Q1013 NOSIG,0,2.0,0,7000,0,0,0,
2026-04-14 12:30:00,METAR ZBTJ 141230Z 14002MPS 7000 NSC 13/04 Q1013 NOSIG,0,2.0,0,7000,0,0,0,
2026-04-14 12:00:00,METAR ZBTJ 141200Z 15002MPS 8000 NSC 13/04 Q1013 NOSIG,0,2.0,0,8000,0,0,0,
2026-04-14 11:30:00,METAR ZBTJ 141130Z 12002MPS 9000 NSC 15/04 Q1012 NOSIG,0,2.0,0,9000,0,0,0,
2026-04-14 11:00:00,METAR ZBTJ 141100Z 12003MPS 9000 NSC 15/04 Q1012 NOSIG,0,3.0,0,9000,0,0,0,
2026-04-14 10:30:00,METAR ZBTJ 141030Z 06004MPS 030V090 9000 NSC 16/05 Q1012 NOSIG,0,4.0,0,9000,0,0,0,
2026-04-14 10:00:00,METAR ZBTJ 141000Z 04004MPS 9000 NSC 16/04 Q1013 NOSIG,0,4.0,0,9000,0,0,0,
2026-04-14 09:30:00,METAR ZBTJ 140930Z 05004MPS 9000 -SHRA NSC 17/04 Q1013 NOSIG,0,4.0,0,9000,0,0,0,RA
2026-04-14 09:00:00,METAR ZBTJ 140900Z 06005MPS 9000 NSC 17/04 Q1012 NOSIG,0,5.0,0,9000,0,0,0,
2026-04-14 08:30:00,METAR ZBTJ 140830Z 07005MPS 8000 NSC 18/04 Q1011 NOSIG,0,5.0,0,8000,0,0,0,
2026-04-14 08:00:00,METAR ZBTJ 140800Z 07004MPS 8000 NSC 19/04 Q1011 NOSIG,0,4.0,0,8000,0,0,0,
2026-04-14 07:30:00,METAR ZBTJ 140730Z 10004MPS 050V130 8000 NSC 19/05 Q1011 NOSIG,0,4.0,0,8000,0,0,0,
2026-04-14 07:00:00,METAR ZBTJ 140700Z 16004MPS 8000 NSC 19/05 Q1011 NOSIG,0,4.0,0,8000,0,0,0,
2026-04-14 06:30:00,METAR ZBTJ 140630Z 15004MPS 9000 NSC 19/06 Q1012 NOSIG,0,4.0,0,9000,0,0,0,
2026-04-14 06:00:00,METAR ZBTJ 140600Z 15003MPS 110V200 9000 NSC 20/07 Q1012 NOSIG,0,3.0,0,9000,0,0,0,
2026-04-14 05:30:00,METAR ZBTJ 140530Z 14003MPS 080V190 9000 NSC 19/07 Q1012 NOSIG,0,3.0,0,9000,0,0,0,
2026-04-14 05:00:00,METAR ZBTJ 140500Z 17002MPS 110V220 9000 NSC 19/06 Q1013 NOSIG,0,2.0,0,9000,0,0,0,
2026-04-14 04:30:00,METAR ZBTJ 140430Z VRB02MPS CAVOK 19/05 Q1014 NOSIG,1,0.0,0,9999,0,0,0,
2026-04-14 04:00:00,METAR ZBTJ 140400Z VRB03MPS CAVOK 18/05 Q1014 NOSIG,1,0.0,0,9999,0,0,0,
2026-04-14 03:30:00,METAR ZBTJ 140330Z 14003MPS 100V170 CAVOK 17/03 Q1014 NOSIG,1,0.0,0,9999,0,0,0,
2026-04-14 03:00:00,METAR ZBTJ 140300Z 15003MPS 100V190 9000 NSC 17/03 Q1014 NOSIG,0,3.0,0,9000,0,0,0,
2026-04-14 02:30:00,METAR ZBTJ 140230Z 10002MPS 060V180 9000 SCT046 16/04 Q1015 NOSIG,0,2.0,0,9000,0,0,0,
2026-04-14 02:00:00,METAR ZBTJ 140200Z 12003MPS 090V150 9999 BKN040 15/04 Q1015 NOSIG,0,3.0,0,10000,0,0,0,
2026-04-14 01:30:00,METAR ZBTJ 140130Z 11002MPS 080V170 9999 FEW040 14/03 Q1015 NOSIG,0,2.0,0,10000,0,0,0,
2026-04-14 01:00:00,METAR ZBTJ 140100Z 07002MPS 9999 BKN040 13/04 Q1015 NOSIG,0,2.0,0,10000,0,0,0,
2026-04-14 00:30:00,METAR ZBTJ 140030Z 06002MPS 030V090 9999 BKN040 12/03 Q1015 NOSIG,0,2.0,0,10000,0,0,0,
2026-04-14 00:00:00,METAR ZBTJ 140000Z 09003MPS 9999 BKN040 12/03 Q1015 NOSIG,0,3.0,0,10000,0,0,0,
2026-04-13 23:30:00,METAR ZBTJ 132330Z VRB02MPS 9999 BKN040 11/04 Q1015 NOSIG,0,2.0,0,10000,0,0,0,
2026-04-13 23:00:00,METAR ZBTJ 132300Z 06002MPS CAVOK 11/04 Q1015 NOSIG,1,0.0,0,9999,0,0,0,
2026-04-13 22:30:00,METAR ZBTJ 132230Z 06001MPS CAVOK 10/04 Q1014 NOSIG,1,0.0,0,9999,0,0,0,
2026-04-13 22:00:00,METAR ZBTJ 132200Z 08002MPS CAVOK 10/03 Q1014 NOSIG,1,0.0,0,9999,0,0,0,
2026-04-13 21:30:00,METAR ZBTJ 132130Z 05001MPS CAVOK 10/02 Q1014 NOSIG,1,0.0,0,9999,0,0,0,
2026-04-13 21:00:00,METAR ZBTJ 132100Z 06002MPS CAVOK 10/03 Q1014 NOSIG,1,0.0,0,9999,0,0,0,
2026-04-13 20:30:00,METAR ZBTJ 132030Z VRB01MPS CAVOK 10/02 Q1014 NOSIG,1,0.0,0,9999,0,0,0,
2026-04-13 20:00:00,METAR ZBTJ 132000Z 00000MPS CAVOK 09/02 Q1015 NOSIG,1,0.0,0,9999,0,0,0,
2026-04-13 19:30:00,METAR ZBTJ 131930Z 00000MPS CAVOK 09/02 Q1015 NOSIG,1,0.0,0,9999,0,0,0,
2026-04-13 19:00:00,METAR ZBTJ 131900Z 14001MPS CAVOK 09/02 Q1015 NOSIG,1,0.0,0,9999,0,0,0,
2026-04-13 18:30:00,METAR ZBTJ 131830Z 13001MPS CAVOK 10/02 Q1015 NOSIG,1,0.0,0,9999,0,0,0,
2026-04-13 18:00:00,METAR ZBTJ 131800Z 00000MPS CAVOK 10/02 Q1015 NOSIG,1,0.0,0,9999,0,0,0,
2026-04-13 17:30:00,METAR ZBTJ 131730Z 15001MPS CAVOK 09/02 Q1015 NOSIG,1,0.0,0,9999,0,0,0,
2026-04-13 17:00:00,METAR ZBTJ 131700Z 00000MPS CAVOK 10/02 Q1016 NOSIG,1,0.0,0,9999,0,0,0,
2026-04-13 16:30:00,METAR ZBTJ 131630Z 17001MPS CAVOK 10/03 Q1016 NOSIG,1,0.0,0,9999,0,0,0,
2026-04-13 16:00:00,METAR ZBTJ 131600Z 17002MPS CAVOK 09/03 Q1016 NOSIG,1,0.0,0,9999,0,0,0,
2026-04-13 15:30:00,METAR ZBTJ 131530Z VRB01MPS CAVOK 10/03 Q1016 NOSIG,1,0.0,0,9999,0,0,0,
2026-04-13 15:00:00,METAR ZBTJ 131500Z 15002MPS CAVOK 10/03 Q1016 NOSIG,1,0.0,0,9999,0,0,0,
2026-04-13 14:30:00,METAR ZBTJ 131430Z 16001MPS CAVOK 10/02 Q1016 NOSIG,1,0.0,0,9999,0,0,0,
2026-04-13 14:00:00,METAR ZBTJ 131400Z 16002MPS CAVOK 10/02 Q1017 NOSIG,1,0.0,0,9999,0,0,0,
2026-04-13 13:30:00,METAR ZBTJ 131330Z 16003MPS CAVOK 10/02 Q1016 NOSIG,1,0.0,0,9999,0,0,0,
2026-04-13 13:00:00,METAR ZBTJ 131300Z 15002MPS CAVOK 10/03 Q1016 NOSIG,1,0.0,0,9999,0,0,0,
2026-04-13 12:30:00,METAR ZBTJ 131230Z 17003MPS CAVOK 12/02 Q1016 NOSIG,1,0.0,0,9999,0,0,0,
2026-04-13 12:00:00,METAR ZBTJ 131200Z 17002MPS CAVOK 12/02 Q1016 NOSIG,1,0.0,0,9999,0,0,0,
2026-04-13 11:30:00,METAR ZBTJ 131130Z 17003MPS CAVOK 12/02 Q1015 NOSIG,1,0.0,0,9999,0,0,0,
2026-04-13 11:00:00,METAR ZBTJ 131100Z 17003MPS CAVOK 13/02 Q1015 NOSIG,1,0.0,0,9999,0,0,0,
2026-04-13 10:30:00,METAR ZBTJ 131030Z 16004MPS CAVOK 13/02 Q1015 NOSIG,1,0.0,0,9999,0,0,0,
2026-04-13 10:00:00,METAR ZBTJ 131000Z 16003MPS CAVOK 14/02 Q1015 NOSIG,1,0.0,0,9999,0,0,0,
2026-04-13 09:30:00,METAR ZBTJ 130930Z 12003MPS CAVOK 15/03 Q1015 NOSIG,1,0.0,0,9999,0,0,0,
2026-04-13 09:00:00,METAR ZBTJ 130900Z 10003MPS CAVOK 16/03 Q1015 NOSIG,1,0.0,0,9999,0,0,0,
2026-04-13 08:30:00,METAR ZBTJ 130830Z 11003MPS 070V150 CAVOK 16/02 Q1015 NOSIG,1,0.0,0,9999,0,0,0,
2026-04-13 08:00:00,METAR ZBTJ 130800Z 12003MPS 080V170 CAVOK 16/02 Q1016 NOSIG,1,0.0,0,9999,0,0,0,
2026-04-13 07:30:00,METAR ZBTJ 130730Z 09003MPS CAVOK 15/01 Q1016 NOSIG,1,0.0,0,9999,0,0,0,
2026-04-13 07:00:00,METAR ZBTJ 130700Z 13004MPS CAVOK 16/02 Q1017 NOSIG,1,0.0,0,9999,0,0,0,
2026-04-13 06:30:00,METAR ZBTJ 130630Z 11003MPS 050V140 CAVOK 16/01 Q1017 NOSIG,1,0.0,0,9999,0,0,0,
2026-04-13 06:00:00,METAR ZBTJ 130600Z 09004MPS 060V120 CAVOK 15/M01 Q1017 NOSIG,1,0.0,0,9999,0,0,0,
2026-04-13 05:30:00,METAR ZBTJ 130530Z 10004MPS CAVOK 15/M01 Q1018 NOSIG,1,0.0,0,9999,0,0,0,
2026-04-13 05:00:00,METAR ZBTJ 130500Z 09005MPS CAVOK 15/M01 Q1018 NOSIG,1,0.0,0,9999,0,0,0,
2026-04-13 04:30:00,METAR ZBTJ 130430Z 08006MPS CAVOK 15/M02 Q1018 NOSIG,1,0.0,0,9999,0,0,0,
2026-04-13 04:00:00,METAR ZBTJ 130400Z 10007MPS CAVOK 15/M03 Q1019 NOSIG,1,0.0,0,9999,0,0,0,
2026-04-13 03:30:00,METAR ZBTJ 130330Z 09007MPS CAVOK 15/M03 Q1020 NOSIG,1,0.0,0,9999,0,0,0,
2026-04-13 03:00:00,METAR ZBTJ 130300Z 10007MPS CAVOK 15/M03 Q1020 NOSIG,1,0.0,0,9999,0,0,0,
2026-04-13 02:30:00,METAR ZBTJ 130230Z 10007MPS 070V130 CAVOK 15/M04 Q1020 NOSIG,1,0.0,0,9999,0,0,0,
2026-04-13 02:00:00,METAR ZBTJ 130200Z 09009MPS CAVOK 15/M04 Q1020 BECMG TL0350 10004MPS,1,0.0,0,9999,0,0,0,
2026-04-13 01:30:00,METAR ZBTJ 130130Z 09008MPS CAVOK 15/M04 Q1020 NOSIG,1,0.0,0,9999,0,0,0,
2026-04-13 01:00:00,METAR ZBTJ 130100Z 09009MPS CAVOK 13/M04 Q1019 BECMG TL0250 11004MPS,1,0.0,0,9999,0,0,0,
2026-04-13 00:30:00,METAR ZBTJ 130030Z 09009MPS CAVOK 14/M04 Q1019 NOSIG,1,0.0,0,9999,0,0,0,
2026-04-13 00:00:00,METAR ZBTJ 130000Z 09008MPS CAVOK 13/M03 Q1019 NOSIG,1,0.0,0,9999,0,0,0,
2026-04-12 23:30:00,METAR ZBTJ 122330Z 10009MPS CAVOK 13/M02 Q1018 NOSIG,1,0.0,0,9999,0,0,0,
2026-04-12 23:00:00,METAR ZBTJ 122300Z 10007MPS CAVOK 13/M02 Q1018 NOSIG,1,0.0,0,9999,0,0,0,
2026-04-12 22:30:00,METAR ZBTJ 122230Z 10010MPS CAVOK 13/M02 Q1018 NOSIG,1,0.0,0,9999,0,0,0,
2026-04-12 22:00:00,METAR ZBTJ 122200Z 10007MPS CAVOK 13/M00 Q1018 NOSIG,1,0.0,0,9999,0,0,0,
2026-04-12 21:30:00,METAR ZBTJ 122130Z 11007MPS CAVOK 14/01 Q1017 NOSIG,1,0.0,0,9999,0,0,0,
2026-04-12 21:00:00,METAR ZBTJ 122100Z 11011G17MPS CAVOK 14/01 Q1017 NOSIG,1,0.0,0,9999,0,0,0,
2026-04-12 20:30:00,METAR ZBTJ 122030Z 10009MPS 6000 BLDU NSC 14/05 Q1017 NOSIG,0,9.0,0,6000,0,0,0,
2026-04-12 20:00:00,METAR ZBTJ 122000Z 09011MPS 4500 BLDU NSC 15/06 Q1016 NOSIG,0,11.0,0,4500,0,0,0,
2026-04-12 19:30:00,METAR ZBTJ 121930Z 09010MPS 4500 BLDU NSC 15/08 Q1016 NOSIG,0,10.0,0,4500,0,0,0,
2026-04-12 19:00:00,METAR ZBTJ 121900Z 08007MPS 3500 HZ NSC 16/09 Q1015 NOSIG,0,7.0,0,3500,0,0,0,
2026-04-12 18:30:00,METAR ZBTJ 121830Z 08006MPS 3500 HZ NSC 16/10 Q1015 NOSIG,0,6.0,0,3500,0,0,0,
2026-04-12 18:00:00,METAR ZBTJ 121800Z 08004MPS 3000 HZ NSC 16/10 Q1015 BECMG TL1930 08009MPS,0,4.0,0,3000,0,0,0,
2026-04-12 17:30:00,METAR ZBTJ 121730Z VRB01MPS 3500 HZ NSC 16/09 Q1014 NOSIG,0,1.0,0,3500,0,0,0,
2026-04-12 17:00:00,METAR ZBTJ 121700Z 13001MPS 3500 HZ NSC 16/09 Q1014 BECMG TL1830 08007MPS,0,1.0,0,3500,0,0,0,
2026-04-12 16:30:00,METAR ZBTJ 121630Z VRB01MPS 3500 HZ NSC 16/09 Q1014 NOSIG,0,1.0,0,3500,0,0,0,
2026-04-12 16:00:00,METAR ZBTJ 121600Z 10002MPS 3500 HZ NSC 16/10 Q1014 NOSIG,0,2.0,0,3500,0,0,0,
2026-04-12 15:00:00,METAR ZBTJ 121500Z 13002MPS 3500 HZ NSC 16/10 Q1014 NOSIG,0,2.0,0,3500,0,0,0,
2026-04-12 14:30:00,METAR ZBTJ 121430Z 11002MPS 3500 HZ NSC 16/11 Q1014 NOSIG,0,2.0,0,3500,0,0,0,
2026-04-12 14:00:00,METAR ZBTJ 121400Z 13001MPS 3500 HZ NSC 17/11 Q1013 BECMG TL1500 2800,0,1.0,0,3500,0,0,0,
2026-04-12 13:30:00,METAR ZBTJ 121330Z 14001MPS 3500 HZ NSC 17/11 Q1013 NOSIG,0,1.0,0,3500,0,0,0,
2026-04-12 13:00:00,METAR ZBTJ 121300Z 14001MPS 4000 HZ NSC 18/11 Q1013 NOSIG,0,1.0,0,4000,0,0,0,
2026-04-12 12:30:00,METAR ZBTJ 121230Z 17002MPS 4000 HZ NSC 18/11 Q1012 NOSIG,0,2.0,0,4000,0,0,0,
2026-04-12 12:00:00,METAR ZBTJ 121200Z 14002MPS 4000 HZ NSC 19/11 Q1012 NOSIG,0,2.0,0,4000,0,0,0,
2026-04-12 11:30:00,METAR ZBTJ 121130Z 17003MPS 4000 HZ NSC 19/12 Q1011 NOSIG,0,3.0,0,4000,0,0,0,
2026-04-12 11:00:00,METAR ZBTJ 121100Z 15003MPS 5000 HZ NSC 20/12 Q1011 NOSIG,0,3.0,0,5000,0,0,0,
2026-04-12 10:30:00,METAR ZBTJ 121030Z 11002MPS 050V160 5000 HZ NSC 22/11 Q1010 NOSIG,0,2.0,0,5000,0,0,0,
2026-04-12 10:00:00,METAR ZBTJ 121000Z 36002MPS 320V060 5000 HZ NSC 24/10 Q1010 NOSIG,0,2.0,0,5000,0,0,0,
2026-04-12 09:30:00,METAR ZBTJ 120930Z 01002MPS 300V060 5000 HZ NSC 24/10 Q1010 NOSIG,0,2.0,0,5000,0,0,0,
2026-04-12 09:00:00,METAR ZBTJ 120900Z VRB01MPS 5000 HZ NSC 24/11 Q1009 BECMG TL1000 14005MPS,0,1.0,0,5000,0,0,0,
2026-04-12 08:30:00,METAR ZBTJ 120830Z 01002MPS 330V050 5000 HZ NSC 25/10 Q1009 NOSIG,0,2.0,0,5000,0,0,0,
2026-04-12 08:00:00,METAR ZBTJ 120800Z VRB01MPS 5000 HZ NSC 25/11 Q1009 BECMG TL0930 14005MPS,0,1.0,0,5000,0,0,0,
2026-04-12 07:30:00,METAR ZBTJ 120730Z 04002MPS 360V090 5000 HZ NSC 24/11 Q1009 NOSIG,0,2.0,0,5000,0,0,0,
2026-04-12 07:00:00,METAR ZBTJ 120700Z 02002MPS 4500 HZ NSC 25/12 Q1009 NOSIG,0,2.0,0,4500,0,0,0,
2026-04-12 06:30:00,METAR ZBTJ 120630Z 01002MPS 330V040 4500 HZ NSC 24/13 Q1010 NOSIG,0,2.0,0,4500,0,0,0,
2026-04-12 06:00:00,METAR ZBTJ 120600Z 33002MPS 290V360 4500 HZ NSC 24/12 Q1010 NOSIG,0,2.0,0,4500,0,0,0,
2026-04-12 05:30:00,METAR ZBTJ 120530Z 27002MPS 170V340 4500 HZ NSC 23/12 Q1010 NOSIG,0,2.0,0,4500,0,0,0,
2026-04-12 05:00:00,METAR ZBTJ 120500Z 26002MPS 210V340 4500 HZ NSC 23/13 Q1010 BECMG TL0630 20005MPS,0,2.0,0,4500,0,0,0,
2026-04-12 04:30:00,METAR ZBTJ 120430Z 24003MPS 160V300 4500 HZ NSC 23/12 Q1011 NOSIG,0,3.0,0,4500,0,0,0,
2026-04-12 04:00:00,METAR ZBTJ 120400Z 25003MPS 210V280 5000 HZ NSC 22/12 Q1011 NOSIG,0,3.0,0,5000,0,0,0,
2026-04-12 03:30:00,METAR ZBTJ 120330Z 25004MPS 210V300 5000 HZ NSC 22/12 Q1011 NOSIG,0,4.0,0,5000,0,0,0,
2026-04-12 03:00:00,METAR ZBTJ 120300Z 26004MPS 230V290 5000 HZ NSC 21/11 Q1011 NOSIG,0,4.0,0,5000,0,0,0,
2026-04-12 02:30:00,METAR ZBTJ 120230Z 27004MPS 200V290 5000 HZ NSC 21/11 Q1011 NOSIG,0,4.0,0,5000,0,0,0,
2026-04-12 02:00:00,METAR ZBTJ 120200Z 26005MPS 220V290 5000 HZ NSC 20/10 Q1011 NOSIG,0,5.0,0,5000,0,0,0,
2026-04-12 01:30:00,METAR ZBTJ 120130Z 25005MPS 210V280 5000 HZ NSC 19/09 Q1011 NOSIG,0,5.0,0,5000,0,0,0,
2026-04-12 01:00:00,METAR ZBTJ 120100Z 24004MPS 200V270 6000 NSC 18/09 Q1011 NOSIG,0,4.0,0,6000,0,0,0,
2026-04-12 00:30:00,METAR ZBTJ 120030Z VRB01MPS 7000 NSC 17/10 Q1011 NOSIG,0,1.0,0,7000,0,0,0,
2026-04-12 00:00:00,METAR ZBTJ 120000Z 00000MPS 9000 NSC 14/09 Q1011 NOSIG,0,0.0,0,9000,0,0,0,
2026-04-11 23:30:00,METAR ZBTJ 112330Z 00000MPS 9000 NSC 13/08 Q1011 NOSIG,0,0.0,0,9000,0,0,0,
2026-04-11 23:00:00,METAR ZBTJ 112300Z 13001MPS CAVOK 11/08 Q1010 NOSIG,1,0.0,0,9999,0,0,0,
2026-04-11 22:30:00,METAR ZBTJ 112230Z 07001MPS CAVOK 09/06 Q1010 NOSIG,1,0.0,0,9999,0,0,0,
2026-04-11 22:00:00,METAR ZBTJ 112200Z 12001MPS CAVOK 08/05 Q1009 NOSIG,1,0.0,0,9999,0,0,0,
2026-04-11 21:30:00,METAR ZBTJ 112130Z 13001MPS CAVOK 08/05 Q1009 NOSIG,1,0.0,0,9999,0,0,0,
2026-04-11 21:00:00,METAR ZBTJ 112100Z 00000MPS CAVOK 09/05 Q1009 NOSIG,1,0.0,0,9999,0,0,0,
2026-04-11 20:30:00,METAR ZBTJ 112030Z VRB01MPS CAVOK 08/05 Q1009 NOSIG,1,0.0,0,9999,0,0,0,
2026-04-11 20:00:00,METAR ZBTJ 112000Z 07001MPS CAVOK 09/05 Q1009 NOSIG,1,0.0,0,9999,0,0,0,
2026-04-11 19:30:00,METAR ZBTJ 111930Z 00000MPS CAVOK 09/05 Q1009 NOSIG,1,0.0,0,9999,0,0,0,
2026-04-11 19:00:00,METAR ZBTJ 111900Z 09001MPS CAVOK 09/04 Q1010 NOSIG,1,0.0,0,9999,0,0,0,
2026-04-11 18:30:00,METAR ZBTJ 111830Z 11001MPS CAVOK 09/04 Q1010 NOSIG,1,0.0,0,9999,0,0,0,
2026-04-11 18:00:00,METAR ZBTJ 111800Z 12002MPS CAVOK 09/04 Q1010 NOSIG,1,0.0,0,9999,0,0,0,
2026-04-11 17:30:00,METAR ZBTJ 111730Z 14002MPS CAVOK 09/03 Q1010 NOSIG,1,0.0,0,9999,0,0,0,
2026-04-11 17:00:00,METAR ZBTJ 111700Z 15001MPS CAVOK 10/03 Q1010 NOSIG,1,0.0,0,9999,0,0,0,
2026-04-11 16:30:00,METAR ZBTJ 111630Z VRB01MPS CAVOK 10/03 Q1011 NOSIG,1,0.0,0,9999,0,0,0,
2026-04-11 16:00:00,METAR ZBTJ 111600Z 09002MPS CAVOK 11/03 Q1011 NOSIG,1,0.0,0,9999,0,0,0,
2026-04-11 15:30:00,METAR ZBTJ 111530Z 10003MPS CAVOK 11/02 Q1011 NOSIG,1,0.0,0,9999,0,0,0,
2026-04-11 15:00:00,METAR ZBTJ 111500Z 08002MPS CAVOK 11/02 Q1011 NOSIG,1,0.0,0,9999,0,0,0,
2026-04-11 14:30:00,METAR ZBTJ 111430Z 07002MPS CAVOK 11/01 Q1011 NOSIG,1,0.0,0,9999,0,0,0,
2026-04-11 14:00:00,METAR ZBTJ 111400Z 10002MPS CAVOK 12/01 Q1011 NOSIG,1,0.0,0,9999,0,0,0,
2026-04-11 13:30:00,METAR ZBTJ 111330Z 10002MPS CAVOK 12/M00 Q1012 NOSIG,1,0.0,0,9999,0,0,0,
2026-04-11 13:00:00,METAR ZBTJ 111300Z 12004MPS CAVOK 13/M01 Q1011 NOSIG,1,0.0,0,9999,0,0,0,
2026-04-11 12:30:00,METAR ZBTJ 111230Z 12004MPS CAVOK 13/M01 Q1011 NOSIG,1,0.0,0,9999,0,0,0,
2026-04-11 12:00:00,METAR ZBTJ 111200Z 11003MPS CAVOK 13/M01 Q1011 NOSIG,1,0.0,0,9999,0,0,0,
2026-04-11 11:30:00,METAR ZBTJ 111130Z 12005MPS CAVOK 13/M02 Q1011 NOSIG,1,0.0,0,9999,0,0,0,
2026-04-11 11:00:00,METAR ZBTJ 111100Z 12006MPS CAVOK 14/M03 Q1010 NOSIG,1,0.0,0,9999,0,0,0,
2026-04-11 10:30:00,METAR ZBTJ 111030Z 12006MPS CAVOK 15/M02 Q1010 NOSIG,1,0.0,0,9999,0,0,0,
2026-04-11 10:00:00,METAR ZBTJ 111000Z 12006MPS CAVOK 16/M02 Q1011 NOSIG,1,0.0,0,9999,0,0,0,
2026-04-11 09:30:00,METAR ZBTJ 110930Z 11007MPS CAVOK 17/M02 Q1011 NOSIG,1,0.0,0,9999,0,0,0,
2026-04-11 09:00:00,METAR ZBTJ 110900Z 12006MPS CAVOK 17/M02 Q1011 NOSIG,1,0.0,0,9999,0,0,0,
2026-04-11 08:30:00,METAR ZBTJ 110830Z 12007MPS CAVOK 18/M02 Q1011 NOSIG,1,0.0,0,9999,0,0,0,
2026-04-11 08:00:00,METAR ZBTJ 110800Z 12007MPS 090V150 CAVOK 18/M01 Q1011 NOSIG,1,0.0,0,9999,0,0,0,
2026-04-11 07:30:00,METAR ZBTJ 110730Z 11006MPS CAVOK 18/M01 Q1011 NOSIG,1,0.0,0,9999,0,0,0,
2026-04-11 07:00:00,METAR ZBTJ 110700Z 13006MPS CAVOK 19/M00 Q1012 NOSIG,1,0.0,0,9999,0,0,0,
2026-04-11 06:30:00,METAR ZBTJ 110630Z 10008MPS CAVOK 19/M01 Q1012 NOSIG,1,0.0,0,9999,0,0,0,
2026-04-11 06:00:00,METAR ZBTJ 110600Z 12007MPS CAVOK 19/M02 Q1012 NOSIG,1,0.0,0,9999,0,0,0,
2026-04-11 05:30:00,METAR ZBTJ 110530Z 15009MPS CAVOK 19/M02 Q1013 NOSIG,1,0.0,0,9999,0,0,0,
2026-04-11 05:00:00,METAR ZBTJ 110500Z 13008MPS CAVOK 20/M02 Q1012 NOSIG,1,0.0,0,9999,0,0,0,
2026-04-11 04:30:00,METAR ZBTJ 110430Z 11009MPS CAVOK 18/M04 Q1013 NOSIG,1,0.0,0,9999,0,0,0,
2026-04-11 04:00:00,METAR ZBTJ 110400Z 13010MPS CAVOK 18/M04 Q1013 NOSIG,1,0.0,0,9999,0,0,0,
2026-04-11 03:30:00,METAR ZBTJ 110330Z 12009MPS CAVOK 18/M05 Q1014 NOSIG,1,0.0,0,9999,0,0,0,
2026-04-11 03:00:00,METAR ZBTJ 110300Z 11009MPS CAVOK 18/M03 Q1014 NOSIG,1,0.0,0,9999,0,0,0,
2026-04-11 02:30:00,METAR ZBTJ 110230Z 11009MPS CAVOK 18/M03 Q1014 NOSIG,1,0.0,0,9999,0,0,0,
2026-04-11 02:00:00,METAR ZBTJ 110200Z 12008MPS CAVOK 17/M03 Q1014 NOSIG,1,0.0,0,9999,0,0,0,
2026-04-11 01:30:00,METAR ZBTJ 110130Z 11009MPS CAVOK 17/M03 Q1014 NOSIG,1,0.0,0,9999,0,0,0,
2026-04-11 01:00:00,METAR ZBTJ 110100Z 11009MPS CAVOK 16/M03 Q1013 NOSIG,1,0.0,0,9999,0,0,0,
2026-04-11 00:30:00,METAR ZBTJ 110030Z 11009MPS CAVOK 16/M02 Q1012 NOSIG,1,0.0,0,9999,0,0,0,
2026-04-11 00:00:00,METAR ZBTJ 110000Z 12008MPS CAVOK 15/M01 Q1012 NOSIG,1,0.0,0,9999,0,0,0,
2026-04-10 23:30:00,METAR ZBTJ 102330Z 12006MPS CAVOK 15/01 Q1012 NOSIG,1,0.0,0,9999,0,0,0,
2026-04-10 23:00:00,METAR ZBTJ 102300Z 12006MPS CAVOK 14/03 Q1011 NOSIG,1,0.0,0,9999,0,0,0,
2026-04-10 22:30:00,METAR ZBTJ 102230Z 10006MPS CAVOK 14/05 Q1011 NOSIG,1,0.0,0,9999,0,0,0,
2026-04-10 22:05:00,SPECI ZBTJ 102205Z 09005MPS 7000 NSC 11/07 Q1010 NOSIG,0,5.0,0,7000,0,0,0,
2026-04-10 22:00:00,METAR ZBTJ 102200Z 00000MPS 7000 NSC 11/06 Q1010 BECMG TL2330 10006MPS,0,0.0,0,7000,0,0,0,
2026-04-10 21:30:00,METAR ZBTJ 102130Z 15001MPS 8000 NSC 12/07 Q1009 NOSIG,0,1.0,0,8000,0,0,0,
2026-04-10 21:00:00,METAR ZBTJ 102100Z 09001MPS 8000 BCFG NSC 12/07 Q1009 BECMG TL2230 10006MPS,0,1.0,0,8000,0,0,1,"BC,FG"
2026-04-10 20:30:00,METAR ZBTJ 102030Z VRB01MPS 8000 NSC 11/06 Q1009 NOSIG,0,1.0,0,8000,0,0,0,
2026-04-10 20:00:00,METAR ZBTJ 102000Z VRB01MPS 8000 NSC 12/05 Q1009 BECMG TL2130 11006MPS,0,1.0,0,8000,0,0,0,
2026-04-10 19:30:00,METAR ZBTJ 101930Z 00000MPS CAVOK 14/06 Q1009 NOSIG,1,0.0,0,9999,0,0,0,
2026-04-10 19:00:00,METAR ZBTJ 101900Z 20002MPS 170V230 CAVOK 13/06 Q1009 NOSIG,1,0.0,0,9999,0,0,0,
2026-04-10 18:30:00,METAR ZBTJ 101830Z VRB01MPS CAVOK 15/06 Q1008 NOSIG,1,0.0,0,9999,0,0,0,
2026-04-10 18:00:00,METAR ZBTJ 101800Z VRB01MPS CAVOK 17/06 Q1008 NOSIG,1,0.0,0,9999,0,0,0,
2026-04-10 17:30:00,METAR ZBTJ 101730Z 25003MPS CAVOK 19/06 Q1008 NOSIG,1,0.0,0,9999,0,0,0,
2026-04-10 17:00:00,METAR ZBTJ 101700Z 26004MPS 230V290 CAVOK 19/06 Q1008 NOSIG,1,0.0,0,9999,0,0,0,
2026-04-10 16:30:00,METAR ZBTJ 101630Z 25004MPS CAVOK 19/06 Q1008 NOSIG,1,0.0,0,9999,0,0,0,
2026-04-10 16:00:00,METAR ZBTJ 101600Z 27003MPS 240V300 CAVOK 20/06 Q1007 NOSIG,1,0.0,0,9999,0,0,0,
2026-04-10 15:30:00,METAR ZBTJ 101530Z 26003MPS 220V290 CAVOK 20/06 Q1007 NOSIG,1,0.0,0,9999,0,0,0,
2026-04-10 15:00:00,METAR ZBTJ 101500Z 25004MPS 220V290 CAVOK 21/06 Q1007 NOSIG,1,0.0,0,9999,0,0,0,
2026-04-10 14:30:00,METAR ZBTJ 101430Z 24005MPS 210V280 CAVOK 21/05 Q1006 NOSIG,1,0.0,0,9999,0,0,0,
2026-04-10 14:00:00,METAR ZBTJ 101400Z 25004MPS 210V280 CAVOK 21/05 Q1006 NOSIG,1,0.0,0,9999,0,0,0,
2026-04-10 13:30:00,METAR ZBTJ 101330Z 24004MPS CAVOK 22/04 Q1006 NOSIG,1,0.0,0,9999,0,0,0,
2026-04-10 13:00:00,METAR ZBTJ 101300Z 24004MPS CAVOK 22/05 Q1005 NOSIG,1,0.0,0,9999,0,0,0,
2026-04-10 12:30:00,METAR ZBTJ 101230Z 24004MPS CAVOK 22/04 Q1005 NOSIG,1,0.0,0,9999,0,0,0,
2026-04-10 12:00:00,METAR ZBTJ 101200Z 24003MPS CAVOK 22/05 Q1005 NOSIG,1,0.0,0,9999,0,0,0,
2026-04-10 11:30:00,METAR ZBTJ 101130Z 24004MPS CAVOK 23/04 Q1004 NOSIG,1,0.0,0,9999,0,0,0,
2026-04-10 11:00:00,METAR ZBTJ 101100Z 24005MPS 210V270 CAVOK 23/04 Q1003 NOSIG,1,0.0,0,9999,0,0,0,
2026-04-10 10:30:00,METAR ZBTJ 101030Z 23005MPS 200V260 CAVOK 24/04 Q1003 NOSIG,1,0.0,0,9999,0,0,0,
2026-04-10 10:00:00,METAR ZBTJ 101000Z 23005MPS CAVOK 24/02 Q1003 NOSIG,1,0.0,0,9999,0,0,0,
2026-04-10 09:30:00,METAR ZBTJ 100930Z 24006MPS 200V270 CAVOK 25/04 Q1002 NOSIG,1,0.0,0,9999,0,0,0,
2026-04-10 09:00:00,METAR ZBTJ 100900Z 22006MPS CAVOK 25/04 Q1002 NOSIG,1,0.0,0,9999,0,0,0,
2026-04-10 08:30:00,METAR ZBTJ 100830Z 24005MPS 210V270 CAVOK 26/03 Q1002 NOSIG,1,0.0,0,9999,0,0,0,
2026-04-10 08:00:00,METAR ZBTJ 100800Z 25006G11MPS 190V290 CAVOK 26/02 Q1003 NOSIG,1,0.0,0,9999,0,0,0,
2026-04-10 07:30:00,METAR ZBTJ 100730Z 24006G11MPS 220V280 CAVOK 25/02 Q1003 NOSIG,1,0.0,0,9999,0,0,0,
2026-04-10 07:00:00,METAR ZBTJ 100700Z 26005MPS 220V290 CAVOK 25/00 Q1004 NOSIG,1,0.0,0,9999,0,0,0,
2026-04-10 06:30:00,METAR ZBTJ 100630Z 27006MPS 220V310 CAVOK 25/02 Q1004 NOSIG,1,0.0,0,9999,0,0,0,
2026-04-10 06:00:00,METAR ZBTJ 100600Z 26006MPS 210V290 CAVOK 24/03 Q1004 NOSIG,1,0.0,0,9999,0,0,0,
2026-04-10 05:30:00,METAR ZBTJ 100530Z 26005MPS 220V280 CAVOK 23/05 Q1004 NOSIG,1,0.0,0,9999,0,0,0,
2026-04-10 05:00:00,METAR ZBTJ 100500Z 26005MPS 200V310 CAVOK 23/04 Q1004 NOSIG,1,0.0,0,9999,0,0,0,
2026-04-10 04:30:00,METAR ZBTJ 100430Z 29005MPS 9000 NSC 22/08 Q1004 NOSIG,0,5.0,0,9000,0,0,0,
2026-04-10 04:00:00,METAR ZBTJ 100400Z 27004MPS 220V300 8000 NSC 21/09 Q1005 NOSIG,0,4.0,0,8000,0,0,0,
2026-04-10 03:30:00,METAR ZBTJ 100330Z 23003MPS 190V290 6000 NSC 20/10 Q1005 NOSIG,0,3.0,0,6000,0,0,0,
2026-04-10 03:00:00,METAR ZBTJ 100300Z 22004MPS 190V290 5000 HZ NSC 19/10 Q1006 BECMG TL0450 28005MPS,0,4.0,0,5000,0,0,0,
2026-04-10 02:30:00,METAR ZBTJ 100230Z 26003MPS 220V280 5000 HZ NSC 18/09 Q1006 NOSIG,0,3.0,0,5000,0,0,0,
2026-04-10 02:00:00,METAR ZBTJ 100200Z 26003MPS 190V310 4500 HZ NSC 17/10 Q1006 NOSIG,0,3.0,0,4500,0,0,0,
2026-04-10 01:30:00,METAR ZBTJ 100130Z 26003MPS 230V310 4000 HZ NSC 16/10 Q1006 NOSIG,0,3.0,0,4000,0,0,0,
2026-04-10 01:00:00,METAR ZBTJ 100100Z 27003MPS 3000 HZ NSC 15/10 Q1006 NOSIG,0,3.0,0,3000,0,0,0,
2026-04-10 00:30:00,METAR ZBTJ 100030Z 26003MPS 230V290 3000 BR SCT011 14/11 Q1005 NOSIG,0,3.0,0,3000,0,0,1,BR
2026-04-10 00:00:00,METAR ZBTJ 100000Z 28003MPS 3000 BR SCT011 13/11 Q1005 NOSIG,0,3.0,0,3000,0,0,1,BR
2026-04-09 23:30:00,METAR ZBTJ 092330Z 27004MPS 240V300 3000 BR SCT011 12/10 Q1005 NOSIG,0,4.0,0,3000,0,0,1,BR
2026-04-09 23:00:00,METAR ZBTJ 092300Z 27003MPS 240V300 2500 BR BKN011 12/10 Q1004 BECMG TL0030 3000 SCT013,0,3.0,0,2500,0,0,1,BR
2026-04-09 22:30:00,METAR ZBTJ 092230Z 27004MPS 240V300 2500 BR BKN011 12/10 Q1004 NOSIG,0,4.0,0,2500,0,0,1,BR
2026-04-09 22:00:00,METAR ZBTJ 092200Z 27003MPS 230V310 2500 BR BKN011 12/10 Q1004 BECMG TL2330 3000 SCT013,0,3.0,0,2500,0,0,1,BR
2026-04-09 21:30:00,METAR ZBTJ 092130Z 26004MPS 2500 BR BKN010 12/10 Q1003 NOSIG,0,4.0,0,2500,0,0,1,BR
2026-04-09 21:00:00,METAR ZBTJ 092100Z 27003MPS 240V300 2500 BR BKN010 OVC040 11/10 Q1003 BECMG TL2230 3000 SCT013,0,3.0,0,2500,0,0,1,BR
2026-04-09 20:30:00,METAR ZBTJ 092030Z 26002MPS 230V290 2500 BR BKN010 OVC040 11/10 Q1003 NOSIG,0,2.0,0,2500,0,0,1,BR
2026-04-09 20:00:00,METAR ZBTJ 092000Z VRB01MPS 2500 BR BKN008 OVC040 11/11 Q1003 BECMG TL2150 BKN010,0,1.0,0,2500,0,0,1,BR
2026-04-09 19:30:00,METAR ZBTJ 091930Z VRB01MPS 2000 BR BKN006 OVC040 11/11 Q1003 NOSIG,0,1.0,0,2000,0,0,1,BR
2026-04-09 19:00:00,METAR ZBTJ 091900Z VRB01MPS 1500 BR BKN006 OVC040 10/10 Q1003 NOSIG,0,1.0,0,1500,0,0,1,BR
2026-04-09 18:30:00,METAR ZBTJ 091830Z VRB01MPS 1300 R16L/P2000U R16R/P2000N BR BKN004 OVC040 10/10 Q1003 NOSIG,0,1.0,0,1300,0,0,1,BR
2026-04-09 18:00:00,METAR ZBTJ 091800Z VRB01MPS 1500 BR BKN004 OVC040 10/10 Q1003 BECMG TL1930 1400,0,1.0,0,1500,0,0,1,BR
2026-04-09 17:30:00,METAR ZBTJ 091730Z VRB01MPS 1500 BR BKN005 OVC040 10/10 Q1003 NOSIG,0,1.0,0,1500,0,0,1,BR
2026-04-09 17:00:00,METAR ZBTJ 091700Z 35002MPS 1500 -RA BR BKN005 OVC040 10/10 Q1003 BECMG TL1830 1400,0,2.0,0,1500,0,0,1,"-RA,BR"
2026-04-09 16:30:00,METAR ZBTJ 091630Z 35002MPS 1500 -RA BR BKN010 OVC046 10/10 Q1003 NOSIG,0,2.0,0,1500,0,0,1,"-RA,BR"
2026-04-09 16:00:00,METAR ZBTJ 091600Z VRB01MPS 2500 BR BKN010 OVC046 11/10 Q1003 BECMG TL1730 BKN008,0,1.0,0,2500,0,0,1,BR
2026-04-09 15:30:00,METAR ZBTJ 091530Z VRB01MPS 2800 BR BKN010 OVC046 11/10 Q1002 NOSIG,0,1.0,0,2800,0,0,1,BR
2026-04-09 15:00:00,METAR ZBTJ 091500Z 29001MPS 3500 BR BKN010 OVC046 11/09 Q1003 BECMG TL1630 2800 BKN008,0,1.0,0,3500,0,0,1,BR
2026-04-09 14:30:00,METAR ZBTJ 091430Z 32002MPS 3500 BR BKN010 OVC046 11/09 Q1003 NOSIG,0,2.0,0,3500,0,0,1,BR
2026-04-09 14:00:00,METAR ZBTJ 091400Z 30002MPS 230V340 3500 BR BKN010 OVC046 11/09 Q1003 NOSIG,0,2.0,0,3500,0,0,1,BR
2026-04-09 13:30:00,METAR ZBTJ 091330Z 17002MPS 130V220 2800 BR BKN010 OVC046 11/09 Q1003 NOSIG,0,2.0,0,2800,0,0,1,BR
2026-04-09 13:00:00,METAR ZBTJ 091300Z 12003MPS 080V190 3000 -SHRA BR BKN006 OVC040 10/09 Q1002 BECMG TL1400 2800,0,3.0,0,3000,0,0,1,"BR,RA"
2026-04-09 12:30:00,METAR ZBTJ 091230Z 12002MPS 3000 BR BKN005 OVC033 10/09 Q1003 NOSIG,0,2.0,0,3000,0,0,1,BR
2026-04-09 12:00:00,METAR ZBTJ 091200Z 10002MPS 060V140 3000 BR BKN005 OVC033 10/10 Q1003 BECMG TL1330 2800,0,2.0,0,3000,0,0,1,BR
2026-04-09 11:30:00,METAR ZBTJ 091130Z 06002MPS 030V090 3000 BR BKN005 OVC033 10/10 Q1002 NOSIG,0,2.0,0,3000,0,0,1,BR
2026-04-09 11:00:00,METAR ZBTJ 091100Z 09004MPS 3000 BR BKN005 OVC046 10/09 Q1001 NOSIG,0,4.0,0,3000,0,0,1,BR
2026-04-09 10:30:00,METAR ZBTJ 091030Z 06003MPS 3000 BR BKN005 OVC046 10/10 Q1001 NOSIG,0,3.0,0,3000,0,0,1,BR
2026-04-09 10:00:00,METAR ZBTJ 091000Z 06003MPS 3000 BR BKN005 OVC046 10/10 Q1001 BECMG TL1130 2800,0,3.0,0,3000,0,0,1,BR
2026-04-09 09:30:00,METAR ZBTJ 090930Z 08003MPS 4000 BR BKN005 OVC046 10/10 Q1000 NOSIG,0,3.0,0,4000,0,0,1,BR
2026-04-09 09:00:00,METAR ZBTJ 090900Z 07003MPS 4000 BR OVC006 10/10 Q1000 NOSIG,0,3.0,0,4000,0,0,1,BR
2026-04-09 08:30:00,METAR ZBTJ 090830Z 07003MPS 030V090 4000 BR OVC006 11/10 Q1000 NOSIG,0,3.0,0,4000,0,0,1,BR
2026-04-09 08:00:00,METAR ZBTJ 090800Z 08003MPS 030V120 5000 BR OVC006 11/10 Q1000 NOSIG,0,3.0,0,5000,0,0,1,BR
2026-04-09 07:30:00,METAR ZBTJ 090730Z 09003MPS 4500 BR OVC006 11/10 Q1000 NOSIG,0,3.0,0,4500,0,0,1,BR
2026-04-09 07:00:00,METAR ZBTJ 090700Z 11004MPS 060V130 5000 BR OVC006 11/10 Q1000 NOSIG,0,4.0,0,5000,0,0,1,BR
2026-04-09 06:30:00,METAR ZBTJ 090630Z 10003MPS 060V130 8000 OVC008 11/09 Q1000 NOSIG,0,3.0,0,8000,0,0,0,
2026-04-09 06:00:00,METAR ZBTJ 090600Z 10004MPS 040V120 9999 OVC008 11/09 Q1000 BECMG TL0730 BKN010,0,4.0,0,10000,0,0,0,
2026-04-09 05:30:00,METAR ZBTJ 090530Z 08004MPS 040V110 9999 OVC008 11/09 Q1000 NOSIG,0,4.0,0,10000,0,0,0,
2026-04-09 05:00:00,METAR ZBTJ 090500Z 08005MPS 9999 OVC006 11/10 Q1001 NOSIG,0,5.0,0,10000,0,0,0,
2026-04-09 04:30:00,METAR ZBTJ 090430Z 08004MPS 9999 OVC006 11/10 Q1001 NOSIG,0,4.0,0,10000,0,0,0,
2026-04-09 04:00:00,METAR ZBTJ 090400Z 06005MPS 020V080 9999 OVC008 11/10 Q1001 BECMG TL0530 BKN010,0,5.0,0,10000,0,0,0,
2026-04-09 03:30:00,METAR ZBTJ 090330Z 08005MPS 6000 OVC010 12/10 Q1002 NOSIG,0,5.0,0,6000,0,0,0,
2026-04-09 03:00:00,METAR ZBTJ 090300Z 07005MPS 5000 BR BKN011 13/11 Q1002 BECMG TL0430 BKN015,0,5.0,0,5000,0,0,1,BR
2026-04-09 02:30:00,METAR ZBTJ 090230Z 05004MPS 4500 BR BKN010 OVC040 12/10 Q1002 NOSIG,0,4.0,0,4500,0,0,1,BR
2026-04-09 02:00:00,METAR ZBTJ 090200Z 06004MPS 3500 BR BKN008 OVC040 12/11 Q1003 BECMG TL0300 BKN010,0,4.0,0,3500,0,0,1,BR
2026-04-09 01:30:00,METAR ZBTJ 090130Z 06004MPS 010V080 2700 BR BKN006 OVC040 11/10 Q1003 NOSIG,0,4.0,0,2700,0,0,1,BR
2026-04-09 01:15:00,SPECI ZBTJ 090115Z 05004MPS 2700 BR BKN006 OVC040 11/11 Q1002 NOSIG,0,4.0,0,2700,0,0,1,BR
2026-04-09 01:00:00,METAR ZBTJ 090100Z 05005MPS 2700 -RA BR SCT008 OVC040 11/10 Q1002 BECMG TL0200 3000,0,5.0,0,2700,0,0,1,"-RA,BR"
2026-04-09 00:30:00,METAR ZBTJ 090030Z 03004MPS 3000 -RA BR SCT013 OVC033 11/10 Q1003 NOSIG,0,4.0,0,3000,0,0,1,"-RA,BR"
2026-04-09 00:00:00,METAR ZBTJ 090000Z 03004MPS 350V060 3000 -RA BR SCT013 OVC033 11/10 Q1002 BECMG TL0100 2800 BKN010,0,4.0,0,3000,0,0,1,"-RA,BR"
2026-04-08 23:30:00,METAR ZBTJ 082330Z 05003MPS 3000 -RA BR SCT013 OVC033 11/10 Q1002 BECMG TL2350 2800 BKN010,0,3.0,0,3000,0,0,1,"-RA,BR"
2026-04-08 23:00:00,METAR ZBTJ 082300Z 05003MPS 4000 -RA BR SCT016 12/10 Q1002 BECMG TL2350 2800 BKN010,0,3.0,0,4000,0,0,1,"-RA,BR"
2026-04-08 22:30:00,METAR ZBTJ 082230Z 02003MPS 4000 -RA BR SCT016 12/10 Q1002 NOSIG,0,3.0,0,4000,0,0,1,"-RA,BR"
2026-04-08 22:00:00,METAR ZBTJ 082200Z 03003MPS 3000 BR BKN010 12/10 Q1002 BECMG TL2300 BKN008,0,3.0,0,3000,0,0,1,BR
2026-04-08 21:30:00,METAR ZBTJ 082130Z 04003MPS 2500 BR BKN006 12/11 Q1001 NOSIG,0,3.0,0,2500,0,0,1,BR
2026-04-08 21:00:00,METAR ZBTJ 082100Z 35002MPS 1400 R34R/P2000U R34L/P2000U -RA BR BKN006 12/12 Q1001 BECMG TL2230 3000,0,2.0,0,1400,0,0,1,"-RA,BR"
2026-04-08 20:30:00,METAR ZBTJ 082030Z 34003MPS 1400 R34R/P2000N R34L/P2000N -RA BR SCT006 12/12 Q1002 NOSIG,0,3.0,0,1400,0,0,1,"-RA,BR"
2026-04-08 20:00:00,METAR ZBTJ 082000Z 33003MPS 1400 R34R/P2000N R34L/P2000N -RA BR SCT006 12/11 Q1002 BECMG TL2130 1500 BKN008,0,3.0,0,1400,0,0,1,"-RA,BR"
2026-04-08 19:30:00,METAR ZBTJ 081930Z 34004MPS 1000 R34R/P2000U R34L/P2000N -RA BR SCT006 12/12 Q1002 NOSIG,0,4.0,0,1000,0,0,1,"-RA,BR"
2026-04-08 19:00:00,METAR ZBTJ 081900Z 34003MPS 1500 -RA BR SCT010 13/12 Q1003 BECMG TL2000 1400,0,3.0,0,1500,0,0,1,"-RA,BR"
2026-04-08 18:30:00,METAR ZBTJ 081830Z 32002MPS 1500 -RA BR SCT010 13/12 Q1003 NOSIG,0,2.0,0,1500,0,0,1,"-RA,BR"
2026-04-08 18:00:00,METAR ZBTJ 081800Z 30002MPS 270V330 2500 -RA BR NSC 13/12 Q1004 BECMG TL1900 BKN008,0,2.0,0,2500,0,0,1,"-RA,BR"
2026-04-08 17:30:00,METAR ZBTJ 081730Z 30003MPS 3000 -RA BR NSC 13/11 Q1004 NOSIG,0,3.0,0,3000,0,0,1,"-RA,BR"
2026-04-08 17:00:00,METAR ZBTJ 081700Z 30002MPS 4000 -RA BR NSC 14/11 Q1005 BECMG TL1800 2800,0,2.0,0,4000,0,0,1,"-RA,BR"
2026-04-08 16:30:00,METAR ZBTJ 081630Z 30002MPS 5000 -RA BR NSC 14/11 Q1005 NOSIG,0,2.0,0,5000,0,0,1,"-RA,BR"
2026-04-08 16:00:00,METAR ZBTJ 081600Z 28002MPS 6000 -RA NSC 14/10 Q1005 BECMG TL1730 2800,0,2.0,0,6000,0,0,0,-RA
2026-04-08 15:30:00,METAR ZBTJ 081530Z 17002MPS 150V230 9000 -RA NSC 13/10 Q1006 NOSIG,0,2.0,0,9000,0,0,0,-RA
2026-04-08 15:00:00,METAR ZBTJ 081500Z 23001MPS 9999 -RA NSC 15/09 Q1006 NOSIG,0,1.0,0,10000,0,0,0,-RA
2026-04-08 14:30:00,METAR ZBTJ 081430Z 20002MPS 9999 -RA NSC 15/08 Q1006 NOSIG,0,2.0,0,10000,0,0,0,-RA
2026-04-08 14:00:00,METAR ZBTJ 081400Z 16002MPS 9000 NSC 15/07 Q1006 NOSIG,0,2.0,0,9000,0,0,0,
2026-04-08 13:30:00,METAR ZBTJ 081330Z 07002MPS 9000 NSC 15/07 Q1006 NOSIG,0,2.0,0,9000,0,0,0,
2026-04-08 13:00:00,METAR ZBTJ 081300Z 11001MPS 9000 NSC 16/06 Q1006 NOSIG,0,1.0,0,9000,0,0,0,
2026-04-08 12:30:00,METAR ZBTJ 081230Z 15002MPS 9000 NSC 16/06 Q1006 NOSIG,0,2.0,0,9000,0,0,0,
2026-04-08 12:00:00,METAR ZBTJ 081200Z 13002MPS 9000 NSC 16/06 Q1006 NOSIG,0,2.0,0,9000,0,0,0,
2026-04-08 11:30:00,METAR ZBTJ 081130Z 09002MPS 9999 -RA NSC 16/07 Q1006 NOSIG,0,2.0,0,10000,0,0,0,-RA
2026-04-08 11:00:00,METAR ZBTJ 081100Z 15002MPS CAVOK 17/06 Q1006 NOSIG,1,0.0,0,9999,0,0,0,
2026-04-08 10:30:00,METAR ZBTJ 081030Z 15003MPS CAVOK 17/06 Q1006 NOSIG,1,0.0,0,9999,0,0,0,
2026-04-08 10:00:00,METAR ZBTJ 081000Z 15004MPS CAVOK 17/06 Q1006 NOSIG,1,0.0,0,9999,0,0,0,
2026-04-08 09:30:00,METAR ZBTJ 080930Z 14005MPS CAVOK 18/06 Q1006 NOSIG,1,0.0,0,9999,0,0,0,
2026-04-08 09:00:00,METAR ZBTJ 080900Z 14005MPS CAVOK 18/07 Q1006 BECMG TL1000 08003MPS,1,0.0,0,9999,0,0,0,
2026-04-08 08:30:00,METAR ZBTJ 080830Z 15005MPS CAVOK 18/07 Q1007 NOSIG,1,0.0,0,9999,0,0,0,
2026-04-08 08:00:00,METAR ZBTJ 080800Z 15005MPS CAVOK 18/07 Q1007 NOSIG,1,0.0,0,9999,0,0,0,
2026-04-08 07:30:00,METAR ZBTJ 080730Z 14007MPS CAVOK 19/07 Q1007 NOSIG,1,0.0,0,9999,0,0,0,
2026-04-08 07:00:00,METAR ZBTJ 080700Z 20006MPS 180V240 CAVOK 21/04 Q1007 BECMG TL0800 14005MPS,1,0.0,0,9999,0,0,0,
2026-04-08 06:30:00,METAR ZBTJ 080630Z 22006MPS 180V250 CAVOK 22/04 Q1007 NOSIG,1,0.0,0,9999,0,0,0,
2026-04-08 06:00:00,METAR ZBTJ 080600Z 20006MPS 180V240 CAVOK 21/05 Q1008 NOSIG,1,0.0,0,9999,0,0,0,
2026-04-08 05:30:00,METAR ZBTJ 080530Z 21004MPS 160V250 CAVOK 21/05 Q1008 NOSIG,1,0.0,0,9999,0,0,0,
2026-04-08 05:00:00,METAR ZBTJ 080500Z 23004MPS 170V290 CAVOK 21/05 Q1009 NOSIG,1,0.0,0,9999,0,0,0,
2026-04-08 04:30:00,METAR ZBTJ 080430Z 24004MPS 200V290 CAVOK 20/06 Q1009 NOSIG,1,0.0,0,9999,0,0,0,
2026-04-08 04:00:00,METAR ZBTJ 080400Z 22004MPS 160V310 CAVOK 19/05 Q1010 NOSIG,1,0.0,0,9999,0,0,0,
2026-04-08 03:30:00,METAR ZBTJ 080330Z 23004MPS 190V270 CAVOK 18/05 Q1011 NOSIG,1,0.0,0,9999,0,0,0,
2026-04-08 03:00:00,METAR ZBTJ 080300Z 23004MPS 170V290 CAVOK 18/05 Q1011 NOSIG,1,0.0,0,9999,0,0,0,
2026-04-08 02:30:00,METAR ZBTJ 080230Z 24005MPS 190V280 CAVOK 17/05 Q1012 NOSIG,1,0.0,0,9999,0,0,0,
2026-04-08 02:00:00,METAR ZBTJ 080200Z 22004MPS 180V270 CAVOK 16/04 Q1012 NOSIG,1,0.0,0,9999,0,0,0,
2026-04-08 01:30:00,METAR ZBTJ 080130Z 22004MPS 190V270 CAVOK 15/04 Q1013 NOSIG,1,0.0,0,9999,0,0,0,
2026-04-08 01:00:00,METAR ZBTJ 080100Z 21002MPS 170V250 CAVOK 14/03 Q1013 NOSIG,1,0.0,0,9999,0,0,0,
2026-04-08 00:30:00,METAR ZBTJ 080030Z 20003MPS 170V230 9999 BKN043 12/02 Q1013 NOSIG,0,3.0,0,10000,0,0,0,
2026-04-08 00:00:00,METAR ZBTJ 080000Z 16003MPS 9999 BKN043 11/01 Q1013 NOSIG,0,3.0,0,10000,0,0,0,
2026-04-07 23:30:00,METAR ZBTJ 072330Z 16002MPS 9999 BKN043 10/01 Q1013 NOSIG,0,2.0,0,10000,0,0,0,
2026-04-07 23:00:00,METAR ZBTJ 072300Z 15002MPS 9999 BKN043 10/01 Q1013 NOSIG,0,2.0,0,10000,0,0,0,
2026-04-07 22:30:00,METAR ZBTJ 072230Z 15002MPS 9999 BKN043 09/02 Q1013 NOSIG,0,2.0,0,10000,0,0,0,
2026-04-07 22:00:00,METAR ZBTJ 072200Z 15002MPS 9999 BKN043 09/03 Q1013 NOSIG,0,2.0,0,10000,0,0,0,
2026-04-07 21:30:00,METAR ZBTJ 072130Z 16002MPS 9999 BKN043 08/03 Q1013 NOSIG,0,2.0,0,10000,0,0,0,
2026-04-07 21:00:00,METAR ZBTJ 072100Z 14001MPS 9999 BKN043 08/03 Q1013 NOSIG,0,1.0,0,10000,0,0,0,
2026-04-07 20:30:00,METAR ZBTJ 072030Z 16002MPS CAVOK 07/03 Q1013 NOSIG,1,0.0,0,9999,0,0,0,
2026-04-07 20:00:00,METAR ZBTJ 072000Z 15002MPS CAVOK 07/03 Q1013 NOSIG,1,0.0,0,9999,0,0,0,
2026-04-07 19:30:00,METAR ZBTJ 071930Z 16002MPS CAVOK 07/03 Q1014 NOSIG,1,0.0,0,9999,0,0,0,
2026-04-07 19:00:00,METAR ZBTJ 071900Z 16001MPS CAVOK 08/03 Q1014 NOSIG,1,0.0,0,9999,0,0,0,
2026-04-07 18:30:00,METAR ZBTJ 071830Z 16002MPS CAVOK 08/03 Q1014 NOSIG,1,0.0,0,9999,0,0,0,
2026-04-07 18:00:00,METAR ZBTJ 071800Z 16002MPS CAVOK 07/03 Q1015 NOSIG,1,0.0,0,9999,0,0,0,
2026-04-07 17:30:00,METAR ZBTJ 071730Z 14002MPS CAVOK 07/02 Q1015 NOSIG,1,0.0,0,9999,0,0,0,
2026-04-07 17:00:00,METAR ZBTJ 071700Z 16003MPS CAVOK 07/02 Q1015 NOSIG,1,0.0,0,9999,0,0,0,
2026-04-07 16:30:00,METAR ZBTJ 071630Z 17003MPS CAVOK 08/01 Q1016 NOSIG,1,0.0,0,9999,0,0,0,
2026-04-07 16:00:00,METAR ZBTJ 071600Z 18002MPS CAVOK 08/M00 Q1016 NOSIG,1,0.0,0,9999,0,0,0,
2026-04-07 15:30:00,METAR ZBTJ 071530Z 17003MPS CAVOK 08/M01 Q1016 NOSIG,1,0.0,0,9999,0,0,0,
2026-04-07 15:00:00,METAR ZBTJ 071500Z 16004MPS CAVOK 08/M02 Q1016 NOSIG,1,0.0,0,9999,0,0,0,
2026-04-07 14:30:00,METAR ZBTJ 071430Z 16003MPS CAVOK 09/M03 Q1017 NOSIG,1,0.0,0,9999,0,0,0,
2026-04-07 14:00:00,METAR ZBTJ 071400Z 16002MPS CAVOK 07/M03 Q1017 NOSIG,1,0.0,0,9999,0,0,0,
2026-04-07 13:30:00,METAR ZBTJ 071330Z 17004MPS CAVOK 09/M04 Q1017 NOSIG,1,0.0,0,9999,0,0,0,
2026-04-07 13:00:00,METAR ZBTJ 071300Z 17004MPS CAVOK 09/M02 Q1017 NOSIG,1,0.0,0,9999,0,0,0,
2026-04-07 12:30:00,METAR ZBTJ 071230Z 16003MPS CAVOK 08/M03 Q1017 NOSIG,1,0.0,0,9999,0,0,0,
2026-04-07 12:00:00,METAR ZBTJ 071200Z 16003MPS CAVOK 09/M05 Q1017 NOSIG,1,0.0,0,9999,0,0,0,
2026-04-07 11:30:00,METAR ZBTJ 071130Z 16004MPS CAVOK 09/M05 Q1017 NOSIG,1,0.0,0,9999,0,0,0,
2026-04-07 11:00:00,METAR ZBTJ 071100Z 16005MPS CAVOK 10/M05 Q1017 NOSIG,1,0.0,0,9999,0,0,0,
2026-04-07 10:30:00,METAR ZBTJ 071030Z 16005MPS CAVOK 10/M05 Q1017 NOSIG,1,0.0,0,9999,0,0,0,
2026-04-07 10:00:00,METAR ZBTJ 071000Z 16006MPS CAVOK 11/M05 Q1017 NOSIG,1,0.0,0,9999,0,0,0,
2026-04-07 09:30:00,METAR ZBTJ 070930Z 16006MPS CAVOK 12/M05 Q1017 NOSIG,1,0.0,0,9999,0,0,0,
2026-04-07 09:00:00,METAR ZBTJ 070900Z 16008MPS CAVOK 13/M05 Q1017 NOSIG,1,0.0,0,9999,0,0,0,
2026-04-07 08:30:00,METAR ZBTJ 070830Z 19004MPS 150V220 CAVOK 14/M07 Q1017 NOSIG,1,0.0,0,9999,0,0,0,
2026-04-07 08:00:00,METAR ZBTJ 070800Z 20004MPS 120V270 CAVOK 15/M08 Q1018 BECMG TL0930 14005MPS,1,0.0,0,9999,0,0,0,
2026-04-07 07:30:00,METAR ZBTJ 070730Z 22004MPS 150V270 CAVOK 14/M09 Q1018 NOSIG,1,0.0,0,9999,0,0,0,
2026-04-07 07:00:00,METAR ZBTJ 070700Z 25005MPS CAVOK 14/M10 Q1018 BECMG TL0830 16005MPS,1,0.0,0,9999,0,0,0,
2026-04-07 06:30:00,METAR ZBTJ 070630Z VRB03MPS CAVOK 15/M09 Q1019 NOSIG,1,0.0,0,9999,0,0,0,
2026-04-07 06:00:00,METAR ZBTJ 070600Z 20003MPS 150V270 CAVOK 14/M09 Q1019 BECMG TL0730 13005MPS,1,0.0,0,9999,0,0,0,
2026-04-07 05:30:00,METAR ZBTJ 070530Z VRB03MPS CAVOK 14/M09 Q1020 NOSIG,1,0.0,0,9999,0,0,0,
2026-04-07 05:00:00,METAR ZBTJ 070500Z 18003MPS 140V230 CAVOK 14/M09 Q1021 NOSIG,1,0.0,0,9999,0,0,0,
2026-04-07 04:30:00,METAR ZBTJ 070430Z 13003MPS 070V200 CAVOK 13/M09 Q1021 NOSIG,1,0.0,0,9999,0,0,0,
2026-04-07 04:00:00,METAR ZBTJ 070400Z 30003MPS 250V010 CAVOK 13/M09 Q1021 NOSIG,1,0.0,0,9999,0,0,0,
2026-04-07 03:30:00,METAR ZBTJ 070330Z VRB01MPS CAVOK 13/M10 Q1022 NOSIG,1,0.0,0,9999,0,0,0,
2026-04-07 03:00:00,METAR ZBTJ 070300Z 24002MPS 180V310 CAVOK 12/M10 Q1022 NOSIG,1,0.0,0,9999,0,0,0,
2026-04-07 02:30:00,METAR ZBTJ 070230Z VRB02MPS CAVOK 12/M09 Q1023 NOSIG,1,0.0,0,9999,0,0,0,
2026-04-07 02:00:00,METAR ZBTJ 070200Z VRB02MPS CAVOK 12/M08 Q1023 NOSIG,1,0.0,0,9999,0,0,0,
2026-04-07 01:30:00,METAR ZBTJ 070130Z VRB02MPS CAVOK 11/M09 Q1023 NOSIG,1,0.0,0,9999,0,0,0,
2026-04-07 01:00:00,METAR ZBTJ 070100Z 08002MPS 030V120 CAVOK 10/M07 Q1023 NOSIG,1,0.0,0,9999,0,0,0,
2026-04-07 00:30:00,METAR ZBTJ 070030Z 11003MPS 080V150 CAVOK 10/M07 Q1023 NOSIG,1,0.0,0,9999,0,0,0,
2026-04-07 00:00:00,METAR ZBTJ 070000Z 08003MPS 040V110 CAVOK 09/M08 Q1023 NOSIG,1,0.0,0,9999,0,0,0,
2026-04-06 23:30:00,METAR ZBTJ 062330Z 06003MPS 010V090 CAVOK 09/M07 Q1023 NOSIG,1,0.0,0,9999,0,0,0,
2026-04-06 23:00:00,METAR ZBTJ 062300Z 01002MPS 350V050 CAVOK 07/M06 Q1023 NOSIG,1,0.0,0,9999,0,0,0,
2026-04-06 22:30:00,METAR ZBTJ 062230Z 33001MPS CAVOK 05/M04 Q1022 NOSIG,1,0.0,0,9999,0,0,0,
2026-04-06 22:00:00,METAR ZBTJ 062200Z 31001MPS CAVOK 05/M04 Q1021 NOSIG,1,0.0,0,9999,0,0,0,
2026-04-06 21:30:00,METAR ZBTJ 062130Z 01002MPS CAVOK 04/M05 Q1021 NOSIG,1,0.0,0,9999,0,0,0,
2026-04-06 21:00:00,METAR ZBTJ 062100Z 01003MPS CAVOK 03/M04 Q1021 NOSIG,1,0.0,0,9999,0,0,0,
2026-04-06 20:30:00,METAR ZBTJ 062030Z 35003MPS CAVOK 04/M04 Q1020 NOSIG,1,0.0,0,9999,0,0,0,
2026-04-06 20:00:00,METAR ZBTJ 062000Z 03002MPS CAVOK 07/M05 Q1020 NOSIG,1,0.0,0,9999,0,0,0,
2026-04-06 19:30:00,METAR ZBTJ 061930Z 05002MPS CAVOK 07/M05 Q1020 NOSIG,1,0.0,0,9999,0,0,0,
2026-04-06 19:00:00,METAR ZBTJ 061900Z 05002MPS CAVOK 07/M05 Q1020 NOSIG,1,0.0,0,9999,0,0,0,
2026-04-06 18:30:00,METAR ZBTJ 061830Z 07003MPS CAVOK 07/M05 Q1020 NOSIG,1,0.0,0,9999,0,0,0,
2026-04-06 18:00:00,METAR ZBTJ 061800Z 07003MPS CAVOK 08/M04 Q1020 NOSIG,1,0.0,0,9999,0,0,0,
2026-04-06 17:30:00,METAR ZBTJ 061730Z 06003MPS CAVOK 08/M04 Q1020 NOSIG,1,0.0,0,9999,0,0,0,
2026-04-06 17:00:00,METAR ZBTJ 061700Z 08003MPS CAVOK 09/M02 Q1020 NOSIG,1,0.0,0,9999,0,0,0,
2026-04-06 16:30:00,METAR ZBTJ 061630Z 08004MPS CAVOK 09/M02 Q1019 NOSIG,1,0.0,0,9999,0,0,0,
2026-04-06 16:00:00,METAR ZBTJ 061600Z 07005MPS CAVOK 09/M03 Q1019 NOSIG,1,0.0,0,9999,0,0,0,
2026-04-06 15:30:00,METAR ZBTJ 061530Z 08005MPS CAVOK 10/M03 Q1018 NOSIG,1,0.0,0,9999,0,0,0,
2026-04-06 15:00:00,METAR ZBTJ 061500Z 08008MPS CAVOK 10/M03 Q1018 BECMG TL1650 09003MPS,1,0.0,0,9999,0,0,0,
2026-04-06 14:30:00,METAR ZBTJ 061430Z 08009MPS CAVOK 11/M05 Q1017 NOSIG,1,0.0,0,9999,0,0,0,
2026-04-06 14:00:00,METAR ZBTJ 061400Z 08011MPS CAVOK 12/M07 Q1016 BECMG TL1550 08005MPS,1,0.0,0,9999,0,0,0,
2026-04-06 13:30:00,METAR ZBTJ 061330Z 01005MPS CAVOK 15/M14 Q1015 NOSIG,1,0.0,0,9999,0,0,0,
2026-04-06 13:00:00,METAR ZBTJ 061300Z 36003MPS 330V030 CAVOK 15/M13 Q1014 NOSIG,1,0.0,0,9999,0,0,0,
2026-04-06 12:30:00,METAR ZBTJ 061230Z 01006MPS CAVOK 16/M15 Q1013 NOSIG,1,0.0,0,9999,0,0,0,
2026-04-06 12:00:00,METAR ZBTJ 061200Z 35005MPS CAVOK 16/M10 Q1013 NOSIG,1,0.0,0,9999,0,0,0,
2026-04-06 11:30:00,METAR ZBTJ 061130Z 34005MPS CAVOK 16/M08 Q1011 NOSIG,1,0.0,0,9999,0,0,0,
2026-04-06 11:00:00,METAR ZBTJ 061100Z 35004MPS CAVOK 16/M09 Q1011 NOSIG,1,0.0,0,9999,0,0,0,
2026-04-06 10:30:00,METAR ZBTJ 061030Z 35004MPS CAVOK 16/M09 Q1010 NOSIG,1,0.0,0,9999,0,0,0,
2026-04-06 10:00:00,METAR ZBTJ 061000Z 01004MPS CAVOK 17/M08 Q1010 BECMG TL1150 36009MPS,1,0.0,0,9999,0,0,0,
2026-04-06 09:30:00,METAR ZBTJ 060930Z 29003MPS 260V360 9999 FEW033 17/M09 Q1009 NOSIG,0,3.0,0,10000,0,0,0,
2026-04-06 09:00:00,METAR ZBTJ 060900Z 30003MPS 240V350 9999 FEW033 17/M09 Q1009 BECMG TL1050 34008MPS,0,3.0,0,10000,0,0,0,
2026-04-06 08:30:00,METAR ZBTJ 060830Z 27004MPS 240V320 9999 FEW033 17/M09 Q1009 NOSIG,0,4.0,0,10000,0,0,0,
2026-04-06 08:00:00,METAR ZBTJ 060800Z 32007MPS 290V350 9999 FEW033 17/M09 Q1009 NOSIG,0,7.0,0,10000,0,0,0,
2026-04-06 07:30:00,METAR ZBTJ 060730Z 31004MPS 280V340 9999 FEW033 17/M08 Q1009 NOSIG,0,4.0,0,10000,0,0,0,
2026-04-06 07:00:00,METAR ZBTJ 060700Z 29004MPS 240V350 9999 FEW033 18/M09 Q1009 NOSIG,0,4.0,0,10000,0,0,0,
2026-04-06 06:30:00,METAR ZBTJ 060630Z 24004MPS 200V290 9999 FEW033 18/M09 Q1010 NOSIG,0,4.0,0,10000,0,0,0,
2026-04-06 06:00:00,METAR ZBTJ 060600Z 26006MPS 210V290 9999 FEW033 17/M10 Q1010 NOSIG,0,6.0,0,10000,0,0,0,
2026-04-06 05:30:00,METAR ZBTJ 060530Z 26005G10MPS 180V310 9999 FEW033 17/M07 Q1010 NOSIG,0,5.0,1,10000,0,0,0,
2026-04-06 05:00:00,METAR ZBTJ 060500Z 25004MPS 210V310 9999 FEW033 16/M09 Q1011 NOSIG,0,4.0,0,10000,0,0,0,
2026-04-06 04:30:00,METAR ZBTJ 060430Z 26005MPS 200V340 CAVOK 16/M09 Q1011 NOSIG,1,0.0,0,9999,0,0,0,
2026-04-06 04:00:00,METAR ZBTJ 060400Z 27006MPS CAVOK 16/M10 Q1012 BECMG TL0550 VRB01MPS,1,0.0,0,9999,0,0,0,
2026-04-06 03:30:00,METAR ZBTJ 060330Z 27004MPS 210V310 CAVOK 15/M10 Q1012 NOSIG,1,0.0,0,9999,0,0,0,
2026-04-06 03:00:00,METAR ZBTJ 060300Z 30002MPS 240V360 CAVOK 15/M11 Q1013 BECMG TL0430 24005MPS,1,0.0,0,9999,0,0,0,
2026-04-06 02:30:00,METAR ZBTJ 060230Z 34004MPS 290V360 CAVOK 14/M09 Q1013 NOSIG,1,0.0,0,9999,0,0,0,
2026-04-06 02:00:00,METAR ZBTJ 060200Z 32003MPS 290V020 CAVOK 14/M11 Q1013 NOSIG,1,0.0,0,9999,0,0,0,
2026-04-06 01:30:00,METAR ZBTJ 060130Z VRB02MPS CAVOK 13/M11 Q1013 NOSIG,1,0.0,0,9999,0,0,0,
2026-04-06 01:00:00,METAR ZBTJ 060100Z VRB01MPS CAVOK 12/M10 Q1014 NOSIG,1,0.0,0,9999,0,0,0,
2026-04-06 00:30:00,METAR ZBTJ 060030Z 32002MPS 290V040 CAVOK 12/M12 Q1014 NOSIG,1,0.0,0,9999,0,0,0,
2026-04-06 00:00:00,METAR ZBTJ 060000Z VRB01MPS CAVOK 11/M09 Q1014 NOSIG,1,0.0,0,9999,0,0,0,
2026-04-05 23:30:00,METAR ZBTJ 052330Z VRB01MPS CAVOK 11/M07 Q1013 NOSIG,1,0.0,0,9999,0,0,0,
2026-04-05 23:00:00,METAR ZBTJ 052300Z 16002MPS CAVOK 09/M06 Q1013 NOSIG,1,0.0,0,9999,0,0,0,
2026-04-05 22:30:00,METAR ZBTJ 052230Z 15002MPS 130V190 CAVOK 09/M07 Q1013 NOSIG,1,0.0,0,9999,0,0,0,
2026-04-05 22:00:00,METAR ZBTJ 052200Z 14003MPS CAVOK 09/M09 Q1013 NOSIG,1,0.0,0,9999,0,0,0,
2026-04-05 21:30:00,METAR ZBTJ 052130Z 13002MPS CAVOK 09/M09 Q1013 NOSIG,1,0.0,0,9999,0,0,0,
2026-04-05 21:00:00,METAR ZBTJ 052100Z 06002MPS CAVOK 09/M11 Q1013 NOSIG,1,0.0,0,9999,0,0,0,
2026-04-05 20:30:00,METAR ZBTJ 052030Z 04003MPS CAVOK 10/M12 Q1013 NOSIG,1,0.0,0,9999,0,0,0,
2026-04-05 20:00:00,METAR ZBTJ 052000Z 05003MPS CAVOK 10/M12 Q1013 NOSIG,1,0.0,0,9999,0,0,0,
2026-04-05 19:30:00,METAR ZBTJ 051930Z 04003MPS CAVOK 10/M13 Q1013 NOSIG,1,0.0,0,9999,0,0,0,
2026-04-05 19:00:00,METAR ZBTJ 051900Z 03004MPS CAVOK 10/M13 Q1013 NOSIG,1,0.0,0,9999,0,0,0,
2026-04-05 18:30:00,METAR ZBTJ 051830Z 04004MPS CAVOK 10/M12 Q1012 NOSIG,1,0.0,0,9999,0,0,0,
2026-04-05 18:00:00,METAR ZBTJ 051800Z 03004MPS CAVOK 10/M13 Q1012 NOSIG,1,0.0,0,9999,0,0,0,
2026-04-05 17:30:00,METAR ZBTJ 051730Z 03002MPS CAVOK 10/M13 Q1012 NOSIG,1,0.0,0,9999,0,0,0,
2026-04-05 17:00:00,METAR ZBTJ 051700Z 04003MPS CAVOK 10/M14 Q1012 NOSIG,1,0.0,0,9999,0,0,0,
2026-04-05 16:30:00,METAR ZBTJ 051630Z 01004MPS CAVOK 11/M14 Q1012 NOSIG,1,0.0,0,9999,0,0,0,
2026-04-05 16:00:00,METAR ZBTJ 051600Z 01005MPS CAVOK 12/M14 Q1011 NOSIG,1,0.0,0,9999,0,0,0,
2026-04-05 15:00:00,METAR ZBTJ 051500Z 36005MPS CAVOK 13/M15 Q1010 NOSIG,1,0.0,0,9999,0,0,0,
2026-04-05 13:00:00,METAR ZBTJ 051300Z 01005MPS CAVOK 14/M14 Q1009 NOSIG,1,0.0,0,9999,0,0,0,
2026-04-05 12:30:00,METAR ZBTJ 051230Z 01004MPS CAVOK 14/M14 Q1009 NOSIG,1,0.0,0,9999,0,0,0,
2026-04-05 12:00:00,METAR ZBTJ 051200Z 01005MPS CAVOK 15/M14 Q1008 NOSIG,1,0.0,0,9999,0,0,0,
2026-04-05 11:30:00,METAR ZBTJ 051130Z 01006MPS CAVOK 15/M13 Q1008 NOSIG,1,0.0,0,9999,0,0,0,
2026-04-05 11:00:00,METAR ZBTJ 051100Z 36004MPS CAVOK 15/M14 Q1007 NOSIG,1,0.0,0,9999,0,0,0,
2026-04-05 10:30:00,METAR ZBTJ 051030Z 36007MPS CAVOK 16/M14 Q1006 NOSIG,1,0.0,0,9999,0,0,0,
2026-04-05 10:00:00,METAR ZBTJ 051000Z 33010MPS CAVOK 17/M15 Q1005 NOSIG,1,0.0,0,9999,0,0,0,
2026-04-05 09:30:00,METAR ZBTJ 050930Z 35010MPS CAVOK 18/M13 Q1005 NOSIG,1,0.0,0,9999,0,0,0,
2026-04-05 09:00:00,METAR ZBTJ 050900Z 34011MPS CAVOK 18/M13 Q1004 NOSIG,1,0.0,0,9999,0,0,0,
2026-04-05 08:30:00,METAR ZBTJ 050830Z 35009MPS CAVOK 19/M11 Q1004 NOSIG,1,0.0,0,9999,0,0,0,
2026-04-05 08:00:00,METAR ZBTJ 050800Z 34010MPS 310V010 CAVOK 19/M11 Q1004 NOSIG,1,0.0,0,9999,0,0,0,
2026-04-05 07:30:00,METAR ZBTJ 050730Z 33010MPS CAVOK 20/M10 Q1004 NOSIG,1,0.0,0,9999,0,0,0,
2026-04-05 07:00:00,METAR ZBTJ 050700Z 34007G12MPS 300V360 CAVOK 20/M11 Q1004 NOSIG,1,0.0,0,9999,0,0,0,
2026-04-05 06:30:00,METAR ZBTJ 050630Z 32008G13MPS 290V360 CAVOK 20/M09 Q1004 NOSIG,1,0.0,0,9999,0,0,0,
2026-04-05 06:00:00,METAR ZBTJ 050600Z 33010MPS CAVOK 20/M09 Q1004 NOSIG,1,0.0,0,9999,0,0,0,
2026-04-05 05:30:00,METAR ZBTJ 050530Z 33010G15MPS 290V360 CAVOK 20/M09 Q1003 NOSIG,1,0.0,0,9999,0,0,0,
2026-04-05 05:00:00,METAR ZBTJ 050500Z 33009G16MPS CAVOK 20/M09 Q1003 NOSIG,1,0.0,0,9999,0,0,0,
2026-04-05 04:30:00,METAR ZBTJ 050430Z 33010MPS CAVOK 19/M09 Q1003 NOSIG,1,0.0,0,9999,0,0,0,
2026-04-05 04:00:00,METAR ZBTJ 050400Z 33010MPS 300V360 CAVOK 19/M09 Q1003 NOSIG,1,0.0,0,9999,0,0,0,
2026-04-05 03:30:00,METAR ZBTJ 050330Z 33009MPS CAVOK 19/M08 Q1003 NOSIG,1,0.0,0,9999,0,0,0,
2026-04-05 03:00:00,METAR ZBTJ 050300Z 33011MPS CAVOK 19/M09 Q1003 NOSIG,1,0.0,0,9999,0,0,0,
2026-04-05 02:30:00,METAR ZBTJ 050230Z 34008MPS CAVOK 18/M04 Q1003 NOSIG,1,0.0,0,9999,0,0,0,
2026-04-05 02:00:00,METAR ZBTJ 050200Z 34007MPS CAVOK 16/M01 Q1004 NOSIG,1,0.0,0,9999,0,0,0,
2026-04-05 01:30:00,METAR ZBTJ 050130Z 34005MPS CAVOK 15/01 Q1004 NOSIG,1,0.0,0,9999,0,0,0,
2026-04-05 01:00:00,METAR ZBTJ 050100Z VRB01MPS CAVOK 12/04 Q1003 BECMG TL0230 34008MPS,1,0.0,0,9999,0,0,0,
2026-04-05 00:30:00,METAR ZBTJ 050030Z VRB01MPS CAVOK 10/05 Q1003 NOSIG,1,0.0,0,9999,0,0,0,
2026-04-05 00:00:00,METAR ZBTJ 050000Z 34002MPS 310V020 8000 NSC 09/05 Q1003 BECMG TL0130 34007MPS,0,2.0,0,8000,0,0,0,
2026-04-04 23:30:00,METAR ZBTJ 042330Z 34003MPS 8000 NSC 08/05 Q1003 NOSIG,0,3.0,0,8000,0,0,0,
2026-04-04 23:00:00,METAR ZBTJ 042300Z 34004MPS 7000 NSC 08/06 Q1002 BECMG TL0030 34009MPS,0,4.0,0,7000,0,0,0,
2026-04-04 22:30:00,METAR ZBTJ 042230Z 33004MPS 7000 NSC 08/05 Q1002 NOSIG,0,4.0,0,7000,0,0,0,
2026-04-04 22:00:00,METAR ZBTJ 042200Z VRB01MPS 8000 NSC 07/05 Q1001 BECMG TL2330 34006MPS,0,1.0,0,8000,0,0,0,
2026-04-04 21:30:00,METAR ZBTJ 042130Z 35003MPS 9000 NSC 06/04 Q1001 NOSIG,0,3.0,0,9000,0,0,0,
2026-04-04 21:00:00,METAR ZBTJ 042100Z VRB01MPS CAVOK 08/05 Q1000 NOSIG,1,0.0,0,9999,0,0,0,
2026-04-04 20:30:00,METAR ZBTJ 042030Z VRB01MPS CAVOK 07/05 Q1000 NOSIG,1,0.0,0,9999,0,0,0,
2026-04-04 20:00:00,METAR ZBTJ 042000Z 16001MPS CAVOK 08/05 Q1000 NOSIG,1,0.0,0,9999,0,0,0,
2026-04-04 19:30:00,METAR ZBTJ 041930Z 16001MPS CAVOK 08/05 Q1001 NOSIG,1,0.0,0,9999,0,0,0,
2026-04-04 19:00:00,METAR ZBTJ 041900Z 14002MPS 100V170 CAVOK 08/05 Q1001 NOSIG,1,0.0,0,9999,0,0,0,
2026-04-04 18:30:00,METAR ZBTJ 041830Z 13003MPS CAVOK 08/05 Q1000 NOSIG,1,0.0,0,9999,0,0,0,
2026-04-04 18:00:00,METAR ZBTJ 041800Z 12003MPS CAVOK 08/05 Q1001 NOSIG,1,0.0,0,9999,0,0,0,
2026-04-04 17:30:00,METAR ZBTJ 041730Z 12003MPS CAVOK 08/06 Q1001 NOSIG,1,0.0,0,9999,0,0,0,
2026-04-04 17:00:00,METAR ZBTJ 041700Z 12002MPS 090V150 CAVOK 08/05 Q1002 NOSIG,1,0.0,0,9999,0,0,0,
2026-04-04 16:30:00,METAR ZBTJ 041630Z 05002MPS CAVOK 09/06 Q1002 NOSIG,1,0.0,0,9999,0,0,0,
2026-04-04 16:00:00,METAR ZBTJ 041600Z 09002MPS CAVOK 09/06 Q1002 NOSIG,1,0.0,0,9999,0,0,0,
2026-04-04 15:30:00,METAR ZBTJ 041530Z 07003MPS CAVOK 09/05 Q1002 NOSIG,1,0.0,0,9999,0,0,0,
2026-04-04 15:00:00,METAR ZBTJ 041500Z 12002MPS CAVOK 09/05 Q1002 NOSIG,1,0.0,0,9999,0,0,0,
2026-04-04 14:30:00,METAR ZBTJ 041430Z 09003MPS CAVOK 09/04 Q1002 NOSIG,1,0.0,0,9999,0,0,0,
2026-04-04 14:00:00,METAR ZBTJ 041400Z 07002MPS CAVOK 09/05 Q1002 NOSIG,1,0.0,0,9999,0,0,0,
2026-04-04 13:30:00,METAR ZBTJ 041330Z 12002MPS CAVOK 09/05 Q1002 NOSIG,1,0.0,0,9999,0,0,0,
2026-04-04 13:00:00,METAR ZBTJ 041300Z 12003MPS CAVOK 09/05 Q1002 NOSIG,1,0.0,0,9999,0,0,0,
2026-04-04 12:30:00,METAR ZBTJ 041230Z 12003MPS CAVOK 10/05 Q1002 NOSIG,1,0.0,0,9999,0,0,0,
2026-04-04 12:00:00,METAR ZBTJ 041200Z 12003MPS CAVOK 10/05 Q1002 NOSIG,1,0.0,0,9999,0,0,0,
2026-04-04 11:30:00,METAR ZBTJ 041130Z 14004MPS CAVOK 10/05 Q1002 NOSIG,1,0.0,0,9999,0,0,0,
2026-04-04 11:00:00,METAR ZBTJ 041100Z 14005MPS CAVOK 11/05 Q1002 NOSIG,1,0.0,0,9999,0,0,0,
2026-04-04 10:30:00,METAR ZBTJ 041030Z 15006MPS CAVOK 12/05 Q1001 NOSIG,1,0.0,0,9999,0,0,0,
2026-04-04 10:00:00,METAR ZBTJ 041000Z 14006MPS CAVOK 13/04 Q1002 NOSIG,1,0.0,0,9999,0,0,0,
2026-04-04 09:30:00,METAR ZBTJ 040930Z 15007MPS CAVOK 14/03 Q1002 NOSIG,1,0.0,0,9999,0,0,0,
2026-04-04 09:00:00,METAR ZBTJ 040900Z 15006MPS 130V190 CAVOK 15/03 Q1002 NOSIG,1,0.0,0,9999,0,0,0,
2026-04-04 08:30:00,METAR ZBTJ 040830Z 14006MPS CAVOK 15/04 Q1003 NOSIG,1,0.0,0,9999,0,0,0,
2026-04-04 08:00:00,METAR ZBTJ 040800Z 14007MPS CAVOK 16/02 Q1003 NOSIG,1,0.0,0,9999,0,0,0,
2026-04-04 07:30:00,METAR ZBTJ 040730Z 18007MPS 150V210 CAVOK 16/02 Q1003 NOSIG,1,0.0,0,9999,0,0,0,
2026-04-04 07:00:00,METAR ZBTJ 040700Z 18005G11MPS 150V220 CAVOK 16/M01 Q1004 NOSIG,1,0.0,0,9999,0,0,0,
2026-04-04 06:30:00,METAR ZBTJ 040630Z 18006MPS 150V220 CAVOK 16/M00 Q1005 NOSIG,1,0.0,0,9999,0,0,0,
2026-04-04 06:00:00,METAR ZBTJ 040600Z 20005MPS 170V230 CAVOK 16/M01 Q1005 NOSIG,1,0.0,0,9999,0,0,0,
2026-04-04 05:30:00,METAR ZBTJ 040530Z 19006MPS 160V230 CAVOK 16/M01 Q1006 NOSIG,1,0.0,0,9999,0,0,0,
2026-04-04 05:00:00,METAR ZBTJ 040500Z 19006MPS 170V230 CAVOK 15/M01 Q1007 NOSIG,1,0.0,0,9999,0,0,0,
2026-04-04 04:30:00,METAR ZBTJ 040430Z 18005MPS 150V250 CAVOK 15/M02 Q1008 NOSIG,1,0.0,0,9999,0,0,0,
2026-04-04 04:00:00,METAR ZBTJ 040400Z 21004MPS 140V250 CAVOK 14/M02 Q1008 NOSIG,1,0.0,0,9999,0,0,0,
2026-04-04 03:30:00,METAR ZBTJ 040330Z 21003MPS 130V270 CAVOK 13/M01 Q1009 NOSIG,1,0.0,0,9999,0,0,0,
2026-04-04 03:00:00,METAR ZBTJ 040300Z 23004MPS 180V280 CAVOK 13/M01 Q1010 NOSIG,1,0.0,0,9999,0,0,0,
2026-04-04 02:30:00,METAR ZBTJ 040230Z 22003MPS 120V290 CAVOK 12/M01 Q1010 NOSIG,1,0.0,0,9999,0,0,0,
2026-04-04 02:00:00,METAR ZBTJ 040200Z 20003MPS 130V280 CAVOK 12/M01 Q1010 NOSIG,1,0.0,0,9999,0,0,0,
2026-04-04 01:30:00,METAR ZBTJ 040130Z 20003MPS 140V230 CAVOK 11/M01 Q1011 NOSIG,1,0.0,0,9999,0,0,0,
2026-04-04 01:00:00,METAR ZBTJ 040100Z 15002MPS 100V230 CAVOK 11/M00 Q1011 NOSIG,1,0.0,0,9999,0,0,0,
2026-04-04 00:30:00,METAR ZBTJ 040030Z 18002MPS 110V220 CAVOK 10/M01 Q1011 NOSIG,1,0.0,0,9999,0,0,0,
2026-04-04 00:00:00,METAR ZBTJ 040000Z 17002MPS 120V230 CAVOK 10/M00 Q1011 NOSIG,1,0.0,0,9999,0,0,0,
2026-04-03 23:30:00,METAR ZBTJ 032330Z 16002MPS CAVOK 09/00 Q1011 NOSIG,1,0.0,0,9999,0,0,0,
2026-04-03 23:00:00,METAR ZBTJ 032300Z 15002MPS CAVOK 08/00 Q1011 NOSIG,1,0.0,0,9999,0,0,0,
2026-04-03 22:30:00,METAR ZBTJ 032230Z 17001MPS 9000 NSC 06/M01 Q1010 NOSIG,0,1.0,0,9000,0,0,0,
2026-04-03 22:00:00,METAR ZBTJ 032200Z 16001MPS 9000 NSC 05/M01 Q1010 NOSIG,0,1.0,0,9000,0,0,0,
2026-04-03 21:30:00,METAR ZBTJ 032130Z 17001MPS 9000 NSC 06/M01 Q1010 NOSIG,0,1.0,0,9000,0,0,0,
2026-04-03 21:00:00,METAR ZBTJ 032100Z 16002MPS 7000 NSC 06/M01 Q1010 NOSIG,0,2.0,0,7000,0,0,0,
2026-04-03 20:30:00,METAR ZBTJ 032030Z 15002MPS 050V210 7000 NSC 06/M01 Q1011 NOSIG,0,2.0,0,7000,0,0,0,
2026-04-03 20:00:00,METAR ZBTJ 032000Z 13002MPS 7000 NSC 06/M01 Q1011 NOSIG,0,2.0,0,7000,0,0,0,
2026-04-03 19:30:00,METAR ZBTJ 031930Z 12002MPS 8000 NSC 06/M01 Q1011 NOSIG,0,2.0,0,8000,0,0,0,
2026-04-03 19:00:00,METAR ZBTJ 031900Z 12002MPS 8000 NSC 07/M01 Q1011 NOSIG,0,2.0,0,8000,0,0,0,
2026-04-03 18:30:00,METAR ZBTJ 031830Z 11004MPS 8000 NSC 08/M01 Q1011 NOSIG,0,4.0,0,8000,0,0,0,
2026-04-03 18:00:00,METAR ZBTJ 031800Z 11004MPS 6000 NSC 08/M01 Q1011 NOSIG,0,4.0,0,6000,0,0,0,
2026-04-03 17:30:00,METAR ZBTJ 031730Z 10005MPS 6000 NSC 09/M00 Q1011 NOSIG,0,5.0,0,6000,0,0,0,
2026-04-03 17:00:00,METAR ZBTJ 031700Z 11004MPS 6000 NSC 10/M00 Q1011 NOSIG,0,4.0,0,6000,0,0,0,
2026-04-03 16:30:00,METAR ZBTJ 031630Z 05006MPS 020V080 CAVOK 13/M08 Q1011 NOSIG,1,0.0,0,9999,0,0,0,
2026-04-03 16:00:00,METAR ZBTJ 031600Z 02008MPS CAVOK 14/M10 Q1010 BECMG TL1750 04003MPS,1,0.0,0,9999,0,0,0,
2026-04-03 15:30:00,METAR ZBTJ 031530Z 02009MPS CAVOK 15/M11 Q1010 NOSIG,1,0.0,0,9999,0,0,0,
2026-04-03 15:00:00,METAR ZBTJ 031500Z 02009MPS CAVOK 15/M09 Q1010 BECMG TL1630 03004MPS,1,0.0,0,9999,0,0,0,
2026-04-03 14:30:00,METAR ZBTJ 031430Z 36008MPS CAVOK 15/M10 Q1009 NOSIG,1,0.0,0,9999,0,0,0,
2026-04-03 14:00:00,METAR ZBTJ 031400Z 36011MPS CAVOK 16/M12 Q1008 NOSIG,1,0.0,0,9999,0,0,0,
2026-04-03 13:30:00,METAR ZBTJ 031330Z 35009MPS CAVOK 16/M08 Q1008 NOSIG,1,0.0,0,9999,0,0,0,
2026-04-03 13:00:00,METAR ZBTJ 031300Z 34009MPS CAVOK 16/M07 Q1007 NOSIG,1,0.0,0,9999,0,0,0,
2026-04-03 12:30:00,METAR ZBTJ 031230Z 33009MPS CAVOK 17/M07 Q1006 NOSIG,1,0.0,0,9999,0,0,0,
2026-04-03 12:00:00,METAR ZBTJ 031200Z 33011MPS CAVOK 18/M07 Q1005 NOSIG,1,0.0,0,9999,0,0,0,
2026-04-03 11:30:00,METAR ZBTJ 031130Z 33011G16MPS CAVOK 19/M08 Q1004 NOSIG,1,0.0,0,9999,0,0,0,
2026-04-03 11:00:00,METAR ZBTJ 031100Z 33012MPS CAVOK 19/M08 Q1004 NOSIG,1,0.0,0,9999,0,0,0,
2026-04-03 10:30:00,METAR ZBTJ 031030Z 33013MPS CAVOK 20/M07 Q1002 NOSIG,1,0.0,0,9999,0,0,0,
2026-04-03 10:00:00,METAR ZBTJ 031000Z 32010G15MPS CAVOK 21/M08 Q1001 NOSIG,1,0.0,0,9999,0,0,0,
2026-04-03 09:30:00,METAR ZBTJ 030930Z 32012MPS CAVOK 21/M08 Q1001 NOSIG,1,0.0,0,9999,0,0,0,
2026-04-03 09:00:00,METAR ZBTJ 030900Z 32011MPS CAVOK 21/M07 Q1000 NOSIG,1,0.0,0,9999,0,0,0,
2026-04-03 08:30:00,METAR ZBTJ 030830Z 32012G19MPS 9000 FEW030 22/M06 Q1000 NOSIG,0,12.0,1,9000,0,0,0,
2026-04-03 08:00:00,METAR ZBTJ 030800Z 30009G15MPS 270V330 9000 FEW030 FEW030TCU 22/01 Q0999 NOSIG,0,9.0,1,9000,0,0,0,
2026-04-03 07:49:00,SPECI ZBTJ 030749Z 32009G14MPS 280V340 7000 FEW030 FEW030TCU 22/03 Q0998 NOSIG,0,9.0,1,7000,0,0,0,
2026-04-03 07:30:00,METAR ZBTJ 030730Z 33012G19MPS 6000 FEW026 23/02 Q0999 NOSIG,0,12.0,1,6000,0,0,0,
2026-04-03 07:04:00,SPECI ZBTJ 030704Z 31010G16MPS 260V340 4500 HZ SCT026 FEW026CB 23/06 Q0999 NOSIG,0,10.0,1,4500,0,0,0,
2026-04-03 07:00:00,METAR ZBTJ 030700Z 30006G11MPS 260V320 4500 HZ SCT026 FEW026CB 22/10 Q0999 BECMG TL0830 33011G16MPS BLDU,0,6.0,1,4500,0,0,0,
2026-04-03 06:30:00,METAR ZBTJ 030630Z 28005MPS 250V320 5000 HZ SCT033 23/12 Q0999 NOSIG,0,5.0,0,5000,0,0,0,
2026-04-03 06:00:00,METAR ZBTJ 030600Z 26005MPS 220V310 8000 BKN033 23/11 Q0999 BECMG TL0750 33010G15MPS BLDU,0,5.0,0,8000,0,0,0,
2026-04-03 05:30:00,METAR ZBTJ 030530Z 23005MPS 200V280 8000 SCT033 23/11 Q0999 NOSIG,0,5.0,0,8000,0,0,0,
2026-04-03 05:00:00,METAR ZBTJ 030500Z 24005MPS 210V290 8000 NSC 23/11 Q0999 BECMG TL0650 33007MPS,0,5.0,0,8000,0,0,0,
2026-04-03 04:30:00,METAR ZBTJ 030430Z 22008MPS 190V260 8000 NSC 22/11 Q0998 NOSIG,0,8.0,0,8000,0,0,0,
2026-04-03 04:00:00,METAR ZBTJ 030400Z 23005MPS 200V260 6000 NSC 20/12 Q0999 NOSIG,0,5.0,0,6000,0,0,0,
2026-04-03 03:30:00,METAR ZBTJ 030330Z 21005MPS 5000 HZ NSC 19/12 Q0999 NOSIG,0,5.0,0,5000,0,0,0,
2026-04-03 03:00:00,METAR ZBTJ 030300Z 24005MPS 210V270 5000 HZ NSC 19/12 Q1000 NOSIG,0,5.0,0,5000,0,0,0,
2026-04-03 02:30:00,METAR ZBTJ 030230Z 22007MPS 190V250 5000 HZ NSC 18/11 Q1000 NOSIG,0,7.0,0,5000,0,0,0,
2026-04-03 02:00:00,METAR ZBTJ 030200Z 21006MPS 190V250 5000 HZ NSC 18/11 Q1000 NOSIG,0,6.0,0,5000,0,0,0,
2026-04-03 01:30:00,METAR ZBTJ 030130Z 22006MPS 190V270 5000 HZ NSC 17/11 Q1000 NOSIG,0,6.0,0,5000,0,0,0,
2026-04-03 01:00:00,METAR ZBTJ 030100Z 23005G10MPS 190V270 5000 HZ NSC 17/11 Q1001 NOSIG,0,5.0,1,5000,0,0,0,
2026-04-03 00:30:00,METAR ZBTJ 030030Z 22005MPS 180V250 5000 HZ NSC 17/11 Q1001 NOSIG,0,5.0,0,5000,0,0,0,
2026-04-03 00:00:00,METAR ZBTJ 030000Z 18006MPS 5000 HZ NSC 16/11 Q1000 NOSIG,0,6.0,0,5000,0,0,0,
2026-04-02 23:30:00,METAR ZBTJ 022330Z 19006MPS 5000 HZ NSC 16/10 Q1001 NOSIG,0,6.0,0,5000,0,0,0,
2026-04-02 23:00:00,METAR ZBTJ 022300Z 19005MPS 5000 HZ NSC 16/10 Q1002 NOSIG,0,5.0,0,5000,0,0,0,
2026-04-02 22:30:00,METAR ZBTJ 022230Z 21004MPS 180V240 6000 BKN033 16/10 Q1002 NOSIG,0,4.0,0,6000,0,0,0,
2026-04-02 22:00:00,METAR ZBTJ 022200Z 20004MPS 6000 NSC 16/09 Q1002 NOSIG,0,4.0,0,6000,0,0,0,
2026-04-02 21:30:00,METAR ZBTJ 022130Z 20005MPS 6000 NSC 17/09 Q1003 NOSIG,0,5.0,0,6000,0,0,0,
2026-04-02 21:00:00,METAR ZBTJ 022100Z 20005MPS 5000 HZ NSC 17/09 Q1003 NOSIG,0,5.0,0,5000,0,0,0,
2026-04-02 20:30:00,METAR ZBTJ 022030Z 19004MPS 3000 HZ NSC 16/09 Q1003 NOSIG,0,4.0,0,3000,0,0,0,
2026-04-02 20:00:00,METAR ZBTJ 022000Z 16002MPS 2300 BR NSC 12/10 Q1004 BECMG TL2130 22006MPS 3000,0,2.0,0,2300,0,0,1,BR
2026-04-02 19:30:00,METAR ZBTJ 021930Z 15002MPS 2300 BR NSC 13/10 Q1004 NOSIG,0,2.0,0,2300,0,0,1,BR
2026-04-02 19:00:00,METAR ZBTJ 021900Z 16003MPS 2500 BR NSC 13/10 Q1005 BECMG TL2030 3000,0,3.0,0,2500,0,0,1,BR
2026-04-02 18:30:00,METAR ZBTJ 021830Z 15003MPS 2500 BR NSC 12/09 Q1005 NOSIG,0,3.0,0,2500,0,0,1,BR
2026-04-02 18:00:00,METAR ZBTJ 021800Z 14002MPS 2800 BR NSC 12/08 Q1006 NOSIG,0,2.0,0,2800,0,0,1,BR
2026-04-02 17:30:00,METAR ZBTJ 021730Z 14002MPS 2800 BR NSC 11/08 Q1007 NOSIG,0,2.0,0,2800,0,0,1,BR
2026-04-02 17:00:00,METAR ZBTJ 021700Z 12002MPS 3000 BR NSC 12/07 Q1007 BECMG TL1830 2500,0,2.0,0,3000,0,0,1,BR
2026-04-02 16:30:00,METAR ZBTJ 021630Z 12002MPS 3000 BR NSC 11/07 Q1008 NOSIG,0,2.0,0,3000,0,0,1,BR
2026-04-02 16:00:00,METAR ZBTJ 021600Z 12001MPS 3000 HZ NSC 11/06 Q1008 NOSIG,0,1.0,0,3000,0,0,0,
2026-04-02 15:30:00,METAR ZBTJ 021530Z 11002MPS 4000 HZ NSC 11/06 Q1009 NOSIG,0,2.0,0,4000,0,0,0,
2026-04-02 15:00:00,METAR ZBTJ 021500Z 15003MPS 5000 HZ NSC 10/05 Q1009 NOSIG,0,3.0,0,5000,0,0,0,
2026-04-02 14:30:00,METAR ZBTJ 021430Z 15001MPS 5000 HZ NSC 11/05 Q1009 NOSIG,0,1.0,0,5000,0,0,0,
2026-04-02 14:00:00,METAR ZBTJ 021400Z 16002MPS 5000 HZ NSC 10/04 Q1009 NOSIG,0,2.0,0,5000,0,0,0,
2026-04-02 13:30:00,METAR ZBTJ 021330Z 16002MPS 6000 NSC 11/04 Q1010 NOSIG,0,2.0,0,6000,0,0,0,
2026-04-02 13:00:00,METAR ZBTJ 021300Z 16003MPS 7000 NSC 11/04 Q1009 NOSIG,0,3.0,0,7000,0,0,0,
2026-04-02 12:30:00,METAR ZBTJ 021230Z 16003MPS 7000 NSC 12/03 Q1009 NOSIG,0,3.0,0,7000,0,0,0,
2026-04-02 12:00:00,METAR ZBTJ 021200Z 15003MPS 8000 NSC 12/03 Q1009 NOSIG,0,3.0,0,8000,0,0,0,
2026-04-02 11:30:00,METAR ZBTJ 021130Z 15003MPS 8000 NSC 13/03 Q1009 NOSIG,0,3.0,0,8000,0,0,0,
2026-04-02 11:00:00,METAR ZBTJ 021100Z 16003MPS 8000 NSC 14/05 Q1009 NOSIG,0,3.0,0,8000,0,0,0,
2026-04-02 10:30:00,METAR ZBTJ 021030Z 14003MPS 8000 NSC 15/04 Q1009 NOSIG,0,3.0,0,8000,0,0,0,
2026-04-02 10:00:00,METAR ZBTJ 021000Z 16004MPS CAVOK 16/04 Q1009 NOSIG,1,0.0,0,9999,0,0,0,
2026-04-02 09:30:00,METAR ZBTJ 020930Z 15005MPS CAVOK 17/04 Q1009 NOSIG,1,0.0,0,9999,0,0,0,
2026-04-02 09:00:00,METAR ZBTJ 020900Z 14004MPS CAVOK 18/04 Q1009 NOSIG,1,0.0,0,9999,0,0,0,
2026-04-02 08:30:00,METAR ZBTJ 020830Z 15004MPS 110V180 CAVOK 18/04 Q1009 NOSIG,1,0.0,0,9999,0,0,0,
2026-04-02 08:00:00,METAR ZBTJ 020800Z 14004MPS 080V170 CAVOK 18/04 Q1009 NOSIG,1,0.0,0,9999,0,0,0,
2026-04-02 07:30:00,METAR ZBTJ 020730Z 16004MPS 130V190 8000 NSC 18/03 Q1010 NOSIG,0,4.0,0,8000,0,0,0,
2026-04-02 07:00:00,METAR ZBTJ 020700Z 21004MPS 140V270 6000 NSC 19/03 Q1010 BECMG TL0850 15005MPS,0,4.0,0,6000,0,0,0,
2026-04-02 06:30:00,METAR ZBTJ 020630Z 22005MPS 200V270 6000 NSC 19/05 Q1010 NOSIG,0,5.0,0,6000,0,0,0,
2026-04-02 06:00:00,METAR ZBTJ 020600Z 22002MPS 150V270 7000 NSC 19/04 Q1011 BECMG TL0730 15005MPS,0,2.0,0,7000,0,0,0,
2026-04-02 05:30:00,METAR ZBTJ 020530Z VRB01MPS 8000 NSC 18/03 Q1011 NOSIG,0,1.0,0,8000,0,0,0,
2026-04-02 05:00:00,METAR ZBTJ 020500Z 08001MPS CAVOK 17/02 Q1011 BECMG TL0630 14005MPS,1,0.0,0,9999,0,0,0,
2026-04-02 04:30:00,METAR ZBTJ 020430Z VRB01MPS CAVOK 17/02 Q1012 NOSIG,1,0.0,0,9999,0,0,0,
2026-04-02 04:00:00,METAR ZBTJ 020400Z VRB01MPS CAVOK 16/01 Q1013 NOSIG,1,0.0,0,9999,0,0,0,
2026-04-02 03:30:00,METAR ZBTJ 020330Z VRB01MPS CAVOK 15/01 Q1013 NOSIG,1,0.0,0,9999,0,0,0,
2026-04-02 03:00:00,METAR ZBTJ 020300Z VRB01MPS CAVOK 14/00 Q1014 NOSIG,1,0.0,0,9999,0,0,0,
2026-04-02 02:30:00,METAR ZBTJ 020230Z VRB01MPS CAVOK 14/01 Q1014 NOSIG,1,0.0,0,9999,0,0,0,
2026-04-02 02:00:00,METAR ZBTJ 020200Z 31001MPS CAVOK 13/00 Q1014 NOSIG,1,0.0,0,9999,0,0,0,
2026-04-02 01:30:00,METAR ZBTJ 020130Z VRB01MPS CAVOK 12/M01 Q1014 NOSIG,1,0.0,0,9999,0,0,0,
2026-04-02 01:00:00,METAR ZBTJ 020100Z VRB01MPS CAVOK 11/00 Q1015 NOSIG,1,0.0,0,9999,0,0,0,
2026-04-02 00:30:00,METAR ZBTJ 020030Z VRB01MPS CAVOK 10/M01 Q1015 NOSIG,1,0.0,0,9999,0,0,0,
2026-04-02 00:00:00,METAR ZBTJ 020000Z 09002MPS CAVOK 09/01 Q1015 NOSIG,1,0.0,0,9999,0,0,0,
2026-04-01 23:30:00,METAR ZBTJ 012330Z 07002MPS CAVOK 07/01 Q1015 NOSIG,1,0.0,0,9999,0,0,0,
2026-04-01 23:00:00,METAR ZBTJ 012300Z 06001MPS CAVOK 06/01 Q1015 NOSIG,1,0.0,0,9999,0,0,0,
2026-04-01 22:30:00,METAR ZBTJ 012230Z 00000MPS CAVOK 05/M00 Q1015 NOSIG,1,0.0,0,9999,0,0,0,
2026-04-01 22:00:00,METAR ZBTJ 012200Z 11001MPS CAVOK 04/M00 Q1015 NOSIG,1,0.0,0,9999,0,0,0,
2026-04-01 21:30:00,METAR ZBTJ 012130Z VRB01MPS CAVOK 05/M00 Q1015 NOSIG,1,0.0,0,9999,0,0,0,
2026-04-01 21:00:00,METAR ZBTJ 012100Z 05001MPS CAVOK 05/M00 Q1014 NOSIG,1,0.0,0,9999,0,0,0,
2026-04-01 20:30:00,METAR ZBTJ 012030Z 15001MPS CAVOK 05/M01 Q1014 NOSIG,1,0.0,0,9999,0,0,0,
2026-04-01 20:00:00,METAR ZBTJ 012000Z 10001MPS CAVOK 05/M01 Q1015 NOSIG,1,0.0,0,9999,0,0,0,
2026-04-01 19:30:00,METAR ZBTJ 011930Z 06001MPS CAVOK 06/M01 Q1015 NOSIG,1,0.0,0,9999,0,0,0,
2026-04-01 19:00:00,METAR ZBTJ 011900Z VRB01MPS CAVOK 06/M01 Q1015 NOSIG,1,0.0,0,9999,0,0,0,
2026-04-01 18:30:00,METAR ZBTJ 011830Z 04001MPS CAVOK 06/M01 Q1015 NOSIG,1,0.0,0,9999,0,0,0,
2026-04-01 18:00:00,METAR ZBTJ 011800Z 04002MPS CAVOK 06/M02 Q1015 NOSIG,1,0.0,0,9999,0,0,0,
2026-04-01 17:30:00,METAR ZBTJ 011730Z 36001MPS CAVOK 06/M01 Q1016 NOSIG,1,0.0,0,9999,0,0,0,
2026-04-01 17:00:00,METAR ZBTJ 011700Z VRB01MPS CAVOK 07/M01 Q1016 NOSIG,1,0.0,0,9999,0,0,0,
2026-04-01 16:30:00,METAR ZBTJ 011630Z 00000MPS CAVOK 07/M01 Q1016 NOSIG,1,0.0,0,9999,0,0,0,
2026-04-01 16:00:00,METAR ZBTJ 011600Z 12001MPS CAVOK 06/M01 Q1016 NOSIG,1,0.0,0,9999,0,0,0,
2026-04-01 15:30:00,METAR ZBTJ 011530Z 09002MPS CAVOK 07/M01 Q1016 NOSIG,1,0.0,0,9999,0,0,0,
2026-04-01 15:00:00,METAR ZBTJ 011500Z 10002MPS CAVOK 07/M01 Q1016 NOSIG,1,0.0,0,9999,0,0,0,
2026-04-01 14:00:00,METAR ZBTJ 011400Z 15002MPS CAVOK 07/M01 Q1016 NOSIG,1,0.0,0,9999,0,0,0,
2026-04-01 13:30:00,METAR ZBTJ 011330Z 12002MPS CAVOK 07/M02 Q1016 NOSIG,1,0.0,0,9999,0,0,0,
2026-04-01 13:00:00,METAR ZBTJ 011300Z 16002MPS CAVOK 07/M02 Q1016 NOSIG,1,0.0,0,9999,0,0,0,
2026-04-01 12:30:00,METAR ZBTJ 011230Z 15003MPS CAVOK 07/M02 Q1016 NOSIG,1,0.0,0,9999,0,0,0,
2026-04-01 12:00:00,METAR ZBTJ 011200Z 15003MPS CAVOK 07/M03 Q1016 NOSIG,1,0.0,0,9999,0,0,0,
2026-04-01 11:30:00,METAR ZBTJ 011130Z 16004MPS CAVOK 08/M04 Q1016 NOSIG,1,0.0,0,9999,0,0,0,
2026-04-01 11:00:00,METAR ZBTJ 011100Z 16005MPS CAVOK 08/M04 Q1015 NOSIG,1,0.0,0,9999,0,0,0,
2026-04-01 10:30:00,METAR ZBTJ 011030Z 16004MPS CAVOK 09/M04 Q1016 NOSIG,1,0.0,0,9999,0,0,0,
2026-04-01 10:00:00,METAR ZBTJ 011000Z 15005MPS CAVOK 10/M05 Q1015 NOSIG,1,0.0,0,9999,0,0,0,
2026-04-01 09:30:00,METAR ZBTJ 010930Z 14006MPS CAVOK 11/M06 Q1016 NOSIG,1,0.0,0,9999,0,0,0,
2026-04-01 09:00:00,METAR ZBTJ 010900Z 14007MPS CAVOK 11/M06 Q1016 NOSIG,1,0.0,0,9999,0,0,0,
2026-04-01 08:30:00,METAR ZBTJ 010830Z 17006MPS CAVOK 12/M04 Q1015 NOSIG,1,0.0,0,9999,0,0,0,
2026-04-01 08:00:00,METAR ZBTJ 010800Z 16007MPS CAVOK 12/M05 Q1015 NOSIG,1,0.0,0,9999,0,0,0,
2026-04-01 07:30:00,METAR ZBTJ 010730Z 17007MPS CAVOK 13/M05 Q1016 NOSIG,1,0.0,0,9999,0,0,0,
2026-04-01 07:00:00,METAR ZBTJ 010700Z 17006MPS CAVOK 14/M04 Q1016 NOSIG,1,0.0,0,9999,0,0,0,
2026-04-01 06:30:00,METAR ZBTJ 010630Z 17006MPS 140V200 CAVOK 14/M03 Q1016 NOSIG,1,0.0,0,9999,0,0,0,
2026-04-01 06:00:00,METAR ZBTJ 010600Z 15005MPS 100V180 CAVOK 15/M02 Q1016 NOSIG,1,0.0,0,9999,0,0,0,
2026-04-01 05:30:00,METAR ZBTJ 010530Z 14005MPS 110V180 CAVOK 15/M00 Q1016 NOSIG,1,0.0,0,9999,0,0,0,
2026-04-01 05:00:00,METAR ZBTJ 010500Z 13006MPS 090V150 CAVOK 15/00 Q1016 NOSIG,1,0.0,0,9999,0,0,0,
2026-04-01 04:30:00,METAR ZBTJ 010430Z 11005MPS 080V150 CAVOK 15/01 Q1017 NOSIG,1,0.0,0,9999,0,0,0,
2026-04-01 04:00:00,METAR ZBTJ 010400Z 11006MPS 080V150 CAVOK 14/01 Q1017 NOSIG,1,0.0,0,9999,0,0,0,
2026-04-01 03:30:00,METAR ZBTJ 010330Z 10006MPS 080V140 CAVOK 14/01 Q1017 NOSIG,1,0.0,0,9999,0,0,0,
2026-04-01 03:00:00,METAR ZBTJ 010300Z 10007MPS CAVOK 14/00 Q1017 NOSIG,1,0.0,0,9999,0,0,0,
2026-04-01 02:30:00,METAR ZBTJ 010230Z 13008MPS CAVOK 14/01 Q1017 NOSIG,1,0.0,0,9999,0,0,0,
2026-04-01 02:00:00,METAR ZBTJ 010200Z 10008MPS CAVOK 14/02 Q1017 NOSIG,1,0.0,0,9999,0,0,0,
2026-04-01 01:30:00,METAR ZBTJ 010130Z 08007MPS CAVOK 14/01 Q1017 NOSIG,1,0.0,0,9999,0,0,0,
2026-04-01 01:00:00,METAR ZBTJ 010100Z 05006MPS CAVOK 13/03 Q1016 NOSIG,1,0.0,0,9999,0,0,0,
2026-04-01 00:30:00,METAR ZBTJ 010030Z 03005MPS CAVOK 12/04 Q1016 NOSIG,1,0.0,0,9999,0,0,0,
2026-04-01 00:00:00,METAR ZBTJ 010000Z 02006MPS CAVOK 11/03 Q1015 NOSIG,1,0.0,0,9999,0,0,0,
2026-03-31 23:30:00,METAR ZBTJ 312330Z 35005MPS CAVOK 10/03 Q1015 NOSIG,1,0.0,0,9999,0,0,0,
2026-03-31 23:00:00,METAR ZBTJ 312300Z 33005MPS 5000 BR NSC 09/04 Q1015 BECMG TL0030 06005MPS,0,,0,5000,0,0,1,BR
2026-03-31 22:30:00,METAR ZBTJ 312230Z 33003MPS 4000 BR NSC 08/04 Q1014 NOSIG,0,,0,4000,0,0,1,BR
2026-03-31 22:00:00,METAR ZBTJ 312200Z 33002MPS 3800 BR NSC 07/04 Q1014 NOSIG,0,,0,3800,0,0,1,BR
2026-03-31 21:30:00,METAR ZBTJ 312130Z VRB01MPS 3800 BR NSC 06/03 Q1013 NOSIG,0,,0,3800,0,0,1,BR
2026-03-31 21:00:00,METAR ZBTJ 312100Z 34001MPS 3500 BR NSC 08/04 Q1013 NOSIG,0,,0,3500,0,0,1,BR
2026-03-31 20:30:00,METAR ZBTJ 312030Z 00000MPS 4000 BR NSC 07/04 Q1013 NOSIG,0,,0,4000,0,0,1,BR
2026-03-31 20:00:00,METAR ZBTJ 312000Z 21001MPS 4500 BR NSC 07/04 Q1013 BECMG TL2130 34006MPS,0,,0,4500,0,0,1,BR
2026-03-31 19:30:00,METAR ZBTJ 311930Z VRB01MPS 4500 BR NSC 07/03 Q1013 NOSIG,0,,0,4500,0,0,1,BR
2026-03-31 19:00:00,METAR ZBTJ 311900Z VRB01MPS 5000 HZ NSC 08/03 Q1012 BECMG TL2030 34006MPS,0,,0,5000,0,0,0,
2026-03-31 18:30:00,METAR ZBTJ 311830Z 27001MPS 5000 HZ NSC 08/03 Q1012 NOSIG,0,,0,5000,0,0,0,
2026-03-31 18:00:00,METAR ZBTJ 311800Z VRB01MPS 5000 HZ NSC 09/03 Q1012 NOSIG,0,,0,5000,0,0,0,
2026-03-31 17:30:00,METAR ZBTJ 311730Z VRB01MPS 6000 NSC 09/03 Q1013 NOSIG,0,,0,6000,0,0,0,
2026-03-31 17:00:00,METAR ZBTJ 311700Z 21002MPS 6000 NSC 11/03 Q1013 NOSIG,0,,0,6000,0,0,0,
2026-03-31 16:30:00,METAR ZBTJ 311630Z 12001MPS 6000 NSC 09/03 Q1013 NOSIG,0,,0,6000,0,0,0,
2026-03-31 16:00:00,METAR ZBTJ 311600Z VRB01MPS 6000 NSC 09/03 Q1012 NOSIG,0,,0,6000,0,0,0,
2026-03-31 15:30:00,METAR ZBTJ 311530Z 10002MPS 7000 NSC 10/03 Q1012 NOSIG,0,,0,7000,0,0,0,
2026-03-31 15:00:00,METAR ZBTJ 311500Z 17002MPS 8000 NSC 09/02 Q1012 NOSIG,0,,0,8000,0,0,0,
2026-03-31 14:30:00,METAR ZBTJ 311430Z 17001MPS CAVOK 10/03 Q1012 NOSIG,1,0.0,0,9999,0,0,0,
2026-03-31 14:00:00,METAR ZBTJ 311400Z 13001MPS CAVOK 10/02 Q1012 NOSIG,1,0.0,0,9999,0,0,0,
2026-03-31 13:30:00,METAR ZBTJ 311330Z 17001MPS CAVOK 10/02 Q1012 NOSIG,1,0.0,0,9999,0,0,0,
2026-03-31 13:00:00,METAR ZBTJ 311300Z 15002MPS CAVOK 10/02 Q1012 NOSIG,1,0.0,0,9999,0,0,0,
2026-03-31 12:30:00,METAR ZBTJ 311230Z 14002MPS CAVOK 10/02 Q1011 NOSIG,1,0.0,0,9999,0,0,0,
2026-03-31 12:00:00,METAR ZBTJ 311200Z 15003MPS CAVOK 10/02 Q1011 NOSIG,1,0.0,0,9999,0,0,0,
2026-03-31 11:30:00,METAR ZBTJ 311130Z 16002MPS CAVOK 11/01 Q1011 NOSIG,1,0.0,0,9999,0,0,0,
2026-03-31 11:00:00,METAR ZBTJ 311100Z 15003MPS CAVOK 12/00 Q1011 NOSIG,1,0.0,0,9999,0,0,0,
2026-03-31 10:30:00,METAR ZBTJ 311030Z 19004MPS CAVOK 15/M02 Q1010 NOSIG,1,0.0,0,9999,0,0,0,
2026-03-31 10:00:00,METAR ZBTJ 311000Z 19004MPS CAVOK 16/M03 Q1010 NOSIG,1,0.0,0,9999,0,0,0,
2026-03-31 09:30:00,METAR ZBTJ 310930Z 18004MPS 150V210 CAVOK 16/M03 Q1010 NOSIG,1,0.0,0,9999,0,0,0,
2026-03-31 09:00:00,METAR ZBTJ 310900Z 20004MPS CAVOK 17/M04 Q1010 NOSIG,1,0.0,0,9999,0,0,0,
2026-03-31 08:30:00,METAR ZBTJ 310830Z 21003MPS 150V250 CAVOK 17/M04 Q1010 NOSIG,1,0.0,0,9999,0,0,0,
2026-03-31 08:00:00,METAR ZBTJ 310800Z 22003MPS 180V260 CAVOK 17/M04 Q1011 BECMG TL0930 16005MPS,1,0.0,0,9999,0,0,0,
2026-03-31 07:30:00,METAR ZBTJ 310730Z 21004MPS 170V230 CAVOK 17/M04 Q1011 NOSIG,1,0.0,0,9999,0,0,0,
2026-03-31 07:00:00,METAR ZBTJ 310700Z 21004MPS 180V250 CAVOK 17/M04 Q1011 NOSIG,1,0.0,0,9999,0,0,0,
2026-03-31 06:30:00,METAR ZBTJ 310630Z 20005MPS 170V230 CAVOK 16/M05 Q1012 NOSIG,1,0.0,0,9999,0,0,0,
2026-03-31 06:00:00,METAR ZBTJ 310600Z 22004MPS 190V260 CAVOK 16/M05 Q1012 NOSIG,1,0.0,0,9999,0,0,0,
2026-03-31 05:30:00,METAR ZBTJ 310530Z 20004MPS 160V260 CAVOK 16/M04 Q1012 NOSIG,1,0.0,0,9999,0,0,0,
2026-03-31 05:00:00,METAR ZBTJ 310500Z 19003MPS 170V230 CAVOK 15/M01 Q1013 NOSIG,1,0.0,0,9999,0,0,0,
2026-03-31 04:30:00,METAR ZBTJ 310430Z 19003MPS 160V220 CAVOK 13/M01 Q1014 NOSIG,1,0.0,0,9999,0,0,0,
2026-03-31 04:00:00,METAR ZBTJ 310400Z 16002MPS 120V190 CAVOK 13/M01 Q1014 NOSIG,1,0.0,0,9999,0,0,0,
2026-03-31 03:30:00,METAR ZBTJ 310330Z 00000MPS CAVOK 12/M02 Q1015 NOSIG,1,0.0,0,9999,0,0,0,
2026-03-31 03:00:00,METAR ZBTJ 310300Z VRB01MPS CAVOK 12/M02 Q1015 NOSIG,1,0.0,0,9999,0,0,0,
2026-03-31 02:30:00,METAR ZBTJ 310230Z 34002MPS CAVOK 13/M02 Q1015 NOSIG,1,0.0,0,9999,0,0,0,
2026-03-31 02:00:00,METAR ZBTJ 310200Z 22002MPS 190V270 CAVOK 12/M03 Q1015 NOSIG,1,0.0,0,9999,0,0,0,
2026-03-31 01:30:00,METAR ZBTJ 310130Z VRB01MPS 9999 -RA SCT033 12/M03 Q1015 NOSIG,0,,0,9999,0,0,0,-RA
2026-03-31 01:00:00,METAR ZBTJ 310100Z 20002MPS 170V230 9999 -RA SCT033 11/M01 Q1015 NOSIG,0,,0,9999,0,0,0,-RA
2026-03-31 00:30:00,METAR ZBTJ 310030Z 16002MPS CAVOK 11/M01 Q1015 NOSIG,1,0.0,0,9999,0,0,0,
2026-03-31 00:00:00,METAR ZBTJ 310000Z 19002MPS CAVOK 10/M01 Q1015 NOSIG,1,0.0,0,9999,0,0,0,
2026-03-30 23:30:00,METAR ZBTJ 302330Z 19002MPS CAVOK 11/M02 Q1015 NOSIG,1,0.0,0,9999,0,0,0,
2026-03-30 23:00:00,METAR ZBTJ 302300Z 18002MPS CAVOK 11/M03 Q1014 NOSIG,1,0.0,0,9999,0,0,0,
2026-03-30 22:30:00,METAR ZBTJ 302230Z 21002MPS CAVOK 11/M04 Q1014 NOSIG,1,0.0,0,9999,0,0,0,
2026-03-30 22:00:00,METAR ZBTJ 302200Z 20002MPS CAVOK 11/M05 Q1014 NOSIG,1,0.0,0,9999,0,0,0,
2026-03-30 21:30:00,METAR ZBTJ 302130Z 23003MPS 200V260 CAVOK 11/M06 Q1014 NOSIG,1,0.0,0,9999,0,0,0,
2026-03-30 21:00:00,METAR ZBTJ 302100Z 23003MPS 200V270 CAVOK 11/M06 Q1014 NOSIG,1,0.0,0,9999,0,0,0,
2026-03-30 20:30:00,METAR ZBTJ 302030Z 24002MPS 210V270 CAVOK 11/M06 Q1014 NOSIG,1,0.0,0,9999,0,0,0,
2026-03-30 20:00:00,METAR ZBTJ 302000Z 23002MPS 190V260 CAVOK 11/M06 Q1014 NOSIG,1,0.0,0,9999,0,0,0,
2026-03-30 19:30:00,METAR ZBTJ 301930Z 24003MPS CAVOK 11/M06 Q1015 NOSIG,1,0.0,0,9999,0,0,0,
2026-03-30 19:00:00,METAR ZBTJ 301900Z 24003MPS CAVOK 11/M05 Q1015 NOSIG,1,0.0,0,9999,0,0,0,
2026-03-30 18:30:00,METAR ZBTJ 301830Z 23003MPS 200V270 CAVOK 11/M04 Q1015 NOSIG,1,0.0,0,9999,0,0,0,
2026-03-30 18:00:00,METAR ZBTJ 301800Z 22003MPS 190V260 CAVOK 11/M05 Q1016 NOSIG,1,0.0,0,9999,0,0,0,
2026-03-30 17:30:00,METAR ZBTJ 301730Z 21002MPS CAVOK 11/M05 Q1016 NOSIG,1,0.0,0,9999,0,0,0,
2026-03-30 17:00:00,METAR ZBTJ 301700Z 21002MPS 180V240 CAVOK 11/M05 Q1016 NOSIG,1,0.0,0,9999,0,0,0,
2026-03-30 16:30:00,METAR ZBTJ 301630Z 20003MPS 170V230 CAVOK 11/M04 Q1016 NOSIG,1,0.0,0,9999,0,0,0,
2026-03-30 16:00:00,METAR ZBTJ 301600Z 20002MPS 170V230 CAVOK 11/M04 Q1017 NOSIG,1,0.0,0,9999,0,0,0,
2026-03-30 15:30:00,METAR ZBTJ 301530Z 21002MPS 170V230 CAVOK 11/M05 Q1017 NOSIG,1,0.0,0,9999,0,0,0,
2026-03-30 15:00:00,METAR ZBTJ 301500Z 23003MPS 200V260 CAVOK 11/M03 Q1017 NOSIG,1,0.0,0,9999,0,0,0,
2026-03-30 14:30:00,METAR ZBTJ 301430Z 20002MPS CAVOK 11/M03 Q1017 NOSIG,1,0.0,0,9999,0,0,0,
2026-03-30 14:00:00,METAR ZBTJ 301400Z 21003MPS CAVOK 11/M03 Q1017 NOSIG,1,0.0,0,9999,0,0,0,
2026-03-30 13:30:00,METAR ZBTJ 301330Z 19003MPS CAVOK 11/M05 Q1017 NOSIG,1,0.0,0,9999,0,0,0,
2026-03-30 13:00:00,METAR ZBTJ 301300Z 19003MPS CAVOK 11/M06 Q1017 NOSIG,1,0.0,0,9999,0,0,0,
2026-03-30 12:30:00,METAR ZBTJ 301230Z 18003MPS CAVOK 11/M06 Q1017 NOSIG,1,0.0,0,9999,0,0,0,
2026-03-30 12:00:00,METAR ZBTJ 301200Z 18003MPS CAVOK 11/M05 Q1017 NOSIG,1,0.0,0,9999,0,0,0,
2026-03-30 11:30:00,METAR ZBTJ 301130Z 18004MPS CAVOK 11/M05 Q1017 NOSIG,1,0.0,0,9999,0,0,0,
2026-03-30 11:00:00,METAR ZBTJ 301100Z 17004MPS CAVOK 11/M04 Q1017 NOSIG,1,0.0,0,9999,0,0,0,
2026-03-30 10:30:00,METAR ZBTJ 301030Z 16004MPS CAVOK 11/M05 Q1017 NOSIG,1,0.0,0,9999,0,0,0,
2026-03-30 10:00:00,METAR ZBTJ 301000Z 17005MPS CAVOK 12/M06 Q1016 NOSIG,1,0.0,0,9999,0,0,0,
2026-03-30 09:30:00,METAR ZBTJ 300930Z 16005MPS CAVOK 13/M04 Q1016 NOSIG,1,0.0,0,9999,0,0,0,
2026-03-30 09:00:00,METAR ZBTJ 300900Z 17005MPS CAVOK 13/M04 Q1016 NOSIG,1,0.0,0,9999,0,0,0,
2026-03-30 08:30:00,METAR ZBTJ 300830Z 17005MPS CAVOK 14/M03 Q1017 NOSIG,1,0.0,0,9999,0,0,0,
2026-03-30 08:00:00,METAR ZBTJ 300800Z 16005MPS CAVOK 15/M01 Q1017 NOSIG,1,0.0,0,9999,0,0,0,
2026-03-30 07:30:00,METAR ZBTJ 300730Z 17005MPS 140V210 CAVOK 15/M01 Q1017 NOSIG,1,0.0,0,9999,0,0,0,
2026-03-30 07:00:00,METAR ZBTJ 300700Z 14003MPS 070V180 CAVOK 16/M05 Q1017 NOSIG,1,0.0,0,9999,0,0,0,
2026-03-30 06:30:00,METAR ZBTJ 300630Z 12003MPS 020V190 CAVOK 16/M04 Q1017 NOSIG,1,0.0,0,9999,0,0,0,
2026-03-30 06:00:00,METAR ZBTJ 300600Z VRB03MPS CAVOK 16/M04 Q1017 BECMG TL0750 16005MPS,1,0.0,0,9999,0,0,0,
2026-03-30 05:30:00,METAR ZBTJ 300530Z 10004MPS 060V140 CAVOK 16/M04 Q1018 NOSIG,1,0.0,0,9999,0,0,0,
2026-03-30 05:00:00,METAR ZBTJ 300500Z 08005MPS CAVOK 16/M04 Q1018 NOSIG,1,0.0,0,9999,0,0,0,
2026-03-30 04:30:00,METAR ZBTJ 300430Z 09006MPS 060V120 CAVOK 16/M05 Q1018 NOSIG,1,0.0,0,9999,0,0,0,
2026-03-30 04:00:00,METAR ZBTJ 300400Z 09006MPS CAVOK 15/M05 Q1018 NOSIG,1,0.0,0,9999,0,0,0,
2026-03-30 03:30:00,METAR ZBTJ 300330Z 09006MPS 060V130 CAVOK 16/M05 Q1019 NOSIG,1,0.0,0,9999,0,0,0,
2026-03-30 03:00:00,METAR ZBTJ 300300Z 07006MPS CAVOK 16/M04 Q1019 NOSIG,1,0.0,0,9999,0,0,0,
2026-03-30 02:30:00,METAR ZBTJ 300230Z 06006MPS CAVOK 15/M03 Q1019 NOSIG,1,0.0,0,9999,0,0,0,
2026-03-30 02:00:00,METAR ZBTJ 300200Z 07006MPS 040V100 CAVOK 15/M02 Q1020 NOSIG,1,0.0,0,9999,0,0,0,
2026-03-30 01:30:00,METAR ZBTJ 300130Z 07005MPS CAVOK 13/01 Q1019 NOSIG,1,0.0,0,9999,0,0,0,
2026-03-30 01:00:00,METAR ZBTJ 300100Z 08004MPS 050V110 CAVOK 13/02 Q1019 NOSIG,1,0.0,0,9999,0,0,0,
2026-03-30 00:30:00,METAR ZBTJ 300030Z 07004MPS 030V110 CAVOK 12/02 Q1019 NOSIG,1,0.0,0,9999,0,0,0,
2026-03-30 00:00:00,METAR ZBTJ 300000Z 07003MPS 020V100 CAVOK 11/03 Q1019 NOSIG,1,0.0,0,9999,0,0,0,
2026-03-29 23:30:00,METAR ZBTJ 292330Z 05002MPS CAVOK 11/04 Q1019 NOSIG,1,0.0,0,9999,0,0,0,
2026-03-29 23:00:00,METAR ZBTJ 292300Z 05002MPS CAVOK 10/05 Q1019 NOSIG,1,0.0,0,9999,0,0,0,
2026-03-29 22:30:00,METAR ZBTJ 292230Z 03003MPS CAVOK 10/06 Q1018 NOSIG,1,0.0,0,9999,0,0,0,
2026-03-29 22:00:00,METAR ZBTJ 292200Z 02003MPS CAVOK 10/06 Q1018 NOSIG,1,0.0,0,9999,0,0,0,
2026-03-29 21:30:00,METAR ZBTJ 292130Z 04002MPS CAVOK 09/05 Q1018 NOSIG,1,0.0,0,9999,0,0,0,
2026-03-29 21:00:00,METAR ZBTJ 292100Z 06002MPS CAVOK 10/06 Q1017 NOSIG,1,0.0,0,9999,0,0,0,
2026-03-29 20:30:00,METAR ZBTJ 292030Z 06002MPS CAVOK 10/06 Q1017 NOSIG,1,0.0,0,9999,0,0,0,
2026-03-29 20:00:00,METAR ZBTJ 292000Z 05003MPS CAVOK 10/06 Q1017 NOSIG,1,0.0,0,9999,0,0,0,
2026-03-29 19:30:00,METAR ZBTJ 291930Z 05003MPS CAVOK 10/06 Q1017 NOSIG,1,0.0,0,9999,0,0,0,
2026-03-29 19:00:00,METAR ZBTJ 291900Z 03003MPS CAVOK 10/06 Q1017 NOSIG,1,0.0,0,9999,0,0,0,
2026-03-29 18:30:00,METAR ZBTJ 291830Z 05003MPS CAVOK 10/07 Q1017 NOSIG,1,0.0,0,9999,0,0,0,
2026-03-29 18:00:00,METAR ZBTJ 291800Z 03003MPS CAVOK 10/07 Q1017 NOSIG,1,0.0,0,9999,0,0,0,
2026-03-29 17:30:00,METAR ZBTJ 291730Z 05005MPS CAVOK 10/06 Q1017 NOSIG,1,0.0,0,9999,0,0,0,
2026-03-29 17:00:00,METAR ZBTJ 291700Z 06005MPS 9999 BKN046 10/06 Q1017 NOSIG,0,5.0,0,10000,0,0,0,
2026-03-29 16:30:00,METAR ZBTJ 291630Z 06005MPS 9999 -SHRA BKN046 10/07 Q1018 NOSIG,0,5.0,0,10000,0,0,0,RA
2026-03-29 16:00:00,METAR ZBTJ 291600Z 07005MPS 9999 -SHRA BKN046 10/08 Q1017 NOSIG,0,5.0,0,10000,0,0,0,RA
2026-03-29 15:30:00,METAR ZBTJ 291530Z 06005MPS 6000 -SHRA BKN046 11/08 Q1017 NOSIG,0,5.0,0,6000,0,0,0,RA
2026-03-29 15:00:00,METAR ZBTJ 291500Z 07005MPS 9999 -SHRA BKN043 12/07 Q1016 NOSIG,0,5.0,0,10000,0,0,0,RA
2026-03-29 14:30:00,METAR ZBTJ 291430Z 07006MPS 9999 BKN030 12/06 Q1016 NOSIG,0,6.0,0,10000,0,0,0,
2026-03-29 14:00:00,METAR ZBTJ 291400Z 06006MPS 7000 BKN020 12/07 Q1016 NOSIG,0,6.0,0,7000,0,0,0,
2026-03-29 13:30:00,METAR ZBTJ 291330Z 07007MPS 4000 HZ NSC 12/07 Q1016 NOSIG,0,7.0,0,4000,0,0,0,
2026-03-29 13:00:00,METAR ZBTJ 291300Z 08010MPS 5000 HZ NSC 13/07 Q1015 NOSIG,0,10.0,0,5000,0,0,0,
2026-03-29 12:30:00,METAR ZBTJ 291230Z 09010G15MPS 5000 HZ NSC 14/06 Q1015 NOSIG,0,10.0,1,5000,0,0,0,
2026-03-29 12:00:00,METAR ZBTJ 291200Z 07010G15MPS 3500 HZ NSC 14/06 Q1014 NOSIG,0,10.0,1,3500,0,0,0,
2026-03-29 11:30:00,METAR ZBTJ 291130Z 06011MPS 3500 HZ NSC 15/09 Q1012 NOSIG,0,11.0,0,3500,0,0,0,
2026-03-29 11:14:00,SPECI ZBTJ 291114Z 03013G18MPS 4000 HZ NSC 19/08 Q1011 NOSIG,0,13.0,1,4000,0,0,0,
2026-03-29 11:00:00,METAR ZBTJ 291100Z VRB01MPS 4000 HZ NSC 19/08 Q1011 BECMG TL1230 07008MPS,0,1.0,0,4000,0,0,0,
2026-03-29 10:30:00,METAR ZBTJ 291030Z 11002MPS 040V150 4000 HZ NSC 19/08 Q1010 NOSIG,0,2.0,0,4000,0,0,0,
2026-03-29 10:00:00,METAR ZBTJ 291000Z 11002MPS 4000 HZ NSC 20/07 Q1009 BECMG TL1130 07007MPS,0,2.0,0,4000,0,0,0,
2026-03-29 09:30:00,METAR ZBTJ 290930Z VRB01MPS 4000 HZ NSC 21/06 Q1009 NOSIG,0,1.0,0,4000,0,0,0,
2026-03-29 09:00:00,METAR ZBTJ 290900Z VRB01MPS 4000 HZ FEW030 21/07 Q1009 NOSIG,0,1.0,0,4000,0,0,0,
2026-03-29 08:30:00,METAR ZBTJ 290830Z VRB01MPS 4000 HZ FEW030 21/07 Q1009 NOSIG,0,1.0,0,4000,0,0,0,
2026-03-29 08:00:00,METAR ZBTJ 290800Z 03002MPS 330V090 4000 HZ FEW030 21/07 Q1008 NOSIG,0,2.0,0,4000,0,0,0,
2026-03-29 07:30:00,METAR ZBTJ 290730Z 03002MPS 340V070 3500 HZ FEW030 21/06 Q1008 NOSIG,0,2.0,0,3500,0,0,0,
2026-03-29 07:00:00,METAR ZBTJ 290700Z 33002MPS 290V360 3500 HZ NSC 21/06 Q1009 NOSIG,0,2.0,0,3500,0,0,0,
2026-03-29 06:30:00,METAR ZBTJ 290630Z VRB02MPS 3500 HZ NSC 22/07 Q1009 NOSIG,0,2.0,0,3500,0,0,0,
2026-03-29 06:00:00,METAR ZBTJ 290600Z 30002MPS 230V350 3200 HZ NSC 21/07 Q1009 NOSIG,0,2.0,0,3200,0,0,0,
2026-03-29 05:30:00,METAR ZBTJ 290530Z VRB03MPS 3000 HZ NSC 21/08 Q1009 NOSIG,0,3.0,0,3000,0,0,0,
2026-03-29 05:00:00,METAR ZBTJ 290500Z 31003MPS 250V010 2700 HZ NSC 21/08 Q1009 BECMG TL0630 3000,0,3.0,0,2700,0,0,0,
2026-03-29 04:30:00,METAR ZBTJ 290430Z 31003MPS 270V350 2700 HZ NSC 20/06 Q1010 NOSIG,0,3.0,0,2700,0,0,0,
2026-03-29 04:00:00,METAR ZBTJ 290400Z 32003MPS 260V340 2700 HZ NSC 20/06 Q1010 BECMG TL0500 3000,0,3.0,0,2700,0,0,0,
2026-03-29 03:30:00,METAR ZBTJ 290330Z 28003MPS 200V340 2600 HZ NSC 19/06 Q1010 NOSIG,0,3.0,0,2600,0,0,0,
2026-03-29 03:00:00,METAR ZBTJ 290300Z 30003MPS 270V350 2500 HZ NSC 18/05 Q1010 BECMG TL0400 3000,0,3.0,0,2500,0,0,0,
2026-03-29 02:30:00,METAR ZBTJ 290230Z 28003MPS 250V310 2200 HZ NSC 18/07 Q1011 NOSIG,0,3.0,0,2200,0,0,0,
2026-03-29 02:00:00,METAR ZBTJ 290200Z 28002MPS 220V010 2400 HZ NSC 18/08 Q1010 BECMG TL0330 3000,0,2.0,0,2400,0,0,0,
2026-03-29 01:30:00,METAR ZBTJ 290130Z VRB01MPS 2500 HZ NSC 16/07 Q1010 NOSIG,0,1.0,0,2500,0,0,0,
2026-03-29 01:00:00,METAR ZBTJ 290100Z COR 34002MPS 310V010 2500 HZ NSC 15/08 Q1010 BECMG TL0230 3000,0,2.0,0,2500,0,0,0,
2026-03-29 00:30:00,METAR ZBTJ 290030Z 34002MPS 2500 HZ NSC 13/07 Q1010 NOSIG,0,2.0,0,2500,0,0,0,
2026-03-29 00:00:00,METAR ZBTJ 290000Z 33002MPS 3000 BR NSC 12/07 Q1010 NOSIG,0,2.0,0,3000,0,0,1,BR
2026-03-28 23:30:00,METAR ZBTJ 282330Z 34003MPS 2500 BR NSC 11/07 Q1010 NOSIG,0,3.0,0,2500,0,0,1,BR
2026-03-28 23:00:00,METAR ZBTJ 282300Z VRB01MPS 2500 BR NSC 11/07 Q1010 BECMG TL0030 3000,0,1.0,0,2500,0,0,1,BR
2026-03-28 22:30:00,METAR ZBTJ 282230Z 32001MPS 2500 BR NSC 11/07 Q1010 NOSIG,0,1.0,0,2500,0,0,1,BR
2026-03-28 22:00:00,METAR ZBTJ 282200Z 30002MPS 2500 BR NSC 10/07 Q1009 NOSIG,0,2.0,0,2500,0,0,1,BR
2026-03-28 21:30:00,METAR ZBTJ 282130Z 34002MPS 2500 BR NSC 10/06 Q1009 NOSIG,0,2.0,0,2500,0,0,1,BR
2026-03-28 21:00:00,METAR ZBTJ 282100Z 34001MPS 3000 BR NSC 10/07 Q1009 NOSIG,0,1.0,0,3000,0,0,1,BR
2026-03-28 20:30:00,METAR ZBTJ 282030Z 05002MPS 3000 BR NSC 10/07 Q1008 NOSIG,0,2.0,0,3000,0,0,1,BR
2026-03-28 20:00:00,METAR ZBTJ 282000Z 16001MPS 2500 BR NSC 10/07 Q1008 NOSIG,0,1.0,0,2500,0,0,1,BR
2026-03-28 19:30:00,METAR ZBTJ 281930Z 14002MPS 2500 BR NSC 10/07 Q1009 NOSIG,0,2.0,0,2500,0,0,1,BR
2026-03-28 19:00:00,METAR ZBTJ 281900Z 09001MPS 2000 BR NSC 11/07 Q1009 NOSIG,0,1.0,0,2000,0,0,1,BR
2026-03-28 18:30:00,METAR ZBTJ 281830Z VRB01MPS 2000 BR NSC 11/07 Q1009 NOSIG,0,1.0,0,2000,0,0,1,BR
2026-03-28 18:00:00,METAR ZBTJ 281800Z 00000MPS 2000 BR NSC 11/07 Q1010 NOSIG,0,0.0,0,2000,0,0,1,BR
2026-03-28 17:30:00,METAR ZBTJ 281730Z 00000MPS 2000 BR NSC 11/06 Q1010 NOSIG,0,0.0,0,2000,0,0,1,BR
2026-03-28 17:00:00,METAR ZBTJ 281700Z 10001MPS 2500 HZ NSC 13/06 Q1010 NOSIG,0,1.0,0,2500,0,0,0,
2026-03-28 16:30:00,METAR ZBTJ 281630Z 00000MPS 2500 HZ NSC 12/06 Q1010 NOSIG,0,0.0,0,2500,0,0,0,
2026-03-28 16:00:00,METAR ZBTJ 281600Z 16001MPS 2500 HZ NSC 12/07 Q1011 NOSIG,0,1.0,0,2500,0,0,0,
2026-03-28 15:30:00,METAR ZBTJ 281530Z 15002MPS 2500 HZ NSC 12/06 Q1011 NOSIG,0,2.0,0,2500,0,0,0,
2026-03-28 15:00:00,METAR ZBTJ 281500Z 15001MPS 2500 HZ NSC 13/06 Q1011 NOSIG,0,1.0,0,2500,0,0,0,
2026-03-28 14:30:00,METAR ZBTJ 281430Z 13002MPS 2500 HZ NSC 13/07 Q1011 NOSIG,0,2.0,0,2500,0,0,0,
2026-03-28 14:00:00,METAR ZBTJ 281400Z VRB01MPS 2800 HZ NSC 13/06 Q1011 NOSIG,0,1.0,0,2800,0,0,0,
2026-03-28 13:30:00,METAR ZBTJ 281330Z 15002MPS 2800 HZ NSC 13/07 Q1011 NOSIG,0,2.0,0,2800,0,0,0,
2026-03-28 13:00:00,METAR ZBTJ 281300Z 12002MPS 3000 HZ NSC 14/06 Q1011 BECMG TL1400 2500 BR,0,2.0,0,3000,0,0,1,BR
2026-03-28 12:30:00,METAR ZBTJ 281230Z 13002MPS 3500 HZ NSC 14/06 Q1011 NOSIG,0,2.0,0,3500,0,0,0,
2026-03-28 12:00:00,METAR ZBTJ 281200Z VRB01MPS 3500 HZ NSC 15/05 Q1011 NOSIG,0,1.0,0,3500,0,0,0,
2026-03-28 11:30:00,METAR ZBTJ 281130Z 16003MPS 120V180 4000 HZ NSC 15/05 Q1011 NOSIG,0,3.0,0,4000,0,0,0,
2026-03-28 11:00:00,METAR ZBTJ 281100Z 15004MPS 5000 HZ NSC 16/06 Q1011 NOSIG,0,4.0,0,5000,0,0,0,
2026-03-28 10:30:00,METAR ZBTJ 281030Z 14004MPS 5000 HZ NSC 16/05 Q1011 NOSIG,0,4.0,0,5000,0,0,0,
2026-03-28 10:00:00,METAR ZBTJ 281000Z 15003MPS 7000 NSC 16/03 Q1011 NOSIG,0,3.0,0,7000,0,0,0,
2026-03-28 09:30:00,METAR ZBTJ 280930Z 15004MPS 7000 NSC 17/02 Q1011 NOSIG,0,4.0,0,7000,0,0,0,
2026-03-28 09:00:00,METAR ZBTJ 280900Z 14003MPS CAVOK 18/02 Q1011 NOSIG,1,0.0,0,9999,0,0,0,
2026-03-28 08:30:00,METAR ZBTJ 280830Z 14003MPS CAVOK 18/M04 Q1011 NOSIG,1,0.0,0,9999,0,0,0,
2026-03-28 08:00:00,METAR ZBTJ 280800Z 16003MPS 130V190 CAVOK 18/M05 Q1011 NOSIG,1,0.0,0,9999,0,0,0,
2026-03-28 07:30:00,METAR ZBTJ 280730Z 17004MPS CAVOK 19/M04 Q1012 NOSIG,1,0.0,0,9999,0,0,0,
2026-03-28 07:00:00,METAR ZBTJ 280700Z 16004MPS 120V190 CAVOK 20/M06 Q1012 NOSIG,1,0.0,0,9999,0,0,0,
2026-03-28 06:30:00,METAR ZBTJ 280630Z 15004MPS CAVOK 20/M06 Q1012 NOSIG,1,0.0,0,9999,0,0,0,
2026-03-28 06:00:00,METAR ZBTJ 280600Z 16004MPS 110V180 CAVOK 20/M08 Q1013 NOSIG,1,0.0,0,9999,0,0,0,
2026-03-28 05:30:00,METAR ZBTJ 280530Z 16004MPS CAVOK 20/M09 Q1013 NOSIG,1,0.0,0,9999,0,0,0,
2026-03-28 05:00:00,METAR ZBTJ 280500Z 16005MPS 120V180 CAVOK 20/M07 Q1014 NOSIG,1,0.0,0,9999,0,0,0,
2026-03-28 04:30:00,METAR ZBTJ 280430Z 17005MPS 110V200 CAVOK 20/M07 Q1014 NOSIG,1,0.0,0,9999,0,0,0,
2026-03-28 04:00:00,METAR ZBTJ 280400Z 15005MPS 120V190 CAVOK 20/M04 Q1015 NOSIG,1,0.0,0,9999,0,0,0,
2026-03-28 03:30:00,METAR ZBTJ 280330Z 15005MPS 120V180 CAVOK 19/M03 Q1015 NOSIG,1,0.0,0,9999,0,0,0,
2026-03-28 03:00:00,METAR ZBTJ 280300Z 17004MPS 150V210 CAVOK 19/M02 Q1015 NOSIG,1,0.0,0,9999,0,0,0,
2026-03-28 02:30:00,METAR ZBTJ 280230Z 14003MPS 100V230 CAVOK 19/M01 Q1016 NOSIG,1,0.0,0,9999,0,0,0,
2026-03-28 02:00:00,METAR ZBTJ 280200Z 14002MPS 080V240 CAVOK 18/00 Q1016 NOSIG,1,0.0,0,9999,0,0,0,
2026-03-28 01:30:00,METAR ZBTJ 280130Z 11002MPS CAVOK 17/02 Q1016 NOSIG,1,0.0,0,9999,0,0,0,
2026-03-28 01:00:00,METAR ZBTJ 280100Z 13002MPS 100V170 CAVOK 15/04 Q1016 NOSIG,1,0.0,0,9999,0,0,0,
2026-03-28 00:30:00,METAR ZBTJ 280030Z 00000MPS CAVOK 14/06 Q1016 NOSIG,1,0.0,0,9999,0,0,0,
2026-03-28 00:00:00,METAR ZBTJ 280000Z VRB01MPS CAVOK 12/06 Q1016 NOSIG,1,0.0,0,9999,0,0,0,
2026-03-27 23:30:00,METAR ZBTJ 272330Z VRB01MPS 8000 NSC 09/06 Q1016 NOSIG,0,1.0,0,8000,0,0,0,
2026-03-27 23:00:00,METAR ZBTJ 272300Z 13001MPS 8000 NSC 07/04 Q1016 NOSIG,0,1.0,0,8000,0,0,0,
2026-03-27 22:30:00,METAR ZBTJ 272230Z 13001MPS 8000 NSC 06/02 Q1016 NOSIG,0,1.0,0,8000,0,0,0,
2026-03-27 22:00:00,METAR ZBTJ 272200Z 13001MPS 6000 NSC 06/02 Q1016 NOSIG,0,1.0,0,6000,0,0,0,
2026-03-27 21:30:00,METAR ZBTJ 272130Z 13002MPS 5000 HZ NSC 07/02 Q1016 NOSIG,0,2.0,0,5000,0,0,0,
2026-03-27 21:00:00,METAR ZBTJ 272100Z 15002MPS 5000 HZ NSC 06/01 Q1015 NOSIG,0,2.0,0,5000,0,0,0,
2026-03-27 20:30:00,METAR ZBTJ 272030Z 14001MPS 5000 HZ NSC 06/01 Q1015 NOSIG,0,1.0,0,5000,0,0,0,
2026-03-27 20:00:00,METAR ZBTJ 272000Z 15001MPS 6000 NSC 07/01 Q1015 NOSIG,0,1.0,0,6000,0,0,0,
2026-03-27 19:30:00,METAR ZBTJ 271930Z 15002MPS 6000 NSC 07/01 Q1015 NOSIG,0,2.0,0,6000,0,0,0,
2026-03-27 19:00:00,METAR ZBTJ 271900Z 15002MPS 6000 NSC 06/01 Q1016 NOSIG,0,2.0,0,6000,0,0,0,
2026-03-27 18:30:00,METAR ZBTJ 271830Z 15002MPS 6000 NSC 06/01 Q1016 NOSIG,0,2.0,0,6000,0,0,0,
2026-03-27 18:00:00,METAR ZBTJ 271800Z 17002MPS 8000 NSC 07/01 Q1016 NOSIG,0,2.0,0,8000,0,0,0,
2026-03-27 17:30:00,METAR ZBTJ 271730Z 17002MPS 7000 NSC 08/02 Q1016 NOSIG,0,2.0,0,7000,0,0,0,
2026-03-27 17:00:00,METAR ZBTJ 271700Z 15001MPS 5000 HZ NSC 08/00 Q1016 NOSIG,0,1.0,0,5000,0,0,0,
2026-03-27 16:30:00,METAR ZBTJ 271630Z 15001MPS 5000 HZ NSC 07/M00 Q1016 NOSIG,0,1.0,0,5000,0,0,0,
2026-03-27 16:00:00,METAR ZBTJ 271600Z VRB01MPS 7000 NSC 08/M00 Q1017 NOSIG,0,1.0,0,7000,0,0,0,
2026-03-25 15:00:00,METAR ZBTJ 251500Z 15002MPS 2000 HZ NSC 13/09 Q1013 NOSIG,0,2.0,0,2000,0,0,0,
2026-03-25 14:30:00,METAR ZBTJ 251430Z 12001MPS 2000 HZ NSC 14/10 Q1013 NOSIG,0,1.0,0,2000,0,0,0,
2026-03-25 14:00:00,METAR ZBTJ 251400Z 11001MPS 2000 HZ NSC 14/10 Q1013 NOSIG,0,1.0,0,2000,0,0,0,
2026-03-25 13:30:00,METAR ZBTJ 251330Z 12002MPS 2000 HZ NSC 15/10 Q1012 NOSIG,0,2.0,0,2000,0,0,0,
2026-03-25 13:00:00,METAR ZBTJ 251300Z 15002MPS 2500 HZ NSC 15/10 Q1012 NOSIG,0,2.0,0,2500,0,0,0,
2026-03-25 12:30:00,METAR ZBTJ 251230Z 17002MPS 2500 HZ NSC 16/09 Q1011 NOSIG,0,2.0,0,2500,0,0,0,
2026-03-25 12:00:00,METAR ZBTJ 251200Z 16003MPS 2500 HZ NSC 16/09 Q1011 NOSIG,0,3.0,0,2500,0,0,0,
2026-03-25 11:30:00,METAR ZBTJ 251130Z 16003MPS 3000 HZ NSC 16/09 Q1011 NOSIG,0,3.0,0,3000,0,0,0,
2026-03-25 11:00:00,METAR ZBTJ 251100Z 14003MPS 3000 HZ NSC 18/09 Q1010 BECMG TL1200 2800,0,3.0,0,3000,0,0,0,
2026-03-25 10:30:00,METAR ZBTJ 251030Z 15003MPS 3500 HZ NSC 19/09 Q1010 NOSIG,0,3.0,0,3500,0,0,0,
2026-03-25 10:00:00,METAR ZBTJ 251000Z 18003MPS 4500 HZ NSC 22/06 Q1010 NOSIG,0,3.0,0,4500,0,0,0,
2026-03-25 09:30:00,METAR ZBTJ 250930Z 17004MPS 5000 HZ NSC 23/07 Q1009 NOSIG,0,4.0,0,5000,0,0,0,
2026-03-25 09:00:00,METAR ZBTJ 250900Z 20003MPS 170V230 5000 HZ NSC 24/03 Q1009 NOSIG,0,3.0,0,5000,0,0,0,
2026-03-25 08:30:00,METAR ZBTJ 250830Z 21002MPS 160V230 5000 HZ NSC 24/00 Q1009 NOSIG,0,2.0,0,5000,0,0,0,
2026-03-25 08:00:00,METAR ZBTJ 250800Z 20002MPS 110V240 5000 HZ NSC 24/05 Q1009 NOSIG,0,2.0,0,5000,0,0,0,
2026-03-25 07:30:00,METAR ZBTJ 250730Z 20003MPS 160V230 4000 HZ NSC 24/06 Q1009 NOSIG,0,3.0,0,4000,0,0,0,
2026-03-25 07:00:00,METAR ZBTJ 250700Z 18004MPS 120V210 4000 HZ NSC 24/06 Q1009 NOSIG,0,4.0,0,4000,0,0,0,
2026-03-25 06:30:00,METAR ZBTJ 250630Z VRB01MPS 4500 HZ NSC 23/05 Q1010 NOSIG,0,1.0,0,4500,0,0,0,
2026-03-25 06:00:00,METAR ZBTJ 250600Z 02002MPS 340V120 4500 HZ NSC 23/03 Q1010 NOSIG,0,2.0,0,4500,0,0,0,
2026-03-25 05:30:00,METAR ZBTJ 250530Z VRB01MPS 4000 HZ NSC 22/05 Q1010 NOSIG,0,1.0,0,4000,0,0,0,
2026-03-25 05:00:00,METAR ZBTJ 250500Z VRB01MPS 3700 HZ NSC 22/07 Q1011 NOSIG,0,1.0,0,3700,0,0,0,
2026-03-25 04:30:00,METAR ZBTJ 250430Z 15002MPS 070V200 3500 HZ NSC 21/08 Q1011 NOSIG,0,2.0,0,3500,0,0,0,
2026-03-25 04:00:00,METAR ZBTJ 250400Z 04001MPS 3500 HZ NSC 20/08 Q1012 NOSIG,0,1.0,0,3500,0,0,0,
2026-03-25 03:30:00,METAR ZBTJ 250330Z VRB01MPS 3500 HZ NSC 19/08 Q1012 NOSIG,0,1.0,0,3500,0,0,0,
2026-03-25 03:00:00,METAR ZBTJ 250300Z VRB01MPS 3200 HZ NSC 19/08 Q1012 NOSIG,0,1.0,0,3200,0,0,0,
2026-03-25 02:30:00,METAR ZBTJ 250230Z 23002MPS 160V280 3200 HZ NSC 17/08 Q1012 NOSIG,0,2.0,0,3200,0,0,0,
2026-03-25 02:00:00,METAR ZBTJ 250200Z 23002MPS 190V270 3200 HZ NSC 16/08 Q1012 NOSIG,0,2.0,0,3200,0,0,0,
2026-03-25 01:30:00,METAR ZBTJ 250130Z 24003MPS 190V280 3200 HZ NSC 15/08 Q1012 NOSIG,0,3.0,0,3200,0,0,0,
2026-03-25 01:00:00,METAR ZBTJ 250100Z 25002MPS 220V280 3000 HZ NSC 15/07 Q1012 NOSIG,0,2.0,0,3000,0,0,0,
2026-03-25 00:30:00,METAR ZBTJ 250030Z 23003MPS 200V280 3500 HZ NSC 14/07 Q1012 NOSIG,0,3.0,0,3500,0,0,0,
2026-03-25 00:00:00,METAR ZBTJ 250000Z 23003MPS 200V280 3500 HZ NSC 13/07 Q1012 NOSIG,0,3.0,0,3500,0,0,0,
2026-03-24 23:30:00,METAR ZBTJ 242330Z 25002MPS 220V300 3500 HZ NSC 12/07 Q1011 NOSIG,0,2.0,0,3500,0,0,0,
2026-03-24 23:00:00,METAR ZBTJ 242300Z 20003MPS 3500 HZ NSC 12/06 Q1011 NOSIG,0,3.0,0,3500,0,0,0,
2026-03-24 22:30:00,METAR ZBTJ 242230Z 21002MPS 3500 HZ NSC 12/06 Q1011 NOSIG,0,2.0,0,3500,0,0,0,
2026-03-24 22:00:00,METAR ZBTJ 242200Z 19002MPS 3500 HZ NSC 11/06 Q1011 NOSIG,0,2.0,0,3500,0,0,0,
2026-03-24 21:30:00,METAR ZBTJ 242130Z 18003MPS 3500 HZ NSC 11/06 Q1011 NOSIG,0,3.0,0,3500,0,0,0,
2026-03-24 21:00:00,METAR ZBTJ 242100Z 18002MPS 4000 HZ NSC 11/06 Q1011 NOSIG,0,2.0,0,4000,0,0,0,
2026-03-24 20:30:00,METAR ZBTJ 242030Z VRB01MPS 4500 HZ NSC 12/05 Q1011 NOSIG,0,1.0,0,4500,0,0,0,
2026-03-24 20:00:00,METAR ZBTJ 242000Z VRB01MPS 4500 HZ NSC 12/05 Q1011 NOSIG,0,1.0,0,4500,0,0,0,
2026-03-24 19:30:00,METAR ZBTJ 241930Z 18002MPS 4500 HZ NSC 12/05 Q1011 NOSIG,0,2.0,0,4500,0,0,0,
2026-03-24 19:00:00,METAR ZBTJ 241900Z 21003MPS 180V240 5000 HZ NSC 13/06 Q1011 NOSIG,0,3.0,0,5000,0,0,0,
2026-03-24 18:30:00,METAR ZBTJ 241830Z 20002MPS 170V230 5000 HZ NSC 13/05 Q1011 NOSIG,0,2.0,0,5000,0,0,0,
2026-03-24 18:00:00,METAR ZBTJ 241800Z 21003MPS 6000 NSC 14/06 Q1011 NOSIG,0,3.0,0,6000,0,0,0,
2026-03-24 17:30:00,METAR ZBTJ 241730Z 23003MPS 6000 NSC 15/06 Q1011 NOSIG,0,3.0,0,6000,0,0,0,
2026-03-24 17:00:00,METAR ZBTJ 241700Z 23004MPS 200V260 6000 NSC 15/06 Q1011 NOSIG,0,4.0,0,6000,0,0,0,
2026-03-24 16:30:00,METAR ZBTJ 241630Z 23004MPS 6000 NSC 15/06 Q1011 NOSIG,0,4.0,0,6000,0,0,0,
2026-03-24 16:00:00,METAR ZBTJ 241600Z 23004MPS 190V260 5000 HZ NSC 16/06 Q1011 NOSIG,0,4.0,0,5000,0,0,0,
2026-03-24 15:30:00,METAR ZBTJ 241530Z 23004MPS 190V260 5000 HZ NSC 16/06 Q1011 NOSIG,0,4.0,0,5000,0,0,0,
2026-03-24 15:00:00,METAR ZBTJ 241500Z 22003MPS 5000 HZ NSC 16/06 Q1011 NOSIG,0,3.0,0,5000,0,0,0,
2026-03-24 14:30:00,METAR ZBTJ 241430Z 21004MPS 5000 HZ NSC 16/07 Q1011 NOSIG,0,4.0,0,5000,0,0,0,
2026-03-24 14:00:00,METAR ZBTJ 241400Z 20003MPS 5000 HZ NSC 16/06 Q1011 NOSIG,0,3.0,0,5000,0,0,0,
2026-03-24 13:30:00,METAR ZBTJ 241330Z 19003MPS 4500 HZ NSC 15/07 Q1011 NOSIG,0,3.0,0,4500,0,0,0,
2026-03-24 13:00:00,METAR ZBTJ 241300Z 19002MPS 3500 HZ NSC 14/07 Q1011 NOSIG,0,2.0,0,3500,0,0,0,
2026-03-24 12:30:00,METAR ZBTJ 241230Z 16002MPS 3500 HZ NSC 14/08 Q1011 NOSIG,0,2.0,0,3500,0,0,0,
2026-03-24 12:00:00,METAR ZBTJ 241200Z 15003MPS 3500 HZ NSC 14/08 Q1011 BECMG TL1300 2800,0,3.0,0,3500,0,0,0,
2026-03-24 11:30:00,METAR ZBTJ 241130Z 16002MPS 3500 HZ NSC 15/07 Q1010 NOSIG,0,2.0,0,3500,0,0,0,
2026-03-24 11:00:00,METAR ZBTJ 241100Z 18002MPS 3500 HZ BKN033 17/07 Q1010 NOSIG,0,2.0,0,3500,0,0,0,
2026-03-24 10:30:00,METAR ZBTJ 241030Z 17002MPS 3500 HZ BKN033 18/07 Q1010 NOSIG,0,2.0,0,3500,0,0,0,
2026-03-24 10:00:00,METAR ZBTJ 241000Z 21002MPS 3500 HZ BKN033 19/07 Q1010 NOSIG,0,2.0,0,3500,0,0,0,
2026-03-24 09:30:00,METAR ZBTJ 240930Z 22003MPS 200V260 3500 HZ BKN033 20/07 Q1010 NOSIG,0,3.0,0,3500,0,0,0,
2026-03-24 09:00:00,METAR ZBTJ 240900Z 22003MPS 190V280 3500 HZ BKN033 20/07 Q1010 NOSIG,0,3.0,0,3500,0,0,0,
2026-03-24 08:30:00,METAR ZBTJ 240830Z 21004MPS 180V250 3000 HZ BKN033 20/07 Q1010 NOSIG,0,4.0,0,3000,0,0,0,
2026-03-24 08:00:00,METAR ZBTJ 240800Z 22004G09MPS 180V260 3000 HZ BKN033 20/07 Q1010 NOSIG,0,4.0,1,3000,0,0,0,
2026-03-24 07:30:00,METAR ZBTJ 240730Z 22004MPS 190V250 3000 HZ BKN033 20/07 Q1011 NOSIG,0,4.0,0,3000,0,0,0,
2026-03-24 07:00:00,METAR ZBTJ 240700Z 23003MPS 200V280 2800 HZ BKN033 20/08 Q1011 BECMG TL0830 3000,0,3.0,0,2800,0,0,0,
2026-03-24 06:30:00,METAR ZBTJ 240630Z 24004MPS 200V280 2800 HZ BKN033 20/08 Q1011 NOSIG,0,4.0,0,2800,0,0,0,
2026-03-24 06:00:00,METAR ZBTJ 240600Z 22004MPS 170V260 3000 HZ BKN033 19/08 Q1012 BECMG TL0750 2800,0,4.0,0,3000,0,0,0,
2026-03-24 05:30:00,METAR ZBTJ 240530Z 22003MPS 160V260 3500 HZ BKN033 19/07 Q1012 NOSIG,0,3.0,0,3500,0,0,0,
2026-03-24 05:00:00,METAR ZBTJ 240500Z 23004MPS 190V250 3500 HZ BKN033 18/06 Q1013 NOSIG,0,4.0,0,3500,0,0,0,
2026-03-24 04:30:00,METAR ZBTJ 240430Z 24004MPS 210V270 3500 HZ BKN033 17/06 Q1013 NOSIG,0,4.0,0,3500,0,0,0,
2026-03-24 04:00:00,METAR ZBTJ 240400Z 24003MPS 180V280 4000 HZ BKN033 17/05 Q1014 NOSIG,0,3.0,0,4000,0,0,0,
2026-03-24 03:30:00,METAR ZBTJ 240330Z 24002MPS 200V290 4000 HZ NSC 16/04 Q1014 NOSIG,0,2.0,0,4000,0,0,0,
2026-03-24 03:00:00,METAR ZBTJ 240300Z 24003MPS 130V280 4000 HZ NSC 15/04 Q1014 NOSIG,0,3.0,0,4000,0,0,0,
2026-03-24 02:30:00,METAR ZBTJ 240230Z VRB01MPS 4000 HZ NSC 15/04 Q1015 NOSIG,0,1.0,0,4000,0,0,0,
2026-03-24 02:00:00,METAR ZBTJ 240200Z 23002MPS 150V250 3500 HZ NSC 14/04 Q1015 NOSIG,0,2.0,0,3500,0,0,0,
2026-03-24 01:30:00,METAR ZBTJ 240130Z VRB01MPS 3200 HZ NSC 13/04 Q1015 NOSIG,0,1.0,0,3200,0,0,0,
2026-03-24 01:00:00,METAR ZBTJ 240100Z 20002MPS 160V230 3000 HZ NSC 12/04 Q1015 NOSIG,0,2.0,0,3000,0,0,0,
2026-03-24 00:30:00,METAR ZBTJ 240030Z 17002MPS 2800 HZ NSC 11/05 Q1015 NOSIG,0,2.0,0,2800,0,0,0,
2026-03-24 00:00:00,METAR ZBTJ 240000Z VRB01MPS 2700 BR NSC 09/05 Q1015 BECMG TL0100 3000,0,1.0,0,2700,0,0,1,BR
2026-03-23 23:30:00,METAR ZBTJ 232330Z 13001MPS 2700 BR NSC 08/05 Q1016 NOSIG,0,1.0,0,2700,0,0,1,BR
2026-03-23 23:00:00,METAR ZBTJ 232300Z 00000MPS 2500 BR NSC 07/04 Q1015 BECMG TL0030 3000,0,0.0,0,2500,0,0,1,BR
2026-03-23 22:30:00,METAR ZBTJ 232230Z 10001MPS 2800 BR NSC 07/03 Q1015 NOSIG,0,1.0,0,2800,0,0,1,BR
2026-03-23 22:00:00,METAR ZBTJ 232200Z 00000MPS 2800 BR NSC 07/03 Q1016 BECMG TL2330 3000,0,0.0,0,2800,0,0,1,BR
2026-03-23 21:30:00,METAR ZBTJ 232130Z 00000MPS 3200 HZ NSC 07/03 Q1016 NOSIG,0,0.0,0,3200,0,0,0,
2026-03-23 21:00:00,METAR ZBTJ 232100Z 15001MPS 3500 HZ NSC 07/03 Q1016 BECMG TL2230 2800,0,1.0,0,3500,0,0,0,
2026-03-23 20:30:00,METAR ZBTJ 232030Z 15001MPS 3500 HZ NSC 07/03 Q1016 NOSIG,0,1.0,0,3500,0,0,0,
2026-03-23 20:00:00,METAR ZBTJ 232000Z 14001MPS 3500 HZ NSC 07/03 Q1016 NOSIG,0,1.0,0,3500,0,0,0,
2026-03-23 19:30:00,METAR ZBTJ 231930Z 13001MPS 3500 HZ NSC 07/03 Q1017 NOSIG,0,1.0,0,3500,0,0,0,
2026-03-23 19:00:00,METAR ZBTJ 231900Z 15001MPS 4000 HZ NSC 07/02 Q1017 NOSIG,0,1.0,0,4000,0,0,0,
2026-03-23 18:30:00,METAR ZBTJ 231830Z 13001MPS 4000 HZ NSC 07/02 Q1017 NOSIG,0,1.0,0,4000,0,0,0,
2026-03-23 18:00:00,METAR ZBTJ 231800Z 14002MPS 4000 HZ NSC 07/02 Q1018 NOSIG,0,2.0,0,4000,0,0,0,
2026-03-23 17:30:00,METAR ZBTJ 231730Z 12001MPS 4000 HZ NSC 07/02 Q1018 NOSIG,0,1.0,0,4000,0,0,0,
2026-03-23 17:00:00,METAR ZBTJ 231700Z 00000MPS 4500 HZ NSC 08/02 Q1019 NOSIG,0,0.0,0,4500,0,0,0,
2026-03-23 16:30:00,METAR ZBTJ 231630Z 00000MPS 4500 HZ NSC 07/02 Q1019 NOSIG,0,0.0,0,4500,0,0,0,
2026-03-23 16:00:00,METAR ZBTJ 231600Z 15002MPS 4500 HZ NSC 07/01 Q1019 NOSIG,0,2.0,0,4500,0,0,0,
2026-03-23 15:30:00,METAR ZBTJ 231530Z 16002MPS 4500 HZ NSC 07/01 Q1019 NOSIG,0,2.0,0,4500,0,0,0,
2026-03-23 15:00:00,METAR ZBTJ 231500Z 17002MPS 4800 HZ NSC 08/01 Q1019 NOSIG,0,2.0,0,4800,0,0,0,
2026-03-23 14:30:00,METAR ZBTJ 231430Z 16003MPS 4800 HZ NSC 08/01 Q1020 NOSIG,0,3.0,0,4800,0,0,0,
2026-03-23 14:00:00,METAR ZBTJ 231400Z 16003MPS 4800 HZ NSC 08/00 Q1020 NOSIG,0,3.0,0,4800,0,0,0,
2026-03-23 13:30:00,METAR ZBTJ 231330Z 16003MPS 4500 HZ NSC 09/01 Q1020 NOSIG,0,3.0,0,4500,0,0,0,
2026-03-23 13:00:00,METAR ZBTJ 231300Z 16002MPS 3500 HZ NSC 09/02 Q1020 NOSIG,0,2.0,0,3500,0,0,0,
2026-03-23 12:30:00,METAR ZBTJ 231230Z 16002MPS 3500 HZ NSC 09/03 Q1020 NOSIG,0,2.0,0,3500,0,0,0,
2026-03-23 12:00:00,METAR ZBTJ 231200Z 16002MPS 4000 HZ NSC 09/02 Q1020 BECMG TL1330 2500,0,2.0,0,4000,0,0,0,
2026-03-23 11:30:00,METAR ZBTJ 231130Z 15002MPS 5000 HZ NSC 09/01 Q1020 NOSIG,0,2.0,0,5000,0,0,0,
2026-03-23 11:00:00,METAR ZBTJ 231100Z 17003MPS 6000 NSC 10/00 Q1020 BECMG TL1230 2800 BR,0,3.0,0,6000,0,0,1,BR
2026-03-23 10:30:00,METAR ZBTJ 231030Z 15003MPS 8000 NSC 10/M04 Q1020 NOSIG,0,3.0,0,8000,0,0,0,
2026-03-23 10:00:00,METAR ZBTJ 231000Z 14005MPS CAVOK 12/M07 Q1020 NOSIG,1,0.0,0,9999,0,0,0,
2026-03-23 09:30:00,METAR ZBTJ 230930Z 14005MPS CAVOK 13/M07 Q1020 NOSIG,1,0.0,0,9999,0,0,0,
2026-03-23 09:00:00,METAR ZBTJ 230900Z 14005MPS 120V180 CAVOK 14/M07 Q1020 NOSIG,1,0.0,0,9999,0,0,0,
2026-03-23 08:30:00,METAR ZBTJ 230830Z 15004MPS 120V180 CAVOK 15/M05 Q1021 NOSIG,1,0.0,0,9999,0,0,0,
2026-03-23 08:00:00,METAR ZBTJ 230800Z 15006MPS 130V190 CAVOK 15/M06 Q1021 NOSIG,1,0.0,0,9999,0,0,0,
2026-03-23 07:30:00,METAR ZBTJ 230730Z 16006MPS 120V180 CAVOK 15/M06 Q1021 NOSIG,1,0.0,0,9999,0,0,0,
2026-03-23 07:00:00,METAR ZBTJ 230700Z 15005MPS 100V190 CAVOK 16/M06 Q1021 NOSIG,1,0.0,0,9999,0,0,0,
2026-03-23 06:30:00,METAR ZBTJ 230630Z 14006MPS 120V180 9000 NSC 16/M05 Q1022 NOSIG,0,6.0,0,9000,0,0,0,
2026-03-23 06:00:00,METAR ZBTJ 230600Z 12005MPS 9000 NSC 16/M06 Q1022 NOSIG,0,5.0,0,9000,0,0,0,
2026-03-23 05:30:00,METAR ZBTJ 230530Z 13006MPS 100V160 9000 NSC 16/M06 Q1023 NOSIG,0,6.0,0,9000,0,0,0,
2026-03-23 05:00:00,METAR ZBTJ 230500Z 15005MPS 8000 NSC 16/M06 Q1024 NOSIG,0,5.0,0,8000,0,0,0,
2026-03-23 04:30:00,METAR ZBTJ 230430Z 13005MPS 100V160 7000 NSC 15/M06 Q1024 NOSIG,0,5.0,0,7000,0,0,0,
2026-03-23 04:00:00,METAR ZBTJ 230400Z 15005MPS 120V180 7000 NSC 15/M06 Q1025 NOSIG,0,5.0,0,7000,0,0,0,
2026-03-23 03:30:00,METAR ZBTJ 230330Z 16005MPS 110V190 5000 HZ NSC 15/M03 Q1025 NOSIG,0,5.0,0,5000,0,0,0,
2026-03-23 03:00:00,METAR ZBTJ 230300Z 15004MPS 4500 HZ NSC 14/M01 Q1025 NOSIG,0,4.0,0,4500,0,0,0,
2026-03-23 02:30:00,METAR ZBTJ 230230Z 11003MPS 080V140 3000 HZ NSC 13/03 Q1026 NOSIG,0,3.0,0,3000,0,0,0,
2026-03-23 02:00:00,METAR ZBTJ 230200Z 09002MPS 070V130 2800 HZ NSC 11/05 Q1026 BECMG TL0330 3000,0,2.0,0,2800,0,0,0,
2026-03-23 01:30:00,METAR ZBTJ 230130Z 09002MPS 060V190 2500 BR NSC 10/06 Q1026 NOSIG,0,2.0,0,2500,0,0,1,BR
2026-03-23 01:00:00,METAR ZBTJ 230100Z 03002MPS 290V070 2000 BR NSC 09/07 Q1026 BECMG TL0230 3000,0,2.0,0,2000,0,0,1,BR
2026-03-23 00:30:00,METAR ZBTJ 230030Z 06002MPS 360V090 1500 BR NSC 09/07 Q1026 NOSIG,0,2.0,0,1500,0,0,1,BR
2026-03-23 00:00:00,METAR ZBTJ 230000Z VRB03MPS 1500 BR NSC 08/07 Q1025 BECMG TL0130 3000,0,3.0,0,1500,0,0,1,BR
2026-03-22 23:30:00,METAR ZBTJ 222330Z 07002MPS 1200 R16L/1500N R16R/1600N BR SCT004 07/07 Q1025 NOSIG,0,2.0,0,1200,0,0,1,BR
2026-03-22 23:00:00,METAR ZBTJ 222300Z VRB01MPS 1000 R16L/1700N R16R/1700N BR SCT004 06/06 Q1025 BECMG TL0030 1600,0,1.0,0,1000,0,0,1,BR
2026-03-22 22:30:00,METAR ZBTJ 222230Z 10001MPS 1100 R16L/1800N R16R/P2000D BR BKN004 06/06 Q1025 NOSIG,0,1.0,0,1100,0,0,1,BR
2026-03-22 22:00:00,METAR ZBTJ 222200Z 13001MPS 1100 R16L/P2000N R16R/P2000N BR BKN004 06/06 Q1024 BECMG TL2330 1800 SCT005,0,1.0,0,1100,0,0,1,BR
2026-03-22 21:30:00,METAR ZBTJ 222130Z 12002MPS 1300 R16L/P2000N R16R/P2000N BR BKN004 07/07 Q1024 NOSIG,0,2.0,0,1300,0,0,1,BR
2026-03-22 21:00:00,METAR ZBTJ 222100Z 13002MPS 1300 R16L/P2000N R16R/P2000N BR BKN004 07/07 Q1024 BECMG TL2230 1800 SCT005,0,2.0,0,1300,0,0,1,BR
2026-03-22 20:30:00,METAR ZBTJ 222030Z 11003MPS 1300 R16L/P2000N R16R/P2000N BR SCT004 08/07 Q1024 NOSIG,0,3.0,0,1300,0,0,1,BR
2026-03-22 20:00:00,METAR ZBTJ 222000Z 11003MPS 1500 BR NSC 07/07 Q1024 NOSIG,0,3.0,0,1500,0,0,1,BR
2026-03-22 19:30:00,METAR ZBTJ 221930Z 11002MPS 1500 BR NSC 08/06 Q1024 NOSIG,0,2.0,0,1500,0,0,1,BR
2026-03-22 19:00:00,METAR ZBTJ 221900Z 11003MPS 2000 BR NSC 08/07 Q1023 NOSIG,0,3.0,0,2000,0,0,1,BR
2026-03-22 18:30:00,METAR ZBTJ 221830Z 10003MPS 2000 BR NSC 09/07 Q1024 NOSIG,0,3.0,0,2000,0,0,1,BR
2026-03-22 18:00:00,METAR ZBTJ 221800Z 12003MPS 1800 BR NSC 08/06 Q1024 NOSIG,0,3.0,0,1800,0,0,1,BR
2026-03-22 17:30:00,METAR ZBTJ 221730Z 10004MPS 1800 BR NSC 09/07 Q1023 NOSIG,0,4.0,0,1800,0,0,1,BR
2026-03-22 17:00:00,METAR ZBTJ 221700Z 11003MPS 1800 BR NSC 09/07 Q1023 NOSIG,0,3.0,0,1800,0,0,1,BR
2026-03-22 16:30:00,METAR ZBTJ 221630Z 10003MPS 1800 BR NSC 10/07 Q1023 NOSIG,0,3.0,0,1800,0,0,1,BR
2026-03-22 16:00:00,METAR ZBTJ 221600Z 10004MPS 2200 BR NSC 10/07 Q1023 NOSIG,0,4.0,0,2200,0,0,1,BR
2026-03-22 15:30:00,METAR ZBTJ 221530Z 09004MPS 2500 BR NSC 11/07 Q1022 NOSIG,0,4.0,0,2500,0,0,1,BR
2026-03-22 15:00:00,METAR ZBTJ 221500Z 11003MPS 3600 HZ NSC 11/06 Q1022 NOSIG,0,3.0,0,3600,0,0,0,
2026-03-22 14:30:00,METAR ZBTJ 221430Z 11003MPS 3600 HZ NSC 12/06 Q1022 NOSIG,0,3.0,0,3600,0,0,0,
2026-03-22 14:00:00,METAR ZBTJ 221400Z 12004MPS 4000 HZ NSC 13/06 Q1021 NOSIG,0,4.0,0,4000,0,0,0,
2026-03-22 13:30:00,METAR ZBTJ 221330Z 12005MPS 3500 HZ NSC 13/06 Q1020 NOSIG,0,5.0,0,3500,0,0,0,
2026-03-22 13:00:00,METAR ZBTJ 221300Z 11002MPS 090V150 3500 HZ NSC 13/07 Q1020 NOSIG,0,2.0,0,3500,0,0,0,
2026-03-22 12:30:00,METAR ZBTJ 221230Z 15003MPS 3500 HZ NSC 12/07 Q1019 NOSIG,0,3.0,0,3500,0,0,0,
2026-03-22 12:00:00,METAR ZBTJ 221200Z 14002MPS 3500 HZ NSC 13/07 Q1019 NOSIG,0,2.0,0,3500,0,0,0,
2026-03-22 11:30:00,METAR ZBTJ 221130Z 17003MPS 3500 HZ NSC 13/07 Q1018 NOSIG,0,3.0,0,3500,0,0,0,
2026-03-22 11:00:00,METAR ZBTJ 221100Z 14002MPS 110V180 4000 HZ NSC 14/07 Q1018 NOSIG,0,2.0,0,4000,0,0,0,
2026-03-22 10:30:00,METAR ZBTJ 221030Z 15004MPS 5000 HZ NSC 15/08 Q1018 NOSIG,0,4.0,0,5000,0,0,0,
2026-03-22 10:00:00,METAR ZBTJ 221000Z 16004MPS 5000 HZ NSC 16/08 Q1017 NOSIG,0,4.0,0,5000,0,0,0,
2026-03-22 09:30:00,METAR ZBTJ 220930Z 15005MPS CAVOK 19/06 Q1016 NOSIG,1,0.0,0,9999,0,0,0,
2026-03-22 09:00:00,METAR ZBTJ 220900Z 08003MPS 020V100 CAVOK 20/M05 Q1016 BECMG TL1030 14005MPS,1,0.0,0,9999,0,0,0,
2026-03-22 08:30:00,METAR ZBTJ 220830Z 06004MPS CAVOK 21/M04 Q1016 NOSIG,1,0.0,0,9999,0,0,0,
2026-03-22 08:00:00,METAR ZBTJ 220800Z 36003MPS 340V050 CAVOK 21/M05 Q1015 BECMG TL0930 12005MPS,1,0.0,0,9999,0,0,0,
2026-03-22 07:30:00,METAR ZBTJ 220730Z 03003MPS 340V070 CAVOK 21/M04 Q1015 NOSIG,1,0.0,0,9999,0,0,0,
2026-03-22 07:00:00,METAR ZBTJ 220700Z 36004MPS CAVOK 21/M04 Q1015 BECMG TL0840 12005MPS,1,0.0,0,9999,0,0,0,
2026-03-22 06:30:00,METAR ZBTJ 220630Z 01003MPS 310V040 CAVOK 21/M03 Q1015 NOSIG,1,0.0,0,9999,0,0,0,
2026-03-22 06:00:00,METAR ZBTJ 220600Z 35004MPS 310V040 CAVOK 21/M02 Q1015 NOSIG,1,0.0,0,9999,0,0,0,
2026-03-22 05:30:00,METAR ZBTJ 220530Z 01005MPS 300V030 CAVOK 20/M01 Q1015 NOSIG,1,0.0,0,9999,0,0,0,
2026-03-22 05:00:00,METAR ZBTJ 220500Z 32003MPS 270V350 9000 NSC 20/01 Q1015 NOSIG,0,3.0,0,9000,0,0,0,
2026-03-22 04:30:00,METAR ZBTJ 220430Z 33003MPS 270V010 8000 NSC 19/03 Q1015 NOSIG,0,3.0,0,8000,0,0,0,
2026-03-22 04:00:00,METAR ZBTJ 220400Z 33005MPS 9000 NSC 19/03 Q1015 NOSIG,0,5.0,0,9000,0,0,0,
2026-03-22 03:30:00,METAR ZBTJ 220330Z 33003MPS 300V010 9000 NSC 18/04 Q1015 NOSIG,0,3.0,0,9000,0,0,0,
2026-03-22 03:00:00,METAR ZBTJ 220300Z 25002MPS 200V340 7000 NSC 17/07 Q1015 BECMG TL0430 33006MPS,0,2.0,0,7000,0,0,0,
2026-03-22 02:30:00,METAR ZBTJ 220230Z 24002MPS 200V300 6000 NSC 16/08 Q1015 NOSIG,0,2.0,0,6000,0,0,0,
2026-03-22 02:00:00,METAR ZBTJ 220200Z 23003MPS 190V270 4500 HZ NSC 15/08 Q1015 BECMG TL0330 30005MPS,0,3.0,0,4500,0,0,0,
2026-03-22 01:30:00,METAR ZBTJ 220130Z 22002MPS 190V280 3500 HZ NSC 14/09 Q1015 NOSIG,0,2.0,0,3500,0,0,0,
2026-03-22 01:00:00,METAR ZBTJ 220100Z 22002MPS 180V260 3500 HZ NSC 13/09 Q1015 NOSIG,0,2.0,0,3500,0,0,0,
2026-03-22 00:30:00,METAR ZBTJ 220030Z 21003MPS 180V240 3000 BR NSC 12/08 Q1014 NOSIG,0,3.0,0,3000,0,0,1,BR
2026-03-22 00:00:00,METAR ZBTJ 220000Z 23002MPS 200V260 2500 BR NSC 11/08 Q1014 BECMG TL0100 3000,0,2.0,0,2500,0,0,1,BR
2026-03-21 23:30:00,METAR ZBTJ 212330Z VRB01MPS 2000 BR NSC 11/08 Q1014 NOSIG,0,1.0,0,2000,0,0,1,BR
2026-03-21 23:00:00,METAR ZBTJ 212300Z 24001MPS 2000 BR NSC 10/08 Q1014 BECMG TL0030 3000,0,1.0,0,2000,0,0,1,BR
2026-03-21 22:30:00,METAR ZBTJ 212230Z 26002MPS 2000 BR NSC 10/08 Q1014 NOSIG,0,2.0,0,2000,0,0,1,BR
2026-03-21 22:00:00,METAR ZBTJ 212200Z 26002MPS 2000 BR NSC 10/08 Q1013 NOSIG,0,2.0,0,2000,0,0,1,BR
2026-03-21 21:30:00,METAR ZBTJ 212130Z 25003MPS 2000 BR NSC 11/08 Q1013 NOSIG,0,3.0,0,2000,0,0,1,BR
2026-03-21 21:00:00,METAR ZBTJ 212100Z 23001MPS 2000 BR NSC 10/09 Q1013 NOSIG,0,1.0,0,2000,0,0,1,BR
2026-03-21 20:30:00,METAR ZBTJ 212030Z 14002MPS 2500 BR NSC 10/08 Q1012 NOSIG,0,2.0,0,2500,0,0,1,BR
2026-03-21 20:00:00,METAR ZBTJ 212000Z VRB01MPS 3000 -SHRA BR FEW033CB 11/08 Q1012 NOSIG,0,1.0,0,3000,0,0,1,"BR,RA"
2026-03-21 19:30:00,METAR ZBTJ 211930Z 29003MPS 2500 -SHRA HZ FEW033CB 12/07 Q1012 NOSIG,0,3.0,0,2500,0,0,0,RA
2026-03-21 19:00:00,METAR ZBTJ 211900Z 28003MPS 250V310 4000 HZ NSC 14/06 Q1012 NOSIG,0,3.0,0,4000,0,0,0,
2026-03-21 18:30:00,METAR ZBTJ 211830Z 22003MPS 4000 HZ NSC 14/06 Q1013 NOSIG,0,3.0,0,4000,0,0,0,
2026-03-21 18:00:00,METAR ZBTJ 211800Z 24003MPS 4000 HZ NSC 14/06 Q1013 NOSIG,0,3.0,0,4000,0,0,0,
2026-03-21 17:30:00,METAR ZBTJ 211730Z 24003MPS 4500 HZ NSC 14/06 Q1013 NOSIG,0,3.0,0,4500,0,0,0,
2026-03-21 17:00:00,METAR ZBTJ 211700Z 22003MPS 180V240 4500 HZ NSC 15/06 Q1013 NOSIG,0,3.0,0,4500,0,0,0,
2026-03-21 16:30:00,METAR ZBTJ 211630Z 23002MPS 180V270 4500 HZ NSC 15/05 Q1013 NOSIG,0,2.0,0,4500,0,0,0,
2026-03-21 16:00:00,METAR ZBTJ 211600Z 24003MPS 200V260 4500 HZ NSC 15/06 Q1013 NOSIG,0,3.0,0,4500,0,0,0,
2026-03-21 15:30:00,METAR ZBTJ 211530Z 24002MPS 210V270 4500 HZ NSC 15/05 Q1013 NOSIG,0,2.0,0,4500,0,0,0,
2026-03-21 15:00:00,METAR ZBTJ 211500Z 21003MPS 180V250 4500 HZ NSC 15/05 Q1014 NOSIG,0,3.0,0,4500,0,0,0,
2026-03-21 14:30:00,METAR ZBTJ 211430Z 21003MPS 180V250 4500 HZ NSC 16/06 Q1014 NOSIG,0,3.0,0,4500,0,0,0,
2026-03-21 14:00:00,METAR ZBTJ 211400Z 22004MPS 190V250 5000 HZ NSC 16/05 Q1014 NOSIG,0,4.0,0,5000,0,0,0,
2026-03-21 13:30:00,METAR ZBTJ 211330Z 22005MPS 190V250 5000 HZ NSC 16/06 Q1014 NOSIG,0,5.0,0,5000,0,0,0,
2026-03-21 13:00:00,METAR ZBTJ 211300Z 20004MPS 5000 HZ NSC 16/05 Q1013 NOSIG,0,4.0,0,5000,0,0,0,
2026-03-21 12:30:00,METAR ZBTJ 211230Z 19004MPS 5000 HZ NSC 16/05 Q1013 NOSIG,0,4.0,0,5000,0,0,0,
2026-03-21 12:00:00,METAR ZBTJ 211200Z 19004MPS 5000 HZ NSC 16/05 Q1013 NOSIG,0,4.0,0,5000,0,0,0,
2026-03-21 11:30:00,METAR ZBTJ 211130Z 20003MPS 5000 HZ NSC 17/05 Q1013 NOSIG,0,3.0,0,5000,0,0,0,
2026-03-21 11:00:00,METAR ZBTJ 211100Z 18003MPS 6000 NSC 17/05 Q1013 NOSIG,0,3.0,0,6000,0,0,0,
2026-03-21 10:30:00,METAR ZBTJ 211030Z 21002MPS 6000 NSC 17/05 Q1013 NOSIG,0,2.0,0,6000,0,0,0,
2026-03-21 10:00:00,METAR ZBTJ 211000Z 21003MPS 170V250 6000 NSC 18/05 Q1013 NOSIG,0,3.0,0,6000,0,0,0,
2026-03-21 09:30:00,METAR ZBTJ 210930Z 23003MPS 200V260 5000 HZ NSC 18/05 Q1013 NOSIG,0,3.0,0,5000,0,0,0,
2026-03-21 09:00:00,METAR ZBTJ 210900Z 23004MPS 190V260 5000 HZ NSC 18/05 Q1013 NOSIG,0,4.0,0,5000,0,0,0,
2026-03-21 08:30:00,METAR ZBTJ 210830Z 22003MPS 190V250 5000 HZ NSC 18/05 Q1012 NOSIG,0,3.0,0,5000,0,0,0,
2026-03-21 08:00:00,METAR ZBTJ 210800Z 24004MPS 200V280 5000 HZ NSC 18/06 Q1013 NOSIG,0,4.0,0,5000,0,0,0,
2026-03-21 07:30:00,METAR ZBTJ 210730Z 22005MPS 5000 HZ NSC 19/06 Q1013 NOSIG,0,5.0,0,5000,0,0,0,
2026-03-21 07:00:00,METAR ZBTJ 210700Z 23005MPS 200V270 4000 HZ NSC 19/06 Q1014 NOSIG,0,5.0,0,4000,0,0,0,
2026-03-21 06:30:00,METAR ZBTJ 210630Z 23005MPS 180V270 4000 HZ NSC 18/06 Q1014 NOSIG,0,5.0,0,4000,0,0,0,
2026-03-21 06:00:00,METAR ZBTJ 210600Z 23005MPS 160V280 3600 HZ NSC 18/06 Q1015 NOSIG,0,5.0,0,3600,0,0,0,
2026-03-21 05:30:00,METAR ZBTJ 210530Z 23004MPS 210V270 3600 HZ NSC 17/06 Q1015 NOSIG,0,4.0,0,3600,0,0,0,
2026-03-21 05:00:00,METAR ZBTJ 210500Z 23004MPS 190V270 3600 HZ NSC 16/06 Q1016 NOSIG,0,4.0,0,3600,0,0,0,
2026-03-21 04:30:00,METAR ZBTJ 210430Z 24005MPS 210V270 4000 HZ NSC 15/06 Q1017 NOSIG,0,5.0,0,4000,0,0,0,
2026-03-21 04:00:00,METAR ZBTJ 210400Z 25004MPS 220V280 4000 HZ NSC 15/06 Q1017 NOSIG,0,4.0,0,4000,0,0,0,
2026-03-21 03:30:00,METAR ZBTJ 210330Z 20003MPS 160V280 4500 HZ NSC 13/05 Q1018 NOSIG,0,3.0,0,4500,0,0,0,
2026-03-21 03:00:00,METAR ZBTJ 210300Z VRB01MPS 5000 HZ NSC 12/04 Q1018 BECMG TL0430 24005MPS,0,1.0,0,5000,0,0,0,
2026-03-21 02:30:00,METAR ZBTJ 210230Z VRB01MPS 6000 NSC 10/03 Q1019 NOSIG,0,1.0,0,6000,0,0,0,
2026-03-21 02:00:00,METAR ZBTJ 210200Z VRB01MPS 7000 NSC 09/02 Q1019 BECMG TL0330 24005MPS,0,1.0,0,7000,0,0,0,
2026-03-21 01:30:00,METAR ZBTJ 210130Z VRB01MPS 8000 NSC 07/01 Q1019 NOSIG,0,1.0,0,8000,0,0,0,
2026-03-21 01:00:00,METAR ZBTJ 210100Z 06002MPS 360V120 8000 NSC 06/01 Q1020 BECMG TL0250 24005MPS,0,2.0,0,8000,0,0,0,
2026-03-21 00:30:00,METAR ZBTJ 210030Z 08002MPS 050V110 8000 NSC 05/00 Q1020 NOSIG,0,2.0,0,8000,0,0,0,
2026-03-21 00:00:00,METAR ZBTJ 210000Z VRB01MPS 8000 NSC 04/M00 Q1020 NOSIG,0,1.0,0,8000,0,0,0,
2026-03-20 23:30:00,METAR ZBTJ 202330Z VRB01MPS 8000 NSC 04/M01 Q1020 NOSIG,0,1.0,0,8000,0,0,0,
2026-03-20 23:00:00,METAR ZBTJ 202300Z 05001MPS 8000 NSC 03/M01 Q1019 NOSIG,0,1.0,0,8000,0,0,0,
2026-03-20 22:30:00,METAR ZBTJ 202230Z 04001MPS 8000 NSC 03/M01 Q1020 NOSIG,0,1.0,0,8000,0,0,0,
2026-03-20 22:00:00,METAR ZBTJ 202200Z VRB01MPS CAVOK 02/M01 Q1020 NOSIG,1,0.0,0,9999,0,0,0,
2026-03-20 21:30:00,METAR ZBTJ 202130Z 04002MPS CAVOK 03/M01 Q1020 NOSIG,1,0.0,0,9999,0,0,0,
2026-03-20 21:00:00,METAR ZBTJ 202100Z 03001MPS CAVOK 03/M01 Q1020 NOSIG,1,0.0,0,9999,0,0,0,
2026-03-20 20:30:00,METAR ZBTJ 202030Z 35002MPS CAVOK 02/M02 Q1020 NOSIG,1,0.0,0,9999,0,0,0,
2026-03-20 20:00:00,METAR ZBTJ 202000Z 35002MPS CAVOK 03/M03 Q1020 NOSIG,1,0.0,0,9999,0,0,0,
2026-03-20 19:30:00,METAR ZBTJ 201930Z 00000MPS CAVOK 03/M02 Q1020 NOSIG,1,0.0,0,9999,0,0,0,
2026-03-20 19:00:00,METAR ZBTJ 201900Z 04001MPS CAVOK 03/M02 Q1020 NOSIG,1,0.0,0,9999,0,0,0,
2026-03-20 18:30:00,METAR ZBTJ 201830Z 06002MPS CAVOK 03/M02 Q1020 NOSIG,1,0.0,0,9999,0,0,0,
2026-03-20 18:00:00,METAR ZBTJ 201800Z 06001MPS CAVOK 03/M02 Q1021 NOSIG,1,0.0,0,9999,0,0,0,
2026-03-20 17:30:00,METAR ZBTJ 201730Z VRB01MPS CAVOK 03/M03 Q1021 NOSIG,1,0.0,0,9999,0,0,0,
2026-03-20 17:00:00,METAR ZBTJ 201700Z 15002MPS CAVOK 03/M02 Q1021 NOSIG,1,0.0,0,9999,0,0,0,
2026-03-20 16:30:00,METAR ZBTJ 201630Z 15003MPS CAVOK 03/M03 Q1022 NOSIG,1,0.0,0,9999,0,0,0,
2026-03-20 16:00:00,METAR ZBTJ 201600Z 14002MPS CAVOK 03/M05 Q1022 NOSIG,1,0.0,0,9999,0,0,0,
2026-03-20 15:30:00,METAR ZBTJ 201530Z 13002MPS CAVOK 04/M06 Q1022 NOSIG,1,0.0,0,9999,0,0,0,
2026-03-20 15:00:00,METAR ZBTJ 201500Z 13003MPS CAVOK 04/M06 Q1022 NOSIG,1,0.0,0,9999,0,0,0,
2026-03-20 14:30:00,METAR ZBTJ 201430Z 12002MPS CAVOK 05/M08 Q1022 NOSIG,1,0.0,0,9999,0,0,0,
2026-03-20 14:00:00,METAR ZBTJ 201400Z 13002MPS CAVOK 05/M09 Q1023 NOSIG,1,0.0,0,9999,0,0,0,
2026-03-20 13:30:00,METAR ZBTJ 201330Z 11002MPS CAVOK 05/M09 Q1023 NOSIG,1,0.0,0,9999,0,0,0,
2026-03-20 13:00:00,METAR ZBTJ 201300Z 12002MPS CAVOK 05/M09 Q1022 NOSIG,1,0.0,0,9999,0,0,0,
2026-03-20 12:30:00,METAR ZBTJ 201230Z 11002MPS CAVOK 05/M10 Q1022 NOSIG,1,0.0,0,9999,0,0,0,
2026-03-20 12:00:00,METAR ZBTJ 201200Z 10003MPS CAVOK 05/M10 Q1022 NOSIG,1,0.0,0,9999,0,0,0,
2026-03-20 11:30:00,METAR ZBTJ 201130Z 11003MPS CAVOK 06/M11 Q1022 NOSIG,1,0.0,0,9999,0,0,0,
2026-03-20 11:00:00,METAR ZBTJ 201100Z 11004MPS CAVOK 06/M12 Q1022 NOSIG,1,0.0,0,9999,0,0,0,
2026-03-20 10:30:00,METAR ZBTJ 201030Z 12005MPS CAVOK 07/M12 Q1022 NOSIG,1,0.0,0,9999,0,0,0,
2026-03-20 10:00:00,METAR ZBTJ 201000Z 13006MPS CAVOK 07/M12 Q1021 NOSIG,1,0.0,0,9999,0,0,0,
2026-03-20 09:30:00,METAR ZBTJ 200930Z 12007MPS CAVOK 08/M12 Q1021 NOSIG,1,0.0,0,9999,0,0,0,
2026-03-20 09:00:00,METAR ZBTJ 200900Z 12006MPS CAVOK 09/M12 Q1021 NOSIG,1,0.0,0,9999,0,0,0,
2026-03-20 08:30:00,METAR ZBTJ 200830Z 11008MPS CAVOK 09/M12 Q1022 NOSIG,1,0.0,0,9999,0,0,0,
2026-03-20 08:00:00,METAR ZBTJ 200800Z 11007MPS CAVOK 10/M10 Q1022 NOSIG,1,0.0,0,9999,0,0,0,
2026-03-20 07:30:00,METAR ZBTJ 200730Z 11008MPS CAVOK 10/M09 Q1022 NOSIG,1,0.0,0,9999,0,0,0,
2026-03-20 07:00:00,METAR ZBTJ 200700Z 11008MPS CAVOK 10/M09 Q1022 NOSIG,1,0.0,0,9999,0,0,0,
2026-03-20 06:30:00,METAR ZBTJ 200630Z 13007MPS 110V170 CAVOK 10/M09 Q1022 NOSIG,1,0.0,0,9999,0,0,0,
2026-03-20 06:00:00,METAR ZBTJ 200600Z 12008MPS CAVOK 11/M10 Q1022 NOSIG,1,0.0,0,9999,0,0,0,
2026-03-20 05:30:00,METAR ZBTJ 200530Z 11008MPS CAVOK 11/M11 Q1023 NOSIG,1,0.0,0,9999,0,0,0,
2026-03-20 05:00:00,METAR ZBTJ 200500Z 12009MPS CAVOK 11/M12 Q1023 NOSIG,1,0.0,0,9999,0,0,0,
2026-03-20 04:30:00,METAR ZBTJ 200430Z 11009MPS CAVOK 11/M10 Q1023 NOSIG,1,0.0,0,9999,0,0,0,
2026-03-20 04:00:00,METAR ZBTJ 200400Z 12010MPS CAVOK 11/M10 Q1023 NOSIG,1,0.0,0,9999,0,0,0,
2026-03-20 03:30:00,METAR ZBTJ 200330Z 12009MPS CAVOK 11/M11 Q1023 NOSIG,1,0.0,0,9999,0,0,0,
2026-03-20 03:00:00,METAR ZBTJ 200300Z 13011MPS CAVOK 11/M11 Q1023 NOSIG,1,0.0,0,9999,0,0,0,
2026-03-20 02:30:00,METAR ZBTJ 200230Z 12009MPS CAVOK 12/M11 Q1023 NOSIG,1,0.0,0,9999,0,0,0,
2026-03-20 02:00:00,METAR ZBTJ 200200Z 12009MPS CAVOK 11/M10 Q1023 NOSIG,1,0.0,0,9999,0,0,0,
2026-03-20 01:30:00,METAR ZBTJ 200130Z 12009MPS CAVOK 10/M09 Q1023 NOSIG,1,0.0,0,9999,0,0,0,
2026-03-20 01:00:00,METAR ZBTJ 200100Z 12008MPS CAVOK 10/M09 Q1022 NOSIG,1,0.0,0,9999,0,0,0,
2026-03-20 00:30:00,METAR ZBTJ 200030Z 11008MPS CAVOK 09/M08 Q1022 NOSIG,1,0.0,0,9999,0,0,0,
2026-03-20 00:00:00,METAR ZBTJ 200000Z 11007MPS CAVOK 08/M08 Q1022 NOSIG,1,0.0,0,9999,0,0,0,
2026-03-19 23:30:00,METAR ZBTJ 192330Z 12005MPS CAVOK 07/M04 Q1021 NOSIG,1,0.0,0,9999,0,0,0,
2026-03-19 23:00:00,METAR ZBTJ 192300Z 11004MPS 6000 NSC 06/02 Q1021 NOSIG,0,4.0,0,6000,0,0,0,
2026-03-19 22:30:00,METAR ZBTJ 192230Z 08002MPS 6000 NSC 04/00 Q1020 NOSIG,0,2.0,0,6000,0,0,0,
2026-03-19 22:00:00,METAR ZBTJ 192200Z 14002MPS 110V190 6000 NSC 03/M00 Q1020 BECMG TL2330 11007MPS,0,2.0,0,6000,0,0,0,
2026-03-19 21:30:00,METAR ZBTJ 192130Z 09002MPS 060V130 6000 NSC 04/M00 Q1019 NOSIG,0,2.0,0,6000,0,0,0,
2026-03-19 21:00:00,METAR ZBTJ 192100Z 12001MPS 7000 NSC 05/00 Q1019 BECMG TL2230 11006MPS,0,1.0,0,7000,0,0,0,
2026-03-19 20:30:00,METAR ZBTJ 192030Z 16001MPS 7000 NSC 03/M01 Q1018 NOSIG,0,1.0,0,7000,0,0,0,
2026-03-19 20:00:00,METAR ZBTJ 192000Z VRB01MPS 8000 NSC 05/M00 Q1018 BECMG TL2130 09005MPS,0,1.0,0,8000,0,0,0,
2026-03-19 19:30:00,METAR ZBTJ 191930Z 26002MPS 220V290 8000 NSC 09/01 Q1018 NOSIG,0,2.0,0,8000,0,0,0,
2026-03-19 19:00:00,METAR ZBTJ 191900Z VRB01MPS CAVOK 09/00 Q1018 NOSIG,1,0.0,0,9999,0,0,0,
2026-03-19 18:30:00,METAR ZBTJ 191830Z 25003MPS 220V280 CAVOK 10/00 Q1018 NOSIG,1,0.0,0,9999,0,0,0,
2026-03-19 18:00:00,METAR ZBTJ 191800Z VRB01MPS CAVOK 08/M01 Q1018 NOSIG,1,0.0,0,9999,0,0,0,
2026-03-19 17:30:00,METAR ZBTJ 191730Z 29002MPS CAVOK 10/M01 Q1018 NOSIG,1,0.0,0,9999,0,0,0,
2026-03-19 17:00:00,METAR ZBTJ 191700Z 23001MPS CAVOK 10/M02 Q1017 NOSIG,1,0.0,0,9999,0,0,0,
2026-03-19 16:30:00,METAR ZBTJ 191630Z 25002MPS 220V300 CAVOK 10/M02 Q1017 NOSIG,1,0.0,0,9999,0,0,0,
2026-03-19 16:00:00,METAR ZBTJ 191600Z 24003MPS 200V280 CAVOK 11/M02 Q1017 NOSIG,1,0.0,0,9999,0,0,0,
2026-03-19 15:30:00,METAR ZBTJ 191530Z 24003MPS 210V270 CAVOK 11/M03 Q1017 NOSIG,1,0.0,0,9999,0,0,0,
2026-03-19 14:30:00,METAR ZBTJ 191430Z 23005MPS 200V260 CAVOK 12/M03 Q1016 NOSIG,1,0.0,0,9999,0,0,0,
2026-03-19 14:00:00,METAR ZBTJ 191400Z 23005G10MPS 200V260 CAVOK 12/M03 Q1016 NOSIG,1,0.0,0,9999,0,0,0,
2026-03-19 13:30:00,METAR ZBTJ 191330Z 23005MPS CAVOK 13/M03 Q1016 NOSIG,1,0.0,0,9999,0,0,0,
2026-03-19 13:00:00,METAR ZBTJ 191300Z 22003MPS CAVOK 12/M03 Q1016 NOSIG,1,0.0,0,9999,0,0,0,
2026-03-19 12:30:00,METAR ZBTJ 191230Z 21003MPS 190V260 CAVOK 13/M04 Q1016 NOSIG,1,0.0,0,9999,0,0,0,
2026-03-19 12:00:00,METAR ZBTJ 191200Z 23003MPS CAVOK 13/M04 Q1015 NOSIG,1,0.0,0,9999,0,0,0,
2026-03-19 11:30:00,METAR ZBTJ 191130Z 21003MPS CAVOK 14/M05 Q1015 NOSIG,1,0.0,0,9999,0,0,0,
2026-03-19 11:00:00,METAR ZBTJ 191100Z 22002MPS CAVOK 14/M07 Q1015 NOSIG,1,0.0,0,9999,0,0,0,
2026-03-19 10:30:00,METAR ZBTJ 191030Z 24003MPS CAVOK 15/M07 Q1014 NOSIG,1,0.0,0,9999,0,0,0,
2026-03-19 10:00:00,METAR ZBTJ 191000Z 23004MPS CAVOK 15/M07 Q1014 NOSIG,1,0.0,0,9999,0,0,0,
2026-03-19 09:30:00,METAR ZBTJ 190930Z 24005MPS 200V260 CAVOK 15/M09 Q1014 NOSIG,1,0.0,0,9999,0,0,0,
2026-03-19 09:00:00,METAR ZBTJ 190900Z 25004MPS CAVOK 15/M09 Q1014 NOSIG,1,0.0,0,9999,0,0,0,
2026-03-19 08:30:00,METAR ZBTJ 190830Z 23005MPS 190V270 CAVOK 16/M09 Q1014 NOSIG,1,0.0,0,9999,0,0,0,
2026-03-19 08:00:00,METAR ZBTJ 190800Z 27005MPS 230V300 CAVOK 15/M09 Q1014 NOSIG,1,0.0,0,9999,0,0,0,
2026-03-19 07:30:00,METAR ZBTJ 190730Z 24005MPS CAVOK 16/M09 Q1015 NOSIG,1,0.0,0,9999,0,0,0,
2026-03-19 07:00:00,METAR ZBTJ 190700Z 24005MPS 190V270 CAVOK 16/M08 Q1015 NOSIG,1,0.0,0,9999,0,0,0,
2026-03-19 06:30:00,METAR ZBTJ 190630Z 24005MPS 190V280 CAVOK 15/M06 Q1015 NOSIG,1,0.0,0,9999,0,0,0,
2026-03-19 06:00:00,METAR ZBTJ 190600Z 23005MPS 190V270 CAVOK 15/M07 Q1015 NOSIG,1,0.0,0,9999,0,0,0,
2026-03-19 05:30:00,METAR ZBTJ 190530Z 21005MPS 180V270 CAVOK 15/M05 Q1016 NOSIG,1,0.0,0,9999,0,0,0,
2026-03-19 05:00:00,METAR ZBTJ 190500Z 22004MPS 190V250 CAVOK 14/M04 Q1017 NOSIG,1,0.0,0,9999,0,0,0,
2026-03-19 04:30:00,METAR ZBTJ 190430Z 22004MPS 180V250 CAVOK 12/M03 Q1017 NOSIG,1,0.0,0,9999,0,0,0,
2026-03-19 04:00:00,METAR ZBTJ 190400Z 22005MPS 190V250 CAVOK 12/M02 Q1018 NOSIG,1,0.0,0,9999,0,0,0,
2026-03-19 03:30:00,METAR ZBTJ 190330Z 23004MPS 200V260 CAVOK 11/M01 Q1018 NOSIG,1,0.0,0,9999,0,0,0,
2026-03-19 03:00:00,METAR ZBTJ 190300Z 25004MPS 200V280 CAVOK 11/M02 Q1019 NOSIG,1,0.0,0,9999,0,0,0,
2026-03-19 02:30:00,METAR ZBTJ 190230Z 24004MPS 210V270 CAVOK 10/M02 Q1019 NOSIG,1,0.0,0,9999,0,0,0,
2026-03-19 02:00:00,METAR ZBTJ 190200Z 24004MPS 190V260 CAVOK 09/M02 Q1019 NOSIG,1,0.0,0,9999,0,0,0,
2026-03-19 01:30:00,METAR ZBTJ 190130Z 24004MPS 210V270 CAVOK 08/M01 Q1020 NOSIG,1,0.0,0,9999,0,0,0,
2026-03-19 01:00:00,METAR ZBTJ 190100Z 24005MPS CAVOK 07/M01 Q1020 NOSIG,1,0.0,0,9999,0,0,0,
2026-03-19 00:30:00,METAR ZBTJ 190030Z 25005MPS CAVOK 06/M01 Q1020 NOSIG,1,0.0,0,9999,0,0,0,
2026-03-19 00:00:00,METAR ZBTJ 190000Z 24005MPS 210V270 CAVOK 05/M01 Q1019 NOSIG,1,0.0,0,9999,0,0,0,
2026-03-18 23:30:00,METAR ZBTJ 182330Z 24005MPS CAVOK 05/M01 Q1019 NOSIG,1,0.0,0,9999,0,0,0,
2026-03-18 23:00:00,METAR ZBTJ 182300Z 23005MPS CAVOK 04/M01 Q1019 NOSIG,1,0.0,0,9999,0,0,0,
2026-03-18 22:30:00,METAR ZBTJ 182230Z 23004MPS CAVOK 04/M02 Q1019 NOSIG,1,0.0,0,9999,0,0,0,
2026-03-18 22:00:00,METAR ZBTJ 182200Z 24003MPS CAVOK 04/M02 Q1019 NOSIG,1,0.0,0,9999,0,0,0,
2026-03-18 21:30:00,METAR ZBTJ 182130Z 24003MPS CAVOK 04/M02 Q1019 NOSIG,1,0.0,0,9999,0,0,0,
2026-03-18 21:00:00,METAR ZBTJ 182100Z 24003MPS 220V280 CAVOK 04/M03 Q1019 NOSIG,1,0.0,0,9999,0,0,0,
2026-03-18 20:30:00,METAR ZBTJ 182030Z 24003MPS CAVOK 05/M03 Q1019 NOSIG,1,0.0,0,9999,0,0,0,
2026-03-18 20:00:00,METAR ZBTJ 182000Z 23004MPS CAVOK 05/M02 Q1019 NOSIG,1,0.0,0,9999,0,0,0,
2026-03-18 19:30:00,METAR ZBTJ 181930Z 24003MPS CAVOK 05/M02 Q1019 NOSIG,1,0.0,0,9999,0,0,0,
2026-03-18 19:00:00,METAR ZBTJ 181900Z 24004MPS CAVOK 05/M02 Q1020 NOSIG,1,0.0,0,9999,0,0,0,
2026-03-18 18:30:00,METAR ZBTJ 181830Z 24006MPS CAVOK 05/M02 Q1020 NOSIG,1,0.0,0,9999,0,0,0,
2026-03-18 18:00:00,METAR ZBTJ 181800Z 25006MPS CAVOK 06/M02 Q1020 NOSIG,1,0.0,0,9999,0,0,0,
2026-03-18 17:30:00,METAR ZBTJ 181730Z 24006G11MPS CAVOK 06/M03 Q1021 NOSIG,1,0.0,0,9999,0,0,0,
2026-03-18 17:00:00,METAR ZBTJ 181700Z 24006MPS 180V290 CAVOK 06/M02 Q1021 NOSIG,1,0.0,0,9999,0,0,0,
2026-03-18 16:30:00,METAR ZBTJ 181630Z 24005MPS CAVOK 06/M03 Q1021 NOSIG,1,0.0,0,9999,0,0,0,
2026-03-18 16:00:00,METAR ZBTJ 181600Z 24004MPS CAVOK 06/M04 Q1021 NOSIG,1,0.0,0,9999,0,0,0,
2026-03-18 15:30:00,METAR ZBTJ 181530Z 23004MPS 200V260 CAVOK 07/M07 Q1021 NOSIG,1,0.0,0,9999,0,0,0,
2026-03-18 15:00:00,METAR ZBTJ 181500Z 23004MPS 200V260 CAVOK 07/M13 Q1021 NOSIG,1,0.0,0,9999,0,0,0,
2026-03-18 14:30:00,METAR ZBTJ 181430Z 23003MPS CAVOK 08/M15 Q1021 NOSIG,1,0.0,0,9999,0,0,0,
2026-03-18 14:00:00,METAR ZBTJ 181400Z 23004MPS CAVOK 08/M15 Q1021 NOSIG,1,0.0,0,9999,0,0,0,
2026-03-18 13:30:00,METAR ZBTJ 181330Z 25004MPS 220V280 CAVOK 08/M15 Q1021 NOSIG,1,0.0,0,9999,0,0,0,
2026-03-18 13:00:00,METAR ZBTJ 181300Z 24005MPS CAVOK 09/M17 Q1021 NOSIG,1,0.0,0,9999,0,0,0,
2026-03-18 12:30:00,METAR ZBTJ 181230Z 24004MPS CAVOK 09/M16 Q1021 NOSIG,1,0.0,0,9999,0,0,0,
2026-03-18 12:00:00,METAR ZBTJ 181200Z 24003MPS 220V280 CAVOK 09/M15 Q1020 NOSIG,1,0.0,0,9999,0,0,0,
2026-03-18 11:30:00,METAR ZBTJ 181130Z 25002MPS CAVOK 09/M16 Q1020 NOSIG,1,0.0,0,9999,0,0,0,
2026-03-18 11:00:00,METAR ZBTJ 181100Z 25004MPS 220V280 CAVOK 10/M17 Q1020 NOSIG,1,0.0,0,9999,0,0,0,
2026-03-18 10:30:00,METAR ZBTJ 181030Z 26005MPS 220V290 CAVOK 10/M18 Q1020 NOSIG,1,0.0,0,9999,0,0,0,
2026-03-18 10:00:00,METAR ZBTJ 181000Z 26003MPS 230V290 CAVOK 10/M20 Q1020 NOSIG,1,0.0,0,9999,0,0,0,
2026-03-18 09:30:00,METAR ZBTJ 180930Z 28004MPS CAVOK 11/M20 Q1020 NOSIG,1,0.0,0,9999,0,0,0,
2026-03-18 09:00:00,METAR ZBTJ 180900Z 28004MPS CAVOK 11/M20 Q1020 NOSIG,1,0.0,0,9999,0,0,0,
2026-03-18 08:30:00,METAR ZBTJ 180830Z 28006MPS 240V310 CAVOK 11/M21 Q1020 NOSIG,1,0.0,0,9999,0,0,0,
2026-03-18 08:00:00,METAR ZBTJ 180800Z 30006MPS 260V330 CAVOK 11/M21 Q1020 NOSIG,1,0.0,0,9999,0,0,0,
2026-03-18 07:30:00,METAR ZBTJ 180730Z 25004MPS 200V300 CAVOK 11/M22 Q1021 NOSIG,1,0.0,0,9999,0,0,0,
2026-03-18 07:00:00,METAR ZBTJ 180700Z 32003MPS 280V010 CAVOK 10/M20 Q1021 NOSIG,1,0.0,0,9999,0,0,0,
2026-03-18 06:30:00,METAR ZBTJ 180630Z 34003MPS 290V030 CAVOK 11/M18 Q1022 NOSIG,1,0.0,0,9999,0,0,0,
2026-03-18 06:00:00,METAR ZBTJ 180600Z 30004MPS 250V020 CAVOK 10/M19 Q1022 NOSIG,1,0.0,0,9999,0,0,0,
2026-03-18 05:30:00,METAR ZBTJ 180530Z 34005MPS 270V030 CAVOK 10/M19 Q1023 NOSIG,1,0.0,0,9999,0,0,0,
2026-03-18 05:00:00,METAR ZBTJ 180500Z 32004G09MPS 260V020 CAVOK 10/M17 Q1023 NOSIG,1,0.0,0,9999,0,0,0,
2026-03-18 04:30:00,METAR ZBTJ 180430Z 34004MPS 310V020 CAVOK 10/M18 Q1024 NOSIG,1,0.0,0,9999,0,0,0,
2026-03-18 04:00:00,METAR ZBTJ 180400Z 34004MPS 300V030 CAVOK 09/M16 Q1024 NOSIG,1,0.0,0,9999,0,0,0,
2026-03-18 03:30:00,METAR ZBTJ 180330Z 35005MPS 310V030 CAVOK 09/M14 Q1024 NOSIG,1,0.0,0,9999,0,0,0,
2026-03-18 03:00:00,METAR ZBTJ 180300Z 35004MPS 9999 FEW033 08/M12 Q1025 NOSIG,0,4.0,0,10000,0,0,0,
2026-03-18 02:30:00,METAR ZBTJ 180230Z 34004MPS 310V010 9999 FEW033 09/M09 Q1025 NOSIG,0,4.0,0,10000,0,0,0,
2026-03-18 02:00:00,METAR ZBTJ 180200Z 01005MPS 9999 FEW033 08/M08 Q1025 NOSIG,0,5.0,0,10000,0,0,0,
2026-03-18 01:30:00,METAR ZBTJ 180130Z 01005MPS 9999 FEW026 07/M06 Q1024 NOSIG,0,5.0,0,10000,0,0,0,
2026-03-18 01:00:00,METAR ZBTJ 180100Z 01005MPS 340V040 9999 SCT026 07/M07 Q1024 NOSIG,0,5.0,0,10000,0,0,0,
2026-03-18 00:30:00,METAR ZBTJ 180030Z 36005MPS 9999 SCT023 05/M08 Q1024 NOSIG,0,5.0,0,10000,0,0,0,
2026-03-18 00:00:00,METAR ZBTJ 180000Z 36004MPS 9999 SCT013 BKN033 05/M05 Q1024 NOSIG,0,4.0,0,10000,0,0,0,
2026-03-17 23:30:00,METAR ZBTJ 172330Z 35003MPS 9999 FEW013 BKN033 05/02 Q1023 NOSIG,0,3.0,0,10000,0,0,0,
2026-03-17 23:00:00,METAR ZBTJ 172300Z 36003MPS 9999 SCT013 BKN033 05/02 Q1022 NOSIG,0,3.0,0,10000,0,0,0,
2026-03-17 22:30:00,METAR ZBTJ 172230Z 36003MPS 9999 BKN033 05/02 Q1022 NOSIG,0,3.0,0,10000,0,0,0,
2026-03-17 22:00:00,METAR ZBTJ 172200Z 02004MPS CAVOK 05/02 Q1021 NOSIG,1,0.0,0,9999,0,0,0,
2026-03-17 21:30:00,METAR ZBTJ 172130Z 03004MPS CAVOK 05/02 Q1021 NOSIG,1,0.0,0,9999,0,0,0,
2026-03-17 21:00:00,METAR ZBTJ 172100Z 04006MPS CAVOK 06/02 Q1020 NOSIG,1,0.0,0,9999,0,0,0,
2026-03-17 20:30:00,METAR ZBTJ 172030Z 04006MPS CAVOK 06/03 Q1020 NOSIG,1,0.0,0,9999,0,0,0,
2026-03-17 20:00:00,METAR ZBTJ 172000Z 03006MPS CAVOK 07/04 Q1019 NOSIG,1,0.0,0,9999,0,0,0,
2026-03-17 19:30:00,METAR ZBTJ 171930Z 02006MPS 8000 NSC 07/04 Q1019 NOSIG,0,6.0,0,8000,0,0,0,
2026-03-17 19:00:00,METAR ZBTJ 171900Z 36006MPS CAVOK 08/04 Q1018 NOSIG,1,0.0,0,9999,0,0,0,
2026-03-17 18:30:00,METAR ZBTJ 171830Z 35007MPS 6000 -SHRA SCT011 07/04 Q1018 NOSIG,0,7.0,0,6000,0,0,0,RA
2026-03-17 18:00:00,METAR ZBTJ 171800Z 34009MPS 2500 -SHRA BR SCT011 BKN043 FEW043CB 07/06 Q1018 RESHRA BECMG TL1930 3000,0,9.0,0,2500,0,0,1,"BR,RA"
2026-03-17 17:30:00,METAR ZBTJ 171730Z 34009G14MPS 2000 SHRA BR FEW009 BKN043 FEW043CB 08/07 Q1017 NOSIG,0,9.0,1,2000,0,0,1,"BR,RA,SH"
2026-03-17 17:23:00,SPECI ZBTJ 171723Z 33009MPS 2200 SHRA BR BKN043 FEW043CB 09/07 Q1017 NOSIG,0,9.0,0,2200,0,0,1,"BR,RA,SH"
2026-03-17 17:00:00,METAR ZBTJ 171700Z 18002MPS 2500 BR BKN043 09/05 Q1016 BECMG TL1830 34008MPS 3000,0,2.0,0,2500,0,0,1,BR
2026-03-17 16:30:00,METAR ZBTJ 171630Z 00000MPS 2500 BR BKN043 09/05 Q1016 NOSIG,0,0.0,0,2500,0,0,1,BR
2026-03-17 16:00:00,METAR ZBTJ 171600Z 17002MPS 2500 BR BKN043 09/05 Q1016 BECMG TL1730 34005MPS 3000,0,2.0,0,2500,0,0,1,BR
2026-03-17 15:30:00,METAR ZBTJ 171530Z 16002MPS 2500 BR NSC 08/05 Q1016 NOSIG,0,2.0,0,2500,0,0,1,BR
2026-03-17 15:00:00,METAR ZBTJ 171500Z 15002MPS 2700 BR NSC 09/04 Q1016 BECMG TL1630 34005MPS 3000,0,2.0,0,2700,0,0,1,BR
2026-03-17 14:30:00,METAR ZBTJ 171430Z 17002MPS 2800 HZ NSC 10/05 Q1016 NOSIG,0,2.0,0,2800,0,0,0,
2026-03-17 14:00:00,METAR ZBTJ 171400Z 17003MPS 2800 HZ NSC 09/04 Q1016 BECMG TL1530 34005MPS 3000,0,3.0,0,2800,0,0,0,
2026-03-17 13:30:00,METAR ZBTJ 171330Z 16005MPS 2700 HZ BKN033 10/05 Q1016 NOSIG,0,5.0,0,2700,0,0,0,
2026-03-17 13:00:00,METAR ZBTJ 171300Z 16005MPS 2700 HZ BKN033 10/05 Q1016 NOSIG,0,5.0,0,2700,0,0,0,
2026-03-17 12:30:00,METAR ZBTJ 171230Z 16005MPS 2800 HZ BKN033 10/04 Q1016 NOSIG,0,5.0,0,2800,0,0,0,
2026-03-17 12:00:00,METAR ZBTJ 171200Z 16004MPS 2800 HZ BKN033 10/05 Q1016 NOSIG,0,4.0,0,2800,0,0,0,
2026-03-17 11:30:00,METAR ZBTJ 171130Z 17003MPS 2800 HZ BKN033 11/04 Q1016 NOSIG,0,3.0,0,2800,0,0,0,
2026-03-17 11:00:00,METAR ZBTJ 171100Z 15003MPS 2800 HZ OVC033 11/04 Q1016 NOSIG,0,3.0,0,2800,0,0,0,
2026-03-17 10:30:00,METAR ZBTJ 171030Z 14005MPS 2500 HZ OVC033 11/04 Q1015 NOSIG,0,5.0,0,2500,0,0,0,
2026-03-17 10:00:00,METAR ZBTJ 171000Z 15004MPS 2500 HZ OVC033 12/05 Q1015 NOSIG,0,4.0,0,2500,0,0,0,
2026-03-17 09:30:00,METAR ZBTJ 170930Z 16004MPS 2500 HZ OVC033 12/05 Q1016 NOSIG,0,4.0,0,2500,0,0,0,
2026-03-17 09:00:00,METAR ZBTJ 170900Z 14005MPS 3000 HZ OVC033 13/05 Q1016 BECMG TL1000 2500,0,5.0,0,3000,0,0,0,
2026-03-17 08:30:00,METAR ZBTJ 170830Z 19003MPS 160V220 4000 HZ OVC033 14/04 Q1016 NOSIG,0,3.0,0,4000,0,0,0,
2026-03-17 08:00:00,METAR ZBTJ 170800Z 20003MPS 4000 HZ BKN026 14/04 Q1016 NOSIG,0,3.0,0,4000,0,0,0,
2026-03-17 07:30:00,METAR ZBTJ 170730Z 21003MPS 160V260 4000 HZ BKN026 15/04 Q1016 NOSIG,0,3.0,0,4000,0,0,0,
2026-03-17 07:00:00,METAR ZBTJ 170700Z 22004MPS 180V240 4000 HZ BKN026 14/04 Q1017 NOSIG,0,4.0,0,4000,0,0,0,
2026-03-17 06:30:00,METAR ZBTJ 170630Z 23003MPS 4000 HZ BKN026 15/04 Q1017 NOSIG,0,3.0,0,4000,0,0,0,
2026-03-17 06:00:00,METAR ZBTJ 170600Z 23002MPS 170V280 4000 HZ BKN026 14/04 Q1017 NOSIG,0,2.0,0,4000,0,0,0,
2026-03-17 05:30:00,METAR ZBTJ 170530Z 19003MPS 140V270 4000 HZ FEW030 15/04 Q1017 NOSIG,0,3.0,0,4000,0,0,0,
2026-03-17 05:00:00,METAR ZBTJ 170500Z 22003MPS 150V290 4000 HZ FEW030 14/03 Q1018 NOSIG,0,3.0,0,4000,0,0,0,
2026-03-17 04:30:00,METAR ZBTJ 170430Z 22003MPS 180V280 3800 HZ NSC 14/04 Q1018 NOSIG,0,3.0,0,3800,0,0,0,
2026-03-17 04:00:00,METAR ZBTJ 170400Z 20003MPS 160V290 3500 HZ NSC 14/04 Q1018 NOSIG,0,3.0,0,3500,0,0,0,
2026-03-17 03:30:00,METAR ZBTJ 170330Z 19002MPS 100V230 3000 HZ NSC 13/05 Q1019 NOSIG,0,2.0,0,3000,0,0,0,
2026-03-17 03:00:00,METAR ZBTJ 170300Z 22003MPS 180V250 2800 HZ NSC 12/05 Q1019 BECMG TL0430 3000,0,3.0,0,2800,0,0,0,
2026-03-17 02:30:00,METAR ZBTJ 170230Z 20004MPS 160V240 2800 HZ NSC 12/05 Q1019 NOSIG,0,4.0,0,2800,0,0,0,
2026-03-17 02:00:00,METAR ZBTJ 170200Z 20003MPS 2800 HZ NSC 11/04 Q1019 BECMG TL0300 3000,0,3.0,0,2800,0,0,0,
2026-03-17 01:30:00,METAR ZBTJ 170130Z 21003MPS 180V250 2500 HZ NSC 10/04 Q1020 NOSIG,0,3.0,0,2500,0,0,0,
2026-03-17 01:00:00,METAR ZBTJ 170100Z 19002MPS 150V210 2500 HZ NSC 09/04 Q1020 BECMG TL0230 3000,0,2.0,0,2500,0,0,0,
2026-03-17 00:30:00,METAR ZBTJ 170030Z 19002MPS 150V230 2500 HZ NSC 08/04 Q1020 NOSIG,0,2.0,0,2500,0,0,0,
2026-03-17 00:00:00,METAR ZBTJ 170000Z VRB01MPS 2000 BR NSC 06/04 Q1020 BECMG TL0130 3000,0,1.0,0,2000,0,0,1,BR
2026-03-16 23:30:00,METAR ZBTJ 162330Z VRB01MPS 1600 BR NSC 04/03 Q1020 NOSIG,0,1.0,0,1600,0,0,1,BR
2026-03-16 23:00:00,METAR ZBTJ 162300Z 15001MPS 1300 R16L/1300N R16R/1700N BR NSC 03/02 Q1020 BECMG TL0030 1500,0,1.0,0,1300,0,0,1,BR
2026-03-16 22:30:00,METAR ZBTJ 162230Z VRB01MPS 1300 R16L/1800N R16R/P2000U BR NSC 03/02 Q1020 NOSIG,0,1.0,0,1300,0,0,1,BR
2026-03-16 22:00:00,METAR ZBTJ 162200Z 18001MPS 1100 R16L/P2000D R16R/P2000N BR NSC 03/02 Q1020 BECMG TL2330 1500,0,1.0,0,1100,0,0,1,BR
2026-03-16 21:30:00,METAR ZBTJ 162130Z 15001MPS 1300 R16L/P2000D R16R/P2000N BR NSC 03/02 Q1020 NOSIG,0,1.0,0,1300,0,0,1,BR
2026-03-16 21:00:00,METAR ZBTJ 162100Z 16001MPS 1300 R16L/P2000D R16R/P2000N BR NSC 04/03 Q1020 BECMG TL2230 1500,0,1.0,0,1300,0,0,1,BR
2026-03-16 20:30:00,METAR ZBTJ 162030Z 18001MPS 1600 BR NSC 04/03 Q1020 NOSIG,0,1.0,0,1600,0,0,1,BR
2026-03-16 20:00:00,METAR ZBTJ 162000Z 19001MPS 1600 BR NSC 04/03 Q1020 BECMG TL2130 1300,0,1.0,0,1600,0,0,1,BR
2026-03-16 19:30:00,METAR ZBTJ 161930Z 15001MPS 1800 BR NSC 04/03 Q1020 NOSIG,0,1.0,0,1800,0,0,1,BR
2026-03-16 19:00:00,METAR ZBTJ 161900Z 17002MPS 1800 BR NSC 04/03 Q1020 NOSIG,0,2.0,0,1800,0,0,1,BR
2026-03-16 18:30:00,METAR ZBTJ 161830Z 17003MPS 2000 BR NSC 05/03 Q1021 NOSIG,0,3.0,0,2000,0,0,1,BR
2026-03-16 18:00:00,METAR ZBTJ 161800Z 15002MPS 2500 BR NSC 04/03 Q1021 NOSIG,0,2.0,0,2500,0,0,1,BR
2026-03-16 17:30:00,METAR ZBTJ 161730Z 15002MPS 2500 BR NSC 04/02 Q1021 NOSIG,0,2.0,0,2500,0,0,1,BR
2026-03-16 17:00:00,METAR ZBTJ 161700Z 16004MPS 3000 BR NSC 05/02 Q1022 BECMG TL1830 2800,0,4.0,0,3000,0,0,1,BR
2026-03-16 16:30:00,METAR ZBTJ 161630Z 17004MPS 3800 BR NSC 05/02 Q1022 NOSIG,0,4.0,0,3800,0,0,1,BR
2026-03-16 16:00:00,METAR ZBTJ 161600Z 14002MPS 110V170 3800 BR NSC 04/01 Q1022 BECMG TL1730 2800,0,2.0,0,3800,0,0,1,BR
2026-03-16 15:30:00,METAR ZBTJ 161530Z 16003MPS 4000 BR NSC 04/01 Q1022 NOSIG,0,3.0,0,4000,0,0,1,BR
2026-03-16 15:00:00,METAR ZBTJ 161500Z 16003MPS 4500 BR NSC 04/01 Q1022 NOSIG,0,3.0,0,4500,0,0,1,BR
2026-03-16 14:30:00,METAR ZBTJ 161430Z 15003MPS 5000 BR NSC 04/00 Q1022 NOSIG,0,3.0,0,5000,0,0,1,BR
2026-03-16 14:00:00,METAR ZBTJ 161400Z 17003MPS 5000 BR NSC 05/01 Q1022 NOSIG,0,3.0,0,5000,0,0,1,BR
2026-03-16 13:30:00,METAR ZBTJ 161330Z 17002MPS 6000 NSC 05/01 Q1022 NOSIG,0,2.0,0,6000,0,0,0,
2026-03-16 13:00:00,METAR ZBTJ 161300Z 14002MPS 100V180 6000 NSC 05/00 Q1022 NOSIG,0,2.0,0,6000,0,0,0,
2026-03-16 12:30:00,METAR ZBTJ 161230Z 17002MPS 6000 NSC 05/01 Q1022 NOSIG,0,2.0,0,6000,0,0,0,
2026-03-16 12:00:00,METAR ZBTJ 161200Z 12002MPS 8000 NSC 05/M01 Q1021 NOSIG,0,2.0,0,8000,0,0,0,
2026-03-16 11:30:00,METAR ZBTJ 161130Z 13003MPS 8000 NSC 06/M02 Q1021 NOSIG,0,3.0,0,8000,0,0,0,
2026-03-16 11:00:00,METAR ZBTJ 161100Z 13003MPS CAVOK 07/M02 Q1021 NOSIG,1,0.0,0,9999,0,0,0,
2026-03-16 10:30:00,METAR ZBTJ 161030Z 15004MPS CAVOK 07/M03 Q1021 NOSIG,1,0.0,0,9999,0,0,0,
2026-03-16 10:00:00,METAR ZBTJ 161000Z 14004MPS CAVOK 09/M03 Q1021 NOSIG,1,0.0,0,9999,0,0,0,
2026-03-16 09:30:00,METAR ZBTJ 160930Z 14005MPS CAVOK 10/M02 Q1020 NOSIG,1,0.0,0,9999,0,0,0,
2026-03-16 09:00:00,METAR ZBTJ 160900Z 13005MPS CAVOK 11/M02 Q1021 NOSIG,1,0.0,0,9999,0,0,0,
2026-03-16 08:30:00,METAR ZBTJ 160830Z 16005MPS CAVOK 12/M03 Q1021 NOSIG,1,0.0,0,9999,0,0,0,
2026-03-16 08:00:00,METAR ZBTJ 160800Z 17004MPS CAVOK 12/M04 Q1021 BECMG TL0930 10006MPS,1,0.0,0,9999,0,0,0,
2026-03-16 07:30:00,METAR ZBTJ 160730Z 14005MPS CAVOK 12/M04 Q1021 NOSIG,1,0.0,0,9999,0,0,0,
2026-03-16 07:00:00,METAR ZBTJ 160700Z 14005MPS 110V180 CAVOK 12/M04 Q1022 NOSIG,1,0.0,0,9999,0,0,0,
2026-03-16 06:30:00,METAR ZBTJ 160630Z 17005MPS 140V210 CAVOK 12/M05 Q1022 NOSIG,1,0.0,0,9999,0,0,0,
2026-03-16 06:00:00,METAR ZBTJ 160600Z 16004MPS 130V200 CAVOK 13/M02 Q1023 NOSIG,1,0.0,0,9999,0,0,0,
2026-03-16 05:30:00,METAR ZBTJ 160530Z 15004MPS 120V180 8000 NSC 12/M03 Q1023 NOSIG,0,4.0,0,8000,0,0,0,
2026-03-16 05:00:00,METAR ZBTJ 160500Z 11005MPS 080V170 6000 NSC 12/M01 Q1024 NOSIG,0,5.0,0,6000,0,0,0,
2026-03-16 04:30:00,METAR ZBTJ 160430Z 12004MPS 7000 NSC 11/M02 Q1024 NOSIG,0,4.0,0,7000,0,0,0,
2026-03-16 04:00:00,METAR ZBTJ 160400Z 11004MPS 060V160 8000 NSC 12/M01 Q1025 NOSIG,0,4.0,0,8000,0,0,0,
2026-03-16 03:30:00,METAR ZBTJ 160330Z 11004MPS 070V150 CAVOK 11/M02 Q1025 NOSIG,1,0.0,0,9999,0,0,0,
2026-03-16 03:00:00,METAR ZBTJ 160300Z 15003MPS 080V190 CAVOK 11/M04 Q1026 NOSIG,1,0.0,0,9999,0,0,0,
2026-03-16 02:30:00,METAR ZBTJ 160230Z 13005MPS CAVOK 10/M04 Q1026 NOSIG,1,0.0,0,9999,0,0,0,
2026-03-16 02:00:00,METAR ZBTJ 160200Z 10005MPS CAVOK 10/M03 Q1027 NOSIG,1,0.0,0,9999,0,0,0,
2026-03-16 01:30:00,METAR ZBTJ 160130Z 11005MPS CAVOK 10/M03 Q1027 NOSIG,1,0.0,0,9999,0,0,0,
2026-03-16 01:00:00,METAR ZBTJ 160100Z 10004MPS CAVOK 10/M03 Q1027 NOSIG,1,0.0,0,9999,0,0,0,
2026-03-16 00:30:00,METAR ZBTJ 160030Z 08005MPS CAVOK 08/M02 Q1027 NOSIG,1,0.0,0,9999,0,0,0,
2026-03-16 00:00:00,METAR ZBTJ 160000Z 00000MPS CAVOK 07/M02 Q1026 BECMG TL0130 10006MPS,1,0.0,0,9999,0,0,0,
2026-03-15 23:30:00,METAR ZBTJ 152330Z 14001MPS CAVOK 05/M01 Q1026 NOSIG,1,0.0,0,9999,0,0,0,
2026-03-15 23:00:00,METAR ZBTJ 152300Z 14001MPS CAVOK 04/M02 Q1026 NOSIG,1,0.0,0,9999,0,0,0,
2026-03-15 22:30:00,METAR ZBTJ 152230Z 12001MPS CAVOK 03/M02 Q1025 NOSIG,1,0.0,0,9999,0,0,0,
2026-03-15 22:00:00,METAR ZBTJ 152200Z 14002MPS CAVOK 03/M03 Q1025 NOSIG,1,0.0,0,9999,0,0,0,
2026-03-15 21:30:00,METAR ZBTJ 152130Z 16002MPS CAVOK 03/M03 Q1025 NOSIG,1,0.0,0,9999,0,0,0,
2026-03-15 21:00:00,METAR ZBTJ 152100Z 16001MPS CAVOK 03/M03 Q1025 NOSIG,1,0.0,0,9999,0,0,0,
2026-03-15 20:30:00,METAR ZBTJ 152030Z 15001MPS CAVOK 03/M02 Q1025 NOSIG,1,0.0,0,9999,0,0,0,
2026-03-15 20:00:00,METAR ZBTJ 152000Z VRB01MPS CAVOK 03/M02 Q1026 NOSIG,1,0.0,0,9999,0,0,0,
2026-03-15 19:30:00,METAR ZBTJ 151930Z VRB01MPS CAVOK 04/M02 Q1026 NOSIG,1,0.0,0,9999,0,0,0,
2026-03-15 19:00:00,METAR ZBTJ 151900Z 16001MPS CAVOK 04/M03 Q1026 NOSIG,1,0.0,0,9999,0,0,0,
2026-03-15 18:30:00,METAR ZBTJ 151830Z 15002MPS CAVOK 05/M03 Q1026 NOSIG,1,0.0,0,9999,0,0,0,
2026-03-15 18:00:00,METAR ZBTJ 151800Z VRB01MPS CAVOK 05/M03 Q1026 NOSIG,1,0.0,0,9999,0,0,0,
2026-03-15 17:30:00,METAR ZBTJ 151730Z 22001MPS CAVOK 08/M04 Q1026 NOSIG,1,0.0,0,9999,0,0,0,
2026-03-15 17:00:00,METAR ZBTJ 151700Z VRB01MPS CAVOK 08/M04 Q1026 NOSIG,1,0.0,0,9999,0,0,0,
2026-03-15 16:30:00,METAR ZBTJ 151630Z 23002MPS CAVOK 09/M04 Q1027 NOSIG,1,0.0,0,9999,0,0,0,
2026-03-15 16:00:00,METAR ZBTJ 151600Z 22002MPS CAVOK 08/M04 Q1027 NOSIG,1,0.0,0,9999,0,0,0,
2026-03-15 15:30:00,METAR ZBTJ 151530Z 21002MPS CAVOK 09/M04 Q1027 NOSIG,1,0.0,0,9999,0,0,0,
2026-03-15 15:00:00,METAR ZBTJ 151500Z 23002MPS CAVOK 09/M05 Q1027 NOSIG,1,0.0,0,9999,0,0,0,
2026-03-15 14:30:00,METAR ZBTJ 151430Z 24002MPS CAVOK 09/M05 Q1027 NOSIG,1,0.0,0,9999,0,0,0,
2026-03-15 14:00:00,METAR ZBTJ 151400Z 24002MPS CAVOK 09/M05 Q1027 NOSIG,1,0.0,0,9999,0,0,0,
2026-03-15 13:30:00,METAR ZBTJ 151330Z 24002MPS CAVOK 10/M04 Q1027 NOSIG,1,0.0,0,9999,0,0,0,
2026-03-15 13:00:00,METAR ZBTJ 151300Z 23004MPS CAVOK 10/M05 Q1027 NOSIG,1,0.0,0,9999,0,0,0,
2026-03-15 12:30:00,METAR ZBTJ 151230Z 24003MPS CAVOK 11/M05 Q1027 NOSIG,1,0.0,0,9999,0,0,0,
2026-03-15 12:00:00,METAR ZBTJ 151200Z 20002MPS CAVOK 10/M04 Q1026 NOSIG,1,0.0,0,9999,0,0,0,
2026-03-15 11:30:00,METAR ZBTJ 151130Z 21003MPS CAVOK 11/M04 Q1026 NOSIG,1,0.0,0,9999,0,0,0,
2026-03-15 11:00:00,METAR ZBTJ 151100Z 21003MPS CAVOK 12/M04 Q1026 NOSIG,1,0.0,0,9999,0,0,0,
2026-03-15 10:30:00,METAR ZBTJ 151030Z 21003MPS CAVOK 12/M04 Q1026 NOSIG,1,0.0,0,9999,0,0,0,
2026-03-15 10:00:00,METAR ZBTJ 151000Z 23002MPS 200V260 CAVOK 12/M05 Q1026 NOSIG,1,0.0,0,9999,0,0,0,
2026-03-15 09:30:00,METAR ZBTJ 150930Z 26003MPS 210V290 CAVOK 13/M05 Q1026 NOSIG,1,0.0,0,9999,0,0,0,
2026-03-15 09:00:00,METAR ZBTJ 150900Z 25003MPS 220V280 CAVOK 13/M05 Q1026 NOSIG,1,0.0,0,9999,0,0,0,
2026-03-15 08:30:00,METAR ZBTJ 150830Z 24004MPS CAVOK 13/M05 Q1026 NOSIG,1,0.0,0,9999,0,0,0,
