Time_recorded,METAR,is_cavok,wind_speed,is_gust,visibility_meters,has_thunderstorm,has_heavy_rain,has_low_vis_fog,other_phenomenon
2026-05-02 14:56:00,METAR KBZN 021456Z 11003KT 10SM CLR 10/M02 A3014 RMK AO2 SLP195 T01001022 51006,0,3.0,0,16090.0,0,0,0,
2026-05-02 13:56:00,METAR KBZN 021356Z 13005KT 10SM CLR 06/M02 A3013 RMK AO2 SLP193 T00561017,0,5.0,0,16090.0,0,0,0,
2026-05-02 12:56:00,METAR KBZN 021256Z 12006KT 10SM CLR 01/M04 A3013 RMK AO2 SLP197 T00111039,0,6.0,0,16090.0,0,0,0,
2026-05-02 11:56:00,METAR KBZN 021156Z 14008KT 10SM CLR 02/M04 A3012 RMK AO2 SLP191 T00171044 10067 21006 53004,0,8.0,0,16090.0,0,0,0,
2026-05-02 10:56:00,METAR KBZN 021056Z AUTO 13007KT 10SM CLR M01/M04 A3011 RMK AO2 SLP193 T10061039,0,7.0,0,16090.0,0,0,0,
2026-05-02 09:56:00,METAR KBZN 020956Z AUTO 10005KT 10SM CLR 02/M04 A3011 RMK AO2 SLP188 T00171039,0,5.0,0,16090.0,0,0,0,
2026-05-02 08:56:00,METAR KBZN 020856Z AUTO 15010KT 10SM CLR 03/M04 A3011 RMK AO2 SLP187 T00281039 53005,0,10.0,0,16090.0,0,0,0,
2026-05-02 07:56:00,METAR KBZN 020756Z AUTO 06004KT 10SM CLR 02/M04 A3010 RMK AO2 SLP188 T00221044,0,4.0,0,16090.0,0,0,0,
2026-05-02 06:56:00,METAR KBZN 020656Z AUTO 13006KT 10SM CLR 03/M04 A3009 RMK AO2 SLP182 T00331044 401941033,0,6.0,0,16090.0,0,0,0,
2026-05-02 05:56:00,METAR KBZN 020556Z AUTO 13009KT 10SM CLR 04/M04 A3009 RMK AO2 SLP183 T00441039 10194 20039 51008,0,9.0,0,16090.0,0,0,0,
2026-05-02 04:56:00,METAR KBZN 020456Z 14008KT 10SM CLR 08/M03 A3008 RMK AO2 SLP179 T00831033,0,8.0,0,16090.0,0,0,0,
2026-05-02 03:56:00,METAR KBZN 020356Z 17009KT 10SM CLR 11/M02 A3008 RMK AO2 SLP179 T01061022,0,9.0,0,16090.0,0,0,0,
2026-05-02 02:56:00,METAR KBZN 020256Z 11006KT 10SM CLR 12/M04 A3006 RMK AO2 SLP174 T01221044 55005,0,6.0,0,16090.0,0,0,0,
2026-05-02 01:56:00,METAR KBZN 020156Z 10004KT 10SM CLR 16/M03 A3006 RMK AO2 SLP172 T01611033,0,4.0,0,16090.0,0,0,0,
2026-05-02 00:56:00,METAR KBZN 020056Z 08005KT 9SM CLR 19/M06 A3007 RMK AO2 SLP180 T01891056,0,5.0,0,14481.0,0,0,0,
2026-05-01 23:56:00,METAR KBZN 012356Z 07005KT 10SM CLR 19/M06 A3008 RMK AO2 SLP184 T01941056 10194 20139 56015,0,5.0,0,16090.0,0,0,0,
2026-05-01 22:56:00,METAR KBZN 012256Z VRB03KT 10SM CLR 19/M06 A3009 RMK AO2 SLP187 T01891061,0,3.0,0,16090.0,0,0,0,
2026-05-01 21:56:00,METAR KBZN 012156Z 01004KT 10SM CLR 18/M05 A3011 RMK AO2 SLP192 T01831050,0,4.0,0,16090.0,0,0,0,
2026-05-01 20:56:00,METAR KBZN 012056Z 00000KT 10SM CLR 18/M06 A3013 RMK AO2 SLP201 T01781056 56015,0,0.0,0,16090.0,0,0,0,
2026-05-01 19:56:00,METAR KBZN 011956Z VRB03KT 10SM CLR 17/M06 A3015 RMK AO2 SLP204 T01671056,0,3.0,0,16090.0,0,0,0,
2026-05-01 18:56:00,METAR KBZN 011856Z 00000KT 10SM CLR 16/M05 A3016 RMK AO2 SLP211 T01611050,0,0.0,0,16090.0,0,0,0,
2026-05-01 17:56:00,METAR KBZN 011756Z 00000KT 10SM CLR 14/M04 A3018 RMK AO2 SLP215 T01391044 10139 21033 58009,0,0.0,0,16090.0,0,0,0,
2026-05-01 16:56:00,METAR KBZN 011656Z 00000KT 10SM CLR 12/M02 A3020 RMK AO2 SLP227 T01171017,0,0.0,0,16090.0,0,0,0,
2026-05-01 15:56:00,METAR KBZN 011556Z 00000KT 10SM CLR 09/M02 A3021 RMK AO2 SLP232 T00941022,0,0.0,0,16090.0,0,0,0,
2026-05-01 14:56:00,METAR KBZN 011456Z 06004KT 10SM CLR 06/M02 A3021 RMK AO2 SLP230 T00611022 50005,0,4.0,0,16090.0,0,0,0,
2026-05-01 13:56:00,METAR KBZN 011356Z 11003KT 10SM CLR 03/M02 A3021 RMK AO2 SLP231 T00331022,0,3.0,0,16090.0,0,0,0,
2026-05-01 12:56:00,METAR KBZN 011256Z 13004KT 10SM CLR M01/M04 A3020 RMK AO2 SLP234 T10111044,0,4.0,0,16090.0,0,0,0,
2026-05-01 11:56:00,METAR KBZN 011156Z 12006KT 10SM CLR M03/M06 A3019 RMK AO2 SLP234 T10281056 10056 21028 51005,0,6.0,0,16090.0,0,0,0,
2026-05-01 11:25:00,SPECI KBZN 011125Z 13003KT 10SM CLR M01/M05 A3020 RMK AO2 T10111050,0,3.0,0,16090.0,0,0,0,
2026-05-01 10:56:00,METAR KBZN 011056Z AUTO 15004KT 10SM CLR M02/M04 A3019 RMK AO2 SLP231 T10171044,0,4.0,0,16090.0,0,0,0,
2026-05-01 09:56:00,METAR KBZN 010956Z AUTO 13005KT 10SM CLR 01/M04 A3018 RMK AO2 SLP225 T00061039,0,5.0,0,16090.0,0,0,0,
2026-05-01 08:56:00,METAR KBZN 010856Z AUTO 14005KT 10SM CLR 00/M04 A3018 RMK AO2 SLP227 T00001039 53001,0,5.0,0,16090.0,0,0,0,
2026-05-01 07:56:00,METAR KBZN 010756Z AUTO 15008KT 10SM CLR 02/M03 A3017 RMK AO2 SLP221 T00171033,0,8.0,0,16090.0,0,0,0,
2026-05-01 06:56:00,METAR KBZN 010656Z AUTO 14008KT 10SM CLR 02/M03 A3018 RMK AO2 SLP225 T00171028 401441022,0,8.0,0,16090.0,0,0,0,
2026-05-01 05:56:00,METAR KBZN 010556Z 17009KT 10SM CLR 05/M03 A3017 RMK AO2 SLP220 T00501028 10144 20028 51007,0,9.0,0,16090.0,0,0,0,
2026-05-01 04:56:00,METAR KBZN 010456Z 14010KT 10SM CLR 04/M02 A3017 RMK AO2 SLP223 T00391022,0,10.0,0,16090.0,0,0,0,
2026-05-01 03:56:00,METAR KBZN 010356Z 12007KT 10SM CLR 05/M02 A3017 RMK AO2 SLP223 T00501022,0,7.0,0,16090.0,0,0,0,
2026-05-01 02:56:00,METAR KBZN 010256Z 08004KT 10SM CLR 10/M06 A3015 RMK AO2 SLP211 T01001061 55001,0,4.0,0,16090.0,0,0,0,
2026-05-01 01:56:00,METAR KBZN 010156Z 00000KT 10SM CLR 13/M06 A3015 RMK AO2 SLP209 T01281056,0,0.0,0,16090.0,0,0,0,
2026-05-01 00:56:00,METAR KBZN 010056Z 00000KT 10SM CLR 14/M06 A3015 RMK AO2 SLP214 T01391061,0,0.0,0,16090.0,0,0,0,
2026-04-30 23:56:00,METAR KBZN 302356Z 26003KT 10SM SCT100 13/M05 A3015 RMK AO2 SLP218 T01331050 10144 20106 56011,0,3.0,0,16090.0,0,0,0,
2026-04-30 22:56:00,METAR KBZN 302256Z 00000KT 10SM FEW095 14/M06 A3017 RMK AO2 SLP221 T01391056,0,0.0,0,16090.0,0,0,0,
2026-04-30 21:56:00,METAR KBZN 302156Z 00000KT 10SM FEW090 14/M04 A3018 RMK AO2 SLP224 T01391044,0,0.0,0,16090.0,0,0,0,
2026-04-30 20:56:00,METAR KBZN 302056Z 00000KT 10SM FEW070 BKN085 12/M04 A3019 RMK AO2 SLP231 T01221044 56014,0,0.0,0,16090.0,0,0,0,
2026-04-30 20:45:00,SPECI KBZN 302045Z 01003KT 10SM BKN085 13/M04 A3019 RMK AO2 T01281044,0,3.0,0,16090.0,0,0,0,
2026-04-30 19:56:00,METAR KBZN 301956Z 27005KT 10SM FEW065 OVC085 12/M04 A3020 RMK AO2 SLP233 T01221039,0,5.0,0,16090.0,0,0,0,
2026-04-30 19:36:00,SPECI KBZN 301936Z 31011G19KT 10SM SCT065 BKN085 12/M04 A3020 RMK AO2 T01171039,0,11.0,1,16090.0,0,0,0,
2026-04-30 18:56:00,METAR KBZN 301856Z VRB04KT 10SM BKN085 12/M03 A3022 RMK AO2 SLP240 T01171033,0,4.0,0,16090.0,0,0,0,
2026-04-30 17:56:00,METAR KBZN 301756Z VRB03KT 10SM CLR 11/M01 A3024 RMK AO2 SLP246 T01061006 10106 21017 58010,0,3.0,0,16090.0,0,0,0,
2026-04-30 16:56:00,METAR KBZN 301656Z 03003KT 10SM BKN080 09/M01 A3025 RMK AO2 SLP251 T00891006,0,3.0,0,16090.0,0,0,0,
2026-04-30 15:56:00,METAR KBZN 301556Z 00000KT 10SM SCT085 07/M01 A3026 RMK AO2 SLP255 T00721011,0,0.0,0,16090.0,0,0,0,
2026-04-30 14:56:00,METAR KBZN 301456Z VRB03KT 10SM FEW090 06/M01 A3027 RMK AO2 SLP258 T00561011 51004,0,3.0,0,16090.0,0,0,0,
2026-04-30 13:56:00,METAR KBZN 301356Z 34003KT 10SM SCT090 03/M01 A3027 RMK AO2 SLP261 T00281006,0,3.0,0,16090.0,0,0,0,
2026-04-30 12:56:00,METAR KBZN 301256Z 15003KT 10SM BKN080 OVC090 M01/M02 A3026 RMK AO2 SLP262 T10061022,0,3.0,0,16090.0,0,0,0,
2026-04-30 11:56:00,METAR KBZN 301156Z 16004KT 10SM FEW100 M01/M03 A3026 RMK AO2 SLP259 T10111033 10028 21022 52003,0,4.0,0,16090.0,0,0,0,
2026-04-30 11:22:00,SPECI KBZN 301122Z 15006KT 10SM BKN095 M01/M03 A3026 RMK AO2 T10111028,0,6.0,0,16090.0,0,0,0,
2026-04-30 10:56:00,METAR KBZN 301056Z AUTO 15007KT 10SM BKN100 M01/M03 A3025 RMK AO2 SLP254 T10061028,0,7.0,0,16090.0,0,0,0,
2026-04-30 09:56:00,METAR KBZN 300956Z AUTO 15006KT 10SM BKN095 M01/M03 A3025 RMK AO2 SLP254 T10061028,0,6.0,0,16090.0,0,0,0,
2026-04-30 08:56:00,METAR KBZN 300856Z AUTO 10003KT 10SM BKN095 M01/M03 A3025 RMK AO2 SLP255 T10061028 50003,0,3.0,0,16090.0,0,0,0,
2026-04-30 07:56:00,METAR KBZN 300756Z AUTO 15003KT 10SM OVC100 01/M02 A3025 RMK AO2 SLP257 T00111017,0,3.0,0,16090.0,0,0,0,
2026-04-30 06:56:00,METAR KBZN 300656Z AUTO 13003KT 10SM FEW085 00/M02 A3025 RMK AO2 SLP253 T00001022 401281006,0,3.0,0,16090.0,0,0,0,
2026-04-30 05:56:00,METAR KBZN 300556Z 14007KT 10SM SCT090 03/M02 A3024 RMK AO2 SLP247 T00281017 10111 20022 50006,0,7.0,0,16090.0,0,0,0,
2026-04-30 04:56:00,METAR KBZN 300456Z 13009KT 10SM OVC100 04/M01 A3024 RMK AO2 SLP248 T00441006,0,9.0,0,16090.0,0,0,0,
2026-04-30 03:56:00,METAR KBZN 300356Z 17009KT 10SM SCT080 BKN100 06/M01 A3024 RMK AO2 SLP249 T00561011,0,9.0,0,16090.0,0,0,0,
2026-04-30 02:56:00,METAR KBZN 300256Z 15010KT 10SM SCT090 07/M02 A3022 RMK AO2 SLP240 T00721017 53013,0,10.0,0,16090.0,0,0,0,
2026-04-30 01:56:00,METAR KBZN 300156Z 18011KT 10SM SCT095 08/M03 A3019 RMK AO2 SLP233 T00831028,0,11.0,0,16090.0,0,0,0,
2026-04-30 01:34:00,SPECI KBZN 300134Z 19010KT 10SM FEW100 10/M03 A3019 RMK AO2 T01001033,0,10.0,0,16090.0,0,0,0,
2026-04-30 00:56:00,METAR KBZN 300056Z 25010KT 10SM OVC080 09/M03 A3018 RMK AO2 SLP231 T00941033,0,10.0,0,16090.0,0,0,0,
2026-04-29 23:56:00,METAR KBZN 292356Z 00000KT 10SM SCT095 SCT110 11/M04 A3017 RMK AO2 SLP225 60000 T01111044 10128 20067 55004,0,0.0,0,16090.0,0,0,0,
2026-04-29 22:56:00,METAR KBZN 292256Z 27007KT 10SM BKN100 BKN120 12/M03 A3017 RMK AO2 SLP221 T01171028,0,7.0,0,16090.0,0,0,0,
2026-04-29 21:59:00,SPECI KBZN 292159Z 32007KT 10SM FEW060 BKN095 11/M03 A3018 RMK AO2 T01111028,0,7.0,0,16090.0,0,0,0,
2026-04-29 21:56:00,METAR KBZN 292156Z 10SM SCT100 12/M03 A3018 RMK AO2 SLP230 T01171033,0,,0,16090.0,0,0,0,
2026-04-29 20:56:00,METAR KBZN 292056Z 13006G15KT 10SM FEW100 10/M01 A3019 RMK AO2 RAE22 SLP230 P0000 60000 T01001006 56002,0,6.0,1,16090.0,0,0,0,
2026-04-29 20:22:00,SPECI KBZN 292022Z 07010KT 10SM SCT036 BKN042 BKN070 09/02 A3020 RMK AO2 RAE22 P0000 T00890022,0,10.0,0,16090.0,0,0,0,
2026-04-29 19:56:00,METAR KBZN 291956Z 04016G28KT 10SM -RA SCT047 BKN060 OVC100 07/00 A3020 RMK AO2 PK WND 02031/1938 RAB52 SLP240 P0000 T00720000,0,16.0,1,16090.0,0,0,0,-RA
2026-04-29 18:56:00,METAR KBZN 291856Z 01004KT 10SM SCT080 BKN100 11/M01 A3018 RMK AO2 SLP226 T01061011,0,4.0,0,16090.0,0,0,0,
2026-04-29 17:56:00,METAR KBZN 291756Z 33003KT 10SM FEW037 09/M01 A3019 RMK AO2 SLP234 T00941011 10100 20006 58002,0,3.0,0,16090.0,0,0,0,
2026-04-29 16:56:00,METAR KBZN 291656Z 00000KT 10SM BKN070 07/01 A3021 RMK AO2 SLP238 T00720006,0,0.0,0,16090.0,0,0,0,
2026-04-29 15:56:00,METAR KBZN 291556Z 31003KT 10SM OVC055 06/01 A3021 RMK AO2 SLP242 T00560011,0,3.0,0,16090.0,0,0,0,
2026-04-29 14:56:00,METAR KBZN 291456Z 00000KT 10SM BKN060 OVC080 04/01 A3020 RMK AO2 SLP239 T00440006 51008,0,0.0,0,16090.0,0,0,0,
2026-04-29 13:56:00,METAR KBZN 291356Z 18004KT 10SM FEW070 03/00 A3019 RMK AO2 SLP238 T00330000,0,4.0,0,16090.0,0,0,0,
2026-04-29 12:56:00,METAR KBZN 291256Z 06003KT 10SM BKN050 OVC070 01/00 A3018 RMK AO2 SLP231 T00110000,0,3.0,0,16090.0,0,0,0,
2026-04-29 11:56:00,METAR KBZN 291156Z 25003KT 10SM OVC065 01/00 A3017 RMK AO2 SLP227 70001 T00110000 10028 21006 53007,0,3.0,0,16090.0,0,0,0,
2026-04-29 11:22:00,SPECI KBZN 291122Z 12004KT 10SM OVC070 01/M01 A3016 RMK AO2 T00111006,0,4.0,0,16090.0,0,0,0,
2026-04-29 10:56:00,METAR KBZN 291056Z AUTO 16006KT 10SM OVC070 02/M01 A3016 RMK AO2 SLP222 T00171006,0,6.0,0,16090.0,0,0,0,
2026-04-29 09:56:00,METAR KBZN 290956Z AUTO 14004KT 10SM BKN080 M01/M02 A3015 RMK AO2 SLP224 T10061017,0,4.0,0,16090.0,0,0,0,
2026-04-29 08:56:00,METAR KBZN 290856Z AUTO 00000KT 10SM BKN060 02/00 A3015 RMK AO2 SLP218 T00170000 50001,0,0.0,0,16090.0,0,0,0,
2026-04-29 07:56:00,METAR KBZN 290756Z AUTO 11005KT 10SM BKN065 01/00 A3015 RMK AO2 SLP217 T00110000,0,5.0,0,16090.0,0,0,0,
2026-04-29 06:56:00,METAR KBZN 290656Z AUTO 00000KT 10SM OVC055 02/01 A3015 RMK AO2 SLP218 T00220006 401171028,0,0.0,0,16090.0,0,0,0,
2026-04-29 05:56:00,METAR KBZN 290556Z AUTO 10004KT 10SM FEW060 BKN070 01/M01 A3015 RMK AO2 SLP221 60001 T00111006 10100 20011 51008,0,4.0,0,16090.0,0,0,0,
2026-04-29 04:56:00,METAR KBZN 290456Z VRB03KT 10SM OVC065 04/01 A3014 RMK AO2 SLP215 T00390011,0,3.0,0,16090.0,0,0,0,
2026-04-29 03:56:00,METAR KBZN 290356Z 11006KT 10SM OVC085 04/02 A3013 RMK AO2 RAE0257 SLP211 P0000 T00440017,0,6.0,0,16090.0,0,0,0,RA
2026-04-29 02:56:00,METAR KBZN 290256Z 00000KT 10SM -RA SCT037 OVC070 06/02 A3012 RMK AO2 RAB31 SLP210 P0001 60001 T00560017 53013,0,0.0,0,16090.0,0,0,0,-RA
2026-04-29 01:56:00,METAR KBZN 290156Z 05004KT 10SM SCT065 06/00 A3010 RMK AO2 WSHFT 0120 SLP210 T00560000,0,4.0,0,16090.0,0,0,0,
2026-04-29 01:40:00,SPECI KBZN 290140Z 05008KT 10SM FEW060 07/00 A3009 RMK AO2 WSHFT 0120 T00670000,0,8.0,0,16090.0,0,0,0,
2026-04-29 01:30:00,SPECI KBZN 290130Z 04010KT 10SM FEW060 FEW100 07/01 A3010 RMK AO2 WSHFT 0110 T00670006,0,10.0,0,16090.0,0,0,0,
2026-04-29 00:56:00,METAR KBZN 290056Z 26008KT 10SM FEW055 SCT075 SCT110 10/M03 A3008 RMK AO2 PK WND 27027/0020 WSHFT 0012 SLP196 T01001028,0,8.0,0,16090.0,0,0,0,
2026-04-29 00:32:00,SPECI KBZN 290032Z 21008KT 10SM SCT046 BKN065 OVC080 08/M02 A3008 RMK AO2 PK WND 27027/0020 WSHFT 0012 T00831017,0,8.0,0,16090.0,0,0,0,
2026-04-28 23:56:00,METAR KBZN 282356Z 31011KT 10SM SCT075 OVC090 09/M03 A3007 RMK AO2 SLP194 T00941028 10117 20078 53001,0,11.0,0,16090.0,0,0,0,
2026-04-28 22:56:00,METAR KBZN 282256Z 25012G19KT 10SM FEW046 SCT060 OVC090 11/M03 A3006 RMK AO2 SLP190 T01061028,0,12.0,1,16090.0,0,0,0,
2026-04-28 21:56:00,METAR KBZN 282156Z 00000KT 10SM SCT085 OVC100 09/M01 A3007 RMK AO2 SLP196 T00941006,0,0.0,0,16090.0,0,0,0,
2026-04-28 20:56:00,METAR KBZN 282056Z 30015G22KT 10SM FEW040 SCT048 OVC060 09/M01 A3007 RMK AO2 SLP199 T00891011 55001,0,15.0,1,16090.0,0,0,0,
2026-04-28 19:56:00,METAR KBZN 281956Z 32004KT 10SM FEW065 SCT080 BKN110 11/M04 A3005 RMK AO2 SLP186 T01061039,0,4.0,0,16090.0,0,0,0,
2026-04-28 18:56:00,METAR KBZN 281856Z 27008G20KT 10SM SCT055 BKN080 10/M03 A3006 RMK AO2 SLP194 T01001033,0,8.0,1,16090.0,0,0,0,
2026-04-28 17:56:00,METAR KBZN 281756Z 30011KT 10SM SCT050 BKN060 OVC085 08/M04 A3007 RMK AO2 SLP203 T00781039 10083 21006 58001,0,11.0,0,16090.0,0,0,0,
2026-04-28 17:44:00,SPECI KBZN 281744Z 27015G21KT 10SM BKN055 BKN070 OVC085 08/M03 A3008 RMK AO2 T00781033,0,15.0,1,16090.0,0,0,0,
2026-04-28 16:56:00,METAR KBZN 281656Z VRB05KT 10SM OVC090 07/M03 A3008 RMK AO2 SLP197 T00721028,0,5.0,0,16090.0,0,0,0,
2026-04-28 15:56:00,METAR KBZN 281556Z 30007KT 10SM OVC100 06/M03 A3008 RMK AO2 SLP199 T00611033,0,7.0,0,16090.0,0,0,0,
2026-04-28 14:56:00,METAR KBZN 281456Z 00000KT 10SM SCT050 BKN100 04/M03 A3008 RMK AO2 SLP196 T00441033 51020,0,0.0,0,16090.0,0,0,0,
2026-04-28 13:56:00,METAR KBZN 281356Z 00000KT 10SM SCT050 SCT110 01/M02 A3006 RMK AO2 SLP196 T00061022,0,0.0,0,16090.0,0,0,0,
2026-04-28 12:56:00,METAR KBZN 281256Z 00000KT 10SM FEW046 BKN070 OVC095 00/M03 A3003 RMK AO2 SLP183 T00001028,0,0.0,0,16090.0,0,0,0,
2026-04-28 11:56:00,METAR KBZN 281156Z 19003KT 10SM OVC055 00/M03 A3001 RMK AO2 SLP179 T00001033 10000 21028 53006,0,3.0,0,16090.0,0,0,0,
2026-04-28 11:23:00,SPECI KBZN 281123Z 15004KT 10SM BKN060 OVC075 M01/M04 A3000 RMK AO2 T10111039,0,4.0,0,16090.0,0,0,0,
2026-04-28 10:56:00,METAR KBZN 281056Z AUTO 12006KT 10SM FEW055 BKN075 BKN085 M02/M04 A2999 RMK AO2 SLP175 T10171044,0,6.0,0,16090.0,0,0,0,
2026-04-28 09:56:00,METAR KBZN 280956Z AUTO 10006KT 10SM BKN060 OVC100 M02/M04 A2999 RMK AO2 SLP178 T10221044,0,6.0,0,16090.0,0,0,0,
2026-04-28 08:56:00,METAR KBZN 280856Z AUTO 12004KT 10SM SCT060 M02/M05 A2999 RMK AO2 SLP178 T10221050 51008,0,4.0,0,16090.0,0,0,0,
2026-04-28 07:56:00,METAR KBZN 280756Z AUTO 15007KT 10SM FEW065 M01/M04 A2999 RMK AO2 SLP174 T10061044,0,7.0,0,16090.0,0,0,0,
2026-04-28 06:56:00,METAR KBZN 280656Z AUTO 15006KT 10SM CLR M02/M04 A2998 RMK AO2 SLP179 T10221044 400781022,0,6.0,0,16090.0,0,0,0,
2026-04-28 05:56:00,METAR KBZN 280556Z 14008KT 10SM CLR M02/M04 A2996 RMK AO2 SLP176 T10221039 10072 21022 51007,0,8.0,0,16090.0,0,0,0,
2026-04-28 04:56:00,METAR KBZN 280456Z 15008KT 10SM CLR 01/M03 A2996 RMK AO2 SLP172 T00111028,0,8.0,0,16090.0,0,0,0,
2026-04-28 03:56:00,METAR KBZN 280356Z 14009KT 10SM CLR 02/M03 A2995 RMK AO2 SLP169 T00171028,0,9.0,0,16090.0,0,0,0,
2026-04-28 02:56:00,METAR KBZN 280256Z 07004KT 10SM CLR 05/M06 A2994 RMK AO2 SLP158 T00501056 53004,0,4.0,0,16090.0,0,0,0,
2026-04-28 01:56:00,METAR KBZN 280156Z 08003KT 10SM CLR 06/M04 A2993 RMK AO2 SLP151 T00611044,0,3.0,0,16090.0,0,0,0,
2026-04-28 00:56:00,METAR KBZN 280056Z 05004KT 10SM CLR 07/M06 A2992 RMK AO2 SLP147 T00721061,0,4.0,0,16090.0,0,0,0,
2026-04-27 23:56:00,METAR KBZN 272356Z VRB03KT 10SM CLR 07/M06 A2993 RMK AO2 SLP149 60000 T00671061 10078 20017 56008,0,3.0,0,16090.0,0,0,0,
2026-04-27 22:56:00,METAR KBZN 272256Z VRB04KT 10SM CLR 07/M05 A2993 RMK AO2 SLP150 T00721050,0,4.0,0,16090.0,0,0,0,
2026-04-27 21:56:00,METAR KBZN 272156Z 00000KT 10SM FEW055 06/M06 A2994 RMK AO2 SLP156 T00561056,0,0.0,0,16090.0,0,0,0,
2026-04-27 20:56:00,METAR KBZN 272056Z 09004KT 10SM BKN040 OVC049 05/M04 A2996 RMK AO2 SLP164 60000 T00501044 56009,0,4.0,0,16090.0,0,0,0,
2026-04-27 19:58:00,SPECI KBZN 271958Z 21006KT 10SM FEW036 SCT050 05/M04 A2996 RMK AO2 T00501044,0,6.0,0,16090.0,0,0,0,
2026-04-27 19:56:00,METAR KBZN 271956Z 10SM SCT036 SCT048 05/M04 A2996 RMK AO2 SLP164 T00501044,0,,0,16090.0,0,0,0,
2026-04-27 18:56:00,METAR KBZN 271856Z 00000KT 10SM BKN030 BKN038 OVC050 03/M04 A2997 RMK AO2 SNB03E06 SLP173 P0000 T00281044,0,0.0,0,16090.0,0,0,0,SN
2026-04-27 18:39:00,SPECI KBZN 271839Z VRB03KT 10SM FEW024 BKN030 OVC055 03/M03 A2998 RMK AO2 SNB03E06 P0000 T00331033,0,3.0,0,16090.0,0,0,0,SN
2026-04-27 18:13:00,SPECI KBZN 271813Z VRB03KT 10SM FEW020 BKN028 OVC042 02/M04 A2998 RMK AO2 SNB03E06 P0000 T00221039,0,3.0,0,16090.0,0,0,0,SN
2026-04-27 17:56:00,METAR KBZN 271756Z VRB03KT 10SM SCT020 BKN048 OVC055 02/M03 A2999 RMK AO2 SNE37 SLP177 P0000 60000 T00171033 10017 21011 51004,0,3.0,0,16090.0,0,0,0,
2026-04-27 17:39:00,SPECI KBZN 271739Z 27004KT 9SM FEW018 BKN037 OVC055 02/M03 A2999 RMK AO2 SNE37 P0000 T00171028,0,4.0,0,14481.0,0,0,0,
2026-04-27 16:56:00,METAR KBZN 271656Z 31004KT 2SM -SN FEW015 BKN024 OVC033 00/M03 A2999 RMK AO2 SLP181 P0000 T00001033,0,4.0,0,3218.0,0,0,0,SN
2026-04-27 16:33:00,SPECI KBZN 271633Z 29005KT 1SM R12/P6000FT -SN FEW013 BKN022 OVC029 M01/M03 A2998 RMK AO2 P0000 T10061033,0,5.0,0,1609.0,0,0,0,SN
2026-04-27 16:31:00,SPECI KBZN 271631Z 30006KT 4SM -SN FEW013 BKN020 OVC027 M01/M03 A2998 RMK AO2 P0000 T10061033,0,6.0,0,6436.0,0,0,0,SN
2026-04-27 16:21:00,SPECI KBZN 271621Z 31007KT 2SM -SN BKN015 OVC022 M01/M03 A2998 RMK AO2 P0000 T10061033,0,7.0,0,3218.0,0,0,0,SN
2026-04-27 16:02:00,SPECI KBZN 271602Z 30003KT 1 1/4SM R12/5000VP6000FT -SN BKN018 BKN022 OVC028 M01/M04 A2998 RMK AO2 P0000 T10061039,0,3.0,0,2011.0,0,0,0,SN
2026-04-27 15:56:00,METAR KBZN 271556Z 26004KT 2SM -SN BKN018 BKN028 OVC046 M01/M04 A2998 RMK AO2 SNB15 SLP179 P0000 T10061044,0,4.0,0,3218.0,0,0,0,SN
2026-04-27 15:54:00,SPECI KBZN 271554Z 26004KT 2SM -SN SCT018 BKN024 OVC046 M01/M04 A2998 RMK AO2 SNB15 P0000,0,4.0,0,3218.0,0,0,0,SN
2026-04-27 14:56:00,METAR KBZN 271456Z 29005KT 10SM OVC039 M01/M05 A2997 RMK AO2 SLP176 60000 T10061050 52012,0,5.0,0,16090.0,0,0,0,
2026-04-27 14:34:00,SPECI KBZN 271434Z 31004KT 10SM SCT028 OVC037 M01/M05 A2997 RMK AO2 T10061050,0,4.0,0,16090.0,0,0,0,
2026-04-27 13:56:00,METAR KBZN 271356Z 30004KT 10SM OVC024 M01/M04 A2996 RMK AO2 SNB33E42 SLP172 P0000 T10061044,0,4.0,0,16090.0,0,0,0,SN
2026-04-27 12:56:00,METAR KBZN 271256Z 01005KT 10SM OVC028 M01/M04 A2994 RMK AO2 SLP166 T10111044,0,5.0,0,16090.0,0,0,0,
2026-04-27 12:09:00,SPECI KBZN 271209Z 02006KT 10SM BKN028 OVC035 M01/M04 A2993 RMK AO2 T10061044,0,6.0,0,16090.0,0,0,0,
2026-04-27 11:56:00,METAR KBZN 271156Z 03005KT 10SM FEW027 OVC035 M01/M04 A2993 RMK AO2 SLP160 70004 T10061044 10011 21011 51001,0,5.0,0,16090.0,0,0,0,
2026-04-27 11:24:00,SPECI KBZN 271124Z 07007KT 10SM OVC032 M01/M06 A2993 RMK AO2 T10061061,0,7.0,0,16090.0,0,0,0,
2026-04-27 10:56:00,METAR KBZN 271056Z AUTO 10005KT 10SM BKN030 OVC050 M01/M06 A2993 RMK AO2 SLP158 T10061061,0,5.0,0,16090.0,0,0,0,
2026-04-27 09:56:00,METAR KBZN 270956Z AUTO 15003KT 10SM OVC033 M01/M06 A2993 RMK AO2 SLP160 T10061061,0,3.0,0,16090.0,0,0,0,
2026-04-27 08:56:00,METAR KBZN 270856Z AUTO 19003KT 10SM OVC050 M01/M05 A2993 RMK AO2 SLP159 T10061050 58002,0,3.0,0,16090.0,0,0,0,
2026-04-27 07:56:00,METAR KBZN 270756Z AUTO 06011KT 10SM OVC050 00/M05 A2994 RMK AO2 SLP163 T00001050,0,11.0,0,16090.0,0,0,0,
2026-04-27 06:56:00,METAR KBZN 270656Z AUTO 16008KT 10SM FEW039 OVC047 01/M04 A2994 RMK AO2 SLP166 T00061044 400281039,0,8.0,0,16090.0,0,0,0,
2026-04-27 05:56:00,METAR KBZN 270556Z 13005KT 10SM OVC046 01/M05 A2994 RMK AO2 SLP164 60000 T00111050 10028 20011 51008,0,5.0,0,16090.0,0,0,0,
2026-04-27 04:56:00,METAR KBZN 270456Z 11006KT 10SM FEW028 OVC050 01/M04 A2993 RMK AO2 SLP163 T00111039,0,6.0,0,16090.0,0,0,0,
2026-04-27 04:49:00,SPECI KBZN 270449Z 12009KT 10SM SCT028 BKN043 OVC050 01/M04 A2993 RMK AO2 T00111039,0,9.0,0,16090.0,0,0,0,
2026-04-27 03:56:00,METAR KBZN 270356Z 00000KT 10SM BKN026 BKN031 OVC050 01/M03 A2993 RMK AO2 SLP158 T00111033,0,0.0,0,16090.0,0,0,0,
2026-04-27 03:43:00,SPECI KBZN 270343Z 14005KT 10SM BKN027 OVC050 02/M04 A2992 RMK AO2 T00171039,0,5.0,0,16090.0,0,0,0,
2026-04-27 02:56:00,METAR KBZN 270256Z 31003KT 10SM SCT031 OVC047 02/M02 A2991 RMK AO2 SLP151 60000 T00171017 52018,0,3.0,0,16090.0,0,0,0,
2026-04-27 01:56:00,METAR KBZN 270156Z 30007KT 10SM SCT030 OVC046 02/M02 A2989 RMK AO2 SLP149 T00171017,0,7.0,0,16090.0,0,0,0,
2026-04-27 00:56:00,METAR KBZN 270056Z 30008KT 10SM OVC046 02/M02 A2987 RMK AO2 SNE2357 SLP145 P0000 T00221017,0,8.0,0,16090.0,0,0,0,SN
2026-04-26 23:56:00,METAR KBZN 262356Z 25003KT 5SM -SN FEW023 FEW029 OVC042 02/M02 A2985 RMK AO2 SLP136 P0000 60002 T00221022 10028 21006 53011,0,3.0,0,8045.0,0,0,0,SN
2026-04-26 22:56:00,METAR KBZN 262256Z 00000KT 8SM -SN OVC033 02/M02 A2982 RMK AO2 SLP125 P0000 T00221022,0,0.0,0,12872.0,0,0,0,SN
2026-04-26 22:03:00,SPECI KBZN 262203Z 21004KT 5SM -SN FEW023 SCT029 OVC039 02/M02 A2981 RMK AO2 P0000 T00221022,0,4.0,0,8045.0,0,0,0,SN
2026-04-26 21:56:00,METAR KBZN 262156Z VRB05KT 6SM -SN BKN027 OVC039 02/M02 A2981 RMK AO2 SNB13 SLP118 P0000 T00221022,0,5.0,0,9654.0,0,0,0,SN
2026-04-26 21:54:00,SPECI KBZN 262154Z 20005KT 6SM -SN FEW024 BKN029 OVC039 02/M02 A2981 RMK AO2 SNB13 P0000,0,5.0,0,9654.0,0,0,0,SN
2026-04-26 21:13:00,SPECI KBZN 262113Z 00000KT 9SM -SN SCT024 OVC032 02/M02 A2981 RMK AO2 SNB13 P0000 T00221022,0,0.0,0,14481.0,0,0,0,SN
2026-04-26 20:56:00,METAR KBZN 262056Z 33004KT 10SM OVC024 02/M02 A2980 RMK AO2 SLP116 60002 T00221017 53002,0,4.0,0,16090.0,0,0,0,
2026-04-26 19:56:00,METAR KBZN 261956Z 26005KT 10SM OVC017 02/M02 A2979 RMK AO2 SNE19 SLP111 P0000 T00221017,0,5.0,0,16090.0,0,0,0,
2026-04-26 19:31:00,SPECI KBZN 261931Z 00000KT 10SM FEW013 BKN017 OVC039 02/M01 A2979 RMK AO2 SNE19 P0000 T00171006,0,0.0,0,16090.0,0,0,0,
2026-04-26 19:08:00,SPECI KBZN 261908Z 16005KT 3SM -SN BR BKN008 OVC013 01/M01 A2979 RMK AO2 P0000 T00111006,0,5.0,0,4827.0,0,0,1,"BR,SN"
2026-04-26 18:59:00,SPECI KBZN 261859Z 15005KT 1 1/2SM -SN BR BKN008 OVC013 01/M01 A2979 RMK AO2 P0000 T00061011,0,5.0,0,2414.0,0,0,1,"BR,SN"
2026-04-26 18:56:00,METAR KBZN 261856Z 12005KT 1 1/4SM -SN BR SCT008 OVC013 01/M01 A2979 RMK AO2 SLP116 P0002 T00061011,0,5.0,0,2011.0,0,0,1,"BR,SN"
2026-04-26 18:29:00,SPECI KBZN 261829Z 14008KT 1SM R12/6000VP6000FT -SN BR BKN006 OVC017 00/M01 A2979 RMK AO2 P0001 T00001011,0,8.0,0,1609.0,0,0,1,"BR,SN"
2026-04-26 18:03:00,SPECI KBZN 261803Z 19006KT 3/4SM R12/4500VP6000FT -SN BR FEW005 OVC015 M01/M02 A2979 RMK AO2 P0000 T10061017,0,6.0,0,1207.0,0,0,1,"BR,SN"
2026-04-26 17:56:00,METAR KBZN 261756Z 18006KT 1/2SM R12/5000VP6000FT -SN FZFG BKN005 OVC013 M01/M01 A2979 RMK AO2 SLP118 P0002 60002 T10061011 10011 21039 53008,0,6.0,0,804.0,0,0,1,"FG,SN"
2026-04-26 17:03:00,SPECI KBZN 261703Z 23004KT 1 1/2SM -SN BR SCT014 BKN020 OVC026 00/M02 A2979 RMK AO2 P0000 T00001022,0,4.0,0,2414.0,0,0,1,"BR,SN"
2026-04-26 16:56:00,METAR KBZN 261656Z 24004KT 1SM R12/P6000FT -SN BKN020 OVC025 00/M03 A2978 RMK AO2 SNB22 SLP110 P0000 T00001028,0,4.0,0,1609.0,0,0,0,SN
2026-04-26 16:36:00,SPECI KBZN 261636Z 00000KT 1SM R12/P6000FT -SN BKN027 OVC042 01/M03 A2977 RMK AO2 SNB22 P0000 T00061033,0,0.0,0,1609.0,0,0,0,SN
2026-04-26 16:35:00,SPECI KBZN 261635Z 00000KT 3SM -SN BKN027 OVC042 01/M03 A2977 RMK AO2 SNB22 P0000 T00061033,0,0.0,0,4827.0,0,0,0,SN
2026-04-26 16:27:00,SPECI KBZN 261627Z 24003KT 3SM -SN FEW027 BKN036 OVC055 01/M04 A2976 RMK AO2 SNB22 P0000 T00061039,0,3.0,0,4827.0,0,0,0,SN
2026-04-26 16:20:00,SPECI KBZN 261620Z 00000KT 10SM FEW035 BKN043 OVC055 01/M04 A2976 RMK AO2 T00061044,0,0.0,0,16090.0,0,0,0,
2026-04-26 15:56:00,METAR KBZN 261556Z 00000KT 10SM FEW060 BKN075 OVC090 01/M04 A2976 RMK AO2 SLP103 T00061039,0,0.0,0,16090.0,0,0,0,
2026-04-26 14:56:00,METAR KBZN 261456Z 05005KT 10SM SCT090 00/M04 A2977 RMK AO2 SLP100 T00001039 53007,0,5.0,0,16090.0,0,0,0,
2026-04-26 13:56:00,METAR KBZN 261356Z 00000KT 10SM CLR M02/M05 A2976 RMK AO2 SLP098 T10171050,0,0.0,0,16090.0,0,0,0,
2026-04-26 12:56:00,METAR KBZN 261256Z 02004KT 10SM CLR M04/M06 A2974 RMK AO2 SLP094 T10391061,0,4.0,0,16090.0,0,0,0,
2026-04-26 11:56:00,METAR KBZN 261156Z 15008KT 10SM CLR M02/M06 A2974 RMK AO2 SLP092 T10221056 10006 21022 58009,0,8.0,0,16090.0,0,0,0,
2026-04-26 10:56:00,METAR KBZN 261056Z AUTO 17006KT 10SM CLR M02/M06 A2976 RMK AO2 SLP095 T10171056,0,6.0,0,16090.0,0,0,0,
2026-04-26 09:56:00,METAR KBZN 260956Z AUTO 20005KT 10SM OVC095 M01/M04 A2977 RMK AO2 SLP096 T10061039,0,5.0,0,16090.0,0,0,0,
2026-04-26 08:56:00,METAR KBZN 260856Z AUTO 07003KT 10SM SCT080 OVC095 M01/M04 A2977 RMK AO2 SLP101 T10111039 58009,0,3.0,0,16090.0,0,0,0,
2026-04-26 07:56:00,METAR KBZN 260756Z AUTO 33004KT 10SM OVC075 M01/M04 A2979 RMK AO2 SLP108 T10061039,0,4.0,0,16090.0,0,0,0,
2026-04-26 06:56:00,METAR KBZN 260656Z AUTO 31006KT 10SM BKN075 OVC095 M01/M04 A2980 RMK AO2 SLP112 T10061039 400671033,0,6.0,0,16090.0,0,0,0,
2026-04-26 05:56:00,METAR KBZN 260556Z 36003KT 10SM OVC100 M01/M04 A2981 RMK AO2 SLP119 T10111039 10056 21011 58006,0,3.0,0,16090.0,0,0,0,
2026-04-26 04:56:00,METAR KBZN 260456Z 16008KT 10SM BKN110 01/M04 A2982 RMK AO2 SLP122 T00111044,0,8.0,0,16090.0,0,0,0,
2026-04-26 03:56:00,METAR KBZN 260356Z 09004KT 10SM FEW060 SCT080 01/M04 A2984 RMK AO2 SLP132 T00061044,0,4.0,0,16090.0,0,0,0,
2026-04-26 02:56:00,METAR KBZN 260256Z 16007KT 10SM FEW100 SCT120 03/M04 A2983 RMK AO2 SLP123 T00281039 55001,0,7.0,0,16090.0,0,0,0,
2026-04-26 01:56:00,METAR KBZN 260156Z 03004KT 10SM SCT095 OVC110 04/M07 A2983 RMK AO2 SLP123 T00391067,0,4.0,0,16090.0,0,0,0,
2026-04-26 00:56:00,METAR KBZN 260056Z 04006KT 10SM OVC110 06/M09 A2983 RMK AO2 SLP122 T00561089,0,6.0,0,16090.0,0,0,0,
2026-04-25 23:56:00,METAR KBZN 252356Z 03007KT 10SM OVC100 06/M08 A2983 RMK AO2 SLP122 T00561083 10067 20017 56013,0,7.0,0,16090.0,0,0,0,
2026-04-25 22:56:00,METAR KBZN 252256Z VRB04KT 10SM BKN095 06/M09 A2983 RMK AO2 SLP124 T00561089,0,4.0,0,16090.0,0,0,0,
2026-04-25 21:56:00,METAR KBZN 252156Z VRB04KT 10SM FEW060 BKN090 06/M09 A2985 RMK AO2 SLP131 T00561089,0,4.0,0,16090.0,0,0,0,
2026-04-25 20:56:00,METAR KBZN 252056Z VRB04KT 10SM CLR 05/M08 A2987 RMK AO2 SLP137 T00501083 56020,0,4.0,0,16090.0,0,0,0,
2026-04-25 19:56:00,METAR KBZN 251956Z 00000KT 10SM CLR 04/M09 A2989 RMK AO2 SLP145 T00391089,0,0.0,0,16090.0,0,0,0,
2026-04-25 18:56:00,METAR KBZN 251856Z 00000KT 10SM BKN044 03/M07 A2992 RMK AO2 SLP154 T00331067,0,0.0,0,16090.0,0,0,0,
2026-04-25 17:56:00,METAR KBZN 251756Z VRB03KT 10SM OVC039 02/M07 A2994 RMK AO2 SLP165 T00171067 10017 21028 58008,0,3.0,0,16090.0,0,0,0,
2026-04-25 16:56:00,METAR KBZN 251656Z VRB06KT 10SM BKN046 01/M06 A2995 RMK AO2 SLP169 T00111056,0,6.0,0,16090.0,0,0,0,
2026-04-25 15:56:00,METAR KBZN 251556Z 17008KT 10SM BKN044 OVC065 M01/M06 A2997 RMK AO2 SLP178 T10061056,0,8.0,0,16090.0,0,0,0,
2026-04-25 14:56:00,METAR KBZN 251456Z 20005KT 10SM SCT042 BKN050 OVC065 M01/M06 A2997 RMK AO2 SLP178 T10111061 53004,0,5.0,0,16090.0,0,0,0,
2026-04-25 13:56:00,METAR KBZN 251356Z 20010KT 10SM OVC048 M02/M05 A2997 RMK AO2 SLP177 T10171050,0,10.0,0,16090.0,0,0,0,
2026-04-25 12:56:00,METAR KBZN 251256Z 25005KT 10SM BKN050 OVC070 M02/M07 A2995 RMK AO2 SLP170 T10221067,0,5.0,0,16090.0,0,0,0,
2026-04-25 11:56:00,METAR KBZN 251156Z 29005KT 10SM OVC037 M03/M04 A2995 RMK AO2 SLP170 T10281044 11006 21033 55001,0,5.0,0,16090.0,0,0,0,
2026-04-25 10:56:00,METAR KBZN 251056Z AUTO 00000KT 10SM BKN042 OVC060 M02/M05 A2995 RMK AO2 SLP172 T10221050,0,0.0,0,16090.0,0,0,0,
2026-04-25 09:56:00,METAR KBZN 250956Z AUTO 23004KT 10SM BKN050 OVC065 M02/M06 A2995 RMK AO2 SLP170 T10221056,0,4.0,0,16090.0,0,0,0,
2026-04-25 08:56:00,METAR KBZN 250856Z AUTO 00000KT 10SM BKN060 M02/M04 A2996 RMK AO2 SLP174 T10221044 58004,0,0.0,0,16090.0,0,0,0,
2026-04-25 07:56:00,METAR KBZN 250756Z AUTO 33003KT 10SM FEW045 BKN065 M02/M05 A2996 RMK AO2 SLP175 T10221050,0,3.0,0,16090.0,0,0,0,
2026-04-25 06:56:00,METAR KBZN 250656Z AUTO 34005KT 10SM BKN047 BKN060 OVC070 M02/M05 A2997 RMK AO2 SLP179 T10171050 400391033,0,5.0,0,16090.0,0,0,0,
2026-04-25 05:56:00,METAR KBZN 250556Z AUTO 24003KT 10SM SCT049 SCT060 OVC090 M01/M06 A2997 RMK AO2 SLP178 T10061056 10039 21011 51009,0,3.0,0,16090.0,0,0,0,
2026-04-25 04:56:00,METAR KBZN 250456Z 28003KT 10SM BKN050 OVC090 M01/M06 A2997 RMK AO2 SLP175 T10061056,0,3.0,0,16090.0,0,0,0,
2026-04-25 03:56:00,METAR KBZN 250356Z 36006KT 10SM SCT060 BKN080 OVC095 M01/M05 A2996 RMK AO2 SLP175 T10061050,0,6.0,0,16090.0,0,0,0,
2026-04-25 02:56:00,METAR KBZN 250256Z 35009KT 10SM OVC095 01/M06 A2994 RMK AO2 SLP168 T00061056 53005,0,9.0,0,16090.0,0,0,0,
2026-04-25 01:56:00,METAR KBZN 250156Z 35007KT 10SM OVC090 02/M06 A2992 RMK AO2 SLP162 T00171056,0,7.0,0,16090.0,0,0,0,
2026-04-25 00:56:00,METAR KBZN 250056Z 27008KT 10SM FEW090 03/M10 A2992 RMK AO2 SLP161 T00281100,0,8.0,0,16090.0,0,0,0,
2026-04-24 23:56:00,METAR KBZN 242356Z VRB04KT 10SM BKN090 04/M07 A2992 RMK AO2 SNE13 SLP157 P0000 60000 T00391072 10039 20006 58004,0,4.0,0,16090.0,0,0,0,
2026-04-24 22:56:00,METAR KBZN 242256Z 28011G21KT 8SM -SN FEW029 BKN050 OVC070 02/M07 A2994 RMK AO2 SNB56 SLP167 P0000 T00171067,0,11.0,1,12872.0,0,0,0,SN
2026-04-24 21:56:00,METAR KBZN 242156Z 28006KT 10SM BKN060 OVC075 03/M10 A2993 RMK AO2 SLP161 T00281100,0,6.0,0,16090.0,0,0,0,
2026-04-24 20:56:00,METAR KBZN 242056Z 20008KT 10SM FEW049 OVC070 02/M09 A2994 RMK AO2 SLP167 T00221094 56010,0,8.0,0,16090.0,0,0,0,
2026-04-24 20:28:00,SPECI KBZN 242028Z 26009G18KT 10SM SCT050 BKN060 OVC070 02/M10 A2994 RMK AO2 T00221100,0,9.0,1,16090.0,0,0,0,
2026-04-24 19:56:00,METAR KBZN 241956Z 23009KT 10SM BKN060 02/M10 A2994 RMK AO2 SLP166 T00221100,0,9.0,0,16090.0,0,0,0,
2026-04-24 18:56:00,METAR KBZN 241856Z 33003KT 10SM OVC060 01/M11 A2996 RMK AO2 SLP173 T00061106,0,3.0,0,16090.0,0,0,0,
2026-04-24 17:56:00,METAR KBZN 241756Z 29008KT 10SM SCT055 01/M12 A2997 RMK AO2 SLP178 T00061117 10017 21033 55001,0,8.0,0,16090.0,0,0,0,
2026-04-24 16:56:00,METAR KBZN 241656Z 31011KT 10SM FEW045 OVC080 01/M09 A2997 RMK AO2 SLP175 T00111089,0,11.0,0,16090.0,0,0,0,
2026-04-24 15:56:00,METAR KBZN 241556Z 35006G16KT 10SM CLR 00/M09 A2997 RMK AO2 SLP179 T00001094,0,6.0,1,16090.0,0,0,0,
2026-04-24 14:56:00,METAR KBZN 241456Z 34009KT 10SM BKN075 OVC090 M01/M10 A2997 RMK AO2 SLP180 T10111100 52013,0,9.0,0,16090.0,0,0,0,
2026-04-24 13:56:00,METAR KBZN 241356Z 34012KT 10SM FEW038 BKN070 M02/M08 A2996 RMK AO2 SLP175 T10171083,0,12.0,0,16090.0,0,0,0,
2026-04-24 12:56:00,METAR KBZN 241256Z 06003KT 10SM OVC060 M03/M04 A2995 RMK AO2 SLP174 T10281039,0,3.0,0,16090.0,0,0,0,
2026-04-24 11:56:00,METAR KBZN 241156Z 01011KT 10SM OVC045 M02/M06 A2993 RMK AO2 SLP166 60000 70003 T10221061 11006 21022 56003,0,11.0,0,16090.0,0,0,0,
2026-04-24 10:56:00,METAR KBZN 241056Z AUTO 22006KT 10SM OVC070 M02/M04 A2993 RMK AO2 SLP167 T10221044,0,6.0,0,16090.0,0,0,0,
2026-04-24 09:56:00,METAR KBZN 240956Z AUTO 00000KT 10SM OVC060 M02/M05 A2993 RMK AO2 SNE10 SLP165 P0000 T10221050,0,0.0,0,16090.0,0,0,0,
2026-04-24 09:07:00,SPECI KBZN 240907Z AUTO 00000KT 7SM -SN FEW028 OVC039 M02/M05 A2993 RMK AO2 P0000 T10221050,0,0.0,0,11263.0,0,0,0,SN
2026-04-24 08:56:00,METAR KBZN 240856Z AUTO 00000KT 6SM -SN BR OVC028 M02/M04 A2994 RMK AO2 SLP172 P0000 60000 T10221044 55000,0,0.0,0,9654.0,0,0,1,"BR,SN"
2026-04-24 08:42:00,SPECI KBZN 240842Z AUTO 09005KT 7SM -SN OVC030 M02/M04 A2993 RMK AO2 P0000 T10221039,0,5.0,0,11263.0,0,0,0,SN
2026-04-24 08:15:00,SPECI KBZN 240815Z AUTO 32004KT 8SM -SN OVC028 M01/M05 A2994 RMK AO2 P0000 T10111050,0,4.0,0,12872.0,0,0,0,SN
2026-04-24 07:56:00,METAR KBZN 240756Z AUTO 29007KT 7SM -SN OVC036 M01/M05 A2993 RMK AO2 SNB49 SLP166 P0000 T10111050,0,7.0,0,11263.0,0,0,0,SN
2026-04-24 06:56:00,METAR KBZN 240656Z AUTO 25007KT 10SM BKN055 OVC070 M01/M04 A2994 RMK AO2 SLP164 T10061039 400561011,0,7.0,0,16090.0,0,0,0,
2026-04-24 05:56:00,METAR KBZN 240556Z 26003KT 10SM BKN090 OVC110 M01/M04 A2994 RMK AO2 SLP161 60000 T10061044 10017 21011 58002,0,3.0,0,16090.0,0,0,0,
2026-04-24 04:56:00,METAR KBZN 240456Z 31006KT 10SM FEW070 M01/M04 A2996 RMK AO2 SLP164 T10061039,0,6.0,0,16090.0,0,0,0,
2026-04-24 03:56:00,METAR KBZN 240356Z 00000KT 10SM OVC065 00/M03 A2996 RMK AO2 SLP164 T00001033,0,0.0,0,16090.0,0,0,0,
2026-04-24 02:56:00,METAR KBZN 240256Z 23007KT 10SM FEW020 OVC060 01/M03 A2995 RMK AO2 SLP157 60000 T00061028 53010,0,7.0,0,16090.0,0,0,0,
2026-04-24 01:56:00,METAR KBZN 240156Z 27003KT 10SM SCT020 BKN060 BKN120 01/M04 A2993 RMK AO2 SLP156 T00061039,0,3.0,0,16090.0,0,0,0,
2026-04-24 01:33:00,SPECI KBZN 240133Z 00000KT 10SM SCT019 OVC048 01/M03 A2993 RMK AO2 T00111028,0,0.0,0,16090.0,0,0,0,
2026-04-24 00:56:00,METAR KBZN 240056Z 22005KT 10SM BKN018 BKN024 OVC030 01/M03 A2993 RMK AO2 SNE2359B27E36 SLP157 P0000 T00061028,0,5.0,0,16090.0,0,0,0,SN
2026-04-24 00:40:00,SPECI KBZN 240040Z 24007KT 9SM SCT016 BKN024 OVC036 01/M02 A2993 RMK AO2 SNE2359B27E36 P0000 T00111022,0,7.0,0,14481.0,0,0,0,SN
2026-04-24 00:27:00,SPECI KBZN 240027Z 25007KT 10SM -SN BKN014 BKN026 BKN095 01/M02 A2992 RMK AO2 SNE2359B27 P0000 T00111022,0,7.0,0,16090.0,0,0,0,SN
2026-04-23 23:56:00,METAR KBZN 232356Z 31005KT 7SM -SN FEW031 BKN039 OVC047 01/M01 A2991 RMK AO2 SLP152 P0001 60001 T00061011 10017 21006 53013,0,5.0,0,11263.0,0,0,0,SN
2026-04-23 23:22:00,SPECI KBZN 232322Z 30007KT 3SM -SN BR FEW012 BKN020 OVC050 M01/M01 A2991 RMK AO2 P0001 T10061011,0,7.0,0,4827.0,0,0,1,"BR,SN"
2026-04-23 23:16:00,SPECI KBZN 232316Z 28006KT 1 1/4SM R12/4000VP6000FT -SN BR BKN016 OVC021 M01/M01 A2990 RMK AO2 P0001 T10061011,0,6.0,0,2011.0,0,0,1,"BR,SN"
2026-04-23 22:56:00,METAR KBZN 232256Z 32010KT 1/2SM R12/2600VP6000FT SN SCT015 BKN021 OVC037 01/M02 A2989 RMK AO2 SNB53 PRESRR SLP145 P0000 T00061022,0,10.0,0,804.0,0,0,0,SN
2026-04-23 22:53:00,SPECI KBZN 232253Z 30007KT 1/2SM R12/5000VP6000FT SN SCT021 BKN027 OVC037 01/M03 A2989 RMK AO2 SNB53 P0000,0,7.0,0,804.0,0,0,0,SN
2026-04-23 22:51:00,SPECI KBZN 232251Z 31009KT 7SM SCT021 BKN027 OVC039 02/M03 A2988 RMK AO2,0,9.0,0,11263.0,0,0,0,
2026-04-23 21:56:00,METAR KBZN 232156Z 23004KT 10SM FEW016 OVC040 01/M02 A2987 RMK AO2 SNE34 SLP137 P0000 T00111022,0,4.0,0,16090.0,0,0,0,
2026-04-23 21:45:00,SPECI KBZN 232145Z 20005KT 10SM FEW013 SCT018 OVC041 01/M03 A2988 RMK AO2 SNE34 P0000 T00111028,0,5.0,0,16090.0,0,0,0,
2026-04-23 21:33:00,SPECI KBZN 232133Z 21004KT 9SM -SN SCT015 BKN028 OVC039 01/M02 A2987 RMK AO2 P0000 T00061022,0,4.0,0,14481.0,0,0,0,SN
2026-04-23 21:23:00,SPECI KBZN 232123Z VRB03KT 4SM -SN BKN014 BKN024 OVC032 01/M02 A2988 RMK AO2 P0000 T00111017,0,3.0,0,6436.0,0,0,0,SN
2026-04-23 20:56:00,METAR KBZN 232056Z 20004KT 8SM -SN FEW014 BKN050 OVC070 00/M03 A2988 RMK AO2 SNE26B51 SLP142 P0000 60000 T00001028 51011,0,4.0,0,12872.0,0,0,0,SN
2026-04-23 20:14:00,SPECI KBZN 232014Z 24003KT 4SM -SN BKN031 OVC038 00/M03 A2987 RMK AO2 P0000 T00001028,0,3.0,0,6436.0,0,0,0,SN
2026-04-23 20:04:00,SPECI KBZN 232004Z 25005KT 2SM -SN BKN031 OVC039 00/M03 A2988 RMK AO2 P0000 T00001028,0,5.0,0,3218.0,0,0,0,SN
2026-04-23 19:56:00,METAR KBZN 231956Z 30007KT 2 1/2SM -SN FEW022 BKN029 OVC039 00/M03 A2988 RMK AO2 SNB02 SLP141 P0000 T00001033,0,7.0,0,4022.0,0,0,0,SN
2026-04-23 19:44:00,SPECI KBZN 231944Z 28010KT 6SM -SN SCT020 OVC037 01/M03 A2988 RMK AO2 SNB02 P0000 T00111028,0,10.0,0,9654.0,0,0,0,SN
2026-04-23 18:56:00,METAR KBZN 231856Z 31007KT 10SM SCT008 BKN015 OVC047 01/00 A2986 RMK AO2 PK WND 34026/1808 SNB02E44 SLP134 P0000 T00110000,0,7.0,0,16090.0,0,0,0,SN
2026-04-23 18:45:00,SPECI KBZN 231845Z 31007KT 9SM BKN006 BKN021 OVC048 01/M01 A2986 RMK AO2 PK WND 34026/1808 SNB02E44 P0000 T00061006,0,7.0,0,14481.0,0,0,0,SN
2026-04-23 18:38:00,SPECI KBZN 231838Z 32006KT 3SM -SN BR SCT006 BKN010 OVC021 01/00 A2987 RMK AO2 PK WND 34026/1808 SNB02 P0000 T00060000,0,6.0,0,4827.0,0,0,1,"BR,SN"
2026-04-23 18:36:00,SPECI KBZN 231836Z 33006KT 1 3/4SM R12/3000VP6000FT -SN BR FEW003 SCT008 OVC019 01/00 A2987 RMK AO2 PK WND 34026/1808 SNB02 P0000 T00060000,0,6.0,0,2816.0,0,0,1,"BR,SN"
2026-04-23 18:22:00,SPECI KBZN 231822Z 33011KT 3/4SM R12/3500VP6000FT -SN BR FEW007 BKN015 OVC028 01/M01 A2987 RMK AO2 PK WND 34026/1808 SNB02 P0000 T00061006,0,11.0,0,1207.0,0,0,1,"BR,SN"
2026-04-23 18:18:00,SPECI KBZN 231818Z 32012KT 1 1/4SM R12/3500VP6000FT -SN BR BKN017 BKN023 OVC028 01/M01 A2987 RMK AO2 PK WND 34026/1808 SNB02 P0000 T00061011,0,12.0,0,2011.0,0,0,1,"BR,SN"
2026-04-23 18:10:00,SPECI KBZN 231810Z 34017KT 2 1/2SM -SN SCT017 BKN028 OVC033 02/M01 A2986 RMK AO2 PK WND 34026/1808 SNB02 P0000 T00171011,0,17.0,0,4022.0,0,0,0,SN
2026-04-23 17:56:00,METAR KBZN 231756Z 34018KT 10SM BKN030 BKN038 OVC060 03/M02 A2984 RMK AO2 SLP118 60002 T00331017 10056 20028 55000,0,18.0,0,16090.0,0,0,0,
2026-04-23 16:56:00,METAR KBZN 231656Z VRB06KT 10SM SCT020 SCT028 05/M01 A2984 RMK AO2 SLP111 T00501006,0,6.0,0,16090.0,0,0,0,
2026-04-23 16:04:00,SPECI KBZN 231604Z 03009KT 10SM BKN021 BKN024 BKN035 04/00 A2984 RMK AO2 T00390000,0,9.0,0,16090.0,0,0,0,
2026-04-23 15:56:00,METAR KBZN 231556Z 36010KT 10SM SCT018 SCT024 BKN035 04/00 A2985 RMK AO2 SLP116 T00390000,0,10.0,0,16090.0,0,0,0,
2026-04-23 14:56:00,METAR KBZN 231456Z 29013G22KT 10SM BKN060 06/M02 A2985 RMK AO2 SLP112 60002 T00561017 53014,0,13.0,1,16090.0,0,0,0,
2026-04-23 13:56:00,METAR KBZN 231356Z 06003KT 10SM FEW035 BKN050 OVC065 04/03 A2983 RMK AO2 RAE20 SLP107 P0001 T00390028,0,3.0,0,16090.0,0,0,0,
2026-04-23 12:56:00,METAR KBZN 231256Z 07003KT 10SM -RA OVC034 03/02 A2981 RMK AO2 SLP097 P0001 T00280022,0,3.0,0,16090.0,0,0,0,-RA
2026-04-23 12:08:00,SPECI KBZN 231208Z 00000KT 10SM -RA SCT015 BKN039 OVC050 03/02 A2980 RMK AO2 P0000 T00280022,0,0.0,0,16090.0,0,0,0,-RA
2026-04-23 11:56:00,METAR KBZN 231156Z 29003KT 10SM -RA SCT016 BKN021 OVC034 03/02 A2980 RMK AO2 UPE22RAB1057 SLP086 P0001 60029 70033 T00280017 10039 20017 51006,0,3.0,0,16090.0,0,0,0,"-RA,UP"
2026-04-23 11:27:00,SPECI KBZN 231127Z 27005KT 10SM -RA FEW012 SCT016 OVC030 03/02 A2979 RMK AO2 UPE22RAB1057 P0000 T00280017,0,5.0,0,16090.0,0,0,0,"-RA,UP"
2026-04-23 10:56:00,METAR KBZN 231056Z AUTO 27005KT 10SM UP BKN012 OVC019 03/02 A2979 RMK AO2 RAE52UPB52 SLP085 P0004 T00280022,0,5.0,0,16090.0,0,0,0,"RA,UP"
2026-04-23 10:42:00,SPECI KBZN 231042Z AUTO 28008KT 8SM -RA BKN010 OVC017 03/02 A2979 RMK AO2 P0003 T00280017,0,8.0,0,12872.0,0,0,0,-RA
2026-04-23 09:56:00,METAR KBZN 230956Z AUTO 07003KT 10SM -RA BKN008 OVC016 02/02 A2978 RMK AO2 RAE0857B09UPB0857E09 SLP080 P0003 T00220017,0,3.0,0,16090.0,0,0,0,"-RA,RA"
2026-04-23 09:13:00,SPECI KBZN 230913Z AUTO 00000KT 7SM -RA BKN008 BKN015 OVC025 02/02 A2978 RMK AO2 RAE0857B09UPB0857E09 P0001 T00220022,0,0.0,0,11263.0,0,0,0,"-RA,RA"
2026-04-23 09:02:00,SPECI KBZN 230902Z AUTO 00000KT 10SM UP FEW006 BKN011 OVC027 03/02 A2978 RMK AO2 RAE0857UPB0857 P0000 T00280022,0,0.0,0,16090.0,0,0,0,"RA,UP"
2026-04-23 08:54:00,METAR KBZN 230854Z AUTO 13003KT 10SM -RA BKN008 BKN015 OVC022 02/02 A2978 RMK AO2 SLP073 P0004 60021 T00220017 51013,0,3.0,0,16090.0,0,0,0,-RA
2026-04-23 08:53:00,SPECI KBZN 230853Z AUTO 13004KT 9SM -RA BKN008 BKN015 OVC022 02/02 A2978 RMK AO2 P0004,0,4.0,0,14481.0,0,0,0,-RA
2026-04-23 07:56:00,METAR KBZN 230756Z AUTO 09005KT 8SM -RA BKN010 OVC013 02/01 A2977 RMK AO2 SLP074 P0008 T00170011,0,5.0,0,12872.0,0,0,0,-RA
2026-04-23 06:56:00,METAR KBZN 230656Z AUTO 08006KT 7SM -RA OVC014 02/02 A2976 RMK AO2 SLP069 P0009 T00220017 401830022,0,6.0,0,11263.0,0,0,0,-RA
2026-04-23 06:36:00,SPECI KBZN 230636Z AUTO 03004KT 7SM -RA BKN014 OVC019 03/02 A2975 RMK AO2 P0006 T00330022,0,4.0,0,11263.0,0,0,0,-RA
2026-04-23 05:56:00,METAR KBZN 230556Z 33007KT 6SM -RA BR FEW017 OVC022 04/03 A2973 RMK AO2 SLP058 P0004 60004 T00390028 10133 20039 53018,0,7.0,0,9654.0,0,0,1,"-RA,BR"
2026-04-23 05:35:00,SPECI KBZN 230535Z 34012G20KT 9SM -RA OVC028 04/03 A2972 RMK AO2 P0002 T00390028,0,12.0,1,14481.0,0,0,0,-RA
2026-04-23 04:56:00,METAR KBZN 230456Z 25010KT 10SM -RA SCT036 OVC043 06/03 A2970 RMK AO2 RAB03 SLP043 P0000 T00560028,0,10.0,0,16090.0,0,0,0,-RA
2026-04-23 03:56:00,METAR KBZN 230356Z 22010KT 10SM OVC047 06/02 A2968 RMK AO2 PK WND 25026/0258 RAE01B20E30 SLP040 P0000 T00560022,0,10.0,0,16090.0,0,0,0,RA
2026-04-23 02:56:00,METAR KBZN 230256Z 25014G25KT 10SM -RA OVC037 06/03 A2967 RMK AO2 PK WND 26027/0201 RAB16 SLP033 P0000 60000 T00560033 53031,0,14.0,1,16090.0,0,0,0,-RA
2026-04-23 01:56:00,METAR KBZN 230156Z 26017G27KT 10SM SCT041 BKN070 OVC100 07/02 A2964 RMK AO2 PK WND 28033/0123 WSHFT 0107 SLP023 T00720017,0,17.0,1,16090.0,0,0,0,
2026-04-23 01:25:00,SPECI KBZN 230125Z 28024G33KT 10SM BKN047 BKN070 OVC095 09/02 A2961 RMK AO2 PK WND 28033/0123 WSHFT 0107 T00890017,0,24.0,1,16090.0,0,0,0,
2026-04-23 00:56:00,METAR KBZN 230056Z 24018G29KT 10SM BKN065 OVC080 11/M01 A2960 RMK AO2 PK WND 23029/0048 SLP008 T01061006,0,18.0,1,16090.0,0,0,0,
2026-04-22 23:56:00,METAR KBZN 222356Z 24013G24KT 10SM OVC085 13/M01 A2957 RMK AO2 PK WND 23037/2303 SLP995 T01331011 10178 20122 53016,0,13.0,1,16090.0,0,0,0,
2026-04-22 22:56:00,METAR KBZN 222256Z 24022G33KT 10SM FEW075 BKN100 13/M02 A2954 RMK AO2 PK WND 23035/2245 SLP982 T01331022,0,22.0,1,16090.0,0,0,0,
2026-04-22 21:56:00,METAR KBZN 222156Z 23019G35KT 10SM CLR 16/M03 A2953 RMK AO2 PK WND 24039/2104 SLP974 T01561028,0,19.0,1,16090.0,0,0,0,
2026-04-22 20:56:00,METAR KBZN 222056Z 23027G35KT 10SM FEW085 SCT110 17/M05 A2951 RMK AO2 PK WND 23035/2056 SLP966 T01671050 55022,0,27.0,1,16090.0,0,0,0,
2026-04-22 19:56:00,METAR KBZN 221956Z 18021G30KT 10SM SCT080 17/M03 A2951 RMK AO2 PK WND 21033/1929 SLP962 T01721028,0,21.0,1,16090.0,0,0,0,
2026-04-22 18:56:00,METAR KBZN 221856Z 17014G25KT 10SM FEW085 16/M03 A2956 RMK AO2 PK WND 16031/1829 SLP985 T01611028,0,14.0,1,16090.0,0,0,0,
2026-04-22 17:56:00,METAR KBZN 221756Z 16018G25KT 10SM CLR 16/M02 A2959 RMK AO2 PK WND 17032/1724 SLP990 T01611022 10183 20072 50012,0,18.0,1,16090.0,0,0,0,
2026-04-22 16:56:00,METAR KBZN 221656Z 17019G28KT 10SM CLR 16/M02 A2959 RMK AO2 PK WND 18038/1621 WSHFT 1609 SLP994 T01611017,0,19.0,1,16090.0,0,0,0,
2026-04-22 16:24:00,SPECI KBZN 221624Z 18028G38KT 9SM FEW120 16/M02 A2958 RMK AO2 PK WND 18038/1621 WSHFT 1609 T01611017,0,28.0,1,14481.0,0,0,0,
2026-04-22 15:56:00,METAR KBZN 221556Z 22017G33KT 10SM BKN120 14/00 A2958 RMK AO2 PK WND 24034/1523 SLP992 T01440000,0,17.0,1,16090.0,0,0,0,
2026-04-22 15:22:00,SPECI KBZN 221522Z 26019G29KT 10SM SCT120 18/M02 A2955 RMK AO2 PK WND 24029/1522 T01781017,0,19.0,1,16090.0,0,0,0,
2026-04-22 14:56:00,METAR KBZN 221456Z 04003KT 10SM CLR 17/04 A2955 RMK AO2 SLP979 T01670039 57001,0,3.0,0,16090.0,0,0,0,
2026-04-22 13:56:00,METAR KBZN 221356Z 13004KT 10SM FEW120 14/02 A2955 RMK AO2 SLP977 T01390017,0,4.0,0,16090.0,0,0,0,
2026-04-22 12:56:00,METAR KBZN 221256Z 21007KT 10SM CLR 11/M02 A2955 RMK AO2 SLP975 T01111017,0,7.0,0,16090.0,0,0,0,
2026-04-22 11:56:00,METAR KBZN 221156Z 20008KT 10SM SCT120 10/00 A2955 RMK AO2 SLP977 T01000000 10150 20083 56009,0,8.0,0,16090.0,0,0,0,
2026-04-22 10:56:00,METAR KBZN 221056Z AUTO 15013KT 10SM CLR 12/01 A2955 RMK AO2 SLP972 T01220006,0,13.0,0,16090.0,0,0,0,
2026-04-22 09:56:00,METAR KBZN 220956Z AUTO 14012KT 10SM CLR 12/02 A2957 RMK AO2 SLP979 T01170017,0,12.0,0,16090.0,0,0,0,
2026-04-22 08:56:00,METAR KBZN 220856Z AUTO 15010KT 10SM CLR 13/01 A2958 RMK AO2 SLP979 T01280011 56019,0,10.0,0,16090.0,0,0,0,
2026-04-22 07:56:00,METAR KBZN 220756Z AUTO 14014KT 10SM CLR 15/01 A2960 RMK AO2 SLP982 T01500011,0,14.0,0,16090.0,0,0,0,
2026-04-22 06:56:00,METAR KBZN 220656Z AUTO 19008KT 10SM CLR 12/02 A2961 RMK AO2 SLP994 T01220017 402440006,0,8.0,0,16090.0,0,0,0,
2026-04-22 05:56:00,METAR KBZN 220556Z 17012KT 10SM CLR 14/01 A2965 RMK AO2 SLP007 T01440006 10217 20089 58010,0,12.0,0,16090.0,0,0,0,
2026-04-22 04:56:00,METAR KBZN 220456Z 15008KT 10SM FEW120 12/02 A2966 RMK AO2 SLP016 T01220022,0,8.0,0,16090.0,0,0,0,
2026-04-22 03:56:00,METAR KBZN 220356Z 19005KT 10SM CLR 13/03 A2968 RMK AO2 SLP026 T01330033,0,5.0,0,16090.0,0,0,0,
2026-04-22 02:56:00,METAR KBZN 220256Z 12007KT 10SM CLR 12/04 A2968 RMK AO2 SLP035 T01220039 56015,0,7.0,0,16090.0,0,0,0,
2026-04-22 01:56:00,METAR KBZN 220156Z 07005KT 10SM CLR 17/04 A2970 RMK AO2 SLP041 T01670039,0,5.0,0,16090.0,0,0,0,
2026-04-22 00:56:00,METAR KBZN 220056Z 16004KT 10SM CLR 21/00 A2971 RMK AO2 SLP045 T02060000,0,4.0,0,16090.0,0,0,0,
2026-04-21 23:56:00,METAR KBZN 212356Z 18006KT 10SM CLR 21/01 A2974 RMK AO2 SLP051 T02110011 10244 20189 56013,0,6.0,0,16090.0,0,0,0,
2026-04-21 22:56:00,METAR KBZN 212256Z 18013KT 10SM CLR 23/M03 A2975 RMK AO2 SLP053 T02281033,0,13.0,0,16090.0,0,0,0,
2026-04-21 21:56:00,METAR KBZN 212156Z 17014KT 10SM CLR 24/M03 A2976 RMK AO2 PK WND 17026/2120 SLP049 T02391028,0,14.0,0,16090.0,0,0,0,
2026-04-21 20:56:00,METAR KBZN 212056Z 18009KT 10SM CLR 24/00 A2978 RMK AO2 SLP059 T02440000 56027,0,9.0,0,16090.0,0,0,0,
2026-04-21 19:56:00,METAR KBZN 211956Z 00000KT 10SM CLR 23/01 A2980 RMK AO2 SLP068 T02330006,0,0.0,0,16090.0,0,0,0,
2026-04-21 18:56:00,METAR KBZN 211856Z VRB03KT 10SM CLR 22/00 A2984 RMK AO2 SLP074 T02170000,0,3.0,0,16090.0,0,0,0,
2026-04-21 17:56:00,METAR KBZN 211756Z 35003KT 10SM CLR 19/M01 A2987 RMK AO2 SLP094 T01891006 10189 20006 56011 $,0,3.0,0,16090.0,0,0,0,
2026-04-21 16:56:00,METAR KBZN 211656Z 04003KT CLR 17/00 A2988 RMK AO2 SLP102 T01720000 $,0,3.0,0,,0,0,0,
2026-04-21 15:56:00,METAR KBZN 211556Z 00000KT 10SM CLR 14/00 A2989 RMK AO2 SLP101 T01440000,0,0.0,0,16090.0,0,0,0,
2026-04-21 14:56:00,METAR KBZN 211456Z 20004KT 10SM CLR 11/M02 A2990 RMK AO2 SLP112 T01061017 58001,0,4.0,0,16090.0,0,0,0,
2026-04-21 13:56:00,METAR KBZN 211356Z 00000KT 10SM CLR 06/01 A2991 RMK AO2 SLP112 T00560006,0,0.0,0,16090.0,0,0,0,
2026-04-21 12:56:00,METAR KBZN 211256Z 15003KT 10SM CLR 02/M03 A2991 RMK AO2 SLP114 T00221033,0,3.0,0,16090.0,0,0,0,
2026-04-21 11:56:00,METAR KBZN 211156Z 00000KT 10SM CLR 03/M03 A2991 RMK AO2 SLP109 T00331028 10100 20022 51003,0,0.0,0,16090.0,0,0,0,
2026-04-21 11:25:00,SPECI KBZN 211125Z 14008KT 10SM CLR 03/M03 A2991 RMK AO2 T00331028,0,8.0,0,16090.0,0,0,0,
2026-04-21 10:56:00,METAR KBZN 211056Z AUTO 15011KT 10SM CLR 03/M02 A2991 RMK AO2 SLP111 T00281022,0,11.0,0,16090.0,0,0,0,
2026-04-21 09:56:00,METAR KBZN 210956Z AUTO 14005KT 10SM CLR 07/M04 A2991 RMK AO2 SLP103 T00671044,0,5.0,0,16090.0,0,0,0,
2026-04-21 08:56:00,METAR KBZN 210856Z AUTO 15005KT 10SM CLR 04/M02 A2990 RMK AO2 SLP106 T00441022 51006,0,5.0,0,16090.0,0,0,0,
2026-04-21 07:56:00,METAR KBZN 210756Z AUTO 13003KT 10SM CLR 05/M02 A2990 RMK AO2 SLP105 T00501022,0,3.0,0,16090.0,0,0,0,
2026-04-21 06:56:00,METAR KBZN 210656Z AUTO VRB03KT 10SM CLR 10/M03 A2989 RMK AO2 SLP096 T01001033 402391006,0,3.0,0,16090.0,0,0,0,
2026-04-21 05:56:00,METAR KBZN 210556Z 15010KT 10SM CLR 07/M01 A2988 RMK AO2 SLP100 T00721011 10239 20061 50006,0,10.0,0,16090.0,0,0,0,
2026-04-21 04:56:00,METAR KBZN 210456Z 12008KT 10SM CLR 07/00 A2988 RMK AO2 SLP104 T00670000,0,8.0,0,16090.0,0,0,0,
2026-04-21 03:56:00,METAR KBZN 210356Z 14005KT 10SM CLR 12/M02 A2988 RMK AO2 SLP102 T01221022,0,5.0,0,16090.0,0,0,0,
2026-04-21 02:56:00,METAR KBZN 210256Z 13006KT 10SM CLR 12/00 A2986 RMK AO2 SLP100 T01220000 53003,0,6.0,0,16090.0,0,0,0,
2026-04-21 01:56:00,METAR KBZN 210156Z 18007KT 10SM CLR 19/M04 A2984 RMK AO2 SLP088 T01941044,0,7.0,0,16090.0,0,0,0,
2026-04-21 00:56:00,METAR KBZN 210056Z 12004KT 10SM CLR 21/01 A2984 RMK AO2 SLP095 T02110006,0,4.0,0,16090.0,0,0,0,
2026-04-20 23:56:00,METAR KBZN 202356Z 04004KT 10SM CLR 23/M06 A2985 RMK AO2 SLP089 T02331056 10233 20178 56014,0,4.0,0,16090.0,0,0,0,
2026-04-20 22:56:00,METAR KBZN 202256Z VRB03KT 10SM CLR 23/M06 A2985 RMK AO2 SLP091 T02281061,0,3.0,0,16090.0,0,0,0,
2026-04-20 21:56:00,METAR KBZN 202156Z VRB04KT 10SM CLR 23/M04 A2988 RMK AO2 SLP098 T02281039,0,4.0,0,16090.0,0,0,0,
2026-04-20 20:56:00,METAR KBZN 202056Z VRB05KT 10SM CLR 22/M04 A2989 RMK AO2 SLP101 T02221039 56018,0,5.0,0,16090.0,0,0,0,
2026-04-20 19:56:00,METAR KBZN 201956Z VRB06G14KT 10SM CLR 22/M04 A2991 RMK AO2 SLP109 T02171044,0,6.0,1,16090.0,0,0,0,
2026-04-20 18:56:00,METAR KBZN 201856Z VRB03KT 10SM CLR 20/M04 A2993 RMK AO2 SLP119 T02001044,0,3.0,0,16090.0,0,0,0,
2026-04-20 17:56:00,METAR KBZN 201756Z 08003KT 10SM CLR 18/M03 A2996 RMK AO2 SLP129 T01831028 10183 21006 58010,0,3.0,0,16090.0,0,0,0,
2026-04-20 16:56:00,METAR KBZN 201656Z 00000KT 10SM CLR 16/M01 A2997 RMK AO2 SLP132 T01611011,0,0.0,0,16090.0,0,0,0,
2026-04-20 15:56:00,METAR KBZN 201556Z 00000KT 10SM CLR 12/M02 A2998 RMK AO2 SLP142 T01221017,0,0.0,0,16090.0,0,0,0,
2026-04-20 14:56:00,METAR KBZN 201456Z 00000KT 10SM CLR 09/M01 A2999 RMK AO2 SLP153 T00891006 53003,0,0.0,0,16090.0,0,0,0,
2026-04-20 13:56:00,METAR KBZN 201356Z 11003KT 10SM CLR 05/M01 A2999 RMK AO2 SLP146 T00501006,0,3.0,0,16090.0,0,0,0,
2026-04-20 12:56:00,METAR KBZN 201256Z 14007KT 10SM CLR 00/M03 A2998 RMK AO2 SLP150 T00001028,0,7.0,0,16090.0,0,0,0,
2026-04-20 11:56:00,METAR KBZN 201156Z 00000KT 10SM CLR 02/M02 A2998 RMK AO2 SLP143 T00221022 10078 20011 55002,0,0.0,0,16090.0,0,0,0,
2026-04-20 11:22:00,SPECI KBZN 201122Z 13004KT 10SM CLR 02/M02 A2998 RMK AO2 T00221022,0,4.0,0,16090.0,0,0,0,
2026-04-20 10:56:00,METAR KBZN 201056Z AUTO 14008KT 10SM CLR 02/M02 A2998 RMK AO2 SLP142 T00221017,0,8.0,0,16090.0,0,0,0,
2026-04-20 09:56:00,METAR KBZN 200956Z AUTO 13006KT 10SM CLR 02/M02 A2998 RMK AO2 SLP144 T00221022,0,6.0,0,16090.0,0,0,0,
2026-04-20 08:56:00,METAR KBZN 200856Z AUTO 16003KT 10SM CLR 06/M01 A2998 RMK AO2 SLP140 T00561006 53008,0,3.0,0,16090.0,0,0,0,
2026-04-20 07:56:00,METAR KBZN 200756Z AUTO 18003KT 10SM CLR 04/M01 A2997 RMK AO2 SLP139 T00441011,0,3.0,0,16090.0,0,0,0,
2026-04-20 06:56:00,METAR KBZN 200656Z AUTO 00000KT 10SM CLR 05/M01 A2996 RMK AO2 SLP138 T00501006 401941039,0,0.0,0,16090.0,0,0,0,
2026-04-20 05:56:00,METAR KBZN 200556Z 14008KT 10SM CLR 05/M01 A2996 RMK AO2 SLP142 T00501006 10189 20050 51005,0,8.0,0,16090.0,0,0,0,
2026-04-20 04:56:00,METAR KBZN 200456Z 19005KT 10SM CLR 09/M01 A2995 RMK AO2 SLP136 T00941006,0,5.0,0,16090.0,0,0,0,
2026-04-20 03:56:00,METAR KBZN 200356Z 16008KT 10SM CLR 07/01 A2995 RMK AO2 SLP145 T00720006,0,8.0,0,16090.0,0,0,0,
2026-04-20 02:56:00,METAR KBZN 200256Z 13009KT 10SM CLR 08/02 A2994 RMK AO2 SLP144 T00780017 55006,0,9.0,0,16090.0,0,0,0,
2026-04-20 01:56:00,METAR KBZN 200156Z 09004KT 9SM CLR 16/M02 A2994 RMK AO2 SLP136 T01561017,0,4.0,0,14481.0,0,0,0,
2026-04-20 00:56:00,METAR KBZN 200056Z 06004KT 10SM CLR 17/M02 A2995 RMK AO2 SLP143 T01671022,0,4.0,0,16090.0,0,0,0,
2026-04-19 23:56:00,METAR KBZN 192356Z 00000KT 10SM CLR 19/M05 A2996 RMK AO2 SLP143 T01891050 10194 20117 56020,0,0.0,0,16090.0,0,0,0,
2026-04-19 22:56:00,METAR KBZN 192256Z 03005KT 10SM CLR 19/M06 A2998 RMK AO2 SLP147 T01891056,0,5.0,0,16090.0,0,0,0,
2026-04-19 21:56:00,METAR KBZN 192156Z 08004KT 10SM CLR 18/M05 A3001 RMK AO2 SLP160 T01781050,0,4.0,0,16090.0,0,0,0,
2026-04-19 20:56:00,METAR KBZN 192056Z 07004KT 10SM CLR 17/M06 A3003 RMK AO2 SLP168 T01721056 56023,0,4.0,0,16090.0,0,0,0,
2026-04-19 19:56:00,METAR KBZN 191956Z 04004KT 10SM CLR 16/M06 A3005 RMK AO2 SLP177 T01611056,0,4.0,0,16090.0,0,0,0,
2026-04-19 18:56:00,METAR KBZN 191856Z VRB04KT 10SM CLR 14/M03 A3008 RMK AO2 SLP186 T01441028,0,4.0,0,16090.0,0,0,0,
2026-04-19 17:56:00,METAR KBZN 191756Z VRB04KT 10SM CLR 12/M03 A3010 RMK AO2 SLP201 T01171028 10117 21039 58006,0,4.0,0,16090.0,0,0,0,
2026-04-19 16:56:00,METAR KBZN 191656Z 00000KT 10SM CLR 09/M04 A3011 RMK AO2 SLP206 T00891039,0,0.0,0,16090.0,0,0,0,
2026-04-19 15:56:00,METAR KBZN 191556Z 00000KT 10SM CLR 06/M03 A3012 RMK AO2 SLP209 T00611028,0,0.0,0,16090.0,0,0,0,
2026-04-19 14:56:00,METAR KBZN 191456Z 00000KT 10SM CLR 04/M04 A3013 RMK AO2 SLP214 T00391039 51003,0,0.0,0,16090.0,0,0,0,
2026-04-19 13:56:00,METAR KBZN 191356Z 13006KT 10SM CLR 01/M04 A3012 RMK AO2 SLP209 T00061039,0,6.0,0,16090.0,0,0,0,
2026-04-19 12:56:00,METAR KBZN 191256Z 00000KT 10SM CLR M03/M06 A3012 RMK AO2 SLP212 T10281061,0,0.0,0,16090.0,0,0,0,
2026-04-19 11:56:00,METAR KBZN 191156Z 13003KT 10SM CLR M03/M06 A3011 RMK AO2 SLP210 T10281061 10011 21039 50001,0,3.0,0,16090.0,0,0,0,
2026-04-19 10:56:00,METAR KBZN 191056Z AUTO 00000KT 10SM CLR M01/M06 A3012 RMK AO2 SLP210 T10111056,0,0.0,0,16090.0,0,0,0,
2026-04-19 09:56:00,METAR KBZN 190956Z AUTO 15007KT 10SM CLR M03/M06 A3011 RMK AO2 SLP211 T10281056,0,7.0,0,16090.0,0,0,0,
2026-04-19 08:56:00,METAR KBZN 190856Z AUTO 15005KT 10SM CLR M02/M05 A3011 RMK AO2 SLP213 T10221050 51006,0,5.0,0,16090.0,0,0,0,
2026-04-19 07:56:00,METAR KBZN 190756Z AUTO 14007KT 10SM CLR M01/M05 A3011 RMK AO2 SLP216 T10111050,0,7.0,0,16090.0,0,0,0,
2026-04-19 06:56:00,METAR KBZN 190656Z AUTO 00000KT 10SM CLR 01/M03 A3010 RMK AO2 SLP213 T00111033 401221089,0,0.0,0,16090.0,0,0,0,
2026-04-19 05:56:00,METAR KBZN 190556Z 13007KT 10SM CLR 00/M03 A3009 RMK AO2 SLP215 T00001033 10122 20000 50004,0,7.0,0,16090.0,0,0,0,
2026-04-19 04:56:00,METAR KBZN 190456Z 11005KT 10SM CLR 02/M02 A3009 RMK AO2 SLP214 T00221017,0,5.0,0,16090.0,0,0,0,
2026-04-19 03:56:00,METAR KBZN 190356Z 16008KT 10SM CLR 04/M02 A3008 RMK AO2 SLP211 T00441022,0,8.0,0,16090.0,0,0,0,
2026-04-19 02:56:00,METAR KBZN 190256Z 15007KT 10SM CLR 04/M01 A3008 RMK AO2 SLP213 T00441011 55008,0,7.0,0,16090.0,0,0,0,
2026-04-19 01:56:00,METAR KBZN 190156Z 17006KT 10SM CLR 10/M01 A3007 RMK AO2 SLP205 T01001011,0,6.0,0,16090.0,0,0,0,
2026-04-19 00:56:00,METAR KBZN 190056Z 12005KT 10SM CLR 12/M04 A3008 RMK AO2 SLP204 T01171039,0,5.0,0,16090.0,0,0,0,
2026-04-18 23:56:00,METAR KBZN 182356Z 13006KT 10SM CLR 12/M06 A3010 RMK AO2 SLP211 T01171056 10122 20017 56019,0,6.0,0,16090.0,0,0,0,
2026-04-18 22:56:00,METAR KBZN 182256Z 08007KT 10SM CLR 11/M04 A3012 RMK AO2 SLP224 T01111044,0,7.0,0,16090.0,0,0,0,
2026-04-18 21:56:00,METAR KBZN 182156Z 14005KT 10SM CLR 10/M07 A3014 RMK AO2 SLP229 T01001067,0,5.0,0,16090.0,0,0,0,
2026-04-18 20:56:00,METAR KBZN 182056Z 07004KT 10SM CLR 08/M06 A3017 RMK AO2 SLP242 T00831061 56017,0,4.0,0,16090.0,0,0,0,
2026-04-18 19:56:00,METAR KBZN 181956Z 07003KT 10SM CLR 06/M06 A3018 RMK AO2 SLP245 T00611056,0,3.0,0,16090.0,0,0,0,
2026-04-18 18:56:00,METAR KBZN 181856Z 06003KT 10SM CLR 04/M06 A3020 RMK AO2 SLP256 T00441061,0,3.0,0,16090.0,0,0,0,
2026-04-18 17:56:00,METAR KBZN 181756Z 00000KT 10SM CLR 02/M07 A3022 RMK AO2 SLP269 T00171067 10022 21089 58003,0,0.0,0,16090.0,0,0,0,
2026-04-18 16:56:00,METAR KBZN 181656Z 00000KT 10SM CLR 01/M06 A3023 RMK AO2 SLP274 T00061061,0,0.0,0,16090.0,0,0,0,
2026-04-18 15:56:00,METAR KBZN 181556Z 00000KT 10SM CLR M02/M07 A3023 RMK AO2 SLP274 T10171067,0,0.0,0,16090.0,0,0,0,
2026-04-18 14:56:00,METAR KBZN 181456Z 18005KT 10SM CLR M04/M08 A3023 RMK AO2 SLP277 T10391083 53006,0,5.0,0,16090.0,0,0,0,
2026-04-18 13:56:00,METAR KBZN 181356Z 16004KT 10SM CLR M07/M11 A3022 RMK AO2 SLP283 T10671106,0,4.0,0,16090.0,0,0,0,
2026-04-18 12:56:00,METAR KBZN 181256Z 17006KT 10SM CLR M06/M09 A3022 RMK AO2 SLP273 T10561089,0,6.0,0,16090.0,0,0,0,
2026-04-18 11:56:00,METAR KBZN 181156Z 15007KT 10SM CLR M05/M08 A3021 RMK AO2 SLP274 70002 T10501083 11022 21089 53007,0,7.0,0,16090.0,0,0,0,
2026-04-18 10:56:00,METAR KBZN 181056Z AUTO 12005KT 10SM CLR M08/M09 A3020 RMK AO2 SLP276 T10781094,0,5.0,0,16090.0,0,0,0,
2026-04-18 09:56:00,METAR KBZN 180956Z AUTO 00000KT 10SM CLR M06/M08 A3019 RMK AO2 SLP267 T10561078,0,0.0,0,16090.0,0,0,0,
2026-04-18 08:56:00,METAR KBZN 180856Z AUTO 00000KT 10SM CLR M06/M07 A3019 RMK AO2 SLP266 T10611067 50005,0,0.0,0,16090.0,0,0,0,
2026-04-18 07:56:00,METAR KBZN 180756Z AUTO 18003KT 10SM CLR M03/M06 A3019 RMK AO2 SLP262 T10331056,0,3.0,0,16090.0,0,0,0,
2026-04-18 06:56:00,METAR KBZN 180656Z AUTO 16006KT 10SM OVC075 M03/M06 A3019 RMK AO2 SLP263 T10331056 400221039,0,6.0,0,16090.0,0,0,0,
2026-04-18 05:56:00,METAR KBZN 180556Z 00000KT 10SM BKN075 M03/M04 A3017 RMK AO2 SLP251 T10281044 10011 21039 51012,0,0.0,0,16090.0,0,0,0,
2026-04-18 04:56:00,METAR KBZN 180456Z 00000KT 10SM FEW085 M03/M04 A3016 RMK AO2 SLP250 T10281044,0,0.0,0,16090.0,0,0,0,
2026-04-18 03:56:00,METAR KBZN 180356Z 00000KT 10SM OVC075 M01/M03 A3015 RMK AO2 SLP244 T10061033,0,0.0,0,16090.0,0,0,0,
2026-04-18 02:56:00,METAR KBZN 180256Z 00000KT 10SM FEW070 OVC095 00/M04 A3013 RMK AO2 SLP237 T00001044 53006,0,0.0,0,16090.0,0,0,0,
2026-04-18 01:56:00,METAR KBZN 180156Z 12005KT 10SM FEW060 BKN095 M01/M04 A3011 RMK AO2 SLP235 T10111039,0,5.0,0,16090.0,0,0,0,
2026-04-18 00:56:00,METAR KBZN 180056Z 11003KT 10SM SCT060 BKN075 01/M04 A3012 RMK AO2 SLP232 T00111039,0,3.0,0,16090.0,0,0,0,
2026-04-17 23:56:00,METAR KBZN 172356Z 07012KT 10SM FEW017 SCT032 BKN095 M01/M02 A3011 RMK AO2 SNE47 SLP235 P0000 60002 T10061022 10022 21017 58005,0,12.0,0,16090.0,0,0,0,
2026-04-17 23:46:00,SPECI KBZN 172346Z 09011KT 10SM -SN SCT021 SCT032 BKN070 M01/M02 A3011 RMK AO2 P0000 T10061022,0,11.0,0,16090.0,0,0,0,SN
2026-04-17 23:26:00,SPECI KBZN 172326Z 07011KT 3SM -SN BR BKN027 BKN035 OVC042 M01/M02 A3012 RMK AO2 P0000 T10061022,0,11.0,0,4827.0,0,0,1,"BR,SN"
2026-04-17 23:18:00,SPECI KBZN 172318Z 06008KT 2SM -SN BR BKN027 BKN036 OVC043 M01/M03 A3013 RMK AO2 P0000 T10061028,0,8.0,0,3218.0,0,0,1,"BR,SN"
2026-04-17 23:14:00,SPECI KBZN 172314Z 06008KT 1 1/4SM -SN BR BKN027 BKN036 OVC043 M01/M03 A3013 RMK AO2 P0000 T10061028,0,8.0,0,2011.0,0,0,1,"BR,SN"
2026-04-17 23:04:00,SPECI KBZN 172304Z 06010KT 1 3/4SM R12/5500VP6000FT -SN BKN027 BKN034 OVC043 00/M03 A3013 RMK AO2 P0000 T00001033,0,10.0,0,2816.0,0,0,0,SN
2026-04-17 22:56:00,METAR KBZN 172256Z 05008KT 6SM -SN BKN035 BKN043 OVC055 00/M03 A3013 RMK AO2 SNB32 SLP239 P0000 T00001033,0,8.0,0,9654.0,0,0,0,SN
2026-04-17 21:56:00,METAR KBZN 172156Z 07010KT 10SM SCT055 SCT070 BKN110 00/M02 A3012 RMK AO2 SNB07E40 SLP235 P0000 T00001022,0,10.0,0,16090.0,0,0,0,SN
2026-04-17 20:56:00,METAR KBZN 172056Z 13006KT 10SM FEW016 BKN055 BKN070 00/M03 A3013 RMK AO2 SNE16 SLP239 P0000 60002 T00001033 51008,0,6.0,0,16090.0,0,0,0,
2026-04-17 20:41:00,SPECI KBZN 172041Z 15009KT 10SM SCT011 BKN030 00/M02 A3012 RMK AO2 SNE16 P0000 T00001022,0,9.0,0,16090.0,0,0,0,
2026-04-17 20:08:00,SPECI KBZN 172008Z 20009KT 5SM -SN BR BKN011 BKN015 OVC023 00/M02 A3012 RMK AO2 P0000 T00001022,0,9.0,0,8045.0,0,0,1,"BR,SN"
2026-04-17 19:56:00,METAR KBZN 171956Z 17007KT 1SM R12/4500VP6000FT -SN BR SCT011 BKN016 OVC036 M01/M02 A3012 RMK AO2 SLP236 P0001 T10061022,0,7.0,0,1609.0,0,0,1,"BR,SN"
2026-04-17 19:50:00,SPECI KBZN 171950Z 15007KT 1SM R12/4500VP6000FT -SN BR SCT013 BKN023 OVC031 00/M02 A3012 RMK AO2 P0001,0,7.0,0,1609.0,0,0,1,"BR,SN"
2026-04-17 19:42:00,SPECI KBZN 171942Z 11005KT 5SM -SN BR FEW016 BKN023 OVC042 M01/M03 A3012 RMK AO2 P0001 T10061028,0,5.0,0,8045.0,0,0,1,"BR,SN"
2026-04-17 19:22:00,SPECI KBZN 171922Z VRB05KT 1SM R12/5500VP6000FT -SN BR BKN022 OVC029 M01/M03 A3012 RMK AO2 P0001 T10061028,0,5.0,0,1609.0,0,0,1,"BR,SN"
2026-04-17 19:10:00,SPECI KBZN 171910Z 11006KT 1 3/4SM -SN BR BKN024 BKN030 OVC035 M01/M03 A3013 RMK AO2 P0000 T10111028,0,6.0,0,2816.0,0,0,1,"BR,SN"
2026-04-17 18:56:00,METAR KBZN 171856Z 06006KT 2SM R12/6000VP6000FT -SN BR BKN020 BKN030 OVC037 M01/M03 A3013 RMK AO2 SNB14 SLP238 P0001 T10111028,0,6.0,0,3218.0,0,0,1,"BR,SN"
2026-04-17 18:47:00,SPECI KBZN 171847Z 05006KT 1 1/2SM -SN BR FEW009 BKN018 OVC029 M02/M03 A3013 RMK AO2 SNB14 P0001 T10171028,0,6.0,0,2414.0,0,0,1,"BR,SN"
2026-04-17 18:39:00,SPECI KBZN 171839Z 03005KT 3/4SM R12/2800VP6000FT -SN BR BKN012 BKN021 OVC029 M02/M03 A3013 RMK AO2 SNB14 P0000 T10171028,0,5.0,0,1207.0,0,0,1,"BR,SN"
2026-04-17 18:29:00,SPECI KBZN 171829Z 01009KT 3/4SM R12/2800VP6000FT -SN BR FEW009 BKN018 OVC035 M01/M03 A3013 RMK AO2 SNB14 P0000 T10111033,0,9.0,0,1207.0,0,0,1,"BR,SN"
2026-04-17 18:21:00,SPECI KBZN 171821Z 34009G22KT 1 3/4SM R12/2600VP6000FT -SN BKN022 BKN035 OVC050 M01/M04 A3012 RMK AO2 SNB14 P0000 T10061044,0,9.0,1,2816.0,0,0,0,SN
2026-04-17 18:14:00,SPECI KBZN 171814Z 28010G22KT 1 3/4SM R12/2600VP6000FT -SN BKN033 OVC050 01/M07 A3012 RMK AO2 SNB14 P0000 T00111067,0,10.0,1,2816.0,0,0,0,SN
2026-04-17 17:56:00,METAR KBZN 171756Z 23012KT 10SM SCT049 SCT060 02/M08 A3010 RMK AO2 SLP227 T00171078 10022 21033 50002,0,12.0,0,16090.0,0,0,0,
2026-04-17 16:56:00,METAR KBZN 171656Z 13007KT 10SM BKN049 OVC060 00/M08 A3011 RMK AO2 SLP232 T00001078,0,7.0,0,16090.0,0,0,0,
2026-04-17 15:56:00,METAR KBZN 171556Z 15004KT 10SM OVC055 M01/M09 A3011 RMK AO2 SLP240 T10111089,0,4.0,0,16090.0,0,0,0,
2026-04-17 14:56:00,METAR KBZN 171456Z 07004KT 10SM BKN050 OVC065 M02/M09 A3010 RMK AO2 SLP233 T10171089 53012,0,4.0,0,16090.0,0,0,0,
2026-04-17 13:56:00,METAR KBZN 171356Z 25009KT 10SM OVC080 M02/M09 A3008 RMK AO2 SLP224 T10221089,0,9.0,0,16090.0,0,0,0,
2026-04-17 12:56:00,METAR KBZN 171256Z 23003KT 10SM OVC060 M03/M07 A3007 RMK AO2 SLP218 T10281072,0,3.0,0,16090.0,0,0,0,
2026-04-17 11:56:00,METAR KBZN 171156Z 00000KT 10SM BKN065 OVC090 M03/M08 A3006 RMK AO2 SLP213 70009 T10281078 11017 21039 51008,0,0.0,0,16090.0,0,0,0,
2026-04-17 10:56:00,METAR KBZN 171056Z AUTO 00000KT 10SM OVC060 M04/M08 A3005 RMK AO2 SLP212 T10391078,0,0.0,0,16090.0,0,0,0,
2026-04-17 09:56:00,METAR KBZN 170956Z AUTO 00000KT 10SM SCT050 BKN075 OVC100 M02/M08 A3004 RMK AO2 SLP207 T10221078,0,0.0,0,16090.0,0,0,0,
2026-04-17 08:56:00,METAR KBZN 170856Z AUTO 22004KT 10SM OVC065 M02/M07 A3003 RMK AO2 SLP203 T10221072 50003,0,4.0,0,16090.0,0,0,0,
2026-04-17 07:56:00,METAR KBZN 170756Z AUTO 17005KT 10SM OVC060 M02/M08 A3003 RMK AO2 SLP203 T10221078,0,5.0,0,16090.0,0,0,0,
2026-04-17 06:56:00,METAR KBZN 170656Z AUTO 00000KT 10SM OVC065 M02/M07 A3002 RMK AO2 SLP201 T10171072 400111067,0,0.0,0,16090.0,0,0,0,
2026-04-17 05:56:00,METAR KBZN 170556Z 21004KT 10SM SCT070 BKN085 M03/M08 A3002 RMK AO2 SLP199 60004 T10331078 10000 21067 51012,0,4.0,0,16090.0,0,0,0,
2026-04-17 04:56:00,METAR KBZN 170456Z 19006KT 10SM BKN080 M03/M06 A3001 RMK AO2 SLP202 T10331061,0,6.0,0,16090.0,0,0,0,
2026-04-17 03:56:00,METAR KBZN 170356Z 13007KT 10SM FEW090 M06/M07 A2999 RMK AO2 SLP203 T10561072,0,7.0,0,16090.0,0,0,0,
2026-04-17 02:56:00,METAR KBZN 170256Z 13006KT 10SM SCT070 SCT085 M04/M06 A2998 RMK AO2 SNB08E30 SLP194 P0004 60004 T10391056 53025,0,6.0,0,16090.0,0,0,0,SN
2026-04-17 01:56:00,METAR KBZN 170156Z 13006KT 10SM FEW045 FEW060 BKN095 M03/M06 A2994 RMK AO2 SLP177 T10281061,0,6.0,0,16090.0,0,0,0,
2026-04-17 00:56:00,METAR KBZN 170056Z 17010KT 10SM FEW120 M01/M04 A2991 RMK AO2 SLP161 T10111044,0,10.0,0,16090.0,0,0,0,
2026-04-16 23:56:00,METAR KBZN 162356Z 11005KT 10SM SCT055 BKN070 OVC085 00/M05 A2989 RMK AO2 SLP153 60002 T00001050 10006 21022 53004,0,5.0,0,16090.0,0,0,0,
2026-04-16 22:56:00,METAR KBZN 162256Z 16004KT 10SM FEW039 FEW070 BKN090 00/M06 A2988 RMK AO2 SLP148 T00001056,0,4.0,0,16090.0,0,0,0,
2026-04-16 21:56:00,METAR KBZN 162156Z 16009KT 10SM BKN110 M01/M05 A2987 RMK AO2 SLP146 T10061050,0,9.0,0,16090.0,0,0,0,
2026-04-16 20:56:00,METAR KBZN 162056Z 21003KT 10SM BKN065 BKN085 M01/M04 A2988 RMK AO2 SLP147 60002 T10061039 53011,0,3.0,0,16090.0,0,0,0,
2026-04-16 19:56:00,METAR KBZN 161956Z 21004KT 10SM FEW029 SCT070 SCT090 M01/M04 A2986 RMK AO2 SLP138 T10061039,0,4.0,0,16090.0,0,0,0,
2026-04-16 18:56:00,METAR KBZN 161856Z 20009KT 10SM BKN090 M01/M03 A2985 RMK AO2 SLP137 P0002 T10111033,0,9.0,0,16090.0,0,0,0,
2026-04-16 17:56:00,METAR KBZN 161756Z 17006KT 10SM BKN038 OVC048 01/M01 A2984 RMK AO2 SNE43 SLP132 P0002 60003 T00111011 10011 21028 50010,0,6.0,0,16090.0,0,0,0,
2026-04-16 17:37:00,SPECI KBZN 161737Z 17006KT 5SM -SN BR FEW024 OVC033 01/M01 A2985 RMK AO2 P0001 T00111011,0,6.0,0,8045.0,0,0,1,"BR,SN"
2026-04-16 17:31:00,SPECI KBZN 161731Z 15004KT 1 1/2SM -SN BR BKN026 OVC036 01/M01 A2984 RMK AO2 P0001 T00111011 $,0,4.0,0,2414.0,0,0,1,"BR,SN"
2026-04-16 17:24:00,SPECI KBZN 161724Z 16003KT 1 1/4SM -SN BR BKN023 OVC030 01/M01 A2984 RMK AO2 P0001 T00111011 $,0,3.0,0,2011.0,0,0,1,"BR,SN"
2026-04-16 17:10:00,SPECI KBZN 161710Z 00000KT 1 3/4SM -SN BR BKN025 OVC030 01/M01 A2985 RMK AO2 P0001 T00111011 $,0,0.0,0,2816.0,0,0,1,"BR,SN"
2026-04-16 16:56:00,METAR KBZN 161656Z 00000KT 5SM -SN BR BKN025 OVC034 M02/M02 A2985 RMK AO2 SLP136 P0000 T10221022 $,0,0.0,0,8045.0,0,0,1,"BR,SN"
2026-04-16 16:18:00,SPECI KBZN 161618Z 06003KT 5SM -SN BR BKN027 OVC037 M03/M03 A2984 RMK AO2 P0000 T10281028,0,3.0,0,8045.0,0,0,1,"BR,SN"
2026-04-16 16:06:00,SPECI KBZN 161606Z 04004KT 2SM -SN BR BKN025 BKN029 OVC036 M03/M03 A2983 RMK AO2 P0000 T10281033,0,4.0,0,3218.0,0,0,1,"BR,SN"
2026-04-16 15:56:00,METAR KBZN 161556Z 36008KT 3SM -SN BR BKN023 OVC029 M03/M03 A2983 RMK AO2 SLP122 P0000 T10281033,0,8.0,0,4827.0,0,0,1,"BR,SN"
2026-04-16 15:49:00,SPECI KBZN 161549Z 34011KT 2SM -SN BR BKN019 BKN029 OVC037 M03/M03 A2983 RMK AO2 P0000 T10281033,0,11.0,0,3218.0,0,0,1,"BR,SN"
2026-04-16 15:40:00,SPECI KBZN 161540Z 34011KT 1SM R12/3500VP6000FT -SN BR BKN015 BKN029 OVC033 M03/M03 A2982 RMK AO2 P0000 T10281028,0,11.0,0,1609.0,0,0,1,"BR,SN"
2026-04-16 15:38:00,SPECI KBZN 161538Z 34011KT 3/4SM R12/2600VP6000FT -SN BR BKN013 OVC029 M03/M03 A2982 RMK AO2 P0000 T10281028,0,11.0,0,1207.0,0,0,1,"BR,SN"
2026-04-16 15:27:00,SPECI KBZN 161527Z 34011KT 1/2SM R12/2600V3500FT SN FZFG FEW003 OVC008 M03/M03 A2982 RMK AO2 P0000 T10281028,0,11.0,0,804.0,0,0,1,"FG,SN"
2026-04-16 14:56:00,METAR KBZN 161456Z 31008KT 1/4SM R12/1800V3000FT SN FZFG FEW003 OVC007 M03/M03 A2981 RMK AO2 SLP111 P0000 60001 T10281028 53018,0,8.0,0,402.0,0,0,1,"FG,SN"
2026-04-16 14:34:00,SPECI KBZN 161434Z 1/4SM R12/2000V3000FT SN FZFG VV006 M02/M03 A2979 RMK AO2 P0000 T10221028,0,,0,402.0,0,0,1,"FG,SN"
2026-04-16 14:23:00,SPECI KBZN 161423Z 1/4SM R12/1600V1800FT +SN FZFG VV004 M02/M03 A2979 RMK AO2 P0000 T10221028,0,,0,402.0,0,0,1,"FG,SN"
2026-04-16 14:11:00,SPECI KBZN 161411Z M1/4SM R12/1000V1600FT +SN FZFG VV003 M02/M03 A2979 RMK AO2 P0000 T10221028,0,,0,402.0,0,0,1,"FG,SN"
2026-04-16 13:56:00,METAR KBZN 161356Z 1/4SM R12/1600V2200FT +SN FZFG VV004 M02/M02 A2979 RMK AO2 SLP096 P0000 T10171017,0,,0,402.0,0,0,1,"FG,SN"
2026-04-16 13:36:00,SPECI KBZN 161336Z 1/4SM R12/2000V2600FT SN FZFG VV004 M02/M02 A2978 RMK AO2 P0000 T10171017,0,,0,402.0,0,0,1,"FG,SN"
2026-04-16 13:29:00,SPECI KBZN 161329Z 00000KT 1/4SM R12/1800V2600FT SN FZFG VV005 M02/M02 A2977 RMK AO2 P0000 T10171017,0,0.0,0,402.0,0,0,1,"FG,SN"
2026-04-16 13:19:00,SPECI KBZN 161319Z 00000KT 1/4SM R12/1800V2400FT +SN FZFG VV004 M01/M01 A2977 RMK AO2 P0000 T10111011,0,0.0,0,402.0,0,0,1,"FG,SN"
2026-04-16 13:03:00,SPECI KBZN 161303Z 15004KT 1/4SM R12/2200V3000FT +SN FZFG OVC004 M01/M01 A2976 RMK AO2 P0000 T10111011,0,4.0,0,402.0,0,0,1,"FG,SN"
2026-04-16 12:56:00,METAR KBZN 161256Z 16005KT 1/4SM R12/2600V4000FT +SN FZFG VV005 M01/M01 A2976 RMK AO2 SLP086 P0001 T10111011,0,5.0,0,402.0,0,0,1,"FG,SN"
2026-04-16 12:41:00,SPECI KBZN 161241Z 16003KT 1/4SM R12/2600V3500FT +SN FZFG VV006 M01/M01 A2975 RMK AO2 P0001 T10111011,0,3.0,0,402.0,0,0,1,"FG,SN"
2026-04-16 12:08:00,SPECI KBZN 161208Z 00000KT 3/4SM R12/5000V6000FT -SN BR VV009 M01/M01 A2974 RMK AO2 P0000 T10111011,0,0.0,0,1207.0,0,0,1,"BR,SN"
2026-04-16 11:56:00,METAR KBZN 161156Z 16003KT 3/4SM R12/4500VP6000FT -SN BR VV010 M01/M01 A2975 RMK AO2 SLP079 P0000 60004 70005 T10111011 10006 21011 55002,0,3.0,0,1207.0,0,0,1,"BR,SN"
2026-04-16 11:23:00,SPECI KBZN 161123Z 17003KT 1 1/4SM -SN BR OVC014 M01/M01 A2975 RMK AO2 P0000 T10111011,0,3.0,0,2011.0,0,0,1,"BR,SN"
2026-04-16 11:11:00,SPECI KBZN 161111Z AUTO 17003KT 1 1/2SM -SN BR OVC016 M01/M01 A2974 RMK AO2 P0000 T10111011,0,3.0,0,2414.0,0,0,1,"BR,SN"
2026-04-16 10:56:00,METAR KBZN 161056Z AUTO 16005KT 1 1/4SM -SN BR OVC022 M01/M01 A2975 RMK AO2 SNE28B45 SLP081 P0001 T10111011,0,5.0,0,2011.0,0,0,1,"BR,SN"
2026-04-16 10:51:00,SPECI KBZN 161051Z AUTO 15003KT 2 1/2SM -SN BR FEW020 OVC027 M01/M01 A2975 RMK AO2 SNE28B45 P0001,0,3.0,0,4022.0,0,0,1,"BR,SN"
2026-04-16 10:20:00,SPECI KBZN 161020Z AUTO 09004KT 3SM -SN BR OVC030 M01/M01 A2974 RMK AO2 P0000 T10061006,0,4.0,0,4827.0,0,0,1,"BR,SN"
2026-04-16 10:16:00,SPECI KBZN 161016Z AUTO 08005KT 2SM -SN BR OVC024 M01/M01 A2974 RMK AO2 P0000 T10061006,0,5.0,0,3218.0,0,0,1,"BR,SN"
2026-04-16 10:02:00,SPECI KBZN 161002Z AUTO 05007KT 1 1/4SM -SN BR FEW003 OVC015 M01/M01 A2974 RMK AO2 P0000 T10061006,0,7.0,0,2011.0,0,0,1,"BR,SN"
2026-04-16 09:56:00,METAR KBZN 160956Z AUTO 05008KT 1 1/2SM -SN BR FEW003 OVC013 M01/M01 A2973 RMK AO2 SLP068 P0001 T10061006,0,8.0,0,2414.0,0,0,1,"BR,SN"
2026-04-16 09:52:00,SPECI KBZN 160952Z AUTO 04007KT 1 1/2SM -SN BR FEW003 OVC011 M01/M01 A2974 RMK AO2 P0001,0,7.0,0,2414.0,0,0,1,"BR,SN"
2026-04-16 09:43:00,SPECI KBZN 160943Z AUTO 05007KT 1SM R12/6000VP6000FT -SN BR FEW004 OVC009 M01/M01 A2974 RMK AO2 P0001 T10061006,0,7.0,0,1609.0,0,0,1,"BR,SN"
2026-04-16 09:24:00,SPECI KBZN 160924Z AUTO 02004KT 3/4SM R12/5000VP6000FT -SN BR VV008 M01/M01 A2976 RMK AO2 P0000 T10061006,0,4.0,0,1207.0,0,0,1,"BR,SN"
2026-04-16 09:13:00,SPECI KBZN 160913Z AUTO 03005KT 3/4SM R12/5000VP6000FT -SN BR FEW005 OVC010 M01/M01 A2975 RMK AO2 P0000 T10061006,0,5.0,0,1207.0,0,0,1,"BR,SN"
2026-04-16 09:10:00,SPECI KBZN 160910Z AUTO 02006KT 1SM R12/6000VP6000FT -SN BR VV009 M01/M01 A2975 RMK AO2 P0000 T10061006,0,6.0,0,1609.0,0,0,1,"BR,SN"
2026-04-16 09:03:00,SPECI KBZN 160903Z AUTO 36004KT 1 3/4SM R12/6000VP6000FT -SN BR SCT006 BKN010 OVC014 00/00 A2975 RMK AO2 P0000 T00000000,0,4.0,0,2816.0,0,0,1,"BR,SN"
2026-04-16 08:56:00,METAR KBZN 160856Z AUTO 36005KT 2 1/2SM -SN BR BKN006 BKN010 OVC016 00/00 A2976 RMK AO2 SLP071 P0001 60002 T00000000 51031,0,5.0,0,4022.0,0,0,1,"BR,SN"
2026-04-16 08:44:00,SPECI KBZN 160844Z AUTO 02006KT 2SM -SN BR BKN007 OVC010 00/00 A2975 RMK AO2 P0001 T00000000,0,6.0,0,3218.0,0,0,1,"BR,SN"
2026-04-16 08:03:00,SPECI KBZN 160803Z AUTO 34005KT 1 1/4SM -SN BR FEW005 OVC008 00/00 A2973 RMK AO2 P0000 T00000000,0,5.0,0,2011.0,0,0,1,"BR,SN"
2026-04-16 07:56:00,METAR KBZN 160756Z AUTO 35004KT 3/4SM R12/4000VP6000FT -SN BR VV008 00/00 A2974 RMK AO2 SLP068 P0000 T00000000,0,4.0,0,1207.0,0,0,1,"BR,SN"
2026-04-16 07:08:00,SPECI KBZN 160708Z AUTO 25008KT 1/2SM R12/3500V5000FT SN FG FEW003 OVC007 00/00 A2973 RMK AO2 P0000 T00000000,0,8.0,0,804.0,0,0,1,"FG,SN"
2026-04-16 06:58:00,SPECI KBZN 160658Z AUTO 29007KT 3/4SM R12/4500VP6000FT -SN BR FEW004 OVC011 01/00 A2972 RMK AO2 PRESRR P0000 T00060000,0,7.0,0,1207.0,0,0,1,"BR,SN"
2026-04-16 06:56:00,METAR KBZN 160656Z AUTO 28008KT 1SM R12/4500VP6000FT -SN BR VV011 01/00 A2972 RMK AO2 PRESRR SLP062 P0001 T00060000 401670000,0,8.0,0,1609.0,0,0,1,"BR,SN"
2026-04-16 06:48:00,SPECI KBZN 160648Z AUTO 30011G19KT 1 1/4SM -SN BR OVC014 01/00 A2970 RMK AO2 P0001 T00060000,0,11.0,1,2011.0,0,0,1,"BR,SN"
2026-04-16 06:23:00,SPECI KBZN 160623Z 32010KT 2 1/2SM -SN BR OVC012 01/00 A2968 RMK AO2 P0000 T00060000,0,10.0,0,4022.0,0,0,1,"BR,SN"
2026-04-16 06:07:00,SPECI KBZN 160607Z 34010KT 1SM R12/5000VP6000FT -SN BR VV007 00/00 A2965 RMK AO2 P0000 T00000000,0,10.0,0,1609.0,0,0,1,"BR,SN"
2026-04-16 05:56:00,METAR KBZN 160556Z 34010KT 3/4SM R12/3000VP6000FT -SN BR VV006 00/00 A2965 RMK AO2 PK WND 30027/0524 UPB00E18RAB02E12SNB18 SLP038 P0001 60001 T00000000 10117 20000 50019,0,10.0,0,1207.0,0,0,1,"BR,SN,UP"
2026-04-16 05:52:00,SPECI KBZN 160552Z 34009KT 3/4SM R12/3000V5500FT -SN BR VV007 00/00 A2965 RMK AO2 PK WND 30027/0524 UPB00E18RAB02E12SNB18 P0001,0,9.0,0,1207.0,0,0,1,"BR,SN,UP"
2026-04-16 05:35:00,SPECI KBZN 160535Z 31012G27KT 1 1/2SM -SN BR FEW006 BKN011 OVC024 00/00 A2967 RMK AO2 PK WND 30027/0524 UPB00E18RAB02E12SNB18 P0001 T00000000,0,12.0,1,2414.0,0,0,1,"BR,SN,UP"
2026-04-16 05:31:00,SPECI KBZN 160531Z 30016G27KT 2 1/2SM -SN BR FEW006 BKN011 OVC024 01/00 A2967 RMK AO2 PK WND 30027/0524 UPB00E18RAB02E12SNB18 P0001 T00060000,0,16.0,1,4022.0,0,0,1,"BR,SN,UP"
2026-04-16 05:16:00,SPECI KBZN 160516Z 30017KT 10SM UP SCT006 BKN023 OVC047 02/01 A2963 RMK AO2 UPB00RAB02E12 P0000 T00170011,0,17.0,0,16090.0,0,0,0,UP
2026-04-16 04:56:00,METAR KBZN 160456Z 29017G24KT 10SM FEW008 BKN042 OVC055 02/02 A2962 RMK AO2 WSHFT 0437 RAB01E12 SLP026 P0000 T00220017,0,17.0,1,16090.0,0,0,0,RA
2026-04-16 04:51:00,SPECI KBZN 160451Z 30016G23KT 10SM FEW008 SCT024 OVC055 03/02 A2961 RMK AO2 WSHFT 0437 RAB01E12 P0000,0,16.0,1,16090.0,0,0,0,RA
2026-04-16 03:56:00,METAR KBZN 160356Z 36009KT 10SM BKN050 OVC065 06/03 A2959 RMK AO2 SLP012 T00610033,0,9.0,0,16090.0,0,0,0,
2026-04-16 02:56:00,METAR KBZN 160256Z 30017G26KT 10SM OVC060 08/03 A2957 RMK AO2 PK WND 30026/0256 SLP002 T00830028 55004,0,17.0,1,16090.0,0,0,0,
2026-04-16 02:42:00,SPECI KBZN 160242Z 31010KT 10SM BKN065 OVC080 09/02 A2956 RMK AO2 T00890017,0,10.0,0,16090.0,0,0,0,
2026-04-16 01:56:00,METAR KBZN 160156Z 15010KT 10SM BKN090 OVC110 10/01 A2954 RMK AO2 SLP992 T01000006,0,10.0,0,16090.0,0,0,0,
2026-04-16 01:31:00,SPECI KBZN 160131Z 15009G14KT 140V210 10SM BKN075 BKN090 OVC110 11/01 A2955 RMK AO2 T01110006,0,9.0,1,16090.0,0,0,0,
2026-04-16 00:56:00,METAR KBZN 160056Z 23012G21KT 10SM FEW060 BKN080 OVC090 10/02 A2956 RMK AO2 PK WND 23031/0026 SLP000 T01000017,0,12.0,1,16090.0,0,0,0,
2026-04-15 23:56:00,METAR KBZN 152356Z 25018G25KT 10SM OVC075 12/01 A2959 RMK AO2 PK WND 27033/2316 SLP005 60000 T01170011 10167 20106 56001,0,18.0,1,16090.0,0,0,0,
2026-04-15 22:56:00,METAR KBZN 152256Z 26021G32KT 10SM SCT050 BKN065 OVC080 11/02 A2959 RMK AO2 PK WND 28034/2246 RAB26E47 SLP006 P0000 T01060017,0,21.0,1,16090.0,0,0,0,RA
2026-04-15 21:56:00,METAR KBZN 152156Z 25018G26KT 10SM FEW110 15/M01 A2956 RMK AO2 PK WND 26033/2120 SLP991 T01501011,0,18.0,1,16090.0,0,0,0,
2026-04-15 20:56:00,METAR KBZN 152056Z 24022G31KT 10SM SCT110 16/M02 A2959 RMK AO2 PK WND 22031/2054 SLP999 T01611017 57016,0,22.0,1,16090.0,0,0,0,
2026-04-15 19:56:00,METAR KBZN 151956Z 24019G34KT 10SM SCT080 OVC100 14/M02 A2961 RMK AO2 PK WND 25034/1950 SLP006 T01441017,0,19.0,1,16090.0,0,0,0,
2026-04-15 18:56:00,METAR KBZN 151856Z 24015G23KT 10SM SCT080 OVC090 14/M03 A2962 RMK AO2 SLP015 T01391033,0,15.0,1,16090.0,0,0,0,
2026-04-15 17:56:00,METAR KBZN 151756Z 25013G22KT 10SM FEW095 SCT120 14/M04 A2964 RMK AO2 SLP023 T01391039 10144 20083 58020,0,13.0,1,16090.0,0,0,0,
2026-04-15 17:36:00,SPECI KBZN 151736Z 25013G22KT 10SM FEW085 13/M04 A2965 RMK AO2 T01331039,0,13.0,1,16090.0,0,0,0,
2026-04-15 16:56:00,METAR KBZN 151656Z 00000KT 10SM OVC085 12/M03 A2968 RMK AO2 SLP037 T01221028,0,0.0,0,16090.0,0,0,0,
2026-04-15 15:56:00,METAR KBZN 151556Z 00000KT 10SM OVC100 11/M02 A2969 RMK AO2 SLP044 T01061017,0,0.0,0,16090.0,0,0,0,
2026-04-15 14:56:00,METAR KBZN 151456Z 14004KT 10SM OVC080 10/M02 A2971 RMK AO2 SLP046 T01001022 57009,0,4.0,0,16090.0,0,0,0,
2026-04-15 13:56:00,METAR KBZN 151356Z 20007KT 10SM FEW080 SCT095 09/M03 A2972 RMK AO2 SLP050 T00891033,0,7.0,0,16090.0,0,0,0,
2026-04-15 12:56:00,METAR KBZN 151256Z 24007KT 10SM OVC075 09/M04 A2973 RMK AO2 SLP051 T00891039,0,7.0,0,16090.0,0,0,0,
2026-04-15 11:56:00,METAR KBZN 151156Z 25009KT 10SM OVC080 09/M04 A2974 RMK AO2 SLP054 T00891044 10106 20072 56003,0,9.0,0,16090.0,0,0,0,
2026-04-15 10:56:00,METAR KBZN 151056Z AUTO 23012KT 10SM OVC080 09/M05 A2974 RMK AO2 SLP056 T00941050,0,12.0,0,16090.0,0,0,0,
2026-04-15 09:56:00,METAR KBZN 150956Z AUTO 22007KT 10SM BKN080 09/M05 A2975 RMK AO2 SLP057 T00941050,0,7.0,0,16090.0,0,0,0,
2026-04-15 08:56:00,METAR KBZN 150856Z AUTO 22009KT 10SM BKN085 OVC110 09/M04 A2975 RMK AO2 SLP059 T00941044 55000,0,9.0,0,16090.0,0,0,0,
2026-04-15 07:56:00,METAR KBZN 150756Z AUTO 24015G25KT 10SM OVC090 11/M04 A2974 RMK AO2 SLP053 T01061044,0,15.0,1,16090.0,0,0,0,
2026-04-15 06:56:00,METAR KBZN 150656Z AUTO 19005KT 10SM BKN100 08/M03 A2975 RMK AO2 SLP063 T00781033 401560022,0,5.0,0,16090.0,0,0,0,
2026-04-15 05:56:00,METAR KBZN 150556Z 19006KT 10SM OVC090 08/M03 A2975 RMK AO2 SLP069 T00781033 10150 20072 50000,0,6.0,0,16090.0,0,0,0,
2026-04-15 04:56:00,METAR KBZN 150456Z 18009KT 10SM BKN095 08/M03 A2975 RMK AO2 SLP071 T00781033,0,9.0,0,16090.0,0,0,0,
2026-04-15 03:56:00,METAR KBZN 150356Z 16008KT 10SM FEW100 08/M03 A2976 RMK AO2 SLP073 T00831033,0,8.0,0,16090.0,0,0,0,
2026-04-15 02:56:00,METAR KBZN 150256Z 22012KT 10SM BKN095 12/M04 A2975 RMK AO2 PK WND 21026/0213 SLP064 T01171039 53000,0,12.0,0,16090.0,0,0,0,
2026-04-15 01:56:00,METAR KBZN 150156Z 23013G22KT 10SM OVC095 13/M04 A2975 RMK AO2 SLP064 T01281039,0,13.0,1,16090.0,0,0,0,
2026-04-15 00:56:00,METAR KBZN 150056Z 23016G21KT 10SM CLR 14/M03 A2975 RMK AO2 PK WND 24027/2358 SLP068 T01391033,0,16.0,1,16090.0,0,0,0,
2026-04-14 23:56:00,METAR KBZN 142356Z 24015G25KT 10SM SCT090 15/M05 A2975 RMK AO2 PK WND 26027/2344 SLP064 T01501050 10156 20094 56012,0,15.0,1,16090.0,0,0,0,
2026-04-14 22:56:00,METAR KBZN 142256Z 25012G21KT 10SM OVC090 14/M06 A2976 RMK AO2 SLP071 T01391061,0,12.0,1,16090.0,0,0,0,
2026-04-14 21:56:00,METAR KBZN 142156Z 27010G18KT 10SM BKN090 14/M06 A2977 RMK AO2 PK WND 24027/2105 SLP073 T01391056,0,10.0,1,16090.0,0,0,0,
2026-04-14 20:56:00,METAR KBZN 142056Z 25016G27KT 10SM BKN085 14/M06 A2979 RMK AO2 PK WND 23030/2046 SLP080 T01391056 56021,0,16.0,1,16090.0,0,0,0,
2026-04-14 19:56:00,METAR KBZN 141956Z 26015G29KT 10SM BKN080 13/M06 A2980 RMK AO2 PK WND 26029/1947 SLP087 T01331056,0,15.0,1,16090.0,0,0,0,
2026-04-14 18:56:00,METAR KBZN 141856Z VRB04KT 10SM OVC070 11/M02 A2984 RMK AO2 SLP105 T01111017,0,4.0,0,16090.0,0,0,0,
2026-04-12 18:56:00,METAR KBZN 121856Z 34004KT 10SM OVC060 12/02 A2969 RMK AO2 SLP045 T01220022,0,4.0,0,16090.0,0,0,0,
2026-04-12 17:56:00,METAR KBZN 121756Z 00000KT 10SM FEW110 12/01 A2970 RMK AO2 SLP047 T01220011 10128 21011 58011,0,0.0,0,16090.0,0,0,0,
2026-04-12 16:56:00,METAR KBZN 121656Z VRB03KT 10SM CLR 11/03 A2972 RMK AO2 SLP056 T01060033,0,3.0,0,16090.0,0,0,0,
2026-04-12 15:56:00,METAR KBZN 121556Z 33003KT 10SM CLR 07/03 A2973 RMK AO2 SLP065 T00720033,0,3.0,0,16090.0,0,0,0,
2026-04-12 14:56:00,METAR KBZN 121456Z 00000KT 10SM CLR 03/02 A2974 RMK AO2 SLP074 T00330022 50000,0,0.0,0,16090.0,0,0,0,
2026-04-12 13:56:00,METAR KBZN 121356Z 00000KT 10SM CLR 04/02 A2974 RMK AO2 SLP069 T00390022,0,0.0,0,16090.0,0,0,0,
2026-04-12 12:56:00,METAR KBZN 121256Z COR 12003KT 10SM SCT090 01/00 A2974 RMK AO2 SLP069 T00110000,0,3.0,0,16090.0,0,0,0,
2026-04-12 11:56:00,METAR KBZN 121156Z 13005KT 10SM FEW090 M01/M02 A2974 RMK AO2 SLP069 T10111022 10072 21017 56003,0,5.0,0,16090.0,0,0,0,
2026-04-12 11:27:00,SPECI KBZN 121127Z 13005KT 10SM CLR 00/M01 A2974 RMK AO2 T00001006,0,5.0,0,16090.0,0,0,0,
2026-04-12 10:56:00,METAR KBZN 121056Z AUTO 21003KT 10SM CLR 02/01 A2974 RMK AO2 SLP066 T00170006,0,3.0,0,16090.0,0,0,0,
2026-04-12 09:56:00,METAR KBZN 120956Z AUTO 19003KT 10SM CLR 02/02 A2975 RMK AO2 SLP068 T00220017,0,3.0,0,16090.0,0,0,0,
2026-04-12 08:56:00,METAR KBZN 120856Z AUTO 18003KT 10SM CLR 03/03 A2975 RMK AO2 SLP062 T00330028 58005,0,3.0,0,16090.0,0,0,0,
2026-04-12 07:56:00,METAR KBZN 120756Z AUTO 28003KT 10SM CLR 04/04 A2976 RMK AO2 SLP060 T00390039,0,3.0,0,16090.0,0,0,0,
2026-04-12 06:56:00,METAR KBZN 120656Z AUTO 00000KT 10SM CLR 06/04 A2977 RMK AO2 SLP060 T00610039 402220017,0,0.0,0,16090.0,0,0,0,
2026-04-12 05:56:00,METAR KBZN 120556Z 00000KT 10SM FEW055 SCT075 BKN100 07/04 A2976 RMK AO2 SLP063 60000 T00720044 10150 20067 50010,0,0.0,0,16090.0,0,0,0,
2026-04-12 05:36:00,SPECI KBZN 120536Z 08004KT 10SM SCT050 BKN070 OVC090 07/05 A2977 RMK AO2 T00720050,0,4.0,0,16090.0,0,0,0,
2026-04-12 04:56:00,METAR KBZN 120456Z 11006KT 10SM SCT049 BKN060 OVC085 07/05 A2977 RMK AO2 RAE20 SLP071 P0000 T00720050,0,6.0,0,16090.0,0,0,0,
2026-04-12 03:56:00,METAR KBZN 120356Z 22005KT 10SM -RA OVC050 08/04 A2976 RMK AO2 RAB47 SLP073 P0000 T00830044,0,5.0,0,16090.0,0,0,0,-RA
2026-04-12 02:56:00,METAR KBZN 120256Z 29015KT 10SM BKN075 OVC100 08/04 A2973 RMK AO2 PK WND 28031/0233 SLP062 T00830039 53027,0,15.0,0,16090.0,0,0,0,
2026-04-12 01:56:00,METAR KBZN 120156Z 31007KT 10SM OVC085 10/04 A2968 RMK AO2 PK WND 31027/0116 SLP051 T01000039,0,7.0,0,16090.0,0,0,0,
2026-04-12 00:56:00,METAR KBZN 120056Z 24006KT 10SM BKN080 OVC110 14/03 A2965 RMK AO2 LTG DSNT NW SLP031 T01440033,0,6.0,0,16090.0,0,0,0,DS
2026-04-11 23:56:00,METAR KBZN 112356Z 28003KT 10SM FEW085 15/03 A2964 RMK AO2 SLP025 60000 T01500028 10222 20133 50001,0,3.0,0,16090.0,0,0,0,
2026-04-11 22:56:00,METAR KBZN 112256Z 36008KT 10SM FEW085 BKN110 15/03 A2965 RMK AO2 RAB19E28 SLP032 P0000 T01500028,0,8.0,0,16090.0,0,0,0,RA
2026-04-11 21:56:00,METAR KBZN 112156Z 32015G25KT 10SM FEW042 SCT080 BKN110 14/04 A2965 RMK AO2 PK WND 30039/2109 WSHFT 2043 SLP027 T01440039,0,15.0,1,16090.0,0,0,0,
2026-04-11 21:03:00,SPECI KBZN 112103Z 29026G42KT 10SM OVC100 16/03 A2964 RMK AO2 PK WND 28038/2100 WSHFT 2043 LTG DSNT N AND NW T01560028,0,26.0,1,16090.0,0,0,0,DS
2026-04-11 20:56:00,METAR KBZN 112056Z 28029G42KT 10SM BKN100 18/01 A2964 RMK AO2 PK WND 28042/2054 WSHFT 2039 LTG DSNT NW SLP015 T01780011 55013,0,29.0,1,16090.0,0,0,0,DS
2026-04-11 19:56:00,METAR KBZN 111956Z 19010G17KT 170V230 10SM CLR 21/00 A2962 RMK AO2 SLP003 T02110000,0,10.0,1,16090.0,0,0,0,
2026-04-11 18:56:00,METAR KBZN 111856Z 10006KT 10SM FEW110 19/01 A2965 RMK AO2 SLP013 T01890006,0,6.0,0,16090.0,0,0,0,
2026-04-11 17:56:00,METAR KBZN 111756Z 32003KT 10SM CLR 16/04 A2968 RMK AO2 SLP032 T01560044 10156 20017 56014,0,3.0,0,16090.0,0,0,0,
2026-04-11 16:56:00,METAR KBZN 111656Z 04003KT 10SM CLR 13/04 A2970 RMK AO2 SLP034 T01280039,0,3.0,0,16090.0,0,0,0,
2026-04-11 15:56:00,METAR KBZN 111556Z 00000KT 10SM CLR 09/04 A2971 RMK AO2 SLP042 T00940039,0,0.0,0,16090.0,0,0,0,
2026-04-11 14:56:00,METAR KBZN 111456Z 17003KT 10SM CLR 08/03 A2973 RMK AO2 SLP054 T00780033 56003,0,3.0,0,16090.0,0,0,0,
2026-04-11 13:56:00,METAR KBZN 111356Z 10003KT 10SM CLR 03/02 A2973 RMK AO2 SLP059 T00330017,0,3.0,0,16090.0,0,0,0,
2026-04-11 12:56:00,METAR KBZN 111256Z 26003KT 10SM CLR 03/01 A2972 RMK AO2 SLP056 T00280011,0,3.0,0,16090.0,0,0,0,
2026-04-11 11:56:00,METAR KBZN 111156Z 18003KT 10SM CLR 04/02 A2974 RMK AO2 SLP055 T00440017 10117 20028 57010,0,3.0,0,16090.0,0,0,0,
2026-04-11 10:56:00,METAR KBZN 111056Z AUTO 05007KT 10SM CLR 03/01 A2975 RMK AO2 SLP063 T00280011,0,7.0,0,16090.0,0,0,0,
2026-04-11 09:56:00,METAR KBZN 110956Z AUTO 20007KT 10SM CLR 06/02 A2976 RMK AO2 SLP061 T00610022,0,7.0,0,16090.0,0,0,0,
2026-04-11 08:56:00,METAR KBZN 110856Z AUTO 13005KT 10SM FEW055 FEW070 BKN100 08/03 A2977 RMK AO2 SLP064 T00780028 55006,0,5.0,0,16090.0,0,0,0,
2026-04-11 07:56:00,METAR KBZN 110756Z AUTO 33004KT 10SM CLR 08/03 A2977 RMK AO2 SLP064 T00780028,0,4.0,0,16090.0,0,0,0,
2026-04-11 06:56:00,METAR KBZN 110656Z AUTO 18006KT 10SM CLR 09/03 A2977 RMK AO2 SLP068 T00940033 401831022,0,6.0,0,16090.0,0,0,0,
2026-04-11 05:56:00,METAR KBZN 110556Z 15006KT 10SM CLR 09/03 A2979 RMK AO2 SLP078 T00890028 10172 20089 50004,0,6.0,0,16090.0,0,0,0,
2026-04-11 04:56:00,METAR KBZN 110456Z 24006KT 10SM OVC100 13/03 A2982 RMK AO2 SLP085 T01330028,0,6.0,0,16090.0,0,0,0,
2026-04-11 03:56:00,METAR KBZN 110356Z 19011G19KT 10SM OVC095 14/01 A2981 RMK AO2 SLP085 T01440011,0,11.0,1,16090.0,0,0,0,
2026-04-11 02:56:00,METAR KBZN 110256Z 16008KT 10SM FEW110 13/02 A2978 RMK AO2 SLP082 T01330017 58014,0,8.0,0,16090.0,0,0,0,
2026-04-11 01:56:00,METAR KBZN 110156Z 14015KT 10SM CLR 15/02 A2979 RMK AO2 SLP086 T01500017,0,15.0,0,16090.0,0,0,0,
2026-04-11 00:56:00,METAR KBZN 110056Z 13010KT 10SM BKN110 16/03 A2983 RMK AO2 SLP103 T01560028,0,10.0,0,16090.0,0,0,0,
2026-04-10 23:56:00,METAR KBZN 102356Z 09003KT 10SM FEW034 SCT070 BKN110 18/01 A2983 RMK AO2 RAB37E50 SLP095 P0000 60000 T01780006 10183 20106 55016,0,3.0,0,16090.0,0,0,0,RA
2026-04-10 22:56:00,METAR KBZN 102256Z 30004KT 10SM SCT100 17/01 A2983 RMK AO2 SLP094 T01720011,0,4.0,0,16090.0,0,0,0,
2026-04-10 21:56:00,METAR KBZN 102156Z 00000KT 10SM CLR 17/M01 A2985 RMK AO2 SLP103 T01721011,0,0.0,0,16090.0,0,0,0,
2026-04-10 20:56:00,METAR KBZN 102056Z 00000KT 10SM CLR 17/M01 A2988 RMK AO2 SLP114 T01671011 56030,0,0.0,0,16090.0,0,0,0,
2026-04-10 19:56:00,METAR KBZN 101956Z VRB03KT 10SM CLR 15/M01 A2991 RMK AO2 SLP123 T01501011,0,3.0,0,16090.0,0,0,0,
2026-04-10 18:56:00,METAR KBZN 101856Z 36004KT 10SM CLR 13/M02 A2995 RMK AO2 SLP140 T01281022,0,4.0,0,16090.0,0,0,0,
2026-04-10 17:56:00,METAR KBZN 101756Z 00000KT 10SM CLR 11/M03 A2998 RMK AO2 SLP152 T01061033 10106 21022 58019,0,0.0,0,16090.0,0,0,0,
2026-04-10 16:56:00,METAR KBZN 101656Z 34004KT 10SM CLR 08/M02 A3001 RMK AO2 SLP170 T00831017,0,4.0,0,16090.0,0,0,0,
2026-04-10 15:56:00,METAR KBZN 101556Z 34004KT 10SM CLR 05/M02 A3003 RMK AO2 SLP173 T00501022,0,4.0,0,16090.0,0,0,0,
2026-04-10 14:56:00,METAR KBZN 101456Z VRB03KT 10SM CLR 02/M03 A3004 RMK AO2 SLP182 T00221033 58003,0,3.0,0,16090.0,0,0,0,
2026-04-10 13:56:00,METAR KBZN 101356Z 00000KT 10SM CLR 00/M03 A3005 RMK AO2 SLP182 T00001033,0,0.0,0,16090.0,0,0,0,
2026-04-10 12:56:00,METAR KBZN 101256Z 26003KT 10SM CLR M02/M05 A3005 RMK AO2 SLP181 T10221050,0,3.0,0,16090.0,0,0,0,
2026-04-10 11:56:00,METAR KBZN 101156Z 26006KT 10SM CLR 00/M04 A3005 RMK AO2 SLP177 T00001044 10050 21017 58004,0,6.0,0,16090.0,0,0,0,
2026-04-10 10:56:00,METAR KBZN 101056Z AUTO 00000KT 10SM CLR 01/M04 A3006 RMK AO2 SLP181 T00061044,0,0.0,0,16090.0,0,0,0,
2026-04-10 09:56:00,METAR KBZN 100956Z AUTO 28003KT 10SM CLR 01/M04 A3006 RMK AO2 SLP181 T00061039,0,3.0,0,16090.0,0,0,0,
2026-04-10 08:56:00,METAR KBZN 100856Z AUTO 30005KT 10SM CLR 01/M04 A3007 RMK AO2 SLP184 T00061039 50001,0,5.0,0,16090.0,0,0,0,
2026-04-10 07:56:00,METAR KBZN 100756Z AUTO 27006KT 10SM CLR 03/M04 A3007 RMK AO2 SLP184 T00281044,0,6.0,0,16090.0,0,0,0,
2026-04-10 06:56:00,METAR KBZN 100656Z AUTO 25007KT 10SM CLR 04/M04 A3007 RMK AO2 SLP184 T00391039 401561033,0,7.0,0,16090.0,0,0,0,
2026-04-10 05:56:00,METAR KBZN 100556Z 00000KT 10SM CLR 05/M04 A3007 RMK AO2 SLP181 T00501039 10156 20028 51011,0,0.0,0,16090.0,0,0,0,
2026-04-10 04:56:00,METAR KBZN 100456Z 06004KT 10SM CLR 03/M03 A3006 RMK AO2 SLP184 T00281033,0,4.0,0,16090.0,0,0,0,
2026-04-10 03:56:00,METAR KBZN 100356Z 15014KT 10SM CLR 08/M03 A3004 RMK AO2 SLP174 T00781033,0,14.0,0,16090.0,0,0,0,
2026-04-10 02:56:00,METAR KBZN 100256Z 13011KT 10SM CLR 08/M03 A3003 RMK AO2 SLP172 T00831028 53003,0,11.0,0,16090.0,0,0,0,
2026-04-10 01:56:00,METAR KBZN 100156Z 31004KT 10SM CLR 12/M06 A3001 RMK AO2 SLP167 T01221061,0,4.0,0,16090.0,0,0,0,
2026-04-10 00:56:00,METAR KBZN 100056Z 34004KT 10SM CLR 15/M06 A3001 RMK AO2 SLP166 T01501061,0,4.0,0,16090.0,0,0,0,
2026-04-09 23:56:00,METAR KBZN 092356Z 32008KT 10SM CLR 15/M07 A3002 RMK AO2 SLP168 T01501067 10156 20100 56008,0,8.0,0,16090.0,0,0,0,
2026-04-09 22:56:00,METAR KBZN 092256Z COR 32007KT 10SM CLR 15/M06 A3002 RMK AO2 SLP167 T01501056,0,7.0,0,16090.0,0,0,0,
2026-04-09 21:56:00,METAR KBZN 092156Z 33008KT 10SM CLR 14/M05 A3003 RMK AO2 SLP165 T01441050,0,8.0,0,16090.0,0,0,0,
2026-04-09 21:23:00,SPECI KBZN 092123Z 35007KT 10SM CLR 14/M04 A3003 RMK AO2 T01441044,0,7.0,0,16090.0,0,0,0,
2026-04-09 20:56:00,METAR KBZN 092056Z 35009G16KT 10SM CLR 14/M04 A3004 RMK AO2 SLP170 T01391039 56015,0,9.0,1,16090.0,0,0,0,
2026-04-09 19:56:00,METAR KBZN 091956Z 01006KT 10SM CLR 12/M04 A3006 RMK AO2 SLP174 T01221044,0,6.0,0,16090.0,0,0,0,
2026-04-09 18:56:00,METAR KBZN 091856Z VRB03KT 10SM CLR 11/M06 A3008 RMK AO2 SLP185 T01061056,0,3.0,0,16090.0,0,0,0,
2026-04-09 17:56:00,METAR KBZN 091756Z 31007KT 10SM CLR 11/M05 A3009 RMK AO2 SLP189 T01061050 10106 21033 50001,0,7.0,0,16090.0,0,0,0,
2026-04-09 16:56:00,METAR KBZN 091656Z 00000KT 10SM CLR 09/M04 A3010 RMK AO2 SLP198 T00891044,0,0.0,0,16090.0,0,0,0,
2026-04-09 15:56:00,METAR KBZN 091556Z 27003KT 10SM CLR 07/M03 A3010 RMK AO2 SLP195 T00671028,0,3.0,0,16090.0,0,0,0,
2026-04-09 14:56:00,METAR KBZN 091456Z 27003KT 10SM CLR 04/M04 A3009 RMK AO2 SLP190 T00441039 51022,0,3.0,0,16090.0,0,0,0,
2026-04-09 13:56:00,METAR KBZN 091356Z 12003KT 10SM CLR 01/M04 A3007 RMK AO2 SLP190 T00061039,0,3.0,0,16090.0,0,0,0,
2026-04-09 12:56:00,METAR KBZN 091256Z 16003KT 10SM CLR M02/M05 A3004 RMK AO2 SLP178 T10171050,0,3.0,0,16090.0,0,0,0,
2026-04-09 11:56:00,METAR KBZN 091156Z 20003KT 10SM CLR M02/M05 A3001 RMK AO2 SLP168 T10171050 10061 21033 53016,0,3.0,0,16090.0,0,0,0,
2026-04-09 11:23:00,SPECI KBZN 091123Z 11003KT 10SM CLR 00/M05 A3000 RMK AO2 T00001050,0,3.0,0,16090.0,0,0,0,
2026-04-09 10:56:00,METAR KBZN 091056Z AUTO 00000KT 10SM CLR M01/M04 A3000 RMK AO2 SLP160 T10061044,0,0.0,0,16090.0,0,0,0,
2026-04-09 09:56:00,METAR KBZN 090956Z AUTO 19004KT 10SM CLR 03/M04 A2998 RMK AO2 SLP147 T00281039,0,4.0,0,16090.0,0,0,0,
2026-04-09 08:56:00,METAR KBZN 090856Z AUTO 00000KT 10SM CLR 04/M04 A2996 RMK AO2 SLP144 T00391044 51013,0,0.0,0,16090.0,0,0,0,
2026-04-09 07:56:00,METAR KBZN 090756Z AUTO 00000KT 10SM BKN110 05/M04 A2995 RMK AO2 SLP139 T00501039,0,0.0,0,16090.0,0,0,0,
2026-04-09 06:56:00,METAR KBZN 090656Z AUTO 15004KT 10SM OVC110 05/M03 A2993 RMK AO2 SLP136 T00501033 401501044,0,4.0,0,16090.0,0,0,0,
2026-04-09 05:56:00,METAR KBZN 090556Z 22004KT 10SM BKN110 06/M04 A2992 RMK AO2 SLP135 T00561039 10150 20033 53014,0,4.0,0,16090.0,0,0,0,
2026-04-09 04:56:00,METAR KBZN 090456Z 13003KT 10SM CLR 04/M04 A2990 RMK AO2 SLP135 T00441039,0,3.0,0,16090.0,0,0,0,
2026-04-09 03:56:00,METAR KBZN 090356Z COR 00000KT 10SM CLR 07/M05 A2989 RMK AO2 SLP127 T00721050,0,0.0,0,16090.0,0,0,0,
2026-04-09 02:56:00,METAR KBZN 090256Z 18010KT 10SM CLR 11/M08 A2987 RMK AO2 SLP120 T01061078 55004,0,10.0,0,16090.0,0,0,0,
2026-04-09 01:56:00,METAR KBZN 090156Z 00000KT 10SM CLR 12/M08 A2987 RMK AO2 SLP120 T01171078,0,0.0,0,16090.0,0,0,0,
2026-04-09 00:56:00,METAR KBZN 090056Z 04004KT 10SM CLR 14/M07 A2987 RMK AO2 SLP122 T01391067,0,4.0,0,16090.0,0,0,0,
2026-04-08 23:56:00,METAR KBZN 082356Z 02005KT 10SM CLR 15/M09 A2989 RMK AO2 SLP123 T01501089 10150 20078 56024,0,5.0,0,16090.0,0,0,0,
2026-04-08 22:56:00,METAR KBZN 082256Z 01004KT 10SM CLR 14/M09 A2991 RMK AO2 SLP127 T01441094,0,4.0,0,16090.0,0,0,0,
2026-04-08 22:24:00,SPECI KBZN 082224Z 34007KT 10SM CLR 14/M09 A2992 RMK AO2 T01441094,0,7.0,0,16090.0,0,0,0,
2026-04-08 22:21:00,SPECI KBZN 082221Z 05005KT 10SM CLR 14/M09 A2992 RMK AO2 T01441094,0,5.0,0,16090.0,0,0,0,
2026-04-08 21:56:00,METAR KBZN 082156Z 36010G15KT 10SM CLR 14/M08 A2993 RMK AO2 SLP131 T01441083,0,10.0,1,16090.0,0,0,0,
2026-04-08 20:56:00,METAR KBZN 082056Z 01005KT 10SM CLR 12/M07 A2997 RMK AO2 SLP149 T01221072 58025,0,5.0,0,16090.0,0,0,0,
2026-04-08 19:56:00,METAR KBZN 081956Z VRB03KT 10SM CLR 11/M08 A3000 RMK AO2 SLP161 T01111078,0,3.0,0,16090.0,0,0,0,
2026-04-08 18:56:00,METAR KBZN 081856Z VRB04KT 10SM CLR 10/M07 A3003 RMK AO2 SLP168 T01001072,0,4.0,0,16090.0,0,0,0,
2026-04-08 17:56:00,METAR KBZN 081756Z VRB03KT 10SM CLR 08/M08 A3005 RMK AO2 SLP178 T00781078 10078 21044 58006,0,3.0,0,16090.0,0,0,0,
2026-04-08 16:56:00,METAR KBZN 081656Z VRB03KT 10SM CLR 06/M06 A3007 RMK AO2 SLP187 T00561056,0,3.0,0,16090.0,0,0,0,
2026-04-08 15:56:00,METAR KBZN 081556Z 00000KT 10SM CLR 03/M05 A3007 RMK AO2 SLP184 T00331050,0,0.0,0,16090.0,0,0,0,
2026-04-08 14:56:00,METAR KBZN 081456Z 00000KT 10SM CLR 01/M07 A3007 RMK AO2 SLP190 T00111067 53015,0,0.0,0,16090.0,0,0,0,
2026-04-08 13:56:00,METAR KBZN 081356Z 00000KT 10SM CLR M01/M07 A3006 RMK AO2 SLP180 T10061067,0,0.0,0,16090.0,0,0,0,
2026-04-08 12:56:00,METAR KBZN 081256Z 31008KT 10SM CLR M03/M07 A3003 RMK AO2 SLP169 T10281067,0,8.0,0,16090.0,0,0,0,
2026-04-08 11:56:00,METAR KBZN 081156Z 29006KT 10SM CLR M02/M07 A3002 RMK AO2 SLP163 T10171072 10072 21022 51027,0,6.0,0,16090.0,0,0,0,
2026-04-08 10:56:00,METAR KBZN 081056Z AUTO 33006KT 10SM CLR M01/M07 A3000 RMK AO2 SLP151 T10061067,0,6.0,0,16090.0,0,0,0,
2026-04-08 09:56:00,METAR KBZN 080956Z AUTO 32008KT 10SM FEW090 03/M06 A2996 RMK AO2 SLP131 T00281061,0,8.0,0,16090.0,0,0,0,
2026-04-08 08:56:00,METAR KBZN 080856Z AUTO 34005KT 10SM CLR 02/M05 A2993 RMK AO2 SLP123 T00221050 53030,0,5.0,0,16090.0,0,0,0,
2026-04-08 07:56:00,METAR KBZN 080756Z AUTO 29005KT 10SM CLR 02/M06 A2990 RMK AO2 SLP110 T00221056,0,5.0,0,16090.0,0,0,0,
2026-04-08 06:56:00,METAR KBZN 080656Z AUTO 35010KT 10SM CLR 06/M04 A2986 RMK AO2 SLP093 T00561044 402170006,0,10.0,0,16090.0,0,0,0,
2026-04-08 05:56:00,METAR KBZN 080556Z AUTO 36010KT 10SM CLR 06/M04 A2983 RMK AO2 SLP084 T00611044 10194 20056 51029,0,10.0,0,16090.0,0,0,0,
2026-04-08 04:56:00,METAR KBZN 080456Z AUTO 36012KT 10SM CLR 07/M05 A2981 RMK AO2 SLP077 T00671050,0,12.0,0,16090.0,0,0,0,
2026-04-08 03:56:00,METAR KBZN 080356Z 30013KT 10SM CLR 11/M07 A2976 RMK AO2 SLP063 T01111072,0,13.0,0,16090.0,0,0,0,
2026-04-08 02:56:00,METAR KBZN 080256Z 31011KT 10SM CLR 11/M07 A2973 RMK AO2 SLP061 T01111072 53022,0,11.0,0,16090.0,0,0,0,
2026-04-08 01:56:00,METAR KBZN 080156Z 31015G24KT 10SM FEW120 16/M08 A2970 RMK AO2 PK WND 30030/0104 SLP047 T01561083,0,15.0,1,16090.0,0,0,0,
2026-04-08 00:56:00,METAR KBZN 080056Z 29017G31KT 10SM CLR 18/M07 A2968 RMK AO2 PK WND 29036/0015 SLP038 T01831072,0,17.0,1,16090.0,0,0,0,
2026-04-07 23:56:00,METAR KBZN 072356Z 29027G37KT 10SM CLR 19/M08 A2966 RMK AO2 PK WND 29038/2310 SLP028 T01941083 10217 20178 55009,0,27.0,1,16090.0,0,0,0,
2026-04-07 22:56:00,METAR KBZN 072256Z 30023G36KT 10SM CLR 21/M07 A2965 RMK AO2 PK WND 28042/2211 SLP025 T02061067,0,23.0,1,16090.0,0,0,0,
2026-04-07 21:56:00,METAR KBZN 072156Z 27022G33KT 10SM CLR 22/M07 A2966 RMK AO2 PK WND 27037/2140 SLP028 T02171067,0,22.0,1,16090.0,0,0,0,
2026-04-07 20:56:00,METAR KBZN 072056Z 28024G33KT 10SM FEW110 19/M07 A2969 RMK AO2 PK WND 23036/2021 SLP041 T01941072 56019,0,24.0,1,16090.0,0,0,0,
2026-04-07 19:56:00,METAR KBZN 071956Z 25019G40KT 10SM CLR 21/M04 A2970 RMK AO2 PK WND 25040/1949 SLP040 T02061044,0,19.0,1,16090.0,0,0,0,
2026-04-07 18:56:00,METAR KBZN 071856Z 26020G37KT 10SM SCT095 19/M03 A2973 RMK AO2 PK WND 23037/1848 SLP048 T01941028,0,20.0,1,16090.0,0,0,0,
2026-04-07 17:56:00,METAR KBZN 071756Z 25016G27KT 10SM BKN100 18/M03 A2975 RMK AO2 PK WND 24029/1659 SLP057 T01781033 10189 20011 58025,0,16.0,1,16090.0,0,0,0,
2026-04-07 16:56:00,METAR KBZN 071656Z 26017G25KT 10SM FEW090 18/M02 A2978 RMK AO2 SLP072 T01781022,0,17.0,1,16090.0,0,0,0,
2026-04-07 16:40:00,SPECI KBZN 071640Z 25015G24KT 10SM CLR 18/M02 A2979 RMK AO2 T01781017,0,15.0,1,16090.0,0,0,0,
2026-04-07 15:56:00,METAR KBZN 071556Z 08003KT 10SM CLR 12/03 A2981 RMK AO2 SLP087 T01170033,0,3.0,0,16090.0,0,0,0,
2026-04-07 14:56:00,METAR KBZN 071456Z VRB04KT 10SM CLR 07/02 A2984 RMK AO2 SLP100 T00670022 58009,0,4.0,0,16090.0,0,0,0,
2026-04-07 13:56:00,METAR KBZN 071356Z 00000KT 10SM CLR 03/01 A2985 RMK AO2 SLP107 T00280011,0,0.0,0,16090.0,0,0,0,
2026-04-07 12:56:00,METAR KBZN 071256Z 00000KT 10SM FEW090 02/00 A2986 RMK AO2 SLP109 T00170000,0,0.0,0,16090.0,0,0,0,
2026-04-07 11:56:00,METAR KBZN 071156Z 14004KT 10SM BKN100 03/01 A2987 RMK AO2 SLP105 T00280006 10067 20006 56015,0,4.0,0,16090.0,0,0,0,
2026-04-07 11:23:00,SPECI KBZN 071123Z 06003KT 10SM OVC095 03/01 A2989 RMK AO2 T00280011,0,3.0,0,16090.0,0,0,0,
2026-04-07 10:56:00,METAR KBZN 071056Z AUTO 00000KT 10SM OVC100 03/00 A2989 RMK AO2 SLP111 T00280000,0,0.0,0,16090.0,0,0,0,
2026-04-07 09:56:00,METAR KBZN 070956Z AUTO 13007KT 10SM FEW095 02/00 A2990 RMK AO2 SLP121 T00170000,0,7.0,0,16090.0,0,0,0,
2026-04-07 08:56:00,METAR KBZN 070856Z AUTO 14009KT 10SM CLR 02/M01 A2992 RMK AO2 SLP131 T00171006 58011,0,9.0,0,16090.0,0,0,0,
2026-04-07 07:56:00,METAR KBZN 070756Z AUTO 14006KT 10SM CLR 04/00 A2994 RMK AO2 SLP136 T00390000,0,6.0,0,16090.0,0,0,0,
2026-04-07 06:56:00,METAR KBZN 070656Z AUTO 00000KT 10SM CLR 05/01 A2995 RMK AO2 SLP139 T00500011 401720011,0,0.0,0,16090.0,0,0,0,
2026-04-07 05:56:00,METAR KBZN 070556Z 00000KT 10SM CLR 06/01 A2996 RMK AO2 SLP144 T00610011 10167 20022 58001,0,0.0,0,16090.0,0,0,0,
2026-04-07 04:56:00,METAR KBZN 070456Z 12005KT 10SM CLR 04/01 A2996 RMK AO2 SLP151 T00390006,0,5.0,0,16090.0,0,0,0,
2026-04-07 03:56:00,METAR KBZN 070356Z 14005KT 10SM CLR 07/01 A2997 RMK AO2 SLP153 T00670011,0,5.0,0,16090.0,0,0,0,
2026-04-07 02:56:00,METAR KBZN 070256Z 15012KT 10SM OVC120 09/02 A2996 RMK AO2 SLP149 T00940017 58009,0,12.0,0,16090.0,0,0,0,
2026-04-07 01:56:00,METAR KBZN 070156Z 16012KT 10SM BKN120 12/02 A2997 RMK AO2 SLP151 T01170017,0,12.0,0,16090.0,0,0,0,
2026-04-07 00:56:00,METAR KBZN 070056Z 16010KT 10SM CLR 14/02 A2998 RMK AO2 SLP152 T01440022,0,10.0,0,16090.0,0,0,0,
2026-04-06 23:56:00,METAR KBZN 062356Z 16007KT 10SM CLR 17/01 A2999 RMK AO2 SLP149 T01670011 10172 20089 56021,0,7.0,0,16090.0,0,0,0,
2026-04-06 22:56:00,METAR KBZN 062256Z 16005KT 10SM CLR 17/02 A3001 RMK AO2 SLP155 T01670017,0,5.0,0,16090.0,0,0,0,
2026-04-06 21:56:00,METAR KBZN 062156Z 28004KT 10SM CLR 16/01 A3004 RMK AO2 SLP165 T01610011,0,4.0,0,16090.0,0,0,0,
2026-04-06 20:56:00,METAR KBZN 062056Z VRB03KT 10SM CLR 14/02 A3006 RMK AO2 SLP173 T01390022 56027,0,3.0,0,16090.0,0,0,0,
2026-04-06 19:56:00,METAR KBZN 061956Z 00000KT 10SM CLR 13/02 A3009 RMK AO2 SLP185 T01280022,0,0.0,0,16090.0,0,0,0,
2026-04-06 18:56:00,METAR KBZN 061856Z 23004KT 10SM FEW110 11/02 A3012 RMK AO2 SLP197 T01110017,0,4.0,0,16090.0,0,0,0,
2026-04-06 17:56:00,METAR KBZN 061756Z 01004KT 10SM FEW120 09/01 A3015 RMK AO2 SLP212 T00890011 10094 20011 58013,0,4.0,0,16090.0,0,0,0,
2026-04-06 16:56:00,METAR KBZN 061656Z 35004KT 10SM CLR 08/02 A3018 RMK AO2 SLP220 T00830017,0,4.0,0,16090.0,0,0,0,
2026-04-06 15:56:00,METAR KBZN 061556Z 34004KT 10SM BKN110 06/01 A3019 RMK AO2 SLP225 T00560011,0,4.0,0,16090.0,0,0,0,
2026-04-06 14:56:00,METAR KBZN 061456Z 30003KT 10SM SCT110 03/00 A3020 RMK AO2 SLP229 T00330000 51001,0,3.0,0,16090.0,0,0,0,
2026-04-06 13:56:00,METAR KBZN 061356Z 31003KT 10SM CLR 02/M01 A3020 RMK AO2 SLP229 T00171006,0,3.0,0,16090.0,0,0,0,
2026-04-06 12:56:00,METAR KBZN 061256Z 27005KT 10SM CLR 01/M01 A3020 RMK AO2 SLP225 T00111011,0,5.0,0,16090.0,0,0,0,
2026-04-06 11:56:00,METAR KBZN 061156Z 28006KT 10SM CLR 02/M01 A3019 RMK AO2 SLP220 T00171011 10067 20017 56006,0,6.0,0,16090.0,0,0,0,
2026-04-06 11:21:00,SPECI KBZN 061121Z 31005KT 10SM CLR 02/M01 A3020 RMK AO2 T00221011,0,5.0,0,16090.0,0,0,0,
2026-04-06 10:56:00,METAR KBZN 061056Z AUTO 32004KT 10SM CLR 02/M01 A3020 RMK AO2 SLP223 T00221011,0,4.0,0,16090.0,0,0,0,
2026-04-06 09:56:00,METAR KBZN 060956Z AUTO 29005KT 10SM CLR 03/M01 A3020 RMK AO2 SLP222 T00281006,0,5.0,0,16090.0,0,0,0,
2026-04-06 08:56:00,METAR KBZN 060856Z AUTO 00000KT 10SM CLR 04/00 A3021 RMK AO2 SLP225 T00440000 50001,0,0.0,0,16090.0,0,0,0,
2026-04-06 07:56:00,METAR KBZN 060756Z AUTO 34006KT 10SM CLR 04/00 A3022 RMK AO2 SLP227 T00440000,0,6.0,0,16090.0,0,0,0,
2026-04-06 06:56:00,METAR KBZN 060656Z AUTO 27007KT 10SM CLR 06/00 A3022 RMK AO2 SLP228 T00560000 401721033,0,7.0,0,16090.0,0,0,0,
2026-04-06 05:56:00,METAR KBZN 060556Z 29006KT 10SM CLR 07/00 A3021 RMK AO2 SLP229 T00670000 10167 20056 50006,0,6.0,0,16090.0,0,0,0,
2026-04-06 04:56:00,METAR KBZN 060456Z 31006KT 10SM CLR 07/01 A3021 RMK AO2 SLP233 T00670006,0,6.0,0,16090.0,0,0,0,
2026-04-06 03:56:00,METAR KBZN 060356Z 01005KT 10SM CLR 09/00 A3020 RMK AO2 SLP229 T00940000,0,5.0,0,16090.0,0,0,0,
2026-04-06 02:56:00,METAR KBZN 060256Z 13007KT 10SM CLR 11/00 A3019 RMK AO2 SLP227 T01060000 55003,0,7.0,0,16090.0,0,0,0,
2026-04-06 01:56:00,METAR KBZN 060156Z 12006KT 10SM CLR 12/M01 A3018 RMK AO2 SLP228 T01221011,0,6.0,0,16090.0,0,0,0,
2026-04-06 00:56:00,METAR KBZN 060056Z 00000KT 10SM CLR 16/M03 A3019 RMK AO2 SLP230 T01561028,0,0.0,0,16090.0,0,0,0,
2026-04-05 23:56:00,METAR KBZN 052356Z 04008KT 10SM CLR 17/M04 A3020 RMK AO2 SLP229 T01671039 10172 20106 56014,0,8.0,0,16090.0,0,0,0,
2026-04-05 22:56:00,METAR KBZN 052256Z 05007KT 10SM CLR 17/M04 A3021 RMK AO2 SLP233 T01671039,0,7.0,0,16090.0,0,0,0,
2026-04-05 21:56:00,METAR KBZN 052156Z 07007KT 10SM CLR 17/M04 A3023 RMK AO2 SLP237 T01671044,0,7.0,0,16090.0,0,0,0,
2026-04-05 20:56:00,METAR KBZN 052056Z 05006KT 10SM CLR 16/M04 A3025 RMK AO2 SLP247 T01611039 56020,0,6.0,0,16090.0,0,0,0,
2026-04-05 19:56:00,METAR KBZN 051956Z 00000KT 10SM CLR 15/M03 A3027 RMK AO2 SLP249 T01501033,0,0.0,0,16090.0,0,0,0,
2026-04-05 18:56:00,METAR KBZN 051856Z 05005KT 10SM CLR 13/M02 A3028 RMK AO2 SLP262 T01331017,0,5.0,0,16090.0,0,0,0,
2026-04-05 17:56:00,METAR KBZN 051756Z 33003KT 10SM CLR 11/00 A3032 RMK AO2 SLP275 T01110000 10111 21033 58011,0,3.0,0,16090.0,0,0,0,
2026-04-05 16:56:00,METAR KBZN 051656Z 00000KT 10SM CLR 08/00 A3033 RMK AO2 SLP279 T00830000,0,0.0,0,16090.0,0,0,0,
2026-04-05 15:56:00,METAR KBZN 051556Z 00000KT 10SM CLR 06/00 A3034 RMK AO2 SLP285 T00610000,0,0.0,0,16090.0,0,0,0,
2026-04-05 14:56:00,METAR KBZN 051456Z 00000KT 10SM CLR 03/M01 A3035 RMK AO2 SLP292 T00331006 50000,0,0.0,0,16090.0,0,0,0,
2026-04-05 12:56:00,METAR KBZN 051256Z 11003KT 10SM CLR M03/M04 A3035 RMK AO2 SLP292 T10281044,0,3.0,0,16090.0,0,0,0,
2026-04-05 11:56:00,METAR KBZN 051156Z 12005KT 10SM CLR M02/M03 A3035 RMK AO2 SLP287 T10171033 10022 21022 56001,0,5.0,0,16090.0,0,0,0,
2026-04-05 10:56:00,METAR KBZN 051056Z AUTO 16006KT 10SM CLR M01/M03 A3035 RMK AO2 SLP286 T10111028,0,6.0,0,16090.0,0,0,0,
2026-04-05 09:56:00,METAR KBZN 050956Z AUTO 14007KT 10SM CLR M02/M03 A3035 RMK AO2 SLP287 T10171028,0,7.0,0,16090.0,0,0,0,
2026-04-05 08:56:00,METAR KBZN 050856Z AUTO 11005KT 10SM CLR M02/M03 A3035 RMK AO2 SLP291 T10171033 51004,0,5.0,0,16090.0,0,0,0,
2026-04-05 07:56:00,METAR KBZN 050756Z AUTO 16009KT 10SM CLR 01/M02 A3035 RMK AO2 SLP287 T00111017,0,9.0,0,16090.0,0,0,0,
2026-04-05 06:56:00,METAR KBZN 050656Z AUTO 14006KT 10SM CLR 00/M02 A3035 RMK AO2 SLP287 T00001017 401391033,0,6.0,0,16090.0,0,0,0,
2026-04-05 05:56:00,METAR KBZN 050556Z 15009KT 10SM CLR 01/M01 A3034 RMK AO2 SLP288 T00111011 10139 20011 51011,0,9.0,0,16090.0,0,0,0,
2026-04-05 04:56:00,METAR KBZN 050456Z 16007KT 10SM CLR 04/00 A3034 RMK AO2 SLP286 T00390000,0,7.0,0,16090.0,0,0,0,
2026-04-05 03:56:00,METAR KBZN 050356Z 16005KT 10SM CLR 04/00 A3032 RMK AO2 SLP286 T00440000,0,5.0,0,16090.0,0,0,0,
2026-04-05 02:56:00,METAR KBZN 050256Z 10003KT 10SM CLR 06/01 A3030 RMK AO2 SLP281 T00610011 53007,0,3.0,0,16090.0,0,0,0,
2026-04-05 01:56:00,METAR KBZN 050156Z 12006KT 10SM CLR 08/M01 A3028 RMK AO2 SLP273 T00831006,0,6.0,0,16090.0,0,0,0,
2026-04-05 00:56:00,METAR KBZN 050056Z 00000KT 10SM BKN085 12/M03 A3028 RMK AO2 SLP266 T01221028,0,0.0,0,16090.0,0,0,0,
2026-04-04 23:56:00,METAR KBZN 042356Z 00000KT 10SM BKN085 14/M04 A3028 RMK AO2 SLP260 T01391039 10139 20089 56009,0,0.0,0,16090.0,0,0,0,
2026-04-04 22:56:00,METAR KBZN 042256Z 00000KT 10SM FEW070 14/M04 A3028 RMK AO2 SLP263 T01391039,0,0.0,0,16090.0,0,0,0,
2026-04-04 21:56:00,METAR KBZN 042156Z 31008KT 10SM CLR 13/M04 A3029 RMK AO2 SLP263 T01331039,0,8.0,0,16090.0,0,0,0,
2026-04-04 20:56:00,METAR KBZN 042056Z 23011G17KT 10SM FEW070 13/M03 A3031 RMK AO2 SLP271 T01281033 56019,0,11.0,1,16090.0,0,0,0,
2026-04-04 19:56:00,METAR KBZN 041956Z 30008KT 260V340 10SM BKN060 12/M02 A3033 RMK AO2 SLP279 T01171022,0,8.0,0,16090.0,0,0,0,
2026-04-04 18:56:00,METAR KBZN 041856Z 30012G17KT 10SM CLR 11/M03 A3035 RMK AO2 SLP286 T01061028,0,12.0,1,16090.0,0,0,0,
2026-04-04 17:56:00,METAR KBZN 041756Z VRB03KT 10SM CLR 09/M02 A3038 RMK AO2 SLP300 T00891017 10094 21033 58003,0,3.0,0,16090.0,0,0,0,
2026-04-04 16:56:00,METAR KBZN 041656Z 00000KT 10SM FEW055 06/00 A3038 RMK AO2 SLP309 T00610000,0,0.0,0,16090.0,0,0,0,
2026-04-04 15:56:00,METAR KBZN 041556Z 00000KT 10SM FEW060 03/00 A3038 RMK AO2 SLP312 T00330000,0,0.0,0,16090.0,0,0,0,
2026-04-04 14:56:00,METAR KBZN 041456Z 15003KT 10SM CLR 01/M01 A3039 RMK AO2 SLP317 T00061011 53007,0,3.0,0,16090.0,0,0,0,
2026-04-04 13:56:00,METAR KBZN 041356Z 15004KT 10SM CLR M02/M03 A3038 RMK AO2 SLP316 T10171033,0,4.0,0,16090.0,0,0,0,
2026-04-04 12:56:00,METAR KBZN 041256Z 14005KT 10SM CLR M02/M04 A3036 RMK AO2 SLP306 T10221039,0,5.0,0,16090.0,0,0,0,
2026-04-04 11:56:00,METAR KBZN 041156Z 09003KT 10SM CLR M01/M03 A3036 RMK AO2 SLP304 70001 T10111028 10017 21022 52002,0,3.0,0,16090.0,0,0,0,
2026-04-04 10:56:00,METAR KBZN 041056Z AUTO 17005KT 10SM FEW070 M02/M03 A3036 RMK AO2 SLP302 T10171028,0,5.0,0,16090.0,0,0,0,
2026-04-04 09:56:00,METAR KBZN 040956Z AUTO 16005KT 10SM BKN060 00/M01 A3036 RMK AO2 SLP300 T00001011,0,5.0,0,16090.0,0,0,0,
2026-04-04 08:56:00,METAR KBZN 040856Z AUTO 08003KT 10SM FEW075 00/M01 A3035 RMK AO2 SLP298 T00001006 51006,0,3.0,0,16090.0,0,0,0,
2026-04-04 07:56:00,METAR KBZN 040756Z AUTO 00000KT 10SM OVC075 02/00 A3035 RMK AO2 SLP296 T00170000,0,0.0,0,16090.0,0,0,0,
2026-04-04 06:56:00,METAR KBZN 040656Z AUTO 14003KT 10SM OVC080 01/00 A3034 RMK AO2 SLP298 T00110000 400721006,0,3.0,0,16090.0,0,0,0,
2026-04-04 05:56:00,METAR KBZN 040556Z 15005KT 10SM FEW070 OVC085 01/00 A3033 RMK AO2 SLP298 T00110000 10067 20000 51009,0,5.0,0,16090.0,0,0,0,
2026-04-04 04:56:00,METAR KBZN 040456Z 00000KT 10SM BKN085 01/M01 A3033 RMK AO2 SLP300 T00061006,0,0.0,0,16090.0,0,0,0,
2026-04-04 03:56:00,METAR KBZN 040356Z 15003KT 10SM OVC070 02/M01 A3032 RMK AO2 SLP295 T00171006,0,3.0,0,16090.0,0,0,0,
2026-04-04 02:56:00,METAR KBZN 040256Z 00000KT 10SM BKN065 02/00 A3030 RMK AO2 SLP289 T00220000 53007,0,0.0,0,16090.0,0,0,0,
2026-04-04 01:56:00,METAR KBZN 040156Z 06004KT 10SM CLR 04/01 A3029 RMK AO2 SLP282 T00390006,0,4.0,0,16090.0,0,0,0,
2026-04-04 00:56:00,METAR KBZN 040056Z 06005KT 10SM OVC075 06/00 A3028 RMK AO2 SLP276 T00610000,0,5.0,0,16090.0,0,0,0,
2026-04-03 23:56:00,METAR KBZN 032356Z 08006KT 10SM OVC075 06/M01 A3028 RMK AO2 SLP272 T00611011 10072 20017 53001,0,6.0,0,16090.0,0,0,0,
2026-04-03 22:56:00,METAR KBZN 032256Z 08007KT 10SM OVC075 07/M01 A3027 RMK AO2 SLP269 T00671006,0,7.0,0,16090.0,0,0,0,
2026-04-03 21:56:00,METAR KBZN 032156Z VRB04KT 10SM SCT080 07/M01 A3027 RMK AO2 SLP268 T00671011,0,4.0,0,16090.0,0,0,0,
2026-04-03 20:56:00,METAR KBZN 032056Z 12006KT 10SM FEW060 OVC080 07/01 A3027 RMK AO2 SLP270 T00670006 50003,0,6.0,0,16090.0,0,0,0,
2026-04-03 19:56:00,METAR KBZN 031956Z 11004KT 10SM OVC080 04/M01 A3027 RMK AO2 SLP275 T00441006,0,4.0,0,16090.0,0,0,0,
2026-04-03 18:56:00,METAR KBZN 031856Z 11004KT 10SM BKN055 BKN070 OVC080 03/00 A3027 RMK AO2 SLP274 T00330000,0,4.0,0,16090.0,0,0,0,
2026-04-03 17:56:00,METAR KBZN 031756Z 12005KT 10SM FEW046 BKN060 OVC070 02/00 A3026 RMK AO2 SLP275 60001 T00170000 10017 21006 51022,0,5.0,0,16090.0,0,0,0,
2026-04-03 16:56:00,METAR KBZN 031656Z 15004KT 10SM OVC048 01/M01 A3024 RMK AO2 SLP269 T00061006,0,4.0,0,16090.0,0,0,0,
2026-04-03 15:56:00,METAR KBZN 031556Z 13004KT 10SM OVC030 00/M01 A3021 RMK AO2 SLP263 T00001006,0,4.0,0,16090.0,0,0,0,
2026-04-03 14:56:00,METAR KBZN 031456Z 16003KT 10SM SCT014 OVC028 00/M01 A3019 RMK AO2 SLP255 P0001 60001 T00001006 53029,0,3.0,0,16090.0,0,0,0,
2026-04-03 14:06:00,SPECI KBZN 031406Z 00000KT 10SM OVC014 M01/M01 A3016 RMK AO2 T10061006,0,0.0,0,16090.0,0,0,0,
2026-04-03 13:56:00,METAR KBZN 031356Z 00000KT 10SM FEW003 OVC016 M01/M01 A3015 RMK AO2 SNE49 SLP242 P0000 T10061006,0,0.0,0,16090.0,0,0,0,
2026-04-03 13:41:00,SPECI KBZN 031341Z 00000KT 5SM -SN BR FEW003 OVC015 M01/M01 A3015 RMK AO2 P0000 T10061006,0,0.0,0,8045.0,0,0,1,"BR,SN"
2026-04-03 13:32:00,SPECI KBZN 031332Z 27003KT 2SM -SN BR SCT003 OVC015 M01/M01 A3014 RMK AO2 P0000 T10061006,0,3.0,0,3218.0,0,0,1,"BR,SN"
2026-04-03 13:27:00,SPECI KBZN 031327Z 00000KT 1SM R12/5500VP6000FT -SN BR FEW003 OVC015 M01/M01 A3014 RMK AO2 P0000 T10061006,0,0.0,0,1609.0,0,0,1,"BR,SN"
2026-04-03 13:18:00,SPECI KBZN 031318Z 27003KT 1/2SM R12/5000VP6000FT SN FZFG FEW003 OVC014 M01/M01 A3013 RMK AO2 P0000 T10061006,0,3.0,0,804.0,0,0,1,"FG,SN"
2026-04-03 13:10:00,SPECI KBZN 031310Z 28003KT 1SM R12/5500VP6000FT -SN BR FEW003 OVC014 M01/M01 A3013 RMK AO2 P0000 T10061006,0,3.0,0,1609.0,0,0,1,"BR,SN"
2026-04-03 12:56:00,METAR KBZN 031256Z 28003KT 1SM R12/P6000FT -SN BR VV014 M01/M01 A3012 RMK AO2 SLP232 P0000 T10061006,0,3.0,0,1609.0,0,0,1,"BR,SN"
2026-04-03 12:49:00,SPECI KBZN 031249Z 29003KT 1SM R12/P6000FT -SN BR BKN014 OVC020 M01/M01 A3012 RMK AO2 P0000 T10061006,0,3.0,0,1609.0,0,0,1,"BR,SN"
2026-04-03 12:39:00,SPECI KBZN 031239Z 30004KT 1 1/2SM -SN BR FEW003 OVC018 M01/M01 A3011 RMK AO2 P0000 T10061006,0,4.0,0,2414.0,0,0,1,"BR,SN"
2026-04-03 12:23:00,SPECI KBZN 031223Z 30004KT 2 1/2SM -SN BR FEW003 BKN020 OVC026 M01/M01 A3010 RMK AO2 P0000 T10061006,0,4.0,0,4022.0,0,0,1,"BR,SN"
2026-04-03 12:05:00,SPECI KBZN 031205Z 29004KT 1 1/2SM -SN BR FEW004 SCT010 OVC016 M01/M01 A3009 RMK AO2 P0000 T10061006,0,4.0,0,2414.0,0,0,1,"BR,SN"
2026-04-03 11:56:00,METAR KBZN 031156Z 29004KT 1 1/2SM -SN BR SCT004 BKN008 OVC012 00/M01 A3009 RMK AO2 SLP218 P0001 60004 70038 T00001006 10006 21006 53022,0,4.0,0,2414.0,0,0,1,"BR,SN"
2026-04-03 11:35:00,SPECI KBZN 031135Z 28003KT 1 3/4SM -SN BR BKN003 BKN010 OVC017 00/00 A3008 RMK AO2 P0001 T00000000,0,3.0,0,2816.0,0,0,1,"BR,SN"
2026-04-03 11:17:00,SPECI KBZN 031117Z 25005KT 2 1/2SM -SN BR FEW005 BKN014 OVC022 00/M01 A3007 RMK AO2 P0000 T00001006,0,5.0,0,4022.0,0,0,1,"BR,SN"
2026-04-03 08:56:00,METAR KBZN 030856Z AUTO 00000KT 6SM -SN BR FEW033 OVC050 00/M01 A3002 RMK AO2 SNB41 SLP178 P0000 60000 T00001006 52022,0,0.0,0,9654.0,0,0,1,"BR,SN"
2026-04-03 05:56:00,METAR KBZN 030556Z 24006KT 10SM OVC045 01/M01 A2994 RMK AO2 SLP163 60014 T00061006 10006 20000 53014,0,6.0,0,16090.0,0,0,0,
2026-04-03 04:56:00,METAR KBZN 030456Z 26005KT 10SM OVC040 01/M01 A2991 RMK AO2 SNE27 SLP152 P0000 T00061006,0,5.0,0,16090.0,0,0,0,
2026-04-03 03:56:00,METAR KBZN 030356Z 25005KT 3SM -SN BR FEW022 OVC042 00/M01 A2989 RMK AO2 SLP143 P0001 T00001006,0,5.0,0,4827.0,0,0,1,"BR,SN"
2026-04-03 03:31:00,SPECI KBZN 030331Z 24006KT 5SM -SN BR BKN024 OVC041 00/00 A2988 RMK AO2 P0000 T00000000,0,6.0,0,8045.0,0,0,1,"BR,SN"
2026-04-03 03:20:00,SPECI KBZN 030320Z 26007KT 4SM -SN BR SCT026 OVC033 00/00 A2987 RMK AO2 P0000 T00000000,0,7.0,0,6436.0,0,0,1,"BR,SN"
2026-04-03 03:05:00,SPECI KBZN 030305Z 28006KT 4SM -SN BR OVC023 00/00 A2986 RMK AO2 P0000 T00000000,0,6.0,0,6436.0,0,0,1,"BR,SN"
2026-04-03 02:56:00,METAR KBZN 030256Z 29007KT 2SM -SN BR OVC017 00/00 A2985 RMK AO2 SLP129 P0002 60013 T00000000 51035,0,7.0,0,3218.0,0,0,1,"BR,SN"
2026-04-03 02:45:00,SPECI KBZN 030245Z 27006KT 1 1/2SM -SN BR BKN015 OVC022 00/00 A2985 RMK AO2 P0001 T00000000,0,6.0,0,2414.0,0,0,1,"BR,SN"
2026-04-03 02:37:00,SPECI KBZN 030237Z 27006KT 2SM -SN BR OVC020 00/00 A2984 RMK AO2 P0001 T00000000,0,6.0,0,3218.0,0,0,1,"BR,SN"
2026-04-03 02:30:00,SPECI KBZN 030230Z 28007KT 3SM -SN BR OVC020 00/00 A2984 RMK AO2 P0000 T00000000,0,7.0,0,4827.0,0,0,1,"BR,SN"
2026-04-03 02:17:00,SPECI KBZN 030217Z 27009KT 2 1/2SM -SN BR OVC018 00/00 A2982 RMK AO2 P0000 T00000000,0,9.0,0,4022.0,0,0,1,"BR,SN"
2026-04-03 02:09:00,SPECI KBZN 030209Z 27009KT 2SM -SN BR OVC014 00/00 A2982 RMK AO2 P0000 T00000000,0,9.0,0,3218.0,0,0,1,"BR,SN"
2026-04-03 02:04:00,SPECI KBZN 030204Z 27011KT 1SM R12/6000VP6000FT -SN BR FEW003 OVC010 00/00 A2982 RMK AO2 P0000 T00000000,0,11.0,0,1609.0,0,0,1,"BR,SN"
2026-04-03 01:56:00,METAR KBZN 030156Z 27010G19KT 1/2SM R12/4500VP6000FT SN FG FEW003 OVC008 00/00 A2981 RMK AO2 SLP114 P0004 T00000000,0,10.0,1,804.0,0,0,1,"FG,SN"
2026-04-03 01:44:00,SPECI KBZN 030144Z 28013KT 1/2SM R12/4000V5500FT SN FG SCT004 OVC008 00/00 A2981 RMK AO2 P0003 T00000000,0,13.0,0,804.0,0,0,1,"FG,SN"
2026-04-03 00:56:00,METAR KBZN 030056Z 27010KT 1/4SM R12/3500V4000FT +SN FG VV008 00/00 A2978 RMK AO2 SLP105 P0007 T00000000,0,10.0,0,402.0,0,0,1,"FG,SN"
2026-04-03 00:45:00,SPECI KBZN 030045Z 27011G24KT 1/2SM R12/3500V4500FT SN FEW003 OVC009 00/00 A2977 RMK AO2 P0006 T00000000,0,11.0,1,804.0,0,0,0,SN
2026-04-02 23:56:00,METAR KBZN 022356Z 26015KT 1/4SM R12/2800V3500FT SN SCT003 OVC007 01/00 A2974 RMK AO2 SNB31 SLP087 P0004 60010 I1000 I6000 T00060000 10083 20006 51048,0,15.0,0,402.0,0,0,0,SN
2026-04-02 23:44:00,SPECI KBZN 022344Z 26013G23KT 1/4SM R12/3500V5000FT SN SCT005 OVC009 01/00 A2973 RMK AO2 SNB31 P0004 I1000 T00060000,0,13.0,1,402.0,0,0,0,SN
2026-04-02 23:27:00,SPECI KBZN 022327Z 27013KT 3/4SM R12/3500VP6000FT SCT006 OVC013 01/00 A2972 RMK AO2 P0002 I1000 T00060000,0,13.0,0,1207.0,0,0,0,
2026-04-02 23:18:00,SPECI KBZN 022318Z 26012KT 1SM R12/P6000FT SCT008 OVC020 01/00 A2971 RMK AO2 P0001 T00110000,0,12.0,0,1609.0,0,0,0,
2026-04-02 23:10:00,SPECI KBZN 022310Z 26011G19KT 1SM R12/5500VP6000FT BKN009 BKN022 OVC036 01/00 A2971 RMK AO2 P0001 T00110000,0,11.0,1,1609.0,0,0,0,
2026-04-02 22:56:00,METAR KBZN 022256Z 28007KT 2SM FEW008 BKN026 OVC034 01/00 A2971 RMK AO2 PK WND 25029/2158 WSHFT 2143 SNE56 SLP080 P0005 T00110000,0,7.0,0,3218.0,0,0,0,
2026-04-02 22:40:00,SPECI KBZN 022240Z 28013KT 2SM SN BKN017 OVC034 01/00 A2969 RMK AO2 PK WND 25029/2158 WSHFT 2143 PRESRR P0005 T00110000,0,13.0,0,3218.0,0,0,0,SN
2026-04-02 22:32:00,SPECI KBZN 022232Z 28014G22KT 2SM SN OVC013 01/00 A2968 RMK AO2 PK WND 25029/2158 WSHFT 2143 PRESRR P0005 T00060000,0,14.0,1,3218.0,0,0,0,SN
2026-04-02 22:10:00,SPECI KBZN 022210Z 26014G26KT 1/2SM R12/4000V6000FT SN BKN008 BKN022 OVC035 01/00 A2965 RMK AO2 PK WND 25029/2158 WSHFT 2143 P0003 T00060000,0,14.0,1,804.0,0,0,0,SN
2026-04-02 21:59:00,SPECI KBZN 022159Z 26021G34KT 1/2SM R12/4500VP6000FT SN SCT008 BKN022 OVC047 01/01 A2963 RMK AO2 PK WND 25029/2158 WSHFT 2143 P0000 T00110006,0,21.0,1,804.0,0,0,0,SN
2026-04-02 21:56:00,METAR KBZN 022156Z 25023G35KT 1/2SM R12/5500VP6000FT SN FEW014 BKN035 OVC047 02/01 A2963 RMK AO2 PK WND 27035/2149 WSHFT 2140 RAB53E54SNB54 PRESRR SLP046 P0001 T00220006,0,23.0,1,804.0,0,0,0,"RA,SN"
2026-04-02 21:54:00,SPECI KBZN 022154Z 25025G35KT 1SM R12/P6000FT SN SCT022 BKN035 OVC047 03/00 A2962 RMK AO2 PK WND 27035/2149 WSHFT 2140 RAB53E54SNB54 P0001,0,25.0,1,1609.0,0,0,0,"RA,SN"
2026-04-02 20:56:00,METAR KBZN 022056Z AUTO 33015G19KT 10SM SCT028 BKN100 07/00 A2958 RMK AO2 RAE1958 SLP016 P0000 60000 T00720000 50002,0,15.0,1,16090.0,0,0,0,RA
2026-04-02 19:56:00,METAR KBZN 021956Z 30007KT 10SM -RA FEW020 BKN036 OVC050 06/01 A2958 RMK AO2 RAB49 SLP023 P0000 T00560011,0,7.0,0,16090.0,0,0,0,-RA
2026-04-02 19:29:00,SPECI KBZN 021929Z 32007KT 10SM FEW012 BKN020 OVC055 04/02 A2958 RMK AO2 T00440017,0,7.0,0,16090.0,0,0,0,
2026-04-02 19:12:00,SPECI KBZN 021912Z 33006KT 10SM BKN012 BKN021 OVC030 04/02 A2958 RMK AO2 T00390022,0,6.0,0,16090.0,0,0,0,
2026-04-02 19:03:00,SPECI KBZN 021903Z 36003KT 10SM SCT011 BKN018 OVC024 04/02 A2958 RMK AO2 T00390017,0,3.0,0,16090.0,0,0,0,
2026-04-02 18:56:00,METAR KBZN 021856Z 35003KT 10SM BKN007 BKN011 OVC047 04/02 A2958 RMK AO2 UPB1759E23SNE1759 SLP023 P0000 T00390017,0,3.0,0,16090.0,0,0,0,UP
2026-04-02 17:56:00,METAR KBZN 021756Z 28011KT 9SM -SN BKN006 OVC012 02/01 A2957 RMK AO2 RAE12SNB12 SLP023 VSBY LWR E-S. P0003 60010 T00170011 10050 20017 53026,0,11.0,0,14481.0,0,0,0,"RA,SN"
2026-04-02 17:06:00,SPECI KBZN 021706Z 29013KT 6SM -RA BR BKN009 BKN017 OVC032 02/01 A2953 RMK AO2 P0001 T00170006,0,13.0,0,9654.0,0,0,1,"-RA,BR"
2026-04-02 16:56:00,METAR KBZN 021656Z 28015G25KT 8SM RA SCT011 BKN015 OVC050 02/01 A2952 RMK AO2 RAE08B53SNB52E53 SLP005 P0001 T00220011,0,15.0,1,12872.0,0,0,0,RA
2026-04-02 16:08:00,SPECI KBZN 021608Z 07003KT 10SM BKN037 OVC060 05/03 A2948 RMK AO2 RAE08 P0000 T00500028,0,3.0,0,16090.0,0,0,0,
2026-04-02 15:56:00,METAR KBZN 021556Z 34003KT 5SM -RA BR OVC027 04/03 A2948 RMK AO2 RAB10 SLP987 P0005 T00440028,0,3.0,0,8045.0,0,0,1,"-RA,BR"
2026-04-02 15:53:00,SPECI KBZN 021553Z 30005KT 5SM -RA BR OVC027 04/03 A2948 RMK AO2 RAB10 P0005,0,5.0,0,8045.0,0,0,1,"-RA,BR"
2026-04-02 15:45:00,SPECI KBZN 021545Z 25006KT 10SM -RA FEW021 OVC031 04/03 A2948 RMK AO2 RAB10 P0004 T00440028,0,6.0,0,16090.0,0,0,0,-RA
2026-04-02 15:22:00,SPECI KBZN 021522Z 24008G17KT 6SM -RA BR BKN021 BKN029 OVC047 04/03 A2948 RMK AO2 RAB10 P0002 T00440028,0,8.0,1,9654.0,0,0,1,"-RA,BR"
2026-04-02 14:56:00,METAR KBZN 021456Z 25007KT 10SM SCT060 OVC070 04/03 A2947 RMK AO2 SLP984 60001 T00440033 53002,0,7.0,0,16090.0,0,0,0,
2026-04-02 13:56:00,METAR KBZN 021356Z 21004KT 10SM OVC080 04/03 A2945 RMK AO2 RAE10 SLP969 P0000 T00390033,0,4.0,0,16090.0,0,0,0,
2026-04-02 12:56:00,METAR KBZN 021256Z 06005KT 10SM -RA BKN050 OVC065 03/03 A2945 RMK AO2 RAE09B53UPB09E12 SLP971 P0001 T00330028,0,5.0,0,16090.0,0,0,0,"-RA,RA"
2026-04-02 11:56:00,METAR KBZN 021156Z 01005KT 10SM -RA OVC040 03/03 A2947 RMK AO2 RAB50 SLP973 P0000 60001 70012 T00330028 10050 20017 55015,0,5.0,0,16090.0,0,0,0,-RA
2026-04-02 11:23:00,SPECI KBZN 021123Z 00000KT 10SM FEW070 BKN090 OVC110 03/02 A2946 RMK AO2 T00280022,0,0.0,0,16090.0,0,0,0,
2026-04-02 10:56:00,METAR KBZN 021056Z AUTO 16003KT 10SM OVC095 02/02 A2946 RMK AO2 SLP973 T00220022,0,3.0,0,16090.0,0,0,0,
2026-04-02 09:56:00,METAR KBZN 020956Z AUTO 17004KT 10SM OVC090 04/03 A2949 RMK AO2 SLP979 T00390033,0,4.0,0,16090.0,0,0,0,
2026-04-02 08:56:00,METAR KBZN 020856Z AUTO 19003KT 10SM OVC075 04/03 A2951 RMK AO2 SLP989 60001 T00440033 58013,0,3.0,0,16090.0,0,0,0,
2026-04-02 07:56:00,METAR KBZN 020756Z AUTO 00000KT 10SM OVC075 04/03 A2953 RMK AO2 SLP999 T00440028,0,0.0,0,16090.0,0,0,0,
2026-04-02 06:56:00,METAR KBZN 020656Z AUTO 02005KT 10SM BKN050 OVC070 04/03 A2955 RMK AO2 RAB04E20 SLP012 P0001 T00440033 401221028,0,5.0,0,16090.0,0,0,0,RA
2026-04-02 05:56:00,METAR KBZN 020556Z 31004KT 10SM BKN070 OVC080 05/03 A2956 RMK AO2 SLP018 60009 T00500028 10111 20044 56013,0,4.0,0,16090.0,0,0,0,
2026-04-02 04:56:00,METAR KBZN 020456Z 22006KT 10SM BKN060 05/03 A2956 RMK AO2 SLP021 T00500033,0,6.0,0,16090.0,0,0,0,
2026-04-02 03:56:00,METAR KBZN 020356Z 08017KT 10SM FEW050 OVC070 05/03 A2957 RMK AO2 WSHFT 0313 RAE42 SLP025 P0007 T00500028,0,17.0,0,16090.0,0,0,0,
2026-04-02 03:32:00,SPECI KBZN 020332Z 09017KT 10SM -RA BKN038 05/04 A2959 RMK AO2 WSHFT 0313 P0007 T00500039,0,17.0,0,16090.0,0,0,0,-RA
2026-04-02 03:19:00,SPECI KBZN 020319Z 10015KT 4SM -RA BR FEW023 BKN029 OVC038 06/04 A2960 RMK AO2 P0007 T00560039,0,15.0,0,6436.0,0,0,1,"-RA,BR"
2026-04-02 02:56:00,METAR KBZN 020256Z 25014G24KT 7SM RA BKN027 BKN040 OVC055 06/03 A2960 RMK AO2 PK WND 26027/0201 RAB34 SLP036 P0002 60002 T00560033 53008,0,14.0,1,11263.0,0,0,0,RA
2026-04-02 02:44:00,SPECI KBZN 020244Z 26011KT 10SM -RA FEW023 BKN050 OVC065 06/04 A2960 RMK AO2 PK WND 26027/0201 RAB34 P0000 T00560039,0,11.0,0,16090.0,0,0,0,-RA
2026-04-02 01:56:00,METAR KBZN 020156Z 15008KT 10SM BKN075 OVC090 09/02 A2955 RMK AO2 SLP015 T00890022,0,8.0,0,16090.0,0,0,0,
2026-04-02 00:56:00,METAR KBZN 020056Z 15012KT 10SM BKN065 OVC085 09/03 A2957 RMK AO2 PK WND 14028/0010 SLP021 T00940028,0,12.0,0,16090.0,0,0,0,
2026-04-01 23:56:00,METAR KBZN 012356Z 13020G25KT 10SM SCT075 OVC090 11/03 A2958 RMK AO2 SLP023 60000 T01110033 10122 20028 56024,0,20.0,1,16090.0,0,0,0,
2026-04-01 22:56:00,METAR KBZN 012256Z 15011KT 10SM FEW080 SCT100 12/03 A2960 RMK AO2 SLP025 T01170028,0,11.0,0,16090.0,0,0,0,
2026-04-01 21:56:00,METAR KBZN 012156Z 15011KT 10SM FEW060 FEW080 12/03 A2962 RMK AO2 SLP035 T01170033,0,11.0,0,16090.0,0,0,0,
2026-04-01 20:56:00,METAR KBZN 012056Z 00000KT 10SM CLR 11/03 A2966 RMK AO2 SLP049 60000 T01110033 58026,0,0.0,0,16090.0,0,0,0,
2026-04-01 19:56:00,METAR KBZN 011956Z 00000KT 10SM CLR 08/03 A2968 RMK AO2 SLP064 T00830028,0,0.0,0,16090.0,0,0,0,
2026-04-01 18:56:00,METAR KBZN 011856Z 02004KT 10SM SCT048 OVC060 05/03 A2972 RMK AO2 RAE20UPB04E22 SLP083 P0000 T00500028,0,4.0,0,16090.0,0,0,0,RA
2026-04-01 17:56:00,METAR KBZN 011756Z 03004KT 5SM -RA BR FEW026 SCT031 OVC040 03/01 A2975 RMK AO2 UPB16E39RAB39SNE11 SLP093 P0002 60002 T00280006 10028 21028 50000,0,4.0,0,8045.0,0,0,1,"-RA,BR,UP"
2026-04-01 17:44:00,SPECI KBZN 011744Z 00000KT 5SM -RA BKN030 OVC035 02/M01 A2975 RMK AO2 UPB16E39RAB39SNE11 P0001 T00221006,0,0.0,0,8045.0,0,0,0,"-RA,UP"
2026-04-01 16:56:00,METAR KBZN 011656Z 00000KT 2SM -SN BR BKN023 BKN038 OVC047 02/M01 A2975 RMK AO2 SNB39 SLP098 P0000 T00171006,0,0.0,0,3218.0,0,0,1,"BR,SN"
2026-04-01 16:47:00,SPECI KBZN 011647Z 06003KT 3SM -SN BKN023 BKN041 OVC050 02/M01 A2975 RMK AO2 SNB39 P0000 T00171011,0,3.0,0,4827.0,0,0,0,SN
2026-04-01 15:56:00,METAR KBZN 011556Z 00000KT 10SM SCT043 OVC070 02/M02 A2975 RMK AO2 SLP095 T00171017,0,0.0,0,16090.0,0,0,0,
2026-04-01 14:56:00,METAR KBZN 011456Z 00000KT 10SM OVC070 01/M02 A2974 RMK AO2 SLP093 T00061017 57003,0,0.0,0,16090.0,0,0,0,
2026-04-01 13:56:00,METAR KBZN 011356Z 15004KT 10SM OVC070 M01/M03 A2974 RMK AO2 SLP096 T10061028,0,4.0,0,16090.0,0,0,0,
2026-04-01 12:56:00,METAR KBZN 011256Z 17003KT 10SM SCT075 BKN090 M02/M03 A2975 RMK AO2 SLP098 T10171033,0,3.0,0,16090.0,0,0,0,
2026-04-01 11:56:00,METAR KBZN 011156Z 00000KT 10SM FEW070 BKN100 M02/M03 A2975 RMK AO2 SLP101 70007 T10221028 10006 21022 56003,0,0.0,0,16090.0,0,0,0,
2026-04-01 10:56:00,METAR KBZN 011056Z AUTO 00000KT 10SM OVC075 M01/M03 A2975 RMK AO2 SLP101 T10111033,0,0.0,0,16090.0,0,0,0,
2026-04-01 09:56:00,METAR KBZN 010956Z AUTO 00000KT 10SM OVC075 M01/M02 A2976 RMK AO2 SLP102 T10061017,0,0.0,0,16090.0,0,0,0,
2026-04-01 08:56:00,METAR KBZN 010856Z AUTO 00000KT 10SM SCT070 M01/M03 A2976 RMK AO2 SLP103 T10111028 58011,0,0.0,0,16090.0,0,0,0,
2026-04-01 07:56:00,METAR KBZN 010756Z AUTO 14004KT 10SM BKN070 M02/M03 A2977 RMK AO2 SLP110 T10171028,0,4.0,0,16090.0,0,0,0,
2026-04-01 06:56:00,METAR KBZN 010656Z AUTO 16004KT 10SM BKN075 OVC085 M01/M03 A2979 RMK AO2 SLP114 T10061028 400221022,0,4.0,0,16090.0,0,0,0,
2026-04-01 05:56:00,METAR KBZN 010556Z 15006KT 10SM FEW055 OVC080 00/M02 A2980 RMK AO2 UPB43E55 SLP118 P0000 60000 T00001017 10022 21006 58004,0,6.0,0,16090.0,0,0,0,UP
2026-04-01 04:56:00,METAR KBZN 010456Z 15005KT 10SM FEW024 SCT080 OVC100 00/M03 A2980 RMK AO2 SLP122 T00001028,0,5.0,0,16090.0,0,0,0,
2026-04-01 03:56:00,METAR KBZN 010356Z 16004KT 10SM SCT110 00/M01 A2981 RMK AO2 SLP123 T00001011,0,4.0,0,16090.0,0,0,0,
2026-04-01 02:56:00,METAR KBZN 010256Z 00000KT 10SM FEW110 01/M02 A2981 RMK AO2 SLP123 60000 T00111017 55007,0,0.0,0,16090.0,0,0,0,
2026-04-01 01:56:00,METAR KBZN 010156Z 00000KT 10SM CLR 01/M02 A2980 RMK AO2 SLP121 T00111017,0,0.0,0,16090.0,0,0,0,
2026-04-01 00:56:00,METAR KBZN 010056Z 21006KT 10SM FEW018 OVC060 02/M01 A2982 RMK AO2 SNE04 SLP124 P0000 T00221006,0,6.0,0,16090.0,0,0,0,
2026-04-01 00:35:00,SPECI KBZN 010035Z 18004KT 10SM SCT018 SCT039 OVC060 02/M01 A2982 RMK AO2 SNE04 P0000 T00221006,0,4.0,0,16090.0,0,0,0,
2026-04-01 00:28:00,SPECI KBZN 010028Z 21005KT 10SM BKN018 BKN050 OVC080 02/M01 A2982 RMK AO2 SNE04 P0000 T00171006,0,5.0,0,16090.0,0,0,0,
2026-03-31 23:56:00,METAR KBZN 312356Z 16003KT 8SM -SN SCT017 BKN039 OVC055 02/M01 A2983 RMK AO2 RAB41E45UPB45E47SNB26E41B52 SLP128 P0001 60002 T00171006 10022 21006 56009,0,3.0,0,12872.0,0,0,0,"RA,SN"
2026-03-31 23:44:00,SPECI KBZN 312344Z 19003KT 9SM -RA SCT016 BKN039 OVC060 02/M01 A2984 RMK AO2 RAB41SNB26E41 P0001 T00171006,0,3.0,0,14481.0,0,0,0,"-RA,RA"
2026-03-31 23:36:00,SPECI KBZN 312336Z 16003KT 2 1/2SM -SN BR FEW016 BKN037 OVC060 01/M01 A2983 RMK AO2 SNB26 P0001 T00111006,0,3.0,0,4022.0,0,0,1,"BR,SN"
2026-03-31 22:56:00,METAR KBZN 312256Z 15005KT 10SM FEW015 OVC070 01/M01 A2984 RMK AO2 SNE08 SLP133 P0001 T00111011,0,5.0,0,16090.0,0,0,0,
2026-03-31 21:56:00,METAR KBZN 312156Z 15005KT 2SM R12/3500VP6000FT -SN BR OVC013 01/M01 A2985 RMK AO2 SNB06E31B47 SLP135 P0000 T00111006,0,5.0,0,3218.0,0,0,1,"BR,SN"
2026-03-31 21:29:00,SPECI KBZN 312129Z 16006KT 9SM -SN OVC014 01/M01 A2986 RMK AO2 SNB06 P0000 T00111011,0,6.0,0,14481.0,0,0,0,SN
2026-03-31 21:22:00,SPECI KBZN 312122Z 17007KT 7SM -SN OVC016 01/M01 A2986 RMK AO2 SNB06 P0000 T00111011,0,7.0,0,11263.0,0,0,0,SN
2026-03-31 21:15:00,SPECI KBZN 312115Z 16007KT 2 1/2SM -SN BR OVC016 02/M01 A2986 RMK AO2 SNB06 P0000 T00171006,0,7.0,0,4022.0,0,0,1,"BR,SN"
2026-03-31 20:56:00,METAR KBZN 312056Z 00000KT 10SM OVC017 02/M02 A2986 RMK AO2 SLP136 60000 T00221017 58012,0,0.0,0,16090.0,0,0,0,
2026-03-31 19:56:00,METAR KBZN 311956Z 00000KT 10SM OVC017 02/M02 A2989 RMK AO2 SNE1857B15E33 SLP148 P0000 T00171022,0,0.0,0,16090.0,0,0,0,SN
2026-03-31 18:56:00,METAR KBZN 311856Z 29004KT 9SM -SN SCT011 OVC019 01/M02 A2990 RMK AO2 SLP153 P0000 T00061017,0,4.0,0,14481.0,0,0,0,SN
2026-03-31 18:49:00,SPECI KBZN 311849Z 33003KT 5SM -SN BR BKN011 OVC019 01/M02 A2990 RMK AO2 P0000 T00061017,0,3.0,0,8045.0,0,0,1,"BR,SN"
2026-03-31 18:42:00,SPECI KBZN 311842Z 32004KT 5SM -SN BR SCT011 OVC019 01/M02 A2990 RMK AO2 P0000 T00061017,0,4.0,0,8045.0,0,0,1,"BR,SN"
2026-03-31 18:29:00,SPECI KBZN 311829Z 34003KT 4SM -SN BR BKN011 OVC019 00/M02 A2990 RMK AO2 CIG 007V013 P0000 T00001022,0,3.0,0,6436.0,0,0,1,"BR,SN"
2026-03-31 18:12:00,SPECI KBZN 311812Z 36003KT 2 1/2SM -SN BR BKN010 BKN013 OVC030 M01/M02 A2990 RMK AO2 P0000 T10061022,0,3.0,0,4022.0,0,0,1,"BR,SN"
2026-03-31 18:03:00,SPECI KBZN 311803Z 36005KT 3SM -SN BR BKN008 BKN012 OVC030 00/M02 A2990 RMK AO2 P0000 T00001017,0,5.0,0,4827.0,0,0,1,"BR,SN"
2026-03-31 17:56:00,METAR KBZN 311756Z 34005KT 2SM -SN BR BKN010 OVC035 M01/M03 A2991 RMK AO2 SNE23B41 SLP156 P0000 60005 T10061028 11006 21022 58006,0,5.0,0,3218.0,0,0,1,"BR,SN"
2026-03-31 17:52:00,SPECI KBZN 311752Z 35006KT 2SM -SN BR BKN010 OVC033 M01/M02 A2991 RMK AO2 SNE23B41 P0000,0,6.0,0,3218.0,0,0,1,"BR,SN"
2026-03-31 17:05:00,SPECI KBZN 311705Z 32006KT 3SM -SN BR BKN005 BKN020 OVC042 M01/M03 A2991 RMK AO2 P0000 T10111028,0,6.0,0,4827.0,0,0,1,"BR,SN"
2026-03-31 16:56:00,METAR KBZN 311656Z 30006KT 2SM -SN BR SCT005 BKN018 OVC032 M01/M03 A2992 RMK AO2 SLP162 P0002 T10111028,0,6.0,0,3218.0,0,0,1,"BR,SN"
2026-03-31 16:51:00,SPECI KBZN 311651Z 31006KT 1SM R12/4500VP6000FT -SN BR BKN005 BKN011 OVC016 M01/M02 A2991 RMK AO2 P0002,0,6.0,0,1609.0,0,0,1,"BR,SN"
2026-03-31 16:18:00,SPECI KBZN 311618Z 32005KT 3/4SM R12/4500VP6000FT -SN BR SCT007 BKN011 OVC034 M02/M03 A2992 RMK AO2 P0001 T10171028,0,5.0,0,1207.0,0,0,1,"BR,SN"
2026-03-31 16:12:00,SPECI KBZN 311612Z 31004KT 1 1/4SM R12/5000VP6000FT -SN BR BKN007 OVC034 M02/M03 A2992 RMK AO2 P0000 T10171028,0,4.0,0,2011.0,0,0,1,"BR,SN"
2026-03-31 16:09:00,SPECI KBZN 311609Z 00000KT 1 1/2SM -SN BR SCT007 BKN011 OVC034 M02/M03 A2992 RMK AO2 P0000 T10171028,0,0.0,0,2414.0,0,0,1,"BR,SN"
2026-03-31 16:07:00,SPECI KBZN 311607Z 00000KT 2SM -SN BR SCT009 OVC034 M02/M03 A2992 RMK AO2 P0000 T10171028,0,0.0,0,3218.0,0,0,1,"BR,SN"
2026-03-31 15:56:00,METAR KBZN 311556Z 00000KT 1 3/4SM -SN BR SCT008 OVC036 M02/M03 A2992 RMK AO2 SLP162 P0000 T10171028,0,0.0,0,2816.0,0,0,1,"BR,SN"
2026-03-31 15:44:00,SPECI KBZN 311544Z 00000KT 2 1/2SM -SN BR SCT007 OVC034 M02/M03 A2993 RMK AO2 P0000 T10171028,0,0.0,0,4022.0,0,0,1,"BR,SN"
2026-03-31 15:32:00,SPECI KBZN 311532Z 00000KT 3SM -SN BR FEW007 OVC034 M02/M03 A2993 RMK AO2 P0000 T10171028,0,0.0,0,4827.0,0,0,1,"BR,SN"
2026-03-31 15:10:00,SPECI KBZN 311510Z 00000KT 2 1/2SM -SN BR SCT011 SCT016 OVC031 M02/M03 A2994 RMK AO2 P0000 T10171028,0,0.0,0,4022.0,0,0,1,"BR,SN"
2026-03-31 15:07:00,SPECI KBZN 311507Z 00000KT 2 1/2SM -SN BR BKN011 BKN016 OVC031 M02/M03 A2994 RMK AO2 P0000 T10171028,0,0.0,0,4022.0,0,0,1,"BR,SN"
2026-03-31 15:02:00,SPECI KBZN 311502Z 00000KT 3SM -SN BR BKN009 BKN014 OVC031 M02/M03 A2994 RMK AO2 P0000 T10171028,0,0.0,0,4827.0,0,0,1,"BR,SN"
2026-03-31 14:56:00,METAR KBZN 311456Z 00000KT 4SM -SN BR FEW009 BKN031 OVC050 M02/M03 A2994 RMK AO2 SLP166 P0001 60003 T10171028 58008,0,0.0,0,6436.0,0,0,1,"BR,SN"
2026-03-31 14:28:00,SPECI KBZN 311428Z 00000KT 4SM -SN BR SCT009 BKN033 OVC050 M02/M03 A2994 RMK AO2 P0000 T10221028,0,0.0,0,6436.0,0,0,1,"BR,SN"
2026-03-31 14:10:00,SPECI KBZN 311410Z 00000KT 2SM -SN BR OVC009 M02/M03 A2995 RMK AO2 P0000 T10221033,0,0.0,0,3218.0,0,0,1,"BR,SN"
2026-03-31 13:56:00,METAR KBZN 311356Z 20003KT 1 1/4SM -SN BR OVC008 M02/M03 A2995 RMK AO2 CIG 007V011 SLP172 P0001 T10221033,0,3.0,0,2011.0,0,0,1,"BR,SN"
2026-03-31 13:44:00,SPECI KBZN 311344Z 16005KT 2 1/2SM -SN BR OVC007 M02/M03 A2995 RMK AO2 P0001 T10221033,0,5.0,0,4022.0,0,0,1,"BR,SN"
2026-03-31 13:37:00,SPECI KBZN 311337Z 16006KT 1 3/4SM -SN BR OVC007 M02/M03 A2995 RMK AO2 P0001 T10221028,0,6.0,0,2816.0,0,0,1,"BR,SN"
2026-03-31 13:30:00,SPECI KBZN 311330Z 16007KT 1 1/4SM -SN BR OVC007 M02/M03 A2996 RMK AO2 CIG 005V010 P0001 T10171028,0,7.0,0,2011.0,0,0,1,"BR,SN"
2026-03-31 12:56:00,METAR KBZN 311256Z 15004KT 2 1/2SM -SN BR BKN006 OVC024 M02/M03 A2996 RMK AO2 SLP177 P0001 T10221028,0,4.0,0,4022.0,0,0,1,"BR,SN"
2026-03-31 12:53:00,SPECI KBZN 311253Z 15004KT 2 1/2SM -SN BR BKN006 OVC024 M02/M03 A2996 RMK AO2 P0001,0,4.0,0,4022.0,0,0,1,"BR,SN"
2026-03-31 12:32:00,SPECI KBZN 311232Z 13004KT 1 3/4SM -SN BR BKN006 BKN014 OVC022 M02/M03 A2997 RMK AO2 P0001 T10171028,0,4.0,0,2816.0,0,0,1,"BR,SN"
2026-03-31 12:21:00,SPECI KBZN 311221Z 15003KT 1 3/4SM -SN BR SCT005 BKN014 OVC024 M02/M03 A2998 RMK AO2 P0000 T10171028,0,3.0,0,2816.0,0,0,1,"BR,SN"
2026-03-31 12:15:00,SPECI KBZN 311215Z VRB03KT 2SM -SN BR FEW005 FEW016 OVC024 M01/M02 A2998 RMK AO2 P0000 T10111022,0,3.0,0,3218.0,0,0,1,"BR,SN"
2026-03-31 11:56:00,METAR KBZN 311156Z 00000KT 6SM -SN BR OVC026 M01/M03 A2998 RMK AO2 SNB50 SLP175 P0000 60000 70005 T10111028 10006 21011 56013,0,0.0,0,9654.0,0,0,1,"BR,SN"
2026-03-31 11:22:00,SPECI KBZN 311122Z 35006KT 10SM OVC024 M01/M03 A2998 RMK AO2 T10111028,0,6.0,0,16090.0,0,0,0,
2026-03-31 10:56:00,METAR KBZN 311056Z AUTO 05003KT 10SM BKN024 OVC042 M01/M04 A2999 RMK AO2 SLP178 T10111039,0,3.0,0,16090.0,0,0,0,
2026-03-31 10:22:00,SPECI KBZN 311022Z AUTO 00000KT 10SM BKN025 OVC044 M01/M04 A3000 RMK AO2 T10061044,0,0.0,0,16090.0,0,0,0,
2026-03-31 09:56:00,METAR KBZN 310956Z AUTO 00000KT 10SM OVC044 M01/M03 A3000 RMK AO2 SLP180 T10061028,0,0.0,0,16090.0,0,0,0,
2026-03-31 09:04:00,SPECI KBZN 310904Z AUTO 17008KT 10SM SCT028 OVC042 M01/M03 A3002 RMK AO2 T10061033,0,8.0,0,16090.0,0,0,0,
2026-03-31 08:56:00,METAR KBZN 310856Z AUTO 10003KT 10SM FEW020 BKN027 OVC041 00/M03 A3002 RMK AO2 SLP184 T00001033 56003,0,3.0,0,16090.0,0,0,0,
2026-03-31 07:56:00,METAR KBZN 310756Z AUTO 26006KT 10SM OVC015 M01/M04 A3002 RMK AO2 SLP180 T10061039,0,6.0,0,16090.0,0,0,0,
2026-03-31 07:07:00,SPECI KBZN 310707Z AUTO 00000KT 10SM BKN014 OVC047 M01/M03 A3002 RMK AO2 T10111033,0,0.0,0,16090.0,0,0,0,
2026-03-31 06:56:00,METAR KBZN 310656Z AUTO 35005KT 10SM SCT014 OVC047 M01/M03 A3002 RMK AO2 SLP175 T10111033 401441011,0,5.0,0,16090.0,0,0,0,
2026-03-31 05:56:00,METAR KBZN 310556Z 00000KT 10SM OVC050 01/M01 A3003 RMK AO2 SLP176 60002 T00061006 10033 21006 50002,0,0.0,0,16090.0,0,0,0,
2026-03-31 04:56:00,METAR KBZN 310456Z 03003KT 10SM BKN006 OVC120 00/M01 A3003 RMK AO2 SLP183 T00001006,0,3.0,0,16090.0,0,0,0,
2026-03-31 04:30:00,SPECI KBZN 310430Z 05004KT 10SM BKN006 BKN040 OVC095 01/00 A3004 RMK AO2 T00060000,0,4.0,0,16090.0,0,0,0,
2026-03-31 04:22:00,SPECI KBZN 310422Z 04005KT 10SM SCT006 BKN040 OVC090 00/00 A3004 RMK AO2 T00000000,0,5.0,0,16090.0,0,0,0,
2026-03-31 03:56:00,METAR KBZN 310356Z 20003KT 10SM SCT040 OVC085 01/00 A3003 RMK AO2 SLP183 T00110000,0,3.0,0,16090.0,0,0,0,
2026-03-31 02:56:00,METAR KBZN 310256Z 15006KT 10SM BKN070 BKN095 OVC110 01/00 A3002 RMK AO2 SNE27 SLP185 P0000 60002 T00110000 50003,0,6.0,0,16090.0,0,0,0,
2026-03-31 02:08:00,SPECI KBZN 310208Z 02005KT 5SM -SN BR SCT022 OVC045 01/00 A3002 RMK AO2 P0000 T00060000,0,5.0,0,8045.0,0,0,1,"BR,SN"
2026-03-31 01:56:00,METAR KBZN 310156Z 03003KT 6SM -SN BR BKN023 OVC030 01/00 A3002 RMK AO2 SLP191 P0001 T00060000,0,3.0,0,9654.0,0,0,1,"BR,SN"
2026-03-31 01:54:00,SPECI KBZN 310154Z 03004KT 5SM -SN BR BKN023 OVC030 01/00 A3002 RMK AO2 P0001,0,4.0,0,8045.0,0,0,1,"BR,SN"
2026-03-31 01:38:00,SPECI KBZN 310138Z 36007KT 2SM -SN BR OVC025 01/00 A3002 RMK AO2 P0001 T00110000,0,7.0,0,3218.0,0,0,1,"BR,SN"
2026-03-31 01:19:00,SPECI KBZN 310119Z 36006KT 4SM -SN BR BKN024 OVC030 02/00 A3002 RMK AO2 P0000 T00170000,0,6.0,0,6436.0,0,0,1,"BR,SN"
2026-03-31 00:56:00,METAR KBZN 310056Z 01007KT 10SM -SN BKN039 OVC060 02/00 A3001 RMK AO2 RAB2357E11UPB11E48SNB56 SLP183 P0001 T00220000,0,7.0,0,16090.0,0,0,0,"RA,SN"
2026-03-30 23:56:00,METAR KBZN 302356Z 01007KT 10SM FEW018 OVC050 03/00 A2999 RMK AO2 RAE43 SLP173 P0001 60003 T00330000 10111 20028 51025,0,7.0,0,16090.0,0,0,0,
2026-03-30 23:36:00,SPECI KBZN 302336Z 36007KT 10SM -RA FEW018 BKN036 OVC055 03/00 A2998 RMK AO2 P0001 T00330000,0,7.0,0,16090.0,0,0,0,-RA
2026-03-30 23:03:00,SPECI KBZN 302303Z 01005KT 8SM -RA FEW018 BKN024 OVC037 03/01 A2997 RMK AO2 P0001 T00330006,0,5.0,0,12872.0,0,0,0,-RA
2026-03-30 22:56:00,METAR KBZN 302256Z 36007KT 10SM -RA SCT018 OVC034 04/01 A2997 RMK AO2 SLP161 P0000 T00390006,0,7.0,0,16090.0,0,0,0,-RA
2026-03-30 21:56:00,METAR KBZN 302156Z 01012KT 10SM -RA BKN043 OVC055 04/01 A2993 RMK AO2 RAE08B38 SLP147 P0001 T00390011,0,12.0,0,16090.0,0,0,0,"-RA,RA"
2026-03-30 20:56:00,METAR KBZN 302056Z 32013KT 10SM -RA BKN028 OVC037 06/01 A2990 RMK AO2 RAB03 SLP131 P0001 60001 T00560011 51021,0,13.0,0,16090.0,0,0,0,-RA
2026-03-30 20:51:00,SPECI KBZN 302051Z 33013KT 10SM -RA BKN026 OVC036 06/02 A2990 RMK AO2 RAB03 P0001,0,13.0,0,16090.0,0,0,0,-RA
2026-03-30 19:56:00,METAR KBZN 301956Z 01015G20KT 10SM OVC040 08/00 A2986 RMK AO2 SLP108 T00830000,0,15.0,1,16090.0,0,0,0,
2026-03-30 18:56:00,METAR KBZN 301856Z 30020G25KT 10SM FEW040 FEW048 BKN100 11/02 A2983 RMK AO2 SLP086 T01110017,0,20.0,1,16090.0,0,0,0,
2026-03-30 17:56:00,METAR KBZN 301756Z 32007KT 10SM BKN110 11/01 A2981 RMK AO2 SLP082 T01060006 10111 21006 53002,0,7.0,0,16090.0,0,0,0,
2026-03-30 16:56:00,METAR KBZN 301656Z VRB03KT 10SM CLR 08/00 A2980 RMK AO2 SLP077 T00830000,0,3.0,0,16090.0,0,0,0,
2026-03-30 15:56:00,METAR KBZN 301556Z 00000KT 10SM OVC100 07/M01 A2980 RMK AO2 SLP076 T00671006,0,0.0,0,16090.0,0,0,0,
2026-03-30 14:56:00,METAR KBZN 301456Z 26003KT 10SM FEW100 04/M01 A2980 RMK AO2 SLP079 T00441011 56003,0,3.0,0,16090.0,0,0,0,
2026-03-30 13:56:00,METAR KBZN 301356Z 19005KT 10SM SCT100 01/M02 A2980 RMK AO2 SLP082 T00111017,0,5.0,0,16090.0,0,0,0,
2026-03-30 12:56:00,METAR KBZN 301256Z 20007KT 10SM FEW100 02/M02 A2980 RMK AO2 SLP082 T00221017,0,7.0,0,16090.0,0,0,0,
2026-03-30 11:56:00,METAR KBZN 301156Z 22004KT 10SM CLR 02/M02 A2981 RMK AO2 SLP083 T00221017 10144 20017 53005 $,0,4.0,0,16090.0,0,0,0,
2026-03-30 10:56:00,METAR KBZN 301056Z AUTO 22007KT 10SM FEW110 04/M01 A2980 RMK AO2 SLP075 T00391011 $,0,7.0,0,16090.0,0,0,0,
2026-03-30 09:56:00,METAR KBZN 300956Z AUTO 26008KT 10SM BKN100 05/M01 A2980 RMK AO2 SLP069 T00501011 $,0,8.0,0,16090.0,0,0,0,
2026-03-30 08:56:00,METAR KBZN 300856Z AUTO 24006KT 10SM CLR 06/M02 A2979 RMK AO2 SLP069 T00611017 55004 $,0,6.0,0,16090.0,0,0,0,
2026-03-30 07:56:00,METAR KBZN 300756Z AUTO 29005G16KT 10SM BKN120 09/M04 A2978 RMK AO2 SLP058 T00941044 $,0,5.0,1,16090.0,0,0,0,
2026-03-30 06:56:00,METAR KBZN 300656Z AUTO 21007KT 10SM OVC110 13/M07 A2979 RMK AO2 SLP059 T01331067 402170011 $,0,7.0,0,16090.0,0,0,0,
2026-03-30 05:56:00,METAR KBZN 300556Z 12010KT 10SM SCT110 10/M06 A2980 RMK AO2 SLP069 T01001061 10189 20100 58001 $,0,10.0,0,16090.0,0,0,0,
2026-03-30 04:56:00,METAR KBZN 300456Z 22007KT 10SM FEW110 14/M08 A2982 RMK AO2 PK WND 27027/0428 SLP070 T01441078 $,0,7.0,0,16090.0,0,0,0,
2026-03-30 03:56:00,METAR KBZN 300356Z 25012G21KT 10SM BKN120 15/M07 A2982 RMK AO2 SLP074 T01501067 $,0,12.0,1,16090.0,0,0,0,
2026-03-30 02:56:00,METAR KBZN 300256Z 26011KT 10SM BKN120 16/M06 A2981 RMK AO2 SLP076 T01611061 53004 $,0,11.0,0,16090.0,0,0,0,
2026-03-30 01:56:00,METAR KBZN 300156Z 26015G24KT 10SM CLR 17/M07 A2979 RMK AO2 PK WND 25028/0131 SLP073 T01721067 $,0,15.0,1,16090.0,0,0,0,
2026-03-30 00:56:00,METAR KBZN 300056Z 24014KT 10SM BKN110 18/M05 A2980 RMK AO2 PK WND 25034/0025 SLP077 T01831050 $,0,14.0,0,16090.0,0,0,0,
2026-03-29 23:56:00,METAR KBZN 292356Z 26015G25KT 10SM SCT120 19/M04 A2979 RMK AO2 PK WND 25031/2328 SLP072 T01891044 10217 20178 56003 $,0,15.0,1,16090.0,0,0,0,
2026-03-29 22:56:00,METAR KBZN 292256Z 24016G33KT 10SM BKN120 19/M05 A2980 RMK AO2 PK WND 23034/2210 SLP073 T01941050 $,0,16.0,1,16090.0,0,0,0,
2026-03-29 22:50:00,SPECI KBZN 292250Z 25018G32KT 10SM BKN120 19/M06 A2980 RMK AO2 PK WND 23034/2210 $,0,18.0,1,16090.0,0,0,0,
2026-03-29 21:56:00,METAR KBZN 292156Z 24016G35KT 10SM BKN110 21/M04 A2979 RMK AO2 PK WND 22035/2150 SLP068 T02111044 $,0,16.0,1,16090.0,0,0,0,
2026-03-29 20:56:00,METAR KBZN 292056Z 22018G31KT 10SM BKN110 19/M06 A2980 RMK AO2 PK WND 21032/2025 SLP073 T01891056 56029 $,0,18.0,1,16090.0,0,0,0,
2026-03-29 19:56:00,METAR KBZN 291956Z 22018G35KT 10SM FEW110 21/M05 A2983 RMK AO2 PK WND 25035/1947 SLP078 T02111050 $,0,18.0,1,16090.0,0,0,0,
2026-03-29 18:56:00,METAR KBZN 291856Z 23014G26KT 10SM FEW110 18/M06 A2986 RMK AO2 PK WND 23026/1850 SLP094 T01781061 $,0,14.0,1,16090.0,0,0,0,
2026-03-29 17:56:00,METAR KBZN 291756Z 26011G19KT 10SM CLR 18/M05 A2990 RMK AO2 SLP103 T01831050 10183 20017 58023 $,0,11.0,1,16090.0,0,0,0,
2026-03-29 16:58:00,SPECI KBZN 291658Z 23015G25KT 10SM CLR 17/M06 A2994 RMK AO2 T01671056 $,0,15.0,1,16090.0,0,0,0,
2026-03-29 16:56:00,METAR KBZN 291656Z 21018G27KT 10SM CLR 17/M06 A2994 RMK AO2 PK WND 24027/1647 WSHFT 1637 SLP115 T01671056 $,0,18.0,1,16090.0,0,0,0,
2026-03-29 16:38:00,SPECI KBZN 291638Z 22011G16KT 10SM CLR 15/M04 A2995 RMK AO2 T01501044 $,0,11.0,1,16090.0,0,0,0,
2026-03-29 15:56:00,METAR KBZN 291556Z 04003KT 10SM CLR 12/M04 A2997 RMK AO2 SLP131 T01221039 $,0,3.0,0,16090.0,0,0,0,
2026-03-29 14:56:00,METAR KBZN 291456Z 14006KT 10SM FEW090 08/M03 A2998 RMK AO2 SLP140 T00781028 53001 $,0,6.0,0,16090.0,0,0,0,
2026-03-29 13:56:00,METAR KBZN 291356Z 16006KT 10SM SCT090 06/M03 A2997 RMK AO2 SLP141 T00561033 $,0,6.0,0,16090.0,0,0,0,
2026-03-29 12:56:00,METAR KBZN 291256Z COR 14010KT 10SM SCT095 03/M04 A2997 RMK AO2 SLP142 T00331044 $,0,10.0,0,16090.0,0,0,0,
2026-03-29 11:56:00,METAR KBZN 291156Z 18010KT 10SM OVC095 05/M04 A2998 RMK AO2 SLP139 T00501044 10117 20011 58001 $,0,10.0,0,16090.0,0,0,0,
2026-03-29 10:56:00,METAR KBZN 291056Z AUTO 16007KT 10SM BKN100 04/M04 A2999 RMK AO2 SLP143 T00441044 $,0,7.0,0,16090.0,0,0,0,
2026-03-29 09:56:00,METAR KBZN 290956Z AUTO 14003KT 10SM BKN100 05/M04 A2998 RMK AO2 SLP140 T00501044 $,0,3.0,0,16090.0,0,0,0,
2026-03-29 08:56:00,METAR KBZN 290856Z AUTO 25005KT 10SM OVC100 07/M04 A2998 RMK AO2 SLP137 T00671039 53013 $,0,5.0,0,16090.0,0,0,0,
2026-03-29 07:56:00,METAR KBZN 290756Z AUTO 12008KT 10SM OVC100 07/M03 A2996 RMK AO2 SLP132 T00671033 $,0,8.0,0,16090.0,0,0,0,
2026-03-29 06:56:00,METAR KBZN 290656Z AUTO 18004KT 10SM OVC110 07/M02 A2995 RMK AO2 SLP130 T00721022 401831056 $,0,4.0,0,16090.0,0,0,0,
2026-03-29 05:56:00,METAR KBZN 290556Z 22004KT 10SM OVC120 11/M04 A2994 RMK AO2 SLP120 T01061044 10172 20100 53006 $,0,4.0,0,16090.0,0,0,0,
2026-03-29 04:56:00,METAR KBZN 290456Z 21006KT 10SM OVC110 12/M06 A2992 RMK AO2 SLP120 T01171061 $,0,6.0,0,16090.0,0,0,0,
2026-03-29 03:56:00,METAR KBZN 290356Z 34003KT 10SM OVC110 13/M06 A2992 RMK AO2 SLP124 T01281056 $,0,3.0,0,16090.0,0,0,0,
2026-03-29 02:56:00,METAR KBZN 290256Z 32003KT 10SM BKN120 14/M08 A2992 RMK AO2 SLP125 T01391078 53016 $,0,3.0,0,16090.0,0,0,0,
2026-03-29 01:56:00,METAR KBZN 290156Z 25004KT 10SM SCT120 14/M07 A2989 RMK AO2 SLP129 T01391072 $,0,4.0,0,16090.0,0,0,0,
2026-03-29 00:56:00,METAR KBZN 290056Z 04005KT 10SM OVC120 16/M09 A2987 RMK AO2 SLP117 T01561089 $,0,5.0,0,16090.0,0,0,0,
2026-03-28 23:56:00,METAR KBZN 282356Z 00000KT 10SM CLR 17/M08 A2986 RMK AO2 SLP114 T01671078 10183 20144 55012 $,0,0.0,0,16090.0,0,0,0,
2026-03-28 22:56:00,METAR KBZN 282256Z 05005KT 10SM BKN120 17/M07 A2986 RMK AO2 SLP110 T01721072 $,0,5.0,0,16090.0,0,0,0,
2026-03-28 21:56:00,METAR KBZN 282156Z 00000KT 10SM CLR 18/M09 A2988 RMK AO2 SLP115 T01781094 $,0,0.0,0,16090.0,0,0,0,
2026-03-28 20:56:00,METAR KBZN 282056Z 32007KT 10SM CLR 17/M09 A2990 RMK AO2 SLP126 T01721094 57024 $,0,7.0,0,16090.0,0,0,0,
2026-03-28 19:56:00,METAR KBZN 281956Z 00000KT 10SM CLR 16/M10 A2993 RMK AO2 SLP134 T01611100 $,0,0.0,0,16090.0,0,0,0,
2026-03-28 18:56:00,METAR KBZN 281856Z 01003KT 10SM CLR 15/M10 A2995 RMK AO2 SLP141 T01501100 $,0,3.0,0,16090.0,0,0,0,
2026-03-28 17:56:00,METAR KBZN 281756Z 00000KT 10SM CLR 14/M09 A2998 RMK AO2 SLP151 T01441089 10144 21056 58014 $,0,0.0,0,16090.0,0,0,0,
2026-03-28 16:56:00,METAR KBZN 281656Z 02005KT 10SM CLR 11/M07 A3001 RMK AO2 SLP167 T01061067 $,0,5.0,0,16090.0,0,0,0,
2026-03-28 15:56:00,METAR KBZN 281556Z VRB03KT 10SM CLR 07/M07 A3002 RMK AO2 SLP170 T00671072 $,0,3.0,0,16090.0,0,0,0,
2026-03-28 14:56:00,METAR KBZN 281456Z 14004KT 10SM CLR 03/M08 A3003 RMK AO2 SLP176 T00331078 52001 $,0,4.0,0,16090.0,0,0,0,
2026-03-28 13:56:00,METAR KBZN 281356Z 35003KT 10SM CLR M03/M08 A3002 RMK AO2 SLP180 T10331083 $,0,3.0,0,16090.0,0,0,0,
2026-03-28 12:56:00,METAR KBZN 281256Z 00000KT 10SM CLR M02/M09 A3002 RMK AO2 SLP172 T10221089 $,0,0.0,0,16090.0,0,0,0,
2026-03-28 11:56:00,METAR KBZN 281156Z 16006KT 10SM CLR M03/M09 A3002 RMK AO2 SLP171 T10331089 10033 21050 57006 $,0,6.0,0,16090.0,0,0,0,
2026-03-28 10:56:00,METAR KBZN 281056Z AUTO 12005KT 10SM CLR M03/M09 A3003 RMK AO2 SLP175 T10281089 $,0,5.0,0,16090.0,0,0,0,
2026-03-28 09:56:00,METAR KBZN 280956Z AUTO 15004KT 10SM CLR M01/M09 A3003 RMK AO2 SLP175 T10111089 $,0,4.0,0,16090.0,0,0,0,
2026-03-28 08:56:00,METAR KBZN 280856Z AUTO 14007KT 10SM CLR M03/M08 A3004 RMK AO2 SLP185 T10331083 58010 $,0,7.0,0,16090.0,0,0,0,
2026-03-28 07:56:00,METAR KBZN 280756Z AUTO 13004KT 10SM CLR M01/M08 A3007 RMK AO2 SLP194 T10111078 $,0,4.0,0,16090.0,0,0,0,
2026-03-28 06:56:00,METAR KBZN 280656Z AUTO 00000KT 10SM CLR 02/M08 A3007 RMK AO2 SLP194 T00171083 401611094 $,0,0.0,0,16090.0,0,0,0,
2026-03-28 05:56:00,METAR KBZN 280556Z 12008KT 10SM CLR 02/M08 A3007 RMK AO2 SLP201 T00171078 10161 21011 58010 $,0,8.0,0,16090.0,0,0,0,
2026-03-28 04:56:00,METAR KBZN 280456Z 13008KT 10SM CLR 01/M07 A3009 RMK AO2 SLP212 T00111072 $,0,8.0,0,16090.0,0,0,0,
2026-03-28 03:56:00,METAR KBZN 280356Z 18009KT 10SM CLR 06/M08 A3010 RMK AO2 SLP210 T00611078 $,0,9.0,0,16090.0,0,0,0,
2026-03-28 02:56:00,METAR KBZN 280256Z 17008KT 10SM CLR 07/M09 A3011 RMK AO2 SLP217 T00721089 55014 $,0,8.0,0,16090.0,0,0,0,
2026-03-28 01:56:00,METAR KBZN 280156Z 00000KT 10SM CLR 12/M12 A3011 RMK AO2 SLP215 T01221117 $,0,0.0,0,16090.0,0,0,0,
2026-03-28 00:56:00,METAR KBZN 280056Z 08003KT 10SM CLR 16/M12 A3013 RMK AO2 SLP217 T01561117 $,0,3.0,0,16090.0,0,0,0,
2026-03-27 23:56:00,METAR KBZN 272356Z 09003KT 10SM CLR 16/M12 A3015 RMK AO2 SLP223 T01611122 10161 20044 56035 $,0,3.0,0,16090.0,0,0,0,
2026-03-27 22:56:00,METAR KBZN 272256Z 00000KT 10SM CLR 15/M14 A3019 RMK AO2 SLP241 T01501139 $,0,0.0,0,16090.0,0,0,0,
2026-03-27 21:56:00,METAR KBZN 272156Z VRB03KT 10SM CLR 14/M14 A3023 RMK AO2 SLP249 T01391139 $,0,3.0,0,16090.0,0,0,0,
2026-03-27 20:56:00,METAR KBZN 272056Z 00000KT 10SM CLR 12/M14 A3027 RMK AO2 SLP270 T01171139 56042 $,0,0.0,0,16090.0,0,0,0,
2026-03-27 19:56:00,METAR KBZN 271956Z VRB04KT 10SM CLR 10/M11 A3032 RMK AO2 SLP288 T01001106 $,0,4.0,0,16090.0,0,0,0,
2026-03-27 18:56:00,METAR KBZN 271856Z 34004KT 10SM CLR 08/M10 A3036 RMK AO2 SLP306 T00781100 $,0,4.0,0,16090.0,0,0,0,
2026-03-27 17:56:00,METAR KBZN 271756Z 00000KT 10SM CLR 04/M11 A3041 RMK AO2 SLP328 T00441111 10050 21094 58027 $,0,0.0,0,16090.0,0,0,0,
2026-03-27 16:56:00,METAR KBZN 271656Z VRB03KT 10SM CLR 02/M11 A3046 RMK AO2 SLP350 T00221106 $,0,3.0,0,16090.0,0,0,0,
2026-03-27 15:56:00,METAR KBZN 271556Z 00000KT 10SM CLR 00/M09 A3049 RMK AO2 SLP355 T00001094 $,0,0.0,0,16090.0,0,0,0,
2026-03-25 14:56:00,METAR KBZN 251456Z 26006KT 10SM OVC100 14/02 A2989 RMK AO2 SLP093 T01390022 55000,0,6.0,0,16090.0,0,0,0,
2026-03-25 13:56:00,METAR KBZN 251356Z 19005KT 10SM BKN090 12/03 A2988 RMK AO2 SLP092 T01170033,0,5.0,0,16090.0,0,0,0,
2026-03-25 12:56:00,METAR KBZN 251256Z 22003KT 10SM SCT085 SCT100 13/03 A2987 RMK AO2 SLP089 T01280033,0,3.0,0,16090.0,0,0,0,
2026-03-25 11:56:00,METAR KBZN 251156Z 17006KT 10SM FEW085 BKN120 11/04 A2989 RMK AO2 SLP095 60000 T01060039 10167 20106 55005,0,6.0,0,16090.0,0,0,0,
2026-03-25 10:56:00,METAR KBZN 251056Z AUTO 23008KT 10SM FEW110 13/04 A2988 RMK AO2 SLP088 T01330039,0,8.0,0,16090.0,0,0,0,
2026-03-25 09:56:00,METAR KBZN 250956Z AUTO 23013KT 10SM BKN085 OVC100 14/04 A2989 RMK AO2 SLP091 T01440039,0,13.0,0,16090.0,0,0,0,
2026-03-25 08:56:00,METAR KBZN 250856Z AUTO 22011G17KT 10SM OVC100 14/04 A2990 RMK AO2 SLP097 60000 T01440039 50001,0,11.0,1,16090.0,0,0,0,
2026-03-25 07:56:00,METAR KBZN 250756Z AUTO 08006KT 10SM SCT120 12/06 A2991 RMK AO2 SLP102 T01220056,0,6.0,0,16090.0,0,0,0,
2026-03-25 06:56:00,METAR KBZN 250656Z AUTO 24010G20KT 10SM OVC100 15/05 A2991 RMK AO2 PK WND 23028/0607 RAB04E28 SLP103 P0000 T01500050 402000050,0,10.0,1,16090.0,0,0,0,RA
2026-03-25 05:56:00,METAR KBZN 250556Z 25017G24KT 10SM FEW075 FEW090 OVC110 17/03 A2990 RMK AO2 PK WND 24036/0526 SLP098 T01670033 10189 20167 53015,0,17.0,1,16090.0,0,0,0,
2026-03-25 04:56:00,METAR KBZN 250456Z 24015G27KT 10SM BKN085 OVC110 18/02 A2987 RMK AO2 PK WND 24028/0429 SLP092 T01780022,0,15.0,1,16090.0,0,0,0,
2026-03-25 03:56:00,METAR KBZN 250356Z 23011KT 10SM SCT110 17/01 A2987 RMK AO2 SLP096 T01720011,0,11.0,0,16090.0,0,0,0,
2026-03-25 02:56:00,METAR KBZN 250256Z 21007KT 10SM OVC090 17/01 A2985 RMK AO2 SLP091 T01670006 55003,0,7.0,0,16090.0,0,0,0,
2026-03-25 01:56:00,METAR KBZN 250156Z 23009KT 10SM OVC085 18/01 A2985 RMK AO2 SLP089 T01780006,0,9.0,0,16090.0,0,0,0,
2026-03-25 00:56:00,METAR KBZN 250056Z 22015G23KT 10SM OVC085 18/M01 A2986 RMK AO2 PK WND 22027/0041 SLP095 T01831006,0,15.0,1,16090.0,0,0,0,
2026-03-24 23:56:00,METAR KBZN 242356Z 22015KT 10SM OVC085 19/M01 A2986 RMK AO2 SLP095 T01891006 10200 20139 57012,0,15.0,0,16090.0,0,0,0,
2026-03-24 22:56:00,METAR KBZN 242256Z 24016G23KT 10SM OVC110 19/00 A2987 RMK AO2 SLP095 T01940000,0,16.0,1,16090.0,0,0,0,
2026-03-24 21:56:00,METAR KBZN 242156Z 26018G26KT 10SM FEW095 OVC120 19/00 A2989 RMK AO2 PK WND 27026/2148 SLP104 T01890000,0,18.0,1,16090.0,0,0,0,
2026-03-24 20:56:00,METAR KBZN 242056Z 33007KT 10SM OVC110 17/M01 A2990 RMK AO2 SLP107 T01721006 56012,0,7.0,0,16090.0,0,0,0,
2026-03-24 19:56:00,METAR KBZN 241956Z 30008KT 10SM FEW090 18/M01 A2990 RMK AO2 SLP110 T01831006,0,8.0,0,16090.0,0,0,0,
2026-03-24 18:56:00,METAR KBZN 241856Z 03004KT 10SM FEW100 16/M02 A2992 RMK AO2 SLP120 T01561017,0,4.0,0,16090.0,0,0,0,
2026-03-24 17:56:00,METAR KBZN 241756Z 00000KT 10SM BKN090 OVC100 14/M01 A2994 RMK AO2 SLP124 T01391006 10139 20050 55002,0,0.0,0,16090.0,0,0,0,
2026-03-24 16:56:00,METAR KBZN 241656Z 00000KT 10SM OVC080 11/M01 A2994 RMK AO2 SLP128 T01061006,0,0.0,0,16090.0,0,0,0,
2026-03-24 15:56:00,METAR KBZN 241556Z 00000KT 10SM OVC080 08/M01 A2994 RMK AO2 SLP134 T00831011,0,0.0,0,16090.0,0,0,0,
2026-03-24 14:56:00,METAR KBZN 241456Z 00000KT 10SM OVC085 07/M01 A2994 RMK AO2 SLP135 T00721006 58001,0,0.0,0,16090.0,0,0,0,
2026-03-24 13:56:00,METAR KBZN 241356Z 16006KT 10SM OVC095 06/M02 A2994 RMK AO2 SLP132 T00611017,0,6.0,0,16090.0,0,0,0,
2026-03-24 12:56:00,METAR KBZN 241256Z 14006KT 10SM FEW080 OVC095 06/M02 A2996 RMK AO2 SLP136 T00611022,0,6.0,0,16090.0,0,0,0,
2026-03-24 11:56:00,METAR KBZN 241156Z 12003KT 10SM OVC100 05/M01 A2995 RMK AO2 SLP132 T00501011 10089 20050 56003,0,3.0,0,16090.0,0,0,0,
2026-03-24 11:22:00,SPECI KBZN 241122Z 10004KT 10SM OVC095 05/M01 A2995 RMK AO2 T00501006,0,4.0,0,16090.0,0,0,0,
2026-03-24 10:56:00,METAR KBZN 241056Z AUTO 19003KT 10SM OVC095 07/M01 A2995 RMK AO2 SLP132 T00671011,0,3.0,0,16090.0,0,0,0,
2026-03-24 09:56:00,METAR KBZN 240956Z AUTO 11003KT 10SM BKN100 OVC120 06/M01 A2995 RMK AO2 SLP133 T00561006,0,3.0,0,16090.0,0,0,0,
2026-03-24 08:56:00,METAR KBZN 240856Z AUTO 00000KT 10SM OVC100 08/M03 A2996 RMK AO2 SLP132 T00781028 51001,0,0.0,0,16090.0,0,0,0,
2026-03-24 07:56:00,METAR KBZN 240756Z AUTO 16004KT 10SM OVC110 06/M02 A2995 RMK AO2 SLP135 T00611017,0,4.0,0,16090.0,0,0,0,
2026-03-24 06:56:00,METAR KBZN 240656Z AUTO 00000KT 10SM OVC110 06/M01 A2996 RMK AO2 SLP142 T00611011 401501061,0,0.0,0,16090.0,0,0,0,
2026-03-24 05:56:00,METAR KBZN 240556Z 00000KT 10SM OVC120 09/M03 A2995 RMK AO2 SLP139 T00891033 10144 20061 58003,0,0.0,0,16090.0,0,0,0,
2026-03-24 04:56:00,METAR KBZN 240456Z 00000KT 10SM BKN120 10/M04 A2996 RMK AO2 SLP144 T01001044,0,0.0,0,16090.0,0,0,0,
2026-03-24 03:56:00,METAR KBZN 240356Z 00000KT 10SM BKN120 08/M03 A2996 RMK AO2 SLP154 T00781033,0,0.0,0,16090.0,0,0,0,
2026-03-24 02:56:00,METAR KBZN 240256Z 00000KT 10SM SCT120 11/M05 A2996 RMK AO2 SLP155 T01061050 53002,0,0.0,0,16090.0,0,0,0,
2026-03-24 01:56:00,METAR KBZN 240156Z 00000KT 10SM OVC120 12/M07 A2996 RMK AO2 SLP153 T01221072,0,0.0,0,16090.0,0,0,0,
2026-03-24 00:56:00,METAR KBZN 240056Z 19004KT 10SM BKN120 14/M08 A2995 RMK AO2 SLP154 T01391083,0,4.0,0,16090.0,0,0,0,
2026-03-23 23:56:00,METAR KBZN 232356Z 22004KT 10SM SCT120 14/M09 A2996 RMK AO2 SLP149 T01441089 10150 20078 58010,0,4.0,0,16090.0,0,0,0,
2026-03-23 22:56:00,METAR KBZN 232256Z 00000KT 10SM CLR 14/M09 A2998 RMK AO2 SLP157 T01441094,0,0.0,0,16090.0,0,0,0,
2026-03-23 21:56:00,METAR KBZN 232156Z 32004KT 10SM CLR 14/M08 A2998 RMK AO2 SLP158 T01441083,0,4.0,0,16090.0,0,0,0,
2026-03-23 20:56:00,METAR KBZN 232056Z 01004KT 10SM CLR 14/M09 A2999 RMK AO2 SLP155 T01441089 58028,0,4.0,0,16090.0,0,0,0,
2026-03-23 19:56:00,METAR KBZN 231956Z 34004KT 10SM CLR 12/M10 A3002 RMK AO2 SLP171 T01221100,0,4.0,0,16090.0,0,0,0,
2026-03-23 18:56:00,METAR KBZN 231856Z VRB03KT 10SM CLR 10/M10 A3006 RMK AO2 SLP186 T01001100,0,3.0,0,16090.0,0,0,0,
2026-03-23 17:56:00,METAR KBZN 231756Z 19004KT 10SM CLR 08/M10 A3008 RMK AO2 SLP191 T00781100 10078 21061 58000,0,4.0,0,16090.0,0,0,0,
2026-03-23 16:56:00,METAR KBZN 231656Z 22005KT 10SM CLR 06/M09 A3009 RMK AO2 SLP203 T00561089,0,5.0,0,16090.0,0,0,0,
2026-03-23 15:56:00,METAR KBZN 231556Z 05003KT 10SM CLR 02/M08 A3009 RMK AO2 SLP208 T00171078,0,3.0,0,16090.0,0,0,0,
2026-03-23 14:56:00,METAR KBZN 231456Z 00000KT 10SM CLR M01/M06 A3008 RMK AO2 SLP198 T10061056 50000,0,0.0,0,16090.0,0,0,0,
2026-03-23 13:56:00,METAR KBZN 231356Z 24004KT 10SM CLR M02/M08 A3011 RMK AO2 SLP206 T10221083,0,4.0,0,16090.0,0,0,0,
2026-03-23 12:56:00,METAR KBZN 231256Z 00000KT 10SM CLR M05/M10 A3009 RMK AO2 SLP202 T10501100 $,0,0.0,0,16090.0,0,0,0,
2026-03-23 11:56:00,METAR KBZN 231156Z 00000KT 10SM CLR M03/M09 A3008 RMK AO2 SLP195 T10281089 10050 21044 55000 $,0,0.0,0,16090.0,0,0,0,
2026-03-23 10:56:00,METAR KBZN 231056Z AUTO 15005KT 10SM CLR M03/M09 A3008 RMK AO2 SLP193 T10331089 $,0,5.0,0,16090.0,0,0,0,
2026-03-23 09:56:00,METAR KBZN 230956Z AUTO 00000KT 10SM CLR M02/M09 A3008 RMK AO2 SLP192 T10221094 $,0,0.0,0,16090.0,0,0,0,
2026-03-23 08:56:00,METAR KBZN 230856Z AUTO 00000KT 10SM CLR 01/M09 A3008 RMK AO2 SLP191 T00061094 56013 $,0,0.0,0,16090.0,0,0,0,
2026-03-23 07:56:00,METAR KBZN 230756Z AUTO 15008KT 10SM CLR 01/M09 A3009 RMK AO2 SLP198 T00061094 $,0,8.0,0,16090.0,0,0,0,
2026-03-23 06:56:00,METAR KBZN 230656Z AUTO 00000KT 10SM CLR 01/M09 A3011 RMK AO2 SLP204 T00111089 401501017 $,0,0.0,0,16090.0,0,0,0,
2026-03-23 05:56:00,METAR KBZN 230556Z 17005KT 10SM CLR 05/M10 A3012 RMK AO2 SLP204 T00501100 10133 20022 51003 $,0,5.0,0,16090.0,0,0,0,
2026-03-23 04:56:00,METAR KBZN 230456Z 16009KT 10SM CLR 03/M08 A3012 RMK AO2 SLP212 T00331078 $,0,9.0,0,16090.0,0,0,0,
2026-03-23 03:56:00,METAR KBZN 230356Z 00000KT 10SM CLR 05/M09 A3012 RMK AO2 SLP214 T00501094 $,0,0.0,0,16090.0,0,0,0,
2026-03-23 02:56:00,METAR KBZN 230256Z 17003KT 10SM CLR 10/M13 A3011 RMK AO2 SLP206 T01001133 53002 $,0,3.0,0,16090.0,0,0,0,
2026-03-23 01:56:00,METAR KBZN 230156Z 00000KT 10SM CLR 12/M14 A3009 RMK AO2 SLP201 T01171144 $,0,0.0,0,16090.0,0,0,0,
2026-03-23 00:56:00,METAR KBZN 230056Z 00000KT 10SM CLR 13/M15 A3009 RMK AO2 SLP194 T01331150 $,0,0.0,0,16090.0,0,0,0,
2026-03-22 23:56:00,METAR KBZN 222356Z 30006KT 10SM CLR 13/M13 A3011 RMK AO2 SLP195 T01331133 10150 20083 56014 $,0,6.0,0,16090.0,0,0,0,
2026-03-22 22:56:00,METAR KBZN 222256Z 30012G21KT 10SM CLR 15/M14 A3012 RMK AO2 SLP199 T01501144 $,0,12.0,1,16090.0,0,0,0,
2026-03-22 21:56:00,METAR KBZN 222156Z 30009KT 10SM CLR 14/M12 A3013 RMK AO2 SLP199 T01441122 $,0,9.0,0,16090.0,0,0,0,
2026-03-22 20:56:00,METAR KBZN 222056Z 05003KT 10SM CLR 13/M07 A3015 RMK AO2 SLP209 T01281067 56022 $,0,3.0,0,16090.0,0,0,0,
2026-03-22 19:56:00,METAR KBZN 221956Z 32005KT 10SM CLR 12/M07 A3018 RMK AO2 SLP218 T01171067 $,0,5.0,0,16090.0,0,0,0,
2026-03-22 18:56:00,METAR KBZN 221856Z VRB05KT 10SM CLR 10/M08 A3020 RMK AO2 SLP227 T01001078 $,0,5.0,0,16090.0,0,0,0,
2026-03-22 17:56:00,METAR KBZN 221756Z 27005KT 10SM CLR 09/M06 A3023 RMK AO2 SLP238 T00891056 10089 21017 58001 $,0,5.0,0,16090.0,0,0,0,
2026-03-22 16:56:00,METAR KBZN 221656Z 00000KT 10SM CLR 07/M08 A3024 RMK AO2 SLP246 T00671078 $,0,0.0,0,16090.0,0,0,0,
2026-03-22 15:56:00,METAR KBZN 221556Z 00000KT 10SM CLR 03/M07 A3024 RMK AO2 SLP252 T00331067 $,0,0.0,0,16090.0,0,0,0,
2026-03-22 14:56:00,METAR KBZN 221456Z 00000KT 10SM CLR 01/M06 A3023 RMK AO2 SLP257 T00111056 51013 $,0,0.0,0,16090.0,0,0,0,
2026-03-22 13:56:00,METAR KBZN 221356Z 00000KT 10SM CLR M02/M07 A3023 RMK AO2 SLP255 T10171072 $,0,0.0,0,16090.0,0,0,0,
2026-03-22 12:56:00,METAR KBZN 221256Z 00000KT 10SM SCT060 00/M07 A3021 RMK AO2 SLP240 T00001067 $,0,0.0,0,16090.0,0,0,0,
2026-03-22 11:56:00,METAR KBZN 221156Z 26003KT 10SM OVC060 02/M05 A3019 RMK AO2 SLP227 T00171050 10067 20006 51016 $,0,3.0,0,16090.0,0,0,0,
2026-03-22 10:56:00,METAR KBZN 221056Z AUTO 31006KT 10SM OVC060 01/M04 A3017 RMK AO2 SLP220 T00111044 $,0,6.0,0,16090.0,0,0,0,
2026-03-22 09:56:00,METAR KBZN 220956Z AUTO 32007KT 10SM OVC050 04/M04 A3016 RMK AO2 SLP211 T00391039 $,0,7.0,0,16090.0,0,0,0,
2026-03-22 08:56:00,METAR KBZN 220856Z AUTO 31006KT 10SM OVC050 05/M03 A3013 RMK AO2 SLP202 T00501033 51012 $,0,6.0,0,16090.0,0,0,0,
2026-03-22 07:56:00,METAR KBZN 220756Z AUTO 31005KT 10SM OVC055 06/M03 A3013 RMK AO2 SLP188 T00561028 $,0,5.0,0,16090.0,0,0,0,
2026-03-22 06:56:00,METAR KBZN 220656Z AUTO 31004KT 10SM OVC055 06/M03 A3011 RMK AO2 SLP184 T00611033 402000028 $,0,4.0,0,16090.0,0,0,0,
2026-03-22 05:56:00,METAR KBZN 220556Z 31004KT 10SM BKN055 OVC065 07/M03 A3009 RMK AO2 SLP178 T00671028 10128 20050 51020 $,0,4.0,0,16090.0,0,0,0,
2026-03-22 04:56:00,METAR KBZN 220456Z 31008KT 10SM OVC065 06/M02 A3007 RMK AO2 SLP178 T00611022 $,0,8.0,0,16090.0,0,0,0,
2026-03-22 03:56:00,METAR KBZN 220356Z 32006KT 10SM OVC065 06/M02 A3005 RMK AO2 SLP175 T00611017 $,0,6.0,0,16090.0,0,0,0,
2026-03-22 02:56:00,METAR KBZN 220256Z 34009KT 10SM SCT095 06/M02 A3003 RMK AO2 SLP175 T00561017 53020 $,0,9.0,0,16090.0,0,0,0,
2026-03-22 01:56:00,METAR KBZN 220156Z 35009KT 10SM CLR 08/M01 A2999 RMK AO2 SLP160 T00781011 $,0,9.0,0,16090.0,0,0,0,
2026-03-22 00:56:00,METAR KBZN 220056Z 02008KT 10SM CLR 11/M01 A2997 RMK AO2 SLP149 T01111006 $,0,8.0,0,16090.0,0,0,0,
2026-03-21 23:56:00,METAR KBZN 212356Z 36008KT 10SM FEW110 13/00 A2996 RMK AO2 SLP141 T01280000 10200 20117 51034 $,0,8.0,0,16090.0,0,0,0,
2026-03-21 22:56:00,METAR KBZN 212256Z 36010KT 10SM FEW110 13/01 A2995 RMK AO2 PK WND 35029/2201 SLP133 T01280006 $,0,10.0,0,16090.0,0,0,0,
2026-03-21 21:56:00,METAR KBZN 212156Z 35019G35KT 10SM BKN110 12/01 A2990 RMK AO2 PK WND 01045/2105 SLP118 T01220011 $,0,19.0,1,16090.0,0,0,0,
2026-03-21 20:56:00,METAR KBZN 212056Z 36029G44KT 7SM BKN110 13/02 A2984 RMK AO2 PK WND 31053/2033 WSHFT 2027 SLP093 T01280022 53006 $,0,29.0,1,11263.0,0,0,0,
2026-03-21 20:47:00,SPECI KBZN 212047Z 36031G41KT 8SM OVC110 13/02 A2984 RMK AO2 PK WND 31053/2033 WSHFT 2027 T01330022 $,0,31.0,1,12872.0,0,0,0,
2026-03-21 20:28:00,SPECI KBZN 212028Z 29030G41KT 10SM OVC110 20/M03 A2980 RMK AO2 PK WND 30041/2028 T02001028 $,0,30.0,1,16090.0,0,0,0,
2026-03-21 19:56:00,METAR KBZN 211956Z 28008KT 10SM BKN110 18/M01 A2981 RMK AO2 SLP075 T01831006 $,0,8.0,0,16090.0,0,0,0,
2026-03-21 18:56:00,METAR KBZN 211856Z VRB04KT 10SM CLR 18/01 A2981 RMK AO2 SLP068 T01830006 $,0,4.0,0,16090.0,0,0,0,
2026-03-21 17:56:00,METAR KBZN 211756Z 00000KT 10SM CLR 17/01 A2982 RMK AO2 SLP069 T01670006 10167 20028 58007 $,0,0.0,0,16090.0,0,0,0,
2026-03-21 16:56:00,METAR KBZN 211656Z 18009KT 10SM FEW120 12/02 A2985 RMK AO2 SLP094 T01220017 $,0,9.0,0,16090.0,0,0,0,
2026-03-21 15:56:00,METAR KBZN 211556Z 21004KT 10SM CLR 09/M01 A2986 RMK AO2 SLP092 T00891011 $,0,4.0,0,16090.0,0,0,0,
2026-03-21 14:56:00,METAR KBZN 211456Z 21003KT 10SM CLR 06/00 A2985 RMK AO2 SLP092 T00560000 56008 $,0,3.0,0,16090.0,0,0,0,
2026-03-21 13:56:00,METAR KBZN 211356Z 21004KT 10SM CLR 05/M02 A2985 RMK AO2 SLP087 T00501022 $,0,4.0,0,16090.0,0,0,0,
2026-03-21 12:56:00,METAR KBZN 211256Z 15006KT 10SM CLR 03/M02 A2986 RMK AO2 SLP091 T00281022 $,0,6.0,0,16090.0,0,0,0,
2026-03-21 11:56:00,METAR KBZN 211156Z 17004KT 10SM CLR 04/M02 A2987 RMK AO2 SLP091 T00441017 10167 20033 58018 $,0,4.0,0,16090.0,0,0,0,
2026-03-21 10:56:00,METAR KBZN 211056Z AUTO 18004KT 10SM CLR 06/M04 A2990 RMK AO2 SLP097 T00611039 $,0,4.0,0,16090.0,0,0,0,
2026-03-21 09:56:00,METAR KBZN 210956Z AUTO 27004KT 10SM CLR 07/M03 A2991 RMK AO2 SLP102 T00671033 $,0,4.0,0,16090.0,0,0,0,
2026-03-21 08:56:00,METAR KBZN 210856Z AUTO VRB04KT 10SM CLR 09/M04 A2994 RMK AO2 SLP106 T00891044 56015 $,0,4.0,0,16090.0,0,0,0,
2026-03-21 07:56:00,METAR KBZN 210756Z AUTO 16009KT 10SM CLR 07/M03 A2995 RMK AO2 SLP113 T00671033 $,0,9.0,0,16090.0,0,0,0,
2026-03-21 06:56:00,METAR KBZN 210656Z AUTO 13006KT 10SM CLR 11/M05 A2997 RMK AO2 SLP117 T01111050 402610044 $,0,6.0,0,16090.0,0,0,0,
2026-03-21 05:56:00,METAR KBZN 210556Z AUTO 24003KT 10SM CLR 16/M06 A2999 RMK AO2 SLP116 T01611061 10250 20100 56002 $,0,3.0,0,16090.0,0,0,0,
2026-03-21 04:56:00,METAR KBZN 210456Z 11005KT 10SM CLR 11/M05 A2999 RMK AO2 SLP126 T01111050 $,0,5.0,0,16090.0,0,0,0,
2026-03-21 04:36:00,SPECI KBZN 210436Z 07007KT 10SM CLR 11/M04 A2999 RMK AO2 T01061044 $,0,7.0,0,16090.0,0,0,0,
2026-03-21 03:56:00,METAR KBZN 210356Z 24006KT 10SM CLR 17/M06 A2999 RMK AO2 SLP122 T01721061 $,0,6.0,0,16090.0,0,0,0,
2026-03-21 02:56:00,METAR KBZN 210256Z 25006KT 10SM CLR 18/M06 A2999 RMK AO2 SLP136 T01781056 53001 $,0,6.0,0,16090.0,0,0,0,
2026-03-21 01:56:00,METAR KBZN 210156Z 27012KT 10SM CLR 21/M07 A2998 RMK AO2 PK WND 27026/0057 SLP131 T02111067 $,0,12.0,0,16090.0,0,0,0,
2026-03-21 00:56:00,METAR KBZN 210056Z 26018G30KT 10SM CLR 23/M08 A2998 RMK AO2 PK WND 26033/0013 SLP125 T02331078 $,0,18.0,1,16090.0,0,0,0,
2026-03-20 23:56:00,METAR KBZN 202356Z 27021G29KT 10SM CLR 25/M06 A2999 RMK AO2 PK WND 28030/2343 SLP128 T02501061 10261 20233 56012 $,0,21.0,1,16090.0,0,0,0,
2026-03-20 22:56:00,METAR KBZN 202256Z 25018G32KT 10SM CLR 26/M05 A3000 RMK AO2 PK WND 24032/2252 SLP130 T02561050 $,0,18.0,1,16090.0,0,0,0,
2026-03-20 21:56:00,METAR KBZN 202156Z 22018G31KT 10SM CLR 26/M04 A3001 RMK AO2 PK WND 26034/2134 SLP128 T02561039 $,0,18.0,1,16090.0,0,0,0,
2026-03-20 20:56:00,METAR KBZN 202056Z 26017G29KT 10SM FEW120 26/M03 A3003 RMK AO2 PK WND 26035/2003 SLP128 T02561033 58018 $,0,17.0,1,16090.0,0,0,0,
2026-03-20 19:56:00,METAR KBZN 201956Z 24020G34KT 10SM CLR 26/M03 A3006 RMK AO2 PK WND 23034/1956 SLP149 T02561028 $,0,20.0,1,16090.0,0,0,0,
2026-03-20 18:56:00,METAR KBZN 201856Z 28018G26KT 10SM SCT110 24/M02 A3009 RMK AO2 PK WND 28030/1812 SLP155 T02441022 $,0,18.0,1,16090.0,0,0,0,
2026-03-20 17:56:00,METAR KBZN 201756Z 27018G33KT 10SM CLR 23/M03 A3009 RMK AO2 PK WND 25035/1713 SLP155 T02331033 10233 20050 58013 $,0,18.0,1,16090.0,0,0,0,
2026-03-20 16:56:00,METAR KBZN 201656Z 25021G27KT 10SM CLR 22/M04 A3010 RMK AO2 PK WND 24030/1620 SLP160 T02221039 $,0,21.0,1,16090.0,0,0,0,
2026-03-20 15:56:00,METAR KBZN 201556Z VRB04KT 10SM CLR 18/M04 A3013 RMK AO2 SLP172 T01831039 $,0,4.0,0,16090.0,0,0,0,
2026-03-20 13:56:00,METAR KBZN 201356Z 14006KT 10SM SCT110 08/M05 A3013 RMK AO2 SLP187 T00781050 $,0,6.0,0,16090.0,0,0,0,
2026-03-20 12:56:00,METAR KBZN 201256Z 00000KT 10SM CLR 08/M06 A3015 RMK AO2 SLP184 T00831056 $,0,0.0,0,16090.0,0,0,0,
2026-03-20 11:56:00,METAR KBZN 201156Z 12004KT 10SM CLR 07/M06 A3014 RMK AO2 SLP182 T00721056 10172 20044 55003 $,0,4.0,0,16090.0,0,0,0,
2026-03-20 10:56:00,METAR KBZN 201056Z AUTO 00000KT 10SM CLR 08/M06 A3013 RMK AO2 SLP177 T00781061 $,0,0.0,0,16090.0,0,0,0,
2026-03-20 09:56:00,METAR KBZN 200956Z AUTO 00000KT 10SM CLR 12/M07 A3014 RMK AO2 SLP174 T01221072 $,0,0.0,0,16090.0,0,0,0,
2026-03-20 08:56:00,METAR KBZN 200856Z AUTO 27007G18KT 10SM CLR 16/M08 A3015 RMK AO2 SLP172 T01611083 58003 $,0,7.0,1,16090.0,0,0,0,
2026-03-20 07:56:00,METAR KBZN 200756Z AUTO 03009KT 10SM CLR 10/M05 A3017 RMK AO2 SLP188 T01001050 $,0,9.0,0,16090.0,0,0,0,
2026-03-20 06:56:00,METAR KBZN 200656Z AUTO 27009KT 10SM CLR 13/M07 A3017 RMK AO2 SLP185 T01331067 402560006 $,0,9.0,0,16090.0,0,0,0,
2026-03-20 05:56:00,METAR KBZN 200556Z 26008KT 10SM CLR 14/M07 A3016 RMK AO2 SLP183 T01391067 10239 20111 51012 $,0,8.0,0,16090.0,0,0,0,
2026-03-20 04:56:00,METAR KBZN 200456Z 23007KT 10SM CLR 14/M07 A3015 RMK AO2 SLP182 T01441072 $,0,7.0,0,16090.0,0,0,0,
2026-03-20 03:56:00,METAR KBZN 200356Z VRB03KT 10SM CLR 17/M07 A3014 RMK AO2 SLP183 T01671072 $,0,3.0,0,16090.0,0,0,0,
2026-03-20 02:56:00,METAR KBZN 200256Z 28011KT 10SM CLR 17/M07 A3012 RMK AO2 SLP188 T01671067 51008 $,0,11.0,0,16090.0,0,0,0,
2026-03-20 01:56:00,METAR KBZN 200156Z 28008KT 10SM FEW120 17/M07 A3012 RMK AO2 SLP190 T01721072 $,0,8.0,0,16090.0,0,0,0,
2026-03-20 00:56:00,METAR KBZN 200056Z 27015G20KT 10SM CLR 22/M08 A3010 RMK AO2 SLP176 T02221083 $,0,15.0,1,16090.0,0,0,0,
2026-03-19 23:56:00,METAR KBZN 192356Z 27017G24KT 10SM CLR 24/M09 A3010 RMK AO2 PK WND 26026/2342 SLP170 T02391089 10256 20211 57001 $,0,17.0,1,16090.0,0,0,0,
2026-03-19 22:56:00,METAR KBZN 192256Z 26016KT 10SM CLR 24/M08 A3010 RMK AO2 PK WND 28029/2239 SLP167 T02441083 $,0,16.0,0,16090.0,0,0,0,
2026-03-19 21:56:00,METAR KBZN 192156Z 28014G20KT 10SM CLR 25/M08 A3010 RMK AO2 PK WND 27028/2118 SLP163 T02501078 $,0,14.0,1,16090.0,0,0,0,
2026-03-19 20:56:00,METAR KBZN 192056Z 28016G24KT 10SM CLR 25/M07 A3010 RMK AO2 PK WND 24032/2021 SLP164 T02501072 58014 $,0,16.0,1,16090.0,0,0,0,
2026-03-19 19:56:00,METAR KBZN 191956Z 24017G28KT 10SM CLR 23/M07 A3012 RMK AO2 PK WND 29030/1938 SLP171 T02331072 $,0,17.0,1,16090.0,0,0,0,
2026-03-19 18:56:00,METAR KBZN 191856Z 30010G20KT 10SM CLR 22/M06 A3015 RMK AO2 PK WND 25026/1841 SLP180 T02171056 $,0,10.0,1,16090.0,0,0,0,
2026-03-19 17:56:00,METAR KBZN 191756Z 23016G21KT 10SM CLR 22/M05 A3015 RMK AO2 SLP184 T02171050 10217 20006 58004,0,16.0,1,16090.0,0,0,0,
2026-03-19 16:56:00,METAR KBZN 191656Z 36006KT 10SM CLR 18/M07 A3016 RMK AO2 SLP187 T01781067,0,6.0,0,16090.0,0,0,0,
2026-03-19 15:56:00,METAR KBZN 191556Z 00000KT 10SM CLR 14/M07 A3015 RMK AO2 SLP193 T01391067,0,0.0,0,16090.0,0,0,0,
2026-03-19 15:19:00,SPECI KBZN 191519Z 20004KT 9SM CLR 10/M03 A3015 RMK AO2 T01001033,0,4.0,0,14481.0,0,0,0,
2026-03-19 14:56:00,METAR KBZN 191456Z 00000KT 7SM CLR 07/M02 A3016 RMK AO2 SLP206 T00671022 53005,0,0.0,0,11263.0,0,0,0,
2026-03-19 13:56:00,METAR KBZN 191356Z 00000KT 10SM CLR 04/M06 A3016 RMK AO2 SLP206 T00441056,0,0.0,0,16090.0,0,0,0,
2026-03-19 12:56:00,METAR KBZN 191256Z 14005KT 10SM CLR 04/M06 A3014 RMK AO2 SLP200 T00391056,0,5.0,0,16090.0,0,0,0,
2026-03-19 11:56:00,METAR KBZN 191156Z 15004KT 10SM CLR 05/M06 A3014 RMK AO2 SLP193 T00501056 10139 20022 55002,0,4.0,0,16090.0,0,0,0,
2026-03-19 11:23:00,SPECI KBZN 191123Z 12003KT 10SM CLR 04/M06 A3014 RMK AO2 T00391056,0,3.0,0,16090.0,0,0,0,
2026-03-19 10:56:00,METAR KBZN 191056Z AUTO 09003KT 10SM CLR 07/M06 A3013 RMK AO2 SLP183 T00671061,0,3.0,0,16090.0,0,0,0,
2026-03-19 09:56:00,METAR KBZN 190956Z AUTO 00000KT 10SM CLR 08/M06 A3014 RMK AO2 SLP184 T00781061,0,0.0,0,16090.0,0,0,0,
2026-03-19 08:56:00,METAR KBZN 190856Z AUTO VRB03KT 10SM CLR 08/M07 A3015 RMK AO2 SLP186 T00831067 56000,0,3.0,0,16090.0,0,0,0,
2026-03-19 07:56:00,METAR KBZN 190756Z AUTO VRB04KT 10SM CLR 11/M08 A3015 RMK AO2 SLP183 T01111078,0,4.0,0,16090.0,0,0,0,
2026-03-19 06:56:00,METAR KBZN 190656Z AUTO 00000KT 10SM CLR 12/M08 A3015 RMK AO2 SLP179 T01221078 402330011,0,0.0,0,16090.0,0,0,0,
2026-03-19 05:56:00,METAR KBZN 190556Z 09007KT 10SM CLR 09/M06 A3015 RMK AO2 SLP189 T00891061 10206 20078 53012,0,7.0,0,16090.0,0,0,0,
2026-03-19 04:56:00,METAR KBZN 190456Z 23008KT 10SM CLR 14/M08 A3012 RMK AO2 SLP171 T01391078,0,8.0,0,16090.0,0,0,0,
2026-03-19 03:56:00,METAR KBZN 190356Z 22004KT 10SM CLR 12/M06 A3012 RMK AO2 SLP185 T01221061,0,4.0,0,16090.0,0,0,0,
2026-03-19 02:56:00,METAR KBZN 190256Z 19006KT 10SM CLR 14/M07 A3011 RMK AO2 SLP189 T01391067 53014,0,6.0,0,16090.0,0,0,0,
2026-03-19 01:56:00,METAR KBZN 190156Z 11004KT 10SM FEW100 16/M08 A3010 RMK AO2 SLP190 T01561083,0,4.0,0,16090.0,0,0,0,
2026-03-19 01:39:00,SPECI KBZN 190139Z 00000KT 10SM CLR 13/M07 A3010 RMK AO2 T01331072,0,0.0,0,16090.0,0,0,0,
2026-03-19 00:56:00,METAR KBZN 190056Z 35006KT 10SM CLR 17/M07 A3007 RMK AO2 SLP178 T01671072,0,6.0,0,16090.0,0,0,0,
2026-03-18 23:56:00,METAR KBZN 182356Z 30012KT 10SM CLR 21/M10 A3007 RMK AO2 SLP170 T02061100 10233 20206 52010,0,12.0,0,16090.0,0,0,0,
2026-03-18 22:56:00,METAR KBZN 182256Z 29016KT 10SM CLR 22/M11 A3005 RMK AO2 PK WND 30028/2210 SLP159 T02171106,0,16.0,0,16090.0,0,0,0,
2026-03-18 21:56:00,METAR KBZN 182156Z 28019KT 10SM CLR 22/M11 A3004 RMK AO2 PK WND 28030/2111 SLP157 T02221111,0,19.0,0,16090.0,0,0,0,
2026-03-18 20:56:00,METAR KBZN 182056Z 26019G31KT 10SM CLR 23/M11 A3003 RMK AO2 PK WND 26031/2054 SLP149 T02281106 58003,0,19.0,1,16090.0,0,0,0,
2026-03-18 19:56:00,METAR KBZN 181956Z 28019G29KT 10SM CLR 22/M11 A3004 RMK AO2 PK WND 29029/1954 SLP151 T02221111,0,19.0,1,16090.0,0,0,0,
2026-03-18 18:56:00,METAR KBZN 181856Z 27021G31KT 10SM CLR 22/M11 A3005 RMK AO2 PK WND 24031/1758 SLP155 T02171106,0,21.0,1,16090.0,0,0,0,
2026-03-18 17:56:00,METAR KBZN 181756Z 26021G29KT 10SM CLR 21/M10 A3004 RMK AO2 PK WND 24030/1716 SLP148 T02111100 10211 20011 50000,0,21.0,1,16090.0,0,0,0,
2026-03-18 16:56:00,METAR KBZN 181656Z 25015G31KT 10SM CLR 20/M09 A3005 RMK AO2 PK WND 25031/1649 SLP154 T02001089,0,15.0,1,16090.0,0,0,0,
2026-03-18 15:56:00,METAR KBZN 181556Z 04007KT 10SM CLR 13/M02 A3005 RMK AO2 SLP164 T01331022,0,7.0,0,16090.0,0,0,0,
2026-03-18 14:56:00,METAR KBZN 181456Z 11003KT 10SM CLR 07/M01 A3004 RMK AO2 SLP172 T00721011 53007,0,3.0,0,16090.0,0,0,0,
2026-03-18 13:56:00,METAR KBZN 181356Z 11006KT 10SM CLR 02/M03 A3003 RMK AO2 SLP175 T00171028,0,6.0,0,16090.0,0,0,0,
2026-03-18 12:56:00,METAR KBZN 181256Z 16005KT 10SM CLR 02/M02 A3002 RMK AO2 SLP171 T00171022,0,5.0,0,16090.0,0,0,0,
2026-03-18 11:56:00,METAR KBZN 181156Z 14006KT 10SM CLR 01/M02 A3001 RMK AO2 SLP165 T00111017 10094 20011 56007,0,6.0,0,16090.0,0,0,0,
2026-03-18 10:56:00,METAR KBZN 181056Z AUTO 29003KT 10SM CLR 05/M02 A3001 RMK AO2 SLP156 T00501017,0,3.0,0,16090.0,0,0,0,
2026-03-18 09:56:00,METAR KBZN 180956Z AUTO 00000KT 10SM CLR 03/M01 A3002 RMK AO2 SLP161 T00281006,0,0.0,0,16090.0,0,0,0,
2026-03-18 08:56:00,METAR KBZN 180856Z AUTO 14003KT 10SM CLR 04/M01 A3004 RMK AO2 SLP161 T00441006 58006,0,3.0,0,16090.0,0,0,0,
2026-03-18 07:56:00,METAR KBZN 180756Z AUTO 17006KT 10SM CLR 06/00 A3005 RMK AO2 SLP162 T00610000,0,6.0,0,16090.0,0,0,0,
2026-03-18 06:56:00,METAR KBZN 180656Z AUTO 17005KT 10SM OVC080 07/01 A3007 RMK AO2 SLP167 T00670011 401830061,0,5.0,0,16090.0,0,0,0,
2026-03-18 05:56:00,METAR KBZN 180556Z 17004KT 10SM OVC090 09/00 A3006 RMK AO2 SLP161 T00940000 10122 20072 58000,0,4.0,0,16090.0,0,0,0,
2026-03-18 04:56:00,METAR KBZN 180456Z 10005KT 10SM OVC100 08/02 A3007 RMK AO2 SLP170 T00780022,0,5.0,0,16090.0,0,0,0,
2026-03-18 03:56:00,METAR KBZN 180356Z 30003KT 10SM BKN100 OVC120 09/02 A3007 RMK AO2 SLP173 T00890017,0,3.0,0,16090.0,0,0,0,
2026-03-18 02:56:00,METAR KBZN 180256Z 00000KT 10SM OVC085 08/02 A3006 RMK AO2 SLP177 T00830022 53009,0,0.0,0,16090.0,0,0,0,
2026-03-18 01:56:00,METAR KBZN 180156Z 21004KT 10SM OVC085 11/01 A3005 RMK AO2 SLP165 T01060011,0,4.0,0,16090.0,0,0,0,
2026-03-18 00:56:00,METAR KBZN 180056Z 09004KT 10SM OVC085 12/01 A3004 RMK AO2 SLP159 T01170006,0,4.0,0,16090.0,0,0,0,
2026-03-17 23:56:00,METAR KBZN 172356Z 03006KT 10SM OVC085 13/01 A3003 RMK AO2 SLP152 T01280006 10183 20122 51014,0,6.0,0,16090.0,0,0,0,
2026-03-17 22:56:00,METAR KBZN 172256Z 32005KT 10SM OVC080 14/M01 A3002 RMK AO2 SLP150 T01441011,0,5.0,0,16090.0,0,0,0,
2026-03-17 21:56:00,METAR KBZN 172156Z 32006KT 10SM OVC090 16/M02 A3002 RMK AO2 SLP145 T01561017,0,6.0,0,16090.0,0,0,0,
2026-03-17 20:56:00,METAR KBZN 172056Z 33012KT 10SM BKN085 OVC110 17/M02 A2998 RMK AO2 PK WND 28026/1958 SLP135 T01721017 53002,0,12.0,0,16090.0,0,0,0,
2026-03-17 19:56:00,METAR KBZN 171956Z 29017G29KT 10SM OVC085 18/M03 A2998 RMK AO2 PK WND 30029/1951 SLP135 T01831028,0,17.0,1,16090.0,0,0,0,
2026-03-17 18:56:00,METAR KBZN 171856Z 26008G19KT 10SM OVC085 17/M06 A2998 RMK AO2 SLP132 T01721056,0,8.0,1,16090.0,0,0,0,
2026-03-17 17:56:00,METAR KBZN 171756Z 26015G25KT 10SM BKN090 17/M06 A2998 RMK AO2 SLP134 T01721061 10178 20083 58007,0,15.0,1,16090.0,0,0,0,
2026-03-17 16:56:00,METAR KBZN 171656Z 24014KT 10SM FEW085 16/M08 A2999 RMK AO2 SLP142 T01561078,0,14.0,0,16090.0,0,0,0,
2026-03-17 16:33:00,SPECI KBZN 171633Z 11004KT 10SM CLR 14/M04 A2999 RMK AO2 T01441039,0,4.0,0,16090.0,0,0,0,
2026-03-17 15:56:00,METAR KBZN 171556Z 09005KT 10SM BKN080 12/M01 A3000 RMK AO2 SLP150 T01221006,0,5.0,0,16090.0,0,0,0,
2026-03-17 14:56:00,METAR KBZN 171456Z 00000KT 10SM OVC080 09/M01 A3000 RMK AO2 SLP157 T00941006 53003,0,0.0,0,16090.0,0,0,0,
2026-03-17 13:56:00,METAR KBZN 171356Z 24006KT 10SM OVC080 12/M06 A2999 RMK AO2 SLP150 T01171061,0,6.0,0,16090.0,0,0,0,
2026-03-17 12:56:00,METAR KBZN 171256Z 23008KT 10SM OVC075 12/M07 A2999 RMK AO2 SLP145 T01171067,0,8.0,0,16090.0,0,0,0,
2026-03-17 11:56:00,METAR KBZN 171156Z 25006KT 10SM OVC085 12/M06 A2999 RMK AO2 SLP147 70001 T01221061 10122 20061 53002,0,6.0,0,16090.0,0,0,0,
2026-03-17 11:23:00,SPECI KBZN 171123Z 23007KT 10SM OVC095 12/M06 A2998 RMK AO2 T01171056,0,7.0,0,16090.0,0,0,0,
2026-03-17 10:56:00,METAR KBZN 171056Z AUTO 28007KT 240V310 10SM OVC090 11/M04 A2998 RMK AO2 SLP139 T01111039,0,7.0,0,16090.0,0,0,0,
2026-03-17 09:56:00,METAR KBZN 170956Z AUTO 25011G18KT 10SM OVC090 11/M03 A2997 RMK AO2 SLP137 T01111033,0,11.0,1,16090.0,0,0,0,
2026-03-17 08:56:00,METAR KBZN 170856Z AUTO VRB03KT 10SM SCT110 09/M01 A2998 RMK AO2 SLP146 T00891011 53001,0,3.0,0,16090.0,0,0,0,
2026-03-17 07:56:00,METAR KBZN 170756Z AUTO 05007KT 10SM FEW100 07/01 A2997 RMK AO2 SLP148 T00720006,0,7.0,0,16090.0,0,0,0,
2026-03-17 06:56:00,METAR KBZN 170656Z AUTO 34005KT 10SM CLR 09/01 A2997 RMK AO2 SLP148 T00890011 401111039,0,5.0,0,16090.0,0,0,0,
2026-03-17 05:56:00,METAR KBZN 170556Z 08005KT 10SM OVC100 08/03 A2998 RMK AO2 SLP159 60000 T00780028 10083 20061 58009,0,5.0,0,16090.0,0,0,0,
2026-03-17 04:56:00,METAR KBZN 170456Z 07007KT 10SM OVC085 07/03 A2999 RMK AO2 SLP169 T00670033,0,7.0,0,16090.0,0,0,0,
2026-03-17 03:56:00,METAR KBZN 170356Z 34003KT 10SM OVC065 08/03 A3001 RMK AO2 SLP177 T00780028,0,3.0,0,16090.0,0,0,0,
2026-03-17 02:56:00,METAR KBZN 170256Z 29006KT 10SM OVC060 07/03 A3001 RMK AO2 SLP181 60000 T00720033 53005,0,6.0,0,16090.0,0,0,0,
2026-03-17 01:56:00,METAR KBZN 170156Z 01003KT 10SM OVC060 07/04 A3001 RMK AO2 RAB28E38 SLP181 P0000 T00670039,0,3.0,0,16090.0,0,0,0,RA
2026-03-17 00:56:00,METAR KBZN 170056Z 36003KT 10SM OVC055 08/03 A2999 RMK AO2 RAE16 SLP173 P0000 T00780033,0,3.0,0,16090.0,0,0,0,
2026-03-16 23:56:00,METAR KBZN 162356Z 05006KT 10SM -RA OVC060 08/04 A2999 RMK AO2 RAB02 SLP174 P0001 60001 T00780044 10111 20033 58010,0,6.0,0,16090.0,0,0,0,-RA
2026-03-16 22:56:00,METAR KBZN 162256Z 06005KT 10SM BKN055 OVC070 11/00 A3001 RMK AO2 SLP175 T01060000,0,5.0,0,16090.0,0,0,0,
2026-03-16 21:56:00,METAR KBZN 162156Z 04003KT 10SM OVC055 11/M02 A3002 RMK AO2 SLP179 T01061017,0,3.0,0,16090.0,0,0,0,
2026-03-16 20:56:00,METAR KBZN 162056Z 00000KT 10SM OVC055 10/M02 A3003 RMK AO2 SLP184 T01001017 58012,0,0.0,0,16090.0,0,0,0,
2026-03-16 19:56:00,METAR KBZN 161956Z 02005KT 10SM OVC055 08/M02 A3005 RMK AO2 SLP195 T00831022,0,5.0,0,16090.0,0,0,0,
2026-03-16 18:56:00,METAR KBZN 161856Z VRB04KT 10SM BKN060 06/M01 A3005 RMK AO2 SLP201 T00611006,0,4.0,0,16090.0,0,0,0,
2026-03-16 17:56:00,METAR KBZN 161756Z 03003KT 10SM OVC055 03/M01 A3006 RMK AO2 SLP211 60000 T00331011 10033 21033 58010,0,3.0,0,16090.0,0,0,0,
2026-03-16 16:56:00,METAR KBZN 161656Z 00000KT 10SM OVC055 01/M02 A3009 RMK AO2 SLP229 T00061022,0,0.0,0,16090.0,0,0,0,
2026-03-16 15:56:00,METAR KBZN 161556Z 00000KT 10SM OVC055 M01/M03 A3010 RMK AO2 SLP234 T10111033,0,0.0,0,16090.0,0,0,0,
2026-03-16 14:56:00,METAR KBZN 161456Z 34003KT 10SM OVC049 M02/M03 A3010 RMK AO2 SLP232 60000 T10221033 55007,0,3.0,0,16090.0,0,0,0,
2026-03-16 13:56:00,METAR KBZN 161356Z 00000KT 10SM OVC050 M02/M04 A3009 RMK AO2 SNB03E25 SLP227 P0000 T10221039,0,0.0,0,16090.0,0,0,0,SN
2026-03-16 12:56:00,METAR KBZN 161256Z 00000KT 10SM OVC050 M03/M04 A3011 RMK AO2 SLP231 T10281039,0,0.0,0,16090.0,0,0,0,
2026-03-16 11:56:00,METAR KBZN 161156Z 07003KT 10SM OVC050 M03/M04 A3012 RMK AO2 SLP232 60001 70001 T10281044 11028 21039 56018,0,3.0,0,16090.0,0,0,0,
2026-03-16 10:56:00,METAR KBZN 161056Z AUTO 00000KT 10SM OVC055 M03/M04 A3013 RMK AO2 SLP236 T10331044,0,0.0,0,16090.0,0,0,0,
2026-03-16 09:56:00,METAR KBZN 160956Z AUTO 17003KT 8SM OVC055 M03/M04 A3015 RMK AO2 SNE55 SLP242 P0001 T10331039,0,3.0,0,12872.0,0,0,0,
2026-03-16 09:30:00,SPECI KBZN 160930Z AUTO 14005KT 4SM -SN BR OVC039 M03/M04 A3016 RMK AO2 P0001 T10331039,0,5.0,0,6436.0,0,0,1,"BR,SN"
2026-03-16 09:23:00,SPECI KBZN 160923Z AUTO 13005KT 2 1/2SM -SN BR OVC035 M03/M04 A3016 RMK AO2 P0001 T10331039,0,5.0,0,4022.0,0,0,1,"BR,SN"
2026-03-16 08:56:00,METAR KBZN 160856Z AUTO 16003KT 3SM -SN BR OVC035 M03/M04 A3018 RMK AO2 SLP257 P0000 60000 T10331044 56018,0,3.0,0,4827.0,0,0,1,"BR,SN"
2026-03-16 08:48:00,SPECI KBZN 160848Z AUTO 17004KT 3SM -SN BR OVC031 M03/M04 A3018 RMK AO2 P0000 T10331044,0,4.0,0,4827.0,0,0,1,"BR,SN"
2026-03-16 08:12:00,SPECI KBZN 160812Z AUTO 11003KT 2 1/2SM -SN BR OVC029 M03/M05 A3019 RMK AO2 P0000 T10331050,0,3.0,0,4022.0,0,0,1,"BR,SN"
2026-03-16 07:56:00,METAR KBZN 160756Z AUTO 09007KT 3SM -SN BR OVC037 M04/M06 A3019 RMK AO2 SNB39 SLP265 P0000 T10391056,0,7.0,0,4827.0,0,0,1,"BR,SN"
2026-03-16 06:56:00,METAR KBZN 160656Z AUTO 04003KT 10SM OVC041 M04/M09 A3023 RMK AO2 SLP282 T10391094 400221128,0,3.0,0,16090.0,0,0,0,
2026-03-16 05:56:00,METAR KBZN 160556Z 27004KT 10SM BKN060 OVC075 M03/M11 A3024 RMK AO2 SLP290 T10331106 10022 21050 55000,0,4.0,0,16090.0,0,0,0,
2026-03-16 04:56:00,METAR KBZN 160456Z 13004KT 10SM CLR M05/M10 A3024 RMK AO2 SLP297 T10501100,0,4.0,0,16090.0,0,0,0,
2026-03-16 03:56:00,METAR KBZN 160356Z 25004KT 10SM CLR M03/M12 A3024 RMK AO2 SLP299 T10331117,0,4.0,0,16090.0,0,0,0,
2026-03-16 02:56:00,METAR KBZN 160256Z 27004KT 10SM CLR M02/M13 A3024 RMK AO2 SLP300 T10221128 53006,0,4.0,0,16090.0,0,0,0,
2026-03-16 01:56:00,METAR KBZN 160156Z 03003KT 10SM CLR M02/M14 A3023 RMK AO2 SLP292 T10171144,0,3.0,0,16090.0,0,0,0,
2026-03-16 00:56:00,METAR KBZN 160056Z 35005KT 10SM CLR 01/M14 A3022 RMK AO2 SLP282 T00111144,0,5.0,0,16090.0,0,0,0,
2026-03-15 23:56:00,METAR KBZN 152356Z 27008KT 10SM CLR 02/M15 A3022 RMK AO2 SLP282 T00221150 10022 21050 56024,0,8.0,0,16090.0,0,0,0,
2026-03-15 22:56:00,METAR KBZN 152256Z 28006G16KT 10SM SCT075 02/M16 A3025 RMK AO2 SLP291 T00171156,0,6.0,1,16090.0,0,0,0,
2026-03-15 21:56:00,METAR KBZN 152156Z 28012G19KT 10SM CLR 02/M15 A3027 RMK AO2 SLP298 T00221150,0,12.0,1,16090.0,0,0,0,
2026-03-15 20:56:00,METAR KBZN 152056Z 24011G16KT 10SM BKN065 01/M14 A3030 RMK AO2 SLP310 T00061139 58020,0,11.0,1,16090.0,0,0,0,
2026-03-15 19:56:00,METAR KBZN 151956Z 10SM SCT050 M01/M14 A3033 RMK AO2 SLP324 T10111139,0,,0,16090.0,0,0,0,
2026-03-15 18:56:00,METAR KBZN 151856Z 00000KT 10SM CLR M03/M12 A3036 RMK AO2 SLP336 T10281117,0,0.0,0,16090.0,0,0,0,
2026-03-15 17:56:00,METAR KBZN 151756Z 00000KT 10SM CLR M05/M12 A3037 RMK AO2 SLP344 T10501117 11050 21128 50002,0,0.0,0,16090.0,0,0,0,
2026-03-15 16:56:00,METAR KBZN 151656Z 00000KT 10SM FEW050 M08/M12 A3038 RMK AO2 SLP353 T10781122,0,0.0,0,16090.0,0,0,0,
2026-03-15 15:56:00,METAR KBZN 151556Z 00000KT 10SM CLR M09/M13 A3036 RMK AO2 SLP347 T10891128,0,0.0,0,16090.0,0,0,0,
2026-03-15 14:56:00,METAR KBZN 151456Z 00000KT 10SM CLR M12/M13 A3036 RMK AO2 SLP353 T11171133 53014,0,0.0,0,16090.0,0,0,0,
2026-03-15 13:56:00,METAR KBZN 151356Z 00000KT 10SM SCT055 M11/M13 A3034 RMK AO2 SLP343 T11061133,0,0.0,0,16090.0,0,0,0,
2026-03-15 12:56:00,METAR KBZN 151256Z 21003KT 10SM BKN055 M11/M13 A3032 RMK AO2 SLP329 T11061133,0,3.0,0,16090.0,0,0,0,
2026-03-15 11:56:00,METAR KBZN 151156Z 24005KT 10SM OVC050 M10/M13 A3031 RMK AO2 SLP320 60000 70001 T11001128 11089 21100 53018,0,5.0,0,16090.0,0,0,0,
2026-03-15 10:56:00,METAR KBZN 151056Z AUTO 27004KT 10SM FEW045 BKN060 OVC085 M10/M12 A3029 RMK AO2 SLP310 T11001122,0,4.0,0,16090.0,0,0,0,
2026-03-15 09:56:00,METAR KBZN 150956Z AUTO 23006KT 10SM BKN050 OVC075 M09/M12 A3027 RMK AO2 SNB0857E14 SLP299 P0000 T10941122,0,6.0,0,16090.0,0,0,0,SN
2026-03-15 08:56:00,METAR KBZN 150856Z AUTO 16004KT 10SM OVC038 M09/M13 A3025 RMK AO2 SNE0759 SLP288 P0000 60000 T10891128 51023,0,4.0,0,16090.0,0,0,0,SN
2026-03-15 07:56:00,METAR KBZN 150756Z AUTO 27005KT 9SM -SN BKN042 OVC050 M09/M13 A3023 RMK AO2 SNB29 SLP277 P0000 T10941133,0,5.0,0,14481.0,0,0,0,SN
