Time_recorded,METAR,is_cavok,wind_speed,is_gust,visibility_meters,has_thunderstorm,has_heavy_rain,has_low_vis_fog,other_phenomenon
2026-05-02 15:00:00,METAR RCMQ 021500Z 16004KT 9999 FEW012 SCT200 24/21 Q1012 RMK A2991,0,4,0,10000,0,0,0,
2026-05-02 14:00:00,METAR RCMQ 021400Z 18005KT 9999 FEW012 SCT200 23/21 Q1013 NOSIG RMK A2991,0,5,0,10000,0,0,0,
2026-05-02 13:30:00,METAR RCMQ 021330Z 21005KT 9999 FEW012 SCT200 24/21 Q1013 NOSIG RMK A2991,0,5,0,10000,0,0,0,
2026-05-02 13:00:00,METAR RCMQ 021300Z 20005KT 9999 FEW012 SCT200 24/21 Q1012 NOSIG RMK A2991,0,5,0,10000,0,0,0,
2026-05-02 12:30:00,METAR RCMQ 021230Z 00000KT 9999 FEW012 SCT200 24/20 Q1012 NOSIG RMK A2990,0,0,0,10000,0,0,0,
2026-05-02 12:00:00,METAR RCMQ 021200Z 27005KT 9999 FEW012 SCT200 24/21 Q1012 NOSIG RMK A2988,0,5,0,10000,0,0,0,
2026-05-02 11:30:00,METAR RCMQ 021130Z 27005KT 9999 FEW012 SCT200 24/21 Q1012 NOSIG RMK A2988,0,5,0,10000,0,0,0,
2026-05-02 11:00:00,METAR RCMQ 021100Z 30005KT 9999 FEW012 SCT200 25/21 Q1011 NOSIG RMK A2987,0,5,0,10000,0,0,0,
2026-05-02 10:30:00,METAR RCMQ 021030Z 00000KT 9999 FEW012 SCT100 25/21 Q1011 NOSIG RMK A2986,0,0,0,10000,0,0,0,
2026-05-02 10:00:00,METAR RCMQ 021000Z 33004KT 9999 FEW012 SCT100 26/21 Q1011 NOSIG RMK A2985,0,4,0,10000,0,0,0,
2026-05-02 09:30:00,METAR RCMQ 020930Z 29004KT 9999 FEW012 SCT100 28/21 Q1011 NOSIG RMK A2985,0,4,0,10000,0,0,0,
2026-05-02 09:00:00,METAR RCMQ 020900Z 30005KT 9999 FEW012 SCT100 28/21 Q1011 NOSIG RMK A2985,0,5,0,10000,0,0,0,
2026-05-02 08:30:00,METAR RCMQ 020830Z 29003KT 9999 FEW012 SCT200 28/21 Q1011 NOSIG RMK A2985,0,3,0,10000,0,0,0,
2026-05-02 08:00:00,METAR RCMQ 020800Z 32005KT 9999 FEW012 SCT200 28/21 Q1011 NOSIG RMK A2986,0,5,0,10000,0,0,0,
2026-05-02 07:30:00,METAR RCMQ 020730Z 32005KT 9999 FEW012 SCT200 28/21 Q1011 NOSIG RMK A2987,0,5,0,10000,0,0,0,
2026-05-02 07:00:00,METAR RCMQ 020700Z 31005KT 9999 FEW012 SCT200 29/21 Q1011 NOSIG RMK A2988,0,5,0,10000,0,0,0,
2026-05-02 06:30:00,METAR RCMQ 020630Z 30006KT 9999 FEW012 SCT200 28/21 Q1012 NOSIG RMK A2988,0,6,0,10000,0,0,0,
2026-05-02 06:00:00,METAR RCMQ 020600Z 31007KT 9999 FEW012 SCT200 28/22 Q1012 NOSIG RMK A2989,0,7,0,10000,0,0,0,
2026-05-02 05:30:00,METAR RCMQ 020530Z 31009KT 9999 FEW012 SCT200 28/21 Q1012 NOSIG RMK A2990,0,9,0,10000,0,0,0,
2026-05-02 05:00:00,METAR RCMQ 020500Z 32008KT 9999 FEW012 SCT200 29/21 Q1012 NOSIG RMK A2991,0,8,0,10000,0,0,0,
2026-05-02 04:30:00,METAR RCMQ 020430Z 30008KT 9999 FEW012 SCT200 29/22 Q1013 NOSIG RMK A2992,0,8,0,10000,0,0,0,
2026-05-02 04:00:00,METAR RCMQ 020400Z 30009KT 9999 FEW012 SCT200 29/22 Q1013 NOSIG RMK A2992,0,9,0,10000,0,0,0,
2026-05-02 03:30:00,METAR RCMQ 020330Z 28006KT 9999 FEW012 SCT200 30/23 Q1013 NOSIG RMK A2993,0,6,0,10000,0,0,0,
2026-05-02 03:00:00,METAR RCMQ 020300Z 28005KT 9999 FEW012 SCT200 28/22 Q1013 NOSIG RMK A2993,0,5,0,10000,0,0,0,
2026-05-02 02:30:00,METAR RCMQ 020230Z 27004KT 9999 FEW010 SCT080 28/23 Q1014 NOSIG RMK A2994,0,4,0,10000,0,0,0,
2026-05-02 02:00:00,METAR RCMQ 020200Z 31003KT 8000 FEW010 SCT080 28/23 Q1014 NOSIG RMK A2995,0,3,0,8000,0,0,0,
2026-05-02 01:30:00,METAR RCMQ 020130Z 32003KT 8000 FEW008 SCT016 BKN060 27/23 Q1014 NOSIG RMK A2996,0,3,0,8000,0,0,0,
2026-05-02 01:00:00,METAR RCMQ 020100Z 33003KT 7000 FEW008 SCT016 BKN060 25/22 Q1014 NOSIG RMK A2997,0,3,0,7000,0,0,0,
2026-05-02 00:30:00,METAR RCMQ 020030Z 32004KT 7000 SCT006 SCT016 BKN060 24/22 Q1015 NOSIG RMK A2997,0,4,0,7000,0,0,0,
2026-05-02 00:00:00,METAR RCMQ 020000Z 00000KT 7000 FEW006 BKN060 24/22 Q1014 NOSIG RMK A2996,0,0,0,7000,0,0,0,
2026-05-01 23:30:00,METAR RCMQ 012330Z 34001KT 7000 FEW006 SCT030 BKN060 23/22 Q1014 NOSIG RMK A2996,0,1,0,7000,0,0,0,
2026-05-01 23:00:00,METAR RCMQ 012300Z 00000KT 7000 FEW006 SCT030 BKN060 23/21 Q1014 NOSIG RMK A2996,0,0,0,7000,0,0,0,
2026-05-01 22:30:00,METAR RCMQ 012230Z 32004KT 6000 FEW004 BKN060 22/21 Q1014 NOSIG RMK A2995,0,4,0,6000,0,0,0,
2026-05-01 22:00:00,METAR RCMQ 012200Z 29004KT 6000 FEW012 BKN040 22/21 Q1014 NOSIG RMK A2994,0,4,0,6000,0,0,0,
2026-05-01 21:30:00,METAR RCMQ 012130Z 30003KT 6000 FEW012 BKN040 22/21 Q1013 NOSIG RMK A2994,0,3,0,6000,0,0,0,
2026-05-01 21:00:00,METAR RCMQ 012100Z 30002KT 8000 FEW012 BKN040 22/21 Q1013 NOSIG RMK A2993,0,2,0,8000,0,0,0,
2026-05-01 20:30:00,METAR RCMQ 012030Z 25001KT 9000 FEW012 BKN040 22/20 Q1013 RMK A2993,0,1,0,9000,0,0,0,
2026-05-01 20:00:00,METAR RCMQ 012000Z 27005KT 9000 FEW012 BKN040 22/20 Q1013 RMK A2993,0,5,0,9000,0,0,0,
2026-05-01 19:00:00,METAR RCMQ 011900Z 25004KT 9999 FEW012 BKN040 23/21 Q1013 RMK A2993,0,4,0,10000,0,0,0,
2026-05-01 18:00:00,METAR RCMQ 011800Z 30005KT 9999 FEW012 BKN040 23/21 Q1014 RMK A2994,0,5,0,10000,0,0,0,
2026-05-01 17:00:00,METAR RCMQ 011700Z 00000KT 9999 FEW012 BKN040 23/20 Q1014 RMK A2996,0,0,0,10000,0,0,0,
2026-05-01 16:00:00,METAR RCMQ 011600Z 00000KT 9999 FEW012 BKN040 22/20 Q1014 RMK A2997,0,0,0,10000,0,0,0,
2026-05-01 15:00:00,METAR RCMQ 011500Z 31004KT 9999 FEW012 SCT040 BKN080 23/20 Q1015 RMK A2998,0,4,0,10000,0,0,0,
2026-05-01 14:00:00,METAR RCMQ 011400Z 32001KT 9999 FEW012 SCT040 BKN080 22/20 Q1015 RMK A2998,0,1,0,10000,0,0,0,
2026-05-01 13:30:00,METAR RCMQ 011330Z 00000KT 9999 FEW012 SCT040 BKN080 22/20 Q1015 NOSIG RMK A2997,0,0,0,10000,0,0,0,
2026-05-01 13:00:00,METAR RCMQ 011300Z 31002KT 9999 FEW012 SCT040 BKN080 23/20 Q1015 NOSIG RMK A2997,0,2,0,10000,0,0,0,
2026-05-01 12:30:00,METAR RCMQ 011230Z 33004KT 9999 FEW012 SCT040 BKN080 23/20 Q1014 NOSIG RMK A2996,0,4,0,10000,0,0,0,
2026-05-01 12:00:00,METAR RCMQ 011200Z 32002KT 9999 FEW012 SCT040 BKN080 23/20 Q1014 NOSIG RMK A2996,0,2,0,10000,0,0,0,
2026-05-01 11:30:00,METAR RCMQ 011130Z 35005KT 9999 FEW012 BKN080 22/19 Q1014 NOSIG RMK A2995,0,5,0,10000,0,0,0,
2026-05-01 11:00:00,METAR RCMQ 011100Z 36004KT 9999 FEW012 BKN080 22/19 Q1013 NOSIG RMK A2994,0,4,0,10000,0,0,0,
2026-05-01 10:30:00,METAR RCMQ 011030Z 35005KT 9999 FEW012 BKN080 23/19 Q1013 NOSIG RMK A2994,0,5,0,10000,0,0,0,
2026-05-01 10:00:00,METAR RCMQ 011000Z 34006KT 9999 FEW012 BKN080 24/20 Q1013 NOSIG RMK A2993,0,6,0,10000,0,0,0,
2026-05-01 09:30:00,METAR RCMQ 010930Z 35007KT 9999 FEW012 BKN080 24/20 Q1013 NOSIG RMK A2993,0,7,0,10000,0,0,0,
2026-05-01 09:00:00,METAR RCMQ 010900Z 35005KT 9999 FEW012 BKN080 25/20 Q1013 NOSIG RMK A2992,0,5,0,10000,0,0,0,
2026-05-01 08:30:00,METAR RCMQ 010830Z 35006KT 9999 FEW012 BKN080 26/20 Q1013 NOSIG RMK A2992,0,6,0,10000,0,0,0,
2026-05-01 08:00:00,METAR RCMQ 010800Z 35009KT 9999 FEW012 SCT080 26/20 Q1013 NOSIG RMK A2993,0,9,0,10000,0,0,0,
2026-05-01 07:30:00,METAR RCMQ 010730Z 36009KT 9999 FEW012 SCT080 27/20 Q1013 NOSIG RMK A2994,0,9,0,10000,0,0,0,
2026-05-01 07:00:00,METAR RCMQ 010700Z 34009KT 9999 FEW012 SCT080 28/20 Q1014 NOSIG RMK A2994,0,9,0,10000,0,0,0,
2026-05-01 06:30:00,METAR RCMQ 010630Z 35008KT 9999 FEW012 SCT080 27/20 Q1014 NOSIG RMK A2994,0,8,0,10000,0,0,0,
2026-05-01 06:00:00,METAR RCMQ 010600Z 34008KT 9999 FEW012 BKN080 27/20 Q1014 NOSIG RMK A2995,0,8,0,10000,0,0,0,
2026-05-01 05:30:00,METAR RCMQ 010530Z 34007KT 9999 FEW010 BKN100 27/20 Q1014 NOSIG RMK A2996,0,7,0,10000,0,0,0,
2026-05-01 05:00:00,METAR RCMQ 010500Z 35006KT 9999 FEW010 BKN100 27/20 Q1015 NOSIG RMK A2997,0,6,0,10000,0,0,0,
2026-05-01 04:30:00,METAR RCMQ 010430Z 35007KT 9999 FEW010 BKN100 27/20 Q1015 NOSIG RMK A2999,0,7,0,10000,0,0,0,
2026-05-01 04:00:00,METAR RCMQ 010400Z 35007KT 9999 FEW010 BKN100 26/20 Q1015 NOSIG RMK A2999,0,7,0,10000,0,0,0,
2026-05-01 03:30:00,METAR RCMQ 010330Z 35006KT 9999 FEW010 SCT050 BKN080 26/20 Q1016 NOSIG RMK A3000,0,6,0,10000,0,0,0,
2026-05-01 03:00:00,METAR RCMQ 010300Z 35007KT 9999 FEW010 SCT050 BKN080 25/20 Q1016 NOSIG RMK A3000,0,7,0,10000,0,0,0,
2026-05-01 02:30:00,METAR RCMQ 010230Z 36007KT 9999 FEW010 SCT050 BKN080 24/20 Q1016 NOSIG RMK A3001,0,7,0,10000,0,0,0,
2026-05-01 02:00:00,METAR RCMQ 010200Z 35008KT 9999 FEW010 SCT050 BKN080 23/19 Q1016 NOSIG RMK A3001,0,8,0,10000,0,0,0,
2026-05-01 01:30:00,METAR RCMQ 010130Z 36008KT 9999 FEW008 BKN050 22/19 Q1016 NOSIG RMK A3001,0,8,0,10000,0,0,0,
2026-05-01 01:00:00,METAR RCMQ 010100Z 01007KT 9999 FEW008 BKN050 21/19 Q1016 NOSIG RMK A3001,0,7,0,10000,0,0,0,
2026-05-01 00:30:00,METAR RCMQ 010030Z 02006KT 9999 FEW008 BKN050 21/18 Q1016 NOSIG RMK A3001,0,6,0,10000,0,0,0,
2026-05-01 00:00:00,METAR RCMQ 010000Z 02008KT 9999 FEW008 BKN050 21/19 Q1016 NOSIG RMK A3000,0,8,0,10000,0,0,0,
2026-04-30 23:30:00,METAR RCMQ 302330Z 01009KT 9999 SCT008 BKN050 19/18 Q1016 NOSIG RMK A3000 APCH CLD SCT008,0,9,0,10000,0,0,0,
2026-04-30 23:00:00,METAR RCMQ 302300Z 01009KT 9999 SCT008 BKN050 19/17 Q1015 NOSIG RMK A2999 APCH CLD SCT008,0,9,0,10000,0,0,0,
2026-04-30 22:30:00,METAR RCMQ 302230Z 01010KT 9999 SCT008 BKN050 18/17 Q1015 NOSIG RMK A2998 APCH CLD SCT008,0,10,0,10000,0,0,0,
2026-04-30 22:00:00,METAR RCMQ 302200Z 01008KT 9999 SCT008 BKN050 18/17 Q1015 NOSIG RMK A2997 APCH CLD SCT008,0,8,0,10000,0,0,0,
2026-04-30 21:30:00,METAR RCMQ 302130Z 01008KT 9999 FEW008 BKN030 BKN060 18/17 Q1014 NOSIG RMK A2996,0,8,0,10000,0,0,0,
2026-04-30 21:00:00,METAR RCMQ 302100Z 01008KT 9999 FEW008 BKN030 BKN060 18/17 Q1014 NOSIG RMK A2996,0,8,0,10000,0,0,0,
2026-04-30 20:30:00,METAR RCMQ 302030Z 02010KT 9999 FEW008 BKN030 BKN060 18/17 Q1014 RMK A2996,0,10,0,10000,0,0,0,
2026-04-30 20:00:00,METAR RCMQ 302000Z 02010KT 9999 FEW008 BKN030 BKN060 18/17 Q1014 RMK A2996,0,10,0,10000,0,0,0,
2026-04-30 19:00:00,METAR RCMQ 301900Z 02006KT 9999 FEW006 BKN020 BKN050 18/17 Q1014 RMK A2996,0,6,0,10000,0,0,0,
2026-04-30 18:00:00,METAR RCMQ 301800Z 02006KT 9999 FEW006 BKN020 BKN050 18/17 Q1014 RMK A2996,0,6,0,10000,0,0,0,
2026-04-30 17:00:00,METAR RCMQ 301700Z 01006KT 9999 FEW006 BKN020 BKN050 18/17 Q1015 RMK A2998,0,6,0,10000,0,0,0,
2026-04-30 16:00:00,METAR RCMQ 301600Z 01007KT 9999 FEW006 BKN020 BKN050 18/17 Q1015 RMK A2998,0,7,0,10000,0,0,0,
2026-04-30 15:00:00,METAR RCMQ 301500Z 01008KT 9999 FEW006 BKN020 BKN050 18/17 Q1016 RMK A3000,0,8,0,10000,0,0,0,
2026-04-30 14:00:00,METAR RCMQ 301400Z 02007KT 9999 FEW006 BKN020 BKN050 18/17 Q1016 RMK A3001,0,7,0,10000,0,0,0,
2026-04-30 13:30:00,METAR RCMQ 301330Z 02011KT 9999 FEW006 BKN020 BKN050 18/17 Q1016 NOSIG RMK A3000,0,11,0,10000,0,0,0,
2026-04-30 13:00:00,METAR RCMQ 301300Z 02011KT 9999 SCT006 BKN020 BKN050 18/17 Q1015 NOSIG RMK A3000 APCH CLD SCT006,0,11,0,10000,0,0,0,
2026-04-30 12:30:00,METAR RCMQ 301230Z 01012KT 9999 SCT006 BKN020 BKN050 18/17 Q1015 NOSIG RMK A3000 APCH CLD SCT006,0,12,0,10000,0,0,0,
2026-04-30 12:00:00,METAR RCMQ 301200Z 01012KT 9999 SCT006 BKN020 BKN050 18/17 Q1015 NOSIG RMK A2999 APCH CLD SCT006,0,12,0,10000,0,0,0,
2026-04-30 11:30:00,METAR RCMQ 301130Z 01013KT 9999 SCT006 BKN020 BKN050 18/17 Q1015 NOSIG RMK A2998 APCH CLD SCT006,0,13,0,10000,0,0,0,
2026-04-30 11:00:00,METAR RCMQ 301100Z 01013KT 9999 SCT006 BKN020 BKN050 18/17 Q1015 NOSIG RMK A2997 APCH CLD SCT006,0,13,0,10000,0,0,0,
2026-04-30 10:30:00,METAR RCMQ 301030Z COR 01014KT 9999 SCT006 BKN020 BKN050 18/18 Q1015 NOSIG RMK A2997 APCH CLD SCT006,0,14,0,10000,0,0,0,
2026-04-30 10:00:00,METAR RCMQ 301000Z 01012KT 9999 SCT006 BKN020 BKN050 18/18 Q1015 NOSIG RMK A2997 APCH CLD SCT006,0,12,0,10000,0,0,0,
2026-04-30 09:30:00,METAR RCMQ 300930Z 02009KT 9999 SCT006 BKN020 BKN050 19/18 Q1014 NOSIG RMK A2997 APCH CLD SCT006,0,9,0,10000,0,0,0,
2026-04-30 09:00:00,METAR RCMQ 300900Z 03011KT 9999 SCT004 BKN020 BKN040 19/18 Q1014 NOSIG RMK A2996 APCH CLD SCT004,0,11,0,10000,0,0,0,
2026-04-30 08:51:00,SPECI RCMQ 300851Z 02010KT 9999 SCT004 BKN020 BKN040 19/18 Q1014 NOSIG RMK A2996 APCH CLD SCT004,0,10,0,10000,0,0,0,
2026-04-30 08:30:00,METAR RCMQ 300830Z COR 01011KT 9999 SCT004 BKN012 BKN040 19/18 Q1014 BECMG BKN015 RMK A2996 APCH CLD SCT004,0,11,0,10000,0,0,0,
2026-04-30 08:00:00,METAR RCMQ 300800Z 01011KT 9999 VCSH SCT004 BKN012 BKN040 19/18 Q1014 NOSIG RMK A2996 RA AMT T APCH CLD SCT004 VCSH NW,0,11,0,10000,0,0,0,"RA,SH,VC"
2026-04-30 07:35:00,SPECI RCMQ 300735Z 01013KT 9999 VCSH SCT004 BKN012 BKN030 18/18 Q1014 NOSIG RMK A2996 APCH CLD SCT004 VCSH NW,0,13,0,10000,0,0,0,"SH,VC"
2026-04-30 07:30:00,METAR RCMQ 300730Z 01012KT 9999 -RA SCT004 BKN008 BKN016 18/18 Q1014 NOSIG RMK A2996 APCH CLD SCT004,0,12,0,10000,0,0,0,-RA
2026-04-30 07:00:00,METAR RCMQ 300700Z 01014KT 9999 -RA SCT004 BKN008 BKN016 19/18 Q1014 NOSIG RMK A2996 RA AMT T APCH CLD SCT004,0,14,0,10000,0,0,0,"-RA,RA"
2026-04-30 06:30:00,METAR RCMQ 300630Z 02011KT 8000 -RA SCT004 BKN008 BKN016 19/18 Q1014 NOSIG RMK A2996 APCH CLD SCT004,0,11,0,8000,0,0,0,-RA
2026-04-30 06:00:00,METAR RCMQ 300600Z 02011KT 8000 -RA SCT004 BKN008 BKN016 19/19 Q1014 NOSIG RMK A2997 RA AMT T APCH CLD SCT004,0,11,0,8000,0,0,0,"-RA,RA"
2026-04-30 05:33:00,SPECI RCMQ 300533Z 02014KT 9999 -RA SCT004 BKN008 BKN016 20/19 Q1014 NOSIG RMK A2996 APCH CLD SCT004,0,14,0,10000,0,0,0,-RA
2026-04-30 05:30:00,METAR RCMQ 300530Z 02014KT 9999 VCSH SCT004 BKN008 BKN016 20/19 Q1014 NOSIG RMK A2997 APCH CLD SCT004 VCSH SW,0,14,0,10000,0,0,0,"SH,VC"
2026-04-30 05:00:00,METAR RCMQ 300500Z 02015KT 9999 VCSH SCT004 BKN008 BKN016 19/18 Q1015 NOSIG RMK A2998 APCH CLD SCT004 VCSH SW,0,15,0,10000,0,0,0,"SH,VC"
2026-04-30 04:30:00,METAR RCMQ 300430Z 02014KT 8000 VCSH SCT004 BKN008 BKN016 20/19 Q1015 NOSIG RMK A2998 APCH CLD SCT004 VCSH S,0,14,0,8000,0,0,0,"SH,VC"
2026-04-30 04:00:00,METAR RCMQ 300400Z 01012KT 8000 VCSH SCT004 BKN008 BKN016 19/19 Q1015 NOSIG RMK A2999 RA AMT T APCH CLD SCT004 VCSH SW,0,12,0,8000,0,0,0,"RA,SH,VC"
2026-04-30 03:39:00,SPECI RCMQ 300339Z 01012KT 8000 VCSH SCT004 BKN008 BKN016 19/19 Q1015 NOSIG RMK A2998 APCH CLD SCT004 VCSH SW,0,12,0,8000,0,0,0,"SH,VC"
2026-04-30 03:30:00,METAR RCMQ 300330Z 02013KT 8000 -RA SCT004 BKN008 BKN016 19/19 Q1015 NOSIG RMK A2998 APCH CLD SCT004,0,13,0,8000,0,0,0,-RA
2026-04-30 03:00:00,METAR RCMQ 300300Z 02013KT 7000 -RA SCT004 BKN008 BKN016 19/19 Q1015 NOSIG RMK A2999 RA AMT T APCH CLD SCT004,0,13,0,7000,0,0,0,"-RA,RA"
2026-04-30 02:30:00,METAR RCMQ 300230Z 01013KT 8000 -RA SCT004 BKN008 BKN016 19/19 Q1015 NOSIG RMK A2999 APCH CLD SCT004,0,13,0,8000,0,0,0,-RA
2026-04-30 02:13:00,SPECI RCMQ 300213Z 01014KT 9999 -RA SCT004 BKN008 BKN016 20/19 Q1015 NOSIG RMK A2999 APCH CLD SCT004,0,14,0,10000,0,0,0,-RA
2026-04-30 02:00:00,METAR RCMQ 300200Z 01014KT 9999 VCSH SCT004 BKN008 BKN016 19/19 Q1015 NOSIG RMK A2999 RA AMT T VCSH NE,0,14,0,10000,0,0,0,"RA,SH,VC"
2026-04-30 01:30:00,METAR RCMQ 300130Z 01014KT 9999 VCSH SCT004 BKN008 BKN016 20/19 Q1015 NOSIG RMK A2999 VCSH NE,0,14,0,10000,0,0,0,"SH,VC"
2026-04-30 01:00:00,METAR RCMQ 300100Z 01012KT 9999 VCSH SCT004 BKN008 BKN016 20/19 Q1015 NOSIG RMK A2998 RA AMT T VCSH SE,0,12,0,10000,0,0,0,"RA,SH,VC"
2026-04-30 00:44:00,SPECI RCMQ 300044Z 01011KT 9999 VCSH SCT004 BKN008 BKN016 20/19 Q1015 NOSIG RMK A2998 VCSH SE,0,11,0,10000,0,0,0,"SH,VC"
2026-04-30 00:30:00,METAR RCMQ 300030Z 02011KT 9999 -RA SCT004 BKN008 BKN016 20/19 Q1015 NOSIG RMK A2998,0,11,0,10000,0,0,0,-RA
2026-04-30 00:03:00,SPECI RCMQ 300003Z 02011KT 9999 -RA SCT004 BKN008 BKN016 19/19 Q1015 NOSIG RMK A2997,0,11,0,10000,0,0,0,-RA
2026-04-30 00:00:00,METAR RCMQ 300000Z 02011KT 9999 VCSH SCT004 BKN008 BKN016 20/19 Q1015 NOSIG RMK A2997 VCSH SW,0,11,0,10000,0,0,0,"SH,VC"
2026-04-29 23:30:00,METAR RCMQ 292330Z 02012KT 9999 SCT004 BKN008 BKN016 19/19 Q1014 NOSIG RMK A2996,0,12,0,10000,0,0,0,
2026-04-29 23:00:00,METAR RCMQ 292300Z 02011KT 9999 SCT004 BKN008 BKN016 19/19 Q1014 NOSIG RMK A2995,0,11,0,10000,0,0,0,
2026-04-29 22:30:00,METAR RCMQ 292230Z 02010KT 7000 SCT004 BKN008 BKN016 19/19 Q1014 NOSIG RMK A2994,0,10,0,7000,0,0,0,
2026-04-29 22:00:00,METAR RCMQ 292200Z 01011KT 7000 SCT004 BKN008 BKN016 19/19 Q1013 NOSIG RMK A2993,0,11,0,7000,0,0,0,
2026-04-29 21:30:00,METAR RCMQ 292130Z 02009KT 7000 SCT004 BKN008 BKN016 19/19 Q1013 NOSIG RMK A2993,0,9,0,7000,0,0,0,
2026-04-29 21:00:00,METAR RCMQ 292100Z 01012KT 7000 SCT004 BKN008 BKN016 19/19 Q1013 NOSIG RMK A2992,0,12,0,7000,0,0,0,
2026-04-29 20:30:00,METAR RCMQ 292030Z 02012KT 5000 BR SCT004 BKN008 BKN016 19/19 Q1013 RMK A2991,0,12,0,5000,0,0,1,BR
2026-04-29 20:00:00,METAR RCMQ 292000Z 02012KT 5000 BR SCT004 BKN008 BKN016 20/19 Q1013 RMK A2991 RA AMT T,0,12,0,5000,0,0,1,"BR,RA"
2026-04-29 19:57:00,SPECI RCMQ 291957Z 02012KT 5000 BR SCT004 BKN008 BKN016 20/19 Q1013 RMK A2992,0,12,0,5000,0,0,1,BR
2026-04-29 19:04:00,SPECI RCMQ 291904Z 02012KT 3200 BR SCT002 BKN004 BKN010 20/19 Q1013 RMK A2991,0,12,0,3200,0,0,1,BR
2026-04-29 19:00:00,METAR RCMQ 291900Z 02012KT 1600 -RA BR SCT002 BKN004 BKN010 20/19 Q1013 RMK A2991 RA AMT T,0,12,0,1600,0,0,1,"-RA,BR,RA"
2026-04-29 18:00:00,METAR RCMQ 291800Z 36011KT 1600 -RA BR SCT002 BKN004 BKN010 20/20 Q1013 RMK A2993 RA AMT T,0,11,0,1600,0,0,1,"-RA,BR,RA"
2026-04-29 17:00:00,METAR RCMQ 291700Z 36008KT 1600 -RA BR SCT002 BKN004 BKN010 21/20 Q1013 RMK A2993 RA AMT T,0,8,0,1600,0,0,1,"-RA,BR,RA"
2026-04-29 16:00:00,METAR RCMQ 291600Z 02006KT 1600 -RA BR SCT002 BKN004 BKN010 21/21 Q1014 RMK A2997 RA AMT 0.5MM,0,6,0,1600,0,0,1,"-RA,BR,RA"
2026-04-29 15:08:00,SPECI RCMQ 291508Z 01008KT 1600 -RA BR SCT002 BKN004 BKN010 21/21 Q1015 RMK A2998,0,8,0,1600,0,0,1,"-RA,BR"
2026-04-29 15:00:00,METAR RCMQ 291500Z 01008KT 2000 -RA BR SCT002 BKN006 BKN012 21/21 Q1015 RMK A2997 RA AMT T,0,8,0,2000,0,0,1,"-RA,BR,RA"
2026-04-29 14:34:00,SPECI RCMQ 291434Z 36008KT 2000 -RA BR SCT002 BKN006 BKN012 22/22 Q1015 RMK A2998,0,8,0,2000,0,0,1,"-RA,BR"
2026-04-29 14:15:00,SPECI RCMQ 291415Z 36008KT 4000 -RA BR SCT002 BKN008 BKN020 22/22 Q1015 RMK A2999,0,8,0,4000,0,0,1,"-RA,BR"
2026-04-29 14:00:00,METAR RCMQ 291400Z 01006KT 6000 -RA SCT004 BKN012 BKN020 22/22 Q1015 RMK A2998 RA AMT T,0,6,0,6000,0,0,0,"-RA,RA"
2026-04-29 13:30:00,METAR RCMQ 291330Z 36007KT 7000 -RA SCT004 BKN012 BKN030 23/23 Q1015 RMK A2997,0,7,0,7000,0,0,0,-RA
2026-04-29 13:00:00,METAR RCMQ 291300Z 32004KT 7000 -RA SCT004 BKN012 BKN030 23/23 Q1014 NOSIG RMK A2997 RA AMT T,0,4,0,7000,0,0,0,"-RA,RA"
2026-04-29 12:30:00,METAR RCMQ 291230Z 35004KT 7000 -RA SCT004 BKN012 BKN030 23/23 Q1014 NOSIG RMK A2995,0,4,0,7000,0,0,0,-RA
2026-04-29 12:00:00,METAR RCMQ 291200Z 32004KT 7000 -RA SCT004 BKN012 BKN030 23/23 Q1014 NOSIG RMK A2995 RA AMT 0.5MM,0,4,0,7000,0,0,0,"-RA,RA"
2026-04-29 11:30:00,METAR RCMQ 291130Z 33005KT 7000 -RA SCT004 BKN012 BKN030 23/23 Q1013 NOSIG RMK A2993,0,5,0,7000,0,0,0,-RA
2026-04-29 11:05:00,SPECI RCMQ 291105Z 01005KT 7000 -RA SCT004 BKN012 BKN030 23/23 Q1013 NOSIG RMK A2992,0,5,0,7000,0,0,0,-RA
2026-04-29 11:00:00,METAR RCMQ 291100Z 01004KT 9999 VCSH SCT004 BKN012 BKN030 23/23 Q1013 NOSIG RMK A2992 RA AMT T VCSH SW,0,4,0,10000,0,0,0,"RA,SH,VC"
2026-04-29 10:39:00,SPECI RCMQ 291039Z 01004KT 9999 VCSH SCT004 BKN012 BKN030 23/23 Q1012 NOSIG RMK A2991 VCSH W,0,4,0,10000,0,0,0,"SH,VC"
2026-04-29 10:30:00,METAR RCMQ 291030Z 01004KT 9999 -RA SCT004 BKN012 BKN030 23/23 Q1012 NOSIG RMK A2990,0,4,0,10000,0,0,0,-RA
2026-04-29 10:05:00,SPECI RCMQ 291005Z 34004KT 9999 -RA SCT004 BKN012 BKN030 23/22 Q1012 NOSIG RMK A2989,0,4,0,10000,0,0,0,-RA
2026-04-29 10:00:00,METAR RCMQ 291000Z 33004KT 9999 -RA VCTS SCT004 FEW010CB BKN012 BKN030 23/22 Q1012 NOSIG RMK A2989 RA AMT 0.5MM TS W MOV NE,0,4,0,10000,1,0,0,"-RA,RA,TS,VC"
2026-04-29 09:30:00,METAR RCMQ 290930Z 33008KT 7000 -RA VCTS SCT004 FEW010CB BKN012 BKN030 23/22 Q1011 BECMG FM0940 TL1040 TSRA RMK A2987 TS SW MOV NE,0,8,0,7000,1,0,0,"-RA,RA,TS,VC"
2026-04-29 09:15:00,SPECI RCMQ 290915Z 33005KT 7000 -RA VCTS SCT004 FEW010CB BKN012 BKN030 23/22 Q1011 BECMG FM0940 TL1040 TSRA RMK A2987 TS SW MOV VRBL,0,5,0,7000,1,0,0,"-RA,RA,TS,VC"
2026-04-29 09:00:00,METAR RCMQ 290900Z 36005KT 7000 -RA SCT004 BKN012 BKN030 23/22 Q1011 NOSIG RMK A2986 RA AMT 1.5MM,0,5,0,7000,0,0,0,"-RA,RA"
2026-04-29 08:30:00,METAR RCMQ 290830Z 05003KT 7000 -RA FEW004 FEW010CB BKN012 BKN030 23/23 Q1011 NOSIG RMK A2985 CB NW STNRY,0,3,0,7000,0,0,0,-RA
2026-04-29 08:05:00,SPECI RCMQ 290805Z COR 36004KT 6000 -RA SCT004 FEW010CB BKN012 BKN030 23/22 Q1011 NOSIG RMK A2986 CB NW MOV N,0,4,0,6000,0,0,0,-RA
2026-04-29 08:00:00,METAR RCMQ 290800Z 01004KT 4800 -RA BR SCT004 FEW010CB BKN012 BKN030 23/22 Q1011 RETS RERA BECMG 5000 -RA BR RMK A2986 RA AMT 11.0MM CB W MOV N,0,4,0,4800,1,0,1,"-RA,BR,RA,TS"
2026-04-29 07:52:00,SPECI RCMQ 290752Z 01004KT 4800 -RA BR SCT004 FEW010CB BKN012 BKN030 23/22 Q1011 RETS BECMG 5000 -RA BR RMK A2986 CB W MOV N,0,4,0,4800,1,0,1,"-RA,BR,TS"
2026-04-29 07:46:00,SPECI RCMQ 290746Z 34005KT 3200 -TSRA SCT003 FEW008CB BKN010 BKN025 23/22 Q1011 BECMG TL0800 TSRA RMK A2986 TS W MOV N,0,5,0,3200,1,0,0,"RA,TS"
2026-04-29 07:33:00,SPECI RCMQ 290733Z 28005KT 1200 R36/0800U TSRA SCT003 BKN008 FEW010CB BKN016 23/22 Q1011 BECMG TL0800 TSRA RMK A2986 TS SW MOV N,0,5,0,1200,1,0,0,"RA,TS"
2026-04-29 07:30:00,METAR RCMQ 290730Z 25003KT 250V360 0800 R36/0400N TSRA SCT003 BKN008 FEW010CB BKN016 23/22 Q1011 BECMG TL0800 TSRA RMK A2987 TS SW MOV N,0,3,0,1287200,1,0,0,"RA,TS"
2026-04-29 07:18:00,SPECI RCMQ 290718Z COR 31008KT 0800 R36/0400 TSRA SCT003 BKN008 FEW010CB BKN016 23/22 Q1012 BECMG TL0800 TSRA RMK A2988 TS SW MOV N,0,8,0,1287200,1,0,0,"RA,TS"
2026-04-29 07:03:00,SPECI RCMQ 290703Z 36004KT 1600 TSRA SCT004 FEW008CB BKN010 BKN030 24/23 Q1011 BECMG TL0800 TSRA RMK A2987 TS SW MOV N,0,4,0,1600,1,0,0,"RA,TS"
2026-04-29 07:00:00,METAR RCMQ 290700Z 03004KT 2400 -TSRA SCT004 FEW008CB BKN010 BKN030 24/23 Q1011 BECMG TL0800 TSRA RMK A2986 RA AMT 1.5MM TS SW MOV N,0,4,0,2400,1,0,0,"RA,TS"
2026-04-29 06:30:00,METAR RCMQ 290630Z 36006KT 2400 -TSRA SCT004 FEW008CB BKN010 BKN030 23/22 Q1011 RERA BECMG TL0800 TSRA RMK A2988 TS SW MOV N,0,6,0,2400,1,0,0,"RA,TS"
2026-04-29 06:16:00,SPECI RCMQ 290616Z 33011KT 2400 -TSRA SCT004 FEW008CB BKN010 BKN030 24/22 Q1011 RERA BECMG TL0800 TSRA RMK A2987 TS SW MOV N,0,11,0,2400,1,0,0,"RA,TS"
2026-04-29 06:09:00,SPECI RCMQ 290609Z 33011KT 3200 TSRA SCT004 FEW010CB BKN016 BKN040 24/23 Q1012 BECMG TL0800 TSRA RMK A2988 TS SW MOV N,0,11,0,3200,1,0,0,"RA,TS"
2026-04-29 06:05:00,SPECI RCMQ 290605Z 33010KT 4000 -TSRA SCT004 FEW010CB BKN020 BKN050 24/22 Q1012 BECMG TL0800 TSRA RMK A2988 TS SW MOV N,0,10,0,4000,1,0,0,"RA,TS"
2026-04-29 06:00:00,METAR RCMQ 290600Z 33010KT 5000 -RA VCTS BR SCT006 FEW010CB BKN025 BKN050 25/22 Q1011 BECMG FM0600 TL0800 TSRA RMK A2988 RA AMT T TS SW MOV N,0,10,0,5000,1,0,1,"-RA,BR,RA,TS,VC"
2026-04-29 05:40:00,SPECI RCMQ 290540Z COR 32008KT 5000 -RA VCTS BR FEW006 FEW010CB SCT025 BKN050 25/23 Q1012 BECMG FM0600 TL0800 TSRA RMK A2989 TS SW MOV N,0,8,0,5000,1,0,1,"-RA,BR,RA,TS,VC"
2026-04-29 05:30:00,METAR RCMQ 290530Z 32007KT 240V320 7000 -RA FEW010 FEW012CB SCT030 BKN060 26/23 Q1011 BECMG FM0600 TL0800 TSRA RMK A2987 CB SW,0,7,0,7000,1,0,0,"-RA,RA,TS"
2026-04-29 05:03:00,SPECI RCMQ 290503Z 24004KT 9999 -RA FEW010 SCT030 BKN080 29/22 Q1011 NOSIG RMK A2987,0,4,0,10000,0,0,0,-RA
2026-04-29 05:00:00,METAR RCMQ 290500Z 22005KT 9999 VCSH FEW012 SCT030 BKN100 29/22 Q1011 NOSIG RMK A2987 VCSH W,0,5,0,10000,0,0,0,"SH,VC"
2026-04-29 04:30:00,METAR RCMQ 290430Z 21006KT 9999 VCSH FEW012 SCT030 BKN100 29/22 Q1011 NOSIG RMK A2987 VCSH NW,0,6,0,10000,0,0,0,"SH,VC"
2026-04-29 04:00:00,METAR RCMQ 290400Z 26002KT 9999 VCSH FEW012 SCT030 BKN100 29/23 Q1012 NOSIG RMK A2988 VCSH W,0,2,0,10000,0,0,0,"SH,VC"
2026-04-29 03:30:00,METAR RCMQ 290330Z 24005KT 9999 FEW012 SCT030 BKN120 29/22 Q1012 NOSIG RMK A2990,0,5,0,10000,0,0,0,
2026-04-29 03:00:00,METAR RCMQ 290300Z 20005KT 200V290 9999 FEW012 SCT030 BKN120 29/22 Q1012 NOSIG RMK A2991,0,5,0,10000,0,0,0,
2026-04-29 02:30:00,METAR RCMQ 290230Z 29004KT 9999 FEW012 SCT030 BKN120 29/23 Q1013 NOSIG RMK A2991,0,4,0,10000,0,0,0,
2026-04-29 02:00:00,METAR RCMQ 290200Z 29005KT 150V290 9999 FEW012 SCT030 BKN120 29/22 Q1013 NOSIG RMK A2991,0,5,0,10000,0,0,0,
2026-04-29 01:30:00,METAR RCMQ 290130Z 15004KT 9999 FEW012 SCT030 BKN120 30/21 Q1013 NOSIG RMK A2992,0,4,0,10000,0,0,0,
2026-04-29 01:00:00,METAR RCMQ 290100Z 18005KT 8000 FEW012 SCT200 30/23 Q1013 NOSIG RMK A2991,0,5,0,8000,0,0,0,
2026-04-29 00:30:00,METAR RCMQ 290030Z 00000KT 8000 FEW012 SCT200 29/22 Q1012 NOSIG RMK A2991,0,0,0,8000,0,0,0,
2026-04-29 00:00:00,METAR RCMQ 290000Z 00000KT 8000 FEW012 SCT200 28/23 Q1012 NOSIG RMK A2990,0,0,0,8000,0,0,0,
2026-04-28 23:30:00,METAR RCMQ 282330Z 07004KT 8000 FEW012 26/22 Q1012 NOSIG RMK A2990,0,4,0,8000,0,0,0,
2026-04-28 23:00:00,METAR RCMQ 282300Z 03004KT 9999 FEW012 25/23 Q1012 NOSIG RMK A2989,0,4,0,10000,0,0,0,
2026-04-28 22:30:00,METAR RCMQ 282230Z 36001KT 9999 FEW012 23/21 Q1012 NOSIG RMK A2988,0,1,0,10000,0,0,0,
2026-04-28 22:00:00,METAR RCMQ 282200Z 33003KT 9999 FEW012 22/20 Q1011 NOSIG RMK A2988,0,3,0,10000,0,0,0,
2026-04-28 21:30:00,METAR RCMQ 282130Z 32002KT 9999 FEW012 21/19 Q1011 NOSIG RMK A2986,0,2,0,10000,0,0,0,
2026-04-28 21:00:00,METAR RCMQ 282100Z 00000KT 9999 FEW012 22/19 Q1011 NOSIG RMK A2985,0,0,0,10000,0,0,0,
2026-04-28 20:30:00,METAR RCMQ 282030Z 08002KT 9999 FEW012 SCT100 22/20 Q1010 RMK A2985,0,2,0,10000,0,0,0,
2026-04-28 20:00:00,METAR RCMQ 282000Z 08003KT 9999 FEW012 SCT100 23/20 Q1010 RMK A2985,0,3,0,10000,0,0,0,
2026-04-28 19:00:00,METAR RCMQ 281900Z 07005KT 9999 FEW012 23/20 Q1011 RMK A2986,0,5,0,10000,0,0,0,
2026-04-28 18:00:00,METAR RCMQ 281800Z 08001KT 9999 FEW012 22/20 Q1011 RMK A2988,0,1,0,10000,0,0,0,
2026-04-28 17:00:00,METAR RCMQ 281700Z 00000KT 9999 FEW012 23/20 Q1012 RMK A2990,0,0,0,10000,0,0,0,
2026-04-28 16:00:00,METAR RCMQ 281600Z 12005KT 9999 FEW012 23/19 Q1012 RMK A2991,0,5,0,10000,0,0,0,
2026-04-28 15:00:00,METAR RCMQ 281500Z 00000KT 9999 FEW012 24/20 Q1013 RMK A2993,0,0,0,10000,0,0,0,
2026-04-28 14:00:00,METAR RCMQ 281400Z 05001KT 9999 FEW012 24/19 Q1013 RMK A2993,0,1,0,10000,0,0,0,
2026-04-28 13:30:00,METAR RCMQ 281330Z 00000KT 9999 FEW012 24/19 Q1013 NOSIG RMK A2993,0,0,0,10000,0,0,0,
2026-04-28 13:00:00,METAR RCMQ 281300Z 00000KT 9999 FEW012 23/17 Q1013 NOSIG RMK A2992,0,0,0,10000,0,0,0,
2026-04-28 12:30:00,METAR RCMQ 281230Z 01004KT 9999 FEW012 24/16 Q1013 NOSIG RMK A2991,0,4,0,10000,0,0,0,
2026-04-28 12:00:00,METAR RCMQ 281200Z 36004KT 9999 FEW012 23/16 Q1012 NOSIG RMK A2991,0,4,0,10000,0,0,0,
2026-04-28 11:30:00,METAR RCMQ 281130Z 34004KT 9999 FEW012 SCT200 23/15 Q1012 NOSIG RMK A2989,0,4,0,10000,0,0,0,
2026-04-28 11:00:00,METAR RCMQ 281100Z 35004KT 9999 FEW012 SCT200 24/15 Q1012 NOSIG RMK A2988,0,4,0,10000,0,0,0,
2026-04-28 10:30:00,METAR RCMQ 281030Z 35005KT 9999 FEW012 SCT200 25/14 Q1011 NOSIG RMK A2987,0,5,0,10000,0,0,0,
2026-04-28 10:00:00,METAR RCMQ 281000Z 01006KT 9999 FEW012 SCT200 26/14 Q1011 NOSIG RMK A2986,0,6,0,10000,0,0,0,
2026-04-28 09:30:00,METAR RCMQ 280930Z 36006KT 9999 FEW012 SCT200 27/15 Q1011 NOSIG RMK A2986,0,6,0,10000,0,0,0,
2026-04-28 09:00:00,METAR RCMQ 280900Z 35005KT 9999 FEW012 SCT200 28/16 Q1011 NOSIG RMK A2986,0,5,0,10000,0,0,0,
2026-04-28 08:30:00,METAR RCMQ 280830Z 36005KT 9999 FEW012 SCT100 29/18 Q1011 NOSIG RMK A2986,0,5,0,10000,0,0,0,
2026-04-28 08:00:00,METAR RCMQ 280800Z 01006KT 9999 FEW012 BKN100 29/18 Q1011 NOSIG RMK A2986,0,6,0,10000,0,0,0,
2026-04-28 07:30:00,METAR RCMQ 280730Z 35005KT 9999 FEW012 SCT060 BKN100 28/19 Q1011 NOSIG RMK A2987,0,5,0,10000,0,0,0,
2026-04-28 07:00:00,METAR RCMQ 280700Z 35006KT 9999 FEW012 SCT060 BKN100 27/20 Q1012 NOSIG RMK A2988,0,6,0,10000,0,0,0,
2026-04-28 06:30:00,METAR RCMQ 280630Z 35006KT 9999 FEW012 BKN100 27/21 Q1012 NOSIG RMK A2989,0,6,0,10000,0,0,0,
2026-04-28 06:00:00,METAR RCMQ 280600Z 35006KT 9999 FEW012 BKN100 28/21 Q1012 NOSIG RMK A2990,0,6,0,10000,0,0,0,
2026-04-28 05:30:00,METAR RCMQ 280530Z 35007KT 9999 FEW012 BKN100 28/21 Q1012 NOSIG RMK A2991,0,7,0,10000,0,0,0,
2026-04-28 05:00:00,METAR RCMQ 280500Z 34007KT 9999 FEW012 BKN100 29/21 Q1013 NOSIG RMK A2991,0,7,0,10000,0,0,0,
2026-04-28 04:30:00,METAR RCMQ 280430Z 32006KT 9999 FEW012 BKN100 29/19 Q1013 NOSIG RMK A2992,0,6,0,10000,0,0,0,
2026-04-28 04:00:00,METAR RCMQ 280400Z 32008KT 9999 FEW012 BKN100 28/17 Q1014 NOSIG RMK A2994,0,8,0,10000,0,0,0,
2026-04-28 03:30:00,METAR RCMQ 280330Z 32009KT 9999 FEW012 BKN100 28/18 Q1014 NOSIG RMK A2995,0,9,0,10000,0,0,0,
2026-04-28 03:00:00,METAR RCMQ 280300Z 30009KT 9999 FEW012 BKN100 30/18 Q1014 NOSIG RMK A2995,0,9,0,10000,0,0,0,
2026-04-28 02:30:00,METAR RCMQ 280230Z 27006KT 9999 FEW012 BKN100 31/16 Q1014 NOSIG RMK A2995,0,6,0,10000,0,0,0,
2026-04-28 02:00:00,METAR RCMQ 280200Z 21004KT 9999 FEW012 BKN100 30/18 Q1014 NOSIG RMK A2995,0,4,0,10000,0,0,0,
2026-04-28 01:30:00,METAR RCMQ 280130Z 16005KT 9999 FEW012 BKN100 29/19 Q1014 NOSIG RMK A2995,0,5,0,10000,0,0,0,
2026-04-28 01:00:00,METAR RCMQ 280100Z 13003KT 9999 FEW012 BKN100 26/19 Q1014 NOSIG RMK A2996,0,3,0,10000,0,0,0,
2026-04-28 00:30:00,METAR RCMQ 280030Z 17005KT 9999 FEW012 BKN100 27/20 Q1014 NOSIG RMK A2996,0,5,0,10000,0,0,0,
2026-04-28 00:00:00,METAR RCMQ 280000Z 13004KT 9999 FEW012 BKN100 25/20 Q1014 NOSIG RMK A2996,0,4,0,10000,0,0,0,
2026-04-27 23:30:00,METAR RCMQ 272330Z 14002KT 9999 FEW012 BKN100 25/21 Q1014 NOSIG RMK A2995,0,2,0,10000,0,0,0,
2026-04-27 23:00:00,METAR RCMQ 272300Z 00000KT 9999 FEW012 BKN100 22/19 Q1014 NOSIG RMK A2994,0,0,0,10000,0,0,0,
2026-04-27 22:30:00,METAR RCMQ 272230Z 00000KT 9999 FEW012 BKN100 21/18 Q1013 NOSIG RMK A2993,0,0,0,10000,0,0,0,
2026-04-27 22:00:00,METAR RCMQ 272200Z 00000KT 9999 FEW012 BKN100 20/18 Q1013 NOSIG RMK A2992,0,0,0,10000,0,0,0,
2026-04-27 21:30:00,METAR RCMQ 272130Z 00000KT 9999 FEW012 BKN100 20/17 Q1013 NOSIG RMK A2992,0,0,0,10000,0,0,0,
2026-04-27 21:00:00,METAR RCMQ 272100Z 10003KT 9999 FEW012 SCT200 19/17 Q1013 NOSIG RMK A2991,0,3,0,10000,0,0,0,
2026-04-27 20:30:00,METAR RCMQ 272030Z 00000KT 9999 FEW012 SCT200 20/17 Q1013 RMK A2991,0,0,0,10000,0,0,0,
2026-04-27 20:00:00,METAR RCMQ 272000Z 16003KT 9999 FEW012 21/17 Q1013 RMK A2991,0,3,0,10000,0,0,0,
2026-04-27 19:00:00,METAR RCMQ 271900Z 14004KT 9999 FEW012 20/17 Q1013 RMK A2991,0,4,0,10000,0,0,0,
2026-04-27 18:00:00,METAR RCMQ 271800Z 14005KT 9999 FEW012 20/17 Q1013 RMK A2993,0,5,0,10000,0,0,0,
2026-04-27 17:00:00,METAR RCMQ 271700Z 13004KT 9999 FEW012 SCT100 20/16 Q1014 RMK A2994,0,4,0,10000,0,0,0,
2026-04-27 16:00:00,METAR RCMQ 271600Z 00000KT 9999 FEW012 SCT100 21/16 Q1014 RMK A2995,0,0,0,10000,0,0,0,
2026-04-27 15:00:00,METAR RCMQ 271500Z 07004KT 9999 FEW012 SCT100 21/16 Q1014 RMK A2996,0,4,0,10000,0,0,0,
2026-04-27 14:00:00,METAR RCMQ 271400Z 00000KT 9999 FEW012 SCT100 21/17 Q1014 RMK A2995,0,0,0,10000,0,0,0,
2026-04-27 13:30:00,METAR RCMQ 271330Z 06001KT 9999 FEW012 SCT100 21/17 Q1014 RMK A2995,0,1,0,10000,0,0,0,
2026-04-27 13:00:00,METAR RCMQ 271300Z 08004KT 9999 FEW012 SCT100 20/17 Q1014 RMK A2995,0,4,0,10000,0,0,0,
2026-04-27 12:30:00,METAR RCMQ 271230Z 05005KT 9999 FEW012 SCT100 22/19 Q1014 NOSIG RMK A2995,0,5,0,10000,0,0,0,
2026-04-27 12:00:00,METAR RCMQ 271200Z 00000KT 9999 FEW012 SCT100 22/18 Q1014 NOSIG RMK A2995,0,0,0,10000,0,0,0,
2026-04-27 11:30:00,METAR RCMQ 271130Z 00000KT 9999 FEW012 BKN100 22/18 Q1014 NOSIG RMK A2994,0,0,0,10000,0,0,0,
2026-04-27 11:00:00,METAR RCMQ 271100Z 32005KT 9999 FEW012 BKN100 22/18 Q1013 NOSIG RMK A2993,0,5,0,10000,0,0,0,
2026-04-27 10:30:00,METAR RCMQ 271030Z 01004KT 9999 FEW012 BKN100 23/18 Q1013 NOSIG RMK A2992,0,4,0,10000,0,0,0,
2026-04-27 10:00:00,METAR RCMQ 271000Z 36004KT 9999 FEW012 BKN100 24/17 Q1013 NOSIG RMK A2991,0,4,0,10000,0,0,0,
2026-04-27 09:30:00,METAR RCMQ 270930Z 36005KT 9999 FEW012 SCT100 BKN200 25/15 Q1013 NOSIG RMK A2991,0,5,0,10000,0,0,0,
2026-04-27 09:00:00,METAR RCMQ 270900Z 36007KT 9999 FEW012 SCT200 26/16 Q1012 NOSIG RMK A2991,0,7,0,10000,0,0,0,
2026-04-27 08:30:00,METAR RCMQ 270830Z 33008KT 9999 FEW012 BKN200 26/18 Q1013 NOSIG RMK A2991,0,8,0,10000,0,0,0,
2026-04-27 08:00:00,METAR RCMQ 270800Z 32007KT 9999 FEW012 BKN200 26/17 Q1012 NOSIG RMK A2991,0,7,0,10000,0,0,0,
2026-04-27 07:30:00,METAR RCMQ 270730Z 32006KT 9999 FEW012 BKN200 27/17 Q1012 NOSIG RMK A2991,0,6,0,10000,0,0,0,
2026-04-27 07:00:00,METAR RCMQ 270700Z 31005KT 9999 FEW012 BKN200 27/18 Q1013 NOSIG RMK A2992,0,5,0,10000,0,0,0,
2026-04-27 06:30:00,METAR RCMQ 270630Z 32007KT 9999 FEW012 BKN200 28/18 Q1013 NOSIG RMK A2993,0,7,0,10000,0,0,0,
2026-04-27 06:00:00,METAR RCMQ 270600Z 33007KT 9999 FEW012 BKN200 29/19 Q1013 NOSIG RMK A2993,0,7,0,10000,0,0,0,
2026-04-27 05:30:00,METAR RCMQ 270530Z 30009KT 9999 FEW012 BKN200 28/17 Q1014 NOSIG RMK A2995,0,9,0,10000,0,0,0,
2026-04-27 05:00:00,METAR RCMQ 270500Z 29008KT 9999 FEW012 BKN200 28/18 Q1014 NOSIG RMK A2996,0,8,0,10000,0,0,0,
2026-04-27 04:30:00,METAR RCMQ 270430Z 29007KT 9999 FEW012 BKN200 28/17 Q1014 NOSIG RMK A2997,0,7,0,10000,0,0,0,
2026-04-27 04:00:00,METAR RCMQ 270400Z 29007KT 9999 FEW012 BKN200 29/18 Q1015 NOSIG RMK A2998,0,7,0,10000,0,0,0,
2026-04-27 03:30:00,METAR RCMQ 270330Z 26008KT 9999 FEW012 BKN200 29/17 Q1015 NOSIG RMK A2998,0,8,0,10000,0,0,0,
2026-04-27 03:00:00,METAR RCMQ 270300Z 26008KT 9999 FEW012 BKN200 28/16 Q1015 NOSIG RMK A2999,0,8,0,10000,0,0,0,
2026-04-27 02:30:00,METAR RCMQ 270230Z 27006KT 9999 FEW012 SCT200 28/18 Q1015 NOSIG RMK A3000,0,6,0,10000,0,0,0,
2026-04-27 02:00:00,METAR RCMQ 270200Z 27008KT 9999 FEW012 SCT200 28/18 Q1016 NOSIG RMK A3000,0,8,0,10000,0,0,0,
2026-04-27 01:30:00,METAR RCMQ 270130Z 27006KT 170V270 9999 FEW012 SCT200 28/19 Q1016 NOSIG RMK A3000,0,6,0,10000,0,0,0,
2026-04-27 01:00:00,METAR RCMQ 270100Z 17005KT 9999 FEW012 SCT200 27/19 Q1016 NOSIG RMK A3000,0,5,0,10000,0,0,0,
2026-04-27 00:30:00,METAR RCMQ 270030Z 17005KT 9999 FEW012 SCT200 26/20 Q1015 NOSIG RMK A2999,0,5,0,10000,0,0,0,
2026-04-27 00:00:00,METAR RCMQ 270000Z 16004KT 9999 FEW012 SCT200 25/20 Q1015 NOSIG RMK A2999,0,4,0,10000,0,0,0,
2026-04-26 23:30:00,METAR RCMQ 262330Z 16004KT 9999 FEW012 BKN200 23/20 Q1015 NOSIG RMK A2999,0,4,0,10000,0,0,0,
2026-04-26 23:00:00,METAR RCMQ 262300Z 11002KT 9999 FEW012 BKN200 22/20 Q1015 NOSIG RMK A2998,0,2,0,10000,0,0,0,
2026-04-26 22:30:00,METAR RCMQ 262230Z 14002KT 9999 FEW012 SCT200 21/19 Q1015 NOSIG RMK A2998,0,2,0,10000,0,0,0,
2026-04-26 22:00:00,METAR RCMQ 262200Z 17004KT 9999 FEW012 SCT200 20/18 Q1014 NOSIG RMK A2996,0,4,0,10000,0,0,0,
2026-04-26 21:30:00,METAR RCMQ 262130Z 16003KT 9999 FEW012 19/17 Q1014 NOSIG RMK A2995,0,3,0,10000,0,0,0,
2026-04-26 21:00:00,METAR RCMQ 262100Z 16004KT 9999 FEW012 19/17 Q1014 NOSIG RMK A2994,0,4,0,10000,0,0,0,
2026-04-26 20:30:00,METAR RCMQ 262030Z 17004KT 9999 FEW012 18/17 Q1013 RMK A2993,0,4,0,10000,0,0,0,
2026-04-26 20:00:00,METAR RCMQ 262000Z 00000KT 9999 FEW012 20/17 Q1013 RMK A2993,0,0,0,10000,0,0,0,
2026-04-26 19:00:00,METAR RCMQ 261900Z 00000KT 9999 FEW012 19/17 Q1014 RMK A2994,0,0,0,10000,0,0,0,
2026-04-26 18:00:00,METAR RCMQ 261800Z 00000KT 9999 FEW012 20/17 Q1014 RMK A2994,0,0,0,10000,0,0,0,
2026-04-26 17:00:00,METAR RCMQ 261700Z 16004KT 9999 FEW012 20/17 Q1014 RMK A2994,0,4,0,10000,0,0,0,
2026-04-26 16:00:00,METAR RCMQ 261600Z 14005KT 9999 FEW012 19/16 Q1013 RMK A2993,0,5,0,10000,0,0,0,
2026-04-26 15:00:00,METAR RCMQ 261500Z 15004KT 9999 FEW012 20/17 Q1014 RMK A2994,0,4,0,10000,0,0,0,
2026-04-26 14:00:00,METAR RCMQ 261400Z 07004KT 9999 FEW012 21/16 Q1014 RMK A2995,0,4,0,10000,0,0,0,
2026-04-26 13:30:00,METAR RCMQ 261330Z 00000KT 9999 FEW012 21/17 Q1014 RMK A2994,0,0,0,10000,0,0,0,
2026-04-26 13:00:00,METAR RCMQ 261300Z 01005KT 9999 FEW012 22/17 Q1013 NOSIG RMK A2993,0,5,0,10000,0,0,0,
2026-04-26 12:30:00,METAR RCMQ 261230Z 03003KT 9999 FEW012 22/17 Q1013 NOSIG RMK A2992,0,3,0,10000,0,0,0,
2026-04-26 12:00:00,METAR RCMQ 261200Z 36005KT 9999 FEW012 21/16 Q1013 NOSIG RMK A2992,0,5,0,10000,0,0,0,
2026-04-26 11:30:00,METAR RCMQ 261130Z 02007KT 9999 FEW012 SCT200 21/16 Q1013 NOSIG RMK A2992,0,7,0,10000,0,0,0,
2026-04-26 11:00:00,METAR RCMQ 261100Z 36008KT 9999 FEW012 SCT200 21/17 Q1013 NOSIG RMK A2991,0,8,0,10000,0,0,0,
2026-04-26 10:30:00,METAR RCMQ 261030Z 35008KT 9999 FEW012 23/18 Q1012 NOSIG RMK A2991,0,8,0,10000,0,0,0,
2026-04-26 10:00:00,METAR RCMQ 261000Z 35007KT 9999 FEW012 25/18 Q1012 NOSIG RMK A2991,0,7,0,10000,0,0,0,
2026-04-26 09:30:00,METAR RCMQ 260930Z 36009KT 9999 FEW012 26/17 Q1012 NOSIG RMK A2989,0,9,0,10000,0,0,0,
2026-04-26 09:00:00,METAR RCMQ 260900Z 35012KT 9999 FEW012 26/16 Q1012 NOSIG RMK A2989,0,12,0,10000,0,0,0,
2026-04-26 08:30:00,METAR RCMQ 260830Z 34013KT 9999 FEW012 27/18 Q1012 NOSIG RMK A2988,0,13,0,10000,0,0,0,
2026-04-26 08:00:00,METAR RCMQ 260800Z 34012KT 9999 FEW012 27/18 Q1012 NOSIG RMK A2988,0,12,0,10000,0,0,0,
2026-04-26 07:30:00,METAR RCMQ 260730Z 33011KT 9999 FEW012 28/19 Q1012 NOSIG RMK A2989,0,11,0,10000,0,0,0,
2026-04-26 07:00:00,METAR RCMQ 260700Z 34011KT 9999 FEW012 28/19 Q1012 NOSIG RMK A2989,0,11,0,10000,0,0,0,
2026-04-26 06:30:00,METAR RCMQ 260630Z 34011KT 9999 FEW012 29/19 Q1012 NOSIG RMK A2990,0,11,0,10000,0,0,0,
2026-04-26 06:00:00,METAR RCMQ 260600Z 33009KT 9999 FEW012 29/19 Q1013 NOSIG RMK A2991,0,9,0,10000,0,0,0,
2026-04-26 05:30:00,METAR RCMQ 260530Z 35009KT 9999 FEW012 29/19 Q1013 NOSIG RMK A2992,0,9,0,10000,0,0,0,
2026-04-26 05:00:00,METAR RCMQ 260500Z 35009KT 9999 FEW012 29/19 Q1013 NOSIG RMK A2994,0,9,0,10000,0,0,0,
2026-04-26 04:30:00,METAR RCMQ 260430Z 36009KT 9999 FEW012 29/18 Q1014 NOSIG RMK A2995,0,9,0,10000,0,0,0,
2026-04-26 04:00:00,METAR RCMQ 260400Z 36009KT 9999 FEW012 28/19 Q1014 NOSIG RMK A2997,0,9,0,10000,0,0,0,
2026-04-26 03:30:00,METAR RCMQ 260330Z 36011KT 9999 FEW012 27/19 Q1015 NOSIG RMK A2998,0,11,0,10000,0,0,0,
2026-04-26 03:00:00,METAR RCMQ 260300Z 36012KT 9999 FEW012 27/19 Q1015 NOSIG RMK A2998,0,12,0,10000,0,0,0,
2026-04-26 02:30:00,METAR RCMQ 260230Z 34011KT 9999 FEW012 26/19 Q1015 NOSIG RMK A2999,0,11,0,10000,0,0,0,
2026-04-26 02:00:00,METAR RCMQ 260200Z 36009KT 9999 FEW012 26/19 Q1015 NOSIG RMK A2999,0,9,0,10000,0,0,0,
2026-04-26 01:30:00,METAR RCMQ 260130Z 35008KT 9999 FEW012 26/20 Q1016 NOSIG RMK A3000,0,8,0,10000,0,0,0,
2026-04-26 01:00:00,METAR RCMQ 260100Z 34007KT 9999 FEW012 25/21 Q1016 NOSIG RMK A3000,0,7,0,10000,0,0,0,
2026-04-26 00:30:00,METAR RCMQ 260030Z 36007KT 9999 FEW012 24/21 Q1015 NOSIG RMK A2999,0,7,0,10000,0,0,0,
2026-04-26 00:00:00,METAR RCMQ 260000Z 36005KT 9999 FEW012 23/20 Q1015 NOSIG RMK A2999,0,5,0,10000,0,0,0,
2026-04-25 23:30:00,METAR RCMQ 252330Z 01006KT 9999 FEW012 22/20 Q1015 NOSIG RMK A2998,0,6,0,10000,0,0,0,
2026-04-25 23:00:00,METAR RCMQ 252300Z 01007KT 9999 FEW012 21/20 Q1015 NOSIG RMK A2998,0,7,0,10000,0,0,0,
2026-04-25 22:30:00,METAR RCMQ 252230Z 36005KT 9999 FEW010 SCT040 20/19 Q1015 NOSIG RMK A2997,0,5,0,10000,0,0,0,
2026-04-25 22:00:00,METAR RCMQ 252200Z 36005KT 9999 FEW010 BKN040 20/19 Q1014 NOSIG RMK A2996,0,5,0,10000,0,0,0,
2026-04-25 21:30:00,METAR RCMQ 252130Z 01004KT 9999 FEW010 BKN040 20/19 Q1014 NOSIG RMK A2996,0,4,0,10000,0,0,0,
2026-04-25 21:00:00,METAR RCMQ 252100Z 36006KT 9999 FEW010 BKN040 20/19 Q1014 NOSIG RMK A2995,0,6,0,10000,0,0,0,
2026-04-25 20:30:00,METAR RCMQ 252030Z 36005KT 9999 FEW010 BKN040 20/19 Q1014 RMK A2995,0,5,0,10000,0,0,0,
2026-04-25 20:00:00,METAR RCMQ 252000Z 35004KT 9999 FEW010 BKN040 20/19 Q1014 RMK A2995,0,4,0,10000,0,0,0,
2026-04-25 19:00:00,METAR RCMQ 251900Z 01005KT 9999 FEW010 BKN040 20/19 Q1014 RMK A2995,0,5,0,10000,0,0,0,
2026-04-25 18:00:00,METAR RCMQ 251800Z 35004KT 9999 FEW010 BKN040 21/20 Q1014 RMK A2995,0,4,0,10000,0,0,0,
2026-04-25 17:00:00,METAR RCMQ 251700Z 36004KT 9999 FEW010 BKN040 20/19 Q1014 RMK A2996,0,4,0,10000,0,0,0,
2026-04-25 16:00:00,METAR RCMQ 251600Z 01005KT 9999 FEW010 BKN040 21/20 Q1015 RMK A2998,0,5,0,10000,0,0,0,
2026-04-25 15:00:00,METAR RCMQ 251500Z 02002KT 9999 FEW010 BKN040 BKN060 21/20 Q1015 RMK A2999,0,2,0,10000,0,0,0,
2026-04-25 14:00:00,METAR RCMQ 251400Z 36005KT 9999 FEW010 BKN040 BKN080 20/19 Q1016 RMK A3001,0,5,0,10000,0,0,0,
2026-04-25 13:30:00,METAR RCMQ 251330Z 36004KT 9999 FEW010 SCT040 BKN080 20/19 Q1016 RMK A3001,0,4,0,10000,0,0,0,
2026-04-25 13:00:00,METAR RCMQ 251300Z 03003KT 9999 FEW010 SCT040 BKN080 21/19 Q1016 NOSIG RMK A3001,0,3,0,10000,0,0,0,
2026-04-25 12:30:00,METAR RCMQ 251230Z 03004KT 9999 FEW010 SCT040 BKN080 21/19 Q1016 NOSIG RMK A3000,0,4,0,10000,0,0,0,
2026-04-25 12:00:00,METAR RCMQ 251200Z 01004KT 9999 FEW010 SCT040 BKN080 20/19 Q1016 NOSIG RMK A3000,0,4,0,10000,0,0,0,
2026-04-25 11:30:00,METAR RCMQ 251130Z 36007KT 9999 FEW008 BKN030 BKN060 21/19 Q1015 NOSIG RMK A3000,0,7,0,10000,0,0,0,
2026-04-25 11:00:00,METAR RCMQ 251100Z 35007KT 9999 FEW008 BKN030 BKN060 21/19 Q1015 NOSIG RMK A2999,0,7,0,10000,0,0,0,
2026-04-25 10:30:00,METAR RCMQ 251030Z 35004KT 9999 FEW008 BKN030 BKN060 22/19 Q1015 NOSIG RMK A2998,0,4,0,10000,0,0,0,
2026-04-25 10:00:00,METAR RCMQ 251000Z 00000KT 9999 FEW008 SCT030 BKN060 22/20 Q1015 NOSIG RMK A2998,0,0,0,10000,0,0,0,
2026-04-25 09:30:00,METAR RCMQ 250930Z 07003KT 9999 FEW008 SCT030 BKN060 23/20 Q1014 NOSIG RMK A2997,0,3,0,10000,0,0,0,
2026-04-25 09:00:00,METAR RCMQ 250900Z 04004KT 9999 FEW008 SCT030 BKN060 22/20 Q1014 NOSIG RMK A2996,0,4,0,10000,0,0,0,
2026-04-25 08:30:00,METAR RCMQ 250830Z 01007KT 9999 FEW008 SCT030 BKN060 22/20 Q1014 NOSIG RMK A2996,0,7,0,10000,0,0,0,
2026-04-25 08:00:00,METAR RCMQ 250800Z 01007KT 9999 FEW008 SCT030 BKN060 22/20 Q1014 NOSIG RMK A2996,0,7,0,10000,0,0,0,
2026-04-25 07:30:00,METAR RCMQ 250730Z 36007KT 9999 FEW008 SCT030 BKN060 23/20 Q1014 NOSIG RMK A2996,0,7,0,10000,0,0,0,
2026-04-25 07:00:00,METAR RCMQ 250700Z 36007KT 9999 FEW008 SCT030 BKN060 23/20 Q1014 NOSIG RMK A2997,0,7,0,10000,0,0,0,
2026-04-25 06:30:00,METAR RCMQ 250630Z 01007KT 9999 VCSH FEW008 SCT030 BKN060 22/20 Q1015 NOSIG RMK A2997 VCSH SE,0,7,0,10000,0,0,0,"SH,VC"
2026-04-25 06:00:00,METAR RCMQ 250600Z 36005KT 9999 VCSH FEW008 SCT030 BKN060 23/21 Q1015 NOSIG RMK A2998 RA AMT T VCSH SE,0,5,0,10000,0,0,0,"RA,SH,VC"
2026-04-25 05:50:00,SPECI RCMQ 250550Z 35006KT 9999 VCSH FEW008 SCT030 BKN060 22/21 Q1015 NOSIG RMK A2998 VCSH SE,0,6,0,10000,0,0,0,"SH,VC"
2026-04-25 05:30:00,METAR RCMQ 250530Z 01004KT 9999 -RA FEW008 SCT030 BKN060 23/21 Q1015 NOSIG RMK A2999,0,4,0,10000,0,0,0,-RA
2026-04-25 05:00:00,METAR RCMQ 250500Z 01005KT 9999 -RA FEW008 SCT030 BKN060 22/21 Q1015 NOSIG RMK A3000 RA AMT T,0,5,0,10000,0,0,0,"-RA,RA"
2026-04-25 04:35:00,SPECI RCMQ 250435Z 02006KT 9999 -RA FEW008 SCT030 BKN060 21/20 Q1016 NOSIG RMK A3001,0,6,0,10000,0,0,0,-RA
2026-04-25 04:30:00,METAR RCMQ 250430Z 36006KT 9999 VCSH FEW008 SCT030 BKN060 21/20 Q1016 NOSIG RMK A3001 VCSH SW,0,6,0,10000,0,0,0,"SH,VC"
2026-04-25 04:00:00,METAR RCMQ 250400Z 35008KT 9999 VCSH FEW008 SCT030 BKN060 21/20 Q1016 NOSIG RMK A3001 VCSH SE,0,8,0,10000,0,0,0,"SH,VC"
2026-04-25 03:30:00,METAR RCMQ 250330Z 35005KT 9999 VCSH FEW008 SCT030 BKN060 22/21 Q1016 NOSIG RMK A3002 VCSH SE,0,5,0,10000,0,0,0,"SH,VC"
2026-04-25 03:00:00,METAR RCMQ 250300Z 36004KT 9999 VCSH FEW008 SCT030 BKN060 22/21 Q1016 NOSIG RMK A3002 RA AMT T VCSH SE,0,4,0,10000,0,0,0,"RA,SH,VC"
2026-04-25 02:30:00,METAR RCMQ 250230Z 35004KT 9999 VCSH FEW008 SCT030 BKN060 22/20 Q1016 NOSIG RMK A3002 VCSH SE,0,4,0,10000,0,0,0,"SH,VC"
2026-04-25 02:15:00,SPECI RCMQ 250215Z 36004KT 9999 VCSH FEW008 SCT030 BKN060 22/21 Q1016 NOSIG RMK A3002 VCSH SE,0,4,0,10000,0,0,0,"SH,VC"
2026-04-25 02:00:00,METAR RCMQ 250200Z 01004KT 9999 -RA FEW008 SCT030 BKN060 22/21 Q1016 NOSIG RMK A3002 RA AMT T,0,4,0,10000,0,0,0,"-RA,RA"
2026-04-25 01:30:00,METAR RCMQ 250130Z 36005KT 9999 -RA FEW008 SCT030 BKN060 20/20 Q1016 NOSIG RMK A3002,0,5,0,10000,0,0,0,-RA
2026-04-25 01:00:00,METAR RCMQ 250100Z 36006KT 9999 -RA FEW008 SCT030 BKN060 20/20 Q1016 NOSIG RMK A3002 RA AMT T,0,6,0,10000,0,0,0,"-RA,RA"
2026-04-25 00:35:00,SPECI RCMQ 250035Z 35004KT 9999 -RA FEW008 SCT030 BKN060 20/19 Q1016 NOSIG RMK A3001,0,4,0,10000,0,0,0,-RA
2026-04-25 00:30:00,METAR RCMQ 250030Z 03004KT 9999 VCSH FEW010 BKN060 20/19 Q1016 NOSIG RMK A3001 VCSH SW,0,4,0,10000,0,0,0,"SH,VC"
2026-04-25 00:00:00,METAR RCMQ 250000Z 02006KT 9999 FEW010 BKN080 20/19 Q1016 NOSIG RMK A3001,0,6,0,10000,0,0,0,
2026-04-24 23:30:00,METAR RCMQ 242330Z 01004KT 9999 FEW010 SCT040 BKN080 19/19 Q1016 NOSIG RMK A3000,0,4,0,10000,0,0,0,
2026-04-24 23:00:00,METAR RCMQ 242300Z 36005KT 9999 FEW010 SCT040 BKN080 19/19 Q1015 NOSIG RMK A2998 RA AMT T,0,5,0,10000,0,0,0,RA
2026-04-24 22:34:00,SPECI RCMQ 242234Z 03005KT 8000 VCSH FEW010 SCT030 BKN060 19/19 Q1015 NOSIG RMK A2998 VCSH SE,0,5,0,8000,0,0,0,"SH,VC"
2026-04-24 22:30:00,METAR RCMQ 242230Z 03004KT 8000 -RA FEW010 SCT030 BKN060 19/18 Q1015 NOSIG RMK A2998,0,4,0,8000,0,0,0,-RA
2026-04-24 22:00:00,METAR RCMQ 242200Z 03005KT 7000 -RA FEW008 SCT020 BKN050 18/18 Q1015 NOSIG RMK A2997 RA AMT T,0,5,0,7000,0,0,0,"-RA,RA"
2026-04-24 21:30:00,METAR RCMQ 242130Z 36006KT 6000 -RA FEW008 SCT020 BKN050 18/18 Q1015 NOSIG RMK A2998,0,6,0,6000,0,0,0,-RA
2026-04-24 21:00:00,METAR RCMQ 242100Z 01007KT 5000 -RA BR FEW008 SCT020 BKN050 18/18 Q1014 NOSIG RMK A2997 RA AMT T,0,7,0,5000,0,0,1,"-RA,BR,RA"
2026-04-24 20:54:00,SPECI RCMQ 242054Z 01007KT 5000 -RA BR FEW008 SCT020 BKN050 18/18 Q1014 RMK A2997,0,7,0,5000,0,0,1,"-RA,BR"
2026-04-24 20:30:00,METAR RCMQ 242030Z 01006KT 3600 -RA BR FEW008 SCT020 BKN050 18/18 Q1014 RMK A2996,0,6,0,3600,0,0,1,"-RA,BR"
2026-04-24 20:00:00,METAR RCMQ 242000Z 02007KT 3200 -RA BR FEW006 SCT016 BKN040 18/18 Q1014 RMK A2996 RA AMT 0.5MM,0,7,0,3200,0,0,1,"-RA,BR,RA"
2026-04-24 19:04:00,SPECI RCMQ 241904Z 36008KT 3200 -RA BR FEW006 SCT016 BKN040 19/18 Q1014 RMK A2996,0,8,0,3200,0,0,1,"-RA,BR"
2026-04-24 19:00:00,METAR RCMQ 241900Z 36007KT 2400 -RA BR FEW004 BKN010 BKN030 18/18 Q1014 RMK A2996 RA AMT T,0,7,0,2400,0,0,1,"-RA,BR,RA"
2026-04-24 18:00:00,METAR RCMQ 241800Z 33005KT 2400 -RA BR FEW004 BKN010 BKN030 19/19 Q1014 RMK A2997 RA AMT T,0,5,0,2400,0,0,1,"-RA,BR,RA"
2026-04-24 17:00:00,METAR RCMQ 241700Z 04001KT 2400 -RA BR FEW004 BKN010 BKN030 19/19 Q1015 RMK A2998 RA AMT T,0,1,0,2400,0,0,1,"-RA,BR,RA"
2026-04-24 16:00:00,METAR RCMQ 241600Z 35005KT 2400 -RA BR FEW004 BKN010 BKN030 19/18 Q1015 RMK A2999 RA AMT T,0,5,0,2400,0,0,1,"-RA,BR,RA"
2026-04-24 15:00:00,METAR RCMQ 241500Z 01004KT 2400 -RA BR FEW004 BKN010 BKN030 19/19 Q1016 RMK A3001 RA AMT 0.5MM,0,4,0,2400,0,0,1,"-RA,BR,RA"
2026-04-24 14:35:00,SPECI RCMQ 241435Z 35005KT 2400 -RA BR FEW004 BKN010 BKN030 19/19 Q1016 NOSIG RMK A3002,0,5,0,2400,0,0,1,"-RA,BR"
2026-04-24 14:30:00,METAR RCMQ 241430Z 36006KT 3200 -RA BR FEW004 BKN010 BKN030 19/19 Q1016 BECMG 2400 -RA BR RMK A3002,0,6,0,3200,0,0,1,"-RA,BR"
2026-04-24 14:00:00,METAR RCMQ 241400Z 36006KT 3200 -RA BR FEW004 BKN010 BKN030 19/19 Q1017 NOSIG RMK A3003 RA AMT 0.5MM,0,6,0,3200,0,0,1,"-RA,BR,RA"
2026-04-24 13:30:00,METAR RCMQ 241330Z 05004KT 3200 -RA BR FEW004 BKN010 BKN030 19/19 Q1017 NOSIG RMK A3003,0,4,0,3200,0,0,1,"-RA,BR"
2026-04-24 13:16:00,SPECI RCMQ 241316Z 05004KT 3200 -RA BR FEW004 BKN010 BKN030 19/19 Q1016 NOSIG RMK A3002,0,4,0,3200,0,0,1,"-RA,BR"
2026-04-24 13:00:00,METAR RCMQ 241300Z 04004KT 2400 -RA BR SCT003 BKN008 19/19 Q1016 NOSIG RMK A3002 RA AMT 0.5MM APCH CLD SCT003,0,4,0,2400,0,0,1,"-RA,BR,RA"
2026-04-24 12:30:00,METAR RCMQ 241230Z 02009KT 2400 -RA BR SCT003 BKN008 19/19 Q1016 NOSIG RMK A3001 APCH CLD SCT003,0,9,0,2400,0,0,1,"-RA,BR"
2026-04-24 12:04:00,SPECI RCMQ 241204Z 34012KT 2400 -RA BR SCT003 BKN008 19/18 Q1016 NOSIG RMK A3001 APCH CLD SCT003,0,12,0,2400,0,0,1,"-RA,BR"
2026-04-24 12:00:00,METAR RCMQ 241200Z 34011KT 3200 -RA BR SCT003 BKN010 BKN020 19/19 Q1016 BECMG 2400 BR RMK A3000 RA AMT 0.5MM APCH CLD SCT003,0,11,0,3200,0,0,1,"-RA,BR,RA"
2026-04-24 11:45:00,SPECI RCMQ 241145Z COR 32008KT 3200 -RA BR SCT003 BKN010 BKN020 19/19 Q1016 NOSIG RMK A3000,0,8,0,3200,0,0,1,"-RA,BR"
2026-04-24 11:30:00,METAR RCMQ 241130Z 01004KT 4000 -RA BR FEW004 BKN010 BKN020 20/20 Q1015 NOSIG RMK A2998,0,4,0,4000,0,0,1,"-RA,BR"
2026-04-24 11:00:00,METAR RCMQ 241100Z 36002KT 4000 -RA BR SCT004 BKN010 BKN020 20/19 Q1015 NOSIG RMK A2997 RA AMT T,0,2,0,4000,0,0,1,"-RA,BR,RA"
2026-04-24 10:50:00,SPECI RCMQ 241050Z 01003KT 4000 -RA BR SCT004 BKN010 BKN020 19/19 Q1014 NOSIG RMK A2996,0,3,0,4000,0,0,1,"-RA,BR"
2026-04-24 10:30:00,METAR RCMQ 241030Z 02004KT 2400 -RA BR BKN003 OVC016 19/19 Q1014 BECMG 3000 -RA BR RMK A2996,0,4,0,2400,0,0,1,"-RA,BR"
2026-04-24 10:00:00,METAR RCMQ 241000Z 01005KT 2400 -RA BR BKN003 OVC016 19/19 Q1014 BECMG 3000 -RA BR RMK A2994 RA AMT 1.5MM,0,5,0,2400,0,0,1,"-RA,BR,RA"
2026-04-24 09:50:00,SPECI RCMQ 240950Z 01007KT 2400 -RA BR BKN003 OVC016 19/19 Q1014 BECMG 3000 -RA BR RMK A2994,0,7,0,2400,0,0,1,"-RA,BR"
2026-04-24 09:30:00,METAR RCMQ 240930Z 36006KT 1200 R36/P2000 -RA BR BKN002 OVC016 20/20 Q1013 RERA BECMG TL1000 0800 FG BKN002 RMK A2994,0,6,0,1200,0,0,1,"-RA,BR,FG,RA"
2026-04-24 09:12:00,SPECI RCMQ 240912Z 36008KT 1200 R36/P2000 -RA BR BKN002 OVC016 19/19 Q1013 RERA BECMG TL1000 0800 FG BKN002 RMK A2992,0,8,0,1200,0,0,1,"-RA,BR,FG,RA"
2026-04-24 09:00:00,METAR RCMQ 240900Z 36006KT 1200 R36/P2000 RA BR BKN002 OVC016 20/20 Q1013 BECMG TL1000 0800 FG BKN002 RMK A2992 RA AMT 4.5MM,0,6,0,1200,0,0,1,"BR,FG,RA"
2026-04-24 08:30:00,METAR RCMQ 240830Z 36005KT 1200 R36/1400U RA BR BKN002 OVC016 20/20 Q1013 BECMG TL1000 0800 FG BKN002 RMK A2991,0,5,0,1200,0,0,1,"BR,FG,RA"
2026-04-24 08:00:00,METAR RCMQ 240800Z 03006KT 1200 R36/0800N RA BR BKN002 OVC016 20/20 Q1013 RERA BECMG TL1000 0800 FG BKN002 RMK A2991 RA AMT 12.0MM,0,6,0,1200,0,0,1,"BR,FG,RA"
2026-04-24 07:55:00,SPECI RCMQ 240755Z COR 03006KT 1200 R36/0800U RA BR BKN002 OVC016 20/19 Q1012 RERA BECMG TL1000 0800 FG BKN002 RMK A2991,0,6,0,1200,0,0,1,"BR,FG,RA"
2026-04-24 07:44:00,SPECI RCMQ 240744Z 02006KT 0800 R36/0300D +RA FG BKN002 OVC016 20/20 Q1013 BECMG TL1000 0800 FG BKN002 RMK A2991,0,6,0,1287200,0,1,1,"+RA,FG"
2026-04-24 07:34:00,SPECI RCMQ 240734Z COR 36005KT 0800 R36/0600D +RA FG BKN002 OVC016 20/19 Q1013 BECMG TL1000 0800 FG BKN002 RMK A2992,0,5,0,1287200,0,1,1,"+RA,FG"
2026-04-24 07:30:00,METAR RCMQ 240730Z 35005KT 1200 R36/1000N +RA BR BKN002 OVC016 20/20 Q1013 BECMG TL1000 0800 FG BKN002 RMK A2991,0,5,0,1200,0,1,1,"+RA,BR,FG"
2026-04-24 07:20:00,SPECI RCMQ 240720Z 36006KT 1200 R36/1000 +RA BR BKN002 OVC016 20/20 Q1013 BECMG TL1000 0800 FG BKN002 RMK A2992,0,6,0,1200,0,1,1,"+RA,BR,FG"
2026-04-24 07:00:00,METAR RCMQ 240700Z 02003KT 1600 RA BR BKN004 OVC020 20/20 Q1012 BECMG FM0720 TL1000 0800 FG BKN002 RMK A2991 RA AMT 2.0MM,0,3,0,1600,0,0,1,"BR,FG,RA"
2026-04-24 06:37:00,SPECI RCMQ 240637Z 36007KT 1600 R36/1200 RA BR BKN004 OVC020 20/20 Q1013 NOSIG RMK A2991,0,7,0,1600,0,0,1,"BR,RA"
2026-04-24 06:30:00,METAR RCMQ 240630Z COR 36007KT 3200 1600SW -RA BR SCT003 BKN010 BKN040 20/20 Q1013 BECMG 2400 BR RMK A2991 APCH CLD SCT003,0,7,0,3200,0,0,1,"-RA,BR"
2026-04-24 06:00:00,METAR RCMQ 240600Z 01007KT 3200 1600SW -RA BR SCT004 BKN010 BKN040 21/20 Q1013 NOSIG RMK A2992 RA AMT T APCH CLD SCT004,0,7,0,3200,0,0,1,"-RA,BR,RA"
2026-04-24 05:30:00,METAR RCMQ 240530Z 32004KT 3200 1600NW -RA BR SCT004 BKN010 BKN040 21/20 Q1013 NOSIG RMK A2994 APCH CLD SCT004,0,4,0,3200,0,0,1,"-RA,BR"
2026-04-24 05:05:00,SPECI RCMQ 240505Z 35005KT 3200 -RA BR SCT004 BKN010 BKN040 21/20 Q1014 NOSIG RMK A2994 APCH CLD SCT004,0,5,0,3200,0,0,1,"-RA,BR"
2026-04-24 05:00:00,METAR RCMQ 240500Z 01004KT 3200 -RA VCTS BR SCT004 FEW008CB BKN010 BKN040 21/21 Q1014 NOSIG RMK A2994 RA AMT 1.5MM TS SE MOV NE APCH CLD SCT004,0,4,0,3200,1,0,1,"-RA,BR,RA,TS,VC"
2026-04-24 04:30:00,METAR RCMQ 240430Z 05005KT 3200 -RA VCTS BR SCT004 FEW008CB BKN010 BKN040 20/20 Q1014 RERA NOSIG RMK A2994 TS SE MOV NE APCH CLD SCT004,0,5,0,3200,1,0,1,"-RA,BR,RA,TS,VC"
2026-04-24 04:20:00,SPECI RCMQ 240420Z 05004KT 3200 -RA VCTS BR SCT004 FEW008CB BKN010 BKN040 20/20 Q1014 RERA NOSIG RMK A2994 TS SE MOV NE APCH CLD SCT004,0,4,0,3200,1,0,1,"-RA,BR,RA,TS,VC"
2026-04-24 04:00:00,METAR RCMQ 240400Z 03008KT 2400 RA VCTS BR SCT004 FEW008CB BKN010 BKN040 20/20 Q1014 BECMG 3000 BR RMK A2994 RA AMT 6.0MM TS SE MOV NE APCH CLD SCT004,0,8,0,2400,1,0,1,"BR,RA,TS,VC"
2026-04-24 03:40:00,SPECI RCMQ 240340Z 01009KT 2400 RA VCTS BR SCT004 FEW008CB BKN010 BKN040 20/20 Q1014 BECMG 3000 BR RMK A2996 TS SW MOV N APCH CLD SCT004,0,9,0,2400,1,0,1,"BR,RA,TS,VC"
2026-04-24 03:30:00,METAR RCMQ 240330Z 02009KT 1600 TSRA SCT004 FEW008CB BKN010 BKN040 20/20 Q1014 TL0340 TSRA RMK A2994 TS SW MOV N APCH CLD SCT004,0,9,0,1600,1,0,0,"RA,TS"
2026-04-24 03:03:00,SPECI RCMQ 240303Z COR 36008KT 1600 TSRA SCT004 FEW008CB BKN010 BKN040 20/20 Q1014 TL0340 TSRA RMK A2994 TS NE STNRY APCH CLD SCT004,0,8,0,1600,1,0,0,"RA,TS"
2026-04-24 03:00:00,METAR RCMQ 240300Z 35008KT 2400 TSRA SCT004 FEW008CB BKN010 BKN040 20/20 Q1014 TL0340 TSRA RMK A2996 RA AMT 2.0MM TS OVHD MOV NE APCH CLD SCT004,0,8,0,2400,1,0,0,"RA,TS"
2026-04-24 02:51:00,SPECI RCMQ 240251Z 36009KT 2400 TSRA SCT004 FEW008CB BKN010 BKN040 20/20 Q1014 TL0340 TSRA RMK A2995 TS OVHD STNRY APCH CLD SCT004,0,9,0,2400,1,0,0,"RA,TS"
2026-04-24 02:44:00,SPECI RCMQ 240244Z 36008KT 4000 -TSRA SCT004 FEW008CB BKN010 BKN040 21/20 Q1014 TL0340 TSRA RMK A2994 TS OVHD STNRY APCH CLD SCT004,0,8,0,4000,1,0,0,"RA,TS"
2026-04-24 02:30:00,METAR RCMQ 240230Z COR 01009KT 5000 -TSRA SCT004 FEW008CB BKN010 BKN040 21/20 Q1014 TL0340 TSRA RMK A2994 TS SW MOV NE APCH CLD SCT004,0,9,0,5000,1,0,0,"RA,TS"
2026-04-24 02:18:00,SPECI RCMQ 240218Z COR 01009KT 7000 -RA VCTS SCT004 FEW010CB BKN016 BKN060 21/21 Q1013 FM0240 TL0340 5000 TSRA RMK A2994 TS SW STNRY APCH CLD SCT004,0,9,0,7000,1,0,0,"-RA,RA,TS,VC"
2026-04-24 02:00:00,METAR RCMQ 240200Z COR 01008KT 8000 -RA SCT004 FEW010TCU BKN016 BKN060 21/21 Q1013 FM02040 TL0340 5000 TSRA RMK A2993 RA AMT T APCH CLD SCT004 TCU SW,0,8,0,8000,1,0,0,"-RA,RA,TS"
2026-04-24 01:30:00,METAR RCMQ 240130Z 01007KT 8000 -RA SCT004 BKN016 BKN060 22/21 Q1013 NOSIG RMK A2994 APCH CLD SCT004,0,7,0,8000,0,0,0,-RA
2026-04-24 01:00:00,METAR RCMQ 240100Z 36005KT 8000 -RA SCT004 BKN016 BKN060 21/21 Q1014 NOSIG RMK A2994 RA AMT T APCH CLD SCT004,0,5,0,8000,0,0,0,"-RA,RA"
2026-04-24 00:30:00,METAR RCMQ 240030Z 02005KT 7000 -RA SCT004 BKN016 BKN060 21/20 Q1014 NOSIG RMK A2994 APCH CLD SCT004,0,5,0,7000,0,0,0,-RA
2026-04-24 00:00:00,METAR RCMQ 240000Z 01006KT 6000 -RA SCT004 BKN016 BKN060 21/20 Q1013 NOSIG RMK A2993 RA AMT T APCH CLD SCT004,0,6,0,6000,0,0,0,"-RA,RA"
2026-04-23 23:30:00,METAR RCMQ 232330Z 02007KT 5000 -RA BR SCT002 BKN016 BKN040 20/20 Q1013 NOSIG RMK A2992 APCH CLD SCT002,0,7,0,5000,0,0,1,"-RA,BR"
2026-04-23 23:00:00,METAR RCMQ 232300Z 01007KT 5000 -RA BR SCT002 BKN016 BKN040 20/20 Q1013 NOSIG RMK A2992 RA AMT T APCH CLD SCT002,0,7,0,5000,0,0,1,"-RA,BR,RA"
2026-04-23 22:34:00,SPECI RCMQ 232234Z 36007KT 5000 -RA BR SCT004 BKN016 BKN040 20/20 Q1012 BECMG 36008KT 3200 -RA BR RMK A2991 APCH CLD SCT004,0,7,0,5000,0,0,1,"-RA,BR"
2026-04-23 22:30:00,METAR RCMQ 232230Z 36007KT 5000 -RA BR SCT004 BKN016 BKN040 20/20 Q1012 BECMG 3200 -RA BR RMK A2991 APCH CLD SCT004,0,7,0,5000,0,0,1,"-RA,BR"
2026-04-23 22:00:00,METAR RCMQ 232200Z 33004KT 5000 -RA BR FEW006 SCT016 BKN050 21/21 Q1012 NOSIG RMK A2989 RA AMT T,0,4,0,5000,0,0,1,"-RA,BR,RA"
2026-04-23 21:30:00,METAR RCMQ 232130Z 33004KT 5000 -RA BR FEW006 BKN016 BKN050 21/21 Q1011 NOSIG RMK A2988,0,4,0,5000,0,0,1,"-RA,BR"
2026-04-23 21:00:00,METAR RCMQ 232100Z 01002KT 5000 -RA BR FEW006 BKN016 BKN050 21/20 Q1011 NOSIG RMK A2986 RA AMT 0.5MM,0,2,0,5000,0,0,1,"-RA,BR,RA"
2026-04-23 20:42:00,SPECI RCMQ 232042Z 04004KT 5000 -RA BR FEW006 BKN016 BKN050 21/20 Q1011 RMK A2985,0,4,0,5000,0,0,1,"-RA,BR"
2026-04-23 20:30:00,METAR RCMQ 232030Z 01005KT 4000 -RA BR FEW006 BKN016 BKN050 21/20 Q1011 RMK A2986,0,5,0,4000,0,0,1,"-RA,BR"
2026-04-23 20:25:00,SPECI RCMQ 232025Z 01006KT 4000 -RA BR FEW006 BKN016 BKN050 20/20 Q1011 RMK A2986,0,6,0,4000,0,0,1,"-RA,BR"
2026-04-23 20:00:00,METAR RCMQ 232000Z 36006KT 3200 -RA BR SCT006 BKN014 BKN040 21/20 Q1011 RMK A2986 RA AMT T,0,6,0,3200,0,0,1,"-RA,BR,RA"
2026-04-23 19:00:00,METAR RCMQ 231900Z 32007KT 3200 -RA BR SCT006 BKN014 BKN040 22/22 Q1011 RMK A2985 RA AMT T,0,7,0,3200,0,0,1,"-RA,BR,RA"
2026-04-23 18:00:00,METAR RCMQ 231800Z 30003KT 3200 -RA BR SCT006 BKN014 BKN040 22/22 Q1011 RMK A2986 RA AMT T,0,3,0,3200,0,0,1,"-RA,BR,RA"
2026-04-23 17:00:00,METAR RCMQ 231700Z 00000KT 3200 -RA BR SCT006 BKN014 BKN040 22/22 Q1011 RMK A2987,0,0,0,3200,0,0,1,"-RA,BR"
2026-04-23 16:00:00,METAR RCMQ 231600Z 31002KT 3200 -RA BR SCT006 BKN014 BKN040 23/22 Q1012 RERA RMK A2988 RA AMT 5.5MM,0,2,0,3200,0,0,1,"-RA,BR,RA"
2026-04-23 15:55:00,SPECI RCMQ 231555Z 31002KT 3200 -RA BR SCT006 BKN014 BKN040 23/22 Q1012 RERA RMK A2988,0,2,0,3200,0,0,1,"-RA,BR,RA"
2026-04-23 15:27:00,SPECI RCMQ 231527Z 33005KT 2400 RA BR SCT006 BKN014 BKN040 23/22 Q1012 RMK A2989,0,5,0,2400,0,0,1,"BR,RA"
2026-04-23 15:22:00,SPECI RCMQ 231522Z 34006KT 5000 -RA BR FEW006 BKN020 BKN040 23/22 Q1012 RMK A2988,0,6,0,5000,0,0,1,"-RA,BR"
2026-04-23 15:00:00,METAR RCMQ 231500Z 21006KT 7000 -RA FEW010 SCT020 BKN050 24/22 Q1012 RMK A2989 RA AMT T,0,6,0,7000,0,0,0,"-RA,RA"
2026-04-23 14:00:00,METAR RCMQ 231400Z 17012KT 9999 -RA FEW010 SCT025 BKN060 26/22 Q1011 RMK A2986 RA AMT T,0,12,0,10000,0,0,0,"-RA,RA"
2026-04-23 13:30:00,METAR RCMQ 231330Z 16008KT 9999 -RA FEW010 SCT025 BKN060 26/22 Q1011 RMK A2987,0,8,0,10000,0,0,0,-RA
2026-04-23 13:20:00,SPECI RCMQ 231320Z 17008KT 9999 -RA FEW010 SCT025 BKN060 26/22 Q1011 NOSIG RMK A2987,0,8,0,10000,0,0,0,-RA
2026-04-23 13:00:00,METAR RCMQ 231300Z 17007KT 9999 FEW010 SCT025 BKN060 26/22 Q1011 NOSIG RMK A2987,0,7,0,10000,0,0,0,
2026-04-23 12:30:00,METAR RCMQ 231230Z 18008KT 9999 FEW010 SCT025 BKN060 25/22 Q1011 NOSIG RMK A2987,0,8,0,10000,0,0,0,
2026-04-23 12:00:00,METAR RCMQ 231200Z 17007KT 9999 FEW010 SCT025 BKN060 26/22 Q1011 NOSIG RMK A2986,0,7,0,10000,0,0,0,
2026-04-23 11:30:00,METAR RCMQ 231130Z 20011KT 9999 FEW010 SCT025 BKN060 26/22 Q1011 NOSIG RMK A2986,0,11,0,10000,0,0,0,
2026-04-23 11:00:00,METAR RCMQ 231100Z 19011KT 9999 FEW010 SCT025 BKN060 26/22 Q1010 NOSIG RMK A2983,0,11,0,10000,0,0,0,
2026-04-23 10:30:00,METAR RCMQ 231030Z 20012KT 9999 FEW010 SCT025 BKN060 26/21 Q1009 NOSIG RMK A2982,0,12,0,10000,0,0,0,
2026-04-23 10:00:00,METAR RCMQ 231000Z 21013KT 9999 FEW010 SCT030 BKN060 27/22 Q1009 NOSIG RMK A2980,0,13,0,10000,0,0,0,
2026-04-23 09:30:00,METAR RCMQ 230930Z 22011KT 9999 FEW010 SCT030 BKN060 27/22 Q1009 NOSIG RMK A2980,0,11,0,10000,0,0,0,
2026-04-23 09:00:00,METAR RCMQ 230900Z 23012KT 9999 VCSH FEW010 SCT030 BKN060 27/22 Q1009 NOSIG RMK A2979 VCSH E,0,12,0,10000,0,0,0,"SH,VC"
2026-04-23 08:30:00,METAR RCMQ 230830Z 23013KT 9999 VCSH FEW010 SCT030 BKN060 27/22 Q1008 NOSIG RMK A2979 VCSH S,0,13,0,10000,0,0,0,"SH,VC"
2026-04-23 08:00:00,METAR RCMQ 230800Z 24013KT 9999 FEW010 SCT030 BKN060 28/22 Q1008 NOSIG RMK A2978,0,13,0,10000,0,0,0,
2026-04-23 07:30:00,METAR RCMQ 230730Z 22012KT 9999 FEW010 SCT030 BKN060 29/22 Q1008 NOSIG RMK A2977,0,12,0,10000,0,0,0,
2026-04-23 07:00:00,METAR RCMQ 230700Z 22014KT 9999 FEW010 SCT030 BKN060 29/22 Q1008 NOSIG RMK A2977,0,14,0,10000,0,0,0,
2026-04-23 06:30:00,METAR RCMQ 230630Z 20012KT 9999 FEW010 BKN050 29/21 Q1008 NOSIG RMK A2979,0,12,0,10000,0,0,0,
2026-04-23 06:00:00,METAR RCMQ 230600Z 21012KT 9999 FEW010 BKN050 30/21 Q1008 NOSIG RMK A2978,0,12,0,10000,0,0,0,
2026-04-23 05:30:00,METAR RCMQ 230530Z 21013KT 9999 FEW010 BKN050 30/21 Q1008 NOSIG RMK A2979,0,13,0,10000,0,0,0,
2026-04-23 05:00:00,METAR RCMQ 230500Z 22012KT 9999 FEW010 BKN050 29/22 Q1009 NOSIG RMK A2980 RA AMT T,0,12,0,10000,0,0,0,RA
2026-04-23 04:35:00,SPECI RCMQ 230435Z 21011KT 9999 VCSH FEW010 SCT025 BKN060 29/22 Q1009 NOSIG RMK A2980 VCSH SW,0,11,0,10000,0,0,0,"SH,VC"
2026-04-23 04:30:00,METAR RCMQ 230430Z 21011KT 9999 -RA FEW010 SCT025 BKN060 29/22 Q1009 NOSIG RMK A2980,0,11,0,10000,0,0,0,-RA
2026-04-23 04:00:00,METAR RCMQ 230400Z 21012KT 9999 -RA FEW010 SCT025 BKN060 28/22 Q1009 NOSIG RMK A2981 RA AMT T,0,12,0,10000,0,0,0,"-RA,RA"
2026-04-23 03:35:00,SPECI RCMQ 230335Z 22013KT 9999 -RA FEW010 SCT025 BKN060 28/21 Q1009 NOSIG RMK A2982,0,13,0,10000,0,0,0,-RA
2026-04-23 03:30:00,METAR RCMQ 230330Z 22013KT 9999 VCSH FEW010 SCT025 BKN060 28/21 Q1009 NOSIG RMK A2982 VCSH SW,0,13,0,10000,0,0,0,"SH,VC"
2026-04-23 03:00:00,METAR RCMQ 230300Z 21012KT 9999 FEW010 SCT025 BKN060 29/22 Q1009 NOSIG RMK A2982,0,12,0,10000,0,0,0,
2026-04-23 02:30:00,METAR RCMQ 230230Z 20011KT 9999 FEW010 SCT025 BKN060 29/22 Q1009 NOSIG RMK A2982,0,11,0,10000,0,0,0,
2026-04-23 02:00:00,METAR RCMQ 230200Z 21012KT 9999 FEW010 BKN060 29/22 Q1009 NOSIG RMK A2982,0,12,0,10000,0,0,0,
2026-04-23 01:30:00,METAR RCMQ 230130Z 20013KT 9999 FEW010 BKN060 29/23 Q1010 NOSIG RMK A2982,0,13,0,10000,0,0,0,
2026-04-23 01:00:00,METAR RCMQ 230100Z 20013KT 9999 FEW010 BKN060 27/22 Q1009 NOSIG RMK A2980,0,13,0,10000,0,0,0,
2026-04-23 00:30:00,METAR RCMQ 230030Z 19013KT 9999 FEW010 BKN060 28/22 Q1010 NOSIG RMK A2980,0,13,0,10000,0,0,0,
2026-04-23 00:00:00,METAR RCMQ 230000Z 19013KT 9999 FEW010 SCT050 27/22 Q1009 NOSIG RMK A2980,0,13,0,10000,0,0,0,
2026-04-22 23:30:00,METAR RCMQ 222330Z 20013KT 9999 FEW010 BKN050 27/23 Q1009 NOSIG RMK A2981,0,13,0,10000,0,0,0,
2026-04-22 23:00:00,METAR RCMQ 222300Z 20013KT 9999 FEW010 BKN050 27/23 Q1009 NOSIG RMK A2980,0,13,0,10000,0,0,0,
2026-04-22 22:30:00,METAR RCMQ 222230Z 18011KT 9999 VCSH FEW010 SCT016 BKN050 26/23 Q1009 NOSIG RMK A2980 VCSH SW,0,11,0,10000,0,0,0,"SH,VC"
2026-04-22 22:00:00,METAR RCMQ 222200Z 18011KT 9999 FEW010 SCT016 BKN050 26/23 Q1009 NOSIG RMK A2979,0,11,0,10000,0,0,0,
2026-04-22 21:30:00,METAR RCMQ 222130Z 18009KT 9999 FEW010 BKN016 26/22 Q1009 NOSIG RMK A2980,0,9,0,10000,0,0,0,
2026-04-22 21:00:00,METAR RCMQ 222100Z 20011KT 9999 FEW010 BKN016 26/22 Q1009 NOSIG RMK A2980,0,11,0,10000,0,0,0,
2026-04-22 20:30:00,METAR RCMQ 222030Z 20011KT 9999 FEW010 BKN016 26/24 Q1009 RMK A2980,0,11,0,10000,0,0,0,
2026-04-22 20:00:00,METAR RCMQ 222000Z 20010KT 9999 FEW010 BKN016 26/24 Q1009 RMK A2980,0,10,0,10000,0,0,0,
2026-04-22 19:00:00,METAR RCMQ 221900Z 19011KT 9999 FEW010 BKN016 26/24 Q1008 RMK A2979,0,11,0,10000,0,0,0,
2026-04-22 18:00:00,METAR RCMQ 221800Z 19011KT 9999 FEW012 BKN020 26/23 Q1008 RMK A2979,0,11,0,10000,0,0,0,
2026-04-22 17:00:00,METAR RCMQ 221700Z 20011KT 9999 FEW012 SCT020 27/24 Q1009 RMK A2981,0,11,0,10000,0,0,0,
2026-04-22 16:00:00,METAR RCMQ 221600Z 20011KT 9999 FEW012 SCT100 27/23 Q1009 RMK A2982,0,11,0,10000,0,0,0,
2026-04-22 15:00:00,METAR RCMQ 221500Z 20013KT 9999 FEW012 SCT100 27/23 Q1010 RMK A2982,0,13,0,10000,0,0,0,
2026-04-22 14:00:00,METAR RCMQ 221400Z 19011KT 9999 FEW012 SCT100 27/23 Q1010 RMK A2982,0,11,0,10000,0,0,0,
2026-04-22 13:30:00,METAR RCMQ 221330Z 19011KT 9999 FEW012 SCT100 27/23 Q1009 RMK A2981,0,11,0,10000,0,0,0,
2026-04-22 13:00:00,METAR RCMQ 221300Z 19011KT 9999 FEW012 SCT100 27/23 Q1009 RMK A2981,0,11,0,10000,0,0,0,
2026-04-22 12:30:00,METAR RCMQ 221230Z 18010KT 9999 FEW012 SCT100 27/22 Q1009 NOSIG RMK A2981,0,10,0,10000,0,0,0,
2026-04-22 12:00:00,METAR RCMQ 221200Z 20010KT 9999 FEW012 SCT100 27/22 Q1009 NOSIG RMK A2980,0,10,0,10000,0,0,0,
2026-04-22 11:30:00,METAR RCMQ 221130Z 21009KT 9999 FEW012 SCT100 27/23 Q1009 NOSIG RMK A2980,0,9,0,10000,0,0,0,
2026-04-22 11:00:00,METAR RCMQ 221100Z 21010KT 9999 FEW012 SCT100 27/22 Q1009 NOSIG RMK A2980,0,10,0,10000,0,0,0,
2026-04-22 10:30:00,METAR RCMQ 221030Z 24010KT 9999 FEW012 BKN100 28/23 Q1008 NOSIG RMK A2979,0,10,0,10000,0,0,0,
2026-04-22 10:00:00,METAR RCMQ 221000Z 23010KT 9999 FEW012 BKN100 29/23 Q1008 NOSIG RMK A2978,0,10,0,10000,0,0,0,
2026-04-22 09:30:00,METAR RCMQ 220930Z 22008KT 9999 FEW012 BKN100 29/23 Q1008 NOSIG RMK A2978,0,8,0,10000,0,0,0,
2026-04-22 09:00:00,METAR RCMQ 220900Z 23010KT 9999 FEW012 BKN100 30/21 Q1008 NOSIG RMK A2978,0,10,0,10000,0,0,0,
2026-04-22 08:30:00,METAR RCMQ 220830Z 22014KT 9999 FEW012 BKN100 30/21 Q1008 NOSIG RMK A2977,0,14,0,10000,0,0,0,
2026-04-22 08:00:00,METAR RCMQ 220800Z 24014KT 9999 FEW012 BKN100 32/23 Q1008 NOSIG RMK A2977,0,14,0,10000,0,0,0,
2026-04-22 07:30:00,METAR RCMQ 220730Z 24014KT 9999 FEW012 BKN060 32/22 Q1008 NOSIG RMK A2977,0,14,0,10000,0,0,0,
2026-04-22 07:00:00,METAR RCMQ 220700Z 24021KT 9999 FEW012 SCT030 BKN060 32/21 Q1008 NOSIG RMK A2977,0,21,0,10000,0,0,0,
2026-04-22 06:30:00,METAR RCMQ 220630Z 24016KT 9999 FEW012 SCT030 BKN060 32/22 Q1008 NOSIG RMK A2977,0,16,0,10000,0,0,0,
2026-04-22 06:00:00,METAR RCMQ 220600Z 24016KT 9999 FEW012 SCT030 BKN060 32/21 Q1008 NOSIG RMK A2978,0,16,0,10000,0,0,0,
2026-04-22 05:30:00,METAR RCMQ 220530Z 23014KT 9999 FEW012 SCT040 BKN100 33/23 Q1009 NOSIG RMK A2979,0,14,0,10000,0,0,0,
2026-04-22 05:00:00,METAR RCMQ 220500Z 24013KT 9999 FEW012 SCT040 BKN100 32/23 Q1009 NOSIG RMK A2981,0,13,0,10000,0,0,0,
2026-04-22 04:30:00,METAR RCMQ 220430Z 22016KT 9999 FEW012 SCT040 BKN100 33/21 Q1009 NOSIG RMK A2982,0,16,0,10000,0,0,0,
2026-04-22 04:00:00,METAR RCMQ 220400Z 21012KT 9999 FEW012 SCT040 BKN100 31/21 Q1010 NOSIG RMK A2983,0,12,0,10000,0,0,0,
2026-04-22 03:30:00,METAR RCMQ 220330Z 20013KT 9999 FEW012 SCT040 BKN100 32/21 Q1010 NOSIG RMK A2984,0,13,0,10000,0,0,0,
2026-04-22 03:00:00,METAR RCMQ 220300Z 20012KT 9999 FEW012 BKN100 32/22 Q1010 NOSIG RMK A2984,0,12,0,10000,0,0,0,
2026-04-22 02:30:00,METAR RCMQ 220230Z 18009KT 9999 FEW012 BKN100 30/22 Q1011 NOSIG RMK A2986,0,9,0,10000,0,0,0,
2026-04-22 02:00:00,METAR RCMQ 220200Z 17009KT 9999 FEW012 BKN100 30/23 Q1011 NOSIG RMK A2986,0,9,0,10000,0,0,0,
2026-04-22 01:30:00,METAR RCMQ 220130Z 18009KT 9999 FEW012 BKN100 28/22 Q1011 NOSIG RMK A2987,0,9,0,10000,0,0,0,
2026-04-22 01:00:00,METAR RCMQ 220100Z 17006KT 9999 FEW012 BKN100 27/22 Q1011 NOSIG RMK A2987,0,6,0,10000,0,0,0,
2026-04-22 00:30:00,METAR RCMQ 220030Z 17008KT 9999 FEW012 BKN100 27/22 Q1011 NOSIG RMK A2987,0,8,0,10000,0,0,0,
2026-04-22 00:00:00,METAR RCMQ 220000Z 16005KT 8000 FEW012 BKN100 26/22 Q1011 NOSIG RMK A2987,0,5,0,8000,0,0,0,
2026-04-21 23:30:00,METAR RCMQ 212330Z 18005KT 7000 FEW012 SCT100 25/22 Q1011 NOSIG RMK A2987,0,5,0,7000,0,0,0,
2026-04-21 23:00:00,METAR RCMQ 212300Z 21005KT 7000 FEW012 SCT100 24/22 Q1011 NOSIG RMK A2987,0,5,0,7000,0,0,0,
2026-04-21 22:56:00,SPECI RCMQ 212256Z 21005KT 7000 FEW012 SCT100 24/22 Q1011 BECMG 21006KT RMK A2987,0,5,0,7000,0,0,0,
2026-04-21 22:30:00,METAR RCMQ 212230Z 19004KT 7000 FEW012 SCT100 24/22 Q1011 NOSIG RMK A2985,0,4,0,7000,0,0,0,
2026-04-21 22:00:00,METAR RCMQ 212200Z 16004KT 6000 FEW012 SCT100 22/21 Q1011 NOSIG RMK A2985,0,4,0,6000,0,0,0,
2026-04-21 21:51:00,SPECI RCMQ 212151Z 17004KT 6000 FEW012 SCT100 23/21 Q1011 NOSIG RMK A2985,0,4,0,6000,0,0,0,
2026-04-21 21:30:00,METAR RCMQ 212130Z 17005KT 4000 BR FEW012 SCT100 22/21 Q1010 NOSIG RMK A2985,0,5,0,4000,0,0,1,BR
2026-04-21 21:00:00,METAR RCMQ 212100Z 20003KT 4000 BR FEW012 SCT100 23/22 Q1010 NOSIG RMK A2984,0,3,0,4000,0,0,1,BR
2026-04-21 20:30:00,METAR RCMQ 212030Z 21003KT 4000 BR FEW012 BKN100 23/22 Q1010 RMK A2984,0,3,0,4000,0,0,1,BR
2026-04-21 20:00:00,METAR RCMQ 212000Z 00000KT 4000 BR FEW012 BKN100 23/22 Q1010 RMK A2984,0,0,0,4000,0,0,1,BR
2026-04-21 19:03:00,SPECI RCMQ 211903Z 00000KT 4000 BR FEW012 BKN100 23/22 Q1010 RMK A2984,0,0,0,4000,0,0,1,BR
2026-04-21 19:00:00,METAR RCMQ 211900Z 00000KT 6000 FEW012 BKN100 23/22 Q1010 RMK A2984,0,0,0,6000,0,0,0,
2026-04-21 18:00:00,METAR RCMQ 211800Z 29001KT 8000 FEW012 BKN100 23/22 Q1011 RMK A2987,0,1,0,8000,0,0,0,
2026-04-21 17:00:00,METAR RCMQ 211700Z 30001KT 9999 FEW012 BKN100 24/22 Q1012 RMK A2989,0,1,0,10000,0,0,0,
2026-04-21 16:00:00,METAR RCMQ 211600Z 30004KT 9999 FEW012 BKN100 24/21 Q1012 RMK A2991,0,4,0,10000,0,0,0,
2026-04-21 15:00:00,METAR RCMQ 211500Z 00000KT 9999 FEW012 BKN100 24/21 Q1013 RMK A2993,0,0,0,10000,0,0,0,
2026-04-21 14:00:00,METAR RCMQ 211400Z 31004KT 9999 FEW012 SCT050 24/21 Q1014 RMK A2994,0,4,0,10000,0,0,0,
2026-04-21 13:30:00,METAR RCMQ 211330Z 30004KT 9999 FEW012 SCT050 25/20 Q1013 RMK A2993,0,4,0,10000,0,0,0,
2026-04-21 13:00:00,METAR RCMQ 211300Z 00000KT 9999 FEW012 BKN050 26/19 Q1013 RMK A2992,0,0,0,10000,0,0,0,
2026-04-21 12:30:00,METAR RCMQ 211230Z 00000KT 9999 FEW012 BKN050 26/19 Q1013 NOSIG RMK A2991,0,0,0,10000,0,0,0,
2026-04-21 12:00:00,METAR RCMQ 211200Z 26004KT 9999 FEW012 BKN050 25/20 Q1012 NOSIG RMK A2991,0,4,0,10000,0,0,0,
2026-04-21 11:30:00,METAR RCMQ 211130Z 00000KT 9999 FEW012 BKN100 25/20 Q1012 NOSIG RMK A2990,0,0,0,10000,0,0,0,
2026-04-21 11:00:00,METAR RCMQ 211100Z 30004KT 9999 FEW012 BKN100 25/20 Q1012 NOSIG RMK A2990,0,4,0,10000,0,0,0,
2026-04-21 10:30:00,METAR RCMQ 211030Z 30004KT 9999 FEW012 BKN100 25/20 Q1012 NOSIG RMK A2989,0,4,0,10000,0,0,0,
2026-04-21 10:00:00,METAR RCMQ 211000Z 32004KT 9999 FEW012 BKN100 26/19 Q1012 NOSIG RMK A2988,0,4,0,10000,0,0,0,
2026-04-21 09:30:00,METAR RCMQ 210930Z 34004KT 9999 FEW012 BKN100 27/19 Q1011 NOSIG RMK A2988,0,4,0,10000,0,0,0,
2026-04-21 09:00:00,METAR RCMQ 210900Z 35006KT 9999 FEW012 BKN100 27/20 Q1011 NOSIG RMK A2987,0,6,0,10000,0,0,0,
2026-04-21 08:30:00,METAR RCMQ 210830Z 32007KT 9999 FEW012 BKN100 27/20 Q1011 NOSIG RMK A2987,0,7,0,10000,0,0,0,
2026-04-21 08:00:00,METAR RCMQ 210800Z 33008KT 9999 FEW012 BKN100 27/20 Q1011 NOSIG RMK A2986,0,8,0,10000,0,0,0,
2026-04-21 07:30:00,METAR RCMQ 210730Z 33007KT 9999 FEW012 BKN100 28/19 Q1011 NOSIG RMK A2987,0,7,0,10000,0,0,0,
2026-04-21 07:00:00,METAR RCMQ 210700Z 32008KT 9999 FEW012 BKN100 30/20 Q1011 NOSIG RMK A2987,0,8,0,10000,0,0,0,
2026-04-21 06:30:00,METAR RCMQ 210630Z 32010KT 9999 FEW012 SCT200 31/21 Q1011 NOSIG RMK A2988,0,10,0,10000,0,0,0,
2026-04-21 06:00:00,METAR RCMQ 210600Z 31008KT 9999 FEW012 SCT200 31/21 Q1012 NOSIG RMK A2988,0,8,0,10000,0,0,0,
2026-04-21 05:30:00,METAR RCMQ 210530Z 31007KT 9999 FEW012 SCT200 31/20 Q1012 NOSIG RMK A2989,0,7,0,10000,0,0,0,
2026-04-21 05:00:00,METAR RCMQ 210500Z 33008KT 9999 FEW012 SCT200 30/20 Q1012 NOSIG RMK A2990,0,8,0,10000,0,0,0,
2026-04-21 04:30:00,METAR RCMQ 210430Z 33009KT 9999 FEW012 SCT200 30/21 Q1013 NOSIG RMK A2992,0,9,0,10000,0,0,0,
2026-04-21 04:00:00,METAR RCMQ 210400Z 32010KT 9999 FEW012 SCT200 30/20 Q1013 NOSIG RMK A2993,0,10,0,10000,0,0,0,
2026-04-21 03:30:00,METAR RCMQ 210330Z 31007KT 9999 FEW012 SCT200 30/20 Q1013 NOSIG RMK A2993,0,7,0,10000,0,0,0,
2026-04-21 03:00:00,METAR RCMQ 210300Z 31006KT 9999 FEW012 SCT200 31/20 Q1013 NOSIG RMK A2994,0,6,0,10000,0,0,0,
2026-04-21 02:30:00,METAR RCMQ 210230Z 03002KT 9999 FEW012 SCT120 BKN200 31/20 Q1014 NOSIG RMK A2994,0,2,0,10000,0,0,0,
2026-04-21 02:00:00,METAR RCMQ 210200Z 04003KT 9999 FEW012 SCT120 BKN200 31/21 Q1014 NOSIG RMK A2995,0,3,0,10000,0,0,0,
2026-04-21 01:30:00,METAR RCMQ 210130Z 03005KT 9999 FEW010 BKN150 29/22 Q1014 NOSIG RMK A2996,0,5,0,10000,0,0,0,
2026-04-21 01:00:00,METAR RCMQ 210100Z 33004KT 9999 FEW010 BKN150 27/22 Q1015 NOSIG RMK A2997,0,4,0,10000,0,0,0,
2026-04-21 00:30:00,METAR RCMQ 210030Z 00000KT 8000 FEW008 BKN150 27/23 Q1015 NOSIG RMK A2998,0,0,0,8000,0,0,0,
2026-04-21 00:10:00,SPECI RCMQ 210010Z 16001KT 6000 FEW008 SCT200 27/23 Q1015 NOSIG RMK A2997,0,1,0,6000,0,0,0,
2026-04-21 00:00:00,METAR RCMQ 210000Z COR 13003KT 4800 BR FEW008 SCT200 26/23 Q1015 BECMG 5000 BR RMK A2997,0,3,0,4800,0,0,1,BR
2026-04-20 23:41:00,SPECI RCMQ 202341Z 11003KT 4000 BR FEW006 BKN200 24/23 Q1015 NOSIG RMK A2997,0,3,0,4000,0,0,1,BR
2026-04-20 23:30:00,METAR RCMQ 202330Z 00000KT 3200 BR FEW006 BKN200 25/23 Q1014 NOSIG RMK A2997,0,0,0,3200,0,0,1,BR
2026-04-20 23:15:00,SPECI RCMQ 202315Z 00000KT 3200 BR FEW006 SCT016 BKN100 23/22 Q1014 NOSIG RMK A2997,0,0,0,3200,0,0,1,BR
2026-04-20 23:00:00,METAR RCMQ 202300Z COR 00000KT 2400 BR SCT004 BKN012 BKN060 23/22 Q1014 BECMG 3200 BR BKN015 RMK A2996,0,0,0,2400,0,0,1,BR
2026-04-20 22:30:00,METAR RCMQ 202230Z 36004KT 2400 BR SCT004 BKN012 BKN060 23/22 Q1014 NOSIG RMK A2995,0,4,0,2400,0,0,1,BR
2026-04-20 22:15:00,SPECI RCMQ 202215Z 35005KT 2400 BR SCT004 BKN012 BKN060 22/21 Q1014 NOSIG RMK A2995,0,5,0,2400,0,0,1,BR
2026-04-20 22:00:00,METAR RCMQ 202200Z 35005KT 1600 BR SCT003 BKN010 22/21 Q1014 NOSIG RMK A2995 APCH CLD SCT003,0,5,0,1600,0,0,1,BR
2026-04-20 21:35:00,SPECI RCMQ 202135Z 36004KT 1600 BR SCT003 BKN010 22/21 Q1014 NOSIG RMK A2994 APCH CLD SCT003,0,4,0,1600,0,0,1,BR
2026-04-20 21:30:00,METAR RCMQ 202130Z 35004KT 2400 BR SCT004 BKN012 22/21 Q1014 NOSIG RMK A2995,0,4,0,2400,0,0,1,BR
2026-04-20 21:00:00,METAR RCMQ 202100Z 34004KT 2400 BR SCT004 BKN012 22/21 Q1014 NOSIG RMK A2994,0,4,0,2400,0,0,1,BR
2026-04-20 20:30:00,METAR RCMQ 202030Z 34004KT 2400 BR SCT004 BKN012 23/22 Q1013 RMK A2994,0,4,0,2400,0,0,1,BR
2026-04-20 20:20:00,SPECI RCMQ 202020Z 35004KT 2400 BR SCT004 BKN012 23/22 Q1013 RMK A2994,0,4,0,2400,0,0,1,BR
2026-04-20 20:03:00,SPECI RCMQ 202003Z 34004KT 4000 BR SCT004 BKN012 22/21 Q1013 RMK A2994,0,4,0,4000,0,0,1,BR
2026-04-20 20:00:00,METAR RCMQ 202000Z 33004KT 6000 FEW012 22/21 Q1013 RMK A2993,0,4,0,6000,0,0,0,
2026-04-20 19:00:00,METAR RCMQ 201900Z 29005KT 6000 FEW012 23/21 Q1014 RMK A2994,0,5,0,6000,0,0,0,
2026-04-20 18:00:00,METAR RCMQ 201800Z 00000KT 9000 FEW012 SCT080 22/20 Q1014 RMK A2995,0,0,0,9000,0,0,0,
2026-04-20 17:00:00,METAR RCMQ 201700Z 17004KT 9000 FEW012 SCT080 23/20 Q1014 RMK A2996,0,4,0,9000,0,0,0,
2026-04-20 16:00:00,METAR RCMQ 201600Z 18005KT 9999 FEW012 SCT080 23/20 Q1015 RMK A2997,0,5,0,10000,0,0,0,
2026-04-20 15:00:00,METAR RCMQ 201500Z 15005KT 9999 FEW012 23/20 Q1015 RMK A2998,0,5,0,10000,0,0,0,
2026-04-20 14:30:00,METAR RCMQ 201430Z 12003KT 9999 FEW012 23/19 Q1015 RMK A2997,0,3,0,10000,0,0,0,
2026-04-20 14:00:00,METAR RCMQ 201400Z 00000KT 9999 FEW012 23/19 Q1015 RMK A2997,0,0,0,10000,0,0,0,
2026-04-20 13:30:00,METAR RCMQ 201330Z 33003KT 9999 FEW012 23/19 Q1014 RMK A2996,0,3,0,10000,0,0,0,
2026-04-20 13:00:00,METAR RCMQ 201300Z 33005KT 9999 FEW012 23/19 Q1014 NOSIG RMK A2994,0,5,0,10000,0,0,0,
2026-04-20 12:30:00,METAR RCMQ 201230Z 33004KT 9999 FEW012 23/19 Q1013 NOSIG RMK A2993,0,4,0,10000,0,0,0,
2026-04-20 12:00:00,METAR RCMQ 201200Z 36005KT 9999 FEW012 24/20 Q1013 NOSIG RMK A2992,0,5,0,10000,0,0,0,
2026-04-20 11:30:00,METAR RCMQ 201130Z 34004KT 9999 FEW012 24/20 Q1013 NOSIG RMK A2991,0,4,0,10000,0,0,0,
2026-04-20 11:00:00,METAR RCMQ 201100Z 34004KT 9999 FEW012 24/20 Q1012 NOSIG RMK A2991,0,4,0,10000,0,0,0,
2026-04-20 10:30:00,METAR RCMQ 201030Z 35006KT 9999 FEW012 25/20 Q1012 NOSIG RMK A2990,0,6,0,10000,0,0,0,
2026-04-20 10:00:00,METAR RCMQ 201000Z 36006KT 9999 FEW012 25/19 Q1012 NOSIG RMK A2990,0,6,0,10000,0,0,0,
2026-04-20 09:30:00,METAR RCMQ 200930Z 02006KT 9999 FEW012 27/19 Q1012 NOSIG RMK A2989,0,6,0,10000,0,0,0,
2026-04-20 09:00:00,METAR RCMQ 200900Z 01005KT 9999 FEW012 28/20 Q1012 NOSIG RMK A2989,0,5,0,10000,0,0,0,
2026-04-20 08:30:00,METAR RCMQ 200830Z 36006KT 9999 FEW012 28/20 Q1012 NOSIG RMK A2989,0,6,0,10000,0,0,0,
2026-04-20 08:00:00,METAR RCMQ 200800Z 36006KT 9999 FEW012 28/21 Q1012 NOSIG RMK A2989,0,6,0,10000,0,0,0,
2026-04-20 07:30:00,METAR RCMQ 200730Z 36006KT 9999 FEW012 29/21 Q1012 NOSIG RMK A2990,0,6,0,10000,0,0,0,
2026-04-20 07:00:00,METAR RCMQ 200700Z 36007KT 9999 FEW012 28/21 Q1013 NOSIG RMK A2991,0,7,0,10000,0,0,0,
2026-04-20 06:30:00,METAR RCMQ 200630Z 34008KT 9999 FEW012 SCT016 28/22 Q1013 NOSIG RMK A2992,0,8,0,10000,0,0,0,
2026-04-20 06:00:00,METAR RCMQ 200600Z 35008KT 9999 FEW012 SCT016 28/23 Q1013 NOSIG RMK A2993,0,8,0,10000,0,0,0,
2026-04-20 05:30:00,METAR RCMQ 200530Z 33008KT 9999 FEW012 BKN016 29/23 Q1013 NOSIG RMK A2993,0,8,0,10000,0,0,0,
2026-04-20 05:00:00,METAR RCMQ 200500Z 34008KT 9999 FEW012 BKN016 28/22 Q1014 NOSIG RMK A2994,0,8,0,10000,0,0,0,
2026-04-20 04:30:00,METAR RCMQ 200430Z 34009KT 8000 FEW012 BKN016 28/23 Q1014 NOSIG RMK A2995,0,9,0,8000,0,0,0,
2026-04-20 04:00:00,METAR RCMQ 200400Z 32010KT 8000 FEW012 SCT016 29/23 Q1014 NOSIG RMK A2996,0,10,0,8000,0,0,0,
2026-04-20 03:30:00,METAR RCMQ 200330Z 32010KT 8000 FEW012 SCT020 29/23 Q1014 NOSIG RMK A2996,0,10,0,8000,0,0,0,
2026-04-20 03:00:00,METAR RCMQ 200300Z 30007KT 9999 FEW012 SCT020 30/23 Q1014 NOSIG RMK A2996,0,7,0,10000,0,0,0,
2026-04-20 02:30:00,METAR RCMQ 200230Z 28005KT 9999 FEW012 SCT020 30/21 Q1014 NOSIG RMK A2996,0,5,0,10000,0,0,0,
2026-04-20 02:00:00,METAR RCMQ 200200Z 25006KT 9999 FEW012 SCT020 29/20 Q1014 NOSIG RMK A2996,0,6,0,10000,0,0,0,
2026-04-20 01:30:00,METAR RCMQ 200130Z 24004KT 9999 FEW012 SCT020 29/22 Q1014 NOSIG RMK A2995,0,4,0,10000,0,0,0,
2026-04-20 01:00:00,METAR RCMQ 200100Z 20004KT 9999 FEW012 SCT020 29/22 Q1014 NOSIG RMK A2995,0,4,0,10000,0,0,0,
2026-04-20 00:30:00,METAR RCMQ 200030Z 18006KT 8000 FEW012 27/23 Q1014 NOSIG RMK A2995,0,6,0,8000,0,0,0,
2026-04-20 00:00:00,METAR RCMQ 200000Z 17003KT 7000 FEW012 27/22 Q1014 NOSIG RMK A2995,0,3,0,7000,0,0,0,
2026-04-19 23:30:00,METAR RCMQ 192330Z 15004KT 7000 FEW012 25/23 Q1014 NOSIG RMK A2995,0,4,0,7000,0,0,0,
2026-04-19 23:00:00,METAR RCMQ 192300Z 00000KT 7000 FEW012 24/22 Q1014 NOSIG RMK A2995,0,0,0,7000,0,0,0,
2026-04-19 22:30:00,METAR RCMQ 192230Z 00000KT 7000 FEW012 21/20 Q1014 NOSIG RMK A2994,0,0,0,7000,0,0,0,
2026-04-19 22:00:00,METAR RCMQ 192200Z 00000KT 7000 FEW012 21/20 Q1013 NOSIG RMK A2993,0,0,0,7000,0,0,0,
2026-04-19 21:30:00,METAR RCMQ 192130Z 14003KT 7000 FEW012 21/20 Q1013 NOSIG RMK A2992,0,3,0,7000,0,0,0,
2026-04-19 21:00:00,METAR RCMQ 192100Z 00000KT 7000 FEW012 21/20 Q1013 NOSIG RMK A2992,0,0,0,7000,0,0,0,
2026-04-19 20:30:00,METAR RCMQ 192030Z 20001KT 7000 FEW012 22/21 Q1013 RMK A2991,0,1,0,7000,0,0,0,
2026-04-19 20:00:00,METAR RCMQ 192000Z 19001KT 7000 FEW012 21/20 Q1013 RMK A2991,0,1,0,7000,0,0,0,
2026-04-19 19:00:00,METAR RCMQ 191900Z 00000KT 7000 FEW012 21/20 Q1013 RMK A2991,0,0,0,7000,0,0,0,
2026-04-19 18:00:00,METAR RCMQ 191800Z 00000KT 7000 FEW012 21/20 Q1013 RMK A2992,0,0,0,7000,0,0,0,
2026-04-19 17:00:00,METAR RCMQ 191700Z 17005KT 9000 FEW012 22/20 Q1013 RMK A2992,0,5,0,9000,0,0,0,
2026-04-19 16:00:00,METAR RCMQ 191600Z 16005KT 9000 FEW012 22/21 Q1013 RMK A2992,0,5,0,9000,0,0,0,
2026-04-19 15:00:00,METAR RCMQ 191500Z 00000KT 9000 FEW012 22/20 Q1013 RMK A2993,0,0,0,9000,0,0,0,
2026-04-19 14:00:00,METAR RCMQ 191400Z 05002KT 9999 FEW012 22/20 Q1013 RMK A2993,0,2,0,10000,0,0,0,
2026-04-19 13:30:00,METAR RCMQ 191330Z 03005KT 9999 FEW012 23/20 Q1013 RMK A2992,0,5,0,10000,0,0,0,
2026-04-19 13:00:00,METAR RCMQ 191300Z 02004KT 9999 FEW012 22/20 Q1013 NOSIG RMK A2991,0,4,0,10000,0,0,0,
2026-04-19 12:30:00,METAR RCMQ 191230Z 36005KT 9999 FEW012 22/20 Q1012 NOSIG RMK A2991,0,5,0,10000,0,0,0,
2026-04-19 12:00:00,METAR RCMQ 191200Z 36005KT 9999 FEW012 22/20 Q1012 NOSIG RMK A2989,0,5,0,10000,0,0,0,
2026-04-19 11:30:00,METAR RCMQ 191130Z 36006KT 9999 FEW012 23/20 Q1011 NOSIG RMK A2988,0,6,0,10000,0,0,0,
2026-04-19 11:00:00,METAR RCMQ 191100Z 35007KT 9999 FEW012 23/20 Q1011 NOSIG RMK A2987,0,7,0,10000,0,0,0,
2026-04-19 10:30:00,METAR RCMQ 191030Z 33007KT 9999 FEW012 24/20 Q1011 NOSIG RMK A2987,0,7,0,10000,0,0,0,
2026-04-19 10:00:00,METAR RCMQ 191000Z 34007KT 9999 FEW012 25/21 Q1011 NOSIG RMK A2986,0,7,0,10000,0,0,0,
2026-04-19 09:30:00,METAR RCMQ 190930Z 34009KT 9999 FEW012 26/21 Q1010 NOSIG RMK A2985,0,9,0,10000,0,0,0,
2026-04-19 09:00:00,METAR RCMQ 190900Z 35009KT 9999 FEW012 27/21 Q1010 NOSIG RMK A2985,0,9,0,10000,0,0,0,
2026-04-19 08:30:00,METAR RCMQ 190830Z 35009KT 9999 FEW012 27/21 Q1010 NOSIG RMK A2985,0,9,0,10000,0,0,0,
2026-04-19 08:00:00,METAR RCMQ 190800Z 35009KT 9999 FEW012 28/21 Q1010 NOSIG RMK A2984,0,9,0,10000,0,0,0,
2026-04-19 07:30:00,METAR RCMQ 190730Z 35011KT 9999 FEW012 28/21 Q1010 NOSIG RMK A2985,0,11,0,10000,0,0,0,
2026-04-19 07:00:00,METAR RCMQ 190700Z 35010KT 9999 FEW012 29/21 Q1011 NOSIG RMK A2986,0,10,0,10000,0,0,0,
2026-04-19 06:30:00,METAR RCMQ 190630Z 34012KT 9999 FEW012 29/22 Q1011 NOSIG RMK A2987,0,12,0,10000,0,0,0,
2026-04-19 06:00:00,METAR RCMQ 190600Z 34013KT 9999 FEW012 29/22 Q1011 NOSIG RMK A2988,0,13,0,10000,0,0,0,
2026-04-19 05:30:00,METAR RCMQ 190530Z 34013KT 9999 FEW012 29/22 Q1012 NOSIG RMK A2988,0,13,0,10000,0,0,0,
2026-04-19 05:00:00,METAR RCMQ 190500Z 34011KT 9999 FEW012 29/22 Q1012 NOSIG RMK A2989,0,11,0,10000,0,0,0,
2026-04-19 04:30:00,METAR RCMQ 190430Z 34010KT 9999 FEW012 30/22 Q1012 NOSIG RMK A2990,0,10,0,10000,0,0,0,
2026-04-19 04:00:00,METAR RCMQ 190400Z 34010KT 9999 FEW012 29/21 Q1012 NOSIG RMK A2991,0,10,0,10000,0,0,0,
2026-04-19 03:30:00,METAR RCMQ 190330Z 34007KT 9999 FEW012 29/21 Q1013 NOSIG RMK A2991,0,7,0,10000,0,0,0,
2026-04-19 03:00:00,METAR RCMQ 190300Z 33009KT 9999 FEW012 29/21 Q1013 NOSIG RMK A2992,0,9,0,10000,0,0,0,
2026-04-19 02:30:00,METAR RCMQ 190230Z 35006KT 9999 FEW012 29/20 Q1013 NOSIG RMK A2992,0,6,0,10000,0,0,0,
2026-04-19 02:00:00,METAR RCMQ 190200Z 35006KT 9999 FEW012 29/21 Q1013 NOSIG RMK A2992,0,6,0,10000,0,0,0,
2026-04-19 01:30:00,METAR RCMQ 190130Z 04004KT 9999 FEW012 28/21 Q1013 NOSIG RMK A2992,0,4,0,10000,0,0,0,
2026-04-19 01:00:00,METAR RCMQ 190100Z 03006KT 9999 FEW012 27/22 Q1013 NOSIG RMK A2993,0,6,0,10000,0,0,0,
2026-04-19 00:30:00,METAR RCMQ 190030Z 02005KT 9999 FEW010 26/22 Q1013 NOSIG RMK A2992,0,5,0,10000,0,0,0,
2026-04-19 00:00:00,METAR RCMQ 190000Z 04004KT 9000 FEW010 25/22 Q1013 NOSIG RMK A2992,0,4,0,9000,0,0,0,
2026-04-18 23:30:00,METAR RCMQ 182330Z 03006KT 7000 FEW010 24/22 Q1013 NOSIG RMK A2992,0,6,0,7000,0,0,0,
2026-04-18 23:05:00,SPECI RCMQ 182305Z 03004KT 6000 FEW010 23/21 Q1013 NOSIG RMK A2992,0,4,0,6000,0,0,0,
2026-04-18 23:00:00,METAR RCMQ 182300Z 01004KT 4800 BR FEW010 22/21 Q1013 BECMG 5000 BR RMK A2992,0,4,0,4800,0,0,1,BR
2026-04-18 22:30:00,METAR RCMQ 182230Z 05004KT 4800 BR FEW010 22/21 Q1012 NOSIG RMK A2990,0,4,0,4800,0,0,1,BR
2026-04-18 22:15:00,SPECI RCMQ 182215Z 02004KT 4000 BR FEW008 21/20 Q1012 NOSIG RMK A2990,0,4,0,4000,0,0,1,BR
2026-04-18 22:00:00,METAR RCMQ 182200Z 36004KT 3200 BR FEW008 20/20 Q1012 NOSIG RMK A2990,0,4,0,3200,0,0,1,BR
2026-04-18 21:30:00,METAR RCMQ 182130Z 01004KT 3200 BR FEW008 20/20 Q1012 NOSIG RMK A2989,0,4,0,3200,0,0,1,BR
2026-04-18 21:00:00,METAR RCMQ 182100Z 36004KT 3200 BR FEW008 21/20 Q1012 NOSIG RMK A2988,0,4,0,3200,0,0,1,BR
2026-04-18 20:30:00,METAR RCMQ 182030Z 35005KT 3200 BR FEW008 21/20 Q1012 RMK A2988,0,5,0,3200,0,0,1,BR
2026-04-18 20:00:00,METAR RCMQ 182000Z 36004KT 3200 BR FEW008 20/20 Q1011 RMK A2988,0,4,0,3200,0,0,1,BR
2026-04-18 19:00:00,METAR RCMQ 181900Z 01004KT 3200 BR FEW008 21/20 Q1011 RMK A2988,0,4,0,3200,0,0,1,BR
2026-04-18 18:05:00,SPECI RCMQ 181805Z 36007KT 3200 BR FEW008 21/20 Q1012 RMK A2988,0,7,0,3200,0,0,1,BR
2026-04-18 18:00:00,METAR RCMQ 181800Z 36006KT 4000 BR FEW008 21/20 Q1012 RMK A2988,0,6,0,4000,0,0,1,BR
2026-04-18 17:00:00,METAR RCMQ 181700Z 35004KT 4000 BR FEW008 22/21 Q1012 RMK A2990,0,4,0,4000,0,0,1,BR
2026-04-18 16:00:00,METAR RCMQ 181600Z 00000KT 4000 BR FEW006 22/20 Q1012 RMK A2990,0,0,0,4000,0,0,1,BR
2026-04-18 15:00:00,METAR RCMQ 181500Z 04004KT 4000 BR FEW006 22/21 Q1012 RMK A2991,0,4,0,4000,0,0,1,BR
2026-04-18 14:00:00,METAR RCMQ 181400Z 36005KT 4000 BR FEW006 22/21 Q1013 RMK A2992,0,5,0,4000,0,0,1,BR
2026-04-18 13:30:00,METAR RCMQ 181330Z COR 36006KT 4000 BR FEW006 22/21 Q1013 RMK A2992,0,6,0,4000,0,0,1,BR
2026-04-18 13:00:00,METAR RCMQ 181300Z 35006KT 4000 BR FEW006 22/21 Q1012 NOSIG RMK A2991,0,6,0,4000,0,0,1,BR
2026-04-18 12:30:00,METAR RCMQ 181230Z 35006KT 4000 BR FEW006 22/21 Q1012 NOSIG RMK A2990,0,6,0,4000,0,0,1,BR
2026-04-18 12:00:00,METAR RCMQ 181200Z 35005KT 4000 BR FEW006 23/21 Q1012 NOSIG RMK A2989,0,5,0,4000,0,0,1,BR
2026-04-18 11:52:00,SPECI RCMQ 181152Z 35005KT 4000 BR FEW006 22/21 Q1012 NOSIG RMK A2989,0,5,0,4000,0,0,1,BR
2026-04-18 11:30:00,METAR RCMQ 181130Z 34004KT 5000 BR FEW006 SCT080 23/21 Q1012 NOSIG RMK A2989,0,4,0,5000,0,0,1,BR
2026-04-18 11:20:00,SPECI RCMQ 181120Z 34005KT 5000 BR FEW006 SCT080 23/21 Q1012 NOSIG RMK A2989,0,5,0,5000,0,0,1,BR
2026-04-18 11:00:00,METAR RCMQ 181100Z 34005KT 6000 SCT006 23/22 Q1012 BECMG 5000 BR RMK A2988,0,5,0,6000,0,0,1,BR
2026-04-18 10:30:00,METAR RCMQ 181030Z 33005KT 8000 4000SW FEW008 24/22 Q1011 NOSIG RMK A2988,0,5,0,8000,0,0,0,
2026-04-18 10:00:00,METAR RCMQ 181000Z 34006KT 9999 FEW008 24/21 Q1011 NOSIG RMK A2987,0,6,0,10000,0,0,0,
2026-04-18 09:30:00,METAR RCMQ 180930Z 33005KT 9999 FEW008 25/22 Q1011 NOSIG RMK A2987,0,5,0,10000,0,0,0,
2026-04-18 09:00:00,METAR RCMQ 180900Z 34006KT 9999 FEW008 SCT016 25/22 Q1011 NOSIG RMK A2986,0,6,0,10000,0,0,0,
2026-04-18 08:30:00,METAR RCMQ 180830Z 34007KT 9999 FEW008 SCT100 25/22 Q1011 NOSIG RMK A2986,0,7,0,10000,0,0,0,
2026-04-18 08:00:00,METAR RCMQ 180800Z 33007KT 9999 FEW008 SCT100 26/21 Q1011 NOSIG RMK A2987,0,7,0,10000,0,0,0,
2026-04-18 07:30:00,METAR RCMQ 180730Z 33008KT 9999 FEW008 SCT100 27/22 Q1011 NOSIG RMK A2987,0,8,0,10000,0,0,0,
2026-04-18 07:00:00,METAR RCMQ 180700Z 32007KT 9999 FEW008 SCT100 27/22 Q1011 NOSIG RMK A2987,0,7,0,10000,0,0,0,
2026-04-18 06:30:00,METAR RCMQ 180630Z 35008KT 9999 FEW008 BKN030 28/22 Q1012 NOSIG RMK A2988,0,8,0,10000,0,0,0,
2026-04-18 06:00:00,METAR RCMQ 180600Z 34008KT 9999 FEW008 BKN030 28/22 Q1012 NOSIG RMK A2988,0,8,0,10000,0,0,0,
2026-04-18 05:30:00,METAR RCMQ 180530Z 31005KT 9999 FEW008 BKN020 BKN040 28/22 Q1012 NOSIG RMK A2989,0,5,0,10000,0,0,0,
2026-04-18 05:00:00,METAR RCMQ 180500Z 32006KT 9999 FEW008 BKN020 BKN040 28/22 Q1012 NOSIG RMK A2989,0,6,0,10000,0,0,0,
2026-04-18 04:30:00,METAR RCMQ 180430Z 32005KT 9999 FEW008 BKN020 BKN040 28/22 Q1012 NOSIG RMK A2990,0,5,0,10000,0,0,0,
2026-04-18 04:00:00,METAR RCMQ 180400Z 34005KT 9999 FEW008 BKN020 BKN040 28/22 Q1012 NOSIG RMK A2991,0,5,0,10000,0,0,0,
2026-04-18 03:30:00,METAR RCMQ 180330Z 33004KT 9999 FEW008 BKN020 BKN040 27/23 Q1013 NOSIG RMK A2991,0,4,0,10000,0,0,0,
2026-04-18 03:00:00,METAR RCMQ 180300Z 32005KT 9999 FEW008 BKN020 BKN040 26/22 Q1013 NOSIG RMK A2992,0,5,0,10000,0,0,0,
2026-04-18 02:30:00,METAR RCMQ 180230Z 36004KT 9999 FEW008 SCT020 BKN060 26/22 Q1013 NOSIG RMK A2992,0,4,0,10000,0,0,0,
2026-04-18 02:00:00,METAR RCMQ 180200Z 33005KT 9999 FEW008 SCT020 BKN060 25/22 Q1013 NOSIG RMK A2993,0,5,0,10000,0,0,0,
2026-04-18 01:30:00,METAR RCMQ 180130Z 33005KT 9999 FEW008 SCT020 BKN060 26/22 Q1013 NOSIG RMK A2992,0,5,0,10000,0,0,0,
2026-04-18 01:00:00,METAR RCMQ 180100Z 34004KT 7000 FEW008 BKN100 26/22 Q1013 NOSIG RMK A2992,0,4,0,7000,0,0,0,
2026-04-18 00:30:00,METAR RCMQ 180030Z 35004KT 5000 BR FEW008 BKN080 25/22 Q1012 NOSIG RMK A2991,0,4,0,5000,0,0,1,BR
2026-04-18 00:05:00,SPECI RCMQ 180005Z 36004KT 5000 BR FEW008 BKN080 24/22 Q1012 NOSIG RMK A2990,0,4,0,5000,0,0,1,BR
2026-04-18 00:00:00,METAR RCMQ 180000Z 35004KT 4000 BR FEW008 BKN080 24/22 Q1012 BECMG 5000 BR RMK A2990,0,4,0,4000,0,0,1,BR
2026-04-17 23:30:00,METAR RCMQ 172330Z 35004KT 4000 BR FEW008 BKN080 24/22 Q1012 BECMG 5000 BR RMK A2989,0,4,0,4000,0,0,1,BR
2026-04-17 23:00:00,METAR RCMQ 172300Z 03002KT 4000 BR FEW008 BKN080 23/22 Q1012 BECMG 5000 BR RMK A2988,0,2,0,4000,0,0,1,BR
2026-04-17 22:50:00,SPECI RCMQ 172250Z 02002KT 4000 BR FEW008 BKN080 22/21 Q1012 NOSIG RMK A2988,0,2,0,4000,0,0,1,BR
2026-04-17 22:30:00,METAR RCMQ 172230Z 02004KT 3200 BR FEW008 BKN080 22/21 Q1011 NOSIG RMK A2988,0,4,0,3200,0,0,1,BR
2026-04-17 22:00:00,METAR RCMQ 172200Z 03002KT 3200 BR FEW008 BKN080 22/21 Q1011 NOSIG RMK A2988,0,2,0,3200,0,0,1,BR
2026-04-17 21:35:00,SPECI RCMQ 172135Z 00000KT 3200 BR FEW008 21/21 Q1011 NOSIG RMK A2987,0,0,0,3200,0,0,1,BR
2026-04-17 21:30:00,METAR RCMQ 172130Z 00000KT 4000 BR FEW008 21/21 Q1011 NOSIG RMK A2988,0,0,0,4000,0,0,1,BR
2026-04-17 21:00:00,METAR RCMQ 172100Z 00000KT 4000 BR FEW008 21/21 Q1011 NOSIG RMK A2987,0,0,0,4000,0,0,1,BR
2026-04-17 20:30:00,METAR RCMQ 172030Z 00000KT 4000 BR FEW008 SCT040 22/21 Q1011 RMK A2987,0,0,0,4000,0,0,1,BR
2026-04-17 20:00:00,METAR RCMQ 172000Z 32004KT 4000 BR FEW008 BKN040 22/21 Q1011 RMK A2988,0,4,0,4000,0,0,1,BR
2026-04-17 19:00:00,METAR RCMQ 171900Z 00000KT 4000 BR FEW008 21/21 Q1011 RMK A2988,0,0,0,4000,0,0,1,BR
2026-04-17 18:00:00,METAR RCMQ 171800Z 00000KT 4000 BR FEW008 22/21 Q1012 RMK A2990,0,0,0,4000,0,0,1,BR
2026-04-17 17:00:00,METAR RCMQ 171700Z 33004KT 4000 BR FEW008 22/21 Q1013 RMK A2992,0,4,0,4000,0,0,1,BR
2026-04-17 16:00:00,METAR RCMQ 171600Z 00000KT 4000 BR FEW008 22/21 Q1013 RMK A2992,0,0,0,4000,0,0,1,BR
2026-04-17 15:00:00,METAR RCMQ 171500Z 03004KT 4000 BR FEW008 22/21 Q1013 RMK A2992,0,4,0,4000,0,0,1,BR
2026-04-17 14:00:00,METAR RCMQ 171400Z 34004KT 4000 BR FEW008 22/21 Q1013 NOSIG RMK A2993,0,4,0,4000,0,0,1,BR
2026-04-17 13:30:00,METAR RCMQ 171330Z 33004KT 4000 BR FEW008 22/21 Q1013 NOSIG RMK A2993,0,4,0,4000,0,0,1,BR
2026-04-17 13:17:00,SPECI RCMQ 171317Z 33003KT 4000 BR FEW008 22/21 Q1013 NOSIG RMK A2993,0,3,0,4000,0,0,1,BR
2026-04-17 13:00:00,METAR RCMQ 171300Z 00000KT 5000 BR FEW008 23/21 Q1013 NOSIG RMK A2992,0,0,0,5000,0,0,1,BR
2026-04-17 12:40:00,SPECI RCMQ 171240Z 05001KT 5000 BR FEW008 SCT016 22/21 Q1012 NOSIG RMK A2991,0,1,0,5000,0,0,1,BR
2026-04-17 12:30:00,METAR RCMQ 171230Z 06004KT 6000 FEW008 BKN012 22/21 Q1012 BECMG 5000 BR BKN016 RMK A2990,0,4,0,6000,0,0,1,BR
2026-04-17 12:00:00,METAR RCMQ 171200Z 04006KT 7000 SCT006 BKN012 BKN040 23/21 Q1012 NOSIG RMK A2991,0,6,0,7000,0,0,0,
2026-04-17 11:30:00,METAR RCMQ 171130Z 01007KT 8000 SCT006 BKN012 BKN040 23/21 Q1012 NOSIG RMK A2990,0,7,0,8000,0,0,0,
2026-04-17 11:00:00,METAR RCMQ 171100Z 35010KT 8000 SCT008 BKN014 BKN040 23/21 Q1012 NOSIG RMK A2989,0,10,0,8000,0,0,0,
2026-04-17 10:30:00,METAR RCMQ 171030Z 35008KT 8000 SCT008 BKN014 BKN060 24/21 Q1011 NOSIG RMK A2988,0,8,0,8000,0,0,0,
2026-04-17 10:10:00,SPECI RCMQ 171010Z 35008KT 8000 SCT008 BKN014 BKN060 24/21 Q1011 NOSIG RMK A2987,0,8,0,8000,0,0,0,
2026-04-17 10:00:00,METAR RCMQ 171000Z 35007KT 9999 FEW008 SCT014 BKN060 24/21 Q1011 BECMG BKN014 RMK A2986,0,7,0,10000,0,0,0,
2026-04-17 09:30:00,METAR RCMQ 170930Z 01005KT 9999 FEW010 SCT016 25/21 Q1011 NOSIG RMK A2985,0,5,0,10000,0,0,0,
2026-04-17 09:00:00,METAR RCMQ 170900Z 35005KT 9999 FEW008 SCT016 BKN050 25/21 Q1011 NOSIG RMK A2987,0,5,0,10000,0,0,0,
2026-04-17 08:35:00,SPECI RCMQ 170835Z COR 36005KT 9999 FEW008 SCT016 BKN050 26/21 Q1011 NOSIG RMK A2987,0,5,0,10000,0,0,0,
2026-04-17 08:30:00,METAR RCMQ 170830Z 36005KT 9999 FEW008 BKN014 BKN040 26/21 Q1011 NOSIG RMK A2987,0,5,0,10000,0,0,0,
2026-04-17 08:00:00,METAR RCMQ 170800Z 33008KT 9999 SCT008 BKN014 BKN040 25/21 Q1011 NOSIG RMK A2988 APCH CLD SCT008,0,8,0,10000,0,0,0,
2026-04-17 07:30:00,METAR RCMQ 170730Z 33009KT 9999 SCT008 BKN014 BKN040 26/21 Q1011 NOSIG RMK A2988 APCH CLD SCT008,0,9,0,10000,0,0,0,
2026-04-17 07:00:00,METAR RCMQ 170700Z 32012KT 9999 SCT008 BKN014 BKN040 26/21 Q1011 NOSIG RMK A2988 APCH CLD SCT008,0,12,0,10000,0,0,0,
2026-04-17 06:52:00,SPECI RCMQ 170652Z 33012KT 9999 SCT008 BKN014 BKN040 27/22 Q1011 BECMG BKN014 RMK A2987 APCH CLD SCT008,0,12,0,10000,0,0,0,
2026-04-17 06:30:00,METAR RCMQ 170630Z 32013KT 9999 FEW008 BKN016 BKN060 27/22 Q1011 NOSIG RMK A2987,0,13,0,10000,0,0,0,
2026-04-17 06:00:00,METAR RCMQ 170600Z 33010KT 9999 FEW008 SCT200 29/22 Q1011 NOSIG RMK A2987,0,10,0,10000,0,0,0,
2026-04-17 05:30:00,METAR RCMQ 170530Z 33009KT 9999 FEW008 SCT200 30/22 Q1011 NOSIG RMK A2987,0,9,0,10000,0,0,0,
2026-04-17 05:00:00,METAR RCMQ 170500Z 35003KT 260V350 9999 FEW008 SCT200 30/21 Q1011 NOSIG RMK A2988,0,3,0,10000,0,0,0,
2026-04-17 04:30:00,METAR RCMQ 170430Z 26002KT 9999 FEW008 BKN100 29/22 Q1012 NOSIG RMK A2990,0,2,0,10000,0,0,0,
2026-04-17 04:00:00,METAR RCMQ 170400Z 36004KT 9999 FEW008 SCT100 29/22 Q1012 NOSIG RMK A2991,0,4,0,10000,0,0,0,
2026-04-17 03:30:00,METAR RCMQ 170330Z 33007KT 9999 FEW008 SCT100 28/22 Q1013 NOSIG RMK A2993,0,7,0,10000,0,0,0,
2026-04-17 03:00:00,METAR RCMQ 170300Z 32007KT 9000 FEW008 SCT016 BKN080 29/23 Q1013 NOSIG RMK A2993,0,7,0,9000,0,0,0,
2026-04-17 02:30:00,METAR RCMQ 170230Z 33007KT 8000 FEW008 SCT016 28/23 Q1013 NOSIG RMK A2993,0,7,0,8000,0,0,0,
2026-04-17 02:00:00,METAR RCMQ 170200Z 35008KT 8000 SCT008 BKN016 27/23 Q1013 NOSIG RMK A2993,0,8,0,8000,0,0,0,
2026-04-17 01:30:00,METAR RCMQ 170130Z 02003KT 8000 FEW008 27/23 Q1013 NOSIG RMK A2993,0,3,0,8000,0,0,0,
2026-04-17 01:00:00,METAR RCMQ 170100Z 06004KT 8000 FEW008 26/23 Q1013 NOSIG RMK A2993,0,4,0,8000,0,0,0,
2026-04-17 00:30:00,METAR RCMQ 170030Z 07004KT 6000 FEW008 SCT060 25/23 Q1013 NOSIG RMK A2993,0,4,0,6000,0,0,0,
2026-04-17 00:00:00,METAR RCMQ 170000Z 02004KT 5000 BR FEW004 SCT012 BKN040 24/23 Q1013 NOSIG RMK A2993,0,4,0,5000,0,0,1,BR
2026-04-16 23:50:00,SPECI RCMQ 162350Z COR 02004KT 5000 BR FEW004 SCT012 BKN040 23/22 Q1013 NOSIG RMK A2993,0,4,0,5000,0,0,1,BR
2026-04-16 23:35:00,SPECI RCMQ 162335Z COR 36004KT 4000 BR FEW004 BKN012 BKN040 23/22 Q1013 BECMG 5000 BR BKN040 RMK A2993,0,4,0,4000,0,0,1,BR
2026-04-16 23:30:00,METAR RCMQ 162330Z 36005KT 3200 BR FEW004 BKN008 BKN020 23/22 Q1013 BECMG BKN010 RMK A2993,0,5,0,3200,0,0,1,BR
2026-04-16 23:23:00,SPECI RCMQ 162323Z 36006KT 3200 BR FEW004 BKN008 BKN020 23/22 Q1013 BECMG 4800 BR BKN010 RMK A2993,0,6,0,3200,0,0,1,BR
2026-04-16 23:10:00,SPECI RCMQ 162310Z 36004KT 2400 BR BKN004 BKN010 23/22 Q1013 BECMG 3000 BR BKN005 RMK A2993,0,4,0,2400,0,0,1,BR
2026-04-16 23:00:00,METAR RCMQ 162300Z 01004KT 1600 BR BKN004 OVC010 23/22 Q1013 BECMG 3000 BR BKN005 RMK A2992,0,4,0,1600,0,0,1,BR
2026-04-16 22:38:00,SPECI RCMQ 162238Z 36004KT 1600 BR BKN004 OVC010 23/22 Q1013 BECMG 3000 BR BKN005 RMK A2992,0,4,0,1600,0,0,1,BR
2026-04-16 22:30:00,METAR RCMQ 162230Z 36004KT 1600 BR BKN002 OVC008 22/22 Q1013 BECMG TL2240 3000 BR BKN002 RMK A2992,0,4,0,1600,0,0,1,BR
2026-04-16 22:20:00,SPECI RCMQ 162220Z COR 36005KT 1600 BR BKN002 OVC008 22/22 Q1013 BECMG TL2240 3000 BR BKN002 RMK A2992,0,5,0,1600,0,0,1,BR
2026-04-16 22:00:00,METAR RCMQ 162200Z 34005KT 1200 R36/2000U BR BKN002 OVC008 22/22 Q1013 BECMG TL2330 0800 FG BKN002 RMK A2991,0,5,0,1200,0,0,1,"BR,FG"
2026-04-16 21:40:00,SPECI RCMQ 162140Z 34007KT 1200 R36/1800 BR BKN002 OVC008 22/22 Q1012 BECMG TL2330 0800 FG BKN002 RMK A2990,0,7,0,1200,0,0,1,"BR,FG"
2026-04-16 21:30:00,METAR RCMQ 162130Z 34007KT 1600 BR BKN003 OVC008 22/22 Q1012 BECMG FM2140 TL2330 1500 BR BKN002 RMK A2990,0,7,0,1600,0,0,1,BR
2026-04-16 21:20:00,SPECI RCMQ 162120Z 33005KT 1600 BR BKN003 OVC008 22/22 Q1012 BECMG FM2140 TL2330 1500 BR BKN002 RMK A2989,0,5,0,1600,0,0,1,BR
2026-04-16 21:05:00,SPECI RCMQ 162105Z COR 33005KT 2400 BR SCT004 BKN008 OVC016 22/21 Q1012 BECMG BKN005 RMK A2988,0,5,0,2400,0,0,1,BR
2026-04-16 21:00:00,METAR RCMQ 162100Z 33005KT 150V330 3200 BR FEW004 BKN010 BKN030 22/21 Q1012 NOSIG RMK A2988,0,5,0,3200,0,0,1,BR
2026-04-16 20:30:00,METAR RCMQ 162030Z 15005KT 3200 BR FEW004 BKN010 BKN030 22/21 Q1011 RMK A2988,0,5,0,3200,0,0,1,BR
2026-04-16 20:00:00,METAR RCMQ 162000Z 15005KT 3200 BR SCT004 BKN010 BKN020 22/21 Q1011 RMK A2987,0,5,0,3200,0,0,1,BR
2026-04-16 19:00:00,METAR RCMQ 161900Z 00000KT 3200 BR SCT004 BKN010 BKN020 22/21 Q1012 RMK A2990,0,0,0,3200,0,0,1,BR
2026-04-16 18:00:00,METAR RCMQ 161800Z 33006KT 3200 BR SCT004 BKN010 BKN020 23/22 Q1013 RMK A2991,0,6,0,3200,0,0,1,BR
2026-04-16 17:04:00,SPECI RCMQ 161704Z 32005KT 3200 BR SCT004 BKN010 BKN020 23/23 Q1013 RMK A2992,0,5,0,3200,0,0,1,BR
2026-04-16 17:00:00,METAR RCMQ 161700Z 31005KT 4000 BR FEW004 SCT010 BKN030 23/22 Q1013 RMK A2992,0,5,0,4000,0,0,1,BR
2026-04-16 16:00:00,METAR RCMQ 161600Z 17005KT 4000 BR FEW006 SCT012 BKN040 23/22 Q1013 RMK A2992,0,5,0,4000,0,0,1,BR
2026-04-16 15:00:00,METAR RCMQ 161500Z 16005KT 4000 BR FEW006 SCT012 BKN040 23/22 Q1013 RMK A2993,0,5,0,4000,0,0,1,BR
2026-04-16 14:40:00,SPECI RCMQ 161440Z 14005KT 4000 BR FEW006 SCT012 BKN040 23/22 Q1014 RMK A2994,0,5,0,4000,0,0,1,BR
2026-04-16 14:00:00,METAR RCMQ 161400Z 00000KT 3200 BR FEW004 BKN010 BKN040 23/22 Q1014 RMK A2994,0,0,0,3200,0,0,1,BR
2026-04-16 13:30:00,METAR RCMQ 161330Z 14002KT 3200 BR FEW004 BKN010 BKN040 22/21 Q1014 RMK A2994,0,2,0,3200,0,0,1,BR
2026-04-16 13:00:00,METAR RCMQ 161300Z 09001KT 3200 BR FEW004 BKN010 BKN040 22/22 Q1013 RMK A2994,0,1,0,3200,0,0,1,BR
2026-04-16 12:40:00,SPECI RCMQ 161240Z 05004KT 3200 BR SCT004 BKN010 BKN030 23/22 Q1013 BECMG 3200 BR BKN010 RMK A2993,0,4,0,3200,0,0,1,BR
2026-04-16 12:30:00,METAR RCMQ 161230Z 03004KT 2400 BR BKN002 BKN012 OVC025 23/22 Q1013 BECMG TL1400 BKN002 RMK A2993,0,4,0,2400,0,0,1,BR
2026-04-16 12:00:00,METAR RCMQ 161200Z 35004KT 2400 BR BKN002 BKN010 23/22 Q1013 REDZ BECMG TL1400 0600 -DZ FG BKN002 RMK A2992 RA AMT T,0,4,0,2400,0,0,1,"BR,DZ,FG,RA"
2026-04-16 11:35:00,SPECI RCMQ 161135Z COR 35004KT 2400 BR BKN002 BKN010 23/22 Q1013 REDZ BECMG TL1400 BKN002 RMK A2991,0,4,0,2400,0,0,1,"BR,DZ"
2026-04-16 11:30:00,METAR RCMQ 161130Z 35004KT 1000 R36/1600N DZ BR BKN002 OVC008 23/22 Q1013 BECMG TL1400 0600 -DZ FG BKN002 RMK A2991,0,4,0,1000,0,0,1,"BR,DZ,FG"
2026-04-16 11:00:00,METAR RCMQ 161100Z 36004KT 1000 R36/1600N DZ BR BKN002 OVC008 23/22 Q1012 BECMG TL1400 0600 -DZ FG BKN002 RMK A2990 RA AMT T,0,4,0,1000,0,0,1,"BR,DZ,FG,RA"
2026-04-16 10:30:00,METAR RCMQ 161030Z 33006KT 1000 R36/1600N DZ BR BKN002 OVC008 23/22 Q1012 BECMG TL1400 0600 -DZ FG BKN002 RMK A2990,0,6,0,1000,0,0,1,"BR,DZ,FG"
2026-04-16 10:23:00,SPECI RCMQ 161023Z 32007KT 1000 R36/1600 DZ BR BKN002 OVC008 23/22 Q1012 BECMG TL1400 0600 -DZ FG BKN002 RMK A2990,0,7,0,1000,0,0,1,"BR,DZ,FG"
2026-04-16 10:04:00,SPECI RCMQ 161004Z 32009KT 1600 -DZ BR BKN003 OVC010 23/22 Q1012 BECMG FM1030 TL1400 0600 -DZ FG BKN002 RMK A2989,0,9,0,1600,0,0,1,"BR,DZ,FG"
2026-04-16 10:00:00,METAR RCMQ 161000Z 32009KT 1600 BR BKN003 OVC010 24/22 Q1012 BECMG FM1030 TL1400 0600 -DZ FG BKN002 RMK A2988,0,9,0,1600,0,0,1,"BR,DZ,FG"
2026-04-16 09:50:00,SPECI RCMQ 160950Z 31008KT 1600 BR BKN003 OVC010 24/22 Q1012 NOSIG RMK A2988,0,8,0,1600,0,0,1,BR
2026-04-16 09:44:00,SPECI RCMQ 160944Z 31007KT 3200 1600NW BR BKN004 BKN010 24/22 Q1012 NOSIG RMK A2988,0,7,0,3200,0,0,1,BR
2026-04-16 09:35:00,SPECI RCMQ 160935Z COR 31007KT 5000 2000NW BR SCT003 BKN006 BKN016 24/22 Q1011 NOSIG RMK A2988 APCH CLD SCT003,0,7,0,5000,0,0,1,BR
2026-04-16 09:30:00,METAR RCMQ 160930Z 31007KT 5000 BR SCT003 BKN010 BKN020 24/22 Q1011 NOSIG RMK A2988 APCH CLD SCT003,0,7,0,5000,0,0,1,BR
2026-04-16 09:18:00,SPECI RCMQ 160918Z COR 31007KT 5000 BR SCT004 BKN010 BKN030 24/22 Q1011 NOSIG RMK A2987 APCH CLD SCT004,0,7,0,5000,0,0,1,BR
2026-04-16 09:00:00,METAR RCMQ 160900Z 31007KT 6000 SCT004 BKN010 BKN030 25/23 Q1011 NOSIG RMK A2987 APCH CLD SCT004,0,7,0,6000,0,0,0,
2026-04-16 08:30:00,METAR RCMQ 160830Z 31005KT 6000 SCT004 BKN010 BKN030 25/23 Q1011 NOSIG RMK A2987 APCH CLD SCT004,0,5,0,6000,0,0,0,
2026-04-16 08:00:00,METAR RCMQ 160800Z 31006KT 6000 SCT004 BKN010 BKN030 26/23 Q1011 NOSIG RMK A2987 APCH CLD SCT004,0,6,0,6000,0,0,0,
2026-04-16 07:40:00,SPECI RCMQ 160740Z 30007KT 6000 SCT004 BKN010 BKN030 25/23 Q1011 NOSIG RMK A2987 APCH CLD SCT004,0,7,0,6000,0,0,0,
2026-04-16 07:30:00,METAR RCMQ 160730Z 31008KT 8000 SCT006 BKN012 BKN030 25/23 Q1011 BECMG BKN010 RMK A2987 APCH CLD SCT006,0,8,0,8000,0,0,0,
2026-04-16 07:00:00,METAR RCMQ 160700Z 31006KT 9999 SCT006 BKN012 BKN030 26/23 Q1011 NOSIG RMK A2987,0,6,0,10000,0,0,0,
2026-04-16 06:30:00,METAR RCMQ 160630Z 32004KT 9999 SCT006 BKN012 BKN030 27/23 Q1011 NOSIG RMK A2987,0,4,0,10000,0,0,0,
2026-04-16 06:00:00,METAR RCMQ 160600Z 31006KT 9999 VCSH SCT006 BKN012 BKN030 26/23 Q1012 NOSIG RMK A2988 VCSH SE-S,0,6,0,10000,0,0,0,"SH,VC"
2026-04-16 05:30:00,METAR RCMQ 160530Z 33005KT 9999 VCSH SCT006 BKN012 BKN030 27/23 Q1012 NOSIG RMK A2989 VCSH SE-S,0,5,0,10000,0,0,0,"SH,VC"
2026-04-16 05:15:00,SPECI RCMQ 160515Z 34005KT 9999 VCSH SCT006 BKN012 BKN030 27/23 Q1012 NOSIG RMK A2989 VCSH SE-S,0,5,0,10000,0,0,0,"SH,VC"
2026-04-16 05:00:00,METAR RCMQ 160500Z COR 33005KT 9999 SCT008 BKN016 BKN040 27/23 Q1012 BECMG BKN015 RMK A2989,0,5,0,10000,0,0,0,
2026-04-16 04:30:00,METAR RCMQ 160430Z 33005KT 9999 SCT008 BKN020 BKN040 27/23 Q1012 NOSIG RMK A2990,0,5,0,10000,0,0,0,
2026-04-16 04:00:00,METAR RCMQ 160400Z 33006KT 9999 FEW008 BKN020 BKN040 28/23 Q1013 NOSIG RMK A2991,0,6,0,10000,0,0,0,
2026-04-16 03:40:00,SPECI RCMQ 160340Z 32006KT 9999 FEW008 BKN020 BKN040 28/23 Q1013 NOSIG RMK A2991,0,6,0,10000,0,0,0,
2026-04-16 03:30:00,METAR RCMQ 160330Z 33007KT 9999 FEW008 BKN014 BKN040 28/23 Q1013 BECMG BKN015 RMK A2991,0,7,0,10000,0,0,0,
2026-04-16 03:00:00,METAR RCMQ 160300Z 34007KT 9999 SCT008 BKN014 BKN040 28/23 Q1012 BECMG BKN015 RMK A2991,0,7,0,10000,0,0,0,
2026-04-16 02:30:00,METAR RCMQ 160230Z 34008KT 9999 SCT006 BKN012 BKN040 27/23 Q1012 NOSIG RMK A2991,0,8,0,10000,0,0,0,
2026-04-16 02:00:00,METAR RCMQ 160200Z 35009KT 9999 SCT006 BKN012 BKN040 27/24 Q1012 NOSIG RMK A2991,0,9,0,10000,0,0,0,
2026-04-16 01:35:00,SPECI RCMQ 160135Z COR 33007KT 9000 SCT006 BKN012 BKN040 27/24 Q1012 NOSIG RMK A2990,0,7,0,9000,0,0,0,
2026-04-16 01:30:00,METAR RCMQ 160130Z 33006KT 9000 FEW006 SCT012 BKN040 27/24 Q1012 BECMG BKN012 RMK A2991,0,6,0,9000,0,0,0,
2026-04-16 01:00:00,METAR RCMQ 160100Z 35005KT 9000 FEW006 SCT012 BKN040 27/24 Q1012 NOSIG RMK A2990,0,5,0,9000,0,0,0,
2026-04-16 00:30:00,METAR RCMQ 160030Z 01006KT 8000 FEW006 SCT010 BKN040 26/24 Q1012 NOSIG RMK A2989,0,6,0,8000,0,0,0,
2026-04-16 00:00:00,METAR RCMQ 160000Z 36006KT 7000 FEW006 SCT010 BKN040 25/24 Q1012 NOSIG RMK A2989,0,6,0,7000,0,0,0,
2026-04-15 23:35:00,SPECI RCMQ 152335Z 01005KT 6000 FEW008 SCT012 BKN040 25/24 Q1012 NOSIG RMK A2989,0,5,0,6000,0,0,0,
2026-04-15 23:30:00,METAR RCMQ 152330Z 01005KT 4800 BR FEW008 SCT016 BKN040 25/23 Q1012 BECMG 5000 BR RMK A2988,0,5,0,4800,0,0,1,BR
2026-04-15 23:00:00,METAR RCMQ 152300Z 35004KT 4000 BR SCT008 BKN016 BKN040 24/23 Q1012 BECMG 5000 BR RMK A2988,0,4,0,4000,0,0,1,BR
2026-04-15 22:30:00,METAR RCMQ 152230Z 01003KT 4000 BR SCT008 BKN016 24/23 Q1011 BECMG 5000 BR RMK A2988,0,3,0,4000,0,0,1,BR
2026-04-15 22:05:00,SPECI RCMQ 152205Z COR 04003KT 4000 BR SCT008 BKN016 24/23 Q1011 BECMG 5000 BR BKN016 RMK A2987,0,3,0,4000,0,0,1,BR
2026-04-15 22:00:00,METAR RCMQ 152200Z 04001KT 4000 BR SCT004 BKN010 24/23 Q1011 NOSIG RMK A2987,0,1,0,4000,0,0,1,BR
2026-04-15 21:30:00,METAR RCMQ 152130Z 36004KT 4000 BR SCT004 BKN010 23/23 Q1011 NOSIG RMK A2987,0,4,0,4000,0,0,1,BR
2026-04-15 21:00:00,METAR RCMQ 152100Z 34002KT 4000 BR SCT004 BKN010 23/22 Q1011 NOSIG RMK A2987,0,2,0,4000,0,0,1,BR
2026-04-15 20:50:00,SPECI RCMQ 152050Z 03002KT 4000 BR SCT004 BKN010 23/22 Q1011 RMK A2987,0,2,0,4000,0,0,1,BR
2026-04-15 20:35:00,SPECI RCMQ 152035Z 04004KT 4000 BR BKN002 BKN008 23/22 Q1011 RMK A2987,0,4,0,4000,0,0,1,BR
2026-04-15 20:30:00,METAR RCMQ 152030Z 04004KT 2800 BR BKN002 BKN008 23/22 Q1011 RMK A2987,0,4,0,2800,0,0,1,BR
2026-04-15 20:00:00,METAR RCMQ 152000Z 02002KT 2400 BR BKN002 BKN008 23/22 Q1011 RMK A2988,0,2,0,2400,0,0,1,BR
2026-04-15 19:00:00,METAR RCMQ 151900Z 33005KT 2400 BR BKN002 BKN008 23/23 Q1012 RMK A2988,0,5,0,2400,0,0,1,BR
2026-04-15 18:00:00,METAR RCMQ 151800Z 01004KT 2400 BR BKN002 BKN008 24/23 Q1012 RMK A2989,0,4,0,2400,0,0,1,BR
2026-04-15 17:00:00,METAR RCMQ 151700Z 36005KT 2400 BR BKN002 BKN008 24/23 Q1013 RMK A2991 RA AMT T,0,5,0,2400,0,0,1,"BR,RA"
2026-04-15 16:50:00,SPECI RCMQ 151650Z 01006KT 2400 BR BKN002 BKN008 24/23 Q1013 RMK A2991,0,6,0,2400,0,0,1,BR
2026-04-15 16:36:00,SPECI RCMQ 151636Z 35007KT 2400 BR BKN004 BKN008 24/23 Q1013 RMK A2992,0,7,0,2400,0,0,1,BR
2026-04-15 16:20:00,SPECI RCMQ 151620Z 35006KT 2400 -RA BR SCT004 BKN008 BKN020 24/23 Q1013 RMK A2992,0,6,0,2400,0,0,1,"-RA,BR"
2026-04-15 16:04:00,SPECI RCMQ 151604Z 35005KT 3200 -RA BR SCT006 BKN010 BKN030 24/23 Q1013 RMK A2993,0,5,0,3200,0,0,1,"-RA,BR"
2026-04-15 16:00:00,METAR RCMQ 151600Z 35005KT 4000 BR SCT006 BKN012 BKN030 24/23 Q1013 RMK A2993,0,5,0,4000,0,0,1,BR
2026-04-15 15:00:00,METAR RCMQ 151500Z 31004KT 4000 BR SCT006 BKN012 BKN030 25/23 Q1013 RMK A2994,0,4,0,4000,0,0,1,BR
2026-04-15 14:00:00,METAR RCMQ 151400Z 00000KT 4000 BR SCT006 BKN012 BKN030 25/23 Q1013 RMK A2993 APCH CLD SCT006,0,0,0,4000,0,0,1,BR
2026-04-15 13:30:00,METAR RCMQ 151330Z 00000KT 4000 BR SCT006 BKN012 BKN030 25/23 Q1013 RMK A2992 APCH CLD SCT006,0,0,0,4000,0,0,1,BR
2026-04-15 13:00:00,METAR RCMQ 151300Z 32001KT 4000 BR SCT006 BKN012 BKN030 25/23 Q1013 RMK A2992 RA AMT T APCH CLD SCT006,0,1,0,4000,0,0,1,"BR,RA"
2026-04-15 12:35:00,SPECI RCMQ 151235Z 28003KT 4000 BR SCT006 BKN012 BKN030 25/23 Q1012 NOSIG RMK A2991 APCH CLD SCT006,0,3,0,4000,0,0,1,BR
2026-04-15 12:30:00,METAR RCMQ 151230Z 29002KT 4000 -RA BR SCT006 BKN012 BKN040 25/23 Q1012 NOSIG RMK A2991 APCH CLD SCT006,0,2,0,4000,0,0,1,"-RA,BR"
2026-04-15 12:00:00,METAR RCMQ 151200Z 29002KT 4000 -RA BR SCT006 BKN012 BKN040 25/23 Q1012 NOSIG RMK A2988 RA AMT T APCH CLD SCT006,0,2,0,4000,0,0,1,"-RA,BR,RA"
2026-04-15 11:54:00,SPECI RCMQ 151154Z 30002KT 4000 -RA BR SCT006 BKN012 BKN040 25/23 Q1012 NOSIG RMK A2989 APCH CLD SCT006,0,2,0,4000,0,0,1,"-RA,BR"
2026-04-15 11:30:00,METAR RCMQ 151130Z 29001KT 4800 BR SCT006 BKN012 BKN040 25/23 Q1011 NOSIG RMK A2987 APCH CLD SCT006,0,1,0,4800,0,0,1,BR
2026-04-15 11:00:00,METAR RCMQ 151100Z 31004KT 4800 BR SCT006 BKN012 BKN040 25/23 Q1011 NOSIG RMK A2986 APCH CLD SCT006,0,4,0,4800,0,0,1,BR
2026-04-15 10:30:00,METAR RCMQ 151030Z 31004KT 4000 BR SCT006 BKN012 BKN040 25/23 Q1010 NOSIG RMK A2985 APCH CLD SCT006,0,4,0,4000,0,0,1,BR
2026-04-15 10:00:00,METAR RCMQ 151000Z 31005KT 4000 BR SCT006 BKN012 BKN040 25/23 Q1010 NOSIG RMK A2984 APCH CLD SCT006,0,5,0,4000,0,0,1,BR
2026-04-15 09:30:00,METAR RCMQ 150930Z 31002KT 4000 BR SCT006 BKN012 BKN040 26/23 Q1010 NOSIG RMK A2983 APCH CLD SCT006,0,2,0,4000,0,0,1,BR
2026-04-15 09:00:00,METAR RCMQ 150900Z 31003KT 4000 VCSH BR SCT006 BKN012 BKN040 26/23 Q1010 NOSIG RMK A2983 APCH CLD SCT006 VCSH NE-E,0,3,0,4000,0,0,1,"BR,SH,VC"
2026-04-15 08:52:00,SPECI RCMQ 150852Z 31004KT 4000 VCSH BR SCT006 BKN012 BKN040 26/23 Q1010 NOSIG RMK A2983 APCH CLD SCT006 VCSH NE-E,0,4,0,4000,0,0,1,"BR,SH,VC"
2026-04-15 08:30:00,METAR RCMQ 150830Z 32004KT 5000 VCSH BR SCT006 BKN012 BKN040 26/23 Q1010 NOSIG RMK A2983 VCSH NE-E,0,4,0,5000,0,0,1,"BR,SH,VC"
2026-04-15 08:12:00,SPECI RCMQ 150812Z 31005KT 5000 VCSH BR SCT006 BKN012 BKN040 26/23 Q1010 BECMG 5000 BR BKN012 RMK A2983 VCSH NE-E,0,5,0,5000,0,0,1,"BR,SH,VC"
2026-04-15 08:00:00,METAR RCMQ 150800Z 30006KT 6000 FEW008 BKN016 BKN040 27/23 Q1010 BECMG BKN014 RMK A2983,0,6,0,6000,0,0,0,
2026-04-15 07:30:00,METAR RCMQ 150730Z 31008KT 7000 FEW008 BKN016 BKN040 27/23 Q1010 NOSIG RMK A2983,0,8,0,7000,0,0,0,
2026-04-15 07:00:00,METAR RCMQ 150700Z 31008KT 9000 SCT008 BKN016 BKN040 27/23 Q1010 BECMG BKN014 RMK A2984,0,8,0,9000,0,0,0,
2026-04-15 06:30:00,METAR RCMQ 150630Z 30010KT 9999 SCT008 BKN016 BKN040 28/23 Q1010 BECMG BKN014 RMK A2984,0,10,0,10000,0,0,0,
2026-04-15 06:00:00,METAR RCMQ 150600Z 29010KT 9999 FEW008 SCT016 BKN040 29/23 Q1010 BECMG BKN014 RMK A2985,0,10,0,10000,0,0,0,
2026-04-15 05:30:00,METAR RCMQ 150530Z 29009KT 9999 FEW012 BKN025 30/24 Q1011 NOSIG RMK A2985,0,9,0,10000,0,0,0,
2026-04-15 05:00:00,METAR RCMQ 150500Z 30008KT 9999 FEW012 BKN025 30/23 Q1011 NOSIG RMK A2985,0,8,0,10000,0,0,0,
2026-04-15 04:30:00,METAR RCMQ 150430Z 29007KT 9999 FEW012 BKN030 30/22 Q1011 NOSIG RMK A2987,0,7,0,10000,0,0,0,
2026-04-15 04:24:00,SPECI RCMQ 150424Z COR 29008KT 9999 FEW012 BKN030 31/22 Q1011 BECMG 30008KT RMK A2987,0,8,0,10000,0,0,0,
2026-04-15 04:00:00,METAR RCMQ 150400Z 25006KT 9999 FEW012 BKN030 30/22 Q1011 NOSIG RMK A2987,0,6,0,10000,0,0,0,
2026-04-15 03:30:00,METAR RCMQ 150330Z 26006KT 9999 FEW012 BKN030 30/22 Q1011 NOSIG RMK A2988,0,6,0,10000,0,0,0,
2026-04-15 03:00:00,METAR RCMQ 150300Z 18004KT 9999 FEW012 SCT020 31/22 Q1012 NOSIG RMK A2989,0,4,0,10000,0,0,0,
2026-04-15 02:30:00,METAR RCMQ 150230Z 22005KT 9999 FEW012 SCT020 30/22 Q1012 NOSIG RMK A2990,0,5,0,10000,0,0,0,
2026-04-15 02:00:00,METAR RCMQ 150200Z 26005KT 9999 FEW012 SCT020 30/22 Q1012 NOSIG RMK A2991,0,5,0,10000,0,0,0,
2026-04-15 01:30:00,METAR RCMQ 150130Z 22005KT 9999 FEW012 SCT020 29/22 Q1012 NOSIG RMK A2991,0,5,0,10000,0,0,0,
2026-04-15 01:00:00,METAR RCMQ 150100Z 27004KT 9999 FEW012 SCT020 28/22 Q1012 NOSIG RMK A2991,0,4,0,10000,0,0,0,
2026-04-15 00:30:00,METAR RCMQ 150030Z 16002KT 9999 FEW012 SCT020 28/22 Q1012 NOSIG RMK A2991,0,2,0,10000,0,0,0,
2026-04-15 00:00:00,METAR RCMQ 150000Z 13004KT 9999 FEW012 SCT060 27/22 Q1012 NOSIG RMK A2990,0,4,0,10000,0,0,0,
2026-04-14 23:30:00,METAR RCMQ 142330Z 16002KT 9999 FEW012 SCT050 26/23 Q1011 NOSIG RMK A2988,0,2,0,10000,0,0,0,
2026-04-14 23:00:00,METAR RCMQ 142300Z 00000KT 9999 FEW012 SCT050 25/23 Q1011 NOSIG RMK A2987,0,0,0,10000,0,0,0,
2026-04-14 22:30:00,METAR RCMQ 142230Z 00000KT 9999 FEW012 SCT050 24/23 Q1011 NOSIG RMK A2986,0,0,0,10000,0,0,0,
2026-04-14 22:00:00,METAR RCMQ 142200Z 00000KT 9999 FEW012 SCT050 24/22 Q1011 NOSIG RMK A2986,0,0,0,10000,0,0,0,
2026-04-14 21:30:00,METAR RCMQ 142130Z 19004KT 9999 FEW012 24/22 Q1011 NOSIG RMK A2985,0,4,0,10000,0,0,0,
2026-04-14 21:00:00,METAR RCMQ 142100Z 20004KT 9999 FEW012 24/22 Q1010 NOSIG RMK A2985,0,4,0,10000,0,0,0,
2026-04-14 20:30:00,METAR RCMQ 142030Z 21004KT 9999 FEW012 24/22 Q1010 RMK A2984,0,4,0,10000,0,0,0,
2026-04-14 20:00:00,METAR RCMQ 142000Z 22003KT 9999 FEW012 24/22 Q1010 RMK A2985,0,3,0,10000,0,0,0,
2026-04-14 19:00:00,METAR RCMQ 141900Z 20007KT 9999 FEW012 24/21 Q1010 RMK A2985,0,7,0,10000,0,0,0,
2026-04-14 18:00:00,METAR RCMQ 141800Z 21006KT 9999 FEW012 24/21 Q1011 RMK A2986,0,6,0,10000,0,0,0,
2026-04-14 17:00:00,METAR RCMQ 141700Z 19007KT 9999 FEW012 25/22 Q1011 RMK A2988,0,7,0,10000,0,0,0,
2026-04-14 16:00:00,METAR RCMQ 141600Z 19008KT 9999 FEW012 SCT025 25/22 Q1012 RMK A2989,0,8,0,10000,0,0,0,
2026-04-14 15:00:00,METAR RCMQ 141500Z 20006KT 9999 FEW012 SCT025 26/22 Q1012 RMK A2989,0,6,0,10000,0,0,0,
2026-04-14 14:00:00,METAR RCMQ 141400Z 19005KT 9999 FEW012 SCT025 25/22 Q1012 RMK A2989,0,5,0,10000,0,0,0,
2026-04-14 13:30:00,METAR RCMQ 141330Z 21007KT 9999 FEW012 BKN025 26/22 Q1012 RMK A2989,0,7,0,10000,0,0,0,
2026-04-14 13:00:00,METAR RCMQ 141300Z 22008KT 9999 FEW012 BKN025 26/22 Q1012 NOSIG RMK A2989,0,8,0,10000,0,0,0,
2026-04-14 12:30:00,METAR RCMQ 141230Z 24008KT 9999 FEW012 BKN025 26/23 Q1012 NOSIG RMK A2988,0,8,0,10000,0,0,0,
2026-04-14 12:00:00,METAR RCMQ 141200Z 25009KT 9999 FEW012 BKN025 26/22 Q1011 NOSIG RMK A2987,0,9,0,10000,0,0,0,
2026-04-14 11:30:00,METAR RCMQ 141130Z 25009KT 9999 FEW012 BKN025 26/22 Q1011 NOSIG RMK A2986,0,9,0,10000,0,0,0,
2026-04-14 11:00:00,METAR RCMQ 141100Z 25009KT 9999 FEW012 SCT025 26/23 Q1011 NOSIG RMK A2986,0,9,0,10000,0,0,0,
2026-04-14 10:30:00,METAR RCMQ 141030Z 25010KT 9999 FEW012 27/21 Q1011 NOSIG RMK A2985,0,10,0,10000,0,0,0,
2026-04-14 10:00:00,METAR RCMQ 141000Z 25009KT 9999 FEW012 27/21 Q1010 NOSIG RMK A2985,0,9,0,10000,0,0,0,
2026-04-14 09:30:00,METAR RCMQ 140930Z 23012KT 9999 FEW012 27/21 Q1011 NOSIG RMK A2985,0,12,0,10000,0,0,0,
2026-04-14 09:00:00,METAR RCMQ 140900Z 24012KT 9999 FEW012 28/21 Q1010 NOSIG RMK A2985,0,12,0,10000,0,0,0,
2026-04-14 08:30:00,METAR RCMQ 140830Z 24011KT 9999 FEW012 29/22 Q1010 NOSIG RMK A2984,0,11,0,10000,0,0,0,
2026-04-14 08:00:00,METAR RCMQ 140800Z 26011KT 9999 FEW012 29/22 Q1010 NOSIG RMK A2985,0,11,0,10000,0,0,0,
2026-04-14 07:30:00,METAR RCMQ 140730Z 26012KT 9999 FEW012 SCT030 30/22 Q1010 NOSIG RMK A2985,0,12,0,10000,0,0,0,
2026-04-14 07:00:00,METAR RCMQ 140700Z 23012KT 9999 FEW012 SCT030 31/21 Q1011 NOSIG RMK A2985,0,12,0,10000,0,0,0,
2026-04-14 06:30:00,METAR RCMQ 140630Z 23010KT 9999 FEW012 SCT030 32/21 Q1011 NOSIG RMK A2988,0,10,0,10000,0,0,0,
2026-04-14 06:00:00,METAR RCMQ 140600Z 23011KT 9999 FEW012 SCT030 32/21 Q1011 NOSIG RMK A2988,0,11,0,10000,0,0,0,
2026-04-14 05:30:00,METAR RCMQ 140530Z 24012KT 9999 FEW012 SCT030 32/22 Q1012 NOSIG RMK A2988,0,12,0,10000,0,0,0,
2026-04-14 05:00:00,METAR RCMQ 140500Z 23011KT 9999 FEW012 SCT030 32/21 Q1012 NOSIG RMK A2990,0,11,0,10000,0,0,0,
2026-04-14 04:30:00,METAR RCMQ 140430Z 24009KT 9999 FEW012 SCT030 30/21 Q1013 NOSIG RMK A2991,0,9,0,10000,0,0,0,
2026-04-14 04:00:00,METAR RCMQ 140400Z 22011KT 9999 FEW012 SCT030 32/20 Q1013 NOSIG RMK A2992,0,11,0,10000,0,0,0,
2026-04-14 03:30:00,METAR RCMQ 140330Z 22011KT 9999 FEW012 SCT030 32/21 Q1013 NOSIG RMK A2993,0,11,0,10000,0,0,0,
2026-04-14 03:00:00,METAR RCMQ 140300Z 23010KT 9999 FEW012 SCT030 31/20 Q1014 NOSIG RMK A2995,0,10,0,10000,0,0,0,
2026-04-14 02:30:00,METAR RCMQ 140230Z 22010KT 9999 FEW012 SCT030 31/21 Q1014 NOSIG RMK A2996,0,10,0,10000,0,0,0,
2026-04-14 02:00:00,METAR RCMQ 140200Z 22011KT 9999 FEW012 SCT030 30/21 Q1014 NOSIG RMK A2996,0,11,0,10000,0,0,0,
2026-04-14 01:30:00,METAR RCMQ 140130Z 19008KT 9999 FEW012 30/22 Q1014 NOSIG RMK A2996,0,8,0,10000,0,0,0,
2026-04-14 01:00:00,METAR RCMQ 140100Z 20009KT 9999 FEW012 28/22 Q1014 NOSIG RMK A2996,0,9,0,10000,0,0,0,
2026-04-14 00:30:00,METAR RCMQ 140030Z 18010KT 9999 FEW012 27/22 Q1014 NOSIG RMK A2995,0,10,0,10000,0,0,0,
2026-04-14 00:00:00,METAR RCMQ 140000Z 18009KT 9999 FEW012 26/22 Q1014 NOSIG RMK A2995,0,9,0,10000,0,0,0,
2026-04-13 23:30:00,METAR RCMQ 132330Z 18009KT 8000 FEW012 25/23 Q1014 NOSIG RMK A2994,0,9,0,8000,0,0,0,
2026-04-13 23:00:00,METAR RCMQ 132300Z 18008KT 8000 FEW012 24/22 Q1013 NOSIG RMK A2994,0,8,0,8000,0,0,0,
2026-04-13 22:30:00,METAR RCMQ 132230Z 18006KT 7000 FEW012 24/22 Q1013 NOSIG RMK A2993,0,6,0,7000,0,0,0,
2026-04-13 22:00:00,METAR RCMQ 132200Z 18007KT 6000 FEW012 23/22 Q1013 NOSIG RMK A2992,0,7,0,6000,0,0,0,
2026-04-13 21:30:00,METAR RCMQ 132130Z 17006KT 7000 FEW012 23/22 Q1013 NOSIG RMK A2992,0,6,0,7000,0,0,0,
2026-04-13 21:00:00,METAR RCMQ 132100Z 16006KT 8000 FEW012 23/22 Q1013 NOSIG RMK A2993,0,6,0,8000,0,0,0,
2026-04-13 20:30:00,METAR RCMQ 132030Z 16006KT 7000 FEW012 23/22 Q1013 RMK A2992,0,6,0,7000,0,0,0,
2026-04-13 20:00:00,METAR RCMQ 132000Z 16004KT 7000 FEW012 23/22 Q1013 RMK A2992,0,4,0,7000,0,0,0,
2026-04-13 19:00:00,METAR RCMQ 131900Z 18005KT 8000 FEW012 23/22 Q1013 RMK A2992,0,5,0,8000,0,0,0,
2026-04-13 18:00:00,METAR RCMQ 131800Z 19008KT 8000 FEW012 24/22 Q1013 RMK A2992,0,8,0,8000,0,0,0,
2026-04-13 17:00:00,METAR RCMQ 131700Z 18009KT 9000 FEW012 24/23 Q1013 RMK A2993,0,9,0,9000,0,0,0,
2026-04-13 16:00:00,METAR RCMQ 131600Z 17008KT 9999 FEW012 24/23 Q1014 RMK A2995,0,8,0,10000,0,0,0,
2026-04-13 15:00:00,METAR RCMQ 131500Z 20006KT 9999 FEW012 SCT100 24/22 Q1014 RMK A2996,0,6,0,10000,0,0,0,
2026-04-13 14:00:00,METAR RCMQ 131400Z 21005KT 9999 FEW012 SCT100 24/22 Q1014 RMK A2996,0,5,0,10000,0,0,0,
2026-04-13 13:30:00,METAR RCMQ 131330Z 22007KT 9999 FEW012 25/21 Q1014 RMK A2996,0,7,0,10000,0,0,0,
2026-04-13 13:00:00,METAR RCMQ 131300Z 21010KT 9999 FEW012 25/22 Q1014 RMK A2995,0,10,0,10000,0,0,0,
2026-04-13 12:30:00,METAR RCMQ 131230Z 21009KT 9999 FEW012 25/22 Q1014 NOSIG RMK A2994,0,9,0,10000,0,0,0,
2026-04-13 12:00:00,METAR RCMQ 131200Z 18006KT 9999 FEW012 25/22 Q1013 NOSIG RMK A2994,0,6,0,10000,0,0,0,
2026-04-13 11:30:00,METAR RCMQ 131130Z 20004KT 9999 FEW012 25/22 Q1013 NOSIG RMK A2993,0,4,0,10000,0,0,0,
2026-04-13 11:00:00,METAR RCMQ 131100Z 25008KT 9999 FEW012 26/22 Q1013 NOSIG RMK A2991,0,8,0,10000,0,0,0,
2026-04-13 10:30:00,METAR RCMQ 131030Z 24009KT 9999 FEW012 26/22 Q1012 NOSIG RMK A2990,0,9,0,10000,0,0,0,
2026-04-13 10:00:00,METAR RCMQ 131000Z 26007KT 9999 FEW012 27/22 Q1012 NOSIG RMK A2989,0,7,0,10000,0,0,0,
2026-04-13 09:30:00,METAR RCMQ 130930Z 25007KT 9999 FEW012 27/22 Q1012 NOSIG RMK A2988,0,7,0,10000,0,0,0,
2026-04-13 09:00:00,METAR RCMQ 130900Z 24009KT 9999 FEW012 28/22 Q1012 NOSIG RMK A2988,0,9,0,10000,0,0,0,
2026-04-13 08:30:00,METAR RCMQ 130830Z 26008KT 9999 FEW012 29/22 Q1012 NOSIG RMK A2988,0,8,0,10000,0,0,0,
2026-04-13 08:00:00,METAR RCMQ 130800Z 26010KT 9999 FEW012 29/21 Q1011 NOSIG RMK A2988,0,10,0,10000,0,0,0,
2026-04-13 07:30:00,METAR RCMQ 130730Z 26010KT 9999 FEW012 30/22 Q1012 NOSIG RMK A2988,0,10,0,10000,0,0,0,
2026-04-13 07:00:00,METAR RCMQ 130700Z 26011KT 9999 FEW012 31/22 Q1012 NOSIG RMK A2988,0,11,0,10000,0,0,0,
2026-04-13 06:30:00,METAR RCMQ 130630Z 26009KT 9999 FEW012 30/22 Q1012 NOSIG RMK A2988,0,9,0,10000,0,0,0,
2026-04-13 06:00:00,METAR RCMQ 130600Z 26010KT 9999 FEW012 30/22 Q1012 NOSIG RMK A2989,0,10,0,10000,0,0,0,
2026-04-13 05:30:00,METAR RCMQ 130530Z 26010KT 9999 FEW012 31/22 Q1012 NOSIG RMK A2990,0,10,0,10000,0,0,0,
2026-04-13 05:00:00,METAR RCMQ 130500Z 27011KT 9999 FEW012 31/22 Q1013 NOSIG RMK A2992,0,11,0,10000,0,0,0,
2026-04-13 04:30:00,METAR RCMQ 130430Z 26010KT 9999 FEW012 31/22 Q1013 NOSIG RMK A2993,0,10,0,10000,0,0,0,
2026-04-13 04:00:00,METAR RCMQ 130400Z 24009KT 9999 FEW012 31/22 Q1013 NOSIG RMK A2994,0,9,0,10000,0,0,0,
2026-04-13 03:30:00,METAR RCMQ 130330Z 25009KT 9999 FEW012 31/21 Q1014 NOSIG RMK A2995,0,9,0,10000,0,0,0,
2026-04-13 03:00:00,METAR RCMQ 130300Z 24008KT 9999 FEW012 31/21 Q1014 NOSIG RMK A2996,0,8,0,10000,0,0,0,
2026-04-13 02:30:00,METAR RCMQ 130230Z 25008KT 9999 FEW012 31/21 Q1014 NOSIG RMK A2997,0,8,0,10000,0,0,0,
2026-04-13 02:00:00,METAR RCMQ 130200Z 24008KT 9999 FEW012 30/20 Q1015 NOSIG RMK A2997,0,8,0,10000,0,0,0,
2026-04-13 01:30:00,METAR RCMQ 130130Z 18007KT 9999 FEW012 30/21 Q1015 NOSIG RMK A2997,0,7,0,10000,0,0,0,
2026-04-13 01:00:00,METAR RCMQ 130100Z 18008KT 9999 FEW012 29/22 Q1015 NOSIG RMK A2997,0,8,0,10000,0,0,0,
2026-04-13 00:30:00,METAR RCMQ 130030Z 17009KT 9999 FEW012 28/22 Q1014 NOSIG RMK A2996,0,9,0,10000,0,0,0,
2026-04-13 00:00:00,METAR RCMQ 130000Z 17008KT 9999 FEW012 26/22 Q1014 NOSIG RMK A2996,0,8,0,10000,0,0,0,
2026-04-12 23:30:00,METAR RCMQ 122330Z 20004KT 9999 FEW012 26/23 Q1014 NOSIG RMK A2995,0,4,0,10000,0,0,0,
2026-04-12 23:00:00,METAR RCMQ 122300Z 19004KT 9999 FEW012 25/23 Q1014 NOSIG RMK A2994,0,4,0,10000,0,0,0,
2026-04-12 22:30:00,METAR RCMQ 122230Z 18005KT 9999 FEW012 24/22 Q1013 NOSIG RMK A2993,0,5,0,10000,0,0,0,
2026-04-12 22:00:00,METAR RCMQ 122200Z 19006KT 9999 FEW012 23/22 Q1013 NOSIG RMK A2992,0,6,0,10000,0,0,0,
2026-04-12 21:30:00,METAR RCMQ 122130Z 20003KT 9999 FEW012 23/21 Q1013 NOSIG RMK A2991,0,3,0,10000,0,0,0,
2026-04-12 21:00:00,METAR RCMQ 122100Z 22005KT 9999 FEW012 23/22 Q1012 NOSIG RMK A2990,0,5,0,10000,0,0,0,
2026-04-12 20:30:00,METAR RCMQ 122030Z 22003KT 9999 FEW012 22/21 Q1012 RMK A2990,0,3,0,10000,0,0,0,
2026-04-12 20:00:00,METAR RCMQ 122000Z 21001KT 9999 FEW012 23/21 Q1012 RMK A2989,0,1,0,10000,0,0,0,
2026-04-12 19:00:00,METAR RCMQ 121900Z 20005KT 9999 FEW012 23/21 Q1012 RMK A2989,0,5,0,10000,0,0,0,
2026-04-12 18:00:00,METAR RCMQ 121800Z 24002KT 9999 FEW012 24/21 Q1012 RMK A2989,0,2,0,10000,0,0,0,
2026-04-12 17:00:00,METAR RCMQ 121700Z 20008KT 9999 FEW012 24/22 Q1012 RMK A2989,0,8,0,10000,0,0,0,
2026-04-12 16:00:00,METAR RCMQ 121600Z 17010KT 9999 FEW012 25/22 Q1012 RMK A2990,0,10,0,10000,0,0,0,
2026-04-12 15:00:00,METAR RCMQ 121500Z 19007KT 9999 FEW012 SCT040 24/22 Q1013 RMK A2992,0,7,0,10000,0,0,0,
2026-04-12 14:00:00,METAR RCMQ 121400Z 20006KT 9999 FEW012 SCT040 25/22 Q1013 RMK A2992,0,6,0,10000,0,0,0,
2026-04-12 13:30:00,METAR RCMQ 121330Z 20006KT 9999 FEW012 SCT040 25/22 Q1013 RMK A2992,0,6,0,10000,0,0,0,
2026-04-12 13:00:00,METAR RCMQ 121300Z 22006KT 9999 FEW012 SCT040 25/22 Q1013 NOSIG RMK A2991,0,6,0,10000,0,0,0,
2026-04-12 12:30:00,METAR RCMQ 121230Z 20007KT 9999 FEW012 25/22 Q1012 NOSIG RMK A2989,0,7,0,10000,0,0,0,
2026-04-12 12:00:00,METAR RCMQ 121200Z 22007KT 9999 FEW012 26/22 Q1012 NOSIG RMK A2988,0,7,0,10000,0,0,0,
2026-04-12 11:30:00,METAR RCMQ 121130Z 22006KT 9999 FEW012 26/22 Q1011 NOSIG RMK A2988,0,6,0,10000,0,0,0,
2026-04-12 11:00:00,METAR RCMQ 121100Z 24007KT 9999 FEW012 26/22 Q1011 NOSIG RMK A2987,0,7,0,10000,0,0,0,
2026-04-12 10:30:00,METAR RCMQ 121030Z 25007KT 9999 FEW012 27/22 Q1011 NOSIG RMK A2986,0,7,0,10000,0,0,0,
2026-04-12 10:00:00,METAR RCMQ 121000Z 24009KT 9999 FEW012 27/22 Q1011 NOSIG RMK A2985,0,9,0,10000,0,0,0,
2026-04-12 09:30:00,METAR RCMQ 120930Z 24009KT 9999 FEW012 27/21 Q1011 NOSIG RMK A2987,0,9,0,10000,0,0,0,
2026-04-12 09:00:00,METAR RCMQ 120900Z 23011KT 9999 FEW012 SCT025 28/21 Q1011 NOSIG RMK A2986,0,11,0,10000,0,0,0,
2026-04-12 08:30:00,METAR RCMQ 120830Z 23012KT 9999 FEW012 SCT025 29/21 Q1011 NOSIG RMK A2985,0,12,0,10000,0,0,0,
2026-04-12 08:00:00,METAR RCMQ 120800Z 25012KT 9999 FEW012 29/21 Q1010 NOSIG RMK A2985,0,12,0,10000,0,0,0,
2026-04-12 07:30:00,METAR RCMQ 120730Z 26012KT 9999 FEW012 30/22 Q1010 NOSIG RMK A2985,0,12,0,10000,0,0,0,
2026-04-12 07:00:00,METAR RCMQ 120700Z 27013KT 9999 FEW012 30/22 Q1010 NOSIG RMK A2984,0,13,0,10000,0,0,0,
2026-04-12 06:30:00,METAR RCMQ 120630Z 24012KT 9999 FEW012 31/23 Q1010 NOSIG RMK A2984,0,12,0,10000,0,0,0,
2026-04-12 06:00:00,METAR RCMQ 120600Z 25012KT 9999 FEW012 SCT030 31/23 Q1010 NOSIG RMK A2984,0,12,0,10000,0,0,0,
2026-04-12 05:30:00,METAR RCMQ 120530Z 24013KT 9999 FEW012 SCT030 32/23 Q1011 NOSIG RMK A2985,0,13,0,10000,0,0,0,
2026-04-12 05:00:00,METAR RCMQ 120500Z 24011KT 9999 FEW012 SCT030 32/23 Q1011 NOSIG RMK A2986,0,11,0,10000,0,0,0,
2026-04-12 04:30:00,METAR RCMQ 120430Z 23014KT 9999 FEW012 SCT030 32/22 Q1011 NOSIG RMK A2987,0,14,0,10000,0,0,0,
2026-04-12 04:00:00,METAR RCMQ 120400Z 21008KT 9999 FEW012 SCT030 32/21 Q1012 NOSIG RMK A2988,0,8,0,10000,0,0,0,
2026-04-12 03:30:00,METAR RCMQ 120330Z 19013KT 9999 FEW012 32/21 Q1012 NOSIG RMK A2989,0,13,0,10000,0,0,0,
2026-04-12 03:00:00,METAR RCMQ 120300Z 20012KT 9999 FEW010 31/21 Q1012 NOSIG RMK A2990,0,12,0,10000,0,0,0,
2026-04-12 02:30:00,METAR RCMQ 120230Z 20013KT 9999 FEW010 31/21 Q1012 NOSIG RMK A2990,0,13,0,10000,0,0,0,
2026-04-12 02:00:00,METAR RCMQ 120200Z 19012KT 9999 FEW010 30/21 Q1013 NOSIG RMK A2991,0,12,0,10000,0,0,0,
2026-04-12 01:30:00,METAR RCMQ 120130Z 19012KT 9999 FEW010 29/21 Q1013 NOSIG RMK A2991,0,12,0,10000,0,0,0,
2026-04-12 01:00:00,METAR RCMQ 120100Z 20012KT 9999 FEW010 28/22 Q1013 NOSIG RMK A2992,0,12,0,10000,0,0,0,
2026-04-12 00:30:00,METAR RCMQ 120030Z 18012KT 9000 FEW010 27/22 Q1013 NOSIG RMK A2992,0,12,0,9000,0,0,0,
2026-04-12 00:00:00,METAR RCMQ 120000Z 19010KT 8000 FEW010 26/23 Q1013 NOSIG RMK A2991,0,10,0,8000,0,0,0,
2026-04-11 23:30:00,METAR RCMQ 112330Z 18009KT 8000 FEW010 26/23 Q1012 NOSIG RMK A2991,0,9,0,8000,0,0,0,
2026-04-11 23:00:00,METAR RCMQ 112300Z 19011KT 8000 FEW010 25/23 Q1012 NOSIG RMK A2989,0,11,0,8000,0,0,0,
2026-04-11 22:30:00,METAR RCMQ 112230Z 19011KT 8000 4000SW SCT010 25/23 Q1011 NOSIG RMK A2988,0,11,0,8000,0,0,0,
2026-04-11 22:00:00,METAR RCMQ 112200Z 20011KT 8000 4000SW SCT010 24/23 Q1011 NOSIG RMK A2988,0,11,0,8000,0,0,0,
2026-04-11 21:30:00,METAR RCMQ 112130Z 19009KT 8000 FEW010 SCT020 24/23 Q1011 NOSIG RMK A2986,0,9,0,8000,0,0,0,
2026-04-11 21:00:00,METAR RCMQ 112100Z 20008KT 9999 FEW010 SCT020 24/22 Q1011 NOSIG RMK A2986,0,8,0,10000,0,0,0,
2026-04-11 20:30:00,METAR RCMQ 112030Z 20008KT 9999 FEW010 SCT020 24/22 Q1011 RMK A2985,0,8,0,10000,0,0,0,
2026-04-11 20:00:00,METAR RCMQ 112000Z 21009KT 9999 FEW010 SCT020 24/22 Q1011 RMK A2986,0,9,0,10000,0,0,0,
2026-04-11 19:00:00,METAR RCMQ 111900Z 23009KT 9999 FEW010 SCT020 25/23 Q1011 RMK A2986,0,9,0,10000,0,0,0,
2026-04-11 18:00:00,METAR RCMQ 111800Z 23009KT 9999 FEW010 SCT020 25/23 Q1011 RMK A2987,0,9,0,10000,0,0,0,
2026-04-11 17:00:00,METAR RCMQ 111700Z 22008KT 9999 FEW010 SCT020 25/23 Q1011 RMK A2987,0,8,0,10000,0,0,0,
2026-04-11 16:00:00,METAR RCMQ 111600Z 21008KT 9999 FEW010 SCT020 26/23 Q1011 RMK A2988,0,8,0,10000,0,0,0,
2026-04-11 15:00:00,METAR RCMQ 111500Z 20007KT 9999 FEW010 SCT030 25/24 Q1012 RMK A2989,0,7,0,10000,0,0,0,
2026-04-11 14:00:00,METAR RCMQ 111400Z 20006KT 9999 FEW010 SCT030 25/23 Q1012 RMK A2990,0,6,0,10000,0,0,0,
2026-04-11 13:30:00,METAR RCMQ 111330Z 20004KT 9999 FEW010 SCT030 25/23 Q1012 RMK A2990,0,4,0,10000,0,0,0,
2026-04-11 13:00:00,METAR RCMQ 111300Z 21005KT 9999 FEW010 SCT030 25/23 Q1012 RMK A2989,0,5,0,10000,0,0,0,
2026-04-11 12:30:00,METAR RCMQ 111230Z 24007KT 9999 FEW010 SCT030 26/24 Q1011 NOSIG RMK A2988,0,7,0,10000,0,0,0,
2026-04-11 12:00:00,METAR RCMQ 111200Z 24008KT 9999 FEW010 SCT030 26/24 Q1011 NOSIG RMK A2987,0,8,0,10000,0,0,0,
2026-04-11 11:30:00,METAR RCMQ 111130Z 25009KT 9999 FEW010 SCT030 26/24 Q1011 NOSIG RMK A2986,0,9,0,10000,0,0,0,
2026-04-11 11:00:00,METAR RCMQ 111100Z 25009KT 9999 FEW010 SCT030 26/23 Q1011 NOSIG RMK A2985,0,9,0,10000,0,0,0,
2026-04-11 10:30:00,METAR RCMQ 111030Z 24009KT 9999 FEW010 SCT030 26/23 Q1010 NOSIG RMK A2984,0,9,0,10000,0,0,0,
2026-04-11 10:00:00,METAR RCMQ 111000Z 24009KT 9999 FEW010 SCT030 27/23 Q1010 NOSIG RMK A2983,0,9,0,10000,0,0,0,
2026-04-11 09:30:00,METAR RCMQ 110930Z 24011KT 9999 FEW010 SCT030 27/22 Q1010 NOSIG RMK A2984,0,11,0,10000,0,0,0,
2026-04-11 09:00:00,METAR RCMQ 110900Z 24012KT 9999 FEW010 SCT030 28/22 Q1010 NOSIG RMK A2983,0,12,0,10000,0,0,0,
2026-04-11 08:30:00,METAR RCMQ 110830Z 25012KT 9999 FEW010 SCT025 29/22 Q1010 WS RWY 18 NOSIG RMK A2983,0,12,0,9999,0,0,0,
2026-04-11 08:00:00,METAR RCMQ 110800Z 25015KT 9999 FEW010 SCT025 29/22 Q1010 NOSIG RMK A2983,0,15,0,10000,0,0,0,
2026-04-11 07:30:00,METAR RCMQ 110730Z 25013KT 9999 FEW010 SCT025 30/22 Q1010 NOSIG RMK A2984,0,13,0,10000,0,0,0,
2026-04-11 07:00:00,METAR RCMQ 110700Z 26011KT 9999 FEW010 SCT025 30/23 Q1010 NOSIG RMK A2985,0,11,0,10000,0,0,0,
2026-04-11 06:30:00,METAR RCMQ 110630Z 26013KT 9999 FEW010 SCT030 30/23 Q1011 NOSIG RMK A2985,0,13,0,10000,0,0,0,
2026-04-11 06:00:00,METAR RCMQ 110600Z 26011KT 9999 FEW010 SCT030 30/23 Q1011 NOSIG RMK A2986,0,11,0,10000,0,0,0,
2026-04-11 05:30:00,METAR RCMQ 110530Z 25011KT 9999 FEW012 SCT100 31/23 Q1011 NOSIG RMK A2986,0,11,0,10000,0,0,0,
2026-04-11 05:00:00,METAR RCMQ 110500Z 26011KT 9999 FEW012 SCT100 31/22 Q1011 NOSIG RMK A2987,0,11,0,10000,0,0,0,
2026-04-11 04:30:00,METAR RCMQ 110430Z 21011KT 9999 FEW012 SCT100 32/19 Q1011 NOSIG RMK A2988,0,11,0,10000,0,0,0,
2026-04-11 04:00:00,METAR RCMQ 110400Z 21009KT 9999 FEW012 SCT100 32/19 Q1012 NOSIG RMK A2988,0,9,0,10000,0,0,0,
2026-04-11 03:30:00,METAR RCMQ 110330Z 20010KT 9999 FEW012 SCT100 32/18 Q1012 NOSIG RMK A2990,0,10,0,10000,0,0,0,
2026-04-11 03:00:00,METAR RCMQ 110300Z 19009KT 9999 FEW012 SCT100 32/18 Q1012 NOSIG RMK A2990,0,9,0,10000,0,0,0,
2026-04-11 02:30:00,METAR RCMQ 110230Z 17008KT 9999 FEW012 SCT100 30/18 Q1013 NOSIG RMK A2991,0,8,0,10000,0,0,0,
2026-04-11 02:00:00,METAR RCMQ 110200Z 18007KT 9999 FEW012 SCT100 31/20 Q1013 NOSIG RMK A2991,0,7,0,10000,0,0,0,
2026-04-11 01:30:00,METAR RCMQ 110130Z 19007KT 9999 FEW012 SCT100 30/20 Q1013 NOSIG RMK A2992,0,7,0,10000,0,0,0,
2026-04-11 01:00:00,METAR RCMQ 110100Z 17007KT 9999 FEW012 SCT100 28/21 Q1013 NOSIG RMK A2991,0,7,0,10000,0,0,0,
2026-04-11 00:30:00,METAR RCMQ 110030Z 17005KT 9999 FEW012 SCT100 28/21 Q1013 NOSIG RMK A2991,0,5,0,10000,0,0,0,
2026-04-11 00:00:00,METAR RCMQ 110000Z 15004KT 9999 FEW012 SCT100 26/21 Q1012 NOSIG RMK A2991,0,4,0,10000,0,0,0,
2026-04-10 23:30:00,METAR RCMQ 102330Z 16005KT 9999 FEW012 SCT100 25/21 Q1012 NOSIG RMK A2990,0,5,0,10000,0,0,0,
2026-04-10 23:00:00,METAR RCMQ 102300Z 14004KT 9999 FEW012 SCT100 24/21 Q1012 NOSIG RMK A2990,0,4,0,10000,0,0,0,
2026-04-10 22:30:00,METAR RCMQ 102230Z 19005KT 9999 FEW012 SCT100 23/21 Q1012 NOSIG RMK A2989,0,5,0,10000,0,0,0,
2026-04-10 22:00:00,METAR RCMQ 102200Z 18009KT 9999 FEW012 BKN100 23/20 Q1011 NOSIG RMK A2987,0,9,0,10000,0,0,0,
2026-04-10 21:30:00,METAR RCMQ 102130Z 18007KT 9999 FEW012 BKN080 23/20 Q1011 NOSIG RMK A2987,0,7,0,10000,0,0,0,
2026-04-10 21:00:00,METAR RCMQ 102100Z 19007KT 9999 FEW012 BKN080 23/20 Q1011 NOSIG RMK A2986,0,7,0,10000,0,0,0,
2026-04-10 20:30:00,METAR RCMQ 102030Z 18007KT 9999 FEW012 BKN080 23/20 Q1011 RMK A2986,0,7,0,10000,0,0,0,
2026-04-10 20:00:00,METAR RCMQ 102000Z 18008KT 9999 FEW012 BKN080 23/20 Q1011 RMK A2985,0,8,0,10000,0,0,0,
2026-04-10 19:00:00,METAR RCMQ 101900Z 18008KT 9999 FEW012 SCT080 23/20 Q1011 RMK A2986,0,8,0,10000,0,0,0,
2026-04-10 18:00:00,METAR RCMQ 101800Z 17007KT 9999 FEW012 SCT080 23/21 Q1011 RMK A2987,0,7,0,10000,0,0,0,
2026-04-10 17:00:00,METAR RCMQ 101700Z 16007KT 9999 FEW012 SCT080 24/21 Q1012 RMK A2989,0,7,0,10000,0,0,0,
2026-04-10 16:00:00,METAR RCMQ 101600Z 18006KT 9999 FEW012 SCT080 24/21 Q1013 RMK A2991,0,6,0,10000,0,0,0,
2026-04-10 15:00:00,METAR RCMQ 101500Z 18009KT 9999 FEW012 SCT100 24/21 Q1013 RMK A2991,0,9,0,10000,0,0,0,
2026-04-10 14:00:00,METAR RCMQ 101400Z 17009KT 9999 FEW012 SCT100 24/21 Q1013 NOSIG RMK A2991,0,9,0,10000,0,0,0,
2026-04-10 13:30:00,METAR RCMQ 101330Z 19009KT 9999 FEW012 SCT100 25/21 Q1013 NOSIG RMK A2991,0,9,0,10000,0,0,0,
2026-04-10 13:00:00,METAR RCMQ 101300Z 20009KT 9999 FEW012 SCT100 24/21 Q1012 NOSIG RMK A2990,0,9,0,10000,0,0,0,
2026-04-10 12:30:00,METAR RCMQ 101230Z 20008KT 9999 FEW012 SCT100 25/21 Q1012 NOSIG RMK A2988,0,8,0,10000,0,0,0,
2026-04-10 12:00:00,METAR RCMQ 101200Z 21010KT 9999 FEW012 SCT100 25/20 Q1011 NOSIG RMK A2987,0,10,0,10000,0,0,0,
2026-04-10 11:30:00,METAR RCMQ 101130Z 21009KT 9999 FEW012 SCT080 25/21 Q1011 NOSIG RMK A2986,0,9,0,10000,0,0,0,
2026-04-10 11:00:00,METAR RCMQ 101100Z 21007KT 9999 FEW012 SCT080 25/22 Q1010 NOSIG RMK A2985,0,7,0,10000,0,0,0,
2026-04-10 10:30:00,METAR RCMQ 101030Z 20006KT 9999 FEW012 SCT080 26/21 Q1010 NOSIG RMK A2984,0,6,0,10000,0,0,0,
2026-04-10 10:00:00,METAR RCMQ 101000Z 19009KT 9999 FEW012 SCT080 27/22 Q1010 NOSIG RMK A2983,0,9,0,10000,0,0,0,
2026-04-10 09:30:00,METAR RCMQ 100930Z 20010KT 9999 FEW012 SCT080 28/21 Q1010 NOSIG RMK A2983,0,10,0,10000,0,0,0,
2026-04-10 09:00:00,METAR RCMQ 100900Z 21009KT 9999 FEW012 SCT080 29/21 Q1010 NOSIG RMK A2983,0,9,0,10000,0,0,0,
2026-04-10 08:30:00,METAR RCMQ 100830Z 22009KT 9999 FEW012 SCT080 30/21 Q1010 NOSIG RMK A2984,0,9,0,10000,0,0,0,
2026-04-10 08:00:00,METAR RCMQ 100800Z 23010KT 9999 FEW012 SCT080 30/21 Q1010 NOSIG RMK A2984,0,10,0,10000,0,0,0,
2026-04-10 07:30:00,METAR RCMQ 100730Z 22009KT 9999 FEW012 31/21 Q1010 NOSIG RMK A2985,0,9,0,10000,0,0,0,
2026-04-10 07:00:00,METAR RCMQ 100700Z 23009KT 9999 FEW012 31/21 Q1011 NOSIG RMK A2986,0,9,0,10000,0,0,0,
2026-04-10 06:30:00,METAR RCMQ 100630Z 23010KT 9999 FEW012 32/21 Q1011 NOSIG RMK A2986,0,10,0,10000,0,0,0,
2026-04-10 06:00:00,METAR RCMQ 100600Z 23010KT 9999 FEW012 32/20 Q1011 NOSIG RMK A2987,0,10,0,10000,0,0,0,
2026-04-10 05:30:00,METAR RCMQ 100530Z 23011KT 9999 FEW012 32/20 Q1011 NOSIG RMK A2988,0,11,0,10000,0,0,0,
2026-04-10 05:00:00,METAR RCMQ 100500Z 24010KT 9999 FEW012 32/21 Q1012 NOSIG RMK A2989,0,10,0,10000,0,0,0,
2026-04-10 04:30:00,METAR RCMQ 100430Z 24011KT 9999 FEW012 32/22 Q1012 NOSIG RMK A2989,0,11,0,10000,0,0,0,
2026-04-10 04:00:00,METAR RCMQ 100400Z 23013KT 9999 FEW012 32/21 Q1012 NOSIG RMK A2990,0,13,0,10000,0,0,0,
2026-04-10 03:30:00,METAR RCMQ 100330Z 21010KT 9999 FEW012 33/21 Q1012 NOSIG RMK A2991,0,10,0,10000,0,0,0,
2026-04-10 03:00:00,METAR RCMQ 100300Z 19011KT 9999 FEW012 32/20 Q1013 NOSIG RMK A2991,0,11,0,10000,0,0,0,
2026-04-10 02:30:00,METAR RCMQ 100230Z 19010KT 9999 FEW012 32/21 Q1013 NOSIG RMK A2992,0,10,0,10000,0,0,0,
2026-04-10 02:00:00,METAR RCMQ 100200Z 19014KT 9999 FEW012 30/21 Q1012 NOSIG RMK A2989,0,14,0,10000,0,0,0,
2026-04-10 01:30:00,METAR RCMQ 100130Z 18012KT 9999 FEW012 29/21 Q1013 NOSIG RMK A2992,0,12,0,10000,0,0,0,
2026-04-10 01:00:00,METAR RCMQ 100100Z 18012KT 9999 FEW012 28/21 Q1013 NOSIG RMK A2993,0,12,0,10000,0,0,0,
2026-04-10 00:30:00,METAR RCMQ 100030Z 18010KT 9999 FEW012 27/22 Q1013 NOSIG RMK A2993,0,10,0,10000,0,0,0,
2026-04-10 00:00:00,METAR RCMQ 100000Z 21013KT 9999 FEW012 26/22 Q1013 NOSIG RMK A2993,0,13,0,10000,0,0,0,
2026-04-09 23:30:00,METAR RCMQ 092330Z 19012KT 9000 FEW012 25/22 Q1013 NOSIG RMK A2992,0,12,0,9000,0,0,0,
2026-04-09 23:00:00,METAR RCMQ 092300Z 18009KT 8000 FEW012 24/22 Q1013 NOSIG RMK A2992,0,9,0,8000,0,0,0,
2026-04-09 22:30:00,METAR RCMQ 092230Z 19009KT 8000 FEW008 SCT020 24/22 Q1012 NOSIG RMK A2991,0,9,0,8000,0,0,0,
2026-04-09 22:00:00,METAR RCMQ 092200Z 18012KT 9000 FEW008 SCT020 24/22 Q1012 NOSIG RMK A2989,0,12,0,9000,0,0,0,
2026-04-09 21:30:00,METAR RCMQ 092130Z 17012KT 8000 FEW008 SCT020 24/22 Q1012 NOSIG RMK A2988,0,12,0,8000,0,0,0,
2026-04-09 21:00:00,METAR RCMQ 092100Z 17011KT 8000 FEW008 BKN020 24/22 Q1011 NOSIG RMK A2988,0,11,0,8000,0,0,0,
2026-04-09 20:30:00,METAR RCMQ 092030Z 16009KT 7000 FEW008 BKN020 24/22 Q1011 RMK A2988,0,9,0,7000,0,0,0,
2026-04-09 20:00:00,METAR RCMQ 092000Z 17010KT 7000 FEW008 BKN020 24/23 Q1011 RMK A2987,0,10,0,7000,0,0,0,
2026-04-09 19:00:00,METAR RCMQ 091900Z 18009KT 8000 FEW008 SCT020 24/23 Q1011 RMK A2987,0,9,0,8000,0,0,0,
2026-04-09 18:00:00,METAR RCMQ 091800Z 19010KT 9000 FEW008 BKN020 25/23 Q1011 RMK A2988,0,10,0,9000,0,0,0,
2026-04-09 17:00:00,METAR RCMQ 091700Z 20011KT 9000 FEW008 BKN020 25/23 Q1012 RMK A2988,0,11,0,9000,0,0,0,
2026-04-09 16:00:00,METAR RCMQ 091600Z 21013KT 9999 FEW008 BKN016 25/23 Q1011 RMK A2988,0,13,0,10000,0,0,0,
2026-04-09 15:00:00,METAR RCMQ 091500Z 18011KT 9999 FEW008 SCT016 25/23 Q1011 RMK A2988,0,11,0,10000,0,0,0,
2026-04-09 14:00:00,METAR RCMQ 091400Z 17011KT 9999 FEW008 SCT016 25/24 Q1011 RMK A2988,0,11,0,10000,0,0,0,
2026-04-09 13:30:00,METAR RCMQ 091330Z 18012KT 9999 FEW010 SCT030 25/23 Q1011 RMK A2988,0,12,0,10000,0,0,0,
2026-04-09 13:00:00,METAR RCMQ 091300Z 19010KT 9999 FEW010 SCT030 25/23 Q1011 NOSIG RMK A2988,0,10,0,10000,0,0,0,
2026-04-09 12:30:00,METAR RCMQ 091230Z 19008KT 9999 FEW010 SCT060 25/23 Q1011 NOSIG RMK A2987,0,8,0,10000,0,0,0,
2026-04-09 12:00:00,METAR RCMQ 091200Z 21009KT 9999 FEW010 SCT060 26/23 Q1011 NOSIG RMK A2986,0,9,0,10000,0,0,0,
2026-04-09 11:30:00,METAR RCMQ 091130Z 20007KT 9999 FEW006 SCT030 26/23 Q1010 NOSIG RMK A2985,0,7,0,10000,0,0,0,
2026-04-09 11:00:00,METAR RCMQ 091100Z 19008KT 9999 FEW006 SCT030 26/23 Q1010 NOSIG RMK A2984,0,8,0,10000,0,0,0,
2026-04-09 10:30:00,METAR RCMQ 091030Z 20008KT 9999 FEW006 SCT030 26/23 Q1010 NOSIG RMK A2983,0,8,0,10000,0,0,0,
2026-04-09 10:00:00,METAR RCMQ 091000Z 20011KT 9999 FEW006 SCT030 27/23 Q1010 NOSIG RMK A2983,0,11,0,10000,0,0,0,
2026-04-09 09:30:00,METAR RCMQ 090930Z 21011KT 8000 FEW006 SCT030 28/23 Q1010 NOSIG RMK A2983,0,11,0,8000,0,0,0,
2026-04-09 09:00:00,METAR RCMQ 090900Z 22012KT 8000 SCT006 BKN016 BKN030 29/24 Q1010 NOSIG RMK A2983,0,12,0,8000,0,0,0,
2026-04-09 08:30:00,METAR RCMQ 090830Z 20009KT 6000 FEW006 SCT020 BKN040 29/24 Q1010 BECMG 5000 HZ RMK A2983,0,9,0,6000,0,0,0,
2026-04-09 08:00:00,METAR RCMQ 090800Z 18011KT 6000 FEW006 SCT020 BKN040 30/24 Q1010 BECMG 5000 HZ RMK A2983,0,11,0,6000,0,0,0,
2026-04-09 07:30:00,METAR RCMQ 090730Z 18012KT 6000 FEW006 SCT040 30/24 Q1010 NOSIG RMK A2984,0,12,0,6000,0,0,0,
2026-04-09 07:00:00,METAR RCMQ 090700Z 18012KT 7000 FEW006 SCT020 BKN060 30/24 Q1011 NOSIG RMK A2985,0,12,0,7000,0,0,0,
2026-04-09 06:30:00,METAR RCMQ 090630Z 20013KT 7000 FEW006 SCT020 BKN060 30/23 Q1011 NOSIG RMK A2986,0,13,0,7000,0,0,0,
2026-04-09 06:00:00,METAR RCMQ 090600Z 17014KT 7000 FEW006 SCT016 BKN040 30/24 Q1011 NOSIG RMK A2987,0,14,0,7000,0,0,0,
2026-04-09 05:30:00,METAR RCMQ 090530Z 20013KT 7000 FEW006 SCT016 BKN040 30/24 Q1012 NOSIG RMK A2989,0,13,0,7000,0,0,0,
2026-04-09 05:00:00,METAR RCMQ 090500Z COR 20009KT 6000 SCT006 BKN016 BKN040 29/24 Q1013 BECMG 5000 BR RMK A2991,0,9,0,6000,0,0,1,BR
2026-04-09 04:30:00,METAR RCMQ 090430Z 18010KT 6000 SCT006 BKN016 BKN040 29/24 Q1013 NOSIG RMK A2992,0,10,0,6000,0,0,0,
2026-04-09 04:00:00,METAR RCMQ 090400Z 20012KT 6000 SCT006 BKN016 BKN040 29/24 Q1013 NOSIG RMK A2993,0,12,0,6000,0,0,0,
2026-04-09 03:39:00,SPECI RCMQ 090339Z 21011KT 5000 BR SCT006 BKN016 BKN040 29/25 Q1014 NOSIG RMK A2995,0,11,0,5000,0,0,1,BR
2026-04-09 03:30:00,METAR RCMQ 090330Z 22011KT 4000 BR SCT006 BKN012 BKN030 29/25 Q1014 NOSIG RMK A2995,0,11,0,4000,0,0,1,BR
2026-04-09 03:10:00,SPECI RCMQ 090310Z 21010KT 4000 BR SCT006 BKN012 BKN030 29/25 Q1014 NOSIG RMK A2995,0,10,0,4000,0,0,1,BR
2026-04-09 03:00:00,METAR RCMQ 090300Z 22008KT 5000 BR SCT006 BKN016 BKN030 27/25 Q1014 BECMG 4000 BR BKN012 RMK A2996,0,8,0,5000,0,0,1,BR
2026-04-09 02:30:00,METAR RCMQ 090230Z 23007KT 5000 BR SCT005 BKN020 27/24 Q1014 NOSIG RMK A2996,0,7,0,5000,0,0,1,BR
2026-04-09 02:00:00,METAR RCMQ 090200Z 24006KT 5000 BR SCT005 BKN020 26/24 Q1015 NOSIG RMK A2997,0,6,0,5000,0,0,1,BR
2026-04-09 01:50:00,SPECI RCMQ 090150Z 23006KT 5000 BR SCT005 BKN020 25/24 Q1015 NOSIG RMK A2997,0,6,0,5000,0,0,1,BR
2026-04-09 01:41:00,SPECI RCMQ 090141Z COR 23010KT 4000 BR SCT005 BKN020 25/24 Q1015 BECMG 5000 BR RMK A2997,0,10,0,4000,0,0,1,BR
2026-04-09 01:35:00,SPECI RCMQ 090135Z 23010KT 3200 BR SCT005 BKN020 25/24 Q1015 BECMG 24010KT RMK A2997,0,10,0,3200,0,0,1,BR
2026-04-09 01:30:00,METAR RCMQ 090130Z 25008KT 2400 BR BKN005 BKN020 25/24 Q1015 BECMG 3000 BR RMK A2997,0,8,0,2400,0,0,1,BR
2026-04-09 01:00:00,METAR RCMQ 090100Z 26005KT 2400 BR BKN005 BKN020 24/23 Q1015 BECMG 3000 BR RMK A2997,0,5,0,2400,0,0,1,BR
2026-04-09 00:40:00,SPECI RCMQ 090040Z 00000KT 2400 BR SCT002 BKN005 BKN040 24/24 Q1014 BECMG 3000 BR RMK A2996 APCH CLD SCT002,0,0,0,2400,0,0,1,BR
2026-04-09 00:30:00,METAR RCMQ 090030Z 00000KT 2400 BR SCT002 BKN040 24/24 Q1014 NOSIG RMK A2996 APCH CLD SCT002,0,0,0,2400,0,0,1,BR
2026-04-09 00:25:00,SPECI RCMQ 090025Z 00000KT 2400 BR SCT002 BKN040 24/23 Q1014 BECMG 1600 BR BKN020 RMK A2996 APCH CLD SCT002,0,0,0,2400,0,0,1,BR
2026-04-09 00:04:00,SPECI RCMQ 090004Z 24002KT 1200 R36/1600U BR BKN002 BKN020 23/23 Q1014 BECMG TL0200 0800 FG BKN002 RMK A2996,0,2,0,1200,0,0,1,"BR,FG"
2026-04-09 00:00:00,METAR RCMQ 090000Z 24001KT 0800 R36/0550N FG BKN002 BKN008 23/23 Q1014 BECMG TL0200 0800 FG BKN002 RMK A2996,0,1,0,1287200,0,0,1,FG
2026-04-08 23:52:00,SPECI RCMQ 082352Z COR 00000KT 0800 R36/0550U FG BKN002 BKN008 23/23 Q1014 BECMG TL0200 0800 FG BKN002 RMK A2995,0,0,0,1287200,0,0,1,FG
2026-04-08 23:45:00,SPECI RCMQ 082345Z 26003KT 0300 R36/0300U FG BKN002 OVC008 23/23 Q1014 BECMG TL0200 0200 FG BKN002 RMK A2995,0,3,0,482700,0,0,1,FG
2026-04-08 23:30:00,METAR RCMQ 082330Z 26004KT 0200 R36/0150N FG BKN002 OVC008 23/22 Q1014 BECMG TL0200 0200 FG BKN002 RMK A2995,0,4,0,321800,0,0,1,FG
2026-04-08 23:00:00,METAR RCMQ 082300Z 27004KT 0200 R36/0150N FG BKN002 OVC008 22/22 Q1013 BECMG TL0200 0200 FG BKN002 RMK A2994,0,4,0,321800,0,0,1,FG
2026-04-08 22:30:00,METAR RCMQ 082230Z 28004KT 0200 R36/0150N FG BKN002 OVC008 22/22 Q1013 BECMG TL0200 0200 FG BKN002 RMK A2993,0,4,0,321800,0,0,1,FG
2026-04-08 22:00:00,METAR RCMQ 082200Z 00000KT 0200 R36/0150N FG BKN002 OVC008 22/22 Q1013 BECMG TL2300 0200 FG BKN002 RMK A2992,0,0,0,321800,0,0,1,FG
2026-04-08 21:30:00,METAR RCMQ 082130Z 00000KT 0200 R36/0150N FG BKN002 OVC008 22/22 Q1013 BECMG TL2300 0200 FG BKN002 RMK A2992,0,0,0,321800,0,0,1,FG
2026-04-08 21:00:00,METAR RCMQ 082100Z 09004KT 0200 R36/0150N FG BKN002 OVC008 21/21 Q1013 BECMG TL2300 0200 FG BKN002 RMK A2992,0,4,0,321800,0,0,1,FG
2026-04-08 20:30:00,METAR RCMQ 082030Z 04004KT 0200 R36/0150N FG BKN002 OVC008 21/21 Q1013 RMK A2992,0,4,0,321800,0,0,1,FG
2026-04-08 20:00:00,METAR RCMQ 082000Z 36004KT 0200 R36/0150N FG BKN002 OVC008 21/21 Q1013 RMK A2993,0,4,0,321800,0,0,1,FG
2026-04-08 19:26:00,SPECI RCMQ 081926Z 34004KT 0200 R36/150D FG BKN002 OVC008 21/21 Q1013 RMK A2993,0,4,0,200,0,0,1,FG
2026-04-08 19:00:00,METAR RCMQ 081900Z 33004KT 0800 R36/0600N FG BKN002 OVC008 21/21 Q1013 RMK A2994,0,4,0,1287200,0,0,1,FG
2026-04-08 18:00:00,METAR RCMQ 081800Z 01003KT 0800 R36/0600N FG BKN002 OVC008 21/21 Q1014 RMK A2994,0,3,0,1287200,0,0,1,FG
2026-04-08 17:00:00,METAR RCMQ 081700Z 34004KT 0800 R36/0600N FG BKN002 OVC008 22/22 Q1014 RMK A2996,0,4,0,1287200,0,0,1,FG
2026-04-08 16:00:00,METAR RCMQ 081600Z 33005KT 0800 R36/0600N FG BKN002 OVC008 22/21 Q1015 RMK A2998,0,5,0,1287200,0,0,1,FG
2026-04-08 15:00:00,METAR RCMQ 081500Z 01004KT 0800 R36/0600N FG BKN002 OVC008 22/22 Q1015 RMK A2998,0,4,0,1287200,0,0,1,FG
2026-04-08 14:05:00,SPECI RCMQ 081405Z 34004KT 0800 R36/0600D FG BKN002 OVC008 22/22 Q1015 RMK A2998,0,4,0,1287200,0,0,1,FG
2026-04-08 14:00:00,METAR RCMQ 081400Z 34004KT 1200 R36/1000D BR BKN002 OVC008 22/22 Q1015 RMK A2998,0,4,0,1200,0,0,1,BR
2026-04-08 13:30:00,METAR RCMQ 081330Z 35004KT 1200 R36/1600U BR BKN002 OVC008 22/22 Q1015 RMK A2997,0,4,0,1200,0,0,1,BR
2026-04-08 13:00:00,METAR RCMQ 081300Z 35004KT 1200 R36/1100D BR BKN002 OVC008 22/22 Q1015 RMK A2997,0,4,0,1200,0,0,1,BR
2026-04-08 12:35:00,SPECI RCMQ 081235Z 35004KT 1200 R36/1200D BR BKN002 OVC008 22/22 Q1014 BECMG TL1500 BKN002 RMK A2997,0,4,0,1200,0,0,1,BR
2026-04-08 12:30:00,METAR RCMQ 081230Z 36004KT 1600 R36/1400 BR BKN002 OVC008 22/22 Q1014 BECMG TL1500 BKN002 RMK A2996,0,4,0,1600,0,0,1,BR
2026-04-08 12:05:00,SPECI RCMQ 081205Z 35004KT 1600 BR BKN002 OVC008 22/22 Q1014 BECMG TL1500 BKN002 RMK A2996,0,4,0,1600,0,0,1,BR
2026-04-08 12:00:00,METAR RCMQ 081200Z 34004KT 1200 R36/P2000 BR BKN002 OVC008 22/22 Q1014 BECMG TL1500 1600 BR BKN002 RMK A2996,0,4,0,1200,0,0,1,BR
2026-04-08 11:30:00,METAR RCMQ 081130Z 01004KT 1200 R36/2000N BR BKN002 OVC008 22/22 Q1014 BECMG TL1500 0800 FG BKN002 RMK A2995,0,4,0,1200,0,0,1,"BR,FG"
2026-04-08 11:10:00,SPECI RCMQ 081110Z 36005KT 1200 R36/2000 BR BKN002 OVC008 22/22 Q1014 BECMG TL1500 0800 FG BKN002 RMK A2994,0,5,0,1200,0,0,1,"BR,FG"
2026-04-08 11:00:00,METAR RCMQ 081100Z 36006KT 1600 BR BKN003 OVC008 22/22 Q1013 BECMG FM1120 TL1500 0800 FG BKN002 RMK A2994,0,6,0,1600,0,0,1,"BR,FG"
2026-04-08 10:35:00,SPECI RCMQ 081035Z 36007KT 1600 BR BKN003 OVC008 22/22 Q1013 NOSIG RMK A2994,0,7,0,1600,0,0,1,BR
2026-04-08 10:30:00,METAR RCMQ 081030Z 36007KT 2400 BR BKN004 BKN010 22/21 Q1013 NOSIG RMK A2993,0,7,0,2400,0,0,1,BR
2026-04-08 10:17:00,SPECI RCMQ 081017Z 36007KT 2400 BR BKN004 BKN010 23/22 Q1013 NOSIG RMK A2993,0,7,0,2400,0,0,1,BR
2026-04-08 10:00:00,METAR RCMQ 081000Z 35007KT 3200 BR BKN004 BKN010 23/22 Q1013 BECMG 2400 BR RMK A2993,0,7,0,3200,0,0,1,BR
2026-04-08 09:38:00,SPECI RCMQ 080938Z 34005KT 3200 BR BKN004 BKN010 23/22 Q1013 BECMG 2400 BR RMK A2993,0,5,0,3200,0,0,1,BR
2026-04-08 09:30:00,METAR RCMQ 080930Z 36006KT 5000 2400SW BR SCT004 BKN010 BKN040 23/22 Q1013 BECMG 3200 BR BKN004 RMK A2993 APCH CLD SCT004,0,6,0,5000,0,0,1,BR
2026-04-08 09:17:00,SPECI RCMQ 080917Z 36008KT 5000 2400SW BR SCT004 BKN010 BKN040 24/22 Q1013 NOSIG RMK A2992 APCH CLD SCT004,0,8,0,5000,0,0,1,BR
2026-04-08 09:00:00,METAR RCMQ 080900Z 35007KT 6000 3000NW SCT006 BKN012 BKN040 24/22 Q1013 NOSIG RMK A2992 APCH CLD SCT006,0,7,0,6000,0,0,0,
2026-04-08 08:30:00,METAR RCMQ 080830Z 33007KT 8000 SCT006 BKN012 BKN040 24/22 Q1013 NOSIG RMK A2992 APCH CLD SCT006,0,7,0,8000,0,0,0,
2026-04-08 08:00:00,METAR RCMQ 080800Z 33005KT 9999 SCT006 BKN012 BKN040 25/23 Q1013 NOSIG RMK A2992 APCH CLD SCT006,0,5,0,10000,0,0,0,
2026-04-08 07:30:00,METAR RCMQ 080730Z 32007KT 9999 SCT008 BKN012 BKN040 25/22 Q1013 NOSIG RMK A2992,0,7,0,10000,0,0,0,
2026-04-08 07:00:00,METAR RCMQ 080700Z 31004KT 9999 SCT008 BKN012 BKN040 24/22 Q1013 NOSIG RMK A2993,0,4,0,10000,0,0,0,
2026-04-08 06:30:00,METAR RCMQ 080630Z 30004KT 9999 SCT008 BKN012 BKN040 25/23 Q1013 NOSIG RMK A2993,0,4,0,10000,0,0,0,
2026-04-08 06:06:00,SPECI RCMQ 080606Z 29004KT 9000 SCT008 BKN012 BKN040 25/23 Q1014 NOSIG RMK A2994,0,4,0,9000,0,0,0,
2026-04-08 06:00:00,METAR RCMQ 080600Z 30002KT 9000 BKN008 BKN040 25/23 Q1014 BECMG BKN012 RMK A2994,0,2,0,9000,0,0,0,
2026-04-08 05:30:00,METAR RCMQ 080530Z 24001KT 8000 BKN008 BKN030 25/23 Q1014 NOSIG RMK A2995,0,1,0,8000,0,0,0,
2026-04-08 05:00:00,METAR RCMQ 080500Z 29004KT 8000 BKN008 BKN030 25/23 Q1014 NOSIG RMK A2997,0,4,0,8000,0,0,0,
2026-04-08 04:30:00,METAR RCMQ 080430Z 23004KT 8000 BKN008 BKN030 25/23 Q1015 NOSIG RMK A2998,0,4,0,8000,0,0,0,
2026-04-08 04:00:00,METAR RCMQ 080400Z 18003KT 8000 BKN008 BKN030 24/23 Q1015 NOSIG RMK A2999,0,3,0,8000,0,0,0,
2026-04-08 03:30:00,METAR RCMQ 080330Z 15001KT 7000 BKN008 OVC020 24/23 Q1015 NOSIG RMK A3000,0,1,0,7000,0,0,0,
2026-04-08 03:00:00,METAR RCMQ 080300Z 18003KT 7000 SCT002 BKN008 OVC030 23/22 Q1016 NOSIG RMK A3001 APCH CLD SCT002,0,3,0,7000,0,0,0,
2026-04-08 02:30:00,METAR RCMQ 080230Z 14001KT 5000 BR SCT002 BKN008 OVC030 22/22 Q1016 NOSIG RMK A3001 APCH CLD SCT002,0,1,0,5000,0,0,1,BR
2026-04-08 02:00:00,METAR RCMQ 080200Z 00000KT 5000 BR SCT002 BKN008 OVC030 22/21 Q1016 NOSIG RMK A3001 RA AMT T APCH CLD SCT002,0,0,0,5000,0,0,1,"BR,RA"
2026-04-08 01:50:00,SPECI RCMQ 080150Z COR 00000KT 5000 BR SCT002 BKN008 OVC030 21/21 Q1016 NOSIG RMK A3001 APCH CLD SCT002,0,0,0,5000,0,0,1,BR
2026-04-08 01:38:00,SPECI RCMQ 080138Z COR 00000KT 4000 -RA BR BKN002 BKN010 OVC030 22/21 Q1016 BECMG TL0200 5000 -RA BR BKN002 RMK A3001,0,0,0,4000,0,0,1,"-RA,BR"
2026-04-08 01:30:00,METAR RCMQ 080130Z 00000KT 2800 -RA BR BKN002 BKN010 OVC030 21/21 Q1016 BECMG TL0300 3000 -RA BR BKN002 RMK A3000,0,0,0,2800,0,0,1,"-RA,BR"
2026-04-08 01:15:00,SPECI RCMQ 080115Z 01002KT 2400 -RA BR BKN002 BKN010 OVC030 21/20 Q1016 BECMG TL0300 3000 -RA BR BKN002 RMK A3000,0,2,0,2400,0,0,1,"-RA,BR"
2026-04-08 01:05:00,SPECI RCMQ 080105Z 33003KT 1600 -RA BR BKN002 OVC010 21/20 Q1016 BECMG TL0300 1500 -RA BR BKN002 RMK A3000,0,3,0,1600,0,0,1,"-RA,BR"
2026-04-08 01:00:00,METAR RCMQ 080100Z 33003KT 1200 R36/P2000 -RA BR BKN002 OVC010 21/20 Q1016 BECMG TL0300 0600 -RA FG BKN002 RMK A3000 RA AMT 0.5MM,0,3,0,1200,0,0,1,"-RA,BR,FG,RA"
2026-04-08 00:30:00,METAR RCMQ 080030Z 33004KT 1200 R36/1800D -RA BR BKN002 OVC010 20/20 Q1016 BECMG TL0300 0600 -RA FG BKN002 RMK A3000,0,4,0,1200,0,0,1,"-RA,BR,FG"
2026-04-08 00:00:00,METAR RCMQ 080000Z COR 08004KT 1200 R36/P2000 -RA BR BKN002 OVC010 20/19 Q1015 BECMG TL0300 0600 FG BKN002 RMK A2999 RA AMT 0.5MM,0,4,0,1200,0,0,1,"-RA,BR,FG,RA"
2026-04-07 23:30:00,METAR RCMQ 072330Z 06004KT 1200 R36/1400U -RA BR BKN002 OVC010 19/19 Q1015 BECMG TL0100 0600 FG BKN002 RMK A2998,0,4,0,1200,0,0,1,"-RA,BR,FG"
2026-04-07 23:24:00,SPECI RCMQ 072324Z 06004KT 1200 R36/1200 -RA BR BKN002 OVC010 19/19 Q1015 BECMG TL0100 0600 FG BKN002 RMK A2998,0,4,0,1200,0,0,1,"-RA,BR,FG"
2026-04-07 23:03:00,SPECI RCMQ 072303Z 01004KT 1600 -RA BR BKN002 OVC010 19/19 Q1015 BECMG TL0100 0600 FG BKN002 RMK A2997,0,4,0,1600,0,0,1,"-RA,BR,FG"
2026-04-07 23:00:00,METAR RCMQ 072300Z 01004KT 1600 -RA BR SCT002 OVC010 19/19 Q1015 BECMG FM2300 TL0100 0600 FG BKN002 RMK A2998 RA AMT 1.0MM,0,4,0,1600,0,0,1,"-RA,BR,FG,RA"
2026-04-07 22:35:00,SPECI RCMQ 072235Z 33005KT 1600 -RA BR SCT003 BKN010 BKN030 19/19 Q1014 BECMG FM2300 TL0100 0600 FG BKN002 RMK A2996,0,5,0,1600,0,0,1,"-RA,BR,FG"
2026-04-07 22:30:00,METAR RCMQ 072230Z 32005KT 3200 -RA BR SCT003 BKN010 BKN030 19/19 Q1014 RERA BECMG FM2300 TL0100 0600 FG BKN002 RMK A2996,0,5,0,3200,0,0,1,"-RA,BR,FG,RA"
2026-04-07 22:04:00,SPECI RCMQ 072204Z 00000KT 3200 -RA BR SCT003 BKN010 BKN030 20/19 Q1014 RERA NOSIG RMK A2994,0,0,0,3200,0,0,1,"-RA,BR,RA"
2026-04-07 22:00:00,METAR RCMQ 072200Z 00000KT 5000 RA BR SCT004 BKN010 BKN030 20/19 Q1014 BECMG 3200 RA BR RMK A2994 RA AMT 0.8MM,0,0,0,5000,0,0,1,"BR,RA"
2026-04-07 21:45:00,SPECI RCMQ 072145Z 00000KT 5000 RA BR SCT004 BKN010 BKN030 20/19 Q1013 BECMG 4000 RA BR RMK A2993,0,0,0,5000,0,0,1,"BR,RA"
2026-04-07 21:30:00,METAR RCMQ 072130Z 02002KT 8000 -RA FEW004 BKN010 BKN030 20/19 Q1013 NOSIG RMK A2993,0,2,0,8000,0,0,0,-RA
2026-04-07 21:00:00,METAR RCMQ 072100Z 01004KT 9999 -RA FEW004 BKN010 BKN030 19/19 Q1013 RMK A2993 RA AMT T,0,4,0,10000,0,0,0,"-RA,RA"
2026-04-07 20:30:00,METAR RCMQ 072030Z 02004KT 9999 -RA FEW004 BKN010 BKN030 19/19 Q1013 RMK A2992,0,4,0,10000,0,0,0,-RA
2026-04-07 20:05:00,SPECI RCMQ 072005Z 36004KT 9999 -RA FEW004 BKN010 BKN030 19/19 Q1013 RMK A2992,0,4,0,10000,0,0,0,-RA
2026-04-07 20:00:00,METAR RCMQ 072000Z 36004KT 9999 FEW006 BKN016 BKN040 19/19 Q1013 RMK A2992,0,4,0,10000,0,0,0,
2026-04-07 19:00:00,METAR RCMQ 071900Z 36003KT 9999 FEW006 SCT016 BKN040 20/19 Q1013 RMK A2993,0,3,0,10000,0,0,0,
2026-04-07 18:00:00,METAR RCMQ 071800Z 02003KT 9999 FEW006 SCT016 BKN040 20/19 Q1013 RMK A2993,0,3,0,10000,0,0,0,
2026-04-07 17:00:00,METAR RCMQ 071700Z 01006KT 9999 FEW006 SCT016 BKN040 19/19 Q1014 RMK A2995,0,6,0,10000,0,0,0,
2026-04-07 16:00:00,METAR RCMQ 071600Z 35008KT 9999 FEW006 SCT016 BKN040 19/19 Q1014 RMK A2996,0,8,0,10000,0,0,0,
2026-04-07 15:00:00,METAR RCMQ 071500Z 02005KT 9999 FEW006 SCT016 BKN040 20/19 Q1013 RMK A2993,0,5,0,10000,0,0,0,
2026-04-07 14:30:00,METAR RCMQ 071430Z COR 02005KT 9999 FEW006 BKN016 BKN040 20/19 Q1014 RMK A2995,0,5,0,10000,0,0,0,
2026-04-07 14:00:00,METAR RCMQ 071400Z 02007KT 9999 FEW006 BKN016 BKN040 20/19 Q1014 NOSIG RMK A2995,0,7,0,10000,0,0,0,
2026-04-07 13:30:00,METAR RCMQ 071330Z 01008KT 9999 FEW006 BKN016 BKN040 20/19 Q1014 NOSIG RMK A2996,0,8,0,10000,0,0,0,
2026-04-07 13:00:00,METAR RCMQ 071300Z 02010KT 9999 FEW006 BKN016 BKN040 20/19 Q1014 NOSIG RMK A2996,0,10,0,10000,0,0,0,
2026-04-07 12:30:00,METAR RCMQ 071230Z 36010KT 9999 FEW006 BKN016 BKN040 20/19 Q1014 NOSIG RMK A2995,0,10,0,10000,0,0,0,
2026-04-07 12:00:00,METAR RCMQ 071200Z 02010KT 9999 FEW006 BKN016 BKN040 20/19 Q1013 NOSIG RMK A2993,0,10,0,10000,0,0,0,
2026-04-07 11:30:00,METAR RCMQ 071130Z 01013KT 9999 FEW006 BKN016 BKN040 20/19 Q1013 NOSIG RMK A2992,0,13,0,10000,0,0,0,
2026-04-07 11:05:00,SPECI RCMQ 071105Z 36011KT 8000 SCT006 BKN016 BKN040 20/19 Q1013 NOSIG RMK A2991,0,11,0,8000,0,0,0,
2026-04-07 11:00:00,METAR RCMQ 071100Z 36011KT 8000 SCT006 BKN010 BKN040 20/19 Q1013 BECMG BKN016 RMK A2991 RA AMT T,0,11,0,8000,0,0,0,RA
2026-04-07 10:30:00,METAR RCMQ 071030Z 01008KT 7000 VCSH SCT004 BKN010 BKN030 20/20 Q1012 NOSIG RMK A2991 VCSH E,0,8,0,7000,0,0,0,"SH,VC"
2026-04-07 10:15:00,SPECI RCMQ 071015Z 01007KT 7000 VCSH SCT004 BKN010 BKN030 20/20 Q1012 NOSIG RMK A2990,0,7,0,7000,0,0,0,"SH,VC"
2026-04-07 10:05:00,SPECI RCMQ 071005Z 03006KT 6000 -RA SCT004 BKN010 BKN030 20/20 Q1012 NOSIG RMK A2990,0,6,0,6000,0,0,0,-RA
2026-04-07 10:00:00,METAR RCMQ 071000Z 05005KT 4800 -RA BR BKN004 BKN010 OVC030 21/20 Q1012 BECMG 5000 -RA BR BKN010 RMK A2989 RA AMT T,0,5,0,4800,0,0,1,"-RA,BR,RA"
2026-04-07 09:30:00,METAR RCMQ 070930Z 03009KT 4800 -RA BR BKN004 BKN010 OVC030 20/20 Q1012 NOSIG RMK A2989,0,9,0,4800,0,0,1,"-RA,BR"
2026-04-07 09:00:00,METAR RCMQ 070900Z 02011KT 4800 -RA BR BKN004 BKN010 OVC030 20/19 Q1012 NOSIG RMK A2989 RA AMT T,0,11,0,4800,0,0,1,"-RA,BR,RA"
2026-04-07 08:30:00,METAR RCMQ 070830Z 02014KT 4000 -RA BR BKN004 BKN010 OVC030 20/20 Q1012 NOSIG RMK A2988,0,14,0,4000,0,0,1,"-RA,BR"
2026-04-07 08:23:00,SPECI RCMQ 070823Z 02015KT 4000 -RA BR BKN004 BKN010 OVC030 20/20 Q1011 NOSIG RMK A2988,0,15,0,4000,0,0,1,"-RA,BR"
2026-04-07 08:00:00,METAR RCMQ 070800Z 01017KT 3200 -RA BR BKN004 BKN010 OVC030 20/20 Q1011 BECMG 3200 RA BR RMK A2988 RA AMT 2.5MM,0,17,0,3200,0,0,1,"-RA,BR,RA"
2026-04-07 07:35:00,SPECI RCMQ 070735Z 01016KT 3200 -RA BR BKN004 BKN010 OVC030 20/20 Q1011 NOSIG RMK A2988,0,16,0,3200,0,0,1,"-RA,BR"
2026-04-07 07:30:00,METAR RCMQ 070730Z 36014KT 3200 -RA BR SCT003 BKN006 BKN030 20/20 Q1011 BECMG BKN004 RMK A2988,0,14,0,3200,0,0,1,"-RA,BR"
2026-04-07 07:00:00,METAR RCMQ 070700Z 36012KT 3200 -RA BR SCT003 BKN006 BKN030 21/20 Q1011 RERA NOSIG RMK A2987 RA AMT 5.0MM,0,12,0,3200,0,0,1,"-RA,BR,RA"
2026-04-07 06:40:00,SPECI RCMQ 070640Z COR 01010KT 3200 -RA BR SCT003 BKN006 BKN030 21/21 Q1011 RERA NOSIG RMK A2986,0,10,0,3200,0,0,1,"-RA,BR,RA"
2026-04-07 06:30:00,METAR RCMQ 070630Z 01009KT 2000 RA BR SCT003 BKN006 OVC030 21/21 Q1011 BECMG 3000 -RA BR RMK A2986,0,9,0,2000,0,0,1,"-RA,BR,RA"
2026-04-07 06:04:00,SPECI RCMQ 070604Z COR 34007KT 2000 RA BR SCT003 BKN006 OVC030 22/22 Q1011 BECMG 34010KT 3000 -RA BR RMK A2987,0,7,0,2000,0,0,1,"-RA,BR,RA"
2026-04-07 06:00:00,METAR RCMQ 070600Z 36007KT 2000 RA BR SCT003 BKN006 OVC030 22/22 Q1011 NOSIG RMK A2987 RA AMT 8.5MM,0,7,0,2000,0,0,1,"BR,RA"
2026-04-07 05:42:00,SPECI RCMQ 070542Z 25009KT 1600 RA BR SCT003 BKN006 OVC030 23/23 Q1011 NOSIG RMK A2987,0,9,0,1600,0,0,1,"BR,RA"
2026-04-07 05:30:00,METAR RCMQ 070530Z 10004KT 2400 RA BR SCT003 BKN006 OVC030 24/24 Q1011 NOSIG RMK A2987,0,4,0,2400,0,0,1,"BR,RA"
2026-04-07 05:25:00,SPECI RCMQ 070525Z 10004KT 2400 RA BR SCT003 BKN006 OVC030 24/24 Q1011 BECMG 2400 RA BR RMK A2987,0,4,0,2400,0,0,1,"BR,RA"
2026-04-07 05:05:00,SPECI RCMQ 070505Z COR 08001KT 4000 2000NW -RA BR SCT004 BKN010 BKN040 25/24 Q1011 BECMG 3000 -RA BR RMK A2988,0,1,0,4000,0,0,1,"-RA,BR"
2026-04-07 05:00:00,METAR RCMQ 070500Z 01001KT 5000 2400SW -RA BR FEW008 BKN016 BKN040 25/24 Q1011 BECMG BKN010 RMK A2988 RA AMT 0.2MM,0,1,0,5000,0,0,1,"-RA,BR,RA"
2026-04-07 04:55:00,SPECI RCMQ 070455Z 03004KT 5000 2400SW -RA BR FEW008 BKN016 BKN040 25/24 Q1011 BECMG 5000 -RA BR RMK A2988,0,4,0,5000,0,0,1,"-RA,BR"
2026-04-07 04:30:00,METAR RCMQ 070430Z 18004KT 8000 -RA FEW008 BKN020 BKN040 26/24 Q1012 NOSIG RMK A2988,0,4,0,8000,0,0,0,-RA
2026-04-07 04:00:00,METAR RCMQ 070400Z 21005KT 8000 -RA FEW008 BKN020 BKN040 26/23 Q1012 NOSIG RMK A2989 RA AMT T,0,5,0,8000,0,0,0,"-RA,RA"
2026-04-07 03:30:00,METAR RCMQ 070330Z 19008KT 8000 -RA FEW008 BKN050 25/23 Q1012 NOSIG RMK A2989,0,8,0,8000,0,0,0,-RA
2026-04-07 03:00:00,METAR RCMQ 070300Z 19006KT 8000 -RA FEW008 BKN050 26/23 Q1012 NOSIG RMK A2989 RA AMT 0.2MM,0,6,0,8000,0,0,0,"-RA,RA"
2026-04-07 02:30:00,METAR RCMQ 070230Z 21007KT 8000 -RA FEW008 BKN050 25/22 Q1012 NOSIG RMK A2990,0,7,0,8000,0,0,0,-RA
2026-04-07 02:00:00,METAR RCMQ 070200Z 18006KT 9999 -RA FEW008 BKN050 26/22 Q1012 NOSIG RMK A2989 RA AMT T,0,6,0,10000,0,0,0,"-RA,RA"
2026-04-07 01:30:00,METAR RCMQ 070130Z 20005KT 9999 -RA FEW008 BKN050 25/21 Q1012 NOSIG RMK A2990,0,5,0,10000,0,0,0,-RA
2026-04-07 01:09:00,SPECI RCMQ 070109Z 20009KT 9999 -RA FEW008 BKN050 26/21 Q1012 NOSIG RMK A2990,0,9,0,10000,0,0,0,-RA
2026-04-07 01:00:00,METAR RCMQ 070100Z 19009KT 9999 VCSH FEW008 BKN060 26/21 Q1012 NOSIG RMK A2989 RA AMT T VCSH W-NW,0,9,0,10000,0,0,0,"RA,SH,VC"
2026-04-07 00:38:00,SPECI RCMQ 070038Z 18009KT 9999 VCSH FEW008 BKN060 26/22 Q1012 NOSIG RMK A2989 VCSH W-NW,0,9,0,10000,0,0,0,"SH,VC"
2026-04-07 00:30:00,METAR RCMQ 070030Z 17007KT 9999 -RA FEW008 BKN060 26/22 Q1012 NOSIG RMK A2989,0,7,0,10000,0,0,0,-RA
2026-04-07 00:06:00,SPECI RCMQ 070006Z COR 18008KT 9999 -RA FEW008 BKN060 26/22 Q1012 NOSIG RMK A2989,0,8,0,10000,0,0,0,-RA
2026-04-07 00:00:00,METAR RCMQ 070000Z 18008KT 9999 VCSH FEW008 BKN060 26/22 Q1012 NOSIG RMK A2989 VCSH W-NW,0,8,0,10000,0,0,0,"SH,VC"
2026-04-06 23:30:00,METAR RCMQ 062330Z 19009KT 9999 VCSH FEW008 BKN060 26/22 Q1011 NOSIG RMK A2988 VCSH NW,0,9,0,10000,0,0,0,"SH,VC"
2026-04-06 23:00:00,METAR RCMQ 062300Z 18007KT 9999 FEW008 BKN060 25/22 Q1011 NOSIG RMK A2987,0,7,0,10000,0,0,0,
2026-04-06 22:30:00,METAR RCMQ 062230Z 18004KT 9999 FEW008 BKN060 25/21 Q1011 NOSIG RMK A2987,0,4,0,10000,0,0,0,
2026-04-06 22:00:00,METAR RCMQ 062200Z 18006KT 9999 FEW008 BKN060 24/21 Q1011 NOSIG RMK A2986,0,6,0,10000,0,0,0,
2026-04-06 21:30:00,METAR RCMQ 062130Z 17007KT 9999 FEW008 BKN060 24/21 Q1010 NOSIG RMK A2985,0,7,0,10000,0,0,0,
2026-04-06 21:00:00,METAR RCMQ 062100Z 18009KT 9999 FEW008 BKN060 24/21 Q1010 NOSIG RMK A2984,0,9,0,10000,0,0,0,
2026-04-06 20:30:00,METAR RCMQ 062030Z 18008KT 9999 FEW008 BKN060 25/22 Q1011 RMK A2985,0,8,0,10000,0,0,0,
2026-04-06 20:00:00,METAR RCMQ 062000Z 18009KT 9999 FEW008 BKN100 25/22 Q1010 RMK A2984,0,9,0,10000,0,0,0,
2026-04-06 19:00:00,METAR RCMQ 061900Z 19012KT 9999 FEW008 BKN100 25/21 Q1010 RMK A2983,0,12,0,10000,0,0,0,
2026-04-06 18:00:00,METAR RCMQ 061800Z 19011KT 9999 FEW008 BKN100 25/21 Q1010 RMK A2983,0,11,0,10000,0,0,0,
2026-04-06 17:00:00,METAR RCMQ 061700Z 19012KT 9999 FEW008 BKN100 25/22 Q1010 RMK A2985,0,12,0,10000,0,0,0,
2026-04-06 16:00:00,METAR RCMQ 061600Z 19010KT 9999 FEW008 BKN100 25/22 Q1011 RMK A2985,0,10,0,10000,0,0,0,
2026-04-06 15:00:00,METAR RCMQ 061500Z 19011KT 9999 FEW008 BKN100 25/22 Q1011 NOSIG RMK A2986,0,11,0,10000,0,0,0,
2026-04-06 14:30:00,METAR RCMQ 061430Z 19013KT 9999 FEW008 SCT050 BKN100 25/22 Q1011 NOSIG RMK A2985,0,13,0,10000,0,0,0,
2026-04-06 14:00:00,METAR RCMQ 061400Z 19011KT 9999 FEW008 SCT050 BKN100 25/22 Q1011 NOSIG RMK A2986,0,11,0,10000,0,0,0,
2026-04-06 13:30:00,METAR RCMQ 061330Z 19012KT 9999 FEW008 SCT050 BKN100 26/23 Q1011 NOSIG RMK A2985,0,12,0,10000,0,0,0,
2026-04-06 13:00:00,METAR RCMQ 061300Z 19012KT 9999 FEW008 SCT050 BKN100 25/23 Q1010 NOSIG RMK A2984,0,12,0,10000,0,0,0,
2026-04-06 12:30:00,METAR RCMQ 061230Z 18012KT 9999 FEW008 SCT050 BKN100 25/23 Q1010 NOSIG RMK A2983,0,12,0,10000,0,0,0,
2026-04-06 12:00:00,METAR RCMQ 061200Z 18011KT 9999 FEW008 SCT050 BKN100 25/23 Q1009 NOSIG RMK A2981,0,11,0,10000,0,0,0,
2026-04-06 11:30:00,METAR RCMQ 061130Z 19011KT 9999 VCSH FEW008 SCT040 BKN080 26/23 Q1009 NOSIG RMK A2982 VCSH NE,0,11,0,10000,0,0,0,"SH,VC"
2026-04-06 11:00:00,METAR RCMQ 061100Z 19011KT 9999 VCSH FEW008 SCT040 BKN080 26/23 Q1009 NOSIG RMK A2981 VCSH W,0,11,0,10000,0,0,0,"SH,VC"
2026-04-06 10:30:00,METAR RCMQ 061030Z 18010KT 9999 VCSH FEW008 SCT040 BKN080 26/23 Q1009 NOSIG RMK A2981 VCSH W,0,10,0,10000,0,0,0,"SH,VC"
2026-04-06 10:00:00,METAR RCMQ 061000Z 20008KT 9999 FEW008 SCT040 BKN080 26/23 Q1009 NOSIG RMK A2982,0,8,0,10000,0,0,0,
2026-04-06 09:30:00,METAR RCMQ 060930Z 18009KT 9999 FEW008 SCT040 BKN080 25/23 Q1009 NOSIG RMK A2981,0,9,0,10000,0,0,0,
2026-04-06 09:00:00,METAR RCMQ 060900Z 18008KT 9999 FEW008 SCT040 BKN080 26/23 Q1009 NOSIG RMK A2980,0,8,0,10000,0,0,0,
2026-04-06 08:30:00,METAR RCMQ 060830Z 18011KT 9999 FEW008 SCT040 BKN080 25/23 Q1009 NOSIG RMK A2980,0,11,0,10000,0,0,0,
2026-04-06 08:00:00,METAR RCMQ 060800Z 18009KT 9999 FEW008 SCT030 BKN060 25/23 Q1009 NOSIG RMK A2980,0,9,0,10000,0,0,0,
2026-04-06 07:30:00,METAR RCMQ 060730Z 17009KT 8000 FEW008 SCT030 BKN060 25/23 Q1009 NOSIG RMK A2980,0,9,0,8000,0,0,0,
2026-04-06 07:00:00,METAR RCMQ 060700Z 17008KT 7000 FEW008 SCT025 BKN050 25/24 Q1009 NOSIG RMK A2981 RA AMT T,0,8,0,7000,0,0,0,RA
2026-04-06 06:30:00,METAR RCMQ 060630Z 17006KT 7000 VCSH FEW008 SCT025 BKN050 24/23 Q1009 NOSIG RMK A2981 VCSH SE,0,6,0,7000,0,0,0,"SH,VC"
2026-04-06 06:22:00,SPECI RCMQ 060622Z 17004KT 6000 VCSH FEW008 SCT025 BKN050 24/24 Q1009 NOSIG RMK A2982 VCSH SE,0,4,0,6000,0,0,0,"SH,VC"
2026-04-06 06:06:00,SPECI RCMQ 060606Z 17009KT 4800 -RA BR FEW006 BKN020 BKN040 23/23 Q1009 BECMG 5000 -RA BR RMK A2982,0,9,0,4800,0,0,1,"-RA,BR"
2026-04-06 06:00:00,METAR RCMQ 060600Z 16008KT 3600 -RA BR SCT006 FEW010CB BKN016 BKN030 23/23 Q1009 RERA BECMG 5000 -RA BR RMK A2981 RA AMT 2.5MM CB SW MOV NW APCH CLD SCT004,0,8,0,3600,0,0,1,"-RA,BR,RA"
2026-04-06 05:40:00,SPECI RCMQ 060540Z 14008KT 3200 -RA BR SCT004 FEW010CB BKN016 BKN030 22/22 Q1009 RERA NOSIG RMK A2982 CB SW STNRY APCH CLD SCT004,0,8,0,3200,0,0,1,"-RA,BR,RA"
2026-04-06 05:30:00,METAR RCMQ 060530Z COR 15007KT 2400 RA BR SCT004 FEW010CB BKN012 OVC030 23/22 Q1010 BECMG 3000 -RA BR RMK A2983 CB SW STNRY APCH CLD SCT004,0,7,0,2400,0,0,1,"-RA,BR,RA"
2026-04-06 05:00:00,METAR RCMQ 060500Z 15007KT 2400 1400SW RA BR SCT004 FEW010CB BKN012 OVC030 22/22 Q1010 NOSIG RMK A2985 RA AMT 4.5MM CB SW MOV E APCH CLD SCT004,0,7,0,2400,0,0,1,"BR,RA"
2026-04-06 04:30:00,METAR RCMQ 060430Z 17008KT 2400 RA BR SCT004 FEW010CB BKN012 OVC030 22/22 Q1011 NOSIG RMK A2986 CB SW MOV E APCH CLD SCT004,0,8,0,2400,0,0,1,"BR,RA"
2026-04-06 04:00:00,METAR RCMQ 060400Z 16006KT 2400 RA BR SCT004 FEW010CB BKN012 OVC030 22/22 Q1011 NOSIG RMK A2986 RA AMT 3.5MM CB SW MOV E APCH CLD SCT004,0,6,0,2400,0,0,1,"BR,RA"
2026-04-06 03:30:00,METAR RCMQ 060330Z COR 16010KT 2400 RA BR SCT004 FEW010CB BKN012 OVC030 22/22 Q1011 RETS NOSIG RMK A2986 CB SW MOV E APCH CLD SCT004,0,10,0,2400,1,0,1,"BR,RA,TS"
2026-04-06 03:15:00,SPECI RCMQ 060315Z 15010KT 2400 RA BR SCT004 FEW010CB BKN012 OVC030 22/21 Q1011 RETS NOSIG RMK A2988 CB SW APCH CLD SCT004,0,10,0,2400,1,0,1,"BR,RA,TS"
2026-04-06 03:03:00,SPECI RCMQ 060303Z 16011KT 2400 TSRA SCT004 FEW010CB BKN012 OVC030 22/21 Q1011 BECMG TL0330 1200 TSRA RMK A2988 TS S MOV E APCH CLD SCT004,0,11,0,2400,1,0,0,"RA,TS"
2026-04-06 03:00:00,METAR RCMQ 060300Z 16011KT 3200 TSRA SCT006 FEW010CB BKN016 BKN030 22/21 Q1012 BECMG TL0330 1200 TSRA RMK A2990 RA AMT 2.0MM TS S MOV E APCH CLD SCT006,0,11,0,3200,1,0,0,"RA,TS"
2026-04-06 02:51:00,SPECI RCMQ 060251Z 15011KT 3200 TSRA SCT006 FEW010CB BKN016 BKN030 22/21 Q1012 BECMG TL0330 1200 TSRA RMK A2990 TS S MOV NE APCH CLD SCT006,0,11,0,3200,1,0,0,"RA,TS"
2026-04-06 02:30:00,METAR RCMQ 060230Z 15010KT 3200 -TSRA SCT006 FEW010CB BKN016 BKN030 22/22 Q1012 RERA BECMG TL0330 1200 TSRA RMK A2990 TS S MOV NE APCH CLD SCT006,0,10,0,3200,1,0,0,"RA,TS"
2026-04-06 02:20:00,SPECI RCMQ 060220Z 14007KT 3200 -TSRA SCT006 FEW010CB BKN016 BKN030 22/22 Q1012 RERA BECMG TL0330 1200 TSRA RMK A2991 TS S MOV NE APCH CLD SCT006,0,7,0,3200,1,0,0,"RA,TS"
2026-04-06 02:03:00,SPECI RCMQ 060203Z 15007KT 4000 TSRA SCT006 FEW010CB BKN016 BKN030 22/22 Q1012 BECMG TL0330 1200 TSRA RMK A2990 TS S MOV VRBL APCH CLD SCT006,0,7,0,4000,1,0,0,"RA,TS"
2026-04-06 02:00:00,METAR RCMQ 060200Z 15007KT 4000 RA BR SCT006 FEW010CB BKN016 BKN030 22/22 Q1012 BECMG FM0200 TL0330 1200 TSRA RMK A2990 RA AMT 1.0MM CB S APCH CLD SCT006,0,7,0,4000,1,0,1,"BR,RA,TS"
2026-04-06 01:43:00,SPECI RCMQ 060143Z 16007KT 4000 RA BR SCT006 FEW010CB BKN016 BKN030 22/22 Q1012 BECMG FM0200 TL0330 1200 TSRA RMK A2990 CB S APCH CLD SCT006,0,7,0,4000,1,0,1,"BR,RA,TS"
2026-04-06 01:30:00,METAR RCMQ 060130Z 16008KT 5000 -RA BR SCT006 BKN020 BKN040 23/22 Q1012 BECMG FM0200 TL0330 1200 TSRA RMK A2990 APCH CLD SCT006,0,8,0,5000,1,0,1,"-RA,BR,RA,TS"
2026-04-06 01:25:00,SPECI RCMQ 060125Z 17007KT 5000 -RA BR SCT006 BKN020 BKN040 22/22 Q1012 NOSIG RMK A2990 APCH CLD SCT006,0,7,0,5000,0,0,1,"-RA,BR"
2026-04-06 01:00:00,METAR RCMQ 060100Z 17002KT 5000 VCSH BR SCT006 BKN020 BKN040 22/22 Q1012 RETS RERA NOSIG RMK A2989 RA AMT 4.0MM APCH CLD SCT006 VCSH S,0,2,0,5000,1,0,1,"BR,RA,SH,TS,VC"
2026-04-06 00:55:00,SPECI RCMQ 060055Z 17001KT 5000 VCSH BR SCT006 BKN020 BKN040 22/22 Q1012 NOSIG RMK A2989 APCH CLD SCT006 VCSH S,0,1,0,5000,0,0,1,"BR,SH,VC"
2026-04-06 00:45:00,SPECI RCMQ 060045Z 13003KT 4000 -RA BR SCT006 FEW012CB BKN020 BKN040 22/22 Q1012 RERA NOSIG RMK A2989 CB S APCH CLD SCT006,0,3,0,4000,0,0,1,"-RA,BR,RA"
2026-04-06 00:33:00,SPECI RCMQ 060033Z COR 15005KT 3200 RA VCTS BR SCT006 FEW012CB BKN016 BKN030 22/22 Q1011 RETS NOSIG RMK A2988 TS SW MOV E APCH CLD SCT006,0,5,0,3200,1,0,1,"BR,RA,TS,VC"
2026-04-06 00:30:00,METAR RCMQ 060030Z 17004KT 3200 -TSRA SCT006 FEW012CB BKN016 BKN030 22/22 Q1012 RERA BECMG TL0050 TSRA RMK A2988 TS W MOV NE APCH CLD SCT006,0,4,0,3200,1,0,0,"RA,TS"
2026-04-06 00:22:00,SPECI RCMQ 060022Z 13003KT 3200 -TSRA SCT006 FEW012CB BKN016 BKN030 22/22 Q1011 RERA BECMG TL0050 TSRA RMK A2988 TS W MOV NE APCH CLD SCT006,0,3,0,3200,1,0,0,"RA,TS"
2026-04-06 00:00:00,METAR RCMQ 060000Z 13003KT 2400 TSRA SCT006 FEW012CB BKN016 BKN030 22/22 Q1011 BECMG TL0050 TSRA RMK A2987 RA AMT 7.0MM TS SW MOV E APCH CLD SCT006,0,3,0,2400,1,0,0,"RA,TS"
2026-04-05 23:50:00,SPECI RCMQ 052350Z COR 10004KT 2400 TSRA SCT006 FEW012CB BKN016 BKN030 22/22 Q1011 BECMG TL0050 TSRA RMK A2986 TS SW MOV E APCH CLD SCT006,0,4,0,2400,1,0,0,"RA,TS"
2026-04-05 23:30:00,METAR RCMQ 052330Z 14002KT 2400 RA VCTS BR SCT008 FEW012CB BKN016 BKN030 23/23 Q1011 BECMG FM2350 TL0050 1200 TSRA RMK A2986 TS SW MOV NE APCH CLD SCT008,0,2,0,2400,1,0,1,"BR,RA,TS,VC"
2026-04-05 23:23:00,SPECI RCMQ 052323Z 16002KT 2400 RA VCTS BR SCT008 FEW012CB BKN016 BKN030 23/22 Q1011 NOSIG RMK A2986 TS SW MOV NE APCH CLD SCT008,0,2,0,2400,1,0,1,"BR,RA,TS,VC"
2026-04-05 23:20:00,SPECI RCMQ 052320Z 16002KT 3200 -RA VCTS BR SCT008 FEW012CB BKN016 BKN030 23/22 Q1011 NOSIG RMK A2987 TS SW MOV NE APCH CLD SCT008,0,2,0,3200,1,0,1,"-RA,BR,TS,VC"
2026-04-05 23:00:00,METAR RCMQ 052300Z 17004KT 7000 -RA VCTS SCT008 FEW012CB BKN016 BKN030 23/23 Q1011 RETS NOSIG RMK A2985 RA AMT 1.0MM TS SW MOV NE APCH CLD SCT008,0,4,0,7000,1,0,0,"-RA,RA,TS,VC"
2026-04-05 22:36:00,SPECI RCMQ 052236Z COR 00000KT 6000 -RA VCTS SCT008 FEW012CB BKN016 BKN030 22/22 Q1011 RETS NOSIG RMK A2985 TS SW MOV NE APCH CLD SCT008,0,0,0,6000,1,0,0,"-RA,TS,VC"
2026-04-05 22:30:00,METAR RCMQ 052230Z 16004KT 6000 -TSRA SCT010 FEW012CB BKN020 BKN040 22/22 Q1011 BECMG TL2330 TSRA RMK A2985 TS SW MOV NE APCH CLD SCT010,0,4,0,6000,1,0,0,"RA,TS"
2026-04-05 22:00:00,METAR RCMQ 052200Z 20008KT 6000 -TSRA FEW010 FEW012CB BKN020 BKN040 23/22 Q1010 BECMG TL2330 TSRA RMK A2983 RA AMT 0.5MM TS W MOV NE,0,8,0,6000,1,0,0,"RA,TS"
2026-04-05 21:55:00,SPECI RCMQ 052155Z COR 18012KT 6000 -TSRA FEW010 FEW012CB BKN020 BKN040 23/22 Q1009 BECMG TL2330 TSRA RMK A2980 TS SW MOV NE,0,12,0,6000,1,0,0,"RA,TS"
2026-04-05 21:38:00,SPECI RCMQ 052138Z 18012KT 6000 -RA VCTS FEW010 FEW012CB BKN020 BKN040 23/22 Q1009 BECMG FM2140 TL2330 TSRA RMK A2980 TS SW MOV NE,0,12,0,6000,1,0,0,"-RA,RA,TS,VC"
2026-04-05 21:30:00,METAR RCMQ 052130Z 18011KT 6000 -RA FEW010 FEW012CB BKN020 BKN040 24/23 Q1009 BECMG FM2140 TL2330 TSRA RMK A2981 CB SW MOV NE,0,11,0,6000,1,0,0,"-RA,RA,TS"
2026-04-05 21:00:00,METAR RCMQ 052100Z COR 18008KT 6000 -RA FEW010 FEW012CB BKN020 BKN040 24/23 Q1009 BECMG FM2140 TL2330 TSRA RMK A2982 RA AMT 1.0MM CB SW MOV NE,0,8,0,6000,1,0,0,"-RA,RA,TS"
2026-04-05 20:30:00,METAR RCMQ 052030Z 18008KT 8000 -RA FEW010 FEW012CB BKN020 BKN040 24/23 Q1009 RMK A2981 CB SW MOV NE,0,8,0,8000,0,0,0,-RA
2026-04-05 20:00:00,METAR RCMQ 052000Z 20011KT 8000 -RA FEW010 FEW012CB BKN020 BKN040 25/23 Q1009 RMK A2981 RA AMT T CB SW MOV NE,0,11,0,8000,0,0,0,"-RA,RA"
2026-04-05 19:00:00,METAR RCMQ 051900Z 21011KT 8000 -RA FEW010 FEW012CB BKN020 BKN040 25/22 Q1009 RMK A2980 RA AMT 0.5MM CB NW MOV NE,0,11,0,8000,0,0,0,"-RA,RA"
2026-04-05 18:45:00,SPECI RCMQ 051845Z 21010KT 8000 -RA FEW010 FEW012CB SCT020 BKN040 25/22 Q1009 RMK A2980 CB NW,0,10,0,8000,0,0,0,-RA
2026-04-05 18:00:00,METAR RCMQ 051800Z 19009KT 8000 -RA VCTS FEW010 FEW012CB SCT020 BKN040 24/23 Q1009 RETS RMK A2980 RA AMT T TS NW MOV NE,0,9,0,8000,1,0,0,"-RA,RA,TS,VC"
2026-04-05 17:25:00,SPECI RCMQ 051725Z COR 21010KT 8000 -RA VCTS FEW010 FEW012CB SCT020 BKN040 24/23 Q1009 RETS RMK A2981 TS NW MOV NE,0,10,0,8000,1,0,0,"-RA,TS,VC"
2026-04-05 17:00:00,METAR RCMQ 051700Z 21009KT 8000 -TSRA FEW010 FEW012CB BKN016 BKN030 25/23 Q1009 RMK A2982 RA AMT T TS W MOV NE,0,9,0,8000,1,0,0,"RA,TS"
2026-04-05 16:41:00,SPECI RCMQ 051641Z 20011KT 8000 -TSRA FEW010 FEW012CB BKN016 BKN030 26/23 Q1009 RMK A2982 TS SW MOV NE,0,11,0,8000,1,0,0,"RA,TS"
2026-04-05 16:00:00,METAR RCMQ 051600Z 18009KT 9999 VCSH FEW010 BKN020 BKN040 26/23 Q1010 RMK A2984 VCSH SW,0,9,0,10000,0,0,0,"SH,VC"
2026-04-05 15:00:00,METAR RCMQ 051500Z 19006KT 9999 VCSH FEW010 BKN020 BKN040 25/23 Q1011 RMK A2985 VCSH NW,0,6,0,10000,0,0,0,"SH,VC"
2026-04-05 13:00:00,METAR RCMQ 051300Z 20003KT 9999 VCSH FEW010 SCT020 BKN040 25/23 Q1011 NOSIG RMK A2988 VCSH SW,0,3,0,10000,0,0,0,"SH,VC"
2026-04-05 12:30:00,METAR RCMQ 051230Z 00000KT 9000 VCSH FEW010 SCT014 BKN030 25/23 Q1011 NOSIG RMK A2986 VCSH E,0,0,0,9000,0,0,0,"SH,VC"
2026-04-05 12:00:00,METAR RCMQ 051200Z 00000KT 9000 VCSH FEW010 SCT014 BKN030 25/23 Q1010 NOSIG RMK A2985 VCSH SE,0,0,0,9000,0,0,0,"SH,VC"
2026-04-05 11:30:00,METAR RCMQ 051130Z 22002KT 9000 FEW010 SCT014 BKN030 25/23 Q1010 NOSIG RMK A2985,0,2,0,9000,0,0,0,
2026-04-05 11:00:00,METAR RCMQ 051100Z 00000KT 9000 FEW010 SCT014 BKN030 25/23 Q1010 NOSIG RMK A2985,0,0,0,9000,0,0,0,
2026-04-05 10:30:00,METAR RCMQ 051030Z 27002KT 9000 FEW010 SCT014 BKN030 26/23 Q1010 NOSIG RMK A2984,0,2,0,9000,0,0,0,
2026-04-05 10:00:00,METAR RCMQ 051000Z 28005KT 9000 FEW010 SCT014 BKN030 26/23 Q1010 NOSIG RMK A2984,0,5,0,9000,0,0,0,
2026-04-05 09:30:00,METAR RCMQ 050930Z 27010KT 9000 FEW010 SCT030 BKN060 25/22 Q1010 NOSIG RMK A2984,0,10,0,9000,0,0,0,
2026-04-05 09:00:00,METAR RCMQ 050900Z 26008KT 9000 FEW010 SCT030 BKN060 26/22 Q1010 NOSIG RMK A2982,0,8,0,9000,0,0,0,
2026-04-05 08:30:00,METAR RCMQ 050830Z 25008KT 9999 FEW010 SCT030 BKN060 27/22 Q1009 NOSIG RMK A2982,0,8,0,10000,0,0,0,
2026-04-05 08:00:00,METAR RCMQ 050800Z 24008KT 9999 FEW010 SCT030 28/21 Q1009 NOSIG RMK A2981,0,8,0,10000,0,0,0,
2026-04-05 07:30:00,METAR RCMQ 050730Z 26008KT 9999 FEW010 SCT060 29/22 Q1009 NOSIG RMK A2981,0,8,0,10000,0,0,0,
2026-04-05 07:00:00,METAR RCMQ 050700Z 25007KT 9999 FEW010 SCT060 30/22 Q1009 NOSIG RMK A2980,0,7,0,10000,0,0,0,
2026-04-05 06:30:00,METAR RCMQ 050630Z 26007KT 9999 FEW010 SCT030 BKN080 28/22 Q1009 NOSIG RMK A2981,0,7,0,10000,0,0,0,
2026-04-05 06:00:00,METAR RCMQ 050600Z 27006KT 9999 FEW010 SCT030 BKN080 29/22 Q1010 NOSIG RMK A2983,0,6,0,10000,0,0,0,
2026-04-05 05:30:00,METAR RCMQ 050530Z 24005KT 9999 FEW008 SCT020 BKN060 28/22 Q1010 NOSIG RMK A2984,0,5,0,10000,0,0,0,
2026-04-05 05:00:00,METAR RCMQ 050500Z 23005KT 9999 FEW008 SCT020 BKN060 27/22 Q1011 NOSIG RMK A2986,0,5,0,10000,0,0,0,
2026-04-05 04:30:00,METAR RCMQ 050430Z 27007KT 9999 FEW008 SCT020 BKN060 27/21 Q1011 NOSIG RMK A2987,0,7,0,10000,0,0,0,
2026-04-05 04:00:00,METAR RCMQ 050400Z 22005KT 9999 FEW008 SCT020 BKN060 27/21 Q1011 NOSIG RMK A2988,0,5,0,10000,0,0,0,
2026-04-05 03:30:00,METAR RCMQ 050330Z 19010KT 9999 FEW008 SCT020 BKN060 27/21 Q1012 NOSIG RMK A2989,0,10,0,10000,0,0,0,
2026-04-05 03:00:00,METAR RCMQ 050300Z 21009KT 9999 FEW008 SCT020 BKN060 27/22 Q1012 NOSIG RMK A2989,0,9,0,10000,0,0,0,
2026-04-05 02:30:00,METAR RCMQ 050230Z 18008KT 9999 FEW008 SCT020 BKN080 28/22 Q1012 NOSIG RMK A2989,0,8,0,10000,0,0,0,
2026-04-05 02:00:00,METAR RCMQ 050200Z 18009KT 9999 FEW010 SCT080 28/23 Q1012 NOSIG RMK A2989,0,9,0,10000,0,0,0,
2026-04-05 01:30:00,METAR RCMQ 050130Z 16007KT 9999 FEW010 SCT100 26/23 Q1012 NOSIG RMK A2988,0,7,0,10000,0,0,0,
2026-04-05 01:00:00,METAR RCMQ 050100Z 14001KT 9999 FEW010 SCT100 26/23 Q1012 NOSIG RMK A2989,0,1,0,10000,0,0,0,
2026-04-05 00:30:00,METAR RCMQ 050030Z 00000KT 9999 FEW008 BKN060 25/22 Q1012 NOSIG RMK A2989,0,0,0,10000,0,0,0,
2026-04-05 00:00:00,METAR RCMQ 050000Z 00000KT 9999 FEW008 BKN060 23/22 Q1011 NOSIG RMK A2988,0,0,0,10000,0,0,0,
2026-04-04 23:30:00,METAR RCMQ 042330Z 18001KT 9999 FEW008 BKN060 22/21 Q1011 NOSIG RMK A2985,0,1,0,10000,0,0,0,
2026-04-04 23:00:00,METAR RCMQ 042300Z 16004KT 9999 FEW008 BKN060 22/21 Q1010 NOSIG RMK A2983 RA AMT T,0,4,0,10000,0,0,0,RA
2026-04-04 22:30:00,METAR RCMQ 042230Z 14004KT 9999 FEW008 SCT025 BKN040 21/21 Q1010 NOSIG RMK A2983,0,4,0,10000,0,0,0,
2026-04-04 22:05:00,SPECI RCMQ 042205Z 19001KT 9999 FEW008 SCT025 BKN040 20/20 Q1010 NOSIG RMK A2983,0,1,0,10000,0,0,0,
2026-04-04 22:00:00,METAR RCMQ 042200Z 19001KT 9999 -RA FEW008 SCT025 BKN040 20/20 Q1010 NOSIG RMK A2983 RA AMT T,0,1,0,10000,0,0,0,"-RA,RA"
2026-04-04 21:30:00,METAR RCMQ 042130Z 19004KT 9999 -RA FEW006 SCT016 BKN030 20/20 Q1010 NOSIG RMK A2983,0,4,0,10000,0,0,0,-RA
2026-04-04 21:00:00,METAR RCMQ 042100Z COR 18004KT 9999 -RA FEW006 SCT016 BKN030 20/20 Q1010 NOSIG RMK A2983 RA AMT T,0,4,0,10000,0,0,0,"-RA,RA"
2026-04-04 20:30:00,METAR RCMQ 042030Z 19005KT 9999 -RA FEW006 SCT016 BKN030 20/20 Q1010 RMK A2983,0,5,0,10000,0,0,0,-RA
2026-04-04 20:00:00,METAR RCMQ 042000Z 20003KT 9999 -RA FEW006 SCT016 BKN030 20/20 Q1010 RMK A2983 RA AMT 0.5MM,0,3,0,10000,0,0,0,"-RA,RA"
2026-04-04 19:00:00,METAR RCMQ 041900Z 22002KT 9999 -RA FEW006 SCT016 BKN030 20/20 Q1010 RMK A2985 RA AMT T,0,2,0,10000,0,0,0,"-RA,RA"
2026-04-04 18:03:00,SPECI RCMQ 041803Z 18005KT 9999 -RA FEW006 SCT016 BKN030 20/20 Q1010 RMK A2985,0,5,0,10000,0,0,0,-RA
2026-04-04 18:00:00,METAR RCMQ 041800Z 18005KT 9999 FEW006 SCT016 BKN030 20/20 Q1010 RMK A2985 RA AMT T,0,5,0,10000,0,0,0,RA
2026-04-04 17:03:00,SPECI RCMQ 041703Z 17005KT 9999 FEW006 SCT016 BKN030 21/20 Q1011 RMK A2985,0,5,0,10000,0,0,0,
2026-04-04 17:00:00,METAR RCMQ 041700Z 17005KT 9999 -RA FEW006 SCT016 BKN030 21/20 Q1011 RMK A2985 RA AMT T,0,5,0,10000,0,0,0,"-RA,RA"
2026-04-04 16:00:00,METAR RCMQ 041600Z 18004KT 9999 -RA FEW006 SCT016 BKN030 20/20 Q1010 RMK A2984 RA AMT T,0,4,0,10000,0,0,0,"-RA,RA"
2026-04-04 15:00:00,METAR RCMQ 041500Z 18005KT 9999 -RA FEW006 SCT016 BKN030 20/20 Q1010 NOSIG RMK A2984 RA AMT 0.5MM,0,5,0,10000,0,0,0,"-RA,RA"
2026-04-04 14:30:00,METAR RCMQ 041430Z 19005KT 8000 -RA FEW006 SCT016 BKN030 20/20 Q1010 NOSIG RMK A2985,0,5,0,8000,0,0,0,-RA
2026-04-04 14:10:00,SPECI RCMQ 041410Z 17004KT 6000 -RA FEW006 SCT016 BKN030 20/20 Q1010 NOSIG RMK A2985,0,4,0,6000,0,0,0,-RA
2026-04-04 14:00:00,METAR RCMQ 041400Z 16005KT 4000 -RA BR SCT004 FEW010CB BKN016 BKN030 20/20 Q1010 NOSIG RMK A2985 RA AMT 1.0MM CB NW STNRY APCH CLD SCT004,0,5,0,4000,0,0,1,"-RA,BR,RA"
2026-04-04 13:30:00,METAR RCMQ 041330Z 15005KT 4000 -RA BR SCT004 FEW010CB BKN016 BKN030 21/20 Q1011 NOSIG RMK A2985 CB NW STNRY APCH CLD SCT004,0,5,0,4000,0,0,1,"-RA,BR"
2026-04-04 13:20:00,SPECI RCMQ 041320Z COR 14007KT 4000 -RA BR SCT004 FEW010CB BKN016 BKN030 21/20 Q1011 NOSIG RMK A2985 CB NW APCH CLD SCT004,0,7,0,4000,0,0,1,"-RA,BR"
2026-04-04 13:00:00,METAR RCMQ 041300Z 14007KT 3200 -RA VCTS BR SCT004 FEW010CB BKN016 BKN030 20/20 Q1011 RETS NOSIG RMK A2985 RA AMT 4.0MM TS NW STNRY APCH CLD SCT004,0,7,0,3200,1,0,1,"-RA,BR,RA,TS,VC"
2026-04-04 12:35:00,SPECI RCMQ 041235Z COR 15007KT 3200 -RA VCTS BR SCT004 FEW010CB BKN016 BKN030 20/20 Q1010 RETS NOSIG RMK A2985 TS NW STNRY APCH CLD SCT004,0,7,0,3200,1,0,1,"-RA,BR,TS,VC"
2026-04-04 12:30:00,METAR RCMQ 041230Z 15006KT 1600 TSRA SCT004 FEW010CB BKN012 BKN020 21/20 Q1010 BECMG TL1240 1200 TSRA RMK A2985 TS W MOV NW APCH CLD SCT004,0,6,0,1600,1,0,0,"RA,TS"
2026-04-04 12:00:00,METAR RCMQ 041200Z 16008KT 1600 TSRA SCT004 FEW010CB BKN012 BKN020 20/20 Q1010 BECMG TL1240 1200 TSRA RMK A2984 RA AMT 5.0MM TS W STNRY APCH CLD SCT004,0,8,0,1600,1,0,0,"RA,TS"
2026-04-04 11:40:00,SPECI RCMQ 041140Z 18011KT 1600 TSRA SCT004 FEW010CB BKN012 BKN020 21/20 Q1010 BECMG TL1240 1200 TSRA RMK A2983 TS W STNRY APCH CLD SCT004,0,11,0,1600,1,0,0,"RA,TS"
2026-04-04 11:30:00,METAR RCMQ 041130Z 19013KT 3200 RA VCTS BR SCT004 FEW010CB BKN012 BKN020 20/20 Q1010 BECMG FM1140 TL1240 1200 TSRA RMK A2982 TS W STNRY APCH CLD SCT004,0,13,0,3200,1,0,1,"BR,RA,TS,VC"
2026-04-04 11:05:00,SPECI RCMQ 041105Z COR 20014KT 3200 RA VCTS BR SCT004 FEW010CB BKN012 BKN020 21/20 Q1009 BECMG FM1140 TL1240 1200 TSRA RMK A2982 TS W STNRY APCH CLD SCT004,0,14,0,3200,1,0,1,"BR,RA,TS,VC"
2026-04-04 11:00:00,METAR RCMQ 041100Z 18014KT 5000 RA VCTS BR SCT004 FEW010CB BKN012 BKN020 21/20 Q1009 NOSIG RMK A2980 RA AMT 4.0MM TS SE STNRY APCH CLD SCT004,0,14,0,5000,1,0,1,"BR,RA,TS,VC"
2026-04-04 10:50:00,SPECI RCMQ 041050Z 18013KT 5000 RA VCTS BR SCT004 FEW010CB BKN012 BKN020 21/20 Q1009 NOSIG RMK A2980 TS SE MOV VRBL APCH CLD SCT004,0,13,0,5000,1,0,1,"BR,RA,TS,VC"
2026-04-04 10:30:00,METAR RCMQ 041030Z 20010KT 5000 RA BR SCT004 FEW010TCU BKN012 BKN020 22/21 Q1009 NOSIG RMK A2981 APCH CLD SCT004 TCU S,0,10,0,5000,0,0,1,"BR,RA"
2026-04-04 10:00:00,METAR RCMQ 041000Z 20009KT 5000 RA BR SCT004 BKN012 BKN020 22/21 Q1009 NOSIG RMK A2980 APCH CLD SCT004,0,9,0,5000,0,0,1,"BR,RA"
2026-04-04 09:40:00,SPECI RCMQ 040940Z COR 18005KT 5000 RA BR SCT004 BKN012 BKN020 22/22 Q1008 NOSIG RMK A2979 APCH CLD SCT004,0,5,0,5000,0,0,1,"BR,RA"
2026-04-04 09:30:00,METAR RCMQ 040930Z 17005KT 8000 -RA SCT008 BKN016 BKN030 23/22 Q1008 NOSIG RMK A2978 APCH CLD SCT008,0,5,0,8000,0,0,0,-RA
2026-04-04 09:00:00,METAR RCMQ 040900Z 20008KT 8000 -RA FEW008 BKN016 BKN030 22/22 Q1008 NOSIG RMK A2977 RA AMT T,0,8,0,8000,0,0,0,"-RA,RA"
2026-04-04 08:30:00,METAR RCMQ 040830Z 18007KT 8000 -RA FEW008 SCT020 BKN040 24/22 Q1007 NOSIG RMK A2976,0,7,0,8000,0,0,0,-RA
2026-04-04 08:00:00,METAR RCMQ 040800Z 20005KT 8000 -RA FEW008 SCT020 BKN040 24/21 Q1008 NOSIG RMK A2976 RA AMT T,0,5,0,8000,0,0,0,"-RA,RA"
2026-04-04 07:45:00,SPECI RCMQ 040745Z 17006KT 9999 -RA FEW008 SCT020 BKN040 24/21 Q1007 NOSIG RMK A2975,0,6,0,10000,0,0,0,-RA
2026-04-04 07:30:00,METAR RCMQ 040730Z 16006KT 9999 FEW008 SCT020 BKN040 24/21 Q1007 NOSIG RMK A2975,0,6,0,10000,0,0,0,
2026-04-04 07:00:00,METAR RCMQ 040700Z 16008KT 9999 FEW008 SCT020 BKN040 24/21 Q1007 NOSIG RMK A2976,0,8,0,10000,0,0,0,
2026-04-04 06:42:00,SPECI RCMQ 040642Z 17009KT 8000 FEW004 SCT010 BKN020 24/21 Q1008 BECMG 18012KT RMK A2977,0,9,0,8000,0,0,0,
2026-04-04 06:30:00,METAR RCMQ 040630Z 17009KT 8000 FEW004 SCT010 BKN020 24/22 Q1008 NOSIG RMK A2977,0,9,0,8000,0,0,0,
2026-04-04 06:05:00,SPECI RCMQ 040605Z 14006KT 8000 FEW004 SCT010 BKN020 23/22 Q1008 NOSIG RMK A2977,0,6,0,8000,0,0,0,
2026-04-04 06:00:00,METAR RCMQ 040600Z 12005KT 8000 -RA FEW004 SCT010 BKN020 23/22 Q1008 NOSIG RMK A2978 RA AMT T,0,5,0,8000,0,0,0,"-RA,RA"
2026-04-04 05:30:00,METAR RCMQ 040530Z 08003KT 6000 -RA SCT004 FEW010CB BKN020 22/22 Q1009 NOSIG RMK A2980 CB SE MOV NE APCH CLD SCT004,0,3,0,6000,0,0,0,-RA
2026-04-04 05:00:00,METAR RCMQ 040500Z 03004KT 6000 -RA SCT004 FEW010CB BKN020 21/21 Q1009 NOSIG RMK A2981 RA AMT 0.5MM CB S APCH CLD SCT004,0,4,0,6000,0,0,0,"-RA,RA"
2026-04-04 04:30:00,METAR RCMQ 040430Z 03004KT 6000 -RA SCT004 FEW010CB BKN020 20/20 Q1009 NOSIG RMK A2981 CB S APCH CLD SCT004,0,4,0,6000,0,0,0,-RA
2026-04-04 04:00:00,METAR RCMQ 040400Z COR 36006KT 5000 -RA BR SCT004 FEW010CB BKN020 19/19 Q1009 RETS BECMG 5000 -RA BR RMK A2981 RA AMT 1.0MM CB S APCH CLD SCT004,0,6,0,5000,1,0,1,"-RA,BR,RA,TS"
2026-04-04 03:53:00,SPECI RCMQ 040353Z 36006KT 5000 -RA BR SCT004 FEW010CB BKN020 19/19 Q1009 BECMG 5000 -RA BR RMK A2982 CB S APCH CLD SCT004,0,6,0,5000,0,0,1,"-RA,BR"
2026-04-04 03:40:00,SPECI RCMQ 040340Z 36007KT 5000 -RA VCTS BR SCT004 FEW010CB BKN020 19/19 Q1009 RETS BECMG 5000 -RA BR RMK A2982 TS S MOV NE APCH CLD SCT004,0,7,0,5000,1,0,1,"-RA,BR,TS,VC"
2026-04-04 03:30:00,METAR RCMQ 040330Z 36007KT 4000 -TSRA SCT004 FEW010CB BKN016 19/19 Q1009 BECMG TL0400 1200 TSRA RMK A2982 TS S MOV NE APCH CLD SCT004,0,7,0,4000,1,0,0,"RA,TS"
2026-04-04 03:00:00,METAR RCMQ 040300Z 03004KT 4000 -TSRA SCT004 FEW010CB BKN016 19/19 Q1009 BECMG TL0400 1200 TSRA RMK A2981 RA AMT 1.0MM TS S MOV NE APCH CLD SCT004,0,4,0,4000,1,0,0,"RA,TS"
2026-04-04 02:30:00,METAR RCMQ 040230Z 06004KT 4000 -TSRA SCT004 FEW010CB BKN016 19/19 Q1009 BECMG TL0400 1200 TSRA RMK A2981 TS SW MOV NE APCH CLD SCT004,0,4,0,4000,1,0,0,"RA,TS"
2026-04-04 02:13:00,SPECI RCMQ 040213Z 06004KT 4000 -TSRA SCT004 FEW010CB BKN016 19/19 Q1009 BECMG TL0400 03006KT 1200 TSRA RMK A2981 TS SW MOV NE APCH CLD SCT004,0,4,0,4000,1,0,0,"RA,TS"
2026-04-04 02:00:00,METAR RCMQ 040200Z 07006KT 4000 -TSRA SCT004 FEW010CB BKN016 19/19 Q1010 RERA BECMG TL0400 1200 TSRA RMK A2983 RA AMT 11.0MM TS SW MOV NE APCH CLD SCT004,0,6,0,4000,1,0,0,"RA,TS"
2026-04-04 01:51:00,SPECI RCMQ 040151Z 09006KT 4000 -TSRA SCT004 FEW010CB BKN016 19/19 Q1010 BECMG TL0400 1200 TSRA RMK A2982 TS SW MOV NE APCH CLD SCT004,0,6,0,4000,1,0,0,"RA,TS"
2026-04-04 01:45:00,SPECI RCMQ 040145Z COR 09006KT 2400 -TSRA SCT004 FEW010CB BKN016 19/19 Q1009 RERA BECMG TL0400 1200 TSRA RMK A2982 TS SW MOV NE APCH CLD SCT004,0,6,0,2400,1,0,0,"RA,TS"
2026-04-04 01:30:00,METAR RCMQ 040130Z 07004KT 1600 TSRA SCT004 FEW010CB BKN012 19/19 Q1009 BECMG TL0200 1200 TSRA RMK A2982 TS OVHD STNRY APCH CLD SCT004,0,4,0,1600,1,0,0,"RA,TS"
2026-04-04 01:18:00,SPECI RCMQ 040118Z 05008KT 1600 TSRA SCT004 FEW010CB BKN012 19/19 Q1009 BECMG TL0200 1200 TSRA RMK A2982 TS OVHD STNRY APCH CLD SCT004,0,8,0,1600,1,0,0,"RA,TS"
2026-04-04 01:12:00,SPECI RCMQ 040112Z 06008KT 1200 R18/1600U TSRA BKN004 FEW010CB BKN012 19/19 Q1009 BECMG TL0200 1200 TSRA RMK A2982 TS OVHD STNRY,0,8,0,1200,1,0,0,"RA,TS"
2026-04-04 01:00:00,METAR RCMQ 040100Z 05008KT 0800 R18/0700U TSRA BKN004 FEW010CB BKN012 19/19 Q1010 BECMG TL0200 1200 TSRA RMK A2983 RA AMT 12.0MM TS OVHD STNRY,0,8,0,1287200,1,0,0,"RA,TS"
2026-04-04 00:30:00,METAR RCMQ 040030Z 03015KT 0800 R18/0600D TSRA BKN004 FEW010CB BKN012 20/19 Q1009 BECMG TL0200 1200 TSRA RMK A2981 TS OVHD STNRY,0,15,0,1287200,1,0,0,"RA,TS"
2026-04-04 00:23:00,SPECI RCMQ 040023Z COR 06007KT 0800 R18/0700 TSRA BKN004 FEW010CB BKN012 20/19 Q1009 BECMG TL0200 1200 TSRA RMK A2981 TS OVHD STNRY,0,7,0,1287200,1,0,0,"RA,TS"
2026-04-04 00:18:00,SPECI RCMQ 040018Z 18004KT 1600 TSRA BKN004 FEW010CB BKN012 20/19 Q1009 BECMG TL0200 1200 TSRA RMK A2981 TS OVHD STNRY,0,4,0,1600,1,0,0,"RA,TS"
2026-04-04 00:00:00,METAR RCMQ 040000Z 18007KT 4000 TSRA SCT004 FEW008CB BKN010 BKN030 22/22 Q1008 BECMG TL0200 1200 TSRA RMK A2979 RA AMT 5.0MM TS NW STNRY APCH CLD SCT004,0,7,0,4000,1,0,0,"RA,TS"
2026-04-03 23:30:00,METAR RCMQ 032330Z 23010KT 4000 TSRA SCT004 FEW008CB BKN010 BKN030 23/22 Q1008 BECMG TL0200 1200 TSRA RMK A2978 TS NW STNRY APCH CLD SCT004,0,10,0,4000,1,0,0,"RA,TS"
2026-04-03 23:10:00,SPECI RCMQ 032310Z 19014KT 4000 TSRA SCT004 FEW008CB BKN010 BKN030 23/22 Q1008 BECMG TL0200 1200 TSRA RMK A2978 TS NW STNRY APCH CLD SCT004,0,14,0,4000,1,0,0,"RA,TS"
2026-04-03 23:00:00,METAR RCMQ 032300Z 19015KT 6000 RA VCTS SCT004 FEW008CB BKN010 BKN030 23/22 Q1008 BECMG FM2310 TL0200 1200 TSRA RMK A2977 RA AMT 4.0MM TS NW STNRY APCH CLD SCT004,0,15,0,6000,1,0,0,"RA,TS,VC"
2026-04-03 22:30:00,METAR RCMQ 032230Z 19014KT 6000 RA VCTS SCT004 FEW008CB BKN010 BKN030 22/22 Q1007 NOSIG RMK A2975 TS NW STNRY APCH CLD SCT004,0,14,0,6000,1,0,0,"RA,TS,VC"
2026-04-03 22:15:00,SPECI RCMQ 032215Z 19015KT 6000 RA VCTS SCT004 FEW008CB BKN010 BKN030 23/22 Q1007 BECMG 6000 RA RMK A2975 TS NW STNRY APCH CLD SCT004,0,15,0,6000,1,0,0,"RA,TS,VC"
2026-04-03 22:00:00,METAR RCMQ 032200Z 18013KT 9000 -RA VCTS SCT004 FEW008CB BKN010 BKN030 23/22 Q1007 RETS NOSIG RMK A2975 RA AMT 0.5MM TS NW STNRY APCH CLD SCT004,0,13,0,9000,1,0,0,"-RA,RA,TS,VC"
2026-04-03 21:50:00,SPECI RCMQ 032150Z 18011KT 9000 -RA VCTS SCT004 FEW008CB BKN010 BKN030 23/22 Q1007 NOSIG RMK A2974 TS NW STNRY,0,11,0,9000,1,0,0,"-RA,TS,VC"
2026-04-03 21:30:00,METAR RCMQ 032130Z 18011KT 9000 -TSRA SCT004 FEW008CB BKN010 BKN030 22/22 Q1007 BECMG TL2200 1200 -TSRA RMK A2975 TS W MOV NW,0,11,0,9000,1,0,0,"RA,TS"
2026-04-03 21:00:00,METAR RCMQ 032100Z 17009KT 9000 -TSRA SCT004 FEW008CB BKN010 BKN030 22/21 Q1007 BECMG TL2200 1200 -TSRA RMK A2974 RA AMT 1.5MM TS W MOV NW,0,9,0,9000,1,0,0,"RA,TS"
2026-04-03 20:30:00,METAR RCMQ 032030Z 17008KT 9000 -TSRA SCT004 FEW008CB BKN010 BKN030 21/21 Q1007 RMK A2975 TS NW STNRY,0,8,0,9000,1,0,0,"RA,TS"
2026-04-03 20:00:00,METAR RCMQ 032000Z 14007KT 7000 -TSRA SCT004 FEW008CB BKN010 BKN030 21/20 Q1007 RMK A2974 RA AMT 10.0MM TS NW STNRY,0,7,0,7000,1,0,0,"RA,TS"
2026-04-03 19:43:00,SPECI RCMQ 031943Z 10008KT 5000 -TSRA SCT004 FEW008CB BKN010 BKN030 20/20 Q1007 RMK A2974 TS NW STNRY,0,8,0,5000,1,0,0,"RA,TS"
2026-04-03 19:32:00,SPECI RCMQ 031932Z 08009KT 3200 -TSRA SCT004 FEW008CB BKN010 BKN030 20/20 Q1007 RERA RMK A2975 TS NW STNRY,0,9,0,3200,1,0,0,"RA,TS"
2026-04-03 19:30:00,SPECI RCMQ 031930Z 08009KT 3200 -TSRA SCT004 FEW008CB BKN010 BKN030 20/20 Q1007 RERA RMK A2975 TS NW STNRY,0,9,0,3200,1,0,0,"RA,TS"
2026-04-03 19:05:00,SPECI RCMQ 031905Z COR 10005KT 1600 +TSRA BKN004 FEW008CB OVC010 20/20 Q1008 RMK A2978 TS W MOV NW,0,5,0,1600,1,0,0,"RA,TS"
2026-04-03 19:00:00,METAR RCMQ 031900Z 10005KT 2400 TSRA SCT004 FEW008CB BKN010 20/19 Q1008 RMK A2979 RA AMT 5.0MM TS NE STNRY,0,5,0,2400,1,0,0,"RA,TS"
2026-04-03 18:35:00,SPECI RCMQ 031835Z 07009KT 2400 TSRA SCT004 FEW008CB BKN010 20/19 Q1008 RMK A2976 TS NW MOV NE,0,9,0,2400,1,0,0,"RA,TS"
2026-04-03 18:00:00,METAR RCMQ 031800Z 07008KT 2400 -TSRA SCT004 FEW008CB BKN010 21/20 Q1009 RERA RMK A2980 RA AMT 12.0MM TS NW MOV NE,0,8,0,2400,1,0,0,"RA,TS"
2026-04-03 17:46:00,SPECI RCMQ 031746Z 04007KT 2400 -TSRA SCT004 FEW008CB BKN010 21/20 Q1008 RERA RMK A2979 TS NW MOV NE,0,7,0,2400,1,0,0,"RA,TS"
2026-04-03 17:42:00,SPECI RCMQ 031742Z 06010KT 060V190 1200 R18/1000U TSRA BKN004 FEW008CB OVC010 20/20 Q1008 RERA RMK A2978 TS NW MOV NE,0,10,0,1200,1,0,0,"RA,TS"
2026-04-03 17:24:00,SPECI RCMQ 031724Z 19014KT 0800 R18/650 +TSRA BKN004 FEW008CB OVC010 23/21 Q1009 RMK A2980 TS NW STNRY,0,14,0,800,1,0,0,"RA,TS"
2026-04-03 17:18:00,SPECI RCMQ 031718Z 19014KT 1600 +TSRA SCT004 FEW010CB OVC010 23/21 Q1009 RMK A2980 TS NW STNRY,0,14,0,1600,1,0,0,"RA,TS"
2026-04-03 17:00:00,METAR RCMQ 031700Z 16012KT 3200 TSRA SCT004 FEW010CB BKN012 BKN030 24/21 Q1008 RMK A2977 RA AMT 2.0MM TS NW STNRY,0,12,0,3200,1,0,0,"RA,TS"
2026-04-03 16:37:00,SPECI RCMQ 031637Z 17011KT 3200 TSRA SCT004 FEW010CB BKN012 BKN030 24/21 Q1008 RMK A2978 TS NW STNRY,0,11,0,3200,1,0,0,"RA,TS"
2026-04-03 16:00:00,METAR RCMQ 031600Z 17011KT 4000 -TSRA SCT004 FEW010CB BKN012 BKN030 24/22 Q1008 RERA RMK A2978 RA AMT 3.0MM TS NW STNRY,0,11,0,4000,1,0,0,"RA,TS"
2026-04-03 15:46:00,SPECI RCMQ 031546Z 17012KT 4000 -TSRA SCT004 FEW010CB BKN012 BKN030 24/22 Q1008 RERA RMK A2978 TS OVHD MOV NW,0,12,0,4000,1,0,0,"RA,TS"
2026-04-03 15:00:00,METAR RCMQ 031500Z 17006KT 4000 TSRA SCT004 FEW010CB BKN012 BKN030 24/21 Q1010 RMK A2983 RA AMT 4.0MM TS OVHD STNRY,0,6,0,4000,1,0,0,"RA,TS"
2026-04-03 14:40:00,SPECI RCMQ 031440Z 21005KT 4000 TSRA SCT004 FEW010CB BKN012 BKN030 24/21 Q1010 RMK A2983 TS W MOV NW,0,5,0,4000,1,0,0,"RA,TS"
2026-04-03 14:22:00,SPECI RCMQ 031422Z 19009KT 5000 -RA VCTS BR SCT006 FEW010CB BKN012 BKN030 24/21 Q1009 RMK A2981 TS W MOV VRBL,0,9,0,5000,1,0,1,"-RA,BR,TS,VC"
2026-04-03 14:18:00,SPECI RCMQ 031418Z 18011KT 5000 -RA BR SCT006 FEW010TCU BKN012 BKN030 24/21 Q1009 RERA RMK A2980 TCU W,0,11,0,5000,0,0,1,"-RA,BR,RA"
2026-04-03 14:05:00,SPECI RCMQ 031405Z 17013KT 5000 RA BR SCT006 BKN012 BKN030 24/21 Q1008 RMK A2978,0,13,0,5000,0,0,1,"BR,RA"
2026-04-03 14:00:00,METAR RCMQ 031400Z 16010KT 7000 -RA FEW008 BKN016 BKN040 25/21 Q1008 RMK A2977 RA AMT 0.5MM,0,10,0,7000,0,0,0,"-RA,RA"
2026-04-03 13:30:00,METAR RCMQ 031330Z 16011KT 8000 -RA FEW008 BKN016 BKN040 25/21 Q1008 NOSIG RMK A2978,0,11,0,8000,0,0,0,-RA
2026-04-03 13:00:00,METAR RCMQ 031300Z 18010KT 9999 -RA FEW008 BKN060 25/21 Q1009 NOSIG RMK A2980 RA AMT T,0,10,0,10000,0,0,0,"-RA,RA"
2026-04-03 12:30:00,METAR RCMQ 031230Z 17008KT 9999 -RA FEW008 BKN060 25/22 Q1008 NOSIG RMK A2979,0,8,0,10000,0,0,0,-RA
2026-04-03 12:10:00,SPECI RCMQ 031210Z COR 19010KT 9999 -RA FEW008 BKN060 26/22 Q1008 NOSIG RMK A2979,0,10,0,10000,0,0,0,-RA
2026-04-03 12:00:00,METAR RCMQ 031200Z 18010KT 9999 VCSH FEW008 BKN060 26/22 Q1008 NOSIG RMK A2978 VCSH W,0,10,0,10000,0,0,0,"SH,VC"
2026-04-03 11:30:00,METAR RCMQ 031130Z 17009KT 9999 FEW008 BKN060 26/22 Q1008 NOSIG RMK A2977,0,9,0,10000,0,0,0,
2026-04-03 11:00:00,METAR RCMQ 031100Z 17010KT 9999 FEW008 BKN060 26/22 Q1008 NOSIG RMK A2978,0,10,0,10000,0,0,0,
2026-04-03 10:30:00,METAR RCMQ 031030Z 20012KT 9999 FEW008 BKN060 26/21 Q1008 NOSIG RMK A2976,0,12,0,10000,0,0,0,
2026-04-03 10:00:00,METAR RCMQ 031000Z 21011KT 9999 FEW008 BKN060 27/21 Q1008 NOSIG RMK A2977,0,11,0,10000,0,0,0,
2026-04-03 09:30:00,METAR RCMQ 030930Z 21009KT 9999 FEW008 SCT050 BKN100 27/21 Q1008 NOSIG RMK A2977,0,9,0,10000,0,0,0,
2026-04-03 09:00:00,METAR RCMQ 030900Z 24006KT 9999 FEW008 SCT050 BKN100 29/22 Q1008 NOSIG RMK A2977,0,6,0,10000,0,0,0,
2026-04-03 08:30:00,METAR RCMQ 030830Z 25005KT 9999 FEW008 BKN100 28/22 Q1007 NOSIG RMK A2975,0,5,0,10000,0,0,0,
2026-04-03 08:00:00,METAR RCMQ 030800Z 24006KT 9999 FEW008 BKN100 28/22 Q1007 NOSIG RMK A2975,0,6,0,10000,0,0,0,
2026-04-03 07:30:00,METAR RCMQ 030730Z 24008KT 9999 FEW006 SCT020 BKN040 28/22 Q1007 NOSIG RMK A2975,0,8,0,10000,0,0,0,
2026-04-03 07:00:00,METAR RCMQ 030700Z 24010KT 9999 FEW006 SCT020 BKN040 28/22 Q1007 NOSIG RMK A2976,0,10,0,10000,0,0,0,
2026-04-03 06:30:00,METAR RCMQ 030630Z 24010KT 9999 FEW006 SCT020 BKN040 28/22 Q1008 NOSIG RMK A2977,0,10,0,10000,0,0,0,
2026-04-03 06:00:00,METAR RCMQ 030600Z 20008KT 9999 FEW006 SCT020 BKN040 28/23 Q1008 NOSIG RMK A2978,0,8,0,10000,0,0,0,
2026-04-03 05:30:00,METAR RCMQ 030530Z 18008KT 9999 FEW006 SCT020 BKN040 28/23 Q1009 NOSIG RMK A2979,0,8,0,10000,0,0,0,
2026-04-03 05:00:00,METAR RCMQ 030500Z 18010KT 9999 FEW006 SCT020 BKN040 28/22 Q1009 NOSIG RMK A2980,0,10,0,10000,0,0,0,
2026-04-03 04:48:00,SPECI RCMQ 030448Z COR 17010KT 9999 FEW006 SCT020 BKN040 28/23 Q1010 BECMG 18012KT RMK A2982,0,10,0,10000,0,0,0,
2026-04-03 04:30:00,METAR RCMQ 030430Z 16010KT 9999 FEW006 SCT020 BKN040 28/23 Q1010 NOSIG RMK A2982,0,10,0,10000,0,0,0,
2026-04-03 04:00:00,METAR RCMQ 030400Z 17007KT 9999 FEW006 SCT020 BKN040 28/24 Q1010 NOSIG RMK A2985,0,7,0,10000,0,0,0,
2026-04-03 03:30:00,METAR RCMQ 030330Z 17006KT 9999 FEW006 SCT020 BKN040 25/23 Q1011 NOSIG RMK A2987,0,6,0,10000,0,0,0,
2026-04-03 03:00:00,METAR RCMQ 030300Z 19005KT 9999 FEW006 SCT020 BKN040 25/23 Q1012 NOSIG RMK A2989,0,5,0,10000,0,0,0,
2026-04-03 02:30:00,METAR RCMQ 030230Z 18005KT 9999 FEW006 SCT020 BKN040 23/22 Q1012 NOSIG RMK A2991,0,5,0,10000,0,0,0,
2026-04-03 02:00:00,METAR RCMQ 030200Z 18004KT 8000 FEW006 BKN020 BKN040 23/22 Q1013 NOSIG RMK A2991,0,4,0,8000,0,0,0,
2026-04-03 01:30:00,METAR RCMQ 030130Z 18005KT 8000 FEW006 BKN020 BKN040 22/22 Q1013 NOSIG RMK A2991,0,5,0,8000,0,0,0,
2026-04-03 01:00:00,METAR RCMQ 030100Z 19005KT 8000 FEW006 BKN020 BKN040 22/21 Q1013 NOSIG RMK A2993,0,5,0,8000,0,0,0,
2026-04-03 00:30:00,METAR RCMQ 030030Z 18004KT 8000 VCSH FEW006 BKN020 BKN040 21/21 Q1013 NOSIG RMK A2992 VCSH NE,0,4,0,8000,0,0,0,"SH,VC"
2026-04-03 00:00:00,METAR RCMQ 030000Z 16005KT 8000 VCSH FEW006 BKN020 BKN040 21/21 Q1012 NOSIG RMK A2991 RA AMT 0.5MM VCSH NE,0,5,0,8000,0,0,0,"RA,SH,VC"
2026-04-02 23:55:00,SPECI RCMQ 022355Z 16004KT 8000 VCSH FEW006 BKN020 BKN040 21/21 Q1013 NOSIG RMK A2991 VCSH NE,0,4,0,8000,0,0,0,"SH,VC"
2026-04-02 23:30:00,METAR RCMQ 022330Z 16004KT 8000 -RA FEW006 BKN020 BKN040 21/21 Q1013 NOSIG RMK A2992,0,4,0,8000,0,0,0,-RA
2026-04-02 23:00:00,METAR RCMQ 022300Z 18002KT 8000 -RA FEW006 BKN020 BKN040 21/20 Q1013 NOSIG RMK A2991 RA AMT 0.2MM,0,2,0,8000,0,0,0,"-RA,RA"
2026-04-02 22:30:00,METAR RCMQ 022230Z 00000KT 6000 -RA FEW006 BKN020 BKN040 20/20 Q1012 NOSIG RMK A2991,0,0,0,6000,0,0,0,-RA
2026-04-02 22:00:00,METAR RCMQ 022200Z 36004KT 8000 -RA FEW006 BKN020 BKN040 20/20 Q1012 NOSIG RMK A2990 RA AMT 0.2MM,0,4,0,8000,0,0,0,"-RA,RA"
2026-04-02 21:30:00,METAR RCMQ 022130Z 18003KT 7000 -RA FEW006 BKN016 BKN030 20/20 Q1012 NOSIG RMK A2990,0,3,0,7000,0,0,0,-RA
2026-04-02 21:00:00,METAR RCMQ 022100Z 17002KT 7000 -RA FEW006 BKN016 BKN030 20/20 Q1012 NOSIG RMK A2989 RA AMT 0.6MM,0,2,0,7000,0,0,0,"-RA,RA"
2026-04-02 20:30:00,METAR RCMQ 022030Z 16002KT 7000 -RA FEW006 BKN016 BKN030 20/20 Q1012 RMK A2990,0,2,0,7000,0,0,0,-RA
2026-04-02 20:00:00,METAR RCMQ 022000Z 12004KT 6000 -RA FEW006 BKN016 BKN030 20/20 Q1012 RMK A2989 RA AMT 0.2MM,0,4,0,6000,0,0,0,"-RA,RA"
2026-04-02 19:00:00,METAR RCMQ 021900Z 12001KT 5000 -RA BR FEW006 BKN016 BKN030 20/20 Q1013 RMK A2992 RA AMT 0.4MM,0,1,0,5000,0,0,1,"-RA,BR,RA"
2026-04-02 18:00:00,METAR RCMQ 021800Z 10001KT 5000 -RA BR FEW006 BKN016 BKN030 19/19 Q1013 RMK A2993 RA AMT 0.4MM,0,1,0,5000,0,0,1,"-RA,BR,RA"
2026-04-02 17:26:00,SPECI RCMQ 021726Z 08004KT 5000 -RA BR FEW006 BKN016 BKN030 19/19 Q1014 RMK A2994,0,4,0,5000,0,0,1,"-RA,BR"
2026-04-02 17:00:00,METAR RCMQ 021700Z 05006KT 4000 -RA BR FEW004 BKN012 BKN030 19/19 Q1014 RMK A2996 RA AMT 1.5MM,0,6,0,4000,0,0,1,"-RA,BR,RA"
2026-04-02 16:55:00,SPECI RCMQ 021655Z 05006KT 4000 -RA BR FEW004 BKN012 BKN030 19/19 Q1014 RMK A2996,0,6,0,4000,0,0,1,"-RA,BR"
2026-04-02 16:00:00,METAR RCMQ 021600Z 35013KT 3200 -RA BR SCT004 BKN010 OVC020 19/19 Q1015 RERA RMK A3000 RA AMT 6.8MM,0,13,0,3200,0,0,1,"-RA,BR,RA"
2026-04-02 15:53:00,SPECI RCMQ 021553Z 34012KT 3200 -RA BR SCT004 BKN010 OVC020 19/19 Q1015 RERA RMK A3000,0,12,0,3200,0,0,1,"-RA,BR,RA"
2026-04-02 15:40:00,SPECI RCMQ 021540Z 35010KT 3200 RA BR SCT004 BKN010 OVC020 19/19 Q1015 RERA RMK A3000,0,10,0,3200,0,0,1,"BR,RA"
2026-04-02 15:22:00,SPECI RCMQ 021522Z 33011KT 2400 +RA BR SCT004 BKN010 OVC020 19/19 Q1016 RMK A3001,0,11,0,2400,0,1,1,"+RA,BR"
2026-04-02 15:17:00,SPECI RCMQ 021517Z 36010KT 3200 RA BR SCT004 BKN010 OVC020 20/19 Q1016 RMK A3001,0,10,0,3200,0,0,1,"BR,RA"
2026-04-02 15:00:00,METAR RCMQ 021500Z 36011KT 3200 -RA BR SCT004 BKN010 OVC020 20/19 Q1015 RERA RMK A3000 RA AMT 10.0MM,0,11,0,3200,0,0,1,"-RA,BR,RA"
2026-04-02 14:50:00,SPECI RCMQ 021450Z 35011KT 3200 -RA BR SCT004 BKN010 OVC020 20/20 Q1015 RERA RMK A3000,0,11,0,3200,0,0,1,"-RA,BR,RA"
2026-04-02 14:35:00,SPECI RCMQ 021435Z 35010KT 3200 RA BR SCT004 BKN010 BKN020 20/19 Q1015 RERA RMK A3000,0,10,0,3200,0,0,1,"BR,RA"
2026-04-02 14:15:00,SPECI RCMQ 021415Z 35009KT 2400 +RA BR SCT004 BKN010 BKN020 21/20 Q1016 RMK A3000,0,9,0,2400,0,1,1,"+RA,BR"
2026-04-02 14:12:00,SPECI RCMQ 021412Z 35009KT 4000 RA BR SCT006 BKN012 BKN020 21/20 Q1016 RMK A3000,0,9,0,4000,0,0,1,"BR,RA"
2026-04-02 14:00:00,METAR RCMQ 021400Z 32004KT 5000 RA BR SCT008 BKN016 BKN030 22/20 Q1015 RMK A2999 RA AMT 3.4MM,0,4,0,5000,0,0,1,"BR,RA"
2026-04-02 13:41:00,SPECI RCMQ 021341Z 30006KT 5000 RA BR FEW008 SCT016 BKN030 22/20 Q1015 NOSIG RMK A2999,0,6,0,5000,0,0,1,"BR,RA"
2026-04-02 13:30:00,METAR RCMQ 021330Z 25005KT 7000 -RA FEW012 BKN030 22/20 Q1015 NOSIG RMK A2999,0,5,0,7000,0,0,0,-RA
2026-04-02 13:00:00,METAR RCMQ 021300Z 21005KT 9000 -RA FEW012 BKN030 23/18 Q1015 NOSIG RMK A2998 RA AMT 0.4MM,0,5,0,9000,0,0,0,"-RA,RA"
2026-04-02 12:42:00,SPECI RCMQ 021242Z 20005KT 9000 -RA FEW012 BKN030 25/18 Q1015 NOSIG RMK A2997,0,5,0,9000,0,0,0,-RA
2026-04-02 12:30:00,METAR RCMQ 021230Z 20005KT 9999 FEW012 BKN040 24/18 Q1014 NOSIG RMK A2996,0,5,0,10000,0,0,0,
2026-04-02 12:00:00,METAR RCMQ 021200Z 19005KT 9999 FEW012 BKN040 25/18 Q1014 NOSIG RMK A2995,0,5,0,10000,0,0,0,
2026-04-02 11:30:00,METAR RCMQ 021130Z 20004KT 9999 FEW012 BKN040 BKN080 24/19 Q1014 NOSIG RMK A2994,0,4,0,10000,0,0,0,
2026-04-02 11:00:00,METAR RCMQ 021100Z 22001KT 9999 FEW012 BKN040 BKN080 24/19 Q1013 NOSIG RMK A2993,0,1,0,10000,0,0,0,
2026-04-02 10:30:00,METAR RCMQ 021030Z 00000KT 9999 FEW012 BKN060 BKN100 24/19 Q1013 NOSIG RMK A2992,0,0,0,10000,0,0,0,
2026-04-02 10:00:00,METAR RCMQ 021000Z 00000KT 9999 FEW012 BKN060 BKN100 24/19 Q1013 NOSIG RMK A2992,0,0,0,10000,0,0,0,
2026-04-02 09:30:00,METAR RCMQ 020930Z 34004KT 9999 FEW012 BKN060 25/19 Q1013 NOSIG RMK A2992,0,4,0,10000,0,0,0,
2026-04-02 09:00:00,METAR RCMQ 020900Z 33005KT 9999 FEW012 BKN060 25/19 Q1013 NOSIG RMK A2992,0,5,0,10000,0,0,0,
2026-04-02 08:30:00,METAR RCMQ 020830Z 34007KT 9999 FEW012 BKN060 25/19 Q1012 NOSIG RMK A2991,0,7,0,10000,0,0,0,
2026-04-02 08:00:00,METAR RCMQ 020800Z 34010KT 9999 FEW012 BKN060 25/18 Q1012 NOSIG RMK A2990,0,10,0,10000,0,0,0,
2026-04-02 07:30:00,METAR RCMQ 020730Z 33010KT 9999 FEW012 BKN060 27/18 Q1012 NOSIG RMK A2990,0,10,0,10000,0,0,0,
2026-04-02 07:00:00,METAR RCMQ 020700Z 32009KT 9999 FEW012 BKN060 28/17 Q1012 NOSIG RMK A2990,0,9,0,10000,0,0,0,
2026-04-02 06:30:00,METAR RCMQ 020630Z 31007KT 9999 FEW012 BKN100 31/18 Q1013 NOSIG RMK A2991,0,7,0,10000,0,0,0,
2026-04-02 06:00:00,METAR RCMQ 020600Z 31005KT 9999 FEW012 BKN100 31/17 Q1013 NOSIG RMK A2993,0,5,0,10000,0,0,0,
2026-04-02 05:30:00,METAR RCMQ 020530Z 32007KT 9999 FEW012 SCT200 30/17 Q1014 NOSIG RMK A2995,0,7,0,10000,0,0,0,
2026-04-02 05:00:00,METAR RCMQ 020500Z 31009KT 9999 FEW012 SCT200 30/17 Q1014 NOSIG RMK A2997,0,9,0,10000,0,0,0,
2026-04-02 04:30:00,METAR RCMQ 020430Z 33008KT 9999 FEW012 SCT200 30/17 Q1015 NOSIG RMK A2998,0,8,0,10000,0,0,0,
2026-04-02 04:00:00,METAR RCMQ 020400Z 33008KT 9999 FEW012 SCT200 30/17 Q1015 NOSIG RMK A2999,0,8,0,10000,0,0,0,
2026-04-02 03:30:00,METAR RCMQ 020330Z 31005KT 9999 FEW012 BKN200 30/17 Q1016 NOSIG RMK A3000,0,5,0,10000,0,0,0,
2026-04-02 03:00:00,METAR RCMQ 020300Z 36005KT 9999 FEW012 BKN200 30/17 Q1016 NOSIG RMK A3002,0,5,0,10000,0,0,0,
2026-04-02 02:30:00,METAR RCMQ 020230Z 35005KT 9999 FEW012 SCT200 29/17 Q1016 NOSIG RMK A3002,0,5,0,10000,0,0,0,
2026-04-02 02:00:00,METAR RCMQ 020200Z 01004KT 9999 FEW012 29/16 Q1016 NOSIG RMK A3002,0,4,0,10000,0,0,0,
2026-04-02 01:30:00,METAR RCMQ 020130Z 01004KT 9999 FEW012 28/17 Q1017 NOSIG RMK A3003,0,4,0,10000,0,0,0,
2026-04-02 01:00:00,METAR RCMQ 020100Z 36004KT 9999 FEW012 27/17 Q1017 NOSIG RMK A3003,0,4,0,10000,0,0,0,
2026-04-02 00:30:00,METAR RCMQ 020030Z 03003KT 9999 FEW012 25/17 Q1016 NOSIG RMK A3002,0,3,0,10000,0,0,0,
2026-04-02 00:00:00,METAR RCMQ 020000Z 02003KT 9999 FEW012 23/17 Q1016 NOSIG RMK A3002,0,3,0,10000,0,0,0,
2026-04-01 23:30:00,METAR RCMQ 012330Z 01004KT 9999 FEW012 SCT060 21/18 Q1016 NOSIG RMK A3001,0,4,0,10000,0,0,0,
2026-04-01 23:00:00,METAR RCMQ 012300Z 01003KT 9999 FEW012 SCT060 19/17 Q1015 NOSIG RMK A3000,0,3,0,10000,0,0,0,
2026-04-01 22:30:00,METAR RCMQ 012230Z 36005KT 9999 FEW012 SCT040 17/16 Q1015 NOSIG RMK A2999,0,5,0,10000,0,0,0,
2026-04-01 22:00:00,METAR RCMQ 012200Z 36004KT 9999 FEW012 SCT040 17/15 Q1015 NOSIG RMK A2998,0,4,0,10000,0,0,0,
2026-04-01 21:30:00,METAR RCMQ 012130Z 01005KT 9999 FEW010 SCT060 17/15 Q1015 NOSIG RMK A2998,0,5,0,10000,0,0,0,
2026-04-01 21:00:00,METAR RCMQ 012100Z 01006KT 9999 FEW010 SCT060 17/15 Q1015 NOSIG RMK A2998,0,6,0,10000,0,0,0,
2026-04-01 20:30:00,METAR RCMQ 012030Z 36007KT 9999 FEW006 SCT060 17/15 Q1014 RMK A2997,0,7,0,10000,0,0,0,
2026-04-01 20:00:00,METAR RCMQ 012000Z 35007KT 9999 FEW006 SCT060 17/15 Q1014 RMK A2996,0,7,0,10000,0,0,0,
2026-04-01 19:00:00,METAR RCMQ 011900Z 36004KT 9999 FEW012 SCT050 17/16 Q1014 RMK A2996,0,4,0,10000,0,0,0,
2026-04-01 18:00:00,METAR RCMQ 011800Z 36005KT 9999 FEW012 SCT050 18/16 Q1015 RMK A2998,0,5,0,10000,0,0,0,
2026-04-01 17:00:00,METAR RCMQ 011700Z 01005KT 9999 FEW012 BKN050 19/16 Q1015 RMK A2999,0,5,0,10000,0,0,0,
2026-04-01 16:00:00,METAR RCMQ 011600Z 01004KT 9999 FEW012 BKN050 20/16 Q1015 RMK A3000,0,4,0,10000,0,0,0,
2026-04-01 15:00:00,METAR RCMQ 011500Z 02005KT 9999 FEW012 BKN050 19/16 Q1016 RMK A3000,0,5,0,10000,0,0,0,
2026-04-01 14:00:00,METAR RCMQ 011400Z 03006KT 9999 FEW012 19/16 Q1015 RMK A3000,0,6,0,10000,0,0,0,
2026-04-01 13:30:00,METAR RCMQ 011330Z 02005KT 9999 FEW012 SCT060 18/16 Q1015 NOSIG RMK A2999,0,5,0,10000,0,0,0,
2026-04-01 13:00:00,METAR RCMQ 011300Z 01005KT 9999 FEW012 SCT060 18/16 Q1015 NOSIG RMK A2999,0,5,0,10000,0,0,0,
2026-04-01 12:30:00,METAR RCMQ 011230Z 01006KT 9999 FEW012 SCT060 18/16 Q1015 NOSIG RMK A2997,0,6,0,10000,0,0,0,
2026-04-01 12:00:00,METAR RCMQ 011200Z 02006KT 9999 FEW012 SCT060 18/16 Q1014 NOSIG RMK A2996,0,6,0,10000,0,0,0,
2026-04-01 11:30:00,METAR RCMQ 011130Z 01008KT 9999 FEW012 SCT060 19/17 Q1014 NOSIG RMK A2996,0,8,0,10000,0,0,0,
2026-04-01 11:00:00,METAR RCMQ 011100Z 01008KT 9999 FEW012 SCT060 19/17 Q1014 NOSIG RMK A2995,0,8,0,10000,0,0,0,
2026-04-01 10:30:00,METAR RCMQ 011030Z 01007KT 9999 FEW012 SCT060 20/18 Q1014 NOSIG RMK A2994,0,7,0,10000,0,0,0,
2026-04-01 10:00:00,METAR RCMQ 011000Z 01008KT 9999 FEW012 21/18 Q1013 NOSIG RMK A2993,0,8,0,10000,0,0,0,
2026-04-01 09:30:00,METAR RCMQ 010930Z 01007KT 9999 FEW012 22/19 Q1013 NOSIG RMK A2994,0,7,0,10000,0,0,0,
2026-04-01 09:00:00,METAR RCMQ 010900Z 01006KT 9999 FEW012 SCT060 22/19 Q1013 NOSIG RMK A2993,0,6,0,10000,0,0,0,
2026-04-01 08:30:00,METAR RCMQ 010830Z 01008KT 9999 FEW010 BKN050 22/20 Q1013 NOSIG RMK A2993,0,8,0,10000,0,0,0,
2026-04-01 08:00:00,METAR RCMQ 010800Z 01008KT 9999 FEW010 SCT025 BKN050 22/20 Q1013 NOSIG RMK A2993,0,8,0,10000,0,0,0,
2026-04-01 07:30:00,METAR RCMQ 010730Z 01009KT 9999 FEW006 SCT020 BKN050 22/20 Q1013 NOSIG RMK A2993,0,9,0,10000,0,0,0,
2026-04-01 07:00:00,METAR RCMQ 010700Z 02009KT 9999 FEW006 SCT020 BKN050 22/20 Q1013 NOSIG RMK A2993,0,9,0,10000,0,0,0,
2026-04-01 06:30:00,METAR RCMQ 010630Z 01010KT 9999 FEW006 SCT020 BKN050 21/20 Q1013 NOSIG RMK A2994,0,10,0,10000,0,0,0,
2026-04-01 06:00:00,METAR RCMQ 010600Z 01012KT 9999 VCSH FEW006 SCT020 BKN050 21/20 Q1014 NOSIG RMK A2994 RA AMT T VCSH NW,0,12,0,10000,0,0,0,"RA,SH,VC"
2026-04-01 05:50:00,SPECI RCMQ 010550Z 36011KT 9999 VCSH SCT006 BKN020 BKN050 20/19 Q1014 NOSIG RMK A2995 VCSH NW,0,11,0,10000,0,0,0,"SH,VC"
2026-04-01 05:30:00,METAR RCMQ 010530Z 01009KT 8000 -RA SCT006 FEW010CB BKN020 BKN050 20/19 Q1014 NOSIG RMK A2995 CB SE,0,9,0,8000,0,0,0,-RA
2026-04-01 05:00:00,METAR RCMQ 010500Z 36006KT 8000 -RA SCT004 FEW010CB BKN020 BKN050 20/19 Q1014 NOSIG RMK A2996 RA AMT 0.5MM CB SE,0,6,0,8000,0,0,0,"-RA,RA"
2026-04-01 04:30:00,METAR RCMQ 010430Z 01009KT 9999 -RA SCT004 FEW010CB BKN020 BKN050 20/20 Q1014 NOSIG RMK A2996 CB SE,0,9,0,10000,0,0,0,-RA
2026-04-01 04:00:00,METAR RCMQ 010400Z 01008KT 9999 -RA SCT004 FEW010CB BKN020 BKN050 21/20 Q1015 NOSIG RMK A2997 RA AMT 1.0MM CB SE,0,8,0,10000,0,0,0,"-RA,RA"
2026-04-01 03:30:00,METAR RCMQ 010330Z 02008KT 7000 -RA SCT004 FEW010CB BKN020 BKN050 21/20 Q1015 RETS RERA NOSIG RMK A2997 CB SW,0,8,0,7000,1,0,0,"-RA,RA,TS"
2026-04-01 03:20:00,SPECI RCMQ 010320Z COR 01010KT 5000 -RA BR SCT004 FEW010CB BKN020 BKN050 21/20 Q1015 RETS BECMG BKN016 RMK A2998 CB NW,0,10,0,5000,1,0,1,"-RA,BR,TS"
2026-04-01 03:03:00,SPECI RCMQ 010303Z 01010KT 3200 -TSRA BKN004 FEW010CB BKN030 20/20 Q1015 RERA BECMG TL0340 1200 -TSRA RMK A2998 TS W MOV N,0,10,0,3200,1,0,0,"RA,TS"
2026-04-01 03:00:00,METAR RCMQ 010300Z 01010KT 1600 TSRA BKN004 FEW010CB OVC030 20/19 Q1015 BECMG TL0340 1200 -TSRA RMK A2998 RA AMT 4.0MM TS SW MOV NW,0,10,0,1600,1,0,0,"RA,TS"
2026-04-01 02:51:00,SPECI RCMQ 010251Z 01009KT 1600 TSRA BKN004 FEW010CB OVC030 20/19 Q1015 BECMG TL0340 1200 -TSRA RMK A2997 TS SW MOV NW,0,9,0,1600,1,0,0,"RA,TS"
2026-04-01 02:42:00,SPECI RCMQ 010242Z COR 01009KT 4000 -TSRA BKN004 FEW010CB OVC030 20/19 Q1015 BECMG TL0340 1200 -TSRA RMK A2997 TS SW MOV VRBL,0,9,0,4000,1,0,0,"RA,TS"
2026-04-01 02:30:00,METAR RCMQ 010230Z 02010KT 6000 -RA BKN004 FEW010CB OVC030 20/19 Q1015 BECMG FM0240 TL0340 1200 -TSRA RMK A2997 CB SW,0,10,0,6000,1,0,0,"-RA,RA"
2026-04-01 02:10:00,SPECI RCMQ 010210Z COR 02010KT 6000 -RA BKN004 FEW010CB OVC030 20/19 Q1015 BECMG FM0240 TL0340 1200 -TSRA RMK A2997 CB S,0,10,0,6000,1,0,0,"-RA,RA"
2026-04-01 02:00:00,METAR RCMQ 010200Z COR 02009KT 4800 -RA VCTS BR BKN004 FEW010CB OVC030 20/19 Q1015 RETS BECMG FM0240 TL0340 1200 -TSRA RMK A2998 RA AMT 0.4MM TS S MOV E,0,9,0,4800,1,0,1,"-RA,BR,RA,TS,VC"
2026-04-01 01:43:00,SPECI RCMQ 010143Z COR 36009KT 4000 -RA VCTS BKN004 FEW010CB OVC030 20/19 Q1015 RETS NOSIG RMK A2997 TS SW MOV E,0,9,0,4000,1,0,0,"-RA,TS,VC"
2026-04-01 01:30:00,METAR RCMQ 010130Z 35008KT 4000 -TSRA BKN004 FEW010CB OVC030 20/19 Q1015 BECMG TL0200 1200 -TSRA RMK A2997 TS NW STNRY,0,8,0,4000,1,0,0,"RA,TS"
2026-04-01 01:05:00,SPECI RCMQ 010105Z 36010KT 4000 -TSRA BKN004 FEW010CB OVC030 21/19 Q1014 BECMG TL0200 1200 -TSRA RMK A2995 TS W MOV NE,0,10,0,4000,1,0,0,"RA,TS"
2026-04-01 01:00:00,METAR RCMQ 010100Z 36011KT 5000 -TSRA BKN004 FEW010CB OVC030 21/19 Q1013 BECMG TL0200 1200 -TSRA RMK A2994 RA AMT T TS W MOV NE,0,11,0,5000,1,0,0,"RA,TS"
2026-04-01 00:50:00,SPECI RCMQ 010050Z 36011KT 5000 -TSRA BKN004 FEW010CB OVC030 21/19 Q1013 BECMG TL0200 1200 -TSRA RMK A2993 TS W MOV NE,0,11,0,5000,1,0,0,"RA,TS"
2026-04-01 00:40:00,SPECI RCMQ 010040Z COR 36013KT 8000 -RA VCTS SCT004 FEW010CB BKN016 BKN050 21/19 Q1013 BECMG FM0100 TL0200 1200 -TSRA RMK A2993 TS W MOV VRBL APCH CLD SCT004,0,13,0,8000,1,0,0,"-RA,RA,TS,VC"
2026-04-01 00:30:00,METAR RCMQ 010030Z 36012KT 8000 -RA SCT004 FEW010TCU BKN016 BKN050 22/20 Q1014 BECMG 36010KT 5000 -RA BR RMK A2994 APCH CLD SCT004 TCU W,0,12,0,8000,0,0,1,"-RA,BR"
2026-04-01 00:00:00,METAR RCMQ 010000Z 34010KT 9999 VCSH FEW004 BKN030 BKN050 25/20 Q1013 NOSIG RMK A2991 RA AMT T VCSH NW,0,10,0,10000,0,0,0,"RA,SH,VC"
2026-03-31 23:53:00,SPECI RCMQ 312353Z 32006KT 9999 VCSH FEW004 BKN030 BKN050 25/20 Q1013 NOSIG RMK A2991 RA AMT T VCSH NW,0,6,0,9999,0,0,0,"RA,SH,VC"
2026-03-31 23:30:00,METAR RCMQ 312330Z 24007KT 9999 FEW008 SCT030 BKN060 25/19 Q1013 NOSIG RMK A2992,0,7,0,9999,0,0,0,
2026-03-31 23:05:00,SPECI RCMQ 312305Z 19007KT 9999 FEW008 SCT030 BKN060 24/20 Q1012 NOSIG RMK A2989,0,7,0,9999,0,0,0,
2026-03-31 23:00:00,METAR RCMQ 312300Z 18007KT 9999 -RA FEW008 SCT030 BKN060 24/20 Q1012 NOSIG RMK A2990 RA AMT T,0,7,0,9999,0,0,0,"-RA,RA"
2026-03-31 22:30:00,METAR RCMQ 312230Z 18006KT 9999 -RA FEW008 SCT030 BKN060 23/20 Q1012 NOSIG RMK A2989,0,6,0,9999,0,0,0,-RA
2026-03-31 22:00:00,METAR RCMQ 312200Z 16007KT 9999 -RA FEW008 SCT030 BKN060 23/20 Q1012 NOSIG RMK A2988 RA AMT T,0,7,0,9999,0,0,0,"-RA,RA"
2026-03-31 21:30:00,METAR RCMQ 312130Z 17008KT 9999 -RA FEW008 SCT030 BKN060 23/20 Q1012 NOSIG RMK A2988,0,8,0,9999,0,0,0,-RA
2026-03-31 21:00:00,METAR RCMQ 312100Z 20009KT 9999 -RA FEW008 SCT030 BKN060 24/20 Q1012 NOSIG RMK A2990 RA AMT T,0,9,0,9999,0,0,0,"-RA,RA"
2026-03-31 20:55:00,SPECI RCMQ 312055Z 20009KT 9999 -RA FEW008 SCT030 BKN060 24/20 Q1012 RMK A2990,0,9,0,9999,0,0,0,-RA
2026-03-31 20:30:00,METAR RCMQ 312030Z 18009KT 9999 FEW006 SCT016 BKN030 25/20 Q1011 RMK A2987,0,9,0,9999,0,0,0,
2026-03-31 20:00:00,METAR RCMQ 312000Z 18009KT 9999 FEW006 SCT016 BKN030 25/20 Q1011 RMK A2987,0,9,0,9999,0,0,0,
2026-03-31 19:00:00,METAR RCMQ 311900Z 20007KT 9999 FEW006 SCT016 BKN030 24/21 Q1012 RMK A2988,0,7,0,9999,0,0,0,
2026-03-31 18:00:00,METAR RCMQ 311800Z 16006KT 9999 FEW006 SCT016 BKN030 24/22 Q1012 RMK A2989,0,6,0,9999,0,0,0,
2026-03-31 17:00:00,METAR RCMQ 311700Z 17006KT 9999 FEW006 SCT016 BKN030 24/22 Q1013 RMK A2993,0,6,0,9999,0,0,0,
2026-03-31 16:00:00,METAR RCMQ 311600Z 17006KT 9999 FEW006 SCT016 BKN030 24/22 Q1014 RMK A2994,0,6,0,9999,0,0,0,
2026-03-31 15:00:00,METAR RCMQ 311500Z 20007KT 9999 FEW006 SCT016 BKN030 24/22 Q1013 NOSIG RMK A2993,0,7,0,9999,0,0,0,
2026-03-31 14:00:00,METAR RCMQ 311400Z 23008KT 9999 FEW006 SCT016 BKN030 24/22 Q1013 NOSIG RMK A2991,0,8,0,9999,0,0,0,
2026-03-31 13:30:00,METAR RCMQ 311330Z 24008KT 9999 FEW006 SCT016 BKN030 24/22 Q1012 NOSIG RMK A2990,0,8,0,9999,0,0,0,
2026-03-31 13:00:00,METAR RCMQ 311300Z 20007KT 9999 FEW006 SCT016 BKN030 24/21 Q1011 NOSIG RMK A2988,0,7,0,9999,0,0,0,
2026-03-31 12:30:00,METAR RCMQ 311230Z 19007KT 9999 FEW006 SCT016 BKN030 24/21 Q1011 NOSIG RMK A2987,0,7,0,9999,0,0,0,
2026-03-31 12:00:00,METAR RCMQ 311200Z 22006KT 9999 FEW006 SCT016 BKN030 24/21 Q1011 NOSIG RMK A2987,0,6,0,9999,0,0,0,
2026-03-31 11:30:00,METAR RCMQ 311130Z 19008KT 9999 FEW006 SCT016 BKN030 24/21 Q1011 NOSIG RMK A2985,0,8,0,9999,0,0,0,
2026-03-31 11:00:00,METAR RCMQ 311100Z 20005KT 9999 FEW006 SCT016 BKN030 24/21 Q1011 NOSIG RMK A2986,0,5,0,9999,0,0,0,
2026-03-31 10:30:00,METAR RCMQ 311030Z 24005KT 9999 FEW006 SCT016 BKN030 24/21 Q1011 NOSIG RMK A2987,0,5,0,9999,0,0,0,
2026-03-31 10:00:00,METAR RCMQ 311000Z 26007KT 9999 FEW006 SCT016 BKN030 25/21 Q1011 NOSIG RMK A2986,0,7,0,9999,0,0,0,
2026-03-31 09:30:00,METAR RCMQ 310930Z 29009KT 9999 FEW006 SCT016 BKN040 26/22 Q1011 NOSIG RMK A2985,0,9,0,9999,0,0,0,
2026-03-31 09:00:00,METAR RCMQ 310900Z 31005KT 9999 FEW006 SCT016 BKN040 26/21 Q1010 NOSIG RMK A2984,0,5,0,9999,0,0,0,
2026-03-31 08:30:00,METAR RCMQ 310830Z 30011KT 9999 FEW008 SCT016 BKN030 27/21 Q1010 NOSIG RMK A2984,0,11,0,9999,0,0,0,
2026-03-31 08:00:00,METAR RCMQ 310800Z 30009KT 9999 FEW008 SCT016 28/22 Q1010 NOSIG RMK A2983,0,9,0,9999,0,0,0,
2026-03-31 07:30:00,METAR RCMQ 310730Z 28011KT 9999 FEW008 SCT016 28/22 Q1010 NOSIG RMK A2983,0,11,0,9999,0,0,0,
2026-03-31 07:00:00,METAR RCMQ 310700Z 29009KT 9999 FEW010 SCT200 30/22 Q1010 NOSIG RMK A2982,0,9,0,9999,0,0,0,
2026-03-31 06:30:00,METAR RCMQ 310630Z 30010KT 9999 FEW012 SCT200 30/22 Q1010 NOSIG RMK A2983,0,10,0,9999,0,0,0,
2026-03-31 06:00:00,METAR RCMQ 310600Z 27009KT 9999 FEW012 SCT200 33/21 Q1010 NOSIG RMK A2984,0,9,0,9999,0,0,0,
2026-03-31 05:30:00,METAR RCMQ 310530Z 23008KT 9999 FEW012 BKN200 34/20 Q1010 NOSIG RMK A2984,0,8,0,9999,0,0,0,
2026-03-31 05:00:00,METAR RCMQ 310500Z 19008KT 9999 FEW012 BKN200 34/20 Q1010 NOSIG RMK A2984,0,8,0,9999,0,0,0,
2026-03-31 04:30:00,METAR RCMQ 310430Z 23007KT 9999 FEW012 SCT100 34/20 Q1011 NOSIG RMK A2985,0,7,0,9999,0,0,0,
2026-03-31 04:00:00,METAR RCMQ 310400Z 22010KT 9999 FEW012 SCT100 33/20 Q1011 NOSIG RMK A2987,0,10,0,9999,0,0,0,
2026-03-31 03:30:00,METAR RCMQ 310330Z 21008KT 9999 FEW012 SCT100 33/20 Q1011 NOSIG RMK A2988,0,8,0,9999,0,0,0,
2026-03-31 03:00:00,METAR RCMQ 310300Z 20009KT 9999 FEW012 SCT100 31/20 Q1012 NOSIG RMK A2989,0,9,0,9999,0,0,0,
2026-03-31 02:30:00,METAR RCMQ 310230Z 18009KT 9999 FEW012 SCT100 30/19 Q1012 NOSIG RMK A2990,0,9,0,9999,0,0,0,
2026-03-31 02:00:00,METAR RCMQ 310200Z 20009KT 9999 FEW012 SCT100 30/20 Q1013 NOSIG RMK A2991,0,9,0,9999,0,0,0,
2026-03-31 01:30:00,METAR RCMQ 310130Z 19010KT 9999 FEW012 SCT100 28/20 Q1013 NOSIG RMK A2991,0,10,0,9999,0,0,0,
2026-03-31 01:00:00,METAR RCMQ 310100Z 19008KT 9999 FEW012 SCT200 28/20 Q1013 NOSIG RMK A2993,0,8,0,9999,0,0,0,
2026-03-31 00:30:00,METAR RCMQ 310030Z 17006KT 9999 FEW012 SCT200 27/21 Q1013 NOSIG RMK A2993,0,6,0,9999,0,0,0,
2026-03-31 00:00:00,METAR RCMQ 310000Z 16005KT 9999 FEW012 25/20 Q1014 NOSIG RMK A2994,0,5,0,9999,0,0,0,
2026-03-30 23:30:00,METAR RCMQ 302330Z 15004KT 9999 FEW008 SCT030 24/20 Q1014 NOSIG RMK A2995,0,4,0,10000,0,0,0,
2026-03-30 23:00:00,METAR RCMQ 302300Z 16005KT 9999 FEW008 SCT016 BKN030 22/19 Q1013 NOSIG RMK A2994,0,5,0,10000,0,0,0,
2026-03-30 22:30:00,METAR RCMQ 302230Z 18004KT 9999 FEW008 BKN016 21/19 Q1013 NOSIG RMK A2993,0,4,0,10000,0,0,0,
2026-03-30 22:00:00,METAR RCMQ 302200Z 19005KT 9999 FEW010 SCT100 20/18 Q1013 NOSIG RMK A2992,0,5,0,10000,0,0,0,
2026-03-30 21:30:00,METAR RCMQ 302130Z 20004KT 9000 FEW010 BKN100 20/18 Q1012 NOSIG RMK A2991,0,4,0,9000,0,0,0,
2026-03-30 21:00:00,METAR RCMQ 302100Z 20004KT 9000 FEW010 BKN100 21/18 Q1013 NOSIG RMK A2991,0,4,0,9000,0,0,0,
2026-03-30 20:30:00,METAR RCMQ 302030Z 18004KT 9999 FEW010 BKN100 21/18 Q1012 RMK A2990,0,4,0,10000,0,0,0,
2026-03-30 20:00:00,METAR RCMQ 302000Z 17004KT 9999 FEW010 SCT100 21/18 Q1012 RMK A2989,0,4,0,10000,0,0,0,
2026-03-30 19:00:00,METAR RCMQ 301900Z 20005KT 9999 FEW010 SCT100 22/19 Q1012 RMK A2989,0,5,0,10000,0,0,0,
2026-03-30 18:00:00,METAR RCMQ 301800Z 17005KT 9999 FEW010 SCT100 23/19 Q1012 RMK A2991,0,5,0,10000,0,0,0,
2026-03-30 17:00:00,METAR RCMQ 301700Z 18004KT 9999 FEW010 SCT100 23/19 Q1012 RMK A2991,0,4,0,10000,0,0,0,
2026-03-30 16:00:00,METAR RCMQ 301600Z 19006KT 9999 FEW010 23/19 Q1012 RMK A2990,0,6,0,10000,0,0,0,
2026-03-30 15:00:00,METAR RCMQ 301500Z 18007KT 9999 FEW010 24/20 Q1012 RMK A2990,0,7,0,10000,0,0,0,
2026-03-30 14:00:00,METAR RCMQ 301400Z 17006KT 9999 FEW010 25/20 Q1012 NOSIG RMK A2990,0,6,0,10000,0,0,0,
2026-03-30 13:30:00,METAR RCMQ 301330Z 16007KT 9999 FEW010 25/20 Q1012 NOSIG RMK A2989,0,7,0,10000,0,0,0,
2026-03-30 13:00:00,METAR RCMQ 301300Z 16007KT 9999 FEW010 25/20 Q1012 NOSIG RMK A2989,0,7,0,10000,0,0,0,
2026-03-30 12:30:00,METAR RCMQ 301230Z 17009KT 9999 FEW010 SCT120 25/20 Q1012 NOSIG RMK A2989,0,9,0,10000,0,0,0,
2026-03-30 12:00:00,METAR RCMQ 301200Z 17010KT 9999 FEW010 SCT120 25/20 Q1011 NOSIG RMK A2988,0,10,0,10000,0,0,0,
2026-03-30 11:30:00,METAR RCMQ 301130Z 16009KT 9999 FEW010 SCT120 25/20 Q1011 NOSIG RMK A2987,0,9,0,10000,0,0,0,
2026-03-30 11:00:00,METAR RCMQ 301100Z 15010KT 9999 FEW010 SCT120 26/20 Q1011 NOSIG RMK A2986,0,10,0,10000,0,0,0,
2026-03-30 10:30:00,METAR RCMQ 301030Z 15014KT 9999 FEW006 BKN200 26/21 Q1010 NOSIG RMK A2985,0,14,0,10000,0,0,0,
2026-03-30 10:00:00,METAR RCMQ 301000Z 17011KT 9999 FEW006 BKN200 26/21 Q1011 NOSIG RMK A2988,0,11,0,10000,0,0,0,
2026-03-30 09:30:00,METAR RCMQ 300930Z 22013KT 9999 VCSH FEW006 SCT025 BKN120 27/21 Q1013 NOSIG RMK A2991 VCSH NE-SE,0,13,0,10000,0,0,0,"SH,VC"
2026-03-30 09:00:00,METAR RCMQ 300900Z 24014KT 9999 VCSH FEW006 SCT025 BKN080 27/21 Q1013 NOSIG RMK A2991 VCSH NE-SE,0,14,0,10000,0,0,0,"SH,VC"
2026-03-30 08:30:00,METAR RCMQ 300830Z 24012G22KT 9000 VCSH FEW006 BKN025 BKN060 27/21 Q1013 NOSIG RMK A2991 VCSH SE,0,12,1,9000,0,0,0,"SH,VC"
2026-03-30 08:00:00,METAR RCMQ 300800Z 26015G25KT 9000 VCSH SCT006 BKN025 BKN060 27/22 Q1013 NOSIG RMK A2991 APCH CLD SCT006 VCSH SE,0,15,1,9000,0,0,0,"SH,VC"
2026-03-30 07:30:00,METAR RCMQ 300730Z 26011KT 9999 FEW006 BKN025 BKN060 28/22 Q1012 NOSIG RMK A2988,0,11,0,10000,0,0,0,
2026-03-30 07:00:00,METAR RCMQ 300700Z 26013KT 9999 FEW006 SCT020 BKN060 28/22 Q1012 NOSIG RMK A2988,0,13,0,10000,0,0,0,
2026-03-30 06:30:00,METAR RCMQ 300630Z 25015KT 9999 FEW006 SCT020 BKN060 28/21 Q1012 NOSIG RMK A2988,0,15,0,10000,0,0,0,
2026-03-30 06:00:00,METAR RCMQ 300600Z 25015KT 9999 FEW010 SCT020 BKN060 29/21 Q1012 NOSIG RMK A2988,0,15,0,10000,0,0,0,
2026-03-30 05:30:00,METAR RCMQ 300530Z 26016KT 9000 FEW010 BKN025 BKN040 29/21 Q1012 NOSIG RMK A2988,0,16,0,9000,0,0,0,
2026-03-30 05:00:00,METAR RCMQ 300500Z 25013KT 9000 FEW010 BKN030 30/21 Q1012 NOSIG RMK A2989,0,13,0,9000,0,0,0,
2026-03-30 04:30:00,METAR RCMQ 300430Z 24012KT 9000 FEW010 BKN030 30/21 Q1011 NOSIG RMK A2988,0,12,0,9000,0,0,0,
2026-03-30 04:00:00,METAR RCMQ 300400Z 23010KT 9999 FEW010 SCT030 31/20 Q1012 NOSIG RMK A2990,0,10,0,10000,0,0,0,
2026-03-30 03:30:00,METAR RCMQ 300330Z 24011KT 9999 FEW010 SCT030 30/20 Q1012 NOSIG RMK A2991,0,11,0,10000,0,0,0,
2026-03-30 03:00:00,METAR RCMQ 300300Z 23011KT 9999 FEW010 30/20 Q1013 NOSIG RMK A2992,0,11,0,10000,0,0,0,
2026-03-30 02:30:00,METAR RCMQ 300230Z 23011KT 9999 FEW010 30/20 Q1013 NOSIG RMK A2992,0,11,0,10000,0,0,0,
2026-03-30 02:00:00,METAR RCMQ 300200Z 23010KT 9999 FEW010 29/20 Q1013 NOSIG RMK A2992,0,10,0,10000,0,0,0,
2026-03-30 01:41:00,SPECI RCMQ 300141Z 23010KT 9999 FEW010 29/20 Q1012 NOSIG RMK A2991,0,10,0,10000,0,0,0,
2026-03-30 01:30:00,METAR RCMQ 300130Z COR 22010KT 9999 FEW010 29/21 Q1012 BECMG 20010KT RMK A2990,0,10,0,10000,0,0,0,
2026-03-30 01:00:00,METAR RCMQ 300100Z 19006KT 7000 FEW008 27/22 Q1012 NOSIG RMK A2989,0,6,0,7000,0,0,0,
2026-03-30 00:30:00,METAR RCMQ 300030Z 18008KT 6000 FEW008 26/22 Q1011 NOSIG RMK A2988,0,8,0,6000,0,0,0,
2026-03-30 00:10:00,SPECI RCMQ 300010Z 18008KT 6000 FEW008 25/22 Q1012 NOSIG RMK A2988,0,8,0,6000,0,0,0,
2026-03-30 00:00:00,METAR RCMQ 300000Z 19006KT 4800 BR FEW008 24/22 Q1011 BECMG 5000 BR RMK A2988,0,6,0,4800,0,0,1,BR
2026-03-29 23:41:00,SPECI RCMQ 292341Z 17007KT 4000 BR FEW006 SCT020 24/22 Q1011 NOSIG RMK A2988,0,7,0,4000,0,0,1,BR
2026-03-29 23:30:00,METAR RCMQ 292330Z 16007KT 3200 BR FEW006 SCT020 23/21 Q1011 NOSIG RMK A2986,0,7,0,3200,0,0,1,BR
2026-03-29 23:00:00,METAR RCMQ 292300Z 16006KT 3200 BR FEW006 SCT020 22/20 Q1011 NOSIG RMK A2986,0,6,0,3200,0,0,1,BR
2026-03-29 22:30:00,METAR RCMQ 292230Z 12004KT 120V220 3200 BR FEW006 SCT020 21/20 Q1011 NOSIG RMK A2986,0,4,0,3200,0,0,1,BR
2026-03-29 22:00:00,METAR RCMQ 292200Z 22004KT 3200 BR FEW006 BKN020 BKN040 21/20 Q1010 NOSIG RMK A2985,0,4,0,3200,0,0,1,BR
2026-03-29 21:30:00,METAR RCMQ 292130Z 26004KT 3200 BR FEW006 BKN020 21/20 Q1010 NOSIG RMK A2984,0,4,0,3200,0,0,1,BR
2026-03-29 21:00:00,METAR RCMQ 292100Z 22005KT 3200 BR FEW006 BKN020 21/20 Q1010 NOSIG RMK A2983,0,5,0,3200,0,0,1,BR
2026-03-29 20:30:00,METAR RCMQ 292030Z 19007KT 3200 BR FEW006 BKN020 21/20 Q1010 RMK A2983,0,7,0,3200,0,0,1,BR
2026-03-29 20:00:00,METAR RCMQ 292000Z 00000KT 3200 BR FEW006 BKN020 21/20 Q1010 RMK A2984,0,0,0,3200,0,0,1,BR
2026-03-29 19:00:00,METAR RCMQ 291900Z 21002KT 3200 BR FEW006 SCT030 BKN080 21/19 Q1012 RMK A2989,0,2,0,3200,0,0,1,BR
2026-03-29 18:00:00,METAR RCMQ 291800Z 15002KT 3200 BR FEW006 SCT030 BKN080 21/20 Q1013 RMK A2993,0,2,0,3200,0,0,1,BR
2026-03-29 17:00:00,METAR RCMQ 291700Z 00000KT 3200 BR FEW006 SCT016 BKN030 21/20 Q1014 RMK A2996,0,0,0,3200,0,0,1,BR
2026-03-29 16:00:00,METAR RCMQ 291600Z 26002KT 3200 BR FEW006 SCT016 20/19 Q1014 RMK A2995,0,2,0,3200,0,0,1,BR
2026-03-29 15:10:00,SPECI RCMQ 291510Z 00000KT 3200 BR FEW006 SCT016 20/19 Q1013 RMK A2994,0,0,0,3200,0,0,1,BR
2026-03-29 15:00:00,METAR RCMQ 291500Z 00000KT 4000 BR FEW006 SCT025 20/19 Q1014 RMK A2994,0,0,0,4000,0,0,1,BR
2026-03-29 14:25:00,SPECI RCMQ 291425Z 32004KT 4000 BR FEW006 SCT025 20/19 Q1013 RMK A2993,0,4,0,4000,0,0,1,BR
2026-03-29 14:00:00,METAR RCMQ 291400Z COR 29004KT 5000 2400SW BR FEW006 SCT040 21/20 Q1013 NOSIG RMK A2993,0,4,0,5000,0,0,1,BR
2026-03-29 13:30:00,METAR RCMQ 291330Z 32005KT 5000 BR FEW006 SCT040 20/19 Q1013 NOSIG RMK A2992,0,5,0,5000,0,0,1,BR
2026-03-29 13:00:00,METAR RCMQ 291300Z 35005KT 5000 BR FEW006 SCT040 21/20 Q1013 NOSIG RMK A2991,0,5,0,5000,0,0,1,BR
2026-03-29 12:30:00,METAR RCMQ 291230Z 01004KT 5000 BR FEW006 SCT040 21/19 Q1012 NOSIG RMK A2990,0,4,0,5000,0,0,1,BR
2026-03-29 12:05:00,SPECI RCMQ 291205Z 35005KT 5000 BR FEW006 SCT040 21/19 Q1012 NOSIG RMK A2990,0,5,0,5000,0,0,1,BR
2026-03-29 12:00:00,METAR RCMQ 291200Z 35005KT 6000 FEW006 SCT040 21/20 Q1012 BECNG 5000 BR RMK A2990,0,5,0,6000,0,0,1,BR
2026-03-29 11:30:00,METAR RCMQ 291130Z 34006KT 6000 FEW006 SCT040 22/20 Q1012 NOSIG RMK A2988,0,6,0,6000,0,0,0,
2026-03-29 11:00:00,METAR RCMQ 291100Z 34006KT 6000 FEW006 SCT040 22/20 Q1011 NOSIG RMK A2987,0,6,0,6000,0,0,0,
2026-03-29 10:30:00,METAR RCMQ 291030Z 34006KT 7000 FEW008 SCT100 23/20 Q1011 NOSIG RMK A2986,0,6,0,7000,0,0,0,
2026-03-29 10:00:00,METAR RCMQ 291000Z 36006KT 9000 FEW008 SCT100 24/19 Q1011 NOSIG RMK A2985,0,6,0,9000,0,0,0,
2026-03-29 09:30:00,METAR RCMQ 290930Z 36005KT 9999 FEW008 SCT200 25/19 Q1010 NOSIG RMK A2984,0,5,0,10000,0,0,0,
2026-03-29 09:00:00,METAR RCMQ 290900Z 36005KT 9999 FEW008 SCT200 25/20 Q1010 NOSIG RMK A2984,0,5,0,10000,0,0,0,
2026-03-29 08:30:00,METAR RCMQ 290830Z 36005KT 9999 FEW008 BKN200 26/20 Q1010 NOSIG RMK A2984,0,5,0,10000,0,0,0,
2026-03-29 08:00:00,METAR RCMQ 290800Z 35007KT 9999 FEW008 BKN200 26/20 Q1010 NOSIG RMK A2985,0,7,0,10000,0,0,0,
2026-03-29 07:30:00,METAR RCMQ 290730Z 34010KT 9999 FEW008 BKN200 26/20 Q1010 NOSIG RMK A2985,0,10,0,10000,0,0,0,
2026-03-29 07:00:00,METAR RCMQ 290700Z 33009KT 9999 FEW008 BKN200 27/21 Q1011 NOSIG RMK A2986,0,9,0,10000,0,0,0,
2026-03-29 06:30:00,METAR RCMQ 290630Z 33010KT 9999 FEW008 BKN200 27/21 Q1011 NOSIG RMK A2987,0,10,0,10000,0,0,0,
2026-03-29 06:00:00,METAR RCMQ 290600Z 31009KT 9999 FEW008 BKN200 28/21 Q1011 NOSIG RMK A2988,0,9,0,10000,0,0,0,
2026-03-29 05:30:00,METAR RCMQ 290530Z 31010KT 9999 FEW008 SCT020 BKN200 28/21 Q1012 NOSIG RMK A2989,0,10,0,10000,0,0,0,
2026-03-29 05:00:00,METAR RCMQ 290500Z 31009KT 9999 FEW008 SCT020 BKN200 29/22 Q1012 NOSIG RMK A2990,0,9,0,10000,0,0,0,
2026-03-29 04:30:00,METAR RCMQ 290430Z 26007KT 9999 FEW008 SCT020 BKN200 30/22 Q1013 NOSIG RMK A2991,0,7,0,10000,0,0,0,
2026-03-29 04:00:00,METAR RCMQ 290400Z 25005KT 8000 FEW008 SCT020 BKN200 28/23 Q1013 NOSIG RMK A2993,0,5,0,8000,0,0,0,
2026-03-29 03:42:00,SPECI RCMQ 290342Z 24004KT 6000 FEW006 SCT016 BKN060 26/23 Q1013 BECMG 5000 BR RMK A2994,0,4,0,6000,0,0,1,BR
2026-03-29 03:30:00,METAR RCMQ 290330Z 24004KT 4800 BR SCT006 BKN016 BKN040 26/23 Q1013 BECMG 5000 BR RMK A2994,0,4,0,4800,0,0,1,BR
2026-03-29 03:15:00,SPECI RCMQ 290315Z 10002KT 4800 BR SCT006 BKN016 BKN040 26/23 Q1014 NOSIG RMK A2995,0,2,0,4800,0,0,1,BR
2026-03-29 03:00:00,METAR RCMQ 290300Z 10002KT 3200 BR SCT004 BKN016 BKN040 26/23 Q1014 NOSIG RMK A2995,0,2,0,3200,0,0,1,BR
2026-03-29 02:48:00,SPECI RCMQ 290248Z 22002KT 3200 BR SCT004 BKN016 BKN040 23/22 Q1014 BECMG 3000 BR BKN016 RMK A2996,0,2,0,3200,0,0,1,BR
2026-03-29 02:30:00,METAR RCMQ 290230Z COR 22002KT 2400 BR SCT004 BKN016 BKN040 23/22 Q1014 BECMG 3000 BR RMK A2996,0,2,0,2400,0,0,1,BR
2026-03-29 02:15:00,SPECI RCMQ 290215Z 30004KT 2400 BR SCT004 BKN016 BKN040 22/21 Q1014 NOSIG RMK A2996,0,4,0,2400,0,0,1,BR
2026-03-29 02:00:00,METAR RCMQ 290200Z 30004KT 1600 BR SCT002 BKN006 22/21 Q1014 NOSIG RMK A2996,0,4,0,1600,0,0,1,BR
2026-03-29 01:30:00,METAR RCMQ 290130Z 31003KT 1600 BR SCT002 BKN006 22/22 Q1014 BECMG 3200 BR BKN006 RMK A2996,0,3,0,1600,0,0,1,BR
2026-03-29 01:00:00,METAR RCMQ 290100Z 00000KT 1600 BR SCT002 BKN006 22/22 Q1014 BECMG 3200 BR BKN006 RMK A2996 RA AMT T,0,0,0,1600,0,0,1,"BR,RA"
2026-03-29 00:52:00,SPECI RCMQ 290052Z 02004KT 1600 BR SCT002 BKN006 22/21 Q1014 BECMG 3200 BR BKN006 RMK A2995,0,4,0,1600,0,0,1,BR
2026-03-29 00:35:00,SPECI RCMQ 290035Z 02004KT 1600 BR BKN002 OVC010 22/21 Q1014 BECMG TL0100 0200 FG BKN002 RMK A2995,0,4,0,1600,0,0,1,"BR,FG"
2026-03-29 00:30:00,METAR RCMQ 290030Z 02004KT 1200 R36/1500U -RA BR BKN002 OVC010 22/21 Q1014 BECMG TL0100 0200 FG BKN002 RMK A2996,0,4,0,1200,0,0,1,"-RA,BR,FG"
2026-03-29 00:15:00,SPECI RCMQ 290015Z 02004KT 1200 R36/1300U -RA BR BKN002 OVC010 21/21 Q1014 BECMG TL0100 0200 FG BKN002 RMK A2995,0,4,0,1200,0,0,1,"-RA,BR,FG"
2026-03-29 00:00:00,METAR RCMQ 290000Z 02004KT 0800 R36/0800N -RA FG BKN002 OVC010 21/21 Q1014 BECMG TL0100 0200 FG BKN002 RMK A2995,0,4,0,1287200,0,0,1,"-RA,FG"
2026-03-28 23:50:00,SPECI RCMQ 282350Z 34004KT 0800 R36/0800U -RA FG BKN002 OVC010 21/21 Q1014 BECMG TL0100 0200 FG BKN002 RMK A2994,0,4,0,1287200,0,0,1,"-RA,FG"
2026-03-28 23:35:00,SPECI RCMQ 282335Z COR 32004KT 0400 R36/0400D -RA FG BKN002 OVC010 21/20 Q1014 BECMG TL0100 0200 FG BKN002 RMK A2994,0,4,0,643600,0,0,1,"-RA,FG"
2026-03-28 23:30:00,METAR RCMQ 282330Z 32004KT 0800 R36/0700N -RA FG BKN002 OVC010 21/20 Q1014 BECMG TL0100 0800 FG BKN002 RMK A2994,0,4,0,1287200,0,0,1,"-RA,FG"
2026-03-28 23:12:00,SPECI RCMQ 282312Z COR 32004KT 0800 R36/0700 -RA FG BKN002 OVC010 21/21 Q1013 BECMG TL0100 0800 FG BKN002 RMK A2993,0,4,0,1287200,0,0,1,"-RA,FG"
2026-03-28 23:00:00,METAR RCMQ 282300Z 32005KT 1600 -RA BR SCT003 BKN010 BKN020 21/21 Q1013 BECMG FM2315 TL0100 0800 FG BKN002 RMK A2993 RA AMT T,0,5,0,1600,0,0,1,"-RA,BR,FG,RA"
2026-03-28 22:30:00,METAR RCMQ 282230Z 35004KT 1600 -RA BR SCT003 BKN010 BKN020 21/20 Q1013 NOSIG RMK A2992,0,4,0,1600,0,0,1,"-RA,BR"
2026-03-28 22:00:00,METAR RCMQ 282200Z 00000KT 1600 -RA BR SCT003 BKN010 BKN020 21/20 Q1012 NOSIG RMK A2991 RA AMT 0.5MM,0,0,0,1600,0,0,1,"-RA,BR,RA"
2026-03-28 21:52:00,SPECI RCMQ 282152Z 00000KT 1600 -RA BR SCT003 BKN010 BKN020 21/20 Q1012 NOSIG RMK A2991,0,0,0,1600,0,0,1,"-RA,BR"
2026-03-28 21:30:00,METAR RCMQ 282130Z 00000KT 2400 -RA BR SCT006 BKN012 BKN020 21/20 Q1012 BECMG BKN010 RMK A2990,0,0,0,2400,0,0,1,"-RA,BR"
2026-03-28 21:00:00,METAR RCMQ 282100Z 30002KT 2400 -RA BR SCT006 BKN012 BKN020 21/20 Q1012 BECMG BKN010 RMK A2990 RA AMT 1.0MM,0,2,0,2400,0,0,1,"-RA,BR,RA"
2026-03-28 20:49:00,SPECI RCMQ 282049Z 28005KT 2400 -RA BR SCT006 BKN012 BKN020 21/20 Q1012 RMK A2990,0,5,0,2400,0,0,1,"-RA,BR"
2026-03-28 20:30:00,METAR RCMQ 282030Z 30003KT 5000 -RA BR SCT008 BKN016 21/20 Q1012 RMK A2990,0,3,0,5000,0,0,1,"-RA,BR"
2026-03-28 20:00:00,METAR RCMQ 282000Z 29004KT 5000 -RA BR SCT008 BKN016 21/20 Q1012 RMK A2990 RA AMT T,0,4,0,5000,0,0,1,"-RA,BR,RA"
2026-03-28 19:54:00,SPECI RCMQ 281954Z 29004KT 5000 -RA BR SCT008 BKN016 21/20 Q1012 RMK A2990,0,4,0,5000,0,0,1,"-RA,BR"
2026-03-28 19:00:00,METAR RCMQ 281900Z 00000KT 6000 FEW008 BKN050 21/19 Q1012 RMK A2989,0,0,0,6000,0,0,0,
2026-03-28 18:00:00,METAR RCMQ 281800Z 00000KT 6000 FEW008 BKN050 21/19 Q1012 RMK A2990,0,0,0,6000,0,0,0,
2026-03-28 17:00:00,METAR RCMQ 281700Z 00000KT 6000 FEW008 BKN050 20/19 Q1013 RMK A2991,0,0,0,6000,0,0,0,
2026-03-28 16:00:00,METAR RCMQ 281600Z 00000KT 6000 FEW008 BKN050 20/19 Q1013 RMK A2992,0,0,0,6000,0,0,0,
2026-03-28 15:00:00,METAR RCMQ 281500Z 35003KT 6000 FEW008 BKN050 21/19 Q1013 RMK A2993,0,3,0,6000,0,0,0,
2026-03-28 14:30:00,METAR RCMQ 281430Z 01003KT 6000 FEW008 BKN050 21/19 Q1013 BECMG 5000 BR RMK A2993,0,3,0,6000,0,0,1,BR
2026-03-28 14:00:00,METAR RCMQ 281400Z 01004KT 6000 FEW008 BKN050 21/19 Q1014 BECMG 5000 BR RMK A2994,0,4,0,6000,0,0,1,BR
2026-03-28 13:30:00,METAR RCMQ 281330Z 36004KT 6000 FEW008 BKN050 21/19 Q1013 BECMG 5000 BR RMK A2994,0,4,0,6000,0,0,1,BR
2026-03-28 13:00:00,METAR RCMQ 281300Z 01006KT 6000 FEW008 BKN050 21/19 Q1013 BECMG 5000 BR RMK A2993,0,6,0,6000,0,0,1,BR
2026-03-28 12:30:00,METAR RCMQ 281230Z 36007KT 6000 FEW008 BKN050 21/19 Q1013 BECMG 5000 BR RMK A2993,0,7,0,6000,0,0,1,BR
2026-03-28 12:00:00,METAR RCMQ 281200Z 34006KT 6000 FEW008 BKN050 21/19 Q1013 BECMG 5000 BR RMK A2991,0,6,0,6000,0,0,1,BR
2026-03-28 11:30:00,METAR RCMQ 281130Z 35005KT 6000 FEW008 SCT060 21/19 Q1012 BECMG 5000 BR RMK A2990,0,5,0,6000,0,0,1,BR
2026-03-28 11:00:00,METAR RCMQ 281100Z 01009KT 6000 FEW008 SCT060 21/19 Q1012 BECMG 5000 BR RMK A2990,0,9,0,6000,0,0,1,BR
2026-03-28 10:30:00,METAR RCMQ 281030Z 36010KT 6000 FEW008 BKN060 21/19 Q1012 BECMG 5000 BR RMK A2989,0,10,0,6000,0,0,1,BR
2026-03-28 10:00:00,METAR RCMQ 281000Z 35011KT 6000 FEW008 SCT040 BKN060 22/19 Q1012 BECMG 5000 BR RMK A2988,0,11,0,6000,0,0,1,BR
2026-03-28 09:30:00,METAR RCMQ 280930Z 35010KT 7000 FEW008 SCT040 BKN080 23/19 Q1011 NOSIG RMK A2988,0,10,0,7000,0,0,0,
2026-03-28 09:00:00,METAR RCMQ 280900Z 35011KT 7000 FEW008 BKN080 24/20 Q1011 NOSIG RMK A2987,0,11,0,7000,0,0,0,
2026-03-28 08:30:00,METAR RCMQ 280830Z 35010KT 9000 FEW008 SCT080 25/20 Q1011 NOSIG RMK A2986,0,10,0,9000,0,0,0,
2026-03-28 08:00:00,METAR RCMQ 280800Z 34010KT 9000 FEW010 SCT080 26/20 Q1011 NOSIG RMK A2987,0,10,0,9000,0,0,0,
2026-03-28 07:30:00,METAR RCMQ 280730Z 35010KT 9000 FEW010 SCT080 26/20 Q1011 NOSIG RMK A2986,0,10,0,9000,0,0,0,
2026-03-28 07:00:00,METAR RCMQ 280700Z 33007KT 9000 FEW010 SCT080 27/20 Q1011 NOSIG RMK A2987,0,7,0,9000,0,0,0,
2026-03-28 06:30:00,METAR RCMQ 280630Z 34007KT 9000 FEW008 SCT020 BKN060 28/20 Q1011 NOSIG RMK A2988,0,7,0,9000,0,0,0,
2026-03-28 06:00:00,METAR RCMQ 280600Z 33007KT 9000 FEW008 SCT020 BKN060 29/20 Q1012 NOSIG RMK A2989,0,7,0,9000,0,0,0,
2026-03-28 05:30:00,METAR RCMQ 280530Z 35008KT 9000 FEW008 SCT020 BKN060 29/20 Q1012 NOSIG RMK A2990,0,8,0,9000,0,0,0,
2026-03-28 05:00:00,METAR RCMQ 280500Z 01005KT 9000 FEW008 SCT020 BKN060 28/21 Q1012 NOSIG RMK A2991,0,5,0,9000,0,0,0,
2026-03-28 04:30:00,METAR RCMQ 280430Z 34009KT 9000 FEW008 SCT020 BKN060 27/20 Q1013 NOSIG RMK A2992,0,9,0,9000,0,0,0,
2026-03-28 04:00:00,METAR RCMQ 280400Z 02004KT 9000 FEW008 SCT020 BKN080 27/21 Q1013 NOSIG RMK A2993,0,4,0,9000,0,0,0,
2026-03-28 03:30:00,METAR RCMQ 280330Z 03004KT 9000 FEW008 SCT020 BKN080 26/21 Q1014 NOSIG RMK A2995,0,4,0,9000,0,0,0,
2026-03-28 03:00:00,METAR RCMQ 280300Z 01006KT 8000 FEW008 SCT020 BKN060 24/20 Q1014 NOSIG RMK A2996,0,6,0,8000,0,0,0,
2026-03-28 02:30:00,METAR RCMQ 280230Z 02005KT 8000 FEW008 SCT020 BKN060 24/21 Q1014 NOSIG RMK A2997,0,5,0,8000,0,0,0,
2026-03-28 02:00:00,METAR RCMQ 280200Z 01007KT 8000 FEW008 SCT016 BKN050 22/20 Q1015 NOSIG RMK A2997,0,7,0,8000,0,0,0,
2026-03-28 01:30:00,METAR RCMQ 280130Z 01007KT 7000 SCT006 BKN016 BKN050 21/19 Q1015 NOSIG RMK A2998 APCH CLD SCT006,0,7,0,7000,0,0,0,
2026-03-28 01:00:00,METAR RCMQ 280100Z 02007KT 6000 SCT006 BKN016 BKN050 21/19 Q1015 NOSIG RMK A2997 APCH CLD SCT006,0,7,0,6000,0,0,0,
2026-03-28 00:52:00,SPECI RCMQ 280052Z 01008KT 6000 SCT006 BKN016 BKN050 21/19 Q1015 BECMG BKN016 RMK A2998 APCH CLD SCT006,0,8,0,6000,0,0,0,
2026-03-28 00:30:00,METAR RCMQ 280030Z 02007KT 5000 BR BKN005 BKN020 20/19 Q1015 NOSIG RMK A2997,0,7,0,5000,0,0,1,BR
2026-03-28 00:00:00,METAR RCMQ 280000Z 02009KT 5000 BR BKN005 BKN020 20/19 Q1014 NOSIG RMK A2997,0,9,0,5000,0,0,1,BR
2026-03-27 23:38:00,SPECI RCMQ 272338Z 02010KT 5000 BR BKN005 BKN020 20/19 Q1014 NOSIG RMK A2996,0,10,0,5000,0,0,1,BR
2026-03-27 23:30:00,METAR RCMQ 272330Z 01010KT 6000 BKN006 BKN020 19/19 Q1013 BECMG 5000 BR BKN005 RMK A2993,0,10,0,6000,0,0,1,BR
2026-03-27 23:05:00,SPECI RCMQ 272305Z 01010KT 6000 BKN006 BKN020 19/19 Q1013 NOSIG RMK A2993,0,10,0,6000,0,0,0,
2026-03-27 23:00:00,METAR RCMQ 272300Z 01010KT 6000 SCT006 BKN020 BKN050 19/19 Q1013 BECMG BKN010 RMK A2994 RA AMT T,0,10,0,6000,0,0,0,RA
2026-03-27 22:34:00,SPECI RCMQ 272234Z 01007KT 6000 FEW008 SCT020 BKN060 19/19 Q1013 NOSIG RMK A2994,0,7,0,6000,0,0,0,
2026-03-27 22:30:00,METAR RCMQ 272230Z 01007KT 6000 -RA FEW008 SCT020 BKN060 19/19 Q1013 NOSIG RMK A2993,0,7,0,6000,0,0,0,-RA
2026-03-27 22:00:00,METAR RCMQ 272200Z 01007KT 6000 -RA FEW008 SCT020 BKN060 19/18 Q1013 NOSIG RMK A2993 RA AMT T,0,7,0,6000,0,0,0,"-RA,RA"
2026-03-27 21:30:00,METAR RCMQ 272130Z 01005KT 8000 -RA FEW008 SCT020 BKN080 19/18 Q1013 NOSIG RMK A2992,0,5,0,8000,0,0,0,-RA
2026-03-27 21:05:00,SPECI RCMQ 272105Z 01005KT 8000 -RA FEW008 SCT020 BKN080 19/18 Q1012 NOSIG RMK A2991,0,5,0,8000,0,0,0,-RA
2026-03-27 21:00:00,METAR RCMQ 272100Z 01006KT 8000 FEW008 SCT080 19/18 Q1013 NOSIG RMK A2991,0,6,0,8000,0,0,0,
2026-03-27 20:30:00,METAR RCMQ 272030Z 35005KT 8000 FEW008 SCT080 19/18 Q1012 RMK A2991,0,5,0,8000,0,0,0,
2026-03-27 20:00:00,METAR RCMQ 272000Z 34005KT 8000 FEW008 SCT080 19/18 Q1012 RMK A2990,0,5,0,8000,0,0,0,
2026-03-27 19:00:00,METAR RCMQ 271900Z 36004KT 6000 FEW008 SCT080 19/18 Q1012 RMK A2990,0,4,0,6000,0,0,0,
2026-03-27 18:00:00,METAR RCMQ 271800Z 02007KT 6000 FEW008 SCT080 19/18 Q1012 RMK A2990,0,7,0,6000,0,0,0,
2026-03-27 17:00:00,METAR RCMQ 271700Z 35008KT 6000 FEW008 SCT080 19/18 Q1013 RMK A2991,0,8,0,6000,0,0,0,
2026-03-27 16:00:00,METAR RCMQ 271600Z 35008KT 6000 FEW008 19/18 Q1013 RMK A2991,0,8,0,6000,0,0,0,
2026-03-25 15:00:00,METAR RCMQ 251500Z 36004KT 9999 FEW012 19/17 Q1014 RMK A2995,0,4,0,10000,0,0,0,
2026-03-25 14:00:00,METAR RCMQ 251400Z 35005KT 9999 FEW012 21/17 Q1014 RMK A2995,0,5,0,10000,0,0,0,
2026-03-25 13:30:00,METAR RCMQ 251330Z COR 03004KT 9999 FEW012 21/17 Q1014 RMK A2994,0,4,0,10000,0,0,0,
2026-03-25 13:00:00,METAR RCMQ 251300Z 36004KT 9999 FEW012 21/17 Q1014 NOSIG RMK A2994,0,4,0,10000,0,0,0,
2026-03-25 12:30:00,METAR RCMQ 251230Z 01004KT 9999 FEW012 SCT080 22/17 Q1013 NOSIG RMK A2994,0,4,0,10000,0,0,0,
2026-03-25 12:00:00,METAR RCMQ 251200Z 01007KT 9999 FEW012 SCT080 22/17 Q1013 NOSIG RMK A2993,0,7,0,10000,0,0,0,
2026-03-25 11:30:00,METAR RCMQ 251130Z 36008KT 9999 FEW012 BKN080 22/17 Q1013 NOSIG RMK A2992,0,8,0,10000,0,0,0,
2026-03-25 11:00:00,METAR RCMQ 251100Z 35007KT 9999 FEW012 BKN080 23/17 Q1013 NOSIG RMK A2992,0,7,0,10000,0,0,0,
2026-03-25 10:30:00,METAR RCMQ 251030Z 36007KT 9999 FEW010 SCT080 24/17 Q1012 NOSIG RMK A2991,0,7,0,10000,0,0,0,
2026-03-25 10:00:00,METAR RCMQ 251000Z 01007KT 9999 FEW010 SCT080 25/17 Q1012 NOSIG RMK A2990,0,7,0,10000,0,0,0,
2026-03-25 09:30:00,METAR RCMQ 250930Z 01011KT 9999 FEW008 26/17 Q1012 NOSIG RMK A2990,0,11,0,10000,0,0,0,
2026-03-25 09:00:00,METAR RCMQ 250900Z 35012KT 9999 FEW008 26/17 Q1012 NOSIG RMK A2990,0,12,0,10000,0,0,0,
2026-03-25 08:30:00,METAR RCMQ 250830Z 35012KT 9999 FEW008 27/19 Q1012 NOSIG RMK A2990,0,12,0,10000,0,0,0,
2026-03-25 08:00:00,METAR RCMQ 250800Z 35013KT 9999 FEW008 27/20 Q1012 NOSIG RMK A2989,0,13,0,10000,0,0,0,
2026-03-25 07:30:00,METAR RCMQ 250730Z 35014KT 9999 FEW008 28/20 Q1012 NOSIG RMK A2990,0,14,0,10000,0,0,0,
2026-03-25 07:00:00,METAR RCMQ 250700Z 35013KT 9999 FEW008 29/20 Q1012 NOSIG RMK A2990,0,13,0,10000,0,0,0,
2026-03-25 06:30:00,METAR RCMQ 250630Z 01013KT 9999 FEW008 30/19 Q1012 NOSIG RMK A2990,0,13,0,10000,0,0,0,
2026-03-25 06:00:00,METAR RCMQ 250600Z 36013KT 9999 FEW008 30/19 Q1012 NOSIG RMK A2991,0,13,0,10000,0,0,0,
2026-03-25 05:30:00,METAR RCMQ 250530Z 35014KT 9999 FEW008 30/19 Q1013 NOSIG RMK A2991,0,14,0,10000,0,0,0,
2026-03-25 05:00:00,METAR RCMQ 250500Z 36012KT 9999 FEW008 30/20 Q1013 NOSIG RMK A2992,0,12,0,10000,0,0,0,
2026-03-25 04:30:00,METAR RCMQ 250430Z 35012KT 9999 FEW008 SCT016 29/21 Q1013 NOSIG RMK A2993,0,12,0,10000,0,0,0,
2026-03-25 04:00:00,METAR RCMQ 250400Z 01012KT 9999 FEW008 SCT016 29/21 Q1014 NOSIG RMK A2994,0,12,0,10000,0,0,0,
2026-03-25 03:30:00,METAR RCMQ 250330Z 35013KT 8000 SCT008 SCT016 28/21 Q1014 NOSIG RMK A2996 APCH CLD SCT008,0,13,0,8000,0,0,0,
2026-03-25 03:00:00,METAR RCMQ 250300Z 35013KT 8000 SCT008 SCT016 27/21 Q1014 NOSIG RMK A2997 APCH CLD SCT008,0,13,0,8000,0,0,0,
2026-03-25 02:30:00,METAR RCMQ 250230Z 34011KT 9000 SCT008 SCT016 29/22 Q1015 NOSIG RMK A2997 APCH CLD SCT008,0,11,0,9000,0,0,0,
2026-03-25 02:00:00,METAR RCMQ 250200Z 33008KT 9999 FEW010 SCT016 28/21 Q1014 NOSIG RMK A2995,0,8,0,10000,0,0,0,
2026-03-25 01:30:00,METAR RCMQ 250130Z 36006KT 9999 FEW010 SCT016 27/21 Q1015 NOSIG RMK A2997,0,6,0,10000,0,0,0,
2026-03-25 01:00:00,METAR RCMQ 250100Z 03004KT 9999 FEW010 26/21 Q1014 NOSIG RMK A2996,0,4,0,10000,0,0,0,
2026-03-25 00:30:00,METAR RCMQ 250030Z 36006KT 9000 FEW008 SCT200 25/21 Q1014 NOSIG RMK A2996,0,6,0,9000,0,0,0,
2026-03-25 00:00:00,METAR RCMQ 250000Z 01006KT 8000 FEW008 SCT200 24/21 Q1014 NOSIG RMK A2996,0,6,0,8000,0,0,0,
2026-03-24 23:30:00,METAR RCMQ 242330Z 02004KT 8000 FEW008 SCT030 23/21 Q1014 NOSIG RMK A2996,0,4,0,8000,0,0,0,
2026-03-24 23:00:00,METAR RCMQ 242300Z 36004KT 8000 FEW008 SCT030 21/20 Q1014 NOSIG RMK A2996,0,4,0,8000,0,0,0,
2026-03-24 22:30:00,METAR RCMQ 242230Z 34004KT 8000 FEW008 SCT030 19/18 Q1014 NOSIG RMK A2996,0,4,0,8000,0,0,0,
2026-03-24 22:00:00,METAR RCMQ 242200Z 33004KT 8000 FEW008 20/18 Q1014 NOSIG RMK A2995,0,4,0,8000,0,0,0,
2026-03-24 21:30:00,METAR RCMQ 242130Z 32004KT 8000 FEW008 19/18 Q1014 NOSIG RMK A2994,0,4,0,8000,0,0,0,
2026-03-24 21:00:00,METAR RCMQ 242100Z 31004KT 6000 FEW008 SCT050 19/18 Q1013 NOSIG RMK A2992,0,4,0,6000,0,0,0,
2026-03-24 20:30:00,METAR RCMQ 242030Z 34002KT 6000 FEW008 SCT050 20/19 Q1013 RMK A2992,0,2,0,6000,0,0,0,
2026-03-24 20:00:00,METAR RCMQ 242000Z 00000KT 6000 FEW008 SCT050 20/19 Q1013 RMK A2992,0,0,0,6000,0,0,0,
2026-03-24 19:00:00,METAR RCMQ 241900Z 00000KT 6000 FEW008 SCT050 20/19 Q1013 RMK A2992,0,0,0,6000,0,0,0,
2026-03-24 18:00:00,METAR RCMQ 241800Z 00000KT 6000 FEW008 SCT050 21/19 Q1013 RMK A2992,0,0,0,6000,0,0,0,
2026-03-24 17:00:00,METAR RCMQ 241700Z 00000KT 6000 FEW006 BKN030 22/19 Q1014 RMK A2994,0,0,0,6000,0,0,0,
2026-03-24 16:00:00,METAR RCMQ 241600Z 22003KT 6000 FEW006 BKN030 22/20 Q1014 RMK A2996,0,3,0,6000,0,0,0,
2026-03-24 15:00:00,METAR RCMQ 241500Z 16005KT 6000 FEW006 BKN030 22/19 Q1014 RMK A2996,0,5,0,6000,0,0,0,
2026-03-24 14:00:00,METAR RCMQ 241400Z 16004KT 6000 FEW006 BKN030 22/20 Q1014 RMK A2997,0,4,0,6000,0,0,0,
2026-03-24 13:30:00,METAR RCMQ 241330Z 16003KT 6000 FEW006 BKN030 23/19 Q1014 RMK A2996,0,3,0,6000,0,0,0,
2026-03-24 13:00:00,METAR RCMQ 241300Z 20004KT 6000 FEW006 BKN030 23/20 Q1014 RMK A2996,0,4,0,6000,0,0,0,
2026-03-24 12:30:00,METAR RCMQ 241230Z 26002KT 6000 FEW006 BKN030 23/19 Q1014 NOSIG RMK A2996,0,2,0,6000,0,0,0,
2026-03-24 12:00:00,METAR RCMQ 241200Z 17005KT 6000 FEW006 BKN030 23/20 Q1014 NOSIG RMK A2994,0,5,0,6000,0,0,0,
2026-03-24 11:30:00,METAR RCMQ 241130Z 15004KT 6000 FEW006 BKN030 22/19 Q1013 NOSIG RMK A2993,0,4,0,6000,0,0,0,
2026-03-24 11:00:00,METAR RCMQ 241100Z 00000KT 6000 FEW006 SCT030 22/19 Q1013 NOSIG RMK A2992,0,0,0,6000,0,0,0,
2026-03-24 10:30:00,METAR RCMQ 241030Z 29002KT 6000 FEW006 22/19 Q1012 NOSIG RMK A2989,0,2,0,6000,0,0,0,
2026-03-24 10:00:00,METAR RCMQ 241000Z 19004KT 5000 BR FEW006 22/19 Q1012 NOSIG RMK A2989,0,4,0,5000,0,0,1,BR
2026-03-24 09:30:00,METAR RCMQ 240930Z 17005KT 5000 BR FEW006 23/19 Q1012 NOSIG RMK A2988,0,5,0,5000,0,0,1,BR
2026-03-24 09:06:00,SPECI RCMQ 240906Z 13004KT 5000 BR FEW006 22/19 Q1011 NOSIG RMK A2988,0,4,0,5000,0,0,1,BR
2026-03-24 09:00:00,METAR RCMQ 240900Z 12003KT 4000 BR FEW006 SCT040 22/19 Q1011 BECMG 5000 BR RMK A2988,0,3,0,4000,0,0,1,BR
2026-03-24 08:50:00,SPECI RCMQ 240850Z 12004KT 4000 BR FEW006 SCT040 22/19 Q1011 BECMG 5000 BR RMK A2988,0,4,0,4000,0,0,1,BR
2026-03-24 08:35:00,SPECI RCMQ 240835Z 10001KT 3200 BR SCT006 BKN040 22/19 Q1012 BECMG 5000 BR RMK A2988,0,1,0,3200,0,0,1,BR
2026-03-24 08:30:00,METAR RCMQ 240830Z 07004KT 2400 BR BKN006 BKN040 21/19 Q1012 BECMG 3000 BR RMK A2989,0,4,0,2400,0,0,1,BR
2026-03-24 08:07:00,SPECI RCMQ 240807Z 02004KT 2400 BR BKN006 BKN020 21/19 Q1012 BECMG BKN006 RMK A2989,0,4,0,2400,0,0,1,BR
2026-03-24 08:00:00,METAR RCMQ 240800Z 02004KT 1600 BR BKN004 BKN016 21/19 Q1012 NOSIG RMK A2989,0,4,0,1600,0,0,1,BR
2026-03-24 07:50:00,SPECI RCMQ 240750Z 01004KT 1600 BR BKN004 BKN016 21/19 Q1012 BECMG 1600 BR RMK A2990,0,4,0,1600,0,0,1,BR
2026-03-24 07:30:00,METAR RCMQ 240730Z 36006KT 1200 R36/P2000 BR BKN004 BKN016 21/19 Q1012 BECMG TL0800 0800 FG BKN002 RMK A2990,0,6,0,1200,0,0,1,"BR,FG"
2026-03-24 07:00:00,METAR RCMQ 240700Z 36009KT 1200 R36/P2000 BR BKN004 BKN016 20/19 Q1012 BECMG TL0800 0800 FG BKN002 RMK A2991,0,9,0,1200,0,0,1,"BR,FG"
2026-03-24 06:30:00,METAR RCMQ 240630Z 34010KT 1200 R36/P2000 BR BKN004 BKN016 20/18 Q1013 BECMG TL0800 0800 FG BKN002 RMK A2992,0,10,0,1200,0,0,1,"BR,FG"
2026-03-24 06:00:00,METAR RCMQ 240600Z 33011KT 1200 R36/P2000 BR BKN004 BKN016 21/20 Q1013 BECMG TL0800 0800 FG BKN002 RMK A2993,0,11,0,1200,0,0,1,"BR,FG"
2026-03-24 05:30:00,METAR RCMQ 240530Z 33011KT 1200 R36/P2000 BR BKN004 BKN016 21/20 Q1014 BECMG TL0800 0800 FG BKN002 RMK A2994,0,11,0,1200,0,0,1,"BR,FG"
2026-03-24 05:17:00,SPECI RCMQ 240517Z 33010KT 1200 R36/P2000 BR BKN004 BKN016 21/20 Q1014 BECMG TL0800 0800 FG BKN002 RMK A2994,0,10,0,1200,0,0,1,"BR,FG"
2026-03-24 05:00:00,METAR RCMQ 240500Z 33010KT 1600 BR BKN004 BKN016 22/20 Q1013 BECMG FM0515 TL0800 0800 FG BKN002 RMK A2994,0,10,0,1600,0,0,1,"BR,FG"
2026-03-24 04:47:00,SPECI RCMQ 240447Z 33008KT 1600 BR BKN004 BKN016 22/20 Q1013 NOSIG RMK A2993,0,8,0,1600,0,0,1,BR
2026-03-24 04:35:00,SPECI RCMQ 240435Z 32008KT 3200 1600NW BR BKN006 BKN020 23/20 Q1013 BECMG 3000 BR RMK A2993,0,8,0,3200,0,0,1,BR
2026-03-24 04:30:00,METAR RCMQ 240430Z 32007KT 4000 1600NW BR BKN006 BKN020 23/20 Q1014 NOSIG RMK A2994,0,7,0,4000,0,0,1,BR
2026-03-24 04:10:00,SPECI RCMQ 240410Z 33010KT 4000 BR BKN006 BKN020 24/21 Q1014 NOSIG RMK A2995,0,10,0,4000,0,0,1,BR
2026-03-24 04:00:00,METAR RCMQ 240400Z 33009KT 5000 BR BKN006 BKN020 23/20 Q1014 NOSIG RMK A2995,0,9,0,5000,0,0,1,BR
2026-03-24 03:50:00,SPECI RCMQ 240350Z 33010KT 5000 BR BKN006 BKN020 23/20 Q1014 NOSIG RMK A2995,0,10,0,5000,0,0,1,BR
2026-03-24 03:35:00,SPECI RCMQ 240335Z 32012KT 6000 2400NW BKN006 BKN020 24/20 Q1014 BECMG 5000 BR RMK A2996,0,12,0,6000,0,0,1,BR
2026-03-24 03:30:00,METAR RCMQ 240330Z 32012KT 6000 SCT006 BKN020 24/20 Q1014 BECMG BKN006 RMK A2996 APCH CLD SCT006,0,12,0,6000,0,0,0,
2026-03-24 03:00:00,METAR RCMQ 240300Z 31005KT 8000 FEW008 BKN020 27/21 Q1014 NOSIG RMK A2996,0,5,0,8000,0,0,0,
2026-03-24 02:30:00,METAR RCMQ 240230Z 31008KT 9000 FEW010 BKN020 26/20 Q1015 NOSIG RMK A2997,0,8,0,9000,0,0,0,
2026-03-24 02:00:00,METAR RCMQ 240200Z 30006KT 9999 FEW010 SCT020 27/21 Q1015 NOSIG RMK A2998,0,6,0,10000,0,0,0,
2026-03-24 01:30:00,METAR RCMQ 240130Z 08001KT 9999 FEW010 SCT020 26/21 Q1015 NOSIG RMK A2998,0,1,0,10000,0,0,0,
2026-03-24 01:00:00,METAR RCMQ 240100Z 07002KT 9000 FEW010 24/21 Q1015 NOSIG RMK A2998,0,2,0,9000,0,0,0,
2026-03-24 00:30:00,METAR RCMQ 240030Z 04004KT 6000 FEW010 23/20 Q1014 NOSIG RMK A2997,0,4,0,6000,0,0,0,
2026-03-24 00:00:00,METAR RCMQ 240000Z 03005KT 5000 BR FEW010 22/20 Q1015 NOSIG RMK A2998,0,5,0,5000,0,0,1,BR
2026-03-23 23:50:00,SPECI RCMQ 232350Z 03005KT 5000 BR FEW010 22/20 Q1015 NOSIG RMK A2997,0,5,0,5000,0,0,1,BR
2026-03-23 23:30:00,METAR RCMQ 232330Z 01005KT 4000 BR FEW008 SCT100 21/19 Q1014 BECMG 5000 BR RMK A2997,0,5,0,4000,0,0,1,BR
2026-03-23 23:00:00,METAR RCMQ 232300Z COR 36005KT 4000 BR FEW008 SCT100 20/19 Q1014 BECMG 5000 BR RMK A2996,0,5,0,4000,0,0,1,BR
2026-03-23 22:30:00,METAR RCMQ 232230Z 34004KT 4000 2000SW BR FEW008 SCT100 19/18 Q1014 NOSIG RMK A2994,0,4,0,4000,0,0,1,BR
2026-03-23 22:05:00,SPECI RCMQ 232205Z 35004KT 4000 2000SW BR FEW008 SCT100 18/17 Q1013 NOSIG RMK A2994,0,4,0,4000,0,0,1,BR
2026-03-23 22:00:00,METAR RCMQ 232200Z 35004KT 5000 BR FEW008 SCT100 18/17 Q1013 NOSIG RMK A2993,0,4,0,5000,0,0,1,BR
2026-03-23 21:30:00,METAR RCMQ 232130Z 35003KT 5000 BR FEW008 18/17 Q1013 NOSIG RMK A2993,0,3,0,5000,0,0,1,BR
2026-03-23 21:00:00,METAR RCMQ 232100Z 34002KT 5000 BR FEW008 18/17 Q1013 NOSIG RMK A2993,0,2,0,5000,0,0,1,BR
2026-03-23 20:30:00,METAR RCMQ 232030Z 32004KT 5000 BR FEW008 18/18 Q1013 RMK A2993,0,4,0,5000,0,0,1,BR
2026-03-23 20:00:00,METAR RCMQ 232000Z 34004KT 5000 BR FEW008 SCT050 18/18 Q1013 RMK A2993,0,4,0,5000,0,0,1,BR
2026-03-23 19:00:00,METAR RCMQ 231900Z 00000KT 5000 BR FEW008 SCT016 BKN050 19/18 Q1014 RMK A2995,0,0,0,5000,0,0,1,BR
2026-03-23 18:34:00,SPECI RCMQ 231834Z 35003KT 5000 BR FEW008 SCT016 BKN050 20/19 Q1015 RMK A2998,0,3,0,5000,0,0,1,BR
2026-03-23 18:00:00,METAR RCMQ 231800Z 35003KT 4800 BR FEW008 SCT016 BKN050 20/19 Q1015 RMK A2998,0,3,0,4800,0,0,1,BR
2026-03-23 17:00:00,METAR RCMQ 231700Z 01005KT 4800 BR SCT008 BKN016 20/19 Q1015 RMK A2999,0,5,0,4800,0,0,1,BR
2026-03-23 16:51:00,SPECI RCMQ 231651Z 34005KT 4800 BR SCT008 BKN016 20/19 Q1016 RMK A3000,0,5,0,4800,0,0,1,BR
2026-03-23 16:00:00,METAR RCMQ 231600Z 34005KT 6000 FEW008 SCT050 20/19 Q1016 RMK A3000,0,5,0,6000,0,0,0,
2026-03-23 15:00:00,METAR RCMQ 231500Z 29004KT 6000 FEW008 SCT050 20/19 Q1015 RMK A2998,0,4,0,6000,0,0,0,
2026-03-23 14:00:00,METAR RCMQ 231400Z 00000KT 8000 FEW008 SCT050 21/19 Q1015 RMK A2998,0,0,0,8000,0,0,0,
2026-03-23 13:30:00,METAR RCMQ 231330Z 00000KT 8000 FEW008 SCT050 20/19 Q1015 RMK A2998,0,0,0,8000,0,0,0,
2026-03-23 13:00:00,METAR RCMQ 231300Z 00000KT 8000 FEW008 SCT050 20/19 Q1015 RMK A2998,0,0,0,8000,0,0,0,
2026-03-23 12:30:00,METAR RCMQ 231230Z 00000KT 8000 FEW008 SCT050 20/19 Q1015 NOSIG RMK A2998,0,0,0,8000,0,0,0,
2026-03-23 12:00:00,METAR RCMQ 231200Z 04001KT 8000 FEW008 SCT050 21/19 Q1015 NOSIG RMK A2998,0,1,0,8000,0,0,0,
2026-03-23 11:30:00,METAR RCMQ 231130Z 02004KT 6000 SCT008 BKN050 21/19 Q1015 NOSIG RMK A2998,0,4,0,6000,0,0,0,
2026-03-23 11:00:00,METAR RCMQ 231100Z 02006KT 6000 SCT008 BKN050 21/19 Q1015 NOSIG RMK A2997,0,6,0,6000,0,0,0,
2026-03-23 10:50:00,SPECI RCMQ 231050Z 01007KT 6000 SCT008 BKN050 21/19 Q1015 NOSIG RMK A2997,0,7,0,6000,0,0,0,
2026-03-23 10:30:00,METAR RCMQ 231030Z 01007KT 6000 BKN008 BKN050 21/19 Q1015 BECMG BKN050 RMK A2997,0,7,0,6000,0,0,0,
2026-03-23 10:00:00,METAR RCMQ 231000Z 36009KT 6000 BKN008 BKN050 21/19 Q1015 NOSIG RMK A2997,0,9,0,6000,0,0,0,
2026-03-23 09:30:00,METAR RCMQ 230930Z 35011KT 6000 BKN008 BKN030 22/19 Q1014 NOSIG RMK A2996,0,11,0,6000,0,0,0,
2026-03-23 09:00:00,METAR RCMQ 230900Z 34013KT 7000 BKN008 BKN030 22/19 Q1014 NOSIG RMK A2995,0,13,0,7000,0,0,0,
2026-03-23 08:52:00,SPECI RCMQ 230852Z 33011KT 7000 BKN008 BKN030 22/19 Q1014 NOSIG RMK A2995,0,11,0,7000,0,0,0,
2026-03-23 08:30:00,METAR RCMQ 230830Z 34012KT 8000 SCT008 BKN060 23/20 Q1014 BECMG BKN010 RMK A2994 APCH CLD SCT008,0,12,0,8000,0,0,0,
2026-03-23 08:00:00,METAR RCMQ 230800Z 35013KT 9999 SCT010 SCT060 24/19 Q1014 NOSIG RMK A2994,0,13,0,10000,0,0,0,
2026-03-23 07:30:00,METAR RCMQ 230730Z 35012KT 9999 FEW010 SCT060 25/19 Q1013 NOSIG RMK A2994,0,12,0,10000,0,0,0,
2026-03-23 07:00:00,METAR RCMQ 230700Z 33009KT 9999 FEW010 SCT060 26/19 Q1013 NOSIG RMK A2993,0,9,0,10000,0,0,0,
2026-03-23 06:30:00,METAR RCMQ 230630Z 34011KT 8000 SCT010 SCT060 26/20 Q1013 NOSIG RMK A2994,0,11,0,8000,0,0,0,
2026-03-23 06:00:00,METAR RCMQ 230600Z 35012KT 8000 SCT010 SCT060 26/20 Q1014 NOSIG RMK A2994,0,12,0,8000,0,0,0,
2026-03-23 05:30:00,METAR RCMQ 230530Z 34011KT 7000 FEW012 SCT100 27/20 Q1014 NOSIG RMK A2995,0,11,0,7000,0,0,0,
2026-03-23 05:00:00,METAR RCMQ 230500Z 33012KT 7000 FEW012 SCT100 27/20 Q1014 NOSIG RMK A2996,0,12,0,7000,0,0,0,
2026-03-23 04:30:00,METAR RCMQ 230430Z 33010KT 8000 FEW012 28/20 Q1014 NOSIG RMK A2996,0,10,0,8000,0,0,0,
2026-03-23 04:00:00,METAR RCMQ 230400Z 32008KT 8000 FEW012 29/20 Q1015 NOSIG RMK A2999,0,8,0,8000,0,0,0,
2026-03-23 03:30:00,METAR RCMQ 230330Z 32008KT 8000 FEW012 28/20 Q1016 NOSIG RMK A3000,0,8,0,8000,0,0,0,
2026-03-23 03:00:00,METAR RCMQ 230300Z 32006KT 8000 FEW012 28/20 Q1016 NOSIG RMK A3001,0,6,0,8000,0,0,0,
2026-03-23 02:30:00,METAR RCMQ 230230Z 32002KT 8000 FEW012 28/21 Q1016 NOSIG RMK A3001,0,2,0,8000,0,0,0,
2026-03-23 02:00:00,METAR RCMQ 230200Z 02001KT 8000 FEW012 27/21 Q1016 NOSIG RMK A3001,0,1,0,8000,0,0,0,
2026-03-23 01:30:00,METAR RCMQ 230130Z 00000KT 6000 FEW010 26/21 Q1016 NOSIG RMK A3002,0,0,0,6000,0,0,0,
2026-03-23 01:00:00,METAR RCMQ 230100Z 03003KT 5000 BR FEW010 25/21 Q1016 NOSIG RMK A3002,0,3,0,5000,0,0,1,BR
2026-03-23 00:40:00,SPECI RCMQ 230040Z 01004KT 5000 BR FEW010 24/20 Q1016 NOSIG RMK A3002,0,4,0,5000,0,0,1,BR
2026-03-23 00:30:00,METAR RCMQ 230030Z 01004KT 4000 BR FEW010 23/20 Q1016 BECMG 5000 BR RMK A3002,0,4,0,4000,0,0,1,BR
2026-03-23 00:15:00,SPECI RCMQ 230015Z 36004KT 4000 BR FEW006 22/20 Q1016 BECMG 5000 BR RMK A3002,0,4,0,4000,0,0,1,BR
2026-03-23 00:00:00,METAR RCMQ 230000Z 36005KT 3200 BR FEW006 21/20 Q1016 BECMG 5000 BR RMK A3002,0,5,0,3200,0,0,1,BR
2026-03-22 23:40:00,SPECI RCMQ 222340Z 36004KT 3200 BR SCT006 21/20 Q1016 BECMG 5000 BR RMK A3002,0,4,0,3200,0,0,1,BR
2026-03-22 23:30:00,METAR RCMQ 222330Z 36004KT 2400 BR SCT006 20/20 Q1016 BECMG 3000 BR RMK A3002,0,4,0,2400,0,0,1,BR
2026-03-22 23:00:00,METAR RCMQ 222300Z 36004KT 2400 BR SCT006 19/19 Q1016 BECMG 3000 BR RMK A3001,0,4,0,2400,0,0,1,BR
2026-03-22 22:35:00,SPECI RCMQ 222235Z 01004KT 2400 BR SCT006 18/17 Q1016 BECMG 3000 BR RMK A3001,0,4,0,2400,0,0,1,BR
2026-03-22 22:30:00,METAR RCMQ 222230Z 01004KT 1600 BR SCT006 BKN010 18/17 Q1016 BECMG 3000 BR RMK A3001,0,4,0,1600,0,0,1,BR
2026-03-22 22:00:00,METAR RCMQ 222200Z 36003KT 1600 BR SCT006 BKN010 17/17 Q1015 NOSIG RMK A2999,0,3,0,1600,0,0,1,BR
2026-03-22 21:52:00,SPECI RCMQ 222152Z 35003KT 1600 BR SCT006 BKN010 17/17 Q1015 NOSIG RMK A2999,0,3,0,1600,0,0,1,BR
2026-03-22 21:30:00,METAR RCMQ 222130Z 34002KT 2400 BR SCT006 BKN010 17/17 Q1015 NOSIG RMK A2999,0,2,0,2400,0,0,1,BR
2026-03-22 21:00:00,METAR RCMQ 222100Z 04001KT 2400 BR SCT006 BKN010 18/17 Q1015 NOSIG RMK A2998,0,1,0,2400,0,0,1,BR
2026-03-22 20:30:00,METAR RCMQ 222030Z 04004KT 2400 BR SCT006 BKN010 18/17 Q1015 RMK A2997,0,4,0,2400,0,0,1,BR
2026-03-22 20:00:00,METAR RCMQ 222000Z 35004KT 2400 BR SCT006 BKN010 18/18 Q1015 RMK A2998,0,4,0,2400,0,0,1,BR
2026-03-22 19:00:00,METAR RCMQ 221900Z 06001KT 2400 BR SCT006 BKN010 18/17 Q1016 RMK A3000,0,1,0,2400,0,0,1,BR
2026-03-22 18:33:00,SPECI RCMQ 221833Z 02003KT 2400 BR SCT006 BKN010 18/18 Q1016 RMK A3001,0,3,0,2400,0,0,1,BR
2026-03-22 18:00:00,METAR RCMQ 221800Z 35003KT 3200 BR SCT006 BKN030 18/18 Q1016 RMK A3002,0,3,0,3200,0,0,1,BR
2026-03-22 17:00:00,METAR RCMQ 221700Z 32002KT 3200 BR SCT006 BKN030 18/17 Q1017 RMK A3003,0,2,0,3200,0,0,1,BR
2026-03-22 16:00:00,METAR RCMQ 221600Z 00000KT 3200 BR SCT006 BKN030 19/18 Q1017 RMK A3003,0,0,0,3200,0,0,1,BR
2026-03-22 15:00:00,METAR RCMQ 221500Z 00000KT 3200 BR SCT006 BKN030 19/18 Q1017 RMK A3003,0,0,0,3200,0,0,1,BR
2026-03-22 14:00:00,METAR RCMQ 221400Z 17005KT 3200 BR SCT006 BKN030 19/18 Q1016 RMK A3002,0,5,0,3200,0,0,1,BR
2026-03-22 13:30:00,METAR RCMQ 221330Z 15004KT 3200 BR SCT006 BKN030 19/18 Q1016 BECMG 3000 BR RMK A3002,0,4,0,3200,0,0,1,BR
2026-03-22 13:05:00,SPECI RCMQ 221305Z 10004KT 3200 BR SCT006 BKN030 19/18 Q1016 BECMG 3000 BR RMK A3002,0,4,0,3200,0,0,1,BR
2026-03-22 13:00:00,METAR RCMQ 221300Z 09004KT 360V090 3200 BR BKN006 BKN030 19/18 Q1016 BECMG 3000 BR BKN030 RMK A3002,0,4,0,3200,0,0,1,BR
2026-03-22 12:30:00,METAR RCMQ 221230Z 36004KT 3200 BR BKN006 BKN016 19/18 Q1016 BECMG 3000 BR RMK A3002,0,4,0,3200,0,0,1,BR
2026-03-22 12:00:00,METAR RCMQ 221200Z 01005KT 3200 BR BKN006 BKN016 20/18 Q1016 BECMG 3000 BR RMK A3002,0,5,0,3200,0,0,1,BR
2026-03-22 11:30:00,METAR RCMQ 221130Z 33004KT 3200 BR BKN006 BKN016 20/18 Q1016 BECMG 3000 BR RMK A3001,0,4,0,3200,0,0,1,BR
2026-03-22 11:00:00,METAR RCMQ 221100Z 35006KT 3200 BR BKN006 BKN016 20/18 Q1016 BECMG 3000 BR RMK A3001,0,6,0,3200,0,0,1,BR
2026-03-22 10:35:00,SPECI RCMQ 221035Z 34006KT 3200 BR BKN006 BKN016 20/18 Q1016 BECMG 3000 BR RMK A3000,0,6,0,3200,0,0,1,BR
2026-03-22 10:30:00,METAR RCMQ 221030Z 34005KT 4000 BR SCT006 BKN016 20/18 Q1016 BECMG 3000 BR BKN006 RMK A3000 APCH CLD SCT006,0,5,0,4000,0,0,1,BR
2026-03-22 10:24:00,SPECI RCMQ 221024Z 34006KT 4000 BR SCT006 BKN016 20/18 Q1016 BECMG BKN006 RMK A3000 APCH CLD SCT006,0,6,0,4000,0,0,1,BR
2026-03-22 10:17:00,SPECI RCMQ 221017Z 34006KT 5000 BR SCT006 BKN050 21/18 Q1015 NOSIG RMK A3000 APCH CLD SCT006,0,6,0,5000,0,0,1,BR
2026-03-22 10:00:00,METAR RCMQ 221000Z 34006KT 6000 SCT008 SCT100 21/18 Q1015 BECMG 5000 BR RMK A3000,0,6,0,6000,0,0,1,BR
2026-03-22 09:30:00,METAR RCMQ 220930Z 35005KT 8000 SCT010 22/18 Q1015 NOSIG RMK A2999,0,5,0,8000,0,0,0,
2026-03-22 09:00:00,METAR RCMQ 220900Z 33006KT 8000 SCT010 23/18 Q1015 NOSIG RMK A2998,0,6,0,8000,0,0,0,
2026-03-22 08:30:00,METAR RCMQ 220830Z 33008KT 9000 FEW010 24/19 Q1015 NOSIG RMK A2998,0,8,0,9000,0,0,0,
2026-03-22 08:00:00,METAR RCMQ 220800Z 32008KT 9999 FEW010 25/19 Q1015 NOSIG RMK A2998,0,8,0,10000,0,0,0,
2026-03-22 07:30:00,METAR RCMQ 220730Z 31007KT 9999 FEW010 26/19 Q1015 NOSIG RMK A2997,0,7,0,10000,0,0,0,
2026-03-22 07:00:00,METAR RCMQ 220700Z 34006KT 9999 FEW010 27/19 Q1015 NOSIG RMK A2998,0,6,0,10000,0,0,0,
2026-03-22 06:30:00,METAR RCMQ 220630Z 35006KT 9999 FEW010 27/19 Q1015 NOSIG RMK A2998,0,6,0,10000,0,0,0,
2026-03-22 05:30:00,METAR RCMQ 220530Z 33011KT 9999 FEW010 26/18 Q1016 NOSIG RMK A3000,0,11,0,10000,0,0,0,
2026-03-22 05:00:00,METAR RCMQ 220500Z 34009KT 9999 FEW010 26/18 Q1016 NOSIG RMK A3001,0,9,0,10000,0,0,0,
2026-03-22 04:30:00,METAR RCMQ 220430Z 34008KT 9999 FEW010 SCT200 27/18 Q1016 NOSIG RMK A3001,0,8,0,10000,0,0,0,
2026-03-22 04:00:00,METAR RCMQ 220400Z 33010KT 9999 FEW010 SCT200 26/18 Q1016 NOSIG RMK A3002,0,10,0,10000,0,0,0,
2026-03-22 03:30:00,METAR RCMQ 220330Z 33007KT 9999 FEW010 27/18 Q1017 NOSIG RMK A3003,0,7,0,10000,0,0,0,
2026-03-22 03:00:00,METAR RCMQ 220300Z 01002KT 9999 FEW010 26/18 Q1017 NOSIG RMK A3004,0,2,0,10000,0,0,0,
2026-03-22 02:30:00,METAR RCMQ 220230Z 05003KT 9999 FEW010 25/18 Q1017 NOSIG RMK A3005,0,3,0,10000,0,0,0,
2026-03-22 02:00:00,METAR RCMQ 220200Z 02004KT 9999 FEW010 24/18 Q1017 NOSIG RMK A3006,0,4,0,10000,0,0,0,
2026-03-22 01:30:00,METAR RCMQ 220130Z 36007KT 9999 FEW010 23/18 Q1018 NOSIG RMK A3006,0,7,0,10000,0,0,0,
2026-03-22 01:00:00,METAR RCMQ 220100Z 32007KT 9999 FEW010 23/19 Q1017 NOSIG RMK A3006,0,7,0,10000,0,0,0,
2026-03-22 00:30:00,METAR RCMQ 220030Z 36003KT 9999 FEW010 22/18 Q1017 NOSIG RMK A3005,0,3,0,10000,0,0,0,
2026-03-22 00:00:00,METAR RCMQ 220000Z 08004KT 8000 FEW010 20/18 Q1017 NOSIG RMK A3004,0,4,0,8000,0,0,0,
2026-03-21 23:34:00,SPECI RCMQ 212334Z 07004KT 6000 FEW010 19/17 Q1017 NOSIG RMK A3004,0,4,0,6000,0,0,0,
2026-03-21 23:30:00,METAR RCMQ 212330Z 06004KT 4800 BR FEW010 19/17 Q1017 BECMG 5000 BR RMK A3004,0,4,0,4800,0,0,1,BR
2026-03-21 23:00:00,METAR RCMQ 212300Z 05004KT 4000 BR SCT004 SCT060 18/17 Q1017 BECMG 5000 BR RMK A3003,0,4,0,4000,0,0,1,BR
2026-03-21 22:53:00,SPECI RCMQ 212253Z 05004KT 4000 BR SCT004 SCT060 17/17 Q1017 BECMG TL2300 0800 FG BKN002 RMK A3003,0,4,0,4000,0,0,1,"BR,FG"
2026-03-21 22:30:00,METAR RCMQ 212230Z 01005KT 2400 BR BKN002 OVC010 17/16 Q1017 BECMG TL0000 0800 FG BKN002 RMK A3004,0,5,0,2400,0,0,1,"BR,FG"
2026-03-21 22:05:00,SPECI RCMQ 212205Z 03006KT 2400 BR BKN002 OVC010 17/16 Q1017 BECMG TL0000 0800 FG BKN002 RMK A3003,0,6,0,2400,0,0,1,"BR,FG"
2026-03-21 22:00:00,METAR RCMQ 212200Z 03007KT 2400 BR BKN004 OVC010 17/16 Q1017 BECMG FM2200 TL0000 0800 FG BKN002 RMK A3003,0,7,0,2400,0,0,1,"BR,FG"
2026-03-21 21:30:00,METAR RCMQ 212130Z 03007KT 2400 BR BKN004 OVC010 17/16 Q1017 BECMG FM2200 TL0000 0800 FG BKN002 RMK A3003,0,7,0,2400,0,0,1,"BR,FG"
2026-03-21 21:05:00,SPECI RCMQ 212105Z 02009KT 2400 BR BKN004 OVC010 17/16 Q1016 NOSIG RMK A3002,0,9,0,2400,0,0,1,BR
2026-03-21 21:00:00,METAR RCMQ 212100Z 01010KT 3200 BR SCT004 BKN006 BKN012 17/16 Q1016 BECMG 3000 BR BKN005 RMK A3002,0,10,0,3200,0,0,1,BR
2026-03-21 20:30:00,METAR RCMQ 212030Z 36009KT 3200 BR SCT004 BKN006 BKN012 17/16 Q1016 RMK A3002,0,9,0,3200,0,0,1,BR
2026-03-21 20:00:00,METAR RCMQ 212000Z 36006KT 3200 BR BKN006 BKN016 17/16 Q1016 RMK A3002,0,6,0,3200,0,0,1,BR
2026-03-21 19:00:00,METAR RCMQ 211900Z 03005KT 3200 BR BKN006 BKN016 17/16 Q1016 RMK A3002,0,5,0,3200,0,0,1,BR
2026-03-21 18:00:00,METAR RCMQ 211800Z 03010KT 3200 BR BKN006 BKN016 17/16 Q1017 RMK A3004,0,10,0,3200,0,0,1,BR
2026-03-21 17:00:00,METAR RCMQ 211700Z 01008KT 3200 BR BKN006 BKN016 17/16 Q1017 RMK A3003,0,8,0,3200,0,0,1,BR
2026-03-21 16:00:00,METAR RCMQ 211600Z 01008KT 3200 BR BKN006 BKN016 17/16 Q1017 RMK A3005,0,8,0,3200,0,0,1,BR
2026-03-21 14:33:00,SPECI RCMQ 211433Z 36008KT 3200 BR BKN006 BKN016 17/16 Q1018 RMK A3006,0,8,0,3200,0,0,1,BR
2026-03-21 14:05:00,SPECI RCMQ 211405Z 35008KT 4000 BR SCT006 BKN040 17/16 Q1017 RMK A3006,0,8,0,4000,0,0,1,BR
2026-03-21 14:00:00,METAR RCMQ 211400Z 35007KT 5000 BR SCT006 BKN040 17/16 Q1018 RMK A3006,0,7,0,5000,0,0,1,BR
2026-03-21 13:30:00,METAR RCMQ 211330Z 36008KT 5000 BR SCT006 BKN040 17/16 Q1017 RMK A3005,0,8,0,5000,0,0,1,BR
2026-03-21 13:10:00,SPECI RCMQ 211310Z 36009KT 5000 BR SCT006 BKN040 17/16 Q1017 RMK A3005,0,9,0,5000,0,0,1,BR
2026-03-21 13:00:00,METAR RCMQ 211300Z 35008KT 6000 SCT006 BKN060 17/16 Q1017 NOSIG RMK A3005,0,8,0,6000,0,0,0,
2026-03-21 12:30:00,METAR RCMQ 211230Z 36009KT 6000 FEW008 BKN060 18/16 Q1017 NOSIG RMK A3004,0,9,0,6000,0,0,0,
2026-03-21 12:00:00,METAR RCMQ 211200Z 01007KT 7000 SCT008 BKN060 18/16 Q1017 NOSIG RMK A3004,0,7,0,7000,0,0,0,
2026-03-21 11:30:00,METAR RCMQ 211130Z 01008KT 7000 SCT008 BKN060 18/16 Q1017 NOSIG RMK A3003,0,8,0,7000,0,0,0,
2026-03-21 11:00:00,METAR RCMQ 211100Z 02011KT 8000 SCT008 BKN060 18/16 Q1017 NOSIG RMK A3003,0,11,0,8000,0,0,0,
2026-03-21 10:30:00,METAR RCMQ 211030Z 01012KT 8000 SCT008 BKN060 18/16 Q1017 NOSIG RMK A3003,0,12,0,8000,0,0,0,
2026-03-21 10:00:00,METAR RCMQ 211000Z 01012KT 9000 SCT008 BKN080 19/16 Q1017 NOSIG RMK A3003,0,12,0,9000,0,0,0,
2026-03-21 09:30:00,METAR RCMQ 210930Z 36014KT 9999 FEW010 BKN100 19/16 Q1016 NOSIG RMK A3002,0,14,0,10000,0,0,0,
2026-03-21 09:00:00,METAR RCMQ 210900Z 01012KT 9999 FEW010 BKN100 20/16 Q1016 NOSIG RMK A3002,0,12,0,10000,0,0,0,
2026-03-21 08:30:00,METAR RCMQ 210830Z 01012KT 9999 FEW010 BKN100 22/16 Q1016 NOSIG RMK A3002,0,12,0,10000,0,0,0,
2026-03-21 08:00:00,METAR RCMQ 210800Z 01015KT 9999 FEW010 BKN100 22/17 Q1016 NOSIG RMK A3002,0,15,0,10000,0,0,0,
2026-03-21 07:30:00,METAR RCMQ 210730Z 36014KT 9999 FEW010 BKN100 23/17 Q1016 NOSIG RMK A3002,0,14,0,10000,0,0,0,
2026-03-21 07:00:00,METAR RCMQ 210700Z 01012KT 9999 FEW010 BKN100 24/17 Q1016 NOSIG RMK A3002,0,12,0,10000,0,0,0,
2026-03-21 06:30:00,METAR RCMQ 210630Z 01015KT 9999 FEW010 SCT100 25/17 Q1017 NOSIG RMK A3003,0,15,0,10000,0,0,0,
2026-03-21 06:00:00,METAR RCMQ 210600Z 35015KT 9999 FEW010 SCT100 25/17 Q1017 NOSIG RMK A3004,0,15,0,10000,0,0,0,
2026-03-21 05:30:00,METAR RCMQ 210530Z 36013KT 9999 FEW010 SCT100 25/17 Q1017 NOSIG RMK A3005,0,13,0,10000,0,0,0,
2026-03-21 04:30:00,METAR RCMQ 210430Z 36011KT 9999 FEW010 SCT100 25/17 Q1018 NOSIG RMK A3006,0,11,0,10000,0,0,0,
2026-03-21 04:00:00,METAR RCMQ 210400Z 01012KT 9999 FEW010 SCT100 24/17 Q1018 NOSIG RMK A3007,0,12,0,10000,0,0,0,
2026-03-21 03:30:00,METAR RCMQ 210330Z 01011KT 9999 FEW010 SCT100 23/17 Q1018 NOSIG RMK A3008,0,11,0,10000,0,0,0,
2026-03-21 03:00:00,METAR RCMQ 210300Z 01010KT 9999 FEW010 SCT100 23/17 Q1019 NOSIG RMK A3009,0,10,0,10000,0,0,0,
2026-03-21 02:30:00,METAR RCMQ 210230Z 36009KT 9999 FEW010 SCT100 23/18 Q1019 NOSIG RMK A3010,0,9,0,10000,0,0,0,
2026-03-21 02:00:00,METAR RCMQ 210200Z 01011KT 9999 FEW010 SCT100 22/18 Q1019 NOSIG RMK A3010,0,11,0,10000,0,0,0,
2026-03-21 01:30:00,METAR RCMQ 210130Z 36011KT 9999 SCT010 BKN100 21/18 Q1019 NOSIG RMK A3010,0,11,0,10000,0,0,0,
2026-03-21 01:00:00,METAR RCMQ 210100Z 01010KT 9999 SCT010 BKN100 20/18 Q1019 NOSIG RMK A3010,0,10,0,10000,0,0,0,
2026-03-21 00:30:00,METAR RCMQ 210030Z 01011KT 9999 SCT010 BKN200 19/17 Q1019 NOSIG RMK A3009,0,11,0,10000,0,0,0,
2026-03-21 00:00:00,METAR RCMQ 210000Z 35010KT 9999 FEW010 SCT200 19/17 Q1018 NOSIG RMK A3009,0,10,0,10000,0,0,0,
2026-03-20 23:30:00,METAR RCMQ 202330Z 33008KT 8000 FEW006 SCT100 18/17 Q1018 NOSIG RMK A3007,0,8,0,8000,0,0,0,
2026-03-20 23:00:00,METAR RCMQ 202300Z 35005KT 7000 FEW006 SCT100 17/16 Q1018 NOSIG RMK A3006,0,5,0,7000,0,0,0,
2026-03-20 22:30:00,METAR RCMQ 202230Z 00000KT 7000 FEW006 SCT100 17/16 Q1017 NOSIG RMK A3005,0,0,0,7000,0,0,0,
2026-03-20 22:00:00,METAR RCMQ 202200Z 03004KT 5000 BR FEW006 SCT020 BKN100 17/16 Q1017 NOSIG RMK A3004,0,4,0,5000,0,0,1,BR
2026-03-20 21:53:00,SPECI RCMQ 202153Z 02004KT 5000 BR FEW006 SCT020 BKN100 17/16 Q1017 NOSIG RMK A3004,0,4,0,5000,0,0,1,BR
2026-03-20 21:30:00,METAR RCMQ 202130Z COR 01005KT 5000 BR FEW004 BKN010 BKN020 17/16 Q1017 BECMG BKN100 RMK A3004,0,5,0,5000,0,0,1,BR
2026-03-20 21:00:00,METAR RCMQ 202100Z 02006KT 5000 BR FEW004 BKN010 BKN020 17/16 Q1017 NOSIG RMK A3004,0,6,0,5000,0,0,1,BR
2026-03-20 20:30:00,METAR RCMQ 202030Z 02006KT 5000 BR FEW004 BKN010 BKN020 17/16 Q1017 RMK A3005,0,6,0,5000,0,0,1,BR
2026-03-20 20:00:00,METAR RCMQ 202000Z 02007KT 5000 BR FEW004 BKN010 BKN020 17/16 Q1017 RMK A3004,0,7,0,5000,0,0,1,BR
2026-03-20 19:00:00,METAR RCMQ 201900Z 02012KT 5000 BR FEW004 BKN010 BKN020 17/17 Q1018 RMK A3006,0,12,0,5000,0,0,1,BR
2026-03-20 18:00:00,METAR RCMQ 201800Z 35012KT 5000 BR FEW004 BKN010 BKN020 18/17 Q1018 RMK A3008,0,12,0,5000,0,0,1,BR
2026-03-20 17:00:00,METAR RCMQ 201700Z 35010KT 5000 BR FEW004 BKN010 BKN020 19/17 Q1019 RMK A3009,0,10,0,5000,0,0,1,BR
2026-03-20 16:47:00,SPECI RCMQ 201647Z 34009KT 5000 BR FEW004 BKN010 BKN020 19/17 Q1019 RMK A3010,0,9,0,5000,0,0,1,BR
2026-03-20 16:00:00,METAR RCMQ 201600Z 35010KT 6000 FEW006 SCT010 BKN020 19/18 Q1019 RMK A3010,0,10,0,6000,0,0,0,
2026-03-20 15:00:00,METAR RCMQ 201500Z 35006KT 6000 FEW008 BKN020 19/17 Q1019 RMK A3009,0,6,0,6000,0,0,0,
2026-03-20 14:00:00,METAR RCMQ 201400Z 35005KT 6000 FEW008 BKN020 19/17 Q1018 RMK A3008,0,5,0,6000,0,0,0,
2026-03-20 13:30:00,METAR RCMQ 201330Z 35004KT 6000 FEW008 BKN020 19/18 Q1018 RMK A3008,0,4,0,6000,0,0,0,
2026-03-20 13:00:00,METAR RCMQ 201300Z 35004KT 6000 FEW008 BKN020 19/17 Q1018 NOSIG RMK A3008 APCH CLD FEW008,0,4,0,6000,0,0,0,
2026-03-20 12:30:00,METAR RCMQ 201230Z 01004KT 6000 SCT008 BKN020 19/17 Q1018 NOSIG RMK A3006 APCH CLD SCT008,0,4,0,6000,0,0,0,
2026-03-20 12:00:00,METAR RCMQ 201200Z 01005KT 6000 SCT008 BKN020 19/17 Q1017 NOSIG RMK A3005 APCH CLD SCT008,0,5,0,6000,0,0,0,
2026-03-20 11:34:00,SPECI RCMQ 201134Z 36007KT 6000 SCT008 BKN020 19/17 Q1017 NOSIG RMK A3004 APCH CLD SCT008,0,7,0,6000,0,0,0,
2026-03-20 11:30:00,METAR RCMQ 201130Z 01007KT 4000 BR BKN005 BKN010 19/17 Q1017 BECMG 6000 BKN020 RMK A3004 APCH CLD BKN005,0,7,0,4000,0,0,1,BR
2026-03-20 11:00:00,METAR RCMQ 201100Z 01008KT 4000 BR BKN005 BKN010 19/17 Q1016 NOSIG RMK A3003 APCH CLD BKN005,0,8,0,4000,0,0,1,BR
2026-03-20 10:30:00,METAR RCMQ 201030Z 36010KT 4000 BR BKN005 BKN010 19/17 Q1016 NOSIG RMK A3002 APCH CLD BKN005,0,10,0,4000,0,0,1,BR
2026-03-20 10:05:00,SPECI RCMQ 201005Z 36010KT 4000 BR BKN005 BKN010 19/17 Q1016 NOSIG RMK A3002 APCH CLD BKN005,0,10,0,4000,0,0,1,BR
2026-03-20 10:00:00,METAR RCMQ 201000Z 36011KT 4000 BR SCT004 BKN010 19/17 Q1016 BECMG BKN005 RMK A3001 APCH CLD SCT004,0,11,0,4000,0,0,1,BR
2026-03-20 09:51:00,SPECI RCMQ 200951Z 36013KT 4000 BR SCT004 BKN010 19/17 Q1016 NOSIG RMK A3001 APCH CLD SCT004,0,13,0,4000,0,0,1,BR
2026-03-20 09:30:00,METAR RCMQ 200930Z COR 36014KT 5000 BR SCT006 BKN016 19/17 Q1016 BECMG BKN010 RMK A3001 APCH CLD SCT006,0,14,0,5000,0,0,1,BR
2026-03-20 09:05:00,SPECI RCMQ 200905Z 35012KT 5000 BR SCT008 BKN016 20/17 Q1016 NOSIG RMK A3000 APCH CLD SCT008,0,12,0,5000,0,0,1,BR
2026-03-20 09:00:00,METAR RCMQ 200900Z 35012KT 6000 SCT008 BKN016 20/17 Q1016 BECMG 5000 BR RMK A3001 APCH CLD SCT008,0,12,0,6000,0,0,1,BR
2026-03-20 08:30:00,METAR RCMQ 200830Z 35014KT 6000 SCT008 SCT016 21/17 Q1016 NOSIG RMK A3000 APCH CLD SCT008,0,14,0,6000,0,0,0,
2026-03-20 08:00:00,METAR RCMQ 200800Z 35013KT 7000 SCT008 SCT016 21/17 Q1015 NOSIG RMK A2999 APCH CLD SCT008,0,13,0,7000,0,0,0,
2026-03-20 07:30:00,METAR RCMQ 200730Z 35013KT 9000 FEW008 SCT016 23/18 Q1016 NOSIG RMK A3000,0,13,0,9000,0,0,0,
2026-03-20 06:30:00,METAR RCMQ 200630Z 34012KT 9999 FEW010 SCT030 26/18 Q1016 NOSIG RMK A3000,0,12,0,10000,0,0,0,
2026-03-20 06:00:00,METAR RCMQ 200600Z 34012KT 9999 FEW010 26/18 Q1015 NOSIG RMK A3000,0,12,0,10000,0,0,0,
2026-03-20 05:30:00,METAR RCMQ 200530Z 33011KT 9999 FEW010 26/18 Q1016 NOSIG RMK A3000,0,11,0,10000,0,0,0,
2026-03-20 05:00:00,METAR RCMQ 200500Z 33006KT 9999 FEW010 27/18 Q1016 NOSIG RMK A3001,0,6,0,10000,0,0,0,
2026-03-20 04:30:00,METAR RCMQ 200430Z 36005KT 9999 FEW010 27/17 Q1016 NOSIG RMK A3001,0,5,0,10000,0,0,0,
2026-03-20 04:00:00,METAR RCMQ 200400Z 36004KT 9999 FEW010 26/17 Q1016 NOSIG RMK A3003,0,4,0,10000,0,0,0,
2026-03-20 03:30:00,METAR RCMQ 200330Z 01007KT 9999 FEW010 24/17 Q1017 NOSIG RMK A3004,0,7,0,10000,0,0,0,
2026-03-20 03:00:00,METAR RCMQ 200300Z 01008KT 9999 FEW010 24/17 Q1018 NOSIG RMK A3006,0,8,0,10000,0,0,0,
2026-03-20 02:30:00,METAR RCMQ 200230Z 01008KT 9999 FEW010 SCT080 23/18 Q1018 NOSIG RMK A3006,0,8,0,10000,0,0,0,
2026-03-20 02:00:00,METAR RCMQ 200200Z 01011KT 9999 FEW010 SCT080 22/17 Q1018 NOSIG RMK A3006,0,11,0,10000,0,0,0,
2026-03-20 01:30:00,METAR RCMQ 200130Z 01008KT 9999 SCT010 BKN050 22/18 Q1018 NOSIG RMK A3007,0,8,0,10000,0,0,0,
2026-03-20 01:00:00,METAR RCMQ 200100Z 36010KT 9999 SCT010 BKN020 20/17 Q1018 NOSIG RMK A3007,0,10,0,10000,0,0,0,
2026-03-20 00:30:00,METAR RCMQ 200030Z 01009KT 9999 SCT008 BKN020 19/17 Q1018 NOSIG RMK A3006 APCH CLD SCT008,0,9,0,10000,0,0,0,
2026-03-20 00:00:00,METAR RCMQ 200000Z 36010KT 9999 SCT008 BKN020 19/17 Q1017 NOSIG RMK A3005 APCH CLD SCT008,0,10,0,10000,0,0,0,
2026-03-19 23:30:00,METAR RCMQ 192330Z 01008KT 9999 SCT008 BKN020 18/16 Q1017 NOSIG RMK A3003 APCH CLD SCT008,0,8,0,10000,0,0,0,
2026-03-19 23:00:00,METAR RCMQ 192300Z 02007KT 9999 SCT008 BKN020 18/16 Q1017 NOSIG RMK A3003 APCH CLD SCT008,0,7,0,10000,0,0,0,
2026-03-19 22:30:00,METAR RCMQ 192230Z 03007KT 8000 SCT008 BKN020 18/16 Q1016 NOSIG RMK A3003 APCH CLD SCT008,0,7,0,8000,0,0,0,
2026-03-19 22:00:00,METAR RCMQ 192200Z 03007KT 8000 SCT008 BKN020 17/16 Q1016 NOSIG RMK A3001 APCH CLD SCT008,0,7,0,8000,0,0,0,
2026-03-19 21:30:00,METAR RCMQ 192130Z 02010KT 9999 SCT008 18/16 Q1016 NOSIG RMK A3001,0,10,0,10000,0,0,0,
2026-03-19 21:00:00,METAR RCMQ 192100Z 02010KT 9999 SCT008 17/16 Q1016 NOSIG RMK A3000,0,10,0,10000,0,0,0,
2026-03-19 20:30:00,METAR RCMQ 192030Z 02010KT 9999 SCT008 17/16 Q1015 RMK A2999,0,10,0,10000,0,0,0,
2026-03-19 20:00:00,METAR RCMQ 192000Z 02010KT 9999 SCT008 17/16 Q1016 RMK A3000,0,10,0,10000,0,0,0,
2026-03-19 19:00:00,METAR RCMQ 191900Z 01011KT 9999 SCT008 17/16 Q1016 RMK A3000,0,11,0,10000,0,0,0,
2026-03-19 18:00:00,METAR RCMQ 191800Z 01009KT 9999 SCT008 17/16 Q1016 RMK A3001,0,9,0,10000,0,0,0,
2026-03-19 17:00:00,METAR RCMQ 191700Z 01009KT 9999 SCT008 17/16 Q1016 RMK A3002,0,9,0,10000,0,0,0,
2026-03-19 16:00:00,METAR RCMQ 191600Z 36009KT 9999 SCT008 17/16 Q1017 RMK A3004,0,9,0,10000,0,0,0,
2026-03-19 15:00:00,METAR RCMQ 191500Z 01007KT 9999 FEW008 17/16 Q1017 RMK A3004,0,7,0,10000,0,0,0,
2026-03-19 14:00:00,METAR RCMQ 191400Z 35008KT 9999 FEW008 17/16 Q1017 RMK A3004,0,8,0,10000,0,0,0,
2026-03-19 13:30:00,METAR RCMQ 191330Z 01008KT 9999 FEW008 17/16 Q1017 NOSIG RMK A3003,0,8,0,10000,0,0,0,
2026-03-19 13:00:00,METAR RCMQ 191300Z 01009KT 9999 FEW008 17/16 Q1016 NOSIG RMK A3002,0,9,0,10000,0,0,0,
2026-03-19 12:30:00,METAR RCMQ 191230Z 01010KT 9999 SCT008 18/16 Q1016 NOSIG RMK A3002,0,10,0,10000,0,0,0,
2026-03-19 12:00:00,METAR RCMQ 191200Z 35013KT 9999 SCT008 18/16 Q1016 NOSIG RMK A3001,0,13,0,10000,0,0,0,
2026-03-19 11:30:00,METAR RCMQ 191130Z 35010KT 9999 SCT008 18/16 Q1016 NOSIG RMK A3000,0,10,0,10000,0,0,0,
2026-03-19 11:00:00,METAR RCMQ 191100Z 35010KT 9999 FEW010 18/16 Q1015 NOSIG RMK A2999,0,10,0,10000,0,0,0,
2026-03-19 10:30:00,METAR RCMQ 191030Z 35011KT 9999 FEW010 19/16 Q1015 NOSIG RMK A2998,0,11,0,10000,0,0,0,
2026-03-19 10:00:00,METAR RCMQ 191000Z 35008KT 9999 FEW010 20/16 Q1014 NOSIG RMK A2997,0,8,0,10000,0,0,0,
2026-03-19 09:30:00,METAR RCMQ 190930Z 35010KT 9999 FEW010 21/16 Q1014 NOSIG RMK A2996,0,10,0,10000,0,0,0,
2026-03-19 09:00:00,METAR RCMQ 190900Z 01007KT 9999 FEW010 22/17 Q1014 NOSIG RMK A2994,0,7,0,10000,0,0,0,
2026-03-19 08:30:00,METAR RCMQ 190830Z 01010KT 9999 FEW010 23/17 Q1014 NOSIG RMK A2994,0,10,0,10000,0,0,0,
2026-03-19 08:00:00,METAR RCMQ 190800Z 36012KT 9999 FEW010 23/17 Q1014 NOSIG RMK A2995,0,12,0,10000,0,0,0,
2026-03-19 07:30:00,METAR RCMQ 190730Z 35014KT 9999 FEW010 24/17 Q1014 NOSIG RMK A2995,0,14,0,10000,0,0,0,
2026-03-19 07:00:00,METAR RCMQ 190700Z 36013KT 9000 FEW010 24/17 Q1014 NOSIG RMK A2996,0,13,0,9000,0,0,0,
2026-03-19 06:30:00,METAR RCMQ 190630Z 36013KT 9000 FEW010 25/17 Q1014 NOSIG RMK A2996,0,13,0,9000,0,0,0,
2026-03-19 06:00:00,METAR RCMQ 190600Z 36014KT 9000 FEW010 25/18 Q1015 NOSIG RMK A2997,0,14,0,9000,0,0,0,
2026-03-19 05:30:00,METAR RCMQ 190530Z 35014KT 9000 FEW010 25/18 Q1015 NOSIG RMK A2998,0,14,0,9000,0,0,0,
2026-03-19 05:00:00,METAR RCMQ 190500Z 01013KT 9000 FEW010 25/18 Q1015 NOSIG RMK A2998,0,13,0,9000,0,0,0,
2026-03-19 04:30:00,METAR RCMQ 190430Z 36016KT 9000 FEW010 24/18 Q1016 NOSIG RMK A3000,0,16,0,9000,0,0,0,
2026-03-19 04:00:00,METAR RCMQ 190400Z 34016KT 8000 FEW010 25/18 Q1016 NOSIG RMK A3001,0,16,0,8000,0,0,0,
2026-03-19 03:30:00,METAR RCMQ 190330Z 35009KT 8000 FEW010 26/19 Q1016 NOSIG RMK A3001,0,9,0,8000,0,0,0,
2026-03-19 03:00:00,METAR RCMQ 190300Z 34011KT 8000 FEW010 26/19 Q1016 NOSIG RMK A3003,0,11,0,8000,0,0,0,
2026-03-19 02:30:00,METAR RCMQ 190230Z 35009KT 8000 FEW010 SCT080 26/19 Q1017 NOSIG RMK A3003,0,9,0,8000,0,0,0,
2026-03-19 02:00:00,METAR RCMQ 190200Z 33009KT 8000 FEW010 SCT020 24/19 Q1017 NOSIG RMK A3004,0,9,0,8000,0,0,0,
2026-03-19 01:30:00,METAR RCMQ 190130Z 01004KT 7000 FEW010 SCT080 25/19 Q1017 NOSIG RMK A3004,0,4,0,7000,0,0,0,
2026-03-19 01:00:00,METAR RCMQ 190100Z 01005KT 7000 FEW010 SCT080 23/19 Q1017 NOSIG RMK A3005,0,5,0,7000,0,0,0,
2026-03-19 00:30:00,METAR RCMQ 190030Z 36006KT 7000 FEW010 SCT080 23/19 Q1017 NOSIG RMK A3004,0,6,0,7000,0,0,0,
2026-03-19 00:00:00,METAR RCMQ 190000Z 36006KT 7000 FEW010 SCT080 22/19 Q1017 NOSIG RMK A3004,0,6,0,7000,0,0,0,
2026-03-18 23:30:00,METAR RCMQ 182330Z 36008KT 8000 FEW006 SCT016 BKN050 21/18 Q1017 NOSIG RMK A3003,0,8,0,8000,0,0,0,
2026-03-18 23:00:00,METAR RCMQ 182300Z 36005KT 8000 FEW006 SCT016 BKN040 19/18 Q1016 NOSIG RMK A3002,0,5,0,8000,0,0,0,
2026-03-18 22:30:00,METAR RCMQ 182230Z 01007KT 8000 FEW006 SCT016 18/17 Q1016 NOSIG RMK A3001,0,7,0,8000,0,0,0,
2026-03-18 22:00:00,METAR RCMQ 182200Z 06003KT 8000 FEW006 SCT016 17/15 Q1015 NOSIG RMK A2999,0,3,0,8000,0,0,0,
2026-03-18 21:30:00,METAR RCMQ 182130Z 02001KT 8000 FEW012 17/15 Q1015 NOSIG RMK A2999,0,1,0,8000,0,0,0,
2026-03-18 21:00:00,METAR RCMQ 182100Z 02002KT 8000 FEW012 18/16 Q1015 NOSIG RMK A2998,0,2,0,8000,0,0,0,
2026-03-18 20:30:00,METAR RCMQ 182030Z 00000KT 8000 FEW012 18/16 Q1015 RMK A2998,0,0,0,8000,0,0,0,
2026-03-18 20:00:00,METAR RCMQ 182000Z 15003KT 8000 FEW012 18/16 Q1015 RMK A2998,0,3,0,8000,0,0,0,
2026-03-18 19:00:00,METAR RCMQ 181900Z 17002KT 9000 FEW012 18/16 Q1015 RMK A2999,0,2,0,9000,0,0,0,
2026-03-18 18:00:00,METAR RCMQ 181800Z 19004KT 9000 FEW012 19/17 Q1015 RMK A2999,0,4,0,9000,0,0,0,
2026-03-18 17:00:00,METAR RCMQ 181700Z 14003KT 9999 FEW012 20/17 Q1016 RMK A3000,0,3,0,10000,0,0,0,
2026-03-18 16:00:00,METAR RCMQ 181600Z 16005KT 9999 FEW012 21/17 Q1016 RMK A3001,0,5,0,10000,0,0,0,
2026-03-18 15:00:00,METAR RCMQ 181500Z 17006KT 9999 FEW012 21/18 Q1016 RMK A3002,0,6,0,10000,0,0,0,
2026-03-18 14:00:00,METAR RCMQ 181400Z 18006KT 9999 FEW012 21/17 Q1016 RMK A3003,0,6,0,10000,0,0,0,
2026-03-18 13:30:00,METAR RCMQ 181330Z 20005KT 9999 FEW012 21/17 Q1017 RMK A3003,0,5,0,10000,0,0,0,
2026-03-18 13:00:00,METAR RCMQ 181300Z 20005KT 9999 FEW012 22/18 Q1016 NOSIG RMK A3003,0,5,0,10000,0,0,0,
2026-03-18 12:30:00,METAR RCMQ 181230Z 22005KT 9999 FEW012 SCT060 22/17 Q1016 NOSIG RMK A3002,0,5,0,10000,0,0,0,
2026-03-18 12:00:00,METAR RCMQ 181200Z 24004KT 9999 FEW012 BKN060 22/17 Q1016 NOSIG RMK A3001,0,4,0,10000,0,0,0,
2026-03-18 11:30:00,METAR RCMQ 181130Z 21004KT 9999 FEW012 BKN060 22/18 Q1016 NOSIG RMK A3001,0,4,0,10000,0,0,0,
2026-03-18 11:00:00,METAR RCMQ 181100Z 16005KT 9999 FEW012 BKN060 23/18 Q1015 NOSIG RMK A3000,0,5,0,10000,0,0,0,
2026-03-18 10:30:00,METAR RCMQ 181030Z 21005KT 9999 FEW012 SCT060 23/17 Q1015 NOSIG RMK A2999,0,5,0,10000,0,0,0,
2026-03-18 10:00:00,METAR RCMQ 181000Z 26006KT 9999 FEW012 SCT060 23/17 Q1015 NOSIG RMK A2998,0,6,0,10000,0,0,0,
2026-03-18 09:30:00,METAR RCMQ 180930Z 25008KT 9999 FEW012 24/17 Q1015 NOSIG RMK A2997,0,8,0,10000,0,0,0,
2026-03-18 09:00:00,METAR RCMQ 180900Z 25012KT 9999 FEW012 25/16 Q1014 NOSIG RMK A2996,0,12,0,10000,0,0,0,
2026-03-18 08:30:00,METAR RCMQ 180830Z 26012KT 9999 FEW012 26/15 Q1014 NOSIG RMK A2996,0,12,0,10000,0,0,0,
2026-03-18 08:00:00,METAR RCMQ 180800Z 26012KT 9999 FEW012 27/15 Q1014 NOSIG RMK A2995,0,12,0,10000,0,0,0,
2026-03-18 07:30:00,METAR RCMQ 180730Z 27012KT 9999 FEW012 28/15 Q1014 NOSIG RMK A2995,0,12,0,10000,0,0,0,
2026-03-18 07:00:00,METAR RCMQ 180700Z 26011KT 9999 FEW012 28/15 Q1014 NOSIG RMK A2995,0,11,0,10000,0,0,0,
2026-03-18 06:30:00,METAR RCMQ 180630Z 26013KT 9999 FEW012 28/14 Q1014 NOSIG RMK A2996,0,13,0,10000,0,0,0,
2026-03-18 06:00:00,METAR RCMQ 180600Z 26012KT 9999 FEW012 29/14 Q1015 NOSIG RMK A2997,0,12,0,10000,0,0,0,
2026-03-18 05:30:00,METAR RCMQ 180530Z 26010KT 9999 FEW012 29/15 Q1015 NOSIG RMK A2998,0,10,0,10000,0,0,0,
2026-03-18 05:00:00,METAR RCMQ 180500Z 25011KT 9999 FEW012 29/14 Q1016 NOSIG RMK A3000,0,11,0,10000,0,0,0,
2026-03-18 04:30:00,METAR RCMQ 180430Z 25010KT 9999 FEW012 29/14 Q1016 NOSIG RMK A3002,0,10,0,10000,0,0,0,
2026-03-18 04:00:00,METAR RCMQ 180400Z 26008KT 9999 FEW012 29/14 Q1017 NOSIG RMK A3003,0,8,0,10000,0,0,0,
2026-03-18 03:30:00,METAR RCMQ 180330Z 26008KT 9999 FEW012 28/13 Q1017 NOSIG RMK A3004,0,8,0,10000,0,0,0,
2026-03-18 03:00:00,METAR RCMQ 180300Z 26008KT 9999 FEW012 28/13 Q1017 NOSIG RMK A3005,0,8,0,10000,0,0,0,
2026-03-18 02:30:00,METAR RCMQ 180230Z 23007KT 9999 FEW012 28/13 Q1018 NOSIG RMK A3006,0,7,0,10000,0,0,0,
2026-03-18 02:00:00,METAR RCMQ 180200Z 18004KT 9999 FEW012 28/14 Q1018 NOSIG RMK A3007,0,4,0,10000,0,0,0,
2026-03-18 01:30:00,METAR RCMQ 180130Z 16006KT 9999 FEW012 27/14 Q1018 NOSIG RMK A3007,0,6,0,10000,0,0,0,
2026-03-18 01:00:00,METAR RCMQ 180100Z 15006KT 9999 FEW012 25/13 Q1018 NOSIG RMK A3007,0,6,0,10000,0,0,0,
2026-03-18 00:30:00,METAR RCMQ 180030Z 18004KT 9999 FEW012 24/15 Q1018 NOSIG RMK A3007,0,4,0,10000,0,0,0,
2026-03-17 23:30:00,METAR RCMQ 172330Z 00000KT 9999 FEW012 20/14 Q1017 NOSIG RMK A3005,0,0,0,10000,0,0,0,
2026-03-17 23:00:00,METAR RCMQ 172300Z 14004KT 9999 FEW012 18/13 Q1017 NOSIG RMK A3004,0,4,0,10000,0,0,0,
2026-03-17 22:30:00,METAR RCMQ 172230Z 14004KT 9999 FEW012 16/11 Q1016 NOSIG RMK A3003,0,4,0,10000,0,0,0,
2026-03-17 22:00:00,METAR RCMQ 172200Z 12004KT 9999 FEW012 15/11 Q1016 NOSIG RMK A3002,0,4,0,10000,0,0,0,
2026-03-17 21:30:00,METAR RCMQ 172130Z 14003KT 9999 FEW012 15/12 Q1016 NOSIG RMK A3002,0,3,0,10000,0,0,0,
2026-03-17 21:00:00,METAR RCMQ 172100Z 14003KT 9999 FEW012 15/11 Q1016 NOSIG RMK A3002,0,3,0,10000,0,0,0,
2026-03-17 20:30:00,METAR RCMQ 172030Z 00000KT 9999 FEW012 15/11 Q1016 RMK A3002,0,0,0,10000,0,0,0,
2026-03-17 20:00:00,METAR RCMQ 172000Z 12001KT 9999 FEW012 16/12 Q1016 RMK A3003,0,1,0,10000,0,0,0,
2026-03-17 19:00:00,METAR RCMQ 171900Z 10003KT 9999 FEW012 16/12 Q1017 RMK A3003,0,3,0,10000,0,0,0,
2026-03-17 18:00:00,METAR RCMQ 171800Z 14002KT 9999 FEW012 16/12 Q1017 RMK A3005,0,2,0,10000,0,0,0,
2026-03-17 17:00:00,METAR RCMQ 171700Z 15001KT 9999 FEW012 16/12 Q1018 RMK A3006,0,1,0,10000,0,0,0,
2026-03-17 16:00:00,METAR RCMQ 171600Z 00000KT 9999 FEW012 16/12 Q1018 RMK A3007,0,0,0,10000,0,0,0,
2026-03-17 15:00:00,METAR RCMQ 171500Z 06004KT 9999 FEW012 17/12 Q1018 RMK A3008,0,4,0,10000,0,0,0,
2026-03-17 14:00:00,METAR RCMQ 171400Z 00000KT 9999 FEW012 17/13 Q1018 RMK A3007,0,0,0,10000,0,0,0,
2026-03-17 13:30:00,METAR RCMQ 171330Z 00000KT 9999 FEW012 17/14 Q1018 RMK A3007,0,0,0,10000,0,0,0,
2026-03-17 13:00:00,METAR RCMQ 171300Z 05004KT 9999 FEW012 18/14 Q1018 NOSIG RMK A3006,0,4,0,10000,0,0,0,
2026-03-17 12:30:00,METAR RCMQ 171230Z 02004KT 9999 FEW012 18/14 Q1018 NOSIG RMK A3006,0,4,0,10000,0,0,0,
2026-03-17 12:00:00,METAR RCMQ 171200Z 01004KT 9999 FEW012 18/13 Q1017 NOSIG RMK A3006,0,4,0,10000,0,0,0,
2026-03-17 11:30:00,METAR RCMQ 171130Z 33003KT 9999 FEW012 18/13 Q1017 NOSIG RMK A3005,0,3,0,10000,0,0,0,
2026-03-17 11:00:00,METAR RCMQ 171100Z 33004KT 9999 FEW012 18/13 Q1017 NOSIG RMK A3004,0,4,0,10000,0,0,0,
2026-03-17 10:30:00,METAR RCMQ 171030Z 00000KT 9999 FEW012 20/13 Q1017 NOSIG RMK A3003,0,0,0,10000,0,0,0,
2026-03-17 10:00:00,METAR RCMQ 171000Z 04005KT 9999 FEW012 21/13 Q1016 NOSIG RMK A3003,0,5,0,10000,0,0,0,
2026-03-17 09:30:00,METAR RCMQ 170930Z 35007KT 9999 FEW012 22/14 Q1017 NOSIG RMK A3003,0,7,0,10000,0,0,0,
2026-03-17 09:00:00,METAR RCMQ 170900Z 33006KT 9999 FEW012 23/15 Q1017 NOSIG RMK A3003,0,6,0,10000,0,0,0,
2026-03-17 08:30:00,METAR RCMQ 170830Z 33008KT 9999 FEW012 24/14 Q1016 NOSIG RMK A3002,0,8,0,10000,0,0,0,
2026-03-17 08:00:00,METAR RCMQ 170800Z 34007KT 9999 FEW012 25/14 Q1016 NOSIG RMK A3001,0,7,0,10000,0,0,0,
2026-03-17 07:30:00,METAR RCMQ 170730Z 32007KT 9999 FEW012 25/14 Q1016 NOSIG RMK A3001,0,7,0,10000,0,0,0,
2026-03-17 07:00:00,METAR RCMQ 170700Z 32007KT 9999 FEW012 25/14 Q1016 NOSIG RMK A3002,0,7,0,10000,0,0,0,
2026-03-17 06:30:00,METAR RCMQ 170630Z 31006KT 9999 FEW012 26/14 Q1016 NOSIG RMK A3002,0,6,0,10000,0,0,0,
2026-03-17 06:00:00,METAR RCMQ 170600Z 30007KT 9999 FEW012 25/14 Q1017 NOSIG RMK A3004,0,7,0,10000,0,0,0,
2026-03-17 05:30:00,METAR RCMQ 170530Z 30007KT 9999 FEW012 25/14 Q1017 NOSIG RMK A3005,0,7,0,10000,0,0,0,
2026-03-17 05:00:00,METAR RCMQ 170500Z 30008KT 9999 FEW012 26/14 Q1018 NOSIG RMK A3006,0,8,0,10000,0,0,0,
2026-03-17 04:30:00,METAR RCMQ 170430Z 29008KT 9999 FEW012 26/15 Q1018 NOSIG RMK A3007,0,8,0,10000,0,0,0,
2026-03-17 04:00:00,METAR RCMQ 170400Z 30007KT 9999 FEW012 25/16 Q1018 NOSIG RMK A3008,0,7,0,10000,0,0,0,
2026-03-17 03:30:00,METAR RCMQ 170330Z 31005KT 9999 FEW012 SCT025 25/17 Q1019 NOSIG RMK A3009,0,5,0,10000,0,0,0,
2026-03-17 03:00:00,METAR RCMQ 170300Z 30005KT 9999 FEW012 SCT025 24/18 Q1019 NOSIG RMK A3011,0,5,0,10000,0,0,0,
2026-03-17 02:30:00,METAR RCMQ 170230Z 32004KT 9999 FEW012 24/18 Q1019 NOSIG RMK A3011,0,4,0,10000,0,0,0,
2026-03-17 02:00:00,METAR RCMQ 170200Z 35003KT 9999 FEW012 23/18 Q1019 NOSIG RMK A3011,0,3,0,10000,0,0,0,
2026-03-17 01:30:00,METAR RCMQ 170130Z 35002KT 9000 FEW008 SCT050 21/18 Q1019 NOSIG RMK A3011,0,2,0,9000,0,0,0,
2026-03-17 01:00:00,METAR RCMQ 170100Z 01003KT 8000 FEW008 SCT050 20/17 Q1020 NOSIG RMK A3012,0,3,0,8000,0,0,0,
2026-03-17 00:30:00,METAR RCMQ 170030Z 01003KT 6000 SCT008 BKN050 19/17 Q1019 NOSIG RMK A3011 APCH CLD SCT008,0,3,0,6000,0,0,0,
2026-03-17 00:25:00,SPECI RCMQ 170025Z 35004KT 6000 SCT008 BKN050 19/17 Q1019 NOSIG RMK A3011 APCH CLD SCT008,0,4,0,6000,0,0,0,
2026-03-17 00:00:00,METAR RCMQ 170000Z COR 35005KT 4000 BR SCT004 BKN040 17/16 Q1019 BECMG 5000 BR RMK A3011 APCH CLD SCT004,0,5,0,4000,0,0,1,BR
2026-03-16 23:33:00,SPECI RCMQ 162333Z 34005KT 4000 BR SCT004 BKN040 17/17 Q1019 NOSIG RMK A3011 APCH CLD SCT004,0,5,0,4000,0,0,1,BR
2026-03-16 23:30:00,METAR RCMQ 162330Z 34005KT 4000 BR BKN004 BKN040 17/17 Q1019 BECMG BKN015 RMK A3011,0,5,0,4000,0,0,1,BR
2026-03-16 23:20:00,SPECI RCMQ 162320Z 34005KT 4000 BR BKN004 BKN040 17/16 Q1019 BECMG BKN015 RMK A3011,0,5,0,4000,0,0,1,BR
2026-03-16 23:05:00,SPECI RCMQ 162305Z 33003KT 3200 BR BKN002 BKN040 17/16 Q1019 BECMG TL2330 BKN002 RMK A3010,0,3,0,3200,0,0,1,BR
2026-03-16 23:00:00,METAR RCMQ 162300Z 33003KT 2400 BR BKN002 BKN020 17/16 Q1019 BECMG TL2330 BKN002 RMK A3010,0,3,0,2400,0,0,1,BR
2026-03-16 22:50:00,SPECI RCMQ 162250Z 32004KT 2400 BR BKN002 BKN020 16/15 Q1019 BECMG TL2330 BKN002 RMK A3009,0,4,0,2400,0,0,1,BR
2026-03-16 22:41:00,SPECI RCMQ 162241Z 32004KT 1600 BR BKN002 BKN020 16/15 Q1019 BECMG TL2330 1200 BR BKN002 RMK A3009,0,4,0,1600,0,0,1,BR
2026-03-16 22:35:00,SPECI RCMQ 162235Z 32004KT 1200 R36/1600U BR BKN002 BKN010 16/15 Q1018 BECMG TL2300 1200 BR BKN002 RMK A3009,0,4,0,1200,0,0,1,BR
2026-03-16 22:30:00,METAR RCMQ 162230Z 32004KT 0800 R36/1200U FG BKN002 BKN006 16/15 Q1018 BECMG TL2300 1200 BR BKN002 RMK A3009,0,4,0,1287200,0,0,1,"BR,FG"
2026-03-16 22:17:00,SPECI RCMQ 162217Z 33004KT 0800 R36/0900D FG BKN002 BKN006 15/15 Q1018 BECMG TL2300 1200 BR BKN002 RMK A3008,0,4,0,1287200,0,0,1,"BR,FG"
2026-03-16 22:10:00,SPECI RCMQ 162210Z 33004KT 1200 R36/1300 BR BKN002 BKN006 15/15 Q1018 BECMG TL2300 1200 BR BKN002 RMK A3008,0,4,0,1200,0,0,1,BR
2026-03-16 22:00:00,METAR RCMQ 162200Z 33004KT 1600 BR SCT002 BKN006 15/15 Q1018 BECMG FM2210 TL2300 1200 BR BKN002 RMK A3008,0,4,0,1600,0,0,1,BR
2026-03-16 21:55:00,SPECI RCMQ 162155Z 34004KT 1600 BR SCT002 BKN006 15/14 Q1018 BECMG FM2210 TL2300 1200 BR BKN002 RMK A3007,0,4,0,1600,0,0,1,BR
2026-03-16 21:45:00,SPECI RCMQ 162145Z 35003KT 3200 1600N BR SCT002 BKN008 14/13 Q1018 BECMG FM2210 TL2300 1200 BR BKN002 RMK A3007,0,3,0,3200,0,0,1,BR
2026-03-16 21:35:00,SPECI RCMQ 162135Z 35003KT 4800 2400N BR SCT002 SCT008 14/13 Q1018 BECMG FM2210 TL2300 1200 BR BKN002 RMK A3007,0,3,0,4800,0,0,1,BR
2026-03-16 21:30:00,METAR RCMQ 162130Z 35003KT 6000 3000N SCT002 SCT008 14/13 Q1018 BECMG FM2210 TL2300 1200 BR BKN002 RMK A3007,0,3,0,6000,0,0,1,BR
2026-03-16 21:00:00,METAR RCMQ 162100Z 33004KT 9000 FEW008 14/14 Q1018 NOSIG RMK A3007,0,4,0,9000,0,0,0,
2026-03-16 20:30:00,METAR RCMQ 162030Z 32004KT 7000 FEW008 14/13 Q1018 RMK A3007,0,4,0,7000,0,0,0,
2026-03-16 20:00:00,METAR RCMQ 162000Z 35003KT 6000 FEW008 14/13 Q1018 RMK A3006,0,3,0,6000,0,0,0,
2026-03-16 19:10:00,SPECI RCMQ 161910Z 00000KT 5000 BR FEW008 15/14 Q1018 RMK A3007,0,0,0,5000,0,0,1,BR
2026-03-16 19:00:00,METAR RCMQ 161900Z 08001KT 4000 BR FEW008 SCT016 15/14 Q1018 RMK A3008,0,1,0,4000,0,0,1,BR
2026-03-16 18:31:00,SPECI RCMQ 161831Z 08003KT 3200 1600S BR FEW008 SCT016 15/14 Q1018 RMK A3008,0,3,0,3200,0,0,1,BR
2026-03-16 18:07:00,SPECI RCMQ 161807Z 34004KT 5000 BR FEW008 SCT016 15/14 Q1019 RMK A3009,0,4,0,5000,0,0,1,BR
2026-03-16 18:00:00,METAR RCMQ 161800Z 34004KT 6000 FEW008 SCT016 15/14 Q1019 RMK A3009,0,4,0,6000,0,0,0,
2026-03-16 17:00:00,METAR RCMQ 161700Z 02004KT 6000 FEW012 14/13 Q1019 RMK A3011,0,4,0,6000,0,0,0,
2026-03-16 16:00:00,METAR RCMQ 161600Z 03003KT 6000 FEW012 BKN060 16/15 Q1019 RMK A3011,0,3,0,6000,0,0,0,
2026-03-16 15:00:00,METAR RCMQ 161500Z 00000KT 7000 FEW012 BKN060 16/15 Q1019 RMK A3011,0,0,0,7000,0,0,0,
2026-03-16 14:00:00,METAR RCMQ 161400Z 35004KT 8000 FEW012 BKN060 16/15 Q1019 RMK A3011,0,4,0,8000,0,0,0,
2026-03-16 13:30:00,METAR RCMQ 161330Z 34003KT 9000 FEW012 SCT060 16/15 Q1019 RMK A3011,0,3,0,9000,0,0,0,
2026-03-16 13:00:00,METAR RCMQ 161300Z 36004KT 9999 FEW012 SCT060 15/14 Q1019 NOSIG RMK A3010,0,4,0,10000,0,0,0,
2026-03-16 12:30:00,METAR RCMQ 161230Z 33004KT 9999 FEW012 SCT060 16/15 Q1019 NOSIG RMK A3010,0,4,0,10000,0,0,0,
2026-03-16 12:00:00,METAR RCMQ 161200Z 33004KT 9999 FEW012 SCT060 17/15 Q1019 NOSIG RMK A3009,0,4,0,10000,0,0,0,
2026-03-16 11:30:00,METAR RCMQ 161130Z 34004KT 9999 FEW012 SCT060 17/15 Q1018 NOSIG RMK A3008,0,4,0,10000,0,0,0,
2026-03-16 11:00:00,METAR RCMQ 161100Z 36005KT 9999 FEW012 BKN060 17/15 Q1018 NOSIG RMK A3008,0,5,0,10000,0,0,0,
2026-03-16 10:30:00,METAR RCMQ 161030Z 35006KT 9999 FEW012 BKN060 18/16 Q1018 NOSIG RMK A3008,0,6,0,10000,0,0,0,
2026-03-16 10:00:00,METAR RCMQ 161000Z 36007KT 9999 FEW012 BKN060 18/15 Q1018 NOSIG RMK A3007,0,7,0,10000,0,0,0,
2026-03-16 09:30:00,METAR RCMQ 160930Z 35009KT 9999 FEW012 BKN060 19/15 Q1018 NOSIG RMK A3006,0,9,0,10000,0,0,0,
2026-03-16 09:00:00,METAR RCMQ 160900Z 35010KT 9999 FEW012 BKN060 20/15 Q1017 NOSIG RMK A3006,0,10,0,10000,0,0,0,
2026-03-16 08:30:00,METAR RCMQ 160830Z 35011KT 9999 FEW012 SCT060 21/16 Q1017 NOSIG RMK A3005,0,11,0,10000,0,0,0,
2026-03-16 08:00:00,METAR RCMQ 160800Z 34010KT 9999 FEW012 SCT060 23/16 Q1017 NOSIG RMK A3004,0,10,0,10000,0,0,0,
2026-03-16 07:30:00,METAR RCMQ 160730Z 34010KT 9999 FEW012 SCT060 23/16 Q1017 NOSIG RMK A3004,0,10,0,10000,0,0,0,
2026-03-16 07:00:00,METAR RCMQ 160700Z 33010KT 9999 FEW012 SCT060 25/15 Q1017 NOSIG RMK A3005,0,10,0,10000,0,0,0,
2026-03-16 06:30:00,METAR RCMQ 160630Z 31008KT 9999 FEW012 SCT050 25/15 Q1018 NOSIG RMK A3006,0,8,0,10000,0,0,0,
2026-03-16 06:00:00,METAR RCMQ 160600Z 32008KT 9999 FEW012 SCT050 26/14 Q1018 NOSIG RMK A3007,0,8,0,10000,0,0,0,
2026-03-16 05:30:00,METAR RCMQ 160530Z 31008KT 9999 FEW012 SCT050 BKN080 26/15 Q1018 NOSIG RMK A3008,0,8,0,10000,0,0,0,
2026-03-16 05:00:00,METAR RCMQ 160500Z 33006KT 9999 FEW012 SCT050 BKN080 26/14 Q1019 NOSIG RMK A3009,0,6,0,10000,0,0,0,
2026-03-16 04:30:00,METAR RCMQ 160430Z 31005KT 9999 FEW012 SCT050 BKN080 25/14 Q1019 NOSIG RMK A3011,0,5,0,10000,0,0,0,
2026-03-16 04:00:00,METAR RCMQ 160400Z 34007KT 9999 FEW012 SCT050 BKN080 25/16 Q1020 NOSIG RMK A3012,0,7,0,10000,0,0,0,
2026-03-16 03:30:00,METAR RCMQ 160330Z 31007KT 9999 FEW012 SCT050 BKN080 23/14 Q1020 NOSIG RMK A3013,0,7,0,10000,0,0,0,
2026-03-16 03:00:00,METAR RCMQ 160300Z 33005KT 9999 FEW012 SCT050 BKN080 24/15 Q1020 NOSIG RMK A3014,0,5,0,10000,0,0,0,
2026-03-16 02:30:00,METAR RCMQ 160230Z 32004KT 9999 FEW012 SCT080 24/14 Q1021 NOSIG RMK A3015,0,4,0,10000,0,0,0,
2026-03-16 02:00:00,METAR RCMQ 160200Z 01002KT 9999 FEW012 SCT080 25/15 Q1021 NOSIG RMK A3015,0,2,0,10000,0,0,0,
2026-03-16 01:30:00,METAR RCMQ 160130Z 06002KT 9999 FEW012 SCT080 23/16 Q1021 NOSIG RMK A3016,0,2,0,10000,0,0,0,
2026-03-16 01:00:00,METAR RCMQ 160100Z 03003KT 9999 FEW012 SCT080 22/16 Q1021 NOSIG RMK A3016,0,3,0,10000,0,0,0,
2026-03-16 00:30:00,METAR RCMQ 160030Z 01003KT 9999 FEW010 SCT060 21/16 Q1021 NOSIG RMK A3016,0,3,0,10000,0,0,0,
2026-03-16 00:00:00,METAR RCMQ 160000Z 06002KT 8000 FEW010 SCT080 19/16 Q1021 NOSIG RMK A3015,0,2,0,8000,0,0,0,
2026-03-15 23:30:00,METAR RCMQ 152330Z 02003KT 6000 FEW006 SCT080 16/15 Q1020 NOSIG RMK A3014,0,3,0,6000,0,0,0,
2026-03-15 23:05:00,SPECI RCMQ 152305Z 00000KT 4000 1600SW BR SCT001 SCT050 15/14 Q1020 BECMG 5000 BR RMK A3014,0,0,0,4000,0,0,1,BR
2026-03-15 23:00:00,METAR RCMQ 152300Z 00000KT 2400 BR SCT001 SCT050 15/14 Q1020 BECMG 3000 BR RMK A3014,0,0,0,2400,0,0,1,BR
2026-03-15 22:55:00,SPECI RCMQ 152255Z 00000KT 2400 BR SCT001 SCT050 15/14 Q1020 BECMG 3000 BR RMK A3014,0,0,0,2400,0,0,1,BR
2026-03-15 22:47:00,SPECI RCMQ 152247Z 00000KT 1200 R36/1400U BR SCT001 SCT050 15/14 Q1020 TL0000 0200 FG BKN002 RMK A3014,0,0,0,1200,0,0,1,"BR,FG"
2026-03-15 22:30:00,METAR RCMQ 152230Z 00000KT 0800 R36/0900N FG SCT001 BKN010 15/14 Q1020 TL0000 0200 FG BKN002 RMK A3013,0,0,0,800,0,0,1,FG
2026-03-15 22:15:00,SPECI RCMQ 152215Z 00000KT 0800 R36/0900D FG SCT001 BKN010 16/15 Q1020 TL0000 0200 FG BKN002 RMK A3012,0,0,0,800,0,0,1,FG
2026-03-15 22:10:00,SPECI RCMQ 152210Z 00000KT 1200 R36/1000 BR SCT001 BKN010 16/15 Q1020 BECMG TL0000 0200 FG BKN002 RMK A3012,0,0,0,1200,0,0,1,"BR,FG"
2026-03-15 22:05:00,SPECI RCMQ 152205Z 00000KT 2400 1200SW BR SCT001 BKN010 16/15 Q1020 FM2210 TL0000 0200 FG BKN002 RMK A3012,0,0,0,2400,0,0,1,"BR,FG"
2026-03-15 22:00:00,METAR RCMQ 152200Z COR 00000KT 1200 R36/1000 BR SCT001 BKN010 16/15 Q1020 TL0000 0200 FG BKN002 RMK A3012,0,0,0,1200,0,0,1,"BR,FG"
2026-03-15 21:55:00,SPECI RCMQ 152155Z 00000KT 8000 SCT006 BKN010 15/14 Q1020 FM2210 TL0000 0200 FG BKN002 RMK A3012,0,0,0,8000,0,0,1,FG
2026-03-15 21:30:00,METAR RCMQ 152130Z 00000KT 9999 FEW012 15/14 Q1019 NOSIG RMK A3011,0,0,0,10000,0,0,0,
2026-03-15 21:00:00,METAR RCMQ 152100Z 36004KT 9999 FEW012 13/12 Q1019 NOSIG RMK A3010,0,4,0,10000,0,0,0,
2026-03-15 20:30:00,METAR RCMQ 152030Z 00000KT 9999 FEW012 14/12 Q1019 RMK A3010,0,0,0,10000,0,0,0,
2026-03-15 20:00:00,METAR RCMQ 152000Z 18004KT 9999 FEW012 SCT040 16/14 Q1020 RMK A3012,0,4,0,10000,0,0,0,
2026-03-15 19:00:00,METAR RCMQ 151900Z 18004KT 9999 FEW012 SCT040 16/14 Q1020 RMK A3012,0,4,0,10000,0,0,0,
2026-03-15 18:00:00,METAR RCMQ 151800Z 25004KT 9999 FEW012 SCT040 16/14 Q1021 RMK A3016,0,4,0,10000,0,0,0,
2026-03-15 17:00:00,METAR RCMQ 151700Z 25004KT 9999 FEW012 SCT040 16/14 Q1021 RMK A3016,0,4,0,10000,0,0,0,
2026-03-15 16:00:00,METAR RCMQ 151600Z 20002KT 9999 FEW012 SCT040 17/15 Q1021 RMK A3016,0,2,0,10000,0,0,0,
2026-03-15 15:00:00,METAR RCMQ 151500Z 01004KT 9999 FEW012 SCT040 17/15 Q1021 RMK A3016,0,4,0,10000,0,0,0,
2026-03-15 14:00:00,METAR RCMQ 151400Z 35005KT 9999 FEW012 SCT040 17/15 Q1022 NOSIG RMK A3018,0,5,0,10000,0,0,0,
2026-03-15 13:30:00,METAR RCMQ 151330Z 01004KT 9999 FEW012 SCT040 18/16 Q1021 NOSIG RMK A3017,0,4,0,10000,0,0,0,
2026-03-15 13:00:00,METAR RCMQ 151300Z 01004KT 9999 FEW012 SCT040 18/16 Q1021 NOSIG RMK A3017,0,4,0,10000,0,0,0,
2026-03-15 12:30:00,METAR RCMQ 151230Z 36004KT 9999 FEW012 17/15 Q1021 NOSIG RMK A3016,0,4,0,10000,0,0,0,
2026-03-15 12:00:00,METAR RCMQ 151200Z 35005KT 9999 FEW012 17/14 Q1021 NOSIG RMK A3015,0,5,0,10000,0,0,0,
2026-03-15 11:30:00,METAR RCMQ 151130Z 35005KT 9999 FEW012 17/14 Q1020 NOSIG RMK A3014,0,5,0,10000,0,0,0,
2026-03-15 11:00:00,METAR RCMQ 151100Z 36005KT 9999 FEW012 17/14 Q1020 NOSIG RMK A3012,0,5,0,10000,0,0,0,
2026-03-15 10:30:00,METAR RCMQ 151030Z 35005KT 9999 FEW012 18/14 Q1020 NOSIG RMK A3012,0,5,0,10000,0,0,0,
2026-03-15 10:00:00,METAR RCMQ 151000Z 01007KT 9999 FEW012 SCT040 19/14 Q1019 NOSIG RMK A3011,0,7,0,10000,0,0,0,
2026-03-15 09:30:00,METAR RCMQ 150930Z 02009KT 9999 FEW012 SCT040 21/14 Q1020 NOSIG RMK A3012,0,9,0,10000,0,0,0,
2026-03-15 09:00:00,METAR RCMQ 150900Z 36008KT 9999 FEW012 SCT040 21/14 Q1020 NOSIG RMK A3013,0,8,0,10000,0,0,0,
2026-03-15 08:30:00,METAR RCMQ 150830Z 36007KT 9999 FEW012 SCT040 22/13 Q1020 NOSIG RMK A3013,0,7,0,10000,0,0,0,
2026-03-15 08:00:00,METAR RCMQ 150800Z 35006KT 9999 FEW012 SCT040 23/14 Q1020 NOSIG RMK A3013,0,6,0,10000,0,0,0,
