Time_recorded,METAR,is_cavok,wind_speed,is_gust,visibility_meters,has_thunderstorm,has_heavy_rain,has_low_vis_fog,other_phenomenon
2026-05-02 15:35:00,METAR KHCR 021535Z AUTO 00000KT 10SM CLR 08/M04 A3022 RMK AO2 T00801043 $,0,0,0,16090,0,0,0,
2026-05-02 15:15:00,METAR KHCR 021515Z AUTO 00000KT 10SM CLR 07/M04 A3023 RMK AO2 T00691043 $,0,0,0,16090,0,0,0,
2026-05-02 14:55:00,METAR KHCR 021455Z AUTO 00000KT 10SM CLR 06/M05 A3023 RMK AO2 T00601052 50006 $,0,0,0,16090,0,0,0,
2026-05-02 14:35:00,METAR KHCR 021435Z AUTO 00000KT 10SM CLR 05/M06 A3023 RMK AO2 T00531060 $,0,0,0,16090,0,0,0,
2026-05-02 14:15:00,METAR KHCR 021415Z AUTO 00000KT 10SM CLR 04/M04 A3023 RMK AO2 T00391039 $,0,0,0,16090,0,0,0,
2026-05-02 13:55:00,METAR KHCR 021355Z AUTO 00000KT 10SM CLR 03/M05 A3023 RMK AO2 T00331050 $,0,0,0,16090,0,0,0,
2026-05-02 13:35:00,METAR KHCR 021335Z AUTO 00000KT 10SM CLR 02/M05 A3023 RMK AO2 T00211054 $,0,0,0,16090,0,0,0,
2026-05-02 13:15:00,METAR KHCR 021315Z AUTO 00000KT 10SM CLR M01/M05 A3023 RMK AO2 T10061051 $,0,0,0,16090,0,0,0,
2026-05-02 12:55:00,METAR KHCR 021255Z AUTO 00000KT 9SM CLR M03/M06 A3022 RMK AO2 T10261064 $,0,0,0,14481,0,0,0,
2026-05-02 12:35:00,METAR KHCR 021235Z AUTO 11004KT 10SM CLR M03/M06 A3022 RMK AO2 T10301065 $,0,4,0,16090,0,0,0,
2026-05-02 12:15:00,METAR KHCR 021215Z AUTO 12003KT 10SM CLR M03/M07 A3022 RMK AO2 T10331065 $,0,3,0,16090,0,0,0,
2026-05-02 11:55:00,METAR KHCR 021155Z AUTO 00000KT 10SM CLR M03/M07 A3021 RMK AO2 T10341070 10037 21034 52003 $,0,0,0,16090,0,0,0,
2026-05-02 11:35:00,METAR KHCR 021135Z AUTO 00000KT 10SM CLR M02/M06 A3021 RMK AO2 T10171063 $,0,0,0,16090,0,0,0,
2026-05-02 11:15:00,METAR KHCR 021115Z AUTO 00000KT 10SM CLR M01/M06 A3021 RMK AO2 T10141060 $,0,0,0,16090,0,0,0,
2026-05-02 10:55:00,METAR KHCR 021055Z AUTO 00000KT 10SM CLR M02/M06 A3021 RMK AO2 T10231059 $,0,0,0,16090,0,0,0,
2026-05-02 10:35:00,METAR KHCR 021035Z AUTO 12004KT 10SM CLR M02/M06 A3021 RMK AO2 T10251057 $,0,4,0,16090,0,0,0,
2026-05-02 10:15:00,METAR KHCR 021015Z AUTO 00000KT 10SM CLR M01/M05 A3021 RMK AO2 T10071055 $,0,0,0,16090,0,0,0,
2026-05-02 09:55:00,METAR KHCR 020955Z AUTO 00000KT 9SM CLR M01/M05 A3020 RMK AO2 T10101052 $,0,0,0,14481,0,0,0,
2026-05-02 09:35:00,METAR KHCR 020935Z AUTO 00000KT 10SM CLR M01/M05 A3020 RMK AO2 T10121054 $,0,0,0,16090,0,0,0,
2026-05-02 09:15:00,METAR KHCR 020915Z AUTO 11004KT 10SM CLR M00/M05 A3020 RMK AO2 T10051052 $,0,4,0,16090,0,0,0,
2026-05-02 08:55:00,METAR KHCR 020855Z AUTO 13003KT 10SM CLR M01/M06 A3020 RMK AO2 T10091056 51007 $,0,3,0,16090,0,0,0,
2026-05-02 08:35:00,METAR KHCR 020835Z AUTO 00000KT 10SM CLR M02/M06 A3020 RMK AO2 T10181055 $,0,0,0,16090,0,0,0,
2026-05-02 08:15:00,METAR KHCR 020815Z AUTO 12003KT 10SM CLR 01/M05 A3020 RMK AO2 T00061051 $,0,3,0,16090,0,0,0,
2026-05-02 07:55:00,METAR KHCR 020755Z AUTO 00000KT 10SM CLR 01/M05 A3020 RMK AO2 T00141053 $,0,0,0,16090,0,0,0,
2026-05-02 07:35:00,METAR KHCR 020735Z AUTO 13003KT 10SM CLR 01/M05 A3020 RMK AO2 T00101046 $,0,3,0,16090,0,0,0,
2026-05-02 07:15:00,METAR KHCR 020715Z AUTO 00000KT 10SM CLR 01/M05 A3019 RMK AO2 T00151046 $,0,0,0,16090,0,0,0,
2026-05-02 06:55:00,METAR KHCR 020655Z AUTO 00000KT 10SM CLR 03/M06 A3019 RMK AO2 T00251058 401861038 $,0,0,0,16090,0,0,0,
2026-05-02 06:35:00,METAR KHCR 020635Z AUTO 12003KT 10SM CLR 02/M05 A3018 RMK AO2 T00181052 $,0,3,0,16090,0,0,0,
2026-05-02 06:15:00,METAR KHCR 020615Z AUTO 12006KT 10SM CLR 03/M05 A3018 RMK AO2 T00311054 $,0,6,0,16090,0,0,0,
2026-05-02 05:55:00,METAR KHCR 020555Z AUTO 00000KT 10SM CLR 04/M06 A3017 RMK AO2 T00401056 10182 20022 51022 $,0,0,0,16090,0,0,0,
2026-05-02 05:35:00,METAR KHCR 020535Z AUTO 11004KT 10SM CLR 02/M05 A3017 RMK AO2 T00221049 $,0,4,0,16090,0,0,0,
2026-05-02 05:15:00,METAR KHCR 020515Z AUTO 00000KT 10SM CLR 06/M04 A3016 RMK AO2 T00641040 $,0,0,0,16090,0,0,0,
2026-05-02 04:55:00,METAR KHCR 020455Z AUTO 00000KT 10SM CLR 07/M06 A3016 RMK AO2 T00681059 $,0,0,0,16090,0,0,0,
2026-05-02 04:35:00,METAR KHCR 020435Z AUTO 00000KT 10SM CLR 05/M06 A3015 RMK AO2 T00491065 $,0,0,0,16090,0,0,0,
2026-05-02 04:15:00,METAR KHCR 020415Z AUTO 11008KT 10SM CLR 05/M06 A3015 RMK AO2 T00511060 $,0,8,0,16090,0,0,0,
2026-05-02 03:55:00,METAR KHCR 020355Z AUTO 07007KT 10SM CLR 13/M10 A3013 RMK AO2 T01351097 $,0,7,0,16090,0,0,0,
2026-05-02 03:35:00,METAR KHCR 020335Z AUTO 15003KT 10SM CLR 11/M07 A3013 RMK AO2 T01071068 $,0,3,0,16090,0,0,0,
2026-05-02 03:15:00,METAR KHCR 020315Z AUTO 00000KT 10SM CLR 11/M07 A3011 RMK AO2 T01131071 $,0,0,0,16090,0,0,0,
2026-05-02 02:55:00,METAR KHCR 020255Z AUTO 20003KT 10SM CLR 10/M07 A3010 RMK AO2 T01021067 53009 $,0,3,0,16090,0,0,0,
2026-05-02 02:35:00,METAR KHCR 020235Z AUTO 00000KT 10SM CLR 14/M09 A3009 RMK AO2 T01351088 $,0,0,0,16090,0,0,0,
2026-05-02 02:15:00,METAR KHCR 020215Z AUTO 00000KT 9SM CLR 14/M08 A3009 RMK AO2 T01371081 $,0,0,0,14481,0,0,0,
2026-05-02 01:55:00,METAR KHCR 020155Z AUTO 00000KT 10SM CLR 15/M06 A3008 RMK AO2 T01481062 $,0,0,0,16090,0,0,0,
2026-05-02 01:35:00,METAR KHCR 020135Z AUTO 35007KT 340V120 10SM CLR 16/M07 A3008 RMK AO2 T01561067 $,0,7,0,16090,0,0,0,
2026-05-02 01:15:00,METAR KHCR 020115Z AUTO 34009KT 10SM CLR 16/M07 A3007 RMK AO2 T01641071 $,0,9,0,16090,0,0,0,
2026-05-02 00:55:00,METAR KHCR 020055Z AUTO 01011KT 10SM CLR 17/M09 A3007 RMK AO2 T01751095 $,0,11,0,16090,0,0,0,
2026-05-02 00:35:00,METAR KHCR 020035Z AUTO 36011KT 10SM CLR 18/M09 A3006 RMK AO2 T01771093 $,0,11,0,16090,0,0,0,
2026-05-02 00:15:00,METAR KHCR 020015Z AUTO 35009KT 330V140 10SM CLR 18/M09 A3006 RMK AO2 T01801091 $,0,9,0,16090,0,0,0,
2026-05-01 23:55:00,METAR KHCR 012355Z AUTO 35011KT 10SM CLR 18/M09 A3006 RMK AO2 T01851092 10185 20120 56013 $,0,11,0,16090,0,0,0,
2026-05-01 23:35:00,METAR KHCR 012335Z AUTO 33006KT 10SM CLR 18/M09 A3006 RMK AO2 T01831092 $,0,6,0,16090,0,0,0,
2026-05-01 23:15:00,METAR KHCR 012315Z AUTO 35009KT 10SM CLR 18/M09 A3006 RMK AO2 T01801092 $,0,9,0,16090,0,0,0,
2026-05-01 22:55:00,METAR KHCR 012255Z AUTO 32008KT 10SM CLR 18/M09 A3007 RMK AO2 T01791095 $,0,8,0,16090,0,0,0,
2026-05-01 22:35:00,METAR KHCR 012235Z AUTO 02010KT 10SM CLR 18/M10 A3007 RMK AO2 T01791095 $,0,10,0,16090,0,0,0,
2026-05-01 22:15:00,METAR KHCR 012215Z AUTO 35007KT 310V020 10SM CLR 18/M08 A3008 RMK AO2 T01771085 $,0,7,0,16090,0,0,0,
2026-05-01 21:55:00,METAR KHCR 012155Z AUTO VRB03KT 10SM CLR 17/M07 A3009 RMK AO2 T01701071 $,0,3,0,16090,0,0,0,
2026-05-01 21:35:00,METAR KHCR 012135Z AUTO 24007KT 10SM CLR 17/M07 A3010 RMK AO2 T01741067 $,0,7,0,16090,0,0,0,
2026-05-01 21:15:00,METAR KHCR 012115Z AUTO 00000KT 10SM CLR 16/M07 A3011 RMK AO2 T01631072 $,0,0,0,16090,0,0,0,
2026-05-01 20:55:00,METAR KHCR 012055Z AUTO VRB03KT 10SM CLR 16/M07 A3011 RMK AO2 T01591073 56015 $,0,3,0,16090,0,0,0,
2026-05-01 20:35:00,METAR KHCR 012035Z AUTO 31004KT 10SM CLR 16/M06 A3012 RMK AO2 T01611061 $,0,4,0,16090,0,0,0,
2026-05-01 20:15:00,METAR KHCR 012015Z AUTO VRB06KT 10SM CLR 15/M10 A3012 RMK AO2 T01521099 $,0,6,0,16090,0,0,0,
2026-05-01 19:55:00,METAR KHCR 011955Z AUTO 26005KT 10SM CLR 16/M09 A3013 RMK AO2 T01581088 $,0,5,0,16090,0,0,0,
2026-05-01 19:35:00,METAR KHCR 011935Z AUTO VRB05KT 10SM CLR 15/M10 A3013 RMK AO2 T01461097 $,0,5,0,16090,0,0,0,
2026-05-01 19:15:00,METAR KHCR 011915Z AUTO 22005KT 10SM CLR 15/M07 A3014 RMK AO2 T01471067 $,0,5,0,16090,0,0,0,
2026-05-01 18:55:00,METAR KHCR 011855Z AUTO 00000KT 10SM CLR 14/M07 A3015 RMK AO2 T01371070 $,0,0,0,16090,0,0,0,
2026-05-01 18:35:00,METAR KHCR 011835Z AUTO VRB04KT 10SM CLR 13/M07 A3015 RMK AO2 T01301074 $,0,4,0,16090,0,0,0,
2026-05-01 17:55:00,METAR KHCR 011755Z AUTO VRB05KT 8SM CLR 13/M05 A3016 RMK AO2 T01261052 10126 21038 58007 $,0,5,0,12872,0,0,0,
2026-05-01 17:35:00,METAR KHCR 011735Z AUTO 34004KT 9SM CLR 12/M06 A3017 RMK AO2 T01221063 $,0,4,0,14481,0,0,0,
2026-05-01 17:15:00,METAR KHCR 011715Z AUTO 00000KT 8SM CLR 11/M05 A3017 RMK AO2 T01141053 $,0,0,0,12872,0,0,0,
2026-05-01 16:55:00,METAR KHCR 011655Z AUTO 26003KT 7SM CLR 11/M04 A3017 RMK AO2 T01091039 $,0,3,0,11263,0,0,0,
2026-05-01 16:35:00,METAR KHCR 011635Z AUTO VRB03KT 7SM CLR 10/M04 A3017 RMK AO2 T01001044 $,0,3,0,11263,0,0,0,
2026-05-01 16:15:00,METAR KHCR 011615Z AUTO 00000KT 8SM CLR 08/M02 A3018 RMK AO2 T00841018 $,0,0,0,12872,0,0,0,
2026-05-01 15:55:00,METAR KHCR 011555Z AUTO 00000KT 9SM CLR 07/M02 A3018 RMK AO2 T00751017 $,0,0,0,14481,0,0,0,
2026-05-01 15:35:00,METAR KHCR 011535Z AUTO 00000KT 7SM CLR 06/M01 A3018 RMK AO2 T00641010 $,0,0,0,11263,0,0,0,
2026-05-01 15:15:00,METAR KHCR 011515Z AUTO 00000KT 8SM CLR 05/M01 A3019 RMK AO2 T00551010 $,0,0,0,12872,0,0,0,
2026-05-01 14:55:00,METAR KHCR 011455Z AUTO 00000KT 8SM CLR 04/M01 A3019 RMK AO2 T00391009 51013 $,0,0,0,12872,0,0,0,
2026-05-01 14:35:00,METAR KHCR 011435Z AUTO 00000KT 7SM CLR 04/M01 A3019 RMK AO2 T00371011 $,0,0,0,11263,0,0,0,
2026-05-01 14:15:00,METAR KHCR 011415Z AUTO 00000KT 6SM HZ CLR 03/M01 A3018 RMK AO2 T00301013 $,0,0,0,9654,0,0,0,
2026-05-01 13:55:00,METAR KHCR 011355Z AUTO 00000KT 8SM CLR 02/M01 A3018 RMK AO2 T00201014 $,0,0,0,12872,0,0,0,
2026-05-01 13:35:00,METAR KHCR 011335Z AUTO 00000KT 7SM CLR 01/M02 A3018 RMK AO2 T00121024 $,0,0,0,11263,0,0,0,
2026-05-01 13:15:00,METAR KHCR 011315Z AUTO 00000KT 9SM CLR M02/M04 A3017 RMK AO2 T10181039 $,0,0,0,14481,0,0,0,
2026-05-01 12:55:00,METAR KHCR 011255Z AUTO 00000KT 5SM BR CLR M03/M05 A3016 RMK AO2 T10321049 $,0,0,0,8045,0,0,1,BR
2026-05-01 12:35:00,METAR KHCR 011235Z AUTO 00000KT 8SM CLR M03/M05 A3016 RMK AO2 T10331050 $,0,0,0,12872,0,0,0,
2026-05-01 12:15:00,METAR KHCR 011215Z AUTO 00000KT 8SM CLR M03/M05 A3015 RMK AO2 T10311047 $,0,0,0,12872,0,0,0,
2026-05-01 11:55:00,METAR KHCR 011155Z AUTO 00000KT 7SM CLR M03/M05 A3014 RMK AO2 T10291046 10033 21032 52003 $,0,0,0,11263,0,0,0,
2026-05-01 11:35:00,METAR KHCR 011135Z AUTO 00000KT 6SM BR CLR M03/M05 A3015 RMK AO2 T10301051 $,0,0,0,9654,0,0,1,BR
2026-05-01 11:15:00,METAR KHCR 011115Z AUTO 13004KT 7SM CLR M03/M04 A3015 RMK AO2 T10261045 $,0,4,0,11263,0,0,0,
2026-05-01 10:55:00,METAR KHCR 011055Z AUTO 00000KT 9SM CLR M02/M04 A3014 RMK AO2 T10211042 $,0,0,0,14481,0,0,0,
2026-05-01 10:35:00,METAR KHCR 011035Z AUTO 00000KT 10SM CLR M02/M04 A3014 RMK AO2 T10231044 $,0,0,0,16090,0,0,0,
2026-05-01 10:15:00,METAR KHCR 011015Z AUTO 00000KT 6SM HZ CLR M01/M04 A3014 RMK AO2 T10111038 $,0,0,0,9654,0,0,0,
2026-05-01 09:55:00,METAR KHCR 010955Z AUTO 14003KT 8SM CLR M01/M04 A3013 RMK AO2 T10091036 $,0,3,0,12872,0,0,0,
2026-05-01 09:35:00,METAR KHCR 010935Z AUTO 00000KT 8SM CLR M01/M04 A3013 RMK AO2 T10131035 $,0,0,0,12872,0,0,0,
2026-05-01 09:15:00,METAR KHCR 010915Z AUTO 11004KT 8SM CLR M01/M03 A3013 RMK AO2 T10061033 $,0,4,0,12872,0,0,0,
2026-05-01 08:55:00,METAR KHCR 010855Z AUTO 00000KT 8SM CLR 00/M04 A3013 RMK AO2 T00031039 50005 $,0,0,0,12872,0,0,0,
2026-05-01 08:35:00,METAR KHCR 010835Z AUTO 00000KT 5SM HZ CLR 01/M03 A3013 RMK AO2 T00101033 $,0,0,0,8045,0,0,0,
2026-05-01 08:15:00,METAR KHCR 010815Z AUTO 00000KT 8SM CLR 00/M04 A3013 RMK AO2 T00021036 $,0,0,0,12872,0,0,0,
2026-05-01 07:55:00,METAR KHCR 010755Z AUTO 00000KT 6SM HZ CLR 01/M03 A3013 RMK AO2 T00131034 $,0,0,0,9654,0,0,0,
2026-05-01 07:35:00,METAR KHCR 010735Z AUTO 19003KT 7SM CLR 00/M03 A3013 RMK AO2 T00031034 $,0,3,0,11263,0,0,0,
2026-05-01 07:15:00,METAR KHCR 010715Z AUTO 00000KT 7SM CLR 02/M04 A3013 RMK AO2 T00161035 $,0,0,0,11263,0,0,0,
2026-05-01 06:55:00,METAR KHCR 010655Z AUTO 12003KT 8SM CLR 01/M04 A3013 RMK AO2 T00071039 401541031 $,0,3,0,12872,0,0,0,
2026-05-01 06:35:00,METAR KHCR 010635Z AUTO 15003KT 8SM CLR 03/M04 A3013 RMK AO2 T00311040 $,0,3,0,12872,0,0,0,
2026-05-01 06:15:00,METAR KHCR 010615Z AUTO 00000KT 6SM HZ CLR 03/M02 A3012 RMK AO2 T00291022 $,0,0,0,9654,0,0,0,
2026-05-01 05:55:00,METAR KHCR 010555Z AUTO 13003KT 10SM CLR 02/M05 A3011 RMK AO2 T00241045 10147 20021 51018 $,0,3,0,16090,0,0,0,
2026-05-01 05:35:00,METAR KHCR 010535Z AUTO 00000KT 10SM CLR 03/M03 A3011 RMK AO2 T00301033 $,0,0,0,16090,0,0,0,
2026-05-01 05:15:00,METAR KHCR 010515Z AUTO 12004KT 6SM HZ CLR 04/M04 A3011 RMK AO2 T00361040 $,0,4,0,9654,0,0,0,
2026-05-01 04:55:00,METAR KHCR 010455Z AUTO 01004KT 8SM CLR 08/M07 A3010 RMK AO2 T00771070 $,0,4,0,12872,0,0,0,
2026-05-01 04:35:00,METAR KHCR 010435Z AUTO 11007KT 6SM HZ CLR 05/M05 A3010 RMK AO2 T00481049 $,0,7,0,9654,0,0,0,
2026-05-01 04:15:00,METAR KHCR 010415Z AUTO 08006KT 7SM CLR 07/M06 A3009 RMK AO2 T00721060 $,0,6,0,11263,0,0,0,
2026-05-01 03:55:00,METAR KHCR 010355Z AUTO 00000KT 6SM HZ CLR 06/M05 A3008 RMK AO2 T00611053 $,0,0,0,9654,0,0,0,
2026-05-01 03:35:00,METAR KHCR 010335Z AUTO 03004KT 8SM CLR 09/M07 A3007 RMK AO2 T00901066 $,0,4,0,12872,0,0,0,
2026-05-01 03:15:00,METAR KHCR 010315Z AUTO 00000KT 10SM CLR 04/M04 A3006 RMK AO2 T00411043 $,0,0,0,16090,0,0,0,
2026-05-01 02:55:00,METAR KHCR 010255Z AUTO 00000KT 6SM HZ CLR 08/M06 A3005 RMK AO2 T00781055 53010 $,0,0,0,9654,0,0,0,
2026-05-01 02:35:00,METAR KHCR 010235Z AUTO VRB03KT 5SM HZ CLR 10/M06 A3005 RMK AO2 T00951060 $,0,3,0,8045,0,0,0,
2026-05-01 02:15:00,METAR KHCR 010215Z AUTO VRB04KT 10SM CLR 09/M05 A3004 RMK AO2 T00941049 $,0,4,0,16090,0,0,0,
2026-05-01 01:55:00,METAR KHCR 010155Z AUTO 36006KT 10SM CLR 11/M06 A3003 RMK AO2 T01121055 $,0,6,0,16090,0,0,0,
2026-05-01 01:35:00,METAR KHCR 010135Z AUTO 36010KT 200V010 10SM CLR 12/M06 A3003 RMK AO2 T01221057 $,0,10,0,16090,0,0,0,
2026-05-01 01:15:00,METAR KHCR 010115Z AUTO 36011KT 250V010 10SM CLR 13/M06 A3002 RMK AO2 T01311058 $,0,11,0,16090,0,0,0,
2026-05-01 00:55:00,METAR KHCR 010055Z AUTO 36011KT 10SM CLR 14/M06 A3002 RMK AO2 T01371065 $,0,11,0,16090,0,0,0,
2026-05-01 00:35:00,METAR KHCR 010035Z AUTO 36013KT 340V100 10SM CLR 14/M06 A3002 RMK AO2 T01381063 $,0,13,0,16090,0,0,0,
2026-05-01 00:15:00,METAR KHCR 010015Z AUTO 01014G21KT 10SM CLR 14/M07 A3002 RMK AO2 T01441067 $,0,14,1,16090,0,0,0,
2026-04-30 23:55:00,METAR KHCR 302355Z AUTO 01011G17KT 10SM CLR 15/M07 A3002 RMK AO2 T01481070 10154 20123 56009 $,0,11,1,16090,0,0,0,
2026-04-30 23:35:00,METAR KHCR 302335Z AUTO 01013KT 10SM CLR 15/M07 A3001 RMK AO2 T01511067 $,0,13,0,16090,0,0,0,
2026-04-30 23:15:00,METAR KHCR 302315Z AUTO 01012G17KT 350V060 9SM CLR 15/M07 A3002 RMK AO2 T01501075 $,0,12,1,14481,0,0,0,
2026-04-30 22:55:00,METAR KHCR 302255Z AUTO 03009KT 10SM CLR 15/M08 A3002 RMK AO2 T01491082 $,0,9,0,16090,0,0,0,
2026-04-30 22:35:00,METAR KHCR 302235Z AUTO 36011G15KT 190V020 9SM CLR 15/M08 A3002 RMK AO2 T01511077 $,0,11,1,14481,0,0,0,
2026-04-30 22:15:00,METAR KHCR 302215Z AUTO 02006G15KT 10SM CLR 15/M08 A3003 RMK AO2 T01481082 $,0,6,1,16090,0,0,0,
2026-04-30 21:55:00,METAR KHCR 302155Z AUTO 36011KT 10SM CLR 15/M09 A3004 RMK AO2 T01501085 $,0,11,0,16090,0,0,0,
2026-04-30 21:35:00,METAR KHCR 302135Z AUTO 00000KT 10SM CLR 14/M08 A3004 RMK AO2 T01431083 $,0,0,0,16090,0,0,0,
2026-04-30 21:15:00,METAR KHCR 302115Z AUTO 36008G20KT 10SM CLR 14/M07 A3004 RMK AO2 T01421075 $,0,8,1,16090,0,0,0,
2026-04-30 20:55:00,METAR KHCR 302055Z AUTO 03012KT 10SM CLR 15/M05 A3005 RMK AO2 T01471054 56015 $,0,12,0,16090,0,0,0,
2026-04-30 20:35:00,METAR KHCR 302035Z AUTO 01015G19KT 10SM CLR 15/M05 A3005 RMK AO2 T01451049 $,0,15,1,16090,0,0,0,
2026-04-30 20:15:00,METAR KHCR 302015Z AUTO 36014G19KT 10SM CLR 14/M04 A3006 RMK AO2 T01421044 $,0,14,1,16090,0,0,0,
2026-04-30 19:55:00,METAR KHCR 301955Z AUTO 01016G21KT 10SM SCT100 14/M03 A3006 RMK AO2 T01441032 $,0,16,1,16090,0,0,0,
2026-04-30 19:35:00,METAR KHCR 301935Z AUTO 01010G18KT 10SM BKN100 14/M03 A3007 RMK AO2 T01381031 $,0,10,1,16090,0,0,0,
2026-04-30 19:15:00,METAR KHCR 301915Z AUTO 01016G22KT 10SM FEW100 14/M03 A3007 RMK AO2 T01351028 $,0,16,1,16090,0,0,0,
2026-04-30 18:55:00,METAR KHCR 301855Z AUTO 03006KT 10SM FEW043 BKN100 13/M03 A3008 RMK AO2 WSHFT 1833 T01311026 $,0,6,0,16090,0,0,0,
2026-04-30 18:35:00,METAR KHCR 301835Z AUTO 36015G19KT 10SM CLR 13/M03 A3009 RMK AO2 T01321031 $,0,15,1,16090,0,0,0,
2026-04-30 18:15:00,METAR KHCR 301815Z AUTO 02013KT 10SM CLR 13/M05 A3009 RMK AO2 T01291045 $,0,13,0,16090,0,0,0,
2026-04-30 17:55:00,METAR KHCR 301755Z AUTO 35013G17KT 10SM CLR 12/M03 A3010 RMK AO2 T01251033 10126 21031 57012 $,0,13,1,16090,0,0,0,
2026-04-30 17:35:00,METAR KHCR 301735Z AUTO 04010KT 10SM FEW055 12/M04 A3010 RMK AO2 T01211038 $,0,10,0,16090,0,0,0,
2026-04-30 17:15:00,METAR KHCR 301715Z AUTO 02008KT 8SM CLR 12/M03 A3011 RMK AO2 T01171030 $,0,8,0,12872,0,0,0,
2026-04-30 16:55:00,METAR KHCR 301655Z AUTO 00000KT 8SM CLR 10/M01 A3011 RMK AO2 T01011006 $,0,0,0,12872,0,0,0,
2026-04-30 16:35:00,METAR KHCR 301635Z AUTO 00000KT 9SM CLR 10/M01 A3012 RMK AO2 T00971009 $,0,0,0,14481,0,0,0,
2026-04-30 16:15:00,METAR KHCR 301615Z AUTO 00000KT 8SM CLR 08/M01 A3012 RMK AO2 T00831006 $,0,0,0,12872,0,0,0,
2026-04-30 15:55:00,METAR KHCR 301555Z AUTO 00000KT 10SM CLR 07/M01 A3013 RMK AO2 T00741007 $,0,0,0,16090,0,0,0,
2026-04-30 14:55:00,METAR KHCR 301455Z AUTO 27003KT 9SM CLR 04/M01 A3014 RMK AO2 T00421011 50006 $,0,3,0,14481,0,0,0,
2026-04-30 14:35:00,METAR KHCR 301435Z AUTO 00000KT 10SM CLR 04/M01 A3014 RMK AO2 T00391013 $,0,0,0,16090,0,0,0,
2026-04-30 14:15:00,METAR KHCR 301415Z AUTO 00000KT 10SM CLR 03/M01 A3015 RMK AO2 T00301012 $,0,0,0,16090,0,0,0,
2026-04-30 13:55:00,METAR KHCR 301355Z AUTO 00000KT 10SM CLR 02/M02 A3014 RMK AO2 T00171017 $,0,0,0,16090,0,0,0,
2026-04-30 13:35:00,METAR KHCR 301335Z AUTO 00000KT 10SM CLR 01/M02 A3014 RMK AO2 T00091020 $,0,0,0,16090,0,0,0,
2026-04-30 13:15:00,METAR KHCR 301315Z AUTO 00000KT 9SM CLR M00/M03 A3014 RMK AO2 T10021027 $,0,0,0,14481,0,0,0,
2026-04-30 12:55:00,METAR KHCR 301255Z AUTO 00000KT 10SM CLR M02/M04 A3013 RMK AO2 T10231040 $,0,0,0,16090,0,0,0,
2026-04-30 12:35:00,METAR KHCR 301235Z AUTO 00000KT 10SM CLR M02/M04 A3013 RMK AO2 T10211039 $,0,0,0,16090,0,0,0,
2026-04-30 12:15:00,METAR KHCR 301215Z AUTO 11003KT 9SM CLR M02/M04 A3012 RMK AO2 T10221041 $,0,3,0,14481,0,0,0,
2026-04-30 11:55:00,METAR KHCR 301155Z AUTO 12003KT 10SM CLR M02/M04 A3012 RMK AO2 T10241037 10032 21030 52001 $,0,3,0,16090,0,0,0,
2026-04-30 11:35:00,METAR KHCR 301135Z AUTO 12003KT 10SM CLR M01/M03 A3012 RMK AO2 T10141031 $,0,3,0,16090,0,0,0,
2026-04-30 11:15:00,METAR KHCR 301115Z AUTO 00000KT 10SM CLR M00/M03 A3012 RMK AO2 T10031029 $,0,0,0,16090,0,0,0,
2026-04-30 10:55:00,METAR KHCR 301055Z AUTO 00000KT 10SM CLR M00/M04 A3012 RMK AO2 T10051035 $,0,0,0,16090,0,0,0,
2026-04-30 10:35:00,METAR KHCR 301035Z AUTO 00000KT 10SM CLR M02/M04 A3012 RMK AO2 T10151037 $,0,0,0,16090,0,0,0,
2026-04-30 10:15:00,METAR KHCR 301015Z AUTO 13003KT 10SM CLR M01/M03 A3012 RMK AO2 T10121034 $,0,3,0,16090,0,0,0,
2026-04-30 09:55:00,METAR KHCR 300955Z AUTO 13005KT 10SM CLR M01/M04 A3012 RMK AO2 T10101038 $,0,5,0,16090,0,0,0,
2026-04-30 09:35:00,METAR KHCR 300935Z AUTO 10003KT 10SM CLR 00/M03 A3012 RMK AO2 T00031030 $,0,3,0,16090,0,0,0,
2026-04-30 09:15:00,METAR KHCR 300915Z AUTO 00000KT 10SM CLR 01/M03 A3012 RMK AO2 T00131028 $,0,0,0,16090,0,0,0,
2026-04-30 08:55:00,METAR KHCR 300855Z AUTO 00000KT 10SM CLR 01/M03 A3012 RMK AO2 T00051031 58001 $,0,0,0,16090,0,0,0,
2026-04-30 08:35:00,METAR KHCR 300835Z AUTO 17003KT 10SM FEW160 00/M03 A3012 RMK AO2 T00051029 $,0,3,0,16090,0,0,0,
2026-04-30 08:15:00,METAR KHCR 300815Z AUTO 08004KT 10SM CLR 01/M03 A3013 RMK AO2 T00051027 $,0,4,0,16090,0,0,0,
2026-04-30 07:55:00,METAR KHCR 300755Z AUTO 00000KT 10SM CLR 00/M03 A3012 RMK AO2 T00001028 $,0,0,0,16090,0,0,0,
2026-04-30 07:35:00,METAR KHCR 300735Z AUTO 00000KT 10SM FEW140 00/M03 A3013 RMK AO2 T00041031 $,0,0,0,16090,0,0,0,
2026-04-30 07:15:00,METAR KHCR 300715Z AUTO 00000KT 10SM FEW140 02/M03 A3013 RMK AO2 T00221031 $,0,0,0,16090,0,0,0,
2026-04-30 06:55:00,METAR KHCR 300655Z AUTO 12004KT 10SM CLR 01/M03 A3012 RMK AO2 T00121030 401421051 $,0,4,0,16090,0,0,0,
2026-04-30 06:35:00,METAR KHCR 300635Z AUTO 13003KT 10SM CLR 01/M03 A3012 RMK AO2 T00121028 $,0,3,0,16090,0,0,0,
2026-04-30 06:15:00,METAR KHCR 300615Z AUTO 00000KT 10SM CLR 03/M03 A3012 RMK AO2 T00311030 $,0,0,0,16090,0,0,0,
2026-04-30 05:55:00,METAR KHCR 300555Z AUTO 11003KT 10SM CLR 03/M02 A3012 RMK AO2 T00311023 10136 20024 50009 $,0,3,0,16090,0,0,0,
2026-04-30 05:35:00,METAR KHCR 300535Z AUTO 14003KT 10SM CLR 03/M02 A3012 RMK AO2 T00281022 $,0,3,0,16090,0,0,0,
2026-04-30 05:15:00,METAR KHCR 300515Z AUTO 13004KT 10SM CLR 04/M02 A3012 RMK AO2 T00361022 $,0,4,0,16090,0,0,0,
2026-04-30 04:55:00,METAR KHCR 300455Z AUTO 00000KT 10SM FEW140 06/M03 A3013 RMK AO2 T00551032 $,0,0,0,16090,0,0,0,
2026-04-30 04:35:00,METAR KHCR 300435Z AUTO 10004KT 10SM FEW140 05/M03 A3013 RMK AO2 T00511030 $,0,4,0,16090,0,0,0,
2026-04-30 04:15:00,METAR KHCR 300415Z AUTO 10005KT 10SM CLR 07/M04 A3012 RMK AO2 T00731043 $,0,5,0,16090,0,0,0,
2026-04-30 03:55:00,METAR KHCR 300355Z AUTO 12008KT 10SM CLR 06/M04 A3012 RMK AO2 T00571041 $,0,8,0,16090,0,0,0,
2026-04-30 03:35:00,METAR KHCR 300335Z AUTO 11008KT 10SM CLR 07/M04 A3011 RMK AO2 T00671043 $,0,8,0,16090,0,0,0,
2026-04-30 03:15:00,METAR KHCR 300315Z AUTO 00000KT 10SM CLR 05/M03 A3010 RMK AO2 T00541034 $,0,0,0,16090,0,0,0,
2026-04-30 02:55:00,METAR KHCR 300255Z AUTO 00000KT 10SM CLR 10/M05 A3009 RMK AO2 T00991051 53005 $,0,0,0,16090,0,0,0,
2026-04-30 02:35:00,METAR KHCR 300235Z AUTO 03005KT 10SM CLR 10/M05 A3009 RMK AO2 T01001051 $,0,5,0,16090,0,0,0,
2026-04-30 02:15:00,METAR KHCR 300215Z AUTO 03004KT 10SM SCT170 11/M05 A3008 RMK AO2 T01071046 $,0,4,0,16090,0,0,0,
2026-04-30 01:55:00,METAR KHCR 300155Z AUTO 36006KT 7SM FEW180 11/M04 A3008 RMK AO2 T01111041 $,0,6,0,11263,0,0,0,
2026-04-30 01:35:00,METAR KHCR 300135Z AUTO 34006KT 8SM FEW180 12/M04 A3008 RMK AO2 T01191042 $,0,6,0,12872,0,0,0,
2026-04-30 01:15:00,METAR KHCR 300115Z AUTO 33010KT 7SM FEW180 12/M05 A3008 RMK AO2 T01231052 $,0,10,0,11263,0,0,0,
2026-04-30 00:55:00,METAR KHCR 300055Z AUTO 34006KT 7SM FEW110 12/M06 A3007 RMK AO2 T01211060 $,0,6,0,11263,0,0,0,
2026-04-30 00:35:00,METAR KHCR 300035Z AUTO 31007KT 9SM FEW110 13/M07 A3007 RMK AO2 T01331073 $,0,7,0,14481,0,0,0,
2026-04-30 00:15:00,METAR KHCR 300015Z AUTO 31007KT 9SM FEW110 14/M08 A3008 RMK AO2 T01361077 $,0,7,0,14481,0,0,0,
2026-04-29 23:55:00,METAR KHCR 292355Z AUTO 31008KT 9SM CLR 14/M08 A3007 RMK AO2 T01371080 10142 20111 56005 $,0,8,0,14481,0,0,0,
2026-04-29 23:35:00,METAR KHCR 292335Z AUTO 31009KT 9SM CLR 13/M08 A3008 RMK AO2 T01321075 $,0,9,0,14481,0,0,0,
2026-04-29 23:15:00,METAR KHCR 292315Z AUTO 32008KT 9SM CLR 13/M08 A3007 RMK AO2 T01351084 $,0,8,0,14481,0,0,0,
2026-04-29 22:55:00,METAR KHCR 292255Z AUTO 28004KT 10SM BKN100 14/M06 A3007 RMK AO2 T01351060 $,0,4,0,16090,0,0,0,
2026-04-29 22:35:00,METAR KHCR 292235Z AUTO 00000KT 10SM OVC100 14/M06 A3007 RMK AO2 T01351057 $,0,0,0,16090,0,0,0,
2026-04-29 22:15:00,METAR KHCR 292215Z AUTO VRB04KT 10SM BKN100 13/M05 A3008 RMK AO2 T01311054 $,0,4,0,16090,0,0,0,
2026-04-29 21:55:00,METAR KHCR 292155Z AUTO 00000KT 10SM 14/M05 A3008 RMK AO2 T01351048 $,0,0,0,16090,0,0,0,
2026-04-29 21:35:00,METAR KHCR 292135Z AUTO 00000KT 10SM 14/M05 A3008 RMK AO2 T01361055 $,0,0,0,16090,0,0,0,
2026-04-29 20:55:00,METAR KHCR 292055Z AUTO VRB03KT 10SM BKN075 BKN090 14/M04 A3009 RMK AO2 T01421045 57015 $,0,3,0,16090,0,0,0,
2026-04-29 20:35:00,METAR KHCR 292035Z AUTO VRB04KT 10SM OVC080 13/M05 A3010 RMK AO2 T01301053 $,0,4,0,16090,0,0,0,
2026-04-29 20:15:00,METAR KHCR 292015Z AUTO 00000KT 10SM SCT090 13/M05 A3011 RMK AO2 T01301055 $,0,0,0,16090,0,0,0,
2026-04-29 19:55:00,METAR KHCR 291955Z AUTO 05004KT 10SM FEW085 SCT360 12/M06 A3010 RMK AO2 T01241057 $,0,4,0,16090,0,0,0,
2026-04-29 19:35:00,METAR KHCR 291935Z AUTO 00000KT 10SM FEW075 SCT310 12/M06 A3011 RMK AO2 T01231061 $,0,0,0,16090,0,0,0,
2026-04-29 19:15:00,METAR KHCR 291915Z AUTO 00000KT 10SM BKN075 OVC090 12/M06 A3012 RMK AO2 T01171059 $,0,0,0,16090,0,0,0,
2026-04-29 18:55:00,METAR KHCR 291855Z AUTO VRB04KT 10SM BKN090 12/M05 A3013 RMK AO2 T01251054 $,0,4,0,16090,0,0,0,
2026-04-29 18:35:00,METAR KHCR 291835Z AUTO 02006KT 10SM BKN080 12/M05 A3013 RMK AO2 T01241049 $,0,6,0,16090,0,0,0,
2026-04-29 18:15:00,METAR KHCR 291815Z AUTO 00000KT 10SM OVC085 11/M05 A3014 RMK AO2 T01111054 $,0,0,0,16090,0,0,0,
2026-04-29 17:55:00,METAR KHCR 291755Z AUTO VRB04KT 10SM BKN085 12/M05 A3014 RMK AO2 T01161047 10116 21051 58015 $,0,4,0,16090,0,0,0,
2026-04-29 17:35:00,METAR KHCR 291735Z AUTO 00000KT 10SM BKN080 11/M03 A3015 RMK AO2 T01111028 $,0,0,0,16090,0,0,0,
2026-04-29 17:15:00,METAR KHCR 291715Z AUTO 00000KT 10SM BKN085 10/M03 A3015 RMK AO2 T00961026 $,0,0,0,16090,0,0,0,
2026-04-29 16:55:00,METAR KHCR 291655Z AUTO 00000KT 10SM CLR 08/M02 A3016 RMK AO2 T00831016 $,0,0,0,16090,0,0,0,
2026-04-29 16:35:00,METAR KHCR 291635Z AUTO 00000KT 10SM CLR 07/M03 A3017 RMK AO2 T00751026 $,0,0,0,16090,0,0,0,
2026-04-29 16:15:00,METAR KHCR 291615Z AUTO 00000KT 10SM CLR 06/M04 A3018 RMK AO2 T00631038 $,0,0,0,16090,0,0,0,
2026-04-29 15:55:00,METAR KHCR 291555Z AUTO 00000KT 10SM CLR 05/M03 A3019 RMK AO2 T00451031 $,0,0,0,16090,0,0,0,
2026-04-29 15:35:00,METAR KHCR 291535Z AUTO 00000KT 10SM CLR 04/M02 A3019 RMK AO2 T00401021 $,0,0,0,16090,0,0,0,
2026-04-29 15:15:00,METAR KHCR 291515Z AUTO 00000KT 10SM CLR 03/M03 A3019 RMK AO2 T00311025 $,0,0,0,16090,0,0,0,
2026-04-29 14:55:00,METAR KHCR 291455Z AUTO 00000KT 10SM CLR 02/M02 A3019 RMK AO2 T00201022 51004 $,0,0,0,16090,0,0,0,
2026-04-29 14:35:00,METAR KHCR 291435Z AUTO 00000KT 10SM CLR 01/M02 A3019 RMK AO2 T00131021 $,0,0,0,16090,0,0,0,
2026-04-29 14:15:00,METAR KHCR 291415Z AUTO 00000KT 10SM CLR 01/M03 A3019 RMK AO2 T00061027 $,0,0,0,16090,0,0,0,
2026-04-29 13:55:00,METAR KHCR 291355Z AUTO 00000KT 10SM CLR 00/M03 A3019 RMK AO2 T00011028 $,0,0,0,16090,0,0,0,
2026-04-29 13:35:00,METAR KHCR 291335Z AUTO 00000KT 10SM FEW080 M01/M03 A3019 RMK AO2 T10071034 $,0,0,0,16090,0,0,0,
2026-04-29 13:15:00,METAR KHCR 291315Z AUTO 00000KT 10SM CLR M02/M04 A3019 RMK AO2 T10231042 $,0,0,0,16090,0,0,0,
2026-04-29 12:55:00,METAR KHCR 291255Z AUTO 00000KT 9SM CLR M04/M05 A3019 RMK AO2 T10351050 $,0,0,0,14481,0,0,0,
2026-04-29 12:35:00,METAR KHCR 291235Z AUTO 12004KT 9SM CLR M05/M06 A3018 RMK AO2 T10471064 $,0,4,0,14481,0,0,0,
2026-04-29 12:15:00,METAR KHCR 291215Z AUTO 04003KT 10SM CLR M02/M05 A3018 RMK AO2 T10171046 $,0,3,0,16090,0,0,0,
2026-04-29 11:55:00,METAR KHCR 291155Z AUTO 00000KT 10SM CLR M03/M05 A3018 RMK AO2 T10311047 10005 21046 53004 $,0,0,0,16090,0,0,0,
2026-04-29 11:35:00,METAR KHCR 291135Z AUTO 00000KT 10SM CLR M04/M05 A3018 RMK AO2 T10391052 $,0,0,0,16090,0,0,0,
2026-04-29 11:15:00,METAR KHCR 291115Z AUTO 00000KT 10SM CLR M04/M06 A3018 RMK AO2 T10431057 $,0,0,0,16090,0,0,0,
2026-04-29 10:55:00,METAR KHCR 291055Z AUTO 00000KT 10SM CLR M02/M04 A3017 RMK AO2 T10251040 $,0,0,0,16090,0,0,0,
2026-04-29 10:35:00,METAR KHCR 291035Z AUTO 00000KT 10SM CLR M03/M04 A3017 RMK AO2 T10251041 $,0,0,0,16090,0,0,0,
2026-04-29 10:15:00,METAR KHCR 291015Z AUTO 13003KT 10SM CLR M03/M05 A3017 RMK AO2 T10321047 $,0,3,0,16090,0,0,0,
2026-04-29 09:55:00,METAR KHCR 290955Z AUTO 00000KT 10SM CLR M04/M05 A3017 RMK AO2 T10351050 $,0,0,0,16090,0,0,0,
2026-04-29 09:35:00,METAR KHCR 290935Z AUTO 00000KT 10SM CLR M02/M04 A3016 RMK AO2 T10221039 $,0,0,0,16090,0,0,0,
2026-04-29 09:15:00,METAR KHCR 290915Z AUTO 00000KT 10SM CLR M02/M04 A3016 RMK AO2 T10201038 $,0,0,0,16090,0,0,0,
2026-04-29 08:55:00,METAR KHCR 290855Z AUTO 12003KT 10SM CLR M03/M05 A3017 RMK AO2 T10331047 50000 $,0,3,0,16090,0,0,0,
2026-04-29 08:35:00,METAR KHCR 290835Z AUTO 13003KT 10SM CLR M02/M04 A3017 RMK AO2 T10231040 $,0,3,0,16090,0,0,0,
2026-04-29 08:15:00,METAR KHCR 290815Z AUTO 00000KT 10SM CLR M02/M04 A3017 RMK AO2 T10151036 $,0,0,0,16090,0,0,0,
2026-04-29 07:55:00,METAR KHCR 290755Z AUTO 00000KT 10SM CLR M02/M04 A3017 RMK AO2 T10211040 $,0,0,0,16090,0,0,0,
2026-04-29 07:35:00,METAR KHCR 290735Z AUTO 00000KT 10SM CLR M01/M03 A3018 RMK AO2 T10081035 $,0,0,0,16090,0,0,0,
2026-04-29 07:15:00,METAR KHCR 290715Z AUTO 14003KT 10SM CLR M01/M04 A3017 RMK AO2 T10141035 $,0,3,0,16090,0,0,0,
2026-04-29 06:55:00,METAR KHCR 290655Z AUTO 13004KT 10SM CLR M01/M03 A3017 RMK AO2 T10061035 401201015 $,0,4,0,16090,0,0,0,
2026-04-29 06:35:00,METAR KHCR 290635Z AUTO 13004KT 10SM CLR M01/M03 A3017 RMK AO2 T10051035 $,0,4,0,16090,0,0,0,
2026-04-29 06:15:00,METAR KHCR 290615Z AUTO 13003KT 10SM CLR 00/M03 A3017 RMK AO2 T00001032 $,0,3,0,16090,0,0,0,
2026-04-29 05:55:00,METAR KHCR 290555Z AUTO 00000KT 10SM CLR 00/M03 A3017 RMK AO2 T00021028 10110 21004 51008 $,0,0,0,16090,0,0,0,
2026-04-29 05:35:00,METAR KHCR 290535Z AUTO 15003KT 10SM CLR 00/M03 A3017 RMK AO2 T00051028 $,0,3,0,16090,0,0,0,
2026-04-29 05:15:00,METAR KHCR 290515Z AUTO 13004KT 10SM CLR 00/M03 A3017 RMK AO2 T00021029 $,0,4,0,16090,0,0,0,
2026-04-29 04:55:00,METAR KHCR 290455Z AUTO 12004KT 10SM CLR 02/M03 A3016 RMK AO2 T00231026 $,0,4,0,16090,0,0,0,
2026-04-29 04:35:00,METAR KHCR 290435Z AUTO 09005KT 10SM CLR 04/M03 A3016 RMK AO2 T00361026 $,0,5,0,16090,0,0,0,
2026-04-29 04:15:00,METAR KHCR 290415Z AUTO 14005KT 10SM CLR 02/M02 A3016 RMK AO2 T00231023 $,0,5,0,16090,0,0,0,
2026-04-29 03:55:00,METAR KHCR 290355Z AUTO 05005KT 10SM CLR 04/M02 A3016 RMK AO2 T00431018 $,0,5,0,16090,0,0,0,
2026-04-29 03:35:00,METAR KHCR 290335Z AUTO 11005KT 10SM CLR 03/M02 A3015 RMK AO2 T00331020 $,0,5,0,16090,0,0,0,
2026-04-29 03:15:00,METAR KHCR 290315Z AUTO 13005KT 10SM CLR 03/M02 A3014 RMK AO2 T00341019 $,0,5,0,16090,0,0,0,
2026-04-29 02:55:00,METAR KHCR 290255Z AUTO 13004KT 10SM CLR 04/M02 A3014 RMK AO2 T00391017 53006 $,0,4,0,16090,0,0,0,
2026-04-29 02:35:00,METAR KHCR 290235Z AUTO 11004KT 10SM CLR 05/M01 A3013 RMK AO2 T00461015 $,0,4,0,16090,0,0,0,
2026-04-29 02:15:00,METAR KHCR 290215Z AUTO 00000KT 10SM CLR 08/M03 A3012 RMK AO2 T00831031 $,0,0,0,16090,0,0,0,
2026-04-29 01:55:00,METAR KHCR 290155Z AUTO 00000KT 10SM CLR 08/M02 A3012 RMK AO2 T00851019 $,0,0,0,16090,0,0,0,
2026-04-29 01:35:00,METAR KHCR 290135Z AUTO 24005KT 10SM CLR 10/M04 A3011 RMK AO2 T00951037 $,0,5,0,16090,0,0,0,
2026-04-29 01:15:00,METAR KHCR 290115Z AUTO 23008KT 10SM CLR 10/M04 A3011 RMK AO2 T01011037 $,0,8,0,16090,0,0,0,
2026-04-29 00:55:00,METAR KHCR 290055Z AUTO 26009KT 10SM CLR 11/M03 A3012 RMK AO2 T01071033 $,0,9,0,16090,0,0,0,
2026-04-29 00:35:00,METAR KHCR 290035Z AUTO 26004KT 10SM CLR 11/M03 A3012 RMK AO2 T01071033 $,0,4,0,16090,0,0,0,
2026-04-29 00:15:00,METAR KHCR 290015Z AUTO VRB03KT 10SM CLR 11/M04 A3012 RMK AO2 T01101038 $,0,3,0,16090,0,0,0,
2026-04-28 23:55:00,METAR KHCR 282355Z AUTO 26009KT 10SM CLR 11/M04 A3012 RMK AO2 T01121038 10120 20086 55005 $,0,9,0,16090,0,0,0,
2026-04-28 23:35:00,METAR KHCR 282335Z AUTO 24010KT 210V280 10SM CLR 12/M03 A3012 RMK AO2 T01151032 $,0,10,0,16090,0,0,0,
2026-04-28 23:15:00,METAR KHCR 282315Z AUTO 26010KT 10SM FEW075 12/M03 A3012 RMK AO2 T01171028 $,0,10,0,16090,0,0,0,
2026-04-28 22:55:00,METAR KHCR 282255Z AUTO 28010G17KT 10SM FEW060 SCT070 11/M03 A3012 RMK AO2 T01131027 $,0,10,1,16090,0,0,0,
2026-04-28 22:35:00,METAR KHCR 282235Z AUTO 26011KT 10SM FEW060 SCT070 11/M03 A3012 RMK AO2 T01131025 $,0,11,0,16090,0,0,0,
2026-04-28 22:15:00,METAR KHCR 282215Z AUTO 24009G17KT 10SM SCT065 SCT080 12/M02 A3012 RMK AO2 T01181024 $,0,9,1,16090,0,0,0,
2026-04-28 21:55:00,METAR KHCR 282155Z AUTO 29012KT 10SM BKN065 OVC080 11/M03 A3013 RMK AO2 WSHFT 2141 T01131027 $,0,12,0,16090,0,0,0,
2026-04-28 21:35:00,METAR KHCR 282135Z AUTO 26010G18KT 10SM BKN060 OVC085 12/M02 A3013 RMK AO2 T01151024 $,0,10,1,16090,0,0,0,
2026-04-28 21:15:00,METAR KHCR 282115Z AUTO 00000KT 10SM FEW070 OVC085 11/M04 A3013 RMK AO2 T01131045 $,0,0,0,16090,0,0,0,
2026-04-28 20:55:00,METAR KHCR 282055Z AUTO 24008KT 10SM OVC080 11/M01 A3014 RMK AO2 T01071014 55001 $,0,8,0,16090,0,0,0,
2026-04-28 20:35:00,METAR KHCR 282035Z AUTO 21006KT 10SM SCT070 OVC080 10/M03 A3014 RMK AO2 T00981027 $,0,6,0,16090,0,0,0,
2026-04-28 20:15:00,METAR KHCR 282015Z AUTO 24013G23KT 10SM BKN070 OVC090 09/M02 A3014 RMK AO2 T00891016 $,0,13,1,16090,0,0,0,
2026-04-28 19:55:00,METAR KHCR 281955Z AUTO 26017KT 10SM OVC075 09/M01 A3013 RMK AO2 T00891013 $,0,17,0,16090,0,0,0,
2026-04-28 19:35:00,METAR KHCR 281935Z AUTO 24010KT 10SM BKN070 BKN080 09/M03 A3013 RMK AO2 T00941033 $,0,10,0,16090,0,0,0,
2026-04-28 19:15:00,METAR KHCR 281915Z AUTO VRB04KT 10SM CLR 11/M03 A3012 RMK AO2 T01111031 $,0,4,0,16090,0,0,0,
2026-04-28 18:55:00,METAR KHCR 281855Z AUTO 23003KT 10SM FEW060 10/M03 A3013 RMK AO2 T01041030 $,0,3,0,16090,0,0,0,
2026-04-28 18:35:00,METAR KHCR 281835Z AUTO 21004KT 10SM SCT065 BKN085 09/M02 A3014 RMK AO2 T00901022 $,0,4,0,16090,0,0,0,
2026-04-28 18:15:00,METAR KHCR 281815Z AUTO 00000KT 10SM FEW055 BKN070 09/M03 A3014 RMK AO2 T00891034 $,0,0,0,16090,0,0,0,
2026-04-28 17:55:00,METAR KHCR 281755Z AUTO 05004KT 10SM SCT065 09/M02 A3014 RMK AO2 T00911021 10091 20007 50000 $,0,4,0,16090,0,0,0,
2026-04-28 17:35:00,METAR KHCR 281735Z AUTO 00000KT 10SM SCT065 09/M04 A3014 RMK AO2 T00881035 $,0,0,0,16090,0,0,0,
2026-04-28 17:15:00,METAR KHCR 281715Z AUTO 00000KT 10SM SCT065 08/00 A3014 RMK AO2 T00760001 $,0,0,0,16090,0,0,0,
2026-04-28 16:55:00,METAR KHCR 281655Z AUTO 00000KT 10SM CLR 06/00 A3014 RMK AO2 T00640001 $,0,0,0,16090,0,0,0,
2026-04-28 16:35:00,METAR KHCR 281635Z AUTO 00000KT 10SM CLR 06/M00 A3014 RMK AO2 T00571003 $,0,0,0,16090,0,0,0,
2026-04-28 16:15:00,METAR KHCR 281615Z AUTO 00000KT 10SM CLR 05/M00 A3014 RMK AO2 T00531002 $,0,0,0,16090,0,0,0,
2026-04-28 15:55:00,METAR KHCR 281555Z AUTO VRB03KT 10SM FEW020 05/00 A3015 RMK AO2 T00510003 $,0,3,0,16090,0,0,0,
2026-04-28 15:35:00,METAR KHCR 281535Z AUTO 00000KT 10SM SCT020 04/M00 A3015 RMK AO2 T00431002 $,0,0,0,16090,0,0,0,
2026-04-28 15:15:00,METAR KHCR 281515Z AUTO VRB03KT 10SM FEW024 04/00 A3014 RMK AO2 T00410001 $,0,3,0,16090,0,0,0,
2026-04-28 14:55:00,METAR KHCR 281455Z AUTO 00000KT 10SM CLR 04/00 A3014 RMK AO2 T00380003 51019 $,0,0,0,16090,0,0,0,
2026-04-28 14:35:00,METAR KHCR 281435Z AUTO 00000KT 10SM CLR 03/00 A3014 RMK AO2 T00320003 $,0,0,0,16090,0,0,0,
2026-04-28 14:15:00,METAR KHCR 281415Z AUTO 11003KT 10SM CLR 02/M00 A3013 RMK AO2 T00241000 $,0,3,0,16090,0,0,0,
2026-04-28 13:55:00,METAR KHCR 281355Z AUTO 00000KT 10SM BKN024 02/M00 A3012 RMK AO2 BKN V SCT T00161001 $,0,0,0,16090,0,0,0,
2026-04-28 13:35:00,METAR KHCR 281335Z AUTO 00000KT 10SM OVC024 02/00 A3012 RMK AO2 T00150001 $,0,0,0,16090,0,0,0,
2026-04-28 13:15:00,METAR KHCR 281315Z AUTO 00000KT 10SM OVC024 01/00 A3011 RMK AO2 T00150002 $,0,0,0,16090,0,0,0,
2026-04-28 12:55:00,METAR KHCR 281255Z AUTO 00000KT 9SM OVC022 01/00 A3009 RMK AO2 CIG 020V025 T00080001 $,0,0,0,14481,0,0,0,
2026-04-28 12:35:00,METAR KHCR 281235Z AUTO 00000KT 10SM OVC021 01/M00 A3008 RMK AO2 T00141000 $,0,0,0,16090,0,0,0,
2026-04-28 12:15:00,METAR KHCR 281215Z AUTO 00000KT 10SM OVC021 01/M00 A3007 RMK AO2 T00091002 $,0,0,0,16090,0,0,0,
2026-04-28 11:55:00,METAR KHCR 281155Z AUTO 00000KT 10SM OVC021 01/M00 A3007 RMK AO2 70005 T00091001 10013 21015 53009 $,0,0,0,16090,0,0,0,
2026-04-28 11:35:00,METAR KHCR 281135Z AUTO 00000KT 10SM OVC021 01/M00 A3007 RMK AO2 T00071001 $,0,0,0,16090,0,0,0,
2026-04-28 11:15:00,METAR KHCR 281115Z AUTO 00000KT 10SM OVC021 01/M00 A3006 RMK AO2 CIG 017V023 T00081003 $,0,0,0,16090,0,0,0,
2026-04-28 10:55:00,METAR KHCR 281055Z AUTO 00000KT 10SM OVC021 01/M01 A3005 RMK AO2 OVC V BKN T00051006 $,0,0,0,16090,0,0,0,VC
2026-04-28 10:35:00,METAR KHCR 281035Z AUTO 20003KT 10SM OVC020 01/M00 A3005 RMK AO2 CIG 018V023 OVC V BKN T00091004 $,0,3,0,16090,0,0,0,VC
2026-04-28 10:15:00,METAR KHCR 281015Z AUTO 00000KT 10SM OVC018 01/M00 A3004 RMK AO2 CIG 017V022 T00091004 $,0,0,0,16090,0,0,0,
2026-04-28 09:55:00,METAR KHCR 280955Z AUTO 00000KT 10SM OVC018 01/M00 A3004 RMK AO2 T00101004 $,0,0,0,16090,0,0,0,
2026-04-28 09:35:00,METAR KHCR 280935Z AUTO 00000KT 10SM BKN018 M00/M02 A3004 RMK AO2 BKN V OVC T10041016 $,0,0,0,16090,0,0,0,VC
2026-04-28 09:15:00,METAR KHCR 280915Z AUTO 11003KT 10SM OVC018 01/M01 A3004 RMK AO2 T00091007 $,0,3,0,16090,0,0,0,
2026-04-28 08:55:00,METAR KHCR 280855Z AUTO 13004KT 10SM OVC019 00/M00 A3004 RMK AO2 CIG 018V023 T00051001 51011 $,0,4,0,16090,0,0,0,
2026-04-28 08:35:00,METAR KHCR 280835Z AUTO 13003KT 10SM OVC019 00/M00 A3004 RMK AO2 CIG 018V023 T00011004 $,0,3,0,16090,0,0,0,
2026-04-28 08:15:00,METAR KHCR 280815Z AUTO 00000KT 10SM BKN019 OVC025 00/M00 A3004 RMK AO2 T00011005 $,0,0,0,16090,0,0,0,
2026-04-28 07:55:00,METAR KHCR 280755Z AUTO 00000KT 10SM SCT025 M00/M01 A3004 RMK AO2 T10011008 $,0,0,0,16090,0,0,0,
2026-04-28 07:35:00,METAR KHCR 280735Z AUTO 00000KT 10SM FEW028 M01/M01 A3004 RMK AO2 T10061014 $,0,0,0,16090,0,0,0,
2026-04-28 07:15:00,METAR KHCR 280715Z AUTO 13003KT 10SM CLR M01/M02 A3003 RMK AO2 T10151019 $,0,3,0,16090,0,0,0,
2026-04-28 06:55:00,METAR KHCR 280655Z AUTO 12003KT 10SM CLR M01/M01 A3003 RMK AO2 T10071012 400741012 $,0,3,0,16090,0,0,0,
2026-04-28 06:35:00,METAR KHCR 280635Z AUTO 00000KT 10SM FEW032 01/M00 A3002 RMK AO2 T00071002 $,0,0,0,16090,0,0,0,
2026-04-28 06:15:00,METAR KHCR 280615Z AUTO 11003KT 10SM FEW033 01/M01 A3001 RMK AO2 T00061006 $,0,3,0,16090,0,0,0,
2026-04-28 05:55:00,METAR KHCR 280555Z AUTO 12003KT 10SM FEW033 01/M00 A3000 RMK AO2 60000 T00051004 10063 21000 51012 $,0,3,0,16090,0,0,0,
2026-04-28 05:35:00,METAR KHCR 280535Z AUTO 00000KT 10SM CLR 01/M01 A3000 RMK AO2 T00091006 $,0,0,0,16090,0,0,0,
2026-04-28 05:15:00,METAR KHCR 280515Z AUTO 15003KT 10SM SCT044 01/M00 A2999 RMK AO2 T00121002 $,0,3,0,16090,0,0,0,
2026-04-28 04:55:00,METAR KHCR 280455Z AUTO 33003KT 10SM FEW032 OVC044 03/00 A2999 RMK AO2 T00280002 $,0,3,0,16090,0,0,0,
2026-04-28 04:35:00,METAR KHCR 280435Z AUTO 00000KT 10SM FEW032 BKN044 04/M00 A2998 RMK AO2 T00381003 $,0,0,0,16090,0,0,0,
2026-04-28 04:15:00,METAR KHCR 280415Z AUTO 00000KT 10SM BKN041 03/00 A2998 RMK AO2 T00350002 $,0,0,0,16090,0,0,0,
2026-04-28 03:55:00,METAR KHCR 280355Z AUTO 14004KT 10SM OVC038 03/00 A2998 RMK AO2 T00280003 $,0,4,0,16090,0,0,0,
2026-04-28 03:35:00,METAR KHCR 280335Z AUTO 12005KT 10SM OVC038 04/00 A2998 RMK AO2 T00370001 $,0,5,0,16090,0,0,0,
2026-04-28 03:15:00,METAR KHCR 280315Z AUTO 10005KT 10SM BKN039 04/01 A2997 RMK AO2 T00400008 $,0,5,0,16090,0,0,0,
2026-04-28 02:55:00,METAR KHCR 280255Z AUTO 13005KT 10SM SCT022 OVC039 04/02 A2996 RMK AO2 RAE0153B0224E0250 P0000 60000 T00400016 53015 $,0,5,0,16090,0,0,0,RA
2026-04-28 02:35:00,METAR KHCR 280235Z AUTO 12005KT 7SM -RA BKN021 OVC026 04/02 A2995 RMK AO2 RAE0153B0224 CIG 019V024 P0000 T00420021 $,0,5,0,11263,0,0,0,"-RA,RA"
2026-04-28 02:15:00,METAR KHCR 280215Z AUTO 13006KT 8SM BKN018 OVC024 04/02 A2995 RMK AO2 RAE0153 CIG 016V021 P0000 T00430020 $,0,6,0,12872,0,0,0,RA
2026-04-28 01:55:00,METAR KHCR 280155Z AUTO 14005KT 8SM -RA SCT017 OVC022 05/02 A2994 RMK AO2 RAB0053 P0000 T00450019 $,0,5,0,12872,0,0,0,"-RA,RA"
2026-04-28 01:35:00,METAR KHCR 280135Z AUTO 05004KT 7SM -RA FEW015 BKN023 OVC030 05/01 A2994 RMK AO2 RAB0053 BKN V OVC P0000 T00520012 $,0,4,0,11263,0,0,0,"-RA,RA,VC"
2026-04-28 01:15:00,METAR KHCR 280115Z AUTO 02007KT 9SM -RA OVC022 05/01 A2993 RMK AO2 RAB0053 P0000 T00540009 $,0,7,0,14481,0,0,0,"-RA,RA"
2026-04-28 00:55:00,METAR KHCR 280055Z AUTO 36009KT 10SM BKN022 OVC028 05/02 A2993 RMK AO2 T00540018 $,0,9,0,16090,0,0,0,
2026-04-28 00:35:00,METAR KHCR 280035Z AUTO 36011KT 10SM BKN023 OVC029 06/02 A2992 RMK AO2 T00570017 $,0,11,0,16090,0,0,0,
2026-04-28 00:15:00,METAR KHCR 280015Z AUTO 36008KT 340V060 10SM BKN021 OVC033 06/01 A2992 RMK AO2 CIG 019V025 T00610015 $,0,8,0,16090,0,0,0,
2026-04-27 23:55:00,METAR KHCR 272355Z AUTO 01013KT 10SM BKN026 BKN036 05/01 A2991 RMK AO2 CIG 023V030 60000 T00540015 10074 20053 53010 $,0,13,0,16090,0,0,0,
2026-04-27 23:35:00,METAR KHCR 272335Z AUTO 01011KT 10SM FEW020 BKN030 OVC037 06/02 A2991 RMK AO2 T00570024 $,0,11,0,16090,0,0,0,
2026-04-27 23:15:00,METAR KHCR 272315Z AUTO 30005KT 10SM SCT022 BKN035 BKN075 OVC090 07/02 A2990 RMK AO2 T00670021 $,0,5,0,16090,0,0,0,
2026-04-27 22:55:00,METAR KHCR 272255Z AUTO 00000KT 10SM FEW023 BKN037 BKN055 BKN080 07/03 A2989 RMK AO2 RAE2242 P0000 T00660027 $,0,0,0,16090,0,0,0,RA
2026-04-27 22:35:00,METAR KHCR 272235Z AUTO 22006KT 6SM -RA BKN023 OVC031 06/03 A2989 RMK AO2 P0000 T00610033 $,0,6,0,9654,0,0,0,-RA
2026-04-27 22:15:00,METAR KHCR 272215Z AUTO VRB03KT 9SM -RA FEW016 BKN024 BKN032 OVC039 06/03 A2989 RMK AO2 CIG 021V028 P0000 T00620030 $,0,3,0,14481,0,0,0,-RA
2026-04-27 21:55:00,METAR KHCR 272155Z AUTO 36008KT 7SM -RA SCT017 SCT023 BKN028 OVC040 06/03 A2989 RMK AO2 RAB2144 P0000 T00600033 $,0,8,0,11263,0,0,0,"-RA,RA"
2026-04-27 21:35:00,METAR KHCR 272135Z AUTO 36009KT 340V120 10SM SCT028 BKN041 OVC050 07/03 A2988 RMK AO2 T00670031 $,0,9,0,16090,0,0,0,
2026-04-27 21:15:00,METAR KHCR 272115Z AUTO VRB05KT 10SM SCT021 BKN028 BKN036 OVC055 07/03 A2987 RMK AO2 T00660026 $,0,5,0,16090,0,0,0,
2026-04-27 20:55:00,METAR KHCR 272055Z AUTO 35004KT 10SM FEW014 BKN026 BKN034 BKN041 OVC065 07/03 A2987 RMK AO2 BKN026 V SCT T00690028 56007 $,0,4,0,16090,0,0,0,
2026-04-27 20:35:00,METAR KHCR 272035Z AUTO 26003KT 10SM SCT014 SCT021 BKN027 OVC035 07/04 A2987 RMK AO2 BKN V SCT T00650040 $,0,3,0,16090,0,0,0,
2026-04-27 20:15:00,METAR KHCR 272015Z AUTO 00000KT 9SM BKN020 OVC028 06/04 A2988 RMK AO2 OVC V BKN T00640041 $,0,0,0,14481,0,0,0,VC
2026-04-27 19:55:00,METAR KHCR 271955Z AUTO 25008KT 7SM BKN018 BKN028 OVC037 06/04 A2988 RMK AO2 T00610040 $,0,8,0,11263,0,0,0,
2026-04-27 19:35:00,METAR KHCR 271935Z AUTO 25009KT 10SM BKN021 BKN029 BKN042 OVC050 06/03 A2988 RMK AO2 T00590035 $,0,9,0,16090,0,0,0,
2026-04-27 19:15:00,METAR KHCR 271915Z AUTO 26009KT 10SM BKN024 BKN032 OVC041 06/03 A2988 RMK AO2 T00630026 $,0,9,0,16090,0,0,0,
2026-04-27 18:55:00,METAR KHCR 271855Z AUTO 26005KT 10SM FEW012 BKN022 OVC030 06/03 A2988 RMK AO2 T00610028 $,0,5,0,16090,0,0,0,
2026-04-27 18:35:00,METAR KHCR 271835Z AUTO 26003KT 10SM BKN012 BKN022 BKN027 OVC050 06/03 A2988 RMK AO2 CIG 012V017 T00590027 $,0,3,0,16090,0,0,0,
2026-04-27 18:15:00,METAR KHCR 271815Z AUTO 00000KT 10SM BKN013 OVC055 06/03 A2989 RMK AO2 CIG 010V017 T00600032 $,0,0,0,16090,0,0,0,
2026-04-27 17:55:00,METAR KHCR 271755Z AUTO 00000KT 10SM BKN008 BKN015 OVC034 05/03 A2990 RMK AO2 CIG 008V013 BKN008 V SCT P0001 60005 T00480028 10048 20011 58002 $,0,0,0,16090,0,0,0,
2026-04-27 17:35:00,METAR KHCR 271735Z AUTO 00000KT 8SM BKN008 OVC028 05/03 A2990 RMK AO2 BKN V OVC P0001 T00460029 $,0,0,0,12872,0,0,0,VC
2026-04-27 17:15:00,METAR KHCR 271715Z AUTO 00000KT 7SM OVC007 04/02 A2990 RMK AO2 CIG 006V009 T00380023 $,0,0,0,11263,0,0,0,
2026-04-27 16:55:00,METAR KHCR 271655Z AUTO 00000KT 6SM BR BKN007 OVC024 03/02 A2990 RMK AO2 P0001 T00340020 $,0,0,0,9654,0,0,1,BR
2026-04-27 16:35:00,METAR KHCR 271635Z AUTO 00000KT 7SM BKN006 OVC024 03/02 A2990 RMK AO2 P0001 T00320019 $,0,0,0,11263,0,0,0,
2026-04-27 16:15:00,METAR KHCR 271615Z AUTO 00000KT 9SM OVC006 03/02 A2990 RMK AO2 CIG 005V007 T00290019 $,0,0,0,14481,0,0,0,
2026-04-27 15:55:00,METAR KHCR 271555Z AUTO 00000KT 6SM BR OVC006 03/02 A2990 RMK AO2 UPE1451RAB1451E1506B1524E1548 CIG 006V008 P0002 T00260018 $,0,0,0,9654,0,0,1,"BR,UP"
2026-04-27 15:35:00,METAR KHCR 271535Z AUTO 00000KT 5SM -RA BR OVC006 03/02 A2990 RMK AO2 UPE1451RAB1451E1506B1524 P0001 T00270017 $,0,0,0,8045,0,0,1,"-RA,BR,UP"
2026-04-27 15:15:00,METAR KHCR 271515Z AUTO 00000KT 5SM BR BKN007 BKN012 OVC023 03/02 A2990 RMK AO2 UPE1451RAB1451E1506 P0001 T00270017 $,0,0,0,8045,0,0,1,"BR,UP"
2026-04-27 14:55:00,METAR KHCR 271455Z AUTO 00000KT 4SM UP BR BKN008 OVC016 03/01 A2990 RMK AO2 UPB1402 P0001 60001 T00260012 51013 $,0,0,0,6436,0,0,1,"BR,UP"
2026-04-27 14:35:00,METAR KHCR 271435Z AUTO 00000KT 5SM UP BR OVC008 03/01 A2990 RMK AO2 UPB1402 P0000 T00260013 $,0,0,0,8045,0,0,1,"BR,UP"
2026-04-27 14:15:00,METAR KHCR 271415Z AUTO 11003KT 4SM UP BR BKN009 OVC023 03/02 A2990 RMK AO2 UPB1402 P0000 T00270017 $,0,3,0,6436,0,0,1,"BR,UP"
2026-04-27 13:55:00,METAR KHCR 271355Z AUTO 00000KT 7SM SCT011 OVC022 03/02 A2990 RMK AO2 UPE1315 CIG 021V026 SCT V BKN P0000 T00300020 $,0,0,0,11263,0,0,0,UP
2026-04-27 13:35:00,METAR KHCR 271335Z AUTO 00000KT 8SM BKN012 BKN025 BKN030 OVC039 03/02 A2989 RMK AO2 UPE1315 P0000 T00270019 $,0,0,0,12872,0,0,0,UP
2026-04-27 13:15:00,METAR KHCR 271315Z AUTO 00000KT 6SM BR BKN029 OVC048 03/02 A2988 RMK AO2 UPE1315 P0000 T00250017 $,0,0,0,9654,0,0,1,"BR,UP"
2026-04-27 12:55:00,METAR KHCR 271255Z AUTO 00000KT 6SM UP BR BKN031 BKN050 OVC065 02/01 A2988 RMK AO2 UPB1243 P0000 T00180014 $,0,0,0,9654,0,0,1,"BR,UP"
2026-04-27 12:35:00,METAR KHCR 271235Z AUTO 00000KT 10SM SCT050 OVC065 02/01 A2987 RMK AO2 T00170012 $,0,0,0,16090,0,0,0,
2026-04-27 12:15:00,METAR KHCR 271215Z AUTO 00000KT 10SM BKN060 OVC075 01/01 A2987 RMK AO2 T00150008 $,0,0,0,16090,0,0,0,
2026-04-27 11:55:00,METAR KHCR 271155Z AUTO 00000KT 10SM FEW032 OVC075 01/01 A2986 RMK AO2 70016 T00110008 10035 21011 53003 $,0,0,0,16090,0,0,0,
2026-04-27 11:35:00,METAR KHCR 271135Z AUTO 00000KT 10SM SCT032 OVC080 01/01 A2986 RMK AO2 T00140007 $,0,0,0,16090,0,0,0,
2026-04-27 11:15:00,METAR KHCR 271115Z AUTO 00000KT 10SM BKN080 01/01 A2986 RMK AO2 T00130008 $,0,0,0,16090,0,0,0,
2026-04-27 10:55:00,METAR KHCR 271055Z AUTO 00000KT 10SM BKN080 01/01 A2986 RMK AO2 T00090005 $,0,0,0,16090,0,0,0,
2026-04-27 10:35:00,METAR KHCR 271035Z AUTO 00000KT 10SM BKN085 BKN110 01/00 A2985 RMK AO2 T00070003 $,0,0,0,16090,0,0,0,
2026-04-27 10:15:00,METAR KHCR 271015Z AUTO 00000KT 10SM FEW085 SCT110 00/M00 A2985 RMK AO2 T00021003 $,0,0,0,16090,0,0,0,
2026-04-27 09:55:00,METAR KHCR 270955Z AUTO 00000KT 10SM SCT100 00/M00 A2984 RMK AO2 T00031003 $,0,0,0,16090,0,0,0,
2026-04-27 09:35:00,METAR KHCR 270935Z AUTO 10003KT 10SM BKN100 00/M00 A2985 RMK AO2 T00011004 $,0,3,0,16090,0,0,0,
2026-04-27 09:15:00,METAR KHCR 270915Z AUTO 10003KT 10SM CLR M00/M01 A2985 RMK AO2 T10031009 $,0,3,0,16090,0,0,0,
2026-04-27 08:55:00,METAR KHCR 270855Z AUTO 11004KT 10SM CLR M01/M01 A2985 RMK AO2 T10071011 50008 $,0,4,0,16090,0,0,0,
2026-04-27 08:35:00,METAR KHCR 270835Z AUTO 00000KT 10SM FEW130 00/M00 A2985 RMK AO2 T00011002 $,0,0,0,16090,0,0,0,
2026-04-27 08:15:00,METAR KHCR 270815Z AUTO 00000KT 10SM SCT130 M00/M00 A2985 RMK AO2 T10011005 $,0,0,0,16090,0,0,0,
2026-04-27 07:55:00,METAR KHCR 270755Z AUTO 10003KT 10SM CLR 01/M00 A2985 RMK AO2 T00051003 $,0,3,0,16090,0,0,0,
2026-04-27 07:35:00,METAR KHCR 270735Z AUTO 12003KT 10SM FEW031 01/00 A2985 RMK AO2 T00130004 $,0,3,0,16090,0,0,0,
2026-04-27 07:15:00,METAR KHCR 270715Z AUTO 00000KT 10SM FEW018 SCT031 01/00 A2986 RMK AO2 T00120002 $,0,0,0,16090,0,0,0,
2026-04-27 06:55:00,METAR KHCR 270655Z AUTO 00000KT 10SM CLR 01/01 A2984 RMK AO2 T00120006 401030012 $,0,0,0,16090,0,0,0,
2026-04-27 06:35:00,METAR KHCR 270635Z AUTO 00000KT 10SM CLR 02/01 A2984 RMK AO2 T00190008 $,0,0,0,16090,0,0,0,
2026-04-27 06:15:00,METAR KHCR 270615Z AUTO 28003KT 10SM FEW031 03/01 A2983 RMK AO2 T00320011 $,0,3,0,16090,0,0,0,
2026-04-27 05:55:00,METAR KHCR 270555Z AUTO 14003KT 10SM FEW021 SCT030 03/01 A2982 RMK AO2 T00270009 10066 20016 51016 $,0,3,0,16090,0,0,0,
2026-04-27 05:35:00,METAR KHCR 270535Z AUTO 14003KT 10SM FEW021 SCT029 02/01 A2982 RMK AO2 FEW V SCT T00220006 $,0,3,0,16090,0,0,0,
2026-04-27 05:15:00,METAR KHCR 270515Z AUTO 00000KT 10SM FEW029 02/01 A2981 RMK AO2 T00200008 $,0,0,0,16090,0,0,0,
2026-04-27 04:55:00,METAR KHCR 270455Z AUTO 00000KT 10SM SCT029 SCT080 03/02 A2981 RMK AO2 T00310015 $,0,0,0,16090,0,0,0,
2026-04-27 04:35:00,METAR KHCR 270435Z AUTO 00000KT 10SM CLR 04/02 A2980 RMK AO2 T00410015 $,0,0,0,16090,0,0,0,
2026-04-27 04:15:00,METAR KHCR 270415Z AUTO 00000KT 10SM SCT030 BKN041 BKN065 04/02 A2980 RMK AO2 T00430017 $,0,0,0,16090,0,0,0,
2026-04-27 03:55:00,METAR KHCR 270355Z AUTO 00000KT 10SM BKN029 BKN043 OVC090 05/02 A2979 RMK AO2 CIG 028V033 T00450020 $,0,0,0,16090,0,0,0,
2026-04-27 03:35:00,METAR KHCR 270335Z AUTO 00000KT 10SM SCT029 05/02 A2979 RMK AO2 SCT V BKN T00480019 $,0,0,0,16090,0,0,0,
2026-04-27 03:15:00,METAR KHCR 270315Z AUTO 00000KT 10SM FEW049 SCT075 05/02 A2978 RMK AO2 T00480022 $,0,0,0,16090,0,0,0,
2026-04-27 02:55:00,METAR KHCR 270255Z AUTO 22005KT 10SM BKN029 BKN049 OVC060 06/02 A2977 RMK AO2 T00560022 53024 $,0,5,0,16090,0,0,0,
2026-04-27 02:35:00,METAR KHCR 270235Z AUTO 22005KT 10SM BKN031 OVC050 06/02 A2976 RMK AO2 T00570023 $,0,5,0,16090,0,0,0,
2026-04-27 02:15:00,METAR KHCR 270215Z AUTO 27006KT 10SM SCT033 OVC050 06/03 A2975 RMK AO2 T00580026 $,0,6,0,16090,0,0,0,
2026-04-27 01:55:00,METAR KHCR 270155Z AUTO 24008KT 10SM SCT035 BKN055 OVC100 06/03 A2973 RMK AO2 T00600029 $,0,8,0,16090,0,0,0,
2026-04-27 01:35:00,METAR KHCR 270135Z AUTO 24008KT 10SM FEW037 SCT060 BKN070 OVC090 06/03 A2972 RMK AO2 T00600032 $,0,8,0,16090,0,0,0,
2026-04-27 01:15:00,METAR KHCR 270115Z AUTO 24007KT 10SM FEW048 OVC080 06/03 A2971 RMK AO2 T00590026 $,0,7,0,16090,0,0,0,
2026-04-27 00:55:00,METAR KHCR 270055Z AUTO 23007KT 10SM FEW047 SCT060 BKN075 OVC090 06/03 A2971 RMK AO2 T00620029 $,0,7,0,16090,0,0,0,
2026-04-27 00:35:00,METAR KHCR 270035Z AUTO 23010KT 10SM FEW047 BKN070 OVC090 07/03 A2970 RMK AO2 T00660033 $,0,10,0,16090,0,0,0,
2026-04-27 00:15:00,METAR KHCR 270015Z AUTO VRB06KT 10SM FEW035 SCT046 BKN065 OVC080 06/03 A2970 RMK AO2 T00620030 $,0,6,0,16090,0,0,0,
2026-04-26 23:55:00,METAR KHCR 262355Z AUTO 22009KT 10SM SCT034 OVC049 06/03 A2968 RMK AO2 60006 T00620035 10092 20060 53017 $,0,9,0,16090,0,0,0,
2026-04-26 23:35:00,METAR KHCR 262335Z AUTO 23009KT 10SM SCT033 BKN044 OVC060 07/03 A2968 RMK AO2 LTG DSNT NE AND SE T00720032 $,0,9,0,16090,0,0,0,DS
2026-04-26 23:15:00,METAR KHCR 262315Z AUTO 23013KT 10SM VCTS FEW036 SCT044 BKN060 BKN075 07/03 A2966 RMK AO2 T00740033 $,0,13,0,16090,1,0,0,"TS,VC"
2026-04-26 22:55:00,METAR KHCR 262255Z AUTO 23010KT 10SM SCT027 SCT150 07/04 A2965 RMK AO2 LTG DSNT NE AND SE T00710039 $,0,10,0,16090,0,0,0,DS
2026-04-26 22:35:00,METAR KHCR 262235Z AUTO 23009G17KT 10SM BKN027 BKN041 OVC085 07/04 A2964 RMK AO2 T00670038 $,0,9,1,16090,0,0,0,
2026-04-26 22:15:00,METAR KHCR 262215Z AUTO 23015G19KT 9SM BKN030 BKN041 OVC090 07/03 A2964 RMK AO2 T00650035 $,0,15,1,14481,0,0,0,
2026-04-26 21:55:00,METAR KHCR 262155Z AUTO 22016G20KT 8SM FEW022 OVC038 08/04 A2964 RMK AO2 LTG DSNT NE P0002 T00760040 $,0,16,1,12872,0,0,0,DS
2026-04-26 21:35:00,METAR KHCR 262135Z AUTO 22015G21KT 10SM FEW003 BKN022 BKN034 OVC044 07/04 A2964 RMK AO2 LTG DSNT NE BKN022 V SCT P0002 T00720039 $,0,15,1,16090,0,0,0,DS
2026-04-26 21:15:00,METAR KHCR 262115Z AUTO 24010KT 7SM SCT003 SCT011 SCT022 BKN036 07/04 A2964 RMK AO2 SCT022 V BKN P0001 T00650041 $,0,10,0,11263,0,0,0,
2026-04-26 20:55:00,METAR KHCR 262055Z AUTO 21010G17KT 10SM FEW021 SCT044 09/04 A2962 RMK AO2 PK WND 22027/1953 LTG DSNT NE RAB1951E2011 P0001 60004 T00850044 52006 $,0,10,1,16090,0,0,0,"DS,RA"
2026-04-26 20:35:00,METAR KHCR 262035Z AUTO 22013KT 10SM FEW019 BKN038 BKN085 07/04 A2963 RMK AO2 PK WND 22027/1953 LTG DSNT SE RAB1951E2011 P0001 T00740041 $,0,13,0,16090,0,0,0,"DS,RA"
2026-04-26 20:15:00,METAR KHCR 262015Z AUTO 23011KT 7SM SCT021 OVC036 06/04 A2962 RMK AO2 PK WND 22027/1953 LTG DSNT SE RAB1951E2011 P0001 T00650037 $,0,11,0,11263,0,0,0,"DS,RA"
2026-04-26 19:55:00,METAR KHCR 261955Z AUTO 23016G21KT 7SM FEW006 SCT022 BKN029 BKN042 OVC100 07/04 A2962 RMK AO2 RAE1853 FEW V SCT P0002 T00680041 $,0,16,1,11263,0,0,0,RA
2026-04-26 19:35:00,METAR KHCR 261935Z AUTO 21003KT 9SM FEW006 SCT022 BKN032 BKN046 OVC100 07/04 A2960 RMK AO2 RAE1853 FEW V SCT P0001 T00730041 $,0,3,0,14481,0,0,0,RA
2026-04-26 19:15:00,METAR KHCR 261915Z AUTO 26011KT 7SM FEW021 BKN036 07/05 A2961 RMK AO2 LTG DSNT NE AND SE AND S RAE1853 P0000 T00730047 $,0,11,0,11263,0,0,0,"DS,RA"
2026-04-26 18:55:00,METAR KHCR 261855Z AUTO 22006KT 7SM -RA FEW002 SCT026 BKN035 BKN050 OVC085 07/04 A2960 RMK AO2 RAB1840 FEW V SCT P0001 T00730044 $,0,6,0,11263,0,0,0,"-RA,RA"
2026-04-26 18:35:00,METAR KHCR 261835Z AUTO 27008KT 10SM BKN030 BKN036 OVC047 09/03 A2960 RMK AO2 LTG DSNT SE AND S T00910035 $,0,8,0,16090,0,0,0,DS
2026-04-26 18:15:00,METAR KHCR 261815Z AUTO 00000KT 10SM BKN029 OVC038 09/03 A2960 RMK AO2 CIG 025V032 BKN V OVC T00890030 $,0,0,0,16090,0,0,0,VC
2026-04-26 17:55:00,METAR KHCR 261755Z AUTO 00000KT 10SM SCT024 BKN029 BKN039 OVC100 08/03 A2960 RMK AO2 LTG DSNT SE 60010 T00810026 10087 20047 56006 $,0,0,0,16090,0,0,0,DS
2026-04-26 17:35:00,METAR KHCR 261735Z AUTO 00000KT 10SM FEW025 SCT041 OVC100 08/04 A2961 RMK AO2 LTG DSNT SE AND S T00840035 $,0,0,0,16090,0,0,0,DS
2026-04-26 17:15:00,METAR KHCR 261715Z AUTO 14005KT 10SM FEW034 SCT040 BKN095 07/04 A2961 RMK AO2 T00720041 $,0,5,0,16090,0,0,0,
2026-04-26 16:55:00,METAR KHCR 261655Z AUTO 18005KT 6SM HZ FEW003 OVC031 06/03 A2962 RMK AO2 P0003 T00570035 $,0,5,0,9654,0,0,0,
2026-04-26 16:35:00,METAR KHCR 261635Z AUTO 23010KT 6SM BR FEW003 SCT018 OVC035 06/04 A2962 RMK AO2 FEW V SCT P0002 T00570037 $,0,10,0,9654,0,0,1,BR
2026-04-26 16:15:00,METAR KHCR 261615Z AUTO 25010KT 9SM FEW008 SCT020 OVC044 06/04 A2961 RMK AO2 FEW V SCT T00600043 $,0,10,0,14481,0,0,0,
2026-04-26 15:55:00,METAR KHCR 261555Z AUTO 25004KT 9SM SCT009 BKN020 OVC049 05/04 A2960 RMK AO2 RAE1544 P0001 T00530036 $,0,4,0,14481,0,0,0,RA
2026-04-26 15:35:00,METAR KHCR 261535Z AUTO 30005KT 7SM -RA SCT008 BKN019 OVC046 05/04 A2961 RMK AO2 P0001 T00530036 $,0,5,0,11263,0,0,0,-RA
2026-04-26 15:15:00,METAR KHCR 261515Z AUTO 30006KT 6SM -RA BR SCT008 BKN023 OVC034 05/04 A2961 RMK AO2 P0000 T00530041 $,0,6,0,9654,0,0,1,"-RA,BR"
2026-04-26 14:55:00,METAR KHCR 261455Z AUTO 27004KT 7SM -RA OVC022 05/04 A2962 RMK AO2 CIG 017V026 P0001 60006 T00540043 57004 $,0,4,0,11263,0,0,0,-RA
2026-04-26 14:35:00,METAR KHCR 261435Z AUTO 00000KT 7SM -RA OVC022 06/04 A2962 RMK AO2 P0001 T00550035 $,0,0,0,11263,0,0,0,-RA
2026-04-26 14:15:00,METAR KHCR 261415Z AUTO VRB03KT 6SM -RA BR BKN025 BKN033 OVC040 05/04 A2963 RMK AO2 P0000 T00540035 $,0,3,0,9654,0,0,1,"-RA,BR"
2026-04-26 13:55:00,METAR KHCR 261355Z AUTO 29003KT 6SM -RA BR SCT020 BKN027 OVC034 05/04 A2963 RMK AO2 RAB1251 P0004 T00490037 $,0,3,0,9654,0,0,1,"-RA,BR,RA"
2026-04-26 13:35:00,METAR KHCR 261335Z AUTO 27003KT 6SM -RA BR BKN020 OVC029 05/04 A2963 RMK AO2 RAB1251 P0003 T00470040 $,0,3,0,9654,0,0,1,"-RA,BR,RA"
2026-04-26 13:15:00,METAR KHCR 261315Z AUTO 00000KT 3SM -RA BR FEW005 SCT010 BKN020 OVC031 05/04 A2963 RMK AO2 VIS 2V5 RAB1251 FEW V SCT P0002 T00480045 $,0,0,0,4827,0,0,1,"-RA,BR,RA"
2026-04-26 12:55:00,METAR KHCR 261255Z AUTO 29003KT 7SM BKN014 BKN020 OVC025 05/04 A2963 RMK AO2 RAE1246 CIG 011V017 P0001 T00480044 $,0,3,0,11263,0,0,0,RA
2026-04-26 12:35:00,METAR KHCR 261235Z AUTO 31003KT 7SM -RA SCT016 OVC023 05/04 A2962 RMK AO2 CIG 021V026 P0001 T00490045 $,0,3,0,11263,0,0,0,-RA
2026-04-26 12:15:00,METAR KHCR 261215Z AUTO 05004KT 7SM -RA FEW013 OVC024 05/04 A2963 RMK AO2 P0001 T00500036 $,0,4,0,11263,0,0,0,-RA
2026-04-26 11:55:00,METAR KHCR 261155Z AUTO 00000KT 7SM -RA OVC025 05/03 A2964 RMK AO2 P0002 60004 70004 T00520034 10112 20047 56014 $,0,0,0,11263,0,0,0,-RA
2026-04-26 11:35:00,METAR KHCR 261135Z AUTO 12004KT 7SM -RA SCT018 OVC025 05/04 A2964 RMK AO2 P0002 T00480038 $,0,4,0,11263,0,0,0,-RA
2026-04-26 11:15:00,METAR KHCR 261115Z AUTO 00000KT 7SM -RA SCT007 OVC020 05/04 A2965 RMK AO2 CIG 018V024 P0001 T00510037 $,0,0,0,11263,0,0,0,-RA
2026-04-26 10:55:00,METAR KHCR 261055Z AUTO 00000KT 7SM -RA SCT008 BKN025 OVC036 05/05 A2965 RMK AO2 P0002 T00540045 $,0,0,0,11263,0,0,0,-RA
2026-04-26 10:35:00,METAR KHCR 261035Z AUTO 03003KT 7SM -RA FEW010 BKN025 OVC036 05/04 A2966 RMK AO2 P0002 T00540044 $,0,3,0,11263,0,0,0,-RA
2026-04-26 10:15:00,METAR KHCR 261015Z AUTO 36003KT 6SM -RA BR FEW010 BKN026 OVC034 06/04 A2966 RMK AO2 P0001 T00570039 $,0,3,0,9654,0,0,1,"-RA,BR"
2026-04-26 09:55:00,METAR KHCR 260955Z AUTO 00000KT 8SM -RA FEW026 OVC036 06/03 A2966 RMK AO2 P0000 T00600029 $,0,0,0,12872,0,0,0,-RA
2026-04-26 09:35:00,METAR KHCR 260935Z AUTO 03004KT 8SM -RA OVC036 06/03 A2967 RMK AO2 P0000 T00570032 $,0,4,0,12872,0,0,0,-RA
2026-04-26 09:15:00,METAR KHCR 260915Z AUTO 00000KT 7SM -RA OVC034 06/03 A2967 RMK AO2 P0000 T00560033 $,0,0,0,11263,0,0,0,-RA
2026-04-26 08:55:00,METAR KHCR 260855Z AUTO 18006KT 9SM -RA BKN030 BKN042 OVC049 06/03 A2969 RMK AO2 RAE0758B0814E0834B0850 P0000 60000 T00640029 50003 $,0,6,0,14481,0,0,0,"-RA,RA"
2026-04-26 08:35:00,METAR KHCR 260835Z AUTO 17007KT 10SM SCT025 OVC048 07/03 A2969 RMK AO2 RAE0758B0814E0834 P0000 T00670026 $,0,7,0,16090,0,0,0,RA
2026-04-26 08:15:00,METAR KHCR 260815Z AUTO 18010KT 10SM -RA OVC050 07/02 A2969 RMK AO2 RAE0758B0814 P0000 T00750020 $,0,10,0,16090,0,0,0,"-RA,RA"
2026-04-26 07:55:00,METAR KHCR 260755Z AUTO 19009KT 160V220 9SM -RA BKN047 09/01 A2969 RMK AO2 RAB0741 P0000 T00890007 $,0,9,0,14481,0,0,0,"-RA,RA"
2026-04-26 07:35:00,METAR KHCR 260735Z AUTO 17009KT 10SM SCT049 SCT060 09/00 A2970 RMK AO2 T00940001 $,0,9,0,16090,0,0,0,
2026-04-26 07:15:00,METAR KHCR 260715Z AUTO 20008KT 10SM BKN055 OVC070 10/M00 A2969 RMK AO2 T01011005 $,0,8,0,16090,0,0,0,
2026-04-26 06:55:00,METAR KHCR 260655Z AUTO 25009KT 10SM FEW049 BKN070 11/M01 A2968 RMK AO2 T01061011 401681040 $,0,9,0,16090,0,0,0,
2026-04-26 06:35:00,METAR KHCR 260635Z AUTO 22005KT 10SM FEW060 BKN075 10/M03 A2967 RMK AO2 T01011027 $,0,5,0,16090,0,0,0,
2026-04-26 06:15:00,METAR KHCR 260615Z AUTO 29005KT 10SM OVC080 11/M03 A2967 RMK AO2 T01051034 $,0,5,0,16090,0,0,0,
2026-04-26 05:55:00,METAR KHCR 260555Z AUTO 00000KT 10SM BKN080 09/M03 A2968 RMK AO2 T00911031 10151 20076 58003 $,0,0,0,16090,0,0,0,
2026-04-26 05:35:00,METAR KHCR 260535Z AUTO 00000KT 10SM BKN085 09/M03 A2968 RMK AO2 T00911031 $,0,0,0,16090,0,0,0,
2026-04-26 05:15:00,METAR KHCR 260515Z AUTO 00000KT 10SM BKN090 09/M03 A2968 RMK AO2 T00931029 $,0,0,0,16090,0,0,0,
2026-04-26 04:55:00,METAR KHCR 260455Z AUTO 32003KT 10SM OVC090 10/M04 A2968 RMK AO2 T01041041 $,0,3,0,16090,0,0,0,
2026-04-26 04:35:00,METAR KHCR 260435Z AUTO 35004KT 10SM OVC090 10/M04 A2969 RMK AO2 T00971035 $,0,4,0,16090,0,0,0,
2026-04-26 04:15:00,METAR KHCR 260415Z AUTO VRB04KT 10SM OVC090 12/M05 A2969 RMK AO2 T01181048 $,0,4,0,16090,0,0,0,
2026-04-26 03:55:00,METAR KHCR 260355Z AUTO 00000KT 10SM BKN095 OVC150 10/M04 A2969 RMK AO2 T01021040 $,0,0,0,16090,0,0,0,
2026-04-26 03:35:00,METAR KHCR 260335Z AUTO 00000KT 10SM BKN150 10/M04 A2969 RMK AO2 T00951035 $,0,0,0,16090,0,0,0,
2026-04-26 03:15:00,METAR KHCR 260315Z AUTO 13003KT 10SM SCT150 09/M03 A2969 RMK AO2 T00911033 $,0,3,0,16090,0,0,0,
2026-04-26 02:55:00,METAR KHCR 260255Z AUTO 15003KT 10SM CLR 09/M03 A2969 RMK AO2 T00871027 55009 $,0,3,0,16090,0,0,0,
2026-04-26 02:35:00,METAR KHCR 260235Z AUTO 12005KT 10SM CLR 08/M02 A2968 RMK AO2 T00791019 $,0,5,0,16090,0,0,0,
2026-04-26 02:15:00,METAR KHCR 260215Z AUTO 16003KT 10SM FEW150 11/M04 A2968 RMK AO2 T01081040 $,0,3,0,16090,0,0,0,
2026-04-26 01:55:00,METAR KHCR 260155Z AUTO 00000KT 10SM CLR 13/M05 A2968 RMK AO2 T01281051 $,0,0,0,16090,0,0,0,
2026-04-26 01:35:00,METAR KHCR 260135Z AUTO 24003KT 10SM SCT130 13/M04 A2969 RMK AO2 T01281041 $,0,3,0,16090,0,0,0,
2026-04-26 01:15:00,METAR KHCR 260115Z AUTO 24005KT 10SM SCT100 BKN130 14/M05 A2969 RMK AO2 T01351051 $,0,5,0,16090,0,0,0,
2026-04-26 00:55:00,METAR KHCR 260055Z AUTO 23004KT 10SM SCT090 14/M05 A2970 RMK AO2 T01411055 $,0,4,0,16090,0,0,0,
2026-04-26 00:35:00,METAR KHCR 260035Z AUTO 22005KT 10SM FEW130 14/M06 A2970 RMK AO2 T01431060 $,0,5,0,16090,0,0,0,
2026-04-26 00:15:00,METAR KHCR 260015Z AUTO 24006KT 10SM FEW100 15/M07 A2971 RMK AO2 T01481065 $,0,6,0,16090,0,0,0,
2026-04-25 23:55:00,METAR KHCR 252355Z AUTO 22008KT 10SM FEW100 SCT130 15/M06 A2971 RMK AO2 T01511065 10168 20113 56012 $,0,8,0,16090,0,0,0,
2026-04-25 23:35:00,METAR KHCR 252335Z AUTO 22006KT 10SM BKN100 15/M06 A2972 RMK AO2 T01521060 $,0,6,0,16090,0,0,0,
2026-04-25 23:15:00,METAR KHCR 252315Z AUTO 20007KT 170V240 10SM BKN095 16/M07 A2972 RMK AO2 T01561068 $,0,7,0,16090,0,0,0,
2026-04-25 22:55:00,METAR KHCR 252255Z AUTO 21007KT 10SM FEW340 16/M07 A2973 RMK AO2 T01561072 $,0,7,0,16090,0,0,0,
2026-04-25 22:35:00,METAR KHCR 252235Z AUTO 22010KT 10SM FEW360 16/M07 A2973 RMK AO2 T01571073 $,0,10,0,16090,0,0,0,
2026-04-25 22:15:00,METAR KHCR 252215Z AUTO 22011KT 10SM CLR 16/M08 A2973 RMK AO2 T01591079 $,0,11,0,16090,0,0,0,
2026-04-25 21:55:00,METAR KHCR 252155Z AUTO 21011G22KT 180V250 10SM CLR 16/M09 A2975 RMK AO2 T01561087 $,0,11,1,16090,0,0,0,
2026-04-25 21:35:00,METAR KHCR 252135Z AUTO 23013KT 10SM CLR 16/M09 A2975 RMK AO2 T01631090 $,0,13,0,16090,0,0,0,
2026-04-25 21:15:00,METAR KHCR 252115Z AUTO 23016G23KT 10SM FEW100 17/M08 A2976 RMK AO2 T01651084 $,0,16,1,16090,0,0,0,
2026-04-25 20:55:00,METAR KHCR 252055Z AUTO 23011G19KT 10SM SCT095 BKN180 17/M07 A2976 RMK AO2 T01661074 56017 $,0,11,1,16090,0,0,0,
2026-04-25 20:35:00,METAR KHCR 252035Z AUTO 21010KT 10SM BKN095 15/M07 A2976 RMK AO2 T01531074 $,0,10,0,16090,0,0,0,
2026-04-25 20:15:00,METAR KHCR 252015Z AUTO 23009KT 10SM FEW095 16/M06 A2976 RMK AO2 T01561064 $,0,9,0,16090,0,0,0,
2026-04-25 19:55:00,METAR KHCR 251955Z AUTO 23008KT 10SM SCT100 15/M05 A2977 RMK AO2 T01461054 $,0,8,0,16090,0,0,0,
2026-04-25 19:35:00,METAR KHCR 251935Z AUTO 22008KT 10SM BKN100 14/M06 A2978 RMK AO2 T01401057 $,0,8,0,16090,0,0,0,
2026-04-25 19:15:00,METAR KHCR 251915Z AUTO 25009KT 10SM BKN100 BKN120 15/M05 A2979 RMK AO2 T01471049 $,0,9,0,16090,0,0,0,
2026-04-25 18:55:00,METAR KHCR 251855Z AUTO 27011KT 10SM BKN120 14/M05 A2979 RMK AO2 T01351046 $,0,11,0,16090,0,0,0,
2026-04-25 18:35:00,METAR KHCR 251835Z AUTO 26010KT 10SM SCT110 14/M04 A2980 RMK AO2 T01361038 $,0,10,0,16090,0,0,0,
2026-04-25 18:15:00,METAR KHCR 251815Z AUTO VRB03KT 10SM BKN095 13/M03 A2981 RMK AO2 T01291031 $,0,3,0,16090,0,0,0,
2026-04-25 17:55:00,METAR KHCR 251755Z AUTO 29005KT 10SM OVC090 11/M02 A2982 RMK AO2 T01111018 10111 21040 58014 $,0,5,0,16090,0,0,0,
2026-04-25 17:35:00,METAR KHCR 251735Z AUTO 00000KT 10SM BKN095 10/M02 A2983 RMK AO2 T01001024 $,0,0,0,16090,0,0,0,
2026-04-25 17:15:00,METAR KHCR 251715Z AUTO 00000KT 10SM BKN095 09/M03 A2983 RMK AO2 T00931030 $,0,0,0,16090,0,0,0,
2026-04-25 16:55:00,METAR KHCR 251655Z AUTO 00000KT 10SM OVC090 08/M04 A2984 RMK AO2 T00831039 $,0,0,0,16090,0,0,0,
2026-04-25 16:35:00,METAR KHCR 251635Z AUTO 00000KT 10SM OVC090 08/M04 A2984 RMK AO2 T00761039 $,0,0,0,16090,0,0,0,
2026-04-25 16:15:00,METAR KHCR 251615Z AUTO 00000KT 10SM OVC090 06/M04 A2985 RMK AO2 T00631041 $,0,0,0,16090,0,0,0,
2026-04-25 15:55:00,METAR KHCR 251555Z AUTO 00000KT 10SM OVC090 05/M04 A2986 RMK AO2 T00521043 $,0,0,0,16090,0,0,0,
2026-04-25 15:35:00,METAR KHCR 251535Z AUTO 00000KT 10SM BKN095 05/M04 A2986 RMK AO2 T00461037 $,0,0,0,16090,0,0,0,
2026-04-25 15:15:00,METAR KHCR 251515Z AUTO 00000KT 10SM CLR 04/M04 A2986 RMK AO2 T00381043 $,0,0,0,16090,0,0,0,
2026-04-25 14:55:00,METAR KHCR 251455Z AUTO 00000KT 10SM CLR 03/M04 A2987 RMK AO2 T00281042 52005 $,0,0,0,16090,0,0,0,
2026-04-25 14:35:00,METAR KHCR 251435Z AUTO 00000KT 10SM CLR 02/M04 A2986 RMK AO2 T00211043 $,0,0,0,16090,0,0,0,
2026-04-25 14:15:00,METAR KHCR 251415Z AUTO 00000KT 10SM CLR 01/M04 A2986 RMK AO2 T00111038 $,0,0,0,16090,0,0,0,
2026-04-25 13:55:00,METAR KHCR 251355Z AUTO 00000KT 10SM CLR 01/M05 A2985 RMK AO2 T00061048 $,0,0,0,16090,0,0,0,
2026-04-25 13:35:00,METAR KHCR 251335Z AUTO 00000KT 10SM CLR M01/M05 A2986 RMK AO2 T10061048 $,0,0,0,16090,0,0,0,
2026-04-25 13:15:00,METAR KHCR 251315Z AUTO 12003KT 10SM CLR M02/M06 A2986 RMK AO2 T10221059 $,0,3,0,16090,0,0,0,
2026-04-25 12:55:00,METAR KHCR 251255Z AUTO 12004KT 10SM BKN100 M04/M07 A2986 RMK AO2 T10401067 $,0,4,0,16090,0,0,0,
2026-04-25 12:35:00,METAR KHCR 251235Z AUTO 12004KT 10SM SCT095 M03/M06 A2986 RMK AO2 T10331064 $,0,4,0,16090,0,0,0,
2026-04-25 12:15:00,METAR KHCR 251215Z AUTO 00000KT 10SM CLR M03/M06 A2985 RMK AO2 T10321064 $,0,0,0,16090,0,0,0,
2026-04-25 11:55:00,METAR KHCR 251155Z AUTO 00000KT 10SM CLR M04/M07 A2985 RMK AO2 T10361067 10055 21039 52003 $,0,0,0,16090,0,0,0,
2026-04-25 11:35:00,METAR KHCR 251135Z AUTO 00000KT 10SM CLR M03/M07 A2985 RMK AO2 T10311065 $,0,0,0,16090,0,0,0,
2026-04-25 11:15:00,METAR KHCR 251115Z AUTO 00000KT 10SM CLR M02/M06 A2985 RMK AO2 T10211061 $,0,0,0,16090,0,0,0,
2026-04-25 10:55:00,METAR KHCR 251055Z AUTO 14003KT 10SM CLR M02/M06 A2985 RMK AO2 T10241060 $,0,3,0,16090,0,0,0,
2026-04-25 10:35:00,METAR KHCR 251035Z AUTO 00000KT 10SM CLR M00/M05 A2985 RMK AO2 T10021055 $,0,0,0,16090,0,0,0,
2026-04-25 10:15:00,METAR KHCR 251015Z AUTO 18004KT 10SM CLR 01/M05 A2985 RMK AO2 T00071054 $,0,4,0,16090,0,0,0,
2026-04-25 09:55:00,METAR KHCR 250955Z AUTO 00000KT 10SM SCT095 01/M05 A2984 RMK AO2 T00121052 $,0,0,0,16090,0,0,0,
2026-04-25 09:35:00,METAR KHCR 250935Z AUTO 00000KT 10SM SCT095 01/M05 A2984 RMK AO2 T00111052 $,0,0,0,16090,0,0,0,
2026-04-25 09:15:00,METAR KHCR 250915Z AUTO 35005KT 10SM CLR 02/M05 A2983 RMK AO2 T00161051 $,0,5,0,16090,0,0,0,
2026-04-25 08:55:00,METAR KHCR 250855Z AUTO 35004KT 10SM CLR 03/M05 A2984 RMK AO2 T00271054 50006 $,0,4,0,16090,0,0,0,
2026-04-25 08:35:00,METAR KHCR 250835Z AUTO 36004KT 10SM CLR 03/M05 A2984 RMK AO2 T00271053 $,0,4,0,16090,0,0,0,
2026-04-25 08:15:00,METAR KHCR 250815Z AUTO 00000KT 10SM FEW110 03/M05 A2984 RMK AO2 T00341052 $,0,0,0,16090,0,0,0,
2026-04-25 07:55:00,METAR KHCR 250755Z AUTO 13005KT 10SM SCT110 03/M05 A2984 RMK AO2 T00251047 $,0,5,0,16090,0,0,0,
2026-04-25 07:35:00,METAR KHCR 250735Z AUTO 13006KT 10SM CLR 03/M05 A2984 RMK AO2 T00271047 $,0,6,0,16090,0,0,0,
2026-04-25 07:15:00,METAR KHCR 250715Z AUTO 12007KT 10SM CLR 02/M05 A2984 RMK AO2 T00211046 $,0,7,0,16090,0,0,0,
2026-04-25 06:55:00,METAR KHCR 250655Z AUTO 00000KT 10SM CLR 04/M04 A2984 RMK AO2 T00361044 401751058 $,0,0,0,16090,0,0,0,
2026-04-25 06:35:00,METAR KHCR 250635Z AUTO 00000KT 10SM CLR 06/M05 A2983 RMK AO2 T00551050 $,0,0,0,16090,0,0,0,
2026-04-25 06:15:00,METAR KHCR 250615Z AUTO 00000KT 10SM CLR 05/M05 A2982 RMK AO2 T00531050 $,0,0,0,16090,0,0,0,
2026-04-25 05:55:00,METAR KHCR 250555Z AUTO 00000KT 10SM CLR 05/M04 A2982 RMK AO2 T00531040 10159 20041 51026 $,0,0,0,16090,0,0,0,
2026-04-25 05:35:00,METAR KHCR 250535Z AUTO 12007KT 10SM FEW110 04/M03 A2981 RMK AO2 T00421033 $,0,7,0,16090,0,0,0,
2026-04-25 05:15:00,METAR KHCR 250515Z AUTO 06003KT 10SM SCT110 07/M04 A2980 RMK AO2 T00691037 $,0,3,0,16090,0,0,0,
2026-04-25 04:55:00,METAR KHCR 250455Z AUTO VRB06KT 10SM BKN120 08/M04 A2981 RMK AO2 T00831039 $,0,6,0,16090,0,0,0,
2026-04-25 04:35:00,METAR KHCR 250435Z AUTO 09005G16KT 050V120 10SM FEW120 08/M04 A2980 RMK AO2 T00831039 $,0,5,1,16090,0,0,0,
2026-04-25 04:15:00,METAR KHCR 250415Z AUTO 08013G16KT 10SM FEW120 09/M04 A2978 RMK AO2 T00931040 $,0,13,1,16090,0,0,0,
2026-04-25 03:55:00,METAR KHCR 250355Z AUTO 07009KT 10SM BKN120 10/M04 A2977 RMK AO2 T01001037 $,0,9,0,16090,0,0,0,
2026-04-25 03:35:00,METAR KHCR 250335Z AUTO 03011KT 350V060 10SM FEW120 09/M04 A2976 RMK AO2 T00931042 $,0,11,0,16090,0,0,0,
2026-04-25 03:15:00,METAR KHCR 250315Z AUTO 00000KT 10SM SCT120 10/M05 A2975 RMK AO2 T01031046 $,0,0,0,16090,0,0,0,
2026-04-25 02:55:00,METAR KHCR 250255Z AUTO 05007KT 10SM OVC120 11/M04 A2973 RMK AO2 T01111044 53006 $,0,7,0,16090,0,0,0,
2026-04-25 02:35:00,METAR KHCR 250235Z AUTO 02007KT 8SM BKN120 10/M04 A2972 RMK AO2 T01051043 $,0,7,0,12872,0,0,0,
2026-04-25 02:15:00,METAR KHCR 250215Z AUTO 00000KT 9SM CLR 12/M07 A2971 RMK AO2 T01181068 $,0,0,0,14481,0,0,0,
2026-04-25 01:55:00,METAR KHCR 250155Z AUTO 24005KT 9SM CLR 13/M07 A2970 RMK AO2 T01301066 $,0,5,0,14481,0,0,0,
2026-04-25 01:35:00,METAR KHCR 250135Z AUTO 24003KT 9SM CLR 14/M06 A2970 RMK AO2 T01441064 $,0,3,0,14481,0,0,0,
2026-04-25 01:15:00,METAR KHCR 250115Z AUTO 23004KT 10SM CLR 15/M07 A2970 RMK AO2 T01531069 $,0,4,0,16090,0,0,0,
2026-04-25 00:55:00,METAR KHCR 250055Z AUTO 24004KT 10SM CLR 16/M09 A2971 RMK AO2 T01591086 $,0,4,0,16090,0,0,0,
2026-04-25 00:35:00,METAR KHCR 250035Z AUTO 26009G15KT 10SM CLR 16/M09 A2971 RMK AO2 T01561087 $,0,9,1,16090,0,0,0,
2026-04-25 00:15:00,METAR KHCR 250015Z AUTO 27010KT 10SM CLR 15/M09 A2971 RMK AO2 T01521086 $,0,10,0,16090,0,0,0,
2026-04-24 23:55:00,METAR KHCR 242355Z AUTO 27014KT 10SM CLR 15/M09 A2970 RMK AO2 T01511093 10175 20144 56013 $,0,14,0,16090,0,0,0,
2026-04-24 23:35:00,METAR KHCR 242335Z AUTO 27010G22KT 10SM CLR 16/M08 A2970 RMK AO2 T01651077 $,0,10,1,16090,0,0,0,
2026-04-24 23:15:00,METAR KHCR 242315Z AUTO 27014G24KT 10SM CLR 16/M10 A2971 RMK AO2 T01591098 $,0,14,1,16090,0,0,0,
2026-04-24 22:55:00,METAR KHCR 242255Z AUTO 25013G19KT 10SM CLR 16/M09 A2972 RMK AO2 PK WND 24026/2152 WSHFT 2242 T01631085 $,0,13,1,16090,0,0,0,
2026-04-24 22:35:00,METAR KHCR 242235Z AUTO 23013KT 10SM CLR 17/M09 A2972 RMK AO2 PK WND 24026/2152 T01731091 $,0,13,0,16090,0,0,0,
2026-04-24 22:15:00,METAR KHCR 242215Z AUTO 23018G25KT 10SM FEW280 16/M10 A2972 RMK AO2 PK WND 24026/2152 T01631096 $,0,18,1,16090,0,0,0,
2026-04-24 21:55:00,METAR KHCR 242155Z AUTO 23016G22KT 10SM FEW370 17/M11 A2973 RMK AO2 PK WND 22026/2054 T01661107 $,0,16,1,16090,0,0,0,
2026-04-24 21:35:00,METAR KHCR 242135Z AUTO 22015G23KT 10SM CLR 17/M10 A2973 RMK AO2 PK WND 22026/2054 T01671097 $,0,15,1,16090,0,0,0,
2026-04-24 21:15:00,METAR KHCR 242115Z AUTO 23016G23KT 10SM CLR 17/M09 A2974 RMK AO2 PK WND 22026/2054 T01741094 $,0,16,1,16090,0,0,0,
2026-04-24 20:55:00,METAR KHCR 242055Z AUTO 24014G23KT 10SM CLR 17/M10 A2975 RMK AO2 PK WND 24027/2038 T01731098 58021 $,0,14,1,16090,0,0,0,
2026-04-24 20:35:00,METAR KHCR 242035Z AUTO 24018G24KT 10SM CLR 17/M10 A2976 RMK AO2 T01681097 $,0,18,1,16090,0,0,0,
2026-04-24 20:15:00,METAR KHCR 242015Z AUTO 21013G23KT 10SM CLR 17/M10 A2977 RMK AO2 T01661100 $,0,13,1,16090,0,0,0,
2026-04-24 19:55:00,METAR KHCR 241955Z AUTO 22015G21KT 10SM CLR 16/M09 A2978 RMK AO2 T01581088 $,0,15,1,16090,0,0,0,
2026-04-24 19:35:00,METAR KHCR 241935Z AUTO 22013G17KT 10SM CLR 15/M08 A2979 RMK AO2 T01541084 $,0,13,1,16090,0,0,0,
2026-04-24 19:15:00,METAR KHCR 241915Z AUTO 20008G19KT 160V230 10SM FEW100 15/M09 A2980 RMK AO2 T01551086 $,0,8,1,16090,0,0,0,
2026-04-24 18:55:00,METAR KHCR 241855Z AUTO 22012G17KT 10SM CLR 15/M09 A2981 RMK AO2 T01491087 $,0,12,1,16090,0,0,0,
2026-04-24 18:35:00,METAR KHCR 241835Z AUTO 22012G18KT 10SM CLR 15/M09 A2982 RMK AO2 T01481090 $,0,12,1,16090,0,0,0,
2026-04-24 18:15:00,METAR KHCR 241815Z AUTO 23015G21KT 9SM CLR 15/M09 A2982 RMK AO2 T01461089 $,0,15,1,14481,0,0,0,
2026-04-24 17:55:00,METAR KHCR 241755Z AUTO 23015KT 10SM CLR 15/M09 A2983 RMK AO2 T01481088 10148 21058 56016 $,0,15,0,16090,0,0,0,
2026-04-24 17:35:00,METAR KHCR 241735Z AUTO 22010G16KT 140V250 10SM CLR 14/M09 A2983 RMK AO2 T01441086 $,0,10,1,16090,0,0,0,
2026-04-24 17:15:00,METAR KHCR 241715Z AUTO 23010G18KT 10SM CLR 14/M08 A2983 RMK AO2 T01391078 $,0,10,1,16090,0,0,0,
2026-04-24 16:55:00,METAR KHCR 241655Z AUTO 21007KT 180V240 10SM CLR 13/M07 A2983 RMK AO2 T01351069 $,0,7,0,16090,0,0,0,
2026-04-24 16:35:00,METAR KHCR 241635Z AUTO 28006KT 10SM CLR 11/M04 A2984 RMK AO2 T01131039 $,0,6,0,16090,0,0,0,
2026-04-24 16:15:00,METAR KHCR 241615Z AUTO 00000KT 10SM CLR 09/M04 A2984 RMK AO2 T00941039 $,0,0,0,16090,0,0,0,
2026-04-24 15:55:00,METAR KHCR 241555Z AUTO VRB03KT 10SM CLR 08/M04 A2986 RMK AO2 T00761045 $,0,3,0,16090,0,0,0,
2026-04-24 15:35:00,METAR KHCR 241535Z AUTO 00000KT 10SM CLR 06/M05 A2986 RMK AO2 T00621048 $,0,0,0,16090,0,0,0,
2026-04-24 15:15:00,METAR KHCR 241515Z AUTO 00000KT 10SM CLR 05/M05 A2987 RMK AO2 T00481047 $,0,0,0,16090,0,0,0,
2026-04-24 14:55:00,METAR KHCR 241455Z AUTO 00000KT 10SM CLR 03/M04 A2988 RMK AO2 T00311041 58004 $,0,0,0,16090,0,0,0,
2026-04-24 14:35:00,METAR KHCR 241435Z AUTO 00000KT 10SM CLR 02/M04 A2988 RMK AO2 T00241042 $,0,0,0,16090,0,0,0,
2026-04-24 14:15:00,METAR KHCR 241415Z AUTO 00000KT 10SM CLR 01/M04 A2989 RMK AO2 T00081045 $,0,0,0,16090,0,0,0,
2026-04-24 13:55:00,METAR KHCR 241355Z AUTO 00000KT 10SM CLR M01/M06 A2990 RMK AO2 T10061056 $,0,0,0,16090,0,0,0,
2026-04-24 13:35:00,METAR KHCR 241335Z AUTO 00000KT 9SM CLR M01/M06 A2990 RMK AO2 T10151056 $,0,0,0,14481,0,0,0,
2026-04-24 13:15:00,METAR KHCR 241315Z AUTO 00000KT 10SM CLR M03/M07 A2990 RMK AO2 T10271068 $,0,0,0,16090,0,0,0,
2026-04-24 12:55:00,METAR KHCR 241255Z AUTO 12004KT 8SM CLR M05/M08 A2989 RMK AO2 T10471078 $,0,4,0,12872,0,0,0,
2026-04-24 12:35:00,METAR KHCR 241235Z AUTO 11004KT 9SM CLR M06/M08 A2989 RMK AO2 T10581084 $,0,4,0,14481,0,0,0,
2026-04-24 12:15:00,METAR KHCR 241215Z AUTO 00000KT 10SM CLR M05/M08 A2989 RMK AO2 T10471076 $,0,0,0,16090,0,0,0,
2026-04-24 11:55:00,METAR KHCR 241155Z AUTO 14003KT 10SM CLR M04/M07 A2990 RMK AO2 T10421074 10001 21047 58008 $,0,3,0,16090,0,0,0,
2026-04-24 11:35:00,METAR KHCR 241135Z AUTO 00000KT 10SM CLR M03/M07 A2990 RMK AO2 T10311068 $,0,0,0,16090,0,0,0,
2026-04-24 11:15:00,METAR KHCR 241115Z AUTO 00000KT 10SM CLR M03/M07 A2990 RMK AO2 T10321070 $,0,0,0,16090,0,0,0,
2026-04-24 10:55:00,METAR KHCR 241055Z AUTO 14003KT 10SM CLR M04/M07 A2991 RMK AO2 T10421069 $,0,3,0,16090,0,0,0,
2026-04-24 10:35:00,METAR KHCR 241035Z AUTO 13003KT 10SM CLR M04/M07 A2991 RMK AO2 T10381070 $,0,3,0,16090,0,0,0,
2026-04-24 10:15:00,METAR KHCR 241015Z AUTO 00000KT 10SM CLR M04/M08 A2991 RMK AO2 T10441076 $,0,0,0,16090,0,0,0,
2026-04-24 09:55:00,METAR KHCR 240955Z AUTO 00000KT 10SM CLR M04/M07 A2992 RMK AO2 T10401070 $,0,0,0,16090,0,0,0,
2026-04-24 09:35:00,METAR KHCR 240935Z AUTO 13004KT 10SM CLR M04/M07 A2992 RMK AO2 T10371067 $,0,4,0,16090,0,0,0,
2026-04-24 09:15:00,METAR KHCR 240915Z AUTO 14003KT 10SM CLR M03/M06 A2992 RMK AO2 T10291063 $,0,3,0,16090,0,0,0,
2026-04-24 08:55:00,METAR KHCR 240855Z AUTO 00000KT 10SM CLR M01/M06 A2992 RMK AO2 T10101064 58006 $,0,0,0,16090,0,0,0,
2026-04-24 08:35:00,METAR KHCR 240835Z AUTO 00000KT 10SM CLR M01/M06 A2993 RMK AO2 T10131065 $,0,0,0,16090,0,0,0,
2026-04-24 08:15:00,METAR KHCR 240815Z AUTO 13004KT 10SM CLR M01/M07 A2993 RMK AO2 T10101067 $,0,4,0,16090,0,0,0,
2026-04-24 07:55:00,METAR KHCR 240755Z AUTO 07003KT 10SM CLR M01/M06 A2993 RMK AO2 T10131057 $,0,3,0,16090,0,0,0,
2026-04-24 07:35:00,METAR KHCR 240735Z AUTO 00000KT 10SM CLR M02/M06 A2993 RMK AO2 T10241057 $,0,0,0,16090,0,0,0,
2026-04-24 07:15:00,METAR KHCR 240715Z AUTO 14004KT 10SM CLR M02/M06 A2994 RMK AO2 T10201062 $,0,4,0,16090,0,0,0,
2026-04-24 06:55:00,METAR KHCR 240655Z AUTO 13003KT 10SM CLR M02/M06 A2994 RMK AO2 T10181061 401261022 $,0,3,0,16090,0,0,0,
2026-04-24 06:35:00,METAR KHCR 240635Z AUTO 11005KT 10SM CLR M00/M06 A2994 RMK AO2 T10021060 $,0,5,0,16090,0,0,0,
2026-04-24 06:15:00,METAR KHCR 240615Z AUTO 12004KT 10SM CLR M01/M06 A2994 RMK AO2 T10131057 $,0,4,0,16090,0,0,0,
2026-04-24 05:55:00,METAR KHCR 240555Z AUTO 00000KT 10SM CLR M01/M05 A2995 RMK AO2 T10131054 10125 21019 58003 $,0,0,0,16090,0,0,0,
2026-04-24 05:35:00,METAR KHCR 240535Z AUTO 00000KT 10SM CLR M01/M05 A2995 RMK AO2 T10061048 $,0,0,0,16090,0,0,0,
2026-04-24 05:15:00,METAR KHCR 240515Z AUTO 00000KT 10SM CLR 01/M05 A2995 RMK AO2 T00081048 $,0,0,0,16090,0,0,0,
2026-04-24 04:55:00,METAR KHCR 240455Z AUTO 00000KT 10SM CLR 02/M05 A2995 RMK AO2 T00161049 $,0,0,0,16090,0,0,0,
2026-04-24 04:35:00,METAR KHCR 240435Z AUTO 12006KT 10SM CLR 02/M05 A2995 RMK AO2 T00151048 $,0,6,0,16090,0,0,0,
2026-04-24 04:15:00,METAR KHCR 240415Z AUTO 11005KT 10SM CLR 02/M05 A2995 RMK AO2 T00211046 $,0,5,0,16090,0,0,0,
2026-04-24 03:55:00,METAR KHCR 240355Z AUTO 00000KT 10SM CLR 05/M04 A2995 RMK AO2 T00501042 $,0,0,0,16090,0,0,0,
2026-04-24 03:35:00,METAR KHCR 240335Z AUTO 03005KT 10SM CLR 07/M04 A2995 RMK AO2 T00651039 $,0,5,0,16090,0,0,0,
2026-04-24 03:15:00,METAR KHCR 240315Z AUTO 26004KT 10SM CLR 07/M05 A2995 RMK AO2 T00671046 $,0,4,0,16090,0,0,0,
2026-04-24 02:55:00,METAR KHCR 240255Z AUTO 21004KT 10SM CLR 07/M04 A2995 RMK AO2 T00701042 51001 $,0,4,0,16090,0,0,0,
2026-04-24 02:35:00,METAR KHCR 240235Z AUTO 00000KT 10SM CLR 07/M04 A2995 RMK AO2 T00751040 $,0,0,0,16090,0,0,0,
2026-04-24 02:15:00,METAR KHCR 240215Z AUTO 21005KT 10SM CLR 09/M04 A2995 RMK AO2 T00861039 $,0,5,0,16090,0,0,0,
2026-04-24 01:55:00,METAR KHCR 240155Z AUTO 24007KT 9SM CLR 09/M03 A2995 RMK AO2 T00901031 $,0,7,0,14481,0,0,0,
2026-04-24 01:35:00,METAR KHCR 240135Z AUTO 25006KT 9SM CLR 10/M03 A2995 RMK AO2 T01021034 $,0,6,0,14481,0,0,0,
2026-04-24 01:15:00,METAR KHCR 240115Z AUTO 22004KT 10SM CLR 11/M04 A2995 RMK AO2 T01091041 $,0,4,0,16090,0,0,0,
2026-04-24 00:55:00,METAR KHCR 240055Z AUTO 22006KT 10SM CLR 12/M04 A2996 RMK AO2 T01171042 $,0,6,0,16090,0,0,0,
2026-04-24 00:35:00,METAR KHCR 240035Z AUTO 23008KT 10SM CLR 12/M04 A2995 RMK AO2 T01171038 $,0,8,0,16090,0,0,0,
2026-04-24 00:15:00,METAR KHCR 240015Z AUTO 26009G20KT 10SM CLR 12/M05 A2995 RMK AO2 T01191046 $,0,9,1,16090,0,0,0,
2026-04-23 23:55:00,METAR KHCR 232355Z AUTO 23011G15KT 10SM CLR 13/M04 A2995 RMK AO2 T01251037 10126 20065 56010 $,0,11,1,16090,0,0,0,
2026-04-23 23:35:00,METAR KHCR 232335Z AUTO 23009KT 10SM FEW065 12/M04 A2995 RMK AO2 T01231043 $,0,9,0,16090,0,0,0,
2026-04-23 23:15:00,METAR KHCR 232315Z AUTO 23009KT 10SM CLR 12/M04 A2996 RMK AO2 T01221043 $,0,9,0,16090,0,0,0,
2026-04-23 22:55:00,METAR KHCR 232255Z AUTO VRB06KT 10SM FEW060 12/M04 A2995 RMK AO2 T01201045 $,0,6,0,16090,0,0,0,
2026-04-23 22:35:00,METAR KHCR 232235Z AUTO VRB04KT 10SM SCT060 12/M04 A2996 RMK AO2 T01221042 $,0,4,0,16090,0,0,0,
2026-04-23 22:15:00,METAR KHCR 232215Z AUTO 00000KT 10SM BKN060 12/M04 A2996 RMK AO2 T01201040 $,0,0,0,16090,0,0,0,
2026-04-23 21:55:00,METAR KHCR 232155Z AUTO 27005KT 10SM OVC060 10/M04 A2997 RMK AO2 T01041035 $,0,5,0,16090,0,0,0,
2026-04-23 21:35:00,METAR KHCR 232135Z AUTO 24007KT 190V270 10SM BKN060 10/M03 A2998 RMK AO2 T01031032 $,0,7,0,16090,0,0,0,
2026-04-23 21:15:00,METAR KHCR 232115Z AUTO 28007KT 10SM OVC060 10/M03 A2998 RMK AO2 T01021035 $,0,7,0,16090,0,0,0,
2026-04-23 20:55:00,METAR KHCR 232055Z AUTO VRB05KT 10SM FEW047 BKN060 11/M03 A2999 RMK AO2 T01071027 58009 $,0,5,0,16090,0,0,0,
2026-04-23 20:35:00,METAR KHCR 232035Z AUTO VRB04KT 10SM BKN055 10/M03 A2999 RMK AO2 T00981028 $,0,4,0,16090,0,0,0,
2026-04-23 19:55:00,METAR KHCR 231955Z AUTO 29004KT 10SM BKN055 08/M02 A3000 RMK AO2 T00841018 $,0,4,0,16090,0,0,0,
2026-04-23 19:35:00,METAR KHCR 231935Z AUTO VRB03KT 10SM FEW037 BKN050 OVC065 08/M02 A3001 RMK AO2 T00811023 $,0,3,0,16090,0,0,0,
2026-04-23 19:15:00,METAR KHCR 231915Z AUTO 26009G17KT 10SM SCT034 BKN046 OVC055 08/M02 A3002 RMK AO2 T00751020 $,0,9,1,16090,0,0,0,
2026-04-23 18:55:00,METAR KHCR 231855Z AUTO 00000KT 10SM OVC055 07/M01 A3001 RMK AO2 T00731006 $,0,0,0,16090,0,0,0,
2026-04-23 18:35:00,METAR KHCR 231835Z AUTO 32005KT 10SM FEW029 OVC060 07/M01 A3001 RMK AO2 T00671008 $,0,5,0,16090,0,0,0,
2026-04-23 18:15:00,METAR KHCR 231815Z AUTO VRB05KT 10SM BKN055 OVC070 07/M01 A3002 RMK AO2 T00681008 $,0,5,0,16090,0,0,0,
2026-04-23 17:55:00,METAR KHCR 231755Z AUTO 30005KT 10SM OVC055 06/M01 A3002 RMK AO2 60000 T00621009 10063 20004 52007 $,0,5,0,16090,0,0,0,
2026-04-23 17:35:00,METAR KHCR 231735Z AUTO 00000KT 10SM BKN050 OVC060 06/M01 A3002 RMK AO2 T00561012 $,0,0,0,16090,0,0,0,
2026-04-23 16:55:00,METAR KHCR 231655Z AUTO 00000KT 10SM SCT040 OVC055 05/M00 A3001 RMK AO2 T00481002 $,0,0,0,16090,0,0,0,
2026-04-23 16:35:00,METAR KHCR 231635Z AUTO 35003KT 10SM SCT042 OVC055 05/M01 A3001 RMK AO2 T00471005 $,0,3,0,16090,0,0,0,
2026-04-23 16:15:00,METAR KHCR 231615Z AUTO 00000KT 10SM FEW020 OVC055 04/M00 A3000 RMK AO2 T00451001 $,0,0,0,16090,0,0,0,
2026-04-23 15:55:00,METAR KHCR 231555Z AUTO 00000KT 9SM FEW010 OVC037 04/00 A3000 RMK AO2 T00400005 $,0,0,0,14481,0,0,0,
2026-04-23 15:35:00,METAR KHCR 231535Z AUTO VRB03KT 7SM FEW010 OVC032 04/M00 A3000 RMK AO2 T00401003 $,0,3,0,11263,0,0,0,
2026-04-23 15:15:00,METAR KHCR 231515Z AUTO 35004KT 9SM OVC040 04/M01 A3000 RMK AO2 T00401005 $,0,4,0,14481,0,0,0,
2026-04-23 14:55:00,METAR KHCR 231455Z AUTO 01004KT 10SM SCT038 BKN047 OVC055 03/M01 A2999 RMK AO2 RAE1400 P0000 60000 T00321009 53006 $,0,4,0,16090,0,0,0,RA
2026-04-23 14:35:00,METAR KHCR 231435Z AUTO 31003KT 10SM BKN050 OVC060 03/M01 A2999 RMK AO2 RAE1400 P0000 T00291010 $,0,3,0,16090,0,0,0,RA
2026-04-23 14:15:00,METAR KHCR 231415Z AUTO 36004KT 10SM FEW038 OVC060 03/M02 A2997 RMK AO2 RAE1400 P0000 T00291017 $,0,4,0,16090,0,0,0,RA
2026-04-23 13:55:00,METAR KHCR 231355Z AUTO 00000KT 8SM -RA FEW038 OVC055 02/M02 A2998 RMK AO2 UPE1318RAB1346 P0000 T00241020 $,0,0,0,12872,0,0,0,"-RA,UP"
2026-04-23 13:35:00,METAR KHCR 231335Z AUTO 00000KT 10SM SCT039 BKN048 OVC060 02/M02 A2998 RMK AO2 UPE1318 P0000 T00181015 $,0,0,0,16090,0,0,0,UP
2026-04-23 13:15:00,METAR KHCR 231315Z AUTO 00000KT 7SM UP FEW021 SCT036 BKN046 OVC060 01/M02 A2997 RMK AO2 P0000 T00131022 $,0,0,0,11263,0,0,0,UP
2026-04-23 12:55:00,METAR KHCR 231255Z AUTO 11004KT 7SM UP FEW023 SCT047 OVC060 01/M02 A2997 RMK AO2 UPB1235 P0000 T00101015 $,0,4,0,11263,0,0,0,UP
2026-04-23 12:35:00,METAR KHCR 231235Z AUTO 10003KT 9SM UP BKN055 OVC070 01/M02 A2997 RMK AO2 UPB1235 P0000 T00091017 $,0,3,0,14481,0,0,0,UP
2026-04-23 12:15:00,METAR KHCR 231215Z AUTO 12003KT 10SM BKN050 OVC070 01/M02 A2997 RMK AO2 T00081018 $,0,3,0,16090,0,0,0,
2026-04-23 11:55:00,METAR KHCR 231155Z AUTO 00000KT 10SM OVC060 01/M02 A2997 RMK AO2 UPB1126E1145 P0000 60000 T00081022 10040 21011 53001 $,0,0,0,16090,0,0,0,UP
2026-04-23 11:35:00,METAR KHCR 231135Z AUTO 00000KT 10SM UP BKN060 OVC075 01/M02 A2997 RMK AO2 UPB1126 P0000 T00091021 $,0,0,0,16090,0,0,0,UP
2026-04-23 11:15:00,METAR KHCR 231115Z AUTO 28003KT 10SM OVC070 01/M02 A2997 RMK AO2 T00081019 $,0,3,0,16090,0,0,0,
2026-04-23 10:55:00,METAR KHCR 231055Z AUTO 00000KT 10SM FEW037 OVC070 01/M03 A2996 RMK AO2 UPB0951E1040 P0000 T00071026 $,0,0,0,16090,0,0,0,UP
2026-04-23 10:35:00,METAR KHCR 231035Z AUTO 00000KT 9SM UP FEW038 BKN055 OVC070 00/M03 A2996 RMK AO2 UPB0951 P0000 T00031029 $,0,0,0,14481,0,0,0,UP
2026-04-23 10:15:00,METAR KHCR 231015Z AUTO 12003KT 9SM UP FEW026 SCT041 BKN060 OVC070 00/M03 A2996 RMK AO2 UPB0951 P0000 T00031031 $,0,3,0,14481,0,0,0,UP
2026-04-23 09:55:00,METAR KHCR 230955Z AUTO 10005KT 10SM FEW043 OVC065 01/M04 A2996 RMK AO2 UPB0939E0948 P0000 T00091036 $,0,5,0,16090,0,0,0,UP
2026-04-23 09:35:00,METAR KHCR 230935Z AUTO 10004KT 10SM FEW045 BKN070 00/M03 A2996 RMK AO2 T00031034 $,0,4,0,16090,0,0,0,
2026-04-23 09:15:00,METAR KHCR 230915Z AUTO 11005KT 10SM FEW045 SCT080 M00/M03 A2996 RMK AO2 T10051032 $,0,5,0,16090,0,0,0,
2026-04-23 08:55:00,METAR KHCR 230855Z AUTO 00000KT 10SM BKN065 01/M04 A2997 RMK AO2 T00061039 58001 $,0,0,0,16090,0,0,0,
2026-04-23 08:35:00,METAR KHCR 230835Z AUTO 00000KT 10SM BKN065 BKN080 00/M04 A2997 RMK AO2 T00041036 $,0,0,0,16090,0,0,0,
2026-04-23 08:15:00,METAR KHCR 230815Z AUTO 13003KT 10SM BKN060 M00/M04 A2998 RMK AO2 T10001043 $,0,3,0,16090,0,0,0,
2026-04-23 07:55:00,METAR KHCR 230755Z AUTO 00000KT 10SM OVC060 02/M04 A2998 RMK AO2 T00171037 $,0,0,0,16090,0,0,0,
2026-04-23 07:35:00,METAR KHCR 230735Z AUTO 00000KT 10SM BKN060 02/M03 A2998 RMK AO2 T00231034 $,0,0,0,16090,0,0,0,
2026-04-23 07:15:00,METAR KHCR 230715Z AUTO 00000KT 10SM SCT060 M00/M04 A2998 RMK AO2 T10021042 $,0,0,0,16090,0,0,0,
2026-04-23 06:55:00,METAR KHCR 230655Z AUTO 12009KT 10SM CLR 01/M04 A2998 RMK AO2 T00081043 401620008 $,0,9,0,16090,0,0,0,
2026-04-23 06:35:00,METAR KHCR 230635Z AUTO 12006KT 10SM SCT070 02/M04 A2998 RMK AO2 T00181044 $,0,6,0,16090,0,0,0,
2026-04-23 06:15:00,METAR KHCR 230615Z AUTO 11007KT 10SM OVC070 04/M03 A2998 RMK AO2 T00351029 $,0,7,0,16090,0,0,0,
2026-04-23 05:55:00,METAR KHCR 230555Z AUTO 01009KT 10SM SCT065 BKN100 02/M03 A2997 RMK AO2 T00211034 10086 20016 52012 $,0,9,0,16090,0,0,0,
2026-04-23 05:35:00,METAR KHCR 230535Z AUTO 07003KT 10SM FEW100 03/M05 A2996 RMK AO2 T00281052 $,0,3,0,16090,0,0,0,
2026-04-23 05:15:00,METAR KHCR 230515Z AUTO 04003KT 10SM CLR 04/M05 A2996 RMK AO2 T00391048 $,0,3,0,16090,0,0,0,
2026-04-23 04:55:00,METAR KHCR 230455Z AUTO 12008KT 10SM CLR 02/M05 A2995 RMK AO2 T00181046 $,0,8,0,16090,0,0,0,
2026-04-23 04:35:00,METAR KHCR 230435Z AUTO 15007KT 10SM FEW100 03/M05 A2995 RMK AO2 T00291045 $,0,7,0,16090,0,0,0,
2026-04-23 04:15:00,METAR KHCR 230415Z AUTO 33009KT 10SM BKN100 BKN130 05/M04 A2995 RMK AO2 T00481044 $,0,9,0,16090,0,0,0,
2026-04-23 03:55:00,METAR KHCR 230355Z AUTO 36003KT 10SM SCT090 BKN140 05/M04 A2995 RMK AO2 T00471043 $,0,3,0,16090,0,0,0,
2026-04-23 03:35:00,METAR KHCR 230335Z AUTO 00000KT 10SM SCT150 05/M05 A2994 RMK AO2 T00461047 $,0,0,0,16090,0,0,0,
2026-04-23 03:15:00,METAR KHCR 230315Z AUTO 00000KT 10SM CLR 06/M05 A2993 RMK AO2 T00561050 $,0,0,0,16090,0,0,0,
2026-04-23 02:55:00,METAR KHCR 230255Z AUTO 00000KT 10SM BKN080 BKN095 06/M05 A2993 RMK AO2 T00631049 58003 $,0,0,0,16090,0,0,0,
2026-04-23 02:35:00,METAR KHCR 230235Z AUTO 00000KT 10SM SCT080 BKN090 OVC110 07/M07 A2993 RMK AO2 T00741069 $,0,0,0,16090,0,0,0,
2026-04-23 02:15:00,METAR KHCR 230215Z AUTO 19003KT 10SM BKN110 07/M06 A2993 RMK AO2 T00701060 $,0,3,0,16090,0,0,0,
2026-04-23 01:55:00,METAR KHCR 230155Z AUTO 14005KT 10SM FEW095 07/M05 A2993 RMK AO2 T00671052 $,0,5,0,16090,0,0,0,
2026-04-23 01:35:00,METAR KHCR 230135Z AUTO 14006KT 10SM FEW100 07/M05 A2994 RMK AO2 T00701049 $,0,6,0,16090,0,0,0,
2026-04-23 01:15:00,METAR KHCR 230115Z AUTO 15004KT 10SM FEW120 07/M04 A2994 RMK AO2 T00721043 $,0,4,0,16090,0,0,0,
2026-04-23 00:55:00,METAR KHCR 230055Z AUTO 29006G19KT 240V330 9SM SCT055 SCT070 08/M06 A2995 RMK AO2 T00761062 $,0,6,1,14481,0,0,0,
2026-04-23 00:35:00,METAR KHCR 230035Z AUTO 22004KT 10SM SCT060 BKN070 08/M06 A2995 RMK AO2 T00811061 $,0,4,0,16090,0,0,0,
2026-04-23 00:15:00,METAR KHCR 230015Z AUTO 22009KT 10SM BKN065 BKN080 09/M06 A2995 RMK AO2 T00851061 $,0,9,0,16090,0,0,0,
2026-04-22 23:55:00,METAR KHCR 222355Z AUTO 21006KT 10SM SCT075 BKN085 09/M05 A2994 RMK AO2 T00861053 10114 20062 53004 $,0,6,0,16090,0,0,0,
2026-04-22 23:35:00,METAR KHCR 222335Z AUTO 24009KT 10SM SCT075 09/M05 A2994 RMK AO2 T00861051 $,0,9,0,16090,0,0,0,
2026-04-22 23:15:00,METAR KHCR 222315Z AUTO 23012G18KT 10SM FEW075 SCT095 SCT380 09/M06 A2994 RMK AO2 T00931058 $,0,12,1,16090,0,0,0,
2026-04-22 22:55:00,METAR KHCR 222255Z AUTO 16011G18KT 10SM BKN075 BKN085 07/M03 A2993 RMK AO2 T00741032 $,0,11,1,16090,0,0,0,
2026-04-22 22:35:00,METAR KHCR 222235Z AUTO 17014G21KT 10SM SCT070 BKN085 07/M03 A2993 RMK AO2 T00751030 $,0,14,1,16090,0,0,0,
2026-04-22 22:15:00,METAR KHCR 222215Z AUTO 17012G18KT 10SM FEW070 BKN090 09/M05 A2994 RMK AO2 T00871045 $,0,12,1,16090,0,0,0,
2026-04-22 21:55:00,METAR KHCR 222155Z AUTO 17010G16KT 10SM BKN080 OVC100 08/M04 A2993 RMK AO2 T00831045 $,0,10,1,16090,0,0,0,
2026-04-22 21:35:00,METAR KHCR 222135Z AUTO 17011G15KT 10SM OVC080 08/M04 A2993 RMK AO2 T00821040 $,0,11,1,16090,0,0,0,
2026-04-22 21:15:00,METAR KHCR 222115Z AUTO 17011KT 130V190 10SM BKN080 OVC095 10/M05 A2993 RMK AO2 T00961052 $,0,11,0,16090,0,0,0,
2026-04-22 20:55:00,METAR KHCR 222055Z AUTO 23005G15KT 190V280 10SM BKN100 BKN110 BKN130 11/M07 A2993 RMK AO2 T01141069 55007 $,0,5,1,16090,0,0,0,
2026-04-22 20:35:00,METAR KHCR 222035Z AUTO 24010G19KT 10SM SCT090 OVC110 10/M07 A2993 RMK AO2 T01041075 $,0,10,1,16090,0,0,0,
2026-04-22 20:15:00,METAR KHCR 222015Z AUTO 25005KT 10SM SCT075 BKN095 BKN120 10/M06 A2992 RMK AO2 T01031059 $,0,5,0,16090,0,0,0,
2026-04-22 19:55:00,METAR KHCR 221955Z AUTO 27008G17KT 230V290 10SM FEW075 BKN095 11/M04 A2992 RMK AO2 T01071041 $,0,8,1,16090,0,0,0,
2026-04-22 19:35:00,METAR KHCR 221935Z AUTO VRB03KT 10SM SCT060 BKN085 OVC100 10/M03 A2993 RMK AO2 T00981032 $,0,3,0,16090,0,0,0,
2026-04-22 19:15:00,METAR KHCR 221915Z AUTO 18004KT 7SM BKN065 OVC085 08/M03 A2994 RMK AO2 T00811028 $,0,4,0,11263,0,0,0,
2026-04-22 18:55:00,METAR KHCR 221855Z AUTO 13009KT 10SM FEW021 BKN060 OVC085 08/M02 A2994 RMK AO2 T00841020 $,0,9,0,16090,0,0,0,
2026-04-22 18:35:00,METAR KHCR 221835Z AUTO 16008KT 9SM SCT018 BKN043 BKN060 BKN090 08/M01 A2995 RMK AO2 T00841006 $,0,8,0,14481,0,0,0,
2026-04-22 18:15:00,METAR KHCR 221815Z AUTO 15012G19KT 10SM BKN049 BKN060 07/M02 A2996 RMK AO2 T00681020 $,0,12,1,16090,0,0,0,
2026-04-22 17:55:00,METAR KHCR 221755Z AUTO 24006G16KT 190V300 10SM BKN045 OVC065 08/M05 A2995 RMK AO2 60000 T00761049 10116 20061 53011 $,0,6,1,16090,0,0,0,
2026-04-22 17:35:00,METAR KHCR 221735Z AUTO 23013G18KT 10SM FEW047 BKN060 OVC075 08/M05 A2995 RMK AO2 T00831047 $,0,13,1,16090,0,0,0,
2026-04-22 17:15:00,METAR KHCR 221715Z AUTO 22016G23KT 10SM FEW040 BKN070 BKN085 09/M06 A2994 RMK AO2 T00901060 $,0,16,1,16090,0,0,0,
2026-04-22 16:55:00,METAR KHCR 221655Z AUTO 22010G18KT 10SM SCT075 SCT085 09/M07 A2993 RMK AO2 PK WND 24028/1618 T00901069 $,0,10,1,16090,0,0,0,
2026-04-22 16:35:00,METAR KHCR 221635Z AUTO 22010G21KT 10SM FEW037 BKN070 OVC085 09/M06 A2992 RMK AO2 PK WND 24028/1618 T00861061 $,0,10,1,16090,0,0,0,
2026-04-22 16:15:00,METAR KHCR 221615Z AUTO 22015G25KT 10SM FEW055 BKN080 09/M07 A2992 RMK AO2 T00931066 $,0,15,1,16090,0,0,0,
2026-04-22 15:55:00,METAR KHCR 221555Z AUTO 21018G24KT 10SM FEW065 SCT085 09/M05 A2991 RMK AO2 T00911054 $,0,18,1,16090,0,0,0,
2026-04-22 15:35:00,METAR KHCR 221535Z AUTO 20012G24KT 160V230 10SM CLR 10/M05 A2990 RMK AO2 T00981050 $,0,12,1,16090,0,0,0,
2026-04-22 15:15:00,METAR KHCR 221515Z AUTO 22005KT 10SM SCT060 09/M04 A2989 RMK AO2 T00941036 $,0,5,0,16090,0,0,0,
2026-04-22 14:55:00,METAR KHCR 221455Z AUTO 15010G16KT 10SM BKN060 BKN080 07/M01 A2991 RMK AO2 RAE1418 P0000 60000 T00731009 51029 $,0,10,1,16090,0,0,0,RA
2026-04-22 14:35:00,METAR KHCR 221435Z AUTO 15010KT 10SM SCT040 BKN050 OVC070 07/M00 A2991 RMK AO2 RAE1418 P0000 T00681004 $,0,10,0,16090,0,0,0,RA
2026-04-22 14:15:00,METAR KHCR 221415Z AUTO 16008KT 9SM -RA BKN040 OVC049 06/00 A2991 RMK AO2 P0000 T00650003 $,0,8,0,14481,0,0,0,-RA
2026-04-22 13:55:00,METAR KHCR 221355Z AUTO 26006KT 7SM -RA FEW014 SCT021 SCT029 OVC038 06/01 A2991 RMK AO2 PK WND 24027/1332 FEW V SCT P0000 T00620013 $,0,6,0,11263,0,0,0,-RA
2026-04-22 13:35:00,METAR KHCR 221335Z AUTO 23017G27KT 7SM -RA FEW014 OVC043 07/01 A2991 RMK AO2 PK WND 24027/1332 PRESRR P0000 T00670005 $,0,17,1,11263,0,0,0,-RA
2026-04-22 13:15:00,METAR KHCR 221315Z AUTO 25012KT 7SM -RA SCT042 OVC055 07/00 A2988 RMK AO2 PK WND 26027/1254 P0000 T00740004 $,0,12,0,11263,0,0,0,-RA
2026-04-22 12:55:00,METAR KHCR 221255Z AUTO 23018G36KT 7SM -RA FEW039 BKN060 BKN070 BKN120 08/M00 A2986 RMK AO2 PK WND 24036/1241 RAB1213 PRESRR P0000 T00831003 $,0,18,1,11263,0,0,0,"-RA,RA"
2026-04-22 12:35:00,METAR KHCR 221235Z AUTO 25020G29KT 7SM -RA FEW055 SCT070 BKN120 10/M02 A2983 RMK AO2 PK WND 27029/1228 RAB1213 P0000 T01031016 $,0,20,1,11263,0,0,0,"-RA,RA"
2026-04-22 12:15:00,METAR KHCR 221215Z AUTO 23020G26KT 9SM -RA FEW039 SCT070 SCT120 11/M01 A2982 RMK AO2 PK WND 23028/1154 RAB1213 P0000 T01081014 $,0,20,1,14481,0,0,0,"-RA,RA"
2026-04-22 11:55:00,METAR KHCR 221155Z AUTO 24016G25KT 10SM CLR 12/M03 A2981 RMK AO2 PK WND 23032/1100 T01171029 10166 20117 53006 $,0,16,1,16090,0,0,0,
2026-04-22 11:35:00,METAR KHCR 221135Z AUTO 23017G27KT 10SM CLR 12/M04 A2980 RMK AO2 PK WND 23032/1100 T01221035 $,0,17,1,16090,0,0,0,
2026-04-22 11:15:00,METAR KHCR 221115Z AUTO 22019G28KT 10SM CLR 13/M05 A2980 RMK AO2 PK WND 23032/1100 T01271052 $,0,19,1,16090,0,0,0,
2026-04-22 10:55:00,METAR KHCR 221055Z AUTO 23025G29KT 9SM CLR 13/M07 A2979 RMK AO2 PK WND 23029/1049 T01301068 $,0,25,1,14481,0,0,0,
2026-04-22 10:35:00,METAR KHCR 221035Z AUTO 23019G24KT 10SM CLR 14/M10 A2978 RMK AO2 PK WND 25026/1017 T01371102 $,0,19,1,16090,0,0,0,
2026-04-22 10:15:00,METAR KHCR 221015Z AUTO 23018G23KT 10SM CLR 14/M11 A2978 RMK AO2 T01431113 $,0,18,1,16090,0,0,0,
2026-04-22 09:55:00,METAR KHCR 220955Z AUTO 23015G24KT 10SM CLR 14/M11 A2978 RMK AO2 T01451108 $,0,15,1,16090,0,0,0,
2026-04-22 09:35:00,METAR KHCR 220935Z AUTO 24019G24KT 10SM CLR 15/M10 A2978 RMK AO2 T01451104 $,0,19,1,16090,0,0,0,
2026-04-22 09:15:00,METAR KHCR 220915Z AUTO 23014G20KT 10SM CLR 15/M10 A2979 RMK AO2 T01461101 $,0,14,1,16090,0,0,0,
2026-04-22 08:55:00,METAR KHCR 220855Z AUTO 22015G18KT 10SM CLR 15/M09 A2979 RMK AO2 T01471094 50000 $,0,15,1,16090,0,0,0,
2026-04-22 08:35:00,METAR KHCR 220835Z AUTO 21009KT 10SM CLR 15/M09 A2979 RMK AO2 T01461088 $,0,9,0,16090,0,0,0,
2026-04-22 08:15:00,METAR KHCR 220815Z AUTO 23012KT 10SM CLR 15/M09 A2980 RMK AO2 T01481086 $,0,12,0,16090,0,0,0,
2026-04-22 07:55:00,METAR KHCR 220755Z AUTO 23014G19KT 10SM CLR 15/M09 A2980 RMK AO2 T01521086 $,0,14,1,16090,0,0,0,
2026-04-22 07:35:00,METAR KHCR 220735Z AUTO 23011G22KT 10SM CLR 15/M08 A2980 RMK AO2 T01531085 $,0,11,1,16090,0,0,0,
2026-04-22 07:15:00,METAR KHCR 220715Z AUTO 22012G18KT 200V260 10SM CLR 16/M09 A2980 RMK AO2 T01581085 $,0,12,1,16090,0,0,0,
2026-04-22 06:55:00,METAR KHCR 220655Z AUTO 23016G19KT 10SM CLR 16/M08 A2980 RMK AO2 T01601084 402410010 $,0,16,1,16090,0,0,0,
2026-04-22 06:35:00,METAR KHCR 220635Z AUTO 23015G22KT 10SM CLR 17/M09 A2979 RMK AO2 T01661086 $,0,15,1,16090,0,0,0,
2026-04-22 05:55:00,METAR KHCR 220555Z AUTO 20004KT 9SM CLR 14/M08 A2979 RMK AO2 T01431075 10228 20140 50002 $,0,4,0,14481,0,0,0,
2026-04-22 05:15:00,METAR KHCR 220515Z AUTO 16005KT 10SM CLR 15/M07 A2979 RMK AO2 T01481069 $,0,5,0,16090,0,0,0,
2026-04-22 04:55:00,METAR KHCR 220455Z AUTO 16005KT 10SM CLR 15/M07 A2979 RMK AO2 T01481074 $,0,5,0,16090,0,0,0,
2026-04-22 04:35:00,METAR KHCR 220435Z AUTO 15006KT 10SM CLR 15/M07 A2979 RMK AO2 T01521074 $,0,6,0,16090,0,0,0,
2026-04-22 04:15:00,METAR KHCR 220415Z AUTO 17004KT 9SM CLR 16/M07 A2979 RMK AO2 T01561072 $,0,4,0,14481,0,0,0,
2026-04-22 03:55:00,METAR KHCR 220355Z AUTO 17003KT 10SM CLR 17/M08 A2979 RMK AO2 T01711076 $,0,3,0,16090,0,0,0,
2026-04-22 03:35:00,METAR KHCR 220335Z AUTO 18004KT 10SM FEW140 18/M08 A2979 RMK AO2 T01821081 $,0,4,0,16090,0,0,0,
2026-04-22 03:15:00,METAR KHCR 220315Z AUTO 21005KT 10SM CLR 19/M08 A2979 RMK AO2 T01871080 $,0,5,0,16090,0,0,0,
2026-04-22 02:55:00,METAR KHCR 220255Z AUTO 23012G20KT 9SM SCT130 20/M09 A2978 RMK AO2 T01991088 55007 $,0,12,1,14481,0,0,0,
2026-04-22 02:35:00,METAR KHCR 220235Z AUTO 22011G18KT 190V260 10SM BKN130 20/M08 A2978 RMK AO2 T02041078 $,0,11,1,16090,0,0,0,
2026-04-22 02:15:00,METAR KHCR 220215Z AUTO 16011G17KT 10SM BKN130 21/M07 A2977 RMK AO2 T02081072 $,0,11,1,16090,0,0,0,
2026-04-22 01:55:00,METAR KHCR 220155Z AUTO 17010KT 10SM BKN120 22/M08 A2977 RMK AO2 T02171081 $,0,10,0,16090,0,0,0,
2026-04-22 01:35:00,METAR KHCR 220135Z AUTO 18008KT 10SM SCT130 22/M08 A2978 RMK AO2 T02231081 $,0,8,0,16090,0,0,0,
2026-04-22 01:15:00,METAR KHCR 220115Z AUTO 21008KT 10SM SCT140 22/M08 A2979 RMK AO2 T02201076 $,0,8,0,16090,0,0,0,
2026-04-22 00:55:00,METAR KHCR 220055Z AUTO 24009KT 10SM FEW130 22/M06 A2979 RMK AO2 T02221059 $,0,9,0,16090,0,0,0,
2026-04-22 00:35:00,METAR KHCR 220035Z AUTO 23013G21KT 10SM SCT130 23/M06 A2980 RMK AO2 T02251063 $,0,13,1,16090,0,0,0,
2026-04-22 00:15:00,METAR KHCR 220015Z AUTO 24007KT 10SM CLR 23/M05 A2980 RMK AO2 T02271050 $,0,7,0,16090,0,0,0,
2026-04-21 23:55:00,METAR KHCR 212355Z AUTO 24012KT 10SM SCT130 23/M04 A2981 RMK AO2 T02301043 10241 20206 58023 $,0,12,0,16090,0,0,0,
2026-04-21 23:35:00,METAR KHCR 212335Z AUTO 24013KT 10SM SCT130 23/M05 A2981 RMK AO2 T02341047 $,0,13,0,16090,0,0,0,
2026-04-21 23:15:00,METAR KHCR 212315Z AUTO 24013G20KT 10SM SCT120 SCT220 23/M04 A2982 RMK AO2 T02331043 $,0,13,1,16090,0,0,0,
2026-04-21 22:55:00,METAR KHCR 212255Z AUTO 25014KT 10SM BKN120 OVC140 24/M05 A2983 RMK AO2 T02391045 $,0,14,0,16090,0,0,0,
2026-04-21 22:35:00,METAR KHCR 212235Z AUTO 24012KT 10SM OVC120 23/M05 A2984 RMK AO2 T02301050 $,0,12,0,16090,0,0,0,
2026-04-21 22:15:00,METAR KHCR 212215Z AUTO 26013KT 10SM OVC110 23/M06 A2985 RMK AO2 T02251056 $,0,13,0,16090,0,0,0,
2026-04-21 21:55:00,METAR KHCR 212155Z AUTO 22010KT 10SM BKN120 BKN140 22/M03 A2987 RMK AO2 T02221033 $,0,10,0,16090,0,0,0,
2026-04-21 21:35:00,METAR KHCR 212135Z AUTO 24013KT 10SM BKN110 22/M03 A2987 RMK AO2 T02241026 $,0,13,0,16090,0,0,0,
2026-04-21 21:15:00,METAR KHCR 212115Z AUTO 22008KT 200V260 10SM SCT110 23/M02 A2988 RMK AO2 T02281019 $,0,8,0,16090,0,0,0,
2026-04-21 20:55:00,METAR KHCR 212055Z AUTO 24015G19KT 10SM FEW110 SCT240 SCT380 24/M00 A2989 RMK AO2 T02401002 56028 $,0,15,1,16090,0,0,0,
2026-04-21 20:35:00,METAR KHCR 212035Z AUTO 25016KT 10SM SCT240 BKN370 23/M01 A2990 RMK AO2 T02321005 $,0,16,0,16090,0,0,0,
2026-04-21 20:15:00,METAR KHCR 212015Z AUTO 25016KT 10SM FEW240 SCT370 23/00 A2990 RMK AO2 T02290004 $,0,16,0,16090,0,0,0,
2026-04-21 19:55:00,METAR KHCR 211955Z AUTO 24013KT 10SM FEW250 SCT290 SCT330 BKN370 22/M00 A2991 RMK AO2 T02231001 $,0,13,0,16090,0,0,0,
2026-04-21 19:35:00,METAR KHCR 211935Z AUTO 24013KT 10SM SCT250 SCT330 SCT370 22/M01 A2991 RMK AO2 T02211007 $,0,13,0,16090,0,0,0,
2026-04-21 19:15:00,METAR KHCR 211915Z AUTO 24012KT 10SM SCT250 SCT290 22/00 A2993 RMK AO2 T02150002 $,0,12,0,16090,0,0,0,
2026-04-21 18:55:00,METAR KHCR 211855Z AUTO 26010KT 10SM FEW260 22/00 A2994 RMK AO2 T02150003 $,0,10,0,16090,0,0,0,
2026-04-21 18:35:00,METAR KHCR 211835Z AUTO 25009KT 10SM FEW300 22/M00 A2995 RMK AO2 T02181001 $,0,9,0,16090,0,0,0,
2026-04-21 18:15:00,METAR KHCR 211815Z AUTO VRB04KT 10SM FEW330 21/M00 A2997 RMK AO2 T02141004 $,0,4,0,16090,0,0,0,
2026-04-21 17:55:00,METAR KHCR 211755Z AUTO VRB03KT 10SM FEW095 20/02 A2999 RMK AO2 T01980022 10198 20010 58021 $,0,3,0,16090,0,0,0,
2026-04-21 17:35:00,METAR KHCR 211735Z AUTO VRB03KT 10SM CLR 18/03 A3000 RMK AO2 T01840028 $,0,3,0,16090,0,0,0,
2026-04-21 17:15:00,METAR KHCR 211715Z AUTO VRB03KT 10SM CLR 17/02 A3000 RMK AO2 T01710024 $,0,3,0,16090,0,0,0,
2026-04-21 16:55:00,METAR KHCR 211655Z AUTO 00000KT 10SM CLR 15/02 A3002 RMK AO2 T01500018 $,0,0,0,16090,0,0,0,
2026-04-21 16:35:00,METAR KHCR 211635Z AUTO 00000KT 10SM CLR 15/01 A3003 RMK AO2 T01460006 $,0,0,0,16090,0,0,0,
2026-04-21 16:15:00,METAR KHCR 211615Z AUTO 00000KT 10SM CLR 13/01 A3004 RMK AO2 T01260008 $,0,0,0,16090,0,0,0,
2026-04-21 15:55:00,METAR KHCR 211555Z AUTO 00000KT 10SM CLR 11/03 A3004 RMK AO2 T01090027 $,0,0,0,16090,0,0,0,
2026-04-21 15:35:00,METAR KHCR 211535Z AUTO 00000KT 10SM CLR 10/02 A3005 RMK AO2 T01050019 $,0,0,0,16090,0,0,0,
2026-04-21 15:15:00,METAR KHCR 211515Z AUTO 00000KT 10SM FEW270 10/01 A3005 RMK AO2 T00990013 $,0,0,0,16090,0,0,0,
2026-04-21 14:55:00,METAR KHCR 211455Z AUTO 00000KT 10SM CLR 09/01 A3006 RMK AO2 T00870012 50003 $,0,0,0,16090,0,0,0,
2026-04-21 14:35:00,METAR KHCR 211435Z AUTO 00000KT 10SM CLR 08/02 A3006 RMK AO2 T00790022 $,0,0,0,16090,0,0,0,
2026-04-21 14:15:00,METAR KHCR 211415Z AUTO 00000KT 10SM CLR 07/02 A3007 RMK AO2 T00740021 $,0,0,0,16090,0,0,0,
2026-04-21 13:55:00,METAR KHCR 211355Z AUTO 00000KT 10SM CLR 07/02 A3007 RMK AO2 T00660021 $,0,0,0,16090,0,0,0,
2026-04-21 13:35:00,METAR KHCR 211335Z AUTO 00000KT 10SM CLR 04/01 A3006 RMK AO2 T00420006 $,0,0,0,16090,0,0,0,
2026-04-21 13:15:00,METAR KHCR 211315Z AUTO 00000KT 10SM CLR 03/M01 A3006 RMK AO2 T00301008 $,0,0,0,16090,0,0,0,
2026-04-21 12:55:00,METAR KHCR 211255Z AUTO 00000KT 10SM CLR 01/M02 A3006 RMK AO2 T00141016 $,0,0,0,16090,0,0,0,
2026-04-21 12:35:00,METAR KHCR 211235Z AUTO 00000KT 9SM CLR 02/M02 A3005 RMK AO2 T00181019 $,0,0,0,14481,0,0,0,
2026-04-21 12:15:00,METAR KHCR 211215Z AUTO 00000KT 10SM CLR 02/M01 A3005 RMK AO2 T00221015 $,0,0,0,16090,0,0,0,
2026-04-21 11:55:00,METAR KHCR 211155Z AUTO 10004KT 10SM CLR 02/M02 A3005 RMK AO2 T00181015 10071 20012 53003 $,0,4,0,16090,0,0,0,
2026-04-21 11:35:00,METAR KHCR 211135Z AUTO 10005KT 10SM CLR 02/M01 A3004 RMK AO2 T00201013 $,0,5,0,16090,0,0,0,
2026-04-21 11:15:00,METAR KHCR 211115Z AUTO 00000KT 10SM CLR 02/M01 A3004 RMK AO2 T00231013 $,0,0,0,16090,0,0,0,
2026-04-21 10:55:00,METAR KHCR 211055Z AUTO 00000KT 10SM CLR 04/M01 A3004 RMK AO2 T00381012 $,0,0,0,16090,0,0,0,
2026-04-21 10:35:00,METAR KHCR 211035Z AUTO 00000KT 10SM CLR 02/M01 A3004 RMK AO2 T00191014 $,0,0,0,16090,0,0,0,
2026-04-21 10:15:00,METAR KHCR 211015Z AUTO 00000KT 10SM CLR 03/M01 A3004 RMK AO2 T00251015 $,0,0,0,16090,0,0,0,
2026-04-21 09:55:00,METAR KHCR 210955Z AUTO 00000KT 10SM CLR 03/M02 A3003 RMK AO2 T00311015 $,0,0,0,16090,0,0,0,
2026-04-21 09:35:00,METAR KHCR 210935Z AUTO 00000KT 10SM CLR 02/M01 A3003 RMK AO2 T00221014 $,0,0,0,16090,0,0,0,
2026-04-21 09:15:00,METAR KHCR 210915Z AUTO 00000KT 10SM CLR 04/M01 A3003 RMK AO2 T00401012 $,0,0,0,16090,0,0,0,
2026-04-21 08:55:00,METAR KHCR 210855Z AUTO 00000KT 10SM CLR 03/M01 A3004 RMK AO2 T00291012 50006 $,0,0,0,16090,0,0,0,
2026-04-21 08:35:00,METAR KHCR 210835Z AUTO 13003KT 10SM CLR 03/M01 A3004 RMK AO2 T00261014 $,0,3,0,16090,0,0,0,
2026-04-21 08:15:00,METAR KHCR 210815Z AUTO 00000KT 10SM CLR 03/M01 A3004 RMK AO2 T00281012 $,0,0,0,16090,0,0,0,
2026-04-21 07:55:00,METAR KHCR 210755Z AUTO 00000KT 10SM CLR 04/M01 A3004 RMK AO2 T00431011 $,0,0,0,16090,0,0,0,
2026-04-21 07:35:00,METAR KHCR 210735Z AUTO 00000KT 10SM CLR 04/M01 A3004 RMK AO2 T00451007 $,0,0,0,16090,0,0,0,
2026-04-21 07:15:00,METAR KHCR 210715Z AUTO 00000KT 10SM CLR 05/M01 A3003 RMK AO2 T00491008 $,0,0,0,16090,0,0,0,
2026-04-21 06:55:00,METAR KHCR 210655Z AUTO 00000KT 10SM CLR 06/M01 A3003 RMK AO2 T00581008 402321021 $,0,0,0,16090,0,0,0,
2026-04-21 06:35:00,METAR KHCR 210635Z AUTO 00000KT 10SM CLR 06/M01 A3003 RMK AO2 T00571006 $,0,0,0,16090,0,0,0,
2026-04-21 06:15:00,METAR KHCR 210615Z AUTO 00000KT 10SM CLR 06/M01 A3002 RMK AO2 T00611008 $,0,0,0,16090,0,0,0,
2026-04-21 05:55:00,METAR KHCR 210555Z AUTO 00000KT 10SM CLR 07/M01 A3002 RMK AO2 60000 T00671006 10228 20058 51014 $,0,0,0,16090,0,0,0,
2026-04-21 05:35:00,METAR KHCR 210535Z AUTO 00000KT 10SM CLR 07/M00 A3002 RMK AO2 T00691005 $,0,0,0,16090,0,0,0,
2026-04-21 05:15:00,METAR KHCR 210515Z AUTO 13004KT 10SM CLR 07/00 A3001 RMK AO2 T00690002 $,0,4,0,16090,0,0,0,
2026-04-21 04:55:00,METAR KHCR 210455Z AUTO 00000KT 10SM CLR 07/00 A3001 RMK AO2 T00690002 $,0,0,0,16090,0,0,0,
2026-04-21 04:35:00,METAR KHCR 210435Z AUTO 00000KT 10SM FEW110 08/M00 A3001 RMK AO2 T00761001 $,0,0,0,16090,0,0,0,
2026-04-21 04:15:00,METAR KHCR 210415Z AUTO 00000KT 10SM BKN110 12/M01 A3000 RMK AO2 T01231009 $,0,0,0,16090,0,0,0,
2026-04-21 03:55:00,METAR KHCR 210355Z AUTO 00000KT 10SM BKN110 12/M00 A2999 RMK AO2 T01231003 $,0,0,0,16090,0,0,0,
2026-04-21 03:35:00,METAR KHCR 210335Z AUTO 25003KT 10SM FEW110 11/M00 A2999 RMK AO2 T01141000 $,0,3,0,16090,0,0,0,
2026-04-21 03:15:00,METAR KHCR 210315Z AUTO 08003KT 10SM FEW110 15/M02 A2997 RMK AO2 T01501019 $,0,3,0,16090,0,0,0,
2026-04-21 02:55:00,METAR KHCR 210255Z AUTO 00000KT 10SM SCT120 15/M01 A2997 RMK AO2 RAE0209 P0000 60000 T01491014 55007 $,0,0,0,16090,0,0,0,RA
2026-04-21 02:35:00,METAR KHCR 210235Z AUTO 00000KT 8SM BKN120 16/M02 A2996 RMK AO2 RAE0209 P0000 T01631020 $,0,0,0,12872,0,0,0,RA
2026-04-21 02:15:00,METAR KHCR 210215Z AUTO 15004KT 8SM BKN120 14/M00 A2996 RMK AO2 RAE0209 P0000 T01411004 $,0,4,0,12872,0,0,0,RA
2026-04-21 01:55:00,METAR KHCR 210155Z AUTO 00000KT 8SM -RA FEW120 19/M03 A2996 RMK AO2 RAB0143 P0000 T01911035 $,0,0,0,12872,0,0,0,"-RA,RA"
2026-04-21 01:35:00,METAR KHCR 210135Z AUTO 18003KT 9SM SCT120 20/M04 A2996 RMK AO2 T02031037 $,0,3,0,14481,0,0,0,
2026-04-21 01:15:00,METAR KHCR 210115Z AUTO 27004KT 10SM SCT120 20/M01 A2997 RMK AO2 T02021013 $,0,4,0,16090,0,0,0,
2026-04-21 00:55:00,METAR KHCR 210055Z AUTO 24004KT 10SM FEW110 22/M02 A2998 RMK AO2 T02201023 $,0,4,0,16090,0,0,0,
2026-04-21 00:35:00,METAR KHCR 210035Z AUTO 24009KT 10SM FEW120 22/M03 A2998 RMK AO2 T02241031 $,0,9,0,16090,0,0,0,
2026-04-21 00:15:00,METAR KHCR 210015Z AUTO 24007KT 10SM FEW120 23/M04 A2998 RMK AO2 T02271040 $,0,7,0,16090,0,0,0,
2026-04-20 23:55:00,METAR KHCR 202355Z AUTO 25009KT 10SM CLR 23/M02 A2999 RMK AO2 T02281020 10232 20212 56014 $,0,9,0,16090,0,0,0,
2026-04-20 23:35:00,METAR KHCR 202335Z AUTO 26008KT 10SM CLR 23/M03 A3000 RMK AO2 T02291030 $,0,8,0,16090,0,0,0,
2026-04-20 23:15:00,METAR KHCR 202315Z AUTO 24011KT 10SM CLR 23/M03 A3000 RMK AO2 T02301031 $,0,11,0,16090,0,0,0,
2026-04-20 22:55:00,METAR KHCR 202255Z AUTO 24010G17KT 210V270 10SM CLR 23/M03 A3001 RMK AO2 T02301028 $,0,10,1,16090,0,0,0,
2026-04-20 22:35:00,METAR KHCR 202235Z AUTO 23011G18KT 10SM CLR 23/M02 A3001 RMK AO2 T02311024 $,0,11,1,16090,0,0,0,
2026-04-20 22:15:00,METAR KHCR 202215Z AUTO 24013G19KT 10SM FEW370 22/M02 A3002 RMK AO2 T02181023 $,0,13,1,16090,0,0,0,
2026-04-20 21:55:00,METAR KHCR 202155Z AUTO 24016G19KT 10SM FEW220 SCT370 23/M03 A3002 RMK AO2 T02251027 $,0,16,1,16090,0,0,0,
2026-04-20 21:35:00,METAR KHCR 202135Z AUTO 24015KT 10SM CLR 22/M03 A3003 RMK AO2 T02221031 $,0,15,0,16090,0,0,0,
2026-04-20 21:15:00,METAR KHCR 202115Z AUTO 24012G17KT 10SM FEW110 22/M01 A3003 RMK AO2 T02241014 $,0,12,1,16090,0,0,0,
2026-04-20 20:55:00,METAR KHCR 202055Z AUTO 24011G21KT 10SM FEW110 22/M02 A3004 RMK AO2 T02241022 57015 $,0,11,1,16090,0,0,0,
2026-04-20 20:35:00,METAR KHCR 202035Z AUTO 24010G18KT 10SM CLR 23/M01 A3004 RMK AO2 T02301015 $,0,10,1,16090,0,0,0,
2026-04-20 19:55:00,METAR KHCR 201955Z AUTO 24015G21KT 10SM CLR 23/M02 A3006 RMK AO2 T02281016 $,0,15,1,16090,0,0,0,
2026-04-20 19:35:00,METAR KHCR 201935Z AUTO 24014G22KT 10SM FEW100 22/M02 A3006 RMK AO2 T02181023 $,0,14,1,16090,0,0,0,
2026-04-20 19:15:00,METAR KHCR 201915Z AUTO 23015G20KT 10SM CLR 23/M01 A3007 RMK AO2 T02281009 $,0,15,1,16090,0,0,0,
2026-04-20 18:55:00,METAR KHCR 201855Z AUTO 24014KT 10SM CLR 22/M01 A3008 RMK AO2 T02241014 $,0,14,0,16090,0,0,0,
2026-04-20 18:35:00,METAR KHCR 201835Z AUTO 25014G19KT 10SM CLR 22/M01 A3008 RMK AO2 T02191010 $,0,14,1,16090,0,0,0,
2026-04-20 18:15:00,METAR KHCR 201815Z AUTO 23011KT 10SM CLR 22/M02 A3008 RMK AO2 T02181018 $,0,11,0,16090,0,0,0,
2026-04-20 17:55:00,METAR KHCR 201755Z AUTO 23011G16KT 10SM CLR 21/M02 A3009 RMK AO2 T02091020 10209 21021 56013 $,0,11,1,16090,0,0,0,
2026-04-20 17:35:00,METAR KHCR 201735Z AUTO VRB03KT 10SM CLR 19/M01 A3010 RMK AO2 T01931009 $,0,3,0,16090,0,0,0,
2026-04-20 17:15:00,METAR KHCR 201715Z AUTO VRB03KT 10SM CLR 17/M04 A3010 RMK AO2 T01681041 $,0,3,0,16090,0,0,0,
2026-04-20 16:55:00,METAR KHCR 201655Z AUTO VRB03KT 10SM CLR 15/M02 A3011 RMK AO2 T01471022 $,0,3,0,16090,0,0,0,
2026-04-20 16:35:00,METAR KHCR 201635Z AUTO 00000KT 10SM CLR 14/M03 A3011 RMK AO2 T01351026 $,0,0,0,16090,0,0,0,
2026-04-20 16:15:00,METAR KHCR 201615Z AUTO 00000KT 10SM CLR 12/M04 A3012 RMK AO2 T01201041 $,0,0,0,16090,0,0,0,
2026-04-20 15:55:00,METAR KHCR 201555Z AUTO 00000KT 10SM CLR 11/M03 A3012 RMK AO2 T01061033 $,0,0,0,16090,0,0,0,
2026-04-20 15:35:00,METAR KHCR 201535Z AUTO 00000KT 10SM CLR 09/M02 A3013 RMK AO2 T00941017 $,0,0,0,16090,0,0,0,
2026-04-20 15:15:00,METAR KHCR 201515Z AUTO 00000KT 10SM CLR 08/M05 A3013 RMK AO2 T00831046 $,0,0,0,16090,0,0,0,
2026-04-20 14:55:00,METAR KHCR 201455Z AUTO 00000KT 10SM CLR 07/M02 A3014 RMK AO2 T00671016 53009 $,0,0,0,16090,0,0,0,
2026-04-20 14:35:00,METAR KHCR 201435Z AUTO 00000KT 9SM CLR 06/M01 A3014 RMK AO2 T00551008 $,0,0,0,14481,0,0,0,
2026-04-20 14:15:00,METAR KHCR 201415Z AUTO 00000KT 10SM CLR 04/M01 A3013 RMK AO2 T00431009 $,0,0,0,16090,0,0,0,
2026-04-20 13:55:00,METAR KHCR 201355Z AUTO 00000KT 10SM CLR 03/M03 A3013 RMK AO2 T00311035 $,0,0,0,16090,0,0,0,
2026-04-20 13:35:00,METAR KHCR 201335Z AUTO 00000KT 8SM CLR 00/M03 A3012 RMK AO2 T00041034 $,0,0,0,12872,0,0,0,
2026-04-20 13:15:00,METAR KHCR 201315Z AUTO 12004KT 8SM CLR M01/M04 A3012 RMK AO2 T10091043 $,0,4,0,12872,0,0,0,
2026-04-20 12:55:00,METAR KHCR 201255Z AUTO 00000KT 8SM CLR M01/M05 A3012 RMK AO2 T10091049 $,0,0,0,12872,0,0,0,
2026-04-20 12:35:00,METAR KHCR 201235Z AUTO 00000KT 7SM CLR M01/M05 A3011 RMK AO2 T10051049 $,0,0,0,11263,0,0,0,
2026-04-20 12:15:00,METAR KHCR 201215Z AUTO 00000KT 10SM FEW160 M00/M04 A3011 RMK AO2 T10001041 $,0,0,0,16090,0,0,0,
2026-04-20 11:55:00,METAR KHCR 201155Z AUTO 00000KT 10SM SCT160 M00/M05 A3011 RMK AO2 T10001052 10066 21006 51001 $,0,0,0,16090,0,0,0,
2026-04-20 11:35:00,METAR KHCR 201135Z AUTO 13003KT 10SM CLR 01/M05 A3011 RMK AO2 T00141051 $,0,3,0,16090,0,0,0,
2026-04-20 11:15:00,METAR KHCR 201115Z AUTO 11005KT 9SM CLR 00/M04 A3011 RMK AO2 T00041037 $,0,5,0,14481,0,0,0,
2026-04-20 10:55:00,METAR KHCR 201055Z AUTO 00000KT 9SM CLR 00/M04 A3011 RMK AO2 T00031043 $,0,0,0,14481,0,0,0,
2026-04-20 10:35:00,METAR KHCR 201035Z AUTO 00000KT 10SM CLR 01/M04 A3011 RMK AO2 T00081044 $,0,0,0,16090,0,0,0,
2026-04-20 10:15:00,METAR KHCR 201015Z AUTO 00000KT 10SM CLR 03/M05 A3011 RMK AO2 T00281046 $,0,0,0,16090,0,0,0,
2026-04-20 09:55:00,METAR KHCR 200955Z AUTO 11003KT 9SM CLR 01/M05 A3011 RMK AO2 T00131048 $,0,3,0,14481,0,0,0,
2026-04-20 09:35:00,METAR KHCR 200935Z AUTO 11003KT 9SM CLR 02/M04 A3011 RMK AO2 T00161045 $,0,3,0,14481,0,0,0,
2026-04-20 09:15:00,METAR KHCR 200915Z AUTO 15003KT 10SM CLR 01/M04 A3011 RMK AO2 T00111042 $,0,3,0,16090,0,0,0,
2026-04-20 08:55:00,METAR KHCR 200855Z AUTO 00000KT 9SM CLR 02/M04 A3010 RMK AO2 T00231044 51005 $,0,0,0,14481,0,0,0,
2026-04-20 08:35:00,METAR KHCR 200835Z AUTO 00000KT 10SM CLR 01/M05 A3010 RMK AO2 T00061045 $,0,0,0,16090,0,0,0,
2026-04-20 08:15:00,METAR KHCR 200815Z AUTO 00000KT 10SM CLR 00/M05 A3010 RMK AO2 T00041048 $,0,0,0,16090,0,0,0,
2026-04-20 07:55:00,METAR KHCR 200755Z AUTO 14003KT 10SM CLR 02/M05 A3010 RMK AO2 T00221048 $,0,3,0,16090,0,0,0,
2026-04-20 07:35:00,METAR KHCR 200735Z AUTO 00000KT 10SM CLR 03/M05 A3010 RMK AO2 T00281049 $,0,0,0,16090,0,0,0,
2026-04-20 07:15:00,METAR KHCR 200715Z AUTO 00000KT 10SM CLR 05/M06 A3010 RMK AO2 T00481057 $,0,0,0,16090,0,0,0,
2026-04-20 06:55:00,METAR KHCR 200655Z AUTO 00000KT 9SM CLR 05/M06 A3009 RMK AO2 T00531056 402121060 $,0,0,0,14481,0,0,0,
2026-04-20 06:35:00,METAR KHCR 200635Z AUTO 00000KT 9SM CLR 05/M04 A3009 RMK AO2 T00451044 $,0,0,0,14481,0,0,0,
2026-04-20 06:15:00,METAR KHCR 200615Z AUTO 00000KT 10SM CLR 05/M05 A3009 RMK AO2 T00461049 $,0,0,0,16090,0,0,0,
2026-04-20 05:55:00,METAR KHCR 200555Z AUTO 00000KT 10SM CLR 06/M06 A3009 RMK AO2 T00561060 10196 20044 51015 $,0,0,0,16090,0,0,0,
2026-04-20 05:35:00,METAR KHCR 200535Z AUTO 00000KT 10SM CLR 08/M07 A3008 RMK AO2 T00781074 $,0,0,0,16090,0,0,0,
2026-04-20 05:15:00,METAR KHCR 200515Z AUTO 00000KT 10SM CLR 07/M06 A3008 RMK AO2 T00721059 $,0,0,0,16090,0,0,0,
2026-04-20 04:55:00,METAR KHCR 200455Z AUTO 20003KT 10SM CLR 07/M06 A3008 RMK AO2 T00731064 $,0,3,0,16090,0,0,0,
2026-04-20 04:35:00,METAR KHCR 200435Z AUTO 14004KT 9SM CLR 05/M05 A3007 RMK AO2 T00491045 $,0,4,0,14481,0,0,0,
2026-04-20 04:15:00,METAR KHCR 200415Z AUTO 00000KT 9SM CLR 08/M05 A3007 RMK AO2 T00801054 $,0,0,0,14481,0,0,0,
2026-04-20 03:55:00,METAR KHCR 200355Z AUTO 00000KT 9SM CLR 11/M06 A3006 RMK AO2 T01061061 $,0,0,0,14481,0,0,0,
2026-04-20 03:35:00,METAR KHCR 200335Z AUTO 10005KT 10SM CLR 11/M07 A3005 RMK AO2 T01141068 $,0,5,0,16090,0,0,0,
2026-04-20 03:15:00,METAR KHCR 200315Z AUTO 10006KT 9SM CLR 13/M08 A3005 RMK AO2 T01351080 $,0,6,0,14481,0,0,0,
2026-04-20 02:55:00,METAR KHCR 200255Z AUTO 00000KT 10SM CLR 15/M11 A3004 RMK AO2 T01461107 53003 $,0,0,0,16090,0,0,0,
2026-04-20 02:35:00,METAR KHCR 200235Z AUTO 16005KT 9SM CLR 15/M11 A3003 RMK AO2 T01491114 $,0,5,0,14481,0,0,0,
2026-04-20 02:15:00,METAR KHCR 200215Z AUTO 18005KT 9SM CLR 17/M13 A3003 RMK AO2 T01651126 $,0,5,0,14481,0,0,0,
2026-04-20 01:55:00,METAR KHCR 200155Z AUTO 21005KT 8SM CLR 17/M11 A3003 RMK AO2 T01681114 $,0,5,0,12872,0,0,0,
2026-04-20 01:35:00,METAR KHCR 200135Z AUTO 21005KT 8SM CLR 17/M10 A3003 RMK AO2 T01661102 $,0,5,0,12872,0,0,0,
2026-04-20 01:15:00,METAR KHCR 200115Z AUTO 23008KT 10SM CLR 18/M07 A3002 RMK AO2 T01771074 $,0,8,0,16090,0,0,0,
2026-04-20 00:55:00,METAR KHCR 200055Z AUTO 23009KT 10SM FEW240 19/M10 A3002 RMK AO2 T01921103 $,0,9,0,16090,0,0,0,
2026-04-20 00:35:00,METAR KHCR 200035Z AUTO 24009KT 10SM CLR 19/M10 A3003 RMK AO2 T01901105 $,0,9,0,16090,0,0,0,
2026-04-20 00:15:00,METAR KHCR 200015Z AUTO 23007KT 10SM FEW230 19/M09 A3003 RMK AO2 T01901090 $,0,7,0,16090,0,0,0,
2026-04-19 23:55:00,METAR KHCR 192355Z AUTO 23008KT 10SM FEW220 20/M10 A3003 RMK AO2 T01971095 10212 20147 56015 $,0,8,0,16090,0,0,0,
2026-04-19 23:35:00,METAR KHCR 192335Z AUTO VRB04KT 10SM CLR 21/M12 A3003 RMK AO2 T02081125 $,0,4,0,16090,0,0,0,
2026-04-19 23:15:00,METAR KHCR 192315Z AUTO VRB04KT 10SM CLR 21/M14 A3003 RMK AO2 T02081136 $,0,4,0,16090,0,0,0,
2026-04-19 22:55:00,METAR KHCR 192255Z AUTO 23007KT 10SM CLR 21/M12 A3003 RMK AO2 T02081123 $,0,7,0,16090,0,0,0,
2026-04-19 22:35:00,METAR KHCR 192235Z AUTO 25003KT 10SM CLR 20/M14 A3004 RMK AO2 T02041141 $,0,3,0,16090,0,0,0,
2026-04-19 22:15:00,METAR KHCR 192215Z AUTO VRB03KT 10SM CLR 21/M13 A3004 RMK AO2 T02051128 $,0,3,0,16090,0,0,0,
2026-04-19 21:55:00,METAR KHCR 192155Z AUTO 25009KT 10SM CLR 20/M12 A3006 RMK AO2 T02051118 $,0,9,0,16090,0,0,0,
2026-04-19 21:35:00,METAR KHCR 192135Z AUTO 25012KT 10SM CLR 21/M11 A3006 RMK AO2 T02071111 $,0,12,0,16090,0,0,0,
2026-04-19 21:15:00,METAR KHCR 192115Z AUTO 24009KT 10SM CLR 21/M11 A3007 RMK AO2 T02061112 $,0,9,0,16090,0,0,0,
2026-04-19 20:55:00,METAR KHCR 192055Z AUTO 25013KT 10SM CLR 20/M13 A3008 RMK AO2 T02041126 56018 $,0,13,0,16090,0,0,0,
2026-04-19 20:35:00,METAR KHCR 192035Z AUTO 26009KT 10SM CLR 20/M13 A3008 RMK AO2 T02041131 $,0,9,0,16090,0,0,0,
2026-04-19 20:15:00,METAR KHCR 192015Z AUTO 23010KT 10SM CLR 20/M13 A3009 RMK AO2 T02001126 $,0,10,0,16090,0,0,0,
2026-04-19 19:55:00,METAR KHCR 191955Z AUTO 23008KT 10SM CLR 20/M09 A3009 RMK AO2 T01991086 $,0,8,0,16090,0,0,0,
2026-04-19 19:35:00,METAR KHCR 191935Z AUTO 27005KT 10SM CLR 19/M10 A3009 RMK AO2 T01931095 $,0,5,0,16090,0,0,0,
2026-04-19 19:15:00,METAR KHCR 191915Z AUTO 24006KT 10SM CLR 19/M08 A3010 RMK AO2 T01911082 $,0,6,0,16090,0,0,0,
2026-04-19 18:55:00,METAR KHCR 191855Z AUTO 00000KT 10SM FEW350 18/M09 A3011 RMK AO2 T01791093 $,0,0,0,16090,0,0,0,
2026-04-19 18:35:00,METAR KHCR 191835Z AUTO 00000KT 10SM CLR 17/M06 A3012 RMK AO2 T01721063 $,0,0,0,16090,0,0,0,
2026-04-19 18:15:00,METAR KHCR 191815Z AUTO 00000KT 10SM CLR 16/M04 A3013 RMK AO2 T01561041 $,0,0,0,16090,0,0,0,
2026-04-19 17:55:00,METAR KHCR 191755Z AUTO 00000KT 10SM CLR 14/M05 A3014 RMK AO2 T01421046 10142 21060 57014 $,0,0,0,16090,0,0,0,
2026-04-19 17:35:00,METAR KHCR 191735Z AUTO 00000KT 10SM CLR 13/M07 A3014 RMK AO2 T01301074 $,0,0,0,16090,0,0,0,
2026-04-19 17:15:00,METAR KHCR 191715Z AUTO 00000KT 10SM CLR 12/M08 A3015 RMK AO2 T01191080 $,0,0,0,16090,0,0,0,
2026-04-19 16:55:00,METAR KHCR 191655Z AUTO 00000KT 10SM CLR 10/M07 A3015 RMK AO2 T01031072 $,0,0,0,16090,0,0,0,
2026-04-19 16:35:00,METAR KHCR 191635Z AUTO 00000KT 10SM CLR 10/M08 A3016 RMK AO2 T00961077 $,0,0,0,16090,0,0,0,
2026-04-19 16:15:00,METAR KHCR 191615Z AUTO 00000KT 10SM CLR 07/M07 A3016 RMK AO2 T00751065 $,0,0,0,16090,0,0,0,
2026-04-19 15:55:00,METAR KHCR 191555Z AUTO 00000KT 10SM CLR 07/M07 A3017 RMK AO2 T00661070 $,0,0,0,16090,0,0,0,
2026-04-19 15:35:00,METAR KHCR 191535Z AUTO 00000KT 10SM CLR 06/M06 A3018 RMK AO2 T00551065 $,0,0,0,16090,0,0,0,
2026-04-19 15:15:00,METAR KHCR 191515Z AUTO 00000KT 10SM CLR 04/M07 A3018 RMK AO2 T00391070 $,0,0,0,16090,0,0,0,
2026-04-19 14:55:00,METAR KHCR 191455Z AUTO 00000KT 9SM CLR 02/M05 A3019 RMK AO2 T00221052 53006 $,0,0,0,14481,0,0,0,
2026-04-19 14:35:00,METAR KHCR 191435Z AUTO 00000KT 10SM CLR 02/M05 A3019 RMK AO2 T00161051 $,0,0,0,16090,0,0,0,
2026-04-19 14:15:00,METAR KHCR 191415Z AUTO 00000KT 10SM CLR 01/M06 A3019 RMK AO2 T00101061 $,0,0,0,16090,0,0,0,
2026-04-19 13:55:00,METAR KHCR 191355Z AUTO 00000KT 10SM CLR M00/M06 A3018 RMK AO2 T10041056 $,0,0,0,16090,0,0,0,
2026-04-19 13:35:00,METAR KHCR 191335Z AUTO 00000KT 9SM CLR M03/M06 A3018 RMK AO2 T10261061 $,0,0,0,14481,0,0,0,
2026-04-19 13:15:00,METAR KHCR 191315Z AUTO 00000KT 9SM CLR M04/M07 A3017 RMK AO2 T10421074 $,0,0,0,14481,0,0,0,
2026-04-19 12:55:00,METAR KHCR 191255Z AUTO 00000KT 8SM CLR M05/M08 A3017 RMK AO2 T10551081 $,0,0,0,12872,0,0,0,
2026-04-19 12:35:00,METAR KHCR 191235Z AUTO 00000KT 7SM CLR M06/M08 A3017 RMK AO2 T10591081 $,0,0,0,11263,0,0,0,
2026-04-19 12:15:00,METAR KHCR 191215Z AUTO 00000KT 9SM CLR M05/M08 A3017 RMK AO2 T10461078 $,0,0,0,14481,0,0,0,
2026-04-19 11:55:00,METAR KHCR 191155Z AUTO 00000KT 10SM CLR M05/M08 A3017 RMK AO2 T10491076 10033 21058 57003 $,0,0,0,16090,0,0,0,
2026-04-19 11:35:00,METAR KHCR 191135Z AUTO 00000KT 9SM CLR M05/M07 A3017 RMK AO2 T10491074 $,0,0,0,14481,0,0,0,
2026-04-19 11:15:00,METAR KHCR 191115Z AUTO 00000KT 10SM CLR M05/M07 A3017 RMK AO2 T10471070 $,0,0,0,16090,0,0,0,
2026-04-19 10:55:00,METAR KHCR 191055Z AUTO 00000KT 9SM CLR M04/M07 A3017 RMK AO2 T10401068 $,0,0,0,14481,0,0,0,
2026-04-19 10:35:00,METAR KHCR 191035Z AUTO 00000KT 10SM CLR M04/M07 A3017 RMK AO2 T10401070 $,0,0,0,16090,0,0,0,
2026-04-19 10:15:00,METAR KHCR 191015Z AUTO 00000KT 9SM CLR M04/M08 A3017 RMK AO2 T10361077 $,0,0,0,14481,0,0,0,
2026-04-19 09:55:00,METAR KHCR 190955Z AUTO 00000KT 10SM CLR M04/M08 A3017 RMK AO2 T10391083 $,0,0,0,16090,0,0,0,
2026-04-19 09:35:00,METAR KHCR 190935Z AUTO 00000KT 10SM CLR M03/M08 A3017 RMK AO2 T10281080 $,0,0,0,16090,0,0,0,
2026-04-19 09:15:00,METAR KHCR 190915Z AUTO 17003KT 10SM CLR M03/M08 A3017 RMK AO2 T10271078 $,0,3,0,16090,0,0,0,
2026-04-19 08:55:00,METAR KHCR 190855Z AUTO 00000KT 10SM CLR M02/M08 A3018 RMK AO2 T10241081 50002 $,0,0,0,16090,0,0,0,
2026-04-19 08:35:00,METAR KHCR 190835Z AUTO 00000KT 9SM CLR M02/M08 A3018 RMK AO2 T10151080 $,0,0,0,14481,0,0,0,
2026-04-19 08:15:00,METAR KHCR 190815Z AUTO 00000KT 10SM CLR M00/M08 A3018 RMK AO2 T10021080 $,0,0,0,16090,0,0,0,
2026-04-19 07:55:00,METAR KHCR 190755Z AUTO 00000KT 10SM CLR M00/M08 A3018 RMK AO2 T10041084 $,0,0,0,16090,0,0,0,
2026-04-19 07:35:00,METAR KHCR 190735Z AUTO 00000KT 10SM CLR M01/M08 A3018 RMK AO2 T10101080 $,0,0,0,16090,0,0,0,
2026-04-19 07:15:00,METAR KHCR 190715Z AUTO 00000KT 9SM CLR 00/M08 A3018 RMK AO2 T00041082 $,0,0,0,14481,0,0,0,
2026-04-19 06:55:00,METAR KHCR 190655Z AUTO 25003KT 9SM CLR 01/M08 A3017 RMK AO2 T00081081 401511094 $,0,3,0,14481,0,0,0,
2026-04-19 06:35:00,METAR KHCR 190635Z AUTO 00000KT 10SM CLR 00/M08 A3017 RMK AO2 T00011082 $,0,0,0,16090,0,0,0,
2026-04-19 06:15:00,METAR KHCR 190615Z AUTO 00000KT 10SM CLR 02/M08 A3017 RMK AO2 T00181080 $,0,0,0,16090,0,0,0,
2026-04-19 05:55:00,METAR KHCR 190555Z AUTO VRB04KT 10SM CLR 03/M08 A3017 RMK AO2 T00341083 10149 20010 50007 $,0,4,0,16090,0,0,0,
2026-04-19 05:35:00,METAR KHCR 190535Z AUTO 00000KT 10SM SCT140 03/M08 A3017 RMK AO2 T00321083 $,0,0,0,16090,0,0,0,
2026-04-19 05:15:00,METAR KHCR 190515Z AUTO 00000KT 10SM SCT140 05/M09 A3017 RMK AO2 T00471092 $,0,0,0,16090,0,0,0,
2026-04-19 04:55:00,METAR KHCR 190455Z AUTO 16003KT 10SM CLR 02/M08 A3018 RMK AO2 T00231077 $,0,3,0,16090,0,0,0,
2026-04-19 04:35:00,METAR KHCR 190435Z AUTO 00000KT 10SM CLR 02/M08 A3018 RMK AO2 T00211080 $,0,0,0,16090,0,0,0,
2026-04-19 04:15:00,METAR KHCR 190415Z AUTO 00000KT 10SM CLR 05/M09 A3018 RMK AO2 T00471093 $,0,0,0,16090,0,0,0,
2026-04-19 03:55:00,METAR KHCR 190355Z AUTO 18003KT 10SM CLR 07/M09 A3018 RMK AO2 T00721094 $,0,3,0,16090,0,0,0,
2026-04-19 03:35:00,METAR KHCR 190335Z AUTO 00000KT 10SM CLR 08/M10 A3017 RMK AO2 T00821101 $,0,0,0,16090,0,0,0,
2026-04-19 03:15:00,METAR KHCR 190315Z AUTO 13004KT 10SM CLR 08/M10 A3016 RMK AO2 T00791098 $,0,4,0,16090,0,0,0,
2026-04-19 02:55:00,METAR KHCR 190255Z AUTO 00000KT 9SM FEW150 10/M10 A3015 RMK AO2 T00951095 53003 $,0,0,0,14481,0,0,0,
2026-04-19 02:35:00,METAR KHCR 190235Z AUTO 08004KT 9SM SCT150 09/M08 A3014 RMK AO2 T00861084 $,0,4,0,14481,0,0,0,
2026-04-19 02:15:00,METAR KHCR 190215Z AUTO 15004KT 8SM CLR 07/M05 A3013 RMK AO2 T00731049 $,0,4,0,12872,0,0,0,
2026-04-19 01:55:00,METAR KHCR 190155Z AUTO VRB03KT 9SM CLR 12/M08 A3013 RMK AO2 T01151080 $,0,3,0,14481,0,0,0,
2026-04-19 01:35:00,METAR KHCR 190135Z AUTO 00000KT 9SM CLR 13/M07 A3013 RMK AO2 T01281075 $,0,0,0,14481,0,0,0,
2026-04-19 01:15:00,METAR KHCR 190115Z AUTO 21004KT 10SM CLR 14/M07 A3013 RMK AO2 T01391067 $,0,4,0,16090,0,0,0,
2026-04-19 00:55:00,METAR KHCR 190055Z AUTO 24004KT 10SM CLR 14/M08 A3013 RMK AO2 T01421075 $,0,4,0,16090,0,0,0,
2026-04-19 00:35:00,METAR KHCR 190035Z AUTO 24005KT 10SM CLR 14/M08 A3013 RMK AO2 T01431078 $,0,5,0,16090,0,0,0,
2026-04-19 00:15:00,METAR KHCR 190015Z AUTO 24004KT 10SM FEW140 15/M08 A3014 RMK AO2 T01481080 $,0,4,0,16090,0,0,0,
2026-04-18 23:55:00,METAR KHCR 182355Z AUTO 24006KT 10SM CLR 14/M09 A3014 RMK AO2 T01441088 10151 20066 56020 $,0,6,0,16090,0,0,0,
2026-04-18 23:35:00,METAR KHCR 182335Z AUTO 27005KT 10SM CLR 15/M09 A3014 RMK AO2 T01491094 $,0,5,0,16090,0,0,0,
2026-04-18 23:15:00,METAR KHCR 182315Z AUTO 27005KT 10SM CLR 15/M09 A3014 RMK AO2 T01451089 $,0,5,0,16090,0,0,0,
2026-04-18 22:55:00,METAR KHCR 182255Z AUTO 00000KT 10SM FEW150 14/M10 A3015 RMK AO2 T01401104 $,0,0,0,16090,0,0,0,
2026-04-18 22:35:00,METAR KHCR 182235Z AUTO 00000KT 10SM SCT160 14/M09 A3016 RMK AO2 T01401087 $,0,0,0,16090,0,0,0,
2026-04-18 22:15:00,METAR KHCR 182215Z AUTO 00000KT 10SM SCT160 SCT180 13/M09 A3017 RMK AO2 T01331090 $,0,0,0,16090,0,0,0,
2026-04-18 21:55:00,METAR KHCR 182155Z AUTO 00000KT 10SM FEW160 SCT180 13/M09 A3018 RMK AO2 T01341085 $,0,0,0,16090,0,0,0,
2026-04-18 21:35:00,METAR KHCR 182135Z AUTO 01005KT 10SM SCT160 SCT370 13/M08 A3019 RMK AO2 T01311079 $,0,5,0,16090,0,0,0,
2026-04-18 21:15:00,METAR KHCR 182115Z AUTO 00000KT 10SM FEW160 SCT370 13/M08 A3019 RMK AO2 T01261077 $,0,0,0,16090,0,0,0,
2026-04-18 20:55:00,METAR KHCR 182055Z AUTO 35003KT 10SM SCT160 12/M08 A3021 RMK AO2 T01161084 56025 $,0,3,0,16090,0,0,0,
2026-04-18 20:35:00,METAR KHCR 182035Z AUTO 00000KT 10SM SCT160 10/M09 A3021 RMK AO2 T01041094 $,0,0,0,16090,0,0,0,
2026-04-18 20:15:00,METAR KHCR 182015Z AUTO 00000KT 10SM FEW160 SCT180 SCT360 10/M09 A3022 RMK AO2 T01041090 $,0,0,0,16090,0,0,0,
2026-04-18 19:55:00,METAR KHCR 181955Z AUTO 36004KT 10SM FEW170 SCT350 10/M08 A3023 RMK AO2 T00991080 $,0,4,0,16090,0,0,0,
2026-04-18 19:35:00,METAR KHCR 181935Z AUTO 00000KT 10SM FEW160 SCT360 09/M10 A3024 RMK AO2 T00891095 $,0,0,0,16090,0,0,0,
2026-04-18 19:15:00,METAR KHCR 181915Z AUTO 00000KT 10SM FEW310 SCT370 09/M09 A3025 RMK AO2 T00911092 $,0,0,0,16090,0,0,0,
2026-04-18 18:55:00,METAR KHCR 181855Z AUTO 00000KT 10SM FEW330 08/M11 A3026 RMK AO2 T00771105 $,0,0,0,16090,0,0,0,
2026-04-18 18:35:00,METAR KHCR 181835Z AUTO VRB03KT 10SM CLR 07/M11 A3027 RMK AO2 T00731106 $,0,3,0,16090,0,0,0,
2026-04-18 18:15:00,METAR KHCR 181815Z AUTO 00000KT 10SM CLR 07/M10 A3028 RMK AO2 T00741103 $,0,0,0,16090,0,0,0,
2026-04-18 17:55:00,METAR KHCR 181755Z AUTO 00000KT 10SM CLR 06/M11 A3029 RMK AO2 T00561112 10059 21094 58008 $,0,0,0,16090,0,0,0,
2026-04-18 17:35:00,METAR KHCR 181735Z AUTO 00000KT 10SM CLR 05/M10 A3029 RMK AO2 T00481097 $,0,0,0,16090,0,0,0,
2026-04-18 17:15:00,METAR KHCR 181715Z AUTO 00000KT 10SM CLR 04/M11 A3030 RMK AO2 T00401106 $,0,0,0,16090,0,0,0,
2026-04-18 16:55:00,METAR KHCR 181655Z AUTO 00000KT 10SM CLR 02/M10 A3031 RMK AO2 T00241097 $,0,0,0,16090,0,0,0,
2026-04-18 16:35:00,METAR KHCR 181635Z AUTO 00000KT 10SM CLR 02/M09 A3031 RMK AO2 T00151094 $,0,0,0,16090,0,0,0,
2026-04-18 16:15:00,METAR KHCR 181615Z AUTO 00000KT 10SM CLR 01/M09 A3031 RMK AO2 T00091090 $,0,0,0,16090,0,0,0,
2026-04-18 15:55:00,METAR KHCR 181555Z AUTO 00000KT 10SM CLR M01/M09 A3032 RMK AO2 T10081091 $,0,0,0,16090,0,0,0,
2026-04-18 15:15:00,METAR KHCR 181515Z AUTO 00000KT 10SM CLR M02/M10 A3032 RMK AO2 T10251100 $,0,0,0,16090,0,0,0,
2026-04-18 14:55:00,METAR KHCR 181455Z AUTO 00000KT 10SM CLR M03/M09 A3032 RMK AO2 T10341087 52013 $,0,0,0,16090,0,0,0,
2026-04-18 14:35:00,METAR KHCR 181435Z AUTO 00000KT 10SM CLR M04/M10 A3032 RMK AO2 T10361096 $,0,0,0,16090,0,0,0,
2026-04-18 14:15:00,METAR KHCR 181415Z AUTO 00000KT 10SM CLR M04/M09 A3031 RMK AO2 T10451092 $,0,0,0,16090,0,0,0,
2026-04-18 13:55:00,METAR KHCR 181355Z AUTO 00000KT 10SM CLR M06/M10 A3031 RMK AO2 T10601101 $,0,0,0,16090,0,0,0,
2026-04-18 13:35:00,METAR KHCR 181335Z AUTO 00000KT 10SM CLR M06/M09 A3030 RMK AO2 T10631095 $,0,0,0,16090,0,0,0,
2026-04-18 13:15:00,METAR KHCR 181315Z AUTO 00000KT 9SM CLR M08/M11 A3030 RMK AO2 T10801109 $,0,0,0,14481,0,0,0,
2026-04-18 12:55:00,METAR KHCR 181255Z AUTO 14003KT 9SM CLR M09/M12 A3029 RMK AO2 T10901118 $,0,3,0,14481,0,0,0,
2026-04-18 12:35:00,METAR KHCR 181235Z AUTO 00000KT 9SM CLR M09/M12 A3028 RMK AO2 T10861121 $,0,0,0,14481,0,0,0,
2026-04-18 12:15:00,METAR KHCR 181215Z AUTO 00000KT 10SM CLR M08/M11 A3027 RMK AO2 T10851113 $,0,0,0,16090,0,0,0,
2026-04-18 11:55:00,METAR KHCR 181155Z AUTO 00000KT 10SM CLR M08/M11 A3027 RMK AO2 70002 T10821112 11042 21086 51006 $,0,0,0,16090,0,0,0,
2026-04-18 11:35:00,METAR KHCR 181135Z AUTO 00000KT 9SM CLR M08/M11 A3027 RMK AO2 T10831112 $,0,0,0,14481,0,0,0,
2026-04-18 11:15:00,METAR KHCR 181115Z AUTO 14003KT 9SM CLR M08/M11 A3027 RMK AO2 T10821112 $,0,3,0,14481,0,0,0,
2026-04-18 10:55:00,METAR KHCR 181055Z AUTO 16003KT 9SM CLR M08/M11 A3027 RMK AO2 T10811113 $,0,3,0,14481,0,0,0,
2026-04-18 10:35:00,METAR KHCR 181035Z AUTO 00000KT 10SM CLR M08/M12 A3027 RMK AO2 T10831117 $,0,0,0,16090,0,0,0,
2026-04-18 10:15:00,METAR KHCR 181015Z AUTO 00000KT 9SM CLR M06/M11 A3027 RMK AO2 T10641107 $,0,0,0,14481,0,0,0,
2026-04-18 09:55:00,METAR KHCR 180955Z AUTO 13003KT 10SM CLR M07/M11 A3026 RMK AO2 T10731108 $,0,3,0,16090,0,0,0,
2026-04-18 09:35:00,METAR KHCR 180935Z AUTO 14003KT 9SM CLR M07/M11 A3026 RMK AO2 T10651107 $,0,3,0,14481,0,0,0,
2026-04-18 09:15:00,METAR KHCR 180915Z AUTO 16003KT 9SM CLR M06/M11 A3026 RMK AO2 T10641110 $,0,3,0,14481,0,0,0,
2026-04-18 08:55:00,METAR KHCR 180855Z AUTO 00000KT 10SM CLR M06/M11 A3025 RMK AO2 T10631108 53006 $,0,0,0,16090,0,0,0,
2026-04-18 08:35:00,METAR KHCR 180835Z AUTO 00000KT 10SM CLR M06/M11 A3025 RMK AO2 T10631107 $,0,0,0,16090,0,0,0,
2026-04-18 08:15:00,METAR KHCR 180815Z AUTO 13003KT 10SM CLR M06/M11 A3025 RMK AO2 T10601110 $,0,3,0,16090,0,0,0,
2026-04-18 07:55:00,METAR KHCR 180755Z AUTO 14003KT 10SM CLR M07/M10 A3024 RMK AO2 T10661105 $,0,3,0,16090,0,0,0,
2026-04-18 07:35:00,METAR KHCR 180735Z AUTO 00000KT 10SM CLR M06/M11 A3024 RMK AO2 T10571105 $,0,0,0,16090,0,0,0,
2026-04-18 07:15:00,METAR KHCR 180715Z AUTO 00000KT 10SM CLR M05/M11 A3024 RMK AO2 T10521109 $,0,0,0,16090,0,0,0,
2026-04-18 06:55:00,METAR KHCR 180655Z AUTO 13003KT 10SM CLR M05/M10 A3024 RMK AO2 T10521102 400651094 $,0,3,0,16090,0,0,0,
2026-04-18 06:35:00,METAR KHCR 180635Z AUTO 17003KT 10SM CLR M04/M10 A3023 RMK AO2 T10451104 $,0,3,0,16090,0,0,0,
2026-04-18 06:15:00,METAR KHCR 180615Z AUTO 00000KT 10SM CLR M05/M10 A3023 RMK AO2 T10541103 $,0,0,0,16090,0,0,0,
2026-04-18 05:55:00,METAR KHCR 180555Z AUTO 00000KT 10SM CLR M05/M10 A3023 RMK AO2 T10501101 10059 21054 51015 $,0,0,0,16090,0,0,0,
2026-04-18 05:35:00,METAR KHCR 180535Z AUTO 00000KT 10SM CLR M04/M10 A3023 RMK AO2 T10441098 $,0,0,0,16090,0,0,0,
2026-04-18 05:15:00,METAR KHCR 180515Z AUTO 00000KT 10SM CLR M04/M10 A3023 RMK AO2 T10371100 $,0,0,0,16090,0,0,0,
2026-04-18 04:55:00,METAR KHCR 180455Z AUTO 13003KT 9SM CLR M04/M10 A3023 RMK AO2 T10351105 $,0,3,0,14481,0,0,0,
2026-04-18 04:35:00,METAR KHCR 180435Z AUTO 00000KT 10SM CLR M02/M11 A3022 RMK AO2 T10211109 $,0,0,0,16090,0,0,0,
2026-04-18 04:15:00,METAR KHCR 180415Z AUTO 00000KT 10SM CLR M02/M10 A3022 RMK AO2 T10211099 $,0,0,0,16090,0,0,0,
2026-04-18 03:55:00,METAR KHCR 180355Z AUTO 00000KT 10SM CLR M00/M12 A3021 RMK AO2 T10021117 $,0,0,0,16090,0,0,0,
2026-04-18 03:35:00,METAR KHCR 180335Z AUTO 13003KT 10SM CLR M01/M11 A3020 RMK AO2 T10061113 $,0,3,0,16090,0,0,0,
2026-04-18 03:15:00,METAR KHCR 180315Z AUTO 00000KT 10SM CLR M00/M12 A3019 RMK AO2 T10031115 $,0,0,0,16090,0,0,0,
2026-04-18 02:55:00,METAR KHCR 180255Z AUTO 04006KT 10SM CLR 02/M12 A3018 RMK AO2 T00161124 53009 $,0,6,0,16090,0,0,0,
2026-04-18 02:35:00,METAR KHCR 180235Z AUTO 03005KT 10SM CLR 01/M12 A3017 RMK AO2 T00121123 $,0,5,0,16090,0,0,0,
2026-04-18 02:15:00,METAR KHCR 180215Z AUTO 36006KT 9SM CLR 01/M10 A3017 RMK AO2 T00061103 $,0,6,0,14481,0,0,0,
2026-04-18 01:55:00,METAR KHCR 180155Z AUTO 32004KT 10SM CLR 02/M12 A3016 RMK AO2 T00201118 $,0,4,0,16090,0,0,0,
2026-04-18 01:35:00,METAR KHCR 180135Z AUTO 33007KT 10SM CLR 03/M13 A3016 RMK AO2 T00321129 $,0,7,0,16090,0,0,0,
2026-04-18 01:15:00,METAR KHCR 180115Z AUTO 31008KT 10SM CLR 04/M13 A3016 RMK AO2 T00441132 $,0,8,0,16090,0,0,0,
2026-04-18 00:55:00,METAR KHCR 180055Z AUTO 32012KT 10SM CLR 05/M14 A3015 RMK AO2 T00501144 $,0,12,0,16090,0,0,0,
2026-04-18 00:35:00,METAR KHCR 180035Z AUTO 31008KT 10SM CLR 05/M14 A3015 RMK AO2 T00551138 $,0,8,0,16090,0,0,0,
2026-04-18 00:15:00,METAR KHCR 180015Z AUTO VRB03KT 10SM CLR 06/M13 A3015 RMK AO2 T00551125 $,0,3,0,16090,0,0,0,
2026-04-17 23:55:00,METAR KHCR 172355Z AUTO VRB05KT 10SM CLR 06/M15 A3015 RMK AO2 T00581150 10065 20013 56011 $,0,5,0,16090,0,0,0,
2026-04-17 23:35:00,METAR KHCR 172335Z AUTO 28009KT 10SM CLR 06/M12 A3015 RMK AO2 T00601117 $,0,9,0,16090,0,0,0,
2026-04-17 23:15:00,METAR KHCR 172315Z AUTO 27009G18KT 10SM CLR 06/M12 A3015 RMK AO2 T00601123 $,0,9,1,16090,0,0,0,
2026-04-17 22:55:00,METAR KHCR 172255Z AUTO 23012KT 10SM FEW075 06/M10 A3015 RMK AO2 T00621105 $,0,12,0,16090,0,0,0,
2026-04-17 22:35:00,METAR KHCR 172235Z AUTO 24009G15KT 10SM SCT070 06/M10 A3015 RMK AO2 T00601103 $,0,9,1,16090,0,0,0,
2026-04-17 22:15:00,METAR KHCR 172215Z AUTO VRB03KT 10SM FEW075 04/M12 A3016 RMK AO2 T00441122 $,0,3,0,16090,0,0,0,
2026-04-17 21:55:00,METAR KHCR 172155Z AUTO 00000G16KT 10SM SCT075 04/M11 A3017 RMK AO2 T00451113 $,0,0,1,16090,0,0,0,
2026-04-17 21:35:00,METAR KHCR 172135Z AUTO 27010KT 10SM BKN065 06/M08 A3017 RMK AO2 T00621083 $,0,10,0,16090,0,0,0,
2026-04-17 21:15:00,METAR KHCR 172115Z AUTO 29004KT 10SM FEW049 OVC065 05/M10 A3018 RMK AO2 T00501096 $,0,4,0,16090,0,0,0,
2026-04-17 20:55:00,METAR KHCR 172055Z AUTO 00000KT 10SM BKN055 OVC070 04/M10 A3019 RMK AO2 T00391103 55003 $,0,0,0,16090,0,0,0,
2026-04-17 20:35:00,METAR KHCR 172035Z AUTO VRB03KT 10SM BKN060 OVC070 04/M10 A3019 RMK AO2 T00361100 $,0,3,0,16090,0,0,0,
2026-04-17 20:15:00,METAR KHCR 172015Z AUTO 25008KT 210V290 10SM OVC065 04/M09 A3018 RMK AO2 T00351085 $,0,8,0,16090,0,0,0,
2026-04-17 19:55:00,METAR KHCR 171955Z AUTO VRB05KT 10SM BKN050 OVC065 03/M08 A3018 RMK AO2 T00321080 $,0,5,0,16090,0,0,0,
2026-04-17 19:35:00,METAR KHCR 171935Z AUTO 00000KT 10SM OVC050 02/M10 A3019 RMK AO2 T00241098 $,0,0,0,16090,0,0,0,
2026-04-17 19:15:00,METAR KHCR 171915Z AUTO VRB03KT 10SM BKN050 BKN070 03/M10 A3019 RMK AO2 T00291095 $,0,3,0,16090,0,0,0,
2026-04-17 18:55:00,METAR KHCR 171855Z AUTO 00000KT 10SM FEW050 OVC070 03/M09 A3019 RMK AO2 T00271095 $,0,0,0,16090,0,0,0,
2026-04-17 18:35:00,METAR KHCR 171835Z AUTO 21005KT 10SM OVC060 02/M10 A3019 RMK AO2 T00211104 $,0,5,0,16090,0,0,0,
2026-04-17 18:15:00,METAR KHCR 171815Z AUTO 26005KT 10SM BKN065 02/M10 A3020 RMK AO2 T00161100 $,0,5,0,16090,0,0,0,
2026-04-17 17:55:00,METAR KHCR 171755Z AUTO VRB03KT 10SM SCT065 02/M09 A3020 RMK AO2 60002 T00171086 10017 21072 53006 $,0,3,0,16090,0,0,0,
2026-04-17 17:35:00,METAR KHCR 171735Z AUTO 24004KT 10SM CLR 01/M08 A3020 RMK AO2 T00121076 $,0,4,0,16090,0,0,0,
2026-04-17 17:15:00,METAR KHCR 171715Z AUTO 25003KT 10SM CLR 01/M07 A3019 RMK AO2 T00071072 $,0,3,0,16090,0,0,0,
2026-04-17 16:55:00,METAR KHCR 171655Z AUTO 00000KT 10SM CLR M00/M08 A3019 RMK AO2 T10031080 $,0,0,0,16090,0,0,0,
2026-04-17 16:35:00,METAR KHCR 171635Z AUTO 00000KT 10SM CLR M01/M08 A3019 RMK AO2 T10091085 $,0,0,0,16090,0,0,0,
2026-04-17 16:15:00,METAR KHCR 171615Z AUTO 00000KT 10SM CLR M02/M08 A3019 RMK AO2 T10151075 $,0,0,0,16090,0,0,0,
2026-04-17 15:55:00,METAR KHCR 171555Z AUTO 00000KT 10SM FEW043 SCT060 M02/M08 A3019 RMK AO2 P0002 T10221084 $,0,0,0,16090,0,0,0,
2026-04-17 15:35:00,METAR KHCR 171535Z AUTO 00000KT 10SM FEW047 BKN060 M02/M09 A3019 RMK AO2 P0002 T10231087 $,0,0,0,16090,0,0,0,
2026-04-17 15:15:00,METAR KHCR 171515Z AUTO 00000KT 10SM SCT060 M03/M09 A3018 RMK AO2 P0002 T10291093 $,0,0,0,16090,0,0,0,
2026-04-17 14:55:00,METAR KHCR 171455Z AUTO 00000KT 10SM FEW060 M04/M09 A3018 RMK AO2 T10351088 52024 $,0,0,0,16090,0,0,0,
2026-04-17 14:35:00,METAR KHCR 171435Z AUTO 00000KT 10SM FEW060 M04/M09 A3017 RMK AO2 T10381092 $,0,0,0,16090,0,0,0,
2026-04-17 14:15:00,METAR KHCR 171415Z AUTO 00000KT 10SM CLR M04/M09 A3016 RMK AO2 T10411093 $,0,0,0,16090,0,0,0,
2026-04-17 13:55:00,METAR KHCR 171355Z AUTO 00000KT 10SM FEW055 M05/M09 A3015 RMK AO2 T10531086 $,0,0,0,16090,0,0,0,
2026-04-17 13:35:00,METAR KHCR 171335Z AUTO 00000KT 10SM FEW055 SCT080 M06/M09 A3015 RMK AO2 T10641094 $,0,0,0,16090,0,0,0,
2026-04-17 13:15:00,METAR KHCR 171315Z AUTO 00000KT 10SM FEW065 BKN085 M05/M09 A3014 RMK AO2 T10531094 $,0,0,0,16090,0,0,0,
2026-04-17 12:55:00,METAR KHCR 171255Z AUTO 00000KT 10SM BKN065 OVC080 M05/M10 A3012 RMK AO2 T10541096 $,0,0,0,16090,0,0,0,
2026-04-17 12:35:00,METAR KHCR 171235Z AUTO 00000KT 10SM FEW046 BKN065 OVC080 M06/M09 A3011 RMK AO2 T10561094 $,0,0,0,16090,0,0,0,
2026-04-17 12:15:00,METAR KHCR 171215Z AUTO 11005KT 10SM FEW046 OVC065 M06/M09 A3010 RMK AO2 T10551092 $,0,5,0,16090,0,0,0,
2026-04-17 11:55:00,METAR KHCR 171155Z AUTO 11005KT 10SM BKN065 OVC080 M07/M10 A3009 RMK AO2 70006 T10731102 11021 21094 53015 $,0,5,0,16090,0,0,0,
2026-04-17 11:35:00,METAR KHCR 171135Z AUTO 13005KT 10SM BKN065 BKN080 M08/M11 A3009 RMK AO2 T10761106 $,0,5,0,16090,0,0,0,
2026-04-17 11:15:00,METAR KHCR 171115Z AUTO 10006KT 10SM CLR M06/M10 A3008 RMK AO2 T10631101 $,0,6,0,16090,0,0,0,
2026-04-17 10:55:00,METAR KHCR 171055Z AUTO 10007KT 10SM FEW060 M06/M10 A3007 RMK AO2 T10651101 $,0,7,0,16090,0,0,0,
2026-04-17 10:35:00,METAR KHCR 171035Z AUTO 11004KT 10SM FEW060 M07/M10 A3006 RMK AO2 T10691100 $,0,4,0,16090,0,0,0,
2026-04-17 10:15:00,METAR KHCR 171015Z AUTO 10004KT 10SM CLR M07/M09 A3006 RMK AO2 T10691094 $,0,4,0,16090,0,0,0,
2026-04-17 09:55:00,METAR KHCR 170955Z AUTO 11003KT 10SM CLR M07/M09 A3004 RMK AO2 T10701092 $,0,3,0,16090,0,0,0,
2026-04-17 09:35:00,METAR KHCR 170935Z AUTO 00000KT 10SM CLR M08/M10 A3004 RMK AO2 T10771097 $,0,0,0,16090,0,0,0,
2026-04-17 09:15:00,METAR KHCR 170915Z AUTO 12005KT 10SM CLR M07/M09 A3004 RMK AO2 T10681090 $,0,5,0,16090,0,0,0,
2026-04-17 08:55:00,METAR KHCR 170855Z AUTO 11003KT 10SM FEW065 SCT095 M05/M08 A3004 RMK AO2 T10521081 50003 $,0,3,0,16090,0,0,0,
2026-04-17 08:35:00,METAR KHCR 170835Z AUTO 11005KT 10SM SCT065 BKN080 BKN095 M05/M08 A3004 RMK AO2 T10471077 $,0,5,0,16090,0,0,0,
2026-04-17 08:15:00,METAR KHCR 170815Z AUTO 11004KT 10SM SCT040 BKN060 BKN075 M04/M08 A3004 RMK AO2 T10411081 $,0,4,0,16090,0,0,0,
2026-04-17 07:55:00,METAR KHCR 170755Z AUTO 02003KT 10SM BKN044 OVC055 M03/M08 A3005 RMK AO2 T10331083 $,0,3,0,16090,0,0,0,
2026-04-17 07:35:00,METAR KHCR 170735Z AUTO 07003KT 10SM SCT041 BKN050 M03/M08 A3004 RMK AO2 T10271079 $,0,3,0,16090,0,0,0,
2026-04-17 07:15:00,METAR KHCR 170715Z AUTO VRB03KT 10SM FEW045 M03/M08 A3003 RMK AO2 T10281077 $,0,3,0,16090,0,0,0,
2026-04-17 06:55:00,METAR KHCR 170655Z AUTO 04008KT 10SM BKN042 OVC055 M02/M08 A3004 RMK AO2 T10211080 401491038 $,0,8,0,16090,0,0,0,
2026-04-17 06:35:00,METAR KHCR 170635Z AUTO 03005KT 10SM BKN046 OVC065 M02/M08 A3004 RMK AO2 T10231079 $,0,5,0,16090,0,0,0,
2026-04-17 06:15:00,METAR KHCR 170615Z AUTO 00000KT 10SM SCT048 OVC110 M03/M08 A3004 RMK AO2 T10331078 $,0,0,0,16090,0,0,0,
2026-04-17 05:55:00,METAR KHCR 170555Z AUTO 00000KT 10SM BKN110 M03/M08 A3003 RMK AO2 P0001 60005 T10261076 11013 21038 50008 $,0,0,0,16090,0,0,0,
2026-04-17 05:35:00,METAR KHCR 170535Z AUTO 00000KT 10SM FEW060 BKN110 M03/M07 A3004 RMK AO2 P0001 T10291072 $,0,0,0,16090,0,0,0,
2026-04-17 05:15:00,METAR KHCR 170515Z AUTO 00000KT 10SM FEW049 SCT060 M03/M07 A3004 RMK AO2 T10261070 $,0,0,0,16090,0,0,0,
2026-04-17 04:55:00,METAR KHCR 170455Z AUTO 00000KT 10SM BKN055 M03/M07 A3005 RMK AO2 T10291072 $,0,0,0,16090,0,0,0,
2026-04-17 04:35:00,METAR KHCR 170435Z AUTO 00000KT 10SM FEW040 BKN049 BKN065 M02/M07 A3004 RMK AO2 T10221073 $,0,0,0,16090,0,0,0,
2026-04-17 04:15:00,METAR KHCR 170415Z AUTO VRB04KT 10SM FEW029 SCT038 BKN049 OVC065 M01/M06 A3003 RMK AO2 T10141060 $,0,4,0,16090,0,0,0,
2026-04-17 03:55:00,METAR KHCR 170355Z AUTO 02010KT 10SM SCT048 BKN065 OVC090 M01/M07 A3002 RMK AO2 T10141067 $,0,10,0,16090,0,0,0,
2026-04-17 03:35:00,METAR KHCR 170335Z AUTO 01006KT 10SM FEW048 BKN085 OVC100 M01/M07 A3002 RMK AO2 T10141074 $,0,6,0,16090,0,0,0,
2026-04-17 03:15:00,METAR KHCR 170315Z AUTO VRB04KT 10SM OVC085 M03/M08 A3001 RMK AO2 T10291083 $,0,4,0,16090,0,0,0,
2026-04-17 02:55:00,METAR KHCR 170255Z AUTO 13007KT 10SM FEW075 SCT110 M03/M08 A3000 RMK AO2 60004 T10351079 51020 $,0,7,0,16090,0,0,0,
2026-04-17 02:35:00,METAR KHCR 170235Z AUTO 11008KT 10SM SCT110 M03/M07 A2999 RMK AO2 T10271074 $,0,8,0,16090,0,0,0,
2026-04-17 02:15:00,METAR KHCR 170215Z AUTO 12007G15KT 10SM BKN100 OVC120 M02/M07 A2998 RMK AO2 T10231070 $,0,7,1,16090,0,0,0,
2026-04-17 01:55:00,METAR KHCR 170155Z AUTO 12012KT 10SM FEW049 SCT060 BKN075 OVC100 M02/M06 A2997 RMK AO2 SNE0122 P0001 T10221062 $,0,12,0,16090,0,0,0,SN
2026-04-17 01:35:00,METAR KHCR 170135Z AUTO 13012KT 10SM FEW020 SCT031 SCT040 BKN049 BKN055 OVC100 M02/M05 A2997 RMK AO2 SNE0122 P0001 T10231055 $,0,12,0,16090,0,0,0,SN
2026-04-17 01:15:00,METAR KHCR 170115Z AUTO 15008KT 1 3/4SM -SN BR BKN016 BKN020 OVC032 M02/M04 A2998 RMK AO2 P0001 T10241040 $,0,8,0,2816,0,0,1,"BR,SN"
2026-04-17 00:55:00,METAR KHCR 170055Z AUTO 07007KT 1 1/4SM -SN OVC016 M01/M04 A2998 RMK AO2 P0003 T10141040 $,0,7,0,2011,0,0,0,SN
2026-04-17 00:35:00,METAR KHCR 170035Z AUTO 11007KT 080V150 1/2SM SN FZFG VV012 M02/M03 A2997 RMK AO2 P0000 T10181031 $,0,7,0,804,0,0,1,"FG,SN"
2026-04-17 00:15:00,METAR KHCR 170015Z AUTO VRB04KT 1/2SM SN FZFG VV006 M02/M03 A2997 RMK AO2 PRESRR P0000 T10181030 $,0,4,0,804,0,0,1,"FG,SN"
2026-04-16 23:55:00,METAR KHCR 162355Z AUTO VRB06KT 1/4SM +SN FZFG VV004 M02/M03 A2993 RMK AO2 P0001 60001 T10191025 10149 21019 51052 $,0,6,0,402,0,0,1,"FG,SN"
2026-04-16 23:35:00,METAR KHCR 162335Z AUTO 07009G15KT 050V130 1/4SM +SN FZFG VV005 M02/M02 A2993 RMK AO2 P0001 T10171023 $,0,9,1,402,0,0,1,"FG,SN"
2026-04-16 23:15:00,METAR KHCR 162315Z AUTO 08011G18KT 1/2SM SN FZFG VV009 M02/M03 A2991 RMK AO2 P0000 T10161025 $,0,11,1,804,0,0,1,"FG,SN"
2026-04-16 22:55:00,METAR KHCR 162255Z AUTO 06004G19KT 360V100 2 1/2SM -SN BR SCT016 OVC030 M00/M02 A2989 RMK AO2 PK WND 29033/2151 WSHFT 2150 SNB2223RAB2212E2223 P0000 T10011021 $,0,4,1,4022,0,0,1,"BR,SN"
2026-04-16 22:35:00,METAR KHCR 162235Z AUTO 04018G25KT 2 1/2SM -SN FEW005 OVC034 00/M02 A2987 RMK AO2 PK WND 29033/2151 WSHFT 2150 SNB2223RAB2212E2223 P0000 T00041022 $,0,18,1,4022,0,0,0,SN
2026-04-16 22:15:00,METAR KHCR 162215Z AUTO 04012G25KT 360V080 6SM -RA OVC031 04/M04 A2985 RMK AO2 PK WND 29033/2151 WSHFT 2150 RAB2212 PRESRR P0000 T00411039 $,0,12,1,9654,0,0,0,"-RA,RA"
2026-04-16 21:55:00,METAR KHCR 162155Z AUTO 28013G19KT 240V310 10SM SCT034 BKN050 BKN070 07/M02 A2982 RMK AO2 PRESRR T00741016 $,0,13,1,16090,0,0,0,
2026-04-16 21:35:00,METAR KHCR 162135Z AUTO 24015KT 10SM SCT070 10/M02 A2979 RMK AO2 T00981015 $,0,15,0,16090,0,0,0,
2026-04-16 21:15:00,METAR KHCR 162115Z AUTO 23014G21KT 10SM CLR 10/M02 A2976 RMK AO2 T00961018 $,0,14,1,16090,0,0,0,
2026-04-16 20:55:00,METAR KHCR 162055Z AUTO 24018G23KT 10SM CLR 12/M01 A2975 RMK AO2 PK WND 24027/1951 T01181011 53010 $,0,18,1,16090,0,0,0,
2026-04-16 20:35:00,METAR KHCR 162035Z AUTO 24018G24KT 10SM CLR 12/M01 A2974 RMK AO2 PK WND 24027/1951 T01241013 $,0,18,1,16090,0,0,0,
2026-04-16 20:15:00,METAR KHCR 162015Z AUTO 23017G23KT 10SM CLR 13/M01 A2971 RMK AO2 PK WND 24027/1951 T01341014 $,0,17,1,16090,0,0,0,
2026-04-16 19:55:00,METAR KHCR 161955Z AUTO 24019G25KT 10SM CLR 14/M02 A2970 RMK AO2 PK WND 24028/1855 T01401015 $,0,19,1,16090,0,0,0,
2026-04-16 19:35:00,METAR KHCR 161935Z AUTO 23018G23KT 10SM CLR 14/M02 A2969 RMK AO2 PK WND 24028/1855 T01441016 $,0,18,1,16090,0,0,0,
2026-04-16 19:15:00,METAR KHCR 161915Z AUTO 24020G26KT 10SM FEW085 15/M03 A2969 RMK AO2 PK WND 24028/1855 T01451025 $,0,20,1,16090,0,0,0,
2026-04-16 18:55:00,METAR KHCR 161855Z AUTO 24015G28KT 10SM FEW085 14/M03 A2969 RMK AO2 PK WND 25028/1839 T01391028 $,0,15,1,16090,0,0,0,
2026-04-16 18:35:00,METAR KHCR 161835Z AUTO 23017G24KT 10SM CLR 14/M03 A2970 RMK AO2 PK WND 24026/1818 T01441034 $,0,17,1,16090,0,0,0,
2026-04-16 18:15:00,METAR KHCR 161815Z AUTO 24018G26KT 10SM CLR 14/M03 A2971 RMK AO2 PK WND 25026/1814 T01451033 $,0,18,1,16090,0,0,0,
2026-04-16 17:55:00,METAR KHCR 161755Z AUTO 24022G28KT 10SM CLR 14/M04 A2972 RMK AO2 PK WND 23029/1733 T01431035 10147 20117 58011 $,0,22,1,16090,0,0,0,
2026-04-16 17:35:00,METAR KHCR 161735Z AUTO 24020G29KT 10SM FEW085 14/M04 A2972 RMK AO2 PK WND 23029/1733 T01421043 $,0,20,1,16090,0,0,0,
2026-04-16 17:15:00,METAR KHCR 161715Z AUTO 24018G26KT 10SM FEW085 15/M04 A2972 RMK AO2 PK WND 26028/1653 T01451035 $,0,18,1,16090,0,0,0,
2026-04-16 16:55:00,METAR KHCR 161655Z AUTO 23013G18KT 10SM CLR 14/M04 A2973 RMK AO2 PK WND 25026/1555 T01391037 $,0,13,1,16090,0,0,0,
2026-04-16 16:35:00,METAR KHCR 161635Z AUTO 22016G21KT 10SM CLR 14/M04 A2974 RMK AO2 PK WND 25026/1555 T01371043 $,0,16,1,16090,0,0,0,
2026-04-16 16:15:00,METAR KHCR 161615Z AUTO 24014G19KT 10SM FEW090 12/M04 A2974 RMK AO2 PK WND 25026/1555 T01221043 $,0,14,1,16090,0,0,0,
2026-04-16 15:55:00,METAR KHCR 161555Z AUTO 24014KT 10SM FEW100 14/M04 A2974 RMK AO2 WSHFT 1511 T01371038 $,0,14,0,16090,0,0,0,
2026-04-16 15:35:00,METAR KHCR 161535Z AUTO 24014KT 10SM FEW100 13/M04 A2975 RMK AO2 WSHFT 1511 T01341040 $,0,14,0,16090,0,0,0,
2026-04-16 14:55:00,METAR KHCR 161455Z AUTO 23010KT 10SM FEW100 12/M04 A2975 RMK AO2 T01211044 56004 $,0,10,0,16090,0,0,0,
2026-04-16 14:35:00,METAR KHCR 161435Z AUTO 23012G21KT 10SM SCT100 12/M07 A2976 RMK AO2 T01231065 $,0,12,1,16090,0,0,0,
2026-04-16 14:15:00,METAR KHCR 161415Z AUTO 22014G20KT 10SM BKN110 12/M07 A2977 RMK AO2 T01241071 $,0,14,1,16090,0,0,0,
2026-04-16 13:55:00,METAR KHCR 161355Z AUTO 23019G24KT 10SM BKN110 13/M07 A2976 RMK AO2 PK WND 25026/1316 T01251070 $,0,19,1,16090,0,0,0,
2026-04-16 13:35:00,METAR KHCR 161335Z AUTO 23014G23KT 10SM SCT110 13/M07 A2976 RMK AO2 PK WND 25026/1316 T01261072 $,0,14,1,16090,0,0,0,
2026-04-16 13:15:00,METAR KHCR 161315Z AUTO 23013G19KT 10SM FEW110 12/M08 A2976 RMK AO2 T01241075 $,0,13,1,16090,0,0,0,
2026-04-16 12:55:00,METAR KHCR 161255Z AUTO 23016G25KT 10SM FEW110 12/M08 A2976 RMK AO2 T01241079 $,0,16,1,16090,0,0,0,
2026-04-16 12:35:00,METAR KHCR 161235Z AUTO 23012KT 10SM CLR 12/M08 A2976 RMK AO2 T01231079 $,0,12,0,16090,0,0,0,
2026-04-16 12:15:00,METAR KHCR 161215Z AUTO 21014G20KT 10SM CLR 12/M07 A2976 RMK AO2 T01201074 $,0,14,1,16090,0,0,0,
2026-04-16 11:55:00,METAR KHCR 161155Z AUTO 23013G21KT 10SM FEW110 12/M07 A2977 RMK AO2 PK WND 22026/1114 T01231074 10139 20119 56008 $,0,13,1,16090,0,0,0,
2026-04-16 11:35:00,METAR KHCR 161135Z AUTO 23016G23KT 10SM FEW180 12/M07 A2977 RMK AO2 PK WND 22026/1114 T01191067 $,0,16,1,16090,0,0,0,
2026-04-16 11:15:00,METAR KHCR 161115Z AUTO 24018G26KT 10SM FEW110 12/M07 A2977 RMK AO2 PK WND 22026/1114 T01241073 $,0,18,1,16090,0,0,0,
2026-04-16 10:55:00,METAR KHCR 161055Z AUTO 22014G20KT 10SM SCT110 12/M07 A2978 RMK AO2 T01251073 $,0,14,1,16090,0,0,0,
2026-04-16 10:35:00,METAR KHCR 161035Z AUTO 22012G23KT 10SM BKN110 13/M08 A2978 RMK AO2 T01251075 $,0,12,1,16090,0,0,0,
2026-04-16 10:15:00,METAR KHCR 161015Z AUTO 22010G19KT 10SM FEW110 13/M07 A2978 RMK AO2 T01271074 $,0,10,1,16090,0,0,0,
2026-04-16 09:55:00,METAR KHCR 160955Z AUTO 22014G20KT 10SM FEW110 13/M07 A2979 RMK AO2 T01271071 $,0,14,1,16090,0,0,0,
2026-04-16 09:35:00,METAR KHCR 160935Z AUTO 23013KT 10SM FEW120 13/M07 A2979 RMK AO2 T01291074 $,0,13,0,16090,0,0,0,
2026-04-16 09:15:00,METAR KHCR 160915Z AUTO 22013G21KT 10SM FEW110 13/M07 A2979 RMK AO2 T01291074 $,0,13,1,16090,0,0,0,
2026-04-16 08:55:00,METAR KHCR 160855Z AUTO 23015KT 10SM OVC100 13/M07 A2980 RMK AO2 T01331074 58012 $,0,15,0,16090,0,0,0,
2026-04-16 08:35:00,METAR KHCR 160835Z AUTO 22013KT 10SM OVC095 13/M07 A2981 RMK AO2 T01331070 $,0,13,0,16090,0,0,0,
2026-04-16 08:15:00,METAR KHCR 160815Z AUTO 22008G22KT 10SM OVC100 13/M07 A2981 RMK AO2 T01351067 $,0,8,1,16090,0,0,0,
2026-04-16 07:55:00,METAR KHCR 160755Z AUTO 21011G18KT 170V250 10SM BKN090 OVC100 13/M06 A2983 RMK AO2 T01341059 $,0,11,1,16090,0,0,0,
2026-04-16 07:35:00,METAR KHCR 160735Z AUTO 24008KT 10SM OVC090 13/M06 A2984 RMK AO2 T01331056 $,0,8,0,16090,0,0,0,
2026-04-16 07:15:00,METAR KHCR 160715Z AUTO 25010KT 10SM OVC090 13/M05 A2984 RMK AO2 T01341053 $,0,10,0,16090,0,0,0,
2026-04-16 06:55:00,METAR KHCR 160655Z AUTO 21008KT 10SM BKN085 OVC100 14/M06 A2983 RMK AO2 T01381059 401761053 $,0,8,0,16090,0,0,0,
2026-04-16 06:35:00,METAR KHCR 160635Z AUTO 22011G16KT 190V260 10SM FEW060 BKN090 OVC110 13/M05 A2983 RMK AO2 T01341052 $,0,11,1,16090,0,0,0,
2026-04-16 06:15:00,METAR KHCR 160615Z AUTO 22009G19KT 10SM FEW060 OVC100 14/M05 A2984 RMK AO2 T01391052 $,0,9,1,16090,0,0,0,
2026-04-16 05:55:00,METAR KHCR 160555Z AUTO 24013KT 10SM SCT090 BKN110 14/M05 A2984 RMK AO2 PK WND 24028/0452 WSHFT 0503 T01391047 10161 20135 50003 $,0,13,0,16090,0,0,0,
2026-04-16 05:35:00,METAR KHCR 160535Z AUTO 22010G18KT 10SM SCT090 14/M04 A2985 RMK AO2 PK WND 24028/0452 WSHFT 0503 T01381041 $,0,10,1,16090,0,0,0,
2026-04-16 05:15:00,METAR KHCR 160515Z AUTO 23009G26KT 10SM FEW070 BKN090 BKN110 14/M05 A2985 RMK AO2 PK WND 24028/0452 WSHFT 0503 T01451049 $,0,9,1,16090,0,0,0,
2026-04-16 04:55:00,METAR KHCR 160455Z AUTO 21011G30KT 160V230 10SM BKN090 15/M04 A2985 RMK AO2 PK WND 19030/0443 T01461045 $,0,11,1,16090,0,0,0,
2026-04-16 04:35:00,METAR KHCR 160435Z AUTO 22008KT 170V240 10SM BKN090 15/M05 A2984 RMK AO2 T01481046 $,0,8,0,16090,0,0,0,
2026-04-16 04:15:00,METAR KHCR 160415Z AUTO 22008KT 10SM FEW070 BKN085 15/M04 A2985 RMK AO2 T01481044 $,0,8,0,16090,0,0,0,
2026-04-16 03:55:00,METAR KHCR 160355Z AUTO 21013G18KT 10SM BKN080 15/M04 A2985 RMK AO2 PK WND 27031/0321 WSHFT 0301 T01461040 $,0,13,1,16090,0,0,0,
2026-04-16 03:35:00,METAR KHCR 160335Z AUTO 25015G20KT 10SM FEW075 BKN090 15/M04 A2985 RMK AO2 PK WND 27031/0321 WSHFT 0301 T01461039 $,0,15,1,16090,0,0,0,
2026-04-16 03:15:00,METAR KHCR 160315Z AUTO 26018G27KT 10SM BKN090 15/M05 A2984 RMK AO2 PK WND 24031/0257 WSHFT 0301 T01511047 $,0,18,1,16090,0,0,0,
2026-04-16 02:55:00,METAR KHCR 160255Z AUTO 20010G20KT 10SM BKN095 OVC120 16/M06 A2983 RMK AO2 T01561061 55010 $,0,10,1,16090,0,0,0,
2026-04-16 02:35:00,METAR KHCR 160235Z AUTO 25018G25KT 220V290 10SM OVC100 16/M07 A2983 RMK AO2 T01591065 $,0,18,1,16090,0,0,0,
2026-04-16 02:15:00,METAR KHCR 160215Z AUTO 22012G21KT 9SM OVC100 16/M07 A2981 RMK AO2 T01591067 $,0,12,1,14481,0,0,0,
2026-04-16 01:55:00,METAR KHCR 160155Z AUTO VRB04KT 10SM OVC100 15/M06 A2982 RMK AO2 T01511059 $,0,4,0,16090,0,0,0,
2026-04-16 01:35:00,METAR KHCR 160135Z AUTO 21007KT 180V240 9SM OVC100 16/M06 A2981 RMK AO2 T01561065 $,0,7,0,14481,0,0,0,
2026-04-16 01:15:00,METAR KHCR 160115Z AUTO VRB04KT 9SM BKN100 OVC130 15/M06 A2982 RMK AO2 T01511057 $,0,4,0,14481,0,0,0,
2026-04-16 00:55:00,METAR KHCR 160055Z AUTO VRB06KT 10SM BKN100 OVC130 15/M05 A2984 RMK AO2 T01511052 $,0,6,0,16090,0,0,0,
2026-04-16 00:35:00,METAR KHCR 160035Z AUTO 18006G16KT 120V220 9SM OVC110 15/M05 A2984 RMK AO2 T01531046 $,0,6,1,14481,0,0,0,
2026-04-16 00:15:00,METAR KHCR 160015Z AUTO 21009G21KT 170V240 9SM FEW070 OVC095 15/M05 A2985 RMK AO2 T01541048 $,0,9,1,14481,0,0,0,
2026-04-15 23:55:00,METAR KHCR 152355Z AUTO 19005KT 10SM BKN080 15/M05 A2986 RMK AO2 PK WND 25033/2301 WSHFT 2303 T01531048 10176 20136 56018 $,0,5,0,16090,0,0,0,
2026-04-15 23:35:00,METAR KHCR 152335Z AUTO 27012G16KT 240V330 10SM BKN080 15/M03 A2987 RMK AO2 PK WND 25033/2301 WSHFT 2303 T01461031 $,0,12,1,16090,0,0,0,
2026-04-15 23:15:00,METAR KHCR 152315Z AUTO 27008KT 10SM SCT085 15/M03 A2988 RMK AO2 PK WND 25033/2301 WSHFT 2303 T01461026 $,0,8,0,16090,0,0,0,
2026-04-15 22:55:00,METAR KHCR 152255Z AUTO 25010G27KT 10SM FEW075 BKN095 15/M04 A2989 RMK AO2 PK WND 25027/2241 T01541038 $,0,10,1,16090,0,0,0,
2026-04-15 22:35:00,METAR KHCR 152235Z AUTO 23014G20KT 10SM SCT095 16/M05 A2989 RMK AO2 T01601050 $,0,14,1,16090,0,0,0,
2026-04-15 22:15:00,METAR KHCR 152215Z AUTO 22016G24KT 10SM FEW090 16/M05 A2989 RMK AO2 T01641046 $,0,16,1,16090,0,0,0,
2026-04-15 21:55:00,METAR KHCR 152155Z AUTO 24013G29KT 10SM FEW090 SCT220 17/M03 A2990 RMK AO2 PK WND 24029/2141 T01741027 $,0,13,1,16090,0,0,0,
2026-04-15 21:35:00,METAR KHCR 152135Z AUTO 24010G24KT 10SM FEW090 SCT220 17/M03 A2990 RMK AO2 T01741029 $,0,10,1,16090,0,0,0,
2026-04-15 21:15:00,METAR KHCR 152115Z AUTO 24011G21KT 10SM FEW090 SCT130 16/M04 A2991 RMK AO2 T01641036 $,0,11,1,16090,0,0,0,
2026-04-15 20:55:00,METAR KHCR 152055Z AUTO 22009G19KT 10SM BKN110 BKN130 15/M03 A2993 RMK AO2 T01521029 58014 $,0,9,1,16090,0,0,0,
2026-04-15 20:35:00,METAR KHCR 152035Z AUTO 24018KT 10SM OVC100 14/M03 A2993 RMK AO2 T01421031 $,0,18,0,16090,0,0,0,
2026-04-15 20:15:00,METAR KHCR 152015Z AUTO 24015G21KT 10SM OVC100 14/M03 A2994 RMK AO2 T01401032 $,0,15,1,16090,0,0,0,
2026-04-15 19:55:00,METAR KHCR 151955Z AUTO 24015G22KT 10SM OVC100 14/M04 A2995 RMK AO2 T01361043 $,0,15,1,16090,0,0,0,
2026-04-15 19:35:00,METAR KHCR 151935Z AUTO 24018G23KT 10SM BKN110 14/M04 A2995 RMK AO2 T01401043 $,0,18,1,16090,0,0,0,
2026-04-15 19:15:00,METAR KHCR 151915Z AUTO 24017G21KT 10SM CLR 15/M03 A2996 RMK AO2 T01551027 $,0,17,1,16090,0,0,0,
2026-04-15 18:55:00,METAR KHCR 151855Z AUTO 24014G21KT 10SM CLR 15/M02 A2997 RMK AO2 T01471022 $,0,14,1,16090,0,0,0,
2026-04-15 18:35:00,METAR KHCR 151835Z AUTO 24017KT 10SM CLR 14/M03 A2997 RMK AO2 T01431029 $,0,17,0,16090,0,0,0,
2026-04-15 18:15:00,METAR KHCR 151815Z AUTO 24017G24KT 10SM CLR 14/M03 A2997 RMK AO2 T01411029 $,0,17,1,16090,0,0,0,
2026-04-15 17:55:00,METAR KHCR 151755Z AUTO 24013KT 10SM CLR 14/M02 A2998 RMK AO2 T01381024 10138 21053 57014 $,0,13,0,16090,0,0,0,
2026-04-15 17:35:00,METAR KHCR 151735Z AUTO 23010KT 10SM CLR 14/M02 A2998 RMK AO2 T01361023 $,0,10,0,16090,0,0,0,
2026-04-15 17:15:00,METAR KHCR 151715Z AUTO 24009KT 10SM CLR 13/M01 A2998 RMK AO2 T01281013 $,0,9,0,16090,0,0,0,
2026-04-15 16:55:00,METAR KHCR 151655Z AUTO 00000KT 10SM CLR 10/M01 A2999 RMK AO2 T01001009 $,0,0,0,16090,0,0,0,
2026-04-15 16:35:00,METAR KHCR 151635Z AUTO 00000KT 10SM CLR 08/M01 A3000 RMK AO2 T00821012 $,0,0,0,16090,0,0,0,
2026-04-15 16:15:00,METAR KHCR 151615Z AUTO 00000KT 10SM CLR 07/M02 A3001 RMK AO2 T00651022 $,0,0,0,16090,0,0,0,
2026-04-15 15:55:00,METAR KHCR 151555Z AUTO 00000KT 10SM CLR 05/M02 A3001 RMK AO2 T00481024 $,0,0,0,16090,0,0,0,
2026-04-15 15:35:00,METAR KHCR 151535Z AUTO 00000KT 10SM CLR 04/M02 A3002 RMK AO2 T00401023 $,0,0,0,16090,0,0,0,
2026-04-15 15:15:00,METAR KHCR 151515Z AUTO 00000KT 10SM CLR 03/M02 A3002 RMK AO2 T00331017 $,0,0,0,16090,0,0,0,
2026-04-15 14:55:00,METAR KHCR 151455Z AUTO 00000KT 10SM CLR 02/M02 A3002 RMK AO2 T00181023 52003 $,0,0,0,16090,0,0,0,
2026-04-15 14:35:00,METAR KHCR 151435Z AUTO 00000KT 10SM CLR 01/M03 A3003 RMK AO2 T00111027 $,0,0,0,16090,0,0,0,
2026-04-15 14:15:00,METAR KHCR 151415Z AUTO 00000KT 10SM CLR 01/M03 A3003 RMK AO2 T00081031 $,0,0,0,16090,0,0,0,
2026-04-15 13:55:00,METAR KHCR 151355Z AUTO 00000KT 10SM CLR M01/M04 A3003 RMK AO2 T10111039 $,0,0,0,16090,0,0,0,
2026-04-15 13:35:00,METAR KHCR 151335Z AUTO 12003KT 10SM CLR M02/M05 A3002 RMK AO2 T10241049 $,0,3,0,16090,0,0,0,
2026-04-15 13:15:00,METAR KHCR 151315Z AUTO 00000KT 9SM CLR M03/M06 A3002 RMK AO2 T10341055 $,0,0,0,14481,0,0,0,
2026-04-15 12:55:00,METAR KHCR 151255Z AUTO 00000KT 10SM CLR M04/M06 A3001 RMK AO2 T10431064 $,0,0,0,16090,0,0,0,
2026-04-15 12:35:00,METAR KHCR 151235Z AUTO 00000KT 9SM CLR M04/M06 A3001 RMK AO2 T10411059 $,0,0,0,14481,0,0,0,
2026-04-15 12:15:00,METAR KHCR 151215Z AUTO 00000KT 10SM CLR M05/M07 A3001 RMK AO2 T10511071 $,0,0,0,16090,0,0,0,
2026-04-15 11:55:00,METAR KHCR 151155Z AUTO 00000KT 9SM CLR M04/M06 A3001 RMK AO2 T10431064 11004 21048 57001 $,0,0,0,14481,0,0,0,
2026-04-15 11:35:00,METAR KHCR 151135Z AUTO 00000KT 10SM CLR M03/M06 A3001 RMK AO2 T10331057 $,0,0,0,16090,0,0,0,
2026-04-15 11:15:00,METAR KHCR 151115Z AUTO 00000KT 10SM CLR M03/M06 A3002 RMK AO2 T10311055 $,0,0,0,16090,0,0,0,
2026-04-15 10:55:00,METAR KHCR 151055Z AUTO 14003KT 10SM CLR M03/M06 A3001 RMK AO2 T10341059 $,0,3,0,16090,0,0,0,
2026-04-15 10:35:00,METAR KHCR 151035Z AUTO 00000KT 10SM CLR M05/M07 A3002 RMK AO2 T10481067 $,0,0,0,16090,0,0,0,
2026-04-15 10:15:00,METAR KHCR 151015Z AUTO 00000KT 10SM CLR M03/M05 A3002 RMK AO2 T10271054 $,0,0,0,16090,0,0,0,
2026-04-15 09:55:00,METAR KHCR 150955Z AUTO 00000KT 10SM CLR M02/M05 A3002 RMK AO2 T10241052 $,0,0,0,16090,0,0,0,
2026-04-15 09:35:00,METAR KHCR 150935Z AUTO 00000KT 10SM CLR M03/M05 A3002 RMK AO2 T10251052 $,0,0,0,16090,0,0,0,
2026-04-15 09:15:00,METAR KHCR 150915Z AUTO 00000KT 10SM CLR M02/M05 A3002 RMK AO2 T10231054 $,0,0,0,16090,0,0,0,
2026-04-15 08:55:00,METAR KHCR 150855Z AUTO 00000KT 10SM CLR M02/M05 A3002 RMK AO2 T10211052 56002 $,0,0,0,16090,0,0,0,
2026-04-15 08:35:00,METAR KHCR 150835Z AUTO 00000KT 10SM CLR M01/M05 A3002 RMK AO2 T10141050 $,0,0,0,16090,0,0,0,
2026-04-15 08:15:00,METAR KHCR 150815Z AUTO 14003KT 10SM CLR M02/M05 A3002 RMK AO2 T10231055 $,0,3,0,16090,0,0,0,
2026-04-15 07:55:00,METAR KHCR 150755Z AUTO 00000KT 10SM CLR M02/M05 A3002 RMK AO2 T10201051 $,0,0,0,16090,0,0,0,
2026-04-15 07:35:00,METAR KHCR 150735Z AUTO 00000KT 10SM CLR M01/M04 A3002 RMK AO2 T10081045 $,0,0,0,16090,0,0,0,
2026-04-15 07:15:00,METAR KHCR 150715Z AUTO 00000KT 10SM CLR M01/M05 A3002 RMK AO2 T10121047 $,0,0,0,16090,0,0,0,
2026-04-15 06:55:00,METAR KHCR 150655Z AUTO 12003KT 10SM CLR M02/M05 A3002 RMK AO2 T10171051 401321027 $,0,3,0,16090,0,0,0,
2026-04-15 06:35:00,METAR KHCR 150635Z AUTO 13004KT 10SM CLR M02/M05 A3002 RMK AO2 T10161050 $,0,4,0,16090,0,0,0,
2026-04-15 06:15:00,METAR KHCR 150615Z AUTO 16003KT 10SM CLR M01/M05 A3002 RMK AO2 T10111049 $,0,3,0,16090,0,0,0,
2026-04-15 05:55:00,METAR KHCR 150555Z AUTO 12003KT 10SM CLR M01/M05 A3003 RMK AO2 T10101045 10123 21015 51009 $,0,3,0,16090,0,0,0,
2026-04-15 05:35:00,METAR KHCR 150535Z AUTO 12003KT 10SM CLR 00/M04 A3002 RMK AO2 T00001041 $,0,3,0,16090,0,0,0,
2026-04-15 05:15:00,METAR KHCR 150515Z AUTO 00000KT 10SM CLR 01/M04 A3002 RMK AO2 T00061039 $,0,0,0,16090,0,0,0,
2026-04-15 04:55:00,METAR KHCR 150455Z AUTO 00000KT 10SM CLR 02/M04 A3002 RMK AO2 T00191042 $,0,0,0,16090,0,0,0,
2026-04-15 04:35:00,METAR KHCR 150435Z AUTO 12005KT 10SM CLR 01/M04 A3002 RMK AO2 T00091041 $,0,5,0,16090,0,0,0,
2026-04-15 04:15:00,METAR KHCR 150415Z AUTO 12005KT 10SM CLR 01/M04 A3002 RMK AO2 T00081039 $,0,5,0,16090,0,0,0,
2026-04-15 03:55:00,METAR KHCR 150355Z AUTO 10005KT 10SM CLR 03/M04 A3002 RMK AO2 T00331041 $,0,5,0,16090,0,0,0,
2026-04-15 03:35:00,METAR KHCR 150335Z AUTO 12003KT 10SM CLR 02/M04 A3001 RMK AO2 T00241036 $,0,3,0,16090,0,0,0,
2026-04-15 03:15:00,METAR KHCR 150315Z AUTO 00000KT 10SM CLR 06/M04 A3000 RMK AO2 T00571041 $,0,0,0,16090,0,0,0,
2026-04-15 02:55:00,METAR KHCR 150255Z AUTO 14003KT 10SM CLR 04/M04 A2999 RMK AO2 T00441042 51008 $,0,3,0,16090,0,0,0,
2026-04-15 02:35:00,METAR KHCR 150235Z AUTO 00000KT 10SM CLR 05/M04 A2999 RMK AO2 T00461038 $,0,0,0,16090,0,0,0,
2026-04-15 02:15:00,METAR KHCR 150215Z AUTO 00000KT 10SM FEW090 09/M06 A2999 RMK AO2 T00881062 $,0,0,0,16090,0,0,0,
2026-04-15 01:55:00,METAR KHCR 150155Z AUTO 31003KT 10SM OVC080 09/M05 A2999 RMK AO2 T00861045 $,0,3,0,16090,0,0,0,
2026-04-15 01:35:00,METAR KHCR 150135Z AUTO 00000KT 9SM OVC080 09/M05 A2998 RMK AO2 T00951048 $,0,0,0,14481,0,0,0,
2026-04-15 01:15:00,METAR KHCR 150115Z AUTO 29003KT 9SM OVC075 10/M05 A2998 RMK AO2 T00981050 $,0,3,0,14481,0,0,0,
2026-04-15 00:55:00,METAR KHCR 150055Z AUTO 30007KT 10SM OVC070 12/M06 A2998 RMK AO2 T01191057 $,0,7,0,16090,0,0,0,
2026-04-15 00:35:00,METAR KHCR 150035Z AUTO 20003KT 10SM OVC070 12/M04 A2997 RMK AO2 T01221041 $,0,3,0,16090,0,0,0,
2026-04-15 00:15:00,METAR KHCR 150015Z AUTO VRB06KT 10SM OVC065 12/M03 A2997 RMK AO2 T01211034 $,0,6,0,16090,0,0,0,
2026-04-14 23:55:00,METAR KHCR 142355Z AUTO 05008KT 9SM OVC070 11/M04 A2997 RMK AO2 T01101037 10132 20089 53006 $,0,8,0,14481,0,0,0,
2026-04-14 23:35:00,METAR KHCR 142335Z AUTO 00000KT 9SM OVC070 11/M04 A2996 RMK AO2 T01071039 $,0,0,0,14481,0,0,0,
2026-04-14 23:15:00,METAR KHCR 142315Z AUTO 02006KT 10SM OVC070 11/M04 A2996 RMK AO2 T01101036 $,0,6,0,16090,0,0,0,
2026-04-14 22:55:00,METAR KHCR 142255Z AUTO 25008KT 10SM OVC070 12/M04 A2995 RMK AO2 T01191041 $,0,8,0,16090,0,0,0,
2026-04-14 22:35:00,METAR KHCR 142235Z AUTO 25010KT 10SM OVC070 12/M03 A2995 RMK AO2 T01191032 $,0,10,0,16090,0,0,0,
2026-04-14 22:15:00,METAR KHCR 142215Z AUTO 25008KT 10SM OVC070 12/M03 A2994 RMK AO2 T01201032 $,0,8,0,16090,0,0,0,
2026-04-14 21:55:00,METAR KHCR 142155Z AUTO 22007KT 10SM BKN075 12/M03 A2994 RMK AO2 T01161034 $,0,7,0,16090,0,0,0,
2026-04-14 21:35:00,METAR KHCR 142135Z AUTO 24011KT 10SM SCT070 13/M03 A2994 RMK AO2 T01261026 $,0,11,0,16090,0,0,0,
2026-04-14 21:15:00,METAR KHCR 142115Z AUTO 24007KT 210V300 10SM FEW070 12/M03 A2994 RMK AO2 T01171030 $,0,7,0,16090,0,0,0,
2026-04-14 20:55:00,METAR KHCR 142055Z AUTO 23009KT 10SM CLR 13/M02 A2994 RMK AO2 T01271021 55002 $,0,9,0,16090,0,0,0,
2026-04-14 20:35:00,METAR KHCR 142035Z AUTO 22007KT 10SM CLR 12/M02 A2994 RMK AO2 T01241018 $,0,7,0,16090,0,0,0,
2026-04-14 20:15:00,METAR KHCR 142015Z AUTO 24011G17KT 10SM FEW070 13/M01 A2994 RMK AO2 T01261010 $,0,11,1,16090,0,0,0,
2026-04-14 19:55:00,METAR KHCR 141955Z AUTO 21009KT 10SM SCT070 12/M01 A2994 RMK AO2 T01241014 $,0,9,0,16090,0,0,0,
2026-04-14 19:35:00,METAR KHCR 141935Z AUTO 00000KT 10SM SCT060 SCT070 11/M03 A2994 RMK AO2 T01131028 $,0,0,0,16090,0,0,0,
2026-04-14 19:15:00,METAR KHCR 141915Z AUTO VRB03KT 10SM BKN065 11/M03 A2994 RMK AO2 T01061032 $,0,3,0,16090,0,0,0,
2026-04-14 18:55:00,METAR KHCR 141855Z AUTO VRB04KT 10SM FEW065 11/M02 A2994 RMK AO2 T01111022 $,0,4,0,16090,0,0,0,
2026-04-14 18:35:00,METAR KHCR 141835Z AUTO VRB03KT 10SM SCT065 10/M03 A2994 RMK AO2 T01001026 $,0,3,0,16090,0,0,0,
2026-04-14 18:15:00,METAR KHCR 141815Z AUTO 14006KT 10SM CLR 10/M01 A2995 RMK AO2 T01011010 $,0,6,0,16090,0,0,0,
2026-04-14 17:55:00,METAR KHCR 141755Z AUTO 00000KT 10SM SCT060 08/M02 A2995 RMK AO2 T00851020 10094 21014 53001 $,0,0,0,16090,0,0,0,
2026-04-14 17:35:00,METAR KHCR 141735Z AUTO VRB05KT 10SM SCT060 09/M01 A2995 RMK AO2 T00921009 $,0,5,0,16090,0,0,0,
2026-04-14 17:15:00,METAR KHCR 141715Z AUTO 00000KT 10SM BKN060 08/M02 A2995 RMK AO2 T00811019 $,0,0,0,16090,0,0,0,
2026-04-14 16:55:00,METAR KHCR 141655Z AUTO 00000KT 10SM BKN060 07/M03 A2995 RMK AO2 T00721026 $,0,0,0,16090,0,0,0,
2026-04-14 16:35:00,METAR KHCR 141635Z AUTO 00000KT 10SM CLR 07/M03 A2995 RMK AO2 T00681028 $,0,0,0,16090,0,0,0,
2026-04-14 16:15:00,METAR KHCR 141615Z AUTO 24003KT 10SM CLR 06/M02 A2995 RMK AO2 T00611025 $,0,3,0,16090,0,0,0,
2026-04-14 15:55:00,METAR KHCR 141555Z AUTO 24003KT 10SM CLR 04/M02 A2994 RMK AO2 T00421020 $,0,3,0,16090,0,0,0,
2026-04-14 15:35:00,METAR KHCR 141535Z AUTO 00000KT 10SM CLR 04/M03 A2995 RMK AO2 T00391028 $,0,0,0,16090,0,0,0,
2026-04-14 15:15:00,METAR KHCR 141515Z AUTO 00000KT 10SM CLR 03/M02 A2995 RMK AO2 T00321021 $,0,0,0,16090,0,0,0,
2026-04-14 14:55:00,METAR KHCR 141455Z AUTO 00000KT 10SM CLR 02/M02 A2995 RMK AO2 T00211017 53011 $,0,0,0,16090,0,0,0,
2026-04-14 14:35:00,METAR KHCR 141435Z AUTO 00000KT 10SM CLR 01/M01 A2994 RMK AO2 T00101010 $,0,0,0,16090,0,0,0,
2026-04-14 14:15:00,METAR KHCR 141415Z AUTO 00000KT 10SM CLR 01/M02 A2994 RMK AO2 T00081019 $,0,0,0,16090,0,0,0,
2026-04-14 13:55:00,METAR KHCR 141355Z AUTO 00000KT 9SM CLR 00/M02 A2993 RMK AO2 T00031024 $,0,0,0,14481,0,0,0,
2026-04-14 13:35:00,METAR KHCR 141335Z AUTO 11004KT 9SM CLR M00/M03 A2992 RMK AO2 T10031027 $,0,4,0,14481,0,0,0,
2026-04-14 13:15:00,METAR KHCR 141315Z AUTO 12006KT 10SM CLR M01/M03 A2992 RMK AO2 T10121027 $,0,6,0,16090,0,0,0,
2026-04-14 12:55:00,METAR KHCR 141255Z AUTO 00000KT 9SM CLR M00/M02 A2991 RMK AO2 T10041016 $,0,0,0,14481,0,0,0,
2026-04-14 12:35:00,METAR KHCR 141235Z AUTO 00000KT 10SM CLR M01/M02 A2991 RMK AO2 T10061016 $,0,0,0,16090,0,0,0,
2026-04-14 12:15:00,METAR KHCR 141215Z AUTO 00000KT 10SM CLR 00/M02 A2991 RMK AO2 T00031016 $,0,0,0,16090,0,0,0,
2026-04-14 11:55:00,METAR KHCR 141155Z AUTO 00000KT 10SM CLR M01/M02 A2991 RMK AO2 T10071017 10023 21027 56002 $,0,0,0,16090,0,0,0,
2026-04-14 11:35:00,METAR KHCR 141135Z AUTO 12003KT 10SM CLR M01/M02 A2991 RMK AO2 T10111018 $,0,3,0,16090,0,0,0,
2026-04-14 11:15:00,METAR KHCR 141115Z AUTO 00000KT 10SM CLR M01/M02 A2991 RMK AO2 T10081018 $,0,0,0,16090,0,0,0,
2026-04-14 10:55:00,METAR KHCR 141055Z AUTO 00000KT 10SM CLR 00/M01 A2991 RMK AO2 T00001013 $,0,0,0,16090,0,0,0,
2026-04-14 10:35:00,METAR KHCR 141035Z AUTO 26004KT 10SM FEW160 00/M02 A2991 RMK AO2 T00011016 $,0,4,0,16090,0,0,0,
2026-04-14 10:15:00,METAR KHCR 141015Z AUTO 12003KT 10SM SCT170 M00/M02 A2990 RMK AO2 T10041022 $,0,3,0,16090,0,0,0,
2026-04-14 09:55:00,METAR KHCR 140955Z AUTO 11006KT 10SM CLR M01/M02 A2990 RMK AO2 T10121023 $,0,6,0,16090,0,0,0,
2026-04-14 09:35:00,METAR KHCR 140935Z AUTO 13003KT 10SM CLR M01/M02 A2991 RMK AO2 T10141023 $,0,3,0,16090,0,0,0,
2026-04-14 09:15:00,METAR KHCR 140915Z AUTO 00000KT 10SM CLR M02/M03 A2990 RMK AO2 T10191029 $,0,0,0,16090,0,0,0,
2026-04-14 08:55:00,METAR KHCR 140855Z AUTO 00000KT 10SM CLR 00/M02 A2991 RMK AO2 T00031017 57002 $,0,0,0,16090,0,0,0,
2026-04-14 08:35:00,METAR KHCR 140835Z AUTO 00000KT 10SM CLR M01/M02 A2991 RMK AO2 T10111025 $,0,0,0,16090,0,0,0,
2026-04-14 08:15:00,METAR KHCR 140815Z AUTO 00000KT 10SM CLR M00/M02 A2991 RMK AO2 T10001017 $,0,0,0,16090,0,0,0,
2026-04-14 07:55:00,METAR KHCR 140755Z AUTO 00000KT 10SM CLR 00/M02 A2991 RMK AO2 T00011019 $,0,0,0,16090,0,0,0,
2026-04-14 07:15:00,METAR KHCR 140715Z AUTO 00000KT 10SM CLR M00/M02 A2992 RMK AO2 T10011018 $,0,0,0,16090,0,0,0,
2026-04-14 06:55:00,METAR KHCR 140655Z AUTO 12003KT 10SM CLR 00/M02 A2992 RMK AO2 T00021019 401371008 $,0,3,0,16090,0,0,0,
2026-04-14 06:35:00,METAR KHCR 140635Z AUTO 00000KT 10SM CLR 01/M02 A2992 RMK AO2 T00091015 $,0,0,0,16090,0,0,0,
2026-04-14 06:15:00,METAR KHCR 140615Z AUTO 11004KT 10SM CLR 02/M01 A2992 RMK AO2 T00211010 $,0,4,0,16090,0,0,0,
2026-04-14 05:55:00,METAR KHCR 140555Z AUTO 00000KT 10SM CLR 02/M01 A2992 RMK AO2 T00211005 10116 20007 58002 $,0,0,0,16090,0,0,0,
2026-04-14 05:35:00,METAR KHCR 140535Z AUTO 12004KT 10SM CLR 02/M01 A2992 RMK AO2 T00181010 $,0,4,0,16090,0,0,0,
2026-04-14 05:15:00,METAR KHCR 140515Z AUTO 00000KT 10SM CLR 02/M01 A2993 RMK AO2 T00231007 $,0,0,0,16090,0,0,0,
2026-04-14 04:55:00,METAR KHCR 140455Z AUTO 00000KT 10SM CLR 03/M00 A2993 RMK AO2 T00321001 $,0,0,0,16090,0,0,0,
2026-04-14 04:35:00,METAR KHCR 140435Z AUTO 00000KT 10SM CLR 03/M01 A2994 RMK AO2 T00281008 $,0,0,0,16090,0,0,0,
2026-04-14 04:15:00,METAR KHCR 140415Z AUTO 11004KT 10SM CLR 04/M00 A2994 RMK AO2 T00431000 $,0,4,0,16090,0,0,0,
2026-04-14 03:55:00,METAR KHCR 140355Z AUTO 00000KT 10SM CLR 06/00 A2994 RMK AO2 T00620004 $,0,0,0,16090,0,0,0,
2026-04-14 03:35:00,METAR KHCR 140335Z AUTO 26003KT 10SM FEW075 06/01 A2994 RMK AO2 T00600005 $,0,3,0,16090,0,0,0,
2026-04-14 03:15:00,METAR KHCR 140315Z AUTO 00000KT 10SM BKN070 07/00 A2994 RMK AO2 T00660003 $,0,0,0,16090,0,0,0,
2026-04-14 02:55:00,METAR KHCR 140255Z AUTO 00000KT 10SM BKN060 07/00 A2993 RMK AO2 T00710003 51011 $,0,0,0,16090,0,0,0,
2026-04-14 02:35:00,METAR KHCR 140235Z AUTO 26006KT 10SM BKN065 07/00 A2993 RMK AO2 T00710003 $,0,6,0,16090,0,0,0,
2026-04-14 02:15:00,METAR KHCR 140215Z AUTO 20006KT 10SM FEW040 SCT055 BKN070 08/M00 A2992 RMK AO2 T00761003 $,0,6,0,16090,0,0,0,
2026-04-14 01:55:00,METAR KHCR 140155Z AUTO 19003KT 10SM OVC070 07/00 A2992 RMK AO2 T00740000 $,0,3,0,16090,0,0,0,
2026-04-14 01:35:00,METAR KHCR 140135Z AUTO 21005KT 10SM BKN075 OVC090 07/00 A2992 RMK AO2 T00730001 $,0,5,0,16090,0,0,0,
2026-04-14 01:15:00,METAR KHCR 140115Z AUTO 23011G18KT 10SM FEW048 SCT065 OVC080 08/M00 A2991 RMK AO2 T00781001 $,0,11,1,16090,0,0,0,
2026-04-14 00:55:00,METAR KHCR 140055Z AUTO 20008G14KT 10SM BKN070 OVC090 09/M01 A2991 RMK AO2 T00931008 $,0,8,1,16090,0,0,0,
2026-04-14 00:35:00,METAR KHCR 140035Z AUTO 20008G17KT 10SM OVC095 10/M01 A2990 RMK AO2 T00961006 $,0,8,1,16090,0,0,0,
2026-04-14 00:15:00,METAR KHCR 140015Z AUTO 17013G18KT 9SM BKN110 10/M00 A2989 RMK AO2 T01011002 $,0,13,1,14481,0,0,0,
2026-04-13 23:55:00,METAR KHCR 132355Z AUTO 23007KT 10SM FEW100 SCT140 12/M04 A2989 RMK AO2 T01171037 10137 20091 56011 $,0,7,0,16090,0,0,0,
2026-04-13 23:35:00,METAR KHCR 132335Z AUTO 22006KT 10SM BKN140 12/M05 A2989 RMK AO2 T01211053 $,0,6,0,16090,0,0,0,
2026-04-13 23:15:00,METAR KHCR 132315Z AUTO 24004KT 10SM OVC150 12/M05 A2989 RMK AO2 T01231054 $,0,4,0,16090,0,0,0,
2026-04-13 22:55:00,METAR KHCR 132255Z AUTO 27007KT 10SM FEW085 SCT100 BKN160 12/M05 A2989 RMK AO2 T01231051 $,0,7,0,16090,0,0,0,
2026-04-13 22:35:00,METAR KHCR 132235Z AUTO 23007KT 10SM BKN085 OVC170 12/M06 A2990 RMK AO2 T01221056 $,0,7,0,16090,0,0,0,
2026-04-13 22:15:00,METAR KHCR 132215Z AUTO 24008KT 200V290 10SM OVC090 14/M05 A2990 RMK AO2 T01351046 $,0,8,0,16090,0,0,0,
2026-04-13 21:55:00,METAR KHCR 132155Z AUTO VRB04KT 10SM BKN090 13/M06 A2990 RMK AO2 T01331062 $,0,4,0,16090,0,0,0,
2026-04-13 21:35:00,METAR KHCR 132135Z AUTO VRB04KT 10SM FEW090 13/M06 A2990 RMK AO2 T01301059 $,0,4,0,16090,0,0,0,
2026-04-13 21:15:00,METAR KHCR 132115Z AUTO VRB04KT 10SM CLR 13/M05 A2991 RMK AO2 T01311052 $,0,4,0,16090,0,0,0,
2026-04-13 20:55:00,METAR KHCR 132055Z AUTO VRB03KT 10SM CLR 13/M06 A2993 RMK AO2 T01251063 57017 $,0,3,0,16090,0,0,0,
2026-04-13 20:35:00,METAR KHCR 132035Z AUTO VRB06KT 10SM CLR 13/M05 A2994 RMK AO2 T01281054 $,0,6,0,16090,0,0,0,
2026-04-13 20:15:00,METAR KHCR 132015Z AUTO VRB05KT 10SM CLR 12/M06 A2994 RMK AO2 LTG DSNT NE T01231062 $,0,5,0,16090,0,0,0,DS
2026-04-13 19:55:00,METAR KHCR 131955Z AUTO 25012KT 10SM CLR 12/M06 A2995 RMK AO2 T01241062 $,0,12,0,16090,0,0,0,
2026-04-13 19:35:00,METAR KHCR 131935Z AUTO 24009KT 10SM CLR 12/M04 A2996 RMK AO2 T01221038 $,0,9,0,16090,0,0,0,
2026-04-13 19:15:00,METAR KHCR 131915Z AUTO 24007KT 10SM CLR 12/M02 A2996 RMK AO2 T01181022 $,0,7,0,16090,0,0,0,
2026-04-13 18:55:00,METAR KHCR 131855Z AUTO 00000KT 10SM CLR 11/M02 A2997 RMK AO2 T01081016 $,0,0,0,16090,0,0,0,
2026-04-13 18:35:00,METAR KHCR 131835Z AUTO VRB03KT 10SM CLR 10/M01 A2997 RMK AO2 T01021014 $,0,3,0,16090,0,0,0,
2026-04-13 18:15:00,METAR KHCR 131815Z AUTO 00000KT 10SM CLR 10/00 A2998 RMK AO2 T00970003 $,0,0,0,16090,0,0,0,
2026-04-13 17:55:00,METAR KHCR 131755Z AUTO VRB05KT 10SM CLR 09/01 A2999 RMK AO2 T00870008 10088 21008 58008 $,0,5,0,16090,0,0,0,
2026-04-13 17:35:00,METAR KHCR 131735Z AUTO 30004KT 10SM CLR 08/01 A3000 RMK AO2 T00820013 $,0,4,0,16090,0,0,0,
2026-04-13 17:15:00,METAR KHCR 131715Z AUTO 00000KT 10SM CLR 07/01 A3000 RMK AO2 T00720007 $,0,0,0,16090,0,0,0,
2026-04-13 16:55:00,METAR KHCR 131655Z AUTO VRB04KT 10SM CLR 06/01 A3001 RMK AO2 T00650010 $,0,4,0,16090,0,0,0,
2026-04-13 16:35:00,METAR KHCR 131635Z AUTO 00000KT 10SM CLR 06/01 A3001 RMK AO2 T00600011 $,0,0,0,16090,0,0,0,
2026-04-13 16:15:00,METAR KHCR 131615Z AUTO 00000KT 10SM CLR 06/01 A3001 RMK AO2 T00560006 $,0,0,0,16090,0,0,0,
2026-04-13 15:55:00,METAR KHCR 131555Z AUTO 00000KT 10SM CLR 05/01 A3001 RMK AO2 T00490009 $,0,0,0,16090,0,0,0,
2026-04-13 15:35:00,METAR KHCR 131535Z AUTO 00000KT 10SM CLR 04/01 A3001 RMK AO2 T00430010 $,0,0,0,16090,0,0,0,
2026-04-13 15:15:00,METAR KHCR 131515Z AUTO 00000KT 10SM CLR 04/01 A3002 RMK AO2 T00370008 $,0,0,0,16090,0,0,0,
2026-04-13 14:55:00,METAR KHCR 131455Z AUTO 00000KT 10SM CLR 03/01 A3002 RMK AO2 T00310010 53009 $,0,0,0,16090,0,0,0,
2026-04-13 14:35:00,METAR KHCR 131435Z AUTO 31004KT 10SM CLR 03/01 A3002 RMK AO2 T00280012 $,0,4,0,16090,0,0,0,
2026-04-13 14:15:00,METAR KHCR 131415Z AUTO 30004KT 10SM SCT020 03/01 A3002 RMK AO2 T00270012 $,0,4,0,16090,0,0,0,
2026-04-13 13:55:00,METAR KHCR 131355Z AUTO 00000KT 10SM OVC019 01/00 A3000 RMK AO2 CIG 018V022 T00130003 $,0,0,0,16090,0,0,0,
2026-04-13 13:35:00,METAR KHCR 131335Z AUTO 11004KT 10SM OVC019 01/M00 A2999 RMK AO2 T00051004 $,0,4,0,16090,0,0,0,
2026-04-13 13:15:00,METAR KHCR 131315Z AUTO 13004KT 10SM BKN019 M00/M01 A2999 RMK AO2 T10031010 $,0,4,0,16090,0,0,0,
2026-04-13 12:55:00,METAR KHCR 131255Z AUTO 15004KT 10SM CLR M00/M01 A2999 RMK AO2 T10041011 $,0,4,0,16090,0,0,0,
2026-04-13 12:35:00,METAR KHCR 131235Z AUTO 00000KT 10SM CLR M01/M01 A2999 RMK AO2 T10061011 $,0,0,0,16090,0,0,0,
2026-04-13 12:15:00,METAR KHCR 131215Z AUTO 00000KT 10SM CLR 01/01 A2999 RMK AO2 T00140005 $,0,0,0,16090,0,0,0,
2026-04-13 11:55:00,METAR KHCR 131155Z AUTO 00000KT 10SM FEW022 01/M00 A2998 RMK AO2 60011 70012 T00141002 10051 20009 51014 $,0,0,0,16090,0,0,0,
2026-04-13 11:35:00,METAR KHCR 131135Z AUTO 00000KT 10SM FEW019 01/M00 A2998 RMK AO2 T00121005 $,0,0,0,16090,0,0,0,
2026-04-13 11:15:00,METAR KHCR 131115Z AUTO 13004KT 10SM FEW018 01/00 A2997 RMK AO2 T00100001 $,0,4,0,16090,0,0,0,
2026-04-13 10:55:00,METAR KHCR 131055Z AUTO 09003KT 10SM SCT034 BKN043 02/01 A2997 RMK AO2 T00200007 $,0,3,0,16090,0,0,0,
2026-04-13 10:35:00,METAR KHCR 131035Z AUTO 02006KT 10SM BKN034 BKN045 02/01 A2997 RMK AO2 T00240009 $,0,6,0,16090,0,0,0,
2026-04-13 10:15:00,METAR KHCR 131015Z AUTO VRB03KT 10SM BKN035 BKN046 04/01 A2996 RMK AO2 T00360008 $,0,3,0,16090,0,0,0,
2026-04-13 09:55:00,METAR KHCR 130955Z AUTO 32006KT 10SM BKN034 04/02 A2996 RMK AO2 RAE0909 P0000 T00370017 $,0,6,0,16090,0,0,0,RA
2026-04-13 09:35:00,METAR KHCR 130935Z AUTO 23004KT 10SM SCT023 BKN031 OVC038 04/02 A2994 RMK AO2 RAE0909 P0000 T00390015 $,0,4,0,16090,0,0,0,RA
2026-04-13 09:15:00,METAR KHCR 130915Z AUTO 22004KT 10SM SCT023 BKN031 04/02 A2994 RMK AO2 RAE0909 P0000 T00370015 $,0,4,0,16090,0,0,0,RA
2026-04-13 08:55:00,METAR KHCR 130855Z AUTO 26005KT 9SM -RA BKN030 OVC040 04/02 A2994 RMK AO2 RAB0755E0810B0845 P0003 60011 T00380021 51013 $,0,5,0,14481,0,0,0,"-RA,RA"
2026-04-13 08:35:00,METAR KHCR 130835Z AUTO 22006KT 10SM FEW015 SCT033 BKN042 OVC050 04/02 A2993 RMK AO2 RAB0755E0810 P0002 T00370023 $,0,6,0,16090,0,0,0,RA
2026-04-13 08:15:00,METAR KHCR 130815Z AUTO 21005KT 7SM BKN014 BKN022 OVC034 04/02 A2993 RMK AO2 RAB0755E0810 P0002 T00360023 $,0,5,0,11263,0,0,0,RA
2026-04-13 07:55:00,METAR KHCR 130755Z AUTO 20004KT 10SM FEW022 SCT029 OVC041 04/03 A2993 RMK AO2 RAE0739 FEW V SCT PRESRR P0000 T00370027 $,0,4,0,16090,0,0,0,RA
2026-04-13 07:35:00,METAR KHCR 130735Z AUTO 00000KT 9SM -RA FEW015 SCT028 OVC042 04/03 A2990 RMK AO2 FEW V SCT P0000 T00370027 $,0,0,0,14481,0,0,0,-RA
2026-04-13 07:15:00,METAR KHCR 130715Z AUTO 00000KT 10SM SCT014 BKN021 BKN028 BKN039 OVC065 04/03 A2990 RMK AO2 RAE0707 P0000 T00370026 $,0,0,0,16090,0,0,0,RA
2026-04-13 06:55:00,METAR KHCR 130655Z AUTO 23005KT 4SM -RA BR FEW005 BKN013 OVC020 04/02 A2990 RMK AO2 P0008 T00400024 401701016 $,0,5,0,6436,0,0,1,"-RA,BR"
2026-04-13 06:35:00,METAR KHCR 130635Z AUTO 24010KT 5SM -RA BR SCT014 BKN021 BKN031 OVC049 04/02 A2991 RMK AO2 P0005 T00420021 $,0,10,0,8045,0,0,1,"-RA,BR"
2026-04-13 06:15:00,METAR KHCR 130615Z AUTO 24009KT 10SM SCT034 BKN047 05/02 A2989 RMK AO2 RAE0611 P0000 T00500019 $,0,9,0,16090,0,0,0,RA
2026-04-13 05:55:00,METAR KHCR 130555Z AUTO 23011G17KT 7SM -RA SCT015 OVC033 05/02 A2989 RMK AO2 P0001 60001 T00490020 10149 20049 51034 $,0,11,1,11263,0,0,0,-RA
2026-04-13 05:35:00,METAR KHCR 130535Z AUTO 23010KT 9SM -RA FEW017 OVC035 06/02 A2988 RMK AO2 P0000 T00610016 $,0,10,0,14481,0,0,0,-RA
2026-04-13 05:15:00,METAR KHCR 130515Z AUTO VRB03KT 7SM -RA FEW015 BKN036 OVC046 07/00 A2986 RMK AO2 P0000 T00680003 $,0,3,0,11263,0,0,0,-RA
2026-04-13 04:55:00,METAR KHCR 130455Z AUTO 22005KT 9SM -RA FEW030 SCT037 BKN046 OVC055 07/00 A2986 RMK AO2 RAE0400B0421 P0000 T00740001 $,0,5,0,14481,0,0,0,"-RA,RA"
2026-04-13 04:35:00,METAR KHCR 130435Z AUTO 18005KT 9SM -RA BKN040 BKN047 OVC055 08/M02 A2986 RMK AO2 RAE0400B0421 P0000 T00841015 $,0,5,0,14481,0,0,0,"-RA,RA"
2026-04-13 04:15:00,METAR KHCR 130415Z AUTO 29009G18KT 260V330 10SM SCT037 BKN046 OVC060 09/M02 A2985 RMK AO2 RAE0400 P0000 T00861017 $,0,9,1,16090,0,0,0,RA
2026-04-13 03:55:00,METAR KHCR 130355Z AUTO 21013G21KT 10SM -RA SCT038 SCT047 BKN055 OVC070 10/M03 A2983 RMK AO2 WSHFT 0249 RAB0349 P0000 T00981026 $,0,13,1,16090,0,0,0,"-RA,RA"
2026-04-13 03:35:00,METAR KHCR 130335Z AUTO 27011G22KT 210V290 10SM BKN070 BKN110 11/M04 A2981 RMK AO2 WSHFT 0249 T01051042 $,0,11,1,16090,0,0,0,
2026-04-13 03:15:00,METAR KHCR 130315Z AUTO 26010G16KT 220V290 10SM FEW055 SCT070 BKN120 12/M06 A2979 RMK AO2 WSHFT 0249 T01151064 $,0,10,1,16090,0,0,0,
2026-04-13 02:55:00,METAR KHCR 130255Z AUTO 19010G34KT 140V210 10SM FEW055 SCT110 12/M07 A2977 RMK AO2 PK WND 19034/0241 T01191067 53016 $,0,10,1,16090,0,0,0,
2026-04-13 02:35:00,METAR KHCR 130235Z AUTO 21014G20KT 10SM FEW110 SCT130 13/M08 A2976 RMK AO2 T01251076 $,0,14,1,16090,0,0,0,
2026-04-13 02:15:00,METAR KHCR 130215Z AUTO 24010G19KT 10SM CLR 13/M08 A2975 RMK AO2 PRESRR T01281083 $,0,10,1,16090,0,0,0,
2026-04-13 01:55:00,METAR KHCR 130155Z AUTO 23017G27KT 200V260 10SM FEW100 14/M12 A2971 RMK AO2 PK WND 24035/0105 T01401125 $,0,17,1,16090,0,0,0,
2026-04-13 01:35:00,METAR KHCR 130135Z AUTO 23021G30KT 10SM FEW120 14/M13 A2971 RMK AO2 PK WND 24035/0105 T01421130 $,0,21,1,16090,0,0,0,
2026-04-13 01:15:00,METAR KHCR 130115Z AUTO 23017G35KT 9SM SCT110 15/M14 A2971 RMK AO2 PK WND 24035/0105 T01461137 $,0,17,1,14481,0,0,0,
2026-04-13 00:55:00,METAR KHCR 130055Z AUTO 21014G31KT 10SM SCT100 15/M10 A2971 RMK AO2 PK WND 23031/0047 WSHFT 2349 T01471103 $,0,14,1,16090,0,0,0,
2026-04-13 00:35:00,METAR KHCR 130035Z AUTO 20008G21KT 180V250 10SM FEW100 15/M10 A2971 RMK AO2 PK WND 24028/0010 WSHFT 2349 T01471101 $,0,8,1,16090,0,0,0,
2026-04-13 00:15:00,METAR KHCR 130015Z AUTO 23018G28KT 9SM CLR 15/M10 A2971 RMK AO2 PK WND 24028/0010 WSHFT 2349 T01471100 $,0,18,1,14481,0,0,0,
2026-04-12 23:55:00,METAR KHCR 122355Z AUTO 22014G24KT 10SM FEW085 15/M10 A2971 RMK AO2 PK WND 20029/2333 WSHFT 2331 T01471097 10170 20139 55008 $,0,14,1,16090,0,0,0,
2026-04-12 23:35:00,METAR KHCR 122335Z AUTO 17018G29KT 140V210 10SM FEW070 BKN100 15/M10 A2972 RMK AO2 PK WND 20029/2333 WSHFT 2331 T01501099 $,0,18,1,16090,0,0,0,
2026-04-12 23:15:00,METAR KHCR 122315Z AUTO 23015G26KT 10SM SCT100 15/M09 A2971 RMK AO2 PK WND 23026/2311 T01521090 $,0,15,1,16090,0,0,0,
2026-04-12 22:55:00,METAR KHCR 122255Z AUTO 20012G25KT 10SM FEW080 BKN100 16/M09 A2971 RMK AO2 PK WND 24031/2207 WSHFT 2230 T01561093 $,0,12,1,16090,0,0,0,
2026-04-12 22:35:00,METAR KHCR 122235Z AUTO 19015G30KT 160V240 10SM FEW085 BKN100 BKN120 15/M09 A2972 RMK AO2 PK WND 24031/2207 WSHFT 2230 T01521095 $,0,15,1,16090,0,0,0,
2026-04-12 22:15:00,METAR KHCR 122215Z AUTO 23017G31KT 10SM SCT100 BKN120 16/M08 A2972 RMK AO2 PK WND 24031/2207 T01651077 $,0,17,1,16090,0,0,0,
2026-04-12 21:55:00,METAR KHCR 122155Z AUTO 24022G31KT 10SM BKN100 17/M07 A2973 RMK AO2 PK WND 23032/2107 T01661070 $,0,22,1,16090,0,0,0,
2026-04-12 21:35:00,METAR KHCR 122135Z AUTO 24021G30KT 10SM SCT100 BKN140 15/M07 A2973 RMK AO2 PK WND 23032/2107 T01511069 $,0,21,1,16090,0,0,0,
2026-04-12 21:15:00,METAR KHCR 122115Z AUTO 24022G32KT 10SM SCT100 SCT150 16/M06 A2974 RMK AO2 PK WND 23032/2107 T01601057 $,0,22,1,16090,0,0,0,
2026-04-12 20:55:00,METAR KHCR 122055Z AUTO 23015G25KT 10SM SCT100 BKN180 16/M06 A2974 RMK AO2 PK WND 23032/2001 T01571062 56012 $,0,15,1,16090,0,0,0,
2026-04-12 20:35:00,METAR KHCR 122035Z AUTO 21012G25KT 10SM FEW100 SCT180 16/M07 A2975 RMK AO2 PK WND 23032/2001 T01641067 $,0,12,1,16090,0,0,0,
2026-04-12 20:15:00,METAR KHCR 122015Z AUTO 20018G30KT 160V230 10SM FEW100 17/M07 A2974 RMK AO2 PK WND 23032/2001 T01701071 $,0,18,1,16090,0,0,0,
2026-04-12 19:55:00,METAR KHCR 121955Z AUTO 22014G23KT 180V240 10SM BKN100 15/M05 A2975 RMK AO2 PK WND 16027/1911 WSHFT 1938 T01541047 $,0,14,1,16090,0,0,0,
2026-04-12 19:35:00,METAR KHCR 121935Z AUTO 24013G21KT 10SM SCT100 BKN120 15/M05 A2975 RMK AO2 PK WND 16027/1911 T01461055 $,0,13,1,16090,0,0,0,
2026-04-12 19:15:00,METAR KHCR 121915Z AUTO 18010G27KT 150V220 10SM FEW075 16/M05 A2976 RMK AO2 PK WND 16027/1911 T01601049 $,0,10,1,16090,0,0,0,
2026-04-12 18:55:00,METAR KHCR 121855Z AUTO 17019G29KT 140V210 10SM BKN090 14/M05 A2978 RMK AO2 PK WND 16029/1840 T01441046 $,0,19,1,16090,0,0,0,
2026-04-12 18:35:00,METAR KHCR 121835Z AUTO 22011G18KT 170V250 10SM OVC090 15/M04 A2977 RMK AO2 T01531040 $,0,11,1,16090,0,0,0,
2026-04-12 18:15:00,METAR KHCR 121815Z AUTO 19008G18KT 150V220 10SM BKN100 OVC120 15/M06 A2978 RMK AO2 T01521061 $,0,8,1,16090,0,0,0,
2026-04-12 17:55:00,METAR KHCR 121755Z AUTO 20010G16KT 10SM BKN095 15/M07 A2979 RMK AO2 60000 T01471068 10153 21016 55001 $,0,10,1,16090,0,0,0,
2026-04-12 17:35:00,METAR KHCR 121735Z AUTO 20011G18KT 10SM SCT090 SCT110 15/M06 A2979 RMK AO2 T01511063 $,0,11,1,16090,0,0,0,
2026-04-12 17:15:00,METAR KHCR 121715Z AUTO 22011G18KT 10SM SCT090 BKN110 15/M05 A2978 RMK AO2 T01481054 $,0,11,1,16090,0,0,0,
2026-04-12 16:55:00,METAR KHCR 121655Z AUTO 23014G23KT 10SM CLR 15/M05 A2978 RMK AO2 T01481053 $,0,14,1,16090,0,0,0,
2026-04-12 16:35:00,METAR KHCR 121635Z AUTO 23015G20KT 10SM CLR 14/M06 A2978 RMK AO2 T01411057 $,0,15,1,16090,0,0,0,
2026-04-12 16:15:00,METAR KHCR 121615Z AUTO 25012G17KT 10SM CLR 14/M05 A2978 RMK AO2 T01371053 $,0,12,1,16090,0,0,0,
2026-04-12 15:55:00,METAR KHCR 121555Z AUTO 00000KT 10SM CLR 13/M04 A2978 RMK AO2 T01331040 $,0,0,0,16090,0,0,0,
2026-04-12 14:55:00,METAR KHCR 121455Z AUTO 00000KT 10SM CLR 09/M02 A2979 RMK AO2 60000 T00871022 50000 $,0,0,0,16090,0,0,0,
2026-04-12 14:35:00,METAR KHCR 121435Z AUTO 00000KT 10SM CLR 08/M01 A2979 RMK AO2 T00771014 $,0,0,0,16090,0,0,0,
2026-04-12 14:15:00,METAR KHCR 121415Z AUTO 00000KT 10SM CLR 05/M02 A2980 RMK AO2 T00521016 $,0,0,0,16090,0,0,0,
2026-04-12 13:55:00,METAR KHCR 121355Z AUTO 00000KT 10SM CLR 03/M02 A2980 RMK AO2 SNB1257E1306 P0000 T00311021 $,0,0,0,16090,0,0,0,SN
2026-04-12 13:35:00,METAR KHCR 121335Z AUTO 36003KT 10SM FEW170 02/M02 A2979 RMK AO2 SNB1257E1306 P0000 T00221017 $,0,3,0,16090,0,0,0,SN
2026-04-12 13:15:00,METAR KHCR 121315Z AUTO 35004KT 10SM SCT170 02/M02 A2979 RMK AO2 SNB1257E1306 P0000 T00161021 $,0,4,0,16090,0,0,0,SN
2026-04-12 12:55:00,METAR KHCR 121255Z AUTO 00000KT 10SM CLR M00/M03 A2978 RMK AO2 T10031032 $,0,0,0,16090,0,0,0,
2026-04-12 12:35:00,METAR KHCR 121235Z AUTO 13004KT 10SM CLR M01/M03 A2979 RMK AO2 T10101035 $,0,4,0,16090,0,0,0,
2026-04-12 12:15:00,METAR KHCR 121215Z AUTO 00000KT 10SM CLR M01/M03 A2979 RMK AO2 T10061033 $,0,0,0,16090,0,0,0,
2026-04-12 11:55:00,METAR KHCR 121155Z AUTO 00000KT 10SM CLR M00/M03 A2979 RMK AO2 T10041033 10049 21009 56010 $,0,0,0,16090,0,0,0,
2026-04-12 11:35:00,METAR KHCR 121135Z AUTO 00000KT 10SM CLR 00/M03 A2979 RMK AO2 T00051028 $,0,0,0,16090,0,0,0,
2026-04-12 11:15:00,METAR KHCR 121115Z AUTO 12003KT 10SM CLR M01/M03 A2979 RMK AO2 T10071033 $,0,3,0,16090,0,0,0,
2026-04-12 10:55:00,METAR KHCR 121055Z AUTO 10004KT 10SM CLR M01/M03 A2979 RMK AO2 T10081033 $,0,4,0,16090,0,0,0,
2026-04-12 10:35:00,METAR KHCR 121035Z AUTO 00000KT 10SM CLR 00/M03 A2980 RMK AO2 T00011028 $,0,0,0,16090,0,0,0,
2026-04-12 10:15:00,METAR KHCR 121015Z AUTO 00000KT 10SM CLR M00/M03 A2980 RMK AO2 T10031032 $,0,0,0,16090,0,0,0,
2026-04-12 09:55:00,METAR KHCR 120955Z AUTO 13003KT 10SM CLR 01/M03 A2981 RMK AO2 T00071025 $,0,3,0,16090,0,0,0,
2026-04-12 09:35:00,METAR KHCR 120935Z AUTO 00000KT 10SM FEW250 01/M03 A2981 RMK AO2 T00111030 $,0,0,0,16090,0,0,0,
2026-04-12 09:15:00,METAR KHCR 120915Z AUTO 00000KT 10SM FEW250 02/M02 A2982 RMK AO2 T00181022 $,0,0,0,16090,0,0,0,
2026-04-12 08:55:00,METAR KHCR 120855Z AUTO 00000KT 10SM CLR 03/M02 A2982 RMK AO2 T00271018 58007 $,0,0,0,16090,0,0,0,
2026-04-12 08:35:00,METAR KHCR 120835Z AUTO 00000KT 10SM CLR 02/M02 A2983 RMK AO2 T00201019 $,0,0,0,16090,0,0,0,
2026-04-12 08:15:00,METAR KHCR 120815Z AUTO 00000KT 10SM CLR 02/M02 A2983 RMK AO2 T00241020 $,0,0,0,16090,0,0,0,
2026-04-12 07:55:00,METAR KHCR 120755Z AUTO 00000KT 10SM CLR 04/M02 A2984 RMK AO2 T00391019 $,0,0,0,16090,0,0,0,
2026-04-12 07:35:00,METAR KHCR 120735Z AUTO 08003KT 10SM CLR 01/M02 A2984 RMK AO2 T00141021 $,0,3,0,16090,0,0,0,
2026-04-12 07:15:00,METAR KHCR 120715Z AUTO 11003KT 10SM CLR 03/M01 A2984 RMK AO2 T00341015 $,0,3,0,16090,0,0,0,
2026-04-12 06:55:00,METAR KHCR 120655Z AUTO 00000KT 10SM CLR 04/M01 A2984 RMK AO2 T00431012 401750024 $,0,0,0,16090,0,0,0,
2026-04-12 06:35:00,METAR KHCR 120635Z AUTO 00000KT 10SM FEW240 03/M01 A2984 RMK AO2 T00281014 $,0,0,0,16090,0,0,0,
2026-04-12 06:15:00,METAR KHCR 120615Z AUTO 18003KT 10SM FEW240 03/M01 A2985 RMK AO2 T00321015 $,0,3,0,16090,0,0,0,
2026-04-12 05:55:00,METAR KHCR 120555Z AUTO 00000KT 10SM CLR 04/M02 A2985 RMK AO2 T00421019 10163 20028 50007 $,0,0,0,16090,0,0,0,
2026-04-12 05:35:00,METAR KHCR 120535Z AUTO 00000KT 10SM CLR 03/M02 A2985 RMK AO2 T00331017 $,0,0,0,16090,0,0,0,
2026-04-12 05:15:00,METAR KHCR 120515Z AUTO 00000KT 10SM CLR 07/M01 A2985 RMK AO2 T00661013 $,0,0,0,16090,0,0,0,
2026-04-12 04:55:00,METAR KHCR 120455Z AUTO 17004KT 10SM CLR 04/M01 A2985 RMK AO2 T00451013 $,0,4,0,16090,0,0,0,
2026-04-12 04:35:00,METAR KHCR 120435Z AUTO 00000KT 10SM CLR 06/M02 A2985 RMK AO2 T00561021 $,0,0,0,16090,0,0,0,
2026-04-12 04:15:00,METAR KHCR 120415Z AUTO 16003KT 10SM CLR 06/M02 A2985 RMK AO2 T00631020 $,0,3,0,16090,0,0,0,
2026-04-12 03:55:00,METAR KHCR 120355Z AUTO 00000KT 10SM FEW110 06/M01 A2984 RMK AO2 T00571010 $,0,0,0,16090,0,0,0,
2026-04-12 03:35:00,METAR KHCR 120335Z AUTO 00000KT 10SM BKN100 07/M02 A2984 RMK AO2 T00751020 $,0,0,0,16090,0,0,0,
2026-04-12 03:15:00,METAR KHCR 120315Z AUTO 00000KT 10SM SCT100 09/M02 A2983 RMK AO2 T00851016 $,0,0,0,16090,0,0,0,
2026-04-12 02:55:00,METAR KHCR 120255Z AUTO 00000KT 10SM CLR 09/M01 A2982 RMK AO2 T00891007 53005 $,0,0,0,16090,0,0,0,
2026-04-12 02:35:00,METAR KHCR 120235Z AUTO 00000KT 10SM CLR 10/M01 A2982 RMK AO2 T00981005 $,0,0,0,16090,0,0,0,
2026-04-12 02:15:00,METAR KHCR 120215Z AUTO 35003KT 9SM CLR 11/M03 A2981 RMK AO2 T01121030 $,0,3,0,14481,0,0,0,
2026-04-12 01:55:00,METAR KHCR 120155Z AUTO 24005KT 9SM CLR 12/M03 A2980 RMK AO2 T01201032 $,0,5,0,14481,0,0,0,
2026-04-12 01:35:00,METAR KHCR 120135Z AUTO 27006KT 10SM CLR 12/M02 A2980 RMK AO2 T01231022 $,0,6,0,16090,0,0,0,
2026-04-12 01:15:00,METAR KHCR 120115Z AUTO 24009KT 10SM CLR 14/M05 A2979 RMK AO2 T01441046 $,0,9,0,16090,0,0,0,
2026-04-12 00:55:00,METAR KHCR 120055Z AUTO 23010KT 10SM BKN100 15/M05 A2980 RMK AO2 T01541046 $,0,10,0,16090,0,0,0,
2026-04-12 00:35:00,METAR KHCR 120035Z AUTO 21008KT 10SM BKN100 BKN120 15/M05 A2981 RMK AO2 T01531049 $,0,8,0,16090,0,0,0,
2026-04-12 00:15:00,METAR KHCR 120015Z AUTO 23011G15KT 10SM BKN100 16/M04 A2980 RMK AO2 T01591045 $,0,11,1,16090,0,0,0,
2026-04-11 23:55:00,METAR KHCR 112355Z AUTO 24005KT 10SM BKN100 BKN120 16/M04 A2981 RMK AO2 60000 T01581042 10175 20100 56001 $,0,5,0,16090,0,0,0,
2026-04-11 23:35:00,METAR KHCR 112335Z AUTO 24008KT 10SM SCT100 BKN120 15/M03 A2981 RMK AO2 LTG DSNT E T01551035 $,0,8,0,16090,0,0,0,DS
2026-04-11 23:15:00,METAR KHCR 112315Z AUTO 21008G15KT 170V250 10SM BKN100 BKN120 16/M04 A2980 RMK AO2 T01591045 $,0,8,1,16090,0,0,0,
2026-04-11 22:55:00,METAR KHCR 112255Z AUTO 26008G17KT 10SM SCT110 15/M02 A2981 RMK AO2 PK WND 26027/2154 WSHFT 2200 T01461023 $,0,8,1,16090,0,0,0,
2026-04-11 22:35:00,METAR KHCR 112235Z AUTO 26010G19KT 10SM FEW100 16/M02 A2981 RMK AO2 PK WND 26027/2154 WSHFT 2200 T01591017 $,0,10,1,16090,0,0,0,
2026-04-11 22:15:00,METAR KHCR 112215Z AUTO 25012G22KT 10SM BKN100 16/M02 A2980 RMK AO2 PK WND 26027/2154 WSHFT 2200 T01561018 $,0,12,1,16090,0,0,0,
2026-04-11 21:55:00,METAR KHCR 112155Z AUTO 24015G20KT 10SM FEW095 SCT120 18/M03 A2978 RMK AO2 PK WND 26029/2135 T01751029 $,0,15,1,16090,0,0,0,
2026-04-11 21:35:00,METAR KHCR 112135Z AUTO 22008G23KT 10SM SCT120 16/M03 A2979 RMK AO2 T01631025 $,0,8,1,16090,0,0,0,
2026-04-11 21:15:00,METAR KHCR 112115Z AUTO 24010G16KT 10SM FEW085 16/M00 A2979 RMK AO2 LTG DSNT N AND SE T01641005 $,0,10,1,16090,0,0,0,DS
2026-04-11 20:55:00,METAR KHCR 112055Z AUTO 21008KT 150V260 10SM FEW060 BKN080 14/00 A2981 RMK AO2 RAE1951 60000 T01370002 58008 $,0,8,0,16090,0,0,0,RA
2026-04-11 20:35:00,METAR KHCR 112035Z AUTO VRB04KT 10SM FEW060 SCT090 15/02 A2982 RMK AO2 RAE1951 T01460016 $,0,4,0,16090,0,0,0,RA
2026-04-11 20:15:00,METAR KHCR 112015Z AUTO 16009G18KT 140V210 10SM FEW047 BKN060 BKN075 BKN090 13/03 A2983 RMK AO2 LTG DSNT N AND NE RAE1951 T01300029 $,0,9,1,16090,0,0,0,"DS,RA"
2026-04-11 19:55:00,METAR KHCR 111955Z AUTO 15005KT 9SM -RA SCT042 OVC060 11/02 A2984 RMK AO2 RAB1933 P0000 T01110015 $,0,5,0,14481,0,0,0,"-RA,RA"
2026-04-11 19:35:00,METAR KHCR 111935Z AUTO 21011G20KT 170V260 8SM -RA FEW050 BKN060 OVC085 12/01 A2986 RMK AO2 RAB1933 P0000 T01160008 $,0,11,1,12872,0,0,0,"-RA,RA"
2026-04-11 19:15:00,METAR KHCR 111915Z AUTO 17010G20KT 9SM BKN065 BKN080 BKN160 12/00 A2985 RMK AO2 LTG DSNT NW AND SE T01190002 $,0,10,1,14481,0,0,0,DS
2026-04-11 18:55:00,METAR KHCR 111855Z AUTO 16015G22KT 10SM SCT060 SCT070 BKN090 BKN120 BKN150 11/01 A2987 RMK AO2 PK WND 15030/1832 WSHFT 1837 LTG DSNT NW AND S RAB1803E1812B1838E1848 P0000 T01050006 $,0,15,1,16090,0,0,0,"DS,RA"
2026-04-11 18:35:00,METAR KHCR 111835Z AUTO 16020G30KT 10SM SCT060 BKN080 BKN100 BKN120 OVC140 11/00 A2988 RMK AO2 PK WND 15030/1832 LTG DSNT NW AND E RAB1803E1812 P0000 T01130003 $,0,20,1,16090,0,0,0,"DS,RA"
2026-04-11 18:15:00,METAR KHCR 111815Z AUTO 24013G19KT 10SM SCT085 BKN130 13/00 A2986 RMK AO2 LTG DSNT NW AND N RAB1803E1812 P0000 T01320005 $,0,13,1,16090,0,0,0,"DS,RA"
2026-04-11 17:55:00,METAR KHCR 111755Z AUTO 25010KT 10SM SCT090 SCT170 15/00 A2984 RMK AO2 PK WND 27027/1718 T01450004 10168 20032 58014 $,0,10,0,16090,0,0,0,
2026-04-11 17:35:00,METAR KHCR 111735Z AUTO 26013KT 10SM BKN080 BKN095 15/01 A2985 RMK AO2 PK WND 27027/1718 LTG DSNT S AND W T01530012 $,0,13,0,16090,0,0,0,DS
2026-04-11 17:15:00,METAR KHCR 111715Z AUTO VRB05KT 10SM BKN090 BKN110 17/M00 A2986 RMK AO2 T01661003 $,0,5,0,16090,0,0,0,
2026-04-11 16:55:00,METAR KHCR 111655Z AUTO 16007G17KT 9SM FEW020 SCT050 BKN070 BKN095 13/01 A2987 RMK AO2 PK WND 18029/1637 LTG DSNT SW AND W T01290010 $,0,7,1,14481,0,0,0,DS
2026-04-11 16:35:00,METAR KHCR 111635Z AUTO 19018G23KT 10SM FEW050 SCT065 BKN090 14/M02 A2988 RMK AO2 T01441023 $,0,18,1,16090,0,0,0,
2026-04-11 16:15:00,METAR KHCR 111615Z AUTO 23006KT 10SM FEW100 17/M02 A2987 RMK AO2 T01681016 $,0,6,0,16090,0,0,0,
2026-04-11 15:55:00,METAR KHCR 111555Z AUTO 21007G19KT 150V270 10SM FEW080 16/M00 A2988 RMK AO2 LTG DSNT W AND NW T01601003 $,0,7,1,16090,0,0,0,DS
2026-04-11 15:35:00,METAR KHCR 111535Z AUTO VRB03KT 10SM SCT080 SCT100 14/00 A2987 RMK AO2 T01420003 $,0,3,0,16090,0,0,0,
2026-04-11 15:15:00,METAR KHCR 111515Z AUTO 00000KT 10SM BKN090 13/02 A2989 RMK AO2 T01270022 $,0,0,0,16090,0,0,0,
2026-04-11 14:55:00,METAR KHCR 111455Z AUTO VRB04KT 10SM SCT080 BKN100 10/02 A2989 RMK AO2 T01010024 51002 $,0,4,0,16090,0,0,0,
2026-04-11 14:35:00,METAR KHCR 111435Z AUTO 00000KT 10SM BKN080 OVC095 10/01 A2989 RMK AO2 T00990011 $,0,0,0,16090,0,0,0,
2026-04-11 14:15:00,METAR KHCR 111415Z AUTO 00000KT 10SM SCT080 BKN095 10/00 A2989 RMK AO2 T00980005 $,0,0,0,16090,0,0,0,
2026-04-11 13:55:00,METAR KHCR 111355Z AUTO 00000KT 10SM SCT075 07/01 A2989 RMK AO2 T00660013 $,0,0,0,16090,0,0,0,
2026-04-11 13:35:00,METAR KHCR 111335Z AUTO 00000KT 10SM FEW080 07/00 A2989 RMK AO2 T00660001 $,0,0,0,16090,0,0,0,
2026-04-11 13:15:00,METAR KHCR 111315Z AUTO 00000KT 9SM FEW095 05/M00 A2988 RMK AO2 T00511002 $,0,0,0,14481,0,0,0,
2026-04-11 12:55:00,METAR KHCR 111255Z AUTO 00000KT 9SM FEW100 05/M00 A2988 RMK AO2 T00451005 $,0,0,0,14481,0,0,0,
2026-04-11 12:35:00,METAR KHCR 111235Z AUTO 00000KT 10SM SCT095 06/M00 A2988 RMK AO2 T00581003 $,0,0,0,16090,0,0,0,
2026-04-11 12:15:00,METAR KHCR 111215Z AUTO 15003KT 10SM BKN090 05/00 A2988 RMK AO2 T00500001 $,0,3,0,16090,0,0,0,
2026-04-11 11:55:00,METAR KHCR 111155Z AUTO 00000KT 10SM SCT090 06/M00 A2988 RMK AO2 T00601002 10145 20050 56003 $,0,0,0,16090,0,0,0,
2026-04-11 11:35:00,METAR KHCR 111135Z AUTO 00000KT 10SM CLR 07/M01 A2988 RMK AO2 T00691008 $,0,0,0,16090,0,0,0,
2026-04-11 11:15:00,METAR KHCR 111115Z AUTO 14005KT 10SM CLR 06/M00 A2988 RMK AO2 T00561004 $,0,5,0,16090,0,0,0,
2026-04-11 10:55:00,METAR KHCR 111055Z AUTO 11007KT 10SM CLR 07/M01 A2988 RMK AO2 T00711006 $,0,7,0,16090,0,0,0,
2026-04-11 10:35:00,METAR KHCR 111035Z AUTO 11006KT 10SM CLR 07/M00 A2988 RMK AO2 T00701004 $,0,6,0,16090,0,0,0,
2026-04-11 10:15:00,METAR KHCR 111015Z AUTO 13004KT 10SM SCT100 10/M01 A2988 RMK AO2 T00981010 $,0,4,0,16090,0,0,0,
2026-04-11 09:55:00,METAR KHCR 110955Z AUTO 11004KT 10SM OVC100 09/M00 A2989 RMK AO2 T00871005 $,0,4,0,16090,0,0,0,
2026-04-11 09:35:00,METAR KHCR 110935Z AUTO 00000KT 10SM OVC100 07/01 A2989 RMK AO2 T00670007 $,0,0,0,16090,0,0,0,
2026-04-11 09:15:00,METAR KHCR 110915Z AUTO 00000KT 10SM OVC095 07/01 A2989 RMK AO2 T00690005 $,0,0,0,16090,0,0,0,
2026-04-11 08:55:00,METAR KHCR 110855Z AUTO 10006KT 10SM BKN100 BKN150 06/01 A2989 RMK AO2 T00620007 50002 $,0,6,0,16090,0,0,0,
2026-04-11 08:35:00,METAR KHCR 110835Z AUTO 10005KT 10SM BKN100 05/01 A2989 RMK AO2 T00550008 $,0,5,0,16090,0,0,0,
2026-04-11 08:15:00,METAR KHCR 110815Z AUTO 08003KT 10SM CLR 07/00 A2990 RMK AO2 T00680004 $,0,3,0,16090,0,0,0,
2026-04-11 07:55:00,METAR KHCR 110755Z AUTO 11003KT 10SM CLR 07/00 A2989 RMK AO2 T00700004 $,0,3,0,16090,0,0,0,
2026-04-11 07:35:00,METAR KHCR 110735Z AUTO 13003KT 10SM CLR 07/00 A2989 RMK AO2 T00740003 $,0,3,0,16090,0,0,0,
2026-04-11 07:15:00,METAR KHCR 110715Z AUTO 13004KT 10SM FEW100 10/M00 A2989 RMK AO2 T00971001 $,0,4,0,16090,0,0,0,
2026-04-11 06:55:00,METAR KHCR 110655Z AUTO 00000KT 10SM FEW100 SCT150 10/01 A2989 RMK AO2 PK WND 20028/0608 T01000007 402190019 $,0,0,0,16090,0,0,0,
2026-04-11 06:35:00,METAR KHCR 110635Z AUTO VRB05KT 10SM FEW080 SCT100 BKN150 13/M00 A2989 RMK AO2 PK WND 20028/0608 T01351001 $,0,5,0,16090,0,0,0,
2026-04-11 06:15:00,METAR KHCR 110615Z AUTO 18012G28KT 9SM BKN090 14/00 A2989 RMK AO2 PK WND 20028/0608 T01450002 $,0,12,1,14481,0,0,0,
2026-04-11 05:55:00,METAR KHCR 110555Z AUTO 00000KT 10SM CLR 07/00 A2988 RMK AO2 T00660004 10194 20058 51001 $,0,0,0,16090,0,0,0,
2026-04-11 05:35:00,METAR KHCR 110535Z AUTO 00000KT 10SM CLR 07/01 A2988 RMK AO2 T00730008 $,0,0,0,16090,0,0,0,
2026-04-11 05:15:00,METAR KHCR 110515Z AUTO 12004KT 10SM CLR 08/00 A2988 RMK AO2 T00770004 $,0,4,0,16090,0,0,0,
2026-04-11 04:55:00,METAR KHCR 110455Z AUTO 00000KT 10SM SCT100 11/M00 A2988 RMK AO2 T01091000 $,0,0,0,16090,0,0,0,
2026-04-11 04:35:00,METAR KHCR 110435Z AUTO 00000KT 10SM SCT110 11/00 A2989 RMK AO2 T01140001 $,0,0,0,16090,0,0,0,
2026-04-11 04:15:00,METAR KHCR 110415Z AUTO 00000KT 10SM BKN110 11/01 A2989 RMK AO2 T01100005 $,0,0,0,16090,0,0,0,
2026-04-11 03:55:00,METAR KHCR 110355Z AUTO 00000KT 10SM CLR 13/01 A2989 RMK AO2 T01280005 $,0,0,0,16090,0,0,0,
2026-04-11 03:35:00,METAR KHCR 110335Z AUTO 16003KT 10SM FEW075 SCT100 13/01 A2988 RMK AO2 T01330008 $,0,3,0,16090,0,0,0,
2026-04-11 03:15:00,METAR KHCR 110315Z AUTO 30006KT 10SM BKN100 BKN130 14/01 A2989 RMK AO2 T01420008 $,0,6,0,16090,0,0,0,
2026-04-11 02:55:00,METAR KHCR 110255Z AUTO 00000KT 10SM FEW110 15/00 A2988 RMK AO2 T01470005 50002 $,0,0,0,16090,0,0,0,
2026-04-11 02:35:00,METAR KHCR 110235Z AUTO 00000KT 10SM BKN110 15/M00 A2989 RMK AO2 T01491001 $,0,0,0,16090,0,0,0,
2026-04-11 02:15:00,METAR KHCR 110215Z AUTO 27003KT 10SM BKN110 14/00 A2989 RMK AO2 T01440003 $,0,3,0,16090,0,0,0,
2026-04-11 01:55:00,METAR KHCR 110155Z AUTO 14007G17KT 10SM BKN110 16/M00 A2989 RMK AO2 T01561003 $,0,7,1,16090,0,0,0,
2026-04-11 01:35:00,METAR KHCR 110135Z AUTO 13012KT 10SM BKN110 16/00 A2989 RMK AO2 T01560003 $,0,12,0,16090,0,0,0,
2026-04-11 01:15:00,METAR KHCR 110115Z AUTO 13016KT 10SM SCT120 16/01 A2989 RMK AO2 T01560007 $,0,16,0,16090,0,0,0,
2026-04-11 00:55:00,METAR KHCR 110055Z AUTO 15012KT 10SM FEW085 SCT110 18/M03 A2990 RMK AO2 WSHFT 2347 T01811027 $,0,12,0,16090,0,0,0,
2026-04-11 00:35:00,METAR KHCR 110035Z AUTO 20010G22KT 10SM BKN110 19/M04 A2990 RMK AO2 WSHFT 2347 T01871036 $,0,10,1,16090,0,0,0,
2026-04-11 00:15:00,METAR KHCR 110015Z AUTO 17007KT 10SM BKN120 19/M04 A2988 RMK AO2 WSHFT 2347 T01901036 $,0,7,0,16090,0,0,0,
2026-04-10 23:55:00,METAR KHCR 102355Z AUTO 21011G19KT 170V230 9SM FEW130 19/M04 A2988 RMK AO2 T01931038 10219 20180 55009 $,0,11,1,14481,0,0,0,
2026-04-10 23:35:00,METAR KHCR 102335Z AUTO 16014G20KT 10SM FEW140 20/M05 A2987 RMK AO2 T01971050 $,0,14,1,16090,0,0,0,
2026-04-10 23:15:00,METAR KHCR 102315Z AUTO 21006KT 10SM FEW130 20/M04 A2987 RMK AO2 T01981036 $,0,6,0,16090,0,0,0,
2026-04-10 22:55:00,METAR KHCR 102255Z AUTO 23012G20KT 10SM FEW100 21/M03 A2987 RMK AO2 T02061026 $,0,12,1,16090,0,0,0,
2026-04-10 22:35:00,METAR KHCR 102235Z AUTO 26014KT 10SM FEW100 22/M02 A2987 RMK AO2 T02171017 $,0,14,0,16090,0,0,0,
2026-04-10 22:15:00,METAR KHCR 102215Z AUTO 24009KT 190V260 10SM FEW130 21/M01 A2987 RMK AO2 LTG DSNT NW T02131010 $,0,9,0,16090,0,0,0,DS
2026-04-10 21:55:00,METAR KHCR 102155Z AUTO 23008KT 180V260 10SM CLR 21/00 A2989 RMK AO2 T02080001 $,0,8,0,16090,0,0,0,
2026-04-10 21:35:00,METAR KHCR 102135Z AUTO 25015KT 10SM FEW120 20/M00 A2989 RMK AO2 T02031005 $,0,15,0,16090,0,0,0,
2026-04-10 21:15:00,METAR KHCR 102115Z AUTO 25014G18KT 10SM FEW130 21/01 A2989 RMK AO2 T02130009 $,0,14,1,16090,0,0,0,
2026-04-10 20:55:00,METAR KHCR 102055Z AUTO 25011KT 10SM FEW130 SCT180 20/00 A2990 RMK AO2 LTG DSNT NE T02020003 56014 $,0,11,0,16090,0,0,0,DS
2026-04-10 20:35:00,METAR KHCR 102035Z AUTO 25010KT 10SM BKN180 20/00 A2990 RMK AO2 T02020002 $,0,10,0,16090,0,0,0,
2026-04-10 20:15:00,METAR KHCR 102015Z AUTO 25012KT 10SM FEW100 BKN160 21/00 A2991 RMK AO2 T02090001 $,0,12,0,16090,0,0,0,
2026-04-10 19:55:00,METAR KHCR 101955Z AUTO 24014KT 10SM SCT160 21/01 A2991 RMK AO2 T02140006 $,0,14,0,16090,0,0,0,
2026-04-10 19:35:00,METAR KHCR 101935Z AUTO 24012KT 10SM FEW220 20/M00 A2992 RMK AO2 T01961004 $,0,12,0,16090,0,0,0,
2026-04-10 19:15:00,METAR KHCR 101915Z AUTO 25012KT 10SM FEW150 21/00 A2992 RMK AO2 T02080004 $,0,12,0,16090,0,0,0,
2026-04-10 18:55:00,METAR KHCR 101855Z AUTO 23013KT 10SM FEW340 21/M00 A2994 RMK AO2 T02071004 $,0,13,0,16090,0,0,0,
2026-04-10 18:35:00,METAR KHCR 101835Z AUTO 25012KT 10SM FEW140 20/M00 A2994 RMK AO2 T02031002 $,0,12,0,16090,0,0,0,
2026-04-10 18:15:00,METAR KHCR 101815Z AUTO 23008KT 10SM CLR 19/M00 A2995 RMK AO2 T01911001 $,0,8,0,16090,0,0,0,
2026-04-10 17:55:00,METAR KHCR 101755Z AUTO 30003KT 10SM SCT140 SCT160 SCT360 17/02 A2995 RMK AO2 T01670023 10168 20019 56016 $,0,3,0,16090,0,0,0,
2026-04-10 17:35:00,METAR KHCR 101735Z AUTO 00000KT 10SM SCT130 17/03 A2996 RMK AO2 T01660032 $,0,0,0,16090,0,0,0,
2026-04-10 17:15:00,METAR KHCR 101715Z AUTO 00000KT 10SM SCT130 15/02 A2996 RMK AO2 T01550021 $,0,0,0,16090,0,0,0,
2026-04-10 16:55:00,METAR KHCR 101655Z AUTO 00000KT 10SM CLR 14/03 A2997 RMK AO2 T01440026 $,0,0,0,16090,0,0,0,
2026-04-10 16:35:00,METAR KHCR 101635Z AUTO 00000KT 10SM CLR 13/02 A2997 RMK AO2 T01300016 $,0,0,0,16090,0,0,0,
2026-04-10 16:15:00,METAR KHCR 101615Z AUTO 00000KT 10SM SCT130 12/03 A2998 RMK AO2 T01160030 $,0,0,0,16090,0,0,0,
2026-04-10 15:55:00,METAR KHCR 101555Z AUTO 00000KT 10SM FEW150 10/03 A2999 RMK AO2 T00990027 $,0,0,0,16090,0,0,0,
2026-04-10 15:35:00,METAR KHCR 101535Z AUTO 00000KT 10SM FEW150 SCT170 10/02 A3000 RMK AO2 T00970017 $,0,0,0,16090,0,0,0,
2026-04-10 15:15:00,METAR KHCR 101515Z AUTO 00000KT 10SM BKN170 09/02 A3000 RMK AO2 T00850025 $,0,0,0,16090,0,0,0,
2026-04-10 14:55:00,METAR KHCR 101455Z AUTO 00000KT 10SM CLR 07/03 A3001 RMK AO2 T00720028 53004 $,0,0,0,16090,0,0,0,
2026-04-10 14:35:00,METAR KHCR 101435Z AUTO 00000KT 9SM CLR 07/02 A3001 RMK AO2 T00660017 $,0,0,0,14481,0,0,0,
2026-04-10 14:15:00,METAR KHCR 101415Z AUTO 00000KT 9SM CLR 06/02 A3001 RMK AO2 T00590023 $,0,0,0,14481,0,0,0,
2026-04-10 13:55:00,METAR KHCR 101355Z AUTO 00000KT 8SM CLR 05/02 A3000 RMK AO2 T00520019 $,0,0,0,12872,0,0,0,
2026-04-10 13:35:00,METAR KHCR 101335Z AUTO 00000KT 9SM SCT110 05/01 A3000 RMK AO2 T00450011 $,0,0,0,14481,0,0,0,
2026-04-10 13:15:00,METAR KHCR 101315Z AUTO 00000KT 10SM BKN110 04/00 A3000 RMK AO2 T00390004 $,0,0,0,16090,0,0,0,
2026-04-10 12:55:00,METAR KHCR 101255Z AUTO 00000KT 9SM CLR 03/00 A3000 RMK AO2 T00290001 $,0,0,0,14481,0,0,0,
2026-04-10 12:35:00,METAR KHCR 101235Z AUTO 00000KT 10SM CLR 03/M00 A2999 RMK AO2 T00251002 $,0,0,0,16090,0,0,0,
2026-04-10 12:15:00,METAR KHCR 101215Z AUTO 11004KT 10SM CLR 03/00 A3000 RMK AO2 T00270001 $,0,4,0,16090,0,0,0,
2026-04-10 11:55:00,METAR KHCR 101155Z AUTO 00000KT 10SM CLR 02/M00 A2999 RMK AO2 T00221002 10070 20022 58001 $,0,0,0,16090,0,0,0,
2026-04-10 11:35:00,METAR KHCR 101135Z AUTO 00000KT 10SM CLR 04/00 A3000 RMK AO2 T00360003 $,0,0,0,16090,0,0,0,
2026-04-10 11:15:00,METAR KHCR 101115Z AUTO 00000KT 10SM FEW120 04/01 A3000 RMK AO2 T00440006 $,0,0,0,16090,0,0,0,
2026-04-10 10:55:00,METAR KHCR 101055Z AUTO 00000KT 10SM SCT120 03/00 A3000 RMK AO2 T00340004 $,0,0,0,16090,0,0,0,
2026-04-10 10:35:00,METAR KHCR 101035Z AUTO 00000KT 10SM FEW120 04/01 A3000 RMK AO2 T00350005 $,0,0,0,16090,0,0,0,
2026-04-10 10:15:00,METAR KHCR 101015Z AUTO 00000KT 10SM CLR 04/01 A3000 RMK AO2 T00380008 $,0,0,0,16090,0,0,0,
2026-04-10 09:55:00,METAR KHCR 100955Z AUTO 00000KT 10SM FEW180 05/00 A3000 RMK AO2 T00520003 $,0,0,0,16090,0,0,0,
2026-04-10 09:35:00,METAR KHCR 100935Z AUTO 00000KT 10SM FEW180 04/01 A3000 RMK AO2 T00400006 $,0,0,0,16090,0,0,0,
2026-04-10 09:15:00,METAR KHCR 100915Z AUTO 00000KT 10SM SCT110 03/01 A3000 RMK AO2 T00350006 $,0,0,0,16090,0,0,0,
2026-04-10 08:55:00,METAR KHCR 100855Z AUTO 00000KT 10SM OVC110 06/01 A3000 RMK AO2 T00570013 50001 $,0,0,0,16090,0,0,0,
2026-04-10 08:35:00,METAR KHCR 100835Z AUTO 00000KT 10SM BKN110 06/02 A3000 RMK AO2 T00580016 $,0,0,0,16090,0,0,0,
2026-04-10 08:15:00,METAR KHCR 100815Z AUTO 00000KT 10SM SCT120 05/02 A3000 RMK AO2 T00530019 $,0,0,0,16090,0,0,0,
2026-04-10 07:55:00,METAR KHCR 100755Z AUTO 00000KT 10SM OVC110 06/01 A3000 RMK AO2 T00590013 $,0,0,0,16090,0,0,0,
2026-04-10 07:35:00,METAR KHCR 100735Z AUTO 00000KT 10SM OVC110 05/01 A3001 RMK AO2 T00530013 $,0,0,0,16090,0,0,0,
2026-04-10 07:15:00,METAR KHCR 100715Z AUTO 00000KT 10SM BKN110 05/01 A3000 RMK AO2 T00500011 $,0,0,0,16090,0,0,0,
2026-04-10 06:55:00,METAR KHCR 100655Z AUTO 13003KT 10SM CLR 04/M00 A3000 RMK AO2 T00441000 402030042 $,0,3,0,16090,0,0,0,
2026-04-10 06:35:00,METAR KHCR 100635Z AUTO 00000KT 10SM CLR 05/M01 A3000 RMK AO2 T00541008 $,0,0,0,16090,0,0,0,
2026-04-10 06:15:00,METAR KHCR 100615Z AUTO 11004KT 10SM CLR 05/M00 A2999 RMK AO2 T00471004 $,0,4,0,16090,0,0,0,
2026-04-10 05:55:00,METAR KHCR 100555Z AUTO 00000KT 10SM CLR 06/M00 A3000 RMK AO2 T00571000 10191 20050 51009 $,0,0,0,16090,0,0,0,
2026-04-10 05:35:00,METAR KHCR 100535Z AUTO 00000KT 10SM CLR 06/M00 A2999 RMK AO2 T00581004 $,0,0,0,16090,0,0,0,
2026-04-10 05:15:00,METAR KHCR 100515Z AUTO 00000KT 10SM CLR 07/M00 A2999 RMK AO2 T00681002 $,0,0,0,16090,0,0,0,
2026-04-10 04:55:00,METAR KHCR 100455Z AUTO 00000KT 10SM FEW190 08/00 A2999 RMK AO2 T00790004 $,0,0,0,16090,0,0,0,
2026-04-10 04:35:00,METAR KHCR 100435Z AUTO 00000KT 10SM FEW190 09/00 A2999 RMK AO2 T00870003 $,0,0,0,16090,0,0,0,
2026-04-10 04:15:00,METAR KHCR 100415Z AUTO 12003KT 10SM FEW190 10/M00 A2999 RMK AO2 T00991001 $,0,3,0,16090,0,0,0,
2026-04-10 03:55:00,METAR KHCR 100355Z AUTO VRB03KT 10SM CLR 12/M01 A2998 RMK AO2 T01191007 $,0,3,0,16090,0,0,0,
2026-04-10 03:35:00,METAR KHCR 100335Z AUTO 14006KT 10SM CLR 12/M00 A2998 RMK AO2 T01181004 $,0,6,0,16090,0,0,0,
2026-04-10 03:15:00,METAR KHCR 100315Z AUTO 09006KT 10SM CLR 14/M01 A2997 RMK AO2 T01421014 $,0,6,0,16090,0,0,0,
2026-04-10 02:55:00,METAR KHCR 100255Z AUTO 08003KT 10SM CLR 14/M01 A2996 RMK AO2 T01401009 55002 $,0,3,0,16090,0,0,0,
2026-04-10 02:35:00,METAR KHCR 100235Z AUTO 00000KT 10SM CLR 13/M01 A2996 RMK AO2 T01351010 $,0,0,0,16090,0,0,0,
2026-04-10 02:15:00,METAR KHCR 100215Z AUTO 13004KT 9SM CLR 11/02 A2995 RMK AO2 T01120018 $,0,4,0,14481,0,0,0,
2026-04-10 01:55:00,METAR KHCR 100155Z AUTO 11004KT 9SM CLR 14/03 A2995 RMK AO2 T01370026 $,0,4,0,14481,0,0,0,
2026-04-10 01:35:00,METAR KHCR 100135Z AUTO 00000KT 9SM CLR 16/01 A2996 RMK AO2 T01570009 $,0,0,0,14481,0,0,0,
2026-04-10 01:15:00,METAR KHCR 100115Z AUTO 00000KT 10SM CLR 18/00 A2996 RMK AO2 T01770001 $,0,0,0,16090,0,0,0,
2026-04-10 00:55:00,METAR KHCR 100055Z AUTO 00000KT 10SM CLR 19/M02 A2996 RMK AO2 T01871015 $,0,0,0,16090,0,0,0,
2026-04-10 00:35:00,METAR KHCR 100035Z AUTO 21003KT 10SM CLR 19/M01 A2996 RMK AO2 T01871011 $,0,3,0,16090,0,0,0,
2026-04-10 00:15:00,METAR KHCR 100015Z AUTO 22006KT 10SM CLR 19/M02 A2996 RMK AO2 T01911025 $,0,6,0,16090,0,0,0,
2026-04-09 23:55:00,METAR KHCR 092355Z AUTO 25006KT 10SM FEW230 19/M01 A2997 RMK AO2 T01941011 10203 20175 56009 $,0,6,0,16090,0,0,0,
2026-04-09 23:35:00,METAR KHCR 092335Z AUTO 27006KT 10SM FEW230 20/01 A2997 RMK AO2 T01950006 $,0,6,0,16090,0,0,0,
2026-04-09 23:15:00,METAR KHCR 092315Z AUTO 30004KT 10SM CLR 19/01 A2997 RMK AO2 T01940007 $,0,4,0,16090,0,0,0,
2026-04-09 22:55:00,METAR KHCR 092255Z AUTO 35005KT 10SM CLR 19/01 A2997 RMK AO2 T01950009 $,0,5,0,16090,0,0,0,
2026-04-09 22:35:00,METAR KHCR 092235Z AUTO 33003KT 10SM CLR 20/01 A2997 RMK AO2 T01980006 $,0,3,0,16090,0,0,0,
2026-04-09 22:15:00,METAR KHCR 092215Z AUTO 35005KT 10SM SCT140 20/00 A2998 RMK AO2 T02020001 $,0,5,0,16090,0,0,0,
2026-04-09 21:55:00,METAR KHCR 092155Z AUTO 01003KT 10SM BKN140 19/00 A2998 RMK AO2 T01890004 $,0,3,0,16090,0,0,0,
2026-04-09 21:35:00,METAR KHCR 092135Z AUTO 35005KT 10SM BKN130 19/02 A2999 RMK AO2 T01870021 $,0,5,0,16090,0,0,0,
2026-04-09 21:15:00,METAR KHCR 092115Z AUTO 36006KT 10SM BKN130 19/01 A3000 RMK AO2 T01880008 $,0,6,0,16090,0,0,0,
2026-04-09 20:55:00,METAR KHCR 092055Z AUTO VRB04KT 10SM BKN130 19/00 A3000 RMK AO2 T01920001 58017 $,0,4,0,16090,0,0,0,
2026-04-09 20:35:00,METAR KHCR 092035Z AUTO 34005KT 10SM BKN130 19/00 A3001 RMK AO2 T01930003 $,0,5,0,16090,0,0,0,
2026-04-09 20:15:00,METAR KHCR 092015Z AUTO 29004KT 10SM BKN130 19/M00 A3001 RMK AO2 T01901003 $,0,4,0,16090,0,0,0,
2026-04-09 19:55:00,METAR KHCR 091955Z AUTO VRB03KT 10SM SCT110 SCT140 19/00 A3002 RMK AO2 T01930000 $,0,3,0,16090,0,0,0,
2026-04-09 19:35:00,METAR KHCR 091935Z AUTO VRB03KT 10SM BKN110 19/00 A3003 RMK AO2 T01870004 $,0,3,0,16090,0,0,0,
2026-04-09 19:15:00,METAR KHCR 091915Z AUTO 01004KT 10SM SCT110 18/M00 A3004 RMK AO2 T01781002 $,0,4,0,16090,0,0,0,
2026-04-09 18:55:00,METAR KHCR 091855Z AUTO 35006KT 10SM SCT120 SCT140 18/01 A3005 RMK AO2 T01760006 $,0,6,0,16090,0,0,0,
2026-04-09 18:35:00,METAR KHCR 091835Z AUTO VRB03KT 10SM SCT130 18/01 A3005 RMK AO2 T01830010 $,0,3,0,16090,0,0,0,
2026-04-09 18:15:00,METAR KHCR 091815Z AUTO 00000KT 10SM FEW100 SCT130 18/00 A3006 RMK AO2 T01800001 $,0,0,0,16090,0,0,0,
2026-04-09 17:55:00,METAR KHCR 091755Z AUTO 03003KT 10SM CLR 17/01 A3006 RMK AO2 T01720014 10174 20053 58003 $,0,3,0,16090,0,0,0,
2026-04-09 17:35:00,METAR KHCR 091735Z AUTO 00000KT 10SM CLR 17/01 A3006 RMK AO2 T01730015 $,0,0,0,16090,0,0,0,
2026-04-09 17:15:00,METAR KHCR 091715Z AUTO VRB03KT 10SM SCT120 16/03 A3007 RMK AO2 T01620027 $,0,3,0,16090,0,0,0,
2026-04-09 16:55:00,METAR KHCR 091655Z AUTO 00000KT 10SM SCT120 14/02 A3007 RMK AO2 T01380019 $,0,0,0,16090,0,0,0,
2026-04-09 16:35:00,METAR KHCR 091635Z AUTO 00000KT 10SM FEW130 SCT150 13/03 A3007 RMK AO2 T01280025 $,0,0,0,16090,0,0,0,
2026-04-09 16:15:00,METAR KHCR 091615Z AUTO 15004KT 10SM FEW065 BKN150 12/02 A3008 RMK AO2 T01150018 $,0,4,0,16090,0,0,0,
2026-04-09 15:55:00,METAR KHCR 091555Z AUTO 00000KT 10SM SCT070 OVC090 09/01 A3008 RMK AO2 T00940014 $,0,0,0,16090,0,0,0,
2026-04-09 15:35:00,METAR KHCR 091535Z AUTO 00000KT 10SM OVC090 09/03 A3008 RMK AO2 T00900030 $,0,0,0,16090,0,0,0,
2026-04-09 15:15:00,METAR KHCR 091515Z AUTO 00000KT 9SM OVC100 09/02 A3008 RMK AO2 T00900024 $,0,0,0,14481,0,0,0,
2026-04-09 14:55:00,METAR KHCR 091455Z AUTO 00000KT 10SM BKN110 OVC130 09/01 A3007 RMK AO2 T00910014 53013 $,0,0,0,16090,0,0,0,
2026-04-09 14:35:00,METAR KHCR 091435Z AUTO 00000KT 9SM BKN120 BKN150 08/02 A3007 RMK AO2 T00820020 $,0,0,0,14481,0,0,0,
2026-04-09 14:15:00,METAR KHCR 091415Z AUTO VRB03KT 10SM SCT100 BKN150 OVC170 07/02 A3006 RMK AO2 T00720018 $,0,3,0,16090,0,0,0,
2026-04-09 13:55:00,METAR KHCR 091355Z AUTO 00000KT 9SM BKN100 OVC180 06/02 A3004 RMK AO2 T00630021 $,0,0,0,14481,0,0,0,
2026-04-09 13:35:00,METAR KHCR 091335Z AUTO 00000KT 10SM BKN100 BKN180 06/01 A3004 RMK AO2 T00590014 $,0,0,0,16090,0,0,0,
2026-04-09 13:15:00,METAR KHCR 091315Z AUTO VRB05KT 9SM FEW100 06/01 A3003 RMK AO2 T00590009 $,0,5,0,14481,0,0,0,
2026-04-09 12:55:00,METAR KHCR 091255Z AUTO 00000KT 10SM CLR 07/M00 A3003 RMK AO2 T00671004 $,0,0,0,16090,0,0,0,
2026-04-09 12:35:00,METAR KHCR 091235Z AUTO 17004KT 10SM FEW100 06/00 A3003 RMK AO2 T00610005 $,0,4,0,16090,0,0,0,
2026-04-09 12:15:00,METAR KHCR 091215Z AUTO VRB03KT 10SM SCT090 BKN110 06/01 A3003 RMK AO2 T00620014 $,0,3,0,16090,0,0,0,
2026-04-09 11:55:00,METAR KHCR 091155Z AUTO 36006KT 10SM BKN085 OVC110 07/01 A3003 RMK AO2 T00700009 10075 20035 56002 $,0,6,0,16090,0,0,0,
2026-04-09 11:35:00,METAR KHCR 091135Z AUTO 34006KT 10SM FEW070 BKN090 OVC110 07/01 A3003 RMK AO2 T00710008 $,0,6,0,16090,0,0,0,
2026-04-09 11:15:00,METAR KHCR 091115Z AUTO 13007KT 10SM OVC095 06/01 A3003 RMK AO2 T00570014 $,0,7,0,16090,0,0,0,
2026-04-09 10:55:00,METAR KHCR 091055Z AUTO 00000KT 10SM OVC095 05/01 A3003 RMK AO2 T00480013 $,0,0,0,16090,0,0,0,
2026-04-09 10:35:00,METAR KHCR 091035Z AUTO 18003KT 10SM BKN095 OVC130 04/01 A3004 RMK AO2 T00440012 $,0,3,0,16090,0,0,0,
2026-04-09 10:15:00,METAR KHCR 091015Z AUTO 00000KT 10SM SCT095 05/01 A3003 RMK AO2 T00510008 $,0,0,0,16090,0,0,0,
2026-04-09 09:55:00,METAR KHCR 090955Z AUTO 00000KT 10SM FEW110 07/00 A3003 RMK AO2 T00660003 $,0,0,0,16090,0,0,0,
2026-04-09 09:35:00,METAR KHCR 090935Z AUTO 11004KT 10SM BKN110 BKN150 07/01 A3003 RMK AO2 T00670009 $,0,4,0,16090,0,0,0,
2026-04-09 09:15:00,METAR KHCR 090915Z AUTO 00000KT 10SM BKN095 BKN150 05/02 A3004 RMK AO2 T00540016 $,0,0,0,16090,0,0,0,
2026-04-09 08:55:00,METAR KHCR 090855Z AUTO 00000KT 10SM OVC100 06/01 A3003 RMK AO2 T00630010 51005 $,0,0,0,16090,0,0,0,
2026-04-09 08:35:00,METAR KHCR 090835Z AUTO 00000KT 10SM OVC100 06/01 A3003 RMK AO2 T00640010 $,0,0,0,16090,0,0,0,
2026-04-09 08:15:00,METAR KHCR 090815Z AUTO 00000KT 10SM OVC110 06/01 A3003 RMK AO2 T00610011 $,0,0,0,16090,0,0,0,
2026-04-09 07:55:00,METAR KHCR 090755Z AUTO 00000KT 10SM BKN120 05/02 A3003 RMK AO2 T00520019 $,0,0,0,16090,0,0,0,
2026-04-09 07:35:00,METAR KHCR 090735Z AUTO 00000KT 10SM BKN120 07/00 A3003 RMK AO2 T00650002 $,0,0,0,16090,0,0,0,
2026-04-09 07:15:00,METAR KHCR 090715Z AUTO 00000KT 10SM BKN110 BKN130 04/01 A3004 RMK AO2 T00440007 $,0,0,0,16090,0,0,0,
2026-04-09 06:55:00,METAR KHCR 090655Z AUTO 00000KT 10SM FEW100 SCT180 05/M01 A3003 RMK AO2 T00521013 401981021 $,0,0,0,16090,0,0,0,
2026-04-09 06:35:00,METAR KHCR 090635Z AUTO 00000KT 10SM CLR 06/M01 A3003 RMK AO2 T00571009 $,0,0,0,16090,0,0,0,
2026-04-09 06:15:00,METAR KHCR 090615Z AUTO 00000KT 10SM CLR 04/M01 A3002 RMK AO2 T00371008 $,0,0,0,16090,0,0,0,
2026-04-09 05:55:00,METAR KHCR 090555Z AUTO 00000KT 10SM FEW110 06/M00 A3002 RMK AO2 T00621004 10191 20039 51010 $,0,0,0,16090,0,0,0,
2026-04-09 05:35:00,METAR KHCR 090535Z AUTO 13006KT 10SM CLR 05/M00 A3001 RMK AO2 T00461003 $,0,6,0,16090,0,0,0,
2026-04-09 05:15:00,METAR KHCR 090515Z AUTO 00000KT 10SM CLR 05/M01 A3001 RMK AO2 T00471005 $,0,0,0,16090,0,0,0,
2026-04-09 04:55:00,METAR KHCR 090455Z AUTO 13004KT 10SM CLR 07/M01 A3001 RMK AO2 T00681011 $,0,4,0,16090,0,0,0,
2026-04-09 04:35:00,METAR KHCR 090435Z AUTO 10003KT 10SM CLR 08/M01 A3001 RMK AO2 T00811009 $,0,3,0,16090,0,0,0,
2026-04-09 04:15:00,METAR KHCR 090415Z AUTO 11005KT 10SM CLR 08/M01 A3000 RMK AO2 T00831007 $,0,5,0,16090,0,0,0,
2026-04-09 03:55:00,METAR KHCR 090355Z AUTO 12007KT 10SM CLR 09/M01 A3000 RMK AO2 T00861008 $,0,7,0,16090,0,0,0,
2026-04-09 03:35:00,METAR KHCR 090335Z AUTO 11007KT 10SM CLR 09/M01 A3000 RMK AO2 T00891006 $,0,7,0,16090,0,0,0,
2026-04-09 03:15:00,METAR KHCR 090315Z AUTO 12006KT 10SM CLR 10/M01 A2999 RMK AO2 T01001007 $,0,6,0,16090,0,0,0,
2026-04-09 02:55:00,METAR KHCR 090255Z AUTO 00000KT 10SM CLR 08/01 A2998 RMK AO2 T00830005 55001 $,0,0,0,16090,0,0,0,
2026-04-09 02:35:00,METAR KHCR 090235Z AUTO 00000KT 10SM CLR 12/M00 A2998 RMK AO2 T01191003 $,0,0,0,16090,0,0,0,
2026-04-09 02:15:00,METAR KHCR 090215Z AUTO 00000KT 9SM CLR 15/M02 A2998 RMK AO2 T01451017 $,0,0,0,14481,0,0,0,
2026-04-09 01:55:00,METAR KHCR 090155Z AUTO 30003KT 10SM CLR 15/00 A2998 RMK AO2 T01460002 $,0,3,0,16090,0,0,0,
2026-04-09 01:35:00,METAR KHCR 090135Z AUTO 24007KT 10SM CLR 15/M00 A2998 RMK AO2 T01551002 $,0,7,0,16090,0,0,0,
2026-04-09 01:15:00,METAR KHCR 090115Z AUTO 24006KT 9SM CLR 17/M00 A2998 RMK AO2 T01691003 $,0,6,0,14481,0,0,0,
2026-04-09 00:55:00,METAR KHCR 090055Z AUTO 25008KT 10SM CLR 18/01 A2998 RMK AO2 T01780011 $,0,8,0,16090,0,0,0,
2026-04-09 00:35:00,METAR KHCR 090035Z AUTO 23006KT 10SM CLR 19/M01 A2998 RMK AO2 T01861009 $,0,6,0,16090,0,0,0,
2026-04-09 00:15:00,METAR KHCR 090015Z AUTO 23006KT 10SM CLR 19/M02 A2998 RMK AO2 T01901018 $,0,6,0,16090,0,0,0,
2026-04-08 23:55:00,METAR KHCR 082355Z AUTO 26006KT 10SM CLR 19/M01 A2998 RMK AO2 T01921009 10198 20157 56010 $,0,6,0,16090,0,0,0,
2026-04-08 23:35:00,METAR KHCR 082335Z AUTO 23005KT 10SM CLR 19/M01 A2999 RMK AO2 T01941012 $,0,5,0,16090,0,0,0,
2026-04-08 23:15:00,METAR KHCR 082315Z AUTO VRB03KT 10SM CLR 19/M02 A2999 RMK AO2 T01901021 $,0,3,0,16090,0,0,0,
2026-04-08 22:55:00,METAR KHCR 082255Z AUTO 22007KT 190V250 10SM CLR 19/M00 A2999 RMK AO2 T01931005 $,0,7,0,16090,0,0,0,
2026-04-08 22:35:00,METAR KHCR 082235Z AUTO 22006KT 10SM CLR 19/M01 A2999 RMK AO2 T01951009 $,0,6,0,16090,0,0,0,
2026-04-08 22:15:00,METAR KHCR 082215Z AUTO 20007KT 10SM CLR 19/M01 A3000 RMK AO2 T01921010 $,0,7,0,16090,0,0,0,
2026-04-08 21:55:00,METAR KHCR 082155Z AUTO 21008KT 10SM CLR 19/M01 A3001 RMK AO2 T01911007 $,0,8,0,16090,0,0,0,
2026-04-08 21:35:00,METAR KHCR 082135Z AUTO 25012G16KT 10SM CLR 20/M00 A3001 RMK AO2 T01951003 $,0,12,1,16090,0,0,0,
2026-04-08 21:15:00,METAR KHCR 082115Z AUTO 24009KT 10SM CLR 19/M01 A3001 RMK AO2 T01921006 $,0,9,0,16090,0,0,0,
2026-04-08 20:55:00,METAR KHCR 082055Z AUTO 22009KT 10SM CLR 19/M00 A3002 RMK AO2 T01931002 57010 $,0,9,0,16090,0,0,0,
2026-04-08 20:35:00,METAR KHCR 082035Z AUTO 22009G17KT 10SM CLR 19/M01 A3002 RMK AO2 T01931006 $,0,9,1,16090,0,0,0,
2026-04-08 20:15:00,METAR KHCR 082015Z AUTO 26007KT 230V300 10SM CLR 19/M01 A3003 RMK AO2 T01901010 $,0,7,0,16090,0,0,0,
2026-04-08 19:55:00,METAR KHCR 081955Z AUTO 26009KT 10SM SCT085 19/M02 A3003 RMK AO2 T01861015 $,0,9,0,16090,0,0,0,
2026-04-08 19:35:00,METAR KHCR 081935Z AUTO 27012G16KT 10SM BKN085 19/M00 A3003 RMK AO2 T01871003 $,0,12,1,16090,0,0,0,
2026-04-08 19:15:00,METAR KHCR 081915Z AUTO 24003KT 10SM SCT090 19/M01 A3004 RMK AO2 T01871010 $,0,3,0,16090,0,0,0,
2026-04-08 18:55:00,METAR KHCR 081855Z AUTO 27006KT 10SM FEW090 17/M01 A3004 RMK AO2 T01751008 $,0,6,0,16090,0,0,0,
2026-04-08 18:35:00,METAR KHCR 081835Z AUTO 00000KT 10SM CLR 17/M00 A3005 RMK AO2 T01741002 $,0,0,0,16090,0,0,0,
2026-04-08 18:15:00,METAR KHCR 081815Z AUTO 00000KT 10SM CLR 17/00 A3005 RMK AO2 T01650000 $,0,0,0,16090,0,0,0,
2026-04-08 17:55:00,METAR KHCR 081755Z AUTO 00000KT 10SM FEW085 15/00 A3006 RMK AO2 T01510003 10151 21021 58003 $,0,0,0,16090,0,0,0,
2026-04-08 17:35:00,METAR KHCR 081735Z AUTO 00000KT 10SM CLR 14/00 A3006 RMK AO2 T01410002 $,0,0,0,16090,0,0,0,
2026-04-08 17:15:00,METAR KHCR 081715Z AUTO 00000KT 10SM FEW085 13/00 A3006 RMK AO2 T01260000 $,0,0,0,16090,0,0,0,
2026-04-08 16:55:00,METAR KHCR 081655Z AUTO 00000KT 10SM CLR 11/M01 A3006 RMK AO2 T01131013 $,0,0,0,16090,0,0,0,
2026-04-08 16:35:00,METAR KHCR 081635Z AUTO 00000KT 10SM CLR 11/M01 A3006 RMK AO2 T01061012 $,0,0,0,16090,0,0,0,
2026-04-08 16:15:00,METAR KHCR 081615Z AUTO 00000KT 10SM CLR 10/M03 A3006 RMK AO2 T00971028 $,0,0,0,16090,0,0,0,
2026-04-08 15:55:00,METAR KHCR 081555Z AUTO 00000KT 10SM CLR 08/M02 A3007 RMK AO2 T00821016 $,0,0,0,16090,0,0,0,
2026-04-08 15:35:00,METAR KHCR 081535Z AUTO 00000KT 10SM CLR 07/M01 A3007 RMK AO2 T00691011 $,0,0,0,16090,0,0,0,
2026-04-08 15:15:00,METAR KHCR 081515Z AUTO 28003KT 10SM CLR 06/M01 A3007 RMK AO2 T00651007 $,0,3,0,16090,0,0,0,
2026-04-08 14:55:00,METAR KHCR 081455Z AUTO 00000KT 10SM CLR 05/M00 A3006 RMK AO2 T00491000 53013 $,0,0,0,16090,0,0,0,
2026-04-08 14:35:00,METAR KHCR 081435Z AUTO 00000KT 10SM CLR 04/00 A3006 RMK AO2 T00420003 $,0,0,0,16090,0,0,0,
2026-04-08 14:15:00,METAR KHCR 081415Z AUTO 00000KT 9SM CLR 04/M02 A3006 RMK AO2 T00381016 $,0,0,0,14481,0,0,0,
2026-04-08 13:55:00,METAR KHCR 081355Z AUTO 00000KT 10SM CLR 03/M02 A3005 RMK AO2 T00261023 $,0,0,0,16090,0,0,0,
2026-04-08 13:35:00,METAR KHCR 081335Z AUTO 00000KT 9SM CLR M00/M03 A3005 RMK AO2 T10011032 $,0,0,0,14481,0,0,0,
2026-04-08 13:15:00,METAR KHCR 081315Z AUTO 11004KT 9SM CLR M01/M04 A3004 RMK AO2 T10101036 $,0,4,0,14481,0,0,0,
2026-04-08 12:55:00,METAR KHCR 081255Z AUTO 00000KT 9SM CLR M01/M04 A3003 RMK AO2 T10101038 $,0,0,0,14481,0,0,0,
2026-04-08 12:35:00,METAR KHCR 081235Z AUTO 00000KT 10SM CLR M01/M04 A3003 RMK AO2 T10081036 $,0,0,0,16090,0,0,0,
2026-04-08 12:15:00,METAR KHCR 081215Z AUTO 00000KT 10SM CLR M01/M04 A3003 RMK AO2 T10121037 $,0,0,0,16090,0,0,0,
2026-04-08 11:55:00,METAR KHCR 081155Z AUTO 00000KT 10SM CLR M01/M03 A3002 RMK AO2 T10061033 10050 21021 53004 $,0,0,0,16090,0,0,0,
2026-04-08 11:35:00,METAR KHCR 081135Z AUTO 00000KT 9SM CLR M01/M04 A3002 RMK AO2 T10131036 $,0,0,0,14481,0,0,0,
2026-04-08 11:15:00,METAR KHCR 081115Z AUTO 00000KT 10SM CLR M01/M04 A3001 RMK AO2 T10151040 $,0,0,0,16090,0,0,0,
2026-04-08 10:55:00,METAR KHCR 081055Z AUTO 00000KT 10SM CLR M01/M03 A3001 RMK AO2 T10061035 $,0,0,0,16090,0,0,0,
2026-04-08 10:35:00,METAR KHCR 081035Z AUTO 00000KT 10SM CLR M00/M03 A3001 RMK AO2 T10011032 $,0,0,0,16090,0,0,0,
2026-04-08 10:15:00,METAR KHCR 081015Z AUTO 00000KT 10SM CLR 01/M03 A3001 RMK AO2 T00091032 $,0,0,0,16090,0,0,0,
2026-04-08 09:55:00,METAR KHCR 080955Z AUTO 13005KT 10SM CLR 01/M03 A3001 RMK AO2 T00061033 $,0,5,0,16090,0,0,0,
2026-04-08 09:35:00,METAR KHCR 080935Z AUTO 11004KT 10SM CLR M00/M04 A3001 RMK AO2 T10051035 $,0,4,0,16090,0,0,0,
2026-04-08 09:15:00,METAR KHCR 080915Z AUTO 00000KT 10SM CLR 02/M03 A3001 RMK AO2 T00171030 $,0,0,0,16090,0,0,0,
2026-04-08 08:55:00,METAR KHCR 080855Z AUTO 00000KT 10SM CLR 02/M03 A3001 RMK AO2 T00241027 52006 $,0,0,0,16090,0,0,0,
2026-04-08 08:35:00,METAR KHCR 080835Z AUTO 02004KT 10SM CLR 02/M03 A3000 RMK AO2 T00231030 $,0,4,0,16090,0,0,0,
2026-04-08 08:15:00,METAR KHCR 080815Z AUTO 12005KT 10SM CLR 02/M03 A3000 RMK AO2 T00151031 $,0,5,0,16090,0,0,0,
2026-04-08 07:55:00,METAR KHCR 080755Z AUTO 15003KT 10SM CLR 01/M03 A3000 RMK AO2 T00081030 $,0,3,0,16090,0,0,0,
2026-04-08 07:35:00,METAR KHCR 080735Z AUTO 17003KT 10SM CLR 02/M03 A2999 RMK AO2 T00191027 $,0,3,0,16090,0,0,0,
2026-04-08 07:15:00,METAR KHCR 080715Z AUTO 00000KT 10SM CLR 03/M03 A3000 RMK AO2 T00261029 $,0,0,0,16090,0,0,0,
2026-04-08 06:55:00,METAR KHCR 080655Z AUTO 00000KT 10SM CLR 01/M03 A2999 RMK AO2 T00141028 401951025 $,0,0,0,16090,0,0,0,
2026-04-08 06:35:00,METAR KHCR 080635Z AUTO 00000KT 10SM CLR 05/M03 A2999 RMK AO2 T00481029 $,0,0,0,16090,0,0,0,
2026-04-08 06:15:00,METAR KHCR 080615Z AUTO 19003KT 10SM CLR 02/M03 A2999 RMK AO2 T00201026 $,0,3,0,16090,0,0,0,
2026-04-08 05:55:00,METAR KHCR 080555Z AUTO 11003KT 10SM CLR 03/M03 A2998 RMK AO2 T00331032 10189 20031 51005 $,0,3,0,16090,0,0,0,
2026-04-08 05:35:00,METAR KHCR 080535Z AUTO 12004KT 10SM CLR 04/M03 A2998 RMK AO2 T00451034 $,0,4,0,16090,0,0,0,
2026-04-08 05:15:00,METAR KHCR 080515Z AUTO 13005KT 10SM CLR 04/M02 A2998 RMK AO2 T00431025 $,0,5,0,16090,0,0,0,
2026-04-08 04:55:00,METAR KHCR 080455Z AUTO 00000KT 10SM CLR 04/M03 A2998 RMK AO2 T00411029 $,0,0,0,16090,0,0,0,
2026-04-08 04:35:00,METAR KHCR 080435Z AUTO 00000KT 10SM CLR 06/M03 A2999 RMK AO2 T00631028 $,0,0,0,16090,0,0,0,
2026-04-08 04:15:00,METAR KHCR 080415Z AUTO 19005KT 10SM CLR 05/M03 A2998 RMK AO2 T00481029 $,0,5,0,16090,0,0,0,
2026-04-08 03:55:00,METAR KHCR 080355Z AUTO 00000KT 10SM CLR 06/M02 A2998 RMK AO2 T00561022 $,0,0,0,16090,0,0,0,
2026-04-08 03:35:00,METAR KHCR 080335Z AUTO 00000KT 10SM CLR 06/M02 A2998 RMK AO2 T00611025 $,0,0,0,16090,0,0,0,
2026-04-08 03:15:00,METAR KHCR 080315Z AUTO 00000KT 10SM CLR 08/M03 A2997 RMK AO2 T00801026 $,0,0,0,16090,0,0,0,
2026-04-08 02:55:00,METAR KHCR 080255Z AUTO 09003KT 10SM CLR 07/M02 A2997 RMK AO2 T00731018 53001 $,0,3,0,16090,0,0,0,
2026-04-08 02:35:00,METAR KHCR 080235Z AUTO 13004KT 10SM CLR 07/M01 A2996 RMK AO2 T00751014 $,0,4,0,16090,0,0,0,
2026-04-08 02:15:00,METAR KHCR 080215Z AUTO 17003KT 10SM CLR 12/M05 A2996 RMK AO2 T01241049 $,0,3,0,16090,0,0,0,
2026-04-08 01:55:00,METAR KHCR 080155Z AUTO 29005KT 10SM CLR 15/M06 A2996 RMK AO2 T01511059 $,0,5,0,16090,0,0,0,
2026-04-08 01:35:00,METAR KHCR 080135Z AUTO 29003KT 9SM CLR 16/M05 A2996 RMK AO2 T01561047 $,0,3,0,14481,0,0,0,
2026-04-08 01:15:00,METAR KHCR 080115Z AUTO 31005KT 9SM CLR 17/M03 A2996 RMK AO2 T01681031 $,0,5,0,14481,0,0,0,
2026-04-08 00:55:00,METAR KHCR 080055Z AUTO 32010KT 10SM FEW100 18/M04 A2996 RMK AO2 T01791040 $,0,10,0,16090,0,0,0,
2026-04-08 00:35:00,METAR KHCR 080035Z AUTO 31010KT 10SM SCT110 19/M04 A2996 RMK AO2 T01851041 $,0,10,0,16090,0,0,0,
2026-04-08 00:15:00,METAR KHCR 080015Z AUTO 30011G19KT 10SM BKN110 19/M04 A2997 RMK AO2 T01881040 $,0,11,1,16090,0,0,0,
2026-04-07 23:55:00,METAR KHCR 072355Z AUTO 32011KT 10SM BKN110 18/M03 A2996 RMK AO2 T01781031 10195 20145 56012 $,0,11,0,16090,0,0,0,
2026-04-07 23:35:00,METAR KHCR 072335Z AUTO 30007KT 260V330 10SM BKN110 19/M02 A2997 RMK AO2 T01851016 $,0,7,0,16090,0,0,0,
2026-04-07 23:15:00,METAR KHCR 072315Z AUTO 00000KT 10SM SCT110 18/M04 A2997 RMK AO2 T01801039 $,0,0,0,16090,0,0,0,
2026-04-07 22:55:00,METAR KHCR 072255Z AUTO 27007KT 10SM SCT110 18/M04 A2997 RMK AO2 T01791039 $,0,7,0,16090,0,0,0,
2026-04-07 22:35:00,METAR KHCR 072235Z AUTO VRB04KT 10SM BKN110 19/M04 A2997 RMK AO2 T01871043 $,0,4,0,16090,0,0,0,
2026-04-07 22:15:00,METAR KHCR 072215Z AUTO 29004KT 10SM OVC100 19/M03 A2998 RMK AO2 T01931029 $,0,4,0,16090,0,0,0,
2026-04-07 21:55:00,METAR KHCR 072155Z AUTO 33005KT 10SM OVC100 18/M01 A2998 RMK AO2 T01781012 $,0,5,0,16090,0,0,0,
2026-04-07 21:35:00,METAR KHCR 072135Z AUTO 31009KT 10SM BKN100 18/M03 A2999 RMK AO2 T01801026 $,0,9,0,16090,0,0,0,
2026-04-07 21:15:00,METAR KHCR 072115Z AUTO 31010KT 10SM BKN100 BKN120 18/M03 A3000 RMK AO2 T01761028 $,0,10,0,16090,0,0,0,
2026-04-07 20:55:00,METAR KHCR 072055Z AUTO 30006KT 10SM BKN110 18/M03 A3000 RMK AO2 T01791026 56015 $,0,6,0,16090,0,0,0,
2026-04-07 20:35:00,METAR KHCR 072035Z AUTO 31008G14KT 10SM BKN110 18/M03 A3001 RMK AO2 T01781031 $,0,8,1,16090,0,0,0,
2026-04-07 20:15:00,METAR KHCR 072015Z AUTO 33009KT 10SM SCT110 19/M04 A3001 RMK AO2 T01911036 $,0,9,0,16090,0,0,0,
2026-04-07 19:55:00,METAR KHCR 071955Z AUTO 00000KT 10SM CLR 19/M03 A3001 RMK AO2 T01931027 $,0,0,0,16090,0,0,0,
2026-04-07 19:35:00,METAR KHCR 071935Z AUTO VRB04KT 10SM CLR 19/M03 A3002 RMK AO2 T01931030 $,0,4,0,16090,0,0,0,
2026-04-07 19:15:00,METAR KHCR 071915Z AUTO 00000KT 10SM CLR 18/M05 A3002 RMK AO2 T01771049 $,0,0,0,16090,0,0,0,
2026-04-07 18:55:00,METAR KHCR 071855Z AUTO 00000KT 9SM CLR 18/M01 A3003 RMK AO2 T01771008 $,0,0,0,14481,0,0,0,
2026-04-07 18:35:00,METAR KHCR 071835Z AUTO 00000KT 10SM CLR 17/M00 A3004 RMK AO2 T01711003 $,0,0,0,16090,0,0,0,
2026-04-07 18:15:00,METAR KHCR 071815Z AUTO VRB05KT 10SM CLR 15/M00 A3005 RMK AO2 T01521002 $,0,5,0,16090,0,0,0,
2026-04-07 17:55:00,METAR KHCR 071755Z AUTO 00000KT 10SM CLR 14/M01 A3006 RMK AO2 T01391006 10139 21025 58011 $,0,0,0,16090,0,0,0,
2026-04-07 17:35:00,METAR KHCR 071735Z AUTO 00000KT 10SM CLR 13/M01 A3006 RMK AO2 T01311007 $,0,0,0,16090,0,0,0,
2026-04-07 17:15:00,METAR KHCR 071715Z AUTO 00000KT 10SM CLR 13/M01 A3007 RMK AO2 T01281011 $,0,0,0,16090,0,0,0,
2026-04-07 16:55:00,METAR KHCR 071655Z AUTO 00000KT 10SM CLR 11/M02 A3008 RMK AO2 T01141016 $,0,0,0,16090,0,0,0,
2026-04-07 16:35:00,METAR KHCR 071635Z AUTO 00000KT 10SM CLR 10/M01 A3008 RMK AO2 T01021012 $,0,0,0,16090,0,0,0,
2026-04-07 16:15:00,METAR KHCR 071615Z AUTO 00000KT 10SM CLR 09/M02 A3009 RMK AO2 T00871016 $,0,0,0,16090,0,0,0,
2026-04-07 15:55:00,METAR KHCR 071555Z AUTO 00000KT 10SM CLR 07/M02 A3009 RMK AO2 T00691017 $,0,0,0,16090,0,0,0,
2026-04-07 15:35:00,METAR KHCR 071535Z AUTO 00000KT 10SM CLR 06/M02 A3009 RMK AO2 T00641018 $,0,0,0,16090,0,0,0,
2026-04-07 15:15:00,METAR KHCR 071515Z AUTO 00000KT 10SM CLR 06/M02 A3009 RMK AO2 T00561021 $,0,0,0,16090,0,0,0,
2026-04-07 14:55:00,METAR KHCR 071455Z AUTO 00000KT 10SM CLR 05/M02 A3010 RMK AO2 T00471016 52007 $,0,0,0,16090,0,0,0,
2026-04-07 14:35:00,METAR KHCR 071435Z AUTO 00000KT 10SM CLR 04/M01 A3009 RMK AO2 T00431013 $,0,0,0,16090,0,0,0,
2026-04-07 14:15:00,METAR KHCR 071415Z AUTO 00000KT 10SM CLR 03/M02 A3010 RMK AO2 T00341016 $,0,0,0,16090,0,0,0,
2026-04-07 13:55:00,METAR KHCR 071355Z AUTO 00000KT 10SM CLR 02/M02 A3009 RMK AO2 T00231024 $,0,0,0,16090,0,0,0,
2026-04-07 13:35:00,METAR KHCR 071335Z AUTO 00000KT 9SM CLR 01/M03 A3009 RMK AO2 T00081027 $,0,0,0,14481,0,0,0,
2026-04-07 13:15:00,METAR KHCR 071315Z AUTO 00000KT 10SM CLR M01/M04 A3009 RMK AO2 T10121039 $,0,0,0,16090,0,0,0,
2026-04-07 12:55:00,METAR KHCR 071255Z AUTO 00000KT 9SM CLR M01/M04 A3008 RMK AO2 T10151041 $,0,0,0,14481,0,0,0,
2026-04-07 12:35:00,METAR KHCR 071235Z AUTO 00000KT 10SM CLR M02/M04 A3008 RMK AO2 T10171041 $,0,0,0,16090,0,0,0,
2026-04-07 12:15:00,METAR KHCR 071215Z AUTO 00000KT 10SM CLR M01/M04 A3008 RMK AO2 T10071037 $,0,0,0,16090,0,0,0,
2026-04-07 11:55:00,METAR KHCR 071155Z AUTO 13003KT 10SM CLR M00/M04 A3007 RMK AO2 T10051038 10070 21012 50002 $,0,3,0,16090,0,0,0,
2026-04-07 11:35:00,METAR KHCR 071135Z AUTO 12003KT 10SM CLR M01/M04 A3007 RMK AO2 T10101035 $,0,3,0,16090,0,0,0,
2026-04-07 11:15:00,METAR KHCR 071115Z AUTO 00000KT 10SM CLR M01/M03 A3008 RMK AO2 T10081034 $,0,0,0,16090,0,0,0,
2026-04-07 10:55:00,METAR KHCR 071055Z AUTO 00000KT 10SM CLR 02/M03 A3007 RMK AO2 T00211035 $,0,0,0,16090,0,0,0,
2026-04-07 10:35:00,METAR KHCR 071035Z AUTO 00000KT 10SM CLR 02/M03 A3007 RMK AO2 T00191029 $,0,0,0,16090,0,0,0,
2026-04-07 10:15:00,METAR KHCR 071015Z AUTO 00000KT 10SM CLR 03/M04 A3007 RMK AO2 T00251038 $,0,0,0,16090,0,0,0,
2026-04-07 09:55:00,METAR KHCR 070955Z AUTO 13004KT 10SM CLR 02/M04 A3007 RMK AO2 T00211039 $,0,4,0,16090,0,0,0,
2026-04-07 09:35:00,METAR KHCR 070935Z AUTO 10004KT 10SM CLR 02/M03 A3007 RMK AO2 T00251034 $,0,4,0,16090,0,0,0,
2026-04-07 09:15:00,METAR KHCR 070915Z AUTO 11006KT 10SM CLR 02/M03 A3007 RMK AO2 T00201032 $,0,6,0,16090,0,0,0,
2026-04-07 08:55:00,METAR KHCR 070855Z AUTO 14005KT 10SM CLR 02/M03 A3007 RMK AO2 T00171035 51006 $,0,5,0,16090,0,0,0,
2026-04-07 08:35:00,METAR KHCR 070835Z AUTO 12004KT 10SM CLR 02/M03 A3007 RMK AO2 T00221033 $,0,4,0,16090,0,0,0,
2026-04-07 08:15:00,METAR KHCR 070815Z AUTO 13005KT 10SM CLR 03/M03 A3006 RMK AO2 T00321028 $,0,5,0,16090,0,0,0,
2026-04-07 07:55:00,METAR KHCR 070755Z AUTO 12005KT 10SM CLR 03/M03 A3007 RMK AO2 T00271028 $,0,5,0,16090,0,0,0,
2026-04-07 07:35:00,METAR KHCR 070735Z AUTO 12005KT 10SM CLR 03/M03 A3006 RMK AO2 T00251026 $,0,5,0,16090,0,0,0,
2026-04-07 07:15:00,METAR KHCR 070715Z AUTO 13005KT 10SM CLR 02/M02 A3006 RMK AO2 T00221024 $,0,5,0,16090,0,0,0,
2026-04-07 06:55:00,METAR KHCR 070655Z AUTO 00000KT 10SM CLR 05/M02 A3006 RMK AO2 T00471023 402111039 $,0,0,0,16090,0,0,0,
2026-04-07 06:35:00,METAR KHCR 070635Z AUTO 12004KT 10SM CLR 07/M02 A3005 RMK AO2 T00701024 $,0,4,0,16090,0,0,0,
2026-04-07 06:15:00,METAR KHCR 070615Z AUTO 00000KT 10SM CLR 06/M02 A3004 RMK AO2 T00561019 $,0,0,0,16090,0,0,0,
2026-04-07 05:55:00,METAR KHCR 070555Z AUTO 12004KT 10SM CLR 07/M02 A3004 RMK AO2 T00671024 10194 20055 51012 $,0,4,0,16090,0,0,0,
2026-04-07 05:35:00,METAR KHCR 070535Z AUTO 12006KT 10SM CLR 06/M02 A3004 RMK AO2 T00641022 $,0,6,0,16090,0,0,0,
2026-04-07 05:15:00,METAR KHCR 070515Z AUTO 13007KT 10SM CLR 06/M02 A3004 RMK AO2 T00571020 $,0,7,0,16090,0,0,0,
2026-04-07 04:55:00,METAR KHCR 070455Z AUTO 12004KT 10SM CLR 07/M02 A3003 RMK AO2 T00651019 $,0,4,0,16090,0,0,0,
2026-04-07 04:35:00,METAR KHCR 070435Z AUTO 00000KT 10SM CLR 10/M02 A3003 RMK AO2 T01001017 $,0,0,0,16090,0,0,0,
2026-04-07 04:15:00,METAR KHCR 070415Z AUTO 17004KT 10SM CLR 07/M01 A3003 RMK AO2 T00731014 $,0,4,0,16090,0,0,0,
2026-04-07 03:55:00,METAR KHCR 070355Z AUTO 12008KT 10SM CLR 08/M01 A3002 RMK AO2 T00771005 $,0,8,0,16090,0,0,0,
2026-04-07 03:35:00,METAR KHCR 070335Z AUTO 11007KT 10SM CLR 08/M01 A3002 RMK AO2 T00781009 $,0,7,0,16090,0,0,0,
2026-04-07 03:15:00,METAR KHCR 070315Z AUTO 12004KT 10SM CLR 09/M00 A3001 RMK AO2 T00861004 $,0,4,0,16090,0,0,0,
2026-04-07 02:55:00,METAR KHCR 070255Z AUTO 12004KT 10SM CLR 10/M01 A3000 RMK AO2 T01051010 55001 $,0,4,0,16090,0,0,0,
2026-04-07 02:35:00,METAR KHCR 070235Z AUTO 10003KT 10SM CLR 12/M02 A3000 RMK AO2 T01241016 $,0,3,0,16090,0,0,0,
2026-04-07 02:15:00,METAR KHCR 070215Z AUTO 00000KT 10SM CLR 15/M04 A3000 RMK AO2 T01551043 $,0,0,0,16090,0,0,0,
2026-04-07 01:55:00,METAR KHCR 070155Z AUTO 30003KT 10SM CLR 16/M03 A3000 RMK AO2 T01591032 $,0,3,0,16090,0,0,0,
2026-04-07 01:35:00,METAR KHCR 070135Z AUTO 00000KT 10SM CLR 16/M02 A3000 RMK AO2 T01641023 $,0,0,0,16090,0,0,0,
2026-04-07 01:15:00,METAR KHCR 070115Z AUTO 27005KT 10SM CLR 17/M00 A3000 RMK AO2 T01731002 $,0,5,0,16090,0,0,0,
2026-04-07 00:55:00,METAR KHCR 070055Z AUTO 21004KT 10SM CLR 19/M02 A3000 RMK AO2 T01901024 $,0,4,0,16090,0,0,0,
2026-04-07 00:35:00,METAR KHCR 070035Z AUTO 23004KT 10SM CLR 19/M03 A3000 RMK AO2 T01901031 $,0,4,0,16090,0,0,0,
2026-04-07 00:15:00,METAR KHCR 070015Z AUTO 28003KT 10SM CLR 19/M04 A3000 RMK AO2 T01881043 $,0,3,0,16090,0,0,0,
2026-04-06 23:55:00,METAR KHCR 062355Z AUTO 27008KT 10SM CLR 19/M02 A3000 RMK AO2 T01861018 10211 20142 56009 $,0,8,0,16090,0,0,0,
2026-04-06 23:35:00,METAR KHCR 062335Z AUTO 22006KT 10SM CLR 19/M03 A3001 RMK AO2 T01911034 $,0,6,0,16090,0,0,0,
2026-04-06 23:15:00,METAR KHCR 062315Z AUTO 23006KT 10SM CLR 19/M04 A3001 RMK AO2 T01931039 $,0,6,0,16090,0,0,0,
2026-04-06 22:55:00,METAR KHCR 062255Z AUTO 24009KT 10SM CLR 20/M05 A3001 RMK AO2 T01971051 $,0,9,0,16090,0,0,0,
2026-04-06 22:35:00,METAR KHCR 062235Z AUTO 20006KT 10SM FEW190 20/M07 A3002 RMK AO2 T02051066 $,0,6,0,16090,0,0,0,
2026-04-06 22:15:00,METAR KHCR 062215Z AUTO 22009KT 170V260 10SM SCT190 20/M05 A3002 RMK AO2 T01991046 $,0,9,0,16090,0,0,0,
2026-04-06 21:55:00,METAR KHCR 062155Z AUTO 00000KT 10SM CLR 20/M07 A3002 RMK AO2 T02041071 $,0,0,0,16090,0,0,0,
2026-04-06 21:35:00,METAR KHCR 062135Z AUTO 24011KT 10SM CLR 21/M06 A3003 RMK AO2 T02101057 $,0,11,0,16090,0,0,0,
2026-04-06 21:15:00,METAR KHCR 062115Z AUTO 20005KT 10SM CLR 21/M07 A3003 RMK AO2 T02061070 $,0,5,0,16090,0,0,0,
2026-04-06 20:55:00,METAR KHCR 062055Z AUTO 23007KT 200V270 10SM CLR 21/M07 A3004 RMK AO2 T02091070 56024 $,0,7,0,16090,0,0,0,
2026-04-06 20:35:00,METAR KHCR 062035Z AUTO 23011G15KT 10SM CLR 21/M06 A3004 RMK AO2 T02091062 $,0,11,1,16090,0,0,0,
2026-04-06 20:15:00,METAR KHCR 062015Z AUTO 22010KT 10SM FEW180 21/M08 A3005 RMK AO2 T02051076 $,0,10,0,16090,0,0,0,
2026-04-06 19:55:00,METAR KHCR 061955Z AUTO 23011KT 10SM CLR 21/M06 A3005 RMK AO2 T02081060 $,0,11,0,16090,0,0,0,
2026-04-06 19:35:00,METAR KHCR 061935Z AUTO 22009G17KT 10SM CLR 20/M06 A3006 RMK AO2 T02051061 $,0,9,1,16090,0,0,0,
2026-04-06 19:15:00,METAR KHCR 061915Z AUTO VRB04KT 10SM CLR 20/M05 A3007 RMK AO2 T01971055 $,0,4,0,16090,0,0,0,
2026-04-06 18:55:00,METAR KHCR 061855Z AUTO 00000KT 10SM CLR 17/01 A3008 RMK AO2 T01720008 $,0,0,0,16090,0,0,0,
2026-04-06 18:35:00,METAR KHCR 061835Z AUTO 00000KT 10SM CLR 17/00 A3009 RMK AO2 T01690003 $,0,0,0,16090,0,0,0,
2026-04-06 18:15:00,METAR KHCR 061815Z AUTO 00000KT 10SM CLR 15/M02 A3011 RMK AO2 T01511019 $,0,0,0,16090,0,0,0,
2026-04-06 17:55:00,METAR KHCR 061755Z AUTO 00000KT 10SM CLR 13/M00 A3012 RMK AO2 T01341001 10134 21039 58019 $,0,0,0,16090,0,0,0,
2026-04-06 17:35:00,METAR KHCR 061735Z AUTO 00000KT 10SM CLR 13/01 A3013 RMK AO2 T01250005 $,0,0,0,16090,0,0,0,
2026-04-06 17:15:00,METAR KHCR 061715Z AUTO 00000KT 10SM CLR 12/M01 A3014 RMK AO2 T01151015 $,0,0,0,16090,0,0,0,
2026-04-06 16:55:00,METAR KHCR 061655Z AUTO 00000KT 10SM CLR 10/00 A3015 RMK AO2 T01000001 $,0,0,0,16090,0,0,0,
2026-04-06 16:35:00,METAR KHCR 061635Z AUTO 00000KT 10SM CLR 09/M01 A3015 RMK AO2 T00941009 $,0,0,0,16090,0,0,0,
2026-04-06 16:15:00,METAR KHCR 061615Z AUTO 00000KT 10SM CLR 08/M01 A3016 RMK AO2 T00841014 $,0,0,0,16090,0,0,0,
2026-04-06 15:55:00,METAR KHCR 061555Z AUTO 00000KT 10SM CLR 07/M01 A3017 RMK AO2 T00701007 $,0,0,0,16090,0,0,0,
2026-04-06 15:35:00,METAR KHCR 061535Z AUTO 00000KT 10SM CLR 06/M00 A3017 RMK AO2 T00591001 $,0,0,0,16090,0,0,0,
2026-04-06 14:55:00,METAR KHCR 061455Z AUTO 00000KT 10SM CLR 04/M02 A3019 RMK AO2 T00391017 57001 $,0,0,0,16090,0,0,0,
2026-04-06 14:35:00,METAR KHCR 061435Z AUTO 00000KT 10SM CLR 03/M01 A3019 RMK AO2 T00311012 $,0,0,0,16090,0,0,0,
2026-04-06 14:15:00,METAR KHCR 061415Z AUTO 00000KT 10SM CLR 02/M02 A3019 RMK AO2 T00181017 $,0,0,0,16090,0,0,0,
2026-04-06 13:55:00,METAR KHCR 061355Z AUTO 00000KT 10SM CLR M01/M03 A3019 RMK AO2 T10061026 $,0,0,0,16090,0,0,0,
2026-04-06 13:35:00,METAR KHCR 061335Z AUTO 00000KT 9SM CLR M02/M04 A3019 RMK AO2 T10241043 $,0,0,0,14481,0,0,0,
2026-04-06 13:15:00,METAR KHCR 061315Z AUTO 00000KT 9SM CLR M03/M05 A3019 RMK AO2 T10281046 $,0,0,0,14481,0,0,0,
2026-04-06 12:55:00,METAR KHCR 061255Z AUTO 00000KT 10SM CLR M03/M05 A3019 RMK AO2 T10321050 $,0,0,0,16090,0,0,0,
2026-04-06 12:35:00,METAR KHCR 061235Z AUTO 00000KT 10SM CLR M03/M05 A3019 RMK AO2 T10331053 $,0,0,0,16090,0,0,0,
2026-04-06 12:15:00,METAR KHCR 061215Z AUTO 00000KT 10SM CLR M03/M05 A3019 RMK AO2 T10261047 $,0,0,0,16090,0,0,0,
2026-04-06 11:55:00,METAR KHCR 061155Z AUTO 00000KT 10SM CLR M01/M04 A3019 RMK AO2 T10061038 10062 21026 56004 $,0,0,0,16090,0,0,0,
2026-04-06 11:35:00,METAR KHCR 061135Z AUTO 13003KT 10SM CLR M02/M04 A3019 RMK AO2 T10171040 $,0,3,0,16090,0,0,0,
2026-04-06 11:15:00,METAR KHCR 061115Z AUTO 00000KT 10SM CLR M01/M04 A3020 RMK AO2 T10111040 $,0,0,0,16090,0,0,0,
2026-04-06 10:55:00,METAR KHCR 061055Z AUTO 00000KT 10SM CLR M02/M04 A3020 RMK AO2 T10231044 $,0,0,0,16090,0,0,0,
2026-04-06 10:35:00,METAR KHCR 061035Z AUTO 00000KT 10SM CLR M01/M04 A3020 RMK AO2 T10061037 $,0,0,0,16090,0,0,0,
2026-04-06 10:15:00,METAR KHCR 061015Z AUTO 00000KT 10SM CLR M01/M04 A3020 RMK AO2 T10121039 $,0,0,0,16090,0,0,0,
2026-04-06 09:55:00,METAR KHCR 060955Z AUTO 11003KT 10SM CLR M02/M04 A3020 RMK AO2 T10201038 $,0,3,0,16090,0,0,0,
2026-04-06 09:35:00,METAR KHCR 060935Z AUTO 00000KT 10SM CLR M01/M04 A3020 RMK AO2 T10101036 $,0,0,0,16090,0,0,0,
2026-04-06 09:15:00,METAR KHCR 060915Z AUTO 00000KT 10SM CLR 00/M03 A3020 RMK AO2 T00001033 $,0,0,0,16090,0,0,0,
2026-04-06 08:55:00,METAR KHCR 060855Z AUTO 00000KT 10SM CLR 01/M03 A3020 RMK AO2 T00151030 58001 $,0,0,0,16090,0,0,0,
2026-04-06 08:35:00,METAR KHCR 060835Z AUTO 00000KT 10SM CLR 01/M03 A3021 RMK AO2 T00101029 $,0,0,0,16090,0,0,0,
2026-04-06 08:15:00,METAR KHCR 060815Z AUTO 00000KT 10SM CLR 01/M03 A3021 RMK AO2 T00091031 $,0,0,0,16090,0,0,0,
2026-04-06 07:55:00,METAR KHCR 060755Z AUTO 14003KT 10SM CLR 00/M04 A3021 RMK AO2 T00001037 $,0,3,0,16090,0,0,0,
2026-04-06 07:35:00,METAR KHCR 060735Z AUTO 00000KT 10SM CLR 02/M03 A3021 RMK AO2 T00211028 $,0,0,0,16090,0,0,0,
2026-04-06 07:15:00,METAR KHCR 060715Z AUTO 00000KT 10SM CLR 03/M03 A3021 RMK AO2 T00341033 $,0,0,0,16090,0,0,0,
2026-04-06 06:55:00,METAR KHCR 060655Z AUTO 11003KT 10SM CLR 03/M03 A3021 RMK AO2 T00341025 401921045 $,0,3,0,16090,0,0,0,
2026-04-06 06:35:00,METAR KHCR 060635Z AUTO 13004KT 10SM CLR 03/M03 A3021 RMK AO2 T00261028 $,0,4,0,16090,0,0,0,
2026-04-06 06:15:00,METAR KHCR 060615Z AUTO 15003KT 10SM CLR 04/M03 A3021 RMK AO2 T00441030 $,0,3,0,16090,0,0,0,
2026-04-06 05:55:00,METAR KHCR 060555Z AUTO 13004KT 10SM CLR 04/M03 A3021 RMK AO2 T00421029 10183 20029 51007 $,0,4,0,16090,0,0,0,
2026-04-06 05:35:00,METAR KHCR 060535Z AUTO 15003KT 10SM CLR 04/M03 A3021 RMK AO2 T00361029 $,0,3,0,16090,0,0,0,
2026-04-06 05:15:00,METAR KHCR 060515Z AUTO 13004KT 10SM CLR 04/M03 A3021 RMK AO2 T00361028 $,0,4,0,16090,0,0,0,
2026-04-06 04:55:00,METAR KHCR 060455Z AUTO 00000KT 10SM CLR 05/M03 A3021 RMK AO2 T00531027 $,0,0,0,16090,0,0,0,
2026-04-06 04:35:00,METAR KHCR 060435Z AUTO 12006KT 10SM CLR 05/M03 A3021 RMK AO2 T00471029 $,0,6,0,16090,0,0,0,
2026-04-06 04:15:00,METAR KHCR 060415Z AUTO 12005KT 10SM CLR 04/M02 A3021 RMK AO2 T00441022 $,0,5,0,16090,0,0,0,
2026-04-06 03:55:00,METAR KHCR 060355Z AUTO 16003KT 10SM CLR 06/M03 A3021 RMK AO2 T00581027 $,0,3,0,16090,0,0,0,
2026-04-06 03:35:00,METAR KHCR 060335Z AUTO 00000KT 10SM CLR 08/M03 A3020 RMK AO2 T00841032 $,0,0,0,16090,0,0,0,
2026-04-06 03:15:00,METAR KHCR 060315Z AUTO 14005KT 10SM CLR 09/M02 A3019 RMK AO2 T00851024 $,0,5,0,16090,0,0,0,
2026-04-06 02:55:00,METAR KHCR 060255Z AUTO 11007KT 10SM CLR 10/M03 A3018 RMK AO2 T01011026 55000 $,0,7,0,16090,0,0,0,
2026-04-06 02:35:00,METAR KHCR 060235Z AUTO 05005KT 10SM CLR 12/M05 A3018 RMK AO2 T01171053 $,0,5,0,16090,0,0,0,
2026-04-06 02:15:00,METAR KHCR 060215Z AUTO 21005KT 9SM CLR 14/M08 A3017 RMK AO2 T01361080 $,0,5,0,14481,0,0,0,
2026-04-06 01:55:00,METAR KHCR 060155Z AUTO VRB05KT 9SM CLR 14/M08 A3017 RMK AO2 T01441076 $,0,5,0,14481,0,0,0,
2026-04-06 01:35:00,METAR KHCR 060135Z AUTO 22006KT 10SM CLR 15/M08 A3017 RMK AO2 T01501078 $,0,6,0,16090,0,0,0,
2026-04-06 01:15:00,METAR KHCR 060115Z AUTO 22006KT 10SM CLR 15/M06 A3017 RMK AO2 T01541061 $,0,6,0,16090,0,0,0,
2026-04-06 00:55:00,METAR KHCR 060055Z AUTO 22007KT 10SM CLR 16/M06 A3018 RMK AO2 T01651057 $,0,7,0,16090,0,0,0,
2026-04-06 00:35:00,METAR KHCR 060035Z AUTO 22006KT 10SM CLR 17/M05 A3018 RMK AO2 T01691053 $,0,6,0,16090,0,0,0,
2026-04-06 00:15:00,METAR KHCR 060015Z AUTO 22007KT 10SM CLR 18/M06 A3018 RMK AO2 T01761060 $,0,7,0,16090,0,0,0,
2026-04-05 23:55:00,METAR KHCR 052355Z AUTO 24007KT 10SM CLR 19/M07 A3019 RMK AO2 T01861074 10192 20106 56015 $,0,7,0,16090,0,0,0,
2026-04-05 23:35:00,METAR KHCR 052335Z AUTO 28005KT 10SM CLR 19/M10 A3019 RMK AO2 T01861095 $,0,5,0,16090,0,0,0,
2026-04-05 23:15:00,METAR KHCR 052315Z AUTO 23005KT 10SM CLR 19/M09 A3019 RMK AO2 T01891092 $,0,5,0,16090,0,0,0,
2026-04-05 22:55:00,METAR KHCR 052255Z AUTO 24009KT 10SM CLR 19/M07 A3020 RMK AO2 T01921065 $,0,9,0,16090,0,0,0,
2026-04-05 22:35:00,METAR KHCR 052235Z AUTO 23009KT 10SM CLR 19/M07 A3020 RMK AO2 T01901068 $,0,9,0,16090,0,0,0,
2026-04-05 22:15:00,METAR KHCR 052215Z AUTO 24009KT 10SM CLR 19/M06 A3020 RMK AO2 T01911063 $,0,9,0,16090,0,0,0,
2026-04-05 21:55:00,METAR KHCR 052155Z AUTO 25011KT 10SM CLR 19/M07 A3021 RMK AO2 T01891069 $,0,11,0,16090,0,0,0,
2026-04-05 21:35:00,METAR KHCR 052135Z AUTO VRB04KT 10SM CLR 19/M07 A3022 RMK AO2 T01881067 $,0,4,0,16090,0,0,0,
2026-04-05 21:15:00,METAR KHCR 052115Z AUTO 26006KT 10SM CLR 18/M07 A3023 RMK AO2 T01821073 $,0,6,0,16090,0,0,0,
2026-04-05 20:55:00,METAR KHCR 052055Z AUTO 28008KT 10SM CLR 18/M06 A3024 RMK AO2 T01781063 56027 $,0,8,0,16090,0,0,0,
2026-04-05 20:35:00,METAR KHCR 052035Z AUTO 27008KT 10SM CLR 18/M05 A3025 RMK AO2 T01781047 $,0,8,0,16090,0,0,0,
2026-04-05 20:15:00,METAR KHCR 052015Z AUTO VRB04KT 10SM CLR 17/M05 A3026 RMK AO2 T01681047 $,0,4,0,16090,0,0,0,
2026-04-05 19:55:00,METAR KHCR 051955Z AUTO VRB03KT 10SM CLR 16/M04 A3027 RMK AO2 T01591035 $,0,3,0,16090,0,0,0,
2026-04-05 19:35:00,METAR KHCR 051935Z AUTO 00000KT 10SM CLR 16/M02 A3028 RMK AO2 T01561022 $,0,0,0,16090,0,0,0,
2026-04-05 19:15:00,METAR KHCR 051915Z AUTO 28003KT 10SM CLR 15/M03 A3028 RMK AO2 T01481033 $,0,3,0,16090,0,0,0,
2026-04-05 18:55:00,METAR KHCR 051855Z AUTO 00000KT 10SM CLR 14/M01 A3030 RMK AO2 T01361006 $,0,0,0,16090,0,0,0,
2026-04-05 18:35:00,METAR KHCR 051835Z AUTO 00000KT 10SM CLR 13/M03 A3031 RMK AO2 T01251030 $,0,0,0,16090,0,0,0,
2026-04-05 18:15:00,METAR KHCR 051815Z AUTO 00000KT 10SM CLR 13/M03 A3032 RMK AO2 T01261031 $,0,0,0,16090,0,0,0,
2026-04-05 17:55:00,METAR KHCR 051755Z AUTO 00000KT 10SM CLR 10/M03 A3033 RMK AO2 T01021025 10102 21045 58016 $,0,0,0,16090,0,0,0,
2026-04-05 17:35:00,METAR KHCR 051735Z AUTO 00000KT 10SM CLR 09/M02 A3034 RMK AO2 T00941018 $,0,0,0,16090,0,0,0,
2026-04-05 17:15:00,METAR KHCR 051715Z AUTO 00000KT 10SM CLR 08/M02 A3034 RMK AO2 T00841018 $,0,0,0,16090,0,0,0,
2026-04-05 16:55:00,METAR KHCR 051655Z AUTO 00000KT 10SM CLR 08/M01 A3035 RMK AO2 T00761008 $,0,0,0,16090,0,0,0,
2026-04-05 16:35:00,METAR KHCR 051635Z AUTO 00000KT 10SM CLR 07/M01 A3036 RMK AO2 T00661009 $,0,0,0,16090,0,0,0,
2026-04-05 16:15:00,METAR KHCR 051615Z AUTO 00000KT 10SM CLR 05/M02 A3037 RMK AO2 T00471015 $,0,0,0,16090,0,0,0,
2026-04-05 15:55:00,METAR KHCR 051555Z AUTO 00000KT 10SM CLR 04/M02 A3037 RMK AO2 T00391023 $,0,0,0,16090,0,0,0,
2026-04-05 15:35:00,METAR KHCR 051535Z AUTO 00000KT 10SM CLR 03/M02 A3038 RMK AO2 T00321019 $,0,0,0,16090,0,0,0,
2026-04-05 15:15:00,METAR KHCR 051515Z AUTO 00000KT 10SM CLR 02/M02 A3039 RMK AO2 T00231017 $,0,0,0,16090,0,0,0,
2026-04-05 14:55:00,METAR KHCR 051455Z AUTO 00000KT 10SM CLR 01/M03 A3039 RMK AO2 T00121027 53006 $,0,0,0,16090,0,0,0,
2026-04-05 12:55:00,METAR KHCR 051255Z AUTO 14003KT 10SM CLR M04/M06 A3037 RMK AO2 T10411056 $,0,3,0,16090,0,0,0,
2026-04-05 12:35:00,METAR KHCR 051235Z AUTO 00000KT 10SM CLR M04/M06 A3037 RMK AO2 T10451059 $,0,0,0,16090,0,0,0,
2026-04-05 12:15:00,METAR KHCR 051215Z AUTO 00000KT 10SM CLR M04/M05 A3037 RMK AO2 T10381053 $,0,0,0,16090,0,0,0,
2026-04-05 11:55:00,METAR KHCR 051155Z AUTO 00000KT 10SM CLR M03/M05 A3037 RMK AO2 T10321045 10016 21037 58003 $,0,0,0,16090,0,0,0,
2026-04-05 11:35:00,METAR KHCR 051135Z AUTO 00000KT 10SM CLR M04/M05 A3037 RMK AO2 T10361050 $,0,0,0,16090,0,0,0,
2026-04-05 11:15:00,METAR KHCR 051115Z AUTO 00000KT 10SM CLR M03/M04 A3037 RMK AO2 T10271043 $,0,0,0,16090,0,0,0,
2026-04-05 10:55:00,METAR KHCR 051055Z AUTO 12003KT 10SM CLR M04/M05 A3037 RMK AO2 T10361049 $,0,3,0,16090,0,0,0,
2026-04-05 10:35:00,METAR KHCR 051035Z AUTO 00000KT 10SM CLR M02/M04 A3037 RMK AO2 T10201040 $,0,0,0,16090,0,0,0,
2026-04-05 10:15:00,METAR KHCR 051015Z AUTO 00000KT 10SM CLR M02/M04 A3037 RMK AO2 T10181040 $,0,0,0,16090,0,0,0,
2026-04-05 09:55:00,METAR KHCR 050955Z AUTO 13003KT 10SM CLR M02/M04 A3037 RMK AO2 T10211044 $,0,3,0,16090,0,0,0,
2026-04-05 09:35:00,METAR KHCR 050935Z AUTO 13004KT 10SM CLR M01/M04 A3038 RMK AO2 T10091040 $,0,4,0,16090,0,0,0,
2026-04-05 09:15:00,METAR KHCR 050915Z AUTO 12003KT 10SM CLR M01/M03 A3038 RMK AO2 T10081034 $,0,3,0,16090,0,0,0,
2026-04-05 08:55:00,METAR KHCR 050855Z AUTO 12004KT 10SM CLR M01/M04 A3038 RMK AO2 T10061035 53004 $,0,4,0,16090,0,0,0,
2026-04-05 08:35:00,METAR KHCR 050835Z AUTO 13003KT 10SM CLR M01/M03 A3038 RMK AO2 T10141032 $,0,3,0,16090,0,0,0,
2026-04-05 08:15:00,METAR KHCR 050815Z AUTO 00000KT 10SM CLR M02/M04 A3037 RMK AO2 T10191037 $,0,0,0,16090,0,0,0,
2026-04-05 07:55:00,METAR KHCR 050755Z AUTO 00000KT 10SM CLR M01/M03 A3037 RMK AO2 T10081030 $,0,0,0,16090,0,0,0,
2026-04-05 07:35:00,METAR KHCR 050735Z AUTO 11005KT 10SM CLR M01/M03 A3037 RMK AO2 T10141033 $,0,5,0,16090,0,0,0,
2026-04-05 07:15:00,METAR KHCR 050715Z AUTO 12003KT 10SM CLR M01/M03 A3037 RMK AO2 T10131032 $,0,3,0,16090,0,0,0,
2026-04-05 06:55:00,METAR KHCR 050655Z AUTO 00000KT 10SM CLR M01/M03 A3036 RMK AO2 T10121034 401431062 $,0,0,0,16090,0,0,0,
2026-04-05 06:35:00,METAR KHCR 050635Z AUTO 00000KT 10SM CLR M00/M03 A3037 RMK AO2 T10041030 $,0,0,0,16090,0,0,0,
2026-04-05 06:15:00,METAR KHCR 050615Z AUTO 00000KT 10SM CLR M00/M03 A3036 RMK AO2 T10011027 $,0,0,0,16090,0,0,0,
2026-04-05 05:55:00,METAR KHCR 050555Z AUTO 13003KT 10SM CLR 01/M02 A3036 RMK AO2 T00111024 10138 21000 51012 $,0,3,0,16090,0,0,0,
2026-04-05 05:35:00,METAR KHCR 050535Z AUTO 12004KT 10SM CLR 01/M02 A3036 RMK AO2 T00081021 $,0,4,0,16090,0,0,0,
2026-04-05 05:15:00,METAR KHCR 050515Z AUTO 14003KT 10SM CLR M00/M03 A3036 RMK AO2 T10001027 $,0,3,0,16090,0,0,0,
2026-04-05 04:55:00,METAR KHCR 050455Z AUTO 09004KT 10SM CLR 02/M02 A3036 RMK AO2 T00161020 $,0,4,0,16090,0,0,0,
2026-04-05 04:35:00,METAR KHCR 050435Z AUTO 00000KT 10SM CLR 03/M02 A3036 RMK AO2 T00291016 $,0,0,0,16090,0,0,0,
2026-04-05 04:15:00,METAR KHCR 050415Z AUTO 00000KT 10SM CLR 03/M01 A3035 RMK AO2 T00341015 $,0,0,0,16090,0,0,0,
2026-04-05 03:55:00,METAR KHCR 050355Z AUTO 12005KT 10SM CLR 04/M02 A3035 RMK AO2 T00361021 $,0,5,0,16090,0,0,0,
2026-04-05 03:35:00,METAR KHCR 050335Z AUTO 00000KT 10SM CLR 03/M01 A3034 RMK AO2 T00341013 $,0,0,0,16090,0,0,0,
2026-04-05 03:15:00,METAR KHCR 050315Z AUTO 10005KT 10SM CLR 05/M01 A3033 RMK AO2 T00451011 $,0,5,0,16090,0,0,0,
2026-04-05 02:55:00,METAR KHCR 050255Z AUTO 12005KT 10SM CLR 05/M02 A3032 RMK AO2 T00471016 53006 $,0,5,0,16090,0,0,0,
2026-04-05 02:35:00,METAR KHCR 050235Z AUTO 00000KT 10SM CLR 07/M03 A3031 RMK AO2 T00751025 $,0,0,0,16090,0,0,0,
2026-04-05 02:15:00,METAR KHCR 050215Z AUTO 00000KT 10SM CLR 10/M03 A3031 RMK AO2 T00951029 $,0,0,0,16090,0,0,0,
2026-04-05 01:55:00,METAR KHCR 050155Z AUTO 23006KT 9SM CLR 10/M02 A3030 RMK AO2 T01031021 $,0,6,0,14481,0,0,0,
2026-04-05 01:35:00,METAR KHCR 050135Z AUTO 26008KT 9SM CLR 10/M01 A3030 RMK AO2 T01041012 $,0,8,0,14481,0,0,0,
2026-04-05 01:15:00,METAR KHCR 050115Z AUTO 24009KT 10SM CLR 12/M02 A3030 RMK AO2 T01201023 $,0,9,0,16090,0,0,0,
2026-04-05 00:55:00,METAR KHCR 050055Z AUTO 24007KT 10SM CLR 13/M03 A3030 RMK AO2 T01301033 $,0,7,0,16090,0,0,0,
2026-04-05 00:35:00,METAR KHCR 050035Z AUTO 26007KT 10SM CLR 14/M04 A3029 RMK AO2 T01361039 $,0,7,0,16090,0,0,0,
2026-04-05 00:15:00,METAR KHCR 050015Z AUTO 26007KT 10SM CLR 14/M04 A3029 RMK AO2 T01361045 $,0,7,0,16090,0,0,0,
2026-04-04 23:55:00,METAR KHCR 042355Z AUTO VRB05KT 10SM CLR 14/M05 A3030 RMK AO2 T01381053 10143 20068 56016 $,0,5,0,16090,0,0,0,
2026-04-04 23:35:00,METAR KHCR 042335Z AUTO VRB03KT 10SM CLR 14/M05 A3030 RMK AO2 T01421053 $,0,3,0,16090,0,0,0,
2026-04-04 23:15:00,METAR KHCR 042315Z AUTO 00000KT 10SM CLR 14/M07 A3030 RMK AO2 T01381068 $,0,0,0,16090,0,0,0,
2026-04-04 22:55:00,METAR KHCR 042255Z AUTO VRB04KT 10SM CLR 14/M06 A3031 RMK AO2 T01381062 $,0,4,0,16090,0,0,0,
2026-04-04 22:35:00,METAR KHCR 042235Z AUTO 22004KT 10SM CLR 14/M06 A3031 RMK AO2 T01391057 $,0,4,0,16090,0,0,0,
2026-04-04 22:15:00,METAR KHCR 042215Z AUTO 00000KT 10SM CLR 14/M05 A3032 RMK AO2 T01371053 $,0,0,0,16090,0,0,0,
2026-04-04 21:55:00,METAR KHCR 042155Z AUTO 18003KT 10SM CLR 13/M06 A3032 RMK AO2 T01311059 $,0,3,0,16090,0,0,0,
2026-04-04 21:35:00,METAR KHCR 042135Z AUTO 00000KT 10SM CLR 13/M06 A3033 RMK AO2 T01321057 $,0,0,0,16090,0,0,0,
2026-04-04 21:15:00,METAR KHCR 042115Z AUTO 00000KT 10SM CLR 12/M06 A3034 RMK AO2 T01241056 $,0,0,0,16090,0,0,0,
2026-04-04 20:55:00,METAR KHCR 042055Z AUTO VRB03KT 10SM CLR 12/M05 A3036 RMK AO2 T01241048 56019 $,0,3,0,16090,0,0,0,
2026-04-04 20:35:00,METAR KHCR 042035Z AUTO 13003KT 10SM CLR 13/M05 A3036 RMK AO2 T01261045 $,0,3,0,16090,0,0,0,
2026-04-04 20:15:00,METAR KHCR 042015Z AUTO 00000KT 10SM CLR 11/M06 A3037 RMK AO2 T01141059 $,0,0,0,16090,0,0,0,
2026-04-04 19:55:00,METAR KHCR 041955Z AUTO 03004KT 10SM CLR 10/M06 A3037 RMK AO2 T01051061 $,0,4,0,16090,0,0,0,
2026-04-04 19:35:00,METAR KHCR 041935Z AUTO VRB03KT 10SM CLR 10/M07 A3038 RMK AO2 T01011067 $,0,3,0,16090,0,0,0,
2026-04-04 19:15:00,METAR KHCR 041915Z AUTO 00000KT 10SM CLR 09/M07 A3038 RMK AO2 T00931070 $,0,0,0,16090,0,0,0,
2026-04-04 18:55:00,METAR KHCR 041855Z AUTO 00000KT 10SM CLR 09/M04 A3040 RMK AO2 T00891041 $,0,0,0,16090,0,0,0,
2026-04-04 18:35:00,METAR KHCR 041835Z AUTO 00000KT 10SM CLR 08/M04 A3040 RMK AO2 T00811040 $,0,0,0,16090,0,0,0,
2026-04-04 18:15:00,METAR KHCR 041815Z AUTO 00000KT 10SM CLR 07/M05 A3041 RMK AO2 T00731045 $,0,0,0,16090,0,0,0,
2026-04-04 17:55:00,METAR KHCR 041755Z AUTO 00000KT 10SM CLR 06/M03 A3042 RMK AO2 T00601032 10061 21062 58011 $,0,0,0,16090,0,0,0,
2026-04-04 17:35:00,METAR KHCR 041735Z AUTO 00000KT 10SM CLR 05/M04 A3043 RMK AO2 T00551040 $,0,0,0,16090,0,0,0,
2026-04-04 17:15:00,METAR KHCR 041715Z AUTO 00000KT 10SM CLR 04/M04 A3043 RMK AO2 T00421044 $,0,0,0,16090,0,0,0,
2026-04-04 16:55:00,METAR KHCR 041655Z AUTO 00000KT 10SM CLR 03/M05 A3044 RMK AO2 T00321052 $,0,0,0,16090,0,0,0,
2026-04-04 16:35:00,METAR KHCR 041635Z AUTO 00000KT 10SM CLR 03/M06 A3045 RMK AO2 T00301056 $,0,0,0,16090,0,0,0,
2026-04-04 16:15:00,METAR KHCR 041615Z AUTO 00000KT 10SM CLR 02/M04 A3045 RMK AO2 T00211043 $,0,0,0,16090,0,0,0,
2026-04-04 15:55:00,METAR KHCR 041555Z AUTO 00000KT 10SM CLR 01/M05 A3045 RMK AO2 T00051048 $,0,0,0,16090,0,0,0,
2026-04-04 15:35:00,METAR KHCR 041535Z AUTO 00000KT 10SM CLR M00/M05 A3045 RMK AO2 T10031050 $,0,0,0,16090,0,0,0,
2026-04-04 15:15:00,METAR KHCR 041515Z AUTO 00000KT 10SM CLR M01/M05 A3046 RMK AO2 T10091054 $,0,0,0,16090,0,0,0,
2026-04-04 14:55:00,METAR KHCR 041455Z AUTO 00000KT 10SM CLR M02/M05 A3046 RMK AO2 T10161054 51010 $,0,0,0,16090,0,0,0,
2026-04-04 14:35:00,METAR KHCR 041435Z AUTO 00000KT 10SM CLR M02/M06 A3046 RMK AO2 T10221057 $,0,0,0,16090,0,0,0,
2026-04-04 14:15:00,METAR KHCR 041415Z AUTO 00000KT 10SM CLR M03/M06 A3046 RMK AO2 T10261056 $,0,0,0,16090,0,0,0,
2026-04-04 13:55:00,METAR KHCR 041355Z AUTO 00000KT 10SM CLR M03/M06 A3045 RMK AO2 T10341060 $,0,0,0,16090,0,0,0,
2026-04-04 13:35:00,METAR KHCR 041335Z AUTO 15003KT 10SM CLR M05/M07 A3045 RMK AO2 T10501070 $,0,3,0,16090,0,0,0,
2026-04-04 13:15:00,METAR KHCR 041315Z AUTO 11003KT 10SM CLR M06/M08 A3044 RMK AO2 T10591076 $,0,3,0,16090,0,0,0,
2026-04-04 12:55:00,METAR KHCR 041255Z AUTO 00000KT 10SM CLR M05/M07 A3044 RMK AO2 T10521070 $,0,0,0,16090,0,0,0,
2026-04-04 12:35:00,METAR KHCR 041235Z AUTO 00000KT 10SM CLR M05/M07 A3043 RMK AO2 T10551070 $,0,0,0,16090,0,0,0,
2026-04-04 12:15:00,METAR KHCR 041215Z AUTO 00000KT 10SM CLR M04/M06 A3043 RMK AO2 T10401061 $,0,0,0,16090,0,0,0,
2026-04-04 11:55:00,METAR KHCR 041155Z AUTO 00000KT 10SM CLR M05/M07 A3043 RMK AO2 T10491070 11010 21059 51002 $,0,0,0,16090,0,0,0,
2026-04-04 11:35:00,METAR KHCR 041135Z AUTO 00000KT 10SM CLR M05/M07 A3043 RMK AO2 T10501069 $,0,0,0,16090,0,0,0,
2026-04-04 11:15:00,METAR KHCR 041115Z AUTO 14003KT 10SM CLR M05/M07 A3043 RMK AO2 T10541071 $,0,3,0,16090,0,0,0,
2026-04-04 10:55:00,METAR KHCR 041055Z AUTO 00000KT 10SM CLR M04/M06 A3043 RMK AO2 T10371061 $,0,0,0,16090,0,0,0,
2026-04-04 10:35:00,METAR KHCR 041035Z AUTO 12003KT 10SM CLR M04/M06 A3043 RMK AO2 T10411063 $,0,3,0,16090,0,0,0,
2026-04-04 10:15:00,METAR KHCR 041015Z AUTO 13003KT 10SM CLR M05/M07 A3043 RMK AO2 T10471067 $,0,3,0,16090,0,0,0,
2026-04-04 09:55:00,METAR KHCR 040955Z AUTO 00000KT 10SM CLR M03/M06 A3043 RMK AO2 T10341060 $,0,0,0,16090,0,0,0,
2026-04-04 09:35:00,METAR KHCR 040935Z AUTO 00000KT 10SM CLR M03/M06 A3043 RMK AO2 T10291058 $,0,0,0,16090,0,0,0,
2026-04-04 09:15:00,METAR KHCR 040915Z AUTO 00000KT 10SM CLR M04/M06 A3043 RMK AO2 T10371059 $,0,0,0,16090,0,0,0,
2026-04-04 08:55:00,METAR KHCR 040855Z AUTO 00000KT 10SM CLR M03/M06 A3042 RMK AO2 T10351059 51004 $,0,0,0,16090,0,0,0,
2026-04-04 08:35:00,METAR KHCR 040835Z AUTO 10005KT 10SM CLR M03/M05 A3042 RMK AO2 T10321054 $,0,5,0,16090,0,0,0,
2026-04-04 08:15:00,METAR KHCR 040815Z AUTO 12006KT 10SM CLR M03/M05 A3042 RMK AO2 T10331054 $,0,6,0,16090,0,0,0,
2026-04-04 07:55:00,METAR KHCR 040755Z AUTO 11005KT 10SM CLR M02/M05 A3042 RMK AO2 T10231050 $,0,5,0,16090,0,0,0,
2026-04-04 07:35:00,METAR KHCR 040735Z AUTO 11004KT 10SM CLR M02/M05 A3042 RMK AO2 T10231046 $,0,4,0,16090,0,0,0,
2026-04-04 07:15:00,METAR KHCR 040715Z AUTO 00000KT 10SM CLR M02/M05 A3042 RMK AO2 T10181047 $,0,0,0,16090,0,0,0,
2026-04-04 06:55:00,METAR KHCR 040655Z AUTO VRB03KT 10SM CLR M01/M04 A3041 RMK AO2 T10101040 400801075 $,0,3,0,16090,0,0,0,
2026-04-04 06:35:00,METAR KHCR 040635Z AUTO 12004KT 10SM CLR M02/M04 A3041 RMK AO2 T10181044 $,0,4,0,16090,0,0,0,
2026-04-04 06:15:00,METAR KHCR 040615Z AUTO 13004KT 10SM CLR M02/M04 A3041 RMK AO2 T10161042 $,0,4,0,16090,0,0,0,
2026-04-04 05:55:00,METAR KHCR 040555Z AUTO 11005KT 10SM CLR M02/M04 A3041 RMK AO2 T10181043 10076 21018 50011 $,0,5,0,16090,0,0,0,
2026-04-04 05:35:00,METAR KHCR 040535Z AUTO 10004KT 10SM FEW055 M01/M04 A3041 RMK AO2 T10101039 $,0,4,0,16090,0,0,0,
2026-04-04 05:15:00,METAR KHCR 040515Z AUTO 09004KT 10SM BKN055 01/M03 A3041 RMK AO2 T00051033 $,0,4,0,16090,0,0,0,
2026-04-04 04:55:00,METAR KHCR 040455Z AUTO 11006KT 10SM OVC055 01/M03 A3041 RMK AO2 T00131030 $,0,6,0,16090,0,0,0,
2026-04-04 04:35:00,METAR KHCR 040435Z AUTO 11007KT 10SM OVC050 01/M03 A3041 RMK AO2 T00111032 $,0,7,0,16090,0,0,0,
2026-04-04 04:15:00,METAR KHCR 040415Z AUTO 11006KT 10SM BKN055 01/M04 A3041 RMK AO2 T00121036 $,0,6,0,16090,0,0,0,
2026-04-04 03:55:00,METAR KHCR 040355Z AUTO 00000KT 10SM SCT055 01/M04 A3039 RMK AO2 T00051039 $,0,0,0,16090,0,0,0,
2026-04-04 03:35:00,METAR KHCR 040335Z AUTO 00000KT 10SM SCT055 03/M04 A3039 RMK AO2 T00281044 $,0,0,0,16090,0,0,0,
2026-04-04 03:15:00,METAR KHCR 040315Z AUTO 00000KT 10SM BKN055 04/M04 A3037 RMK AO2 T00371045 $,0,0,0,16090,0,0,0,
2026-04-04 02:55:00,METAR KHCR 040255Z AUTO 02003KT 10SM OVC055 04/M04 A3036 RMK AO2 T00421045 53017 $,0,3,0,16090,0,0,0,
2026-04-04 02:35:00,METAR KHCR 040235Z AUTO 03006KT 10SM OVC055 04/M05 A3036 RMK AO2 T00441046 $,0,6,0,16090,0,0,0,
2026-04-04 02:15:00,METAR KHCR 040215Z AUTO 04006KT 10SM OVC055 04/M04 A3035 RMK AO2 T00421042 $,0,6,0,16090,0,0,0,
2026-04-04 01:55:00,METAR KHCR 040155Z AUTO 02008KT 9SM OVC050 05/M04 A3034 RMK AO2 T00481039 $,0,8,0,14481,0,0,0,
2026-04-04 01:35:00,METAR KHCR 040135Z AUTO 01007KT 10SM BKN050 06/M04 A3034 RMK AO2 T00551044 $,0,7,0,16090,0,0,0,
2026-04-04 01:15:00,METAR KHCR 040115Z AUTO 02010KT 9SM BKN050 05/M04 A3033 RMK AO2 T00551042 $,0,10,0,14481,0,0,0,
2026-04-04 00:55:00,METAR KHCR 040055Z AUTO 36011KT 9SM BKN050 06/M04 A3032 RMK AO2 T00611045 $,0,11,0,14481,0,0,0,
2026-04-04 00:35:00,METAR KHCR 040035Z AUTO 01011KT 9SM BKN050 06/M05 A3032 RMK AO2 T00631046 $,0,11,0,14481,0,0,0,
2026-04-04 00:15:00,METAR KHCR 040015Z AUTO 02013KT 10SM BKN050 07/M04 A3031 RMK AO2 T00721041 $,0,13,0,16090,0,0,0,
2026-04-03 23:55:00,METAR KHCR 032355Z AUTO 04012G17KT 360V100 10SM FEW050 08/M04 A3031 RMK AO2 T00751035 10080 20025 53002 $,0,12,1,16090,0,0,0,
2026-04-03 23:35:00,METAR KHCR 032335Z AUTO 02009KT 10SM FEW049 07/M04 A3030 RMK AO2 T00691037 $,0,9,0,16090,0,0,0,
2026-04-03 23:15:00,METAR KHCR 032315Z AUTO 36009KT 180V010 10SM BKN048 07/M04 A3030 RMK AO2 T00661037 $,0,9,0,16090,0,0,0,
2026-04-03 22:55:00,METAR KHCR 032255Z AUTO 03009KT 10SM BKN046 BKN055 07/M03 A3030 RMK AO2 T00701034 $,0,9,0,16090,0,0,0,
2026-04-03 22:35:00,METAR KHCR 032235Z AUTO 00000KT 10SM BKN050 06/M05 A3030 RMK AO2 T00611049 $,0,0,0,16090,0,0,0,
2026-04-03 22:15:00,METAR KHCR 032215Z AUTO 36009KT 10SM OVC050 07/M04 A3030 RMK AO2 T00711041 $,0,9,0,16090,0,0,0,
2026-04-03 21:55:00,METAR KHCR 032155Z AUTO VRB06KT 10SM OVC047 06/M05 A3030 RMK AO2 T00621051 $,0,6,0,16090,0,0,0,
2026-04-03 21:35:00,METAR KHCR 032135Z AUTO 34006KT 10SM OVC047 06/M04 A3030 RMK AO2 T00611042 $,0,6,0,16090,0,0,0,
2026-04-03 21:15:00,METAR KHCR 032115Z AUTO 00000KT 10SM OVC048 06/M04 A3030 RMK AO2 T00601040 $,0,0,0,16090,0,0,0,
2026-04-03 20:55:00,METAR KHCR 032055Z AUTO 00000KT 10SM BKN044 BKN055 05/M05 A3030 RMK AO2 T00491048 58002 $,0,0,0,16090,0,0,0,
2026-04-03 20:35:00,METAR KHCR 032035Z AUTO 00000KT 10SM SCT045 06/M04 A3030 RMK AO2 T00571041 $,0,0,0,16090,0,0,0,
2026-04-03 20:15:00,METAR KHCR 032015Z AUTO VRB04KT 10SM SCT048 06/M04 A3030 RMK AO2 T00551039 $,0,4,0,16090,0,0,0,
2026-04-03 19:55:00,METAR KHCR 031955Z AUTO 00000KT 10SM SCT045 05/M04 A3030 RMK AO2 T00491037 $,0,0,0,16090,0,0,0,
2026-04-03 19:35:00,METAR KHCR 031935Z AUTO VRB03KT 10SM FEW045 05/M04 A3030 RMK AO2 T00451039 $,0,3,0,16090,0,0,0,
2026-04-03 19:15:00,METAR KHCR 031915Z AUTO VRB04KT 10SM SCT046 04/M04 A3030 RMK AO2 T00401044 $,0,4,0,16090,0,0,0,
2026-04-03 18:55:00,METAR KHCR 031855Z AUTO VRB05KT 10SM SCT037 04/M05 A3031 RMK AO2 T00361050 $,0,5,0,16090,0,0,0,
2026-04-03 18:35:00,METAR KHCR 031835Z AUTO 00000KT 10SM BKN037 03/M05 A3031 RMK AO2 T00331051 $,0,0,0,16090,0,0,0,
2026-04-03 18:15:00,METAR KHCR 031815Z AUTO 15006KT 10SM FEW037 03/M05 A3031 RMK AO2 T00301052 $,0,6,0,16090,0,0,0,
2026-04-03 17:55:00,METAR KHCR 031755Z AUTO 00000KT 10SM BKN036 03/M05 A3031 RMK AO2 T00271048 10027 21072 53011 $,0,0,0,16090,0,0,0,
2026-04-03 17:35:00,METAR KHCR 031735Z AUTO VRB04KT 10SM BKN037 02/M04 A3031 RMK AO2 T00241036 $,0,4,0,16090,0,0,0,
2026-04-03 17:15:00,METAR KHCR 031715Z AUTO 00000KT 10SM BKN034 01/M04 A3031 RMK AO2 T00131040 $,0,0,0,16090,0,0,0,
2026-04-03 16:55:00,METAR KHCR 031655Z AUTO VRB03KT 10SM BKN037 00/M04 A3030 RMK AO2 T00021038 $,0,3,0,16090,0,0,0,
2026-04-03 16:35:00,METAR KHCR 031635Z AUTO 00000KT 10SM CLR M00/M04 A3030 RMK AO2 T10041038 $,0,0,0,16090,0,0,0,
2026-04-03 16:15:00,METAR KHCR 031615Z AUTO 00000KT 10SM CLR M02/M05 A3029 RMK AO2 T10151045 $,0,0,0,16090,0,0,0,
2026-04-03 15:55:00,METAR KHCR 031555Z AUTO 00000KT 10SM CLR M02/M05 A3028 RMK AO2 T10201048 $,0,0,0,16090,0,0,0,
2026-04-03 15:35:00,METAR KHCR 031535Z AUTO 00000KT 10SM CLR M03/M05 A3028 RMK AO2 T10251047 $,0,0,0,16090,0,0,0,
2026-04-03 15:15:00,METAR KHCR 031515Z AUTO 00000KT 10SM CLR M03/M05 A3028 RMK AO2 T10321054 $,0,0,0,16090,0,0,0,
2026-04-03 14:55:00,METAR KHCR 031455Z AUTO 00000KT 10SM CLR M04/M06 A3027 RMK AO2 T10391058 51023 $,0,0,0,16090,0,0,0,
2026-04-03 14:35:00,METAR KHCR 031435Z AUTO 00000KT 10SM CLR M04/M06 A3027 RMK AO2 T10441063 $,0,0,0,16090,0,0,0,
2026-04-03 14:15:00,METAR KHCR 031415Z AUTO 00000KT 10SM SCT045 M05/M07 A3026 RMK AO2 T10521069 $,0,0,0,16090,0,0,0,
2026-04-03 13:55:00,METAR KHCR 031355Z AUTO 00000KT 10SM SCT043 OVC050 M06/M08 A3024 RMK AO2 T10591077 $,0,0,0,16090,0,0,0,
2026-04-03 13:35:00,METAR KHCR 031335Z AUTO 15003KT 10SM SCT040 OVC055 M06/M08 A3023 RMK AO2 T10631079 $,0,3,0,16090,0,0,0,
2026-04-03 13:15:00,METAR KHCR 031315Z AUTO 10004KT 10SM OVC055 M06/M08 A3023 RMK AO2 T10581081 $,0,4,0,16090,0,0,0,
2026-04-03 12:55:00,METAR KHCR 031255Z AUTO 11005KT 10SM SCT044 BKN055 M07/M08 A3022 RMK AO2 T10661084 $,0,5,0,16090,0,0,0,
2026-04-03 12:35:00,METAR KHCR 031235Z AUTO 11004KT 10SM SCT055 M07/M09 A3021 RMK AO2 T10691086 $,0,4,0,16090,0,0,0,
2026-04-03 12:15:00,METAR KHCR 031215Z AUTO 03003KT 10SM FEW043 M05/M07 A3020 RMK AO2 T10531068 $,0,3,0,16090,0,0,0,
2026-04-03 11:55:00,METAR KHCR 031155Z AUTO 00000KT 10SM FEW037 BKN045 OVC055 M07/M08 A3019 RMK AO2 60000 70024 T10711084 11014 21072 52019 $,0,0,0,16090,0,0,0,
2026-04-03 11:35:00,METAR KHCR 031135Z AUTO 00000KT 10SM BKN039 BKN050 M07/M08 A3018 RMK AO2 T10661081 $,0,0,0,16090,0,0,0,
2026-04-03 11:15:00,METAR KHCR 031115Z AUTO 00000KT 10SM FEW043 M06/M08 A3018 RMK AO2 T10631080 $,0,0,0,16090,0,0,0,
2026-04-03 08:55:00,METAR KHCR 030855Z AUTO 18004KT 10SM CLR M05/M06 A3012 RMK AO2 60000 T10461061 51016 $,0,4,0,16090,0,0,0,
2026-04-03 08:35:00,METAR KHCR 030835Z AUTO 16004KT 10SM CLR M06/M07 A3012 RMK AO2 T10561067 $,0,4,0,16090,0,0,0,
2026-04-03 08:15:00,METAR KHCR 030815Z AUTO 00000KT 10SM CLR M04/M06 A3012 RMK AO2 T10441062 $,0,0,0,16090,0,0,0,
2026-04-03 06:15:00,METAR KHCR 030615Z AUTO VRB06KT 7SM UP BKN036 BKN047 OVC055 M01/M05 A3009 RMK AO2 P0000 T10141049 $,0,6,0,11263,0,0,0,UP
2026-04-03 05:55:00,METAR KHCR 030555Z AUTO 12004KT 9SM UP FEW039 SCT047 SCT075 M03/M05 A3007 RMK AO2 UPB0539 P0000 60000 T10271049 10010 21027 51025 $,0,4,0,14481,0,0,0,UP
2026-04-03 05:35:00,METAR KHCR 030535Z AUTO 08006KT 10SM SCT039 SCT048 M02/M04 A3006 RMK AO2 T10161044 $,0,6,0,16090,0,0,0,
2026-04-03 05:15:00,METAR KHCR 030515Z AUTO 00000KT 10SM SCT043 BKN055 M01/M06 A3005 RMK AO2 T10111055 $,0,0,0,16090,0,0,0,
2026-04-03 04:55:00,METAR KHCR 030455Z AUTO 00000KT 10SM SCT055 M01/M05 A3004 RMK AO2 UPE0413SNB0413E0426 P0000 T10111047 $,0,0,0,16090,0,0,0,UP
2026-04-03 04:35:00,METAR KHCR 030435Z AUTO 00000KT 10SM FEW018 SCT060 M02/M04 A3004 RMK AO2 UPE0413SNB0413E0426 P0000 T10151043 $,0,0,0,16090,0,0,0,UP
2026-04-03 04:15:00,METAR KHCR 030415Z AUTO VRB04KT 6SM -SN SCT022 BKN039 OVC049 M01/M03 A3003 RMK AO2 UPE0413SNB0413 SCT V BKN P0000 T10091034 $,0,4,0,9654,0,0,0,"SN,UP"
2026-04-03 03:55:00,METAR KHCR 030355Z AUTO 17003KT 9SM UP FEW040 OVC050 M01/M04 A3002 RMK AO2 UPB0312 P0000 T10071039 $,0,3,0,14481,0,0,0,UP
2026-04-03 03:35:00,METAR KHCR 030335Z AUTO 10004KT 9SM UP FEW030 SCT047 OVC055 M00/M04 A3001 RMK AO2 UPB0312 P0000 T10041037 $,0,4,0,14481,0,0,0,UP
2026-04-03 03:15:00,METAR KHCR 030315Z AUTO 00000KT 9SM UP FEW047 BKN060 OVC070 M00/M03 A3000 RMK AO2 UPB0312 P0000 T10031025 $,0,0,0,14481,0,0,0,UP
2026-04-03 02:55:00,METAR KHCR 030255Z AUTO 15004KT 10SM BKN070 BKN085 M01/M04 A2998 RMK AO2 60000 T10091039 51023 $,0,4,0,16090,0,0,0,
2026-04-03 02:35:00,METAR KHCR 030235Z AUTO 14004KT 10SM BKN065 BKN085 M01/M03 A2998 RMK AO2 T10121032 $,0,4,0,16090,0,0,0,
2026-04-03 02:15:00,METAR KHCR 030215Z AUTO 09004KT 10SM FEW035 BKN065 BKN110 M00/M03 A2997 RMK AO2 T10011029 $,0,4,0,16090,0,0,0,
2026-04-03 01:55:00,METAR KHCR 030155Z AUTO 00000KT 10SM FEW070 OVC100 M01/M02 A2996 RMK AO2 SNE0127 P0000 T10071024 $,0,0,0,16090,0,0,0,SN
2026-04-03 01:35:00,METAR KHCR 030135Z AUTO 14005KT 10SM FEW009 BKN100 M01/M02 A2996 RMK AO2 SNE0127 P0000 T10071020 $,0,5,0,16090,0,0,0,SN
2026-04-03 01:15:00,METAR KHCR 030115Z AUTO 10007KT 1 3/4SM -SN BR FEW004 BKN017 BKN023 BKN047 M01/M02 A2995 RMK AO2 P0000 T10051016 $,0,7,0,2816,0,0,1,"BR,SN"
2026-04-03 00:55:00,METAR KHCR 030055Z AUTO VRB03KT 1 1/4SM -SN FEW014 SCT024 OVC029 00/M02 A2995 RMK AO2 UPB0034E0038SNB0038 FEW V SCT P0000 T00001023 $,0,3,0,2011,0,0,0,"SN,UP"
2026-04-03 00:35:00,METAR KHCR 030035Z AUTO 06010KT 8SM UP FEW011 SCT017 BKN024 BKN039 OVC049 01/M03 A2992 RMK AO2 UPB0034 FEW V SCT P0000 T00091027 $,0,10,0,12872,0,0,0,UP
2026-04-03 00:15:00,METAR KHCR 030015Z AUTO 09005KT 10SM SCT041 BKN050 OVC060 01/M03 A2991 RMK AO2 T00091028 $,0,5,0,16090,0,0,0,
2026-04-02 23:55:00,METAR KHCR 022355Z AUTO 07006KT 10SM FEW021 BKN041 OVC048 01/M02 A2990 RMK AO2 SNE2254 P0000 60012 T00111018 10063 21008 50017 $,0,6,0,16090,0,0,0,SN
2026-04-02 23:35:00,METAR KHCR 022335Z AUTO 12005KT 10SM FEW022 SCT036 OVC046 00/M02 A2991 RMK AO2 SNE2254 PRESRR P0000 T00021019 $,0,5,0,16090,0,0,0,SN
2026-04-02 23:15:00,METAR KHCR 022315Z AUTO 09006KT 10SM FEW030 SCT038 OVC050 01/M03 A2988 RMK AO2 SNE2254 P0000 T00051026 $,0,6,0,16090,0,0,0,SN
2026-04-02 22:55:00,METAR KHCR 022255Z AUTO 00000KT 10SM -SN OVC033 M00/M02 A2992 RMK AO2 SNE2231B2239 PRESRR P0000 T10031024 $,0,0,0,16090,0,0,0,SN
2026-04-02 22:35:00,METAR KHCR 022235Z AUTO 12012KT 10SM OVC033 M01/M02 A2989 RMK AO2 SNE2231 P0000 T10061018 $,0,12,0,16090,0,0,0,SN
2026-04-02 22:15:00,METAR KHCR 022215Z AUTO 13010KT 4SM -SN BR FEW026 OVC030 M01/M02 A2989 RMK AO2 LTG DSNT N P0000 T10071017 $,0,10,0,6436,0,0,1,"BR,DS,SN"
2026-04-02 21:55:00,METAR KHCR 022155Z AUTO 07005KT 10SM -SN FEW004 BKN018 OVC028 00/M02 A2988 RMK AO2 P0004 T00001020 $,0,5,0,16090,0,0,0,SN
2026-04-02 21:35:00,METAR KHCR 022135Z AUTO 02009KT 1/2SM SN FZFG FEW003 OVC012 M00/M01 A2987 RMK AO2 P0004 T10021013 $,0,9,0,804,0,0,1,"FG,SN"
2026-04-02 21:15:00,METAR KHCR 022115Z AUTO 01012KT 1/4SM +SN FZFG FEW004 OVC008 M00/M01 A2985 RMK AO2 P0002 T10001006 $,0,12,0,402,0,0,1,"FG,SN"
2026-04-02 20:55:00,METAR KHCR 022055Z AUTO 13008KT 1/2SM SN FG FEW004 OVC012 00/M00 A2984 RMK AO2 P0004 60008 T00031001 53038 $,0,8,0,804,0,0,1,"FG,SN"
2026-04-02 20:35:00,METAR KHCR 022035Z AUTO 13007KT 1/4SM +SN FG VV010 00/M00 A2981 RMK AO2 P0003 T00031001 $,0,7,0,402,0,0,1,"FG,SN"
2026-04-02 20:15:00,METAR KHCR 022015Z AUTO 13010G18KT 1SM -SN BR FEW004 OVC019 01/M00 A2980 RMK AO2 P0001 T00081004 $,0,10,1,1609,0,0,1,"BR,SN"
2026-04-02 19:55:00,METAR KHCR 021955Z AUTO 13007KT 090V160 3SM -SN BR SCT005 OVC020 01/01 A2978 RMK AO2 VIS 1 1/4V5 SNB1923RAB1852E1923 P0004 T00120006 $,0,7,0,4827,0,0,1,"BR,SN"
2026-04-02 19:35:00,METAR KHCR 021935Z AUTO 11009KT 2SM -SN BR BKN005 OVC017 01/01 A2977 RMK AO2 VIS 1 1/2V4 SNB1923RAB1852E1923 P0004 T00150010 $,0,9,0,3218,0,0,1,"BR,SN"
2026-04-02 19:15:00,METAR KHCR 021915Z AUTO 12011KT 5SM -RA BR BKN005 OVC009 02/01 A2976 RMK AO2 RAB1852 OVC V BKN P0002 T00220010 $,0,11,0,8045,0,0,1,"-RA,BR,RA,VC"
2026-04-02 18:55:00,METAR KHCR 021855Z AUTO 07007KT 9SM FEW008 SCT015 SCT021 BKN027 OVC031 04/01 A2975 RMK AO2 WSHFT 1747 RAE1754B1814E1842 FEW V SCT P0000 T00440007 $,0,7,0,14481,0,0,0,RA
2026-04-02 18:35:00,METAR KHCR 021835Z AUTO 04010KT 6SM -RA FEW017 BKN030 OVC037 05/01 A2973 RMK AO2 WSHFT 1747 RAE1754B1814 P0000 T00510012 $,0,10,0,9654,0,0,0,"-RA,RA"
2026-04-02 18:15:00,METAR KHCR 021815Z AUTO 03004KT 9SM -RA FEW017 SCT025 OVC040 06/03 A2972 RMK AO2 WSHFT 1747 LTG DSNT S RAE1754B1814 FEW V SCT P0000 T00570025 $,0,4,0,14481,0,0,0,"-RA,DS,RA"
2026-04-02 17:55:00,METAR KHCR 021755Z AUTO 34014G23KT 4SM -RA FEW018 BKN039 BKN048 BKN055 OVC070 04/02 A2971 RMK AO2 PK WND 25031/1732 WSHFT 1740 RAB1728 P0003 60012 T00440020 10106 20041 53006 $,0,14,1,6436,0,0,0,"-RA,RA"
2026-04-02 17:35:00,METAR KHCR 021735Z AUTO 26023G31KT 7SM -RA FEW039 SCT050 BKN065 OVC080 09/01 A2969 RMK AO2 PK WND 25031/1732 RAB1728 PRESRR P0000 T00870009 $,0,23,1,11263,0,0,0,"-RA,RA"
2026-04-02 17:15:00,METAR KHCR 021715Z AUTO 23019G25KT 10SM FEW060 SCT075 SCT095 10/01 A2966 RMK AO2 LTG DSNT W T00990012 $,0,19,1,16090,0,0,0,DS
2026-04-02 16:55:00,METAR KHCR 021655Z AUTO 21014G19KT 10SM VCTS FEW046 SCT060 BKN080 BKN095 10/02 A2966 RMK AO2 RAE1609B1629E1638 P0000 T01020023 $,0,14,1,16090,1,0,0,"RA,TS,VC"
2026-04-02 16:35:00,METAR KHCR 021635Z AUTO 22011G24KT 200V270 9SM -RA SCT046 BKN060 BKN070 OVC100 09/02 A2967 RMK AO2 LTG DSNT NE AND W RAE1609B1629 P0000 T00940020 $,0,11,1,14481,0,0,0,"-RA,DS,RA"
2026-04-02 16:15:00,METAR KHCR 021615Z AUTO 20006G18KT 160V220 10SM BKN040 BKN050 OVC060 09/03 A2967 RMK AO2 RAE1609 P0000 T00890031 $,0,6,1,16090,0,0,0,RA
2026-04-02 15:55:00,METAR KHCR 021555Z AUTO 21015G20KT 170V240 5SM -RA FEW019 OVC037 07/02 A2967 RMK AO2 P0004 T00690020 $,0,15,1,8045,0,0,0,-RA
2026-04-02 15:35:00,METAR KHCR 021535Z AUTO 21012G23KT 6SM -RA BKN042 OVC050 07/02 A2969 RMK AO2 P0003 T00680023 $,0,12,1,9654,0,0,0,-RA
2026-04-02 15:15:00,METAR KHCR 021515Z AUTO 00000KT 6SM -RA FEW021 OVC047 06/03 A2968 RMK AO2 P0002 T00620026 $,0,0,0,9654,0,0,0,-RA
2026-04-02 14:55:00,METAR KHCR 021455Z AUTO 00000KT 6SM -RA BKN044 06/03 A2969 RMK AO2 P0004 60005 T00600031 53002 $,0,0,0,9654,0,0,0,-RA
2026-04-02 14:35:00,METAR KHCR 021435Z AUTO 29011G16KT 5SM -RA FEW022 BKN043 OVC050 06/03 A2968 RMK AO2 P0003 T00600030 $,0,11,1,8045,0,0,0,-RA
2026-04-02 14:15:00,METAR KHCR 021415Z AUTO 28011G20KT 5SM -RA FEW019 SCT027 BKN046 OVC055 07/02 A2969 RMK AO2 LTG DSNT N FEW V SCT P0002 T00730017 $,0,11,1,8045,0,0,0,"-RA,DS"
2026-04-02 13:55:00,METAR KHCR 021355Z AUTO 22010KT 6SM -RA FEW023 OVC049 08/02 A2968 RMK AO2 RAB1329 P0001 T00770019 $,0,10,0,9654,0,0,0,"-RA,RA"
2026-04-02 13:35:00,METAR KHCR 021335Z AUTO 25014G20KT 6SM -RA FEW020 BKN044 OVC060 08/02 A2968 RMK AO2 RAB1329 P0000 T00790021 $,0,14,1,9654,0,0,0,"-RA,RA"
2026-04-02 13:15:00,METAR KHCR 021315Z AUTO 22012KT 9SM FEW032 BKN060 BKN075 BKN090 OVC100 09/01 A2966 RMK AO2 T00860011 $,0,12,0,14481,0,0,0,
2026-04-02 12:55:00,METAR KHCR 021255Z AUTO 21015G22KT 10SM FEW046 BKN060 BKN080 OVC090 09/01 A2967 RMK AO2 RAE1237 P0000 T00860011 $,0,15,1,16090,0,0,0,RA
2026-04-02 12:35:00,METAR KHCR 021235Z AUTO 23015G20KT 8SM -RA FEW046 SCT055 BKN075 OVC090 08/02 A2968 RMK AO2 P0000 T00800020 $,0,15,1,12872,0,0,0,-RA
2026-04-02 12:15:00,METAR KHCR 021215Z AUTO 12005KT 9SM -RA FEW038 SCT050 BKN065 OVC080 06/04 A2968 RMK AO2 P0000 T00570043 $,0,5,0,14481,0,0,0,-RA
2026-04-02 11:55:00,METAR KHCR 021155Z AUTO 00000KT 9SM -RA FEW037 SCT049 BKN060 BKN070 OVC090 05/04 A2968 RMK AO2 P0001 60029 70058 T00550039 10060 20042 58014 $,0,0,0,14481,0,0,0,-RA
2026-04-02 11:35:00,METAR KHCR 021135Z AUTO 08003KT 9SM -RA FEW036 SCT047 BKN070 OVC085 05/04 A2968 RMK AO2 LTG DSNT N P0001 T00520043 $,0,3,0,14481,0,0,0,"-RA,DS"
2026-04-02 11:15:00,METAR KHCR 021115Z AUTO 09003KT 9SM -RA FEW039 BKN049 BKN065 OVC100 05/05 A2969 RMK AO2 P0001 T00490046 $,0,3,0,14481,0,0,0,-RA
2026-04-02 10:55:00,METAR KHCR 021055Z AUTO 25003KT 7SM -RA BKN049 OVC060 05/05 A2970 RMK AO2 P0002 T00540046 $,0,3,0,11263,0,0,0,-RA
2026-04-02 10:35:00,METAR KHCR 021035Z AUTO 00000KT 7SM -RA FEW041 OVC055 06/04 A2970 RMK AO2 P0001 T00560042 $,0,0,0,11263,0,0,0,-RA
2026-04-02 10:15:00,METAR KHCR 021015Z AUTO 08005KT 7SM RA SCT039 OVC060 06/04 A2971 RMK AO2 P0000 T00560043 $,0,5,0,11263,0,0,0,RA
2026-04-02 09:55:00,METAR KHCR 020955Z AUTO 10008KT 5SM -RA BR BKN040 OVC055 06/04 A2973 RMK AO2 P0013 T00560043 $,0,8,0,8045,0,0,1,"-RA,BR"
2026-04-02 09:35:00,METAR KHCR 020935Z AUTO 15003KT 5SM -RA BR FEW003 OVC042 05/04 A2973 RMK AO2 P0012 T00540042 $,0,3,0,8045,0,0,1,"-RA,BR"
2026-04-02 09:15:00,METAR KHCR 020915Z AUTO VRB03KT 2 1/2SM -RA BR SCT003 BKN011 BKN026 OVC033 05/05 A2974 RMK AO2 VIS 1 3/4V3 BKN011 V SCT P0010 T00520045 $,0,3,0,4022,0,0,1,"-RA,BR"
2026-04-02 08:55:00,METAR KHCR 020855Z AUTO 02005KT 4SM -RA BR FEW004 BKN027 OVC034 05/04 A2973 RMK AO2 RAB0755 P0013 60013 T00530044 56013 $,0,5,0,6436,0,0,1,"-RA,BR,RA"
2026-04-02 08:35:00,METAR KHCR 020835Z AUTO 04004KT 4SM -RA BR FEW005 SCT029 OVC037 05/04 A2973 RMK AO2 RAB0755 FEW V SCT P0010 T00510040 $,0,4,0,6436,0,0,1,"-RA,BR,RA"
2026-04-02 08:15:00,METAR KHCR 020815Z AUTO 00000KT 5SM -RA BR FEW028 OVC041 05/04 A2973 RMK AO2 RAB0755 P0007 T00450039 $,0,0,0,8045,0,0,1,"-RA,BR,RA"
2026-04-02 07:55:00,METAR KHCR 020755Z AUTO 00000KT 10SM OVC046 06/04 A2973 RMK AO2 RAB0658E0749 P0000 T00550042 $,0,0,0,16090,0,0,0,RA
2026-04-02 07:35:00,METAR KHCR 020735Z AUTO 08004KT 10SM BKN046 BKN060 OVC075 06/04 A2973 RMK AO2 RAB0658E0728 P0000 T00550038 $,0,4,0,16090,0,0,0,RA
2026-04-02 07:15:00,METAR KHCR 020715Z AUTO 15003KT 10SM BKN047 BKN055 OVC075 05/04 A2974 RMK AO2 RAB0658E0707 P0000 T00520039 $,0,3,0,16090,0,0,0,RA
2026-04-02 06:55:00,METAR KHCR 020655Z AUTO 00000KT 10SM BKN048 OVC070 05/04 A2975 RMK AO2 RAE0612 P0000 T00500042 401120040 $,0,0,0,16090,0,0,0,RA
2026-04-02 06:35:00,METAR KHCR 020635Z AUTO 30006KT 9SM SCT048 BKN065 OVC080 05/04 A2976 RMK AO2 RAE0612 P0000 T00520041 $,0,6,0,14481,0,0,0,RA
2026-04-02 06:15:00,METAR KHCR 020615Z AUTO 00000KT 8SM BKN048 OVC060 06/04 A2977 RMK AO2 RAE0612 P0000 T00580041 $,0,0,0,12872,0,0,0,RA
2026-04-02 05:55:00,METAR KHCR 020555Z AUTO 09006KT 8SM -RA FEW037 SCT048 BKN060 OVC080 06/04 A2977 RMK AO2 P0002 60004 T00570042 10105 20051 50000 $,0,6,0,12872,0,0,0,-RA
2026-04-02 05:35:00,METAR KHCR 020535Z AUTO 15004KT 9SM -RA SCT040 BKN060 OVC080 05/04 A2978 RMK AO2 P0002 T00530043 $,0,4,0,14481,0,0,0,-RA
2026-04-02 05:15:00,METAR KHCR 020515Z AUTO 06003KT 6SM -RA BR SCT035 OVC043 05/04 A2978 RMK AO2 P0002 T00510039 $,0,3,0,9654,0,0,1,"-RA,BR"
2026-04-02 04:55:00,METAR KHCR 020455Z AUTO 32009KT 6SM -RA BR FEW028 BKN037 OVC047 06/05 A2978 RMK AO2 RAE0356B0416 P0001 T00630050 $,0,9,0,9654,0,0,1,"-RA,BR,RA"
2026-04-02 04:35:00,METAR KHCR 020435Z AUTO 33004KT 7SM -RA FEW026 BKN039 OVC048 07/05 A2977 RMK AO2 RAE0356B0416 P0000 T00670049 $,0,4,0,11263,0,0,0,"-RA,RA"
2026-04-02 04:15:00,METAR KHCR 020415Z AUTO 00000KT 9SM BKN036 BKN049 OVC065 07/04 A2978 RMK AO2 RAE0356 P0000 T00680040 $,0,0,0,14481,0,0,0,RA
2026-04-02 03:55:00,METAR KHCR 020355Z AUTO 00000KT 9SM -RA SCT028 BKN036 OVC045 06/04 A2978 RMK AO2 RAB0301E0324B0345 P0001 T00640039 $,0,0,0,14481,0,0,0,"-RA,RA"
2026-04-02 03:35:00,METAR KHCR 020335Z AUTO 16004KT 10SM SCT028 OVC034 07/04 A2979 RMK AO2 RAB0301E0324 P0001 T00650040 $,0,4,0,16090,0,0,0,RA
2026-04-02 03:15:00,METAR KHCR 020315Z AUTO 00000KT 5SM -RA FEW012 SCT026 BKN034 BKN046 OVC060 07/04 A2979 RMK AO2 RAB0301 FEW V SCT P0001 T00670039 $,0,0,0,8045,0,0,0,"-RA,RA"
2026-04-02 02:55:00,METAR KHCR 020255Z AUTO 18007KT 10SM BKN065 08/01 A2977 RMK AO2 LTG DSNT W - N T00830012 53004 $,0,7,0,16090,0,0,0,DS
2026-04-02 02:35:00,METAR KHCR 020235Z AUTO 17006KT 10SM SCT070 SCT095 08/01 A2977 RMK AO2 T00840009 $,0,6,0,16090,0,0,0,
2026-04-02 02:15:00,METAR KHCR 020215Z AUTO 22003KT 10SM FEW095 08/02 A2977 RMK AO2 T00760020 $,0,3,0,16090,0,0,0,
2026-04-02 01:55:00,METAR KHCR 020155Z AUTO 21005KT 10SM FEW095 08/02 A2976 RMK AO2 T00790017 $,0,5,0,16090,0,0,0,
2026-04-02 01:35:00,METAR KHCR 020135Z AUTO 21005KT 10SM CLR 08/02 A2976 RMK AO2 T00800020 $,0,5,0,16090,0,0,0,
2026-04-02 01:15:00,METAR KHCR 020115Z AUTO 23009KT 10SM FEW070 09/02 A2976 RMK AO2 T00900021 $,0,9,0,16090,0,0,0,
2026-04-02 00:55:00,METAR KHCR 020055Z AUTO 21006KT 10SM SCT065 10/00 A2975 RMK AO2 T00970004 $,0,6,0,16090,0,0,0,
2026-04-02 00:35:00,METAR KHCR 020035Z AUTO 22008KT 10SM BKN065 10/02 A2976 RMK AO2 T00980016 $,0,8,0,16090,0,0,0,
2026-04-02 00:15:00,METAR KHCR 020015Z AUTO 23010KT 10SM OVC060 10/02 A2976 RMK AO2 T00960024 $,0,10,0,16090,0,0,0,
2026-04-01 23:55:00,METAR KHCR 012355Z AUTO 22010KT 10SM OVC049 10/03 A2976 RMK AO2 60001 T00990026 10112 20050 55001 $,0,10,0,16090,0,0,0,
2026-04-01 23:35:00,METAR KHCR 012335Z AUTO 23014G18KT 10SM OVC050 09/03 A2976 RMK AO2 T00950027 $,0,14,1,16090,0,0,0,
2026-04-01 23:15:00,METAR KHCR 012315Z AUTO 23013KT 10SM BKN049 OVC060 11/04 A2975 RMK AO2 T01060038 $,0,13,0,16090,0,0,0,
2026-04-01 22:55:00,METAR KHCR 012255Z AUTO 22006KT 10SM OVC050 10/04 A2974 RMK AO2 T00980039 $,0,6,0,16090,0,0,0,
2026-04-01 22:35:00,METAR KHCR 012235Z AUTO 23010KT 10SM OVC048 10/04 A2974 RMK AO2 T00980040 $,0,10,0,16090,0,0,0,
2026-04-01 22:15:00,METAR KHCR 012215Z AUTO 22007KT 10SM BKN047 OVC060 11/05 A2975 RMK AO2 T01070046 $,0,7,0,16090,0,0,0,
2026-04-01 21:55:00,METAR KHCR 012155Z AUTO 25008KT 10SM SCT055 BKN110 10/05 A2976 RMK AO2 T00970049 $,0,8,0,16090,0,0,0,
2026-04-01 21:35:00,METAR KHCR 012135Z AUTO 25008KT 10SM SCT110 10/05 A2976 RMK AO2 T01000051 $,0,8,0,16090,0,0,0,
2026-04-01 21:15:00,METAR KHCR 012115Z AUTO 29006KT 10SM FEW019 SCT130 09/04 A2976 RMK AO2 T00890042 $,0,6,0,16090,0,0,0,
2026-04-01 20:55:00,METAR KHCR 012055Z AUTO 00000KT 10SM SCT018 SCT100 BKN130 09/04 A2976 RMK AO2 60001 T00890039 58003 $,0,0,0,16090,0,0,0,
2026-04-01 20:35:00,METAR KHCR 012035Z AUTO VRB03KT 10SM BKN018 BKN055 BKN095 08/04 A2977 RMK AO2 BKN018 V SCT T00840036 $,0,3,0,16090,0,0,0,
2026-04-01 20:15:00,METAR KHCR 012015Z AUTO 26007KT 10SM BKN017 BKN095 08/04 A2978 RMK AO2 CIG 013V018 T00800043 $,0,7,0,16090,0,0,0,
2026-04-01 19:55:00,METAR KHCR 011955Z AUTO VRB05KT 10SM SCT015 BKN070 OVC090 07/05 A2978 RMK AO2 T00710049 $,0,5,0,16090,0,0,0,
2026-04-01 19:35:00,METAR KHCR 011935Z AUTO 00000KT 10SM SCT014 BKN070 OVC090 06/04 A2978 RMK AO2 T00640041 $,0,0,0,16090,0,0,0,
2026-04-01 19:15:00,METAR KHCR 011915Z AUTO 00000KT 10SM FEW031 SCT045 BKN075 BKN090 07/04 A2978 RMK AO2 T00660042 $,0,0,0,16090,0,0,0,
2026-04-01 18:55:00,METAR KHCR 011855Z AUTO 24005KT 6SM BR FEW007 SCT014 BKN023 OVC033 05/04 A2978 RMK AO2 FEW V SCT P0001 T00530035 $,0,5,0,9654,0,0,1,BR
2026-04-01 18:35:00,METAR KHCR 011835Z AUTO 00000KT 6SM BR SCT007 BKN014 OVC025 05/04 A2978 RMK AO2 BKN V SCT T00530039 $,0,0,0,9654,0,0,1,BR
2026-04-01 18:15:00,METAR KHCR 011815Z AUTO 00000KT 8SM BKN007 BKN012 BKN017 OVC025 05/04 A2978 RMK AO2 CIG 007V010 T00520037 $,0,0,0,12872,0,0,0,
2026-04-01 17:55:00,METAR KHCR 011755Z AUTO 00000KT 8SM OVC008 05/03 A2977 RMK AO2 RAE1654 CIG 007V010 P0001 60024 T00480031 10053 20040 53007 $,0,0,0,12872,0,0,0,RA
2026-04-01 17:35:00,METAR KHCR 011735Z AUTO 00000KT 7SM BKN008 OVC012 05/03 A2977 RMK AO2 RAE1654 CIG 007V011 BKN V OVC P0000 T00480029 $,0,0,0,11263,0,0,0,"RA,VC"
2026-04-01 17:15:00,METAR KHCR 011715Z AUTO 00000KT 6SM BR BKN008 OVC049 05/03 A2977 RMK AO2 RAE1654 P0000 T00510033 $,0,0,0,9654,0,0,1,"BR,RA"
2026-04-01 16:55:00,METAR KHCR 011655Z AUTO 00000KT 6SM -RA BR FEW031 OVC040 04/03 A2976 RMK AO2 P0003 T00450029 $,0,0,0,9654,0,0,1,"-RA,BR"
2026-04-01 16:35:00,METAR KHCR 011635Z AUTO 00000KT 6SM -RA BR OVC032 04/03 A2975 RMK AO2 P0002 T00420028 $,0,0,0,9654,0,0,1,"-RA,BR"
2026-04-01 16:15:00,METAR KHCR 011615Z AUTO 28004KT 6SM -RA BR FEW022 OVC032 04/03 A2975 RMK AO2 P0001 T00410029 $,0,4,0,9654,0,0,1,"-RA,BR"
2026-04-01 15:55:00,METAR KHCR 011555Z AUTO 00000KT 4SM -RA BR BKN023 OVC031 04/03 A2975 RMK AO2 P0004 T00440030 $,0,0,0,6436,0,0,1,"-RA,BR"
2026-04-01 15:35:00,METAR KHCR 011535Z AUTO 00000KT 5SM -RA BR SCT020 SCT025 OVC032 04/03 A2975 RMK AO2 P0003 T00420030 $,0,0,0,8045,0,0,1,"-RA,BR"
2026-04-01 15:15:00,METAR KHCR 011515Z AUTO 23003KT 5SM -RA BR FEW008 BKN019 OVC034 04/03 A2975 RMK AO2 P0001 T00410029 $,0,3,0,8045,0,0,1,"-RA,BR"
2026-04-01 14:55:00,METAR KHCR 011455Z AUTO 00000KT 6SM -RA BR OVC014 04/03 A2975 RMK AO2 OVC V BKN P0005 60016 T00430033 57001 $,0,0,0,9654,0,0,1,"-RA,BR,VC"
2026-04-01 14:35:00,METAR KHCR 011435Z AUTO 29003KT 5SM -RA BR OVC013 04/04 A2975 RMK AO2 P0004 T00440036 $,0,3,0,8045,0,0,1,"-RA,BR"
2026-04-01 13:55:00,METAR KHCR 011355Z AUTO 00000KT 5SM -RA BR OVC015 05/04 A2975 RMK AO2 P0005 T00480037 $,0,0,0,8045,0,0,1,"-RA,BR"
2026-04-01 13:35:00,METAR KHCR 011335Z AUTO 00000KT 5SM -RA BR OVC017 05/04 A2975 RMK AO2 CIG 013V021 P0003 T00490039 $,0,0,0,8045,0,0,1,"-RA,BR"
2026-04-01 13:15:00,METAR KHCR 011315Z AUTO 00000KT 7SM -RA OVC019 05/04 A2975 RMK AO2 CIG 018V023 P0002 T00490044 $,0,0,0,11263,0,0,0,-RA
2026-04-01 12:55:00,METAR KHCR 011255Z AUTO 29004KT 7SM -RA OVC019 05/04 A2975 RMK AO2 CIG 018V022 P0006 T00520043 $,0,4,0,11263,0,0,0,-RA
2026-04-01 12:35:00,METAR KHCR 011235Z AUTO 27003KT 6SM -RA BR OVC019 05/04 A2975 RMK AO2 P0004 T00520040 $,0,3,0,9654,0,0,1,"-RA,BR"
2026-04-01 12:15:00,METAR KHCR 011215Z AUTO 00000KT 6SM -RA BR BKN020 OVC030 05/04 A2975 RMK AO2 P0002 T00530040 $,0,0,0,9654,0,0,1,"-RA,BR"
2026-04-01 11:55:00,METAR KHCR 011155Z AUTO 28004KT 7SM -RA BKN021 OVC026 05/05 A2975 RMK AO2 P0003 60024 70050 T00540047 10061 20053 56015 $,0,4,0,11263,0,0,0,-RA
2026-04-01 11:35:00,METAR KHCR 011135Z AUTO 28005KT 6SM -RA BR BKN026 OVC039 05/05 A2975 RMK AO2 P0002 T00540046 $,0,5,0,9654,0,0,1,"-RA,BR"
2026-04-01 11:15:00,METAR KHCR 011115Z AUTO 27004KT 6SM -RA BR SCT023 OVC040 06/05 A2976 RMK AO2 P0001 T00560047 $,0,4,0,9654,0,0,1,"-RA,BR"
2026-04-01 10:55:00,METAR KHCR 011055Z AUTO 10003KT 8SM -RA BKN025 OVC043 06/04 A2976 RMK AO2 BKN V OVC P0001 T00580041 $,0,3,0,12872,0,0,0,"-RA,VC"
2026-04-01 10:35:00,METAR KHCR 011035Z AUTO 10005KT 8SM BKN026 OVC042 06/04 A2977 RMK AO2 RAE1032 P0001 T00580044 $,0,5,0,12872,0,0,0,RA
2026-04-01 10:15:00,METAR KHCR 011015Z AUTO 10006KT 8SM -RA FEW028 OVC045 06/05 A2978 RMK AO2 P0001 T00580049 $,0,6,0,12872,0,0,0,-RA
2026-04-01 09:55:00,METAR KHCR 010955Z AUTO 11003KT 8SM -RA FEW003 SCT010 OVC048 06/05 A2979 RMK AO2 RAB0851 FEW V SCT P0009 T00570051 $,0,3,0,12872,0,0,0,"-RA,RA"
2026-04-01 09:35:00,METAR KHCR 010935Z AUTO 12005KT 3SM -RA BR SCT003 OVC012 06/05 A2979 RMK AO2 RAB0851 CIG 009V016 OVC V BKN P0009 T00570053 $,0,5,0,4827,0,0,1,"-RA,BR,RA,VC"
2026-04-01 09:15:00,METAR KHCR 010915Z AUTO VRB05KT 5SM -RA BR BKN005 BKN010 OVC015 06/06 A2980 RMK AO2 RAB0851 CIG 003V008 P0002 T00590057 $,0,5,0,8045,0,0,1,"-RA,BR,RA"
2026-04-01 08:55:00,METAR KHCR 010855Z AUTO 31004KT 7SM BKN005 BKN010 BKN019 OVC029 06/06 A2980 RMK AO2 RAE0847 CIG 003V008 BKN019 V OVC P0003 60011 T00580055 58015 $,0,4,0,11263,0,0,0,"RA,VC"
2026-04-01 08:35:00,METAR KHCR 010835Z AUTO 32004KT 7SM -RA BKN004 OVC029 06/06 A2981 RMK AO2 CIG 003V005 P0002 T00600059 $,0,4,0,11263,0,0,0,-RA
2026-04-01 08:15:00,METAR KHCR 010815Z AUTO 00000KT 6SM -RA BR FEW004 OVC028 06/05 A2981 RMK AO2 P0001 T00600055 $,0,0,0,9654,0,0,1,"-RA,BR"
2026-04-01 07:55:00,METAR KHCR 010755Z AUTO 00000KT 5SM -RA BR SCT003 BKN021 OVC030 06/06 A2982 RMK AO2 P0003 T00600056 $,0,0,0,8045,0,0,1,"-RA,BR"
2026-04-01 07:35:00,METAR KHCR 010735Z AUTO 00000KT 5SM -RA BR OVC003 06/06 A2983 RMK AO2 CIG 002V006 P0002 T00600057 $,0,0,0,8045,0,0,1,"-RA,BR"
2026-04-01 07:15:00,METAR KHCR 010715Z AUTO 00000KT 6SM BR BKN006 BKN027 OVC038 06/06 A2984 RMK AO2 RAE0713 P0001 T00600056 $,0,0,0,9654,0,0,1,"BR,RA"
2026-04-01 06:55:00,METAR KHCR 010655Z AUTO 00000KT 6SM -RA BR SCT006 SCT015 BKN029 BKN035 OVC044 06/06 A2985 RMK AO2 P0005 T00600055 401650059 $,0,0,0,9654,0,0,1,"-RA,BR"
2026-04-01 06:35:00,METAR KHCR 010635Z AUTO 00000KT 6SM -RA BR SCT006 BKN014 BKN030 OVC038 06/05 A2985 RMK AO2 P0004 T00600055 $,0,0,0,9654,0,0,1,"-RA,BR"
2026-04-01 06:15:00,METAR KHCR 010615Z AUTO 01003KT 6SM -RA BR FEW005 BKN031 OVC038 06/06 A2985 RMK AO2 P0002 T00600056 $,0,3,0,9654,0,0,1,"-RA,BR"
2026-04-01 05:55:00,METAR KHCR 010555Z AUTO 00000KT 4SM -RA SCT029 OVC036 07/04 A2986 RMK AO2 P0012 60026 T00670042 10157 20062 50006 $,0,0,0,6436,0,0,0,-RA
2026-04-01 05:35:00,METAR KHCR 010535Z AUTO 00000KT 3SM -RA BR SCT030 OVC036 06/05 A2986 RMK AO2 P0010 T00620050 $,0,0,0,4827,0,0,1,"-RA,BR"
2026-04-01 05:15:00,METAR KHCR 010515Z AUTO 20003KT 2 1/2SM -RA BR OVC036 06/05 A2986 RMK AO2 VIS 2V3 P0006 T00650048 $,0,3,0,4022,0,0,1,"-RA,BR"
2026-04-01 04:55:00,METAR KHCR 010455Z AUTO 20003KT 3SM -RA BR OVC036 07/05 A2986 RMK AO2 P0010 T00680046 $,0,3,0,4827,0,0,1,"-RA,BR"
2026-04-01 04:35:00,METAR KHCR 010435Z AUTO 19003KT 4SM -RA BR SCT032 OVC039 07/05 A2987 RMK AO2 P0007 T00680049 $,0,3,0,6436,0,0,1,"-RA,BR"
2026-04-01 04:15:00,METAR KHCR 010415Z AUTO 19007KT 5SM -RA FEW004 BKN032 OVC040 07/05 A2987 RMK AO2 P0005 T00700047 $,0,7,0,8045,0,0,0,-RA
2026-04-01 03:55:00,METAR KHCR 010355Z AUTO 18009G15KT 6SM -RA SCT033 OVC043 08/05 A2986 RMK AO2 P0004 T00760047 $,0,9,1,9654,0,0,0,-RA
2026-04-01 03:35:00,METAR KHCR 010335Z AUTO 18007KT 8SM -RA SCT036 OVC045 08/05 A2986 RMK AO2 P0003 T00780046 $,0,7,0,12872,0,0,0,-RA
2026-04-01 03:15:00,METAR KHCR 010315Z AUTO 18007KT 5SM -RA FEW034 OVC043 08/04 A2985 RMK AO2 P0002 T00840044 $,0,7,0,8045,0,0,0,-RA
2026-04-01 02:55:00,METAR KHCR 010255Z AUTO 16009KT 8SM -RA OVC047 09/04 A2984 RMK AO2 RAB0201E0210B0237 P0000 60000 T00880039 53010 $,0,9,0,12872,0,0,0,"-RA,RA"
2026-04-01 02:35:00,METAR KHCR 010235Z AUTO 17014G20KT 10SM OVC050 10/03 A2983 RMK AO2 RAB0201E0210 P0000 T01020030 $,0,14,1,16090,0,0,0,RA
2026-04-01 02:15:00,METAR KHCR 010215Z AUTO 18010G15KT 150V230 9SM OVC055 11/02 A2981 RMK AO2 RAB0201E0210 P0000 T01110020 $,0,10,1,14481,0,0,0,RA
2026-04-01 01:55:00,METAR KHCR 010155Z AUTO 13010G17KT 9SM FEW035 SCT047 OVC060 10/03 A2982 RMK AO2 RAB0102E0112B0128E0149 P0000 T01020032 $,0,10,1,14481,0,0,0,RA
2026-04-01 01:35:00,METAR KHCR 010135Z AUTO 16010G20KT 7SM -RA FEW036 BKN047 OVC060 11/03 A2983 RMK AO2 RAB0102E0112B0128 P0000 T01120025 $,0,10,1,11263,0,0,0,"-RA,RA"
2026-04-01 01:15:00,METAR KHCR 010115Z AUTO 16005KT 10SM BKN060 BKN080 13/01 A2982 RMK AO2 RAB0102E0112 P0000 T01280007 $,0,5,0,16090,0,0,0,RA
2026-04-01 00:55:00,METAR KHCR 010055Z AUTO 20013G20KT 10SM BKN080 OVC090 14/M01 A2981 RMK AO2 T01431012 $,0,13,1,16090,0,0,0,
2026-04-01 00:35:00,METAR KHCR 010035Z AUTO 20012G20KT 9SM BKN085 15/M02 A2980 RMK AO2 T01511019 $,0,12,1,14481,0,0,0,
2026-04-01 00:15:00,METAR KHCR 010015Z AUTO 25010KT 9SM BKN090 15/M02 A2979 RMK AO2 T01541021 $,0,10,0,14481,0,0,0,
2026-03-31 23:55:00,METAR KHCR 312355Z AUTO 25012G18KT 10SM SCT085 16/M02 A2980 RMK AO2 T01581021 10165 20139 56018 $,0,12,1,16090,0,0,0,
2026-03-31 23:35:00,METAR KHCR 312335Z AUTO 23015KT 9SM BKN085 16/M02 A2980 RMK AO2 T01601023 $,0,15,0,14481,0,0,0,
2026-03-31 23:15:00,METAR KHCR 312315Z AUTO VRB06KT 10SM SCT090 16/M02 A2980 RMK AO2 T01631019 $,0,6,0,16090,0,0,0,
2026-03-31 22:55:00,METAR KHCR 312255Z AUTO 26004KT 9SM BKN100 BKN140 16/01 A2982 RMK AO2 T01560005 $,0,4,0,14481,0,0,0,
2026-03-31 22:35:00,METAR KHCR 312235Z AUTO 00000KT 9SM OVC100 15/M01 A2983 RMK AO2 T01541010 $,0,0,0,14481,0,0,0,
2026-03-31 22:15:00,METAR KHCR 312215Z AUTO 00000KT 10SM OVC100 15/M01 A2983 RMK AO2 T01521008 $,0,0,0,16090,0,0,0,
2026-03-31 21:55:00,METAR KHCR 312155Z AUTO 00000KT 10SM OVC100 15/M01 A2984 RMK AO2 T01521006 $,0,0,0,16090,0,0,0,
2026-03-31 21:35:00,METAR KHCR 312135Z AUTO 00000KT 10SM OVC100 15/M01 A2985 RMK AO2 T01531011 $,0,0,0,16090,0,0,0,
2026-03-31 21:15:00,METAR KHCR 312115Z AUTO 00000KT 10SM OVC100 15/M01 A2985 RMK AO2 T01511012 $,0,0,0,16090,0,0,0,
2026-03-31 20:55:00,METAR KHCR 312055Z AUTO 05004KT 10SM OVC090 15/M01 A2986 RMK AO2 T01531009 58020 $,0,4,0,16090,0,0,0,
2026-03-31 20:35:00,METAR KHCR 312035Z AUTO 00000KT 10SM OVC090 15/M01 A2988 RMK AO2 T01491007 $,0,0,0,16090,0,0,0,
2026-03-31 20:15:00,METAR KHCR 312015Z AUTO 13005KT 10SM OVC090 15/M00 A2989 RMK AO2 T01541002 $,0,5,0,16090,0,0,0,
2026-03-31 19:55:00,METAR KHCR 311955Z AUTO 24008KT 10SM OVC070 14/M00 A2990 RMK AO2 T01431005 $,0,8,0,16090,0,0,0,
2026-03-31 19:35:00,METAR KHCR 311935Z AUTO 00000KT 9SM OVC070 14/M01 A2991 RMK AO2 T01431007 $,0,0,0,14481,0,0,0,
2026-03-31 19:15:00,METAR KHCR 311915Z AUTO 02003KT 10SM FEW060 BKN080 14/01 A2992 RMK AO2 T01430006 $,0,3,0,16090,0,0,0,
2026-03-31 18:55:00,METAR KHCR 311855Z AUTO 34008KT 10SM FEW060 OVC090 14/01 A2993 RMK AO2 T01430011 $,0,8,0,16090,0,0,0,
2026-03-31 18:35:00,METAR KHCR 311835Z AUTO 28007KT 250V320 10SM SCT065 OVC090 14/00 A2994 RMK AO2 T01430002 $,0,7,0,16090,0,0,0,
2026-03-31 18:15:00,METAR KHCR 311815Z AUTO 04005KT 10SM OVC090 14/01 A2994 RMK AO2 T01400013 $,0,5,0,16090,0,0,0,
2026-03-31 17:55:00,METAR KHCR 311755Z AUTO VRB03KT 10SM BKN100 BKN120 14/01 A2993 RMK AO2 60000 T01420010 10145 20065 58003 $,0,3,0,16090,0,0,0,
2026-03-31 17:35:00,METAR KHCR 311735Z AUTO 14004KT 10SM SCT095 SCT120 14/03 A2994 RMK AO2 T01440028 $,0,4,0,16090,0,0,0,
2026-03-31 17:15:00,METAR KHCR 311715Z AUTO 05004KT 10SM FEW100 13/02 A2993 RMK AO2 T01320022 $,0,4,0,16090,0,0,0,
2026-03-31 16:55:00,METAR KHCR 311655Z AUTO 08004KT 10SM FEW080 BKN110 13/03 A2994 RMK AO2 RAB1556E1629 P0000 T01310032 $,0,4,0,16090,0,0,0,RA
2026-03-31 16:35:00,METAR KHCR 311635Z AUTO 04003KT 10SM SCT038 BKN080 12/04 A2995 RMK AO2 RAB1556E1629 P0000 T01180036 $,0,3,0,16090,0,0,0,RA
2026-03-31 16:15:00,METAR KHCR 311615Z AUTO 15005KT 6SM -RA BKN036 OVC049 10/04 A2995 RMK AO2 RAB1556 P0000 T01040036 $,0,5,0,9654,0,0,0,"-RA,RA"
2026-03-31 15:55:00,METAR KHCR 311555Z AUTO VRB03KT 9SM BKN055 OVC065 11/01 A2995 RMK AO2 T01060015 $,0,3,0,14481,0,0,0,
2026-03-31 15:35:00,METAR KHCR 311535Z AUTO 14006KT 10SM OVC065 10/02 A2995 RMK AO2 T01010015 $,0,6,0,16090,0,0,0,
2026-03-31 15:15:00,METAR KHCR 311515Z AUTO 14006KT 9SM OVC070 10/02 A2994 RMK AO2 T01000021 $,0,6,0,14481,0,0,0,
2026-03-31 14:55:00,METAR KHCR 311455Z AUTO 00000KT 10SM BKN065 10/02 A2994 RMK AO2 60000 T00980017 53007 $,0,0,0,16090,0,0,0,
2026-03-31 14:35:00,METAR KHCR 311435Z AUTO 00000KT 9SM BKN065 BKN080 09/02 A2994 RMK AO2 T00940020 $,0,0,0,14481,0,0,0,
2026-03-31 14:15:00,METAR KHCR 311415Z AUTO 00000KT 10SM BKN075 BKN095 09/02 A2994 RMK AO2 T00850020 $,0,0,0,16090,0,0,0,
2026-03-31 13:55:00,METAR KHCR 311355Z AUTO 00000KT 10SM OVC090 08/02 A2993 RMK AO2 T00760016 $,0,0,0,16090,0,0,0,
2026-03-31 13:35:00,METAR KHCR 311335Z AUTO 00000KT 9SM BKN100 OVC110 07/01 A2993 RMK AO2 T00740011 $,0,0,0,14481,0,0,0,
2026-03-31 13:15:00,METAR KHCR 311315Z AUTO 00000KT 9SM OVC110 07/01 A2993 RMK AO2 T00690011 $,0,0,0,14481,0,0,0,
2026-03-31 12:55:00,METAR KHCR 311255Z AUTO 12005KT 10SM FEW070 BKN090 08/00 A2992 RMK AO2 RAE1156 P0000 T00830004 $,0,5,0,16090,0,0,0,RA
2026-03-31 12:35:00,METAR KHCR 311235Z AUTO 10003KT 10SM BKN090 08/00 A2992 RMK AO2 RAE1156 P0000 T00760004 $,0,3,0,16090,0,0,0,RA
2026-03-31 12:15:00,METAR KHCR 311215Z AUTO 09003KT 10SM BKN085 BKN120 09/01 A2992 RMK AO2 RAE1156 P0000 T00870005 $,0,3,0,16090,0,0,0,RA
2026-03-31 11:55:00,METAR KHCR 311155Z AUTO 12003KT 10SM -RA FEW060 BKN085 07/02 A2992 RMK AO2 RAB1147 P0000 60000 T00710020 10130 20071 55004 $,0,3,0,16090,0,0,0,"-RA,RA"
2026-03-31 11:35:00,METAR KHCR 311135Z AUTO 15003KT 10SM OVC090 07/02 A2992 RMK AO2 T00720017 $,0,3,0,16090,0,0,0,
2026-03-31 11:15:00,METAR KHCR 311115Z AUTO 00000KT 10SM BKN095 OVC120 09/01 A2992 RMK AO2 T00850013 $,0,0,0,16090,0,0,0,
2026-03-31 10:55:00,METAR KHCR 311055Z AUTO 00000KT 10SM BKN110 OVC130 11/M00 A2991 RMK AO2 T01091002 $,0,0,0,16090,0,0,0,
2026-03-31 10:35:00,METAR KHCR 311035Z AUTO VRB04KT 10SM SCT100 BKN130 10/00 A2992 RMK AO2 T01050005 $,0,4,0,16090,0,0,0,
2026-03-31 10:15:00,METAR KHCR 311015Z AUTO 12003KT 10SM FEW055 SCT075 BKN100 BKN110 11/00 A2993 RMK AO2 T01120001 $,0,3,0,16090,0,0,0,
2026-03-31 09:55:00,METAR KHCR 310955Z AUTO 06003KT 9SM FEW055 SCT080 OVC095 10/01 A2993 RMK AO2 T00980009 $,0,3,0,14481,0,0,0,
2026-03-31 09:35:00,METAR KHCR 310935Z AUTO 00000KT 10SM BKN085 OVC120 10/00 A2993 RMK AO2 T00960005 $,0,0,0,16090,0,0,0,
2026-03-31 09:15:00,METAR KHCR 310915Z AUTO 11006KT 9SM FEW075 BKN090 BKN130 09/01 A2993 RMK AO2 T00920010 $,0,6,0,14481,0,0,0,
2026-03-31 08:55:00,METAR KHCR 310855Z AUTO 13005KT 9SM BKN070 OVC095 10/01 A2993 RMK AO2 T00990013 56004 $,0,5,0,14481,0,0,0,
2026-03-31 08:35:00,METAR KHCR 310835Z AUTO 00000KT 9SM BKN075 OVC095 11/01 A2994 RMK AO2 T01080008 $,0,0,0,14481,0,0,0,
2026-03-31 08:15:00,METAR KHCR 310815Z AUTO 00000KT 10SM SCT080 BKN095 11/01 A2993 RMK AO2 T01090011 $,0,0,0,16090,0,0,0,
2026-03-31 07:55:00,METAR KHCR 310755Z AUTO 00000KT 9SM BKN060 BKN080 OVC090 12/M00 A2993 RMK AO2 T01211003 $,0,0,0,14481,0,0,0,
2026-03-31 07:35:00,METAR KHCR 310735Z AUTO 01003KT 9SM FEW055 SCT070 OVC090 11/01 A2994 RMK AO2 T01110005 $,0,3,0,14481,0,0,0,
2026-03-31 07:15:00,METAR KHCR 310715Z AUTO 00000KT 9SM OVC090 11/M00 A2994 RMK AO2 T01141002 $,0,0,0,14481,0,0,0,
2026-03-31 06:55:00,METAR KHCR 310655Z AUTO 00000KT 9SM FEW100 BKN130 11/M00 A2994 RMK AO2 T01121002 402191001 $,0,0,0,14481,0,0,0,
2026-03-31 06:35:00,METAR KHCR 310635Z AUTO 00000KT 9SM BKN130 12/M01 A2994 RMK AO2 T01161005 $,0,0,0,14481,0,0,0,
2026-03-31 06:15:00,METAR KHCR 310615Z AUTO 00000KT 9SM SCT090 BKN140 10/00 A2994 RMK AO2 T01020004 $,0,0,0,14481,0,0,0,
2026-03-31 05:55:00,METAR KHCR 310555Z AUTO 00000KT 9SM OVC085 11/00 A2995 RMK AO2 T01060001 10207 20105 53004 $,0,0,0,14481,0,0,0,
2026-03-31 05:35:00,METAR KHCR 310535Z AUTO 00000KT 9SM BKN085 OVC110 11/00 A2994 RMK AO2 T01140000 $,0,0,0,14481,0,0,0,
2026-03-31 05:15:00,METAR KHCR 310515Z AUTO 11004KT 9SM FEW070 OVC095 12/M00 A2994 RMK AO2 T01181001 $,0,4,0,14481,0,0,0,
2026-03-31 04:55:00,METAR KHCR 310455Z AUTO 09004KT 9SM BKN100 12/M00 A2993 RMK AO2 T01151003 $,0,4,0,14481,0,0,0,
2026-03-31 04:35:00,METAR KHCR 310435Z AUTO 09005KT 9SM SCT110 12/M00 A2993 RMK AO2 T01181003 $,0,5,0,14481,0,0,0,
2026-03-31 04:15:00,METAR KHCR 310415Z AUTO 00000KT 10SM SCT130 BKN160 14/M01 A2994 RMK AO2 T01441010 $,0,0,0,16090,0,0,0,
2026-03-31 03:55:00,METAR KHCR 310355Z AUTO 00000KT 10SM SCT100 BKN130 BKN160 14/M01 A2994 RMK AO2 T01401008 $,0,0,0,16090,0,0,0,
2026-03-31 03:35:00,METAR KHCR 310335Z AUTO 00000KT 10SM SCT090 BKN110 BKN140 15/M01 A2994 RMK AO2 T01491010 $,0,0,0,16090,0,0,0,
2026-03-31 03:15:00,METAR KHCR 310315Z AUTO 29016G21KT 10SM BKN090 16/M01 A2995 RMK AO2 T01591014 $,0,16,1,16090,0,0,0,
2026-03-31 02:55:00,METAR KHCR 310255Z AUTO 14006KT 9SM BKN100 BKN120 13/00 A2993 RMK AO2 T01340001 53006 $,0,6,0,14481,0,0,0,
2026-03-31 02:35:00,METAR KHCR 310235Z AUTO 12005KT 10SM SCT100 OVC120 14/M00 A2992 RMK AO2 T01371004 $,0,5,0,16090,0,0,0,
2026-03-31 02:15:00,METAR KHCR 310215Z AUTO 34005KT 9SM FEW100 OVC130 15/M02 A2991 RMK AO2 T01531018 $,0,5,0,14481,0,0,0,
2026-03-31 01:55:00,METAR KHCR 310155Z AUTO 24003KT 8SM SCT100 BKN130 16/M03 A2990 RMK AO2 T01611032 $,0,3,0,12872,0,0,0,
2026-03-31 01:35:00,METAR KHCR 310135Z AUTO 00000KT 8SM FEW120 16/M03 A2990 RMK AO2 T01631028 $,0,0,0,12872,0,0,0,
2026-03-31 01:15:00,METAR KHCR 310115Z AUTO 28004KT 9SM FEW110 16/M01 A2990 RMK AO2 T01621014 $,0,4,0,14481,0,0,0,
2026-03-31 00:55:00,METAR KHCR 310055Z AUTO 22006KT 8SM BKN110 19/M04 A2990 RMK AO2 T01911038 $,0,6,0,12872,0,0,0,
2026-03-31 00:35:00,METAR KHCR 310035Z AUTO 00000KT 10SM BKN120 20/M03 A2991 RMK AO2 T02041034 $,0,0,0,16090,0,0,0,
2026-03-31 00:15:00,METAR KHCR 310015Z AUTO 23009KT 10SM SCT110 20/M04 A2991 RMK AO2 T02041042 $,0,9,0,16090,0,0,0,
2026-03-30 23:55:00,METAR KHCR 302355Z AUTO 25007KT 10SM SCT110 21/M04 A2991 RMK AO2 T02071036 10219 20181 56015 $,0,7,0,16090,0,0,0,
2026-03-30 23:35:00,METAR KHCR 302335Z AUTO VRB06KT 10SM SCT120 20/M05 A2991 RMK AO2 T02051045 $,0,6,0,16090,0,0,0,
2026-03-30 23:15:00,METAR KHCR 302315Z AUTO 26010KT 240V300 10SM SCT110 21/M04 A2992 RMK AO2 T02111035 $,0,10,0,16090,0,0,0,
2026-03-30 22:55:00,METAR KHCR 302255Z AUTO 28010KT 10SM SCT110 21/M04 A2993 RMK AO2 T02081037 $,0,10,0,16090,0,0,0,
2026-03-30 22:35:00,METAR KHCR 302235Z AUTO 25009KT 10SM FEW100 20/M04 A2993 RMK AO2 T02011036 $,0,9,0,16090,0,0,0,
2026-03-30 22:15:00,METAR KHCR 302215Z AUTO 27007KT 9SM SCT100 BKN140 20/M03 A2993 RMK AO2 T02011033 $,0,7,0,14481,0,0,0,
2026-03-30 21:55:00,METAR KHCR 302155Z AUTO 22009G17KT 170V240 9SM SCT110 21/M04 A2994 RMK AO2 T02051045 $,0,9,1,14481,0,0,0,
2026-03-30 21:35:00,METAR KHCR 302135Z AUTO 24007KT 200V280 10SM SCT100 SCT140 21/M04 A2995 RMK AO2 T02081038 $,0,7,0,16090,0,0,0,
2026-03-30 21:15:00,METAR KHCR 302115Z AUTO 23010KT 10SM SCT100 BKN140 20/M05 A2995 RMK AO2 T01961048 $,0,10,0,16090,0,0,0,
2026-03-30 20:55:00,METAR KHCR 302055Z AUTO 21008KT 170V240 10SM BKN100 20/M05 A2996 RMK AO2 T02021046 56012 $,0,8,0,16090,0,0,0,
2026-03-30 20:35:00,METAR KHCR 302035Z AUTO 27011KT 10SM OVC100 20/M03 A2997 RMK AO2 T01961033 $,0,11,0,16090,0,0,0,
2026-03-30 20:15:00,METAR KHCR 302015Z AUTO 24008KT 10SM BKN100 OVC130 20/M04 A2997 RMK AO2 T02021042 $,0,8,0,16090,0,0,0,
2026-03-30 19:55:00,METAR KHCR 301955Z AUTO 22009G16KT 10SM FEW120 21/M04 A2997 RMK AO2 T02151045 $,0,9,1,16090,0,0,0,
2026-03-30 19:35:00,METAR KHCR 301935Z AUTO 21010G16KT 10SM CLR 22/M05 A2997 RMK AO2 T02181045 $,0,10,1,16090,0,0,0,
2026-03-30 19:15:00,METAR KHCR 301915Z AUTO 22008KT 180V240 10SM CLR 21/M05 A2997 RMK AO2 T02131048 $,0,8,0,16090,0,0,0,
2026-03-30 18:55:00,METAR KHCR 301855Z AUTO 19009KT 10SM CLR 21/M05 A2997 RMK AO2 T02071052 $,0,9,0,16090,0,0,0,
2026-03-30 18:35:00,METAR KHCR 301835Z AUTO 24007KT 10SM CLR 20/M05 A2998 RMK AO2 T02041050 $,0,7,0,16090,0,0,0,
2026-03-30 18:15:00,METAR KHCR 301815Z AUTO 23007KT 10SM CLR 20/M02 A2999 RMK AO2 T01971022 $,0,7,0,16090,0,0,0,
2026-03-30 17:55:00,METAR KHCR 301755Z AUTO 00000KT 10SM CLR 16/M02 A3001 RMK AO2 T01641015 10164 21001 58004 $,0,0,0,16090,0,0,0,
2026-03-30 17:35:00,METAR KHCR 301735Z AUTO 00000KT 10SM CLR 15/M03 A3001 RMK AO2 T01531029 $,0,0,0,16090,0,0,0,
2026-03-30 17:15:00,METAR KHCR 301715Z AUTO 00000KT 10SM CLR 14/M01 A3002 RMK AO2 T01431009 $,0,0,0,16090,0,0,0,
2026-03-30 16:55:00,METAR KHCR 301655Z AUTO 00000KT 10SM SCT120 13/M01 A3002 RMK AO2 T01301015 $,0,0,0,16090,0,0,0,
2026-03-30 16:35:00,METAR KHCR 301635Z AUTO 00000KT 10SM BKN120 12/M01 A3003 RMK AO2 T01181014 $,0,0,0,16090,0,0,0,
2026-03-30 16:15:00,METAR KHCR 301615Z AUTO 00000KT 10SM SCT120 12/M02 A3003 RMK AO2 T01181016 $,0,0,0,16090,0,0,0,
2026-03-30 15:55:00,METAR KHCR 301555Z AUTO 00000KT 10SM FEW120 10/M02 A3003 RMK AO2 T00971024 $,0,0,0,16090,0,0,0,
2026-03-30 15:35:00,METAR KHCR 301535Z AUTO 00000KT 10SM BKN120 09/M02 A3003 RMK AO2 T00851021 $,0,0,0,16090,0,0,0,
2026-03-30 15:15:00,METAR KHCR 301515Z AUTO 00000KT 9SM BKN120 07/01 A3003 RMK AO2 T00740009 $,0,0,0,14481,0,0,0,
2026-03-30 14:55:00,METAR KHCR 301455Z AUTO 00000KT 7SM BKN120 08/M02 A3002 RMK AO2 T00771019 53008 $,0,0,0,11263,0,0,0,
2026-03-30 14:35:00,METAR KHCR 301435Z AUTO 00000KT 10SM SCT120 07/M00 A3002 RMK AO2 T00661002 $,0,0,0,16090,0,0,0,
2026-03-30 14:15:00,METAR KHCR 301415Z AUTO 00000KT 10SM CLR 05/M03 A3002 RMK AO2 T00541029 $,0,0,0,16090,0,0,0,
2026-03-30 13:55:00,METAR KHCR 301355Z AUTO 00000KT 9SM SCT110 02/M03 A3001 RMK AO2 T00201031 $,0,0,0,14481,0,0,0,
2026-03-30 13:35:00,METAR KHCR 301335Z AUTO 00000KT 7SM SCT110 SCT140 04/M03 A3001 RMK AO2 T00351031 $,0,0,0,11263,0,0,0,
2026-03-30 13:15:00,METAR KHCR 301315Z AUTO 16003KT 8SM CLR M00/M04 A3000 RMK AO2 T10011041 $,0,3,0,12872,0,0,0,
2026-03-30 12:55:00,METAR KHCR 301255Z AUTO 14003KT 8SM SCT110 00/M04 A2999 RMK AO2 T00051040 $,0,3,0,12872,0,0,0,
2026-03-30 12:35:00,METAR KHCR 301235Z AUTO 07003KT 10SM FEW110 02/M04 A2999 RMK AO2 T00171036 $,0,3,0,16090,0,0,0,
2026-03-30 12:15:00,METAR KHCR 301215Z AUTO 00000KT 10SM FEW120 01/M04 A3000 RMK AO2 T00121038 $,0,0,0,16090,0,0,0,
2026-03-30 11:55:00,METAR KHCR 301155Z AUTO 00000KT 10SM FEW120 02/M04 A2999 RMK AO2 T00201036 10083 20010 55003 $,0,0,0,16090,0,0,0,
2026-03-30 11:35:00,METAR KHCR 301135Z AUTO 00000KT 10SM FEW120 02/M03 A2999 RMK AO2 T00171035 $,0,0,0,16090,0,0,0,
2026-03-30 11:15:00,METAR KHCR 301115Z AUTO 00000KT 10SM BKN120 03/M03 A2999 RMK AO2 T00261028 $,0,0,0,16090,0,0,0,
2026-03-30 10:55:00,METAR KHCR 301055Z AUTO 13003KT 10SM SCT120 02/M04 A2998 RMK AO2 T00161035 $,0,3,0,16090,0,0,0,
2026-03-30 10:35:00,METAR KHCR 301035Z AUTO 00000KT 10SM CLR 03/M03 A2999 RMK AO2 T00291033 $,0,0,0,16090,0,0,0,
2026-03-30 10:15:00,METAR KHCR 301015Z AUTO 00000KT 10SM SCT120 SCT150 05/M03 A2999 RMK AO2 T00551032 $,0,0,0,16090,0,0,0,
2026-03-30 09:55:00,METAR KHCR 300955Z AUTO 00000KT 10SM BKN150 05/M03 A3000 RMK AO2 T00491027 $,0,0,0,16090,0,0,0,
2026-03-30 09:35:00,METAR KHCR 300935Z AUTO 08004KT 10SM FEW120 BKN150 08/M04 A3000 RMK AO2 T00811036 $,0,4,0,16090,0,0,0,
2026-03-30 09:15:00,METAR KHCR 300915Z AUTO 14004KT 10SM SCT120 OVC150 06/M02 A3000 RMK AO2 T00561018 $,0,4,0,16090,0,0,0,
2026-03-30 08:55:00,METAR KHCR 300855Z AUTO 00000KT 10SM OVC140 07/M03 A3000 RMK AO2 T00741030 50000 $,0,0,0,16090,0,0,0,
2026-03-30 08:35:00,METAR KHCR 300835Z AUTO 00000KT 10SM OVC130 06/M02 A3000 RMK AO2 T00581018 $,0,0,0,16090,0,0,0,
2026-03-30 08:15:00,METAR KHCR 300815Z AUTO 04004KT 10SM SCT110 OVC140 07/M03 A3000 RMK AO2 T00701032 $,0,4,0,16090,0,0,0,
2026-03-30 07:55:00,METAR KHCR 300755Z AUTO 00000KT 10SM SCT120 OVC140 07/M03 A3001 RMK AO2 T00661031 $,0,0,0,16090,0,0,0,
2026-03-30 07:35:00,METAR KHCR 300735Z AUTO 00000KT 10SM FEW110 OVC140 05/M03 A3001 RMK AO2 T00511029 $,0,0,0,16090,0,0,0,
2026-03-30 07:15:00,METAR KHCR 300715Z AUTO 00000KT 10SM BKN140 04/M03 A3001 RMK AO2 T00421031 $,0,0,0,16090,0,0,0,
2026-03-30 06:55:00,METAR KHCR 300655Z AUTO 00000KT 10SM CLR 04/M03 A3000 RMK AO2 T00381033 402361012 $,0,0,0,16090,0,0,0,
2026-03-30 06:35:00,METAR KHCR 300635Z AUTO 00000KT 10SM CLR 05/M03 A3000 RMK AO2 T00481034 $,0,0,0,16090,0,0,0,
2026-03-30 06:15:00,METAR KHCR 300615Z AUTO 00000KT 10SM FEW130 07/M04 A3000 RMK AO2 T00681038 $,0,0,0,16090,0,0,0,
2026-03-30 05:15:00,METAR KHCR 300515Z AUTO 10005KT 10SM CLR 06/M03 A3000 RMK AO2 T00561034 $,0,5,0,16090,0,0,0,
2026-03-30 04:55:00,METAR KHCR 300455Z AUTO 12005KT 10SM CLR 07/M03 A3000 RMK AO2 T00681034 $,0,5,0,16090,0,0,0,
2026-03-30 04:35:00,METAR KHCR 300435Z AUTO 12004KT 10SM CLR 08/M03 A3001 RMK AO2 T00821033 $,0,4,0,16090,0,0,0,
2026-03-30 04:15:00,METAR KHCR 300415Z AUTO 18003KT 10SM CLR 08/M03 A3001 RMK AO2 T00811034 $,0,3,0,16090,0,0,0,
2026-03-30 03:55:00,METAR KHCR 300355Z AUTO 00000KT 10SM CLR 11/M05 A3001 RMK AO2 T01101048 $,0,0,0,16090,0,0,0,
2026-03-30 03:35:00,METAR KHCR 300335Z AUTO 11006KT 10SM CLR 09/M03 A3000 RMK AO2 T00931034 $,0,6,0,16090,0,0,0,
2026-03-30 03:15:00,METAR KHCR 300315Z AUTO 10006KT 10SM CLR 10/M04 A3000 RMK AO2 T01021036 $,0,6,0,16090,0,0,0,
2026-03-30 02:55:00,METAR KHCR 300255Z AUTO 00000KT 10SM CLR 12/M03 A2999 RMK AO2 T01201030 55002 $,0,0,0,16090,0,0,0,
2026-03-30 02:35:00,METAR KHCR 300235Z AUTO 12003KT 10SM CLR 12/M03 A2999 RMK AO2 T01171034 $,0,3,0,16090,0,0,0,
2026-03-30 02:15:00,METAR KHCR 300215Z AUTO 00000KT 10SM CLR 13/M04 A2999 RMK AO2 T01331037 $,0,0,0,16090,0,0,0,
2026-03-30 01:55:00,METAR KHCR 300155Z AUTO 00000KT 10SM CLR 17/M04 A2999 RMK AO2 T01711043 $,0,0,0,16090,0,0,0,
2026-03-30 01:35:00,METAR KHCR 300135Z AUTO 25004KT 9SM CLR 19/M04 A2999 RMK AO2 T01861038 $,0,4,0,14481,0,0,0,
2026-03-30 01:15:00,METAR KHCR 300115Z AUTO 22005KT 8SM CLR 20/M05 A2999 RMK AO2 T02031050 $,0,5,0,12872,0,0,0,
2026-03-30 00:55:00,METAR KHCR 300055Z AUTO 22004KT 9SM CLR 21/M06 A3000 RMK AO2 T02131056 $,0,4,0,14481,0,0,0,
2026-03-30 00:35:00,METAR KHCR 300035Z AUTO 23007KT 10SM CLR 22/M06 A3000 RMK AO2 T02191061 $,0,7,0,16090,0,0,0,
2026-03-30 00:15:00,METAR KHCR 300015Z AUTO 25005KT 10SM CLR 22/M05 A3000 RMK AO2 T02231049 $,0,5,0,16090,0,0,0,
2026-03-29 23:55:00,METAR KHCR 292355Z AUTO 23011G15KT 10SM CLR 23/M07 A3000 RMK AO2 T02281067 10236 20172 56013 $,0,11,1,16090,0,0,0,
2026-03-29 23:35:00,METAR KHCR 292335Z AUTO 21009G14KT 9SM CLR 23/M07 A3001 RMK AO2 T02271068 $,0,9,1,14481,0,0,0,
2026-03-29 23:15:00,METAR KHCR 292315Z AUTO 21009KT 10SM CLR 23/M07 A3001 RMK AO2 T02291070 $,0,9,0,16090,0,0,0,
2026-03-29 22:55:00,METAR KHCR 292255Z AUTO 25008G14KT 10SM CLR 23/M06 A3002 RMK AO2 T02331063 $,0,8,1,16090,0,0,0,
2026-03-29 22:35:00,METAR KHCR 292235Z AUTO 21009KT 9SM CLR 23/M07 A3002 RMK AO2 T02321066 $,0,9,0,14481,0,0,0,
2026-03-29 22:15:00,METAR KHCR 292215Z AUTO 24010G20KT 9SM CLR 22/M06 A3002 RMK AO2 T02241064 $,0,10,1,14481,0,0,0,
2026-03-29 21:55:00,METAR KHCR 292155Z AUTO 25005KT 10SM CLR 23/M07 A3003 RMK AO2 T02301065 $,0,5,0,16090,0,0,0,
2026-03-29 21:35:00,METAR KHCR 292135Z AUTO 23011KT 10SM CLR 23/M06 A3004 RMK AO2 T02321064 $,0,11,0,16090,0,0,0,
2026-03-29 21:15:00,METAR KHCR 292115Z AUTO 22007KT 10SM CLR 23/M07 A3004 RMK AO2 T02331065 $,0,7,0,16090,0,0,0,
2026-03-29 20:55:00,METAR KHCR 292055Z AUTO 25009KT 10SM CLR 23/M07 A3005 RMK AO2 T02281069 56019 $,0,9,0,16090,0,0,0,
2026-03-29 20:35:00,METAR KHCR 292035Z AUTO 20009G15KT 180V240 10SM CLR 23/M08 A3005 RMK AO2 T02281075 $,0,9,1,16090,0,0,0,
2026-03-29 20:15:00,METAR KHCR 292015Z AUTO 23009KT 10SM CLR 23/M07 A3007 RMK AO2 T02281075 $,0,9,0,16090,0,0,0,
2026-03-29 19:55:00,METAR KHCR 291955Z AUTO 23010KT 10SM CLR 23/M07 A3007 RMK AO2 T02251075 $,0,10,0,16090,0,0,0,
2026-03-29 19:35:00,METAR KHCR 291935Z AUTO 24009KT 10SM CLR 22/M07 A3007 RMK AO2 T02241072 $,0,9,0,16090,0,0,0,
2026-03-29 19:15:00,METAR KHCR 291915Z AUTO 22010KT 10SM CLR 22/M08 A3008 RMK AO2 T02201079 $,0,10,0,16090,0,0,0,
2026-03-29 18:55:00,METAR KHCR 291855Z AUTO 23008KT 10SM CLR 22/M08 A3008 RMK AO2 T02181079 $,0,8,0,16090,0,0,0,
2026-03-29 18:35:00,METAR KHCR 291835Z AUTO 24005KT 10SM CLR 21/M05 A3009 RMK AO2 T02091048 $,0,5,0,16090,0,0,0,
2026-03-29 18:15:00,METAR KHCR 291815Z AUTO 00000KT 9SM CLR 18/M01 A3010 RMK AO2 T01821005 $,0,0,0,14481,0,0,0,
2026-03-29 17:55:00,METAR KHCR 291755Z AUTO 00000KT 10SM CLR 17/M00 A3011 RMK AO2 T01671003 10167 21012 58008 $,0,0,0,16090,0,0,0,
2026-03-29 17:35:00,METAR KHCR 291735Z AUTO 00000KT 10SM CLR 16/00 A3012 RMK AO2 T01580002 $,0,0,0,16090,0,0,0,
2026-03-29 17:15:00,METAR KHCR 291715Z AUTO 00000KT 10SM CLR 15/00 A3013 RMK AO2 T01500003 $,0,0,0,16090,0,0,0,
2026-03-29 16:55:00,METAR KHCR 291655Z AUTO 00000KT 10SM CLR 14/M00 A3013 RMK AO2 T01391004 $,0,0,0,16090,0,0,0,
2026-03-29 16:35:00,METAR KHCR 291635Z AUTO 00000KT 10SM CLR 12/M01 A3013 RMK AO2 T01171006 $,0,0,0,16090,0,0,0,
2026-03-29 16:15:00,METAR KHCR 291615Z AUTO 00000KT 10SM CLR 11/M00 A3013 RMK AO2 T01081004 $,0,0,0,16090,0,0,0,
2026-03-29 15:55:00,METAR KHCR 291555Z AUTO 00000KT 10SM CLR 09/M01 A3014 RMK AO2 T00941009 $,0,0,0,16090,0,0,0,
2026-03-29 15:35:00,METAR KHCR 291535Z AUTO 00000KT 10SM CLR 08/M01 A3014 RMK AO2 T00821007 $,0,0,0,16090,0,0,0,
2026-03-29 15:15:00,METAR KHCR 291515Z AUTO 00000KT 10SM CLR 07/M01 A3014 RMK AO2 T00741009 $,0,0,0,16090,0,0,0,
2026-03-29 14:55:00,METAR KHCR 291455Z AUTO 00000KT 10SM CLR 06/01 A3014 RMK AO2 T00580010 53012 $,0,0,0,16090,0,0,0,
2026-03-29 14:35:00,METAR KHCR 291435Z AUTO 00000KT 10SM CLR 05/01 A3014 RMK AO2 T00490010 $,0,0,0,16090,0,0,0,
2026-03-29 14:15:00,METAR KHCR 291415Z AUTO 00000KT 10SM CLR 04/00 A3013 RMK AO2 T00420002 $,0,0,0,16090,0,0,0,
2026-03-29 13:55:00,METAR KHCR 291355Z AUTO 00000KT 10SM CLR 01/M03 A3012 RMK AO2 T00141025 $,0,0,0,16090,0,0,0,
2026-03-29 13:35:00,METAR KHCR 291335Z AUTO 00000KT 10SM CLR 01/M03 A3012 RMK AO2 T00061032 $,0,0,0,16090,0,0,0,
2026-03-29 13:15:00,METAR KHCR 291315Z AUTO 00000KT 10SM CLR M01/M04 A3011 RMK AO2 T10101036 $,0,0,0,16090,0,0,0,
2026-03-29 12:55:00,METAR KHCR 291255Z AUTO 00000KT 10SM CLR M00/M04 A3011 RMK AO2 T10041035 $,0,0,0,16090,0,0,0,
2026-03-29 12:35:00,METAR KHCR 291235Z AUTO 14003KT 10SM CLR M01/M04 A3011 RMK AO2 T10071036 $,0,3,0,16090,0,0,0,
2026-03-29 12:15:00,METAR KHCR 291215Z AUTO 00000KT 10SM CLR 01/M03 A3010 RMK AO2 T00061031 $,0,0,0,16090,0,0,0,
2026-03-29 11:55:00,METAR KHCR 291155Z AUTO 00000KT 10SM CLR M01/M03 A3010 RMK AO2 T10091035 10086 21009 53006 $,0,0,0,16090,0,0,0,
2026-03-29 11:35:00,METAR KHCR 291135Z AUTO 13003KT 10SM CLR 01/M03 A3010 RMK AO2 T00091027 $,0,3,0,16090,0,0,0,
2026-03-29 11:15:00,METAR KHCR 291115Z AUTO 00000KT 10SM CLR 00/M03 A3009 RMK AO2 T00021030 $,0,0,0,16090,0,0,0,
2026-03-29 10:55:00,METAR KHCR 291055Z AUTO 12003KT 10SM CLR 01/M03 A3009 RMK AO2 T00131025 $,0,3,0,16090,0,0,0,
2026-03-29 10:35:00,METAR KHCR 291035Z AUTO 00000KT 10SM CLR 03/M02 A3009 RMK AO2 T00291023 $,0,0,0,16090,0,0,0,
2026-03-29 10:15:00,METAR KHCR 291015Z AUTO 00000KT 10SM CLR 02/M03 A3009 RMK AO2 T00241026 $,0,0,0,16090,0,0,0,
2026-03-29 09:55:00,METAR KHCR 290955Z AUTO 00000KT 10SM CLR 02/M02 A3008 RMK AO2 T00221022 $,0,0,0,16090,0,0,0,
2026-03-29 09:35:00,METAR KHCR 290935Z AUTO 00000KT 10SM CLR 03/M02 A3008 RMK AO2 T00341025 $,0,0,0,16090,0,0,0,
2026-03-29 09:15:00,METAR KHCR 290915Z AUTO 14003KT 10SM CLR 02/M03 A3008 RMK AO2 T00171025 $,0,3,0,16090,0,0,0,
2026-03-29 08:55:00,METAR KHCR 290855Z AUTO 00000KT 10SM CLR 03/M03 A3008 RMK AO2 T00301026 51004 $,0,0,0,16090,0,0,0,
2026-03-29 08:35:00,METAR KHCR 290835Z AUTO 00000KT 10SM CLR 04/M03 A3008 RMK AO2 T00351026 $,0,0,0,16090,0,0,0,
2026-03-29 08:15:00,METAR KHCR 290815Z AUTO 00000KT 10SM CLR 04/M02 A3008 RMK AO2 T00351025 $,0,0,0,16090,0,0,0,
2026-03-29 07:55:00,METAR KHCR 290755Z AUTO 00000KT 10SM CLR 05/M02 A3008 RMK AO2 T00531023 $,0,0,0,16090,0,0,0,
2026-03-29 07:35:00,METAR KHCR 290735Z AUTO 00000KT 10SM CLR 05/M02 A3008 RMK AO2 T00461023 $,0,0,0,16090,0,0,0,
2026-03-29 07:15:00,METAR KHCR 290715Z AUTO 00000KT 10SM CLR 06/M02 A3008 RMK AO2 T00651024 $,0,0,0,16090,0,0,0,
2026-03-29 06:55:00,METAR KHCR 290655Z AUTO 00000KT 10SM CLR 08/M02 A3007 RMK AO2 T00771025 402421010 $,0,0,0,16090,0,0,0,
2026-03-29 06:35:00,METAR KHCR 290635Z AUTO 00000KT 10SM CLR 08/M02 A3007 RMK AO2 T00821024 $,0,0,0,16090,0,0,0,
2026-03-29 06:15:00,METAR KHCR 290615Z AUTO 00000KT 10SM CLR 07/M02 A3007 RMK AO2 T00671018 $,0,0,0,16090,0,0,0,
2026-03-29 05:55:00,METAR KHCR 290555Z AUTO 00000KT 10SM CLR 08/M02 A3007 RMK AO2 T00831024 10210 20074 51006 $,0,0,0,16090,0,0,0,
2026-03-29 05:35:00,METAR KHCR 290535Z AUTO 00000KT 10SM CLR 09/M02 A3007 RMK AO2 T00861023 $,0,0,0,16090,0,0,0,
2026-03-29 05:15:00,METAR KHCR 290515Z AUTO 00000KT 10SM CLR 10/M02 A3007 RMK AO2 T00961023 $,0,0,0,16090,0,0,0,
2026-03-29 04:55:00,METAR KHCR 290455Z AUTO 04005KT 10SM CLR 13/M02 A3007 RMK AO2 T01311023 $,0,5,0,16090,0,0,0,
2026-03-29 04:35:00,METAR KHCR 290435Z AUTO 02007KT 9SM CLR 13/M03 A3007 RMK AO2 T01351026 $,0,7,0,14481,0,0,0,
2026-03-29 04:15:00,METAR KHCR 290415Z AUTO 00000KT 10SM CLR 15/M03 A3006 RMK AO2 T01501032 $,0,0,0,16090,0,0,0,
2026-03-29 03:55:00,METAR KHCR 290355Z AUTO 00000KT 10SM CLR 14/M03 A3006 RMK AO2 T01431031 $,0,0,0,16090,0,0,0,
2026-03-29 03:35:00,METAR KHCR 290335Z AUTO 17004KT 10SM CLR 15/M03 A3006 RMK AO2 T01531031 $,0,4,0,16090,0,0,0,
2026-03-29 03:15:00,METAR KHCR 290315Z AUTO 17006KT 10SM FEW140 17/M03 A3005 RMK AO2 T01701031 $,0,6,0,16090,0,0,0,
2026-03-29 02:55:00,METAR KHCR 290255Z AUTO 19008KT 10SM OVC140 18/M03 A3004 RMK AO2 T01821033 51012 $,0,8,0,16090,0,0,0,
2026-03-29 02:35:00,METAR KHCR 290235Z AUTO 21005G18KT 170V230 10SM OVC130 18/M03 A3004 RMK AO2 T01831032 $,0,5,1,16090,0,0,0,
2026-03-29 02:15:00,METAR KHCR 290215Z AUTO 20008KT 10SM BKN120 18/M03 A3003 RMK AO2 T01831035 $,0,8,0,16090,0,0,0,
2026-03-29 01:55:00,METAR KHCR 290155Z AUTO 24009KT 9SM CLR 18/M02 A3004 RMK AO2 T01791024 $,0,9,0,14481,0,0,0,
2026-03-29 01:35:00,METAR KHCR 290135Z AUTO 20007KT 170V230 10SM SCT120 19/M03 A3003 RMK AO2 T01881029 $,0,7,0,16090,0,0,0,
2026-03-29 01:15:00,METAR KHCR 290115Z AUTO 19007KT 10SM OVC110 19/M03 A3002 RMK AO2 T01911031 $,0,7,0,16090,0,0,0,
2026-03-29 00:55:00,METAR KHCR 290055Z AUTO 21007KT 9SM BKN100 20/M04 A3002 RMK AO2 T02011040 $,0,7,0,14481,0,0,0,
2026-03-29 00:35:00,METAR KHCR 290035Z AUTO 27011G22KT 9SM BKN110 21/M04 A3002 RMK AO2 T02071045 $,0,11,1,14481,0,0,0,
2026-03-29 00:15:00,METAR KHCR 290015Z AUTO 21013G20KT 9SM BKN110 20/M04 A3001 RMK AO2 T02041040 $,0,13,1,14481,0,0,0,
2026-03-28 23:55:00,METAR KHCR 282355Z AUTO 20006KT 10SM SCT120 21/M04 A3000 RMK AO2 T02121038 10242 20168 56009 $,0,6,0,16090,0,0,0,
2026-03-28 23:35:00,METAR KHCR 282335Z AUTO 18006KT 10SM SCT120 21/M04 A3000 RMK AO2 T02131039 $,0,6,0,16090,0,0,0,
2026-03-28 23:15:00,METAR KHCR 282315Z AUTO 22009KT 10SM SCT120 22/M04 A3001 RMK AO2 T02181036 $,0,9,0,16090,0,0,0,
2026-03-28 22:55:00,METAR KHCR 282255Z AUTO 27008KT 10SM SCT120 BKN140 22/M04 A3000 RMK AO2 T02231043 $,0,8,0,16090,0,0,0,
2026-03-28 22:35:00,METAR KHCR 282235Z AUTO 27009KT 10SM SCT120 23/M04 A3000 RMK AO2 T02301036 $,0,9,0,16090,0,0,0,
2026-03-28 22:15:00,METAR KHCR 282215Z AUTO VRB06KT 10SM CLR 23/M05 A3000 RMK AO2 T02281054 $,0,6,0,16090,0,0,0,
2026-03-28 21:55:00,METAR KHCR 282155Z AUTO 22011KT 10SM CLR 24/M05 A3001 RMK AO2 T02371048 $,0,11,0,16090,0,0,0,
2026-03-28 21:35:00,METAR KHCR 282135Z AUTO 23010KT 10SM FEW220 24/M04 A3002 RMK AO2 T02391044 $,0,10,0,16090,0,0,0,
2026-03-28 21:15:00,METAR KHCR 282115Z AUTO 21009KT 10SM CLR 23/M05 A3003 RMK AO2 T02261050 $,0,9,0,16090,0,0,0,
2026-03-28 20:55:00,METAR KHCR 282055Z AUTO 23010KT 10SM CLR 23/M05 A3003 RMK AO2 T02341047 56022 $,0,10,0,16090,0,0,0,
2026-03-28 20:35:00,METAR KHCR 282035Z AUTO 23011KT 10SM CLR 24/M05 A3004 RMK AO2 T02361047 $,0,11,0,16090,0,0,0,
2026-03-28 20:15:00,METAR KHCR 282015Z AUTO 22011KT 10SM CLR 23/M05 A3005 RMK AO2 T02351045 $,0,11,0,16090,0,0,0,
2026-03-28 19:55:00,METAR KHCR 281955Z AUTO 23014G21KT 10SM CLR 23/M05 A3006 RMK AO2 T02321047 $,0,14,1,16090,0,0,0,
2026-03-28 19:35:00,METAR KHCR 281935Z AUTO 24016KT 10SM CLR 23/M05 A3006 RMK AO2 T02301050 $,0,16,0,16090,0,0,0,
2026-03-28 19:15:00,METAR KHCR 281915Z AUTO 24016KT 10SM CLR 23/M05 A3007 RMK AO2 T02301054 $,0,16,0,16090,0,0,0,
2026-03-28 18:55:00,METAR KHCR 281855Z AUTO 24014KT 10SM CLR 23/M05 A3007 RMK AO2 T02261052 $,0,14,0,16090,0,0,0,
2026-03-28 18:35:00,METAR KHCR 281835Z AUTO VRB06KT 10SM CLR 21/M03 A3008 RMK AO2 T02141027 $,0,6,0,16090,0,0,0,
2026-03-28 18:15:00,METAR KHCR 281815Z AUTO 00000KT 10SM FEW130 18/M02 A3009 RMK AO2 T01821017 $,0,0,0,16090,0,0,0,
2026-03-28 17:55:00,METAR KHCR 281755Z AUTO 00000KT 10SM FEW130 16/M02 A3011 RMK AO2 T01601019 10161 21010 58010 $,0,0,0,16090,0,0,0,
2026-03-28 17:35:00,METAR KHCR 281735Z AUTO 00000KT 10SM CLR 15/M04 A3012 RMK AO2 T01461040 $,0,0,0,16090,0,0,0,
2026-03-28 17:15:00,METAR KHCR 281715Z AUTO 00000KT 10SM CLR 13/M04 A3013 RMK AO2 T01311036 $,0,0,0,16090,0,0,0,
2026-03-28 16:55:00,METAR KHCR 281655Z AUTO 00000KT 10SM CLR 11/M03 A3014 RMK AO2 T01141030 $,0,0,0,16090,0,0,0,
2026-03-28 16:35:00,METAR KHCR 281635Z AUTO 00000KT 10SM CLR 10/M03 A3014 RMK AO2 T01041030 $,0,0,0,16090,0,0,0,
2026-03-28 16:15:00,METAR KHCR 281615Z AUTO 00000KT 10SM FEW140 09/M02 A3015 RMK AO2 T00951023 $,0,0,0,16090,0,0,0,
2026-03-28 15:55:00,METAR KHCR 281555Z AUTO 00000KT 10SM BKN140 07/M01 A3015 RMK AO2 T00731012 $,0,0,0,16090,0,0,0,
2026-03-28 15:35:00,METAR KHCR 281535Z AUTO 00000KT 9SM SCT120 BKN150 06/00 A3015 RMK AO2 T00620002 $,0,0,0,14481,0,0,0,
2026-03-28 15:15:00,METAR KHCR 281515Z AUTO 00000KT 10SM SCT120 06/01 A3015 RMK AO2 T00560005 $,0,0,0,16090,0,0,0,
2026-03-28 14:55:00,METAR KHCR 281455Z AUTO 00000KT 10SM BKN120 05/M01 A3015 RMK AO2 T00491012 53003 $,0,0,0,16090,0,0,0,
2026-03-28 14:35:00,METAR KHCR 281435Z AUTO 00000KT 9SM BKN120 BKN160 04/M02 A3015 RMK AO2 T00431016 $,0,0,0,14481,0,0,0,
2026-03-28 14:15:00,METAR KHCR 281415Z AUTO 00000KT 10SM FEW160 03/M01 A3015 RMK AO2 T00351014 $,0,0,0,16090,0,0,0,
2026-03-28 13:55:00,METAR KHCR 281355Z AUTO 00000KT 9SM FEW140 01/M03 A3014 RMK AO2 T00141034 $,0,0,0,14481,0,0,0,
2026-03-28 13:35:00,METAR KHCR 281335Z AUTO 00000KT 9SM BKN140 01/M04 A3014 RMK AO2 T00061038 $,0,0,0,14481,0,0,0,
2026-03-28 13:15:00,METAR KHCR 281315Z AUTO 00000KT 9SM BKN130 M01/M04 A3013 RMK AO2 T10061043 $,0,0,0,14481,0,0,0,
2026-03-28 12:55:00,METAR KHCR 281255Z AUTO 00000KT 10SM CLR M01/M05 A3013 RMK AO2 T10061046 $,0,0,0,16090,0,0,0,
2026-03-28 12:35:00,METAR KHCR 281235Z AUTO 00000KT 10SM CLR 00/M05 A3014 RMK AO2 T00021045 $,0,0,0,16090,0,0,0,
2026-03-28 12:15:00,METAR KHCR 281215Z AUTO 00000KT 10SM CLR 00/M04 A3014 RMK AO2 T00011043 $,0,0,0,16090,0,0,0,
2026-03-28 11:55:00,METAR KHCR 281155Z AUTO 00000KT 10SM CLR M01/M04 A3013 RMK AO2 T10061041 10056 21009 56008 $,0,0,0,16090,0,0,0,
2026-03-28 11:35:00,METAR KHCR 281135Z AUTO 00000KT 10SM CLR M00/M04 A3013 RMK AO2 T10001041 $,0,0,0,16090,0,0,0,
2026-03-28 11:15:00,METAR KHCR 281115Z AUTO 00000KT 10SM CLR 00/M05 A3014 RMK AO2 T00021047 $,0,0,0,16090,0,0,0,
2026-03-28 10:55:00,METAR KHCR 281055Z AUTO 00000KT 10SM CLR 01/M05 A3014 RMK AO2 T00111046 $,0,0,0,16090,0,0,0,
2026-03-28 10:35:00,METAR KHCR 281035Z AUTO 00000KT 10SM CLR 02/M04 A3014 RMK AO2 T00171044 $,0,0,0,16090,0,0,0,
2026-03-28 10:15:00,METAR KHCR 281015Z AUTO 10003KT 10SM CLR 01/M04 A3014 RMK AO2 T00101040 $,0,3,0,16090,0,0,0,
2026-03-28 09:55:00,METAR KHCR 280955Z AUTO 00000KT 10SM CLR 01/M05 A3015 RMK AO2 T00091045 $,0,0,0,16090,0,0,0,
2026-03-28 09:35:00,METAR KHCR 280935Z AUTO 00000KT 10SM CLR 01/M04 A3015 RMK AO2 T00101044 $,0,0,0,16090,0,0,0,
2026-03-28 09:15:00,METAR KHCR 280915Z AUTO 00000KT 10SM CLR 01/M04 A3016 RMK AO2 T00101040 $,0,0,0,16090,0,0,0,
2026-03-28 08:55:00,METAR KHCR 280855Z AUTO 00000KT 10SM CLR 02/M04 A3016 RMK AO2 T00191037 58008 $,0,0,0,16090,0,0,0,
2026-03-28 08:35:00,METAR KHCR 280835Z AUTO 00000KT 10SM CLR 02/M04 A3017 RMK AO2 T00231039 $,0,0,0,16090,0,0,0,
2026-03-28 08:15:00,METAR KHCR 280815Z AUTO 00000KT 10SM CLR 02/M04 A3017 RMK AO2 T00161040 $,0,0,0,16090,0,0,0,
2026-03-28 07:55:00,METAR KHCR 280755Z AUTO 00000KT 10SM CLR 03/M04 A3018 RMK AO2 T00271041 $,0,0,0,16090,0,0,0,
2026-03-28 07:35:00,METAR KHCR 280735Z AUTO 00000KT 10SM CLR 02/M04 A3018 RMK AO2 T00201044 $,0,0,0,16090,0,0,0,
2026-03-28 07:15:00,METAR KHCR 280715Z AUTO 00000KT 10SM CLR 02/M05 A3019 RMK AO2 T00191046 $,0,0,0,16090,0,0,0,
2026-03-28 06:55:00,METAR KHCR 280655Z AUTO 00000KT 10SM CLR 03/M05 A3019 RMK AO2 T00331052 402041041 $,0,0,0,16090,0,0,0,
2026-03-28 06:35:00,METAR KHCR 280635Z AUTO 15003KT 10SM CLR 02/M05 A3019 RMK AO2 T00251046 $,0,3,0,16090,0,0,0,
2026-03-28 06:15:00,METAR KHCR 280615Z AUTO 00000KT 10SM CLR 03/M04 A3019 RMK AO2 T00291045 $,0,0,0,16090,0,0,0,
2026-03-28 05:55:00,METAR KHCR 280555Z AUTO 00000KT 10SM CLR 06/M05 A3019 RMK AO2 T00591049 10191 20031 51006 $,0,0,0,16090,0,0,0,
2026-03-28 05:35:00,METAR KHCR 280535Z AUTO 00000KT 10SM CLR 04/M05 A3019 RMK AO2 T00381047 $,0,0,0,16090,0,0,0,
2026-03-28 05:15:00,METAR KHCR 280515Z AUTO 00000KT 10SM CLR 06/M05 A3019 RMK AO2 T00581052 $,0,0,0,16090,0,0,0,
2026-03-28 04:55:00,METAR KHCR 280455Z AUTO 17003KT 10SM CLR 04/M04 A3019 RMK AO2 T00431042 $,0,3,0,16090,0,0,0,
2026-03-28 04:35:00,METAR KHCR 280435Z AUTO 00000KT 10SM CLR 06/M05 A3019 RMK AO2 T00621054 $,0,0,0,16090,0,0,0,
2026-03-28 04:15:00,METAR KHCR 280415Z AUTO 00000KT 10SM CLR 07/M05 A3019 RMK AO2 T00661055 $,0,0,0,16090,0,0,0,
2026-03-28 03:55:00,METAR KHCR 280355Z AUTO 00000KT 10SM CLR 08/M06 A3018 RMK AO2 T00831060 $,0,0,0,16090,0,0,0,
2026-03-28 03:35:00,METAR KHCR 280335Z AUTO 19003KT 10SM CLR 08/M06 A3018 RMK AO2 T00841059 $,0,3,0,16090,0,0,0,
2026-03-28 03:15:00,METAR KHCR 280315Z AUTO 00000KT 10SM CLR 09/M05 A3018 RMK AO2 T00941053 $,0,0,0,16090,0,0,0,
2026-03-28 02:55:00,METAR KHCR 280255Z AUTO 00000KT 10SM CLR 14/M07 A3017 RMK AO2 T01401068 55000 $,0,0,0,16090,0,0,0,
2026-03-28 02:35:00,METAR KHCR 280235Z AUTO 00000KT 10SM CLR 14/M07 A3017 RMK AO2 T01381065 $,0,0,0,16090,0,0,0,
2026-03-28 02:15:00,METAR KHCR 280215Z AUTO VRB03KT 8SM CLR 17/M12 A3016 RMK AO2 T01671121 $,0,3,0,12872,0,0,0,
2026-03-28 01:55:00,METAR KHCR 280155Z AUTO 00000KT 10SM CLR 16/M10 A3016 RMK AO2 T01551101 $,0,0,0,16090,0,0,0,
2026-03-28 01:35:00,METAR KHCR 280135Z AUTO 23004KT 10SM CLR 16/M09 A3016 RMK AO2 T01601088 $,0,4,0,16090,0,0,0,
2026-03-28 01:15:00,METAR KHCR 280115Z AUTO 22003KT 10SM CLR 16/M08 A3016 RMK AO2 T01641077 $,0,3,0,16090,0,0,0,
2026-03-28 00:55:00,METAR KHCR 280055Z AUTO 22006KT 10SM CLR 18/M08 A3016 RMK AO2 T01781079 $,0,6,0,16090,0,0,0,
2026-03-28 00:35:00,METAR KHCR 280035Z AUTO 21005KT 10SM CLR 19/M08 A3016 RMK AO2 T01851083 $,0,5,0,16090,0,0,0,
2026-03-28 00:15:00,METAR KHCR 280015Z AUTO 23008KT 10SM CLR 19/M06 A3017 RMK AO2 T01901060 $,0,8,0,16090,0,0,0,
2026-03-27 23:55:00,METAR KHCR 272355Z AUTO 24007KT 10SM CLR 19/M06 A3017 RMK AO2 T01941059 10204 20105 56024 $,0,7,0,16090,0,0,0,
2026-03-27 23:35:00,METAR KHCR 272335Z AUTO VRB04KT 10SM CLR 20/M10 A3017 RMK AO2 T01981101 $,0,4,0,16090,0,0,0,
2026-03-27 23:15:00,METAR KHCR 272315Z AUTO 29004KT 10SM CLR 20/M11 A3018 RMK AO2 T02021113 $,0,4,0,16090,0,0,0,
2026-03-27 22:55:00,METAR KHCR 272255Z AUTO 00000KT 10SM CLR 20/M10 A3019 RMK AO2 T01971099 $,0,0,0,16090,0,0,0,
2026-03-27 22:35:00,METAR KHCR 272235Z AUTO 00000KT 10SM CLR 20/M10 A3019 RMK AO2 T01961098 $,0,0,0,16090,0,0,0,
2026-03-27 22:15:00,METAR KHCR 272215Z AUTO 00000KT 10SM CLR 19/M10 A3020 RMK AO2 T01931096 $,0,0,0,16090,0,0,0,
2026-03-27 21:55:00,METAR KHCR 272155Z AUTO 00000KT 9SM CLR 19/M09 A3022 RMK AO2 T01881086 $,0,0,0,14481,0,0,0,
2026-03-27 21:35:00,METAR KHCR 272135Z AUTO 00000KT 10SM CLR 19/M08 A3022 RMK AO2 T01861084 $,0,0,0,16090,0,0,0,
2026-03-27 21:15:00,METAR KHCR 272115Z AUTO 00000KT 10SM CLR 18/M10 A3024 RMK AO2 T01781097 $,0,0,0,16090,0,0,0,
2026-03-27 20:55:00,METAR KHCR 272055Z AUTO 00000KT 10SM CLR 17/M09 A3026 RMK AO2 T01721093 58032 $,0,0,0,16090,0,0,0,
2026-03-27 20:35:00,METAR KHCR 272035Z AUTO 00000KT 10SM CLR 17/M09 A3026 RMK AO2 T01671089 $,0,0,0,16090,0,0,0,
2026-03-27 20:15:00,METAR KHCR 272015Z AUTO 00000KT 10SM CLR 16/M09 A3028 RMK AO2 T01621086 $,0,0,0,16090,0,0,0,
2026-03-27 19:55:00,METAR KHCR 271955Z AUTO 31003KT 10SM CLR 15/M10 A3029 RMK AO2 T01471100 $,0,3,0,16090,0,0,0,
2026-03-27 19:35:00,METAR KHCR 271935Z AUTO 00000KT 10SM CLR 14/M12 A3030 RMK AO2 T01431117 $,0,0,0,16090,0,0,0,
2026-03-27 19:15:00,METAR KHCR 271915Z AUTO 00000KT 10SM FEW350 14/M09 A3031 RMK AO2 T01361090 $,0,0,0,16090,0,0,0,
2026-03-27 18:55:00,METAR KHCR 271855Z AUTO 00000KT 10SM CLR 12/M08 A3033 RMK AO2 T01201084 $,0,0,0,16090,0,0,0,
2026-03-27 18:35:00,METAR KHCR 271835Z AUTO 00000KT 10SM CLR 11/M08 A3034 RMK AO2 T01151079 $,0,0,0,16090,0,0,0,
2026-03-27 18:15:00,METAR KHCR 271815Z AUTO 00000KT 10SM CLR 11/M07 A3035 RMK AO2 T01081071 $,0,0,0,16090,0,0,0,
2026-03-27 17:55:00,METAR KHCR 271755Z AUTO 00000KT 10SM CLR 10/M08 A3037 RMK AO2 T00991080 10099 21041 58014 $,0,0,0,16090,0,0,0,
2026-03-27 17:35:00,METAR KHCR 271735Z AUTO 00000KT 10SM CLR 09/M08 A3038 RMK AO2 T00931081 $,0,0,0,16090,0,0,0,
2026-03-27 17:15:00,METAR KHCR 271715Z AUTO 00000KT 10SM FEW230 08/M07 A3038 RMK AO2 T00781075 $,0,0,0,16090,0,0,0,
2026-03-27 16:55:00,METAR KHCR 271655Z AUTO 00000KT 10SM CLR 07/M07 A3039 RMK AO2 T00711066 $,0,0,0,16090,0,0,0,
2026-03-27 16:35:00,METAR KHCR 271635Z AUTO 00000KT 10SM CLR 06/M07 A3040 RMK AO2 T00581069 $,0,0,0,16090,0,0,0,
2026-03-27 16:15:00,METAR KHCR 271615Z AUTO 00000KT 10SM CLR 05/M07 A3040 RMK AO2 T00481069 $,0,0,0,16090,0,0,0,
2026-03-27 15:55:00,METAR KHCR 271555Z AUTO 00000KT 10SM CLR 04/M07 A3040 RMK AO2 T00401071 $,0,0,0,16090,0,0,0,
2026-03-25 14:55:00,METAR KHCR 251455Z AUTO 00000KT 10SM CLR 07/04 A3017 RMK AO2 T00650042 53003 $,0,0,0,16090,0,0,0,
2026-03-25 14:35:00,METAR KHCR 251435Z AUTO 00000KT 10SM CLR 06/04 A3017 RMK AO2 T00610038 $,0,0,0,16090,0,0,0,
2026-03-25 14:15:00,METAR KHCR 251415Z AUTO 00000KT 9SM CLR 05/02 A3017 RMK AO2 T00470021 $,0,0,0,14481,0,0,0,
2026-03-25 13:55:00,METAR KHCR 251355Z AUTO 00000KT 10SM CLR 02/01 A3016 RMK AO2 T00240007 $,0,0,0,16090,0,0,0,
2026-03-25 13:35:00,METAR KHCR 251335Z AUTO 00000KT 10SM CLR 01/M00 A3016 RMK AO2 T00131001 $,0,0,0,16090,0,0,0,
2026-03-25 13:15:00,METAR KHCR 251315Z AUTO 00000KT 10SM CLR 01/00 A3016 RMK AO2 T00150001 $,0,0,0,16090,0,0,0,
2026-03-25 12:55:00,METAR KHCR 251255Z AUTO 00000KT 10SM CLR 02/00 A3016 RMK AO2 T00190001 $,0,0,0,16090,0,0,0,
2026-03-25 12:35:00,METAR KHCR 251235Z AUTO 00000KT 10SM CLR 01/M01 A3015 RMK AO2 T00081006 $,0,0,0,16090,0,0,0,
2026-03-25 12:15:00,METAR KHCR 251215Z AUTO 00000KT 10SM CLR 03/01 A3016 RMK AO2 T00300009 $,0,0,0,16090,0,0,0,
2026-03-25 11:55:00,METAR KHCR 251155Z AUTO 00000KT 10SM CLR 05/01 A3016 RMK AO2 T00460015 10094 20019 53003 $,0,0,0,16090,0,0,0,
2026-03-25 11:35:00,METAR KHCR 251135Z AUTO 00000KT 10SM CLR 03/01 A3015 RMK AO2 T00310006 $,0,0,0,16090,0,0,0,
2026-03-25 11:15:00,METAR KHCR 251115Z AUTO 00000KT 10SM CLR 03/01 A3015 RMK AO2 T00340007 $,0,0,0,16090,0,0,0,
2026-03-25 10:55:00,METAR KHCR 251055Z AUTO 00000KT 10SM CLR 03/01 A3015 RMK AO2 T00300005 $,0,0,0,16090,0,0,0,
2026-03-25 10:35:00,METAR KHCR 251035Z AUTO 00000KT 10SM CLR 04/01 A3014 RMK AO2 T00390012 $,0,0,0,16090,0,0,0,
2026-03-25 10:15:00,METAR KHCR 251015Z AUTO 00000KT 10SM CLR 05/02 A3015 RMK AO2 T00500018 $,0,0,0,16090,0,0,0,
2026-03-25 09:55:00,METAR KHCR 250955Z AUTO 00000KT 10SM CLR 06/02 A3015 RMK AO2 T00560020 $,0,0,0,16090,0,0,0,
2026-03-25 09:35:00,METAR KHCR 250935Z AUTO 00000KT 10SM CLR 07/02 A3015 RMK AO2 T00700020 $,0,0,0,16090,0,0,0,
2026-03-25 09:15:00,METAR KHCR 250915Z AUTO 00000KT 10SM CLR 06/02 A3015 RMK AO2 T00620018 $,0,0,0,16090,0,0,0,
2026-03-25 08:55:00,METAR KHCR 250855Z AUTO 12004KT 10SM CLR 06/02 A3015 RMK AO2 T00590021 52003 $,0,4,0,16090,0,0,0,
2026-03-25 08:35:00,METAR KHCR 250835Z AUTO 15003KT 10SM CLR 06/02 A3014 RMK AO2 T00560019 $,0,3,0,16090,0,0,0,
2026-03-25 08:15:00,METAR KHCR 250815Z AUTO 00000KT 10SM CLR 07/02 A3014 RMK AO2 T00680018 $,0,0,0,16090,0,0,0,
2026-03-25 07:55:00,METAR KHCR 250755Z AUTO 11004KT 10SM CLR 06/02 A3014 RMK AO2 T00640021 $,0,4,0,16090,0,0,0,
2026-03-25 07:35:00,METAR KHCR 250735Z AUTO 11004KT 10SM CLR 07/02 A3014 RMK AO2 T00720023 $,0,4,0,16090,0,0,0,
2026-03-25 07:15:00,METAR KHCR 250715Z AUTO 13004KT 10SM CLR 06/02 A3014 RMK AO2 T00630021 $,0,4,0,16090,0,0,0,
2026-03-25 06:55:00,METAR KHCR 250655Z AUTO 11003KT 10SM CLR 07/02 A3014 RMK AO2 T00670023 402520006 $,0,3,0,16090,0,0,0,
2026-03-25 06:35:00,METAR KHCR 250635Z AUTO 11005KT 10SM CLR 09/03 A3014 RMK AO2 T00880026 $,0,5,0,16090,0,0,0,
2026-03-25 06:15:00,METAR KHCR 250615Z AUTO 00000KT 10SM CLR 07/02 A3014 RMK AO2 T00720025 $,0,0,0,16090,0,0,0,
2026-03-25 05:55:00,METAR KHCR 250555Z AUTO 00000KT 10SM CLR 09/03 A3014 RMK AO2 T00900025 10243 20076 52009 $,0,0,0,16090,0,0,0,
2026-03-25 05:35:00,METAR KHCR 250535Z AUTO 00000KT 10SM CLR 08/03 A3013 RMK AO2 T00850026 $,0,0,0,16090,0,0,0,
2026-03-25 05:15:00,METAR KHCR 250515Z AUTO 00000KT 10SM CLR 09/03 A3013 RMK AO2 T00850028 $,0,0,0,16090,0,0,0,
2026-03-25 04:55:00,METAR KHCR 250455Z AUTO 00000KT 10SM CLR 09/03 A3012 RMK AO2 T00870028 $,0,0,0,16090,0,0,0,
2026-03-25 04:35:00,METAR KHCR 250435Z AUTO 00000KT 10SM CLR 09/03 A3012 RMK AO2 T00850027 $,0,0,0,16090,0,0,0,
2026-03-25 04:15:00,METAR KHCR 250415Z AUTO 00000KT 10SM CLR 11/03 A3012 RMK AO2 T01080028 $,0,0,0,16090,0,0,0,
2026-03-25 03:55:00,METAR KHCR 250355Z AUTO 00000KT 10SM CLR 11/03 A3012 RMK AO2 T01110030 $,0,0,0,16090,0,0,0,
2026-03-25 03:35:00,METAR KHCR 250335Z AUTO 17003KT 10SM CLR 11/03 A3011 RMK AO2 T01090031 $,0,3,0,16090,0,0,0,
2026-03-25 03:15:00,METAR KHCR 250315Z AUTO 13004KT 10SM CLR 12/03 A3011 RMK AO2 T01180034 $,0,4,0,16090,0,0,0,
2026-03-25 02:55:00,METAR KHCR 250255Z AUTO 12004KT 10SM CLR 12/03 A3011 RMK AO2 T01230032 53006 $,0,4,0,16090,0,0,0,
2026-03-25 02:35:00,METAR KHCR 250235Z AUTO 08003KT 10SM CLR 14/03 A3010 RMK AO2 T01440033 $,0,3,0,16090,0,0,0,
2026-03-25 02:15:00,METAR KHCR 250215Z AUTO 00000KT 10SM CLR 17/02 A3010 RMK AO2 T01740025 $,0,0,0,16090,0,0,0,
2026-03-25 01:55:00,METAR KHCR 250155Z AUTO 00000KT 10SM CLR 18/03 A3009 RMK AO2 T01830027 $,0,0,0,16090,0,0,0,
2026-03-25 01:35:00,METAR KHCR 250135Z AUTO 00000KT 10SM CLR 20/03 A3009 RMK AO2 T02030029 $,0,0,0,16090,0,0,0,
2026-03-25 01:15:00,METAR KHCR 250115Z AUTO 23007KT 10SM CLR 22/03 A3009 RMK AO2 T02190032 $,0,7,0,16090,0,0,0,
2026-03-25 00:55:00,METAR KHCR 250055Z AUTO 23006KT 10SM CLR 23/03 A3008 RMK AO2 T02350030 $,0,6,0,16090,0,0,0,
2026-03-25 00:35:00,METAR KHCR 250035Z AUTO 24006KT 10SM CLR 24/03 A3008 RMK AO2 T02380033 $,0,6,0,16090,0,0,0,
2026-03-25 00:15:00,METAR KHCR 250015Z AUTO 24006KT 10SM CLR 24/03 A3009 RMK AO2 T02410034 $,0,6,0,16090,0,0,0,
2026-03-24 23:55:00,METAR KHCR 242355Z AUTO 22005KT 10SM CLR 24/03 A3008 RMK AO2 T02440028 10252 20172 58009 $,0,5,0,16090,0,0,0,
2026-03-24 23:35:00,METAR KHCR 242335Z AUTO 27005KT 10SM CLR 25/02 A3009 RMK AO2 T02450024 $,0,5,0,16090,0,0,0,
2026-03-24 23:15:00,METAR KHCR 242315Z AUTO 24008KT 9SM CLR 25/03 A3009 RMK AO2 T02510031 $,0,8,0,14481,0,0,0,
2026-03-24 22:55:00,METAR KHCR 242255Z AUTO 25006KT 10SM CLR 25/02 A3010 RMK AO2 T02480025 $,0,6,0,16090,0,0,0,
2026-03-24 22:35:00,METAR KHCR 242235Z AUTO 22005KT 10SM CLR 25/03 A3010 RMK AO2 T02510026 $,0,5,0,16090,0,0,0,
2026-03-24 22:15:00,METAR KHCR 242215Z AUTO 22006KT 10SM CLR 25/02 A3010 RMK AO2 T02500023 $,0,6,0,16090,0,0,0,
2026-03-24 21:55:00,METAR KHCR 242155Z AUTO VRB06KT 10SM CLR 25/02 A3011 RMK AO2 T02480024 $,0,6,0,16090,0,0,0,
2026-03-24 21:35:00,METAR KHCR 242135Z AUTO 21007KT 10SM CLR 25/02 A3011 RMK AO2 T02470020 $,0,7,0,16090,0,0,0,
2026-03-24 21:15:00,METAR KHCR 242115Z AUTO 21007G16KT 170V240 10SM CLR 24/02 A3011 RMK AO2 T02440022 $,0,7,1,16090,0,0,0,
2026-03-24 20:55:00,METAR KHCR 242055Z AUTO 20008G18KT 150V230 10SM CLR 24/02 A3011 RMK AO2 T02410020 56009 $,0,8,1,16090,0,0,0,
2026-03-24 20:35:00,METAR KHCR 242035Z AUTO 23011G17KT 10SM CLR 24/02 A3012 RMK AO2 T02420024 $,0,11,1,16090,0,0,0,
2026-03-24 20:15:00,METAR KHCR 242015Z AUTO 22008KT 190V260 10SM CLR 24/02 A3012 RMK AO2 T02380019 $,0,8,0,16090,0,0,0,
2026-03-24 19:55:00,METAR KHCR 241955Z AUTO 23011G16KT 10SM CLR 23/02 A3012 RMK AO2 T02340019 $,0,11,1,16090,0,0,0,
2026-03-24 19:35:00,METAR KHCR 241935Z AUTO 21009G15KT 180V240 10SM CLR 23/02 A3013 RMK AO2 T02330017 $,0,9,1,16090,0,0,0,
2026-03-24 19:15:00,METAR KHCR 241915Z AUTO 23008G18KT 10SM CLR 23/02 A3013 RMK AO2 T02330022 $,0,8,1,16090,0,0,0,
2026-03-24 18:55:00,METAR KHCR 241855Z AUTO 23012KT 10SM CLR 23/02 A3013 RMK AO2 T02300020 $,0,12,0,16090,0,0,0,
2026-03-24 18:35:00,METAR KHCR 241835Z AUTO 22011KT 10SM CLR 23/02 A3013 RMK AO2 T02280020 $,0,11,0,16090,0,0,0,
2026-03-24 18:15:00,METAR KHCR 241815Z AUTO 00000KT 10SM CLR 18/01 A3014 RMK AO2 T01850015 $,0,0,0,16090,0,0,0,
2026-03-24 17:55:00,METAR KHCR 241755Z AUTO 00000KT 10SM CLR 16/02 A3015 RMK AO2 T01630015 10165 20006 58005 $,0,0,0,16090,0,0,0,
2026-03-24 17:35:00,METAR KHCR 241735Z AUTO 00000KT 10SM CLR 15/01 A3015 RMK AO2 T01530014 $,0,0,0,16090,0,0,0,
2026-03-24 17:15:00,METAR KHCR 241715Z AUTO 00000KT 10SM CLR 14/01 A3015 RMK AO2 T01420011 $,0,0,0,16090,0,0,0,
2026-03-24 16:55:00,METAR KHCR 241655Z AUTO 00000KT 10SM CLR 13/01 A3015 RMK AO2 T01250014 $,0,0,0,16090,0,0,0,
2026-03-24 16:35:00,METAR KHCR 241635Z AUTO 00000KT 10SM CLR 12/01 A3015 RMK AO2 T01240009 $,0,0,0,16090,0,0,0,
2026-03-24 16:15:00,METAR KHCR 241615Z AUTO 13003KT 10SM CLR 11/01 A3015 RMK AO2 T01110014 $,0,3,0,16090,0,0,0,
2026-03-24 15:55:00,METAR KHCR 241555Z AUTO 00000KT 10SM CLR 08/01 A3016 RMK AO2 T00830014 $,0,0,0,16090,0,0,0,
2026-03-24 15:35:00,METAR KHCR 241535Z AUTO 00000KT 10SM CLR 08/01 A3016 RMK AO2 T00820008 $,0,0,0,16090,0,0,0,
2026-03-24 15:15:00,METAR KHCR 241515Z AUTO 00000KT 10SM CLR 07/01 A3016 RMK AO2 T00700015 $,0,0,0,16090,0,0,0,
2026-03-24 14:55:00,METAR KHCR 241455Z AUTO 00000KT 10SM CLR 05/02 A3016 RMK AO2 T00490018 53005 $,0,0,0,16090,0,0,0,
2026-03-24 14:35:00,METAR KHCR 241435Z AUTO 00000KT 10SM CLR 05/01 A3016 RMK AO2 T00460013 $,0,0,0,16090,0,0,0,
2026-03-24 14:15:00,METAR KHCR 241415Z AUTO 00000KT 10SM CLR 04/01 A3016 RMK AO2 T00420009 $,0,0,0,16090,0,0,0,
2026-03-24 13:55:00,METAR KHCR 241355Z AUTO 17004KT 8SM CLR 02/M00 A3015 RMK AO2 T00181001 $,0,4,0,12872,0,0,0,
2026-03-24 13:35:00,METAR KHCR 241335Z AUTO 00000KT 9SM CLR 03/00 A3015 RMK AO2 T00300002 $,0,0,0,14481,0,0,0,
2026-03-24 13:15:00,METAR KHCR 241315Z AUTO 11006KT 9SM CLR 01/M00 A3013 RMK AO2 T00091003 $,0,6,0,14481,0,0,0,
2026-03-24 12:55:00,METAR KHCR 241255Z AUTO 00000KT 10SM CLR 02/00 A3014 RMK AO2 T00240005 $,0,0,0,16090,0,0,0,
2026-03-24 12:35:00,METAR KHCR 241235Z AUTO 25003KT 9SM CLR 03/M01 A3014 RMK AO2 T00261006 $,0,3,0,14481,0,0,0,
2026-03-24 12:15:00,METAR KHCR 241215Z AUTO 00000KT 10SM CLR 01/M01 A3014 RMK AO2 T00121014 $,0,0,0,16090,0,0,0,
2026-03-24 11:55:00,METAR KHCR 241155Z AUTO 12003KT 10SM CLR 02/M01 A3014 RMK AO2 T00171007 10072 20007 51007 $,0,3,0,16090,0,0,0,
2026-03-24 11:35:00,METAR KHCR 241135Z AUTO 14003KT 10SM CLR 01/M02 A3015 RMK AO2 T00091016 $,0,3,0,16090,0,0,0,
2026-03-24 11:15:00,METAR KHCR 241115Z AUTO 00000KT 10SM CLR 03/M01 A3013 RMK AO2 T00261009 $,0,0,0,16090,0,0,0,
2026-03-24 10:55:00,METAR KHCR 241055Z AUTO 00000KT 10SM CLR 02/M01 A3014 RMK AO2 T00161010 $,0,0,0,16090,0,0,0,
2026-03-24 10:35:00,METAR KHCR 241035Z AUTO 10003KT 10SM FEW095 03/M00 A3013 RMK AO2 T00301004 $,0,3,0,16090,0,0,0,
2026-03-24 10:15:00,METAR KHCR 241015Z AUTO 11004KT 10SM FEW095 02/M01 A3014 RMK AO2 T00171006 $,0,4,0,16090,0,0,0,
2026-03-24 09:55:00,METAR KHCR 240955Z AUTO 00000KT 10SM CLR 01/M01 A3013 RMK AO2 T00101012 $,0,0,0,16090,0,0,0,
2026-03-24 09:35:00,METAR KHCR 240935Z AUTO 00000KT 10SM CLR 04/00 A3013 RMK AO2 T00450002 $,0,0,0,16090,0,0,0,
2026-03-24 09:15:00,METAR KHCR 240915Z AUTO 00000KT 10SM CLR 03/M01 A3012 RMK AO2 T00331009 $,0,0,0,16090,0,0,0,
2026-03-24 08:55:00,METAR KHCR 240855Z AUTO 00000KT 10SM CLR 04/M01 A3012 RMK AO2 T00411008 51010 $,0,0,0,16090,0,0,0,
2026-03-24 08:35:00,METAR KHCR 240835Z AUTO 00000KT 10SM CLR 05/M00 A3012 RMK AO2 T00521000 $,0,0,0,16090,0,0,0,
2026-03-24 08:15:00,METAR KHCR 240815Z AUTO 00000KT 10SM CLR 04/M01 A3012 RMK AO2 T00391010 $,0,0,0,16090,0,0,0,
2026-03-24 07:55:00,METAR KHCR 240755Z AUTO 00000KT 10SM CLR 04/M01 A3012 RMK AO2 T00391008 $,0,0,0,16090,0,0,0,
2026-03-24 07:35:00,METAR KHCR 240735Z AUTO 15003KT 10SM CLR 05/M01 A3011 RMK AO2 T00511007 $,0,3,0,16090,0,0,0,
2026-03-24 07:15:00,METAR KHCR 240715Z AUTO 00000KT 10SM CLR 05/M00 A3011 RMK AO2 T00531004 $,0,0,0,16090,0,0,0,
2026-03-24 06:55:00,METAR KHCR 240655Z AUTO 09005KT 10SM CLR 06/M00 A3010 RMK AO2 T00631002 402230034 $,0,5,0,16090,0,0,0,
2026-03-24 06:35:00,METAR KHCR 240635Z AUTO 13003KT 10SM CLR 04/M01 A3010 RMK AO2 T00371005 $,0,3,0,16090,0,0,0,
2026-03-24 06:15:00,METAR KHCR 240615Z AUTO 00000KT 10SM CLR 06/M00 A3010 RMK AO2 T00601005 $,0,0,0,16090,0,0,0,
2026-03-24 05:55:00,METAR KHCR 240555Z AUTO 00000KT 10SM CLR 07/M01 A3009 RMK AO2 T00701006 10210 20070 51006 $,0,0,0,16090,0,0,0,
2026-03-24 05:35:00,METAR KHCR 240535Z AUTO 14003KT 10SM CLR 07/M00 A3009 RMK AO2 T00741004 $,0,3,0,16090,0,0,0,
2026-03-24 05:15:00,METAR KHCR 240515Z AUTO 09006KT 10SM CLR 09/M00 A3009 RMK AO2 T00901004 $,0,6,0,16090,0,0,0,
2026-03-24 04:55:00,METAR KHCR 240455Z AUTO 13007KT 10SM CLR 09/M00 A3009 RMK AO2 T00911000 $,0,7,0,16090,0,0,0,
2026-03-24 04:35:00,METAR KHCR 240435Z AUTO 12005KT 10SM CLR 07/00 A3008 RMK AO2 T00740002 $,0,5,0,16090,0,0,0,
2026-03-24 04:15:00,METAR KHCR 240415Z AUTO 00000KT 10SM CLR 08/00 A3008 RMK AO2 T00820000 $,0,0,0,16090,0,0,0,
2026-03-24 03:55:00,METAR KHCR 240355Z AUTO VRB04KT 10SM CLR 10/M00 A3008 RMK AO2 T01041001 $,0,4,0,16090,0,0,0,
2026-03-24 03:35:00,METAR KHCR 240335Z AUTO 10004KT 10SM CLR 11/M00 A3007 RMK AO2 T01131001 $,0,4,0,16090,0,0,0,
2026-03-24 03:15:00,METAR KHCR 240315Z AUTO 14005KT 10SM CLR 10/00 A3007 RMK AO2 T01020002 $,0,5,0,16090,0,0,0,
2026-03-24 02:55:00,METAR KHCR 240255Z AUTO 00000KT 10SM CLR 12/00 A3007 RMK AO2 T01160002 53012 $,0,0,0,16090,0,0,0,
2026-03-24 02:35:00,METAR KHCR 240235Z AUTO 13004KT 10SM CLR 11/00 A3007 RMK AO2 T01100004 $,0,4,0,16090,0,0,0,
2026-03-24 02:15:00,METAR KHCR 240215Z AUTO 35003KT 10SM CLR 15/00 A3005 RMK AO2 T01460002 $,0,3,0,16090,0,0,0,
2026-03-24 01:55:00,METAR KHCR 240155Z AUTO 17003KT 9SM CLR 15/00 A3004 RMK AO2 T01510000 $,0,3,0,14481,0,0,0,
2026-03-24 01:35:00,METAR KHCR 240135Z AUTO 00000KT 9SM CLR 16/01 A3004 RMK AO2 T01580007 $,0,0,0,14481,0,0,0,
2026-03-24 01:15:00,METAR KHCR 240115Z AUTO 23004KT 10SM CLR 18/00 A3004 RMK AO2 T01820005 $,0,4,0,16090,0,0,0,
2026-03-24 00:55:00,METAR KHCR 240055Z AUTO 26005KT 9SM CLR 19/01 A3004 RMK AO2 T01920008 $,0,5,0,14481,0,0,0,
2026-03-24 00:35:00,METAR KHCR 240035Z AUTO 25007KT 10SM CLR 20/01 A3003 RMK AO2 T01980007 $,0,7,0,16090,0,0,0,
2026-03-24 00:15:00,METAR KHCR 240015Z AUTO 26007KT 10SM CLR 21/00 A3003 RMK AO2 T02080000 $,0,7,0,16090,0,0,0,
2026-03-23 23:55:00,METAR KHCR 232355Z AUTO 00000KT 10SM BKN095 21/M01 A3002 RMK AO2 T02141008 10223 20132 56007 $,0,0,0,16090,0,0,0,
2026-03-23 23:35:00,METAR KHCR 232335Z AUTO 23005KT 10SM OVC095 22/M00 A3003 RMK AO2 T02161002 $,0,5,0,16090,0,0,0,
2026-03-23 23:15:00,METAR KHCR 232315Z AUTO 22005KT 9SM OVC095 21/M01 A3002 RMK AO2 T02121006 $,0,5,0,14481,0,0,0,
2026-03-23 22:55:00,METAR KHCR 232255Z AUTO 22004KT 10SM OVC095 21/M01 A3003 RMK AO2 T02141010 $,0,4,0,16090,0,0,0,
2026-03-23 22:35:00,METAR KHCR 232235Z AUTO 00000KT 10SM OVC095 22/M01 A3003 RMK AO2 T02171008 $,0,0,0,16090,0,0,0,
2026-03-23 22:15:00,METAR KHCR 232215Z AUTO 23004KT 10SM OVC095 22/M01 A3003 RMK AO2 T02191005 $,0,4,0,16090,0,0,0,
2026-03-23 21:55:00,METAR KHCR 232155Z AUTO 24006KT 10SM OVC100 22/00 A3003 RMK AO2 T02150004 $,0,6,0,16090,0,0,0,
2026-03-23 21:35:00,METAR KHCR 232135Z AUTO 24007KT 10SM OVC100 20/00 A3003 RMK AO2 T02040005 $,0,7,0,16090,0,0,0,
2026-03-23 21:15:00,METAR KHCR 232115Z AUTO 00000KT 10SM OVC100 20/00 A3004 RMK AO2 T01960004 $,0,0,0,16090,0,0,0,
2026-03-23 20:55:00,METAR KHCR 232055Z AUTO 00000KT 10SM OVC100 19/01 A3005 RMK AO2 T01860008 58011 $,0,0,0,16090,0,0,0,
2026-03-23 20:35:00,METAR KHCR 232035Z AUTO 00000KT 9SM OVC100 18/01 A3005 RMK AO2 T01810013 $,0,0,0,14481,0,0,0,
2026-03-23 20:15:00,METAR KHCR 232015Z AUTO 00000KT 8SM OVC100 17/01 A3006 RMK AO2 T01740010 $,0,0,0,12872,0,0,0,
2026-03-23 19:55:00,METAR KHCR 231955Z AUTO VRB03KT 10SM OVC100 17/01 A3007 RMK AO2 T01700010 $,0,3,0,16090,0,0,0,
2026-03-23 19:35:00,METAR KHCR 231935Z AUTO 09003KT 10SM OVC100 16/00 A3007 RMK AO2 T01620005 $,0,3,0,16090,0,0,0,
2026-03-23 19:15:00,METAR KHCR 231915Z AUTO 00000KT 10SM OVC100 15/01 A3008 RMK AO2 T01490010 $,0,0,0,16090,0,0,0,
2026-03-23 18:55:00,METAR KHCR 231855Z AUTO 00000KT 10SM OVC110 15/01 A3008 RMK AO2 T01480006 $,0,0,0,16090,0,0,0,
2026-03-23 18:35:00,METAR KHCR 231835Z AUTO 00000KT 10SM BKN110 BKN140 15/01 A3008 RMK AO2 T01450011 $,0,0,0,16090,0,0,0,
2026-03-23 18:15:00,METAR KHCR 231815Z AUTO 00000KT 9SM FEW100 BKN140 14/M00 A3009 RMK AO2 T01361000 $,0,0,0,14481,0,0,0,
2026-03-23 17:55:00,METAR KHCR 231755Z AUTO 00000KT 9SM SCT100 BKN150 13/01 A3009 RMK AO2 T01250008 10125 20044 50000 $,0,0,0,14481,0,0,0,
2026-03-23 17:35:00,METAR KHCR 231735Z AUTO 00000KT 10SM BKN160 12/02 A3011 RMK AO2 T01180016 $,0,0,0,16090,0,0,0,
2026-03-23 17:15:00,METAR KHCR 231715Z AUTO 00000KT 10SM FEW095 BKN160 11/01 A3010 RMK AO2 T01140012 $,0,0,0,16090,0,0,0,
2026-03-23 16:55:00,METAR KHCR 231655Z AUTO 00000KT 9SM SCT100 BKN160 11/00 A3010 RMK AO2 T01070002 $,0,0,0,14481,0,0,0,
2026-03-23 16:35:00,METAR KHCR 231635Z AUTO 00000KT 10SM FEW090 BKN150 BKN380 10/01 A3010 RMK AO2 T01020007 $,0,0,0,16090,0,0,0,
2026-03-23 16:15:00,METAR KHCR 231615Z AUTO 00000KT 9SM FEW120 BKN150 10/02 A3009 RMK AO2 T01020016 $,0,0,0,14481,0,0,0,
2026-03-23 15:55:00,METAR KHCR 231555Z AUTO 00000KT 9SM BKN120 BKN160 09/02 A3009 RMK AO2 T00920024 $,0,0,0,14481,0,0,0,
2026-03-23 15:35:00,METAR KHCR 231535Z AUTO 00000KT 10SM BKN120 OVC170 09/03 A3009 RMK AO2 T00860027 $,0,0,0,16090,0,0,0,
2026-03-23 15:15:00,METAR KHCR 231515Z AUTO 27003KT 6SM HZ OVC110 09/03 A3009 RMK AO2 T00850027 $,0,3,0,9654,0,0,0,
2026-03-23 14:55:00,METAR KHCR 231455Z AUTO 00000KT 6SM HZ BKN110 OVC130 08/02 A3009 RMK AO2 T00840015 53006 $,0,0,0,9654,0,0,0,
2026-03-23 14:35:00,METAR KHCR 231435Z AUTO 00000KT 9SM BKN110 OVC140 08/02 A3009 RMK AO2 T00780021 $,0,0,0,14481,0,0,0,
2026-03-23 14:15:00,METAR KHCR 231415Z AUTO 00000KT 10SM BKN110 OVC140 07/01 A3009 RMK AO2 T00720015 $,0,0,0,16090,0,0,0,
2026-03-23 13:55:00,METAR KHCR 231355Z AUTO 00000KT 9SM BKN120 OVC140 06/01 A3008 RMK AO2 T00560007 $,0,0,0,14481,0,0,0,
2026-03-23 13:35:00,METAR KHCR 231335Z AUTO 00000KT 10SM BKN120 BKN140 05/01 A3008 RMK AO2 T00540005 $,0,0,0,16090,0,0,0,
2026-03-23 13:15:00,METAR KHCR 231315Z AUTO 00000KT 10SM BKN130 OVC150 06/01 A3007 RMK AO2 T00550008 $,0,0,0,16090,0,0,0,
2026-03-23 12:55:00,METAR KHCR 231255Z AUTO 00000KT 10SM OVC150 05/01 A3007 RMK AO2 T00510008 $,0,0,0,16090,0,0,0,
2026-03-23 12:35:00,METAR KHCR 231235Z AUTO 11005KT 10SM OVC150 05/01 A3006 RMK AO2 T00460006 $,0,5,0,16090,0,0,0,
2026-03-23 12:15:00,METAR KHCR 231215Z AUTO 11003KT 10SM SCT130 BKN160 06/00 A3007 RMK AO2 T00560002 $,0,3,0,16090,0,0,0,
2026-03-23 11:55:00,METAR KHCR 231155Z AUTO 00000KT 10SM BKN160 05/00 A3007 RMK AO2 T00530001 10107 20051 55005 $,0,0,0,16090,0,0,0,
2026-03-23 11:35:00,METAR KHCR 231135Z AUTO 00000KT 10SM BKN160 06/00 A3007 RMK AO2 T00610002 $,0,0,0,16090,0,0,0,
2026-03-23 11:15:00,METAR KHCR 231115Z AUTO 00000KT 10SM OVC150 07/00 A3006 RMK AO2 T00680003 $,0,0,0,16090,0,0,0,
2026-03-23 10:55:00,METAR KHCR 231055Z AUTO 00000KT 10SM OVC150 08/M00 A3006 RMK AO2 T00751001 $,0,0,0,16090,0,0,0,
2026-03-23 10:35:00,METAR KHCR 231035Z AUTO 00000KT 10SM OVC150 07/00 A3006 RMK AO2 T00670004 $,0,0,0,16090,0,0,0,
2026-03-23 10:15:00,METAR KHCR 231015Z AUTO 13005KT 10SM OVC160 06/01 A3005 RMK AO2 T00580008 $,0,5,0,16090,0,0,0,
2026-03-23 09:55:00,METAR KHCR 230955Z AUTO 00000KT 10SM BKN150 OVC170 06/00 A3007 RMK AO2 T00600003 $,0,0,0,16090,0,0,0,
2026-03-23 09:35:00,METAR KHCR 230935Z AUTO 00000KT 10SM OVC150 07/01 A3007 RMK AO2 T00720005 $,0,0,0,16090,0,0,0,
2026-03-23 09:15:00,METAR KHCR 230915Z AUTO 00000KT 10SM OVC150 07/01 A3008 RMK AO2 T00700007 $,0,0,0,16090,0,0,0,
2026-03-23 08:55:00,METAR KHCR 230855Z AUTO 13004KT 10SM OVC140 07/01 A3008 RMK AO2 T00680011 56010 $,0,4,0,16090,0,0,0,
2026-03-23 08:35:00,METAR KHCR 230835Z AUTO 00000KT 10SM OVC140 08/01 A3009 RMK AO2 T00800006 $,0,0,0,16090,0,0,0,
2026-03-23 08:15:00,METAR KHCR 230815Z AUTO 00000KT 10SM OVC140 07/01 A3009 RMK AO2 T00740010 $,0,0,0,16090,0,0,0,
2026-03-23 07:55:00,METAR KHCR 230755Z AUTO 00000KT 10SM OVC150 07/00 A3009 RMK AO2 T00750003 $,0,0,0,16090,0,0,0,
2026-03-23 07:35:00,METAR KHCR 230735Z AUTO 00000KT 10SM OVC150 09/M00 A3009 RMK AO2 T00891005 $,0,0,0,16090,0,0,0,
2026-03-23 07:15:00,METAR KHCR 230715Z AUTO 00000KT 10SM OVC150 08/00 A3010 RMK AO2 T00800003 $,0,0,0,16090,0,0,0,
2026-03-23 06:55:00,METAR KHCR 230655Z AUTO 10004KT 10SM BKN150 OVC180 08/00 A3010 RMK AO2 T00840000 402120003 $,0,4,0,16090,0,0,0,
2026-03-23 06:35:00,METAR KHCR 230635Z AUTO 13003KT 10SM SCT140 BKN180 08/00 A3011 RMK AO2 T00820000 $,0,3,0,16090,0,0,0,
2026-03-23 06:15:00,METAR KHCR 230615Z AUTO 14003KT 10SM SCT150 07/00 A3011 RMK AO2 T00750004 $,0,3,0,16090,0,0,0,
2026-03-23 05:55:00,METAR KHCR 230555Z AUTO 00000KT 10SM OVC150 10/M01 A3012 RMK AO2 T00961008 10185 20085 50002 $,0,0,0,16090,0,0,0,
2026-03-23 05:35:00,METAR KHCR 230535Z AUTO 09003KT 10SM OVC150 10/M01 A3011 RMK AO2 T00991007 $,0,3,0,16090,0,0,0,
2026-03-23 05:15:00,METAR KHCR 230515Z AUTO 00000KT 10SM BKN150 09/M00 A3011 RMK AO2 T00911003 $,0,0,0,16090,0,0,0,
2026-03-23 04:55:00,METAR KHCR 230455Z AUTO 00000KT 10SM OVC160 11/M02 A3012 RMK AO2 T01071015 $,0,0,0,16090,0,0,0,
2026-03-23 04:35:00,METAR KHCR 230435Z AUTO 16003KT 10SM OVC150 10/M01 A3012 RMK AO2 T01051013 $,0,3,0,16090,0,0,0,
2026-03-23 04:15:00,METAR KHCR 230415Z AUTO 10003KT 10SM OVC160 12/M02 A3012 RMK AO2 T01191020 $,0,3,0,16090,0,0,0,
2026-03-23 03:55:00,METAR KHCR 230355Z AUTO 09005KT 10SM BKN160 12/M02 A3012 RMK AO2 T01241023 $,0,5,0,16090,0,0,0,
2026-03-23 03:35:00,METAR KHCR 230335Z AUTO 00000KT 10SM BKN170 12/M01 A3012 RMK AO2 T01171014 $,0,0,0,16090,0,0,0,
2026-03-23 03:15:00,METAR KHCR 230315Z AUTO 00000KT 10SM BKN170 BKN190 12/M02 A3012 RMK AO2 T01231019 $,0,0,0,16090,0,0,0,
2026-03-23 02:55:00,METAR KHCR 230255Z AUTO 00000KT 10SM SCT150 BKN170 BKN190 14/M02 A3011 RMK AO2 T01361022 53002 $,0,0,0,16090,0,0,0,
2026-03-23 02:35:00,METAR KHCR 230235Z AUTO 10008KT 10SM OVC150 14/M03 A3010 RMK AO2 T01381026 $,0,8,0,16090,0,0,0,
2026-03-23 02:15:00,METAR KHCR 230215Z AUTO 00000KT 10SM BKN150 16/M02 A3010 RMK AO2 T01581025 $,0,0,0,16090,0,0,0,
2026-03-23 01:55:00,METAR KHCR 230155Z AUTO 36004KT 9SM BKN150 15/M02 A3010 RMK AO2 T01531024 $,0,4,0,14481,0,0,0,
2026-03-23 01:35:00,METAR KHCR 230135Z AUTO 23005KT 10SM OVC150 16/M03 A3010 RMK AO2 T01621031 $,0,5,0,16090,0,0,0,
2026-03-23 01:15:00,METAR KHCR 230115Z AUTO 00000KT 9SM BKN150 17/M03 A3010 RMK AO2 T01671031 $,0,0,0,14481,0,0,0,
2026-03-23 00:55:00,METAR KHCR 230055Z AUTO 20004KT 10SM BKN160 BKN180 17/M02 A3010 RMK AO2 T01731024 $,0,4,0,16090,0,0,0,
2026-03-23 00:35:00,METAR KHCR 230035Z AUTO 22004KT 10SM BKN170 18/M02 A3010 RMK AO2 T01751021 $,0,4,0,16090,0,0,0,
2026-03-23 00:15:00,METAR KHCR 230015Z AUTO 23005KT 10SM BKN170 18/M01 A3010 RMK AO2 T01791013 $,0,5,0,16090,0,0,0,
2026-03-22 23:55:00,METAR KHCR 222355Z AUTO 25006KT 10SM OVC170 19/M03 A3010 RMK AO2 T01891026 10212 20173 56007 $,0,6,0,16090,0,0,0,
2026-03-22 23:35:00,METAR KHCR 222335Z AUTO 22007KT 10SM BKN170 19/M03 A3011 RMK AO2 T01921032 $,0,7,0,16090,0,0,0,
2026-03-22 23:15:00,METAR KHCR 222315Z AUTO 23011KT 10SM FEW180 20/M03 A3011 RMK AO2 T01971030 $,0,11,0,16090,0,0,0,
2026-03-22 22:55:00,METAR KHCR 222255Z AUTO 24009KT 10SM FEW180 20/M01 A3011 RMK AO2 T02031011 $,0,9,0,16090,0,0,0,
2026-03-22 22:35:00,METAR KHCR 222235Z AUTO 24011KT 10SM FEW180 20/M01 A3011 RMK AO2 T02031008 $,0,11,0,16090,0,0,0,
2026-03-22 22:15:00,METAR KHCR 222215Z AUTO 24011KT 10SM CLR 21/M00 A3011 RMK AO2 T02071002 $,0,11,0,16090,0,0,0,
2026-03-22 21:55:00,METAR KHCR 222155Z AUTO 23009KT 10SM CLR 20/M00 A3011 RMK AO2 T02031004 $,0,9,0,16090,0,0,0,
2026-03-22 21:35:00,METAR KHCR 222135Z AUTO 25013KT 10SM CLR 21/M00 A3011 RMK AO2 T02051003 $,0,13,0,16090,0,0,0,
2026-03-22 21:15:00,METAR KHCR 222115Z AUTO 24011KT 10SM CLR 21/00 A3012 RMK AO2 T02050001 $,0,11,0,16090,0,0,0,
2026-03-22 20:55:00,METAR KHCR 222055Z AUTO 23005KT 10SM CLR 21/M00 A3013 RMK AO2 T02091004 58014 $,0,5,0,16090,0,0,0,
2026-03-22 20:35:00,METAR KHCR 222035Z AUTO 24006KT 10SM CLR 20/M00 A3014 RMK AO2 T02021004 $,0,6,0,16090,0,0,0,
2026-03-22 20:15:00,METAR KHCR 222015Z AUTO VRB03KT 10SM CLR 20/M01 A3014 RMK AO2 T02011009 $,0,3,0,16090,0,0,0,
2026-03-22 19:55:00,METAR KHCR 221955Z AUTO 25004KT 10SM CLR 20/M00 A3016 RMK AO2 T02031001 $,0,4,0,16090,0,0,0,
2026-03-22 19:35:00,METAR KHCR 221935Z AUTO VRB03KT 10SM CLR 19/M01 A3016 RMK AO2 T01941010 $,0,3,0,16090,0,0,0,
2026-03-22 19:15:00,METAR KHCR 221915Z AUTO 36003KT 10SM CLR 19/M01 A3016 RMK AO2 T01911009 $,0,3,0,16090,0,0,0,
2026-03-22 18:55:00,METAR KHCR 221855Z AUTO 24003KT 10SM CLR 19/M00 A3017 RMK AO2 T01931004 $,0,3,0,16090,0,0,0,
2026-03-22 18:35:00,METAR KHCR 221835Z AUTO 00000KT 10SM CLR 18/00 A3017 RMK AO2 T01840005 $,0,0,0,16090,0,0,0,
2026-03-22 18:15:00,METAR KHCR 221815Z AUTO 00000KT 10SM CLR 18/00 A3017 RMK AO2 T01750003 $,0,0,0,16090,0,0,0,
2026-03-22 17:55:00,METAR KHCR 221755Z AUTO 30004KT 10SM CLR 17/01 A3018 RMK AO2 T01710007 10175 20003 50003 $,0,4,0,16090,0,0,0,
2026-03-22 17:35:00,METAR KHCR 221735Z AUTO 28004KT 10SM CLR 17/01 A3018 RMK AO2 T01710008 $,0,4,0,16090,0,0,0,
2026-03-22 17:15:00,METAR KHCR 221715Z AUTO VRB05KT 10SM CLR 16/01 A3018 RMK AO2 T01620006 $,0,5,0,16090,0,0,0,
2026-03-22 16:55:00,METAR KHCR 221655Z AUTO 27005KT 10SM CLR 15/00 A3018 RMK AO2 T01510004 $,0,5,0,16090,0,0,0,
2026-03-22 16:35:00,METAR KHCR 221635Z AUTO 27004KT 10SM CLR 14/00 A3018 RMK AO2 T01400003 $,0,4,0,16090,0,0,0,
2026-03-22 16:15:00,METAR KHCR 221615Z AUTO 26004KT 10SM CLR 13/M00 A3018 RMK AO2 T01281003 $,0,4,0,16090,0,0,0,
2026-03-22 15:55:00,METAR KHCR 221555Z AUTO VRB03KT 10SM CLR 11/00 A3018 RMK AO2 T01110003 $,0,3,0,16090,0,0,0,
2026-03-22 15:35:00,METAR KHCR 221535Z AUTO 00000KT 10SM CLR 11/M00 A3017 RMK AO2 T01081002 $,0,0,0,16090,0,0,0,
2026-03-22 15:15:00,METAR KHCR 221515Z AUTO 26004KT 10SM CLR 09/M01 A3018 RMK AO2 T00871008 $,0,4,0,16090,0,0,0,
2026-03-22 14:55:00,METAR KHCR 221455Z AUTO 00000KT 10SM CLR 07/M01 A3017 RMK AO2 T00701014 52017 $,0,0,0,16090,0,0,0,
2026-03-22 14:35:00,METAR KHCR 221435Z AUTO 00000KT 10SM CLR 06/M01 A3017 RMK AO2 T00561008 $,0,0,0,16090,0,0,0,
2026-03-22 14:15:00,METAR KHCR 221415Z AUTO 10005KT 10SM CLR 04/M02 A3016 RMK AO2 T00371015 $,0,5,0,16090,0,0,0,
2026-03-22 13:55:00,METAR KHCR 221355Z AUTO 00000KT 9SM CLR 01/M02 A3015 RMK AO2 T00091022 $,0,0,0,14481,0,0,0,
2026-03-22 13:35:00,METAR KHCR 221335Z AUTO 35003KT 9SM CLR 01/M02 A3015 RMK AO2 T00111021 $,0,3,0,14481,0,0,0,
2026-03-22 13:15:00,METAR KHCR 221315Z AUTO 00000KT 10SM CLR 02/M03 A3013 RMK AO2 T00181026 $,0,0,0,16090,0,0,0,
2026-03-22 12:55:00,METAR KHCR 221255Z AUTO 00000KT 10SM CLR 02/M03 A3012 RMK AO2 T00201026 $,0,0,0,16090,0,0,0,
2026-03-22 12:35:00,METAR KHCR 221235Z AUTO 23003KT 10SM CLR 03/M02 A3012 RMK AO2 T00341022 $,0,3,0,16090,0,0,0,
2026-03-22 12:15:00,METAR KHCR 221215Z AUTO 00000KT 10SM CLR 03/M02 A3011 RMK AO2 T00291023 $,0,0,0,16090,0,0,0,
2026-03-22 11:55:00,METAR KHCR 221155Z AUTO 00000KT 10SM CLR 03/M02 A3011 RMK AO2 T00311020 10103 20017 53009 $,0,0,0,16090,0,0,0,
2026-03-22 11:35:00,METAR KHCR 221135Z AUTO 00000KT 10SM CLR 03/M02 A3010 RMK AO2 T00281016 $,0,0,0,16090,0,0,0,
2026-03-22 11:15:00,METAR KHCR 221115Z AUTO 00000KT 10SM CLR 03/M02 A3009 RMK AO2 T00271022 $,0,0,0,16090,0,0,0,
2026-03-22 10:55:00,METAR KHCR 221055Z AUTO 00000KT 10SM CLR 04/M03 A3009 RMK AO2 T00371027 $,0,0,0,16090,0,0,0,
2026-03-22 10:35:00,METAR KHCR 221035Z AUTO 00000KT 10SM CLR 04/M03 A3008 RMK AO2 T00441031 $,0,0,0,16090,0,0,0,
2026-03-22 10:15:00,METAR KHCR 221015Z AUTO 11005KT 10SM CLR 03/M03 A3008 RMK AO2 T00351029 $,0,5,0,16090,0,0,0,
2026-03-22 09:55:00,METAR KHCR 220955Z AUTO 11004KT 10SM CLR 03/M03 A3008 RMK AO2 T00281028 $,0,4,0,16090,0,0,0,
2026-03-22 09:35:00,METAR KHCR 220935Z AUTO 00000KT 10SM CLR 05/M03 A3008 RMK AO2 T00521026 $,0,0,0,16090,0,0,0,
2026-03-22 09:15:00,METAR KHCR 220915Z AUTO 23004KT 10SM CLR 06/M03 A3008 RMK AO2 T00601025 $,0,4,0,16090,0,0,0,
2026-03-22 08:55:00,METAR KHCR 220855Z AUTO 00000KT 10SM CLR 07/M03 A3008 RMK AO2 T00661030 53012 $,0,0,0,16090,0,0,0,
2026-03-22 08:35:00,METAR KHCR 220835Z AUTO 31004KT 10SM CLR 10/M04 A3007 RMK AO2 T00961039 $,0,4,0,16090,0,0,0,
2026-03-22 08:15:00,METAR KHCR 220815Z AUTO 10009KT 10SM CLR 06/M03 A3006 RMK AO2 T00601029 $,0,9,0,16090,0,0,0,
2026-03-22 07:55:00,METAR KHCR 220755Z AUTO 11005KT 10SM CLR 06/M03 A3006 RMK AO2 T00631028 $,0,5,0,16090,0,0,0,
2026-03-22 07:35:00,METAR KHCR 220735Z AUTO 14004KT 10SM CLR 05/M02 A3005 RMK AO2 T00521024 $,0,4,0,16090,0,0,0,
2026-03-22 07:15:00,METAR KHCR 220715Z AUTO 00000KT 10SM CLR 08/M03 A3004 RMK AO2 T00811027 $,0,0,0,16090,0,0,0,
2026-03-22 06:55:00,METAR KHCR 220655Z AUTO 00000KT 10SM CLR 07/M02 A3005 RMK AO2 T00741024 402571012 $,0,0,0,16090,0,0,0,
2026-03-22 06:35:00,METAR KHCR 220635Z AUTO 00000KT 10SM CLR 08/M02 A3004 RMK AO2 T00811024 $,0,0,0,16090,0,0,0,
2026-03-22 06:15:00,METAR KHCR 220615Z AUTO 00000KT 10SM CLR 09/M02 A3004 RMK AO2 T00861024 $,0,0,0,16090,0,0,0,
2026-03-22 05:55:00,METAR KHCR 220555Z AUTO 11003KT 10SM CLR 08/M02 A3003 RMK AO2 T00771020 10233 20077 51014 $,0,3,0,16090,0,0,0,
2026-03-22 05:35:00,METAR KHCR 220535Z AUTO 12003KT 10SM CLR 09/M02 A3003 RMK AO2 T00931019 $,0,3,0,16090,0,0,0,
2026-03-22 05:15:00,METAR KHCR 220515Z AUTO 00000KT 10SM CLR 10/M02 A3003 RMK AO2 T00991020 $,0,0,0,16090,0,0,0,
2026-03-22 04:55:00,METAR KHCR 220455Z AUTO 00000KT 10SM CLR 13/M02 A3002 RMK AO2 T01281024 $,0,0,0,16090,0,0,0,
2026-03-22 04:35:00,METAR KHCR 220435Z AUTO 00000KT 10SM CLR 14/M02 A3002 RMK AO2 T01361025 $,0,0,0,16090,0,0,0,
2026-03-22 04:15:00,METAR KHCR 220415Z AUTO 14004KT 10SM CLR 13/M03 A3001 RMK AO2 T01351026 $,0,4,0,16090,0,0,0,
2026-03-22 03:55:00,METAR KHCR 220355Z AUTO 11006KT 10SM CLR 12/M02 A3001 RMK AO2 T01171016 $,0,6,0,16090,0,0,0,
2026-03-22 03:35:00,METAR KHCR 220335Z AUTO 13008KT 10SM CLR 14/M02 A3000 RMK AO2 T01411021 $,0,8,0,16090,0,0,0,
2026-03-22 03:15:00,METAR KHCR 220315Z AUTO 10007KT 10SM CLR 14/M02 A3000 RMK AO2 T01401021 $,0,7,0,16090,0,0,0,
2026-03-22 02:55:00,METAR KHCR 220255Z AUTO 11004KT 10SM CLR 13/M01 A2999 RMK AO2 T01351014 50003 $,0,4,0,16090,0,0,0,
2026-03-22 02:35:00,METAR KHCR 220235Z AUTO 13005KT 10SM CLR 14/M01 A2998 RMK AO2 T01411012 $,0,5,0,16090,0,0,0,
2026-03-22 02:15:00,METAR KHCR 220215Z AUTO 14005KT 9SM CLR 15/M02 A2998 RMK AO2 T01461016 $,0,5,0,14481,0,0,0,
2026-03-22 01:55:00,METAR KHCR 220155Z AUTO 16003KT 10SM CLR 18/M03 A2999 RMK AO2 T01801026 $,0,3,0,16090,0,0,0,
2026-03-22 01:35:00,METAR KHCR 220135Z AUTO 00000KT 10SM CLR 17/M02 A2999 RMK AO2 T01741020 $,0,0,0,16090,0,0,0,
2026-03-22 01:15:00,METAR KHCR 220115Z AUTO 33006KT 10SM CLR 19/M02 A2999 RMK AO2 T01931022 $,0,6,0,16090,0,0,0,
2026-03-22 00:55:00,METAR KHCR 220055Z AUTO 34007KT 10SM CLR 20/M01 A2998 RMK AO2 T02041011 $,0,7,0,16090,0,0,0,
2026-03-22 00:35:00,METAR KHCR 220035Z AUTO 33005KT 10SM CLR 21/M01 A2998 RMK AO2 T02121013 $,0,5,0,16090,0,0,0,
2026-03-22 00:15:00,METAR KHCR 220015Z AUTO 24009KT 10SM CLR 23/M04 A2998 RMK AO2 T02291041 $,0,9,0,16090,0,0,0,
2026-03-21 23:55:00,METAR KHCR 212355Z AUTO 23008KT 10SM CLR 24/M05 A2997 RMK AO2 T02361046 10257 20236 56009 $,0,8,0,16090,0,0,0,
2026-03-21 23:35:00,METAR KHCR 212335Z AUTO 25008KT 10SM CLR 24/M05 A2998 RMK AO2 T02441052 $,0,8,0,16090,0,0,0,
2026-03-21 23:15:00,METAR KHCR 212315Z AUTO 22010KT 10SM CLR 25/M05 A2997 RMK AO2 T02531054 $,0,10,0,16090,0,0,0,
2026-03-21 22:55:00,METAR KHCR 212255Z AUTO 23013KT 10SM CLR 26/M05 A2998 RMK AO2 T02571055 $,0,13,0,16090,0,0,0,
2026-03-21 22:35:00,METAR KHCR 212235Z AUTO 23008G19KT 10SM CLR 25/M07 A2998 RMK AO2 T02481066 $,0,8,1,16090,0,0,0,
2026-03-21 22:15:00,METAR KHCR 212215Z AUTO 22012KT 10SM CLR 25/M06 A2998 RMK AO2 T02461059 $,0,12,0,16090,0,0,0,
2026-03-21 21:55:00,METAR KHCR 212155Z AUTO 24010G15KT 10SM FEW220 26/M06 A2999 RMK AO2 T02551056 $,0,10,1,16090,0,0,0,
2026-03-21 21:35:00,METAR KHCR 212135Z AUTO 22009KT 10SM CLR 26/M05 A2999 RMK AO2 T02561053 $,0,9,0,16090,0,0,0,
2026-03-21 21:15:00,METAR KHCR 212115Z AUTO 23011KT 10SM CLR 26/M05 A3000 RMK AO2 T02561051 $,0,11,0,16090,0,0,0,
2026-03-21 20:55:00,METAR KHCR 212055Z AUTO 22008G16KT 10SM CLR 25/M05 A3001 RMK AO2 T02541050 56017 $,0,8,1,16090,0,0,0,
2026-03-21 20:35:00,METAR KHCR 212035Z AUTO 21011G16KT 170V230 10SM CLR 25/M06 A3001 RMK AO2 T02521060 $,0,11,1,16090,0,0,0,
2026-03-21 20:15:00,METAR KHCR 212015Z AUTO 22014KT 10SM CLR 25/M06 A3002 RMK AO2 T02501060 $,0,14,0,16090,0,0,0,
2026-03-21 19:55:00,METAR KHCR 211955Z AUTO 22010KT 10SM CLR 24/M05 A3003 RMK AO2 T02411051 $,0,10,0,16090,0,0,0,
2026-03-21 19:35:00,METAR KHCR 211935Z AUTO 22013G18KT 10SM CLR 25/M05 A3003 RMK AO2 T02481051 $,0,13,1,16090,0,0,0,
2026-03-21 19:15:00,METAR KHCR 211915Z AUTO 22013G19KT 10SM CLR 25/M05 A3004 RMK AO2 T02461054 $,0,13,1,16090,0,0,0,
2026-03-21 18:55:00,METAR KHCR 211855Z AUTO 22011KT 10SM CLR 24/M06 A3004 RMK AO2 T02441061 $,0,11,0,16090,0,0,0,
2026-03-21 18:35:00,METAR KHCR 211835Z AUTO 23014KT 10SM CLR 24/M06 A3005 RMK AO2 T02411057 $,0,14,0,16090,0,0,0,
2026-03-21 18:15:00,METAR KHCR 211815Z AUTO 24016G20KT 10SM CLR 24/M06 A3006 RMK AO2 T02401059 $,0,16,1,16090,0,0,0,
2026-03-21 17:55:00,METAR KHCR 211755Z AUTO 24012KT 10SM CLR 24/M05 A3007 RMK AO2 T02361055 10236 21012 58010 $,0,12,0,16090,0,0,0,
2026-03-21 17:35:00,METAR KHCR 211735Z AUTO 24012KT 10SM CLR 23/M05 A3007 RMK AO2 T02301049 $,0,12,0,16090,0,0,0,
2026-03-21 17:15:00,METAR KHCR 211715Z AUTO VRB03KT 10SM CLR 17/01 A3008 RMK AO2 T01700014 $,0,3,0,16090,0,0,0,
2026-03-21 16:55:00,METAR KHCR 211655Z AUTO 00000KT 10SM CLR 13/00 A3009 RMK AO2 T01310004 $,0,0,0,16090,0,0,0,
2026-03-21 16:35:00,METAR KHCR 211635Z AUTO 00000KT 10SM CLR 12/00 A3009 RMK AO2 T01240003 $,0,0,0,16090,0,0,0,
2026-03-21 16:15:00,METAR KHCR 211615Z AUTO 00000KT 10SM CLR 11/M01 A3009 RMK AO2 T01121012 $,0,0,0,16090,0,0,0,
2026-03-21 15:55:00,METAR KHCR 211555Z AUTO 00000KT 10SM CLR 09/00 A3009 RMK AO2 T00890000 $,0,0,0,16090,0,0,0,
2026-03-21 15:35:00,METAR KHCR 211535Z AUTO 00000KT 10SM CLR 08/00 A3010 RMK AO2 T00750002 $,0,0,0,16090,0,0,0,
2026-03-21 14:55:00,METAR KHCR 211455Z AUTO 00000KT 10SM CLR 05/M01 A3010 RMK AO2 T00511012 57003 $,0,0,0,16090,0,0,0,
2026-03-21 14:35:00,METAR KHCR 211435Z AUTO 00000KT 10SM CLR 04/M02 A3010 RMK AO2 T00381016 $,0,0,0,16090,0,0,0,
2026-03-21 14:15:00,METAR KHCR 211415Z AUTO 00000KT 10SM CLR 01/M02 A3011 RMK AO2 T00121023 $,0,0,0,16090,0,0,0,
2026-03-21 13:55:00,METAR KHCR 211355Z AUTO 00000KT 10SM CLR 00/M03 A3011 RMK AO2 T00031031 $,0,0,0,16090,0,0,0,
2026-03-21 13:35:00,METAR KHCR 211335Z AUTO 12003KT 10SM CLR M01/M03 A3011 RMK AO2 T10071033 $,0,3,0,16090,0,0,0,
2026-03-21 13:15:00,METAR KHCR 211315Z AUTO 13004KT 10SM CLR M01/M04 A3011 RMK AO2 T10121037 $,0,4,0,16090,0,0,0,
2026-03-21 12:55:00,METAR KHCR 211255Z AUTO 00000KT 10SM CLR M00/M04 A3011 RMK AO2 T10031037 $,0,0,0,16090,0,0,0,
2026-03-21 12:35:00,METAR KHCR 211235Z AUTO 00000KT 10SM CLR 01/M04 A3011 RMK AO2 T00061036 $,0,0,0,16090,0,0,0,
2026-03-21 12:15:00,METAR KHCR 211215Z AUTO 00000KT 10SM CLR 01/M04 A3011 RMK AO2 T00081036 $,0,0,0,16090,0,0,0,
2026-03-21 11:55:00,METAR KHCR 211155Z AUTO 11004KT 10SM CLR M00/M04 A3011 RMK AO2 T10011036 10107 21003 56010 $,0,4,0,16090,0,0,0,
2026-03-21 11:35:00,METAR KHCR 211135Z AUTO 00000KT 10SM CLR 01/M04 A3011 RMK AO2 T00061037 $,0,0,0,16090,0,0,0,
2026-03-21 11:15:00,METAR KHCR 211115Z AUTO 00000KT 10SM CLR 00/M04 A3012 RMK AO2 T00021037 $,0,0,0,16090,0,0,0,
2026-03-21 10:55:00,METAR KHCR 211055Z AUTO 00000KT 10SM CLR 00/M04 A3012 RMK AO2 T00041037 $,0,0,0,16090,0,0,0,
2026-03-21 10:35:00,METAR KHCR 211035Z AUTO 00000KT 10SM CLR 01/M03 A3012 RMK AO2 T00051031 $,0,0,0,16090,0,0,0,
2026-03-21 10:15:00,METAR KHCR 211015Z AUTO 00000KT 10SM CLR 02/M03 A3013 RMK AO2 T00171028 $,0,0,0,16090,0,0,0,
2026-03-21 09:55:00,METAR KHCR 210955Z AUTO 00000KT 10SM CLR 02/M02 A3013 RMK AO2 T00161025 $,0,0,0,16090,0,0,0,
2026-03-21 09:35:00,METAR KHCR 210935Z AUTO 00000KT 10SM CLR 02/M03 A3014 RMK AO2 T00161028 $,0,0,0,16090,0,0,0,
2026-03-21 09:15:00,METAR KHCR 210915Z AUTO 00000KT 10SM CLR 03/M03 A3014 RMK AO2 T00301034 $,0,0,0,16090,0,0,0,
2026-03-21 08:55:00,METAR KHCR 210855Z AUTO 00000KT 10SM CLR 02/M03 A3014 RMK AO2 T00211029 57008 $,0,0,0,16090,0,0,0,
2026-03-21 08:35:00,METAR KHCR 210835Z AUTO 00000KT 10SM CLR 03/M03 A3015 RMK AO2 T00311029 $,0,0,0,16090,0,0,0,
2026-03-21 08:15:00,METAR KHCR 210815Z AUTO 11005KT 10SM CLR 04/M03 A3016 RMK AO2 T00361030 $,0,5,0,16090,0,0,0,
2026-03-21 07:55:00,METAR KHCR 210755Z AUTO 00000KT 10SM CLR 04/M03 A3016 RMK AO2 T00391033 $,0,0,0,16090,0,0,0,
2026-03-21 07:35:00,METAR KHCR 210735Z AUTO 00000KT 10SM CLR 04/M03 A3016 RMK AO2 T00441031 $,0,0,0,16090,0,0,0,
2026-03-21 07:15:00,METAR KHCR 210715Z AUTO 00000KT 10SM CLR 05/M03 A3016 RMK AO2 T00481027 $,0,0,0,16090,0,0,0,
2026-03-21 06:55:00,METAR KHCR 210655Z AUTO 00000KT 10SM CLR 07/M03 A3016 RMK AO2 T00691031 402741029 $,0,0,0,16090,0,0,0,
2026-03-21 06:35:00,METAR KHCR 210635Z AUTO 00000KT 10SM CLR 06/M03 A3017 RMK AO2 T00591030 $,0,0,0,16090,0,0,0,
2026-03-21 06:15:00,METAR KHCR 210615Z AUTO 06003KT 10SM CLR 09/M03 A3017 RMK AO2 T00901030 $,0,3,0,16090,0,0,0,
2026-03-21 05:55:00,METAR KHCR 210555Z AUTO 11006KT 10SM CLR 09/M03 A3017 RMK AO2 T00861032 10259 20049 50001 $,0,6,0,16090,0,0,0,
2026-03-21 05:35:00,METAR KHCR 210535Z AUTO 12004KT 10SM CLR 07/M03 A3017 RMK AO2 T00651029 $,0,4,0,16090,0,0,0,
2026-03-21 05:15:00,METAR KHCR 210515Z AUTO 10004KT 10SM CLR 07/M02 A3018 RMK AO2 T00691024 $,0,4,0,16090,0,0,0,
2026-03-21 04:55:00,METAR KHCR 210455Z AUTO 13003KT 9SM CLR 09/M03 A3018 RMK AO2 T00861030 $,0,3,0,14481,0,0,0,
2026-03-21 04:35:00,METAR KHCR 210435Z AUTO 12005KT 10SM CLR 07/M02 A3018 RMK AO2 T00721022 $,0,5,0,16090,0,0,0,
2026-03-21 04:15:00,METAR KHCR 210415Z AUTO 12004KT 9SM CLR 08/M02 A3018 RMK AO2 T00821019 $,0,4,0,14481,0,0,0,
2026-03-21 03:55:00,METAR KHCR 210355Z AUTO 14003KT 10SM CLR 08/M02 A3018 RMK AO2 T00841020 $,0,3,0,16090,0,0,0,
2026-03-21 03:35:00,METAR KHCR 210335Z AUTO 15003KT 10SM CLR 10/M02 A3018 RMK AO2 T00991023 $,0,3,0,16090,0,0,0,
2026-03-21 03:15:00,METAR KHCR 210315Z AUTO 00000KT 10SM CLR 13/M03 A3018 RMK AO2 T01281028 $,0,0,0,16090,0,0,0,
2026-03-21 02:55:00,METAR KHCR 210255Z AUTO 11005KT 10SM CLR 12/M02 A3017 RMK AO2 T01221019 55005 $,0,5,0,16090,0,0,0,
2026-03-21 02:35:00,METAR KHCR 210235Z AUTO 10006KT 10SM CLR 12/M01 A3017 RMK AO2 T01171012 $,0,6,0,16090,0,0,0,
2026-03-21 02:15:00,METAR KHCR 210215Z AUTO 09004KT 10SM CLR 13/M01 A3017 RMK AO2 T01341012 $,0,4,0,16090,0,0,0,
2026-03-21 01:55:00,METAR KHCR 210155Z AUTO 00000KT 9SM CLR 16/M03 A3017 RMK AO2 T01611029 $,0,0,0,14481,0,0,0,
2026-03-21 01:35:00,METAR KHCR 210135Z AUTO 00000KT 9SM CLR 20/M03 A3017 RMK AO2 T01951027 $,0,0,0,14481,0,0,0,
2026-03-21 01:15:00,METAR KHCR 210115Z AUTO 00000KT 10SM CLR 22/M03 A3017 RMK AO2 T02191029 $,0,0,0,16090,0,0,0,
2026-03-21 00:55:00,METAR KHCR 210055Z AUTO 22003KT 10SM CLR 24/M03 A3017 RMK AO2 T02451025 $,0,3,0,16090,0,0,0,
2026-03-21 00:35:00,METAR KHCR 210035Z AUTO 23003KT 10SM CLR 25/M03 A3018 RMK AO2 T02521028 $,0,3,0,16090,0,0,0,
2026-03-21 00:15:00,METAR KHCR 210015Z AUTO 25005KT 10SM CLR 26/M04 A3018 RMK AO2 T02561036 $,0,5,0,16090,0,0,0,
2026-03-20 23:55:00,METAR KHCR 202355Z AUTO 23005KT 10SM CLR 26/M04 A3019 RMK AO2 T02621040 10274 20169 58015 $,0,5,0,16090,0,0,0,
2026-03-20 23:35:00,METAR KHCR 202335Z AUTO 00000KT 10SM CLR 26/M05 A3019 RMK AO2 T02651053 $,0,0,0,16090,0,0,0,
2026-03-20 23:15:00,METAR KHCR 202315Z AUTO VRB05KT 10SM CLR 27/M04 A3020 RMK AO2 T02671043 $,0,5,0,16090,0,0,0,
2026-03-20 22:55:00,METAR KHCR 202255Z AUTO 22007KT 10SM CLR 27/M04 A3021 RMK AO2 T02701038 $,0,7,0,16090,0,0,0,
2026-03-20 22:35:00,METAR KHCR 202235Z AUTO 19005KT 10SM CLR 27/M04 A3021 RMK AO2 T02701044 $,0,5,0,16090,0,0,0,
2026-03-20 22:15:00,METAR KHCR 202215Z AUTO 21004KT 10SM CLR 27/M04 A3022 RMK AO2 T02691042 $,0,4,0,16090,0,0,0,
2026-03-20 21:55:00,METAR KHCR 202155Z AUTO 23010KT 10SM CLR 27/M04 A3022 RMK AO2 T02741039 $,0,10,0,16090,0,0,0,
2026-03-20 21:35:00,METAR KHCR 202135Z AUTO 21009KT 10SM CLR 27/M04 A3023 RMK AO2 T02721042 $,0,9,0,16090,0,0,0,
2026-03-20 21:15:00,METAR KHCR 202115Z AUTO 21011KT 10SM CLR 27/M05 A3023 RMK AO2 T02711045 $,0,11,0,16090,0,0,0,
2026-03-20 20:55:00,METAR KHCR 202055Z AUTO 22007KT 10SM CLR 27/M04 A3024 RMK AO2 T02711043 58032 $,0,7,0,16090,0,0,0,
2026-03-20 20:35:00,METAR KHCR 202035Z AUTO 23006KT 10SM CLR 26/M03 A3025 RMK AO2 T02651030 $,0,6,0,16090,0,0,0,
2026-03-20 20:15:00,METAR KHCR 202015Z AUTO 00000KT 10SM CLR 24/M01 A3026 RMK AO2 T02411007 $,0,0,0,16090,0,0,0,
2026-03-20 19:55:00,METAR KHCR 201955Z AUTO 00000KT 10SM CLR 22/M02 A3028 RMK AO2 T02221017 $,0,0,0,16090,0,0,0,
2026-03-20 19:35:00,METAR KHCR 201935Z AUTO 00000KT 10SM CLR 22/M02 A3029 RMK AO2 T02161024 $,0,0,0,16090,0,0,0,
2026-03-20 19:15:00,METAR KHCR 201915Z AUTO 00000KT 10SM CLR 20/M03 A3031 RMK AO2 T02051029 $,0,0,0,16090,0,0,0,
2026-03-20 18:55:00,METAR KHCR 201855Z AUTO 33003KT 10SM CLR 20/M02 A3032 RMK AO2 T01981024 $,0,3,0,16090,0,0,0,
2026-03-20 18:35:00,METAR KHCR 201835Z AUTO 00000KT 10SM CLR 19/M03 A3033 RMK AO2 T01851033 $,0,0,0,16090,0,0,0,
2026-03-20 18:15:00,METAR KHCR 201815Z AUTO 00000KT 10SM CLR 18/M03 A3034 RMK AO2 T01761033 $,0,0,0,16090,0,0,0,
2026-03-20 17:55:00,METAR KHCR 201755Z AUTO VRB03KT 10SM CLR 16/M04 A3035 RMK AO2 T01641038 10164 21029 58012 $,0,3,0,16090,0,0,0,
2026-03-20 17:35:00,METAR KHCR 201735Z AUTO 00000KT 10SM CLR 15/M04 A3036 RMK AO2 T01521039 $,0,0,0,16090,0,0,0,
2026-03-20 17:15:00,METAR KHCR 201715Z AUTO 00000KT 10SM CLR 14/M03 A3037 RMK AO2 T01411028 $,0,0,0,16090,0,0,0,
2026-03-20 16:55:00,METAR KHCR 201655Z AUTO 00000KT 10SM CLR 12/M03 A3038 RMK AO2 T01171033 $,0,0,0,16090,0,0,0,
2026-03-20 16:35:00,METAR KHCR 201635Z AUTO 00000KT 10SM CLR 11/M02 A3038 RMK AO2 T01061023 $,0,0,0,16090,0,0,0,
2026-03-20 16:15:00,METAR KHCR 201615Z AUTO 00000KT 10SM CLR 10/M02 A3038 RMK AO2 T00961023 $,0,0,0,16090,0,0,0,
2026-03-20 15:55:00,METAR KHCR 201555Z AUTO 00000KT 10SM CLR 08/M02 A3039 RMK AO2 T00771016 $,0,0,0,16090,0,0,0,
2026-03-20 15:35:00,METAR KHCR 201535Z AUTO 00000KT 10SM CLR 06/M01 A3039 RMK AO2 T00641009 $,0,0,0,16090,0,0,0,
2026-03-20 15:15:00,METAR KHCR 201515Z AUTO 00000KT 10SM CLR 05/M01 A3039 RMK AO2 T00521010 $,0,0,0,16090,0,0,0,
2026-03-20 14:55:00,METAR KHCR 201455Z AUTO 00000KT 10SM CLR 04/M00 A3040 RMK AO2 T00391004 53006 $,0,0,0,16090,0,0,0,
2026-03-20 14:35:00,METAR KHCR 201435Z AUTO 00000KT 10SM CLR 03/M01 A3039 RMK AO2 T00291009 $,0,0,0,16090,0,0,0,
2026-03-20 14:15:00,METAR KHCR 201415Z AUTO 00000KT 10SM CLR 00/M03 A3039 RMK AO2 T00031033 $,0,0,0,16090,0,0,0,
2026-03-20 13:55:00,METAR KHCR 201355Z AUTO 00000KT 10SM CLR M02/M04 A3039 RMK AO2 T10171045 $,0,0,0,16090,0,0,0,
2026-03-20 13:35:00,METAR KHCR 201335Z AUTO 00000KT 8SM CLR M02/M05 A3038 RMK AO2 T10181048 $,0,0,0,12872,0,0,0,
2026-03-20 13:15:00,METAR KHCR 201315Z AUTO 00000KT 10SM CLR M02/M05 A3038 RMK AO2 T10161049 $,0,0,0,16090,0,0,0,
2026-03-20 12:55:00,METAR KHCR 201255Z AUTO 00000KT 10SM CLR M01/M05 A3038 RMK AO2 T10071055 $,0,0,0,16090,0,0,0,
2026-03-20 12:35:00,METAR KHCR 201235Z AUTO 00000KT 10SM CLR M01/M05 A3038 RMK AO2 T10091050 $,0,0,0,16090,0,0,0,
2026-03-20 12:15:00,METAR KHCR 201215Z AUTO 00000KT 10SM CLR M02/M05 A3037 RMK AO2 T10191052 $,0,0,0,16090,0,0,0,
2026-03-20 11:55:00,METAR KHCR 201155Z AUTO 00000KT 10SM CLR M01/M05 A3037 RMK AO2 T10121052 10111 21012 55001 $,0,0,0,16090,0,0,0,
2026-03-20 11:35:00,METAR KHCR 201135Z AUTO 00000KT 10SM CLR M01/M05 A3037 RMK AO2 T10121049 $,0,0,0,16090,0,0,0,
2026-03-20 11:15:00,METAR KHCR 201115Z AUTO 10003KT 10SM CLR M00/M05 A3037 RMK AO2 T10011046 $,0,3,0,16090,0,0,0,
2026-03-20 10:55:00,METAR KHCR 201055Z AUTO 00000KT 10SM CLR M01/M05 A3036 RMK AO2 T10061047 $,0,0,0,16090,0,0,0,
2026-03-20 10:35:00,METAR KHCR 201035Z AUTO 00000KT 10SM CLR M00/M05 A3037 RMK AO2 T10051047 $,0,0,0,16090,0,0,0,
2026-03-20 10:15:00,METAR KHCR 201015Z AUTO 00000KT 10SM CLR 00/M05 A3037 RMK AO2 T00011046 $,0,0,0,16090,0,0,0,
2026-03-20 09:55:00,METAR KHCR 200955Z AUTO 13003KT 10SM CLR 00/M04 A3037 RMK AO2 T00041043 $,0,3,0,16090,0,0,0,
2026-03-20 09:35:00,METAR KHCR 200935Z AUTO 00000KT 10SM CLR M00/M05 A3038 RMK AO2 T10021046 $,0,0,0,16090,0,0,0,
2026-03-20 09:15:00,METAR KHCR 200915Z AUTO 00000KT 10SM CLR 02/M04 A3038 RMK AO2 T00161041 $,0,0,0,16090,0,0,0,
2026-03-20 08:55:00,METAR KHCR 200855Z AUTO 00000KT 10SM CLR 01/M04 A3038 RMK AO2 T00071043 51005 $,0,0,0,16090,0,0,0,
2026-03-20 08:35:00,METAR KHCR 200835Z AUTO 00000KT 10SM CLR 02/M04 A3038 RMK AO2 T00211040 $,0,0,0,16090,0,0,0,
2026-03-20 08:15:00,METAR KHCR 200815Z AUTO 00000KT 10SM CLR 02/M05 A3037 RMK AO2 T00191045 $,0,0,0,16090,0,0,0,
2026-03-20 07:55:00,METAR KHCR 200755Z AUTO 00000KT 10SM CLR 05/M04 A3037 RMK AO2 T00541042 $,0,0,0,16090,0,0,0,
2026-03-20 07:35:00,METAR KHCR 200735Z AUTO 00000KT 10SM CLR 02/M04 A3037 RMK AO2 T00201041 $,0,0,0,16090,0,0,0,
2026-03-20 07:15:00,METAR KHCR 200715Z AUTO 00000KT 10SM CLR 03/M04 A3037 RMK AO2 T00281041 $,0,0,0,16090,0,0,0,
2026-03-20 06:55:00,METAR KHCR 200655Z AUTO 00000KT 10SM CLR 05/M04 A3037 RMK AO2 T00491043 402651028 $,0,0,0,16090,0,0,0,
2026-03-20 06:35:00,METAR KHCR 200635Z AUTO 00000KT 10SM CLR 06/M04 A3037 RMK AO2 T00591042 $,0,0,0,16090,0,0,0,
2026-03-20 06:15:00,METAR KHCR 200615Z AUTO 00000KT 10SM CLR 10/M05 A3037 RMK AO2 T00991045 $,0,0,0,16090,0,0,0,
2026-03-20 05:55:00,METAR KHCR 200555Z AUTO 10007KT 10SM CLR 10/M04 A3036 RMK AO2 T01021043 10251 20062 51010 $,0,7,0,16090,0,0,0,
2026-03-20 05:35:00,METAR KHCR 200535Z AUTO 11008KT 9SM CLR 08/M04 A3036 RMK AO2 T00791037 $,0,8,0,14481,0,0,0,
2026-03-20 05:15:00,METAR KHCR 200515Z AUTO 11007KT 10SM CLR 06/M04 A3036 RMK AO2 T00641036 $,0,7,0,16090,0,0,0,
2026-03-20 04:55:00,METAR KHCR 200455Z AUTO 12004KT 10SM CLR 10/M04 A3035 RMK AO2 T00961040 $,0,4,0,16090,0,0,0,
2026-03-20 04:35:00,METAR KHCR 200435Z AUTO 12008KT 10SM CLR 09/M03 A3035 RMK AO2 T00861034 $,0,8,0,16090,0,0,0,
2026-03-20 04:15:00,METAR KHCR 200415Z AUTO 11007KT 10SM CLR 10/M04 A3034 RMK AO2 T01021038 $,0,7,0,16090,0,0,0,
2026-03-20 03:55:00,METAR KHCR 200355Z AUTO 12003KT 9SM CLR 10/M04 A3034 RMK AO2 T01031035 $,0,3,0,14481,0,0,0,
2026-03-20 03:35:00,METAR KHCR 200335Z AUTO 00000KT 10SM CLR 12/M04 A3033 RMK AO2 T01191040 $,0,0,0,16090,0,0,0,
2026-03-20 03:15:00,METAR KHCR 200315Z AUTO VRB04KT 10SM CLR 12/M03 A3033 RMK AO2 T01151033 $,0,4,0,16090,0,0,0,
2026-03-20 02:55:00,METAR KHCR 200255Z AUTO 12004KT 10SM CLR 14/M04 A3032 RMK AO2 T01391039 53011 $,0,4,0,16090,0,0,0,
2026-03-20 02:35:00,METAR KHCR 200235Z AUTO 11008KT 10SM CLR 14/M04 A3032 RMK AO2 T01411035 $,0,8,0,16090,0,0,0,
2026-03-20 02:15:00,METAR KHCR 200215Z AUTO 00000KT 9SM CLR 14/M05 A3031 RMK AO2 T01431046 $,0,0,0,14481,0,0,0,
2026-03-20 01:55:00,METAR KHCR 200155Z AUTO 33008KT 10SM CLR 19/M06 A3030 RMK AO2 T01871057 $,0,8,0,16090,0,0,0,
2026-03-20 01:35:00,METAR KHCR 200135Z AUTO 31003KT 10SM CLR 19/M03 A3029 RMK AO2 T01951035 $,0,3,0,16090,0,0,0,
2026-03-20 01:15:00,METAR KHCR 200115Z AUTO 21005KT 9SM CLR 22/M04 A3028 RMK AO2 T02191043 $,0,5,0,14481,0,0,0,
2026-03-20 00:55:00,METAR KHCR 200055Z AUTO 23005KT 10SM CLR 23/M03 A3028 RMK AO2 T02291033 $,0,5,0,16090,0,0,0,
2026-03-20 00:35:00,METAR KHCR 200035Z AUTO 23006KT 9SM CLR 24/M04 A3028 RMK AO2 T02371039 $,0,6,0,14481,0,0,0,
2026-03-20 00:15:00,METAR KHCR 200015Z AUTO 22005KT 10SM CLR 25/M05 A3028 RMK AO2 T02491054 $,0,5,0,16090,0,0,0,
2026-03-19 23:55:00,METAR KHCR 192355Z AUTO 23008KT 10SM CLR 25/M06 A3029 RMK AO2 T02511057 10265 20160 56010 $,0,8,0,16090,0,0,0,
2026-03-19 23:35:00,METAR KHCR 192335Z AUTO 21006KT 10SM CLR 26/M05 A3029 RMK AO2 T02581052 $,0,6,0,16090,0,0,0,
2026-03-19 23:15:00,METAR KHCR 192315Z AUTO 20006KT 10SM CLR 26/M07 A3029 RMK AO2 T02571070 $,0,6,0,16090,0,0,0,
2026-03-19 22:55:00,METAR KHCR 192255Z AUTO 24006KT 10SM CLR 26/M06 A3030 RMK AO2 T02601061 $,0,6,0,16090,0,0,0,
2026-03-19 22:35:00,METAR KHCR 192235Z AUTO 24009KT 10SM CLR 26/M07 A3030 RMK AO2 T02601066 $,0,9,0,16090,0,0,0,
2026-03-19 22:15:00,METAR KHCR 192215Z AUTO 23009KT 10SM CLR 26/M06 A3030 RMK AO2 T02611060 $,0,9,0,16090,0,0,0,
2026-03-19 21:55:00,METAR KHCR 192155Z AUTO 23011KT 10SM CLR 26/M06 A3030 RMK AO2 T02641060 $,0,11,0,16090,0,0,0,
2026-03-19 21:35:00,METAR KHCR 192135Z AUTO 24008KT 10SM CLR 26/M06 A3031 RMK AO2 T02621064 $,0,8,0,16090,0,0,0,
2026-03-19 21:15:00,METAR KHCR 192115Z AUTO 23011KT 10SM CLR 26/M06 A3031 RMK AO2 T02631061 $,0,11,0,16090,0,0,0,
2026-03-19 20:55:00,METAR KHCR 192055Z AUTO 22007KT 10SM CLR 26/M07 A3032 RMK AO2 T02601065 56019 $,0,7,0,16090,0,0,0,
2026-03-19 20:35:00,METAR KHCR 192035Z AUTO VRB05KT 10SM CLR 25/M02 A3032 RMK AO2 T02531024 $,0,5,0,16090,0,0,0,
2026-03-19 20:15:00,METAR KHCR 192015Z AUTO VRB03KT 10SM CLR 24/M02 A3033 RMK AO2 T02421016 $,0,3,0,16090,0,0,0,
2026-03-19 19:55:00,METAR KHCR 191955Z AUTO VRB04KT 10SM CLR 23/M02 A3034 RMK AO2 T02291022 $,0,4,0,16090,0,0,0,
2026-03-19 19:35:00,METAR KHCR 191935Z AUTO 00000KT 10SM CLR 22/M02 A3035 RMK AO2 T02211023 $,0,0,0,16090,0,0,0,
2026-03-19 19:15:00,METAR KHCR 191915Z AUTO 00000KT 10SM CLR 21/M02 A3035 RMK AO2 T02061018 $,0,0,0,16090,0,0,0,
2026-03-19 18:55:00,METAR KHCR 191855Z AUTO 00000KT 10SM CLR 19/M02 A3036 RMK AO2 T01901018 $,0,0,0,16090,0,0,0,
2026-03-19 18:35:00,METAR KHCR 191835Z AUTO 00000KT 10SM CLR 18/M04 A3036 RMK AO2 T01821041 $,0,0,0,16090,0,0,0,
2026-03-19 18:15:00,METAR KHCR 191815Z AUTO 00000KT 10SM CLR 17/M03 A3037 RMK AO2 T01701035 $,0,0,0,16090,0,0,0,
2026-03-19 17:55:00,METAR KHCR 191755Z AUTO 00000KT 10SM CLR 15/M03 A3039 RMK AO2 T01501034 10150 21028 58006 $,0,0,0,16090,0,0,0,
2026-03-19 17:35:00,METAR KHCR 191735Z AUTO 00000KT 10SM CLR 14/M02 A3039 RMK AO2 T01431022 $,0,0,0,16090,0,0,0,
2026-03-19 17:15:00,METAR KHCR 191715Z AUTO 00000KT 10SM CLR 13/M02 A3040 RMK AO2 T01311023 $,0,0,0,16090,0,0,0,
2026-03-19 16:55:00,METAR KHCR 191655Z AUTO 00000KT 10SM CLR 11/M02 A3041 RMK AO2 T01101022 $,0,0,0,16090,0,0,0,
2026-03-19 16:35:00,METAR KHCR 191635Z AUTO 00000KT 10SM CLR 10/M02 A3041 RMK AO2 T01031017 $,0,0,0,16090,0,0,0,
2026-03-19 16:15:00,METAR KHCR 191615Z AUTO 00000KT 10SM CLR 09/M03 A3041 RMK AO2 T00901029 $,0,0,0,16090,0,0,0,
2026-03-19 15:55:00,METAR KHCR 191555Z AUTO 00000KT 8SM CLR 08/M02 A3041 RMK AO2 T00781024 $,0,0,0,12872,0,0,0,
2026-03-19 15:35:00,METAR KHCR 191535Z AUTO 00000KT 10SM CLR 07/M02 A3041 RMK AO2 T00671025 $,0,0,0,16090,0,0,0,
2026-03-19 15:15:00,METAR KHCR 191515Z AUTO 00000KT 10SM CLR 05/M02 A3041 RMK AO2 T00511017 $,0,0,0,16090,0,0,0,
2026-03-19 14:55:00,METAR KHCR 191455Z AUTO 00000KT 10SM CLR 03/M01 A3041 RMK AO2 T00341009 53012 $,0,0,0,16090,0,0,0,
2026-03-19 14:35:00,METAR KHCR 191435Z AUTO 00000KT 10SM CLR 02/M01 A3040 RMK AO2 T00241009 $,0,0,0,16090,0,0,0,
2026-03-19 14:15:00,METAR KHCR 191415Z AUTO 00000KT 9SM CLR M00/M04 A3040 RMK AO2 T10021042 $,0,0,0,14481,0,0,0,
2026-03-19 13:55:00,METAR KHCR 191355Z AUTO 12003KT 8SM CLR M02/M05 A3039 RMK AO2 T10161053 $,0,3,0,12872,0,0,0,
2026-03-19 13:35:00,METAR KHCR 191335Z AUTO 13003KT 8SM CLR M01/M05 A3039 RMK AO2 T10131051 $,0,3,0,12872,0,0,0,
2026-03-19 13:15:00,METAR KHCR 191315Z AUTO 12003KT 10SM CLR M02/M05 A3038 RMK AO2 T10231053 $,0,3,0,16090,0,0,0,
2026-03-19 12:55:00,METAR KHCR 191255Z AUTO 00000KT 10SM CLR M02/M05 A3038 RMK AO2 T10171048 $,0,0,0,16090,0,0,0,
2026-03-19 12:35:00,METAR KHCR 191235Z AUTO 12003KT 10SM CLR M02/M05 A3037 RMK AO2 T10181047 $,0,3,0,16090,0,0,0,
2026-03-19 12:15:00,METAR KHCR 191215Z AUTO 00000KT 10SM CLR M02/M05 A3037 RMK AO2 T10201051 $,0,0,0,16090,0,0,0,
2026-03-19 11:55:00,METAR KHCR 191155Z AUTO 00000KT 10SM CLR M02/M05 A3037 RMK AO2 T10171051 10080 21022 53002 $,0,0,0,16090,0,0,0,
2026-03-19 11:35:00,METAR KHCR 191135Z AUTO 00000KT 10SM CLR M01/M05 A3036 RMK AO2 T10081049 $,0,0,0,16090,0,0,0,
2026-03-19 11:15:00,METAR KHCR 191115Z AUTO 00000KT 10SM CLR M01/M04 A3036 RMK AO2 T10081044 $,0,0,0,16090,0,0,0,
2026-03-19 10:55:00,METAR KHCR 191055Z AUTO 00000KT 10SM CLR 01/M04 A3035 RMK AO2 T00121044 $,0,0,0,16090,0,0,0,
2026-03-19 10:35:00,METAR KHCR 191035Z AUTO 00000KT 10SM CLR M00/M05 A3035 RMK AO2 T10041048 $,0,0,0,16090,0,0,0,
2026-03-19 10:15:00,METAR KHCR 191015Z AUTO 00000KT 10SM CLR M00/M04 A3035 RMK AO2 T10011041 $,0,0,0,16090,0,0,0,
2026-03-19 09:55:00,METAR KHCR 190955Z AUTO 12003KT 10SM CLR M00/M04 A3036 RMK AO2 T10021041 $,0,3,0,16090,0,0,0,
2026-03-19 09:35:00,METAR KHCR 190935Z AUTO 00000KT 9SM CLR 01/M04 A3036 RMK AO2 T00081037 $,0,0,0,14481,0,0,0,
2026-03-19 09:15:00,METAR KHCR 190915Z AUTO 00000KT 9SM CLR M00/M04 A3036 RMK AO2 T10011040 $,0,0,0,14481,0,0,0,
2026-03-19 08:55:00,METAR KHCR 190855Z AUTO 00000KT 10SM CLR 01/M04 A3036 RMK AO2 T00141041 51004 $,0,0,0,16090,0,0,0,
2026-03-19 08:35:00,METAR KHCR 190835Z AUTO 00000KT 10SM CLR 02/M04 A3036 RMK AO2 T00201039 $,0,0,0,16090,0,0,0,
2026-03-19 08:15:00,METAR KHCR 190815Z AUTO 00000KT 10SM CLR 02/M04 A3036 RMK AO2 T00221037 $,0,0,0,16090,0,0,0,
2026-03-19 07:35:00,METAR KHCR 190735Z AUTO 00000KT 10SM CLR 05/M04 A3035 RMK AO2 T00491039 $,0,0,0,16090,0,0,0,
2026-03-19 07:15:00,METAR KHCR 190715Z AUTO 00000KT 10SM CLR 05/M04 A3036 RMK AO2 T00481043 $,0,0,0,16090,0,0,0,
2026-03-19 06:55:00,METAR KHCR 190655Z AUTO 00000KT 10SM CLR 05/M04 A3035 RMK AO2 T00501036 402451035 $,0,0,0,16090,0,0,0,
2026-03-19 06:35:00,METAR KHCR 190635Z AUTO 00000KT 10SM CLR 07/M04 A3035 RMK AO2 T00701038 $,0,0,0,16090,0,0,0,
2026-03-19 06:15:00,METAR KHCR 190615Z AUTO 09004KT 10SM CLR 08/M04 A3035 RMK AO2 T00761040 $,0,4,0,16090,0,0,0,
2026-03-19 05:55:00,METAR KHCR 190555Z AUTO 13006KT 10SM CLR 07/M04 A3034 RMK AO2 T00731042 10231 20051 51014 $,0,6,0,16090,0,0,0,
2026-03-19 05:35:00,METAR KHCR 190535Z AUTO 14005KT 9SM CLR 08/M04 A3034 RMK AO2 T00821045 $,0,5,0,14481,0,0,0,
2026-03-19 05:15:00,METAR KHCR 190515Z AUTO 12006KT 10SM CLR 06/M04 A3033 RMK AO2 T00611036 $,0,6,0,16090,0,0,0,
2026-03-19 04:55:00,METAR KHCR 190455Z AUTO 11006KT 10SM CLR 07/M04 A3033 RMK AO2 T00731038 $,0,6,0,16090,0,0,0,
2026-03-19 04:35:00,METAR KHCR 190435Z AUTO 10006KT 9SM CLR 08/M04 A3033 RMK AO2 T00761036 $,0,6,0,14481,0,0,0,
2026-03-19 04:15:00,METAR KHCR 190415Z AUTO 14004KT 10SM CLR 06/M03 A3032 RMK AO2 T00641033 $,0,4,0,16090,0,0,0,
2026-03-19 03:55:00,METAR KHCR 190355Z AUTO 21003KT 10SM CLR 10/M03 A3031 RMK AO2 T00991035 $,0,3,0,16090,0,0,0,
2026-03-19 03:35:00,METAR KHCR 190335Z AUTO 15004KT 10SM CLR 08/M04 A3031 RMK AO2 T00771036 $,0,4,0,16090,0,0,0,
2026-03-19 03:15:00,METAR KHCR 190315Z AUTO 12004KT 10SM CLR 11/M04 A3031 RMK AO2 T01091043 $,0,4,0,16090,0,0,0,
2026-03-19 02:55:00,METAR KHCR 190255Z AUTO 10006KT 10SM CLR 11/M03 A3030 RMK AO2 T01051032 53009 $,0,6,0,16090,0,0,0,
2026-03-19 02:35:00,METAR KHCR 190235Z AUTO 11006KT 9SM CLR 10/M03 A3029 RMK AO2 T01041030 $,0,6,0,14481,0,0,0,
2026-03-19 02:15:00,METAR KHCR 190215Z AUTO 04005KT 9SM CLR 13/M03 A3028 RMK AO2 T01291031 $,0,5,0,14481,0,0,0,
2026-03-19 01:55:00,METAR KHCR 190155Z AUTO 00000KT 8SM CLR 16/M04 A3027 RMK AO2 T01621042 $,0,0,0,12872,0,0,0,
2026-03-19 01:35:00,METAR KHCR 190135Z AUTO 00000KT 9SM CLR 18/M04 A3027 RMK AO2 T01801044 $,0,0,0,14481,0,0,0,
2026-03-19 01:15:00,METAR KHCR 190115Z AUTO 21003KT 9SM CLR 21/M05 A3027 RMK AO2 T02081050 $,0,3,0,14481,0,0,0,
2026-03-19 00:55:00,METAR KHCR 190055Z AUTO 22004KT 9SM CLR 22/M04 A3026 RMK AO2 T02161041 $,0,4,0,14481,0,0,0,
2026-03-19 00:35:00,METAR KHCR 190035Z AUTO 24005KT 10SM CLR 22/M04 A3026 RMK AO2 T02221037 $,0,5,0,16090,0,0,0,
2026-03-19 00:15:00,METAR KHCR 190015Z AUTO 22006KT 10SM CLR 23/M05 A3026 RMK AO2 T02281048 $,0,6,0,16090,0,0,0,
2026-03-18 23:55:00,METAR KHCR 182355Z AUTO 23006KT 10SM CLR 24/M05 A3026 RMK AO2 T02351054 10245 20141 56007 $,0,6,0,16090,0,0,0,
2026-03-18 23:35:00,METAR KHCR 182335Z AUTO 26009KT 10SM CLR 24/M05 A3026 RMK AO2 T02361050 $,0,9,0,16090,0,0,0,
2026-03-18 23:15:00,METAR KHCR 182315Z AUTO 24010KT 10SM CLR 24/M06 A3027 RMK AO2 T02371058 $,0,10,0,16090,0,0,0,
2026-03-18 22:55:00,METAR KHCR 182255Z AUTO 27007KT 10SM CLR 24/M06 A3027 RMK AO2 T02381061 $,0,7,0,16090,0,0,0,
2026-03-18 22:35:00,METAR KHCR 182235Z AUTO 26011KT 10SM CLR 24/M06 A3027 RMK AO2 T02401059 $,0,11,0,16090,0,0,0,
2026-03-18 22:15:00,METAR KHCR 182215Z AUTO 24009KT 10SM CLR 24/M06 A3027 RMK AO2 T02431055 $,0,9,0,16090,0,0,0,
2026-03-18 21:55:00,METAR KHCR 182155Z AUTO 24011KT 10SM CLR 24/M05 A3027 RMK AO2 T02431053 $,0,11,0,16090,0,0,0,
2026-03-18 21:35:00,METAR KHCR 182135Z AUTO 24010KT 10SM CLR 24/M05 A3027 RMK AO2 T02421054 $,0,10,0,16090,0,0,0,
2026-03-18 21:15:00,METAR KHCR 182115Z AUTO 24008KT 10SM CLR 24/M05 A3028 RMK AO2 T02431047 $,0,8,0,16090,0,0,0,
2026-03-18 20:55:00,METAR KHCR 182055Z AUTO 27005KT 10SM CLR 24/M05 A3029 RMK AO2 T02381053 58016 $,0,5,0,16090,0,0,0,
2026-03-18 20:35:00,METAR KHCR 182035Z AUTO VRB03KT 10SM CLR 23/M04 A3030 RMK AO2 T02281036 $,0,3,0,16090,0,0,0,
2026-03-18 20:15:00,METAR KHCR 182015Z AUTO 00000KT 10SM CLR 22/M02 A3031 RMK AO2 T02231016 $,0,0,0,16090,0,0,0,
2026-03-18 19:35:00,METAR KHCR 181935Z AUTO 00000KT 10SM CLR 20/M02 A3032 RMK AO2 T01971020 $,0,0,0,16090,0,0,0,
2026-03-18 19:15:00,METAR KHCR 181915Z AUTO 00000KT 10SM CLR 19/M01 A3033 RMK AO2 T01901008 $,0,0,0,16090,0,0,0,
2026-03-18 18:55:00,METAR KHCR 181855Z AUTO 00000KT 10SM CLR 17/M00 A3033 RMK AO2 T01741005 $,0,0,0,16090,0,0,0,
2026-03-18 18:35:00,METAR KHCR 181835Z AUTO 00000KT 10SM CLR 17/M02 A3034 RMK AO2 T01681016 $,0,0,0,16090,0,0,0,
2026-03-18 18:15:00,METAR KHCR 181815Z AUTO 00000KT 10SM CLR 15/M03 A3034 RMK AO2 T01501026 $,0,0,0,16090,0,0,0,
2026-03-18 17:55:00,METAR KHCR 181755Z AUTO 00000KT 10SM CLR 13/M01 A3035 RMK AO2 T01351011 10135 21035 58002 $,0,0,0,16090,0,0,0,
2026-03-18 17:35:00,METAR KHCR 181735Z AUTO 00000KT 9SM CLR 13/M01 A3035 RMK AO2 T01311008 $,0,0,0,14481,0,0,0,
2026-03-18 17:15:00,METAR KHCR 181715Z AUTO 00000KT 8SM CLR 11/M02 A3035 RMK AO2 T01151019 $,0,0,0,12872,0,0,0,
2026-03-18 16:55:00,METAR KHCR 181655Z AUTO 00000KT 9SM CLR 10/M02 A3036 RMK AO2 T00961016 $,0,0,0,14481,0,0,0,
2026-03-18 16:35:00,METAR KHCR 181635Z AUTO 00000KT 10SM CLR 08/M02 A3036 RMK AO2 T00831018 $,0,0,0,16090,0,0,0,
2026-03-18 16:15:00,METAR KHCR 181615Z AUTO 00000KT 10SM CLR 07/M01 A3036 RMK AO2 T00711012 $,0,0,0,16090,0,0,0,
2026-03-18 15:55:00,METAR KHCR 181555Z AUTO 00000KT 10SM CLR 05/M01 A3036 RMK AO2 T00541015 $,0,0,0,16090,0,0,0,
2026-03-18 15:35:00,METAR KHCR 181535Z AUTO 00000KT 10SM CLR 05/M01 A3036 RMK AO2 T00461014 $,0,0,0,16090,0,0,0,
2026-03-18 15:15:00,METAR KHCR 181515Z AUTO 00000KT 10SM CLR 04/M01 A3036 RMK AO2 T00411014 $,0,0,0,16090,0,0,0,
2026-03-18 14:55:00,METAR KHCR 181455Z AUTO 00000KT 10SM CLR 03/M02 A3035 RMK AO2 T00261020 52012 $,0,0,0,16090,0,0,0,
2026-03-18 14:35:00,METAR KHCR 181435Z AUTO 00000KT 10SM CLR 01/M03 A3035 RMK AO2 T00131027 $,0,0,0,16090,0,0,0,
2026-03-18 14:15:00,METAR KHCR 181415Z AUTO 00000KT 9SM CLR M02/M04 A3035 RMK AO2 T10161042 $,0,0,0,14481,0,0,0,
2026-03-18 13:55:00,METAR KHCR 181355Z AUTO 00000KT 8SM CLR M03/M05 A3034 RMK AO2 T10301051 $,0,0,0,12872,0,0,0,
2026-03-18 13:35:00,METAR KHCR 181335Z AUTO 00000KT 8SM CLR M03/M05 A3034 RMK AO2 T10301052 $,0,0,0,12872,0,0,0,
2026-03-18 13:15:00,METAR KHCR 181315Z AUTO 00000KT 10SM CLR M03/M05 A3034 RMK AO2 T10311053 $,0,0,0,16090,0,0,0,
2026-03-18 12:55:00,METAR KHCR 181255Z AUTO 00000KT 9SM CLR M02/M05 A3032 RMK AO2 T10211051 $,0,0,0,14481,0,0,0,
2026-03-18 12:35:00,METAR KHCR 181235Z AUTO 00000KT 10SM CLR M02/M06 A3032 RMK AO2 T10241057 $,0,0,0,16090,0,0,0,
2026-03-18 12:15:00,METAR KHCR 181215Z AUTO 00000KT 10SM CLR M03/M05 A3032 RMK AO2 T10281055 $,0,0,0,16090,0,0,0,
2026-03-18 11:55:00,METAR KHCR 181155Z AUTO 00000KT 10SM CLR M02/M05 A3031 RMK AO2 T10211051 10038 21030 53007 $,0,0,0,16090,0,0,0,
2026-03-18 11:35:00,METAR KHCR 181135Z AUTO 12003KT 10SM CLR M02/M05 A3031 RMK AO2 T10211051 $,0,3,0,16090,0,0,0,
2026-03-18 11:15:00,METAR KHCR 181115Z AUTO 00000KT 10SM CLR M02/M05 A3031 RMK AO2 T10191052 $,0,0,0,16090,0,0,0,
2026-03-18 10:55:00,METAR KHCR 181055Z AUTO 00000KT 10SM CLR M02/M05 A3030 RMK AO2 T10211054 $,0,0,0,16090,0,0,0,
2026-03-18 10:35:00,METAR KHCR 181035Z AUTO 00000KT 10SM CLR M01/M05 A3030 RMK AO2 T10081051 $,0,0,0,16090,0,0,0,
2026-03-18 10:15:00,METAR KHCR 181015Z AUTO 00000KT 10SM CLR M01/M05 A3030 RMK AO2 T10061050 $,0,0,0,16090,0,0,0,
2026-03-18 09:55:00,METAR KHCR 180955Z AUTO 12004KT 10SM CLR M01/M05 A3029 RMK AO2 T10081048 $,0,4,0,16090,0,0,0,
2026-03-18 09:35:00,METAR KHCR 180935Z AUTO 12003KT 10SM CLR M01/M05 A3029 RMK AO2 T10141051 $,0,3,0,16090,0,0,0,
2026-03-18 09:15:00,METAR KHCR 180915Z AUTO 00000KT 10SM CLR 00/M05 A3029 RMK AO2 T00051047 $,0,0,0,16090,0,0,0,
2026-03-18 08:55:00,METAR KHCR 180855Z AUTO 00000KT 10SM CLR M00/M05 A3029 RMK AO2 T10011049 53005 $,0,0,0,16090,0,0,0,
2026-03-18 08:35:00,METAR KHCR 180835Z AUTO 00000KT 10SM CLR 00/M05 A3028 RMK AO2 T00021045 $,0,0,0,16090,0,0,0,
2026-03-18 08:15:00,METAR KHCR 180815Z AUTO 00000KT 10SM CLR 03/M04 A3028 RMK AO2 T00271043 $,0,0,0,16090,0,0,0,
2026-03-18 07:55:00,METAR KHCR 180755Z AUTO 00000KT 10SM CLR 01/M04 A3028 RMK AO2 T00121044 $,0,0,0,16090,0,0,0,
2026-03-18 07:35:00,METAR KHCR 180735Z AUTO VRB03KT 10SM CLR 02/M04 A3028 RMK AO2 T00211040 $,0,3,0,16090,0,0,0,
2026-03-18 07:15:00,METAR KHCR 180715Z AUTO 12004KT 10SM CLR 02/M04 A3027 RMK AO2 T00211038 $,0,4,0,16090,0,0,0,
2026-03-18 06:55:00,METAR KHCR 180655Z AUTO 00000KT 10SM CLR 01/M04 A3027 RMK AO2 T00131037 402051043 $,0,0,0,16090,0,0,0,
2026-03-18 06:35:00,METAR KHCR 180635Z AUTO 00000KT 10SM CLR 03/M04 A3027 RMK AO2 T00321041 $,0,0,0,16090,0,0,0,
2026-03-18 06:15:00,METAR KHCR 180615Z AUTO 00000KT 9SM CLR 03/M04 A3027 RMK AO2 T00271037 $,0,0,0,14481,0,0,0,
2026-03-18 05:55:00,METAR KHCR 180555Z AUTO 00000KT 10SM CLR 03/M04 A3027 RMK AO2 T00351040 10192 20026 53010 $,0,0,0,16090,0,0,0,
2026-03-18 05:35:00,METAR KHCR 180535Z AUTO 00000KT 10SM CLR 04/M04 A3026 RMK AO2 T00381038 $,0,0,0,16090,0,0,0,
2026-03-18 05:15:00,METAR KHCR 180515Z AUTO 00000KT 10SM CLR 04/M04 A3026 RMK AO2 T00401039 $,0,0,0,16090,0,0,0,
2026-03-18 04:55:00,METAR KHCR 180455Z AUTO 00000KT 10SM CLR 05/M04 A3025 RMK AO2 T00541045 $,0,0,0,16090,0,0,0,
2026-03-18 04:35:00,METAR KHCR 180435Z AUTO 12003KT 10SM CLR 04/M04 A3025 RMK AO2 T00431043 $,0,3,0,16090,0,0,0,
2026-03-18 04:15:00,METAR KHCR 180415Z AUTO 13003KT 10SM CLR 06/M05 A3024 RMK AO2 T00641051 $,0,3,0,16090,0,0,0,
2026-03-18 03:55:00,METAR KHCR 180355Z AUTO 11003KT 10SM CLR 07/M05 A3024 RMK AO2 T00701049 $,0,3,0,16090,0,0,0,
2026-03-18 03:35:00,METAR KHCR 180335Z AUTO 00000KT 10SM CLR 08/M05 A3024 RMK AO2 T00841050 $,0,0,0,16090,0,0,0,
2026-03-18 03:15:00,METAR KHCR 180315Z AUTO 08005KT 10SM CLR 12/M06 A3024 RMK AO2 T01151065 $,0,5,0,16090,0,0,0,
2026-03-18 02:55:00,METAR KHCR 180255Z AUTO 00000KT 10SM CLR 12/M07 A3023 RMK AO2 T01191066 53007 $,0,0,0,16090,0,0,0,
2026-03-18 02:35:00,METAR KHCR 180235Z AUTO 00000KT 10SM CLR 11/M06 A3023 RMK AO2 T01101061 $,0,0,0,16090,0,0,0,
2026-03-18 02:15:00,METAR KHCR 180215Z AUTO 12006KT 10SM CLR 10/M05 A3023 RMK AO2 T00981053 $,0,6,0,16090,0,0,0,
2026-03-18 01:55:00,METAR KHCR 180155Z AUTO 00000KT 8SM CLR 15/M08 A3022 RMK AO2 T01501076 $,0,0,0,12872,0,0,0,
2026-03-18 01:35:00,METAR KHCR 180135Z AUTO 36005KT 9SM CLR 15/M08 A3022 RMK AO2 T01471076 $,0,5,0,14481,0,0,0,
2026-03-18 01:15:00,METAR KHCR 180115Z AUTO 00000KT 9SM CLR 15/M08 A3022 RMK AO2 T01541082 $,0,0,0,14481,0,0,0,
2026-03-18 00:55:00,METAR KHCR 180055Z AUTO 33006KT 9SM CLR 17/M06 A3022 RMK AO2 T01721064 $,0,6,0,14481,0,0,0,
2026-03-18 00:35:00,METAR KHCR 180035Z AUTO 25005KT 10SM CLR 18/M09 A3021 RMK AO2 T01841089 $,0,5,0,16090,0,0,0,
2026-03-18 00:15:00,METAR KHCR 180015Z AUTO 28007KT 10SM CLR 19/M10 A3021 RMK AO2 T01901097 $,0,7,0,16090,0,0,0,
2026-03-17 23:55:00,METAR KHCR 172355Z AUTO 27007KT 10SM CLR 19/M11 A3021 RMK AO2 T01941110 10205 20123 56003 $,0,7,0,16090,0,0,0,
2026-03-17 23:35:00,METAR KHCR 172335Z AUTO 26009KT 10SM CLR 20/M09 A3021 RMK AO2 T01991094 $,0,9,0,16090,0,0,0,
2026-03-17 23:15:00,METAR KHCR 172315Z AUTO 27010KT 10SM CLR 20/M09 A3021 RMK AO2 T02031090 $,0,10,0,16090,0,0,0,
2026-03-17 22:55:00,METAR KHCR 172255Z AUTO 25008KT 10SM CLR 20/M07 A3021 RMK AO2 T02031072 $,0,8,0,16090,0,0,0,
2026-03-17 22:35:00,METAR KHCR 172235Z AUTO 24012G17KT 10SM CLR 20/M07 A3020 RMK AO2 T02001069 $,0,12,1,16090,0,0,0,
2026-03-17 22:15:00,METAR KHCR 172215Z AUTO 31007KT 10SM CLR 20/M06 A3021 RMK AO2 T02021058 $,0,7,0,16090,0,0,0,
2026-03-17 21:55:00,METAR KHCR 172155Z AUTO 33008KT 240V360 10SM CLR 20/M08 A3021 RMK AO2 T02011081 $,0,8,0,16090,0,0,0,
2026-03-17 21:35:00,METAR KHCR 172135Z AUTO 34009KT 220V360 10SM CLR 20/M08 A3021 RMK AO2 T02031078 $,0,9,0,16090,0,0,0,
2026-03-17 21:15:00,METAR KHCR 172115Z AUTO 34011G17KT 10SM CLR 20/M07 A3021 RMK AO2 T02001070 $,0,11,1,16090,0,0,0,
2026-03-17 20:55:00,METAR KHCR 172055Z AUTO 33010G15KT 10SM CLR 20/M05 A3022 RMK AO2 T01991054 56016 $,0,10,1,16090,0,0,0,
2026-03-17 20:35:00,METAR KHCR 172035Z AUTO 25003KT 10SM CLR 19/M04 A3022 RMK AO2 T01931037 $,0,3,0,16090,0,0,0,
2026-03-17 20:15:00,METAR KHCR 172015Z AUTO 34007KT 240V010 10SM FEW290 19/M03 A3023 RMK AO2 T01881034 $,0,7,0,16090,0,0,0,
2026-03-17 19:55:00,METAR KHCR 171955Z AUTO 00000KT 10SM CLR 18/M00 A3023 RMK AO2 T01761001 $,0,0,0,16090,0,0,0,
2026-03-17 19:35:00,METAR KHCR 171935Z AUTO VRB03KT 10SM CLR 18/01 A3023 RMK AO2 T01780007 $,0,3,0,16090,0,0,0,
2026-03-17 19:15:00,METAR KHCR 171915Z AUTO VRB04KT 10SM CLR 16/01 A3024 RMK AO2 T01630012 $,0,4,0,16090,0,0,0,
2026-03-17 18:55:00,METAR KHCR 171855Z AUTO 00000KT 10SM CLR 15/01 A3024 RMK AO2 T01520013 $,0,0,0,16090,0,0,0,
2026-03-17 18:35:00,METAR KHCR 171835Z AUTO 00000KT 10SM CLR 14/01 A3026 RMK AO2 T01400015 $,0,0,0,16090,0,0,0,
2026-03-17 18:15:00,METAR KHCR 171815Z AUTO 00000KT 10SM CLR 12/01 A3027 RMK AO2 T01250015 $,0,0,0,16090,0,0,0,
2026-03-17 17:55:00,METAR KHCR 171755Z AUTO 00000KT 10SM CLR 11/02 A3028 RMK AO2 T01140018 10114 21043 58004 $,0,0,0,16090,0,0,0,
2026-03-17 17:35:00,METAR KHCR 171735Z AUTO 00000KT 10SM CLR 10/01 A3028 RMK AO2 T01010015 $,0,0,0,16090,0,0,0,
2026-03-17 17:15:00,METAR KHCR 171715Z AUTO 00000KT 10SM CLR 09/02 A3029 RMK AO2 T00910016 $,0,0,0,16090,0,0,0,
2026-03-17 16:55:00,METAR KHCR 171655Z AUTO 00000KT 10SM CLR 08/01 A3030 RMK AO2 T00760011 $,0,0,0,16090,0,0,0,
2026-03-17 16:35:00,METAR KHCR 171635Z AUTO 00000KT 10SM CLR 07/00 A3030 RMK AO2 T00700003 $,0,0,0,16090,0,0,0,
2026-03-17 16:15:00,METAR KHCR 171615Z AUTO 00000KT 10SM CLR 06/00 A3030 RMK AO2 T00610003 $,0,0,0,16090,0,0,0,
2026-03-17 15:55:00,METAR KHCR 171555Z AUTO 00000KT 10SM CLR 04/00 A3030 RMK AO2 T00410001 $,0,0,0,16090,0,0,0,
2026-03-17 15:35:00,METAR KHCR 171535Z AUTO 00000KT 10SM CLR 03/M00 A3030 RMK AO2 T00331001 $,0,0,0,16090,0,0,0,
2026-03-17 14:55:00,METAR KHCR 171455Z AUTO 00000KT 9SM CLR 01/M01 A3029 RMK AO2 T00071010 53005 $,0,0,0,14481,0,0,0,
2026-03-17 14:35:00,METAR KHCR 171435Z AUTO 00000KT 10SM CLR M00/M02 A3029 RMK AO2 T10021016 $,0,0,0,16090,0,0,0,
2026-03-17 14:15:00,METAR KHCR 171415Z AUTO 12003KT 8SM CLR M03/M04 A3028 RMK AO2 T10291039 $,0,3,0,12872,0,0,0,
2026-03-17 13:55:00,METAR KHCR 171355Z AUTO 00000KT 8SM CLR M04/M05 A3028 RMK AO2 T10401048 $,0,0,0,12872,0,0,0,
2026-03-17 13:35:00,METAR KHCR 171335Z AUTO 16003KT 9SM CLR M04/M05 A3028 RMK AO2 T10411049 $,0,3,0,14481,0,0,0,
2026-03-17 13:15:00,METAR KHCR 171315Z AUTO 00000KT 10SM CLR M03/M04 A3028 RMK AO2 T10261038 $,0,0,0,16090,0,0,0,
2026-03-17 12:55:00,METAR KHCR 171255Z AUTO 00000KT 10SM CLR M03/M04 A3028 RMK AO2 T10311041 $,0,0,0,16090,0,0,0,
2026-03-17 12:35:00,METAR KHCR 171235Z AUTO 10004KT 10SM CLR M02/M03 A3028 RMK AO2 T10221032 $,0,4,0,16090,0,0,0,
2026-03-17 12:15:00,METAR KHCR 171215Z AUTO 13003KT 10SM CLR M02/M03 A3027 RMK AO2 T10241034 $,0,3,0,16090,0,0,0,
2026-03-17 11:55:00,METAR KHCR 171155Z AUTO 00000KT 10SM CLR M01/M02 A3027 RMK AO2 T10101024 10032 21023 53005 $,0,0,0,16090,0,0,0,
2026-03-17 11:35:00,METAR KHCR 171135Z AUTO 00000KT 10SM CLR M01/M02 A3027 RMK AO2 T10071018 $,0,0,0,16090,0,0,0,
2026-03-17 11:15:00,METAR KHCR 171115Z AUTO 20003KT 10SM CLR M02/M03 A3027 RMK AO2 T10201032 $,0,3,0,16090,0,0,0,
2026-03-17 10:55:00,METAR KHCR 171055Z AUTO 00000KT 10SM CLR M01/M03 A3027 RMK AO2 T10121028 $,0,0,0,16090,0,0,0,
2026-03-17 10:35:00,METAR KHCR 171035Z AUTO 00000KT 10SM CLR M01/M03 A3027 RMK AO2 T10121030 $,0,0,0,16090,0,0,0,
2026-03-17 10:15:00,METAR KHCR 171015Z AUTO 00000KT 10SM CLR M01/M03 A3026 RMK AO2 T10151031 $,0,0,0,16090,0,0,0,
2026-03-17 09:55:00,METAR KHCR 170955Z AUTO 12004KT 10SM CLR M01/M02 A3026 RMK AO2 T10051023 $,0,4,0,16090,0,0,0,
2026-03-17 09:35:00,METAR KHCR 170935Z AUTO 16004KT 10SM CLR M01/M03 A3026 RMK AO2 T10081026 $,0,4,0,16090,0,0,0,
2026-03-17 09:15:00,METAR KHCR 170915Z AUTO 00000KT 10SM CLR M00/M02 A3026 RMK AO2 T10031024 $,0,0,0,16090,0,0,0,
2026-03-17 08:55:00,METAR KHCR 170855Z AUTO 00000KT 10SM CLR 01/M02 A3026 RMK AO2 T00091017 50001 $,0,0,0,16090,0,0,0,
2026-03-17 08:35:00,METAR KHCR 170835Z AUTO 12005KT 10SM CLR 01/M02 A3026 RMK AO2 T00091018 $,0,5,0,16090,0,0,0,
2026-03-17 08:15:00,METAR KHCR 170815Z AUTO 13003KT 10SM CLR M00/M03 A3026 RMK AO2 T10031026 $,0,3,0,16090,0,0,0,
2026-03-17 07:55:00,METAR KHCR 170755Z AUTO 00000KT 10SM CLR 00/M02 A3026 RMK AO2 T00041024 $,0,0,0,16090,0,0,0,
2026-03-17 07:35:00,METAR KHCR 170735Z AUTO 00000KT 10SM CLR 01/M02 A3026 RMK AO2 T00071020 $,0,0,0,16090,0,0,0,
2026-03-17 07:15:00,METAR KHCR 170715Z AUTO 00000KT 10SM CLR 01/M02 A3026 RMK AO2 T00101016 $,0,0,0,16090,0,0,0,
2026-03-17 06:55:00,METAR KHCR 170655Z AUTO 00000KT 10SM CLR 01/M02 A3025 RMK AO2 T00111016 401371034 $,0,0,0,16090,0,0,0,
2026-03-17 06:35:00,METAR KHCR 170635Z AUTO 00000KT 10SM CLR 02/M01 A3025 RMK AO2 T00161014 $,0,0,0,16090,0,0,0,
2026-03-17 06:15:00,METAR KHCR 170615Z AUTO 00000KT 10SM CLR 03/M01 A3025 RMK AO2 T00311007 $,0,0,0,16090,0,0,0,
2026-03-17 05:55:00,METAR KHCR 170555Z AUTO 00000KT 10SM CLR 05/M00 A3025 RMK AO2 T00511003 10127 20026 53002 $,0,0,0,16090,0,0,0,
2026-03-17 05:35:00,METAR KHCR 170535Z AUTO 12003KT 10SM CLR 03/M01 A3025 RMK AO2 T00291007 $,0,3,0,16090,0,0,0,
2026-03-17 05:15:00,METAR KHCR 170515Z AUTO 00000KT 10SM FEW110 SCT210 05/M00 A3025 RMK AO2 T00531002 $,0,0,0,16090,0,0,0,
2026-03-17 04:55:00,METAR KHCR 170455Z AUTO 12003KT 10SM SCT220 04/M01 A3025 RMK AO2 T00401006 $,0,3,0,16090,0,0,0,
2026-03-17 04:35:00,METAR KHCR 170435Z AUTO 00000KT 10SM FEW110 BKN220 06/M00 A3025 RMK AO2 T00561001 $,0,0,0,16090,0,0,0,
2026-03-17 04:15:00,METAR KHCR 170415Z AUTO 14003KT 10SM SCT100 BKN220 06/M00 A3023 RMK AO2 T00551002 $,0,3,0,16090,0,0,0,
2026-03-17 03:55:00,METAR KHCR 170355Z AUTO 13003KT 10SM SCT090 06/M00 A3024 RMK AO2 T00581001 $,0,3,0,16090,0,0,0,
2026-03-17 03:35:00,METAR KHCR 170335Z AUTO 10004KT 10SM SCT070 SCT100 06/M00 A3023 RMK AO2 T00601001 $,0,4,0,16090,0,0,0,
2026-03-17 03:15:00,METAR KHCR 170315Z AUTO 11003KT 10SM OVC070 07/00 A3024 RMK AO2 T00730000 $,0,3,0,16090,0,0,0,
2026-03-17 02:55:00,METAR KHCR 170255Z AUTO 00000KT 10SM SCT070 06/M00 A3024 RMK AO2 T00641005 52008 $,0,0,0,16090,0,0,0,
2026-03-17 02:35:00,METAR KHCR 170235Z AUTO 13004KT 10SM FEW055 06/M00 A3024 RMK AO2 T00641004 $,0,4,0,16090,0,0,0,
2026-03-17 02:15:00,METAR KHCR 170215Z AUTO 12004KT 10SM BKN060 08/00 A3023 RMK AO2 T00780000 $,0,4,0,16090,0,0,0,
2026-03-17 01:55:00,METAR KHCR 170155Z AUTO 12005KT 10SM BKN060 09/00 A3023 RMK AO2 T00900001 $,0,5,0,16090,0,0,0,
2026-03-17 01:35:00,METAR KHCR 170135Z AUTO 14005KT 10SM FEW060 09/00 A3023 RMK AO2 T00900002 $,0,5,0,16090,0,0,0,
2026-03-17 01:15:00,METAR KHCR 170115Z AUTO 12004KT 9SM FEW055 SCT170 10/M01 A3022 RMK AO2 T01051008 $,0,4,0,14481,0,0,0,
2026-03-17 00:55:00,METAR KHCR 170055Z AUTO 21003KT 10SM FEW055 BKN180 11/M02 A3023 RMK AO2 T01101018 $,0,3,0,16090,0,0,0,
2026-03-17 00:35:00,METAR KHCR 170035Z AUTO 24007KT 10SM SCT055 OVC180 11/M02 A3023 RMK AO2 T01121018 $,0,7,0,16090,0,0,0,
2026-03-17 00:15:00,METAR KHCR 170015Z AUTO 25009KT 10SM SCT055 OVC180 12/M02 A3022 RMK AO2 T01151019 $,0,9,0,16090,0,0,0,
2026-03-16 23:55:00,METAR KHCR 162355Z AUTO 01007KT 10SM FEW060 SCT180 12/01 A3022 RMK AO2 T01210006 10137 20050 56012 $,0,7,0,16090,0,0,0,
2026-03-16 23:35:00,METAR KHCR 162335Z AUTO 02009KT 340V050 10SM CLR 13/00 A3022 RMK AO2 T01310005 $,0,9,0,16090,0,0,0,
2026-03-16 23:15:00,METAR KHCR 162315Z AUTO 35009KT 10SM CLR 13/00 A3022 RMK AO2 T01350003 $,0,9,0,16090,0,0,0,
2026-03-16 22:55:00,METAR KHCR 162255Z AUTO 05008KT 10SM CLR 13/M00 A3023 RMK AO2 T01301005 $,0,8,0,16090,0,0,0,
2026-03-16 22:35:00,METAR KHCR 162235Z AUTO 05006KT 10SM CLR 13/M01 A3023 RMK AO2 T01261006 $,0,6,0,16090,0,0,0,
2026-03-16 22:15:00,METAR KHCR 162215Z AUTO 03008KT 10SM CLR 13/M01 A3023 RMK AO2 T01251006 $,0,8,0,16090,0,0,0,
2026-03-16 21:55:00,METAR KHCR 162155Z AUTO 08004G16KT 10SM CLR 12/M01 A3024 RMK AO2 T01161011 $,0,4,1,16090,0,0,0,
2026-03-16 21:35:00,METAR KHCR 162135Z AUTO VRB06KT 10SM FEW050 12/M01 A3024 RMK AO2 T01191010 $,0,6,0,16090,0,0,0,
2026-03-16 21:15:00,METAR KHCR 162115Z AUTO VRB05KT 10SM FEW055 12/M02 A3024 RMK AO2 T01181019 $,0,5,0,16090,0,0,0,
2026-03-16 20:55:00,METAR KHCR 162055Z AUTO 01007KT 10SM BKN055 11/M03 A3026 RMK AO2 T01141027 58010 $,0,7,0,16090,0,0,0,
2026-03-16 20:35:00,METAR KHCR 162035Z AUTO VRB05KT 10SM BKN055 11/M04 A3026 RMK AO2 T01061040 $,0,5,0,16090,0,0,0,
2026-03-16 20:15:00,METAR KHCR 162015Z AUTO 35007KT 260V030 10SM OVC055 10/M05 A3027 RMK AO2 T00991047 $,0,7,0,16090,0,0,0,
2026-03-16 19:55:00,METAR KHCR 161955Z AUTO 00000KT 10SM OVC050 09/M06 A3028 RMK AO2 T00861063 $,0,0,0,16090,0,0,0,
2026-03-16 19:35:00,METAR KHCR 161935Z AUTO 00000KT 10SM OVC050 08/M07 A3028 RMK AO2 T00791070 $,0,0,0,16090,0,0,0,
2026-03-16 19:15:00,METAR KHCR 161915Z AUTO VRB03KT 10SM OVC050 07/M08 A3028 RMK AO2 T00751075 $,0,3,0,16090,0,0,0,
2026-03-16 18:55:00,METAR KHCR 161855Z AUTO 00000KT 10SM OVC050 06/M09 A3028 RMK AO2 T00651086 $,0,0,0,16090,0,0,0,
2026-03-16 18:35:00,METAR KHCR 161835Z AUTO 00000KT 10SM OVC050 06/M09 A3028 RMK AO2 T00631089 $,0,0,0,16090,0,0,0,
2026-03-16 18:15:00,METAR KHCR 161815Z AUTO 00000KT 10SM OVC049 05/M09 A3028 RMK AO2 T00551091 $,0,0,0,16090,0,0,0,
2026-03-16 17:55:00,METAR KHCR 161755Z AUTO 00000KT 10SM OVC050 05/M10 A3029 RMK AO2 T00501096 10050 21004 51007 $,0,0,0,16090,0,0,0,
2026-03-16 17:35:00,METAR KHCR 161735Z AUTO 00000KT 9SM OVC050 04/M10 A3029 RMK AO2 T00451098 $,0,0,0,14481,0,0,0,
2026-03-16 17:15:00,METAR KHCR 161715Z AUTO VRB03KT 9SM OVC050 04/M10 A3030 RMK AO2 T00431102 $,0,3,0,14481,0,0,0,
2026-03-16 16:55:00,METAR KHCR 161655Z AUTO 00000KT 9SM OVC050 04/M11 A3029 RMK AO2 T00351106 $,0,0,0,14481,0,0,0,
2026-03-16 16:35:00,METAR KHCR 161635Z AUTO 00000KT 10SM OVC050 03/M10 A3029 RMK AO2 T00311098 $,0,0,0,16090,0,0,0,
2026-03-16 15:55:00,METAR KHCR 161555Z AUTO 25003KT 10SM OVC055 02/M10 A3029 RMK AO2 T00171097 $,0,3,0,16090,0,0,0,
2026-03-16 15:35:00,METAR KHCR 161535Z AUTO 29004KT 10SM OVC055 01/M10 A3029 RMK AO2 T00141097 $,0,4,0,16090,0,0,0,
2026-03-16 15:15:00,METAR KHCR 161515Z AUTO 00000KT 10SM OVC055 01/M09 A3028 RMK AO2 T00111087 $,0,0,0,16090,0,0,0,
2026-03-16 14:55:00,METAR KHCR 161455Z AUTO 00000KT 10SM OVC055 01/M12 A3027 RMK AO2 T00111118 53005 $,0,0,0,16090,0,0,0,
2026-03-16 14:35:00,METAR KHCR 161435Z AUTO 06003KT 10SM OVC055 01/M11 A3026 RMK AO2 T00091111 $,0,3,0,16090,0,0,0,
2026-03-16 14:15:00,METAR KHCR 161415Z AUTO 09003KT 10SM OVC055 01/M10 A3025 RMK AO2 T00081103 $,0,3,0,16090,0,0,0,
2026-03-16 13:55:00,METAR KHCR 161355Z AUTO 00000KT 9SM OVC060 00/M10 A3025 RMK AO2 T00051095 $,0,0,0,14481,0,0,0,
2026-03-16 13:35:00,METAR KHCR 161335Z AUTO 00000KT 10SM OVC060 M00/M09 A3025 RMK AO2 T10011093 $,0,0,0,16090,0,0,0,
2026-03-16 13:15:00,METAR KHCR 161315Z AUTO 00000KT 10SM OVC060 00/M11 A3026 RMK AO2 T00041109 $,0,0,0,16090,0,0,0,
2026-03-16 12:55:00,METAR KHCR 161255Z AUTO 00000KT 10SM OVC060 M00/M08 A3025 RMK AO2 T10031084 $,0,0,0,16090,0,0,0,
2026-03-16 12:35:00,METAR KHCR 161235Z AUTO 00000KT 10SM OVC055 M00/M09 A3026 RMK AO2 T10031091 $,0,0,0,16090,0,0,0,
2026-03-16 12:15:00,METAR KHCR 161215Z AUTO 00000KT 10SM OVC055 M00/M09 A3026 RMK AO2 T10021093 $,0,0,0,16090,0,0,0,
2026-03-16 11:55:00,METAR KHCR 161155Z AUTO 00000KT 10SM OVC055 M00/M11 A3025 RMK AO2 T10021106 10001 21036 55011 $,0,0,0,16090,0,0,0,
2026-03-16 11:35:00,METAR KHCR 161135Z AUTO 00000KT 10SM OVC055 M00/M11 A3025 RMK AO2 T10021106 $,0,0,0,16090,0,0,0,
2026-03-16 11:15:00,METAR KHCR 161115Z AUTO 00000KT 10SM OVC055 M00/M10 A3025 RMK AO2 T10021104 $,0,0,0,16090,0,0,0,
2026-03-16 10:55:00,METAR KHCR 161055Z AUTO 00000KT 10SM OVC055 M00/M10 A3024 RMK AO2 T10041103 $,0,0,0,16090,0,0,0,
2026-03-16 10:35:00,METAR KHCR 161035Z AUTO 00000KT 10SM OVC050 M00/M11 A3024 RMK AO2 T10031109 $,0,0,0,16090,0,0,0,
2026-03-16 10:15:00,METAR KHCR 161015Z AUTO 00000KT 10SM OVC050 M00/M10 A3025 RMK AO2 T10041104 $,0,0,0,16090,0,0,0,
2026-03-16 09:55:00,METAR KHCR 160955Z AUTO 00000KT 10SM OVC050 M00/M10 A3025 RMK AO2 T10041098 $,0,0,0,16090,0,0,0,
2026-03-16 09:35:00,METAR KHCR 160935Z AUTO 00000KT 10SM OVC055 M00/M10 A3026 RMK AO2 T10041101 $,0,0,0,16090,0,0,0,
2026-03-16 09:15:00,METAR KHCR 160915Z AUTO 00000KT 10SM OVC055 M00/M10 A3027 RMK AO2 T10041103 $,0,0,0,16090,0,0,0,
2026-03-16 08:55:00,METAR KHCR 160855Z AUTO 06003KT 10SM OVC055 00/M13 A3029 RMK AO2 T00001128 55005 $,0,3,0,16090,0,0,0,
2026-03-16 08:35:00,METAR KHCR 160835Z AUTO 09004KT 10SM OVC060 M01/M11 A3028 RMK AO2 T10071111 $,0,4,0,16090,0,0,0,
2026-03-16 08:15:00,METAR KHCR 160815Z AUTO 00000KT 10SM BKN065 OVC085 M01/M11 A3029 RMK AO2 T10061112 $,0,0,0,16090,0,0,0,
2026-03-16 07:55:00,METAR KHCR 160755Z AUTO 00000KT 10SM SCT070 OVC085 M01/M12 A3029 RMK AO2 T10111118 $,0,0,0,16090,0,0,0,
2026-03-16 07:35:00,METAR KHCR 160735Z AUTO 10003KT 10SM BKN070 OVC090 M02/M11 A3029 RMK AO2 T10221111 $,0,3,0,16090,0,0,0,
2026-03-16 07:15:00,METAR KHCR 160715Z AUTO 00000KT 10SM SCT070 M03/M12 A3029 RMK AO2 T10321118 $,0,0,0,16090,0,0,0,
2026-03-16 06:55:00,METAR KHCR 160655Z AUTO 00000KT 10SM CLR M02/M14 A3029 RMK AO2 T10211138 400691036 $,0,0,0,16090,0,0,0,
2026-03-16 06:35:00,METAR KHCR 160635Z AUTO 18003KT 10SM FEW085 M02/M14 A3029 RMK AO2 T10161137 $,0,3,0,16090,0,0,0,
2026-03-16 06:15:00,METAR KHCR 160615Z AUTO 00000KT 10SM BKN100 OVC110 M01/M14 A3030 RMK AO2 T10101139 $,0,0,0,16090,0,0,0,
2026-03-16 05:55:00,METAR KHCR 160555Z AUTO 00000KT 9SM SCT110 M01/M14 A3031 RMK AO2 T10121139 10059 21012 50011 $,0,0,0,14481,0,0,0,
2026-03-16 05:35:00,METAR KHCR 160535Z AUTO 36003KT 10SM SCT110 00/M15 A3031 RMK AO2 T00051146 $,0,3,0,16090,0,0,0,
2026-03-16 05:15:00,METAR KHCR 160515Z AUTO 00000KT 10SM CLR M00/M14 A3031 RMK AO2 T10021145 $,0,0,0,16090,0,0,0,
2026-03-16 04:55:00,METAR KHCR 160455Z AUTO 10003KT 10SM CLR 01/M16 A3031 RMK AO2 T00101157 $,0,3,0,16090,0,0,0,
2026-03-16 04:35:00,METAR KHCR 160435Z AUTO 10005KT 10SM FEW120 M00/M15 A3030 RMK AO2 T10021145 $,0,5,0,16090,0,0,0,
2026-03-16 04:15:00,METAR KHCR 160415Z AUTO 12005KT 9SM FEW120 M00/M15 A3029 RMK AO2 T10001147 $,0,5,0,14481,0,0,0,
2026-03-16 03:55:00,METAR KHCR 160355Z AUTO 13006KT 10SM CLR M00/M15 A3029 RMK AO2 T10001145 $,0,6,0,16090,0,0,0,
2026-03-16 03:35:00,METAR KHCR 160335Z AUTO 08006KT 10SM CLR 02/M16 A3029 RMK AO2 T00171156 $,0,6,0,16090,0,0,0,
2026-03-16 03:15:00,METAR KHCR 160315Z AUTO 12006KT 10SM CLR 01/M15 A3028 RMK AO2 T00081147 $,0,6,0,16090,0,0,0,
2026-03-16 02:55:00,METAR KHCR 160255Z AUTO 14006KT 10SM CLR 02/M16 A3027 RMK AO2 T00171162 53011 $,0,6,0,16090,0,0,0,
2026-03-16 02:35:00,METAR KHCR 160235Z AUTO 12005KT 10SM CLR 02/M17 A3027 RMK AO2 T00221166 $,0,5,0,16090,0,0,0,
2026-03-16 02:15:00,METAR KHCR 160215Z AUTO 06007KT 10SM CLR 03/M17 A3026 RMK AO2 T00321170 $,0,7,0,16090,0,0,0,
2026-03-16 01:55:00,METAR KHCR 160155Z AUTO 26006KT 9SM CLR 03/M17 A3026 RMK AO2 T00311174 $,0,6,0,14481,0,0,0,
2026-03-16 01:35:00,METAR KHCR 160135Z AUTO 31005KT 8SM CLR 04/M17 A3025 RMK AO2 T00361172 $,0,5,0,12872,0,0,0,
2026-03-16 01:15:00,METAR KHCR 160115Z AUTO 00000KT 10SM CLR 04/M18 A3025 RMK AO2 T00401179 $,0,0,0,16090,0,0,0,
2026-03-16 00:55:00,METAR KHCR 160055Z AUTO 00000KT 8SM CLR 05/M18 A3024 RMK AO2 T00461183 $,0,0,0,12872,0,0,0,
2026-03-16 00:35:00,METAR KHCR 160035Z AUTO 02008KT 8SM CLR 05/M18 A3024 RMK AO2 T00551183 $,0,8,0,12872,0,0,0,
2026-03-16 00:15:00,METAR KHCR 160015Z AUTO 02010KT 9SM CLR 06/M18 A3023 RMK AO2 T00561183 $,0,10,0,14481,0,0,0,
2026-03-15 23:55:00,METAR KHCR 152355Z AUTO 33007KT 10SM CLR 06/M18 A3023 RMK AO2 T00611179 10069 20017 57004 $,0,7,0,16090,0,0,0,
2026-03-15 23:35:00,METAR KHCR 152335Z AUTO 35007KT 10SM CLR 06/M18 A3023 RMK AO2 T00641181 $,0,7,0,16090,0,0,0,
2026-03-15 23:15:00,METAR KHCR 152315Z AUTO 36009KT 340V100 10SM CLR 07/M18 A3023 RMK AO2 T00671185 $,0,9,0,16090,0,0,0,
2026-03-15 22:55:00,METAR KHCR 152255Z AUTO 03007KT 10SM CLR 07/M19 A3023 RMK AO2 T00661190 $,0,7,0,16090,0,0,0,
2026-03-15 22:35:00,METAR KHCR 152235Z AUTO 00000KT 10SM CLR 07/M19 A3024 RMK AO2 T00681189 $,0,0,0,16090,0,0,0,
2026-03-15 22:15:00,METAR KHCR 152215Z AUTO VRB04KT 10SM CLR 06/M20 A3024 RMK AO2 T00631197 $,0,4,0,16090,0,0,0,
2026-03-15 21:55:00,METAR KHCR 152155Z AUTO 21007KT 180V250 10SM CLR 07/M19 A3024 RMK AO2 T00681186 $,0,7,0,16090,0,0,0,
2026-03-15 21:35:00,METAR KHCR 152135Z AUTO 22009KT 10SM CLR 07/M18 A3024 RMK AO2 T00681178 $,0,9,0,16090,0,0,0,
2026-03-15 21:15:00,METAR KHCR 152115Z AUTO VRB04KT 10SM CLR 06/M18 A3024 RMK AO2 T00631176 $,0,4,0,16090,0,0,0,
2026-03-15 20:55:00,METAR KHCR 152055Z AUTO 00000KT 10SM CLR 05/M19 A3024 RMK AO2 T00521187 58011 $,0,0,0,16090,0,0,0,
2026-03-15 20:35:00,METAR KHCR 152035Z AUTO VRB05KT 10SM FEW300 06/M18 A3025 RMK AO2 T00561178 $,0,5,0,16090,0,0,0,
2026-03-15 20:15:00,METAR KHCR 152015Z AUTO 00000KT 10SM FEW300 05/M16 A3026 RMK AO2 T00501159 $,0,0,0,16090,0,0,0,
2026-03-15 19:55:00,METAR KHCR 151955Z AUTO VRB03KT 10SM CLR 04/M17 A3027 RMK AO2 T00401167 $,0,3,0,16090,0,0,0,
2026-03-15 19:35:00,METAR KHCR 151935Z AUTO 00000KT 10SM CLR 04/M17 A3027 RMK AO2 T00421167 $,0,0,0,16090,0,0,0,
2026-03-15 19:15:00,METAR KHCR 151915Z AUTO 00000KT 10SM CLR 04/M16 A3028 RMK AO2 T00401155 $,0,0,0,16090,0,0,0,
2026-03-15 18:55:00,METAR KHCR 151855Z AUTO 00000KT 10SM CLR 03/M16 A3028 RMK AO2 T00281161 $,0,0,0,16090,0,0,0,
2026-03-15 18:35:00,METAR KHCR 151835Z AUTO 05004KT 10SM CLR 03/M16 A3028 RMK AO2 T00291158 $,0,4,0,16090,0,0,0,
2026-03-15 18:15:00,METAR KHCR 151815Z AUTO 00000KT 10SM CLR 02/M16 A3028 RMK AO2 T00191165 $,0,0,0,16090,0,0,0,
2026-03-15 17:55:00,METAR KHCR 151755Z AUTO 03005KT 10SM CLR 02/M16 A3028 RMK AO2 T00171162 10019 21036 50006 $,0,5,0,16090,0,0,0,
2026-03-15 17:35:00,METAR KHCR 151735Z AUTO 00000KT 10SM CLR 01/M16 A3028 RMK AO2 T00151159 $,0,0,0,16090,0,0,0,
2026-03-15 17:15:00,METAR KHCR 151715Z AUTO 00000KT 10SM CLR 01/M16 A3029 RMK AO2 T00131162 $,0,0,0,16090,0,0,0,
2026-03-15 16:55:00,METAR KHCR 151655Z AUTO 00000KT 10SM CLR 01/M17 A3029 RMK AO2 T00051171 $,0,0,0,16090,0,0,0,
2026-03-15 16:35:00,METAR KHCR 151635Z AUTO 00000KT 10SM CLR 00/M16 A3029 RMK AO2 T00021165 $,0,0,0,16090,0,0,0,
2026-03-15 16:15:00,METAR KHCR 151615Z AUTO VRB04KT 10SM CLR M00/M17 A3029 RMK AO2 T10041168 $,0,4,0,16090,0,0,0,
2026-03-15 15:55:00,METAR KHCR 151555Z AUTO VRB05KT 10SM CLR M01/M17 A3029 RMK AO2 T10081170 $,0,5,0,16090,0,0,0,
2026-03-15 15:35:00,METAR KHCR 151535Z AUTO VRB06KT 10SM CLR M01/M16 A3028 RMK AO2 T10101164 $,0,6,0,16090,0,0,0,
2026-03-15 15:15:00,METAR KHCR 151515Z AUTO 01011KT 10SM CLR M02/M16 A3027 RMK AO2 T10181164 $,0,11,0,16090,0,0,0,
2026-03-15 14:55:00,METAR KHCR 151455Z AUTO 07008KT 10SM CLR M02/M17 A3026 RMK AO2 T10221165 51026 $,0,8,0,16090,0,0,0,
2026-03-15 14:35:00,METAR KHCR 151435Z AUTO 09007KT 060V120 10SM CLR M03/M16 A3025 RMK AO2 T10271156 $,0,7,0,16090,0,0,0,
2026-03-15 14:15:00,METAR KHCR 151415Z AUTO 09010KT 10SM CLR M03/M15 A3024 RMK AO2 T10291154 $,0,10,0,16090,0,0,0,
2026-03-15 13:55:00,METAR KHCR 151355Z AUTO 02012KT 8SM BKN140 M04/M14 A3023 RMK AO2 WSHFT 1331 T10361143 $,0,12,0,12872,0,0,0,
2026-03-15 13:35:00,METAR KHCR 151335Z AUTO 03014G21KT 8SM OVC140 M02/M16 A3022 RMK AO2 WSHFT 1331 T10241156 $,0,14,1,12872,0,0,0,
2026-03-15 13:15:00,METAR KHCR 151315Z AUTO 07016KT 9SM OVC150 M02/M16 A3021 RMK AO2 T10191158 $,0,16,0,14481,0,0,0,
2026-03-15 12:55:00,METAR KHCR 151255Z AUTO 09016G23KT 10SM OVC150 M02/M15 A3021 RMK AO2 T10181154 $,0,16,1,16090,0,0,0,
2026-03-15 12:35:00,METAR KHCR 151235Z AUTO 09013G22KT 10SM OVC150 M02/M15 A3020 RMK AO2 T10191148 $,0,13,1,16090,0,0,0,
2026-03-15 12:15:00,METAR KHCR 151215Z AUTO 09015G23KT 10SM SCT160 M02/M14 A3019 RMK AO2 T10211143 $,0,15,1,16090,0,0,0,
2026-03-15 11:55:00,METAR KHCR 151155Z AUTO 10017G26KT 10SM CLR M02/M15 A3017 RMK AO2 PK WND 10026/1144 WSHFT 1047 T10191150 10068 21019 53029 $,0,17,1,16090,0,0,0,
2026-03-15 11:35:00,METAR KHCR 151135Z AUTO 09013G19KT 10SM CLR M01/M17 A3016 RMK AO2 WSHFT 1047 T10141169 $,0,13,1,16090,0,0,0,
2026-03-15 11:15:00,METAR KHCR 151115Z AUTO 06008KT 10SM CLR M01/M19 A3014 RMK AO2 WSHFT 1047 T10101193 $,0,8,0,16090,0,0,0,
2026-03-15 10:55:00,METAR KHCR 151055Z AUTO 06012KT 030V100 10SM CLR 00/M22 A3012 RMK AO2 WSHFT 1039 T00001219 $,0,12,0,16090,0,0,0,
2026-03-15 10:35:00,METAR KHCR 151035Z AUTO 02015G24KT 350V060 10SM CLR 00/M24 A3010 RMK AO2 T00021236 $,0,15,1,16090,0,0,0,
2026-03-15 10:15:00,METAR KHCR 151015Z AUTO 36010KT 240V020 10SM CLR 01/M25 A3009 RMK AO2 T00061252 $,0,10,0,16090,0,0,0,
2026-03-15 09:55:00,METAR KHCR 150955Z AUTO 34018G24KT 10SM CLR 00/M24 A3008 RMK AO2 PK WND 36028/0901 T00051236 $,0,18,1,16090,0,0,0,
2026-03-15 09:35:00,METAR KHCR 150935Z AUTO 36016KT 340V120 10SM CLR 00/M21 A3008 RMK AO2 PK WND 36028/0901 T00031214 $,0,16,0,16090,0,0,0,
2026-03-15 09:15:00,METAR KHCR 150915Z AUTO 01013KT 10SM CLR 01/M21 A3008 RMK AO2 PK WND 36028/0901 T00071210 $,0,13,0,16090,0,0,0,
2026-03-15 08:55:00,METAR KHCR 150855Z AUTO 01018G26KT 10SM CLR 01/M21 A3007 RMK AO2 PK WND 01026/0850 T00111205 53025 $,0,18,1,16090,0,0,0,
2026-03-15 08:35:00,METAR KHCR 150835Z AUTO 02012KT 10SM CLR 02/M19 A3007 RMK AO2 T00201189 $,0,12,0,16090,0,0,0,
2026-03-15 08:15:00,METAR KHCR 150815Z AUTO 34011KT 10SM CLR 02/M16 A3005 RMK AO2 T00211161 $,0,11,0,16090,0,0,0,
