Time_recorded,METAR,is_cavok,wind_speed,is_gust,visibility_meters,has_thunderstorm,has_heavy_rain,has_low_vis_fog,other_phenomenon
2026-05-02 15:30:00,METAR ZGGG 021530Z 16003MPS 9999 FEW021 BKN060 26/23 Q1010 NOSIG,0,3.0,0,10000,0,0,0,
2026-05-02 15:00:00,METAR ZGGG 021500Z 17003MPS 9999 FEW021 OVC060 26/23 Q1011 NOSIG,0,3.0,0,10000,0,0,0,
2026-05-02 14:30:00,METAR ZGGG 021430Z 17004MPS 9999 BKN036 26/23 Q1011 NOSIG,0,4.0,0,10000,0,0,0,
2026-05-02 14:00:00,METAR ZGGG 021400Z 17003MPS 9999 BKN036 26/23 Q1010 NOSIG,0,3.0,0,10000,0,0,0,
2026-05-02 13:30:00,METAR ZGGG 021330Z 14003MPS 9999 FEW026 26/23 Q1009 NOSIG,0,3.0,0,10000,0,0,0,
2026-05-02 13:00:00,METAR ZGGG 021300Z 14004MPS 9999 SCT030 26/23 Q1009 NOSIG,0,4.0,0,10000,0,0,0,
2026-05-02 12:30:00,METAR ZGGG 021230Z 15004MPS 9999 BKN033 27/23 Q1009 NOSIG,0,4.0,0,10000,0,0,0,
2026-05-02 12:00:00,METAR ZGGG 021200Z 15005MPS 9999 BKN030 27/23 Q1008 NOSIG,0,5.0,0,10000,0,0,0,
2026-05-02 11:30:00,METAR ZGGG 021130Z 14004MPS 9999 BKN026 27/23 Q1008 NOSIG,0,4.0,0,10000,0,0,0,
2026-05-02 11:00:00,METAR ZGGG 021100Z 13003MPS 9999 BKN033 27/22 Q1008 NOSIG,0,3.0,0,10000,0,0,0,
2026-05-02 10:30:00,METAR ZGGG 021030Z 14004MPS 9999 BKN033 27/23 Q1008 NOSIG,0,4.0,0,10000,0,0,0,
2026-05-02 10:00:00,METAR ZGGG 021000Z 15004MPS 9999 BKN033 28/23 Q1008 NOSIG,0,4.0,0,10000,0,0,0,
2026-05-02 09:30:00,METAR ZGGG 020930Z 14005MPS 9999 -SHRA BKN033 28/22 Q1007 NOSIG,0,5.0,0,10000,0,0,0,RA
2026-05-02 09:00:00,METAR ZGGG 020900Z 13004MPS 9999 -SHRA OVC026 28/22 Q1008 NOSIG,0,4.0,0,10000,0,0,0,RA
2026-05-02 08:30:00,METAR ZGGG 020830Z 14004MPS 9999 OVC026 28/22 Q1008 NOSIG,0,4.0,0,10000,0,0,0,
2026-05-02 08:00:00,METAR ZGGG 020800Z 15004MPS 9999 OVC026 28/22 Q1008 NOSIG,0,4.0,0,10000,0,0,0,
2026-05-02 07:30:00,METAR ZGGG 020730Z 15005MPS 9999 OVC026 29/22 Q1008 NOSIG,0,5.0,0,10000,0,0,0,
2026-05-02 07:00:00,METAR ZGGG 020700Z 16004MPS 120V190 9999 OVC026 29/23 Q1009 NOSIG,0,4.0,0,10000,0,0,0,
2026-05-02 06:30:00,METAR ZGGG 020630Z 12002MPS 090V160 9999 OVC033 29/23 Q1009 NOSIG,0,2.0,0,10000,0,0,0,
2026-05-02 06:00:00,METAR ZGGG 020600Z 14002MPS 110V170 9999 OVC026 28/23 Q1010 NOSIG,0,2.0,0,10000,0,0,0,
2026-05-02 05:30:00,METAR ZGGG 020530Z 17003MPS 9999 -SHRA OVC023 27/23 Q1011 NOSIG,0,3.0,0,10000,0,0,0,RA
2026-05-02 05:00:00,METAR ZGGG 020500Z 16003MPS 110V200 9999 OVC023 28/22 Q1011 NOSIG,0,3.0,0,10000,0,0,0,
2026-05-02 04:30:00,METAR ZGGG 020430Z 14003MPS 110V180 9999 OVC023 28/22 Q1012 NOSIG,0,3.0,0,10000,0,0,0,
2026-05-02 04:00:00,METAR ZGGG 020400Z 15002MPS 110V180 9999 OVC023 28/22 Q1012 NOSIG,0,2.0,0,10000,0,0,0,
2026-05-02 03:30:00,METAR ZGGG 020330Z VRB01MPS 9999 OVC023 27/21 Q1012 NOSIG,0,1.0,0,10000,0,0,0,
2026-05-02 03:00:00,METAR ZGGG 020300Z VRB01MPS 9999 OVC023 26/21 Q1012 NOSIG,0,1.0,0,10000,0,0,0,
2026-05-02 02:30:00,METAR ZGGG 020230Z VRB01MPS 9999 OVC022 26/21 Q1013 NOSIG,0,1.0,0,10000,0,0,0,
2026-05-02 02:00:00,METAR ZGGG 020200Z 06002MPS 030V090 9999 OVC020 25/21 Q1013 NOSIG,0,2.0,0,10000,0,0,0,
2026-05-02 01:30:00,METAR ZGGG 020130Z 08002MPS 9999 OVC020 25/21 Q1013 NOSIG,0,2.0,0,10000,0,0,0,
2026-05-02 01:00:00,METAR ZGGG 020100Z VRB01MPS 9999 OVC020 24/21 Q1012 NOSIG,0,1.0,0,10000,0,0,0,
2026-05-02 00:30:00,METAR ZGGG 020030Z VRB01MPS 9999 OVC020 24/20 Q1012 NOSIG,0,1.0,0,10000,0,0,0,
2026-05-02 00:00:00,METAR ZGGG 020000Z 07002MPS 040V110 9999 OVC023 24/21 Q1012 NOSIG,0,2.0,0,10000,0,0,0,
2026-05-01 23:30:00,METAR ZGGG 012330Z 08002MPS 9999 OVC023 23/20 Q1012 NOSIG,0,2.0,0,10000,0,0,0,
2026-05-01 23:00:00,METAR ZGGG 012300Z 06002MPS 9999 OVC023 23/20 Q1012 NOSIG,0,2.0,0,10000,0,0,0,
2026-05-01 22:30:00,METAR ZGGG 012230Z 08002MPS 9999 OVC023 23/20 Q1012 NOSIG,0,2.0,0,10000,0,0,0,
2026-05-01 22:00:00,METAR ZGGG 012200Z 07003MPS 9999 OVC023 23/20 Q1011 NOSIG,0,3.0,0,10000,0,0,0,
2026-05-01 21:30:00,METAR ZGGG 012130Z 07002MPS 9999 BKN023 22/20 Q1011 NOSIG,0,2.0,0,10000,0,0,0,
2026-05-01 21:00:00,METAR ZGGG 012100Z 06002MPS 9999 SCT023 22/20 Q1011 NOSIG,0,2.0,0,10000,0,0,0,
2026-05-01 20:30:00,METAR ZGGG 012030Z 08003MPS 9999 SCT023 23/20 Q1011 NOSIG,0,3.0,0,10000,0,0,0,
2026-05-01 20:00:00,METAR ZGGG 012000Z 12002MPS 9999 SCT023 23/20 Q1011 NOSIG,0,2.0,0,10000,0,0,0,
2026-05-01 19:30:00,METAR ZGGG 011930Z 12003MPS 9999 SCT023 24/20 Q1011 NOSIG,0,3.0,0,10000,0,0,0,
2026-05-01 19:00:00,METAR ZGGG 011900Z 12002MPS 9999 SCT023 24/20 Q1012 NOSIG,0,2.0,0,10000,0,0,0,
2026-05-01 18:30:00,METAR ZGGG 011830Z 12002MPS 9999 SCT023 24/20 Q1012 NOSIG,0,2.0,0,10000,0,0,0,
2026-05-01 18:00:00,METAR ZGGG 011800Z 16004MPS 9999 BKN023 24/20 Q1012 NOSIG,0,4.0,0,10000,0,0,0,
2026-05-01 17:30:00,METAR ZGGG 011730Z 17002MPS 9999 BKN023 24/20 Q1013 NOSIG,0,2.0,0,10000,0,0,0,
2026-05-01 17:00:00,METAR ZGGG 011700Z 18002MPS 9999 BKN026 24/20 Q1013 NOSIG,0,2.0,0,10000,0,0,0,
2026-05-01 16:30:00,METAR ZGGG 011630Z 17003MPS 9999 FEW026 24/20 Q1013 NOSIG,0,3.0,0,10000,0,0,0,
2026-05-01 16:00:00,METAR ZGGG 011600Z 16002MPS CAVOK 24/20 Q1013 NOSIG,1,0.0,0,9999,0,0,0,
2026-05-01 15:30:00,METAR ZGGG 011530Z 16004MPS CAVOK 25/20 Q1013 NOSIG,1,0.0,0,9999,0,0,0,
2026-05-01 15:00:00,METAR ZGGG 011500Z 16005MPS CAVOK 25/20 Q1013 NOSIG,1,0.0,0,9999,0,0,0,
2026-05-01 14:30:00,METAR ZGGG 011430Z 16004MPS CAVOK 25/20 Q1013 NOSIG,1,0.0,0,9999,0,0,0,
2026-05-01 14:00:00,METAR ZGGG 011400Z 15005MPS CAVOK 25/20 Q1013 NOSIG,1,0.0,0,9999,0,0,0,
2026-05-01 13:30:00,METAR ZGGG 011330Z 14004MPS CAVOK 25/19 Q1012 NOSIG,1,0.0,0,9999,0,0,0,
2026-05-01 13:00:00,METAR ZGGG 011300Z 14004MPS CAVOK 26/19 Q1012 NOSIG,1,0.0,0,9999,0,0,0,
2026-05-01 12:30:00,METAR ZGGG 011230Z 13004MPS 9999 FEW050 26/19 Q1012 NOSIG,0,4.0,0,10000,0,0,0,
2026-05-01 12:00:00,METAR ZGGG 011200Z 14004MPS 9999 FEW050 26/18 Q1012 NOSIG,0,4.0,0,10000,0,0,0,
2026-05-01 11:30:00,METAR ZGGG 011130Z 15003MPS 9999 SCT050 27/18 Q1011 NOSIG,0,3.0,0,10000,0,0,0,
2026-05-01 11:00:00,METAR ZGGG 011100Z 17003MPS 9999 SCT050 27/18 Q1011 NOSIG,0,3.0,0,10000,0,0,0,
2026-05-01 10:30:00,METAR ZGGG 011030Z 16003MPS 9999 SCT050 28/18 Q1011 NOSIG,0,3.0,0,10000,0,0,0,
2026-05-01 10:00:00,METAR ZGGG 011000Z 16003MPS 9999 SCT050 28/18 Q1011 NOSIG,0,3.0,0,10000,0,0,0,
2026-05-01 09:30:00,METAR ZGGG 010930Z 18003MPS 140V210 9999 SCT050 27/18 Q1011 NOSIG,0,3.0,0,10000,0,0,0,
2026-05-01 09:00:00,METAR ZGGG 010900Z 16003MPS 120V220 9999 FEW050 28/17 Q1011 NOSIG,0,3.0,0,10000,0,0,0,
2026-05-01 08:30:00,METAR ZGGG 010830Z 16003MPS 130V210 9999 FEW050 29/17 Q1011 NOSIG,0,3.0,0,10000,0,0,0,
2026-05-01 08:00:00,METAR ZGGG 010800Z 16003MPS 120V200 9999 SCT050 29/17 Q1012 NOSIG,0,3.0,0,10000,0,0,0,
2026-05-01 07:30:00,METAR ZGGG 010730Z 19003MPS 150V280 9999 BKN046 28/17 Q1012 NOSIG,0,3.0,0,10000,0,0,0,
2026-05-01 07:00:00,METAR ZGGG 010700Z 19004MPS 150V220 9999 BKN046 29/17 Q1012 NOSIG,0,4.0,0,10000,0,0,0,
2026-05-01 06:30:00,METAR ZGGG 010630Z VRB03MPS 9999 SCT046 30/17 Q1012 NOSIG,0,3.0,0,10000,0,0,0,
2026-05-01 06:00:00,METAR ZGGG 010600Z 14003MPS 090V210 9999 SCT046 30/16 Q1013 NOSIG,0,3.0,0,10000,0,0,0,
2026-05-01 05:30:00,METAR ZGGG 010530Z VRB02MPS 9999 SCT046 28/17 Q1013 NOSIG,0,2.0,0,10000,0,0,0,
2026-05-01 05:00:00,METAR ZGGG 010500Z VRB02MPS 9999 SCT046 27/15 Q1014 NOSIG,0,2.0,0,10000,0,0,0,
2026-05-01 04:30:00,METAR ZGGG 010430Z 22002MPS 130V300 9999 SCT043 27/15 Q1015 NOSIG,0,2.0,0,10000,0,0,0,
2026-05-01 04:00:00,METAR ZGGG 010400Z VRB01MPS 9999 FEW043 27/15 Q1015 NOSIG,0,1.0,0,10000,0,0,0,
2026-05-01 03:30:00,METAR ZGGG 010330Z 08002MPS 010V130 9999 FEW043 26/15 Q1015 NOSIG,0,2.0,0,10000,0,0,0,
2026-05-01 03:00:00,METAR ZGGG 010300Z VRB01MPS 9999 FEW043 25/14 Q1016 NOSIG,0,1.0,0,10000,0,0,0,
2026-05-01 02:30:00,METAR ZGGG 010230Z 06002MPS 340V120 9999 FEW043 24/15 Q1016 NOSIG,0,2.0,0,10000,0,0,0,
2026-05-01 02:00:00,METAR ZGGG 010200Z 07003MPS 030V100 9999 FEW043 23/14 Q1016 NOSIG,0,3.0,0,10000,0,0,0,
2026-05-01 01:30:00,METAR ZGGG 010130Z 04002MPS 340V070 9999 FEW043 22/15 Q1016 NOSIG,0,2.0,0,10000,0,0,0,
2026-05-01 01:00:00,METAR ZGGG 010100Z 05003MPS 020V080 9999 FEW040 21/14 Q1016 NOSIG,0,3.0,0,10000,0,0,0,
2026-05-01 00:30:00,METAR ZGGG 010030Z 07003MPS 9999 FEW040 20/14 Q1016 NOSIG,0,3.0,0,10000,0,0,0,
2026-05-01 00:00:00,METAR ZGGG 010000Z 07003MPS CAVOK 20/14 Q1016 NOSIG,1,0.0,0,9999,0,0,0,
2026-04-30 23:30:00,METAR ZGGG 302330Z 07003MPS CAVOK 19/14 Q1016 NOSIG,1,0.0,0,9999,0,0,0,
2026-04-30 23:00:00,METAR ZGGG 302300Z 06003MPS CAVOK 18/14 Q1016 NOSIG,1,0.0,0,9999,0,0,0,
2026-04-30 22:30:00,METAR ZGGG 302230Z 06003MPS CAVOK 17/14 Q1015 NOSIG,1,0.0,0,9999,0,0,0,
2026-04-30 22:00:00,METAR ZGGG 302200Z 06003MPS CAVOK 17/14 Q1015 NOSIG,1,0.0,0,9999,0,0,0,
2026-04-30 21:30:00,METAR ZGGG 302130Z 06003MPS CAVOK 17/14 Q1015 NOSIG,1,0.0,0,9999,0,0,0,
2026-04-30 21:00:00,METAR ZGGG 302100Z 07003MPS 050V110 CAVOK 18/14 Q1015 NOSIG,1,0.0,0,9999,0,0,0,
2026-04-30 20:30:00,METAR ZGGG 302030Z 07003MPS CAVOK 18/14 Q1015 NOSIG,1,0.0,0,9999,0,0,0,
2026-04-30 20:00:00,METAR ZGGG 302000Z 09004MPS CAVOK 18/15 Q1015 NOSIG,1,0.0,0,9999,0,0,0,
2026-04-30 19:30:00,METAR ZGGG 301930Z 08003MPS CAVOK 19/15 Q1015 NOSIG,1,0.0,0,9999,0,0,0,
2026-04-30 19:00:00,METAR ZGGG 301900Z 08003MPS CAVOK 19/15 Q1015 NOSIG,1,0.0,0,9999,0,0,0,
2026-04-30 18:30:00,METAR ZGGG 301830Z 08003MPS CAVOK 19/15 Q1015 NOSIG,1,0.0,0,9999,0,0,0,
2026-04-30 18:00:00,METAR ZGGG 301800Z 08003MPS CAVOK 19/15 Q1015 NOSIG,1,0.0,0,9999,0,0,0,
2026-04-30 17:30:00,METAR ZGGG 301730Z 09003MPS CAVOK 20/15 Q1015 NOSIG,1,0.0,0,9999,0,0,0,
2026-04-30 17:00:00,METAR ZGGG 301700Z 08003MPS CAVOK 20/15 Q1015 NOSIG,1,0.0,0,9999,0,0,0,
2026-04-30 16:30:00,METAR ZGGG 301630Z 08003MPS CAVOK 21/16 Q1015 NOSIG,1,0.0,0,9999,0,0,0,
2026-04-30 16:00:00,METAR ZGGG 301600Z 06002MPS CAVOK 20/16 Q1015 NOSIG,1,0.0,0,9999,0,0,0,
2026-04-30 15:00:00,METAR ZGGG 301500Z 05002MPS CAVOK 21/15 Q1016 NOSIG,1,0.0,0,9999,0,0,0,
2026-04-30 14:30:00,METAR ZGGG 301430Z 06002MPS 020V090 CAVOK 21/15 Q1016 NOSIG,1,0.0,0,9999,0,0,0,
2026-04-30 14:00:00,METAR ZGGG 301400Z 01003MPS CAVOK 21/14 Q1015 NOSIG,1,0.0,0,9999,0,0,0,
2026-04-30 13:30:00,METAR ZGGG 301330Z 34003MPS CAVOK 22/14 Q1015 NOSIG,1,0.0,0,9999,0,0,0,
2026-04-30 13:00:00,METAR ZGGG 301300Z 35003MPS CAVOK 22/14 Q1015 NOSIG,1,0.0,0,9999,0,0,0,
2026-04-30 12:30:00,METAR ZGGG 301230Z 35004MPS CAVOK 22/14 Q1015 NOSIG,1,0.0,0,9999,0,0,0,
2026-04-30 12:00:00,METAR ZGGG 301200Z 33004MPS CAVOK 22/14 Q1015 NOSIG,1,0.0,0,9999,0,0,0,
2026-04-30 11:30:00,METAR ZGGG 301130Z 35004MPS CAVOK 23/14 Q1015 NOSIG,1,0.0,0,9999,0,0,0,
2026-04-30 11:00:00,METAR ZGGG 301100Z 34005MPS CAVOK 23/14 Q1014 NOSIG,1,0.0,0,9999,0,0,0,
2026-04-30 10:30:00,METAR ZGGG 301030Z 35004MPS 320V020 CAVOK 23/14 Q1014 NOSIG,1,0.0,0,9999,0,0,0,
2026-04-30 10:00:00,METAR ZGGG 301000Z 33004MPS 300V360 CAVOK 24/14 Q1014 NOSIG,1,0.0,0,9999,0,0,0,
2026-04-30 09:30:00,METAR ZGGG 300930Z 33004MPS 300V010 9999 FEW046 24/14 Q1014 NOSIG,0,4.0,0,10000,0,0,0,
2026-04-30 09:00:00,METAR ZGGG 300900Z 33004MPS 290V020 9999 FEW046 25/15 Q1014 NOSIG,0,4.0,0,10000,0,0,0,
2026-04-30 08:30:00,METAR ZGGG 300830Z 34004MPS 9999 FEW046 25/15 Q1014 NOSIG,0,4.0,0,10000,0,0,0,
2026-04-30 08:00:00,METAR ZGGG 300800Z 33004MPS 290V040 9999 SCT043 25/15 Q1014 NOSIG,0,4.0,0,10000,0,0,0,
2026-04-30 07:30:00,METAR ZGGG 300730Z 36005MPS 300V030 9999 SCT043 25/15 Q1014 NOSIG,0,5.0,0,10000,0,0,0,
2026-04-30 07:00:00,METAR ZGGG 300700Z 34006MPS 270V360 9999 BKN040 25/16 Q1015 NOSIG,0,6.0,0,10000,0,0,0,
2026-04-30 06:30:00,METAR ZGGG 300630Z 32004MPS 270V350 9999 BKN040 25/14 Q1015 NOSIG,0,4.0,0,10000,0,0,0,
2026-04-30 06:22:00,SPECI ZGGG 300622Z 32004MPS 300V360 9999 SCT040 25/14 Q1015 NOSIG,0,4.0,0,10000,0,0,0,
2026-04-30 06:15:00,SPECI ZGGG 300615Z 02005MPS 330V070 9999 SCT040 25/15 Q1015 NOSIG,0,5.0,0,10000,0,0,0,
2026-04-30 06:00:00,METAR ZGGG 300600Z 32004G09MPS 9999 SCT040 25/14 Q1015 NOSIG,0,4.0,1,10000,0,0,0,
2026-04-30 05:30:00,METAR ZGGG 300530Z 03004MPS 340V090 9999 SCT040 24/14 Q1016 NOSIG,0,4.0,0,10000,0,0,0,
2026-04-30 05:00:00,METAR ZGGG 300500Z 01003G09MPS 310V090 9999 SCT040 24/15 Q1016 NOSIG,0,3.0,1,10000,0,0,0,
2026-04-30 04:30:00,METAR ZGGG 300430Z 36004MPS 310V040 9999 SCT040 24/14 Q1017 NOSIG,0,4.0,0,10000,0,0,0,
2026-04-30 04:00:00,METAR ZGGG 300400Z 02005MPS 310V070 9999 SCT040 23/13 Q1017 NOSIG,0,5.0,0,10000,0,0,0,
2026-04-30 03:30:00,METAR ZGGG 300330Z 06005MPS 9999 SCT033 22/13 Q1017 NOSIG,0,5.0,0,10000,0,0,0,
2026-04-30 03:00:00,METAR ZGGG 300300Z 03005MPS 360V070 CAVOK 22/13 Q1018 NOSIG,1,0.0,0,9999,0,0,0,
2026-04-30 02:30:00,METAR ZGGG 300230Z 01005MPS 340V050 CAVOK 21/13 Q1018 NOSIG,1,0.0,0,9999,0,0,0,
2026-04-30 02:00:00,METAR ZGGG 300200Z 01006MPS CAVOK 20/12 Q1018 NOSIG,1,0.0,0,9999,0,0,0,
2026-04-30 01:30:00,METAR ZGGG 300130Z 01005MPS CAVOK 19/12 Q1018 NOSIG,1,0.0,0,9999,0,0,0,
2026-04-30 01:00:00,METAR ZGGG 300100Z 01006MPS 9999 BKN060 19/12 Q1018 NOSIG,0,6.0,0,10000,0,0,0,
2026-04-30 00:30:00,METAR ZGGG 300030Z 36006MPS CAVOK 18/12 Q1018 NOSIG,1,0.0,0,9999,0,0,0,
2026-04-30 00:00:00,METAR ZGGG 300000Z 01006MPS CAVOK 18/12 Q1017 NOSIG,1,0.0,0,9999,0,0,0,
2026-04-29 23:30:00,METAR ZGGG 292330Z 02006MPS CAVOK 18/12 Q1017 NOSIG,1,0.0,0,9999,0,0,0,
2026-04-29 23:00:00,METAR ZGGG 292300Z 02006MPS CAVOK 18/12 Q1017 NOSIG,1,0.0,0,9999,0,0,0,
2026-04-29 22:30:00,METAR ZGGG 292230Z 02005MPS CAVOK 18/12 Q1016 NOSIG,1,0.0,0,9999,0,0,0,
2026-04-29 22:00:00,METAR ZGGG 292200Z 01004MPS CAVOK 18/12 Q1016 NOSIG,1,0.0,0,9999,0,0,0,
2026-04-29 21:30:00,METAR ZGGG 292130Z 36005MPS CAVOK 18/12 Q1016 NOSIG,1,0.0,0,9999,0,0,0,
2026-04-29 21:00:00,METAR ZGGG 292100Z 01005MPS CAVOK 17/13 Q1016 NOSIG,1,0.0,0,9999,0,0,0,
2026-04-29 20:30:00,METAR ZGGG 292030Z 01004MPS CAVOK 17/13 Q1015 NOSIG,1,0.0,0,9999,0,0,0,
2026-04-29 20:00:00,METAR ZGGG 292000Z 01005MPS CAVOK 18/13 Q1015 NOSIG,1,0.0,0,9999,0,0,0,
2026-04-29 19:30:00,METAR ZGGG 291930Z 01005MPS CAVOK 18/13 Q1015 NOSIG,1,0.0,0,9999,0,0,0,
2026-04-29 19:00:00,METAR ZGGG 291900Z 36006MPS CAVOK 18/13 Q1015 NOSIG,1,0.0,0,9999,0,0,0,
2026-04-29 18:30:00,METAR ZGGG 291830Z 36006MPS CAVOK 19/13 Q1015 NOSIG,1,0.0,0,9999,0,0,0,
2026-04-29 18:00:00,METAR ZGGG 291800Z 01005MPS CAVOK 19/13 Q1016 NOSIG,1,0.0,0,9999,0,0,0,
2026-04-29 17:30:00,METAR ZGGG 291730Z 01005MPS CAVOK 19/13 Q1016 NOSIG,1,0.0,0,9999,0,0,0,
2026-04-29 17:00:00,METAR ZGGG 291700Z 01006MPS CAVOK 19/14 Q1016 NOSIG,1,0.0,0,9999,0,0,0,
2026-04-29 16:30:00,METAR ZGGG 291630Z 01006MPS 9999 SCT033 19/14 Q1016 NOSIG,0,6.0,0,10000,0,0,0,
2026-04-29 16:00:00,METAR ZGGG 291600Z 01006MPS 9999 SCT033 19/14 Q1016 NOSIG,0,6.0,0,10000,0,0,0,
2026-04-29 15:30:00,METAR ZGGG 291530Z 01005MPS 9999 SCT033 20/14 Q1017 NOSIG,0,5.0,0,10000,0,0,0,
2026-04-29 15:00:00,METAR ZGGG 291500Z 36006MPS CAVOK 20/15 Q1016 NOSIG,1,0.0,0,9999,0,0,0,
2026-04-29 14:30:00,METAR ZGGG 291430Z 36007MPS CAVOK 20/15 Q1016 NOSIG,1,0.0,0,9999,0,0,0,
2026-04-29 14:00:00,METAR ZGGG 291400Z 01006MPS CAVOK 20/15 Q1016 NOSIG,1,0.0,0,9999,0,0,0,
2026-04-29 13:30:00,METAR ZGGG 291330Z 36006MPS CAVOK 21/15 Q1015 NOSIG,1,0.0,0,9999,0,0,0,
2026-04-29 13:00:00,METAR ZGGG 291300Z 36008MPS CAVOK 21/15 Q1015 NOSIG,1,0.0,0,9999,0,0,0,
2026-04-29 12:30:00,METAR ZGGG 291230Z 01007MPS CAVOK 21/16 Q1014 NOSIG,1,0.0,0,9999,0,0,0,
2026-04-29 12:00:00,METAR ZGGG 291200Z 04006MPS 9999 BKN060 21/16 Q1014 NOSIG,0,6.0,0,10000,0,0,0,
2026-04-29 11:30:00,METAR ZGGG 291130Z 03004MPS CAVOK 22/16 Q1013 NOSIG,1,0.0,0,9999,0,0,0,
2026-04-29 11:00:00,METAR ZGGG 291100Z 02006MPS 9999 FEW030 22/16 Q1013 NOSIG,0,6.0,0,10000,0,0,0,
2026-04-29 10:30:00,METAR ZGGG 291030Z 03007MPS 9999 SCT056 22/16 Q1012 NOSIG,0,7.0,0,10000,0,0,0,
2026-04-29 10:00:00,METAR ZGGG 291000Z 02006MPS 9999 BKN050 23/17 Q1011 NOSIG,0,6.0,0,10000,0,0,0,
2026-04-29 09:30:00,METAR ZGGG 290930Z 36008MPS 9999 BKN050 23/16 Q1011 NOSIG,0,8.0,0,10000,0,0,0,
2026-04-29 09:00:00,METAR ZGGG 290900Z 36007MPS 9999 BKN050 23/17 Q1011 NOSIG,0,7.0,0,10000,0,0,0,
2026-04-29 08:30:00,METAR ZGGG 290830Z 36007MPS 320V020 9999 BKN050 23/17 Q1011 NOSIG,0,7.0,0,10000,0,0,0,
2026-04-29 08:00:00,METAR ZGGG 290800Z 35007MPS 9999 BKN040 23/17 Q1011 NOSIG,0,7.0,0,10000,0,0,0,
2026-04-29 07:30:00,METAR ZGGG 290730Z 34007G12MPS 9999 BKN040 24/18 Q1011 NOSIG,0,7.0,1,10000,0,0,0,
2026-04-29 07:00:00,METAR ZGGG 290700Z 35007MPS 9999 OVC040 23/18 Q1011 NOSIG,0,7.0,0,10000,0,0,0,
2026-04-29 06:30:00,METAR ZGGG 290630Z 35006MPS 9999 OVC033 23/18 Q1011 NOSIG,0,6.0,0,10000,0,0,0,
2026-04-29 06:00:00,METAR ZGGG 290600Z 35007MPS 9999 OVC033 22/18 Q1011 NOSIG,0,7.0,0,10000,0,0,0,
2026-04-29 05:30:00,METAR ZGGG 290530Z 34006MPS 9999 -SHRA OVC033 22/19 Q1011 NOSIG,0,6.0,0,10000,0,0,0,RA
2026-04-29 05:00:00,METAR ZGGG 290500Z 36006MPS 9999 OVC033 22/19 Q1011 NOSIG,0,6.0,0,10000,0,0,0,
2026-04-29 04:30:00,METAR ZGGG 290430Z 35006MPS 9999 -SHRA OVC033 20/20 Q1011 RESHRA NOSIG,0,6.0,0,10000,0,0,0,RA
2026-04-29 04:07:00,SPECI ZGGG 290407Z 33006MPS 6000 +SHRA SCT023CB BKN033 21/20 Q1011 BECMG AT0430 NSW BKN033,0,6.0,0,6000,0,0,0,RA
2026-04-29 04:00:00,METAR ZGGG 290400Z 34007MPS 9999 SHRA FEW023CB BKN033 22/19 Q1011 BECMG AT0430 NSW BKN033,0,7.0,0,10000,0,0,0,"RA,SH"
2026-04-29 03:51:00,SPECI ZGGG 290351Z 34007MPS 9999 SHRA FEW023CB BKN033 22/19 Q1011 BECMG AT0400 +SHRA,0,7.0,0,10000,0,0,0,"RA,SH"
2026-04-29 03:30:00,METAR ZGGG 290330Z 35008MPS 9999 SCT016 BKN033 23/19 Q1011 NOSIG,0,8.0,0,10000,0,0,0,
2026-04-29 03:00:00,METAR ZGGG 290300Z 34007MPS 9999 SCT016 BKN033 23/21 Q1011 RESHRA BECMG AT0350 SHRA FEW026CB BKN033,0,7.0,0,10000,0,0,0,"RA,SH"
2026-04-29 02:50:00,SPECI ZGGG 290250Z 34007MPS 9999 -SHRA SCT016 BKN033 23/21 Q1011 RESHRA NOSIG,0,7.0,0,10000,0,0,0,RA
2026-04-29 02:30:00,METAR ZGGG 290230Z 32007MPS 6000 SHRA SCT016 FEW020CB BKN033 24/21 Q1011 BECMG AT0240 NSW BKN033,0,7.0,0,6000,0,0,0,"RA,SH"
2026-04-29 02:26:00,SPECI ZGGG 290226Z 32006MPS 6000 SHRA SCT016 FEW020CB BKN033 27/23 Q1011 BECMG AT0245 NSW BKN033,0,6.0,0,6000,0,0,0,"RA,SH"
2026-04-29 02:00:00,METAR ZGGG 290200Z 20002MPS 160V250 9999 -SHRA SCT016 BKN033 26/23 Q1011 NOSIG,0,2.0,0,10000,0,0,0,RA
2026-04-29 01:30:00,METAR ZGGG 290130Z 22002MPS 9999 -SHRA SCT016 BKN033 26/24 Q1011 NOSIG,0,2.0,0,10000,0,0,0,RA
2026-04-29 01:00:00,METAR ZGGG 290100Z 18002MPS 120V230 9999 -SHRA SCT016 BKN033 26/23 Q1010 NOSIG,0,2.0,0,10000,0,0,0,RA
2026-04-29 00:30:00,METAR ZGGG 290030Z VRB01MPS 9999 SCT016 BKN033 25/24 Q1010 NOSIG,0,1.0,0,10000,0,0,0,
2026-04-29 00:00:00,METAR ZGGG 290000Z VRB01MPS 9999 SCT016 BKN033 25/24 Q1010 NOSIG,0,1.0,0,10000,0,0,0,
2026-04-28 23:30:00,METAR ZGGG 282330Z 07002MPS 9999 SCT016 BKN036 25/24 Q1009 NOSIG,0,2.0,0,10000,0,0,0,
2026-04-28 23:00:00,METAR ZGGG 282300Z 07001MPS 9999 -SHRA SCT016 BKN036 25/23 Q1009 NOSIG,0,1.0,0,10000,0,0,0,RA
2026-04-28 22:30:00,METAR ZGGG 282230Z VRB01MPS 9999 SCT016 BKN036 24/23 Q1009 NOSIG,0,1.0,0,10000,0,0,0,
2026-04-28 22:00:00,METAR ZGGG 282200Z VRB01MPS 9999 SCT016 BKN036 24/23 Q1008 NOSIG,0,1.0,0,10000,0,0,0,
2026-04-28 21:30:00,METAR ZGGG 282130Z 14002MPS 9999 SCT016 BKN036 25/23 Q1008 NOSIG,0,2.0,0,10000,0,0,0,
2026-04-28 21:00:00,METAR ZGGG 282100Z 12001MPS 9999 SCT016 BKN050 24/23 Q1008 NOSIG,0,1.0,0,10000,0,0,0,
2026-04-28 20:30:00,METAR ZGGG 282030Z 08002MPS 9000 SCT016 BKN050 24/23 Q1007 NOSIG,0,2.0,0,9000,0,0,0,
2026-04-28 20:00:00,METAR ZGGG 282000Z VRB01MPS 9000 BKN016 24/23 Q1007 NOSIG,0,1.0,0,9000,0,0,0,
2026-04-28 19:30:00,METAR ZGGG 281930Z 09002MPS 060V120 9000 BKN016 24/23 Q1007 NOSIG,0,2.0,0,9000,0,0,0,
2026-04-28 19:00:00,METAR ZGGG 281900Z 11003MPS 9999 SCT016 24/23 Q1007 NOSIG,0,3.0,0,10000,0,0,0,
2026-04-28 18:30:00,METAR ZGGG 281830Z 11002MPS 070V130 9999 FEW016 BKN023 25/23 Q1008 NOSIG,0,2.0,0,10000,0,0,0,
2026-04-28 18:00:00,METAR ZGGG 281800Z 11002MPS 9999 FEW016 BKN023 25/23 Q1008 NOSIG,0,2.0,0,10000,0,0,0,
2026-04-28 17:30:00,METAR ZGGG 281730Z 10002MPS 9999 FEW016 BKN023 25/24 Q1009 NOSIG,0,2.0,0,10000,0,0,0,
2026-04-28 17:00:00,METAR ZGGG 281700Z 11003MPS 9000 FEW016 BKN023 25/24 Q1009 NOSIG,0,3.0,0,9000,0,0,0,
2026-04-28 16:30:00,METAR ZGGG 281630Z 09003MPS 9000 FEW016 BKN033 24/24 Q1009 RESHRA NOSIG,0,3.0,0,9000,0,0,0,RA
2026-04-28 16:15:00,SPECI ZGGG 281615Z 08003MPS 8000 -SHRA FEW010 BKN033 24/24 Q1009 RESHRA NOSIG,0,3.0,0,8000,0,0,0,RA
2026-04-28 16:00:00,METAR ZGGG 281600Z 07003MPS 8000 SHRA FEW010 FEW033CB BKN043 24/23 Q1009 BECMG AT1610 NSW,0,3.0,0,8000,0,0,0,"RA,SH"
2026-04-28 15:53:00,SPECI ZGGG 281553Z 06003MPS 8000 SHRA FEW010 FEW033CB BKN043 24/23 Q1009 BECMG AT1610 NSW,0,3.0,0,8000,0,0,0,"RA,SH"
2026-04-28 15:30:00,METAR ZGGG 281530Z 06002MPS 8000 -SHRA SCT016 BKN043 24/24 Q1009 NOSIG,0,2.0,0,8000,0,0,0,RA
2026-04-28 15:00:00,METAR ZGGG 281500Z 06002MPS 8000 SCT016 BKN043 24/24 Q1009 NOSIG,0,2.0,0,8000,0,0,0,
2026-04-28 14:30:00,METAR ZGGG 281430Z 12002MPS 080V140 9999 SCT016 BKN043 25/24 Q1009 NOSIG,0,2.0,0,10000,0,0,0,
2026-04-28 14:00:00,METAR ZGGG 281400Z 13003MPS 9999 SCT016 SCT043 25/24 Q1009 NOSIG,0,3.0,0,10000,0,0,0,
2026-04-28 13:30:00,METAR ZGGG 281330Z 12003MPS 9999 SCT016 SCT043 25/24 Q1009 NOSIG,0,3.0,0,10000,0,0,0,
2026-04-28 13:00:00,METAR ZGGG 281300Z 11002MPS 060V140 8000 SCT016 BKN050 25/24 Q1009 NOSIG,0,2.0,0,8000,0,0,0,
2026-04-28 12:30:00,METAR ZGGG 281230Z 08002MPS 8000 SCT016 24/24 Q1008 NOSIG,0,2.0,0,8000,0,0,0,
2026-04-28 12:00:00,METAR ZGGG 281200Z 06003MPS 8000 SCT016 BKN060 24/24 Q1008 RETS NOSIG,0,3.0,0,8000,1,0,0,TS
2026-04-28 11:30:00,METAR ZGGG 281130Z 08003MPS 050V110 8000 -TSRA SCT013 FEW023CB BKN033 24/23 Q1008 RESHRA BECMG AT1200 NSW,0,3.0,0,8000,1,0,0,RA
2026-04-28 11:11:00,SPECI ZGGG 281111Z 24002MPS 150V300 7000 TSRA SCT013 FEW023CB BKN033 24/24 Q1008 BECMG AT1125 NSW,0,2.0,0,7000,1,0,0,"RA,TS"
2026-04-28 11:00:00,METAR ZGGG 281100Z 03005MPS 4000 +TSRA SCT013 SCT023CB BKN033 24/24 Q1008 BECMG AT1125 NSW,0,5.0,0,4000,1,0,0,RA
2026-04-28 10:37:00,SPECI ZGGG 281037Z 01003MPS 340V040 3000 +TSRA FEW013 SCT023CB BKN033 25/24 Q1008 BECMG AT1115 NSW,0,3.0,0,3000,1,0,0,RA
2026-04-28 10:30:00,METAR ZGGG 281030Z 36002MPS 3500 TSRA FEW013 FEW023CB BKN033 25/24 Q1008 BECMG AT1055 NSW,0,2.0,0,3500,1,0,0,"RA,TS"
2026-04-28 10:00:00,METAR ZGGG 281000Z 10002MPS 050V130 5000 -TSRA FEW013 FEW023CB BKN033 25/23 Q1007 BECMG AT1045 NSW,0,2.0,0,5000,1,0,0,RA
2026-04-28 09:30:00,METAR ZGGG 280930Z 05002MPS 6000 -TSRA FEW013 FEW023CB BKN033 25/24 Q1007 BECMG AT0950 +TSRA,0,2.0,0,6000,1,0,0,RA
2026-04-28 09:00:00,METAR ZGGG 280900Z 05003MPS 9999 -TSRA FEW013 FEW023CB BKN033 25/24 Q1007 BECMG AT0925 TSRA,0,3.0,0,10000,1,0,0,"RA,TS"
2026-04-28 08:44:00,SPECI ZGGG 280844Z 05003MPS 9999 -TSRA FEW013 FEW023CB BKN050 25/24 Q1007 BECMG AT0930 NSW,0,3.0,0,10000,1,0,0,RA
2026-04-28 08:30:00,METAR ZGGG 280830Z 06003MPS 9999 -SHRA FEW013 FEW023CB BKN050 25/23 Q1007 NOSIG,0,3.0,0,10000,0,0,0,RA
2026-04-28 08:00:00,METAR ZGGG 280800Z 09003MPS 060V130 9999 FEW016 SCT050 26/23 Q1007 NOSIG,0,3.0,0,10000,0,0,0,
2026-04-28 07:30:00,METAR ZGGG 280730Z 12002MPS 070V180 9999 FEW016 BKN050 26/24 Q1008 RETS NOSIG,0,2.0,0,10000,1,0,0,TS
2026-04-28 07:00:00,METAR ZGGG 280700Z 14003MPS 7000 -TSRA FEW010 FEW026CB BKN033 23/23 Q1008 RESHRA BECMG AT0730 NSW,0,3.0,0,7000,1,0,0,RA
2026-04-28 06:30:00,METAR ZGGG 280630Z 16008MPS 6000 R19R/P2000 R19L/P2000 R20R/1200N R20L/P2000 R21/P2000 +TSRA FEW010 SCT026CB 24/23 Q1009 BECMG AT0700 -TSRA,0,8.0,0,6000,1,0,0,RA
2026-04-28 06:18:00,SPECI ZGGG 280618Z 14005G11MPS 080V160 9999 +TSRA SCT026CB SCT033 27/23 Q1009 BECMG AT0700 -TSRA,0,5.0,1,10000,1,0,0,RA
2026-04-28 06:16:00,SPECI ZGGG 280616Z 04002MPS 350V090 9999 +TSRA SCT026CB SCT033 27/22 Q1008 BECMG AT0700 -TSRA,0,2.0,0,10000,1,0,0,RA
2026-04-28 06:14:00,SPECI ZGGG 280614Z 05002MPS 020V100 9999 -TSRA FEW026CB BKN033 27/22 Q1008 NOSIG,0,2.0,0,10000,1,0,0,RA
2026-04-28 06:00:00,METAR ZGGG 280600Z 05002MPS 350V090 9999 FEW026TCU BKN033 27/22 Q1008 BECMG AT0615 2500 +TSRA SCT030CB BKN033,0,2.0,0,10000,1,0,0,RA
2026-04-28 05:30:00,METAR ZGGG 280530Z 08002MPS 050V120 9999 OVC030 27/22 Q1009 BECMG AT0605 SHRA FEW030CB BKN033,0,2.0,0,10000,0,0,0,"RA,SH"
2026-04-28 05:00:00,METAR ZGGG 280500Z 08003MPS 040V110 9999 FEW026 OVC033 27/22 Q1009 NOSIG,0,3.0,0,10000,0,0,0,
2026-04-28 04:30:00,METAR ZGGG 280430Z 12003MPS 100V160 9999 FEW026 OVC043 27/21 Q1010 NOSIG,0,3.0,0,10000,0,0,0,
2026-04-28 04:00:00,METAR ZGGG 280400Z 12003MPS 090V150 9999 FEW020 OVC050 27/22 Q1011 NOSIG,0,3.0,0,10000,0,0,0,
2026-04-28 03:30:00,METAR ZGGG 280330Z VRB01MPS 9999 OVC050 27/21 Q1011 NOSIG,0,1.0,0,10000,0,0,0,
2026-04-28 03:00:00,METAR ZGGG 280300Z 15002MPS 100V200 9999 OVC050 26/21 Q1011 NOSIG,0,2.0,0,10000,0,0,0,
2026-04-28 02:30:00,METAR ZGGG 280230Z 08002MPS 060V120 9999 BKN050 26/22 Q1011 NOSIG,0,2.0,0,10000,0,0,0,
2026-04-28 02:00:00,METAR ZGGG 280200Z 03002MPS 360V060 9999 -SHRA BKN050 25/21 Q1011 NOSIG,0,2.0,0,10000,0,0,0,RA
2026-04-28 01:30:00,METAR ZGGG 280130Z 09003MPS 9999 -SHRA OVC040 24/21 Q1011 BECMG AT0320 TSRA SCT026CB BKN030,0,3.0,0,10000,1,0,0,"RA,TS"
2026-04-28 01:00:00,METAR ZGGG 280100Z 08003MPS 9999 -SHRA OVC040 24/21 Q1011 BECMG AT0250 TSRA SCT026CB BKN030,0,3.0,0,10000,1,0,0,"RA,TS"
2026-04-28 00:30:00,METAR ZGGG 280030Z 08004MPS 9999 -SHRA BKN040 24/20 Q1011 BECMG AT0100 TSRA SCT030CB BKN033,0,4.0,0,10000,1,0,0,"RA,TS"
2026-04-28 00:00:00,METAR ZGGG 280000Z 10004MPS 9999 BKN040 25/20 Q1011 BECMG AT0100 TSRA SCT030CB BKN033,0,4.0,0,10000,1,0,0,"RA,TS"
2026-04-27 23:30:00,METAR ZGGG 272330Z 09004MPS 060V120 9999 BKN053 24/20 Q1011 BECMG AT0100 TSRA SCT030CB BKN033,0,4.0,0,10000,1,0,0,"RA,TS"
2026-04-27 23:00:00,METAR ZGGG 272300Z 07003MPS 9999 BKN050 24/20 Q1010 BECMG AT0050 TSRA SCT030CB BKN033,0,3.0,0,10000,1,0,0,"RA,TS"
2026-04-27 22:30:00,METAR ZGGG 272230Z 08003MPS 9999 BKN040 24/20 Q1010 NOSIG,0,3.0,0,10000,0,0,0,
2026-04-27 22:00:00,METAR ZGGG 272200Z 10003MPS 9999 BKN036 24/20 Q1010 NOSIG,0,3.0,0,10000,0,0,0,
2026-04-27 21:30:00,METAR ZGGG 272130Z 08002MPS 9999 BKN036 24/20 Q1010 NOSIG,0,2.0,0,10000,0,0,0,
2026-04-27 21:00:00,METAR ZGGG 272100Z 08003MPS 9999 BKN040 24/20 Q1010 NOSIG,0,3.0,0,10000,0,0,0,
2026-04-27 20:30:00,METAR ZGGG 272030Z 08004MPS 9999 BKN050 24/19 Q1009 NOSIG,0,4.0,0,10000,0,0,0,
2026-04-27 20:00:00,METAR ZGGG 272000Z 08004MPS 9999 FEW020 BKN050 24/19 Q1009 NOSIG,0,4.0,0,10000,0,0,0,
2026-04-27 19:30:00,METAR ZGGG 271930Z 07003MPS 9999 OVC050 24/21 Q1010 NOSIG,0,3.0,0,10000,0,0,0,
2026-04-27 19:00:00,METAR ZGGG 271900Z 09003MPS 9999 BKN053 25/21 Q1010 NOSIG,0,3.0,0,10000,0,0,0,
2026-04-27 18:30:00,METAR ZGGG 271830Z 11003MPS 080V170 9999 FEW033 25/21 Q1010 NOSIG,0,3.0,0,10000,0,0,0,
2026-04-27 18:00:00,METAR ZGGG 271800Z 15003MPS 9999 BKN030 25/21 Q1011 NOSIG,0,3.0,0,10000,0,0,0,
2026-04-27 17:30:00,METAR ZGGG 271730Z 18003MPS 9999 BKN030 25/21 Q1011 NOSIG,0,3.0,0,10000,0,0,0,
2026-04-27 17:00:00,METAR ZGGG 271700Z 18002MPS 9999 BKN033 25/21 Q1011 NOSIG,0,2.0,0,10000,0,0,0,
2026-04-27 16:30:00,METAR ZGGG 271630Z 15002MPS 9999 SCT036 25/21 Q1011 NOSIG,0,2.0,0,10000,0,0,0,
2026-04-27 16:00:00,METAR ZGGG 271600Z 16003MPS 9999 FEW030 25/21 Q1011 NOSIG,0,3.0,0,10000,0,0,0,
2026-04-27 15:30:00,METAR ZGGG 271530Z 16003MPS CAVOK 25/21 Q1011 NOSIG,1,0.0,0,9999,0,0,0,
2026-04-27 15:00:00,METAR ZGGG 271500Z 17004MPS CAVOK 26/21 Q1011 NOSIG,1,0.0,0,9999,0,0,0,
2026-04-27 14:30:00,METAR ZGGG 271430Z 17002MPS CAVOK 26/21 Q1011 NOSIG,1,0.0,0,9999,0,0,0,
2026-04-27 14:00:00,METAR ZGGG 271400Z 17002MPS CAVOK 26/21 Q1011 NOSIG,1,0.0,0,9999,0,0,0,
2026-04-27 13:30:00,METAR ZGGG 271330Z 16003MPS CAVOK 26/21 Q1010 NOSIG,1,0.0,0,9999,0,0,0,
2026-04-27 13:00:00,METAR ZGGG 271300Z 16002MPS CAVOK 26/21 Q1010 NOSIG,1,0.0,0,9999,0,0,0,
2026-04-27 12:30:00,METAR ZGGG 271230Z 14004MPS CAVOK 27/20 Q1010 NOSIG,1,0.0,0,9999,0,0,0,
2026-04-27 12:00:00,METAR ZGGG 271200Z 13004MPS CAVOK 27/20 Q1010 NOSIG,1,0.0,0,9999,0,0,0,
2026-04-27 11:30:00,METAR ZGGG 271130Z 16003MPS 9999 FEW053 28/21 Q1010 NOSIG,0,3.0,0,10000,0,0,0,
2026-04-27 11:00:00,METAR ZGGG 271100Z 16003MPS 9999 FEW053 28/20 Q1010 NOSIG,0,3.0,0,10000,0,0,0,
2026-04-27 10:30:00,METAR ZGGG 271030Z 17004MPS CAVOK 28/20 Q1010 NOSIG,1,0.0,0,9999,0,0,0,
2026-04-27 10:00:00,METAR ZGGG 271000Z 16003MPS 9999 SCT040 29/20 Q1010 NOSIG,0,3.0,0,10000,0,0,0,
2026-04-27 09:30:00,METAR ZGGG 270930Z 17004MPS 9999 SCT040 29/20 Q1009 NOSIG,0,4.0,0,10000,0,0,0,
2026-04-27 09:00:00,METAR ZGGG 270900Z 13004MPS CAVOK 29/20 Q1009 NOSIG,1,0.0,0,9999,0,0,0,
2026-04-27 08:30:00,METAR ZGGG 270830Z 15004MPS 120V180 CAVOK 29/20 Q1009 NOSIG,1,0.0,0,9999,0,0,0,
2026-04-27 08:00:00,METAR ZGGG 270800Z 16003MPS 130V190 9999 OVC056 30/20 Q1010 NOSIG,0,3.0,0,10000,0,0,0,
2026-04-27 07:30:00,METAR ZGGG 270730Z 12003MPS 100V160 9999 OVC056 30/20 Q1010 NOSIG,0,3.0,0,10000,0,0,0,
2026-04-27 07:00:00,METAR ZGGG 270700Z 16003MPS 9999 OVC056 29/20 Q1010 NOSIG,0,3.0,0,10000,0,0,0,
2026-04-27 06:30:00,METAR ZGGG 270630Z 15004MPS 9999 OVC056 29/20 Q1010 NOSIG,0,4.0,0,10000,0,0,0,
2026-04-27 06:00:00,METAR ZGGG 270600Z 16004MPS 9999 OVC056 29/21 Q1011 NOSIG,0,4.0,0,10000,0,0,0,
2026-04-27 05:30:00,METAR ZGGG 270530Z 18005MPS 9999 OVC040 29/20 Q1011 NOSIG,0,5.0,0,10000,0,0,0,
2026-04-27 05:00:00,METAR ZGGG 270500Z 17002MPS 100V200 9999 SCT033 29/21 Q1011 NOSIG,0,2.0,0,10000,0,0,0,
2026-04-27 04:30:00,METAR ZGGG 270430Z VRB01MPS 9999 FEW033 30/21 Q1012 NOSIG,0,1.0,0,10000,0,0,0,
2026-04-27 04:00:00,METAR ZGGG 270400Z 09003MPS 050V170 CAVOK 29/21 Q1012 NOSIG,1,0.0,0,9999,0,0,0,
2026-04-27 03:30:00,METAR ZGGG 270330Z VRB02MPS CAVOK 28/21 Q1012 NOSIG,1,0.0,0,9999,0,0,0,
2026-04-27 03:00:00,METAR ZGGG 270300Z 10003MPS 060V140 CAVOK 27/21 Q1013 NOSIG,1,0.0,0,9999,0,0,0,
2026-04-27 02:30:00,METAR ZGGG 270230Z 08003MPS 9999 SCT056 27/21 Q1013 NOSIG,0,3.0,0,10000,0,0,0,
2026-04-27 02:00:00,METAR ZGGG 270200Z 09003MPS 050V120 9999 BKN056 26/20 Q1013 NOSIG,0,3.0,0,10000,0,0,0,
2026-04-27 01:30:00,METAR ZGGG 270130Z 10003MPS 9999 OVC056 25/20 Q1013 NOSIG,0,3.0,0,10000,0,0,0,
2026-04-27 01:00:00,METAR ZGGG 270100Z 10004MPS 9999 OVC056 25/20 Q1013 NOSIG,0,4.0,0,10000,0,0,0,
2026-04-27 00:30:00,METAR ZGGG 270030Z 09004MPS 9999 BKN050 24/20 Q1013 NOSIG,0,4.0,0,10000,0,0,0,
2026-04-27 00:00:00,METAR ZGGG 270000Z 08004MPS 9000 BKN050 24/20 Q1013 NOSIG,0,4.0,0,9000,0,0,0,
2026-04-26 23:30:00,METAR ZGGG 262330Z 07003MPS 9000 BKN040 24/20 Q1013 NOSIG,0,3.0,0,9000,0,0,0,
2026-04-26 23:00:00,METAR ZGGG 262300Z 07003MPS 9000 BKN040 23/20 Q1013 NOSIG,0,3.0,0,9000,0,0,0,
2026-04-26 22:30:00,METAR ZGGG 262230Z 06003MPS 9999 BKN040 23/20 Q1012 NOSIG,0,3.0,0,10000,0,0,0,
2026-04-26 22:00:00,METAR ZGGG 262200Z 13002MPS 100V190 9999 BKN040 24/21 Q1012 NOSIG,0,2.0,0,10000,0,0,0,
2026-04-26 21:30:00,METAR ZGGG 262130Z VRB01MPS 9999 SCT040 23/20 Q1011 NOSIG,0,1.0,0,10000,0,0,0,
2026-04-26 21:00:00,METAR ZGGG 262100Z VRB01MPS 9999 SCT040 23/20 Q1011 NOSIG,0,1.0,0,10000,0,0,0,
2026-04-26 20:30:00,METAR ZGGG 262030Z 07002MPS 040V100 9999 SCT040 23/20 Q1010 NOSIG,0,2.0,0,10000,0,0,0,
2026-04-26 20:00:00,METAR ZGGG 262000Z 09003MPS 9999 SCT040 24/20 Q1010 NOSIG,0,3.0,0,10000,0,0,0,
2026-04-26 19:30:00,METAR ZGGG 261930Z 10003MPS 9999 SCT040 24/20 Q1011 NOSIG,0,3.0,0,10000,0,0,0,
2026-04-26 19:00:00,METAR ZGGG 261900Z 08003MPS CAVOK 23/20 Q1011 NOSIG,1,0.0,0,9999,0,0,0,
2026-04-26 18:30:00,METAR ZGGG 261830Z 08002MPS CAVOK 23/19 Q1011 NOSIG,1,0.0,0,9999,0,0,0,
2026-04-26 18:00:00,METAR ZGGG 261800Z 08002MPS CAVOK 23/18 Q1011 NOSIG,1,0.0,0,9999,0,0,0,
2026-04-26 17:30:00,METAR ZGGG 261730Z 08003MPS CAVOK 23/18 Q1012 NOSIG,1,0.0,0,9999,0,0,0,
2026-04-26 17:00:00,METAR ZGGG 261700Z 08003MPS CAVOK 23/18 Q1012 NOSIG,1,0.0,0,9999,0,0,0,
2026-04-26 16:30:00,METAR ZGGG 261630Z 07001MPS CAVOK 24/18 Q1012 NOSIG,1,0.0,0,9999,0,0,0,
2026-04-26 16:00:00,METAR ZGGG 261600Z 07003MPS CAVOK 24/18 Q1012 NOSIG,1,0.0,0,9999,0,0,0,
2026-04-26 15:30:00,METAR ZGGG 261530Z 13002MPS CAVOK 25/19 Q1012 NOSIG,1,0.0,0,9999,0,0,0,
2026-04-26 15:00:00,METAR ZGGG 261500Z 12002MPS CAVOK 26/19 Q1012 NOSIG,1,0.0,0,9999,0,0,0,
2026-04-26 14:30:00,METAR ZGGG 261430Z 08002MPS CAVOK 25/18 Q1012 NOSIG,1,0.0,0,9999,0,0,0,
2026-04-26 14:00:00,METAR ZGGG 261400Z VRB01MPS CAVOK 26/18 Q1012 NOSIG,1,0.0,0,9999,0,0,0,
2026-04-26 13:30:00,METAR ZGGG 261330Z 13002MPS CAVOK 27/18 Q1012 NOSIG,1,0.0,0,9999,0,0,0,
2026-04-26 13:00:00,METAR ZGGG 261300Z 16002MPS CAVOK 27/17 Q1011 NOSIG,1,0.0,0,9999,0,0,0,
2026-04-26 12:30:00,METAR ZGGG 261230Z 14003MPS CAVOK 28/17 Q1011 NOSIG,1,0.0,0,9999,0,0,0,
2026-04-26 12:00:00,METAR ZGGG 261200Z 13003MPS CAVOK 28/16 Q1011 NOSIG,1,0.0,0,9999,0,0,0,
2026-04-26 11:30:00,METAR ZGGG 261130Z 12003MPS CAVOK 29/16 Q1010 NOSIG,1,0.0,0,9999,0,0,0,
2026-04-26 11:00:00,METAR ZGGG 261100Z 14003MPS CAVOK 29/15 Q1010 NOSIG,1,0.0,0,9999,0,0,0,
2026-04-26 10:30:00,METAR ZGGG 261030Z 18003MPS CAVOK 29/15 Q1010 NOSIG,1,0.0,0,9999,0,0,0,
2026-04-26 10:00:00,METAR ZGGG 261000Z 17003MPS CAVOK 31/15 Q1010 NOSIG,1,0.0,0,9999,0,0,0,
2026-04-26 09:30:00,METAR ZGGG 260930Z 17004MPS CAVOK 32/15 Q1010 NOSIG,1,0.0,0,9999,0,0,0,
2026-04-26 09:00:00,METAR ZGGG 260900Z 17004MPS 150V220 9999 FEW060 31/15 Q1010 NOSIG,0,4.0,0,10000,0,0,0,
2026-04-26 08:30:00,METAR ZGGG 260830Z 24002MPS 180V310 9999 FEW053 31/18 Q1010 NOSIG,0,2.0,0,10000,0,0,0,
2026-04-26 08:00:00,METAR ZGGG 260800Z 20004MPS 110V230 9999 FEW053 30/18 Q1010 NOSIG,0,4.0,0,10000,0,0,0,
2026-04-26 07:30:00,METAR ZGGG 260730Z 20002MPS 160V250 9999 FEW053 31/17 Q1011 NOSIG,0,2.0,0,10000,0,0,0,
2026-04-26 07:00:00,METAR ZGGG 260700Z VRB01MPS 9999 FEW050 31/18 Q1011 NOSIG,0,1.0,0,10000,0,0,0,
2026-04-26 06:30:00,METAR ZGGG 260630Z 27002MPS 190V360 9999 FEW050 31/18 Q1012 NOSIG,0,2.0,0,10000,0,0,0,
2026-04-26 06:00:00,METAR ZGGG 260600Z VRB02MPS 9999 FEW043 31/18 Q1012 NOSIG,0,2.0,0,10000,0,0,0,
2026-04-26 05:30:00,METAR ZGGG 260530Z VRB01MPS 9999 FEW043 31/19 Q1013 NOSIG,0,1.0,0,10000,0,0,0,
2026-04-26 05:00:00,METAR ZGGG 260500Z 21002MPS 150V320 9999 FEW030 30/20 Q1013 NOSIG,0,2.0,0,10000,0,0,0,
2026-04-26 04:30:00,METAR ZGGG 260430Z VRB02MPS 9999 FEW030 31/19 Q1014 NOSIG,0,2.0,0,10000,0,0,0,
2026-04-26 04:00:00,METAR ZGGG 260400Z VRB01MPS 9999 FEW030 30/19 Q1014 NOSIG,0,1.0,0,10000,0,0,0,
2026-04-26 03:30:00,METAR ZGGG 260330Z VRB01MPS 9999 FEW030 28/19 Q1015 NOSIG,0,1.0,0,10000,0,0,0,
2026-04-26 03:00:00,METAR ZGGG 260300Z VRB01MPS 9999 FEW030 28/20 Q1015 NOSIG,0,1.0,0,10000,0,0,0,
2026-04-26 02:30:00,METAR ZGGG 260230Z VRB01MPS 9999 FEW023 27/20 Q1015 NOSIG,0,1.0,0,10000,0,0,0,
2026-04-26 02:00:00,METAR ZGGG 260200Z 04002MPS 320V100 9999 FEW020 26/20 Q1016 NOSIG,0,2.0,0,10000,0,0,0,
2026-04-26 01:30:00,METAR ZGGG 260130Z 05002MPS 020V080 9999 FEW016 25/20 Q1016 NOSIG,0,2.0,0,10000,0,0,0,
2026-04-26 01:00:00,METAR ZGGG 260100Z 06002MPS 360V100 8000 FEW016 25/20 Q1016 NOSIG,0,2.0,0,8000,0,0,0,
2026-04-26 00:30:00,METAR ZGGG 260030Z 07002MPS 030V090 8000 FEW016 24/20 Q1015 NOSIG,0,2.0,0,8000,0,0,0,
2026-04-26 00:00:00,METAR ZGGG 260000Z 06003MPS 8000 BKN018 22/19 Q1015 NOSIG,0,3.0,0,8000,0,0,0,
2026-04-25 23:30:00,METAR ZGGG 252330Z 07002MPS 8000 BKN018 21/19 Q1015 NOSIG,0,2.0,0,8000,0,0,0,
2026-04-25 23:00:00,METAR ZGGG 252300Z 09002MPS 060V120 8000 FEW018 21/19 Q1015 NOSIG,0,2.0,0,8000,0,0,0,
2026-04-25 22:30:00,METAR ZGGG 252230Z 08003MPS 8000 FEW018 20/18 Q1014 NOSIG,0,3.0,0,8000,0,0,0,
2026-04-25 22:00:00,METAR ZGGG 252200Z 08003MPS 9999 FEW018 20/19 Q1014 NOSIG,0,3.0,0,10000,0,0,0,
2026-04-25 21:30:00,METAR ZGGG 252130Z 08003MPS 9999 BKN016 21/19 Q1014 NOSIG,0,3.0,0,10000,0,0,0,
2026-04-25 21:00:00,METAR ZGGG 252100Z 08003MPS 9999 BKN016 21/18 Q1014 NOSIG,0,3.0,0,10000,0,0,0,
2026-04-25 20:30:00,METAR ZGGG 252030Z 08003MPS 9999 BKN016 21/19 Q1014 NOSIG,0,3.0,0,10000,0,0,0,
2026-04-25 20:00:00,METAR ZGGG 252000Z 07003MPS 9999 BKN016 21/19 Q1013 NOSIG,0,3.0,0,10000,0,0,0,
2026-04-25 19:30:00,METAR ZGGG 251930Z 08002MPS 9999 SCT016 21/19 Q1013 NOSIG,0,2.0,0,10000,0,0,0,
2026-04-25 19:00:00,METAR ZGGG 251900Z 08003MPS 9999 SCT016 22/18 Q1013 NOSIG,0,3.0,0,10000,0,0,0,
2026-04-25 18:30:00,METAR ZGGG 251830Z 08002MPS CAVOK 21/19 Q1013 NOSIG,1,0.0,0,9999,0,0,0,
2026-04-25 18:00:00,METAR ZGGG 251800Z 07002MPS CAVOK 22/18 Q1014 NOSIG,1,0.0,0,9999,0,0,0,
2026-04-25 17:30:00,METAR ZGGG 251730Z 06002MPS CAVOK 21/18 Q1014 NOSIG,1,0.0,0,9999,0,0,0,
2026-04-25 17:00:00,METAR ZGGG 251700Z 06001MPS CAVOK 21/18 Q1014 NOSIG,1,0.0,0,9999,0,0,0,
2026-04-25 16:30:00,METAR ZGGG 251630Z 07002MPS CAVOK 22/18 Q1014 NOSIG,1,0.0,0,9999,0,0,0,
2026-04-25 16:00:00,METAR ZGGG 251600Z 08002MPS CAVOK 22/18 Q1014 NOSIG,1,0.0,0,9999,0,0,0,
2026-04-25 15:30:00,METAR ZGGG 251530Z 08003MPS CAVOK 22/18 Q1014 NOSIG,1,0.0,0,9999,0,0,0,
2026-04-25 15:00:00,METAR ZGGG 251500Z 08003MPS CAVOK 23/18 Q1014 NOSIG,1,0.0,0,9999,0,0,0,
2026-04-25 14:30:00,METAR ZGGG 251430Z 07002MPS CAVOK 23/18 Q1015 NOSIG,1,0.0,0,9999,0,0,0,
2026-04-25 14:00:00,METAR ZGGG 251400Z 08002MPS CAVOK 24/17 Q1014 NOSIG,1,0.0,0,9999,0,0,0,
2026-04-25 13:30:00,METAR ZGGG 251330Z 08002MPS CAVOK 24/17 Q1014 NOSIG,1,0.0,0,9999,0,0,0,
2026-04-25 13:00:00,METAR ZGGG 251300Z 09002MPS CAVOK 25/16 Q1014 NOSIG,1,0.0,0,9999,0,0,0,
2026-04-25 12:30:00,METAR ZGGG 251230Z 06002MPS CAVOK 25/16 Q1014 NOSIG,1,0.0,0,9999,0,0,0,
2026-04-25 12:00:00,METAR ZGGG 251200Z VRB01MPS CAVOK 26/16 Q1014 NOSIG,1,0.0,0,9999,0,0,0,
2026-04-25 11:30:00,METAR ZGGG 251130Z VRB01MPS CAVOK 26/15 Q1013 NOSIG,1,0.0,0,9999,0,0,0,
2026-04-25 11:00:00,METAR ZGGG 251100Z 13002MPS CAVOK 27/15 Q1013 NOSIG,1,0.0,0,9999,0,0,0,
2026-04-25 10:30:00,METAR ZGGG 251030Z 11002MPS 080V160 CAVOK 28/15 Q1013 NOSIG,1,0.0,0,9999,0,0,0,
2026-04-25 10:00:00,METAR ZGGG 251000Z VRB01MPS CAVOK 29/15 Q1012 NOSIG,1,0.0,0,9999,0,0,0,
2026-04-25 09:30:00,METAR ZGGG 250930Z 19002MPS 150V220 CAVOK 29/15 Q1012 NOSIG,1,0.0,0,9999,0,0,0,
2026-04-25 09:00:00,METAR ZGGG 250900Z 16003MPS 130V190 CAVOK 30/15 Q1012 NOSIG,1,0.0,0,9999,0,0,0,
2026-04-25 08:30:00,METAR ZGGG 250830Z 08002MPS 050V110 CAVOK 29/15 Q1012 NOSIG,1,0.0,0,9999,0,0,0,
2026-04-25 08:00:00,METAR ZGGG 250800Z 32002MPS 250V020 CAVOK 29/15 Q1012 NOSIG,1,0.0,0,9999,0,0,0,
2026-04-25 07:30:00,METAR ZGGG 250730Z 23002MPS 170V340 CAVOK 29/15 Q1013 NOSIG,1,0.0,0,9999,0,0,0,
2026-04-25 07:00:00,METAR ZGGG 250700Z 05002MPS 340V080 CAVOK 28/15 Q1013 NOSIG,1,0.0,0,9999,0,0,0,
2026-04-25 06:30:00,METAR ZGGG 250630Z VRB01MPS CAVOK 29/15 Q1013 NOSIG,1,0.0,0,9999,0,0,0,
2026-04-25 06:00:00,METAR ZGGG 250600Z VRB02MPS CAVOK 29/15 Q1014 NOSIG,1,0.0,0,9999,0,0,0,
2026-04-25 05:30:00,METAR ZGGG 250530Z 02002MPS 320V070 CAVOK 28/15 Q1014 NOSIG,1,0.0,0,9999,0,0,0,
2026-04-25 05:00:00,METAR ZGGG 250500Z VRB01MPS CAVOK 28/16 Q1015 NOSIG,1,0.0,0,9999,0,0,0,
2026-04-25 04:30:00,METAR ZGGG 250430Z 04003MPS 350V100 CAVOK 27/16 Q1016 NOSIG,1,0.0,0,9999,0,0,0,
2026-04-25 04:00:00,METAR ZGGG 250400Z 01003MPS 320V050 CAVOK 26/16 Q1016 NOSIG,1,0.0,0,9999,0,0,0,
2026-04-25 03:30:00,METAR ZGGG 250330Z VRB01MPS CAVOK 27/16 Q1017 NOSIG,1,0.0,0,9999,0,0,0,
2026-04-25 03:00:00,METAR ZGGG 250300Z VRB01MPS CAVOK 26/15 Q1017 NOSIG,1,0.0,0,9999,0,0,0,
2026-04-25 02:30:00,METAR ZGGG 250230Z VRB01MPS CAVOK 25/16 Q1017 NOSIG,1,0.0,0,9999,0,0,0,
2026-04-25 02:00:00,METAR ZGGG 250200Z 34002MPS 270V060 CAVOK 23/16 Q1018 NOSIG,1,0.0,0,9999,0,0,0,
2026-04-25 01:30:00,METAR ZGGG 250130Z VRB01MPS CAVOK 23/17 Q1018 NOSIG,1,0.0,0,9999,0,0,0,
2026-04-25 01:00:00,METAR ZGGG 250100Z 05002MPS 360V100 CAVOK 22/16 Q1017 NOSIG,1,0.0,0,9999,0,0,0,
2026-04-25 00:30:00,METAR ZGGG 250030Z VRB01MPS CAVOK 21/16 Q1017 NOSIG,1,0.0,0,9999,0,0,0,
2026-04-25 00:00:00,METAR ZGGG 250000Z VRB01MPS CAVOK 21/17 Q1017 NOSIG,1,0.0,0,9999,0,0,0,
2026-04-24 23:30:00,METAR ZGGG 242330Z 06001MPS CAVOK 20/17 Q1017 NOSIG,1,0.0,0,9999,0,0,0,
2026-04-24 23:00:00,METAR ZGGG 242300Z VRB01MPS CAVOK 19/18 Q1016 NOSIG,1,0.0,0,9999,0,0,0,
2026-04-24 22:30:00,METAR ZGGG 242230Z VRB01MPS CAVOK 18/17 Q1016 NOSIG,1,0.0,0,9999,0,0,0,
2026-04-24 22:00:00,METAR ZGGG 242200Z 06001MPS CAVOK 18/17 Q1016 NOSIG,1,0.0,0,9999,0,0,0,
2026-04-24 21:30:00,METAR ZGGG 242130Z VRB01MPS CAVOK 18/17 Q1015 NOSIG,1,0.0,0,9999,0,0,0,
2026-04-24 21:00:00,METAR ZGGG 242100Z 05001MPS CAVOK 18/17 Q1015 NOSIG,1,0.0,0,9999,0,0,0,
2026-04-24 20:30:00,METAR ZGGG 242030Z 12001MPS CAVOK 18/17 Q1014 NOSIG,1,0.0,0,9999,0,0,0,
2026-04-24 20:00:00,METAR ZGGG 242000Z 15001MPS CAVOK 18/17 Q1014 NOSIG,1,0.0,0,9999,0,0,0,
2026-04-24 19:30:00,METAR ZGGG 241930Z 17001MPS CAVOK 18/17 Q1014 NOSIG,1,0.0,0,9999,0,0,0,
2026-04-24 19:00:00,METAR ZGGG 241900Z 05001MPS CAVOK 18/17 Q1014 NOSIG,1,0.0,0,9999,0,0,0,
2026-04-24 18:30:00,METAR ZGGG 241830Z 09001MPS CAVOK 19/17 Q1014 NOSIG,1,0.0,0,9999,0,0,0,
2026-04-24 18:00:00,METAR ZGGG 241800Z 09002MPS CAVOK 19/17 Q1014 NOSIG,1,0.0,0,9999,0,0,0,
2026-04-24 17:30:00,METAR ZGGG 241730Z 35001MPS CAVOK 19/17 Q1014 NOSIG,1,0.0,0,9999,0,0,0,
2026-04-24 17:00:00,METAR ZGGG 241700Z 01001MPS CAVOK 19/17 Q1015 NOSIG,1,0.0,0,9999,0,0,0,
2026-04-24 16:30:00,METAR ZGGG 241630Z 04002MPS 9999 BKN050 19/17 Q1015 NOSIG,0,2.0,0,10000,0,0,0,
2026-04-24 16:00:00,METAR ZGGG 241600Z 04002MPS 9999 BKN050 19/17 Q1015 NOSIG,0,2.0,0,10000,0,0,0,
2026-04-24 15:30:00,METAR ZGGG 241530Z 05002MPS 9999 OVC060 19/18 Q1016 NOSIG,0,2.0,0,10000,0,0,0,
2026-04-24 15:00:00,METAR ZGGG 241500Z 06003MPS 9999 OVC060 20/17 Q1016 NOSIG,0,3.0,0,10000,0,0,0,
2026-04-24 14:30:00,METAR ZGGG 241430Z 05003MPS 9999 OVC060 20/18 Q1016 NOSIG,0,3.0,0,10000,0,0,0,
2026-04-24 14:00:00,METAR ZGGG 241400Z 04002MPS 9999 OVC060 20/17 Q1016 NOSIG,0,2.0,0,10000,0,0,0,
2026-04-24 13:30:00,METAR ZGGG 241330Z 14002MPS 100V160 9999 OVC060 20/17 Q1016 NOSIG,0,2.0,0,10000,0,0,0,
2026-04-24 13:00:00,METAR ZGGG 241300Z 13002MPS 9999 OVC060 20/17 Q1016 NOSIG,0,2.0,0,10000,0,0,0,
2026-04-24 12:30:00,METAR ZGGG 241230Z 13002MPS 9999 OVC060 20/17 Q1015 NOSIG,0,2.0,0,10000,0,0,0,
2026-04-24 12:00:00,METAR ZGGG 241200Z 14003MPS 9999 OVC060 20/17 Q1015 NOSIG,0,3.0,0,10000,0,0,0,
2026-04-24 11:30:00,METAR ZGGG 241130Z 08002MPS 9999 OVC060 20/17 Q1015 NOSIG,0,2.0,0,10000,0,0,0,
2026-04-24 11:00:00,METAR ZGGG 241100Z 09002MPS 9999 OVC053 20/17 Q1015 NOSIG,0,2.0,0,10000,0,0,0,
2026-04-24 10:30:00,METAR ZGGG 241030Z VRB01MPS 9999 OVC053 20/17 Q1015 NOSIG,0,1.0,0,10000,0,0,0,
2026-04-24 10:00:00,METAR ZGGG 241000Z VRB01MPS 9999 OVC053 20/17 Q1014 NOSIG,0,1.0,0,10000,0,0,0,
2026-04-24 09:30:00,METAR ZGGG 240930Z 09002MPS 060V120 9999 FEW013 OVC060 21/16 Q1014 NOSIG,0,2.0,0,10000,0,0,0,
2026-04-24 09:00:00,METAR ZGGG 240900Z 09002MPS 060V120 9999 FEW013 OVC046 20/17 Q1014 NOSIG,0,2.0,0,10000,0,0,0,
2026-04-24 08:30:00,METAR ZGGG 240830Z 10002MPS 070V130 9999 FEW013 OVC046 21/17 Q1013 NOSIG,0,2.0,0,10000,0,0,0,
2026-04-24 08:00:00,METAR ZGGG 240800Z 09002MPS 060V140 9999 FEW013 OVC046 20/17 Q1013 NOSIG,0,2.0,0,10000,0,0,0,
2026-04-24 07:30:00,METAR ZGGG 240730Z 07002MPS 9999 FEW013 OVC046 20/16 Q1013 NOSIG,0,2.0,0,10000,0,0,0,
2026-04-24 07:00:00,METAR ZGGG 240700Z 06002MPS 020V090 9999 FEW013 OVC046 20/17 Q1013 NOSIG,0,2.0,0,10000,0,0,0,
2026-04-24 06:30:00,METAR ZGGG 240630Z 06002MPS 010V100 9999 -SHRA FEW013 OVC040 19/16 Q1014 NOSIG,0,2.0,0,10000,0,0,0,RA
2026-04-24 06:00:00,METAR ZGGG 240600Z 02003MPS 340V050 9999 -SHRA FEW013 OVC030 19/17 Q1014 NOSIG,0,3.0,0,10000,0,0,0,RA
2026-04-24 05:30:00,METAR ZGGG 240530Z 35003MPS 320V020 9999 -SHRA OVC050 19/16 Q1014 NOSIG,0,3.0,0,10000,0,0,0,RA
2026-04-24 05:00:00,METAR ZGGG 240500Z 08002MPS 020V100 9999 -SHRA OVC050 19/17 Q1014 NOSIG,0,2.0,0,10000,0,0,0,RA
2026-04-24 04:30:00,METAR ZGGG 240430Z 03002MPS 9999 -SHRA OVC050 19/16 Q1015 RESHRA NOSIG,0,2.0,0,10000,0,0,0,RA
2026-04-24 04:22:00,SPECI ZGGG 240422Z 04003MPS 9999 -SHRA OVC050 19/16 Q1015 RESHRA NOSIG,0,3.0,0,10000,0,0,0,RA
2026-04-24 04:00:00,METAR ZGGG 240400Z 04005MPS 7000 SHRA FEW026CB BKN056 19/16 Q1014 BECMG AT0410 NSW BKN033,0,5.0,0,7000,0,0,0,"RA,SH"
2026-04-24 03:42:00,SPECI ZGGG 240342Z 03003MPS 9999 SHRA FEW026CB BKN056 21/14 Q1014 BECMG AT0405 NSW BKN033,0,3.0,0,10000,0,0,0,"RA,SH"
2026-04-24 03:30:00,METAR ZGGG 240330Z 03005MPS 9999 -SHRA OVC056 21/14 Q1014 BECMG AT0340 SHRA FEW030CB BKN033,0,5.0,0,10000,0,0,0,"RA,SH"
2026-04-24 03:00:00,METAR ZGGG 240300Z 35004MPS 300V010 9999 -SHRA OVC056 21/14 Q1015 BECMG AT0310 TSRA FEW030CB BKN033,0,4.0,0,10000,1,0,0,"RA,TS"
2026-04-24 02:30:00,METAR ZGGG 240230Z 35005MPS CAVOK 22/14 Q1015 BECMG AT0300 TSRA FEW030CB BKN033,1,0.0,0,9999,0,0,0,
2026-04-24 02:00:00,METAR ZGGG 240200Z 07003MPS 040V100 CAVOK 22/15 Q1014 BECMG AT0300 TSRA FEW030CB BKN033,1,0.0,0,9999,0,0,0,
2026-04-24 01:30:00,METAR ZGGG 240130Z 05002MPS 020V080 CAVOK 21/15 Q1014 BECMG AT0300 TSRA FEW030CB BKN033,1,0.0,0,9999,0,0,0,
2026-04-24 01:00:00,METAR ZGGG 240100Z 08003MPS CAVOK 21/15 Q1014 NOSIG,1,0.0,0,9999,0,0,0,
2026-04-24 00:30:00,METAR ZGGG 240030Z 10003MPS CAVOK 20/15 Q1014 NOSIG,1,0.0,0,9999,0,0,0,
2026-04-24 00:00:00,METAR ZGGG 240000Z 05003MPS CAVOK 20/14 Q1014 NOSIG,1,0.0,0,9999,0,0,0,
2026-04-23 23:30:00,METAR ZGGG 232330Z 04004MPS CAVOK 20/14 Q1013 NOSIG,1,0.0,0,9999,0,0,0,
2026-04-23 23:00:00,METAR ZGGG 232300Z 06002MPS CAVOK 19/15 Q1013 NOSIG,1,0.0,0,9999,0,0,0,
2026-04-23 22:30:00,METAR ZGGG 232230Z 02003MPS CAVOK 19/14 Q1013 NOSIG,1,0.0,0,9999,0,0,0,
2026-04-23 22:00:00,METAR ZGGG 232200Z 01004MPS CAVOK 19/14 Q1012 NOSIG,1,0.0,0,9999,0,0,0,
2026-04-23 21:30:00,METAR ZGGG 232130Z 02004MPS CAVOK 19/14 Q1012 NOSIG,1,0.0,0,9999,0,0,0,
2026-04-23 21:00:00,METAR ZGGG 232100Z 01004MPS CAVOK 19/15 Q1012 NOSIG,1,0.0,0,9999,0,0,0,
2026-04-23 20:30:00,METAR ZGGG 232030Z 01004MPS 9999 BKN053 19/15 Q1012 NOSIG,0,4.0,0,10000,0,0,0,
2026-04-23 20:00:00,METAR ZGGG 232000Z 35003MPS 9999 BKN053 19/15 Q1012 NOSIG,0,3.0,0,10000,0,0,0,
2026-04-23 19:30:00,METAR ZGGG 231930Z 36003MPS 9999 OVC053 19/15 Q1011 NOSIG,0,3.0,0,10000,0,0,0,
2026-04-23 19:00:00,METAR ZGGG 231900Z 01005MPS 9999 OVC053 19/15 Q1011 NOSIG,0,5.0,0,10000,0,0,0,
2026-04-23 18:30:00,METAR ZGGG 231830Z 01004MPS 9999 OVC053 20/15 Q1011 NOSIG,0,4.0,0,10000,0,0,0,
2026-04-23 18:00:00,METAR ZGGG 231800Z 01004MPS 9999 OVC053 20/15 Q1011 NOSIG,0,4.0,0,10000,0,0,0,
2026-04-23 17:30:00,METAR ZGGG 231730Z 34003MPS 9999 OVC053 20/16 Q1012 NOSIG,0,3.0,0,10000,0,0,0,
2026-04-23 17:00:00,METAR ZGGG 231700Z 35004MPS 9999 BKN053 20/16 Q1012 NOSIG,0,4.0,0,10000,0,0,0,
2026-04-23 16:30:00,METAR ZGGG 231630Z 35003MPS 9999 BKN053 20/16 Q1012 NOSIG,0,3.0,0,10000,0,0,0,
2026-04-23 16:00:00,METAR ZGGG 231600Z 35003MPS 330V030 9999 BKN053 20/16 Q1012 NOSIG,0,3.0,0,10000,0,0,0,
2026-04-23 15:30:00,METAR ZGGG 231530Z VRB01MPS 9999 BKN053 20/17 Q1012 NOSIG,0,1.0,0,10000,0,0,0,
2026-04-23 15:00:00,METAR ZGGG 231500Z 04002MPS 9999 BKN053 20/17 Q1012 NOSIG,0,2.0,0,10000,0,0,0,
2026-04-23 14:30:00,METAR ZGGG 231430Z 05002MPS 020V080 9999 BKN053 20/17 Q1013 NOSIG,0,2.0,0,10000,0,0,0,
2026-04-23 14:00:00,METAR ZGGG 231400Z 01003MPS 9999 -SHRA BKN053 20/16 Q1013 NOSIG,0,3.0,0,10000,0,0,0,RA
2026-04-23 13:30:00,METAR ZGGG 231330Z 01004MPS 9999 -SHRA OVC040 20/16 Q1012 NOSIG,0,4.0,0,10000,0,0,0,RA
2026-04-23 13:00:00,METAR ZGGG 231300Z 01004MPS 9999 OVC040 20/16 Q1012 NOSIG,0,4.0,0,10000,0,0,0,
2026-04-23 12:30:00,METAR ZGGG 231230Z 02006MPS 9999 OVC040 20/16 Q1011 NOSIG,0,6.0,0,10000,0,0,0,
2026-04-23 12:00:00,METAR ZGGG 231200Z 02005MPS 9999 OVC040 20/16 Q1011 NOSIG,0,5.0,0,10000,0,0,0,
2026-04-23 11:30:00,METAR ZGGG 231130Z 34003MPS 9999 OVC040 20/16 Q1011 NOSIG,0,3.0,0,10000,0,0,0,
2026-04-23 11:00:00,METAR ZGGG 231100Z 34005MPS 9999 OVC040 19/16 Q1010 NOSIG,0,5.0,0,10000,0,0,0,
2026-04-23 10:30:00,METAR ZGGG 231030Z 34004MPS 9999 OVC040 20/16 Q1010 NOSIG,0,4.0,0,10000,0,0,0,
2026-04-23 10:00:00,METAR ZGGG 231000Z 34006MPS 9999 OVC026 20/16 Q1010 NOSIG,0,6.0,0,10000,0,0,0,
2026-04-23 09:30:00,METAR ZGGG 230930Z 33005MPS 9999 OVC026 20/17 Q1010 NOSIG,0,5.0,0,10000,0,0,0,
2026-04-23 09:00:00,METAR ZGGG 230900Z 33004MPS 9999 SCT020 OVC050 20/17 Q1009 NOSIG,0,4.0,0,10000,0,0,0,
2026-04-23 08:30:00,METAR ZGGG 230830Z 34005MPS 9999 -SHRA SCT016 OVC050 20/17 Q1009 NOSIG,0,5.0,0,10000,0,0,0,RA
2026-04-23 08:00:00,METAR ZGGG 230800Z 34006MPS 9999 -SHRA SCT016 OVC050 20/17 Q1009 NOSIG,0,6.0,0,10000,0,0,0,RA
2026-04-23 07:30:00,METAR ZGGG 230730Z 34005MPS 9999 -SHRA SCT016 OVC050 20/17 Q1008 NOSIG,0,5.0,0,10000,0,0,0,RA
2026-04-23 07:00:00,METAR ZGGG 230700Z VRB02MPS 9999 SCT010 BKN050 20/17 Q1009 NOSIG,0,2.0,0,10000,0,0,0,
2026-04-23 06:30:00,METAR ZGGG 230630Z 05002MPS 020V100 9999 SCT010 BKN050 21/18 Q1009 NOSIG,0,2.0,0,10000,0,0,0,
2026-04-23 06:00:00,METAR ZGGG 230600Z 35004MPS 9999 SCT010 BKN050 20/17 Q1009 NOSIG,0,4.0,0,10000,0,0,0,
2026-04-23 05:30:00,METAR ZGGG 230530Z 33003MPS 300V010 9999 -SHRA SCT010 OVC050 19/17 Q1009 NOSIG,0,3.0,0,10000,0,0,0,RA
2026-04-23 05:00:00,METAR ZGGG 230500Z 34003MPS 9999 -SHRA SCT010 OVC050 18/17 Q1010 NOSIG,0,3.0,0,10000,0,0,0,RA
2026-04-23 04:30:00,METAR ZGGG 230430Z 34004MPS 9999 -SHRA SCT010 OVC050 18/16 Q1010 RETS BECMG AT0450 SHRA,0,4.0,0,10000,1,0,0,"RA,SH,TS"
2026-04-23 04:00:00,METAR ZGGG 230400Z 32003MPS 8000 -TSRA SCT010 FEW020CB BKN033 17/17 Q1010 RESHRA BECMG AT0440 TSRA,0,3.0,0,8000,1,0,0,"RA,TS"
2026-04-23 03:55:00,SPECI ZGGG 230355Z 32003MPS 8000 -TSRA SCT010 FEW020CB BKN033 17/17 Q1011 RESHRA BECMG AT0555 NSW BKN033,0,3.0,0,8000,1,0,0,RA
2026-04-23 03:39:00,SPECI ZGGG 230339Z 36004MPS 4500 +TSRA SCT010 FEW020CB BKN033 17/17 Q1010 BECMG AT0405 -TSRA,0,4.0,0,4500,1,0,0,RA
2026-04-23 03:30:00,METAR ZGGG 230330Z 01004MPS 7000 TSRA SCT010 SCT020CB BKN033 17/16 Q1010 BECMG AT0405 -TSRA,0,4.0,0,7000,1,0,0,"RA,TS"
2026-04-23 03:03:00,SPECI ZGGG 230303Z 32006MPS 6000 +TSRA SCT006 SCT020CB BKN026 18/16 Q1011 BECMG AT0330 -TSRA,0,6.0,0,6000,1,0,0,RA
2026-04-23 03:00:00,METAR ZGGG 230300Z 32006MPS 7000 -TSRA SCT006 SCT020CB BKN026 18/16 Q1012 BECMG AT0310 +TSRA,0,6.0,0,7000,1,0,0,RA
2026-04-23 02:30:00,METAR ZGGG 230230Z 34006MPS 6000 -TSRA SCT006 SCT020CB BKN026 18/17 Q1011 RESHRA NOSIG,0,6.0,0,6000,1,0,0,RA
2026-04-23 02:07:00,SPECI ZGGG 230207Z 31006MPS 280V340 7000 TSRA SCT010 SCT020CB BKN026 18/17 Q1011 BECMG AT0230 +TSRA,0,6.0,0,7000,1,0,0,"RA,TS"
2026-04-23 02:00:00,METAR ZGGG 230200Z 31006MPS 7000 -TSRA SCT010 SCT020CB BKN026 18/17 Q1010 RESHRA BECMG AT0215 2000 +TSRA,0,6.0,0,7000,1,0,0,RA
2026-04-23 01:30:00,METAR ZGGG 230130Z 33005MPS 290V360 4500 +TSRA SCT010 SCT026CB BKN033 18/17 Q1010 BECMG AT0155 -TSRA,0,5.0,0,4500,1,0,0,RA
2026-04-23 01:22:00,SPECI ZGGG 230122Z 34005MPS 7000 +TSRA SCT010 SCT026CB BKN033 18/16 Q1009 BECMG AT0155 -TSRA,0,5.0,0,7000,1,0,0,RA
2026-04-23 01:17:00,SPECI ZGGG 230117Z 34006MPS 7000 +SHRA SCT010 SCT026CB BKN033 18/17 Q1009 BECMG AT0155 NSW,0,6.0,0,7000,0,0,0,RA
2026-04-23 01:00:00,METAR ZGGG 230100Z 33005MPS 8000 -SHRA SCT010 FEW026CB BKN030 18/17 Q1009 RESHRA BECMG AT0115 +SHRA SCT026CB BKN033,0,5.0,0,8000,0,0,0,RA
2026-04-23 00:44:00,SPECI ZGGG 230044Z 32004MPS 8000 SHRA SCT010 SCT026CB BKN030 18/17 Q1009 BECMG AT0120 TSRA,0,4.0,0,8000,1,0,0,"RA,SH,TS"
2026-04-23 00:30:00,METAR ZGGG 230030Z 34006MPS 8000 -SHRA SCT010 FEW026CB BKN030 18/17 Q1009 RESHRA BECMG AT0120 TSRA SCT026CB BKN033,0,6.0,0,8000,1,0,0,"RA,TS"
2026-04-23 00:12:00,SPECI ZGGG 230012Z 31005MPS 8000 +SHRA SCT010 FEW024CB BKN026 19/18 Q1009 BECMG AT0110 NSW,0,5.0,0,8000,0,0,0,RA
2026-04-23 00:00:00,METAR ZGGG 230000Z 33005MPS 9999 SHRA SCT010 FEW020CB BKN021 19/18 Q1009 BECMG AT0010 2500 +SHRA,0,5.0,0,10000,0,0,0,"RA,SH"
2026-04-22 23:55:00,SPECI ZGGG 222355Z 34005MPS 9999 -SHRA SCT010 FEW020CB BKN021 18/18 Q1009 RESHRA BECMG AT0010 2500 +SHRA,0,5.0,0,10000,0,0,0,RA
2026-04-22 23:37:00,SPECI ZGGG 222337Z 01005MPS 320V020 2000 +SHRA SCT020CB BKN021 19/17 Q1008 BECMG AT0010 6000 NSW,0,5.0,0,2000,0,0,0,RA
2026-04-22 23:30:00,METAR ZGGG 222330Z 29008G14MPS 9999 +SHRA SCT020CB SCT021 20/18 Q1009 BECMG AT0010 NSW,0,8.0,1,10000,0,0,0,RA
2026-04-22 23:00:00,METAR ZGGG 222300Z 33004MPS 300V360 9999 -SHRA OVC016 20/17 Q1008 BECMG AT2320 TSRA SCT026CB BKN033,0,4.0,0,10000,1,0,0,"RA,TS"
2026-04-22 22:30:00,METAR ZGGG 222230Z 35003MPS 9999 SCT013 OVC020 20/18 Q1008 NOSIG,0,3.0,0,10000,0,0,0,
2026-04-22 22:00:00,METAR ZGGG 222200Z 34005MPS 9999 OVC016 21/18 Q1007 NOSIG,0,5.0,0,10000,0,0,0,
2026-04-22 21:30:00,METAR ZGGG 222130Z 34005MPS 9999 OVC020 20/18 Q1007 NOSIG,0,5.0,0,10000,0,0,0,
2026-04-22 21:00:00,METAR ZGGG 222100Z 33006MPS 9999 OVC020 21/18 Q1007 NOSIG,0,6.0,0,10000,0,0,0,
2026-04-22 20:30:00,METAR ZGGG 222030Z 34004MPS 9999 OVC020 21/18 Q1007 NOSIG,0,4.0,0,10000,0,0,0,
2026-04-22 20:00:00,METAR ZGGG 222000Z 34005MPS 9999 BKN020 22/17 Q1007 NOSIG,0,5.0,0,10000,0,0,0,
2026-04-22 19:30:00,METAR ZGGG 221930Z 34004MPS 9999 BKN023 22/18 Q1007 NOSIG,0,4.0,0,10000,0,0,0,
2026-04-22 19:00:00,METAR ZGGG 221900Z 34005MPS 9999 BKN025 22/18 Q1007 NOSIG,0,5.0,0,10000,0,0,0,
2026-04-22 18:30:00,METAR ZGGG 221830Z 34004MPS 9999 OVC026 23/19 Q1007 NOSIG,0,4.0,0,10000,0,0,0,
2026-04-22 18:00:00,METAR ZGGG 221800Z 34005MPS 9999 OVC026 23/19 Q1008 NOSIG,0,5.0,0,10000,0,0,0,
2026-04-22 17:30:00,METAR ZGGG 221730Z 33004MPS 9999 OVC026 24/20 Q1008 NOSIG,0,4.0,0,10000,0,0,0,
2026-04-22 17:00:00,METAR ZGGG 221700Z 33004MPS 9999 OVC030 24/20 Q1008 NOSIG,0,4.0,0,10000,0,0,0,
2026-04-22 16:30:00,METAR ZGGG 221630Z 34003MPS 9999 BKN030 25/21 Q1008 NOSIG,0,3.0,0,10000,0,0,0,
2026-04-22 16:00:00,METAR ZGGG 221600Z VRB01MPS 9999 BKN030 27/22 Q1008 NOSIG,0,1.0,0,10000,0,0,0,
2026-04-22 15:30:00,METAR ZGGG 221530Z 19003MPS 9999 BKN033 27/22 Q1008 NOSIG,0,3.0,0,10000,0,0,0,
2026-04-22 15:00:00,METAR ZGGG 221500Z 20003MPS 180V240 9999 BKN033 28/22 Q1008 NOSIG,0,3.0,0,10000,0,0,0,
2026-04-22 14:30:00,METAR ZGGG 221430Z 20003MPS 9999 BKN036 27/22 Q1008 NOSIG,0,3.0,0,10000,0,0,0,
2026-04-22 14:00:00,METAR ZGGG 221400Z 19004MPS 9999 SCT036 28/22 Q1008 NOSIG,0,4.0,0,10000,0,0,0,
2026-04-22 13:30:00,METAR ZGGG 221330Z 19005MPS 9999 OVC036 28/22 Q1007 NOSIG,0,5.0,0,10000,0,0,0,
2026-04-22 13:00:00,METAR ZGGG 221300Z 19005MPS 9999 OVC040 28/22 Q1007 NOSIG,0,5.0,0,10000,0,0,0,
2026-04-22 12:30:00,METAR ZGGG 221230Z 20004MPS 9999 OVC040 28/22 Q1007 NOSIG,0,4.0,0,10000,0,0,0,
2026-04-22 12:00:00,METAR ZGGG 221200Z 19004MPS 9999 OVC040 28/21 Q1006 NOSIG,0,4.0,0,10000,0,0,0,
2026-04-22 11:30:00,METAR ZGGG 221130Z 19004MPS 9999 OVC040 29/21 Q1006 NOSIG,0,4.0,0,10000,0,0,0,
2026-04-22 11:00:00,METAR ZGGG 221100Z 20004MPS 9999 OVC040 29/21 Q1006 NOSIG,0,4.0,0,10000,0,0,0,
2026-04-22 10:30:00,METAR ZGGG 221030Z 19004MPS 9999 OVC040 29/21 Q1005 NOSIG,0,4.0,0,10000,0,0,0,
2026-04-22 10:00:00,METAR ZGGG 221000Z 20004MPS 9999 OVC040 29/22 Q1005 NOSIG,0,4.0,0,10000,0,0,0,
2026-04-22 09:30:00,METAR ZGGG 220930Z 18004MPS 9999 OVC040 29/22 Q1005 NOSIG,0,4.0,0,10000,0,0,0,
2026-04-22 09:00:00,METAR ZGGG 220900Z 18004MPS 9999 OVC040 29/22 Q1005 NOSIG,0,4.0,0,10000,0,0,0,
2026-04-22 08:30:00,METAR ZGGG 220830Z 19003MPS 9999 OVC040 29/21 Q1005 NOSIG,0,3.0,0,10000,0,0,0,
2026-04-22 08:00:00,METAR ZGGG 220800Z 19004MPS 9999 OVC040 29/21 Q1005 NOSIG,0,4.0,0,10000,0,0,0,
2026-04-22 07:30:00,METAR ZGGG 220730Z 19004MPS 9999 OVC040 29/21 Q1005 NOSIG,0,4.0,0,10000,0,0,0,
2026-04-22 07:00:00,METAR ZGGG 220700Z 20004MPS 9999 OVC040 29/21 Q1005 NOSIG,0,4.0,0,10000,0,0,0,
2026-04-22 06:30:00,METAR ZGGG 220630Z 19006MPS 9999 OVC040 29/21 Q1006 NOSIG,0,6.0,0,10000,0,0,0,
2026-04-22 06:00:00,METAR ZGGG 220600Z 18005MPS 9999 OVC040 30/21 Q1006 NOSIG,0,5.0,0,10000,0,0,0,
2026-04-22 05:30:00,METAR ZGGG 220530Z 18005MPS 160V220 9999 OVC040 30/21 Q1007 NOSIG,0,5.0,0,10000,0,0,0,
2026-04-22 05:00:00,METAR ZGGG 220500Z 20007MPS 9999 OVC040 29/21 Q1007 NOSIG,0,7.0,0,10000,0,0,0,
2026-04-22 04:30:00,METAR ZGGG 220430Z 19006MPS 9999 OVC040 30/21 Q1008 NOSIG,0,6.0,0,10000,0,0,0,
2026-04-22 04:00:00,METAR ZGGG 220400Z 18006MPS 9999 SCT033 OVC040 30/21 Q1008 NOSIG,0,6.0,0,10000,0,0,0,
2026-04-22 03:30:00,METAR ZGGG 220330Z 18005MPS 9999 OVC040 30/21 Q1008 NOSIG,0,5.0,0,10000,0,0,0,
2026-04-22 03:00:00,METAR ZGGG 220300Z 19005MPS 160V220 9999 BKN033 30/21 Q1008 NOSIG,0,5.0,0,10000,0,0,0,
2026-04-22 02:30:00,METAR ZGGG 220230Z 18007MPS 9999 BKN033 29/21 Q1009 NOSIG,0,7.0,0,10000,0,0,0,
2026-04-22 02:00:00,METAR ZGGG 220200Z 18006MPS 9999 BKN030 29/21 Q1009 NOSIG,0,6.0,0,10000,0,0,0,
2026-04-22 01:30:00,METAR ZGGG 220130Z 17006MPS 9999 SCT026 29/21 Q1009 NOSIG,0,6.0,0,10000,0,0,0,
2026-04-22 01:00:00,METAR ZGGG 220100Z 18005MPS 9999 FEW023 BKN046 28/22 Q1009 NOSIG,0,5.0,0,10000,0,0,0,
2026-04-22 00:30:00,METAR ZGGG 220030Z 17005MPS 9999 FEW023 BKN050 27/22 Q1009 NOSIG,0,5.0,0,10000,0,0,0,
2026-04-22 00:00:00,METAR ZGGG 220000Z 17004MPS 9999 BKN040 26/22 Q1009 NOSIG,0,4.0,0,10000,0,0,0,
2026-04-21 23:30:00,METAR ZGGG 212330Z 16004MPS 9999 BKN040 26/22 Q1008 NOSIG,0,4.0,0,10000,0,0,0,
2026-04-21 23:00:00,METAR ZGGG 212300Z 16005MPS 9999 BKN040 26/22 Q1008 NOSIG,0,5.0,0,10000,0,0,0,
2026-04-21 22:30:00,METAR ZGGG 212230Z 15004MPS CAVOK 25/22 Q1008 NOSIG,1,0.0,0,9999,0,0,0,
2026-04-21 22:00:00,METAR ZGGG 212200Z 14006MPS CAVOK 25/22 Q1007 NOSIG,1,0.0,0,9999,0,0,0,
2026-04-21 21:30:00,METAR ZGGG 212130Z 14004MPS CAVOK 25/22 Q1007 NOSIG,1,0.0,0,9999,0,0,0,
2026-04-21 21:00:00,METAR ZGGG 212100Z 15003MPS CAVOK 25/22 Q1007 NOSIG,1,0.0,0,9999,0,0,0,
2026-04-21 20:30:00,METAR ZGGG 212030Z 15003MPS CAVOK 25/22 Q1007 NOSIG,1,0.0,0,9999,0,0,0,
2026-04-21 20:00:00,METAR ZGGG 212000Z 14003MPS CAVOK 25/22 Q1007 NOSIG,1,0.0,0,9999,0,0,0,
2026-04-21 19:30:00,METAR ZGGG 211930Z 15003MPS 9999 FEW040 25/22 Q1008 NOSIG,0,3.0,0,10000,0,0,0,
2026-04-21 19:00:00,METAR ZGGG 211900Z 15002MPS CAVOK 25/22 Q1008 NOSIG,1,0.0,0,9999,0,0,0,
2026-04-21 18:30:00,METAR ZGGG 211830Z 13003MPS CAVOK 25/22 Q1008 NOSIG,1,0.0,0,9999,0,0,0,
2026-04-21 18:00:00,METAR ZGGG 211800Z 16002MPS 9999 SCT040 25/22 Q1009 NOSIG,0,2.0,0,10000,0,0,0,
2026-04-21 17:30:00,METAR ZGGG 211730Z 15001MPS CAVOK 25/21 Q1009 NOSIG,1,0.0,0,9999,0,0,0,
2026-04-21 17:00:00,METAR ZGGG 211700Z 16002MPS CAVOK 26/21 Q1009 NOSIG,1,0.0,0,9999,0,0,0,
2026-04-21 16:30:00,METAR ZGGG 211630Z 16002MPS CAVOK 26/21 Q1009 NOSIG,1,0.0,0,9999,0,0,0,
2026-04-21 16:00:00,METAR ZGGG 211600Z 15004MPS CAVOK 26/21 Q1009 NOSIG,1,0.0,0,9999,0,0,0,
2026-04-21 15:30:00,METAR ZGGG 211530Z 15004MPS CAVOK 26/20 Q1009 NOSIG,1,0.0,0,9999,0,0,0,
2026-04-21 15:00:00,METAR ZGGG 211500Z 15004MPS CAVOK 27/20 Q1009 NOSIG,1,0.0,0,9999,0,0,0,
2026-04-21 14:30:00,METAR ZGGG 211430Z 15004MPS CAVOK 27/20 Q1009 NOSIG,1,0.0,0,9999,0,0,0,
2026-04-21 14:00:00,METAR ZGGG 211400Z 16004MPS CAVOK 27/21 Q1009 NOSIG,1,0.0,0,9999,0,0,0,
2026-04-21 13:30:00,METAR ZGGG 211330Z 14006MPS 9999 BKN050 27/21 Q1009 NOSIG,0,6.0,0,10000,0,0,0,
2026-04-21 13:00:00,METAR ZGGG 211300Z 15004MPS 9999 BKN050 28/21 Q1009 NOSIG,0,4.0,0,10000,0,0,0,
2026-04-21 12:30:00,METAR ZGGG 211230Z 13004MPS 9999 BKN050 27/21 Q1008 NOSIG,0,4.0,0,10000,0,0,0,
2026-04-21 12:00:00,METAR ZGGG 211200Z 14005MPS 9999 BKN050 28/21 Q1008 NOSIG,0,5.0,0,10000,0,0,0,
2026-04-21 11:30:00,METAR ZGGG 211130Z 13005MPS 9999 BKN050 28/21 Q1008 NOSIG,0,5.0,0,10000,0,0,0,
2026-04-21 11:00:00,METAR ZGGG 211100Z 14004MPS 9999 BKN050 29/21 Q1008 NOSIG,0,4.0,0,10000,0,0,0,
2026-04-21 10:30:00,METAR ZGGG 211030Z 14005MPS 9999 BKN050 29/21 Q1007 NOSIG,0,5.0,0,10000,0,0,0,
2026-04-21 10:00:00,METAR ZGGG 211000Z 14006MPS 9999 BKN050 30/21 Q1007 NOSIG,0,6.0,0,10000,0,0,0,
2026-04-21 09:30:00,METAR ZGGG 210930Z 14006MPS 9999 BKN050 30/21 Q1006 NOSIG,0,6.0,0,10000,0,0,0,
2026-04-21 09:00:00,METAR ZGGG 210900Z 15005MPS 9999 BKN050 30/21 Q1006 NOSIG,0,5.0,0,10000,0,0,0,
2026-04-21 08:30:00,METAR ZGGG 210830Z 15006MPS 9999 BKN050 31/20 Q1006 NOSIG,0,6.0,0,10000,0,0,0,
2026-04-21 08:00:00,METAR ZGGG 210800Z 16006MPS 9999 BKN050 31/20 Q1006 NOSIG,0,6.0,0,10000,0,0,0,
2026-04-21 07:30:00,METAR ZGGG 210730Z 17005MPS 9999 BKN050 31/20 Q1007 NOSIG,0,5.0,0,10000,0,0,0,
2026-04-21 07:00:00,METAR ZGGG 210700Z 17005MPS 9999 SCT050 31/20 Q1007 NOSIG,0,5.0,0,10000,0,0,0,
2026-04-21 06:30:00,METAR ZGGG 210630Z 17005MPS 140V210 9999 SCT050 31/20 Q1007 NOSIG,0,5.0,0,10000,0,0,0,
2026-04-21 06:00:00,METAR ZGGG 210600Z 19006MPS 160V220 9999 SCT040 32/20 Q1008 NOSIG,0,6.0,0,10000,0,0,0,
2026-04-21 05:30:00,METAR ZGGG 210530Z 19006MPS 9999 SCT040 32/19 Q1008 NOSIG,0,6.0,0,10000,0,0,0,
2026-04-21 05:00:00,METAR ZGGG 210500Z 18005MPS 9999 SCT040 31/20 Q1009 NOSIG,0,5.0,0,10000,0,0,0,
2026-04-21 04:30:00,METAR ZGGG 210430Z 18005MPS 9999 SCT040 31/20 Q1009 NOSIG,0,5.0,0,10000,0,0,0,
2026-04-21 04:00:00,METAR ZGGG 210400Z 18005MPS 9999 FEW016 BKN040 30/21 Q1010 NOSIG,0,5.0,0,10000,0,0,0,
2026-04-21 03:30:00,METAR ZGGG 210330Z 18004MPS 9999 FEW016 30/22 Q1010 NOSIG,0,4.0,0,10000,0,0,0,
2026-04-21 03:00:00,METAR ZGGG 210300Z 21003MPS 180V240 9999 FEW016 29/22 Q1011 NOSIG,0,3.0,0,10000,0,0,0,
2026-04-21 02:30:00,METAR ZGGG 210230Z 19004MPS 130V240 9999 FEW016 28/23 Q1011 NOSIG,0,4.0,0,10000,0,0,0,
2026-04-21 02:00:00,METAR ZGGG 210200Z 19003MPS 150V220 9999 FEW016 28/23 Q1011 NOSIG,0,3.0,0,10000,0,0,0,
2026-04-21 01:30:00,METAR ZGGG 210130Z 19003MPS 7000 FEW016 27/23 Q1011 NOSIG,0,3.0,0,7000,0,0,0,
2026-04-21 01:00:00,METAR ZGGG 210100Z VRB01MPS 5000 BR FEW016 27/24 Q1011 NOSIG,0,1.0,0,5000,0,0,1,BR
2026-04-21 00:30:00,METAR ZGGG 210030Z 14002MPS 090V160 4000 BR FEW016 27/24 Q1011 NOSIG,0,2.0,0,4000,0,0,1,BR
2026-04-21 00:00:00,METAR ZGGG 210000Z 10002MPS 2900 BR FEW016 26/23 Q1011 BECMG AT0030 4000,0,2.0,0,2900,0,0,1,BR
2026-04-20 23:30:00,METAR ZGGG 202330Z 08002MPS 2800 BR NSC 25/23 Q1011 NOSIG,0,2.0,0,2800,0,0,1,BR
2026-04-20 23:00:00,METAR ZGGG 202300Z 06002MPS 2800 BR NSC 24/23 Q1010 NOSIG,0,2.0,0,2800,0,0,1,BR
2026-04-20 22:30:00,METAR ZGGG 202230Z 08002MPS 2500 BR FEW016 24/23 Q1010 NOSIG,0,2.0,0,2500,0,0,1,BR
2026-04-20 22:00:00,METAR ZGGG 202200Z 07002MPS 3200 BR FEW016 24/23 Q1010 NOSIG,0,2.0,0,3200,0,0,1,BR
2026-04-20 21:30:00,METAR ZGGG 202130Z 06001MPS 4000 BR FEW023 24/23 Q1010 NOSIG,0,1.0,0,4000,0,0,1,BR
2026-04-20 21:00:00,METAR ZGGG 202100Z 08002MPS 4000 BR FEW040 24/23 Q1010 NOSIG,0,2.0,0,4000,0,0,1,BR
2026-04-20 20:30:00,METAR ZGGG 202030Z 07002MPS 4000 BR FEW040 24/23 Q1010 NOSIG,0,2.0,0,4000,0,0,1,BR
2026-04-20 20:00:00,METAR ZGGG 202000Z 09002MPS 4700 BR NSC 24/22 Q1010 NOSIG,0,2.0,0,4700,0,0,1,BR
2026-04-20 19:30:00,METAR ZGGG 201930Z 12002MPS 110V170 4700 BR NSC 24/22 Q1010 NOSIG,0,2.0,0,4700,0,0,1,BR
2026-04-20 19:00:00,METAR ZGGG 201900Z 09003MPS 4700 BR NSC 24/23 Q1010 NOSIG,0,3.0,0,4700,0,0,1,BR
2026-04-20 18:30:00,METAR ZGGG 201830Z 08002MPS 4700 BR FEW020 24/23 Q1010 NOSIG,0,2.0,0,4700,0,0,1,BR
2026-04-20 18:00:00,METAR ZGGG 201800Z 06002MPS 6000 FEW020 24/23 Q1011 NOSIG,0,2.0,0,6000,0,0,0,
2026-04-20 17:30:00,METAR ZGGG 201730Z 08002MPS 7000 FEW020 24/23 Q1011 NOSIG,0,2.0,0,7000,0,0,0,
2026-04-20 17:00:00,METAR ZGGG 201700Z 12002MPS 9000 NSC 25/22 Q1011 NOSIG,0,2.0,0,9000,0,0,0,
2026-04-20 16:30:00,METAR ZGGG 201630Z 13003MPS 9000 NSC 25/22 Q1011 NOSIG,0,3.0,0,9000,0,0,0,
2026-04-20 16:00:00,METAR ZGGG 201600Z 14003MPS 9000 NSC 25/22 Q1011 NOSIG,0,3.0,0,9000,0,0,0,
2026-04-20 15:30:00,METAR ZGGG 201530Z 13003MPS 9000 NSC 25/22 Q1012 NOSIG,0,3.0,0,9000,0,0,0,
2026-04-20 15:00:00,METAR ZGGG 201500Z 13003MPS 9000 FEW033CB 25/22 Q1012 NOSIG,0,3.0,0,9000,0,0,0,
2026-04-20 14:30:00,METAR ZGGG 201430Z 12004MPS 9000 NSC 25/22 Q1012 BECMG AT1520 SHRA FEW026CB BKN030,0,4.0,0,9000,0,0,0,"RA,SH"
2026-04-20 14:00:00,METAR ZGGG 201400Z 11002MPS 080V140 9000 SCT033 25/22 Q1012 NOSIG,0,2.0,0,9000,0,0,0,
2026-04-20 13:30:00,METAR ZGGG 201330Z 12003MPS 9000 SCT033 25/22 Q1012 NOSIG,0,3.0,0,9000,0,0,0,
2026-04-20 13:00:00,METAR ZGGG 201300Z 13003MPS 8000 SCT033 25/23 Q1011 NOSIG,0,3.0,0,8000,0,0,0,
2026-04-20 12:30:00,METAR ZGGG 201230Z 07002MPS 8000 NSC 24/23 Q1011 NOSIG,0,2.0,0,8000,0,0,0,
2026-04-20 12:00:00,METAR ZGGG 201200Z 08002MPS 8000 NSC 24/23 Q1010 NOSIG,0,2.0,0,8000,0,0,0,
2026-04-20 11:30:00,METAR ZGGG 201130Z 07002MPS 8000 NSC 24/23 Q1010 NOSIG,0,2.0,0,8000,0,0,0,
2026-04-20 11:00:00,METAR ZGGG 201100Z 05002MPS 8000 OVC060 24/23 Q1010 NOSIG,0,2.0,0,8000,0,0,0,
2026-04-20 10:30:00,METAR ZGGG 201030Z 06002MPS 8000 FEW020 OVC060 25/23 Q1009 NOSIG,0,2.0,0,8000,0,0,0,
2026-04-20 10:00:00,METAR ZGGG 201000Z 12002MPS 8000 FEW020 OVC040 25/23 Q1009 RESHRA NOSIG,0,2.0,0,8000,0,0,0,RA
2026-04-20 09:46:00,SPECI ZGGG 200946Z 12003MPS 8000 FEW020 OVC040 24/23 Q1009 RESHRA NOSIG,0,3.0,0,8000,0,0,0,RA
2026-04-20 09:30:00,METAR ZGGG 200930Z 14004MPS 3000 SHRA FEW020 FEW026CB BKN040 24/23 Q1009 BECMG AT0945 NSW BKN033,0,4.0,0,3000,0,0,0,"RA,SH"
2026-04-20 09:20:00,SPECI ZGGG 200920Z 14004MPS 6000 +SHRA FEW020 SCT026CB BKN040 26/23 Q1009 BECMG AT0945 NSW BKN033,0,4.0,0,6000,0,0,0,RA
2026-04-20 09:13:00,SPECI ZGGG 200913Z 13003MPS 8000 SHRA FEW020 FEW026CB BKN046 26/22 Q1009 BECMG AT0945 NSW BKN033,0,3.0,0,8000,0,0,0,"RA,SH"
2026-04-20 09:00:00,METAR ZGGG 200900Z 13004MPS 9000 -SHRA FEW020 OVC046 26/22 Q1009 BECMG AT0915 SHRA FEW026CB BKN033,0,4.0,0,9000,0,0,0,"RA,SH"
2026-04-20 08:30:00,METAR ZGGG 200830Z 16004MPS 9000 -SHRA FEW020 OVC046 26/23 Q1009 NOSIG,0,4.0,0,9000,0,0,0,RA
2026-04-20 08:00:00,METAR ZGGG 200800Z 15004MPS 9999 FEW030 OVC046 27/22 Q1009 NOSIG,0,4.0,0,10000,0,0,0,
2026-04-20 07:30:00,METAR ZGGG 200730Z 16003MPS 8000 -SHRA FEW020 OVC033 27/23 Q1009 NOSIG,0,3.0,0,8000,0,0,0,RA
2026-04-20 07:00:00,METAR ZGGG 200700Z 17002MPS 110V200 8000 -SHRA FEW020 OVC040 27/23 Q1010 RESHRA BECMG AT0710 SHRA FEW026CB BKN030,0,2.0,0,8000,0,0,0,"RA,SH"
2026-04-20 06:46:00,SPECI ZGGG 200646Z VRB01MPS 8000 SHRA FEW020 FEW026CB BKN040 27/23 Q1010 BECMG AT0700 NSW,0,1.0,0,8000,0,0,0,"RA,SH"
2026-04-20 06:30:00,METAR ZGGG 200630Z 26002MPS 230V300 9999 FEW030 OVC040 27/23 Q1010 NOSIG,0,2.0,0,10000,0,0,0,
2026-04-20 06:00:00,METAR ZGGG 200600Z VRB01MPS 7000 OVC033 27/24 Q1010 RESHRA NOSIG,0,1.0,0,7000,0,0,0,RA
2026-04-20 05:45:00,SPECI ZGGG 200545Z VRB02MPS 6000 SHRA SCT026CB BKN033 26/23 Q1010 BECMG AT0600 NSW,0,2.0,0,6000,0,0,0,"RA,SH"
2026-04-20 05:34:00,SPECI ZGGG 200534Z VRB01MPS 8000 +SHRA SCT026CB BKN033 26/22 Q1010 BECMG AT0600 NSW,0,1.0,0,8000,0,0,0,RA
2026-04-20 05:30:00,METAR ZGGG 200530Z VRB01MPS 9999 SHRA FEW026CB BKN033 27/23 Q1010 BECMG AT0600 NSW,0,1.0,0,10000,0,0,0,"RA,SH"
2026-04-20 05:24:00,SPECI ZGGG 200524Z VRB01MPS 9999 SHRA FEW026CB BKN033 27/22 Q1010 BECMG AT0530 +SHRA,0,1.0,0,10000,0,0,0,"RA,SH"
2026-04-20 05:00:00,METAR ZGGG 200500Z VRB01MPS 9999 -SHRA FEW026CB BKN033 27/23 Q1011 RESHRA BECMG AT0600 SHRA,0,1.0,0,10000,0,0,0,"RA,SH"
2026-04-20 04:52:00,SPECI ZGGG 200452Z 15003MPS 100V180 8000 -SHRA FEW026CB BKN033 27/23 Q1011 RESHRA NOSIG,0,3.0,0,8000,0,0,0,RA
2026-04-20 04:39:00,SPECI ZGGG 200439Z 13002MPS 100V180 8000 +SHRA BKN026CB SCT033 29/21 Q1011 BECMG AT0455 NSW,0,2.0,0,8000,0,0,0,RA
2026-04-20 04:35:00,SPECI ZGGG 200435Z 13002MPS 100V160 8000 SHRA SCT026CB BKN033 29/21 Q1011 BECMG AT0455 NSW,0,2.0,0,8000,0,0,0,"RA,SH"
2026-04-20 04:30:00,METAR ZGGG 200430Z 13003MPS 9999 -SHRA SCT026TCU BKN033 29/21 Q1011 BECMG AT0435 SHRA FEW026CB BKN030,0,3.0,0,10000,0,0,0,"RA,SH"
2026-04-20 04:00:00,METAR ZGGG 200400Z 14003MPS 100V170 9999 BKN026 30/22 Q1012 NOSIG,0,3.0,0,10000,0,0,0,
2026-04-20 03:30:00,METAR ZGGG 200330Z 15003MPS 110V170 8000 BKN026 30/22 Q1012 NOSIG,0,3.0,0,8000,0,0,0,
2026-04-20 03:00:00,METAR ZGGG 200300Z 14002MPS 080V230 8000 BKN026 30/21 Q1012 NOSIG,0,2.0,0,8000,0,0,0,
2026-04-20 02:30:00,METAR ZGGG 200230Z 15002MPS 040V210 8000 BKN026 29/22 Q1012 NOSIG,0,2.0,0,8000,0,0,0,
2026-04-20 02:00:00,METAR ZGGG 200200Z 15003MPS 120V180 8000 FEW026 29/22 Q1012 NOSIG,0,3.0,0,8000,0,0,0,
2026-04-20 01:30:00,METAR ZGGG 200130Z 14003MPS 120V180 7000 BKN020 29/22 Q1012 NOSIG,0,3.0,0,7000,0,0,0,
2026-04-20 01:00:00,METAR ZGGG 200100Z 13003MPS 4000 HZ SCT016 BKN040 28/22 Q1012 NOSIG,0,3.0,0,4000,0,0,0,
2026-04-20 00:30:00,METAR ZGGG 200030Z 11002MPS 090V180 4000 BR FEW016 27/23 Q1012 NOSIG,0,2.0,0,4000,0,0,1,BR
2026-04-20 00:00:00,METAR ZGGG 200000Z 09003MPS 4000 BR NSC 26/23 Q1012 NOSIG,0,3.0,0,4000,0,0,1,BR
2026-04-19 23:30:00,METAR ZGGG 192330Z 08002MPS 4000 BR NSC 25/23 Q1011 NOSIG,0,2.0,0,4000,0,0,1,BR
2026-04-19 23:00:00,METAR ZGGG 192300Z 08003MPS 4000 BR FEW060 25/22 Q1011 NOSIG,0,3.0,0,4000,0,0,1,BR
2026-04-19 22:30:00,METAR ZGGG 192230Z 06002MPS 4000 BR NSC 24/22 Q1011 NOSIG,0,2.0,0,4000,0,0,1,BR
2026-04-19 22:00:00,METAR ZGGG 192200Z 07002MPS 4000 BR NSC 24/22 Q1011 NOSIG,0,2.0,0,4000,0,0,1,BR
2026-04-19 21:30:00,METAR ZGGG 192130Z 06002MPS 5000 BR NSC 24/22 Q1010 NOSIG,0,2.0,0,5000,0,0,1,BR
2026-04-19 21:00:00,METAR ZGGG 192100Z 06001MPS 6000 NSC 24/22 Q1010 NOSIG,0,1.0,0,6000,0,0,0,
2026-04-19 20:30:00,METAR ZGGG 192030Z 12003MPS 6000 NSC 25/22 Q1010 NOSIG,0,3.0,0,6000,0,0,0,
2026-04-19 20:00:00,METAR ZGGG 192000Z 13003MPS 6000 NSC 25/22 Q1010 NOSIG,0,3.0,0,6000,0,0,0,
2026-04-19 19:30:00,METAR ZGGG 191930Z 12003MPS 6000 NSC 25/22 Q1010 NOSIG,0,3.0,0,6000,0,0,0,
2026-04-19 19:00:00,METAR ZGGG 191900Z 11003MPS 7000 NSC 25/22 Q1010 NOSIG,0,3.0,0,7000,0,0,0,
2026-04-19 18:30:00,METAR ZGGG 191830Z 12003MPS 7000 NSC 26/22 Q1011 NOSIG,0,3.0,0,7000,0,0,0,
2026-04-19 18:00:00,METAR ZGGG 191800Z 12003MPS 7000 NSC 26/22 Q1011 NOSIG,0,3.0,0,7000,0,0,0,
2026-04-19 17:30:00,METAR ZGGG 191730Z 12002MPS 7000 NSC 26/22 Q1011 NOSIG,0,2.0,0,7000,0,0,0,
2026-04-19 17:00:00,METAR ZGGG 191700Z 11002MPS 7000 NSC 26/21 Q1011 NOSIG,0,2.0,0,7000,0,0,0,
2026-04-19 16:30:00,METAR ZGGG 191630Z 11002MPS 8000 NSC 26/21 Q1012 NOSIG,0,2.0,0,8000,0,0,0,
2026-04-19 16:00:00,METAR ZGGG 191600Z 11002MPS 9000 NSC 26/21 Q1012 NOSIG,0,2.0,0,9000,0,0,0,
2026-04-19 15:30:00,METAR ZGGG 191530Z 13002MPS 120V180 9000 NSC 27/21 Q1012 NOSIG,0,2.0,0,9000,0,0,0,
2026-04-19 15:00:00,METAR ZGGG 191500Z 14003MPS 9000 NSC 27/21 Q1012 NOSIG,0,3.0,0,9000,0,0,0,
2026-04-19 14:30:00,METAR ZGGG 191430Z 14003MPS CAVOK 27/21 Q1012 NOSIG,1,0.0,0,9999,0,0,0,
2026-04-19 14:00:00,METAR ZGGG 191400Z 17003MPS CAVOK 27/21 Q1012 NOSIG,1,0.0,0,9999,0,0,0,
2026-04-19 13:30:00,METAR ZGGG 191330Z 17005MPS CAVOK 28/20 Q1011 NOSIG,1,0.0,0,9999,0,0,0,
2026-04-19 13:00:00,METAR ZGGG 191300Z 16005MPS CAVOK 28/20 Q1010 NOSIG,1,0.0,0,9999,0,0,0,
2026-04-19 12:30:00,METAR ZGGG 191230Z 16005MPS CAVOK 28/21 Q1010 NOSIG,1,0.0,0,9999,0,0,0,
2026-04-19 12:00:00,METAR ZGGG 191200Z 14005MPS CAVOK 29/21 Q1009 NOSIG,1,0.0,0,9999,0,0,0,
2026-04-19 11:30:00,METAR ZGGG 191130Z 15005MPS CAVOK 30/21 Q1009 NOSIG,1,0.0,0,9999,0,0,0,
2026-04-19 11:00:00,METAR ZGGG 191100Z 17003MPS 9999 FEW060 31/19 Q1008 NOSIG,0,3.0,0,10000,0,0,0,
2026-04-19 10:30:00,METAR ZGGG 191030Z 16003MPS 9999 FEW060 31/19 Q1008 NOSIG,0,3.0,0,10000,0,0,0,
2026-04-19 10:00:00,METAR ZGGG 191000Z 14003MPS 9999 SCT060 32/18 Q1008 NOSIG,0,3.0,0,10000,0,0,0,
2026-04-19 09:30:00,METAR ZGGG 190930Z 13003MPS 100V170 9999 SCT060 32/19 Q1008 NOSIG,0,3.0,0,10000,0,0,0,
2026-04-19 09:00:00,METAR ZGGG 190900Z 15002MPS 120V190 9999 SCT060 32/19 Q1008 NOSIG,0,2.0,0,10000,0,0,0,
2026-04-19 08:30:00,METAR ZGGG 190830Z 18002MPS 140V210 9999 SCT056 33/20 Q1008 NOSIG,0,2.0,0,10000,0,0,0,
2026-04-19 08:00:00,METAR ZGGG 190800Z 15002MPS 090V200 9999 FEW056 33/20 Q1008 NOSIG,0,2.0,0,10000,0,0,0,
2026-04-19 07:30:00,METAR ZGGG 190730Z VRB01MPS 9999 FEW053 33/20 Q1008 NOSIG,0,1.0,0,10000,0,0,0,
2026-04-19 07:00:00,METAR ZGGG 190700Z 16002MPS 090V210 9999 BKN050 33/20 Q1009 NOSIG,0,2.0,0,10000,0,0,0,
2026-04-19 06:30:00,METAR ZGGG 190630Z VRB01MPS 9999 BKN050 32/20 Q1009 NOSIG,0,1.0,0,10000,0,0,0,
2026-04-19 06:00:00,METAR ZGGG 190600Z VRB02MPS 9999 BKN050 31/20 Q1010 NOSIG,0,2.0,0,10000,0,0,0,
2026-04-19 05:30:00,METAR ZGGG 190530Z 22002MPS 140V280 9999 SCT043 32/21 Q1010 NOSIG,0,2.0,0,10000,0,0,0,
2026-04-19 05:00:00,METAR ZGGG 190500Z VRB01MPS 9999 SCT043 33/21 Q1010 NOSIG,0,1.0,0,10000,0,0,0,
2026-04-19 04:30:00,METAR ZGGG 190430Z VRB03MPS 9999 SCT043 31/21 Q1011 NOSIG,0,3.0,0,10000,0,0,0,
2026-04-19 04:00:00,METAR ZGGG 190400Z VRB02MPS 9999 FEW040 31/21 Q1011 NOSIG,0,2.0,0,10000,0,0,0,
2026-04-19 03:30:00,METAR ZGGG 190330Z VRB02MPS 9999 FEW060 31/21 Q1012 NOSIG,0,2.0,0,10000,0,0,0,
2026-04-19 03:00:00,METAR ZGGG 190300Z 10002MPS 020V140 9999 FEW060 30/21 Q1012 NOSIG,0,2.0,0,10000,0,0,0,
2026-04-19 02:30:00,METAR ZGGG 190230Z VRB01MPS CAVOK 30/21 Q1012 NOSIG,1,0.0,0,9999,0,0,0,
2026-04-19 02:00:00,METAR ZGGG 190200Z 09002MPS 050V210 CAVOK 28/22 Q1012 NOSIG,1,0.0,0,9999,0,0,0,
2026-04-19 01:30:00,METAR ZGGG 190130Z VRB01MPS CAVOK 27/21 Q1012 NOSIG,1,0.0,0,9999,0,0,0,
2026-04-19 01:00:00,METAR ZGGG 190100Z VRB01MPS CAVOK 26/21 Q1012 NOSIG,1,0.0,0,9999,0,0,0,
2026-04-19 00:30:00,METAR ZGGG 190030Z VRB01MPS CAVOK 26/21 Q1012 NOSIG,1,0.0,0,9999,0,0,0,
2026-04-19 00:00:00,METAR ZGGG 190000Z 08002MPS CAVOK 24/21 Q1012 NOSIG,1,0.0,0,9999,0,0,0,
2026-04-18 23:30:00,METAR ZGGG 182330Z 08002MPS CAVOK 23/21 Q1012 NOSIG,1,0.0,0,9999,0,0,0,
2026-04-18 23:00:00,METAR ZGGG 182300Z 07002MPS 8000 NSC 23/21 Q1011 NOSIG,0,2.0,0,8000,0,0,0,
2026-04-18 22:30:00,METAR ZGGG 182230Z 09001MPS 8000 NSC 22/20 Q1011 NOSIG,0,1.0,0,8000,0,0,0,
2026-04-18 22:00:00,METAR ZGGG 182200Z 09002MPS 8000 NSC 22/20 Q1010 NOSIG,0,2.0,0,8000,0,0,0,
2026-04-18 21:30:00,METAR ZGGG 182130Z 07002MPS CAVOK 22/20 Q1010 NOSIG,1,0.0,0,9999,0,0,0,
2026-04-18 21:00:00,METAR ZGGG 182100Z 08002MPS CAVOK 22/20 Q1010 NOSIG,1,0.0,0,9999,0,0,0,
2026-04-18 20:30:00,METAR ZGGG 182030Z 08002MPS CAVOK 22/20 Q1010 NOSIG,1,0.0,0,9999,0,0,0,
2026-04-18 20:00:00,METAR ZGGG 182000Z 09002MPS CAVOK 23/21 Q1010 NOSIG,1,0.0,0,9999,0,0,0,
2026-04-18 19:30:00,METAR ZGGG 181930Z 06001MPS CAVOK 22/20 Q1010 NOSIG,1,0.0,0,9999,0,0,0,
2026-04-18 19:00:00,METAR ZGGG 181900Z 05002MPS 020V080 CAVOK 22/21 Q1011 NOSIG,1,0.0,0,9999,0,0,0,
2026-04-18 18:30:00,METAR ZGGG 181830Z 05002MPS CAVOK 23/21 Q1011 NOSIG,1,0.0,0,9999,0,0,0,
2026-04-18 18:00:00,METAR ZGGG 181800Z 07002MPS CAVOK 23/21 Q1011 NOSIG,1,0.0,0,9999,0,0,0,
2026-04-18 17:30:00,METAR ZGGG 181730Z 07002MPS CAVOK 23/21 Q1011 NOSIG,1,0.0,0,9999,0,0,0,
2026-04-18 17:00:00,METAR ZGGG 181700Z 08001MPS CAVOK 24/21 Q1011 NOSIG,1,0.0,0,9999,0,0,0,
2026-04-18 16:30:00,METAR ZGGG 181630Z VRB01MPS CAVOK 24/21 Q1011 NOSIG,1,0.0,0,9999,0,0,0,
2026-04-18 16:00:00,METAR ZGGG 181600Z 07001MPS CAVOK 24/21 Q1011 NOSIG,1,0.0,0,9999,0,0,0,
2026-04-18 15:00:00,METAR ZGGG 181500Z VRB01MPS CAVOK 26/20 Q1012 NOSIG,1,0.0,0,9999,0,0,0,
2026-04-18 14:30:00,METAR ZGGG 181430Z 26002MPS 210V320 CAVOK 26/20 Q1011 NOSIG,1,0.0,0,9999,0,0,0,
2026-04-18 14:00:00,METAR ZGGG 181400Z 23002MPS 200V360 CAVOK 26/20 Q1011 NOSIG,1,0.0,0,9999,0,0,0,
2026-04-18 13:30:00,METAR ZGGG 181330Z 23002MPS 190V310 CAVOK 27/19 Q1011 NOSIG,1,0.0,0,9999,0,0,0,
2026-04-18 13:00:00,METAR ZGGG 181300Z 25002MPS 230V320 CAVOK 27/20 Q1011 NOSIG,1,0.0,0,9999,0,0,0,
2026-04-18 12:30:00,METAR ZGGG 181230Z 25002MPS 210V300 CAVOK 27/19 Q1010 NOSIG,1,0.0,0,9999,0,0,0,
2026-04-18 12:00:00,METAR ZGGG 181200Z 24002MPS 210V300 CAVOK 27/20 Q1010 NOSIG,1,0.0,0,9999,0,0,0,
2026-04-18 11:30:00,METAR ZGGG 181130Z 22002MPS CAVOK 27/19 Q1010 NOSIG,1,0.0,0,9999,0,0,0,
2026-04-18 11:00:00,METAR ZGGG 181100Z 22002MPS 180V270 9999 FEW043 27/19 Q1009 NOSIG,0,2.0,0,10000,0,0,0,
2026-04-18 10:30:00,METAR ZGGG 181030Z 21002MPS 180V270 9999 FEW043 28/20 Q1009 NOSIG,0,2.0,0,10000,0,0,0,
2026-04-18 10:00:00,METAR ZGGG 181000Z 22002MPS 190V320 9999 FEW043 29/20 Q1009 NOSIG,0,2.0,0,10000,0,0,0,
2026-04-18 09:30:00,METAR ZGGG 180930Z 25002MPS 190V310 9999 FEW043 29/20 Q1009 NOSIG,0,2.0,0,10000,0,0,0,
2026-04-18 09:00:00,METAR ZGGG 180900Z VRB02MPS 9999 FEW040 30/20 Q1009 NOSIG,0,2.0,0,10000,0,0,0,
2026-04-18 08:30:00,METAR ZGGG 180830Z 26002MPS 200V360 9999 FEW040 30/20 Q1009 NOSIG,0,2.0,0,10000,0,0,0,
2026-04-18 08:00:00,METAR ZGGG 180800Z 23002MPS 190V290 9999 FEW040 29/20 Q1009 NOSIG,0,2.0,0,10000,0,0,0,
2026-04-18 07:30:00,METAR ZGGG 180730Z 30003MPS 260V340 9999 BKN040 29/20 Q1010 NOSIG,0,3.0,0,10000,0,0,0,
2026-04-18 07:00:00,METAR ZGGG 180700Z 31002MPS 260V360 9999 BKN033 29/20 Q1010 NOSIG,0,2.0,0,10000,0,0,0,
2026-04-18 06:30:00,METAR ZGGG 180630Z VRB02MPS 9999 BKN033 29/21 Q1010 NOSIG,0,2.0,0,10000,0,0,0,
2026-04-18 06:00:00,METAR ZGGG 180600Z VRB01MPS 9999 BKN033 30/21 Q1011 NOSIG,0,1.0,0,10000,0,0,0,
2026-04-18 05:30:00,METAR ZGGG 180530Z VRB01MPS 9999 BKN033 28/21 Q1011 NOSIG,0,1.0,0,10000,0,0,0,
2026-04-18 05:00:00,METAR ZGGG 180500Z VRB01MPS 9999 BKN033 28/20 Q1012 NOSIG,0,1.0,0,10000,0,0,0,
2026-04-18 04:30:00,METAR ZGGG 180430Z 27002MPS 230V340 9999 SCT026 BKN043 28/20 Q1012 NOSIG,0,2.0,0,10000,0,0,0,
2026-04-18 04:00:00,METAR ZGGG 180400Z VRB01MPS 9999 SCT026 OVC043 28/20 Q1012 NOSIG,0,1.0,0,10000,0,0,0,
2026-04-18 03:30:00,METAR ZGGG 180330Z VRB01MPS 9999 BKN026 28/21 Q1013 NOSIG,0,1.0,0,10000,0,0,0,
2026-04-18 03:00:00,METAR ZGGG 180300Z VRB01MPS 9999 BKN026 26/20 Q1013 NOSIG,0,1.0,0,10000,0,0,0,
2026-04-18 02:30:00,METAR ZGGG 180230Z 31002MPS 250V060 9999 BKN056 26/20 Q1013 NOSIG,0,2.0,0,10000,0,0,0,
2026-04-18 02:00:00,METAR ZGGG 180200Z 34002MPS 290V010 9999 BKN056 25/21 Q1013 NOSIG,0,2.0,0,10000,0,0,0,
2026-04-18 01:30:00,METAR ZGGG 180130Z 30003MPS 230V360 9999 BKN056 24/20 Q1013 NOSIG,0,3.0,0,10000,0,0,0,
2026-04-18 01:00:00,METAR ZGGG 180100Z 31003MPS 280V340 9999 BKN056 24/20 Q1013 NOSIG,0,3.0,0,10000,0,0,0,
2026-04-18 00:30:00,METAR ZGGG 180030Z 32002MPS 280V360 9999 FEW033 24/20 Q1012 NOSIG,0,2.0,0,10000,0,0,0,
2026-04-18 00:00:00,METAR ZGGG 180000Z VRB01MPS 9000 FEW033 24/20 Q1012 NOSIG,0,1.0,0,9000,0,0,0,
2026-04-17 23:30:00,METAR ZGGG 172330Z VRB01MPS 8000 FEW033 23/20 Q1012 NOSIG,0,1.0,0,8000,0,0,0,
2026-04-17 23:00:00,METAR ZGGG 172300Z 09001MPS 7000 NSC 22/20 Q1012 NOSIG,0,1.0,0,7000,0,0,0,
2026-04-17 22:30:00,METAR ZGGG 172230Z 06001MPS 4500 BR NSC 21/20 Q1012 NOSIG,0,1.0,0,4500,0,0,1,BR
2026-04-17 22:00:00,METAR ZGGG 172200Z 11002MPS 4500 BR NSC 21/20 Q1011 NOSIG,0,2.0,0,4500,0,0,1,BR
2026-04-17 21:30:00,METAR ZGGG 172130Z VRB01MPS 6000 NSC 21/20 Q1011 NOSIG,0,1.0,0,6000,0,0,0,
2026-04-17 21:00:00,METAR ZGGG 172100Z 07002MPS 6000 NSC 21/20 Q1011 NOSIG,0,2.0,0,6000,0,0,0,
2026-04-17 20:30:00,METAR ZGGG 172030Z 01002MPS 7000 NSC 21/19 Q1010 NOSIG,0,2.0,0,7000,0,0,0,
2026-04-17 20:00:00,METAR ZGGG 172000Z 03002MPS 7000 NSC 21/20 Q1010 NOSIG,0,2.0,0,7000,0,0,0,
2026-04-17 19:30:00,METAR ZGGG 171930Z 36002MPS 6000 NSC 22/20 Q1011 NOSIG,0,2.0,0,6000,0,0,0,
2026-04-17 19:00:00,METAR ZGGG 171900Z 36002MPS 320V020 7000 NSC 21/20 Q1011 NOSIG,0,2.0,0,7000,0,0,0,
2026-04-17 18:30:00,METAR ZGGG 171830Z 36002MPS 7000 NSC 21/20 Q1011 NOSIG,0,2.0,0,7000,0,0,0,
2026-04-17 18:00:00,METAR ZGGG 171800Z 35003MPS 8000 NSC 22/20 Q1011 NOSIG,0,3.0,0,8000,0,0,0,
2026-04-17 17:30:00,METAR ZGGG 171730Z 35002MPS 9000 NSC 22/20 Q1011 NOSIG,0,2.0,0,9000,0,0,0,
2026-04-17 17:00:00,METAR ZGGG 171700Z 34002G08MPS 290V020 9999 BKN016 23/21 Q1012 NOSIG,0,2.0,1,10000,0,0,0,
2026-04-17 16:30:00,METAR ZGGG 171630Z 01002MPS 9999 SCT013 22/20 Q1012 NOSIG,0,2.0,0,10000,0,0,0,
2026-04-17 16:00:00,METAR ZGGG 171600Z 23001MPS 8000 NSC 23/21 Q1012 NOSIG,0,1.0,0,8000,0,0,0,
2026-04-17 15:30:00,METAR ZGGG 171530Z VRB01MPS 8000 NSC 23/21 Q1012 NOSIG,0,1.0,0,8000,0,0,0,
2026-04-17 15:00:00,METAR ZGGG 171500Z 23002MPS 210V270 8000 NSC 23/21 Q1013 NOSIG,0,2.0,0,8000,0,0,0,
2026-04-17 14:30:00,METAR ZGGG 171430Z 23002MPS 200V270 CAVOK 23/20 Q1013 NOSIG,1,0.0,0,9999,0,0,0,
2026-04-17 14:00:00,METAR ZGGG 171400Z 22001MPS CAVOK 23/21 Q1013 NOSIG,1,0.0,0,9999,0,0,0,
2026-04-17 13:30:00,METAR ZGGG 171330Z 23002MPS CAVOK 23/21 Q1013 NOSIG,1,0.0,0,9999,0,0,0,
2026-04-17 13:00:00,METAR ZGGG 171300Z 21001MPS CAVOK 23/21 Q1013 NOSIG,1,0.0,0,9999,0,0,0,
2026-04-17 12:30:00,METAR ZGGG 171230Z 26002MPS 160V280 CAVOK 24/20 Q1012 NOSIG,1,0.0,0,9999,0,0,0,
2026-04-17 12:00:00,METAR ZGGG 171200Z VRB01MPS CAVOK 24/21 Q1012 NOSIG,1,0.0,0,9999,0,0,0,
2026-04-17 11:30:00,METAR ZGGG 171130Z VRB02MPS CAVOK 24/21 Q1011 NOSIG,1,0.0,0,9999,0,0,0,
2026-04-17 11:00:00,METAR ZGGG 171100Z 03002MPS CAVOK 23/21 Q1011 NOSIG,1,0.0,0,9999,0,0,0,
2026-04-17 10:30:00,METAR ZGGG 171030Z 06002MPS 010V120 CAVOK 24/21 Q1011 NOSIG,1,0.0,0,9999,0,0,0,
2026-04-17 10:00:00,METAR ZGGG 171000Z VRB01MPS 9999 SCT040 24/21 Q1011 NOSIG,0,1.0,0,10000,0,0,0,
2026-04-17 09:30:00,METAR ZGGG 170930Z 30003G08MPS 280V360 9999 -SHRA BKN033 24/21 Q1010 NOSIG,0,3.0,1,10000,0,0,0,RA
2026-04-17 09:00:00,METAR ZGGG 170900Z VRB01MPS 9999 FEW023 24/21 Q1010 NOSIG,0,1.0,0,10000,0,0,0,
2026-04-17 08:30:00,METAR ZGGG 170830Z 21002MPS 180V250 9999 FEW023 25/21 Q1010 NOSIG,0,2.0,0,10000,0,0,0,
2026-04-17 08:00:00,METAR ZGGG 170800Z 17002MPS 9999 FEW033 25/20 Q1009 NOSIG,0,2.0,0,10000,0,0,0,
2026-04-17 07:30:00,METAR ZGGG 170730Z 10003MPS 080V140 9999 BKN050 25/21 Q1009 NOSIG,0,3.0,0,10000,0,0,0,
2026-04-17 07:00:00,METAR ZGGG 170700Z VRB02MPS 9999 -SHRA FEW026CB BKN033 24/21 Q1010 RESHRA BECMG AT0730 BKN033,0,2.0,0,10000,0,0,0,RA
2026-04-17 06:52:00,SPECI ZGGG 170652Z VRB01MPS 9999 SHRA FEW026CB SCT033 25/20 Q1011 BECMG AT0710 NSW,0,1.0,0,10000,0,0,0,"RA,SH"
2026-04-17 06:30:00,METAR ZGGG 170630Z 24002MPS 200V300 9999 BKN023 25/20 Q1011 NOSIG,0,2.0,0,10000,0,0,0,
2026-04-17 06:00:00,METAR ZGGG 170600Z 28005MPS 250V340 9999 FEW023 26/20 Q1012 NOSIG,0,5.0,0,10000,0,0,0,
2026-04-17 05:30:00,METAR ZGGG 170530Z 28005MPS 250V310 9999 FEW020 26/20 Q1013 BECMG AT0610 SHRA FEW026CB BKN030,0,5.0,0,10000,0,0,0,"RA,SH"
2026-04-17 05:00:00,METAR ZGGG 170500Z 25003MPS 220V280 9999 FEW020 25/20 Q1013 BECMG AT0610 SHRA FEW026CB BKN030,0,3.0,0,10000,0,0,0,"RA,SH"
2026-04-17 04:30:00,METAR ZGGG 170430Z VRB01MPS 9999 FEW013 24/21 Q1013 NOSIG,0,1.0,0,10000,0,0,0,
2026-04-17 04:00:00,METAR ZGGG 170400Z 10002MPS 070V130 9999 -SHRA FEW020 BKN030 23/21 Q1013 RETS NOSIG,0,2.0,0,10000,1,0,0,"RA,TS"
2026-04-17 03:30:00,METAR ZGGG 170330Z 12002MPS 060V150 8000 -TSRA FEW020 FEW026CB BKN033 21/20 Q1013 BECMG AT0350 NSW BKN033,0,2.0,0,8000,1,0,0,RA
2026-04-17 03:00:00,METAR ZGGG 170300Z 16004MPS 8000 -TSRA FEW020 FEW026CB BKN033 21/20 Q1015 RESHRA BECMG AT0345 NSW BKN033,0,4.0,0,8000,1,0,0,RA
2026-04-17 02:54:00,SPECI ZGGG 170254Z 18003MPS 150V250 7000 -TSRA FEW020 FEW026CB BKN033 22/21 Q1015 RESHRA BECMG AT0340 NSW BKN033,0,3.0,0,7000,1,0,0,RA
2026-04-17 02:39:00,SPECI ZGGG 170239Z 25004MPS 200V300 2000 +TSRA FEW020 SCT026CB 23/20 Q1016 BECMG AT0315 4000 -TSRA,0,4.0,0,2000,1,0,0,RA
2026-04-17 02:33:00,SPECI ZGGG 170233Z 26005MPS 3500 +SHRA FEW020 SCT026CB 24/20 Q1016 BECMG AT0240 1200 +TSRA,0,5.0,0,3500,1,0,0,RA
2026-04-17 02:30:00,METAR ZGGG 170230Z 27004MPS 230V340 9999 SCT026CB BKN033 24/20 Q1016 BECMG AT0240 0700 +TSRA,0,4.0,0,10000,1,0,0,RA
2026-04-17 02:00:00,METAR ZGGG 170200Z 34002MPS 300V020 CAVOK 24/21 Q1014 BECMG AT0220 26011G20MPS 0700 +TSRA SCT011 SCT026CB BKN030,1,0.0,0,9999,0,0,0,
2026-04-17 01:30:00,METAR ZGGG 170130Z 35002MPS 260V030 CAVOK 24/21 Q1014 BECMG AT0215 26008G15MPS 1200 +TSRA SCT011 SCT026CB BKN030,1,0.0,0,9999,0,0,0,
2026-04-17 01:00:00,METAR ZGGG 170100Z VRB01MPS CAVOK 23/20 Q1013 BECMG AT0215 26008G15MPS 1200 +TSRA SCT011 SCT026CB BKN030,1,0.0,0,9999,0,0,0,
2026-04-17 00:30:00,METAR ZGGG 170030Z VRB01MPS CAVOK 22/20 Q1013 NOSIG,1,0.0,0,9999,0,0,0,
2026-04-17 00:00:00,METAR ZGGG 170000Z VRB01MPS CAVOK 22/20 Q1012 NOSIG,1,0.0,0,9999,0,0,0,
2026-04-16 23:30:00,METAR ZGGG 162330Z 11003MPS CAVOK 21/21 Q1012 NOSIG,1,0.0,0,9999,0,0,0,
2026-04-16 23:00:00,METAR ZGGG 162300Z 14003MPS 9999 -SHRA SCT010 21/20 Q1012 RETSRA NOSIG,0,3.0,0,10000,1,0,0,RA
2026-04-16 22:53:00,SPECI ZGGG 162253Z 13003MPS 9999 -SHRA SCT010 21/20 Q1012 RETSRA NOSIG,0,3.0,0,10000,1,0,0,RA
2026-04-16 22:32:00,SPECI ZGGG 162232Z 13004MPS 100V160 6000 +TSRA FEW010 SCT030CB BKN060 20/20 Q1012 BECMG AT2300 -TSRA,0,4.0,0,6000,1,0,0,RA
2026-04-16 22:30:00,METAR ZGGG 162230Z 14003MPS 6000 TSRA FEW010 FEW030CB BKN060 21/20 Q1013 BECMG AT2300 -TSRA,0,3.0,0,6000,1,0,0,"RA,TS"
2026-04-16 22:00:00,METAR ZGGG 162200Z 36004MPS 330V040 6000 TSRA SCT013CB BKN020 20/20 Q1012 BECMG AT2220 -TSRA,0,4.0,0,6000,1,0,0,"RA,TS"
2026-04-16 21:56:00,SPECI ZGGG 162156Z 35006G13MPS 310V030 4000 R19R/P2000 R19L/P2000 R20R/1700U R20L/1700U R21/1300U +TSRA SCT013CB BKN020 20/20 Q1012 BECMG AT2220 -TSRA,0,6.0,1,4000,1,0,0,RA
2026-04-16 21:45:00,SPECI ZGGG 162145Z 30011G16MPS 240V320 1400 R19R/1400D R19L/0450D R20R/1300D R20L/P2000 R21/P2000 +TSRA SQ SCT013CB BKN020 22/20 Q1013 BECMG AT2220 -TSRA,0,11.0,1,1400,1,0,0,"RA,SQ"
2026-04-16 21:42:00,SPECI ZGGG 162142Z 28009G16MPS 240V320 9999 +TSRA SQ SCT013CB BKN020 26/22 Q1012 BECMG AT2220 -TSRA,0,9.0,1,10000,1,0,0,"RA,SQ"
2026-04-16 21:38:00,SPECI ZGGG 162138Z 27006MPS 9999 -SHRA OVC020 26/22 Q1012 BECMG AT2145 1200 +TSRA SCT026CB BKN030,0,6.0,0,10000,1,0,0,RA
2026-04-16 21:30:00,METAR ZGGG 162130Z 18004MPS 9999 -SHRA OVC020 25/22 Q1010 BECMG AT2150 30009G15MPS 1200 +TSRA SCT030CB BKN033,0,4.0,0,10000,1,0,0,RA
2026-04-16 21:00:00,METAR ZGGG 162100Z 14003MPS 9999 OVC020 26/22 Q1010 BECMG AT2150 30007G15MPS 2500 +TSRA SCT030CB BKN033,0,3.0,0,10000,1,0,0,RA
2026-04-16 20:30:00,METAR ZGGG 162030Z 10002MPS 9999 OVC040 26/22 Q1010 NOSIG,0,2.0,0,10000,0,0,0,
2026-04-16 20:00:00,METAR ZGGG 162000Z 12002MPS 9999 OVC040 26/22 Q1010 NOSIG,0,2.0,0,10000,0,0,0,
2026-04-16 19:30:00,METAR ZGGG 161930Z 12002MPS 9999 OVC040 26/22 Q1010 NOSIG,0,2.0,0,10000,0,0,0,
2026-04-16 19:00:00,METAR ZGGG 161900Z 13002MPS 9999 OVC040 26/22 Q1010 NOSIG,0,2.0,0,10000,0,0,0,
2026-04-16 18:30:00,METAR ZGGG 161830Z 15002MPS 9999 OVC040 26/22 Q1010 NOSIG,0,2.0,0,10000,0,0,0,
2026-04-16 18:00:00,METAR ZGGG 161800Z 13003MPS 9999 OVC040 26/22 Q1010 NOSIG,0,3.0,0,10000,0,0,0,
2026-04-16 17:30:00,METAR ZGGG 161730Z 12002MPS 9999 OVC040 26/22 Q1011 NOSIG,0,2.0,0,10000,0,0,0,
2026-04-16 17:00:00,METAR ZGGG 161700Z 11002MPS 080V150 9999 OVC040 26/22 Q1011 NOSIG,0,2.0,0,10000,0,0,0,
2026-04-16 16:30:00,METAR ZGGG 161630Z 12002MPS 070V140 9999 OVC040 26/22 Q1011 NOSIG,0,2.0,0,10000,0,0,0,
2026-04-16 16:00:00,METAR ZGGG 161600Z VRB01MPS 9999 OVC040 26/22 Q1011 NOSIG,0,1.0,0,10000,0,0,0,
2026-04-16 15:30:00,METAR ZGGG 161530Z 16002MPS 9999 OVC040 26/22 Q1011 NOSIG,0,2.0,0,10000,0,0,0,
2026-04-16 15:00:00,METAR ZGGG 161500Z 17002MPS 9999 OVC040 26/22 Q1011 NOSIG,0,2.0,0,10000,0,0,0,
2026-04-16 14:30:00,METAR ZGGG 161430Z 22002MPS 9999 OVC040 27/22 Q1011 NOSIG,0,2.0,0,10000,0,0,0,
2026-04-16 14:00:00,METAR ZGGG 161400Z 22002MPS 170V270 9999 OVC040 27/22 Q1011 NOSIG,0,2.0,0,10000,0,0,0,
2026-04-16 13:30:00,METAR ZGGG 161330Z 17002MPS 9999 OVC040 27/22 Q1011 NOSIG,0,2.0,0,10000,0,0,0,
2026-04-16 13:00:00,METAR ZGGG 161300Z 16003MPS 9999 OVC040 27/22 Q1010 NOSIG,0,3.0,0,10000,0,0,0,
2026-04-16 12:30:00,METAR ZGGG 161230Z 16003MPS 9999 OVC040 27/22 Q1010 NOSIG,0,3.0,0,10000,0,0,0,
2026-04-16 12:00:00,METAR ZGGG 161200Z 16004MPS 9999 OVC040 27/22 Q1009 NOSIG,0,4.0,0,10000,0,0,0,
2026-04-16 11:30:00,METAR ZGGG 161130Z 15004MPS 9999 OVC040 27/22 Q1009 NOSIG,0,4.0,0,10000,0,0,0,
2026-04-16 11:00:00,METAR ZGGG 161100Z 15005MPS 9999 OVC040 28/22 Q1009 NOSIG,0,5.0,0,10000,0,0,0,
2026-04-16 10:30:00,METAR ZGGG 161030Z 14005MPS 9999 OVC040 28/22 Q1008 NOSIG,0,5.0,0,10000,0,0,0,
2026-04-16 10:00:00,METAR ZGGG 161000Z 15005MPS 9999 OVC033 28/22 Q1008 NOSIG,0,5.0,0,10000,0,0,0,
2026-04-16 09:30:00,METAR ZGGG 160930Z 13004MPS 9999 OVC033 28/22 Q1008 NOSIG,0,4.0,0,10000,0,0,0,
2026-04-16 09:00:00,METAR ZGGG 160900Z 14004MPS 9999 OVC033 28/21 Q1008 NOSIG,0,4.0,0,10000,0,0,0,
2026-04-16 08:30:00,METAR ZGGG 160830Z 14004MPS 9999 -SHRA OVC033 28/21 Q1008 NOSIG,0,4.0,0,10000,0,0,0,RA
2026-04-16 08:00:00,METAR ZGGG 160800Z 14005MPS 9999 OVC033 28/21 Q1008 NOSIG,0,5.0,0,10000,0,0,0,
2026-04-16 07:30:00,METAR ZGGG 160730Z 15005MPS 9999 OVC033 29/21 Q1009 NOSIG,0,5.0,0,10000,0,0,0,
2026-04-16 07:00:00,METAR ZGGG 160700Z 15004MPS 9999 OVC033 29/22 Q1009 NOSIG,0,4.0,0,10000,0,0,0,
2026-04-16 06:30:00,METAR ZGGG 160630Z 14005MPS 9999 SCT020 OVC043 29/22 Q1009 NOSIG,0,5.0,0,10000,0,0,0,
2026-04-16 06:00:00,METAR ZGGG 160600Z 14005MPS 110V170 9999 SCT020 OVC043 30/22 Q1010 NOSIG,0,5.0,0,10000,0,0,0,
2026-04-16 05:30:00,METAR ZGGG 160530Z 18004MPS 9999 SCT020 OVC043 30/22 Q1010 NOSIG,0,4.0,0,10000,0,0,0,
2026-04-16 05:00:00,METAR ZGGG 160500Z 18004MPS 9999 SCT020 OVC043 30/21 Q1010 NOSIG,0,4.0,0,10000,0,0,0,
2026-04-16 04:30:00,METAR ZGGG 160430Z 16004MPS 9999 SCT020 OVC043 31/22 Q1011 NOSIG,0,4.0,0,10000,0,0,0,
2026-04-16 04:00:00,METAR ZGGG 160400Z 17005MPS 9999 SCT020 OVC043 30/22 Q1011 NOSIG,0,5.0,0,10000,0,0,0,
2026-04-16 03:30:00,METAR ZGGG 160330Z 18005MPS 9999 SCT020 OVC043 29/22 Q1011 NOSIG,0,5.0,0,10000,0,0,0,
2026-04-16 03:00:00,METAR ZGGG 160300Z 16005MPS 9999 SCT020 OVC043 30/22 Q1012 NOSIG,0,5.0,0,10000,0,0,0,
2026-04-16 02:30:00,METAR ZGGG 160230Z 17004MPS 130V200 9999 SCT020 OVC043 29/23 Q1012 NOSIG,0,4.0,0,10000,0,0,0,
2026-04-16 02:00:00,METAR ZGGG 160200Z 16004MPS 9999 SCT020 OVC043 29/23 Q1012 NOSIG,0,4.0,0,10000,0,0,0,
2026-04-16 01:30:00,METAR ZGGG 160130Z 18005MPS 9999 SCT020 OVC043 28/22 Q1012 NOSIG,0,5.0,0,10000,0,0,0,
2026-04-16 01:00:00,METAR ZGGG 160100Z 16005MPS 9999 BKN030 28/23 Q1012 NOSIG,0,5.0,0,10000,0,0,0,
2026-04-16 00:30:00,METAR ZGGG 160030Z 17003MPS 9999 BKN030 27/23 Q1011 NOSIG,0,3.0,0,10000,0,0,0,
2026-04-16 00:00:00,METAR ZGGG 160000Z 13002MPS 9999 BKN030 27/23 Q1011 NOSIG,0,2.0,0,10000,0,0,0,
2026-04-15 23:30:00,METAR ZGGG 152330Z 11002MPS 080V140 9999 BKN030 26/23 Q1010 NOSIG,0,2.0,0,10000,0,0,0,
2026-04-15 23:00:00,METAR ZGGG 152300Z 12002MPS 100V170 9999 SCT030 26/23 Q1010 NOSIG,0,2.0,0,10000,0,0,0,
2026-04-15 22:30:00,METAR ZGGG 152230Z 12002MPS 9999 SCT030 25/23 Q1009 NOSIG,0,2.0,0,10000,0,0,0,
2026-04-15 22:00:00,METAR ZGGG 152200Z 11002MPS 9999 SCT030 25/23 Q1009 NOSIG,0,2.0,0,10000,0,0,0,
2026-04-15 21:30:00,METAR ZGGG 152130Z 12002MPS 9999 SCT030 25/23 Q1008 NOSIG,0,2.0,0,10000,0,0,0,
2026-04-15 21:00:00,METAR ZGGG 152100Z 11003MPS 9999 SCT033 25/23 Q1008 NOSIG,0,3.0,0,10000,0,0,0,
2026-04-15 20:30:00,METAR ZGGG 152030Z 11003MPS 9999 SCT033 25/23 Q1008 NOSIG,0,3.0,0,10000,0,0,0,
2026-04-15 20:00:00,METAR ZGGG 152000Z 12003MPS 9999 SCT033 25/23 Q1008 NOSIG,0,3.0,0,10000,0,0,0,
2026-04-15 19:30:00,METAR ZGGG 151930Z 13003MPS CAVOK 25/23 Q1008 NOSIG,1,0.0,0,9999,0,0,0,
2026-04-15 19:00:00,METAR ZGGG 151900Z 14003MPS CAVOK 25/23 Q1008 NOSIG,1,0.0,0,9999,0,0,0,
2026-04-15 18:30:00,METAR ZGGG 151830Z 13003MPS CAVOK 25/23 Q1009 NOSIG,1,0.0,0,9999,0,0,0,
2026-04-15 18:00:00,METAR ZGGG 151800Z 12003MPS CAVOK 26/23 Q1009 NOSIG,1,0.0,0,9999,0,0,0,
2026-04-15 17:30:00,METAR ZGGG 151730Z 12002MPS CAVOK 26/23 Q1009 NOSIG,1,0.0,0,9999,0,0,0,
2026-04-15 17:00:00,METAR ZGGG 151700Z 14002MPS CAVOK 26/23 Q1010 NOSIG,1,0.0,0,9999,0,0,0,
2026-04-15 16:30:00,METAR ZGGG 151630Z 14004MPS CAVOK 26/23 Q1010 NOSIG,1,0.0,0,9999,0,0,0,
2026-04-15 16:00:00,METAR ZGGG 151600Z 15002MPS CAVOK 26/23 Q1010 NOSIG,1,0.0,0,9999,0,0,0,
2026-04-15 15:30:00,METAR ZGGG 151530Z 15003MPS CAVOK 26/23 Q1010 NOSIG,1,0.0,0,9999,0,0,0,
2026-04-15 15:00:00,METAR ZGGG 151500Z 15003MPS CAVOK 26/23 Q1010 NOSIG,1,0.0,0,9999,0,0,0,
2026-04-15 14:30:00,METAR ZGGG 151430Z 14003MPS CAVOK 27/23 Q1010 NOSIG,1,0.0,0,9999,0,0,0,
2026-04-15 14:00:00,METAR ZGGG 151400Z 13003MPS CAVOK 27/22 Q1010 NOSIG,1,0.0,0,9999,0,0,0,
2026-04-15 13:30:00,METAR ZGGG 151330Z 12003MPS CAVOK 27/22 Q1009 NOSIG,1,0.0,0,9999,0,0,0,
2026-04-15 13:00:00,METAR ZGGG 151300Z 13003MPS CAVOK 27/23 Q1009 NOSIG,1,0.0,0,9999,0,0,0,
2026-04-15 12:30:00,METAR ZGGG 151230Z 13003MPS CAVOK 27/23 Q1009 NOSIG,1,0.0,0,9999,0,0,0,
2026-04-15 12:00:00,METAR ZGGG 151200Z 13003MPS CAVOK 28/23 Q1008 NOSIG,1,0.0,0,9999,0,0,0,
2026-04-15 11:30:00,METAR ZGGG 151130Z 17004MPS 9999 BKN060 28/22 Q1008 NOSIG,0,4.0,0,10000,0,0,0,
2026-04-15 11:00:00,METAR ZGGG 151100Z 13004MPS 9999 BKN043 28/23 Q1008 NOSIG,0,4.0,0,10000,0,0,0,
2026-04-15 10:30:00,METAR ZGGG 151030Z 14005MPS 9999 BKN043 28/23 Q1007 NOSIG,0,5.0,0,10000,0,0,0,
2026-04-15 10:00:00,METAR ZGGG 151000Z 13004MPS 9999 BKN043 29/23 Q1007 NOSIG,0,4.0,0,10000,0,0,0,
2026-04-15 09:30:00,METAR ZGGG 150930Z 15003MPS 9999 BKN050 29/23 Q1007 NOSIG,0,3.0,0,10000,0,0,0,
2026-04-15 09:00:00,METAR ZGGG 150900Z 13005MPS 9999 BKN050 29/23 Q1007 NOSIG,0,5.0,0,10000,0,0,0,
2026-04-15 08:30:00,METAR ZGGG 150830Z 12004MPS 9999 BKN050 29/23 Q1007 NOSIG,0,4.0,0,10000,0,0,0,
2026-04-15 08:00:00,METAR ZGGG 150800Z 14004MPS 9999 BKN050 30/23 Q1007 NOSIG,0,4.0,0,10000,0,0,0,
2026-04-15 07:30:00,METAR ZGGG 150730Z 14004MPS 9999 BKN050 30/23 Q1007 NOSIG,0,4.0,0,10000,0,0,0,
2026-04-15 07:00:00,METAR ZGGG 150700Z 17004MPS 120V190 9999 BKN050 31/23 Q1007 NOSIG,0,4.0,0,10000,0,0,0,
2026-04-15 06:30:00,METAR ZGGG 150630Z 16005MPS 9999 BKN050 30/22 Q1008 NOSIG,0,5.0,0,10000,0,0,0,
2026-04-15 06:00:00,METAR ZGGG 150600Z 16004MPS 9999 BKN050 30/22 Q1008 NOSIG,0,4.0,0,10000,0,0,0,
2026-04-15 05:30:00,METAR ZGGG 150530Z 19005MPS 9999 BKN033 30/22 Q1009 NOSIG,0,5.0,0,10000,0,0,0,
2026-04-15 05:00:00,METAR ZGGG 150500Z 19004MPS 160V220 9999 BKN033 30/22 Q1009 NOSIG,0,4.0,0,10000,0,0,0,
2026-04-15 04:30:00,METAR ZGGG 150430Z 17005MPS 9999 BKN033 30/22 Q1009 NOSIG,0,5.0,0,10000,0,0,0,
2026-04-15 04:00:00,METAR ZGGG 150400Z 18004MPS 160V220 9999 BKN033 30/22 Q1010 NOSIG,0,4.0,0,10000,0,0,0,
2026-04-15 03:30:00,METAR ZGGG 150330Z 19003MPS 160V230 9999 BKN033 30/22 Q1010 NOSIG,0,3.0,0,10000,0,0,0,
2026-04-15 03:00:00,METAR ZGGG 150300Z 19004MPS 9999 BKN033 29/22 Q1011 NOSIG,0,4.0,0,10000,0,0,0,
2026-04-15 02:30:00,METAR ZGGG 150230Z 19004MPS 150V210 9999 SCT023 BKN040 29/22 Q1011 NOSIG,0,4.0,0,10000,0,0,0,
2026-04-15 02:00:00,METAR ZGGG 150200Z 18004MPS 150V210 9999 SCT023 BKN040 29/23 Q1011 NOSIG,0,4.0,0,10000,0,0,0,
2026-04-15 01:30:00,METAR ZGGG 150130Z 16003MPS 130V200 9999 FEW016 BKN033 29/23 Q1011 NOSIG,0,3.0,0,10000,0,0,0,
2026-04-15 01:00:00,METAR ZGGG 150100Z 16004MPS 9999 FEW016 BKN033 28/23 Q1010 NOSIG,0,4.0,0,10000,0,0,0,
2026-04-15 00:30:00,METAR ZGGG 150030Z 17003MPS 140V200 9999 FEW016 BKN033 27/23 Q1010 NOSIG,0,3.0,0,10000,0,0,0,
2026-04-15 00:00:00,METAR ZGGG 150000Z 15003MPS CAVOK 26/23 Q1010 NOSIG,1,0.0,0,9999,0,0,0,
2026-04-14 23:30:00,METAR ZGGG 142330Z 12002MPS CAVOK 25/23 Q1009 NOSIG,1,0.0,0,9999,0,0,0,
2026-04-14 23:00:00,METAR ZGGG 142300Z 10002MPS 080V140 CAVOK 24/23 Q1009 NOSIG,1,0.0,0,9999,0,0,0,
2026-04-14 22:30:00,METAR ZGGG 142230Z 09002MPS CAVOK 24/23 Q1009 NOSIG,1,0.0,0,9999,0,0,0,
2026-04-14 22:00:00,METAR ZGGG 142200Z 08002MPS 9999 FEW016 24/23 Q1009 NOSIG,0,2.0,0,10000,0,0,0,
2026-04-14 21:30:00,METAR ZGGG 142130Z 07002MPS 9999 FEW016 24/23 Q1009 NOSIG,0,2.0,0,10000,0,0,0,
2026-04-14 21:00:00,METAR ZGGG 142100Z 07002MPS 9999 SCT016 24/23 Q1009 NOSIG,0,2.0,0,10000,0,0,0,
2026-04-14 20:30:00,METAR ZGGG 142030Z 07002MPS 9999 SCT016 24/23 Q1008 NOSIG,0,2.0,0,10000,0,0,0,
2026-04-14 20:00:00,METAR ZGGG 142000Z VRB01MPS 9999 BKN016 25/23 Q1009 NOSIG,0,1.0,0,10000,0,0,0,
2026-04-14 19:30:00,METAR ZGGG 141930Z 11002MPS CAVOK 25/23 Q1009 NOSIG,1,0.0,0,9999,0,0,0,
2026-04-14 19:00:00,METAR ZGGG 141900Z 12002MPS CAVOK 25/23 Q1008 NOSIG,1,0.0,0,9999,0,0,0,
2026-04-14 18:30:00,METAR ZGGG 141830Z 13002MPS CAVOK 25/23 Q1009 NOSIG,1,0.0,0,9999,0,0,0,
2026-04-14 18:00:00,METAR ZGGG 141800Z 14003MPS CAVOK 26/23 Q1009 NOSIG,1,0.0,0,9999,0,0,0,
2026-04-14 17:30:00,METAR ZGGG 141730Z 13003MPS CAVOK 26/23 Q1009 NOSIG,1,0.0,0,9999,0,0,0,
2026-04-14 17:00:00,METAR ZGGG 141700Z 15003MPS CAVOK 26/23 Q1010 NOSIG,1,0.0,0,9999,0,0,0,
2026-04-14 16:30:00,METAR ZGGG 141630Z 15003MPS 9999 FEW026 26/23 Q1010 NOSIG,0,3.0,0,10000,0,0,0,
2026-04-14 16:00:00,METAR ZGGG 141600Z 14003MPS 9999 FEW026 26/23 Q1010 NOSIG,0,3.0,0,10000,0,0,0,
2026-04-14 15:30:00,METAR ZGGG 141530Z 13003MPS 9999 FEW026 26/23 Q1010 NOSIG,0,3.0,0,10000,0,0,0,
2026-04-14 15:00:00,METAR ZGGG 141500Z 12002MPS 9999 FEW026 26/23 Q1010 NOSIG,0,2.0,0,10000,0,0,0,
2026-04-14 14:30:00,METAR ZGGG 141430Z 12003MPS 090V150 9999 FEW026 27/23 Q1010 NOSIG,0,3.0,0,10000,0,0,0,
2026-04-14 14:00:00,METAR ZGGG 141400Z 12003MPS 9999 FEW026 27/23 Q1010 NOSIG,0,3.0,0,10000,0,0,0,
2026-04-14 13:30:00,METAR ZGGG 141330Z 12003MPS 9999 SCT060 27/24 Q1010 NOSIG,0,3.0,0,10000,0,0,0,
2026-04-14 13:00:00,METAR ZGGG 141300Z 14004MPS 9999 SCT060 27/24 Q1009 NOSIG,0,4.0,0,10000,0,0,0,
2026-04-14 12:30:00,METAR ZGGG 141230Z 12003MPS 9999 BKN060 27/24 Q1009 NOSIG,0,3.0,0,10000,0,0,0,
2026-04-14 12:00:00,METAR ZGGG 141200Z 12003MPS 9999 BKN060 27/24 Q1009 NOSIG,0,3.0,0,10000,0,0,0,
2026-04-14 11:30:00,METAR ZGGG 141130Z 13003MPS 9999 BKN040 27/24 Q1009 NOSIG,0,3.0,0,10000,0,0,0,
2026-04-14 11:00:00,METAR ZGGG 141100Z 13003MPS 9999 BKN040 28/24 Q1008 NOSIG,0,3.0,0,10000,0,0,0,
2026-04-14 10:30:00,METAR ZGGG 141030Z 13004MPS 9999 BKN040 28/24 Q1008 NOSIG,0,4.0,0,10000,0,0,0,
2026-04-14 10:00:00,METAR ZGGG 141000Z 13004MPS 9999 BKN050 28/24 Q1008 NOSIG,0,4.0,0,10000,0,0,0,
2026-04-14 09:30:00,METAR ZGGG 140930Z 14004MPS 9999 OVC050 28/24 Q1008 NOSIG,0,4.0,0,10000,0,0,0,
2026-04-14 09:00:00,METAR ZGGG 140900Z 13005MPS 9999 OVC050 28/24 Q1008 NOSIG,0,5.0,0,10000,0,0,0,
2026-04-14 08:30:00,METAR ZGGG 140830Z 14004MPS 9999 OVC050 29/24 Q1008 NOSIG,0,4.0,0,10000,0,0,0,
2026-04-14 08:00:00,METAR ZGGG 140800Z 12004MPS 9999 OVC033 28/24 Q1008 NOSIG,0,4.0,0,10000,0,0,0,
2026-04-14 07:30:00,METAR ZGGG 140730Z 12004MPS 9999 SCT026 BKN050 29/24 Q1008 NOSIG,0,4.0,0,10000,0,0,0,
2026-04-14 07:00:00,METAR ZGGG 140700Z 12004MPS 9999 -SHRA SCT026 OVC050 28/24 Q1008 NOSIG,0,4.0,0,10000,0,0,0,RA
2026-04-14 06:30:00,METAR ZGGG 140630Z 13004MPS 9999 -SHRA SCT026 OVC050 29/24 Q1009 NOSIG,0,4.0,0,10000,0,0,0,RA
2026-04-14 06:00:00,METAR ZGGG 140600Z 13004MPS 9999 -SHRA SCT026 OVC050 28/24 Q1009 NOSIG,0,4.0,0,10000,0,0,0,RA
2026-04-14 05:30:00,METAR ZGGG 140530Z 16003MPS 9999 SCT026 OVC050 29/23 Q1010 NOSIG,0,3.0,0,10000,0,0,0,
2026-04-14 05:00:00,METAR ZGGG 140500Z 16004MPS 9999 SCT026 OVC050 29/23 Q1010 NOSIG,0,4.0,0,10000,0,0,0,
2026-04-14 04:30:00,METAR ZGGG 140430Z 16005MPS 9999 SCT026 OVC050 29/23 Q1010 NOSIG,0,5.0,0,10000,0,0,0,
2026-04-14 04:00:00,METAR ZGGG 140400Z 16005MPS 9999 SCT026 OVC050 29/23 Q1011 NOSIG,0,5.0,0,10000,0,0,0,
2026-04-14 03:30:00,METAR ZGGG 140330Z 17004MPS 9999 SCT033 BKN050 30/23 Q1011 NOSIG,0,4.0,0,10000,0,0,0,
2026-04-14 03:00:00,METAR ZGGG 140300Z 17006MPS 140V200 9999 SCT020 OVC046 30/22 Q1011 NOSIG,0,6.0,0,10000,0,0,0,
2026-04-14 02:30:00,METAR ZGGG 140230Z 17005MPS 9999 SCT020 OVC046 30/23 Q1011 NOSIG,0,5.0,0,10000,0,0,0,
2026-04-14 02:00:00,METAR ZGGG 140200Z 17004MPS 9999 SCT020 OVC046 29/23 Q1012 NOSIG,0,4.0,0,10000,0,0,0,
2026-04-14 01:30:00,METAR ZGGG 140130Z 17004MPS 9999 SCT020 OVC046 29/23 Q1012 NOSIG,0,4.0,0,10000,0,0,0,
2026-04-14 01:00:00,METAR ZGGG 140100Z 15004MPS 9999 OVC046 28/23 Q1011 NOSIG,0,4.0,0,10000,0,0,0,
2026-04-14 00:30:00,METAR ZGGG 140030Z 14003MPS 9999 OVC046 27/23 Q1011 NOSIG,0,3.0,0,10000,0,0,0,
2026-04-14 00:00:00,METAR ZGGG 140000Z 14004MPS 9999 OVC046 27/23 Q1011 NOSIG,0,4.0,0,10000,0,0,0,
2026-04-13 23:30:00,METAR ZGGG 132330Z 13003MPS 9999 OVC046 26/23 Q1011 NOSIG,0,3.0,0,10000,0,0,0,
2026-04-13 23:00:00,METAR ZGGG 132300Z 12003MPS 9999 OVC040 26/23 Q1011 NOSIG,0,3.0,0,10000,0,0,0,
2026-04-13 22:30:00,METAR ZGGG 132230Z 13003MPS 9999 OVC040 26/23 Q1010 NOSIG,0,3.0,0,10000,0,0,0,
2026-04-13 22:00:00,METAR ZGGG 132200Z 12003MPS 9999 OVC033 26/23 Q1010 NOSIG,0,3.0,0,10000,0,0,0,
2026-04-13 21:30:00,METAR ZGGG 132130Z 11003MPS 9999 BKN046 26/23 Q1010 NOSIG,0,3.0,0,10000,0,0,0,
2026-04-13 21:00:00,METAR ZGGG 132100Z 10002MPS 9999 BKN046 26/23 Q1010 NOSIG,0,2.0,0,10000,0,0,0,
2026-04-13 20:30:00,METAR ZGGG 132030Z 12002MPS 9999 BKN046 26/23 Q1010 NOSIG,0,2.0,0,10000,0,0,0,
2026-04-13 20:00:00,METAR ZGGG 132000Z 14003MPS 9999 BKN046 26/23 Q1010 NOSIG,0,3.0,0,10000,0,0,0,
2026-04-13 19:30:00,METAR ZGGG 131930Z 12003MPS 9999 BKN046 26/23 Q1010 NOSIG,0,3.0,0,10000,0,0,0,
2026-04-13 19:00:00,METAR ZGGG 131900Z 12002MPS 9999 BKN046 26/23 Q1010 NOSIG,0,2.0,0,10000,0,0,0,
2026-04-13 18:30:00,METAR ZGGG 131830Z 13002MPS 9999 BKN046 26/23 Q1010 NOSIG,0,2.0,0,10000,0,0,0,
2026-04-13 18:00:00,METAR ZGGG 131800Z 13002MPS 9999 BKN046 26/23 Q1010 NOSIG,0,2.0,0,10000,0,0,0,
2026-04-13 17:30:00,METAR ZGGG 131730Z 12002MPS 9999 BKN033 26/23 Q1011 NOSIG,0,2.0,0,10000,0,0,0,
2026-04-13 17:00:00,METAR ZGGG 131700Z 14002MPS 9999 BKN033 27/23 Q1011 NOSIG,0,2.0,0,10000,0,0,0,
2026-04-13 16:30:00,METAR ZGGG 131630Z 15003MPS 9999 BKN033 26/23 Q1011 NOSIG,0,3.0,0,10000,0,0,0,
2026-04-13 16:00:00,METAR ZGGG 131600Z 14003MPS 9999 BKN026 27/23 Q1011 NOSIG,0,3.0,0,10000,0,0,0,
2026-04-13 15:30:00,METAR ZGGG 131530Z 14004MPS 9999 BKN026 27/23 Q1011 NOSIG,0,4.0,0,10000,0,0,0,
2026-04-13 15:00:00,METAR ZGGG 131500Z 13004MPS 9999 BKN026 27/23 Q1011 NOSIG,0,4.0,0,10000,0,0,0,
2026-04-13 14:30:00,METAR ZGGG 131430Z 13004MPS 9999 SCT026 27/23 Q1011 NOSIG,0,4.0,0,10000,0,0,0,
2026-04-13 14:00:00,METAR ZGGG 131400Z 12004MPS 9999 SCT040 27/23 Q1011 NOSIG,0,4.0,0,10000,0,0,0,
2026-04-13 13:30:00,METAR ZGGG 131330Z 13004MPS 9999 SCT040 27/23 Q1011 NOSIG,0,4.0,0,10000,0,0,0,
2026-04-13 13:00:00,METAR ZGGG 131300Z 13004MPS 9999 SCT040 27/23 Q1011 NOSIG,0,4.0,0,10000,0,0,0,
2026-04-13 12:30:00,METAR ZGGG 131230Z 13004MPS 9999 BKN043 27/23 Q1010 NOSIG,0,4.0,0,10000,0,0,0,
2026-04-13 12:00:00,METAR ZGGG 131200Z 13004MPS 9999 BKN056 27/23 Q1010 NOSIG,0,4.0,0,10000,0,0,0,
2026-04-13 11:30:00,METAR ZGGG 131130Z 13005MPS 9999 BKN056 28/23 Q1009 NOSIG,0,5.0,0,10000,0,0,0,
2026-04-13 11:00:00,METAR ZGGG 131100Z 13005MPS 9999 BKN056 28/23 Q1009 NOSIG,0,5.0,0,10000,0,0,0,
2026-04-13 10:30:00,METAR ZGGG 131030Z 13006MPS 9999 SCT040 28/23 Q1009 NOSIG,0,6.0,0,10000,0,0,0,
2026-04-13 10:00:00,METAR ZGGG 131000Z 14006MPS 9999 SCT040 29/23 Q1008 NOSIG,0,6.0,0,10000,0,0,0,
2026-04-13 09:30:00,METAR ZGGG 130930Z 13006MPS 9999 SCT040 29/23 Q1008 NOSIG,0,6.0,0,10000,0,0,0,
2026-04-13 09:00:00,METAR ZGGG 130900Z 14006MPS 9999 BKN040 29/23 Q1008 NOSIG,0,6.0,0,10000,0,0,0,
2026-04-13 08:30:00,METAR ZGGG 130830Z 14006MPS 9999 BKN040 29/23 Q1008 NOSIG,0,6.0,0,10000,0,0,0,
2026-04-13 08:00:00,METAR ZGGG 130800Z 13006MPS 9999 BKN040 30/23 Q1008 NOSIG,0,6.0,0,10000,0,0,0,
2026-04-13 07:30:00,METAR ZGGG 130730Z 12005MPS 9999 BKN040 30/23 Q1008 NOSIG,0,5.0,0,10000,0,0,0,
2026-04-13 07:00:00,METAR ZGGG 130700Z 14005MPS 110V170 9999 BKN033 31/23 Q1008 NOSIG,0,5.0,0,10000,0,0,0,
2026-04-13 06:30:00,METAR ZGGG 130630Z 13005MPS 9999 BKN033 30/23 Q1009 NOSIG,0,5.0,0,10000,0,0,0,
2026-04-13 06:00:00,METAR ZGGG 130600Z 13004MPS 100V160 9999 BKN033 30/23 Q1009 NOSIG,0,4.0,0,10000,0,0,0,
2026-04-13 05:30:00,METAR ZGGG 130530Z 13004MPS 9999 BKN033 30/23 Q1009 NOSIG,0,4.0,0,10000,0,0,0,
2026-04-13 05:00:00,METAR ZGGG 130500Z 16005MPS 9999 BKN033 31/22 Q1010 NOSIG,0,5.0,0,10000,0,0,0,
2026-04-13 04:30:00,METAR ZGGG 130430Z 17005MPS 9999 BKN033 31/23 Q1010 NOSIG,0,5.0,0,10000,0,0,0,
2026-04-13 04:00:00,METAR ZGGG 130400Z 17005MPS 9999 BKN033 31/23 Q1011 NOSIG,0,5.0,0,10000,0,0,0,
2026-04-13 03:30:00,METAR ZGGG 130330Z 16005MPS 9999 BKN026 30/23 Q1011 NOSIG,0,5.0,0,10000,0,0,0,
2026-04-13 03:00:00,METAR ZGGG 130300Z 17004MPS 9999 BKN026 30/23 Q1011 NOSIG,0,4.0,0,10000,0,0,0,
2026-04-13 02:30:00,METAR ZGGG 130230Z 17005MPS 9999 BKN026 29/23 Q1011 NOSIG,0,5.0,0,10000,0,0,0,
2026-04-13 02:00:00,METAR ZGGG 130200Z 17005MPS 130V190 9999 BKN026 29/23 Q1011 NOSIG,0,5.0,0,10000,0,0,0,
2026-04-13 01:30:00,METAR ZGGG 130130Z 15004MPS 9999 BKN020 29/23 Q1011 NOSIG,0,4.0,0,10000,0,0,0,
2026-04-13 01:00:00,METAR ZGGG 130100Z 15005MPS 9999 SCT020 28/22 Q1011 NOSIG,0,5.0,0,10000,0,0,0,
2026-04-13 00:30:00,METAR ZGGG 130030Z 13003MPS 9999 SCT023 27/23 Q1011 NOSIG,0,3.0,0,10000,0,0,0,
2026-04-13 00:00:00,METAR ZGGG 130000Z 11003MPS 9999 SCT023 27/23 Q1011 NOSIG,0,3.0,0,10000,0,0,0,
2026-04-12 23:30:00,METAR ZGGG 122330Z 07002MPS 9999 SCT023 25/23 Q1011 NOSIG,0,2.0,0,10000,0,0,0,
2026-04-12 23:00:00,METAR ZGGG 122300Z 07002MPS 9999 SCT023 25/23 Q1010 NOSIG,0,2.0,0,10000,0,0,0,
2026-04-12 22:30:00,METAR ZGGG 122230Z 11002MPS 9999 BKN026 25/23 Q1010 NOSIG,0,2.0,0,10000,0,0,0,
2026-04-12 22:00:00,METAR ZGGG 122200Z 12003MPS 9999 BKN026 25/23 Q1009 NOSIG,0,3.0,0,10000,0,0,0,
2026-04-12 21:30:00,METAR ZGGG 122130Z 12003MPS 9999 SCT023 25/22 Q1009 NOSIG,0,3.0,0,10000,0,0,0,
2026-04-12 21:00:00,METAR ZGGG 122100Z 12002MPS 9999 BKN023 25/23 Q1009 NOSIG,0,2.0,0,10000,0,0,0,
2026-04-12 20:30:00,METAR ZGGG 122030Z 11002MPS 9999 SCT023 25/23 Q1008 NOSIG,0,2.0,0,10000,0,0,0,
2026-04-12 20:00:00,METAR ZGGG 122000Z 11002MPS 9999 SCT023 25/23 Q1008 NOSIG,0,2.0,0,10000,0,0,0,
2026-04-12 19:30:00,METAR ZGGG 121930Z 13002MPS 9999 SCT023 25/23 Q1008 NOSIG,0,2.0,0,10000,0,0,0,
2026-04-12 19:00:00,METAR ZGGG 121900Z 12002MPS 9999 FEW023 25/23 Q1008 NOSIG,0,2.0,0,10000,0,0,0,
2026-04-12 18:30:00,METAR ZGGG 121830Z 13003MPS 9999 FEW023 25/23 Q1008 NOSIG,0,3.0,0,10000,0,0,0,
2026-04-12 18:00:00,METAR ZGGG 121800Z 12003MPS 9999 FEW026 26/23 Q1008 NOSIG,0,3.0,0,10000,0,0,0,
2026-04-12 17:30:00,METAR ZGGG 121730Z 14003MPS 9999 SCT033 26/23 Q1009 NOSIG,0,3.0,0,10000,0,0,0,
2026-04-12 17:00:00,METAR ZGGG 121700Z 13003MPS 9999 FEW023 26/23 Q1009 NOSIG,0,3.0,0,10000,0,0,0,
2026-04-12 16:30:00,METAR ZGGG 121630Z 13003MPS 9999 SCT023 26/23 Q1009 NOSIG,0,3.0,0,10000,0,0,0,
2026-04-12 16:00:00,METAR ZGGG 121600Z 14003MPS 9999 SCT023 26/23 Q1009 NOSIG,0,3.0,0,10000,0,0,0,
2026-04-12 15:00:00,METAR ZGGG 121500Z 14003MPS 9999 BKN023 26/23 Q1010 NOSIG,0,3.0,0,10000,0,0,0,
2026-04-12 14:30:00,METAR ZGGG 121430Z 13003MPS 9999 BKN030 27/23 Q1010 NOSIG,0,3.0,0,10000,0,0,0,
2026-04-12 14:00:00,METAR ZGGG 121400Z 13004MPS 9999 SCT030 27/23 Q1009 NOSIG,0,4.0,0,10000,0,0,0,
2026-04-12 13:30:00,METAR ZGGG 121330Z 14005MPS 9999 BKN030 27/23 Q1009 NOSIG,0,5.0,0,10000,0,0,0,
2026-04-12 13:00:00,METAR ZGGG 121300Z 14006MPS 9999 SCT026 27/23 Q1008 NOSIG,0,6.0,0,10000,0,0,0,
2026-04-12 12:30:00,METAR ZGGG 121230Z 14005MPS 9999 BKN033 27/23 Q1008 NOSIG,0,5.0,0,10000,0,0,0,
2026-04-12 12:00:00,METAR ZGGG 121200Z 14005MPS 9999 BKN036 27/23 Q1008 NOSIG,0,5.0,0,10000,0,0,0,
2026-04-12 11:30:00,METAR ZGGG 121130Z 14004MPS 9999 BKN050 27/23 Q1007 NOSIG,0,4.0,0,10000,0,0,0,
2026-04-12 11:00:00,METAR ZGGG 121100Z 13005MPS 9999 BKN050 28/23 Q1007 NOSIG,0,5.0,0,10000,0,0,0,
2026-04-12 10:30:00,METAR ZGGG 121030Z 13005MPS 9999 BKN050 28/23 Q1007 NOSIG,0,5.0,0,10000,0,0,0,
2026-04-12 10:00:00,METAR ZGGG 121000Z 14005MPS 9999 BKN050 28/23 Q1006 NOSIG,0,5.0,0,10000,0,0,0,
2026-04-12 09:30:00,METAR ZGGG 120930Z 13005MPS 9999 FEW033 BKN050 28/23 Q1006 NOSIG,0,5.0,0,10000,0,0,0,
2026-04-12 09:00:00,METAR ZGGG 120900Z 14006MPS 9999 SCT033 28/23 Q1006 NOSIG,0,6.0,0,10000,0,0,0,
2026-04-12 08:30:00,METAR ZGGG 120830Z 13005MPS 100V160 9999 FEW020 OVC033 28/23 Q1006 NOSIG,0,5.0,0,10000,0,0,0,
2026-04-12 08:00:00,METAR ZGGG 120800Z 12005MPS 9999 FEW020 OVC033 28/23 Q1006 NOSIG,0,5.0,0,10000,0,0,0,
2026-04-12 07:30:00,METAR ZGGG 120730Z 12005MPS 9999 SCT020 OVC033 28/24 Q1006 NOSIG,0,5.0,0,10000,0,0,0,
2026-04-12 07:00:00,METAR ZGGG 120700Z 12005MPS 9999 SCT020 OVC033 28/24 Q1006 NOSIG,0,5.0,0,10000,0,0,0,
2026-04-12 06:30:00,METAR ZGGG 120630Z 13007MPS 9999 SCT016 OVC030 28/23 Q1007 NOSIG,0,7.0,0,10000,0,0,0,
2026-04-12 06:00:00,METAR ZGGG 120600Z 14006MPS 9999 SCT016 OVC030 28/23 Q1007 NOSIG,0,6.0,0,10000,0,0,0,
2026-04-12 05:30:00,METAR ZGGG 120530Z 14006MPS 9999 SCT016 OVC030 28/23 Q1007 NOSIG,0,6.0,0,10000,0,0,0,
2026-04-12 05:00:00,METAR ZGGG 120500Z 14005MPS 9999 SCT016 OVC026 28/23 Q1008 NOSIG,0,5.0,0,10000,0,0,0,
2026-04-12 04:30:00,METAR ZGGG 120430Z 14005MPS 9999 SCT016 OVC026 28/23 Q1008 NOSIG,0,5.0,0,10000,0,0,0,
2026-04-12 04:00:00,METAR ZGGG 120400Z 13004MPS 9999 FEW016 OVC026 28/24 Q1009 NOSIG,0,4.0,0,10000,0,0,0,
2026-04-12 03:30:00,METAR ZGGG 120330Z 14005MPS 9999 SCT016 OVC026 28/23 Q1009 NOSIG,0,5.0,0,10000,0,0,0,
2026-04-12 03:00:00,METAR ZGGG 120300Z 14006MPS 9999 SCT016 OVC033 28/23 Q1009 NOSIG,0,6.0,0,10000,0,0,0,
2026-04-12 02:30:00,METAR ZGGG 120230Z 14005MPS 9999 SCT013 BKN033 28/24 Q1009 NOSIG,0,5.0,0,10000,0,0,0,
2026-04-12 02:00:00,METAR ZGGG 120200Z 15005MPS 9999 SCT016 BKN033 27/24 Q1009 NOSIG,0,5.0,0,10000,0,0,0,
2026-04-12 01:30:00,METAR ZGGG 120130Z 14004MPS 9999 OVC033 27/23 Q1009 NOSIG,0,4.0,0,10000,0,0,0,
2026-04-12 01:00:00,METAR ZGGG 120100Z 13004MPS 9999 OVC033 27/23 Q1009 NOSIG,0,4.0,0,10000,0,0,0,
2026-04-12 00:30:00,METAR ZGGG 120030Z 13004MPS 9999 -SHRA OVC033 27/24 Q1009 NOSIG,0,4.0,0,10000,0,0,0,RA
2026-04-12 00:00:00,METAR ZGGG 120000Z 12004MPS 9999 OVC033 27/23 Q1008 NOSIG,0,4.0,0,10000,0,0,0,
2026-04-11 23:30:00,METAR ZGGG 112330Z 13003MPS 9999 OVC026 27/23 Q1008 NOSIG,0,3.0,0,10000,0,0,0,
2026-04-11 23:00:00,METAR ZGGG 112300Z 12002MPS 9999 OVC026 27/23 Q1008 NOSIG,0,2.0,0,10000,0,0,0,
2026-04-11 22:30:00,METAR ZGGG 112230Z 12002MPS 9999 OVC026 27/23 Q1007 NOSIG,0,2.0,0,10000,0,0,0,
2026-04-11 22:00:00,METAR ZGGG 112200Z 14003MPS 110V180 9999 OVC023 27/23 Q1007 NOSIG,0,3.0,0,10000,0,0,0,
2026-04-11 21:30:00,METAR ZGGG 112130Z 13002MPS 9999 BKN023 27/23 Q1007 NOSIG,0,2.0,0,10000,0,0,0,
2026-04-11 21:00:00,METAR ZGGG 112100Z 15003MPS 9999 BKN023 27/23 Q1007 NOSIG,0,3.0,0,10000,0,0,0,
2026-04-11 20:30:00,METAR ZGGG 112030Z 15002MPS 9999 BKN036 27/23 Q1006 NOSIG,0,2.0,0,10000,0,0,0,
2026-04-11 20:00:00,METAR ZGGG 112000Z 13003MPS 9999 BKN036 27/23 Q1006 NOSIG,0,3.0,0,10000,0,0,0,
2026-04-11 19:30:00,METAR ZGGG 111930Z 14004MPS 9999 BKN036 27/23 Q1006 NOSIG,0,4.0,0,10000,0,0,0,
2026-04-11 19:00:00,METAR ZGGG 111900Z 14005MPS 9999 BKN036 27/23 Q1006 NOSIG,0,5.0,0,10000,0,0,0,
2026-04-11 18:30:00,METAR ZGGG 111830Z 15003MPS 9999 BKN036 27/23 Q1007 NOSIG,0,3.0,0,10000,0,0,0,
2026-04-11 18:00:00,METAR ZGGG 111800Z 16004MPS 9999 BKN036 27/23 Q1007 NOSIG,0,4.0,0,10000,0,0,0,
2026-04-11 17:30:00,METAR ZGGG 111730Z 16004MPS 9999 BKN036 27/23 Q1007 NOSIG,0,4.0,0,10000,0,0,0,
2026-04-11 17:00:00,METAR ZGGG 111700Z 16004MPS 9999 BKN036 27/23 Q1008 NOSIG,0,4.0,0,10000,0,0,0,
2026-04-11 16:30:00,METAR ZGGG 111630Z 15004MPS 9999 BKN036 27/23 Q1008 NOSIG,0,4.0,0,10000,0,0,0,
2026-04-11 16:00:00,METAR ZGGG 111600Z 14005MPS 9999 BKN036 27/23 Q1008 NOSIG,0,5.0,0,10000,0,0,0,
2026-04-11 15:30:00,METAR ZGGG 111530Z 15005MPS 9999 BKN036 27/23 Q1008 NOSIG,0,5.0,0,10000,0,0,0,
2026-04-11 15:00:00,METAR ZGGG 111500Z 15004MPS 9999 BKN036 27/23 Q1008 NOSIG,0,4.0,0,10000,0,0,0,
2026-04-11 14:30:00,METAR ZGGG 111430Z 15005MPS 9999 BKN036 27/23 Q1008 NOSIG,0,5.0,0,10000,0,0,0,
2026-04-11 14:00:00,METAR ZGGG 111400Z 16005MPS 9999 BKN036 27/23 Q1008 NOSIG,0,5.0,0,10000,0,0,0,
2026-04-11 13:30:00,METAR ZGGG 111330Z 14004MPS 9999 BKN036 27/23 Q1007 NOSIG,0,4.0,0,10000,0,0,0,
2026-04-11 13:00:00,METAR ZGGG 111300Z 13004MPS 9999 BKN036 27/24 Q1007 NOSIG,0,4.0,0,10000,0,0,0,
2026-04-11 12:30:00,METAR ZGGG 111230Z 14006MPS 9999 SCT036 27/23 Q1006 NOSIG,0,6.0,0,10000,0,0,0,
2026-04-11 12:00:00,METAR ZGGG 111200Z 14006MPS 9999 SCT036 28/24 Q1006 NOSIG,0,6.0,0,10000,0,0,0,
2026-04-11 11:30:00,METAR ZGGG 111130Z 14006MPS 9999 SCT033 28/24 Q1006 NOSIG,0,6.0,0,10000,0,0,0,
2026-04-11 11:00:00,METAR ZGGG 111100Z 14006MPS 9999 SCT033 28/24 Q1005 NOSIG,0,6.0,0,10000,0,0,0,
2026-04-11 10:30:00,METAR ZGGG 111030Z 14006MPS 9999 SCT033 28/24 Q1005 NOSIG,0,6.0,0,10000,0,0,0,
2026-04-11 10:00:00,METAR ZGGG 111000Z 14007MPS 9999 SCT033 29/24 Q1005 NOSIG,0,7.0,0,10000,0,0,0,
2026-04-11 09:30:00,METAR ZGGG 110930Z 14006MPS 9999 SCT033 29/24 Q1005 NOSIG,0,6.0,0,10000,0,0,0,
2026-04-11 09:00:00,METAR ZGGG 110900Z 14005MPS 9999 BKN023 29/24 Q1005 NOSIG,0,5.0,0,10000,0,0,0,
2026-04-11 08:30:00,METAR ZGGG 110830Z 14005MPS 9999 BKN023 29/24 Q1005 NOSIG,0,5.0,0,10000,0,0,0,
2026-04-11 08:00:00,METAR ZGGG 110800Z 14006MPS 9999 BKN023 29/24 Q1005 NOSIG,0,6.0,0,10000,0,0,0,
2026-04-11 07:30:00,METAR ZGGG 110730Z 13006MPS 100V160 9999 BKN023 30/24 Q1005 NOSIG,0,6.0,0,10000,0,0,0,
2026-04-11 07:00:00,METAR ZGGG 110700Z 13005MPS 9999 BKN023 29/24 Q1005 NOSIG,0,5.0,0,10000,0,0,0,
2026-04-11 06:30:00,METAR ZGGG 110630Z 14005MPS 110V170 9999 BKN023 30/24 Q1006 NOSIG,0,5.0,0,10000,0,0,0,
2026-04-11 06:00:00,METAR ZGGG 110600Z 14005MPS 9999 BKN023 30/24 Q1006 NOSIG,0,5.0,0,10000,0,0,0,
2026-04-11 05:30:00,METAR ZGGG 110530Z 14004MPS 110V170 9999 BKN023 29/24 Q1007 NOSIG,0,4.0,0,10000,0,0,0,
2026-04-11 05:00:00,METAR ZGGG 110500Z 14005MPS 9999 BKN023 29/24 Q1007 NOSIG,0,5.0,0,10000,0,0,0,
2026-04-11 04:30:00,METAR ZGGG 110430Z 14006MPS 9999 BKN023 29/24 Q1007 NOSIG,0,6.0,0,10000,0,0,0,
2026-04-11 04:00:00,METAR ZGGG 110400Z 15005MPS 9999 BKN023 30/24 Q1008 NOSIG,0,5.0,0,10000,0,0,0,
2026-04-11 03:30:00,METAR ZGGG 110330Z 15006MPS 9999 BKN023 30/24 Q1008 NOSIG,0,6.0,0,10000,0,0,0,
2026-04-11 03:00:00,METAR ZGGG 110300Z 15006MPS 9999 BKN023 29/24 Q1008 NOSIG,0,6.0,0,10000,0,0,0,
2026-04-11 02:30:00,METAR ZGGG 110230Z 14005MPS 9999 BKN023 29/24 Q1008 NOSIG,0,5.0,0,10000,0,0,0,
2026-04-11 02:00:00,METAR ZGGG 110200Z 16005MPS 9999 BKN023 28/24 Q1009 NOSIG,0,5.0,0,10000,0,0,0,
2026-04-11 01:30:00,METAR ZGGG 110130Z 15003MPS 9999 BKN026 28/23 Q1009 NOSIG,0,3.0,0,10000,0,0,0,
2026-04-11 01:00:00,METAR ZGGG 110100Z 13004MPS 9999 BKN033 28/23 Q1008 NOSIG,0,4.0,0,10000,0,0,0,
2026-04-11 00:30:00,METAR ZGGG 110030Z 14003MPS 100V170 9999 BKN033 27/23 Q1008 NOSIG,0,3.0,0,10000,0,0,0,
2026-04-11 00:00:00,METAR ZGGG 110000Z 14003MPS 9999 BKN030 27/23 Q1008 NOSIG,0,3.0,0,10000,0,0,0,
2026-04-10 23:30:00,METAR ZGGG 102330Z 13003MPS 9999 BKN030 27/23 Q1008 NOSIG,0,3.0,0,10000,0,0,0,
2026-04-10 23:00:00,METAR ZGGG 102300Z 13002MPS 9999 BKN030 26/23 Q1008 NOSIG,0,2.0,0,10000,0,0,0,
2026-04-10 22:30:00,METAR ZGGG 102230Z 12003MPS 9999 BKN030 26/23 Q1007 NOSIG,0,3.0,0,10000,0,0,0,
2026-04-10 22:00:00,METAR ZGGG 102200Z 13004MPS 9999 BKN030 26/23 Q1007 NOSIG,0,4.0,0,10000,0,0,0,
2026-04-10 21:30:00,METAR ZGGG 102130Z 12003MPS 9999 BKN030 26/23 Q1007 NOSIG,0,3.0,0,10000,0,0,0,
2026-04-10 21:00:00,METAR ZGGG 102100Z 12003MPS 9999 BKN030 26/23 Q1007 NOSIG,0,3.0,0,10000,0,0,0,
2026-04-10 20:30:00,METAR ZGGG 102030Z 13004MPS 9999 BKN030 26/23 Q1007 NOSIG,0,4.0,0,10000,0,0,0,
2026-04-10 20:00:00,METAR ZGGG 102000Z 12003MPS 9999 BKN030 26/23 Q1007 NOSIG,0,3.0,0,10000,0,0,0,
2026-04-10 19:30:00,METAR ZGGG 101930Z 13003MPS 9999 BKN030 26/23 Q1007 NOSIG,0,3.0,0,10000,0,0,0,
2026-04-10 19:00:00,METAR ZGGG 101900Z 13003MPS 100V160 9999 BKN030 26/23 Q1007 NOSIG,0,3.0,0,10000,0,0,0,
2026-04-10 18:30:00,METAR ZGGG 101830Z 12003MPS 9999 BKN030 26/23 Q1007 NOSIG,0,3.0,0,10000,0,0,0,
2026-04-10 18:00:00,METAR ZGGG 101800Z 13004MPS 9999 BKN030 26/23 Q1007 NOSIG,0,4.0,0,10000,0,0,0,
2026-04-10 17:30:00,METAR ZGGG 101730Z 13004MPS 9999 BKN030 27/23 Q1007 NOSIG,0,4.0,0,10000,0,0,0,
2026-04-10 17:00:00,METAR ZGGG 101700Z 13003MPS 9999 BKN030 27/22 Q1008 NOSIG,0,3.0,0,10000,0,0,0,
2026-04-10 16:30:00,METAR ZGGG 101630Z 12003MPS 9999 BKN030 27/23 Q1008 NOSIG,0,3.0,0,10000,0,0,0,
2026-04-10 16:00:00,METAR ZGGG 101600Z 13003MPS 9999 BKN030 27/23 Q1008 NOSIG,0,3.0,0,10000,0,0,0,
2026-04-10 15:30:00,METAR ZGGG 101530Z 14003MPS 9999 BKN030 27/22 Q1008 NOSIG,0,3.0,0,10000,0,0,0,
2026-04-10 15:00:00,METAR ZGGG 101500Z 14004MPS 9999 BKN040 27/22 Q1008 NOSIG,0,4.0,0,10000,0,0,0,
2026-04-10 14:30:00,METAR ZGGG 101430Z 14004MPS 9999 BKN040 27/23 Q1008 NOSIG,0,4.0,0,10000,0,0,0,
2026-04-10 14:00:00,METAR ZGGG 101400Z 14004MPS 9999 BKN040 27/23 Q1008 NOSIG,0,4.0,0,10000,0,0,0,
2026-04-10 13:30:00,METAR ZGGG 101330Z 14003MPS 9999 BKN040 27/23 Q1008 NOSIG,0,3.0,0,10000,0,0,0,
2026-04-10 13:00:00,METAR ZGGG 101300Z 14005MPS 9999 SCT040 27/23 Q1008 NOSIG,0,5.0,0,10000,0,0,0,
2026-04-10 12:30:00,METAR ZGGG 101230Z 14005MPS 9999 SCT040 27/23 Q1007 NOSIG,0,5.0,0,10000,0,0,0,
2026-04-10 12:00:00,METAR ZGGG 101200Z 13005MPS 9999 SCT040 28/23 Q1007 NOSIG,0,5.0,0,10000,0,0,0,
2026-04-10 11:30:00,METAR ZGGG 101130Z 12005MPS 9999 BKN033 28/23 Q1007 NOSIG,0,5.0,0,10000,0,0,0,
2026-04-10 11:00:00,METAR ZGGG 101100Z 12005MPS 9999 SCT033 28/23 Q1007 NOSIG,0,5.0,0,10000,0,0,0,
2026-04-10 10:30:00,METAR ZGGG 101030Z 13005MPS 9999 SCT033 29/23 Q1006 NOSIG,0,5.0,0,10000,0,0,0,
2026-04-10 10:00:00,METAR ZGGG 101000Z 13005MPS 9999 SCT033 29/23 Q1006 NOSIG,0,5.0,0,10000,0,0,0,
2026-04-10 09:30:00,METAR ZGGG 100930Z 12005MPS 100V160 9999 SCT033 30/23 Q1006 NOSIG,0,5.0,0,10000,0,0,0,
2026-04-10 09:00:00,METAR ZGGG 100900Z 13005MPS 9999 SCT033 30/24 Q1006 NOSIG,0,5.0,0,10000,0,0,0,
2026-04-10 08:30:00,METAR ZGGG 100830Z 12005MPS 9999 SCT033 31/24 Q1006 NOSIG,0,5.0,0,10000,0,0,0,
2026-04-10 08:00:00,METAR ZGGG 100800Z 14006MPS 9999 SCT033 31/23 Q1006 NOSIG,0,6.0,0,10000,0,0,0,
2026-04-10 07:30:00,METAR ZGGG 100730Z 15005MPS 110V170 9999 SCT033 32/23 Q1006 NOSIG,0,5.0,0,10000,0,0,0,
2026-04-10 07:00:00,METAR ZGGG 100700Z 13005MPS 100V160 9999 SCT033 31/23 Q1007 NOSIG,0,5.0,0,10000,0,0,0,
2026-04-10 06:30:00,METAR ZGGG 100630Z 14004MPS 9999 BKN033 31/23 Q1007 NOSIG,0,4.0,0,10000,0,0,0,
2026-04-10 06:00:00,METAR ZGGG 100600Z 14004MPS 110V170 9999 BKN033 31/23 Q1008 NOSIG,0,4.0,0,10000,0,0,0,
2026-04-10 05:30:00,METAR ZGGG 100530Z 14004MPS 110V170 9999 BKN033 31/23 Q1008 NOSIG,0,4.0,0,10000,0,0,0,
2026-04-10 05:00:00,METAR ZGGG 100500Z 17005MPS 9999 BKN033 31/23 Q1009 NOSIG,0,5.0,0,10000,0,0,0,
2026-04-10 04:30:00,METAR ZGGG 100430Z 16005MPS 9999 BKN033 31/23 Q1009 NOSIG,0,5.0,0,10000,0,0,0,
2026-04-10 04:00:00,METAR ZGGG 100400Z 16004MPS 9999 BKN033 30/23 Q1010 NOSIG,0,4.0,0,10000,0,0,0,
2026-04-10 03:30:00,METAR ZGGG 100330Z 16004MPS 9999 BKN033 29/22 Q1010 NOSIG,0,4.0,0,10000,0,0,0,
2026-04-10 03:00:00,METAR ZGGG 100300Z 16004MPS 9999 BKN033 29/23 Q1010 NOSIG,0,4.0,0,10000,0,0,0,
2026-04-10 02:30:00,METAR ZGGG 100230Z 16005MPS 9999 BKN033 29/23 Q1011 NOSIG,0,5.0,0,10000,0,0,0,
2026-04-10 02:00:00,METAR ZGGG 100200Z 14004MPS 9999 BKN033 28/23 Q1011 NOSIG,0,4.0,0,10000,0,0,0,
2026-04-10 01:30:00,METAR ZGGG 100130Z 14004MPS 9999 BKN033 27/23 Q1010 NOSIG,0,4.0,0,10000,0,0,0,
2026-04-10 01:00:00,METAR ZGGG 100100Z 12004MPS 9999 BKN033 27/23 Q1010 NOSIG,0,4.0,0,10000,0,0,0,
2026-04-10 00:30:00,METAR ZGGG 100030Z 13004MPS 9999 BKN033 26/23 Q1010 NOSIG,0,4.0,0,10000,0,0,0,
2026-04-10 00:00:00,METAR ZGGG 100000Z 12003MPS 9999 BKN033 26/23 Q1010 NOSIG,0,3.0,0,10000,0,0,0,
2026-04-09 23:30:00,METAR ZGGG 092330Z 12003MPS 9999 BKN030 26/22 Q1009 NOSIG,0,3.0,0,10000,0,0,0,
2026-04-09 23:00:00,METAR ZGGG 092300Z 12003MPS 9999 BKN030 26/22 Q1009 NOSIG,0,3.0,0,10000,0,0,0,
2026-04-09 22:30:00,METAR ZGGG 092230Z 12003MPS 100V160 9999 BKN030 26/22 Q1008 NOSIG,0,3.0,0,10000,0,0,0,
2026-04-09 22:00:00,METAR ZGGG 092200Z 11003MPS 9999 BKN030 25/22 Q1008 NOSIG,0,3.0,0,10000,0,0,0,
2026-04-09 21:30:00,METAR ZGGG 092130Z 10003MPS 9999 BKN026 25/22 Q1008 NOSIG,0,3.0,0,10000,0,0,0,
2026-04-09 21:00:00,METAR ZGGG 092100Z 09002MPS 9999 BKN026 25/22 Q1008 NOSIG,0,2.0,0,10000,0,0,0,
2026-04-09 20:30:00,METAR ZGGG 092030Z 10002MPS 060V120 9999 BKN026 25/22 Q1008 NOSIG,0,2.0,0,10000,0,0,0,
2026-04-09 20:00:00,METAR ZGGG 092000Z 11002MPS 9999 BKN026 25/22 Q1008 NOSIG,0,2.0,0,10000,0,0,0,
2026-04-09 19:30:00,METAR ZGGG 091930Z 12002MPS 9999 BKN026 25/22 Q1008 NOSIG,0,2.0,0,10000,0,0,0,
2026-04-09 19:00:00,METAR ZGGG 091900Z 14003MPS 9999 BKN033 25/22 Q1007 NOSIG,0,3.0,0,10000,0,0,0,
2026-04-09 18:30:00,METAR ZGGG 091830Z 12003MPS 9999 BKN033 25/22 Q1008 NOSIG,0,3.0,0,10000,0,0,0,
2026-04-09 18:00:00,METAR ZGGG 091800Z 11003MPS 9999 BKN033 25/22 Q1008 NOSIG,0,3.0,0,10000,0,0,0,
2026-04-09 17:30:00,METAR ZGGG 091730Z 10002MPS 080V140 9999 BKN033 25/22 Q1009 NOSIG,0,2.0,0,10000,0,0,0,
2026-04-09 17:00:00,METAR ZGGG 091700Z 11002MPS 9999 SCT033 25/22 Q1009 NOSIG,0,2.0,0,10000,0,0,0,
2026-04-09 16:30:00,METAR ZGGG 091630Z 14004MPS 9999 BKN026 26/22 Q1009 NOSIG,0,4.0,0,10000,0,0,0,
2026-04-09 16:00:00,METAR ZGGG 091600Z 15003MPS 9999 BKN026 26/22 Q1009 NOSIG,0,3.0,0,10000,0,0,0,
2026-04-09 15:30:00,METAR ZGGG 091530Z 15004MPS 9999 BKN026 26/22 Q1010 NOSIG,0,4.0,0,10000,0,0,0,
2026-04-09 15:00:00,METAR ZGGG 091500Z 14003MPS 9999 BKN026 26/22 Q1010 NOSIG,0,3.0,0,10000,0,0,0,
2026-04-09 14:30:00,METAR ZGGG 091430Z 13003MPS 9999 BKN033 26/23 Q1010 NOSIG,0,3.0,0,10000,0,0,0,
2026-04-09 14:00:00,METAR ZGGG 091400Z 13003MPS 9999 BKN033 26/22 Q1009 NOSIG,0,3.0,0,10000,0,0,0,
2026-04-09 13:30:00,METAR ZGGG 091330Z 13004MPS 9999 BKN033 26/23 Q1009 NOSIG,0,4.0,0,10000,0,0,0,
2026-04-09 13:00:00,METAR ZGGG 091300Z 13003MPS 9999 BKN033 26/22 Q1009 NOSIG,0,3.0,0,10000,0,0,0,
2026-04-09 12:30:00,METAR ZGGG 091230Z 14003MPS 9999 SCT033 26/22 Q1008 NOSIG,0,3.0,0,10000,0,0,0,
2026-04-09 12:00:00,METAR ZGGG 091200Z 15005MPS 9999 SCT033 26/23 Q1008 NOSIG,0,5.0,0,10000,0,0,0,
2026-04-09 11:30:00,METAR ZGGG 091130Z 13005MPS 9999 SCT033 26/23 Q1007 NOSIG,0,5.0,0,10000,0,0,0,
2026-04-09 11:00:00,METAR ZGGG 091100Z 14006MPS 9999 BKN040 27/23 Q1007 NOSIG,0,6.0,0,10000,0,0,0,
2026-04-09 10:30:00,METAR ZGGG 091030Z 14006MPS 9999 BKN040 27/23 Q1007 NOSIG,0,6.0,0,10000,0,0,0,
2026-04-09 10:00:00,METAR ZGGG 091000Z 13006MPS 9999 BKN040 27/23 Q1007 NOSIG,0,6.0,0,10000,0,0,0,
2026-04-09 09:30:00,METAR ZGGG 090930Z 14006MPS 9999 BKN040 28/23 Q1007 NOSIG,0,6.0,0,10000,0,0,0,
2026-04-09 09:00:00,METAR ZGGG 090900Z 14006MPS 9999 BKN040 28/23 Q1007 NOSIG,0,6.0,0,10000,0,0,0,
2026-04-09 08:30:00,METAR ZGGG 090830Z 14006MPS 9999 BKN040 28/23 Q1007 NOSIG,0,6.0,0,10000,0,0,0,
2026-04-09 08:00:00,METAR ZGGG 090800Z 13006MPS 9999 BKN030 29/23 Q1007 NOSIG,0,6.0,0,10000,0,0,0,
2026-04-09 07:30:00,METAR ZGGG 090730Z 13006MPS 9999 BKN030 28/23 Q1008 NOSIG,0,6.0,0,10000,0,0,0,
2026-04-09 07:00:00,METAR ZGGG 090700Z 15006MPS 9999 BKN030 29/23 Q1008 NOSIG,0,6.0,0,10000,0,0,0,
2026-04-09 06:30:00,METAR ZGGG 090630Z 13006MPS 9999 BKN026 28/23 Q1008 NOSIG,0,6.0,0,10000,0,0,0,
2026-04-09 06:00:00,METAR ZGGG 090600Z 15005MPS 9999 BKN026 28/23 Q1009 NOSIG,0,5.0,0,10000,0,0,0,
2026-04-09 05:30:00,METAR ZGGG 090530Z 15006MPS 9999 BKN026 28/22 Q1009 NOSIG,0,6.0,0,10000,0,0,0,
2026-04-09 05:00:00,METAR ZGGG 090500Z 14004MPS 9999 BKN026 28/23 Q1009 NOSIG,0,4.0,0,10000,0,0,0,
2026-04-09 04:30:00,METAR ZGGG 090430Z 13005MPS 9999 OVC020 28/22 Q1010 NOSIG,0,5.0,0,10000,0,0,0,
2026-04-09 04:00:00,METAR ZGGG 090400Z 13006MPS 9999 OVC020 28/22 Q1010 NOSIG,0,6.0,0,10000,0,0,0,
2026-04-09 03:30:00,METAR ZGGG 090330Z 15005MPS 9999 OVC020 28/22 Q1011 NOSIG,0,5.0,0,10000,0,0,0,
2026-04-09 03:00:00,METAR ZGGG 090300Z 14005MPS 9999 OVC020 28/22 Q1011 NOSIG,0,5.0,0,10000,0,0,0,
2026-04-09 02:30:00,METAR ZGGG 090230Z 14005MPS 9999 OVC020 27/22 Q1011 NOSIG,0,5.0,0,10000,0,0,0,
2026-04-09 02:00:00,METAR ZGGG 090200Z 14005MPS 9999 OVC020 26/22 Q1012 NOSIG,0,5.0,0,10000,0,0,0,
2026-04-09 01:30:00,METAR ZGGG 090130Z 14006MPS 9999 OVC020 26/22 Q1011 NOSIG,0,6.0,0,10000,0,0,0,
2026-04-09 01:00:00,METAR ZGGG 090100Z 13005MPS 9999 OVC020 26/22 Q1012 NOSIG,0,5.0,0,10000,0,0,0,
2026-04-09 00:30:00,METAR ZGGG 090030Z 11003MPS 9999 OVC020 25/22 Q1012 NOSIG,0,3.0,0,10000,0,0,0,
2026-04-09 00:00:00,METAR ZGGG 090000Z 09003MPS 050V130 9999 OVC020 24/21 Q1011 NOSIG,0,3.0,0,10000,0,0,0,
2026-04-08 23:30:00,METAR ZGGG 082330Z 09003MPS 050V140 9999 OVC020 24/21 Q1011 NOSIG,0,3.0,0,10000,0,0,0,
2026-04-08 23:00:00,METAR ZGGG 082300Z 12003MPS 9999 BKN020 24/21 Q1011 NOSIG,0,3.0,0,10000,0,0,0,
2026-04-08 22:30:00,METAR ZGGG 082230Z 11004MPS 9999 BKN020 24/21 Q1010 NOSIG,0,4.0,0,10000,0,0,0,
2026-04-08 22:00:00,METAR ZGGG 082200Z 11003MPS 9999 BKN020 24/21 Q1010 NOSIG,0,3.0,0,10000,0,0,0,
2026-04-08 21:30:00,METAR ZGGG 082130Z 12003MPS 9999 BKN020 24/21 Q1010 NOSIG,0,3.0,0,10000,0,0,0,
2026-04-08 21:00:00,METAR ZGGG 082100Z 12004MPS 9999 BKN020 24/21 Q1010 NOSIG,0,4.0,0,10000,0,0,0,
2026-04-08 20:30:00,METAR ZGGG 082030Z 12005MPS 9999 BKN020 24/21 Q1010 NOSIG,0,5.0,0,10000,0,0,0,
2026-04-08 20:00:00,METAR ZGGG 082000Z 12004MPS 9999 BKN020 24/21 Q1010 NOSIG,0,4.0,0,10000,0,0,0,
2026-04-08 19:30:00,METAR ZGGG 081930Z 12003MPS 9999 BKN020 24/21 Q1010 NOSIG,0,3.0,0,10000,0,0,0,
2026-04-08 19:00:00,METAR ZGGG 081900Z 12003MPS 9999 BKN020 24/21 Q1010 NOSIG,0,3.0,0,10000,0,0,0,
2026-04-08 18:30:00,METAR ZGGG 081830Z 12003MPS 9999 BKN020 24/21 Q1010 NOSIG,0,3.0,0,10000,0,0,0,
2026-04-08 18:00:00,METAR ZGGG 081800Z 12003MPS 9999 BKN020 24/21 Q1011 NOSIG,0,3.0,0,10000,0,0,0,
2026-04-08 17:30:00,METAR ZGGG 081730Z 12004MPS 9999 BKN020 24/21 Q1011 NOSIG,0,4.0,0,10000,0,0,0,
2026-04-08 17:00:00,METAR ZGGG 081700Z 12005MPS 9999 BKN023 24/21 Q1011 NOSIG,0,5.0,0,10000,0,0,0,
2026-04-08 16:30:00,METAR ZGGG 081630Z 12005MPS 9999 BKN023 25/21 Q1011 NOSIG,0,5.0,0,10000,0,0,0,
2026-04-08 16:00:00,METAR ZGGG 081600Z 12004MPS 9999 BKN026 25/21 Q1012 NOSIG,0,4.0,0,10000,0,0,0,
2026-04-08 15:30:00,METAR ZGGG 081530Z 12003MPS 9999 BKN026 25/21 Q1012 NOSIG,0,3.0,0,10000,0,0,0,
2026-04-08 15:00:00,METAR ZGGG 081500Z 13004MPS 9999 BKN026 25/21 Q1012 NOSIG,0,4.0,0,10000,0,0,0,
2026-04-08 14:30:00,METAR ZGGG 081430Z 13003MPS 9999 BKN026 25/21 Q1012 NOSIG,0,3.0,0,10000,0,0,0,
2026-04-08 14:00:00,METAR ZGGG 081400Z 13004MPS 9999 BKN026 25/21 Q1012 NOSIG,0,4.0,0,10000,0,0,0,
2026-04-08 13:30:00,METAR ZGGG 081330Z 13004MPS 9999 BKN026 25/21 Q1011 NOSIG,0,4.0,0,10000,0,0,0,
2026-04-08 13:00:00,METAR ZGGG 081300Z 14005MPS 9999 BKN026 26/21 Q1011 NOSIG,0,5.0,0,10000,0,0,0,
2026-04-08 12:30:00,METAR ZGGG 081230Z 13004MPS 9999 BKN026 26/21 Q1011 NOSIG,0,4.0,0,10000,0,0,0,
2026-04-08 12:00:00,METAR ZGGG 081200Z 14006MPS 9999 BKN026 26/21 Q1010 NOSIG,0,6.0,0,10000,0,0,0,
2026-04-08 11:30:00,METAR ZGGG 081130Z 14007MPS 9999 OVC026 26/21 Q1010 NOSIG,0,7.0,0,10000,0,0,0,
2026-04-08 11:00:00,METAR ZGGG 081100Z 14007MPS 9999 OVC026 26/21 Q1009 NOSIG,0,7.0,0,10000,0,0,0,
2026-04-08 10:30:00,METAR ZGGG 081030Z 15007MPS 9999 OVC026 26/21 Q1009 NOSIG,0,7.0,0,10000,0,0,0,
2026-04-08 10:00:00,METAR ZGGG 081000Z 15008MPS 9999 OVC026 26/21 Q1009 NOSIG,0,8.0,0,10000,0,0,0,
2026-04-08 09:30:00,METAR ZGGG 080930Z 15007MPS 9999 OVC026 26/21 Q1009 NOSIG,0,7.0,0,10000,0,0,0,
2026-04-08 09:00:00,METAR ZGGG 080900Z 16008MPS 9999 OVC026 26/21 Q1009 NOSIG,0,8.0,0,10000,0,0,0,
2026-04-08 08:30:00,METAR ZGGG 080830Z 16006MPS 9999 OVC026 27/21 Q1009 NOSIG,0,6.0,0,10000,0,0,0,
2026-04-08 08:00:00,METAR ZGGG 080800Z 16007MPS 9999 OVC026 27/21 Q1009 NOSIG,0,7.0,0,10000,0,0,0,
2026-04-08 07:30:00,METAR ZGGG 080730Z 16006MPS 9999 OVC026 27/21 Q1009 NOSIG,0,6.0,0,10000,0,0,0,
2026-04-08 07:00:00,METAR ZGGG 080700Z 16008MPS 9999 OVC026 27/21 Q1010 NOSIG,0,8.0,0,10000,0,0,0,
2026-04-08 06:30:00,METAR ZGGG 080630Z 15007MPS 9999 OVC026 27/21 Q1010 NOSIG,0,7.0,0,10000,0,0,0,
2026-04-08 06:00:00,METAR ZGGG 080600Z 16008MPS 9999 OVC026 28/22 Q1010 NOSIG,0,8.0,0,10000,0,0,0,
2026-04-08 05:30:00,METAR ZGGG 080530Z 16008MPS 9999 OVC026 28/21 Q1011 NOSIG,0,8.0,0,10000,0,0,0,
2026-04-08 05:00:00,METAR ZGGG 080500Z 15007MPS 9999 BKN026 28/21 Q1011 NOSIG,0,7.0,0,10000,0,0,0,
2026-04-08 04:30:00,METAR ZGGG 080430Z 14008MPS 9999 BKN026 29/21 Q1011 NOSIG,0,8.0,0,10000,0,0,0,
2026-04-08 04:00:00,METAR ZGGG 080400Z 15007MPS 9999 BKN023 28/21 Q1012 NOSIG,0,7.0,0,10000,0,0,0,
2026-04-08 03:30:00,METAR ZGGG 080330Z 14007MPS 9999 OVC023 28/21 Q1012 NOSIG,0,7.0,0,10000,0,0,0,
2026-04-08 03:00:00,METAR ZGGG 080300Z 14006MPS 9999 OVC023 27/22 Q1012 NOSIG,0,6.0,0,10000,0,0,0,
2026-04-08 02:30:00,METAR ZGGG 080230Z 14005MPS 9999 OVC023 27/21 Q1013 NOSIG,0,5.0,0,10000,0,0,0,
2026-04-08 02:00:00,METAR ZGGG 080200Z 13006MPS 9999 SCT023 OVC043 27/21 Q1013 NOSIG,0,6.0,0,10000,0,0,0,
2026-04-08 01:30:00,METAR ZGGG 080130Z 12005MPS 9999 SCT023 OVC043 26/21 Q1012 NOSIG,0,5.0,0,10000,0,0,0,
2026-04-08 01:00:00,METAR ZGGG 080100Z 13005MPS 9999 FEW020 OVC043 26/21 Q1012 NOSIG,0,5.0,0,10000,0,0,0,
2026-04-08 00:30:00,METAR ZGGG 080030Z 11004MPS 9999 FEW020 OVC033 26/22 Q1012 NOSIG,0,4.0,0,10000,0,0,0,
2026-04-08 00:00:00,METAR ZGGG 080000Z 12004MPS 9999 FEW020 OVC033 26/22 Q1012 NOSIG,0,4.0,0,10000,0,0,0,
2026-04-07 23:30:00,METAR ZGGG 072330Z 12004MPS 9999 FEW020 OVC033 26/22 Q1011 NOSIG,0,4.0,0,10000,0,0,0,
2026-04-07 23:00:00,METAR ZGGG 072300Z 12006MPS 9999 FEW015 OVC033 26/22 Q1011 NOSIG,0,6.0,0,10000,0,0,0,
2026-04-07 22:30:00,METAR ZGGG 072230Z 13005MPS 090V160 9999 SCT016 OVC033 26/23 Q1010 NOSIG,0,5.0,0,10000,0,0,0,
2026-04-07 22:00:00,METAR ZGGG 072200Z 16003MPS 9999 SCT020 OVC036 27/23 Q1010 NOSIG,0,3.0,0,10000,0,0,0,
2026-04-07 21:30:00,METAR ZGGG 072130Z 15004MPS 9999 BKN030 27/23 Q1009 NOSIG,0,4.0,0,10000,0,0,0,
2026-04-07 21:00:00,METAR ZGGG 072100Z 16005MPS 9999 BKN030 27/23 Q1009 NOSIG,0,5.0,0,10000,0,0,0,
2026-04-07 20:30:00,METAR ZGGG 072030Z 15004MPS 9999 BKN020 OVC033 27/23 Q1009 NOSIG,0,4.0,0,10000,0,0,0,
2026-04-07 20:00:00,METAR ZGGG 072000Z 15003MPS 9999 SCT020 OVC040 27/23 Q1009 NOSIG,0,3.0,0,10000,0,0,0,
2026-04-07 19:30:00,METAR ZGGG 071930Z 14004MPS 9999 SCT016 OVC040 27/23 Q1009 NOSIG,0,4.0,0,10000,0,0,0,
2026-04-07 19:00:00,METAR ZGGG 071900Z 15004MPS 9999 SCT016 BKN033 27/24 Q1009 NOSIG,0,4.0,0,10000,0,0,0,
2026-04-07 18:30:00,METAR ZGGG 071830Z 13003MPS 100V170 9999 SCT016 BKN033 27/24 Q1009 NOSIG,0,3.0,0,10000,0,0,0,
2026-04-07 18:00:00,METAR ZGGG 071800Z 13004MPS 9999 -SHRA FEW016 OVC033 27/24 Q1009 NOSIG,0,4.0,0,10000,0,0,0,RA
2026-04-07 17:30:00,METAR ZGGG 071730Z 13004MPS 9999 FEW016 BKN040 27/24 Q1010 NOSIG,0,4.0,0,10000,0,0,0,
2026-04-07 17:00:00,METAR ZGGG 071700Z 13003MPS 9999 BKN040 27/24 Q1010 NOSIG,0,3.0,0,10000,0,0,0,
2026-04-07 16:30:00,METAR ZGGG 071630Z 14004MPS 9999 BKN040 27/24 Q1010 NOSIG,0,4.0,0,10000,0,0,0,
2026-04-07 16:00:00,METAR ZGGG 071600Z 14004MPS 9999 BKN040 27/24 Q1010 NOSIG,0,4.0,0,10000,0,0,0,
2026-04-07 15:30:00,METAR ZGGG 071530Z 14005MPS 9999 BKN033 27/24 Q1010 NOSIG,0,5.0,0,10000,0,0,0,
2026-04-07 15:00:00,METAR ZGGG 071500Z 15004MPS 9999 BKN043 27/24 Q1010 NOSIG,0,4.0,0,10000,0,0,0,
2026-04-07 14:30:00,METAR ZGGG 071430Z 14005MPS 9999 BKN043 27/24 Q1009 NOSIG,0,5.0,0,10000,0,0,0,
2026-04-07 14:00:00,METAR ZGGG 071400Z 14005MPS 9999 BKN036 27/24 Q1009 NOSIG,0,5.0,0,10000,0,0,0,
2026-04-07 13:30:00,METAR ZGGG 071330Z 13004MPS 9999 BKN036 27/24 Q1009 NOSIG,0,4.0,0,10000,0,0,0,
2026-04-07 13:00:00,METAR ZGGG 071300Z 14004MPS 9999 BKN036 28/24 Q1009 NOSIG,0,4.0,0,10000,0,0,0,
2026-04-07 12:30:00,METAR ZGGG 071230Z 14004MPS 9999 BKN036 28/24 Q1008 NOSIG,0,4.0,0,10000,0,0,0,
2026-04-07 12:00:00,METAR ZGGG 071200Z 14004MPS 9999 BKN033 28/24 Q1008 NOSIG,0,4.0,0,10000,0,0,0,
2026-04-07 11:30:00,METAR ZGGG 071130Z 15004MPS 9999 BKN040 28/24 Q1008 NOSIG,0,4.0,0,10000,0,0,0,
2026-04-07 11:00:00,METAR ZGGG 071100Z 15004MPS 9999 OVC040 28/24 Q1007 NOSIG,0,4.0,0,10000,0,0,0,
2026-04-07 10:30:00,METAR ZGGG 071030Z 14005MPS 9999 OVC040 29/24 Q1007 NOSIG,0,5.0,0,10000,0,0,0,
2026-04-07 10:00:00,METAR ZGGG 071000Z 15004MPS 9999 OVC040 29/24 Q1007 NOSIG,0,4.0,0,10000,0,0,0,
2026-04-07 09:30:00,METAR ZGGG 070930Z 15004MPS 9999 OVC040 29/24 Q1006 NOSIG,0,4.0,0,10000,0,0,0,
2026-04-07 09:00:00,METAR ZGGG 070900Z 14005MPS 9999 FEW023 OVC036 30/24 Q1006 NOSIG,0,5.0,0,10000,0,0,0,
2026-04-07 08:30:00,METAR ZGGG 070830Z 13004MPS 9999 FEW025 OVC036 30/24 Q1006 NOSIG,0,4.0,0,10000,0,0,0,
2026-04-07 08:00:00,METAR ZGGG 070800Z 14004MPS 9999 SCT025 OVC036 30/24 Q1006 NOSIG,0,4.0,0,10000,0,0,0,
2026-04-07 07:30:00,METAR ZGGG 070730Z 14003MPS 100V170 9999 SCT023 OVC033 31/25 Q1006 NOSIG,0,3.0,0,10000,0,0,0,
2026-04-07 07:00:00,METAR ZGGG 070700Z 15004MPS 120V180 9999 SCT023 OVC030 31/25 Q1006 NOSIG,0,4.0,0,10000,0,0,0,
2026-04-07 06:30:00,METAR ZGGG 070630Z 13002MPS 080V160 9999 SCT023 OVC040 32/25 Q1007 NOSIG,0,2.0,0,10000,0,0,0,
2026-04-07 06:00:00,METAR ZGGG 070600Z 15002MPS 110V190 9999 FEW020 OVC040 30/25 Q1007 NOSIG,0,2.0,0,10000,0,0,0,
2026-04-07 05:30:00,METAR ZGGG 070530Z 14003MPS 120V180 9999 FEW020 OVC040 30/24 Q1008 NOSIG,0,3.0,0,10000,0,0,0,
2026-04-07 05:00:00,METAR ZGGG 070500Z 19003MPS 9999 OVC033 29/25 Q1008 NOSIG,0,3.0,0,10000,0,0,0,
2026-04-07 04:30:00,METAR ZGGG 070430Z 19002MPS 9999 FEW016 OVC030 29/25 Q1009 NOSIG,0,2.0,0,10000,0,0,0,
2026-04-07 04:00:00,METAR ZGGG 070400Z 16003MPS 130V190 9999 FEW016 OVC030 29/25 Q1009 NOSIG,0,3.0,0,10000,0,0,0,
2026-04-07 03:30:00,METAR ZGGG 070330Z 15003MPS 9999 OVC026 30/25 Q1009 NOSIG,0,3.0,0,10000,0,0,0,
2026-04-07 03:00:00,METAR ZGGG 070300Z 15003MPS 120V180 9999 OVC026 29/24 Q1009 NOSIG,0,3.0,0,10000,0,0,0,
2026-04-07 02:30:00,METAR ZGGG 070230Z 15003MPS 9999 OVC026 29/24 Q1009 NOSIG,0,3.0,0,10000,0,0,0,
2026-04-07 02:00:00,METAR ZGGG 070200Z 13003MPS 100V160 9999 OVC026 29/25 Q1009 NOSIG,0,3.0,0,10000,0,0,0,
2026-04-07 01:30:00,METAR ZGGG 070130Z 12003MPS 080V150 9999 OVC023 29/25 Q1009 NOSIG,0,3.0,0,10000,0,0,0,
2026-04-07 01:00:00,METAR ZGGG 070100Z 12002MPS 9999 OVC023 28/25 Q1009 NOSIG,0,2.0,0,10000,0,0,0,
2026-04-07 00:30:00,METAR ZGGG 070030Z 08002MPS 9999 BKN023 27/25 Q1009 NOSIG,0,2.0,0,10000,0,0,0,
2026-04-07 00:00:00,METAR ZGGG 070000Z 07002MPS 9999 BKN023 26/24 Q1009 NOSIG,0,2.0,0,10000,0,0,0,
2026-04-06 23:30:00,METAR ZGGG 062330Z 07002MPS 9999 BKN023 25/24 Q1008 NOSIG,0,2.0,0,10000,0,0,0,
2026-04-06 23:00:00,METAR ZGGG 062300Z 07002MPS 9999 FEW010 OVC018 25/24 Q1008 NOSIG,0,2.0,0,10000,0,0,0,
2026-04-06 22:30:00,METAR ZGGG 062230Z 07002MPS 9999 FEW010 OVC018 25/24 Q1008 NOSIG,0,2.0,0,10000,0,0,0,
2026-04-06 22:00:00,METAR ZGGG 062200Z 06001MPS 9999 FEW010 OVC018 25/24 Q1007 NOSIG,0,1.0,0,10000,0,0,0,
2026-04-06 21:30:00,METAR ZGGG 062130Z 04002MPS 9999 FEW010 OVC018 25/24 Q1007 NOSIG,0,2.0,0,10000,0,0,0,
2026-04-06 21:00:00,METAR ZGGG 062100Z 09003MPS 9999 FEW010 OVC018 25/24 Q1006 NOSIG,0,3.0,0,10000,0,0,0,
2026-04-06 20:30:00,METAR ZGGG 062030Z 07001MPS 9999 FEW010 OVC018 25/24 Q1006 NOSIG,0,1.0,0,10000,0,0,0,
2026-04-06 20:00:00,METAR ZGGG 062000Z 07002MPS 9999 FEW010 OVC018 25/24 Q1006 NOSIG,0,2.0,0,10000,0,0,0,
2026-04-06 19:30:00,METAR ZGGG 061930Z 07001MPS 9999 FEW010 OVC018 25/24 Q1006 NOSIG,0,1.0,0,10000,0,0,0,
2026-04-06 19:00:00,METAR ZGGG 061900Z 13002MPS 9999 OVC018 26/24 Q1006 NOSIG,0,2.0,0,10000,0,0,0,
2026-04-06 18:30:00,METAR ZGGG 061830Z 07001MPS 9999 OVC018 26/24 Q1006 NOSIG,0,1.0,0,10000,0,0,0,
2026-04-06 18:00:00,METAR ZGGG 061800Z 06002MPS 9999 OVC020 26/24 Q1007 NOSIG,0,2.0,0,10000,0,0,0,
2026-04-06 17:30:00,METAR ZGGG 061730Z 08002MPS 9999 OVC020 26/24 Q1007 NOSIG,0,2.0,0,10000,0,0,0,
2026-04-06 17:00:00,METAR ZGGG 061700Z VRB01MPS 9999 OVC020 27/24 Q1007 NOSIG,0,1.0,0,10000,0,0,0,
2026-04-06 16:30:00,METAR ZGGG 061630Z 13002MPS 9999 OVC020 27/24 Q1007 NOSIG,0,2.0,0,10000,0,0,0,
2026-04-06 16:00:00,METAR ZGGG 061600Z 14002MPS 9999 OVC026 27/24 Q1007 NOSIG,0,2.0,0,10000,0,0,0,
2026-04-06 15:30:00,METAR ZGGG 061530Z 14003MPS 9999 OVC040 27/24 Q1007 NOSIG,0,3.0,0,10000,0,0,0,
2026-04-06 15:00:00,METAR ZGGG 061500Z 14003MPS 9999 OVC040 27/24 Q1007 NOSIG,0,3.0,0,10000,0,0,0,
2026-04-06 14:30:00,METAR ZGGG 061430Z 13003MPS 9999 OVC040 27/24 Q1007 NOSIG,0,3.0,0,10000,0,0,0,
2026-04-06 14:00:00,METAR ZGGG 061400Z 12003MPS 9999 OVC040 27/24 Q1007 NOSIG,0,3.0,0,10000,0,0,0,
2026-04-06 13:30:00,METAR ZGGG 061330Z 12004MPS 9999 OVC040 27/24 Q1006 NOSIG,0,4.0,0,10000,0,0,0,
2026-04-06 13:00:00,METAR ZGGG 061300Z 12003MPS 9999 OVC040 27/24 Q1006 NOSIG,0,3.0,0,10000,0,0,0,
2026-04-06 12:30:00,METAR ZGGG 061230Z 11003MPS 9999 OVC040 27/24 Q1006 NOSIG,0,3.0,0,10000,0,0,0,
2026-04-06 12:00:00,METAR ZGGG 061200Z 13004MPS 9999 OVC040 27/23 Q1005 NOSIG,0,4.0,0,10000,0,0,0,
2026-04-06 11:30:00,METAR ZGGG 061130Z 13004MPS 9999 OVC040 27/24 Q1005 NOSIG,0,4.0,0,10000,0,0,0,
2026-04-06 11:00:00,METAR ZGGG 061100Z 13004MPS 9999 OVC040 28/24 Q1005 NOSIG,0,4.0,0,10000,0,0,0,
2026-04-06 10:30:00,METAR ZGGG 061030Z 14005MPS 9999 OVC040 28/24 Q1004 NOSIG,0,5.0,0,10000,0,0,0,
2026-04-06 10:00:00,METAR ZGGG 061000Z 14005MPS 9999 BKN033 28/24 Q1004 NOSIG,0,5.0,0,10000,0,0,0,
2026-04-06 09:30:00,METAR ZGGG 060930Z 13003MPS 9999 BKN033 28/24 Q1004 NOSIG,0,3.0,0,10000,0,0,0,
2026-04-06 09:00:00,METAR ZGGG 060900Z 13004MPS 9999 BKN033 29/24 Q1004 NOSIG,0,4.0,0,10000,0,0,0,
2026-04-06 08:30:00,METAR ZGGG 060830Z 15004MPS 9999 BKN023 29/24 Q1004 NOSIG,0,4.0,0,10000,0,0,0,
2026-04-06 08:00:00,METAR ZGGG 060800Z 15004MPS 9999 BKN023 29/24 Q1004 NOSIG,0,4.0,0,10000,0,0,0,
2026-04-06 07:30:00,METAR ZGGG 060730Z 15005MPS 9999 BKN023 29/24 Q1004 NOSIG,0,5.0,0,10000,0,0,0,
2026-04-06 07:00:00,METAR ZGGG 060700Z 16005MPS 9999 BKN023 29/24 Q1004 NOSIG,0,5.0,0,10000,0,0,0,
2026-04-06 06:30:00,METAR ZGGG 060630Z 15005MPS 9999 BKN026 29/24 Q1004 NOSIG,0,5.0,0,10000,0,0,0,
2026-04-06 06:00:00,METAR ZGGG 060600Z 14005MPS 9999 BKN026 29/24 Q1005 NOSIG,0,5.0,0,10000,0,0,0,
2026-04-06 05:30:00,METAR ZGGG 060530Z 18004MPS 9999 BKN030 29/24 Q1005 NOSIG,0,4.0,0,10000,0,0,0,
2026-04-06 05:00:00,METAR ZGGG 060500Z 16004MPS 9999 BKN026 28/24 Q1006 NOSIG,0,4.0,0,10000,0,0,0,
2026-04-06 04:30:00,METAR ZGGG 060430Z 16003MPS 9999 OVC020 28/24 Q1006 NOSIG,0,3.0,0,10000,0,0,0,
2026-04-06 04:00:00,METAR ZGGG 060400Z 14003MPS 9999 OVC020 28/24 Q1007 NOSIG,0,3.0,0,10000,0,0,0,
2026-04-06 03:30:00,METAR ZGGG 060330Z 15004MPS 9999 OVC020 27/24 Q1007 NOSIG,0,4.0,0,10000,0,0,0,
2026-04-06 03:00:00,METAR ZGGG 060300Z 14004MPS 9999 OVC020 27/24 Q1007 NOSIG,0,4.0,0,10000,0,0,0,
2026-04-06 02:30:00,METAR ZGGG 060230Z 15003MPS 9999 OVC020 27/24 Q1007 NOSIG,0,3.0,0,10000,0,0,0,
2026-04-06 02:00:00,METAR ZGGG 060200Z 14002MPS 8000 OVC016 26/24 Q1008 NOSIG,0,2.0,0,8000,0,0,0,
2026-04-06 01:30:00,METAR ZGGG 060130Z 15002MPS 6000 OVC016 26/24 Q1007 NOSIG,0,2.0,0,6000,0,0,0,
2026-04-06 01:00:00,METAR ZGGG 060100Z 15003MPS 6000 OVC016 25/24 Q1007 NOSIG,0,3.0,0,6000,0,0,0,
2026-04-06 00:30:00,METAR ZGGG 060030Z 14003MPS 6000 OVC026 25/23 Q1007 NOSIG,0,3.0,0,6000,0,0,0,
2026-04-06 00:00:00,METAR ZGGG 060000Z 14003MPS 6000 OVC026 25/23 Q1007 NOSIG,0,3.0,0,6000,0,0,0,
2026-04-05 23:30:00,METAR ZGGG 052330Z 11002MPS 080V150 6000 OVC026 24/24 Q1007 NOSIG,0,2.0,0,6000,0,0,0,
2026-04-05 23:00:00,METAR ZGGG 052300Z 08002MPS 4400 BR OVC020 24/23 Q1006 NOSIG,0,2.0,0,4400,0,0,1,BR
2026-04-05 22:30:00,METAR ZGGG 052230Z 08002MPS 5000 BR BKN020 24/23 Q1006 NOSIG,0,2.0,0,5000,0,0,1,BR
2026-04-05 22:00:00,METAR ZGGG 052200Z 08002MPS 5000 BR BKN020 24/23 Q1006 NOSIG,0,2.0,0,5000,0,0,1,BR
2026-04-05 21:30:00,METAR ZGGG 052130Z 06002MPS 5000 BR BKN020 24/23 Q1006 NOSIG,0,2.0,0,5000,0,0,1,BR
2026-04-05 21:00:00,METAR ZGGG 052100Z 07002MPS 5000 BR BKN020 24/23 Q1006 NOSIG,0,2.0,0,5000,0,0,1,BR
2026-04-05 20:30:00,METAR ZGGG 052030Z 06002MPS 5000 BR BKN020 24/23 Q1005 NOSIG,0,2.0,0,5000,0,0,1,BR
2026-04-05 20:00:00,METAR ZGGG 052000Z 05002MPS 5000 BR BKN020 24/23 Q1006 NOSIG,0,2.0,0,5000,0,0,1,BR
2026-04-05 19:30:00,METAR ZGGG 051930Z 07002MPS 5000 BKN020 24/23 Q1006 NOSIG,0,2.0,0,5000,0,0,0,
2026-04-05 19:00:00,METAR ZGGG 051900Z 05002MPS 5000 BKN020 24/23 Q1006 NOSIG,0,2.0,0,5000,0,0,0,
2026-04-05 18:30:00,METAR ZGGG 051830Z 07002MPS 5000 BKN020 24/23 Q1007 NOSIG,0,2.0,0,5000,0,0,0,
2026-04-05 18:00:00,METAR ZGGG 051800Z VRB01MPS 6000 BKN020 24/23 Q1007 NOSIG,0,1.0,0,6000,0,0,0,
2026-04-05 17:30:00,METAR ZGGG 051730Z 14002MPS 100V160 9999 BKN020 24/23 Q1007 NOSIG,0,2.0,0,10000,0,0,0,
2026-04-05 17:00:00,METAR ZGGG 051700Z 14002MPS 9999 BKN020 24/23 Q1007 NOSIG,0,2.0,0,10000,0,0,0,
2026-04-05 16:30:00,METAR ZGGG 051630Z 14003MPS 9999 BKN020 24/23 Q1007 NOSIG,0,3.0,0,10000,0,0,0,
2026-04-05 16:00:00,METAR ZGGG 051600Z 14003MPS 9999 BKN020 24/23 Q1007 NOSIG,0,3.0,0,10000,0,0,0,
2026-04-05 15:00:00,METAR ZGGG 051500Z 16002MPS 8000 -SHRA FEW013 FEW016CB BKN020 24/23 Q1007 RESHRA NOSIG,0,2.0,0,8000,0,0,0,RA
2026-04-05 14:48:00,SPECI ZGGG 051448Z 16002MPS 7000 +SHRA FEW013 FEW016CB BKN020 24/23 Q1007 BECMG AT1515 NSW,0,2.0,0,7000,0,0,0,RA
2026-04-05 13:00:00,METAR ZGGG 051300Z 15003MPS 9999 OVC016 24/23 Q1006 NOSIG,0,3.0,0,10000,0,0,0,
2026-04-05 12:30:00,METAR ZGGG 051230Z 14003MPS 9999 OVC016 24/23 Q1006 NOSIG,0,3.0,0,10000,0,0,0,
2026-04-05 12:00:00,METAR ZGGG 051200Z 16003MPS 9000 SCT011 OVC016 24/23 Q1006 NOSIG,0,3.0,0,9000,0,0,0,
2026-04-05 11:30:00,METAR ZGGG 051130Z 12003MPS 7000 SCT011 OVC016 24/23 Q1006 NOSIG,0,3.0,0,7000,0,0,0,
2026-04-05 11:00:00,METAR ZGGG 051100Z 08002MPS 040V120 4000 BR SCT011 OVC016 24/23 Q1006 NOSIG,0,2.0,0,4000,0,0,1,BR
2026-04-05 10:30:00,METAR ZGGG 051030Z 07002MPS 3300 BR SCT011 OVC016 24/23 Q1005 NOSIG,0,2.0,0,3300,0,0,1,BR
2026-04-05 10:00:00,METAR ZGGG 051000Z VRB01MPS 2700 BR SCT011 OVC016 23/23 Q1005 RESHRA BECMG AT1020 3500,0,1.0,0,2700,0,0,1,"BR,RA"
2026-04-05 09:45:00,SPECI ZGGG 050945Z VRB01MPS 2500 BR SCT011 FEW016CB BKN016 23/23 Q1005 RESHRA BECMG AT1020 3500,0,1.0,0,2500,0,0,1,"BR,RA"
2026-04-05 09:30:00,METAR ZGGG 050930Z 29003MPS 1000 R19R/1200U R19L/1100U R20R/1400D R20L/1800D R21/1700D +SHRA BR SCT011 SCT016CB BKN016 23/23 Q1005 BECMG AT0945 4000 -SHRA,0,3.0,0,1000,0,0,1,"BR,RA"
2026-04-05 09:16:00,SPECI ZGGG 050916Z 27005MPS 3500 +SHRA BR SCT011 SCT016CB BKN016 24/23 Q1005 BECMG AT0920 1200 +TSRA,0,5.0,0,3500,1,0,1,"BR,RA"
2026-04-05 09:14:00,SPECI ZGGG 050914Z 22002MPS 150V270 3500 SHRA BR SCT011 SCT016CB BKN016 25/23 Q1005 BECMG AT0920 1200 +TSRA,0,2.0,0,3500,1,0,1,"BR,RA,SH"
2026-04-05 09:00:00,METAR ZGGG 050900Z 19002MPS 140V230 4500 -SHRA BR SCT011 FEW016CB BKN016 25/22 Q1004 BECMG AT0910 2500 TSRA SCT026CB BKN030,0,2.0,0,4500,1,0,1,"BR,RA,TS"
2026-04-05 08:30:00,METAR ZGGG 050830Z VRB01MPS 4500 BR SCT011 OVC020 24/22 Q1005 BECMG AT0900 SHRA FEW026CB BKN030,0,1.0,0,4500,0,0,1,"BR,RA,SH"
2026-04-05 08:00:00,METAR ZGGG 050800Z 07001MPS 4000 BR SCT010 OVC016 24/22 Q1005 BECMG AT0900 SHRA FEW026CB BKN030,0,1.0,0,4000,0,0,1,"BR,RA,SH"
2026-04-05 07:30:00,METAR ZGGG 050730Z VRB01MPS 3500 -SHRA BR SCT010 OVC016 24/22 Q1005 NOSIG,0,1.0,0,3500,0,0,1,"BR,RA"
2026-04-05 07:00:00,METAR ZGGG 050700Z 05002MPS 020V080 2800 -SHRA BR SCT010 OVC016 24/22 Q1006 BECMG AT0800 4000,0,2.0,0,2800,0,0,1,"BR,RA"
2026-04-05 06:30:00,METAR ZGGG 050630Z 08002MPS 7000 -SHRA OVC016 24/22 Q1006 NOSIG,0,2.0,0,7000,0,0,0,RA
2026-04-05 06:00:00,METAR ZGGG 050600Z 07002MPS 8000 OVC016 24/21 Q1006 NOSIG,0,2.0,0,8000,0,0,0,
2026-04-05 05:30:00,METAR ZGGG 050530Z 07003MPS 9000 OVC016 24/21 Q1006 NOSIG,0,3.0,0,9000,0,0,0,
2026-04-05 05:00:00,METAR ZGGG 050500Z 08003MPS 9999 SCT015 OVC020 24/21 Q1007 NOSIG,0,3.0,0,10000,0,0,0,
2026-04-05 04:30:00,METAR ZGGG 050430Z 08004MPS 9999 SCT015 OVC020 25/21 Q1007 NOSIG,0,4.0,0,10000,0,0,0,
2026-04-05 04:00:00,METAR ZGGG 050400Z 08003MPS 9999 SCT015 OVC020 25/21 Q1007 NOSIG,0,3.0,0,10000,0,0,0,
2026-04-05 03:30:00,METAR ZGGG 050330Z 06002MPS 040V100 9999 SCT015 OVC020 25/21 Q1008 NOSIG,0,2.0,0,10000,0,0,0,
2026-04-05 03:00:00,METAR ZGGG 050300Z 08002MPS 050V160 9999 SCT015 OVC020 25/21 Q1008 NOSIG,0,2.0,0,10000,0,0,0,
2026-04-05 02:30:00,METAR ZGGG 050230Z 07002MPS 9999 SCT015 OVC023 24/21 Q1008 NOSIG,0,2.0,0,10000,0,0,0,
2026-04-05 02:00:00,METAR ZGGG 050200Z 06002MPS 9999 SCT015 OVC023 23/20 Q1009 NOSIG,0,2.0,0,10000,0,0,0,
2026-04-05 01:30:00,METAR ZGGG 050130Z 06002MPS 010V090 9999 SCT015 OVC023 23/20 Q1009 NOSIG,0,2.0,0,10000,0,0,0,
2026-04-05 01:00:00,METAR ZGGG 050100Z 06002MPS 9999 SCT015 OVC020 22/20 Q1009 NOSIG,0,2.0,0,10000,0,0,0,
2026-04-05 00:30:00,METAR ZGGG 050030Z 06002MPS 9999 SCT015 BKN020 22/20 Q1009 NOSIG,0,2.0,0,10000,0,0,0,
2026-04-05 00:00:00,METAR ZGGG 050000Z 05002MPS 9999 SCT015 BKN020 22/20 Q1009 NOSIG,0,2.0,0,10000,0,0,0,
2026-04-04 23:30:00,METAR ZGGG 042330Z 05002MPS 9999 SCT016 BKN030 21/19 Q1008 NOSIG,0,2.0,0,10000,0,0,0,
2026-04-04 23:00:00,METAR ZGGG 042300Z 05003MPS 9999 SCT016 BKN030 21/20 Q1008 NOSIG,0,3.0,0,10000,0,0,0,
2026-04-04 22:30:00,METAR ZGGG 042230Z 05003MPS 9999 FEW016 BKN030 21/19 Q1008 NOSIG,0,3.0,0,10000,0,0,0,
2026-04-04 22:00:00,METAR ZGGG 042200Z 05003MPS 9999 BKN030 21/20 Q1007 NOSIG,0,3.0,0,10000,0,0,0,
2026-04-04 21:30:00,METAR ZGGG 042130Z 05002MPS 9999 BKN036 21/20 Q1007 NOSIG,0,2.0,0,10000,0,0,0,
2026-04-04 21:00:00,METAR ZGGG 042100Z 06002MPS 9999 BKN036 21/19 Q1007 NOSIG,0,2.0,0,10000,0,0,0,
2026-04-04 20:30:00,METAR ZGGG 042030Z 06002MPS 9999 BKN036 21/19 Q1007 NOSIG,0,2.0,0,10000,0,0,0,
2026-04-04 20:00:00,METAR ZGGG 042000Z 05002MPS CAVOK 21/19 Q1007 NOSIG,1,0.0,0,9999,0,0,0,
2026-04-04 19:30:00,METAR ZGGG 041930Z VRB01MPS CAVOK 21/19 Q1007 NOSIG,1,0.0,0,9999,0,0,0,
2026-04-04 19:00:00,METAR ZGGG 041900Z VRB01MPS 9999 BKN040 21/19 Q1007 NOSIG,0,1.0,0,10000,0,0,0,
2026-04-04 18:30:00,METAR ZGGG 041830Z 04001MPS 9999 SCT040 21/19 Q1007 NOSIG,0,1.0,0,10000,0,0,0,
2026-04-04 18:00:00,METAR ZGGG 041800Z 06002MPS CAVOK 21/19 Q1008 NOSIG,1,0.0,0,9999,0,0,0,
2026-04-04 17:30:00,METAR ZGGG 041730Z 04002MPS CAVOK 21/20 Q1008 NOSIG,1,0.0,0,9999,0,0,0,
2026-04-04 17:00:00,METAR ZGGG 041700Z 07002MPS CAVOK 21/20 Q1008 NOSIG,1,0.0,0,9999,0,0,0,
2026-04-04 16:30:00,METAR ZGGG 041630Z 06002MPS CAVOK 22/20 Q1008 NOSIG,1,0.0,0,9999,0,0,0,
2026-04-04 16:00:00,METAR ZGGG 041600Z 05003MPS 020V080 CAVOK 22/20 Q1009 NOSIG,1,0.0,0,9999,0,0,0,
2026-04-04 15:30:00,METAR ZGGG 041530Z VRB01MPS CAVOK 22/20 Q1009 NOSIG,1,0.0,0,9999,0,0,0,
2026-04-04 15:00:00,METAR ZGGG 041500Z VRB01MPS CAVOK 22/20 Q1009 NOSIG,1,0.0,0,9999,0,0,0,
2026-04-04 14:30:00,METAR ZGGG 041430Z 08002MPS CAVOK 23/20 Q1008 NOSIG,1,0.0,0,9999,0,0,0,
2026-04-04 14:00:00,METAR ZGGG 041400Z 11002MPS CAVOK 23/20 Q1008 NOSIG,1,0.0,0,9999,0,0,0,
2026-04-04 13:30:00,METAR ZGGG 041330Z 08002MPS 9999 BKN060 23/20 Q1008 NOSIG,0,2.0,0,10000,0,0,0,
2026-04-04 13:00:00,METAR ZGGG 041300Z 09002MPS 9999 BKN060 24/20 Q1008 NOSIG,0,2.0,0,10000,0,0,0,
2026-04-04 12:30:00,METAR ZGGG 041230Z 17002MPS 9999 BKN056 24/20 Q1007 NOSIG,0,2.0,0,10000,0,0,0,
2026-04-04 12:00:00,METAR ZGGG 041200Z VRB01MPS 9999 BKN056 24/19 Q1007 NOSIG,0,1.0,0,10000,0,0,0,
2026-04-04 11:30:00,METAR ZGGG 041130Z VRB02MPS 9999 BKN056 25/19 Q1006 NOSIG,0,2.0,0,10000,0,0,0,
2026-04-04 11:00:00,METAR ZGGG 041100Z 17003MPS 9999 OVC056 25/19 Q1006 NOSIG,0,3.0,0,10000,0,0,0,
2026-04-04 10:30:00,METAR ZGGG 041030Z 16002MPS 9999 BKN056 25/18 Q1006 NOSIG,0,2.0,0,10000,0,0,0,
2026-04-04 10:00:00,METAR ZGGG 041000Z VRB01MPS 9999 BKN060 25/18 Q1006 NOSIG,0,1.0,0,10000,0,0,0,
2026-04-04 09:30:00,METAR ZGGG 040930Z VRB01MPS 9999 BKN060 26/17 Q1005 NOSIG,0,1.0,0,10000,0,0,0,
2026-04-04 09:00:00,METAR ZGGG 040900Z VRB01MPS 9999 BKN060 26/17 Q1005 NOSIG,0,1.0,0,10000,0,0,0,
2026-04-04 08:30:00,METAR ZGGG 040830Z VRB01MPS 9999 FEW033 SCT060 26/16 Q1006 NOSIG,0,1.0,0,10000,0,0,0,
2026-04-04 08:00:00,METAR ZGGG 040800Z 08002MPS 020V160 9999 SCT060 26/16 Q1005 NOSIG,0,2.0,0,10000,0,0,0,
2026-04-04 07:30:00,METAR ZGGG 040730Z 02002MPS 310V110 9999 BKN060 26/16 Q1006 NOSIG,0,2.0,0,10000,0,0,0,
2026-04-04 07:00:00,METAR ZGGG 040700Z 35003MPS 320V040 9999 BKN060 26/16 Q1006 NOSIG,0,3.0,0,10000,0,0,0,
2026-04-04 06:30:00,METAR ZGGG 040630Z 01003MPS 350V050 9999 BKN050 25/16 Q1006 NOSIG,0,3.0,0,10000,0,0,0,
2026-04-04 06:00:00,METAR ZGGG 040600Z 33005MPS 9999 -SHRA FEW040CB BKN050 25/16 Q1007 NOSIG,0,5.0,0,10000,0,0,0,RA
2026-04-04 05:49:00,SPECI ZGGG 040549Z 32005MPS 9999 OVC050 25/16 Q1007 BECMG AT0640 07004MPS,0,5.0,0,10000,0,0,0,
2026-04-04 05:30:00,METAR ZGGG 040530Z 08002MPS 030V110 9999 OVC050 25/16 Q1007 NOSIG,0,2.0,0,10000,0,0,0,
2026-04-04 05:00:00,METAR ZGGG 040500Z 05005MPS 9999 OVC050 26/16 Q1007 NOSIG,0,5.0,0,10000,0,0,0,
2026-04-04 04:30:00,METAR ZGGG 040430Z 01005MPS 340V040 9999 BKN050 26/17 Q1008 BECMG AT0550 SHRA FEW026CB BKN030,0,5.0,0,10000,0,0,0,"RA,SH"
2026-04-04 04:00:00,METAR ZGGG 040400Z 35007MPS 9999 BKN050 25/16 Q1009 BECMG AT0550 SHRA FEW026CB BKN030,0,7.0,0,10000,0,0,0,"RA,SH"
2026-04-04 03:30:00,METAR ZGGG 040330Z 36006MPS 9999 BKN050 26/17 Q1009 NOSIG,0,6.0,0,10000,0,0,0,
2026-04-04 03:00:00,METAR ZGGG 040300Z 01004MPS 340V040 9999 BKN050 26/17 Q1009 NOSIG,0,4.0,0,10000,0,0,0,
2026-04-04 02:30:00,METAR ZGGG 040230Z 03004MPS 350V060 9999 BKN050 25/16 Q1009 NOSIG,0,4.0,0,10000,0,0,0,
2026-04-04 02:00:00,METAR ZGGG 040200Z 03004MPS 9999 FEW046 25/17 Q1009 NOSIG,0,4.0,0,10000,0,0,0,
2026-04-04 01:30:00,METAR ZGGG 040130Z 04002MPS 010V080 CAVOK 23/17 Q1009 NOSIG,1,0.0,0,9999,0,0,0,
2026-04-04 01:00:00,METAR ZGGG 040100Z 06003MPS 9999 FEW020 23/17 Q1009 NOSIG,0,3.0,0,10000,0,0,0,
2026-04-04 00:30:00,METAR ZGGG 040030Z 35003MPS 9999 -SHRA OVC040 22/17 Q1009 NOSIG,0,3.0,0,10000,0,0,0,RA
2026-04-04 00:00:00,METAR ZGGG 040000Z 34003MPS 9999 OVC040 22/16 Q1009 NOSIG,0,3.0,0,10000,0,0,0,
2026-04-03 23:30:00,METAR ZGGG 032330Z 34002MPS 310V020 9999 OVC040 22/16 Q1008 NOSIG,0,2.0,0,10000,0,0,0,
2026-04-03 23:00:00,METAR ZGGG 032300Z 36003MPS 9999 OVC040 22/17 Q1008 NOSIG,0,3.0,0,10000,0,0,0,
2026-04-03 22:30:00,METAR ZGGG 032230Z 36002MPS 9999 OVC040 21/17 Q1007 NOSIG,0,2.0,0,10000,0,0,0,
2026-04-03 22:00:00,METAR ZGGG 032200Z 35003MPS 9999 BKN040 21/18 Q1007 NOSIG,0,3.0,0,10000,0,0,0,
2026-04-03 21:30:00,METAR ZGGG 032130Z 34003MPS 9999 BKN033 21/18 Q1007 NOSIG,0,3.0,0,10000,0,0,0,
2026-04-03 21:00:00,METAR ZGGG 032100Z 35002MPS 9999 BKN033 21/18 Q1007 NOSIG,0,2.0,0,10000,0,0,0,
2026-04-03 20:30:00,METAR ZGGG 032030Z 34003MPS 9999 OVC033 22/18 Q1007 NOSIG,0,3.0,0,10000,0,0,0,
2026-04-03 20:00:00,METAR ZGGG 032000Z 33002MPS 290V350 9999 OVC033 22/19 Q1007 NOSIG,0,2.0,0,10000,0,0,0,
2026-04-03 19:30:00,METAR ZGGG 031930Z 32002MPS 9999 OVC033 22/19 Q1007 NOSIG,0,2.0,0,10000,0,0,0,
2026-04-03 19:00:00,METAR ZGGG 031900Z 02001MPS 9999 OVC033 21/19 Q1007 NOSIG,0,1.0,0,10000,0,0,0,
2026-04-03 18:30:00,METAR ZGGG 031830Z VRB01MPS 9999 OVC026 21/19 Q1007 NOSIG,0,1.0,0,10000,0,0,0,
2026-04-03 18:00:00,METAR ZGGG 031800Z 06002MPS 040V100 9999 -SHRA OVC026 22/19 Q1007 NOSIG,0,2.0,0,10000,0,0,0,RA
2026-04-03 17:30:00,METAR ZGGG 031730Z 06003MPS 040V100 9999 -SHRA OVC026 22/20 Q1008 NOSIG,0,3.0,0,10000,0,0,0,RA
2026-04-03 17:00:00,METAR ZGGG 031700Z 01003MPS 9999 -SHRA OVC026 22/20 Q1008 NOSIG,0,3.0,0,10000,0,0,0,RA
2026-04-03 16:30:00,METAR ZGGG 031630Z 34004MPS 9999 -SHRA OVC026 22/19 Q1008 NOSIG,0,4.0,0,10000,0,0,0,RA
2026-04-03 16:00:00,METAR ZGGG 031600Z 35006MPS 9999 -SHRA OVC026 23/19 Q1008 NOSIG,0,6.0,0,10000,0,0,0,RA
2026-04-03 15:30:00,METAR ZGGG 031530Z 34008MPS 9999 OVC026 24/19 Q1008 NOSIG,0,8.0,0,10000,0,0,0,
2026-04-03 15:00:00,METAR ZGGG 031500Z 34006MPS 9999 OVC026 25/21 Q1008 NOSIG,0,6.0,0,10000,0,0,0,
2026-04-03 14:30:00,METAR ZGGG 031430Z VRB01MPS 9999 OVC033 26/22 Q1008 BECMG AT1525 SHRA SCT011 FEW030CB BKN033,0,1.0,0,10000,0,0,0,"RA,SH"
2026-04-03 14:00:00,METAR ZGGG 031400Z VRB01MPS 9999 BKN033 26/22 Q1007 NOSIG,0,1.0,0,10000,0,0,0,
2026-04-03 13:30:00,METAR ZGGG 031330Z VRB01MPS 9999 BKN040 26/21 Q1007 NOSIG,0,1.0,0,10000,0,0,0,
2026-04-03 13:00:00,METAR ZGGG 031300Z 19002MPS 160V220 9999 SCT040 26/21 Q1007 NOSIG,0,2.0,0,10000,0,0,0,
2026-04-03 12:30:00,METAR ZGGG 031230Z 18002MPS 9999 SCT040 26/21 Q1006 NOSIG,0,2.0,0,10000,0,0,0,
2026-04-03 12:00:00,METAR ZGGG 031200Z 17002MPS 9999 SCT040 26/21 Q1006 NOSIG,0,2.0,0,10000,0,0,0,
2026-04-03 11:30:00,METAR ZGGG 031130Z VRB01MPS 9999 BKN046 26/21 Q1006 NOSIG,0,1.0,0,10000,0,0,0,
2026-04-03 11:00:00,METAR ZGGG 031100Z 19002MPS 9999 BKN046 26/21 Q1005 NOSIG,0,2.0,0,10000,0,0,0,
2026-04-03 10:30:00,METAR ZGGG 031030Z 19004MPS 9999 BKN040 27/21 Q1005 NOSIG,0,4.0,0,10000,0,0,0,
2026-04-03 10:00:00,METAR ZGGG 031000Z 19003MPS 9999 BKN040 28/21 Q1005 NOSIG,0,3.0,0,10000,0,0,0,
2026-04-03 09:30:00,METAR ZGGG 030930Z 18004MPS 9999 BKN040 28/21 Q1005 NOSIG,0,4.0,0,10000,0,0,0,
2026-04-03 09:00:00,METAR ZGGG 030900Z 19004MPS 9999 BKN050 28/21 Q1004 NOSIG,0,4.0,0,10000,0,0,0,
2026-04-03 08:30:00,METAR ZGGG 030830Z 19004MPS 9999 OVC050 28/21 Q1004 NOSIG,0,4.0,0,10000,0,0,0,
2026-04-03 08:00:00,METAR ZGGG 030800Z 18004MPS 9999 OVC040 28/21 Q1004 NOSIG,0,4.0,0,10000,0,0,0,
2026-04-03 07:30:00,METAR ZGGG 030730Z 19003MPS 9999 OVC040 28/21 Q1005 NOSIG,0,3.0,0,10000,0,0,0,
2026-04-03 07:00:00,METAR ZGGG 030700Z 07002MPS 7000 OVC040 26/23 Q1005 NOSIG,0,2.0,0,7000,0,0,0,
2026-04-03 06:30:00,METAR ZGGG 030630Z 08002MPS 7000 OVC040 27/24 Q1005 NOSIG,0,2.0,0,7000,0,0,0,
2026-04-03 06:00:00,METAR ZGGG 030600Z VRB01MPS 9999 OVC033 27/23 Q1006 NOSIG,0,1.0,0,10000,0,0,0,
2026-04-03 05:30:00,METAR ZGGG 030530Z 14002MPS 110V170 9999 OVC033 27/23 Q1006 NOSIG,0,2.0,0,10000,0,0,0,
2026-04-03 05:00:00,METAR ZGGG 030500Z 14002MPS 9000 OVC033 27/23 Q1006 NOSIG,0,2.0,0,9000,0,0,0,
2026-04-03 04:30:00,METAR ZGGG 030430Z 17002MPS 9000 OVC026 27/23 Q1007 NOSIG,0,2.0,0,9000,0,0,0,
2026-04-03 04:00:00,METAR ZGGG 030400Z 17002MPS 9000 FEW020 OVC033 27/23 Q1007 NOSIG,0,2.0,0,9000,0,0,0,
2026-04-03 03:30:00,METAR ZGGG 030330Z 16002MPS 9000 FEW020 OVC033 26/23 Q1008 NOSIG,0,2.0,0,9000,0,0,0,
2026-04-03 03:00:00,METAR ZGGG 030300Z 16002MPS 9000 -SHRA FEW013 FEW016CB BKN026 25/23 Q1008 RESHRA NOSIG,0,2.0,0,9000,0,0,0,RA
2026-04-03 02:39:00,SPECI ZGGG 030239Z 17003MPS 9999 SHRA FEW013 FEW016CB BKN026 25/23 Q1008 BECMG AT0310 NSW,0,3.0,0,10000,0,0,0,"RA,SH"
2026-04-03 02:30:00,METAR ZGGG 030230Z 17004MPS 9999 -SHRA FEW013 FEW016CB BKN026 26/23 Q1008 BECMG AT0240 +SHRA,0,4.0,0,10000,0,0,0,RA
2026-04-03 02:00:00,METAR ZGGG 030200Z 17003MPS 9999 SCT020 OVC026 26/23 Q1008 BECMG AT0215 SHRA FEW026CB BKN033,0,3.0,0,10000,0,0,0,"RA,SH"
2026-04-03 01:30:00,METAR ZGGG 030130Z 15003MPS 9999 SCT020 OVC026 26/22 Q1008 NOSIG,0,3.0,0,10000,0,0,0,
2026-04-03 01:00:00,METAR ZGGG 030100Z 18004MPS 9999 SCT020 OVC026 25/22 Q1009 NOSIG,0,4.0,0,10000,0,0,0,
2026-04-03 00:30:00,METAR ZGGG 030030Z 14003MPS 9999 SCT016 OVC040 25/22 Q1008 BECMG AT0100 SHRA FEW026CB BKN033,0,3.0,0,10000,0,0,0,"RA,SH"
2026-04-03 00:00:00,METAR ZGGG 030000Z 15005MPS 9999 SCT020 OVC040 25/22 Q1008 BECMG AT0100 TSRA FEW026CB BKN033,0,5.0,0,10000,1,0,0,"RA,TS"
2026-04-02 23:30:00,METAR ZGGG 022330Z 14004MPS 110V170 8000 BKN020 OVC040 24/22 Q1008 NOSIG,0,4.0,0,8000,0,0,0,
2026-04-02 23:00:00,METAR ZGGG 022300Z 11003MPS 080V140 8000 BKN023 OVC046 23/21 Q1008 NOSIG,0,3.0,0,8000,0,0,0,
2026-04-02 22:30:00,METAR ZGGG 022230Z 09003MPS 7000 BKN020 OVC046 23/21 Q1008 NOSIG,0,3.0,0,7000,0,0,0,
2026-04-02 22:00:00,METAR ZGGG 022200Z 12004MPS 9999 BKN020 OVC050 23/21 Q1008 NOSIG,0,4.0,0,10000,0,0,0,
2026-04-02 21:30:00,METAR ZGGG 022130Z 12004MPS 9999 BKN020 24/21 Q1008 NOSIG,0,4.0,0,10000,0,0,0,
2026-04-02 21:00:00,METAR ZGGG 022100Z 11003MPS 8000 BKN020 23/21 Q1008 NOSIG,0,3.0,0,8000,0,0,0,
2026-04-02 20:30:00,METAR ZGGG 022030Z 11003MPS 090V150 9999 BKN020 23/21 Q1008 NOSIG,0,3.0,0,10000,0,0,0,
2026-04-02 20:00:00,METAR ZGGG 022000Z 12003MPS 9999 BKN020 23/21 Q1008 NOSIG,0,3.0,0,10000,0,0,0,
2026-04-02 19:30:00,METAR ZGGG 021930Z 13003MPS 9999 -SHRA FEW016 OVC033 23/21 Q1008 RETS NOSIG,0,3.0,0,10000,1,0,0,"RA,TS"
2026-04-02 19:17:00,SPECI ZGGG 021917Z 13004MPS 8000 -SHRA FEW016 OVC033 23/21 Q1008 RETS NOSIG,0,4.0,0,8000,1,0,0,"RA,TS"
2026-04-02 19:00:00,METAR ZGGG 021900Z 16005MPS 8000 -TSRA FEW016 FEW026CB BKN033 23/21 Q1008 BECMG AT1915 NSW,0,5.0,0,8000,1,0,0,RA
2026-04-02 18:49:00,SPECI ZGGG 021849Z 15005G10MPS 8000 -TSRA FEW016 FEW026CB BKN033 23/21 Q1009 BECMG AT1915 NSW,0,5.0,1,8000,1,0,0,RA
2026-04-02 18:37:00,SPECI ZGGG 021837Z 14008MPS 8000 -TSRA FEW016 FEW026CB BKN033 23/21 Q1007 BECMG AT1915 NSW,0,8.0,0,8000,1,0,0,RA
2026-04-02 18:30:00,METAR ZGGG 021830Z 13005MPS 8000 -TSRA FEW016 FEW026CB BKN033 23/21 Q1009 BECMG AT1915 NSW,0,5.0,0,8000,1,0,0,RA
2026-04-02 18:00:00,METAR ZGGG 021800Z 09003MPS 9999 -SHRA BKN020 23/21 Q1010 BECMG AT1820 SHRA,0,3.0,0,10000,0,0,0,"RA,SH"
2026-04-02 17:30:00,METAR ZGGG 021730Z 11004MPS 9999 OVC020 23/20 Q1010 NOSIG,0,4.0,0,10000,0,0,0,
2026-04-02 17:00:00,METAR ZGGG 021700Z 11003MPS 9999 OVC020 23/21 Q1010 NOSIG,0,3.0,0,10000,0,0,0,
2026-04-02 16:30:00,METAR ZGGG 021630Z 12003MPS 9999 OVC020 23/21 Q1011 NOSIG,0,3.0,0,10000,0,0,0,
2026-04-02 16:00:00,METAR ZGGG 021600Z 12004MPS 9999 OVC020 23/21 Q1011 NOSIG,0,4.0,0,10000,0,0,0,
2026-04-02 15:30:00,METAR ZGGG 021530Z 12004MPS 9999 BKN023 23/21 Q1011 NOSIG,0,4.0,0,10000,0,0,0,
2026-04-02 15:00:00,METAR ZGGG 021500Z 12004MPS 9999 SCT020 24/21 Q1011 NOSIG,0,4.0,0,10000,0,0,0,
2026-04-02 14:30:00,METAR ZGGG 021430Z 13005MPS 9999 SCT020 24/21 Q1011 NOSIG,0,5.0,0,10000,0,0,0,
2026-04-02 14:00:00,METAR ZGGG 021400Z 12004MPS 9999 SCT020 24/21 Q1011 NOSIG,0,4.0,0,10000,0,0,0,
2026-04-02 13:30:00,METAR ZGGG 021330Z 12004MPS 090V150 9999 FEW020 24/21 Q1011 NOSIG,0,4.0,0,10000,0,0,0,
2026-04-02 13:00:00,METAR ZGGG 021300Z 10003MPS 9999 BKN023 24/21 Q1011 NOSIG,0,3.0,0,10000,0,0,0,
2026-04-02 12:30:00,METAR ZGGG 021230Z 11003MPS 9999 -SHRA FEW020 OVC050 23/21 Q1011 RETS NOSIG,0,3.0,0,10000,1,0,0,"RA,TS"
2026-04-02 12:00:00,METAR ZGGG 021200Z 13004MPS 9999 -TSRA FEW026CB BKN040 24/22 Q1010 RESHRA BECMG AT1220 TSRA,0,4.0,0,10000,1,0,0,"RA,TS"
2026-04-02 11:47:00,SPECI ZGGG 021147Z 15005MPS 9999 TSRA FEW030CB BKN040 24/21 Q1010 BECMG AT1200 -TSRA,0,5.0,0,10000,1,0,0,"RA,TS"
2026-04-02 11:32:00,SPECI ZGGG 021132Z 15006MPS 9999 -TSRA FEW030CB BKN040 25/21 Q1010 BECMG AT1140 +TSRA SCT030CB BKN040,0,6.0,0,10000,1,0,0,RA
2026-04-02 11:30:00,METAR ZGGG 021130Z 15006MPS 9999 -SHRA FEW030CB BKN040 25/21 Q1010 BECMG AT1140 +SHRA SCT030CB BKN040,0,6.0,0,10000,0,0,0,RA
2026-04-02 11:00:00,METAR ZGGG 021100Z 15006MPS 9999 OVC050 25/20 Q1010 BECMG AT1120 SHRA FEW030CB BKN033,0,6.0,0,10000,0,0,0,"RA,SH"
2026-04-02 10:30:00,METAR ZGGG 021030Z 16007MPS 9999 OVC050 25/21 Q1009 NOSIG,0,7.0,0,10000,0,0,0,
2026-04-02 10:00:00,METAR ZGGG 021000Z 16007MPS 9999 OVC050 26/20 Q1009 NOSIG,0,7.0,0,10000,0,0,0,
2026-04-02 09:30:00,METAR ZGGG 020930Z 15006MPS 9999 OVC050 26/20 Q1009 NOSIG,0,6.0,0,10000,0,0,0,
2026-04-02 09:00:00,METAR ZGGG 020900Z 15006MPS 9999 OVC050 25/20 Q1009 NOSIG,0,6.0,0,10000,0,0,0,
2026-04-02 08:30:00,METAR ZGGG 020830Z 15006MPS 9999 OVC026 25/20 Q1009 NOSIG,0,6.0,0,10000,0,0,0,
2026-04-02 08:00:00,METAR ZGGG 020800Z 13007MPS 9999 OVC026 25/21 Q1009 NOSIG,0,7.0,0,10000,0,0,0,
2026-04-02 07:30:00,METAR ZGGG 020730Z 14006MPS 9999 OVC026 25/20 Q1009 NOSIG,0,6.0,0,10000,0,0,0,
2026-04-02 07:00:00,METAR ZGGG 020700Z 14005MPS 100V160 9999 OVC026 25/20 Q1010 NOSIG,0,5.0,0,10000,0,0,0,
2026-04-02 06:30:00,METAR ZGGG 020630Z 08004MPS 9999 OVC030 24/21 Q1010 NOSIG,0,4.0,0,10000,0,0,0,
2026-04-02 06:00:00,METAR ZGGG 020600Z 07003MPS 9999 SCT020 OVC030 24/21 Q1011 NOSIG,0,3.0,0,10000,0,0,0,
2026-04-02 05:30:00,METAR ZGGG 020530Z 04003MPS 8000 -SHRA SCT016 OVC020 23/21 Q1012 NOSIG,0,3.0,0,8000,0,0,0,RA
2026-04-02 05:00:00,METAR ZGGG 020500Z 13003MPS 100V160 8000 -SHRA SCT016 OVC020 24/21 Q1012 NOSIG,0,3.0,0,8000,0,0,0,RA
2026-04-02 04:30:00,METAR ZGGG 020430Z 11003MPS 080V150 8000 -SHRA OVC016 24/21 Q1012 NOSIG,0,3.0,0,8000,0,0,0,RA
2026-04-02 04:00:00,METAR ZGGG 020400Z 10002MPS 070V170 9999 -SHRA OVC016 24/20 Q1013 NOSIG,0,2.0,0,10000,0,0,0,RA
2026-04-02 03:30:00,METAR ZGGG 020330Z 09002MPS 070V130 9999 -SHRA OVC016 24/20 Q1014 NOSIG,0,2.0,0,10000,0,0,0,RA
2026-04-02 03:00:00,METAR ZGGG 020300Z VRB01MPS 8000 -SHRA OVC016 23/20 Q1014 NOSIG,0,1.0,0,8000,0,0,0,RA
2026-04-02 02:30:00,METAR ZGGG 020230Z 11002MPS 8000 -SHRA OVC016 23/20 Q1014 NOSIG,0,2.0,0,8000,0,0,0,RA
2026-04-02 02:00:00,METAR ZGGG 020200Z 10003MPS 9999 -SHRA OVC016 23/20 Q1014 NOSIG,0,3.0,0,10000,0,0,0,RA
2026-04-02 01:30:00,METAR ZGGG 020130Z 10003MPS 9999 -SHRA OVC018 23/19 Q1014 NOSIG,0,3.0,0,10000,0,0,0,RA
2026-04-02 01:00:00,METAR ZGGG 020100Z 08003MPS 9999 -SHRA OVC020 22/19 Q1014 NOSIG,0,3.0,0,10000,0,0,0,RA
2026-04-02 00:30:00,METAR ZGGG 020030Z 08004MPS 9999 OVC023 22/18 Q1014 NOSIG,0,4.0,0,10000,0,0,0,
2026-04-02 00:00:00,METAR ZGGG 020000Z 06002MPS 9999 OVC025 22/18 Q1014 NOSIG,0,2.0,0,10000,0,0,0,
2026-04-01 23:30:00,METAR ZGGG 012330Z 05002MPS 9999 OVC030 22/18 Q1014 NOSIG,0,2.0,0,10000,0,0,0,
2026-04-01 23:00:00,METAR ZGGG 012300Z 08003MPS 9999 OVC030 22/18 Q1013 NOSIG,0,3.0,0,10000,0,0,0,
2026-04-01 22:30:00,METAR ZGGG 012230Z 07002MPS 9999 OVC040 21/18 Q1013 NOSIG,0,2.0,0,10000,0,0,0,
2026-04-01 22:00:00,METAR ZGGG 012200Z 06003MPS 9999 BKN043 21/18 Q1013 NOSIG,0,3.0,0,10000,0,0,0,
2026-04-01 21:30:00,METAR ZGGG 012130Z 08003MPS 9999 BKN043 22/18 Q1012 NOSIG,0,3.0,0,10000,0,0,0,
2026-04-01 21:00:00,METAR ZGGG 012100Z 06003MPS 9999 OVC043 22/18 Q1012 NOSIG,0,3.0,0,10000,0,0,0,
2026-04-01 20:30:00,METAR ZGGG 012030Z 06003MPS 9999 BKN060 22/18 Q1012 NOSIG,0,3.0,0,10000,0,0,0,
2026-04-01 20:00:00,METAR ZGGG 012000Z 06003MPS 9999 BKN060 22/18 Q1012 NOSIG,0,3.0,0,10000,0,0,0,
2026-04-01 19:30:00,METAR ZGGG 011930Z 06003MPS 9999 BKN060 22/19 Q1012 NOSIG,0,3.0,0,10000,0,0,0,
2026-04-01 19:00:00,METAR ZGGG 011900Z 05002MPS 9999 BKN060 22/19 Q1012 NOSIG,0,2.0,0,10000,0,0,0,
2026-04-01 18:30:00,METAR ZGGG 011830Z 06002MPS 9999 BKN060 22/19 Q1013 NOSIG,0,2.0,0,10000,0,0,0,
2026-04-01 18:00:00,METAR ZGGG 011800Z 07002MPS 9999 BKN060 22/19 Q1013 NOSIG,0,2.0,0,10000,0,0,0,
2026-04-01 17:30:00,METAR ZGGG 011730Z 06002MPS 9999 BKN060 22/19 Q1013 NOSIG,0,2.0,0,10000,0,0,0,
2026-04-01 17:00:00,METAR ZGGG 011700Z 06002MPS 030V090 9999 BKN060 22/19 Q1013 NOSIG,0,2.0,0,10000,0,0,0,
2026-04-01 16:30:00,METAR ZGGG 011630Z 06002MPS 9999 BKN060 22/19 Q1013 NOSIG,0,2.0,0,10000,0,0,0,
2026-04-01 16:00:00,METAR ZGGG 011600Z VRB01MPS 9999 BKN060 22/18 Q1013 NOSIG,0,1.0,0,10000,0,0,0,
2026-04-01 15:30:00,METAR ZGGG 011530Z 04002MPS 020V080 9999 FEW050 22/19 Q1013 NOSIG,0,2.0,0,10000,0,0,0,
2026-04-01 15:00:00,METAR ZGGG 011500Z 04002MPS 9999 FEW050 23/18 Q1013 NOSIG,0,2.0,0,10000,0,0,0,
2026-04-01 14:00:00,METAR ZGGG 011400Z VRB01MPS 8000 -TSRA FEW033CB BKN050 23/16 Q1013 RESHRA BECMG AT1430 NSW BKN033,0,1.0,0,8000,1,0,0,RA
2026-04-01 13:48:00,SPECI ZGGG 011348Z VRB01MPS 5000 +TSRA SCT033CB BKN050 25/16 Q1013 BECMG AT1420 -TSRA,0,1.0,0,5000,1,0,0,RA
2026-04-01 13:36:00,SPECI ZGGG 011336Z VRB01MPS 9999 TS FEW033CB BKN050 25/15 Q1013 BECMG AT1350 TSRA SCT026CB BKN033,0,1.0,0,10000,1,0,0,"RA,TS"
2026-04-01 13:30:00,METAR ZGGG 011330Z VRB01MPS 9999 BKN050 25/16 Q1013 BECMG AT1350 19005MPS SHRA FEW030CB BKN033,0,1.0,0,10000,0,0,0,"RA,SH"
2026-04-01 13:00:00,METAR ZGGG 011300Z 09002MPS 9999 FEW050 25/16 Q1012 BECMG AT1400 SHRA FEW030CB BKN033,0,2.0,0,10000,0,0,0,"RA,SH"
2026-04-01 12:30:00,METAR ZGGG 011230Z 05002MPS CAVOK 25/16 Q1012 NOSIG,1,0.0,0,9999,0,0,0,
2026-04-01 12:00:00,METAR ZGGG 011200Z 03002MPS CAVOK 26/15 Q1012 NOSIG,1,0.0,0,9999,0,0,0,
2026-04-01 11:30:00,METAR ZGGG 011130Z 05002MPS CAVOK 26/16 Q1011 NOSIG,1,0.0,0,9999,0,0,0,
2026-04-01 11:00:00,METAR ZGGG 011100Z 07002MPS 040V120 CAVOK 26/15 Q1011 NOSIG,1,0.0,0,9999,0,0,0,
2026-04-01 10:30:00,METAR ZGGG 011030Z 07002MPS CAVOK 27/14 Q1011 NOSIG,1,0.0,0,9999,0,0,0,
2026-04-01 10:00:00,METAR ZGGG 011000Z 07002MPS 020V120 CAVOK 27/14 Q1011 NOSIG,1,0.0,0,9999,0,0,0,
2026-04-01 09:30:00,METAR ZGGG 010930Z VRB01MPS CAVOK 28/14 Q1011 NOSIG,1,0.0,0,9999,0,0,0,
2026-04-01 09:00:00,METAR ZGGG 010900Z 07002MPS CAVOK 28/14 Q1011 NOSIG,1,0.0,0,9999,0,0,0,
2026-04-01 08:30:00,METAR ZGGG 010830Z 09002MPS 340V140 CAVOK 29/15 Q1011 NOSIG,1,0.0,0,9999,0,0,0,
2026-04-01 08:00:00,METAR ZGGG 010800Z 07002MPS 040V140 CAVOK 29/15 Q1011 NOSIG,1,0.0,0,9999,0,0,0,
2026-04-01 07:30:00,METAR ZGGG 010730Z 08002MPS 020V130 CAVOK 28/16 Q1011 NOSIG,1,0.0,0,9999,0,0,0,
2026-04-01 07:00:00,METAR ZGGG 010700Z VRB02MPS CAVOK 29/16 Q1011 NOSIG,1,0.0,0,9999,0,0,0,
2026-04-01 06:30:00,METAR ZGGG 010630Z VRB02MPS CAVOK 28/16 Q1012 NOSIG,1,0.0,0,9999,0,0,0,
2026-04-01 06:00:00,METAR ZGGG 010600Z VRB02MPS CAVOK 27/17 Q1013 NOSIG,1,0.0,0,9999,0,0,0,
2026-04-01 05:30:00,METAR ZGGG 010530Z 05004MPS 010V120 CAVOK 26/16 Q1013 NOSIG,1,0.0,0,9999,0,0,0,
2026-04-01 05:00:00,METAR ZGGG 010500Z 36004MPS 330V030 CAVOK 26/16 Q1014 NOSIG,1,0.0,0,9999,0,0,0,
2026-04-01 04:30:00,METAR ZGGG 010430Z 36003MPS 330V030 CAVOK 25/16 Q1014 NOSIG,1,0.0,0,9999,0,0,0,
2026-04-01 04:00:00,METAR ZGGG 010400Z 36005MPS 320V040 CAVOK 25/17 Q1014 NOSIG,1,0.0,0,9999,0,0,0,
2026-04-01 03:30:00,METAR ZGGG 010330Z 02002MPS 310V080 CAVOK 24/15 Q1015 NOSIG,1,0.0,0,9999,0,0,0,
2026-04-01 03:00:00,METAR ZGGG 010300Z 36003MPS 290V060 CAVOK 23/16 Q1015 NOSIG,1,0.0,0,9999,0,0,0,
2026-04-01 02:30:00,METAR ZGGG 010230Z 05003MPS 360V080 CAVOK 23/16 Q1015 NOSIG,1,0.0,0,9999,0,0,0,
2026-04-01 02:00:00,METAR ZGGG 010200Z 04004MPS 360V080 CAVOK 22/15 Q1015 NOSIG,1,0.0,0,9999,0,0,0,
2026-04-01 01:30:00,METAR ZGGG 010130Z 02003MPS 350V080 CAVOK 21/15 Q1015 NOSIG,1,0.0,0,9999,0,0,0,
2026-04-01 01:00:00,METAR ZGGG 010100Z 01004MPS 350V060 CAVOK 21/15 Q1015 NOSIG,1,0.0,0,9999,0,0,0,
2026-04-01 00:30:00,METAR ZGGG 010030Z 01005MPS CAVOK 20/14 Q1015 NOSIG,1,0.0,0,9999,0,0,0,
2026-04-01 00:00:00,METAR ZGGG 010000Z 02005MPS CAVOK 19/14 Q1015 NOSIG,1,0.0,0,9999,0,0,0,
2026-03-31 23:30:00,METAR ZGGG 312330Z 34004MPS CAVOK 18/14 Q1015 NOSIG,1,0.0,0,9999,0,0,0,
2026-03-31 23:00:00,METAR ZGGG 312300Z 33003MPS CAVOK 18/14 Q1014 NOSIG,1,0.0,0,9999,0,0,0,
2026-03-31 22:30:00,METAR ZGGG 312230Z 33004MPS CAVOK 17/13 Q1014 NOSIG,1,0.0,0,9999,0,0,0,
2026-03-31 22:00:00,METAR ZGGG 312200Z 34004MPS CAVOK 17/14 Q1013 NOSIG,1,0.0,0,9999,0,0,0,
2026-03-31 21:30:00,METAR ZGGG 312130Z 33005MPS CAVOK 17/14 Q1013 NOSIG,1,0.0,0,9999,0,0,0,
2026-03-31 21:00:00,METAR ZGGG 312100Z 33004MPS CAVOK 17/14 Q1013 NOSIG,1,0.0,0,9999,0,0,0,
2026-03-31 20:30:00,METAR ZGGG 312030Z 34004MPS CAVOK 17/14 Q1013 NOSIG,1,0.0,0,9999,0,0,0,
2026-03-31 20:00:00,METAR ZGGG 312000Z 33005MPS CAVOK 18/14 Q1013 NOSIG,1,0.0,0,9999,0,0,0,
2026-03-31 19:30:00,METAR ZGGG 311930Z 33004MPS CAVOK 18/14 Q1012 NOSIG,1,0.0,0,9999,0,0,0,
2026-03-31 19:00:00,METAR ZGGG 311900Z 32005MPS CAVOK 18/15 Q1012 NOSIG,1,0.0,0,9999,0,0,0,
2026-03-31 18:30:00,METAR ZGGG 311830Z 33004MPS CAVOK 18/15 Q1012 NOSIG,1,0.0,0,9999,0,0,0,
2026-03-31 18:00:00,METAR ZGGG 311800Z 34005MPS 9999 SCT050 18/15 Q1013 NOSIG,0,,0,9999,0,0,0,
2026-03-31 17:30:00,METAR ZGGG 311730Z 34004MPS 9999 SCT050 19/15 Q1013 NOSIG,0,,0,9999,0,0,0,
2026-03-31 17:00:00,METAR ZGGG 311700Z 33002MPS 280V010 9999 SCT050 18/15 Q1013 NOSIG,0,,0,9999,0,0,0,
2026-03-31 16:30:00,METAR ZGGG 311630Z 34005MPS 9999 SCT050 18/15 Q1013 NOSIG,0,,0,9999,0,0,0,
2026-03-31 16:00:00,METAR ZGGG 311600Z 34005MPS 9999 SCT050 19/15 Q1013 NOSIG,0,,0,9999,0,0,0,
2026-03-31 15:30:00,METAR ZGGG 311530Z 34005MPS 9999 -SHRA FEW023CB BKN050 19/16 Q1013 NOSIG,0,,0,9999,0,0,0,RA
2026-03-31 15:00:00,METAR ZGGG 311500Z 33006MPS 9999 BKN050 19/16 Q1013 NOSIG,0,,0,9999,0,0,0,
2026-03-31 14:30:00,METAR ZGGG 311430Z 34005MPS 9999 -SHRA BKN050 19/16 Q1013 NOSIG,0,,0,9999,0,0,0,RA
2026-03-31 14:00:00,METAR ZGGG 311400Z 35005MPS 9999 OVC050 19/17 Q1013 RESHRA NOSIG,0,,0,9999,0,0,0,RA
2026-03-31 13:49:00,SPECI ZGGG 311349Z 35006MPS 9999 -SHRA FEW023CB BKN040 19/17 Q1013 RESHRA NOSIG,0,,0,9999,0,0,0,RA
2026-03-31 13:34:00,SPECI ZGGG 311334Z 35006MPS 320V020 9999 SHRA FEW023CB BKN040 20/17 Q1013 BECMG AT1340 NSW,0,,0,9999,0,0,0,"RA,SH"
2026-03-31 13:30:00,METAR ZGGG 311330Z 36006MPS 9999 -SHRA FEW023CB BKN040 20/17 Q1012 BECMG AT1335 SHRA,0,,0,9999,0,0,0,"RA,SH"
2026-03-31 13:00:00,METAR ZGGG 311300Z 34007MPS 9999 -SHRA SCT010 OVC033 20/17 Q1012 BECMG AT1320 SHRA FEW030CB BKN033,0,,0,9999,0,0,0,"RA,SH"
2026-03-31 12:30:00,METAR ZGGG 311230Z 35007MPS 9999 SCT010 OVC033 20/17 Q1011 BECMG AT1300 SHRA FEW030CB BKN033,0,,0,9999,0,0,0,"RA,SH"
2026-03-31 12:00:00,METAR ZGGG 311200Z 35006MPS 9999 SCT010 OVC033 21/18 Q1011 NOSIG,0,,0,9999,0,0,0,
2026-03-31 11:30:00,METAR ZGGG 311130Z 34007MPS 9999 SCT010 OVC033 22/19 Q1010 NOSIG,0,,0,9999,0,0,0,
2026-03-31 11:00:00,METAR ZGGG 311100Z 35004MPS 9999 SCT010 OVC033 22/20 Q1009 NOSIG,0,,0,9999,0,0,0,
2026-03-31 10:30:00,METAR ZGGG 311030Z 01002MPS 9999 SCT010 OVC033 23/22 Q1009 NOSIG,0,,0,9999,0,0,0,
2026-03-31 10:00:00,METAR ZGGG 311000Z 01003MPS 9999 -SHRA SCT010 OVC033 23/21 Q1008 RETS NOSIG,0,,0,9999,1,0,0,"RA,TS"
2026-03-31 09:30:00,METAR ZGGG 310930Z 34006MPS 8000 -TSRA SCT010 FEW026CB BKN033 22/22 Q1008 RESHRA BECMG AT1010 NSW,0,,0,8000,1,0,0,RA
2026-03-31 09:13:00,SPECI ZGGG 310913Z 32006MPS 8000 -TSRA SCT010 FEW026CB BKN033 23/22 Q1008 RESHRA BECMG AT1010 NSW,0,,0,8000,1,0,0,RA
2026-03-31 09:00:00,METAR ZGGG 310900Z 31008MPS 1200 R01L/1800D R01R/1600D R02L/1900D R02R/P2000 R03/P2000 +TSRA SCT010 SCT026CB 23/22 Q1008 BECMG AT0930 6000 -TSRA,0,,0,1200,1,0,0,RA
2026-03-31 08:50:00,SPECI ZGGG 310850Z 31005G10MPS 4000 +TSRA SCT010 SCT026CB 26/22 Q1007 BECMG AT0930 -TSRA,0,,0,4000,1,0,0,RA
2026-03-31 08:44:00,SPECI ZGGG 310844Z 13003MPS 6000 +TSRA SCT016 SCT026CB 26/23 Q1006 BECMG AT0930 -TSRA,0,,0,6000,1,0,0,RA
2026-03-31 08:30:00,METAR ZGGG 310830Z 16003MPS 8000 -TSRA FEW016 FEW026CB BKN033 27/22 Q1006 BECMG AT0840 33008G15MPS 1200 +TSRA SCT011 SCT026CB BKN033,0,,0,8000,1,0,0,RA
2026-03-31 08:12:00,SPECI ZGGG 310812Z 17003MPS 9999 TS FEW026CB BKN033 27/21 Q1006 BECMG AT0830 33010G17MPS 1200 +TSRA SCT011 SCT026CB BKN033,0,,0,9999,1,0,0,"RA,TS"
2026-03-31 08:00:00,METAR ZGGG 310800Z 16004MPS 9999 OVC030 27/22 Q1006 BECMG AT0830 33010G17MPS 1200 +TSRA SCT011 SCT026CB BKN033,0,,0,9999,1,0,0,RA
2026-03-31 07:30:00,METAR ZGGG 310730Z 16005MPS 9999 BKN030 29/22 Q1005 BECMG AT0840 2000 +TSRA SCT011 SCT026CB BKN033,0,,0,9999,1,0,0,RA
2026-03-31 07:00:00,METAR ZGGG 310700Z 16004MPS 9999 BKN030 28/22 Q1006 BECMG AT0840 2000 +TSRA SCT011 SCT026CB BKN033,0,,0,9999,1,0,0,RA
2026-03-31 06:30:00,METAR ZGGG 310630Z 17004MPS 9999 -SHRA OVC026 28/22 Q1007 NOSIG,0,,0,9999,0,0,0,RA
2026-03-31 06:00:00,METAR ZGGG 310600Z 16005MPS 9999 OVC026 27/22 Q1007 NOSIG,0,,0,9999,0,0,0,
2026-03-31 05:30:00,METAR ZGGG 310530Z 18004MPS 9999 BKN026 27/22 Q1008 NOSIG,0,,0,9999,0,0,0,
2026-03-31 05:00:00,METAR ZGGG 310500Z 16005MPS 9999 BKN026 27/22 Q1008 NOSIG,0,,0,9999,0,0,0,
2026-03-31 04:30:00,METAR ZGGG 310430Z 15004MPS 9999 BKN026 27/22 Q1009 NOSIG,0,,0,9999,0,0,0,
2026-03-31 04:00:00,METAR ZGGG 310400Z 15004MPS 9999 -SHRA BKN016 OVC026 26/22 Q1009 NOSIG,0,,0,9999,0,0,0,RA
2026-03-31 03:30:00,METAR ZGGG 310330Z 15003MPS 100V180 9999 -SHRA BKN016 OVC040 26/22 Q1009 NOSIG,0,,0,9999,0,0,0,RA
2026-03-31 03:00:00,METAR ZGGG 310300Z 18005MPS 9999 -SHRA BKN016 OVC040 25/22 Q1010 NOSIG,0,,0,9999,0,0,0,RA
2026-03-31 02:30:00,METAR ZGGG 310230Z 15005MPS 9000 FEW016 OVC040 27/22 Q1010 NOSIG,0,,0,9000,0,0,0,
2026-03-31 02:00:00,METAR ZGGG 310200Z 14004MPS 9000 FEW016 OVC040 25/22 Q1010 NOSIG,0,,0,9000,0,0,0,
2026-03-31 01:30:00,METAR ZGGG 310130Z 12003MPS 090V160 9000 FEW016 OVC040 25/22 Q1009 NOSIG,0,,0,9000,0,0,0,
2026-03-31 01:00:00,METAR ZGGG 310100Z 13003MPS 8000 FEW016 OVC040 25/22 Q1010 NOSIG,0,,0,8000,0,0,0,
2026-03-31 00:30:00,METAR ZGGG 310030Z 13004MPS 7000 BKN040 24/22 Q1009 NOSIG,0,,0,7000,0,0,0,
2026-03-31 00:00:00,METAR ZGGG 310000Z 13004MPS 7000 -SHRA BKN040 24/22 Q1009 NOSIG,0,,0,7000,0,0,0,RA
2026-03-30 23:30:00,METAR ZGGG 302330Z 13003MPS 6000 BKN040 24/22 Q1009 NOSIG,0,3.0,0,6000,0,0,0,
2026-03-30 23:00:00,METAR ZGGG 302300Z 12003MPS 6000 BKN040 24/22 Q1009 NOSIG,0,3.0,0,6000,0,0,0,
2026-03-30 22:30:00,METAR ZGGG 302230Z 11002MPS 6000 BKN040 23/21 Q1009 NOSIG,0,2.0,0,6000,0,0,0,
2026-03-30 22:00:00,METAR ZGGG 302200Z 08002MPS 8000 SCT040 22/21 Q1009 NOSIG,0,2.0,0,8000,0,0,0,
2026-03-30 21:30:00,METAR ZGGG 302130Z 07002MPS 8000 SCT040 22/21 Q1008 NOSIG,0,2.0,0,8000,0,0,0,
2026-03-30 21:00:00,METAR ZGGG 302100Z 08002MPS 8000 BKN040 22/21 Q1008 NOSIG,0,2.0,0,8000,0,0,0,
2026-03-30 20:30:00,METAR ZGGG 302030Z 08002MPS 8000 BKN040 22/21 Q1008 NOSIG,0,2.0,0,8000,0,0,0,
2026-03-30 20:00:00,METAR ZGGG 302000Z 08002MPS 8000 BKN040 22/21 Q1008 NOSIG,0,2.0,0,8000,0,0,0,
2026-03-30 19:30:00,METAR ZGGG 301930Z 07002MPS 8000 BKN040 22/21 Q1009 NOSIG,0,2.0,0,8000,0,0,0,
2026-03-30 19:00:00,METAR ZGGG 301900Z 08003MPS 8000 BKN040 23/21 Q1009 NOSIG,0,3.0,0,8000,0,0,0,
2026-03-30 18:30:00,METAR ZGGG 301830Z 07003MPS 8000 BKN040 23/21 Q1009 NOSIG,0,3.0,0,8000,0,0,0,
2026-03-30 18:00:00,METAR ZGGG 301800Z 08002MPS 8000 BKN040 23/21 Q1010 NOSIG,0,2.0,0,8000,0,0,0,
2026-03-30 17:30:00,METAR ZGGG 301730Z 07002MPS 8000 BKN040 23/21 Q1010 NOSIG,0,2.0,0,8000,0,0,0,
2026-03-30 17:00:00,METAR ZGGG 301700Z 05002MPS 8000 BKN040 23/20 Q1011 NOSIG,0,2.0,0,8000,0,0,0,
2026-03-30 16:30:00,METAR ZGGG 301630Z 06002MPS 8000 BKN040 22/21 Q1011 NOSIG,0,2.0,0,8000,0,0,0,
2026-03-30 16:00:00,METAR ZGGG 301600Z 05002MPS 8000 BKN030 23/21 Q1011 NOSIG,0,2.0,0,8000,0,0,0,
2026-03-30 15:30:00,METAR ZGGG 301530Z 06002MPS 9999 BKN030 22/21 Q1011 NOSIG,0,2.0,0,10000,0,0,0,
2026-03-30 15:00:00,METAR ZGGG 301500Z 07002MPS 310V120 9999 BKN022 23/21 Q1011 NOSIG,0,2.0,0,10000,0,0,0,
2026-03-30 14:30:00,METAR ZGGG 301430Z 06003MPS 9999 BKN022 22/20 Q1011 NOSIG,0,3.0,0,10000,0,0,0,
2026-03-30 14:00:00,METAR ZGGG 301400Z 07003MPS 9999 BKN022 23/21 Q1010 NOSIG,0,3.0,0,10000,0,0,0,
2026-03-30 13:30:00,METAR ZGGG 301330Z 07003MPS 9999 BKN022 23/20 Q1010 NOSIG,0,3.0,0,10000,0,0,0,
2026-03-30 13:00:00,METAR ZGGG 301300Z 07002MPS 9999 BKN022 23/20 Q1010 NOSIG,0,2.0,0,10000,0,0,0,
2026-03-30 12:30:00,METAR ZGGG 301230Z 06002MPS 360V090 9999 BKN022 23/20 Q1010 NOSIG,0,2.0,0,10000,0,0,0,
2026-03-30 12:00:00,METAR ZGGG 301200Z 04003MPS 360V070 9999 BKN022 23/20 Q1010 NOSIG,0,3.0,0,10000,0,0,0,
2026-03-30 11:30:00,METAR ZGGG 301130Z 04003MPS 9999 BKN026 23/20 Q1009 NOSIG,0,3.0,0,10000,0,0,0,
2026-03-30 11:00:00,METAR ZGGG 301100Z 06003MPS 9999 BKN026 23/20 Q1009 NOSIG,0,3.0,0,10000,0,0,0,
2026-03-30 10:30:00,METAR ZGGG 301030Z 06003MPS 9999 BKN026 23/20 Q1009 NOSIG,0,3.0,0,10000,0,0,0,
2026-03-30 10:00:00,METAR ZGGG 301000Z 04004MPS 9999 BKN026 23/20 Q1009 NOSIG,0,4.0,0,10000,0,0,0,
2026-03-30 09:30:00,METAR ZGGG 300930Z 08002MPS 020V110 9999 BKN026 24/20 Q1008 NOSIG,0,2.0,0,10000,0,0,0,
2026-03-30 09:00:00,METAR ZGGG 300900Z VRB01MPS 9999 BKN026 24/20 Q1008 NOSIG,0,1.0,0,10000,0,0,0,
2026-03-30 08:30:00,METAR ZGGG 300830Z 14002MPS 090V160 9999 BKN026 24/19 Q1008 NOSIG,0,2.0,0,10000,0,0,0,
2026-03-30 08:00:00,METAR ZGGG 300800Z VRB01MPS 9999 BKN026 24/20 Q1008 NOSIG,0,1.0,0,10000,0,0,0,
2026-03-30 07:30:00,METAR ZGGG 300730Z VRB01MPS CAVOK 23/20 Q1008 NOSIG,1,0.0,0,9999,0,0,0,
2026-03-30 07:00:00,METAR ZGGG 300700Z 09002MPS 050V130 CAVOK 23/20 Q1009 NOSIG,1,0.0,0,9999,0,0,0,
2026-03-30 06:30:00,METAR ZGGG 300630Z 07003MPS CAVOK 22/20 Q1009 NOSIG,1,0.0,0,9999,0,0,0,
2026-03-30 06:00:00,METAR ZGGG 300600Z 07004MPS CAVOK 21/20 Q1009 NOSIG,1,0.0,0,9999,0,0,0,
2026-03-30 05:30:00,METAR ZGGG 300530Z 07005MPS CAVOK 22/20 Q1009 RETS NOSIG,1,0.0,0,9999,0,0,0,
2026-03-30 05:00:00,METAR ZGGG 300500Z 13004MPS 110V170 8000 -TSRA SCT016 FEW033CB 21/20 Q1011 RESHRA BECMG AT0530 NSW SCT013 BKN026,0,4.0,0,8000,1,0,0,RA
2026-03-30 04:54:00,SPECI ZGGG 300454Z 16004MPS 120V200 8000 -TSRA SCT013 FEW020CB BKN026 21/20 Q1010 RESHRA BECMG AT0530 NSW SCT013 BKN026,0,4.0,0,8000,1,0,0,RA
2026-03-30 04:37:00,SPECI ZGGG 300437Z 22005MPS 180V240 8000 TSRA SCT013 FEW020CB BKN026 22/19 Q1012 BECMG AT0510 NSW,0,5.0,0,8000,1,0,0,"RA,TS"
2026-03-30 04:30:00,METAR ZGGG 300430Z 23006MPS 8000 SHRA SCT013 FEW020CB BKN026 22/19 Q1013 BECMG AT0500 NSW,0,6.0,0,8000,0,0,0,"RA,SH"
2026-03-30 04:22:00,SPECI ZGGG 300422Z 22006MPS 8000 SHRA SCT013 FEW020CB BKN026 23/19 Q1013 BECMG AT0430 TSRA SCT026CB BKN033,0,6.0,0,8000,1,0,0,"RA,SH,TS"
2026-03-30 04:00:00,METAR ZGGG 300400Z 21002MPS 190V250 9999 SCT013 BKN020 23/19 Q1011 BECMG AT0520 TSRA SCT026CB BKN033,0,2.0,0,10000,1,0,0,"RA,TS"
2026-03-30 03:30:00,METAR ZGGG 300330Z 11002MPS 040V160 9999 SCT013 24/20 Q1010 NOSIG,0,2.0,0,10000,0,0,0,
2026-03-30 03:00:00,METAR ZGGG 300300Z 07005MPS 9999 SCT013 21/20 Q1010 NOSIG,0,5.0,0,10000,0,0,0,
2026-03-30 02:37:00,SPECI ZGGG 300237Z 07003MPS 030V160 9999 -SHRA SCT013 20/19 Q1010 NOSIG,0,3.0,0,10000,0,0,0,RA
2026-03-30 02:30:00,METAR ZGGG 300230Z 11003MPS 070V160 9999 -SHRA SCT013 21/20 Q1012 NOSIG,0,3.0,0,10000,0,0,0,RA
2026-03-30 02:19:00,SPECI ZGGG 300219Z 10004MPS 080V150 9000 -SHRA SCT013 FEW026CB 20/19 Q1011 NOSIG,0,4.0,0,9000,0,0,0,RA
2026-03-30 02:00:00,METAR ZGGG 300200Z VRB01MPS 9000 -SHRA SCT013 FEW026CB 20/19 Q1013 RETS BECMG AT0300 NSW,0,1.0,0,9000,1,0,0,"RA,TS"
2026-03-30 01:30:00,METAR ZGGG 300130Z 25002MPS 220V300 8000 -TSRA SCT013 SCT023CB 20/19 Q1013 NOSIG,0,2.0,0,8000,1,0,0,RA
2026-03-30 01:00:00,METAR ZGGG 300100Z 24005MPS 220V280 8000 -TSRA SCT013 SCT023CB 19/19 Q1014 RESHRA WS R19R NOSIG,0,5.0,0,8000,1,0,0,RA
2026-03-30 00:30:00,METAR ZGGG 300030Z 22007G12MPS 2500 +TSRA SCT013 SCT023CB BKN033 19/18 Q1013 BECMG AT0050 -TSRA,0,7.0,1,2500,1,0,0,RA
2026-03-30 00:12:00,SPECI ZGGG 300012Z 22005MPS 190V250 4000 +TSRA SCT013 SCT023CB BKN033 19/18 Q1012 BECMG AT0040 -TSRA,0,5.0,0,4000,1,0,0,RA
2026-03-30 00:05:00,SPECI ZGGG 300005Z 29007MPS 1400 R01L/1600U R01R/1700U R02L/P2000 R02R/P2000 R03/P2000 +TSRA SQ SCT013 SCT023CB BKN033 19/18 Q1011 BECMG AT0040 6000 -TSRA,0,7.0,0,1400,1,0,0,"RA,SQ"
2026-03-30 00:00:00,METAR ZGGG 300000Z 28013G19MPS 220V300 1400 R01L/1800D R01R/1900D R02L/P2000 R02R/P2000 R03/P2000 +TSRA SQ SCT013 SCT023CB BKN033 20/18 Q1012 BECMG AT0010 0700,0,13.0,1,1400,1,0,0,"RA,SQ"
2026-03-29 23:54:00,SPECI ZGGG 292354Z 26010G18MPS 220V300 4000 +TSRA SQ SCT013 SCT023CB BKN033 24/22 Q1012 BECMG AT0030 18005MPS -TSRA,0,10.0,1,4000,1,0,0,"RA,SQ"
2026-03-29 23:48:00,SPECI ZGGG 292348Z 17004MPS 140V210 8000 TS SCT013 SCT023CB BKN033 24/22 Q1009 BECMG AT2355 27008G18MPS 2000 +TSRA SQ,0,4.0,0,8000,1,0,0,"RA,SQ,TS"
2026-03-29 23:30:00,METAR ZGGG 292330Z 12002MPS 080V170 8000 SCT013 OVC023 23/22 Q1009 BECMG AT0010 27008G18MPS 2000 +TSRA SQ SCT008 SCT026CB BKN033,0,2.0,0,8000,1,0,0,"RA,SQ"
2026-03-29 23:00:00,METAR ZGGG 292300Z VRB01MPS 8000 SCT013 OVC023 23/21 Q1009 BECMG AT0000 27008G15MPS 2000 +TSRA SQ SCT008 SCT026CB BKN033,0,1.0,0,8000,1,0,0,"RA,SQ"
2026-03-29 22:30:00,METAR ZGGG 292230Z 13003MPS 8000 SCT013 OVC023 24/21 Q1008 BECMG AT0000 27008G15MPS 2000 +TSRA SCT008 SCT026CB BKN033,0,3.0,0,8000,1,0,0,RA
2026-03-29 22:00:00,METAR ZGGG 292200Z 12002MPS 100V160 8000 SCT013 OVC023 23/22 Q1008 NOSIG,0,2.0,0,8000,0,0,0,
2026-03-29 21:30:00,METAR ZGGG 292130Z 06002MPS 8000 SCT013 OVC033 22/21 Q1007 NOSIG,0,2.0,0,8000,0,0,0,
2026-03-29 21:00:00,METAR ZGGG 292100Z 08003MPS 8000 SCT013 OVC033 22/21 Q1007 NOSIG,0,3.0,0,8000,0,0,0,
2026-03-29 20:30:00,METAR ZGGG 292030Z 08003MPS 8000 SCT013 OVC033 22/21 Q1007 NOSIG,0,3.0,0,8000,0,0,0,
2026-03-29 20:00:00,METAR ZGGG 292000Z 07002MPS 9000 SCT013 OVC030 22/21 Q1008 NOSIG,0,2.0,0,9000,0,0,0,
2026-03-29 19:30:00,METAR ZGGG 291930Z VRB01MPS 9000 SCT013 OVC030 22/21 Q1009 NOSIG,0,1.0,0,9000,0,0,0,
2026-03-29 19:00:00,METAR ZGGG 291900Z 07002MPS 9000 SCT013 OVC026 22/21 Q1008 NOSIG,0,2.0,0,9000,0,0,0,
2026-03-29 18:30:00,METAR ZGGG 291830Z VRB01MPS 9999 SCT013 OVC020 21/20 Q1009 NOSIG,0,1.0,0,10000,0,0,0,
2026-03-29 18:00:00,METAR ZGGG 291800Z 06002MPS 9999 FEW012 OVC020 21/20 Q1009 NOSIG,0,2.0,0,10000,0,0,0,
2026-03-29 17:30:00,METAR ZGGG 291730Z VRB01MPS 9999 FEW012 BKN016 21/20 Q1009 NOSIG,0,1.0,0,10000,0,0,0,
2026-03-29 17:00:00,METAR ZGGG 291700Z 08002MPS 9999 FEW012 BKN016 21/20 Q1010 NOSIG,0,2.0,0,10000,0,0,0,
2026-03-29 16:30:00,METAR ZGGG 291630Z 07002MPS 040V100 9999 FEW012 BKN016 21/20 Q1010 NOSIG,0,2.0,0,10000,0,0,0,
2026-03-29 16:00:00,METAR ZGGG 291600Z 06002MPS 9999 FEW012 SCT014 21/19 Q1010 NOSIG,0,2.0,0,10000,0,0,0,
2026-03-29 15:30:00,METAR ZGGG 291530Z 04002MPS 9999 BKN023 20/19 Q1011 NOSIG,0,2.0,0,10000,0,0,0,
2026-03-29 15:00:00,METAR ZGGG 291500Z 05003MPS CAVOK 20/19 Q1011 NOSIG,1,0.0,0,9999,0,0,0,
2026-03-29 14:30:00,METAR ZGGG 291430Z 04002MPS CAVOK 20/19 Q1011 NOSIG,1,0.0,0,9999,0,0,0,
2026-03-29 14:00:00,METAR ZGGG 291400Z 10003MPS CAVOK 20/19 Q1011 NOSIG,1,0.0,0,9999,0,0,0,
2026-03-29 13:30:00,METAR ZGGG 291330Z VRB02MPS CAVOK 21/19 Q1011 NOSIG,1,0.0,0,9999,0,0,0,
2026-03-29 13:00:00,METAR ZGGG 291300Z VRB01MPS CAVOK 21/19 Q1011 NOSIG,1,0.0,0,9999,0,0,0,
2026-03-29 12:30:00,METAR ZGGG 291230Z 11005MPS CAVOK 21/19 Q1009 NOSIG,1,0.0,0,9999,0,0,0,
2026-03-29 12:00:00,METAR ZGGG 291200Z 10006MPS CAVOK 21/20 Q1009 NOSIG,1,0.0,0,9999,0,0,0,
2026-03-29 11:30:00,METAR ZGGG 291130Z 08004MPS 9999 OVC050 20/20 Q1010 RETS NOSIG,0,4.0,0,10000,1,0,0,TS
2026-03-29 11:00:00,METAR ZGGG 291100Z 26002MPS 190V320 9999 -TSRA SCT010 FEW026CB BKN040 20/20 Q1012 RESHRA BECMG AT1130 -SHRA BKN040,0,2.0,0,10000,1,0,0,RA
2026-03-29 10:51:00,SPECI ZGGG 291051Z 30004G10MPS 220V330 6000 TSRA SCT010 FEW026CB BKN040 20/20 Q1012 BECMG AT1110 -TSRA,0,4.0,1,6000,1,0,0,"RA,TS"
2026-03-29 10:35:00,SPECI ZGGG 291035Z 31009MPS 4000 +TSRA SCT010 SCT026CB BKN040 22/21 Q1012 BECMG AT1130 -TSRA,0,9.0,0,4000,1,0,0,RA
2026-03-29 10:30:00,METAR ZGGG 291030Z 30008G13MPS 260V320 2500 +SHRA SCT016 FEW026CB BKN060 22/21 Q1012 BECMG AT1050 +TSRA SCT010 SCT030CB BKN033,0,8.0,1,2500,1,0,0,RA
2026-03-29 10:26:00,SPECI ZGGG 291026Z 29007G12MPS 4000 +SHRA SCT016 FEW026CB BKN060 23/21 Q1012 BECMG AT1040 1500 +TSRA SCT010 SCT030CB BKN033,0,7.0,1,4000,1,0,0,RA
2026-03-29 10:21:00,SPECI ZGGG 291021Z VRB02MPS 4000 +SHRA SCT016 FEW026CB BKN060 23/21 Q1011 BECMG AT1040 27009G15MPS 1500 +TSRA SCT010 SCT030CB BKN033,0,2.0,0,4000,1,0,0,RA
2026-03-29 10:00:00,METAR ZGGG 291000Z VRB01MPS 9999 FEW010 OVC060 23/20 Q1010 BECMG AT1045 27009G15MPS 1200 +TSRA SCT010 SCT026CB BKN033,0,1.0,0,10000,1,0,0,RA
2026-03-29 09:30:00,METAR ZGGG 290930Z 17002MPS 130V200 9999 FEW010 OVC060 24/21 Q1009 BECMG AT1045 27009G15MPS 1200 +TSRA SCT026CB BKN033,0,2.0,0,10000,1,0,0,RA
2026-03-29 09:00:00,METAR ZGGG 290900Z 20003MPS 9999 FEW010 24/22 Q1008 BECMG AT1045 27009G15MPS 1200 +TSRA SCT026CB BKN033,0,3.0,0,10000,1,0,0,RA
2026-03-29 08:30:00,METAR ZGGG 290830Z 20004MPS 9999 -SHRA FEW010 24/22 Q1008 RETS NOSIG,0,4.0,0,10000,1,0,0,"RA,TS"
2026-03-29 08:10:00,SPECI ZGGG 290810Z 18004MPS 140V200 8000 -TSRA FEW010 FEW026CB BKN050 24/23 Q1008 BECMG AT0820 NSW,0,4.0,0,8000,1,0,0,RA
2026-03-29 08:00:00,METAR ZGGG 290800Z 12005MPS 100V160 8000 -TSRA FEW010 FEW026CB BKN050 23/22 Q1007 RESHRA BECMG AT0820 NSW BKN033,0,5.0,0,8000,1,0,0,RA
2026-03-29 07:45:00,SPECI ZGGG 290745Z 16006MPS 130V190 8000 -TSRA FEW010 SCT026CB BKN050 23/22 Q1008 RESHRA BECMG AT0755 TSRA,0,6.0,0,8000,1,0,0,"RA,TS"
2026-03-29 07:30:00,METAR ZGGG 290730Z 20006MPS 5000 +TSRA SCT010 SCT026CB BKN040 24/23 Q1008 BECMG AT0750 -TSRA,0,6.0,0,5000,1,0,0,RA
2026-03-29 07:07:00,SPECI ZGGG 290707Z 18004MPS 7000 +TSRA SCT026CB BKN040 26/22 Q1009 BECMG AT0740 -TSRA,0,4.0,0,7000,1,0,0,RA
2026-03-29 07:00:00,METAR ZGGG 290700Z 20004MPS 170V230 9999 -TSRA SCT026CB BKN040 27/22 Q1009 BECMG AT0705 +TSRA,0,4.0,0,10000,1,0,0,RA
2026-03-29 06:45:00,SPECI ZGGG 290645Z 18004MPS 9999 TS SCT026CB BKN040 27/21 Q1008 BECMG AT0730 -TSRA,0,4.0,0,10000,1,0,0,"RA,TS"
2026-03-29 06:30:00,METAR ZGGG 290630Z 16004MPS 9999 OVC030 27/21 Q1008 BECMG AT0650 25007G13MPS 1200 +TSRA SCT020 SCT030CB BKN033,0,4.0,0,10000,1,0,0,RA
2026-03-29 06:00:00,METAR ZGGG 290600Z 18003MPS 9999 OVC030 28/21 Q1009 BECMG AT0640 27009G15MPS 1200 +TSRA SCT020 SCT030CB BKN033,0,3.0,0,10000,1,0,0,RA
2026-03-29 05:30:00,METAR ZGGG 290530Z 17003MPS 9999 OVC030 28/21 Q1009 BECMG AT0640 27009G15MPS 1200 +TSRA SCT020 SCT030CB BKN033,0,3.0,0,10000,1,0,0,RA
2026-03-29 05:00:00,METAR ZGGG 290500Z 16003MPS 9999 OVC030 28/21 Q1010 NOSIG,0,3.0,0,10000,0,0,0,
2026-03-29 04:30:00,METAR ZGGG 290430Z 17004MPS 9999 BKN026 29/21 Q1010 NOSIG,0,4.0,0,10000,0,0,0,
2026-03-29 04:00:00,METAR ZGGG 290400Z 16005MPS 9999 BKN026 28/21 Q1011 NOSIG,0,5.0,0,10000,0,0,0,
2026-03-29 03:30:00,METAR ZGGG 290330Z 15004MPS 120V180 9999 BKN026 29/21 Q1011 NOSIG,0,4.0,0,10000,0,0,0,
2026-03-29 03:00:00,METAR ZGGG 290300Z 17005MPS 140V200 9999 OVC020 27/21 Q1012 NOSIG,0,5.0,0,10000,0,0,0,
2026-03-29 02:30:00,METAR ZGGG 290230Z 15005MPS 9999 SCT020 OVC033 28/21 Q1012 NOSIG,0,5.0,0,10000,0,0,0,
2026-03-29 02:00:00,METAR ZGGG 290200Z 15003MPS 9999 SCT020 OVC033 27/22 Q1012 NOSIG,0,3.0,0,10000,0,0,0,
2026-03-29 01:30:00,METAR ZGGG 290130Z 13003MPS 100V170 8000 SCT020 OVC046 26/22 Q1012 NOSIG,0,3.0,0,8000,0,0,0,
2026-03-29 01:00:00,METAR ZGGG 290100Z 14003MPS 8000 SCT020 OVC046 25/21 Q1013 NOSIG,0,3.0,0,8000,0,0,0,
2026-03-29 00:30:00,METAR ZGGG 290030Z 12002MPS 7000 SCT020 OVC046 24/21 Q1012 NOSIG,0,2.0,0,7000,0,0,0,
2026-03-29 00:00:00,METAR ZGGG 290000Z 12003MPS 7000 SCT020 OVC046 24/21 Q1012 NOSIG,0,3.0,0,7000,0,0,0,
2026-03-28 23:30:00,METAR ZGGG 282330Z 13003MPS 5000 BR SCT016 OVC020 24/21 Q1011 NOSIG,0,3.0,0,5000,0,0,1,BR
2026-03-28 23:00:00,METAR ZGGG 282300Z 12003MPS 5000 BR SCT016 OVC020 23/21 Q1011 NOSIG,0,3.0,0,5000,0,0,1,BR
2026-03-28 22:30:00,METAR ZGGG 282230Z 10002MPS 070V150 6000 -SHRA SCT016 OVC023 23/21 Q1011 NOSIG,0,2.0,0,6000,0,0,0,RA
2026-03-28 22:00:00,METAR ZGGG 282200Z 09002MPS 7000 -SHRA SCT016 OVC023 23/21 Q1010 NOSIG,0,2.0,0,7000,0,0,0,RA
2026-03-28 21:30:00,METAR ZGGG 282130Z 09004MPS 7000 -SHRA SCT016 OVC033 23/21 Q1010 NOSIG,0,4.0,0,7000,0,0,0,RA
2026-03-28 21:00:00,METAR ZGGG 282100Z 08004MPS 7000 -SHRA SCT016 OVC033 23/21 Q1010 NOSIG,0,4.0,0,7000,0,0,0,RA
2026-03-28 20:30:00,METAR ZGGG 282030Z 08003MPS 7000 -SHRA SCT016 OVC023 23/22 Q1010 NOSIG,0,3.0,0,7000,0,0,0,RA
2026-03-28 20:00:00,METAR ZGGG 282000Z 07003MPS 7000 SCT016 OVC023 23/22 Q1010 NOSIG,0,3.0,0,7000,0,0,0,
2026-03-28 19:30:00,METAR ZGGG 281930Z 08003MPS 6000 SCT016 OVC026 23/22 Q1010 NOSIG,0,3.0,0,6000,0,0,0,
2026-03-28 19:00:00,METAR ZGGG 281900Z 09003MPS 6000 SCT016 OVC026 24/22 Q1010 NOSIG,0,3.0,0,6000,0,0,0,
2026-03-28 18:30:00,METAR ZGGG 281830Z 09003MPS 6000 SCT016 OVC026 23/22 Q1010 NOSIG,0,3.0,0,6000,0,0,0,
2026-03-28 18:00:00,METAR ZGGG 281800Z 08003MPS 6000 FEW016 OVC033 23/22 Q1010 NOSIG,0,3.0,0,6000,0,0,0,
2026-03-28 17:30:00,METAR ZGGG 281730Z 07002MPS 6000 FEW016 OVC033 23/22 Q1011 NOSIG,0,2.0,0,6000,0,0,0,
2026-03-28 17:00:00,METAR ZGGG 281700Z 07002MPS 7000 OVC023 24/22 Q1011 NOSIG,0,2.0,0,7000,0,0,0,
2026-03-28 16:30:00,METAR ZGGG 281630Z 11002MPS 080V200 9999 OVC023 24/22 Q1011 NOSIG,0,2.0,0,10000,0,0,0,
2026-03-28 16:00:00,METAR ZGGG 281600Z 14004MPS 9999 OVC023 24/22 Q1011 NOSIG,0,4.0,0,10000,0,0,0,
2026-03-28 15:30:00,METAR ZGGG 281530Z 11003MPS 9999 -SHRA OVC023 24/22 Q1011 NOSIG,0,3.0,0,10000,0,0,0,RA
2026-03-28 15:00:00,METAR ZGGG 281500Z 07002MPS 9999 -SHRA OVC023 24/22 Q1011 NOSIG,0,2.0,0,10000,0,0,0,RA
2026-03-28 14:30:00,METAR ZGGG 281430Z 10002MPS 080V140 9999 -SHRA OVC023 24/22 Q1011 NOSIG,0,2.0,0,10000,0,0,0,RA
2026-03-28 14:00:00,METAR ZGGG 281400Z 09003MPS 9999 -SHRA OVC023 24/22 Q1011 NOSIG,0,3.0,0,10000,0,0,0,RA
2026-03-28 13:30:00,METAR ZGGG 281330Z 06002MPS 9000 -SHRA OVC023 24/22 Q1011 NOSIG,0,2.0,0,9000,0,0,0,RA
2026-03-28 13:00:00,METAR ZGGG 281300Z 07002MPS 9000 -SHRA OVC023 24/22 Q1011 NOSIG,0,2.0,0,9000,0,0,0,RA
2026-03-28 12:30:00,METAR ZGGG 281230Z 06002MPS 030V090 9000 -SHRA OVC023 24/22 Q1011 NOSIG,0,2.0,0,9000,0,0,0,RA
2026-03-28 12:00:00,METAR ZGGG 281200Z 08002MPS 9000 -SHRA OVC023 24/22 Q1010 NOSIG,0,2.0,0,9000,0,0,0,RA
2026-03-28 11:30:00,METAR ZGGG 281130Z 11002MPS 9999 OVC026 24/22 Q1010 NOSIG,0,2.0,0,10000,0,0,0,
2026-03-28 11:00:00,METAR ZGGG 281100Z 12002MPS 7000 -SHRA OVC026 24/22 Q1010 NOSIG,0,2.0,0,7000,0,0,0,RA
2026-03-28 10:30:00,METAR ZGGG 281030Z 16003MPS 110V180 4000 -SHRA FEW020 OVC026 25/22 Q1010 NOSIG,0,3.0,0,4000,0,0,0,RA
2026-03-28 10:00:00,METAR ZGGG 281000Z 10002MPS 9999 OVC033 25/21 Q1009 NOSIG,0,2.0,0,10000,0,0,0,
2026-03-28 09:30:00,METAR ZGGG 280930Z 13003MPS 9999 OVC033 25/21 Q1009 NOSIG,0,3.0,0,10000,0,0,0,
2026-03-28 09:00:00,METAR ZGGG 280900Z 14004MPS 9999 OVC033 25/21 Q1009 NOSIG,0,4.0,0,10000,0,0,0,
2026-03-28 08:30:00,METAR ZGGG 280830Z 13005MPS 9999 OVC033 25/21 Q1009 NOSIG,0,5.0,0,10000,0,0,0,
2026-03-28 08:00:00,METAR ZGGG 280800Z 14005MPS 9999 OVC040 26/21 Q1009 NOSIG,0,5.0,0,10000,0,0,0,
2026-03-28 07:30:00,METAR ZGGG 280730Z 15005MPS 9999 SCT030 OVC053 27/21 Q1009 NOSIG,0,5.0,0,10000,0,0,0,
2026-03-28 07:00:00,METAR ZGGG 280700Z 16004MPS 9999 SCT030 OVC043 28/21 Q1009 NOSIG,0,4.0,0,10000,0,0,0,
2026-03-28 06:30:00,METAR ZGGG 280630Z 14005MPS 9999 SCT030 OVC043 27/21 Q1009 NOSIG,0,5.0,0,10000,0,0,0,
2026-03-28 06:00:00,METAR ZGGG 280600Z 08003MPS 9999 SCT030 OVC043 27/23 Q1010 NOSIG,0,3.0,0,10000,0,0,0,
2026-03-28 05:30:00,METAR ZGGG 280530Z 09003MPS 060V120 9999 SCT023 OVC043 27/23 Q1010 NOSIG,0,3.0,0,10000,0,0,0,
2026-03-28 05:00:00,METAR ZGGG 280500Z 05003MPS 010V090 9999 SCT023 OVC043 26/23 Q1011 NOSIG,0,3.0,0,10000,0,0,0,
2026-03-28 04:30:00,METAR ZGGG 280430Z 08002MPS 040V120 9999 SCT023 OVC043 26/22 Q1011 NOSIG,0,2.0,0,10000,0,0,0,
2026-03-28 04:00:00,METAR ZGGG 280400Z 14002MPS 9999 SCT023 OVC043 28/21 Q1012 NOSIG,0,2.0,0,10000,0,0,0,
2026-03-28 03:30:00,METAR ZGGG 280330Z 16003MPS 9999 BKN040 26/21 Q1012 NOSIG,0,3.0,0,10000,0,0,0,
2026-03-28 03:00:00,METAR ZGGG 280300Z 16003MPS 9999 BKN040 26/21 Q1013 NOSIG,0,3.0,0,10000,0,0,0,
2026-03-28 02:30:00,METAR ZGGG 280230Z 14002MPS 9999 BKN040 26/21 Q1013 NOSIG,0,2.0,0,10000,0,0,0,
2026-03-28 02:00:00,METAR ZGGG 280200Z 18002MPS 160V230 9999 SCT020 OVC036 26/21 Q1013 NOSIG,0,2.0,0,10000,0,0,0,
2026-03-28 01:30:00,METAR ZGGG 280130Z 19003MPS 9999 -SHRA FEW016 FEW026CB BKN033 25/21 Q1013 RETSRA NOSIG,0,3.0,0,10000,1,0,0,RA
2026-03-28 01:18:00,SPECI ZGGG 280118Z 18003MPS 140V200 9999 -TSRA FEW016 SCT026CB BKN033 25/21 Q1013 RESHRA BECMG AT0130 NSW BKN033,0,3.0,0,10000,1,0,0,RA
2026-03-28 01:02:00,SPECI ZGGG 280102Z 28003MPS 220V310 9999 TSRA FEW016 SCT026CB BKN033 25/21 Q1013 BECMG AT0140 -TSRA,0,3.0,0,10000,1,0,0,"RA,TS"
2026-03-28 01:00:00,METAR ZGGG 280100Z 28003MPS 220V310 9999 TS FEW016 SCT026CB BKN033 25/21 Q1013 BECMG AT0115 2000 +TSRA,0,3.0,0,10000,1,0,0,"RA,TS"
2026-03-28 00:52:00,SPECI ZGGG 280052Z 17006MPS 140V200 9999 TS FEW016 SCT026CB 25/21 Q1012 BECMG AT0100 33008G18MPS 0700 +TSRAGR,0,6.0,0,10000,1,0,0,"GR,TS"
2026-03-28 00:30:00,METAR ZGGG 280030Z 15005MPS 9999 FEW016 BKN050 25/21 Q1011 BECMG AT0040 33008G15MPS 2500 TSRA FEW015 FEW030CB BKN033,0,5.0,0,10000,1,0,0,"RA,TS"
2026-03-28 00:00:00,METAR ZGGG 280000Z 14003MPS 8000 FEW018 BKN043 25/21 Q1011 BECMG AT0040 33008G15MPS 2500 TSRA FEW015 FEW030CB BKN033,0,3.0,0,8000,1,0,0,"RA,TS"
2026-03-27 23:30:00,METAR ZGGG 272330Z 13003MPS 8000 FEW018 BKN043 24/21 Q1011 NOSIG,0,3.0,0,8000,0,0,0,
2026-03-27 23:00:00,METAR ZGGG 272300Z 13003MPS 8000 FEW018 BKN043 24/21 Q1011 NOSIG,0,3.0,0,8000,0,0,0,
2026-03-27 22:30:00,METAR ZGGG 272230Z 11003MPS 8000 SCT018 BKN043 24/21 Q1011 NOSIG,0,3.0,0,8000,0,0,0,
2026-03-27 22:00:00,METAR ZGGG 272200Z 11002MPS 9999 FEW020 BKN043 24/21 Q1011 NOSIG,0,2.0,0,10000,0,0,0,
2026-03-27 21:30:00,METAR ZGGG 272130Z 10002MPS 9999 FEW020 SCT043 24/21 Q1010 NOSIG,0,2.0,0,10000,0,0,0,
2026-03-27 21:00:00,METAR ZGGG 272100Z 13003MPS 9999 FEW020 SCT040 24/21 Q1010 NOSIG,0,3.0,0,10000,0,0,0,
2026-03-27 20:30:00,METAR ZGGG 272030Z 13002MPS 9999 BKN040 24/21 Q1010 NOSIG,0,2.0,0,10000,0,0,0,
2026-03-27 20:00:00,METAR ZGGG 272000Z 11002MPS 080V140 9999 BKN020 24/21 Q1010 NOSIG,0,2.0,0,10000,0,0,0,
2026-03-27 19:30:00,METAR ZGGG 271930Z 12003MPS 9999 BKN033 24/21 Q1010 NOSIG,0,3.0,0,10000,0,0,0,
2026-03-27 19:00:00,METAR ZGGG 271900Z 11002MPS 9999 BKN020 24/21 Q1011 NOSIG,0,2.0,0,10000,0,0,0,
2026-03-27 18:30:00,METAR ZGGG 271830Z 12002MPS 9999 BKN020 24/21 Q1011 NOSIG,0,2.0,0,10000,0,0,0,
2026-03-27 18:00:00,METAR ZGGG 271800Z 12002MPS 9999 BKN033 24/21 Q1011 NOSIG,0,2.0,0,10000,0,0,0,
2026-03-27 17:30:00,METAR ZGGG 271730Z 13002MPS 100V190 9999 BKN033 24/21 Q1011 NOSIG,0,2.0,0,10000,0,0,0,
2026-03-27 17:00:00,METAR ZGGG 271700Z 12002MPS 9999 BKN033 24/21 Q1011 NOSIG,0,2.0,0,10000,0,0,0,
2026-03-27 16:30:00,METAR ZGGG 271630Z 13002MPS 9999 BKN033 24/21 Q1011 NOSIG,0,2.0,0,10000,0,0,0,
2026-03-27 16:00:00,METAR ZGGG 271600Z 13002MPS 9999 BKN050 25/21 Q1012 NOSIG,0,2.0,0,10000,0,0,0,
2026-03-25 15:00:00,METAR ZGGG 251500Z 17004MPS CAVOK 27/21 Q1011 NOSIG,1,0.0,0,9999,0,0,0,
2026-03-25 14:30:00,METAR ZGGG 251430Z 17004MPS CAVOK 27/21 Q1011 NOSIG,1,0.0,0,9999,0,0,0,
2026-03-25 14:00:00,METAR ZGGG 251400Z 17004MPS CAVOK 27/20 Q1011 NOSIG,1,0.0,0,9999,0,0,0,
2026-03-25 13:30:00,METAR ZGGG 251330Z 15004MPS CAVOK 28/20 Q1011 NOSIG,1,0.0,0,9999,0,0,0,
2026-03-25 13:00:00,METAR ZGGG 251300Z 17003MPS CAVOK 28/20 Q1011 NOSIG,1,0.0,0,9999,0,0,0,
2026-03-25 12:30:00,METAR ZGGG 251230Z 18003MPS CAVOK 28/20 Q1011 NOSIG,1,0.0,0,9999,0,0,0,
2026-03-25 12:00:00,METAR ZGGG 251200Z 13003MPS CAVOK 28/20 Q1010 NOSIG,1,0.0,0,9999,0,0,0,
2026-03-25 11:30:00,METAR ZGGG 251130Z 13003MPS 9999 FEW050 29/20 Q1010 NOSIG,0,3.0,0,10000,0,0,0,
2026-03-25 11:00:00,METAR ZGGG 251100Z 14003MPS 9999 FEW050 30/20 Q1010 NOSIG,0,3.0,0,10000,0,0,0,
2026-03-25 10:30:00,METAR ZGGG 251030Z 16004MPS 9999 FEW050 30/20 Q1010 NOSIG,0,4.0,0,10000,0,0,0,
2026-03-25 10:00:00,METAR ZGGG 251000Z 18003MPS 9999 SCT050 31/19 Q1010 NOSIG,0,3.0,0,10000,0,0,0,
2026-03-25 09:30:00,METAR ZGGG 250930Z 18003MPS 140V200 9999 SCT060 31/19 Q1010 NOSIG,0,3.0,0,10000,0,0,0,
2026-03-25 09:00:00,METAR ZGGG 250900Z 14003MPS 100V180 9999 SCT060 31/19 Q1010 NOSIG,0,3.0,0,10000,0,0,0,
2026-03-25 08:30:00,METAR ZGGG 250830Z 14003MPS 100V190 9999 SCT060 32/20 Q1010 NOSIG,0,3.0,0,10000,0,0,0,
2026-03-25 08:00:00,METAR ZGGG 250800Z VRB01MPS 9999 SCT050 32/20 Q1010 NOSIG,0,1.0,0,10000,0,0,0,
2026-03-25 07:30:00,METAR ZGGG 250730Z 21002MPS 180V300 9999 FEW050 32/19 Q1010 NOSIG,0,2.0,0,10000,0,0,0,
2026-03-25 07:00:00,METAR ZGGG 250700Z 16003MPS 100V210 9999 SCT050 32/19 Q1010 NOSIG,0,3.0,0,10000,0,0,0,
2026-03-25 06:30:00,METAR ZGGG 250630Z VRB01MPS 9999 SCT050 31/20 Q1011 NOSIG,0,1.0,0,10000,0,0,0,
2026-03-25 06:00:00,METAR ZGGG 250600Z VRB02MPS 9999 SCT050 32/19 Q1011 NOSIG,0,2.0,0,10000,0,0,0,
2026-03-25 05:30:00,METAR ZGGG 250530Z VRB01MPS 9999 SCT040 32/19 Q1012 NOSIG,0,1.0,0,10000,0,0,0,
2026-03-25 05:00:00,METAR ZGGG 250500Z 21002MPS 160V280 9999 SCT040 31/20 Q1012 NOSIG,0,2.0,0,10000,0,0,0,
2026-03-25 04:30:00,METAR ZGGG 250430Z VRB02MPS 9000 FEW033 30/20 Q1013 NOSIG,0,2.0,0,9000,0,0,0,
2026-03-25 04:00:00,METAR ZGGG 250400Z VRB01MPS 9000 SCT030 30/21 Q1013 NOSIG,0,1.0,0,9000,0,0,0,
2026-03-25 03:30:00,METAR ZGGG 250330Z VRB01MPS 8000 SCT030 30/20 Q1014 NOSIG,0,1.0,0,8000,0,0,0,
2026-03-25 03:00:00,METAR ZGGG 250300Z VRB02MPS 8000 SCT030 30/21 Q1014 NOSIG,0,2.0,0,8000,0,0,0,
2026-03-25 02:30:00,METAR ZGGG 250230Z VRB02MPS 8000 FEW036 28/20 Q1014 NOSIG,0,2.0,0,8000,0,0,0,
2026-03-25 02:00:00,METAR ZGGG 250200Z VRB01MPS 8000 FEW036 27/20 Q1014 NOSIG,0,1.0,0,8000,0,0,0,
2026-03-25 01:30:00,METAR ZGGG 250130Z VRB01MPS 8000 FEW036 27/20 Q1014 NOSIG,0,1.0,0,8000,0,0,0,
2026-03-25 01:00:00,METAR ZGGG 250100Z 10002MPS 7000 FEW036 26/21 Q1014 NOSIG,0,2.0,0,7000,0,0,0,
2026-03-25 00:30:00,METAR ZGGG 250030Z VRB01MPS 7000 FEW036 24/20 Q1014 NOSIG,0,1.0,0,7000,0,0,0,
2026-03-25 00:00:00,METAR ZGGG 250000Z 05002MPS 7000 FEW036 23/20 Q1014 NOSIG,0,2.0,0,7000,0,0,0,
2026-03-24 23:30:00,METAR ZGGG 242330Z 04002MPS 7000 FEW043 22/20 Q1013 NOSIG,0,2.0,0,7000,0,0,0,
2026-03-24 23:00:00,METAR ZGGG 242300Z 07001MPS 7000 FEW046 22/20 Q1013 NOSIG,0,1.0,0,7000,0,0,0,
2026-03-24 22:30:00,METAR ZGGG 242230Z 08002MPS 7000 FEW046 21/20 Q1013 NOSIG,0,2.0,0,7000,0,0,0,
2026-03-24 22:00:00,METAR ZGGG 242200Z 09003MPS 9000 NSC 22/20 Q1012 NOSIG,0,3.0,0,9000,0,0,0,
2026-03-24 21:30:00,METAR ZGGG 242130Z 07002MPS 8000 NSC 22/20 Q1012 NOSIG,0,2.0,0,8000,0,0,0,
2026-03-24 21:00:00,METAR ZGGG 242100Z 07003MPS 8000 NSC 22/20 Q1012 NOSIG,0,3.0,0,8000,0,0,0,
2026-03-24 20:30:00,METAR ZGGG 242030Z 09002MPS 8000 NSC 23/20 Q1012 NOSIG,0,2.0,0,8000,0,0,0,
2026-03-24 20:00:00,METAR ZGGG 242000Z 07002MPS 9999 FEW060 23/20 Q1012 NOSIG,0,2.0,0,10000,0,0,0,
2026-03-24 19:30:00,METAR ZGGG 241930Z 08002MPS 9999 FEW040 23/20 Q1012 NOSIG,0,2.0,0,10000,0,0,0,
2026-03-24 19:00:00,METAR ZGGG 241900Z 08002MPS 9999 FEW040 23/20 Q1012 NOSIG,0,2.0,0,10000,0,0,0,
2026-03-24 18:30:00,METAR ZGGG 241830Z 06001MPS 9999 FEW040 23/20 Q1012 NOSIG,0,1.0,0,10000,0,0,0,
2026-03-24 18:00:00,METAR ZGGG 241800Z 03001MPS 9999 FEW040 23/20 Q1012 NOSIG,0,1.0,0,10000,0,0,0,
2026-03-24 17:30:00,METAR ZGGG 241730Z 08002MPS 9999 FEW040 24/20 Q1012 NOSIG,0,2.0,0,10000,0,0,0,
2026-03-24 17:00:00,METAR ZGGG 241700Z 11001MPS 9999 FEW040 24/20 Q1012 NOSIG,0,1.0,0,10000,0,0,0,
2026-03-24 16:30:00,METAR ZGGG 241630Z 16001MPS 9999 FEW040 24/20 Q1012 NOSIG,0,1.0,0,10000,0,0,0,
2026-03-24 16:00:00,METAR ZGGG 241600Z 14002MPS 9999 FEW043 25/20 Q1012 NOSIG,0,2.0,0,10000,0,0,0,
2026-03-24 15:30:00,METAR ZGGG 241530Z 14002MPS 120V180 9999 FEW043 25/20 Q1012 NOSIG,0,2.0,0,10000,0,0,0,
2026-03-24 15:00:00,METAR ZGGG 241500Z 13002MPS 9999 FEW043 25/20 Q1012 NOSIG,0,2.0,0,10000,0,0,0,
2026-03-24 14:30:00,METAR ZGGG 241430Z 14002MPS 9999 FEW043 25/20 Q1012 NOSIG,0,2.0,0,10000,0,0,0,
2026-03-24 14:00:00,METAR ZGGG 241400Z 12003MPS 9999 SCT043 26/20 Q1012 NOSIG,0,3.0,0,10000,0,0,0,
2026-03-24 13:30:00,METAR ZGGG 241330Z 11002MPS 9999 SCT043 26/20 Q1012 NOSIG,0,2.0,0,10000,0,0,0,
2026-03-24 13:00:00,METAR ZGGG 241300Z 12002MPS CAVOK 26/20 Q1012 NOSIG,1,0.0,0,9999,0,0,0,
2026-03-24 12:30:00,METAR ZGGG 241230Z 08002MPS CAVOK 26/19 Q1012 NOSIG,1,0.0,0,9999,0,0,0,
2026-03-24 12:00:00,METAR ZGGG 241200Z VRB01MPS CAVOK 27/19 Q1011 NOSIG,1,0.0,0,9999,0,0,0,
2026-03-24 11:30:00,METAR ZGGG 241130Z VRB02MPS CAVOK 27/19 Q1011 NOSIG,1,0.0,0,9999,0,0,0,
2026-03-24 11:00:00,METAR ZGGG 241100Z 26002MPS 230V300 CAVOK 27/19 Q1011 NOSIG,1,0.0,0,9999,0,0,0,
2026-03-24 10:30:00,METAR ZGGG 241030Z 27002MPS 240V300 CAVOK 27/19 Q1010 NOSIG,1,0.0,0,9999,0,0,0,
2026-03-24 10:00:00,METAR ZGGG 241000Z 28003MPS 9999 BKN043 27/19 Q1010 NOSIG,0,3.0,0,10000,0,0,0,
2026-03-24 09:30:00,METAR ZGGG 240930Z 25003MPS 220V280 9999 BKN043 28/18 Q1010 NOSIG,0,3.0,0,10000,0,0,0,
2026-03-24 09:00:00,METAR ZGGG 240900Z 23002MPS 180V270 9999 BKN043 28/19 Q1010 NOSIG,0,2.0,0,10000,0,0,0,
2026-03-24 08:30:00,METAR ZGGG 240830Z 23003MPS 200V260 9999 BKN043 28/18 Q1010 NOSIG,0,3.0,0,10000,0,0,0,
2026-03-24 08:00:00,METAR ZGGG 240800Z 19004MPS 160V220 9999 BKN040 29/18 Q1010 NOSIG,0,4.0,0,10000,0,0,0,
2026-03-24 07:30:00,METAR ZGGG 240730Z 20003MPS 150V230 9999 BKN040 28/18 Q1010 NOSIG,0,3.0,0,10000,0,0,0,
2026-03-24 07:00:00,METAR ZGGG 240700Z 19003MPS 110V260 9999 BKN040 29/18 Q1010 NOSIG,0,3.0,0,10000,0,0,0,
2026-03-24 06:30:00,METAR ZGGG 240630Z 20003MPS 150V320 9999 BKN040 28/18 Q1011 NOSIG,0,3.0,0,10000,0,0,0,
2026-03-24 06:00:00,METAR ZGGG 240600Z 18004MPS 150V210 9999 BKN040 29/19 Q1011 NOSIG,0,4.0,0,10000,0,0,0,
2026-03-24 05:30:00,METAR ZGGG 240530Z 16003MPS 100V220 9999 BKN033 29/18 Q1012 NOSIG,0,3.0,0,10000,0,0,0,
2026-03-24 05:00:00,METAR ZGGG 240500Z 22003MPS 150V250 9999 BKN033 28/19 Q1012 NOSIG,0,3.0,0,10000,0,0,0,
2026-03-24 04:30:00,METAR ZGGG 240430Z 19004MPS 160V250 9999 BKN033 29/19 Q1013 NOSIG,0,4.0,0,10000,0,0,0,
2026-03-24 04:00:00,METAR ZGGG 240400Z 17004MPS 140V200 9999 BKN033 28/19 Q1013 NOSIG,0,4.0,0,10000,0,0,0,
2026-03-24 03:30:00,METAR ZGGG 240330Z 16003MPS 130V200 9999 SCT033 29/19 Q1014 NOSIG,0,3.0,0,10000,0,0,0,
2026-03-24 03:00:00,METAR ZGGG 240300Z 17003MPS 130V220 9999 SCT033 28/20 Q1014 NOSIG,0,3.0,0,10000,0,0,0,
2026-03-24 02:30:00,METAR ZGGG 240230Z 15002MPS 100V190 9999 SCT033 26/19 Q1014 NOSIG,0,2.0,0,10000,0,0,0,
2026-03-24 02:00:00,METAR ZGGG 240200Z 16002MPS 090V200 9999 SCT020 OVC033 26/20 Q1014 NOSIG,0,2.0,0,10000,0,0,0,
2026-03-24 01:30:00,METAR ZGGG 240130Z 15003MPS 120V190 9999 OVC033 25/19 Q1014 NOSIG,0,3.0,0,10000,0,0,0,
2026-03-24 01:00:00,METAR ZGGG 240100Z 13002MPS 9999 OVC030 24/20 Q1014 NOSIG,0,2.0,0,10000,0,0,0,
2026-03-24 00:30:00,METAR ZGGG 240030Z 14003MPS 9999 BKN030 24/19 Q1014 NOSIG,0,3.0,0,10000,0,0,0,
2026-03-24 00:00:00,METAR ZGGG 240000Z 14003MPS 8000 OVC030 23/19 Q1014 NOSIG,0,3.0,0,8000,0,0,0,
2026-03-23 23:30:00,METAR ZGGG 232330Z 14002MPS 9000 OVC030 23/20 Q1013 NOSIG,0,2.0,0,9000,0,0,0,
2026-03-23 23:00:00,METAR ZGGG 232300Z 12002MPS 8000 BKN026 23/19 Q1013 NOSIG,0,2.0,0,8000,0,0,0,
2026-03-23 22:30:00,METAR ZGGG 232230Z 15001MPS 7000 OVC023 22/19 Q1013 NOSIG,0,1.0,0,7000,0,0,0,
2026-03-23 22:00:00,METAR ZGGG 232200Z VRB01MPS 8000 BKN023 22/19 Q1012 NOSIG,0,1.0,0,8000,0,0,0,
2026-03-23 21:30:00,METAR ZGGG 232130Z VRB01MPS 8000 BKN020 22/19 Q1012 NOSIG,0,1.0,0,8000,0,0,0,
2026-03-23 21:00:00,METAR ZGGG 232100Z VRB01MPS 8000 BKN020 21/19 Q1011 NOSIG,0,1.0,0,8000,0,0,0,
2026-03-23 20:30:00,METAR ZGGG 232030Z 14002MPS 8000 BKN023 22/19 Q1011 NOSIG,0,2.0,0,8000,0,0,0,
2026-03-23 20:00:00,METAR ZGGG 232000Z 12003MPS 8000 NSC 22/19 Q1011 NOSIG,0,3.0,0,8000,0,0,0,
2026-03-23 19:30:00,METAR ZGGG 231930Z 11003MPS 8000 NSC 22/19 Q1011 NOSIG,0,3.0,0,8000,0,0,0,
2026-03-23 19:00:00,METAR ZGGG 231900Z 11002MPS CAVOK 22/19 Q1011 NOSIG,1,0.0,0,9999,0,0,0,
2026-03-23 18:30:00,METAR ZGGG 231830Z 12003MPS 100V170 CAVOK 23/19 Q1012 NOSIG,1,0.0,0,9999,0,0,0,
2026-03-23 18:00:00,METAR ZGGG 231800Z VRB01MPS CAVOK 23/19 Q1012 NOSIG,1,0.0,0,9999,0,0,0,
2026-03-23 17:30:00,METAR ZGGG 231730Z 12002MPS CAVOK 23/19 Q1012 NOSIG,1,0.0,0,9999,0,0,0,
2026-03-23 17:00:00,METAR ZGGG 231700Z 14002MPS CAVOK 23/19 Q1013 NOSIG,1,0.0,0,9999,0,0,0,
2026-03-23 16:30:00,METAR ZGGG 231630Z 14002MPS 100V170 CAVOK 24/20 Q1013 NOSIG,1,0.0,0,9999,0,0,0,
2026-03-23 16:00:00,METAR ZGGG 231600Z 14003MPS CAVOK 24/20 Q1013 NOSIG,1,0.0,0,9999,0,0,0,
2026-03-23 15:30:00,METAR ZGGG 231530Z 17003MPS CAVOK 24/20 Q1013 NOSIG,1,0.0,0,9999,0,0,0,
2026-03-23 15:00:00,METAR ZGGG 231500Z 15003MPS CAVOK 25/20 Q1013 NOSIG,1,0.0,0,9999,0,0,0,
2026-03-23 14:30:00,METAR ZGGG 231430Z 16003MPS CAVOK 25/20 Q1013 NOSIG,1,0.0,0,9999,0,0,0,
2026-03-23 14:00:00,METAR ZGGG 231400Z 15003MPS 9999 FEW043 25/19 Q1013 NOSIG,0,3.0,0,10000,0,0,0,
2026-03-23 13:30:00,METAR ZGGG 231330Z 15004MPS 9999 SCT046 25/19 Q1013 NOSIG,0,4.0,0,10000,0,0,0,
2026-03-23 13:00:00,METAR ZGGG 231300Z 15004MPS 9999 SCT043 26/19 Q1013 NOSIG,0,4.0,0,10000,0,0,0,
2026-03-23 12:30:00,METAR ZGGG 231230Z 14004MPS 9999 SCT043 26/19 Q1012 NOSIG,0,4.0,0,10000,0,0,0,
2026-03-23 12:00:00,METAR ZGGG 231200Z 15002MPS 9999 BKN046 27/19 Q1012 NOSIG,0,2.0,0,10000,0,0,0,
2026-03-23 11:30:00,METAR ZGGG 231130Z 17002MPS 9999 BKN050 27/19 Q1012 NOSIG,0,2.0,0,10000,0,0,0,
2026-03-23 11:00:00,METAR ZGGG 231100Z 19002MPS 9999 BKN050 27/19 Q1012 NOSIG,0,2.0,0,10000,0,0,0,
2026-03-23 10:30:00,METAR ZGGG 231030Z 17003MPS 9999 FEW050 28/19 Q1011 NOSIG,0,3.0,0,10000,0,0,0,
2026-03-23 10:00:00,METAR ZGGG 231000Z 19003MPS 9999 FEW050 28/19 Q1011 NOSIG,0,3.0,0,10000,0,0,0,
2026-03-23 09:30:00,METAR ZGGG 230930Z 19003MPS 9999 FEW050 29/19 Q1011 NOSIG,0,3.0,0,10000,0,0,0,
2026-03-23 09:00:00,METAR ZGGG 230900Z 17002MPS 120V230 9999 FEW040 30/19 Q1011 NOSIG,0,2.0,0,10000,0,0,0,
2026-03-23 08:30:00,METAR ZGGG 230830Z VRB02MPS 9999 BKN036 28/19 Q1011 NOSIG,0,2.0,0,10000,0,0,0,
2026-03-23 08:00:00,METAR ZGGG 230800Z 22003MPS 9999 BKN036 28/19 Q1011 NOSIG,0,3.0,0,10000,0,0,0,
2026-03-23 07:30:00,METAR ZGGG 230730Z 21003MPS 150V280 9999 BKN036 28/19 Q1012 NOSIG,0,3.0,0,10000,0,0,0,
2026-03-23 07:00:00,METAR ZGGG 230700Z 24003MPS 200V280 9999 OVC036 28/20 Q1012 NOSIG,0,3.0,0,10000,0,0,0,
2026-03-23 06:30:00,METAR ZGGG 230630Z 22004MPS 9999 OVC033 29/19 Q1012 NOSIG,0,4.0,0,10000,0,0,0,
2026-03-23 06:00:00,METAR ZGGG 230600Z 25003MPS 200V350 9999 OVC026 28/20 Q1012 NOSIG,0,3.0,0,10000,0,0,0,
2026-03-23 05:30:00,METAR ZGGG 230530Z 17003MPS 130V220 9999 OVC026 29/19 Q1013 NOSIG,0,3.0,0,10000,0,0,0,
2026-03-23 05:00:00,METAR ZGGG 230500Z 18003MPS 150V290 9999 OVC026 28/19 Q1014 NOSIG,0,3.0,0,10000,0,0,0,
2026-03-23 04:30:00,METAR ZGGG 230430Z 24002MPS 190V280 9999 OVC026 27/20 Q1014 NOSIG,0,2.0,0,10000,0,0,0,
2026-03-23 04:00:00,METAR ZGGG 230400Z 26002MPS 190V310 9999 BKN026 27/19 Q1014 NOSIG,0,2.0,0,10000,0,0,0,
2026-03-23 03:30:00,METAR ZGGG 230330Z 23002MPS 150V270 9999 BKN026 26/19 Q1015 NOSIG,0,2.0,0,10000,0,0,0,
2026-03-23 03:00:00,METAR ZGGG 230300Z 22002MPS 190V270 9999 BKN026 27/20 Q1015 NOSIG,0,2.0,0,10000,0,0,0,
2026-03-23 02:30:00,METAR ZGGG 230230Z VRB01MPS 9999 BKN023 26/20 Q1015 NOSIG,0,1.0,0,10000,0,0,0,
2026-03-23 02:00:00,METAR ZGGG 230200Z VRB02MPS 9999 FEW020 BKN030 26/20 Q1015 NOSIG,0,2.0,0,10000,0,0,0,
2026-03-23 01:30:00,METAR ZGGG 230130Z VRB01MPS 8000 BKN030 25/20 Q1015 NOSIG,0,1.0,0,8000,0,0,0,
2026-03-23 01:00:00,METAR ZGGG 230100Z 15002MPS 120V200 7000 BKN030 24/20 Q1015 NOSIG,0,2.0,0,7000,0,0,0,
2026-03-23 00:30:00,METAR ZGGG 230030Z 16002MPS 7000 BKN030 24/20 Q1015 NOSIG,0,2.0,0,7000,0,0,0,
2026-03-23 00:00:00,METAR ZGGG 230000Z 15001MPS 6000 SCT026 23/20 Q1015 NOSIG,0,1.0,0,6000,0,0,0,
2026-03-22 23:30:00,METAR ZGGG 222330Z 16001MPS 6000 SCT026 22/20 Q1015 NOSIG,0,1.0,0,6000,0,0,0,
2026-03-22 23:00:00,METAR ZGGG 222300Z 12001MPS 6000 SCT026 22/20 Q1014 NOSIG,0,1.0,0,6000,0,0,0,
2026-03-22 22:30:00,METAR ZGGG 222230Z 12001MPS 6000 SCT026 22/19 Q1014 NOSIG,0,1.0,0,6000,0,0,0,
2026-03-22 22:00:00,METAR ZGGG 222200Z 13002MPS 9999 SCT026 22/19 Q1013 NOSIG,0,2.0,0,10000,0,0,0,
2026-03-22 21:30:00,METAR ZGGG 222130Z 12002MPS 9999 OVC026 22/19 Q1013 NOSIG,0,2.0,0,10000,0,0,0,
2026-03-22 21:00:00,METAR ZGGG 222100Z 14002MPS 9999 OVC026 23/20 Q1013 NOSIG,0,2.0,0,10000,0,0,0,
2026-03-22 20:30:00,METAR ZGGG 222030Z 15001MPS 9999 OVC026 23/20 Q1013 NOSIG,0,1.0,0,10000,0,0,0,
2026-03-22 20:00:00,METAR ZGGG 222000Z 13001MPS 9999 OVC026 23/20 Q1013 NOSIG,0,1.0,0,10000,0,0,0,
2026-03-22 19:30:00,METAR ZGGG 221930Z VRB01MPS 9999 OVC030 22/20 Q1013 NOSIG,0,1.0,0,10000,0,0,0,
2026-03-22 19:00:00,METAR ZGGG 221900Z 16001MPS 9999 OVC030 23/20 Q1014 NOSIG,0,1.0,0,10000,0,0,0,
2026-03-22 18:30:00,METAR ZGGG 221830Z 17002MPS 9999 OVC030 23/20 Q1014 NOSIG,0,2.0,0,10000,0,0,0,
2026-03-22 18:00:00,METAR ZGGG 221800Z 15002MPS 9999 OVC030 23/20 Q1014 NOSIG,0,2.0,0,10000,0,0,0,
2026-03-22 17:30:00,METAR ZGGG 221730Z 13003MPS 9999 OVC030 23/19 Q1015 NOSIG,0,3.0,0,10000,0,0,0,
2026-03-22 17:00:00,METAR ZGGG 221700Z 12002MPS 9999 OVC030 23/19 Q1015 NOSIG,0,2.0,0,10000,0,0,0,
2026-03-22 16:30:00,METAR ZGGG 221630Z 14002MPS 9999 OVC036 24/19 Q1015 NOSIG,0,2.0,0,10000,0,0,0,
2026-03-22 16:00:00,METAR ZGGG 221600Z 14003MPS 9999 OVC036 24/19 Q1015 NOSIG,0,3.0,0,10000,0,0,0,
2026-03-22 15:30:00,METAR ZGGG 221530Z 14003MPS 9999 OVC036 24/19 Q1015 NOSIG,0,3.0,0,10000,0,0,0,
2026-03-22 15:00:00,METAR ZGGG 221500Z 16002MPS 9999 OVC036 24/19 Q1016 NOSIG,0,2.0,0,10000,0,0,0,
2026-03-22 14:30:00,METAR ZGGG 221430Z 15001MPS 9999 OVC036 23/19 Q1015 NOSIG,0,1.0,0,10000,0,0,0,
2026-03-22 14:00:00,METAR ZGGG 221400Z 14003MPS 9999 OVC036 24/19 Q1015 NOSIG,0,3.0,0,10000,0,0,0,
2026-03-22 13:30:00,METAR ZGGG 221330Z 14003MPS 9999 OVC036 25/19 Q1015 NOSIG,0,3.0,0,10000,0,0,0,
2026-03-22 13:00:00,METAR ZGGG 221300Z 14002MPS 9999 OVC036 25/19 Q1015 NOSIG,0,2.0,0,10000,0,0,0,
2026-03-22 12:30:00,METAR ZGGG 221230Z 14003MPS 9999 OVC036 25/19 Q1015 NOSIG,0,3.0,0,10000,0,0,0,
2026-03-22 12:00:00,METAR ZGGG 221200Z 13003MPS 9999 OVC036 25/20 Q1014 NOSIG,0,3.0,0,10000,0,0,0,
2026-03-22 11:30:00,METAR ZGGG 221130Z 11002MPS 9999 OVC036 26/19 Q1014 NOSIG,0,2.0,0,10000,0,0,0,
2026-03-22 11:00:00,METAR ZGGG 221100Z 15001MPS 9999 OVC036 26/19 Q1014 NOSIG,0,1.0,0,10000,0,0,0,
2026-03-22 10:30:00,METAR ZGGG 221030Z 16002MPS 9999 OVC040 26/19 Q1013 NOSIG,0,2.0,0,10000,0,0,0,
2026-03-22 10:00:00,METAR ZGGG 221000Z 18002MPS 9999 OVC043 26/19 Q1013 NOSIG,0,2.0,0,10000,0,0,0,
2026-03-22 09:30:00,METAR ZGGG 220930Z 16003MPS 9999 OVC043 26/19 Q1013 NOSIG,0,3.0,0,10000,0,0,0,
2026-03-22 09:00:00,METAR ZGGG 220900Z 19002MPS 9999 OVC043 26/19 Q1013 NOSIG,0,2.0,0,10000,0,0,0,
2026-03-22 08:30:00,METAR ZGGG 220830Z 22002MPS 180V250 9999 OVC030 26/19 Q1013 NOSIG,0,2.0,0,10000,0,0,0,
2026-03-22 08:00:00,METAR ZGGG 220800Z 22003MPS 190V260 9999 OVC030 26/19 Q1013 NOSIG,0,3.0,0,10000,0,0,0,
2026-03-22 07:30:00,METAR ZGGG 220730Z 20002MPS 170V230 9999 OVC030 26/19 Q1013 NOSIG,0,2.0,0,10000,0,0,0,
2026-03-22 07:00:00,METAR ZGGG 220700Z 21003MPS 170V240 9999 OVC030 26/19 Q1013 NOSIG,0,3.0,0,10000,0,0,0,
2026-03-22 06:30:00,METAR ZGGG 220630Z 18003MPS 150V210 9999 BKN026 26/19 Q1014 NOSIG,0,3.0,0,10000,0,0,0,
2026-03-22 06:00:00,METAR ZGGG 220600Z 20004MPS 9999 BKN026 26/19 Q1014 NOSIG,0,4.0,0,10000,0,0,0,
2026-03-22 05:30:00,METAR ZGGG 220530Z 19004MPS 160V220 9999 BKN026 26/19 Q1015 NOSIG,0,4.0,0,10000,0,0,0,
2026-03-22 05:00:00,METAR ZGGG 220500Z 21005MPS 9999 BKN020 26/20 Q1015 NOSIG,0,5.0,0,10000,0,0,0,
2026-03-22 04:30:00,METAR ZGGG 220430Z 17004MPS 9999 BKN020 27/20 Q1016 NOSIG,0,4.0,0,10000,0,0,0,
2026-03-22 04:00:00,METAR ZGGG 220400Z 18005MPS 9999 BKN020 26/20 Q1016 NOSIG,0,5.0,0,10000,0,0,0,
2026-03-22 03:30:00,METAR ZGGG 220330Z 17005MPS 8000 SCT027 26/20 Q1016 NOSIG,0,5.0,0,8000,0,0,0,
2026-03-22 03:00:00,METAR ZGGG 220300Z 17003MPS 140V210 6000 SCT015 OVC027 25/20 Q1017 NOSIG,0,3.0,0,6000,0,0,0,
2026-03-22 02:30:00,METAR ZGGG 220230Z 13003MPS 100V160 4500 BR SCT015 OVC027 24/20 Q1017 NOSIG,0,3.0,0,4500,0,0,1,BR
2026-03-22 02:00:00,METAR ZGGG 220200Z 14002MPS 100V220 4500 BR SCT015 OVC027 23/20 Q1017 NOSIG,0,2.0,0,4500,0,0,1,BR
2026-03-22 01:30:00,METAR ZGGG 220130Z VRB01MPS 4500 BR OVC027 23/20 Q1017 NOSIG,0,1.0,0,4500,0,0,1,BR
2026-03-22 01:00:00,METAR ZGGG 220100Z 09002MPS 4500 BR OVC021 22/20 Q1017 NOSIG,0,2.0,0,4500,0,0,1,BR
2026-03-22 00:30:00,METAR ZGGG 220030Z 05002MPS 4500 BR OVC021 21/19 Q1017 NOSIG,0,2.0,0,4500,0,0,1,BR
2026-03-22 00:00:00,METAR ZGGG 220000Z 06002MPS 4500 BR OVC016 21/20 Q1016 NOSIG,0,2.0,0,4500,0,0,1,BR
2026-03-21 23:30:00,METAR ZGGG 212330Z 08002MPS 4200 BR OVC026 21/20 Q1016 NOSIG,0,2.0,0,4200,0,0,1,BR
2026-03-21 23:00:00,METAR ZGGG 212300Z 07003MPS 3700 BR OVC026 21/20 Q1015 NOSIG,0,3.0,0,3700,0,0,1,BR
2026-03-21 22:30:00,METAR ZGGG 212230Z 03001MPS 4200 BR OVC020 21/20 Q1015 NOSIG,0,1.0,0,4200,0,0,1,BR
2026-03-21 22:00:00,METAR ZGGG 212200Z 08003MPS 060V140 4500 -RA BR SCT010 OVC020 21/20 Q1015 NOSIG,0,3.0,0,4500,0,0,1,"-RA,BR"
2026-03-21 21:30:00,METAR ZGGG 212130Z 07001MPS 3700 -RA BR SCT010 OVC020 20/20 Q1015 NOSIG,0,1.0,0,3700,0,0,1,"-RA,BR"
2026-03-21 21:00:00,METAR ZGGG 212100Z 09003MPS 3200 -RA BR SCT010 OVC020 21/20 Q1014 NOSIG,0,3.0,0,3200,0,0,1,"-RA,BR"
2026-03-21 20:30:00,METAR ZGGG 212030Z 07002MPS 4700 -RA BR SCT010 OVC020 21/20 Q1014 NOSIG,0,2.0,0,4700,0,0,1,"-RA,BR"
2026-03-21 20:00:00,METAR ZGGG 212000Z 08002MPS 4700 -RA BR SCT006 SCT010 OVC016 21/20 Q1014 NOSIG,0,2.0,0,4700,0,0,1,"-RA,BR"
2026-03-21 19:30:00,METAR ZGGG 211930Z 07002MPS 4200 -RA BR SCT006 SCT010 OVC016 21/20 Q1015 NOSIG,0,2.0,0,4200,0,0,1,"-RA,BR"
2026-03-21 19:00:00,METAR ZGGG 211900Z 08002MPS 4200 -RA BR SCT005 SCT008 OVC016 20/20 Q1015 NOSIG,0,2.0,0,4200,0,0,1,"-RA,BR"
2026-03-21 18:30:00,METAR ZGGG 211830Z 06002MPS 4200 -RA BR SCT005 SCT008 OVC016 20/20 Q1015 NOSIG,0,2.0,0,4200,0,0,1,"-RA,BR"
2026-03-21 18:00:00,METAR ZGGG 211800Z 04002MPS 4200 -RA BR SCT005 SCT008 OVC016 20/20 Q1015 NOSIG,0,2.0,0,4200,0,0,1,"-RA,BR"
2026-03-21 17:30:00,METAR ZGGG 211730Z 05001MPS 3900 -RA BR SCT004 SCT008 OVC016 20/20 Q1016 NOSIG,0,1.0,0,3900,0,0,1,"-RA,BR"
2026-03-21 17:00:00,METAR ZGGG 211700Z VRB01MPS 3200 -RA BR SCT004 SCT008 OVC016 21/20 Q1016 NOSIG,0,1.0,0,3200,0,0,1,"-RA,BR"
2026-03-21 16:30:00,METAR ZGGG 211630Z 08001MPS 2800 -RA BR SCT004 SCT008 OVC016 20/20 Q1016 NOSIG,0,1.0,0,2800,0,0,1,"-RA,BR"
2026-03-21 16:00:00,METAR ZGGG 211600Z 07001MPS 4000 -RA BR SCT007 SCT010 OVC016 20/20 Q1016 NOSIG,0,1.0,0,4000,0,0,1,"-RA,BR"
2026-03-21 15:30:00,METAR ZGGG 211530Z VRB01MPS 6000 -RA OVC016 21/19 Q1016 NOSIG,0,1.0,0,6000,0,0,0,-RA
2026-03-21 14:30:00,METAR ZGGG 211430Z 09002MPS 060V130 6000 -RA OVC020 21/19 Q1016 NOSIG,0,2.0,0,6000,0,0,0,-RA
2026-03-21 14:00:00,METAR ZGGG 211400Z 08002MPS 6000 -RA OVC020 21/19 Q1016 NOSIG,0,2.0,0,6000,0,0,0,-RA
2026-03-21 13:30:00,METAR ZGGG 211330Z 05002MPS 010V090 7000 OVC020 21/19 Q1016 NOSIG,0,2.0,0,7000,0,0,0,
2026-03-21 13:00:00,METAR ZGGG 211300Z 06002MPS 7000 SCT010 OVC020 21/19 Q1016 NOSIG,0,2.0,0,7000,0,0,0,
2026-03-21 12:30:00,METAR ZGGG 211230Z 06002MPS 020V080 7000 SCT010 OVC020 21/19 Q1016 NOSIG,0,2.0,0,7000,0,0,0,
2026-03-21 12:00:00,METAR ZGGG 211200Z 06002MPS 7000 SCT010 OVC020 21/19 Q1016 NOSIG,0,2.0,0,7000,0,0,0,
2026-03-21 11:30:00,METAR ZGGG 211130Z 07002MPS 6000 -RA SCT010 OVC020 21/19 Q1015 NOSIG,0,2.0,0,6000,0,0,0,-RA
2026-03-21 11:00:00,METAR ZGGG 211100Z 07002MPS 6000 -RA SCT010 OVC020 21/19 Q1015 NOSIG,0,2.0,0,6000,0,0,0,-RA
2026-03-21 10:30:00,METAR ZGGG 211030Z 08002MPS 030V100 6000 -RA SCT010 OVC020 21/19 Q1015 NOSIG,0,2.0,0,6000,0,0,0,-RA
2026-03-21 10:00:00,METAR ZGGG 211000Z 07002MPS 020V100 8000 SCT010 OVC020 21/19 Q1015 NOSIG,0,2.0,0,8000,0,0,0,
2026-03-21 09:30:00,METAR ZGGG 210930Z 08002MPS 360V090 8000 SCT010 BKN020 20/19 Q1015 NOSIG,0,2.0,0,8000,0,0,0,
2026-03-21 09:00:00,METAR ZGGG 210900Z 06002MPS 8000 SCT008 BKN016 21/19 Q1015 NOSIG,0,2.0,0,8000,0,0,0,
2026-03-21 08:30:00,METAR ZGGG 210830Z 06002MPS 9999 SCT008 BKN016 21/19 Q1015 NOSIG,0,2.0,0,10000,0,0,0,
2026-03-21 08:00:00,METAR ZGGG 210800Z 04002MPS 010V070 6000 -RA SCT008 BKN016 21/19 Q1015 NOSIG,0,2.0,0,6000,0,0,0,-RA
2026-03-21 07:30:00,METAR ZGGG 210730Z 01002MPS 340V050 8000 -RA SCT013 BKN016 21/19 Q1015 NOSIG,0,2.0,0,8000,0,0,0,-RA
2026-03-21 07:00:00,METAR ZGGG 210700Z 36003MPS 9999 SCT013 BKN016 21/18 Q1015 NOSIG,0,3.0,0,10000,0,0,0,
2026-03-21 06:30:00,METAR ZGGG 210630Z 02002MPS 350V060 9999 SCT013 BKN016 21/18 Q1016 NOSIG,0,2.0,0,10000,0,0,0,
2026-03-21 06:00:00,METAR ZGGG 210600Z 01002MPS 340V060 9999 SCT013 BKN016 21/18 Q1016 NOSIG,0,2.0,0,10000,0,0,0,
2026-03-21 05:30:00,METAR ZGGG 210530Z VRB01MPS 9999 OVC016 21/18 Q1017 NOSIG,0,1.0,0,10000,0,0,0,
2026-03-21 05:00:00,METAR ZGGG 210500Z VRB01MPS 9999 OVC016 21/17 Q1017 NOSIG,0,1.0,0,10000,0,0,0,
2026-03-21 04:30:00,METAR ZGGG 210430Z 06002MPS 9999 OVC016 21/18 Q1018 NOSIG,0,2.0,0,10000,0,0,0,
2026-03-21 04:00:00,METAR ZGGG 210400Z 07003MPS 040V100 9999 OVC016 21/18 Q1018 NOSIG,0,3.0,0,10000,0,0,0,
2026-03-21 03:30:00,METAR ZGGG 210330Z 08003MPS 9999 OVC016 21/17 Q1018 NOSIG,0,3.0,0,10000,0,0,0,
2026-03-21 03:00:00,METAR ZGGG 210300Z 07003MPS 9999 OVC016 21/17 Q1018 NOSIG,0,3.0,0,10000,0,0,0,
2026-03-21 02:30:00,METAR ZGGG 210230Z 08002MPS 9999 OVC016 21/17 Q1018 NOSIG,0,2.0,0,10000,0,0,0,
2026-03-21 02:00:00,METAR ZGGG 210200Z VRB01MPS 9999 OVC016 21/17 Q1018 NOSIG,0,1.0,0,10000,0,0,0,
2026-03-21 01:30:00,METAR ZGGG 210130Z 06002MPS 320V100 9999 OVC023 21/17 Q1018 NOSIG,0,2.0,0,10000,0,0,0,
2026-03-21 01:00:00,METAR ZGGG 210100Z VRB01MPS 9999 OVC023 20/16 Q1018 NOSIG,0,1.0,0,10000,0,0,0,
2026-03-21 00:30:00,METAR ZGGG 210030Z 02002MPS 9999 BKN020 20/17 Q1018 NOSIG,0,2.0,0,10000,0,0,0,
2026-03-21 00:00:00,METAR ZGGG 210000Z 34004MPS 9999 BKN020 20/16 Q1018 NOSIG,0,4.0,0,10000,0,0,0,
2026-03-20 23:30:00,METAR ZGGG 202330Z 04002MPS 9999 BKN020 20/17 Q1017 NOSIG,0,2.0,0,10000,0,0,0,
2026-03-20 23:00:00,METAR ZGGG 202300Z 07004MPS 9999 BKN020 20/17 Q1017 NOSIG,0,4.0,0,10000,0,0,0,
2026-03-20 22:30:00,METAR ZGGG 202230Z 05004MPS 9999 BKN020 19/17 Q1016 NOSIG,0,4.0,0,10000,0,0,0,
2026-03-20 22:00:00,METAR ZGGG 202200Z 07003MPS 050V140 9999 BKN020 20/18 Q1016 NOSIG,0,3.0,0,10000,0,0,0,
2026-03-20 21:30:00,METAR ZGGG 202130Z 06003MPS 9999 BKN020 20/18 Q1016 NOSIG,0,3.0,0,10000,0,0,0,
2026-03-20 21:00:00,METAR ZGGG 202100Z 36003MPS 9999 -SHRA BKN020 20/18 Q1016 NOSIG,0,3.0,0,10000,0,0,0,RA
2026-03-20 20:30:00,METAR ZGGG 202030Z 35004MPS 9999 -SHRA BKN020 20/18 Q1015 NOSIG,0,4.0,0,10000,0,0,0,RA
2026-03-20 20:00:00,METAR ZGGG 202000Z 35005MPS 9999 -SHRA BKN023 21/18 Q1015 NOSIG,0,5.0,0,10000,0,0,0,RA
2026-03-20 19:30:00,METAR ZGGG 201930Z 34005MPS 9999 BKN023 22/18 Q1015 NOSIG,0,5.0,0,10000,0,0,0,
2026-03-20 19:00:00,METAR ZGGG 201900Z VRB01MPS 9999 BKN023 23/19 Q1015 NOSIG,0,1.0,0,10000,0,0,0,
2026-03-20 18:30:00,METAR ZGGG 201830Z VRB01MPS 9999 BKN023 24/19 Q1015 NOSIG,0,1.0,0,10000,0,0,0,
2026-03-20 18:00:00,METAR ZGGG 201800Z VRB01MPS 9999 BKN023 23/19 Q1016 NOSIG,0,1.0,0,10000,0,0,0,
2026-03-20 17:30:00,METAR ZGGG 201730Z 18002MPS 9999 BKN023 23/19 Q1016 NOSIG,0,2.0,0,10000,0,0,0,
2026-03-20 17:00:00,METAR ZGGG 201700Z 16003MPS 9999 SCT023 24/19 Q1016 NOSIG,0,3.0,0,10000,0,0,0,
2026-03-20 16:30:00,METAR ZGGG 201630Z 15003MPS 9999 SCT023 24/19 Q1016 NOSIG,0,3.0,0,10000,0,0,0,
2026-03-20 16:00:00,METAR ZGGG 201600Z 16003MPS 9999 BKN023 24/19 Q1016 NOSIG,0,3.0,0,10000,0,0,0,
2026-03-20 15:30:00,METAR ZGGG 201530Z 17003MPS 9999 BKN023 24/19 Q1016 NOSIG,0,3.0,0,10000,0,0,0,
2026-03-20 15:00:00,METAR ZGGG 201500Z 18004MPS 9999 BKN036 24/19 Q1016 NOSIG,0,4.0,0,10000,0,0,0,
2026-03-20 14:30:00,METAR ZGGG 201430Z 16003MPS 9999 BKN036 24/19 Q1016 NOSIG,0,3.0,0,10000,0,0,0,
2026-03-20 14:00:00,METAR ZGGG 201400Z 16004MPS 9999 BKN036 24/19 Q1015 NOSIG,0,4.0,0,10000,0,0,0,
2026-03-20 13:30:00,METAR ZGGG 201330Z 16004MPS 9999 BKN036 24/19 Q1015 NOSIG,0,4.0,0,10000,0,0,0,
2026-03-20 13:00:00,METAR ZGGG 201300Z 17004MPS 9999 BKN036 25/19 Q1015 NOSIG,0,4.0,0,10000,0,0,0,
2026-03-20 12:30:00,METAR ZGGG 201230Z 17005MPS 9999 BKN036 25/19 Q1015 NOSIG,0,5.0,0,10000,0,0,0,
2026-03-20 12:00:00,METAR ZGGG 201200Z 17005MPS 9999 BKN036 25/19 Q1014 NOSIG,0,5.0,0,10000,0,0,0,
2026-03-20 11:30:00,METAR ZGGG 201130Z 16004MPS 9999 BKN030 25/19 Q1013 NOSIG,0,4.0,0,10000,0,0,0,
2026-03-20 11:00:00,METAR ZGGG 201100Z 16004MPS 9999 BKN030 25/19 Q1013 NOSIG,0,4.0,0,10000,0,0,0,
2026-03-20 10:30:00,METAR ZGGG 201030Z 17005MPS 9999 BKN030 25/19 Q1013 NOSIG,0,5.0,0,10000,0,0,0,
2026-03-20 10:00:00,METAR ZGGG 201000Z 17003MPS 9999 BKN030 25/19 Q1013 NOSIG,0,3.0,0,10000,0,0,0,
2026-03-20 09:30:00,METAR ZGGG 200930Z 17005MPS 9999 -SHRA BKN030 26/19 Q1013 NOSIG,0,5.0,0,10000,0,0,0,RA
2026-03-20 09:00:00,METAR ZGGG 200900Z 16005MPS 9999 BKN030 26/19 Q1013 NOSIG,0,5.0,0,10000,0,0,0,
2026-03-20 08:30:00,METAR ZGGG 200830Z 17004MPS 9999 BKN030 26/19 Q1013 NOSIG,0,4.0,0,10000,0,0,0,
2026-03-20 08:00:00,METAR ZGGG 200800Z 18005MPS 9999 BKN030 27/19 Q1013 NOSIG,0,5.0,0,10000,0,0,0,
2026-03-20 07:30:00,METAR ZGGG 200730Z 16006MPS 9999 BKN030 27/19 Q1013 NOSIG,0,6.0,0,10000,0,0,0,
2026-03-20 07:00:00,METAR ZGGG 200700Z 17005MPS 9999 BKN030 27/19 Q1013 NOSIG,0,5.0,0,10000,0,0,0,
2026-03-20 06:30:00,METAR ZGGG 200630Z 17005MPS 9999 BKN030 28/19 Q1013 NOSIG,0,5.0,0,10000,0,0,0,
2026-03-20 06:00:00,METAR ZGGG 200600Z 18005MPS 150V210 9999 -SHRA BKN030 27/19 Q1014 NOSIG,0,5.0,0,10000,0,0,0,RA
2026-03-20 05:30:00,METAR ZGGG 200530Z 18005MPS 9999 BKN030 27/19 Q1014 NOSIG,0,5.0,0,10000,0,0,0,
2026-03-20 05:00:00,METAR ZGGG 200500Z 20005MPS 9999 -SHRA BKN030 26/19 Q1015 NOSIG,0,5.0,0,10000,0,0,0,RA
2026-03-20 04:30:00,METAR ZGGG 200430Z 18005MPS 160V220 9999 BKN030 26/19 Q1015 NOSIG,0,5.0,0,10000,0,0,0,
2026-03-20 04:00:00,METAR ZGGG 200400Z 18004MPS 9999 BKN029 27/19 Q1015 NOSIG,0,4.0,0,10000,0,0,0,
2026-03-20 03:30:00,METAR ZGGG 200330Z 18005MPS 9999 BKN029 28/19 Q1015 NOSIG,0,5.0,0,10000,0,0,0,
2026-03-20 03:00:00,METAR ZGGG 200300Z 16004MPS 9999 BKN029 27/19 Q1016 NOSIG,0,4.0,0,10000,0,0,0,
2026-03-20 02:30:00,METAR ZGGG 200230Z 18004MPS 150V220 9999 BKN029 26/19 Q1016 NOSIG,0,4.0,0,10000,0,0,0,
2026-03-20 02:00:00,METAR ZGGG 200200Z 16004MPS 140V200 9999 BKN022 26/19 Q1016 NOSIG,0,4.0,0,10000,0,0,0,
2026-03-20 01:30:00,METAR ZGGG 200130Z 15003MPS 100V190 9999 BKN020 26/20 Q1016 NOSIG,0,3.0,0,10000,0,0,0,
2026-03-20 01:00:00,METAR ZGGG 200100Z 13004MPS 9999 BKN020 25/20 Q1015 NOSIG,0,4.0,0,10000,0,0,0,
2026-03-20 00:30:00,METAR ZGGG 200030Z 14002MPS 100V170 9999 FEW026 24/19 Q1015 NOSIG,0,2.0,0,10000,0,0,0,
2026-03-20 00:00:00,METAR ZGGG 200000Z 12003MPS 9999 BKN026 23/19 Q1015 NOSIG,0,3.0,0,10000,0,0,0,
2026-03-19 23:30:00,METAR ZGGG 192330Z 09002MPS 9999 BKN026 22/19 Q1015 NOSIG,0,2.0,0,10000,0,0,0,
2026-03-19 23:00:00,METAR ZGGG 192300Z 08002MPS 9999 BKN026 22/18 Q1015 NOSIG,0,2.0,0,10000,0,0,0,
2026-03-19 22:30:00,METAR ZGGG 192230Z 07002MPS 040V100 9999 BKN026 22/18 Q1014 NOSIG,0,2.0,0,10000,0,0,0,
2026-03-19 22:00:00,METAR ZGGG 192200Z 08002MPS 9999 BKN026 22/18 Q1014 NOSIG,0,2.0,0,10000,0,0,0,
2026-03-19 21:30:00,METAR ZGGG 192130Z 09002MPS 9999 BKN026 22/18 Q1013 NOSIG,0,2.0,0,10000,0,0,0,
2026-03-19 21:00:00,METAR ZGGG 192100Z 06002MPS 9999 BKN040 22/18 Q1013 NOSIG,0,2.0,0,10000,0,0,0,
2026-03-19 20:30:00,METAR ZGGG 192030Z 07002MPS 9999 BKN040 22/17 Q1013 NOSIG,0,2.0,0,10000,0,0,0,
2026-03-19 20:00:00,METAR ZGGG 192000Z 04002MPS 9999 BKN040 22/17 Q1013 NOSIG,0,2.0,0,10000,0,0,0,
2026-03-19 19:30:00,METAR ZGGG 191930Z 12003MPS 9999 FEW043 22/18 Q1013 NOSIG,0,3.0,0,10000,0,0,0,
2026-03-19 19:00:00,METAR ZGGG 191900Z 12003MPS 9999 FEW043 23/18 Q1013 NOSIG,0,3.0,0,10000,0,0,0,
2026-03-19 18:30:00,METAR ZGGG 191830Z 12003MPS 9999 FEW050 23/18 Q1014 NOSIG,0,3.0,0,10000,0,0,0,
2026-03-19 18:00:00,METAR ZGGG 191800Z 12003MPS 9999 SCT050 23/17 Q1014 NOSIG,0,3.0,0,10000,0,0,0,
2026-03-19 17:30:00,METAR ZGGG 191730Z 12002MPS CAVOK 23/17 Q1014 NOSIG,1,0.0,0,9999,0,0,0,
2026-03-19 17:00:00,METAR ZGGG 191700Z 12003MPS CAVOK 24/17 Q1014 NOSIG,1,0.0,0,9999,0,0,0,
2026-03-19 16:30:00,METAR ZGGG 191630Z 12004MPS CAVOK 24/16 Q1014 NOSIG,1,0.0,0,9999,0,0,0,
2026-03-19 16:00:00,METAR ZGGG 191600Z 12003MPS CAVOK 24/16 Q1014 NOSIG,1,0.0,0,9999,0,0,0,
2026-03-19 15:30:00,METAR ZGGG 191530Z 12004MPS CAVOK 24/16 Q1014 NOSIG,1,0.0,0,9999,0,0,0,
2026-03-19 15:00:00,METAR ZGGG 191500Z 10003MPS CAVOK 25/16 Q1014 NOSIG,1,0.0,0,9999,0,0,0,
2026-03-19 14:30:00,METAR ZGGG 191430Z 12003MPS CAVOK 25/16 Q1014 NOSIG,1,0.0,0,9999,0,0,0,
2026-03-19 14:00:00,METAR ZGGG 191400Z 13003MPS CAVOK 25/16 Q1014 NOSIG,1,0.0,0,9999,0,0,0,
2026-03-19 13:30:00,METAR ZGGG 191330Z 13004MPS CAVOK 25/17 Q1013 NOSIG,1,0.0,0,9999,0,0,0,
2026-03-19 13:00:00,METAR ZGGG 191300Z 16003MPS 9999 BKN050 26/17 Q1013 NOSIG,0,3.0,0,10000,0,0,0,
2026-03-19 12:30:00,METAR ZGGG 191230Z 16003MPS 9999 BKN050 26/17 Q1013 NOSIG,0,3.0,0,10000,0,0,0,
2026-03-19 12:00:00,METAR ZGGG 191200Z 14004MPS 9999 BKN050 26/17 Q1012 NOSIG,0,4.0,0,10000,0,0,0,
2026-03-19 11:30:00,METAR ZGGG 191130Z 16003MPS 9999 BKN050 27/18 Q1012 NOSIG,0,3.0,0,10000,0,0,0,
2026-03-19 11:00:00,METAR ZGGG 191100Z 14003MPS 9999 BKN050 27/18 Q1012 NOSIG,0,3.0,0,10000,0,0,0,
2026-03-19 10:30:00,METAR ZGGG 191030Z 15004MPS 9999 BKN050 28/18 Q1011 NOSIG,0,4.0,0,10000,0,0,0,
2026-03-19 10:00:00,METAR ZGGG 191000Z 15004MPS 9999 SCT040 28/18 Q1011 NOSIG,0,4.0,0,10000,0,0,0,
2026-03-19 09:30:00,METAR ZGGG 190930Z 14003MPS 110V180 9999 SCT040 29/17 Q1011 NOSIG,0,3.0,0,10000,0,0,0,
2026-03-19 09:00:00,METAR ZGGG 190900Z 19003MPS 150V220 9999 SCT040 29/17 Q1011 NOSIG,0,3.0,0,10000,0,0,0,
2026-03-19 08:30:00,METAR ZGGG 190830Z 16004MPS 100V220 9999 SCT040 30/17 Q1011 NOSIG,0,4.0,0,10000,0,0,0,
2026-03-19 08:00:00,METAR ZGGG 190800Z VRB02MPS 9999 SCT040 30/17 Q1011 NOSIG,0,2.0,0,10000,0,0,0,
2026-03-19 07:30:00,METAR ZGGG 190730Z 15002MPS 080V240 9999 SCT033 BKN040 30/17 Q1011 NOSIG,0,2.0,0,10000,0,0,0,
2026-03-19 07:00:00,METAR ZGGG 190700Z VRB02MPS 9999 SCT033 BKN040 29/17 Q1012 NOSIG,0,2.0,0,10000,0,0,0,
2026-03-19 06:30:00,METAR ZGGG 190630Z VRB02MPS 9999 SCT033 BKN040 29/17 Q1012 NOSIG,0,2.0,0,10000,0,0,0,
2026-03-19 06:00:00,METAR ZGGG 190600Z 24002MPS 170V340 9999 BKN033 28/17 Q1013 NOSIG,0,2.0,0,10000,0,0,0,
2026-03-19 05:30:00,METAR ZGGG 190530Z VRB03MPS 9999 SCT033 29/17 Q1013 NOSIG,0,3.0,0,10000,0,0,0,
2026-03-19 05:00:00,METAR ZGGG 190500Z VRB01MPS 9999 SCT033 28/18 Q1014 NOSIG,0,1.0,0,10000,0,0,0,
2026-03-19 04:30:00,METAR ZGGG 190430Z 17002MPS 150V210 9999 FEW033 28/17 Q1015 NOSIG,0,2.0,0,10000,0,0,0,
2026-03-19 04:00:00,METAR ZGGG 190400Z 13002MPS 080V200 9999 SCT033 28/17 Q1015 NOSIG,0,2.0,0,10000,0,0,0,
2026-03-19 03:30:00,METAR ZGGG 190330Z VRB01MPS 9999 SCT033 26/17 Q1016 NOSIG,0,1.0,0,10000,0,0,0,
2026-03-19 03:00:00,METAR ZGGG 190300Z VRB01MPS 9999 SCT033 25/16 Q1016 NOSIG,0,1.0,0,10000,0,0,0,
2026-03-19 02:30:00,METAR ZGGG 190230Z VRB01MPS 9999 SCT033 24/16 Q1016 NOSIG,0,1.0,0,10000,0,0,0,
2026-03-19 02:00:00,METAR ZGGG 190200Z VRB02MPS CAVOK 24/15 Q1016 NOSIG,1,0.0,0,9999,0,0,0,
2026-03-19 01:30:00,METAR ZGGG 190130Z 29002MPS 240V010 CAVOK 22/14 Q1016 NOSIG,1,0.0,0,9999,0,0,0,
2026-03-19 01:00:00,METAR ZGGG 190100Z VRB01MPS CAVOK 22/15 Q1016 NOSIG,1,0.0,0,9999,0,0,0,
2026-03-19 00:30:00,METAR ZGGG 190030Z VRB01MPS CAVOK 21/15 Q1016 NOSIG,1,0.0,0,9999,0,0,0,
2026-03-19 00:00:00,METAR ZGGG 190000Z VRB01MPS CAVOK 20/14 Q1016 NOSIG,1,0.0,0,9999,0,0,0,
2026-03-18 23:30:00,METAR ZGGG 182330Z VRB01MPS CAVOK 19/14 Q1015 NOSIG,1,0.0,0,9999,0,0,0,
2026-03-18 23:00:00,METAR ZGGG 182300Z 34003MPS CAVOK 19/14 Q1015 NOSIG,1,0.0,0,9999,0,0,0,
2026-03-18 22:30:00,METAR ZGGG 182230Z 34004MPS CAVOK 19/14 Q1015 NOSIG,1,0.0,0,9999,0,0,0,
2026-03-18 22:00:00,METAR ZGGG 182200Z 33003MPS 300V360 CAVOK 19/14 Q1014 NOSIG,1,0.0,0,9999,0,0,0,
2026-03-18 21:30:00,METAR ZGGG 182130Z 33004MPS CAVOK 19/14 Q1014 NOSIG,1,0.0,0,9999,0,0,0,
2026-03-18 21:00:00,METAR ZGGG 182100Z 34003MPS CAVOK 19/14 Q1014 NOSIG,1,0.0,0,9999,0,0,0,
2026-03-18 20:30:00,METAR ZGGG 182030Z 35004MPS CAVOK 20/14 Q1014 NOSIG,1,0.0,0,9999,0,0,0,
2026-03-18 20:00:00,METAR ZGGG 182000Z 34005MPS CAVOK 20/15 Q1014 NOSIG,1,0.0,0,9999,0,0,0,
2026-03-18 19:30:00,METAR ZGGG 181930Z 35003MPS CAVOK 21/15 Q1014 NOSIG,1,0.0,0,9999,0,0,0,
2026-03-18 19:00:00,METAR ZGGG 181900Z 34004MPS CAVOK 21/16 Q1014 NOSIG,1,0.0,0,9999,0,0,0,
2026-03-18 18:30:00,METAR ZGGG 181830Z 34003MPS CAVOK 21/17 Q1014 NOSIG,1,0.0,0,9999,0,0,0,
2026-03-18 18:00:00,METAR ZGGG 181800Z 36004MPS CAVOK 22/17 Q1014 NOSIG,1,0.0,0,9999,0,0,0,
2026-03-18 17:30:00,METAR ZGGG 181730Z 03002MPS 340V070 CAVOK 22/18 Q1014 NOSIG,1,0.0,0,9999,0,0,0,
2026-03-18 17:00:00,METAR ZGGG 181700Z 07002MPS CAVOK 22/18 Q1015 NOSIG,1,0.0,0,9999,0,0,0,
2026-03-18 16:30:00,METAR ZGGG 181630Z VRB01MPS CAVOK 22/18 Q1015 NOSIG,1,0.0,0,9999,0,0,0,
2026-03-18 16:00:00,METAR ZGGG 181600Z 07002MPS CAVOK 22/18 Q1015 NOSIG,1,0.0,0,9999,0,0,0,
2026-03-18 15:30:00,METAR ZGGG 181530Z 08001MPS CAVOK 23/18 Q1015 NOSIG,1,0.0,0,9999,0,0,0,
2026-03-18 15:00:00,METAR ZGGG 181500Z VRB01MPS CAVOK 23/18 Q1015 NOSIG,1,0.0,0,9999,0,0,0,
2026-03-18 14:30:00,METAR ZGGG 181430Z 15003MPS CAVOK 24/18 Q1015 NOSIG,1,0.0,0,9999,0,0,0,
2026-03-18 14:00:00,METAR ZGGG 181400Z 16003MPS CAVOK 24/18 Q1015 NOSIG,1,0.0,0,9999,0,0,0,
2026-03-18 13:30:00,METAR ZGGG 181330Z 15003MPS CAVOK 25/18 Q1015 NOSIG,1,0.0,0,9999,0,0,0,
2026-03-18 13:00:00,METAR ZGGG 181300Z 15003MPS CAVOK 25/18 Q1014 NOSIG,1,0.0,0,9999,0,0,0,
2026-03-18 12:30:00,METAR ZGGG 181230Z 14004MPS CAVOK 25/18 Q1014 NOSIG,1,0.0,0,9999,0,0,0,
2026-03-18 12:00:00,METAR ZGGG 181200Z 15003MPS CAVOK 26/18 Q1013 NOSIG,1,0.0,0,9999,0,0,0,
2026-03-18 11:30:00,METAR ZGGG 181130Z 14003MPS CAVOK 26/17 Q1013 NOSIG,1,0.0,0,9999,0,0,0,
2026-03-18 11:00:00,METAR ZGGG 181100Z 20003MPS CAVOK 26/16 Q1013 NOSIG,1,0.0,0,9999,0,0,0,
2026-03-18 10:30:00,METAR ZGGG 181030Z 20003MPS CAVOK 27/16 Q1013 NOSIG,1,0.0,0,9999,0,0,0,
2026-03-18 10:00:00,METAR ZGGG 181000Z 20003MPS CAVOK 28/16 Q1013 NOSIG,1,0.0,0,9999,0,0,0,
2026-03-18 09:30:00,METAR ZGGG 180930Z 20004MPS 160V220 9999 BKN053 28/15 Q1012 NOSIG,0,4.0,0,10000,0,0,0,
2026-03-18 09:00:00,METAR ZGGG 180900Z 18004MPS 9999 BKN053 29/16 Q1012 NOSIG,0,4.0,0,10000,0,0,0,
2026-03-18 08:30:00,METAR ZGGG 180830Z 18002MPS 150V240 9999 BKN053 29/16 Q1012 NOSIG,0,2.0,0,10000,0,0,0,
2026-03-18 08:00:00,METAR ZGGG 180800Z 17004MPS 9999 BKN053 29/16 Q1012 NOSIG,0,4.0,0,10000,0,0,0,
2026-03-18 07:30:00,METAR ZGGG 180730Z 16004MPS 120V180 9999 BKN046 30/16 Q1013 NOSIG,0,4.0,0,10000,0,0,0,
2026-03-18 07:00:00,METAR ZGGG 180700Z 23004MPS 190V250 9999 BKN046 29/16 Q1013 NOSIG,0,4.0,0,10000,0,0,0,
2026-03-18 06:30:00,METAR ZGGG 180630Z 19003MPS 130V220 9999 BKN046 29/16 Q1013 NOSIG,0,3.0,0,10000,0,0,0,
2026-03-18 06:00:00,METAR ZGGG 180600Z 19003MPS 140V260 9999 BKN046 29/16 Q1014 NOSIG,0,3.0,0,10000,0,0,0,
2026-03-18 05:30:00,METAR ZGGG 180530Z VRB02MPS 9999 BKN043 28/16 Q1015 NOSIG,0,2.0,0,10000,0,0,0,
2026-03-18 05:00:00,METAR ZGGG 180500Z 17003MPS 130V210 9999 BKN043 29/16 Q1015 NOSIG,0,3.0,0,10000,0,0,0,
2026-03-18 04:30:00,METAR ZGGG 180430Z 22003MPS 130V300 9999 SCT030 27/17 Q1016 NOSIG,0,3.0,0,10000,0,0,0,
2026-03-18 04:00:00,METAR ZGGG 180400Z 20004MPS 150V250 9999 SCT030 28/17 Q1017 NOSIG,0,4.0,0,10000,0,0,0,
2026-03-18 03:30:00,METAR ZGGG 180330Z 20003MPS 160V250 9999 SCT030 27/17 Q1017 NOSIG,0,3.0,0,10000,0,0,0,
2026-03-18 03:00:00,METAR ZGGG 180300Z 17004MPS 140V200 9999 SCT026 26/17 Q1017 NOSIG,0,4.0,0,10000,0,0,0,
2026-03-18 02:30:00,METAR ZGGG 180230Z 21003MPS 170V260 9999 SCT023 26/18 Q1017 NOSIG,0,3.0,0,10000,0,0,0,
2026-03-18 02:00:00,METAR ZGGG 180200Z 19003MPS 150V240 9999 SCT020 26/18 Q1018 NOSIG,0,3.0,0,10000,0,0,0,
2026-03-18 01:30:00,METAR ZGGG 180130Z 15002MPS 110V210 9999 FEW020 25/18 Q1017 NOSIG,0,2.0,0,10000,0,0,0,
2026-03-18 01:00:00,METAR ZGGG 180100Z VRB01MPS CAVOK 23/18 Q1017 NOSIG,1,0.0,0,9999,0,0,0,
2026-03-18 00:30:00,METAR ZGGG 180030Z VRB01MPS 9999 FEW020 23/18 Q1017 NOSIG,0,1.0,0,10000,0,0,0,
2026-03-18 00:00:00,METAR ZGGG 180000Z 10002MPS 9999 FEW020 21/18 Q1016 NOSIG,0,2.0,0,10000,0,0,0,
2026-03-17 23:30:00,METAR ZGGG 172330Z 09003MPS 9999 FEW020 20/17 Q1016 NOSIG,0,3.0,0,10000,0,0,0,
2026-03-17 23:00:00,METAR ZGGG 172300Z 06002MPS CAVOK 19/17 Q1016 NOSIG,1,0.0,0,9999,0,0,0,
2026-03-17 22:30:00,METAR ZGGG 172230Z 04002MPS CAVOK 19/17 Q1016 NOSIG,1,0.0,0,9999,0,0,0,
2026-03-17 22:00:00,METAR ZGGG 172200Z 05002MPS CAVOK 19/17 Q1015 NOSIG,1,0.0,0,9999,0,0,0,
2026-03-17 21:30:00,METAR ZGGG 172130Z 07002MPS CAVOK 20/17 Q1015 NOSIG,1,0.0,0,9999,0,0,0,
2026-03-17 21:00:00,METAR ZGGG 172100Z 07002MPS CAVOK 20/17 Q1015 NOSIG,1,0.0,0,9999,0,0,0,
2026-03-17 20:30:00,METAR ZGGG 172030Z 07002MPS CAVOK 20/17 Q1015 NOSIG,1,0.0,0,9999,0,0,0,
2026-03-17 20:00:00,METAR ZGGG 172000Z 09002MPS CAVOK 21/17 Q1015 NOSIG,1,0.0,0,9999,0,0,0,
2026-03-17 19:30:00,METAR ZGGG 171930Z 09002MPS CAVOK 21/17 Q1015 NOSIG,1,0.0,0,9999,0,0,0,
2026-03-17 19:00:00,METAR ZGGG 171900Z 07001MPS CAVOK 20/17 Q1015 NOSIG,1,0.0,0,9999,0,0,0,
2026-03-17 18:30:00,METAR ZGGG 171830Z 12001MPS CAVOK 21/17 Q1015 NOSIG,1,0.0,0,9999,0,0,0,
2026-03-17 18:00:00,METAR ZGGG 171800Z 11002MPS CAVOK 21/17 Q1015 NOSIG,1,0.0,0,9999,0,0,0,
2026-03-17 17:30:00,METAR ZGGG 171730Z 12002MPS CAVOK 21/17 Q1016 NOSIG,1,0.0,0,9999,0,0,0,
2026-03-17 17:00:00,METAR ZGGG 171700Z 12002MPS CAVOK 21/17 Q1016 NOSIG,1,0.0,0,9999,0,0,0,
2026-03-17 16:30:00,METAR ZGGG 171630Z 11002MPS CAVOK 22/17 Q1016 NOSIG,1,0.0,0,9999,0,0,0,
2026-03-17 16:00:00,METAR ZGGG 171600Z 14003MPS CAVOK 22/17 Q1016 NOSIG,1,0.0,0,9999,0,0,0,
2026-03-17 15:30:00,METAR ZGGG 171530Z 12003MPS 100V170 CAVOK 22/17 Q1016 NOSIG,1,0.0,0,9999,0,0,0,
2026-03-17 15:00:00,METAR ZGGG 171500Z 12003MPS CAVOK 22/17 Q1016 NOSIG,1,0.0,0,9999,0,0,0,
2026-03-17 14:30:00,METAR ZGGG 171430Z 13002MPS 100V160 CAVOK 22/17 Q1016 NOSIG,1,0.0,0,9999,0,0,0,
2026-03-17 14:00:00,METAR ZGGG 171400Z 13002MPS 9999 SCT053 22/17 Q1016 NOSIG,0,2.0,0,10000,0,0,0,
2026-03-17 13:30:00,METAR ZGGG 171330Z 13003MPS 9999 SCT053 23/17 Q1016 NOSIG,0,3.0,0,10000,0,0,0,
2026-03-17 13:00:00,METAR ZGGG 171300Z 11003MPS 080V140 9999 SCT053 23/17 Q1016 NOSIG,0,3.0,0,10000,0,0,0,
2026-03-17 12:30:00,METAR ZGGG 171230Z 11003MPS 9999 SCT053 23/17 Q1015 NOSIG,0,3.0,0,10000,0,0,0,
2026-03-17 12:00:00,METAR ZGGG 171200Z 12003MPS 9999 SCT053 23/17 Q1015 NOSIG,0,3.0,0,10000,0,0,0,
2026-03-17 11:30:00,METAR ZGGG 171130Z 13004MPS CAVOK 23/17 Q1014 NOSIG,1,0.0,0,9999,0,0,0,
2026-03-17 11:00:00,METAR ZGGG 171100Z 14005MPS CAVOK 24/17 Q1014 NOSIG,1,0.0,0,9999,0,0,0,
2026-03-17 10:30:00,METAR ZGGG 171030Z 14006MPS CAVOK 24/17 Q1014 NOSIG,1,0.0,0,9999,0,0,0,
2026-03-17 10:00:00,METAR ZGGG 171000Z 14007MPS CAVOK 25/17 Q1013 NOSIG,1,0.0,0,9999,0,0,0,
2026-03-17 09:30:00,METAR ZGGG 170930Z 16006MPS 9999 BKN040 26/17 Q1013 NOSIG,0,6.0,0,10000,0,0,0,
2026-03-17 09:00:00,METAR ZGGG 170900Z 14006MPS 9999 BKN040 26/17 Q1013 NOSIG,0,6.0,0,10000,0,0,0,
2026-03-17 08:30:00,METAR ZGGG 170830Z 16006MPS 9999 BKN040 27/16 Q1013 NOSIG,0,6.0,0,10000,0,0,0,
2026-03-17 08:00:00,METAR ZGGG 170800Z 15005MPS 9999 BKN040 27/16 Q1013 NOSIG,0,5.0,0,10000,0,0,0,
2026-03-17 07:30:00,METAR ZGGG 170730Z 15006MPS 120V180 9999 BKN040 28/16 Q1014 NOSIG,0,6.0,0,10000,0,0,0,
2026-03-17 07:00:00,METAR ZGGG 170700Z 17005MPS 140V210 9999 SCT040 28/16 Q1014 NOSIG,0,5.0,0,10000,0,0,0,
2026-03-17 06:30:00,METAR ZGGG 170630Z 19004MPS 9999 SCT040 28/15 Q1014 NOSIG,0,4.0,0,10000,0,0,0,
2026-03-17 06:00:00,METAR ZGGG 170600Z 17005MPS 130V200 9999 SCT040 28/16 Q1015 NOSIG,0,5.0,0,10000,0,0,0,
2026-03-17 05:30:00,METAR ZGGG 170530Z 16004MPS 120V200 9999 BKN040 28/16 Q1015 NOSIG,0,4.0,0,10000,0,0,0,
2026-03-17 05:00:00,METAR ZGGG 170500Z 17004MPS 140V220 9999 BKN027 27/15 Q1016 NOSIG,0,4.0,0,10000,0,0,0,
2026-03-17 04:30:00,METAR ZGGG 170430Z 18004MPS 150V210 9999 BKN027 27/16 Q1017 NOSIG,0,4.0,0,10000,0,0,0,
2026-03-17 04:00:00,METAR ZGGG 170400Z 18003MPS 140V210 9999 BKN027 25/16 Q1017 NOSIG,0,3.0,0,10000,0,0,0,
2026-03-17 03:30:00,METAR ZGGG 170330Z 19003MPS 150V240 9999 BKN030 25/16 Q1017 NOSIG,0,3.0,0,10000,0,0,0,
2026-03-17 03:00:00,METAR ZGGG 170300Z 18004MPS 130V220 9999 BKN030 25/16 Q1018 NOSIG,0,4.0,0,10000,0,0,0,
2026-03-17 02:30:00,METAR ZGGG 170230Z 18004MPS 140V210 9999 BKN030 26/16 Q1018 NOSIG,0,4.0,0,10000,0,0,0,
2026-03-17 02:00:00,METAR ZGGG 170200Z 12002MPS 060V180 9999 BKN030 24/16 Q1018 NOSIG,0,2.0,0,10000,0,0,0,
2026-03-17 01:30:00,METAR ZGGG 170130Z 15002MPS 070V190 CAVOK 24/16 Q1018 NOSIG,1,0.0,0,9999,0,0,0,
2026-03-17 01:00:00,METAR ZGGG 170100Z VRB01MPS CAVOK 22/15 Q1018 NOSIG,1,0.0,0,9999,0,0,0,
2026-03-17 00:30:00,METAR ZGGG 170030Z 08002MPS 040V120 CAVOK 21/14 Q1017 NOSIG,1,0.0,0,9999,0,0,0,
2026-03-17 00:00:00,METAR ZGGG 170000Z 08002MPS CAVOK 20/14 Q1017 NOSIG,1,0.0,0,9999,0,0,0,
2026-03-16 23:30:00,METAR ZGGG 162330Z 09002MPS CAVOK 19/13 Q1017 NOSIG,1,0.0,0,9999,0,0,0,
2026-03-16 23:00:00,METAR ZGGG 162300Z 09002MPS CAVOK 19/13 Q1016 NOSIG,1,0.0,0,9999,0,0,0,
2026-03-16 22:30:00,METAR ZGGG 162230Z 08003MPS CAVOK 18/13 Q1016 NOSIG,1,0.0,0,9999,0,0,0,
2026-03-16 22:00:00,METAR ZGGG 162200Z 08003MPS CAVOK 18/13 Q1016 NOSIG,1,0.0,0,9999,0,0,0,
2026-03-16 21:30:00,METAR ZGGG 162130Z 07003MPS CAVOK 19/13 Q1016 NOSIG,1,0.0,0,9999,0,0,0,
2026-03-16 21:00:00,METAR ZGGG 162100Z 08002MPS CAVOK 19/13 Q1016 NOSIG,1,0.0,0,9999,0,0,0,
2026-03-16 20:30:00,METAR ZGGG 162030Z 08002MPS CAVOK 19/13 Q1016 NOSIG,1,0.0,0,9999,0,0,0,
2026-03-16 20:00:00,METAR ZGGG 162000Z 06001MPS CAVOK 19/13 Q1016 NOSIG,1,0.0,0,9999,0,0,0,
2026-03-16 19:30:00,METAR ZGGG 161930Z 11003MPS 050V120 CAVOK 20/14 Q1016 NOSIG,1,0.0,0,9999,0,0,0,
2026-03-16 19:00:00,METAR ZGGG 161900Z 10002MPS CAVOK 20/13 Q1016 NOSIG,1,0.0,0,9999,0,0,0,
2026-03-16 18:30:00,METAR ZGGG 161830Z 10002MPS CAVOK 21/12 Q1017 NOSIG,1,0.0,0,9999,0,0,0,
2026-03-16 18:00:00,METAR ZGGG 161800Z 14002MPS CAVOK 21/12 Q1017 NOSIG,1,0.0,0,9999,0,0,0,
2026-03-16 17:30:00,METAR ZGGG 161730Z 14002MPS CAVOK 22/12 Q1017 NOSIG,1,0.0,0,9999,0,0,0,
2026-03-16 17:00:00,METAR ZGGG 161700Z 15002MPS CAVOK 22/11 Q1017 NOSIG,1,0.0,0,9999,0,0,0,
2026-03-16 16:30:00,METAR ZGGG 161630Z 14003MPS CAVOK 22/10 Q1018 NOSIG,1,0.0,0,9999,0,0,0,
2026-03-16 16:00:00,METAR ZGGG 161600Z 14003MPS CAVOK 22/10 Q1018 NOSIG,1,0.0,0,9999,0,0,0,
2026-03-16 15:30:00,METAR ZGGG 161530Z 13003MPS CAVOK 22/11 Q1017 NOSIG,1,0.0,0,9999,0,0,0,
2026-03-16 15:00:00,METAR ZGGG 161500Z 17003MPS CAVOK 22/12 Q1017 NOSIG,1,0.0,0,9999,0,0,0,
2026-03-16 14:30:00,METAR ZGGG 161430Z 16004MPS CAVOK 23/11 Q1017 NOSIG,1,0.0,0,9999,0,0,0,
2026-03-16 14:00:00,METAR ZGGG 161400Z 17005MPS CAVOK 23/12 Q1017 NOSIG,1,0.0,0,9999,0,0,0,
2026-03-16 13:30:00,METAR ZGGG 161330Z 17005MPS CAVOK 23/11 Q1017 NOSIG,1,0.0,0,9999,0,0,0,
2026-03-16 13:00:00,METAR ZGGG 161300Z 17004MPS CAVOK 24/10 Q1016 NOSIG,1,0.0,0,9999,0,0,0,
2026-03-16 12:30:00,METAR ZGGG 161230Z 17004MPS CAVOK 24/10 Q1016 NOSIG,1,0.0,0,9999,0,0,0,
2026-03-16 12:00:00,METAR ZGGG 161200Z 16004MPS CAVOK 24/11 Q1016 NOSIG,1,0.0,0,9999,0,0,0,
2026-03-16 11:30:00,METAR ZGGG 161130Z 15005MPS CAVOK 25/11 Q1015 NOSIG,1,0.0,0,9999,0,0,0,
2026-03-16 11:00:00,METAR ZGGG 161100Z 15004MPS CAVOK 25/11 Q1015 NOSIG,1,0.0,0,9999,0,0,0,
2026-03-16 10:30:00,METAR ZGGG 161030Z 14004MPS CAVOK 26/11 Q1015 NOSIG,1,0.0,0,9999,0,0,0,
2026-03-16 10:00:00,METAR ZGGG 161000Z 13005MPS CAVOK 27/10 Q1014 NOSIG,1,0.0,0,9999,0,0,0,
2026-03-16 09:30:00,METAR ZGGG 160930Z 13005MPS 110V170 CAVOK 28/09 Q1014 NOSIG,1,0.0,0,9999,0,0,0,
2026-03-16 09:00:00,METAR ZGGG 160900Z 15004MPS 110V190 CAVOK 29/10 Q1014 NOSIG,1,0.0,0,9999,0,0,0,
2026-03-16 08:30:00,METAR ZGGG 160830Z 14005MPS 120V180 CAVOK 29/09 Q1014 NOSIG,1,0.0,0,9999,0,0,0,
2026-03-16 08:00:00,METAR ZGGG 160800Z 15004MPS 120V180 CAVOK 29/08 Q1015 NOSIG,1,0.0,0,9999,0,0,0,
2026-03-16 07:48:00,SPECI ZGGG 160748Z 12004MPS 090V170 CAVOK 29/09 Q1015 NOSIG,1,0.0,0,9999,0,0,0,
2026-03-16 07:30:00,METAR ZGGG 160730Z 18005MPS 150V220 CAVOK 29/10 Q1015 NOSIG,1,0.0,0,9999,0,0,0,
2026-03-16 07:00:00,METAR ZGGG 160700Z 19005MPS 150V220 9999 FEW060 29/09 Q1015 NOSIG,0,5.0,0,10000,0,0,0,
2026-03-16 06:51:00,SPECI ZGGG 160651Z 21006MPS 170V230 9999 FEW060 29/09 Q1015 NOSIG,0,6.0,0,10000,0,0,0,
2026-03-16 06:30:00,METAR ZGGG 160630Z 15004MPS 090V190 9999 FEW060 29/10 Q1016 NOSIG,0,4.0,0,10000,0,0,0,
2026-03-16 06:00:00,METAR ZGGG 160600Z 16004MPS 100V210 9999 FEW050 29/10 Q1016 NOSIG,0,4.0,0,10000,0,0,0,
2026-03-16 05:30:00,METAR ZGGG 160530Z 17003MPS 120V220 9999 FEW050 29/11 Q1017 NOSIG,0,3.0,0,10000,0,0,0,
2026-03-16 05:00:00,METAR ZGGG 160500Z 16003MPS 110V200 9999 FEW050 29/12 Q1017 NOSIG,0,3.0,0,10000,0,0,0,
2026-03-16 04:30:00,METAR ZGGG 160430Z VRB02MPS 9999 FEW050 27/12 Q1018 NOSIG,0,2.0,0,10000,0,0,0,
2026-03-16 04:00:00,METAR ZGGG 160400Z 13002MPS 070V210 9999 FEW050 27/13 Q1019 NOSIG,0,2.0,0,10000,0,0,0,
2026-03-16 03:30:00,METAR ZGGG 160330Z 16002MPS 110V230 9999 FEW050 27/13 Q1020 NOSIG,0,2.0,0,10000,0,0,0,
2026-03-16 03:00:00,METAR ZGGG 160300Z VRB01MPS CAVOK 26/14 Q1020 NOSIG,1,0.0,0,9999,0,0,0,
2026-03-16 02:30:00,METAR ZGGG 160230Z 14003MPS 100V200 CAVOK 25/14 Q1020 NOSIG,1,0.0,0,9999,0,0,0,
2026-03-16 02:00:00,METAR ZGGG 160200Z 16002MPS 080V200 CAVOK 24/14 Q1020 NOSIG,1,0.0,0,9999,0,0,0,
2026-03-16 01:30:00,METAR ZGGG 160130Z 10002MPS 060V160 CAVOK 23/14 Q1020 NOSIG,1,0.0,0,9999,0,0,0,
2026-03-16 01:00:00,METAR ZGGG 160100Z 09002MPS 060V130 CAVOK 21/13 Q1020 NOSIG,1,0.0,0,9999,0,0,0,
2026-03-16 00:30:00,METAR ZGGG 160030Z 07002MPS CAVOK 20/14 Q1020 NOSIG,1,0.0,0,9999,0,0,0,
2026-03-16 00:00:00,METAR ZGGG 160000Z 08003MPS CAVOK 19/13 Q1019 NOSIG,1,0.0,0,9999,0,0,0,
2026-03-15 23:30:00,METAR ZGGG 152330Z 08003MPS CAVOK 18/13 Q1019 NOSIG,1,0.0,0,9999,0,0,0,
2026-03-15 23:00:00,METAR ZGGG 152300Z 08003MPS CAVOK 17/13 Q1019 NOSIG,1,0.0,0,9999,0,0,0,
2026-03-15 22:30:00,METAR ZGGG 152230Z 08003MPS CAVOK 17/14 Q1018 NOSIG,1,0.0,0,9999,0,0,0,
2026-03-15 22:00:00,METAR ZGGG 152200Z 04001MPS CAVOK 17/14 Q1018 NOSIG,1,0.0,0,9999,0,0,0,
2026-03-15 21:30:00,METAR ZGGG 152130Z 03001MPS CAVOK 17/14 Q1018 NOSIG,1,0.0,0,9999,0,0,0,
2026-03-15 21:00:00,METAR ZGGG 152100Z 36002MPS CAVOK 17/14 Q1018 NOSIG,1,0.0,0,9999,0,0,0,
2026-03-15 20:30:00,METAR ZGGG 152030Z VRB01MPS CAVOK 18/13 Q1018 NOSIG,1,0.0,0,9999,0,0,0,
2026-03-15 20:00:00,METAR ZGGG 152000Z 08002MPS CAVOK 18/14 Q1018 NOSIG,1,0.0,0,9999,0,0,0,
2026-03-15 19:30:00,METAR ZGGG 151930Z 08003MPS CAVOK 18/14 Q1018 NOSIG,1,0.0,0,9999,0,0,0,
2026-03-15 19:00:00,METAR ZGGG 151900Z 09003MPS CAVOK 19/13 Q1018 NOSIG,1,0.0,0,9999,0,0,0,
2026-03-15 18:30:00,METAR ZGGG 151830Z 08002MPS CAVOK 19/13 Q1019 NOSIG,1,0.0,0,9999,0,0,0,
2026-03-15 18:00:00,METAR ZGGG 151800Z VRB01MPS CAVOK 19/13 Q1019 NOSIG,1,0.0,0,9999,0,0,0,
2026-03-15 17:30:00,METAR ZGGG 151730Z 06002MPS CAVOK 19/14 Q1019 NOSIG,1,0.0,0,9999,0,0,0,
2026-03-15 17:00:00,METAR ZGGG 151700Z 08002MPS CAVOK 20/13 Q1020 NOSIG,1,0.0,0,9999,0,0,0,
2026-03-15 16:30:00,METAR ZGGG 151630Z 08003MPS CAVOK 20/13 Q1020 NOSIG,1,0.0,0,9999,0,0,0,
2026-03-15 16:00:00,METAR ZGGG 151600Z 12002MPS CAVOK 21/11 Q1020 NOSIG,1,0.0,0,9999,0,0,0,
2026-03-15 15:30:00,METAR ZGGG 151530Z 10002MPS CAVOK 22/13 Q1020 NOSIG,1,0.0,0,9999,0,0,0,
2026-03-15 15:00:00,METAR ZGGG 151500Z 13002MPS CAVOK 21/13 Q1020 NOSIG,1,0.0,0,9999,0,0,0,
2026-03-15 14:30:00,METAR ZGGG 151430Z 13003MPS CAVOK 22/13 Q1020 NOSIG,1,0.0,0,9999,0,0,0,
2026-03-15 14:00:00,METAR ZGGG 151400Z 12002MPS CAVOK 22/13 Q1020 NOSIG,1,0.0,0,9999,0,0,0,
2026-03-15 13:30:00,METAR ZGGG 151330Z 16002MPS CAVOK 22/13 Q1020 NOSIG,1,0.0,0,9999,0,0,0,
2026-03-15 13:00:00,METAR ZGGG 151300Z 16002MPS CAVOK 23/13 Q1019 NOSIG,1,0.0,0,9999,0,0,0,
2026-03-15 12:30:00,METAR ZGGG 151230Z 17001MPS CAVOK 22/13 Q1019 NOSIG,1,0.0,0,9999,0,0,0,
2026-03-15 12:00:00,METAR ZGGG 151200Z 12002MPS CAVOK 24/13 Q1018 NOSIG,1,0.0,0,9999,0,0,0,
2026-03-15 11:30:00,METAR ZGGG 151130Z 12002MPS 9999 FEW060 24/12 Q1018 NOSIG,0,2.0,0,10000,0,0,0,
2026-03-15 11:00:00,METAR ZGGG 151100Z 15002MPS 090V190 9999 FEW060 25/12 Q1018 NOSIG,0,2.0,0,10000,0,0,0,
2026-03-15 10:30:00,METAR ZGGG 151030Z VRB01MPS 9999 FEW060 25/11 Q1018 NOSIG,0,1.0,0,10000,0,0,0,
2026-03-15 10:00:00,METAR ZGGG 151000Z 22002MPS 180V270 9999 FEW060 26/12 Q1018 NOSIG,0,2.0,0,10000,0,0,0,
2026-03-15 09:30:00,METAR ZGGG 150930Z 20002MPS 130V290 9999 FEW060 26/12 Q1017 NOSIG,0,2.0,0,10000,0,0,0,
2026-03-15 09:00:00,METAR ZGGG 150900Z 18003MPS 140V240 9999 FEW060 28/12 Q1017 NOSIG,0,3.0,0,10000,0,0,0,
2026-03-15 08:30:00,METAR ZGGG 150830Z VRB02MPS 9999 SCT060 27/12 Q1017 NOSIG,0,2.0,0,10000,0,0,0,
2026-03-15 08:00:00,METAR ZGGG 150800Z VRB01MPS 9999 SCT060 28/12 Q1018 NOSIG,0,1.0,0,10000,0,0,0,
