Time_recorded,METAR,is_cavok,wind_speed,is_gust,visibility_meters,has_thunderstorm,has_heavy_rain,has_low_vis_fog,other_phenomenon
2026-05-02 15:00:00,METAR MYNN 021500Z 19013KT 160V220 9999 SCT020 28/22 A2997,0,13,0,10000.0,0,0,0,
2026-05-02 14:00:00,METAR MYNN 021400Z 19013KT 9999 SCT018 28/22 A2997,0,13,0,10000.0,0,0,0,
2026-05-02 13:00:00,METAR MYNN 021300Z 20012KT 9999 BKN018 27/22 A2997,0,12,0,10000.0,0,0,0,
2026-05-02 12:00:00,METAR MYNN 021200Z 19009KT 9999 SCT018 26/22 A2996,0,9,0,10000.0,0,0,0,
2026-05-02 11:00:00,METAR MYNN 021100Z 19007KT 9999 SCT018 25/22 A2995,0,7,0,10000.0,0,0,0,
2026-05-02 10:00:00,METAR MYNN 021000Z 19007KT 9999 SCT018 25/22 A2994,0,7,0,10000.0,0,0,0,
2026-05-02 09:00:00,METAR MYNN 020900Z 19006KT 9999 SCT020 25/22 A2993,0,6,0,10000.0,0,0,0,
2026-05-02 08:00:00,METAR MYNN 020800Z 18008KT 9999 SCT020 25/22 A2992,0,8,0,10000.0,0,0,0,
2026-05-02 07:00:00,METAR MYNN 020700Z 17006KT 9999 FEW018 25/22 A2991,0,6,0,10000.0,0,0,0,
2026-05-02 06:00:00,METAR MYNN 020600Z 18005KT 9999 FEW018 25/22 A2994,0,5,0,10000.0,0,0,0,
2026-05-02 05:00:00,METAR MYNN 020500Z 18004KT 9999 FEW035 25/22 A2996,0,4,0,10000.0,0,0,0,
2026-05-02 04:00:00,METAR MYNN 020400Z 18007KT 9999 FEW035 26/22 A2996,0,7,0,10000.0,0,0,0,
2026-05-02 03:00:00,METAR MYNN 020300Z 18007KT 9999 BKN035 26/21 A2997,0,7,0,10000.0,0,0,0,
2026-05-02 02:00:00,METAR MYNN 020200Z 18006KT 9999 BKN035 26/21 A2995,0,6,0,10000.0,0,0,0,
2026-05-02 01:00:00,METAR MYNN 020100Z 17007KT 9999 BKN035 26/21 A2993,0,7,0,10000.0,0,0,0,
2026-05-02 00:00:00,METAR MYNN 020000Z 18006KT 9999 SCT035 26/21 A2992,0,6,0,10000.0,0,0,0,
2026-05-01 23:00:00,METAR MYNN 012300Z 17008KT 9999 BKN035 27/21 A2990,0,8,0,10000.0,0,0,0,
2026-05-01 22:00:00,METAR MYNN 012200Z 18007KT 130V200 9999 FEW028 BKN030 27/20 A2990,0,7,0,10000.0,0,0,0,
2026-05-01 21:00:00,METAR MYNN 012100Z 17007KT 140V220 9999 FEW028 BKN030 28/20 A2990,0,7,0,10000.0,0,0,0,
2026-05-01 20:00:00,METAR MYNN 012000Z 16009KT 9999 FEW030 29/20 A2990,0,9,0,10000.0,0,0,0,
2026-05-01 19:00:00,METAR MYNN 011900Z 17008KT 140V230 9999 FEW030 29/20 A2992,0,8,0,10000.0,0,0,0,
2026-05-01 18:00:00,METAR MYNN 011800Z 18008KT 140V230 9999 FEW030 29/20 A2993,0,8,0,10000.0,0,0,0,
2026-05-01 17:00:00,METAR MYNN 011700Z 20008KT 150V240 9999 SCT025 29/21 A2995,0,8,0,10000.0,0,0,0,
2026-05-01 16:00:00,METAR MYNN 011600Z 23007KT 190V260 9999 BKN020 BKN250 27/21 A2997,0,7,0,10000.0,0,0,0,
2026-05-01 15:00:00,METAR MYNN 011500Z 19006KT 160V240 9999 SCT020 BKN250 28/21 A2997,0,6,0,10000.0,0,0,0,
2026-05-01 14:00:00,METAR MYNN 011400Z 22006KT 180V260 9999 SCT020 BKN220 28/21 A2997,0,6,0,10000.0,0,0,0,
2026-05-01 13:00:00,METAR MYNN 011300Z 24006KT 200V280 9999 FEW018 BKN220 26/21 A2996,0,6,0,10000.0,0,0,0,
2026-05-01 12:00:00,METAR MYNN 011200Z 28003KT 250V320 9999 FEW018 BKN220 25/22 A2997,0,3,0,10000.0,0,0,0,
2026-05-01 11:00:00,METAR MYNN 011100Z 23004KT 190V250 9999 SCT016 BKN220 24/22 A2994,0,4,0,10000.0,0,0,0,
2026-05-01 10:00:00,METAR MYNN 011000Z 22004KT 9999 SCT016 BKN250 24/22 A2992,0,4,0,10000.0,0,0,0,
2026-05-01 09:00:00,METAR MYNN 010900Z 21005KT 9999 BKN018 BKN250 25/22 A2990,0,5,0,10000.0,0,0,0,
2026-05-01 08:00:00,METAR MYNN 010800Z 20006KT 9999 SCT018 SCT250 24/22 A2989,0,6,0,10000.0,0,0,0,
2026-05-01 07:00:00,METAR MYNN 010700Z 20005KT 9999 FEW020 SCT250 24/22 A2990,0,5,0,10000.0,0,0,0,
2026-05-01 06:00:00,METAR MYNN 010600Z 17004KT 9999 FEW020 24/22 A2992,0,4,0,10000.0,0,0,0,
2026-05-01 05:00:00,METAR MYNN 010500Z 19004KT 9999 FEW020 25/22 A2995,0,4,0,10000.0,0,0,0,
2026-05-01 04:00:00,METAR MYNN 010400Z 18004KT 9999 FEW022 SCT030 25/22 A2995,0,4,0,10000.0,0,0,0,
2026-05-01 03:00:00,METAR MYNN 010300Z 17005KT 9999 FEW022 BKN030 26/22 A2994,0,5,0,10000.0,0,0,0,
2026-05-01 02:00:00,METAR MYNN 010200Z VRB02KT 9999 FEW025 BKN045 26/21 A2994,0,2,0,10000.0,0,0,0,
2026-05-01 01:00:00,METAR MYNN 010100Z COR VRB01KT 9999 SCT045 26/21 A2992,0,1,0,10000.0,0,0,0,
2026-05-01 00:00:00,METAR MYNN 010000Z 20002KT 9999 SCT045 26/20 A2990,0,2,0,10000.0,0,0,0,
2026-04-30 23:00:00,METAR MYNN 302300Z 20005KT 9999 FEW025 SCT045 27/21 A2990,0,5,0,10000.0,0,0,0,
2026-04-30 22:00:00,METAR MYNN 302200Z 21007KT 9999 FEW025 SCT045 27/21 A2989,0,7,0,10000.0,0,0,0,
2026-04-30 21:00:00,METAR MYNN 302100Z 19009KT 160V240 9999 FEW030 SCT040 28/21 A2989,0,9,0,10000.0,0,0,0,
2026-04-30 20:00:00,METAR MYNN 302000Z 20007KT 160V250 9999 FEW025 29/20 A2989,0,7,0,10000.0,0,0,0,
2026-04-30 19:00:00,METAR MYNN 301900Z 18008KT 140V220 9999 FEW025 29/21 A2990,0,8,0,10000.0,0,0,0,
2026-04-30 18:00:00,METAR MYNN 301800Z 21009KT 170V240 9999 SCT020 29/18 A2993,0,9,0,10000.0,0,0,0,
2026-04-30 17:00:00,METAR MYNN 301700Z 22009KT 170V250 9999 SCT020 28/20 A2994,0,9,0,10000.0,0,0,0,
2026-04-30 16:00:00,METAR MYNN 301600Z 20010KT 9999 SCT020 28/22 A2994,0,10,0,10000.0,0,0,0,
2026-04-30 15:00:00,METAR MYNN 301500Z 20010KT 170V240 9999 SCT020 27/21 A2997,0,10,0,10000.0,0,0,0,
2026-04-30 14:00:00,METAR MYNN 301400Z 23009KT 9999 VCSH FEW018 27/19 A2996,0,9,0,10000.0,0,0,0,"SH,VC"
2026-04-30 13:00:00,METAR MYNN 301300Z 20007KT 170V230 9999 SCT018 26/21 A2996,0,7,0,10000.0,0,0,0,
2026-04-30 12:00:00,METAR MYNN 301200Z VRB02KT 9999 FEW020 24/22 A2995,0,2,0,10000.0,0,0,0,
2026-04-30 11:00:00,METAR MYNN 301100Z VRB01KT 9999 SCT025 SCT045 21/20 A2995,0,1,0,10000.0,0,0,0,
2026-04-30 10:00:00,METAR MYNN 301000Z 00000KT 9999 FEW025 20/19 A2993,0,0,0,10000.0,0,0,0,
2026-04-30 09:00:00,METAR MYNN 300900Z VRB01KT 9999 FEW025 20/18 A2992,0,1,0,10000.0,0,0,0,
2026-04-30 08:00:00,METAR MYNN 300800Z 16003KT 9999 FEW025 21/19 A2992,0,3,0,10000.0,0,0,0,
2026-04-30 07:00:00,METAR MYNN 300700Z VRB02KT 9999 FEW025 20/19 A2996,0,2,0,10000.0,0,0,0,
2026-04-30 06:00:00,METAR MYNN 300600Z 06001KT 9999 FEW025 21/19 A2997,0,1,0,10000.0,0,0,0,
2026-04-30 05:00:00,METAR MYNN 300500Z VRB02KT 9999 FEW025 22/20 A2998,0,2,0,10000.0,0,0,0,
2026-04-30 04:00:00,METAR MYNN 300400Z VRB02KT 9999 FEW025 22/20 A2997,0,2,0,10000.0,0,0,0,
2026-04-30 03:00:00,METAR MYNN 300300Z 16004KT 9999 FEW020 24/20 A2998,0,4,0,10000.0,0,0,0,
2026-04-30 02:00:00,METAR MYNN 300200Z 16003KT 9999 FEW020 24/20 A2998,0,3,0,10000.0,0,0,0,
2026-04-30 01:00:00,METAR MYNN 300100Z VRB02KT 9999 FEW030 24/20 A2997,0,2,0,10000.0,0,0,0,
2026-04-30 00:00:00,METAR MYNN 300000Z 16006KT 9999 FEW030 25/20 A2995,0,6,0,10000.0,0,0,0,
2026-04-29 23:00:00,METAR MYNN 292300Z 17009KT 9999 FEW030 26/20 A2994,0,9,0,10000.0,0,0,0,
2026-04-29 22:00:00,METAR MYNN 292200Z 14007KT 100V180 9999 FEW030 27/19 A2995,0,7,0,10000.0,0,0,0,
2026-04-29 21:00:00,METAR MYNN 292100Z 17007KT 9999 VCSH FEW030 SCT040 26/20 A2996,0,7,0,10000.0,0,0,0,"SH,VC"
2026-04-29 20:00:00,METAR MYNN 292000Z 01008KT 9999 -SHRA FEW025 SCT030 27/21 A2997,0,8,0,10000.0,0,0,0,RA
2026-04-29 19:00:00,METAR MYNN 291900Z 18005KT 130V250 9999 FEW025 SCT030 28/20 A3000,0,5,0,10000.0,0,0,0,
2026-04-29 18:00:00,METAR MYNN 291800Z 16007KT 120V200 9999 SCT018 27/20 A3003,0,7,0,10000.0,0,0,0,
2026-04-29 17:00:00,METAR MYNN 291700Z VRB03KT 9999 VCSH SCT018 26/21 A3004,0,3,0,10000.0,0,0,0,"SH,VC"
2026-04-29 16:00:00,METAR MYNN 291600Z 30009KT 280V340 9999 VCSH SCT018 25/21 A3005,0,9,0,10000.0,0,0,0,"SH,VC"
2026-04-29 15:00:00,METAR MYNN 291500Z 14005KT 090V190 9999 BKN025 28/20 A3006,0,5,0,10000.0,0,0,0,
2026-04-29 14:00:00,METAR MYNN 291400Z 14006KT 100V210 9999 SCT025 27/18 A3006,0,6,0,10000.0,0,0,0,
2026-04-29 13:00:00,METAR MYNN 291300Z COR 15008KT 110V170 9999 SCT022 26/20 A3004,0,8,0,10000.0,0,0,0,
2026-04-29 12:00:00,METAR MYNN 291200Z 13006KT 9999 FEW020 25/20 A3002,0,6,0,10000.0,0,0,0,
2026-04-29 11:00:00,METAR MYNN 291100Z 12004KT 090V170 9999 FEW020 24/20 A3001,0,4,0,10000.0,0,0,0,
2026-04-29 10:00:00,METAR MYNN 291000Z 11005KT 070V140 9999 SCT020 23/20 A3000,0,5,0,10000.0,0,0,0,
2026-04-29 09:00:00,METAR MYNN 290900Z 13001KT 9999 SCT022 21/19 A3001,0,1,0,10000.0,0,0,0,
2026-04-29 08:00:00,METAR MYNN 290800Z 08003KT 9999 SCT022 23/20 A3001,0,3,0,10000.0,0,0,0,
2026-04-29 07:00:00,METAR MYNN 290700Z 08003KT 9999 FEW022 24/20 A3001,0,3,0,10000.0,0,0,0,
2026-04-29 06:00:00,METAR MYNN 290600Z 09004KT 9999 FEW022 24/20 A3002,0,4,0,10000.0,0,0,0,
2026-04-29 05:00:00,METAR MYNN 290500Z 11005KT 9999 FEW022 24/20 A3004,0,5,0,10000.0,0,0,0,
2026-04-29 04:00:00,METAR MYNN 290400Z 10005KT 9999 FEW022 25/20 A3006,0,5,0,10000.0,0,0,0,
2026-04-29 03:00:00,METAR MYNN 290300Z 09005KT 9999 FEW022 25/20 A3007,0,5,0,10000.0,0,0,0,
2026-04-29 02:00:00,METAR MYNN 290200Z 09005KT 9999 FEW022 25/20 A3007,0,5,0,10000.0,0,0,0,
2026-04-29 01:00:00,METAR MYNN 290100Z 10006KT 9999 FEW024 25/20 A3007,0,6,0,10000.0,0,0,0,
2026-04-29 00:00:00,METAR MYNN 290000Z 09006KT 9999 FEW025 25/20 A3005,0,6,0,10000.0,0,0,0,
2026-04-28 23:00:00,METAR MYNN 282300Z 07008KT 9999 FEW025 26/19 A3005,0,8,0,10000.0,0,0,0,
2026-04-28 22:00:00,METAR MYNN 282200Z 07011KT 040V110 9999 FEW025 27/20 A3004,0,11,0,10000.0,0,0,0,
2026-04-28 21:00:00,METAR MYNN 282100Z 08011KT 9999 FEW018CB 27/20 A3005,0,11,0,10000.0,0,0,0,
2026-04-28 20:00:00,METAR MYNN 282000Z 06008KT 020V100 9999 FEW018CB SCT025 29/20 A3005,0,8,0,10000.0,0,0,0,
2026-04-28 19:00:00,METAR MYNN 281900Z 08009KT 9999 FEW018CB SCT026 27/20 A3006,0,9,0,10000.0,0,0,0,
2026-04-28 18:00:00,METAR MYNN 281800Z VRB02KT 9999 FEW030 SCT080 28/21 A3007,0,2,0,10000.0,0,0,0,
2026-04-28 17:00:00,METAR MYNN 281700Z 34006KT 300V010 9999 -SHRA SCT025 26/22 A3008,0,6,0,10000.0,0,0,0,RA
2026-04-28 16:00:00,METAR MYNN 281600Z 15006KT 050V210 9999 VCSH SCT025 28/20 A3009,0,6,0,10000.0,0,0,0,"SH,VC"
2026-04-28 15:00:00,METAR MYNN 281500Z 12007KT 090V170 9999 SCT025 27/20 A3008,0,7,0,10000.0,0,0,0,
2026-04-28 14:00:00,METAR MYNN 281400Z 15006KT 100V180 9999 VCSH SCT025 27/20 A3008,0,6,0,10000.0,0,0,0,"SH,VC"
2026-04-28 13:00:00,METAR MYNN 281300Z 14008KT 9999 VCSH SCT020 26/21 A3008,0,8,0,10000.0,0,0,0,"SH,VC"
2026-04-28 12:00:00,METAR MYNN 281200Z 12006KT 9999 SCT020 25/21 A3007,0,6,0,10000.0,0,0,0,
2026-04-28 11:00:00,METAR MYNN 281100Z 00000KT 9999 FEW020 BKN035 21/20 A3004,0,0,0,10000.0,0,0,0,
2026-04-28 10:00:00,METAR MYNN 281000Z VRB02KT 9999 FEW020 BKN035 22/20 A3002,0,2,0,10000.0,0,0,0,
2026-04-28 09:00:00,METAR MYNN 280900Z VRB01KT 9999 FEW020 BKN035 21/20 A3001,0,1,0,10000.0,0,0,0,
2026-04-28 08:00:00,METAR MYNN 280800Z VRB01KT 9999 FEW020 22/20 A3001,0,1,0,10000.0,0,0,0,
2026-04-28 07:00:00,METAR MYNN 280700Z 00000KT 9999 FEW020 21/20 A3001,0,0,0,10000.0,0,0,0,
2026-04-28 06:00:00,METAR MYNN 280600Z VRB01KT 9999 FEW015CB SCT020 23/20 A3002,0,1,0,10000.0,0,0,0,
2026-04-28 05:00:00,METAR MYNN 280500Z VRB02KT 9999 23/20 A3004,0,2,0,10000.0,0,0,0,
2026-04-28 04:00:00,METAR MYNN 280400Z 16003KT 9999 FEW020 23/20 A3005,0,3,0,10000.0,0,0,0,
2026-04-28 03:00:00,METAR MYNN 280300Z 18003KT 140V200 9999 SCT020 24/20 A3005,0,3,0,10000.0,0,0,0,
2026-04-28 02:00:00,METAR MYNN 280200Z 00000KT 9999 SCT020 25/21 A3004,0,0,0,10000.0,0,0,0,
2026-04-28 01:00:00,METAR MYNN 280100Z VRB01KT 9999 FEW020 25/21 A3002,0,1,0,10000.0,0,0,0,
2026-04-28 00:00:00,METAR MYNN 280000Z 03002KT 9999 FEW020 26/21 A2999,0,2,0,10000.0,0,0,0,
2026-04-27 23:00:00,METAR MYNN 272300Z 01004KT 340V050 9999 FEW020 26/21 A2998,0,4,0,10000.0,0,0,0,
2026-04-27 22:00:00,METAR MYNN 272200Z 03005KT 350V060 9999 FEW015CB 27/21 A2998,0,5,0,10000.0,0,0,0,
2026-04-27 21:00:00,METAR MYNN 272100Z 03006KT 330V070 9999 FEW025 27/21 A2998,0,6,0,10000.0,0,0,0,
2026-04-27 20:00:00,METAR MYNN 272000Z 36007KT 320V050 9999 FEW025 27/21 A2999,0,7,0,10000.0,0,0,0,
2026-04-27 19:00:00,METAR MYNN 271900Z 32009KT 310V010 9999 FEW025 28/20 A2998,0,9,0,10000.0,0,0,0,
2026-04-27 18:00:00,METAR MYNN 271800Z 35003KT 300V060 9999 FEW025 29/18 A2999,0,3,0,10000.0,0,0,0,
2026-04-27 17:00:00,METAR MYNN 271700Z COR 31009KT 9999 VCTS FEW018CB 29/19 A3000,0,9,0,10000.0,1,0,0,"TS,VC"
2026-04-27 16:00:00,METAR MYNN 271600Z 23007KT 150V310 9999 FEW025 28/21 A3001,0,7,0,10000.0,0,0,0,
2026-04-27 15:00:00,METAR MYNN 271500Z 21006KT 160V250 9999 SCT022 27/19 A3001,0,6,0,10000.0,0,0,0,
2026-04-27 14:00:00,METAR MYNN 271400Z 26005KT 220V290 9999 SCT020 26/21 A3001,0,5,0,10000.0,0,0,0,
2026-04-27 13:00:00,METAR MYNN 271300Z 20007KT 170V250 9999 SCT020 26/21 A2999,0,7,0,10000.0,0,0,0,
2026-04-27 12:00:00,METAR MYNN 271200Z 22004KT 9999 FEW020 25/21 A2998,0,4,0,10000.0,0,0,0,
2026-04-27 11:00:00,METAR MYNN 271100Z VRB02KT 9999 SCT020 22/20 A2995,0,2,0,10000.0,0,0,0,
2026-04-27 10:00:00,METAR MYNN 271000Z 18005KT 9999 SCT025 21/19 A2992,0,5,0,10000.0,0,0,0,
2026-04-27 09:00:00,METAR MYNN 270900Z VRB02KT 9999 FEW025 20/19 A2992,0,2,0,10000.0,0,0,0,
2026-04-27 08:00:00,METAR MYNN 270800Z 31002KT 9999 FEW025 20/19 A2992,0,2,0,10000.0,0,0,0,
2026-04-27 07:00:00,METAR MYNN 270700Z 16003KT 9999 FEW025 22/19 A2993,0,3,0,10000.0,0,0,0,
2026-04-27 06:00:00,METAR MYNN 270600Z 15003KT 9999 FEW025 22/20 A2992,0,3,0,10000.0,0,0,0,
2026-04-27 05:00:00,METAR MYNN 270500Z 14006KT 9999 FEW025 22/20 A2994,0,6,0,10000.0,0,0,0,
2026-04-27 04:00:00,METAR MYNN 270400Z 14006KT 9999 FEW025 23/20 A2996,0,6,0,10000.0,0,0,0,
2026-04-27 03:00:00,METAR MYNN 270300Z 15005KT 9999 FEW025 23/19 A2995,0,5,0,10000.0,0,0,0,
2026-04-27 02:00:00,METAR MYNN 270200Z 13006KT 9999 FEW025 25/19 A2994,0,6,0,10000.0,0,0,0,
2026-04-27 01:00:00,METAR MYNN 270100Z 12006KT 9999 FEW025 25/19 A2994,0,6,0,10000.0,0,0,0,
2026-04-27 00:00:00,METAR MYNN 270000Z 15007KT 9999 FEW025 24/20 A2994,0,7,0,10000.0,0,0,0,
2026-04-26 23:00:00,METAR MYNN 262300Z 17007KT 9999 FEW025 25/20 A2992,0,7,0,10000.0,0,0,0,
2026-04-26 22:00:00,METAR MYNN 262200Z 13004KT 080V180 9999 SCT025 26/20 A2991,0,4,0,10000.0,0,0,0,
2026-04-26 21:00:00,METAR MYNN 262100Z 19005KT 170V230 9999 SCT025 26/20 A2991,0,5,0,10000.0,0,0,0,
2026-04-26 20:00:00,METAR MYNN 262000Z 03008KT 340V060 9999 SCT025 27/20 A2989,0,8,0,10000.0,0,0,0,
2026-04-26 19:00:00,METAR MYNN 261900Z 03008KT 9999 SCT025 26/20 A2991,0,8,0,10000.0,0,0,0,
2026-04-26 18:00:00,METAR MYNN 261800Z 36008KT 9999 BKN025 26/20 A2992,0,8,0,10000.0,0,0,0,
2026-04-26 17:00:00,METAR MYNN 261700Z VRB02KT 9999 SCT025 26/20 A2993,0,2,0,10000.0,0,0,0,
2026-04-26 16:00:00,METAR MYNN 261600Z 02006KT 340V120 9999 SCT025 27/20 A2995,0,6,0,10000.0,0,0,0,
2026-04-26 15:00:00,METAR MYNN 261500Z 05006KT 010V070 9999 FEW025 26/20 A2995,0,6,0,10000.0,0,0,0,
2026-04-26 14:00:00,METAR MYNN 261400Z 01006KT 300V040 9999 FEW022 26/20 A2994,0,6,0,10000.0,0,0,0,
2026-04-26 13:00:00,METAR MYNN 261300Z VRB02KT 9999 FEW020 25/20 A2994,0,2,0,10000.0,0,0,0,
2026-04-26 12:00:00,METAR MYNN 261200Z VRB02KT 9999 FEW020 24/20 A2993,0,2,0,10000.0,0,0,0,
2026-04-26 11:00:00,METAR MYNN 261100Z VRB01KT 9999 FEW020 19/18 A2993,0,1,0,10000.0,0,0,0,
2026-04-26 10:00:00,METAR MYNN 261000Z VRB02KT 9999 FEW020 18/17 A2991,0,2,0,10000.0,0,0,0,
2026-04-26 09:00:00,METAR MYNN 260900Z VRB01KT 9999 FEW020 19/18 A2989,0,1,0,10000.0,0,0,0,
2026-04-26 08:00:00,METAR MYNN 260800Z VRB01KT 9999 FEW020 20/18 A2989,0,1,0,10000.0,0,0,0,
2026-04-26 07:00:00,METAR MYNN 260700Z VRB01KT 9999 FEW020 20/19 A2989,0,1,0,10000.0,0,0,0,
2026-04-26 06:00:00,METAR MYNN 260600Z 12006KT 9999 FEW020 23/20 A2989,0,6,0,10000.0,0,0,0,
2026-04-26 05:00:00,METAR MYNN 260500Z 11005KT 9999 FEW020 23/20 A2991,0,5,0,10000.0,0,0,0,
2026-04-26 04:00:00,METAR MYNN 260400Z 10004KT 9999 FEW020 23/20 A2992,0,4,0,10000.0,0,0,0,
2026-04-26 03:00:00,METAR MYNN 260300Z 09004KT 9999 FEW020 23/20 A2993,0,4,0,10000.0,0,0,0,
2026-04-26 02:00:00,METAR MYNN 260200Z 13005KT 9999 FEW025 24/20 A2992,0,5,0,10000.0,0,0,0,
2026-04-26 01:00:00,METAR MYNN 260100Z 10006KT 9999 FEW025 24/19 A2990,0,6,0,10000.0,0,0,0,
2026-04-26 00:00:00,METAR MYNN 260000Z 09005KT 9999 FEW025 24/19 A2990,0,5,0,10000.0,0,0,0,
2026-04-25 23:00:00,METAR MYNN 252300Z 07008KT 9999 FEW025 SCT250 25/19 A2989,0,8,0,10000.0,0,0,0,
2026-04-25 22:00:00,METAR MYNN 252200Z 07009KT 040V100 9999 FEW025 SCT250 25/18 A2989,0,9,0,10000.0,0,0,0,
2026-04-25 21:00:00,METAR MYNN 252100Z 05009KT 020V080 9999 FEW025 25/19 A2988,0,9,0,10000.0,0,0,0,
2026-04-25 20:00:00,METAR MYNN 252000Z 05009KT 020V100 9999 SCT025 26/20 A2988,0,9,0,10000.0,0,0,0,
2026-04-25 19:00:00,METAR MYNN 251900Z 07009KT 030V100 9999 SCT025 SCT040 26/20 A2990,0,9,0,10000.0,0,0,0,
2026-04-25 18:00:00,METAR MYNN 251800Z 06006KT 010V100 9999 SCT025 SCT040 26/20 A2992,0,6,0,10000.0,0,0,0,
2026-04-25 17:00:00,METAR MYNN 251700Z 31003KT 240V350 9999 1600NE -RA BKN025 22/20 A2993,0,3,0,10000.0,0,0,0,-RA
2026-04-25 16:31:00,SPECI MYNN 251631Z 19008KT 090V260 9000 0800S SHRA BKN025 23/20 A2993,0,8,0,9000.0,0,0,0,"RA,SH"
2026-04-25 16:00:00,METAR MYNN 251600Z 06006KT 010V130 9999 -SHRA BKN025 25/18 A2993,0,6,0,10000.0,0,0,0,RA
2026-04-25 15:00:00,METAR MYNN 251500Z 06008KT 030V100 9999 SCT025 26/19 A2993,0,8,0,10000.0,0,0,0,
2026-04-25 14:00:00,METAR MYNN 251400Z VRB03KT 9999 FEW020 26/20 A2993,0,3,0,10000.0,0,0,0,
2026-04-25 13:00:00,METAR MYNN 251300Z 12006KT 9999 FEW020 24/20 A2993,0,6,0,10000.0,0,0,0,
2026-04-25 12:00:00,METAR MYNN 251200Z VRB02KT 9999 FEW020 23/20 A2992,0,2,0,10000.0,0,0,0,
2026-04-25 11:00:00,METAR MYNN 251100Z VRB01KT 9999 FEW020 18/17 A2990,0,1,0,10000.0,0,0,0,
2026-04-25 10:00:00,METAR MYNN 251000Z COR VRB02KT 9999 FEW020 19/18 A2988,0,2,0,10000.0,0,0,0,
2026-04-25 09:00:00,METAR MYNN 250900Z 00000KT 9999 FEW022 19/17 A2988,0,0,0,10000.0,0,0,0,
2026-04-25 08:00:00,METAR MYNN 250800Z VRB02KT 9999 FEW022 20/18 A2988,0,2,0,10000.0,0,0,0,
2026-04-25 07:00:00,METAR MYNN 250700Z 00000KT 9999 FEW025 19/18 A2988,0,0,0,10000.0,0,0,0,
2026-04-25 06:00:00,METAR MYNN 250600Z VRB01KT 9999 FEW025 20/18 A2989,0,1,0,10000.0,0,0,0,
2026-04-25 05:00:00,METAR MYNN 250500Z 00000KT 9999 FEW025 20/18 A2992,0,0,0,10000.0,0,0,0,
2026-04-25 04:00:00,METAR MYNN 250400Z 09003KT 9999 FEW025 22/19 A2994,0,3,0,10000.0,0,0,0,
2026-04-25 03:00:00,METAR MYNN 250300Z VRB02KT 9999 FEW025 22/19 A2995,0,2,0,10000.0,0,0,0,
2026-04-25 02:00:00,METAR MYNN 250200Z 09003KT 050V120 9999 FEW025 SCT070 23/20 A2995,0,3,0,10000.0,0,0,0,
2026-04-25 01:00:00,METAR MYNN 250100Z 08003KT 9999 FEW025 SCT080 24/19 A2994,0,3,0,10000.0,0,0,0,
2026-04-25 00:00:00,METAR MYNN 250000Z 15006KT 9999 FEW030 SCT110 23/19 A2992,0,6,0,10000.0,0,0,0,
2026-04-24 23:00:00,METAR MYNN 242300Z 15007KT 9999 FEW015CB SCT030 SCT200 25/18 A2990,0,7,0,10000.0,0,0,0,
2026-04-24 22:00:00,METAR MYNN 242200Z 14009KT 9999 FEW015CB SCT025 SCT120 BKN200 25/18 A2990,0,9,0,10000.0,0,0,0,
2026-04-24 21:00:00,METAR MYNN 242100Z 15012KT 9999 -SHRA FEW025 BKN050 BKN210 25/19 A2990,0,12,0,10000.0,0,0,0,RA
2026-04-24 20:00:00,METAR MYNN 242000Z 15009KT 010V320 9999 FEW025 SCT030 BKN220 26/19 A2991,0,9,0,10000.0,0,0,0,
2026-04-24 19:00:00,METAR MYNN 241900Z 15011KT 110V180 9999 FEW025 SCT030 BKN220 26/18 A2992,0,11,0,10000.0,0,0,0,
2026-04-24 18:00:00,METAR MYNN 241800Z 14011KT 9999 VCSH SCT025 BKN100 25/18 A2995,0,11,0,10000.0,0,0,0,"SH,VC"
2026-04-24 17:00:00,METAR MYNN 241700Z 15011KT 9999 VCSH FEW027 BKN090 BKN120 26/17 A2997,0,11,0,10000.0,0,0,0,"SH,VC"
2026-04-24 16:00:00,METAR MYNN 241600Z 14011KT 9999 VCSH FEW025 BKN090 BKN120 25/18 A2998,0,11,0,10000.0,0,0,0,"SH,VC"
2026-04-24 15:00:00,METAR MYNN 241500Z 12007KT 9999 VCSH SCT035 BKN090 BKN120 24/18 A3000,0,7,0,10000.0,0,0,0,"SH,VC"
2026-04-24 14:00:00,METAR MYNN 241400Z 12009KT 9999 VCSH FEW032 SCT090 BKN120 23/18 A3000,0,9,0,10000.0,0,0,0,"SH,VC"
2026-04-24 13:00:00,METAR MYNN 241300Z 12006KT 070V160 9999 VCSH FEW025 BKN070 BKN200 24/17 A3000,0,6,0,10000.0,0,0,0,"SH,VC"
2026-04-24 12:00:00,METAR MYNN 241200Z COR 08004KT 020V100 9999 VCSH FEW030 BKN060 BKN200 23/17 A2999,0,4,0,10000.0,0,0,0,"SH,VC"
2026-04-24 11:00:00,METAR MYNN 241100Z 11006KT 9999 VCSH FEW030 BKN080 OVC200 22/17 A2997,0,6,0,10000.0,0,0,0,"SH,VC"
2026-04-24 10:00:00,METAR MYNN 241000Z 11005KT 9999 VCSH FEW030 OVC220 22/17 A2995,0,5,0,10000.0,0,0,0,"SH,VC"
2026-04-24 09:00:00,METAR MYNN 240900Z COR 11006KT 9999 FEW030 OVC220 22/16 A2995,0,6,0,10000.0,0,0,0,
2026-04-24 08:00:00,METAR MYNN 240800Z 10006KT 9999 FEW030 OVC220 22/17 A2995,0,6,0,10000.0,0,0,0,
2026-04-24 07:00:00,METAR MYNN 240700Z 11005KT 9999 FEW030 SCT060 BKN220 22/16 A2997,0,5,0,10000.0,0,0,0,
2026-04-24 06:00:00,METAR MYNN 240600Z 10005KT 9999 FEW030 BKN060 BKN220 22/16 A3000,0,5,0,10000.0,0,0,0,
2026-04-24 05:00:00,METAR MYNN 240500Z 11006KT 9999 FEW030 SCT050 BKN220 22/16 A3002,0,6,0,10000.0,0,0,0,
2026-04-24 04:00:00,METAR MYNN 240400Z 11006KT 9999 FEW030 SCT050 BKN220 22/16 A3003,0,6,0,10000.0,0,0,0,
2026-04-24 03:00:00,METAR MYNN 240300Z 11008KT 9999 FEW030 BKN045 BKN220 23/16 A3003,0,8,0,10000.0,0,0,0,
2026-04-24 02:00:00,METAR MYNN 240200Z 11007KT 9999 FEW040 SCT050 23/15 A3003,0,7,0,10000.0,0,0,0,
2026-04-24 01:00:00,METAR MYNN 240100Z 10007KT 9999 FEW040 SCT050 23/15 A3002,0,7,0,10000.0,0,0,0,
2026-04-24 00:00:00,METAR MYNN 240000Z 11009KT 9999 SCT035 SCT050 BKN250 23/15 A3002,0,9,0,10000.0,0,0,0,
2026-04-23 23:00:00,METAR MYNN 232300Z 10008KT 070V130 9999 SCT035 SCT040 BKN240 24/16 A3001,0,8,0,10000.0,0,0,0,
2026-04-23 22:00:00,METAR MYNN 232200Z 13010KT 100V160 9999 FEW030 SCT040 24/15 A3001,0,10,0,10000.0,0,0,0,
2026-04-23 21:00:00,METAR MYNN 232100Z 14010KT 110V170 9999 SCT040 SCT240 25/15 A3000,0,10,0,10000.0,0,0,0,
2026-04-23 20:00:00,METAR MYNN 232000Z 14009KT 120V180 9999 SCT040 25/14 A3001,0,9,0,10000.0,0,0,0,
2026-04-23 19:00:00,METAR MYNN 231900Z 13009KT 090V170 9999 SCT035 25/13 A3003,0,9,0,10000.0,0,0,0,
2026-04-23 18:00:00,METAR MYNN 231800Z 07010KT 030V130 9999 SCT020 24/13 A3006,0,10,0,10000.0,0,0,0,
2026-04-23 17:00:00,METAR MYNN 231700Z 06011KT 030V100 9999 FEW020 24/13 A3008,0,11,0,10000.0,0,0,0,
2026-04-23 16:00:00,METAR MYNN 231600Z 08010KT 050V120 9999 FEW020 24/13 A3010,0,10,0,10000.0,0,0,0,
2026-04-23 15:00:00,METAR MYNN 231500Z 10011KT 060V140 9999 FEW020 SCT250 25/13 A3010,0,11,0,10000.0,0,0,0,
2026-04-23 14:00:00,METAR MYNN 231400Z 09009KT 060V140 9999 FEW020 SCT250 24/13 A3010,0,9,0,10000.0,0,0,0,
2026-04-23 13:00:00,METAR MYNN 231300Z 10010KT 9999 FEW020 SCT040 SCT250 23/14 A3010,0,10,0,10000.0,0,0,0,
2026-04-23 12:00:00,METAR MYNN 231200Z 12006KT 9999 FEW020 SCT040 SCT250 22/14 A3011,0,6,0,10000.0,0,0,0,
2026-04-23 11:00:00,METAR MYNN 231100Z 11004KT 9999 SCT030 SCT250 20/13 A3009,0,4,0,10000.0,0,0,0,
2026-04-23 10:00:00,METAR MYNN 231000Z 09003KT 9999 SCT025 20/13 A3007,0,3,0,10000.0,0,0,0,
2026-04-23 09:00:00,METAR MYNN 230900Z 10005KT 9999 FEW025 20/13 A3008,0,5,0,10000.0,0,0,0,
2026-04-23 08:00:00,METAR MYNN 230800Z 11006KT 9999 FEW025 21/13 A3007,0,6,0,10000.0,0,0,0,
2026-04-23 07:00:00,METAR MYNN 230700Z 12007KT 9999 FEW025 21/14 A3008,0,7,0,10000.0,0,0,0,
2026-04-23 06:00:00,METAR MYNN 230600Z COR 11005KT 9999 FEW025 21/14 A3010,0,5,0,10000.0,0,0,0,
2026-04-23 05:00:00,METAR MYNN 230500Z 12007KT 9999 FEW030 22/14 A3012,0,7,0,10000.0,0,0,0,
2026-04-23 04:00:00,METAR MYNN 230400Z 11007KT 9999 FEW030 22/14 A3013,0,7,0,10000.0,0,0,0,
2026-04-23 03:00:00,METAR MYNN 230300Z 12009KT 9999 FEW030 22/14 A3013,0,9,0,10000.0,0,0,0,
2026-04-23 02:00:00,METAR MYNN 230200Z 11008KT 9999 FEW030 22/15 A3013,0,8,0,10000.0,0,0,0,
2026-04-23 01:00:00,METAR MYNN 230100Z 09006KT 9999 FEW030 SCT060 23/14 A3013,0,6,0,10000.0,0,0,0,
2026-04-23 00:00:00,METAR MYNN 230000Z 10008KT 9999 FEW030 23/13 A3011,0,8,0,10000.0,0,0,0,
2026-04-22 23:00:00,METAR MYNN 222300Z 10010KT 9999 FEW030 SCT060 24/14 A3011,0,10,0,10000.0,0,0,0,
2026-04-22 22:00:00,METAR MYNN 222200Z 09012KT 9999 FEW030 SCT050 24/13 A3011,0,12,0,10000.0,0,0,0,
2026-04-22 21:00:00,METAR MYNN 222100Z 08012KT 9999 SCT030 SCT050 25/13 A3011,0,12,0,10000.0,0,0,0,
2026-04-22 20:00:00,METAR MYNN 222000Z 10012KT 050V120 9999 FEW030 BKN045 25/14 A3011,0,12,0,10000.0,0,0,0,
2026-04-22 19:00:00,METAR MYNN 221900Z 09013KT 9999 FEW030 BKN045 24/14 A3013,0,13,0,10000.0,0,0,0,
2026-04-22 18:00:00,METAR MYNN 221800Z 08015KT 9999 FEW028 BKN042 25/13 A3016,0,15,0,10000.0,0,0,0,
2026-04-22 17:00:00,METAR MYNN 221700Z 08013KT 060V120 9999 FEW030 BKN042 24/14 A3018,0,13,0,10000.0,0,0,0,
2026-04-22 16:00:00,METAR MYNN 221600Z 09014KT 060V120 9999 FEW030 BKN042 24/13 A3018,0,14,0,10000.0,0,0,0,
2026-04-22 15:00:00,METAR MYNN 221500Z 10013KT 9999 VCSH FEW035 BKN040 24/14 A3020,0,13,0,10000.0,0,0,0,"SH,VC"
2026-04-22 14:00:00,METAR MYNN 221400Z 09013KT 9999 VCSH FEW030 BKN040 23/15 A3019,0,13,0,10000.0,0,0,0,"SH,VC"
2026-04-22 13:00:00,METAR MYNN 221300Z 10012KT 9999 FEW030 SCT045 24/13 A3018,0,12,0,10000.0,0,0,0,
2026-04-22 12:00:00,METAR MYNN 221200Z 10010KT 9999 FEW035 SCT040 23/14 A3018,0,10,0,10000.0,0,0,0,
2026-04-22 11:00:00,METAR MYNN 221100Z 09010KT 9999 FEW028 22/12 A3016,0,10,0,10000.0,0,0,0,
2026-04-22 10:00:00,METAR MYNN 221000Z 10010KT 9999 SCT040 22/12 A3014,0,10,0,10000.0,0,0,0,
2026-04-22 09:00:00,METAR MYNN 220900Z 09012KT 9999 SCT040 22/13 A3013,0,12,0,10000.0,0,0,0,
2026-04-22 08:00:00,METAR MYNN 220800Z 10009KT 9999 SCT040 22/13 A3013,0,9,0,10000.0,0,0,0,
2026-04-22 07:00:00,METAR MYNN 220700Z 09010KT 9999 SCT040 22/12 A3015,0,10,0,10000.0,0,0,0,
2026-04-22 06:00:00,METAR MYNN 220600Z 08009KT 9999 SCT040 22/13 A3017,0,9,0,10000.0,0,0,0,
2026-04-22 05:00:00,METAR MYNN 220500Z 08013KT 9999 SCT040 22/13 A3018,0,13,0,10000.0,0,0,0,
2026-04-22 04:00:00,METAR MYNN 220400Z 09010KT 050V110 9999 SCT040 22/12 A3020,0,10,0,10000.0,0,0,0,
2026-04-22 03:00:00,METAR MYNN 220300Z 08012KT 9999 SCT040 22/12 A3020,0,12,0,10000.0,0,0,0,
2026-04-22 02:00:00,METAR MYNN 220200Z 07014KT 9999 BKN040 22/13 A3020,0,14,0,10000.0,0,0,0,
2026-04-22 01:00:00,METAR MYNN 220100Z 08013KT 9999 BKN040 23/13 A3018,0,13,0,10000.0,0,0,0,
2026-04-22 00:00:00,METAR MYNN 220000Z 08012KT 9999 BKN040 23/14 A3016,0,12,0,10000.0,0,0,0,
2026-04-21 23:00:00,METAR MYNN 212300Z 07015G25KT 040V100 9999 BKN030 23/14 A3015,0,15,1,10000.0,0,0,0,
2026-04-21 22:00:00,METAR MYNN 212200Z 07015G25KT 9999 BKN030 24/14 A3014,0,15,1,10000.0,0,0,0,
2026-04-21 21:00:00,METAR MYNN 212100Z 07016G26KT 030V110 9999 SCT030 24/15 A3014,0,16,1,10000.0,0,0,0,
2026-04-21 20:00:00,METAR MYNN 212000Z COR 08016G26KT 050V110 9999 FEW030 25/15 A3014,0,16,1,10000.0,0,0,0,
2026-04-21 19:00:00,METAR MYNN 211900Z 07017KT 040V100 9999 SCT030 25/15 A3016,0,17,0,10000.0,0,0,0,
2026-04-21 18:00:00,METAR MYNN 211800Z 06013G26KT 020V090 9999 FEW028 SCT150 25/16 A3018,0,13,1,10000.0,0,0,0,
2026-04-21 17:00:00,METAR MYNN 211700Z 06013G26KT 030V090 9999 FEW025 BKN035 BKN150 24/15 A3018,0,13,1,10000.0,0,0,0,
2026-04-21 16:00:00,METAR MYNN 211600Z 05014G27KT 020V090 9999 FEW022 SCT030 BKN140 25/17 A3020,0,14,1,10000.0,0,0,0,
2026-04-21 15:00:00,METAR MYNN 211500Z COR 06014G28KT 9999 FEW020 BKN030 BKN120 24/17 A3020,0,14,1,10000.0,0,0,0,
2026-04-21 14:00:00,METAR MYNN 211400Z 06016G28KT 9999 BKN020 BKN120 23/17 A3018,0,16,1,10000.0,0,0,0,
2026-04-21 13:00:00,METAR MYNN 211300Z 06015G31KT 9999 SCT018 SCT150 BKN200 23/17 A3015,0,15,1,10000.0,0,0,0,
2026-04-21 12:00:00,METAR MYNN 211200Z 06017G28KT 9999 SCT018 BKN220 23/18 A3013,0,17,1,10000.0,0,0,0,
2026-04-21 11:00:00,METAR MYNN 211100Z 05018G29KT 9999 FEW018 BKN035 BKN250 23/18 A3012,0,18,1,10000.0,0,0,0,
2026-04-21 10:00:00,METAR MYNN 211000Z 06018KT 9999 BKN018 BKN250 23/19 A3009,0,18,0,10000.0,0,0,0,
2026-04-21 09:00:00,METAR MYNN 210900Z 05015KT 9999 BKN018 BKN250 23/20 A3008,0,15,0,10000.0,0,0,0,
2026-04-21 08:00:00,METAR MYNN 210800Z 07010KT 030V090 9999 FEW020 24/20 A3006,0,10,0,10000.0,0,0,0,
2026-04-21 07:00:00,METAR MYNN 210700Z 07010KT 9999 FEW020 24/20 A3006,0,10,0,10000.0,0,0,0,
2026-04-21 06:00:00,METAR MYNN 210600Z 05009KT 9999 FEW020 SCT250 24/20 A3007,0,9,0,10000.0,0,0,0,
2026-04-21 05:00:00,METAR MYNN 210500Z 04010KT 9999 FEW020 SCT250 24/21 A3009,0,10,0,10000.0,0,0,0,
2026-04-21 04:00:00,METAR MYNN 210400Z 04009KT 9999 FEW020 SCT250 24/19 A3009,0,9,0,10000.0,0,0,0,
2026-04-21 03:00:00,METAR MYNN 210300Z 04011KT 9999 FEW020 SCT250 24/20 A3009,0,11,0,10000.0,0,0,0,
2026-04-21 02:00:00,METAR MYNN 210200Z 06009KT 9999 FEW020 SCT250 25/20 A3007,0,9,0,10000.0,0,0,0,
2026-04-21 01:00:00,METAR MYNN 210100Z 06010KT 030V090 9999 FEW020 SCT250 25/20 A3007,0,10,0,10000.0,0,0,0,
2026-04-21 00:00:00,METAR MYNN 210000Z 05008KT 9999 FEW020 SCT100 BKN250 26/20 A3005,0,8,0,10000.0,0,0,0,
2026-04-20 23:00:00,METAR MYNN 202300Z 04008KT 010V070 9999 FEW020 SCT100 BKN250 25/21 A3004,0,8,0,10000.0,0,0,0,
2026-04-20 22:00:00,METAR MYNN 202200Z 04009KT 010V070 9999 FEW020 SCT250 26/22 A3003,0,9,0,10000.0,0,0,0,
2026-04-20 21:00:00,METAR MYNN 202100Z 03009KT 9999 FEW020 SCT250 26/21 A3002,0,9,0,10000.0,0,0,0,
2026-04-20 20:00:00,METAR MYNN 202000Z 04008KT 360V090 9999 FEW020 27/22 A3003,0,8,0,10000.0,0,0,0,
2026-04-20 19:00:00,METAR MYNN 201900Z 04009KT 9999 SCT020 27/22 A3004,0,9,0,10000.0,0,0,0,
2026-04-20 18:00:00,METAR MYNN 201800Z 04009KT 010V080 9999 SCT020 28/22 A3005,0,9,0,10000.0,0,0,0,
2026-04-20 17:00:00,METAR MYNN 201700Z 04008KT 360V070 9999 VCSH FEW018TCU SCT250 27/21 A3006,0,8,0,10000.0,0,0,0,"SH,VC"
2026-04-20 16:00:00,METAR MYNN 201600Z 05009KT 020V080 9999 FEW018TCU BKN250 27/22 A3007,0,9,0,10000.0,0,0,0,
2026-04-20 15:00:00,METAR MYNN 201500Z 03008KT 360V070 9999 FEW018TCU SCT250 26/22 A3007,0,8,0,10000.0,0,0,0,
2026-04-20 14:00:00,METAR MYNN 201400Z 06007KT 9999 SCT018 SCT250 26/22 A3005,0,7,0,10000.0,0,0,0,
2026-04-20 13:00:00,METAR MYNN 201300Z 04006KT 360V070 9999 SCT018 SCT250 25/22 A3005,0,6,0,10000.0,0,0,0,
2026-04-20 12:00:00,METAR MYNN 201200Z 04003KT 010V070 9999 FEW020 SCT160 25/22 A3004,0,3,0,10000.0,0,0,0,
2026-04-20 11:00:00,METAR MYNN 201100Z 01003KT 9999 FEW020 SCT090 BKN240 22/22 A3003,0,3,0,10000.0,0,0,0,
2026-04-20 10:00:00,METAR MYNN 201000Z VRB02KT 9999 FEW020 BKN180 22/22 A3001,0,2,0,10000.0,0,0,0,
2026-04-20 09:00:00,METAR MYNN 200900Z VRB02KT 9999 FEW020 BKN200 22/22 A3000,0,2,0,10000.0,0,0,0,
2026-04-20 08:00:00,METAR MYNN 200800Z 00000KT 9999 FEW020 BKN220 22/20 A2999,0,0,0,10000.0,0,0,0,
2026-04-20 07:00:00,METAR MYNN 200700Z 00000KT 9999 FEW020 BKN240 22/20 A3000,0,0,0,10000.0,0,0,0,
2026-04-20 06:00:00,METAR MYNN 200600Z 05004KT 9999 FEW018 BKN220 24/22 A3002,0,4,0,10000.0,0,0,0,
2026-04-20 05:00:00,METAR MYNN 200500Z 01003KT 9999 FEW018 BKN220 23/23 A3004,0,3,0,10000.0,0,0,0,
2026-04-20 04:00:00,METAR MYNN 200400Z 05003KT 9999 FEW020 BKN240 24/23 A3005,0,3,0,10000.0,0,0,0,
2026-04-20 03:00:00,METAR MYNN 200300Z 12005KT 9999 FEW020 BKN240 25/22 A3005,0,5,0,10000.0,0,0,0,
2026-04-20 02:00:00,METAR MYNN 200200Z 11004KT 9999 FEW022 BKN250 25/22 A3004,0,4,0,10000.0,0,0,0,
2026-04-20 01:00:00,METAR MYNN 200100Z 09004KT 9999 FEW022 BKN250 25/22 A3002,0,4,0,10000.0,0,0,0,
2026-04-20 00:00:00,METAR MYNN 200000Z 05005KT 9999 FEW022 BKN250 25/22 A3000,0,5,0,10000.0,0,0,0,
2026-04-19 23:00:00,METAR MYNN 192300Z 04005KT 010V070 9999 SCT022 SCT250 26/22 A3000,0,5,0,10000.0,0,0,0,
2026-04-19 22:00:00,METAR MYNN 192200Z 02006KT 350V060 9999 FEW020TCU SCT035 SCT250 26/22 A3000,0,6,0,10000.0,0,0,0,
2026-04-19 21:00:00,METAR MYNN 192100Z COR VRB05KT 9999 VCSH SCT020TCU SCT070 BKN250 27/22 A2999,0,5,0,10000.0,0,0,0,"SH,VC"
2026-04-19 20:00:00,METAR MYNN 192000Z 02006KT 340V070 9999 SCT020TCU SCT070 BKN250 26/22 A3000,0,6,0,10000.0,0,0,0,
2026-04-19 19:00:00,METAR MYNN 191900Z 02008KT 340V050 9999 VCSH SCT015CB BKN250 26/22 A3001,0,8,0,10000.0,0,0,0,"SH,VC"
2026-04-19 18:00:00,METAR MYNN 191800Z 35007KT 9999 SCT020TCU BKN250 26/23 A3003,0,7,0,10000.0,0,0,0,
2026-04-19 17:00:00,METAR MYNN 191700Z VRB02KT 9999 VCSH SCT020TCU 28/23 A3004,0,2,0,10000.0,0,0,0,"SH,VC"
2026-04-19 16:00:00,METAR MYNN 191600Z 31005KT 270V360 9999 1600NW -SHRA SCT020 25/22 A3005,0,5,0,10000.0,0,0,0,RA
2026-04-19 15:00:00,METAR MYNN 191500Z 16006KT 120V190 9999 SCT020 BKN100 27/21 A3005,0,6,0,10000.0,0,0,0,
2026-04-19 14:00:00,METAR MYNN 191400Z 16005KT 120V210 9999 FEW020 BKN080 26/21 A3004,0,5,0,10000.0,0,0,0,
2026-04-19 13:00:00,METAR MYNN 191300Z 15006KT 9999 FEW020 BKN070 26/22 A3003,0,6,0,10000.0,0,0,0,
2026-04-19 12:00:00,METAR MYNN 191200Z 13004KT 100V160 9999 FEW020 BKN080 25/22 A3003,0,4,0,10000.0,0,0,0,
2026-04-19 11:00:00,METAR MYNN 191100Z 00000KT 9999 FEW018 BKN050 22/21 A3001,0,0,0,10000.0,0,0,0,
2026-04-19 10:00:00,METAR MYNN 191000Z COR VRB01KT 9999 FEW016 22/21 A3000,0,1,0,10000.0,0,0,0,
2026-04-19 09:00:00,METAR MYNN 190900Z 09003KT 060V120 9999 FEW016 SCT230 23/22 A2999,0,3,0,10000.0,0,0,0,
2026-04-19 08:00:00,METAR MYNN 190800Z 12004KT 9999 FEW016 SCT230 24/22 A2999,0,4,0,10000.0,0,0,0,
2026-04-19 07:00:00,METAR MYNN 190700Z 11005KT 9999 FEW018 SCT230 24/22 A3000,0,5,0,10000.0,0,0,0,
2026-04-19 06:00:00,METAR MYNN 190600Z 11005KT 9999 FEW018 SCT230 24/21 A3002,0,5,0,10000.0,0,0,0,
2026-04-19 05:00:00,METAR MYNN 190500Z COR 11004KT 9999 FEW018 SCT230 25/22 A3003,0,4,0,10000.0,0,0,0,
2026-04-19 04:00:00,METAR MYNN 190400Z 10004KT 9999 FEW018 25/22 A3004,0,4,0,10000.0,0,0,0,
2026-04-19 03:00:00,METAR MYNN 190300Z 09006KT 9999 FEW018 25/22 A3004,0,6,0,10000.0,0,0,0,
2026-04-19 02:00:00,METAR MYNN 190200Z 09005KT 9999 FEW018 25/22 A3003,0,5,0,10000.0,0,0,0,
2026-04-19 01:00:00,METAR MYNN 190100Z 07005KT 9999 FEW018 25/22 A3002,0,5,0,10000.0,0,0,0,
2026-04-19 00:00:00,METAR MYNN 190000Z 08006KT 9999 FEW018 25/22 A3000,0,6,0,10000.0,0,0,0,
2026-04-18 23:00:00,METAR MYNN 182300Z 07009KT 9999 SCT018 26/22 A2998,0,9,0,10000.0,0,0,0,
2026-04-18 22:00:00,METAR MYNN 182200Z 09008KT 050V160 9999 SCT025 SCT200 27/22 A2998,0,8,0,10000.0,0,0,0,
2026-04-18 21:00:00,METAR MYNN 182100Z 09007KT 020V140 9999 SCT025 SCT200 29/22 A2997,0,7,0,10000.0,0,0,0,
2026-04-18 20:00:00,METAR MYNN 182000Z 09008KT 050V130 9999 SCT028 SCT200 28/22 A2998,0,8,0,10000.0,0,0,0,
2026-04-18 19:00:00,METAR MYNN 181900Z 07010KT 040V120 9999 SCT025 28/22 A3000,0,10,0,10000.0,0,0,0,
2026-04-18 18:00:00,METAR MYNN 181800Z 07011KT 050V110 9999 FEW025 SCT030 28/22 A3002,0,11,0,10000.0,0,0,0,
2026-04-18 17:00:00,METAR MYNN 181700Z 06010KT 9999 SCT025 27/22 A3003,0,10,0,10000.0,0,0,0,
2026-04-18 16:00:00,METAR MYNN 181600Z 09007KT 030V140 9999 SCT020 26/22 A3005,0,7,0,10000.0,0,0,0,
2026-04-18 15:00:00,METAR MYNN 181500Z 10008KT 070V130 9999 SCT020 27/21 A3005,0,8,0,10000.0,0,0,0,
2026-04-18 14:00:00,METAR MYNN 181400Z 12004KT 090V150 9999 SCT018 27/21 A3004,0,4,0,10000.0,0,0,0,
2026-04-18 13:00:00,METAR MYNN 181300Z 11005KT 070V130 9999 SCT018 26/22 A3003,0,5,0,10000.0,0,0,0,
2026-04-18 12:00:00,METAR MYNN 181200Z 10006KT 9999 FEW018 25/22 A3001,0,6,0,10000.0,0,0,0,
2026-04-18 11:00:00,METAR MYNN 181100Z 10004KT 9999 FEW018 24/21 A2999,0,4,0,10000.0,0,0,0,
2026-04-18 10:00:00,METAR MYNN 181000Z 10004KT 070V130 9999 FEW018 23/21 A2998,0,4,0,10000.0,0,0,0,
2026-04-18 09:00:00,METAR MYNN 180900Z 12006KT 9999 FEW018 24/22 A2996,0,6,0,10000.0,0,0,0,
2026-04-18 08:00:00,METAR MYNN 180800Z 10004KT 070V130 9999 FEW018 24/22 A2997,0,4,0,10000.0,0,0,0,
2026-04-18 07:00:00,METAR MYNN 180700Z 11006KT 9999 FEW018 24/22 A2999,0,6,0,10000.0,0,0,0,
2026-04-18 06:00:00,METAR MYNN 180600Z 11004KT 9999 FEW018 24/22 A3001,0,4,0,10000.0,0,0,0,
2026-04-18 05:00:00,METAR MYNN 180500Z 09005KT 9999 FEW018 SCT035 24/22 A3002,0,5,0,10000.0,0,0,0,
2026-04-18 04:00:00,METAR MYNN 180400Z 09006KT 9999 FEW018 SCT035 24/22 A3003,0,6,0,10000.0,0,0,0,
2026-04-18 03:00:00,METAR MYNN 180300Z 09007KT 9999 FEW018 SCT035 25/22 A3003,0,7,0,10000.0,0,0,0,
2026-04-18 02:00:00,METAR MYNN 180200Z 09007KT 9999 FEW018 25/22 A3003,0,7,0,10000.0,0,0,0,
2026-04-18 01:00:00,METAR MYNN 180100Z 09005KT 9999 FEW018 25/22 A3002,0,5,0,10000.0,0,0,0,
2026-04-18 00:00:00,METAR MYNN 180000Z 08006KT 9999 FEW018 25/21 A3001,0,6,0,10000.0,0,0,0,
2026-04-17 23:00:00,METAR MYNN 172300Z 09009KT 9999 FEW020 26/21 A3000,0,9,0,10000.0,0,0,0,
2026-04-17 22:00:00,METAR MYNN 172200Z 05011KT 9999 FEW020 26/22 A3000,0,11,0,10000.0,0,0,0,
2026-04-17 21:00:00,METAR MYNN 172100Z 05012KT 020V080 9999 FEW020 27/22 A3000,0,12,0,10000.0,0,0,0,
2026-04-17 20:00:00,METAR MYNN 172000Z 05010KT 020V080 9999 FEW025 28/21 A3000,0,10,0,10000.0,0,0,0,
2026-04-17 19:00:00,METAR MYNN 171900Z 05012KT 360V070 9999 SCT025 27/22 A3002,0,12,0,10000.0,0,0,0,
2026-04-17 18:00:00,METAR MYNN 171800Z 06011KT 9999 SCT020 28/22 A3004,0,11,0,10000.0,0,0,0,
2026-04-17 17:00:00,METAR MYNN 171700Z 05014KT 9999 SCT020 27/22 A3006,0,14,0,10000.0,0,0,0,
2026-04-17 16:00:00,METAR MYNN 171600Z 06011KT 9999 SCT020 27/22 A3007,0,11,0,10000.0,0,0,0,
2026-04-17 15:00:00,METAR MYNN 171500Z 07010KT 9999 BKN020 26/21 A3007,0,10,0,10000.0,0,0,0,
2026-04-17 14:00:00,METAR MYNN 171400Z 10008KT 060V120 9999 BKN018 26/21 A3006,0,8,0,10000.0,0,0,0,
2026-04-17 13:00:00,METAR MYNN 171300Z 09008KT 060V120 9999 SCT018 26/22 A3005,0,8,0,10000.0,0,0,0,
2026-04-17 12:00:00,METAR MYNN 171200Z 10006KT 070V130 9999 FEW020 25/22 A3003,0,6,0,10000.0,0,0,0,
2026-04-17 11:00:00,METAR MYNN 171100Z 08003KT 040V130 9999 FEW015 BKN030 23/21 A3002,0,3,0,10000.0,0,0,0,
2026-04-17 10:00:00,METAR MYNN 171000Z 10007KT 9999 -SHRA FEW015 BKN030 24/21 A3000,0,7,0,10000.0,0,0,0,RA
2026-04-17 09:00:00,METAR MYNN 170900Z 08004KT 050V110 9999 FEW015 23/22 A2999,0,4,0,10000.0,0,0,0,
2026-04-17 08:00:00,METAR MYNN 170800Z 09005KT 9999 FEW015 SCT035 24/22 A3000,0,5,0,10000.0,0,0,0,
2026-04-17 07:00:00,METAR MYNN 170700Z 09006KT 050V110 9999 FEW015 SCT035 24/22 A3001,0,6,0,10000.0,0,0,0,
2026-04-17 06:00:00,METAR MYNN 170600Z 10006KT 9999 FEW015 SCT035 24/21 A3003,0,6,0,10000.0,0,0,0,
2026-04-17 05:00:00,METAR MYNN 170500Z 09007KT 9999 FEW015 SCT035 24/22 A3006,0,7,0,10000.0,0,0,0,
2026-04-17 04:00:00,METAR MYNN 170400Z 08007KT 9999 SCT015 SCT040 24/22 A3007,0,7,0,10000.0,0,0,0,
2026-04-17 03:00:00,METAR MYNN 170300Z 08008KT 9999 SCT015 SCT040 24/22 A3008,0,8,0,10000.0,0,0,0,
2026-04-17 02:00:00,METAR MYNN 170200Z 08006KT 050V110 9999 SCT015 SCT040 24/22 A3007,0,6,0,10000.0,0,0,0,
2026-04-17 01:00:00,METAR MYNN 170100Z 09008KT 9999 -SHRA SCT015 BKN040 24/22 A3006,0,8,0,10000.0,0,0,0,RA
2026-04-17 00:00:00,METAR MYNN 170000Z 08008KT 9999 SCT018 BKN040 25/21 A3004,0,8,0,10000.0,0,0,0,
2026-04-16 23:00:00,METAR MYNN 162300Z 08008KT 9999 SCT018 BKN040 25/21 A3004,0,8,0,10000.0,0,0,0,
2026-04-16 22:00:00,METAR MYNN 162200Z 10011KT 9999 SCT018 BKN035 26/21 A3003,0,11,0,10000.0,0,0,0,
2026-04-16 21:00:00,METAR MYNN 162100Z 09012KT 9999 BKN018 26/21 A3003,0,12,0,10000.0,0,0,0,
2026-04-16 20:00:00,METAR MYNN 162000Z 06010KT 010V110 9999 SCT016 SCT040 27/22 A3005,0,10,0,10000.0,0,0,0,
2026-04-16 19:00:00,METAR MYNN 161900Z 05011KT 9999 VCSH SCT016 SCT035 26/22 A3007,0,11,0,10000.0,0,0,0,"SH,VC"
2026-04-16 18:00:00,METAR MYNN 161800Z 06011KT 010V100 9999 SCT018 25/22 A3009,0,11,0,10000.0,0,0,0,
2026-04-16 17:00:00,METAR MYNN 161700Z 05008KT 020V080 9999 SCT015 BKN030 25/23 A3011 RERA,0,8,0,10000.0,0,0,0,RA
2026-04-16 16:00:00,METAR MYNN 161600Z 03008KT 8000 -SHRA SCT015 BKN035 23/22 A3013,0,8,0,8000.0,0,0,0,RA
2026-04-16 15:00:00,METAR MYNN 161500Z COR 05012KT 9999 VCSH FEW018 BKN040 25/20 A3013,0,12,0,10000.0,0,0,0,"SH,VC"
2026-04-16 14:00:00,METAR MYNN 161400Z 05011KT 9999 SCT018 BKN040 25/20 A3013,0,11,0,10000.0,0,0,0,
2026-04-16 13:00:00,METAR MYNN 161300Z COR 05009KT 9999 FEW018 SCT040 25/20 A3011,0,9,0,10000.0,0,0,0,
2026-04-16 12:00:00,METAR MYNN 161200Z 06008KT 9999 FEW020 24/19 A3011,0,8,0,10000.0,0,0,0,
2026-04-16 11:00:00,METAR MYNN 161100Z COR 07007KT 9999 SCT025 23/19 A3009,0,7,0,10000.0,0,0,0,
2026-04-16 10:00:00,METAR MYNN 161000Z 07004KT 9999 FEW025 22/18 A3007,0,4,0,10000.0,0,0,0,
2026-04-16 09:00:00,METAR MYNN 160900Z 08003KT 040V120 9999 FEW025 22/18 A3007,0,3,0,10000.0,0,0,0,
2026-04-16 08:00:00,METAR MYNN 160800Z 09006KT 9999 SCT045 23/17 A3007,0,6,0,10000.0,0,0,0,
2026-04-16 07:00:00,METAR MYNN 160700Z 09005KT 9999 SCT045 23/17 A3008,0,5,0,10000.0,0,0,0,
2026-04-16 06:00:00,METAR MYNN 160600Z 09009KT 9999 SCT045 23/17 A3010,0,9,0,10000.0,0,0,0,
2026-04-16 05:00:00,METAR MYNN 160500Z 08007KT 9999 SCT030 23/17 A3011,0,7,0,10000.0,0,0,0,
2026-04-16 04:00:00,METAR MYNN 160400Z COR 08011KT 9999 SCT030 24/16 A3013,0,11,0,10000.0,0,0,0,
2026-04-16 03:00:00,METAR MYNN 160300Z 10008KT 9999 FEW030 23/17 A3012,0,8,0,10000.0,0,0,0,
2026-04-16 02:00:00,METAR MYNN 160200Z 09006KT 050V110 9999 FEW025 23/17 A3012,0,6,0,10000.0,0,0,0,
2026-04-16 01:00:00,METAR MYNN 160100Z 09008KT 9999 FEW025 23/17 A3010,0,8,0,10000.0,0,0,0,
2026-04-16 00:00:00,METAR MYNN 160000Z 09009KT 9999 FEW025 24/17 A3009,0,9,0,10000.0,0,0,0,
2026-04-15 23:00:00,METAR MYNN 152300Z 08010KT 9999 FEW030 25/16 A3009,0,10,0,10000.0,0,0,0,
2026-04-15 22:00:00,METAR MYNN 152200Z 10012KT 9999 FEW030 25/16 A3008,0,12,0,10000.0,0,0,0,
2026-04-15 21:00:00,METAR MYNN 152100Z COR 06013KT 020V090 9999 FEW030 26/16 A3009,0,13,0,10000.0,0,0,0,
2026-04-15 20:00:00,METAR MYNN 152000Z 06014KT 010V080 9999 FEW030 26/16 A3009,0,14,0,10000.0,0,0,0,
2026-04-15 19:00:00,METAR MYNN 151900Z 07014KT 9999 FEW030 26/17 A3010,0,14,0,10000.0,0,0,0,
2026-04-15 18:00:00,METAR MYNN 151800Z 07011KT 030V120 9999 FEW040 27/16 A3011,0,11,0,10000.0,0,0,0,
2026-04-15 17:00:00,METAR MYNN 151700Z 07015KT 030V110 9999 FEW025 26/15 A3013,0,15,0,10000.0,0,0,0,
2026-04-15 16:00:00,METAR MYNN 151600Z 08012KT 040V110 9999 FEW042 25/15 A3015,0,12,0,10000.0,0,0,0,
2026-04-15 15:00:00,METAR MYNN 151500Z 07011KT 040V100 9999 SCT040 24/15 A3015,0,11,0,10000.0,0,0,0,
2026-04-15 14:00:00,METAR MYNN 151400Z 10011KT 9999 BKN038 24/16 A3015,0,11,0,10000.0,0,0,0,
2026-04-15 13:00:00,METAR MYNN 151300Z 08007KT 050V110 9999 BKN038 24/16 A3013,0,7,0,10000.0,0,0,0,
2026-04-15 12:00:00,METAR MYNN 151200Z 11009KT 9999 BKN040 23/14 A3013,0,9,0,10000.0,0,0,0,
2026-04-15 11:00:00,METAR MYNN 151100Z 08005KT 9999 BKN040 22/14 A3010,0,5,0,10000.0,0,0,0,
2026-04-15 10:00:00,METAR MYNN 151000Z 12008KT 9999 FEW025 BKN040 22/14 A3008,0,8,0,10000.0,0,0,0,
2026-04-15 09:00:00,METAR MYNN 150900Z 09011KT 9999 FEW025 BKN040 23/14 A3008,0,11,0,10000.0,0,0,0,
2026-04-15 08:00:00,METAR MYNN 150800Z 09010KT 9999 FEW025 BKN040 23/15 A3007,0,10,0,10000.0,0,0,0,
2026-04-15 07:00:00,METAR MYNN 150700Z 08009KT 9999 FEW025 BKN040 23/16 A3009,0,9,0,10000.0,0,0,0,
2026-04-15 06:00:00,METAR MYNN 150600Z 08008KT 9999 FEW025 BKN040 23/16 A3011,0,8,0,10000.0,0,0,0,
2026-04-15 05:00:00,METAR MYNN 150500Z 08008KT 9999 FEW025 BKN040 23/15 A3013,0,8,0,10000.0,0,0,0,
2026-04-15 04:00:00,METAR MYNN 150400Z 10008KT 070V130 9999 FEW025 BKN040 23/14 A3015,0,8,0,10000.0,0,0,0,
2026-04-15 03:00:00,METAR MYNN 150300Z COR 09008KT 9999 FEW025 BKN040 23/16 A3015,0,8,0,10000.0,0,0,0,
2026-04-15 02:00:00,METAR MYNN 150200Z 08009KT 9999 FEW020 BKN040 23/15 A3015,0,9,0,10000.0,0,0,0,
2026-04-15 01:00:00,METAR MYNN 150100Z 07012KT 9999 FEW020 BKN040 23/16 A3013,0,12,0,10000.0,0,0,0,
2026-04-15 00:00:00,METAR MYNN 150000Z 07013KT 9999 BKN022 23/16 A3012,0,13,0,10000.0,0,0,0,
2026-04-14 23:00:00,METAR MYNN 142300Z 07014KT 9999 SCT022 24/16 A3012,0,14,0,10000.0,0,0,0,
2026-04-14 22:00:00,METAR MYNN 142200Z 06013KT 9999 SCT025 24/15 A3012,0,13,0,10000.0,0,0,0,
2026-04-14 21:00:00,METAR MYNN 142100Z 07013KT 9999 FEW025 SCT250 26/14 A3013,0,13,0,10000.0,0,0,0,
2026-04-14 20:00:00,METAR MYNN 142000Z 08012KT 040V100 9999 SCT025 BKN250 26/15 A3013,0,12,0,10000.0,0,0,0,
2026-04-14 19:00:00,METAR MYNN 141900Z 07014KT 040V110 9999 FEW025 BKN250 27/15 A3015,0,14,0,10000.0,0,0,0,
2026-04-14 18:00:00,METAR MYNN 141800Z 06017KT 9999 FEW030 BKN250 26/17 A3018,0,17,0,10000.0,0,0,0,
2026-04-14 17:00:00,METAR MYNN 141700Z 07015KT 9999 FEW030 BKN250 26/14 A3019,0,15,0,10000.0,0,0,0,
2026-04-14 16:00:00,METAR MYNN 141600Z 07013KT 040V120 9999 FEW025 BKN220 26/16 A3020,0,13,0,10000.0,0,0,0,
2026-04-14 15:00:00,METAR MYNN 141500Z 08012KT 020V110 9999 SCT025 BKN200 26/16 A3020,0,12,0,10000.0,0,0,0,
2026-04-14 14:00:00,METAR MYNN 141400Z 09011KT 9999 FEW025 26/13 A3018,0,11,0,10000.0,0,0,0,
2026-04-14 13:00:00,METAR MYNN 141300Z 11011KT 9999 FEW025 24/16 A3018,0,11,0,10000.0,0,0,0,
2026-04-14 12:00:00,METAR MYNN 141200Z 09006KT 9999 FEW025 SCT040 23/16 A3016,0,6,0,10000.0,0,0,0,
2026-04-14 11:00:00,METAR MYNN 141100Z 09010KT 9999 SCT030 SCT050 23/15 A3014,0,10,0,10000.0,0,0,0,
2026-04-14 10:00:00,METAR MYNN 141000Z 09006KT 9999 SCT035 SCT180 23/16 A3012,0,6,0,10000.0,0,0,0,
2026-04-14 09:00:00,METAR MYNN 140900Z 09009KT 9999 FEW040 23/15 A3012,0,9,0,10000.0,0,0,0,
2026-04-14 08:00:00,METAR MYNN 140800Z 10007KT 9999 BKN040 23/16 A3012,0,7,0,10000.0,0,0,0,
2026-04-14 07:00:00,METAR MYNN 140700Z 11010KT 9999 FEW030 SCT040 23/16 A3011,0,10,0,10000.0,0,0,0,
2026-04-14 06:00:00,METAR MYNN 140600Z 10011KT 9999 FEW035 SCT045 23/16 A3014,0,11,0,10000.0,0,0,0,
2026-04-14 05:00:00,METAR MYNN 140500Z 10009KT 9999 FEW035 SCT040 23/17 A3015,0,9,0,10000.0,0,0,0,
2026-04-14 04:00:00,METAR MYNN 140400Z 10013KT 9999 FEW030 23/15 A3015,0,13,0,10000.0,0,0,0,
2026-04-14 03:00:00,METAR MYNN 140300Z 09014KT 9999 FEW030 24/15 A3017,0,14,0,10000.0,0,0,0,
2026-04-14 02:00:00,METAR MYNN 140200Z 09013KT 9999 FEW030 23/16 A3018,0,13,0,10000.0,0,0,0,
2026-04-14 01:00:00,METAR MYNN 140100Z 09016KT 9999 SCT030 24/17 A3016,0,16,0,10000.0,0,0,0,
2026-04-14 00:59:00,SPECI MYNN 140059Z 09015KT 060V120 9999 SCT030 24/16 A3016,0,15,0,10000.0,0,0,0,
2026-04-14 00:00:00,METAR MYNN 140000Z 09014G24KT 9999 SCT030 24/16 A3016,0,14,1,10000.0,0,0,0,
2026-04-13 23:00:00,METAR MYNN 132300Z 09015KT 9999 FEW030 24/15 A3017,0,15,0,10000.0,0,0,0,
2026-04-13 22:00:00,METAR MYNN 132200Z 09015KT 9999 FEW028 25/15 A3017,0,15,0,10000.0,0,0,0,
2026-04-13 21:00:00,METAR MYNN 132100Z 09013KT 050V110 9999 FEW028 26/16 A3017,0,13,0,10000.0,0,0,0,
2026-04-13 20:00:00,METAR MYNN 132000Z 09013KT 9999 FEW028 26/15 A3019,0,13,0,10000.0,0,0,0,
2026-04-13 19:00:00,METAR MYNN 131900Z 08015KT 050V110 9999 SCT030 26/14 A3021,0,15,0,10000.0,0,0,0,
2026-04-13 18:00:00,METAR MYNN 131800Z 09016KT 9999 BKN040 25/15 A3022,0,16,0,10000.0,0,0,0,
2026-04-13 17:00:00,METAR MYNN 131700Z 09016KT 040V110 9999 BKN030 26/16 A3022,0,16,0,10000.0,0,0,0,
2026-04-13 16:00:00,METAR MYNN 131600Z 09016KT 9999 SCT030 25/14 A3023,0,16,0,10000.0,0,0,0,
2026-04-13 15:00:00,METAR MYNN 131500Z 09016KT 9999 FEW025 25/14 A3025,0,16,0,10000.0,0,0,0,
2026-04-13 14:00:00,METAR MYNN 131400Z 09015KT 9999 FEW025 25/14 A3024,0,15,0,10000.0,0,0,0,
2026-04-13 13:00:00,METAR MYNN 131300Z 09014KT 9999 FEW025 24/16 A3024,0,14,0,10000.0,0,0,0,
2026-04-13 12:00:00,METAR MYNN 131200Z 09012KT 9999 SCT025 23/17 A3021 RESHRA,0,12,0,10000.0,0,0,0,RA
2026-04-13 11:00:00,METAR MYNN 131100Z 08013G23KT 9999 FEW025 SCT040 23/17 A3020,0,13,1,10000.0,0,0,0,
2026-04-13 10:00:00,METAR MYNN 131000Z 08011KT 9999 FEW025 23/17 A3020,0,11,0,10000.0,0,0,0,
2026-04-13 09:00:00,METAR MYNN 130900Z 08009G19KT 9999 SCT025 SCT040 23/17 A3018,0,9,1,10000.0,0,0,0,
2026-04-13 08:00:00,METAR MYNN 130800Z 08010KT 9999 FEW025 SCT040 23/17 A3019 RESHRA,0,10,0,10000.0,0,0,0,RA
2026-04-13 07:00:00,METAR MYNN 130700Z 08010KT 9999 FEW025 23/17 A3020,0,10,0,10000.0,0,0,0,
2026-04-13 06:00:00,METAR MYNN 130600Z 08013KT 9999 FEW025 SCT045 23/17 A3020,0,13,0,10000.0,0,0,0,
2026-04-13 05:00:00,METAR MYNN 130500Z COR 09012G22KT 050V110 9999 SCT025 SCT045 23/17 A3020 RESHRA,0,12,1,10000.0,0,0,0,RA
2026-04-13 04:00:00,METAR MYNN 130400Z 08012KT 9999 VCSH SCT026 23/17 A3022,0,12,0,10000.0,0,0,0,"SH,VC"
2026-04-13 03:00:00,METAR MYNN 130300Z 09013KT 9999 FEW026 23/17 A3022,0,13,0,10000.0,0,0,0,
2026-04-13 02:00:00,METAR MYNN 130200Z 08013KT 9999 FEW030 23/16 A3022,0,13,0,10000.0,0,0,0,
2026-04-13 01:00:00,METAR MYNN 130100Z 08014KT 9999 SCT030 23/16 A3021,0,14,0,10000.0,0,0,0,
2026-04-13 00:00:00,METAR MYNN 130000Z 08011KT 040V100 9999 SCT030 23/16 A3020,0,11,0,10000.0,0,0,0,
2026-04-12 23:00:00,METAR MYNN 122300Z 08015KT 9999 FEW030 SCT035 24/15 A3019,0,15,0,10000.0,0,0,0,
2026-04-12 22:00:00,METAR MYNN 122200Z 07015KT 9999 SCT030 24/15 A3018,0,15,0,10000.0,0,0,0,
2026-04-12 21:00:00,METAR MYNN 122100Z 08016KT 9999 SCT030 25/16 A3017,0,16,0,10000.0,0,0,0,
2026-04-12 20:00:00,METAR MYNN 122000Z 09016KT 9999 SCT030 26/18 A3018,0,16,0,10000.0,0,0,0,
2026-04-12 19:00:00,METAR MYNN 121900Z 09018KT 9999 SCT030 26/17 A3019,0,18,0,10000.0,0,0,0,
2026-04-12 18:00:00,METAR MYNN 121800Z 08016KT 060V120 9999 SCT025 BKN045 26/19 A3020,0,16,0,10000.0,0,0,0,
2026-04-12 17:00:00,METAR MYNN 121700Z 09015KT 060V120 9999 SCT025 BKN045 26/18 A3022,0,15,0,10000.0,0,0,0,
2026-04-12 16:00:00,METAR MYNN 121600Z COR 08010KT 9999 VCSH FEW025 BKN030 24/20 A3023 RERA,0,10,0,10000.0,0,0,0,"RA,SH,VC"
2026-04-12 15:00:00,METAR MYNN 121500Z COR 11015KT 9000 SCT025 BKN040 A3024,0,15,0,9000.0,0,0,0,
2026-04-12 14:00:00,METAR MYNN 121400Z 07011KT 9999 -SHRA SCT025 BKN040 23/18 A3023,0,11,0,10000.0,0,0,0,RA
2026-04-12 13:00:00,METAR MYNN 121300Z 09010KT 9999 VCSH FEW025 BKN038 24/16 A3021,0,10,0,10000.0,0,0,0,"SH,VC"
2026-04-12 12:00:00,METAR MYNN 121200Z 09006KT 050V110 9999 FEW025 23/15 A3019,0,6,0,10000.0,0,0,0,
2026-04-12 11:00:00,METAR MYNN 121100Z 09008KT 9999 FEW025 22/13 A3018,0,8,0,10000.0,0,0,0,
2026-04-12 10:00:00,METAR MYNN 121000Z 09011KT 9999 FEW025 SCT040 22/14 A3016,0,11,0,10000.0,0,0,0,
2026-04-12 09:00:00,METAR MYNN 120900Z 08011KT 9999 FEW025 SCT035 22/15 A3015,0,11,0,10000.0,0,0,0,
2026-04-12 08:00:00,METAR MYNN 120800Z 08010KT 9999 FEW025 SCT040 22/15 A3015,0,10,0,10000.0,0,0,0,
2026-04-12 07:00:00,METAR MYNN 120700Z 08012KT 9999 FEW025 22/15 A3016,0,12,0,10000.0,0,0,0,
2026-04-12 06:00:00,METAR MYNN 120600Z COR 08010KT 9999 SCT025 23/16 A3017,0,10,0,10000.0,0,0,0,
2026-04-12 05:00:00,METAR MYNN 120500Z 08011KT 9999 FEW025 SCT250 23/16 A3018,0,11,0,10000.0,0,0,0,
2026-04-12 04:00:00,METAR MYNN 120400Z 08013KT 9999 FEW025 SCT060 BKN200 23/16 A3018,0,13,0,10000.0,0,0,0,
2026-04-12 03:00:00,METAR MYNN 120300Z 08013KT 9999 FEW025 SCT060 23/17 A3020,0,13,0,10000.0,0,0,0,
2026-04-12 02:00:00,METAR MYNN 120200Z 07012KT 040V100 9999 FEW026 SCT050 23/17 A3019,0,12,0,10000.0,0,0,0,
2026-04-12 01:00:00,METAR MYNN 120100Z 07014KT 9999 FEW026 BKN050 24/16 A3018,0,14,0,10000.0,0,0,0,
2026-04-12 00:00:00,METAR MYNN 120000Z 07012G22KT 9999 SCT026 24/17 A3016,0,12,1,10000.0,0,0,0,
2026-04-11 23:00:00,METAR MYNN 112300Z 07016KT 9999 FEW026 SCT040 24/17 A3015,0,16,0,10000.0,0,0,0,
2026-04-11 22:00:00,METAR MYNN 112200Z 06017KT 9999 VCSH FEW025 BKN030 24/19 A3014,0,17,0,10000.0,0,0,0,"SH,VC"
2026-04-11 21:00:00,METAR MYNN 112100Z 04013KT 010V070 9999 VCSH FEW025 SCT030 24/18 A3014,0,13,0,10000.0,0,0,0,"SH,VC"
2026-04-11 20:00:00,METAR MYNN 112000Z 05015KT 9999 FEW025 SCT040 25/18 A3015,0,15,0,10000.0,0,0,0,
2026-04-11 19:00:00,METAR MYNN 111900Z 05013KT 020V090 9999 FEW025 SCT030 26/17 A3016,0,13,0,10000.0,0,0,0,
2026-04-11 18:00:00,METAR MYNN 111800Z 05013KT 020V080 9999 FEW030 26/15 A3017,0,13,0,10000.0,0,0,0,
2026-04-11 17:00:00,METAR MYNN 111700Z 06012KT 030V090 9999 FEW030 25/13 A3018,0,12,0,10000.0,0,0,0,
2026-04-11 16:00:00,METAR MYNN 111600Z 06012KT 020V090 9999 FEW030 25/14 A3019,0,12,0,10000.0,0,0,0,
2026-04-11 15:00:00,METAR MYNN 111500Z 06015KT 9999 SCT030 25/15 A3020,0,15,0,10000.0,0,0,0,
2026-04-11 14:00:00,METAR MYNN 111400Z 06012KT 9999 SCT025 25/15 A3019,0,12,0,10000.0,0,0,0,
2026-04-11 13:00:00,METAR MYNN 111300Z 05011KT 020V090 9999 SCT022 23/15 A3018,0,11,0,10000.0,0,0,0,
2026-04-11 12:00:00,METAR MYNN 111200Z 05010KT 9999 FEW022 23/14 A3017,0,10,0,10000.0,0,0,0,
2026-04-11 11:00:00,METAR MYNN 111100Z 05009KT 9999 FEW022 22/15 A3015,0,9,0,10000.0,0,0,0,
2026-04-11 10:00:00,METAR MYNN 111000Z 05009KT 020V090 9999 SCT025 22/16 A3013,0,9,0,10000.0,0,0,0,
2026-04-11 09:00:00,METAR MYNN 110900Z 07011KT 9999 FEW025 22/15 A3012,0,11,0,10000.0,0,0,0,
2026-04-11 08:00:00,METAR MYNN 110800Z 07009KT 9999 FEW025 22/15 A3012,0,9,0,10000.0,0,0,0,
2026-04-11 07:00:00,METAR MYNN 110700Z 06010KT 9999 FEW025 23/16 A3012,0,10,0,10000.0,0,0,0,
2026-04-11 06:00:00,METAR MYNN 110600Z 06012KT 9999 SCT025 23/16 A3013,0,12,0,10000.0,0,0,0,
2026-04-11 05:00:00,METAR MYNN 110500Z 07011KT 9999 SCT025 23/16 A3015,0,11,0,10000.0,0,0,0,
2026-04-11 04:00:00,METAR MYNN 110400Z 06012KT 9999 BKN025 23/17 A3016,0,12,0,10000.0,0,0,0,
2026-04-11 03:00:00,METAR MYNN 110300Z 07014KT 9999 BKN025 23/17 A3016,0,14,0,10000.0,0,0,0,
2026-04-11 02:00:00,METAR MYNN 110200Z 06015KT 9999 BKN025 23/18 A3015,0,15,0,10000.0,0,0,0,
2026-04-11 01:00:00,METAR MYNN 110100Z 07015KT 9999 BKN020 24/18 A3013,0,15,0,10000.0,0,0,0,
2026-04-11 00:00:00,METAR MYNN 110000Z 06014KT 030V090 9999 BKN020 24/19 A3011,0,14,0,10000.0,0,0,0,
2026-04-10 23:00:00,METAR MYNN 102300Z 06013KT 9999 SCT020 24/19 A3010,0,13,0,10000.0,0,0,0,
2026-04-10 22:00:00,METAR MYNN 102200Z 06014KT 9999 FEW025 26/19 A3010,0,14,0,10000.0,0,0,0,
2026-04-10 21:00:00,METAR MYNN 102100Z 06015KT 9999 FEW025 25/19 A3009,0,15,0,10000.0,0,0,0,
2026-04-10 20:00:00,METAR MYNN 102000Z 06014KT 030V090 9999 FEW025 25/18 A3010,0,14,0,10000.0,0,0,0,
2026-04-10 19:00:00,METAR MYNN 101900Z 05016KT 9999 SCT025 25/18 A3011,0,16,0,10000.0,0,0,0,
2026-04-10 18:00:00,METAR MYNN 101800Z 06015KT 9999 SCT025 25/18 A3012,0,15,0,10000.0,0,0,0,
2026-04-10 17:00:00,METAR MYNN 101700Z 05014KT 9999 SCT025 SCT050 25/20 A3013,0,14,0,10000.0,0,0,0,
2026-04-10 16:00:00,METAR MYNN 101600Z 05014KT 020V080 9999 FEW025 SCT050 25/18 A3014,0,14,0,10000.0,0,0,0,
2026-04-10 15:00:00,METAR MYNN 101500Z 05014KT 9999 FEW025 BKN050 25/18 A3013,0,14,0,10000.0,0,0,0,
2026-04-10 14:00:00,METAR MYNN 101400Z 05012KT 9999 FEW022 BKN050 25/19 A3012,0,12,0,10000.0,0,0,0,
2026-04-10 13:00:00,METAR MYNN 101300Z 05013KT 9999 FEW018 BKN035 24/19 A3010,0,13,0,10000.0,0,0,0,
2026-04-10 12:00:00,METAR MYNN 101200Z 07012KT 9999 VCSH FEW018 BKN035 24/18 A3009,0,12,0,10000.0,0,0,0,"SH,VC"
2026-04-10 11:00:00,METAR MYNN 101100Z 05011KT 9999 VCSH SCT020 BKN040 23/19 A3008,0,11,0,10000.0,0,0,0,"SH,VC"
2026-04-10 09:00:00,METAR MYNN 100900Z 07011KT 9999 SCT020 BKN040 23/18 A3006,0,11,0,10000.0,0,0,0,
2026-04-10 08:00:00,METAR MYNN 100800Z 07011KT 9999 FEW020 BKNK035 23/19 A3004 RESHRA,0,11,0,9999.0,0,0,0,RA
2026-04-10 07:00:00,METAR MYNN 100700Z 06012KT 9999 -SHRA SCT018 BKN035 23/20 A3005,0,12,0,10000.0,0,0,0,RA
2026-04-10 06:00:00,METAR MYNN 100600Z 06014KT 9999 SCT018 BKN035 23/19 A3006,0,14,0,10000.0,0,0,0,
2026-04-10 05:00:00,METAR MYNN 100500Z 07013KT 9999 SCT018 BKN035 23/19 A3007,0,13,0,10000.0,0,0,0,
2026-04-10 04:00:00,METAR MYNN 100400Z 06013KT 9999 SCT018 BKN035 24/19 A3009,0,13,0,10000.0,0,0,0,
2026-04-10 03:00:00,METAR MYNN 100300Z 07015KT 9999 BKN018 24/19 A3009,0,15,0,10000.0,0,0,0,
2026-04-10 02:00:00,METAR MYNN 100200Z 07012KT 9999 BKN018 24/20 A3008,0,12,0,10000.0,0,0,0,
2026-04-10 01:00:00,METAR MYNN 100100Z 07016KT 9999 SCT016 24/19 A3007,0,16,0,10000.0,0,0,0,
2026-04-10 00:00:00,METAR MYNN 100000Z 07014KT 9999 BKN016 24/20 A3005,0,14,0,10000.0,0,0,0,
2026-04-09 23:00:00,METAR MYNN 092300Z 07015KT 9999 SCT015 24/20 A3003,0,15,0,10000.0,0,0,0,
2026-04-09 22:00:00,METAR MYNN 092200Z 05014KT 9999 VCSH SCT016TCU 25/21 A3002,0,14,0,10000.0,0,0,0,"SH,VC"
2026-04-09 21:00:00,METAR MYNN 092100Z 07016KT 9999 VCSH SCT016 SCT070 26/21 A3001,0,16,0,10000.0,0,0,0,"SH,VC"
2026-04-09 20:00:00,METAR MYNN 092000Z 06017KT 040V100 9999 BKN016 26/21 A3000,0,17,0,10000.0,0,0,0,
2026-04-09 19:00:00,METAR MYNN 091900Z 07014KT 040V100 9999 SCT016 27/21 A3001,0,14,0,10000.0,0,0,0,
2026-04-09 18:00:00,METAR MYNN 091800Z 06013KT 030V100 9999 VCSH BKN016 BKN050 26/21 A3002,0,13,0,10000.0,0,0,0,"SH,VC"
2026-04-09 17:00:00,METAR MYNN 091700Z COR 06016KT 030V090 9999 VCSH SCT020 BKN060 26/21 A3003,0,16,0,10000.0,0,0,0,"SH,VC"
2026-04-09 16:00:00,METAR MYNN 091600Z 08012KT 9999 FEW020 26/21 A3003,0,12,0,10000.0,0,0,0,
2026-04-09 15:00:00,METAR MYNN 091500Z 08012KT 9999 FEW018 25/22 A3003,0,12,0,10000.0,0,0,0,
2026-04-09 14:00:00,METAR MYNN 091400Z 06012KT 9999 SCT014 BKN045 24/22 A3002,0,12,0,10000.0,0,0,0,
2026-04-09 13:00:00,METAR MYNN 091300Z 06010KT 9999 SCT018 BKN045 24/21 A3002,0,10,0,10000.0,0,0,0,
2026-04-09 12:00:00,METAR MYNN 091200Z 07010KT 9999 -SHRA FEW009 SCT025 BKN030 23/22 A3000,0,10,0,10000.0,0,0,0,RA
2026-04-09 11:00:00,METAR MYNN 091100Z COR 05008KT 020V080 9999 FEW009 SCT016 BKN040 23/22 A2999 RERA,0,8,0,10000.0,0,0,0,RA
2026-04-09 10:00:00,METAR MYNN 091000Z 04005KT 9999 -RA SCT012 BKN040 23/22 A2997,0,5,0,10000.0,0,0,0,-RA
2026-04-09 09:00:00,METAR MYNN 090900Z COR 06004KT 030V110 9999 -RA FEW007 SCT012 BKN080 22/21 A2995,0,4,0,10000.0,0,0,0,-RA
2026-04-09 08:00:00,METAR MYNN 090800Z 05009KT 350V090 9999 SHRA SCT008 BKN012 BKN080 22/22 A2994,0,9,0,10000.0,0,0,0,"RA,SH"
2026-04-09 07:00:00,METAR MYNN 090700Z VRB02KT 9999 VCTS FEW015CB SCT018 BKN080 23/22 A2995,0,2,0,10000.0,1,0,0,"TS,VC"
2026-04-09 06:00:00,METAR MYNN 090600Z 17005KT 9999 VCTS FEW015CB SCT018 BKN080 24/22 A2996 RESHRA,0,5,0,10000.0,1,0,0,"RA,TS,VC"
2026-04-09 05:00:00,METAR MYNN 090500Z 11005KT 070V140 9999 -SHRA SCT015 SCT045 BKN080 24/23 A2998,0,5,0,10000.0,0,0,0,RA
2026-04-09 04:00:00,METAR MYNN 090400Z COR 09004KT 050V160 9999 FEW015 SCT045 BKN220 24/22 A2999,0,4,0,10000.0,0,0,0,
2026-04-09 03:00:00,METAR MYNN 090300Z 11007KT 9999 FEW018 SCT240 24/22 A3000,0,7,0,10000.0,0,0,0,
2026-04-09 02:00:00,METAR MYNN 090200Z 11006KT 9999 FEW018 SCT240 24/21 A2999,0,6,0,10000.0,0,0,0,
2026-04-09 01:00:00,METAR MYNN 090100Z 09006KT 9999 FEW018 SCT070 24/21 A2997,0,6,0,10000.0,0,0,0,
2026-04-09 00:00:00,METAR MYNN 090000Z 09006KT 9999 FEW018 SCT070 24/21 A2996,0,6,0,10000.0,0,0,0,
2026-04-08 23:00:00,METAR MYNN 082300Z 09006KT 9999 FEW020 SCT070 24/21 A2994,0,6,0,10000.0,0,0,0,
2026-04-08 22:00:00,METAR MYNN 082200Z 09005KT 040V130 9999 FEW020 SCT080 25/21 A2994,0,5,0,10000.0,0,0,0,
2026-04-08 21:00:00,METAR MYNN 082100Z 11006KT 080V140 9999 FEW015CB SCT035 BKN080 24/21 A2994,0,6,0,10000.0,0,0,0,
2026-04-08 20:00:00,METAR MYNN 082000Z 11007KT 060V140 9999 FEW015CB SCT035 BKN080 23/21 A2995 RERA,0,7,0,10000.0,0,0,0,RA
2026-04-08 19:00:00,METAR MYNN 081900Z 08005KT 9999 -RA FEW015CB SCT035 BKN080 23/21 A2996,0,5,0,10000.0,0,0,0,-RA
2026-04-08 18:00:00,METAR MYNN 081800Z 07003KT 030V110 6000 RA FEW015CB SCT035 BKN080 22/21 A2998,0,3,0,6000.0,0,0,0,RA
2026-04-08 17:00:00,METAR MYNN 081700Z 10008KT 010V120 9999 1600W -SHRA FEW012CB SCT035 BKN080 23/21 A2998,0,8,0,10000.0,0,0,0,RA
2026-04-08 16:00:00,METAR MYNN 081600Z 04007KT 360V090 9000 0800NE -SHRA SCT012CB SCT014 BKN100 21/20 A2999,0,7,0,9000.0,0,0,0,RA
2026-04-08 15:49:00,SPECI MYNN 081549Z 36011KT 6000 0800NW +SHRA SCT012CB SCT014 BKN100 22/20 A3000,0,11,0,6000.0,0,0,0,RA
2026-04-08 15:00:00,METAR MYNN 081500Z 05010KT 9999 VCSH FEW015CB SCT018 BKN100 25/22 A2997,0,10,0,10000.0,0,0,0,"SH,VC"
2026-04-08 14:00:00,METAR MYNN 081400Z 05006KT 020V090 9999 FEW015CB SCT018 BKN100 26/22 A2997,0,6,0,10000.0,0,0,0,
2026-04-08 13:00:00,METAR MYNN 081300Z 07005KT 020V100 9999 FEW015CB BKN100 25/21 A2995,0,5,0,10000.0,0,0,0,
2026-04-08 12:00:00,METAR MYNN 081200Z 08003KT 040V110 9999 FEW015CB SCT045 24/22 A2994,0,3,0,10000.0,0,0,0,
2026-04-08 11:00:00,METAR MYNN 081100Z VRB01KT 9999 FEW015CB SCT070 22/21 A2992,0,1,0,10000.0,0,0,0,
2026-04-08 10:00:00,METAR MYNN 081000Z 00000KT 9999 FEW018 BKN150 22/22 A2990,0,0,0,10000.0,0,0,0,
2026-04-08 09:00:00,METAR MYNN 080900Z VRB02KT 9999 FEW015CB SCT090 22/21 A2988,0,2,0,10000.0,0,0,0,
2026-04-08 08:00:00,METAR MYNN 080800Z VRB02KT 9999 FEW012CB SCT018 SCT090 22/21 A2989,0,2,0,10000.0,0,0,0,
2026-04-08 07:00:00,METAR MYNN 080700Z VRB01KT 9999 FEW012CB SCT015 22/22 A2989,0,1,0,10000.0,0,0,0,
2026-04-08 06:00:00,METAR MYNN 080600Z VRB01KT 9999 FEW015 BKN090 23/22 A2990,0,1,0,10000.0,0,0,0,
2026-04-08 05:00:00,METAR MYNN 080500Z VRB01KT 9999 FEW018 SCT070 BKN220 23/22 A2992,0,1,0,10000.0,0,0,0,
2026-04-08 04:00:00,METAR MYNN 080400Z VRB01KT 9999 FEW018 SCT090 BKN220 23/22 A2990,0,1,0,10000.0,0,0,0,
2026-04-08 03:00:00,METAR MYNN 080300Z VRB02KT 9999 FEW018 24/22 A2992,0,2,0,10000.0,0,0,0,
2026-04-08 02:00:00,METAR MYNN 080200Z 33002KT 9999 FEW018 24/22 A2990,0,2,0,10000.0,0,0,0,
2026-04-08 01:00:00,METAR MYNN 080100Z 35003KT 9999 FEW018 SCT040 25/22 A2989,0,3,0,10000.0,0,0,0,
2026-04-08 00:00:00,METAR MYNN 080000Z 36004KT 9999 VCTS FEW015CB SCT018TCU BKN040 25/22 A2987,0,4,0,10000.0,1,0,0,"TS,VC"
2026-04-07 23:00:00,METAR MYNN 072300Z 34006KT 9999 VCTS FEW015CB SCT018TCU BKN040 26/22 A2985 RESHRA,0,6,0,10000.0,1,0,0,"RA,TS,VC"
2026-04-07 22:00:00,METAR MYNN 072200Z 33008KT 9999 9000NE -SHRA VCTS FEW015CB SCT018TCU BKN040 25/21 A2984,0,8,0,10000.0,1,0,0,"RA,TS,VC"
2026-04-07 21:00:00,METAR MYNN 072100Z 21009KT 9999 9000NE VCTS FEW015CB SCT018TCU BKN040 28/22 A2983,0,9,0,10000.0,1,0,0,"TS,VC"
2026-04-07 20:00:00,METAR MYNN 072000Z 22012KT 180V240 9999 VCTS FEW015CB SCT018TCU 29/22 A2983,0,12,0,10000.0,1,0,0,"TS,VC"
2026-04-07 19:00:00,METAR MYNN 071900Z 21013KT 9999 VCTS FEW015CB SCT018TCU 29/22 A2985,0,13,0,10000.0,1,0,0,"TS,VC"
2026-04-07 18:00:00,METAR MYNN 071800Z 19013KT 9999 FEW015 SCT030 BKN100 28/24 A2987,0,13,0,10000.0,0,0,0,
2026-04-07 17:00:00,METAR MYNN 071700Z 20012KT 160V230 9999 SCT015 SCT070 27/22 A2988,0,12,0,10000.0,0,0,0,
2026-04-07 16:00:00,METAR MYNN 071600Z 20011KT 170V240 9999 BKN015 28/23 A2990,0,11,0,10000.0,0,0,0,
2026-04-07 15:00:00,METAR MYNN 071500Z 21012KT 180V240 9999 BKN016 27/22 A2991,0,12,0,10000.0,0,0,0,
2026-04-07 14:00:00,METAR MYNN 071400Z 20011KT 9999 BKN016 26/22 A2991,0,11,0,10000.0,0,0,0,
2026-04-07 13:00:00,METAR MYNN 071300Z 19010KT 160V220 9999 SCT018 BKN160 25/22 A2990,0,10,0,10000.0,0,0,0,
2026-04-07 12:00:00,METAR MYNN 071200Z 18006KT 9999 SCT016TCU 24/22 A2989,0,6,0,10000.0,0,0,0,
2026-04-07 11:00:00,METAR MYNN 071100Z 17005KT 9999 SCT016 23/22 A2989 RESHRA,0,5,0,10000.0,0,0,0,RA
2026-04-07 10:00:00,METAR MYNN 071000Z 17006KT 9999 -SHRA BKN014 23/21 A2988,0,6,0,10000.0,0,0,0,RA
2026-04-07 09:00:00,METAR MYNN 070900Z 12005KT 9999 BKN016 23/21 A2987,0,5,0,10000.0,0,0,0,
2026-04-07 08:00:00,METAR MYNN 070800Z 09004KT 9999 SCT016 23/22 A2987 RESHRA,0,4,0,10000.0,0,0,0,RA
2026-04-07 07:00:00,METAR MYNN 070700Z 11006KT 9999 -SHRA BKN016 23/22 A2990,0,6,0,10000.0,0,0,0,RA
2026-04-07 06:00:00,METAR MYNN 070600Z 08005KT 9999 VCSH BKN016 23/22 A2992 RESHRA,0,5,0,10000.0,0,0,0,"RA,SH,VC"
2026-04-07 05:00:00,METAR MYNN 070500Z 12008KT 9999 -SHRA FEW015CB SCT018 BKN080 24/21 A2994,0,8,0,10000.0,0,0,0,RA
2026-04-07 04:00:00,METAR MYNN 070400Z 10007KT 9999 VCSH SCT018 SCT200 24/21 A2995,0,7,0,10000.0,0,0,0,"SH,VC"
2026-04-07 03:00:00,METAR MYNN 070300Z 09009KT 9999 SCT018 BKN200 24/21 A2996,0,9,0,10000.0,0,0,0,
2026-04-07 02:00:00,METAR MYNN 070200Z 10009KT 9999 SCT018 SCT200 24/21 A2996,0,9,0,10000.0,0,0,0,
2026-04-07 01:00:00,METAR MYNN 070100Z 09008KT 020V110 9999 SCT018 SCT200 25/21 A2995,0,8,0,10000.0,0,0,0,
2026-04-07 00:00:00,METAR MYNN 070000Z 09009KT 9999 SCT020 SCT200 25/21 A2992,0,9,0,10000.0,0,0,0,
2026-04-06 23:00:00,METAR MYNN 062300Z 08010KT 9999 SCT020 SCT200 26/21 A2992,0,10,0,10000.0,0,0,0,
2026-04-06 22:00:00,METAR MYNN 062200Z 08011KT 9999 SCT020 SCT200 26/21 A2991,0,11,0,10000.0,0,0,0,
2026-04-06 21:00:00,METAR MYNN 062100Z 07011KT 040V100 9999 FEW015CB SCT018 27/21 A2992,0,11,0,10000.0,0,0,0,
2026-04-06 20:00:00,METAR MYNN 062000Z 07013KT 9999 VCSH FEW015CB SCT018TCU 27/21 A2993,0,13,0,10000.0,0,0,0,"SH,VC"
2026-04-06 19:00:00,METAR MYNN 061900Z 08012KT 050V110 9999 SCT020 27/21 A2995,0,12,0,10000.0,0,0,0,
2026-04-06 18:00:00,METAR MYNN 061800Z 08010KT 050V110 9999 SCT020 27/21 A2997,0,10,0,10000.0,0,0,0,
2026-04-06 17:00:00,METAR MYNN 061700Z 07011KT 030V110 9999 SCT020 26/21 A2998,0,11,0,10000.0,0,0,0,
2026-04-06 16:00:00,METAR MYNN 061600Z 10012KT 9999 SCT020 27/21 A2999,0,12,0,10000.0,0,0,0,
2026-04-06 15:00:00,METAR MYNN 061500Z 10010KT 070V130 9999 BKN020 26/21 A3000,0,10,0,10000.0,0,0,0,
2026-04-06 14:00:00,METAR MYNN 061400Z 10012KT 9999 BKN020 25/21 A3000,0,12,0,10000.0,0,0,0,
2026-04-06 13:00:00,METAR MYNN 061300Z 11008KT 9999 SCT020 24/21 A3000,0,8,0,10000.0,0,0,0,
2026-04-06 12:00:00,METAR MYNN 061200Z 11005KT 9999 SCT018 SCT080 23/21 A3000,0,5,0,10000.0,0,0,0,
2026-04-06 11:00:00,METAR MYNN 061100Z 09004KT 9999 SCT018 SCT080 23/21 A2999,0,4,0,10000.0,0,0,0,
2026-04-06 10:00:00,METAR MYNN 061000Z 12005KT 9999 -SHRA SCT018 23/21 A2998,0,5,0,10000.0,0,0,0,RA
2026-04-06 09:00:00,METAR MYNN 060900Z 10005KT 9999 SCT018 23/21 A2998,0,5,0,10000.0,0,0,0,
2026-04-06 08:00:00,METAR MYNN 060800Z 10005KT 99999 SCT018 23/20 A3002,0,5,0,,0,0,0,
2026-04-06 07:00:00,METAR MYNN 060700Z 10004KT 9999 FEW018 23/20 A3002,0,4,0,10000.0,0,0,0,
2026-04-06 05:00:00,METAR MYNN 060500Z 10005KT 9999 FEW018 23/20 A3006,0,5,0,10000.0,0,0,0,
2026-04-06 04:00:00,METAR MYNN 060400Z 12007KT CAVOK 24/21 A3007,1,0,0,9999.0,0,0,0,
2026-04-06 03:00:00,METAR MYNN 060300Z 11009KT 9999 SCT018 24/21 A3007,0,9,0,10000.0,0,0,0,
2026-04-06 02:00:00,METAR MYNN 060200Z 10008KT 9999 FEW018 23/21 A3006,0,8,0,10000.0,0,0,0,
2026-04-06 01:00:00,METAR MYNN 060100Z 09007KT 9999 FEW020 23/21 A3005,0,7,0,10000.0,0,0,0,
2026-04-06 00:00:00,METAR MYNN 060000Z 10009KT 9999 FEW020 24/21 A3004,0,9,0,10000.0,0,0,0,
2026-04-05 23:00:00,METAR MYNN 052300Z 12010KT 9999 VCSH SCT020 SCT080 24/21 A3002 RESHRA,0,10,0,10000.0,0,0,0,"RA,SH,VC"
2026-04-05 22:38:00,SPECI MYNN 052238Z 12012KT 9000 VCSH BKN018 24/21 A3002 RESHRA,0,12,0,9000.0,0,0,0,"RA,SH,VC"
2026-04-05 22:25:00,SPECI MYNN 052225Z 12017G27KT 6000 3000E SHRA BKN018 22/20 A3003,0,17,1,6000.0,0,0,0,"RA,SH"
2026-04-05 22:00:00,METAR MYNN 052200Z 13013KT 9999 BKN020 25/20 A3002,0,13,0,10000.0,0,0,0,
2026-04-05 21:00:00,METAR MYNN 052100Z 12014KT 9999 SCT020 SCT090 26/20 A3002,0,14,0,10000.0,0,0,0,
2026-04-05 20:00:00,METAR MYNN 052000Z COR 10011KT 030V150 9999 SCT020 SCT080 26/21 A3002 RESHRA,0,11,0,10000.0,0,0,0,RA
2026-04-05 19:00:00,METAR MYNN 051900Z 09011KT 9999 6000NW -SHRA SCT018 BKN030 24/22 A3006,0,11,0,10000.0,0,0,0,RA
2026-04-05 18:00:00,METAR MYNN 051800Z 12008KT 9999 9000W -SHRA SCT018 SCT035 25/21 A3008,0,8,0,10000.0,0,0,0,RA
2026-04-05 17:36:00,SPECI MYNN 051736Z 11013KT 9999 6000W -SHRA BKN018 23/20 A3010,0,13,0,10000.0,0,0,0,RA
2026-04-05 17:26:00,SPECI MYNN 051726Z 12018KT 070V150 4800 1600E +SHRA BKN018 24/21 A3010,0,18,0,4800.0,0,0,0,RA
2026-04-05 17:00:00,METAR MYNN 051700Z COR 10013KT 9999 VCSH BKN018 27/21 A3009,0,13,0,10000.0,0,0,0,"SH,VC"
2026-04-05 16:00:00,METAR MYNN 051600Z 11014KT 9999 VCSH SCT018 SCT070 27/21 A3010 RESHRA,0,14,0,10000.0,0,0,0,"RA,SH,VC"
2026-04-05 13:00:00,METAR MYNN 051300Z 11013KT 9999 SCT018 25/20 A3010,0,13,0,10000.0,0,0,0,
2026-04-05 12:00:00,METAR MYNN 051200Z 11010KT 9999 SCT018 24/21 A3010,0,10,0,10000.0,0,0,0,
2026-04-05 11:00:00,METAR MYNN 051100Z 10007KT 9999 BKN018 23/21 A3008,0,7,0,10000.0,0,0,0,
2026-04-05 10:00:00,METAR MYNN 051000Z 11008KT 9999 SCT020 23/20 A3008,0,8,0,10000.0,0,0,0,
2026-04-05 09:00:00,METAR MYNN 050900Z 11009KT 9999 SCT018 24/21 A3007,0,9,0,10000.0,0,0,0,
2026-04-05 08:00:00,METAR MYNN 050800Z 10008KT 9999 SCT018 23/20 A3008,0,8,0,10000.0,0,0,0,
2026-04-05 07:00:00,METAR MYNN 050700Z 10010KT 9999 SCT018 23/20 A3009,0,10,0,10000.0,0,0,0,
2026-04-05 06:00:00,METAR MYNN 050600Z 10008KT 9999 FEW018 23/20 A3011,0,8,0,10000.0,0,0,0,
2026-04-05 05:00:00,METAR MYNN 050500Z 11008KT 9999 FEW018 23/20 A3012,0,8,0,10000.0,0,0,0,
2026-04-05 04:00:00,METAR MYNN 050400Z 12009KT 9999 FEW018 23/20 A3014,0,9,0,10000.0,0,0,0,
2026-04-05 03:00:00,METAR MYNN 050300Z COR 11013KT 9999 -SHRA BKN018 24/20 A3015,0,13,0,10000.0,0,0,0,RA
2026-04-05 02:00:00,METAR MYNN 050200Z 11012KT 9999 BKN018 24/21 A3015,0,12,0,10000.0,0,0,0,
2026-04-05 01:00:00,METAR MYNN 050100Z 10011KT 9999 FEW016TCU SCT030 24/20 A3014,0,11,0,10000.0,0,0,0,
2026-04-05 00:00:00,METAR MYNN 050000Z COR 10012KT 9999 FEW016TCU SCT030 24/21 A3012,0,12,0,10000.0,0,0,0,
2026-04-04 23:00:00,METAR MYNN 042300Z 10010KT 9999 FEW016 SCT100 23/20 A3011,0,10,0,10000.0,0,0,0,
2026-04-04 22:00:00,METAR MYNN 042200Z 10014KT 9999 -RA FEW014 BKN080 22/20 A3011,0,14,0,10000.0,0,0,0,-RA
2026-04-04 21:00:00,METAR MYNN 042100Z COR 10017KT 8000 3600E -SHRA BKN014 22/21 A3012,0,17,0,8000.0,0,0,0,RA
2026-04-04 20:39:00,SPECI MYNN 042039Z 10013G28KT 070V130 6000 2000E -SHRA BKN014 23/21 A3012,0,13,1,6000.0,0,0,0,RA
2026-04-04 20:00:00,METAR MYNN 042000Z 09009KT 060V130 9999 -SHRA VCTS FEW010CB BKN018 BKN045 23/20 A3012,0,9,0,10000.0,1,0,0,"RA,TS,VC"
2026-04-04 19:35:00,SPECI MYNN 041935Z 11011KT 8000 -TSRA SCT010CB BKN014 22/20 A3014,0,11,0,8000.0,1,0,0,RA
2026-04-04 19:27:00,SPECI MYNN 041927Z 11017KT 2800 0100S TSRA BKN010CB BKN014 22/21 A3014,0,17,0,2800.0,1,0,0,"RA,TS"
2026-04-04 19:19:00,SPECI MYNN 041919Z COR 10020G31KT 070V130 2800 0100S +SHRA VCTS SCT012CB BKN016 22/21 A3014,0,20,1,2800.0,1,0,0,"RA,TS,VC"
2026-04-04 19:11:00,SPECI MYNN 041911Z 08016G26KT 050V110 4000 0400S SHRA VCTS SCT012CB BKN016 25/21 A3013,0,16,1,4000.0,1,0,0,"RA,SH,TS,VC"
2026-04-04 19:00:00,METAR MYNN 041900Z COR 08014KT 9999 VCTS VCSH FEW015CB BKN018 26/21 A3013,0,14,0,10000.0,1,0,0,"SH,TS,VC"
2026-04-04 18:00:00,METAR MYNN 041800Z 08017KT 9999 FEW015CB BKN020 26/21 A3014,0,17,0,10000.0,0,0,0,
2026-04-04 17:00:00,METAR MYNN 041700Z 08014KT 050V120 9999 BKN020 26/21 A3015,0,14,0,10000.0,0,0,0,
2026-04-04 16:00:00,METAR MYNN 041600Z 11015KT 9999 SCT025 27/20 A3017,0,15,0,10000.0,0,0,0,
2026-04-04 15:00:00,METAR MYNN 041500Z 08015KT 9999 BKN020 26/21 A3017,0,15,0,10000.0,0,0,0,
2026-04-04 14:00:00,METAR MYNN 041400Z 10011KT 9999 BKN020 25/20 A3017,0,11,0,10000.0,0,0,0,
2026-04-04 13:00:00,METAR MYNN 041300Z 09012KT 9999 BKN020 25/20 A3017,0,12,0,10000.0,0,0,0,
2026-04-04 12:00:00,METAR MYNN 041200Z 09009KT 060V120 9999 8000E FU BKN024 24/20 A3016,0,9,0,10000.0,0,0,0,
2026-04-04 11:00:00,METAR MYNN 041100Z 09008KT 9999 SCT025 BKN220 23/20 NKNA3015,0,8,0,9999.0,0,0,0,
2026-04-04 10:00:00,METAR MYNN 041000Z 09008KT 9999 SCT020 BKN220 23/19 A3013,0,8,0,10000.0,0,0,0,
2026-04-04 09:00:00,METAR MYNN 040900Z 09006KT 9999 FEW020 BKN220 23/19 A3013,0,6,0,10000.0,0,0,0,
2026-04-04 06:00:00,METAR MYNN 040600Z COR 11009KT 9999 FEW020 BKN220 23/20 A3018,0,9,0,10000.0,0,0,0,
2026-04-04 05:00:00,METAR MYNN 040500Z 10008KT 9999 FEW020 BKN220 23/20 A3019,0,8,0,10000.0,0,0,0,
2026-04-04 04:00:00,METAR MYNN 040400Z 11010KT 9999 FEW020 SCT170 BKN220 24/19 A3021 RESHRA,0,10,0,10000.0,0,0,0,RA
2026-04-04 03:00:00,METAR MYNN 040300Z 11010KT 9999 -SHRA SCT020 SCT170 BKN220 24/20 A3021,0,10,0,10000.0,0,0,0,RA
2026-04-04 02:00:00,METAR MYNN 040200Z 10010KT 9999 SCT022 SCT170 BKN220 24/20 A3020,0,10,0,10000.0,0,0,0,
2026-04-04 01:00:00,METAR MYNN 040100Z 10010KT 9999 SCT022 SCT170 BKN220 24/20 A3019,0,10,0,10000.0,0,0,0,
2026-04-04 00:00:00,METAR MYNN 040000Z 09011KT 9999 SCT022 SCT170 BKN220 24/20 A3018,0,11,0,10000.0,0,0,0,
2026-04-03 23:00:00,METAR MYNN 032300Z 09011KT 9999 SCT025 SCT180 BKN250 25/20 A3019,0,11,0,10000.0,0,0,0,
2026-04-03 22:00:00,METAR MYNN 032200Z 11015KT 9999 SCT025 BKN250 26/19 A3018,0,15,0,10000.0,0,0,0,
2026-04-03 21:00:00,METAR MYNN 032100Z 11015KT 9999 SCT025 BKN250 27/18 A3018,0,15,0,10000.0,0,0,0,
2026-04-03 20:00:00,METAR MYNN 032000Z 10015KT 9999 SCT025 BKN250 27/19 A3018,0,15,0,10000.0,0,0,0,
2026-04-03 19:00:00,METAR MYNN 031900Z 11014KT 9999 SCT025 BKN250 27/19 A3019,0,14,0,10000.0,0,0,0,
2026-04-03 18:00:00,METAR MYNN 031800Z 10017KT 9999 SCT025 SCT150 BKN250 27/18 A3020,0,17,0,10000.0,0,0,0,
2026-04-03 17:00:00,METAR MYNN 031700Z 11016KT 9999 SCT025 SCT150 BKN250 27/19 A3021,0,16,0,10000.0,0,0,0,
2026-04-03 16:00:00,METAR MYNN 031600Z 11017KT 9999 SCT025 SCT150 OVC220 26/19 A3022,0,17,0,10000.0,0,0,0,
2026-04-03 15:00:00,METAR MYNN 031500Z 11018KT 9999 SCT024 BKN150 OVC220 26/20 A3022,0,18,0,10000.0,0,0,0,
2026-04-03 14:00:00,METAR MYNN 031400Z COR 11016KT 9999 SCT022 BKN150 OVC220 25/20 A3020,0,16,0,10000.0,0,0,0,
2026-04-03 13:00:00,METAR MYNN 031300Z 11014KT 9999 SCT018 BKN150 OVC220 25/20 A3019,0,14,0,10000.0,0,0,0,
2026-04-03 12:00:00,METAR MYNN 031200Z 11014KT 9999 FEW020 BKN150 OVC220 24/20 A3018,0,14,0,10000.0,0,0,0,
2026-04-03 11:00:00,METAR MYNN 031100Z 11013KT 9999 SCT020 BKN220 24/20 A3015 RESHRA,0,13,0,10000.0,0,0,0,RA
2026-04-03 10:00:00,METAR MYNN 031000Z 11011KT 9999 SCT020 BKN250 24/20 A3014,0,11,0,10000.0,0,0,0,
2026-04-03 09:00:00,METAR MYNN 030900Z 12011KT 9999 SCT020 BKN250 24/20 A3013,0,11,0,10000.0,0,0,0,
2026-04-03 08:00:00,METAR MYNN 030800Z 12012KT 9999 SCT020 BKN250 24/20 A3013,0,12,0,10000.0,0,0,0,
2026-04-03 07:00:00,METAR MYNN 030700Z 10011KT 9999 SCT020 SCT250 24/21 A3015,0,11,0,10000.0,0,0,0,
2026-04-03 06:00:00,METAR MYNN 030600Z 10011KT 9999 SCT020 SCT250 24/20 A3016,0,11,0,10000.0,0,0,0,
2026-04-03 05:00:00,METAR MYNN 030500Z 10009KT 9999 SCT022 SCT250 24/20 A3018,0,9,0,10000.0,0,0,0,
2026-04-03 04:00:00,METAR MYNN 030400Z 10010KT 9999 SCT022 SCT250 24/19 A3019,0,10,0,10000.0,0,0,0,
2026-04-03 03:00:00,METAR MYNN 030300Z 11011KT 9999 SCT022 SCT250 24/19 A3020,0,11,0,10000.0,0,0,0,
2026-04-03 02:00:00,METAR MYNN 030200Z 11012KT 9999 SCT022 SCT220 24/20 A3019 RESHRA,0,12,0,10000.0,0,0,0,RA
2026-04-03 01:00:00,METAR MYNN 030100Z COR 11013KT 9999 SCT022 SCT220 25/20 A3016,0,13,0,10000.0,0,0,0,
2026-04-03 00:00:00,METAR MYNN 030000Z 11014KT 9999 SCT022 BKN220 25/20 A3016,0,14,0,10000.0,0,0,0,
2026-04-02 23:00:00,METAR MYNN 022300Z 11014KT 9999 SCT022 BKN220 25/20 A3014,0,14,0,10000.0,0,0,0,
2026-04-02 22:00:00,METAR MYNN 022200Z 11013KT 9999 SCT022 SCT170 BKN220 26/20 A3013,0,13,0,10000.0,0,0,0,
2026-04-02 21:00:00,METAR MYNN 022100Z 10014KT 9999 SCT025 SCT180 BKN240 27/20 A3013,0,14,0,10000.0,0,0,0,
2026-04-02 20:00:00,METAR MYNN 022000Z 11014KT 070V130 9999 SCT025 SCT180 BKN240 27/21 A3013,0,14,0,10000.0,0,0,0,
2026-04-02 19:00:00,METAR MYNN 021900Z 12014KT 9999 SCT025 SCT180 28/20 A3013,0,14,0,10000.0,0,0,0,
2026-04-02 18:00:00,METAR MYNN 021800Z 11016KT 9999 SCT025 SCT180 28/20 A3015,0,16,0,10000.0,0,0,0,
2026-04-02 17:00:00,METAR MYNN 021700Z 12016G29KT 090V150 9999 BKN025 BKN220 27/19 A3017,0,16,1,10000.0,0,0,0,
2026-04-02 16:00:00,METAR MYNN 021600Z 12017KT 9999 BKN022 BKN220 27/20 A3018,0,17,0,10000.0,0,0,0,
2026-04-02 15:00:00,METAR MYNN 021500Z 12016KT 9999 BKN020 BKN200 26/20 A3018,0,16,0,10000.0,0,0,0,
2026-04-02 14:00:00,METAR MYNN 021400Z 11015KT 9999 BKN020 BKN200 25/20 A3017,0,15,0,10000.0,0,0,0,
2026-04-02 13:00:00,METAR MYNN 021300Z 11013KT 9999 SCT020 BKN200 25/20 A3015,0,13,0,10000.0,0,0,0,
2026-04-02 12:00:00,METAR MYNN 021200Z 10011KT 9999 FEW020 BKN200 24/20 A3013,0,11,0,10000.0,0,0,0,
2026-04-02 11:00:00,METAR MYNN 021100Z 11009KT 9999 SCT020 SCT200 23/20 A3012,0,9,0,10000.0,0,0,0,
2026-04-02 10:00:00,METAR MYNN 021000Z 11008KT 9999 SCT020 BKN030 23/20 A3010,0,8,0,10000.0,0,0,0,
2026-04-02 09:00:00,METAR MYNN 020900Z 11010KT 9999 SCT020 BKN040 23/20 A3009,0,10,0,10000.0,0,0,0,
2026-04-02 08:00:00,METAR MYNN 020800Z 11008KT 9999 SCT020 BKN030 BKN070 24/20 A3009,0,8,0,10000.0,0,0,0,
2026-04-02 07:00:00,METAR MYNN 020700Z 11008KT 9999 SCT020 BKN035 24/20 A3010,0,8,0,10000.0,0,0,0,
2026-04-02 06:00:00,METAR MYNN 020600Z 10007KT 9999 SCT018 BKN035 23/21 A3012 RESHRA,0,7,0,10000.0,0,0,0,RA
2026-04-02 05:00:00,METAR MYNN 020500Z 11011KT 9999 -SHRA SCT017 BKN035 23/21 A3013,0,11,0,10000.0,0,0,0,RA
2026-04-02 04:00:00,METAR MYNN 020400Z 11009KT 070V130 9999 -SHRA SCT017 BKN038 23/21 A3014,0,9,0,10000.0,0,0,0,RA
2026-04-02 03:00:00,METAR MYNN 020300Z 11010KT 9999 -SHRA SCT015 BKN035 23/20 A3015,0,10,0,10000.0,0,0,0,RA
2026-04-02 02:00:00,METAR MYNN 020200Z 09009KT 060V120 9999 BKN015 23/20 A3014,0,9,0,10000.0,0,0,0,
2026-04-02 01:54:00,SPECI MYNN 020154Z 09009KT 060V120 9999 BKN015 23/20 A3014,0,9,0,10000.0,0,0,0,
2026-04-02 01:00:00,METAR MYNN 020100Z COR 08009KT 9999 FEW015 BKN035 23/20 A3013 RESHRA,0,9,0,10000.0,0,0,0,RA
2026-04-02 00:00:00,METAR MYNN 020000Z 09014KT 9999 -SHRA BKN015 OVC035 23/19 A3013,0,14,0,10000.0,0,0,0,RA
2026-04-01 23:00:00,METAR MYNN 012300Z 09012KT 9999 FEW020 BKN040 BKN250 24/19 A3013,0,12,0,10000.0,0,0,0,
2026-04-01 22:00:00,METAR MYNN 012200Z 09014KT 9999 FEW020 BKN040 BKN250 24/19 A3013,0,14,0,10000.0,0,0,0,
2026-04-01 21:00:00,METAR MYNN 012100Z 08012KT 050V110 9999 FEW020 SCT120 BKN250 25/19 A3013,0,12,0,10000.0,0,0,0,
2026-04-01 20:00:00,METAR MYNN 012000Z 08011KT 050V120 9999 SCT025 BKN250 25/19 A3014,0,11,0,10000.0,0,0,0,
2026-04-01 19:00:00,METAR MYNN 011900Z 09013KT 040V110 9999 SCT025 BKN250 27/19 A3015,0,13,0,10000.0,0,0,0,
2026-04-01 18:00:00,METAR MYNN 011800Z 09014KT 9999 SCT025 BKN250 26/17 A3017,0,14,0,10000.0,0,0,0,
2026-04-01 17:00:00,METAR MYNN 011700Z 09013KT 060V120 9999 SCT030 BKN250 26/18 A3019,0,13,0,10000.0,0,0,0,
2026-04-01 16:00:00,METAR MYNN 011600Z 08012KT 9999 SCT030 BKN250 26/18 A3021,0,12,0,10000.0,0,0,0,
2026-04-01 15:00:00,METAR MYNN 011500Z 08011KT 9999 SCT030 SCT250 26/18 A3020,0,11,0,10000.0,0,0,0,
2026-04-01 14:00:00,METAR MYNN 011400Z 11012KT 9999 BKN025 25/18 A3019,0,12,0,10000.0,0,0,0,
2026-04-01 13:00:00,METAR MYNN 011300Z 09008KT 060V120 9999 SCT025 SCT220 24/18 A3018,0,8,0,10000.0,0,0,0,
2026-04-01 12:00:00,METAR MYNN 011200Z COR 10005KT 9999 FEW025 SCT200 23/17 A3016,0,5,0,10000.0,0,0,0,
2026-04-01 11:00:00,METAR MYNN 011100Z COR 10004KT 9999 FEW028 SCT250 22/16 A3015,0,4,0,10000.0,0,0,0,
2026-04-01 10:00:00,METAR MYNN 011000Z 09005KT 9999 FEW030 SCT250 22/15 A3014,0,5,0,10000.0,0,0,0,
2026-04-01 09:00:00,METAR MYNN 010900Z 09004KT 9999 FEW025 SCT250 22/15 A3013,0,4,0,10000.0,0,0,0,
2026-04-01 08:00:00,METAR MYNN 010800Z 09005KT 9999 FEW025 SCT250 22/15 A3014,0,5,0,10000.0,0,0,0,
2026-04-01 07:00:00,METAR MYNN 010700Z 10007KT 9999 FEW025 23/16 A3015,0,7,0,10000.0,0,0,0,
2026-04-01 06:00:00,METAR MYNN 010600Z 11010KT 9999 FEW025 SCT040 23/17 A3017,0,10,0,10000.0,0,0,0,
2026-04-01 05:00:00,METAR MYNN 010500Z COR 10006KT 9999 SCT025 23/17 A3018,0,6,0,10000.0,0,0,0,
2026-04-01 04:00:00,METAR MYNN 010400Z 11009KT 9999 FEW025 23/17 A3019,0,9,0,10000.0,0,0,0,
2026-04-01 03:00:00,METAR MYNN 010300Z 11010KT 9999 FEW025 23/17 A3020,0,10,0,10000.0,0,0,0,
2026-04-01 02:00:00,METAR MYNN 010200Z 11010KT 9999 SCT028 BKN035 24/17 A3020 RERA,0,10,0,10000.0,0,0,0,RA
2026-04-01 01:00:00,METAR MYNN 010100Z 09009KT 9999 -RA SCT025 BKN030 24/18 A3018,0,9,0,10000.0,0,0,0,-RA
2026-04-01 00:00:00,METAR MYNN 010000Z 09010KT 9999 -SHRA SCT025 BKN030 24/18 A3018,0,10,0,10000.0,0,0,0,RA
2026-03-31 23:00:00,METAR MYNN 312300Z 11012KT 9999 FEW025 BKN030 24/18 A3017,0,12,0,9999.0,0,0,0,
2026-03-31 22:00:00,METAR MYNN 312200Z 11014KT 9999 FEW025 BKN030 25/18 A3017,0,14,0,9999.0,0,0,0,
2026-03-31 21:00:00,METAR MYNN 312100Z 10013KT 9999 FEW025 SCT030 25/18 A3018,0,13,0,9999.0,0,0,0,
2026-03-31 20:00:00,METAR MYNN 312000Z 09015KT 060V120 9999 FEW025 SCT030 26/18 A3018,0,15,0,9999.0,0,0,0,
2026-03-31 19:00:00,METAR MYNN 311900Z 08015KT 9999 SCT025 BKN030 25/18 A3020,0,15,0,9999.0,0,0,0,
2026-03-31 18:00:00,METAR MYNN 311800Z 08012KT 050V110 9999 FEW025 BKN030 26/19 A3022,0,12,0,9999.0,0,0,0,
2026-03-31 17:00:00,METAR MYNN 311700Z 09014KT 9999 SCT025 BKN030 25/19 A3024,0,14,0,9999.0,0,0,0,
2026-03-31 16:00:00,METAR MYNN 311600Z COR 08012KT 9999 SCT025 BKN030 25/19 A3026 RESHRA,0,12,0,9999.0,0,0,0,RA
2026-03-31 15:00:00,METAR MYNN 311500Z 08014KT 9999 FEW025 BKN030 25/19 A3026,0,14,0,9999.0,0,0,0,
2026-03-31 14:00:00,METAR MYNN 311400Z 09011KT 9999 SCT025 25/18 A3024,0,11,0,9999.0,0,0,0,
2026-03-31 13:00:00,METAR MYNN 311300Z 09011KT 9999 SCT025 24/19 A3024 RESHRA,0,11,0,9999.0,0,0,0,RA
2026-03-31 12:00:00,METAR MYNN 311200Z COR 10010KT 9999 -SHRA FEW025 23/18 A3024,0,10,0,9999.0,0,0,0,RA
2026-03-31 11:00:00,METAR MYNN 311100Z 10007KT 9999 FEW025 23/18 A3022,0,7,0,9999.0,0,0,0,
2026-03-31 10:00:00,METAR MYNN 311000Z 10007KT 9999 FEW025 23/18 A3019,0,7,0,9999.0,0,0,0,
2026-03-31 09:00:00,METAR MYNN 310900Z 11009KT 9999 FEW025 23/18 A3019,0,9,0,9999.0,0,0,0,
2026-03-31 08:00:00,METAR MYNN 310800Z 09010KT 9999 SCT025 23/18 A3019,0,10,0,9999.0,0,0,0,
2026-03-31 07:00:00,METAR MYNN 310700Z 10008KT 9999 FEW025 23/18 A3021,0,8,0,9999.0,0,0,0,
2026-03-31 06:00:00,METAR MYNN 310600Z 10010KT 9999 SCT025 23/18 A3023,0,10,0,9999.0,0,0,0,
2026-03-31 05:00:00,METAR MYNN 310500Z 10011G21KT 9999 SCT025 23/18 A3025,0,11,1,9999.0,0,0,0,
2026-03-31 04:00:00,METAR MYNN 310400Z 10011KT 9999 SCT020 23/19 A3026,0,11,0,9999.0,0,0,0,
2026-03-31 03:00:00,METAR MYNN 310300Z 09014KT 9999 SCT020 24/19 A3026,0,14,0,9999.0,0,0,0,
2026-03-31 02:00:00,METAR MYNN 310200Z 09014KT 9999 SCT020 24/19 A3025,0,14,0,9999.0,0,0,0,
2026-03-31 01:00:00,METAR MYNN 310100Z 09015KT 9999 BKN020 24/19 A3023,0,15,0,9999.0,0,0,0,
2026-03-31 00:00:00,METAR MYNN 310000Z 09013KT 9999 SCT020 SCT100 24/19 A3023,0,13,0,9999.0,0,0,0,
2026-03-30 23:00:00,METAR MYNN 302300Z 09014KT 9999 FEW020 24/19 A3022,0,14,0,10000.0,0,0,0,
2026-03-30 22:00:00,METAR MYNN 302200Z COR 10014G27KT 9999 VCSH SCT022 24/19 A3022 RESHRA,0,14,1,10000.0,0,0,0,"RA,SH,VC"
2026-03-30 21:00:00,METAR MYNN 302100Z 09014G24KT 060V120 9999 BKN022 25/19 A3020,0,14,1,10000.0,0,0,0,
2026-03-30 20:00:00,METAR MYNN 302000Z 10016KT 9999 SCT022 25/19 A3021,0,16,0,10000.0,0,0,0,
2026-03-30 19:00:00,METAR MYNN 301900Z COR 09014G24KT 9999 VCSH BKN022 26/19 A3022,0,14,1,10000.0,0,0,0,"SH,VC"
2026-03-30 18:00:00,METAR MYNN 301800Z 10016KT 9999 VCSH BKN025 26/19 A3023,0,16,0,10000.0,0,0,0,"SH,VC"
2026-03-30 17:00:00,METAR MYNN 301700Z 10017KT 9999 SCT020 BKN035 25/19 A3025 RESHRA,0,17,0,10000.0,0,0,0,RA
2026-03-30 16:00:00,METAR MYNN 301600Z 11017KT 9999 SHRA SCT020 BKN035 24/21 A3026,0,17,0,10000.0,0,0,0,"RA,SH"
2026-03-30 15:18:00,SPECI MYNN 301518Z COR 11018G29KT 9999 6000NE SHRA BKN022 23/20 A3027,0,18,1,10000.0,0,0,0,"RA,SH"
2026-03-30 15:00:00,METAR MYNN 301500Z 11016KT 9999 VCSH SCT018 BKN030 25/19 A3026,0,16,0,10000.0,0,0,0,"SH,VC"
2026-03-30 14:00:00,METAR MYNN 301400Z 10017KT 9999 VCSH SCT020 SCT035 24/19 A3026,0,17,0,10000.0,0,0,0,"SH,VC"
2026-03-30 13:00:00,METAR MYNN 301300Z 10013G23KT 040V160 9999 SCT019 SCT035 24/20 A3025,0,13,1,10000.0,0,0,0,
2026-03-30 12:00:00,METAR MYNN 301200Z 10010KT 9999 VCSH FEW021 SCT035 23/20 A3023,0,10,0,10000.0,0,0,0,"SH,VC"
2026-03-30 11:00:00,METAR MYNN 301100Z 10013KT 9999 VCSH SCT018 BKN060 22/19 A3020,0,13,0,10000.0,0,0,0,"SH,VC"
2026-03-30 10:00:00,METAR MYNN 301000Z 10015KT 9999 -SHRA SCT018 BKN060 22/19 A3018,0,15,0,10000.0,0,0,0,RA
2026-03-30 09:00:00,METAR MYNN 300900Z 11010KT 070V130 9999 -SHRA SCT020 21/20 A3018,0,10,0,10000.0,0,0,0,RA
2026-03-30 08:00:00,METAR MYNN 300800Z 09010KT 9999 VCSH SCT020 22/19 A3018,0,10,0,10000.0,0,0,0,"SH,VC"
2026-03-30 07:00:00,METAR MYNN 300700Z 12013KT 9999 VCSH SCT020 22/19 A3020,0,13,0,10000.0,0,0,0,"SH,VC"
2026-03-30 06:00:00,METAR MYNN 300600Z 09011KT 9999 SCT020 22/20 A3020,0,11,0,10000.0,0,0,0,
2026-03-30 05:00:00,METAR MYNN 300500Z 09013KT 9999 SCT020 23/19 A3023,0,13,0,10000.0,0,0,0,
2026-03-30 04:00:00,METAR MYNN 300400Z 10014KT 070V140 9999 VCSH BKN018 24/19 A3023,0,14,0,10000.0,0,0,0,"SH,VC"
2026-03-30 03:00:00,METAR MYNN 300300Z 09011KT 9999 SCT020 23/20 A3023,0,11,0,10000.0,0,0,0,
2026-03-30 02:00:00,METAR MYNN 300200Z 09012KT 9999 SCT020 23/19 A3023,0,12,0,10000.0,0,0,0,
2026-03-30 01:00:00,METAR MYNN 300100Z 08011G23KT 9999 VCSH BKN022 23/19 A3022,0,11,1,10000.0,0,0,0,"SH,VC"
2026-03-30 00:00:00,METAR MYNN 300000Z 08012KT 9999 BKN022 23/19 A3021,0,12,0,10000.0,0,0,0,
2026-03-29 23:00:00,METAR MYNN 292300Z COR 08012G25KT 040V100 9999 BKN022 24/19 A3020,0,12,1,10000.0,0,0,0,
2026-03-29 22:00:00,METAR MYNN 292200Z 08013KT 9999 BKN025 25/19 A3020,0,13,0,10000.0,0,0,0,
2026-03-29 21:00:00,METAR MYNN 292100Z 08015KT 9999 BKN030 26/19 A3019,0,15,0,10000.0,0,0,0,
2026-03-29 20:00:00,METAR MYNN 292000Z 09016KT 9999 SCT030 26/18 A3020,0,16,0,10000.0,0,0,0,
2026-03-29 19:00:00,METAR MYNN 291900Z 07014KT 040V100 9999 SCT030 26/18 A3021,0,14,0,10000.0,0,0,0,
2026-03-29 18:00:00,METAR MYNN 291800Z 07016KT 9999 SCT030 26/18 A3023,0,16,0,10000.0,0,0,0,
2026-03-29 17:00:00,METAR MYNN 291700Z 08013KT 9999 SCT035 27/17 A3025,0,13,0,10000.0,0,0,0,
2026-03-29 16:00:00,METAR MYNN 291600Z 09012KT 060V120 9999 FEW035 26/18 A3025,0,12,0,10000.0,0,0,0,
2026-03-29 15:00:00,METAR MYNN 291500Z 10013KT 9999 SCT030 27/18 A3025,0,13,0,10000.0,0,0,0,
2026-03-29 14:00:00,METAR MYNN 291400Z 10012KT 9999 FEW025 SCT030 25/18 A3023,0,12,0,10000.0,0,0,0,
2026-03-29 13:00:00,METAR MYNN 291300Z 09012KT 9999 FEW025 SCT030 24/19 A3021,0,12,0,10000.0,0,0,0,
2026-03-29 12:00:00,METAR MYNN 291200Z 08009KT 9999 FEW025 SCT030 24/19 A3019,0,9,0,10000.0,0,0,0,
2026-03-29 11:00:00,METAR MYNN 291100Z 09008KT 9999 FEW025 SCT040 23/17 A3017,0,8,0,10000.0,0,0,0,
2026-03-29 10:00:00,METAR MYNN 291000Z 09007KT 9999 FEW025 SCT040 23/17 A3015,0,7,0,10000.0,0,0,0,
2026-03-29 09:00:00,METAR MYNN 290900Z 09008KT 9999 FEW025 23/18 A3014,0,8,0,10000.0,0,0,0,
2026-03-29 08:00:00,METAR MYNN 290800Z 09009KT 9999 FEW025 23/18 A3013,0,9,0,10000.0,0,0,0,
2026-03-29 07:00:00,METAR MYNN 290700Z 08009KT 9999 FEW025 23/18 A3015,0,9,0,10000.0,0,0,0,
2026-03-29 06:00:00,METAR MYNN 290600Z 08010KT 9999 FEW022 24/18 A3016,0,10,0,10000.0,0,0,0,
2026-03-29 05:00:00,METAR MYNN 290500Z 08008KT 9999 FEW022 24/18 A3017,0,8,0,10000.0,0,0,0,
2026-03-29 04:00:00,METAR MYNN 290400Z COR 08009KT 9999 FEW022 24/18 A3017,0,9,0,10000.0,0,0,0,
2026-03-29 03:00:00,METAR MYNN 290300Z 08009KT 9999 FEW025 24/19 A3017,0,9,0,10000.0,0,0,0,
2026-03-29 02:00:00,METAR MYNN 290200Z 08010KT 050V110 9999 FEW022 24/19 A3016,0,10,0,10000.0,0,0,0,
2026-03-29 01:00:00,METAR MYNN 290100Z 08010KT 9999 SCT022 24/19 A3015,0,10,0,10000.0,0,0,0,
2026-03-29 00:00:00,METAR MYNN 290000Z 07010KT 9999 SCT025 24/19 A3013,0,10,0,10000.0,0,0,0,
2026-03-28 23:00:00,METAR MYNN 282300Z 06011KT 9999 SCT025 25/19 A3012,0,11,0,10000.0,0,0,0,
2026-03-28 22:00:00,METAR MYNN 282200Z 05010KT 020V080 9999 FEW025 26/19 A3010,0,10,0,10000.0,0,0,0,
2026-03-28 21:00:00,METAR MYNN 282100Z 05010KT 010V090 9999 FEW025 25/19 A3011,0,10,0,10000.0,0,0,0,
2026-03-28 20:00:00,METAR MYNN 282000Z 03011KT 010V080 9999 FEW025 27/20 A3011,0,11,0,10000.0,0,0,0,
2026-03-28 19:00:00,METAR MYNN 281900Z 05011KT 010V090 9999 FEW025 27/19 A3013,0,11,0,10000.0,0,0,0,
2026-03-28 18:00:00,METAR MYNN 281800Z 06011KT 020V080 9999 SCT025 26/19 A3015,0,11,0,10000.0,0,0,0,
2026-03-28 17:00:00,METAR MYNN 281700Z 03009KT 360V070 9999 SCT025 27/20 A3016,0,9,0,10000.0,0,0,0,
2026-03-28 16:00:00,METAR MYNN 281600Z 07008KT 030V110 9999 FEW025 26/19 A3016,0,8,0,10000.0,0,0,0,
2026-03-28 15:00:00,METAR MYNN 281500Z 06009KT 030V100 9999 SCT025 26/19 A3017,0,9,0,10000.0,0,0,0,
2026-03-28 14:00:00,METAR MYNN 281400Z 09009KT 9999 SCT022 25/19 A3015,0,9,0,10000.0,0,0,0,
2026-03-28 13:00:00,METAR MYNN 281300Z 10008KT 060V130 9999 SCT022 24/19 A3015,0,8,0,10000.0,0,0,0,
2026-03-28 12:00:00,METAR MYNN 281200Z 09003KT 050V120 9999 SCT022 23/20 A3013,0,3,0,10000.0,0,0,0,
2026-03-28 11:00:00,METAR MYNN 281100Z 09003KT 9999 FEW022 22/19 A3011,0,3,0,10000.0,0,0,0,
2026-03-28 10:00:00,METAR MYNN 281000Z 10005KT 9999 FEW022 23/19 A3009,0,5,0,10000.0,0,0,0,
2026-03-28 09:00:00,METAR MYNN 280900Z 09004KT 9999 FEW022 23/19 A3008,0,4,0,10000.0,0,0,0,
2026-03-28 08:00:00,METAR MYNN 280800Z 08004KT 9999 FEW022 23/19 A3007,0,4,0,10000.0,0,0,0,
2026-03-28 07:00:00,METAR MYNN 280700Z 08003KT 050V110 9999 FEW022 22/19 A3009,0,3,0,10000.0,0,0,0,
2026-03-28 06:00:00,METAR MYNN 280600Z 09004KT 9999 FEW022 23/19 A3010,0,4,0,10000.0,0,0,0,
2026-03-28 05:00:00,METAR MYNN 280500Z 09005KT 9999 FEW022 23/19 A3011,0,5,0,10000.0,0,0,0,
2026-03-28 04:00:00,METAR MYNN 280400Z 08004KT 9999 FEW022 24/19 A3012,0,4,0,10000.0,0,0,0,
2026-03-28 03:00:00,METAR MYNN 280300Z 09005KT 050V120 9999 FEW020 24/19 A3013,0,5,0,10000.0,0,0,0,
2026-03-28 02:00:00,METAR MYNN 280200Z 09006KT 9999 FEW020 24/19 A3011,0,6,0,10000.0,0,0,0,
2026-03-28 01:00:00,METAR MYNN 280100Z 11007KT 9999 FEW022 24/19 A3010,0,7,0,10000.0,0,0,0,
2026-03-28 00:00:00,METAR MYNN 280000Z 11008KT 9999 FEW022 25/19 A3008,0,8,0,10000.0,0,0,0,
2026-03-27 23:00:00,METAR MYNN 272300Z 09010KT 9999 SCT022 25/19 A3007,0,10,0,10000.0,0,0,0,
2026-03-27 22:00:00,METAR MYNN 272200Z 09010KT 050V120 9999 FEW022 SCT035 26/19 A3006,0,10,0,10000.0,0,0,0,
2026-03-27 21:00:00,METAR MYNN 272100Z 09010KT 040V110 9999 FEW025 SCT035 28/18 A3006,0,10,0,10000.0,0,0,0,
2026-03-27 20:00:00,METAR MYNN 272000Z 08010KT 030V120 9999 FEW030 28/18 A3007,0,10,0,10000.0,0,0,0,
2026-03-27 19:00:00,METAR MYNN 271900Z 06014KT 030V090 9999 FEW030 26/19 A3009,0,14,0,10000.0,0,0,0,
2026-03-27 18:00:00,METAR MYNN 271800Z 07014KT 040V100 9999 SCT030 26/19 A3010,0,14,0,10000.0,0,0,0,
2026-03-27 17:00:00,METAR MYNN 271700Z 07012KT 040V100 9999 FEW030 27/18 A3012,0,12,0,10000.0,0,0,0,
2026-03-27 16:00:00,METAR MYNN 271600Z 10010KT 050V130 9999 SCT030 27/18 A3013,0,10,0,10000.0,0,0,0,
2026-03-25 15:00:00,METAR MYNN 251500Z 10008KT 040V130 9999 FEW025 BKN040 26/16 A3015,0,8,0,10000.0,0,0,0,
2026-03-25 14:00:00,METAR MYNN 251400Z 12007KT 9999 BKN025 25/16 A3014,0,7,0,10000.0,0,0,0,
2026-03-25 13:00:00,METAR MYNN 251300Z 11006KT 9999 FEW025 23/16 A3012,0,6,0,10000.0,0,0,0,
2026-03-25 12:00:00,METAR MYNN 251200Z 08003KT 040V120 9999 FEW025 19/17 A3010,0,3,0,10000.0,0,0,0,
2026-03-25 11:00:00,METAR MYNN 251100Z 08003KT 040V100 9999 FEW025 16/14 A3010,0,3,0,10000.0,0,0,0,
2026-03-25 10:00:00,METAR MYNN 251000Z 08001KT 9999 FEW025 15/14 A3009,0,1,0,10000.0,0,0,0,
2026-03-25 09:00:00,METAR MYNN 250900Z 00000KT CAVOK 16/14 A3007,1,0,0,9999.0,0,0,0,
2026-03-25 08:00:00,METAR MYNN 250800Z 09002KT CAVOK 16/14 A3008,1,0,0,9999.0,0,0,0,
2026-03-25 07:00:00,METAR MYNN 250700Z 08002KT CAVOK 17/14 A3009,1,0,0,9999.0,0,0,0,
2026-03-25 06:00:00,METAR MYNN 250600Z 09002KT CAVOK 17/15 A3010,1,0,0,9999.0,0,0,0,
2026-03-25 05:00:00,METAR MYNN 250500Z 00000KT CAVOK 16/14 A3010,1,0,0,9999.0,0,0,0,
2026-03-25 04:00:00,METAR MYNN 250400Z VRB02KT CAVOK 18/15 A3011,1,0,0,9999.0,0,0,0,
2026-03-25 03:00:00,METAR MYNN 250300Z VRB02KT CAVOK 18/15 A3011,1,0,0,9999.0,0,0,0,
2026-03-25 02:00:00,METAR MYNN 250200Z VRB01KT CAVOK 17/15 A3010,1,0,0,9999.0,0,0,0,
2026-03-25 01:00:00,METAR MYNN 250100Z VRB02KT CAVOK 18/15 A3010,1,0,0,9999.0,0,0,0,
2026-03-25 00:00:00,METAR MYNN 250000Z VRB02KT 9999 FEW035 20/16 A3009,0,2,0,10000.0,0,0,0,
2026-03-24 23:00:00,METAR MYNN 242300Z 11006KT 9999 FEW030 23/16 A3007,0,6,0,10000.0,0,0,0,
2026-03-24 22:00:00,METAR MYNN 242200Z 09005KT 040V130 9999 FEW022 24/16 A3007,0,5,0,10000.0,0,0,0,
2026-03-24 21:00:00,METAR MYNN 242100Z 12004KT 070V180 9999 FEW022 SCT035 24/16 A3007,0,4,0,10000.0,0,0,0,
2026-03-24 20:00:00,METAR MYNN 242000Z 15004KT 100V210 9999 FEW022 BKN035 24/17 A3007,0,4,0,10000.0,0,0,0,
2026-03-24 19:00:00,METAR MYNN 241900Z 03006KT 360V070 9999 FEW022 SCT035 24/16 A3009,0,6,0,10000.0,0,0,0,
2026-03-24 18:00:00,METAR MYNN 241800Z 03006KT 010V070 9999 SCT030 25/17 A3010,0,6,0,10000.0,0,0,0,
2026-03-24 17:00:00,METAR MYNN 241700Z 04005KT 260V140 9999 SCT028 25/17 A3011,0,5,0,10000.0,0,0,0,
2026-03-24 16:00:00,METAR MYNN 241600Z 06006KT 010V090 9999 SCT030 25/18 A3012,0,6,0,10000.0,0,0,0,
2026-03-24 15:00:00,METAR MYNN 241500Z 32005KT 260V350 9999 FEW030 24/17 A3013,0,5,0,10000.0,0,0,0,
2026-03-24 14:00:00,METAR MYNN 241400Z VRB02KT 9999 SCT025 25/18 A3012,0,2,0,10000.0,0,0,0,
2026-03-24 13:00:00,METAR MYNN 241300Z 35003KT 320V020 9999 FEW030 23/17 A3011,0,3,0,10000.0,0,0,0,
2026-03-24 12:00:00,METAR MYNN 241200Z 00000KT 9999 FEW030 18/16 A3009,0,0,0,10000.0,0,0,0,
2026-03-24 11:00:00,METAR MYNN 241100Z VRB02KT 9999 FEW020 15/14 A3007,0,2,0,10000.0,0,0,0,
2026-03-24 10:00:00,METAR MYNN 241000Z 00000KT 9999 FEW020 15/14 A3006,0,0,0,10000.0,0,0,0,
2026-03-24 09:00:00,METAR MYNN 240900Z 04001KT 9999 FEW020 16/15 A3005,0,1,0,10000.0,0,0,0,
2026-03-24 08:00:00,METAR MYNN 240800Z 32001KT CAVOK 15/13 A3005,1,0,0,9999.0,0,0,0,
2026-03-24 07:00:00,METAR MYNN 240700Z 00000KT CAVOK 16/14 A3007,1,0,0,9999.0,0,0,0,
2026-03-24 06:00:00,METAR MYNN 240600Z VRB01KT CAVOK 15/14 A3008,1,0,0,9999.0,0,0,0,
2026-03-24 05:00:00,METAR MYNN 240500Z 00000KT CAVOK 16/14 A3010,1,0,0,9999.0,0,0,0,
2026-03-24 04:00:00,METAR MYNN 240400Z 00000KT CAVOK 17/15 A3011,1,0,0,9999.0,0,0,0,
2026-03-24 03:00:00,METAR MYNN 240300Z VRB02KT CAVOK 17/15 A3012,1,0,0,9999.0,0,0,0,
2026-03-24 02:00:00,METAR MYNN 240200Z 00000KT CAVOK 19/16 A3011,1,0,0,9999.0,0,0,0,
2026-03-24 01:00:00,METAR MYNN 240100Z VRB01KT CAVOK 20/15 A3010,1,0,0,9999.0,0,0,0,
2026-03-24 00:00:00,METAR MYNN 240000Z 07004KT CAVOK 23/16 A3008,1,0,0,9999.0,0,0,0,
2026-03-23 23:00:00,METAR MYNN 232300Z 04005KT 9999 FEW035 23/16 A3007,0,5,0,10000.0,0,0,0,
2026-03-23 22:00:00,METAR MYNN 232200Z 04007KT 360V080 9999 FEW035 24/16 A3007,0,7,0,10000.0,0,0,0,
2026-03-23 21:00:00,METAR MYNN 232100Z 04008KT 360V070 9999 SCT035 25/16 A3007,0,8,0,10000.0,0,0,0,
2026-03-23 20:00:00,METAR MYNN 232000Z 02008KT 330V050 9999 SCT035 25/16 A3008,0,8,0,10000.0,0,0,0,
2026-03-23 19:00:00,METAR MYNN 231900Z 02008KT 340V060 9999 SCT035 24/16 A3009,0,8,0,10000.0,0,0,0,
2026-03-23 18:00:00,METAR MYNN 231800Z 02008KT 340V090 9999 SCT035 24/16 A3011,0,8,0,10000.0,0,0,0,
2026-03-23 17:24:00,SPECI MYNN 231724Z 36010KT 330V030 9999 FEW035 25/17 A3012,0,10,0,10000.0,0,0,0,
2026-03-23 17:00:00,METAR MYNN 231700Z COR 07007KT 360V230 9999 FEW035 25/16 A3013,0,7,0,10000.0,0,0,0,
2026-03-23 16:00:00,METAR MYNN 231600Z 06007KT 340V170 9999 FEW035 25/16 A3014,0,7,0,10000.0,0,0,0,
2026-03-23 15:00:00,METAR MYNN 231500Z VRB02KT 9999 SCT035 25/16 A3014,0,2,0,10000.0,0,0,0,
2026-03-23 14:00:00,METAR MYNN 231400Z 12005KT 080V160 9999 SCT030 23/16 A3013,0,5,0,10000.0,0,0,0,
2026-03-23 13:00:00,METAR MYNN 231300Z 09004KT 050V110 9999 FEW030 22/15 A3012,0,4,0,10000.0,0,0,0,
2026-03-23 12:00:00,METAR MYNN 231200Z VRB01KT 9999 FEW025 17/15 A3010,0,1,0,10000.0,0,0,0,
2026-03-23 11:00:00,METAR MYNN 231100Z 00000KT 9999 FEW020 15/13 A3010,0,0,0,10000.0,0,0,0,
2026-03-23 10:00:00,METAR MYNN 231000Z VRB01KT CAVOK 15/13 A3008,1,0,0,9999.0,0,0,0,
2026-03-23 09:00:00,METAR MYNN 230900Z VRB01KT CAVOK 16/14 A3007,1,0,0,9999.0,0,0,0,
2026-03-23 08:00:00,METAR MYNN 230800Z 00000KT CAVOK 15/13 A3008,1,0,0,9999.0,0,0,0,
2026-03-23 07:00:00,METAR MYNN 230700Z VRB02KT CAVOK 16/14 A3008,1,0,0,9999.0,0,0,0,
2026-03-23 06:00:00,METAR MYNN 230600Z VRB01KT CAVOK 16/14 A3010,1,0,0,9999.0,0,0,0,
2026-03-23 05:00:00,METAR MYNN 230500Z VRB01KT CAVOK 17/15 A3012,1,0,0,9999.0,0,0,0,
2026-03-23 04:00:00,METAR MYNN 230400Z COR 00000KT CAVOK 17/15 A3013,1,0,0,9999.0,0,0,0,
2026-03-23 03:00:00,METAR MYNN 230300Z VRB01KT 9999 CAVOK 18/15 A3013,1,0,0,9999.0,0,0,0,
2026-03-23 02:00:00,METAR MYNN 230200Z VRB01KT CAVOK 19/15 A3013,1,0,0,9999.0,0,0,0,
2026-03-23 01:00:00,METAR MYNN 230100Z 11004KT CAVOK 22/16 A3012,1,0,0,9999.0,0,0,0,
2026-03-23 00:00:00,METAR MYNN 230000Z 09004KT 9999 FEW025 22/15 A3011,0,4,0,10000.0,0,0,0,
2026-03-22 23:00:00,METAR MYNN 222300Z 06006KT 020V080 9999 FEW030 23/15 A3010,0,6,0,10000.0,0,0,0,
2026-03-22 22:00:00,METAR MYNN 222200Z 06007KT 030V090 9999 FEW030 24/14 A3010,0,7,0,10000.0,0,0,0,
2026-03-22 21:00:00,METAR MYNN 222100Z 05008KT 010V070 9999 FEW030 24/14 A3010,0,8,0,10000.0,0,0,0,
2026-03-22 20:00:00,METAR MYNN 222000Z 03009KT 350V080 9999 FEW030 25/15 A3010,0,9,0,10000.0,0,0,0,
2026-03-22 19:00:00,METAR MYNN 221900Z 05008KT 020V120 9999 FEW030 25/15 A3010,0,8,0,10000.0,0,0,0,
2026-03-22 18:00:00,METAR MYNN 221800Z 05009KT 020V080 9999 FEW030 24/14 A3012,0,9,0,10000.0,0,0,0,
2026-03-22 17:00:00,METAR MYNN 221700Z 04009KT 340V070 9999 FEW030 25/15 A3013,0,9,0,10000.0,0,0,0,
2026-03-22 16:00:00,METAR MYNN 221600Z 03009KT 350V070 9999 FEW030 25/15 A3015,0,9,0,10000.0,0,0,0,
2026-03-22 15:00:00,METAR MYNN 221500Z 06006KT 350V100 9999 FEW035 24/14 A3014,0,6,0,10000.0,0,0,0,
2026-03-22 14:00:00,METAR MYNN 221400Z 09005KT 050V140 9999 FEW035 23/13 A3014,0,5,0,10000.0,0,0,0,
2026-03-22 13:00:00,METAR MYNN 221300Z 09005KT 050V120 9999 FEW035 22/14 A3013,0,5,0,10000.0,0,0,0,
2026-03-22 12:00:00,METAR MYNN 221200Z 00000KT 9999 FEW035 17/15 A3011,0,0,0,10000.0,0,0,0,
2026-03-22 11:00:00,METAR MYNN 221100Z 00000KT 9999 FEW035 16/14 A3010,0,0,0,10000.0,0,0,0,
2026-03-22 10:00:00,METAR MYNN 221000Z 00000KT 9999 SCT035 16/14 A3009,0,0,0,10000.0,0,0,0,
2026-03-22 09:00:00,METAR MYNN 220900Z VRB01KT 9999 SCT035 17/15 A3007,0,1,0,10000.0,0,0,0,
2026-03-22 08:00:00,METAR MYNN 220800Z VRB01KT 9999 SCT035 17/14 A3007,0,1,0,10000.0,0,0,0,
2026-03-22 07:00:00,METAR MYNN 220700Z 00000KT 9999 SCT035 17/14 A3007,0,0,0,10000.0,0,0,0,
2026-03-22 06:00:00,METAR MYNN 220600Z 17003KT 9999 SCT035 18/14 A3008,0,3,0,10000.0,0,0,0,
2026-03-22 05:00:00,METAR MYNN 220500Z 05007KT 9999 SCT035 21/13 A3009,0,7,0,10000.0,0,0,0,
2026-03-22 04:00:00,METAR MYNN 220400Z 05007KT 9999 SCT035 21/13 A3009,0,7,0,10000.0,0,0,0,
2026-03-22 03:00:00,METAR MYNN 220300Z 04006KT 360V060 9999 SCT035 22/13 A3009,0,6,0,10000.0,0,0,0,
2026-03-22 02:00:00,METAR MYNN 220200Z 06006KT 9999 SCT035 22/13 A3008,0,6,0,10000.0,0,0,0,
2026-03-22 01:00:00,METAR MYNN 220100Z 05007KT 9999 SCT035 22/13 A3007,0,7,0,10000.0,0,0,0,
2026-03-22 00:00:00,METAR MYNN 220000Z 04008KT 9999 SCT035 22/13 A3006,0,8,0,10000.0,0,0,0,
2026-03-21 23:00:00,METAR MYNN 212300Z 04007KT 9999 SCT040 23/14 A3004,0,7,0,10000.0,0,0,0,
2026-03-21 22:00:00,METAR MYNN 212200Z 02009KT 9999 FEW025 SCT035 23/14 A3003,0,9,0,10000.0,0,0,0,
2026-03-21 21:00:00,METAR MYNN 212100Z 01011KT 340V050 9999 FEW025 SCT035 24/14 A3003,0,11,0,10000.0,0,0,0,
2026-03-21 20:00:00,METAR MYNN 212000Z 02011KT 9999 FEW025 SCT035 24/14 A3003,0,11,0,10000.0,0,0,0,
2026-03-21 19:00:00,METAR MYNN 211900Z 02011KT 350V050 9999 FEW025 SCT035 25/16 A3005,0,11,0,10000.0,0,0,0,
2026-03-21 18:00:00,METAR MYNN 211800Z 04012KT 9999 SCT025 24/13 A3007,0,12,0,10000.0,0,0,0,
2026-03-21 17:00:00,METAR MYNN 211700Z 03013KT 9999 SCT025 23/13 A3008,0,13,0,10000.0,0,0,0,
2026-03-21 16:00:00,METAR MYNN 211600Z 04012KT 010V070 9999 FEW025 24/15 A3008,0,12,0,10000.0,0,0,0,
2026-03-21 15:00:00,METAR MYNN 211500Z 04013KT 010V070 9999 SCT025 24/15 A3008,0,13,0,10000.0,0,0,0,
2026-03-21 14:00:00,METAR MYNN 211400Z 03013KT 9999 SCT025 23/15 A3007,0,13,0,10000.0,0,0,0,
2026-03-21 13:00:00,METAR MYNN 211300Z 03011KT 9999 SCT025 22/15 A3005,0,11,0,10000.0,0,0,0,
2026-03-21 12:00:00,METAR MYNN 211200Z 03011KT 9999 SCT025 22/14 A3003,0,11,0,10000.0,0,0,0,
2026-03-21 11:00:00,METAR MYNN 211100Z 02015KT 9999 SCT030 21/15 A3002,0,15,0,10000.0,0,0,0,
2026-03-21 10:03:00,SPECI MYNN 211003Z 02011G21KT 9999 SCT030 21/14 A3001,0,11,1,10000.0,0,0,0,
2026-03-21 10:00:00,METAR MYNN 211000Z 01015KT 9999 SCT030 21/15 A3001,0,15,0,10000.0,0,0,0,
2026-03-21 09:00:00,METAR MYNN 210900Z 02015KT 9999 SCT030 21/15 A2999,0,15,0,10000.0,0,0,0,
2026-03-21 08:00:00,METAR MYNN 210800Z 01013KT 9999 SCT030 21/14 A2998,0,13,0,10000.0,0,0,0,
2026-03-21 07:00:00,METAR MYNN 210700Z 02011KT 9999 FEW040 20/14 A3000,0,11,0,10000.0,0,0,0,
2026-03-21 06:00:00,METAR MYNN 210600Z 03014KT 9999 FEW040 21/13 A3001,0,14,0,10000.0,0,0,0,
2026-03-21 05:00:00,METAR MYNN 210500Z 02014KT 9999 FEW040 21/13 A3001,0,14,0,10000.0,0,0,0,
2026-03-21 04:00:00,METAR MYNN 210400Z 02016KT 9999 FEW038 21/13 A3002,0,16,0,10000.0,0,0,0,
2026-03-21 03:00:00,METAR MYNN 210300Z 02014KT 9999 FEW035 21/14 A3002,0,14,0,10000.0,0,0,0,
2026-03-21 02:00:00,METAR MYNN 210200Z 03012KT 9999 SCT018 21/14 A3001 RESHRA,0,12,0,10000.0,0,0,0,RA
2026-03-21 01:00:00,METAR MYNN 210100Z COR 03012KT 9999 SCT018 22/14 A3000 RESHRA,0,12,0,10000.0,0,0,0,RA
2026-03-21 00:00:00,METAR MYNN 210000Z COR 03012KT 9999 SCT018 22/14 A2999 RESHRA,0,12,0,10000.0,0,0,0,RA
2026-03-20 23:00:00,METAR MYNN 202300Z 04012KT 9999 FEW018 22/14 A2998,0,12,0,10000.0,0,0,0,
2026-03-20 22:00:00,METAR MYNN 202200Z 04011KT 010V070 9999 SCT020 23/14 A2997,0,11,0,10000.0,0,0,0,
2026-03-20 21:00:00,METAR MYNN 202100Z 04012KT 360V070 9999 FEW020 24/14 A2996,0,12,0,10000.0,0,0,0,
2026-03-20 20:00:00,METAR MYNN 202000Z 05015KT 020V080 9999 FEW020 24/14 A2997,0,15,0,10000.0,0,0,0,
2026-03-20 19:00:00,METAR MYNN 201900Z 05014KT 020V080 9999 FEW020 SCT035 24/14 A2998,0,14,0,10000.0,0,0,0,
2026-03-20 18:00:00,METAR MYNN 201800Z 05015KT 360V080 9999 SCT035 24/15 A3000,0,15,0,10000.0,0,0,0,
2026-03-20 17:00:00,METAR MYNN 201700Z 05015KT 9999 SCT035 24/15 A3002,0,15,0,10000.0,0,0,0,
2026-03-20 16:00:00,METAR MYNN 201600Z 05016G26KT 9999 SCT035 24/14 A3003,0,16,1,10000.0,0,0,0,
2026-03-20 15:00:00,METAR MYNN 201500Z 05015KT 9999 SCT035 23/15 A3002,0,15,0,10000.0,0,0,0,
2026-03-20 14:00:00,METAR MYNN 201400Z 06016KT 9999 FEW025 SCT035 23/15 A3001,0,16,0,10000.0,0,0,0,
2026-03-20 13:00:00,METAR MYNN 201300Z 05016KT 9999 -SHRA FEW025 SCT030 22/15 A2999,0,16,0,10000.0,0,0,0,RA
2026-03-20 12:00:00,METAR MYNN 201200Z 05014KT 9999 SCT025 22/16 A2997,0,14,0,10000.0,0,0,0,
2026-03-20 11:00:00,METAR MYNN 201100Z 05013G24KT 9999 SCT028 22/15 A2996,0,13,1,10000.0,0,0,0,
2026-03-20 10:00:00,METAR MYNN 201000Z COR 05015G25KT 9999 SCT025 22/16 A2996 RESHRA,0,15,1,10000.0,0,0,0,RA
2026-03-20 09:00:00,METAR MYNN 200900Z 06014KT 020V080 9999 SCT022 SCT120 BKN200 22/17 A2995,0,14,0,10000.0,0,0,0,
2026-03-20 08:00:00,METAR MYNN 200800Z COR 06014G24KT 9999 VCSH SCT020 22/16 A2994 RESHRA,0,14,1,10000.0,0,0,0,"RA,SH,VC"
2026-03-20 07:00:00,METAR MYNN 200700Z 05016G26KT 9999 VCSH SCT020 22/17 A2996,0,16,1,10000.0,0,0,0,"SH,VC"
2026-03-20 06:00:00,METAR MYNN 200600Z COR 06016G27KT 9999 VCSH BKN020 22/18 A2997 RESHRA,0,16,1,10000.0,0,0,0,"RA,SH,VC"
2026-03-20 05:14:00,SPECI MYNN 200514Z 07014G25KT 9999 VCSH SCT020 22/18 A2998 RESHRA,0,14,1,10000.0,0,0,0,"RA,SH,VC"
2026-03-20 05:00:00,METAR MYNN 200500Z 06015KT 6000 SHRA BKN020 22/19 A2999,0,15,0,6000.0,0,0,0,"RA,SH"
2026-03-20 04:00:00,METAR MYNN 200400Z 06015KT 9999 BKN020 22/18 A3000,0,15,0,10000.0,0,0,0,
2026-03-20 03:00:00,METAR MYNN 200300Z 05015G25KT 9999 VCSH SCT020 SCT035 23/18 A2999,0,15,1,10000.0,0,0,0,"SH,VC"
2026-03-20 02:00:00,METAR MYNN 200200Z 05017KT 9999 SCT020 BKN035 22/20 A2999,0,17,0,10000.0,0,0,0,
2026-03-20 01:00:00,METAR MYNN 200100Z 05012KT 9999 SCT020 SCT035 23/18 A2998,0,12,0,10000.0,0,0,0,
2026-03-20 00:00:00,METAR MYNN 200000Z 03013KT 9999 VCSH BKN020 BKN035 23/18 A2997,0,13,0,10000.0,0,0,0,"SH,VC"
2026-03-19 23:00:00,METAR MYNN 192300Z 04013KT 9999 VCSH SCT020 BKN035 23/19 A2995,0,13,0,10000.0,0,0,0,"SH,VC"
2026-03-19 22:00:00,METAR MYNN 192200Z 04014KT 9999 VCSH SCT025 SCT035 BKN200 23/20 A2995,0,14,0,10000.0,0,0,0,"SH,VC"
2026-03-19 21:00:00,METAR MYNN 192100Z 04015KT 9999 VCSH SCT025 SCT035 BKN200 24/19 A2994,0,15,0,10000.0,0,0,0,"SH,VC"
2026-03-19 20:00:00,METAR MYNN 192000Z 05014KT 9999 SCT025 SCT035 BKN200 24/19 A2995,0,14,0,10000.0,0,0,0,
2026-03-19 19:00:00,METAR MYNN 191900Z 04015KT 9999 SCT020 BKN030 24/20 A2997,0,15,0,10000.0,0,0,0,
2026-03-19 18:00:00,METAR MYNN 191800Z 04013KT 010V080 9999 SCT020 BKN035 25/19 A2999,0,13,0,10000.0,0,0,0,
2026-03-19 17:00:00,METAR MYNN 191700Z 04014KT 9999 SCT020 BKN035 24/19 A3000,0,14,0,10000.0,0,0,0,
2026-03-19 16:00:00,METAR MYNN 191600Z 04013KT 9999 VCSH SCT015 BKN035 23/19 A3001,0,13,0,10000.0,0,0,0,"SH,VC"
2026-03-19 15:00:00,METAR MYNN 191500Z 04014KT 9999 VCSH SCT015 BKN035 23/20 A3001,0,14,0,10000.0,0,0,0,"SH,VC"
2026-03-19 14:00:00,METAR MYNN 191400Z 02015KT 9999 VCSH SCT015 BKN035 23/20 A3001,0,15,0,10000.0,0,0,0,"SH,VC"
2026-03-19 13:00:00,METAR MYNN 191300Z 04012G22KT 9999 VCSH SCT018 BKN030 22/19 A3000,0,12,1,10000.0,0,0,0,"SH,VC"
2026-03-19 12:00:00,METAR MYNN 191200Z 04011KT 9999 -SHRA SCT018 BKN030 22/20 A2998,0,11,0,10000.0,0,0,0,RA
2026-03-19 11:00:00,METAR MYNN 191100Z 05012KT 010V070 9999 SCT018 BKN030 23/19 A2996,0,12,0,10000.0,0,0,0,
2026-03-19 10:00:00,METAR MYNN 191000Z 05010KT 020V090 9999 -SHRA SCT018 BKN100 22/20 A2994,0,10,0,10000.0,0,0,0,RA
2026-03-19 09:00:00,METAR MYNN 190900Z 05014KT 9999 -RA BKN020 22/20 A2994,0,14,0,10000.0,0,0,0,-RA
2026-03-19 08:00:00,METAR MYNN 190800Z 05010KT 9999 -RA OVC018 22/20 A2996,0,10,0,10000.0,0,0,0,-RA
2026-03-19 07:00:00,METAR MYNN 190700Z 06013KT 9999 -RA BKN018 OVC060 22/20 A2997,0,13,0,10000.0,0,0,0,-RA
2026-03-19 06:00:00,METAR MYNN 190600Z COR 04011KT 010V070 9999 RA SCT016 OVC040 22/21 A2997,0,11,0,10000.0,0,0,0,RA
2026-03-19 05:00:00,METAR MYNN 190500Z COR 08005KT 020V100 9999 RA SCT016 BKN020 OVC040 22/20 A2999,0,5,0,10000.0,0,0,0,RA
2026-03-19 04:00:00,METAR MYNN 190400Z 04005KT 010V080 9999 RA BKN016 OVC035 23/20 A3001,0,5,0,10000.0,0,0,0,RA
2026-03-19 03:00:00,METAR MYNN 190300Z 09005KT 9999 SCT015 BKN030 OVC100 23/20 A3002,0,5,0,10000.0,0,0,0,
2026-03-19 02:00:00,METAR MYNN 190200Z 06004KT 9999 -RA SCT015 SCT030 BKN100 22/20 A3001,0,4,0,10000.0,0,0,0,-RA
2026-03-19 01:00:00,METAR MYNN 190100Z COR 04004KT 9999 -RA SCT015 OVC080 22/20 A3000,0,4,0,10000.0,0,0,0,-RA
2026-03-19 00:00:00,METAR MYNN 190000Z 33003KT 310V050 9999 -SHRA FEW015CB SCT018 OVC080 22/21 A2999,0,3,0,10000.0,0,0,0,RA
2026-03-18 23:00:00,METAR MYNN 182300Z 07003KT 9999 FEW015CB SCT018 BKN080 22/20 A2997,0,3,0,10000.0,0,0,0,
2026-03-18 22:00:00,METAR MYNN 182200Z VRB02KT 9999 FEW015CB SCT018 BKN080 22/20 A2996 RESHRA,0,2,0,10000.0,0,0,0,RA
2026-03-18 21:00:00,METAR MYNN 182100Z VRB02KT 9999 -SHRA FEW016CB SCT035 BKN080 22/20 A2998,0,2,0,10000.0,0,0,0,RA
2026-03-18 20:00:00,METAR MYNN 182000Z 18008KT 9999 -SHRA FEW016CB SCT018 BKN070 23/19 A2999,0,8,0,10000.0,0,0,0,RA
2026-03-18 19:00:00,METAR MYNN 181900Z 15009KT 9999 VCSH FEW016CB SCT018 BKN070 24/19 A2997 RERA,0,9,0,10000.0,0,0,0,"RA,SH,VC"
2026-03-18 18:00:00,METAR MYNN 181800Z 10008KT 9999 -RA FEW016CB SCT018 BKN070 24/20 A3002,0,8,0,10000.0,0,0,0,-RA
2026-03-18 17:00:00,METAR MYNN 181700Z 08007KT 030V120 9999 9000S -RA FEW010CB BKN012 BKN080 23/21 A3005,0,7,0,10000.0,0,0,0,-RA
2026-03-18 16:18:00,SPECI MYNN 181618Z 05010KT 010V080 9000 6000S -RA SCT008 BKN012CB BKN120 22/20 A3007,0,10,0,9000.0,0,0,0,-RA
2026-03-18 16:00:00,METAR MYNN 181600Z 16005KT 110V210 9000 -RA SCT008 BKN012CB BKN120 24/22 A3006,0,5,0,9000.0,0,0,0,-RA
2026-03-18 15:00:00,METAR MYNN 181500Z 21006KT 180V240 9000 -SHRA FEW012CB BKN016 BKN120 23/21 A3006,0,6,0,9000.0,0,0,0,RA
2026-03-18 14:00:00,METAR MYNN 181400Z COR 16012KT 9999 9000E -SHRA VCTS FEW012CB BKN014 BKN120 24/21 A3004,0,12,0,10000.0,1,0,0,"RA,TS,VC"
2026-03-18 13:00:00,METAR MYNN 181300Z COR 18005KT 140V220 9999 VCTS FEW014CB BKN016 BKN120 24/22 A3002 RESHRA,0,5,0,10000.0,1,0,0,"RA,TS,VC"
2026-03-18 12:00:00,METAR MYNN 181200Z 17005KT 9999 VCSH BKN016 BKN120 23/21 A3000 RERA,0,5,0,10000.0,0,0,0,"RA,SH,VC"
2026-03-18 11:00:00,METAR MYNN 181100Z 16006KT 9999 -RA FEW015 BKN040 BKN120 22/21 A2999,0,6,0,10000.0,0,0,0,-RA
2026-03-18 10:00:00,METAR MYNN 181000Z 17004KT 9999 -RA FEW015 BKN040 BKN120 22/21 A2999,0,4,0,10000.0,0,0,0,-RA
2026-03-18 09:00:00,METAR MYNN 180900Z 11009KT 9999 -RA FEW015 BKN040 BKN120 23/21 A2994,0,9,0,10000.0,0,0,0,-RA
2026-03-18 08:00:00,METAR MYNN 180800Z 05004KT 9999 -RA FEW015 BKN040 BKN120 22/21 A2999,0,4,0,10000.0,0,0,0,-RA
2026-03-18 07:00:00,METAR MYNN 180700Z 11006KT 9999 -RA FEW015 BKN040 BKN120 23/21 A3000,0,6,0,10000.0,0,0,0,-RA
2026-03-18 06:00:00,METAR MYNN 180600Z 12004KT 090V160 9999 -RA FEW015 BKN040 BKN120 23/22 A3002,0,4,0,10000.0,0,0,0,-RA
2026-03-18 05:00:00,METAR MYNN 180500Z 08004KT 9999 -RA FEW015 BKN040 BKN120 23/22 A3005,0,4,0,10000.0,0,0,0,-RA
2026-03-18 04:00:00,METAR MYNN 180400Z 08004KT 050V110 9999 -SHRA FEW015 BKN040 BKN120 24/22 A3005,0,4,0,10000.0,0,0,0,RA
2026-03-18 03:00:00,METAR MYNN 180300Z 04004KT 9999 FEW015 BKN040 BKN120 24/21 A3005,0,4,0,10000.0,0,0,0,
2026-03-18 02:00:00,METAR MYNN 180200Z VRB02KT 9999 -SHRA FEW015 BKN040 BKN120 23/21 A3005,0,2,0,10000.0,0,0,0,RA
2026-03-18 01:00:00,METAR MYNN 180100Z VRB01KT 9999 FEW015 BKN040 BKN100 22/21 A3003,0,1,0,10000.0,0,0,0,
2026-03-18 00:00:00,METAR MYNN 180000Z 07003KT 040V100 9999 FEW015 BKN100 BKN220 23/21 A3002 RETSRA,0,3,0,10000.0,1,0,0,RA
2026-03-17 23:26:00,SPECI MYNN 172326Z 02008KT 9999 FEW012CB BKN100 BKN200 22/20 A3001 RETSRA,0,8,0,10000.0,1,0,0,RA
2026-03-17 23:00:00,METAR MYNN 172300Z 03010KT 360V060 9999 -TSRA SCT012CB SCT050 BKN080 21/20 A3000,0,10,0,10000.0,1,0,0,RA
2026-03-17 22:00:00,METAR MYNN 172200Z 01006KT 310V050 6000 TSRA FEW010CB SCT018 OVC029 22/20 A3000,0,6,0,6000.0,1,0,0,"RA,TS"
2026-03-17 21:26:00,SPECI MYNN 172126Z COR 35009KT 330V040 6000 TSRA FEW010CB SCT018 OVC030 22/20 A3000,0,9,0,6000.0,1,0,0,"RA,TS"
2026-03-17 21:00:00,METAR MYNN 172100Z 05007KT 020V080 9999 SHRA SCT018 OVC036 25/21 A3000,0,7,0,10000.0,0,0,0,"RA,SH"
2026-03-17 20:00:00,METAR MYNN 172000Z 04010KT 360V080 9999 SCT020 BKN200 27/20 A2999,0,10,0,10000.0,0,0,0,
2026-03-17 19:00:00,METAR MYNN 171900Z 03008KT 9999 SCT020 SCT200 27/19 A2999,0,8,0,10000.0,0,0,0,
2026-03-17 18:00:00,METAR MYNN 171800Z 05010KT 9999 FEW020 BKN200 26/20 A3000,0,10,0,10000.0,0,0,0,
2026-03-17 17:00:00,METAR MYNN 171700Z 05009KT 020V080 9999 FEW020 BKN200 26/20 A3004,0,9,0,10000.0,0,0,0,
2026-03-17 16:00:00,METAR MYNN 171600Z 03008KT 010V070 9999 FEW020 BKN070 BKN200 26/20 A3005,0,8,0,10000.0,0,0,0,
2026-03-17 15:00:00,METAR MYNN 171500Z 01007KT 340V040 9999 FEW020 SCT070 BKN200 26/21 A3005,0,7,0,10000.0,0,0,0,
2026-03-17 14:00:00,METAR MYNN 171400Z 34010KT 9999 FEW020 SCT080 BKN200 26/20 A3003,0,10,0,10000.0,0,0,0,
2026-03-17 13:00:00,METAR MYNN 171300Z 33010KT 9999 FEW015CB SCT030 BKN200 24/21 A3003,0,10,0,10000.0,0,0,0,
2026-03-17 12:00:00,METAR MYNN 171200Z 34011KT 9999 FEW015CB SCT030 BKN200 24/21 A3002,0,11,0,10000.0,0,0,0,
2026-03-17 11:00:00,METAR MYNN 171100Z 32006KT 9999 SCT020 SCT150 BKN200 23/22 A2999,0,6,0,10000.0,0,0,0,
2026-03-17 10:00:00,METAR MYNN 171000Z 21007KT 9999 FEW015CB SCT150 BKN200 23/22 A2996,0,7,0,10000.0,0,0,0,
2026-03-17 09:00:00,METAR MYNN 170900Z 21008KT 9999 VCSH FE015CB SCT150 BKN200 25/24 A2996,0,8,0,9999.0,0,0,0,"SH,VC"
2026-03-17 08:00:00,METAR MYNN 170800Z 20007KT 9999 FEW015CB SCT150 BKN200 26/23 A2997,0,7,0,10000.0,0,0,0,
2026-03-17 07:00:00,METAR MYNN 170700Z 20008KT 9999 FEW018 SCT200 26/23 A2999,0,8,0,10000.0,0,0,0,
2026-03-17 06:00:00,METAR MYNN 170600Z 18010KT 9999 FEW018 SCT200 26/23 A2998,0,10,0,10000.0,0,0,0,
2026-03-17 05:00:00,METAR MYNN 170500Z 17010KT 9999 FEW020 26/23 A2999,0,10,0,10000.0,0,0,0,
2026-03-17 04:00:00,METAR MYNN 170400Z 18008KT 9999 FEW020 25/23 A3000,0,8,0,10000.0,0,0,0,
2026-03-17 03:00:00,METAR MYNN 170300Z 18008KT 9999 FEW020 25/22 A3000,0,8,0,10000.0,0,0,0,
2026-03-17 02:00:00,METAR MYNN 170200Z 17006KT CAVOK 25/23 A2998,1,0,0,9999.0,0,0,0,
2026-03-17 01:00:00,METAR MYNN 170100Z 18007KT CAVOK 26/22 A2999,1,0,0,9999.0,0,0,0,
2026-03-17 00:00:00,METAR MYNN 170000Z 19008KT CAVOK 26/22 A2998,1,0,0,9999.0,0,0,0,
2026-03-16 23:00:00,METAR MYNN 162300Z 19011KT 9999 FEW020 26/22 A2994,0,11,0,10000.0,0,0,0,
2026-03-16 22:00:00,METAR MYNN 162200Z 18016KT 9999 FEW015CB 27/22 A2992,0,16,0,10000.0,0,0,0,
2026-03-16 21:00:00,METAR MYNN 162100Z 18017KT 9999 FEW015CB 28/23 A2992,0,17,0,10000.0,0,0,0,
2026-03-16 20:00:00,METAR MYNN 162000Z 18018KT 9999 FEW015CB 28/22 A2992,0,18,0,10000.0,0,0,0,
2026-03-16 19:00:00,METAR MYNN 161900Z 18017KT 9999 SCT020 28/22 A2993,0,17,0,10000.0,0,0,0,
2026-03-16 18:00:00,METAR MYNN 161800Z 18017KT 9999 SCT022 29/22 A2996,0,17,0,10000.0,0,0,0,
2026-03-16 17:00:00,METAR MYNN 161700Z 18018KT 9999 SCT020 28/22 A2998,0,18,0,10000.0,0,0,0,
2026-03-16 16:00:00,METAR MYNN 161600Z 18016KT 9999 SCT018 29/22 A3000,0,16,0,10000.0,0,0,0,
2026-03-16 15:00:00,METAR MYNN 161500Z 17016KT 9999 VCSH BKN018 27/22 A3001,0,16,0,10000.0,0,0,0,"SH,VC"
2026-03-16 14:00:00,METAR MYNN 161400Z 17011KT 140V200 9999 VCSH BKN015 26/22 A3001,0,11,0,10000.0,0,0,0,"SH,VC"
2026-03-16 13:00:00,METAR MYNN 161300Z 16010KT 9000 VCSH BKN016 BKN030 24/21 A3002 RESHRA,0,10,0,9000.0,0,0,0,"RA,SH,VC"
2026-03-16 12:31:00,SPECI MYNN 161231Z COR 15011KT 9000 VCSH BKN018 BKN030 23/21 A3001 RESHRA,0,11,0,9000.0,0,0,0,"RA,SH,VC"
2026-03-16 12:00:00,METAR MYNN 161200Z COR 20012G23KT 6000 SHRA BKN017 BKN030 23/21 A3000,0,12,1,6000.0,0,0,0,"RA,SH"
2026-03-16 11:00:00,METAR MYNN 161100Z 15013KT 9999 SCT020 SCT080 25/22 A2999,0,13,0,10000.0,0,0,0,
2026-03-16 10:00:00,METAR MYNN 161000Z 15012KT 9999 SCT020 BKN200 24/21 A2998,0,12,0,10000.0,0,0,0,
2026-03-16 09:00:00,METAR MYNN 160900Z 15012KT 9999 SCT020 BKN200 25/21 A2998,0,12,0,10000.0,0,0,0,
2026-03-16 08:00:00,METAR MYNN 160800Z 15013KT 9999 SCT020 BKN200 25/21 A2998,0,13,0,10000.0,0,0,0,
2026-03-16 07:00:00,METAR MYNN 160700Z COR 16012KT 9999 SCT020 BKN200 25/21 A3000,0,12,0,10000.0,0,0,0,
2026-03-16 06:00:00,METAR MYNN 160600Z 15015KT 9999 SCT018 BKN200 25/21 A3001,0,15,0,10000.0,0,0,0,
2026-03-16 05:00:00,METAR MYNN 160500Z 14014KT 9999 SCT018 BKN200 25/21 A3003,0,14,0,10000.0,0,0,0,
2026-03-16 04:00:00,METAR MYNN 160400Z 14013KT 9999 SCT018 BKN200 25/21 A3004,0,13,0,10000.0,0,0,0,
2026-03-16 03:00:00,METAR MYNN 160300Z 14010KT 9999 FEW018 BKN200 25/21 A3006,0,10,0,10000.0,0,0,0,
2026-03-16 02:00:00,METAR MYNN 160200Z 15012KT 9999 FEW020 BKN200 25/21 A3007,0,12,0,10000.0,0,0,0,
2026-03-16 01:00:00,METAR MYNN 160100Z 14011KT 9999 FEW022 BKN200 25/21 A3004,0,11,0,10000.0,0,0,0,
2026-03-16 00:00:00,METAR MYNN 160000Z 15012KT 9999 FEW030 BKN250 25/21 A3003,0,12,0,10000.0,0,0,0,
2026-03-15 23:00:00,METAR MYNN 152300Z 15013KT 9999 FEW025 SCT030 BKN250 26/21 A3002,0,13,0,10000.0,0,0,0,
2026-03-15 22:00:00,METAR MYNN 152200Z 15014KT 9999 FEW025 SCT030 BKN250 27/21 A3002,0,14,0,10000.0,0,0,0,
2026-03-15 21:00:00,METAR MYNN 152100Z 15014KT 9999 FEW025 SCT030 BKN250 27/21 A3001,0,14,0,10000.0,0,0,0,
2026-03-15 20:00:00,METAR MYNN 152000Z 15017KT 9999 SCT025 BKN250 28/21 A3002,0,17,0,10000.0,0,0,0,
2026-03-15 19:00:00,METAR MYNN 151900Z 15018KT 9999 BKN025 BKN250 27/20 A3004,0,18,0,10000.0,0,0,0,
2026-03-15 18:00:00,METAR MYNN 151800Z 15018KT 9999 BKN025 BKN250 27/21 A3006,0,18,0,10000.0,0,0,0,
2026-03-15 17:00:00,METAR MYNN 151700Z 14017KT 9999 BKN025 BKN250 28/21 A3009,0,17,0,10000.0,0,0,0,
2026-03-15 16:00:00,METAR MYNN 151600Z 14017KT 110V170 9999 SCT022 BKN220 28/21 A3010,0,17,0,10000.0,0,0,0,
2026-03-15 15:00:00,METAR MYNN 151500Z 14018KT 9999 SCT022 BKN220 27/21 A3009,0,18,0,10000.0,0,0,0,
2026-03-15 14:00:00,METAR MYNN 151400Z 14015KT 9999 SCT020 BKN220 27/21 A3009,0,15,0,10000.0,0,0,0,
2026-03-15 13:00:00,METAR MYNN 151300Z 14013KT 9999 SCT020 BKN220 26/21 A3008,0,13,0,10000.0,0,0,0,
2026-03-15 12:00:00,METAR MYNN 151200Z 14011KT 9999 SCT020 SCT200 25/21 A3007,0,11,0,10000.0,0,0,0,
2026-03-15 11:00:00,METAR MYNN 151100Z 14010KT 9999 SCT020 SCT200 24/21 A3006,0,10,0,10000.0,0,0,0,
2026-03-15 10:00:00,METAR MYNN 151000Z 14010KT 9999 FEW020 SCT200 24/21 A3004,0,10,0,10000.0,0,0,0,
2026-03-15 09:00:00,METAR MYNN 150900Z 15009KT 9999 FEW018 SCT200 24/21 A3004,0,9,0,10000.0,0,0,0,
2026-03-15 08:00:00,METAR MYNN 150800Z 14011KT 9999 SCT018 BKN200 24/21 A3004,0,11,0,10000.0,0,0,0,
