Time_recorded,METAR,is_cavok,wind_speed,is_gust,visibility_meters,has_thunderstorm,has_heavy_rain,has_low_vis_fog,other_phenomenon
2026-05-02 14:54:00,METAR KBUF 021454Z 25008G15KT 10SM BKN050 BKN090 06/M06 A2997 RMK AO2 SLP154 T00611056 58006,0,8,1,16090,0,0,0,
2026-05-02 13:54:00,METAR KBUF 021354Z 28008KT 10SM SCT030 BKN090 05/M03 A2998 RMK AO2 SLP157 T00501033,0,8,0,16090,0,0,0,
2026-05-02 12:54:00,METAR KBUF 021254Z 27009KT 10SM FEW030 SCT095 04/M03 A2999 RMK AO2 SLP162 T00391028,0,9,0,16090,0,0,0,
2026-05-02 11:54:00,METAR KBUF 021154Z 26006KT 10SM BKN095 03/M02 A2999 RMK AO2 SLP161 70003 T00331022 10033 20000 51010,0,6,0,16090,0,0,0,
2026-05-02 10:54:00,METAR KBUF 021054Z 20005KT 10SM BKN095 01/M02 A2999 RMK AO2 SLP160 T00111017,0,5,0,16090,0,0,0,
2026-05-02 09:54:00,METAR KBUF 020954Z 29004KT 10SM SCT090 01/M02 A2997 RMK AO2 SLP153 T00061022,0,4,0,16090,0,0,0,
2026-05-02 08:54:00,METAR KBUF 020854Z 29008KT 10SM FEW050 FEW090 01/M02 A2996 RMK AO2 SLP150 T00061022 53000,0,8,0,16090,0,0,0,
2026-05-02 07:54:00,METAR KBUF 020754Z 29008KT 10SM FEW050 FEW085 01/M02 A2995 RMK AO2 SLP147 T00111022,0,8,0,16090,0,0,0,
2026-05-02 06:54:00,METAR KBUF 020654Z 28008KT 10SM FEW050 FEW085 02/M02 A2995 RMK AO2 SLP149 T00221022,0,8,0,16090,0,0,0,
2026-05-02 05:54:00,METAR KBUF 020554Z 28006KT 10SM FEW055 FEW080 02/M02 A2996 RMK AO2 SLP150 T00221017 10061 20022 53008,0,6,0,16090,0,0,0,
2026-05-02 04:54:00,METAR KBUF 020454Z 29009KT 10SM FEW055 FEW080 03/M03 A2995 RMK AO2 SLP148 T00331028 400780017,0,9,0,16090,0,0,0,
2026-05-02 03:54:00,METAR KBUF 020354Z 28005KT 10SM BKN080 05/01 A2993 RMK AO2 SLP142 T00500006,0,5,0,16090,0,0,0,
2026-05-02 02:54:00,METAR KBUF 020254Z 22007KT 10SM BKN060 OVC075 05/02 A2993 RMK AO2 SLP141 T00500022 51014,0,7,0,16090,0,0,0,
2026-05-02 01:54:00,METAR KBUF 020154Z 23010KT 10SM SCT060 OVC080 06/02 A2993 RMK AO2 SLP141 T00560017,0,10,0,16090,0,0,0,
2026-05-02 00:54:00,METAR KBUF 020054Z 24007KT 10SM BKN065 BKN085 OVC110 06/03 A2991 RMK AO2 SLP135 T00560028,0,7,0,16090,0,0,0,
2026-05-01 23:54:00,METAR KBUF 012354Z 26007KT 10SM SCT070 BKN095 BKN110 06/03 A2989 RMK AO2 SLP127 60002 T00610028 10078 20050 53007,0,7,0,16090,0,0,0,
2026-05-01 22:54:00,METAR KBUF 012254Z 24005KT 10SM FEW050 SCT075 BKN090 08/02 A2988 RMK AO2 SLP123 T00780022,0,5,0,16090,0,0,0,
2026-05-01 21:54:00,METAR KBUF 012154Z 21004KT 10SM BKN070 OVC095 07/03 A2987 RMK AO2 SLP122 T00720028,0,4,0,16090,0,0,0,
2026-05-01 20:54:00,METAR KBUF 012054Z 16009KT 10SM OVC050 07/03 A2987 RMK AO2 RAE01 SLP120 P0000 60002 T00720033 58012,0,9,0,16090,0,0,0,
2026-05-01 20:12:00,SPECI KBUF 012012Z 16006KT 10SM OVC044 07/03 A2988 RMK AO2 RAE01 P0000 T00670033,0,6,0,16090,0,0,0,
2026-05-01 19:54:00,METAR KBUF 011954Z 22003KT 10SM -RA SCT013 BKN020 OVC042 06/03 A2988 RMK AO2 SLP124 P0002 T00610033,0,3,0,16090,0,0,0,-RA
2026-05-01 19:17:00,SPECI KBUF 011917Z VRB03KT 10SM -RA BKN014 OVC026 06/03 A2989 RMK AO2 P0002 T00560028,0,3,0,16090,0,0,0,-RA
2026-05-01 18:54:00,METAR KBUF 011854Z 34005KT 10SM -RA SCT010 OVC017 05/03 A2989 RMK AO2 RAB23 SLP129 P0000 T00500033,0,5,0,16090,0,0,0,-RA
2026-05-01 18:30:00,SPECI KBUF 011830Z 32007KT 10SM -RA FEW007 BKN010 OVC023 05/03 A2990 RMK AO2 RAB23 P0000 T00500033,0,7,0,16090,0,0,0,-RA
2026-05-01 17:54:00,METAR KBUF 011754Z 28004KT 10SM FEW012 BKN031 OVC045 05/03 A2990 RMK AO2 RAE53 SLP132 P0000 60001 T00500028 10067 20039 58005,0,4,0,16090,0,0,0,
2026-05-01 16:54:00,METAR KBUF 011654Z 27005KT 10SM -RA FEW014 OVC033 05/03 A2991 RMK AO2 SLP133 P0001 T00500028,0,5,0,16090,0,0,0,-RA
2026-05-01 15:54:00,METAR KBUF 011554Z 22007KT 10SM -RA FEW019 SCT026 OVC039 05/02 A2992 RMK AO2 SLP136 P0000 T00500022,0,7,0,16090,0,0,0,-RA
2026-05-01 15:01:00,SPECI KBUF 011501Z 23006KT 10SM -RA BKN024 OVC042 06/02 A2992 RMK AO2 P0000 T00610017,0,6,0,16090,0,0,0,-RA
2026-05-01 14:54:00,METAR KBUF 011454Z 24006KT 10SM -RA SCT024 BKN040 OVC049 06/02 A2992 RMK AO2 RAB24 SLP136 P0000 60000 T00610017 55002,0,6,0,16090,0,0,0,-RA
2026-05-01 13:54:00,METAR KBUF 011354Z 24007KT 10SM FEW040 BKN070 OVC130 06/02 A2992 RMK AO2 SLP135 T00610017,0,7,0,16090,0,0,0,
2026-05-01 12:54:00,METAR KBUF 011254Z 19004KT 10SM FEW030 BKN070 BKN130 06/02 A2991 RMK AO2 SLP135 T00560022,0,4,0,16090,0,0,0,
2026-05-01 11:54:00,METAR KBUF 011154Z 21005KT 10SM BKN070 BKN110 04/02 A2993 RMK AO2 SLP139 70002 T00390022 10050 20017 53002,0,5,0,16090,0,0,0,
2026-05-01 10:54:00,METAR KBUF 011054Z 20004KT 10SM FEW070 SCT110 02/02 A2992 RMK AO2 SLP139 T00220017 $,0,4,0,16090,0,0,0,
2026-05-01 09:54:00,METAR KBUF 010954Z 19004KT 10SM FEW055 02/01 A2991 RMK AO2 SLP135 T00170011 $,0,4,0,16090,0,0,0,
2026-05-01 08:54:00,METAR KBUF 010854Z 20003KT 10SM FEW055 03/01 A2992 RMK AO2 SLP137 T00280011 55001 $,0,3,0,16090,0,0,0,
2026-05-01 07:54:00,METAR KBUF 010754Z 00000KT 10SM FEW055 FEW100 04/02 A2991 RMK AO2 SLP134 T00390017 $,0,0,0,16090,0,0,0,
2026-05-01 06:54:00,METAR KBUF 010654Z 00000KT 10SM SCT055 SCT100 04/02 A2992 RMK AO2 SLP136 T00440017 $,0,0,0,16090,0,0,0,
2026-05-01 05:54:00,METAR KBUF 010554Z 03004KT 10SM FEW020 BKN060 BKN100 05/01 A2992 RMK AO2 SLP137 60001 T00500006 10072 20050 55000 $,0,4,0,16090,0,0,0,
2026-05-01 05:20:00,SPECI KBUF 010520Z 00000KT 10SM SCT020 BKN060 BKN100 06/02 A2992 RMK AO2 T00560017 $,0,0,0,16090,0,0,0,
2026-05-01 04:54:00,METAR KBUF 010454Z 29003KT 10SM BKN020 06/03 A2992 RMK AO2 RAE21 SLP137 P0000 T00560033 400940033 $,0,3,0,16090,0,0,0,
2026-05-01 04:47:00,SPECI KBUF 010447Z 25004KT 10SM BKN022 BKN100 06/03 A2992 RMK AO2 RAE21 P0000 T00560033 $,0,4,0,16090,0,0,0,
2026-05-01 03:54:00,METAR KBUF 010354Z 23006KT 10SM -RA FEW028 OVC042 07/03 A2992 RMK AO2 RAB36 SLP135 P0000 T00720033 $,0,6,0,16090,0,0,0,-RA
2026-05-01 02:54:00,METAR KBUF 010254Z 26003KT 10SM FEW055 OVC080 07/04 A2992 RMK AO2 SLP138 60001 T00670044 53004 $,0,3,0,16090,0,0,0,
2026-05-01 01:54:00,METAR KBUF 010154Z 21007KT 10SM SCT070 OVC095 06/04 A2992 RMK AO2 SLP136 T00610044 $,0,7,0,16090,0,0,0,
2026-05-01 00:54:00,METAR KBUF 010054Z 19007KT 10SM SCT047 OVC070 06/04 A2991 RMK AO2 RAE08 SLP132 P0001 T00610044 $,0,7,0,16090,0,0,0,
2026-04-30 23:54:00,METAR KBUF 302354Z 32006KT 10SM RA FEW030 BKN045 BKN055 06/03 A2991 RMK AO2 RAB39 SLP133 P0001 60001 T00560033 10089 20056 53010 $,0,6,0,16090,0,0,0,RA
2026-04-30 22:54:00,METAR KBUF 302254Z 23012G21KT 10SM BKN037 BKN050 BKN070 07/03 A2989 RMK AO2 SLP127 T00720033 $,0,12,1,16090,0,0,0,
2026-04-30 21:54:00,METAR KBUF 302154Z 23012KT 10SM SCT045 BKN055 08/03 A2988 RMK AO2 SLP124 T00780028 $,0,12,0,16090,0,0,0,
2026-04-30 20:54:00,METAR KBUF 302054Z 23013KT 10SM BKN045 BKN055 07/03 A2988 RMK AO2 RAB1956E06 SLP122 P0000 60000 T00720033 50005 $,0,13,0,16090,0,0,0,RA
2026-04-30 19:54:00,METAR KBUF 301954Z 24013KT 10SM FEW033 BKN045 BKN060 07/03 A2988 RMK AO2 SLP123 SHRA VC NE T00670033 $,0,13,0,16090,0,0,0,"RA,SH,VC"
2026-04-30 18:54:00,METAR KBUF 301854Z 23014G21KT 10SM BKN033 BKN042 BKN055 08/03 A2987 RMK AO2 SLP120 T00780028 $,0,14,1,16090,0,0,0,
2026-04-30 17:54:00,METAR KBUF 301754Z 23010KT 10SM SCT030 BKN042 OVC055 08/03 A2986 RMK AO2 SLP117 SHRA DSNT E-SE 60000 T00830033 10094 20050 50003 $,0,10,0,16090,0,0,0,"DS,RA,SH"
2026-04-30 16:54:00,METAR KBUF 301654Z 32010KT 10SM FEW027 SCT041 BKN055 09/02 A2987 RMK AO2 RAE30 SLP117 P0000 T00890022 $,0,10,0,16090,0,0,0,
2026-04-30 15:54:00,METAR KBUF 301554Z 31009KT 10SM -RA SCT024 BKN035 BKN047 08/03 A2986 RMK AO2 SLP117 P0000 T00780028 $,0,9,0,16090,0,0,0,-RA
2026-04-30 14:54:00,METAR KBUF 301454Z 32008KT 290V360 10SM -RA FEW018 BKN043 BKN055 BKN130 08/02 A2985 RMK AO2 RAB21 SLP114 PCPN VRY LGT P0000 60000 T00780022 53007 $,0,8,0,16090,0,0,0,-RA
2026-04-30 13:54:00,METAR KBUF 301354Z 31006KT 10SM FEW013 BKN070 BKN090 BKN130 BKN250 07/03 A2984 RMK AO2 SLP109 SHRA VC S-W-N T00720028 $,0,6,0,16090,0,0,0,"RA,SH,VC"
2026-04-30 12:54:00,METAR KBUF 301254Z VRB05KT 10SM FEW013 FEW050 BKN080 BKN130 BKN250 06/03 A2984 RMK AO2 SLP110 SHRA DSNT SW-NW-N T00560028 $,0,5,0,16090,0,0,0,"DS,RA,SH"
2026-04-30 11:54:00,METAR KBUF 301154Z 32004KT 10SM FEW045 BKN090 BKN130 05/02 A2983 RMK AO2 SLP107 70060 T00500022 10056 20033 51010 $,0,4,0,16090,0,0,0,
2026-04-30 10:54:00,METAR KBUF 301054Z 00000KT 10SM FEW040 BKN085 BKN130 04/02 A2983 RMK AO2 SLP105 T00440022 $,0,0,0,16090,0,0,0,
2026-04-30 09:54:00,METAR KBUF 300954Z COR 31003KT 10SM BKN039 OVC085 04/02 A2981 RMK AO2 SLP099 T00390017 $,0,3,0,16090,0,0,0,
2026-04-30 08:54:00,METAR KBUF 300854Z 27004KT 10SM SCT036 BKN120 04/02 A2980 RMK AO2 SLP096 T00390017 55000 $,0,4,0,16090,0,0,0,
2026-04-30 07:54:00,METAR KBUF 300754Z 28005KT 10SM SCT036 BKN120 04/02 A2980 RMK AO2 SLP095 T00390017 $,0,5,0,16090,0,0,0,
2026-04-30 06:54:00,METAR KBUF 300654Z 28008KT 10SM BKN036 05/03 A2980 RMK AO2 SLP095 T00500028,0,8,0,16090,0,0,0,
2026-04-30 05:54:00,METAR KBUF 300554Z 30006KT 10SM OVC041 06/04 A2980 RMK AO2 SLP096 60002 T00560039 10072 20056 58003,0,6,0,16090,0,0,0,
2026-04-30 04:54:00,METAR KBUF 300454Z 29008KT 10SM BKN036 BKN065 06/04 A2981 RMK AO2 SLP097 T00610044 401170061,0,8,0,16090,0,0,0,
2026-04-30 03:54:00,METAR KBUF 300354Z 27004KT 10SM SCT037 BKN065 06/05 A2981 RMK AO2 RAE0259 SLP097 P0000 T00610050,0,4,0,16090,0,0,0,RA
2026-04-30 02:54:00,METAR KBUF 300254Z 25006KT 10SM -RA SCT037 BKN060 OVC070 07/06 A2981 RMK AO2 RAE14B45 SLP098 P0000 60002 T00670056 51012,0,6,0,16090,0,0,0,"-RA,RA"
2026-04-30 01:54:00,METAR KBUF 300154Z 31005KT 9SM -RA FEW025 BKN042 OVC049 06/05 A2981 RMK AO2 SLP098 P0000 T00610050,0,5,0,14481,0,0,0,-RA
2026-04-30 01:21:00,SPECI KBUF 300121Z 31005KT 10SM -RA SCT014 SCT029 OVC038 06/05 A2980 RMK AO2 P0000 T00610050,0,5,0,16090,0,0,0,-RA
2026-04-30 01:10:00,SPECI KBUF 300110Z 32006KT 8SM -RA FEW006 BKN012 OVC034 06/06 A2980 RMK AO2 P0000 T00610056,0,6,0,12872,0,0,0,-RA
2026-04-30 00:54:00,METAR KBUF 300054Z 31005KT 7SM -RA FEW007 OVC035 06/06 A2980 RMK AO2 RAB2356 SLP093 P0002 T00610056,0,5,0,11263,0,0,0,"-RA,RA"
2026-04-30 00:24:00,SPECI KBUF 300024Z 33008KT 7SM -RA SCT007 OVC031 07/06 A2979 RMK AO2 RAB2356 P0001 T00670056,0,8,0,11263,0,0,0,"-RA,RA"
2026-04-29 23:54:00,METAR KBUF 292354Z 33007KT 10SM FEW006 OVC027 07/06 A2978 RMK AO2 RAE32 SLP085 P0001 60039 T00720061 10089 20072 53006,0,7,0,16090,0,0,0,
2026-04-29 23:24:00,SPECI KBUF 292324Z 35010KT 10SM -RA FEW006 SCT012 OVC025 07/06 A2977 RMK AO2 P0001 T00720061,0,10,0,16090,0,0,0,-RA
2026-04-29 23:07:00,SPECI KBUF 292307Z 35008KT 9SM -RA BKN008 BKN014 OVC023 08/07 A2977 RMK AO2 CIG 004V011 P0001 T00780067,0,8,0,14481,0,0,0,-RA
2026-04-29 22:59:00,SPECI KBUF 292259Z 36009G16KT 5SM -RA BR FEW004 BKN010 OVC014 08/07 A2976 RMK AO2 CIG 006V011 P0001 T00780067,0,9,1,8045,0,0,1,"-RA,BR"
2026-04-29 22:54:00,METAR KBUF 292254Z 36009KT 3SM -RA BR BKN010 OVC016 07/07 A2976 RMK AO2 CIG 005V013 SLP081 P0003 T00720067,0,9,0,4827,0,0,1,"-RA,BR"
2026-04-29 22:47:00,SPECI KBUF 292247Z 36009KT 4SM RA BR SCT005 BKN010 OVC016 07/07 A2977 RMK AO2 CIG 009V014 P0002 T00720067,0,9,0,6436,0,0,1,"BR,RA"
2026-04-29 21:54:00,METAR KBUF 292154Z 01011G16KT 5SM RA BR OVC005 08/07 A2975 RMK AO2 CIG 004V010 SLP077 P0007 T00780072,0,11,1,8045,0,0,1,"BR,RA"
2026-04-29 21:04:00,SPECI KBUF 292104Z 36011KT 4SM -RA BR BKN006 08/07 A2976 RMK AO2 P0004 T00780072,0,11,0,6436,0,0,1,"-RA,BR"
2026-04-29 20:54:00,METAR KBUF 292054Z 36012KT 2 1/2SM +RA BR BKN007 BKN011 OVC017 08/07 A2976 RMK AO2 SLP079 P0012 60028 T00830072 55013,0,12,0,4022,0,1,1,"+RA,BR"
2026-04-29 19:54:00,METAR KBUF 291954Z 03011KT 4SM RA BR BKN007 BKN014 OVC020 08/07 A2976 RMK AO2 SLP079 P0011 T00780072,0,11,0,6436,0,0,1,"BR,RA"
2026-04-29 18:54:00,METAR KBUF 291854Z 01011G20KT 6SM -RA BR BKN008 OVC014 08/07 A2978 RMK AO2 SLP088 P0005 T00830072,0,11,1,9654,0,0,1,"-RA,BR"
2026-04-29 18:32:00,SPECI KBUF 291832Z 01009KT 8SM -RA BKN008 OVC014 08/07 A2979 RMK AO2 CIG 006V010 P0003 T00830072,0,9,0,12872,0,0,0,-RA
2026-04-29 17:54:00,METAR KBUF 291754Z 02009KT 8SM -RA SCT008 BKN014 OVC075 09/08 A2980 RMK AO2 SLP093 P0007 60019 T00890078 10117 20089 56016,0,9,0,12872,0,0,0,-RA
2026-04-29 17:45:00,SPECI KBUF 291745Z 02009KT 8SM -RA FEW008 BKN014 OVC075 09/08 A2980 RMK AO2 P0005 T00890078,0,9,0,12872,0,0,0,-RA
2026-04-29 17:10:00,SPECI KBUF 291710Z 04006KT 6SM -RA BR BKN014 BKN026 OVC065 09/08 A2981 RMK AO2 P0000 T00940078,0,6,0,9654,0,0,1,"-RA,BR"
2026-04-29 16:54:00,METAR KBUF 291654Z 01005KT 8SM -RA FEW014 FEW055 OVC075 09/08 A2982 RMK AO2 SLP098 P0008 T00940078,0,5,0,12872,0,0,0,-RA
2026-04-29 15:59:00,SPECI KBUF 291559Z 04009KT 6SM -RA BR SCT014 OVC070 09/08 A2982 RMK AO2 P0001 T00940078,0,9,0,9654,0,0,1,"-RA,BR"
2026-04-29 15:54:00,METAR KBUF 291554Z 04013KT 4SM RA BR BKN014 OVC070 09/08 A2982 RMK AO2 RAB26 SLP100 P0004 T00940078,0,13,0,6436,0,0,1,"BR,RA"
2026-04-29 14:54:00,METAR KBUF 291454Z 02010KT 10SM OVC014 11/08 A2985 RMK AO2 SLP108 T01110078 56015,0,10,0,16090,0,0,0,
2026-04-29 14:51:00,SPECI KBUF 291451Z 02011KT 10SM OVC014 11/08 A2984 RMK AO2,0,11,0,16090,0,0,0,
2026-04-29 13:54:00,METAR KBUF 291354Z 03008KT 10SM BKN016 OVC023 12/08 A2987 RMK AO2 SLP115 SHRA DSNT ALQDS T01170078,0,8,0,16090,0,0,0,"DS,RA,SH"
2026-04-29 12:54:00,METAR KBUF 291254Z 03009KT 10SM BKN018 BKN026 OVC140 11/07 A2986 RMK AO2 SLP113 SHRA DSNT NE-E AND SW-NW T01110072,0,9,0,16090,0,0,0,"DS,RA,SH"
2026-04-29 11:54:00,METAR KBUF 291154Z 03009KT 10SM OVC022 11/07 A2989 RMK AO2 SLP122 70004 T01110072 10117 20100 55001,0,9,0,16090,0,0,0,
2026-04-29 10:54:00,METAR KBUF 291054Z 04007KT 10SM OVC024 11/09 A2988 RMK AO2 SLP120 T01110089,0,7,0,16090,0,0,0,
2026-04-29 09:54:00,METAR KBUF 290954Z 02006KT 10SM OVC025 11/09 A2990 RMK AO2 SLP124 T01110089,0,6,0,16090,0,0,0,
2026-04-29 08:54:00,METAR KBUF 290854Z 00000KT 10SM OVC025 11/08 A2989 RMK AO2 SLP124 T01060078 56003,0,0,0,16090,0,0,0,
2026-04-29 08:05:00,SPECI KBUF 290805Z 00000KT 10SM BKN025 BKN037 OVC047 11/08 A2990 RMK AO2 T01060083,0,0,0,16090,0,0,0,
2026-04-29 07:54:00,METAR KBUF 290754Z 00000KT 10SM SCT025 BKN035 OVC047 11/08 A2990 RMK AO2 SLP124 T01060078,0,0,0,16090,0,0,0,
2026-04-29 07:31:00,SPECI KBUF 290731Z 22003KT 10SM SCT025 OVC033 11/08 A2989 RMK AO2 T01060083,0,3,0,16090,0,0,0,
2026-04-29 07:19:00,SPECI KBUF 290719Z 20004KT 10SM BKN024 BKN031 11/08 A2989 RMK AO2 T01060083,0,4,0,16090,0,0,0,
2026-04-29 06:54:00,METAR KBUF 290654Z 18005KT 10SM FEW035 BKN065 10/08 A2989 RMK AO2 SLP122 T01000078,0,5,0,16090,0,0,0,
2026-04-29 05:54:00,METAR KBUF 290554Z 23007KT 10SM BKN030 12/08 A2990 RMK AO2 SLP126 T01170083 10156 20117 58002,0,7,0,16090,0,0,0,
2026-04-29 05:40:00,SPECI KBUF 290540Z 23007KT 10SM BKN030 12/08 A2990 RMK AO2 T01170083,0,7,0,16090,0,0,0,
2026-04-29 04:54:00,METAR KBUF 290454Z 23009KT 10SM BKN029 12/08 A2991 RMK AO2 SLP130 T01220083 401780122,0,9,0,16090,0,0,0,
2026-04-29 04:13:00,SPECI KBUF 290413Z 23007KT 10SM OVC029 13/09 A2992 RMK AO2 T01280089,0,7,0,16090,0,0,0,
2026-04-29 03:54:00,METAR KBUF 290354Z 23012KT 10SM OVC031 13/09 A2992 RMK AO2 SLP131 T01330089,0,12,0,16090,0,0,0,
2026-04-29 02:54:00,METAR KBUF 290254Z 23008KT 10SM BKN045 BKN070 14/11 A2991 RMK AO2 SLP129 T01440106 51012,0,8,0,16090,0,0,0,
2026-04-29 01:54:00,METAR KBUF 290154Z 22013KT 10SM FEW070 15/11 A2991 RMK AO2 SLP128 T01500106,0,13,0,16090,0,0,0,
2026-04-29 00:54:00,METAR KBUF 290054Z 18010KT 10SM BKN070 15/11 A2989 RMK AO2 SLP122 T01500106,0,10,0,16090,0,0,0,
2026-04-28 23:54:00,METAR KBUF 282354Z 20013KT 10SM BKN075 16/11 A2988 RMK AO2 SLP116 60000 T01560106 10178 20156 55002,0,13,0,16090,0,0,0,
2026-04-28 22:54:00,METAR KBUF 282254Z 19012KT 10SM BKN033 BKN075 17/11 A2987 RMK AO2 SLP115 T01670106,0,12,0,16090,0,0,0,
2026-04-28 22:07:00,SPECI KBUF 282207Z 19014KT 10SM OVC030 17/11 A2987 RMK AO2 T01670106,0,14,0,16090,0,0,0,
2026-04-28 21:54:00,METAR KBUF 282154Z 18015G21KT 10SM BKN029 17/11 A2987 RMK AO2 SLP115 T01720106,0,15,1,16090,0,0,0,
2026-04-28 21:46:00,SPECI KBUF 282146Z 19014G21KT 10SM BKN029 BKN036 18/11 A2987 RMK AO2 T01780106,0,14,1,16090,0,0,0,
2026-04-28 21:28:00,SPECI KBUF 282128Z 19014KT 10SM SCT028 BKN036 BKN055 17/11 A2987 RMK AO2 T01720106,0,14,0,16090,0,0,0,
2026-04-28 20:54:00,METAR KBUF 282054Z 18011KT 10SM OVC027 16/10 A2988 RMK AO2 RAE31 SLP119 P0000 60000 T01610100 50003,0,11,0,16090,0,0,0,
2026-04-28 19:54:00,METAR KBUF 281954Z 20015G22KT 10SM -RA OVC026 16/11 A2989 RMK AO2 RAB44 SLP121 PCPN VRY LGT P0000 T01610106,0,15,1,16090,0,0,0,-RA
2026-04-28 18:54:00,METAR KBUF 281854Z 19017G24KT 10SM BKN029 OVC085 17/10 A2988 RMK AO2 PK WND 19028/1756 SLP118 SHRA DSNT SW-NW T01720100,0,17,1,16090,0,0,0,"DS,RA,SH"
2026-04-28 18:49:00,SPECI KBUF 281849Z 20017G24KT 10SM BKN029 OVC085 17/10 A2988 RMK AO2 PK WND 19028/1756 SHRA DSNT SW-NW,0,17,1,16090,0,0,0,"DS,RA,SH"
2026-04-28 17:54:00,METAR KBUF 281754Z 19021G33KT 10SM BKN035 BKN055 BKN085 BKN270 18/10 A2987 RMK AO2 PK WND 19033/1745 SLP114 60004 T01780100 10178 20133 56004,0,21,1,16090,0,0,0,
2026-04-28 16:54:00,METAR KBUF 281654Z 21018G28KT 10SM FEW037 BKN055 BKN080 17/10 A2987 RMK AO2 PK WND 21030/1637 SLP115 SHRA DSNT SE T01670100,0,18,1,16090,0,0,0,"DS,RA,SH"
2026-04-28 15:54:00,METAR KBUF 281554Z 18009G20KT 10SM FEW025 BKN047 BKN070 15/09 A2988 RMK AO2 PK WND 17026/1509 RAE38 SLP118 SHRA VC NW-NE AND DSNT NE-SE-SW P0002 T01500089,0,9,1,16090,0,0,0,"DS,RA,SH,VC"
2026-04-28 14:54:00,METAR KBUF 281454Z 18013G23KT 10SM -RA FEW025 BKN049 OVC070 14/07 A2989 RMK AO2 PK WND 21027/1441 SLP120 P0000 60002 T01390072 50023,0,13,1,16090,0,0,0,-RA
2026-04-28 13:54:00,METAR KBUF 281354Z 20010KT 10SM -RA FEW043 BKN070 OVC095 14/07 A2989 RMK AO2 SLP123 P0001 T01390072,0,10,0,16090,0,0,0,-RA
2026-04-28 12:54:00,METAR KBUF 281254Z 16014G24KT 10SM -RA FEW043 BKN075 OVC100 14/07 A2985 RMK AO2 PK WND 18026/1208 SLP108 P0001 T01390067,0,14,1,16090,0,0,0,-RA
2026-04-28 11:54:00,METAR KBUF 281154Z 17018G29KT 10SM -RA BKN090 OVC170 16/04 A2982 RMK AO2 PK WND 16031/1133 RAB47 SLP094 P0000 60000 T01560039 10167 20156 56025,0,18,1,16090,0,0,0,-RA
2026-04-28 10:54:00,METAR KBUF 281054Z 17017G27KT 10SM FEW080 OVC170 16/04 A2982 RMK AO2 PK WND 15027/1047 SLP097 T01560039,0,17,1,16090,0,0,0,
2026-04-28 09:54:00,METAR KBUF 280954Z 18015G20KT 10SM FEW050 OVC150 16/03 A2987 RMK AO2 PK WND 18026/0906 SLP112 T01560028,0,15,1,16090,0,0,0,
2026-04-28 08:54:00,METAR KBUF 280854Z COR 18015KT 10SM FEW050 OVC170 16/03 A2989 RMK AO2 PK WND 19032/0838 SLP119 T01560028 55008,0,15,0,16090,0,0,0,
2026-04-28 07:54:00,METAR KBUF 280754Z 16017G31KT 10SM FEW050 OVC150 16/03 A2989 RMK AO2 PK WND 16031/0752 SLP119 T01610033,0,17,1,16090,0,0,0,
2026-04-28 06:54:00,METAR KBUF 280654Z 16017G26KT 10SM OVC180 17/04 A2990 RMK AO2 PK WND 18029/0609 SLP122 T01670039,0,17,1,16090,0,0,0,
2026-04-28 05:54:00,METAR KBUF 280554Z 16016G25KT 10SM BKN210 17/03 A2992 RMK AO2 PK WND 14029/0530 SLP128 T01670033 10217 20161 56017,0,16,1,16090,0,0,0,
2026-04-28 04:54:00,METAR KBUF 280454Z 16015G24KT 10SM BKN200 17/03 A2994 RMK AO2 SLP135 T01720033 402330050,0,15,1,16090,0,0,0,
2026-04-28 03:54:00,METAR KBUF 280354Z 15017G24KT 10SM FEW170 BKN270 17/03 A2994 RMK AO2 SLP137 T01720028,0,17,1,16090,0,0,0,
2026-04-28 02:54:00,METAR KBUF 280254Z 15012KT 10SM BKN270 18/02 A2997 RMK AO2 SLP146 T01780022 58021,0,12,0,16090,0,0,0,
2026-04-28 01:54:00,METAR KBUF 280154Z 14007KT 10SM OVC270 18/02 A3001 RMK AO2 SLP162 T01830022,0,7,0,16090,0,0,0,
2026-04-28 00:54:00,METAR KBUF 280054Z 14007KT 10SM FEW210 BKN270 20/02 A3002 RMK AO2 SLP166 T02000022,0,7,0,16090,0,0,0,
2026-04-27 23:54:00,METAR KBUF 272354Z 14007KT 10SM BKN270 22/02 A3003 RMK AO2 SLP169 T02170022 10233 20206 58013,0,7,0,16090,0,0,0,
2026-04-27 22:54:00,METAR KBUF 272254Z 12010G17KT 10SM FEW230 BKN280 23/03 A3004 RMK AO2 SLP173 T02280028,0,10,1,16090,0,0,0,
2026-04-27 21:54:00,METAR KBUF 272154Z 14010KT 10SM FEW230 BKN280 23/02 A3006 RMK AO2 SLP181 T02330017,0,10,0,16090,0,0,0,
2026-04-27 20:54:00,METAR KBUF 272054Z 13007KT 10SM FEW230 SCT280 23/02 A3007 RMK AO2 SLP183 T02330022 56025,0,7,0,16090,0,0,0,
2026-04-27 19:54:00,METAR KBUF 271954Z 10010G17KT 10SM FEW180 FEW230 SCT280 23/05 A3009 RMK AO2 SLP189 T02280050,0,10,1,16090,0,0,0,
2026-04-27 18:54:00,METAR KBUF 271854Z 12010G15KT 10SM FEW180 FEW230 BKN280 22/04 A3013 RMK AO2 SLP202 T02170044,0,10,1,16090,0,0,0,
2026-04-27 17:54:00,METAR KBUF 271754Z COR 13008KT 10SM FEW180 FEW230 BKN280 21/03 A3014 RMK AO2 SLP209 T02060033 10206 20089 56023,0,8,0,16090,0,0,0,
2026-04-27 16:54:00,METAR KBUF 271654Z 11009KT 10SM FEW170 FEW220 SCT270 20/03 A3016 RMK AO2 SLP214 T02000033 $,0,9,0,16090,0,0,0,
2026-04-27 15:54:00,METAR KBUF 271554Z 09007KT 10SM FEW170 FEW220 SCT270 18/04 A3020 RMK AO2 SLP226 T01830039 $,0,7,0,16090,0,0,0,
2026-04-27 14:54:00,METAR KBUF 271454Z 10008KT 070V130 10SM FEW260 17/04 A3022 RMK AO2 SLP233 T01720044 58007 $,0,8,0,16090,0,0,0,
2026-04-27 13:54:00,METAR KBUF 271354Z VRB04KT 10SM FEW260 14/04 A3024 RMK AO2 SLP242 T01440044 $,0,4,0,16090,0,0,0,
2026-04-27 12:54:00,METAR KBUF 271254Z 13004KT 10SM FEW200 12/04 A3024 RMK AO2 SLP243 T01170044 $,0,4,0,16090,0,0,0,
2026-04-27 11:54:00,METAR KBUF 271154Z COR 10004KT 10SM FEW200 09/04 A3024 RMK AO2 SLP241 T00890039 10089 20050 51014,0,4,0,16090,0,0,0,
2026-04-27 10:54:00,METAR KBUF 271054Z COR 09004KT 10SM FEW200 06/03 A3022 RMK AO2 SLP238 T00610028,0,4,0,16090,0,0,0,
2026-04-27 09:54:00,METAR KBUF 270954Z COR 07005KT 10SM FEW200 05/02 A3021 RMK AO2 SLP233 T00500022,0,5,0,16090,0,0,0,
2026-04-27 08:54:00,METAR KBUF 270854Z COR 06003KT 10SM FEW200 06/02 A3019 RMK AO2 SLP227 T00560022 55003,0,3,0,16090,0,0,0,
2026-04-27 07:54:00,METAR KBUF 270754Z COR 06003KT 10SM FEW200 06/03 A3018 RMK AO2 SLP223 T00560028,0,3,0,16090,0,0,0,
2026-04-27 06:54:00,METAR KBUF 270654Z COR 07005KT 10SM FEW220 06/03 A3018 RMK AO2 SLP223 T00560028,0,5,0,16090,0,0,0,
2026-04-27 05:54:00,METAR KBUF 270554Z COR 00000KT 10SM FEW220 07/02 A3020 RMK AO2 SLP231 T00720022 10139 20072 50008,0,0,0,16090,0,0,0,
2026-04-27 04:54:00,METAR KBUF 270454Z COR 00000KT 10SM FEW220 08/03 A3021 RMK AO2 SLP232 T00780028 401610044,0,0,0,16090,0,0,0,
2026-04-27 03:54:00,METAR KBUF 270354Z COR 04006KT 10SM FEW220 08/03 A3018 RMK AO2 SLP224 T00780028,0,6,0,16090,0,0,0,
2026-04-27 02:54:00,METAR KBUF 270254Z COR 02005KT 10SM FEW240 10/02 A3018 RMK AO2 SLP223 T01100017 50005,0,5,0,16090,0,0,0,
2026-04-27 01:54:00,METAR KBUF 270154Z COR 05004KT 10SM FEW210 11/02 A3018 RMK AO2 SLP224 T01110017,0,4,0,16090,0,0,0,
2026-04-27 00:54:00,METAR KBUF 270054Z COR 06005KT 10SM FEW210 FEW280 12/02 A3017 RMK AO2 SLP221 T01170022,0,5,0,16090,0,0,0,
2026-04-26 23:54:00,METAR KBUF 262354Z COR 08004KT 10SM FEW230 FEW280 14/03 A3016 RMK AO2 SLP217 T01390028 10161 20139 53008,0,4,0,16090,0,0,0,
2026-04-26 22:54:00,METAR KBUF 262254Z 03010KT 10SM CLR 14/04 A3015 RMK AO2 SLP213 T01440044 $,0,10,0,16090,0,0,0,
2026-04-26 21:54:00,METAR KBUF 262154Z 06010KT 10SM FEW045 BKN230 BKN280 16/04 A3014 RMK AO2 SLP210 T01560044 $,0,10,0,16090,0,0,0,
2026-04-26 20:54:00,METAR KBUF 262054Z 04008KT 10SM FEW045 FEW200 BKN270 16/04 A3014 RMK AO2 SLP208 T01610039 55005 $,0,8,0,16090,0,0,0,
2026-04-26 19:54:00,METAR KBUF 261954Z 04008KT 10SM FEW020 FEW190 SCT230 BKN270 16/05 A3014 RMK AO2 SLP208 T01560050 $,0,8,0,16090,0,0,0,
2026-04-26 18:54:00,METAR KBUF 261854Z 06009G15KT 10SM FEW020 FEW190 BKN230 14/05 A3015 RMK AO2 SLP212 T01440050 $,0,9,1,16090,0,0,0,
2026-04-26 17:54:00,METAR KBUF 261754Z 05007KT 10SM FEW020 FEW190 BKN230 14/05 A3016 RMK AO2 SLP215 T01390050 10139 20044 58012 $,0,7,0,16090,0,0,0,
2026-04-26 16:54:00,METAR KBUF 261654Z 06012G17KT 10SM FEW018 FEW190 SCT250 13/05 A3017 RMK AO2 SLP219 T01280050 $,0,12,1,16090,0,0,0,
2026-04-26 15:54:00,METAR KBUF 261554Z VRB05KT 10SM SCT018 11/06 A3019 RMK AO2 SLP226 T01060061 $,0,5,0,16090,0,0,0,
2026-04-26 15:11:00,SPECI KBUF 261511Z 03004KT 10SM SCT015 09/05 A3020 RMK AO2 T00940050 $,0,4,0,16090,0,0,0,
2026-04-26 14:54:00,METAR KBUF 261454Z 03007KT 10SM BKN015 09/06 A3019 RMK AO2 SLP228 T00940056 53007 $,0,7,0,16090,0,0,0,
2026-04-26 14:22:00,SPECI KBUF 261422Z 06007KT 10SM BKN011 BKN015 08/06 A3018 RMK AO2 T00830056 $,0,7,0,16090,0,0,0,
2026-04-26 13:54:00,METAR KBUF 261354Z 07009KT 8SM BKN005 BKN015 07/05 A3018 RMK AO2 SLP224 T00670050 $,0,9,0,12872,0,0,0,
2026-04-26 13:49:00,SPECI KBUF 261349Z 06007KT 8SM BKN005 BKN015 06/05 A3017 RMK AO2 $,0,7,0,12872,0,0,0,
2026-04-26 13:03:00,SPECI KBUF 261303Z 05005KT 3SM BR OVC002 05/04 A3017 RMK AO2 T00500044 $,0,5,0,4827,0,0,1,BR
2026-04-26 12:54:00,METAR KBUF 261254Z 04005KT 1 3/4SM BR OVC002 05/04 A3017 RMK AO2 SLP221 T00500044 $,0,5,0,2816,0,0,1,BR
2026-04-26 12:47:00,SPECI KBUF 261247Z 00000KT 1SM R23/P6000FT BR OVC002 05/04 A3017 RMK AO2 T00500044 $,0,0,0,1609,0,0,1,BR
2026-04-26 11:54:00,METAR KBUF 261154Z 09004KT 1/4SM R23/3000V3500FT FG VV002 04/04 A3014 RMK AO2 SLP213 70065 T00440039 10061 20044 53025 $,0,4,0,402,0,0,1,FG
2026-04-26 11:31:00,SPECI KBUF 261131Z 08004KT 1/8SM R23/1400V2400FT FG VV002 04/04 A3013 RMK AO2 T00440039 $,0,4,0,201,0,0,1,FG
2026-04-26 11:09:00,SPECI KBUF 261109Z 04006KT 1/8SM R23/1400V1800FT FG VV002 04/04 A3011 RMK AO2 T00440039 $,0,6,0,201,0,0,1,FG
2026-04-26 10:54:00,METAR KBUF 261054Z 04007KT 1/4SM R23/1800V3000FT FG VV002 04/04 A3011 RMK AO2 SLP200 T00440044 $,0,7,0,402,0,0,1,FG
2026-04-26 10:44:00,SPECI KBUF 261044Z 03006KT 1/4SM R23/2000VP6000FT FG VV002 04/04 A3010 RMK AO2 T00440044 $,0,6,0,402,0,0,1,FG
2026-04-26 10:32:00,SPECI KBUF 261032Z 03006KT 1SM R23/P6000FT BR BKN002 04/04 A3010 RMK AO2 T00440039 $,0,6,0,1609,0,0,1,BR
2026-04-26 09:54:00,METAR KBUF 260954Z 01003KT 10SM FEW009 05/04 A3009 RMK AO2 SLP194 T00500039 $,0,3,0,16090,0,0,0,
2026-04-26 09:30:00,SPECI KBUF 260930Z 01003KT 10SM SCT009 05/04 A3008 RMK AO2 T00500039 $,0,3,0,16090,0,0,0,
2026-04-26 08:54:00,METAR KBUF 260854Z 05006KT 10SM OVC009 06/04 A3007 RMK AO2 SLP187 T00610044 53011 $,0,6,0,16090,0,0,0,
2026-04-26 07:54:00,METAR KBUF 260754Z 06005KT 10SM OVC008 06/05 A3005 RMK AO2 SLP182 T00610050 $,0,5,0,16090,0,0,0,
2026-04-26 06:54:00,METAR KBUF 260654Z 06007KT 10SM OVC006 06/05 A3004 RMK AO2 SLP177 T00610050 $,0,7,0,16090,0,0,0,
2026-04-26 05:54:00,METAR KBUF 260554Z 05006KT 10SM OVC006 06/05 A3003 RMK AO2 SLP176 T00610050 10083 20061 53001 $,0,6,0,16090,0,0,0,
2026-04-26 04:54:00,METAR KBUF 260454Z 06006KT 10SM BKN007 06/05 A3003 RMK AO2 SLP173 T00610050 400890061 $,0,6,0,16090,0,0,0,
2026-04-26 04:22:00,SPECI KBUF 260422Z COR 07007KT 10SM BKN008 06/05 A3003 RMK AO2 T00610050 $,0,7,0,16090,0,0,0,
2026-04-26 03:54:00,METAR KBUF 260354Z 06008KT 10SM SCT008 BKN031 07/05 A3003 RMK AO2 SLP175 T00670050 $,0,8,0,16090,0,0,0,
2026-04-26 03:47:00,SPECI KBUF 260347Z 07011KT 10SM SCT010 BKN031 07/05 A3003 RMK AO2 T00670050 $,0,11,0,16090,0,0,0,
2026-04-26 02:54:00,METAR KBUF 260254Z 05014KT 10SM OVC011 07/05 A3003 RMK AO2 SLP174 T00720050 51028 $,0,14,0,16090,0,0,0,
2026-04-26 01:54:00,METAR KBUF 260154Z 04009KT 10SM BKN011 BKN022 08/06 A3001 RMK AO2 SLP167 T00780061 $,0,9,0,16090,0,0,0,
2026-04-26 01:07:00,SPECI KBUF 260107Z 06010KT 10SM OVC010 08/07 A2998 RMK AO2 CIG 009V013 T00830067 $,0,10,0,16090,0,0,0,
2026-04-26 00:54:00,METAR KBUF 260054Z 06010KT 10SM OVC009 08/07 A2997 RMK AO2 CIG 007V012 SLP154 T00830067 $,0,10,0,16090,0,0,0,
2026-04-25 23:54:00,METAR KBUF 252354Z 05012KT 10SM BKN007 OVC012 08/07 A2995 RMK AO2 SLP144 60006 T00830072 10089 20078 53027 $,0,12,0,16090,0,0,0,
2026-04-25 23:09:00,SPECI KBUF 252309Z 05013G19KT 10SM OVC006 08/07 A2992 RMK AO2 CIG 004V009 T00830072 $,0,13,1,16090,0,0,0,
2026-04-25 22:54:00,METAR KBUF 252254Z 04010KT 10SM BKN004 OVC012 08/07 A2991 RMK AO2 SLP133 T00830072 $,0,10,0,16090,0,0,0,
2026-04-25 21:54:00,METAR KBUF 252154Z 02008KT 4SM BR OVC004 08/08 A2989 RMK AO2 RAE18 SLP124 P0000 T00830078 $,0,8,0,6436,0,0,1,BR
2026-04-25 20:54:00,METAR KBUF 252054Z 03009KT 4SM -RA BR OVC004 08/07 A2986 RMK AO2 SLP117 PCPN VRY LGT P0003 60006 T00780072 51015 $,0,9,0,6436,0,0,1,"-RA,BR"
2026-04-25 20:43:00,SPECI KBUF 252043Z 02012KT 4SM -RA BR OVC004 08/07 A2986 RMK AO2 PCPN VRY LGT P0003 T00780072 $,0,12,0,6436,0,0,1,"-RA,BR"
2026-04-25 20:30:00,SPECI KBUF 252030Z 02011KT 2 1/2SM -RA BR OVC004 08/07 A2986 RMK AO2 P0003 T00780067 $,0,11,0,4022,0,0,1,"-RA,BR"
2026-04-25 19:54:00,METAR KBUF 251954Z 01010KT 1 3/4SM -RA BR OVC003 08/07 A2986 RMK AO2 SLP116 P0003 T00780072 $,0,10,0,2816,0,0,1,"-RA,BR"
2026-04-25 19:06:00,SPECI KBUF 251906Z 02008KT 4SM -RA BR BKN004 OVC008 08/08 A2984 RMK AO2 CIG 003V007 P0000 T00830078 $,0,8,0,6436,0,0,1,"-RA,BR"
2026-04-25 18:54:00,METAR KBUF 251854Z 03008KT 360V060 3SM -RA BR OVC006 09/08 A2983 RMK AO2 CIG 004V010 SLP105 P0000 T00890078 $,0,8,0,4827,0,0,1,"-RA,BR"
2026-04-25 17:54:00,METAR KBUF 251754Z 05010KT 4SM -RA BR BKN005 OVC011 08/07 A2982 RMK AO2 SLP100 P0005 60059 T00830072 10083 20061 53001 $,0,10,0,6436,0,0,1,"-RA,BR"
2026-04-25 17:45:00,SPECI KBUF 251745Z 06009KT 3SM -RA BR BKN005 OVC011 08/07 A2981 RMK AO2 P0005 T00830072 $,0,9,0,4827,0,0,1,"-RA,BR"
2026-04-25 17:28:00,SPECI KBUF 251728Z 06011KT 2SM -RA BR BKN005 OVC011 08/07 A2981 RMK AO2 P0004 T00780072 $,0,11,0,3218,0,0,1,"-RA,BR"
2026-04-25 17:15:00,SPECI KBUF 251715Z 05010KT 1 1/2SM -RA BR BKN006 OVC014 08/07 A2982 RMK AO2 CIG 004V009 P0002 T00780072 $,0,10,0,2414,0,0,1,"-RA,BR"
2026-04-25 16:54:00,METAR KBUF 251654Z 07010KT 1 3/4SM -RA BR FEW005 OVC015 07/07 A2981 RMK AO2 SLP100 P0003 T00720067 $,0,10,0,2816,0,0,1,"-RA,BR"
2026-04-25 16:43:00,SPECI KBUF 251643Z 09012KT 2SM -RA BR FEW006 OVC016 07/06 A2981 RMK AO2 P0002 T00720061 $,0,12,0,3218,0,0,1,"-RA,BR"
2026-04-25 16:37:00,SPECI KBUF 251637Z 07011G18KT 4SM -RA BR SCT006 OVC016 07/06 A2981 RMK AO2 P0002 T00720061 $,0,11,1,6436,0,0,1,"-RA,BR"
2026-04-25 16:09:00,SPECI KBUF 251609Z 07012KT 4SM -RA BR BKN006 OVC021 07/06 A2981 RMK AO2 P0001 T00720061 $,0,12,0,6436,0,0,1,"-RA,BR"
2026-04-25 15:54:00,METAR KBUF 251554Z 06013KT 4SM -RA BR SCT006 OVC024 07/06 A2981 RMK AO2 SLP099 P0005 T00720061 $,0,13,0,6436,0,0,1,"-RA,BR"
2026-04-25 14:54:00,METAR KBUF 251454Z 03010KT 4SM RA BR OVC006 07/06 A2981 RMK AO2 CIG 004V009 SLP099 P0012 60046 T00670056 53008 $,0,10,0,6436,0,0,1,"BR,RA"
2026-04-25 14:40:00,SPECI KBUF 251440Z 04011KT 4SM -RA BR BKN006 OVC018 07/06 A2980 RMK AO2 P0009 T00670061 $,0,11,0,6436,0,0,1,"-RA,BR"
2026-04-25 13:54:00,METAR KBUF 251354Z 05011KT 7SM -RA FEW005 FEW017 OVC023 07/06 A2980 RMK AO2 WSHFT 1309 SLP093 P0024 T00670061 $,0,11,0,11263,0,0,0,-RA
2026-04-25 13:29:00,SPECI KBUF 251329Z 05011KT 4SM R23/5000VP6000FT +RA BR BKN005 BKN015 OVC023 07/06 A2979 RMK AO2 WSHFT 1309 P0013 T00670056 $,0,11,0,6436,0,1,1,"+RA,BR"
2026-04-25 13:12:00,SPECI KBUF 251312Z 04011KT 5SM RA BR BKN006 BKN015 OVC023 06/06 A2980 RMK AO2 CIG 005V009 P0005 T00610056 $,0,11,0,8045,0,0,1,"BR,RA"
2026-04-25 12:54:00,METAR KBUF 251254Z 06012KT 5SM -RA BR FEW005 BKN023 OVC048 07/06 A2979 RMK AO2 SLP090 P0010 T00670056 $,0,12,0,8045,0,0,1,"-RA,BR"
2026-04-25 12:36:00,SPECI KBUF 251236Z 07014KT 5SM -RA BR FEW004 BKN023 OVC055 07/06 A2979 RMK AO2 P0008 T00670056 $,0,14,0,8045,0,0,1,"-RA,BR"
2026-04-25 11:54:00,METAR KBUF 251154Z 06012KT 6SM -RA BR OVC025 07/06 A2979 RMK AO2 SLP091 P0013 60038 70050 T00670061 10067 20061 53001 $,0,12,0,9654,0,0,1,"-RA,BR"
2026-04-25 10:54:00,METAR KBUF 251054Z 06012KT 6SM RA BR BKN022 OVC045 07/06 A2978 RMK AO2 SLP088 P0006 T00670061 $,0,12,0,9654,0,0,1,"BR,RA"
2026-04-25 09:54:00,METAR KBUF 250954Z 06008KT 10SM -RA OVC020 07/06 A2978 RMK AO2 SLP088 P0004 T00670056 $,0,8,0,16090,0,0,0,-RA
2026-04-25 08:54:00,METAR KBUF 250854Z 05008KT 10SM -RA BKN023 BKN031 OVC060 07/06 A2979 RMK AO2 SLP090 P0004 60015 T00670056 56013 $,0,8,0,16090,0,0,0,-RA
2026-04-25 08:20:00,SPECI KBUF 250820Z 08006KT 10SM -RA BKN027 BKN041 OVC100 07/05 A2979 RMK AO2 P0001 T00670050 $,0,6,0,16090,0,0,0,-RA
2026-04-25 08:13:00,SPECI KBUF 250813Z 07009KT 10SM -RA SCT027 BKN039 OVC075 07/05 A2979 RMK AO2 P0001 T00670050 $,0,9,0,16090,0,0,0,-RA
2026-04-25 07:54:00,METAR KBUF 250754Z 07010KT 10SM -RA SCT024 BKN029 OVC080 06/05 A2979 RMK AO2 SLP092 P0007 T00610050 $,0,10,0,16090,0,0,0,-RA
2026-04-25 06:54:00,METAR KBUF 250654Z 09009KT 10SM -RA OVC080 07/04 A2981 RMK AO2 SLP098 P0004 T00670039 $,0,9,0,16090,0,0,0,-RA
2026-04-25 05:54:00,METAR KBUF 250554Z 07013KT 10SM -RA OVC090 07/02 A2983 RMK AO2 SLP104 P0005 60012 T00670022 10111 20061 50002 $,0,13,0,16090,0,0,0,-RA
2026-04-25 04:54:00,METAR KBUF 250454Z 06012KT 10SM RA OVC065 06/03 A2985 RMK AO2 RAB16 SLP112 P0007 T00610028 401220061 $,0,12,0,16090,0,0,0,RA
2026-04-25 03:54:00,METAR KBUF 250354Z 08010KT 10SM FEW045 BKN065 OVC090 09/M02 A2982 RMK AO2 SLP102 OCNL LTGIC DSNT W CB DSNT W MOV E T00891017 $,0,10,0,16090,0,0,0,DS
2026-04-25 02:54:00,METAR KBUF 250254Z 08011G20KT 10SM OVC095 09/M03 A2982 RMK AO2 SLP102 T00891028 51001 $,0,11,1,16090,0,0,0,
2026-04-25 01:54:00,METAR KBUF 250154Z 07011KT 10SM FEW080 FEW130 OVC270 09/M01 A2982 RMK AO2 SLP102 T00941011 $,0,11,0,16090,0,0,0,
2026-04-25 00:54:00,METAR KBUF 250054Z 07011KT 10SM FEW080 FEW120 OVC280 10/01 A2984 RMK AO2 SLP107 T01000011 $,0,11,0,16090,0,0,0,
2026-04-24 23:54:00,METAR KBUF 242354Z 07012KT 10SM FEW080 OVC280 11/02 A2982 RMK AO2 SLP101 T01110017 10122 20094 55002 $,0,12,0,16090,0,0,0,
2026-04-24 22:54:00,METAR KBUF 242254Z 06012KT 10SM SCT080 BKN270 12/01 A2981 RMK AO2 SLP098 T01220006 $,0,12,0,16090,0,0,0,
2026-04-24 21:54:00,METAR KBUF 242154Z 06010KT 10SM FEW100 BKN270 12/02 A2982 RMK AO2 SLP101 T01220022 $,0,10,0,16090,0,0,0,
2026-04-24 20:54:00,METAR KBUF 242054Z 06012KT 10SM FEW055 FEW085 BKN270 12/01 A2983 RMK AO2 SLP102 T01220011 58015 $,0,12,0,16090,0,0,0,
2026-04-24 19:54:00,METAR KBUF 241954Z COR 07013KT 10SM FEW055 FEW100 BKN260 12/02 A2984 RMK AO2 SLP109 SHRA DSNT NE-SE T01170022 $,0,13,0,16090,0,0,0,"DS,RA,SH"
2026-04-24 18:54:00,METAR KBUF 241854Z 06014G19KT 10SM SCT055 BKN080 BKN110 BKN260 11/02 A2987 RMK AO2 SLP117 SHRA DSNT N-E-SE T01060022 $,0,14,1,16090,0,0,0,"DS,RA,SH"
2026-04-24 17:54:00,METAR KBUF 241754Z 06011KT 10SM OVC050 11/M01 A2987 RMK AO2 RAB28E38 SLP118 SHRA DSNT ALQDS P0000 60000 T01111011 10111 20072 56007 $,0,11,0,16090,0,0,0,"DS,RA,SH"
2026-04-24 16:54:00,METAR KBUF 241654Z 08009KT 10SM OVC050 11/M02 A2988 RMK AO2 SLP119 T01061017 $,0,9,0,16090,0,0,0,
2026-04-24 15:54:00,METAR KBUF 241554Z 08012G20KT 10SM FEW042 OVC055 09/M02 A2989 RMK AO2 SLP123 T00941022 $,0,12,1,16090,0,0,0,
2026-04-24 14:54:00,METAR KBUF 241454Z 06016KT 10SM BKN055 BKN085 BKN250 09/M02 A2990 RMK AO2 SLP126 T00891022 58005 $,0,16,0,16090,0,0,0,
2026-04-24 13:54:00,METAR KBUF 241354Z 08014G22KT 10SM BKN055 BKN085 BKN150 BKN250 08/M03 A2990 RMK AO2 SLP129 T00781028 $,0,14,1,16090,0,0,0,
2026-04-24 12:54:00,METAR KBUF 241254Z 07015G21KT 10SM FEW055CB FEW075 SCT095 SCT150 SCT200 SCT250 08/M02 A2992 RMK AO2 SLP135 CB VC S MOV SE T00781022 $,0,15,1,16090,0,0,0,VC
2026-04-24 11:54:00,METAR KBUF 241154Z 08014G24KT 10SM FEW065 FEW080 SCT100 BKN200 08/M04 A2991 RMK AO2 PK WND 07026/1119 SLP131 MDT CU DSNT S AND W T00781039 10117 20072 52007 $,0,14,1,16090,0,0,0,DS
2026-04-24 10:54:00,METAR KBUF 241054Z 07014KT 10SM BKN055 BKN070 BKN200 08/M04 A2991 RMK AO2 SLP130 SHRA DSNT S-W TCU DSNT W T00831039 $,0,14,0,16090,0,0,0,"DS,RA,SH"
2026-04-24 09:54:00,METAR KBUF 240954Z 07011KT 10SM BKN060 09/M02 A2989 RMK AO2 SLP122 T00941022 $,0,11,0,16090,0,0,0,
2026-04-24 08:54:00,METAR KBUF 240854Z 06012KT 10SM BKN065 10/M01 A2989 RMK AO2 SLP122 T01001006 53006 $,0,12,0,16090,0,0,0,
2026-04-24 07:54:00,METAR KBUF 240754Z 04005KT 10SM BKN060 09/02 A2988 RMK AO2 SLP117 T00940022 $,0,5,0,16090,0,0,0,
2026-04-24 06:54:00,METAR KBUF 240654Z 04004KT 10SM FEW280 10/03 A2987 RMK AO2 SLP116 T01000028 $,0,4,0,16090,0,0,0,
2026-04-24 05:54:00,METAR KBUF 240554Z 14004KT 10SM FEW280 12/02 A2987 RMK AO2 SLP116 T01170022 10161 20117 56007 $,0,4,0,16090,0,0,0,
2026-04-24 04:54:00,METAR KBUF 240454Z 12005KT 10SM FEW280 12/02 A2988 RMK AO2 SLP116 T01220022 402110056 $,0,5,0,16090,0,0,0,
2026-04-24 03:54:00,METAR KBUF 240354Z 12005KT 10SM FEW280 12/02 A2988 RMK AO2 SLP117 T01220022 $,0,5,0,16090,0,0,0,
2026-04-24 02:54:00,METAR KBUF 240254Z 11005KT 10SM FEW280 13/03 A2989 RMK AO2 SLP123 T01330028 58005 $,0,5,0,16090,0,0,0,
2026-04-24 01:54:00,METAR KBUF 240154Z 06005KT 10SM FEW140 FEW280 13/02 A2991 RMK AO2 SLP128 T01330022 $,0,5,0,16090,0,0,0,
2026-04-24 00:54:00,METAR KBUF 240054Z 04006KT 10SM FEW160 BKN280 14/03 A2992 RMK AO2 SLP132 T01390028 $,0,6,0,16090,0,0,0,
2026-04-23 23:54:00,METAR KBUF 232354Z COR 01006KT 10SM SCT160 SCT210 BKN280CLR 16/04 A2991 RMK AO2 SLP131 T01610039 10211 20161 55000 $,0,6,0,16090,0,0,0,
2026-04-23 22:54:00,METAR KBUF 232254Z 33004KT 10SM BKN160 BKN200 BKN280 19/04 A2991 RMK AO2 SLP129 T01890044 $,0,4,0,16090,0,0,0,
2026-04-23 21:54:00,METAR KBUF 232154Z 35006KT 10SM BKN160 BKN260 21/02 A2991 RMK AO2 SLP128 T02110022 $,0,6,0,16090,0,0,0,
2026-04-23 20:54:00,METAR KBUF 232054Z 14005KT 10SM BKN160 BKN260 21/01 A2991 RMK AO2 SLP130 T02110011 58023 $,0,5,0,16090,0,0,0,
2026-04-23 19:54:00,METAR KBUF 231954Z 00000KT 10SM FEW120 BKN180 BKN250 20/01 A2994 RMK AO2 SLP139 T02000011 $,0,0,0,16090,0,0,0,
2026-04-23 18:54:00,METAR KBUF 231854Z 26004KT 10SM FEW130 FEW200 SCT250 21/02 A2996 RMK AO2 SLP147 T02060017 $,0,4,0,16090,0,0,0,
2026-04-23 17:54:00,METAR KBUF 231754Z VRB03KT 10SM FEW130 FEW200 SCT250 19/02 A2998 RMK AO2 SLP153 T01940017 10194 20078 58014 $,0,3,0,16090,0,0,0,
2026-04-23 16:54:00,METAR KBUF 231654Z 03008KT 10SM FEW120 SCT250 SCT300 18/03 A3001 RMK AO2 SLP162 T01830028 $,0,8,0,16090,0,0,0,
2026-04-23 15:54:00,METAR KBUF 231554Z 07007KT 10SM BKN120 BKN240 BKN300 17/02 A3002 RMK AO2 SLP168 T01720022 $,0,7,0,16090,0,0,0,
2026-04-23 14:54:00,METAR KBUF 231454Z 08005KT 10SM FEW140 FEW240 FEW300 17/03 A3002 RMK AO2 SLP167 T01670028 58001 $,0,5,0,16090,0,0,0,
2026-04-23 13:54:00,METAR KBUF 231354Z 12004KT 10SM FEW150 FEW250 FEW300 14/05 A3003 RMK AO2 SLP169 T01390050 $,0,4,0,16090,0,0,0,
2026-04-23 12:54:00,METAR KBUF 231254Z 11007KT 10SM FEW250 11/05 A3003 RMK AO2 SLP172 T01110050 $,0,7,0,16090,0,0,0,
2026-04-23 11:54:00,METAR KBUF 231154Z 00000KT 10SM FEW250 08/05 A3003 RMK AO2 SLP170 T00780050 10094 20056 50009 $,0,0,0,16090,0,0,0,
2026-04-23 10:54:00,METAR KBUF 231054Z 08004KT 10SM FEW250 06/04 A3003 RMK AO2 SLP172 T00560044 $,0,4,0,16090,0,0,0,
2026-04-23 09:54:00,METAR KBUF 230954Z 00000KT 10SM CLR 07/04 A3002 RMK AO2 SLP168 T00670044 $,0,0,0,16090,0,0,0,
2026-04-23 08:54:00,METAR KBUF 230854Z 00000KT 10SM CLR 07/05 A3000 RMK AO2 SLP160 T00720050 53004 $,0,0,0,16090,0,0,0,
2026-04-23 07:54:00,METAR KBUF 230754Z 20003KT 10SM CLR 07/05 A2999 RMK AO2 SLP156 T00720050 $,0,3,0,16090,0,0,0,
2026-04-23 06:54:00,METAR KBUF 230654Z 00000KT 10SM CLR 08/06 A2998 RMK AO2 SLP153 T00830056 $,0,0,0,16090,0,0,0,
2026-04-23 05:54:00,METAR KBUF 230554Z 35004KT 10SM CLR 09/06 A2998 RMK AO2 SLP155 T00940056 10122 20078 51004 $,0,4,0,16090,0,0,0,
2026-04-23 04:54:00,METAR KBUF 230454Z 01003KT 10SM CLR 09/06 A2998 RMK AO2 SLP155 T00890056 401830083 $,0,3,0,16090,0,0,0,
2026-04-23 03:54:00,METAR KBUF 230354Z 31005KT 10SM CLR 09/06 A2998 RMK AO2 SLP154 T00890056 $,0,5,0,16090,0,0,0,
2026-04-23 02:54:00,METAR KBUF 230254Z 17004KT 10SM CLR 10/06 A2997 RMK AO2 SLP151 T01000056 50013 $,0,4,0,16090,0,0,0,
2026-04-23 01:54:00,METAR KBUF 230154Z 18004KT 10SM CLR 10/06 A2997 RMK AO2 SLP152 T01000056 $,0,4,0,16090,0,0,0,
2026-04-23 00:54:00,METAR KBUF 230054Z 19006KT 10SM CLR 11/06 A2996 RMK AO2 SLP146 T01060061 $,0,6,0,16090,0,0,0,
2026-04-22 23:54:00,METAR KBUF 222354Z 20006KT 10SM CLR 12/06 A2993 RMK AO2 SLP138 T01220061 10183 20122 55000 $,0,6,0,16090,0,0,0,
2026-04-22 22:54:00,METAR KBUF 222254Z 22007KT 10SM FEW040 14/06 A2993 RMK AO2 SLP137 T01440061 $,0,7,0,16090,0,0,0,
2026-04-22 21:54:00,METAR KBUF 222154Z 22010KT 10SM FEW040 17/07 A2993 RMK AO2 SLP137 T01670072 $,0,10,0,16090,0,0,0,
2026-04-22 20:54:00,METAR KBUF 222054Z 23012KT 10SM FEW040 16/08 A2993 RMK AO2 SLP137 T01610078 53002 $,0,12,0,16090,0,0,0,
2026-04-22 19:54:00,METAR KBUF 221954Z 23014KT 10SM FEW040 17/08 A2992 RMK AO2 SLP133 T01720078 $,0,14,0,16090,0,0,0,
2026-04-22 18:54:00,METAR KBUF 221854Z 25013KT 10SM FEW040 18/08 A2993 RMK AO2 SLP136 T01780078 $,0,13,0,16090,0,0,0,
2026-04-22 17:54:00,METAR KBUF 221754Z 24011KT 10SM FEW037 FEW075 18/08 A2993 RMK AO2 SLP134 T01780083 10178 20111 50003 $,0,11,0,16090,0,0,0,
2026-04-22 16:54:00,METAR KBUF 221654Z 24009KT 10SM FEW030 FEW075 17/09 A2993 RMK AO2 SLP136 T01670089 $,0,9,0,16090,0,0,0,
2026-04-22 15:54:00,METAR KBUF 221554Z 22009KT 10SM FEW070 16/08 A2993 RMK AO2 SLP134 T01610083 $,0,9,0,16090,0,0,0,
2026-04-22 14:54:00,METAR KBUF 221454Z 23005KT 10SM FEW070 16/08 A2992 RMK AO2 SLP132 T01560083 55000 $,0,5,0,16090,0,0,0,
2026-04-22 13:54:00,METAR KBUF 221354Z 27005KT 10SM FEW070 14/08 A2992 RMK AO2 SLP131 T01440083 $,0,5,0,16090,0,0,0,
2026-04-22 12:54:00,METAR KBUF 221254Z 21004KT 10SM FEW070 13/08 A2992 RMK AO2 SLP134 T01330078 $,0,4,0,16090,0,0,0,
2026-04-22 11:54:00,METAR KBUF 221154Z 24003KT 10SM BKN065 11/08 A2992 RMK AO2 SLP134 T01110078 10128 20106 53013 $,0,3,0,16090,0,0,0,
2026-04-22 10:54:00,METAR KBUF 221054Z 26003KT 10SM BKN070 11/08 A2991 RMK AO2 SLP130 T01060078 $,0,3,0,16090,0,0,0,
2026-04-22 09:54:00,METAR KBUF 220954Z 27005KT 10SM SCT075 11/08 A2989 RMK AO2 SLP124 T01110078 $,0,5,0,16090,0,0,0,
2026-04-22 08:54:00,METAR KBUF 220854Z COR 17004KT 10SM SCT075 11/08 A2988 RMK AO2 SLP121 T01110078 55006 $,0,4,0,16090,0,0,0,
2026-04-22 07:54:00,METAR KBUF 220754Z 19006KT 10SM SCT100 11/07 A2988 RMK AO2 SLP120 T01110072 $,0,6,0,16090,0,0,0,
2026-04-22 06:54:00,METAR KBUF 220654Z 19009KT 10SM BKN100 12/07 A2988 RMK AO2 SLP120 T01220067 $,0,9,0,16090,0,0,0,
2026-04-22 05:54:00,METAR KBUF 220554Z 20008KT 10SM BKN095 12/06 A2990 RMK AO2 SLP127 60000 T01220056 10133 20117 56016 $,0,8,0,16090,0,0,0,
2026-04-22 04:54:00,METAR KBUF 220454Z 18008KT 10SM FEW075 BKN095 12/07 A2991 RMK AO2 SLP130 T01220067 401441028 $,0,8,0,16090,0,0,0,
2026-04-22 03:54:00,METAR KBUF 220354Z 20009KT 10SM BKN075 OVC095 13/07 A2994 RMK AO2 SLP139 T01280067 $,0,9,0,16090,0,0,0,
2026-04-22 02:54:00,METAR KBUF 220254Z 21011KT 10SM OVC090 13/01 A2995 RMK AO2 SLP144 60000 T01280011 56006 $,0,11,0,16090,0,0,0,
2026-04-22 01:54:00,METAR KBUF 220154Z 15006KT 10SM OVC090 12/M01 A2996 RMK AO2 SLP148 T01221011 $,0,6,0,16090,0,0,0,
2026-04-22 00:54:00,METAR KBUF 220054Z 11006KT 10SM BKN100 OVC110 12/M01 A2996 RMK AO2 RAB07E17 SLP149 P0000 T01221011 $,0,6,0,16090,0,0,0,RA
2026-04-21 23:54:00,METAR KBUF 212354Z 07003KT 10SM OVC100 13/M01 A2997 RMK AO2 SLP153 T01281011 10144 20117 55016 $,0,3,0,16090,0,0,0,
2026-04-21 22:54:00,METAR KBUF 212254Z 11006KT 10SM BKN100 BKN120 14/M03 A2995 RMK AO2 SLP148 T01391033 $,0,6,0,16090,0,0,0,
2026-04-21 21:54:00,METAR KBUF 212154Z 14007KT 10SM OVC080 14/M03 A3000 RMK AO2 SLP163 T01391033 $,0,7,0,16090,0,0,0,
2026-04-21 20:54:00,METAR KBUF 212054Z 15007KT 10SM FEW060 OVC080 13/M04 A3001 RMK AO2 SLP169 T01331039 58033 $,0,7,0,16090,0,0,0,
2026-04-21 19:54:00,METAR KBUF 211954Z 18010KT 10SM OVC065 13/M04 A3005 RMK AO2 SLP179 T01281044 $,0,10,0,16090,0,0,0,
2026-04-21 18:54:00,METAR KBUF 211854Z 20010G16KT 10SM BKN075 13/M03 A3009 RMK AO2 SLP193 T01281033 $,0,10,1,16090,0,0,0,
2026-04-21 17:54:00,METAR KBUF 211754Z 18011KT 10SM OVC080 12/M03 A3011 RMK AO2 SLP202 OCNL BINOVC T01171033 10117 20006 58035 $,0,11,0,16090,0,0,0,VC
2026-04-21 16:54:00,METAR KBUF 211654Z 20010KT 10SM FEW055 SCT130 11/M03 A3015 RMK AO2 SLP217 VIRGA DSNT NE T01111033 $,0,10,0,16090,0,0,0,DS
2026-04-21 15:54:00,METAR KBUF 211554Z 22013G20KT 10SM FEW100 SCT130 09/M04 A3019 RMK AO2 SLP227 T00941044 $,0,13,1,16090,0,0,0,
2026-04-21 14:54:00,METAR KBUF 211454Z 19011KT 10SM FEW055 FEW130 FEW170 08/M05 A3022 RMK AO2 SLP239 T00781050 56022 $,0,11,0,16090,0,0,0,
2026-04-21 13:54:00,METAR KBUF 211354Z 19014KT 10SM FEW050 FEW120 SCT170 06/M07 A3024 RMK AO2 SLP248 T00561067 $,0,14,0,16090,0,0,0,
2026-04-21 12:54:00,METAR KBUF 211254Z 17007KT 10SM SCT130 BKN170 03/M07 A3026 RMK AO2 SLP254 T00331067 $,0,7,0,16090,0,0,0,
2026-04-21 11:54:00,METAR KBUF 211154Z 16007KT 10SM SCT120 BKN250 00/M06 A3028 RMK AO2 SLP263 T00001061 10000 21028 58009 $,0,7,0,16090,0,0,0,
2026-04-21 10:54:00,METAR KBUF 211054Z 17006KT 10SM SCT120 BKN250 M01/M06 A3029 RMK AO2 SLP266 T10111056 $,0,6,0,16090,0,0,0,
2026-04-21 09:54:00,METAR KBUF 210954Z 16007KT 10SM BKN250 M02/M06 A3030 RMK AO2 SLP270 T10221056 $,0,7,0,16090,0,0,0,
2026-04-21 08:54:00,METAR KBUF 210854Z 18004KT 10SM BKN250 M02/M06 A3031 RMK AO2 SLP273 T10221056 53004 $,0,4,0,16090,0,0,0,
2026-04-21 07:54:00,METAR KBUF 210754Z 17007KT 10SM SCT250 M01/M05 A3030 RMK AO2 SLP268 T10111050 $,0,7,0,16090,0,0,0,
2026-04-21 06:54:00,METAR KBUF 210654Z 19005KT 10SM FEW026 FEW250 M02/M05 A3029 RMK AO2 SLP266 T10171050 $,0,5,0,16090,0,0,0,
2026-04-21 05:54:00,METAR KBUF 210554Z 19005KT 10SM CLR M01/M04 A3030 RMK AO2 SLP268 T10111044 10011 21011 57009 $,0,5,0,16090,0,0,0,
2026-04-21 04:54:00,METAR KBUF 210454Z 17006KT 10SM FEW060 M01/M04 A3031 RMK AO2 SLP272 T10111044 400391017 $,0,6,0,16090,0,0,0,
2026-04-21 03:54:00,METAR KBUF 210354Z 23006KT 10SM FEW060 FEW250 01/M03 A3031 RMK AO2 SLP274 T00111033 $,0,6,0,16090,0,0,0,
2026-04-21 02:54:00,METAR KBUF 210254Z 23008KT 10SM FEW060 01/M04 A3033 RMK AO2 SLP278 T00111039 50001 $,0,8,0,16090,0,0,0,
2026-04-21 01:54:00,METAR KBUF 210154Z 24006KT 10SM SCT060 SCT210 01/M04 A3033 RMK AO2 SLP280 T00111039 $,0,6,0,16090,0,0,0,
2026-04-21 00:54:00,METAR KBUF 210054Z 24008KT 10SM FEW065 01/M04 A3033 RMK AO2 SLP279 T00111044 $,0,8,0,16090,0,0,0,
2026-04-20 23:54:00,METAR KBUF 202354Z 24009KT 10SM FEW045 FEW065 01/M05 A3032 RMK AO2 SLP277 T00111050 10039 20011 53003 $,0,9,0,16090,0,0,0,
2026-04-20 22:54:00,METAR KBUF 202254Z 24012KT 10SM FEW048 BKN065 03/M06 A3032 RMK AO2 SLP275 T00281061 $,0,12,0,16090,0,0,0,
2026-04-20 21:54:00,METAR KBUF 202154Z 26014KT 10SM FEW045 SCT055 03/M05 A3032 RMK AO2 SLP275 T00281050 $,0,14,0,16090,0,0,0,
2026-04-20 20:54:00,METAR KBUF 202054Z 23014KT 10SM FEW039 BKN060 02/M06 A3031 RMK AO2 SLP274 SHSN VC SE-SW-NW T00221056 55003 $,0,14,0,16090,0,0,0,"SH,SN,VC"
2026-04-20 19:54:00,METAR KBUF 201954Z 24006G17KT 10SM BKN060 02/M06 A3031 RMK AO2 SLP273 SHSN VC SE-SW-NW T00221061 $,0,6,1,16090,0,0,0,"SH,SN,VC"
2026-04-20 18:54:00,METAR KBUF 201854Z 34013G18KT 10SM FEW039 BKN055 03/M08 A3032 RMK AO2 SLP275 SHSN DSNT ALQDS T00331078 $,0,13,1,16090,0,0,0,"DS,SH,SN"
2026-04-20 17:54:00,METAR KBUF 201754Z 32012G17KT 290V350 10SM FEW042 BKN055 02/M08 A3032 RMK AO2 SNE12 SLP277 SHSN DSNT ALQDS P0000 60000 T00221078 10028 21011 51007 $,0,12,1,16090,0,0,0,"DS,SH,SN"
2026-04-20 17:12:00,SPECI KBUF 201712Z 29009G22KT 10SM FEW042 BKN055 02/M09 A3032 RMK AO2 SNE12 SHSN DSNT ALQDS P0000 T00171094 $,0,9,1,16090,0,0,0,"DS,SH,SN"
2026-04-20 16:54:00,METAR KBUF 201654Z 30011KT 10SM -SN BKN037 BKN049 BKN060 01/M09 A3032 RMK AO2 WSHFT 1558 SLP276 SNB08GSB08E15 PCPN VRY LGT P0000 T00111094 $,0,11,0,16090,0,0,0,SN
2026-04-20 16:17:00,SPECI KBUF 201617Z 32012KT 10SM -SN BKN037 BKN049 BKN060 01/M06 A3032 RMK AO2 WSHFT 1558 SNB08GSB08E15 P0000 T00061061,0,12,0,16090,0,0,0,SN
2026-04-20 16:11:00,SPECI KBUF 201611Z 34013KT 8SM -SNGS BKN037 BKN049 BKN060 01/M06 A3032 RMK AO2 SNB08GSB08 GS LGT P0000 T00061061,0,13,0,12872,1,0,0,"GS,SN"
2026-04-20 15:54:00,METAR KBUF 201554Z VRB05KT 10SM SCT035 BKN047 BKN060 02/M06 A3031 RMK AO2 SNE54 SLP273 SHSN VC ALQDS P0000 T00171061,0,5,0,16090,0,0,0,"DS,SH,SN,VC"
2026-04-20 14:54:00,METAR KBUF 201454Z 31009G17KT 10SM -SN SCT032 SCT044 BKN060 01/M06 A3030 RMK AO2 SLP269 P0000 60000 T00111056 51018,0,9,1,16090,0,0,0,SN
2026-04-20 13:54:00,METAR KBUF 201354Z 28009KT 10SM -SN BKN032 BKN047 BKN060 00/M06 A3028 RMK AO2 SLP264 P0000 T00001056 $,0,9,0,16090,0,0,0,SN
2026-04-20 12:54:00,METAR KBUF 201254Z 29008KT 10SM -SN BKN034 BKN044 BKN060 M01/M07 A3027 RMK AO2 SNB47 SLP258 PCPN VRY LGT P0000 T10061067 $,0,8,0,16090,0,0,0,SN
2026-04-20 12:48:00,SPECI KBUF 201248Z 28008KT 10SM -SN BKN034 BKN044 BKN060 M01/M07 A3027 RMK AO2 SNB47 PCPN VRY LGT P0000 $,0,8,0,16090,0,0,0,SN
2026-04-20 12:07:00,SPECI KBUF 201207Z COR 29009KT 10SM BKN034 M01/M07 A3025 RMK AO2 T10111072 $,0,9,0,16090,0,0,0,
2026-04-20 12:03:00,SPECI KBUF 201203Z 28009KT 1 1/2SM HZ OVC034 M01/M07 A3025 RMK AO2 T10111072 $,0,9,0,2414,0,0,0,
2026-04-20 11:54:00,METAR KBUF 201154Z 30008KT 10SM BKN037 M01/M07 A3025 RMK AO2 SLP251 70020 T10111072 10000 21017 53026 $,0,8,0,16090,0,0,0,
2026-04-20 10:54:00,METAR KBUF 201054Z 28007KT 10SM BKN043 M01/M07 A3022 RMK AO2 SLP241 T10111067 $,0,7,0,16090,0,0,0,
2026-04-20 09:54:00,METAR KBUF 200954Z 31008KT 10SM BKN036 M01/M07 A3019 RMK AO2 SLP232 T10111072 $,0,8,0,16090,0,0,0,
2026-04-20 09:35:00,SPECI KBUF 200935Z 30007KT 3SM HZ OVC040 M01/M07 A3018 RMK AO2 T10111072 $,0,7,0,4827,0,0,0,
2026-04-20 09:24:00,SPECI KBUF 200924Z 28007KT 1 3/4SM HZ OVC040 M01/M07 A3018 RMK AO2 T10111067 $,0,7,0,2816,0,0,0,
2026-04-20 08:54:00,METAR KBUF 200854Z 28010KT 10SM OVC038 M01/M07 A3017 RMK AO2 SLP223 T10111067 53012 $,0,10,0,16090,0,0,0,
2026-04-20 07:54:00,METAR KBUF 200754Z 27007KT 10SM FEW095 M01/M06 A3015 RMK AO2 SLP219 T10111061 $,0,7,0,16090,0,0,0,
2026-04-20 06:54:00,METAR KBUF 200654Z 29006KT 10SM FEW095 M01/M07 A3014 RMK AO2 SLP215 T10061067 $,0,6,0,16090,0,0,0,
2026-04-20 05:54:00,METAR KBUF 200554Z 29007KT 10SM BKN090 00/M06 A3013 RMK AO2 SLP212 60003 T00001056 10033 20000 53015 $,0,7,0,16090,0,0,0,
2026-04-20 04:54:00,METAR KBUF 200454Z 31010G20KT 10SM FEW035 BKN080 01/M04 A3012 RMK AO2 SLP206 T00061044 400720006 $,0,10,1,16090,0,0,0,
2026-04-20 03:54:00,METAR KBUF 200354Z 29004KT 10SM FEW035 BKN075 01/M01 A3009 RMK AO2 RAE31SNE31 SLP198 P0001 T00061006 $,0,4,0,16090,0,0,0,RA
2026-04-20 03:33:00,SPECI KBUF 200333Z 32003KT 10SM SCT035 BKN060 OVC080 01/M01 A3009 RMK AO2 RAE31SNE31 P0001 T00061011 $,0,3,0,16090,0,0,0,RA
2026-04-20 03:02:00,SPECI KBUF 200302Z 33010KT 3SM -SNRA BR SCT006 BKN030 OVC050 01/M01 A3009 RMK AO2 P0001 T00061006 $,0,10,0,4827,0,0,1,"BR,RA"
2026-04-20 02:54:00,METAR KBUF 200254Z 34012G22KT 4SM -SNRA BR SCT006 BKN013 OVC019 01/M01 A3009 RMK AO2 SLP197 RAB20SNB29 P0001 60002 T00061006 53013 $,0,12,1,6436,0,0,1,"BR,RA"
2026-04-20 02:40:00,SPECI KBUF 200240Z 34008KT 8SM -RASN FEW005 BKN012 OVC019 02/01 A3009 RMK AO2 RAB20SNB29 P0000 T00170006 $,0,8,0,12872,0,0,0,"-RA,RA,SN"
2026-04-20 02:30:00,SPECI KBUF 200230Z 32005KT 8SM -RASN FEW014 BKN018 OVC041 02/01 A3008 RMK AO2 RAB20SNB29 P0000 T00170006 $,0,5,0,12872,0,0,0,"-RA,RA,SN"
2026-04-20 02:11:00,SPECI KBUF 200211Z 32004KT 10SM SCT020 BKN027 OVC047 02/01 A3007 RMK AO2 T00170006 $,0,4,0,16090,0,0,0,
2026-04-20 01:54:00,METAR KBUF 200154Z 00000KT 10SM FEW010 BKN047 OVC055 02/01 A3006 RMK AO2 RAB05E47 SLP188 P0001 T00170006 $,0,0,0,16090,0,0,0,RA
2026-04-20 01:52:00,SPECI KBUF 200152Z 00000KT 10SM FEW010 BKN047 OVC055 02/01 A3007 RMK AO2 RAB05E47 P0001 $,0,0,0,16090,0,0,0,RA
2026-04-20 01:28:00,SPECI KBUF 200128Z 35010KT 6SM -RA BR FEW008 BKN016 OVC024 02/01 A3006 RMK AO2 RAB05 P0000 T00220006 $,0,10,0,9654,0,0,1,"-RA,BR"
2026-04-20 01:05:00,SPECI KBUF 200105Z 32008KT 10SM -RA BKN019 BKN032 OVC060 03/01 A3006 RMK AO2 RAB05 P0000 T00280006 $,0,8,0,16090,0,0,0,-RA
2026-04-20 00:54:00,METAR KBUF 200054Z 28005KT 10SM FEW021 BKN041 BKN060 BKN130 03/00 A3005 RMK AO2 PK WND 27026/0001 RAE14 SLP183 P0000 T00280000 $,0,5,0,16090,0,0,0,
2026-04-20 00:27:00,SPECI KBUF 200027Z 27011KT 10SM SCT020 SCT040 BKN085 02/00 A3004 RMK AO2 PK WND 27026/0001 RAE14 P0000 T00220000 $,0,11,0,16090,0,0,0,
2026-04-20 00:09:00,SPECI KBUF 200009Z 28017G26KT 10SM -RA BKN020 BKN029 OVC060 03/00 A3004 RMK AO2 PK WND 27026/0001 P0000 T00330000 $,0,17,1,16090,0,0,0,-RA
2026-04-19 23:54:00,METAR KBUF 192354Z 26013G22KT 10SM -RA SCT017 BKN038 BKN060 OVC130 03/01 A3003 RMK AO2 RAB36 SLP175 P0000 60006 T00330006 10056 20017 51008 $,0,13,1,16090,0,0,0,-RA
2026-04-19 23:48:00,SPECI KBUF 192348Z 25013G22KT 4SM -RA BR SCT019 BKN038 OVC060 03/01 A3002 RMK AO2 RAB36 P0000 $,0,13,1,6436,0,0,1,"-RA,BR"
2026-04-19 23:44:00,SPECI KBUF 192344Z 24014G22KT 2 1/2SM -RA FEW021 BKN038 OVC080 03/00 A3002 RMK AO2 RAB36 P0000 T00330000 $,0,14,1,4022,0,0,0,-RA
2026-04-19 22:54:00,METAR KBUF 192254Z 25008KT 10SM SCT024 BKN070 BKN130 BKN260 03/00 A3002 RMK AO2 PK WND 25027/2156 RAB29E41 SLP171 P0000 T00330000 $,0,8,0,16090,0,0,0,RA
2026-04-19 22:29:00,SPECI KBUF 192229Z 27010G24KT 10SM -RA BKN024 BKN060 OVC080 03/M01 A3002 RMK AO2 PK WND 25027/2156 RAB29 P0000 T00281006 $,0,10,1,16090,0,0,0,-RA
2026-04-19 21:54:00,METAR KBUF 192154Z 25018G28KT 10SM FEW018 BKN044 OVC055 04/M02 A3001 RMK AO2 PK WND 24038/2113 SLP167 T00391017 $,0,18,1,16090,0,0,0,
2026-04-19 20:54:00,METAR KBUF 192054Z 24024G36KT 10SM FEW020 BKN037 BKN048 05/M02 A2998 RMK AO2 PK WND 24036/2053 RAB01E20B29E50SNB02E04B20E29GSB04E13B20E29 SLP159 SHSN VC ALQDS P0004 60006 T00501017 50000 $,0,24,1,16090,0,0,0,"DS,RA,SH,SN,VC"
2026-04-19 20:29:00,SPECI KBUF 192029Z 25010G22KT 6SM -RA FEW022 SCT030 BKN070 04/M01 A2999 RMK AO2 RAB01E20B29SNB02E04B20E29GSB04E13B20E29 P0003 T00391006 $,0,10,1,9654,0,0,0,"-RA,RA"
2026-04-19 20:20:00,SPECI KBUF 192020Z 25008G16KT 5SM -SNGS FEW025 SCT030 BKN070 03/M01 A3000 RMK AO2 RAB01E20SNB02E04B20GSB04E13B20 P0001 T00331006 $,0,8,1,8045,1,0,0,"GS,RA"
2026-04-19 20:13:00,SPECI KBUF 192013Z 32005KT 7SM -RA FEW025 SCT030 BKN070 04/M01 A2999 RMK AO2 RAB01SNB02E04GSB04E13 P0001 T00391011 $,0,5,0,11263,0,0,0,"-RA,RA"
2026-04-19 20:04:00,SPECI KBUF 192004Z 31006KT 8SM -RAGS SCT035 BKN046 BKN070 04/00 A3000 RMK AO2 RAB01SNB02E04GSB04 P0000 T00390000 $,0,6,0,12872,1,0,0,"-RA,GS,RA"
2026-04-19 19:54:00,METAR KBUF 191954Z 28006G18KT 10SM SCT035 BKN046 BKN070 04/00 A2999 RMK AO2 RAB18E53 SLP162 P0000 T00390000 $,0,6,1,16090,0,0,0,RA
2026-04-19 18:54:00,METAR KBUF 191854Z 23008KT 10SM FEW026 BKN031 BKN050 BKN180 03/02 A3000 RMK AO2 RAE04SNB04E41 SLP164 P0002 T00330017 $,0,8,0,16090,0,0,0,RA
2026-04-19 18:41:00,SPECI KBUF 191841Z 23013G20KT 10SM BKN026 BKN041 BKN070 03/01 A3000 RMK AO2 RAE04SNB04E41 P0002 T00280011 $,0,13,1,16090,0,0,0,RA
2026-04-19 18:33:00,SPECI KBUF 191833Z 23011KT 7SM -SN BKN020 BKN026 BKN044 02/01 A3000 RMK AO2 RAE04SNB04 P0002 T00220006 $,0,11,0,11263,0,0,0,"RA,SN"
2026-04-19 18:15:00,SPECI KBUF 191815Z 27015G24KT 2SM -SN FEW018 BKN027 OVC044 02/M01 A3000 RMK AO2 RAE04SNB04 P0001 T00221006 $,0,15,1,3218,0,0,0,"RA,SN"
2026-04-19 18:04:00,SPECI KBUF 191804Z 25011KT 10SM -SN SCT024 BKN034 BKN044 03/01 A2999 RMK AO2 RAE04SNB04 P0000 T00330011 $,0,11,0,16090,0,0,0,"RA,SN"
2026-04-19 17:54:00,METAR KBUF 191754Z 24016G22KT 10SM -RA SCT019 BKN037 BKN048 04/00 A2998 RMK AO2 RAB40SNB26E40 SLP159 P0001 60011 T00390000 10061 20028 56001 $,0,16,1,16090,0,0,0,"-RA,RA"
2026-04-19 17:51:00,SPECI KBUF 191751Z 23014G19KT 10SM -RA SCT019 BKN037 BKN048 04/00 A2998 RMK AO2 RAB40SNB26E40 P0001 $,0,14,1,16090,0,0,0,"-RA,RA"
2026-04-19 17:40:00,SPECI KBUF 191740Z 31008G18KT 7SM -RA FEW011 BKN021 OVC049 04/M01 A2998 RMK AO2 RAB40SNB26E40 P0001 T00391006 $,0,8,1,11263,0,0,0,"-RA,RA"
2026-04-19 17:26:00,SPECI KBUF 191726Z 29016G22KT 6SM -SN SCT034 BKN055 OVC085 04/M02 A2998 RMK AO2 SNB26 P0000 T00441022 $,0,16,1,9654,0,0,0,SN
2026-04-19 16:54:00,METAR KBUF 191654Z 31010G18KT 10SM SCT044 BKN060 BKN080 06/M01 A2997 RMK AO2 RAB1557E24SNB1559E24 SLP155 P0000 T00561011 $,0,10,1,16090,0,0,0,RA
2026-04-19 16:24:00,SPECI KBUF 191624Z 25008G17KT 10SM BKN036 BKN060 BKN090 04/M01 A2998 RMK AO2 RAB1557E24SNB1559E24 P0000 T00391011 $,0,8,1,16090,0,0,0,RA
2026-04-19 15:59:00,SPECI KBUF 191559Z 30013G21KT 10SM -SNRA SCT036 BKN050 OVC075 04/M02 A2999 RMK AO2 RAB57SNB59 P0000 T00441017 $,0,13,1,16090,0,0,0,RA
2026-04-19 15:54:00,METAR KBUF 191554Z 31015G21KT 10SM SCT034 BKN060 OVC075 06/M01 A2998 RMK AO2 RAE06B30E43 SLP158 P0000 T00561011 $,0,15,1,16090,0,0,0,RA
2026-04-19 14:54:00,METAR KBUF 191454Z 27012KT 10SM -RA FEW029 BKN040 OVC049 04/M01 A2999 RMK AO2 RAE11B40SNE04 SLP159 P0000 60010 T00441006 51010 $,0,12,0,16090,0,0,0,"-RA,RA"
2026-04-19 14:04:00,SPECI KBUF 191404Z 28004KT 10SM -RA SCT025 OVC038 03/01 A2998 RMK AO2 SNE04 P0000 T00330006 $,0,4,0,16090,0,0,0,-RA
2026-04-19 13:54:00,METAR KBUF 191354Z 30006KT 5SM -SNRA FEW025 OVC036 03/00 A2997 RMK AO2 SNB29 SLP155 P0010 T00280000 $,0,6,0,8045,0,0,0,RA
2026-04-19 13:29:00,SPECI KBUF 191329Z 28008KT 5SM -RASN SCT024 BKN034 OVC041 03/00 A2997 RMK AO2 SNB29 P0004 T00280000 $,0,8,0,8045,0,0,0,"-RA,SN"
2026-04-19 12:54:00,METAR KBUF 191254Z 30006KT 10SM -RA BKN036 OVC043 04/00 A2997 RMK AO2 SLP155 P0000 T00440000 $,0,6,0,16090,0,0,0,-RA
2026-04-19 11:54:00,METAR KBUF 191154Z 30003KT 10SM -RA FEW015 BKN036 OVC060 04/01 A2996 RMK AO2 RAB52 SLP148 PCPN VRY LGT P0000 60000 70073 T00440006 10061 20039 51009 $,0,3,0,16090,0,0,0,-RA
2026-04-19 10:54:00,METAR KBUF 191054Z 28003KT 10SM BKN040 BKN055 04/00 A2995 RMK AO2 RAE32 SLP146 P0000 T00440000 $,0,3,0,16090,0,0,0,
2026-04-19 09:54:00,METAR KBUF 190954Z 27005KT 10SM -RA FEW017 OVC043 04/01 A2995 RMK AO2 SLP146 P0000 T00440006 $,0,5,0,16090,0,0,0,-RA
2026-04-19 08:54:00,METAR KBUF 190854Z 30004KT 10SM -RA FEW016 SCT021 OVC043 04/02 A2993 RMK AO2 RAB30 SLP139 P0000 60000 T00440022 53012 $,0,4,0,16090,0,0,0,-RA
2026-04-19 08:36:00,SPECI KBUF 190836Z VRB03KT 10SM -RA SCT014 OVC043 04/02 A2992 RMK AO2 RAB30 P0000 T00440022 $,0,3,0,16090,0,0,0,-RA
2026-04-19 08:16:00,SPECI KBUF 190816Z 31004KT 10SM BKN014 OVC039 04/02 A2994 RMK AO2 T00440022 $,0,4,0,16090,0,0,0,
2026-04-19 07:54:00,METAR KBUF 190754Z 33004KT 10SM SCT012 BKN030 OVC037 04/03 A2992 RMK AO2 RAE00 SLP135 P0000 T00440028 $,0,4,0,16090,0,0,0,
2026-04-19 07:21:00,SPECI KBUF 190721Z 34008KT 10SM SCT010 SCT022 OVC028 04/03 A2990 RMK AO2 RAE00 P0000 T00440028 $,0,8,0,16090,0,0,0,
2026-04-19 06:54:00,METAR KBUF 190654Z 36011KT 10SM -RA OVC010 04/03 A2990 RMK AO2 RAB43 CIG 007V015 SLP126 P0000 T00440028 $,0,11,0,16090,0,0,0,-RA
2026-04-19 06:30:00,SPECI KBUF 190630Z 35011KT 10SM BKN010 OVC021 05/04 A2989 RMK AO2 T00500039 $,0,11,0,16090,0,0,0,
2026-04-19 06:14:00,SPECI KBUF 190614Z 35010KT 10SM FEW010 SCT014 OVC021 06/04 A2989 RMK AO2 T00560044 $,0,10,0,16090,0,0,0,
2026-04-19 05:54:00,METAR KBUF 190554Z 36012KT 10SM OVC012 06/05 A2989 RMK AO2 SLP123 60001 T00610050 10117 20061 53015 $,0,12,0,16090,0,0,0,
2026-04-19 05:42:00,SPECI KBUF 190542Z 36009KT 10SM BKN008 OVC016 07/06 A2989 RMK AO2 T00670056 $,0,9,0,16090,0,0,0,
2026-04-19 05:19:00,SPECI KBUF 190519Z 34007KT 10SM FEW007 BKN017 OVC026 07/07 A2989 RMK AO2 T00720067 $,0,7,0,16090,0,0,0,
2026-04-19 04:54:00,METAR KBUF 190454Z 22007KT 8SM FEW017 OVC024 07/07 A2988 RMK AO2 RAE14 SLP119 P0000 T00720067 402610067 $,0,7,0,12872,0,0,0,
2026-04-19 04:34:00,SPECI KBUF 190434Z 24006KT 8SM FEW009 OVC021 07/07 A2986 RMK AO2 RAE14 P0000 T00720067 $,0,6,0,12872,0,0,0,
2026-04-19 04:14:00,SPECI KBUF 190414Z 27003KT 7SM SCT003 BKN010 OVC026 07/07 A2986 RMK AO2 RAE14 CIG 009V012 P0000 T00720067 $,0,3,0,11263,0,0,0,
2026-04-19 03:54:00,METAR KBUF 190354Z 22004KT 4SM -RA BR BKN002 OVC008 07/07 A2985 RMK AO2 RAE0258B54 SLP109 P0000 T00720067 $,0,4,0,6436,0,0,1,"-RA,BR,RA"
2026-04-19 02:54:00,METAR KBUF 190254Z 23007KT 3SM -RA BR OVC002 07/07 A2985 RMK AO2 RAE28B46 SLP108 P0000 60001 T00720067 51038 $,0,7,0,4827,0,0,1,"-RA,BR,RA"
2026-04-19 02:29:00,SPECI KBUF 190229Z 24009KT 4SM BR OVC002 07/07 A2984 RMK AO2 RAE28 P0000 T00720072 $,0,9,0,6436,0,0,1,BR
2026-04-19 02:08:00,SPECI KBUF 190208Z 24010G21KT 2SM -RA BR OVC002 08/07 A2983 RMK AO2 P0000 T00780072 $,0,10,1,3218,0,0,1,"-RA,BR"
2026-04-19 01:54:00,METAR KBUF 190154Z 24016G23KT 3SM -RA BR OVC002 08/08 A2982 RMK AO2 SLP100 P0000 T00780078 $,0,16,1,4827,0,0,1,"-RA,BR"
2026-04-19 00:54:00,METAR KBUF 190054Z 23010KT 3SM -RA BR OVC003 09/08 A2980 RMK AO2 PRESRR SLP091 P0001 T00890083 $,0,10,0,4827,0,0,1,"-RA,BR"
2026-04-18 23:54:00,METAR KBUF 182354Z 24013G22KT 5SM -RA BR OVC004 12/11 A2974 RMK AO2 PK WND 23027/2329 SLP070 P0013 60072 T01170111 10261 20117 53009 $,0,13,1,8045,0,0,1,"-RA,BR"
2026-04-18 23:52:00,SPECI KBUF 182352Z 23013G22KT 5SM -RA BR OVC004 12/11 A2974 RMK AO2 PK WND 23027/2329 P0013 $,0,13,1,8045,0,0,1,"-RA,BR"
2026-04-18 23:39:00,SPECI KBUF 182339Z 24016G27KT 2SM -RA BR OVC003 13/13 A2973 RMK AO2 PK WND 23027/2329 P0011 T01330128 $,0,16,1,3218,0,0,1,"-RA,BR"
2026-04-18 22:54:00,METAR KBUF 182254Z 23012KT 5SM RA BR OVC003 13/13 A2970 RMK AO2 SLP058 P0029 T01330128 $,0,12,0,8045,0,0,1,"BR,RA"
2026-04-18 22:15:00,SPECI KBUF 182215Z 22014G22KT 3SM RA BR BKN003 BKN031 OVC044 13/12 A2972 RMK AO2 P0016 T01280122 $,0,14,1,4827,0,0,1,"BR,RA"
2026-04-18 22:07:00,SPECI KBUF 182207Z 23014G22KT 1 1/2SM +RA BR SCT003 BKN033 OVC044 13/12 A2972 RMK AO2 P0010 T01280122 $,0,14,1,2414,0,1,1,"+RA,BR"
2026-04-18 21:54:00,METAR KBUF 182154Z 23012G21KT 2SM RA BR BKN003 OVC031 13/12 A2971 RMK AO2 SLP061 P0023 T01280122 $,0,12,1,3218,0,0,1,"BR,RA"
2026-04-18 21:44:00,SPECI KBUF 182144Z 24014KT 1 3/4SM -RA BR OVC003 13/12 A2971 RMK AO2 P0015 T01280122 $,0,14,0,2816,0,0,1,"-RA,BR"
2026-04-18 20:54:00,METAR KBUF 182054Z 23015G23KT 4SM -RA BR OVC004 12/11 A2969 RMK AO2 SLP054 P0003 60007 T01170111 53011 $,0,15,1,6436,0,0,1,"-RA,BR"
2026-04-18 20:33:00,SPECI KBUF 182033Z 21016KT 10SM -RA BKN004 BKN080 OVC095 12/11 A2967 RMK AO2 P0003 T01170111 $,0,16,0,16090,0,0,0,-RA
2026-04-18 20:23:00,SPECI KBUF 182023Z 21012KT 6SM -RA SCT004 BKN080 OVC095 12/11 A2967 RMK AO2 P0003 T01220111 $,0,12,0,9654,0,0,0,-RA
2026-04-18 19:54:00,METAR KBUF 181954Z 22010KT 5SM -RA BKN070 OVC095 14/13 A2967 RMK AO2 PK WND 25030/1924 WSHFT 1842 RAB06 SLP048 P0004 T01440133 $,0,10,0,8045,0,0,0,-RA
2026-04-18 19:02:00,SPECI KBUF 181902Z 26017G26KT 10SM BKN080 BKN095 22/12 A2965 RMK AO2 PK WND 26026/1902 WSHFT 1842 T02220117 $,0,17,1,16090,0,0,0,
2026-04-18 18:54:00,METAR KBUF 181854Z 24019G38KT 10SM SCT060 BKN080 BKN120 OVC170 24/12 A2964 RMK AO2 PK WND 24038/1850 SLP036 T02390117 $,0,19,1,16090,0,0,0,
2026-04-18 17:54:00,METAR KBUF 181754Z 19022G33KT 10SM FEW050 FEW100 SCT130 BKN170 BKN200 26/11 A2966 RMK AO2 PK WND 19036/1737 SLP040 T02560106 10261 20172 56024 $,0,22,1,16090,0,0,0,
2026-04-18 16:54:00,METAR KBUF 181654Z 18027G37KT 10SM FEW040 FEW110 SCT130 BKN170 BKN200 26/09 A2967 RMK AO2 PK WND 18041/1611 SLP046 T02560094 $,0,27,1,16090,0,0,0,
2026-04-18 15:54:00,METAR KBUF 181554Z 18020G34KT 10SM FEW090 SCT130 BKN150 OVC210 23/09 A2971 RMK AO2 PK WND 19034/1550 SLP057 T02330094 $,0,20,1,16090,0,0,0,
2026-04-18 14:54:00,METAR KBUF 181454Z 18017G32KT 10SM FEW095 FEW130 BKN170 OVC220 22/11 A2973 RMK AO2 PK WND 19032/1447 SLP065 T02220106 56019 $,0,17,1,16090,0,0,0,
2026-04-18 13:54:00,METAR KBUF 181354Z 18019G29KT 10SM FEW090 SCT130 BKN180 BKN240 21/11 A2975 RMK AO2 PK WND 18029/1347 SLP071 T02110106 $,0,19,1,16090,0,0,0,
2026-04-18 12:54:00,METAR KBUF 181254Z 16011KT 10SM FEW090 BKN130 BKN220 OVC280 20/11 A2977 RMK AO2 SLP079 T02000106 $,0,11,0,16090,0,0,0,
2026-04-18 11:54:00,METAR KBUF 181154Z 16012G18KT 10SM FEW090 BKN130 BKN220 OVC280 17/10 A2979 RMK AO2 SLP085 T01720100 10172 20117 57018 $,0,12,1,16090,0,0,0,
2026-04-18 10:54:00,METAR KBUF 181054Z 16009KT 10SM BKN150 BKN280 16/09 A2981 RMK AO2 SLP092 T01560094 $,0,9,0,16090,0,0,0,
2026-04-18 09:54:00,METAR KBUF 180954Z 15009KT 10SM FEW220 BKN280 15/09 A2982 RMK AO2 SLP097 T01500089 $,0,9,0,16090,0,0,0,
2026-04-18 08:54:00,METAR KBUF 180854Z 15010KT 10SM SCT280 15/09 A2984 RMK AO2 SLP105 T01500094 56026 $,0,10,0,16090,0,0,0,
2026-04-18 07:54:00,METAR KBUF 180754Z 15009KT 10SM SCT280 14/10 A2985 RMK AO2 SLP108 T01440100 $,0,9,0,16090,0,0,0,
2026-04-18 07:06:00,SPECI KBUF 180706Z COR 14009KT 10SM FEW280 14/11 A2988 RMK AO2 T01390106 $,0,9,0,16090,0,0,0,
2026-04-18 07:01:00,SPECI KBUF 180701Z 13009KT 1SM R23/P6000FT HZ CLR 14/11 A2988 RMK AO2 VIS 1/2V5 T01390106 $,0,9,0,1609,0,0,0,
2026-04-18 06:54:00,METAR KBUF 180654Z 13009KT 10SM SCT280 14/11 A2989 RMK AO2 SLP122 T01390106 $,0,9,0,16090,0,0,0,
2026-04-18 05:54:00,METAR KBUF 180554Z 12004KT 8SM BKN280 12/11 A2992 RMK AO2 SLP133 T01170106 10167 20111 58013 $,0,4,0,12872,0,0,0,
2026-04-18 04:54:00,METAR KBUF 180454Z 13006KT 3SM BR OVC280 13/11 A2994 RMK AO2 SLP138 T01330111 401890100 $,0,6,0,4827,0,0,1,BR
2026-04-18 03:54:00,METAR KBUF 180354Z 09003KT 10SM OVC280 13/11 A2995 RMK AO2 SLP144 T01330111 $,0,3,0,16090,0,0,0,
2026-04-18 02:54:00,METAR KBUF 180254Z 11006KT 10SM BKN280 14/12 A2996 RMK AO2 SLP146 T01440117 55001,0,6,0,16090,0,0,0,
2026-04-18 01:54:00,METAR KBUF 180154Z 09008KT 10SM BKN280 15/12 A2994 RMK AO2 SLP139 T01500117,0,8,0,16090,0,0,0,
2026-04-18 00:54:00,METAR KBUF 180054Z 08008KT 10SM BKN280 16/12 A2995 RMK AO2 SLP142 T01610122,0,8,0,16090,0,0,0,
2026-04-17 23:54:00,METAR KBUF 172354Z COR 06008KT 10SM FEW025 BKN280 17/12 A2996 RMK AO2 SLP147 T01670122 10189 20150 58014,0,8,0,16090,0,0,0,
2026-04-17 22:54:00,METAR KBUF 172254Z 05005KT 10SM FEW024 BKN280 18/12 A3000 RMK AO2 SLP158 T01830122,0,5,0,16090,0,0,0,
2026-04-17 21:54:00,METAR KBUF 172154Z 07003KT 10SM FEW026 FEW270 19/12 A3000 RMK AO2 SLP157 T01890117,0,3,0,16090,0,0,0,
2026-04-17 20:54:00,METAR KBUF 172054Z 00000KT 10SM SCT028 18/11 A3001 RMK AO2 SLP162 T01830111 58009,0,0,0,16090,0,0,0,
2026-04-17 19:54:00,METAR KBUF 171954Z 00000KT 10SM SCT023 SCT280 17/11 A3002 RMK AO2 SLP165 T01670111,0,0,0,16090,0,0,0,
2026-04-17 19:26:00,SPECI KBUF 171926Z 00000KT 10SM FEW017 SCT023 SCT280 17/12 A3002 RMK AO2 T01720117,0,0,0,16090,0,0,0,
2026-04-17 18:54:00,METAR KBUF 171854Z 00000KT 10SM FEW017 BKN023 BKN280 16/12 A3003 RMK AO2 SLP170 T01610117,0,0,0,16090,0,0,0,
2026-04-17 17:54:00,METAR KBUF 171754Z 23005KT 10SM SCT016 BKN022 15/12 A3003 RMK AO2 SLP171 60000 T01500117 10156 20106 50002,0,5,0,16090,0,0,0,
2026-04-17 17:18:00,SPECI KBUF 171718Z VRB04KT 10SM SCT011 BKN016 15/12 A3004 RMK AO2 T01500117,0,4,0,16090,0,0,0,
2026-04-17 17:01:00,SPECI KBUF 171701Z 25003KT 10SM BKN011 OVC016 14/11 A3004 RMK AO2 T01440111,0,3,0,16090,0,0,0,
2026-04-17 16:54:00,METAR KBUF 171654Z VRB03KT 10SM BKN009 OVC014 14/12 A3004 RMK AO2 SLP172 T01390117,0,3,0,16090,0,0,0,
2026-04-17 15:54:00,METAR KBUF 171554Z 23004KT 10SM OVC005 12/11 A3003 RMK AO2 SLP170 T01220111 $,0,4,0,16090,0,0,0,
2026-04-17 14:54:00,METAR KBUF 171454Z 27003KT 10SM OVC007 13/11 A3003 RMK AO2 SLP169 60000 T01280111 51020 $,0,3,0,16090,0,0,0,
2026-04-17 13:54:00,METAR KBUF 171354Z 24003KT 10SM OVC007 12/11 A3001 RMK AO2 DZE48 CIG 005V011 SLP162 P0000 T01220106,0,3,0,16090,0,0,0,
2026-04-17 13:35:00,SPECI KBUF 171335Z 26003KT 3SM -DZ BR OVC005 11/11 A3000 RMK AO2 P0000 T01110106,0,3,0,4827,0,0,1,"BR,DZ"
2026-04-17 12:54:00,METAR KBUF 171254Z 26003KT 2SM -DZ BR OVC004 11/11 A2999 RMK AO2 DZB35 SLP157 P0000 T01110106,0,3,0,3218,0,0,1,"BR,DZ"
2026-04-17 12:49:00,SPECI KBUF 171249Z 25004KT 2SM -DZ BR OVC004 11/11 A2999 RMK AO2 DZB35 P0000,0,4,0,3218,0,0,1,"BR,DZ"
2026-04-17 12:36:00,SPECI KBUF 171236Z 31003KT 1 1/2SM -DZ BR OVC004 11/11 A2998 RMK AO2 DZB35 P0000 T01110106,0,3,0,2414,0,0,1,"BR,DZ"
2026-04-17 11:54:00,METAR KBUF 171154Z 35006KT 6SM BR OVC003 11/11 A2997 RMK AO2 SLP150 60003 70079 T01060106 10128 20100 53028,0,6,0,9654,0,0,1,BR
2026-04-17 11:24:00,SPECI KBUF 171124Z 35006KT 3SM BR OVC002 11/11 A2995 RMK AO2 T01060106,0,6,0,4827,0,0,1,BR
2026-04-17 11:14:00,SPECI KBUF 171114Z 35007KT 1 3/4SM BR OVC002 11/11 A2995 RMK AO2 T01060106,0,7,0,2816,0,0,1,BR
2026-04-17 10:54:00,METAR KBUF 171054Z 34006KT 5SM R23/5500VP6000FT BR OVC002 11/11 A2994 RMK AO2 SLP140 T01110106,0,6,0,8045,0,0,1,BR
2026-04-17 10:11:00,SPECI KBUF 171011Z 33007KT 4SM BR OVC003 12/11 A2991 RMK AO2 T01170111,0,7,0,6436,0,0,1,BR
2026-04-17 09:54:00,METAR KBUF 170954Z 31007KT 2 1/2SM BR OVC002 12/11 A2990 RMK AO2 SLP128 T01170111,0,7,0,4022,0,0,1,BR
2026-04-17 08:54:00,METAR KBUF 170854Z 20004KT 5SM BR OVC002 11/10 A2988 RMK AO2 SLP120 60003 T01060100 53012,0,4,0,8045,0,0,1,BR
2026-04-17 07:54:00,METAR KBUF 170754Z 23005KT 8SM OVC002 11/11 A2986 RMK AO2 RAB15E53 SLP114 P0003 T01060106,0,5,0,12872,0,0,0,RA
2026-04-17 07:32:00,SPECI KBUF 170732Z 22004KT 4SM -RA BR OVC002 11/11 A2985 RMK AO2 RAB15 P0002 T01110111,0,4,0,6436,0,0,1,"-RA,BR"
2026-04-17 07:23:00,SPECI KBUF 170723Z 24004KT 2 1/2SM -RA BR OVC002 12/11 A2985 RMK AO2 RAB15 P0000 T01170111,0,4,0,4022,0,0,1,"-RA,BR"
2026-04-17 06:54:00,METAR KBUF 170654Z 21005KT 5SM BR OVC003 11/11 A2985 RMK AO2 CIG 002V005 SLP107 T01110111,0,5,0,8045,0,0,1,BR
2026-04-17 06:43:00,SPECI KBUF 170643Z 22005KT 2 1/2SM BR OVC003 12/11 A2985 RMK AO2 CIG 002V007 T01170111,0,5,0,4022,0,0,1,BR
2026-04-17 06:36:00,SPECI KBUF 170636Z 21005KT 6SM BR OVC005 12/11 A2985 RMK AO2 CIG 002V007 T01170111,0,5,0,9654,0,0,1,BR
2026-04-17 06:03:00,SPECI KBUF 170603Z 00000KT 5SM BR BKN003 OVC007 12/12 A2985 RMK AO2 T01220122,0,0,0,8045,0,0,1,BR
2026-04-17 05:54:00,METAR KBUF 170554Z 20006KT 7SM OVC005 13/12 A2985 RMK AO2 RAE52 SLP106 P0014 60026 T01280117 10150 20128 51004,0,6,0,11263,0,0,0,
2026-04-17 05:49:00,SPECI KBUF 170549Z VRB04KT 10SM -RA OVC005 14/14 A2985 RMK AO2 P0014,0,4,0,16090,0,0,0,-RA
2026-04-17 04:54:00,METAR KBUF 170454Z 25007KT 5SM RA BR OVC003 14/14 A2984 RMK AO2 RAB25 SLP105 P0011 T01390139 402330117,0,7,0,8045,0,0,1,"BR,RA"
2026-04-17 04:41:00,SPECI KBUF 170441Z 25008KT 4SM RA BR OVC003 14/13 A2984 RMK AO2 RAB25 P0005 T01390133,0,8,0,6436,0,0,1,"BR,RA"
2026-04-17 04:32:00,SPECI KBUF 170432Z 24007KT 2SM -RA BR OVC003 14/13 A2984 RMK AO2 RAB25 P0003 T01390133,0,7,0,3218,0,0,1,"-RA,BR"
2026-04-17 04:01:00,SPECI KBUF 170401Z 24007KT 8SM OVC003 14/14 A2984 RMK AO2 T01440139,0,7,0,12872,0,0,0,
2026-04-17 03:54:00,METAR KBUF 170354Z 25006KT 6SM BR SCT008 OVC011 14/14 A2984 RMK AO2 RAB32E45 SLP101 P0001 T01440139,0,6,0,9654,0,0,1,"BR,RA"
2026-04-17 03:23:00,SPECI KBUF 170323Z 23006KT 6SM BR SCT008 OVC011 14/14 A2983 RMK AO2 T01440139,0,6,0,9654,0,0,1,BR
2026-04-17 02:54:00,METAR KBUF 170254Z 22005KT 4SM BR BKN003 OVC011 14/14 A2983 RMK AO2 RAB0155E04 SLP098 P0000 60000 T01440139 50006,0,5,0,6436,0,0,1,"BR,RA"
2026-04-17 02:41:00,SPECI KBUF 170241Z 23006KT 4SM BR BKN003 OVC011 14/14 A2984 RMK AO2 RAB0155E04 P0000 T01440139,0,6,0,6436,0,0,1,"BR,RA"
2026-04-17 02:15:00,SPECI KBUF 170215Z 25008KT 5SM BR SCT003 BKN029 OVC085 15/14 A2984 RMK AO2 RAB0155E04 P0000 T01500139,0,8,0,8045,0,0,1,"BR,RA"
2026-04-17 01:54:00,METAR KBUF 170154Z 25007KT 4SM BR SCT012 BKN019 OVC050 15/14 A2984 RMK AO2 SLP103 T01500144,0,7,0,6436,0,0,1,BR
2026-04-17 01:32:00,SPECI KBUF 170132Z 25005KT 3SM BR OVC012 15/14 A2983 RMK AO2 T01500144,0,5,0,4827,0,0,1,BR
2026-04-17 00:54:00,METAR KBUF 170054Z 23004KT 3SM BR OVC007 15/14 A2982 RMK AO2 SLP097 T01500144,0,4,0,4827,0,0,1,BR
2026-04-17 00:32:00,SPECI KBUF 170032Z 26005KT 3SM BR OVC006 14/14 A2982 RMK AO2 T01440144,0,5,0,4827,0,0,1,BR
2026-04-17 00:12:00,SPECI KBUF 170012Z 24006KT 1 1/2SM BR OVC002 14/14 A2981 RMK AO2 T01440144,0,6,0,2414,0,0,1,BR
2026-04-16 23:54:00,METAR KBUF 162354Z 23009KT 3SM BR OVC002 15/14 A2981 RMK AO2 RAE2255 SLP094 P0000 60050 T01500144 10228 20139 50010,0,9,0,4827,0,0,1,"BR,RA"
2026-04-16 22:54:00,METAR KBUF 162254Z 22011KT 10SM -RA OVC003 14/14 A2982 RMK AO2 SLP097 P0004 T01440139,0,11,0,16090,0,0,0,-RA
2026-04-16 21:54:00,METAR KBUF 162154Z 22007KT 8SM -RA OVC003 14/13 A2979 RMK AO2 SLP090 P0019 T01390133,0,7,0,12872,0,0,0,-RA
2026-04-16 21:30:00,SPECI KBUF 162130Z 22010KT 4SM -RA BR BKN004 OVC033 14/13 A2980 RMK AO2 P0016 T01390133,0,10,0,6436,0,0,1,"-RA,BR"
2026-04-16 20:59:00,SPECI KBUF 162059Z COR 22008KT 2 1/2SM R23/4000VP6000FT RA BR SCT004 BKN019 OVC043 14/14 A2977 RMK AO2 P0007 T01440139,0,8,0,4022,0,0,1,"BR,RA"
2026-04-16 20:54:00,METAR KBUF 162054Z 22009KT 2SM R23/4000VP6000FT +RA BR FEW004 BKN033 OVC055 14/14 A2978 RMK AO2 RAB02 SLP084 P0027 60027 T01440139 53007,0,9,0,3218,0,1,1,"+RA,BR"
2026-04-16 20:44:00,SPECI KBUF 162044Z 23011G19KT 2SM R23/6000VP6000FT RA BR FEW009 BKN042 OVC065 14/13 A2977 RMK AO2 RAB02 P0016 T01440133,0,11,1,3218,0,0,1,"BR,RA"
2026-04-16 20:21:00,SPECI KBUF 162021Z 22008KT 4SM R23/4000VP6000FT RA BR SCT035 BKN042 OVC065 15/14 A2976 RMK AO2 RAB02 P0010 T01500139,0,8,0,6436,0,0,1,"BR,RA"
2026-04-16 20:10:00,SPECI KBUF 162010Z 22009KT 2 1/2SM R23/5000VP6000FT RA BKN036 BKN055 OVC070 16/13 A2976 RMK AO2 RAB02 P0000 T01610133,0,9,0,4022,0,0,0,RA
2026-04-16 19:54:00,METAR KBUF 161954Z 21008KT 10SM SCT032 SCT060 BKN075 BKN160 BKN240 17/13 A2975 RMK AO2 SLP075 T01670133,0,8,0,16090,0,0,0,
2026-04-16 18:54:00,METAR KBUF 161854Z 22013KT 10SM FEW028 FEW075 FEW100 SCT160 BKN240 22/15 A2976 RMK AO2 SLP076 T02170150,0,13,0,16090,0,0,0,
2026-04-16 17:54:00,METAR KBUF 161754Z COR 25016G29KT 10SM FEW028 FEW070 FEW150 FEW200 BKN250 22/16 A2976 RMK AO2 PK WND 25030/1744 TCU DSNT NW-N SLP075 60000 T02220161 10233 20167 58010,0,16,1,16090,0,0,0,DS
2026-04-16 16:54:00,METAR KBUF 161654Z 26017G28KT 10SM FEW028 FEW070 FEW150 FEW200 BKN250 22/16 A2977 RMK AO2 PK WND 23030/1607 SLP080 MDT CU DSNT S T02220161 $,0,17,1,16090,0,0,0,DS
2026-04-16 15:54:00,METAR KBUF 161554Z 23019G34KT 10SM FEW028 FEW055 BKN080 BKN150 BKN260 23/16 A2979 RMK AO2 PK WND 22034/1547 SLP085 T02280161 $,0,19,1,16090,0,0,0,
2026-04-16 14:54:00,METAR KBUF 161454Z 23011G20KT 10SM FEW065 FEW100 BKN150 BKN270 23/16 A2979 RMK AO2 SLP084 60000 T02280161 58013 $,0,11,1,16090,0,0,0,
2026-04-16 13:54:00,METAR KBUF 161354Z 21013KT 10SM FEW049 BKN065 BKN100 OVC150 21/16 A2980 RMK AO2 RAB18E30 SLP089 P0000 T02060156 $,0,13,0,16090,0,0,0,RA
2026-04-16 12:54:00,METAR KBUF 161254Z 20008KT 10SM FEW050 FEW110 BKN160 BKN260 19/16 A2982 RMK AO2 SLP096 T01940161 $,0,8,0,16090,0,0,0,
2026-04-16 11:54:00,METAR KBUF 161154Z 19008KT 10SM FEW050 BKN110 BKN250 17/16 A2983 RMK AO2 SLP099 70059 T01670156 10167 20117 55003 $,0,8,0,16090,0,0,0,
2026-04-16 10:54:00,METAR KBUF 161054Z 19005KT 9SM SCT070 BKN120 BKN250 13/13 A2982 RMK AO2 SLP099 T01280128 $,0,5,0,14481,0,0,0,
2026-04-16 10:05:00,SPECI KBUF 161005Z 19005KT 3SM BR SCT001 BKN075 13/13 A2983 RMK AO2 T01280128 $,0,5,0,4827,0,0,1,BR
2026-04-16 10:02:00,SPECI KBUF 161002Z 19006KT 1 3/4SM BR BKN001 BKN070 13/12 A2982 RMK AO2 T01280122 $,0,6,0,2816,0,0,1,BR
2026-04-16 09:54:00,METAR KBUF 160954Z 19005KT 3/4SM R23/P6000FT BR BKN001 OVC070 13/12 A2982 RMK AO2 SLP098 T01280122 $,0,5,0,1207,0,0,1,BR
2026-04-16 09:40:00,SPECI KBUF 160940Z 20003KT 3/4SM R23/2200VP6000FT BR VV001 13/13 A2982 RMK AO2 T01280128 $,0,3,0,1207,0,0,1,BR
2026-04-16 08:54:00,METAR KBUF 160854Z 23006KT 1 1/2SM R23/2800V4500FT BR OVC001 13/13 A2983 RMK AO2 SLP101 T01330133 56003 $,0,6,0,2414,0,0,1,BR
2026-04-16 08:43:00,SPECI KBUF 160843Z 23007KT 1SM R23/2600V3500FT BR VV001 13/13 A2984 RMK AO2 T01330133 $,0,7,0,1609,0,0,1,BR
2026-04-16 08:14:00,SPECI KBUF 160814Z 22010KT 3/4SM R23/3500VP6000FT BR VV002 13/13 A2984 RMK AO2 T01330133 $,0,10,0,1207,0,0,1,BR
2026-04-16 07:54:00,METAR KBUF 160754Z 21007KT 2SM BR OVC002 13/13 A2984 RMK AO2 SLP102 T01280128 $,0,7,0,3218,0,0,1,BR
2026-04-16 07:50:00,SPECI KBUF 160750Z 22006KT 2SM BR OVC002 13/12 A2984 RMK AO2 $,0,6,0,3218,0,0,1,BR
2026-04-16 07:29:00,SPECI KBUF 160729Z 21009KT 1SM R23/5000VP6000FT BR VV002 12/12 A2984 RMK AO2 T01220117 $,0,9,0,1609,0,0,1,BR
2026-04-16 06:54:00,METAR KBUF 160654Z 20010KT 1/2SM R23/2600V3500FT FG VV002 12/12 A2984 RMK AO2 SLP106 T01170117 $,0,10,0,804,0,0,1,FG
2026-04-16 06:04:00,SPECI KBUF 160604Z 20009KT 1/2SM R23/2600V4500FT FG VV002 12/12 A2987 RMK AO2 T01220117 $,0,9,0,804,0,0,1,FG
2026-04-16 05:54:00,METAR KBUF 160554Z 20009KT 1 1/4SM R23/5000VP6000FT BR OVC003 12/12 A2986 RMK AO2 SLP113 60046 T01220117 10178 20117 50002 $,0,9,0,2011,0,0,1,BR
2026-04-16 05:52:00,SPECI KBUF 160552Z 21008KT 1 3/4SM R23/5000VP6000FT BR OVC003 12/12 A2986 RMK AO2 $,0,8,0,2816,0,0,1,BR
2026-04-16 05:40:00,SPECI KBUF 160540Z 20009KT 3SM BR OVC002 12/12 A2987 RMK AO2 T01170117 $,0,9,0,4827,0,0,1,BR
2026-04-16 05:19:00,SPECI KBUF 160519Z 20008KT 1 3/4SM BR OVC002 12/12 A2987 RMK AO2 T01220117 $,0,8,0,2816,0,0,1,BR
2026-04-16 04:54:00,METAR KBUF 160454Z 23007KT 4SM BR OVC002 13/12 A2987 RMK AO2 SLP116 T01280122 402220122 $,0,7,0,6436,0,0,1,BR
2026-04-16 04:34:00,SPECI KBUF 160434Z 22009KT 4SM BR OVC002 13/12 A2987 RMK AO2 T01280122 $,0,9,0,6436,0,0,1,BR
2026-04-16 04:16:00,SPECI KBUF 160416Z 22010KT 2SM BR OVC003 13/13 A2987 RMK AO2 T01330128 $,0,10,0,3218,0,0,1,BR
2026-04-16 04:09:00,SPECI KBUF 160409Z 22012G20KT 3SM BR BKN003 OVC016 13/13 A2987 RMK AO2 T01330128 $,0,12,1,4827,0,0,1,BR
2026-04-16 03:58:00,SPECI KBUF 160358Z 23016G20KT 10SM BKN005 OVC016 14/13 A2986 RMK AO2 CIG 003V008 T01440133 $,0,16,1,16090,0,0,0,
2026-04-16 03:54:00,METAR KBUF 160354Z 24013G23KT 10SM SCT022 BKN030 BKN042 OVC140 15/14 A2986 RMK AO2 PK WND 22027/0318 SLP111 T01500139 $,0,13,1,16090,0,0,0,
2026-04-16 03:01:00,SPECI KBUF 160301Z 23014KT 10SM SCT019 BKN034 BKN120 OVC140 18/16 A2985 RMK AO2 T01780156 $,0,14,0,16090,0,0,0,
2026-04-16 02:54:00,METAR KBUF 160254Z 22013G18KT 10SM BKN019 BKN120 18/16 A2986 RMK AO2 SLP109 60046 T01780156 51006 $,0,13,1,16090,0,0,0,
2026-04-16 01:54:00,METAR KBUF 160154Z 22007KT 10SM FEW003 OVC019 17/16 A2986 RMK AO2 SLP109 T01720161 $,0,7,0,16090,0,0,0,
2026-04-16 01:29:00,SPECI KBUF 160129Z 19007KT 9SM SCT003 OVC022 17/16 A2986 RMK AO2 T01670161 $,0,7,0,14481,0,0,0,
2026-04-16 01:06:00,SPECI KBUF 160106Z 18007KT 7SM BKN003 OVC027 16/16 A2986 RMK AO2 T01610161 $,0,7,0,11263,0,0,0,
2026-04-16 00:54:00,METAR KBUF 160054Z COR 18007KT 8SM BKN005 BKN030 OVC090 16/16 A2986 RMK AO2 SLP109 TSB2359E24 RAE53 TS MOVD E CB DSNT NE-SE P0046 T01610156 $,0,7,0,12872,1,0,0,"DS,TS"
2026-04-16 00:47:00,SPECI KBUF 160047Z 18006KT 7SM -RA SCT005 BKN030 OVC110 16/16 A2985 RMK AO2 TSB2359E24 TS MOVD E CB DSNT NE-SE P0046 T01610156 $,0,6,0,11263,1,0,0,"-RA,DS,TS"
2026-04-16 00:29:00,SPECI KBUF 160029Z 15009G15KT 3SM RA BR FEW034 BKN070 OVC110 16/15 A2984 RMK AO2 TSB2359E24 TS MOVD E CB DSNT NE-SE P0043 T01560150 $,0,9,1,4827,1,0,1,"BR,DS,RA,TS"
2026-04-16 00:13:00,SPECI KBUF 160013Z COR 24006KT 3SM TSRA BR FEW013 BKN026CB OVC075 16/15 A2986 RMK AO2 TSB2359 OCNL LTGIC S-OHD-N TS S-OHD-N MOV E P0035 T01560150 $,0,6,0,4827,1,0,1,"BR,RA,TS"
2026-04-16 00:02:00,SPECI KBUF 160002Z 31009G18KT 3/4SM +TSRA BR SCT018CB BKN026 OVC032 16/15 A2985 RMK AO2 TSB2359 OCNL LTGIC VC SW-NW TS VC SW-NW MOV E P0002 T01560150 RVRNO $,0,9,1,1207,1,0,1,"BR,RA,TS,VC"
2026-04-15 23:54:00,METAR KBUF 152354Z COR 33005KT 5SM RA BR BKN028 BKN033 OVC042 16/14 A2984 RMK AO2 TSE26 SLP104 OCNL LTGIC DSNT SW-W TS MOVD E CB DSNT SW-W AND N-NE MOV E P0013 60013 T01560144 10222 20156 55001 $,0,5,0,8045,1,0,1,"BR,DS,RA,TS"
2026-04-15 23:35:00,SPECI KBUF 152335Z 34006KT 5SM RA BR BKN028 OVC033 16/14 A2984 RMK AO2 TSE26 TS MOVD E CB DSNT NW-NE MOV E P0007 T01560144 $,0,6,0,8045,1,0,1,"BR,DS,RA,TS"
2026-04-15 23:27:00,SPECI KBUF 152327Z 31007KT 6SM RA BR BKN030 OVC075 16/14 A2984 RMK AO2 TSE26 TS MOVD E CB DSNT NW-NE MOV E P0004 T01610144 $,0,7,0,9654,1,0,1,"BR,DS,RA,TS"
2026-04-15 22:54:00,METAR KBUF 152254Z COR 23003KT 10SM -TSRA SCT048CB BKN065 OVC110 18/14 A2982 RMK AO2 RAB25 TSB45 SLP097 FRQ LTGCGICCC VC W-N TS VC W-N MOV E P0000 T01830144 $,0,3,0,16090,1,0,0,"RA,TS,VC"
2026-04-15 22:47:00,SPECI KBUF 152247Z 22005KT 10SM -TSRA SCT050CB BKN070 OVC120 18/14 A2983 RMK AO2 RAB25 TSB45 FRQ LTGCGICCC VC W-NW TS VC W-NW MOV E P0000 T01830144 $,0,5,0,16090,1,0,0,"RA,TS,VC"
2026-04-15 21:54:00,METAR KBUF 152154Z 22007KT 10SM SCT055 BKN080 BKN140 19/13 A2984 RMK AO2 SLP103 T01890133 $,0,7,0,16090,0,0,0,
2026-04-15 20:54:00,METAR KBUF 152054Z COR 20007KT 10SM FEW030 SCT050 BKN090 BKN140 BKN210 21/14 A2984 RMK AO2 SLP104 60000 T02110144 58008 $,0,7,0,16090,0,0,0,
2026-04-15 19:54:00,METAR KBUF 151954Z 25009KT 10SM FEW028 FEW110 FEW160 FEW210 BKN260 22/14 A2986 RMK AO2 SLP108 T02220144 $,0,9,0,16090,0,0,0,
2026-04-15 18:54:00,METAR KBUF 151854Z 26014KT 10SM FEW022 FEW110 FEW170 FEW220 SCT270 19/13 A2987 RMK AO2 RAE17 SLP113 P0000 T01940133,0,14,0,16090,0,0,0,
2026-04-15 17:54:00,METAR KBUF 151754Z 24010G19KT 10SM -RA FEW020 FEW055 BKN110 BKN250 18/13 A2987 RMK AO2 RAB44 SLP113 P0000 60000 T01780128 10200 20167 50007,0,10,1,16090,0,0,0,-RA
2026-04-15 16:54:00,METAR KBUF 151654Z COR 24011KT 10SM FEW018 FEW055 FEW150 BKN220 BKN270 17/12 A2988 RMK AO2 PK WND 25027/1604 SLP119 VIRGA DSNT SW-NW-N T01670122,0,11,0,16090,0,0,0,DS
2026-04-15 15:54:00,METAR KBUF 151554Z COR 23015G22KT 10SM FEW018 FEW150 BKN220 BKN270 17/13 A2988 RMK AO2 PK WND 24031/1458 VIRGA DSNT SW-NW SLP117 T01720128,0,15,1,16090,0,0,0,DS
2026-04-15 14:54:00,METAR KBUF 151454Z 26019G33KT 10SM FEW034 FEW100 BKN200 BKN270 20/13 A2984 RMK AO2 PK WND 24033/1447 SLP105 VIRGA DSNT W-N T02000133 51014,0,19,1,16090,0,0,0,DS
2026-04-15 13:54:00,METAR KBUF 151354Z 24020G27KT 10SM FEW032 FEW100 FEW140 BKN200 BKN270 18/13 A2984 RMK AO2 PK WND 25027/1334 SLP103 VIRGA DSNT W-N T01830128,0,20,1,16090,0,0,0,DS
2026-04-15 12:54:00,METAR KBUF 151254Z 24016G29KT 10SM SCT032 SCT100 BKN170 BKN250 18/12 A2983 RMK AO2 PK WND 24029/1249 SLP101 T01780122,0,16,1,16090,0,0,0,
2026-04-15 11:54:00,METAR KBUF 151154Z 22010G16KT 10SM FEW040 FEW100 BKN160 BKN250 18/15 A2980 RMK AO2 SLP091 60010 70012 T01780150 10178 20122 51008,0,10,1,16090,0,0,0,
2026-04-15 10:54:00,METAR KBUF 151054Z 19009KT 10SM FEW040 OVC090 17/16 A2979 RMK AO2 RAE45 TSE00 SLP086 CB DSNT NE AND SE MOV E TS MOVD E P0002 T01720156,0,9,0,16090,1,0,0,"DS,TS"
2026-04-15 10:01:00,SPECI KBUF 151001Z 19014G20KT 8SM -RA FEW040 OVC090 17/15 A2980 RMK AO2 TSE00 FRQ LTGIC DSNT NE-E-S CB DSNT NE-E-S MOV E TS MOVD E P0001 T01670150,0,14,1,12872,1,0,0,"-RA,DS,TS"
2026-04-15 09:54:00,METAR KBUF 150954Z 21010KT 9SM TSRA SCT040CB BKN070 OVC160 16/15 A2982 RMK AO2 RAB14 TSB17 SLP095 FRQ LTGICCCCA VC NE-E-S TS VC NE-E-S MOV E P0008 T01610150,0,10,0,14481,1,0,0,"RA,TS,VC"
2026-04-15 09:17:00,SPECI KBUF 150917Z 19005KT 10SM -TSRA SCT040CB BKN075 OVC160 16/14 A2979 RMK AO2 RAB14 TSB17 FRQ LTGICCCCA VC SW-NW-N TS VC SW-NW-N MOV E P0000 T01610144,0,5,0,16090,1,0,0,"RA,TS,VC"
2026-04-15 08:54:00,METAR KBUF 150854Z 14008KT 10SM FEW060 SCT090 OVC160 16/14 A2978 RMK AO2 SLP082 OCNL LTGIC DSNT SW-NW CB DSNT SW-NW MOV E T01560139 58030,0,8,0,16090,0,0,0,DS
2026-04-15 07:54:00,METAR KBUF 150754Z 16004KT 10SM FEW060 SCT090 OVC200 14/12 A2982 RMK AO2 SLP095 T01390122,0,4,0,16090,0,0,0,
2026-04-15 06:54:00,METAR KBUF 150654Z 12006KT 10SM FEW060 SCT090 BKN250 13/11 A2983 RMK AO2 SLP101 T01280106,0,6,0,16090,0,0,0,
2026-04-15 05:54:00,METAR KBUF 150554Z 10004KT 10SM FEW080 BKN250 12/11 A2987 RMK AO2 SLP113 T01220111 10144 20122 58022,0,4,0,16090,0,0,0,
2026-04-15 04:54:00,METAR KBUF 150454Z 07005KT 10SM SCT080 BKN250 13/12 A2990 RMK AO2 SLP122 T01280117 402220122,0,5,0,16090,0,0,0,
2026-04-15 03:54:00,METAR KBUF 150354Z 00000KT 9SM BKN080 BKN250 13/12 A2992 RMK AO2 SLP132 T01280117,0,0,0,14481,0,0,0,
2026-04-15 02:54:00,METAR KBUF 150254Z 21007KT 10SM BKN055 OVC080 14/12 A2993 RMK AO2 SLP135 T01440117 52019,0,7,0,16090,0,0,0,
2026-04-15 01:54:00,METAR KBUF 150154Z 28003KT 10SM BKN070 BKN280 13/12 A2992 RMK AO2 SLP131 T01330117,0,3,0,16090,0,0,0,
2026-04-15 00:54:00,METAR KBUF 150054Z 22007KT 10SM FEW095 FEW280 13/11 A2989 RMK AO2 SLP120 T01330111,0,7,0,16090,0,0,0,
2026-04-14 23:54:00,METAR KBUF 142354Z 21009KT 10SM FEW095 FEW250 13/11 A2988 RMK AO2 SLP117 T01280111 10217 20128 51014,0,9,0,16090,0,0,0,
2026-04-14 22:54:00,METAR KBUF 142254Z 23009KT 10SM FEW080 BKN240 19/13 A2987 RMK AO2 SLP112 T01940133,0,9,0,16090,0,0,0,
2026-04-14 21:54:00,METAR KBUF 142154Z 23010KT 10SM FEW040 FEW200 SCT270 19/14 A2985 RMK AO2 PK WND 24026/2103 SLP109 T01940139,0,10,0,16090,0,0,0,
2026-04-14 20:54:00,METAR KBUF 142054Z 24017G26KT 10SM FEW040 FEW150 SCT220 BKN270 20/14 A2983 RMK AO2 PK WND 25032/1958 SLP101 CB DSNT SE MOV E T02000139 53005,0,17,1,16090,0,0,0,DS
2026-04-14 19:54:00,METAR KBUF 141954Z 24021G38KT 10SM FEW027 FEW070 FEW170 SCT220 BKN270 22/15 A2982 RMK AO2 PK WND 24042/1855 SLP096 FRQ LTGIC DSNT SE-S CB DSNT E-S-SW MOV E T02170150,0,21,1,16090,0,0,0,DS
2026-04-14 18:54:00,METAR KBUF 141854Z 24025G42KT 10SM FEW025 FEW045 BKN070 BKN200 BKN250 21/16 A2982 RMK AO2 PK WND 24045/1820 SLP097 TCU DSNT SE-SW MDT CU DSNT NW T02060156,0,25,1,16090,0,0,0,DS
2026-04-14 18:37:00,SPECI KBUF 141837Z 24025G39KT 10SM SCT025 SCT045 BKN070 BKN250 21/16 A2982 RMK AO2 PK WND 24045/1820 T02110156,0,25,1,16090,0,0,0,
2026-04-14 17:54:00,METAR KBUF 141754Z 25019G35KT 10SM BKN027 BKN040 OVC070 21/15 A2982 RMK AO2 PK WND 23035/1745 SLP096 60002 T02110150 10222 20172 53004,0,19,1,16090,0,0,0,
2026-04-14 17:33:00,SPECI KBUF 141733Z 23021G34KT 10SM BKN027 OVC040 21/15 A2982 RMK AO2 PK WND 22034/1703 T02060150,0,21,1,16090,0,0,0,
2026-04-14 16:54:00,METAR KBUF 141654Z 23019G32KT 10SM BKN031 BKN043 BKN170 BKN250 21/15 A2981 RMK AO2 PK WND 23042/1632 SLP094 T02110150,0,19,1,16090,0,0,0,
2026-04-14 15:54:00,METAR KBUF 141554Z 22022G36KT 10SM SCT029 SCT075 BKN170 BKN250 22/15 A2979 RMK AO2 PK WND 21037/1521 SLP086 T02170150,0,22,1,16090,0,0,0,
2026-04-14 15:51:00,SPECI KBUF 141551Z 22021G36KT 10SM SCT029 SCT075 BKN170 BKN250 22/15 A2979 RMK AO2 PK WND 21037/1521,0,21,1,16090,0,0,0,
2026-04-14 15:26:00,SPECI KBUF 141526Z 22022G37KT 10SM OVC029 21/14 A2980 RMK AO2 PK WND 21037/1521 T02060144,0,22,1,16090,0,0,0,
2026-04-14 14:54:00,METAR KBUF 141454Z 22018G26KT 10SM BKN030 OVC075 21/14 A2981 RMK AO2 PK WND 22026/1453 RAB24E44 TSE24 SLP093 TS MOVD E P0000 60002 T02060144 56021,0,18,1,16090,1,0,0,"RA,TS"
2026-04-14 14:27:00,SPECI KBUF 141427Z 21016G24KT 10SM -RA BKN032 BKN085 OVC260 20/14 A2982 RMK AO2 RAB24 TSE24 TS MOVD E P0000 T02000139,0,16,1,16090,1,0,0,"-RA,TS"
2026-04-14 13:54:00,METAR KBUF 141354Z 21016G24KT 10SM TS BKN038CB BKN050 OVC085 21/14 A2982 RMK AO2 PK WND 20028/1334 TSB52 SLP098 FRQ LTGICCCCG VC W-NW TS VC W-NW MOV E SHRA VC W-NW T02060144,0,16,1,16090,1,0,0,"RA,SH,TS,VC"
2026-04-14 12:54:00,METAR KBUF 141254Z 19012KT 10SM FEW040 FEW055 FEW090 SCT200 BKN270 19/14 A2982 RMK AO2 RAE04 SLP099 CB DSNT NE-E MOV E P0002 T01890139,0,12,0,16090,0,0,0,DS
2026-04-14 11:54:00,METAR KBUF 141154Z 19014KT 10SM RA SCT040 BKN085 OVC200 17/13 A2987 RMK AO2 RAB50 SLP114 OCNL LTGIC DSNT S-SW CB DSNT S-SW MOV E P0000 60000 70031 T01720133 10178 20133 56016,0,14,0,16090,0,0,0,"DS,RA"
2026-04-14 10:54:00,METAR KBUF 141054Z 19009KT 10SM FEW035 BKN100 OVC220 15/13 A2989 RMK AO2 SLP121 T01500128 $,0,9,0,16090,0,0,0,
2026-04-14 09:54:00,METAR KBUF 140954Z COR 15006KT 10SM FEW030 OVC100 14/13 A2989 RMK AO2 SLP122 T01390128 $,0,6,0,16090,0,0,0,
2026-04-14 09:04:00,SPECI KBUF 140904Z 17007KT 5SM BR OVC100 14/13 A2991 RMK AO2 T01390128 $,0,7,0,8045,0,0,1,BR
2026-04-14 09:01:00,SPECI KBUF 140901Z 18006KT 1 1/4SM BR OVC100 14/13 A2991 RMK AO2 T01390128 $,0,6,0,2011,0,0,1,BR
2026-04-14 08:54:00,METAR KBUF 140854Z 18007KT 10SM OVC100 14/13 A2992 RMK AO2 RAB0758E21 SLP130 P0000 60000 T01390128 56020 $,0,7,0,16090,0,0,0,RA
2026-04-14 08:40:00,SPECI KBUF 140840Z 19007KT 5SM BR FEW075 OVC095 14/13 A2992 RMK AO2 RAB0758E21 P0000 T01390128 $,0,7,0,8045,0,0,1,"BR,RA"
2026-04-14 08:12:00,SPECI KBUF 140812Z 20005KT 1/4SM R23/P6000FT -RA FG FEW060 BKN090 OVC110 13/13 A2992 RMK AO2 RAB0758 P0000 T01330128 $,0,5,0,402,0,0,1,"-RA,FG,RA"
2026-04-14 07:54:00,METAR KBUF 140754Z 26005KT 10SM SCT055 BKN070 OVC120 14/13 A2994 RMK AO2 SLP139 T01390128 $,0,5,0,16090,0,0,0,
2026-04-14 06:54:00,METAR KBUF 140654Z 21010KT 10SM FEW005 SCT040 OVC220 14/13 A2995 RMK AO2 SLP142 T01390128 $,0,10,0,16090,0,0,0,
2026-04-14 06:39:00,SPECI KBUF 140639Z 22010KT 10SM FEW005 SCT040 OVC220 14/13 A2996 RMK AO2 T01440133 $,0,10,0,16090,0,0,0,
2026-04-14 05:54:00,METAR KBUF 140554Z 20008KT 10SM BKN220 13/12 A2998 RMK AO2 SLP152 T01330122 10144 20106 53001 $,0,8,0,16090,0,0,0,
2026-04-14 05:40:00,SPECI KBUF 140540Z 21011KT 10SM BKN220 13/12 A2997 RMK AO2 T01330117 $,0,11,0,16090,0,0,0,
2026-04-14 05:33:00,SPECI KBUF 140533Z COR 14006KT 10SM BKN220 14/12 A2995 RMK AO2 VIS 1/2V5 T01390122 $,0,6,0,16090,0,0,0,
2026-04-14 04:54:00,METAR KBUF 140454Z 13006KT 10SM BKN220 14/13 A2995 RMK AO2 SLP144 T01440128 402000106 $,0,6,0,16090,0,0,0,
2026-04-14 03:54:00,METAR KBUF 140354Z 12005KT 10SM FEW150 BKN250 13/11 A2997 RMK AO2 SLP148 T01280111 $,0,5,0,16090,0,0,0,
2026-04-14 02:54:00,METAR KBUF 140254Z 16005KT 10SM FEW045 FEW130 BKN280 12/10 A2998 RMK AO2 SLP152 T01170100 50008 $,0,5,0,16090,0,0,0,
2026-04-14 01:54:00,METAR KBUF 140154Z 20003KT 10SM FEW045 BKN280 11/09 A2998 RMK AO2 SLP155 T01110094 $,0,3,0,16090,0,0,0,
2026-04-14 00:54:00,METAR KBUF 140054Z 19006KT 10SM FEW045 FEW055 BKN280 11/09 A2997 RMK AO2 SLP151 T01110094 $,0,6,0,16090,0,0,0,
2026-04-13 23:54:00,METAR KBUF 132354Z 18006KT 10SM FEW060 FEW200 BKN280 12/10 A2995 RMK AO2 SLP143 T01220100 10172 20122 51017 $,0,6,0,16090,0,0,0,
2026-04-13 22:54:00,METAR KBUF 132254Z 23010KT 10SM FEW035 FEW060 FEW280 16/12 A2994 RMK AO2 SLP138 T01560122 $,0,10,0,16090,0,0,0,
2026-04-13 21:54:00,METAR KBUF 132154Z 23009KT 10SM FEW035 SCT045 BKN060 BKN280 16/12 A2993 RMK AO2 PK WND 24026/2115 SLP133 T01560117 $,0,9,0,16090,0,0,0,
2026-04-13 20:54:00,METAR KBUF 132054Z 23013G24KT 10SM FEW035 SCT045 SCT280 17/12 A2990 RMK AO2 PK WND 24028/2039 SLP124 T01670122 50002 $,0,13,1,16090,0,0,0,
2026-04-13 20:02:00,SPECI KBUF 132002Z 23016G27KT 10SM FEW037 BKN060 BKN120 16/12 A2990 RMK AO2 PK WND 22027/1955 T01560117 $,0,16,1,16090,0,0,0,
2026-04-13 19:54:00,METAR KBUF 131954Z COR 23016G25KT 10SM R23/P6000FT FEW037 BKN060 BKN120 15/11 A2991 RMK AO2 PK WND 24028/1925 SLP126 T01500111 $,0,16,1,16090,0,0,0,
2026-04-13 18:54:00,METAR KBUF 131854Z 24018G26KT 10SM FEW033 BKN046 BKN110 15/11 A2990 RMK AO2 PK WND 23030/1757 SLP125 T01500111 $,0,18,1,16090,0,0,0,
2026-04-13 17:54:00,METAR KBUF 131754Z 23020G30KT 10SM FEW030 SCT037 BKN046 BKN130 15/12 A2990 RMK AO2 PK WND 24031/1709 SLP122 60031 T01500117 10172 20111 50008 $,0,20,1,16090,0,0,0,
2026-04-13 16:54:00,METAR KBUF 131654Z 24020G32KT 10SM BKN030 BKN050 BKN100 14/11 A2990 RMK AO2 PK WND 23033/1620 SLP123 T01390111 $,0,20,1,16090,0,0,0,
2026-04-13 16:32:00,SPECI KBUF 131632Z 23020G30KT 10SM BKN027 BKN050 BKN100 14/11 A2989 RMK AO2 PK WND 23033/1620 T01440111 $,0,20,1,16090,0,0,0,
2026-04-13 15:54:00,METAR KBUF 131554Z 23017G25KT 10SM FEW012 FEW050 SCT100 14/11 A2989 RMK AO2 PK WND 23032/1510 RAE00 SLP120 P0000 T01440111 $,0,17,1,16090,0,0,0,
2026-04-13 14:54:00,METAR KBUF 131454Z 24018G29KT 7SM -RA SCT006 SCT021 OVC045 11/10 A2987 RMK AO2 PK WND 22034/1412 SLP115 P0010 60031 T01110100 53011 $,0,18,1,11263,0,0,0,-RA
2026-04-13 14:18:00,SPECI KBUF 131418Z 24021G34KT 3SM R23/4500VP6000FT -RA BR OVC005 12/12 A2986 RMK AO2 PK WND 22034/1412 CIG 003V010 P0009 T01220117 $,0,21,1,4827,0,0,1,"-RA,BR"
2026-04-13 13:54:00,METAR KBUF 131354Z 23022G35KT 1 1/4SM R23/4000VP6000FT +RA BR BKN007 BKN013 OVC019 13/13 A2985 RMK AO2 PK WND 26039/1305 SLP107 P0020 T01330128 $,0,22,1,2011,0,1,1,"+RA,BR"
2026-04-13 13:51:00,SPECI KBUF 131351Z 23022G35KT 1 1/4SM R23/4000VP6000FT +RA BR BKN007 BKN013 OVC019 13/13 A2985 RMK AO2 PK WND 26039/1305 P0018 $,0,22,1,2011,0,1,1,"+RA,BR"
2026-04-13 13:35:00,SPECI KBUF 131335Z 23024G37KT 3/4SM R23/4000V5000FT +RA BR FEW009 BKN019 OVC031 14/13 A2984 RMK AO2 PK WND 26039/1305 P0007 T01390128 $,0,24,1,1207,0,1,1,"+RA,BR"
2026-04-13 13:28:00,SPECI KBUF 131328Z 23023G34KT 1 1/4SM R23/4000VP6000FT +RA BR FEW009 BKN021 OVC031 14/13 A2984 RMK AO2 PK WND 26039/1305 P0002 T01390128 $,0,23,1,2011,0,1,1,"+RA,BR"
2026-04-13 13:15:00,SPECI KBUF 131315Z 24021G36KT 2SM -RA BR FEW019 BKN029 OVC038 14/12 A2985 RMK AO2 PK WND 26039/1305 P0000 T01440122 $,0,21,1,3218,0,0,1,"-RA,BR"
2026-04-13 12:54:00,METAR KBUF 131254Z 22015G27KT 10SM -RA BKN043 OVC060 17/12 A2984 RMK AO2 PK WND 21027/1249 RAE14B35 SLP103 PCPN VRY LGT P0001 T01720117 $,0,15,1,16090,0,0,0,"-RA,RA"
2026-04-13 11:54:00,METAR KBUF 131154Z 21015G26KT 8SM -RA BKN055 OVC100 14/11 A2986 RMK AO2 PK WND 24032/1105 SLP111 P0000 60000 T01390111 10200 20122 55002 $,0,15,1,12872,0,0,0,-RA
2026-04-13 10:54:00,METAR KBUF 131054Z 25020G33KT 10SM -RA FEW070 OVC100 17/09 A2986 RMK AO2 PK WND 26033/1054 RAB51 SLP109 P0000 T01720089 $,0,20,1,16090,0,0,0,-RA
2026-04-13 09:54:00,METAR KBUF 130954Z COR 23016G23KT 10SM BKN120 BKN250 19/08 A2986 RMK AO2 SLP110 T01940083 $,0,16,1,16090,0,0,0,
2026-04-13 08:54:00,METAR KBUF 130854Z 20012KT 10SM BKN100 BKN250 19/08 A2987 RMK AO2 SLP111 T01940083 58009 $,0,12,0,16090,0,0,0,
2026-04-13 07:54:00,METAR KBUF 130754Z 22010G18KT 10SM BKN110 BKN250 19/08 A2989 RMK AO2 SLP119 T01940083 $,0,10,1,16090,0,0,0,
2026-04-13 06:54:00,METAR KBUF 130654Z 19012KT 10SM BKN110 BKN250 19/09 A2988 RMK AO2 SLP117 T01940089 $,0,12,0,16090,0,0,0,
2026-04-13 05:54:00,METAR KBUF 130554Z 20012KT 10SM FEW080 BKN250 19/09 A2990 RMK AO2 SLP123 T01940094 10206 20183 56007 $,0,12,0,16090,0,0,0,
2026-04-13 04:54:00,METAR KBUF 130454Z 20015KT 10SM BKN250 20/09 A2990 RMK AO2 SLP125 T02000094 402110006 $,0,15,0,16090,0,0,0,
2026-04-13 03:54:00,METAR KBUF 130354Z 20015KT 10SM FEW130 BKN230 21/09 A2990 RMK AO2 SLP124 T02060094 $,0,15,0,16090,0,0,0,
2026-04-13 02:54:00,METAR KBUF 130254Z 19014KT 10SM FEW140 BKN240 19/09 A2992 RMK AO2 SLP131 T01940089 58020 $,0,14,0,16090,0,0,0,
2026-04-13 01:54:00,METAR KBUF 130154Z 20009KT 10SM FEW140 BKN270 19/08 A2995 RMK AO2 SLP142 T01890083 $,0,9,0,16090,0,0,0,
2026-04-13 00:54:00,METAR KBUF 130054Z 19010KT 10SM FEW100 FEW140 BKN270 19/07 A2996 RMK AO2 SLP147 T01890072 $,0,10,0,16090,0,0,0,
2026-04-12 23:54:00,METAR KBUF 122354Z 19012KT 10SM FEW065 FEW095 BKN270 20/06 A2998 RMK AO2 SLP153 60000 T02000061 10211 20122 58024 $,0,12,0,16090,0,0,0,
2026-04-12 22:54:00,METAR KBUF 122254Z 20012KT 10SM SCT065 SCT095 BKN270 21/06 A3000 RMK AO2 SLP161 T02060061 $,0,12,0,16090,0,0,0,
2026-04-12 21:54:00,METAR KBUF 122154Z 19012KT 10SM BKN065 BKN095 BKN270 21/07 A3003 RMK AO2 SLP169 T02060067 $,0,12,0,16090,0,0,0,
2026-04-12 20:54:00,METAR KBUF 122054Z 20007KT 10SM SCT095 BKN110 BKN270 20/05 A3005 RMK AO2 SLP177 60000 T02000050 56042 $,0,7,0,16090,0,0,0,
2026-04-12 19:54:00,METAR KBUF 121954Z 17007KT 10SM SCT070 BKN080 OVC100 17/04 A3008 RMK AO2 RAE1855 SLP190 P0000 T01670039 $,0,7,0,16090,0,0,0,RA
2026-04-12 18:54:00,METAR KBUF 121854Z 09005KT 10SM -RA SCT070 OVC100 13/04 A3013 RMK AO2 RAB09 SLP208 P0000 T01280039 $,0,5,0,16090,0,0,0,-RA
2026-04-12 17:54:00,METAR KBUF 121754Z 05007KT 10SM BKN070 BKN085 OVC130 12/01 A3018 RMK AO2 RAB07E19 SLP224 P0000 60000 T01220011 10122 20050 58029 $,0,7,0,16090,0,0,0,RA
2026-04-12 16:54:00,METAR KBUF 121654Z 10003KT 10SM BKN080 OVC130 12/00 A3020 RMK AO2 SLP232 T01220000 $,0,3,0,16090,0,0,0,
2026-04-12 15:54:00,METAR KBUF 121554Z 12003KT 10SM BKN085 OVC130 11/M01 A3024 RMK AO2 SLP247 T01061011 $,0,3,0,16090,0,0,0,
2026-04-12 14:54:00,METAR KBUF 121454Z 13005KT 10SM FEW080 BKN100 OVC140 09/M02 A3027 RMK AO2 SLP254 T00891017 58024 $,0,5,0,16090,0,0,0,
2026-04-12 13:54:00,METAR KBUF 121354Z 14009KT 10SM FEW090 BKN110 OVC140 08/M02 A3030 RMK AO2 SLP265 T00781022 $,0,9,0,16090,0,0,0,
2026-04-12 12:54:00,METAR KBUF 121254Z 14007KT 10SM BKN100 OVC140 07/M03 A3032 RMK AO2 SLP274 T00671028 $,0,7,0,16090,0,0,0,
2026-04-12 11:54:00,METAR KBUF 121154Z 13006KT 10SM BKN100 OVC140 05/M03 A3034 RMK AO2 SLP280 T00501033 10050 20006 58003 $,0,6,0,16090,0,0,0,
2026-04-12 10:54:00,METAR KBUF 121054Z 10008KT 10SM BKN100 BKN150 03/M03 A3034 RMK AO2 SLP281 T00331028 $,0,8,0,16090,0,0,0,
2026-04-12 09:54:00,METAR KBUF 120954Z 10007KT 10SM BKN110 OVC170 03/M03 A3036 RMK AO2 SLP286 T00331028 $,0,7,0,16090,0,0,0,
2026-04-12 08:54:00,METAR KBUF 120854Z 13011KT 10SM OVC100 02/M02 A3035 RMK AO2 PRESFR SLP284 T00221022 58015 $,0,11,0,16090,0,0,0,
2026-04-12 07:54:00,METAR KBUF 120754Z 10005KT 10SM BKN110 BKN180 02/M02 A3039 RMK AO2 SLP297 T00171022 $,0,5,0,16090,0,0,0,
2026-04-12 06:54:00,METAR KBUF 120654Z 11004KT 10SM FEW250 01/M02 A3039 RMK AO2 SLP299 T00111022 $,0,4,0,16090,0,0,0,
2026-04-12 05:54:00,METAR KBUF 120554Z 11006KT 10SM FEW250 01/M02 A3039 RMK AO2 SLP299 T00111017 10056 20011 58015 $,0,6,0,16090,0,0,0,
2026-04-12 04:54:00,METAR KBUF 120454Z 00000KT 10SM CLR 02/M02 A3041 RMK AO2 SLP305 T00221017 400940017 $,0,0,0,16090,0,0,0,
2026-04-12 03:54:00,METAR KBUF 120354Z 18003KT 10SM CLR 02/M02 A3043 RMK AO2 SLP310 T00221017 $,0,3,0,16090,0,0,0,
2026-04-12 02:54:00,METAR KBUF 120254Z 00000KT 10SM CLR 03/M02 A3044 RMK AO2 SLP315 T00331017 50007 $,0,0,0,16090,0,0,0,
2026-04-12 01:54:00,METAR KBUF 120154Z 00000KT 10SM CLR 04/M02 A3044 RMK AO2 SLP316 T00391022 $,0,0,0,16090,0,0,0,
2026-04-12 00:54:00,METAR KBUF 120054Z 23003KT 10SM FEW200 04/M02 A3043 RMK AO2 SLP312 T00391022 $,0,3,0,16090,0,0,0,
2026-04-11 23:54:00,METAR KBUF 112354Z 21006KT 10SM FEW200 05/M02 A3042 RMK AO2 SLP307 T00501022 10094 20050 51002 $,0,6,0,16090,0,0,0,
2026-04-11 22:54:00,METAR KBUF 112254Z 24009KT 10SM FEW050 07/M02 A3041 RMK AO2 SLP306 T00671022 $,0,9,0,16090,0,0,0,
2026-04-11 21:54:00,METAR KBUF 112154Z 22012KT 10SM FEW050 07/M02 A3042 RMK AO2 SLP307 T00671022 $,0,12,0,16090,0,0,0,
2026-04-11 20:54:00,METAR KBUF 112054Z 22011KT 10SM FEW050 FEW100 07/M02 A3041 RMK AO2 SLP305 T00721017 55003 $,0,11,0,16090,0,0,0,
2026-04-11 19:54:00,METAR KBUF 111954Z 25004KT 10SM FEW050 08/M01 A3041 RMK AO2 SLP303 T00831011 $,0,4,0,16090,0,0,0,
2026-04-11 18:54:00,METAR KBUF 111854Z 31009KT 10SM FEW042 09/M03 A3041 RMK AO2 SLP305 T00891033 $,0,9,0,16090,0,0,0,
2026-04-11 17:54:00,METAR KBUF 111754Z 24013G18KT 10SM SCT042 07/M01 A3042 RMK AO2 SLP307 T00721011 10083 20028 58001 $,0,13,1,16090,0,0,0,
2026-04-11 16:54:00,METAR KBUF 111654Z VRB05KT 10SM SCT039 07/M02 A3043 RMK AO2 SLP309 T00721022 $,0,5,0,16090,0,0,0,
2026-04-11 15:54:00,METAR KBUF 111554Z COR VRB03KT 10SM FEW034 07/M02 A3043 RMK AO2 SLP311 T00671022 $,0,3,0,16090,0,0,0,
2026-04-11 14:54:00,METAR KBUF 111454Z VRB05KT 10SM FEW031 06/M02 A3042 RMK AO2 SLP308 T00611017 51012 $,0,5,0,16090,0,0,0,
2026-04-11 13:54:00,METAR KBUF 111354Z VRB04KT 10SM FEW020 FEW045 BKN250 04/M03 A3041 RMK AO2 SLP305 T00441033 $,0,4,0,16090,0,0,0,
2026-04-11 12:54:00,METAR KBUF 111254Z 31009KT 10SM FEW020 FEW045 BKN250 04/M01 A3040 RMK AO2 SLP302 T00391011 $,0,9,0,16090,0,0,0,
2026-04-11 11:54:00,METAR KBUF 111154Z 29008KT 10SM FEW020 FEW046 BKN250 03/01 A3039 RMK AO2 SLP297 70014 T00280006 10033 20028 53023 $,0,8,0,16090,0,0,0,
2026-04-11 10:54:00,METAR KBUF 111054Z 30003KT 10SM FEW020 SCT044 BKN250 03/01 A3036 RMK AO2 SLP289 T00280006 $,0,3,0,16090,0,0,0,
2026-04-11 09:54:00,METAR KBUF 110954Z 00000KT 10SM SCT020 BKN044 03/01 A3033 RMK AO2 SLP279 T00280006 $,0,0,0,16090,0,0,0,
2026-04-11 08:54:00,METAR KBUF 110854Z 32003KT 10SM BKN043 03/01 A3032 RMK AO2 SLP273 T00280006 53004 $,0,3,0,16090,0,0,0,
2026-04-11 07:54:00,METAR KBUF 110754Z 31003KT 10SM BKN047 03/00 A3030 RMK AO2 SLP267 T00280000 $,0,3,0,16090,0,0,0,
2026-04-11 06:54:00,METAR KBUF 110654Z 32005KT 10SM SCT031 OVC042 03/01 A3031 RMK AO2 SLP268 T00330006 $,0,5,0,16090,0,0,0,
2026-04-11 05:54:00,METAR KBUF 110554Z 32009KT 10SM SCT015 OVC046 03/01 A3031 RMK AO2 SLP268 60001 T00330011 10061 20033 51010 $,0,9,0,16090,0,0,0,
2026-04-11 05:31:00,SPECI KBUF 110531Z 32010KT 10SM SCT013 BKN018 OVC032 04/02 A3030 RMK AO2 T00440017 $,0,10,0,16090,0,0,0,
2026-04-11 05:00:00,SPECI KBUF 110500Z 31005KT 10SM OVC032 04/03 A3030 RMK AO2 T00440028 $,0,5,0,16090,0,0,0,
2026-04-11 04:54:00,METAR KBUF 110454Z 32006KT 10SM OVC028 05/03 A3030 RMK AO2 SLP264 T00500028 401390044 $,0,6,0,16090,0,0,0,
2026-04-11 04:47:00,SPECI KBUF 110447Z 32008KT 10SM OVC029 05/03 A3030 RMK AO2 T00500028 $,0,8,0,16090,0,0,0,
2026-04-11 04:20:00,SPECI KBUF 110420Z 35004KT 10SM FEW010 SCT019 OVC030 05/03 A3029 RMK AO2 T00500033 $,0,4,0,16090,0,0,0,
2026-04-11 03:54:00,METAR KBUF 110354Z 33005KT 10SM FEW006 OVC016 05/03 A3028 RMK AO2 DZE14 SLP259 P0000 T00500033 $,0,5,0,16090,0,0,0,
2026-04-11 03:40:00,SPECI KBUF 110340Z 32005KT 10SM FEW006 OVC016 05/03 A3028 RMK AO2 DZE14 P0000 T00500033 $,0,5,0,16090,0,0,0,
2026-04-11 03:14:00,SPECI KBUF 110314Z 34007KT 9SM FEW006 OVC010 05/04 A3028 RMK AO2 DZE14 P0000 T00500039 $,0,7,0,14481,0,0,0,
2026-04-11 02:54:00,METAR KBUF 110254Z 34006KT 6SM -DZ BR BKN006 OVC012 05/04 A3027 RMK AO2 DZB51 CIG 006V010 SLP256 P0000 60001 T00500039 52030 $,0,6,0,9654,0,0,1,"BR,DZ"
2026-04-11 02:26:00,SPECI KBUF 110226Z 30008KT 8SM OVC008 05/04 A3027 RMK AO2 CIG 006V011 T00500039 $,0,8,0,12872,0,0,0,
2026-04-11 01:54:00,METAR KBUF 110154Z 30005KT 10SM OVC011 06/04 A3026 RMK AO2 SLP251 T00560044 $,0,5,0,16090,0,0,0,
2026-04-11 00:54:00,METAR KBUF 110054Z 00000KT 10SM FEW005 OVC013 06/04 A3020 RMK AO2 DZE05RAB29E53 SLP233 P0001 T00560044 $,0,0,0,16090,0,0,0,DZ
2026-04-11 00:37:00,SPECI KBUF 110037Z 32004KT 10SM -RA FEW006 OVC013 06/04 A3021 RMK AO2 DZE05RAB29 P0000 T00560044 $,0,4,0,16090,0,0,0,"-RA,DZ"
2026-04-11 00:29:00,SPECI KBUF 110029Z 32006KT 10SM -RA SCT006 OVC015 06/04 A3021 RMK AO2 DZE05RAB29 P0000 T00560044 $,0,6,0,16090,0,0,0,"-RA,DZ"
2026-04-11 00:05:00,SPECI KBUF 110005Z 32007KT 7SM OVC005 06/05 A3019 RMK AO2 DZE05 P0000 T00560050 $,0,7,0,11263,0,0,0,
2026-04-10 23:54:00,METAR KBUF 102354Z 32005KT 3SM -DZ BR OVC004 06/05 A3018 RMK AO2 DZB27 SLP226 P0000 60013 T00560050 10100 20056 53021 $,0,5,0,4827,0,0,1,"BR,DZ"
2026-04-10 22:54:00,METAR KBUF 102254Z 32008KT 2 1/2SM BR OVC003 06/06 A3015 RMK AO2 RAE44 SLP213 P0000 T00610056,0,8,0,4022,0,0,1,BR
2026-04-10 22:44:00,SPECI KBUF 102244Z 33007KT 2 1/2SM BR OVC003 07/06 A3014 RMK AO2 RAE44 P0000 T00670061,0,7,0,4022,0,0,1,BR
2026-04-10 21:54:00,METAR KBUF 102154Z 00000KT 1 3/4SM -RA BR OVC004 07/06 A3012 RMK AO2 SLP204 P0000 T00720061,0,0,0,2816,0,0,1,"-RA,BR"
2026-04-10 21:20:00,SPECI KBUF 102120Z 28007KT 1 3/4SM -RA BR OVC004 07/06 A3012 RMK AO2 P0000 T00720061,0,7,0,2816,0,0,1,"-RA,BR"
2026-04-10 21:15:00,SPECI KBUF 102115Z 28005KT 2SM -RA BR OVC005 07/07 A3012 RMK AO2 P0000 T00720067,0,5,0,3218,0,0,1,"-RA,BR"
2026-04-10 20:54:00,METAR KBUF 102054Z 27007KT 1 1/2SM -RA BR OVC005 07/06 A3012 RMK AO2 SLP203 P0000 60013 T00720061 53002,0,7,0,2414,0,0,1,"-RA,BR"
2026-04-10 20:39:00,SPECI KBUF 102039Z 25005KT 1 1/2SM -RA BR OVC005 08/07 A3012 RMK AO2 CIG 003V007 P0000 T00780067,0,5,0,2414,0,0,1,"-RA,BR"
2026-04-10 20:27:00,SPECI KBUF 102027Z 25007KT 2SM -RA BR OVC005 08/07 A3011 RMK AO2 CIG 003V008 P0000 T00780067,0,7,0,3218,0,0,1,"-RA,BR"
2026-04-10 19:54:00,METAR KBUF 101954Z 28006KT 6SM -RA BR OVC005 08/07 A3011 RMK AO2 SLP199 P0008 T00780072,0,6,0,9654,0,0,1,"-RA,BR"
2026-04-10 19:30:00,SPECI KBUF 101930Z 27005KT 4SM -RA BR BKN006 BKN032 OVC046 08/07 A3011 RMK AO2 P0007 T00830072,0,5,0,6436,0,0,1,"-RA,BR"
2026-04-10 19:04:00,SPECI KBUF 101904Z 27005KT 2 1/2SM RA BR FEW009 BKN038 OVC070 08/07 A3011 RMK AO2 P0003 T00830067,0,5,0,4022,0,0,1,"BR,RA"
2026-04-10 18:54:00,METAR KBUF 101854Z 27005KT 3SM RA BR BKN045 OVC070 09/07 A3012 RMK AO2 SLP201 P0005 T00890067,0,5,0,4827,0,0,1,"BR,RA"
2026-04-10 17:54:00,METAR KBUF 101754Z 34003KT 10SM -RA OVC060 10/03 A3011 RMK AO2 RAB50 SLP199 P0000 60000 T01000033 10128 20078 53005,0,3,0,16090,0,0,0,-RA
2026-04-10 16:54:00,METAR KBUF 101654Z 34008KT 10SM OVC065 11/04 A3010 RMK AO2 SLP194 T01110039,0,8,0,16090,0,0,0,
2026-04-10 15:54:00,METAR KBUF 101554Z 33009KT 10SM SCT070 OVC200 13/04 A3009 RMK AO2 SLP189 T01280039,0,9,0,16090,0,0,0,
2026-04-10 14:54:00,METAR KBUF 101454Z 05005KT 10SM FEW090 OVC160 11/03 A3010 RMK AO2 SLP194 T01060028 58013,0,5,0,16090,0,0,0,
2026-04-10 13:54:00,METAR KBUF 101354Z 01005KT 10SM SCT090 BKN250 09/01 A3012 RMK AO2 SLP203 T00890011,0,5,0,16090,0,0,0,
2026-04-10 12:54:00,METAR KBUF 101254Z 01005KT 10SM SCT080 BKN250 09/02 A3013 RMK AO2 SLP206 T00890017,0,5,0,16090,0,0,0,
2026-04-10 11:54:00,METAR KBUF 101154Z 35008KT 10SM BKN095 BKN250 08/04 A3014 RMK AO2 SLP207 60000 T00830044 10139 20083 55004,0,8,0,16090,0,0,0,
2026-04-10 10:54:00,METAR KBUF 101054Z 34007KT 10SM BKN090 BKN250 09/08 A3013 RMK AO2 SLP206 T00890078,0,7,0,16090,0,0,0,
2026-04-10 09:54:00,METAR KBUF 100954Z 18003KT 10SM OVC110 11/08 A3012 RMK AO2 RAB07E17 SLP202 P0000 T01060078,0,3,0,16090,0,0,0,RA
2026-04-10 08:54:00,METAR KBUF 100854Z 29003KT 10SM SCT080 OVC095 10/08 A3015 RMK AO2 RAE00B25E37 SLP210 P0000 60000 T01000083 56012,0,3,0,16090,0,0,0,RA
2026-04-10 07:54:00,METAR KBUF 100754Z 19004KT 10SM -RA BKN095 OVC120 11/08 A3015 RMK AO2 RAB49 SLP209 P0000 T01110078,0,4,0,16090,0,0,0,-RA
2026-04-10 06:54:00,METAR KBUF 100654Z 25007KT 10SM FEW070 BKN100 BKN150 12/08 A3017 RMK AO2 SLP216 T01220078,0,7,0,16090,0,0,0,
2026-04-10 05:54:00,METAR KBUF 100554Z 21009KT 10SM SCT070 SCT090 BKN150 13/09 A3018 RMK AO2 RAB0455E09 SLP220 P0000 60000 T01330089 10156 20128 50001,0,9,0,16090,0,0,0,RA
2026-04-10 04:54:00,METAR KBUF 100454Z 20007KT 10SM BKN070 BKN090 14/09 A3019 RMK AO2 RAB03E12B38E48 SLP224 P0000 T01390089 402170072,0,7,0,16090,0,0,0,RA
2026-04-10 03:54:00,METAR KBUF 100354Z 21006KT 10SM BKN070 BKN090 14/08 A3017 RMK AO2 SLP217 T01440083,0,6,0,16090,0,0,0,
2026-04-10 02:54:00,METAR KBUF 100254Z 20011KT 10SM BKN070 OVC090 15/08 A3018 RMK AO2 SLP220 T01500083 50001,0,11,0,16090,0,0,0,
2026-04-10 01:54:00,METAR KBUF 100154Z 19006KT 10SM FEW080 FEW100 SCT250 13/07 A3018 RMK AO2 SLP222 T01330072,0,6,0,16090,0,0,0,
2026-04-10 00:54:00,METAR KBUF 100054Z 20010KT 10SM SCT095 BKN270 15/07 A3018 RMK AO2 SLP222 T01500072,0,10,0,16090,0,0,0,
2026-04-09 23:54:00,METAR KBUF 092354Z 22012G19KT 10SM BKN110 BKN270 14/07 A3018 RMK AO2 SLP221 60000 T01440067 10211 20133 51008,0,12,1,16090,0,0,0,
2026-04-09 22:54:00,METAR KBUF 092254Z 22011KT 10SM FEW075 BKN110 14/07 A3018 RMK AO2 RAB02E14 SLP221 P0000 T01440067,0,11,0,16090,0,0,0,RA
2026-04-09 21:54:00,METAR KBUF 092154Z 21011G25KT 10SM BKN070 BKN110 17/06 A3017 RMK AO2 PK WND 28033/2115 RAB36E45 SLP218 P0000 T01670061,0,11,1,16090,0,0,0,RA
2026-04-09 20:54:00,METAR KBUF 092054Z 27019G29KT 10SM BKN080 OVC110 18/07 A3015 RMK AO2 PK WND 27033/2000 SLP212 T01780067 53002,0,19,1,16090,0,0,0,
2026-04-09 19:54:00,METAR KBUF 091954Z 26017G32KT 10SM BKN095 BKN110 OVC200 19/04 A3014 RMK AO2 PK WND 25032/1948 SLP206 T01890044,0,17,1,16090,0,0,0,
2026-04-09 18:54:00,METAR KBUF 091854Z 24015G24KT 10SM FEW090 SCT110 SCT150 OVC200 20/04 A3015 RMK AO2 PK WND 24030/1806 SLP209 T02000044,0,15,1,16090,0,0,0,
2026-04-09 17:54:00,METAR KBUF 091754Z 23020G31KT 10SM FEW100 SCT150 OVC200 21/04 A3015 RMK AO2 PK WND 20035/1730 SLP210 T02110039 10217 20106 56010,0,20,1,16090,0,0,0,
2026-04-09 16:54:00,METAR KBUF 091654Z 22021G38KT 10SM FEW150 SCT200 BKN250 21/03 A3015 RMK AO2 PK WND 22038/1646 SLP210 T02110028,0,21,1,16090,0,0,0,
2026-04-09 15:54:00,METAR KBUF 091554Z 20019G28KT 10SM FEW200 BKN250 20/03 A3015 RMK AO2 PK WND 20033/1534 SLP212 T02000028,0,19,1,16090,0,0,0,
2026-04-09 14:54:00,METAR KBUF 091454Z 19015G25KT 10SM SCT200 BKN250 18/00 A3018 RMK AO2 PK WND 18032/1421 SLP220 T01830000 58018,0,15,1,16090,0,0,0,
2026-04-09 13:54:00,METAR KBUF 091354Z 20015KT 10SM BKN170 BKN250 16/M02 A3020 RMK AO2 PK WND 20026/1315 SLP229 T01561022,0,15,0,16090,0,0,0,
2026-04-09 12:54:00,METAR KBUF 091254Z 18019G26KT 10SM BKN170 BKN250 12/M04 A3022 RMK AO2 PK WND 18026/1251 SLP237 T01221039 $,0,19,1,16090,0,0,0,
2026-04-09 11:54:00,METAR KBUF 091154Z 18012G21KT 10SM BKN170 BKN250 11/M05 A3023 RMK AO2 SLP240 T01061050 10106 20072 55003 $,0,12,1,16090,0,0,0,
2026-04-09 10:54:00,METAR KBUF 091054Z 19013G20KT 10SM BKN160 BKN250 10/M06 A3023 RMK AO2 SLP240 T01001061 $,0,13,1,16090,0,0,0,
2026-04-09 09:54:00,METAR KBUF 090954Z COR 18014G23KT 10SM SCT150 BKN250 10/M07 A3024 RMK AO2 SLP241 T01001067 $,0,14,1,16090,0,0,0,
2026-04-09 08:54:00,METAR KBUF 090854Z COR 18010KT 10SM SCT150 BKN250 09/M07 A3024 RMK AO2 SLP243 T00941067 56013 $,0,10,0,16090,0,0,0,
2026-04-09 07:54:00,METAR KBUF 090754Z 18012KT 10SM FEW150 SCT250 08/M07 A3025 RMK AO2 SLP248 T00831072 $,0,12,0,16090,0,0,0,
2026-04-09 06:54:00,METAR KBUF 090654Z 17011KT 10SM FEW250 08/M08 A3026 RMK AO2 SLP251 T00781078 $,0,11,0,16090,0,0,0,
2026-04-09 05:54:00,METAR KBUF 090554Z 17009KT 10SM CLR 07/M08 A3028 RMK AO2 SLP259 T00721078 10128 20061 58010 $,0,9,0,16090,0,0,0,
2026-04-09 04:54:00,METAR KBUF 090454Z 17009KT 10SM CLR 08/M08 A3029 RMK AO2 SLP263 T00831083 401441056 $,0,9,0,16090,0,0,0,
2026-04-09 03:54:00,METAR KBUF 090354Z 18008KT 10SM FEW200 SCT250 08/M08 A3030 RMK AO2 SLP267 T00831083 $,0,8,0,16090,0,0,0,
2026-04-09 02:54:00,METAR KBUF 090254Z 17010KT 10SM FEW200 BKN250 09/M09 A3031 RMK AO2 SLP270 T00941089 58003 $,0,10,0,16090,0,0,0,
2026-04-09 01:54:00,METAR KBUF 090154Z 17005KT 10SM FEW200 BKN250 08/M01 A3032 RMK AO2 SLP274 T00781011 $,0,5,0,16090,0,0,0,
2026-04-09 00:54:00,METAR KBUF 090054Z 04005KT 10SM FEW200 BKN250 07/00 A3032 RMK AO2 SLP276 T00720000 $,0,5,0,16090,0,0,0,
2026-04-08 23:54:00,METAR KBUF 082354Z 25004KT 10SM FEW200 SCT250 SCT350 13/M10 A3032 RMK AO2 SLP274 T01281100 10144 20089 56012 $,0,4,0,16090,0,0,0,
2026-04-08 22:54:00,METAR KBUF 082254Z 18003KT 10SM SCT250 14/M09 A3033 RMK AO2 SLP276 T01391094 $,0,3,0,16090,0,0,0,
2026-04-08 21:54:00,METAR KBUF 082154Z 19005KT 10SM FEW250 FEW350 14/M10 A3034 RMK AO2 SLP279 T01391100 $,0,5,0,16090,0,0,0,
2026-04-08 20:54:00,METAR KBUF 082054Z 21005KT 10SM CLR 13/M11 A3036 RMK AO2 SLP286 T01331106 56030,0,5,0,16090,0,0,0,
2026-04-08 19:54:00,METAR KBUF 081954Z VRB06KT 10SM FEW250 FEW350 12/M11 A3038 RMK AO2 SLP294 T01221106,0,6,0,16090,0,0,0,
2026-04-08 18:54:00,METAR KBUF 081854Z VRB06KT 10SM FEW260 11/M11 A3041 RMK AO2 SLP307 T01061106,0,6,0,16090,0,0,0,
2026-04-08 17:54:00,METAR KBUF 081754Z 00000KT 10SM FEW260 09/M10 A3045 RMK AO2 SLP318 T00891100 10094 21039 58030,0,0,0,16090,0,0,0,
2026-04-08 16:54:00,METAR KBUF 081654Z COR 12004KT 10SM FEW260 07/M09 A3048 RMK AO2 SLP329 T00671089 $,0,4,0,16090,0,0,0,
2026-04-08 15:54:00,METAR KBUF 081554Z 11007KT 10SM FEW260 05/M10 A3051 RMK AO2 SLP341 T00501100 $,0,7,0,16090,0,0,0,
2026-04-08 14:54:00,METAR KBUF 081454Z 13006KT 10SM FEW260 02/M09 A3054 RMK AO2 SLP350 T00221089 58004 $,0,6,0,16090,0,0,0,
2026-04-08 13:54:00,METAR KBUF 081354Z 09008KT 10SM FEW260 01/M09 A3055 RMK AO2 SLP354 T00061089 $,0,8,0,16090,0,0,0,
2026-04-08 12:54:00,METAR KBUF 081254Z 12006KT 10SM FEW260 M02/M08 A3056 RMK AO2 SLP358 T10171083 $,0,6,0,16090,0,0,0,
2026-04-08 11:54:00,METAR KBUF 081154Z 12005KT 10SM FEW250 M04/M08 A3055 RMK AO2 SLP356 T10391083 11039 21056 52003 $,0,5,0,16090,0,0,0,
2026-04-08 10:54:00,METAR KBUF 081054Z 11006KT 10SM FEW250 M06/M08 A3055 RMK AO2 SLP356 T10561083 $,0,6,0,16090,0,0,0,
2026-04-08 09:54:00,METAR KBUF 080954Z 14005KT 10SM FEW250 M05/M08 A3055 RMK AO2 SLP355 T10501083 $,0,5,0,16090,0,0,0,
2026-04-08 08:54:00,METAR KBUF 080854Z 17004KT 10SM CLR M05/M08 A3054 RMK AO2 SLP354 T10501083 51003 $,0,4,0,16090,0,0,0,
2026-04-08 07:54:00,METAR KBUF 080754Z 18004KT 10SM CLR M04/M08 A3054 RMK AO2 SLP353 T10441083 $,0,4,0,16090,0,0,0,
2026-04-08 06:54:00,METAR KBUF 080654Z 21003KT 10SM CLR M04/M08 A3054 RMK AO2 SLP352 T10441078 $,0,3,0,16090,0,0,0,
2026-04-08 05:54:00,METAR KBUF 080554Z 20004KT 10SM CLR M04/M08 A3053 RMK AO2 SLP350 T10391078 11017 21044 51006 $,0,4,0,16090,0,0,0,
2026-04-08 04:54:00,METAR KBUF 080454Z 19006KT 10SM CLR M04/M08 A3053 RMK AO2 SLP349 T10391078 400221039 $,0,6,0,16090,0,0,0,
2026-04-08 03:54:00,METAR KBUF 080354Z 20005KT 10SM CLR M03/M07 A3052 RMK AO2 SLP346 T10331067 $,0,5,0,16090,0,0,0,
2026-04-08 02:54:00,METAR KBUF 080254Z 22005KT 10SM CLR M02/M07 A3051 RMK AO2 SLP344 T10221067 51009 $,0,5,0,16090,0,0,0,
2026-04-08 01:54:00,METAR KBUF 080154Z 23005KT 10SM CLR M02/M08 A3051 RMK AO2 SLP344 T10221078 $,0,5,0,16090,0,0,0,
2026-04-08 00:54:00,METAR KBUF 080054Z 24008KT 10SM FEW045 M02/M08 A3050 RMK AO2 SLP341 T10221083 $,0,8,0,16090,0,0,0,
2026-04-07 23:54:00,METAR KBUF 072354Z 23011KT 10SM FEW045 M02/M08 A3048 RMK AO2 SLP334 60000 T10171083 10006 21017 53008 $,0,11,0,16090,0,0,0,
2026-04-07 22:54:00,METAR KBUF 072254Z 23012KT 10SM FEW045 M01/M08 A3047 RMK AO2 SLP329 T10111078 $,0,12,0,16090,0,0,0,
2026-04-07 21:54:00,METAR KBUF 072154Z 29008KT 260V320 10SM FEW038 00/M11 A3046 RMK AO2 SLP326 T00001106 $,0,8,0,16090,0,0,0,
2026-04-07 20:54:00,METAR KBUF 072054Z 27006G17KT 10SM FEW040 01/M11 A3046 RMK AO2 SLP325 60000 T00061111 51003 $,0,6,1,16090,0,0,0,
2026-04-07 19:54:00,METAR KBUF 071954Z 31007G19KT 10SM SCT042 00/M10 A3045 RMK AO2 SLP322 T00001100 $,0,7,1,16090,0,0,0,
2026-04-07 18:54:00,METAR KBUF 071854Z 28012G25KT 250V360 10SM SCT042 00/M09 A3046 RMK AO2 SNE04 SLP324 P0000 T00001094 $,0,12,1,16090,0,0,0,
2026-04-07 18:07:00,SPECI KBUF 071807Z 29012KT 9SM SCT038 M02/M09 A3045 RMK AO2 SNE04 P0000 T10171094 $,0,12,0,14481,0,0,0,
2026-04-07 17:54:00,METAR KBUF 071754Z 31010G23KT 9SM -SN BKN036 M02/M10 A3045 RMK AO2 SLP322 P0000 60000 T10171100 11011 21039 51020 $,0,10,1,14481,0,0,0,SN
2026-04-07 16:54:00,METAR KBUF 071654Z 28012G21KT 9SM -SN BKN034 M02/M09 A3043 RMK AO2 SLP315 P0000 T10221089 $,0,12,1,14481,0,0,0,SN
2026-04-07 15:54:00,METAR KBUF 071554Z 29014G22KT 9SM -SN OVC034 M02/M09 A3042 RMK AO2 PK WND 28026/1515 SNB49 SLP309 P0000 T10221089 $,0,14,1,14481,0,0,0,SN
2026-04-07 14:54:00,METAR KBUF 071454Z 30017G24KT 9SM FEW030 SCT037 M03/M10 A3039 RMK AO2 PK WND 27028/1424 SNE51 SLP300 P0000 60000 T10281100 51041 $,0,17,1,14481,0,0,0,
2026-04-07 13:54:00,METAR KBUF 071354Z 28013G24KT 9SM -SN FEW029 BKN037 M03/M11 A3035 RMK AO2 PK WND 26029/1308 SLP286 P0000 T10331106 $,0,13,1,14481,0,0,0,SN
2026-04-07 13:20:00,SPECI KBUF 071320Z 29016G27KT 9SM -SN OVC033 M04/M11 A3033 RMK AO2 PK WND 26029/1308 P0000 T10391106 $,0,16,1,14481,0,0,0,SN
2026-04-07 12:54:00,METAR KBUF 071254Z 29016G25KT 9SM -SN BKN026 OVC034 M04/M10 A3032 RMK AO2 PK WND 28030/1225 SLP276 P0000 T10391100 $,0,16,1,14481,0,0,0,SN
2026-04-07 11:54:00,METAR KBUF 071154Z 29018G24KT 9SM -SN BKN038 M03/M10 A3027 RMK AO2 PK WND 27036/1111 SLP258 P0000 60002 70005 T10331100 10017 21033 53037 $,0,18,1,14481,0,0,0,SN
2026-04-07 10:54:00,METAR KBUF 071054Z 27017G30KT 9SM -SN BKN033 BKN046 M03/M09 A3021 RMK AO2 PK WND 26030/1050 SNB25 SLP240 P0000 T10281089 $,0,17,1,14481,0,0,0,SN
2026-04-07 10:25:00,SPECI KBUF 071025Z 26017G27KT 6SM -SN FEW030 SCT036 OVC045 M03/M08 A3019 RMK AO2 PK WND 26027/1016 SNB25 P0000 T10281083 $,0,17,1,9654,0,0,0,SN
2026-04-07 09:54:00,METAR KBUF 070954Z 25013G27KT 10SM BKN039 OVC046 M03/M09 A3017 RMK AO2 PK WND 28029/0933 SLP226 T10281089 $,0,13,1,16090,0,0,0,
2026-04-07 08:54:00,METAR KBUF 070854Z 29022G32KT 10SM FEW027 OVC035 M02/M09 A3016 RMK AO2 PK WND 28032/0854 SNE10 SLP219 P0000 60002 T10221089 53043 $,0,22,1,16090,0,0,0,
2026-04-07 08:47:00,SPECI KBUF 070847Z 29017G27KT 10SM FEW025 OVC033 M02/M08 A3015 RMK AO2 PK WND 31031/0835 SNE10 P0000 T10221083 $,0,17,1,16090,0,0,0,
2026-04-07 08:10:00,SPECI KBUF 070810Z 28014G24KT 9SM OVC023 M02/M06 A3013 RMK AO2 SNE10 P0000 T10171061 $,0,14,1,14481,0,0,0,
2026-04-07 07:54:00,METAR KBUF 070754Z 29012G27KT 9SM -SN OVC019 M01/M04 A3011 RMK AO2 PK WND 30032/0722 SLP205 P0000 T10111044 $,0,12,1,14481,0,0,0,SN
2026-04-07 07:33:00,SPECI KBUF 070733Z 29012G27KT 9SM -SN OVC015 M01/M04 A3009 RMK AO2 PK WND 30032/0722 P0000 T10111039 $,0,12,1,14481,0,0,0,SN
2026-04-07 07:04:00,SPECI KBUF 070704Z 30017G30KT 9SM -SN OVC011 00/M02 A3006 RMK AO2 PK WND 30030/0700 P0000 T00001022 $,0,17,1,14481,0,0,0,SN
2026-04-07 06:54:00,METAR KBUF 070654Z 29026G35KT 9SM -SN OVC009 01/M01 A3006 RMK AO2 PK WND 29035/0653 WSHFT 0627 CIG 006V013 SLP186 P0002 T00111006 $,0,26,1,14481,0,0,0,SN
2026-04-07 06:47:00,SPECI KBUF 070647Z 29014G20KT 9SM -SN BKN007 OVC012 01/M01 A3005 RMK AO2 PK WND 29026/0635 WSHFT 0627 CIG 004V010 P0002 T00111006 $,0,14,1,14481,0,0,0,SN
2026-04-07 06:03:00,SPECI KBUF 070603Z 25007KT 5SM -SN BR BKN005 OVC012 01/00 A3003 RMK AO2 P0001 T00060000 $,0,7,0,8045,0,0,1,"BR,SN"
2026-04-07 05:54:00,METAR KBUF 070554Z 25007KT 2 1/2SM -SN BR BKN005 OVC010 01/00 A3003 RMK AO2 RAE36SNB36 SLP175 P0002 60003 T00060000 10033 20006 58002 $,0,7,0,4022,0,0,1,"BR,RA,SN"
2026-04-07 05:36:00,SPECI KBUF 070536Z 23014KT 5SM -SN BR OVC005 01/01 A3003 RMK AO2 RAE36SNB36 P0001 T00110006 $,0,14,0,8045,0,0,1,"BR,RA,SN"
2026-04-07 04:54:00,METAR KBUF 070454Z 24010KT 10SM -RA OVC008 02/01 A3003 RMK AO2 RAB53 SLP177 P0000 T00220006 400610006 $,0,10,0,16090,0,0,0,-RA
2026-04-07 04:28:00,SPECI KBUF 070428Z 24013KT 10SM BKN008 OVC019 02/01 A3004 RMK AO2 T00220006 $,0,13,0,16090,0,0,0,
2026-04-07 04:08:00,SPECI KBUF 070408Z 23012KT 10SM SCT010 OVC016 02/01 A3003 RMK AO2 T00220006 $,0,12,0,16090,0,0,0,
2026-04-07 04:01:00,SPECI KBUF 070401Z 22011KT 10SM BKN013 OVC020 03/01 A3003 RMK AO2 T00280006 $,0,11,0,16090,0,0,0,
2026-04-07 03:54:00,METAR KBUF 070354Z 24013G18KT 10SM FEW010 BKN024 OVC045 03/01 A3004 RMK AO2 SLP178 T00280006 $,0,13,1,16090,0,0,0,
2026-04-07 03:22:00,SPECI KBUF 070322Z 22008KT 10SM FEW010 BKN024 OVC045 03/01 A3003 RMK AO2 T00280006 $,0,8,0,16090,0,0,0,
2026-04-07 02:54:00,METAR KBUF 070254Z 23008KT 10SM SCT010 BKN045 BKN110 02/01 A3003 RMK AO2 SLP178 60001 T00220006 58002 $,0,8,0,16090,0,0,0,
2026-04-07 01:54:00,METAR KBUF 070154Z 19005KT 10SM SCT011 OVC031 03/01 A3004 RMK AO2 RAE53 SLP179 P0000 T00280011 $,0,5,0,16090,0,0,0,
2026-04-07 01:25:00,SPECI KBUF 070125Z 00000KT 10SM -RA SCT011 BKN031 OVC037 03/01 A3004 RMK AO2 P0000 T00280011 $,0,0,0,16090,0,0,0,-RA
2026-04-07 01:18:00,SPECI KBUF 070118Z 00000KT 10SM -RA FEW009 BKN028 OVC033 03/01 A3004 RMK AO2 P0000 T00280011 $,0,0,0,16090,0,0,0,-RA
2026-04-07 01:10:00,SPECI KBUF 070110Z 00000KT 10SM -RA SCT016 OVC033 03/01 A3004 RMK AO2 P0000 T00280011 $,0,0,0,16090,0,0,0,-RA
2026-04-07 00:54:00,METAR KBUF 070054Z 00000KT 10SM -RA BKN017 OVC023 03/01 A3005 RMK AO2 SLP182 P0001 T00280011 $,0,0,0,16090,0,0,0,-RA
2026-04-07 00:31:00,SPECI KBUF 070031Z 01003KT 7SM -RA SCT018 OVC028 03/01 A3005 RMK AO2 P0000 T00330011 $,0,3,0,11263,0,0,0,-RA
2026-04-06 23:54:00,METAR KBUF 062354Z 01004KT 10SM -RA FEW031 OVC049 03/01 A3004 RMK AO2 RAB54 SLP180 P0000 60000 T00330006 10061 20033 53005 $,0,4,0,16090,0,0,0,-RA
2026-04-06 22:54:00,METAR KBUF 062254Z 24008KT 10SM BKN050 BKN060 OVC110 04/M01 A3003 RMK AO2 SLP177 T00441011 $,0,8,0,16090,0,0,0,
2026-04-06 21:54:00,METAR KBUF 062154Z 24012KT 10SM FEW034 SCT050 OVC070 04/M02 A3003 RMK AO2 SLP177 T00441017 $,0,12,0,16090,0,0,0,
2026-04-06 20:54:00,METAR KBUF 062054Z 23009KT 10SM FEW023 BKN070 BKN100 06/M02 A3003 RMK AO2 SLP175 T00611022 56014 $,0,9,0,16090,0,0,0,
2026-04-06 19:54:00,METAR KBUF 061954Z 22011G18KT 10SM FEW050 BKN070 BKN090 06/M02 A3004 RMK AO2 SLP177 T00611022 $,0,11,1,16090,0,0,0,
2026-04-06 18:54:00,METAR KBUF 061854Z 25013KT 10SM FEW047 BKN070 BKN090 06/M02 A3006 RMK AO2 SLP185 T00561017 $,0,13,0,16090,0,0,0,
2026-04-06 17:54:00,METAR KBUF 061754Z 24012KT 10SM BKN045 BKN065 04/M03 A3007 RMK AO2 SLP189 T00441033 10056 20011 58009 $,0,12,0,16090,0,0,0,
2026-04-06 16:54:00,METAR KBUF 061654Z 24009KT 10SM FEW032 BKN050 BKN250 04/M04 A3008 RMK AO2 SLP193 T00391039 $,0,9,0,16090,0,0,0,
2026-04-06 15:54:00,METAR KBUF 061554Z 21013KT 10SM FEW032 BKN050 BKN070 BKN250 04/M03 A3009 RMK AO2 SLP196 T00391033 $,0,13,0,16090,0,0,0,
2026-04-06 14:54:00,METAR KBUF 061454Z 27004KT 10SM FEW035 FEW050 SCT070 SCT250 03/M05 A3010 RMK AO2 SLP199 T00331050 50002 $,0,4,0,16090,0,0,0,
2026-04-06 13:54:00,METAR KBUF 061354Z 27011KT 10SM FEW035 BKN070 BKN170 BKN250 03/M04 A3010 RMK AO2 SLP200 T00281044 $,0,11,0,16090,0,0,0,
2026-04-06 12:54:00,METAR KBUF 061254Z 27010KT 10SM FEW040 FEW110 FEW180 BKN250 02/M05 A3010 RMK AO2 SLP199 T00171050 $,0,10,0,16090,0,0,0,
2026-04-06 11:54:00,METAR KBUF 061154Z 26010KT 10SM BKN040 BKN120 BKN250 01/M05 A3009 RMK AO2 SLP197 60000 70001 T00111050 10011 20006 53008 $,0,10,0,16090,0,0,0,
2026-04-06 10:54:00,METAR KBUF 061054Z 25010G16KT 10SM BKN042 01/M04 A3007 RMK AO2 SLP192 T00061044 $,0,10,1,16090,0,0,0,
2026-04-06 09:54:00,METAR KBUF 060954Z 26010KT 10SM OVC040 01/M05 A3006 RMK AO2 SLP188 T00061050 $,0,10,0,16090,0,0,0,
2026-04-06 08:54:00,METAR KBUF 060854Z 27010KT 10SM OVC034 01/M04 A3006 RMK AO2 SLP188 60000 T00061044 58002 $,0,10,0,16090,0,0,0,
2026-04-06 07:54:00,METAR KBUF 060754Z 27011KT 10SM OVC038 01/M04 A3007 RMK AO2 SLP188 T00111044 $,0,11,0,16090,0,0,0,
2026-04-06 06:54:00,METAR KBUF 060654Z 28011G18KT 9SM OVC032 01/M04 A3007 RMK AO2 SNE50 SLP190 P0000 T00111039 $,0,11,1,14481,0,0,0,
2026-04-06 06:50:00,SPECI KBUF 060650Z 28009G21KT 9SM OVC032 01/M04 A3007 RMK AO2 SNE50 P0000 $,0,9,1,14481,0,0,0,
2026-04-06 05:54:00,METAR KBUF 060554Z 29011G21KT 9SM -SN OVC026 01/M04 A3007 RMK AO2 SLP191 P0000 60000 T00111039 10022 20011 51008 $,0,11,1,14481,0,0,0,SN
2026-04-06 05:51:00,SPECI KBUF 060551Z 29013G23KT 9SM -SN OVC028 01/M04 A3007 RMK AO2 P0000 $,0,13,1,14481,0,0,0,SN
2026-04-06 04:54:00,METAR KBUF 060454Z 27010G19KT 9SM -SN OVC031 02/M04 A3007 RMK AO2 PK WND 27026/0405 SNB00 SLP187 P0000 T00171039 401110017 $,0,10,1,14481,0,0,0,SN
2026-04-06 04:00:00,SPECI KBUF 060400Z 27014G21KT 10SM -SN OVC035 02/M04 A3005 RMK AO2 SNB00 P0000 T00171044 $,0,14,1,16090,0,0,0,SN
2026-04-06 03:54:00,METAR KBUF 060354Z 26014G22KT 10SM OVC035 02/M04 A3005 RMK AO2 SLP183 T00171039 $,0,14,1,16090,0,0,0,
2026-04-06 02:54:00,METAR KBUF 060254Z 26013G20KT 10SM OVC048 02/M03 A3004 RMK AO2 SLP180 T00171033 51025 $,0,13,1,16090,0,0,0,
2026-04-06 01:54:00,METAR KBUF 060154Z 27014G22KT 10SM FEW037 SCT044 OVC060 02/M04 A3004 RMK AO2 PK WND 25031/0115 SLP179 T00171039 $,0,14,1,16090,0,0,0,
2026-04-06 00:54:00,METAR KBUF 060054Z 28018G27KT 10SM FEW028 OVC045 02/M04 A3000 RMK AO2 PK WND 26031/0000 SLP166 T00221039 $,0,18,1,16090,0,0,0,
2026-04-05 23:54:00,METAR KBUF 052354Z 28015G26KT 10SM SCT027 BKN047 OVC060 02/M02 A2997 RMK AO2 PK WND 29030/2312 SLP155 RAE32 P0000 60001 T00221017 10056 20022 53023 $,0,15,1,16090,0,0,0,
2026-04-05 23:33:00,SPECI KBUF 052333Z 27014G23KT 10SM SCT019 BKN038 OVC047 02/M01 A2995 RMK AO2 PK WND 29030/2312 RAE32 P0000 T00221011 $,0,14,1,16090,0,0,0,
2026-04-05 23:06:00,SPECI KBUF 052306Z 27017G29KT 9SM -RA FEW008 BKN019 OVC031 02/00 A2994 RMK AO2 PK WND 27029/2304 P0000 T00220000 $,0,17,1,14481,0,0,0,-RA
2026-04-05 22:54:00,METAR KBUF 052254Z 27015G24KT 5SM -RA BR FEW008 BKN013 OVC031 03/01 A2994 RMK AO2 PK WND 24028/2201 RAB07 SLP143 P0001 T00280011 $,0,15,1,8045,0,0,1,"-RA,BR"
2026-04-05 22:50:00,SPECI KBUF 052250Z 27012G24KT 5SM -RA BR FEW008 BKN013 OVC031 03/01 A2993 RMK AO2 PK WND 24028/2201 RAB07 P0000 $,0,12,1,8045,0,0,1,"-RA,BR"
2026-04-05 22:29:00,SPECI KBUF 052229Z 25014G21KT 6SM -RA BR BKN013 BKN026 OVC031 03/01 A2992 RMK AO2 PK WND 24028/2201 RAB07 P0000 T00280011 $,0,14,1,9654,0,0,1,"-RA,BR"
2026-04-05 22:10:00,SPECI KBUF 052210Z 25016G28KT 4SM -RA BR FEW013 BKN027 OVC035 03/01 A2992 RMK AO2 PK WND 24028/2201 RAB07 P0000 T00280006 $,0,16,1,6436,0,0,1,"-RA,BR"
2026-04-05 21:54:00,METAR KBUF 052154Z 24016G31KT 10SM OVC037 03/00 A2991 RMK AO2 PK WND 26031/2153 RAB23E37 SLP134 P0000 T00280000 $,0,16,1,16090,0,0,0,RA
2026-04-05 20:54:00,METAR KBUF 052054Z 25018G29KT 10SM OVC039 03/M01 A2990 RMK AO2 PK WND 23034/2032 SLP130 T00331006 53009 $,0,18,1,16090,0,0,0,
2026-04-05 19:54:00,METAR KBUF 051954Z 24019G29KT 10SM OVC039 04/M01 A2989 RMK AO2 PK WND 25031/1923 SLP125 T00391006 $,0,19,1,16090,0,0,0,
2026-04-05 18:54:00,METAR KBUF 051854Z 25018G27KT 10SM FEW030 OVC037 04/00 A2988 RMK AO2 PK WND 23032/1819 SLP122 T00440000 $,0,18,1,16090,0,0,0,
2026-04-05 17:54:00,METAR KBUF 051754Z 24020G29KT 10SM FEW036 BKN055 06/01 A2987 RMK AO2 PK WND 25032/1742 SLP119 T00560011 10061 20039 55000 $,0,20,1,16090,0,0,0,
2026-04-05 16:54:00,METAR KBUF 051654Z 25016G27KT 10SM SCT036 OVC048 06/00 A2986 RMK AO2 PK WND 25028/1556 SLP115 T00560000 $,0,16,1,16090,0,0,0,
2026-04-05 15:54:00,METAR KBUF 051554Z 24016G27KT 10SM OVC042 04/00 A2987 RMK AO2 PK WND 25031/1500 SLP119 T00440000 $,0,16,1,16090,0,0,0,
2026-04-05 14:54:00,METAR KBUF 051454Z 24018G26KT 10SM FEW030 OVC044 04/01 A2987 RMK AO2 PK WND 25026/1454 SLP118 T00440006 51012 $,0,18,1,16090,0,0,0,
2026-04-05 12:54:00,METAR KBUF 051254Z 23016G28KT 10SM OVC040 04/01 A2985 RMK AO2 PK WND 23032/1242 SLP110 T00440011 $,0,16,1,16090,0,0,0,
2026-04-05 11:54:00,METAR KBUF 051154Z 23020G27KT 10SM BKN033 OVC040 04/02 A2983 RMK AO2 PK WND 23027/1153 SLP104 60021 70067 T00440017 10089 20044 51017 $,0,20,1,16090,0,0,0,
2026-04-05 11:37:00,SPECI KBUF 051137Z 23015G24KT 10SM OVC031 05/02 A2982 RMK AO2 T00500022 $,0,15,1,16090,0,0,0,
2026-04-05 10:54:00,METAR KBUF 051054Z 24015G26KT 10SM BKN025 OVC030 05/03 A2982 RMK AO2 PK WND 23026/1047 SLP100 T00500033 $,0,15,1,16090,0,0,0,
2026-04-05 10:43:00,SPECI KBUF 051043Z 24017G23KT 10SM BKN025 OVC030 05/03 A2981 RMK AO2 T00500033 $,0,17,1,16090,0,0,0,
2026-04-05 09:54:00,METAR KBUF 050954Z 22012KT 10SM SCT005 OVC030 05/04 A2980 RMK AO2 RAE37 SLP091 P0000 T00500039 $,0,12,0,16090,0,0,0,
2026-04-05 08:54:00,METAR KBUF 050854Z 24012KT 10SM -RA OVC003 06/05 A2978 RMK AO2 SLP086 P0003 60021 T00560050 55004 $,0,12,0,16090,0,0,0,-RA
2026-04-05 07:54:00,METAR KBUF 050754Z 23015G22KT 10SM -RA OVC004 07/06 A2977 RMK AO2 PK WND 25026/0742 SLP081 P0006 T00670061 $,0,15,1,16090,0,0,0,-RA
2026-04-05 07:03:00,SPECI KBUF 050703Z 22012KT 10SM -RA BKN004 BKN022 OVC050 08/08 A2977 RMK AO2 P0000 T00830078 $,0,12,0,16090,0,0,0,-RA
2026-04-05 06:54:00,METAR KBUF 050654Z 22012G20KT 10SM -RA FEW004 BKN050 OVC075 08/08 A2978 RMK AO2 PK WND 23026/0612 SLP084 P0012 T00830078 $,0,12,1,16090,0,0,0,-RA
2026-04-05 06:04:00,SPECI KBUF 050604Z 23014G24KT 4SM +RA BR FEW007 SCT030 OVC040 08/08 A2979 RMK AO2 P0003 T00830078 $,0,14,1,6436,0,1,1,"+RA,BR"
2026-04-05 05:54:00,METAR KBUF 050554Z 23014G25KT 9SM -RA FEW022 FEW031 OVC042 08/08 A2979 RMK AO2 PK WND 25031/0507 SLP091 P0010 60046 T00830078 10233 20083 53010 $,0,14,1,14481,0,0,0,-RA
2026-04-05 05:38:00,SPECI KBUF 050538Z 22014G25KT 7SM -RA FEW004 BKN022 OVC034 09/08 A2979 RMK AO2 PK WND 25031/0507 P0009 T00890078 $,0,14,1,11263,0,0,0,-RA
2026-04-05 05:26:00,SPECI KBUF 050526Z 24018G27KT 8SM RA SCT004 SCT018 OVC036 09/08 A2978 RMK AO2 PK WND 25031/0507 P0006 T00890083 $,0,18,1,12872,0,0,0,RA
2026-04-05 04:54:00,METAR KBUF 050454Z 24014G23KT 5SM RA BR OVC003 12/11 A2977 RMK AO2 PK WND 23028/0400 SLP081 P0020 T01170111 402330033 $,0,14,1,8045,0,0,1,"BR,RA"
2026-04-05 03:54:00,METAR KBUF 050354Z 22016G22KT 6SM -RA BR OVC004 13/13 A2976 RMK AO2 SLP079 P0010 T01330128 $,0,16,1,9654,0,0,1,"-RA,BR"
2026-04-05 03:16:00,SPECI KBUF 050316Z 22010G20KT 4SM RA BR BKN009 BKN020 OVC065 12/11 A2977 RMK AO2 CIG 006V011 P0004 T01220111 $,0,10,1,6436,0,0,1,"BR,RA"
2026-04-05 03:07:00,SPECI KBUF 050307Z 21011KT 9SM -RA SCT009 BKN020 OVC080 12/11 A2977 RMK AO2 P0000 T01220111 $,0,11,0,14481,0,0,0,-RA
2026-04-05 02:54:00,METAR KBUF 050254Z 21012KT 9SM -RA FEW018 BKN065 OVC090 13/12 A2976 RMK AO2 PRESRR SLP081 P0006 60006 T01280117 53012 $,0,12,0,14481,0,0,0,-RA
2026-04-05 01:54:00,METAR KBUF 050154Z 28008G17KT 10SM -RA BKN075 OVC095 11/09 A2976 RMK AO2 PK WND 27037/0130 WSHFT 0119 RAB25 SLP080 P0000 T01110089 $,0,8,1,16090,0,0,0,-RA
2026-04-05 01:39:00,SPECI KBUF 050139Z 29015G37KT 10SM -RA BKN080 OVC100 12/08 A2976 RMK AO2 PK WND 27037/0130 WSHFT 0119 RAB25 PRESRR P0000 T01170083 $,0,15,1,16090,0,0,0,-RA
2026-04-05 00:54:00,METAR KBUF 050054Z 18012KT 10SM OVC100 22/13 A2970 RMK AO2 SLP056 T02170128 $,0,12,0,16090,0,0,0,
2026-04-04 23:54:00,METAR KBUF 042354Z 10005KT 10SM SCT070 SCT090 BKN130 BKN240 18/13 A2973 RMK AO2 SLP068 T01830128 10206 20139 58045 $,0,5,0,16090,0,0,0,
2026-04-04 22:54:00,METAR KBUF 042254Z 07007KT 10SM SCT070 SCT090 BKN150 BKN220 19/13 A2979 RMK AO2 SLP088 T01890128 $,0,7,0,16090,0,0,0,
2026-04-04 21:54:00,METAR KBUF 042154Z 06007KT 10SM SCT070 SCT100 SCT150 BKN220 20/13 A2983 RMK AO2 SLP103 T02000133 $,0,7,0,16090,0,0,0,
2026-04-04 20:54:00,METAR KBUF 042054Z 06008KT 10SM FEW090 FEW150 BKN220 21/12 A2986 RMK AO2 SLP114 T02060122 58042 $,0,8,0,16090,0,0,0,
2026-04-04 19:54:00,METAR KBUF 041954Z 05008KT 10SM FEW065 FEW090 SCT140 SCT220 19/11 A2991 RMK AO2 SLP130 T01940106 $,0,8,0,16090,0,0,0,
2026-04-04 18:54:00,METAR KBUF 041854Z 06012KT 10SM FEW055 FEW090 SCT120 BKN200 17/09 A2995 RMK AO2 SLP144 T01670094 $,0,12,0,16090,0,0,0,
2026-04-04 17:54:00,METAR KBUF 041754Z 06014KT 10SM FEW075 SCT090 SCT120 BKN200 14/08 A2999 RMK AO2 SLP158 60000 T01390078 10139 20044 58043 $,0,14,0,16090,0,0,0,
2026-04-04 16:54:00,METAR KBUF 041654Z 07014KT 10SM BKN055 BKN070 BKN100 11/06 A3003 RMK AO2 RAE14 SLP173 P0000 T01060056 $,0,14,0,16090,0,0,0,
2026-04-04 15:54:00,METAR KBUF 041554Z 07011KT 10SM -RA SCT041 BKN110 08/04 A3008 RMK AO2 RAB44 SLP189 P0000 T00830044 $,0,11,0,16090,0,0,0,-RA
2026-04-04 15:23:00,SPECI KBUF 041523Z 06017KT 10SM FEW016 SCT024 BKN070 08/03 A3010 RMK AO2 T00830033 $,0,17,0,16090,0,0,0,
2026-04-04 14:54:00,METAR KBUF 041454Z 07015KT 10SM BKN020 OVC026 07/03 A3012 RMK AO2 SLP202 T00720028 56030 $,0,15,0,16090,0,0,0,
2026-04-04 13:54:00,METAR KBUF 041354Z 07012KT 10SM BKN029 BKN034 BKN120 07/02 A3013 RMK AO2 SLP207 T00670017 $,0,12,0,16090,0,0,0,
2026-04-04 12:54:00,METAR KBUF 041254Z 08014G26KT 10SM FEW043 BKN085 BKN120 05/01 A3016 RMK AO2 PK WND 07026/1250 SLP217 T00500011 $,0,14,1,16090,0,0,0,
2026-04-04 11:54:00,METAR KBUF 041154Z 07013KT 10SM FEW018 FEW060 BKN110 04/01 A3021 RMK AO2 SLP234 70001 T00390006 10044 20033 56006 $,0,13,0,16090,0,0,0,
2026-04-04 10:54:00,METAR KBUF 041054Z 08011KT 10SM FEW100 SCT250 03/01 A3021 RMK AO2 SLP233 T00330006 $,0,11,0,16090,0,0,0,
2026-04-04 09:54:00,METAR KBUF 040954Z 07011KT 10SM FEW100 SCT250 03/01 A3021 RMK AO2 SLP235 T00330006 $,0,11,0,16090,0,0,0,
2026-04-04 08:54:00,METAR KBUF 040854Z 06008KT 10SM FEW250 03/00 A3022 RMK AO2 SLP239 T00330000 56007 $,0,8,0,16090,0,0,0,
2026-04-04 07:54:00,METAR KBUF 040754Z 04007KT 10SM CLR 03/00 A3024 RMK AO2 SLP243 T00330000 $,0,7,0,16090,0,0,0,
2026-04-04 06:54:00,METAR KBUF 040654Z 04005KT 10SM FEW025 SCT350 04/00 A3023 RMK AO2 SLP238 T00390000 $,0,5,0,16090,0,0,0,
2026-04-04 05:54:00,METAR KBUF 040554Z 03005KT 10SM FEW025 BKN250 04/00 A3025 RMK AO2 SLP244 T00440000 10139 20044 50007 $,0,5,0,16090,0,0,0,
2026-04-04 05:26:00,SPECI KBUF 040526Z 02008KT 10SM FEW023 BKN250 05/00 A3025 RMK AO2 T00500000 $,0,8,0,16090,0,0,0,
2026-04-04 04:54:00,METAR KBUF 040454Z 03010KT 10SM BKN023 BKN250 06/01 A3025 RMK AO2 SLP246 T00560006 402170056 $,0,10,0,16090,0,0,0,
2026-04-04 03:54:00,METAR KBUF 040354Z 01007KT 10SM BKN023 BKN029 BKN270 07/03 A3024 RMK AO2 SLP240 T00720028 $,0,7,0,16090,0,0,0,
2026-04-04 02:54:00,METAR KBUF 040254Z 36013G20KT 10SM SCT023 BKN029 BKN270 08/03 A3022 RMK AO2 SLP236 T00780033 51053 $,0,13,1,16090,0,0,0,
2026-04-04 02:42:00,SPECI KBUF 040242Z 36015G21KT 10SM SCT028 BKN270 08/04 A3022 RMK AO2 T00780039 $,0,15,1,16090,0,0,0,
2026-04-04 02:25:00,SPECI KBUF 040225Z 36010KT 10SM BKN028 09/05 A3020 RMK AO2 T00890050 $,0,10,0,16090,0,0,0,
2026-04-04 01:54:00,METAR KBUF 040154Z 33012KT 10SM FEW030 BKN260 10/06 A3018 RMK AO2 SLP220 T01000056 $,0,12,0,16090,0,0,0,
2026-04-04 00:54:00,METAR KBUF 040054Z COR 32008KT 10SM BKN260 12/07 A3012 RMK AO2 PRESRR SLP201 T01220072 $,0,8,0,16090,0,0,0,
2026-04-03 23:54:00,METAR KBUF 032354Z 17005KT 10SM FEW030 FEW270 10/08 A3006 RMK AO2 SLP183 T01000083 10217 20100 53026 $,0,5,0,16090,0,0,0,
2026-04-03 22:54:00,METAR KBUF 032254Z 24012KT 10SM FEW035 FEW270 13/10 A3002 RMK AO2 SLP166 T01330100 $,0,12,0,16090,0,0,0,
2026-04-03 21:54:00,METAR KBUF 032154Z 24015G24KT 10SM FEW035 BKN280 16/12 A3000 RMK AO2 PK WND 24033/2129 SLP157 T01610122 $,0,15,1,16090,0,0,0,
2026-04-03 20:54:00,METAR KBUF 032054Z 24018G32KT 10SM FEW035 FEW060 BKN280 17/13 A2999 RMK AO2 PK WND 24037/2011 SLP154 T01670128 53007 $,0,18,1,16090,0,0,0,
2026-04-03 19:54:00,METAR KBUF 031954Z 24019G41KT 10SM FEW035 FEW065 FEW260 21/14 A2997 RMK AO2 PK WND 25041/1947 SLP145 MDT CU DSNT S T02060144 $,0,19,1,16090,0,0,0,DS
2026-04-03 18:54:00,METAR KBUF 031854Z COR 24023G38KT 10SM FEW037 FEW065 FEW260 20/14 A2997 RMK AO2 PK WND 25041/1758 TCU DSNT S SLP145 MDT CU DSNT SE T02000139 $,0,23,1,16090,0,0,0,DS
2026-04-03 17:54:00,METAR KBUF 031754Z COR 24024G39KT 10SM SCT036 SCT046 BKN065 BKN260 19/13 A2996 RMK AO2 PK WND 23041/1724 SLP145 MDT CU DSNT SE-SW 60001 T01890133 10206 20156 53008 $,0,24,1,16090,0,0,0,DS
2026-04-03 16:54:00,METAR KBUF 031654Z 23023G36KT 10SM BKN036 19/14 A2994 RMK AO2 PK WND 22038/1628 SLP138 T01940139 $,0,23,1,16090,0,0,0,
2026-04-03 15:54:00,METAR KBUF 031554Z 22016G30KT 10SM OVC036 20/14 A2994 RMK AO2 PK WND 22030/1545 SLP137 T02000144 $,0,16,1,16090,0,0,0,
2026-04-03 14:54:00,METAR KBUF 031454Z 21013G25KT 10SM OVC036 19/14 A2994 RMK AO2 SLP137 60001 T01940144 55005 $,0,13,1,16090,0,0,0,
2026-04-03 13:54:00,METAR KBUF 031354Z 20016KT 10SM BKN045 BKN090 BKN160 18/14 A2994 RMK AO2 PK WND 20028/1304 SLP138 T01830139 $,0,16,0,16090,0,0,0,
2026-04-03 12:54:00,METAR KBUF 031254Z 20018G27KT 10SM BKN049 BKN065 BKN090 BKN160 17/13 A2995 RMK AO2 PK WND 20027/1245 RAE09 SLP140 P0001 T01670133 $,0,18,1,16090,0,0,0,
2026-04-03 11:54:00,METAR KBUF 031154Z 20014G23KT 10SM -RA SCT045 BKN065 OVC090 16/13 A2995 RMK AO2 PK WND 23029/1125 RAB09 SLP143 P0007 60008 70010 T01560133 10178 20156 53003 $,0,14,1,16090,0,0,0,-RA
2026-04-03 08:54:00,METAR KBUF 030854Z 21012G20KT 10SM FEW070 SCT110 BKN160 17/12 A2994 RMK AO2 PK WND 21035/0756 RAB43E53 SLP140 P0000 60000 T01670117 53000 $,0,12,1,16090,0,0,0,RA
2026-04-03 05:54:00,METAR KBUF 030554Z 18013G22KT 10SM SCT110 BKN160 BKN250 17/11 A2994 RMK AO2 SLP141 T01670111 10167 20144 58012 $,0,13,1,16090,0,0,0,
2026-04-03 04:54:00,METAR KBUF 030454Z 16016KT 10SM BKN160 BKN250 16/11 A2995 RMK AO2 PK WND 16027/0357 SLP146 T01610111 401670006 $,0,16,0,16090,0,0,0,
2026-04-03 03:54:00,METAR KBUF 030354Z 17021G28KT 10SM FEW100 BKN280 16/11 A2997 RMK AO2 PK WND 17028/0354 SLP152 T01560111 $,0,21,1,16090,0,0,0,
2026-04-03 02:54:00,METAR KBUF 030254Z 15010KT 10SM FEW070 FEW110 BKN270 14/11 A2998 RMK AO2 SLP154 T01440111 58013 $,0,10,0,16090,0,0,0,
2026-04-03 01:54:00,METAR KBUF 030154Z 16012KT 10SM FEW060 FEW100 BKN270 15/11 A2999 RMK AO2 SLP159 T01500111 $,0,12,0,16090,0,0,0,
2026-04-03 00:54:00,METAR KBUF 030054Z 15012KT 10SM FEW065 BKN270 14/11 A3001 RMK AO2 SLP165 T01440111 $,0,12,0,16090,0,0,0,
2026-04-02 23:54:00,METAR KBUF 022354Z 14011KT 10SM FEW010 FEW032 BKN270 16/12 A3002 RMK AO2 SLP168 T01610117 10167 20056 56020 $,0,11,0,16090,0,0,0,
2026-04-02 22:54:00,METAR KBUF 022254Z 06007KT 10SM FEW010 FEW035 BKN270 13/10 A3003 RMK AO2 SLP173 T01330100 $,0,7,0,16090,0,0,0,
2026-04-02 21:54:00,METAR KBUF 022154Z 05009KT 10SM FEW010 FEW040 BKN270 13/09 A3004 RMK AO2 SLP178 T01280089 $,0,9,0,16090,0,0,0,
2026-04-02 20:54:00,METAR KBUF 022054Z 05013KT 10SM FEW010 FEW022 BKN040 BKN250 11/08 A3008 RMK AO2 SLP189 T01060078 57038 $,0,13,0,16090,0,0,0,
2026-04-02 19:54:00,METAR KBUF 021954Z 06013KT 10SM FEW010 FEW019 OVC050 09/07 A3011 RMK AO2 SLP200 T00940067 $,0,13,0,16090,0,0,0,
2026-04-02 19:39:00,SPECI KBUF 021939Z 06013KT 10SM FEW010 SCT024 OVC055 08/06 A3012 RMK AO2 T00830061 $,0,13,0,16090,0,0,0,
2026-04-02 18:54:00,METAR KBUF 021854Z 06013KT 10SM FEW008 OVC021 07/05 A3016 RMK AO2 SLP219 T00670050 $,0,13,0,16090,0,0,0,
2026-04-02 17:54:00,METAR KBUF 021754Z 07013KT 10SM FEW008 OVC019 06/04 A3019 RMK AO2 RAE45 SLP231 P0002 60002 T00560044 10056 20017 58023 $,0,13,0,16090,0,0,0,
2026-04-02 16:54:00,METAR KBUF 021654Z 07012KT 9SM -RA FEW009 OVC017 05/03 A3023 RMK AO2 RAB34 SLP243 P0000 T00500033 $,0,12,0,14481,0,0,0,-RA
2026-04-02 16:52:00,SPECI KBUF 021652Z 07012KT 9SM -RA FEW009 OVC017 05/03 A3022 RMK AO2 RAB34 P0000 $,0,12,0,14481,0,0,0,-RA
2026-04-02 15:54:00,METAR KBUF 021554Z 07014KT 10SM FEW011 OVC017 05/02 A3024 RMK AO2 SLP247 T00500022 $,0,14,0,16090,0,0,0,
2026-04-02 14:54:00,METAR KBUF 021454Z 07012KT 10SM FEW010 OVC017 04/02 A3026 RMK AO2 SLP254 T00440017 58006 $,0,12,0,16090,0,0,0,
2026-04-02 13:54:00,METAR KBUF 021354Z 07013KT 10SM SCT011 OVC020 03/01 A3027 RMK AO2 SLP256 T00330011 $,0,13,0,16090,0,0,0,
2026-04-02 13:33:00,SPECI KBUF 021333Z 07013KT 10SM SCT011 OVC020 03/01 A3027 RMK AO2 T00280006 $,0,13,0,16090,0,0,0,
2026-04-02 12:54:00,METAR KBUF 021254Z 06012KT 10SM BKN010 OVC023 02/00 A3028 RMK AO2 SLP261 T00220000 $,0,12,0,16090,0,0,0,
2026-04-02 12:27:00,SPECI KBUF 021227Z 06011KT 10SM BKN010 OVC025 02/00 A3028 RMK AO2 T00170000 $,0,11,0,16090,0,0,0,
2026-04-02 11:54:00,METAR KBUF 021154Z 06011KT 10SM SCT009 OVC027 02/00 A3028 RMK AO2 SLP261 T00170000 10017 20006 52002 $,0,11,0,16090,0,0,0,
2026-04-02 11:26:00,SPECI KBUF 021126Z 05012KT 10SM FEW009 BKN027 OVC033 01/M01 A3029 RMK AO2 T00111006 $,0,12,0,16090,0,0,0,
2026-04-02 11:10:00,SPECI KBUF 021110Z 05011KT 10SM FEW009 OVC033 01/M01 A3029 RMK AO2 T00111006 $,0,11,0,16090,0,0,0,
2026-04-02 10:54:00,METAR KBUF 021054Z 06010KT 10SM OVC033 01/M01 A3028 RMK AO2 SLP263 T00111006 $,0,10,0,16090,0,0,0,
2026-04-02 10:18:00,SPECI KBUF 021018Z 06012KT 9SM FEW026 OVC032 01/M01 A3026 RMK AO2 T00111011 $,0,12,0,14481,0,0,0,
2026-04-02 10:04:00,SPECI KBUF 021004Z 05010KT 10SM SCT013 BKN026 OVC031 01/M01 A3027 RMK AO2 T00111006 $,0,10,0,16090,0,0,0,
2026-04-02 09:54:00,METAR KBUF 020954Z 05011KT 10SM BKN013 OVC027 01/M01 A3027 RMK AO2 SLP257 T00111011 $,0,11,0,16090,0,0,0,
2026-04-02 08:54:00,METAR KBUF 020854Z 06011KT 10SM OVC013 01/M01 A3027 RMK AO2 SLP259 T00111011 56009 $,0,11,0,16090,0,0,0,
2026-04-02 08:14:00,SPECI KBUF 020814Z 06012KT 10SM OVC014 01/M02 A3027 RMK AO2 T00111017 $,0,12,0,16090,0,0,0,
2026-04-02 07:54:00,METAR KBUF 020754Z 07013KT 10SM BKN017 OVC065 01/M02 A3028 RMK AO2 SLP262 T00111017 $,0,13,0,16090,0,0,0,
2026-04-02 07:49:00,SPECI KBUF 020749Z 06014KT 10SM BKN017 OVC065 01/M02 A3028 RMK AO2 $,0,14,0,16090,0,0,0,
2026-04-02 06:54:00,METAR KBUF 020654Z 05015KT 10SM FEW021 BKN043 BKN250 01/M02 A3030 RMK AO2 SLP268 T00061017 $,0,15,0,16090,0,0,0,
2026-04-02 06:19:00,SPECI KBUF 020619Z 06013KT 10SM FEW013 SCT021 BKN250 01/M02 A3031 RMK AO2 T00061017 $,0,13,0,16090,0,0,0,
2026-04-02 05:54:00,METAR KBUF 020554Z 06014KT 10SM SCT013 BKN021 OVC250 01/M02 A3031 RMK AO2 SLP272 T00111017 10039 20011 56002 $,0,14,0,16090,0,0,0,
2026-04-02 05:17:00,SPECI KBUF 020517Z 05014KT 10SM BKN013 BKN250 01/M02 A3032 RMK AO2 T00111017 $,0,14,0,16090,0,0,0,
2026-04-02 04:54:00,METAR KBUF 020454Z 05011G19KT 10SM SCT017 BKN250 01/M02 A3031 RMK AO2 SLP273 T00111017 401110011 $,0,11,1,16090,0,0,0,
2026-04-02 04:30:00,SPECI KBUF 020430Z 06017G24KT 10SM SCT017 BKN250 01/M02 A3030 RMK AO2 T00111017 $,0,17,1,16090,0,0,0,
2026-04-02 03:54:00,METAR KBUF 020354Z 06019G26KT 10SM OVC016 02/M01 A3030 RMK AO2 PK WND 06026/0352 SLP269 T00171011 $,0,19,1,16090,0,0,0,
2026-04-02 02:54:00,METAR KBUF 020254Z 05014KT 10SM BKN016 OVC100 03/00 A3032 RMK AO2 SLP274 T00280000 53009 $,0,14,0,16090,0,0,0,
2026-04-02 02:23:00,SPECI KBUF 020223Z 07014G22KT 10SM BKN016 OVC100 03/00 A3030 RMK AO2 T00330000 $,0,14,1,16090,0,0,0,
2026-04-02 02:05:00,SPECI KBUF 020205Z 06014KT 10SM OVC014 03/01 A3029 RMK AO2 T00330006 $,0,14,0,16090,0,0,0,
2026-04-02 01:54:00,METAR KBUF 020154Z 06015KT 10SM OVC015 03/01 A3030 RMK AO2 SLP268 T00330006 $,0,15,0,16090,0,0,0,
2026-04-02 01:35:00,SPECI KBUF 020135Z 05012KT 10SM BKN015 OVC021 04/01 A3030 RMK AO2 T00390011 $,0,12,0,16090,0,0,0,
2026-04-02 00:54:00,METAR KBUF 020054Z 06015KT 10SM OVC013 04/02 A3028 RMK AO2 SLP263 T00390017 $,0,15,0,16090,0,0,0,
2026-04-02 00:27:00,SPECI KBUF 020027Z 06016G22KT 10SM OVC013 04/02 A3028 RMK AO2 T00390017 $,0,16,1,16090,0,0,0,
2026-04-01 23:54:00,METAR KBUF 012354Z 07012KT 10SM OVC015 04/02 A3029 RMK AO2 SLP264 60000 T00390017 10039 20028 53014 $,0,12,0,16090,0,0,0,
2026-04-01 23:45:00,SPECI KBUF 012345Z 06010KT 10SM OVC015 04/02 A3029 RMK AO2 T00390017 $,0,10,0,16090,0,0,0,
2026-04-01 22:54:00,METAR KBUF 012254Z 04014KT 10SM OVC010 04/02 A3027 RMK AO2 CIG 010V013 SLP257 T00390017 $,0,14,0,16090,0,0,0,
2026-04-01 21:54:00,METAR KBUF 012154Z 06013KT 10SM OVC010 03/02 A3025 RMK AO2 RAB45E54 SLP251 P0000 T00330017 $,0,13,0,16090,0,0,0,RA
2026-04-01 20:54:00,METAR KBUF 012054Z 04008KT 10SM OVC012 03/01 A3025 RMK AO2 SLP249 T00330011 58005 $,0,8,0,16090,0,0,0,
2026-04-01 19:54:00,METAR KBUF 011954Z 04006KT 10SM OVC013 03/00 A3026 RMK AO2 SLP254 T00280000 $,0,6,0,16090,0,0,0,
2026-04-01 18:54:00,METAR KBUF 011854Z 36007KT 10SM OVC014 03/01 A3027 RMK AO2 SLP255 T00330006 $,0,7,0,16090,0,0,0,
2026-04-01 17:54:00,METAR KBUF 011754Z 36006KT 10SM OVC013 03/00 A3026 RMK AO2 SLP252 T00330000 10033 20022 51010 $,0,6,0,16090,0,0,0,
2026-04-01 16:54:00,METAR KBUF 011654Z 01005KT 10SM OVC012 03/00 A3026 RMK AO2 SLP252 T00280000 $,0,5,0,16090,0,0,0,
2026-04-01 15:54:00,METAR KBUF 011554Z 34005KT 10SM OVC011 03/00 A3025 RMK AO2 SLP251 T00280000 $,0,5,0,16090,0,0,0,
2026-04-01 14:54:00,METAR KBUF 011454Z 35009KT 10SM OVC010 02/01 A3023 RMK AO2 SLP242 T00220006 51033 $,0,9,0,16090,0,0,0,
2026-04-01 13:54:00,METAR KBUF 011354Z 34010KT 10SM OVC008 02/01 A3020 RMK AO2 SLP233 T00220006 $,0,10,0,16090,0,0,0,
2026-04-01 12:54:00,METAR KBUF 011254Z 35011KT 10SM OVC007 02/01 A3016 RMK AO2 SLP220 T00220006 $,0,11,0,16090,0,0,0,
2026-04-01 11:54:00,METAR KBUF 011154Z 36009KT 10SM OVC008 03/02 A3013 RMK AO2 SLP207 60005 70124 T00280017 10111 20028 53028 $,0,9,0,16090,0,0,0,
2026-04-01 10:54:00,METAR KBUF 011054Z 36008KT 10SM OVC009 03/02 A3008 RMK AO2 RAE0957 SLP190 P0000 T00330022 $,0,8,0,16090,0,0,0,RA
2026-04-01 10:49:00,SPECI KBUF 011049Z 35008KT 10SM OVC009 04/03 A3008 RMK AO2 RAE0957 P0000 $,0,8,0,16090,0,0,0,RA
2026-04-01 10:13:00,SPECI KBUF 011013Z 35007KT 10SM BKN012 OVC028 04/03 A3006 RMK AO2 RAE0957 P0000 T00440033 $,0,7,0,16090,0,0,0,RA
2026-04-01 10:03:00,SPECI KBUF 011003Z 35008KT 10SM FEW010 BKN015 OVC028 05/03 A3005 RMK AO2 RAE0957 P0000 T00500033 $,0,8,0,16090,0,0,0,RA
2026-04-01 09:54:00,METAR KBUF 010954Z 34010KT 10SM -RA BKN012 OVC028 05/03 A3004 RMK AO2 RAE24B42 SLP177 P0001 T00500033 $,0,10,0,16090,0,0,0,"-RA,RA"
2026-04-01 09:15:00,SPECI KBUF 010915Z 35007KT 10SM -RA SCT009 BKN013 OVC023 06/04 A3001 RMK AO2 P0001 T00560044 $,0,7,0,16090,0,0,0,-RA
2026-04-01 08:54:00,METAR KBUF 010854Z 35008KT 10SM -RA OVC019 06/04 A2999 RMK AO2 RAB32 SLP158 P0000 60004 T00610039 53032 $,0,8,0,16090,0,0,0,-RA
2026-04-01 08:40:00,SPECI KBUF 010840Z 36007KT 6SM -RA BR SCT007 OVC017 06/04 A2997 RMK AO2 RAB32 P0000 T00610044 $,0,7,0,9654,0,0,1,"-RA,BR"
2026-04-01 07:54:00,METAR KBUF 010754Z 36008G18KT 10SM BKN006 OVC014 07/06 A2993 RMK AO2 PK WND 01029/0709 RAE33 CIG 005V010 SLP139 P0000 T00720061 $,0,8,1,16090,0,0,0,
2026-04-01 07:44:00,SPECI KBUF 010744Z 36013KT 10SM OVC006 07/07 A2993 RMK AO2 PK WND 01029/0709 RAE33 CIG 004V010 P0000 T00720067 $,0,13,0,16090,0,0,0,
2026-04-01 06:54:00,METAR KBUF 010654Z 32010KT 6SM -RA BR BKN004 BKN009 OVC015 11/11 A2990 RMK AO2 SLP125 P0004 T01060106 $,0,10,0,9654,0,0,1,"-RA,BR"
2026-04-01 06:50:00,SPECI KBUF 010650Z 33012KT 6SM -RA BR BKN004 BKN009 OVC015 11/11 A2989 RMK AO2 P0004 $,0,12,0,9654,0,0,1,"-RA,BR"
2026-04-01 06:43:00,SPECI KBUF 010643Z 30010KT 5SM -RA BR SCT004 BKN009 OVC017 11/11 A2989 RMK AO2 P0004 T01110106 $,0,10,0,8045,0,0,1,"-RA,BR"
2026-04-01 06:32:00,SPECI KBUF 010632Z 28006KT 3SM -RA BR FEW004 BKN016 OVC022 11/11 A2989 RMK AO2 P0003 T01110106 $,0,6,0,4827,0,0,1,"-RA,BR"
2026-04-01 06:03:00,SPECI KBUF 010603Z 23005KT 2 1/2SM -RA BR FEW002 OVC019 09/08 A2988 RMK AO2 P0001 T00890083 $,0,5,0,4022,0,0,1,"-RA,BR"
2026-04-01 05:54:00,METAR KBUF 010554Z 22007KT 3SM -RA BR SCT002 BKN019 OVC025 08/08 A2988 RMK AO2 RAB13 SLP120 P0000 60031 T00830083 10144 20067 51010 $,0,7,0,4827,0,0,1,"-RA,BR"
2026-04-01 05:52:00,SPECI KBUF 010552Z 23007KT 3SM -RA BR SCT002 BKN019 OVC025 08/08 A2988 RMK AO2 RAB13 P0000 $,0,7,0,4827,0,0,1,"-RA,BR"
2026-04-01 04:54:00,METAR KBUF 010454Z 21009KT 4SM BR BKN002 BKN028 OVC037 07/07 A2987 RMK AO2 SLP115 T00720067 402000067 $,0,9,0,6436,0,0,1,BR
2026-04-01 04:43:00,SPECI KBUF 010443Z 21008KT 3SM BR BKN002 OVC028 07/07 A2986 RMK AO2 T00720067 $,0,8,0,4827,0,0,1,BR
2026-04-01 04:27:00,SPECI KBUF 010427Z 21009KT 1SM R23/4500VP6000FT BR VV002 07/07 A2985 RMK AO2 T00670067 $,0,9,0,1609,0,0,1,BR
2026-04-01 04:01:00,SPECI KBUF 010401Z 21010KT 1/2SM R23/3000V4000FT FG VV002 07/07 A2984 RMK AO2 T00670067 $,0,10,0,804,0,0,1,FG
2026-04-01 03:54:00,METAR KBUF 010354Z 21011KT 1 1/2SM R23/3000V4000FT BR OVC002 07/07 A2985 RMK AO2 SLP109 T00720067 $,0,11,0,2414,0,0,1,BR
2026-04-01 03:37:00,SPECI KBUF 010337Z 21012KT 1 1/2SM R23/5000VP6000FT BR OVC002 08/08 A2985 RMK AO2 T00830078 $,0,12,0,2414,0,0,1,BR
2026-04-01 02:54:00,METAR KBUF 010254Z 22011KT 8SM OVC003 08/08 A2985 RMK AO2 PK WND 23027/0219 RAE08 SLP110 P0000 60031 T00830078 53026 $,0,11,0,12872,0,0,0,
2026-04-01 02:02:00,SPECI KBUF 010202Z 24016G23KT 10SM -RA OVC004 10/09 A2981 RMK AO2 CIG 003V007 P0000 T01000089 $,0,16,1,16090,0,0,0,-RA
2026-04-01 01:54:00,METAR KBUF 010154Z 22014G23KT 10SM -RA OVC006 11/09 A2978 RMK AO2 PK WND 24032/0056 RAE37B54 CIG 003V008 SLP087 P0008 T01060094 $,0,14,1,16090,0,0,0,"-RA,RA"
2026-04-01 00:54:00,METAR KBUF 010054Z 24017G26KT 10SM -RA OVC005 11/09 A2980 RMK AO2 PK WND 24048/0011 WSHFT 2352 CIG 004V008 SLP094 P0023 T01060094 $,0,17,1,16090,0,0,0,-RA
2026-04-01 00:35:00,SPECI KBUF 010035Z 24017G40KT 10SM -RA BKN007 OVC014 12/11 A2980 RMK AO2 PK WND 24048/0011 WSHFT 2352 CIG 004V010 P0023 T01170106 $,0,17,1,16090,0,0,0,-RA
2026-04-01 00:21:00,SPECI KBUF 010021Z 24026G48KT 4SM -RA BR SCT009 BKN013 OVC028 14/12 A2978 RMK AO2 PK WND 24048/0011 WSHFT 2352 P0023 T01390122 $,0,26,1,6436,0,0,1,"-RA,BR"
2026-04-01 00:13:00,SPECI KBUF 010013Z 22032G48KT 4SM -RA BR SCT012 BKN024 OVC055 14/12 A2979 RMK AO2 PK WND 24048/0011 WSHFT 2352 P0023 T01390122 $,0,32,1,6436,0,0,1,"-RA,BR"
2026-04-01 00:06:00,SPECI KBUF 010006Z 23024G36KT 1 1/2SM R23/6000VP6000FT -RA BR FEW012 BKN024 OVC050 14/13 A2979 RMK AO2 PK WND 25036/0002 WSHFT 2352 P0020 T01390128 $,0,24,1,2414,0,0,1,"-RA,BR"
2026-03-31 23:59:00,SPECI KBUF 312359Z 25015G24KT 1 1/2SM R23/6000VP6000FT -RA BR FEW018 BKN039 OVC055 14/12 A2978 RMK AO2 PRESRR P0002 T01390122 $,0,15,1,2414,0,0,1,"-RA,BR"
2026-03-31 23:54:00,METAR KBUF 312354Z 26013G19KT 3SM -RA BR FEW020 BKN039 OVC050 14/13 A2977 RMK AO2 PRESRR SLP082 P0001 60052 T01440128 10172 20128 55001 $,0,13,1,4827,0,0,1,"-RA,BR"
2026-03-31 22:54:00,METAR KBUF 312254Z 20011KT 10SM -RA FEW004 BKN034 OVC065 15/14 A2976 RMK AO2 TSE23 SLP076 TS MOVD E P0022 T01500139 $,0,11,0,16090,1,0,0,"-RA,TS"
2026-03-31 22:31:00,SPECI KBUF 312231Z 20011KT 8SM -RA SCT004 OVC035 14/14 A2977 RMK AO2 TSE23 TS MOVD E P0019 T01440139 $,0,11,0,12872,1,0,0,"-RA,TS"
2026-03-31 22:24:00,SPECI KBUF 312224Z 20011KT 8SM -RA BKN005 OVC035 14/14 A2977 RMK AO2 TSE23 TS MOVD E P0019 T01440139 $,0,11,0,12872,1,0,0,"-RA,TS"
2026-03-31 22:11:00,SPECI KBUF 312211Z 20013KT 3SM R23/4500VP6000FT -TSRA BR BKN005 BKN024 OVC032CB 14/14 A2977 RMK AO2 OCNL LTGIC VC E TS VC E MOV E P0018 T01390139 $,0,13,0,4827,1,0,1,"BR,RA,TS,VC"
2026-03-31 21:54:00,METAR KBUF 312154Z 20011KT 2SM R23/3000VP6000FT TSRA BR FEW007 BKN015 OVC032CB 14/13 A2977 RMK AO2 SLP081 RAB05 TSB25 OCNL LTGCGIC SE TS SE MOV NE P0014 T01440133 $,0,11,0,3218,1,0,1,"BR,RA,TS"
2026-03-31 21:51:00,SPECI KBUF 312151Z 21011KT 1 1/2SM R23/3000VP6000FT TSRA BR FEW007 BKN015 OVC032CB 14/13 A2978 RMK AO2 RAB05 TSB25 OCNL LTGCGIC SE TS SE MOV NE P0012 $,0,11,0,2414,1,0,1,"BR,RA,TS"
2026-03-31 21:38:00,SPECI KBUF 312138Z 21011G19KT 4SM -TSRA BR FEW007 BKN015 OVC022CB 14/14 A2978 RMK AO2 RAB05 TSB25 OCNL LTGCGIC VC SE TS VC SE MOV NE P0011 T01440139 $,0,11,1,6436,1,0,1,"BR,RA,TS,VC"
2026-03-31 21:25:00,SPECI KBUF 312125Z COR 21011KT 5SM -TSRA BR BKN016 BKN022CB OVC035 14/14 A2980 RMK AO2 RAB05 TSB25 OCNL LTGCG VC S TS VC S MOV NE P0009 T01440139 $,0,11,0,8045,1,0,1,"BR,RA,TS,VC"
2026-03-31 21:16:00,SPECI KBUF 312116Z 21008KT 2SM R23/4500VP6000FT RA BR SCT016 BKN022 OVC035 14/13 A2979 RMK AO2 RAB05 P0008 T01390133 $,0,8,0,3218,0,0,1,"BR,RA"
2026-03-31 21:11:00,SPECI KBUF 312111Z 21009KT 1 1/2SM R23/4500VP6000FT +RA BR SCT019 SCT024 OVC035 14/13 A2979 RMK AO2 RAB05 P0003 T01390133 $,0,9,0,2414,0,1,1,"+RA,BR"
2026-03-31 20:54:00,METAR KBUF 312054Z 19008KT 8SM BKN033 BKN055 OVC100 14/13 A2979 RMK AO2 RAE54 TSB22E50 SLP088 TS MOVD NE P0012 60015 T01390128 55009 $,0,8,0,12872,1,0,0,TS
2026-03-31 20:50:00,SPECI KBUF 312050Z 20009KT 7SM -RA BKN035 BKN050 OVC100 13/13 A2979 RMK AO2 TSB22E50 TS MOVD NE P0012 $,0,9,0,11263,1,0,0,"-RA,TS"
2026-03-31 20:35:00,SPECI KBUF 312035Z 20007KT 2 1/2SM R23/4500VP6000FT -TSRA BR SCT041CB BKN060 OVC075 13/12 A2979 RMK AO2 VIS 1 1/4V5 TSB22 OCNL LTGCGIC VC N TS VC N MOV NE P0011 T01330122 $,0,7,0,4022,1,0,1,"BR,RA,TS,VC"
2026-03-31 20:26:00,SPECI KBUF 312026Z 22009KT 4SM -TSRA BR SCT041CB BKN060 OVC075 13/12 A2979 RMK AO2 TSB22 OCNL LTGCGIC VC NW TS VC NW MOV NE P0007 T01330122 $,0,9,0,6436,1,0,1,"BR,RA,TS,VC"
2026-03-31 19:54:00,METAR KBUF 311954Z 21012G21KT 5SM RA BR FEW005 SCT040 OVC085 13/12 A2979 RMK AO2 PK WND 23027/1856 SLP087 TSB18E40 TS MOVD E FRQ LTGICCCCACG DSNT SE-S OCNL LTGICCC DSNT W-NW CB DSNT SE-S AND W-NW MOV E P0003 T01330117 $,0,12,1,8045,1,0,1,"BR,DS,RA,TS"
2026-03-31 19:44:00,SPECI KBUF 311944Z 22014G21KT 9SM -RA FEW005 SCT040 OVC085 14/12 A2981 RMK AO2 PK WND 23027/1856 TSB18E40 TS MOVD E FRQ LTGICCCCACG DSNT SE-S OCNL LTGICCC DSNT W-NW CB DSNT SE-S AND W-NW MOV E P0001 T01440122 $,0,14,1,14481,1,0,0,"-RA,DS,TS"
2026-03-31 19:23:00,SPECI KBUF 311923Z 22014KT 10SM -TSRA SCT035CB SCT070 OVC100 16/14 A2979 RMK AO2 PK WND 23027/1856 TSB18 OCNL LTGICCCCG VC SE-SW TS VC SE-SW MOV E P0001 T01610139 $,0,14,0,16090,1,0,0,"RA,TS,VC"
2026-03-31 18:54:00,METAR KBUF 311854Z 24017G25KT 10SM -RA BKN035 BKN060 OVC090 17/13 A2982 RMK AO2 SLP096 OCNL LTGICCCCG DSNT SW-W CB DSNT SW-W MOV E P0000 T01720133 $,0,17,1,16090,0,0,0,"-RA,DS"
2026-03-31 17:54:00,METAR KBUF 311754Z 22016G25KT 10SM -RA BKN035 BKN065 OVC100 17/13 A2982 RMK AO2 PK WND 22028/1713 RAB15 SLP097 P0001 60036 T01720133 10200 20111 55012 $,0,16,1,16090,0,0,0,-RA
2026-03-31 16:54:00,METAR KBUF 311654Z 22019G30KT 10SM BKN033 BKN110 BKN200 OVC250 19/14 A2982 RMK AO2 PK WND 24030/1647 RAB20E34 SLP097 P0000 T01940139 $,0,19,1,16090,0,0,0,RA
2026-03-31 15:54:00,METAR KBUF 311554Z 22016G26KT 10SM FEW035 FEW110 FEW200 BKN250 18/14 A2984 RMK AO2 PK WND 22026/1554 RAE08 SLP104 P0000 T01780139 $,0,16,1,16090,0,0,0,
2026-03-31 14:54:00,METAR KBUF 311454Z 24011KT 10SM -RA FEW033 SCT060 SCT120 BKN240 14/12 A2986 RMK AO2 RAB20 SLP110 P0000 60035 T01390117 58014 $,0,11,0,16090,0,0,0,-RA
2026-03-31 14:21:00,SPECI KBUF 311421Z 20011KT 9SM -RA FEW005 SCT055 SCT085 BKN130 BKN230 13/12 A2982 RMK AO2 RAB20 PRESFR P0000 T01280117 $,0,11,0,14481,0,0,0,-RA
2026-03-31 13:54:00,METAR KBUF 311354Z 21014G26KT 7SM BKN005 BKN050 BKN085 OVC130 12/11 A2988 RMK AO2 PK WND 24028/1318 RAE49 SLP121 P0020 T01170106 $,0,14,1,11263,0,0,0,
2026-03-31 13:49:00,SPECI KBUF 311349Z 20017G26KT 7SM BKN005 BKN050 BKN085 OVC130 11/11 A2988 RMK AO2 PK WND 24028/1318 RAE49 P0020 $,0,17,1,11263,0,0,0,
2026-03-31 13:46:00,SPECI KBUF 311346Z 20020G26KT 5SM -RA BR FEW005 BKN050 BKN085 OVC130 11/11 A2987 RMK AO2 PK WND 24028/1318 P0020 T01110106 $,0,20,1,8045,0,0,1,"-RA,BR"
2026-03-31 13:17:00,SPECI KBUF 311317Z 23015G27KT 2 1/2SM +RA BR FEW019 SCT033 OVC050 13/11 A2992 RMK AO2 PK WND 24027/1312 OCNL LTGIC DSNT NW CB DSNT NW MOV E P0009 T01280111 $,0,15,1,4022,0,1,1,"+RA,BR,DS"
2026-03-31 12:54:00,METAR KBUF 311254Z 21009KT 4SM RA BR BKN033 BKN045 OVC060 13/12 A2990 RMK AO2 SLP126 FRQ LTGICCC DSNT SW-NW CB DSNT SW-NW MOV E P0015 T01280117 $,0,9,0,6436,0,0,1,"BR,DS,RA"
2026-03-31 11:54:00,METAR KBUF 311154Z 26011KT 5SM -RA BR BKN037 OVC050 14/12 A2990 RMK AO2 RAB12 SLP127 P0005 60015 70039 T01390117 10172 20139 51034 $,0,11,0,8045,0,0,1,"-RA,BR"
2026-03-31 10:54:00,METAR KBUF 311054Z 29008KT 10SM FEW014 FEW028 OVC037 14/12 A2989 RMK AO2 PK WND 25030/0957 WSHFT 0955 RAE14B27E37 TSE24 SLP122 OCNL LTGIC DSNT NE-E CB DSNT NE-E MOV E TS MOVD E P0010 T01440117 $,0,8,0,16090,1,0,0,"DS,RA,TS"
2026-03-31 10:24:00,SPECI KBUF 311024Z 28016G25KT 10SM FEW014 BKN033 OVC041 16/12 A2988 RMK AO2 PK WND 25030/0957 WSHFT 0955 RAE14 TSE24 FRQ LTGICCC DSNT NE-SE CB DSNT NE-SE MOV E TS MOVD E P0010 T01560122 $,0,16,1,16090,1,0,0,"DS,TS"
2026-03-31 10:12:00,SPECI KBUF 311012Z 23009G23KT 180V270 10SM -TSRA FEW014 BKN038CB OVC050 14/12 A2985 RMK AO2 PK WND 25030/0957 WSHFT 0955 CONS LTGICCCCACG VC NE-SE-S TS VC NE-SE-S MOV E P0010 T01390117 $,0,9,1,16090,1,0,0,"RA,TS,VC"
2026-03-31 09:54:00,METAR KBUF 310954Z 24020G29KT 9SM -TSRA BKN050CB BKN085 OVC190 17/12 A2982 RMK AO2 PK WND 22032/0919 RAB54 TSB41 SLP099 CONS LTGICCCCACG SW-OHD-N TS SW-OHD-N MOV E P0000 T01720117 $,0,20,1,14481,1,0,0,"RA,TS"
2026-03-31 09:41:00,SPECI KBUF 310941Z 23016G31KT 10SM TS SCT050CB BKN085 OVC190 17/12 A2981 RMK AO2 PK WND 22032/0919 TSB41 PRESRR FRQ LTGICCCCACG VC SW-NW-N TS VC SW-NW-N MOV E T01720117 $,0,16,1,16090,1,0,0,"TS,VC"
2026-03-31 08:54:00,METAR KBUF 310854Z 23021G31KT 10SM FEW044 BKN095 17/12 A2980 RMK AO2 PK WND 21033/0844 SLP090 T01720117 56010 $,0,21,1,16090,0,0,0,
2026-03-31 07:54:00,METAR KBUF 310754Z 22017G27KT 10SM OVC048 17/12 A2981 RMK AO2 PK WND 21028/0737 SLP094 T01720122 $,0,17,1,16090,0,0,0,
2026-03-31 06:54:00,METAR KBUF 310654Z 21013KT 10SM BKN050 BKN070 OVC090 16/12 A2981 RMK AO2 SLP095 T01610122 $,0,13,0,16090,0,0,0,
2026-03-31 05:54:00,METAR KBUF 310554Z 19013KT 10SM SCT050 OVC110 14/12 A2983 RMK AO2 SLP101 60024 T01390122 10139 20111 58035 $,0,13,0,16090,0,0,0,
2026-03-31 04:54:00,METAR KBUF 310454Z 17008KT 10SM BKN045 OVC060 14/12 A2988 RMK AO2 RAE0355B02E31 TSE11 SLP119 TS MOVD E P0001 T01390122 401560028 $,0,8,0,16090,1,0,0,"RA,TS"
2026-03-31 04:12:00,SPECI KBUF 310412Z 18008KT 9SM -RA SCT039 BKN046 OVC060 13/12 A2990 RMK AO2 RAE0355B02 TSE11 OCNL LTGIC DSNT E TS MOVD E P0000 T01330122 $,0,8,0,14481,1,0,0,"-RA,DS,RA,TS"
2026-03-31 03:54:00,METAR KBUF 310354Z 19010KT 8SM R23/6000VP6000FT -TSRA BKN032CB OVC070 13/12 A2991 RMK AO2 RAE03B31 TSB47 SLP130 OCNL LTGICCCCACG OHD-S TS OHD-S MOV E P0011 T01330122 $,0,10,0,12872,1,0,0,"RA,TS"
2026-03-31 03:47:00,SPECI KBUF 310347Z 19014G21KT 2SM R23/6000VP6000FT +TSRA BR BKN032CB OVC070 13/12 A2991 RMK AO2 RAE03B31 TSB47 OCNL LTGICCCCACG OHD-S TS OHD-S MOV E P0005 T01280122 $,0,14,1,3218,1,0,1,"BR,RA,TS"
2026-03-31 02:54:00,METAR KBUF 310254Z 13004KT 10SM -RA BKN038 OVC046 13/12 A2994 RMK AO2 SLP138 P0012 60012 T01280117 58012 $,0,4,0,16090,0,0,0,-RA
2026-03-31 02:37:00,SPECI KBUF 310237Z 14008KT 6SM -RA BR BKN039 OVC045 12/11 A2993 RMK AO2 P0011 T01220111 $,0,8,0,9654,0,0,1,"-RA,BR"
2026-03-31 02:17:00,SPECI KBUF 310217Z 00000KT 2SM RA BR BKN041 OVC050 12/10 A2995 RMK AO2 P0001 T01170100 $,0,0,0,3218,0,0,1,"BR,RA"
2026-03-31 01:54:00,METAR KBUF 310154Z 17007KT 7SM -RA SCT047 BKN055 OVC080 12/09 A2995 RMK AO2 RAB04E13B46 SLP144 OCNL LTGIC DSNT NW CB DSNT NW MOV E P0000 T01170094 $,0,7,0,11263,0,0,0,"-RA,DS,RA"
2026-03-31 00:54:00,METAR KBUF 310054Z 20006KT 10SM BKN047 OVC060 12/08 A2996 RMK AO2 RAB33E45 SLP147 P0000 T01170078 $,0,6,0,16090,0,0,0,RA
2026-03-30 23:54:00,METAR KBUF 302354Z 23008KT 10SM BKN055 OVC075 12/07 A2997 RMK AO2 SLP152 T01170067 10156 20106 50004 $,0,8,0,16090,0,0,0,
2026-03-30 22:54:00,METAR KBUF 302254Z 23008KT 10SM OVC060 11/07 A2998 RMK AO2 SLP153 T01110067 $,0,8,0,16090,0,0,0,
2026-03-30 21:54:00,METAR KBUF 302154Z 22009KT 10SM BKN065 BKN130 11/06 A2997 RMK AO2 SLP151 T01110056 $,0,9,0,16090,0,0,0,
2026-03-30 20:54:00,METAR KBUF 302054Z 22012G22KT 10SM FEW065 SCT130 SCT260 13/06 A2996 RMK AO2 SLP148 T01330061 56008 $,0,12,1,16090,0,0,0,
2026-03-30 19:54:00,METAR KBUF 301954Z 22015G22KT 10SM SCT065 SCT130 BKN260 14/06 A2996 RMK AO2 SLP150 T01390061 $,0,15,1,16090,0,0,0,
2026-03-30 18:54:00,METAR KBUF 301854Z 24015G25KT 10SM SCT060 SCT130 SCT200 BKN260 14/06 A2997 RMK AO2 PK WND 25035/1806 SLP153 VIRGA VC SE-SW-W T01390061 $,0,15,1,16090,0,0,0,VC
2026-03-30 17:54:00,METAR KBUF 301754Z COR 24021G31KT 10SM FEW060 SCT170 BKN260 16/06 A2998 RMK AO2 PK WND 23031/1743 SLP156 T01560061 10156 20083 58007 $,0,21,1,16090,0,0,0,
2026-03-30 16:54:00,METAR KBUF 301654Z 23017G27KT 10SM BKN065 BKN170 BKN270 14/05 A3000 RMK AO2 PK WND 24027/1652 SLP160 T01440050 $,0,17,1,16090,0,0,0,
2026-03-30 15:54:00,METAR KBUF 301554Z 24019G28KT 10SM BKN065 BKN270 14/04 A3001 RMK AO2 PK WND 24028/1554 SLP165 T01440044 $,0,19,1,16090,0,0,0,
2026-03-30 14:54:00,METAR KBUF 301454Z 22014G30KT 10SM SCT070 SCT280 15/04 A3000 RMK AO2 PK WND 23030/1446 SLP163 T01500039 58006 $,0,14,1,16090,0,0,0,
2026-03-30 13:54:00,METAR KBUF 301354Z 23014G19KT 10SM BKN070 BKN280 14/03 A3001 RMK AO2 SLP166 T01390028 $,0,14,1,16090,0,0,0,
2026-03-30 12:54:00,METAR KBUF 301254Z 23012KT 10SM BKN070 BKN290 13/02 A3002 RMK AO2 SLP169 T01280017 $,0,12,0,16090,0,0,0,
2026-03-30 11:54:00,METAR KBUF 301154Z 22005KT 10SM BKN075 08/M01 A3002 RMK AO2 SLP170 T00831011 10083 20028 55004 $,0,5,0,16090,0,0,0,
2026-03-30 10:54:00,METAR KBUF 301054Z 22004KT 10SM BKN080 07/M03 A3002 RMK AO2 SLP168 T00721033 $,0,4,0,16090,0,0,0,
2026-03-30 09:54:00,METAR KBUF 300954Z 18006KT 10SM OVC080 05/M04 A3002 RMK AO2 SLP171 T00501044 $,0,6,0,16090,0,0,0,
2026-03-30 08:54:00,METAR KBUF 300854Z 19005KT 10SM BKN085 03/M04 A3003 RMK AO2 SLP176 T00281044 56016 $,0,5,0,16090,0,0,0,
2026-03-30 07:54:00,METAR KBUF 300754Z 20004KT 10SM FEW100 04/M06 A3004 RMK AO2 SLP179 T00441056 $,0,4,0,16090,0,0,0,
2026-03-30 06:54:00,METAR KBUF 300654Z 23004KT 10SM FEW100 04/M06 A3006 RMK AO2 SLP183 T00441056 $,0,4,0,16090,0,0,0,
2026-03-30 05:54:00,METAR KBUF 300554Z 22004KT 10SM FEW100 04/M06 A3008 RMK AO2 SLP192 T00441056 10072 20039 56021 $,0,4,0,16090,0,0,0,
2026-03-30 04:54:00,METAR KBUF 300454Z 19004KT 10SM FEW100 SCT150 05/M06 A3009 RMK AO2 SLP196 T00501061 401001006 $,0,4,0,16090,0,0,0,
2026-03-30 03:54:00,METAR KBUF 300354Z 00000KT 10SM SCT130 SCT160 05/M06 A3012 RMK AO2 SLP206 T00501061 $,0,0,0,16090,0,0,0,
2026-03-30 02:54:00,METAR KBUF 300254Z 13004KT 10SM BKN130 BKN160 BKN260 06/M07 A3015 RMK AO2 SLP213 T00611072 58020 $,0,4,0,16090,0,0,0,
2026-03-30 01:54:00,METAR KBUF 300154Z 15008KT 10SM SCT130 OVC260 07/M08 A3017 RMK AO2 SLP221 T00671078 $,0,8,0,16090,0,0,0,
2026-03-30 00:54:00,METAR KBUF 300054Z 15005KT 10SM SCT130 BKN170 OVC270 07/M08 A3020 RMK AO2 SLP231 T00671078 $,0,5,0,16090,0,0,0,
2026-03-29 23:54:00,METAR KBUF 292354Z 17005KT 10SM BKN130 OVC260 07/M08 A3020 RMK AO2 SLP234 T00721078 10100 20072 58015 $,0,5,0,16090,0,0,0,
2026-03-29 22:54:00,METAR KBUF 292254Z 21004KT 10SM BKN120 OVC260 08/M06 A3022 RMK AO2 SLP241 T00831061 $,0,4,0,16090,0,0,0,
2026-03-29 21:54:00,METAR KBUF 292154Z VRB04KT 10SM FEW120 OVC250 09/M07 A3023 RMK AO2 SLP244 T00891067 $,0,4,0,16090,0,0,0,
2026-03-29 20:54:00,METAR KBUF 292054Z 25008KT 10SM FEW080 BKN130 OVC250 09/M06 A3025 RMK AO2 SLP250 T00941061 56022 $,0,8,0,16090,0,0,0,
2026-03-29 19:54:00,METAR KBUF 291954Z 25008KT 10SM FEW080 SCT120 OVC200 09/M06 A3026 RMK AO2 SLP254 T00941061 $,0,8,0,16090,0,0,0,
2026-03-29 18:54:00,METAR KBUF 291854Z 23014KT 10SM SCT120 OVC200 09/M07 A3029 RMK AO2 PK WND 20027/1803 SLP263 T00891072 $,0,14,0,16090,0,0,0,
2026-03-29 17:54:00,METAR KBUF 291754Z 24013G23KT 10SM SCT110 BKN200 09/M07 A3032 RMK AO2 SLP272 T00891067 10089 20017 58019 $,0,13,1,16090,0,0,0,
2026-03-29 16:54:00,METAR KBUF 291654Z 24016G24KT 10SM FEW110 BKN150 BKN200 08/M07 A3034 RMK AO2 PK WND 25029/1626 SLP280 T00831067 $,0,16,1,16090,0,0,0,
2026-03-29 15:54:00,METAR KBUF 291554Z 23014G27KT 10SM SCT110 BKN150 BKN200 BKN250 08/M06 A3035 RMK AO2 PK WND 23027/1548 SLP287 T00781061 $,0,14,1,16090,0,0,0,
2026-03-29 14:54:00,METAR KBUF 291454Z 22015G22KT 10SM BKN110 BKN150 BKN200 06/M07 A3037 RMK AO2 PK WND 24028/1441 SLP293 T00611067 58004 $,0,15,1,16090,0,0,0,
2026-03-29 13:54:00,METAR KBUF 291354Z 23013G19KT 10SM SCT110 BKN150 06/M07 A3038 RMK AO2 SLP295 T00561072 $,0,13,1,16090,0,0,0,
2026-03-29 12:54:00,METAR KBUF 291254Z 22011KT 10SM SCT110 BKN150 04/M08 A3039 RMK AO2 SLP298 T00391078 $,0,11,0,16090,0,0,0,
2026-03-29 11:54:00,METAR KBUF 291154Z 20010KT 10SM BKN110 BKN150 02/M07 A3039 RMK AO2 SLP299 T00171072 10017 21006 58003 $,0,10,0,16090,0,0,0,
2026-03-29 10:54:00,METAR KBUF 291054Z 19008KT 10SM BKN110 01/M08 A3039 RMK AO2 SLP299 T00061078 $,0,8,0,16090,0,0,0,
2026-03-29 09:54:00,METAR KBUF 290954Z 16005KT 10SM OVC110 01/M09 A3040 RMK AO2 SLP303 T00061089 $,0,5,0,16090,0,0,0,
2026-03-29 08:54:00,METAR KBUF 290854Z 18005KT 10SM BKN120 BKN150 00/M09 A3040 RMK AO2 SLP302 T00001089 55006 $,0,5,0,16090,0,0,0,
2026-03-29 07:54:00,METAR KBUF 290754Z 20006KT 10SM OVC110 01/M08 A3039 RMK AO2 SLP301 T00061083 $,0,6,0,16090,0,0,0,
2026-03-29 06:54:00,METAR KBUF 290654Z 21007KT 10SM OVC100 01/M08 A3039 RMK AO2 SLP300 T00061083 $,0,7,0,16090,0,0,0,
2026-03-29 05:54:00,METAR KBUF 290554Z 19007KT 10SM OVC080 00/M08 A3041 RMK AO2 SLP308 T00001083 10000 21017 58017 $,0,7,0,16090,0,0,0,
2026-03-29 04:54:00,METAR KBUF 290454Z 20008KT 10SM OVC070 M01/M08 A3044 RMK AO2 SLP319 T10061078 400001056 $,0,8,0,16090,0,0,0,
2026-03-29 03:54:00,METAR KBUF 290354Z 20008KT 10SM OVC085 M01/M07 A3046 RMK AO2 SLP323 T10111067 $,0,8,0,16090,0,0,0,
2026-03-29 02:54:00,METAR KBUF 290254Z 22010KT 10SM BKN120 BKN130 M02/M05 A3047 RMK AO2 SLP327 T10171050 58001 $,0,10,0,16090,0,0,0,
2026-03-29 01:54:00,METAR KBUF 290154Z 22009KT 10SM BKN100 BKN130 M02/M05 A3048 RMK AO2 SLP331 T10171050 $,0,9,0,16090,0,0,0,
2026-03-29 00:54:00,METAR KBUF 290054Z 22011KT 10SM FEW040 FEW150 FEW200 SCT250 M02/M06 A3048 RMK AO2 SLP333 T10171056 $,0,11,0,16090,0,0,0,
2026-03-28 23:54:00,METAR KBUF 282354Z 22013G20KT 10SM FEW049 FEW150 SCT200 SCT250 M02/M06 A3047 RMK AO2 PK WND 23027/2300 SLP329 T10171061 10000 21017 50000 $,0,13,1,16090,0,0,0,
2026-03-28 22:54:00,METAR KBUF 282254Z 24019G27KT 10SM SCT049 SCT150 M01/M07 A3047 RMK AO2 PK WND 24034/2226 SLP330 T10111067 $,0,19,1,16090,0,0,0,
2026-03-28 21:54:00,METAR KBUF 282154Z 24020G33KT 10SM FEW039 BKN048 BKN060 M01/M07 A3048 RMK AO2 PK WND 24033/2147 SLP333 T10111072 $,0,20,1,16090,0,0,0,
2026-03-28 20:54:00,METAR KBUF 282054Z 23020G31KT 10SM SCT037 BKN050 M01/M08 A3047 RMK AO2 PK WND 23031/2018 SLP328 T10061078 56010 $,0,20,1,16090,0,0,0,
2026-03-28 19:54:00,METAR KBUF 281954Z 22023G32KT 10SM BKN042 BKN050 M01/M07 A3048 RMK AO2 PK WND 22033/1927 SLP331 T10111072 $,0,23,1,16090,0,0,0,
2026-03-28 18:54:00,METAR KBUF 281854Z 24017G32KT 10SM BKN041 BKN050 M01/M08 A3048 RMK AO2 PK WND 24032/1845 SLP333 T10061083 $,0,17,1,16090,0,0,0,
2026-03-28 17:54:00,METAR KBUF 281754Z 27010G24KT 10SM BKN045 BKN055 M01/M09 A3050 RMK AO2 SLP338 60000 T10061094 10000 21039 58005 $,0,10,1,16090,0,0,0,
2026-03-28 16:54:00,METAR KBUF 281654Z 28013G20KT 10SM BKN038 BKN050 BKN065 M01/M09 A3050 RMK AO2 WSHFT 1554 SLP339 T10061089 $,0,13,1,16090,0,0,0,
2026-03-28 16:14:00,SPECI KBUF 281614Z 32007KT 10SM BKN038 BKN050 BKN065 M02/M07 A3051 RMK AO2 WSHFT 1554 T10171067 $,0,7,0,16090,0,0,0,
2026-03-28 15:54:00,METAR KBUF 281554Z 26011G22KT 10SM BKN036 BKN048 M01/M09 A3051 RMK AO2 SNE45 SLP341 P0000 T10061089 $,0,11,1,16090,0,0,0,
2026-03-28 15:46:00,SPECI KBUF 281546Z 26012G18KT 9SM BKN036 BKN048 M01/M09 A3051 RMK AO2 SNE45 P0000 T10111089 $,0,12,1,14481,0,0,0,
2026-03-28 14:54:00,METAR KBUF 281454Z 29012G17KT 10SM -SN SCT030 BKN036 M02/M09 A3051 RMK AO2 SNB51 SLP343 PCPN VRY LGT P0000 60000 T10221089 51021 $,0,12,1,16090,0,0,0,SN
2026-03-28 13:54:00,METAR KBUF 281354Z 31007KT 9SM FEW035 BKN065 M03/M09 A3050 RMK AO2 SNE53 SLP338 P0000 T10281089 $,0,7,0,14481,0,0,0,
2026-03-28 12:54:00,METAR KBUF 281254Z 29011KT 9SM -SN SCT029 BKN045 BKN080 M03/M11 A3048 RMK AO2 SNB53 SLP332 P0000 T10331106 $,0,11,0,14481,0,0,0,SN
2026-03-28 11:54:00,METAR KBUF 281154Z 23007KT 10SM BKN080 M04/M11 A3045 RMK AO2 SLP323 T10391111 11039 21056 51019 $,0,7,0,16090,0,0,0,
2026-03-28 10:54:00,METAR KBUF 281054Z 22004KT 10SM SCT090 M06/M12 A3043 RMK AO2 SLP316 T10561122 $,0,4,0,16090,0,0,0,
2026-03-28 09:54:00,METAR KBUF 280954Z 23004KT 10SM CLR M06/M12 A3041 RMK AO2 SLP310 T10561122 $,0,4,0,16090,0,0,0,
2026-03-28 08:54:00,METAR KBUF 280854Z COR 31003KT 10SM FEW100 M06/M13 A3039 RMK AO2 SLP302 T10561128 53015 $,0,3,0,16090,0,0,0,
2026-03-28 07:54:00,METAR KBUF 280754Z 33007KT 10SM BKN110 M05/M12 A3037 RMK AO2 SLP295 T10501122 $,0,7,0,16090,0,0,0,
2026-03-28 06:54:00,METAR KBUF 280654Z 33008KT 10SM FEW037 BKN100 M04/M12 A3036 RMK AO2 SLP292 T10441117 $,0,8,0,16090,0,0,0,
2026-03-28 05:54:00,METAR KBUF 280554Z 34011KT 10SM SCT037 M04/M12 A3034 RMK AO2 SLP286 T10391117 11022 21039 51010 $,0,11,0,16090,0,0,0,
2026-03-28 04:54:00,METAR KBUF 280454Z 32003KT 10SM BKN047 M03/M12 A3033 RMK AO2 SLP283 T10331117 400281033 $,0,3,0,16090,0,0,0,
2026-03-28 03:54:00,METAR KBUF 280354Z 30004KT 10SM BKN050 M03/M12 A3033 RMK AO2 SLP281 T10331117 $,0,4,0,16090,0,0,0,
2026-03-28 02:54:00,METAR KBUF 280254Z 32004KT 10SM SCT055 SCT130 M03/M11 A3031 RMK AO2 SLP276 T10331111 51014 $,0,4,0,16090,0,0,0,
2026-03-28 01:54:00,METAR KBUF 280154Z 00000KT 10SM FEW120 M03/M12 A3030 RMK AO2 SLP272 T10281117 $,0,0,0,16090,0,0,0,
2026-03-28 00:54:00,METAR KBUF 280054Z 00000KT 10SM SCT110 SCT250 M03/M12 A3029 RMK AO2 SLP268 T10281117 $,0,0,0,16090,0,0,0,
2026-03-27 23:54:00,METAR KBUF 272354Z 02003KT 10SM FEW150 FEW250 M03/M14 A3027 RMK AO2 SLP262 T10281144 10011 21028 50017 $,0,3,0,16090,0,0,0,
2026-03-27 22:54:00,METAR KBUF 272254Z 33009KT 10SM FEW250 M02/M15 A3028 RMK AO2 SLP262 T10171150 $,0,9,0,16090,0,0,0,
2026-03-27 21:54:00,METAR KBUF 272154Z 35013G19KT 10SM FEW041 FEW250 M01/M08 A3025 RMK AO2 SLP253 T10061083 $,0,13,1,16090,0,0,0,
2026-03-27 20:54:00,METAR KBUF 272054Z 03008KT 10SM FEW040 FEW250 01/M11 A3022 RMK AO2 SLP243 T00061106 55007 $,0,8,0,16090,0,0,0,
2026-03-27 19:54:00,METAR KBUF 271954Z 03006KT 10SM FEW044 FEW250 01/M10 A3021 RMK AO2 SLP239 T00061100 $,0,6,0,16090,0,0,0,
2026-03-27 18:54:00,METAR KBUF 271854Z VRB05KT 10SM FEW042 FEW250 00/M11 A3022 RMK AO2 SLP242 T00001106 $,0,5,0,16090,0,0,0,
2026-03-27 17:54:00,METAR KBUF 271754Z 00000KT 10SM FEW037 FEW180 FEW250 M01/M11 A3024 RMK AO2 SLP250 T10111111 11006 21033 58009 $,0,0,0,16090,0,0,0,
2026-03-27 16:54:00,METAR KBUF 271654Z COR 01008G17KT 10SM FEW033 FEW180 FEW250 M01/M10 A3026 RMK AO2 SLP255 T10111100 $,0,8,1,16090,0,0,0,
2026-03-27 15:54:00,METAR KBUF 271554Z 05010G14KT 10SM FEW030 FEW180 FEW250 FEW300 M02/M09 A3027 RMK AO2 SLP257 T10171094 $,0,10,1,16090,0,0,0,
2026-03-25 14:54:00,METAR KBUF 251454Z 11007KT 090V150 10SM FEW100 FEW150 BKN270 05/M05 A3025 RMK AO2 SLP252 T00501050 58021 $,0,7,0,16090,0,0,0,
2026-03-25 13:54:00,METAR KBUF 251354Z 08006KT 10SM FEW150 SCT250 BKN300 03/M05 A3028 RMK AO2 SLP262 T00331050 $,0,6,0,16090,0,0,0,
2026-03-25 12:54:00,METAR KBUF 251254Z 11005KT 10SM SCT150 OVC250 00/M05 A3030 RMK AO2 SLP268 T00001050 $,0,5,0,16090,0,0,0,
2026-03-25 11:54:00,METAR KBUF 251154Z 18004KT 10SM SCT140 BKN250 M01/M06 A3032 RMK AO2 SLP276 T10111056 11011 21028 53004 $,0,4,0,16090,0,0,0,
2026-03-25 10:54:00,METAR KBUF 251054Z 12005KT 10SM SCT130 BKN250 M02/M06 A3031 RMK AO2 SLP273 T10171061 $,0,5,0,16090,0,0,0,
2026-03-25 09:54:00,METAR KBUF 250954Z 15004KT 10SM FEW150 BKN250 M03/M07 A3030 RMK AO2 SLP270 T10281067 $,0,4,0,16090,0,0,0,
2026-03-25 08:54:00,METAR KBUF 250854Z 17005KT 10SM FEW140 BKN250 M03/M07 A3030 RMK AO2 SLP271 T10281072 57010 $,0,5,0,16090,0,0,0,
2026-03-25 07:54:00,METAR KBUF 250754Z 17006KT 10SM FEW140 BKN250 M02/M07 A3031 RMK AO2 SLP274 T10221067 $,0,6,0,16090,0,0,0,
2026-03-25 06:54:00,METAR KBUF 250654Z 19004KT 10SM FEW140 BKN250 M02/M07 A3032 RMK AO2 SLP278 T10171067 $,0,4,0,16090,0,0,0,
2026-03-25 05:54:00,METAR KBUF 250554Z 21007KT 10SM FEW110 BKN200 M02/M06 A3033 RMK AO2 SLP281 T10171061 11006 21017 58006 $,0,7,0,16090,0,0,0,
2026-03-25 04:54:00,METAR KBUF 250454Z 22007KT 10SM FEW065 FEW110 BKN250 M01/M06 A3036 RMK AO2 SLP288 T10061061 400281056 $,0,7,0,16090,0,0,0,
2026-03-25 03:54:00,METAR KBUF 250354Z 22006KT 10SM FEW065 FEW100 BKN260 M01/M06 A3035 RMK AO2 SLP286 T10061061 $,0,6,0,16090,0,0,0,
2026-03-25 02:54:00,METAR KBUF 250254Z 23008KT 10SM FEW100 BKN260 M01/M06 A3035 RMK AO2 SLP287 T10061056 51007 $,0,8,0,16090,0,0,0,
2026-03-25 01:54:00,METAR KBUF 250154Z 23007KT 10SM FEW075 OVC100 M01/M05 A3035 RMK AO2 SLP287 T10061050 $,0,7,0,16090,0,0,0,
2026-03-25 00:54:00,METAR KBUF 250054Z 21009KT 10SM BKN110 OVC250 M01/M05 A3033 RMK AO2 SLP282 T10061050 $,0,9,0,16090,0,0,0,
2026-03-24 23:54:00,METAR KBUF 242354Z 22008KT 10SM BKN090 BKN250 M01/M06 A3033 RMK AO2 SLP281 T10061056 10028 21006 51001 $,0,8,0,16090,0,0,0,
2026-03-24 22:54:00,METAR KBUF 242254Z 23010KT 10SM FEW055 OVC080 00/M07 A3033 RMK AO2 SLP281 T00001067 $,0,10,0,16090,0,0,0,
2026-03-24 21:54:00,METAR KBUF 242154Z 23013KT 10SM FEW050 OVC100 01/M07 A3033 RMK AO2 SLP283 T00061067 $,0,13,0,16090,0,0,0,
2026-03-24 20:54:00,METAR KBUF 242054Z 23013G23KT 10SM FEW050 BKN110 01/M08 A3033 RMK AO2 SLP279 T00111078 58013 $,0,13,1,16090,0,0,0,
2026-03-24 19:54:00,METAR KBUF 241954Z 22016G25KT 10SM BKN110 01/M11 A3034 RMK AO2 PK WND 23026/1944 SLP284 T00111106 $,0,16,1,16090,0,0,0,
2026-03-24 18:54:00,METAR KBUF 241854Z 23013G20KT 10SM FEW030 BKN120 02/M06 A3035 RMK AO2 SLP288 T00221056 $,0,13,1,16090,0,0,0,
2026-03-24 17:54:00,METAR KBUF 241754Z 24012KT 210V280 10SM FEW030 BKN120 BKN250 02/M06 A3036 RMK AO2 SLP292 T00171061 10017 21039 56014 $,0,12,0,16090,0,0,0,
2026-03-24 16:54:00,METAR KBUF 241654Z 24008KT 10SM FEW030 SCT120 BKN250 01/M06 A3038 RMK AO2 SLP296 T00061061 $,0,8,0,16090,0,0,0,
2026-03-24 15:54:00,METAR KBUF 241554Z 23009KT 210V270 10SM FEW030 SCT250 00/M06 A3038 RMK AO2 SLP298 T00001056 $,0,9,0,16090,0,0,0,
2026-03-24 14:54:00,METAR KBUF 241454Z 23008KT 10SM FEW028 FEW250 M01/M07 A3041 RMK AO2 SLP306 T10111067 57010 $,0,8,0,16090,0,0,0,
2026-03-24 13:54:00,METAR KBUF 241354Z 19007KT 10SM FEW028 FEW250 M02/M07 A3041 RMK AO2 SLP309 T10171067 $,0,7,0,16090,0,0,0,
2026-03-24 12:54:00,METAR KBUF 241254Z 00000KT 10SM FEW025 FEW250 M03/M07 A3043 RMK AO2 SLP313 T10331072 $,0,0,0,16090,0,0,0,
2026-03-24 11:54:00,METAR KBUF 241154Z 25003KT 10SM FEW025 FEW250 M04/M08 A3044 RMK AO2 SLP316 T10391078 11039 21056 51015 $,0,3,0,16090,0,0,0,
2026-03-24 10:54:00,METAR KBUF 241054Z 25003KT 10SM CLR M05/M08 A3042 RMK AO2 SLP313 T10501078 $,0,3,0,16090,0,0,0,
2026-03-24 09:54:00,METAR KBUF 240954Z 25004KT 10SM CLR M05/M08 A3041 RMK AO2 SLP310 T10501078 $,0,4,0,16090,0,0,0,
2026-03-24 08:54:00,METAR KBUF 240854Z 26003KT 10SM CLR M04/M08 A3039 RMK AO2 SLP302 T10441078 50002 $,0,3,0,16090,0,0,0,
2026-03-24 07:54:00,METAR KBUF 240754Z 25003KT 10SM CLR M04/M08 A3039 RMK AO2 SLP301 T10441083 $,0,3,0,16090,0,0,0,
2026-03-24 06:54:00,METAR KBUF 240654Z 25004KT 10SM FEW039 M04/M08 A3039 RMK AO2 SLP302 T10441083 $,0,4,0,16090,0,0,0,
2026-03-24 05:54:00,METAR KBUF 240554Z 29004KT 10SM FEW039 M04/M08 A3038 RMK AO2 SLP299 60000 T10391083 10000 21039 50008 $,0,4,0,16090,0,0,0,
2026-03-24 04:54:00,METAR KBUF 240454Z 31006KT 10SM FEW039 M03/M08 A3039 RMK AO2 SLP301 T10331078 400221033 $,0,6,0,16090,0,0,0,
2026-03-24 03:54:00,METAR KBUF 240354Z 31007KT 10SM BKN039 M03/M08 A3038 RMK AO2 SLP296 T10281078 $,0,7,0,16090,0,0,0,
2026-03-24 02:54:00,METAR KBUF 240254Z 33012KT 10SM FEW031 OVC040 M02/M08 A3036 RMK AO2 SNE30 SLP290 P0000 60000 T10221078 51028 $,0,12,0,16090,0,0,0,
2026-03-24 02:30:00,SPECI KBUF 240230Z 32007KT 10SM BKN030 OVC042 M02/M08 A3035 RMK AO2 SNE30 P0000 T10171078 $,0,7,0,16090,0,0,0,
2026-03-24 01:54:00,METAR KBUF 240154Z 31010G17KT 10SM -SN FEW035 OVC045 M02/M07 A3034 RMK AO2 SLP283 P0000 T10171072 $,0,10,1,16090,0,0,0,SN
2026-03-24 01:16:00,SPECI KBUF 240116Z 33014G19KT 10SM -SN BKN031 OVC043 M01/M06 A3033 RMK AO2 P0000 T10111061 $,0,14,1,16090,0,0,0,SN
2026-03-24 00:54:00,METAR KBUF 240054Z 32012G19KT 10SM -SN BKN027 BKN036 OVC050 M01/M06 A3031 RMK AO2 SLP275 P0000 T10061056 $,0,12,1,16090,0,0,0,SN
2026-03-23 23:54:00,METAR KBUF 232354Z 33012G19KT 10SM -SN SCT027 SCT036 OVC060 00/M05 A3027 RMK AO2 SLP261 P0000 60000 T00001050 10022 20000 53030 $,0,12,1,16090,0,0,0,SN
2026-03-23 22:54:00,METAR KBUF 232254Z 32013G18KT 10SM -SN FEW024 BKN040 OVC060 01/M04 A3024 RMK AO2 SLP249 P0000 T00061044 $,0,13,1,16090,0,0,0,SN
2026-03-23 21:54:00,METAR KBUF 232154Z 31013G20KT 10SM -SN SCT023 SCT045 OVC060 01/M04 A3021 RMK AO2 SLP237 P0000 T00061039 $,0,13,1,16090,0,0,0,SN
2026-03-23 21:04:00,SPECI KBUF 232104Z 29011KT 5SM -SN FEW019 BKN037 OVC045 00/M03 A3019 RMK AO2 P0000 T00001028 $,0,11,0,8045,0,0,0,SN
2026-03-23 20:54:00,METAR KBUF 232054Z 31011G20KT 3SM -SN FEW017 BKN026 OVC035 00/M03 A3018 RMK AO2 SLP230 P0000 60000 T00001028 53020 $,0,11,1,4827,0,0,0,SN
2026-03-23 20:42:00,SPECI KBUF 232042Z 29013G19KT 2SM -SN FEW021 BKN026 OVC033 01/M03 A3017 RMK AO2 P0000 T00061028 $,0,13,1,3218,0,0,0,SN
2026-03-23 20:37:00,SPECI KBUF 232037Z 30010G19KT 4SM -SN SCT024 BKN030 OVC041 01/M03 A3017 RMK AO2 P0000 T00061028 $,0,10,1,6436,0,0,0,SN
2026-03-23 20:30:00,SPECI KBUF 232030Z 32014KT 2 1/2SM -SN SCT026 BKN032 OVC060 01/M04 A3017 RMK AO2 P0000 T00111039 $,0,14,0,4022,0,0,0,SN
2026-03-23 19:54:00,METAR KBUF 231954Z 29010KT 10SM -SN SCT022 SCT036 OVC065 02/M04 A3015 RMK AO2 SLP218 P0000 T00171039 $,0,10,0,16090,0,0,0,SN
2026-03-23 19:51:00,SPECI KBUF 231951Z 28010KT 10SM -SN SCT022 SCT036 OVC065 02/M04 A3015 RMK AO2 P0000 $,0,10,0,16090,0,0,0,SN
2026-03-23 19:17:00,SPECI KBUF 231917Z 32004KT 10SM -SN BKN022 BKN036 OVC065 02/M03 A3013 RMK AO2 P0000 T00171033 $,0,4,0,16090,0,0,0,SN
2026-03-23 18:54:00,METAR KBUF 231854Z VRB05KT 9SM -SN SCT022 BKN036 OVC060 01/M03 A3013 RMK AO2 SLP211 P0000 T00111033 $,0,5,0,14481,0,0,0,SN
2026-03-23 17:54:00,METAR KBUF 231754Z 33007KT 6SM -SN SCT025 BKN036 OVC050 01/M04 A3012 RMK AO2 SLP209 P0000 60000 T00061039 10011 21006 51020 $,0,7,0,9654,0,0,0,SN
2026-03-23 16:54:00,METAR KBUF 231654Z 34004KT 9SM -SN BKN025 OVC050 01/M04 A3011 RMK AO2 SLP204 P0000 T00061044 $,0,4,0,14481,0,0,0,SN
2026-03-23 15:54:00,METAR KBUF 231554Z 02007KT 10SM -SN BKN019 BKN028 OVC046 01/M03 A3009 RMK AO2 SLP196 P0000 T00061033 $,0,7,0,16090,0,0,0,SN
2026-03-23 15:18:00,SPECI KBUF 231518Z 03006KT 10SM -SN BKN025 BKN034 OVC050 00/M04 A3007 RMK AO2 P0000 T00001044 $,0,6,0,16090,0,0,0,SN
2026-03-23 14:54:00,METAR KBUF 231454Z 01005KT 10SM -SN FEW022 BKN036 OVC050 00/M05 A3006 RMK AO2 SLP189 P0000 60000 T00001050 53023 $,0,5,0,16090,0,0,0,SN
2026-03-23 13:54:00,METAR KBUF 231354Z 02007KT 10SM -SN FEW020 OVC033 00/M04 A3004 RMK AO2 SLP181 PRSNT WX -SG P0000 T00001044 $,0,7,0,16090,0,0,0,"SG,SN"
2026-03-23 13:16:00,SPECI KBUF 231316Z 02009KT 10SM -SN FEW018 OVC030 M01/M04 A3002 RMK AO2 PRSNT WX -SG P0000 T10061044 $,0,9,0,16090,0,0,0,"SG,SN"
2026-03-23 12:54:00,METAR KBUF 231254Z 02009KT 10SM -SN SCT018 OVC027 M01/M04 A3001 RMK AO2 SLP170 PRSNT WX -SG P0000 T10061039 $,0,9,0,16090,0,0,0,"SG,SN"
2026-03-23 11:54:00,METAR KBUF 231154Z 02006KT 9SM -SN OVC018 M01/M03 A2999 RMK AO2 SLP165 P0000 60000 70045 T10061028 10000 21006 53030 $,0,6,0,14481,0,0,0,SN
2026-03-23 11:37:00,SPECI KBUF 231137Z 02008KT 9SM -SN BKN015 OVC021 M01/M03 A2999 RMK AO2 P0000 T10061028 $,0,8,0,14481,0,0,0,SN
2026-03-23 11:25:00,SPECI KBUF 231125Z 01008KT 9SM -SN OVC013 M01/M03 A2998 RMK AO2 P0000 T10061028 $,0,8,0,14481,0,0,0,SN
2026-03-23 10:54:00,METAR KBUF 231054Z 01006KT 9SM -SN OVC018 M01/M03 A2996 RMK AO2 SNB47 SLP152 P0000 T10061033 $,0,6,0,14481,0,0,0,SN
2026-03-23 10:47:00,SPECI KBUF 231047Z 01007KT 10SM -SN OVC018 M01/M03 A2996 RMK AO2 SNB47 P0000 T10061028 $,0,7,0,16090,0,0,0,SN
2026-03-23 09:54:00,METAR KBUF 230954Z 02009KT 10SM OVC016 M01/M03 A2992 RMK AO2 SLP140 T10061028 $,0,9,0,16090,0,0,0,
2026-03-23 09:44:00,SPECI KBUF 230944Z 03010KT 10SM OVC016 M01/M03 A2992 RMK AO2 T10061028 $,0,10,0,16090,0,0,0,
2026-03-23 08:54:00,METAR KBUF 230854Z 04010G19KT 10SM OVC013 M01/M03 A2990 RMK AO2 SLP134 T10061028 53000 $,0,10,1,16090,0,0,0,
2026-03-23 08:16:00,SPECI KBUF 230816Z 05011KT 10SM OVC014 00/M03 A2990 RMK AO2 T00001028 $,0,11,0,16090,0,0,0,
2026-03-23 07:54:00,METAR KBUF 230754Z 03014G21KT 10SM OVC015 00/M03 A2989 RMK AO2 SLP130 T00001028 $,0,14,1,16090,0,0,0,
2026-03-23 07:13:00,SPECI KBUF 230713Z 04011KT 10SM OVC015 00/M03 A2989 RMK AO2 T00001028 $,0,11,0,16090,0,0,0,
2026-03-23 06:54:00,METAR KBUF 230654Z 06011G19KT 10SM OVC014 00/M03 A2989 RMK AO2 SLP127 T00001028 $,0,11,1,16090,0,0,0,
2026-03-23 05:54:00,METAR KBUF 230554Z 06012KT 10SM OVC010 00/M02 A2990 RMK AO2 SLP132 T00001017 10033 20000 53006 $,0,12,0,16090,0,0,0,
2026-03-23 05:35:00,SPECI KBUF 230535Z 07013KT 10SM OVC010 00/M02 A2990 RMK AO2 T00001017 $,0,13,0,16090,0,0,0,
2026-03-23 05:06:00,SPECI KBUF 230506Z 06014KT 10SM OVC009 00/M02 A2988 RMK AO2 T00001017 $,0,14,0,16090,0,0,0,
2026-03-23 04:54:00,METAR KBUF 230454Z 08012KT 10SM OVC010 00/M02 A2988 RMK AO2 SLP126 T00001017 400940000 $,0,12,0,16090,0,0,0,
2026-03-23 03:54:00,METAR KBUF 230354Z 05014KT 10SM OVC010 01/M01 A2990 RMK AO2 CIG 009V014 SLP131 T00061011 $,0,14,0,16090,0,0,0,
2026-03-23 03:16:00,SPECI KBUF 230316Z 07015KT 10SM OVC010 01/M01 A2989 RMK AO2 CIG 005V012 T00061006 $,0,15,0,16090,0,0,0,
2026-03-23 02:54:00,METAR KBUF 230254Z 06016G25KT 4SM BR OVC006 01/00 A2988 RMK AO2 CIG 004V009 SLP126 T00110000 50003 $,0,16,1,6436,0,0,1,BR
2026-03-23 02:01:00,SPECI KBUF 230201Z 07009KT 9SM BKN008 OVC015 03/02 A2989 RMK AO2 CIG 007V011 T00280017 $,0,9,0,14481,0,0,0,
2026-03-23 01:54:00,METAR KBUF 230154Z 06011KT 9SM SCT008 BKN013 OVC018 03/02 A2989 RMK AO2 SLP128 T00280017 $,0,11,0,14481,0,0,0,
2026-03-23 01:48:00,SPECI KBUF 230148Z 04009KT 8SM SCT008 BKN013 OVC018 03/02 A2989 RMK AO2 $,0,9,0,12872,0,0,0,
2026-03-23 01:40:00,SPECI KBUF 230140Z 04008KT 8SM SCT008 OVC018 03/02 A2989 RMK AO2 T00280017 $,0,8,0,12872,0,0,0,
2026-03-23 01:34:00,SPECI KBUF 230134Z 05008KT 8SM SCT008 BKN013 OVC018 03/02 A2989 RMK AO2 T00280017 $,0,8,0,12872,0,0,0,
2026-03-23 00:54:00,METAR KBUF 230054Z 03006KT 3SM BR BKN005 OVC021 03/02 A2988 RMK AO2 SLP123 T00330022 $,0,6,0,4827,0,0,1,BR
2026-03-23 00:41:00,SPECI KBUF 230041Z 04007KT 3SM BR SCT005 OVC021 03/02 A2986 RMK AO2 T00330022 $,0,7,0,4827,0,0,1,BR
2026-03-23 00:17:00,SPECI KBUF 230017Z 03006KT 4SM BR SCT005 BKN009 OVC018 03/02 A2985 RMK AO2 T00330022 $,0,6,0,6436,0,0,1,BR
2026-03-23 00:00:00,SPECI KBUF 230000Z 04005KT 4SM BR SCT007 OVC018 03/02 A2985 RMK AO2 T00330022 $,0,5,0,6436,0,0,1,BR
2026-03-22 23:54:00,METAR KBUF 222354Z 03006KT 4SM BR BKN007 OVC016 03/02 A2985 RMK AO2 RAE42 CIG 005V009 SLP113 P0001 60023 T00330022 10078 20033 51019 $,0,6,0,6436,0,0,1,BR
2026-03-22 22:54:00,METAR KBUF 222254Z 01006KT 3SM -RA BR BKN008 OVC014 03/02 A2985 RMK AO2 CIG 006V011 SLP112 P0004 T00330022 $,0,6,0,4827,0,0,1,"-RA,BR"
2026-03-22 22:14:00,SPECI KBUF 222214Z 01007KT 3SM -RA BR OVC006 03/03 A2983 RMK AO2 CIG 005V010 P0001 T00330028 $,0,7,0,4827,0,0,1,"-RA,BR"
2026-03-22 21:54:00,METAR KBUF 222154Z 02008KT 2 1/2SM -RA BR OVC006 03/03 A2981 RMK AO2 CIG 004V011 SLP098 P0007 T00330028 $,0,8,0,4022,0,0,1,"-RA,BR"
2026-03-22 21:06:00,SPECI KBUF 222106Z 36006KT 2 1/2SM -RA BR OVC005 03/03 A2979 RMK AO2 CIG 004V010 P0002 T00330028 $,0,6,0,4022,0,0,1,"-RA,BR"
2026-03-22 20:54:00,METAR KBUF 222054Z 35009KT 1 3/4SM RA BR OVC007 03/03 A2979 RMK AO2 CIG 005V010 SLP093 P0007 60011 T00330028 53043 $,0,9,0,2816,0,0,1,"BR,RA"
2026-03-22 20:22:00,SPECI KBUF 222022Z 36009KT 1 1/2SM RA BR OVC005 04/03 A2977 RMK AO2 CIG 004V009 P0002 T00390028 $,0,9,0,2414,0,0,1,"BR,RA"
2026-03-22 20:14:00,SPECI KBUF 222014Z 35009KT 2SM -RA BR OVC005 04/03 A2977 RMK AO2 CIG 004V009 PRESRR P0001 T00390028 $,0,9,0,3218,0,0,1,"-RA,BR"
2026-03-22 19:54:00,METAR KBUF 221954Z 01005KT 5SM -RA BR BKN007 OVC026 04/03 A2974 RMK AO2 CIG 005V010 SLP078 P0002 T00390033 $,0,5,0,8045,0,0,1,"-RA,BR"
2026-03-22 18:54:00,METAR KBUF 221854Z 35009G20KT 5SM -RA BR BKN007 OVC015 05/04 A2971 RMK AO2 RAB1758 CIG 005V010 SLP066 P0002 T00500039 $,0,9,1,8045,0,0,1,"-RA,BR,RA"
2026-03-22 18:18:00,SPECI KBUF 221818Z 34014G20KT 3SM -RA BR OVC005 06/06 A2969 RMK AO2 RAB1758 CIG 003V008 P0000 T00610056 $,0,14,1,4827,0,0,1,"-RA,BR,RA"
2026-03-22 18:04:00,SPECI KBUF 221804Z 33015G22KT 2 1/2SM -RA BR BKN005 OVC075 07/06 A2969 RMK AO2 RAB1758 CIG 003V008 P0000 T00670061 $,0,15,1,4022,0,0,1,"-RA,BR,RA"
2026-03-22 17:54:00,METAR KBUF 221754Z 32011KT 5SM BR SCT007 OVC075 08/07 A2966 RMK AO2 RAE38 PRESRR SLP049 P0003 60022 T00780072 10089 20061 58008 $,0,11,0,8045,0,0,1,BR
2026-03-22 16:54:00,METAR KBUF 221654Z 18009KT 3SM -RA BR FEW046 OVC070 07/06 A2969 RMK AO2 SLP057 P0009 T00670056 $,0,9,0,4827,0,0,1,"-RA,BR"
2026-03-22 15:54:00,METAR KBUF 221554Z 26004KT 4SM -RA BR FEW048 OVC065 07/06 A2970 RMK AO2 RAE12B30 SLP063 P0003 T00720056 $,0,4,0,6436,0,0,1,"-RA,BR,RA"
2026-03-22 14:54:00,METAR KBUF 221454Z 29005KT 4SM -RA FEW025 FEW060 OVC070 08/06 A2969 RMK AO2 SLP058 P0003 60007 T00780061 53015 $,0,5,0,6436,0,0,0,-RA
2026-03-22 13:54:00,METAR KBUF 221354Z 26008KT 10SM -RA FEW050 BKN070 BKN100 BKN150 07/05 A2965 RMK AO2 SLP044 P0003 T00720050 $,0,8,0,16090,0,0,0,-RA
2026-03-22 12:54:00,METAR KBUF 221254Z 19012KT 7SM -RA FEW060 BKN075 OVC100 06/03 A2962 RMK AO2 RAB42 PRESFR SLP037 P0001 T00610028 $,0,12,0,11263,0,0,0,-RA
2026-03-22 11:54:00,METAR KBUF 221154Z 26004KT 10SM OVC140 07/02 A2964 RMK AO2 SLP042 T00670022 10094 20044 53018 $,0,4,0,16090,0,0,0,
2026-03-22 10:54:00,METAR KBUF 221054Z 27005KT 10SM OVC140 07/02 A2962 RMK AO2 SLP034 T00720022 $,0,5,0,16090,0,0,0,
2026-03-22 09:54:00,METAR KBUF 220954Z 29006KT 10SM SCT110 OVC140 09/03 A2959 RMK AO2 SLP026 T00890033 $,0,6,0,16090,0,0,0,
2026-03-22 08:54:00,METAR KBUF 220854Z 22006KT 10SM FEW075 BKN160 OVC190 07/02 A2959 RMK AO2 SLP024 T00720022 56034 $,0,6,0,16090,0,0,0,
2026-03-22 07:54:00,METAR KBUF 220754Z 17006KT 10SM BKN085 BKN170 BKN200 06/02 A2961 RMK AO2 SLP032 T00560017 $,0,6,0,16090,0,0,0,
2026-03-22 06:54:00,METAR KBUF 220654Z 17004KT 10SM BKN080 BKN140 05/02 A2966 RMK AO2 SLP048 T00500017 $,0,4,0,16090,0,0,0,
2026-03-22 05:54:00,METAR KBUF 220554Z 15004KT 10SM OVC075 04/02 A2969 RMK AO2 SLP060 T00440017 10044 20028 58025 $,0,4,0,16090,0,0,0,
2026-03-22 04:54:00,METAR KBUF 220454Z 09003KT 10SM BKN080 OVC140 04/01 A2973 RMK AO2 SLP073 T00390011 400500006 $,0,3,0,16090,0,0,0,
2026-03-22 03:54:00,METAR KBUF 220354Z 07004KT 10SM SCT080 BKN140 BKN230 03/01 A2974 RMK AO2 SLP076 T00280006 $,0,4,0,16090,0,0,0,
2026-03-22 02:54:00,METAR KBUF 220254Z 08006KT 10SM BKN080 OVC120 03/01 A2977 RMK AO2 SLP087 T00330006 56041 $,0,6,0,16090,0,0,0,
2026-03-22 01:54:00,METAR KBUF 220154Z 10007KT 10SM BKN080 OVC100 03/00 A2980 RMK AO2 SLP099 T00330000 $,0,7,0,16090,0,0,0,
2026-03-22 00:54:00,METAR KBUF 220054Z 07008KT 10SM FEW070 OVC085 03/00 A2985 RMK AO2 SLP116 T00330000 $,0,8,0,16090,0,0,0,
2026-03-21 23:54:00,METAR KBUF 212354Z 08006KT 10SM FEW024 FEW075 OVC100 04/00 A2989 RMK AO2 SLP129 T00390000 10050 20028 56023 $,0,6,0,16090,0,0,0,
2026-03-21 22:54:00,METAR KBUF 212254Z COR 10008KT 10SM FEW026 OVC100 04/M01 A2990 RMK AO2 VIRGA DSNT SE-S AND NW SLP133 T00391006 $,0,8,0,16090,0,0,0,DS
2026-03-21 21:54:00,METAR KBUF 212154Z 10009KT 10SM SCT026 SCT080 OVC130 04/M01 A2992 RMK AO2 SLP139 T00441006 $,0,9,0,16090,0,0,0,
2026-03-21 21:51:00,SPECI KBUF 212151Z 10008KT 10SM SCT026 SCT080 OVC130 04/M01 A2993 RMK AO2 $,0,8,0,16090,0,0,0,
2026-03-21 20:54:00,METAR KBUF 212054Z 09005KT 10SM BKN026 BKN080 BKN150 05/M01 A2996 RMK AO2 SLP153 T00501011 58016 $,0,5,0,16090,0,0,0,
2026-03-21 19:54:00,METAR KBUF 211954Z 00000KT 10SM BKN024 OVC080 04/M02 A2999 RMK AO2 SLP163 T00391017 $,0,0,0,16090,0,0,0,
2026-03-21 18:54:00,METAR KBUF 211854Z 00000KT 10SM OVC022 03/M02 A3002 RMK AO2 SLP173 T00331017 $,0,0,0,16090,0,0,0,
2026-03-21 17:54:00,METAR KBUF 211754Z 00000KT 10SM OVC021 03/M02 A3001 RMK AO2 SLP169 T00281017 10033 20011 58011 $,0,0,0,16090,0,0,0,
2026-03-21 16:54:00,METAR KBUF 211654Z VRB04KT 10SM OVC019 03/M02 A3003 RMK AO2 SLP176 T00281017 $,0,4,0,16090,0,0,0,
2026-03-21 15:54:00,METAR KBUF 211554Z 09007KT 10SM BKN018 BKN025 OVC032 03/M01 A3002 RMK AO2 SLP174 T00281011 $,0,7,0,16090,0,0,0,
2026-03-21 15:40:00,SPECI KBUF 211540Z 09004KT 10SM FEW013 BKN025 OVC032 03/M01 A3004 RMK AO2 T00281006 $,0,4,0,16090,0,0,0,
2026-03-21 14:54:00,METAR KBUF 211454Z 00000KT 10SM SCT011 BKN021 OVC029 02/M01 A3004 RMK AO2 SLP180 T00221006 51008 $,0,0,0,16090,0,0,0,
2026-03-21 14:51:00,SPECI KBUF 211451Z 00000KT 10SM SCT011 BKN021 OVC029 02/M01 A3004 RMK AO2 $,0,0,0,16090,0,0,0,
2026-03-21 14:31:00,SPECI KBUF 211431Z 36004KT 10SM BKN011 OVC019 02/M01 A3005 RMK AO2 T00171006 $,0,4,0,16090,0,0,0,
2026-03-21 13:54:00,METAR KBUF 211354Z 05003KT 10SM FEW009 OVC021 02/M01 A3003 RMK AO2 SLP177 T00171006 $,0,3,0,16090,0,0,0,
2026-03-21 13:32:00,SPECI KBUF 211332Z 05003KT 10SM SCT009 OVC018 01/M01 A3003 RMK AO2 T00111006 $,0,3,0,16090,0,0,0,
2026-03-21 12:54:00,METAR KBUF 211254Z 00000KT 8SM BKN009 OVC016 01/00 A3003 RMK AO2 CIG 007V013 SLP178 T00110000 $,0,0,0,12872,0,0,0,
2026-03-21 12:13:00,SPECI KBUF 211213Z 02004KT 8SM FEW010 OVC017 01/M01 A3002 RMK AO2 T00111006 $,0,4,0,12872,0,0,0,
2026-03-21 11:54:00,METAR KBUF 211154Z 36005KT 9SM SCT009 OVC013 01/M01 A3002 RMK AO2 SLP172 60000 70087 T00111006 10011 20006 53028 $,0,5,0,14481,0,0,0,
2026-03-21 10:54:00,METAR KBUF 211054Z 01004KT 10SM OVC012 01/M01 A2997 RMK AO2 SLP157 T00111006 $,0,4,0,16090,0,0,0,
2026-03-21 09:54:00,METAR KBUF 210954Z 01004KT 9SM OVC010 01/00 A2996 RMK AO2 DZE51 CIG 006V012 SLP151 P0000 T00110000 $,0,4,0,14481,0,0,0,
2026-03-21 08:54:00,METAR KBUF 210854Z 36006KT 5SM -DZ BR OVC009 01/00 A2993 RMK AO2 DZB51 CIG 003V011 SLP142 P0000 60000 T00110000 53015 $,0,6,0,8045,0,0,1,"BR,DZ"
2026-03-21 07:54:00,METAR KBUF 210754Z 04004KT 4SM BR OVC004 01/00 A2991 RMK AO2 SLP133 T00060000 $,0,4,0,6436,0,0,1,BR
2026-03-21 07:28:00,SPECI KBUF 210728Z 00000KT 4SM BR OVC004 01/00 A2990 RMK AO2 T00110000 $,0,0,0,6436,0,0,1,BR
2026-03-21 07:03:00,SPECI KBUF 210703Z 35005KT 4SM BR BKN005 OVC012 01/00 A2991 RMK AO2 CIG 004V009 T00110000 $,0,5,0,6436,0,0,1,BR
2026-03-21 06:54:00,METAR KBUF 210654Z 36006KT 5SM BR BKN004 OVC011 01/00 A2991 RMK AO2 CIG 003V008 SLP134 T00110000 $,0,6,0,8045,0,0,1,BR
2026-03-21 05:54:00,METAR KBUF 210554Z 35005KT 5SM BR BKN004 BKN008 OVC016 01/01 A2989 RMK AO2 SLP127 T00110006 10039 20011 53010 $,0,5,0,8045,0,0,1,BR
2026-03-21 05:46:00,SPECI KBUF 210546Z 35005KT 6SM BR BKN006 BKN010 OVC016 01/01 A2989 RMK AO2 CIG 003V009 PRESRR T00110006 $,0,5,0,9654,0,0,1,BR
2026-03-21 05:34:00,SPECI KBUF 210534Z 36005KT 8SM SCT005 BKN010 OVC017 01/00 A2987 RMK AO2 T00110000 $,0,5,0,12872,0,0,0,
2026-03-21 05:02:00,SPECI KBUF 210502Z 02004KT 6SM BR OVC004 02/01 A2987 RMK AO2 T00170006 $,0,4,0,9654,0,0,1,BR
2026-03-21 04:54:00,METAR KBUF 210454Z 02005KT 7SM OVC005 02/01 A2986 RMK AO2 SLP119 T00170006 400781011 $,0,5,0,11263,0,0,0,
2026-03-21 04:28:00,SPECI KBUF 210428Z 01005KT 6SM BR OVC005 02/01 A2987 RMK AO2 CIG 003V009 T00170006 $,0,5,0,9654,0,0,1,BR
2026-03-21 03:54:00,METAR KBUF 210354Z 02005KT 4SM BR OVC003 02/01 A2986 RMK AO2 SLP117 T00170011 $,0,5,0,6436,0,0,1,BR
2026-03-21 03:13:00,SPECI KBUF 210313Z 03005KT 3SM BR BKN003 OVC021 02/01 A2985 RMK AO2 T00170011 $,0,5,0,4827,0,0,1,BR
2026-03-21 02:54:00,METAR KBUF 210254Z 03009KT 2 1/2SM BR OVC003 02/02 A2986 RMK AO2 SLP117 T00220017 53027 $,0,9,0,4022,0,0,1,BR
2026-03-21 02:32:00,SPECI KBUF 210232Z 01009KT 1 1/2SM BR OVC003 03/02 A2985 RMK AO2 T00280022 $,0,9,0,2414,0,0,1,BR
2026-03-21 01:54:00,METAR KBUF 210154Z 36005KT 4SM BR OVC004 03/03 A2983 RMK AO2 SLP106 T00330028 $,0,5,0,6436,0,0,1,BR
2026-03-21 01:47:00,SPECI KBUF 210147Z 01005KT 4SM BR OVC004 03/03 A2982 RMK AO2 T00330028 $,0,5,0,6436,0,0,1,BR
2026-03-21 01:27:00,SPECI KBUF 210127Z 35006KT 4SM BR OVC005 03/03 A2982 RMK AO2 T00330028 $,0,6,0,6436,0,0,1,BR
2026-03-21 00:54:00,METAR KBUF 210054Z 35005KT 2 1/2SM BR OVC004 04/03 A2980 RMK AO2 SLP097 T00390028 $,0,5,0,4022,0,0,1,BR
2026-03-21 00:27:00,SPECI KBUF 210027Z 35006KT 2 1/2SM BR BKN003 OVC018 04/03 A2979 RMK AO2 T00390028 $,0,6,0,4022,0,0,1,BR
2026-03-20 23:54:00,METAR KBUF 202354Z 35007KT 1 3/4SM BR OVC002 04/03 A2977 RMK AO2 PRESRR SLP089 60028 T00390033 10078 20039 51026 $,0,7,0,2816,0,0,1,BR
2026-03-20 23:51:00,SPECI KBUF 202351Z 36006KT 1 1/2SM BR OVC002 04/03 A2977 RMK AO2 $,0,6,0,2414,0,0,1,BR
2026-03-20 23:25:00,SPECI KBUF 202325Z 01004KT 1/2SM R23/3500V5500FT FG OVC002 04/03 A2975 RMK AO2 T00390033 $,0,4,0,804,0,0,1,FG
2026-03-20 22:54:00,METAR KBUF 202254Z 36008KT 1/4SM R23/2600V5000FT FG OVC002 04/04 A2975 RMK AO2 SLP082 T00440039 $,0,8,0,402,0,0,1,FG
2026-03-20 22:41:00,SPECI KBUF 202241Z 36011KT 1/2SM R23/P6000FT BR OVC004 06/05 A2975 RMK AO2 SFC VIS 1 CIG 002V007 T00560050 $,0,11,0,804,0,0,1,"BR,FC"
2026-03-20 22:08:00,SPECI KBUF 202208Z 33006KT 3SM BR BKN007 BKN013 OVC025 07/06 A2973 RMK AO2 CIG 005V010 T00670061 $,0,6,0,4827,0,0,1,BR
2026-03-20 22:03:00,SPECI KBUF 202203Z 32005KT 3SM BR SCT007 BKN013 OVC025 07/06 A2973 RMK AO2 T00670061 $,0,5,0,4827,0,0,1,BR
2026-03-20 21:54:00,METAR KBUF 202154Z 29005KT 4SM BR FEW007 FEW015 OVC024 07/06 A2972 RMK AO2 SLP070 T00670061 $,0,5,0,6436,0,0,1,BR
2026-03-20 20:54:00,METAR KBUF 202054Z 25006KT 6SM BR FEW007 OVC020 07/06 A2970 RMK AO2 RAE24 SLP063 P0000 60028 T00670056 53001 $,0,6,0,9654,0,0,1,BR
2026-03-20 20:30:00,SPECI KBUF 202030Z 25011G18KT 6SM BR SCT007 OVC019 07/06 A2969 RMK AO2 RAE24 P0000 T00670056 $,0,11,1,9654,0,0,1,BR
2026-03-20 19:54:00,METAR KBUF 201954Z 26009KT 5SM -RA BR BKN005 BKN011 OVC035 07/06 A2970 RMK AO2 PK WND 25026/1926 SLP063 P0008 T00670061 $,0,9,0,8045,0,0,1,"-RA,BR"
2026-03-20 19:17:00,SPECI KBUF 201917Z 24014G19KT 4SM -RA BR BKN004 BKN009 OVC035 07/07 A2969 RMK AO2 P0007 T00720067 $,0,14,1,6436,0,0,1,"-RA,BR"
2026-03-20 18:54:00,METAR KBUF 201854Z 22011KT 1 1/2SM R23/6000VP6000FT RA BR BKN004 BKN011 OVC035 07/07 A2968 RMK AO2 PRESFR SLP057 P0020 T00720067 $,0,11,0,2414,0,0,1,"BR,RA"
2026-03-20 18:31:00,SPECI KBUF 201831Z 25007KT 1 3/4SM +RA BR BKN004 BKN007 OVC013 07/06 A2971 RMK AO2 P0011 T00720061 $,0,7,0,2816,0,1,1,"+RA,BR"
2026-03-20 18:18:00,SPECI KBUF 201818Z 25006KT 4SM -RA BR BKN007 BKN015 OVC023 07/07 A2969 RMK AO2 P0010 T00720067 $,0,6,0,6436,0,0,1,"-RA,BR"
2026-03-20 18:03:00,SPECI KBUF 201803Z 22012G17KT 1 3/4SM +RA BR BKN005 BKN018 OVC026 07/07 A2969 RMK AO2 P0004 T00720067 $,0,12,1,2816,0,1,1,"+RA,BR"
2026-03-20 17:54:00,METAR KBUF 201754Z 22008KT 3SM RA BR FEW005 BKN018 OVC028 08/07 A2970 RMK AO2 SLP061 P0015 60059 T00780067 10078 20017 58021 $,0,8,0,4827,0,0,1,"BR,RA"
2026-03-20 17:41:00,SPECI KBUF 201741Z 22009G17KT 3SM RA BR BKN023 BKN034 OVC050 08/07 A2970 RMK AO2 P0011 T00780067 $,0,9,1,4827,0,0,1,"BR,RA"
2026-03-20 17:24:00,SPECI KBUF 201724Z 21015G21KT 2 1/2SM RA BR BKN023 BKN034 OVC055 07/07 A2970 RMK AO2 P0007 T00720067 $,0,15,1,4022,0,0,1,"BR,RA"
2026-03-20 16:54:00,METAR KBUF 201654Z 21012KT 3SM -RA BR SCT026 SCT038 OVC050 07/06 A2971 RMK AO2 SLP067 P0023 T00670061 $,0,12,0,4827,0,0,1,"-RA,BR"
2026-03-20 16:36:00,SPECI KBUF 201636Z 21010KT 2SM RA BR BKN028 BKN037 OVC047 06/06 A2972 RMK AO2 P0016 T00610056 $,0,10,0,3218,0,0,1,"BR,RA"
2026-03-20 16:27:00,SPECI KBUF 201627Z 21008KT 3SM RA BR SCT026 BKN030 OVC047 06/05 A2973 RMK AO2 P0013 T00610050 $,0,8,0,4827,0,0,1,"BR,RA"
2026-03-20 15:54:00,METAR KBUF 201554Z 21010KT 2 1/2SM RA BR BKN028 BKN035 OVC047 06/04 A2975 RMK AO2 SLP080 P0013 T00560044 $,0,10,0,4022,0,0,1,"BR,RA"
2026-03-20 15:27:00,SPECI KBUF 201527Z 21007KT 2 1/2SM RA BR BKN028 BKN035 OVC049 04/03 A2976 RMK AO2 P0005 T00440033 $,0,7,0,4022,0,0,1,"BR,RA"
2026-03-20 14:54:00,METAR KBUF 201454Z 16009KT 4SM -RA BR FEW040 BKN055 OVC080 03/02 A2976 RMK AO2 PRESFR SLP084 P0007 60008 T00330022 56041 $,0,9,0,6436,0,0,1,"-RA,BR"
2026-03-20 13:54:00,METAR KBUF 201354Z VRB03KT 10SM -RA FEW050 BKN065 OVC100 04/02 A2981 RMK AO2 PRESRR SLP100 P0001 T00440017 $,0,3,0,16090,0,0,0,-RA
2026-03-20 12:54:00,METAR KBUF 201254Z 13008KT 10SM -RA FEW070 SCT095 OVC120 03/00 A2980 RMK AO2 RAB54 SLP099 PCPN VRY LGT P0000 T00330000 $,0,8,0,16090,0,0,0,-RA
2026-03-20 11:54:00,METAR KBUF 201154Z 10007KT 10SM FEW038 SCT060 OVC110 02/M01 A2988 RMK AO2 SLP126 T00171006 10017 21011 58040 $,0,7,0,16090,0,0,0,
2026-03-20 10:54:00,METAR KBUF 201054Z 08005KT 10SM BKN038 OVC110 01/M01 A2994 RMK AO2 SLP146 T00111011 $,0,5,0,16090,0,0,0,
2026-03-20 09:54:00,METAR KBUF 200954Z 09004KT 10SM SCT110 SCT200 01/M01 A2999 RMK AO2 SLP161 T00061011 $,0,4,0,16090,0,0,0,
2026-03-20 08:54:00,METAR KBUF 200854Z 14005KT 8SM CLR 00/M02 A3000 RMK AO2 SLP166 T00001017 58019 $,0,5,0,12872,0,0,0,
2026-03-20 07:54:00,METAR KBUF 200754Z 09003KT 7SM FEW024 SCT200 M01/M02 A3002 RMK AO2 SLP173 T10111022 $,0,3,0,11263,0,0,0,
2026-03-20 06:54:00,METAR KBUF 200654Z 13003KT 7SM SCT024 SCT200 00/M02 A3005 RMK AO2 SLP184 T00001017 $,0,3,0,11263,0,0,0,
2026-03-20 06:52:00,SPECI KBUF 200652Z 00000KT 7SM SCT024 SCT200 00/M02 A3006 RMK AO2 $,0,0,0,11263,0,0,0,
2026-03-20 05:54:00,METAR KBUF 200554Z 18003KT 7SM OVC025 01/M01 A3009 RMK AO2 SLP197 T00061011 10022 20000 58021 $,0,3,0,11263,0,0,0,
2026-03-20 04:54:00,METAR KBUF 200454Z 19003KT 10SM BKN027 BKN037 01/M01 A3012 RMK AO2 SLP206 T00061011 400611006 $,0,3,0,16090,0,0,0,
2026-03-20 04:25:00,SPECI KBUF 200425Z 21004KT 10SM BKN027 BKN037 00/M02 A3013 RMK AO2 T00001017 $,0,4,0,16090,0,0,0,
2026-03-20 03:54:00,METAR KBUF 200354Z 20003KT 10SM BKN037 00/M02 A3014 RMK AO2 SLP214 T00001017 $,0,3,0,16090,0,0,0,
2026-03-20 02:54:00,METAR KBUF 200254Z 21004KT 10SM BKN039 01/M02 A3015 RMK AO2 SLP218 T00061017 50015 $,0,4,0,16090,0,0,0,
2026-03-20 01:54:00,METAR KBUF 200154Z 26005KT 10SM SCT034 BKN043 01/M01 A3016 RMK AO2 SLP220 T00111011 $,0,5,0,16090,0,0,0,
2026-03-20 00:54:00,METAR KBUF 200054Z 22007KT 10SM BKN046 02/M01 A3013 RMK AO2 SLP213 T00171011 $,0,7,0,16090,0,0,0,
2026-03-19 23:54:00,METAR KBUF 192354Z 22010KT 10SM BKN050 02/M01 A3011 RMK AO2 SLP203 T00221011 10050 20022 53006 $,0,10,0,16090,0,0,0,
2026-03-19 22:54:00,METAR KBUF 192254Z 22009KT 10SM BKN055 03/M01 A3010 RMK AO2 SLP201 T00281011 $,0,9,0,16090,0,0,0,
2026-03-19 21:54:00,METAR KBUF 192154Z 23011KT 10SM BKN043 BKN065 03/M01 A3009 RMK AO2 SLP196 T00331011 $,0,11,0,16090,0,0,0,
2026-03-19 20:54:00,METAR KBUF 192054Z COR 23010KT 10SM BKN048 BKN080 BKN250 04/M01 A3009 RMK AO2 SLP197 T00391011 50001 $,0,10,0,16090,0,0,0,
2026-03-19 19:54:00,METAR KBUF 191954Z 24010KT 10SM FEW027 BKN060 BKN080 04/M02 A3010 RMK AO2 SLP199 T00441017 $,0,10,0,16090,0,0,0,
2026-03-19 18:54:00,METAR KBUF 191854Z 23012G22KT 10SM FEW032 BKN055 BKN080 04/M02 A3009 RMK AO2 SLP197 T00441022 $,0,12,1,16090,0,0,0,
2026-03-19 17:54:00,METAR KBUF 191754Z 23015G22KT 10SM FEW032 BKN060 BKN080 05/M02 A3009 RMK AO2 SLP196 T00501017 10061 20017 57004 $,0,15,1,16090,0,0,0,
2026-03-19 16:54:00,METAR KBUF 191654Z 24015G20KT 10SM FEW027 SCT065 BKN080 05/M02 A3010 RMK AO2 SLP199 T00501017 $,0,15,1,16090,0,0,0,
2026-03-19 15:54:00,METAR KBUF 191554Z 24014G20KT 10SM FEW041 BKN075 05/M02 A3009 RMK AO2 SLP196 T00501017 $,0,14,1,16090,0,0,0,
2026-03-19 14:54:00,METAR KBUF 191454Z 23014KT 10SM FEW038 BKN070 04/M02 A3010 RMK AO2 SLP201 T00391017 50000 $,0,14,0,16090,0,0,0,
2026-03-19 13:54:00,METAR KBUF 191354Z 22009KT 10SM FEW025 SCT038 OVC075 02/M02 A3011 RMK AO2 SLP203 T00221022 $,0,9,0,16090,0,0,0,
2026-03-19 12:54:00,METAR KBUF 191254Z 23009KT 10SM SCT027 BKN033 OVC043 02/M03 A3010 RMK AO2 SLP201 T00171033 $,0,9,0,16090,0,0,0,
2026-03-19 12:51:00,SPECI KBUF 191251Z 23008KT 10SM SCT027 BKN033 OVC043 02/M04 A3010 RMK AO2 $,0,8,0,16090,0,0,0,
2026-03-19 12:08:00,SPECI KBUF 191208Z 23011KT 10SM BKN027 BKN033 OVC043 02/M05 A3010 RMK AO2 T00171050 $,0,11,0,16090,0,0,0,
2026-03-19 11:54:00,METAR KBUF 191154Z 22011KT 10SM OVC033 02/M06 A3010 RMK AO2 SLP200 T00221056 10022 20000 53009 $,0,11,0,16090,0,0,0,
2026-03-19 10:54:00,METAR KBUF 191054Z 22010KT 10SM OVC035 02/M06 A3008 RMK AO2 SLP195 T00171056 $,0,10,0,16090,0,0,0,
2026-03-19 09:54:00,METAR KBUF 190954Z 20008KT 10SM OVC036 01/M06 A3007 RMK AO2 SLP190 T00111056 $,0,8,0,16090,0,0,0,
2026-03-19 08:54:00,METAR KBUF 190854Z 18005KT 10SM BKN037 OVC050 01/M06 A3007 RMK AO2 SLP191 T00061056 58017 $,0,5,0,16090,0,0,0,
2026-03-19 07:54:00,METAR KBUF 190754Z 17007KT 10SM OVC042 01/M06 A3009 RMK AO2 SLP197 T00061061 $,0,7,0,16090,0,0,0,
2026-03-19 06:54:00,METAR KBUF 190654Z 18008KT 10SM FEW031 OVC043 00/M07 A3012 RMK AO2 SLP208 T00001067 $,0,8,0,16090,0,0,0,
2026-03-19 06:24:00,SPECI KBUF 190624Z 18008KT 10SM SCT031 OVC041 00/M07 A3012 RMK AO2 T00001067 $,0,8,0,16090,0,0,0,
2026-03-19 06:04:00,SPECI KBUF 190604Z 18008KT 10SM OVC029 00/M07 A3012 RMK AO2 T00001072 $,0,8,0,16090,0,0,0,
2026-03-19 05:54:00,METAR KBUF 190554Z 19008KT 10SM OVC030 00/M07 A3012 RMK AO2 SLP209 60000 T00001072 10000 21006 58019 $,0,8,0,16090,0,0,0,
2026-03-19 04:54:00,METAR KBUF 190454Z 16005KT 10SM OVC034 M01/M07 A3014 RMK AO2 SLP216 T10061072 400061089 $,0,5,0,16090,0,0,0,
2026-03-19 03:54:00,METAR KBUF 190354Z 19005KT 10SM OVC034 M01/M07 A3016 RMK AO2 SNE23 SLP222 P0000 T10061067 $,0,5,0,16090,0,0,0,
2026-03-19 03:23:00,SPECI KBUF 190323Z 19006KT 10SM BKN042 OVC049 M01/M07 A3017 RMK AO2 SNE23 P0000 T10061067 $,0,6,0,16090,0,0,0,
2026-03-19 02:54:00,METAR KBUF 190254Z 22011G21KT 10SM -SN OVC055 M01/M07 A3018 RMK AO2 SNE15B50 SLP229 PCPN VRY LGT P0000 60000 T10061072 50000 $,0,11,1,16090,0,0,0,SN
2026-03-19 02:15:00,SPECI KBUF 190215Z 21011KT 10SM SCT048 OVC070 M01/M08 A3017 RMK AO2 SNE15 P0000 T10061083 $,0,11,0,16090,0,0,0,
2026-03-19 01:54:00,METAR KBUF 190154Z 20009KT 9SM -SN BKN065 OVC095 M01/M08 A3017 RMK AO2 SNB44 SLP228 PCPN VRY LGT P0000 T10061083 $,0,9,0,14481,0,0,0,SN
2026-03-19 01:45:00,SPECI KBUF 190145Z 20008KT 10SM -SN BKN065 BKN080 OVC095 M01/M08 A3017 RMK AO2 SNB44 PCPN VRY LGT P0000 T10061083 $,0,8,0,16090,0,0,0,SN
2026-03-19 00:54:00,METAR KBUF 190054Z 20003KT 10SM SCT060 OVC075 M01/M09 A3018 RMK AO2 SLP233 T10061089 $,0,3,0,16090,0,0,0,
2026-03-18 23:54:00,METAR KBUF 182354Z 23004KT 10SM OVC065 00/M11 A3018 RMK AO2 SLP230 T00001106 10006 21022 56004 $,0,4,0,16090,0,0,0,
2026-03-18 22:54:00,METAR KBUF 182254Z 25004KT 10SM BKN060 OVC075 00/M11 A3018 RMK AO2 SLP232 T00001106 $,0,4,0,16090,0,0,0,
2026-03-18 21:54:00,METAR KBUF 182154Z 17004KT 10SM BKN085 OVC180 00/M11 A3018 RMK AO2 SLP230 T00001106 $,0,4,0,16090,0,0,0,
2026-03-18 20:54:00,METAR KBUF 182054Z 17004KT 10SM OVC095 00/M09 A3019 RMK AO2 SLP234 T00001094 58023 $,0,4,0,16090,0,0,0,
2026-03-18 19:54:00,METAR KBUF 181954Z 00000KT 10SM SCT100 OVC140 M01/M09 A3022 RMK AO2 SLP244 T10111094 $,0,0,0,16090,0,0,0,
2026-03-18 18:54:00,METAR KBUF 181854Z 18007KT 10SM SCT040 OVC160 M01/M09 A3023 RMK AO2 SLP248 T10111094 $,0,7,0,16090,0,0,0,
2026-03-18 17:54:00,METAR KBUF 181754Z 20008KT 10SM BKN041 OVC170 M02/M09 A3026 RMK AO2 SLP258 T10171089 11017 21072 58011 $,0,8,0,16090,0,0,0,
2026-03-18 16:54:00,METAR KBUF 181654Z 23010KT 10SM FEW028 OVC042 M03/M09 A3028 RMK AO2 SLP265 T10281089 $,0,10,0,16090,0,0,0,
2026-03-18 15:54:00,METAR KBUF 181554Z 20008KT 10SM OVC031 M03/M10 A3028 RMK AO2 SLP268 OCNL BINOVC T10331100 $,0,8,0,16090,0,0,0,VC
2026-03-18 14:54:00,METAR KBUF 181454Z 19007KT 10SM SCT023 BKN050 BKN250 M04/M09 A3029 RMK AO2 SLP270 T10391094 50000 $,0,7,0,16090,0,0,0,
2026-03-18 13:54:00,METAR KBUF 181354Z 17006KT 10SM FEW025 SCT030 BKN050 M05/M11 A3030 RMK AO2 SLP273 T10501111 $,0,6,0,16090,0,0,0,
2026-03-18 12:54:00,METAR KBUF 181254Z 16005KT 10SM BKN050 M06/M11 A3030 RMK AO2 SLP275 T10611111 $,0,5,0,16090,0,0,0,
2026-03-18 11:54:00,METAR KBUF 181154Z 17005KT 10SM OVC050 M07/M12 A3029 RMK AO2 SLP271 4/001 T10721117 11072 21089 53018 $,0,5,0,16090,0,0,0,
2026-03-18 10:54:00,METAR KBUF 181054Z 17005KT 10SM BKN049 M08/M12 A3026 RMK AO2 SLP260 T10831117 $,0,5,0,16090,0,0,0,
2026-03-18 09:54:00,METAR KBUF 180954Z 15005KT 10SM FEW055 M08/M12 A3024 RMK AO2 SLP254 T10781117 $,0,5,0,16090,0,0,0,
2026-03-18 08:54:00,METAR KBUF 180854Z 15003KT 10SM BKN060 M08/M12 A3024 RMK AO2 SLP252 T10831117 53003 $,0,3,0,16090,0,0,0,
2026-03-18 07:54:00,METAR KBUF 180754Z 00000KT 10SM BKN060 M08/M12 A3022 RMK AO2 SLP248 T10781122 $,0,0,0,16090,0,0,0,
2026-03-18 06:54:00,METAR KBUF 180654Z 00000KT 10SM BKN060 M08/M12 A3023 RMK AO2 SLP251 T10781122 $,0,0,0,16090,0,0,0,
2026-03-18 05:54:00,METAR KBUF 180554Z 25005KT 10SM BKN055 M08/M13 A3023 RMK AO2 SLP248 4/001 T10781128 11067 21083 51018 $,0,5,0,16090,0,0,0,
2026-03-18 04:54:00,METAR KBUF 180454Z 25006KT 10SM SCT060 M08/M13 A3022 RMK AO2 SLP246 T10831128 410391094 $,0,6,0,16090,0,0,0,
2026-03-18 03:54:00,METAR KBUF 180354Z 26005KT 10SM SCT060 M08/M13 A3020 RMK AO2 SLP240 T10831133 $,0,5,0,16090,0,0,0,
2026-03-18 02:54:00,METAR KBUF 180254Z 25008KT 10SM SCT045 M08/M13 A3017 RMK AO2 SLP231 T10781133 53022 $,0,8,0,16090,0,0,0,
2026-03-18 01:54:00,METAR KBUF 180154Z 25008KT 10SM FEW045 M08/M13 A3015 RMK AO2 SLP222 T10781133 $,0,8,0,16090,0,0,0,
2026-03-18 00:54:00,METAR KBUF 180054Z 27008KT 10SM FEW025 BKN045 M07/M13 A3013 RMK AO2 SLP215 T10721133 $,0,8,0,16090,0,0,0,
2026-03-17 23:54:00,METAR KBUF 172354Z 26014G22KT 10SM SCT030 SCT050 M07/M13 A3011 RMK AO2 SNE39 SLP209 4/001 P0000 60000 T10721133 11050 21072 52035 $,0,14,1,16090,0,0,0,
2026-03-17 23:38:00,SPECI KBUF 172338Z 26012G23KT 4SM -SN SCT030 OVC050 M07/M12 A3010 RMK AO2 P0000 T10721117 $,0,12,1,6436,0,0,0,SN
2026-03-17 23:06:00,SPECI KBUF 172306Z 28011G20KT 3SM -SN FEW012 BKN022 BKN055 BKN270 M07/M11 A3008 RMK AO2 P0000 T10721111 $,0,11,1,4827,0,0,0,SN
2026-03-17 23:02:00,SPECI KBUF 172302Z 29016G20KT 2SM -SN FEW012 BKN028 OVC055 M07/M12 A3008 RMK AO2 P0000 T10671122 $,0,16,1,3218,0,0,0,SN
2026-03-17 22:54:00,METAR KBUF 172254Z 28010KT 10SM -SN FEW028 SCT042 BKN055 BKN270 M07/M12 A3007 RMK AO2 SNB25 SLP198 P0000 T10671122 $,0,10,0,16090,0,0,0,SN
2026-03-17 22:25:00,SPECI KBUF 172225Z 26016G22KT 7SM -SN SCT032 BKN039 OVC055 M06/M12 A3006 RMK AO2 SNB25 P0000 T10611122 $,0,16,1,11263,0,0,0,SN
2026-03-17 21:54:00,METAR KBUF 172154Z 28014G24KT 10SM FEW030 BKN050 BKN065 M06/M14 A3003 RMK AO2 PK WND 29026/2127 SNE34 SLP184 SHSN VC SW P0000 T10611139 $,0,14,1,16090,0,0,0,"SH,SN,VC"
2026-03-17 21:35:00,SPECI KBUF 172135Z 27018G26KT 10SM FEW030 BKN050 BKN065 M06/M14 A3002 RMK AO2 PK WND 29026/2127 SNE34 SHSN VC SW P0000 T10611139 $,0,18,1,16090,0,0,0,"SH,SN,VC"
2026-03-17 20:54:00,METAR KBUF 172054Z 28015G24KT 10SM -SN FEW033 BKN049 OVC055 M06/M13 A3000 RMK AO2 SNB00 SLP173 OCNL BINOVC P0000 60000 T10561133 53025 $,0,15,1,16090,0,0,0,"SN,VC"
2026-03-17 20:42:00,SPECI KBUF 172042Z 25011G22KT 10SM -SN SCT033 BKN041 OVC060 M06/M12 A3000 RMK AO2 SNB00 P0000 T10561117 $,0,11,1,16090,0,0,0,SN
2026-03-17 20:35:00,SPECI KBUF 172035Z 27014G24KT 2 1/2SM -SN BKN035 BKN047 OVC055 M06/M12 A3000 RMK AO2 SNB00 P0000 T10611117 $,0,14,1,4022,0,0,0,SN
2026-03-17 20:02:00,SPECI KBUF 172002Z 24014G20KT 10SM -SN FEW029 BKN040 OVC047 M06/M12 A2998 RMK AO2 SNB00 P0000 T10561117 $,0,14,1,16090,0,0,0,SN
2026-03-17 19:54:00,METAR KBUF 171954Z 26013G25KT 10SM BKN040 BKN047 M05/M13 A2998 RMK AO2 PK WND 26026/1929 SLP164 SHSN VC ALQDS T10501128 $,0,13,1,16090,0,0,0,"DS,SH,SN,VC"
2026-03-17 18:54:00,METAR KBUF 171854Z 24020G26KT 10SM BKN043 M05/M13 A2994 RMK AO2 PK WND 24028/1757 SLP150 SHSN DSNT ALQDS T10501133 $,0,20,1,16090,0,0,0,"DS,SH,SN"
2026-03-17 17:54:00,METAR KBUF 171754Z COR 24020G26KT 10SM BKN039 BKN050 M05/M13 A2993 RMK AO2 PK WND 25030/1703 SNE54 SLP147 SHSN DSNT ALQDS DRSN P0000 60000 4/001 T10501128 11050 21094 51020 $,0,20,1,16090,0,0,0,"DS,SH,SN"
2026-03-17 16:54:00,METAR KBUF 171654Z 25017G26KT 9SM -SN BKN037 BKN048 M06/M13 A2991 RMK AO2 PK WND 24026/1640 SLP140 DRSN P0000 T10561133 $,0,17,1,14481,0,0,0,SN
2026-03-17 15:54:00,METAR KBUF 171554Z 28017G27KT 9SM -SN BKN032 BKN043 BKN050 M07/M12 A2990 RMK AO2 PK WND 28034/1532 SLP136 DRSN P0000 T10671122 $,0,17,1,14481,0,0,0,SN
2026-03-17 14:54:00,METAR KBUF 171454Z 26021G30KT 9SM -SN SCT035 SCT043 BKN050 M07/M14 A2987 RMK AO2 PK WND 25038/1422 SNB23 SLP125 DRSN P0000 60000 T10671139 53040 $,0,21,1,14481,0,0,0,SN
2026-03-17 14:24:00,SPECI KBUF 171424Z 26022G38KT 8SM -SN BKN035 BKN043 BKN050 M07/M13 A2984 RMK AO2 PK WND 25038/1422 SNB23 VIS LWR IN BLSN NW-NE DRSN P0000 T10721133 $,0,22,1,12872,0,0,0,SN
2026-03-17 13:54:00,METAR KBUF 171354Z 27024G38KT 8SM FEW001 FEW032 BKN048 M07/M15 A2982 RMK AO2 PK WND 26038/1349 SLP108 FEW001 BLSN VIS IN BLSN NW-NE 1/2V2 SHSN DSNT ALQDS DRSN T10721150 $,0,24,1,12872,0,0,0,"DS,SH,SN"
2026-03-17 12:54:00,METAR KBUF 171254Z 27020G26KT 10SM FEW030 BKN048 M08/M14 A2979 RMK AO2 PK WND 27033/1221 SLP100 SHSN DSNT ALQDS DRSN T10831144 $,0,20,1,16090,0,0,0,"DS,SH,SN"
2026-03-17 11:54:00,METAR KBUF 171154Z 25018G31KT 8SM FEW035 OVC048 M09/M14 A2975 RMK AO2 PK WND 25036/1106 SLP085 4/002 6//// 7//// T10941139 11056 21094 53050 $,0,18,1,12872,0,0,0,
2026-03-17 10:54:00,METAR KBUF 171054Z 26023G30KT 10SM FEW035 BKN049 M09/M14 A2969 RMK AO2 PK WND 27037/1002 SLP065 T10891144 $,0,23,1,16090,0,0,0,
2026-03-17 09:54:00,METAR KBUF 170954Z 27016G28KT 8SM SCT030 OVC050 M09/M13 A2965 RMK AO2 PK WND 24038/0909 SLP050 T10891133 $,0,16,1,12872,0,0,0,
2026-03-17 08:54:00,METAR KBUF 170854Z 26020G31KT 8SM FEW026 BKN055 M09/M14 A2960 RMK AO2 PK WND 27038/0837 SLP033 6//// T10891139 51045 $,0,20,1,12872,0,0,0,
2026-03-17 07:54:00,METAR KBUF 170754Z 26016G33KT 8SM SCT050 BKN075 M08/M15 A2955 RMK AO2 PK WND 28038/0700 SLP018 T10781150 $,0,16,1,12872,0,0,0,
2026-03-17 06:54:00,METAR KBUF 170654Z 27019G36KT 8SM SCT050 BKN075 M07/M13 A2951 RMK AO2 PK WND 24038/0558 SLP003 T10671133 PNO $,0,19,1,12872,0,0,0,
2026-03-17 05:54:00,METAR KBUF 170554Z 26020G31KT 8SM FEW041 BKN055 M06/M13 A2946 RMK AO2 PK WND 27034/0518 SNE40 SLP985 4/003 6//// T10561128 11017 21056 53022 PNO $,0,20,1,12872,0,0,0,
2026-03-17 05:40:00,SPECI KBUF 170540Z 25019G31KT 8SM FEW041 BKN050 M05/M12 A2945 RMK AO2 PK WND 27034/0518 SNE40 T10501122 PNO $,0,19,1,12872,0,0,0,
2026-03-17 05:01:00,SPECI KBUF 170501Z 28017G32KT 5SM -SN FEW014 BKN031 OVC043 M04/M08 A2943 RMK AO2 PK WND 28029/0501 T10391078 PNO $,0,17,1,8045,0,0,0,SN
2026-03-17 04:54:00,METAR KBUF 170454Z 27017G34KT 5SM R23/5500VP6000FT -SN FEW014 BKN028 OVC039 M04/M07 A2942 RMK AO2 PK WND 26034/0445 PRESRR SLP971 T10391072 401611039 PNO $,0,17,1,8045,0,0,0,SN
2026-03-17 04:36:00,SPECI KBUF 170436Z 24016G29KT 5SM -SN SCT009 BKN019 OVC040 M03/M06 A2939 RMK AO2 PK WND 23032/0422 T10281056 PNO $,0,16,1,8045,0,0,0,SN
2026-03-17 04:21:00,SPECI KBUF 170421Z 24019G29KT 2SM R23/5500VP6000FT -SN BR FEW006 BKN012 OVC016 M02/M04 A2939 RMK AO2 PK WND 24029/0413 T10221039 PNO $,0,19,1,3218,0,0,1,"BR,SN"
2026-03-17 03:59:00,SPECI KBUF 170359Z 23016G27KT 2 1/2SM -SN BR FEW008 BKN025 OVC048 M03/M04 A2938 RMK AO2 PK WND 24027/0355 T10281044 PNO $,0,16,1,4022,0,0,1,"BR,SN"
2026-03-17 03:54:00,METAR KBUF 170354Z 23016G34KT 1 1/4SM -SN BR FEW008 OVC023 M03/M04 A2938 RMK AO2 PK WND 23041/0327 SLP955 T10281044 PNO $,0,16,1,2011,0,0,1,"BR,SN"
2026-03-17 03:45:00,SPECI KBUF 170345Z 24021G30KT 1SM R23/5500VP6000FT -SN BR SCT008 OVC012 M03/M04 A2938 RMK AO2 PK WND 23041/0327 T10281039 PNO $,0,21,1,1609,0,0,1,"BR,SN"
2026-03-17 03:27:00,SPECI KBUF 170327Z 24026G41KT 1/2SM R23/3500VP6000FT SN FZFG VV009 M03/M04 A2939 RMK AO2 PK WND 23041/0327 T10281039 PNO $,0,26,1,804,0,0,1,"FG,SN"
2026-03-17 03:20:00,SPECI KBUF 170320Z 24018G32KT 3/4SM R23/5500VP6000FT -SN BR VV010 M03/M04 A2937 RMK AO2 PK WND 25035/0259 T10281039 PNO $,0,18,1,1207,0,0,1,"BR,SN"
2026-03-17 03:15:00,SPECI KBUF 170315Z 23018G28KT 1SM R23/5500VP6000FT -SN BR VV010 M03/M04 A2940 RMK AO2 PK WND 25035/0259 T10281039 PNO $,0,18,1,1609,0,0,1,"BR,SN"
2026-03-17 02:54:00,METAR KBUF 170254Z 23019G33KT 1/2SM R23/2400V5500FT SN FZFG VV007 M03/M03 A2940 RMK AO2 PK WND 24039/0223 SLP960 6//// T10281033 53009 PNO $,0,19,1,804,0,0,1,"FG,SN"
2026-03-17 01:54:00,METAR KBUF 170154Z 24016G29KT 1/2SM R23/5000VP6000FT -SN BR VV008 M02/M03 A2937 RMK AO2 PK WND 24037/0137 SFC VIS 3/4 SLP951 T10221033 PNO $,0,16,1,804,0,0,1,"BR,FC,SN"
2026-03-17 00:54:00,METAR KBUF 170054Z 24016G26KT 1/2SM R23/5000V5500FT SN FZFG VV006 M02/M03 A2936 RMK AO2 PK WND 25035/0012 SLP948 T10171028 PNO $,0,16,1,804,0,0,1,"FG,SN"
2026-03-16 23:54:00,METAR KBUF 162354Z COR 24017G30KT 3/4SM R23/P6000FT -SN BR BKN006 OVC010 M02/M03 A2937 RMK AO2 PK WND 23034/2300 SLP950 4/001 60006 T10171028 10017 21017 58007 PNO $,0,17,1,1207,0,0,1,"BR,SN"
2026-03-16 22:54:00,METAR KBUF 162254Z 24019G27KT 1/2SM R23/5500VP6000FT SN FZFG BKN006 OVC012 M01/M02 A2940 RMK AO2 PK WND 25036/2158 TWR VIS 3/4 RAE14 SLP960 T10061017 PNO $,0,19,1,804,0,0,1,"FG,SN"
2026-03-16 22:46:00,SPECI KBUF 162246Z 23018G29KT 3/4SM R23/6000VP6000FT -SN BR BKN009 BKN016 OVC026 M01/M02 A2939 RMK AO2 PK WND 25036/2158 RAE14 T10061022 PNO $,0,18,1,1207,0,0,1,"BR,SN"
2026-03-16 22:34:00,SPECI KBUF 162234Z 24018G30KT 3/4SM R23/P6000FT -SN BR BKN014 BKN021 OVC065 M01/M03 A2938 RMK AO2 PK WND 25036/2158 TWR VIS 1 RAE14 T10061028 PNO $,0,18,1,1207,0,0,1,"BR,SN"
2026-03-16 22:28:00,SPECI KBUF 162228Z 23018G31KT 2 1/2SM -SN BR FEW017 BKN021 OVC060 M01/M03 A2938 RMK AO2 PK WND 25036/2158 RAE14 T10061028 PNO $,0,18,1,4022,0,0,1,"BR,SN"
2026-03-16 22:18:00,SPECI KBUF 162218Z 24022G35KT 3SM -SN FEW017 BKN021 OVC060 00/M03 A2938 RMK AO2 PK WND 25036/2158 RAE14 T00001028 PNO $,0,22,1,4827,0,0,0,SN
2026-03-16 21:54:00,METAR KBUF 162154Z 24023G37KT 9SM -RASN FEW023 FEW035 OVC060 01/M03 A2939 RMK AO2 PK WND 24037/2143 SLP954 T00061033 PNO $,0,23,1,14481,0,0,0,"-RA,SN"
2026-03-16 21:20:00,SPECI KBUF 162120Z 24021G33KT 10SM -RASN SCT029 OVC055 01/M03 A2938 RMK AO2 PK WND 25033/2113 T00061028 PNO $,0,21,1,16090,0,0,0,"-RA,SN"
2026-03-16 20:54:00,METAR KBUF 162054Z 23021G35KT 10SM -RASN FEW014 BKN028 OVC050 01/M03 A2939 RMK AO2 PK WND 24035/2051 SLP956 6//// T00111033 58004 PNO $,0,21,1,16090,0,0,0,"-RA,SN"
2026-03-16 19:54:00,METAR KBUF 161954Z 24018G29KT 10SM -RASN SCT018 OVC028 01/M02 A2940 RMK AO2 PK WND 23033/1939 SLP960 RAB48SNB48 T00111022 PNO $,0,18,1,16090,0,0,0,"-RA,RA,SN"
2026-03-16 19:51:00,SPECI KBUF 161951Z 23019G29KT 10SM -RASN SCT018 OVC028 01/M02 A2941 RMK AO2 PK WND 23033/1939 RAB48SNB48 PNO $,0,19,1,16090,0,0,0,"-RA,RA,SN"
2026-03-16 19:18:00,SPECI KBUF 161918Z 23019G28KT 10SM FEW009 BKN015 OVC021 01/M02 A2940 RMK AO2 PK WND 23033/1858 T00111017 PNO $,0,19,1,16090,0,0,0,
2026-03-16 18:54:00,METAR KBUF 161854Z 24017G32KT 10SM FEW008 BKN013 OVC018 01/M01 A2939 RMK AO2 PK WND 25034/1828 RAE36 SLP957 P0000 T00111011 $,0,17,1,16090,0,0,0,
2026-03-16 18:08:00,SPECI KBUF 161808Z 23020G32KT 5SM -RA BR FEW008 BKN011 OVC016 02/00 A2941 RMK AO2 PK WND 23032/1805 P0000 T00170000 $,0,20,1,8045,0,0,1,"-RA,BR"
2026-03-16 17:54:00,METAR KBUF 161754Z 23021G29KT 5SM -RA BR BKN009 OVC016 02/01 A2940 RMK AO2 PK WND 23035/1703 RAB30 SLP961 CIG 007V012 P0000 60001 T00170006 10161 20017 51038 $,0,21,1,8045,0,0,1,"-RA,BR"
2026-03-16 16:54:00,METAR KBUF 161654Z 23018G29KT 10SM BKN009 OVC017 03/01 A2939 RMK AO2 PK WND 25041/1622 RAE09 SLP956 P0000 T00280011 $,0,18,1,16090,0,0,0,
2026-03-16 16:10:00,SPECI KBUF 161610Z 24024G39KT 10SM BKN013 BKN033 OVC049 04/02 A2936 RMK AO2 PK WND 22039/1601 RAE09 P0000 T00440017 $,0,24,1,16090,0,0,0,
2026-03-16 15:54:00,METAR KBUF 161554Z COR 23029G49KT 10SM -RA FEW024 BKN039 BKN085 BKN160 BKN230 08/04 A2932 RMK AO2 PK WND 25049/1550 RAB1457 PRESRR SLP929 CDFNT PSG 1548 P0000 T00830044 $,0,29,1,16090,0,0,0,"-RA,RA,SG"
2026-03-16 14:54:00,METAR KBUF 161454Z 20008G18KT 10SM FEW007 FEW035 OVC065 11/11 A2929 RMK AO2 PK WND 25030/1407 WSHFT 1341 RAE38 SLP919 SHRA DSNT NE-SE P0001 60001 T01110106 50009 $,0,8,1,16090,0,0,0,"DS,RA,SH"
2026-03-16 14:01:00,SPECI KBUF 161401Z 24019G32KT 3SM -RA BR FEW009 BKN031 OVC065 12/11 A2931 RMK AO2 PK WND 25028/1400 WSHFT 1341 P0000 T01220106 $,0,19,1,4827,0,0,1,"-RA,BR"
2026-03-16 13:54:00,METAR KBUF 161354Z 24021G32KT 5SM -RA FEW031 BKN038 OVC070 14/09 A2931 RMK AO2 PK WND 15032/1329 WSHFT 1332 RAB52 PRESRR SLP925 VIS HYR NE-SE-S P0000 T01390094 $,0,21,1,8045,0,0,0,-RA
2026-03-16 13:52:00,SPECI KBUF 161352Z 24023G32KT 5SM -RA FEW031 BKN038 OVC070 14/09 A2930 RMK AO2 PK WND 15032/1329 WSHFT 1332 RAB52 PRESRR P0000 $,0,23,1,8045,0,0,0,-RA
2026-03-16 12:54:00,METAR KBUF 161254Z 16019G30KT 10SM FEW030 FEW065 SCT090 BKN180 BKN250 16/10 A2926 RMK AO2 PK WND 16030/1212 SLP909 VIRGA DSNT NE-SE-S T01560100 $,0,19,1,16090,0,0,0,DS
2026-03-16 11:54:00,METAR KBUF 161154Z 17019KT 10SM FEW040 SCT200 BKN250 15/10 A2929 RMK AO2 PK WND 15035/1142 SLP920 T01500100 10150 20128 56035 $,0,19,0,16090,0,0,0,
2026-03-16 10:54:00,METAR KBUF 161054Z 16023G36KT 10SM FEW039 BKN250 14/09 A2933 RMK AO2 PK WND 18036/1051 SLP930 T01440094 $,0,23,1,16090,0,0,0,
2026-03-16 09:54:00,METAR KBUF 160954Z 16021G35KT 10SM FEW039 SCT250 14/09 A2936 RMK AO2 PK WND 16035/0948 SLP941 T01440089 $,0,21,1,16090,0,0,0,
2026-03-16 08:54:00,METAR KBUF 160854Z 17022G32KT 10SM FEW038 14/09 A2940 RMK AO2 PK WND 17040/0807 SLP956 T01390089 58025 $,0,22,1,16090,0,0,0,
2026-03-16 07:54:00,METAR KBUF 160754Z 17029G43KT 10SM FEW060 FEW250 14/09 A2946 RMK AO2 PK WND 17043/0754 SLP977 T01390089 $,0,29,1,16090,0,0,0,
2026-03-16 06:54:00,METAR KBUF 160654Z 17027G42KT 10SM SCT250 13/08 A2946 RMK AO2 PK WND 17042/0650 SLP977 T01330083 $,0,27,1,16090,0,0,0,
2026-03-16 05:54:00,METAR KBUF 160554Z 17029G46KT 10SM BKN220 13/08 A2948 RMK AO2 PK WND 17046/0554 SLP983 T01280078 10128 20111 56038 $,0,29,1,16090,0,0,0,
2026-03-16 04:54:00,METAR KBUF 160454Z 17016G30KT 10SM BKN200 13/06 A2952 RMK AO2 PK WND 17045/0355 SLP997 T01280061 401501022 $,0,16,1,16090,0,0,0,
2026-03-16 03:54:00,METAR KBUF 160354Z 16025G42KT 10SM FEW140 SCT200 SCT260 12/05 A2955 RMK AO2 PK WND 15046/0343 SLP008 T01220050 $,0,25,1,16090,0,0,0,
2026-03-16 02:54:00,METAR KBUF 160254Z 16025G38KT 10SM FEW140 SCT220 SCT270 12/04 A2959 RMK AO2 PK WND 16041/0244 SLP024 T01170044 58035 $,0,25,1,16090,0,0,0,
2026-03-16 01:54:00,METAR KBUF 160154Z 16020G37KT 10SM FEW160 BKN220 BKN270 11/03 A2963 RMK AO2 PK WND 15037/0147 SLP038 T01110028 $,0,20,1,16090,0,0,0,
2026-03-16 00:54:00,METAR KBUF 160054Z 16020G30KT 10SM FEW160 OVC220 11/02 A2968 RMK AO2 PK WND 17038/0011 SLP053 T01110022 $,0,20,1,16090,0,0,0,
2026-03-15 23:54:00,METAR KBUF 152354Z 17017G26KT 10SM FEW060 FEW160 OVC210 11/01 A2970 RMK AO2 PK WND 19038/2307 SLP062 T01110011 10150 20111 56019 $,0,17,1,16090,0,0,0,
2026-03-15 22:54:00,METAR KBUF 152254Z 16027G39KT 10SM FEW060 BKN160 BKN210 OVC270 12/M01 A2972 RMK AO2 PK WND 16039/2252 SLP067 T01221006 $,0,27,1,16090,0,0,0,
2026-03-15 21:54:00,METAR KBUF 152154Z 15012G26KT 10SM FEW065 BKN160 BKN200 OVC260 14/M01 A2973 RMK AO2 PK WND 14029/2123 SLP073 T01391011 $,0,12,1,16090,0,0,0,
2026-03-15 20:54:00,METAR KBUF 152054Z 16020G34KT 10SM FEW065 BKN190 OVC260 14/M02 A2976 RMK AO2 PK WND 16034/2052 SLP081 T01441017 56043 $,0,20,1,16090,0,0,0,
2026-03-15 19:54:00,METAR KBUF 151954Z 16016G24KT 10SM SCT070 BKN200 OVC240 14/M01 A2979 RMK AO2 SLP092 T01441011 $,0,16,1,16090,0,0,0,
2026-03-15 18:54:00,METAR KBUF 151854Z 16014G22KT 10SM FEW030 FEW055 SCT170 OVC240 14/M02 A2983 RMK AO2 SLP106 T01441017 $,0,14,1,16090,0,0,0,
2026-03-15 17:54:00,METAR KBUF 151754Z 15016G21KT 10SM FEW170 BKN230 12/M03 A2989 RMK AO2 SLP126 60000 T01171028 10117 21011 56065 $,0,16,1,16090,0,0,0,
2026-03-15 16:54:00,METAR KBUF 151654Z 13014G23KT 10SM FEW080 SCT170 BKN230 09/M04 A2995 RMK AO2 SLP148 T00941039 $,0,14,1,16090,0,0,0,
2026-03-15 15:54:00,METAR KBUF 151554Z 10012KT 10SM SCT080 SCT150 OVC200 05/M04 A3002 RMK AO2 PRESFR SLP172 T00501044 $,0,12,0,16090,0,0,0,
2026-03-15 14:54:00,METAR KBUF 151454Z 09013KT 10SM OVC080 01/M04 A3008 RMK AO2 RAB18E53SNE44 PRESFR SLP196 P0000 60000 T00111044 58046 $,0,13,0,16090,0,0,0,RA
2026-03-15 14:44:00,SPECI KBUF 151444Z 08011KT 10SM -RA BKN075 OVC090 01/M04 A3010 RMK AO2 RAB18SNE44 P0000 T00061044 $,0,11,0,16090,0,0,0,"-RA,RA"
2026-03-15 13:54:00,METAR KBUF 151354Z 07017G26KT 10SM -SN OVC065 00/M06 A3014 RMK AO2 PK WND 07026/1330 SNB51 SLP217 P0000 T00001056 $,0,17,1,16090,0,0,0,SN
2026-03-15 12:54:00,METAR KBUF 151254Z 07015KT 10SM OVC070 M01/M04 A3019 RMK AO2 SLP233 T10061044 $,0,15,0,16090,0,0,0,
2026-03-15 11:54:00,METAR KBUF 151154Z 07013KT 10SM FEW050 OVC090 M01/M03 A3022 RMK AO2 SNE53 SLP244 P0001 60002 70002 T10111033 11006 21017 58017 $,0,13,0,16090,0,0,0,
2026-03-15 11:18:00,SPECI KBUF 151118Z 08012KT 6SM -SN BR SCT029 BKN047 OVC100 M01/M03 A3024 RMK AO2 P0001 T10111028 $,0,12,0,9654,0,0,1,"BR,SN"
2026-03-15 10:54:00,METAR KBUF 151054Z 10008KT 1SM R23/P6000FT -SN BR OVC025 M01/M03 A3027 RMK AO2 SLP259 P0001 T10111028 $,0,8,0,1609,0,0,1,"BR,SN"
2026-03-15 10:49:00,SPECI KBUF 151049Z 10009KT 1SM R23/P6000FT -SN BR OVC025 M02/M03 A3027 RMK AO2 P0001 $,0,9,0,1609,0,0,1,"BR,SN"
2026-03-15 10:42:00,SPECI KBUF 151042Z 11008KT 2SM -SN BR OVC027 M02/M04 A3027 RMK AO2 P0001 T10171039 $,0,8,0,3218,0,0,1,"BR,SN"
2026-03-15 10:25:00,SPECI KBUF 151025Z 11010KT 1SM R23/P6000FT -SN OVC029 M01/M05 A3028 RMK AO2 P0000 T10111050 $,0,10,0,1609,0,0,0,SN
2026-03-15 09:54:00,METAR KBUF 150954Z 08007KT 10SM -SN OVC035 M01/M06 A3027 RMK AO2 SNB25 SLP260 P0000 T10111061 $,0,7,0,16090,0,0,0,SN
2026-03-15 09:26:00,SPECI KBUF 150926Z 09008KT 10SM -SN OVC039 M01/M07 A3027 RMK AO2 SNB25 PCPN VRY LGT P0000 T10111067 $,0,8,0,16090,0,0,0,SN
2026-03-15 08:54:00,METAR KBUF 150854Z 09010KT 10SM OVC070 M01/M07 A3026 RMK AO2 SLP257 T10111067 58014 $,0,10,0,16090,0,0,0,
