Time_recorded,METAR,is_cavok,wind_speed,is_gust,visibility_meters,has_thunderstorm,has_heavy_rain,has_low_vis_fog,other_phenomenon
2026-05-02 14:51:00,METAR KUGN 021451Z 30010KT 10SM FEW049 08/M04 A3011 RMK AO2 SLP204 T00831039 50002,0,10,0,16090.0,0,0,0,
2026-05-02 13:51:00,METAR KUGN 021351Z 30005KT 10SM CLR 07/M01 A3011 RMK AO2 SLP204 T00721011,0,5,0,16090.0,0,0,0,
2026-05-02 12:51:00,METAR KUGN 021251Z 29006KT 10SM CLR 04/00 A3011 RMK AO2 SLP206 T00390000,0,6,0,16090.0,0,0,0,
2026-05-02 11:51:00,METAR KUGN 021151Z 29004KT 10SM CLR 01/M01 A3010 RMK AO2 SLP204 T00111011 10011 21028 53004,0,4,0,16090.0,0,0,0,
2026-05-02 10:51:00,METAR KUGN 021051Z 29004KT 10SM CLR 00/M02 A3010 RMK AO2 SLP201 T00001017,0,4,0,16090.0,0,0,0,
2026-05-02 09:51:00,METAR KUGN 020951Z AUTO 00000KT 10SM CLR M02/M03 A3010 RMK AO2 SLP202 T10171028,0,0,0,16090.0,0,0,0,
2026-05-02 08:51:00,METAR KUGN 020851Z AUTO 25003KT 10SM CLR M02/M03 A3009 RMK AO2 SLP200 T10171028 55005,0,3,0,16090.0,0,0,0,
2026-05-02 07:51:00,METAR KUGN 020751Z AUTO 28004KT 10SM CLR M01/M03 A3009 RMK AO2 SLP198 T10061028,0,4,0,16090.0,0,0,0,
2026-05-02 06:51:00,METAR KUGN 020651Z AUTO 25003KT 10SM CLR M02/M03 A3010 RMK AO2 SLP203 T10221028,0,3,0,16090.0,0,0,0,
2026-05-02 05:51:00,METAR KUGN 020551Z AUTO 00000KT 10SM CLR M01/M02 A3011 RMK AO2 SLP205 T10111022 10044 21017 400781017 51005,0,0,0,16090.0,0,0,0,
2026-05-02 04:51:00,METAR KUGN 020451Z AUTO 00000KT 10SM CLR M01/M02 A3010 RMK AO2 SLP204 T10111017,0,0,0,16090.0,0,0,0,
2026-05-02 03:51:00,METAR KUGN 020351Z AUTO 00000KT 10SM CLR 00/M02 A3010 RMK AO2 SLP200 T00001022,0,0,0,16090.0,0,0,0,
2026-05-02 02:51:00,METAR KUGN 020251Z AUTO 00000KT 10SM CLR 00/M02 A3009 RMK AO2 SLP199 T00001017 53007,0,0,0,16090.0,0,0,0,
2026-05-02 01:51:00,METAR KUGN 020151Z AUTO 00000KT 10SM BKN075 03/M03 A3008 RMK AO2 SLP194 T00281033,0,0,0,16090.0,0,0,0,
2026-05-02 00:51:00,METAR KUGN 020051Z COR 04003KT 10SM SCT047 BKN055 BKN070 03/M04 A3007 RMK AO2 SLP193 T00331039 LAST,0,3,0,16090.0,0,0,0,
2026-05-01 23:51:00,METAR KUGN 012351Z 05006KT 10SM SCT050 SCT060 04/M05 A3007 RMK AO2 SLP191 60000 T00441050 10061 20039 53005,0,6,0,16090.0,0,0,0,
2026-05-01 22:51:00,METAR KUGN 012251Z 04007KT 10SM FEW038 SCT065 OVC080 06/M03 A3006 RMK AO2 SLP188 T00561033,0,7,0,16090.0,0,0,0,
2026-05-01 21:51:00,METAR KUGN 012151Z 07011KT 10SM FEW033 BKN060 OVC090 05/M02 A3006 RMK AO2 SLP186 T00501017,0,11,0,16090.0,0,0,0,
2026-05-01 20:51:00,METAR KUGN 012051Z COR 06008KT 020V080 10SM SCT036 SCT047 BKN060 06/M01 A3005 RMK AO2 SLP184 60000 T00611011 50008,0,8,0,16090.0,0,0,0,
2026-05-01 19:51:00,METAR KUGN 011951Z 07010KT 10SM OVC060 04/00 A3005 RMK AO2 SLP185 T00440000,0,10,0,16090.0,0,0,0,
2026-05-01 18:51:00,METAR KUGN 011851Z 08009KT 10SM FEW048 SCT055 BKN080 06/02 A3004 RMK AO2 RAB17E36 SLP181 P0000 T00560017,0,9,0,16090.0,0,0,0,RA
2026-05-01 17:51:00,METAR KUGN 011751Z 04010KT 10SM FEW018 OVC065 06/02 A3003 RMK AO2 SLP176 T00560017 10078 20033 53006,0,10,0,16090.0,0,0,0,
2026-05-01 16:51:00,METAR KUGN 011651Z 06010KT 10SM BKN043 OVC060 05/01 A3002 RMK AO2 SLP175 T00500011,0,10,0,16090.0,0,0,0,
2026-05-01 15:51:00,METAR KUGN 011551Z 05008KT 10SM FEW021 BKN039 BKN048 07/03 A3002 RMK AO2 SLP171 T00720028,0,8,0,16090.0,0,0,0,
2026-05-01 14:51:00,METAR KUGN 011451Z 35009G14KT 10SM BKN028 BKN041 08/01 A3001 RMK AO2 SLP168 T00780006 50004,0,9,1,16090.0,0,0,0,
2026-05-01 13:51:00,METAR KUGN 011351Z 35005KT 10SM SCT015 BKN022 OVC027 06/03 A3001 RMK AO2 SLP170 T00560028,0,5,0,16090.0,0,0,0,
2026-05-01 13:30:00,SPECI KUGN 011330Z 34006KT 10SM SCT014 BKN024 05/02 A3001 RMK AO2 T00500022,0,6,0,16090.0,0,0,0,
2026-05-01 12:51:00,METAR KUGN 011251Z 33003KT 10SM FEW045 BKN070 04/03 A3001 RMK AO2 SLP168 T00440028,0,3,0,16090.0,0,0,0,
2026-05-01 11:51:00,METAR KUGN 011151Z 32003KT 8SM FEW046 OVC065 03/03 A3000 RMK AO2 SLP167 60001 70011 T00330028 10039 20028 53010,0,3,0,12872.0,0,0,0,
2026-05-01 10:51:00,METAR KUGN 011051Z COR 32004KT 10SM FEW021 FEW045 BKN070 03/02 A2998 RMK AO2 SLP162 T00280022,0,4,0,16090.0,0,0,0,
2026-05-01 10:37:00,SPECI KUGN 011037Z AUTO 00000KT 10SM SCT023 SCT045 OVC070 03/02 A2998 RMK AO2 T00280022,0,0,0,16090.0,0,0,0,
2026-05-01 10:02:00,SPECI KUGN 011002Z AUTO 33003KT 10SM BKN022 OVC046 03/03 A2998 RMK AO2 T00330028,0,3,0,16090.0,0,0,0,
2026-05-01 09:51:00,METAR KUGN 010951Z AUTO 33004KT 10SM SCT022 BKN046 OVC110 03/03 A2998 RMK AO2 SLP159 T00330028,0,4,0,16090.0,0,0,0,
2026-05-01 08:51:00,METAR KUGN 010851Z AUTO 00000KT 10SM BKN050 BKN070 OVC090 04/03 A2997 RMK AO2 RAE0758 SLP156 P0000 60001 T00390033 55005,0,0,0,16090.0,0,0,0,RA
2026-05-01 07:51:00,METAR KUGN 010751Z AUTO 10003KT 10SM -RA FEW034 OVC060 04/02 A2996 RMK AO2 SLP151 P0001 T00390022,0,3,0,16090.0,0,0,0,-RA
2026-05-01 06:51:00,METAR KUGN 010651Z AUTO 00000KT 10SM -RA OVC033 04/03 A2997 RMK AO2 RAB43 SLP156 P0000 T00390028,0,0,0,16090.0,0,0,0,-RA
2026-05-01 06:34:00,SPECI KUGN 010634Z AUTO 00000KT 10SM OVC031 04/03 A2997 RMK AO2 T00390033,0,0,0,16090.0,0,0,0,
2026-05-01 05:51:00,METAR KUGN 010551Z AUTO 00000KT 10SM OVC024 04/03 A2998 RMK AO2 SLP160 60005 T00390033 10039 20039 400941006 55001,0,0,0,16090.0,0,0,0,
2026-05-01 05:17:00,SPECI KUGN 010517Z AUTO 00000KT 10SM BKN024 BKN035 OVC085 04/02 A2998 RMK AO2 T00390022,0,0,0,16090.0,0,0,0,
2026-05-01 05:02:00,SPECI KUGN 010502Z AUTO 00000KT 10SM SCT022 SCT035 OVC085 04/02 A2998 RMK AO2 T00390022,0,0,0,16090.0,0,0,0,
2026-05-01 04:51:00,METAR KUGN 010451Z AUTO 08004KT 10SM BKN022 OVC075 04/03 A2997 RMK AO2 RAE01 SLP155 P0000 T00390028,0,4,0,16090.0,0,0,0,
2026-05-01 04:26:00,SPECI KUGN 010426Z AUTO 10003KT 10SM BKN022 BKN027 OVC034 04/02 A2998 RMK AO2 RAE01 P0000 T00390022,0,3,0,16090.0,0,0,0,
2026-05-01 03:51:00,METAR KUGN 010351Z AUTO 08003KT 10SM -RA BKN031 OVC070 04/03 A2998 RMK AO2 SLP157 P0001 T00390028,0,3,0,16090.0,0,0,0,-RA
2026-05-01 02:51:00,METAR KUGN 010251Z AUTO 07003KT 10SM -RA FEW036 OVC046 04/02 A2999 RMK AO2 SLP159 P0002 60004 T00390022 53005,0,3,0,16090.0,0,0,0,-RA
2026-05-01 01:51:00,METAR KUGN 010151Z AUTO 08003KT 10SM -RA OVC036 04/02 A2997 RMK AO2 RAB31 SLP156 P0000 T00390022,0,3,0,16090.0,0,0,0,-RA
2026-05-01 00:51:00,METAR KUGN 010051Z COR 12004KT 10SM OVC034 04/02 A2997 RMK AO2 RAE43 SLP155 P0002 T00390017 LAST,0,4,0,16090.0,0,0,0,
2026-04-30 23:51:00,METAR KUGN 302351Z 10004KT 10SM -RA OVC036 04/02 A2997 RMK AO2 SLP157 P0004 60005 T00390017 10056 20039 58005,0,4,0,16090.0,0,0,0,-RA
2026-04-30 22:51:00,METAR KUGN 302251Z 09006KT 10SM -RA SCT031 OVC044 05/02 A2998 RMK AO2 SLP161 P0000 T00500017,0,6,0,16090.0,0,0,0,-RA
2026-04-30 21:51:00,METAR KUGN 302151Z 08007KT 10SM -RA OVC050 05/02 A2998 RMK AO2 SLP161 P0000 T00500022,0,7,0,16090.0,0,0,0,-RA
2026-04-30 20:51:00,METAR KUGN 302051Z 07007KT 10SM -RA BKN049 OVC055 05/02 A2998 RMK AO2 RAB14 SLP162 P0000 60001 T00500022 58010,0,7,0,16090.0,0,0,0,-RA
2026-04-30 19:51:00,METAR KUGN 301951Z 08009KT 10SM OVC060 05/02 A3000 RMK AO2 RAE02B23E35 SLP167 P0000 T00500017,0,9,0,16090.0,0,0,0,RA
2026-04-30 18:51:00,METAR KUGN 301851Z 09009KT 10SM -RA BKN046 OVC060 04/03 A3001 RMK AO2 RAB02 SLP170 P0001 T00440028,0,9,0,16090.0,0,0,0,-RA
2026-04-30 17:51:00,METAR KUGN 301751Z 08009KT 10SM BKN047 BKN060 OVC070 06/01 A3002 RMK AO2 SLP172 T00560011 10094 20028 58002,0,9,0,16090.0,0,0,0,
2026-04-30 16:51:00,METAR KUGN 301651Z 09009KT 10SM BKN075 OVC085 07/02 A3002 RMK AO2 SLP172 T00720017,0,9,0,16090.0,0,0,0,
2026-04-30 15:51:00,METAR KUGN 301551Z 07009KT 10SM SCT020 SCT028 SCT075 07/02 A3003 RMK AO2 SLP175 T00720017,0,9,0,16090.0,0,0,0,
2026-04-30 14:51:00,METAR KUGN 301451Z 06007KT 10SM BKN021 BKN025 BKN075 09/05 A3002 RMK AO2 SLP172 T00940050 50002,0,7,0,16090.0,0,0,0,
2026-04-30 14:38:00,SPECI KUGN 301438Z VRB05KT 10SM SCT021 BKN027 09/04 A3003 RMK AO2 T00890044,0,5,0,16090.0,0,0,0,
2026-04-30 13:51:00,METAR KUGN 301351Z COR 00000KT 10SM FEW035 08/04 A3002 RMK AO2 SLP172 T00830039,0,0,0,16090.0,0,0,0,
2026-04-30 12:51:00,METAR KUGN 301251Z 30003KT 10SM CLR 06/04 A3002 RMK AO2 SLP173 T00610044,0,3,0,16090.0,0,0,0,
2026-04-30 11:51:00,METAR KUGN 301151Z 00000KT 8SM CLR 03/03 A3002 RMK AO2 SLP172 T00280028 10039 21006 53003,0,0,0,12872.0,0,0,0,
2026-04-30 10:51:00,METAR KUGN 301051Z 00000KT 5SM BR CLR 00/00 A3001 RMK AO2 SLP172 T00000000,0,0,0,8045.0,0,0,1,BR
2026-04-30 10:39:00,SPECI KUGN 301039Z AUTO 27003KT 3SM BR CLR M01/M01 A3002 RMK AO2 T10061006,0,3,0,4827.0,0,0,1,BR
2026-04-30 10:19:00,SPECI KUGN 301019Z AUTO 00000KT 1 3/4SM BR CLR 01/01 A3001 RMK AO2 VIS 3/4V5 T00060006,0,0,0,2816.0,0,0,1,BR
2026-04-30 09:51:00,METAR KUGN 300951Z AUTO 25003KT 5SM BR CLR 01/01 A3001 RMK AO2 SLP169 T00060006,0,3,0,8045.0,0,0,1,BR
2026-04-30 09:41:00,SPECI KUGN 300941Z AUTO 25004KT 3SM BR CLR 00/00 A3001 RMK AO2 T00000000,0,4,0,4827.0,0,0,1,BR
2026-04-30 09:30:00,SPECI KUGN 300930Z AUTO 00000KT 1 1/2SM BR CLR 02/02 A3001 RMK AO2 T00170017,0,0,0,2414.0,0,0,1,BR
2026-04-30 08:51:00,METAR KUGN 300851Z AUTO 31003KT 9SM CLR 02/02 A3001 RMK AO2 SLP168 T00220022 55002,0,3,0,14481.0,0,0,0,
2026-04-30 07:51:00,METAR KUGN 300751Z AUTO 29003KT 10SM CLR 03/03 A3000 RMK AO2 SLP166 T00330033,0,3,0,16090.0,0,0,0,
2026-04-30 06:51:00,METAR KUGN 300651Z AUTO 26005KT 10SM CLR 03/03 A3001 RMK AO2 SLP167 T00330028,0,5,0,16090.0,0,0,0,
2026-04-30 05:51:00,METAR KUGN 300551Z AUTO 27004KT 10SM CLR 03/03 A3001 RMK AO2 SLP170 60000 T00330028 10067 20017 401220017 56003,0,4,0,16090.0,0,0,0,
2026-04-30 04:51:00,METAR KUGN 300451Z AUTO 24003KT 10SM CLR 02/02 A3001 RMK AO2 SLP170 T00170017,0,3,0,16090.0,0,0,0,
2026-04-30 03:51:00,METAR KUGN 300351Z AUTO 26004KT 10SM CLR 03/02 A3002 RMK AO2 SLP171 T00330022,0,4,0,16090.0,0,0,0,
2026-04-30 02:51:00,METAR KUGN 300251Z AUTO 23003KT 10SM OVC075 05/03 A3002 RMK AO2 SLP172 60000 T00500033 51012,0,3,0,16090.0,0,0,0,
2026-04-30 01:51:00,METAR KUGN 300151Z AUTO 24003KT 10SM BKN042 OVC070 06/03 A3002 RMK AO2 SLP169 T00560033,0,3,0,16090.0,0,0,0,
2026-04-30 00:51:00,METAR KUGN 300051Z 02003KT 10SM OVC030 05/03 A3000 RMK AO2 RAB21E41 SLP165 LAST P0000 T00500033,0,3,0,16090.0,0,0,0,RA
2026-04-29 23:51:00,METAR KUGN 292351Z 02009KT 10SM OVC018 07/03 A2999 RMK AO2 SLP158 60000 T00670028 10083 20061 53004,0,9,0,16090.0,0,0,0,
2026-04-29 22:51:00,METAR KUGN 292251Z 03005KT 10SM OVC019 07/03 A2997 RMK AO2 SLP154 T00670033,0,5,0,16090.0,0,0,0,
2026-04-29 21:51:00,METAR KUGN 292151Z 03006KT 10SM BKN018 BKN026 OVC090 07/03 A2997 RMK AO2 SLP152 T00720033,0,6,0,16090.0,0,0,0,
2026-04-29 20:51:00,METAR KUGN 292051Z 01007KT 10SM BKN016 OVC023 07/04 A2997 RMK AO2 RAE06 SLP153 P0000 60000 T00720044 51011,0,7,0,16090.0,0,0,0,
2026-04-29 19:51:00,METAR KUGN 291951Z 36007KT 10SM -RA OVC017 07/04 A2997 RMK AO2 RAB22 SLP150 P0000 T00720044,0,7,0,16090.0,0,0,0,-RA
2026-04-29 18:51:00,METAR KUGN 291851Z 34008KT 10SM OVC019 08/04 A2995 RMK AO2 SLP144 T00780039,0,8,0,16090.0,0,0,0,
2026-04-29 17:51:00,METAR KUGN 291751Z 02009KT 10SM OVC019 08/03 A2994 RMK AO2 SLP140 T00780033 10083 20072 50004,0,9,0,16090.0,0,0,0,
2026-04-29 16:51:00,METAR KUGN 291651Z 02010G14KT 10SM OVC014 08/04 A2994 RMK AO2 SLP141 T00780044,0,10,1,16090.0,0,0,0,
2026-04-29 15:51:00,METAR KUGN 291551Z 01008G15KT 330V030 10SM OVC010 08/06 A2994 RMK AO2 SLP139 T00830056,0,8,1,16090.0,0,0,0,
2026-04-29 14:51:00,METAR KUGN 291451Z 36006KT 10SM OVC010 08/06 A2993 RMK AO2 SLP136 T00780056 53003,0,6,0,16090.0,0,0,0,
2026-04-29 13:59:00,SPECI KUGN 291359Z 01009KT 10SM BKN009 OVC060 08/06 A2992 RMK AO2 CIG 008V012 T00830061,0,9,0,16090.0,0,0,0,
2026-04-29 13:51:00,METAR KUGN 291351Z COR 35007KT 10SM BKN010 OVC060 08/06 A2992 RMK AO2 SLP133 T00830061,0,7,0,16090.0,0,0,0,
2026-04-29 13:30:00,SPECI KUGN 291330Z 02005KT 10SM BKN010 OVC055 08/07 A2992 RMK AO2 T00830067,0,5,0,16090.0,0,0,0,
2026-04-29 12:51:00,METAR KUGN 291251Z 36004KT 10SM OVC050 08/06 A2992 RMK AO2 SLP132 T00830061,0,4,0,16090.0,0,0,0,
2026-04-29 11:51:00,METAR KUGN 291151Z 34003KT 10SM OVC055 08/06 A2992 RMK AO2 RAB06E35 SLP131 P0000 60000 T00780061 10128 20078 53008,0,3,0,16090.0,0,0,0,RA
2026-04-29 10:51:00,METAR KUGN 291051Z 35006KT 10SM OVC060 08/06 A2991 RMK AO2 RAE14 SLP125 P0000 T00830056,0,6,0,16090.0,0,0,0,
2026-04-29 09:51:00,METAR KUGN 290951Z AUTO 35010G17KT 10SM -RA BKN065 OVC080 09/05 A2989 RMK AO2 RAB06 SLP120 P0000 T00940050,0,10,1,16090.0,0,0,0,-RA
2026-04-29 08:51:00,METAR KUGN 290851Z AUTO 33003KT 10SM OVC065 12/04 A2989 RMK AO2 SLP120 T01170044 53001,0,3,0,16090.0,0,0,0,
2026-04-29 07:51:00,METAR KUGN 290751Z AUTO 34003KT 10SM BKN065 OVC090 12/06 A2989 RMK AO2 SLP121 T01220056,0,3,0,16090.0,0,0,0,
2026-04-29 06:51:00,METAR KUGN 290651Z AUTO 01003KT 10SM FEW060 BKN095 OVC110 12/06 A2989 RMK AO2 SLP119 T01170056,0,3,0,16090.0,0,0,0,
2026-04-29 05:51:00,METAR KUGN 290551Z AUTO 35005KT 10SM BKN110 13/06 A2989 RMK AO2 SLP119 T01280061 10167 20122 401780100 58010,0,5,0,16090.0,0,0,0,
2026-04-29 04:51:00,METAR KUGN 290451Z AUTO 30003KT 10SM OVC090 13/06 A2991 RMK AO2 SLP128 T01280061,0,3,0,16090.0,0,0,0,
2026-04-29 03:51:00,METAR KUGN 290351Z AUTO 29004KT 10SM BKN090 OVC110 14/06 A2992 RMK AO2 SLP131 T01390061,0,4,0,16090.0,0,0,0,
2026-04-29 02:51:00,METAR KUGN 290251Z AUTO 23006KT 10SM OVC110 12/08 A2992 RMK AO2 SLP132 T01220083 53013,0,6,0,16090.0,0,0,0,
2026-04-29 01:51:00,METAR KUGN 290151Z AUTO 00000KT 10SM FEW120 13/07 A2989 RMK AO2 SLP122 T01330067,0,0,0,16090.0,0,0,0,
2026-04-29 00:51:00,METAR KUGN 290051Z 26003KT 10SM CLR 16/06 A2988 RMK AO2 SLP116 LAST T01560061,0,3,0,16090.0,0,0,0,
2026-04-28 23:51:00,METAR KUGN 282351Z 26004KT 10SM CLR 17/06 A2988 RMK AO2 SLP117 T01670056 10178 20150 55005,0,4,0,16090.0,0,0,0,
2026-04-28 22:51:00,METAR KUGN 282251Z 29005KT 10SM CLR 17/06 A2987 RMK AO2 SLP112 T01720061,0,5,0,16090.0,0,0,0,
2026-04-28 21:51:00,METAR KUGN 282151Z 29009G18KT 10SM CLR 18/07 A2988 RMK AO2 SLP117 T01780067,0,9,1,16090.0,0,0,0,
2026-04-28 20:51:00,METAR KUGN 282051Z 27010G18KT 10SM CLR 17/07 A2990 RMK AO2 SLP121 T01720072 58007,0,10,1,16090.0,0,0,0,
2026-04-28 19:51:00,METAR KUGN 281951Z 25011KT 10SM FEW035 17/07 A2991 RMK AO2 SLP126 T01670067,0,11,0,16090.0,0,0,0,
2026-04-28 18:51:00,METAR KUGN 281851Z 24014G20KT 10SM BKN035 16/07 A2993 RMK AO2 SLP130 T01610072,0,14,1,16090.0,0,0,0,
2026-04-28 17:51:00,METAR KUGN 281751Z COR 26011G19KT 10SM BKNFEW033 16/07 A2992 RMK AO2 SLP127 T01560072 10156 20100 51013,0,11,1,16090.0,0,0,0,
2026-04-28 16:51:00,METAR KUGN 281651Z 26010G18KT 10SM BKN031 13/07 A2991 RMK AO2 SLP126 T01330067,0,10,1,16090.0,0,0,0,
2026-04-28 15:51:00,METAR KUGN 281551Z 26012G19KT 10SM BKN030 13/06 A2990 RMK AO2 SLP124 T01280061,0,12,1,16090.0,0,0,0,
2026-04-28 14:51:00,METAR KUGN 281451Z 25013G22KT 10SM BKN026 OVC031 12/07 A2988 RMK AO2 SLP116 T01170067 51036,0,13,1,16090.0,0,0,0,
2026-04-28 14:39:00,SPECI KUGN 281439Z 27008G20KT 10SM SCT025 OVC030 12/07 A2987 RMK AO2 T01220067,0,8,1,16090.0,0,0,0,
2026-04-28 13:51:00,METAR KUGN 281351Z 27011G19KT 10SM OVC026 11/07 A2986 RMK AO2 SLP110 T01110067,0,11,1,16090.0,0,0,0,
2026-04-28 12:51:00,METAR KUGN 281251Z 27011KT 10SM BKN020 OVC024 11/07 A2982 RMK AO2 SLP095 T01060067,0,11,0,16090.0,0,0,0,
2026-04-28 11:51:00,METAR KUGN 281151Z 26010G18KT 10SM OVC019 11/07 A2977 RMK AO2 PK WND 26026/1131 SLP078 70047 T01060072 10161 20106 53036,0,10,1,16090.0,0,0,0,
2026-04-28 10:51:00,METAR KUGN 281051Z 26010G25KT 10SM OVC020 11/07 A2973 RMK AO2 PK WND 29026/1016 SLP065 T01110072,0,10,1,16090.0,0,0,0,
2026-04-28 09:51:00,METAR KUGN 280951Z AUTO 26013G23KT 10SM OVC020 11/08 A2969 RMK AO2 PK WND 28034/0903 SLP052 T01110078,0,13,1,16090.0,0,0,0,
2026-04-28 08:51:00,METAR KUGN 280851Z AUTO 25018G27KT 10SM OVC020 12/09 A2966 RMK AO2 PK WND 27028/0835 SLP044 T01220089 53018,0,18,1,16090.0,0,0,0,
2026-04-28 07:51:00,METAR KUGN 280751Z AUTO 25016G22KT 10SM OVC023 14/11 A2964 RMK AO2 PK WND 25027/0715 SLP034 T01390111,0,16,1,16090.0,0,0,0,
2026-04-28 06:51:00,METAR KUGN 280651Z AUTO 26013G25KT 10SM FEW018 OVC028 15/12 A2962 RMK AO2 SLP028 T01500122,0,13,1,16090.0,0,0,0,
2026-04-28 06:09:00,SPECI KUGN 280609Z AUTO 25012G19KT 10SM FEW013 BKN021 OVC028 16/14 A2962 RMK AO2 T01610144,0,12,1,16090.0,0,0,0,
2026-04-28 05:51:00,METAR KUGN 280551Z AUTO 22011KT 10SM BKN014 BKN022 OVC035 16/15 A2961 RMK AO2 SLP025 60012 T01610150 10194 20144 402000061 53000,0,11,0,16090.0,0,0,0,
2026-04-28 05:21:00,SPECI KUGN 280521Z AUTO 22013KT 10SM BKN022 16/15 A2961 RMK AO2 T01560150,0,13,0,16090.0,0,0,0,
2026-04-28 05:14:00,SPECI KUGN 280514Z AUTO 22012G21KT 10SM FEW008 FEW020 SCT025 16/15 A2961 RMK AO2 T01560150,0,12,1,16090.0,0,0,0,
2026-04-28 04:51:00,METAR KUGN 280451Z AUTO 22011KT 10SM SCT011 16/15 A2961 RMK AO2 LTG DSNT SE RAE16 SLP024 P0001 T01560150,0,11,0,16090.0,0,0,0,DS
2026-04-28 03:51:00,METAR KUGN 280351Z AUTO 20013KT 10SM -RA BKN013 OVC085 16/15 A2960 RMK AO2 LTG DSNT SW AND W RAB48 SLP022 P0000 T01610150,0,13,0,16090.0,0,0,0,"-RA,DS"
2026-04-28 03:48:00,SPECI KUGN 280348Z AUTO 21011G20KT 10SM -RA BKN013 OVC090 17/15 A2961 RMK AO2 LTG DSNT SW AND W RAB48 P0000,0,11,1,16090.0,0,0,0,"-RA,DS"
2026-04-28 02:51:00,METAR KUGN 280251Z AUTO 18009KT 10SM SCT021 16/15 A2959 RMK AO2 RAE0156 SLP019 P0000 60011 T01560150 55001,0,9,0,16090.0,0,0,0,RA
2026-04-28 01:51:00,METAR KUGN 280151Z AUTO 13011G17KT 10SM -RA FEW005 BKN095 BKN110 16/15 A2952 RMK AO2 LTG DSNT E AND SE PRESFR SLP994 P0003 T01560150,0,11,1,16090.0,0,0,0,"-RA,DS"
2026-04-28 00:51:00,METAR KUGN 280051Z 15009KT 3SM -RA BR BKN036 BKN043 OVC050 17/16 A2960 RMK AO2 LTG DSNT E-S RAB11 SLP021 P0008 T01670156,0,9,0,4827.0,0,0,1,"-RA,BR,DS"
2026-04-27 23:51:00,METAR KUGN 272351Z 20016G22KT 10SM OVC050 19/14 A2960 RMK AO2 LTG DSNT S AND SW SLP019 60009 T01940144 10200 20106 50008,0,16,1,16090.0,0,0,0,DS
2026-04-27 22:51:00,METAR KUGN 272251Z 15007KT 10SM CLR 16/13 A2960 RMK AO2 SLP022 T01610133,0,7,0,16090.0,0,0,0,
2026-04-27 22:11:00,SPECI KUGN 272211Z COR 15007KT 10SM SCT060 15/12 A2959 RMK AO2 T01500122,0,7,0,16090.0,0,0,0,
2026-04-27 21:51:00,METAR KUGN 272151Z 16013G20KT 10SM SCT055 14/12 A2959 RMK AO2 PK WND 15027/2112 SLP020 T01390117,0,13,1,16090.0,0,0,0,
2026-04-27 21:22:00,SPECI KUGN 272122Z COR 15012G25KT 10SM CLR 13/12 A2959 RMK AO2 PK WND 15027/2112 T01330117,0,12,1,16090.0,0,0,0,
2026-04-27 21:07:00,SPECI KUGN 272107Z 15016G24KT 10SM BKN005 13/12 A2958 RMK AO2 CIG 002V008 T01280117,0,16,1,16090.0,0,0,0,
2026-04-27 20:51:00,METAR KUGN 272051Z 16015G25KT 6SM BR OVC003 12/12 A2957 RMK AO2 PK WND 14031/2027 CIG 002V006 SLP015 60009 T01220117 56078,0,15,1,9654.0,0,0,1,BR
2026-04-27 20:05:00,SPECI KUGN 272005Z 15012G25KT 7SM OVC004 13/12 A2958 RMK AO2 T01280122,0,12,1,11263.0,0,0,0,
2026-04-27 19:51:00,METAR KUGN 271951Z 15016G27KT 7SM OVC005 13/12 A2959 RMK AO2 PK WND 13028/1902 SLP021 T01280122,0,16,1,11263.0,0,0,0,
2026-04-27 18:58:00,SPECI KUGN 271858Z COR 13016G28KT 8SM OVC005 13/12 A2958 RMK AO2 PK WND 15028/1856 CIG 002V009 T01280117,0,16,1,12872.0,0,0,0,
2026-04-27 18:51:00,METAR KUGN 271851Z 13011G24KT 2 1/2SM BR OVC005 13/12 A2960 RMK AO2 PK WND 12026/1832 RAE45 CIG 002V009 SLP025 P0009 T01280122,0,11,1,4022.0,0,0,1,BR
2026-04-27 18:28:00,SPECI KUGN 271828Z 09015G26KT 2 1/2SM -RA BR BKN003 BKN047 OVC085 12/11 A2960 RMK AO2 PK WND 10026/1825 LTG DSNT S PRESFR P0009 T01170111,0,15,1,4022.0,0,0,1,"-RA,BR,DS"
2026-04-27 18:25:00,SPECI KUGN 271825Z 08014G26KT 2 1/2SM -RA BR SCT003 BKN047 OVC100 11/11 A2961 RMK AO2 PK WND 10026/1825 LTG DSNT S PRESFR P0009 T01110111,0,14,1,4022.0,0,0,1,"-RA,BR,DS"
2026-04-27 18:17:00,SPECI KUGN 271817Z 09012G22KT 2 1/2SM RA BR FEW024 BKN075 OVC095 11/11 A2968 RMK AO2 LTG DSNT S PRESFR P0008 T01110111,0,12,1,4022.0,0,0,1,"BR,DS,RA"
2026-04-27 18:08:00,SPECI KUGN 271808Z 16010KT 2 1/2SM RA BR FEW024 BKN055 OVC090 12/11 A2978 RMK AO2 PRESFR P0005 T01170106,0,10,0,4022.0,0,0,1,"BR,RA"
2026-04-27 17:51:00,METAR KUGN 271751Z 16008KT 2 1/2SM VCTS RA BR FEW027 BKN060 OVC095 11/10 A2981 RMK AO2 LTG DSNT SE-W RAB02 SLP097 P0018 60026 T01060100 10111 20078 55004,0,8,0,4022.0,1,0,1,"BR,DS,RA,TS,VC"
2026-04-27 17:47:00,SPECI KUGN 271747Z 16008KT 2 1/2SM VCTS RA BR FEW029 BKN060 OVC080 11/10 A2981 RMK AO2 LTG DSNT SE-W RAB02 P0016,0,8,0,4022.0,1,0,1,"BR,DS,RA,TS,VC"
2026-04-27 17:30:00,SPECI KUGN 271730Z 17010KT 2 1/2SM RA BR SCT029 BKN040 OVC090 11/09 A2982 RMK AO2 RAB02 P0009 T01060094,0,10,0,4022.0,0,0,1,"BR,RA"
2026-04-27 16:51:00,METAR KUGN 271651Z COR 14010G18KT 10SM SCT049 OVC090 11/10 A2978 RMK AO2 RAE19 SLP086 P0002 T01110100,0,10,1,16090.0,0,0,0,
2026-04-27 16:04:00,SPECI KUGN 271604Z COR 15012KT 4SM -RA BR FEW055 BKN070 OVC090 10/09 A2981 RMK AO2 P0001 T01000089,0,12,0,6436.0,0,0,1,"-RA,BR"
2026-04-27 15:51:00,METAR KUGN 271551Z 15010KT 2 1/2SM +RA BR FEW045 BKN070 OVC090 10/09 A2982 RMK AO2 VIS 1 1/2V5 RAE1456B32 SLP100 P0006 T01000089,0,10,0,4022.0,0,1,1,"+RA,BR,RA"
2026-04-27 14:51:00,METAR KUGN 271451Z 14010KT 8SM -RA FEW046 FEW075 OVC095 10/09 A2983 RMK AO2 RAB16 SLP107 P0000 60000 T01000089 56021,0,10,0,12872.0,0,0,0,-RA
2026-04-27 13:51:00,METAR KUGN 271351Z 13011KT 10SM OVC090 09/08 A2985 RMK AO2 SLP111 T00940078,0,11,0,16090.0,0,0,0,
2026-04-27 12:51:00,METAR KUGN 271251Z COR 14008KT 10SM FEW075 FEW095 SCT120 09/08 A2986 RMK AO2 SLP116 T00890078,0,8,0,16090.0,0,0,0,
2026-04-27 11:51:00,METAR KUGN 271151Z COR 14011KT 8SM FEW060 08/07 A2990 RMK AO2 SLP127 T00780072 10089 20061 56013,0,11,0,12872.0,0,0,0,
2026-04-27 10:51:00,METAR KUGN 271051Z COR 14013G21KT 10SM CLR 08/07 A2991 RMK AO2 SLP129 T00780072,0,13,1,16090.0,0,0,0,
2026-04-27 09:51:00,METAR KUGN 270951Z AUTO 12010KT 10SM CLR 08/07 A2990 RMK AO2 SLP126 T00780067,0,10,0,16090.0,0,0,0,
2026-04-27 08:51:00,METAR KUGN 270851Z AUTO 12010G19KT 10SM CLR 08/07 A2994 RMK AO2 SLP139 T00830072 58020,0,10,1,16090.0,0,0,0,
2026-04-27 07:51:00,METAR KUGN 270751Z AUTO 13009KT 10SM CLR 08/07 A2996 RMK AO2 SLP149 T00830067,0,9,0,16090.0,0,0,0,
2026-04-27 06:51:00,METAR KUGN 270651Z AUTO 12007KT 10SM CLR 08/06 A2999 RMK AO2 SLP159 T00780061,0,7,0,16090.0,0,0,0,
2026-04-27 05:51:00,METAR KUGN 270551Z AUTO 08006KT 10SM CLR 06/05 A3000 RMK AO2 SLP162 T00610050 10089 20056 401280039 58016,0,6,0,16090.0,0,0,0,
2026-04-27 04:51:00,METAR KUGN 270451Z AUTO 07007KT 10SM CLR 06/05 A3001 RMK AO2 SLP167 T00610050,0,7,0,16090.0,0,0,0,
2026-04-27 03:51:00,METAR KUGN 270351Z AUTO 07007KT 8SM CLR 06/06 A3003 RMK AO2 SLP175 T00610056,0,7,0,12872.0,0,0,0,
2026-04-27 02:51:00,METAR KUGN 270251Z AUTO 04005KT 9SM CLR 06/05 A3005 RMK AO2 SLP180 T00560050 53010,0,5,0,14481.0,0,0,0,
2026-04-27 01:51:00,METAR KUGN 270151Z AUTO 05006KT 9SM CLR 06/05 A3003 RMK AO2 SLP175 T00610050,0,6,0,14481.0,0,0,0,
2026-04-27 00:51:00,METAR KUGN 270051Z 05007KT 10SM CLR 07/06 A3002 RMK AO2 SLP171 LAST T00720061,0,7,0,16090.0,0,0,0,
2026-04-26 23:51:00,METAR KUGN 262351Z 06009KT 10SM CLR 09/07 A3002 RMK AO2 SLP168 T00940067 10128 20089 58007,0,9,0,16090.0,0,0,0,
2026-04-26 22:51:00,METAR KUGN 262251Z 00000KT 10SM CLR 12/08 A3003 RMK AO2 SLP172 T01170078,0,0,0,16090.0,0,0,0,
2026-04-26 21:51:00,METAR KUGN 262151Z 08006KT 10SM CLR 12/07 A3002 RMK AO2 SLP170 T01170072,0,6,0,16090.0,0,0,0,
2026-04-26 20:51:00,METAR KUGN 262051Z 09009KT 10SM CLR 11/07 A3004 RMK AO2 SLP175 T01110072 58016,0,9,0,16090.0,0,0,0,
2026-04-26 20:06:00,SPECI KUGN 262006Z 06010KT 10SM FEW010 11/07 A3005 RMK AO2 T01110072,0,10,0,16090.0,0,0,0,
2026-04-26 19:51:00,METAR KUGN 261951Z COR 09008KT 10SM SCT010 11/07 A3006 RMK AO2 SLP185 T01060072,0,8,0,16090.0,0,0,0,
2026-04-26 19:48:00,SPECI KUGN 261948Z 06010KT 10SM BKN010 11/07 A3006 RMK AO2,0,10,0,16090.0,0,0,0,
2026-04-26 18:51:00,METAR KUGN 261851Z 07009KT 10SM OVC008 09/07 A3009 RMK AO2 SLP193 T00890067,0,9,0,16090.0,0,0,0,
2026-04-26 17:51:00,METAR KUGN 261751Z 07010KT 10SM OVC007 09/07 A3010 RMK AO2 SLP198 T00940067 10094 20067 58003,0,10,0,16090.0,0,0,0,
2026-04-26 16:51:00,METAR KUGN 261651Z 09008KT 10SM OVC007 08/07 A3011 RMK AO2 SLP202 T00830067,0,8,0,16090.0,0,0,0,
2026-04-26 15:51:00,METAR KUGN 261551Z 08008KT 10SM OVC005 08/07 A3011 RMK AO2 SLP202 T00830067,0,8,0,16090.0,0,0,0,
2026-04-26 15:17:00,SPECI KUGN 261517Z 08008KT 10SM OVC004 08/07 A3011 RMK AO2 T00830072,0,8,0,16090.0,0,0,0,
2026-04-26 14:51:00,METAR KUGN 261451Z 10007KT 10SM OVC005 08/07 A3011 RMK AO2 SLP201 T00780067 51009,0,7,0,16090.0,0,0,0,
2026-04-26 13:51:00,METAR KUGN 261351Z 07008KT 10SM OVC007 07/06 A3011 RMK AO2 SLP200 T00670056,0,8,0,16090.0,0,0,0,
2026-04-26 12:51:00,METAR KUGN 261251Z 07008KT 10SM OVC005 07/06 A3010 RMK AO2 CIG 004V008 SLP197 T00670061,0,8,0,16090.0,0,0,0,
2026-04-26 12:33:00,SPECI KUGN 261233Z 07005KT 9SM OVC005 07/07 A3009 RMK AO2 CIG 003V008 T00720067,0,5,0,14481.0,0,0,0,
2026-04-26 11:51:00,METAR KUGN 261151Z 04004KT 6SM BR OVC003 07/07 A3008 RMK AO2 SLP192 T00670067 10067 20039 53013,0,4,0,9654.0,0,0,1,BR
2026-04-26 11:27:00,SPECI KUGN 261127Z 01003KT 6SM BR BKN003 06/06 A3008 RMK AO2 T00560056,0,3,0,9654.0,0,0,1,BR
2026-04-26 10:51:00,METAR KUGN 261051Z 02006KT 10SM FEW004 06/06 A3007 RMK AO2 SLP186 T00560056,0,6,0,16090.0,0,0,0,
2026-04-26 10:32:00,SPECI KUGN 261032Z AUTO 03006KT 10SM FEW006 06/05 A3006 RMK AO2 T00560050,0,6,0,16090.0,0,0,0,
2026-04-26 09:51:00,METAR KUGN 260951Z AUTO 06005KT 10SM CLR 04/04 A3005 RMK AO2 SLP181 T00440039,0,5,0,16090.0,0,0,0,
2026-04-26 08:51:00,METAR KUGN 260851Z AUTO 03005KT 10SM CLR 05/04 A3004 RMK AO2 SLP178 T00500044 53006,0,5,0,16090.0,0,0,0,
2026-04-26 07:51:00,METAR KUGN 260751Z AUTO 07006KT 10SM CLR 05/04 A3001 RMK AO2 SLP167 T00500044,0,6,0,16090.0,0,0,0,
2026-04-26 06:51:00,METAR KUGN 260651Z AUTO 08006KT 10SM CLR 06/04 A3002 RMK AO2 SLP169 T00560044,0,6,0,16090.0,0,0,0,
2026-04-26 05:51:00,METAR KUGN 260551Z AUTO 06005KT 10SM CLR 06/04 A3002 RMK AO2 SLP171 T00610044 10078 20056 401060056 53000,0,5,0,16090.0,0,0,0,
2026-04-26 04:51:00,METAR KUGN 260451Z AUTO 04005KT 10SM CLR 07/05 A3001 RMK AO2 SLP167 T00670050,0,5,0,16090.0,0,0,0,
2026-04-26 03:51:00,METAR KUGN 260351Z AUTO 04007KT 10SM CLR 07/05 A3001 RMK AO2 SLP164 T00720050,0,7,0,16090.0,0,0,0,
2026-04-26 02:51:00,METAR KUGN 260251Z AUTO 00000KT 10SM CLR 07/04 A3002 RMK AO2 SLP172 T00670044 53004,0,0,0,16090.0,0,0,0,
2026-04-26 01:51:00,METAR KUGN 260151Z AUTO 36006KT 10SM CLR 08/04 A3002 RMK AO2 SLP169 T00780044,0,6,0,16090.0,0,0,0,
2026-04-26 00:51:00,METAR KUGN 260051Z COR 36009KT 10SM CLR 07/05 A3002 RMK AO2 SLP169 T00720050 LAST,0,9,0,16090.0,0,0,0,
2026-04-25 23:51:00,METAR KUGN 252351Z 03013G19KT 10SM CLR 08/05 A3001 RMK AO2 SLP168 T00830050 10106 20078 50004,0,13,1,16090.0,0,0,0,
2026-04-25 22:51:00,METAR KUGN 252251Z 05007KT 10SM CLR 08/06 A3002 RMK AO2 SLP171 T00830056,0,7,0,16090.0,0,0,0,
2026-04-25 21:51:00,METAR KUGN 252151Z 04009KT 10SM CLR 09/06 A3001 RMK AO2 SLP167 T00940061,0,9,0,16090.0,0,0,0,
2026-04-25 20:51:00,METAR KUGN 252051Z 03009KT 10SM CLR 09/06 A3000 RMK AO2 SLP163 T00890056 51000,0,9,0,16090.0,0,0,0,
2026-04-25 19:51:00,METAR KUGN 251951Z 06010KT 10SM CLR 09/06 A3000 RMK AO2 SLP163 T00890056,0,10,0,16090.0,0,0,0,
2026-04-25 18:51:00,METAR KUGN 251851Z 05008KT 10SM CLR 09/06 A3001 RMK AO2 SLP164 T00940061,0,8,0,16090.0,0,0,0,
2026-04-25 17:51:00,METAR KUGN 251751Z 05010KT 10SM CLR 11/06 A3000 RMK AO2 SLP162 T01060061 10106 20067 53004,0,10,0,16090.0,0,0,0,
2026-04-25 16:51:00,METAR KUGN 251651Z 04008KT 10SM CLR 10/06 A2999 RMK AO2 SLP157 T01000061,0,8,0,16090.0,0,0,0,
2026-04-25 15:51:00,METAR KUGN 251551Z 06009KT 10SM CLR 10/06 A2999 RMK AO2 SLP158 T01000061,0,9,0,16090.0,0,0,0,
2026-04-25 14:51:00,METAR KUGN 251451Z 01011G18KT 10SM SCT007 08/06 A2999 RMK AO2 SLP156 T00780056 50002,0,11,1,16090.0,0,0,0,
2026-04-25 13:51:00,METAR KUGN 251351Z 03012G20KT 10SM OVC009 07/05 A2999 RMK AO2 SLP156 T00670050,0,12,1,16090.0,0,0,0,
2026-04-25 12:51:00,METAR KUGN 251251Z 03009KT 10SM OVC008 07/06 A2999 RMK AO2 SLP152 T00720056,0,9,0,16090.0,0,0,0,
2026-04-25 11:51:00,METAR KUGN 251151Z 01005KT 10SM OVC007 07/06 A2998 RMK AO2 SLP150 T00720061 10083 20067 51025,0,5,0,16090.0,0,0,0,
2026-04-25 10:51:00,METAR KUGN 251051Z 01005KT 10SM OVC007 07/06 A2996 RMK AO2 SLP143 T00670061,0,5,0,16090.0,0,0,0,
2026-04-25 09:51:00,METAR KUGN 250951Z AUTO 03008KT 10SM OVC009 07/06 A2994 RMK AO2 SLP136 T00720056,0,8,0,16090.0,0,0,0,
2026-04-25 08:51:00,METAR KUGN 250851Z AUTO 01004KT 10SM OVC007 07/06 A2991 RMK AO2 SLP126 T00720061 53012,0,4,0,16090.0,0,0,0,
2026-04-25 07:51:00,METAR KUGN 250751Z AUTO 01011G16KT 10SM OVC008 07/06 A2989 RMK AO2 SLP120 T00720056,0,11,1,16090.0,0,0,0,
2026-04-25 06:51:00,METAR KUGN 250651Z AUTO 02010KT 10SM OVC009 08/05 A2987 RMK AO2 SLP113 T00830050,0,10,0,16090.0,0,0,0,
2026-04-25 05:51:00,METAR KUGN 250551Z AUTO 01005KT 10SM BKN009 07/05 A2987 RMK AO2 CIG 007V011 SLP113 T00720050 10206 20067 402170067 51014,0,5,0,16090.0,0,0,0,
2026-04-25 05:38:00,SPECI KUGN 250538Z AUTO 01007KT 10SM BKN009 07/05 A2987 RMK AO2 CIG 007V011 T00670050,0,7,0,16090.0,0,0,0,
2026-04-25 05:07:00,SPECI KUGN 250507Z AUTO 03010KT 10SM FEW007 07/05 A2987 RMK AO2 T00720050,0,10,0,16090.0,0,0,0,
2026-04-25 04:51:00,METAR KUGN 250451Z AUTO 02008KT 10SM CLR 07/06 A2986 RMK AO2 SLP110 T00720056,0,8,0,16090.0,0,0,0,
2026-04-25 03:51:00,METAR KUGN 250351Z AUTO 02011KT 10SM CLR 08/07 A2986 RMK AO2 SLP107 T00830067,0,11,0,16090.0,0,0,0,
2026-04-25 02:51:00,METAR KUGN 250251Z AUTO 03015G23KT 10SM CLR 13/11 A2983 RMK AO2 SLP096 T01280106 53028,0,15,1,16090.0,0,0,0,
2026-04-25 01:51:00,METAR KUGN 250151Z AUTO 34004KT 10SM CLR 16/11 A2980 RMK AO2 SLP084 T01610106,0,4,0,16090.0,0,0,0,
2026-04-25 00:51:00,METAR KUGN 250051Z COR 34007KT 10SM CLR 18/11 A2977 RMK AO2 SLP073 T01780106 LAST,0,7,0,16090.0,0,0,0,
2026-04-24 23:51:00,METAR KUGN 242351Z 31009G15KT 290V350 10SM CLR 21/11 A2974 RMK AO2 SLP064 T02060106 10211 20189 53012,0,9,1,16090.0,0,0,0,
2026-04-24 22:51:00,METAR KUGN 242251Z COR 29008G17KT 10SM SCT030 20/11 A2972 RMK AO2 SLP057 T02000111,0,8,1,16090.0,0,0,0,
2026-04-24 21:51:00,METAR KUGN 242151Z 29009KT 10SM CLR 20/12 A2971 RMK AO2 SLP052 T02000122,0,9,0,16090.0,0,0,0,
2026-04-24 20:51:00,METAR KUGN 242051Z 26008KT 10SM FEW029 BKN042 19/13 A2971 RMK AO2 SLP052 T01940128 50005,0,8,0,16090.0,0,0,0,
2026-04-24 19:51:00,METAR KUGN 241951Z 26008KT 10SM OVC037 19/13 A2972 RMK AO2 SLP055 T01890128,0,8,0,16090.0,0,0,0,
2026-04-24 18:51:00,METAR KUGN 241851Z 27007G15KT 10SM OVC032 19/13 A2970 RMK AO2 SLP050 T01890133,0,7,1,16090.0,0,0,0,
2026-04-24 17:51:00,METAR KUGN 241751Z COR 25010G25KT 10SM SCT027 21/14 A2969 RMK AO2 SLP046 T02060139 10217 20189 53010,0,10,1,16090.0,0,0,0,
2026-04-24 16:51:00,METAR KUGN 241651Z 29008G16KT 10SM BKN080 22/12 A2968 RMK AO2 SLP040 T02170122,0,8,1,16090.0,0,0,0,
2026-04-24 15:51:00,METAR KUGN 241551Z 30009G21KT 10SM SCT028 BKN100 21/13 A2967 RMK AO2 SLP037 T02060128,0,9,1,16090.0,0,0,0,
2026-04-24 14:51:00,METAR KUGN 241451Z 28015G25KT 10SM BKN028 19/13 A2966 RMK AO2 SLP035 T01940128 53019,0,15,1,16090.0,0,0,0,
2026-04-24 13:51:00,METAR KUGN 241351Z 25008KT 10SM BKN055 BKN120 21/16 A2964 RMK AO2 SLP027 T02060156,0,8,0,16090.0,0,0,0,
2026-04-24 12:51:00,METAR KUGN 241251Z 23007KT 10SM CLR 20/16 A2962 RMK AO2 PRESRR SLP021 T02000156,0,7,0,16090.0,0,0,0,
2026-04-24 11:51:00,METAR KUGN 241151Z 18006KT 10SM CLR 19/15 A2961 RMK AO2 SLP015 T01890150 10217 20183 58006,0,6,0,16090.0,0,0,0,
2026-04-24 10:51:00,METAR KUGN 241051Z 21007KT 10SM OVC070 19/15 A2961 RMK AO2 SLP018 T01890150,0,7,0,16090.0,0,0,0,
2026-04-24 09:51:00,METAR KUGN 240951Z AUTO 22011KT 10SM BKN037 19/14 A2962 RMK AO2 SLP020 T01940144,0,11,0,16090.0,0,0,0,
2026-04-24 08:51:00,METAR KUGN 240851Z AUTO 20013G19KT 10SM BKN044 OVC055 21/14 A2962 RMK AO2 SLP022 T02060144 56012,0,13,1,16090.0,0,0,0,
2026-04-24 07:51:00,METAR KUGN 240751Z AUTO 20015G23KT 10SM CLR 21/14 A2962 RMK AO2 SLP022 T02110139,0,15,1,16090.0,0,0,0,
2026-04-24 06:51:00,METAR KUGN 240651Z AUTO 19014KT 10SM CLR 21/13 A2964 RMK AO2 SLP027 T02110133,0,14,0,16090.0,0,0,0,
2026-04-24 05:51:00,METAR KUGN 240551Z AUTO 19015KT 10SM FEW090 22/13 A2966 RMK AO2 SLP034 T02170128 10256 20217 402670072 58014,0,15,0,16090.0,0,0,0,
2026-04-24 04:51:00,METAR KUGN 240451Z AUTO 18015KT 10SM OVC090 22/12 A2969 RMK AO2 LTG DSNT N AND NW SLP042 T02220122,0,15,0,16090.0,0,0,0,DS
2026-04-24 03:51:00,METAR KUGN 240351Z AUTO 19014G21KT 10SM FEW075 23/11 A2970 RMK AO2 SLP047 T02280111,0,14,1,16090.0,0,0,0,
2026-04-24 02:51:00,METAR KUGN 240251Z AUTO 19010KT 10SM CLR 23/11 A2970 RMK AO2 SLP048 T02280106 53008,0,10,0,16090.0,0,0,0,
2026-04-24 01:51:00,METAR KUGN 240151Z AUTO 17008KT 10SM CLR 23/11 A2969 RMK AO2 SLP043 T02330106,0,8,0,16090.0,0,0,0,
2026-04-24 00:51:00,METAR KUGN 240051Z COR 19009KT 10SM CLR 24/11 A2969 RMK AO2 SLP044 T02390106 LAST,0,9,0,16090.0,0,0,0,
2026-04-23 23:51:00,METAR KUGN 232351Z 19015G24KT 10SM CLR 26/12 A2968 RMK AO2 PK WND 19026/2304 SLP043 T02560117 10267 20217 56026,0,15,1,16090.0,0,0,0,
2026-04-23 22:51:00,METAR KUGN 232251Z 20012G30KT 10SM FEW065 26/12 A2971 RMK AO2 PK WND 18030/2242 SLP053 T02610117,0,12,1,16090.0,0,0,0,
2026-04-23 21:51:00,METAR KUGN 232151Z COR 19013G24KT 150V210 10SM CLR 27/12 A2972 RMK AO2 SLP058 T02670117,0,13,1,16090.0,0,0,0,
2026-04-23 20:51:00,METAR KUGN 232051Z 14007KT 10SM FEW060 23/13 A2975 RMK AO2 SLP071 T02280128 57033,0,7,0,16090.0,0,0,0,
2026-04-23 19:51:00,METAR KUGN 231951Z COR 14011KT 10SM FEW055 22/14 A2979 RMK AO2 SLP084 T02220144,0,11,0,16090.0,0,0,0,
2026-04-23 18:51:00,METAR KUGN 231851Z 15014G20KT 10SM SCT055 22/14 A2982 RMK AO2 SLP094 T02220144,0,14,1,16090.0,0,0,0,
2026-04-23 17:51:00,METAR KUGN 231751Z 14009KT 10SM CLR 22/14 A2985 RMK AO2 SLP106 T02170144 10228 20111 58011,0,9,0,16090.0,0,0,0,
2026-04-23 16:51:00,METAR KUGN 231651Z 14008KT 10SM FEW046 23/15 A2987 RMK AO2 SLP110 T02280150,0,8,0,16090.0,0,0,0,
2026-04-23 15:51:00,METAR KUGN 231551Z 14010KT 10SM FEW035 22/14 A2988 RMK AO2 SLP114 T02170144,0,10,0,16090.0,0,0,0,
2026-04-23 14:51:00,METAR KUGN 231451Z 19008KT 10SM CLR 22/15 A2989 RMK AO2 SLP118 T02170150 58008,0,8,0,16090.0,0,0,0,
2026-04-23 13:51:00,METAR KUGN 231351Z 21007KT 10SM CLR 19/14 A2990 RMK AO2 SLP125 T01890139,0,7,0,16090.0,0,0,0,
2026-04-23 12:51:00,METAR KUGN 231251Z 20005KT 10SM CLR 16/13 A2991 RMK AO2 SLP125 T01610128,0,5,0,16090.0,0,0,0,
2026-04-23 11:51:00,METAR KUGN 231151Z 23003KT 8SM CLR 11/09 A2991 RMK AO2 SLP129 T01110089 10111 20072 53003,0,3,0,12872.0,0,0,0,
2026-04-23 10:51:00,METAR KUGN 231051Z 24004KT 10SM CLR 11/08 A2989 RMK AO2 SLP123 T01060078,0,4,0,16090.0,0,0,0,
2026-04-23 09:51:00,METAR KUGN 230951Z AUTO 24005KT 10SM CLR 09/06 A2989 RMK AO2 SLP122 T00940061,0,5,0,16090.0,0,0,0,
2026-04-23 08:51:00,METAR KUGN 230851Z AUTO 24004KT 10SM CLR 09/05 A2990 RMK AO2 SLP123 T00940050 56014,0,4,0,16090.0,0,0,0,
2026-04-23 07:51:00,METAR KUGN 230751Z AUTO 24004KT 10SM CLR 08/04 A2991 RMK AO2 SLP127 T00830039,0,4,0,16090.0,0,0,0,
2026-04-23 06:51:00,METAR KUGN 230651Z AUTO 24005KT 10SM CLR 08/03 A2993 RMK AO2 SLP135 T00830033,0,5,0,16090.0,0,0,0,
2026-04-23 05:51:00,METAR KUGN 230551Z AUTO 00000KT 10SM CLR 08/02 A2994 RMK AO2 SLP139 T00780017 10117 20061 401830061 56001,0,0,0,16090.0,0,0,0,
2026-04-23 04:51:00,METAR KUGN 230451Z AUTO 00000KT 10SM CLR 07/01 A2994 RMK AO2 SLP138 T00720011,0,0,0,16090.0,0,0,0,
2026-04-23 03:51:00,METAR KUGN 230351Z AUTO 00000KT 10SM CLR 07/01 A2995 RMK AO2 SLP141 T00670006,0,0,0,16090.0,0,0,0,
2026-04-23 02:51:00,METAR KUGN 230251Z AUTO 07003KT 10SM CLR 07/01 A2995 RMK AO2 SLP142 T00720011 56001,0,3,0,16090.0,0,0,0,
2026-04-23 01:51:00,METAR KUGN 230151Z AUTO 06003KT 10SM CLR 08/M01 A2995 RMK AO2 SLP144 T00781006,0,3,0,16090.0,0,0,0,
2026-04-23 00:51:00,METAR KUGN 230051Z COR 06006KT 10SM CLR 09/M01 A2994 RMK LAST AO2 SLP141 T00941011,0,6,0,16090.0,0,0,0,
2026-04-22 23:51:00,METAR KUGN 222351Z 02007KT 10SM CLR 12/M03 A2995 RMK AO2 SLP144 T01171033 10183 20117 56001,0,7,0,16090.0,0,0,0,
2026-04-22 22:51:00,METAR KUGN 222251Z 06009KT 10SM CLR 13/M05 A2995 RMK AO2 SLP143 T01331050,0,9,0,16090.0,0,0,0,
2026-04-22 21:51:00,METAR KUGN 222151Z 04008KT 10SM CLR 15/04 A2995 RMK AO2 SLP139 T01500044,0,8,0,16090.0,0,0,0,
2026-04-22 20:51:00,METAR KUGN 222051Z 05007KT 10SM CLR 18/10 A2996 RMK AO2 SLP139 T01780100 58005,0,7,0,16090.0,0,0,0,
2026-04-22 19:51:00,METAR KUGN 221951Z 04007KT 10SM CLR 17/09 A2997 RMK AO2 SLP145 T01720094,0,7,0,16090.0,0,0,0,
2026-04-22 18:51:00,METAR KUGN 221851Z 07008KT 10SM CLR 16/09 A2997 RMK AO2 SLP146 T01610089,0,8,0,16090.0,0,0,0,
2026-04-22 17:51:00,METAR KUGN 221751Z 06006KT 10SM CLR 17/09 A2997 RMK AO2 SLP146 T01670094 10183 20089 50004,0,6,0,16090.0,0,0,0,
2026-04-22 16:51:00,METAR KUGN 221651Z 05006KT 10SM CLR 18/11 A2997 RMK AO2 SLP145 T01780106,0,6,0,16090.0,0,0,0,
2026-04-22 15:51:00,METAR KUGN 221551Z VRB05KT 10SM CLR 17/11 A2996 RMK AO2 SLP144 T01670111,0,5,0,16090.0,0,0,0,
2026-04-22 14:51:00,METAR KUGN 221451Z 36008KT 10SM CLR 14/10 A2996 RMK AO2 SLP142 T01440100 51010,0,8,0,16090.0,0,0,0,
2026-04-22 13:51:00,METAR KUGN 221351Z 35008KT 10SM CLR 13/08 A2995 RMK AO2 SLP140 T01280083,0,8,0,16090.0,0,0,0,
2026-04-22 12:51:00,METAR KUGN 221251Z 01005KT 10SM CLR 11/08 A2994 RMK AO2 SLP134 T01110083,0,5,0,16090.0,0,0,0,
2026-04-22 11:51:00,METAR KUGN 221151Z 36004KT 10SM CLR 09/07 A2993 RMK AO2 SLP130 70002 T00890072 10161 20083 53021,0,4,0,16090.0,0,0,0,
2026-04-22 10:51:00,METAR KUGN 221051Z 06004KT 10SM CLR 09/07 A2990 RMK AO2 SLP121 T00890072,0,4,0,16090.0,0,0,0,
2026-04-22 09:51:00,METAR KUGN 220951Z AUTO 04006KT 10SM FEW100 11/09 A2988 RMK AO2 SLP114 T01110089,0,6,0,16090.0,0,0,0,
2026-04-22 08:51:00,METAR KUGN 220851Z AUTO 25006KT 10SM CLR 14/11 A2986 RMK AO2 SLP106 T01440111 58000,0,6,0,16090.0,0,0,0,
2026-04-22 07:51:00,METAR KUGN 220751Z AUTO 25006KT 10SM BKN100 14/11 A2986 RMK AO2 SLP108 T01440106,0,6,0,16090.0,0,0,0,
2026-04-22 06:51:00,METAR KUGN 220651Z AUTO 25006KT 10SM CLR 14/11 A2987 RMK AO2 SLP109 T01390106,0,6,0,16090.0,0,0,0,
2026-04-22 05:51:00,METAR KUGN 220551Z AUTO 24006KT 10SM CLR 14/11 A2986 RMK AO2 SLP108 T01440106 10228 20117 402390089 58004,0,6,0,16090.0,0,0,0,
2026-04-22 04:51:00,METAR KUGN 220451Z AUTO 25005KT 10SM CLR 14/11 A2987 RMK AO2 SLP108 T01440106,0,5,0,16090.0,0,0,0,
2026-04-22 03:51:00,METAR KUGN 220351Z AUTO 25005KT 10SM CLR 12/10 A2988 RMK AO2 SLP114 T01170100,0,5,0,16090.0,0,0,0,
2026-04-22 02:51:00,METAR KUGN 220251Z AUTO 24003KT 10SM CLR 13/11 A2988 RMK AO2 SLP114 T01280106 51011,0,3,0,16090.0,0,0,0,
2026-04-22 01:51:00,METAR KUGN 220151Z AUTO 00000KT 10SM CLR 14/11 A2987 RMK AO2 SLP112 T01440111,0,0,0,16090.0,0,0,0,
2026-04-22 00:51:00,METAR KUGN 220051Z 00000KT 10SM CLR 19/11 A2986 RMK AO2 SLP106 LAST T01940111,0,0,0,16090.0,0,0,0,
2026-04-21 23:51:00,METAR KUGN 212351Z 28005KT 10SM CLR 23/11 A2984 RMK AO2 SLP101 60002 T02280106 10239 20161 53003,0,5,0,16090.0,0,0,0,
2026-04-21 22:51:00,METAR KUGN 212251Z 25011KT 10SM CLR 23/11 A2984 RMK AO2 SLP100 T02330106,0,11,0,16090.0,0,0,0,
2026-04-21 21:51:00,METAR KUGN 212151Z 25010G20KT 10SM FEW055 23/11 A2983 RMK AO2 SLP095 T02330111,0,10,1,16090.0,0,0,0,
2026-04-21 20:51:00,METAR KUGN 212051Z 25013G20KT 10SM CLR 22/11 A2984 RMK AO2 SLP099 60002 T02220106 58011,0,13,1,16090.0,0,0,0,
2026-04-21 19:51:00,METAR KUGN 211951Z COR 00000KT 10SM SCT095 19/11 A2986 RMK AO2 LTG DSNT E-S RAE32 TSE34 SLP108 P0002 T01890111,0,0,0,16090.0,1,0,0,DS
2026-04-21 19:40:00,SPECI KUGN 211940Z COR 00000KT 10SM FEW050 BKN095 18/12 A2986 RMK AO2 LTG DSNT E-S RAE32 TSE34 P0002 T01830122,0,0,0,16090.0,1,0,0,DS
2026-04-21 18:51:00,METAR KUGN 211851Z COR 29004KT 10SM -TSRA OVC050 18/10 A2987 RMK AO2 LTG DSNT NE AND E RAB44 TSB22E37B41 SLP113 TS VC P0000 T01830100,0,4,0,16090.0,1,0,0,"DS,RA,TS,VC"
2026-04-21 18:28:00,SPECI KUGN 211828Z 29005KT 10SM TS BKN050 19/09 A2987 RMK AO2 LTG DSNT W-NE TSB22 CON LGT ICCG TS NW MOV E T01890089,0,5,0,16090.0,1,0,0,"DS,TS"
2026-04-21 17:51:00,METAR KUGN 211751Z COR 23008KT 10SM OVC100 19/09 A2987 RMK AO2 LTG DSNT W-N SLP112 TS VC T01890094 10211 20111 58008,0,8,0,16090.0,1,0,0,"DS,TS,VC"
2026-04-21 16:51:00,METAR KUGN 211651Z 25016G22KT 10SM CLR 21/09 A2988 RMK AO2 PK WND 23028/1602 SLP114 T02110094,0,16,1,16090.0,0,0,0,
2026-04-21 15:51:00,METAR KUGN 211551Z 23017G27KT 10SM CLR 19/08 A2988 RMK AO2 PK WND 23028/1533 SLP118 T01890083,0,17,1,16090.0,0,0,0,
2026-04-21 15:20:00,SPECI KUGN 211520Z 23018G28KT 10SM CLR 17/07 A2989 RMK AO2 PK WND 24028/1512 T01720072,0,18,1,16090.0,0,0,0,
2026-04-21 14:51:00,METAR KUGN 211451Z 24016G26KT 10SM CLR 17/07 A2989 RMK AO2 PK WND 24029/1433 SLP122 T01670067 56020,0,16,1,16090.0,0,0,0,
2026-04-21 13:51:00,METAR KUGN 211351Z 23017G26KT 10SM CLR 16/06 A2991 RMK AO2 PK WND 22026/1351 SLP128 T01560061,0,17,1,16090.0,0,0,0,
2026-04-21 12:51:00,METAR KUGN 211251Z 23016KT 10SM CLR 13/05 A2993 RMK AO2 SLP137 T01330050,0,16,0,16090.0,0,0,0,
2026-04-21 11:51:00,METAR KUGN 211151Z 23012KT 10SM CLR 11/04 A2995 RMK AO2 SLP145 T01110039 10111 20089 56018,0,12,0,16090.0,0,0,0,
2026-04-21 10:51:00,METAR KUGN 211051Z 21014KT 10SM CLR 10/02 A2996 RMK AO2 SLP149 T01000022,0,14,0,16090.0,0,0,0,
2026-04-21 09:51:00,METAR KUGN 210951Z AUTO 21011KT 10SM CLR 11/01 A2999 RMK AO2 SLP157 T01060011,0,11,0,16090.0,0,0,0,
2026-04-21 08:51:00,METAR KUGN 210851Z AUTO 20010KT 10SM CLR 11/01 A3001 RMK AO2 SLP163 T01060006 58023,0,10,0,16090.0,0,0,0,
2026-04-21 07:51:00,METAR KUGN 210751Z AUTO 19008KT 10SM CLR 10/M01 A3003 RMK AO2 SLP171 T01001006,0,8,0,16090.0,0,0,0,
2026-04-21 06:51:00,METAR KUGN 210651Z AUTO 19009KT 10SM CLR 09/M01 A3005 RMK AO2 SLP180 T00941011,0,9,0,16090.0,0,0,0,
2026-04-21 05:51:00,METAR KUGN 210551Z AUTO 19009KT 10SM CLR 09/M02 A3007 RMK AO2 SLP188 T00891017 10089 20061 400891022 56016,0,9,0,16090.0,0,0,0,
2026-04-21 04:51:00,METAR KUGN 210451Z AUTO 17006KT 10SM CLR 08/01 A3008 RMK AO2 SLP191 T00830011,0,6,0,16090.0,0,0,0,
2026-04-21 03:51:00,METAR KUGN 210351Z AUTO 14005KT 10SM CLR 07/03 A3010 RMK AO2 SLP199 T00720033,0,5,0,16090.0,0,0,0,
2026-04-21 02:51:00,METAR KUGN 210251Z AUTO 16005KT 10SM CLR 07/03 A3012 RMK AO2 SLP206 T00720028 56011,0,5,0,16090.0,0,0,0,
2026-04-21 01:51:00,METAR KUGN 210151Z AUTO 16005KT 10SM CLR 07/02 A3013 RMK AO2 SLP207 T00720017,0,5,0,16090.0,0,0,0,
2026-04-21 00:51:00,METAR KUGN 210051Z 15009KT 10SM CLR 07/M01 A3013 RMK AO2 SLP211 T00671006,0,9,0,16090.0,0,0,0,
2026-04-20 23:51:00,METAR KUGN 202351Z 14011KT 10SM CLR 06/M02 A3016 RMK AO2 SLP221 T00611022 10083 20061 58033,0,11,0,16090.0,0,0,0,
2026-04-20 22:51:00,METAR KUGN 202251Z 13011KT 10SM CLR 07/M03 A3021 RMK AO2 SLP238 T00671033,0,11,0,16090.0,0,0,0,
2026-04-20 21:51:00,METAR KUGN 202151Z 12012KT 10SM CLR 07/M04 A3023 RMK AO2 SLP247 T00671044,0,12,0,16090.0,0,0,0,
2026-04-20 21:21:00,SPECI KUGN 202121Z COR 14010KT 10SM CLR 07/M05 A3025 RMK AO2 T00671050,0,10,0,16090.0,0,0,0,
2026-04-20 20:51:00,METAR KUGN 202051Z COR 14012KT 10SM CLR 07/M04 A3026 RMK AO2 SLP256 T00721044 58021,0,12,0,16090.0,0,0,0,
2026-04-20 19:51:00,METAR KUGN 201951Z 14013G20KT 10SM CLR 08/M06 A3028 RMK AO2 SLP264 T00781056,0,13,1,16090.0,0,0,0,
2026-04-20 18:51:00,METAR KUGN 201851Z COR 14013KT 10SM CLR 08/M02 A3030 RMK AO2 SLP270 T00781022,0,13,0,16090.0,0,0,0,
2026-04-20 18:14:00,SPECI KUGN 201814Z COR 14010KT 10SM CLR 07/M01 A3032 RMK AO2 T00721011,0,10,0,16090.0,0,0,0,
2026-04-20 17:51:00,METAR KUGN 201751Z 12012KT 10SM CLR 07/M01 A3032 RMK AO2 SLP277 T00721006 10072 20006 58012,0,12,0,16090.0,0,0,0,
2026-04-20 16:51:00,METAR KUGN 201651Z 14008KT 10SM FEW050 07/00 A3034 RMK AO2 SLP284 T00670000,0,8,0,16090.0,0,0,0,
2026-04-20 15:51:00,METAR KUGN 201551Z COR 14008KT 10SM CLR 06/00 A3035 RMK AO2 SLP288 T00560000,0,8,0,16090.0,0,0,0,
2026-04-20 14:51:00,METAR KUGN 201451Z 16009G15KT 10SM CLR 05/M01 A3036 RMK AO2 SLP289 T00501011 50007,0,9,1,16090.0,0,0,0,
2026-04-20 13:51:00,METAR KUGN 201351Z 13005KT 10SM CLR 04/M02 A3036 RMK AO2 SLP291 T00441017,0,5,0,16090.0,0,0,0,
2026-04-20 12:51:00,METAR KUGN 201251Z 13006KT 10SM CLR 03/M01 A3036 RMK AO2 SLP289 T00331006,0,6,0,16090.0,0,0,0,
2026-04-20 11:51:00,METAR KUGN 201151Z 10003KT 10SM CLR 01/M01 A3034 RMK AO2 SLP283 I6000 T00061011 10006 21022 53016,0,3,0,16090.0,0,0,0,
2026-04-20 10:51:00,METAR KUGN 201051Z 00000KT 10SM CLR M02/M02 A3032 RMK AO2 SLP279 I1000 T10171017,0,0,0,16090.0,0,0,0,
2026-04-20 09:51:00,METAR KUGN 200951Z AUTO 09003KT 10SM CLR M01/M02 A3030 RMK AO2 SLP271 I1000 T10111017,0,3,0,16090.0,0,0,0,
2026-04-20 08:51:00,METAR KUGN 200851Z AUTO 07003KT 10SM CLR M02/M02 A3029 RMK AO2 SLP268 T10171017 53011,0,3,0,16090.0,0,0,0,
2026-04-20 07:51:00,METAR KUGN 200751Z AUTO 00000KT 10SM CLR M01/M02 A3027 RMK AO2 SLP261 T10111022,0,0,0,16090.0,0,0,0,
2026-04-20 06:51:00,METAR KUGN 200651Z AUTO 00000KT 10SM CLR M01/M02 A3027 RMK AO2 SLP256 T10061022,0,0,0,16090.0,0,0,0,
2026-04-20 05:51:00,METAR KUGN 200551Z AUTO 00000KT 10SM CLR M01/M02 A3026 RMK AO2 SLP255 T10111017 10050 21011 401001011 51007,0,0,0,16090.0,0,0,0,
2026-04-20 04:51:00,METAR KUGN 200451Z AUTO 00000KT 10SM CLR M01/M02 A3025 RMK AO2 SLP253 T10061017,0,0,0,16090.0,0,0,0,
2026-04-20 03:51:00,METAR KUGN 200351Z AUTO 00000KT 10SM CLR 00/M01 A3024 RMK AO2 SLP249 T00001011,0,0,0,16090.0,0,0,0,
2026-04-20 02:51:00,METAR KUGN 200251Z AUTO 00000KT 10SM CLR 01/M01 A3023 RMK AO2 SLP246 T00111011 53025,0,0,0,16090.0,0,0,0,
2026-04-20 01:51:00,METAR KUGN 200151Z AUTO 10003KT 10SM BKN090 03/M01 A3020 RMK AO2 SLP235 T00331011,0,3,0,16090.0,0,0,0,
2026-04-20 00:51:00,METAR KUGN 200051Z 11003KT 10SM BKN090 04/M02 A3017 RMK AO2 SLP225 LAST T00391017,0,3,0,16090.0,0,0,0,
2026-04-19 23:51:00,METAR KUGN 192351Z 10003KT 10SM OVC090 05/M02 A3016 RMK AO2 SLP221 60000 T00501017 10100 20050 53007,0,3,0,16090.0,0,0,0,
2026-04-19 22:51:00,METAR KUGN 192251Z 13005KT 10SM BKN080 OVC095 05/M02 A3015 RMK AO2 SLP219 T00501017,0,5,0,16090.0,0,0,0,
2026-04-19 21:51:00,METAR KUGN 192151Z 11005KT 10SM BKN075 OVC090 06/M02 A3014 RMK AO2 SLP214 T00561017,0,5,0,16090.0,0,0,0,
2026-04-19 20:51:00,METAR KUGN 192051Z 13006KT 10SM BKN060 BKN080 OVC090 05/M01 A3013 RMK AO2 SLP214 60000 T00501011 53012,0,6,0,16090.0,0,0,0,
2026-04-19 19:51:00,METAR KUGN 191951Z 08012KT 10SM SCT055 BKN080 BKN100 05/M01 A3012 RMK AO2 RAB15E24 SLP207 P0000 T00501011,0,12,0,16090.0,0,0,0,RA
2026-04-19 19:38:00,SPECI KUGN 191938Z 05011G19KT 10SM BKN055 BKN070 07/M02 A3012 RMK AO2 RAB15E24 P0000 T00721022,0,11,1,16090.0,0,0,0,RA
2026-04-19 18:51:00,METAR KUGN 191851Z 32009G20KT 290V350 10SM FEW055 BKN075 BKN090 10/M03 A3010 RMK AO2 SLP197 T01001028,0,9,1,16090.0,0,0,0,
2026-04-19 17:51:00,METAR KUGN 191751Z 25014G21KT 10SM SCT060 BKN100 08/M02 A3010 RMK AO2 SLP198 T00831017 10089 20022 53006,0,14,1,16090.0,0,0,0,
2026-04-19 17:35:00,SPECI KUGN 191735Z 24013G22KT 10SM FEW065 SCT080 BKN100 07/M02 A3010 RMK AO2 T00671022,0,13,1,16090.0,0,0,0,
2026-04-19 17:02:00,SPECI KUGN 191702Z 27015G23KT 10SM BKN023 OVC070 07/M04 A3009 RMK AO2 T00721039,0,15,1,16090.0,0,0,0,
2026-04-19 16:51:00,METAR KUGN 191651Z COR 29011G19KT 10SM BKN021 BKN060 08/M04 A3009 RMK AO2 PK WND 25026/1622 SLP194 T00781044,0,11,1,16090.0,0,0,0,
2026-04-19 15:51:00,METAR KUGN 191551Z 29012G24KT 10SM CLR 08/M06 A3008 RMK AO2 SLP191 T00831056,0,12,1,16090.0,0,0,0,
2026-04-19 14:51:00,METAR KUGN 191451Z COR 26010G20KT 10SM SCT080 08/M05 A3008 RMK AO2 SLP191 T00781050 51002,0,10,1,16090.0,0,0,0,
2026-04-19 13:51:00,METAR KUGN 191351Z 27006KT 10SM OVC090 07/M04 A3008 RMK AO2 SLP191 T00721044,0,6,0,16090.0,0,0,0,
2026-04-19 12:51:00,METAR KUGN 191251Z 25006KT 10SM FEW100 05/M03 A3008 RMK AO2 SLP192 T00501028,0,6,0,16090.0,0,0,0,
2026-04-19 11:51:00,METAR KUGN 191151Z 24006KT 10SM CLR 02/M03 A3007 RMK AO2 SLP191 T00221028 10044 20000 53005,0,6,0,16090.0,0,0,0,
2026-04-19 10:51:00,METAR KUGN 191051Z 24005KT 10SM CLR 01/M03 A3006 RMK AO2 SLP187 T00061033,0,5,0,16090.0,0,0,0,
2026-04-19 09:51:00,METAR KUGN 190951Z AUTO 24007KT 10SM CLR 02/M03 A3006 RMK AO2 SLP187 T00171028,0,7,0,16090.0,0,0,0,
2026-04-19 08:51:00,METAR KUGN 190851Z AUTO 24006KT 10SM CLR 01/M03 A3006 RMK AO2 SLP185 T00061028 53004,0,6,0,16090.0,0,0,0,
2026-04-19 07:51:00,METAR KUGN 190751Z AUTO 24007KT 10SM CLR 02/M04 A3005 RMK AO2 SLP182 T00221039,0,7,0,16090.0,0,0,0,
2026-04-19 06:51:00,METAR KUGN 190651Z AUTO 25005KT 10SM CLR 03/M04 A3005 RMK AO2 SLP180 T00281039,0,5,0,16090.0,0,0,0,
2026-04-19 05:51:00,METAR KUGN 190551Z AUTO 27005KT 10SM CLR 04/M04 A3005 RMK AO2 SLP180 T00441044 10067 20039 401670039 51006,0,5,0,16090.0,0,0,0,
2026-04-19 04:51:00,METAR KUGN 190451Z AUTO 26005KT 10SM CLR 04/M04 A3005 RMK AO2 SLP180 T00441039,0,5,0,16090.0,0,0,0,
2026-04-19 03:51:00,METAR KUGN 190351Z AUTO 28005KT 10SM CLR 05/M03 A3004 RMK AO2 SLP179 T00501033,0,5,0,16090.0,0,0,0,
2026-04-19 02:51:00,METAR KUGN 190251Z AUTO 28007KT 10SM CLR 06/M04 A3003 RMK AO2 SLP175 T00561039 53023,0,7,0,16090.0,0,0,0,
2026-04-19 01:51:00,METAR KUGN 190151Z AUTO 28009G19KT 10SM CLR 06/M04 A3001 RMK AO2 SLP167 T00561044,0,9,1,16090.0,0,0,0,
2026-04-19 00:51:00,METAR KUGN 190051Z COR 28012G25KT 10SM CLR 06/M05 A2998 RMK AO2 PK WND 28030/0037 SLP158 T00611050 LAST,0,12,1,16090.0,0,0,0,
2026-04-18 23:51:00,METAR KUGN 182351Z 28013G26KT 10SM CLR 07/M04 A2996 RMK AO2 PK WND 30032/2322 SLP149 T00671044 10100 20067 51026,0,13,1,16090.0,0,0,0,
2026-04-18 22:51:00,METAR KUGN 182251Z 28013G29KT 10SM FEW048 08/M03 A2994 RMK AO2 PK WND 31032/2209 SLP141 T00781033,0,13,1,16090.0,0,0,0,
2026-04-18 21:51:00,METAR KUGN 182151Z 28014G29KT 10SM SCT046 08/M02 A2991 RMK AO2 PK WND 27031/2113 SLP131 T00831022,0,14,1,16090.0,0,0,0,
2026-04-18 20:51:00,METAR KUGN 182051Z 26019G32KT 10SM SCT049 09/M02 A2988 RMK AO2 PK WND 23032/2022 SLP119 T00891022 51005,0,19,1,16090.0,0,0,0,
2026-04-18 19:51:00,METAR KUGN 181951Z 26011G21KT 10SM BKN049 09/M01 A2988 RMK AO2 PK WND 24029/1914 SLP116 T00891011,0,11,1,16090.0,0,0,0,
2026-04-18 18:51:00,METAR KUGN 181851Z 28011G23KT 10SM BKN041 09/M01 A2988 RMK AO2 PK WND 26027/1818 SLP116 T00891006,0,11,1,16090.0,0,0,0,
2026-04-18 17:51:00,METAR KUGN 181751Z 27013G22KT 10SM BKN033 08/01 A2986 RMK AO2 SLP113 T00780006 10078 20067 51023,0,13,1,16090.0,0,0,0,
2026-04-18 16:51:00,METAR KUGN 181651Z 27013G24KT 10SM BKN031 07/M01 A2985 RMK AO2 SLP108 T00721006,0,13,1,16090.0,0,0,0,
2026-04-18 15:51:00,METAR KUGN 181551Z 29011G23KT 260V330 10SM BKN029 08/01 A2983 RMK AO2 SLP100 T00780006,0,11,1,16090.0,0,0,0,
2026-04-18 14:51:00,METAR KUGN 181451Z 27010G19KT 10SM BKN025 07/02 A2980 RMK AO2 SLP090 T00670017 53026,0,10,1,16090.0,0,0,0,
2026-04-18 13:51:00,METAR KUGN 181351Z 29008G25KT 250V320 10SM SCT023 07/02 A2977 RMK AO2 PK WND 29027/1256 SLP082 T00670017,0,8,1,16090.0,0,0,0,
2026-04-18 12:51:00,METAR KUGN 181251Z 28014G23KT 10SM BKN023 07/02 A2974 RMK AO2 SLP066 T00720022,0,14,1,16090.0,0,0,0,
2026-04-18 11:51:00,METAR KUGN 181151Z 29010G20KT 10SM SCT023 BKN028 07/03 A2972 RMK AO2 SLP060 60001 70167 T00720028 10167 20072 53027,0,10,1,16090.0,0,0,0,
2026-04-18 10:51:00,METAR KUGN 181051Z 29009G20KT 10SM OVC014 08/06 A2967 RMK AO2 SLP043 T00830061,0,9,1,16090.0,0,0,0,
2026-04-18 09:51:00,METAR KUGN 180951Z AUTO 29012G22KT 10SM OVC010 11/08 A2964 RMK AO2 SLP033 T01060083,0,12,1,16090.0,0,0,0,
2026-04-18 09:47:00,SPECI KUGN 180947Z AUTO 29013G22KT 10SM OVC010 11/08 A2964 RMK AO2,0,13,1,16090.0,0,0,0,
2026-04-18 08:51:00,METAR KUGN 180851Z AUTO 27011KT 10SM OVC008 13/12 A2960 RMK AO2 SLP017 60001 T01330122 53006,0,11,0,16090.0,0,0,0,
2026-04-18 08:41:00,SPECI KUGN 180841Z AUTO 26010G17KT 10SM OVC008 14/13 A2959 RMK AO2 CIG 007V010 T01390128,0,10,1,16090.0,0,0,0,
2026-04-18 07:51:00,METAR KUGN 180751Z AUTO 23013G21KT 10SM BKN014 BKN020 OVC025 17/15 A2956 RMK AO2 RAE03 SLP002 P0000 T01670150,0,13,1,16090.0,0,0,0,
2026-04-18 07:36:00,SPECI KUGN 180736Z AUTO 22011KT 10SM BKN016 16/16 A2956 RMK AO2 RAE03 P0000 T01610156,0,11,0,16090.0,0,0,0,
2026-04-18 06:51:00,METAR KUGN 180651Z AUTO 22014KT 10SM -RA SCT017 BKN090 OVC110 17/16 A2957 RMK AO2 RAB10 SLP006 P0001 T01670156,0,14,0,16090.0,0,0,0,-RA
2026-04-18 06:48:00,SPECI KUGN 180648Z AUTO 22014KT 10SM -RA SCT017 BKN090 OVC110 17/16 A2958 RMK AO2 RAB10 P0000,0,14,0,16090.0,0,0,0,-RA
2026-04-18 06:07:00,SPECI KUGN 180607Z AUTO 22013KT 10SM BKN019 17/16 A2959 RMK AO2 T01670156,0,13,0,16090.0,0,0,0,
2026-04-18 05:51:00,METAR KUGN 180551Z AUTO 22011KT 10SM CLR 17/15 A2960 RMK AO2 RAE10 SLP016 P0001 60166 T01670150 10250 20150 402500061 55008,0,11,0,16090.0,0,0,0,
2026-04-18 05:42:00,SPECI KUGN 180542Z AUTO 22011KT 10SM FEW015 16/15 A2960 RMK AO2 RAE10 P0001 T01610150,0,11,0,16090.0,0,0,0,
2026-04-18 05:34:00,SPECI KUGN 180534Z AUTO 21009KT 10SM BKN015 16/15 A2960 RMK AO2 RAE10 P0001 T01610150,0,9,0,16090.0,0,0,0,
2026-04-18 05:17:00,SPECI KUGN 180517Z AUTO 22006KT 10SM BKN014 BKN100 16/16 A2960 RMK AO2 RAE10 P0001 T01610156,0,6,0,16090.0,0,0,0,
2026-04-18 04:51:00,METAR KUGN 180451Z AUTO 15007KT 10SM -RA FEW020 FEW048 OVC100 16/15 A2956 RMK AO2 LTG DSNT NE TSB19E34 SLP005 P0016 T01560150,0,7,0,16090.0,1,0,0,"-RA,DS,TS"
2026-04-18 04:40:00,SPECI KUGN 180440Z AUTO 16007KT 9SM VCTS -RA FEW018 BKN070 OVC110 16/16 A2958 RMK AO2 LTG DSNT NE TSB19E34 PRESFR P0016 T01610156,0,7,0,14481.0,1,0,0,"-RA,DS,TS,VC"
2026-04-18 04:25:00,SPECI KUGN 180425Z AUTO 19006KT 5SM TSRA BR FEW018 BKN075 OVC095 16/16 A2962 RMK AO2 LTG DSNT ALQDS TSB19 P0012 T01560156,0,6,0,8045.0,1,0,1,"BR,DS,RA,TS"
2026-04-18 04:02:00,SPECI KUGN 180402Z AUTO 13003KT 6SM RA BR SCT016 SCT050 OVC090 15/15 A2964 RMK AO2 LTG DSNT ALQDS P0004 T01500150,0,3,0,9654.0,0,0,1,"BR,DS,RA"
2026-04-18 03:51:00,METAR KUGN 180351Z AUTO 13006KT 4SM VCTS RA BR BKN016 BKN047 OVC090 15/15 A2963 RMK AO2 LTG DSNT ALQDS TSE28 SLP032 P0040 T01500150,0,6,0,6436.0,1,0,1,"BR,DS,RA,TS,VC"
2026-04-18 03:46:00,SPECI KUGN 180346Z AUTO 14005KT 4SM RA BR BKN014 BKN021 OVC046 16/16 A2963 RMK AO2 LTG DSNT N-SE TSE28 P0039,0,5,0,6436.0,1,0,1,"BR,DS,RA"
2026-04-18 03:28:00,SPECI KUGN 180328Z AUTO 09006KT 4SM VCTS RA BR SCT008 BKN017 OVC036 16/16 A2964 RMK AO2 LTG DSNT ALQDS TSE28 P0034 T01610161,0,6,0,6436.0,1,0,1,"BR,DS,RA,TS,VC"
2026-04-18 03:25:00,SPECI KUGN 180325Z AUTO 10005KT 4SM TSRA BR SCT011 BKN023 OVC033 16/16 A2964 RMK AO2 LTG DSNT ALQDS P0033 T01610161,0,5,0,6436.0,1,0,1,"BR,DS,RA,TS"
2026-04-18 03:15:00,SPECI KUGN 180315Z AUTO 08005KT 3SM +TSRA BR FEW005 BKN039 OVC070 16/16 A2965 RMK AO2 LTG DSNT ALQDS P0028 T01610161,0,5,0,4827.0,1,0,1,"BR,DS,RA"
2026-04-18 03:02:00,SPECI KUGN 180302Z AUTO 25004G14KT 1 3/4SM TSRA BR BKN035 BKN050 OVC070 16/16 A2966 RMK AO2 VIS 1/2V4 LTG DSNT ALQDS P0018 T01610156,0,4,1,2816.0,1,0,1,"BR,DS,RA,TS"
2026-04-18 02:51:00,METAR KUGN 180251Z AUTO 01007KT 5SM TSRA BR BKN041 BKN055 OVC090 16/16 A2963 RMK AO2 PK WND 31037/0153 WSHFT 0138 LTG DSNT ALQDS SLP029 P0089 60109 T01610156 50017,0,7,0,8045.0,1,0,1,"BR,DS,RA,TS"
2026-04-18 02:48:00,SPECI KUGN 180248Z AUTO 01006KT 5SM TSRA BR BKN039 BKN055 OVC070 16/16 A2964 RMK AO2 PK WND 31037/0153 WSHFT 0138 LTG DSNT ALQDS P0088,0,6,0,8045.0,1,0,1,"BR,DS,RA,TS"
2026-04-18 02:35:00,SPECI KUGN 180235Z AUTO 31007KT 2SM +TSRA BR OVC035 16/16 A2968 RMK AO2 PK WND 31037/0153 WSHFT 0138 LTG DSNT ALQDS P0083 T01610156,0,7,0,3218.0,1,0,1,"BR,DS,RA"
2026-04-18 02:25:00,SPECI KUGN 180225Z AUTO 34007KT 1 1/2SM +TSRA BR FEW007 FEW013 OVC030 16/16 A2967 RMK AO2 PK WND 31037/0153 WSHFT 0138 LTG DSNT ALQDS P0072 T01610156,0,7,0,2414.0,1,0,1,"BR,DS,RA"
2026-04-18 02:11:00,SPECI KUGN 180211Z AUTO 31008G24KT 290V350 2SM +TSRA BR FEW006 BKN026 OVC038 17/16 A2969 RMK AO2 PK WND 31037/0153 WSHFT 0138 LTG DSNT ALQDS P0048 T01670156,0,8,1,3218.0,1,0,1,"BR,DS,RA"
2026-04-18 01:58:00,SPECI KUGN 180158Z AUTO 30009G37KT 1SM +TSRA BR BKN020 BKN040 OVC090 17/16 A2973 RMK AO2 PK WND 31037/0153 WSHFT 0138 LTG DSNT ALQDS PRESRR P0030 T01670156,0,9,1,1609.0,1,0,1,"BR,DS,RA"
2026-04-18 01:51:00,METAR KUGN 180151Z AUTO 32018G29KT 2SM +TSRA BR SCT024 BKN040 OVC095 16/16 A2965 RMK AO2 PK WND 17031/0054 LTG DSNT ALQDS RAB26 TSB25 SLP039 P0020 T01610156,0,18,1,3218.0,1,0,1,"BR,DS,RA"
2026-04-18 01:31:00,SPECI KUGN 180131Z AUTO 21011G21KT 10SM -TSRA FEW075 BKN100 BKN120 24/17 A2965 RMK AO2 PK WND 17031/0054 LTG DSNT ALQDS RAB26 TSB25 PRESRR P0000 T02440172,0,11,1,16090.0,1,0,0,"DS,RA"
2026-04-18 01:12:00,SPECI KUGN 180112Z AUTO 19016G29KT 10SM VCTS CLR 25/17 A2962 RMK AO2 PK WND 17031/0054 LTG DSNT ALQDS PRESRR T02500172,0,16,1,16090.0,1,0,0,"DS,TS,VC"
2026-04-18 00:51:00,METAR KUGN 180051Z COR 18016G34KT 10SM CLR 25/17 A2957 RMK AO2 PK WND 18034/0042 LTG DSNT W-N SLP011 T02500172 LAST,0,16,1,16090.0,0,0,0,DS
2026-04-17 23:51:00,METAR KUGN 172351Z 17015G28KT 10SM CLR 22/15 A2959 RMK AO2 PK WND 18028/2351 LTG DSNT W AND NW SLP018 T02220150 10228 20183 56041,0,15,1,16090.0,0,0,0,DS
2026-04-17 22:51:00,METAR KUGN 172251Z 16009KT 10SM CLR 19/13 A2964 RMK AO2 SLP034 T01890133,0,9,0,16090.0,0,0,0,
2026-04-17 21:51:00,METAR KUGN 172151Z 16009KT 10SM CLR 19/14 A2966 RMK AO2 SLP042 T01940139,0,9,0,16090.0,0,0,0,
2026-04-17 20:51:00,METAR KUGN 172051Z 14009KT 10SM SCT055 SCT070 21/14 A2972 RMK AO2 SLP060 T02060144 56039,0,9,0,16090.0,0,0,0,
2026-04-17 19:51:00,METAR KUGN 171951Z 16013G21KT 10SM FEW049 22/14 A2974 RMK AO2 SLP067 T02170144,0,13,1,16090.0,0,0,0,
2026-04-17 18:51:00,METAR KUGN 171851Z 15011G21KT 10SM CLR 22/16 A2981 RMK AO2 SLP092 T02170156,0,11,1,16090.0,0,0,0,
2026-04-17 17:51:00,METAR KUGN 171751Z 14009KT 10SM CLR 20/14 A2984 RMK AO2 SLP101 T02000139 10200 20061 58022,0,9,0,16090.0,0,0,0,
2026-04-17 16:51:00,METAR KUGN 171651Z 15009KT 10SM CLR 17/12 A2986 RMK AO2 SLP111 T01670117,0,9,0,16090.0,0,0,0,
2026-04-17 15:51:00,METAR KUGN 171551Z 14006KT 10SM CLR 13/10 A2989 RMK AO2 SLP122 T01330100,0,6,0,16090.0,0,0,0,
2026-04-17 14:51:00,METAR KUGN 171451Z 14005KT 10SM CLR 11/10 A2990 RMK AO2 SLP127 T01110100 58005,0,5,0,16090.0,0,0,0,
2026-04-17 13:51:00,METAR KUGN 171351Z COR 14003KT 8SM CLR 08/08 A2992 RMK AO2 SLP134 T00780078,0,3,0,12872.0,0,0,0,
2026-04-17 13:36:00,SPECI KUGN 171336Z COR 14004KT 1SM BR VV002 07/07 A2992 RMK AO2 T00720072,0,4,0,1609.0,0,0,1,BR
2026-04-17 12:51:00,METAR KUGN 171251Z COR 14004KT 1/4SM FG VV002 06/06 A2992 RMK AO2 SLP136 T00610061,0,4,0,402.0,0,0,1,FG
2026-04-17 11:51:00,METAR KUGN 171151Z 14004KT 1/4SM FG VV002 06/06 A2992 RMK AO2 SLP135 70012 T00610061 10078 20061 53001,0,4,0,402.0,0,0,1,FG
2026-04-17 10:51:00,METAR KUGN 171051Z COR 14004KT 1/4SM FG VV002 07/07 A2991 RMK AO2 SLP132 T00670067,0,4,0,402.0,0,0,1,FG
2026-04-17 10:23:00,SPECI KUGN 171023Z AUTO 12004KT 1/4SM FG VV002 07/07 A2991 RMK AO2 T00670067,0,4,0,402.0,0,0,1,FG
2026-04-17 10:09:00,SPECI KUGN 171009Z AUTO 16004KT 1/2SM FG VV002 07/07 A2991 RMK AO2 T00720072,0,4,0,804.0,0,0,1,FG
2026-04-17 09:51:00,METAR KUGN 170951Z AUTO 15004KT 1/4SM FG VV002 07/07 A2992 RMK AO2 SLP133 T00720072,0,4,0,402.0,0,0,1,FG
2026-04-17 09:00:00,SPECI KUGN 170900Z AUTO 13003KT 1/4SM FG VV002 07/07 A2991 RMK AO2 T00720072,0,3,0,402.0,0,0,1,FG
2026-04-17 08:51:00,METAR KUGN 170851Z AUTO 13003KT 1/2SM FG VV002 07/07 A2992 RMK AO2 SLP131 T00720072 58009,0,3,0,804.0,0,0,1,FG
2026-04-17 07:51:00,METAR KUGN 170751Z AUTO 15003KT 1/4SM FG VV002 07/07 A2992 RMK AO2 SLP134 T00720072,0,3,0,402.0,0,0,1,FG
2026-04-17 06:51:00,METAR KUGN 170651Z AUTO 00000KT 1/4SM FG VV002 07/07 A2994 RMK AO2 SLP136 T00720072,0,0,0,402.0,0,0,1,FG
2026-04-17 06:40:00,SPECI KUGN 170640Z AUTO 00000KT 1/4SM FG VV002 07/07 A2994 RMK AO2 T00720072,0,0,0,402.0,0,0,1,FG
2026-04-17 06:33:00,SPECI KUGN 170633Z AUTO 00000KT 1/4SM FG VV001 07/07 A2994 RMK AO2 T00720072,0,0,0,402.0,0,0,1,FG
2026-04-17 06:18:00,SPECI KUGN 170618Z AUTO 00000KT 1/4SM FG VV002 07/07 A2994 RMK AO2 T00720072,0,0,0,402.0,0,0,1,FG
2026-04-17 05:51:00,METAR KUGN 170551Z AUTO 00000KT 1/4SM FG VV001 07/07 A2994 RMK AO2 SLP139 T00720072 10100 20072 402110072 50003,0,0,0,402.0,0,0,1,FG
2026-04-17 05:19:00,SPECI KUGN 170519Z AUTO 00000KT 1/4SM FG VV002 07/07 A2995 RMK AO2 T00720072,0,0,0,402.0,0,0,1,FG
2026-04-17 04:51:00,METAR KUGN 170451Z AUTO 00000KT 1/2SM FG VV002 08/08 A2995 RMK AO2 SLP142 T00780078,0,0,0,804.0,0,0,1,FG
2026-04-17 03:51:00,METAR KUGN 170351Z AUTO 00000KT 1/2SM FG VV002 08/08 A2995 RMK AO2 SLP140 T00780078,0,0,0,804.0,0,0,1,FG
2026-04-17 02:58:00,SPECI KUGN 170258Z AUTO 00000KT 1/2SM FG VV002 08/08 A2994 RMK AO2 T00780078,0,0,0,804.0,0,0,1,FG
2026-04-17 02:51:00,METAR KUGN 170251Z AUTO 05003KT 1/4SM FG VV002 08/08 A2994 RMK AO2 SLP137 T00830083 53013,0,3,0,402.0,0,0,1,FG
2026-04-17 01:51:00,METAR KUGN 170151Z AUTO 06005KT 1/4SM FG VV002 09/09 A2992 RMK AO2 SLP132 T00890089,0,5,0,402.0,0,0,1,FG
2026-04-17 01:32:00,SPECI KUGN 170132Z AUTO 06004KT 1/4SM FG VV002 09/09 A2991 RMK AO2 T00890089,0,4,0,402.0,0,0,1,FG
2026-04-17 01:25:00,SPECI KUGN 170125Z AUTO 04003KT 1/2SM FG VV002 09/09 A2991 RMK AO2 T00890089,0,3,0,804.0,0,0,1,FG
2026-04-17 01:17:00,SPECI KUGN 170117Z AUTO 05005KT 1/4SM FG VV002 09/09 A2990 RMK AO2 T00940094,0,5,0,402.0,0,0,1,FG
2026-04-17 00:51:00,METAR KUGN 170051Z COR 07005KT 3/4SM BR VV002 09/09 A2990 RMK AO2 LAST SLP125 T00940094,0,5,0,1207.0,0,0,1,BR
2026-04-17 00:47:00,SPECI KUGN 170047Z 07005KT 3/4SM BR VV002 10/10 A2990 RMK AO2,0,5,0,1207.0,0,0,1,BR
2026-04-17 00:35:00,SPECI KUGN 170035Z 08004KT 1/4SM FG VV002 10/10 A2989 RMK AO2 T01000100,0,4,0,402.0,0,0,1,FG
2026-04-17 00:25:00,SPECI KUGN 170025Z 07005KT 1/2SM FG VV002 10/10 A2989 RMK AO2 T01000100,0,5,0,804.0,0,0,1,FG
2026-04-17 00:13:00,SPECI KUGN 170013Z 07006KT 1/4SM FG VV002 10/10 A2988 RMK AO2 T01000100,0,6,0,402.0,0,0,1,FG
2026-04-17 00:05:00,SPECI KUGN 170005Z 09005KT 1/2SM FG VV002 10/10 A2988 RMK AO2 T01000100,0,5,0,804.0,0,0,1,FG
2026-04-16 23:51:00,METAR KUGN 162351Z 06005KT 1/4SM FG VV002 10/10 A2988 RMK AO2 SLP119 60006 T01000100 10211 20100 51018,0,5,0,402.0,0,0,1,FG
2026-04-16 23:40:00,SPECI KUGN 162340Z 05006KT 3/4SM BR OVC002 11/11 A2988 RMK AO2 T01060106,0,6,0,1207.0,0,0,1,BR
2026-04-16 23:20:00,SPECI KUGN 162320Z 04005KT 1 3/4SM BR OVC003 11/11 A2988 RMK AO2 T01060106,0,5,0,2816.0,0,0,1,BR
2026-04-16 22:51:00,METAR KUGN 162251Z 05007KT 10SM BKN003 12/10 A2988 RMK AO2 SLP115 T01170100,0,7,0,16090.0,0,0,0,
2026-04-16 22:30:00,SPECI KUGN 162230Z 04009KT 6SM BR BKN003 11/10 A2987 RMK AO2 T01060100,0,9,0,9654.0,0,0,1,BR
2026-04-16 21:51:00,METAR KUGN 162151Z COR 06008KT 1 SM BR OVC002 12/12 A2986 RMK AO2 SLP109 T01170117,0,8,0,,0,0,1,BR
2026-04-16 21:43:00,SPECI KUGN 162143Z 03011KT 1/2SM FG OVC003 12/12 A2985 RMK AO2 T01170117,0,11,0,804.0,0,0,1,FG
2026-04-16 21:36:00,SPECI KUGN 162136Z 03008KT 1/2SM FG OVC005 12/12 A2985 RMK AO2 T01220117,0,8,0,804.0,0,0,1,FG
2026-04-16 21:28:00,SPECI KUGN 162128Z 04008KT 1 1/4SM BR BKN005 OVC060 13/12 A2984 RMK AO2 T01280117,0,8,0,2011.0,0,0,1,BR
2026-04-16 21:06:00,SPECI KUGN 162106Z 04008KT 10SM BKN005 BKN060 BKN090 12/11 A2984 RMK AO2 T01220111,0,8,0,16090.0,0,0,0,
2026-04-16 20:51:00,METAR KUGN 162051Z 05008KT 10SM SCT041 SCT050 SCT090 14/12 A2983 RMK AO2 SLP098 60006 T01440122 51011,0,8,0,16090.0,0,0,0,
2026-04-16 19:51:00,METAR KUGN 161951Z 05007KT 10SM BKN037 BKN045 BKN080 14/13 A2981 RMK AO2 RAB04E21 SLP093 P0006 T01440128,0,7,0,16090.0,0,0,0,RA
2026-04-16 19:48:00,SPECI KUGN 161948Z 03010KT 10SM BKN037 BKN045 BKN080 14/13 A2981 RMK AO2 RAB04E21 P0006,0,10,0,16090.0,0,0,0,RA
2026-04-16 18:51:00,METAR KUGN 161851Z 05006KT 10SM BKN021 BKN050 BKN060 19/16 A2979 RMK AO2 SLP086 T01890156,0,6,0,16090.0,0,0,0,
2026-04-16 17:51:00,METAR KUGN 161751Z COR 29008KT 10SM BKN021 BKN050 BKN060 19/14 A2978 RMK AO2 LTG DSNT SE SLP080 60006 T01940144 10194 20133 51016,0,8,0,16090.0,0,0,0,DS
2026-04-16 16:51:00,METAR KUGN 161651Z COR 32007KT 10SM BKN012 OVC018 18/15 A2978 RMK AO2 SLP079 T01780150,0,7,0,16090.0,0,0,0,
2026-04-16 16:44:00,SPECI KUGN 161644Z 32009G16KT 10SM BKN012 OVC018 18/16 A2977 RMK AO2 T01830156,0,9,1,16090.0,0,0,0,
2026-04-16 16:38:00,SPECI KUGN 161638Z COR 32010KT 10SM BKN010 OVC014 18/16 A2977 RMK AO2 CIG 008V012 T01780156,0,10,0,16090.0,0,0,0,
2026-04-16 15:51:00,METAR KUGN 161551Z COR 34005KT 10SM BKN008 BKN012 BKN025 16/15 A2975 RMK AO2 RAB36E45 SLP071 P0000 T01610150,0,5,0,16090.0,0,0,0,RA
2026-04-16 15:39:00,SPECI KUGN 161539Z COR 33008KT 10SM -RA BKN008 BKN012 OVC028 17/16 A2975 RMK AO2 RAB36 P0000 T01720156,0,8,0,16090.0,0,0,0,-RA
2026-04-16 14:51:00,METAR KUGN 161451Z COR VRB03KT 10SM OVC012 16/16 A2974 RMK AO2 RAB13E24 SLP065 P0000 60006 T01610156 53003,0,3,0,16090.0,0,0,0,RA
2026-04-16 13:51:00,METAR KUGN 161351Z COR 00000KT 8SM OVC011 14/14 A2973 RMK AO2 SLP059 T01440139,0,0,0,12872.0,0,0,0,
2026-04-16 13:33:00,SPECI KUGN 161333Z COR 00000KT 7SM OVC010 14/14 A2973 RMK AO2 CIG 008V013 T01390139,0,0,0,11263.0,0,0,0,
2026-04-16 13:32:00,SPECI KUGN 161332Z 00000KT 6SM BR OVC010 14/14 A2973 RMK AO2 CIG 008V013 VIS N-E 1SM T01390139,0,0,0,9654.0,0,0,1,BR
2026-04-16 13:10:00,SPECI KUGN 161310Z 00000KT 6SM BR OVC008 14/14 A2973 RMK AO2 LTG DSNT NW VIS N-E 1SM T01390139,0,0,0,9654.0,0,0,1,"BR,DS"
2026-04-16 13:09:00,SPECI KUGN 161309Z 02003KT 6SM BR OVC008 14/14 A2973 RMK AO2 LTG DSNT NW VIS N-E 1SM T01390139,0,3,0,9654.0,0,0,1,"BR,DS"
2026-04-16 12:51:00,METAR KUGN 161251Z 05003KT 5SM BR OVC012 14/13 A2973 RMK AO2 RAB05E34 SLP061 VIS WNW TO ENE 1SM P0006 T01390133,0,3,0,8045.0,0,0,1,"BR,RA"
2026-04-16 12:45:00,SPECI KUGN 161245Z 04003KT 1SM BR OVC014 14/13 A2973 RMK AO2 RAB05E34 P0006,0,3,0,1609.0,0,0,1,"BR,RA"
2026-04-16 12:28:00,SPECI KUGN 161228Z 05003KT 2SM VCTS -RA BR BKN014 OVC020 14/14 A2973 RMK AO2 LTG DSNT N RAB05 P0006 T01390139,0,3,0,3218.0,1,0,1,"-RA,BR,DS,TS,VC"
2026-04-16 12:10:00,SPECI KUGN 161210Z 07007KT 3SM RA BR BKN021 OVC029 14/14 A2973 RMK AO2 RAB05 P0004 T01390139,0,7,0,4827.0,0,0,1,"BR,RA"
2026-04-16 11:58:00,SPECI KUGN 161158Z 07006KT 10SM FEW025 OVC035 14/14 A2973 RMK AO2 T01440144,0,6,0,16090.0,0,0,0,
2026-04-16 11:51:00,METAR KUGN 161151Z COR VRB04KT 10SM BKN025 BKN030 OVC037 14/14 A2973 RMK AO2 LTG DSNT NW SLP060 60001 70047 T01440144 10150 20122 51008,0,4,0,16090.0,0,0,0,DS
2026-04-16 10:51:00,METAR KUGN 161051Z 00000KT 10SM FEW038 BKN090 OVC110 14/14 A2972 RMK AO2 RAE47 SLP058 P0001 T01440139,0,0,0,16090.0,0,0,0,
2026-04-16 09:51:00,METAR KUGN 160951Z AUTO 29005KT 10SM -RA BKN046 OVC060 14/14 A2974 RMK AO2 RAB46 SLP063 P0000 T01440139,0,5,0,16090.0,0,0,0,-RA
2026-04-16 08:51:00,METAR KUGN 160851Z AUTO 18008KT 10SM FEW002 13/13 A2970 RMK AO2 SLP053 60000 T01330128 58008,0,8,0,16090.0,0,0,0,
2026-04-16 08:44:00,SPECI KUGN 160844Z AUTO 17009KT 10SM SCT002 13/13 A2970 RMK AO2 T01330128,0,9,0,16090.0,0,0,0,
2026-04-16 08:27:00,SPECI KUGN 160827Z AUTO 17008KT 3SM BR BKN002 13/13 A2970 RMK AO2 T01280128,0,8,0,4827.0,0,0,1,BR
2026-04-16 07:51:00,METAR KUGN 160751Z AUTO 16007KT 1 1/4SM BR OVC002 13/13 A2971 RMK AO2 SLP056 T01280128,0,7,0,2011.0,0,0,1,BR
2026-04-16 07:23:00,SPECI KUGN 160723Z AUTO 15004KT 1 1/4SM BR OVC002 12/12 A2972 RMK AO2 LTG DSNT NW T01220122,0,4,0,2011.0,0,0,1,"BR,DS"
2026-04-16 07:09:00,SPECI KUGN 160709Z AUTO 12004KT 3/4SM BR VV002 12/12 A2973 RMK AO2 T01220122,0,4,0,1207.0,0,0,1,BR
2026-04-16 06:58:00,SPECI KUGN 160658Z AUTO 14005KT 1SM BR VV002 12/12 A2974 RMK AO2 T01220122,0,5,0,1609.0,0,0,1,BR
2026-04-16 06:51:00,METAR KUGN 160651Z AUTO 15006KT 3/4SM BR OVC002 12/12 A2974 RMK AO2 RAE0553B14E26 SLP066 P0000 T01220122,0,6,0,1207.0,0,0,1,"BR,RA"
2026-04-16 06:34:00,SPECI KUGN 160634Z AUTO 14009KT 2 1/2SM BR BKN002 BKN080 OVC095 13/13 A2974 RMK AO2 RAE0553B14E26 P0000 T01280128,0,9,0,4022.0,0,0,1,"BR,RA"
2026-04-16 06:26:00,SPECI KUGN 160626Z AUTO 13005KT 5SM BR SCT002 BKN080 OVC100 13/13 A2974 RMK AO2 RAE0553B14E26 P0000 T01280128,0,5,0,8045.0,0,0,1,"BR,RA"
2026-04-16 06:23:00,SPECI KUGN 160623Z AUTO 12005KT 2 1/2SM -RA BR BKN002 OVC095 13/13 A2973 RMK AO2 RAE0553B14 P0000 T01280128,0,5,0,4022.0,0,0,1,"-RA,BR,RA"
2026-04-16 06:21:00,SPECI KUGN 160621Z AUTO 12005KT 1 3/4SM -RA BR BKN001 OVC100 13/13 A2973 RMK AO2 RAE0553B14 P0000 T01280128,0,5,0,2816.0,0,0,1,"-RA,BR,RA"
2026-04-16 06:12:00,SPECI KUGN 160612Z AUTO 14006KT 3/4SM BR BKN001 OVC100 13/13 A2973 RMK AO2 RAE0553 P0000 T01280128,0,6,0,1207.0,0,0,1,"BR,RA"
2026-04-16 06:06:00,SPECI KUGN 160606Z AUTO 14007KT 1 3/4SM BR SCT001 SCT080 OVC100 13/13 A2973 RMK AO2 RAE0553 P0000 T01330133,0,7,0,2816.0,0,0,1,"BR,RA"
2026-04-16 05:51:00,METAR KUGN 160551Z AUTO 07010KT 10SM -RA FEW002 BKN100 OVC120 14/14 A2973 RMK AO2 SLP061 P0012 60039 T01440144 10217 20144 402220139 58010,0,10,0,16090.0,0,0,0,-RA
2026-04-16 04:51:00,METAR KUGN 160451Z AUTO 24003KT 7SM -RA SCT070 OVC090 16/15 A2980 RMK AO2 SLP087 P0010 T01560150,0,3,0,11263.0,0,0,0,-RA
2026-04-16 03:51:00,METAR KUGN 160351Z AUTO 33009G14KT 9SM -RA OVC095 16/15 A2977 RMK AO2 LTG DSNT SE SLP075 P0013 T01610150,0,9,1,14481.0,0,0,0,"-RA,DS"
2026-04-16 03:37:00,SPECI KUGN 160337Z AUTO VRB05KT 9SM RA FEW050 BKN085 OVC100 16/15 A2976 RMK AO2 LTG DSNT E AND SE AND W P0011 T01610150,0,5,0,14481.0,0,0,0,"DS,RA"
2026-04-16 03:22:00,SPECI KUGN 160322Z AUTO 29008KT 9SM VCTS -RA FEW008 BKN065 OVC080 16/15 A2978 RMK AO2 LTG DSNT NE-S P0009 T01610150,0,8,0,14481.0,1,0,0,"-RA,DS,TS,VC"
2026-04-16 03:12:00,SPECI KUGN 160312Z AUTO 30008G16KT 270V340 4SM RA BR FEW008 BKN045 OVC060 16/15 A2977 RMK AO2 LTG DSNT NE AND S AND SW P0008 T01610150,0,8,1,6436.0,0,0,1,"BR,DS,RA"
2026-04-16 02:59:00,SPECI KUGN 160259Z AUTO 30009G17KT 4SM RA BR FEW027 BKN044 OVC070 16/14 A2977 RMK AO2 LTG DSNT N AND NE AND SW P0003 T01610144,0,9,1,6436.0,0,0,1,"BR,DS,RA"
2026-04-16 02:51:00,METAR KUGN 160251Z AUTO 30010G27KT 6SM VCTS RA FEW027 BKN047 OVC070 17/14 A2976 RMK AO2 PK WND 22031/0219 WSHFT 0230 LTG DSNT W-NE RAB44 SLP071 P0004 60004 T01720139 51018,0,10,1,9654.0,1,0,0,"DS,RA,TS,VC"
2026-04-16 02:31:00,SPECI KUGN 160231Z AUTO 21020G28KT 10SM VCTS SCT029 BKN070 BKN090 21/17 A2971 RMK AO2 PK WND 22031/0219 LTG DSNT W-NE T02110167,0,20,1,16090.0,1,0,0,"DS,TS,VC"
2026-04-16 01:51:00,METAR KUGN 160151Z AUTO 22020G30KT 10SM BKN032 OVC043 21/17 A2972 RMK AO2 PK WND 22030/0145 LTG DSNT W-N SLP055 T02110167,0,20,1,16090.0,0,0,0,DS
2026-04-16 00:51:00,METAR KUGN 160051Z 19011KT 10SM SCT029 BKN045 OVC070 21/17 A2970 RMK AO2 SLP051 LAST T02110172,0,11,0,16090.0,0,0,0,
2026-04-16 00:49:00,SPECI KUGN 160049Z 19011G25KT 10SM SCT029 BKN045 OVC085 21/17 A2971 RMK AO2 LAST,0,11,1,16090.0,0,0,0,
2026-04-16 00:21:00,SPECI KUGN 160021Z 18005KT 10SM BKN029 BKN033 OVC055 21/17 A2971 RMK AO2 LTG DSNT NW LAST T02110167,0,5,0,16090.0,0,0,0,DS
2026-04-15 23:51:00,METAR KUGN 152351Z 19007KT 10SM FEW029 FEW065 SCT090 21/16 A2973 RMK AO2 SLP058 60000 T02060161 10222 20189 57013,0,7,0,16090.0,0,0,0,
2026-04-15 22:51:00,METAR KUGN 152251Z 20012KT 10SM CLR 22/16 A2974 RMK AO2 SLP065 T02170156,0,12,0,16090.0,0,0,0,
2026-04-15 21:51:00,METAR KUGN 152151Z 22015KT 10SM FEW090 SCT110 21/16 A2975 RMK AO2 SLP066 T02110161,0,15,0,16090.0,0,0,0,
2026-04-15 20:51:00,METAR KUGN 152051Z 23014KT 10SM OVC090 21/17 A2977 RMK AO2 SLP073 60000 T02060167 58009,0,14,0,16090.0,0,0,0,
2026-04-15 19:51:00,METAR KUGN 151951Z 22011KT 10SM FEW020 OVC095 19/16 A2979 RMK AO2 RAB26E39 SLP082 P0000 T01890161,0,11,0,16090.0,0,0,0,RA
2026-04-15 18:51:00,METAR KUGN 151851Z 24011KT 10SM FEW020 BKN110 19/16 A2979 RMK AO2 SLP083 T01940161,0,11,0,16090.0,0,0,0,
2026-04-15 17:51:00,METAR KUGN 151751Z 24012KT 10SM BKN020 BKN024 BKN075 19/16 A2979 RMK AO2 SLP082 60007 T01940156 10194 20167 51022,0,12,0,16090.0,0,0,0,
2026-04-15 17:42:00,SPECI KUGN 151742Z 24012KT 10SM BKN020 BKN024 BKN075 19/16 A2980 RMK AO2 T01940161,0,12,0,16090.0,0,0,0,
2026-04-15 17:07:00,SPECI KUGN 151707Z 26007KT 10SM BKN018 BKN080 19/16 A2980 RMK AO2 T01890161,0,7,0,16090.0,0,0,0,
2026-04-15 16:51:00,METAR KUGN 151651Z COR 22012G22KT 10SM BKN070 19/16 A2979 RMK AO2 SLP082 T01890161,0,12,1,16090.0,0,0,0,
2026-04-15 15:51:00,METAR KUGN 151551Z 20009KT 10SM CLR 18/16 A2975 RMK AO2 RAE11 SLP070 P0000 T01780156,0,9,0,16090.0,0,0,0,
2026-04-15 14:51:00,METAR KUGN 151451Z 19015KT 10SM -RA OVC100 17/16 A2973 RMK AO2 SLP061 P0003 60007 T01670156 56016,0,15,0,16090.0,0,0,0,-RA
2026-04-15 13:51:00,METAR KUGN 151351Z 22009KT 10SM -RA OVC100 17/16 A2974 RMK AO2 RAE10B26 SLP062 P0001 T01670156,0,9,0,16090.0,0,0,0,"-RA,RA"
2026-04-15 12:51:00,METAR KUGN 151251Z 23006KT 7SM -RA OVC110 17/16 A2975 RMK AO2 PRESFR SLP065 P0003 T01670156,0,6,0,11263.0,0,0,0,-RA
2026-04-15 11:59:00,SPECI KUGN 151159Z 24010KT 9SM -RA FEW075 BKN090 BKN120 18/16 A2977 RMK AO2 P0001 T01780161,0,10,0,14481.0,0,0,0,-RA
2026-04-15 11:51:00,METAR KUGN 151151Z 24009KT 2 1/2SM RA BR SCT075 BKN090 OVC110 17/17 A2977 RMK AO2 SLP072 P0009 60088 70189 T01720167 10172 20139 53010,0,9,0,4022.0,0,0,1,"BR,RA"
2026-04-15 10:51:00,METAR KUGN 151051Z AUTO 21006KT 8SM -RA OVC095 14/14 A2976 RMK AO2 RAB25 SLP068 P0001 T01440139,0,6,0,12872.0,0,0,0,-RA
2026-04-15 10:29:00,SPECI KUGN 151029Z AUTO 17008KT 10SM -RA FEW003 BKN100 14/13 A2974 RMK AO2 RAB25 P0000 T01390133,0,8,0,16090.0,0,0,0,-RA
2026-04-15 09:51:00,METAR KUGN 150951Z AUTO 15006KT 10SM FEW035 FEW047 16/16 A2973 RMK AO2 LTG DSNT E RAE35 TSE22 SLP056 P0018 T01610156,0,6,0,16090.0,1,0,0,DS
2026-04-15 09:24:00,SPECI KUGN 150924Z AUTO 14006KT 10SM -RA FEW012 BKN070 OVC100 17/16 A2973 RMK AO2 LTG DSNT N-E TSE22 P0018 T01670161,0,6,0,16090.0,1,0,0,"-RA,DS"
2026-04-15 09:12:00,SPECI KUGN 150912Z AUTO 10003KT 4SM TSRA BR FEW008 BKN032 OVC090 17/17 A2974 RMK AO2 LTG DSNT N-SE P0018 T01670167,0,3,0,6436.0,1,0,1,"BR,DS,RA,TS"
2026-04-15 09:04:00,SPECI KUGN 150904Z AUTO 17008KT 2SM +TSRA BR FEW009 BKN024 OVC031 17/17 A2974 RMK AO2 LTG DSNT N-SE P0016 T01720167,0,8,0,3218.0,1,0,1,"BR,DS,RA"
2026-04-15 08:51:00,METAR KUGN 150851Z AUTO 31010G18KT 270V350 1 1/2SM +TSRA BR FEW009 BKN030 OVC070 16/16 A2974 RMK AO2 VIS 3/4V5 LTG DSNT W-NE RAB12 TSB19E38B40 SLP062 P0031 60060 T01610156 53007,0,10,1,2414.0,1,0,1,"BR,DS,RA,TS"
2026-04-15 08:25:00,SPECI KUGN 150825Z AUTO 00000KT 5SM -TSRA BR SCT036 BKN048 OVC100 17/16 A2969 RMK AO2 LTG DSNT W AND NW RAB12 TSB19 P0007 T01670161,0,0,0,8045.0,1,0,1,"BR,DS,RA"
2026-04-15 08:08:00,SPECI KUGN 150808Z AUTO 16007KT 10SM VCTS OVC040 17/16 A2969 RMK AO2 LTG DSNT ALQDS T01670156,0,7,0,16090.0,1,0,0,"DS,TS,VC"
2026-04-15 07:51:00,METAR KUGN 150751Z AUTO 17008KT 10SM OVC042 16/16 A2970 RMK AO2 LTG DSNT ALQDS RAE06 TSE0654 SLP048 P0001 T01610156,0,8,0,16090.0,1,0,0,"DS,TS"
2026-04-15 07:09:00,SPECI KUGN 150709Z AUTO 17005KT 10SM BKN044 BKN055 OVC070 16/16 A2969 RMK AO2 LTG DSNT NE AND E AND SW RAE06 TSE0654 P0001 T01560156,0,5,0,16090.0,1,0,0,"DS,TS"
2026-04-15 07:00:00,SPECI KUGN 150700Z AUTO 19004KT 10SM VCTS -RA SCT038 BKN050 OVC065 16/16 A2970 RMK AO2 LTG DSNT NE AND E TSE0654 P0001 T01560156,0,4,0,16090.0,1,0,0,"-RA,DS,TS,VC"
2026-04-15 06:51:00,METAR KUGN 150651Z AUTO 18009KT 10SM -TSRA SCT032 BKN047 OVC110 16/15 A2969 RMK AO2 LTG DSNT NE RAB26 TSB23 SLP046 P0028 T01560150,0,9,0,16090.0,1,0,0,"DS,RA"
2026-04-15 06:41:00,SPECI KUGN 150641Z AUTO 15006KT 3SM -TSRA BR SCT026 OVC046 16/15 A2971 RMK AO2 LTG DSNT NE AND SE AND W RAB26 TSB23 P0026 T01560150,0,6,0,4827.0,1,0,1,"BR,DS,RA"
2026-04-15 06:32:00,SPECI KUGN 150632Z AUTO 10004KT 2SM +TSRA BR BKN029 BKN045 OVC060 15/15 A2971 RMK AO2 LTG DSNT SE AND W RAB26 TSB23 P0022 T01500150,0,4,0,3218.0,1,0,1,"BR,DS,RA"
2026-04-15 06:29:00,SPECI KUGN 150629Z AUTO 16010KT 3SM +TSRA BR SCT031 BKN045 OVC080 15/15 A2972 RMK AO2 LTG DSNT NE AND SE RAB26 TSB23 P0013 T01500150,0,10,0,4827.0,1,0,1,"BR,DS,RA"
2026-04-15 05:51:00,METAR KUGN 150551Z AUTO 17008KT 10SM VCTS BKN048 OVC060 16/15 A2972 RMK AO2 LTG DSNT ALQDS RAE41 TSB0452E07B19E42 SLP056 P0009 60099 T01560150 10256 20133 402720122 56003,0,8,0,16090.0,1,0,0,"DS,TS,VC"
2026-04-15 05:48:00,SPECI KUGN 150548Z AUTO 16009KT 10SM VCTS FEW036 BKN050 OVC060 16/15 A2973 RMK AO2 LTG DSNT ALQDS RAE41 TSB0452E07B19E42 PRESRR P0009,0,9,0,16090.0,1,0,0,"DS,TS,VC"
2026-04-15 05:21:00,SPECI KUGN 150521Z AUTO 16005KT 6SM TSRA BR FEW036 BKN070 OVC090 15/15 A2971 RMK AO2 LTG DSNT ALQDS TSB0452E07B19 P0005 T01500150,0,5,0,9654.0,1,0,1,"BR,DS,RA,TS"
2026-04-15 05:13:00,SPECI KUGN 150513Z AUTO 22008KT 10SM VCTS -RA FEW002 BKN070 OVC085 15/14 A2972 RMK AO2 LTG DSNT ALQDS TSB0452E07 P0002 T01500144,0,8,0,16090.0,1,0,0,"-RA,DS,TS,VC"
2026-04-15 04:58:00,SPECI KUGN 150458Z AUTO 16011G16KT 4SM TSRA BR SCT002 BKN041 OVC080 14/14 A2969 RMK AO2 LTG DSNT SE-W TSB52 P0002 T01440144,0,11,1,6436.0,1,0,1,"BR,DS,RA,TS"
2026-04-15 04:51:00,METAR KUGN 150451Z AUTO VRB06KT 5SM -RA BR BKN002 BKN039 OVC060 14/14 A2972 RMK AO2 LTG DSNT SE-W SLP055 P0015 T01440144,0,6,0,8045.0,0,0,1,"-RA,BR,DS"
2026-04-15 04:49:00,SPECI KUGN 150449Z AUTO 22008KT 7SM -RA BKN002 BKN065 OVC095 14/14 A2973 RMK AO2 LTG DSNT SE-W PRESRR P0014,0,8,0,11263.0,0,0,0,"-RA,DS"
2026-04-15 04:28:00,SPECI KUGN 150428Z AUTO 16010KT 10SM -RA FEW002 BKN065 OVC090 14/14 A2970 RMK AO2 LTG DSNT ALQDS P0013 T01390139,0,10,0,16090.0,0,0,0,"-RA,DS"
2026-04-15 04:20:00,SPECI KUGN 150420Z AUTO 15010KT 4SM VCTS -RA BR SCT002 BKN037 OVC090 14/14 A2971 RMK AO2 LTG DSNT ALQDS P0013 T01390139,0,10,0,6436.0,1,0,1,"-RA,BR,DS,TS,VC"
2026-04-15 04:09:00,SPECI KUGN 150409Z AUTO 12007KT 4SM VCTS +RA BR BKN002 BKN024 OVC090 13/13 A2972 RMK AO2 LTG DSNT ALQDS P0008 T01330133,0,7,0,6436.0,1,1,1,"+RA,BR,DS,TS,VC"
2026-04-15 03:51:00,METAR KUGN 150351Z AUTO 15006KT 9SM -RA FEW003 BKN090 OVC110 14/14 A2975 RMK AO2 LTG DSNT ALQDS TSE44 SLP067 P0017 T01440139,0,6,0,14481.0,1,0,0,"-RA,DS"
2026-04-15 03:47:00,SPECI KUGN 150347Z AUTO 12008KT 8SM -RA FEW003 SCT075 OVC100 16/15 A2971 RMK AO2 LTG DSNT ALQDS TSE44 P0017,0,8,0,12872.0,1,0,0,"-RA,DS"
2026-04-15 03:08:00,SPECI KUGN 150308Z AUTO 34005KT 4SM TSRA BR BKN048 BKN070 OVC090 16/15 A2970 RMK AO2 LTG DSNT ALQDS PRESFR P0012 T01610150,0,5,0,6436.0,1,0,1,"BR,DS,RA,TS"
2026-04-15 03:01:00,SPECI KUGN 150301Z AUTO 31007G18KT 2 1/2SM +TSRA BR BKN044 OVC070 16/15 A2973 RMK AO2 VIS 1 3/4V4 LTG DSNT ALQDS P0010 T01610150,0,7,1,4022.0,1,0,1,"BR,DS,RA"
2026-04-15 02:51:00,METAR KUGN 150251Z AUTO 31008KT 3SM +TSRA BR FEW015 BKN033 OVC070 16/15 A2974 RMK AO2 PK WND 31033/0215 WSHFT 0209 LTG DSNT ALQDS RAB0154 TSB16 SLP066 P0058 60058 T01610150 53025,0,8,0,4827.0,1,0,1,"BR,DS,RA"
2026-04-15 02:46:00,SPECI KUGN 150246Z AUTO 33007KT 3SM +TSRA BR FEW015 BKN033 OVC060 16/15 A2972 RMK AO2 PK WND 31033/0215 WSHFT 0209 LTG DSNT ALQDS RAB0154 TSB16 P0052,0,7,0,4827.0,1,0,1,"BR,DS,RA"
2026-04-15 02:32:00,SPECI KUGN 150232Z AUTO 32009G29KT 1 1/4SM +TSRA BR FEW015 BKN023 OVC110 16/15 A2974 RMK AO2 PK WND 31033/0215 WSHFT 0209 LTG DSNT ALQDS RAB0154 TSB16 P0033 T01610150,0,9,1,2011.0,1,0,1,"BR,DS,RA"
2026-04-15 02:27:00,SPECI KUGN 150227Z AUTO 32014G33KT 2 1/2SM +TSRA BR FEW014 BKN043 OVC110 17/14 A2975 RMK AO2 PK WND 31033/0215 WSHFT 0209 LTG DSNT ALQDS RAB0154 TSB16 PRESRR P0017 T01670144,0,14,1,4022.0,1,0,1,"BR,DS,RA"
2026-04-15 02:18:00,SPECI KUGN 150218Z AUTO 32018G33KT 10SM -TSRA FEW041 SCT075 OVC110 22/16 A2972 RMK AO2 PK WND 31033/0215 WSHFT 0204 LTG DSNT ALQDS RAB0154 TSB16 PRESRR P0000 T02220156,0,18,1,16090.0,1,0,0,"DS,RA"
2026-04-15 02:10:00,SPECI KUGN 150210Z AUTO 21014G21KT 10SM VCTS -RA FEW065 FEW075 OVC110 25/18 A2965 RMK AO2 LTG DSNT ALQDS RAB0154 P0000 T02500183,0,14,1,16090.0,1,0,0,"-RA,DS,RA,TS,VC"
2026-04-15 01:51:00,METAR KUGN 150151Z AUTO 21011KT 10SM FEW060 FEW070 BKN100 25/18 A2966 RMK AO2 LTG DSNT W-NE SLP034 T02500183,0,11,0,16090.0,0,0,0,DS
2026-04-15 00:51:00,METAR KUGN 150051Z 21013KT 10SM BKN049 25/18 A2966 RMK AO2 LTG DSNT N SLP034 LAST T02500178,0,13,0,16090.0,0,0,0,DS
2026-04-14 23:51:00,METAR KUGN 142351Z 22009KT 10SM SCT047 BKN060 25/19 A2967 RMK AO2 PK WND 20027/2311 SLP039 T02500189 10272 20244 55018,0,9,0,16090.0,0,0,0,
2026-04-14 22:51:00,METAR KUGN 142251Z 21017G27KT 10SM SCT042 BKN055 26/18 A2966 RMK AO2 PK WND 21032/2231 SLP037 T02560183,0,17,1,16090.0,0,0,0,
2026-04-14 21:51:00,METAR KUGN 142151Z 21016G24KT 10SM FEW041 27/18 A2968 RMK AO2 SLP043 T02670183,0,16,1,16090.0,0,0,0,
2026-04-14 20:51:00,METAR KUGN 142051Z 20012KT 10SM FEW047 27/18 A2972 RMK AO2 SLP055 T02670178 58018,0,12,0,16090.0,0,0,0,
2026-04-14 19:51:00,METAR KUGN 141951Z 20014KT 10SM BKN039 26/18 A2975 RMK AO2 SLP066 T02560183,0,14,0,16090.0,0,0,0,
2026-04-14 18:51:00,METAR KUGN 141851Z 23012KT 10SM SCT034 26/18 A2976 RMK AO2 SLP067 T02560183,0,12,0,16090.0,0,0,0,
2026-04-14 17:51:00,METAR KUGN 141751Z 22013G19KT 10SM BKN030 BKN035 24/18 A2977 RMK AO2 PK WND 22027/1731 SLP071 60002 T02440178 10244 20122 58010,0,13,1,16090.0,0,0,0,
2026-04-14 16:51:00,METAR KUGN 141651Z 22013G20KT 10SM FEW032 23/17 A2980 RMK AO2 SLP080 T02280172,0,13,1,16090.0,0,0,0,
2026-04-14 15:51:00,METAR KUGN 141551Z 22017G23KT 10SM CLR 22/16 A2980 RMK AO2 SLP081 T02170161,0,17,1,16090.0,0,0,0,
2026-04-14 14:51:00,METAR KUGN 141451Z 19012KT 10SM CLR 18/14 A2981 RMK AO2 SLP085 60002 T01780144 56004,0,12,0,16090.0,0,0,0,
2026-04-14 13:51:00,METAR KUGN 141351Z 19012KT 10SM CLR 16/14 A2982 RMK AO2 SLP093 T01560139,0,12,0,16090.0,0,0,0,
2026-04-14 12:51:00,METAR KUGN 141251Z COR 16011KT 10SM FEW047 FEW075 13/12 A2980 RMK AO2 RAB07E37 SLP088 P0002 T01330122,0,11,0,16090.0,0,0,0,RA
2026-04-14 11:58:00,SPECI KUGN 141158Z COR 17010KT 10SM FEW004 BKN080 BKN100 12/12 A2981 RMK AO2 LTG DSNT E-S T01220117,0,10,0,16090.0,0,0,0,DS
2026-04-14 11:51:00,METAR KUGN 141151Z 17004KT 10SM BKN004 BKN060 BKN090 12/12 A2982 RMK AO2 LTG DSNT E-S RAE12 TSE00B02E17 SLP093 TS E MOV E P0007 60047 70047 T01220117 10217 20122 53003,0,4,0,16090.0,1,0,0,"DS,TS"
2026-04-14 11:23:00,SPECI KUGN 141123Z COR 14005KT 10SM BKN003 BKN045 OVC070 12/12 A2981 RMK AO2 LTG DSNT SW RAE12 TSE00B02E17 P0007 T01220117,0,5,0,16090.0,1,0,0,"DS,TS"
2026-04-14 11:03:00,SPECI KUGN 141103Z COR 15007KT 4SM -TSRA BR BKN003 BKN045 OVC070 12/12 A2979 RMK AO2 LTG DSNT SW TSE00B02 TS E MOV E P0007 T01220122,0,7,0,6436.0,1,0,1,"BR,DS,RA,TS"
2026-04-14 11:01:00,SPECI KUGN 141101Z 15008KT 4SM VCTS RA BR FEW003 BKN070 OVC085 12/12 A2979 RMK AO2 LTG DSNT SW TSE00 TS MOV E P0007 T01220122,0,8,0,6436.0,1,0,1,"BR,DS,RA,TS,VC"
2026-04-14 10:52:00,SPECI KUGN 141052Z 15006KT 5SM TSRA BR SCT050 OVC075 12/12 A2979 RMK AO2 LTG DSNT E AND SW TS OVHD MOV E P0001 T01220122,0,6,0,8045.0,1,0,1,"BR,DS,RA,TS"
2026-04-14 10:51:00,METAR KUGN 141051Z VRB05KT 5SM TSRA BR SCT055 BKN070 OVC085 12/12 A2979 RMK AO2 LTG DSNT E AND SW RAB0958 TSB43 SLP083 P0028 T01220122,0,5,0,8045.0,1,0,1,"BR,DS,RA,TS"
2026-04-14 10:49:00,SPECI KUGN 141049Z 07006KT 6SM -TSRA BR SCT049 BKN070 OVC085 12/12 A2979 RMK AO2 LTG DSNT NE AND E AND SW RAB0958 TSB43 P0027,0,6,0,9654.0,1,0,1,"BR,DS,RA"
2026-04-14 10:35:00,SPECI KUGN 141035Z AUTO 17005KT 6SM VCTS -RA BR BKN043 BKN070 OVC090 13/12 A2983 RMK AO2 LTG DSNT ALQDS RAB0958 P0024 T01280122,0,5,0,9654.0,1,0,1,"-RA,BR,DS,RA,TS,VC"
2026-04-14 10:27:00,SPECI KUGN 141027Z AUTO 11005KT 2 1/2SM VCTS +RA BR OVC043 13/12 A2981 RMK AO2 LTG DSNT NE AND E AND W RAB0958 P0023 T01280122,0,5,0,4022.0,1,1,1,"+RA,BR,DS,RA,TS,VC"
2026-04-14 10:06:00,SPECI KUGN 141006Z AUTO 07003KT 10SM VCTS -RA SCT006 OVC044 13/13 A2982 RMK AO2 LTG DSNT W AND NW RAB0958 P0001 T01330128,0,3,0,16090.0,1,0,0,"-RA,DS,RA,TS,VC"
2026-04-14 09:51:00,METAR KUGN 140951Z AUTO 01008KT 10SM BKN007 OVC040 13/13 A2981 RMK AO2 LTG DSNT W-NE RAE08 SLP087 P0000 T01330128,0,8,0,16090.0,0,0,0,DS
2026-04-14 09:49:00,SPECI KUGN 140949Z AUTO 03006KT 10SM BKN007 OVC040 13/13 A2981 RMK AO2 LTG DSNT W-NE RAE08 P0000,0,6,0,16090.0,0,0,0,DS
2026-04-14 09:31:00,SPECI KUGN 140931Z AUTO 01008KT 10SM FEW008 BKN040 OVC050 14/13 A2982 RMK AO2 RAE08 PRESRR P0000 T01390128,0,8,0,16090.0,0,0,0,
2026-04-14 08:51:00,METAR KUGN 140851Z AUTO 09007KT 10SM -RA SCT060 BKN075 OVC100 15/14 A2978 RMK AO2 LTG DSNT SE AND S TSE0756 SLP078 P0003 60012 T01500139 50030,0,7,0,16090.0,1,0,0,"-RA,DS,TS"
2026-04-14 08:22:00,SPECI KUGN 140822Z AUTO 36006KT 10SM -RA BKN065 OVC080 15/14 A2980 RMK AO2 LTG DSNT SE TSE0756 P0002 T01500144,0,6,0,16090.0,1,0,0,"-RA,DS,TS"
2026-04-14 08:02:00,SPECI KUGN 140802Z AUTO 34007G16KT 10SM VCTS -RA BKN065 OVC075 15/14 A2980 RMK AO2 LTG DSNT SE AND SW TSE0756 P0001 T01500139,0,7,1,16090.0,1,0,0,"-RA,DS,TS,VC"
2026-04-14 07:51:00,METAR KUGN 140751Z AUTO 34010G23KT 8SM -TSRA SCT055 BKN070 OVC095 16/14 A2979 RMK AO2 PK WND 29045/0718 WSHFT 0711 RAB18 TSB41 SLP081 P0009 T01560139,0,10,1,12872.0,1,0,0,RA
2026-04-14 07:47:00,SPECI KUGN 140747Z AUTO 33013G30KT 6SM TSRA BR FEW029 BKN050 OVC080 16/14 A2979 RMK AO2 PK WND 29045/0718 WSHFT 0711 RAB18 TSB41 P0009,0,13,1,9654.0,1,0,1,"BR,RA,TS"
2026-04-14 07:39:00,SPECI KUGN 140739Z AUTO 33017G37KT 6SM -RA BR FEW025 BKN070 OVC090 16/14 A2978 RMK AO2 PK WND 29045/0718 WSHFT 0711 LTG DSNT NW RAB18 P0007 T01560139,0,17,1,9654.0,0,0,1,"-RA,BR,DS"
2026-04-14 07:31:00,SPECI KUGN 140731Z AUTO 32019G35KT 6SM VCTS -RA BR FEW029 SCT042 BKN065 16/14 A2977 RMK AO2 PK WND 29045/0718 WSHFT 0711 LTG DSNT NW RAB18 P0005 T01610144,0,19,1,9654.0,1,0,1,"-RA,BR,DS,TS,VC"
2026-04-14 07:20:00,SPECI KUGN 140720Z AUTO 31030G45KT 5SM VCTS RA FEW027 SCT043 BKN085 19/15 A2976 RMK AO2 PK WND 29045/0718 WSHFT 0706 LTG DSNT W AND NW RAB18 PRESRR P0003 T01940150,0,30,1,8045.0,1,0,0,"DS,RA,TS,VC"
2026-04-14 06:51:00,METAR KUGN 140651Z AUTO 22018G27KT 10SM FEW046 21/17 A2969 RMK AO2 PK WND 21030/0604 SLP045 T02110172,0,18,1,16090.0,0,0,0,
2026-04-14 05:51:00,METAR KUGN 140551Z AUTO 22019G28KT 10SM CLR 22/17 A2972 RMK AO2 PK WND 22031/0515 SLP053 T02170172 10228 20144 402440144 56006,0,19,1,16090.0,0,0,0,
2026-04-14 04:51:00,METAR KUGN 140451Z AUTO 21021G30KT 10SM CLR 22/17 A2972 RMK AO2 PK WND 20034/0414 SLP055 T02220167,0,21,1,16090.0,0,0,0,
2026-04-14 03:51:00,METAR KUGN 140351Z AUTO 20019G28KT 10SM CLR 22/17 A2973 RMK AO2 PK WND 20028/0320 SLP056 T02220167,0,19,1,16090.0,0,0,0,
2026-04-14 02:51:00,METAR KUGN 140251Z AUTO 20019G27KT 10SM CLR 23/17 A2974 RMK AO2 PK WND 19027/0250 SLP059 T02280167 56019,0,19,1,16090.0,0,0,0,
2026-04-14 01:51:00,METAR KUGN 140151Z AUTO 15008KT 10SM CLR 16/12 A2974 RMK AO2 SLP063 T01560122,0,8,0,16090.0,0,0,0,
2026-04-14 00:51:00,METAR KUGN 140051Z COR 00000KT 10SM CLR 16/12 A2977 RMK AO2 SLP073 T01610122 LAST,0,0,0,16090.0,0,0,0,
2026-04-13 23:51:00,METAR KUGN 132351Z 14007KT 10SM CLR 18/13 A2979 RMK AO2 LTG DSNT S SLP083 T01780133 10244 20178 58008,0,7,0,16090.0,0,0,0,DS
2026-04-13 22:51:00,METAR KUGN 132251Z 18003KT 10SM CLR 24/17 A2983 RMK AO2 SLP090 T02390167,0,3,0,16090.0,0,0,0,
2026-04-13 21:51:00,METAR KUGN 132151Z 24007KT 10SM FEW120 23/17 A2984 RMK AO2 SLP095 T02330172,0,7,0,16090.0,0,0,0,
2026-04-13 20:51:00,METAR KUGN 132051Z 29005KT 10SM CLR 24/17 A2982 RMK AO2 SLP089 T02390172 58023,0,5,0,16090.0,0,0,0,
2026-04-13 19:51:00,METAR KUGN 131951Z 21009KT 10SM SCT034 22/17 A2987 RMK AO2 SLP106 T02220172,0,9,0,16090.0,0,0,0,
2026-04-13 19:35:00,SPECI KUGN 131935Z 23010KT 10SM FEW025 BKN032 22/17 A2988 RMK AO2 T02220172,0,10,0,16090.0,0,0,0,
2026-04-13 18:51:00,METAR KUGN 131851Z 22014G23KT 10SM OVC026 22/18 A2990 RMK AO2 SLP117 T02220178,0,14,1,16090.0,0,0,0,
2026-04-13 17:51:00,METAR KUGN 131751Z 23013KT 10SM OVC020 22/18 A2989 RMK AO2 SLP114 T02220178 10228 20183 58004,0,13,0,16090.0,0,0,0,
2026-04-13 16:51:00,METAR KUGN 131651Z 24013KT 10SM OVC020 22/18 A2989 RMK AO2 SLP114 T02220178,0,13,0,16090.0,0,0,0,
2026-04-13 15:51:00,METAR KUGN 131551Z 23015G21KT 10SM BKN018 22/18 A2990 RMK AO2 SLP119 T02170178,0,15,1,16090.0,0,0,0,
2026-04-13 14:51:00,METAR KUGN 131451Z 24016G22KT 10SM OVC018 21/18 A2990 RMK AO2 SLP117 T02110178 51016,0,16,1,16090.0,0,0,0,
2026-04-13 13:51:00,METAR KUGN 131351Z 24012KT 10SM OVC017 19/17 A2989 RMK AO2 SLP113 T01940172,0,12,0,16090.0,0,0,0,
2026-04-13 13:25:00,SPECI KUGN 131325Z 24013KT 10SM BKN015 BKN026 19/17 A2988 RMK AO2 T01940172,0,13,0,16090.0,0,0,0,
2026-04-13 12:51:00,METAR KUGN 131251Z 24010G19KT 10SM BKN013 BKN026 19/17 A2988 RMK AO2 SLP110 T01890172,0,10,1,16090.0,0,0,0,
2026-04-13 11:51:00,METAR KUGN 131151Z 24010KT 10SM BKN013 OVC017 18/17 A2985 RMK AO2 SLP099 60000 70019 T01830167 10183 20161 53013 $,0,10,0,16090.0,0,0,0,
2026-04-13 10:51:00,METAR KUGN 131051Z 24011KT 10SM OVC012 18/17 A2982 RMK AO2 SLP089 T01780167 $,0,11,0,16090.0,0,0,0,
2026-04-13 10:28:00,SPECI KUGN 131028Z AUTO 24011KT 10SM OVC010 17/17 A2982 RMK AO2 CIG 008V013 T01720167 $,0,11,0,16090.0,0,0,0,
2026-04-13 09:51:00,METAR KUGN 130951Z AUTO 25011KT 10SM OVC009 17/16 A2981 RMK AO2 SLP086 T01720161 $,0,11,0,16090.0,0,0,0,
2026-04-13 09:49:00,SPECI KUGN 130949Z AUTO 25009G19KT 10SM OVC009 17/16 A2981 RMK AO2 $,0,9,1,16090.0,0,0,0,
2026-04-13 08:51:00,METAR KUGN 130851Z AUTO 25013G24KT 10SM OVC011 17/16 A2979 RMK AO2 SLP079 60000 T01720156 53009 $,0,13,1,16090.0,0,0,0,
2026-04-13 07:51:00,METAR KUGN 130751Z AUTO 24015G24KT 10SM BKN013 OVC036 17/15 A2976 RMK AO2 PK WND 24030/0720 SLP069 T01670150 $,0,15,1,16090.0,0,0,0,
2026-04-13 06:58:00,SPECI KUGN 130658Z AUTO 25015G24KT 10SM OVC011 16/16 A2976 RMK AO2 T01610156 $,0,15,1,16090.0,0,0,0,
2026-04-13 06:51:00,METAR KUGN 130651Z AUTO 25016G26KT 10SM OVC009 16/16 A2976 RMK AO2 PK WND 24027/0638 RAE13 CIG 007V013 SLP069 P0000 T01610156 $,0,16,1,16090.0,0,0,0,
2026-04-13 06:28:00,SPECI KUGN 130628Z AUTO 24014G22KT 10SM OVC009 16/15 A2976 RMK AO2 RAE13 CIG 007V012 P0000 T01610150 $,0,14,1,16090.0,0,0,0,
2026-04-13 05:51:00,METAR KUGN 130551Z AUTO 25010G21KT 10SM -RA BKN011 OVC020 16/15 A2976 RMK AO2 PK WND 24026/0530 RAE04B10 SLP071 P0003 60019 T01610150 10239 20156 402720083 55010 $,0,10,1,16090.0,0,0,0,"-RA,RA"
2026-04-13 05:09:00,SPECI KUGN 130509Z AUTO 22013KT 10SM SCT008 BKN013 OVC019 16/15 A2976 RMK AO2 RAE04 P0000 T01610150 $,0,13,0,16090.0,0,0,0,
2026-04-13 05:02:00,SPECI KUGN 130502Z AUTO 22014G20KT 8SM -RA SCT008 OVC016 16/15 A2975 RMK AO2 P0000 T01610150 $,0,14,1,12872.0,0,0,0,-RA
2026-04-13 04:51:00,METAR KUGN 130451Z AUTO 21011KT 5SM -RA BR BKN010 OVC018 16/16 A2975 RMK AO2 CIG 007V012 SLP067 P0005 T01610156 $,0,11,0,8045.0,0,0,1,"-RA,BR"
2026-04-13 04:37:00,SPECI KUGN 130437Z AUTO 21011KT 8SM -RA SCT010 OVC015 16/16 A2976 RMK AO2 P0004 T01610156 $,0,11,0,12872.0,0,0,0,-RA
2026-04-13 03:51:00,METAR KUGN 130351Z AUTO 20007KT 5SM -RA BR BKN008 BKN012 OVC019 16/16 A2977 RMK AO2 CIG 004V009 SLP076 P0009 T01610156 $,0,7,0,8045.0,0,0,1,"-RA,BR"
2026-04-13 03:43:00,SPECI KUGN 130343Z AUTO 20006KT 4SM RA BR BKN008 OVC015 16/16 A2978 RMK AO2 CIG 004V011 P0008 T01610156 $,0,6,0,6436.0,0,0,1,"BR,RA"
2026-04-13 03:27:00,SPECI KUGN 130327Z AUTO 21008KT 5SM -RA BR FEW008 BKN015 OVC024 16/16 A2978 RMK AO2 P0005 T01610156 $,0,8,0,8045.0,0,0,1,"-RA,BR"
2026-04-13 03:07:00,SPECI KUGN 130307Z AUTO 21008KT 5SM -RA BR SCT017 BKN024 OVC038 16/15 A2980 RMK AO2 P0002 T01610150 $,0,8,0,8045.0,0,0,1,"-RA,BR"
2026-04-13 02:51:00,METAR KUGN 130251Z AUTO 22011KT 7SM -RA SCT024 BKN034 OVC043 17/15 A2980 RMK AO2 PK WND 24031/0200 RAE00B16 SLP083 P0002 60002 T01670150 50009 $,0,11,0,11263.0,0,0,0,"-RA,RA"
2026-04-13 01:51:00,METAR KUGN 130151Z AUTO 23016G28KT 10SM -RA FEW037 SCT045 OVC055 18/14 A2980 RMK AO2 PK WND 22042/0137 SLP086 P0000 T01830144 $,0,16,1,16090.0,0,0,0,-RA
2026-04-13 00:51:00,METAR KUGN 130051Z 21019G34KT 10SM -RA FEW055 OVC100 22/13 A2977 RMK AO2 PK WND 20042/0006 RAB20 SLP075 LAST P0000 T02170128 $,0,19,1,16090.0,0,0,0,-RA
2026-04-12 23:51:00,METAR KUGN 122351Z 21021G33KT 10SM BKN070 OVC100 24/12 A2977 RMK AO2 PK WND 23033/2351 SLP073 60000 T02390122 10272 20228 56009 $,0,21,1,16090.0,0,0,0,
2026-04-12 22:51:00,METAR KUGN 122251Z 21020G37KT 10SM FEW060 SCT075 OVC110 25/12 A2977 RMK AO2 PK WND 23037/2245 SLP073 T02500122 $,0,20,1,16090.0,0,0,0,
2026-04-12 21:51:00,METAR KUGN 122151Z 22025G37KT 10SM FEW065 SCT075 BKN090 26/13 A2978 RMK AO2 PK WND 22037/2056 SLP078 T02560128 $,0,25,1,16090.0,0,0,0,
2026-04-12 20:51:00,METAR KUGN 122051Z 21027G38KT 10SM SCT060 BKN095 26/13 A2980 RMK AO2 PK WND 21038/2049 SLP084 60000 T02560128 58025 $,0,27,1,16090.0,0,0,0,
2026-04-12 19:51:00,METAR KUGN 121951Z 21023G33KT 10SM SCT060 SCT090 26/14 A2982 RMK AO2 PK WND 20038/1933 SLP093 T02560139 $,0,23,1,16090.0,0,0,0,
2026-04-12 19:00:00,SPECI KUGN 121900Z 23018G27KT 10SM BKN110 24/14 A2984 RMK AO2 PK WND 21027/1856 T02440144 $,0,18,1,16090.0,0,0,0,
2026-04-12 18:51:00,METAR KUGN 121851Z 22016G31KT 10SM BKN110 25/14 A2985 RMK AO2 PK WND 21032/1837 RAE1759 SLP101 P0000 T02500144 $,0,16,1,16090.0,0,0,0,RA
2026-04-12 17:51:00,METAR KUGN 121751Z 22014G27KT 10SM -RA FEW065 FEW085 OVC110 23/14 A2987 RMK AO2 PK WND 23037/1728 RAB30 SLP110 P0000 60000 T02330144 10256 20150 58021 $,0,14,1,16090.0,0,0,0,-RA
2026-04-12 16:51:00,METAR KUGN 121651Z 21022G30KT 10SM FEW120 24/14 A2989 RMK AO2 PK WND 23030/1650 SLP116 T02440144 $,0,22,1,16090.0,0,0,0,
2026-04-12 15:51:00,METAR KUGN 121551Z 22020G28KT 10SM CLR 21/14 A2992 RMK AO2 PK WND 23032/1513 SLP129 T02060139 $,0,20,1,16090.0,0,0,0,
2026-04-12 14:51:00,METAR KUGN 121451Z 22017G30KT 10SM SCT075 BKN095 BKN120 19/13 A2993 RMK AO2 PK WND 22030/1443 SLP135 T01940128 58009 $,0,17,1,16090.0,0,0,0,
2026-04-12 13:51:00,METAR KUGN 121351Z 21016G25KT 10SM FEW060 SCT075 BKN090 18/12 A2995 RMK AO2 SLP140 T01830122 $,0,16,1,16090.0,0,0,0,
2026-04-12 12:51:00,METAR KUGN 121251Z 21017G23KT 10SM BKN110 17/11 A2996 RMK AO2 SLP145 T01670111 $,0,17,1,16090.0,0,0,0,
2026-04-12 11:51:00,METAR KUGN 121151Z 20013G23KT 10SM CLR 15/10 A2996 RMK AO2 SLP147 T01500100 10150 20083 56019 $,0,13,1,16090.0,0,0,0,
2026-04-12 10:51:00,METAR KUGN 121051Z 20014G22KT 10SM FEW090 FEW120 14/09 A2997 RMK AO2 SLP149 T01440094 $,0,14,1,16090.0,0,0,0,
2026-04-12 09:51:00,METAR KUGN 120951Z AUTO 17007KT 10SM CLR 11/06 A3000 RMK AO2 SLP160 T01110061 $,0,7,0,16090.0,0,0,0,
2026-04-12 08:51:00,METAR KUGN 120851Z AUTO 15005KT 10SM CLR 09/06 A3002 RMK AO2 SLP169 T00890056 56035 $,0,5,0,16090.0,0,0,0,
2026-04-12 07:51:00,METAR KUGN 120751Z AUTO 15006KT 10SM SCT100 09/05 A3005 RMK AO2 SLP178 T00890050 $,0,6,0,16090.0,0,0,0,
2026-04-12 06:51:00,METAR KUGN 120651Z AUTO 14008KT 10SM BKN120 09/05 A3008 RMK AO2 SLP189 T00890050 $,0,8,0,16090.0,0,0,0,
2026-04-12 05:51:00,METAR KUGN 120551Z AUTO 15009KT 10SM FEW080 OVC100 09/05 A3012 RMK AO2 SLP203 T00940050 10100 20056 401001028 56020 $,0,9,0,16090.0,0,0,0,
2026-04-12 04:51:00,METAR KUGN 120451Z AUTO 15011KT 10SM BKN041 BKN120 10/05 A3014 RMK AO2 SLP209 T01000050 $,0,11,0,16090.0,0,0,0,
2026-04-12 03:51:00,METAR KUGN 120351Z AUTO 16007KT 10SM FEW070 OVC090 08/04 A3016 RMK AO2 SLP217 T00830039 $,0,7,0,16090.0,0,0,0,
2026-04-12 02:51:00,METAR KUGN 120251Z AUTO 14005KT 10SM SCT050 OVC080 07/02 A3018 RMK AO2 SLP226 T00670017 58022 $,0,5,0,16090.0,0,0,0,
2026-04-12 01:51:00,METAR KUGN 120151Z AUTO 14005KT 10SM OVC060 07/00 A3021 RMK AO2 SLP235 T00670000 $,0,5,0,16090.0,0,0,0,
2026-04-12 00:51:00,METAR KUGN 120051Z 12006KT 10SM FEW060 06/M01 A3023 RMK AO2 SLP245 T00561011 $,0,6,0,16090.0,0,0,0,
2026-04-11 23:51:00,METAR KUGN 112351Z 10007KT 10SM BKN070 BKN100 BKN120 07/M01 A3025 RMK AO2 SLP253 T00671011 10100 20067 58021 $,0,7,0,16090.0,0,0,0,
2026-04-11 22:51:00,METAR KUGN 112251Z 09005KT 10SM SCT080 08/M01 A3029 RMK AO2 SLP266 T00781011 $,0,5,0,16090.0,0,0,0,
2026-04-11 21:51:00,METAR KUGN 112151Z 11006KT 10SM OVC110 08/M01 A3030 RMK AO2 SLP269 T00781006 $,0,6,0,16090.0,0,0,0,
2026-04-11 20:51:00,METAR KUGN 112051Z 10007KT 10SM SCT110 08/M01 A3031 RMK AO2 SLP274 T00781006 58032 $,0,7,0,16090.0,0,0,0,
2026-04-11 19:51:00,METAR KUGN 111951Z COR 14009KT 10SM OVC100 09/M01 A3035 RMK AO2 SLP285 T00891006 $,0,9,0,16090.0,0,0,0,
2026-04-11 18:51:00,METAR KUGN 111851Z COR 14009KT 10SM BKN100 09/M01 A3038 RMK AO2 SLP298 T00891011 $,0,9,0,16090.0,0,0,0,
2026-04-11 17:51:00,METAR KUGN 111751Z 14007KT 10SM CLR 09/M03 A3041 RMK AO2 SLP306 I6001 T00941028 10100 21011 58011 $,0,7,0,16090.0,0,0,0,
2026-04-11 16:51:00,METAR KUGN 111651Z COR 14010KT 10SM CLR 09/01 A3043 RMK AO2 SLP313 T00940006 $,0,10,0,16090.0,0,0,0,
2026-04-11 15:51:00,METAR KUGN 111551Z 15010KT 10SM CLR 09/02 A3045 RMK AO2 SLP320 T00890017 $,0,10,0,16090.0,0,0,0,
2026-04-11 14:51:00,METAR KUGN 111451Z 16011KT 10SM CLR 07/02 A3044 RMK AO2 SLP317 I3001 T00720017 53006 $,0,11,0,16090.0,0,0,0,
2026-04-11 13:51:00,METAR KUGN 111351Z COR 14007KT 10SM CLR 06/01 A3043 RMK AO2 SLP313 T00610011 $,0,7,0,16090.0,0,0,0,
2026-04-11 12:51:00,METAR KUGN 111251Z COR VRB03KT 10SM CLR 04/02 A3043 RMK AO2 SLP313 I1001 T00390017 $,0,3,0,16090.0,0,0,0,
2026-04-11 11:51:00,METAR KUGN 111151Z 00000KT 4SM BR CLR M01/M01 A3042 RMK AO2 SLP313 70001 I6001 T10061011 10000 21028 53009,0,0,0,6436.0,0,0,1,BR
2026-04-11 10:51:00,METAR KUGN 111051Z 00000KT 6SM BR CLR M02/M03 A3042 RMK AO2 SLP311 I1001 T10221028,0,0,0,9654.0,0,0,1,BR
2026-04-11 09:51:00,METAR KUGN 110951Z AUTO 26003KT 4SM BR CLR M01/M02 A3040 RMK AO2 SLP304 T10111017,0,3,0,6436.0,0,0,1,BR
2026-04-11 08:51:00,METAR KUGN 110851Z AUTO 25003KT 10SM CLR M02/M02 A3040 RMK AO2 SLP303 I1000 I3000 T10171017 53007,0,3,0,16090.0,0,0,0,
2026-04-11 07:51:00,METAR KUGN 110751Z AUTO 00000KT 4SM BR CLR M02/M02 A3038 RMK AO2 SLP298 T10171017,0,0,0,6436.0,0,0,1,BR
2026-04-11 06:51:00,METAR KUGN 110651Z AUTO 00000KT 8SM CLR M01/M01 A3038 RMK AO2 SLP297 T10111011,0,0,0,12872.0,0,0,0,
2026-04-11 05:51:00,METAR KUGN 110551Z AUTO 00000KT 9SM CLR M01/M01 A3038 RMK AO2 SLP294 T10061006 10044 21006 401001006 56004,0,0,0,14481.0,0,0,0,
2026-04-11 04:51:00,METAR KUGN 110451Z AUTO 00000KT 9SM CLR 00/M01 A3038 RMK AO2 SLP294 T00001006,0,0,0,14481.0,0,0,0,
2026-04-11 03:51:00,METAR KUGN 110351Z AUTO 00000KT 10SM CLR 01/00 A3039 RMK AO2 SLP298 T00060000,0,0,0,16090.0,0,0,0,
2026-04-11 02:51:00,METAR KUGN 110251Z AUTO 00000KT 10SM CLR 01/00 A3039 RMK AO2 SLP299 T00110000 53015,0,0,0,16090.0,0,0,0,
2026-04-11 01:51:00,METAR KUGN 110151Z AUTO 00000KT 10SM FEW049 02/00 A3038 RMK AO2 SLP294 T00220000,0,0,0,16090.0,0,0,0,
2026-04-11 00:51:00,METAR KUGN 110051Z 08004KT 10SM CLR 03/00 A3035 RMK AO2 SLP285 LAST T00330000,0,4,0,16090.0,0,0,0,
2026-04-10 23:53:00,SPECI KUGN 102353Z 07006KT 10SM SCT048 04/01 A3034 RMK AO2 T00440006,0,6,0,16090.0,0,0,0,
2026-04-10 23:51:00,METAR KUGN 102351Z 06005KT 10SM OVC048 04/01 A3034 RMK AO2 SLP283 T00440006 10100 20044 51020,0,5,0,16090.0,0,0,0,
2026-04-10 22:51:00,METAR KUGN 102251Z 06011KT 10SM SCT006 SCT011 06/03 A3033 RMK AO2 SLP277 T00560028,0,11,0,16090.0,0,0,0,
2026-04-10 22:25:00,SPECI KUGN 102225Z 05008KT 10SM SCT008 BKN037 OVC050 06/04 A3032 RMK AO2 T00560044,0,8,0,16090.0,0,0,0,
2026-04-10 22:14:00,SPECI KUGN 102214Z 05009KT 10SM BKN008 BKN037 OVC050 06/04 A3032 RMK AO2 CIG 006V011 T00610044,0,9,0,16090.0,0,0,0,
2026-04-10 21:51:00,METAR KUGN 102151Z 06010G17KT 10SM FEW030 BKN050 08/05 A3031 RMK AO2 SLP270 T00780050,0,10,1,16090.0,0,0,0,
2026-04-10 20:51:00,METAR KUGN 102051Z 11007KT 10SM BKN031 OVC045 09/06 A3029 RMK AO2 SLP262 T00890061 51008,0,7,0,16090.0,0,0,0,
2026-04-10 19:51:00,METAR KUGN 101951Z 12005KT 10SM BKN023 OVC039 08/06 A3028 RMK AO2 SLP260 T00830061,0,5,0,16090.0,0,0,0,
2026-04-10 18:51:00,METAR KUGN 101851Z VRB04KT 10SM FEW018 OVC025 09/06 A3027 RMK AO2 SLP256 T00940056,0,4,0,16090.0,0,0,0,
2026-04-10 17:51:00,METAR KUGN 101751Z 33007KT 10SM OVC019 09/06 A3026 RMK AO2 SLP253 60001 T00890056 10089 20056 51015,0,7,0,16090.0,0,0,0,
2026-04-10 16:51:00,METAR KUGN 101651Z 35005KT 10SM OVC017 09/06 A3024 RMK AO2 SLP247 T00890056,0,5,0,16090.0,0,0,0,
2026-04-10 16:42:00,SPECI KUGN 101642Z 36006KT 10SM OVC015 08/05 A3024 RMK AO2 T00830050,0,6,0,16090.0,0,0,0,
2026-04-10 15:51:00,METAR KUGN 101551Z 35007KT 10SM OVC012 08/05 A3024 RMK AO2 SLP246 T00780050,0,7,0,16090.0,0,0,0,
2026-04-10 15:18:00,SPECI KUGN 101518Z 34005KT 10SM BKN011 OVC030 07/06 A3023 RMK AO2 T00720056,0,5,0,16090.0,0,0,0,
2026-04-10 14:51:00,METAR KUGN 101451Z 34007KT 10SM BKN007 OVC046 07/06 A3022 RMK AO2 SLP238 60001 T00720056 51020,0,7,0,16090.0,0,0,0,
2026-04-10 13:51:00,METAR KUGN 101351Z 36005KT 9SM OVC006 06/06 A3019 RMK AO2 RAB07E24 CIG 005V010 SLP231 P0001 T00610056,0,5,0,14481.0,0,0,0,RA
2026-04-10 13:17:00,SPECI KUGN 101317Z 36005KT 4SM -RA BR BKN006 BKN016 OVC034 06/06 A3018 RMK AO2 RAB07 P0001 T00610056,0,5,0,6436.0,0,0,1,"-RA,BR"
2026-04-10 12:51:00,METAR KUGN 101251Z 36008KT 4SM BR FEW005 BKN016 OVC027 06/05 A3018 RMK AO2 RAB1153E10 SLP226 P0000 T00560050,0,8,0,6436.0,0,0,1,"BR,RA"
2026-04-10 12:10:00,SPECI KUGN 101210Z 01003KT 4SM BR FEW007 BKN017 OVC022 06/05 A3016 RMK AO2 RAB1153E10 P0000 T00560050 $,0,3,0,6436.0,0,0,1,"BR,RA"
2026-04-10 11:59:00,SPECI KUGN 101159Z 01007KT 2 1/2SM -RA BR FEW007 OVC015 06/05 A3016 RMK AO2 RAB53 P0000 T00560050 $,0,7,0,4022.0,0,0,1,"-RA,BR"
2026-04-10 11:51:00,METAR KUGN 101151Z 01008KT 6SM BR FEW007 OVC014 06/05 A3015 RMK AO2 SLP213 60030 70040 T00560050 10056 20044 53025 $,0,8,0,9654.0,0,0,1,BR
2026-04-10 11:42:00,SPECI KUGN 101142Z 35008KT 7SM SCT007 OVC013 06/05 A3016 RMK AO2 T00560050 $,0,8,0,11263.0,0,0,0,
2026-04-10 11:33:00,SPECI KUGN 101133Z 36007KT 9SM BKN005 OVC013 06/05 A3015 RMK AO2 CIG 003V008 T00560050 $,0,7,0,14481.0,0,0,0,
2026-04-10 10:51:00,METAR KUGN 101051Z COR 36007KT 4SM BR OVC002 05/05 A3012 RMK AO2 SLP203 T00500050 $,0,7,0,6436.0,0,0,1,BR
2026-04-10 09:51:00,METAR KUGN 100951Z AUTO 03004KT 7SM OVC002 04/04 A3010 RMK AO2 SLP194 T00440044 $,0,4,0,11263.0,0,0,0,
2026-04-10 08:51:00,METAR KUGN 100851Z AUTO 05006KT 10SM OVC003 04/04 A3008 RMK AO2 RAE43 SLP186 P0002 60030 T00440044 58022 $,0,6,0,16090.0,0,0,0,
2026-04-10 07:51:00,METAR KUGN 100751Z AUTO 01005KT 6SM -RA BR BKN004 OVC055 05/04 A3011 RMK AO2 SLP195 P0017 T00500044 $,0,5,0,9654.0,0,0,1,"-RA,BR"
2026-04-10 07:30:00,SPECI KUGN 100730Z AUTO 06005KT 5SM RA BR FEW004 OVC055 05/04 A3011 RMK AO2 P0012 T00500044 $,0,5,0,8045.0,0,0,1,"BR,RA"
2026-04-10 06:51:00,METAR KUGN 100651Z AUTO 04006KT 5SM RA BR OVC065 05/04 A3012 RMK AO2 SLP201 P0011 T00500044 $,0,6,0,8045.0,0,0,1,"BR,RA"
2026-04-10 05:51:00,METAR KUGN 100551Z AUTO 03005KT 9SM -RA OVC070 05/04 A3015 RMK AO2 SLP209 P0003 60010 T00500039 10150 20050 402000050 55001 $,0,5,0,14481.0,0,0,0,-RA
2026-04-10 04:51:00,METAR KUGN 100451Z AUTO 05007KT 10SM -RA OVC080 05/03 A3011 RMK AO2 SLP198 P0004 T00500033 $,0,7,0,16090.0,0,0,0,-RA
2026-04-10 03:51:00,METAR KUGN 100351Z AUTO 03005KT 10SM -RA OVC075 05/03 A3014 RMK AO2 SLP210 P0002 T00500028 $,0,5,0,16090.0,0,0,0,-RA
2026-04-10 02:51:00,METAR KUGN 100251Z AUTO 04007KT 10SM -RA OVC080 06/02 A3015 RMK AO2 SLP211 P0001 60001 T00560022 53006 $,0,7,0,16090.0,0,0,0,-RA
2026-04-10 01:51:00,METAR KUGN 100151Z AUTO 04009KT 10SM -RA BKN080 OVC095 07/02 A3011 RMK AO2 RAE0052B38 SLP198 P0000 T00670022,0,9,0,16090.0,0,0,0,"-RA,RA"
2026-04-10 00:51:00,METAR KUGN 100051Z COR 03005KT 10SM -RA FEW065 SCT080 OVC100 08/04 A3013 RMK AO2 RAB26 SLP204 P0000 T00830039 LAST,0,5,0,16090.0,0,0,0,-RA
2026-04-09 23:51:00,METAR KUGN 092351Z 00000KT 10SM SCT110 14/04 A3013 RMK AO2 SLP203 T01440044 10200 20144 53007,0,0,0,16090.0,0,0,0,
2026-04-09 22:51:00,METAR KUGN 092251Z 00000KT 10SM CLR 16/04 A3012 RMK AO2 SLP198 T01610039,0,0,0,16090.0,0,0,0,
2026-04-09 21:51:00,METAR KUGN 092151Z COR 15005KT 10SM CLR 16/03 A3011 RMK AO2 SLP193 T01610033,0,5,0,16090.0,0,0,0,
2026-04-09 20:51:00,METAR KUGN 092051Z 28007KT 250V310 10SM CLR 20/01 A3011 RMK AO2 SLP191 T02000006 56009,0,7,0,16090.0,0,0,0,
2026-04-09 19:51:00,METAR KUGN 091951Z 26011KT 10SM CLR 19/01 A3012 RMK AO2 SLP192 T01940006,0,11,0,16090.0,0,0,0,
2026-04-09 18:51:00,METAR KUGN 091851Z 24011G18KT 10SM CLR 19/00 A3012 RMK AO2 SLP195 T01940000,0,11,1,16090.0,0,0,0,
2026-04-09 17:51:00,METAR KUGN 091751Z 28010G18KT 10SM CLR 18/00 A3014 RMK AO2 SLP200 T01830000 10183 20089 50004,0,10,1,16090.0,0,0,0,
2026-04-09 16:51:00,METAR KUGN 091651Z 25011G18KT 10SM CLR 17/03 A3014 RMK AO2 SLP199 T01720033,0,11,1,16090.0,0,0,0,
2026-04-09 15:51:00,METAR KUGN 091551Z 26013G20KT 10SM CLR 16/03 A3014 RMK AO2 SLP201 T01560028,0,13,1,16090.0,0,0,0,
2026-04-09 14:51:00,METAR KUGN 091451Z 26010G17KT 10SM CLR 15/03 A3013 RMK AO2 SLP196 T01500028 53018,0,10,1,16090.0,0,0,0,
2026-04-09 13:51:00,METAR KUGN 091351Z 26013G20KT 10SM CLR 15/02 A3011 RMK AO2 SLP189 T01500017,0,13,1,16090.0,0,0,0,
2026-04-09 12:51:00,METAR KUGN 091251Z 22007KT 10SM FEW120 12/05 A3009 RMK AO2 SLP184 T01220050,0,7,0,16090.0,0,0,0,
2026-04-09 11:51:00,METAR KUGN 091151Z 23007KT 10SM SCT080 10/04 A3007 RMK AO2 SLP180 60000 T01000044 10167 20100 53019,0,7,0,16090.0,0,0,0,
2026-04-09 10:51:00,METAR KUGN 091051Z 22006KT 10SM OVC080 11/06 A3005 RMK AO2 SLP171 T01110056,0,6,0,16090.0,0,0,0,
2026-04-09 09:51:00,METAR KUGN 090951Z AUTO 26004KT 10SM SCT090 13/06 A3003 RMK AO2 SLP165 T01280056,0,4,0,16090.0,0,0,0,
2026-04-09 08:51:00,METAR KUGN 090851Z AUTO 29008G16KT 10SM BKN085 OVC100 14/08 A3001 RMK AO2 SLP157 60000 T01440078 53016,0,8,1,16090.0,0,0,0,
2026-04-09 07:51:00,METAR KUGN 090751Z AUTO 25010G22KT 10SM BKN085 OVC110 16/06 A2997 RMK AO2 PK WND 22029/0714 SLP142 T01610061,0,10,1,16090.0,0,0,0,
2026-04-09 06:51:00,METAR KUGN 090651Z AUTO 21016G32KT 10SM OVC090 16/06 A2995 RMK AO2 PK WND 21032/0623 RAE0557 SLP138 P0000 T01610061,0,16,1,16090.0,0,0,0,RA
2026-04-09 05:51:00,METAR KUGN 090551Z AUTO 21022G30KT 10SM -RA FEW080 OVC100 16/06 A2997 RMK AO2 PK WND 21039/0503 RAB18 SLP145 P0000 60000 T01610061 10200 20161 402110011 53000,0,22,1,16090.0,0,0,0,-RA
2026-04-09 04:51:00,METAR KUGN 090451Z AUTO 21020G32KT 10SM OVC090 18/04 A2997 RMK AO2 PK WND 20035/0434 SLP145 T01830044,0,20,1,16090.0,0,0,0,
2026-04-09 03:51:00,METAR KUGN 090351Z AUTO 20018G28KT 10SM SCT100 18/05 A2996 RMK AO2 PK WND 20031/0309 SLP143 T01780050,0,18,1,16090.0,0,0,0,
2026-04-09 02:51:00,METAR KUGN 090251Z AUTO 20018G31KT 10SM CLR 19/04 A2996 RMK AO2 PK WND 20031/0247 SLP145 T01890044 58001,0,18,1,16090.0,0,0,0,
2026-04-09 01:51:00,METAR KUGN 090151Z AUTO 20017G25KT 10SM CLR 19/04 A2997 RMK AO2 PK WND 21029/0139 SLP148 T01890044,0,17,1,16090.0,0,0,0,
2026-04-09 00:51:00,METAR KUGN 090051Z COR 21017G26KT 10SM CLR 19/04 A2997 RMK AO2 PK WND 20032/2353 SLP149 T01940044 LAST,0,17,1,16090.0,0,0,0,
2026-04-08 23:51:00,METAR KUGN 082351Z 21023G35KT 10SM CLR 20/04 A2997 RMK AO2 PK WND 20037/2326 SLP148 T02000039 10211 20117 55012,0,23,1,16090.0,0,0,0,
2026-04-08 22:51:00,METAR KUGN 082251Z 20026G39KT 10SM CLR 21/04 A2995 RMK AO2 PK WND 19044/2214 SLP143 T02110044,0,26,1,16090.0,0,0,0,
2026-04-08 21:51:00,METAR KUGN 082151Z 20021G32KT 10SM CLR 21/04 A2996 RMK AO2 PK WND 20036/2103 SLP147 T02110044,0,21,1,16090.0,0,0,0,
2026-04-08 20:51:00,METAR KUGN 082051Z 21021G32KT 10SM CLR 21/04 A3000 RMK AO2 PK WND 20032/2048 SLP160 T02060044 56033,0,21,1,16090.0,0,0,0,
2026-04-08 19:51:00,METAR KUGN 081951Z 19019G34KT 10SM CLR 19/03 A3003 RMK AO2 PK WND 19036/1939 WSHFT 1905 SLP171 T01940033,0,19,1,16090.0,0,0,0,
2026-04-08 19:25:00,SPECI KUGN 081925Z 19022G29KT 10SM CLR 18/03 A3005 RMK AO2 PK WND 19029/1924 WSHFT 1905 T01780028,0,22,1,16090.0,0,0,0,
2026-04-08 18:51:00,METAR KUGN 081851Z 15012G19KT 10SM CLR 14/03 A3007 RMK AO2 SLP186 T01440028,0,12,1,16090.0,0,0,0,
2026-04-08 17:51:00,METAR KUGN 081751Z 14009KT 10SM CLR 12/03 A3010 RMK AO2 SLP199 T01170028 10117 20028 58031,0,9,0,16090.0,0,0,0,
2026-04-08 16:51:00,METAR KUGN 081651Z 14011KT 10SM CLR 10/01 A3014 RMK AO2 SLP212 T01000011,0,11,0,16090.0,0,0,0,
2026-04-08 15:51:00,METAR KUGN 081551Z 15012KT 10SM CLR 09/01 A3017 RMK AO2 SLP224 T00890006,0,12,0,16090.0,0,0,0,
2026-04-08 14:51:00,METAR KUGN 081451Z 16013G21KT 10SM CLR 06/M01 A3020 RMK AO2 SLP235 T00611006 58024,0,13,1,16090.0,0,0,0,
2026-04-08 13:51:00,METAR KUGN 081351Z COR 15014KT 10SM SCT080 BKN095 04/00 A3023 RMK AO2 SLP248 T00440000,0,14,0,16090.0,0,0,0,
2026-04-08 12:51:00,METAR KUGN 081251Z 15014KT 10SM SCT075 OVC100 03/M01 A3026 RMK AO2 SLP256 T00331011,0,14,0,16090.0,0,0,0,
2026-04-08 11:51:00,METAR KUGN 081151Z 15009G20KT 10SM SCT080 BKN095 03/M02 A3027 RMK AO2 SLP261 60002 70002 T00281017 10033 20011 56013,0,9,1,16090.0,0,0,0,
2026-04-08 10:51:00,METAR KUGN 081051Z 14016G24KT 10SM BKN080 OVC095 02/M02 A3027 RMK AO2 SLP262 T00221022,0,16,1,16090.0,0,0,0,
2026-04-08 09:51:00,METAR KUGN 080951Z AUTO 15010G18KT 10SM OVC110 02/M01 A3028 RMK AO2 RAE22 SLP266 P0001 T00221011,0,10,1,16090.0,0,0,0,
2026-04-08 08:51:00,METAR KUGN 080851Z AUTO 15007KT 10SM -RA OVC060 03/M02 A3031 RMK AO2 RAB23 SLP273 P0001 60001 T00281017 56010,0,7,0,16090.0,0,0,0,-RA
2026-04-08 07:51:00,METAR KUGN 080751Z AUTO 14008KT 10SM BKN055 BKN120 03/M02 A3031 RMK AO2 SLP276 T00281022,0,8,0,16090.0,0,0,0,
2026-04-08 06:51:00,METAR KUGN 080651Z AUTO 13008KT 10SM SCT060 02/M02 A3032 RMK AO2 SLP277 T00221017,0,8,0,16090.0,0,0,0,
2026-04-08 05:51:00,METAR KUGN 080551Z AUTO 13006KT 10SM OVC065 01/M02 A3033 RMK AO2 SLP284 T00111017 10011 21022 400111033 58020,0,6,0,16090.0,0,0,0,
2026-04-08 04:51:00,METAR KUGN 080451Z AUTO 13007KT 10SM SCT070 BKN120 01/M03 A3036 RMK AO2 SLP292 T00061028,0,7,0,16090.0,0,0,0,
2026-04-08 03:51:00,METAR KUGN 080351Z AUTO 12005KT 10SM SCT120 00/M04 A3038 RMK AO2 SLP301 T00001044,0,5,0,16090.0,0,0,0,
2026-04-08 02:51:00,METAR KUGN 080251Z AUTO 11004KT 10SM CLR M02/M06 A3039 RMK AO2 SLP307 T10171061 56007,0,4,0,16090.0,0,0,0,
2026-04-08 01:51:00,METAR KUGN 080151Z AUTO 11003KT 10SM CLR M02/M07 A3040 RMK AO2 SLP309 T10171067,0,3,0,16090.0,0,0,0,
2026-04-08 00:51:00,METAR KUGN 080051Z 09004KT 10SM CLR M02/M07 A3040 RMK AO2 SLP310 T10171072,0,4,0,16090.0,0,0,0,
2026-04-07 23:51:00,METAR KUGN 072351Z 09005KT 10SM CLR M01/M07 A3042 RMK AO2 SLP315 T10111072 10011 21011 56016,0,5,0,16090.0,0,0,0,
2026-04-07 22:51:00,METAR KUGN 072251Z 08006KT 10SM CLR M01/M07 A3043 RMK AO2 SLP318 T10061072,0,6,0,16090.0,0,0,0,
2026-04-07 21:51:00,METAR KUGN 072151Z 11006KT 10SM CLR 00/M07 A3045 RMK AO2 SLP326 T00001067,0,6,0,16090.0,0,0,0,
2026-04-07 20:51:00,METAR KUGN 072051Z 11004KT 10SM CLR 01/M06 A3047 RMK AO2 SLP330 T00061061 58018,0,4,0,16090.0,0,0,0,
2026-04-07 19:51:00,METAR KUGN 071951Z 11009G16KT 10SM CLR 01/M07 A3048 RMK AO2 SLP336 T00061072,0,9,1,16090.0,0,0,0,
2026-04-07 18:51:00,METAR KUGN 071851Z 11009KT 10SM CLR 00/M08 A3051 RMK AO2 SLP345 T00001078,0,9,0,16090.0,0,0,0,
2026-04-07 17:51:00,METAR KUGN 071751Z 08009G15KT 10SM CLR 00/M08 A3052 RMK AO2 SLP348 T00001083 10006 21033 58006,0,9,1,16090.0,0,0,0,
2026-04-07 17:23:00,SPECI KUGN 071723Z COR 10006G14KT 10SM FEW031 00/M08 A3053 RMK AO2 T00001078,0,6,1,16090.0,0,0,0,
2026-04-07 16:51:00,METAR KUGN 071651Z 09010G16KT 10SM FEW032 00/M08 A3054 RMK AO2 SLP355 T00001083,0,10,1,16090.0,0,0,0,
2026-04-07 16:25:00,SPECI KUGN 071625Z 10008KT 10SM FEW033 00/M08 A3055 RMK AO2 T00001078,0,8,0,16090.0,0,0,0,
2026-04-07 16:03:00,SPECI KUGN 071603Z COR 06006G15KT 10SM FEW032 M01/M08 A3055 RMK AO2 T10061083,0,6,1,16090.0,0,0,0,
2026-04-07 15:51:00,METAR KUGN 071551Z COR 08007G15KT 040V110 10SM FEW032 M01/M09 A3055 RMK AO2 SLP359 T10061089,0,7,1,16090.0,0,0,0,
2026-04-07 15:40:00,SPECI KUGN 071540Z 04008G17KT 10SM FEW032 M01/M09 A3055 RMK AO2 T10061089,0,8,1,16090.0,0,0,0,
2026-04-07 14:51:00,METAR KUGN 071451Z 03010KT 10SM CLR M01/M09 A3054 RMK AO2 SLP354 T10061089 51014,0,10,0,16090.0,0,0,0,
2026-04-07 13:51:00,METAR KUGN 071351Z 04011KT 10SM CLR M01/M09 A3052 RMK AO2 SLP350 T10111094,0,11,0,16090.0,0,0,0,
2026-04-07 12:51:00,METAR KUGN 071251Z 03010KT 10SM CLR M02/M10 A3051 RMK AO2 SLP346 T10171100,0,10,0,16090.0,0,0,0,
2026-04-07 11:51:00,METAR KUGN 071151Z 03006KT 10SM CLR M03/M10 A3049 RMK AO2 SLP338 T10331100 11006 21033 53016,0,6,0,16090.0,0,0,0,
2026-04-07 10:51:00,METAR KUGN 071051Z 03010KT 10SM CLR M03/M10 A3047 RMK AO2 SLP329 T10281100,0,10,0,16090.0,0,0,0,
2026-04-07 09:51:00,METAR KUGN 070951Z AUTO 02007KT 10SM CLR M02/M09 A3046 RMK AO2 SLP325 T10221094,0,7,0,16090.0,0,0,0,
2026-04-07 08:51:00,METAR KUGN 070851Z AUTO 01006G17KT 10SM BKN033 M02/M08 A3045 RMK AO2 SLP319 T10171078 53017,0,6,1,16090.0,0,0,0,
2026-04-07 07:51:00,METAR KUGN 070751Z AUTO 02006G18KT 10SM BKN035 M01/M07 A3042 RMK AO2 SLP311 T10111072,0,6,1,16090.0,0,0,0,
2026-04-07 06:51:00,METAR KUGN 070651Z AUTO 03010KT 10SM BKN031 M01/M07 A3041 RMK AO2 SLP306 T10061067,0,10,0,16090.0,0,0,0,
2026-04-07 06:44:00,SPECI KUGN 070644Z AUTO 03010G16KT 10SM BKN031 M01/M06 A3041 RMK AO2 T10061061,0,10,1,16090.0,0,0,0,
2026-04-07 05:51:00,METAR KUGN 070551Z AUTO 03009G17KT 10SM BKN028 M01/M06 A3040 RMK AO2 SLP302 T10061056 10067 21006 401061006 53017,0,9,1,16090.0,0,0,0,
2026-04-07 04:51:00,METAR KUGN 070451Z AUTO 02009KT 10SM OVC026 M01/M05 A3038 RMK AO2 SLP295 T10061050,0,9,0,16090.0,0,0,0,
2026-04-07 03:51:00,METAR KUGN 070351Z AUTO 03009G20KT 10SM BKN022 00/M04 A3036 RMK AO2 SLP290 T00001044,0,9,1,16090.0,0,0,0,
2026-04-07 03:43:00,SPECI KUGN 070343Z AUTO 03010KT 10SM BKN020 BKN060 00/M04 A3036 RMK AO2 T00001044,0,10,0,16090.0,0,0,0,
2026-04-07 03:12:00,SPECI KUGN 070312Z AUTO 03009G17KT 10SM SCT020 OVC065 00/M04 A3035 RMK AO2 T00001039,0,9,1,16090.0,0,0,0,
2026-04-07 02:51:00,METAR KUGN 070251Z AUTO 02011G19KT 10SM BKN018 OVC070 00/M03 A3034 RMK AO2 SLP285 T00001033 51044,0,11,1,16090.0,0,0,0,
2026-04-07 02:20:00,SPECI KUGN 070220Z AUTO 04010G19KT 10SM BKN015 OVC070 01/M03 A3033 RMK AO2 T00061028,0,10,1,16090.0,0,0,0,
2026-04-07 01:51:00,METAR KUGN 070151Z AUTO 03011G22KT 10SM OVC012 01/M02 A3030 RMK AO2 WSHFT 0038 SLP271 T00061022,0,11,1,16090.0,0,0,0,
2026-04-07 01:11:00,SPECI KUGN 070111Z AUTO 04012G21KT 10SM BKN011 BKN014 OVC070 01/M01 A3027 RMK AO2 WSHFT 0038 CIG 008V012 T00111011,0,12,1,16090.0,0,0,0,
2026-04-07 00:57:00,SPECI KUGN 070057Z AUTO 04013G22KT 10SM BKN009 OVC070 02/M01 A3026 RMK AO2 WSHFT 0038 CIG 008V013 T00171006,0,13,1,16090.0,0,0,0,
2026-04-07 00:51:00,METAR KUGN 070051Z 04012G26KT 10SM SCT009 OVC070 02/00 A3025 RMK AO2 PK WND 04026/0043 WSHFT 0037 SLP254 T00170000,0,12,1,16090.0,0,0,0,
2026-04-06 23:51:00,METAR KUGN 062351Z COR 36009KT 10SM BKN070 07/M06 A3021 RMK AO2 SLP237 T00671056 10106 20067 53011,0,9,0,16090.0,0,0,0,
2026-04-06 22:51:00,METAR KUGN 062251Z 35011G19KT 10SM OVC075 08/M05 A3020 RMK AO2 SLP232 T00781050,0,11,1,16090.0,0,0,0,
2026-04-06 22:26:00,SPECI KUGN 062226Z 35011KT 10SM BKN075 08/M04 A3020 RMK AO2 T00831044,0,11,0,16090.0,0,0,0,
2026-04-06 21:51:00,METAR KUGN 062151Z 33009G20KT 10SM SCT060 BKN075 08/M04 A3018 RMK AO2 SLP226 T00831044,0,9,1,16090.0,0,0,0,
2026-04-06 20:51:00,METAR KUGN 062051Z COR 30016G26KT 10SM BKN070 09/M04 A3018 RMK AO2 PK WND 28026/2047 SLP224 T00941044 56010,0,16,1,16090.0,0,0,0,
2026-04-06 19:51:00,METAR KUGN 061951Z COR 29013G29KT 10SM BKN055 BKN065 09/M03 A3019 RMK AO2 PK WND 29029/1946 SLP229 T00891033,0,13,1,16090.0,0,0,0,
2026-04-06 18:51:00,METAR KUGN 061851Z COR 28012G22KT 10SM BKN043 BKN060 09/M02 A3020 RMK AO2 SLP230 T00891017,0,12,1,16090.0,0,0,0,
2026-04-06 17:51:00,METAR KUGN 061751Z COR 30013G25KT 10SM BKN041 BKN060 08/M02 A3021 RMK AO2 PK WND 29026/1655 SLP235 T00781017 10078 20033 50001,0,13,1,16090.0,0,0,0,
2026-04-06 16:51:00,METAR KUGN 061651Z 31013G23KT 280V350 10SM SCT037 BKN048 07/M01 A3022 RMK AO2 SLP237 T00721006,0,13,1,16090.0,0,0,0,
2026-04-06 15:51:00,METAR KUGN 061551Z COR 30010G18KT 10SM SCT030 BKN040 07/00 A3022 RMK AO2 SLP239 T00670000,0,10,1,16090.0,0,0,0,
2026-04-06 14:51:00,METAR KUGN 061451Z 32011G20KT 10SM SCT027 BKN033 06/00 A3021 RMK AO2 SLP235 T00610000 51017,0,11,1,16090.0,0,0,0,
2026-04-06 14:27:00,SPECI KUGN 061427Z 31012G22KT 10SM OVC031 06/01 A3020 RMK AO2 T00560006,0,12,1,16090.0,0,0,0,
2026-04-06 13:51:00,METAR KUGN 061351Z 30008G16KT 10SM BKN020 06/02 A3020 RMK AO2 SLP230 T00610022,0,8,1,16090.0,0,0,0,
2026-04-06 12:51:00,METAR KUGN 061251Z 32008KT 10SM CLR 04/02 A3018 RMK AO2 SLP226 T00440017,0,8,0,16090.0,0,0,0,
2026-04-06 11:51:00,METAR KUGN 061151Z 31008KT 10SM CLR 04/02 A3016 RMK AO2 SLP217 60000 70005 T00390017 10061 20033 53013,0,8,0,16090.0,0,0,0,
2026-04-06 10:51:00,METAR KUGN 061051Z AUTO 32007KT 10SM CLR 04/02 A3013 RMK AO2 RAE0955 SLP208 P0000 T00390017,0,7,0,16090.0,0,0,0,RA
2026-04-06 09:51:00,METAR KUGN 060951Z AUTO 31005KT 10SM -RA FEW012 BKN038 OVC055 05/04 A3012 RMK AO2 RAB15 SLP202 P0000 T00500039,0,5,0,16090.0,0,0,0,-RA
2026-04-06 09:47:00,SPECI KUGN 060947Z AUTO 31006KT 10SM -RA FEW012 SCT019 OVC038 05/04 A3012 RMK AO2 RAB15 P0000,0,6,0,16090.0,0,0,0,-RA
2026-04-06 09:33:00,SPECI KUGN 060933Z AUTO 33009G18KT 10SM -RA SCT012 BKN022 OVC038 05/04 A3012 RMK AO2 RAB15 P0000 T00500039,0,9,1,16090.0,0,0,0,-RA
2026-04-06 08:51:00,METAR KUGN 060851Z AUTO 28004KT 10SM CLR 04/04 A3010 RMK AO2 SLP199 T00440039 56005,0,4,0,16090.0,0,0,0,
2026-04-06 07:51:00,METAR KUGN 060751Z AUTO 28004KT 10SM CLR 04/04 A3011 RMK AO2 SLP200 T00440039,0,4,0,16090.0,0,0,0,
2026-04-06 06:51:00,METAR KUGN 060651Z AUTO 26005KT 10SM SCT065 SCT080 06/04 A3011 RMK AO2 SLP202 T00560039,0,5,0,16090.0,0,0,0,
2026-04-06 05:51:00,METAR KUGN 060551Z AUTO 25007KT 10SM SCT041 BKN060 OVC100 06/04 A3012 RMK AO2 RAB02E51 SLP204 P0005 60005 T00610044 10100 20044 401110022 56003,0,7,0,16090.0,0,0,0,RA
2026-04-06 04:51:00,METAR KUGN 060451Z AUTO 27006KT 10SM SCT041 BKN075 OVC090 07/03 A3012 RMK AO2 RAB11E36 SLP204 P0000 T00720028,0,6,0,16090.0,0,0,0,RA
2026-04-06 03:51:00,METAR KUGN 060351Z AUTO 23007KT 10SM BKN090 BKN120 07/00 A3012 RMK AO2 SLP204 T00670000,0,7,0,16090.0,0,0,0,
2026-04-06 02:51:00,METAR KUGN 060251Z AUTO 24006KT 10SM CLR 07/M02 A3013 RMK AO2 SLP209 T00671017 50001,0,6,0,16090.0,0,0,0,
2026-04-06 01:51:00,METAR KUGN 060151Z AUTO 25006KT 10SM CLR 08/M02 A3014 RMK AO2 SLP212 T00781017,0,6,0,16090.0,0,0,0,
2026-04-06 00:51:00,METAR KUGN 060051Z 25007KT 10SM CLR 09/M03 A3013 RMK AO2 SLP207 LAST T00891033,0,7,0,16090.0,0,0,0,
2026-04-05 23:51:00,METAR KUGN 052351Z 26007KT 10SM CLR 10/M04 A3012 RMK AO2 SLP207 T01001044 10111 20078 50000,0,7,0,16090.0,0,0,0,
2026-04-05 22:51:00,METAR KUGN 052251Z 27011G17KT 10SM CLR 11/M05 A3013 RMK AO2 SLP207 T01111050,0,11,1,16090.0,0,0,0,
2026-04-05 21:51:00,METAR KUGN 052151Z 28012G19KT 10SM CLR 11/M06 A3013 RMK AO2 SLP206 T01111056,0,12,1,16090.0,0,0,0,
2026-04-05 20:51:00,METAR KUGN 052051Z 29009G23KT 10SM CLR 11/M07 A3012 RMK AO2 PK WND 30027/2021 SLP206 T01061067 58003,0,9,1,16090.0,0,0,0,
2026-04-05 19:51:00,METAR KUGN 051951Z 28011G21KT 10SM CLR 10/M07 A3014 RMK AO2 PK WND 34028/1937 SLP210 T01001067,0,11,1,16090.0,0,0,0,
2026-04-05 18:51:00,METAR KUGN 051851Z 27011G20KT 10SM CLR 09/M05 A3014 RMK AO2 PK WND 29027/1819 SLP212 T00891050,0,11,1,16090.0,0,0,0,
2026-04-05 17:51:00,METAR KUGN 051751Z 29014G23KT 10SM CLR 08/M04 A3013 RMK AO2 SLP210 T00781039 10078 20022 51009,0,14,1,16090.0,0,0,0,
2026-04-05 16:51:00,METAR KUGN 051651Z 31011G24KT 10SM FEW045 07/M03 A3013 RMK AO2 SLP210 T00671028,0,11,1,16090.0,0,0,0,
2026-04-05 15:51:00,METAR KUGN 051551Z 28012G21KT 10SM CLR 05/M03 A3012 RMK AO2 SLP207 T00501028,0,12,1,16090.0,0,0,0,
2026-04-05 14:51:00,METAR KUGN 051451Z 31012G22KT 10SM BKN032 03/M04 A3011 RMK AO2 SLP204 T00331039 51030,0,12,1,16090.0,0,0,0,
2026-04-05 12:51:00,METAR KUGN 051251Z 30013G25KT 10SM OVC033 03/M03 A3005 RMK AO2 SLP184 T00281033,0,13,1,16090.0,0,0,0,
2026-04-05 12:13:00,SPECI KUGN 051213Z 28009G18KT 10SM BKN028 OVC036 03/M02 A3002 RMK AO2 T00281017,0,9,1,16090.0,0,0,0,
2026-04-05 11:51:00,METAR KUGN 051151Z 28010G18KT 10SM SCT027 OVC036 03/M02 A3001 RMK AO2 SLP171 70001 T00281017 10039 20028 50014,0,10,1,16090.0,0,0,0,
2026-04-05 10:51:00,METAR KUGN 051051Z 27013G21KT 10SM OVC040 03/M02 A2999 RMK AO2 SLP162 T00281017,0,13,1,16090.0,0,0,0,
2026-04-05 09:51:00,METAR KUGN 050951Z AUTO 28013G22KT 10SM OVC049 03/M02 A2997 RMK AO2 SLP156 T00331022,0,13,1,16090.0,0,0,0,
2026-04-05 08:51:00,METAR KUGN 050851Z AUTO 27012G21KT 10SM OVC050 03/M02 A2995 RMK AO2 SLP149 T00331017 53006,0,12,1,16090.0,0,0,0,
2026-04-05 07:51:00,METAR KUGN 050751Z AUTO 27013G21KT 10SM OVC050 04/M02 A2994 RMK AO2 SLP145 T00391017,0,13,1,16090.0,0,0,0,
2026-04-05 06:51:00,METAR KUGN 050651Z AUTO 27011G19KT 10SM CLR 04/M03 A2994 RMK AO2 SLP144 T00391028,0,11,1,16090.0,0,0,0,
2026-04-05 05:51:00,METAR KUGN 050551Z AUTO 28011G21KT 10SM FEW049 04/M03 A2993 RMK AO2 SLP142 60000 T00391028 10061 20039 401060039 53004,0,11,1,16090.0,0,0,0,
2026-04-05 04:51:00,METAR KUGN 050451Z AUTO 28013G22KT 10SM OVC039 04/M01 A2993 RMK AO2 PK WND 27026/0417 SLP138 T00441011,0,13,1,16090.0,0,0,0,
2026-04-05 03:51:00,METAR KUGN 050351Z AUTO 26014G23KT 10SM BKN034 OVC050 04/M01 A2992 RMK AO2 SLP136 T00441006,0,14,1,16090.0,0,0,0,
2026-04-05 02:51:00,METAR KUGN 050251Z AUTO 26009G23KT 10SM SCT043 OVC055 04/M01 A2992 RMK AO2 PK WND 24026/0229 SLP136 60000 T00441011 51011,0,9,1,16090.0,0,0,0,
2026-04-05 01:51:00,METAR KUGN 050151Z AUTO 26010G24KT 10SM BKN049 05/M02 A2992 RMK AO2 PK WND 26036/0114 RAE01 SLP136 P0000 T00501017,0,10,1,16090.0,0,0,0,
2026-04-05 00:51:00,METAR KUGN 050051Z 25016G31KT 9SM -RA SCT025 BKN034 OVC042 04/01 A2990 RMK AO2 PK WND 25033/0033 RAB47 SLP131 LAST P0000 T00440011,0,16,1,14481.0,0,0,0,-RA
2026-04-04 23:51:00,METAR KUGN 042351Z 26021G31KT 10SM OVC036 06/01 A2989 RMK AO2 PK WND 27035/2300 SLP126 T00610006 10094 20061 51011,0,21,1,16090.0,0,0,0,
2026-04-04 22:51:00,METAR KUGN 042251Z 27012G25KT 10SM FEW024 OVC032 07/01 A2987 RMK AO2 PK WND 27030/2241 SLP122 T00670011,0,12,1,16090.0,0,0,0,
2026-04-04 22:46:00,SPECI KUGN 042246Z 26016G30KT 10SM SCT025 OVC033 07/01 A2987 RMK AO2 PK WND 27030/2241,0,16,1,16090.0,0,0,0,
2026-04-04 21:51:00,METAR KUGN 042151Z 28012G26KT 10SM OVC026 07/03 A2985 RMK AO2 PK WND 25028/2121 SLP114 T00720028,0,12,1,16090.0,0,0,0,
2026-04-04 20:51:00,METAR KUGN 042051Z 27014G24KT 10SM OVC021 09/04 A2983 RMK AO2 PK WND 27029/2015 SLP105 T00890039 53004,0,14,1,16090.0,0,0,0,
2026-04-04 19:51:00,METAR KUGN 041951Z 28012G24KT 10SM BKN018 09/05 A2982 RMK AO2 PK WND 25028/1929 SLP102 T00890050,0,12,1,16090.0,0,0,0,
2026-04-04 19:15:00,SPECI KUGN 041915Z 26014G22KT 10SM OVC016 09/06 A2982 RMK AO2 T00890061,0,14,1,16090.0,0,0,0,
2026-04-04 18:51:00,METAR KUGN 041851Z 27013G22KT 10SM OVC012 08/06 A2982 RMK AO2 SLP103 T00830061,0,13,1,16090.0,0,0,0,
2026-04-04 18:32:00,SPECI KUGN 041832Z 26012G19KT 10SM OVC011 08/07 A2982 RMK AO2 T00830067,0,12,1,16090.0,0,0,0,
2026-04-04 17:51:00,METAR KUGN 041751Z 27013G25KT 10SM OVC009 08/07 A2981 RMK AO2 PK WND 25027/1711 SLP101 60001 T00830072 10106 20056 53014,0,13,1,16090.0,0,0,0,
2026-04-04 17:39:00,SPECI KUGN 041739Z 26016G26KT 10SM OVC009 08/07 A2981 RMK AO2 PK WND 25027/1711 T00830072,0,16,1,16090.0,0,0,0,
2026-04-04 16:51:00,METAR KUGN 041651Z 27015G26KT 10SM OVC011 09/07 A2979 RMK AO2 PK WND 27026/1611 SLP093 T00940072,0,15,1,16090.0,0,0,0,
2026-04-04 15:51:00,METAR KUGN 041551Z 26013G21KT 10SM BKN005 OVC010 10/09 A2979 RMK AO2 SLP093 T01000094,0,13,1,16090.0,0,0,0,
2026-04-04 15:08:00,SPECI KUGN 041508Z 24014G22KT 6SM BR OVC002 10/10 A2978 RMK AO2 CIG 001V005 T01000100,0,14,1,9654.0,0,0,1,BR
2026-04-04 14:51:00,METAR KUGN 041451Z 25013G19KT 1 1/2SM BR OVC002 10/10 A2977 RMK AO2 SLP087 60001 T01000100 58006,0,13,1,2414.0,0,0,1,BR
2026-04-04 14:09:00,SPECI KUGN 041409Z 24008KT 1 3/4SM BR OVC002 09/09 A2976 RMK AO2 T00890089,0,8,0,2816.0,0,0,1,BR
2026-04-04 13:51:00,METAR KUGN 041351Z 24006KT 4SM BR OVC002 08/08 A2977 RMK AO2 RAE1253 SLP087 P0000 T00830083,0,6,0,6436.0,0,0,1,"BR,RA"
2026-04-04 13:27:00,SPECI KUGN 041327Z 21005KT 3SM BR OVC002 08/08 A2978 RMK AO2 RAE1253 P0000 T00780078,0,5,0,4827.0,0,0,1,"BR,RA"
2026-04-04 12:51:00,METAR KUGN 041251Z 15005KT 1 1/2SM -RA BR OVC002 07/07 A2979 RMK AO2 RAE17B38 SLP094 P0001 T00670067,0,5,0,2414.0,0,0,1,"-RA,BR,RA"
2026-04-04 12:49:00,SPECI KUGN 041249Z 15006KT 1 1/2SM -RA BR OVC002 07/07 A2979 RMK AO2 RAE17B38 P0001,0,6,0,2414.0,0,0,1,"-RA,BR,RA"
2026-04-04 12:23:00,SPECI KUGN 041223Z 09004KT 1/2SM FG VV002 06/06 A2978 RMK AO2 RAE17 P0001 T00610061,0,4,0,804.0,0,0,1,FG
2026-04-04 11:59:00,SPECI KUGN 041159Z 06006KT 1 3/4SM -RA BR OVC002 06/06 A2979 RMK AO2 VIS 1V3 PRESFR P0001 T00560056,0,6,0,2816.0,0,0,1,"-RA,BR"
2026-04-04 11:51:00,METAR KUGN 041151Z 07005KT 3SM -RA BR OVC002 06/06 A2981 RMK AO2 RAB46 SLP101 P0000 60059 70064 T00610061 10061 20039 58018,0,5,0,4827.0,0,0,1,"-RA,BR"
2026-04-04 11:44:00,SPECI KUGN 041144Z 07004KT 3SM BR OVC002 06/06 A2982 RMK AO2 T00560056,0,4,0,4827.0,0,0,1,BR
2026-04-04 11:36:00,SPECI KUGN 041136Z 09006KT 2 1/2SM BR OVC002 06/06 A2983 RMK AO2 T00560056,0,6,0,4022.0,0,0,1,BR
2026-04-04 11:26:00,SPECI KUGN 041126Z 07008KT 1 3/4SM BR OVC002 06/06 A2982 RMK AO2 T00560056,0,8,0,2816.0,0,0,1,BR
2026-04-04 11:14:00,SPECI KUGN 041114Z 06008KT 2 1/2SM BR OVC002 06/06 A2982 RMK AO2 T00560056,0,8,0,4022.0,0,0,1,BR
2026-04-04 10:51:00,METAR KUGN 041051Z 05008KT 1 1/2SM BR OVC002 06/06 A2983 RMK AO2 RAE21 PRESFR SLP107 P0001 T00560056,0,8,0,2414.0,0,0,1,BR
2026-04-04 10:48:00,SPECI KUGN 041048Z AUTO 05007KT 1 3/4SM BR OVC002 06/06 A2983 RMK AO2 RAE21 PRESFR P0001,0,7,0,2816.0,0,0,1,BR
2026-04-04 09:51:00,METAR KUGN 040951Z AUTO 03007KT 7SM -RA OVC003 06/06 A2988 RMK AO2 PK WND 29029/0907 LTG DSNT NE AND S RAB14 SLP125 P0008 T00560056,0,7,0,11263.0,0,0,0,"-RA,DS"
2026-04-04 09:21:00,SPECI KUGN 040921Z AUTO 01005KT 9SM -RA OVC003 06/06 A2991 RMK AO2 PK WND 29029/0907 LTG DSNT N AND S RAB14 P0001 T00610056,0,5,0,14481.0,0,0,0,"-RA,DS"
2026-04-04 09:06:00,SPECI KUGN 040906Z AUTO 31010G19KT 280V360 9SM VCTS OVC002 06/06 A2995 RMK AO2 LTG DSNT SW-N PRESRR T00560056,0,10,1,14481.0,1,0,0,"DS,TS,VC"
2026-04-04 08:51:00,METAR KUGN 040851Z AUTO 08009KT 8SM OVC002 06/05 A2987 RMK AO2 LTG DSNT SW-N RAE43 TSE24 SLP119 P0028 60050 T00560050 58044,0,9,0,12872.0,1,0,0,DS
2026-04-04 08:28:00,SPECI KUGN 040828Z AUTO 08010KT 7SM -RA BKN003 BKN024 OVC070 05/04 A2988 RMK AO2 LTG DSNT W-NE TSE24 P0027 T00500044,0,10,0,11263.0,1,0,0,"-RA,DS"
2026-04-04 08:22:00,SPECI KUGN 040822Z AUTO 07010KT 5SM -TSRA BR BKN003 BKN010 OVC024 05/04 A2989 RMK AO2 LTG DSNT W-NE P0027 T00500044,0,10,0,8045.0,1,0,1,"BR,DS,RA"
2026-04-04 08:10:00,SPECI KUGN 040810Z AUTO 08014G19KT 3SM TSRA BR SCT006 BKN011 OVC070 04/04 A2991 RMK AO2 LTG DSNT W-NE PRESFR P0024 T00440044,0,14,1,4827.0,1,0,1,"BR,DS,RA,TS"
2026-04-04 08:07:00,SPECI KUGN 040807Z AUTO 08014KT 2SM TSRA BR BKN006 BKN011 OVC024 04/04 A2990 RMK AO2 VIS 1 1/4V4 LTG DSNT N AND NE P0023 T00440044,0,14,0,3218.0,1,0,1,"BR,DS,RA,TS"
2026-04-04 07:58:00,SPECI KUGN 040758Z AUTO 07006KT 4SM +TSRA BR OVC006 04/04 A2995 RMK AO2 LTG DSNT ALQDS CIG 004V010 P0008 T00440039,0,6,0,6436.0,1,0,1,"BR,DS,RA"
2026-04-04 07:51:00,METAR KUGN 040751Z AUTO 34009G22KT 2 1/2SM TSRA BR BKN006 OVC010 05/04 A2994 RMK AO2 LTG DSNT ALQDS TSB30 CIG 004V009 SLP144 P0022 T00500044,0,9,1,4022.0,1,0,1,"BR,DS,RA,TS"
2026-04-04 07:36:00,SPECI KUGN 040736Z AUTO 06012G18KT 10SM -TSRA OVC007 04/04 A2991 RMK AO2 LTG DSNT ALQDS TSB30 CIG 005V010 P0003 T00440039,0,12,1,16090.0,1,0,0,"DS,RA"
2026-04-04 07:21:00,SPECI KUGN 040721Z AUTO 05012G17KT 10SM VCTS -RA OVC009 04/03 A2992 RMK AO2 LTG DSNT ALQDS CIG 006V011 P0001 T00390033,0,12,1,16090.0,1,0,0,"-RA,DS,TS,VC"
2026-04-04 06:51:00,METAR KUGN 040651Z AUTO 06010G17KT 10SM -RA OVC012 04/03 A2995 RMK AO2 LTG DSNT W AND NW RAB0552E01B45 SLP146 P0000 T00440033,0,10,1,16090.0,0,0,0,"-RA,DS,RA"
2026-04-04 06:43:00,SPECI KUGN 040643Z AUTO 05011KT 10SM OVC014 04/03 A2995 RMK AO2 LTG DSNT N AND W RAB0552E01 PRESFR P0000 T00440033,0,11,0,16090.0,0,0,0,"DS,RA"
2026-04-04 05:51:00,METAR KUGN 040551Z AUTO 05010G19KT 10SM BKN021 04/03 A3000 RMK AO2 SLP164 60005 T00390028 10044 20028 401560028 58028,0,10,1,16090.0,0,0,0,
2026-04-04 04:51:00,METAR KUGN 040451Z AUTO 05010KT 10SM OVC019 04/03 A3003 RMK AO2 LTG DSNT W SLP174 T00390028,0,10,0,16090.0,0,0,0,DS
2026-04-04 03:51:00,METAR KUGN 040351Z AUTO 04011KT 10SM OVC022 03/02 A3006 RMK AO2 LTG DSNT NE RAE38 SLP185 P0005 T00280022,0,11,0,16090.0,0,0,0,DS
2026-04-04 03:19:00,SPECI KUGN 040319Z AUTO 04010KT 8SM -RA BKN025 BKN037 OVC110 03/02 A3007 RMK AO2 LTG DSNT N-SE PRESFR P0005 T00280017,0,10,0,12872.0,0,0,0,"-RA,DS"
2026-04-04 02:51:00,METAR KUGN 040251Z AUTO 07011KT 10SM VCTS -RA OVC025 03/01 A3008 RMK AO2 LTG DSNT ALQDS RAB44 SLP193 P0000 60000 T00330011 58009,0,11,0,16090.0,1,0,0,"-RA,DS,TS,VC"
2026-04-04 02:03:00,SPECI KUGN 040203Z AUTO 06015G23KT 10SM BKN026 BKN033 OVC050 04/01 A3007 RMK AO2 LTG DSNT W AND NW T00390006,0,15,1,16090.0,0,0,0,DS
2026-04-04 01:51:00,METAR KUGN 040151Z AUTO 05010G20KT 10SM SCT027 BKN035 OVC055 03/01 A3009 RMK AO2 SLP196 T00330006,0,10,1,16090.0,0,0,0,
2026-04-04 01:41:00,SPECI KUGN 040141Z AUTO 05010G21KT 10SM SCT027 BKN037 OVC090 03/01 A3009 RMK AO2 T00330006,0,10,1,16090.0,0,0,0,
2026-04-04 00:51:00,METAR KUGN 040051Z 06013KT 10SM OVC029 04/01 A3013 RMK AO2 SLP209 LAST T00390011,0,13,0,16090.0,0,0,0,
2026-04-03 23:51:00,METAR KUGN 032351Z 07011KT 10SM BKN027 04/02 A3011 RMK AO2 SLP202 T00390017 10100 20039 56006,0,11,0,16090.0,0,0,0,
2026-04-03 22:51:00,METAR KUGN 032251Z 05011G22KT 10SM FEW020 SCT033 BKN044 04/02 A3012 RMK AO2 SLP205 T00440022,0,11,1,16090.0,0,0,0,
2026-04-03 22:48:00,SPECI KUGN 032248Z 06014G22KT 10SM SCT020 BKN033 OVC050 04/02 A3011 RMK AO2 PRESFR,0,14,1,16090.0,0,0,0,
2026-04-03 22:22:00,SPECI KUGN 032222Z 04011G19KT 10SM BKN019 OVC039 04/02 A3014 RMK AO2 T00440022,0,11,1,16090.0,0,0,0,
2026-04-03 22:03:00,SPECI KUGN 032203Z 05011KT 10SM SCT018 BKN039 OVC070 04/02 A3013 RMK AO2 T00440022,0,11,0,16090.0,0,0,0,
2026-04-03 21:51:00,METAR KUGN 032151Z 06012KT 10SM BKN018 OVC039 05/03 A3013 RMK AO2 SLP207 T00500028,0,12,0,16090.0,0,0,0,
2026-04-03 20:51:00,METAR KUGN 032051Z 06012G18KT 10SM BKN021 06/03 A3012 RMK AO2 SLP203 T00610028 53009,0,12,1,16090.0,0,0,0,
2026-04-03 20:07:00,SPECI KUGN 032007Z 06015G19KT 10SM BKN022 07/04 A3010 RMK AO2 T00720039,0,15,1,16090.0,0,0,0,
2026-04-03 19:51:00,METAR KUGN 031951Z 06010KT 10SM FEW020 08/04 A3010 RMK AO2 SLP196 T00780044,0,10,0,16090.0,0,0,0,
2026-04-03 19:42:00,SPECI KUGN 031942Z 06014G18KT 10SM SCT021 08/05 A3010 RMK AO2 T00780050,0,14,1,16090.0,0,0,0,
2026-04-03 18:51:00,METAR KUGN 031851Z 09011KT 10SM OVC021 09/05 A3010 RMK AO2 SLP192 T00890050,0,11,0,16090.0,0,0,0,
2026-04-03 18:44:00,SPECI KUGN 031844Z 07009KT 10SM OVC020 09/06 A3010 RMK AO2 T00940056,0,9,0,16090.0,0,0,0,
2026-04-03 17:51:00,METAR KUGN 031751Z VRB05KT 10SM OVC018 09/05 A3009 RMK AO2 SLP189 T00940050 10094 20072 51014,0,5,0,16090.0,0,0,0,
2026-04-03 16:51:00,METAR KUGN 031651Z 30004KT 10SM OVC015 08/04 A3008 RMK AO2 SLP185 T00830044,0,4,0,16090.0,0,0,0,
2026-04-03 16:06:00,SPECI KUGN 031606Z 29008KT 10SM OVC015 08/04 A3008 RMK AO2 T00780044,0,8,0,16090.0,0,0,0,
2026-04-03 15:51:00,METAR KUGN 031551Z 28007KT 10SM OVC014 08/04 A3008 RMK AO2 SLP186 T00780044,0,7,0,16090.0,0,0,0,
2026-04-03 14:51:00,METAR KUGN 031451Z 27008KT 10SM OVC013 07/04 A3005 RMK AO2 SLP176 T00720044 51030,0,8,0,16090.0,0,0,0,
2026-04-03 13:51:00,METAR KUGN 031351Z 29007KT 10SM OVC014 07/04 A3003 RMK AO2 SLP167 T00720044,0,7,0,16090.0,0,0,0,
2026-04-03 12:51:00,METAR KUGN 031251Z 28008KT 10SM OVC014 07/05 A3000 RMK AO2 SLP158 T00720050,0,8,0,16090.0,0,0,0,
2026-04-03 12:23:00,SPECI KUGN 031223Z 27008KT 10SM OVC014 07/05 A2998 RMK AO2 T00720050,0,8,0,16090.0,0,0,0,
2026-04-03 11:51:00,METAR KUGN 031151Z 28007KT 10SM OVC015 08/05 A2996 RMK AO2 SLP142 70089 T00780050 10156 20078 51023,0,7,0,16090.0,0,0,0,
2026-04-03 11:48:00,SPECI KUGN 031148Z 28008KT 10SM OVC015 08/05 A2995 RMK AO2,0,8,0,16090.0,0,0,0,
2026-04-03 11:18:00,SPECI KUGN 031118Z 25008KT 10SM OVC014 08/06 A2994 RMK AO2 T00780056,0,8,0,16090.0,0,0,0,
2026-04-03 08:51:00,METAR KUGN 030851Z AUTO 27009G23KT 10SM OVC013 10/08 A2984 RMK AO2 PK WND 31028/0809 SLP106 T01000078 53042,0,9,1,16090.0,0,0,0,
2026-04-03 05:51:00,METAR KUGN 030551Z AUTO 24009KT 10SM SCT019 BKN025 OVC038 16/13 A2972 RMK AO2 SLP065 60016 T01560133 10200 20150 402000017 53020,0,9,0,16090.0,0,0,0,
2026-04-03 04:51:00,METAR KUGN 030451Z AUTO 23016KT 10SM CLR 16/14 A2968 RMK AO2 SLP053 T01560139,0,16,0,16090.0,0,0,0,
2026-04-03 03:51:00,METAR KUGN 030351Z AUTO 21012KT 10SM FEW048 SCT070 16/14 A2965 RMK AO2 LTG DSNT E-S RAE09 SLP044 P0000 T01560139,0,12,0,16090.0,0,0,0,DS
2026-04-03 02:51:00,METAR KUGN 030251Z AUTO 22009KT 10SM -RA BKN039 BKN047 OVC070 16/15 A2966 RMK AO2 WSHFT 0147 LTG DSNT NE AND SE SLP044 P0014 60016 T01610150 53016,0,9,0,16090.0,0,0,0,"-RA,DS"
2026-04-03 02:41:00,SPECI KUGN 030241Z AUTO 21010G14KT 10SM VCTS -RA BKN044 BKN060 OVC085 16/15 A2966 RMK AO2 WSHFT 0147 LTG DSNT NE-S P0013 T01560150,0,10,1,16090.0,1,0,0,"-RA,DS,TS,VC"
2026-04-03 02:17:00,SPECI KUGN 030217Z AUTO 21010KT 5SM -RA BR SCT024 BKN043 OVC090 15/14 A2964 RMK AO2 WSHFT 0147 LTG DSNT N AND NE AND SW P0010 T01500139,0,10,0,8045.0,0,0,1,"-RA,BR,DS"
2026-04-03 02:02:00,SPECI KUGN 030202Z AUTO 26009G21KT 5SM VCTS +RA FEW018 BKN026 OVC090 17/14 A2966 RMK AO2 WSHFT 0147 LTG DSNT ALQDS P0005 T01670139,0,9,1,8045.0,1,1,0,"+RA,DS,TS,VC"
2026-04-03 01:51:00,METAR KUGN 030151Z AUTO 22017G23KT 10SM VCTS -RA SCT026 BKN090 OVC110 19/16 A2964 RMK AO2 PK WND 20034/0104 LTG DSNT ALQDS RAB30 SLP036 P0002 T01890161,0,17,1,16090.0,1,0,0,"-RA,DS,TS,VC"
2026-04-03 01:34:00,SPECI KUGN 030134Z AUTO 22021G29KT 10SM VCTS -RA BKN026 OVC037 19/16 A2963 RMK AO2 PK WND 20034/0104 LTG DSNT ALQDS RAB30 PRESRR P0000 T01940161,0,21,1,16090.0,1,0,0,"-RA,DS,TS,VC"
2026-04-03 01:23:00,SPECI KUGN 030123Z AUTO 22020G30KT 10SM VCTS SCT026 BKN034 BKN042 19/16 A2961 RMK AO2 PK WND 20034/0104 LTG DSNT ALQDS T01940161,0,20,1,16090.0,1,0,0,"DS,TS,VC"
2026-04-03 01:19:00,SPECI KUGN 030119Z AUTO 21021G33KT 10SM BKN029 BKN038 19/16 A2961 RMK AO2 PK WND 20034/0104 LTG DSNT ALQDS T01940161,0,21,1,16090.0,0,0,0,DS
2026-04-03 01:02:00,SPECI KUGN 030102Z AUTO 19021G32KT 10SM VCTS BKN029 BKN035 19/16 A2960 RMK AO2 PK WND 19032/0058 LTG DSNT W AND NW T01940161,0,21,1,16090.0,1,0,0,"DS,TS,VC"
2026-04-03 00:51:00,METAR KUGN 030051Z AUTO 19018G32KT 10SM SCT030 19/16 A2960 RMK AO2 PK WND 19032/0045 LTG DSNT SW-NW SLP023 T01940161,0,18,1,16090.0,0,0,0,DS
2026-04-03 00:10:00,SPECI KUGN 030010Z 20014G30KT 10SM BKN031 BKN035 19/16 A2960 RMK AO2 PK WND 20031/2353 T01940161,0,14,1,16090.0,0,0,0,
2026-04-03 00:01:00,SPECI KUGN 030001Z 19017G31KT 10SM BKN029 BKN035 BKN048 20/16 A2960 RMK AO2 PK WND 20031/2353 T02000161,0,17,1,16090.0,0,0,0,
2026-04-02 23:51:00,METAR KUGN 022351Z 20014G26KT 10SM BKN030 BKN035 OVC049 20/16 A2961 RMK AO2 PK WND 20035/2302 SLP027 60036 T02000161 10200 20078 55006,0,14,1,16090.0,0,0,0,
2026-04-02 22:51:00,METAR KUGN 022251Z 20023G32KT 10SM SCT028 BKN033 BKN085 20/16 A2961 RMK AO2 PK WND 21036/2231 RAE21 TSE2157 SLP026 P0003 T02000161,0,23,1,16090.0,1,0,0,TS
2026-04-02 22:28:00,SPECI KUGN 022228Z 20016G27KT 10SM SCT028 BKN060 OVC070 19/16 A2962 RMK AO2 PK WND 18034/2204 RAE21 TSE2157 P0003 T01890161,0,16,1,16090.0,1,0,0,TS
2026-04-02 21:57:00,SPECI KUGN 022157Z 21018G28KT 3SM VCTS -RA BR FEW019 BKN031 OVC055 18/17 A2963 RMK AO2 PK WND 20028/2157 LTG DSNT N TSE57 P0001 T01780167,0,18,1,4827.0,1,0,1,"-RA,BR,DS,TS,VC"
2026-04-02 21:51:00,METAR KUGN 022151Z 21018G25KT 2 1/2SM TSRA BR SCT023 BKN037 OVC050 18/17 A2963 RMK AO2 VIS 1 3/4V5 LTG DSNT N TSB42 SLP035 P0025 T01780167,0,18,1,4022.0,1,0,1,"BR,DS,RA,TS"
2026-04-02 21:48:00,SPECI KUGN 022148Z 21016G25KT 3SM -TSRA BR SCT023 BKN037 OVC090 18/17 A2963 RMK AO2 LTG DSNT N AND NW TSB42 P0023,0,16,1,4827.0,1,0,1,"BR,DS,RA"
2026-04-02 21:32:00,SPECI KUGN 022132Z 22015G24KT 2SM RA BR FEW028 BKN041 OVC085 18/17 A2963 RMK AO2 LTG DSNT N AND NW P0015 T01780167,0,15,1,3218.0,0,0,1,"BR,DS,RA"
2026-04-02 20:51:00,METAR KUGN 022051Z 15008KT 3SM -RA BR SCT029 BKN040 OVC075 12/12 A2962 RMK AO2 LTG DSNT W AND NW RAB1952 SLP035 P0003 60008 T01220122 56042,0,8,0,4827.0,0,0,1,"-RA,BR,DS,RA"
2026-04-02 20:40:00,SPECI KUGN 022040Z 15007KT 3SM -RA BR BKN031 BKN042 OVC050 12/12 A2962 RMK AO2 LTG DSNT W RAB1952 P0002 T01170117,0,7,0,4827.0,0,0,1,"-RA,BR,DS,RA"
2026-04-02 20:19:00,SPECI KUGN 022019Z 15007KT 2SM -RA BR SCT001 BKN029 OVC048 11/11 A2964 RMK AO2 RAB1952 P0001 T01110111,0,7,0,3218.0,0,0,1,"-RA,BR,RA"
2026-04-02 20:06:00,SPECI KUGN 022006Z 15008KT 1 3/4SM -RA BR OVC001 10/10 A2965 RMK AO2 RAB1952 P0001 T01000100,0,8,0,2816.0,0,0,1,"-RA,BR,RA"
2026-04-02 19:51:00,METAR KUGN 021951Z 15007KT 2 1/2SM BR OVC001 10/09 A2966 RMK AO2 RAE50 SLP049 P0005 T01000094,0,7,0,4022.0,0,0,1,BR
2026-04-02 18:51:00,METAR KUGN 021851Z 14008KT 1/2SM -RA FG VV002 08/08 A2970 RMK AO2 RAB51 SLP065 P0000 T00780078,0,8,0,804.0,0,0,1,"-RA,FG"
2026-04-02 17:51:00,METAR KUGN 021751Z 13005KT 1/4SM FG VV002 06/06 A2975 RMK AO2 RAE06 SLP082 P0000 60037 T00560056 10056 20022 58033,0,5,0,402.0,0,0,1,FG
2026-04-02 17:08:00,SPECI KUGN 021708Z 11006KT 1/4SM FG VV002 04/04 A2977 RMK AO2 RAE06 P0000 T00440044,0,6,0,402.0,0,0,1,FG
2026-04-02 16:51:00,METAR KUGN 021651Z 11007KT 1/2SM -RA FG VV002 04/04 A2979 RMK AO2 SLP095 P0004 T00440044,0,7,0,804.0,0,0,1,"-RA,FG"
2026-04-02 16:13:00,SPECI KUGN 021613Z 10009KT 1/2SM -RA FG VV002 04/04 A2981 RMK AO2 P0000 T00390039,0,9,0,804.0,0,0,1,"-RA,FG"
2026-04-02 15:51:00,METAR KUGN 021551Z 10008G19KT 1SM RA BR VV002 03/03 A2982 RMK AO2 SLP107 P0015 T00330033,0,8,1,1609.0,0,0,1,"BR,RA"
2026-04-02 15:41:00,SPECI KUGN 021541Z 10012KT 1/2SM -RA FG VV002 03/03 A2982 RMK AO2 P0007 T00330033,0,12,0,804.0,0,0,1,"-RA,FG"
2026-04-02 15:27:00,SPECI KUGN 021527Z 10012KT 1 1/4SM -RA BR OVC002 03/03 A2983 RMK AO2 P0003 T00330033,0,12,0,2011.0,0,0,1,"-RA,BR"
2026-04-02 15:19:00,SPECI KUGN 021519Z 10010KT 3/4SM RA BR VV002 03/03 A2984 RMK AO2 P0003 T00330033,0,10,0,1207.0,0,0,1,"BR,RA"
2026-04-02 14:51:00,METAR KUGN 021451Z 09009KT 1 3/4SM -RA BR OVC002 03/03 A2985 RMK AO2 RAE33B40 SLP116 P0005 60018 T00330033 56017,0,9,0,2816.0,0,0,1,"-RA,BR,RA"
2026-04-02 14:46:00,SPECI KUGN 021446Z 09011KT 1 1/2SM +RA BR OVC002 03/03 A2985 RMK AO2 RAE33B40 P0005,0,11,0,2414.0,0,1,1,"+RA,BR,RA"
2026-04-02 14:34:00,SPECI KUGN 021434Z 09010KT 2 1/2SM BR OVC002 03/03 A2985 RMK AO2 RAE33 P0002 T00330033,0,10,0,4022.0,0,0,1,BR
2026-04-02 13:51:00,METAR KUGN 021351Z 08010KT 3SM -RA BR OVC002 03/03 A2988 RMK AO2 RAB1255 SLP127 P0008 T00280028,0,10,0,4827.0,0,0,1,"-RA,BR,RA"
2026-04-02 13:20:00,SPECI KUGN 021320Z 07008KT 4SM -RA BR OVC002 03/02 A2990 RMK AO2 RAB1255 P0006 T00280022,0,8,0,6436.0,0,0,1,"-RA,BR,RA"
2026-04-02 13:10:00,SPECI KUGN 021310Z 08009KT 2SM -RA BR OVC002 03/02 A2990 RMK AO2 VIS 1V4 RAB1255 P0006 T00280022,0,9,0,3218.0,0,0,1,"-RA,BR,RA"
2026-04-02 12:51:00,METAR KUGN 021251Z 08012KT 4SM BR OVC003 02/02 A2990 RMK AO2 LTG DSNT E RAB1153E46 SLP134 P0005 T00220022,0,12,0,6436.0,0,0,1,"BR,DS,RA"
2026-04-02 12:44:00,SPECI KUGN 021244Z 09011KT 5SM -RA BR OVC003 02/02 A2991 RMK AO2 RAB1153 P0005 T00220022,0,11,0,8045.0,0,0,1,"-RA,BR,RA"
2026-04-02 12:34:00,SPECI KUGN 021234Z 08010KT 2SM RA BR OVC003 02/02 A2991 RMK AO2 LTG DSNT W RAB1153 P0005 T00220022,0,10,0,3218.0,0,0,1,"BR,DS,RA"
2026-04-02 11:51:00,METAR KUGN 021151Z 08011KT 9SM OVC003 02/02 A2993 RMK AO2 RAE35 SLP147 P0002 60099 70101 T00220022 10022 20017 58013,0,11,0,14481.0,0,0,0,
2026-04-02 10:51:00,METAR KUGN 021051Z 09011KT 5SM -RA BR OVC003 02/02 A2996 RMK AO2 LTG DSNT SE SLP156 P0027 T00220017,0,11,0,8045.0,0,0,1,"-RA,BR,DS"
2026-04-02 10:24:00,SPECI KUGN 021024Z AUTO 09011G21KT 5SM -RA BR OVC003 02/02 A2996 RMK AO2 P0018 T00170017,0,11,1,8045.0,0,0,1,"-RA,BR"
2026-04-02 10:16:00,SPECI KUGN 021016Z AUTO 08015KT 2 1/2SM RA BR OVC003 02/02 A2995 RMK AO2 P0016 T00170017,0,15,0,4022.0,0,0,1,"BR,RA"
2026-04-02 10:01:00,SPECI KUGN 021001Z AUTO 09014KT 4SM RA BR OVC003 02/02 A2996 RMK AO2 P0004 T00170017,0,14,0,6436.0,0,0,1,"BR,RA"
2026-04-02 09:51:00,METAR KUGN 020951Z AUTO 06008G20KT 030V100 2SM +RA BR OVC004 02/02 A2998 RMK AO2 SLP160 P0028 T00170017,0,8,1,3218.0,0,1,1,"+RA,BR"
2026-04-02 09:49:00,SPECI KUGN 020949Z AUTO 07010G21KT 2SM +RA BR OVC004 02/02 A2997 RMK AO2 P0028,0,10,1,3218.0,0,1,1,"+RA,BR"
2026-04-02 09:15:00,SPECI KUGN 020915Z AUTO 09011G20KT 5SM RA BR OVC004 02/02 A2998 RMK AO2 P0006 T00170017,0,11,1,8045.0,0,0,1,"BR,RA"
2026-04-02 08:51:00,METAR KUGN 020851Z AUTO 09014G22KT 4SM RA BR OVC005 02/01 A3000 RMK AO2 SLP168 P0022 60042 T00170011 58033,0,14,1,6436.0,0,0,1,"BR,RA"
2026-04-02 07:51:00,METAR KUGN 020751Z AUTO 09012G23KT 5SM RA BR BKN005 OVC012 02/01 A3003 RMK AO2 SLP179 P0015 T00170011,0,12,1,8045.0,0,0,1,"BR,RA"
2026-04-02 07:38:00,SPECI KUGN 020738Z AUTO 09015G22KT 6SM RA BR BKN006 OVC014 02/01 A3005 RMK AO2 CIG 004V009 P0011 T00170011,0,15,1,9654.0,0,0,1,"BR,RA"
2026-04-02 07:19:00,SPECI KUGN 020719Z AUTO 08016G22KT 6SM RA BR FEW007 OVC015 02/01 A3005 RMK AO2 PRESFR P0006 T00170006,0,16,1,9654.0,0,0,1,"BR,RA"
2026-04-02 06:51:00,METAR KUGN 020651Z AUTO 09013G21KT 9SM -RA OVC018 02/01 A3008 RMK AO2 SLP197 P0005 T00170006,0,13,1,14481.0,0,0,0,-RA
2026-04-02 05:51:00,METAR KUGN 020551Z AUTO 09016G24KT 8SM -RA BKN022 OVC085 02/00 A3010 RMK AO2 RAB0453 SLP202 P0002 60002 T00170000 10028 20011 400280006 56018,0,16,1,12872.0,0,0,0,"-RA,RA"
2026-04-02 04:51:00,METAR KUGN 020451Z AUTO 08013KT 10SM OVC024 02/M01 A3012 RMK AO2 PK WND 07027/0357 SLP212 T00221006,0,13,0,16090.0,0,0,0,
2026-04-02 03:51:00,METAR KUGN 020351Z AUTO 08015G22KT 10SM OVC024 03/00 A3012 RMK AO2 SLP209 T00280000,0,15,1,16090.0,0,0,0,
2026-04-02 02:51:00,METAR KUGN 020251Z AUTO 05010KT 10SM OVC025 03/01 A3015 RMK AO2 SLP220 T00280006 58011,0,10,0,16090.0,0,0,0,
2026-04-02 01:51:00,METAR KUGN 020151Z AUTO 04010G18KT 10SM OVC028 02/00 A3018 RMK AO2 SLP230 T00170000,0,10,1,16090.0,0,0,0,
2026-04-02 00:51:00,METAR KUGN 020051Z COR 04012G22KT 10SM OVC027 02/M01 A3018 RMK AO2 SLP230 T00171006 LAST,0,12,1,16090.0,0,0,0,
2026-04-01 23:51:00,METAR KUGN 012351Z 03010KT 10SM OVC027 01/M01 A3018 RMK AO2 SLP232 T00111011 10022 20011 58003,0,10,0,16090.0,0,0,0,
2026-04-01 22:51:00,METAR KUGN 012251Z 03015G24KT 10SM OVC027 01/M01 A3019 RMK AO2 PK WND 03028/2217 SLP234 T00111011,0,15,1,16090.0,0,0,0,
2026-04-01 21:51:00,METAR KUGN 012151Z 02014G22KT 10SM OVC020 02/M01 A3020 RMK AO2 SLP237 T00221011,0,14,1,16090.0,0,0,0,
2026-04-01 20:51:00,METAR KUGN 012051Z 04015G23KT 10SM OVC018 02/M01 A3019 RMK AO2 PK WND 04027/2014 SLP233 T00171011 58012,0,15,1,16090.0,0,0,0,
2026-04-01 19:51:00,METAR KUGN 011951Z COR 04012G26KT 10SM OVC016 02/M01 A3022 RMK AO2 SLP242 T00221011,0,12,1,16090.0,0,0,0,
2026-04-01 18:51:00,METAR KUGN 011851Z 04011KT 10SM OVC015 02/M02 A3024 RMK AO2 SLP250 T00171017,0,11,0,16090.0,0,0,0,
2026-04-01 17:51:00,METAR KUGN 011751Z 03016G29KT 10SM OVC015 02/M02 A3023 RMK AO2 PK WND 03030/1718 SLP246 T00171017 10017 20006 58004,0,16,1,16090.0,0,0,0,
2026-04-01 16:51:00,METAR KUGN 011651Z 02017G28KT 10SM OVC015 01/M02 A3024 RMK AO2 PK WND 03028/1644 SLP251 T00111022,0,17,1,16090.0,0,0,0,
2026-04-01 15:51:00,METAR KUGN 011551Z 03018G25KT 10SM OVC016 01/M02 A3024 RMK AO2 PK WND 03031/1533 SLP252 T00111022,0,18,1,16090.0,0,0,0,
2026-04-01 14:51:00,METAR KUGN 011451Z 04014G25KT 10SM OVC017 01/M02 A3024 RMK AO2 PK WND 02028/1412 SLP250 T00111022 51013,0,14,1,16090.0,0,0,0,
2026-04-01 13:51:00,METAR KUGN 011351Z 04014G22KT 10SM OVC015 01/M02 A3024 RMK AO2 PK WND 02028/1252 SLP250 T00111017,0,14,1,16090.0,0,0,0,
2026-04-01 12:51:00,METAR KUGN 011251Z 03015G29KT 10SM OVC013 01/M02 A3022 RMK AO2 PK WND 01029/1248 SLP244 T00111017,0,15,1,16090.0,0,0,0,
2026-04-01 11:51:00,METAR KUGN 011151Z 03019G27KT 10SM OVC013 01/M02 A3020 RMK AO2 PK WND 02031/1104 SLP237 70072 T00061017 10028 20006 53016,0,19,1,16090.0,0,0,0,
2026-04-01 10:51:00,METAR KUGN 011051Z 02015G27KT 10SM OVC012 01/M01 A3018 RMK AO2 PK WND 02031/1037 SLP228 T00111011,0,15,1,16090.0,0,0,0,
2026-04-01 09:49:00,METAR KUGN 010949Z AUTO 03015G24KT 10SM BKN014 02/M01 A3015 RMK AO2 PK WND 03027/0938 SLP219 T00171006,0,15,1,16090.0,0,0,0,
2026-04-01 09:48:00,SPECI KUGN 010948Z AUTO 03012G24KT 10SM BKN014 02/M01 A3015 RMK AO2 PK WND 03027/0938,0,12,1,16090.0,0,0,0,
2026-04-01 09:00:00,SPECI KUGN 010900Z AUTO 04011G20KT 10SM FEW017 SCT028 02/M01 A3015 RMK AO2 T00171011,0,11,1,16090.0,0,0,0,
2026-04-01 08:51:00,METAR KUGN 010851Z AUTO 04008G25KT 10SM BKN029 02/M01 A3015 RMK AO2 SLP218 T00221011 51012,0,8,1,16090.0,0,0,0,
2026-04-01 08:15:00,SPECI KUGN 010815Z AUTO 04009G21KT 10SM FEW013 SCT030 02/00 A3014 RMK AO2 T00220000,0,9,1,16090.0,0,0,0,
2026-04-01 07:51:00,METAR KUGN 010751Z AUTO 04014G25KT 10SM BKN013 BKN028 02/00 A3014 RMK AO2 SLP213 T00220000,0,14,1,16090.0,0,0,0,
2026-04-01 07:28:00,SPECI KUGN 010728Z AUTO 03011G21KT 10SM BKN013 OVC028 02/01 A3014 RMK AO2 T00220006,0,11,1,16090.0,0,0,0,
2026-04-01 07:02:00,SPECI KUGN 010702Z AUTO 03012G19KT 10SM SCT011 OVC027 03/01 A3013 RMK AO2 T00280011,0,12,1,16090.0,0,0,0,
2026-04-01 06:51:00,METAR KUGN 010651Z AUTO 04010G18KT 10SM BKN011 OVC027 03/01 A3013 RMK AO2 SLP210 T00280011,0,10,1,16090.0,0,0,0,
2026-04-01 05:51:00,METAR KUGN 010551Z AUTO 03012G18KT 10SM OVC010 03/02 A3011 RMK AO2 CIG 008V014 SLP199 T00280017 10056 20028 402280028 53018,0,12,1,16090.0,0,0,0,
2026-04-01 05:27:00,SPECI KUGN 010527Z AUTO 04013G20KT 10SM BKN011 03/02 A3010 RMK AO2 T00280017,0,13,1,16090.0,0,0,0,
2026-04-01 05:08:00,SPECI KUGN 010508Z AUTO 03012KT 10SM SCT008 03/02 A3009 RMK AO2 T00280017,0,12,0,16090.0,0,0,0,
2026-04-01 04:51:00,METAR KUGN 010451Z AUTO 04009G20KT 10SM BKN008 03/02 A3008 RMK AO2 SLP188 T00280017,0,9,1,16090.0,0,0,0,
2026-04-01 04:35:00,SPECI KUGN 010435Z AUTO 04010G19KT 10SM BKN008 OVC018 03/02 A3007 RMK AO2 T00330022,0,10,1,16090.0,0,0,0,
2026-04-01 04:05:00,SPECI KUGN 010405Z AUTO 03012G19KT 10SM SCT007 OVC015 03/02 A3006 RMK AO2 T00330022,0,12,1,16090.0,0,0,0,
2026-04-01 03:51:00,METAR KUGN 010351Z AUTO 04009KT 10SM BKN007 OVC013 03/03 A3006 RMK AO2 SLP179 T00330028,0,9,0,16090.0,0,0,0,
2026-04-01 03:12:00,SPECI KUGN 010312Z AUTO 03013G23KT 10SM FEW008 BKN012 04/03 A3002 RMK AO2 T00390028,0,13,1,16090.0,0,0,0,
2026-04-01 02:51:00,METAR KUGN 010251Z AUTO 03012KT 10SM SCT008 BKN075 04/03 A3001 RMK AO2 SLP162 T00440033 51028,0,12,0,16090.0,0,0,0,
2026-04-01 01:51:00,METAR KUGN 010151Z AUTO 02012G20KT 10SM FEW008 SCT016 OVC075 04/03 A3000 RMK AO2 SLP160 T00440033,0,12,1,16090.0,0,0,0,
2026-04-01 01:27:00,SPECI KUGN 010127Z AUTO 02012G23KT 10SM FEW008 BKN016 OVC070 04/03 A2999 RMK AO2 T00440028,0,12,1,16090.0,0,0,0,
2026-04-01 00:57:00,SPECI KUGN 010057Z 03011G20KT 10SM FEW008 BKN012 OVC060 04/03 A2997 RMK AO2 T00440033,0,11,1,16090.0,0,0,0,
2026-04-01 00:51:00,METAR KUGN 010051Z 02012G18KT 10SM SCT010 BKN018 OVC060 04/03 A2996 RMK AO2 SLP147 LAST T00440033,0,12,1,16090.0,0,0,0,
2026-04-01 00:27:00,SPECI KUGN 010027Z 03010KT 10SM FEW007 BKN019 OVC055 05/04 A2995 RMK AO2 T00500044,0,10,0,16090.0,0,0,0,
2026-03-31 23:51:00,METAR KUGN 312351Z 03010G14KT 10SM FEW006 OVC050 05/04 A2993 RMK AO2 SLP135 60046 T00500044 10161 20044 53026,0,10,1,16090.0,0,0,0,
2026-03-31 23:39:00,SPECI KUGN 312339Z 04007KT 10SM SCT004 OVC050 05/04 A2991 RMK AO2 T00500044,0,7,0,16090.0,0,0,0,
2026-03-31 22:51:00,METAR KUGN 312251Z COR 05004KT 3SM BR OVC003 05/04 A2990 RMK AO2 SLP124 T00500044,0,4,0,4827.0,0,0,1,BR
2026-03-31 21:51:00,METAR KUGN 312151Z COR 08006KT 2SM BR BKN003 BKN023 OVC035 06/06 A2983 RMK AO2 LTG DSNT E AND SE RAE28 TSB2053E16B17E32 CIG 001V005 SLP101 P0024 T00610056,0,6,0,3218.0,1,0,1,"BR,DS,TS"
2026-03-31 21:45:00,SPECI KUGN 312145Z 10005KT 4SM BR BKN004 BKN022 OVC036 07/06 A2983 RMK AO2 LTG DSNT E AND SE RAE28 TSB2053E16B17E32 CIG 001V005 P0024,0,5,0,6436.0,1,0,1,"BR,DS,TS"
2026-03-31 21:38:00,SPECI KUGN 312138Z COR 04007KT 4SM VCTS BR SCT004 BKN022 OVC036 07/07 A2982 RMK AO2 LTG DSNT E AND SE RAE28 TSB2053E16B17E32 P0024 T00720067,0,7,0,6436.0,1,0,1,"BR,DS,TS,VC"
2026-03-31 21:20:00,SPECI KUGN 312120Z 36005KT 5SM -TSRA BR SCT005 BKN022 OVC032 07/07 A2983 RMK AO2 LTG DSNT NE AND E TSB2053E16B17 P0024 T00670067,0,5,0,8045.0,1,0,1,"BR,DS,RA,TS"
2026-03-31 21:06:00,SPECI KUGN 312106Z COR VRB03KT 1SM +TSRA BR SCT006 OVC017 07/06 A2984 RMK AO2 LTG DSNT NE AND E AND W TS OVH MOV SE TSB2053 P0023 T00670061,0,3,0,1609.0,1,0,1,"BR,DS,RA,TS"
2026-03-31 20:56:00,SPECI KUGN 312056Z COR 08004G18KT 1 1/2SM +TSRA BR SCT006 OVC017 07/06 A2982 RMK AO2 LTG DSNT ALQDS TSB53 P0014 T00670061,0,4,1,2414.0,1,0,1,"BR,DS,RA"
2026-03-31 20:53:00,SPECI KUGN 312053Z 29012G18KT 4SM TSRA BR SCT006 OVC017 07/06 A2987 RMK AO2 LTG DSNT ALQDS TSB53 PRESRR P0003 T00670061,0,12,1,6436.0,1,0,1,"BR,DS,RA,TS"
2026-03-31 20:51:00,METAR KUGN 312051Z COR 33008KT 290V360 1 1/2SM +TSRA BR FEW006 OVC017 07/06 A2985 RMK AO2 LTG DSNT ALQDS RAB07E47B49 TSB28E46 PRESRR SLP107 TS OVH MOV SE P0022 60022 T00670061 53034,0,8,0,2414.0,1,0,1,"BR,DS,RA,TS"
2026-03-31 20:47:00,SPECI KUGN 312047Z 01005KT 4SM VCTS BR OVC018 07/06 A2982 RMK AO2 LTG DSNT ALQDS RAB07E47 TSB28E46 TS OVH MOV SE P0020,0,5,0,6436.0,1,0,1,"BR,DS,RA,TS,VC"
2026-03-31 20:34:00,SPECI KUGN 312034Z 36006KT 2SM +TSRA BR OVC018 07/06 A2981 RMK AO2 LTG DSNT W-N RAB07 TSB28 TS OVH MOV SE P0019 T00670056,0,6,0,3218.0,1,0,1,"BR,DS,RA,TS"
2026-03-31 20:27:00,SPECI KUGN 312027Z COR 36003KT 2SM +TSRA BR OVC018 07/06 A2982 RMK AO2 LTG DSNT W AND NW RAB07 TS OVH MOV SE P0007 T00670056,0,3,0,3218.0,1,0,1,"BR,DS,RA,TS"
2026-03-31 20:09:00,SPECI KUGN 312009Z 36005KT 8SM -RA OVC021 07/04 A2982 RMK AO2 RAB07 P0001 T00670039,0,5,0,12872.0,0,0,0,-RA
2026-03-31 19:51:00,METAR KUGN 311951Z 03005KT 10SM OVC021 06/04 A2981 RMK AO2 SLP094 T00610039,0,5,0,16090.0,0,0,0,
2026-03-31 18:51:00,METAR KUGN 311851Z 03009KT 10SM BKN023 08/06 A2978 RMK AO2 PRESRR SLP080 T00780061,0,9,0,16090.0,0,0,0,
2026-03-31 18:43:00,SPECI KUGN 311843Z 03008KT 10SM BKN023 BKN028 08/07 A2976 RMK AO2 PRESRR T00830067,0,8,0,16090.0,0,0,0,
2026-03-31 17:51:00,METAR KUGN 311751Z VRB06KT 10SM BKN044 17/15 A2975 RMK AO2 LTG DSNT NW RAE23 TSE1655 SLP067 P0001 60026 T01720150 10228 20167 50008,0,6,0,16090.0,1,0,0,"DS,TS"
2026-03-31 17:09:00,SPECI KUGN 311709Z 22014KT 9SM -RA SCT026 BKN048 OVC085 17/15 A2974 RMK AO2 LTG DSNT E TSE1655 P0001 T01720150,0,14,0,14481.0,1,0,0,"-RA,DS,TS"
2026-03-31 16:58:00,SPECI KUGN 311658Z 23013G25KT 10SM VCTS -RA BKN025 OVC041 18/15 A2975 RMK AO2 LTG DSNT NE AND E TSE55 P0000 T01780150,0,13,1,16090.0,1,0,0,"-RA,DS,TS,VC"
2026-03-31 16:51:00,METAR KUGN 311651Z COR 23012G21KT 8SM -TSRA BR FEW018 BKN025 OVC039 17/15 A2976 RMK AO2 PK WND 25030/1631 LTG DSNT NE-SE RAB22 TSB23 SLP069 TS OVH MOV SE P0025 T01720150,0,12,1,12872.0,1,0,1,"BR,DS,RA,TS"
2026-03-31 16:35:00,SPECI KUGN 311635Z 23017G30KT 1 3/4SM +TSRA FEW021 BKN030 OVC042 18/14 A2976 RMK AO2 PK WND 25030/1631 LTG DSNT ALQDS RAB22 TSB23 TS OVH MOV SE P0015 T01830144,0,17,1,2816.0,1,0,0,"DS,RA,TS"
2026-03-31 16:29:00,SPECI KUGN 311629Z 23019G27KT 8SM -TSRA FEW030 BKN040 OVC060 19/14 A2974 RMK AO2 PK WND 24027/1559 LTG DSNT ALQDS RAB22 TSB23 TS OVH MOV SE P0001 T01890139,0,19,1,12872.0,1,0,0,"DS,RA,TS"
2026-03-31 15:51:00,METAR KUGN 311551Z 23021G30KT 10SM VCTS BKN040 OVC100 21/13 A2974 RMK AO2 PK WND 23030/1551 LTG DSNT ALQDS SLP060 T02110133,0,21,1,16090.0,1,0,0,"DS,TS,VC"
2026-03-31 15:40:00,SPECI KUGN 311540Z 24021G27KT 10SM VCTS SCT042 BKN100 22/14 A2974 RMK AO2 PK WND 22029/1506 LTG DSNT ALQDS T02220139,0,21,1,16090.0,1,0,0,"DS,TS,VC"
2026-03-31 14:51:00,METAR KUGN 311451Z 23016G25KT 10SM SCT070 22/14 A2972 RMK AO2 SLP054 T02220139 58001,0,16,1,16090.0,0,0,0,
2026-03-31 13:51:00,METAR KUGN 311351Z 22010KT 10SM CLR 19/13 A2972 RMK AO2 SLP054 T01890128,0,10,0,16090.0,0,0,0,
2026-03-31 12:51:00,METAR KUGN 311251Z 23011KT 10SM CLR 18/13 A2975 RMK AO2 SLP064 T01780128,0,11,0,16090.0,0,0,0,
2026-03-31 11:51:00,METAR KUGN 311151Z 20009KT 10SM CLR 17/13 A2973 RMK AO2 SLP056 60000 T01720128 10206 20161 55009,0,9,0,16090.0,0,0,0,
2026-03-31 10:51:00,METAR KUGN 311051Z 20005KT 10SM CLR 17/13 A2970 RMK AO2 RAB0954E01 PRESFR SLP047 P0000 T01720128,0,5,0,16090.0,0,0,0,RA
2026-03-31 09:51:00,METAR KUGN 310951Z AUTO VRB06KT 10SM BKN110 19/12 A2974 RMK AO2 PK WND 27030/0852 RAE50 SLP059 P0000 T01940117,0,6,0,16090.0,0,0,0,
2026-03-31 08:51:00,METAR KUGN 310851Z AUTO 25018G28KT 10SM -RA BKN110 19/14 A2975 RMK AO2 PK WND 25035/0835 RAB22 SLP065 P0000 60000 T01890144 53018,0,18,1,16090.0,0,0,0,-RA
2026-03-31 08:39:00,SPECI KUGN 310839Z AUTO 25020G35KT 10SM -RA FEW095 SCT110 20/14 A2976 RMK AO2 PK WND 25035/0835 LTG DSNT W RAB22 PRESRR P0000 T02000144,0,20,1,16090.0,0,0,0,"-RA,DS"
2026-03-31 08:24:00,SPECI KUGN 310824Z AUTO 24019G29KT 10SM VCTS -RA FEW120 21/14 A2974 RMK AO2 PK WND 22029/0816 LTG DSNT W RAB22 PRESRR P0000 T02060144,0,19,1,16090.0,1,0,0,"-RA,DS,TS,VC"
2026-03-31 07:51:00,METAR KUGN 310751Z AUTO 21017G25KT 10SM FEW100 21/14 A2971 RMK AO2 PK WND 22029/0652 LTG DSNT W SLP049 T02060139,0,17,1,16090.0,0,0,0,DS
2026-03-31 06:51:00,METAR KUGN 310651Z AUTO 22017G27KT 10SM CLR 20/14 A2972 RMK AO2 PK WND 20035/0632 PRESRR SLP054 T02000144,0,17,1,16090.0,0,0,0,
2026-03-31 05:51:00,METAR KUGN 310551Z AUTO 20017G30KT 10SM CLR 19/14 A2970 RMK AO2 PK WND 19042/0521 SLP048 T01940144 10250 20194 402610056 58004,0,17,1,16090.0,0,0,0,
2026-03-31 04:51:00,METAR KUGN 310451Z AUTO 20019G29KT 10SM CLR 21/14 A2970 RMK AO2 PK WND 20031/0435 LTG DSNT NE-S SLP049 T02060144,0,19,1,16090.0,0,0,0,DS
2026-03-31 04:39:00,SPECI KUGN 310439Z AUTO 20021G31KT 10SM FEW120 21/14 A2969 RMK AO2 PK WND 20031/0435 LTG DSNT NE-S T02110139,0,21,1,16090.0,0,0,0,DS
2026-03-31 04:08:00,SPECI KUGN 310408Z AUTO 22019G27KT 10SM VCTS SCT110 22/14 A2972 RMK AO2 PK WND 21027/0400 LTG DSNT ALQDS T02220139,0,19,1,16090.0,1,0,0,"DS,TS,VC"
2026-03-31 03:51:00,METAR KUGN 310351Z AUTO 21016G29KT 10SM FEW100 22/14 A2972 RMK AO2 PK WND 23030/0334 LTG DSNT ALQDS SLP055 T02220139,0,16,1,16090.0,0,0,0,DS
2026-03-31 02:51:00,METAR KUGN 310251Z AUTO 22009G21KT 10SM CLR 23/13 A2971 RMK AO2 LTG DSNT SW SLP053 T02330128 50007,0,9,1,16090.0,0,0,0,DS
2026-03-31 01:51:00,METAR KUGN 310151Z AUTO 24007KT 10SM FEW110 23/12 A2973 RMK AO2 SLP062 T02330122,0,7,0,16090.0,0,0,0,
2026-03-31 00:51:00,METAR KUGN 310051Z 21014KT 10SM CLR 24/12 A2967 RMK AO2 SLP042 LAST T02440122,0,14,0,16090.0,0,0,0,
2026-03-30 23:51:00,METAR KUGN 302351Z 21015KT 10SM CLR 25/12 A2969 RMK AO2 SLP050 T02500117 10261 20228 56023,0,15,0,16090.0,0,0,0,
2026-03-30 22:51:00,METAR KUGN 302251Z 21015G24KT 10SM CLR 26/12 A2971 RMK AO2 PK WND 22028/2201 SLP055 T02560117,0,15,1,16090.0,0,0,0,
2026-03-30 21:51:00,METAR KUGN 302151Z 21017G23KT 10SM CLR 26/11 A2973 RMK AO2 PK WND 20027/2121 SLP064 T02610111,0,17,1,16090.0,0,0,0,
2026-03-30 20:51:00,METAR KUGN 302051Z 20016G22KT 10SM CLR 26/12 A2976 RMK AO2 SLP074 T02560117 58026,0,16,1,16090.0,0,0,0,
2026-03-30 19:51:00,METAR KUGN 301951Z 20018G23KT 10SM CLR 24/11 A2979 RMK AO2 SLP083 T02440111,0,18,1,16090.0,0,0,0,
2026-03-30 19:23:00,SPECI KUGN 301923Z 19009G18KT 140V230 10SM CLR 24/11 A2980 RMK AO2 T02440106,0,9,1,16090.0,0,0,0,
2026-03-30 18:51:00,METAR KUGN 301851Z 21014G20KT 10SM CLR 24/11 A2982 RMK AO2 SLP093 T02390106,0,14,1,16090.0,0,0,0,
2026-03-30 17:51:00,METAR KUGN 301751Z 22010KT 10SM CLR 23/10 A2984 RMK AO2 SLP101 T02280100 10228 20078 58016,0,10,0,16090.0,0,0,0,
2026-03-30 16:51:00,METAR KUGN 301651Z 26012KT 10SM BKN080 21/09 A2988 RMK AO2 SLP117 T02060089,0,12,0,16090.0,0,0,0,
2026-03-30 15:54:00,SPECI KUGN 301554Z 24016G22KT 10SM CLR 20/08 A2989 RMK AO2 T02000083,0,16,1,16090.0,0,0,0,
2026-03-30 15:51:00,METAR KUGN 301551Z 24015KT 10SM CLR 20/08 A2989 RMK AO2 SLP117 T02000083,0,15,0,16090.0,0,0,0,
2026-03-30 14:51:00,METAR KUGN 301451Z 21012KT 10SM FEW075 17/07 A2989 RMK AO2 SLP118 T01670067 58013,0,12,0,16090.0,0,0,0,
2026-03-30 13:51:00,METAR KUGN 301351Z 23007KT 10SM OVC075 12/06 A2991 RMK AO2 SLP129 T01220056,0,7,0,16090.0,0,0,0,
2026-03-30 12:51:00,METAR KUGN 301251Z 23006KT 10SM BKN070 11/05 A2993 RMK AO2 SLP134 T01110050,0,6,0,16090.0,0,0,0,
2026-03-30 12:23:00,SPECI KUGN 301223Z 23006KT 10SM FEW070 09/04 A2993 RMK AO2 T00940044,0,6,0,16090.0,0,0,0,
2026-03-30 11:51:00,METAR KUGN 301151Z 22006KT 10SM CLR 08/03 A2993 RMK AO2 SLP134 T00780028 10094 20056 56004,0,6,0,16090.0,0,0,0,
2026-03-30 10:51:00,METAR KUGN 301051Z 22004KT 10SM CLR 07/01 A2992 RMK AO2 SLP134 T00670011,0,4,0,16090.0,0,0,0,
2026-03-30 09:51:00,METAR KUGN 300951Z AUTO 22006KT 10SM CLR 07/01 A2992 RMK AO2 SLP132 T00720006,0,6,0,16090.0,0,0,0,
2026-03-30 08:51:00,METAR KUGN 300851Z AUTO 23008KT 10SM CLR 08/01 A2994 RMK AO2 SLP137 T00780011 58012,0,8,0,16090.0,0,0,0,
2026-03-30 07:51:00,METAR KUGN 300751Z AUTO 23006KT 10SM CLR 08/00 A2995 RMK AO2 SLP141 T00830000,0,6,0,16090.0,0,0,0,
2026-03-30 06:51:00,METAR KUGN 300651Z AUTO 24004KT 10SM CLR 09/00 A2997 RMK AO2 SLP148 T00940000,0,4,0,16090.0,0,0,0,
2026-03-30 05:51:00,METAR KUGN 300551Z AUTO 22007KT 10SM CLR 08/00 A2997 RMK AO2 SLP149 T00830000 10156 20078 401720039 56016,0,7,0,16090.0,0,0,0,
2026-03-30 04:51:00,METAR KUGN 300451Z AUTO 22006KT 10SM CLR 08/M01 A2999 RMK AO2 SLP155 T00831006,0,6,0,16090.0,0,0,0,
2026-03-30 03:51:00,METAR KUGN 300351Z AUTO 22009KT 10SM CLR 11/M01 A3000 RMK AO2 SLP161 T01061006,0,9,0,16090.0,0,0,0,
2026-03-30 02:51:00,METAR KUGN 300251Z AUTO 21007KT 10SM SCT047 12/M01 A3002 RMK AO2 SLP167 T01171011 50005,0,7,0,16090.0,0,0,0,
2026-03-30 01:51:00,METAR KUGN 300151Z AUTO 22014KT 10SM OVC048 14/M02 A3002 RMK AO2 SLP167 T01441017,0,14,0,16090.0,0,0,0,
2026-03-30 00:51:00,METAR KUGN 300051Z 21009KT 10SM OVC044 15/M02 A3001 RMK AO2 SLP163 LAST T01501017,0,9,0,16090.0,0,0,0,
2026-03-29 23:51:00,METAR KUGN 292351Z 21010KT 10SM OVC049 16/M02 A3001 RMK AO2 SLP162 T01561017 10172 20156 56010,0,10,0,16090.0,0,0,0,
2026-03-29 22:51:00,METAR KUGN 292251Z 21016G21KT 10SM BKN050 16/M03 A3001 RMK AO2 SLP164 T01611028,0,16,1,16090.0,0,0,0,
2026-03-29 21:51:00,METAR KUGN 292151Z 21010KT 10SM CLR 17/M03 A3002 RMK AO2 SLP169 T01671028,0,10,0,16090.0,0,0,0,
2026-03-29 20:51:00,METAR KUGN 292051Z 21013G23KT 10SM CLR 17/M04 A3004 RMK AO2 SLP172 T01671039 58029,0,13,1,16090.0,0,0,0,
2026-03-29 19:51:00,METAR KUGN 291951Z 23013KT 10SM SCT075 17/M05 A3007 RMK AO2 SLP183 T01671050,0,13,0,16090.0,0,0,0,
2026-03-29 18:51:00,METAR KUGN 291851Z 20010KT 10SM BKN075 17/M03 A3010 RMK AO2 SLP193 T01671033,0,10,0,16090.0,0,0,0,
2026-03-29 17:51:00,METAR KUGN 291751Z 21016G20KT 10SM FEW085 16/M04 A3012 RMK AO2 SLP203 T01611044 10161 20072 58018,0,16,1,16090.0,0,0,0,
2026-03-29 16:51:00,METAR KUGN 291651Z 21015G19KT 10SM BKN090 15/M04 A3014 RMK AO2 SLP209 T01501044,0,15,1,16090.0,0,0,0,
2026-03-29 14:51:00,METAR KUGN 291451Z 23015KT 10SM OVC100 11/M03 A3018 RMK AO2 SLP222 T01111033 58008,0,15,0,16090.0,0,0,0,
2026-03-29 13:51:00,METAR KUGN 291351Z 22012KT 10SM OVC110 09/M03 A3019 RMK AO2 SLP228 T00891033,0,12,0,16090.0,0,0,0,
2026-03-29 12:51:00,METAR KUGN 291251Z 22012KT 10SM OVC110 07/M03 A3021 RMK AO2 SLP234 T00721033,0,12,0,16090.0,0,0,0,
2026-03-29 11:51:00,METAR KUGN 291151Z 22013KT 10SM OVC110 07/M03 A3020 RMK AO2 SLP233 T00721028 10072 20039 56010,0,13,0,16090.0,0,0,0,
2026-03-29 10:51:00,METAR KUGN 291051Z 22011KT 10SM OVC110 06/M02 A3021 RMK AO2 SLP236 T00611022,0,11,0,16090.0,0,0,0,
2026-03-29 09:51:00,METAR KUGN 290951Z AUTO 22010KT 10SM CLR 04/M02 A3022 RMK AO2 SLP241 T00441022,0,10,0,16090.0,0,0,0,
2026-03-29 08:51:00,METAR KUGN 290851Z AUTO 22010KT 10SM CLR 05/M02 A3024 RMK AO2 SLP245 T00501022 58018,0,10,0,16090.0,0,0,0,
2026-03-29 07:51:00,METAR KUGN 290751Z AUTO 22011KT 10SM CLR 06/M02 A3026 RMK AO2 SLP253 T00561022,0,11,0,16090.0,0,0,0,
2026-03-29 06:51:00,METAR KUGN 290651Z AUTO 21009KT 10SM CLR 05/M02 A3027 RMK AO2 SLP259 T00501022,0,9,0,16090.0,0,0,0,
2026-03-29 05:51:00,METAR KUGN 290551Z AUTO 22007KT 10SM CLR 04/M03 A3029 RMK AO2 SLP265 T00391028 10078 20039 400831067 53001,0,7,0,16090.0,0,0,0,
2026-03-29 04:51:00,METAR KUGN 290451Z AUTO 23008KT 10SM CLR 06/M03 A3029 RMK AO2 SLP264 T00561028,0,8,0,16090.0,0,0,0,
2026-03-29 03:51:00,METAR KUGN 290351Z AUTO 21011KT 10SM CLR 06/M03 A3028 RMK AO2 SLP262 T00611028,0,11,0,16090.0,0,0,0,
2026-03-29 02:51:00,METAR KUGN 290251Z AUTO 20011G19KT 10SM SCT100 07/M04 A3029 RMK AO2 SLP265 T00721039 56014,0,11,1,16090.0,0,0,0,
2026-03-29 01:51:00,METAR KUGN 290151Z AUTO 20016G23KT 10SM OVC100 08/M04 A3029 RMK AO2 SLP267 T00781044,0,16,1,16090.0,0,0,0,
2026-03-29 00:51:00,METAR KUGN 290051Z 20013KT 10SM OVC100 08/M04 A3031 RMK AO2 SLP274 LAST T00781044,0,13,0,16090.0,0,0,0,
2026-03-28 23:51:00,METAR KUGN 282351Z 20011KT 10SM OVC110 08/M06 A3033 RMK AO2 SLP281 T00781056 10083 20044 56024,0,11,0,16090.0,0,0,0,
2026-03-28 22:51:00,METAR KUGN 282251Z 21015KT 10SM OVC120 08/M07 A3035 RMK AO2 SLP289 T00781072,0,15,0,16090.0,0,0,0,
2026-03-28 21:51:00,METAR KUGN 282151Z 21015KT 10SM CLR 08/M08 A3038 RMK AO2 WSHFT 2102 SLP299 T00781078,0,15,0,16090.0,0,0,0,
2026-03-28 21:22:00,SPECI KUGN 282122Z 21015G20KT 10SM CLR 08/M08 A3039 RMK AO2 WSHFT 2102 T00781083,0,15,1,16090.0,0,0,0,
2026-03-28 20:51:00,METAR KUGN 282051Z 16007KT 10SM CLR 07/M04 A3040 RMK AO2 PRESFR SLP306 T00671039 58050,0,7,0,16090.0,0,0,0,
2026-03-28 19:51:00,METAR KUGN 281951Z 16012G18KT 10SM CLR 07/M07 A3046 RMK AO2 PRESFR SLP327 T00671072,0,12,1,16090.0,0,0,0,
2026-03-28 18:51:00,METAR KUGN 281851Z 16009KT 10SM CLR 04/M06 A3051 RMK AO2 PRESFR SLP342 T00441061,0,9,0,16090.0,0,0,0,
2026-03-28 17:51:00,METAR KUGN 281751Z 20011G17KT 10SM CLR 04/M10 A3055 RMK AO2 SLP358 T00441100 10050 21061 58027,0,11,1,16090.0,0,0,0,
2026-03-28 16:51:00,METAR KUGN 281651Z 24009KT 10SM CLR 03/M10 A3059 RMK AO2 SLP369 T00331100,0,9,0,16090.0,0,0,0,
2026-03-28 15:51:00,METAR KUGN 281551Z 21008KT 10SM CLR 02/M11 A3061 RMK AO2 SLP380 T00171111,0,8,0,16090.0,0,0,0,
2026-03-28 14:51:00,METAR KUGN 281451Z 22004KT 10SM CLR M01/M12 A3064 RMK AO2 SLP388 T10061117 50011,0,4,0,16090.0,0,0,0,
2026-03-28 13:51:00,METAR KUGN 281351Z VRB03KT 10SM CLR M01/M09 A3064 RMK AO2 SLP388 T10111094,0,3,0,16090.0,0,0,0,
2026-03-28 12:51:00,METAR KUGN 281251Z 25004KT 10SM CLR M03/M09 A3063 RMK AO2 SLP387 T10331094,0,4,0,16090.0,0,0,0,
2026-03-28 11:51:00,METAR KUGN 281151Z 00000KT 10SM CLR M06/M11 A3060 RMK AO2 SLP379 T10561106 11011 21067 55002,0,0,0,16090.0,0,0,0,
2026-03-28 10:51:00,METAR KUGN 281051Z 34003KT 10SM CLR M07/M09 A3060 RMK AO2 SLP377 T10671094,0,3,0,16090.0,0,0,0,
2026-03-28 09:51:00,METAR KUGN 280951Z AUTO 00000KT 10SM CLR M04/M10 A3060 RMK AO2 SLP378 T10441100,0,0,0,16090.0,0,0,0,
2026-03-28 08:51:00,METAR KUGN 280851Z AUTO 28003KT 10SM CLR M03/M09 A3061 RMK AO2 SLP379 T10331094 53007,0,3,0,16090.0,0,0,0,
2026-03-28 07:51:00,METAR KUGN 280751Z AUTO 31003KT 10SM CLR M02/M09 A3059 RMK AO2 SLP369 T10221094,0,3,0,16090.0,0,0,0,
2026-03-28 06:51:00,METAR KUGN 280651Z AUTO 34006KT 10SM CLR M02/M10 A3058 RMK AO2 SLP368 T10171100,0,6,0,16090.0,0,0,0,
2026-03-28 05:51:00,METAR KUGN 280551Z AUTO 34007KT 10SM CLR M01/M09 A3058 RMK AO2 SLP369 T10111089 10006 21033 400561033 53025,0,7,0,16090.0,0,0,0,
2026-03-28 04:51:00,METAR KUGN 280451Z AUTO 35005KT 10SM CLR M01/M07 A3055 RMK AO2 SLP358 T10111072,0,5,0,16090.0,0,0,0,
2026-03-28 03:51:00,METAR KUGN 280351Z AUTO 00000KT 10SM FEW070 M03/M04 A3053 RMK AO2 SLP354 T10281044,0,0,0,16090.0,0,0,0,
2026-03-28 02:51:00,METAR KUGN 280251Z AUTO 36003KT 10SM SCT060 BKN075 M01/M04 A3051 RMK AO2 SLP345 T10111039 53032,0,3,0,16090.0,0,0,0,
2026-03-28 01:51:00,METAR KUGN 280151Z AUTO 00000KT 10SM OVC080 M01/M04 A3048 RMK AO2 SLP334 T10061039,0,0,0,16090.0,0,0,0,
2026-03-28 00:51:00,METAR KUGN 280051Z 10004KT 10SM OVC080 00/M04 A3044 RMK AO2 SLP320 LAST T00001039,0,4,0,16090.0,0,0,0,
2026-03-27 23:51:00,METAR KUGN 272351Z 13006KT 10SM BKN075 01/M04 A3041 RMK AO2 SLP312 T00061044 10056 20006 53012,0,6,0,16090.0,0,0,0,
2026-03-27 22:51:00,METAR KUGN 272251Z 13006KT 10SM BKN070 01/M04 A3039 RMK AO2 SLP306 T00111044,0,6,0,16090.0,0,0,0,
2026-03-27 21:51:00,METAR KUGN 272151Z 08007KT 10SM OVC065 01/M05 A3039 RMK AO2 SLP302 T00111050,0,7,0,16090.0,0,0,0,
2026-03-27 20:51:00,METAR KUGN 272051Z 09007KT 10SM OVC060 01/M05 A3038 RMK AO2 SLP300 T00111050 56005,0,7,0,16090.0,0,0,0,
2026-03-27 19:51:00,METAR KUGN 271951Z COR 32006G19KT 10SM BKN055 04/M07 A3038 RMK AO2 SLP298 T00441072,0,6,1,16090.0,0,0,0,
2026-03-27 18:51:00,METAR KUGN 271851Z 34010G17KT 10SM SCT046 04/M07 A3039 RMK AO2 SLP302 T00391072,0,10,1,16090.0,0,0,0,
2026-03-27 17:51:00,METAR KUGN 271751Z COR 32007G18KT 10SM FEW038 03/M07 A3039 RMK AO2 SLP303 T00331067 10033 21011 58007,0,7,1,16090.0,0,0,0,
2026-03-27 17:04:00,SPECI KUGN 271704Z COR 35008KT 10SM FEW032 02/M07 A3040 RMK AO2 T00221067,0,8,0,16090.0,0,0,0,
2026-03-27 16:51:00,METAR KUGN 271651Z VRB05G14KT 10SM CLR 02/M06 A3040 RMK AO2 SLP306 T00171061,0,5,1,16090.0,0,0,0,
2026-03-27 15:51:00,METAR KUGN 271551Z 35008G18KT 10SM BKN028 01/M06 A3042 RMK AO2 SLP313 T00061061,0,8,1,16090.0,0,0,0,
2026-03-25 14:51:00,METAR KUGN 251451Z 21012G18KT 10SM BKN120 11/M02 A3001 RMK AO2 SLP167 T01061022 56022,0,12,1,16090.0,0,0,0,
2026-03-25 13:51:00,METAR KUGN 251351Z 18009KT 10SM FEW070 08/M02 A3003 RMK AO2 SLP174 T00781017,0,9,0,16090.0,0,0,0,
2026-03-25 12:51:00,METAR KUGN 251251Z 16003KT 10SM CLR 05/M01 A3005 RMK AO2 SLP183 T00501006,0,3,0,16090.0,0,0,0,
2026-03-25 12:16:00,SPECI KUGN 251216Z 17004KT 10SM CLR 04/M01 A3006 RMK AO2 T00391006,0,4,0,16090.0,0,0,0,
2026-03-25 11:51:00,METAR KUGN 251151Z 17005KT 10SM CLR 04/00 A3007 RMK AO2 SLP193 T00390000 10044 20011 56020,0,5,0,16090.0,0,0,0,
2026-03-25 10:51:00,METAR KUGN 251051Z 15004KT 10SM CLR 03/00 A3008 RMK AO2 SLP194 T00280000,0,4,0,16090.0,0,0,0,
2026-03-25 09:51:00,METAR KUGN 250951Z AUTO 14004KT 10SM CLR 02/M01 A3011 RMK AO2 SLP204 T00221006,0,4,0,16090.0,0,0,0,
2026-03-25 08:51:00,METAR KUGN 250851Z AUTO 15004KT 10SM CLR 04/M01 A3013 RMK AO2 SLP211 T00391011 56020,0,4,0,16090.0,0,0,0,
2026-03-25 07:51:00,METAR KUGN 250751Z AUTO 15007KT 10SM CLR 04/M02 A3014 RMK AO2 SLP213 T00441022,0,7,0,16090.0,0,0,0,
2026-03-25 06:51:00,METAR KUGN 250651Z AUTO 14007KT 10SM CLR 03/M02 A3017 RMK AO2 SLP222 T00331017,0,7,0,16090.0,0,0,0,
2026-03-25 05:51:00,METAR KUGN 250551Z AUTO 13005KT 10SM CLR 03/M02 A3019 RMK AO2 SLP231 T00331017 10033 20022 400941039 56014,0,5,0,16090.0,0,0,0,
2026-03-25 04:51:00,METAR KUGN 250451Z AUTO 14006KT 10SM CLR 02/M02 A3020 RMK AO2 SLP236 T00221022,0,6,0,16090.0,0,0,0,
2026-03-25 03:51:00,METAR KUGN 250351Z AUTO 10003KT 10SM CLR 02/M03 A3022 RMK AO2 SLP242 T00221028,0,3,0,16090.0,0,0,0,
2026-03-25 02:51:00,METAR KUGN 250251Z AUTO 10003KT 10SM CLR 03/M03 A3024 RMK AO2 SLP249 T00281028 55003,0,3,0,16090.0,0,0,0,
2026-03-25 01:51:00,METAR KUGN 250151Z AUTO 11004KT 10SM CLR 03/M03 A3023 RMK AO2 SLP246 T00281028,0,4,0,16090.0,0,0,0,
2026-03-25 00:51:00,METAR KUGN 250051Z 11004KT 10SM CLR 03/M03 A3024 RMK AO2 SLP251 LAST T00331028,0,4,0,16090.0,0,0,0,
2026-03-24 23:51:00,METAR KUGN 242351Z COR 14005KT 10SM CLR 03/M03 A3025 RMK AO2 SLP253 T00331033 10094 20033 55001,0,5,0,16090.0,0,0,0,
2026-03-24 22:51:00,METAR KUGN 242251Z COR 14006KT 10SM CLR 06/M03 A3024 RMK AO2 SLP251 T00611033,0,6,0,16090.0,0,0,0,
2026-03-24 21:51:00,METAR KUGN 242151Z COR 14007KT 10SM CLR 08/M04 A3025 RMK AO2 SLP251 T00781039,0,7,0,16090.0,0,0,0,
2026-03-24 20:51:00,METAR KUGN 242051Z COR 14007KT 10SM SCT080 07/M02 A3025 RMK AO2 SLP253 T00721022 56023,0,7,0,16090.0,0,0,0,
2026-03-24 19:51:00,METAR KUGN 241951Z 14007KT 10SM CLR 08/M04 A3026 RMK AO2 SLP256 T00781039,0,7,0,16090.0,0,0,0,
2026-03-24 18:51:00,METAR KUGN 241851Z 22007KT 10SM BKN090 08/M07 A3029 RMK AO2 SLP268 T00781072,0,7,0,16090.0,0,0,0,
2026-03-24 17:51:00,METAR KUGN 241751Z 22009KT 10SM CLR 07/M07 A3032 RMK AO2 SLP277 T00721072 10072 21011 56013,0,9,0,16090.0,0,0,0,
2026-03-24 16:51:00,METAR KUGN 241651Z 20009KT 10SM FEW075 SCT100 06/M08 A3033 RMK AO2 SLP280 T00561078,0,9,0,16090.0,0,0,0,
2026-03-24 15:51:00,METAR KUGN 241551Z 21011KT 10SM FEW070 BKN100 05/M07 A3035 RMK AO2 SLP288 T00501072,0,11,0,16090.0,0,0,0,
2026-03-24 14:51:00,METAR KUGN 241451Z 20010KT 10SM BKN110 03/M08 A3036 RMK AO2 SLP292 T00281078 50000,0,10,0,16090.0,0,0,0,
2026-03-24 13:51:00,METAR KUGN 241351Z 21011KT 10SM CLR 01/M08 A3036 RMK AO2 SLP295 T00111083,0,11,0,16090.0,0,0,0,
2026-03-24 12:51:00,METAR KUGN 241251Z 20008KT 10SM BKN120 00/M09 A3036 RMK AO2 SLP294 T00001089,0,8,0,16090.0,0,0,0,
2026-03-24 11:51:00,METAR KUGN 241151Z 19006KT 10SM FEW110 M01/M08 A3036 RMK AO2 SLP293 T10061083 10000 21039 56002,0,6,0,16090.0,0,0,0,
2026-03-24 10:51:00,METAR KUGN 241051Z 18006KT 10SM BKN120 M01/M07 A3036 RMK AO2 SLP293 T10061072,0,6,0,16090.0,0,0,0,
2026-03-24 09:51:00,METAR KUGN 240951Z AUTO 19006KT 10SM BKN120 M01/M06 A3036 RMK AO2 SLP293 T10061056,0,6,0,16090.0,0,0,0,
2026-03-24 08:51:00,METAR KUGN 240851Z AUTO 19007KT 10SM SCT110 M01/M06 A3036 RMK AO2 SLP294 T10061056 58016,0,7,0,16090.0,0,0,0,
2026-03-24 07:51:00,METAR KUGN 240751Z AUTO 16004KT 10SM FEW120 M01/M05 A3038 RMK AO2 SLP299 T10111050,0,4,0,16090.0,0,0,0,
2026-03-24 06:51:00,METAR KUGN 240651Z AUTO 23003KT 10SM CLR M02/M05 A3042 RMK AO2 SLP312 T10221050,0,3,0,16090.0,0,0,0,
2026-03-24 05:51:00,METAR KUGN 240551Z AUTO 20003KT 10SM CLR M03/M06 A3041 RMK AO2 SLP312 T10281056 10000 21028 400331028 55002,0,3,0,16090.0,0,0,0,
2026-03-24 04:51:00,METAR KUGN 240451Z AUTO 14005KT 10SM CLR M02/M06 A3040 RMK AO2 SLP307 T10171056,0,5,0,16090.0,0,0,0,
2026-03-24 03:51:00,METAR KUGN 240351Z AUTO 17004KT 10SM CLR M01/M06 A3042 RMK AO2 SLP313 T10061056,0,4,0,16090.0,0,0,0,
2026-03-24 02:51:00,METAR KUGN 240251Z AUTO 14005KT 10SM CLR M01/M06 A3042 RMK AO2 SLP314 T10111061 58007,0,5,0,16090.0,0,0,0,
2026-03-24 01:51:00,METAR KUGN 240151Z AUTO 13005KT 10SM CLR M01/M06 A3043 RMK AO2 SLP319 T10111061,0,5,0,16090.0,0,0,0,
2026-03-24 00:51:00,METAR KUGN 240051Z 11004KT 10SM CLR M01/M07 A3044 RMK AO2 SLP321 LAST T10111067,0,4,0,16090.0,0,0,0,
2026-03-23 23:51:00,METAR KUGN 232351Z 11007KT 10SM CLR 00/M07 A3044 RMK AO2 SLP321 T00001067 10033 20000 53006,0,7,0,16090.0,0,0,0,
2026-03-23 22:51:00,METAR KUGN 232251Z 09009KT 10SM CLR 01/M06 A3043 RMK AO2 SLP318 T00111061,0,9,0,16090.0,0,0,0,
2026-03-23 21:51:00,METAR KUGN 232151Z 09010KT 10SM CLR 02/M07 A3043 RMK AO2 SLP316 T00171067,0,10,0,16090.0,0,0,0,
2026-03-23 20:51:00,METAR KUGN 232051Z 10010KT 10SM CLR 03/M07 A3042 RMK AO2 SLP314 T00281072 50000,0,10,0,16090.0,0,0,0,
2026-03-23 19:51:00,METAR KUGN 231951Z 07010KT 10SM CLR 03/M07 A3042 RMK AO2 SLP314 T00331072,0,10,0,16090.0,0,0,0,
2026-03-23 18:51:00,METAR KUGN 231851Z COR 04005KT 10SM FEW040 03/M08 A3043 RMK AO2 SLP316 T00281078,0,5,0,16090.0,0,0,0,
2026-03-23 17:51:00,METAR KUGN 231751Z 07009G18KT 10SM SCT046 03/M07 A3042 RMK AO2 SLP313 T00281072 10028 21022 51018,0,9,1,16090.0,0,0,0,
2026-03-23 16:51:00,METAR KUGN 231651Z 03008G17KT 10SM SCT049 02/M08 A3041 RMK AO2 SLP311 T00221083,0,8,1,16090.0,0,0,0,
2026-03-23 15:51:00,METAR KUGN 231551Z COR 36011G24KT 10SM FEW030 02/M09 A3039 RMK AO2 SLP304 T00171094,0,11,1,16090.0,0,0,0,
2026-03-23 14:51:00,METAR KUGN 231451Z 35013G22KT 10SM CLR 01/M09 A3037 RMK AO2 PK WND 35029/1413 SLP297 T00061094 51022,0,13,1,16090.0,0,0,0,
2026-03-23 13:51:00,METAR KUGN 231351Z 35011G19KT 10SM CLR M01/M07 A3036 RMK AO2 SLP293 T10061072,0,11,1,16090.0,0,0,0,
2026-03-23 12:51:00,METAR KUGN 231251Z 33008G17KT 10SM CLR M02/M07 A3033 RMK AO2 SLP284 T10171072,0,8,1,16090.0,0,0,0,
2026-03-23 11:51:00,METAR KUGN 231151Z 33006KT 10SM CLR M02/M07 A3030 RMK AO2 SLP275 T10171067 11011 21022 53022,0,6,0,16090.0,0,0,0,
2026-03-23 11:19:00,SPECI KUGN 231119Z 33004KT 10SM SCT029 M02/M06 A3029 RMK AO2 T10171056,0,4,0,16090.0,0,0,0,
2026-03-23 10:51:00,METAR KUGN 231051Z 34005KT 10SM OVC026 M01/M06 A3027 RMK AO2 SLP264 T10111061,0,5,0,16090.0,0,0,0,
2026-03-23 09:51:00,METAR KUGN 230951Z AUTO 36008KT 10SM OVC028 M01/M06 A3025 RMK AO2 SLP257 T10111061,0,8,0,16090.0,0,0,0,
2026-03-23 09:05:00,SPECI KUGN 230905Z AUTO 36007KT 10SM OVC028 M02/M06 A3024 RMK AO2 T10171061,0,7,0,16090.0,0,0,0,
2026-03-23 08:51:00,METAR KUGN 230851Z AUTO 35008KT 10SM OVC031 M02/M06 A3024 RMK AO2 SLP252 T10171061 51025,0,8,0,16090.0,0,0,0,
2026-03-23 07:51:00,METAR KUGN 230751Z AUTO 34006KT 10SM FEW020 BKN033 M02/M05 A3022 RMK AO2 SLP247 T10171050,0,6,0,16090.0,0,0,0,
2026-03-23 06:51:00,METAR KUGN 230651Z AUTO 36006G16KT 10SM CLR M01/M05 A3020 RMK AO2 SLP238 T10111050,0,6,1,16090.0,0,0,0,
2026-03-23 05:51:00,METAR KUGN 230551Z AUTO 01014G19KT 10SM CLR M01/M05 A3016 RMK AO2 SLP226 T10111050 10006 21011 401891011 53027,0,14,1,16090.0,0,0,0,
2026-03-23 04:51:00,METAR KUGN 230451Z AUTO 36012G21KT 10SM CLR M01/M05 A3013 RMK AO2 SLP215 T10111050,0,12,1,16090.0,0,0,0,
2026-03-23 04:06:00,SPECI KUGN 230406Z AUTO 36012G21KT 10SM SCT022 M01/M04 A3010 RMK AO2 T10061044,0,12,1,16090.0,0,0,0,
2026-03-23 03:51:00,METAR KUGN 230351Z AUTO 36014G21KT 10SM BKN024 M01/M04 A3010 RMK AO2 SLP202 T10061044,0,14,1,16090.0,0,0,0,
2026-03-23 03:07:00,SPECI KUGN 230307Z AUTO 36011G19KT 10SM BKN022 00/M04 A3009 RMK AO2 T00001039,0,11,1,16090.0,0,0,0,
2026-03-23 02:51:00,METAR KUGN 230251Z AUTO 36010G19KT 10SM FEW021 M01/M04 A3008 RMK AO2 SLP197 T10061044 51026,0,10,1,16090.0,0,0,0,
2026-03-23 02:22:00,SPECI KUGN 230222Z AUTO 36013G23KT 10SM FEW022 00/M04 A3007 RMK AO2 T00001044,0,13,1,16090.0,0,0,0,
2026-03-23 01:51:00,METAR KUGN 230151Z AUTO 01016G26KT 10SM BKN023 01/M04 A3006 RMK AO2 PK WND 01029/0110 SLP191 T00061044,0,16,1,16090.0,0,0,0,
2026-03-23 01:43:00,SPECI KUGN 230143Z AUTO 36014G24KT 10SM BKN023 01/M04 A3007 RMK AO2 PK WND 01029/0110 T00061044,0,14,1,16090.0,0,0,0,
2026-03-23 00:51:00,METAR KUGN 230051Z COR 01012G24KT 10SM FEW022 00/M04 A3004 RMK AO2 PK WND 01026/0031 SLP183 LAST 1039,0,12,1,16090.0,0,0,0,
2026-03-23 00:20:00,SPECI KUGN 230020Z 01009G20KT 10SM SCT020 01/M03 A3003 RMK AO2 PK WND 01026/0002 T00061033,0,9,1,16090.0,0,0,0,
2026-03-23 00:04:00,SPECI KUGN 230004Z 01015G26KT 10SM BKN020 BKN120 01/M03 A3002 RMK AO2 PK WND 01026/0002 T00061033,0,15,1,16090.0,0,0,0,
2026-03-22 23:51:00,METAR KUGN 222351Z 01015G24KT 10SM SCT018 BKN110 01/M03 A3000 RMK AO2 PK WND 01029/2320 SLP169 60000 T00061033 10017 20006 53007,0,15,1,16090.0,0,0,0,
2026-03-22 23:03:00,SPECI KUGN 222303Z 02017G26KT 10SM SCT016 01/M03 A2999 RMK AO2 PK WND 03026/2302 T00061028,0,17,1,16090.0,0,0,0,
2026-03-22 22:51:00,METAR KUGN 222251Z 02015G27KT 10SM BKN016 BKN120 01/M03 A2997 RMK AO2 PK WND 03031/2217 SLP157 T00061028,0,15,1,16090.0,0,0,0,
2026-03-22 21:51:00,METAR KUGN 222151Z 02018G31KT 10SM FEW017 BKN110 01/M03 A2998 RMK AO2 PK WND 03031/2142 SLP159 T00061033,0,18,1,16090.0,0,0,0,
2026-03-22 21:46:00,SPECI KUGN 222146Z 02014G31KT 10SM SCT017 OVC110 01/M03 A2998 RMK AO2 PK WND 03031/2142,0,14,1,16090.0,0,0,0,
2026-03-22 20:51:00,METAR KUGN 222051Z 01015G26KT 10SM OVC016 01/M03 A2996 RMK AO2 PK WND 36035/2015 SLP147 60000 T00111028 53025,0,15,1,16090.0,0,0,0,
2026-03-22 19:51:00,METAR KUGN 221951Z 02020G30KT 10SM OVC013 01/M02 A2990 RMK AO2 PK WND 02034/1901 RAB09E20UPB10E19 SLP129 P0000 T00111022,0,20,1,16090.0,0,0,0,RA
2026-03-22 18:51:00,METAR KUGN 221851Z 01017G29KT 10SM OVC012 01/M02 A2992 RMK AO2 PK WND 03039/1814 SLP133 T00111017,0,17,1,16090.0,0,0,0,
2026-03-22 17:51:00,METAR KUGN 221751Z 36014G38KT 10SM OVC012 02/M02 A2988 RMK AO2 PK WND 02040/1706 SLP122 T00171017 10044 20011 51036,0,14,1,16090.0,0,0,0,
2026-03-22 16:51:00,METAR KUGN 221651Z 01013G35KT 10SM OVC012 02/M01 A2987 RMK AO2 PK WND 36036/1628 SLP116 T00171006,0,13,1,16090.0,0,0,0,
2026-03-22 15:58:00,SPECI KUGN 221558Z 03015G33KT 10SM OVC012 03/00 A2981 RMK AO2 PK WND 03033/1554 T00280000,0,15,1,16090.0,0,0,0,
2026-03-22 15:51:00,METAR KUGN 221551Z COR 01017G29KT 10SM OVC012 03/00 A2983 RMK AO2 PK WND 02033/1526 SLP103 T00330000,0,17,1,16090.0,0,0,0,
2026-03-22 14:51:00,METAR KUGN 221451Z 03018G27KT 10SM OVC009 02/00 A2977 RMK AO2 PK WND 03035/1408 PRESRR SLP084 T00220000 53006,0,18,1,16090.0,0,0,0,
2026-03-22 13:51:00,METAR KUGN 221351Z 02018G30KT 10SM BKN010 03/01 A2975 RMK AO2 PK WND 04033/1316 SLP074 T00280006,0,18,1,16090.0,0,0,0,
2026-03-22 13:46:00,SPECI KUGN 221346Z 02018G30KT 10SM BKN011 03/01 A2974 RMK AO2 PK WND 04033/1316,0,18,1,16090.0,0,0,0,
2026-03-22 12:51:00,METAR KUGN 221251Z 02020G32KT 10SM CLR 03/01 A2976 RMK AO2 PK WND 01035/1204 SLP076 T00330006,0,20,1,16090.0,0,0,0,
2026-03-22 11:51:00,METAR KUGN 221151Z 01020G32KT 10SM CLR 04/01 A2972 RMK AO2 PK WND 01044/1058 SLP062 T00440011 10189 20044 53047,0,20,1,16090.0,0,0,0,
2026-03-22 10:51:00,METAR KUGN 221051Z 02021G33KT 10SM CLR 06/03 A2966 RMK AO2 PK WND 02033/1049 SLP039 T00610028,0,21,1,16090.0,0,0,0,
2026-03-22 09:51:00,METAR KUGN 220951Z AUTO 02015G27KT 10SM CLR 08/03 A2960 RMK AO2 PK WND 02031/0938 SLP018 T00780033,0,15,1,16090.0,0,0,0,
2026-03-22 08:51:00,METAR KUGN 220851Z AUTO 27003KT 10SM CLR 17/08 A2958 RMK AO2 SLP008 T01720078 53005,0,3,0,16090.0,0,0,0,
2026-03-22 07:51:00,METAR KUGN 220751Z AUTO 34005KT 10SM CLR 17/08 A2957 RMK AO2 SLP009 T01720078,0,5,0,16090.0,0,0,0,
2026-03-22 06:51:00,METAR KUGN 220651Z AUTO 26006KT 10SM CLR 18/07 A2955 RMK AO2 SLP004 T01830072,0,6,0,16090.0,0,0,0,
2026-03-22 05:51:00,METAR KUGN 220551Z AUTO 23007KT 10SM CLR 16/07 A2956 RMK AO2 SLP008 T01610072 10206 20156 402280011 58014,0,7,0,16090.0,0,0,0,
2026-03-22 04:51:00,METAR KUGN 220451Z AUTO 22007KT 10SM CLR 16/07 A2958 RMK AO2 SLP016 T01560072,0,7,0,16090.0,0,0,0,
2026-03-22 03:51:00,METAR KUGN 220351Z AUTO 23008KT 10SM CLR 17/08 A2959 RMK AO2 SLP020 T01720078,0,8,0,16090.0,0,0,0,
2026-03-22 02:51:00,METAR KUGN 220251Z AUTO 22006KT 10SM CLR 17/08 A2961 RMK AO2 SLP023 T01720078 58008,0,6,0,16090.0,0,0,0,
2026-03-22 01:51:00,METAR KUGN 220151Z AUTO 22009KT 10SM CLR 18/08 A2961 RMK AO2 SLP027 T01830083,0,9,0,16090.0,0,0,0,
2026-03-22 00:51:00,METAR KUGN 220051Z 22011KT 10SM CLR 19/08 A2963 RMK AO2 SLP032 LAST T01890083,0,11,0,16090.0,0,0,0,
2026-03-21 23:51:00,METAR KUGN 212351Z 22012KT 10SM CLR 21/08 A2963 RMK AO2 SLP032 T02060083 10228 20122 56018,0,12,0,16090.0,0,0,0,
2026-03-21 22:51:00,METAR KUGN 212251Z 22015G23KT 10SM CLR 22/08 A2964 RMK AO2 PK WND 23026/2157 SLP034 T02220078,0,15,1,16090.0,0,0,0,
2026-03-21 21:51:00,METAR KUGN 212151Z 22015KT 10SM CLR 22/07 A2966 RMK AO2 PK WND 24028/2114 SLP042 T02220072,0,15,0,16090.0,0,0,0,
2026-03-21 20:51:00,METAR KUGN 212051Z 21017G25KT 10SM CLR 22/07 A2968 RMK AO2 PK WND 23026/2035 WSHFT 2025 SLP052 T02170067 58050,0,17,1,16090.0,0,0,0,
2026-03-21 19:51:00,METAR KUGN 211951Z 16009KT 10SM CLR 15/06 A2973 RMK AO2 SLP069 T01500056,0,9,0,16090.0,0,0,0,
2026-03-21 18:51:00,METAR KUGN 211851Z 15008KT 10SM CLR 12/06 A2980 RMK AO2 SLP096 T01220056,0,8,0,16090.0,0,0,0,
2026-03-21 17:51:00,METAR KUGN 211751Z 15008KT 10SM CLR 12/05 A2984 RMK AO2 SLP108 T01170050 10122 20033 58027,0,8,0,16090.0,0,0,0,
2026-03-21 16:51:00,METAR KUGN 211651Z 15007KT 10SM SCT120 10/04 A2988 RMK AO2 SLP123 T01000044,0,7,0,16090.0,0,0,0,
2026-03-21 15:51:00,METAR KUGN 211551Z 13007KT 10SM BKN100 07/03 A2991 RMK AO2 SLP135 T00670028,0,7,0,16090.0,0,0,0,
2026-03-21 14:51:00,METAR KUGN 211451Z 15009KT 10SM SCT110 09/04 A2992 RMK AO2 SLP137 T00890039 58005,0,9,0,16090.0,0,0,0,
2026-03-21 14:24:00,SPECI KUGN 211424Z 15005KT 10SM BKN120 07/03 A2992 RMK AO2 T00670033,0,5,0,16090.0,0,0,0,
2026-03-21 13:51:00,METAR KUGN 211351Z 07003KT 10SM FEW070 SCT090 BKN110 05/03 A2993 RMK AO2 SLP143 T00500028,0,3,0,16090.0,0,0,0,
2026-03-21 12:51:00,METAR KUGN 211251Z 09005KT 9SM FEW120 04/02 A2993 RMK AO2 SLP142 T00390022,0,5,0,14481.0,0,0,0,
2026-03-21 11:51:00,METAR KUGN 211151Z 06004KT 9SM FEW120 03/02 A2993 RMK AO2 SLP143 T00330017 10033 20011 55005,0,4,0,14481.0,0,0,0,
2026-03-21 10:51:00,METAR KUGN 211051Z 06003KT 9SM CLR 03/01 A2993 RMK AO2 SLP142 T00280011,0,3,0,14481.0,0,0,0,
2026-03-21 09:51:00,METAR KUGN 210951Z AUTO 00000KT 10SM CLR 03/02 A2994 RMK AO2 SLP143 T00280017,0,0,0,16090.0,0,0,0,
2026-03-21 08:51:00,METAR KUGN 210851Z AUTO 00000KT 9SM CLR 02/01 A2995 RMK AO2 SLP148 T00170011 55000,0,0,0,14481.0,0,0,0,
2026-03-21 07:51:00,METAR KUGN 210751Z AUTO 00000KT 8SM CLR 03/02 A2994 RMK AO2 SLP143 T00280017,0,0,0,12872.0,0,0,0,
2026-03-21 06:51:00,METAR KUGN 210651Z AUTO 00000KT 10SM CLR 02/01 A2995 RMK AO2 SLP146 T00220011,0,0,0,16090.0,0,0,0,
2026-03-21 05:51:00,METAR KUGN 210551Z AUTO 00000KT 9SM CLR 02/02 A2995 RMK AO2 SLP144 T00220017 10061 20017 401830011 58000,0,0,0,14481.0,0,0,0,
2026-03-21 04:51:00,METAR KUGN 210451Z AUTO 00000KT 10SM CLR 02/01 A2995 RMK AO2 SLP145 T00220011,0,0,0,16090.0,0,0,0,
2026-03-21 03:51:00,METAR KUGN 210351Z AUTO 00000KT 10SM CLR 03/02 A2995 RMK AO2 SLP145 T00330022,0,0,0,16090.0,0,0,0,
2026-03-21 02:51:00,METAR KUGN 210251Z AUTO 04003KT 10SM CLR 04/02 A2995 RMK AO2 SLP144 T00440017 51014,0,3,0,16090.0,0,0,0,
2026-03-21 01:51:00,METAR KUGN 210151Z AUTO 00000KT 10SM CLR 04/02 A2995 RMK AO2 SLP144 T00440017,0,0,0,16090.0,0,0,0,
2026-03-21 00:51:00,METAR KUGN 210051Z 03005KT 10SM CLR 06/02 A2993 RMK AO2 SLP139 LAST T00560017,0,5,0,16090.0,0,0,0,
2026-03-20 23:51:00,METAR KUGN 202351Z 04006KT 10SM CLR 06/02 A2991 RMK AO2 SLP131 T00610022 10183 20061 51028,0,6,0,16090.0,0,0,0,
2026-03-20 22:51:00,METAR KUGN 202251Z 04008KT 10SM CLR 08/03 A2989 RMK AO2 SLP125 T00780033,0,8,0,16090.0,0,0,0,
2026-03-20 21:51:00,METAR KUGN 202151Z 02012G18KT 10SM CLR 09/04 A2985 RMK AO2 SLP114 T00940039,0,12,1,16090.0,0,0,0,
2026-03-20 20:51:00,METAR KUGN 202051Z 04012G21KT 10SM CLR 11/05 A2983 RMK AO2 SLP104 T01110050 51019,0,12,1,16090.0,0,0,0,
2026-03-20 19:51:00,METAR KUGN 201951Z 03014G26KT 10SM CLR 12/06 A2981 RMK AO2 PK WND 03026/1942 SLP100 T01170056,0,14,1,16090.0,0,0,0,
2026-03-20 18:51:00,METAR KUGN 201851Z 04010KT 10SM CLR 14/08 A2979 RMK AO2 SLP091 T01440078,0,10,0,16090.0,0,0,0,
2026-03-20 17:51:00,METAR KUGN 201751Z 31007KT 280V010 10SM CLR 18/08 A2977 RMK AO2 SLP082 T01780083 10178 20117 51006,0,7,0,16090.0,0,0,0,
2026-03-20 16:51:00,METAR KUGN 201651Z 32008KT 10SM CLR 17/07 A2977 RMK AO2 SLP083 T01670072,0,8,0,16090.0,0,0,0,
2026-03-20 15:51:00,METAR KUGN 201551Z 29011G16KT 10SM CLR 16/07 A2976 RMK AO2 SLP081 T01560067,0,11,1,16090.0,0,0,0,
2026-03-20 14:51:00,METAR KUGN 201451Z 28010G20KT 10SM CLR 15/06 A2975 RMK AO2 SLP078 T01500061 53005,0,10,1,16090.0,0,0,0,
2026-03-20 13:51:00,METAR KUGN 201351Z 26011KT 10SM CLR 14/06 A2974 RMK AO2 SLP073 T01440061,0,11,0,16090.0,0,0,0,
2026-03-20 12:51:00,METAR KUGN 201251Z 25012KT 10SM CLR 13/06 A2974 RMK AO2 SLP076 T01280056,0,12,0,16090.0,0,0,0,
2026-03-20 11:51:00,METAR KUGN 201151Z 23011KT 10SM CLR 12/06 A2974 RMK AO2 SLP074 T01170061 10117 20011 58020,0,11,0,16090.0,0,0,0,
2026-03-20 10:51:00,METAR KUGN 201051Z 23010KT 10SM CLR 07/04 A2976 RMK AO2 SLP084 T00720044,0,10,0,16090.0,0,0,0,
2026-03-20 09:51:00,METAR KUGN 200951Z AUTO 24007KT 10SM CLR 06/03 A2978 RMK AO2 SLP091 T00610028,0,7,0,16090.0,0,0,0,
2026-03-20 08:51:00,METAR KUGN 200851Z AUTO 23008KT 10SM CLR 05/02 A2979 RMK AO2 SLP095 T00500022 58042,0,8,0,16090.0,0,0,0,
2026-03-20 07:51:00,METAR KUGN 200751Z AUTO 23006KT 9SM CLR 02/00 A2985 RMK AO2 SLP116 T00220000,0,6,0,14481.0,0,0,0,
2026-03-20 06:51:00,METAR KUGN 200651Z AUTO 24004KT 9SM CLR 02/00 A2988 RMK AO2 SLP127 T00170000,0,4,0,14481.0,0,0,0,
2026-03-20 05:51:00,METAR KUGN 200551Z AUTO 26003KT 10SM CLR 02/00 A2992 RMK AO2 SLP138 T00220000 10039 20006 400831011 58029,0,3,0,16090.0,0,0,0,
2026-03-20 04:51:00,METAR KUGN 200451Z AUTO 30003KT 10SM CLR 02/00 A2995 RMK AO2 SLP149 T00170000,0,3,0,16090.0,0,0,0,
2026-03-20 03:51:00,METAR KUGN 200351Z AUTO 00000KT 10SM CLR 01/M01 A2998 RMK AO2 SLP160 T00111006,0,0,0,16090.0,0,0,0,
2026-03-20 02:51:00,METAR KUGN 200251Z AUTO 00000KT 10SM CLR 01/M01 A3001 RMK AO2 SLP171 T00111006 58014,0,0,0,16090.0,0,0,0,
2026-03-20 01:51:00,METAR KUGN 200151Z AUTO 09003KT 10SM CLR 03/M01 A3003 RMK AO2 SLP178 T00331006,0,3,0,16090.0,0,0,0,
2026-03-20 00:51:00,METAR KUGN 200051Z 07003KT 10SM CLR 03/M01 A3004 RMK AO2 SLP182 LAST T00281006,0,3,0,16090.0,0,0,0,
2026-03-19 23:51:00,METAR KUGN 192351Z 08006KT 10SM CLR 04/00 A3005 RMK AO2 SLP187 T00390000 10078 20039 58009,0,6,0,16090.0,0,0,0,
2026-03-19 22:51:00,METAR KUGN 192251Z 07009KT 10SM CLR 06/00 A3007 RMK AO2 SLP193 T00560000,0,9,0,16090.0,0,0,0,
2026-03-19 21:51:00,METAR KUGN 192151Z 08008KT 10SM CLR 07/00 A3008 RMK AO2 SLP194 T00670000,0,8,0,16090.0,0,0,0,
2026-03-19 20:51:00,METAR KUGN 192051Z 09008KT 10SM CLR 08/01 A3008 RMK AO2 SLP194 T00780011 55009,0,8,0,16090.0,0,0,0,
2026-03-19 19:51:00,METAR KUGN 191951Z 08006KT 10SM CLR 07/01 A3008 RMK AO2 SLP195 T00720011,0,6,0,16090.0,0,0,0,
2026-03-19 18:51:00,METAR KUGN 191851Z 07006KT 10SM CLR 07/01 A3010 RMK AO2 SLP202 T00670011,0,6,0,16090.0,0,0,0,
2026-03-19 17:51:00,METAR KUGN 191751Z 06006KT 10SM CLR 07/01 A3011 RMK AO2 SLP204 T00720011 10083 20011 53001,0,6,0,16090.0,0,0,0,
2026-03-19 16:51:00,METAR KUGN 191651Z VRB04KT 10SM CLR 08/01 A3010 RMK AO2 SLP200 T00830011,0,4,0,16090.0,0,0,0,
2026-03-19 15:51:00,METAR KUGN 191551Z 00000KT 10SM CLR 06/01 A3010 RMK AO2 SLP201 T00610006,0,0,0,16090.0,0,0,0,
2026-03-19 14:51:00,METAR KUGN 191451Z 15003KT 10SM BKN070 05/M01 A3011 RMK AO2 SLP205 T00501006 53019,0,3,0,16090.0,0,0,0,
2026-03-19 13:51:00,METAR KUGN 191351Z 00000KT 10SM BKN055 OVC075 03/M01 A3009 RMK AO2 SLP198 T00331011,0,0,0,16090.0,0,0,0,
2026-03-19 12:51:00,METAR KUGN 191251Z 24004KT 9SM OVC065 02/M01 A3006 RMK AO2 SLP187 T00171011,0,4,0,14481.0,0,0,0,
2026-03-19 11:51:00,METAR KUGN 191151Z 23008KT 10SM OVC065 01/M02 A3005 RMK AO2 SLP185 T00111017 10017 21011 53005,0,8,0,16090.0,0,0,0,
2026-03-19 10:51:00,METAR KUGN 191051Z 18006KT 10SM FEW065 01/M02 A3001 RMK AO2 SLP171 T00061017,0,6,0,16090.0,0,0,0,
2026-03-19 09:51:00,METAR KUGN 190951Z AUTO 19006KT 10SM CLR M01/M03 A3001 RMK AO2 SLP171 T10061028,0,6,0,16090.0,0,0,0,
2026-03-19 08:51:00,METAR KUGN 190851Z AUTO 02003KT 10SM SCT120 01/M02 A3003 RMK AO2 SLP179 T00061022 58003,0,3,0,16090.0,0,0,0,
2026-03-19 07:51:00,METAR KUGN 190751Z AUTO 02003KT 10SM BKN110 00/M02 A3004 RMK AO2 SLP184 T00001022,0,3,0,16090.0,0,0,0,
2026-03-19 06:51:00,METAR KUGN 190651Z AUTO 24005KT 10SM CLR 01/M02 A3003 RMK AO2 SLP180 T00111022,0,5,0,16090.0,0,0,0,
2026-03-19 05:51:00,METAR KUGN 190551Z AUTO 25003KT 10SM BKN120 01/M02 A3004 RMK AO2 SLP183 T00111022 10033 21006 400501056 55002,0,3,0,16090.0,0,0,0,
2026-03-19 04:51:00,METAR KUGN 190451Z AUTO 23003KT 10SM CLR 01/M03 A3004 RMK AO2 SLP184 T00061028,0,3,0,16090.0,0,0,0,
2026-03-19 03:51:00,METAR KUGN 190351Z AUTO 23003KT 10SM CLR 01/M03 A3004 RMK AO2 SLP184 T00061028,0,3,0,16090.0,0,0,0,
2026-03-19 02:51:00,METAR KUGN 190251Z AUTO 00000KT 10SM CLR 01/M03 A3005 RMK AO2 SLP188 T00061028 50010,0,0,0,16090.0,0,0,0,
2026-03-19 01:51:00,METAR KUGN 190151Z AUTO 31004KT 10SM CLR 02/M03 A3005 RMK AO2 SLP189 T00221033,0,4,0,16090.0,0,0,0,
2026-03-19 00:51:00,METAR KUGN 190051Z 30003KT 10SM CLR 02/M03 A3004 RMK AO2 SLP185 LAST T00221028,0,3,0,16090.0,0,0,0,
2026-03-18 23:51:00,METAR KUGN 182351Z 29005KT 10SM CLR 03/M03 A3002 RMK AO2 SLP177 T00331028 10050 20011 53015,0,5,0,16090.0,0,0,0,
2026-03-18 22:51:00,METAR KUGN 182251Z 29008KT 10SM CLR 05/M03 A2999 RMK AO2 SLP168 T00501028,0,8,0,16090.0,0,0,0,
2026-03-18 21:51:00,METAR KUGN 182151Z 25009KT 10SM CLR 04/M02 A2996 RMK AO2 SLP157 T00441022,0,9,0,16090.0,0,0,0,
2026-03-18 20:51:00,METAR KUGN 182051Z 25007KT 10SM OVC037 04/M03 A2997 RMK AO2 SLP162 T00391033 55005,0,7,0,16090.0,0,0,0,
2026-03-18 19:51:00,METAR KUGN 181951Z 24010KT 10SM OVC039 03/M04 A2996 RMK AO2 SLP159 T00331039,0,10,0,16090.0,0,0,0,
2026-03-18 18:51:00,METAR KUGN 181851Z 21009KT 10SM OVC043 02/M04 A2997 RMK AO2 SLP161 T00221039,0,9,0,16090.0,0,0,0,
2026-03-18 17:51:00,METAR KUGN 181751Z 22010KT 10SM OVC047 01/M05 A2999 RMK AO2 SLP169 60000 T00111050 10011 21044 55007,0,10,0,16090.0,0,0,0,
2026-03-18 16:51:00,METAR KUGN 181651Z 20013G21KT 10SM OVC050 00/M06 A2999 RMK AO2 SLP170 T00001056,0,13,1,16090.0,0,0,0,
2026-03-18 15:51:00,METAR KUGN 181551Z 21013KT 10SM OVC055 M02/M06 A3001 RMK AO2 SLP177 T10171056,0,13,0,16090.0,0,0,0,
2026-03-18 15:06:00,SPECI KUGN 181506Z 19012KT 10SM SCT029 OVC055 M03/M06 A3001 RMK AO2 T10281061,0,12,0,16090.0,0,0,0,
2026-03-18 14:51:00,METAR KUGN 181451Z 19014KT 10SM BKN028 OVC055 M03/M06 A3001 RMK AO2 SLP179 60000 T10281061 55000,0,14,0,16090.0,0,0,0,
2026-03-18 14:34:00,SPECI KUGN 181434Z 19017G22KT 10SM BKN029 BKN047 OVC060 M03/M06 A3002 RMK AO2 T10331061,0,17,1,16090.0,0,0,0,
2026-03-18 13:51:00,METAR KUGN 181351Z 19012KT 6SM BR FEW036 OVC047 M04/M06 A3001 RMK AO2 SNB00E11B26E37 SLP181 P0000 T10391061,0,12,0,9654.0,0,0,1,"BR,SN"
2026-03-18 13:15:00,SPECI KUGN 181315Z COR 18013G19KT 6SM HZ FEW014 OVC040 M04/M07 A3001 RMK AO2 SNB00E11 P0000 T10391067,0,13,1,9654.0,0,0,0,SN
2026-03-18 12:51:00,METAR KUGN 181251Z 18012KT 10SM OVC013 M04/M07 A3001 RMK AO2 SLP179 T10391067,0,12,0,16090.0,0,0,0,
2026-03-18 12:16:00,SPECI KUGN 181216Z 18012KT 10SM BKN014 OVC055 M04/M07 A3001 RMK AO2 T10441067,0,12,0,16090.0,0,0,0,
2026-03-18 11:51:00,METAR KUGN 181151Z 19011KT 10SM FEW014 BKN037 OVC060 M04/M07 A3001 RMK AO2 SLP181 60000 T10441067 11044 21056 56011,0,11,0,16090.0,0,0,0,
2026-03-18 10:51:00,METAR KUGN 181051Z 18010G18KT 10SM FEW017 BKN032 OVC060 M04/M07 A3002 RMK AO2 SNB02E32 SLP183 P0000 T10441072,0,10,1,16090.0,0,0,0,SN
2026-03-18 09:51:00,METAR KUGN 180951Z AUTO 18009G21KT 10SM BKN036 OVC047 M05/M07 A3002 RMK AO2 SNE0852 SLP185 P0000 T10501072,0,9,1,16090.0,0,0,0,SN
2026-03-18 08:51:00,METAR KUGN 180851Z AUTO 19009KT 8SM -SN SCT015 BKN050 OVC090 M05/M07 A3004 RMK AO2 SNB20 SLP193 P0000 60000 T10501072 58026,0,9,0,12872.0,0,0,0,SN
2026-03-18 07:51:00,METAR KUGN 180751Z AUTO 18007KT 10SM SCT018 BKN070 OVC090 M06/M08 A3007 RMK AO2 SNB01E34 SLP202 P0000 T10561078,0,7,0,16090.0,0,0,0,SN
2026-03-18 06:51:00,METAR KUGN 180651Z AUTO 19008KT 8SM OVC085 M06/M09 A3010 RMK AO2 SNB38E50 SLP211 P0000 T10561089,0,8,0,12872.0,0,0,0,SN
2026-03-18 05:51:00,METAR KUGN 180551Z AUTO 20009KT 10SM OVC060 M06/M11 A3012 RMK AO2 SLP219 T10561111 11056 21072 410561117 58010,0,9,0,16090.0,0,0,0,
2026-03-18 04:51:00,METAR KUGN 180451Z AUTO 19006KT 10SM OVC070 M06/M12 A3013 RMK AO2 SLP223 T10611122,0,6,0,16090.0,0,0,0,
2026-03-18 03:51:00,METAR KUGN 180351Z AUTO 21006KT 10SM OVC100 M06/M13 A3016 RMK AO2 SLP232 T10611128,0,6,0,16090.0,0,0,0,
2026-03-18 02:51:00,METAR KUGN 180251Z AUTO 21005KT 10SM OVC100 M07/M14 A3015 RMK AO2 SLP232 T10671139 58002,0,5,0,16090.0,0,0,0,
2026-03-18 01:51:00,METAR KUGN 180151Z AUTO 23008KT 10SM OVC100 M07/M14 A3016 RMK AO2 SLP234 T10721139,0,8,0,16090.0,0,0,0,
2026-03-18 00:51:00,METAR KUGN 180051Z 24010KT 10SM OVC110 M07/M16 A3016 RMK AO2 SLP235 LAST T10671156,0,10,0,16090.0,0,0,0,
2026-03-17 23:51:00,METAR KUGN 172351Z 23009KT 10SM BKN120 M07/M16 A3016 RMK AO2 SLP235 T10671161 11061 21067 53005,0,9,0,16090.0,0,0,0,
2026-03-17 22:51:00,METAR KUGN 172251Z 23010KT 10SM CLR M06/M16 A3016 RMK AO2 SLP234 T10611156,0,10,0,16090.0,0,0,0,
2026-03-17 21:51:00,METAR KUGN 172151Z 24006KT 10SM CLR M06/M17 A3013 RMK AO2 SLP226 T10611167,0,6,0,16090.0,0,0,0,
2026-03-17 20:51:00,METAR KUGN 172051Z 25010G16KT 10SM CLR M06/M16 A3014 RMK AO2 SLP229 T10611161 58007,0,10,1,16090.0,0,0,0,
2026-03-17 19:51:00,METAR KUGN 171951Z 30008KT 10SM CLR M06/M17 A3016 RMK AO2 SLP235 T10611167,0,8,0,16090.0,0,0,0,
2026-03-17 19:14:00,SPECI KUGN 171914Z COR 25005KT 10SM FEW030 M07/M17 A3017 RMK AO2 T10671167,0,5,0,16090.0,0,0,0,
2026-03-17 18:51:00,METAR KUGN 171851Z COR 31007KT 10SM FEW030 M06/M18 A3017 RMK AO2 SLP237 T10611178,0,7,0,16090.0,0,0,0,
2026-03-17 17:51:00,METAR KUGN 171751Z COR 32010KT 10SM FEW035 M07/M18 A3017 RMK AO2 SLP236 T10671183 11067 21117 51013,0,10,0,16090.0,0,0,0,
2026-03-17 16:51:00,METAR KUGN 171651Z 30009G17KT 10SM FEW040 M08/M18 A3016 RMK AO2 SLP234 T10781178,0,9,1,16090.0,0,0,0,
2026-03-17 15:51:00,METAR KUGN 171551Z 32006KT 10SM CLR M08/M17 A3015 RMK AO2 SLP231 T10831167,0,6,0,16090.0,0,0,0,
2026-03-17 15:26:00,SPECI KUGN 171526Z 29007KT 10SM CLR M09/M16 A3014 RMK AO2 T10891161,0,7,0,16090.0,0,0,0,
2026-03-17 14:51:00,METAR KUGN 171451Z 31008KT 10SM CLR M09/M16 A3013 RMK AO2 SLP224 T10941161 51022,0,8,0,16090.0,0,0,0,
2026-03-17 13:51:00,METAR KUGN 171351Z 31005KT 10SM CLR M10/M16 A3011 RMK AO2 SLP218 T11001161,0,5,0,16090.0,0,0,0,
2026-03-17 12:51:00,METAR KUGN 171251Z 31006KT 10SM CLR M11/M17 A3009 RMK AO2 SLP212 T11111167,0,6,0,16090.0,0,0,0,
2026-03-17 11:51:00,METAR KUGN 171151Z 30005KT 10SM CLR M12/M17 A3006 RMK AO2 SLP200 T11171172 11089 21117 53022,0,5,0,16090.0,0,0,0,
2026-03-17 10:51:00,METAR KUGN 171051Z 30006KT 10SM CLR M12/M17 A3004 RMK AO2 SLP193 T11171172,0,6,0,16090.0,0,0,0,
2026-03-17 09:51:00,METAR KUGN 170951Z AUTO 31007KT 10SM CLR M11/M17 A3001 RMK AO2 SLP184 T11111172,0,7,0,16090.0,0,0,0,
2026-03-17 08:51:00,METAR KUGN 170851Z AUTO 30007KT 10SM CLR M11/M18 A2999 RMK AO2 SLP176 T11061178 51018,0,7,0,16090.0,0,0,0,
2026-03-17 07:51:00,METAR KUGN 170751Z AUTO 30006KT 10SM CLR M11/M18 A2998 RMK AO2 SLP173 T11061178,0,6,0,16090.0,0,0,0,
2026-03-17 06:51:00,METAR KUGN 170651Z AUTO 31006KT 10SM CLR M10/M17 A2995 RMK AO2 SLP162 T11001172,0,6,0,16090.0,0,0,0,
2026-03-17 05:51:00,METAR KUGN 170551Z AUTO 33005KT 10SM FEW044 M09/M16 A2994 RMK AO2 SLP156 T10891156 11044 21089 410111089 51016,0,5,0,16090.0,0,0,0,
2026-03-17 04:51:00,METAR KUGN 170451Z AUTO 32009G18KT 10SM BKN040 M08/M16 A2993 RMK AO2 SLP152 T10831161,0,9,1,16090.0,0,0,0,
2026-03-17 03:51:00,METAR KUGN 170351Z AUTO 31010G22KT 10SM CLR M08/M16 A2991 RMK AO2 PK WND 31033/0309 SLP146 T10831161,0,10,1,16090.0,0,0,0,
2026-03-17 02:51:00,METAR KUGN 170251Z AUTO 32012G23KT 10SM CLR M07/M14 A2989 RMK AO2 SLP140 T10721144 51033,0,12,1,16090.0,0,0,0,
2026-03-17 01:51:00,METAR KUGN 170151Z AUTO 31008G16KT 10SM CLR M07/M14 A2987 RMK AO2 PK WND 33026/0105 SLP132 T10671139,0,8,1,16090.0,0,0,0,
2026-03-17 00:51:00,METAR KUGN 170051Z 31013G30KT 10SM CLR M06/M13 A2983 RMK AO2 PK WND 30034/0032 SLP119 T10561133,0,13,1,16090.0,0,0,0,
2026-03-16 23:51:00,METAR KUGN 162351Z 30019G31KT 10SM BKN039 OVC120 M04/M12 A2979 RMK AO2 PK WND 30035/2315 SLP104 60000 T10441122 11033 21044 53031,0,19,1,16090.0,0,0,0,
2026-03-16 22:51:00,METAR KUGN 162251Z 30016G34KT 10SM OVC040 M04/M12 A2976 RMK AO2 PK WND 30034/2249 SLP092 T10391117,0,16,1,16090.0,0,0,0,
2026-03-16 21:59:00,SPECI KUGN 162159Z 30014G30KT 10SM SCT027 BKN034 OVC065 M03/M09 A2973 RMK AO2 PK WND 30030/2154 T10331089,0,14,1,16090.0,0,0,0,
2026-03-16 21:51:00,METAR KUGN 162151Z 30011G24KT 10SM BKN029 OVC036 M03/M09 A2972 RMK AO2 PK WND 30028/2110 SNB25E34 SLP080 P0000 T10331089,0,11,1,16090.0,0,0,0,SN
2026-03-16 20:51:00,METAR KUGN 162051Z COR 32018G31KT 9SM BKN029 OVC043 M03/M10 A2970 RMK AO2 PK WND 32034/2035 UPB16E32SNE16B32E51 SLP071 P0000 60000 T10331100 50020,0,18,1,14481.0,0,0,0,UP
2026-03-16 20:49:00,SPECI KUGN 162049Z 32018G31KT 9SM -SN BKN029 BKN037 OVC043 M03/M10 A2970 RMK AO2 PK WND 32034/2035 UPB16E32SNE16B32 P0000,0,18,1,14481.0,0,0,0,"SN,UP"
2026-03-16 19:51:00,METAR KUGN 161951Z 33014G31KT 7SM -SN SCT026 OVC035 M04/M09 A2966 RMK AO2 PK WND 30033/1855 UPB06E15SNB1854E06B15 SLP060 P0000 T10391089,0,14,1,11263.0,0,0,0,"SN,UP"
2026-03-16 18:58:00,SPECI KUGN 161858Z 32016G33KT 8SM -SN SCT029 OVC039 M04/M10 A2963 RMK AO2 PK WND 30033/1855 SNB54 P0000 T10391100,0,16,1,12872.0,0,0,0,SN
2026-03-16 18:51:00,METAR KUGN 161851Z 32009G28KT 7SM FEW023 BKN029 OVC037 M03/M09 A2963 RMK AO2 PK WND 33037/1838 SNE48 SLP049 P0000 T10331094,0,9,1,11263.0,0,0,0,
2026-03-16 18:23:00,SPECI KUGN 161823Z 33020G33KT 7SM -SN FEW023 BKN029 OVC037 M04/M09 A2962 RMK AO2 PK WND 33033/1817 P0000 T10391094,0,20,1,11263.0,0,0,0,SN
2026-03-16 17:51:00,METAR KUGN 161751Z 33011G32KT 7SM -SN SCT028 BKN035 OVC046 M04/M09 A2960 RMK AO2 PK WND 31035/1732 SLP037 P0000 60000 T10391094 11039 21056 51014,0,11,1,11263.0,0,0,0,SN
2026-03-16 17:00:00,SPECI KUGN 161700Z 32010G25KT 7SM -SN SCT026 OVC035 M04/M09 A2958 RMK AO2 P0000 T10391089,0,10,1,11263.0,0,0,0,SN
2026-03-16 16:51:00,METAR KUGN 161651Z COR 31013G28KT 4SM -SN FEW020 SCT027 OVC035 M04/M08 A2958 RMK AO2 PK WND 30035/1637 SLP030 P0000 T10441083,0,13,1,6436.0,0,0,0,SN
2026-03-16 16:13:00,SPECI KUGN 161613Z 30011G28KT 2 1/2SM -SN SCT017 BKN025 OVC035 M04/M08 A2957 RMK AO2 PK WND 29028/1608 P0000 T10441078,0,11,1,4022.0,0,0,0,SN
2026-03-16 15:51:00,METAR KUGN 161551Z 30010G30KT 1 3/4SM -SN FEW016 BKN028 OVC038 M04/M08 A2956 RMK AO2 PK WND 31031/1517 SLP023 P0000 T10441078,0,10,1,2816.0,0,0,0,SN
2026-03-16 15:44:00,SPECI KUGN 161544Z 30015G27KT 2 1/2SM -SN FEW020 BKN027 OVC033 M04/M08 A2955 RMK AO2 PK WND 31031/1517 P0000 T10441078,0,15,1,4022.0,0,0,0,SN
2026-03-16 15:26:00,SPECI KUGN 161526Z 31014G31KT 3SM -SN FEW020 BKN033 OVC041 M04/M08 A2955 RMK AO2 PK WND 31031/1517 P0000 T10441083,0,14,1,4827.0,0,0,0,SN
2026-03-16 15:12:00,SPECI KUGN 161512Z 31014G27KT 2SM -SN FEW018 BKN030 OVC039 M05/M08 A2955 RMK AO2 PK WND 31029/1453 P0000 T10501083,0,14,1,3218.0,0,0,0,SN
2026-03-16 14:59:00,SPECI KUGN 161459Z 31017G29KT 3SM -SN SCT020 BKN032 OVC041 M05/M08 A2954 RMK AO2 PK WND 31029/1453 P0000 T10501083,0,17,1,4827.0,0,0,0,SN
2026-03-16 14:51:00,METAR KUGN 161451Z 31008G31KT 2 1/2SM -SN FEW019 BKN030 OVC039 M05/M08 A2953 RMK AO2 PK WND 30031/1442 SLP015 P0000 60000 T10501083 51047,0,8,1,4022.0,0,0,0,SN
2026-03-16 14:39:00,SPECI KUGN 161439Z 31015G25KT 2 1/2SM -SN FEW019 SCT025 OVC035 M05/M08 A2952 RMK AO2 PK WND 32026/1359 P0000 T10501083,0,15,1,4022.0,0,0,0,SN
2026-03-16 13:51:00,METAR KUGN 161351Z 31014G23KT 3SM -SN FEW019 BKN031 OVC050 M06/M08 A2950 RMK AO2 PK WND 29026/1302 SLP004 P0000 T10561083,0,14,1,4827.0,0,0,0,SN
2026-03-16 13:38:00,SPECI KUGN 161338Z 31010G21KT 3SM -SN BR FEW017 BKN025 OVC039 M06/M08 A2950 RMK AO2 PK WND 29026/1302 P0000 T10561078,0,10,1,4827.0,0,0,1,"BR,SN"
2026-03-16 13:15:00,SPECI KUGN 161315Z 29012G20KT 1 1/4SM -SN BR FEW016 BKN027 OVC036 M06/M07 A2948 RMK AO2 PK WND 29026/1302 P0000 T10561072,0,12,1,2011.0,0,0,1,"BR,SN"
2026-03-16 12:58:00,SPECI KUGN 161258Z 30013G23KT 1 1/2SM -SN BR BKN037 OVC055 M06/M08 A2946 RMK AO2 PRESRR P0000 T10561078,0,13,1,2414.0,0,0,1,"BR,SN"
2026-03-16 12:51:00,METAR KUGN 161251Z 30011G23KT 2SM -SN BR BKN041 OVC055 M06/M08 A2945 RMK AO2 PK WND 32031/1215 SLP986 P0000 T10561078,0,11,1,3218.0,0,0,1,"BR,SN"
2026-03-16 12:29:00,SPECI KUGN 161229Z 32013G27KT 5SM -SN BKN040 OVC060 M06/M08 A2943 RMK AO2 PK WND 32031/1215 PRESRR P0000 T10561083,0,13,1,8045.0,0,0,0,SN
2026-03-16 12:22:00,SPECI KUGN 161222Z 31012G31KT 3SM -SN BR OVC027 M06/M08 A2942 RMK AO2 PK WND 32031/1215 PRESRR P0000 T10561078,0,12,1,4827.0,0,0,1,"BR,SN"
2026-03-16 12:19:00,SPECI KUGN 161219Z 32015G31KT 2SM -SN BR OVC027 M06/M08 A2942 RMK AO2 PK WND 32031/1215 P0000 T10561078,0,15,1,3218.0,0,0,1,"BR,SN"
2026-03-16 11:51:00,METAR KUGN 161151Z 31017G31KT 3/4SM +SN BR VV008 M05/M07 A2939 RMK AO2 PK WND 32031/1103 SLP965 P0000 60009 70186 T10501067 11011 21050 53022,0,17,1,1207.0,0,0,1,"BR,SN"
2026-03-16 11:40:00,SPECI KUGN 161140Z 31011G23KT 1/2SM +SN FZFG VV009 M05/M06 A2939 RMK AO2 PK WND 32031/1103 P0000 T10501061,0,11,1,804.0,0,0,1,"FG,SN"
2026-03-16 10:51:00,METAR KUGN 161051Z 31009G26KT 1 1/4SM +SN BR OVC013 M04/M07 A2934 RMK AO2 PK WND 31036/0957 SLP949 P0001 T10441067,0,9,1,2011.0,0,0,1,"BR,SN"
2026-03-16 10:36:00,SPECI KUGN 161036Z 33014G33KT 1 1/2SM -SN OVC015 M04/M07 A2934 RMK AO2 PK WND 31036/0957 P0001 T10441072,0,14,1,2414.0,0,0,0,SN
2026-03-16 10:25:00,SPECI KUGN 161025Z 33015G33KT 2SM -SN BR OVC019 M04/M07 A2933 RMK AO2 PK WND 31036/0957 P0001 T10441067,0,15,1,3218.0,0,0,1,"BR,SN"
2026-03-16 09:51:00,METAR KUGN 160951Z AUTO 31016G27KT 3SM -SN BR BKN015 OVC028 M04/M06 A2933 RMK AO2 PK WND 31027/0946 SLP942 P0000 T10391056,0,16,1,4827.0,0,0,1,"BR,SN"
2026-03-16 09:43:00,SPECI KUGN 160943Z AUTO 30011G22KT 5SM -SN BR BKN015 OVC035 M03/M06 A2933 RMK AO2 PK WND 31026/0930 P0000 T10331056,0,11,1,8045.0,0,0,1,"BR,SN"
2026-03-16 09:34:00,SPECI KUGN 160934Z AUTO 32012G26KT 5SM -SN BR SCT014 SCT022 OVC035 M03/M06 A2932 RMK AO2 PK WND 31026/0930 P0000 T10331056,0,12,1,8045.0,0,0,1,"BR,SN"
2026-03-16 09:21:00,SPECI KUGN 160921Z AUTO 31012G23KT 3SM -SN BR SCT013 SCT019 OVC025 M03/M05 A2930 RMK AO2 P0000 T10331050,0,12,1,4827.0,0,0,1,"BR,SN"
2026-03-16 09:13:00,SPECI KUGN 160913Z AUTO 31010G24KT 1 1/2SM -SN BR FEW010 OVC015 M03/M04 A2930 RMK AO2 P0000 T10331044,0,10,1,2414.0,0,0,1,"BR,SN"
2026-03-16 09:03:00,SPECI KUGN 160903Z AUTO 31013G21KT 1 1/4SM -SN BR OVC010 M03/M04 A2929 RMK AO2 P0000 T10331044,0,13,1,2011.0,0,0,1,"BR,SN"
2026-03-16 08:51:00,METAR KUGN 160851Z AUTO 30010G21KT 1SM -SN BR VV008 M03/M04 A2930 RMK AO2 SLP934 P0005 60008 T10331044 51023,0,10,1,1609.0,0,0,1,"BR,SN"
2026-03-16 08:25:00,SPECI KUGN 160825Z AUTO 30012G23KT 1/2SM SN FZFG VV005 M03/M04 A2928 RMK AO2 P0004 T10331039,0,12,1,804.0,0,0,1,"FG,SN"
2026-03-16 08:06:00,SPECI KUGN 160806Z AUTO 30012G19KT 1/2SM SN FZFG VV004 M03/M03 A2929 RMK AO2 P0002 T10281033,0,12,1,804.0,0,0,1,"FG,SN"
2026-03-16 07:51:00,METAR KUGN 160751Z AUTO 29012G18KT 1/2SM SN FZFG VV006 M02/M03 A2929 RMK AO2 PK WND 36030/0704 SLP929 P0002 T10221028,0,12,1,804.0,0,0,1,"FG,SN"
2026-03-16 07:49:00,SPECI KUGN 160749Z AUTO 29010G27KT 1/2SM SN FZFG VV006 M02/M03 A2929 RMK AO2 PK WND 36030/0704 P0002,0,10,1,804.0,0,0,1,"FG,SN"
2026-03-16 06:51:00,METAR KUGN 160651Z AUTO 34014G25KT 1SM -SN BR OVC009 M02/M03 A2923 RMK AO2 PK WND 35035/0600 SLP904 P0001 T10171028,0,14,1,1609.0,0,0,1,"BR,SN"
2026-03-16 06:40:00,SPECI KUGN 160640Z AUTO 36014G29KT 1 1/2SM -SN BR FEW009 OVC014 M02/M03 A2924 RMK AO2 PK WND 35035/0600 P0000 T10171028,0,14,1,2414.0,0,0,1,"BR,SN"
2026-03-16 06:19:00,SPECI KUGN 160619Z AUTO 35021G33KT 2 1/2SM -SN BR FEW008 OVC014 M01/M03 A2922 RMK AO2 PK WND 35035/0600 P0000 T10111028,0,21,1,4022.0,0,0,1,"BR,SN"
2026-03-16 05:51:00,METAR KUGN 160551Z AUTO 36022G39KT 1 1/2SM -SN BR OVC010 M01/M03 A2920 RMK AO2 PK WND 35039/0543 PRESFR SLP894 P0004 60055 I6000 T10111028 10011 21011 401331011 58038,0,22,1,2414.0,0,0,1,"BR,SN"
2026-03-16 05:24:00,SPECI KUGN 160524Z AUTO 01017G30KT 1 1/2SM -SN BR OVC009 M01/M02 A2924 RMK AO2 PK WND 34033/0452 PRESFR P0002 T10111022,0,17,1,2414.0,0,0,1,"BR,SN"
2026-03-16 05:08:00,SPECI KUGN 160508Z AUTO 35012G25KT 1 1/4SM -SN BR SCT006 OVC012 M01/M02 A2927 RMK AO2 PK WND 34033/0452 P0001 T10111017,0,12,1,2011.0,0,0,1,"BR,SN"
2026-03-16 04:58:00,SPECI KUGN 160458Z AUTO 35017G33KT 2 1/2SM -SN BR SCT008 OVC014 M01/M02 A2928 RMK AO2 PK WND 34033/0452 P0000 T10061022,0,17,1,4022.0,0,0,1,"BR,SN"
2026-03-16 04:51:00,METAR KUGN 160451Z AUTO 36015G32KT 2 1/2SM -SN BR SCT010 OVC014 M01/M02 A2927 RMK AO2 PK WND 02036/0359 UPB32E51SNE32B51 SLP920 P0006 T10061022,0,15,1,4022.0,0,0,1,"BR,SN,UP"
2026-03-16 04:24:00,SPECI KUGN 160424Z AUTO 36018G36KT 1 3/4SM -SN BR OVC013 M01/M02 A2927 RMK AO2 PK WND 02036/0359 P0002 T10061017,0,18,1,2816.0,0,0,1,"BR,SN"
2026-03-16 04:03:00,SPECI KUGN 160403Z AUTO 36018G36KT 2SM -SN BR SCT008 OVC013 M01/M02 A2927 RMK AO2 PK WND 02036/0359 P0001 T10061017,0,18,1,3218.0,0,0,1,"BR,SN"
2026-03-16 03:51:00,METAR KUGN 160351Z AUTO 36019G36KT 1 3/4SM -SN BR BKN010 OVC015 M01/M02 A2927 RMK AO2 PK WND 01038/0326 RAE0257SNB0257 SLP920 P0001 I1000 T10061017,0,19,1,2816.0,0,0,1,"BR,RA,SN"
2026-03-16 03:03:00,SPECI KUGN 160303Z AUTO 35019G27KT 1 3/4SM -SN BR BKN007 OVC012 00/M01 A2929 RMK AO2 PK WND 36027/0302 RAE0257SNB0257 P0001 I1000 T00001006,0,19,1,2816.0,0,0,1,"BR,RA,SN"
2026-03-16 02:51:00,METAR KUGN 160251Z AUTO 35014G30KT 6SM -RA BR OVC009 01/M01 A2931 RMK AO2 PK WND 03035/0211 PRESRR SLP934 P0013 60044 I1000 I3000 T00061006 58011,0,14,1,9654.0,0,0,1,"-RA,BR"
2026-03-16 02:36:00,SPECI KUGN 160236Z AUTO 01015G33KT 7SM -RA BKN009 OVC026 01/M01 A2927 RMK AO2 PK WND 03035/0211 P0012 I1000 T00061006,0,15,1,11263.0,0,0,0,-RA
2026-03-16 01:51:00,METAR KUGN 160151Z AUTO 36018G31KT 6SM RA BR OVC010 01/M01 A2932 RMK AO2 PK WND 02032/0114 SLP936 P0021 T00061006,0,18,1,9654.0,0,0,1,"BR,RA"
2026-03-16 00:51:00,METAR KUGN 160051Z 35015G27KT 7SM -RA OVC010 01/00 A2935 RMK AO2 PK WND 36029/0029 LTG DSNT S CIG 008V013 PRESRR SLP946 P0010 T00110000,0,15,1,11263.0,0,0,0,"-RA,DS"
2026-03-15 23:58:00,SPECI KUGN 152358Z 36015G27KT 7SM RA OVC009 01/00 A2934 RMK AO2 PK WND 36027/2353 P0001 T00110000,0,15,1,11263.0,0,0,0,RA
2026-03-15 23:51:00,METAR KUGN 152351Z COR 36013G30KT 72SM RA BKN009 OVC046 01/00 A2933 RMK AO2 PK WND 01032/2328 SLP939 P0020 60113 T00110000 10133 20011 58008,0,13,1,115848.0,0,0,0,RA
2026-03-15 23:26:00,SPECI KUGN 152326Z 01018G31KT 2 1/2SM RA BR BKN009 OVC035 01/01 A2930 RMK AO2 PK WND 01031/2326 LTG DSNT E-S PRESFR P0013 T00110006,0,18,1,4022.0,0,0,1,"BR,DS,RA"
2026-03-15 22:51:00,METAR KUGN 152251Z 35009G19KT 2 1/2SM VCTS RA BR OVC006 01/01 A2936 RMK AO2 PK WND 36027/2212 LTG DSNT SE-SW SNB24E32 CIG 005V011 SLP952 P0013 T00110006,0,9,1,4022.0,1,0,1,"BR,DS,RA,SN,TS,VC"
2026-03-15 22:19:00,SPECI KUGN 152219Z 01015G27KT 2 1/2SM RA BR OVC005 02/01 A2932 RMK AO2 PK WND 36027/2212 LTG DSNT SE P0006 T00170006,0,15,1,4022.0,0,0,1,"BR,DS,RA"
2026-03-15 22:12:00,SPECI KUGN 152212Z 35013G27KT 3SM RA BR OVC005 02/01 A2936 RMK AO2 PK WND 36027/2212 LTG DSNT SE PRESRR P0005 T00170011,0,13,1,4827.0,0,0,1,"BR,DS,RA"
2026-03-15 22:01:00,SPECI KUGN 152201Z 36013G22KT 2SM RA BR OVC005 02/01 A2934 RMK AO2 LTG DSNT SE P0003 T00170011,0,13,1,3218.0,0,0,1,"BR,DS,RA"
2026-03-15 21:51:00,METAR KUGN 152151Z COR 36011G19KT 2 1/2SM -RA BR OVC005 02/01 A2933 RMK AO2 LTG DSNT E TSB08E25 SLP939 P0036 T00170011,0,11,1,4022.0,1,0,1,"-RA,BR,DS,TS"
2026-03-15 21:31:00,SPECI KUGN 152131Z 01014G20KT 4SM RA BR BKN005 OVC024 02/01 A2933 RMK AO2 LTG DSNT NE AND NW TSB08E25 P0033 T00170011,0,14,1,6436.0,1,0,1,"BR,DS,RA,TS"
2026-03-15 21:22:00,SPECI KUGN 152122Z COR 01011G21KT 2SM VCTS -RA BR BKN006 OVC024 02/01 A2933 RMK AO2 LTG DSNT NE P0032 T00170011,0,11,1,3218.0,1,0,1,"-RA,BR,DS,TS,VC"
2026-03-15 21:14:00,SPECI KUGN 152114Z 02013G21KT 1SM +TSRA BR SCT006 OVC022 02/01 A2932 RMK AO2 LTG DSNT N AND NE TSB08 TS OVH MOV SE P0028 T00170011,0,13,1,1609.0,1,0,1,"BR,DS,RA,TS"
2026-03-15 20:58:00,SPECI KUGN 152058Z 35012G23KT 1 3/4SM VCTS +RA BR BKN006 OVC019 02/01 A2934 RMK AO2 LTG DSNT SW-N P0005 T00170011,0,12,1,2816.0,1,1,1,"+RA,BR,DS,TS,VC"
2026-03-15 20:51:00,METAR KUGN 152051Z 35014G23KT 3SM VCTS RA BR OVC006 02/01 A2935 RMK AO2 PK WND 35027/2003 LTG DSNT SW AND NW PRESRR SLP947 P0026 60044 T00170011 53019,0,14,1,4827.0,1,0,1,"BR,DS,RA,TS,VC"
2026-03-15 20:42:00,SPECI KUGN 152042Z 01012G24KT 3SM -RA BR BKN006 OVC018 02/01 A2931 RMK AO2 PK WND 35027/2003 LTG DSNT SW-NW P0024 T00170011,0,12,1,4827.0,0,0,1,"-RA,BR,DS"
2026-03-15 20:37:00,SPECI KUGN 152037Z 01015G24KT 1 3/4SM +RA BR BKN006 BKN015 OVC020 02/01 A2931 RMK AO2 PK WND 35027/2003 LTG DSNT SW AND W P0024 T00220011,0,15,1,2816.0,0,1,1,"+RA,BR,DS"
2026-03-15 19:51:00,METAR KUGN 151951Z 35015G22KT 2SM RA BR SCT003 OVC008 04/04 A2929 RMK AO2 CIG 005V011 SLP925 P0017 T00440039,0,15,1,3218.0,0,0,1,"BR,RA"
2026-03-15 19:48:00,SPECI KUGN 151948Z 35013G22KT 1 3/4SM +RA BR SCT003 BKN008 OVC021 05/04 A2929 RMK AO2 P0016,0,13,1,2816.0,0,1,1,"+RA,BR"
2026-03-15 19:37:00,SPECI KUGN 151937Z 35005G21KT 2 1/2SM RA BR FEW003 BKN008 OVC026 06/05 A2928 RMK AO2 P0008 T00560050,0,5,1,4022.0,0,0,1,"BR,RA"
2026-03-15 19:34:00,SPECI KUGN 151934Z 35012G21KT 3SM RA BR FEW003 BKN019 OVC023 06/06 A2928 RMK AO2 P0006 T00610056,0,12,1,4827.0,0,0,1,"BR,RA"
2026-03-15 18:51:00,METAR KUGN 151851Z COR 19012G20KT 7SM -RA BKN022 BKN027 OVC035 13/11 A2929 RMK AO2 PK WND 21028/1819 RAE1754B28 SLP923 P0001 T01280111,0,12,1,11263.0,0,0,0,"-RA,RA"
2026-03-15 18:12:00,SPECI KUGN 151812Z 20013G21KT 10SM BKN022 BKN027 OVC035 12/11 A2931 RMK AO2 RAE1754 P0000 T01220106,0,13,1,16090.0,0,0,0,RA
2026-03-15 17:51:00,METAR KUGN 151751Z 00000KT 10SM -RA BKN036 OVC070 09/08 A2932 RMK AO2 RAE13B41 SLP935 P0001 60009 T00890078 10089 20022 58038,0,0,0,16090.0,0,0,0,"-RA,RA"
2026-03-15 17:21:00,SPECI KUGN 151721Z 18003KT 10SM FEW020 BKN027 OVC095 07/06 A2934 RMK AO2 RAE13 P0001 T00670056,0,3,0,16090.0,0,0,0,
2026-03-15 16:51:00,METAR KUGN 151651Z 13005KT 9SM -RA FEW055 BKN075 OVC090 04/03 A2935 RMK AO2 PRESFR SLP948 P0008 T00440033,0,5,0,14481.0,0,0,0,-RA
2026-03-15 15:51:00,METAR KUGN 151551Z 14007KT 10SM -RA FEW065 OVC090 04/01 A2941 RMK AO2 RAB32 SLP967 P0000 T00440011,0,7,0,16090.0,0,0,0,-RA
2026-03-15 14:51:00,METAR KUGN 151451Z 10008KT 10SM CLR 04/01 A2944 RMK AO2 SLP978 T00440011 56049,0,8,0,16090.0,0,0,0,
2026-03-15 13:51:00,METAR KUGN 151351Z 10014G20KT 10SM CLR 04/00 A2947 RMK AO2 PRESFR SLP988 T00390000,0,14,1,16090.0,0,0,0,
2026-03-15 12:51:00,METAR KUGN 151251Z 10012G19KT 10SM CLR 03/M01 A2955 RMK AO2 SLP016 T00281011,0,12,1,16090.0,0,0,0,
2026-03-15 11:51:00,METAR KUGN 151151Z 09012KT 10SM CLR 02/M01 A2959 RMK AO2 SLP029 60003 70003 T00221006 10022 20017 58061,0,12,0,16090.0,0,0,0,
2026-03-15 10:51:00,METAR KUGN 151051Z 09014G21KT 10SM FEW110 02/M01 A2966 RMK AO2 RAE16 SLP052 P0001 T00221011,0,14,1,16090.0,0,0,0,
2026-03-15 09:51:00,METAR KUGN 150951Z AUTO 08015KT 10SM -RA BKN070 OVC095 02/M01 A2971 RMK AO2 UPB03E04 SLP071 P0002 T00221006,0,15,0,16090.0,0,0,0,"-RA,UP"
2026-03-15 08:51:00,METAR KUGN 150851Z AUTO 07012KT 10SM -RA BKN070 OVC095 02/M01 A2977 RMK AO2 LTG DSNT SW RAB48 SLP092 P0000 60000 T00221006 58046,0,12,0,16090.0,0,0,0,"-RA,DS"
