Time_recorded,METAR,is_cavok,wind_speed,is_gust,visibility_meters,has_thunderstorm,has_heavy_rain,has_low_vis_fog,other_phenomenon
2026-05-02 15:30:00,METAR LEMD 021530Z 21012G27KT 9999 VCTS FEW020 FEW025CB BKN035 20/12 Q1015 BECMG SHRA,0,12,1,10000,1,0,0,"RA,SH,TS,VC"
2026-05-02 15:00:00,METAR LEMD 021500Z 22008G18KT 140V290 9999 FEW020 FEW025CB BKN035 21/14 Q1015 NOSIG,0,8,1,10000,0,0,0,
2026-05-02 14:30:00,METAR LEMD 021430Z 19005KT 120V260 9999 FEW020 FEW025CB SCT040 20/15 Q1016 NOSIG,0,5,0,10000,0,0,0,
2026-05-02 14:00:00,METAR LEMD 021400Z 24006G18KT 9999 FEW020 FEW025CB BKN055 18/13 Q1016 TEMPO TSRA,0,6,1,10000,1,0,0,"RA,TS"
2026-05-02 13:30:00,METAR LEMD 021330Z 25006KT 6000 -RA VCTS FEW020 FEW025CB BKN060 16/15 Q1017 TEMPO TSRA,0,6,0,6000,1,0,0,"-RA,RA,TS,VC"
2026-05-02 13:00:00,METAR LEMD 021300Z 20002KT 6000 2500N -TSRA FEW005 BKN025CB BKN040 14/14 Q1017 RETSRA TEMPO TSRA,0,2,0,6000,1,0,0,"RA,TS"
2026-05-02 12:44:00,SPECI LEMD 021244Z 24013KT 2000 0500 +TSRA FEW025 BKN030CB BKN040 16/13 Q1018 NOSIG,0,13,0,2000,1,0,0,RA
2026-05-02 12:35:00,SPECI LEMD 021235Z 16007KT 110V200 9999 SHRA VCTS FEW025 SCT030CB BKN040 18/13 Q1017 BECMG TSRA,0,7,0,10000,1,0,0,"RA,SH,TS,VC"
2026-05-02 12:30:00,METAR LEMD 021230Z 17010KT 130V200 9999 FEW025 FEW030CB BKN040 18/12 Q1017 BECMG TSRA,0,10,0,10000,1,0,0,"RA,TS"
2026-05-02 12:00:00,METAR LEMD 021200Z 17008KT 090V220 9999 FEW025 FEW030CB BKN040 19/14 Q1017 BECMG TSRA,0,8,0,10000,1,0,0,"RA,TS"
2026-05-02 11:30:00,METAR LEMD 021130Z 17006KT 130V210 9999 FEW025 FEW030TCU BKN045 17/13 Q1018 NOSIG,0,6,0,10000,0,0,0,
2026-05-02 11:00:00,METAR LEMD 021100Z 16006KT 130V200 9999 FEW025 FEW030TCU BKN050 17/14 Q1019 NOSIG,0,6,0,10000,0,0,0,
2026-05-02 10:30:00,METAR LEMD 021030Z VRB02KT 9999 FEW015 FEW030TCU BKN050 16/16 Q1019 NOSIG,0,2,0,10000,0,0,0,
2026-05-02 10:00:00,METAR LEMD 021000Z 16002KT 9999 -DZ VCTS FEW015 FEW030CB BKN050 16/16 Q1019 TEMPO TSRA,0,2,0,10000,1,0,0,"DZ,RA,TS,VC"
2026-05-02 09:50:00,SPECI LEMD 020950Z 18001KT 9999 -RA VCTS SCT025 SCT040CB BKN060 15/15 Q1019 RESHRA TEMPO TSRA,0,1,0,10000,1,0,0,"-RA,RA,TS,VC"
2026-05-02 09:46:00,SPECI LEMD 020946Z 17001KT 9999 -RA SCT025 SCT040TCU BKN060 15/15 Q1019 RESHRA NOSIG,0,1,0,10000,0,0,0,"-RA,RA"
2026-05-02 09:35:00,SPECI LEMD 020935Z 16003KT 8000 SHRA SCT025 SCT040TCU BKN060 15/15 Q1019 NOSIG,0,3,0,8000,0,0,0,"RA,SH"
2026-05-02 09:30:00,METAR LEMD 020930Z VRB02KT 9999 SCT025 SCT040TCU BKN060 15/15 Q1019 NOSIG,0,2,0,10000,0,0,0,
2026-05-02 09:00:00,METAR LEMD 020900Z VRB02KT 6000 -RA SCT025 SCT040TCU BKN060 14/14 Q1019 NOSIG,0,2,0,6000,0,0,0,-RA
2026-05-02 08:41:00,SPECI LEMD 020841Z 10001KT 8000 -SHRA SCT025 SCT040TCU BKN055 14/14 Q1019 RESHRA NOSIG,0,1,0,8000,0,0,0,RA
2026-05-02 08:30:00,METAR LEMD 020830Z VRB01KT 5000 SHRA SCT025 SCT040TCU BKN055 14/14 Q1019 NOSIG,0,1,0,5000,0,0,0,"RA,SH"
2026-05-02 08:20:00,SPECI LEMD 020820Z VRB01KT 5000 -SHRA SCT025 SCT040TCU BKN055 14/14 Q1019 RESHRA NOSIG,0,1,0,5000,0,0,0,RA
2026-05-02 08:00:00,METAR LEMD 020800Z VRB02KT 5000 SHRA SCT020 SCT030TCU BKN055 14/14 Q1019 NOSIG,0,2,0,5000,0,0,0,"RA,SH"
2026-05-02 07:42:00,SPECI LEMD 020742Z VRB02KT 5000 SHRA SCT020 SCT030TCU BKN055 14/13 Q1019 NOSIG,0,2,0,5000,0,0,0,"RA,SH"
2026-05-02 07:30:00,METAR LEMD 020730Z VRB02KT 9999 -RA SCT020 SCT025TCU BKN055 14/14 Q1019 TEMPO SHRA,0,2,0,10000,0,0,0,"-RA,RA,SH"
2026-05-02 07:00:00,METAR LEMD 020700Z VRB02KT 9000 -SHRA FEW018 SCT025TCU BKN080 14/14 Q1019 RESHRA TEMPO SHRA,0,2,0,9000,0,0,0,"RA,SH"
2026-05-02 06:30:00,METAR LEMD 020630Z 15005KT 080V190 5000 SHRA SCT018 SCT020CB BKN075 14/14 Q1019 TEMPO TSRA,0,5,0,5000,1,0,0,"RA,SH,TS"
2026-05-02 06:21:00,SPECI LEMD 020621Z 17005KT 8000 SHRA SCT018 FEW020CB BKN075 15/13 Q1020 TEMPO TSRA SCT020CB,0,5,0,8000,1,0,0,"RA,SH,TS"
2026-05-02 06:00:00,METAR LEMD 020600Z 13005KT 100V190 9999 SCT018 FEW020CB BKN075 15/12 Q1019 TEMPO TSRA SCT020CB,0,5,0,10000,1,0,0,"RA,TS"
2026-05-02 05:30:00,METAR LEMD 020530Z 12004KT 080V180 9999 BKN020 SCT075 15/12 Q1019 TEMPO SHRA SCT020TCU,0,4,0,10000,0,0,0,"RA,SH"
2026-05-02 05:00:00,METAR LEMD 020500Z 13004KT 9999 BKN020 SCT075 15/12 Q1019 TEMPO SHRA SCT020TCU,0,4,0,10000,0,0,0,"RA,SH"
2026-05-02 04:30:00,METAR LEMD 020430Z 13005KT 100V160 9999 BKN020 SCT075 15/12 Q1019 NOSIG,0,5,0,10000,0,0,0,
2026-05-02 04:00:00,METAR LEMD 020400Z 12003KT 070V160 9999 BKN020 SCT075 15/12 Q1019 NOSIG,0,3,0,10000,0,0,0,
2026-05-02 03:30:00,METAR LEMD 020330Z VRB02KT 9999 BKN020 15/12 Q1019 NOSIG,0,2,0,10000,0,0,0,
2026-05-02 03:00:00,METAR LEMD 020300Z VRB01KT 9999 SCT025 SCT080 15/12 Q1019 NOSIG,0,1,0,10000,0,0,0,
2026-05-02 02:30:00,METAR LEMD 020230Z 13006KT 9999 FEW025 SCT080 15/12 Q1019 NOSIG,0,6,0,10000,0,0,0,
2026-05-02 02:00:00,METAR LEMD 020200Z 16008KT 130V190 9999 FEW070 SCT080 15/11 Q1019 NOSIG,0,8,0,10000,0,0,0,
2026-05-02 01:30:00,METAR LEMD 020130Z 13007KT 100V160 9999 FEW080 15/11 Q1019 NOSIG,0,7,0,10000,0,0,0,
2026-05-02 01:00:00,METAR LEMD 020100Z 16010KT 9999 FEW080 16/11 Q1020 NOSIG,0,10,0,10000,0,0,0,
2026-05-02 00:30:00,METAR LEMD 020030Z 14008KT 9999 FEW080 16/12 Q1020 NOSIG,0,8,0,10000,0,0,0,
2026-05-02 00:00:00,METAR LEMD 020000Z 14010KT 110V190 9999 FEW080 17/12 Q1020 NOSIG,0,10,0,10000,0,0,0,
2026-05-01 23:30:00,METAR LEMD 012330Z 15006KT 110V170 9999 FEW080 17/11 Q1020 NOSIG,0,6,0,10000,0,0,0,
2026-05-01 23:00:00,METAR LEMD 012300Z 15007KT 9999 FEW080 18/12 Q1020 NOSIG,0,7,0,10000,0,0,0,
2026-05-01 22:30:00,METAR LEMD 012230Z 15011KT 110V190 CAVOK 18/12 Q1020 NOSIG,1,0,0,9999,0,0,0,
2026-05-01 22:00:00,METAR LEMD 012200Z 16013KT 9999 FEW080 19/12 Q1020 NOSIG,0,13,0,10000,0,0,0,
2026-05-01 21:30:00,METAR LEMD 012130Z 16014KT 9999 FEW080 20/11 Q1020 NOSIG,0,14,0,10000,0,0,0,
2026-05-01 21:00:00,METAR LEMD 012100Z 16014KT 9999 FEW080 20/12 Q1019 NOSIG,0,14,0,10000,0,0,0,
2026-05-01 20:30:00,METAR LEMD 012030Z 14014KT 9999 SCT080 21/11 Q1019 NOSIG,0,14,0,10000,0,0,0,
2026-05-01 20:00:00,METAR LEMD 012000Z 14005KT 100V200 CAVOK 21/06 Q1018 NOSIG,1,0,0,9999,0,0,0,
2026-05-01 19:30:00,METAR LEMD 011930Z 16005KT 110V200 CAVOK 22/05 Q1018 NOSIG,1,0,0,9999,0,0,0,
2026-05-01 19:00:00,METAR LEMD 011900Z 16005KT CAVOK 22/05 Q1018 NOSIG,1,0,0,9999,0,0,0,
2026-05-01 18:30:00,METAR LEMD 011830Z 16007KT 120V200 CAVOK 23/04 Q1017 NOSIG,1,0,0,9999,0,0,0,
2026-05-01 18:00:00,METAR LEMD 011800Z 17005KT 110V210 CAVOK 24/04 Q1017 NOSIG,1,0,0,9999,0,0,0,
2026-05-01 17:30:00,METAR LEMD 011730Z 20005G15KT CAVOK 25/05 Q1017 NOSIG,1,0,0,9999,0,0,0,
2026-05-01 17:00:00,METAR LEMD 011700Z 20005G17KT 9999 SCT080 25/05 Q1017 NOSIG,0,5,1,10000,0,0,0,
2026-05-01 16:30:00,METAR LEMD 011630Z 21007KT 160V240 9999 SCT080 25/05 Q1017 NOSIG,0,7,0,10000,0,0,0,
2026-05-01 16:00:00,METAR LEMD 011600Z 23009KT 170V300 9999 SCT080 25/05 Q1017 NOSIG,0,9,0,10000,0,0,0,
2026-05-01 15:30:00,METAR LEMD 011530Z 18005KT 130V220 9999 SCT075 25/06 Q1017 NOSIG,0,5,0,10000,0,0,0,
2026-05-01 15:00:00,METAR LEMD 011500Z 16004KT 9999 SCT075 25/07 Q1018 NOSIG,0,4,0,10000,0,0,0,
2026-05-01 14:30:00,METAR LEMD 011430Z VRB05G15KT 9999 SCT068 25/07 Q1018 NOSIG,0,5,1,10000,0,0,0,
2026-05-01 14:00:00,METAR LEMD 011400Z 24005KT 9999 SCT068 25/06 Q1018 NOSIG,0,5,0,10000,0,0,0,
2026-05-01 13:30:00,METAR LEMD 011330Z 18009KT 9999 SCT068 24/07 Q1019 NOSIG,0,9,0,10000,0,0,0,
2026-05-01 13:00:00,METAR LEMD 011300Z 16007KT 110V200 9999 SCT060 23/08 Q1019 NOSIG,0,7,0,10000,0,0,0,
2026-05-01 12:30:00,METAR LEMD 011230Z 17006KT 110V240 9999 FEW065 23/07 Q1019 NOSIG,0,6,0,10000,0,0,0,
2026-05-01 12:00:00,METAR LEMD 011200Z 20009KT 160V260 9999 FEW060 23/08 Q1019 NOSIG,0,9,0,10000,0,0,0,
2026-05-01 11:30:00,METAR LEMD 011130Z 16005KT 040V210 CAVOK 22/08 Q1019 NOSIG,1,0,0,9999,0,0,0,
2026-05-01 11:00:00,METAR LEMD 011100Z 16004KT 090V210 CAVOK 22/08 Q1019 NOSIG,1,0,0,9999,0,0,0,
2026-05-01 10:30:00,METAR LEMD 011030Z 15002KT CAVOK 21/09 Q1020 NOSIG,1,0,0,9999,0,0,0,
2026-05-01 10:00:00,METAR LEMD 011000Z 20003KT 120V250 CAVOK 20/10 Q1020 NOSIG,1,0,0,9999,0,0,0,
2026-05-01 09:30:00,METAR LEMD 010930Z 19003KT 130V240 CAVOK 19/10 Q1020 NOSIG,1,0,0,9999,0,0,0,
2026-05-01 09:00:00,METAR LEMD 010900Z 17004KT 110V250 CAVOK 17/09 Q1020 NOSIG,1,0,0,9999,0,0,0,
2026-05-01 08:30:00,METAR LEMD 010830Z 13003KT 070V180 CAVOK 17/10 Q1020 NOSIG,1,0,0,9999,0,0,0,
2026-05-01 08:00:00,METAR LEMD 010800Z VRB02KT CAVOK 15/08 Q1020 NOSIG,1,0,0,9999,0,0,0,
2026-05-01 07:30:00,METAR LEMD 010730Z VRB02KT CAVOK 13/08 Q1020 NOSIG,1,0,0,9999,0,0,0,
2026-05-01 07:00:00,METAR LEMD 010700Z 35003KT 310V020 CAVOK 12/09 Q1019 NOSIG,1,0,0,9999,0,0,0,
2026-05-01 06:30:00,METAR LEMD 010630Z 36002KT CAVOK 11/08 Q1019 NOSIG,1,0,0,9999,0,0,0,
2026-05-01 06:00:00,METAR LEMD 010600Z 36002KT CAVOK 09/08 Q1019 NOSIG,1,0,0,9999,0,0,0,
2026-05-01 05:30:00,METAR LEMD 010530Z 36003KT 330V030 9999 SCT070 09/08 Q1019 NOSIG,0,3,0,10000,0,0,0,
2026-05-01 05:00:00,METAR LEMD 010500Z 34003KT 310V030 9999 SCT070 09/08 Q1019 NOSIG,0,3,0,10000,0,0,0,
2026-05-01 04:30:00,METAR LEMD 010430Z VRB02KT CAVOK 09/09 Q1018 NOSIG,1,0,0,9999,0,0,0,
2026-05-01 04:00:00,METAR LEMD 010400Z VRB01KT CAVOK 09/09 Q1018 NOSIG,1,0,0,9999,0,0,0,
2026-05-01 03:30:00,METAR LEMD 010330Z 32004KT CAVOK 09/08 Q1018 NOSIG,1,0,0,9999,0,0,0,
2026-05-01 03:00:00,METAR LEMD 010300Z 02003KT 340V070 CAVOK 10/08 Q1018 NOSIG,1,0,0,9999,0,0,0,
2026-05-01 02:30:00,METAR LEMD 010230Z 35003KT CAVOK 11/08 Q1018 NOSIG,1,0,0,9999,0,0,0,
2026-05-01 02:00:00,METAR LEMD 010200Z 34004KT 310V010 CAVOK 11/08 Q1018 NOSIG,1,0,0,9999,0,0,0,
2026-05-01 01:30:00,METAR LEMD 010130Z 33003KT CAVOK 11/08 Q1018 NOSIG,1,0,0,9999,0,0,0,
2026-05-01 01:00:00,METAR LEMD 010100Z 35004KT 310V020 CAVOK 12/08 Q1018 NOSIG,1,0,0,9999,0,0,0,
2026-05-01 00:30:00,METAR LEMD 010030Z 34004KT 310V010 CAVOK 13/08 Q1018 NOSIG,1,0,0,9999,0,0,0,
2026-05-01 00:00:00,METAR LEMD 010000Z 34005KT 310V010 CAVOK 13/08 Q1018 NOSIG,1,0,0,9999,0,0,0,
2026-04-30 23:30:00,METAR LEMD 302330Z 34003KT 310V010 CAVOK 13/08 Q1018 NOSIG,1,0,0,9999,0,0,0,
2026-04-30 23:00:00,METAR LEMD 302300Z 34003KT CAVOK 14/08 Q1018 NOSIG,1,0,0,9999,0,0,0,
2026-04-30 22:30:00,METAR LEMD 302230Z 33004KT CAVOK 13/08 Q1018 NOSIG,1,0,0,9999,0,0,0,
2026-04-30 22:00:00,METAR LEMD 302200Z 03003KT 350V080 CAVOK 14/08 Q1018 NOSIG,1,0,0,9999,0,0,0,
2026-04-30 21:30:00,METAR LEMD 302130Z 33003KT CAVOK 15/07 Q1018 NOSIG,1,0,0,9999,0,0,0,
2026-04-30 21:00:00,METAR LEMD 302100Z 36002KT CAVOK 15/07 Q1017 NOSIG,1,0,0,9999,0,0,0,
2026-04-30 20:30:00,METAR LEMD 302030Z 34002KT CAVOK 16/07 Q1017 NOSIG,1,0,0,9999,0,0,0,
2026-04-30 20:00:00,METAR LEMD 302000Z 01003KT 340V040 CAVOK 17/07 Q1017 NOSIG,1,0,0,9999,0,0,0,
2026-04-30 19:30:00,METAR LEMD 301930Z 35003KT CAVOK 17/07 Q1016 NOSIG,1,0,0,9999,0,0,0,
2026-04-30 19:00:00,METAR LEMD 301900Z 35003KT CAVOK 18/07 Q1016 NOSIG,1,0,0,9999,0,0,0,
2026-04-30 18:30:00,METAR LEMD 301830Z 35004KT 9999 FEW065 20/07 Q1016 NOSIG,0,4,0,10000,0,0,0,
2026-04-30 18:00:00,METAR LEMD 301800Z 35004KT 320V020 9999 FEW060 20/07 Q1016 NOSIG,0,4,0,10000,0,0,0,
2026-04-30 17:30:00,METAR LEMD 301730Z 33005KT 260V020 9999 FEW060 21/06 Q1016 NOSIG,0,5,0,10000,0,0,0,
2026-04-30 17:00:00,METAR LEMD 301700Z 24005KT 9999 FEW065 22/06 Q1016 NOSIG,0,5,0,10000,0,0,0,
2026-04-30 16:30:00,METAR LEMD 301630Z 03002KT 9999 FEW065 22/06 Q1016 NOSIG,0,2,0,10000,0,0,0,
2026-04-30 16:00:00,METAR LEMD 301600Z 13002KT 9999 SCT065 21/06 Q1016 NOSIG,0,2,0,10000,0,0,0,
2026-04-30 15:00:00,METAR LEMD 301500Z 18004KT 100V260 9999 SCT060 21/06 Q1016 NOSIG,0,4,0,10000,0,0,0,
2026-04-30 14:30:00,METAR LEMD 301430Z 17005KT 130V210 9999 SCT060 21/06 Q1016 NOSIG,0,5,0,10000,0,0,0,
2026-04-30 14:00:00,METAR LEMD 301400Z 17005KT 9999 BKN060 21/07 Q1017 NOSIG,0,5,0,10000,0,0,0,
2026-04-30 13:30:00,METAR LEMD 301330Z 14006KT 080V200 9999 BKN055 21/07 Q1017 NOSIG,0,6,0,10000,0,0,0,
2026-04-30 13:00:00,METAR LEMD 301300Z 16005KT 110V270 9999 BKN055 20/06 Q1017 NOSIG,0,5,0,10000,0,0,0,
2026-04-30 12:30:00,METAR LEMD 301230Z VRB03KT 9999 FEW045 SCT055 20/06 Q1017 NOSIG,0,3,0,10000,0,0,0,
2026-04-30 12:00:00,METAR LEMD 301200Z 23004KT 9999 FEW045 BKN050 19/06 Q1017 NOSIG,0,4,0,10000,0,0,0,
2026-04-30 11:30:00,METAR LEMD 301130Z 22003KT 9999 FEW045 BKN055 19/07 Q1017 NOSIG,0,3,0,10000,0,0,0,
2026-04-30 11:00:00,METAR LEMD 301100Z 17003KT 9999 FEW045 BKN055 19/06 Q1017 NOSIG,0,3,0,10000,0,0,0,
2026-04-30 10:30:00,METAR LEMD 301030Z VRB02KT 9999 FEW045 BKN055 17/05 Q1017 NOSIG,0,2,0,10000,0,0,0,
2026-04-30 10:00:00,METAR LEMD 301000Z 16005KT 070V210 9999 FEW020 SCT050 17/06 Q1017 NOSIG,0,5,0,10000,0,0,0,
2026-04-30 09:30:00,METAR LEMD 300930Z 18005KT 130V240 9999 FEW020 SCT050 18/08 Q1017 NOSIG,0,5,0,10000,0,0,0,
2026-04-30 09:00:00,METAR LEMD 300900Z 20005KT 110V250 9999 FEW020 SCT060 17/08 Q1017 NOSIG,0,5,0,10000,0,0,0,
2026-04-30 08:30:00,METAR LEMD 300830Z 17006KT 130V210 9999 FEW016 SCT060 16/10 Q1017 NOSIG,0,6,0,10000,0,0,0,
2026-04-30 08:00:00,METAR LEMD 300800Z 15005KT 110V200 9999 FEW016 BKN060 15/10 Q1017 NOSIG,0,5,0,10000,0,0,0,
2026-04-30 07:30:00,METAR LEMD 300730Z 18005KT 150V220 9999 BKN060 14/10 Q1017 NOSIG,0,5,0,10000,0,0,0,
2026-04-30 07:00:00,METAR LEMD 300700Z 18004KT 140V250 9999 BKN060 13/10 Q1016 NOSIG,0,4,0,10000,0,0,0,
2026-04-30 06:30:00,METAR LEMD 300630Z 16004KT 120V220 9999 BKN060 13/11 Q1016 NOSIG,0,4,0,10000,0,0,0,
2026-04-30 06:00:00,METAR LEMD 300600Z 14004KT 090V160 9999 BKN060 12/12 Q1016 NOSIG,0,4,0,10000,0,0,0,
2026-04-30 05:30:00,METAR LEMD 300530Z VRB02KT 9999 SCT055 BKN060 11/11 Q1015 NOSIG,0,2,0,10000,0,0,0,
2026-04-30 05:00:00,METAR LEMD 300500Z 14004KT 090V170 9999 FEW055 SCT060 11/10 Q1015 NOSIG,0,4,0,10000,0,0,0,
2026-04-30 04:30:00,METAR LEMD 300430Z 18004KT 140V220 9999 SCT060 11/09 Q1015 NOSIG,0,4,0,10000,0,0,0,
2026-04-30 04:00:00,METAR LEMD 300400Z 23005KT 9999 SCT060 13/09 Q1015 NOSIG,0,5,0,10000,0,0,0,
2026-04-30 03:30:00,METAR LEMD 300330Z 18003KT 150V290 9999 SCT060 13/10 Q1015 NOSIG,0,3,0,10000,0,0,0,
2026-04-30 03:00:00,METAR LEMD 300300Z 19005KT 160V220 9999 FEW050 SCT065 14/11 Q1015 NOSIG,0,5,0,10000,0,0,0,
2026-04-30 02:30:00,METAR LEMD 300230Z 18006KT 9999 FEW050 BKN065 14/10 Q1015 NOSIG,0,6,0,10000,0,0,0,
2026-04-30 02:00:00,METAR LEMD 300200Z 19004KT 160V230 9999 BKN045 BKN060 15/10 Q1014 NOSIG,0,4,0,10000,0,0,0,
2026-04-30 01:30:00,METAR LEMD 300130Z 23006KT 9999 BKN045 BKN060 15/09 Q1014 NOSIG,0,6,0,10000,0,0,0,
2026-04-30 01:00:00,METAR LEMD 300100Z 22007KT 9999 FEW040 BKN050 BKN060 16/09 Q1014 NOSIG,0,7,0,10000,0,0,0,
2026-04-30 00:30:00,METAR LEMD 300030Z 23007KT 9999 SCT033 BKN041 BKN050 15/09 Q1014 NOSIG,0,7,0,10000,0,0,0,
2026-04-30 00:00:00,METAR LEMD 300000Z 22007KT 9999 SCT030 BKN041 16/10 Q1014 NOSIG,0,7,0,10000,0,0,0,
2026-04-29 23:30:00,METAR LEMD 292330Z 23006KT 9999 FEW035 SCT080 16/10 Q1013 NOSIG,0,6,0,10000,0,0,0,
2026-04-29 23:00:00,METAR LEMD 292300Z 25006KT 9999 FEW035 16/11 Q1013 NOSIG,0,6,0,10000,0,0,0,
2026-04-29 22:30:00,METAR LEMD 292230Z 25007KT 220V280 9999 FEW035 SCT070 16/10 Q1013 NOSIG,0,7,0,10000,0,0,0,
2026-04-29 22:00:00,METAR LEMD 292200Z 23007KT 200V280 9999 VCSH FEW030TCU SCT070 17/11 Q1013 NOSIG,0,7,0,10000,0,0,0,"SH,VC"
2026-04-29 21:30:00,METAR LEMD 292130Z 25007KT 220V300 9999 VCSH FEW040 FEW045TCU 16/11 Q1012 NOSIG,0,7,0,10000,0,0,0,"SH,VC"
2026-04-29 21:00:00,METAR LEMD 292100Z 28004KT 230V010 9999 FEW040 17/11 Q1012 NOSIG,0,4,0,10000,0,0,0,
2026-04-29 20:30:00,METAR LEMD 292030Z 27007KT 240V300 9999 VCTS FEW045 FEW055CB 17/10 Q1012 NOSIG,0,7,0,10000,1,0,0,"TS,VC"
2026-04-29 20:00:00,METAR LEMD 292000Z 19011KT 9999 VCTS FEW045 FEW055CB 19/10 Q1011 NOSIG,0,11,0,10000,1,0,0,"TS,VC"
2026-04-29 19:30:00,METAR LEMD 291930Z 19012KT 160V220 9999 FEW050CB 19/10 Q1010 TEMPO TSRA,0,12,0,10000,1,0,0,"RA,TS"
2026-04-29 19:00:00,METAR LEMD 291900Z 19011KT 9999 FEW050 20/10 Q1009 NOSIG,0,11,0,10000,0,0,0,
2026-04-29 18:30:00,METAR LEMD 291830Z 19013G24KT 150V220 9999 FEW050 21/10 Q1009 NOSIG,0,13,1,10000,0,0,0,
2026-04-29 18:00:00,METAR LEMD 291800Z 20014KT 9999 SCT050 21/10 Q1008 NOSIG,0,14,0,10000,0,0,0,
2026-04-29 17:30:00,METAR LEMD 291730Z 20016KT 170V230 9999 SCT050 22/10 Q1008 NOSIG,0,16,0,10000,0,0,0,
2026-04-29 17:00:00,METAR LEMD 291700Z 20016KT 9999 FEW050 SCT080 22/10 Q1008 NOSIG,0,16,0,10000,0,0,0,
2026-04-29 16:30:00,METAR LEMD 291630Z 21015KT 9999 FEW050CB SCT070 23/09 Q1008 NOSIG,0,15,0,10000,0,0,0,
2026-04-29 16:00:00,METAR LEMD 291600Z 17011G25KT 130V210 9999 FEW050CB SCT075 23/11 Q1008 NOSIG,0,11,1,10000,0,0,0,
2026-04-29 15:30:00,METAR LEMD 291530Z 17016KT 140V200 9999 VCTS VCSH FEW050CB SCT070 22/12 Q1008 NOSIG,0,16,0,10000,1,0,0,"SH,TS,VC"
2026-04-29 15:00:00,METAR LEMD 291500Z 17012G22KT 100V210 9999 FEW050TCU SCT070 24/11 Q1008 NOSIG,0,12,1,10000,0,0,0,
2026-04-29 14:30:00,METAR LEMD 291430Z 17014KT 140V200 9999 FEW045TCU SCT075 23/11 Q1008 NOSIG,0,14,0,10000,0,0,0,
2026-04-29 14:00:00,METAR LEMD 291400Z 17014KT 140V200 9999 FEW050TCU SCT080 22/12 Q1008 NOSIG,0,14,0,10000,0,0,0,
2026-04-29 13:30:00,METAR LEMD 291330Z 16012KT 120V190 9999 VCSH FEW050CB SCT066 21/12 Q1009 NOSIG,0,12,0,10000,0,0,0,"SH,VC"
2026-04-29 13:00:00,METAR LEMD 291300Z 16012KT 130V210 9999 FEW030CB SCT050 21/12 Q1009 NOSIG,0,12,0,10000,0,0,0,
2026-04-29 12:30:00,METAR LEMD 291230Z 16013KT 130V190 9999 FEW030CB SCT070 20/12 Q1009 NOSIG,0,13,0,10000,0,0,0,
2026-04-29 12:00:00,METAR LEMD 291200Z 16012G23KT 080V210 9999 VCTS VCSH FEW030CB SCT040 19/13 Q1009 TEMPO TSRA,0,12,1,10000,1,0,0,"RA,SH,TS,VC"
2026-04-29 11:30:00,METAR LEMD 291130Z 17007KT 110V210 9999 VCTS VCSH FEW025CB BKN034 19/13 Q1010 RESHRA RETS TEMPO TSRA,0,7,0,10000,1,0,0,"RA,SH,TS,VC"
2026-04-29 11:19:00,SPECI LEMD 291119Z 17006KT 120V210 9999 TS FEW025CB BKN034 18/13 Q1010 RESHRA NOSIG,0,6,0,10000,1,0,0,"RA,TS"
2026-04-29 11:00:00,METAR LEMD 291100Z 16006KT 9999 SHRA FEW025TCU BKN034 17/13 Q1010 NOSIG,0,6,0,10000,0,0,0,"RA,SH"
2026-04-29 10:30:00,METAR LEMD 291030Z 15008KT 100V200 9999 FEW018 FEW029TCU BKN035 17/12 Q1010 NOSIG,0,8,0,10000,0,0,0,
2026-04-29 10:00:00,METAR LEMD 291000Z 15008G22KT 130V210 9999 -RA FEW015 FEW043TCU BKN060 17/12 Q1010 NOSIG,0,8,1,10000,0,0,0,-RA
2026-04-29 09:30:00,METAR LEMD 290930Z 16007KT 9999 FEW013 FEW040TCU BKN045 16/14 Q1010 NOSIG,0,7,0,10000,0,0,0,
2026-04-29 09:00:00,METAR LEMD 290900Z 13005KT 080V170 9999 -RA FEW013 SCT030TCU BKN045 15/14 Q1010 NOSIG,0,5,0,10000,0,0,0,-RA
2026-04-29 08:30:00,METAR LEMD 290830Z 13005KT 100V160 9999 VCSH SCT030TCU BKN040 14/14 Q1010 NOSIG,0,5,0,10000,0,0,0,"SH,VC"
2026-04-29 08:00:00,METAR LEMD 290800Z 13004KT 100V160 9999 -SHRA SCT040TCU BKN050 14/14 Q1010 RESHRA NOSIG,0,4,0,10000,0,0,0,RA
2026-04-29 07:30:00,METAR LEMD 290730Z 15006KT 100V170 7000 SHRA SCT035TCU BKN060 14/14 Q1010 NOSIG,0,6,0,7000,0,0,0,"RA,SH"
2026-04-29 07:21:00,SPECI LEMD 290721Z 15008KT 9000 SHRA SCT035TCU BKN060 14/14 Q1010 NOSIG,0,8,0,9000,0,0,0,"RA,SH"
2026-04-29 07:00:00,METAR LEMD 290700Z 15007KT 9999 -RA FEW035TCU BKN070 14/13 Q1010 NOSIG,0,7,0,10000,0,0,0,-RA
2026-04-29 06:30:00,METAR LEMD 290630Z 16006KT 130V190 9999 -RA FEW035TCU SCT049 BKN075 14/11 Q1010 NOSIG,0,6,0,10000,0,0,0,-RA
2026-04-29 06:00:00,METAR LEMD 290600Z 15006KT 9999 FEW045 SCT080 14/10 Q1009 NOSIG,0,6,0,10000,0,0,0,
2026-04-29 05:30:00,METAR LEMD 290530Z 17005KT 9999 FEW047 14/10 Q1009 NOSIG,0,5,0,10000,0,0,0,
2026-04-29 05:00:00,METAR LEMD 290500Z 16006KT CAVOK 14/10 Q1009 NOSIG,1,0,0,9999,0,0,0,
2026-04-29 04:30:00,METAR LEMD 290430Z 17005KT 140V200 CAVOK 14/10 Q1009 NOSIG,1,0,0,9999,0,0,0,
2026-04-29 04:00:00,METAR LEMD 290400Z 16005KT CAVOK 14/10 Q1009 NOSIG,1,0,0,9999,0,0,0,
2026-04-29 03:30:00,METAR LEMD 290330Z 15005KT 110V170 CAVOK 14/10 Q1009 NOSIG,1,0,0,9999,0,0,0,
2026-04-29 03:00:00,METAR LEMD 290300Z 13004KT CAVOK 14/10 Q1009 NOSIG,1,0,0,9999,0,0,0,
2026-04-29 02:30:00,METAR LEMD 290230Z 13005KT 110V170 CAVOK 14/10 Q1009 NOSIG,1,0,0,9999,0,0,0,
2026-04-29 02:00:00,METAR LEMD 290200Z 12003KT 080V160 CAVOK 15/10 Q1009 NOSIG,1,0,0,9999,0,0,0,
2026-04-29 01:30:00,METAR LEMD 290130Z 13003KT 100V170 CAVOK 15/11 Q1009 NOSIG,1,0,0,9999,0,0,0,
2026-04-29 01:00:00,METAR LEMD 290100Z 17005KT 9999 SCT080 16/10 Q1009 NOSIG,0,5,0,10000,0,0,0,
2026-04-29 00:30:00,METAR LEMD 290030Z 17003KT 120V200 9999 FEW065 16/10 Q1009 NOSIG,0,3,0,10000,0,0,0,
2026-04-29 00:00:00,METAR LEMD 290000Z 19004KT 160V220 9999 FEW060 17/10 Q1010 NOSIG,0,4,0,10000,0,0,0,
2026-04-28 23:30:00,METAR LEMD 282330Z 17007KT 9999 FEW070 17/10 Q1010 NOSIG,0,7,0,10000,0,0,0,
2026-04-28 23:00:00,METAR LEMD 282300Z 17010KT 150V210 9999 FEW070 17/10 Q1010 NOSIG,0,10,0,10000,0,0,0,
2026-04-28 22:30:00,METAR LEMD 282230Z 18010KT 9999 FEW070 18/10 Q1010 NOSIG,0,10,0,10000,0,0,0,
2026-04-28 22:00:00,METAR LEMD 282200Z 19007KT 160V220 9999 SCT070 18/09 Q1010 NOSIG,0,7,0,10000,0,0,0,
2026-04-28 21:30:00,METAR LEMD 282130Z 21009KT 180V250 9999 FEW038TCU SCT070 19/09 Q1010 NOSIG,0,9,0,10000,0,0,0,
2026-04-28 21:00:00,METAR LEMD 282100Z 19012KT 160V220 9999 BKN070 19/08 Q1010 NOSIG,0,12,0,10000,0,0,0,
2026-04-28 20:30:00,METAR LEMD 282030Z 20006KT 130V250 9999 BKN075 19/08 Q1010 NOSIG,0,6,0,10000,0,0,0,
2026-04-28 20:00:00,METAR LEMD 282000Z 19008KT 160V230 9999 SCT075 19/09 Q1009 NOSIG,0,8,0,10000,0,0,0,
2026-04-28 19:30:00,METAR LEMD 281930Z 20011KT 170V230 9999 FEW075 19/09 Q1009 NOSIG,0,11,0,10000,0,0,0,
2026-04-28 19:00:00,METAR LEMD 281900Z 20014KT 9999 FEW080 20/09 Q1008 NOSIG,0,14,0,10000,0,0,0,
2026-04-28 18:30:00,METAR LEMD 281830Z 20014KT 110V230 9999 FEW075TCU SCT080 21/09 Q1008 NOSIG,0,14,0,10000,0,0,0,
2026-04-28 18:00:00,METAR LEMD 281800Z 19008KT 130V240 9999 FEW075TCU 24/07 Q1008 NOSIG,0,8,0,10000,0,0,0,
2026-04-28 17:30:00,METAR LEMD 281730Z 18008KT 150V210 9999 FEW080TCU 24/07 Q1008 NOSIG,0,8,0,10000,0,0,0,
2026-04-28 17:00:00,METAR LEMD 281700Z 13003KT 100V170 9999 FEW080TCU 24/06 Q1008 NOSIG,0,3,0,10000,0,0,0,
2026-04-28 16:30:00,METAR LEMD 281630Z 11004KT 050V170 9999 FEW080TCU 25/07 Q1008 NOSIG,0,4,0,10000,0,0,0,
2026-04-28 16:00:00,METAR LEMD 281600Z 14003KT 020V190 CAVOK 25/05 Q1008 NOSIG,1,0,0,9999,0,0,0,
2026-04-28 15:30:00,METAR LEMD 281530Z 11003KT CAVOK 25/05 Q1008 NOSIG,1,0,0,9999,0,0,0,
2026-04-28 15:00:00,METAR LEMD 281500Z 18005KT CAVOK 24/05 Q1009 NOSIG,1,0,0,9999,0,0,0,
2026-04-28 14:30:00,METAR LEMD 281430Z 15007KT 100V210 CAVOK 24/07 Q1009 NOSIG,1,0,0,9999,0,0,0,
2026-04-28 14:00:00,METAR LEMD 281400Z 13005KT CAVOK 25/07 Q1010 NOSIG,1,0,0,9999,0,0,0,
2026-04-28 13:30:00,METAR LEMD 281330Z 19003KT CAVOK 24/05 Q1010 NOSIG,1,0,0,9999,0,0,0,
2026-04-28 13:00:00,METAR LEMD 281300Z 08002KT CAVOK 24/06 Q1011 NOSIG,1,0,0,9999,0,0,0,
2026-04-28 12:30:00,METAR LEMD 281230Z 14003KT CAVOK 23/05 Q1011 NOSIG,1,0,0,9999,0,0,0,
2026-04-28 12:00:00,METAR LEMD 281200Z 16005KT CAVOK 22/05 Q1012 NOSIG,1,0,0,9999,0,0,0,
2026-04-28 11:30:00,METAR LEMD 281130Z 14006KT 100V220 CAVOK 22/05 Q1012 NOSIG,1,0,0,9999,0,0,0,
2026-04-28 11:00:00,METAR LEMD 281100Z 16004KT CAVOK 21/05 Q1012 NOSIG,1,0,0,9999,0,0,0,
2026-04-28 10:30:00,METAR LEMD 281030Z 15007KT 110V210 CAVOK 20/05 Q1013 NOSIG,1,0,0,9999,0,0,0,
2026-04-28 10:00:00,METAR LEMD 281000Z 15006KT 050V200 CAVOK 21/06 Q1013 NOSIG,1,0,0,9999,0,0,0,
2026-04-28 09:30:00,METAR LEMD 280930Z 14006KT 070V190 CAVOK 20/03 Q1013 NOSIG,1,0,0,9999,0,0,0,
2026-04-28 09:00:00,METAR LEMD 280900Z 11004KT 040V190 CAVOK 20/03 Q1013 NOSIG,1,0,0,9999,0,0,0,
2026-04-28 08:30:00,METAR LEMD 280830Z COR 12002KT CAVOK 19/03 Q1014 NOSIG,1,0,0,9999,0,0,0,
2026-04-28 08:00:00,METAR LEMD 280800Z 36001KT CAVOK 17/03 Q1014 NOSIG,1,0,0,9999,0,0,0,
2026-04-28 07:30:00,METAR LEMD 280730Z 01003KT 330V070 CAVOK 15/06 Q1014 NOSIG,1,0,0,9999,0,0,0,
2026-04-28 07:00:00,METAR LEMD 280700Z VRB01KT CAVOK 15/05 Q1014 NOSIG,1,0,0,9999,0,0,0,
2026-04-28 06:30:00,METAR LEMD 280630Z VRB01KT CAVOK 12/07 Q1014 NOSIG,1,0,0,9999,0,0,0,
2026-04-28 06:00:00,METAR LEMD 280600Z 01004KT 320V080 CAVOK 11/07 Q1014 NOSIG,1,0,0,9999,0,0,0,
2026-04-28 05:30:00,METAR LEMD 280530Z VRB02KT CAVOK 10/07 Q1013 NOSIG,1,0,0,9999,0,0,0,
2026-04-28 05:00:00,METAR LEMD 280500Z 02004KT 330V060 CAVOK 11/07 Q1013 NOSIG,1,0,0,9999,0,0,0,
2026-04-28 04:30:00,METAR LEMD 280430Z 31005KT CAVOK 11/07 Q1013 NOSIG,1,0,0,9999,0,0,0,
2026-04-28 04:00:00,METAR LEMD 280400Z 35003KT 310V050 CAVOK 12/05 Q1014 NOSIG,1,0,0,9999,0,0,0,
2026-04-28 03:30:00,METAR LEMD 280330Z 35003KT CAVOK 12/03 Q1014 NOSIG,1,0,0,9999,0,0,0,
2026-04-28 03:00:00,METAR LEMD 280300Z 36003KT CAVOK 14/02 Q1014 NOSIG,1,0,0,9999,0,0,0,
2026-04-28 02:30:00,METAR LEMD 280230Z 36002KT CAVOK 14/02 Q1014 NOSIG,1,0,0,9999,0,0,0,
2026-04-28 02:00:00,METAR LEMD 280200Z VRB02KT CAVOK 14/03 Q1014 NOSIG,1,0,0,9999,0,0,0,
2026-04-28 01:30:00,METAR LEMD 280130Z 05003KT 350V100 CAVOK 15/M00 Q1015 NOSIG,1,0,0,9999,0,0,0,
2026-04-28 01:00:00,METAR LEMD 280100Z VRB03KT CAVOK 16/M01 Q1015 NOSIG,1,0,0,9999,0,0,0,
2026-04-28 00:30:00,METAR LEMD 280030Z 02003KT 340V060 CAVOK 16/01 Q1015 NOSIG,1,0,0,9999,0,0,0,
2026-04-28 00:00:00,METAR LEMD 280000Z 12004KT 030V150 CAVOK 17/M01 Q1015 NOSIG,1,0,0,9999,0,0,0,
2026-04-27 23:30:00,METAR LEMD 272330Z 15010KT 110V170 CAVOK 17/00 Q1015 NOSIG,1,0,0,9999,0,0,0,
2026-04-27 23:00:00,METAR LEMD 272300Z 14010KT CAVOK 18/02 Q1015 NOSIG,1,0,0,9999,0,0,0,
2026-04-27 22:30:00,METAR LEMD 272230Z 14008KT 100V160 CAVOK 18/03 Q1015 NOSIG,1,0,0,9999,0,0,0,
2026-04-27 22:00:00,METAR LEMD 272200Z 13008KT 100V170 CAVOK 18/04 Q1015 NOSIG,1,0,0,9999,0,0,0,
2026-04-27 21:30:00,METAR LEMD 272130Z 12005KT 080V160 CAVOK 19/03 Q1014 NOSIG,1,0,0,9999,0,0,0,
2026-04-27 21:00:00,METAR LEMD 272100Z 13003KT 090V170 CAVOK 19/01 Q1014 NOSIG,1,0,0,9999,0,0,0,
2026-04-27 20:30:00,METAR LEMD 272030Z 10003KT CAVOK 20/00 Q1014 NOSIG,1,0,0,9999,0,0,0,
2026-04-27 20:00:00,METAR LEMD 272000Z 13003KT CAVOK 20/M01 Q1014 NOSIG,1,0,0,9999,0,0,0,
2026-04-27 19:30:00,METAR LEMD 271930Z 16004KT 090V210 CAVOK 22/M02 Q1013 NOSIG,1,0,0,9999,0,0,0,
2026-04-27 19:00:00,METAR LEMD 271900Z 16005KT CAVOK 23/M02 Q1013 NOSIG,1,0,0,9999,0,0,0,
2026-04-27 18:30:00,METAR LEMD 271830Z 16007KT 130V190 CAVOK 24/M02 Q1013 NOSIG,1,0,0,9999,0,0,0,
2026-04-27 18:00:00,METAR LEMD 271800Z 18008KT 150V210 CAVOK 25/M02 Q1013 NOSIG,1,0,0,9999,0,0,0,
2026-04-27 17:30:00,METAR LEMD 271730Z 15005KT 100V220 CAVOK 25/M00 Q1013 NOSIG,1,0,0,9999,0,0,0,
2026-04-27 17:00:00,METAR LEMD 271700Z 15007KT 110V190 CAVOK 25/M01 Q1013 NOSIG,1,0,0,9999,0,0,0,
2026-04-27 16:30:00,METAR LEMD 271630Z 14007KT 070V200 CAVOK 26/00 Q1013 NOSIG,1,0,0,9999,0,0,0,
2026-04-27 16:00:00,METAR LEMD 271600Z 19006KT 9999 FEW055 27/01 Q1014 NOSIG,0,6,0,10000,0,0,0,
2026-04-27 15:30:00,METAR LEMD 271530Z 13006KT 070V190 9999 FEW055 26/02 Q1014 NOSIG,0,6,0,10000,0,0,0,
2026-04-27 15:00:00,METAR LEMD 271500Z 17007KT 120V240 9999 FEW055 27/04 Q1014 NOSIG,0,7,0,10000,0,0,0,
2026-04-27 14:30:00,METAR LEMD 271430Z 15006KT 9999 FEW055 26/03 Q1015 NOSIG,0,6,0,10000,0,0,0,
2026-04-27 14:00:00,METAR LEMD 271400Z 16005KT 080V240 9999 FEW055 26/05 Q1015 NOSIG,0,5,0,10000,0,0,0,
2026-04-27 13:30:00,METAR LEMD 271330Z 09004KT 9999 FEW055 26/05 Q1015 NOSIG,0,4,0,10000,0,0,0,
2026-04-27 13:00:00,METAR LEMD 271300Z 18003KT CAVOK 25/06 Q1016 NOSIG,1,0,0,9999,0,0,0,
2026-04-27 12:30:00,METAR LEMD 271230Z 07003KT CAVOK 25/08 Q1016 NOSIG,1,0,0,9999,0,0,0,
2026-04-27 12:00:00,METAR LEMD 271200Z 36002KT CAVOK 24/06 Q1017 NOSIG,1,0,0,9999,0,0,0,
2026-04-27 11:30:00,METAR LEMD 271130Z 08003KT CAVOK 23/06 Q1017 NOSIG,1,0,0,9999,0,0,0,
2026-04-27 11:00:00,METAR LEMD 271100Z 08004KT CAVOK 23/07 Q1018 NOSIG,1,0,0,9999,0,0,0,
2026-04-27 10:30:00,METAR LEMD 271030Z 10002KT CAVOK 22/07 Q1018 NOSIG,1,0,0,9999,0,0,0,
2026-04-27 10:00:00,METAR LEMD 271000Z 04002KT CAVOK 22/06 Q1018 NOSIG,1,0,0,9999,0,0,0,
2026-04-27 09:30:00,METAR LEMD 270930Z 18002KT CAVOK 21/05 Q1018 NOSIG,1,0,0,9999,0,0,0,
2026-04-27 09:00:00,METAR LEMD 270900Z 32001KT CAVOK 20/08 Q1018 NOSIG,1,0,0,9999,0,0,0,
2026-04-27 08:30:00,METAR LEMD 270830Z 13001KT CAVOK 20/11 Q1019 NOSIG,1,0,0,9999,0,0,0,
2026-04-27 08:00:00,METAR LEMD 270800Z VRB02KT CAVOK 17/12 Q1019 NOSIG,1,0,0,9999,0,0,0,
2026-04-27 07:30:00,METAR LEMD 270730Z VRB02KT CAVOK 16/11 Q1019 NOSIG,1,0,0,9999,0,0,0,
2026-04-27 07:00:00,METAR LEMD 270700Z VRB02KT CAVOK 15/11 Q1019 NOSIG,1,0,0,9999,0,0,0,
2026-04-27 06:30:00,METAR LEMD 270630Z 35002KT CAVOK 14/12 Q1019 NOSIG,1,0,0,9999,0,0,0,
2026-04-27 06:00:00,METAR LEMD 270600Z 01002KT CAVOK 12/12 Q1018 NOSIG,1,0,0,9999,0,0,0,
2026-04-27 05:30:00,METAR LEMD 270530Z 36002KT CAVOK 12/12 Q1018 NOSIG,1,0,0,9999,0,0,0,
2026-04-27 05:00:00,METAR LEMD 270500Z 35001KT CAVOK 12/12 Q1018 NOSIG,1,0,0,9999,0,0,0,
2026-04-27 04:30:00,METAR LEMD 270430Z 03002KT CAVOK 12/12 Q1018 NOSIG,1,0,0,9999,0,0,0,
2026-04-27 04:00:00,METAR LEMD 270400Z 35002KT CAVOK 13/11 Q1018 NOSIG,1,0,0,9999,0,0,0,
2026-04-27 03:30:00,METAR LEMD 270330Z VRB01KT CAVOK 14/11 Q1018 NOSIG,1,0,0,9999,0,0,0,
2026-04-27 03:00:00,METAR LEMD 270300Z 00000KT CAVOK 14/10 Q1018 NOSIG,1,0,0,9999,0,0,0,
2026-04-27 02:30:00,METAR LEMD 270230Z VRB01KT CAVOK 16/10 Q1018 NOSIG,1,0,0,9999,0,0,0,
2026-04-27 02:00:00,METAR LEMD 270200Z 00000KT CAVOK 16/10 Q1019 NOSIG,1,0,0,9999,0,0,0,
2026-04-27 01:30:00,METAR LEMD 270130Z VRB01KT 9999 SCT080 16/11 Q1019 NOSIG,0,1,0,10000,0,0,0,
2026-04-27 01:00:00,METAR LEMD 270100Z 35003KT 9999 SCT075 16/09 Q1019 NOSIG,0,3,0,10000,0,0,0,
2026-04-27 00:30:00,METAR LEMD 270030Z VRB02KT CAVOK 16/06 Q1019 NOSIG,1,0,0,9999,0,0,0,
2026-04-27 00:00:00,METAR LEMD 270000Z 02003KT 340V070 CAVOK 17/10 Q1019 NOSIG,1,0,0,9999,0,0,0,
2026-04-26 23:30:00,METAR LEMD 262330Z VRB02KT CAVOK 17/08 Q1019 NOSIG,1,0,0,9999,0,0,0,
2026-04-26 23:00:00,METAR LEMD 262300Z VRB01KT 9999 SCT080 18/11 Q1019 NOSIG,0,1,0,10000,0,0,0,
2026-04-26 22:30:00,METAR LEMD 262230Z 10003KT 050V150 9999 SCT080 18/11 Q1019 NOSIG,0,3,0,10000,0,0,0,
2026-04-26 22:00:00,METAR LEMD 262200Z 04002KT 9999 FEW020 SCT075 17/13 Q1019 NOSIG,0,2,0,10000,0,0,0,
2026-04-26 21:30:00,METAR LEMD 262130Z VRB02KT 9999 SCT074 20/10 Q1019 NOSIG,0,2,0,10000,0,0,0,
2026-04-26 21:00:00,METAR LEMD 262100Z 06003KT 020V110 CAVOK 20/10 Q1019 NOSIG,1,0,0,9999,0,0,0,
2026-04-26 20:30:00,METAR LEMD 262030Z VRB01KT CAVOK 20/10 Q1018 NOSIG,1,0,0,9999,0,0,0,
2026-04-26 20:00:00,METAR LEMD 262000Z 13004KT 090V160 9999 FEW080 20/10 Q1017 NOSIG,0,4,0,10000,0,0,0,
2026-04-26 19:30:00,METAR LEMD 261930Z 07003KT 020V130 9999 FEW080 20/10 Q1017 NOSIG,0,3,0,10000,0,0,0,
2026-04-26 19:00:00,METAR LEMD 261900Z 08003KT 9999 FEW080 21/10 Q1017 NOSIG,0,3,0,10000,0,0,0,
2026-04-26 18:30:00,METAR LEMD 261830Z 06004KT 010V110 9999 SCT080 22/10 Q1016 NOSIG,0,4,0,10000,0,0,0,
2026-04-26 18:00:00,METAR LEMD 261800Z 18004KT 9999 BKN080 25/07 Q1016 NOSIG,0,4,0,10000,0,0,0,
2026-04-26 17:30:00,METAR LEMD 261730Z 20004KT 120V280 9999 SCT080 25/07 Q1016 NOSIG,0,4,0,10000,0,0,0,
2026-04-26 17:00:00,METAR LEMD 261700Z 21004KT 150V260 9999 FEW080 26/07 Q1016 NOSIG,0,4,0,10000,0,0,0,
2026-04-26 16:30:00,METAR LEMD 261630Z 23003KT 9999 FEW080 26/06 Q1016 NOSIG,0,3,0,10000,0,0,0,
2026-04-26 16:00:00,METAR LEMD 261600Z 12004KT 040V190 9999 FEW080 26/07 Q1016 NOSIG,0,4,0,10000,0,0,0,
2026-04-26 15:30:00,METAR LEMD 261530Z 17005KT 120V220 9999 FEW075 26/08 Q1016 NOSIG,0,5,0,10000,0,0,0,
2026-04-26 15:00:00,METAR LEMD 261500Z 15004KT 9999 FEW075 25/08 Q1017 NOSIG,0,4,0,10000,0,0,0,
2026-04-26 14:30:00,METAR LEMD 261430Z 20007KT 150V300 9999 FEW075 25/08 Q1017 NOSIG,0,7,0,10000,0,0,0,
2026-04-26 14:00:00,METAR LEMD 261400Z 16007KT 110V200 9999 FEW075 25/08 Q1017 NOSIG,0,7,0,10000,0,0,0,
2026-04-26 13:30:00,METAR LEMD 261330Z 10003KT 9999 FEW065 SCT075 24/07 Q1018 NOSIG,0,3,0,10000,0,0,0,
2026-04-26 13:00:00,METAR LEMD 261300Z 09005KT 9999 FEW055 25/07 Q1018 NOSIG,0,5,0,10000,0,0,0,
2026-04-26 12:30:00,METAR LEMD 261230Z 12004KT 9999 FEW055 24/08 Q1018 NOSIG,0,4,0,10000,0,0,0,
2026-04-26 12:00:00,METAR LEMD 261200Z 15006KT 060V200 9999 FEW055 23/08 Q1019 NOSIG,0,6,0,10000,0,0,0,
2026-04-26 11:30:00,METAR LEMD 261130Z 17004KT 9999 FEW050 23/10 Q1019 NOSIG,0,4,0,10000,0,0,0,
2026-04-26 11:00:00,METAR LEMD 261100Z 22002KT CAVOK 22/12 Q1019 NOSIG,1,0,0,9999,0,0,0,
2026-04-26 10:30:00,METAR LEMD 261030Z 34002KT CAVOK 22/10 Q1019 NOSIG,1,0,0,9999,0,0,0,
2026-04-26 10:00:00,METAR LEMD 261000Z 09002KT CAVOK 21/10 Q1019 NOSIG,1,0,0,9999,0,0,0,
2026-04-26 09:30:00,METAR LEMD 260930Z 10004KT 030V170 CAVOK 20/11 Q1019 NOSIG,1,0,0,9999,0,0,0,
2026-04-26 09:00:00,METAR LEMD 260900Z 05004KT 310V120 CAVOK 20/12 Q1020 NOSIG,1,0,0,9999,0,0,0,
2026-04-26 08:30:00,METAR LEMD 260830Z 05005KT 350V110 CAVOK 18/12 Q1019 NOSIG,1,0,0,9999,0,0,0,
2026-04-26 08:00:00,METAR LEMD 260800Z 03004KT CAVOK 17/12 Q1019 NOSIG,1,0,0,9999,0,0,0,
2026-04-26 07:30:00,METAR LEMD 260730Z 36004KT 330V040 CAVOK 16/12 Q1019 NOSIG,1,0,0,9999,0,0,0,
2026-04-26 07:00:00,METAR LEMD 260700Z 36003KT 340V040 CAVOK 15/12 Q1019 NOSIG,1,0,0,9999,0,0,0,
2026-04-26 06:30:00,METAR LEMD 260630Z 35003KT CAVOK 13/13 Q1019 NOSIG,1,0,0,9999,0,0,0,
2026-04-26 06:00:00,METAR LEMD 260600Z VRB02KT CAVOK 12/12 Q1019 NOSIG,1,0,0,9999,0,0,0,
2026-04-26 05:30:00,METAR LEMD 260530Z VRB02KT CAVOK 12/12 Q1018 NOSIG,1,0,0,9999,0,0,0,
2026-04-26 05:00:00,METAR LEMD 260500Z 35003KT CAVOK 12/12 Q1018 NOSIG,1,0,0,9999,0,0,0,
2026-04-26 04:30:00,METAR LEMD 260430Z VRB02KT CAVOK 13/11 Q1018 NOSIG,1,0,0,9999,0,0,0,
2026-04-26 04:00:00,METAR LEMD 260400Z VRB01KT CAVOK 13/12 Q1018 NOSIG,1,0,0,9999,0,0,0,
2026-04-26 03:30:00,METAR LEMD 260330Z 00000KT CAVOK 12/12 Q1018 NOSIG,1,0,0,9999,0,0,0,
2026-04-26 03:00:00,METAR LEMD 260300Z VRB02KT CAVOK 13/13 Q1018 NOSIG,1,0,0,9999,0,0,0,
2026-04-26 02:30:00,METAR LEMD 260230Z VRB02KT CAVOK 13/13 Q1018 NOSIG,1,0,0,9999,0,0,0,
2026-04-26 02:00:00,METAR LEMD 260200Z VRB02KT CAVOK 14/12 Q1018 NOSIG,1,0,0,9999,0,0,0,
2026-04-26 01:30:00,METAR LEMD 260130Z 34003KT CAVOK 14/13 Q1019 NOSIG,1,0,0,9999,0,0,0,
2026-04-26 01:00:00,METAR LEMD 260100Z VRB02KT 9999 FEW075 14/13 Q1019 NOSIG,0,2,0,10000,0,0,0,
2026-04-26 00:30:00,METAR LEMD 260030Z 34006KT 9999 FEW075 14/13 Q1019 NOSIG,0,6,0,10000,0,0,0,
2026-04-26 00:00:00,METAR LEMD 260000Z 35005KT 9999 SCT060 BKN080 14/13 Q1020 NOSIG,0,5,0,10000,0,0,0,
2026-04-25 23:30:00,METAR LEMD 252330Z 35003KT 9999 SCT060 FEW065TCU 15/13 Q1020 NOSIG,0,3,0,10000,0,0,0,
2026-04-25 23:00:00,METAR LEMD 252300Z 02004KT 330V080 9999 SCT055 FEW065TCU 15/12 Q1020 NOSIG,0,4,0,10000,0,0,0,
2026-04-25 22:30:00,METAR LEMD 252230Z 36003KT 300V060 9999 FEW060TCU 15/12 Q1020 NOSIG,0,3,0,10000,0,0,0,
2026-04-25 22:00:00,METAR LEMD 252200Z 04003KT 320V080 9999 FEW075CB SCT080 15/12 Q1019 NOSIG,0,3,0,10000,0,0,0,
2026-04-25 21:30:00,METAR LEMD 252130Z VRB02KT 9999 VCTS FEW060CB SCT080 16/11 Q1019 BECMG NSW,0,2,0,10000,1,0,0,"TS,VC"
2026-04-25 21:00:00,METAR LEMD 252100Z 03003KT 340V110 9999 VCTS FEW050CB SCT080 16/12 Q1019 BECMG NSW,0,3,0,10000,1,0,0,"TS,VC"
2026-04-25 20:30:00,METAR LEMD 252030Z 36006KT 310V040 9999 VCTS FEW060CB 17/10 Q1018 TEMPO TSRA,0,6,0,10000,1,0,0,"RA,TS,VC"
2026-04-25 20:00:00,METAR LEMD 252000Z 34007KT 300V030 9999 TS FEW070CB 17/12 Q1018 TEMPO TSRA,0,7,0,10000,1,0,0,"RA,TS"
2026-04-25 19:30:00,METAR LEMD 251930Z 05006KT 340V110 9999 TS FEW050 BKN070CB BKN079 17/13 Q1018 TEMPO TSRA,0,6,0,10000,1,0,0,"RA,TS"
2026-04-25 19:00:00,METAR LEMD 251900Z 04005KT 340V110 9999 TS SCT063 BKN074CB 18/13 Q1017 TEMPO TSRA,0,5,0,10000,1,0,0,"RA,TS"
2026-04-25 18:30:00,METAR LEMD 251830Z 36009KT 9999 VCSH BKN072CB 19/11 Q1016 NOSIG,0,9,0,10000,0,0,0,"SH,VC"
2026-04-25 18:00:00,METAR LEMD 251800Z 35009KT 310V070 9999 BKN072 21/11 Q1016 NOSIG,0,9,0,10000,0,0,0,
2026-04-25 17:30:00,METAR LEMD 251730Z 23006KT 9999 VCTS VCSH SCT074CB 24/08 Q1015 NOSIG,0,6,0,10000,1,0,0,"SH,TS,VC"
2026-04-25 17:00:00,METAR LEMD 251700Z 19007KT 160V220 9999 VCTS VCSH BKN074CB 24/08 Q1015 NOSIG,0,7,0,10000,1,0,0,"SH,TS,VC"
2026-04-25 16:30:00,METAR LEMD 251630Z 19008KT 160V220 9999 FEW068 SCT076 24/08 Q1015 NOSIG,0,8,0,10000,0,0,0,
2026-04-25 16:00:00,METAR LEMD 251600Z 20003KT 9999 FEW064 SCT071 25/08 Q1015 NOSIG,0,3,0,10000,0,0,0,
2026-04-25 15:30:00,METAR LEMD 251530Z 21006KT 170V250 9999 SCT060 25/10 Q1015 NOSIG,0,6,0,10000,0,0,0,
2026-04-25 15:00:00,METAR LEMD 251500Z 20005KT 9999 FEW055 24/10 Q1015 NOSIG,0,5,0,10000,0,0,0,
2026-04-25 14:30:00,METAR LEMD 251430Z 18005KT 9999 FEW055 24/11 Q1016 NOSIG,0,5,0,10000,0,0,0,
2026-04-25 14:00:00,METAR LEMD 251400Z 15003KT 9999 FEW050 24/12 Q1016 NOSIG,0,3,0,10000,0,0,0,
2026-04-25 13:30:00,METAR LEMD 251330Z 06003KT 9999 FEW050 24/11 Q1016 NOSIG,0,3,0,10000,0,0,0,
2026-04-25 13:00:00,METAR LEMD 251300Z 16004KT 070V210 9999 FEW032 22/11 Q1017 NOSIG,0,4,0,10000,0,0,0,
2026-04-25 12:30:00,METAR LEMD 251230Z 17004KT 110V220 9999 FEW032 21/11 Q1017 NOSIG,0,4,0,10000,0,0,0,
2026-04-25 12:00:00,METAR LEMD 251200Z 14005KT 100V210 9999 FEW032 21/12 Q1017 NOSIG,0,5,0,10000,0,0,0,
2026-04-25 11:30:00,METAR LEMD 251130Z 25004KT 130V290 9999 FEW032 21/11 Q1017 NOSIG,0,4,0,10000,0,0,0,
2026-04-25 11:00:00,METAR LEMD 251100Z 12005KT 030V190 9999 FEW032 20/12 Q1018 NOSIG,0,5,0,10000,0,0,0,
2026-04-25 10:30:00,METAR LEMD 251030Z 13003KT 9999 SCT030 20/12 Q1018 NOSIG,0,3,0,10000,0,0,0,
2026-04-25 10:00:00,METAR LEMD 251000Z 36002KT 9999 FEW025 SCT080 19/12 Q1018 NOSIG,0,2,0,10000,0,0,0,
2026-04-25 09:30:00,METAR LEMD 250930Z 08004KT 030V170 9999 FEW020 SCT080 18/11 Q1018 NOSIG,0,4,0,10000,0,0,0,
2026-04-25 09:00:00,METAR LEMD 250900Z 01004KT 330V090 9999 FEW020 SCT080 18/11 Q1018 NOSIG,0,4,0,10000,0,0,0,
2026-04-25 08:30:00,METAR LEMD 250830Z 04003KT 310V110 9999 FEW023 SCT080 17/11 Q1018 NOSIG,0,3,0,10000,0,0,0,
2026-04-25 08:00:00,METAR LEMD 250800Z 00000KT 9999 SCT023 SCT080 17/12 Q1019 NOSIG,0,0,0,10000,0,0,0,
2026-04-25 07:30:00,METAR LEMD 250730Z 00000KT 9999 FEW024 SCT080 15/12 Q1018 NOSIG,0,0,0,10000,0,0,0,
2026-04-25 07:00:00,METAR LEMD 250700Z VRB01KT 9999 FEW060 SCT080 14/13 Q1018 NOSIG,0,1,0,10000,0,0,0,
2026-04-25 06:30:00,METAR LEMD 250630Z VRB02KT 9999 FEW070 SCT080 14/13 Q1018 NOSIG,0,2,0,10000,0,0,0,
2026-04-25 06:00:00,METAR LEMD 250600Z 35004KT 9999 FEW075 BKN080 14/14 Q1018 NOSIG,0,4,0,10000,0,0,0,
2026-04-25 05:30:00,METAR LEMD 250530Z 36001KT 9999 FEW075 BKN080 14/14 Q1018 NOSIG,0,1,0,10000,0,0,0,
2026-04-25 05:00:00,METAR LEMD 250500Z 12001KT 9999 FEW045 SCT070 BKN080 14/13 Q1018 NOSIG,0,1,0,10000,0,0,0,
2026-04-25 04:30:00,METAR LEMD 250430Z VRB01KT 9999 FEW045 SCT070 14/11 Q1017 NOSIG,0,1,0,10000,0,0,0,
2026-04-25 04:00:00,METAR LEMD 250400Z 13005KT 090V160 9999 FEW045 14/11 Q1017 NOSIG,0,5,0,10000,0,0,0,
2026-04-25 03:30:00,METAR LEMD 250330Z 13002KT CAVOK 14/11 Q1018 NOSIG,1,0,0,9999,0,0,0,
2026-04-25 03:00:00,METAR LEMD 250300Z 07002KT CAVOK 14/11 Q1018 NOSIG,1,0,0,9999,0,0,0,
2026-04-25 02:30:00,METAR LEMD 250230Z 04002KT CAVOK 15/11 Q1018 NOSIG,1,0,0,9999,0,0,0,
2026-04-25 02:00:00,METAR LEMD 250200Z VRB01KT CAVOK 15/10 Q1018 NOSIG,1,0,0,9999,0,0,0,
2026-04-25 01:30:00,METAR LEMD 250130Z VRB01KT CAVOK 15/11 Q1018 NOSIG,1,0,0,9999,0,0,0,
2026-04-25 01:00:00,METAR LEMD 250100Z VRB02KT 9999 FEW048 15/10 Q1018 NOSIG,0,2,0,10000,0,0,0,
2026-04-25 00:30:00,METAR LEMD 250030Z 13003KT 080V170 9999 FEW048 15/10 Q1018 NOSIG,0,3,0,10000,0,0,0,
2026-04-25 00:00:00,METAR LEMD 250000Z VRB02KT 9999 FEW047 16/11 Q1018 NOSIG,0,2,0,10000,0,0,0,
2026-04-24 23:30:00,METAR LEMD 242330Z VRB02KT 9999 SCT048 16/11 Q1018 NOSIG,0,2,0,10000,0,0,0,
2026-04-24 23:00:00,METAR LEMD 242300Z 06004KT 010V120 9999 SCT046 BKN056 17/11 Q1018 NOSIG,0,4,0,10000,0,0,0,
2026-04-24 22:30:00,METAR LEMD 242230Z VRB02KT 9999 SCT048 16/11 Q1018 NOSIG,0,2,0,10000,0,0,0,
2026-04-24 22:00:00,METAR LEMD 242200Z 13003KT 080V200 CAVOK 17/11 Q1017 NOSIG,1,0,0,9999,0,0,0,
2026-04-24 21:30:00,METAR LEMD 242130Z 14004KT 100V170 CAVOK 16/12 Q1017 NOSIG,1,0,0,9999,0,0,0,
2026-04-24 21:00:00,METAR LEMD 242100Z 04001KT CAVOK 16/12 Q1017 NOSIG,1,0,0,9999,0,0,0,
2026-04-24 20:30:00,METAR LEMD 242030Z 06002KT CAVOK 18/11 Q1017 NOSIG,1,0,0,9999,0,0,0,
2026-04-24 20:00:00,METAR LEMD 242000Z 07003KT 040V100 CAVOK 19/12 Q1016 NOSIG,1,0,0,9999,0,0,0,
2026-04-24 19:30:00,METAR LEMD 241930Z 06002KT 9999 FEW035 19/12 Q1016 NOSIG,0,2,0,10000,0,0,0,
2026-04-24 19:00:00,METAR LEMD 241900Z 02002KT 9999 FEW035 20/12 Q1016 NOSIG,0,2,0,10000,0,0,0,
2026-04-24 18:30:00,METAR LEMD 241830Z VRB02KT 9999 FEW040 21/11 Q1016 NOSIG,0,2,0,10000,0,0,0,
2026-04-24 18:00:00,METAR LEMD 241800Z VRB02KT 9999 FEW040 21/11 Q1015 NOSIG,0,2,0,10000,0,0,0,
2026-04-24 17:30:00,METAR LEMD 241730Z VRB01KT 9999 FEW040 22/11 Q1015 NOSIG,0,1,0,10000,0,0,0,
2026-04-24 17:00:00,METAR LEMD 241700Z VRB02KT 9999 FEW040 22/11 Q1016 NOSIG,0,2,0,10000,0,0,0,
2026-04-24 16:30:00,METAR LEMD 241630Z VRB02KT 9999 FEW040 22/11 Q1016 NOSIG,0,2,0,10000,0,0,0,
2026-04-24 16:00:00,METAR LEMD 241600Z 36003KT 9999 SCT040 22/11 Q1016 NOSIG,0,3,0,10000,0,0,0,
2026-04-24 15:30:00,METAR LEMD 241530Z VRB02KT 9999 FEW040 22/12 Q1016 NOSIG,0,2,0,10000,0,0,0,
2026-04-24 15:00:00,METAR LEMD 241500Z 01004KT 9999 FEW040 21/11 Q1016 NOSIG,0,4,0,10000,0,0,0,
2026-04-24 14:30:00,METAR LEMD 241430Z 20003KT 9999 SCT037 22/12 Q1017 NOSIG,0,3,0,10000,0,0,0,
2026-04-24 14:00:00,METAR LEMD 241400Z 12003KT 9999 SCT035 21/11 Q1017 NOSIG,0,3,0,10000,0,0,0,
2026-04-24 13:30:00,METAR LEMD 241330Z 02002KT 9999 SCT030 19/11 Q1017 NOSIG,0,2,0,10000,0,0,0,
2026-04-24 13:00:00,METAR LEMD 241300Z 11004KT 9999 FEW045 19/11 Q1018 NOSIG,0,4,0,10000,0,0,0,
2026-04-24 12:30:00,METAR LEMD 241230Z 05005KT 340V130 9999 SCT044 SCT050 19/11 Q1018 NOSIG,0,5,0,10000,0,0,0,
2026-04-24 12:00:00,METAR LEMD 241200Z 11003KT 020V190 9999 BKN040 BKN046 18/10 Q1018 NOSIG,0,3,0,10000,0,0,0,
2026-04-24 11:30:00,METAR LEMD 241130Z 04001KT 9999 BKN040 BKN050 18/10 Q1019 NOSIG,0,1,0,10000,0,0,0,
2026-04-24 11:00:00,METAR LEMD 241100Z 18002KT 9999 FEW028 OVC040 16/09 Q1019 NOSIG,0,2,0,10000,0,0,0,
2026-04-24 10:30:00,METAR LEMD 241030Z 13003KT 070V200 9999 FEW029 BKN039 16/09 Q1019 NOSIG,0,3,0,10000,0,0,0,
2026-04-24 10:00:00,METAR LEMD 241000Z 15004KT 110V200 9999 SCT028 BKN039 16/10 Q1019 NOSIG,0,4,0,10000,0,0,0,
2026-04-24 09:30:00,METAR LEMD 240930Z 13004KT 070V200 9999 SCT026 BKN036 16/10 Q1019 NOSIG,0,4,0,10000,0,0,0,
2026-04-24 09:00:00,METAR LEMD 240900Z 16004KT 100V200 9999 FEW025 BKN037 15/10 Q1018 NOSIG,0,4,0,10000,0,0,0,
2026-04-24 08:30:00,METAR LEMD 240830Z 11002KT 9999 BKN038 15/09 Q1018 NOSIG,0,2,0,10000,0,0,0,
2026-04-24 08:00:00,METAR LEMD 240800Z VRB02KT 9999 BKN038 15/11 Q1018 NOSIG,0,2,0,10000,0,0,0,
2026-04-24 07:30:00,METAR LEMD 240730Z VRB01KT 9999 BKN035 14/13 Q1018 NOSIG,0,1,0,10000,0,0,0,
2026-04-24 07:00:00,METAR LEMD 240700Z 36002KT 9999 BKN035 13/13 Q1018 NOSIG,0,2,0,10000,0,0,0,
2026-04-24 06:30:00,METAR LEMD 240630Z VRB02KT 9999 SCT036 BKN070 12/12 Q1017 NOSIG,0,2,0,10000,0,0,0,
2026-04-24 06:00:00,METAR LEMD 240600Z 00000KT 9999 BKN037 BKN070 12/12 Q1017 NOSIG,0,0,0,10000,0,0,0,
2026-04-24 05:30:00,METAR LEMD 240530Z 00000KT 9999 BKN037 12/12 Q1017 NOSIG,0,0,0,10000,0,0,0,
2026-04-24 05:00:00,METAR LEMD 240500Z VRB01KT 9999 VCTS SCT038 FEW050CB BKN075 12/12 Q1017 NOSIG,0,1,0,10000,1,0,0,"TS,VC"
2026-04-24 04:30:00,METAR LEMD 240430Z VRB02KT 9999 SCT038 SCT050CB BKN075 12/12 Q1017 NOSIG,0,2,0,10000,0,0,0,
2026-04-24 04:00:00,METAR LEMD 240400Z VRB01KT 9000 -RA FEW037 BKN050CB BKN080 12/12 Q1017 RESHRA BECMG NSW,0,1,0,9000,0,0,0,"-RA,RA"
2026-04-24 03:47:00,SPECI LEMD 240347Z VRB02KT 9000 SHRA VCTS FEW036 BKN050CB BKN080 12/12 Q1017 NOSIG,0,2,0,9000,1,0,0,"RA,SH,TS,VC"
2026-04-24 03:30:00,METAR LEMD 240330Z VRB01KT 9000 -SHRA VCTS SCT041 BKN060CB BKN076 13/13 Q1017 RETSRA NOSIG,0,1,0,9000,1,0,0,"RA,TS,VC"
2026-04-24 03:22:00,SPECI LEMD 240322Z 21004KT 190V250 9999 -SHRA VCTS SCT043 BKN060CB BKN080 13/11 Q1017 RETSRA NOSIG,0,4,0,10000,1,0,0,"RA,TS,VC"
2026-04-24 03:09:00,SPECI LEMD 240309Z 19001KT 9000 TSRA FEW040 BKN060CB BKN080 13/13 Q1017 NOSIG,0,1,0,9000,1,0,0,"RA,TS"
2026-04-24 03:00:00,METAR LEMD 240300Z 27002KT 9999 -SHRA VCTS FEW040 BKN060CB BKN079 13/13 Q1016 RETSRA NOSIG,0,2,0,10000,1,0,0,"RA,TS,VC"
2026-04-24 02:30:00,METAR LEMD 240230Z 11002KT 9999 3000SW TSRA FEW040 BKN050CB BKN070 13/12 Q1017 NOSIG,0,2,0,10000,1,0,0,"RA,TS"
2026-04-24 02:17:00,SPECI LEMD 240217Z 19004KT 9000 -TSRA FEW030 BKN050CB 13/10 Q1017 RERA NOSIG,0,4,0,9000,1,0,0,RA
2026-04-24 02:14:00,SPECI LEMD 240214Z 19003KT 130V220 9000 -SHRA VCTS FEW030 BKN050CB 13/12 Q1017 RETSRA NOSIG,0,3,0,9000,1,0,0,"RA,TS,VC"
2026-04-24 02:02:00,SPECI LEMD 240202Z 14004KT 080V170 9000 3000W +TSRA FEW030 BKN050CB 13/11 Q1017 NOSIG,0,4,0,9000,1,0,0,RA
2026-04-24 02:00:00,METAR LEMD 240200Z 14005KT 080V170 9000 4000SE TSRA FEW030 BKN050CB 13/11 Q1017 NOSIG,0,5,0,9000,1,0,0,"RA,TS"
2026-04-24 01:44:00,SPECI LEMD 240144Z 14008KT 9999 TSRA SCT050CB SCT070 14/10 Q1017 NOSIG,0,8,0,10000,1,0,0,"RA,TS"
2026-04-24 01:38:00,SPECI LEMD 240138Z 14006KT 9999 TS SCT055CB 15/09 Q1017 TEMPO 3000 TSRA,0,6,0,10000,1,0,0,"RA,TS"
2026-04-24 01:30:00,METAR LEMD 240130Z 16006KT 130V190 9999 VCTS SCT055CB 15/08 Q1017 TEMPO 3000 TSRA,0,6,0,10000,1,0,0,"RA,TS,VC"
2026-04-24 01:00:00,METAR LEMD 240100Z 12004KT 060V150 9999 SCT050CB 16/08 Q1016 TEMPO 3000 TSRA,0,4,0,10000,1,0,0,"RA,TS"
2026-04-24 00:30:00,METAR LEMD 240030Z 12003KT 080V160 9999 SCT050CB 15/10 Q1017 TEMPO 3000 TSRA,0,3,0,10000,1,0,0,"RA,TS"
2026-04-24 00:00:00,METAR LEMD 240000Z 16003KT 110V190 9999 -RA SCT050CB 15/11 Q1017 TEMPO 3000 TSRA,0,3,0,10000,1,0,0,"-RA,RA,TS"
2026-04-23 23:30:00,METAR LEMD 232330Z 20009KT 150V220 9999 -RA FEW046CB 17/09 Q1017 TEMPO 3000 TSRA,0,9,0,10000,1,0,0,"-RA,RA,TS"
2026-04-23 23:00:00,METAR LEMD 232300Z 20005KT 9999 -SHRA FEW050CB SCT080TCU 17/10 Q1017 TEMPO 3000 TSRA,0,5,0,10000,1,0,0,"RA,TS"
2026-04-23 22:30:00,METAR LEMD 232230Z 16011KT 9999 -SHRA FEW055CB SCT100TCU 17/10 Q1016 TEMPO 3000 TSRA,0,11,0,10000,1,0,0,"RA,TS"
2026-04-23 22:00:00,METAR LEMD 232200Z 13011KT 070V160 9999 -RA SCT100TCU 18/09 Q1015 NOSIG,0,11,0,10000,0,0,0,-RA
2026-04-23 21:30:00,METAR LEMD 232130Z 13012KT 9999 SCT100TCU 19/09 Q1015 NOSIG,0,12,0,10000,0,0,0,
2026-04-23 21:00:00,METAR LEMD 232100Z 14006KT 9999 -RA FEW035CB 18/10 Q1015 NOSIG,0,6,0,10000,0,0,0,-RA
2026-04-23 20:30:00,METAR LEMD 232030Z 14009KT CAVOK 20/09 Q1014 NOSIG,1,0,0,9999,0,0,0,
2026-04-23 20:00:00,METAR LEMD 232000Z 15013KT 120V180 CAVOK 20/09 Q1014 NOSIG,1,0,0,9999,0,0,0,
2026-04-23 19:30:00,METAR LEMD 231930Z 14012KT 110V170 CAVOK 21/09 Q1013 NOSIG,1,0,0,9999,0,0,0,
2026-04-23 19:00:00,METAR LEMD 231900Z 12007KT 080V160 CAVOK 23/09 Q1013 NOSIG,1,0,0,9999,0,0,0,
2026-04-23 18:30:00,METAR LEMD 231830Z 13007KT 090V160 CAVOK 24/09 Q1012 NOSIG,1,0,0,9999,0,0,0,
2026-04-23 18:00:00,METAR LEMD 231800Z 13003KT 080V160 CAVOK 25/09 Q1013 NOSIG,1,0,0,9999,0,0,0,
2026-04-23 17:30:00,METAR LEMD 231730Z 14005KT 110V240 CAVOK 25/08 Q1013 NOSIG,1,0,0,9999,0,0,0,
2026-04-23 17:00:00,METAR LEMD 231700Z 16005KT 100V210 CAVOK 26/09 Q1013 NOSIG,1,0,0,9999,0,0,0,
2026-04-23 16:30:00,METAR LEMD 231630Z 17006KT 080V210 CAVOK 27/09 Q1013 NOSIG,1,0,0,9999,0,0,0,
2026-04-23 16:00:00,METAR LEMD 231600Z 11002KT CAVOK 27/08 Q1013 NOSIG,1,0,0,9999,0,0,0,
2026-04-23 15:30:00,METAR LEMD 231530Z 14003KT CAVOK 26/08 Q1013 NOSIG,1,0,0,9999,0,0,0,
2026-04-23 15:00:00,METAR LEMD 231500Z 14006KT 100V170 CAVOK 26/10 Q1013 NOSIG,1,0,0,9999,0,0,0,
2026-04-23 14:30:00,METAR LEMD 231430Z 17008KT 120V250 CAVOK 26/09 Q1014 NOSIG,1,0,0,9999,0,0,0,
2026-04-23 14:00:00,METAR LEMD 231400Z 14004KT CAVOK 26/11 Q1014 NOSIG,1,0,0,9999,0,0,0,
2026-04-23 13:30:00,METAR LEMD 231330Z 12004KT CAVOK 25/12 Q1015 NOSIG,1,0,0,9999,0,0,0,
2026-04-23 13:00:00,METAR LEMD 231300Z 12004KT CAVOK 24/11 Q1015 NOSIG,1,0,0,9999,0,0,0,
2026-04-23 12:30:00,METAR LEMD 231230Z 09002KT CAVOK 24/11 Q1015 NOSIG,1,0,0,9999,0,0,0,
2026-04-23 12:00:00,METAR LEMD 231200Z 17003KT CAVOK 23/10 Q1016 NOSIG,1,0,0,9999,0,0,0,
2026-04-23 11:30:00,METAR LEMD 231130Z 17005KT 130V230 CAVOK 22/10 Q1016 NOSIG,1,0,0,9999,0,0,0,
2026-04-23 11:00:00,METAR LEMD 231100Z 14002KT CAVOK 22/09 Q1016 NOSIG,1,0,0,9999,0,0,0,
2026-04-23 10:30:00,METAR LEMD 231030Z 16003KT 090V230 CAVOK 21/08 Q1017 NOSIG,1,0,0,9999,0,0,0,
2026-04-23 10:00:00,METAR LEMD 231000Z VRB03KT CAVOK 19/08 Q1017 NOSIG,1,0,0,9999,0,0,0,
2026-04-23 09:30:00,METAR LEMD 230930Z 20003KT 140V250 CAVOK 19/08 Q1017 NOSIG,1,0,0,9999,0,0,0,
2026-04-23 09:00:00,METAR LEMD 230900Z 33001KT CAVOK 18/08 Q1017 NOSIG,1,0,0,9999,0,0,0,
2026-04-23 08:30:00,METAR LEMD 230830Z VRB02KT CAVOK 16/07 Q1017 NOSIG,1,0,0,9999,0,0,0,
2026-04-23 08:00:00,METAR LEMD 230800Z 30002KT CAVOK 15/07 Q1017 NOSIG,1,0,0,9999,0,0,0,
2026-04-23 07:30:00,METAR LEMD 230730Z VRB01KT CAVOK 14/07 Q1016 NOSIG,1,0,0,9999,0,0,0,
2026-04-23 07:00:00,METAR LEMD 230700Z VRB02KT CAVOK 12/06 Q1016 NOSIG,1,0,0,9999,0,0,0,
2026-04-23 06:30:00,METAR LEMD 230630Z 36003KT 330V060 CAVOK 11/06 Q1016 NOSIG,1,0,0,9999,0,0,0,
2026-04-23 06:00:00,METAR LEMD 230600Z 35003KT CAVOK 10/06 Q1016 NOSIG,1,0,0,9999,0,0,0,
2026-04-23 05:30:00,METAR LEMD 230530Z 36003KT 330V040 CAVOK 10/06 Q1015 NOSIG,1,0,0,9999,0,0,0,
2026-04-23 05:00:00,METAR LEMD 230500Z VRB02KT CAVOK 10/06 Q1015 NOSIG,1,0,0,9999,0,0,0,
2026-04-23 04:30:00,METAR LEMD 230430Z 34002KT CAVOK 10/06 Q1015 NOSIG,1,0,0,9999,0,0,0,
2026-04-23 04:00:00,METAR LEMD 230400Z 31003KT CAVOK 09/06 Q1015 NOSIG,1,0,0,9999,0,0,0,
2026-04-23 03:30:00,METAR LEMD 230330Z VRB02KT CAVOK 10/06 Q1015 NOSIG,1,0,0,9999,0,0,0,
2026-04-23 03:00:00,METAR LEMD 230300Z 34005KT CAVOK 11/06 Q1015 NOSIG,1,0,0,9999,0,0,0,
2026-04-23 02:30:00,METAR LEMD 230230Z 34005KT CAVOK 11/06 Q1015 NOSIG,1,0,0,9999,0,0,0,
2026-04-23 02:00:00,METAR LEMD 230200Z 34006KT CAVOK 11/06 Q1015 NOSIG,1,0,0,9999,0,0,0,
2026-04-23 01:30:00,METAR LEMD 230130Z 34005KT CAVOK 11/06 Q1015 NOSIG,1,0,0,9999,0,0,0,
2026-04-23 01:00:00,METAR LEMD 230100Z 33003KT CAVOK 12/06 Q1015 NOSIG,1,0,0,9999,0,0,0,
2026-04-23 00:30:00,METAR LEMD 230030Z 34003KT 310V010 CAVOK 12/06 Q1015 NOSIG,1,0,0,9999,0,0,0,
2026-04-23 00:00:00,METAR LEMD 230000Z VRB03KT CAVOK 13/06 Q1015 NOSIG,1,0,0,9999,0,0,0,
2026-04-22 23:30:00,METAR LEMD 222330Z 35004KT CAVOK 13/06 Q1015 NOSIG,1,0,0,9999,0,0,0,
2026-04-22 23:00:00,METAR LEMD 222300Z 36004KT CAVOK 13/06 Q1015 NOSIG,1,0,0,9999,0,0,0,
2026-04-22 22:30:00,METAR LEMD 222230Z 36003KT 330V040 CAVOK 15/06 Q1015 NOSIG,1,0,0,9999,0,0,0,
2026-04-22 22:00:00,METAR LEMD 222200Z VRB01KT CAVOK 15/05 Q1015 NOSIG,1,0,0,9999,0,0,0,
2026-04-22 21:30:00,METAR LEMD 222130Z 36004KT 340V040 CAVOK 17/05 Q1015 NOSIG,1,0,0,9999,0,0,0,
2026-04-22 21:00:00,METAR LEMD 222100Z 36003KT 270V040 CAVOK 18/06 Q1014 NOSIG,1,0,0,9999,0,0,0,
2026-04-22 20:30:00,METAR LEMD 222030Z VRB02KT CAVOK 18/06 Q1014 NOSIG,1,0,0,9999,0,0,0,
2026-04-22 20:00:00,METAR LEMD 222000Z 30006KT CAVOK 20/05 Q1014 NOSIG,1,0,0,9999,0,0,0,
2026-04-22 19:30:00,METAR LEMD 221930Z 28005KT CAVOK 21/05 Q1014 NOSIG,1,0,0,9999,0,0,0,
2026-04-22 19:00:00,METAR LEMD 221900Z 28004KT CAVOK 22/04 Q1013 NOSIG,1,0,0,9999,0,0,0,
2026-04-22 18:30:00,METAR LEMD 221830Z 25005KT 200V340 CAVOK 23/05 Q1013 NOSIG,1,0,0,9999,0,0,0,
2026-04-22 18:00:00,METAR LEMD 221800Z 22006KT CAVOK 23/05 Q1013 NOSIG,1,0,0,9999,0,0,0,
2026-04-22 17:30:00,METAR LEMD 221730Z 23007KT 190V260 CAVOK 24/04 Q1013 NOSIG,1,0,0,9999,0,0,0,
2026-04-22 17:00:00,METAR LEMD 221700Z 19007KT 140V290 CAVOK 24/05 Q1013 NOSIG,1,0,0,9999,0,0,0,
2026-04-22 16:30:00,METAR LEMD 221630Z 24008KT 190V280 CAVOK 24/05 Q1013 NOSIG,1,0,0,9999,0,0,0,
2026-04-22 16:00:00,METAR LEMD 221600Z 19006KT 130V250 CAVOK 24/05 Q1013 NOSIG,1,0,0,9999,0,0,0,
2026-04-22 15:30:00,METAR LEMD 221530Z 18007KT 120V220 CAVOK 23/05 Q1014 NOSIG,1,0,0,9999,0,0,0,
2026-04-22 15:00:00,METAR LEMD 221500Z 18008KT CAVOK 23/06 Q1014 NOSIG,1,0,0,9999,0,0,0,
2026-04-22 14:30:00,METAR LEMD 221430Z 20008G20KT 120V250 CAVOK 23/05 Q1014 NOSIG,1,0,0,9999,0,0,0,
2026-04-22 14:00:00,METAR LEMD 221400Z 22006G17KT CAVOK 23/06 Q1014 NOSIG,1,0,0,9999,0,0,0,
2026-04-22 13:30:00,METAR LEMD 221330Z 25010G20KT 220V280 CAVOK 23/07 Q1014 NOSIG,1,0,0,9999,0,0,0,
2026-04-22 13:00:00,METAR LEMD 221300Z VRB06KT CAVOK 22/06 Q1015 NOSIG,1,0,0,9999,0,0,0,
2026-04-22 12:30:00,METAR LEMD 221230Z 23007KT 160V280 9999 FEW048 21/09 Q1015 NOSIG,0,7,0,10000,0,0,0,
2026-04-22 12:00:00,METAR LEMD 221200Z 21009G20KT 9999 FEW048 21/08 Q1015 NOSIG,0,9,1,10000,0,0,0,
2026-04-22 11:30:00,METAR LEMD 221130Z 21008G22KT 160V250 9999 FEW045 20/07 Q1015 NOSIG,0,8,1,10000,0,0,0,
2026-04-22 11:00:00,METAR LEMD 221100Z 19009G20KT 130V240 9999 FEW040 20/08 Q1015 NOSIG,0,9,1,10000,0,0,0,
2026-04-22 10:30:00,METAR LEMD 221030Z 21007KT 150V290 9999 FEW040 19/08 Q1015 NOSIG,0,7,0,10000,0,0,0,
2026-04-22 10:00:00,METAR LEMD 221000Z 21007KT 150V290 9999 SCT030 19/08 Q1015 NOSIG,0,7,0,10000,0,0,0,
2026-04-22 09:30:00,METAR LEMD 220930Z 21007KT 160V240 9999 FEW030 18/09 Q1015 NOSIG,0,7,0,10000,0,0,0,
2026-04-22 09:00:00,METAR LEMD 220900Z 20008KT 160V250 9999 FEW030 17/08 Q1015 NOSIG,0,8,0,10000,0,0,0,
2026-04-22 08:30:00,METAR LEMD 220830Z 20007KT 160V240 9999 FEW030 17/08 Q1014 NOSIG,0,7,0,10000,0,0,0,
2026-04-22 08:00:00,METAR LEMD 220800Z 18005KT 130V220 CAVOK 16/10 Q1014 NOSIG,1,0,0,9999,0,0,0,
2026-04-22 07:30:00,METAR LEMD 220730Z 18005KT 130V220 CAVOK 16/10 Q1014 NOSIG,1,0,0,9999,0,0,0,
2026-04-22 07:00:00,METAR LEMD 220700Z 17005KT 120V220 CAVOK 15/10 Q1014 NOSIG,1,0,0,9999,0,0,0,
2026-04-22 06:30:00,METAR LEMD 220630Z 18005KT 140V200 CAVOK 15/10 Q1013 NOSIG,1,0,0,9999,0,0,0,
2026-04-22 06:00:00,METAR LEMD 220600Z 20005KT 170V260 CAVOK 15/09 Q1013 NOSIG,1,0,0,9999,0,0,0,
2026-04-22 05:30:00,METAR LEMD 220530Z 22004KT 180V240 CAVOK 15/09 Q1012 NOSIG,1,0,0,9999,0,0,0,
2026-04-22 05:00:00,METAR LEMD 220500Z 25004KT 210V280 CAVOK 15/09 Q1012 NOSIG,1,0,0,9999,0,0,0,
2026-04-22 04:30:00,METAR LEMD 220430Z 26005KT 220V300 CAVOK 16/08 Q1012 NOSIG,1,0,0,9999,0,0,0,
2026-04-22 04:00:00,METAR LEMD 220400Z 25007KT 220V290 CAVOK 16/08 Q1011 NOSIG,1,0,0,9999,0,0,0,
2026-04-22 03:30:00,METAR LEMD 220330Z 24005KT 200V260 CAVOK 16/07 Q1011 NOSIG,1,0,0,9999,0,0,0,
2026-04-22 03:00:00,METAR LEMD 220300Z 16003KT 130V200 CAVOK 14/08 Q1011 NOSIG,1,0,0,9999,0,0,0,
2026-04-22 02:30:00,METAR LEMD 220230Z 00000KT CAVOK 13/08 Q1010 NOSIG,1,0,0,9999,0,0,0,
2026-04-22 02:00:00,METAR LEMD 220200Z VRB02KT CAVOK 13/08 Q1010 NOSIG,1,0,0,9999,0,0,0,
2026-04-22 01:30:00,METAR LEMD 220130Z 36003KT CAVOK 13/08 Q1010 NOSIG,1,0,0,9999,0,0,0,
2026-04-22 01:00:00,METAR LEMD 220100Z 01005KT CAVOK 13/09 Q1010 NOSIG,1,0,0,9999,0,0,0,
2026-04-22 00:30:00,METAR LEMD 220030Z 34003KT 310V010 CAVOK 14/09 Q1010 NOSIG,1,0,0,9999,0,0,0,
2026-04-22 00:00:00,METAR LEMD 220000Z 35003KT CAVOK 14/09 Q1009 NOSIG,1,0,0,9999,0,0,0,
2026-04-21 23:30:00,METAR LEMD 212330Z 33004KT CAVOK 13/09 Q1010 NOSIG,1,0,0,9999,0,0,0,
2026-04-21 23:00:00,METAR LEMD 212300Z 36005KT CAVOK 14/09 Q1010 NOSIG,1,0,0,9999,0,0,0,
2026-04-21 22:30:00,METAR LEMD 212230Z 36001KT CAVOK 16/08 Q1010 NOSIG,1,0,0,9999,0,0,0,
2026-04-21 22:00:00,METAR LEMD 212200Z VRB02KT CAVOK 16/09 Q1010 NOSIG,1,0,0,9999,0,0,0,
2026-04-21 21:30:00,METAR LEMD 212130Z VRB02KT CAVOK 16/09 Q1010 NOSIG,1,0,0,9999,0,0,0,
2026-04-21 21:00:00,METAR LEMD 212100Z VRB02KT CAVOK 17/09 Q1010 NOSIG,1,0,0,9999,0,0,0,
2026-04-21 20:30:00,METAR LEMD 212030Z VRB02KT CAVOK 18/08 Q1010 NOSIG,1,0,0,9999,0,0,0,
2026-04-21 20:00:00,METAR LEMD 212000Z 36002KT CAVOK 18/09 Q1010 NOSIG,1,0,0,9999,0,0,0,
2026-04-21 19:30:00,METAR LEMD 211930Z VRB02KT CAVOK 19/09 Q1009 NOSIG,1,0,0,9999,0,0,0,
2026-04-21 19:00:00,METAR LEMD 211900Z 15005KT 100V190 CAVOK 20/09 Q1009 NOSIG,1,0,0,9999,0,0,0,
2026-04-21 18:30:00,METAR LEMD 211830Z 06003KT 020V110 CAVOK 20/09 Q1008 NOSIG,1,0,0,9999,0,0,0,
2026-04-21 18:00:00,METAR LEMD 211800Z 33005KT CAVOK 20/10 Q1009 NOSIG,1,0,0,9999,0,0,0,
2026-04-21 17:30:00,METAR LEMD 211730Z 29009KT 9999 FEW080CB 21/09 Q1009 NOSIG,0,9,0,10000,0,0,0,
2026-04-21 17:00:00,METAR LEMD 211700Z 25016KT 9999 -SHRA FEW070CB 20/12 Q1010 NOSIG,0,16,0,10000,0,0,0,RA
2026-04-21 16:30:00,METAR LEMD 211630Z COR 23031KT 9999 VCTS SCT070CB 22/07 Q1009 NOSIG,0,31,0,10000,1,0,0,"TS,VC"
2026-04-21 16:26:00,SPECI LEMD 211626Z 21018G36KT 120V240 9999 TSRA SCT070CB 25/07 Q1009 NOSIG,0,18,1,10000,1,0,0,"RA,TS"
2026-04-21 16:15:00,SPECI LEMD 211615Z 19006KT 130V260 9999 VCTS SCT070CB 26/06 Q1008 NOSIG,0,6,0,10000,1,0,0,"TS,VC"
2026-04-21 16:00:00,METAR LEMD 211600Z 22008G20KT CAVOK 26/06 Q1008 TEMPO TSRA SCT070CB,1,0,0,9999,0,0,0,
2026-04-21 15:30:00,METAR LEMD 211530Z 21005KT 180V250 CAVOK 26/06 Q1008 NOSIG,1,0,0,9999,0,0,0,
2026-04-21 15:00:00,METAR LEMD 211500Z 22005G15KT 170V300 CAVOK 26/06 Q1008 NOSIG,1,0,0,9999,0,0,0,
2026-04-21 14:30:00,METAR LEMD 211430Z 23005KT 150V270 CAVOK 26/07 Q1008 NOSIG,1,0,0,9999,0,0,0,
2026-04-21 14:00:00,METAR LEMD 211400Z 23008KT 160V260 CAVOK 26/07 Q1009 NOSIG,1,0,0,9999,0,0,0,
2026-04-21 13:30:00,METAR LEMD 211330Z 19006KT 120V240 CAVOK 26/06 Q1009 NOSIG,1,0,0,9999,0,0,0,
2026-04-21 13:00:00,METAR LEMD 211300Z VRB07G22KT CAVOK 26/07 Q1009 NOSIG,1,0,0,9999,0,0,0,
2026-04-21 12:30:00,METAR LEMD 211230Z 17003KT 100V240 CAVOK 25/07 Q1009 NOSIG,1,0,0,9999,0,0,0,
2026-04-21 12:00:00,METAR LEMD 211200Z 17002KT CAVOK 26/08 Q1010 NOSIG,1,0,0,9999,0,0,0,
2026-04-21 11:30:00,METAR LEMD 211130Z 09003KT CAVOK 24/07 Q1010 NOSIG,1,0,0,9999,0,0,0,
2026-04-21 11:00:00,METAR LEMD 211100Z 22002KT CAVOK 23/07 Q1010 NOSIG,1,0,0,9999,0,0,0,
2026-04-21 10:30:00,METAR LEMD 211030Z 15003KT CAVOK 23/07 Q1011 NOSIG,1,0,0,9999,0,0,0,
2026-04-21 10:00:00,METAR LEMD 211000Z 16004KT 080V210 CAVOK 21/07 Q1011 NOSIG,1,0,0,9999,0,0,0,
2026-04-21 09:30:00,METAR LEMD 210930Z 34001KT CAVOK 21/07 Q1011 NOSIG,1,0,0,9999,0,0,0,
2026-04-21 09:00:00,METAR LEMD 210900Z VRB02KT CAVOK 20/08 Q1011 NOSIG,1,0,0,9999,0,0,0,
2026-04-21 08:30:00,METAR LEMD 210830Z 34003KT 300V020 CAVOK 17/07 Q1011 NOSIG,1,0,0,9999,0,0,0,
2026-04-21 08:00:00,METAR LEMD 210800Z 33003KT 290V010 CAVOK 16/06 Q1012 NOSIG,1,0,0,9999,0,0,0,
2026-04-21 07:30:00,METAR LEMD 210730Z 36003KT 340V040 CAVOK 14/06 Q1012 NOSIG,1,0,0,9999,0,0,0,
2026-04-21 07:00:00,METAR LEMD 210700Z 34003KT CAVOK 12/06 Q1012 NOSIG,1,0,0,9999,0,0,0,
2026-04-21 06:30:00,METAR LEMD 210630Z 35003KT 300V020 CAVOK 11/06 Q1012 NOSIG,1,0,0,9999,0,0,0,
2026-04-21 06:00:00,METAR LEMD 210600Z VRB02KT CAVOK 10/05 Q1012 NOSIG,1,0,0,9999,0,0,0,
2026-04-21 05:30:00,METAR LEMD 210530Z 35002KT CAVOK 10/05 Q1011 NOSIG,1,0,0,9999,0,0,0,
2026-04-21 05:00:00,METAR LEMD 210500Z 33004KT CAVOK 10/06 Q1011 NOSIG,1,0,0,9999,0,0,0,
2026-04-21 04:30:00,METAR LEMD 210430Z 36003KT 340V040 CAVOK 10/06 Q1011 NOSIG,1,0,0,9999,0,0,0,
2026-04-21 04:00:00,METAR LEMD 210400Z 34003KT CAVOK 11/06 Q1011 NOSIG,1,0,0,9999,0,0,0,
2026-04-21 03:30:00,METAR LEMD 210330Z 35003KT 310V020 CAVOK 11/06 Q1011 NOSIG,1,0,0,9999,0,0,0,
2026-04-21 03:00:00,METAR LEMD 210300Z 35003KT CAVOK 11/06 Q1011 NOSIG,1,0,0,9999,0,0,0,
2026-04-21 02:30:00,METAR LEMD 210230Z 34002KT CAVOK 12/06 Q1011 NOSIG,1,0,0,9999,0,0,0,
2026-04-21 02:00:00,METAR LEMD 210200Z 01003KT CAVOK 13/06 Q1011 NOSIG,1,0,0,9999,0,0,0,
2026-04-21 01:30:00,METAR LEMD 210130Z 36003KT CAVOK 13/06 Q1011 NOSIG,1,0,0,9999,0,0,0,
2026-04-21 01:00:00,METAR LEMD 210100Z 35003KT CAVOK 14/05 Q1012 NOSIG,1,0,0,9999,0,0,0,
2026-04-21 00:30:00,METAR LEMD 210030Z 34003KT CAVOK 14/06 Q1012 NOSIG,1,0,0,9999,0,0,0,
2026-04-21 00:00:00,METAR LEMD 210000Z 36003KT CAVOK 15/05 Q1012 NOSIG,1,0,0,9999,0,0,0,
2026-04-20 23:30:00,METAR LEMD 202330Z 36003KT 330V030 CAVOK 16/06 Q1012 NOSIG,1,0,0,9999,0,0,0,
2026-04-20 23:00:00,METAR LEMD 202300Z 35002KT CAVOK 16/05 Q1012 NOSIG,1,0,0,9999,0,0,0,
2026-04-20 22:30:00,METAR LEMD 202230Z 35002KT CAVOK 18/05 Q1012 NOSIG,1,0,0,9999,0,0,0,
2026-04-20 22:00:00,METAR LEMD 202200Z VRB02KT CAVOK 19/06 Q1012 NOSIG,1,0,0,9999,0,0,0,
2026-04-20 21:30:00,METAR LEMD 202130Z 01003KT CAVOK 20/05 Q1012 NOSIG,1,0,0,9999,0,0,0,
2026-04-20 21:00:00,METAR LEMD 202100Z 26005KT 220V290 CAVOK 22/05 Q1012 NOSIG,1,0,0,9999,0,0,0,
2026-04-20 20:30:00,METAR LEMD 202030Z 27005KT CAVOK 23/05 Q1011 NOSIG,1,0,0,9999,0,0,0,
2026-04-20 20:00:00,METAR LEMD 202000Z 26005KT 240V300 CAVOK 23/04 Q1011 NOSIG,1,0,0,9999,0,0,0,
2026-04-20 19:30:00,METAR LEMD 201930Z 26005KT CAVOK 23/03 Q1011 NOSIG,1,0,0,9999,0,0,0,
2026-04-20 19:00:00,METAR LEMD 201900Z 26006KT CAVOK 24/03 Q1011 NOSIG,1,0,0,9999,0,0,0,
2026-04-20 18:30:00,METAR LEMD 201830Z 25005KT 220V280 CAVOK 25/04 Q1010 NOSIG,1,0,0,9999,0,0,0,
2026-04-20 18:00:00,METAR LEMD 201800Z 23006KT 160V270 CAVOK 26/04 Q1011 NOSIG,1,0,0,9999,0,0,0,
2026-04-20 17:30:00,METAR LEMD 201730Z 21004KT 160V250 CAVOK 26/02 Q1011 NOSIG,1,0,0,9999,0,0,0,
2026-04-20 17:00:00,METAR LEMD 201700Z 22006KT 160V260 CAVOK 27/03 Q1011 NOSIG,1,0,0,9999,0,0,0,
2026-04-20 16:30:00,METAR LEMD 201630Z VRB04KT 9999 FEW065 26/02 Q1011 NOSIG,0,4,0,10000,0,0,0,
2026-04-20 16:00:00,METAR LEMD 201600Z 25006KT 210V290 9999 FEW060 27/02 Q1011 NOSIG,0,6,0,10000,0,0,0,
2026-04-20 15:30:00,METAR LEMD 201530Z 25005KT 9999 FEW060 26/02 Q1011 NOSIG,0,5,0,10000,0,0,0,
2026-04-20 15:00:00,METAR LEMD 201500Z VRB06KT 9999 FEW055 28/04 Q1011 NOSIG,0,6,0,10000,0,0,0,
2026-04-20 14:30:00,METAR LEMD 201430Z 18007KT 130V230 9999 FEW055 27/04 Q1012 NOSIG,0,7,0,10000,0,0,0,
2026-04-20 14:00:00,METAR LEMD 201400Z 21003G15KT 9999 FEW050 28/05 Q1012 NOSIG,0,3,1,10000,0,0,0,
2026-04-20 13:30:00,METAR LEMD 201330Z 21007KT 170V280 9999 FEW050 26/03 Q1012 NOSIG,0,7,0,10000,0,0,0,
2026-04-20 13:00:00,METAR LEMD 201300Z 21005KT 110V260 9999 FEW050 26/04 Q1013 NOSIG,0,5,0,10000,0,0,0,
2026-04-20 12:30:00,METAR LEMD 201230Z 20005KT CAVOK 26/06 Q1013 NOSIG,1,0,0,9999,0,0,0,
2026-04-20 12:00:00,METAR LEMD 201200Z 20003KT 160V260 CAVOK 26/05 Q1013 NOSIG,1,0,0,9999,0,0,0,
2026-04-20 11:30:00,METAR LEMD 201130Z 18003KT 110V260 CAVOK 25/07 Q1014 NOSIG,1,0,0,9999,0,0,0,
2026-04-20 11:00:00,METAR LEMD 201100Z 17004KT 130V220 CAVOK 24/07 Q1014 NOSIG,1,0,0,9999,0,0,0,
2026-04-20 10:30:00,METAR LEMD 201030Z 01003KT CAVOK 23/08 Q1015 NOSIG,1,0,0,9999,0,0,0,
2026-04-20 10:00:00,METAR LEMD 201000Z 01002KT CAVOK 22/08 Q1015 NOSIG,1,0,0,9999,0,0,0,
2026-04-20 09:30:00,METAR LEMD 200930Z VRB02KT CAVOK 21/08 Q1015 NOSIG,1,0,0,9999,0,0,0,
2026-04-20 09:00:00,METAR LEMD 200900Z 07002KT CAVOK 20/08 Q1015 NOSIG,1,0,0,9999,0,0,0,
2026-04-20 08:30:00,METAR LEMD 200830Z 35002KT CAVOK 17/08 Q1015 NOSIG,1,0,0,9999,0,0,0,
2026-04-20 08:00:00,METAR LEMD 200800Z 33003KT 290V010 CAVOK 15/07 Q1015 NOSIG,1,0,0,9999,0,0,0,
2026-04-20 07:30:00,METAR LEMD 200730Z VRB02KT CAVOK 13/06 Q1016 NOSIG,1,0,0,9999,0,0,0,
2026-04-20 07:00:00,METAR LEMD 200700Z 34004KT 310V030 CAVOK 12/06 Q1016 NOSIG,1,0,0,9999,0,0,0,
2026-04-20 06:30:00,METAR LEMD 200630Z 35003KT 310V020 CAVOK 11/06 Q1016 NOSIG,1,0,0,9999,0,0,0,
2026-04-20 06:00:00,METAR LEMD 200600Z 01003KT 340V040 CAVOK 10/05 Q1015 NOSIG,1,0,0,9999,0,0,0,
2026-04-20 05:30:00,METAR LEMD 200530Z VRB02KT CAVOK 09/05 Q1015 NOSIG,1,0,0,9999,0,0,0,
2026-04-20 05:00:00,METAR LEMD 200500Z 34004KT CAVOK 11/05 Q1015 NOSIG,1,0,0,9999,0,0,0,
2026-04-20 04:30:00,METAR LEMD 200430Z 33004KT CAVOK 11/05 Q1015 NOSIG,1,0,0,9999,0,0,0,
2026-04-20 04:00:00,METAR LEMD 200400Z 33006KT CAVOK 10/05 Q1015 NOSIG,1,0,0,9999,0,0,0,
2026-04-20 03:30:00,METAR LEMD 200330Z 34006KT 310V010 CAVOK 11/05 Q1015 NOSIG,1,0,0,9999,0,0,0,
2026-04-20 03:00:00,METAR LEMD 200300Z 35003KT CAVOK 12/06 Q1015 NOSIG,1,0,0,9999,0,0,0,
2026-04-20 02:30:00,METAR LEMD 200230Z VRB02KT CAVOK 11/06 Q1015 NOSIG,1,0,0,9999,0,0,0,
2026-04-20 02:00:00,METAR LEMD 200200Z VRB02KT CAVOK 12/06 Q1015 NOSIG,1,0,0,9999,0,0,0,
2026-04-20 01:30:00,METAR LEMD 200130Z VRB01KT CAVOK 13/06 Q1015 NOSIG,1,0,0,9999,0,0,0,
2026-04-20 01:00:00,METAR LEMD 200100Z VRB02KT CAVOK 12/06 Q1016 NOSIG,1,0,0,9999,0,0,0,
2026-04-20 00:30:00,METAR LEMD 200030Z 36003KT 340V050 CAVOK 13/06 Q1016 NOSIG,1,0,0,9999,0,0,0,
2026-04-20 00:00:00,METAR LEMD 200000Z 35003KT CAVOK 14/06 Q1016 NOSIG,1,0,0,9999,0,0,0,
2026-04-19 23:30:00,METAR LEMD 192330Z 01003KT 340V040 CAVOK 15/06 Q1016 NOSIG,1,0,0,9999,0,0,0,
2026-04-19 23:00:00,METAR LEMD 192300Z VRB02KT CAVOK 17/06 Q1016 NOSIG,1,0,0,9999,0,0,0,
2026-04-19 22:30:00,METAR LEMD 192230Z VRB01KT CAVOK 17/05 Q1016 NOSIG,1,0,0,9999,0,0,0,
2026-04-19 22:00:00,METAR LEMD 192200Z VRB02KT CAVOK 19/05 Q1016 NOSIG,1,0,0,9999,0,0,0,
2026-04-19 21:30:00,METAR LEMD 192130Z 27004KT CAVOK 22/04 Q1016 NOSIG,1,0,0,9999,0,0,0,
2026-04-19 21:00:00,METAR LEMD 192100Z 27006KT 240V310 CAVOK 23/05 Q1016 NOSIG,1,0,0,9999,0,0,0,
2026-04-19 20:30:00,METAR LEMD 192030Z 27006KT 220V290 CAVOK 23/05 Q1016 NOSIG,1,0,0,9999,0,0,0,
2026-04-19 20:00:00,METAR LEMD 192000Z 26005KT 240V310 CAVOK 23/05 Q1015 NOSIG,1,0,0,9999,0,0,0,
2026-04-19 19:30:00,METAR LEMD 191930Z 27005KT 230V310 CAVOK 24/04 Q1015 NOSIG,1,0,0,9999,0,0,0,
2026-04-19 19:00:00,METAR LEMD 191900Z 26006KT CAVOK 24/05 Q1015 NOSIG,1,0,0,9999,0,0,0,
2026-04-19 18:30:00,METAR LEMD 191830Z 26007KT 220V300 CAVOK 25/03 Q1015 NOSIG,1,0,0,9999,0,0,0,
2026-04-19 18:00:00,METAR LEMD 191800Z 27009KT 230V310 CAVOK 26/03 Q1015 NOSIG,1,0,0,9999,0,0,0,
2026-04-19 17:30:00,METAR LEMD 191730Z 26007KT 220V350 CAVOK 27/03 Q1015 NOSIG,1,0,0,9999,0,0,0,
2026-04-19 17:00:00,METAR LEMD 191700Z 26010KT CAVOK 27/02 Q1015 NOSIG,1,0,0,9999,0,0,0,
2026-04-19 16:30:00,METAR LEMD 191630Z 21005KT 160V260 CAVOK 27/03 Q1015 NOSIG,1,0,0,9999,0,0,0,
2026-04-19 16:00:00,METAR LEMD 191600Z 23011KT 9999 FEW080 28/03 Q1015 NOSIG,0,11,0,10000,0,0,0,
2026-04-19 15:30:00,METAR LEMD 191530Z 20008G18KT 120V250 9999 FEW080 27/04 Q1015 NOSIG,0,8,1,10000,0,0,0,
2026-04-19 15:00:00,METAR LEMD 191500Z VRB08KT 9999 FEW080 28/03 Q1015 NOSIG,0,8,0,10000,0,0,0,
2026-04-19 14:30:00,METAR LEMD 191430Z 21010G20KT 9999 FEW080 28/05 Q1016 NOSIG,0,10,1,10000,0,0,0,
2026-04-19 14:00:00,METAR LEMD 191400Z 26006G27KT 9999 FEW080 27/07 Q1016 NOSIG,0,6,1,10000,0,0,0,
2026-04-19 13:30:00,METAR LEMD 191330Z 19008G18KT 130V260 9999 FEW080 27/06 Q1016 NOSIG,0,8,1,10000,0,0,0,
2026-04-19 13:00:00,METAR LEMD 191300Z 18007KT 130V260 CAVOK 27/08 Q1017 NOSIG,1,0,0,9999,0,0,0,
2026-04-19 12:30:00,METAR LEMD 191230Z 20003KT CAVOK 26/09 Q1017 NOSIG,1,0,0,9999,0,0,0,
2026-04-19 12:00:00,METAR LEMD 191200Z 16003KT CAVOK 25/09 Q1018 NOSIG,1,0,0,9999,0,0,0,
2026-04-19 11:30:00,METAR LEMD 191130Z VRB04KT CAVOK 24/09 Q1018 NOSIG,1,0,0,9999,0,0,0,
2026-04-19 11:00:00,METAR LEMD 191100Z 18004KT 110V230 CAVOK 23/09 Q1018 NOSIG,1,0,0,9999,0,0,0,
2026-04-19 10:30:00,METAR LEMD 191030Z VRB03KT CAVOK 23/09 Q1018 NOSIG,1,0,0,9999,0,0,0,
2026-04-19 10:00:00,METAR LEMD 191000Z 15004KT 110V220 CAVOK 22/10 Q1019 NOSIG,1,0,0,9999,0,0,0,
2026-04-19 09:30:00,METAR LEMD 190930Z 11003KT CAVOK 21/10 Q1019 NOSIG,1,0,0,9999,0,0,0,
2026-04-19 09:00:00,METAR LEMD 190900Z 29001KT CAVOK 20/09 Q1019 NOSIG,1,0,0,9999,0,0,0,
2026-04-19 08:30:00,METAR LEMD 190830Z 35001KT CAVOK 18/09 Q1019 NOSIG,1,0,0,9999,0,0,0,
2026-04-19 08:00:00,METAR LEMD 190800Z VRB02KT CAVOK 16/08 Q1019 NOSIG,1,0,0,9999,0,0,0,
2026-04-19 07:30:00,METAR LEMD 190730Z VRB02KT CAVOK 15/08 Q1019 NOSIG,1,0,0,9999,0,0,0,
2026-04-19 07:00:00,METAR LEMD 190700Z VRB01KT 9999 FEW080 13/08 Q1019 NOSIG,0,1,0,10000,0,0,0,
2026-04-19 06:30:00,METAR LEMD 190630Z 36002KT 9999 FEW080 12/08 Q1019 NOSIG,0,2,0,10000,0,0,0,
2026-04-19 06:00:00,METAR LEMD 190600Z 35003KT 9999 FEW080 12/07 Q1019 NOSIG,0,3,0,10000,0,0,0,
2026-04-19 05:30:00,METAR LEMD 190530Z 36003KT 9999 FEW080 11/07 Q1018 NOSIG,0,3,0,10000,0,0,0,
2026-04-19 05:00:00,METAR LEMD 190500Z VRB02KT CAVOK 12/07 Q1018 NOSIG,1,0,0,9999,0,0,0,
2026-04-19 04:30:00,METAR LEMD 190430Z 34003KT CAVOK 12/07 Q1018 NOSIG,1,0,0,9999,0,0,0,
2026-04-19 04:00:00,METAR LEMD 190400Z 33004KT CAVOK 12/07 Q1018 NOSIG,1,0,0,9999,0,0,0,
2026-04-19 03:30:00,METAR LEMD 190330Z 34003KT 320V020 CAVOK 13/07 Q1018 NOSIG,1,0,0,9999,0,0,0,
2026-04-19 03:00:00,METAR LEMD 190300Z 34004KT CAVOK 13/06 Q1018 NOSIG,1,0,0,9999,0,0,0,
2026-04-19 02:30:00,METAR LEMD 190230Z 34004KT CAVOK 13/06 Q1018 NOSIG,1,0,0,9999,0,0,0,
2026-04-19 02:00:00,METAR LEMD 190200Z 35003KT 320V040 CAVOK 14/06 Q1018 NOSIG,1,0,0,9999,0,0,0,
2026-04-19 01:30:00,METAR LEMD 190130Z 36003KT 290V040 CAVOK 15/07 Q1018 NOSIG,1,0,0,9999,0,0,0,
2026-04-19 01:00:00,METAR LEMD 190100Z VRB01KT CAVOK 15/06 Q1018 NOSIG,1,0,0,9999,0,0,0,
2026-04-19 00:30:00,METAR LEMD 190030Z VRB02KT 9999 FEW078 15/07 Q1018 NOSIG,0,2,0,10000,0,0,0,
2026-04-19 00:00:00,METAR LEMD 190000Z VRB02KT CAVOK 17/06 Q1018 NOSIG,1,0,0,9999,0,0,0,
2026-04-18 23:30:00,METAR LEMD 182330Z 31003KT CAVOK 17/07 Q1018 NOSIG,1,0,0,9999,0,0,0,
2026-04-18 23:00:00,METAR LEMD 182300Z 32004KT CAVOK 17/06 Q1018 NOSIG,1,0,0,9999,0,0,0,
2026-04-18 22:30:00,METAR LEMD 182230Z VRB02KT 9999 SCT080 18/06 Q1018 NOSIG,0,2,0,10000,0,0,0,
2026-04-18 22:00:00,METAR LEMD 182200Z 33007KT 9999 SCT080 19/06 Q1018 NOSIG,0,7,0,10000,0,0,0,
2026-04-18 21:30:00,METAR LEMD 182130Z VRB01KT CAVOK 18/05 Q1018 NOSIG,1,0,0,9999,0,0,0,
2026-04-18 21:00:00,METAR LEMD 182100Z 36001KT CAVOK 18/06 Q1018 NOSIG,1,0,0,9999,0,0,0,
2026-04-18 20:30:00,METAR LEMD 182030Z 11001KT CAVOK 19/06 Q1018 NOSIG,1,0,0,9999,0,0,0,
2026-04-18 20:00:00,METAR LEMD 182000Z 35004KT CAVOK 20/06 Q1017 NOSIG,1,0,0,9999,0,0,0,
2026-04-18 19:30:00,METAR LEMD 181930Z 35005KT CAVOK 21/06 Q1017 NOSIG,1,0,0,9999,0,0,0,
2026-04-18 19:00:00,METAR LEMD 181900Z 30006KT 280V350 CAVOK 24/05 Q1017 NOSIG,1,0,0,9999,0,0,0,
2026-04-18 18:30:00,METAR LEMD 181830Z 26005KT CAVOK 25/05 Q1017 NOSIG,1,0,0,9999,0,0,0,
2026-04-18 18:00:00,METAR LEMD 181800Z 28004KT 220V010 CAVOK 25/04 Q1017 NOSIG,1,0,0,9999,0,0,0,
2026-04-18 17:30:00,METAR LEMD 181730Z 28003KT 200V360 CAVOK 27/04 Q1017 NOSIG,1,0,0,9999,0,0,0,
2026-04-18 17:00:00,METAR LEMD 181700Z 26004KT 180V340 CAVOK 26/04 Q1017 NOSIG,1,0,0,9999,0,0,0,
2026-04-18 16:30:00,METAR LEMD 181630Z 24005KT 180V300 CAVOK 28/04 Q1017 NOSIG,1,0,0,9999,0,0,0,
2026-04-18 16:00:00,METAR LEMD 181600Z 25004KT 9999 FEW070 28/03 Q1017 NOSIG,0,4,0,10000,0,0,0,
2026-04-18 15:00:00,METAR LEMD 181500Z 16007KT 100V220 9999 FEW080 26/05 Q1017 NOSIG,0,7,0,10000,0,0,0,
2026-04-18 14:30:00,METAR LEMD 181430Z 20007G17KT 110V260 9999 FEW080 27/05 Q1018 NOSIG,0,7,1,10000,0,0,0,
2026-04-18 14:00:00,METAR LEMD 181400Z 17010KT 110V230 9999 FEW080 26/06 Q1018 NOSIG,0,10,0,10000,0,0,0,
2026-04-18 13:30:00,METAR LEMD 181330Z 18005KT 110V250 9999 FEW080 26/06 Q1018 NOSIG,0,5,0,10000,0,0,0,
2026-04-18 13:00:00,METAR LEMD 181300Z VRB06G18KT 9999 FEW070 26/07 Q1019 NOSIG,0,6,1,10000,0,0,0,
2026-04-18 12:30:00,METAR LEMD 181230Z 19004KT 9999 FEW070 26/08 Q1019 NOSIG,0,4,0,10000,0,0,0,
2026-04-18 12:00:00,METAR LEMD 181200Z 12002KT 9999 FEW065 26/10 Q1019 NOSIG,0,2,0,10000,0,0,0,
2026-04-18 11:30:00,METAR LEMD 181130Z 11002KT CAVOK 25/09 Q1020 NOSIG,1,0,0,9999,0,0,0,
2026-04-18 11:00:00,METAR LEMD 181100Z 21002KT CAVOK 24/08 Q1020 NOSIG,1,0,0,9999,0,0,0,
2026-04-18 10:30:00,METAR LEMD 181030Z VRB02KT 9999 FEW050 23/08 Q1020 NOSIG,0,2,0,10000,0,0,0,
2026-04-18 10:00:00,METAR LEMD 181000Z VRB02KT 9999 FEW052 21/08 Q1020 NOSIG,0,2,0,10000,0,0,0,
2026-04-18 09:30:00,METAR LEMD 180930Z 17004KT 130V240 CAVOK 20/08 Q1020 NOSIG,1,0,0,9999,0,0,0,
2026-04-18 09:00:00,METAR LEMD 180900Z VRB01KT CAVOK 19/07 Q1020 NOSIG,1,0,0,9999,0,0,0,
2026-04-18 08:30:00,METAR LEMD 180830Z 34001KT CAVOK 18/07 Q1020 NOSIG,1,0,0,9999,0,0,0,
2026-04-18 08:00:00,METAR LEMD 180800Z 30001KT CAVOK 16/08 Q1020 NOSIG,1,0,0,9999,0,0,0,
2026-04-18 07:30:00,METAR LEMD 180730Z VRB01KT CAVOK 14/07 Q1020 NOSIG,1,0,0,9999,0,0,0,
2026-04-18 07:00:00,METAR LEMD 180700Z 35003KT CAVOK 12/07 Q1020 NOSIG,1,0,0,9999,0,0,0,
2026-04-18 06:30:00,METAR LEMD 180630Z 35004KT CAVOK 11/07 Q1020 NOSIG,1,0,0,9999,0,0,0,
2026-04-18 06:00:00,METAR LEMD 180600Z 36003KT CAVOK 10/06 Q1020 NOSIG,1,0,0,9999,0,0,0,
2026-04-18 05:30:00,METAR LEMD 180530Z 36002KT CAVOK 10/06 Q1019 NOSIG,1,0,0,9999,0,0,0,
2026-04-18 05:00:00,METAR LEMD 180500Z 34002KT CAVOK 10/06 Q1019 NOSIG,1,0,0,9999,0,0,0,
2026-04-18 04:30:00,METAR LEMD 180430Z 36002KT CAVOK 10/07 Q1019 NOSIG,1,0,0,9999,0,0,0,
2026-04-18 04:00:00,METAR LEMD 180400Z 35002KT CAVOK 10/06 Q1019 NOSIG,1,0,0,9999,0,0,0,
2026-04-18 03:30:00,METAR LEMD 180330Z 36002KT CAVOK 11/07 Q1019 NOSIG,1,0,0,9999,0,0,0,
2026-04-18 03:00:00,METAR LEMD 180300Z VRB02KT CAVOK 11/07 Q1019 NOSIG,1,0,0,9999,0,0,0,
2026-04-18 02:30:00,METAR LEMD 180230Z VRB01KT CAVOK 11/06 Q1019 NOSIG,1,0,0,9999,0,0,0,
2026-04-18 02:00:00,METAR LEMD 180200Z 33003KT CAVOK 12/07 Q1019 NOSIG,1,0,0,9999,0,0,0,
2026-04-18 01:30:00,METAR LEMD 180130Z 35003KT CAVOK 13/07 Q1019 NOSIG,1,0,0,9999,0,0,0,
2026-04-18 01:00:00,METAR LEMD 180100Z 35002KT CAVOK 13/07 Q1019 NOSIG,1,0,0,9999,0,0,0,
2026-04-18 00:30:00,METAR LEMD 180030Z 34003KT CAVOK 14/07 Q1019 NOSIG,1,0,0,9999,0,0,0,
2026-04-18 00:00:00,METAR LEMD 180000Z 36003KT CAVOK 15/07 Q1019 NOSIG,1,0,0,9999,0,0,0,
2026-04-17 23:30:00,METAR LEMD 172330Z 00000KT CAVOK 15/06 Q1019 NOSIG,1,0,0,9999,0,0,0,
2026-04-17 23:00:00,METAR LEMD 172300Z VRB02KT CAVOK 15/06 Q1019 NOSIG,1,0,0,9999,0,0,0,
2026-04-17 22:30:00,METAR LEMD 172230Z 36002KT CAVOK 17/06 Q1019 NOSIG,1,0,0,9999,0,0,0,
2026-04-17 22:00:00,METAR LEMD 172200Z 36003KT CAVOK 18/06 Q1019 NOSIG,1,0,0,9999,0,0,0,
2026-04-17 21:30:00,METAR LEMD 172130Z VRB01KT CAVOK 18/06 Q1019 NOSIG,1,0,0,9999,0,0,0,
2026-04-17 21:00:00,METAR LEMD 172100Z 31001KT CAVOK 19/06 Q1019 NOSIG,1,0,0,9999,0,0,0,
2026-04-17 20:30:00,METAR LEMD 172030Z 26003KT 220V300 CAVOK 23/05 Q1019 NOSIG,1,0,0,9999,0,0,0,
2026-04-17 20:00:00,METAR LEMD 172000Z 26004KT 220V290 CAVOK 23/04 Q1018 NOSIG,1,0,0,9999,0,0,0,
2026-04-17 19:30:00,METAR LEMD 171930Z 24005KT CAVOK 23/04 Q1018 NOSIG,1,0,0,9999,0,0,0,
2026-04-17 19:00:00,METAR LEMD 171900Z 23006KT CAVOK 24/04 Q1018 NOSIG,1,0,0,9999,0,0,0,
2026-04-17 18:30:00,METAR LEMD 171830Z 22006KT 130V280 CAVOK 25/04 Q1018 NOSIG,1,0,0,9999,0,0,0,
2026-04-17 18:00:00,METAR LEMD 171800Z 23006KT 200V290 CAVOK 25/05 Q1018 NOSIG,1,0,0,9999,0,0,0,
2026-04-17 17:30:00,METAR LEMD 171730Z 20007KT 160V280 CAVOK 25/05 Q1018 NOSIG,1,0,0,9999,0,0,0,
2026-04-17 17:00:00,METAR LEMD 171700Z 18006KT 150V220 9999 FEW080 25/06 Q1018 NOSIG,0,6,0,10000,0,0,0,
2026-04-17 16:30:00,METAR LEMD 171630Z 20007KT 150V280 9999 FEW080 26/06 Q1018 NOSIG,0,7,0,10000,0,0,0,
2026-04-17 16:00:00,METAR LEMD 171600Z 22005KT 190V270 CAVOK 26/05 Q1018 NOSIG,1,0,0,9999,0,0,0,
2026-04-17 15:30:00,METAR LEMD 171530Z 21007KT 160V250 CAVOK 26/05 Q1018 NOSIG,1,0,0,9999,0,0,0,
2026-04-17 15:00:00,METAR LEMD 171500Z 19007KT 150V290 9999 FEW060 26/05 Q1018 NOSIG,0,7,0,10000,0,0,0,
2026-04-17 14:30:00,METAR LEMD 171430Z 24007KT 190V270 9999 FEW060 26/06 Q1018 NOSIG,0,7,0,10000,0,0,0,
2026-04-17 14:00:00,METAR LEMD 171400Z 17007KT 070V210 9999 FEW060 25/05 Q1019 NOSIG,0,7,0,10000,0,0,0,
2026-04-17 13:30:00,METAR LEMD 171330Z 22008KT 170V260 CAVOK 25/06 Q1019 NOSIG,1,0,0,9999,0,0,0,
2026-04-17 13:00:00,METAR LEMD 171300Z 20007KT 140V270 CAVOK 25/05 Q1019 NOSIG,1,0,0,9999,0,0,0,
2026-04-17 12:30:00,METAR LEMD 171230Z 18004KT CAVOK 24/05 Q1020 NOSIG,1,0,0,9999,0,0,0,
2026-04-17 12:00:00,METAR LEMD 171200Z 18004KT 100V260 CAVOK 25/07 Q1020 NOSIG,1,0,0,9999,0,0,0,
2026-04-17 11:30:00,METAR LEMD 171130Z 20005KT 130V240 CAVOK 23/06 Q1020 NOSIG,1,0,0,9999,0,0,0,
2026-04-17 11:00:00,METAR LEMD 171100Z 16003KT CAVOK 22/06 Q1021 NOSIG,1,0,0,9999,0,0,0,
2026-04-17 10:30:00,METAR LEMD 171030Z 15001KT CAVOK 21/06 Q1021 NOSIG,1,0,0,9999,0,0,0,
2026-04-17 10:00:00,METAR LEMD 171000Z 17003KT 100V240 CAVOK 19/06 Q1021 NOSIG,1,0,0,9999,0,0,0,
2026-04-17 09:30:00,METAR LEMD 170930Z 21002KT CAVOK 19/07 Q1021 NOSIG,1,0,0,9999,0,0,0,
2026-04-17 09:00:00,METAR LEMD 170900Z 36001KT CAVOK 17/05 Q1021 NOSIG,1,0,0,9999,0,0,0,
2026-04-17 08:30:00,METAR LEMD 170830Z 33002KT CAVOK 15/05 Q1021 NOSIG,1,0,0,9999,0,0,0,
2026-04-17 08:00:00,METAR LEMD 170800Z VRB01KT CAVOK 13/06 Q1021 NOSIG,1,0,0,9999,0,0,0,
2026-04-17 07:30:00,METAR LEMD 170730Z VRB01KT CAVOK 12/05 Q1021 NOSIG,1,0,0,9999,0,0,0,
2026-04-17 07:00:00,METAR LEMD 170700Z VRB01KT CAVOK 11/06 Q1021 NOSIG,1,0,0,9999,0,0,0,
2026-04-17 06:30:00,METAR LEMD 170630Z 33002KT CAVOK 09/05 Q1021 NOSIG,1,0,0,9999,0,0,0,
2026-04-17 06:00:00,METAR LEMD 170600Z 01002KT CAVOK 07/05 Q1020 NOSIG,1,0,0,9999,0,0,0,
2026-04-17 05:30:00,METAR LEMD 170530Z 01001KT CAVOK 08/05 Q1020 NOSIG,1,0,0,9999,0,0,0,
2026-04-17 05:00:00,METAR LEMD 170500Z 36003KT CAVOK 09/05 Q1020 NOSIG,1,0,0,9999,0,0,0,
2026-04-17 04:30:00,METAR LEMD 170430Z 36002KT CAVOK 09/05 Q1020 NOSIG,1,0,0,9999,0,0,0,
2026-04-17 04:00:00,METAR LEMD 170400Z 35002KT CAVOK 09/05 Q1020 NOSIG,1,0,0,9999,0,0,0,
2026-04-17 03:30:00,METAR LEMD 170330Z 35002KT CAVOK 09/05 Q1020 NOSIG,1,0,0,9999,0,0,0,
2026-04-17 03:00:00,METAR LEMD 170300Z VRB02KT CAVOK 10/05 Q1020 NOSIG,1,0,0,9999,0,0,0,
2026-04-17 02:30:00,METAR LEMD 170230Z 34002KT CAVOK 11/05 Q1020 NOSIG,1,0,0,9999,0,0,0,
2026-04-17 02:00:00,METAR LEMD 170200Z 35003KT CAVOK 11/05 Q1020 NOSIG,1,0,0,9999,0,0,0,
2026-04-17 01:30:00,METAR LEMD 170130Z 01004KT CAVOK 11/05 Q1020 NOSIG,1,0,0,9999,0,0,0,
2026-04-17 01:00:00,METAR LEMD 170100Z 36002KT CAVOK 11/05 Q1020 NOSIG,1,0,0,9999,0,0,0,
2026-04-17 00:30:00,METAR LEMD 170030Z 35003KT CAVOK 12/05 Q1020 NOSIG,1,0,0,9999,0,0,0,
2026-04-17 00:00:00,METAR LEMD 170000Z 35002KT CAVOK 12/05 Q1020 NOSIG,1,0,0,9999,0,0,0,
2026-04-16 23:30:00,METAR LEMD 162330Z 33003KT CAVOK 13/04 Q1020 NOSIG,1,0,0,9999,0,0,0,
2026-04-16 23:00:00,METAR LEMD 162300Z VRB02KT CAVOK 13/04 Q1020 NOSIG,1,0,0,9999,0,0,0,
2026-04-16 22:30:00,METAR LEMD 162230Z 00000KT CAVOK 14/03 Q1020 NOSIG,1,0,0,9999,0,0,0,
2026-04-16 22:00:00,METAR LEMD 162200Z VRB02KT CAVOK 16/02 Q1020 NOSIG,1,0,0,9999,0,0,0,
2026-04-16 21:30:00,METAR LEMD 162130Z 21004KT CAVOK 18/02 Q1020 NOSIG,1,0,0,9999,0,0,0,
2026-04-16 21:00:00,METAR LEMD 162100Z VRB02KT CAVOK 17/01 Q1020 NOSIG,1,0,0,9999,0,0,0,
2026-04-16 20:30:00,METAR LEMD 162030Z VRB01KT CAVOK 19/00 Q1020 NOSIG,1,0,0,9999,0,0,0,
2026-04-16 20:00:00,METAR LEMD 162000Z 21004KT 170V260 CAVOK 21/00 Q1019 NOSIG,1,0,0,9999,0,0,0,
2026-04-16 19:30:00,METAR LEMD 161930Z 20005KT 160V250 CAVOK 22/01 Q1019 NOSIG,1,0,0,9999,0,0,0,
2026-04-16 19:00:00,METAR LEMD 161900Z 20007KT CAVOK 23/00 Q1019 NOSIG,1,0,0,9999,0,0,0,
2026-04-16 18:30:00,METAR LEMD 161830Z 19007KT CAVOK 23/02 Q1019 NOSIG,1,0,0,9999,0,0,0,
2026-04-16 18:00:00,METAR LEMD 161800Z 19008KT 160V220 CAVOK 24/03 Q1019 NOSIG,1,0,0,9999,0,0,0,
2026-04-16 17:30:00,METAR LEMD 161730Z 22009KT 180V250 CAVOK 25/02 Q1019 NOSIG,1,0,0,9999,0,0,0,
2026-04-16 17:00:00,METAR LEMD 161700Z 21008KT 150V270 CAVOK 25/04 Q1019 NOSIG,1,0,0,9999,0,0,0,
2026-04-16 16:30:00,METAR LEMD 161630Z 20008KT 130V240 CAVOK 25/04 Q1019 NOSIG,1,0,0,9999,0,0,0,
2026-04-16 16:00:00,METAR LEMD 161600Z 21009KT 190V250 CAVOK 25/05 Q1019 NOSIG,1,0,0,9999,0,0,0,
2026-04-16 15:30:00,METAR LEMD 161530Z 23007KT 160V270 CAVOK 26/05 Q1019 NOSIG,1,0,0,9999,0,0,0,
2026-04-16 15:00:00,METAR LEMD 161500Z 21006G20KT 150V290 CAVOK 25/06 Q1019 NOSIG,1,0,0,9999,0,0,0,
2026-04-16 14:30:00,METAR LEMD 161430Z 22007KT 160V290 CAVOK 25/05 Q1019 NOSIG,1,0,0,9999,0,0,0,
2026-04-16 14:00:00,METAR LEMD 161400Z 22005KT 130V260 CAVOK 25/05 Q1020 NOSIG,1,0,0,9999,0,0,0,
2026-04-16 13:30:00,METAR LEMD 161330Z 25005G16KT CAVOK 24/07 Q1020 NOSIG,1,0,0,9999,0,0,0,
2026-04-16 13:00:00,METAR LEMD 161300Z 24007KT 150V290 CAVOK 24/06 Q1021 NOSIG,1,0,0,9999,0,0,0,
2026-04-16 12:30:00,METAR LEMD 161230Z 21005G15KT CAVOK 24/06 Q1021 NOSIG,1,0,0,9999,0,0,0,
2026-04-16 12:00:00,METAR LEMD 161200Z 21004KT CAVOK 23/06 Q1021 NOSIG,1,0,0,9999,0,0,0,
2026-04-16 11:30:00,METAR LEMD 161130Z VRB04KT CAVOK 22/07 Q1021 NOSIG,1,0,0,9999,0,0,0,
2026-04-16 11:00:00,METAR LEMD 161100Z 18003KT CAVOK 21/08 Q1022 NOSIG,1,0,0,9999,0,0,0,
2026-04-16 10:30:00,METAR LEMD 161030Z 17003KT CAVOK 20/08 Q1022 NOSIG,1,0,0,9999,0,0,0,
2026-04-16 10:00:00,METAR LEMD 161000Z VRB02KT CAVOK 19/07 Q1022 NOSIG,1,0,0,9999,0,0,0,
2026-04-16 09:30:00,METAR LEMD 160930Z 36002KT CAVOK 19/08 Q1022 NOSIG,1,0,0,9999,0,0,0,
2026-04-16 09:00:00,METAR LEMD 160900Z VRB02KT CAVOK 17/06 Q1022 NOSIG,1,0,0,9999,0,0,0,
2026-04-16 08:30:00,METAR LEMD 160830Z 34003KT 300V050 CAVOK 15/05 Q1022 NOSIG,1,0,0,9999,0,0,0,
2026-04-16 08:00:00,METAR LEMD 160800Z VRB02KT CAVOK 13/05 Q1022 NOSIG,1,0,0,9999,0,0,0,
2026-04-16 07:30:00,METAR LEMD 160730Z 33003KT CAVOK 11/04 Q1022 NOSIG,1,0,0,9999,0,0,0,
2026-04-16 07:00:00,METAR LEMD 160700Z 36002KT CAVOK 10/05 Q1022 NOSIG,1,0,0,9999,0,0,0,
2026-04-16 06:30:00,METAR LEMD 160630Z 36002KT CAVOK 08/04 Q1022 NOSIG,1,0,0,9999,0,0,0,
2026-04-16 06:00:00,METAR LEMD 160600Z 33003KT CAVOK 07/04 Q1022 NOSIG,1,0,0,9999,0,0,0,
2026-04-16 05:30:00,METAR LEMD 160530Z 36002KT CAVOK 07/04 Q1022 NOSIG,1,0,0,9999,0,0,0,
2026-04-16 05:00:00,METAR LEMD 160500Z 32002KT CAVOK 07/04 Q1022 NOSIG,1,0,0,9999,0,0,0,
2026-04-16 04:30:00,METAR LEMD 160430Z VRB01KT CAVOK 07/04 Q1022 NOSIG,1,0,0,9999,0,0,0,
2026-04-16 04:00:00,METAR LEMD 160400Z 36003KT 330V040 CAVOK 08/04 Q1022 NOSIG,1,0,0,9999,0,0,0,
2026-04-16 03:30:00,METAR LEMD 160330Z 36002KT CAVOK 09/05 Q1021 NOSIG,1,0,0,9999,0,0,0,
2026-04-16 03:00:00,METAR LEMD 160300Z 02003KT CAVOK 09/05 Q1021 NOSIG,1,0,0,9999,0,0,0,
2026-04-16 02:30:00,METAR LEMD 160230Z VRB02KT CAVOK 09/05 Q1022 NOSIG,1,0,0,9999,0,0,0,
2026-04-16 02:00:00,METAR LEMD 160200Z 34002KT CAVOK 10/05 Q1022 NOSIG,1,0,0,9999,0,0,0,
2026-04-16 01:30:00,METAR LEMD 160130Z VRB02KT CAVOK 11/05 Q1022 NOSIG,1,0,0,9999,0,0,0,
2026-04-16 01:00:00,METAR LEMD 160100Z 36002KT CAVOK 12/05 Q1022 NOSIG,1,0,0,9999,0,0,0,
2026-04-16 00:30:00,METAR LEMD 160030Z 36003KT CAVOK 12/06 Q1022 NOSIG,1,0,0,9999,0,0,0,
2026-04-16 00:00:00,METAR LEMD 160000Z 01003KT CAVOK 13/06 Q1022 NOSIG,1,0,0,9999,0,0,0,
2026-04-15 23:30:00,METAR LEMD 152330Z VRB01KT CAVOK 12/06 Q1022 NOSIG,1,0,0,9999,0,0,0,
2026-04-15 23:00:00,METAR LEMD 152300Z 00000KT CAVOK 14/06 Q1022 NOSIG,1,0,0,9999,0,0,0,
2026-04-15 22:30:00,METAR LEMD 152230Z 09003KT CAVOK 15/06 Q1021 NOSIG,1,0,0,9999,0,0,0,
2026-04-15 22:00:00,METAR LEMD 152200Z 12003KT CAVOK 16/06 Q1021 NOSIG,1,0,0,9999,0,0,0,
2026-04-15 21:30:00,METAR LEMD 152130Z 12004KT CAVOK 16/06 Q1021 NOSIG,1,0,0,9999,0,0,0,
2026-04-15 21:00:00,METAR LEMD 152100Z 12003KT 090V190 CAVOK 16/06 Q1021 NOSIG,1,0,0,9999,0,0,0,
2026-04-15 20:30:00,METAR LEMD 152030Z 16005KT 120V200 CAVOK 19/07 Q1021 NOSIG,1,0,0,9999,0,0,0,
2026-04-15 20:00:00,METAR LEMD 152000Z 21006KT 170V280 CAVOK 20/08 Q1020 NOSIG,1,0,0,9999,0,0,0,
2026-04-15 19:30:00,METAR LEMD 151930Z 20008KT 160V220 CAVOK 20/08 Q1020 NOSIG,1,0,0,9999,0,0,0,
2026-04-15 19:00:00,METAR LEMD 151900Z 24008KT CAVOK 21/07 Q1020 NOSIG,1,0,0,9999,0,0,0,
2026-04-15 18:30:00,METAR LEMD 151830Z 23008KT CAVOK 22/07 Q1019 NOSIG,1,0,0,9999,0,0,0,
2026-04-15 18:00:00,METAR LEMD 151800Z 21009KT 190V250 CAVOK 23/07 Q1019 NOSIG,1,0,0,9999,0,0,0,
2026-04-15 17:30:00,METAR LEMD 151730Z 21008KT 170V250 CAVOK 24/07 Q1019 NOSIG,1,0,0,9999,0,0,0,
2026-04-15 17:00:00,METAR LEMD 151700Z 23006KT 160V280 CAVOK 24/07 Q1019 NOSIG,1,0,0,9999,0,0,0,
2026-04-15 16:30:00,METAR LEMD 151630Z 21005KT 180V260 CAVOK 24/07 Q1019 NOSIG,1,0,0,9999,0,0,0,
2026-04-15 16:00:00,METAR LEMD 151600Z 21006KT 150V270 CAVOK 24/07 Q1019 NOSIG,1,0,0,9999,0,0,0,
2026-04-15 15:30:00,METAR LEMD 151530Z 18006KT CAVOK 23/08 Q1020 NOSIG,1,0,0,9999,0,0,0,
2026-04-15 15:00:00,METAR LEMD 151500Z 23005KT CAVOK 23/06 Q1020 NOSIG,1,0,0,9999,0,0,0,
2026-04-15 14:30:00,METAR LEMD 151430Z 24004KT 190V280 CAVOK 24/06 Q1020 NOSIG,1,0,0,9999,0,0,0,
2026-04-15 14:00:00,METAR LEMD 151400Z 21006G16KT 150V300 CAVOK 23/07 Q1021 NOSIG,1,0,0,9999,0,0,0,
2026-04-15 13:30:00,METAR LEMD 151330Z 26007KT 200V010 CAVOK 22/06 Q1021 NOSIG,1,0,0,9999,0,0,0,
2026-04-15 13:00:00,METAR LEMD 151300Z 23007KT 170V290 CAVOK 22/06 Q1021 NOSIG,1,0,0,9999,0,0,0,
2026-04-15 12:30:00,METAR LEMD 151230Z 22006G19KT CAVOK 22/05 Q1021 NOSIG,1,0,0,9999,0,0,0,
2026-04-15 12:00:00,METAR LEMD 151200Z VRB06G17KT CAVOK 21/07 Q1022 NOSIG,1,0,0,9999,0,0,0,
2026-04-15 11:30:00,METAR LEMD 151130Z 23007KT CAVOK 21/07 Q1022 NOSIG,1,0,0,9999,0,0,0,
2026-04-15 11:00:00,METAR LEMD 151100Z 21005KT CAVOK 19/07 Q1022 NOSIG,1,0,0,9999,0,0,0,
2026-04-15 10:30:00,METAR LEMD 151030Z 20004KT 120V260 CAVOK 19/07 Q1022 NOSIG,1,0,0,9999,0,0,0,
2026-04-15 10:00:00,METAR LEMD 151000Z 13002KT CAVOK 18/07 Q1023 NOSIG,1,0,0,9999,0,0,0,
2026-04-15 09:30:00,METAR LEMD 150930Z 19001KT CAVOK 16/07 Q1023 NOSIG,1,0,0,9999,0,0,0,
2026-04-15 09:00:00,METAR LEMD 150900Z VRB02KT CAVOK 15/07 Q1023 NOSIG,1,0,0,9999,0,0,0,
2026-04-15 08:30:00,METAR LEMD 150830Z 22002KT CAVOK 14/07 Q1023 NOSIG,1,0,0,9999,0,0,0,
2026-04-15 08:00:00,METAR LEMD 150800Z 01001KT CAVOK 13/06 Q1023 NOSIG,1,0,0,9999,0,0,0,
2026-04-15 07:30:00,METAR LEMD 150730Z VRB02KT CAVOK 10/06 Q1023 NOSIG,1,0,0,9999,0,0,0,
2026-04-15 07:00:00,METAR LEMD 150700Z VRB02KT CAVOK 09/06 Q1022 NOSIG,1,0,0,9999,0,0,0,
2026-04-15 06:30:00,METAR LEMD 150630Z 01001KT CAVOK 08/05 Q1022 NOSIG,1,0,0,9999,0,0,0,
2026-04-15 06:00:00,METAR LEMD 150600Z 01002KT CAVOK 07/05 Q1022 NOSIG,1,0,0,9999,0,0,0,
2026-04-15 05:30:00,METAR LEMD 150530Z VRB02KT CAVOK 06/05 Q1022 NOSIG,1,0,0,9999,0,0,0,
2026-04-15 05:00:00,METAR LEMD 150500Z 34002KT CAVOK 07/05 Q1021 NOSIG,1,0,0,9999,0,0,0,
2026-04-15 04:30:00,METAR LEMD 150430Z 35002KT CAVOK 07/05 Q1021 NOSIG,1,0,0,9999,0,0,0,
2026-04-15 04:00:00,METAR LEMD 150400Z 01003KT CAVOK 08/05 Q1021 NOSIG,1,0,0,9999,0,0,0,
2026-04-15 03:30:00,METAR LEMD 150330Z 36003KT CAVOK 08/05 Q1021 NOSIG,1,0,0,9999,0,0,0,
2026-04-15 03:00:00,METAR LEMD 150300Z 02004KT 350V050 CAVOK 08/05 Q1021 NOSIG,1,0,0,9999,0,0,0,
2026-04-15 02:30:00,METAR LEMD 150230Z 36002KT CAVOK 08/05 Q1022 NOSIG,1,0,0,9999,0,0,0,
2026-04-15 02:00:00,METAR LEMD 150200Z VRB01KT CAVOK 09/05 Q1021 NOSIG,1,0,0,9999,0,0,0,
2026-04-15 01:30:00,METAR LEMD 150130Z VRB02KT CAVOK 10/05 Q1022 NOSIG,1,0,0,9999,0,0,0,
2026-04-15 01:00:00,METAR LEMD 150100Z 13004KT CAVOK 11/05 Q1022 NOSIG,1,0,0,9999,0,0,0,
2026-04-15 00:30:00,METAR LEMD 150030Z VRB01KT CAVOK 11/05 Q1022 NOSIG,1,0,0,9999,0,0,0,
2026-04-15 00:00:00,METAR LEMD 150000Z VRB02KT CAVOK 10/05 Q1022 NOSIG,1,0,0,9999,0,0,0,
2026-04-14 23:30:00,METAR LEMD 142330Z VRB02KT CAVOK 11/05 Q1022 NOSIG,1,0,0,9999,0,0,0,
2026-04-14 23:00:00,METAR LEMD 142300Z VRB01KT CAVOK 12/05 Q1022 NOSIG,1,0,0,9999,0,0,0,
2026-04-14 22:30:00,METAR LEMD 142230Z VRB02KT CAVOK 12/05 Q1022 NOSIG,1,0,0,9999,0,0,0,
2026-04-14 22:00:00,METAR LEMD 142200Z VRB02KT 9999 FEW080 13/05 Q1021 NOSIG,0,2,0,10000,0,0,0,
2026-04-14 21:30:00,METAR LEMD 142130Z 32005KT CAVOK 13/05 Q1021 NOSIG,1,0,0,9999,0,0,0,
2026-04-14 21:00:00,METAR LEMD 142100Z 33004KT CAVOK 14/05 Q1021 NOSIG,1,0,0,9999,0,0,0,
2026-04-14 20:30:00,METAR LEMD 142030Z 35004KT CAVOK 15/05 Q1021 NOSIG,1,0,0,9999,0,0,0,
2026-04-14 20:00:00,METAR LEMD 142000Z 36004KT 340V050 9999 FEW080 16/05 Q1020 NOSIG,0,4,0,10000,0,0,0,
2026-04-14 19:30:00,METAR LEMD 141930Z 35006KT 9999 FEW080 17/05 Q1020 NOSIG,0,6,0,10000,0,0,0,
2026-04-14 19:00:00,METAR LEMD 141900Z 35006KT 9999 FEW075 18/04 Q1020 NOSIG,0,6,0,10000,0,0,0,
2026-04-14 18:30:00,METAR LEMD 141830Z 34006KT 290V020 9999 FEW075 19/04 Q1019 NOSIG,0,6,0,10000,0,0,0,
2026-04-14 18:00:00,METAR LEMD 141800Z 34008KT 310V030 9999 FEW070 20/03 Q1019 NOSIG,0,8,0,10000,0,0,0,
2026-04-14 17:30:00,METAR LEMD 141730Z 34008KT 300V020 9999 FEW075 20/03 Q1019 NOSIG,0,8,0,10000,0,0,0,
2026-04-14 17:00:00,METAR LEMD 141700Z 33007KT 280V030 9999 FEW075 21/03 Q1019 NOSIG,0,7,0,10000,0,0,0,
2026-04-14 16:30:00,METAR LEMD 141630Z 36008KT 320V050 9999 FEW077 21/02 Q1019 NOSIG,0,8,0,10000,0,0,0,
2026-04-14 16:00:00,METAR LEMD 141600Z 36010KT 330V040 9999 FEW074 21/02 Q1019 NOSIG,0,10,0,10000,0,0,0,
2026-04-14 15:30:00,METAR LEMD 141530Z 36009KT 330V110 9999 FEW070 21/03 Q1019 NOSIG,0,9,0,10000,0,0,0,
2026-04-14 15:00:00,METAR LEMD 141500Z 02008KT 330V080 9999 SCT070 21/02 Q1019 NOSIG,0,8,0,10000,0,0,0,
2026-04-14 14:30:00,METAR LEMD 141430Z 34009KT 310V030 9999 SCT065 21/04 Q1020 NOSIG,0,9,0,10000,0,0,0,
2026-04-14 14:00:00,METAR LEMD 141400Z 34010KT 270V040 9999 SCT060 20/05 Q1020 NOSIG,0,10,0,10000,0,0,0,
2026-04-14 13:30:00,METAR LEMD 141330Z 35008KT 320V050 9999 SCT057 19/04 Q1020 NOSIG,0,8,0,10000,0,0,0,
2026-04-14 13:00:00,METAR LEMD 141300Z 03007KT 340V080 9999 SCT055 19/04 Q1020 NOSIG,0,7,0,10000,0,0,0,
2026-04-14 12:30:00,METAR LEMD 141230Z 35009KT 310V070 9999 SCT055 19/04 Q1021 NOSIG,0,9,0,10000,0,0,0,
2026-04-14 12:00:00,METAR LEMD 141200Z 34005KT 270V070 9999 SCT050 19/07 Q1021 NOSIG,0,5,0,10000,0,0,0,
2026-04-14 11:30:00,METAR LEMD 141130Z 03004KT 9999 SCT050 18/05 Q1021 NOSIG,0,4,0,10000,0,0,0,
2026-04-14 11:00:00,METAR LEMD 141100Z 28004KT 9999 FEW048 17/04 Q1021 NOSIG,0,4,0,10000,0,0,0,
2026-04-14 10:30:00,METAR LEMD 141030Z 32003KT 250V060 9999 FEW048 16/05 Q1021 NOSIG,0,3,0,10000,0,0,0,
2026-04-14 10:00:00,METAR LEMD 141000Z 31003KT 9999 FEW080 15/05 Q1021 NOSIG,0,3,0,10000,0,0,0,
2026-04-14 09:30:00,METAR LEMD 140930Z 17003KT CAVOK 15/05 Q1021 NOSIG,1,0,0,9999,0,0,0,
2026-04-14 09:00:00,METAR LEMD 140900Z VRB02KT 9999 FEW080 13/04 Q1021 NOSIG,0,2,0,10000,0,0,0,
2026-04-14 08:30:00,METAR LEMD 140830Z 31001KT CAVOK 13/04 Q1021 NOSIG,1,0,0,9999,0,0,0,
2026-04-14 08:00:00,METAR LEMD 140800Z VRB01KT 9999 SCT080 10/04 Q1021 NOSIG,0,1,0,10000,0,0,0,
2026-04-14 07:30:00,METAR LEMD 140730Z VRB02KT 9999 SCT080 08/04 Q1021 NOSIG,0,2,0,10000,0,0,0,
2026-04-14 07:00:00,METAR LEMD 140700Z VRB02KT 9999 SCT080 07/03 Q1021 NOSIG,0,2,0,10000,0,0,0,
2026-04-14 06:30:00,METAR LEMD 140630Z 17001KT 9999 SCT080 06/03 Q1021 NOSIG,0,1,0,10000,0,0,0,
2026-04-14 06:00:00,METAR LEMD 140600Z 17003KT 110V250 9999 SCT070 05/02 Q1020 NOSIG,0,3,0,10000,0,0,0,
2026-04-14 05:30:00,METAR LEMD 140530Z VRB02KT 9999 SCT055 05/02 Q1020 NOSIG,0,2,0,10000,0,0,0,
2026-04-14 05:00:00,METAR LEMD 140500Z VRB02KT 9999 SCT055 05/02 Q1020 NOSIG,0,2,0,10000,0,0,0,
2026-04-14 04:30:00,METAR LEMD 140430Z VRB02KT 9999 SCT060 05/02 Q1020 NOSIG,0,2,0,10000,0,0,0,
2026-04-14 04:00:00,METAR LEMD 140400Z VRB02KT 9999 SCT060 05/02 Q1019 NOSIG,0,2,0,10000,0,0,0,
2026-04-14 03:30:00,METAR LEMD 140330Z VRB02KT 9999 SCT060 06/01 Q1019 NOSIG,0,2,0,10000,0,0,0,
2026-04-14 03:00:00,METAR LEMD 140300Z 13003KT 9999 FEW060 05/02 Q1019 NOSIG,0,3,0,10000,0,0,0,
2026-04-14 02:30:00,METAR LEMD 140230Z 14002KT 9999 FEW050 07/03 Q1019 NOSIG,0,2,0,10000,0,0,0,
2026-04-14 02:00:00,METAR LEMD 140200Z 30003KT 250V010 9999 FEW055 09/03 Q1019 NOSIG,0,3,0,10000,0,0,0,
2026-04-14 01:30:00,METAR LEMD 140130Z 33005KT CAVOK 08/03 Q1019 NOSIG,1,0,0,9999,0,0,0,
2026-04-14 01:00:00,METAR LEMD 140100Z 34004KT CAVOK 09/03 Q1019 NOSIG,1,0,0,9999,0,0,0,
2026-04-14 00:30:00,METAR LEMD 140030Z 28006KT CAVOK 10/03 Q1019 NOSIG,1,0,0,9999,0,0,0,
2026-04-14 00:00:00,METAR LEMD 140000Z 26005KT 230V010 9999 FEW065 10/03 Q1019 NOSIG,0,5,0,10000,0,0,0,
2026-04-13 23:30:00,METAR LEMD 132330Z 27011KT 9999 FEW065 11/03 Q1019 NOSIG,0,11,0,10000,0,0,0,
2026-04-13 23:00:00,METAR LEMD 132300Z 32005KT 270V080 9999 FEW065 09/01 Q1019 NOSIG,0,5,0,10000,0,0,0,
2026-04-13 22:30:00,METAR LEMD 132230Z VRB02KT 9999 FEW070 07/M00 Q1019 NOSIG,0,2,0,10000,0,0,0,
2026-04-13 22:00:00,METAR LEMD 132200Z VRB01KT 9999 FEW070 08/M01 Q1018 NOSIG,0,1,0,10000,0,0,0,
2026-04-13 21:30:00,METAR LEMD 132130Z VRB02KT 9999 FEW070 08/M01 Q1018 NOSIG,0,2,0,10000,0,0,0,
2026-04-13 21:00:00,METAR LEMD 132100Z 00000KT 9999 FEW076 09/M02 Q1018 NOSIG,0,0,0,10000,0,0,0,
2026-04-13 20:30:00,METAR LEMD 132030Z VRB01KT 9999 FEW075 09/M02 Q1018 NOSIG,0,1,0,10000,0,0,0,
2026-04-13 20:00:00,METAR LEMD 132000Z 10002KT CAVOK 09/M02 Q1018 NOSIG,1,0,0,9999,0,0,0,
2026-04-13 19:30:00,METAR LEMD 131930Z VRB02KT CAVOK 09/M02 Q1017 NOSIG,1,0,0,9999,0,0,0,
2026-04-13 19:00:00,METAR LEMD 131900Z 34003KT 300V360 9999 FEW080 12/M02 Q1017 NOSIG,0,3,0,10000,0,0,0,
2026-04-13 18:30:00,METAR LEMD 131830Z 30006KT 9999 FEW080 13/M03 Q1016 NOSIG,0,6,0,10000,0,0,0,
2026-04-13 18:00:00,METAR LEMD 131800Z 30011KT 9999 SCT075 14/M03 Q1016 NOSIG,0,11,0,10000,0,0,0,
2026-04-13 17:30:00,METAR LEMD 131730Z 31009KT 290V350 9999 SCT076 14/M03 Q1016 NOSIG,0,9,0,10000,0,0,0,
2026-04-13 17:00:00,METAR LEMD 131700Z 32010KT 290V350 9999 SCT074 15/M03 Q1016 NOSIG,0,10,0,10000,0,0,0,
2026-04-13 16:30:00,METAR LEMD 131630Z 29008KT 250V310 9999 SCT075 15/M03 Q1016 NOSIG,0,8,0,10000,0,0,0,
2026-04-13 16:00:00,METAR LEMD 131600Z 30009KT 270V340 9999 SCT075 15/M03 Q1016 NOSIG,0,9,0,10000,0,0,0,
2026-04-13 15:30:00,METAR LEMD 131530Z 32013KT 290V360 9999 SCT070 14/M03 Q1016 NOSIG,0,13,0,10000,0,0,0,
2026-04-13 15:00:00,METAR LEMD 131500Z 32011KT 290V350 9999 SCT070 15/M03 Q1016 NOSIG,0,11,0,10000,0,0,0,
2026-04-13 14:30:00,METAR LEMD 131430Z 30012KT 260V340 9999 SCT070 15/M02 Q1016 NOSIG,0,12,0,10000,0,0,0,
2026-04-13 14:00:00,METAR LEMD 131400Z 32012KT 9999 SCT070 15/M01 Q1016 NOSIG,0,12,0,10000,0,0,0,
2026-04-13 13:30:00,METAR LEMD 131330Z 32014KT 280V340 9999 SCT066 15/M03 Q1016 NOSIG,0,14,0,10000,0,0,0,
2026-04-13 13:00:00,METAR LEMD 131300Z 33010KT 9999 SCT060 14/M02 Q1016 NOSIG,0,10,0,10000,0,0,0,
2026-04-13 12:30:00,METAR LEMD 131230Z 30011KT 280V340 9999 SCT060 14/M01 Q1016 NOSIG,0,11,0,10000,0,0,0,
2026-04-13 12:00:00,METAR LEMD 131200Z 30009KT 180V350 9999 SCT058 13/M01 Q1016 NOSIG,0,9,0,10000,0,0,0,
2026-04-13 11:30:00,METAR LEMD 131130Z 33010KT 290V020 9999 SCT055 13/M01 Q1016 NOSIG,0,10,0,10000,0,0,0,
2026-04-13 11:00:00,METAR LEMD 131100Z 31009KT 260V010 9999 SCT055 12/M01 Q1016 NOSIG,0,9,0,10000,0,0,0,
2026-04-13 10:30:00,METAR LEMD 131030Z 31008KT 250V350 9999 SCT055 11/M02 Q1016 NOSIG,0,8,0,10000,0,0,0,
2026-04-13 10:00:00,METAR LEMD 131000Z 33007KT 270V040 9999 SCT055 11/M02 Q1016 NOSIG,0,7,0,10000,0,0,0,
2026-04-13 09:30:00,METAR LEMD 130930Z 10003KT 9999 FEW055 11/M01 Q1016 NOSIG,0,3,0,10000,0,0,0,
2026-04-13 09:00:00,METAR LEMD 130900Z 04001KT 9999 FEW050 11/M02 Q1016 NOSIG,0,1,0,10000,0,0,0,
2026-04-13 08:30:00,METAR LEMD 130830Z 33003KT CAVOK 10/M02 Q1016 NOSIG,1,0,0,9999,0,0,0,
2026-04-13 08:00:00,METAR LEMD 130800Z 34004KT 300V020 CAVOK 08/M02 Q1016 NOSIG,1,0,0,9999,0,0,0,
2026-04-13 07:30:00,METAR LEMD 130730Z 02003KT 330V070 CAVOK 07/M01 Q1016 NOSIG,1,0,0,9999,0,0,0,
2026-04-13 07:00:00,METAR LEMD 130700Z 36003KT 340V040 CAVOK 06/M01 Q1016 NOSIG,1,0,0,9999,0,0,0,
2026-04-13 06:30:00,METAR LEMD 130630Z 34003KT 310V020 CAVOK 05/M01 Q1015 NOSIG,1,0,0,9999,0,0,0,
2026-04-13 06:00:00,METAR LEMD 130600Z 01004KT 330V050 CAVOK 05/M02 Q1015 NOSIG,1,0,0,9999,0,0,0,
2026-04-13 05:30:00,METAR LEMD 130530Z 36006KT 330V040 CAVOK 05/M01 Q1015 NOSIG,1,0,0,9999,0,0,0,
2026-04-13 05:00:00,METAR LEMD 130500Z 36005KT 310V040 9999 FEW055 05/M02 Q1015 NOSIG,0,5,0,10000,0,0,0,
2026-04-13 04:30:00,METAR LEMD 130430Z 01005KT 340V040 9999 FEW060 05/M02 Q1014 NOSIG,0,5,0,10000,0,0,0,
2026-04-13 04:00:00,METAR LEMD 130400Z 34007KT 9999 FEW060 06/M02 Q1014 NOSIG,0,7,0,10000,0,0,0,
2026-04-13 03:30:00,METAR LEMD 130330Z 35010KT 320V020 9999 FEW055 06/M01 Q1014 NOSIG,0,10,0,10000,0,0,0,
2026-04-13 03:00:00,METAR LEMD 130300Z 36008KT 330V030 9999 FEW056 06/M01 Q1014 NOSIG,0,8,0,10000,0,0,0,
2026-04-13 02:30:00,METAR LEMD 130230Z 36010KT 330V030 9999 FEW056 06/M01 Q1014 NOSIG,0,10,0,10000,0,0,0,
2026-04-13 02:00:00,METAR LEMD 130200Z 36007KT 330V030 CAVOK 06/M01 Q1014 NOSIG,1,0,0,9999,0,0,0,
2026-04-13 01:30:00,METAR LEMD 130130Z 35009KT CAVOK 07/M02 Q1014 NOSIG,1,0,0,9999,0,0,0,
2026-04-13 01:00:00,METAR LEMD 130100Z 01007KT 330V050 9999 FEW080 07/M01 Q1014 NOSIG,0,7,0,10000,0,0,0,
2026-04-13 00:30:00,METAR LEMD 130030Z 33003KT 9999 FEW080 06/M01 Q1014 NOSIG,0,3,0,10000,0,0,0,
2026-04-13 00:00:00,METAR LEMD 130000Z 36005KT 9999 FEW070 SCT080 07/M01 Q1014 NOSIG,0,5,0,10000,0,0,0,
2026-04-12 23:30:00,METAR LEMD 122330Z 36005KT 340V040 CAVOK 07/M01 Q1014 NOSIG,1,0,0,9999,0,0,0,
2026-04-12 23:00:00,METAR LEMD 122300Z 36007KT 340V040 9999 FEW080 08/M02 Q1013 NOSIG,0,7,0,10000,0,0,0,
2026-04-12 22:30:00,METAR LEMD 122230Z 36007KT 310V050 9999 FEW080 09/M01 Q1013 NOSIG,0,7,0,10000,0,0,0,
2026-04-12 22:00:00,METAR LEMD 122200Z 35010KT CAVOK 09/M01 Q1013 NOSIG,1,0,0,9999,0,0,0,
2026-04-12 21:30:00,METAR LEMD 122130Z 36010KT 330V040 9999 FEW080 10/M00 Q1013 NOSIG,0,10,0,10000,0,0,0,
2026-04-12 21:00:00,METAR LEMD 122100Z 01007KT 330V060 9999 SCT080 11/M00 Q1012 NOSIG,0,7,0,10000,0,0,0,
2026-04-12 20:30:00,METAR LEMD 122030Z 36007KT 320V040 9999 SCT070 BKN080 11/00 Q1012 NOSIG,0,7,0,10000,0,0,0,
2026-04-12 20:00:00,METAR LEMD 122000Z 01006KT 310V080 9999 SCT060 SCT075 12/M00 Q1012 NOSIG,0,6,0,10000,0,0,0,
2026-04-12 19:30:00,METAR LEMD 121930Z 01008KT 330V050 9999 SCT060 SCT075 12/M01 Q1012 NOSIG,0,8,0,10000,0,0,0,
2026-04-12 19:00:00,METAR LEMD 121900Z 36009KT 330V040 9999 BKN075 12/M01 Q1011 NOSIG,0,9,0,10000,0,0,0,
2026-04-12 18:30:00,METAR LEMD 121830Z 36010KT 330V030 9999 SCT070 BKN080 12/01 Q1011 NOSIG,0,10,0,10000,0,0,0,
2026-04-12 18:00:00,METAR LEMD 121800Z 36008KT 330V080 9999 SCT060 BKN070 13/01 Q1010 NOSIG,0,8,0,10000,0,0,0,
2026-04-12 17:30:00,METAR LEMD 121730Z 01010KT 310V040 9999 BKN060 13/01 Q1010 NOSIG,0,10,0,10000,0,0,0,
2026-04-12 17:00:00,METAR LEMD 121700Z 36010KT 330V050 9999 BKN055 13/01 Q1010 NOSIG,0,10,0,10000,0,0,0,
2026-04-12 16:30:00,METAR LEMD 121630Z 36011KT 320V030 9999 BKN050 13/02 Q1010 TEMPO RA,0,11,0,10000,0,0,0,RA
2026-04-12 16:00:00,METAR LEMD 121600Z 01014KT 340V040 9999 FEW035TCU BKN050 13/03 Q1010 TEMPO RA,0,14,0,10000,0,0,0,RA
2026-04-12 15:00:00,METAR LEMD 121500Z 01007KT 320V070 9999 BKN055 BKN065 15/03 Q1010 TEMPO RA,0,7,0,10000,0,0,0,RA
2026-04-12 14:30:00,METAR LEMD 121430Z 01009KT 330V050 9999 BKN055 14/04 Q1010 NOSIG,0,9,0,10000,0,0,0,
2026-04-12 14:00:00,METAR LEMD 121400Z 01009KT 340V090 9999 BKN055 SCT070 15/04 Q1010 NOSIG,0,9,0,10000,0,0,0,
2026-04-12 13:30:00,METAR LEMD 121330Z 01010KT 340V070 9999 BKN050 BKN060 15/05 Q1010 NOSIG,0,10,0,10000,0,0,0,
2026-04-12 13:00:00,METAR LEMD 121300Z 02008KT 330V070 9999 SCT048 BKN055 16/06 Q1011 NOSIG,0,8,0,10000,0,0,0,
2026-04-12 12:30:00,METAR LEMD 121230Z 03006KT 320V100 9999 FEW040 BKN050 15/08 Q1011 NOSIG,0,6,0,10000,0,0,0,
2026-04-12 12:00:00,METAR LEMD 121200Z 05008KT 330V120 9999 FEW035 BKN048 14/07 Q1011 NOSIG,0,8,0,10000,0,0,0,
2026-04-12 11:30:00,METAR LEMD 121130Z 03006KT 340V100 9999 FEW029 BKN040 BKN060 14/09 Q1011 NOSIG,0,6,0,10000,0,0,0,
2026-04-12 11:00:00,METAR LEMD 121100Z 04005KT 340V130 9999 FEW023 BKN038 14/09 Q1012 NOSIG,0,5,0,10000,0,0,0,
2026-04-12 10:30:00,METAR LEMD 121030Z 04005KT 320V120 9999 BKN035 BKN050 15/09 Q1012 NOSIG,0,5,0,10000,0,0,0,
2026-04-12 10:00:00,METAR LEMD 121000Z 05005KT 350V110 9999 BKN035 BKN050 14/08 Q1012 NOSIG,0,5,0,10000,0,0,0,
2026-04-12 09:30:00,METAR LEMD 120930Z 04004KT 350V090 9999 BKN040 SCT060 13/09 Q1012 NOSIG,0,4,0,10000,0,0,0,
2026-04-12 09:00:00,METAR LEMD 120900Z 04005KT 350V100 9999 SCT040 SCT055 13/09 Q1012 NOSIG,0,5,0,10000,0,0,0,
2026-04-12 08:30:00,METAR LEMD 120830Z 03004KT 330V080 9999 FEW050 SCT077 13/09 Q1011 NOSIG,0,4,0,10000,0,0,0,
2026-04-12 08:00:00,METAR LEMD 120800Z 04004KT 330V110 9999 FEW045TCU SCT060 12/08 Q1011 NOSIG,0,4,0,10000,0,0,0,
2026-04-12 07:30:00,METAR LEMD 120730Z 02003KT 340V090 9999 FEW040TCU SCT045 BKN060 12/08 Q1011 NOSIG,0,3,0,10000,0,0,0,
2026-04-12 07:00:00,METAR LEMD 120700Z 34005KT 280V040 9999 FEW045TCU BKN050 12/08 Q1011 NOSIG,0,5,0,10000,0,0,0,
2026-04-12 06:30:00,METAR LEMD 120630Z 36005KT 310V070 9999 FEW050TCU SCT056 BKN070 11/08 Q1011 NOSIG,0,5,0,10000,0,0,0,
2026-04-12 06:00:00,METAR LEMD 120600Z 36005KT 320V040 9999 BKN060 11/08 Q1011 NOSIG,0,5,0,10000,0,0,0,
2026-04-12 05:30:00,METAR LEMD 120530Z 36005KT 330V030 9999 BKN065 11/08 Q1011 NOSIG,0,5,0,10000,0,0,0,
2026-04-12 05:00:00,METAR LEMD 120500Z 35006KT 310V040 9999 FEW060 BKN068 11/08 Q1011 NOSIG,0,6,0,10000,0,0,0,
2026-04-12 04:30:00,METAR LEMD 120430Z 36005KT 9999 BKN065 11/08 Q1011 NOSIG,0,5,0,10000,0,0,0,
2026-04-12 04:00:00,METAR LEMD 120400Z 35007KT 310V010 9999 FEW065 SCT070 11/08 Q1011 NOSIG,0,7,0,10000,0,0,0,
2026-04-12 03:30:00,METAR LEMD 120330Z 35004KT 320V020 9999 SCT070 SCT079 11/08 Q1011 NOSIG,0,4,0,10000,0,0,0,
2026-04-12 03:00:00,METAR LEMD 120300Z 33003KT 260V060 9999 BKN075 11/09 Q1011 NOSIG,0,3,0,10000,0,0,0,
2026-04-12 02:30:00,METAR LEMD 120230Z 05005KT 9999 SCT075 11/08 Q1011 NOSIG,0,5,0,10000,0,0,0,
2026-04-12 02:00:00,METAR LEMD 120200Z 01006KT 330V090 9999 FEW050 BKN075 12/09 Q1011 NOSIG,0,6,0,10000,0,0,0,
2026-04-12 01:30:00,METAR LEMD 120130Z 04007KT 330V110 9999 FEW050 BKN075 12/10 Q1011 RERA NOSIG,0,7,0,10000,0,0,0,RA
2026-04-12 01:13:00,SPECI LEMD 120113Z 04008KT 340V120 9999 -RA SCT045 BKN075 12/10 Q1011 RERA NOSIG,0,8,0,10000,0,0,0,"-RA,RA"
2026-04-12 01:00:00,METAR LEMD 120100Z 03008G18KT 310V070 6000 RA SCT040 BKN075 12/10 Q1011 BECMG NSW,0,8,1,6000,0,0,0,RA
2026-04-12 00:51:00,SPECI LEMD 120051Z 03007G18KT 310V100 7000 RA SCT040 BKN075 13/09 Q1012 BECMG NSW,0,7,1,7000,0,0,0,RA
2026-04-12 00:30:00,METAR LEMD 120030Z 04006KT 330V100 9999 -DZ SCT040 BKN075 13/09 Q1011 TEMPO 4000 RA,0,6,0,10000,0,0,0,"DZ,RA"
2026-04-12 00:00:00,METAR LEMD 120000Z 02005KT 340V100 9999 -DZ FEW040TCU BKN080 14/09 Q1011 TEMPO 4000 RA,0,5,0,10000,0,0,0,"DZ,RA"
2026-04-11 23:30:00,METAR LEMD 112330Z 01009KT 330V070 9999 FEW040TCU SCT075 15/08 Q1011 TEMPO 4000 RA,0,9,0,10000,0,0,0,RA
2026-04-11 23:00:00,METAR LEMD 112300Z 35011KT 320V020 9999 FEW040TCU BKN075 15/08 Q1011 TEMPO 4000 RA,0,11,0,10000,0,0,0,RA
2026-04-11 22:30:00,METAR LEMD 112230Z 35010KT 9999 FEW040TCU BKN075 15/09 Q1011 NOSIG,0,10,0,10000,0,0,0,
2026-04-11 22:00:00,METAR LEMD 112200Z 36007KT 310V070 9999 FEW040TCU BKN080 16/09 Q1011 NOSIG,0,7,0,10000,0,0,0,
2026-04-11 21:30:00,METAR LEMD 112130Z 01006KT 290V080 9999 FEW040TCU 16/09 Q1011 NOSIG,0,6,0,10000,0,0,0,
2026-04-11 21:00:00,METAR LEMD 112100Z 04004KT 9999 FEW050TCU 17/08 Q1011 NOSIG,0,4,0,10000,0,0,0,
2026-04-11 20:30:00,METAR LEMD 112030Z 36008G18KT 330V060 9999 FEW050TCU 17/08 Q1011 NOSIG,0,8,1,10000,0,0,0,
2026-04-11 20:00:00,METAR LEMD 112000Z 03009KT 340V080 9999 FEW050TCU 18/08 Q1010 NOSIG,0,9,0,10000,0,0,0,
2026-04-11 19:30:00,METAR LEMD 111930Z 03008KT 330V090 9999 FEW050TCU 19/09 Q1010 NOSIG,0,8,0,10000,0,0,0,
2026-04-11 19:00:00,METAR LEMD 111900Z 35006KT 9000 NSC 20/07 Q1009 NOSIG,0,6,0,9000,0,0,0,
2026-04-11 18:30:00,METAR LEMD 111830Z 36005KT 340V040 9000 NSC 20/08 Q1009 NOSIG,0,5,0,9000,0,0,0,
2026-04-11 18:00:00,METAR LEMD 111800Z 01005KT 330V060 9000 NSC 21/08 Q1009 NOSIG,0,5,0,9000,0,0,0,
2026-04-11 17:30:00,METAR LEMD 111730Z 34005KT 310V010 8000 NSC 22/06 Q1009 NOSIG,0,5,0,8000,0,0,0,
2026-04-11 17:00:00,METAR LEMD 111700Z 33007KT 300V360 8000 NSC 22/05 Q1009 NOSIG,0,7,0,8000,0,0,0,
2026-04-11 16:30:00,METAR LEMD 111630Z 34008KT 300V020 9000 NSC 22/06 Q1009 NOSIG,0,8,0,9000,0,0,0,
2026-04-11 16:00:00,METAR LEMD 111600Z 34009KT 300V010 9000 NSC 22/06 Q1009 NOSIG,0,9,0,9000,0,0,0,
2026-04-11 15:30:00,METAR LEMD 111530Z 32010KT CAVOK 22/06 Q1009 NOSIG,1,0,0,9999,0,0,0,
2026-04-11 15:00:00,METAR LEMD 111500Z 35011KT CAVOK 23/06 Q1010 NOSIG,1,0,0,9999,0,0,0,
2026-04-11 14:30:00,METAR LEMD 111430Z 01004KT 340V070 9999 FEW075 22/05 Q1010 NOSIG,0,4,0,10000,0,0,0,
2026-04-11 14:00:00,METAR LEMD 111400Z 35001KT 9999 FEW075 22/05 Q1011 NOSIG,0,1,0,10000,0,0,0,
2026-04-11 13:30:00,METAR LEMD 111330Z 00000KT 9999 FEW080 22/06 Q1011 NOSIG,0,0,0,10000,0,0,0,
2026-04-11 13:00:00,METAR LEMD 111300Z 22004KT 170V270 CAVOK 21/04 Q1011 NOSIG,1,0,0,9999,0,0,0,
2026-04-11 12:30:00,METAR LEMD 111230Z 19003KT 130V290 CAVOK 21/04 Q1012 NOSIG,1,0,0,9999,0,0,0,
2026-04-11 12:00:00,METAR LEMD 111200Z VRB02KT CAVOK 21/04 Q1012 NOSIG,1,0,0,9999,0,0,0,
2026-04-11 11:30:00,METAR LEMD 111130Z 10003KT CAVOK 21/04 Q1011 NOSIG,1,0,0,9999,0,0,0,
2026-04-11 11:00:00,METAR LEMD 111100Z 08004KT 030V160 CAVOK 21/04 Q1012 NOSIG,1,0,0,9999,0,0,0,
2026-04-11 10:30:00,METAR LEMD 111030Z 18001KT CAVOK 20/07 Q1012 NOSIG,1,0,0,9999,0,0,0,
2026-04-11 10:00:00,METAR LEMD 111000Z 04003KT 330V110 CAVOK 19/07 Q1012 NOSIG,1,0,0,9999,0,0,0,
2026-04-11 09:30:00,METAR LEMD 110930Z VRB02KT CAVOK 17/07 Q1012 NOSIG,1,0,0,9999,0,0,0,
2026-04-11 09:00:00,METAR LEMD 110900Z VRB02KT CAVOK 16/06 Q1012 NOSIG,1,0,0,9999,0,0,0,
2026-04-11 08:30:00,METAR LEMD 110830Z 02001KT CAVOK 15/06 Q1012 NOSIG,1,0,0,9999,0,0,0,
2026-04-11 08:00:00,METAR LEMD 110800Z 27001KT CAVOK 14/06 Q1012 NOSIG,1,0,0,9999,0,0,0,
2026-04-11 07:30:00,METAR LEMD 110730Z 35003KT 320V030 CAVOK 13/06 Q1012 NOSIG,1,0,0,9999,0,0,0,
2026-04-11 07:00:00,METAR LEMD 110700Z 34004KT 300V020 CAVOK 11/06 Q1012 NOSIG,1,0,0,9999,0,0,0,
2026-04-11 06:30:00,METAR LEMD 110630Z 34003KT 310V010 CAVOK 11/06 Q1013 NOSIG,1,0,0,9999,0,0,0,
2026-04-11 06:00:00,METAR LEMD 110600Z 32005KT 290V350 CAVOK 10/06 Q1012 NOSIG,1,0,0,9999,0,0,0,
2026-04-11 05:30:00,METAR LEMD 110530Z 35004KT CAVOK 11/05 Q1012 NOSIG,1,0,0,9999,0,0,0,
2026-04-11 05:00:00,METAR LEMD 110500Z 35003KT CAVOK 11/06 Q1013 NOSIG,1,0,0,9999,0,0,0,
2026-04-11 04:30:00,METAR LEMD 110430Z 36003KT 340V040 CAVOK 12/06 Q1013 NOSIG,1,0,0,9999,0,0,0,
2026-04-11 04:00:00,METAR LEMD 110400Z VRB02KT CAVOK 12/06 Q1013 NOSIG,1,0,0,9999,0,0,0,
2026-04-11 03:30:00,METAR LEMD 110330Z 32007KT CAVOK 13/06 Q1012 NOSIG,1,0,0,9999,0,0,0,
2026-04-11 03:00:00,METAR LEMD 110300Z 31007KT CAVOK 12/06 Q1013 NOSIG,1,0,0,9999,0,0,0,
2026-04-11 02:30:00,METAR LEMD 110230Z 33005KT 300V010 CAVOK 13/06 Q1013 NOSIG,1,0,0,9999,0,0,0,
2026-04-11 02:00:00,METAR LEMD 110200Z 33006KT CAVOK 13/06 Q1013 NOSIG,1,0,0,9999,0,0,0,
2026-04-11 01:30:00,METAR LEMD 110130Z 32005KT CAVOK 12/07 Q1013 NOSIG,1,0,0,9999,0,0,0,
2026-04-11 01:00:00,METAR LEMD 110100Z 34003KT CAVOK 13/06 Q1013 NOSIG,1,0,0,9999,0,0,0,
2026-04-11 00:30:00,METAR LEMD 110030Z 31007KT CAVOK 14/06 Q1014 NOSIG,1,0,0,9999,0,0,0,
2026-04-11 00:00:00,METAR LEMD 110000Z 34003KT 310V010 CAVOK 14/07 Q1013 NOSIG,1,0,0,9999,0,0,0,
2026-04-10 23:30:00,METAR LEMD 102330Z 01006KT CAVOK 16/07 Q1014 NOSIG,1,0,0,9999,0,0,0,
2026-04-10 23:00:00,METAR LEMD 102300Z 35004KT 330V030 CAVOK 16/06 Q1014 NOSIG,1,0,0,9999,0,0,0,
2026-04-10 22:30:00,METAR LEMD 102230Z 34004KT CAVOK 17/06 Q1014 NOSIG,1,0,0,9999,0,0,0,
2026-04-10 22:00:00,METAR LEMD 102200Z 02003KT 350V070 CAVOK 18/06 Q1014 NOSIG,1,0,0,9999,0,0,0,
2026-04-10 21:30:00,METAR LEMD 102130Z 13002KT CAVOK 19/05 Q1014 NOSIG,1,0,0,9999,0,0,0,
2026-04-10 21:00:00,METAR LEMD 102100Z 13002KT CAVOK 20/04 Q1014 NOSIG,1,0,0,9999,0,0,0,
2026-04-10 20:30:00,METAR LEMD 102030Z VRB01KT CAVOK 20/03 Q1014 NOSIG,1,0,0,9999,0,0,0,
2026-04-10 20:00:00,METAR LEMD 102000Z VRB02KT CAVOK 20/04 Q1014 NOSIG,1,0,0,9999,0,0,0,
2026-04-10 19:30:00,METAR LEMD 101930Z 15004KT 110V190 CAVOK 22/03 Q1014 NOSIG,1,0,0,9999,0,0,0,
2026-04-10 19:00:00,METAR LEMD 101900Z 14006KT 110V170 CAVOK 22/04 Q1013 NOSIG,1,0,0,9999,0,0,0,
2026-04-10 18:30:00,METAR LEMD 101830Z 16007KT CAVOK 24/03 Q1013 NOSIG,1,0,0,9999,0,0,0,
2026-04-10 18:00:00,METAR LEMD 101800Z 14006KT CAVOK 24/05 Q1013 NOSIG,1,0,0,9999,0,0,0,
2026-04-10 17:30:00,METAR LEMD 101730Z 14007KT 110V170 CAVOK 25/04 Q1013 NOSIG,1,0,0,9999,0,0,0,
2026-04-10 17:00:00,METAR LEMD 101700Z 15005KT 100V230 CAVOK 26/05 Q1013 NOSIG,1,0,0,9999,0,0,0,
2026-04-10 16:30:00,METAR LEMD 101630Z 19003KT 120V280 CAVOK 27/03 Q1014 NOSIG,1,0,0,9999,0,0,0,
2026-04-10 16:00:00,METAR LEMD 101600Z 19010G21KT 070V220 CAVOK 27/02 Q1014 NOSIG,1,0,0,9999,0,0,0,
2026-04-10 15:30:00,METAR LEMD 101530Z 16008KT 120V200 CAVOK 28/03 Q1014 NOSIG,1,0,0,9999,0,0,0,
2026-04-10 15:00:00,METAR LEMD 101500Z 18010KT CAVOK 27/03 Q1015 NOSIG,1,0,0,9999,0,0,0,
2026-04-10 14:30:00,METAR LEMD 101430Z 17008KT 110V220 CAVOK 28/03 Q1015 NOSIG,1,0,0,9999,0,0,0,
2026-04-10 14:00:00,METAR LEMD 101400Z 14011KT CAVOK 28/04 Q1015 NOSIG,1,0,0,9999,0,0,0,
2026-04-10 13:30:00,METAR LEMD 101330Z 17007KT 100V220 CAVOK 27/03 Q1016 NOSIG,1,0,0,9999,0,0,0,
2026-04-10 13:00:00,METAR LEMD 101300Z 14007KT 100V210 CAVOK 26/05 Q1016 NOSIG,1,0,0,9999,0,0,0,
2026-04-10 12:30:00,METAR LEMD 101230Z 16003KT CAVOK 26/04 Q1016 NOSIG,1,0,0,9999,0,0,0,
2026-04-10 12:00:00,METAR LEMD 101200Z 11003KT CAVOK 26/04 Q1017 NOSIG,1,0,0,9999,0,0,0,
2026-04-10 11:30:00,METAR LEMD 101130Z 13003KT CAVOK 25/06 Q1017 NOSIG,1,0,0,9999,0,0,0,
2026-04-10 11:00:00,METAR LEMD 101100Z VRB03KT CAVOK 24/03 Q1018 NOSIG,1,0,0,9999,0,0,0,
2026-04-10 10:30:00,METAR LEMD 101030Z 05003KT 330V120 CAVOK 24/04 Q1018 NOSIG,1,0,0,9999,0,0,0,
2026-04-10 10:00:00,METAR LEMD 101000Z 01001KT CAVOK 22/06 Q1018 NOSIG,1,0,0,9999,0,0,0,
2026-04-10 09:30:00,METAR LEMD 100930Z 34005KT 310V020 CAVOK 20/08 Q1018 NOSIG,1,0,0,9999,0,0,0,
2026-04-10 09:00:00,METAR LEMD 100900Z 36004KT 320V040 CAVOK 18/07 Q1019 NOSIG,1,0,0,9999,0,0,0,
2026-04-10 08:30:00,METAR LEMD 100830Z 01003KT 340V040 CAVOK 16/06 Q1019 NOSIG,1,0,0,9999,0,0,0,
2026-04-10 08:00:00,METAR LEMD 100800Z VRB02KT CAVOK 14/05 Q1019 NOSIG,1,0,0,9999,0,0,0,
2026-04-10 07:30:00,METAR LEMD 100730Z 11001KT CAVOK 13/06 Q1019 NOSIG,1,0,0,9999,0,0,0,
2026-04-10 07:00:00,METAR LEMD 100700Z VRB01KT CAVOK 11/06 Q1019 NOSIG,1,0,0,9999,0,0,0,
2026-04-10 06:30:00,METAR LEMD 100630Z 32003KT 280V030 CAVOK 11/05 Q1019 NOSIG,1,0,0,9999,0,0,0,
2026-04-10 06:00:00,METAR LEMD 100600Z VRB01KT CAVOK 11/05 Q1019 NOSIG,1,0,0,9999,0,0,0,
2026-04-10 05:30:00,METAR LEMD 100530Z VRB02KT CAVOK 12/05 Q1018 NOSIG,1,0,0,9999,0,0,0,
2026-04-10 05:00:00,METAR LEMD 100500Z VRB02KT CAVOK 12/04 Q1019 NOSIG,1,0,0,9999,0,0,0,
2026-04-10 04:30:00,METAR LEMD 100430Z 34002KT CAVOK 12/04 Q1019 NOSIG,1,0,0,9999,0,0,0,
2026-04-10 04:00:00,METAR LEMD 100400Z VRB02KT CAVOK 12/04 Q1019 NOSIG,1,0,0,9999,0,0,0,
2026-04-10 03:30:00,METAR LEMD 100330Z VRB02KT CAVOK 13/04 Q1019 NOSIG,1,0,0,9999,0,0,0,
2026-04-10 03:00:00,METAR LEMD 100300Z 34004KT CAVOK 12/04 Q1019 NOSIG,1,0,0,9999,0,0,0,
2026-04-10 02:30:00,METAR LEMD 100230Z VRB02KT CAVOK 14/04 Q1019 NOSIG,1,0,0,9999,0,0,0,
2026-04-10 02:00:00,METAR LEMD 100200Z 34003KT 320V020 CAVOK 14/04 Q1019 NOSIG,1,0,0,9999,0,0,0,
2026-04-10 01:30:00,METAR LEMD 100130Z 01003KT 340V060 CAVOK 14/03 Q1020 NOSIG,1,0,0,9999,0,0,0,
2026-04-10 01:00:00,METAR LEMD 100100Z 35003KT 330V030 CAVOK 15/03 Q1020 NOSIG,1,0,0,9999,0,0,0,
2026-04-10 00:30:00,METAR LEMD 100030Z 32003KT 270V010 CAVOK 14/03 Q1020 NOSIG,1,0,0,9999,0,0,0,
2026-04-10 00:00:00,METAR LEMD 100000Z 35006KT CAVOK 15/03 Q1019 NOSIG,1,0,0,9999,0,0,0,
2026-04-09 23:30:00,METAR LEMD 092330Z 33007KT CAVOK 16/04 Q1020 NOSIG,1,0,0,9999,0,0,0,
2026-04-09 23:00:00,METAR LEMD 092300Z 33004KT 300V030 CAVOK 16/04 Q1019 NOSIG,1,0,0,9999,0,0,0,
2026-04-09 22:30:00,METAR LEMD 092230Z 32002KT CAVOK 16/03 Q1019 NOSIG,1,0,0,9999,0,0,0,
2026-04-09 22:00:00,METAR LEMD 092200Z 28001KT CAVOK 16/03 Q1019 NOSIG,1,0,0,9999,0,0,0,
2026-04-09 21:30:00,METAR LEMD 092130Z 33005KT CAVOK 15/04 Q1019 NOSIG,1,0,0,9999,0,0,0,
2026-04-09 21:00:00,METAR LEMD 092100Z 32004KT 290V350 CAVOK 16/05 Q1018 NOSIG,1,0,0,9999,0,0,0,
2026-04-09 20:30:00,METAR LEMD 092030Z 35002KT CAVOK 18/03 Q1018 NOSIG,1,0,0,9999,0,0,0,
2026-04-09 20:00:00,METAR LEMD 092000Z 36001KT CAVOK 18/02 Q1018 NOSIG,1,0,0,9999,0,0,0,
2026-04-09 19:30:00,METAR LEMD 091930Z VRB01KT CAVOK 20/03 Q1017 NOSIG,1,0,0,9999,0,0,0,
2026-04-09 19:00:00,METAR LEMD 091900Z 01002KT CAVOK 20/02 Q1017 NOSIG,1,0,0,9999,0,0,0,
2026-04-09 18:30:00,METAR LEMD 091830Z 35001KT CAVOK 22/02 Q1017 NOSIG,1,0,0,9999,0,0,0,
2026-04-09 18:00:00,METAR LEMD 091800Z VRB02KT CAVOK 24/01 Q1017 NOSIG,1,0,0,9999,0,0,0,
2026-04-09 17:30:00,METAR LEMD 091730Z VRB02KT CAVOK 26/01 Q1017 NOSIG,1,0,0,9999,0,0,0,
2026-04-09 17:00:00,METAR LEMD 091700Z 04003KT 340V120 CAVOK 26/00 Q1017 NOSIG,1,0,0,9999,0,0,0,
2026-04-09 16:30:00,METAR LEMD 091630Z 02004KT 340V080 CAVOK 26/01 Q1017 NOSIG,1,0,0,9999,0,0,0,
2026-04-09 16:00:00,METAR LEMD 091600Z 04004KT 340V110 CAVOK 26/03 Q1017 NOSIG,1,0,0,9999,0,0,0,
2026-04-09 15:30:00,METAR LEMD 091530Z 04003KT CAVOK 26/02 Q1017 NOSIG,1,0,0,9999,0,0,0,
2026-04-09 15:00:00,METAR LEMD 091500Z 06004KT CAVOK 26/03 Q1017 NOSIG,1,0,0,9999,0,0,0,
2026-04-09 14:30:00,METAR LEMD 091430Z 06003KT CAVOK 26/04 Q1018 NOSIG,1,0,0,9999,0,0,0,
2026-04-09 14:00:00,METAR LEMD 091400Z 07003KT CAVOK 26/04 Q1018 NOSIG,1,0,0,9999,0,0,0,
2026-04-09 13:30:00,METAR LEMD 091330Z 03003KT CAVOK 25/07 Q1019 NOSIG,1,0,0,9999,0,0,0,
2026-04-09 13:00:00,METAR LEMD 091300Z 01003KT CAVOK 25/04 Q1019 NOSIG,1,0,0,9999,0,0,0,
2026-04-09 12:30:00,METAR LEMD 091230Z 07004KT CAVOK 24/05 Q1019 NOSIG,1,0,0,9999,0,0,0,
2026-04-09 12:00:00,METAR LEMD 091200Z 16004G16KT CAVOK 24/07 Q1020 NOSIG,1,0,0,9999,0,0,0,
2026-04-09 11:30:00,METAR LEMD 091130Z 06003KT CAVOK 24/05 Q1020 NOSIG,1,0,0,9999,0,0,0,
2026-04-09 11:00:00,METAR LEMD 091100Z 02001KT CAVOK 23/05 Q1020 NOSIG,1,0,0,9999,0,0,0,
2026-04-09 10:30:00,METAR LEMD 091030Z 35003KT CAVOK 21/08 Q1021 NOSIG,1,0,0,9999,0,0,0,
2026-04-09 10:00:00,METAR LEMD 091000Z 33006KT 300V010 CAVOK 19/09 Q1021 NOSIG,1,0,0,9999,0,0,0,
2026-04-09 09:30:00,METAR LEMD 090930Z 35004KT 310V020 CAVOK 17/09 Q1021 NOSIG,1,0,0,9999,0,0,0,
2026-04-09 09:00:00,METAR LEMD 090900Z 35003KT 310V030 CAVOK 15/08 Q1021 NOSIG,1,0,0,9999,0,0,0,
2026-04-09 08:30:00,METAR LEMD 090830Z 32004KT 270V350 CAVOK 14/08 Q1021 NOSIG,1,0,0,9999,0,0,0,
2026-04-09 08:00:00,METAR LEMD 090800Z VRB02KT CAVOK 11/08 Q1021 NOSIG,1,0,0,9999,0,0,0,
2026-04-09 07:30:00,METAR LEMD 090730Z VRB01KT CAVOK 10/07 Q1021 NOSIG,1,0,0,9999,0,0,0,
2026-04-09 07:00:00,METAR LEMD 090700Z VRB02KT CAVOK 08/07 Q1021 NOSIG,1,0,0,9999,0,0,0,
2026-04-09 06:30:00,METAR LEMD 090630Z 04002KT CAVOK 06/06 Q1021 NOSIG,1,0,0,9999,0,0,0,
2026-04-09 06:00:00,METAR LEMD 090600Z 04001KT CAVOK 05/05 Q1020 NOSIG,1,0,0,9999,0,0,0,
2026-04-09 05:30:00,METAR LEMD 090530Z VRB02KT CAVOK 05/05 Q1020 NOSIG,1,0,0,9999,0,0,0,
2026-04-09 05:00:00,METAR LEMD 090500Z VRB02KT CAVOK 05/05 Q1020 NOSIG,1,0,0,9999,0,0,0,
2026-04-09 04:30:00,METAR LEMD 090430Z VRB02KT CAVOK 06/06 Q1020 NOSIG,1,0,0,9999,0,0,0,
2026-04-09 04:00:00,METAR LEMD 090400Z VRB01KT CAVOK 06/06 Q1020 NOSIG,1,0,0,9999,0,0,0,
2026-04-09 03:30:00,METAR LEMD 090330Z VRB02KT CAVOK 06/06 Q1020 NOSIG,1,0,0,9999,0,0,0,
2026-04-09 03:00:00,METAR LEMD 090300Z 33003KT CAVOK 07/07 Q1020 NOSIG,1,0,0,9999,0,0,0,
2026-04-09 02:30:00,METAR LEMD 090230Z 33004KT CAVOK 07/07 Q1021 NOSIG,1,0,0,9999,0,0,0,
2026-04-09 02:00:00,METAR LEMD 090200Z 34005KT 310V010 CAVOK 07/07 Q1021 NOSIG,1,0,0,9999,0,0,0,
2026-04-09 01:30:00,METAR LEMD 090130Z 33003KT CAVOK 07/06 Q1021 NOSIG,1,0,0,9999,0,0,0,
2026-04-09 01:00:00,METAR LEMD 090100Z 35003KT CAVOK 07/06 Q1021 NOSIG,1,0,0,9999,0,0,0,
2026-04-09 00:30:00,METAR LEMD 090030Z 02003KT 350V080 CAVOK 08/06 Q1022 NOSIG,1,0,0,9999,0,0,0,
2026-04-09 00:00:00,METAR LEMD 090000Z VRB02KT CAVOK 09/06 Q1022 NOSIG,1,0,0,9999,0,0,0,
2026-04-08 23:30:00,METAR LEMD 082330Z VRB02KT CAVOK 09/06 Q1022 NOSIG,1,0,0,9999,0,0,0,
2026-04-08 23:00:00,METAR LEMD 082300Z 11004KT 080V140 CAVOK 10/06 Q1022 NOSIG,1,0,0,9999,0,0,0,
2026-04-08 22:30:00,METAR LEMD 082230Z 11003KT 080V140 CAVOK 10/06 Q1022 NOSIG,1,0,0,9999,0,0,0,
2026-04-08 22:00:00,METAR LEMD 082200Z 13003KT 080V160 CAVOK 10/06 Q1022 NOSIG,1,0,0,9999,0,0,0,
2026-04-08 21:30:00,METAR LEMD 082130Z 17004KT 130V200 CAVOK 11/05 Q1022 NOSIG,1,0,0,9999,0,0,0,
2026-04-08 21:00:00,METAR LEMD 082100Z 22005KT 170V260 CAVOK 12/05 Q1022 NOSIG,1,0,0,9999,0,0,0,
2026-04-08 20:30:00,METAR LEMD 082030Z 24007KT 200V270 CAVOK 12/05 Q1021 NOSIG,1,0,0,9999,0,0,0,
2026-04-08 20:00:00,METAR LEMD 082000Z 23009KT 180V260 CAVOK 12/05 Q1021 NOSIG,1,0,0,9999,0,0,0,
2026-04-08 19:30:00,METAR LEMD 081930Z 23011KT CAVOK 12/05 Q1020 NOSIG,1,0,0,9999,0,0,0,
2026-04-08 19:00:00,METAR LEMD 081900Z 23010KT 200V260 CAVOK 13/05 Q1020 NOSIG,1,0,0,9999,0,0,0,
2026-04-08 18:30:00,METAR LEMD 081830Z 25012KT 220V280 CAVOK 13/06 Q1020 NOSIG,1,0,0,9999,0,0,0,
2026-04-08 18:00:00,METAR LEMD 081800Z 23010KT 190V260 CAVOK 14/07 Q1019 NOSIG,1,0,0,9999,0,0,0,
2026-04-08 17:30:00,METAR LEMD 081730Z 22012KT 190V270 CAVOK 15/07 Q1019 NOSIG,1,0,0,9999,0,0,0,
2026-04-08 17:00:00,METAR LEMD 081700Z 24011KT CAVOK 16/07 Q1019 NOSIG,1,0,0,9999,0,0,0,
2026-04-08 16:30:00,METAR LEMD 081630Z 24009KT 220V290 CAVOK 16/07 Q1018 NOSIG,1,0,0,9999,0,0,0,
2026-04-08 16:00:00,METAR LEMD 081600Z 25010KT 220V290 CAVOK 16/06 Q1018 NOSIG,1,0,0,9999,0,0,0,
2026-04-08 15:30:00,METAR LEMD 081530Z 25011KT 220V290 CAVOK 16/08 Q1019 NOSIG,1,0,0,9999,0,0,0,
2026-04-08 15:00:00,METAR LEMD 081500Z 26013KT CAVOK 16/06 Q1019 NOSIG,1,0,0,9999,0,0,0,
2026-04-08 14:30:00,METAR LEMD 081430Z 24013KT CAVOK 17/07 Q1019 NOSIG,1,0,0,9999,0,0,0,
2026-04-08 14:00:00,METAR LEMD 081400Z 25013KT 220V280 9999 FEW040 17/08 Q1019 NOSIG,0,13,0,10000,0,0,0,
2026-04-08 13:30:00,METAR LEMD 081330Z 25010KT 220V290 9999 FEW036 17/08 Q1019 NOSIG,0,10,0,10000,0,0,0,
2026-04-08 13:00:00,METAR LEMD 081300Z 28005KT 220V330 9999 FEW032 17/09 Q1019 NOSIG,0,5,0,10000,0,0,0,
2026-04-08 12:30:00,METAR LEMD 081230Z 29005KT 240V330 9999 FEW030 16/08 Q1018 NOSIG,0,5,0,10000,0,0,0,
2026-04-08 12:00:00,METAR LEMD 081200Z 28007KT 250V320 CAVOK 16/09 Q1019 NOSIG,1,0,0,9999,0,0,0,
2026-04-08 11:30:00,METAR LEMD 081130Z 31007KT 270V350 CAVOK 16/07 Q1019 NOSIG,1,0,0,9999,0,0,0,
2026-04-08 11:00:00,METAR LEMD 081100Z 34004KT 300V030 CAVOK 16/08 Q1019 NOSIG,1,0,0,9999,0,0,0,
2026-04-08 10:30:00,METAR LEMD 081030Z 33005KT 300V360 9999 FEW045 15/08 Q1020 NOSIG,0,5,0,10000,0,0,0,
2026-04-08 10:00:00,METAR LEMD 081000Z 32003KT 270V360 9999 FEW045 15/09 Q1020 NOSIG,0,3,0,10000,0,0,0,
2026-04-08 09:30:00,METAR LEMD 080930Z VRB02KT 9999 BKN047 14/09 Q1020 NOSIG,0,2,0,10000,0,0,0,
2026-04-08 09:00:00,METAR LEMD 080900Z 36003KT 320V060 9999 BKN045 13/09 Q1019 NOSIG,0,3,0,10000,0,0,0,
2026-04-08 08:30:00,METAR LEMD 080830Z 35006KT 320V020 9999 BKN045 13/09 Q1019 NOSIG,0,6,0,10000,0,0,0,
2026-04-08 08:00:00,METAR LEMD 080800Z 35003KT 320V020 9999 BKN045 12/10 Q1019 NOSIG,0,3,0,10000,0,0,0,
2026-04-08 07:30:00,METAR LEMD 080730Z 36004KT 330V040 9999 BKN046 12/11 Q1019 NOSIG,0,4,0,10000,0,0,0,
2026-04-08 07:00:00,METAR LEMD 080700Z 36003KT 330V060 9999 BKN046 11/11 Q1020 NOSIG,0,3,0,10000,0,0,0,
2026-04-08 06:30:00,METAR LEMD 080630Z VRB01KT 9999 BKN045 11/11 Q1020 NOSIG,0,1,0,10000,0,0,0,
2026-04-08 06:00:00,METAR LEMD 080600Z VRB02KT 9999 -RA FEW040TCU BKN045 11/11 Q1019 NOSIG,0,2,0,10000,0,0,0,-RA
2026-04-08 05:30:00,METAR LEMD 080530Z VRB02KT 9999 -RA FEW040TCU OVC044 11/11 Q1020 NOSIG,0,2,0,10000,0,0,0,-RA
2026-04-08 05:00:00,METAR LEMD 080500Z 36002KT 9999 OVC044 11/11 Q1019 NOSIG,0,2,0,10000,0,0,0,
2026-04-08 04:30:00,METAR LEMD 080430Z VRB01KT 9999 BKN042 11/11 Q1019 NOSIG,0,1,0,10000,0,0,0,
2026-04-08 04:00:00,METAR LEMD 080400Z VRB02KT 9999 -RA BKN040 11/11 Q1019 NOSIG,0,2,0,10000,0,0,0,-RA
2026-04-08 03:30:00,METAR LEMD 080330Z 32003KT 300V010 9999 SCT035 BKN040 12/11 Q1019 NOSIG,0,3,0,10000,0,0,0,
2026-04-08 03:00:00,METAR LEMD 080300Z 27005KT 9999 FEW020 SCT032 BKN040 12/10 Q1019 RERA NOSIG,0,5,0,10000,0,0,0,RA
2026-04-08 02:41:00,SPECI LEMD 080241Z 23008KT 200V270 9999 -RA FEW015 SCT031 BKN040 12/11 Q1019 RERA NOSIG,0,8,0,10000,0,0,0,"-RA,RA"
2026-04-08 02:30:00,METAR LEMD 080230Z 21009KT 8000 RA FEW026 SCT032 BKN040 12/12 Q1019 NOSIG,0,9,0,8000,0,0,0,RA
2026-04-08 02:00:00,METAR LEMD 080200Z 21009KT 9999 RA SCT037 BKN043 13/13 Q1019 NOSIG,0,9,0,10000,0,0,0,RA
2026-04-08 01:30:00,METAR LEMD 080130Z 14002KT 9999 BKN046 12/12 Q1019 NOSIG,0,2,0,10000,0,0,0,
2026-04-08 01:00:00,METAR LEMD 080100Z 15002KT 9999 SCT058 BKN069 11/11 Q1019 NOSIG,0,2,0,10000,0,0,0,
2026-04-08 00:30:00,METAR LEMD 080030Z 16004KT 9999 SCT070 11/11 Q1018 NOSIG,0,4,0,10000,0,0,0,
2026-04-08 00:00:00,METAR LEMD 080000Z VRB02KT CAVOK 12/12 Q1018 NOSIG,1,0,0,9999,0,0,0,
2026-04-07 23:30:00,METAR LEMD 072330Z 01004KT 340V040 9999 FEW065 12/12 Q1018 NOSIG,0,4,0,10000,0,0,0,
2026-04-07 23:00:00,METAR LEMD 072300Z VRB02KT 9999 FEW075 12/12 Q1018 NOSIG,0,2,0,10000,0,0,0,
2026-04-07 22:30:00,METAR LEMD 072230Z 19002KT 9999 FEW050 SCT070 13/12 Q1018 NOSIG,0,2,0,10000,0,0,0,
2026-04-07 22:00:00,METAR LEMD 072200Z 00000KT 9999 FEW056 BKN068 13/13 Q1019 NOSIG,0,0,0,10000,0,0,0,
2026-04-07 21:30:00,METAR LEMD 072130Z VRB01KT 9999 BKN070 13/12 Q1018 NOSIG,0,1,0,10000,0,0,0,
2026-04-07 21:00:00,METAR LEMD 072100Z 11003KT 070V130 9999 FEW080 13/12 Q1018 NOSIG,0,3,0,10000,0,0,0,
2026-04-07 20:30:00,METAR LEMD 072030Z 04002KT 9999 FEW045TCU 13/12 Q1017 NOSIG,0,2,0,10000,0,0,0,
2026-04-07 20:00:00,METAR LEMD 072000Z VRB01KT 9999 FEW050TCU 13/13 Q1017 NOSIG,0,1,0,10000,0,0,0,
2026-04-07 19:30:00,METAR LEMD 071930Z 35005KT 310V040 9999 -RA FEW012 FEW055CB 14/12 Q1017 NOSIG,0,5,0,10000,0,0,0,-RA
2026-04-07 19:00:00,METAR LEMD 071900Z 31007KT 260V350 9000 -RA FEW040 FEW055CB BKN070 14/12 Q1017 RESHRA NOSIG,0,7,0,9000,0,0,0,"-RA,RA"
2026-04-07 18:47:00,SPECI LEMD 071847Z 28009KT 250V310 8000 SHRA SCT055CB BKN070 14/11 Q1017 NOSIG,0,9,0,8000,0,0,0,"RA,SH"
2026-04-07 18:30:00,METAR LEMD 071830Z 25012KT 210V280 8000 -SHRA VCTS SCT060CB BKN075 15/11 Q1017 NOSIG,0,12,0,8000,1,0,0,"RA,TS,VC"
2026-04-07 18:12:00,SPECI LEMD 071812Z 26018G29KT 9999 VCTS SCT075CB BKN080 17/09 Q1017 TEMPO SCT040CB,0,18,1,10000,1,0,0,"TS,VC"
2026-04-07 18:00:00,METAR LEMD 071800Z 24016KT 210V270 9999 VCTS SCT075 FEW080CB 18/09 Q1016 TEMPO SCT040CB,0,16,0,10000,1,0,0,"TS,VC"
2026-04-07 17:30:00,METAR LEMD 071730Z 16004KT 130V200 9999 FEW075 FEW080CB 21/07 Q1015 TEMPO SCT040CB,0,4,0,10000,0,0,0,
2026-04-07 17:00:00,METAR LEMD 071700Z VRB02KT 9999 FEW075 21/07 Q1015 NOSIG,0,2,0,10000,0,0,0,
2026-04-07 16:30:00,METAR LEMD 071630Z 07003KT 350V150 9999 FEW075 22/06 Q1015 NOSIG,0,3,0,10000,0,0,0,
2026-04-07 16:00:00,METAR LEMD 071600Z 29004KT 210V010 9999 FEW075 22/08 Q1016 NOSIG,0,4,0,10000,0,0,0,
2026-04-07 15:30:00,METAR LEMD 071530Z 22004KT 160V300 9999 -DZ FEW075 22/07 Q1016 NOSIG,0,4,0,10000,0,0,0,DZ
2026-04-07 15:00:00,METAR LEMD 071500Z 20004KT 130V290 9999 FEW075 21/06 Q1016 NOSIG,0,4,0,10000,0,0,0,
2026-04-07 14:30:00,METAR LEMD 071430Z 20003KT CAVOK 22/06 Q1017 NOSIG,1,0,0,9999,0,0,0,
2026-04-07 14:00:00,METAR LEMD 071400Z 18002KT CAVOK 21/07 Q1017 NOSIG,1,0,0,9999,0,0,0,
2026-04-07 13:30:00,METAR LEMD 071330Z 14003KT 060V190 CAVOK 20/07 Q1018 NOSIG,1,0,0,9999,0,0,0,
2026-04-07 13:00:00,METAR LEMD 071300Z 03002KT CAVOK 19/07 Q1018 NOSIG,1,0,0,9999,0,0,0,
2026-04-07 12:30:00,METAR LEMD 071230Z 06001KT CAVOK 18/06 Q1019 NOSIG,1,0,0,9999,0,0,0,
2026-04-07 12:00:00,METAR LEMD 071200Z 17003KT 100V260 CAVOK 18/06 Q1019 NOSIG,1,0,0,9999,0,0,0,
2026-04-07 11:30:00,METAR LEMD 071130Z 10001KT CAVOK 18/06 Q1019 NOSIG,1,0,0,9999,0,0,0,
2026-04-07 11:00:00,METAR LEMD 071100Z VRB02KT CAVOK 18/05 Q1019 NOSIG,1,0,0,9999,0,0,0,
2026-04-07 10:30:00,METAR LEMD 071030Z 34002KT CAVOK 18/07 Q1020 NOSIG,1,0,0,9999,0,0,0,
2026-04-07 10:00:00,METAR LEMD 071000Z 33003KT 260V060 CAVOK 16/05 Q1020 NOSIG,1,0,0,9999,0,0,0,
2026-04-07 09:30:00,METAR LEMD 070930Z 34004KT CAVOK 16/06 Q1020 NOSIG,1,0,0,9999,0,0,0,
2026-04-07 09:00:00,METAR LEMD 070900Z 34006KT 310V010 CAVOK 15/07 Q1019 NOSIG,1,0,0,9999,0,0,0,
2026-04-07 08:30:00,METAR LEMD 070830Z 34005KT 310V010 CAVOK 14/06 Q1019 NOSIG,1,0,0,9999,0,0,0,
2026-04-07 08:00:00,METAR LEMD 070800Z 34004KT 280V020 CAVOK 13/06 Q1019 NOSIG,1,0,0,9999,0,0,0,
2026-04-07 07:30:00,METAR LEMD 070730Z 34004KT CAVOK 11/06 Q1019 NOSIG,1,0,0,9999,0,0,0,
2026-04-07 07:00:00,METAR LEMD 070700Z 34006KT CAVOK 11/05 Q1019 NOSIG,1,0,0,9999,0,0,0,
2026-04-07 06:30:00,METAR LEMD 070630Z 34005KT CAVOK 10/05 Q1019 NOSIG,1,0,0,9999,0,0,0,
2026-04-07 06:00:00,METAR LEMD 070600Z 33005KT CAVOK 11/05 Q1019 NOSIG,1,0,0,9999,0,0,0,
2026-04-07 05:30:00,METAR LEMD 070530Z 35003KT CAVOK 10/05 Q1019 NOSIG,1,0,0,9999,0,0,0,
2026-04-07 05:00:00,METAR LEMD 070500Z VRB02KT CAVOK 11/04 Q1019 NOSIG,1,0,0,9999,0,0,0,
2026-04-07 04:30:00,METAR LEMD 070430Z VRB02KT CAVOK 11/04 Q1019 NOSIG,1,0,0,9999,0,0,0,
2026-04-07 04:00:00,METAR LEMD 070400Z VRB02KT CAVOK 12/04 Q1019 NOSIG,1,0,0,9999,0,0,0,
2026-04-07 03:30:00,METAR LEMD 070330Z 10003KT 070V150 CAVOK 12/04 Q1019 NOSIG,1,0,0,9999,0,0,0,
2026-04-07 03:00:00,METAR LEMD 070300Z 10003KT 040V130 CAVOK 12/04 Q1019 NOSIG,1,0,0,9999,0,0,0,
2026-04-07 02:30:00,METAR LEMD 070230Z 11003KT 080V140 CAVOK 13/04 Q1020 NOSIG,1,0,0,9999,0,0,0,
2026-04-07 02:00:00,METAR LEMD 070200Z 10003KT 050V150 CAVOK 13/04 Q1020 NOSIG,1,0,0,9999,0,0,0,
2026-04-07 01:30:00,METAR LEMD 070130Z 12003KT CAVOK 14/04 Q1020 NOSIG,1,0,0,9999,0,0,0,
2026-04-07 01:00:00,METAR LEMD 070100Z 11003KT 080V140 CAVOK 14/04 Q1020 NOSIG,1,0,0,9999,0,0,0,
2026-04-07 00:30:00,METAR LEMD 070030Z 12004KT 090V150 CAVOK 15/04 Q1020 NOSIG,1,0,0,9999,0,0,0,
2026-04-07 00:00:00,METAR LEMD 070000Z 15005KT CAVOK 14/04 Q1020 NOSIG,1,0,0,9999,0,0,0,
2026-04-06 23:30:00,METAR LEMD 062330Z 14009KT 110V170 CAVOK 16/04 Q1020 NOSIG,1,0,0,9999,0,0,0,
2026-04-06 23:00:00,METAR LEMD 062300Z 14005KT 090V180 CAVOK 16/04 Q1020 NOSIG,1,0,0,9999,0,0,0,
2026-04-06 22:30:00,METAR LEMD 062230Z 16008KT 120V200 CAVOK 17/04 Q1019 NOSIG,1,0,0,9999,0,0,0,
2026-04-06 22:00:00,METAR LEMD 062200Z 14009KT CAVOK 17/05 Q1019 NOSIG,1,0,0,9999,0,0,0,
2026-04-06 21:30:00,METAR LEMD 062130Z 13006KT 070V180 CAVOK 18/05 Q1019 NOSIG,1,0,0,9999,0,0,0,
2026-04-06 21:00:00,METAR LEMD 062100Z 11003KT 070V160 CAVOK 18/03 Q1019 NOSIG,1,0,0,9999,0,0,0,
2026-04-06 20:30:00,METAR LEMD 062030Z VRB02KT CAVOK 18/03 Q1019 NOSIG,1,0,0,9999,0,0,0,
2026-04-06 20:00:00,METAR LEMD 062000Z 11003KT 060V150 CAVOK 19/03 Q1018 NOSIG,1,0,0,9999,0,0,0,
2026-04-06 19:30:00,METAR LEMD 061930Z 12005KT 090V150 CAVOK 20/03 Q1018 NOSIG,1,0,0,9999,0,0,0,
2026-04-06 19:00:00,METAR LEMD 061900Z 13006KT CAVOK 20/03 Q1018 NOSIG,1,0,0,9999,0,0,0,
2026-04-06 18:30:00,METAR LEMD 061830Z 14006KT 100V170 CAVOK 21/02 Q1018 NOSIG,1,0,0,9999,0,0,0,
2026-04-06 18:00:00,METAR LEMD 061800Z 15010KT CAVOK 23/01 Q1018 NOSIG,1,0,0,9999,0,0,0,
2026-04-06 17:30:00,METAR LEMD 061730Z 16009KT 130V190 CAVOK 24/02 Q1018 NOSIG,1,0,0,9999,0,0,0,
2026-04-06 17:00:00,METAR LEMD 061700Z 16008KT 130V210 CAVOK 25/02 Q1018 NOSIG,1,0,0,9999,0,0,0,
2026-04-06 16:30:00,METAR LEMD 061630Z 13008KT 080V190 CAVOK 25/04 Q1018 NOSIG,1,0,0,9999,0,0,0,
2026-04-06 16:00:00,METAR LEMD 061600Z 13007KT 100V160 CAVOK 25/06 Q1018 NOSIG,1,0,0,9999,0,0,0,
2026-04-06 15:30:00,METAR LEMD 061530Z 15008KT 110V190 CAVOK 25/04 Q1018 NOSIG,1,0,0,9999,0,0,0,
2026-04-06 15:00:00,METAR LEMD 061500Z 16008KT 130V200 CAVOK 25/01 Q1019 NOSIG,1,0,0,9999,0,0,0,
2026-04-06 14:30:00,METAR LEMD 061430Z COR 14008KT 070V190 CAVOK 25/02 Q1019 NOSIG,1,0,0,9999,0,0,0,
2026-04-06 14:00:00,METAR LEMD 061400Z 17005KT 110V270 CAVOK 25/03 Q1020 NOSIG,1,0,0,9999,0,0,0,
2026-04-06 13:30:00,METAR LEMD 061330Z 10005KT 040V160 CAVOK 24/03 Q1020 NOSIG,1,0,0,9999,0,0,0,
2026-04-06 13:00:00,METAR LEMD 061300Z 14005KT 080V210 CAVOK 24/06 Q1021 NOSIG,1,0,0,9999,0,0,0,
2026-04-06 12:30:00,METAR LEMD 061230Z 15007KT 110V190 CAVOK 23/05 Q1022 NOSIG,1,0,0,9999,0,0,0,
2026-04-06 12:00:00,METAR LEMD 061200Z VRB03KT CAVOK 22/03 Q1022 NOSIG,1,0,0,9999,0,0,0,
2026-04-06 11:30:00,METAR LEMD 061130Z 16006KT 110V220 CAVOK 21/03 Q1022 NOSIG,1,0,0,9999,0,0,0,
2026-04-06 11:00:00,METAR LEMD 061100Z 16004KT CAVOK 21/03 Q1023 NOSIG,1,0,0,9999,0,0,0,
2026-04-06 10:30:00,METAR LEMD 061030Z 13003KT CAVOK 20/03 Q1023 NOSIG,1,0,0,9999,0,0,0,
2026-04-06 10:00:00,METAR LEMD 061000Z VRB04KT CAVOK 20/02 Q1023 NOSIG,1,0,0,9999,0,0,0,
2026-04-06 09:30:00,METAR LEMD 060930Z 11002KT CAVOK 19/04 Q1023 NOSIG,1,0,0,9999,0,0,0,
2026-04-06 09:00:00,METAR LEMD 060900Z VRB02KT CAVOK 18/06 Q1023 NOSIG,1,0,0,9999,0,0,0,
2026-04-06 08:30:00,METAR LEMD 060830Z VRB02KT CAVOK 14/05 Q1024 NOSIG,1,0,0,9999,0,0,0,
2026-04-06 08:00:00,METAR LEMD 060800Z VRB02KT CAVOK 12/05 Q1024 NOSIG,1,0,0,9999,0,0,0,
2026-04-06 07:30:00,METAR LEMD 060730Z 34004KT 310V010 CAVOK 11/04 Q1024 NOSIG,1,0,0,9999,0,0,0,
2026-04-06 07:00:00,METAR LEMD 060700Z 34004KT 310V020 CAVOK 09/04 Q1024 NOSIG,1,0,0,9999,0,0,0,
2026-04-06 06:30:00,METAR LEMD 060630Z 33003KT CAVOK 07/03 Q1024 NOSIG,1,0,0,9999,0,0,0,
2026-04-06 06:00:00,METAR LEMD 060600Z 36002KT CAVOK 08/03 Q1023 NOSIG,1,0,0,9999,0,0,0,
2026-04-06 05:30:00,METAR LEMD 060530Z 35003KT CAVOK 08/03 Q1023 NOSIG,1,0,0,9999,0,0,0,
2026-04-06 05:00:00,METAR LEMD 060500Z VRB02KT CAVOK 08/03 Q1023 NOSIG,1,0,0,9999,0,0,0,
2026-04-06 04:30:00,METAR LEMD 060430Z 35004KT 300V030 CAVOK 09/03 Q1023 NOSIG,1,0,0,9999,0,0,0,
2026-04-06 04:00:00,METAR LEMD 060400Z 35003KT 310V030 CAVOK 09/03 Q1023 NOSIG,1,0,0,9999,0,0,0,
2026-04-06 03:30:00,METAR LEMD 060330Z 33005KT CAVOK 09/03 Q1023 NOSIG,1,0,0,9999,0,0,0,
2026-04-06 03:00:00,METAR LEMD 060300Z 34004KT 310V030 CAVOK 09/04 Q1024 NOSIG,1,0,0,9999,0,0,0,
2026-04-06 02:30:00,METAR LEMD 060230Z 32005KT 300V030 CAVOK 09/04 Q1024 NOSIG,1,0,0,9999,0,0,0,
2026-04-06 02:00:00,METAR LEMD 060200Z 32006KT CAVOK 09/04 Q1024 NOSIG,1,0,0,9999,0,0,0,
2026-04-06 01:30:00,METAR LEMD 060130Z 35005KT CAVOK 11/04 Q1024 NOSIG,1,0,0,9999,0,0,0,
2026-04-06 01:00:00,METAR LEMD 060100Z 36004KT CAVOK 12/04 Q1024 NOSIG,1,0,0,9999,0,0,0,
2026-04-06 00:30:00,METAR LEMD 060030Z 00000KT CAVOK 12/04 Q1024 NOSIG,1,0,0,9999,0,0,0,
2026-04-06 00:00:00,METAR LEMD 060000Z 36003KT CAVOK 12/05 Q1024 NOSIG,1,0,0,9999,0,0,0,
2026-04-05 23:30:00,METAR LEMD 052330Z VRB01KT CAVOK 12/05 Q1024 NOSIG,1,0,0,9999,0,0,0,
2026-04-05 23:00:00,METAR LEMD 052300Z 35003KT CAVOK 13/05 Q1023 NOSIG,1,0,0,9999,0,0,0,
2026-04-05 22:30:00,METAR LEMD 052230Z 36003KT CAVOK 15/05 Q1023 NOSIG,1,0,0,9999,0,0,0,
2026-04-05 22:00:00,METAR LEMD 052200Z 08001KT CAVOK 14/05 Q1023 NOSIG,1,0,0,9999,0,0,0,
2026-04-05 21:30:00,METAR LEMD 052130Z 13001KT CAVOK 16/05 Q1023 NOSIG,1,0,0,9999,0,0,0,
2026-04-05 21:00:00,METAR LEMD 052100Z VRB02KT CAVOK 16/05 Q1023 NOSIG,1,0,0,9999,0,0,0,
2026-04-05 20:30:00,METAR LEMD 052030Z 35003KT CAVOK 18/04 Q1022 NOSIG,1,0,0,9999,0,0,0,
2026-04-05 20:00:00,METAR LEMD 052000Z 02002KT CAVOK 18/04 Q1022 NOSIG,1,0,0,9999,0,0,0,
2026-04-05 19:30:00,METAR LEMD 051930Z 00000KT CAVOK 18/03 Q1022 NOSIG,1,0,0,9999,0,0,0,
2026-04-05 19:00:00,METAR LEMD 051900Z 21003KT 160V240 CAVOK 23/02 Q1022 NOSIG,1,0,0,9999,0,0,0,
2026-04-05 18:30:00,METAR LEMD 051830Z 19003KT 130V250 CAVOK 24/03 Q1022 NOSIG,1,0,0,9999,0,0,0,
2026-04-05 18:00:00,METAR LEMD 051800Z 21004KT 140V240 CAVOK 24/03 Q1022 NOSIG,1,0,0,9999,0,0,0,
2026-04-05 17:30:00,METAR LEMD 051730Z VRB02KT CAVOK 25/04 Q1022 NOSIG,1,0,0,9999,0,0,0,
2026-04-05 17:00:00,METAR LEMD 051700Z 17005KT 130V210 9999 FEW070 25/03 Q1022 NOSIG,0,5,0,10000,0,0,0,
2026-04-05 16:30:00,METAR LEMD 051630Z 10003KT CAVOK 25/02 Q1022 NOSIG,1,0,0,9999,0,0,0,
2026-04-05 16:00:00,METAR LEMD 051600Z 23005KT CAVOK 26/02 Q1022 NOSIG,1,0,0,9999,0,0,0,
2026-04-05 15:30:00,METAR LEMD 051530Z 11004KT 070V160 CAVOK 25/03 Q1022 NOSIG,1,0,0,9999,0,0,0,
2026-04-05 15:00:00,METAR LEMD 051500Z 16005KT 9999 FEW070 25/03 Q1022 NOSIG,0,5,0,10000,0,0,0,
2026-04-05 13:00:00,METAR LEMD 051300Z 20006KT CAVOK 24/04 Q1024 NOSIG,1,0,0,9999,0,0,0,
2026-04-05 12:30:00,METAR LEMD 051230Z 31002KT CAVOK 24/04 Q1024 NOSIG,1,0,0,9999,0,0,0,
2026-04-05 12:00:00,METAR LEMD 051200Z 09003KT 030V180 CAVOK 23/05 Q1024 NOSIG,1,0,0,9999,0,0,0,
2026-04-05 11:30:00,METAR LEMD 051130Z 19001KT CAVOK 22/05 Q1024 NOSIG,1,0,0,9999,0,0,0,
2026-04-05 11:00:00,METAR LEMD 051100Z 22002KT CAVOK 21/06 Q1025 NOSIG,1,0,0,9999,0,0,0,
2026-04-05 10:30:00,METAR LEMD 051030Z 19003KT 160V280 CAVOK 19/05 Q1025 NOSIG,1,0,0,9999,0,0,0,
2026-04-05 10:00:00,METAR LEMD 051000Z 19003KT 150V240 CAVOK 19/05 Q1025 NOSIG,1,0,0,9999,0,0,0,
2026-04-05 09:30:00,METAR LEMD 050930Z 04001KT CAVOK 18/07 Q1025 NOSIG,1,0,0,9999,0,0,0,
2026-04-05 09:00:00,METAR LEMD 050900Z 36001KT CAVOK 17/06 Q1025 NOSIG,1,0,0,9999,0,0,0,
2026-04-05 08:30:00,METAR LEMD 050830Z VRB01KT CAVOK 14/06 Q1025 NOSIG,1,0,0,9999,0,0,0,
2026-04-05 08:00:00,METAR LEMD 050800Z VRB01KT CAVOK 12/06 Q1025 NOSIG,1,0,0,9999,0,0,0,
2026-04-05 07:30:00,METAR LEMD 050730Z VRB02KT CAVOK 10/06 Q1024 NOSIG,1,0,0,9999,0,0,0,
2026-04-05 07:00:00,METAR LEMD 050700Z VRB02KT CAVOK 08/05 Q1024 NOSIG,1,0,0,9999,0,0,0,
2026-04-05 06:30:00,METAR LEMD 050630Z 36002KT CAVOK 07/05 Q1024 NOSIG,1,0,0,9999,0,0,0,
2026-04-05 06:00:00,METAR LEMD 050600Z 01002KT CAVOK 06/05 Q1024 NOSIG,1,0,0,9999,0,0,0,
2026-04-05 05:30:00,METAR LEMD 050530Z 35002KT CAVOK 07/04 Q1024 NOSIG,1,0,0,9999,0,0,0,
2026-04-05 05:00:00,METAR LEMD 050500Z 35003KT CAVOK 07/05 Q1023 NOSIG,1,0,0,9999,0,0,0,
2026-04-05 04:30:00,METAR LEMD 050430Z VRB01KT CAVOK 07/05 Q1023 NOSIG,1,0,0,9999,0,0,0,
2026-04-05 04:00:00,METAR LEMD 050400Z 35004KT CAVOK 08/05 Q1023 NOSIG,1,0,0,9999,0,0,0,
2026-04-05 03:30:00,METAR LEMD 050330Z 35004KT CAVOK 09/05 Q1023 NOSIG,1,0,0,9999,0,0,0,
2026-04-05 03:00:00,METAR LEMD 050300Z 36003KT CAVOK 09/05 Q1023 NOSIG,1,0,0,9999,0,0,0,
2026-04-05 02:30:00,METAR LEMD 050230Z 35003KT CAVOK 09/05 Q1023 NOSIG,1,0,0,9999,0,0,0,
2026-04-05 02:00:00,METAR LEMD 050200Z 36003KT CAVOK 10/05 Q1024 NOSIG,1,0,0,9999,0,0,0,
2026-04-05 01:30:00,METAR LEMD 050130Z 36002KT CAVOK 09/06 Q1024 NOSIG,1,0,0,9999,0,0,0,
2026-04-05 01:00:00,METAR LEMD 050100Z 36003KT CAVOK 10/06 Q1024 NOSIG,1,0,0,9999,0,0,0,
2026-04-05 00:30:00,METAR LEMD 050030Z 36003KT 340V040 CAVOK 11/06 Q1023 NOSIG,1,0,0,9999,0,0,0,
2026-04-05 00:00:00,METAR LEMD 050000Z VRB02KT CAVOK 11/05 Q1023 NOSIG,1,0,0,9999,0,0,0,
2026-04-04 23:30:00,METAR LEMD 042330Z VRB02KT CAVOK 12/06 Q1023 NOSIG,1,0,0,9999,0,0,0,
2026-04-04 23:00:00,METAR LEMD 042300Z 36003KT CAVOK 13/05 Q1023 NOSIG,1,0,0,9999,0,0,0,
2026-04-04 22:30:00,METAR LEMD 042230Z 34002KT CAVOK 12/06 Q1023 NOSIG,1,0,0,9999,0,0,0,
2026-04-04 22:00:00,METAR LEMD 042200Z 35004KT CAVOK 14/05 Q1023 NOSIG,1,0,0,9999,0,0,0,
2026-04-04 21:30:00,METAR LEMD 042130Z 00000KT CAVOK 14/05 Q1023 NOSIG,1,0,0,9999,0,0,0,
2026-04-04 21:00:00,METAR LEMD 042100Z 00000KT CAVOK 14/05 Q1023 NOSIG,1,0,0,9999,0,0,0,
2026-04-04 20:30:00,METAR LEMD 042030Z VRB02KT CAVOK 17/05 Q1022 NOSIG,1,0,0,9999,0,0,0,
2026-04-04 20:00:00,METAR LEMD 042000Z 19004KT 170V250 CAVOK 20/05 Q1022 NOSIG,1,0,0,9999,0,0,0,
2026-04-04 19:30:00,METAR LEMD 041930Z 20005KT 160V260 CAVOK 20/04 Q1022 NOSIG,1,0,0,9999,0,0,0,
2026-04-04 19:00:00,METAR LEMD 041900Z 19005KT CAVOK 20/04 Q1022 NOSIG,1,0,0,9999,0,0,0,
2026-04-04 18:30:00,METAR LEMD 041830Z 19005KT 160V230 CAVOK 21/04 Q1022 NOSIG,1,0,0,9999,0,0,0,
2026-04-04 18:00:00,METAR LEMD 041800Z 19006KT 160V220 CAVOK 22/04 Q1022 NOSIG,1,0,0,9999,0,0,0,
2026-04-04 17:30:00,METAR LEMD 041730Z 20006KT 160V260 CAVOK 23/04 Q1022 NOSIG,1,0,0,9999,0,0,0,
2026-04-04 17:00:00,METAR LEMD 041700Z 21006KT 130V250 CAVOK 23/05 Q1022 NOSIG,1,0,0,9999,0,0,0,
2026-04-04 16:30:00,METAR LEMD 041630Z 20006KT 170V240 CAVOK 23/05 Q1022 NOSIG,1,0,0,9999,0,0,0,
2026-04-04 16:00:00,METAR LEMD 041600Z 20006KT 120V250 CAVOK 23/05 Q1022 NOSIG,1,0,0,9999,0,0,0,
2026-04-04 15:30:00,METAR LEMD 041530Z 21005KT 150V270 CAVOK 23/06 Q1022 NOSIG,1,0,0,9999,0,0,0,
2026-04-04 15:00:00,METAR LEMD 041500Z 21004G18KT CAVOK 23/06 Q1022 NOSIG,1,0,0,9999,0,0,0,
2026-04-04 14:30:00,METAR LEMD 041430Z 20003KT CAVOK 22/05 Q1022 NOSIG,1,0,0,9999,0,0,0,
2026-04-04 14:00:00,METAR LEMD 041400Z 19005KT 130V250 CAVOK 22/06 Q1023 NOSIG,1,0,0,9999,0,0,0,
2026-04-04 13:30:00,METAR LEMD 041330Z 18005KT 110V230 CAVOK 22/05 Q1023 NOSIG,1,0,0,9999,0,0,0,
2026-04-04 13:00:00,METAR LEMD 041300Z 05003KT CAVOK 22/05 Q1024 NOSIG,1,0,0,9999,0,0,0,
2026-04-04 12:30:00,METAR LEMD 041230Z 17003KT CAVOK 21/05 Q1024 NOSIG,1,0,0,9999,0,0,0,
2026-04-04 12:00:00,METAR LEMD 041200Z 23002G12KT CAVOK 21/05 Q1024 NOSIG,1,0,0,9999,0,0,0,
2026-04-04 11:30:00,METAR LEMD 041130Z 17003KT CAVOK 21/07 Q1025 NOSIG,1,0,0,9999,0,0,0,
2026-04-04 11:00:00,METAR LEMD 041100Z 15003KT CAVOK 20/05 Q1025 NOSIG,1,0,0,9999,0,0,0,
2026-04-04 10:30:00,METAR LEMD 041030Z 18002KT CAVOK 19/07 Q1025 NOSIG,1,0,0,9999,0,0,0,
2026-04-04 10:00:00,METAR LEMD 041000Z VRB03KT CAVOK 17/07 Q1026 NOSIG,1,0,0,9999,0,0,0,
2026-04-04 09:30:00,METAR LEMD 040930Z 30002KT CAVOK 16/06 Q1026 NOSIG,1,0,0,9999,0,0,0,
2026-04-04 09:00:00,METAR LEMD 040900Z 29001KT CAVOK 15/06 Q1025 NOSIG,1,0,0,9999,0,0,0,
2026-04-04 08:30:00,METAR LEMD 040830Z 33003KT 300V020 CAVOK 13/05 Q1025 NOSIG,1,0,0,9999,0,0,0,
2026-04-04 08:00:00,METAR LEMD 040800Z 35005KT 330V030 CAVOK 10/04 Q1025 NOSIG,1,0,0,9999,0,0,0,
2026-04-04 07:30:00,METAR LEMD 040730Z 36004KT 340V040 CAVOK 09/04 Q1025 NOSIG,1,0,0,9999,0,0,0,
2026-04-04 07:00:00,METAR LEMD 040700Z 33003KT CAVOK 08/04 Q1025 NOSIG,1,0,0,9999,0,0,0,
2026-04-04 06:30:00,METAR LEMD 040630Z VRB01KT CAVOK 06/03 Q1025 NOSIG,1,0,0,9999,0,0,0,
2026-04-04 06:00:00,METAR LEMD 040600Z 36003KT CAVOK 05/03 Q1025 NOSIG,1,0,0,9999,0,0,0,
2026-04-04 05:30:00,METAR LEMD 040530Z VRB02KT CAVOK 06/03 Q1025 NOSIG,1,0,0,9999,0,0,0,
2026-04-04 05:00:00,METAR LEMD 040500Z 05003KT CAVOK 06/04 Q1024 NOSIG,1,0,0,9999,0,0,0,
2026-04-04 04:30:00,METAR LEMD 040430Z 12002KT CAVOK 06/03 Q1024 NOSIG,1,0,0,9999,0,0,0,
2026-04-04 04:00:00,METAR LEMD 040400Z 35003KT 320V030 CAVOK 08/03 Q1024 NOSIG,1,0,0,9999,0,0,0,
2026-04-04 03:30:00,METAR LEMD 040330Z VRB01KT CAVOK 08/03 Q1024 NOSIG,1,0,0,9999,0,0,0,
2026-04-04 03:00:00,METAR LEMD 040300Z 34004KT 310V010 CAVOK 08/04 Q1024 NOSIG,1,0,0,9999,0,0,0,
2026-04-04 02:30:00,METAR LEMD 040230Z 34001KT CAVOK 08/03 Q1024 NOSIG,1,0,0,9999,0,0,0,
2026-04-04 02:00:00,METAR LEMD 040200Z 33005KT 310V010 CAVOK 09/03 Q1024 NOSIG,1,0,0,9999,0,0,0,
2026-04-04 01:30:00,METAR LEMD 040130Z VRB02KT CAVOK 10/03 Q1025 NOSIG,1,0,0,9999,0,0,0,
2026-04-04 01:00:00,METAR LEMD 040100Z 04003KT 020V080 CAVOK 11/03 Q1025 NOSIG,1,0,0,9999,0,0,0,
2026-04-04 00:30:00,METAR LEMD 040030Z 09004KT 010V170 CAVOK 11/03 Q1025 NOSIG,1,0,0,9999,0,0,0,
2026-04-04 00:00:00,METAR LEMD 040000Z 36003KT 340V120 CAVOK 12/03 Q1025 NOSIG,1,0,0,9999,0,0,0,
2026-04-03 23:30:00,METAR LEMD 032330Z 34005KT 300V050 CAVOK 13/03 Q1025 NOSIG,1,0,0,9999,0,0,0,
2026-04-03 23:00:00,METAR LEMD 032300Z 33004KT 280V060 CAVOK 13/03 Q1025 NOSIG,1,0,0,9999,0,0,0,
2026-04-03 22:30:00,METAR LEMD 032230Z 32004KT CAVOK 13/04 Q1025 NOSIG,1,0,0,9999,0,0,0,
2026-04-03 22:00:00,METAR LEMD 032200Z 34003KT 300V360 CAVOK 13/03 Q1025 NOSIG,1,0,0,9999,0,0,0,
2026-04-03 21:30:00,METAR LEMD 032130Z 34007KT CAVOK 14/04 Q1024 NOSIG,1,0,0,9999,0,0,0,
2026-04-03 21:00:00,METAR LEMD 032100Z 36005KT CAVOK 14/03 Q1024 NOSIG,1,0,0,9999,0,0,0,
2026-04-03 20:30:00,METAR LEMD 032030Z 36005KT CAVOK 15/03 Q1024 NOSIG,1,0,0,9999,0,0,0,
2026-04-03 20:00:00,METAR LEMD 032000Z 34006KT CAVOK 16/03 Q1023 NOSIG,1,0,0,9999,0,0,0,
2026-04-03 19:30:00,METAR LEMD 031930Z 34007KT CAVOK 17/02 Q1023 NOSIG,1,0,0,9999,0,0,0,
2026-04-03 19:00:00,METAR LEMD 031900Z 34005KT CAVOK 17/03 Q1022 NOSIG,1,0,0,9999,0,0,0,
2026-04-03 18:30:00,METAR LEMD 031830Z 35008KT 330V030 CAVOK 19/02 Q1022 NOSIG,1,0,0,9999,0,0,0,
2026-04-03 18:00:00,METAR LEMD 031800Z 35008KT CAVOK 20/02 Q1022 NOSIG,1,0,0,9999,0,0,0,
2026-04-03 17:30:00,METAR LEMD 031730Z 01008KT 340V040 CAVOK 20/01 Q1022 NOSIG,1,0,0,9999,0,0,0,
2026-04-03 17:00:00,METAR LEMD 031700Z 36008KT 320V080 CAVOK 21/01 Q1022 NOSIG,1,0,0,9999,0,0,0,
2026-04-03 16:30:00,METAR LEMD 031630Z VRB06KT CAVOK 21/M01 Q1021 NOSIG,1,0,0,9999,0,0,0,
2026-04-03 16:00:00,METAR LEMD 031600Z 01006KT 290V080 CAVOK 22/01 Q1021 NOSIG,1,0,0,9999,0,0,0,
2026-04-03 15:30:00,METAR LEMD 031530Z 01009KT 320V060 CAVOK 21/M00 Q1021 NOSIG,1,0,0,9999,0,0,0,
2026-04-03 15:00:00,METAR LEMD 031500Z 35010KT 300V040 CAVOK 20/M00 Q1021 NOSIG,1,0,0,9999,0,0,0,
2026-04-03 14:30:00,METAR LEMD 031430Z 34006KT CAVOK 20/M02 Q1022 NOSIG,1,0,0,9999,0,0,0,
2026-04-03 14:00:00,METAR LEMD 031400Z 35009G19KT 300V060 CAVOK 20/M01 Q1022 NOSIG,1,0,0,9999,0,0,0,
2026-04-03 13:30:00,METAR LEMD 031330Z 01009KT 330V070 CAVOK 20/M02 Q1022 NOSIG,1,0,0,9999,0,0,0,
2026-04-03 13:00:00,METAR LEMD 031300Z 36009G20KT 310V060 CAVOK 19/M02 Q1022 NOSIG,1,0,0,9999,0,0,0,
2026-04-03 12:30:00,METAR LEMD 031230Z 35009KT 300V020 CAVOK 19/M02 Q1022 NOSIG,1,0,0,9999,0,0,0,
2026-04-03 12:00:00,METAR LEMD 031200Z 34007KT 310V060 CAVOK 18/M01 Q1023 NOSIG,1,0,0,9999,0,0,0,
2026-04-03 11:30:00,METAR LEMD 031130Z 15002KT CAVOK 15/M01 Q1023 NOSIG,1,0,0,9999,0,0,0,
2026-04-03 11:00:00,METAR LEMD 031100Z VRB02KT CAVOK 14/M01 Q1024 NOSIG,1,0,0,9999,0,0,0,
2026-04-03 10:30:00,METAR LEMD 031030Z 25003KT CAVOK 12/M00 Q1024 NOSIG,1,0,0,9999,0,0,0,
2026-04-03 10:00:00,METAR LEMD 031000Z 25001KT CAVOK 12/01 Q1024 NOSIG,1,0,0,9999,0,0,0,
2026-04-03 09:30:00,METAR LEMD 030930Z 08002KT CAVOK 11/02 Q1024 NOSIG,1,0,0,9999,0,0,0,
2026-04-03 09:00:00,METAR LEMD 030900Z 12003KT CAVOK 08/01 Q1024 NOSIG,1,0,0,9999,0,0,0,
2026-04-03 08:30:00,METAR LEMD 030830Z 20003KT 150V270 CAVOK 07/01 Q1024 NOSIG,1,0,0,9999,0,0,0,
2026-04-03 08:00:00,METAR LEMD 030800Z VRB01KT CAVOK 06/02 Q1024 NOSIG,1,0,0,9999,0,0,0,
2026-04-03 07:30:00,METAR LEMD 030730Z 34002KT CAVOK 04/01 Q1023 NOSIG,1,0,0,9999,0,0,0,
2026-04-03 07:00:00,METAR LEMD 030700Z 00000KT CAVOK 03/00 Q1023 NOSIG,1,0,0,9999,0,0,0,
2026-04-03 06:30:00,METAR LEMD 030630Z VRB01KT CAVOK 02/00 Q1023 NOSIG,1,0,0,9999,0,0,0,
2026-04-03 06:00:00,METAR LEMD 030600Z 36003KT CAVOK 02/M00 Q1022 NOSIG,1,0,0,9999,0,0,0,
2026-04-03 05:30:00,METAR LEMD 030530Z VRB02KT CAVOK 03/M00 Q1022 NOSIG,1,0,0,9999,0,0,0,
2026-04-03 05:00:00,METAR LEMD 030500Z 04003KT CAVOK 03/M00 Q1022 NOSIG,1,0,0,9999,0,0,0,
2026-04-03 04:30:00,METAR LEMD 030430Z 00000KT CAVOK 03/M00 Q1022 NOSIG,1,0,0,9999,0,0,0,
2026-04-03 04:00:00,METAR LEMD 030400Z 02002KT CAVOK 03/M00 Q1022 NOSIG,1,0,0,9999,0,0,0,
2026-04-03 03:30:00,METAR LEMD 030330Z VRB02KT CAVOK 04/M00 Q1022 NOSIG,1,0,0,9999,0,0,0,
2026-04-03 03:00:00,METAR LEMD 030300Z 36001KT CAVOK 04/M00 Q1022 NOSIG,1,0,0,9999,0,0,0,
2026-04-03 02:30:00,METAR LEMD 030230Z 15003KT CAVOK 05/M00 Q1022 NOSIG,1,0,0,9999,0,0,0,
2026-04-03 02:00:00,METAR LEMD 030200Z VRB01KT CAVOK 06/M00 Q1022 NOSIG,1,0,0,9999,0,0,0,
2026-04-03 01:30:00,METAR LEMD 030130Z VRB01KT CAVOK 06/M00 Q1022 NOSIG,1,0,0,9999,0,0,0,
2026-04-03 01:00:00,METAR LEMD 030100Z VRB01KT CAVOK 06/M00 Q1022 NOSIG,1,0,0,9999,0,0,0,
2026-04-03 00:30:00,METAR LEMD 030030Z VRB02KT CAVOK 07/M00 Q1022 NOSIG,1,0,0,9999,0,0,0,
2026-04-03 00:00:00,METAR LEMD 030000Z 07003KT 020V130 CAVOK 07/M00 Q1022 NOSIG,1,0,0,9999,0,0,0,
2026-04-02 23:30:00,METAR LEMD 022330Z 05002KT CAVOK 08/M00 Q1022 NOSIG,1,0,0,9999,0,0,0,
2026-04-02 23:00:00,METAR LEMD 022300Z 13002KT CAVOK 09/M01 Q1022 NOSIG,1,0,0,9999,0,0,0,
2026-04-02 22:30:00,METAR LEMD 022230Z 09001KT CAVOK 10/M01 Q1022 NOSIG,1,0,0,9999,0,0,0,
2026-04-02 22:00:00,METAR LEMD 022200Z 03005KT 320V100 CAVOK 11/M01 Q1021 NOSIG,1,0,0,9999,0,0,0,
2026-04-02 21:30:00,METAR LEMD 022130Z 02009KT 310V080 CAVOK 11/M01 Q1021 NOSIG,1,0,0,9999,0,0,0,
2026-04-02 21:00:00,METAR LEMD 022100Z 36011KT 330V030 CAVOK 11/M01 Q1021 NOSIG,1,0,0,9999,0,0,0,
2026-04-02 20:30:00,METAR LEMD 022030Z 01008KT 330V070 CAVOK 12/M01 Q1021 NOSIG,1,0,0,9999,0,0,0,
2026-04-02 20:00:00,METAR LEMD 022000Z 35012KT 310V040 CAVOK 13/M01 Q1021 NOSIG,1,0,0,9999,0,0,0,
2026-04-02 19:30:00,METAR LEMD 021930Z 36009KT 330V040 CAVOK 13/M00 Q1021 NOSIG,1,0,0,9999,0,0,0,
2026-04-02 19:00:00,METAR LEMD 021900Z 01009KT 330V070 CAVOK 14/M01 Q1020 NOSIG,1,0,0,9999,0,0,0,
2026-04-02 18:30:00,METAR LEMD 021830Z 01009KT 320V050 CAVOK 14/M00 Q1020 NOSIG,1,0,0,9999,0,0,0,
2026-04-02 18:00:00,METAR LEMD 021800Z 01011KT 330V070 CAVOK 15/M00 Q1019 NOSIG,1,0,0,9999,0,0,0,
2026-04-02 17:30:00,METAR LEMD 021730Z 01011G21KT 330V080 CAVOK 16/M00 Q1019 NOSIG,1,0,0,9999,0,0,0,
2026-04-02 17:00:00,METAR LEMD 021700Z 36012KT CAVOK 17/01 Q1019 NOSIG,1,0,0,9999,0,0,0,
2026-04-02 16:30:00,METAR LEMD 021630Z 36013KT 310V030 CAVOK 17/00 Q1019 NOSIG,1,0,0,9999,0,0,0,
2026-04-02 16:00:00,METAR LEMD 021600Z 36016KT 340V040 CAVOK 17/00 Q1019 NOSIG,1,0,0,9999,0,0,0,
2026-04-02 15:30:00,METAR LEMD 021530Z 36017KT 330V040 CAVOK 17/01 Q1019 NOSIG,1,0,0,9999,0,0,0,
2026-04-02 15:00:00,METAR LEMD 021500Z 01013G23KT 340V080 CAVOK 17/02 Q1019 NOSIG,1,0,0,9999,0,0,0,
2026-04-02 14:30:00,METAR LEMD 021430Z 02012KT 340V070 CAVOK 17/01 Q1018 NOSIG,1,0,0,9999,0,0,0,
2026-04-02 14:00:00,METAR LEMD 021400Z 36016KT 330V060 CAVOK 17/00 Q1019 NOSIG,1,0,0,9999,0,0,0,
2026-04-02 13:30:00,METAR LEMD 021330Z 01013KT 330V070 CAVOK 17/00 Q1019 NOSIG,1,0,0,9999,0,0,0,
2026-04-02 13:00:00,METAR LEMD 021300Z 01011KT 340V060 CAVOK 16/00 Q1019 NOSIG,1,0,0,9999,0,0,0,
2026-04-02 12:30:00,METAR LEMD 021230Z 35013KT 330V040 CAVOK 16/01 Q1019 NOSIG,1,0,0,9999,0,0,0,
2026-04-02 12:00:00,METAR LEMD 021200Z 36013KT 330V040 CAVOK 16/01 Q1020 NOSIG,1,0,0,9999,0,0,0,
2026-04-02 11:30:00,METAR LEMD 021130Z 01014G24KT 330V060 CAVOK 15/01 Q1020 NOSIG,1,0,0,9999,0,0,0,
2026-04-02 11:00:00,METAR LEMD 021100Z 36015KT 320V020 CAVOK 14/01 Q1020 NOSIG,1,0,0,9999,0,0,0,
2026-04-02 10:30:00,METAR LEMD 021030Z 36013KT 330V050 CAVOK 13/01 Q1020 NOSIG,1,0,0,9999,0,0,0,
2026-04-02 10:00:00,METAR LEMD 021000Z 36008KT 310V060 9999 FEW078 12/01 Q1021 NOSIG,0,8,0,10000,0,0,0,
2026-04-02 09:30:00,METAR LEMD 020930Z 06004KT CAVOK 11/02 Q1021 NOSIG,1,0,0,9999,0,0,0,
2026-04-02 09:00:00,METAR LEMD 020900Z 33009KT 280V020 CAVOK 10/00 Q1021 NOSIG,1,0,0,9999,0,0,0,
2026-04-02 08:30:00,METAR LEMD 020830Z 36010KT 320V030 CAVOK 09/01 Q1021 NOSIG,1,0,0,9999,0,0,0,
2026-04-02 08:00:00,METAR LEMD 020800Z 36009KT 330V050 CAVOK 09/01 Q1021 NOSIG,1,0,0,9999,0,0,0,
2026-04-02 07:30:00,METAR LEMD 020730Z 36014KT 340V040 CAVOK 09/01 Q1020 NOSIG,1,0,0,9999,0,0,0,
2026-04-02 07:00:00,METAR LEMD 020700Z 01010KT 330V060 CAVOK 09/00 Q1020 NOSIG,1,0,0,9999,0,0,0,
2026-04-02 06:30:00,METAR LEMD 020630Z 02005KT 330V070 CAVOK 09/00 Q1020 NOSIG,1,0,0,9999,0,0,0,
2026-04-02 06:00:00,METAR LEMD 020600Z 36011KT CAVOK 08/M00 Q1020 NOSIG,1,0,0,9999,0,0,0,
2026-04-02 05:30:00,METAR LEMD 020530Z 35013KT CAVOK 08/M00 Q1019 NOSIG,1,0,0,9999,0,0,0,
2026-04-02 05:00:00,METAR LEMD 020500Z 34010KT 300V020 CAVOK 08/M00 Q1019 NOSIG,1,0,0,9999,0,0,0,
2026-04-02 04:30:00,METAR LEMD 020430Z 34011KT 300V010 CAVOK 09/M01 Q1019 NOSIG,1,0,0,9999,0,0,0,
2026-04-02 04:00:00,METAR LEMD 020400Z 35011KT 310V030 CAVOK 09/M02 Q1019 NOSIG,1,0,0,9999,0,0,0,
2026-04-02 03:30:00,METAR LEMD 020330Z 35009KT 310V040 CAVOK 09/M02 Q1019 NOSIG,1,0,0,9999,0,0,0,
2026-04-02 03:00:00,METAR LEMD 020300Z 32006KT CAVOK 07/M02 Q1019 NOSIG,1,0,0,9999,0,0,0,
2026-04-02 02:30:00,METAR LEMD 020230Z 35002KT CAVOK 08/M02 Q1020 NOSIG,1,0,0,9999,0,0,0,
2026-04-02 02:00:00,METAR LEMD 020200Z 30004KT CAVOK 09/M03 Q1020 NOSIG,1,0,0,9999,0,0,0,
2026-04-02 01:30:00,METAR LEMD 020130Z 29004KT 220V010 CAVOK 09/M03 Q1020 NOSIG,1,0,0,9999,0,0,0,
2026-04-02 01:00:00,METAR LEMD 020100Z 01005KT 330V050 CAVOK 09/M03 Q1020 NOSIG,1,0,0,9999,0,0,0,
2026-04-02 00:30:00,METAR LEMD 020030Z 01007KT 340V060 CAVOK 10/M03 Q1020 NOSIG,1,0,0,9999,0,0,0,
2026-04-02 00:00:00,METAR LEMD 020000Z 01007KT 340V050 CAVOK 09/M01 Q1021 NOSIG,1,0,0,9999,0,0,0,
2026-04-01 23:30:00,METAR LEMD 012330Z 01007KT 330V050 CAVOK 10/M01 Q1021 NOSIG,1,0,0,9999,0,0,0,
2026-04-01 23:00:00,METAR LEMD 012300Z 01009KT 330V050 CAVOK 10/M01 Q1021 NOSIG,1,0,0,9999,0,0,0,
2026-04-01 22:30:00,METAR LEMD 012230Z 36009KT 330V030 CAVOK 11/M00 Q1021 NOSIG,1,0,0,9999,0,0,0,
2026-04-01 22:00:00,METAR LEMD 012200Z 36010KT 330V030 CAVOK 11/00 Q1021 NOSIG,1,0,0,9999,0,0,0,
2026-04-01 21:30:00,METAR LEMD 012130Z 36009KT 340V040 CAVOK 11/00 Q1021 NOSIG,1,0,0,9999,0,0,0,
2026-04-01 21:00:00,METAR LEMD 012100Z 36008KT CAVOK 11/00 Q1021 NOSIG,1,0,0,9999,0,0,0,
2026-04-01 20:30:00,METAR LEMD 012030Z 36009KT CAVOK 12/00 Q1022 NOSIG,1,0,0,9999,0,0,0,
2026-04-01 20:00:00,METAR LEMD 012000Z 34010KT CAVOK 13/00 Q1021 NOSIG,1,0,0,9999,0,0,0,
2026-04-01 19:30:00,METAR LEMD 011930Z 36008KT CAVOK 13/00 Q1021 NOSIG,1,0,0,9999,0,0,0,
2026-04-01 19:00:00,METAR LEMD 011900Z 36011KT CAVOK 14/00 Q1021 NOSIG,1,0,0,9999,0,0,0,
2026-04-01 18:30:00,METAR LEMD 011830Z 35013KT CAVOK 15/00 Q1021 NOSIG,1,0,0,9999,0,0,0,
2026-04-01 18:00:00,METAR LEMD 011800Z 36014KT 310V030 CAVOK 16/01 Q1021 NOSIG,1,0,0,9999,0,0,0,
2026-04-01 17:30:00,METAR LEMD 011730Z 35012KT 330V030 CAVOK 17/01 Q1020 NOSIG,1,0,0,9999,0,0,0,
2026-04-01 17:00:00,METAR LEMD 011700Z 36011KT 320V040 CAVOK 18/01 Q1020 NOSIG,1,0,0,9999,0,0,0,
2026-04-01 16:30:00,METAR LEMD 011630Z 35014KT 310V040 CAVOK 18/02 Q1020 NOSIG,1,0,0,9999,0,0,0,
2026-04-01 16:00:00,METAR LEMD 011600Z 36013KT 330V040 9999 FEW060 18/02 Q1020 NOSIG,0,13,0,10000,0,0,0,
2026-04-01 15:30:00,METAR LEMD 011530Z 34016KT 9999 FEW050 19/02 Q1020 NOSIG,0,16,0,10000,0,0,0,
2026-04-01 15:00:00,METAR LEMD 011500Z 35012KT 320V060 9999 FEW050 19/02 Q1020 NOSIG,0,12,0,10000,0,0,0,
2026-04-01 14:00:00,METAR LEMD 011400Z 01011KT 340V050 CAVOK 19/02 Q1021 NOSIG,1,0,0,9999,0,0,0,
2026-04-01 13:30:00,METAR LEMD 011330Z 35013KT 310V040 9999 FEW055 19/03 Q1021 NOSIG,0,13,0,10000,0,0,0,
2026-04-01 13:00:00,METAR LEMD 011300Z 01011KT 340V040 9999 FEW055 18/02 Q1021 NOSIG,0,11,0,10000,0,0,0,
2026-04-01 12:30:00,METAR LEMD 011230Z 01012G23KT 330V070 CAVOK 18/03 Q1022 NOSIG,1,0,0,9999,0,0,0,
2026-04-01 12:00:00,METAR LEMD 011200Z 02012G23KT 340V070 CAVOK 18/03 Q1022 NOSIG,1,0,0,9999,0,0,0,
2026-04-01 11:30:00,METAR LEMD 011130Z 02012G24KT 320V080 CAVOK 16/03 Q1023 NOSIG,1,0,0,9999,0,0,0,
2026-04-01 11:00:00,METAR LEMD 011100Z 01012G22KT CAVOK 16/02 Q1023 NOSIG,1,0,0,9999,0,0,0,
2026-04-01 10:30:00,METAR LEMD 011030Z 01010KT 320V100 CAVOK 15/02 Q1023 NOSIG,1,0,0,9999,0,0,0,
2026-04-01 10:00:00,METAR LEMD 011000Z 01012G24KT 340V070 CAVOK 15/01 Q1024 NOSIG,1,0,0,9999,0,0,0,
2026-04-01 09:30:00,METAR LEMD 010930Z 36014KT 330V030 CAVOK 14/02 Q1024 NOSIG,1,0,0,9999,0,0,0,
2026-04-01 09:00:00,METAR LEMD 010900Z 36013KT 320V030 CAVOK 13/02 Q1024 NOSIG,1,0,0,9999,0,0,0,
2026-04-01 08:30:00,METAR LEMD 010830Z 36014KT 340V040 CAVOK 12/02 Q1024 NOSIG,1,0,0,9999,0,0,0,
2026-04-01 08:00:00,METAR LEMD 010800Z 01013KT 330V050 CAVOK 11/02 Q1023 NOSIG,1,0,0,9999,0,0,0,
2026-04-01 07:30:00,METAR LEMD 010730Z 36012KT 320V050 CAVOK 10/02 Q1023 NOSIG,1,0,0,9999,0,0,0,
2026-04-01 07:00:00,METAR LEMD 010700Z 36010KT 320V040 CAVOK 09/02 Q1023 NOSIG,1,0,0,9999,0,0,0,
2026-04-01 06:30:00,METAR LEMD 010630Z 01012G22KT 340V040 CAVOK 08/02 Q1023 NOSIG,1,0,0,9999,0,0,0,
2026-04-01 06:00:00,METAR LEMD 010600Z 36009G19KT 320V040 CAVOK 08/01 Q1023 NOSIG,1,0,0,9999,0,0,0,
2026-04-01 05:30:00,METAR LEMD 010530Z 35006KT 310V030 CAVOK 07/01 Q1023 NOSIG,1,0,0,9999,0,0,0,
2026-04-01 05:00:00,METAR LEMD 010500Z 36008KT 330V030 CAVOK 07/01 Q1023 NOSIG,1,0,0,9999,0,0,0,
2026-04-01 04:30:00,METAR LEMD 010430Z 36009KT 340V040 CAVOK 07/01 Q1023 NOSIG,1,0,0,9999,0,0,0,
2026-04-01 04:00:00,METAR LEMD 010400Z 36007KT 340V040 CAVOK 07/01 Q1023 NOSIG,1,0,0,9999,0,0,0,
2026-04-01 03:30:00,METAR LEMD 010330Z 02003KT 340V070 CAVOK 07/00 Q1023 NOSIG,1,0,0,9999,0,0,0,
2026-04-01 03:00:00,METAR LEMD 010300Z 35008KT CAVOK 07/01 Q1024 NOSIG,1,0,0,9999,0,0,0,
2026-04-01 02:30:00,METAR LEMD 010230Z 36006KT 340V040 CAVOK 08/01 Q1024 NOSIG,1,0,0,9999,0,0,0,
2026-04-01 02:00:00,METAR LEMD 010200Z 01009KT 320V040 CAVOK 08/01 Q1024 NOSIG,1,0,0,9999,0,0,0,
2026-04-01 01:30:00,METAR LEMD 010130Z 36008KT 330V040 CAVOK 08/01 Q1024 NOSIG,1,0,0,9999,0,0,0,
2026-04-01 01:00:00,METAR LEMD 010100Z 36007KT 340V040 CAVOK 08/01 Q1024 NOSIG,1,0,0,9999,0,0,0,
2026-04-01 00:30:00,METAR LEMD 010030Z 01005KT 330V080 CAVOK 08/01 Q1025 NOSIG,1,0,0,9999,0,0,0,
2026-04-01 00:00:00,METAR LEMD 010000Z 35008KT 310V010 CAVOK 08/01 Q1024 NOSIG,1,0,0,9999,0,0,0,
2026-03-31 23:30:00,METAR LEMD 312330Z 35009KT 310V020 CAVOK 08/01 Q1025 NOSIG,1,0,0,9999,0,0,0,
2026-03-31 23:00:00,METAR LEMD 312300Z 36008KT 330V040 CAVOK 09/01 Q1025 NOSIG,1,0,0,9999,0,0,0,
2026-03-31 22:30:00,METAR LEMD 312230Z 01010KT CAVOK 09/01 Q1025 NOSIG,1,0,0,9999,0,0,0,
2026-03-31 22:00:00,METAR LEMD 312200Z 36010KT 340V060 CAVOK 10/01 Q1025 NOSIG,1,0,0,9999,0,0,0,
2026-03-31 21:30:00,METAR LEMD 312130Z 36008KT 340V050 CAVOK 10/01 Q1026 NOSIG,1,0,0,9999,0,0,0,
2026-03-31 21:00:00,METAR LEMD 312100Z 36010KT 290V070 CAVOK 11/01 Q1026 NOSIG,1,0,0,9999,0,0,0,
2026-03-31 20:30:00,METAR LEMD 312030Z 36013KT 340V040 CAVOK 11/02 Q1025 NOSIG,1,0,0,9999,0,0,0,
2026-03-31 20:00:00,METAR LEMD 312000Z 36011KT CAVOK 12/02 Q1025 NOSIG,1,0,0,9999,0,0,0,
2026-03-31 19:30:00,METAR LEMD 311930Z 36014KT 330V030 CAVOK 12/02 Q1025 NOSIG,1,0,0,9999,0,0,0,
2026-03-31 19:00:00,METAR LEMD 311900Z 35016KT CAVOK 13/03 Q1024 NOSIG,1,0,0,9999,0,0,0,
2026-03-31 18:30:00,METAR LEMD 311830Z 35015KT 330V030 CAVOK 14/03 Q1024 NOSIG,1,0,0,9999,0,0,0,
2026-03-31 18:00:00,METAR LEMD 311800Z 35017KT 330V030 CAVOK 16/03 Q1024 NOSIG,1,0,0,9999,0,0,0,
2026-03-31 17:30:00,METAR LEMD 311730Z 35018KT 320V020 CAVOK 17/02 Q1023 NOSIG,1,0,0,9999,0,0,0,
2026-03-31 17:00:00,METAR LEMD 311700Z 35018KT CAVOK 18/02 Q1023 NOSIG,1,0,0,9999,0,0,0,
2026-03-31 16:30:00,METAR LEMD 311630Z 35017KT 320V030 CAVOK 18/02 Q1023 NOSIG,1,0,0,9999,0,0,0,
2026-03-31 16:00:00,METAR LEMD 311600Z 35019G32KT 310V020 9999 FEW068 19/03 Q1023 NOSIG,0,19,1,9999,0,0,0,
2026-03-31 15:30:00,METAR LEMD 311530Z 36018KT 330V030 9999 FEW068 19/02 Q1023 NOSIG,0,18,0,9999,0,0,0,
2026-03-31 15:00:00,METAR LEMD 311500Z 35016KT 320V020 CAVOK 20/02 Q1023 NOSIG,1,0,0,9999,0,0,0,
2026-03-31 14:30:00,METAR LEMD 311430Z 36017G27KT 320V030 CAVOK 19/03 Q1023 NOSIG,1,0,0,9999,0,0,0,
2026-03-31 14:00:00,METAR LEMD 311400Z 35017KT 310V030 CAVOK 20/03 Q1024 NOSIG,1,0,0,9999,0,0,0,
2026-03-31 13:30:00,METAR LEMD 311330Z 34015KT 300V020 CAVOK 19/03 Q1024 NOSIG,1,0,0,9999,0,0,0,
2026-03-31 13:00:00,METAR LEMD 311300Z 36013KT 320V060 CAVOK 19/04 Q1024 NOSIG,1,0,0,9999,0,0,0,
2026-03-31 12:30:00,METAR LEMD 311230Z 35015KT 320V070 CAVOK 19/04 Q1025 NOSIG,1,0,0,9999,0,0,0,
2026-03-31 12:00:00,METAR LEMD 311200Z 36015KT 330V040 CAVOK 18/03 Q1025 NOSIG,1,0,0,9999,0,0,0,
2026-03-31 11:30:00,METAR LEMD 311130Z 36013KT 330V040 CAVOK 17/03 Q1025 NOSIG,1,0,0,9999,0,0,0,
2026-03-31 11:00:00,METAR LEMD 311100Z 35014KT 310V030 CAVOK 17/03 Q1026 NOSIG,1,0,0,9999,0,0,0,
2026-03-31 10:30:00,METAR LEMD 311030Z 35012KT 310V030 CAVOK 16/03 Q1026 NOSIG,1,0,0,9999,0,0,0,
2026-03-31 10:00:00,METAR LEMD 311000Z 36012G22KT 320V070 CAVOK 15/03 Q1026 NOSIG,1,0,0,9999,0,0,0,
2026-03-31 09:30:00,METAR LEMD 310930Z 01011G21KT 330V050 CAVOK 14/03 Q1026 NOSIG,1,0,0,9999,0,0,0,
2026-03-31 09:00:00,METAR LEMD 310900Z 01015G28KT 340V070 CAVOK 13/03 Q1026 NOSIG,1,0,0,9999,0,0,0,
2026-03-31 08:30:00,METAR LEMD 310830Z 02011KT 330V090 CAVOK 13/03 Q1026 NOSIG,1,0,0,9999,0,0,0,
2026-03-31 08:00:00,METAR LEMD 310800Z 02011KT 340V050 CAVOK 12/03 Q1026 NOSIG,1,0,0,9999,0,0,0,
2026-03-31 07:30:00,METAR LEMD 310730Z 02009KT 330V070 CAVOK 11/03 Q1026 NOSIG,1,0,0,9999,0,0,0,
2026-03-31 07:00:00,METAR LEMD 310700Z 36009KT 340V050 CAVOK 10/02 Q1026 NOSIG,1,0,0,9999,0,0,0,
2026-03-31 06:30:00,METAR LEMD 310630Z 01011KT 320V060 CAVOK 10/02 Q1026 NOSIG,1,0,0,9999,0,0,0,
2026-03-31 06:00:00,METAR LEMD 310600Z 36014KT 330V040 CAVOK 10/03 Q1025 NOSIG,1,0,0,9999,0,0,0,
2026-03-31 05:30:00,METAR LEMD 310530Z 01011G21KT 330V050 CAVOK 10/02 Q1025 NOSIG,1,0,0,9999,0,0,0,
2026-03-31 05:00:00,METAR LEMD 310500Z 36013KT 300V040 CAVOK 10/03 Q1025 NOSIG,1,0,0,9999,0,0,0,
2026-03-31 04:30:00,METAR LEMD 310430Z 36014KT CAVOK 10/03 Q1025 NOSIG,1,0,0,9999,0,0,0,
2026-03-31 04:00:00,METAR LEMD 310400Z 36010KT 310V050 CAVOK 10/03 Q1025 NOSIG,1,0,0,9999,0,0,0,
2026-03-31 03:30:00,METAR LEMD 310330Z 01010KT 340V040 CAVOK 11/03 Q1025 NOSIG,1,0,0,9999,0,0,0,
2026-03-31 03:00:00,METAR LEMD 310300Z 02007KT 330V060 CAVOK 11/04 Q1025 NOSIG,1,0,0,9999,0,0,0,
2026-03-31 02:30:00,METAR LEMD 310230Z 01006KT 330V040 CAVOK 10/04 Q1025 NOSIG,1,0,0,9999,0,0,0,
2026-03-31 02:00:00,METAR LEMD 310200Z 01009KT 330V040 CAVOK 11/04 Q1026 NOSIG,1,0,0,9999,0,0,0,
2026-03-31 01:30:00,METAR LEMD 310130Z 35006KT 310V020 CAVOK 11/04 Q1026 NOSIG,1,0,0,9999,0,0,0,
2026-03-31 01:00:00,METAR LEMD 310100Z 34008KT 310V010 CAVOK 11/03 Q1026 NOSIG,1,0,0,9999,0,0,0,
2026-03-31 00:30:00,METAR LEMD 310030Z 34010KT CAVOK 11/03 Q1026 NOSIG,1,0,0,9999,0,0,0,
2026-03-31 00:00:00,METAR LEMD 310000Z 01009KT 330V040 CAVOK 11/03 Q1026 NOSIG,1,0,0,9999,0,0,0,
2026-03-30 23:30:00,METAR LEMD 302330Z 36015KT 330V030 CAVOK 12/04 Q1026 NOSIG,1,0,0,9999,0,0,0,
2026-03-30 23:00:00,METAR LEMD 302300Z 35015KT 310V030 CAVOK 12/03 Q1027 NOSIG,1,0,0,9999,0,0,0,
2026-03-30 22:30:00,METAR LEMD 302230Z 35010KT CAVOK 11/04 Q1027 NOSIG,1,0,0,9999,0,0,0,
2026-03-30 22:00:00,METAR LEMD 302200Z 35005KT CAVOK 11/04 Q1027 NOSIG,1,0,0,9999,0,0,0,
2026-03-30 21:30:00,METAR LEMD 302130Z 35012KT CAVOK 12/04 Q1027 NOSIG,1,0,0,9999,0,0,0,
2026-03-30 21:00:00,METAR LEMD 302100Z 36013KT 330V040 CAVOK 12/04 Q1027 NOSIG,1,0,0,9999,0,0,0,
2026-03-30 20:30:00,METAR LEMD 302030Z 36015G27KT 330V030 CAVOK 13/04 Q1027 NOSIG,1,0,0,9999,0,0,0,
2026-03-30 20:00:00,METAR LEMD 302000Z 36017G28KT 340V050 CAVOK 13/04 Q1027 NOSIG,1,0,0,9999,0,0,0,
2026-03-30 19:30:00,METAR LEMD 301930Z 35020KT 9999 FEW060 14/04 Q1026 NOSIG,0,20,0,10000,0,0,0,
2026-03-30 19:00:00,METAR LEMD 301900Z 36017KT 330V030 9999 FEW060 14/04 Q1026 NOSIG,0,17,0,10000,0,0,0,
2026-03-30 18:30:00,METAR LEMD 301830Z 36014G25KT 330V070 9999 FEW060 15/04 Q1026 NOSIG,0,14,1,10000,0,0,0,
2026-03-30 18:00:00,METAR LEMD 301800Z 35013KT 320V030 9999 FEW070 16/04 Q1026 NOSIG,0,13,0,10000,0,0,0,
2026-03-30 17:30:00,METAR LEMD 301730Z 35015KT 300V020 9999 FEW070 17/04 Q1026 NOSIG,0,15,0,10000,0,0,0,
2026-03-30 17:00:00,METAR LEMD 301700Z 36017KT 9999 FEW070 18/03 Q1026 NOSIG,0,17,0,10000,0,0,0,
2026-03-30 16:30:00,METAR LEMD 301630Z 35014KT 310V020 9999 FEW060 18/03 Q1026 NOSIG,0,14,0,10000,0,0,0,
2026-03-30 16:00:00,METAR LEMD 301600Z 35012KT 310V030 9999 FEW060 18/03 Q1026 NOSIG,0,12,0,10000,0,0,0,
2026-03-30 15:30:00,METAR LEMD 301530Z 34014KT 300V010 CAVOK 19/03 Q1026 NOSIG,1,0,0,9999,0,0,0,
2026-03-30 15:00:00,METAR LEMD 301500Z 36010KT 310V040 9999 FEW068 19/04 Q1026 NOSIG,0,10,0,10000,0,0,0,
2026-03-30 14:30:00,METAR LEMD 301430Z 03009KT 320V080 9999 FEW068 19/03 Q1026 NOSIG,0,9,0,10000,0,0,0,
2026-03-30 14:00:00,METAR LEMD 301400Z 02007KT 9999 FEW068 19/02 Q1027 NOSIG,0,7,0,10000,0,0,0,
2026-03-30 13:30:00,METAR LEMD 301330Z 04008KT 330V100 9999 FEW066 19/03 Q1027 NOSIG,0,8,0,10000,0,0,0,
2026-03-30 13:00:00,METAR LEMD 301300Z 33006KT 290V010 9999 FEW070 17/01 Q1027 NOSIG,0,6,0,10000,0,0,0,
2026-03-30 12:30:00,METAR LEMD 301230Z 35007KT 260V020 CAVOK 16/01 Q1028 NOSIG,1,0,0,9999,0,0,0,
2026-03-30 12:00:00,METAR LEMD 301200Z 33003KT 260V040 CAVOK 15/00 Q1028 NOSIG,1,0,0,9999,0,0,0,
2026-03-30 11:30:00,METAR LEMD 301130Z 36006KT 280V070 CAVOK 14/00 Q1029 NOSIG,1,0,0,9999,0,0,0,
2026-03-30 11:00:00,METAR LEMD 301100Z 30003KT 230V040 CAVOK 11/M03 Q1029 NOSIG,1,0,0,9999,0,0,0,
2026-03-30 10:30:00,METAR LEMD 301030Z 24003KT CAVOK 11/M01 Q1029 NOSIG,1,0,0,9999,0,0,0,
2026-03-30 10:00:00,METAR LEMD 301000Z 34002KT CAVOK 09/M03 Q1030 NOSIG,1,0,0,9999,0,0,0,
2026-03-30 09:30:00,METAR LEMD 300930Z 19004KT 150V300 CAVOK 08/M04 Q1030 NOSIG,1,0,0,9999,0,0,0,
2026-03-30 09:00:00,METAR LEMD 300900Z VRB02KT CAVOK 07/M05 Q1030 NOSIG,1,0,0,9999,0,0,0,
2026-03-30 08:30:00,METAR LEMD 300830Z 32001KT CAVOK 06/M04 Q1029 NOSIG,1,0,0,9999,0,0,0,
2026-03-30 08:00:00,METAR LEMD 300800Z VRB02KT CAVOK 05/M04 Q1029 NOSIG,1,0,0,9999,0,0,0,
2026-03-30 07:30:00,METAR LEMD 300730Z VRB02KT CAVOK 03/M04 Q1029 NOSIG,1,0,0,9999,0,0,0,
2026-03-30 07:00:00,METAR LEMD 300700Z VRB01KT CAVOK 01/M03 Q1029 NOSIG,1,0,0,9999,0,0,0,
2026-03-30 06:30:00,METAR LEMD 300630Z VRB01KT CAVOK 00/M04 Q1029 NOSIG,1,0,0,9999,0,0,0,
2026-03-30 06:00:00,METAR LEMD 300600Z VRB02KT CAVOK 00/M05 Q1029 NOSIG,1,0,0,9999,0,0,0,
2026-03-30 05:30:00,METAR LEMD 300530Z 36003KT CAVOK 01/M05 Q1029 NOSIG,1,0,0,9999,0,0,0,
2026-03-30 05:00:00,METAR LEMD 300500Z VRB01KT CAVOK M00/M05 Q1028 NOSIG,1,0,0,9999,0,0,0,
2026-03-30 04:30:00,METAR LEMD 300430Z 00000KT CAVOK 01/M05 Q1028 NOSIG,1,0,0,9999,0,0,0,
2026-03-30 04:00:00,METAR LEMD 300400Z VRB02KT CAVOK 02/M06 Q1029 NOSIG,1,0,0,9999,0,0,0,
2026-03-30 03:30:00,METAR LEMD 300330Z 18001KT CAVOK 03/M06 Q1029 NOSIG,1,0,0,9999,0,0,0,
2026-03-30 03:00:00,METAR LEMD 300300Z 06002KT CAVOK 03/M06 Q1029 NOSIG,1,0,0,9999,0,0,0,
2026-03-30 02:30:00,METAR LEMD 300230Z 04004KT CAVOK 03/M06 Q1029 NOSIG,1,0,0,9999,0,0,0,
2026-03-30 02:00:00,METAR LEMD 300200Z 36003KT 310V070 CAVOK 03/M06 Q1029 NOSIG,1,0,0,9999,0,0,0,
2026-03-30 01:30:00,METAR LEMD 300130Z 07003KT 350V160 CAVOK 03/M06 Q1029 NOSIG,1,0,0,9999,0,0,0,
2026-03-30 01:00:00,METAR LEMD 300100Z 05004KT 330V130 CAVOK 03/M07 Q1029 NOSIG,1,0,0,9999,0,0,0,
2026-03-30 00:30:00,METAR LEMD 300030Z 07003KT 350V150 CAVOK 03/M07 Q1029 NOSIG,1,0,0,9999,0,0,0,
2026-03-30 00:00:00,METAR LEMD 300000Z 05004KT 320V100 CAVOK 04/M07 Q1030 NOSIG,1,0,0,9999,0,0,0,
2026-03-29 23:30:00,METAR LEMD 292330Z 03004KT 330V080 CAVOK 04/M07 Q1030 NOSIG,1,0,0,9999,0,0,0,
2026-03-29 23:00:00,METAR LEMD 292300Z 05005KT 360V110 CAVOK 05/M07 Q1030 NOSIG,1,0,0,9999,0,0,0,
2026-03-29 22:30:00,METAR LEMD 292230Z 07002KT CAVOK 04/M06 Q1029 NOSIG,1,0,0,9999,0,0,0,
2026-03-29 22:00:00,METAR LEMD 292200Z VRB02KT CAVOK 05/M06 Q1029 NOSIG,1,0,0,9999,0,0,0,
2026-03-29 21:30:00,METAR LEMD 292130Z 02003KT 330V050 CAVOK 06/M06 Q1029 NOSIG,1,0,0,9999,0,0,0,
2026-03-29 21:00:00,METAR LEMD 292100Z 00000KT CAVOK 06/M07 Q1029 NOSIG,1,0,0,9999,0,0,0,
2026-03-29 20:30:00,METAR LEMD 292030Z 02003KT 310V110 CAVOK 07/M07 Q1029 NOSIG,1,0,0,9999,0,0,0,
2026-03-29 20:00:00,METAR LEMD 292000Z 02007KT 310V100 CAVOK 08/M07 Q1028 NOSIG,1,0,0,9999,0,0,0,
2026-03-29 19:30:00,METAR LEMD 291930Z 02008KT 350V060 CAVOK 08/M06 Q1028 NOSIG,1,0,0,9999,0,0,0,
2026-03-29 19:00:00,METAR LEMD 291900Z 03005KT 330V130 CAVOK 08/M06 Q1027 NOSIG,1,0,0,9999,0,0,0,
2026-03-29 18:30:00,METAR LEMD 291830Z 04007G18KT 320V100 CAVOK 09/M06 Q1027 NOSIG,1,0,0,9999,0,0,0,
2026-03-29 18:00:00,METAR LEMD 291800Z 05010G20KT 350V110 CAVOK 10/M06 Q1026 NOSIG,1,0,0,9999,0,0,0,
2026-03-29 17:30:00,METAR LEMD 291730Z 36013KT 330V040 9999 FEW077 11/M04 Q1026 NOSIG,0,13,0,10000,0,0,0,
2026-03-29 17:00:00,METAR LEMD 291700Z 01011KT 320V080 CAVOK 12/M05 Q1025 NOSIG,1,0,0,9999,0,0,0,
2026-03-29 16:30:00,METAR LEMD 291630Z 01013G24KT 340V060 CAVOK 13/M06 Q1025 NOSIG,1,0,0,9999,0,0,0,
2026-03-29 16:00:00,METAR LEMD 291600Z 35015KT 330V050 9999 FEW080 13/M06 Q1025 NOSIG,0,15,0,10000,0,0,0,
2026-03-29 15:30:00,METAR LEMD 291530Z 35015KT 330V030 9999 FEW080 13/M05 Q1025 NOSIG,0,15,0,10000,0,0,0,
2026-03-29 15:00:00,METAR LEMD 291500Z 36018G28KT 330V060 9999 FEW060 13/M05 Q1024 NOSIG,0,18,1,10000,0,0,0,
2026-03-29 14:30:00,METAR LEMD 291430Z 36016G26KT 330V050 9999 FEW070 13/M05 Q1025 NOSIG,0,16,1,10000,0,0,0,
2026-03-29 14:00:00,METAR LEMD 291400Z 01016G28KT 340V060 9999 FEW070 13/M05 Q1025 NOSIG,0,16,1,10000,0,0,0,
2026-03-29 13:30:00,METAR LEMD 291330Z 35019G29KT 9999 FEW070 13/M05 Q1026 NOSIG,0,19,1,10000,0,0,0,
2026-03-29 13:00:00,METAR LEMD 291300Z 01015KT 330V050 9999 FEW070 13/M03 Q1026 NOSIG,0,15,0,10000,0,0,0,
2026-03-29 12:30:00,METAR LEMD 291230Z 36016G26KT 330V060 9999 FEW070 13/M06 Q1026 NOSIG,0,16,1,10000,0,0,0,
2026-03-29 12:00:00,METAR LEMD 291200Z 36016G28KT 330V040 9999 FEW070 12/M03 Q1026 NOSIG,0,16,1,10000,0,0,0,
2026-03-29 11:30:00,METAR LEMD 291130Z 36017KT 330V040 9999 FEW058 11/M04 Q1027 NOSIG,0,17,0,10000,0,0,0,
2026-03-29 11:00:00,METAR LEMD 291100Z 35016KT 310V040 9999 FEW058 11/M02 Q1027 NOSIG,0,16,0,10000,0,0,0,
2026-03-29 10:30:00,METAR LEMD 291030Z 34019G29KT 300V020 9999 FEW058 10/M02 Q1027 NOSIG,0,19,1,10000,0,0,0,
2026-03-29 10:00:00,METAR LEMD 291000Z 35019KT 310V030 9999 FEW058 09/M02 Q1027 NOSIG,0,19,0,10000,0,0,0,
2026-03-29 09:30:00,METAR LEMD 290930Z 35017KT 330V030 9999 FEW050 09/M02 Q1027 NOSIG,0,17,0,10000,0,0,0,
2026-03-29 09:00:00,METAR LEMD 290900Z 35018G29KT 330V030 9999 FEW050 08/M03 Q1027 NOSIG,0,18,1,10000,0,0,0,
2026-03-29 08:30:00,METAR LEMD 290830Z 36020KT 320V030 9999 FEW050 07/M03 Q1027 NOSIG,0,20,0,10000,0,0,0,
2026-03-29 08:00:00,METAR LEMD 290800Z 36017G29KT 330V040 CAVOK 07/M03 Q1027 NOSIG,1,0,0,9999,0,0,0,
2026-03-29 07:30:00,METAR LEMD 290730Z 36017KT 330V030 CAVOK 06/M03 Q1027 NOSIG,1,0,0,9999,0,0,0,
2026-03-29 07:00:00,METAR LEMD 290700Z 36014KT 340V040 CAVOK 05/M03 Q1026 NOSIG,1,0,0,9999,0,0,0,
2026-03-29 06:30:00,METAR LEMD 290630Z 36014KT 340V040 CAVOK 05/M04 Q1026 NOSIG,1,0,0,9999,0,0,0,
2026-03-29 06:00:00,METAR LEMD 290600Z 01013G23KT 330V070 CAVOK 05/M04 Q1026 NOSIG,1,0,0,9999,0,0,0,
2026-03-29 05:30:00,METAR LEMD 290530Z 02012KT 340V070 CAVOK 05/M04 Q1025 NOSIG,1,0,0,9999,0,0,0,
2026-03-29 05:00:00,METAR LEMD 290500Z 02010KT 340V060 CAVOK 04/M04 Q1025 NOSIG,1,0,0,9999,0,0,0,
2026-03-29 04:30:00,METAR LEMD 290430Z 02009KT 340V070 CAVOK 04/M05 Q1025 NOSIG,1,0,0,9999,0,0,0,
2026-03-29 04:00:00,METAR LEMD 290400Z 02006KT 310V070 CAVOK 04/M06 Q1026 NOSIG,1,0,0,9999,0,0,0,
2026-03-29 03:30:00,METAR LEMD 290330Z 36006KT 330V040 CAVOK 04/M06 Q1026 NOSIG,1,0,0,9999,0,0,0,
2026-03-29 03:00:00,METAR LEMD 290300Z 36005KT CAVOK 03/M05 Q1026 NOSIG,1,0,0,9999,0,0,0,
2026-03-29 02:30:00,METAR LEMD 290230Z 35006KT CAVOK 04/M05 Q1027 NOSIG,1,0,0,9999,0,0,0,
2026-03-29 02:00:00,METAR LEMD 290200Z 01008KT 330V070 CAVOK 05/M05 Q1027 NOSIG,1,0,0,9999,0,0,0,
2026-03-29 01:30:00,METAR LEMD 290130Z 01011KT 340V060 CAVOK 06/M05 Q1027 NOSIG,1,0,0,9999,0,0,0,
2026-03-29 01:00:00,METAR LEMD 290100Z 01011KT 330V040 CAVOK 06/M04 Q1027 NOSIG,1,0,0,9999,0,0,0,
2026-03-29 00:30:00,METAR LEMD 290030Z 36011KT 320V040 CAVOK 06/M03 Q1027 NOSIG,1,0,0,9999,0,0,0,
2026-03-29 00:00:00,METAR LEMD 290000Z 36011KT 340V050 CAVOK 06/M03 Q1027 NOSIG,1,0,0,9999,0,0,0,
2026-03-28 23:30:00,METAR LEMD 282330Z 36012G22KT 330V030 CAVOK 07/M02 Q1027 NOSIG,1,0,0,9999,0,0,0,
2026-03-28 23:00:00,METAR LEMD 282300Z 36008KT 310V040 CAVOK 07/M02 Q1027 NOSIG,1,0,0,9999,0,0,0,
2026-03-28 22:30:00,METAR LEMD 282230Z 36012G22KT 330V030 CAVOK 08/M02 Q1027 NOSIG,1,0,0,9999,0,0,0,
2026-03-28 22:00:00,METAR LEMD 282200Z 36010KT 320V040 CAVOK 08/M01 Q1027 NOSIG,1,0,0,9999,0,0,0,
2026-03-28 21:30:00,METAR LEMD 282130Z 36013KT 330V030 CAVOK 09/M01 Q1026 NOSIG,1,0,0,9999,0,0,0,
2026-03-28 21:00:00,METAR LEMD 282100Z 36013KT 330V050 CAVOK 10/M00 Q1026 NOSIG,1,0,0,9999,0,0,0,
2026-03-28 20:30:00,METAR LEMD 282030Z 35009KT 330V030 CAVOK 10/01 Q1025 NOSIG,1,0,0,9999,0,0,0,
2026-03-28 20:00:00,METAR LEMD 282000Z 36012KT CAVOK 11/01 Q1025 NOSIG,1,0,0,9999,0,0,0,
2026-03-28 19:30:00,METAR LEMD 281930Z 36015G25KT 330V030 CAVOK 12/01 Q1024 NOSIG,1,0,0,9999,0,0,0,
2026-03-28 19:00:00,METAR LEMD 281900Z 36013KT CAVOK 12/01 Q1024 NOSIG,1,0,0,9999,0,0,0,
2026-03-28 18:30:00,METAR LEMD 281830Z 36011KT 330V030 CAVOK 13/00 Q1023 NOSIG,1,0,0,9999,0,0,0,
2026-03-28 18:00:00,METAR LEMD 281800Z 35016KT 320V020 CAVOK 14/01 Q1023 NOSIG,1,0,0,9999,0,0,0,
2026-03-28 17:30:00,METAR LEMD 281730Z 35015KT 320V030 CAVOK 14/02 Q1022 NOSIG,1,0,0,9999,0,0,0,
2026-03-28 17:00:00,METAR LEMD 281700Z 35014KT 310V010 CAVOK 15/02 Q1022 NOSIG,1,0,0,9999,0,0,0,
2026-03-28 16:30:00,METAR LEMD 281630Z 01011KT 340V040 CAVOK 16/01 Q1022 NOSIG,1,0,0,9999,0,0,0,
2026-03-28 16:00:00,METAR LEMD 281600Z 35016KT CAVOK 15/01 Q1022 NOSIG,1,0,0,9999,0,0,0,
2026-03-28 15:30:00,METAR LEMD 281530Z 35016KT 310V020 CAVOK 15/01 Q1022 NOSIG,1,0,0,9999,0,0,0,
2026-03-28 15:00:00,METAR LEMD 281500Z 34016KT 310V020 CAVOK 15/02 Q1021 NOSIG,1,0,0,9999,0,0,0,
2026-03-28 14:30:00,METAR LEMD 281430Z 36011KT 330V040 CAVOK 15/01 Q1022 NOSIG,1,0,0,9999,0,0,0,
2026-03-28 14:00:00,METAR LEMD 281400Z 36012KT 330V030 CAVOK 15/01 Q1022 NOSIG,1,0,0,9999,0,0,0,
2026-03-28 13:30:00,METAR LEMD 281330Z 36011KT 310V060 CAVOK 16/02 Q1022 NOSIG,1,0,0,9999,0,0,0,
2026-03-28 13:00:00,METAR LEMD 281300Z 01009KT 310V080 CAVOK 15/01 Q1022 NOSIG,1,0,0,9999,0,0,0,
2026-03-28 12:30:00,METAR LEMD 281230Z 36012KT 330V030 CAVOK 15/01 Q1022 NOSIG,1,0,0,9999,0,0,0,
2026-03-28 12:00:00,METAR LEMD 281200Z 35006KT 300V060 CAVOK 15/01 Q1022 NOSIG,1,0,0,9999,0,0,0,
2026-03-28 11:30:00,METAR LEMD 281130Z 04004KT CAVOK 15/01 Q1022 NOSIG,1,0,0,9999,0,0,0,
2026-03-28 11:00:00,METAR LEMD 281100Z 36009KT 330V080 CAVOK 14/M00 Q1022 NOSIG,1,0,0,9999,0,0,0,
2026-03-28 10:30:00,METAR LEMD 281030Z 03005KT 340V100 CAVOK 13/M00 Q1023 NOSIG,1,0,0,9999,0,0,0,
2026-03-28 10:00:00,METAR LEMD 281000Z 03004KT CAVOK 12/00 Q1023 NOSIG,1,0,0,9999,0,0,0,
2026-03-28 09:30:00,METAR LEMD 280930Z 05003KT 330V130 CAVOK 11/00 Q1022 NOSIG,1,0,0,9999,0,0,0,
2026-03-28 09:00:00,METAR LEMD 280900Z 02003KT CAVOK 10/M01 Q1022 NOSIG,1,0,0,9999,0,0,0,
2026-03-28 08:30:00,METAR LEMD 280830Z 11001KT CAVOK 09/M00 Q1022 NOSIG,1,0,0,9999,0,0,0,
2026-03-28 08:00:00,METAR LEMD 280800Z 33003KT 290V020 CAVOK 06/00 Q1021 NOSIG,1,0,0,9999,0,0,0,
2026-03-28 07:30:00,METAR LEMD 280730Z 36004KT 310V040 CAVOK 05/M00 Q1021 NOSIG,1,0,0,9999,0,0,0,
2026-03-28 07:00:00,METAR LEMD 280700Z 35004KT CAVOK 03/M00 Q1021 NOSIG,1,0,0,9999,0,0,0,
2026-03-28 06:30:00,METAR LEMD 280630Z 33005KT 310V010 CAVOK 02/M01 Q1020 NOSIG,1,0,0,9999,0,0,0,
2026-03-28 06:00:00,METAR LEMD 280600Z 33005KT CAVOK 02/M01 Q1020 NOSIG,1,0,0,9999,0,0,0,
2026-03-28 05:30:00,METAR LEMD 280530Z 33005KT CAVOK 02/M01 Q1020 NOSIG,1,0,0,9999,0,0,0,
2026-03-28 05:00:00,METAR LEMD 280500Z 32005KT CAVOK 02/M02 Q1020 NOSIG,1,0,0,9999,0,0,0,
2026-03-28 04:30:00,METAR LEMD 280430Z VRB02KT CAVOK 03/M01 Q1019 NOSIG,1,0,0,9999,0,0,0,
2026-03-28 04:00:00,METAR LEMD 280400Z 36004KT 320V040 CAVOK 05/M02 Q1019 NOSIG,1,0,0,9999,0,0,0,
2026-03-28 03:30:00,METAR LEMD 280330Z 36005KT 320V070 CAVOK 05/M02 Q1019 NOSIG,1,0,0,9999,0,0,0,
2026-03-28 03:00:00,METAR LEMD 280300Z VRB02KT CAVOK 05/M02 Q1019 NOSIG,1,0,0,9999,0,0,0,
2026-03-28 02:30:00,METAR LEMD 280230Z VRB02KT CAVOK 06/M02 Q1019 NOSIG,1,0,0,9999,0,0,0,
2026-03-28 02:00:00,METAR LEMD 280200Z VRB01KT CAVOK 05/M02 Q1019 NOSIG,1,0,0,9999,0,0,0,
2026-03-28 01:30:00,METAR LEMD 280130Z VRB02KT CAVOK 06/M02 Q1019 NOSIG,1,0,0,9999,0,0,0,
2026-03-28 01:00:00,METAR LEMD 280100Z 08001KT CAVOK 06/M02 Q1020 NOSIG,1,0,0,9999,0,0,0,
2026-03-28 00:30:00,METAR LEMD 280030Z VRB02KT CAVOK 06/M01 Q1020 NOSIG,1,0,0,9999,0,0,0,
2026-03-28 00:00:00,METAR LEMD 280000Z VRB02KT CAVOK 07/M02 Q1019 NOSIG,1,0,0,9999,0,0,0,
2026-03-27 23:30:00,METAR LEMD 272330Z 02003KT 340V080 CAVOK 08/M01 Q1020 NOSIG,1,0,0,9999,0,0,0,
2026-03-27 23:00:00,METAR LEMD 272300Z 01001KT CAVOK 07/M01 Q1019 NOSIG,1,0,0,9999,0,0,0,
2026-03-27 22:30:00,METAR LEMD 272230Z 07005KT 020V150 CAVOK 08/M02 Q1019 NOSIG,1,0,0,9999,0,0,0,
2026-03-27 22:00:00,METAR LEMD 272200Z 06003KT 020V110 CAVOK 09/M02 Q1019 NOSIG,1,0,0,9999,0,0,0,
2026-03-27 21:30:00,METAR LEMD 272130Z 05004KT 350V100 CAVOK 10/M02 Q1019 NOSIG,1,0,0,9999,0,0,0,
2026-03-27 21:00:00,METAR LEMD 272100Z 03004KT CAVOK 10/M02 Q1018 NOSIG,1,0,0,9999,0,0,0,
2026-03-27 20:30:00,METAR LEMD 272030Z 01006KT 330V050 CAVOK 11/M02 Q1018 NOSIG,1,0,0,9999,0,0,0,
2026-03-27 20:00:00,METAR LEMD 272000Z 02007KT CAVOK 12/M02 Q1017 NOSIG,1,0,0,9999,0,0,0,
2026-03-27 19:30:00,METAR LEMD 271930Z 02007KT 330V080 CAVOK 13/M02 Q1017 NOSIG,1,0,0,9999,0,0,0,
2026-03-27 19:00:00,METAR LEMD 271900Z 04009KT 350V100 CAVOK 13/M02 Q1017 NOSIG,1,0,0,9999,0,0,0,
2026-03-27 18:30:00,METAR LEMD 271830Z 05007KT 350V110 CAVOK 14/M02 Q1016 NOSIG,1,0,0,9999,0,0,0,
2026-03-27 18:00:00,METAR LEMD 271800Z 05009G20KT 350V120 CAVOK 15/M02 Q1016 NOSIG,1,0,0,9999,0,0,0,
2026-03-27 17:30:00,METAR LEMD 271730Z 05010G20KT 350V120 CAVOK 16/M02 Q1016 NOSIG,1,0,0,9999,0,0,0,
2026-03-27 17:00:00,METAR LEMD 271700Z 04012G23KT 340V100 CAVOK 17/M02 Q1015 NOSIG,1,0,0,9999,0,0,0,
2026-03-27 16:30:00,METAR LEMD 271630Z 05011G21KT 310V110 CAVOK 17/M01 Q1015 NOSIG,1,0,0,9999,0,0,0,
2026-03-27 16:00:00,METAR LEMD 271600Z 06009G20KT 330V140 CAVOK 18/M01 Q1015 NOSIG,1,0,0,9999,0,0,0,
2026-03-25 15:00:00,METAR LEMD 251500Z VRB02KT CAVOK 21/02 Q1017 NOSIG,1,0,0,9999,0,0,0,
2026-03-25 14:30:00,METAR LEMD 251430Z 20003KT CAVOK 21/05 Q1018 NOSIG,1,0,0,9999,0,0,0,
2026-03-25 14:00:00,METAR LEMD 251400Z 16004KT 120V240 CAVOK 20/04 Q1018 NOSIG,1,0,0,9999,0,0,0,
2026-03-25 13:30:00,METAR LEMD 251330Z 31002KT CAVOK 20/05 Q1019 NOSIG,1,0,0,9999,0,0,0,
2026-03-25 13:00:00,METAR LEMD 251300Z 27003KT 200V340 CAVOK 19/02 Q1019 NOSIG,1,0,0,9999,0,0,0,
2026-03-25 12:30:00,METAR LEMD 251230Z 18004KT CAVOK 19/04 Q1020 NOSIG,1,0,0,9999,0,0,0,
2026-03-25 12:00:00,METAR LEMD 251200Z 24002KT CAVOK 18/03 Q1020 NOSIG,1,0,0,9999,0,0,0,
2026-03-25 11:30:00,METAR LEMD 251130Z 16002KT CAVOK 18/04 Q1020 NOSIG,1,0,0,9999,0,0,0,
2026-03-25 11:00:00,METAR LEMD 251100Z VRB02KT CAVOK 16/03 Q1021 NOSIG,1,0,0,9999,0,0,0,
2026-03-25 10:30:00,METAR LEMD 251030Z 16003KT 080V250 CAVOK 15/03 Q1021 NOSIG,1,0,0,9999,0,0,0,
2026-03-25 10:00:00,METAR LEMD 251000Z VRB02KT CAVOK 13/05 Q1021 NOSIG,1,0,0,9999,0,0,0,
2026-03-25 09:30:00,METAR LEMD 250930Z 11002KT CAVOK 12/05 Q1022 NOSIG,1,0,0,9999,0,0,0,
2026-03-25 09:00:00,METAR LEMD 250900Z VRB02KT CAVOK 11/05 Q1022 NOSIG,1,0,0,9999,0,0,0,
2026-03-25 08:30:00,METAR LEMD 250830Z 29001KT CAVOK 08/05 Q1022 NOSIG,1,0,0,9999,0,0,0,
2026-03-25 08:00:00,METAR LEMD 250800Z 27002KT CAVOK 07/03 Q1021 NOSIG,1,0,0,9999,0,0,0,
2026-03-25 07:30:00,METAR LEMD 250730Z VRB01KT CAVOK 05/04 Q1022 NOSIG,1,0,0,9999,0,0,0,
2026-03-25 07:00:00,METAR LEMD 250700Z VRB01KT CAVOK 03/03 Q1022 NOSIG,1,0,0,9999,0,0,0,
2026-03-25 06:30:00,METAR LEMD 250630Z 36003KT CAVOK 03/03 Q1022 NOSIG,1,0,0,9999,0,0,0,
2026-03-25 06:00:00,METAR LEMD 250600Z 36002KT CAVOK 03/03 Q1021 NOSIG,1,0,0,9999,0,0,0,
2026-03-25 05:30:00,METAR LEMD 250530Z 36003KT 330V030 CAVOK 03/03 Q1021 NOSIG,1,0,0,9999,0,0,0,
2026-03-25 05:00:00,METAR LEMD 250500Z VRB02KT CAVOK 04/04 Q1021 NOSIG,1,0,0,9999,0,0,0,
2026-03-25 04:30:00,METAR LEMD 250430Z 34002KT CAVOK 04/04 Q1021 NOSIG,1,0,0,9999,0,0,0,
2026-03-25 04:00:00,METAR LEMD 250400Z 35003KT CAVOK 04/03 Q1021 NOSIG,1,0,0,9999,0,0,0,
2026-03-25 03:30:00,METAR LEMD 250330Z 36003KT CAVOK 05/04 Q1022 NOSIG,1,0,0,9999,0,0,0,
2026-03-25 03:00:00,METAR LEMD 250300Z 01003KT CAVOK 05/04 Q1022 NOSIG,1,0,0,9999,0,0,0,
2026-03-25 02:30:00,METAR LEMD 250230Z 31002KT CAVOK 05/04 Q1022 NOSIG,1,0,0,9999,0,0,0,
2026-03-25 02:00:00,METAR LEMD 250200Z 35005KT CAVOK 06/04 Q1023 NOSIG,1,0,0,9999,0,0,0,
2026-03-25 01:30:00,METAR LEMD 250130Z VRB02KT CAVOK 05/04 Q1022 NOSIG,1,0,0,9999,0,0,0,
2026-03-25 01:00:00,METAR LEMD 250100Z 34002KT CAVOK 06/04 Q1023 NOSIG,1,0,0,9999,0,0,0,
2026-03-25 00:30:00,METAR LEMD 250030Z 34001KT CAVOK 06/04 Q1023 NOSIG,1,0,0,9999,0,0,0,
2026-03-25 00:00:00,METAR LEMD 250000Z VRB02KT CAVOK 07/04 Q1023 NOSIG,1,0,0,9999,0,0,0,
2026-03-24 23:30:00,METAR LEMD 242330Z 34004KT CAVOK 08/03 Q1022 NOSIG,1,0,0,9999,0,0,0,
2026-03-24 23:00:00,METAR LEMD 242300Z VRB01KT CAVOK 08/03 Q1022 NOSIG,1,0,0,9999,0,0,0,
2026-03-24 22:30:00,METAR LEMD 242230Z VRB02KT CAVOK 09/02 Q1022 NOSIG,1,0,0,9999,0,0,0,
2026-03-24 22:00:00,METAR LEMD 242200Z VRB02KT CAVOK 09/02 Q1022 NOSIG,1,0,0,9999,0,0,0,
2026-03-24 21:30:00,METAR LEMD 242130Z VRB01KT CAVOK 10/02 Q1022 NOSIG,1,0,0,9999,0,0,0,
2026-03-24 21:00:00,METAR LEMD 242100Z VRB02KT CAVOK 12/02 Q1022 NOSIG,1,0,0,9999,0,0,0,
2026-03-24 20:30:00,METAR LEMD 242030Z 24004KT 210V270 CAVOK 14/01 Q1022 NOSIG,1,0,0,9999,0,0,0,
2026-03-24 20:00:00,METAR LEMD 242000Z 23004KT 210V290 CAVOK 15/01 Q1022 NOSIG,1,0,0,9999,0,0,0,
2026-03-24 19:30:00,METAR LEMD 241930Z 21004KT 170V250 9999 FEW050 16/01 Q1022 NOSIG,0,4,0,10000,0,0,0,
2026-03-24 19:00:00,METAR LEMD 241900Z 20004KT 160V250 CAVOK 16/00 Q1021 NOSIG,1,0,0,9999,0,0,0,
2026-03-24 18:30:00,METAR LEMD 241830Z 18005KT 150V210 CAVOK 16/01 Q1021 NOSIG,1,0,0,9999,0,0,0,
2026-03-24 18:00:00,METAR LEMD 241800Z 20004KT 160V270 CAVOK 17/02 Q1021 NOSIG,1,0,0,9999,0,0,0,
2026-03-24 17:30:00,METAR LEMD 241730Z 17004KT 130V250 CAVOK 17/02 Q1021 NOSIG,1,0,0,9999,0,0,0,
2026-03-24 17:00:00,METAR LEMD 241700Z 22002KT CAVOK 18/01 Q1021 NOSIG,1,0,0,9999,0,0,0,
2026-03-24 16:30:00,METAR LEMD 241630Z 20004KT 160V310 CAVOK 18/01 Q1021 NOSIG,1,0,0,9999,0,0,0,
2026-03-24 16:00:00,METAR LEMD 241600Z 19003KT CAVOK 18/02 Q1021 NOSIG,1,0,0,9999,0,0,0,
2026-03-24 15:30:00,METAR LEMD 241530Z 20003KT 100V250 CAVOK 18/01 Q1021 NOSIG,1,0,0,9999,0,0,0,
2026-03-24 15:00:00,METAR LEMD 241500Z VRB03KT CAVOK 18/02 Q1021 NOSIG,1,0,0,9999,0,0,0,
2026-03-24 14:30:00,METAR LEMD 241430Z 32003KT CAVOK 17/00 Q1021 NOSIG,1,0,0,9999,0,0,0,
2026-03-24 14:00:00,METAR LEMD 241400Z 20004KT 9999 FEW050 17/02 Q1022 NOSIG,0,4,0,10000,0,0,0,
2026-03-24 13:30:00,METAR LEMD 241330Z 20004KT 110V250 9999 FEW050 17/02 Q1022 NOSIG,0,4,0,10000,0,0,0,
2026-03-24 13:00:00,METAR LEMD 241300Z 21003KT 9999 FEW050 16/01 Q1022 NOSIG,0,3,0,10000,0,0,0,
2026-03-24 12:30:00,METAR LEMD 241230Z 14005KT 080V230 CAVOK 15/02 Q1023 NOSIG,1,0,0,9999,0,0,0,
2026-03-24 12:00:00,METAR LEMD 241200Z 25003KT CAVOK 15/04 Q1023 NOSIG,1,0,0,9999,0,0,0,
2026-03-24 11:30:00,METAR LEMD 241130Z 10004KT 030V190 CAVOK 14/04 Q1023 NOSIG,1,0,0,9999,0,0,0,
2026-03-24 11:00:00,METAR LEMD 241100Z 02002KT CAVOK 14/06 Q1023 NOSIG,1,0,0,9999,0,0,0,
2026-03-24 10:30:00,METAR LEMD 241030Z 09004KT CAVOK 13/04 Q1024 NOSIG,1,0,0,9999,0,0,0,
2026-03-24 10:00:00,METAR LEMD 241000Z 07002KT CAVOK 13/04 Q1024 NOSIG,1,0,0,9999,0,0,0,
2026-03-24 09:30:00,METAR LEMD 240930Z 08003KT CAVOK 12/04 Q1024 NOSIG,1,0,0,9999,0,0,0,
2026-03-24 09:00:00,METAR LEMD 240900Z 07001KT CAVOK 10/04 Q1024 NOSIG,1,0,0,9999,0,0,0,
2026-03-24 08:30:00,METAR LEMD 240830Z 00000KT CAVOK 08/03 Q1023 NOSIG,1,0,0,9999,0,0,0,
2026-03-24 08:00:00,METAR LEMD 240800Z VRB02KT CAVOK 06/02 Q1023 NOSIG,1,0,0,9999,0,0,0,
2026-03-24 07:30:00,METAR LEMD 240730Z 36003KT 340V050 CAVOK 04/03 Q1023 NOSIG,1,0,0,9999,0,0,0,
2026-03-24 07:00:00,METAR LEMD 240700Z VRB02KT CAVOK 03/02 Q1023 NOSIG,1,0,0,9999,0,0,0,
2026-03-24 06:30:00,METAR LEMD 240630Z VRB02KT CAVOK 02/02 Q1023 NOSIG,1,0,0,9999,0,0,0,
2026-03-24 06:00:00,METAR LEMD 240600Z 36002KT CAVOK 02/02 Q1022 NOSIG,1,0,0,9999,0,0,0,
2026-03-24 05:30:00,METAR LEMD 240530Z VRB01KT CAVOK 02/02 Q1022 NOSIG,1,0,0,9999,0,0,0,
2026-03-24 05:00:00,METAR LEMD 240500Z 35003KT 310V040 CAVOK 03/01 Q1022 NOSIG,1,0,0,9999,0,0,0,
2026-03-24 04:30:00,METAR LEMD 240430Z 34003KT CAVOK 03/02 Q1022 NOSIG,1,0,0,9999,0,0,0,
2026-03-24 04:00:00,METAR LEMD 240400Z 33003KT CAVOK 04/01 Q1022 NOSIG,1,0,0,9999,0,0,0,
2026-03-24 03:30:00,METAR LEMD 240330Z VRB01KT CAVOK 04/02 Q1022 NOSIG,1,0,0,9999,0,0,0,
2026-03-24 03:00:00,METAR LEMD 240300Z VRB01KT CAVOK 05/02 Q1022 NOSIG,1,0,0,9999,0,0,0,
2026-03-24 02:30:00,METAR LEMD 240230Z 36003KT CAVOK 05/02 Q1022 NOSIG,1,0,0,9999,0,0,0,
2026-03-24 02:00:00,METAR LEMD 240200Z 00000KT CAVOK 05/03 Q1021 NOSIG,1,0,0,9999,0,0,0,
2026-03-24 01:30:00,METAR LEMD 240130Z 32003KT CAVOK 06/02 Q1021 NOSIG,1,0,0,9999,0,0,0,
2026-03-24 01:00:00,METAR LEMD 240100Z 35002KT CAVOK 06/03 Q1021 NOSIG,1,0,0,9999,0,0,0,
2026-03-24 00:30:00,METAR LEMD 240030Z VRB02KT CAVOK 07/04 Q1021 NOSIG,1,0,0,9999,0,0,0,
2026-03-24 00:00:00,METAR LEMD 240000Z VRB01KT CAVOK 08/04 Q1021 NOSIG,1,0,0,9999,0,0,0,
2026-03-23 23:30:00,METAR LEMD 232330Z 13003KT 100V170 CAVOK 09/03 Q1021 NOSIG,1,0,0,9999,0,0,0,
2026-03-23 23:00:00,METAR LEMD 232300Z 08003KT 040V110 CAVOK 09/02 Q1020 NOSIG,1,0,0,9999,0,0,0,
2026-03-23 22:30:00,METAR LEMD 232230Z VRB01KT CAVOK 10/01 Q1020 NOSIG,1,0,0,9999,0,0,0,
2026-03-23 22:00:00,METAR LEMD 232200Z 10001KT CAVOK 10/01 Q1020 NOSIG,1,0,0,9999,0,0,0,
2026-03-23 21:30:00,METAR LEMD 232130Z 05004KT CAVOK 11/01 Q1019 NOSIG,1,0,0,9999,0,0,0,
2026-03-23 21:00:00,METAR LEMD 232100Z 05006KT 310V100 CAVOK 12/01 Q1019 NOSIG,1,0,0,9999,0,0,0,
2026-03-23 20:30:00,METAR LEMD 232030Z 05005KT 320V130 CAVOK 12/M00 Q1018 NOSIG,1,0,0,9999,0,0,0,
2026-03-23 20:00:00,METAR LEMD 232000Z 04003KT CAVOK 12/M01 Q1018 NOSIG,1,0,0,9999,0,0,0,
2026-03-23 19:30:00,METAR LEMD 231930Z VRB02KT CAVOK 11/M00 Q1018 NOSIG,1,0,0,9999,0,0,0,
2026-03-23 19:00:00,METAR LEMD 231900Z 33002KT CAVOK 12/00 Q1017 NOSIG,1,0,0,9999,0,0,0,
2026-03-23 18:30:00,METAR LEMD 231830Z 35002KT CAVOK 14/M00 Q1017 NOSIG,1,0,0,9999,0,0,0,
2026-03-23 18:00:00,METAR LEMD 231800Z VRB02KT CAVOK 16/M01 Q1016 NOSIG,1,0,0,9999,0,0,0,
2026-03-23 17:30:00,METAR LEMD 231730Z VRB02KT CAVOK 16/M01 Q1016 NOSIG,1,0,0,9999,0,0,0,
2026-03-23 17:00:00,METAR LEMD 231700Z 04004KT 330V120 CAVOK 17/M02 Q1016 NOSIG,1,0,0,9999,0,0,0,
2026-03-23 16:30:00,METAR LEMD 231630Z VRB05KT CAVOK 17/M02 Q1015 NOSIG,1,0,0,9999,0,0,0,
2026-03-23 16:00:00,METAR LEMD 231600Z 06005KT 330V130 CAVOK 17/M01 Q1015 NOSIG,1,0,0,9999,0,0,0,
2026-03-23 15:30:00,METAR LEMD 231530Z 08004KT 350V150 CAVOK 17/M01 Q1015 NOSIG,1,0,0,9999,0,0,0,
2026-03-23 15:00:00,METAR LEMD 231500Z 05006KT CAVOK 16/M02 Q1015 NOSIG,1,0,0,9999,0,0,0,
2026-03-23 14:30:00,METAR LEMD 231430Z 03007KT 340V090 CAVOK 16/M02 Q1015 NOSIG,1,0,0,9999,0,0,0,
2026-03-23 14:00:00,METAR LEMD 231400Z 04007KT 330V110 CAVOK 16/M02 Q1015 NOSIG,1,0,0,9999,0,0,0,
2026-03-23 13:30:00,METAR LEMD 231330Z 06007KT CAVOK 16/M02 Q1015 NOSIG,1,0,0,9999,0,0,0,
2026-03-23 13:00:00,METAR LEMD 231300Z 06008KT 360V120 CAVOK 15/M03 Q1015 NOSIG,1,0,0,9999,0,0,0,
2026-03-23 12:30:00,METAR LEMD 231230Z 05007G17KT CAVOK 15/M04 Q1016 NOSIG,1,0,0,9999,0,0,0,
2026-03-23 12:00:00,METAR LEMD 231200Z 06009KT CAVOK 14/M06 Q1016 NOSIG,1,0,0,9999,0,0,0,
2026-03-23 11:30:00,METAR LEMD 231130Z 06007KT 350V140 CAVOK 14/M04 Q1016 NOSIG,1,0,0,9999,0,0,0,
2026-03-23 11:00:00,METAR LEMD 231100Z 03008KT 330V090 CAVOK 13/M03 Q1016 NOSIG,1,0,0,9999,0,0,0,
2026-03-23 10:30:00,METAR LEMD 231030Z 04006KT 350V110 CAVOK 13/02 Q1016 NOSIG,1,0,0,9999,0,0,0,
2026-03-23 10:00:00,METAR LEMD 231000Z 06006KT 330V130 CAVOK 12/02 Q1016 NOSIG,1,0,0,9999,0,0,0,
2026-03-23 09:30:00,METAR LEMD 230930Z 04007KT 340V110 CAVOK 11/01 Q1015 NOSIG,1,0,0,9999,0,0,0,
2026-03-23 09:00:00,METAR LEMD 230900Z 04004KT 320V100 CAVOK 10/02 Q1015 NOSIG,1,0,0,9999,0,0,0,
2026-03-23 08:30:00,METAR LEMD 230830Z 01005KT 330V060 CAVOK 09/03 Q1015 NOSIG,1,0,0,9999,0,0,0,
2026-03-23 08:00:00,METAR LEMD 230800Z 35005KT 320V020 CAVOK 07/02 Q1015 NOSIG,1,0,0,9999,0,0,0,
2026-03-23 07:30:00,METAR LEMD 230730Z 34004KT 300V360 CAVOK 06/02 Q1014 NOSIG,1,0,0,9999,0,0,0,
2026-03-23 07:00:00,METAR LEMD 230700Z 01002KT CAVOK 05/01 Q1014 NOSIG,1,0,0,9999,0,0,0,
2026-03-23 06:30:00,METAR LEMD 230630Z VRB02KT CAVOK 04/01 Q1014 NOSIG,1,0,0,9999,0,0,0,
2026-03-23 06:00:00,METAR LEMD 230600Z 34004KT CAVOK 05/01 Q1014 NOSIG,1,0,0,9999,0,0,0,
2026-03-23 05:30:00,METAR LEMD 230530Z 35005KT CAVOK 05/01 Q1013 NOSIG,1,0,0,9999,0,0,0,
2026-03-23 05:00:00,METAR LEMD 230500Z 34005KT CAVOK 05/01 Q1013 NOSIG,1,0,0,9999,0,0,0,
2026-03-23 04:30:00,METAR LEMD 230430Z 34005KT CAVOK 05/01 Q1013 NOSIG,1,0,0,9999,0,0,0,
2026-03-23 04:00:00,METAR LEMD 230400Z 34005KT CAVOK 06/01 Q1013 NOSIG,1,0,0,9999,0,0,0,
2026-03-23 03:30:00,METAR LEMD 230330Z 36004KT 330V050 CAVOK 06/01 Q1013 NOSIG,1,0,0,9999,0,0,0,
2026-03-23 03:00:00,METAR LEMD 230300Z 33004KT 290V020 CAVOK 06/01 Q1013 NOSIG,1,0,0,9999,0,0,0,
2026-03-23 02:30:00,METAR LEMD 230230Z 35001KT CAVOK 08/01 Q1013 NOSIG,1,0,0,9999,0,0,0,
2026-03-23 02:00:00,METAR LEMD 230200Z VRB02KT CAVOK 08/01 Q1013 NOSIG,1,0,0,9999,0,0,0,
2026-03-23 01:30:00,METAR LEMD 230130Z 05006KT 320V110 CAVOK 08/01 Q1013 NOSIG,1,0,0,9999,0,0,0,
2026-03-23 01:00:00,METAR LEMD 230100Z 07004KT CAVOK 09/01 Q1013 NOSIG,1,0,0,9999,0,0,0,
2026-03-23 00:30:00,METAR LEMD 230030Z 10001KT CAVOK 09/01 Q1013 NOSIG,1,0,0,9999,0,0,0,
2026-03-23 00:00:00,METAR LEMD 230000Z VRB02KT CAVOK 10/00 Q1013 NOSIG,1,0,0,9999,0,0,0,
2026-03-22 23:30:00,METAR LEMD 222330Z VRB01KT CAVOK 10/M01 Q1012 NOSIG,1,0,0,9999,0,0,0,
2026-03-22 23:00:00,METAR LEMD 222300Z 01003KT 340V060 CAVOK 10/M01 Q1012 NOSIG,1,0,0,9999,0,0,0,
2026-03-22 22:30:00,METAR LEMD 222230Z 03003KT 350V060 CAVOK 11/M00 Q1012 NOSIG,1,0,0,9999,0,0,0,
2026-03-22 22:00:00,METAR LEMD 222200Z 03003KT 010V070 CAVOK 12/M00 Q1012 NOSIG,1,0,0,9999,0,0,0,
2026-03-22 21:30:00,METAR LEMD 222130Z VRB02KT CAVOK 10/03 Q1011 NOSIG,1,0,0,9999,0,0,0,
2026-03-22 21:00:00,METAR LEMD 222100Z 35003KT 300V040 CAVOK 13/04 Q1011 NOSIG,1,0,0,9999,0,0,0,
2026-03-22 20:30:00,METAR LEMD 222030Z VRB02KT CAVOK 12/05 Q1011 NOSIG,1,0,0,9999,0,0,0,
2026-03-22 20:00:00,METAR LEMD 222000Z VRB01KT 9999 FEW060 SCT077 14/06 Q1010 NOSIG,0,1,0,10000,0,0,0,
2026-03-22 19:30:00,METAR LEMD 221930Z 26006KT 9999 FEW060 SCT077 16/05 Q1010 NOSIG,0,6,0,10000,0,0,0,
2026-03-22 19:00:00,METAR LEMD 221900Z 25005KT 210V290 9999 FEW067 SCT080 16/05 Q1010 NOSIG,0,5,0,10000,0,0,0,
2026-03-22 18:30:00,METAR LEMD 221830Z 26006KT 220V300 9999 FEW070 SCT080 17/05 Q1010 NOSIG,0,6,0,10000,0,0,0,
2026-03-22 18:00:00,METAR LEMD 221800Z 23008KT 9999 FEW070 BKN080 17/05 Q1010 NOSIG,0,8,0,10000,0,0,0,
2026-03-22 17:30:00,METAR LEMD 221730Z 26005KT 230V290 9999 SCT080 18/06 Q1009 NOSIG,0,5,0,10000,0,0,0,
2026-03-22 17:00:00,METAR LEMD 221700Z 25006KT 210V280 9999 FEW075 18/06 Q1009 NOSIG,0,6,0,10000,0,0,0,
2026-03-22 16:30:00,METAR LEMD 221630Z 29005KT 250V340 9999 FEW060 18/05 Q1009 NOSIG,0,5,0,10000,0,0,0,
2026-03-22 16:00:00,METAR LEMD 221600Z 27005KT 220V340 9999 FEW055 19/05 Q1009 NOSIG,0,5,0,10000,0,0,0,
2026-03-22 15:30:00,METAR LEMD 221530Z 22005KT 150V250 CAVOK 19/05 Q1009 NOSIG,1,0,0,9999,0,0,0,
2026-03-22 15:00:00,METAR LEMD 221500Z 29003KT CAVOK 18/05 Q1010 NOSIG,1,0,0,9999,0,0,0,
2026-03-22 14:30:00,METAR LEMD 221430Z 19002KT CAVOK 18/05 Q1010 NOSIG,1,0,0,9999,0,0,0,
2026-03-22 14:00:00,METAR LEMD 221400Z 23003KT CAVOK 17/05 Q1010 NOSIG,1,0,0,9999,0,0,0,
2026-03-22 13:30:00,METAR LEMD 221330Z 23004KT 160V330 CAVOK 17/07 Q1011 NOSIG,1,0,0,9999,0,0,0,
2026-03-22 12:30:00,METAR LEMD 221230Z 18002KT CAVOK 16/06 Q1011 NOSIG,1,0,0,9999,0,0,0,
2026-03-22 12:00:00,METAR LEMD 221200Z 16001KT CAVOK 15/05 Q1011 NOSIG,1,0,0,9999,0,0,0,
2026-03-22 11:30:00,METAR LEMD 221130Z 11001KT CAVOK 14/05 Q1012 NOSIG,1,0,0,9999,0,0,0,
2026-03-22 10:30:00,METAR LEMD 221030Z 21001KT CAVOK 12/06 Q1012 NOSIG,1,0,0,9999,0,0,0,
2026-03-22 10:00:00,METAR LEMD 221000Z 21002KT CAVOK 11/07 Q1012 NOSIG,1,0,0,9999,0,0,0,
2026-03-22 09:30:00,METAR LEMD 220930Z 35001KT CAVOK 09/06 Q1012 NOSIG,1,0,0,9999,0,0,0,
2026-03-22 08:30:00,METAR LEMD 220830Z VRB01KT CAVOK 06/05 Q1012 NOSIG,1,0,0,9999,0,0,0,
2026-03-22 08:00:00,METAR LEMD 220800Z VRB02KT CAVOK 04/04 Q1012 NOSIG,1,0,0,9999,0,0,0,
2026-03-22 07:30:00,METAR LEMD 220730Z 36002KT 9000 FEW001 04/04 Q1012 NOSIG,0,2,0,9000,0,0,0,
2026-03-22 07:00:00,METAR LEMD 220700Z 00000KT 9999 4000E FEW001 02/02 Q1012 NOSIG,0,0,0,10000,0,0,0,
2026-03-22 06:30:00,METAR LEMD 220630Z 02001KT 6000 0900SE R32L/P2000 R32R/0650D BCFG FEW001 01/01 Q1012 NOSIG,0,1,0,6000,0,0,1,"BC,FG"
2026-03-22 06:00:00,METAR LEMD 220600Z 03002KT 8000 0500SE R32L/P2000 R32R/1200U BCFG FEW001 02/02 Q1012 NOSIG,0,2,0,8000,0,0,1,"BC,FG"
2026-03-22 05:30:00,METAR LEMD 220530Z 35002KT 9999 0500SE R32R/0700D BCFG NSC 02/02 Q1011 NOSIG,0,2,0,10000,0,0,1,"BC,FG"
2026-03-22 05:00:00,METAR LEMD 220500Z 32003KT 9999 2500SE NSC 02/02 Q1011 NOSIG,0,3,0,10000,0,0,0,
2026-03-22 04:30:00,METAR LEMD 220430Z 35003KT 7000 0450SE R32R/1400D BCFG NSC 02/02 Q1011 NOSIG,0,3,0,7000,0,0,1,"BC,FG"
2026-03-22 04:00:00,METAR LEMD 220400Z COR 36003KT 7000 0500SE R32R/1400D BCFG NSC 03/03 Q1011 NOSIG,0,3,0,7000,0,0,1,"BC,FG"
2026-03-22 03:30:00,METAR LEMD 220330Z VRB01KT 9000 0500NE NSC 03/03 Q1011 NOSIG,0,1,0,9000,0,0,0,
2026-03-22 03:00:00,METAR LEMD 220300Z 34002KT 7000 NSC 03/03 Q1012 NOSIG,0,2,0,7000,0,0,0,
2026-03-22 02:30:00,METAR LEMD 220230Z 36003KT 330V030 8000 NSC 04/04 Q1012 NOSIG,0,3,0,8000,0,0,0,
2026-03-22 02:00:00,METAR LEMD 220200Z 35004KT 8000 NSC 04/04 Q1012 NOSIG,0,4,0,8000,0,0,0,
2026-03-22 01:30:00,METAR LEMD 220130Z 34003KT 8000 NSC 04/04 Q1012 NOSIG,0,3,0,8000,0,0,0,
2026-03-22 01:00:00,METAR LEMD 220100Z 34005KT 7000 NSC 05/05 Q1012 NOSIG,0,5,0,7000,0,0,0,
2026-03-22 00:30:00,METAR LEMD 220030Z 35004KT 7000 NSC 05/05 Q1012 NOSIG,0,4,0,7000,0,0,0,
2026-03-22 00:00:00,METAR LEMD 220000Z 35003KT 8000 NSC 05/05 Q1012 NOSIG,0,3,0,8000,0,0,0,
2026-03-21 23:30:00,METAR LEMD 212330Z 36002KT 9000 NSC 06/06 Q1012 NOSIG,0,2,0,9000,0,0,0,
2026-03-21 23:00:00,METAR LEMD 212300Z 03001KT 9000 NSC 05/05 Q1012 NOSIG,0,1,0,9000,0,0,0,
2026-03-21 22:30:00,METAR LEMD 212230Z 11001KT CAVOK 06/06 Q1012 NOSIG,1,0,0,9999,0,0,0,
2026-03-21 21:30:00,METAR LEMD 212130Z 36002KT CAVOK 06/06 Q1012 NOSIG,1,0,0,9999,0,0,0,
2026-03-21 21:00:00,METAR LEMD 212100Z 04002KT CAVOK 07/07 Q1012 NOSIG,1,0,0,9999,0,0,0,
2026-03-21 20:30:00,METAR LEMD 212030Z 05001KT CAVOK 08/07 Q1011 NOSIG,1,0,0,9999,0,0,0,
2026-03-21 19:30:00,METAR LEMD 211930Z VRB01KT CAVOK 09/07 Q1011 NOSIG,1,0,0,9999,0,0,0,
2026-03-21 19:00:00,METAR LEMD 211900Z 00000KT CAVOK 10/06 Q1011 NOSIG,1,0,0,9999,0,0,0,
2026-03-21 18:30:00,METAR LEMD 211830Z VRB01KT 9999 FEW076 10/07 Q1011 NOSIG,0,1,0,10000,0,0,0,
2026-03-21 18:00:00,METAR LEMD 211800Z 00000KT 9999 SCT030 BKN066 11/09 Q1011 NOSIG,0,0,0,10000,0,0,0,
2026-03-21 17:30:00,METAR LEMD 211730Z VRB01KT 9999 FEW030 SCT064 BKN080 12/07 Q1011 NOSIG,0,1,0,10000,0,0,0,
2026-03-21 17:00:00,METAR LEMD 211700Z 26002KT 9999 FEW067 SCT077 12/05 Q1011 NOSIG,0,2,0,10000,0,0,0,
2026-03-21 16:30:00,METAR LEMD 211630Z 19001KT 9999 SCT028 BKN034 12/06 Q1011 NOSIG,0,1,0,10000,0,0,0,
2026-03-21 16:00:00,METAR LEMD 211600Z 20001KT 9999 SCT028 BKN035 12/05 Q1011 NOSIG,0,1,0,10000,0,0,0,
2026-03-21 15:30:00,METAR LEMD 211530Z 35001KT 9999 SCT028 BKN033 12/05 Q1011 NOSIG,0,1,0,10000,0,0,0,
2026-03-21 15:00:00,METAR LEMD 211500Z VRB01KT 9999 BKN027 12/06 Q1011 NOSIG,0,1,0,10000,0,0,0,
2026-03-21 14:30:00,METAR LEMD 211430Z VRB02KT 9999 BKN028 11/05 Q1011 NOSIG,0,2,0,10000,0,0,0,
2026-03-21 14:00:00,METAR LEMD 211400Z 35002KT 9999 BKN028 11/06 Q1012 NOSIG,0,2,0,10000,0,0,0,
2026-03-21 13:30:00,METAR LEMD 211330Z VRB02KT 9999 BKN024 11/06 Q1012 NOSIG,0,2,0,10000,0,0,0,
2026-03-21 13:00:00,METAR LEMD 211300Z 08001KT 9999 BKN024 10/05 Q1012 NOSIG,0,1,0,10000,0,0,0,
2026-03-21 12:30:00,METAR LEMD 211230Z 01001KT 9999 BKN025 11/06 Q1012 NOSIG,0,1,0,10000,0,0,0,
2026-03-21 12:00:00,METAR LEMD 211200Z 34001KT 9999 BKN024 10/05 Q1012 NOSIG,0,1,0,10000,0,0,0,
2026-03-21 11:30:00,METAR LEMD 211130Z 00000KT 9999 BKN025 10/06 Q1012 NOSIG,0,0,0,10000,0,0,0,
2026-03-21 11:00:00,METAR LEMD 211100Z VRB02KT 9999 SCT020 BKN031 10/04 Q1013 NOSIG,0,2,0,10000,0,0,0,
2026-03-21 10:30:00,METAR LEMD 211030Z 06002KT 9999 FEW019 SCT030 BKN050 10/05 Q1013 NOSIG,0,2,0,10000,0,0,0,
2026-03-21 10:00:00,METAR LEMD 211000Z 06002KT 9999 FEW016 SCT030 BKN050 09/06 Q1013 NOSIG,0,2,0,10000,0,0,0,
2026-03-21 09:30:00,METAR LEMD 210930Z 06001KT 9999 FEW027 BKN050 09/07 Q1013 NOSIG,0,1,0,10000,0,0,0,
2026-03-21 09:00:00,METAR LEMD 210900Z 07002KT 9999 FEW026 BKN054 08/07 Q1013 NOSIG,0,2,0,10000,0,0,0,
2026-03-21 08:30:00,METAR LEMD 210830Z 06001KT 9999 -DZ BKN054 07/07 Q1013 NOSIG,0,1,0,10000,0,0,0,DZ
2026-03-21 08:00:00,METAR LEMD 210800Z 01001KT 9999 BKN059 07/06 Q1012 NOSIG,0,1,0,10000,0,0,0,
2026-03-21 07:30:00,METAR LEMD 210730Z VRB02KT 9999 BKN057 07/07 Q1012 NOSIG,0,2,0,10000,0,0,0,
2026-03-21 07:00:00,METAR LEMD 210700Z VRB02KT 9999 FEW036 BKN055 07/07 Q1012 NOSIG,0,2,0,10000,0,0,0,
2026-03-21 06:30:00,METAR LEMD 210630Z VRB02KT 9999 SCT033 BKN056 07/07 Q1012 NOSIG,0,2,0,10000,0,0,0,
2026-03-21 06:00:00,METAR LEMD 210600Z 07003KT 020V130 9999 -DZ SCT033 BKN059 07/07 Q1012 NOSIG,0,3,0,10000,0,0,0,DZ
2026-03-21 05:30:00,METAR LEMD 210530Z VRB02KT 9999 -DZ FEW029 BKN059 08/08 Q1012 NOSIG,0,2,0,10000,0,0,0,DZ
2026-03-21 05:00:00,METAR LEMD 210500Z 13003KT 9999 -RA FEW035 BKN058 08/08 Q1012 NOSIG,0,3,0,10000,0,0,0,-RA
2026-03-21 04:30:00,METAR LEMD 210430Z VRB01KT 9999 BKN059 08/08 Q1012 NOSIG,0,1,0,10000,0,0,0,
2026-03-21 04:00:00,METAR LEMD 210400Z VRB01KT 9999 BKN058 08/08 Q1012 NOSIG,0,1,0,10000,0,0,0,
2026-03-21 03:30:00,METAR LEMD 210330Z 01002KT 9999 -DZ FEW035 SCT056 BKN065 08/08 Q1012 NOSIG,0,2,0,10000,0,0,0,DZ
2026-03-21 03:00:00,METAR LEMD 210300Z 00000KT 9999 -DZ SCT060 BKN075 08/08 Q1012 NOSIG,0,0,0,10000,0,0,0,DZ
2026-03-21 02:30:00,METAR LEMD 210230Z VRB01KT 9999 -DZ SCT055 BKN070 08/08 Q1012 NOSIG,0,1,0,10000,0,0,0,DZ
2026-03-21 02:00:00,METAR LEMD 210200Z 36004KT 9999 SCT055 BKN075 08/08 Q1012 NOSIG,0,4,0,10000,0,0,0,
2026-03-21 01:30:00,METAR LEMD 210130Z 36003KT 330V040 9000 SCT045 BKN060 08/08 Q1012 NOSIG,0,3,0,9000,0,0,0,
2026-03-21 01:00:00,METAR LEMD 210100Z 36004KT 9999 SCT045 BKN060 08/08 Q1012 NOSIG,0,4,0,10000,0,0,0,
2026-03-21 00:30:00,METAR LEMD 210030Z 33004KT 8000 3500N -DZ BKN050 08/08 Q1013 RERA NOSIG,0,4,0,8000,0,0,0,"DZ,RA"
2026-03-21 00:14:00,SPECI LEMD 210014Z 32003KT 8000 -RA BKN043 08/08 Q1013 RERA NOSIG,0,3,0,8000,0,0,0,"-RA,RA"
2026-03-21 00:00:00,METAR LEMD 210000Z 30004KT 8000 RA BKN045 08/08 Q1013 NOSIG,0,4,0,8000,0,0,0,RA
2026-03-20 23:30:00,METAR LEMD 202330Z 31002KT 9000 RA SCT043 BKN052 08/08 Q1013 NOSIG,0,2,0,9000,0,0,0,RA
2026-03-20 23:00:00,METAR LEMD 202300Z 01002KT 9999 -RA SCT046 BKN055 08/08 Q1013 NOSIG,0,2,0,10000,0,0,0,-RA
2026-03-20 22:30:00,METAR LEMD 202230Z 34001KT 9999 -RA SCT046 BKN057 08/08 Q1013 NOSIG,0,1,0,10000,0,0,0,-RA
2026-03-20 21:30:00,METAR LEMD 202130Z VRB01KT 9999 RA SCT050 BKN067 08/08 Q1013 NOSIG,0,1,0,10000,0,0,0,RA
2026-03-20 21:00:00,METAR LEMD 202100Z VRB01KT 9999 -RA SCT060 BKN071 08/08 Q1013 NOSIG,0,1,0,10000,0,0,0,-RA
2026-03-20 20:30:00,METAR LEMD 202030Z 36003KT 9999 -RA FEW050TCU BKN067 08/08 Q1013 NOSIG,0,3,0,10000,0,0,0,-RA
2026-03-20 20:00:00,METAR LEMD 202000Z 36003KT 9999 -RA FEW050TCU BKN060 08/08 Q1013 NOSIG,0,3,0,10000,0,0,0,-RA
2026-03-20 19:30:00,METAR LEMD 201930Z 36003KT 9999 -RA FEW050TCU BKN060 08/08 Q1013 NOSIG,0,3,0,10000,0,0,0,-RA
2026-03-20 19:00:00,METAR LEMD 201900Z VRB02KT 9999 -RA FEW050TCU SCT060 BKN070 08/08 Q1012 NOSIG,0,2,0,10000,0,0,0,-RA
2026-03-20 18:30:00,METAR LEMD 201830Z VRB02KT 9999 -RA FEW030TCU SCT040 BKN060 09/09 Q1012 RESHRA NOSIG,0,2,0,10000,0,0,0,"-RA,RA"
2026-03-20 18:20:00,SPECI LEMD 201820Z 02003KT 7000 -RA SCT030TCU BKN040 BKN060 09/09 Q1012 RESHRA NOSIG,0,3,0,7000,0,0,0,"-RA,RA"
2026-03-20 18:00:00,METAR LEMD 201800Z 00000KT 7000 SHRA SCT030TCU BKN040 BKN060 08/08 Q1012 NOSIG,0,0,0,7000,0,0,0,"RA,SH"
2026-03-20 17:49:00,SPECI LEMD 201749Z VRB01KT 7000 SHRA SCT040TCU BKN050 BKN060 09/09 Q1012 NOSIG,0,1,0,7000,0,0,0,"RA,SH"
2026-03-20 17:30:00,METAR LEMD 201730Z 00000KT 9999 -RA FEW040TCU SCT050 BKN070 09/09 Q1012 NOSIG,0,0,0,10000,0,0,0,-RA
2026-03-20 17:00:00,METAR LEMD 201700Z 35002KT 9999 FEW040TCU BKN041 11/06 Q1012 TEMPO RA,0,2,0,10000,0,0,0,RA
2026-03-20 16:30:00,METAR LEMD 201630Z 33003KT 310V020 9999 FEW040TCU SCT041 11/06 Q1011 TEMPO RA,0,3,0,10000,0,0,0,RA
2026-03-20 16:00:00,METAR LEMD 201600Z VRB02KT 9999 FEW040TCU SCT041 11/05 Q1012 TEMPO RA,0,2,0,10000,0,0,0,RA
2026-03-20 15:30:00,METAR LEMD 201530Z 10001KT 9999 BKN035 FEW040TCU BKN045 11/04 Q1012 TEMPO RA,0,1,0,10000,0,0,0,RA
2026-03-20 15:00:00,METAR LEMD 201500Z VRB02KT 9999 BKN035 FEW040TCU BKN050 11/05 Q1012 NOSIG,0,2,0,10000,0,0,0,
2026-03-20 14:30:00,METAR LEMD 201430Z VRB02KT 9999 BKN035 FEW040TCU BKN050 10/06 Q1012 NOSIG,0,2,0,10000,0,0,0,
2026-03-20 14:00:00,METAR LEMD 201400Z 16004KT 130V220 9999 -RA BKN035 FEW040TCU BKN050 10/06 Q1012 NOSIG,0,4,0,10000,0,0,0,-RA
2026-03-20 13:30:00,METAR LEMD 201330Z 14002KT 9999 -RA BKN035 BKN050 09/07 Q1013 NOSIG,0,2,0,10000,0,0,0,-RA
2026-03-20 12:30:00,METAR LEMD 201230Z 08003KT 9999 BKN030 BKN042 11/04 Q1013 NOSIG,0,3,0,10000,0,0,0,
2026-03-20 11:30:00,METAR LEMD 201130Z 10003KT 9999 SCT030 BKN040 11/04 Q1014 NOSIG,0,3,0,10000,0,0,0,
2026-03-20 10:30:00,METAR LEMD 201030Z 09003KT 010V170 9999 FEW035 BKN040 10/03 Q1014 NOSIG,0,3,0,10000,0,0,0,
2026-03-20 10:00:00,METAR LEMD 201000Z 08004KT 010V140 9999 BKN035 BKN040 09/03 Q1014 NOSIG,0,4,0,10000,0,0,0,
2026-03-20 09:30:00,METAR LEMD 200930Z VRB02KT 9999 BKN030 BKN040 09/04 Q1014 NOSIG,0,2,0,10000,0,0,0,
2026-03-20 09:00:00,METAR LEMD 200900Z VRB02KT 9999 SCT030 BKN045 08/03 Q1014 NOSIG,0,2,0,10000,0,0,0,
2026-03-20 08:30:00,METAR LEMD 200830Z 06001KT 9999 SCT035 SCT045 08/03 Q1014 NOSIG,0,1,0,10000,0,0,0,
2026-03-20 08:00:00,METAR LEMD 200800Z VRB02KT 9999 SCT037 SCT045 08/03 Q1014 NOSIG,0,2,0,10000,0,0,0,
2026-03-20 07:30:00,METAR LEMD 200730Z 03003KT 350V100 9999 SCT037 SCT045 07/03 Q1014 NOSIG,0,3,0,10000,0,0,0,
2026-03-20 06:30:00,METAR LEMD 200630Z 14007KT 060V170 9999 FEW035 07/02 Q1014 NOSIG,0,7,0,10000,0,0,0,
2026-03-20 06:00:00,METAR LEMD 200600Z 14005KT 080V180 9999 FEW035 07/02 Q1014 NOSIG,0,5,0,10000,0,0,0,
2026-03-20 05:30:00,METAR LEMD 200530Z 16008KT 9999 FEW035 07/03 Q1013 NOSIG,0,8,0,10000,0,0,0,
2026-03-20 05:00:00,METAR LEMD 200500Z 16013KT 9999 FEW035 SCT050 08/03 Q1013 NOSIG,0,13,0,10000,0,0,0,
2026-03-20 04:30:00,METAR LEMD 200430Z VRB02KT 9999 BKN050 08/04 Q1013 NOSIG,0,2,0,10000,0,0,0,
2026-03-20 04:00:00,METAR LEMD 200400Z 14003KT 9999 BKN045 09/04 Q1013 NOSIG,0,3,0,10000,0,0,0,
2026-03-20 03:30:00,METAR LEMD 200330Z VRB01KT 9999 OVC045 09/04 Q1013 NOSIG,0,1,0,10000,0,0,0,
2026-03-20 03:00:00,METAR LEMD 200300Z VRB01KT 9999 BKN046 09/04 Q1012 NOSIG,0,1,0,10000,0,0,0,
2026-03-20 02:30:00,METAR LEMD 200230Z VRB02KT 9999 FEW046 09/04 Q1012 NOSIG,0,2,0,10000,0,0,0,
2026-03-20 02:00:00,METAR LEMD 200200Z VRB02KT 9999 SCT046 09/04 Q1013 NOSIG,0,2,0,10000,0,0,0,
2026-03-20 01:30:00,METAR LEMD 200130Z 07003KT 010V130 9999 BKN047 10/04 Q1013 NOSIG,0,3,0,10000,0,0,0,
2026-03-20 01:00:00,METAR LEMD 200100Z VRB02KT 9999 BKN050 09/05 Q1013 NOSIG,0,2,0,10000,0,0,0,
2026-03-20 00:30:00,METAR LEMD 200030Z 06003KT 030V100 9999 FEW050 09/05 Q1013 NOSIG,0,3,0,10000,0,0,0,
2026-03-20 00:00:00,METAR LEMD 200000Z 10001KT 9999 FEW050 10/05 Q1013 NOSIG,0,1,0,10000,0,0,0,
2026-03-19 23:30:00,METAR LEMD 192330Z VRB01KT 9999 FEW050 10/05 Q1014 NOSIG,0,1,0,10000,0,0,0,
2026-03-19 23:00:00,METAR LEMD 192300Z VRB02KT CAVOK 10/05 Q1013 NOSIG,1,0,0,9999,0,0,0,
2026-03-19 22:30:00,METAR LEMD 192230Z VRB01KT CAVOK 10/05 Q1013 NOSIG,1,0,0,9999,0,0,0,
2026-03-19 22:00:00,METAR LEMD 192200Z VRB01KT CAVOK 10/05 Q1013 NOSIG,1,0,0,9999,0,0,0,
2026-03-19 21:30:00,METAR LEMD 192130Z 15003KT CAVOK 10/05 Q1013 NOSIG,1,0,0,9999,0,0,0,
2026-03-19 21:00:00,METAR LEMD 192100Z 14005KT 100V160 CAVOK 10/05 Q1013 NOSIG,1,0,0,9999,0,0,0,
2026-03-19 20:30:00,METAR LEMD 192030Z 15008KT 130V190 CAVOK 11/05 Q1012 NOSIG,1,0,0,9999,0,0,0,
2026-03-19 20:00:00,METAR LEMD 192000Z 14009KT CAVOK 11/05 Q1012 NOSIG,1,0,0,9999,0,0,0,
2026-03-19 19:30:00,METAR LEMD 191930Z 15008KT 130V190 CAVOK 12/05 Q1012 NOSIG,1,0,0,9999,0,0,0,
2026-03-19 19:00:00,METAR LEMD 191900Z 15010KT CAVOK 12/06 Q1012 NOSIG,1,0,0,9999,0,0,0,
2026-03-19 18:30:00,METAR LEMD 191830Z 14009KT CAVOK 13/05 Q1011 NOSIG,1,0,0,9999,0,0,0,
2026-03-19 18:00:00,METAR LEMD 191800Z 14009KT 100V160 CAVOK 14/06 Q1011 NOSIG,1,0,0,9999,0,0,0,
2026-03-19 17:30:00,METAR LEMD 191730Z 14010KT 110V170 CAVOK 16/06 Q1011 NOSIG,1,0,0,9999,0,0,0,
2026-03-19 17:00:00,METAR LEMD 191700Z 15011KT 120V180 CAVOK 16/06 Q1011 NOSIG,1,0,0,9999,0,0,0,
2026-03-19 16:30:00,METAR LEMD 191630Z 14008KT 110V190 CAVOK 17/06 Q1011 NOSIG,1,0,0,9999,0,0,0,
2026-03-19 16:00:00,METAR LEMD 191600Z 14008KT 070V170 CAVOK 18/06 Q1011 NOSIG,1,0,0,9999,0,0,0,
2026-03-19 15:30:00,METAR LEMD 191530Z 17003KT CAVOK 18/05 Q1011 NOSIG,1,0,0,9999,0,0,0,
2026-03-19 15:00:00,METAR LEMD 191500Z 21003KT CAVOK 18/04 Q1011 NOSIG,1,0,0,9999,0,0,0,
2026-03-19 14:30:00,METAR LEMD 191430Z 01003KT 290V100 CAVOK 17/04 Q1011 NOSIG,1,0,0,9999,0,0,0,
2026-03-19 14:00:00,METAR LEMD 191400Z 31002KT CAVOK 17/05 Q1011 NOSIG,1,0,0,9999,0,0,0,
2026-03-19 13:30:00,METAR LEMD 191330Z 01004KT 270V080 CAVOK 17/04 Q1012 NOSIG,1,0,0,9999,0,0,0,
2026-03-19 13:00:00,METAR LEMD 191300Z 05003KT CAVOK 16/04 Q1012 NOSIG,1,0,0,9999,0,0,0,
2026-03-19 12:30:00,METAR LEMD 191230Z 01003KT CAVOK 16/05 Q1012 NOSIG,1,0,0,9999,0,0,0,
2026-03-19 12:00:00,METAR LEMD 191200Z 08003KT CAVOK 15/03 Q1013 NOSIG,1,0,0,9999,0,0,0,
2026-03-19 11:30:00,METAR LEMD 191130Z 10005KT 040V160 CAVOK 14/04 Q1013 NOSIG,1,0,0,9999,0,0,0,
2026-03-19 11:00:00,METAR LEMD 191100Z 14005KT 080V210 CAVOK 13/04 Q1013 NOSIG,1,0,0,9999,0,0,0,
2026-03-19 10:30:00,METAR LEMD 191030Z 08003KT CAVOK 13/02 Q1014 NOSIG,1,0,0,9999,0,0,0,
2026-03-19 10:00:00,METAR LEMD 191000Z 21002KT CAVOK 13/03 Q1014 NOSIG,1,0,0,9999,0,0,0,
2026-03-19 09:30:00,METAR LEMD 190930Z 03002KT CAVOK 12/04 Q1014 NOSIG,1,0,0,9999,0,0,0,
2026-03-19 09:00:00,METAR LEMD 190900Z VRB02KT CAVOK 10/03 Q1014 NOSIG,1,0,0,9999,0,0,0,
2026-03-19 08:30:00,METAR LEMD 190830Z 01004KT 340V040 CAVOK 08/03 Q1013 NOSIG,1,0,0,9999,0,0,0,
2026-03-19 08:00:00,METAR LEMD 190800Z 34004KT 310V010 CAVOK 06/02 Q1013 NOSIG,1,0,0,9999,0,0,0,
2026-03-19 07:30:00,METAR LEMD 190730Z 35005KT CAVOK 05/01 Q1013 NOSIG,1,0,0,9999,0,0,0,
2026-03-19 07:00:00,METAR LEMD 190700Z 33005KT CAVOK 05/01 Q1013 NOSIG,1,0,0,9999,0,0,0,
2026-03-19 06:30:00,METAR LEMD 190630Z 33004KT CAVOK 03/01 Q1012 NOSIG,1,0,0,9999,0,0,0,
2026-03-19 06:00:00,METAR LEMD 190600Z 01004KT 340V040 CAVOK 04/01 Q1012 NOSIG,1,0,0,9999,0,0,0,
2026-03-19 05:30:00,METAR LEMD 190530Z 34005KT 300V010 CAVOK 04/01 Q1012 NOSIG,1,0,0,9999,0,0,0,
2026-03-19 05:00:00,METAR LEMD 190500Z 36003KT CAVOK 04/01 Q1011 NOSIG,1,0,0,9999,0,0,0,
2026-03-19 04:30:00,METAR LEMD 190430Z 34003KT 310V020 CAVOK 04/01 Q1011 NOSIG,1,0,0,9999,0,0,0,
2026-03-19 04:00:00,METAR LEMD 190400Z 34003KT CAVOK 05/01 Q1010 NOSIG,1,0,0,9999,0,0,0,
2026-03-19 03:30:00,METAR LEMD 190330Z 35003KT CAVOK 04/01 Q1010 NOSIG,1,0,0,9999,0,0,0,
2026-03-19 03:00:00,METAR LEMD 190300Z 34003KT CAVOK 05/01 Q1010 NOSIG,1,0,0,9999,0,0,0,
2026-03-19 02:30:00,METAR LEMD 190230Z 32005KT CAVOK 04/01 Q1010 NOSIG,1,0,0,9999,0,0,0,
2026-03-19 02:00:00,METAR LEMD 190200Z 35003KT 310V060 CAVOK 05/02 Q1010 NOSIG,1,0,0,9999,0,0,0,
2026-03-19 01:30:00,METAR LEMD 190130Z 34003KT CAVOK 05/02 Q1010 NOSIG,1,0,0,9999,0,0,0,
2026-03-19 01:00:00,METAR LEMD 190100Z 34003KT CAVOK 06/02 Q1010 NOSIG,1,0,0,9999,0,0,0,
2026-03-19 00:30:00,METAR LEMD 190030Z 01003KT CAVOK 07/02 Q1009 NOSIG,1,0,0,9999,0,0,0,
2026-03-19 00:00:00,METAR LEMD 190000Z 36004KT CAVOK 07/02 Q1009 NOSIG,1,0,0,9999,0,0,0,
2026-03-18 23:30:00,METAR LEMD 182330Z 32003KT CAVOK 07/03 Q1009 NOSIG,1,0,0,9999,0,0,0,
2026-03-18 23:00:00,METAR LEMD 182300Z 36003KT 330V030 CAVOK 08/03 Q1009 NOSIG,1,0,0,9999,0,0,0,
2026-03-18 22:30:00,METAR LEMD 182230Z 35004KT CAVOK 08/03 Q1009 NOSIG,1,0,0,9999,0,0,0,
2026-03-18 22:00:00,METAR LEMD 182200Z 33004KT 310V030 CAVOK 09/03 Q1009 NOSIG,1,0,0,9999,0,0,0,
2026-03-18 21:30:00,METAR LEMD 182130Z VRB02KT CAVOK 09/02 Q1009 NOSIG,1,0,0,9999,0,0,0,
2026-03-18 21:00:00,METAR LEMD 182100Z 02004KT 340V060 CAVOK 11/03 Q1008 NOSIG,1,0,0,9999,0,0,0,
2026-03-18 20:30:00,METAR LEMD 182030Z VRB02KT CAVOK 11/02 Q1008 NOSIG,1,0,0,9999,0,0,0,
2026-03-18 20:00:00,METAR LEMD 182000Z 35002KT CAVOK 12/01 Q1008 NOSIG,1,0,0,9999,0,0,0,
2026-03-18 19:30:00,METAR LEMD 181930Z 00000KT CAVOK 12/02 Q1007 NOSIG,1,0,0,9999,0,0,0,
2026-03-18 19:00:00,METAR LEMD 181900Z VRB02KT CAVOK 14/01 Q1007 NOSIG,1,0,0,9999,0,0,0,
2026-03-18 18:30:00,METAR LEMD 181830Z 18003KT 140V240 CAVOK 16/03 Q1007 NOSIG,1,0,0,9999,0,0,0,
2026-03-18 18:00:00,METAR LEMD 181800Z 18004KT 120V200 CAVOK 17/01 Q1007 NOSIG,1,0,0,9999,0,0,0,
2026-03-18 17:30:00,METAR LEMD 181730Z 18005KT 150V210 CAVOK 17/01 Q1007 NOSIG,1,0,0,9999,0,0,0,
2026-03-18 17:00:00,METAR LEMD 181700Z 19005KT CAVOK 18/M00 Q1007 NOSIG,1,0,0,9999,0,0,0,
2026-03-18 16:30:00,METAR LEMD 181630Z 19005KT 140V220 CAVOK 18/M00 Q1007 NOSIG,1,0,0,9999,0,0,0,
2026-03-18 16:00:00,METAR LEMD 181600Z 17005KT 130V210 CAVOK 17/02 Q1007 NOSIG,1,0,0,9999,0,0,0,
2026-03-18 15:30:00,METAR LEMD 181530Z 21007KT 170V250 CAVOK 18/01 Q1007 NOSIG,1,0,0,9999,0,0,0,
2026-03-18 15:00:00,METAR LEMD 181500Z 19007KT 160V230 CAVOK 18/01 Q1007 NOSIG,1,0,0,9999,0,0,0,
2026-03-18 14:30:00,METAR LEMD 181430Z 19008KT 150V230 CAVOK 18/M00 Q1007 NOSIG,1,0,0,9999,0,0,0,
2026-03-18 14:00:00,METAR LEMD 181400Z 16006KT 110V200 CAVOK 18/00 Q1007 NOSIG,1,0,0,9999,0,0,0,
2026-03-18 13:30:00,METAR LEMD 181330Z 16004KT CAVOK 18/02 Q1007 NOSIG,1,0,0,9999,0,0,0,
2026-03-18 13:00:00,METAR LEMD 181300Z 08003KT 360V170 CAVOK 17/M03 Q1007 NOSIG,1,0,0,9999,0,0,0,
2026-03-18 12:30:00,METAR LEMD 181230Z 08004KT 360V160 CAVOK 16/M01 Q1008 NOSIG,1,0,0,9999,0,0,0,
2026-03-18 12:00:00,METAR LEMD 181200Z 01003KT CAVOK 15/00 Q1008 NOSIG,1,0,0,9999,0,0,0,
2026-03-18 11:30:00,METAR LEMD 181130Z 14005KT 060V180 CAVOK 14/00 Q1009 NOSIG,1,0,0,9999,0,0,0,
2026-03-18 11:00:00,METAR LEMD 181100Z 17001KT CAVOK 14/M02 Q1009 NOSIG,1,0,0,9999,0,0,0,
2026-03-18 10:30:00,METAR LEMD 181030Z 01001KT CAVOK 12/01 Q1009 NOSIG,1,0,0,9999,0,0,0,
2026-03-18 10:00:00,METAR LEMD 181000Z 19002KT CAVOK 11/01 Q1009 NOSIG,1,0,0,9999,0,0,0,
2026-03-18 09:30:00,METAR LEMD 180930Z 23002KT CAVOK 09/01 Q1009 NOSIG,1,0,0,9999,0,0,0,
2026-03-18 09:00:00,METAR LEMD 180900Z VRB01KT CAVOK 08/00 Q1009 NOSIG,1,0,0,9999,0,0,0,
2026-03-18 08:30:00,METAR LEMD 180830Z VRB01KT CAVOK 07/00 Q1009 NOSIG,1,0,0,9999,0,0,0,
2026-03-18 08:00:00,METAR LEMD 180800Z 00000KT CAVOK 07/01 Q1009 NOSIG,1,0,0,9999,0,0,0,
2026-03-18 07:30:00,METAR LEMD 180730Z VRB01KT CAVOK 05/01 Q1009 NOSIG,1,0,0,9999,0,0,0,
2026-03-18 07:00:00,METAR LEMD 180700Z 36002KT CAVOK 03/02 Q1009 NOSIG,1,0,0,9999,0,0,0,
2026-03-18 06:30:00,METAR LEMD 180630Z 35003KT 330V040 CAVOK 03/01 Q1009 NOSIG,1,0,0,9999,0,0,0,
2026-03-18 06:00:00,METAR LEMD 180600Z VRB01KT CAVOK 03/01 Q1009 NOSIG,1,0,0,9999,0,0,0,
2026-03-18 05:30:00,METAR LEMD 180530Z 02003KT CAVOK 04/01 Q1009 NOSIG,1,0,0,9999,0,0,0,
2026-03-18 05:00:00,METAR LEMD 180500Z VRB02KT CAVOK 04/01 Q1009 NOSIG,1,0,0,9999,0,0,0,
2026-03-18 04:30:00,METAR LEMD 180430Z 36003KT CAVOK 05/01 Q1009 NOSIG,1,0,0,9999,0,0,0,
2026-03-18 04:00:00,METAR LEMD 180400Z VRB02KT CAVOK 05/01 Q1009 NOSIG,1,0,0,9999,0,0,0,
2026-03-18 03:30:00,METAR LEMD 180330Z 34003KT CAVOK 04/01 Q1009 NOSIG,1,0,0,9999,0,0,0,
2026-03-18 03:00:00,METAR LEMD 180300Z 34002KT CAVOK 05/01 Q1009 NOSIG,1,0,0,9999,0,0,0,
2026-03-18 02:30:00,METAR LEMD 180230Z 33004KT CAVOK 05/01 Q1009 NOSIG,1,0,0,9999,0,0,0,
2026-03-18 02:00:00,METAR LEMD 180200Z 36004KT 310V040 CAVOK 06/01 Q1009 NOSIG,1,0,0,9999,0,0,0,
2026-03-18 01:30:00,METAR LEMD 180130Z 34005KT CAVOK 06/01 Q1009 NOSIG,1,0,0,9999,0,0,0,
2026-03-18 01:00:00,METAR LEMD 180100Z 34005KT CAVOK 06/01 Q1010 NOSIG,1,0,0,9999,0,0,0,
2026-03-18 00:30:00,METAR LEMD 180030Z 34004KT CAVOK 07/02 Q1010 NOSIG,1,0,0,9999,0,0,0,
2026-03-18 00:00:00,METAR LEMD 180000Z 32007KT CAVOK 07/03 Q1010 NOSIG,1,0,0,9999,0,0,0,
2026-03-17 23:30:00,METAR LEMD 172330Z 33005KT CAVOK 08/02 Q1010 NOSIG,1,0,0,9999,0,0,0,
2026-03-17 23:00:00,METAR LEMD 172300Z 35003KT CAVOK 09/03 Q1010 NOSIG,1,0,0,9999,0,0,0,
2026-03-17 22:30:00,METAR LEMD 172230Z 33005KT CAVOK 09/03 Q1011 NOSIG,1,0,0,9999,0,0,0,
2026-03-17 22:00:00,METAR LEMD 172200Z 36003KT 340V040 CAVOK 09/03 Q1011 NOSIG,1,0,0,9999,0,0,0,
2026-03-17 21:30:00,METAR LEMD 172130Z 01003KT 330V060 CAVOK 11/02 Q1011 NOSIG,1,0,0,9999,0,0,0,
2026-03-17 21:00:00,METAR LEMD 172100Z VRB02KT CAVOK 12/01 Q1010 NOSIG,1,0,0,9999,0,0,0,
2026-03-17 20:30:00,METAR LEMD 172030Z VRB01KT CAVOK 14/M01 Q1010 NOSIG,1,0,0,9999,0,0,0,
2026-03-17 20:00:00,METAR LEMD 172000Z 05001KT CAVOK 14/00 Q1010 NOSIG,1,0,0,9999,0,0,0,
2026-03-17 19:30:00,METAR LEMD 171930Z VRB02KT CAVOK 15/01 Q1010 NOSIG,1,0,0,9999,0,0,0,
2026-03-17 19:00:00,METAR LEMD 171900Z 03002KT CAVOK 15/01 Q1010 NOSIG,1,0,0,9999,0,0,0,
2026-03-17 18:30:00,METAR LEMD 171830Z VRB01KT CAVOK 17/00 Q1010 NOSIG,1,0,0,9999,0,0,0,
2026-03-17 18:00:00,METAR LEMD 171800Z VRB01KT CAVOK 20/02 Q1011 NOSIG,1,0,0,9999,0,0,0,
2026-03-17 17:30:00,METAR LEMD 171730Z 14003KT 060V200 CAVOK 21/00 Q1011 NOSIG,1,0,0,9999,0,0,0,
2026-03-17 17:00:00,METAR LEMD 171700Z 15005KT 110V170 CAVOK 21/M00 Q1011 NOSIG,1,0,0,9999,0,0,0,
2026-03-17 16:30:00,METAR LEMD 171630Z 14005KT 060V190 CAVOK 22/01 Q1011 NOSIG,1,0,0,9999,0,0,0,
2026-03-17 16:00:00,METAR LEMD 171600Z 12005KT 070V170 CAVOK 22/M01 Q1012 NOSIG,1,0,0,9999,0,0,0,
2026-03-17 15:30:00,METAR LEMD 171530Z VRB02KT CAVOK 22/03 Q1012 NOSIG,1,0,0,9999,0,0,0,
2026-03-17 15:00:00,METAR LEMD 171500Z 14003KT CAVOK 21/02 Q1012 NOSIG,1,0,0,9999,0,0,0,
2026-03-17 14:30:00,METAR LEMD 171430Z 11002KT CAVOK 21/02 Q1013 NOSIG,1,0,0,9999,0,0,0,
2026-03-17 14:00:00,METAR LEMD 171400Z 27001KT CAVOK 21/05 Q1013 NOSIG,1,0,0,9999,0,0,0,
2026-03-17 13:30:00,METAR LEMD 171330Z 13003KT CAVOK 20/06 Q1014 NOSIG,1,0,0,9999,0,0,0,
2026-03-17 13:00:00,METAR LEMD 171300Z 17002KT CAVOK 20/03 Q1015 NOSIG,1,0,0,9999,0,0,0,
2026-03-17 12:30:00,METAR LEMD 171230Z 22003KT CAVOK 19/06 Q1015 NOSIG,1,0,0,9999,0,0,0,
2026-03-17 12:00:00,METAR LEMD 171200Z 32002KT CAVOK 18/03 Q1016 NOSIG,1,0,0,9999,0,0,0,
2026-03-17 11:30:00,METAR LEMD 171130Z 31001KT CAVOK 17/03 Q1016 NOSIG,1,0,0,9999,0,0,0,
2026-03-17 11:00:00,METAR LEMD 171100Z 07002KT CAVOK 16/05 Q1017 NOSIG,1,0,0,9999,0,0,0,
2026-03-17 10:30:00,METAR LEMD 171030Z 03002KT CAVOK 15/04 Q1017 NOSIG,1,0,0,9999,0,0,0,
2026-03-17 10:00:00,METAR LEMD 171000Z VRB01KT CAVOK 13/04 Q1017 NOSIG,1,0,0,9999,0,0,0,
2026-03-17 09:30:00,METAR LEMD 170930Z 35001KT CAVOK 12/04 Q1017 NOSIG,1,0,0,9999,0,0,0,
2026-03-17 09:00:00,METAR LEMD 170900Z VRB02KT CAVOK 09/04 Q1017 NOSIG,1,0,0,9999,0,0,0,
2026-03-17 08:30:00,METAR LEMD 170830Z VRB02KT CAVOK 08/03 Q1017 NOSIG,1,0,0,9999,0,0,0,
2026-03-17 08:00:00,METAR LEMD 170800Z VRB01KT CAVOK 06/04 Q1018 NOSIG,1,0,0,9999,0,0,0,
2026-03-17 07:30:00,METAR LEMD 170730Z VRB01KT CAVOK 04/03 Q1018 NOSIG,1,0,0,9999,0,0,0,
2026-03-17 07:00:00,METAR LEMD 170700Z VRB01KT CAVOK 03/03 Q1018 NOSIG,1,0,0,9999,0,0,0,
2026-03-17 06:30:00,METAR LEMD 170630Z 01002KT CAVOK 02/02 Q1018 NOSIG,1,0,0,9999,0,0,0,
2026-03-17 06:00:00,METAR LEMD 170600Z VRB02KT CAVOK 02/02 Q1018 NOSIG,1,0,0,9999,0,0,0,
2026-03-17 05:30:00,METAR LEMD 170530Z 33002KT CAVOK 03/03 Q1018 NOSIG,1,0,0,9999,0,0,0,
2026-03-17 05:00:00,METAR LEMD 170500Z VRB01KT CAVOK 03/03 Q1018 NOSIG,1,0,0,9999,0,0,0,
2026-03-17 04:30:00,METAR LEMD 170430Z 01003KT CAVOK 04/04 Q1018 NOSIG,1,0,0,9999,0,0,0,
2026-03-17 04:00:00,METAR LEMD 170400Z 32001KT CAVOK 04/04 Q1018 NOSIG,1,0,0,9999,0,0,0,
2026-03-17 03:30:00,METAR LEMD 170330Z 35003KT CAVOK 05/03 Q1018 NOSIG,1,0,0,9999,0,0,0,
2026-03-17 03:00:00,METAR LEMD 170300Z 33003KT 310V010 CAVOK 05/04 Q1019 NOSIG,1,0,0,9999,0,0,0,
2026-03-17 02:30:00,METAR LEMD 170230Z 35003KT CAVOK 05/04 Q1019 NOSIG,1,0,0,9999,0,0,0,
2026-03-17 02:00:00,METAR LEMD 170200Z VRB02KT CAVOK 06/04 Q1019 NOSIG,1,0,0,9999,0,0,0,
2026-03-17 01:30:00,METAR LEMD 170130Z 35003KT CAVOK 06/04 Q1019 NOSIG,1,0,0,9999,0,0,0,
2026-03-17 01:00:00,METAR LEMD 170100Z 01002KT CAVOK 06/04 Q1019 NOSIG,1,0,0,9999,0,0,0,
2026-03-17 00:30:00,METAR LEMD 170030Z 34004KT CAVOK 07/04 Q1020 NOSIG,1,0,0,9999,0,0,0,
2026-03-17 00:00:00,METAR LEMD 170000Z 35004KT 300V030 CAVOK 08/04 Q1020 NOSIG,1,0,0,9999,0,0,0,
2026-03-16 23:30:00,METAR LEMD 162330Z 35003KT CAVOK 08/04 Q1020 NOSIG,1,0,0,9999,0,0,0,
2026-03-16 23:00:00,METAR LEMD 162300Z 35002KT CAVOK 08/04 Q1020 NOSIG,1,0,0,9999,0,0,0,
2026-03-16 22:30:00,METAR LEMD 162230Z 34003KT CAVOK 08/04 Q1020 NOSIG,1,0,0,9999,0,0,0,
2026-03-16 22:00:00,METAR LEMD 162200Z 02004KT CAVOK 10/04 Q1020 NOSIG,1,0,0,9999,0,0,0,
2026-03-16 21:30:00,METAR LEMD 162130Z VRB02KT CAVOK 10/03 Q1021 NOSIG,1,0,0,9999,0,0,0,
2026-03-16 21:00:00,METAR LEMD 162100Z 36001KT CAVOK 12/04 Q1020 NOSIG,1,0,0,9999,0,0,0,
2026-03-16 20:30:00,METAR LEMD 162030Z 36004KT CAVOK 12/03 Q1020 NOSIG,1,0,0,9999,0,0,0,
2026-03-16 20:00:00,METAR LEMD 162000Z 34003KT CAVOK 13/02 Q1020 NOSIG,1,0,0,9999,0,0,0,
2026-03-16 19:30:00,METAR LEMD 161930Z 01004KT CAVOK 15/02 Q1020 NOSIG,1,0,0,9999,0,0,0,
2026-03-16 19:00:00,METAR LEMD 161900Z 34003KT CAVOK 13/03 Q1020 NOSIG,1,0,0,9999,0,0,0,
2026-03-16 18:30:00,METAR LEMD 161830Z 34003KT CAVOK 15/02 Q1020 NOSIG,1,0,0,9999,0,0,0,
2026-03-16 18:00:00,METAR LEMD 161800Z 35003KT CAVOK 17/05 Q1020 NOSIG,1,0,0,9999,0,0,0,
2026-03-16 17:30:00,METAR LEMD 161730Z 33005KT 310V010 CAVOK 18/04 Q1020 NOSIG,1,0,0,9999,0,0,0,
2026-03-16 17:00:00,METAR LEMD 161700Z 33003KT 290V020 CAVOK 19/03 Q1020 NOSIG,1,0,0,9999,0,0,0,
2026-03-16 16:30:00,METAR LEMD 161630Z 30003KT 260V350 CAVOK 19/06 Q1020 NOSIG,1,0,0,9999,0,0,0,
2026-03-16 16:00:00,METAR LEMD 161600Z 32002KT CAVOK 19/01 Q1020 NOSIG,1,0,0,9999,0,0,0,
2026-03-16 15:30:00,METAR LEMD 161530Z 30003KT 260V340 CAVOK 19/03 Q1020 NOSIG,1,0,0,9999,0,0,0,
2026-03-16 15:00:00,METAR LEMD 161500Z 24004KT 170V290 CAVOK 19/03 Q1020 NOSIG,1,0,0,9999,0,0,0,
2026-03-16 14:30:00,METAR LEMD 161430Z 27003KT 200V350 CAVOK 18/02 Q1020 NOSIG,1,0,0,9999,0,0,0,
2026-03-16 14:00:00,METAR LEMD 161400Z 28003KT 190V350 CAVOK 17/02 Q1021 NOSIG,1,0,0,9999,0,0,0,
2026-03-16 13:30:00,METAR LEMD 161330Z 27004KT 210V330 CAVOK 17/03 Q1021 NOSIG,1,0,0,9999,0,0,0,
2026-03-16 13:00:00,METAR LEMD 161300Z 26003KT 170V330 CAVOK 16/04 Q1022 NOSIG,1,0,0,9999,0,0,0,
2026-03-16 12:30:00,METAR LEMD 161230Z 29004KT 200V350 CAVOK 15/03 Q1022 NOSIG,1,0,0,9999,0,0,0,
2026-03-16 12:00:00,METAR LEMD 161200Z 30005KT 240V340 CAVOK 14/04 Q1022 NOSIG,1,0,0,9999,0,0,0,
2026-03-16 11:30:00,METAR LEMD 161130Z 24002KT CAVOK 14/03 Q1022 NOSIG,1,0,0,9999,0,0,0,
2026-03-16 11:00:00,METAR LEMD 161100Z 24003KT 180V290 CAVOK 13/05 Q1023 NOSIG,1,0,0,9999,0,0,0,
2026-03-16 10:30:00,METAR LEMD 161030Z 23002KT CAVOK 12/04 Q1023 NOSIG,1,0,0,9999,0,0,0,
2026-03-16 10:00:00,METAR LEMD 161000Z VRB02KT CAVOK 10/03 Q1023 NOSIG,1,0,0,9999,0,0,0,
2026-03-16 09:30:00,METAR LEMD 160930Z VRB02KT CAVOK 09/03 Q1023 NOSIG,1,0,0,9999,0,0,0,
2026-03-16 09:00:00,METAR LEMD 160900Z VRB02KT CAVOK 08/02 Q1023 NOSIG,1,0,0,9999,0,0,0,
2026-03-16 08:30:00,METAR LEMD 160830Z 32004KT CAVOK 06/01 Q1022 NOSIG,1,0,0,9999,0,0,0,
2026-03-16 08:00:00,METAR LEMD 160800Z VRB02KT CAVOK 05/02 Q1023 NOSIG,1,0,0,9999,0,0,0,
2026-03-16 07:30:00,METAR LEMD 160730Z VRB01KT CAVOK 03/02 Q1022 NOSIG,1,0,0,9999,0,0,0,
2026-03-16 07:00:00,METAR LEMD 160700Z VRB01KT CAVOK 01/01 Q1022 NOSIG,1,0,0,9999,0,0,0,
2026-03-16 06:30:00,METAR LEMD 160630Z VRB01KT CAVOK 01/01 Q1022 NOSIG,1,0,0,9999,0,0,0,
2026-03-16 06:00:00,METAR LEMD 160600Z 00000KT CAVOK 02/01 Q1022 NOSIG,1,0,0,9999,0,0,0,
2026-03-16 05:30:00,METAR LEMD 160530Z 00000KT CAVOK 02/02 Q1022 NOSIG,1,0,0,9999,0,0,0,
2026-03-16 05:00:00,METAR LEMD 160500Z VRB01KT CAVOK 02/01 Q1021 NOSIG,1,0,0,9999,0,0,0,
2026-03-16 04:30:00,METAR LEMD 160430Z VRB01KT CAVOK 03/01 Q1021 NOSIG,1,0,0,9999,0,0,0,
2026-03-16 04:00:00,METAR LEMD 160400Z VRB02KT CAVOK 03/00 Q1021 NOSIG,1,0,0,9999,0,0,0,
2026-03-16 03:30:00,METAR LEMD 160330Z 14004KT CAVOK 04/00 Q1021 NOSIG,1,0,0,9999,0,0,0,
2026-03-16 03:00:00,METAR LEMD 160300Z 14005KT CAVOK 03/00 Q1021 NOSIG,1,0,0,9999,0,0,0,
2026-03-16 02:30:00,METAR LEMD 160230Z VRB02KT CAVOK 05/00 Q1021 NOSIG,1,0,0,9999,0,0,0,
2026-03-16 02:00:00,METAR LEMD 160200Z 06002KT CAVOK 05/00 Q1021 NOSIG,1,0,0,9999,0,0,0,
2026-03-16 01:30:00,METAR LEMD 160130Z VRB02KT CAVOK 05/01 Q1021 NOSIG,1,0,0,9999,0,0,0,
2026-03-16 01:00:00,METAR LEMD 160100Z 12002KT CAVOK 05/01 Q1021 NOSIG,1,0,0,9999,0,0,0,
2026-03-16 00:30:00,METAR LEMD 160030Z 00000KT CAVOK 06/01 Q1021 NOSIG,1,0,0,9999,0,0,0,
2026-03-16 00:00:00,METAR LEMD 160000Z 07001KT CAVOK 07/01 Q1021 NOSIG,1,0,0,9999,0,0,0,
2026-03-15 23:30:00,METAR LEMD 152330Z VRB01KT CAVOK 07/01 Q1021 NOSIG,1,0,0,9999,0,0,0,
2026-03-15 23:00:00,METAR LEMD 152300Z VRB02KT CAVOK 07/01 Q1021 NOSIG,1,0,0,9999,0,0,0,
2026-03-15 22:30:00,METAR LEMD 152230Z 10004KT 070V150 CAVOK 07/01 Q1020 NOSIG,1,0,0,9999,0,0,0,
2026-03-15 22:00:00,METAR LEMD 152200Z 34008KT 300V030 CAVOK 09/01 Q1020 NOSIG,1,0,0,9999,0,0,0,
2026-03-15 21:30:00,METAR LEMD 152130Z 36007KT 310V070 CAVOK 10/01 Q1020 NOSIG,1,0,0,9999,0,0,0,
2026-03-15 21:00:00,METAR LEMD 152100Z 36010KT 330V030 CAVOK 10/01 Q1020 NOSIG,1,0,0,9999,0,0,0,
2026-03-15 20:30:00,METAR LEMD 152030Z 36011KT 340V040 CAVOK 10/01 Q1019 NOSIG,1,0,0,9999,0,0,0,
2026-03-15 20:00:00,METAR LEMD 152000Z 01008KT 310V060 CAVOK 11/01 Q1019 NOSIG,1,0,0,9999,0,0,0,
2026-03-15 19:30:00,METAR LEMD 151930Z 02007KT 310V090 CAVOK 11/01 Q1018 NOSIG,1,0,0,9999,0,0,0,
2026-03-15 19:00:00,METAR LEMD 151900Z 03007KT 330V080 CAVOK 11/00 Q1018 NOSIG,1,0,0,9999,0,0,0,
2026-03-15 18:30:00,METAR LEMD 151830Z 02012G22KT 340V080 CAVOK 12/M01 Q1017 NOSIG,1,0,0,9999,0,0,0,
2026-03-15 18:00:00,METAR LEMD 151800Z 01012KT 340V060 CAVOK 12/M00 Q1017 NOSIG,1,0,0,9999,0,0,0,
2026-03-15 17:30:00,METAR LEMD 151730Z 01012G22KT 330V040 CAVOK 13/M01 Q1017 NOSIG,1,0,0,9999,0,0,0,
2026-03-15 17:00:00,METAR LEMD 151700Z 01011KT 340V070 CAVOK 13/00 Q1016 NOSIG,1,0,0,9999,0,0,0,
2026-03-15 16:30:00,METAR LEMD 151630Z 36014KT 340V040 CAVOK 14/01 Q1016 NOSIG,1,0,0,9999,0,0,0,
2026-03-15 16:00:00,METAR LEMD 151600Z 01013KT 340V060 CAVOK 14/01 Q1016 NOSIG,1,0,0,9999,0,0,0,
2026-03-15 15:30:00,METAR LEMD 151530Z 36012KT CAVOK 14/01 Q1016 NOSIG,1,0,0,9999,0,0,0,
2026-03-15 15:00:00,METAR LEMD 151500Z 01011KT 320V070 9999 FEW050 14/M00 Q1016 NOSIG,0,11,0,10000,0,0,0,
2026-03-15 14:30:00,METAR LEMD 151430Z COR 01012KT 340V080 9999 FEW050 14/M00 Q1016 NOSIG,0,12,0,10000,0,0,0,
2026-03-15 14:00:00,METAR LEMD 151400Z 36012KT 320V070 9999 FEW050 14/00 Q1016 NOSIG,0,12,0,10000,0,0,0,
2026-03-15 13:30:00,METAR LEMD 151330Z 02010KT 340V080 9999 FEW050 13/00 Q1016 NOSIG,0,10,0,10000,0,0,0,
2026-03-15 13:00:00,METAR LEMD 151300Z 36013KT 330V040 9999 FEW050 13/M00 Q1016 NOSIG,0,13,0,10000,0,0,0,
2026-03-15 12:30:00,METAR LEMD 151230Z 01012KT 9999 FEW050 12/M01 Q1016 NOSIG,0,12,0,10000,0,0,0,
2026-03-15 12:00:00,METAR LEMD 151200Z 36014KT 330V040 9999 FEW050 12/M01 Q1016 NOSIG,0,14,0,10000,0,0,0,
2026-03-15 11:30:00,METAR LEMD 151130Z 01017KT 310V060 9999 FEW050 11/M01 Q1016 NOSIG,0,17,0,10000,0,0,0,
2026-03-15 11:00:00,METAR LEMD 151100Z 01017G27KT 330V040 9999 FEW050 11/M01 Q1016 NOSIG,0,17,1,10000,0,0,0,
2026-03-15 10:30:00,METAR LEMD 151030Z 01017KT 330V050 9999 FEW060 11/M01 Q1016 NOSIG,0,17,0,10000,0,0,0,
2026-03-15 10:00:00,METAR LEMD 151000Z 01016G26KT 340V050 9999 FEW060 10/M01 Q1016 NOSIG,0,16,1,10000,0,0,0,
2026-03-15 09:30:00,METAR LEMD 150930Z 36017KT 330V060 9999 FEW060 10/M01 Q1016 NOSIG,0,17,0,10000,0,0,0,
2026-03-15 09:00:00,METAR LEMD 150900Z 36018KT 330V040 9999 FEW060 10/M01 Q1015 NOSIG,0,18,0,10000,0,0,0,
2026-03-15 08:30:00,METAR LEMD 150830Z 36015G25KT 340V040 9999 FEW060 09/M01 Q1015 NOSIG,0,15,1,10000,0,0,0,
2026-03-15 08:00:00,METAR LEMD 150800Z 01012KT 340V040 9999 FEW060 08/M00 Q1015 NOSIG,0,12,0,10000,0,0,0,
