Time_recorded,METAR,is_cavok,wind_speed,is_gust,visibility_meters,has_thunderstorm,has_heavy_rain,has_low_vis_fog,other_phenomenon
2026-05-02 15:30:00,METAR LZIB 021530Z VRB03KT CAVOK 24/05 Q1019 NOSIG,1,0,0,9999,0,0,0,
2026-05-02 15:00:00,METAR LZIB 021500Z VRB04KT CAVOK 24/04 Q1020 NOSIG,1,0,0,9999,0,0,0,
2026-05-02 14:30:00,METAR LZIB 021430Z 28004KT 200V350 CAVOK 24/04 Q1020 NOSIG,1,0,0,9999,0,0,0,
2026-05-02 14:00:00,METAR LZIB 021400Z 27004KT 210V320 CAVOK 24/05 Q1020 NOSIG,1,0,0,9999,0,0,0,
2026-05-02 13:30:00,METAR LZIB 021330Z 31005KT 220V010 CAVOK 24/04 Q1020 NOSIG,1,0,0,9999,0,0,0,
2026-05-02 13:00:00,METAR LZIB 021300Z VRB02KT CAVOK 24/05 Q1021 NOSIG,1,0,0,9999,0,0,0,
2026-05-02 12:30:00,METAR LZIB 021230Z VRB02KT CAVOK 23/05 Q1021 NOSIG,1,0,0,9999,0,0,0,
2026-05-02 12:00:00,METAR LZIB 021200Z VRB04KT CAVOK 23/05 Q1022 NOSIG,1,0,0,9999,0,0,0,
2026-05-02 11:30:00,METAR LZIB 021130Z 23003KT 170V330 CAVOK 23/05 Q1022 NOSIG,1,0,0,9999,0,0,0,
2026-05-02 11:00:00,METAR LZIB 021100Z VRB03KT CAVOK 22/05 Q1022 NOSIG,1,0,0,9999,0,0,0,
2026-05-02 10:30:00,METAR LZIB 021030Z 29005KT 260V330 CAVOK 22/05 Q1023 NOSIG,1,0,0,9999,0,0,0,
2026-05-02 10:00:00,METAR LZIB 021000Z VRB03KT CAVOK 21/05 Q1023 NOSIG,1,0,0,9999,0,0,0,
2026-05-02 09:30:00,METAR LZIB 020930Z VRB03KT CAVOK 21/06 Q1024 NOSIG,1,0,0,9999,0,0,0,
2026-05-02 09:00:00,METAR LZIB 020900Z VRB02KT CAVOK 20/05 Q1024 NOSIG,1,0,0,9999,0,0,0,
2026-05-02 08:30:00,METAR LZIB 020830Z VRB02KT CAVOK 19/05 Q1024 NOSIG,1,0,0,9999,0,0,0,
2026-05-02 08:00:00,METAR LZIB 020800Z VRB02KT CAVOK 18/05 Q1024 NOSIG,1,0,0,9999,0,0,0,
2026-05-02 07:30:00,METAR LZIB 020730Z VRB02KT CAVOK 18/05 Q1025 NOSIG,1,0,0,9999,0,0,0,
2026-05-02 07:00:00,METAR LZIB 020700Z VRB03KT CAVOK 16/05 Q1025 NOSIG,1,0,0,9999,0,0,0,
2026-05-02 06:30:00,METAR LZIB 020630Z 00000KT CAVOK 15/06 Q1024 NOSIG,1,0,0,9999,0,0,0,
2026-05-02 06:00:00,METAR LZIB 020600Z VRB01KT CAVOK 14/05 Q1024 NOSIG,1,0,0,9999,0,0,0,
2026-05-02 05:30:00,METAR LZIB 020530Z VRB01KT CAVOK 12/05 Q1024 NOSIG,1,0,0,9999,0,0,0,
2026-05-02 05:00:00,METAR LZIB 020500Z 32003KT CAVOK 11/06 Q1024 NOSIG,1,0,0,9999,0,0,0,
2026-05-02 04:30:00,METAR LZIB 020430Z 32002KT CAVOK 09/04 Q1024 NOSIG,1,0,0,9999,0,0,0,
2026-05-02 03:30:00,METAR LZIB 020330Z 16002KT CAVOK 07/03 Q1024 NOSIG,1,0,0,9999,0,0,0,
2026-05-02 03:00:00,METAR LZIB 020300Z 17003KT CAVOK 08/04 Q1024 NOSIG,1,0,0,9999,0,0,0,
2026-05-02 02:30:00,METAR LZIB 020230Z 13007KT CAVOK 07/04 Q1024 NOSIG,1,0,0,9999,0,0,0,
2026-05-02 02:00:00,METAR LZIB 020200Z VRB02KT CAVOK 08/04 Q1024 NOSIG,1,0,0,9999,0,0,0,
2026-05-02 01:30:00,METAR LZIB 020130Z 21001KT CAVOK 09/04 Q1024 NOSIG,1,0,0,9999,0,0,0,
2026-05-02 01:00:00,METAR LZIB 020100Z 00000KT CAVOK 10/05 Q1024 NOSIG,1,0,0,9999,0,0,0,
2026-05-02 00:30:00,METAR LZIB 020030Z VRB02KT CAVOK 09/05 Q1024 NOSIG,1,0,0,9999,0,0,0,
2026-05-02 00:00:00,METAR LZIB 020000Z 25002KT CAVOK 09/04 Q1024 NOSIG,1,0,0,9999,0,0,0,
2026-05-01 23:30:00,METAR LZIB 012330Z 25001KT CAVOK 10/04 Q1024 NOSIG,1,0,0,9999,0,0,0,
2026-05-01 23:00:00,METAR LZIB 012300Z 00000KT CAVOK 10/04 Q1024 NOSIG,1,0,0,9999,0,0,0,
2026-05-01 22:30:00,METAR LZIB 012230Z 35001KT CAVOK 11/04 Q1024 NOSIG,1,0,0,9999,0,0,0,
2026-05-01 22:00:00,METAR LZIB 012200Z VRB02KT CAVOK 10/04 Q1025 NOSIG,1,0,0,9999,0,0,0,
2026-05-01 21:30:00,METAR LZIB 012130Z 27003KT CAVOK 13/04 Q1024 NOSIG,1,0,0,9999,0,0,0,
2026-05-01 21:00:00,METAR LZIB 012100Z 29003KT CAVOK 12/05 Q1025 NOSIG,1,0,0,9999,0,0,0,
2026-05-01 20:30:00,METAR LZIB 012030Z 01002KT CAVOK 12/04 Q1025 NOSIG,1,0,0,9999,0,0,0,
2026-05-01 20:00:00,METAR LZIB 012000Z 00000KT CAVOK 13/05 Q1025 NOSIG,1,0,0,9999,0,0,0,
2026-05-01 19:30:00,METAR LZIB 011930Z 31002KT CAVOK 15/04 Q1025 NOSIG,1,0,0,9999,0,0,0,
2026-05-01 19:00:00,METAR LZIB 011900Z 30004KT CAVOK 16/05 Q1024 NOSIG,1,0,0,9999,0,0,0,
2026-05-01 18:30:00,METAR LZIB 011830Z 32005KT CAVOK 17/04 Q1024 NOSIG,1,0,0,9999,0,0,0,
2026-05-01 18:00:00,METAR LZIB 011800Z 01003KT 320V040 CAVOK 18/03 Q1024 NOSIG,1,0,0,9999,0,0,0,
2026-05-01 17:30:00,METAR LZIB 011730Z 02005KT 350V050 CAVOK 19/03 Q1024 NOSIG,1,0,0,9999,0,0,0,
2026-05-01 17:00:00,METAR LZIB 011700Z 35008KT CAVOK 20/03 Q1024 NOSIG,1,0,0,9999,0,0,0,
2026-05-01 16:30:00,METAR LZIB 011630Z 01006KT CAVOK 20/03 Q1024 NOSIG,1,0,0,9999,0,0,0,
2026-05-01 16:00:00,METAR LZIB 011600Z 34007KT 300V010 CAVOK 20/02 Q1024 NOSIG,1,0,0,9999,0,0,0,
2026-05-01 15:30:00,METAR LZIB 011530Z 34008KT CAVOK 20/03 Q1024 NOSIG,1,0,0,9999,0,0,0,
2026-05-01 15:00:00,METAR LZIB 011500Z 33010KT CAVOK 19/03 Q1025 NOSIG,1,0,0,9999,0,0,0,
2026-05-01 14:30:00,METAR LZIB 011430Z 31008KT CAVOK 19/03 Q1025 NOSIG,1,0,0,9999,0,0,0,
2026-05-01 14:00:00,METAR LZIB 011400Z 32010KT 290V350 CAVOK 20/02 Q1025 NOSIG,1,0,0,9999,0,0,0,
2026-05-01 13:30:00,METAR LZIB 011330Z 34008KT 310V010 CAVOK 20/03 Q1025 NOSIG,1,0,0,9999,0,0,0,
2026-05-01 13:00:00,METAR LZIB 011300Z 33007KT 290V350 CAVOK 19/02 Q1026 NOSIG,1,0,0,9999,0,0,0,
2026-05-01 12:30:00,METAR LZIB 011230Z 36007KT 320V040 CAVOK 18/03 Q1026 NOSIG,1,0,0,9999,0,0,0,
2026-05-01 12:00:00,METAR LZIB 011200Z 30010KT CAVOK 18/02 Q1027 NOSIG,1,0,0,9999,0,0,0,
2026-05-01 11:30:00,METAR LZIB 011130Z 25006KT 220V300 CAVOK 17/03 Q1027 NOSIG,1,0,0,9999,0,0,0,
2026-05-01 11:00:00,METAR LZIB 011100Z VRB05KT CAVOK 18/01 Q1027 NOSIG,1,0,0,9999,0,0,0,
2026-05-01 10:30:00,METAR LZIB 011030Z 35004KT 280V080 CAVOK 18/02 Q1027 NOSIG,1,0,0,9999,0,0,0,
2026-05-01 10:00:00,METAR LZIB 011000Z VRB02KT CAVOK 17/01 Q1028 NOSIG,1,0,0,9999,0,0,0,
2026-05-01 09:30:00,METAR LZIB 010930Z VRB04KT CAVOK 16/02 Q1028 NOSIG,1,0,0,9999,0,0,0,
2026-05-01 09:00:00,METAR LZIB 010900Z VRB02KT CAVOK 16/01 Q1028 NOSIG,1,0,0,9999,0,0,0,
2026-05-01 08:30:00,METAR LZIB 010830Z VRB03KT CAVOK 17/02 Q1028 NOSIG,1,0,0,9999,0,0,0,
2026-05-01 08:00:00,METAR LZIB 010800Z VRB03KT CAVOK 15/00 Q1028 NOSIG,1,0,0,9999,0,0,0,
2026-05-01 07:30:00,METAR LZIB 010730Z VRB03KT CAVOK 15/M00 Q1028 NOSIG,1,0,0,9999,0,0,0,
2026-05-01 07:00:00,METAR LZIB 010700Z VRB02KT CAVOK 14/M02 Q1028 NOSIG,1,0,0,9999,0,0,0,
2026-05-01 06:30:00,METAR LZIB 010630Z VRB01KT CAVOK 12/M02 Q1028 NOSIG,1,0,0,9999,0,0,0,
2026-05-01 06:00:00,METAR LZIB 010600Z VRB01KT CAVOK 10/M02 Q1028 NOSIG,1,0,0,9999,0,0,0,
2026-05-01 05:30:00,METAR LZIB 010530Z VRB01KT CAVOK 09/M02 Q1028 NOSIG,1,0,0,9999,0,0,0,
2026-05-01 05:00:00,METAR LZIB 010500Z VRB01KT CAVOK 08/M02 Q1028 NOSIG,1,0,0,9999,0,0,0,
2026-05-01 04:30:00,METAR LZIB 010430Z 35004KT 310V030 CAVOK 06/M02 Q1028 NOSIG,1,0,0,9999,0,0,0,
2026-05-01 04:00:00,METAR LZIB 010400Z 07005KT CAVOK 05/M02 Q1027 NOSIG,1,0,0,9999,0,0,0,
2026-05-01 03:30:00,METAR LZIB 010330Z 08007KT CAVOK 07/M02 Q1027 NOSIG,1,0,0,9999,0,0,0,
2026-05-01 03:00:00,METAR LZIB 010300Z 33004KT CAVOK 09/M03 Q1027 NOSIG,1,0,0,9999,0,0,0,
2026-05-01 02:30:00,METAR LZIB 010230Z 32005KT CAVOK 10/M04 Q1027 NOSIG,1,0,0,9999,0,0,0,
2026-05-01 02:00:00,METAR LZIB 010200Z 33006KT CAVOK 09/M02 Q1027 NOSIG,1,0,0,9999,0,0,0,
2026-05-01 01:30:00,METAR LZIB 010130Z 33007KT CAVOK 09/M03 Q1027 NOSIG,1,0,0,9999,0,0,0,
2026-05-01 01:00:00,METAR LZIB 010100Z 32006KT CAVOK 09/M03 Q1027 NOSIG,1,0,0,9999,0,0,0,
2026-05-01 00:30:00,METAR LZIB 010030Z 33005KT CAVOK 08/M03 Q1027 NOSIG,1,0,0,9999,0,0,0,
2026-05-01 00:00:00,METAR LZIB 010000Z 32005KT CAVOK 09/M03 Q1027 NOSIG,1,0,0,9999,0,0,0,
2026-04-30 23:30:00,METAR LZIB 302330Z 30003KT CAVOK 09/M04 Q1027 NOSIG,1,0,0,9999,0,0,0,
2026-04-30 23:00:00,METAR LZIB 302300Z 29003KT CAVOK 09/M04 Q1028 NOSIG,1,0,0,9999,0,0,0,
2026-04-30 22:30:00,METAR LZIB 302230Z 31003KT CAVOK 10/M05 Q1027 NOSIG,1,0,0,9999,0,0,0,
2026-04-30 22:00:00,METAR LZIB 302200Z 34004KT CAVOK 10/M06 Q1027 NOSIG,1,0,0,9999,0,0,0,
2026-04-30 21:30:00,METAR LZIB 302130Z 35006KT CAVOK 10/M06 Q1027 NOSIG,1,0,0,9999,0,0,0,
2026-04-30 21:00:00,METAR LZIB 302100Z 35004KT CAVOK 10/M06 Q1027 NOSIG,1,0,0,9999,0,0,0,
2026-04-30 20:30:00,METAR LZIB 302030Z 36005KT CAVOK 09/M06 Q1027 NOSIG,1,0,0,9999,0,0,0,
2026-04-30 20:00:00,METAR LZIB 302000Z 36007KT CAVOK 09/M06 Q1027 NOSIG,1,0,0,9999,0,0,0,
2026-04-30 19:30:00,METAR LZIB 301930Z 35007KT CAVOK 10/M06 Q1027 NOSIG,1,0,0,9999,0,0,0,
2026-04-30 19:00:00,METAR LZIB 301900Z 34006KT CAVOK 11/M06 Q1027 NOSIG,1,0,0,9999,0,0,0,
2026-04-30 18:30:00,METAR LZIB 301830Z 35006KT CAVOK 11/M06 Q1027 NOSIG,1,0,0,9999,0,0,0,
2026-04-30 18:00:00,METAR LZIB 301800Z 35010KT CAVOK 12/M07 Q1027 NOSIG,1,0,0,9999,0,0,0,
2026-04-30 17:30:00,METAR LZIB 301730Z 36012KT CAVOK 13/M08 Q1026 NOSIG,1,0,0,9999,0,0,0,
2026-04-30 17:00:00,METAR LZIB 301700Z 36014KT CAVOK 14/M08 Q1026 NOSIG,1,0,0,9999,0,0,0,
2026-04-30 16:30:00,METAR LZIB 301630Z 35015KT CAVOK 14/M07 Q1026 NOSIG,1,0,0,9999,0,0,0,
2026-04-30 16:00:00,METAR LZIB 301600Z 35013KT CAVOK 15/M06 Q1026 NOSIG,1,0,0,9999,0,0,0,
2026-04-30 15:00:00,METAR LZIB 301500Z 35012KT 310V010 CAVOK 15/M05 Q1026 NOSIG,1,0,0,9999,0,0,0,
2026-04-30 14:30:00,METAR LZIB 301430Z 36011KT CAVOK 15/M06 Q1027 NOSIG,1,0,0,9999,0,0,0,
2026-04-30 14:00:00,METAR LZIB 301400Z 35007KT 300V030 CAVOK 15/M04 Q1027 NOSIG,1,0,0,9999,0,0,0,
2026-04-30 13:30:00,METAR LZIB 301330Z 02008KT 340V060 CAVOK 14/M05 Q1027 NOSIG,1,0,0,9999,0,0,0,
2026-04-30 13:00:00,METAR LZIB 301300Z 01009KT 320V060 CAVOK 14/M06 Q1027 NOSIG,1,0,0,9999,0,0,0,
2026-04-30 12:30:00,METAR LZIB 301230Z VRB05KT CAVOK 14/M05 Q1028 NOSIG,1,0,0,9999,0,0,0,
2026-04-30 11:30:00,METAR LZIB 301130Z 03008KT 350V110 CAVOK 13/M04 Q1028 NOSIG,1,0,0,9999,0,0,0,
2026-04-30 11:00:00,METAR LZIB 301100Z 30004KT 240V020 CAVOK 13/M05 Q1029 NOSIG,1,0,0,9999,0,0,0,
2026-04-30 10:30:00,METAR LZIB 301030Z VRB05KT CAVOK 12/M07 Q1029 NOSIG,1,0,0,9999,0,0,0,
2026-04-30 10:00:00,METAR LZIB 301000Z VRB07KT CAVOK 12/M05 Q1029 NOSIG,1,0,0,9999,0,0,0,
2026-04-30 09:30:00,METAR LZIB 300930Z 05009KT 020V080 CAVOK 11/M06 Q1029 NOSIG,1,0,0,9999,0,0,0,
2026-04-30 09:00:00,METAR LZIB 300900Z 03013KT CAVOK 10/M07 Q1029 NOSIG,1,0,0,9999,0,0,0,
2026-04-30 08:30:00,METAR LZIB 300830Z 01011KT 350V060 CAVOK 09/M06 Q1029 NOSIG,1,0,0,9999,0,0,0,
2026-04-30 08:00:00,METAR LZIB 300800Z 02011KT CAVOK 09/M07 Q1030 NOSIG,1,0,0,9999,0,0,0,
2026-04-30 07:30:00,METAR LZIB 300730Z 03011KT 010V070 CAVOK 09/M07 Q1030 NOSIG,1,0,0,9999,0,0,0,
2026-04-30 07:00:00,METAR LZIB 300700Z 03010KT 350V060 CAVOK 08/M07 Q1030 NOSIG,1,0,0,9999,0,0,0,
2026-04-30 06:30:00,METAR LZIB 300630Z 02011KT CAVOK 07/M07 Q1030 NOSIG,1,0,0,9999,0,0,0,
2026-04-30 06:00:00,METAR LZIB 300600Z 03013KT CAVOK 07/M07 Q1029 NOSIG,1,0,0,9999,0,0,0,
2026-04-30 05:30:00,METAR LZIB 300530Z 03010KT CAVOK 06/M07 Q1029 NOSIG,1,0,0,9999,0,0,0,
2026-04-30 05:00:00,METAR LZIB 300500Z 03006KT CAVOK 05/M07 Q1029 NOSIG,1,0,0,9999,0,0,0,
2026-04-30 04:30:00,METAR LZIB 300430Z 03004KT CAVOK 03/M06 Q1029 NOSIG,1,0,0,9999,0,0,0,
2026-04-30 04:00:00,METAR LZIB 300400Z 00000KT CAVOK 03/M07 Q1029 NOSIG,1,0,0,9999,0,0,0,
2026-04-30 03:30:00,METAR LZIB 300330Z 02004KT CAVOK 03/M07 Q1029 NOSIG,1,0,0,9999,0,0,0,
2026-04-30 03:00:00,METAR LZIB 300300Z 02006KT CAVOK 03/M07 Q1029 NOSIG,1,0,0,9999,0,0,0,
2026-04-30 02:30:00,METAR LZIB 300230Z 02008KT CAVOK 03/M06 Q1028 NOSIG,1,0,0,9999,0,0,0,
2026-04-30 02:00:00,METAR LZIB 300200Z 02008KT CAVOK 04/M06 Q1028 NOSIG,1,0,0,9999,0,0,0,
2026-04-30 01:30:00,METAR LZIB 300130Z 02008KT CAVOK 04/M06 Q1028 NOSIG,1,0,0,9999,0,0,0,
2026-04-30 01:00:00,METAR LZIB 300100Z 02010KT CAVOK 05/M07 Q1028 NOSIG,1,0,0,9999,0,0,0,
2026-04-30 00:30:00,METAR LZIB 300030Z 02011KT CAVOK 05/M07 Q1028 NOSIG,1,0,0,9999,0,0,0,
2026-04-30 00:00:00,METAR LZIB 300000Z 01009KT CAVOK 05/M06 Q1028 NOSIG,1,0,0,9999,0,0,0,
2026-04-29 23:30:00,METAR LZIB 292330Z 36008KT CAVOK 05/M06 Q1028 NOSIG,1,0,0,9999,0,0,0,
2026-04-29 23:00:00,METAR LZIB 292300Z 01009KT CAVOK 06/M07 Q1028 NOSIG,1,0,0,9999,0,0,0,
2026-04-29 22:30:00,METAR LZIB 292230Z 01012KT CAVOK 06/M07 Q1027 NOSIG,1,0,0,9999,0,0,0,
2026-04-29 22:00:00,METAR LZIB 292200Z 01012KT CAVOK 07/M08 Q1027 NOSIG,1,0,0,9999,0,0,0,
2026-04-29 21:30:00,METAR LZIB 292130Z 36013KT CAVOK 07/M08 Q1027 NOSIG,1,0,0,9999,0,0,0,
2026-04-29 21:00:00,METAR LZIB 292100Z 01011KT CAVOK 07/M08 Q1026 NOSIG,1,0,0,9999,0,0,0,
2026-04-29 20:30:00,METAR LZIB 292030Z 01014KT CAVOK 08/M09 Q1026 NOSIG,1,0,0,9999,0,0,0,
2026-04-29 20:00:00,METAR LZIB 292000Z 01015KT CAVOK 08/M10 Q1025 NOSIG,1,0,0,9999,0,0,0,
2026-04-29 19:30:00,METAR LZIB 291930Z 36013KT CAVOK 09/M09 Q1025 NOSIG,1,0,0,9999,0,0,0,
2026-04-29 19:00:00,METAR LZIB 291900Z 36015KT CAVOK 10/M09 Q1024 NOSIG,1,0,0,9999,0,0,0,
2026-04-29 18:30:00,METAR LZIB 291830Z 36015KT CAVOK 10/M08 Q1024 NOSIG,1,0,0,9999,0,0,0,
2026-04-29 18:00:00,METAR LZIB 291800Z 36013KT CAVOK 11/M07 Q1023 NOSIG,1,0,0,9999,0,0,0,
2026-04-29 17:30:00,METAR LZIB 291730Z 36015KT CAVOK 12/M07 Q1023 NOSIG,1,0,0,9999,0,0,0,
2026-04-29 17:00:00,METAR LZIB 291700Z 01016KT CAVOK 13/M05 Q1022 NOSIG,1,0,0,9999,0,0,0,
2026-04-29 16:30:00,METAR LZIB 291630Z 36016KT CAVOK 13/M05 Q1022 NOSIG,1,0,0,9999,0,0,0,
2026-04-29 16:00:00,METAR LZIB 291600Z 02015KT CAVOK 14/M04 Q1022 NOSIG,1,0,0,9999,0,0,0,
2026-04-29 15:30:00,METAR LZIB 291530Z 01015KT CAVOK 15/M04 Q1022 NOSIG,1,0,0,9999,0,0,0,
2026-04-29 15:00:00,METAR LZIB 291500Z 36015KT CAVOK 15/M05 Q1022 NOSIG,1,0,0,9999,0,0,0,
2026-04-29 14:30:00,METAR LZIB 291430Z 01015KT CAVOK 16/M05 Q1022 NOSIG,1,0,0,9999,0,0,0,
2026-04-29 14:00:00,METAR LZIB 291400Z 36012KT 340V040 CAVOK 16/M04 Q1021 NOSIG,1,0,0,9999,0,0,0,
2026-04-29 13:30:00,METAR LZIB 291330Z 36014KT 330V030 CAVOK 16/M04 Q1021 NOSIG,1,0,0,9999,0,0,0,
2026-04-29 13:00:00,METAR LZIB 291300Z 01011KT 330V040 CAVOK 17/M04 Q1021 NOSIG,1,0,0,9999,0,0,0,
2026-04-29 12:30:00,METAR LZIB 291230Z 34009KT CAVOK 16/M04 Q1021 NOSIG,1,0,0,9999,0,0,0,
2026-04-29 12:00:00,METAR LZIB 291200Z 02004KT 320V120 CAVOK 16/M04 Q1022 NOSIG,1,0,0,9999,0,0,0,
2026-04-29 11:30:00,METAR LZIB 291130Z VRB04KT CAVOK 15/M04 Q1022 NOSIG,1,0,0,9999,0,0,0,
2026-04-29 11:00:00,METAR LZIB 291100Z 07006KT 020V110 CAVOK 15/M04 Q1022 NOSIG,1,0,0,9999,0,0,0,
2026-04-29 10:30:00,METAR LZIB 291030Z 05009KT 010V100 CAVOK 14/M05 Q1023 NOSIG,1,0,0,9999,0,0,0,
2026-04-29 10:00:00,METAR LZIB 291000Z 03004KT 290V100 CAVOK 14/M05 Q1023 NOSIG,1,0,0,9999,0,0,0,
2026-04-29 09:30:00,METAR LZIB 290930Z 01008KT 310V040 CAVOK 13/M03 Q1023 NOSIG,1,0,0,9999,0,0,0,
2026-04-29 09:00:00,METAR LZIB 290900Z 04005KT 320V120 CAVOK 13/M04 Q1023 NOSIG,1,0,0,9999,0,0,0,
2026-04-29 08:30:00,METAR LZIB 290830Z 08005KT 020V120 CAVOK 12/M04 Q1023 NOSIG,1,0,0,9999,0,0,0,
2026-04-29 08:00:00,METAR LZIB 290800Z 06006KT 010V090 CAVOK 12/M05 Q1023 NOSIG,1,0,0,9999,0,0,0,
2026-04-29 07:30:00,METAR LZIB 290730Z 07007KT 040V100 CAVOK 11/M05 Q1023 NOSIG,1,0,0,9999,0,0,0,
2026-04-29 07:00:00,METAR LZIB 290700Z 05008KT 010V100 CAVOK 11/M05 Q1023 NOSIG,1,0,0,9999,0,0,0,
2026-04-29 06:30:00,METAR LZIB 290630Z 03010KT CAVOK 10/M04 Q1023 NOSIG,1,0,0,9999,0,0,0,
2026-04-29 06:00:00,METAR LZIB 290600Z 03010KT CAVOK 09/M05 Q1023 NOSIG,1,0,0,9999,0,0,0,
2026-04-29 05:30:00,METAR LZIB 290530Z 03008KT CAVOK 08/M05 Q1023 NOSIG,1,0,0,9999,0,0,0,
2026-04-29 05:00:00,METAR LZIB 290500Z 04006KT CAVOK 07/M04 Q1022 NOSIG,1,0,0,9999,0,0,0,
2026-04-29 04:30:00,METAR LZIB 290430Z 02005KT CAVOK 06/M04 Q1022 NOSIG,1,0,0,9999,0,0,0,
2026-04-29 04:00:00,METAR LZIB 290400Z 02008KT CAVOK 05/M04 Q1022 NOSIG,1,0,0,9999,0,0,0,
2026-04-29 03:30:00,METAR LZIB 290330Z 02006KT CAVOK 05/M05 Q1022 NOSIG,1,0,0,9999,0,0,0,
2026-04-29 03:00:00,METAR LZIB 290300Z 04006KT CAVOK 06/M04 Q1021 NOSIG,1,0,0,9999,0,0,0,
2026-04-29 02:30:00,METAR LZIB 290230Z 03007KT CAVOK 07/M04 Q1021 NOSIG,1,0,0,9999,0,0,0,
2026-04-29 02:00:00,METAR LZIB 290200Z 03007KT CAVOK 08/M04 Q1021 NOSIG,1,0,0,9999,0,0,0,
2026-04-29 01:30:00,METAR LZIB 290130Z 03008KT CAVOK 09/M05 Q1021 NOSIG,1,0,0,9999,0,0,0,
2026-04-29 01:00:00,METAR LZIB 290100Z 03009KT CAVOK 09/M04 Q1021 NOSIG,1,0,0,9999,0,0,0,
2026-04-29 00:30:00,METAR LZIB 290030Z 05008KT CAVOK 09/M04 Q1021 NOSIG,1,0,0,9999,0,0,0,
2026-04-29 00:00:00,METAR LZIB 290000Z 06005KT CAVOK 09/M03 Q1021 NOSIG,1,0,0,9999,0,0,0,
2026-04-28 23:30:00,METAR LZIB 282330Z 36006KT CAVOK 10/M04 Q1021 NOSIG,1,0,0,9999,0,0,0,
2026-04-28 23:00:00,METAR LZIB 282300Z 02006KT CAVOK 10/M03 Q1021 NOSIG,1,0,0,9999,0,0,0,
2026-04-28 22:30:00,METAR LZIB 282230Z 03005KT CAVOK 10/M02 Q1021 NOSIG,1,0,0,9999,0,0,0,
2026-04-28 22:00:00,METAR LZIB 282200Z 03006KT CAVOK 11/M02 Q1020 NOSIG,1,0,0,9999,0,0,0,
2026-04-28 21:30:00,METAR LZIB 282130Z 02009KT CAVOK 12/M02 Q1020 NOSIG,1,0,0,9999,0,0,0,
2026-04-28 21:00:00,METAR LZIB 282100Z 02010KT CAVOK 12/M02 Q1020 NOSIG,1,0,0,9999,0,0,0,
2026-04-28 20:30:00,METAR LZIB 282030Z 02008KT CAVOK 12/M01 Q1020 NOSIG,1,0,0,9999,0,0,0,
2026-04-28 20:00:00,METAR LZIB 282000Z 02005KT CAVOK 12/M00 Q1019 NOSIG,1,0,0,9999,0,0,0,
2026-04-28 19:30:00,METAR LZIB 281930Z 01007KT CAVOK 12/M00 Q1019 NOSIG,1,0,0,9999,0,0,0,
2026-04-28 19:00:00,METAR LZIB 281900Z 01007KT CAVOK 13/00 Q1019 NOSIG,1,0,0,9999,0,0,0,
2026-04-28 18:30:00,METAR LZIB 281830Z 36006KT CAVOK 14/M00 Q1019 NOSIG,1,0,0,9999,0,0,0,
2026-04-28 18:00:00,METAR LZIB 281800Z 36008KT CAVOK 15/M00 Q1018 NOSIG,1,0,0,9999,0,0,0,
2026-04-28 17:30:00,METAR LZIB 281730Z 01009KT CAVOK 17/M00 Q1018 NOSIG,1,0,0,9999,0,0,0,
2026-04-28 17:00:00,METAR LZIB 281700Z 01009KT 340V040 CAVOK 18/M01 Q1018 NOSIG,1,0,0,9999,0,0,0,
2026-04-28 16:30:00,METAR LZIB 281630Z 04008KT 360V060 CAVOK 19/M00 Q1018 NOSIG,1,0,0,9999,0,0,0,
2026-04-28 16:00:00,METAR LZIB 281600Z 07007KT 030V100 CAVOK 19/M00 Q1018 NOSIG,1,0,0,9999,0,0,0,
2026-04-28 15:30:00,METAR LZIB 281530Z 05009KT 020V080 CAVOK 19/M00 Q1018 NOSIG,1,0,0,9999,0,0,0,
2026-04-28 15:00:00,METAR LZIB 281500Z 03007KT 350V090 CAVOK 20/01 Q1018 NOSIG,1,0,0,9999,0,0,0,
2026-04-28 14:30:00,METAR LZIB 281430Z 24004KT 190V280 CAVOK 20/00 Q1018 NOSIG,1,0,0,9999,0,0,0,
2026-04-28 14:00:00,METAR LZIB 281400Z 01005KT 320V070 CAVOK 20/00 Q1018 NOSIG,1,0,0,9999,0,0,0,
2026-04-28 13:30:00,METAR LZIB 281330Z 05007KT 360V080 CAVOK 20/00 Q1018 NOSIG,1,0,0,9999,0,0,0,
2026-04-28 13:00:00,METAR LZIB 281300Z 04005KT 290V100 CAVOK 20/01 Q1019 NOSIG,1,0,0,9999,0,0,0,
2026-04-28 12:30:00,METAR LZIB 281230Z VRB04KT CAVOK 19/M01 Q1019 NOSIG,1,0,0,9999,0,0,0,
2026-04-28 12:00:00,METAR LZIB 281200Z VRB05KT CAVOK 19/M00 Q1019 NOSIG,1,0,0,9999,0,0,0,
2026-04-28 11:30:00,METAR LZIB 281130Z VRB03KT CAVOK 19/M01 Q1020 NOSIG,1,0,0,9999,0,0,0,
2026-04-28 11:00:00,METAR LZIB 281100Z VRB06KT CAVOK 18/M01 Q1020 NOSIG,1,0,0,9999,0,0,0,
2026-04-28 10:30:00,METAR LZIB 281030Z 05005KT 340V100 CAVOK 18/M01 Q1020 NOSIG,1,0,0,9999,0,0,0,
2026-04-28 10:00:00,METAR LZIB 281000Z 08004KT 060V210 CAVOK 17/M00 Q1020 NOSIG,1,0,0,9999,0,0,0,
2026-04-28 09:30:00,METAR LZIB 280930Z 05004KT 350V110 CAVOK 17/M01 Q1020 NOSIG,1,0,0,9999,0,0,0,
2026-04-28 09:00:00,METAR LZIB 280900Z 07005KT 010V130 CAVOK 16/M00 Q1021 NOSIG,1,0,0,9999,0,0,0,
2026-04-28 08:30:00,METAR LZIB 280830Z 06006KT 020V110 CAVOK 15/M00 Q1021 NOSIG,1,0,0,9999,0,0,0,
2026-04-28 08:00:00,METAR LZIB 280800Z 05007KT CAVOK 15/M01 Q1020 NOSIG,1,0,0,9999,0,0,0,
2026-04-28 07:30:00,METAR LZIB 280730Z 04007KT CAVOK 14/M00 Q1020 NOSIG,1,0,0,9999,0,0,0,
2026-04-28 07:00:00,METAR LZIB 280700Z 04006KT CAVOK 13/00 Q1020 NOSIG,1,0,0,9999,0,0,0,
2026-04-28 06:30:00,METAR LZIB 280630Z 03008KT CAVOK 12/M00 Q1020 NOSIG,1,0,0,9999,0,0,0,
2026-04-28 06:00:00,METAR LZIB 280600Z 03004KT 010V070 CAVOK 10/00 Q1020 NOSIG,1,0,0,9999,0,0,0,
2026-04-28 05:30:00,METAR LZIB 280530Z 12002KT CAVOK 09/01 Q1020 NOSIG,1,0,0,9999,0,0,0,
2026-04-28 05:00:00,METAR LZIB 280500Z VRB02KT CAVOK 08/01 Q1020 NOSIG,1,0,0,9999,0,0,0,
2026-04-28 04:30:00,METAR LZIB 280430Z 08003KT 020V190 CAVOK 07/00 Q1020 NOSIG,1,0,0,9999,0,0,0,
2026-04-28 04:00:00,METAR LZIB 280400Z 02006KT CAVOK 06/M00 Q1019 NOSIG,1,0,0,9999,0,0,0,
2026-04-28 03:30:00,METAR LZIB 280330Z 36001KT CAVOK 06/M00 Q1019 NOSIG,1,0,0,9999,0,0,0,
2026-04-28 03:00:00,METAR LZIB 280300Z 02004KT CAVOK 05/M01 Q1019 NOSIG,1,0,0,9999,0,0,0,
2026-04-28 02:30:00,METAR LZIB 280230Z 02002KT CAVOK 06/00 Q1020 NOSIG,1,0,0,9999,0,0,0,
2026-04-28 02:00:00,METAR LZIB 280200Z 36002KT CAVOK 06/M00 Q1020 NOSIG,1,0,0,9999,0,0,0,
2026-04-28 01:30:00,METAR LZIB 280130Z 01004KT CAVOK 06/M00 Q1020 NOSIG,1,0,0,9999,0,0,0,
2026-04-28 01:00:00,METAR LZIB 280100Z 03005KT CAVOK 06/M01 Q1020 NOSIG,1,0,0,9999,0,0,0,
2026-04-28 00:30:00,METAR LZIB 280030Z 36004KT CAVOK 06/M00 Q1020 NOSIG,1,0,0,9999,0,0,0,
2026-04-28 00:00:00,METAR LZIB 280000Z 02004KT CAVOK 06/M00 Q1020 NOSIG,1,0,0,9999,0,0,0,
2026-04-27 23:30:00,METAR LZIB 272330Z 36003KT CAVOK 08/01 Q1020 NOSIG,1,0,0,9999,0,0,0,
2026-04-27 23:00:00,METAR LZIB 272300Z 34002KT CAVOK 08/01 Q1020 NOSIG,1,0,0,9999,0,0,0,
2026-04-27 22:30:00,METAR LZIB 272230Z 35003KT CAVOK 08/01 Q1020 NOSIG,1,0,0,9999,0,0,0,
2026-04-27 22:00:00,METAR LZIB 272200Z 36002KT CAVOK 09/01 Q1020 NOSIG,1,0,0,9999,0,0,0,
2026-04-27 21:30:00,METAR LZIB 272130Z 35003KT CAVOK 09/01 Q1020 NOSIG,1,0,0,9999,0,0,0,
2026-04-27 21:00:00,METAR LZIB 272100Z 01004KT CAVOK 09/01 Q1020 NOSIG,1,0,0,9999,0,0,0,
2026-04-27 20:30:00,METAR LZIB 272030Z 01004KT CAVOK 11/00 Q1020 NOSIG,1,0,0,9999,0,0,0,
2026-04-27 20:00:00,METAR LZIB 272000Z 33002KT CAVOK 13/M00 Q1020 NOSIG,1,0,0,9999,0,0,0,
2026-04-27 19:30:00,METAR LZIB 271930Z 35003KT CAVOK 13/00 Q1020 NOSIG,1,0,0,9999,0,0,0,
2026-04-27 19:00:00,METAR LZIB 271900Z 34003KT CAVOK 14/M01 Q1019 NOSIG,1,0,0,9999,0,0,0,
2026-04-27 18:30:00,METAR LZIB 271830Z 03003KT CAVOK 15/M00 Q1019 NOSIG,1,0,0,9999,0,0,0,
2026-04-27 18:00:00,METAR LZIB 271800Z 06004KT 040V110 CAVOK 14/00 Q1019 NOSIG,1,0,0,9999,0,0,0,
2026-04-27 17:30:00,METAR LZIB 271730Z 02007KT CAVOK 17/M01 Q1019 NOSIG,1,0,0,9999,0,0,0,
2026-04-27 17:00:00,METAR LZIB 271700Z VRB01KT CAVOK 18/M01 Q1019 NOSIG,1,0,0,9999,0,0,0,
2026-04-27 16:30:00,METAR LZIB 271630Z VRB02KT CAVOK 18/M01 Q1019 NOSIG,1,0,0,9999,0,0,0,
2026-04-27 16:00:00,METAR LZIB 271600Z 16003KT 120V220 CAVOK 18/M01 Q1019 NOSIG,1,0,0,9999,0,0,0,
2026-04-27 15:30:00,METAR LZIB 271530Z 09005KT 030V150 CAVOK 18/M01 Q1019 NOSIG,1,0,0,9999,0,0,0,
2026-04-27 15:00:00,METAR LZIB 271500Z 12004KT 060V160 CAVOK 18/M01 Q1020 NOSIG,1,0,0,9999,0,0,0,
2026-04-27 14:30:00,METAR LZIB 271430Z 17003KT 090V250 CAVOK 18/00 Q1020 NOSIG,1,0,0,9999,0,0,0,
2026-04-27 14:00:00,METAR LZIB 271400Z VRB03KT CAVOK 18/M00 Q1020 NOSIG,1,0,0,9999,0,0,0,
2026-04-27 13:30:00,METAR LZIB 271330Z 18006KT CAVOK 18/M01 Q1021 NOSIG,1,0,0,9999,0,0,0,
2026-04-27 13:00:00,METAR LZIB 271300Z VRB02KT CAVOK 17/M01 Q1021 NOSIG,1,0,0,9999,0,0,0,
2026-04-27 12:30:00,METAR LZIB 271230Z 08004KT 030V140 CAVOK 17/M00 Q1021 NOSIG,1,0,0,9999,0,0,0,
2026-04-27 12:00:00,METAR LZIB 271200Z VRB04KT CAVOK 17/M00 Q1022 NOSIG,1,0,0,9999,0,0,0,
2026-04-27 11:30:00,METAR LZIB 271130Z VRB03KT CAVOK 16/M02 Q1022 NOSIG,1,0,0,9999,0,0,0,
2026-04-27 11:00:00,METAR LZIB 271100Z VRB03KT CAVOK 16/M02 Q1022 NOSIG,1,0,0,9999,0,0,0,
2026-04-27 10:30:00,METAR LZIB 271030Z 15005KT 110V240 CAVOK 15/M01 Q1023 NOSIG,1,0,0,9999,0,0,0,
2026-04-27 10:00:00,METAR LZIB 271000Z 11005KT 060V190 CAVOK 15/M01 Q1023 NOSIG,1,0,0,9999,0,0,0,
2026-04-27 09:30:00,METAR LZIB 270930Z VRB04KT CAVOK 15/M01 Q1023 NOSIG,1,0,0,9999,0,0,0,
2026-04-27 09:00:00,METAR LZIB 270900Z VRB03KT CAVOK 14/M00 Q1024 NOSIG,1,0,0,9999,0,0,0,
2026-04-27 08:30:00,METAR LZIB 270830Z 13005KT 070V220 CAVOK 13/M00 Q1024 NOSIG,1,0,0,9999,0,0,0,
2026-04-27 08:00:00,METAR LZIB 270800Z 10005KT 030V150 CAVOK 12/M02 Q1024 NOSIG,1,0,0,9999,0,0,0,
2026-04-27 07:30:00,METAR LZIB 270730Z 06006KT 010V090 CAVOK 11/M01 Q1024 NOSIG,1,0,0,9999,0,0,0,
2026-04-27 07:00:00,METAR LZIB 270700Z 06006KT CAVOK 11/M01 Q1024 NOSIG,1,0,0,9999,0,0,0,
2026-04-27 06:30:00,METAR LZIB 270630Z 03006KT CAVOK 09/M01 Q1024 NOSIG,1,0,0,9999,0,0,0,
2026-04-27 06:00:00,METAR LZIB 270600Z 03005KT CAVOK 09/M01 Q1024 NOSIG,1,0,0,9999,0,0,0,
2026-04-27 05:30:00,METAR LZIB 270530Z 06005KT CAVOK 08/M01 Q1024 NOSIG,1,0,0,9999,0,0,0,
2026-04-27 05:00:00,METAR LZIB 270500Z 07003KT CAVOK 07/00 Q1024 NOSIG,1,0,0,9999,0,0,0,
2026-04-27 04:30:00,METAR LZIB 270430Z 05004KT CAVOK 05/M01 Q1024 NOSIG,1,0,0,9999,0,0,0,
2026-04-27 04:00:00,METAR LZIB 270400Z 05002KT CAVOK 05/M01 Q1024 NOSIG,1,0,0,9999,0,0,0,
2026-04-27 03:30:00,METAR LZIB 270330Z VRB01KT CAVOK 05/M01 Q1024 NOSIG,1,0,0,9999,0,0,0,
2026-04-27 03:00:00,METAR LZIB 270300Z 00000KT CAVOK 06/M01 Q1024 NOSIG,1,0,0,9999,0,0,0,
2026-04-27 02:30:00,METAR LZIB 270230Z 03003KT CAVOK 07/M01 Q1024 NOSIG,1,0,0,9999,0,0,0,
2026-04-27 02:00:00,METAR LZIB 270200Z VRB03KT CAVOK 07/M01 Q1024 NOSIG,1,0,0,9999,0,0,0,
2026-04-27 01:30:00,METAR LZIB 270130Z 01002KT CAVOK 07/M01 Q1024 NOSIG,1,0,0,9999,0,0,0,
2026-04-27 01:00:00,METAR LZIB 270100Z 02005KT CAVOK 07/M01 Q1024 NOSIG,1,0,0,9999,0,0,0,
2026-04-27 00:30:00,METAR LZIB 270030Z 02003KT CAVOK 07/M01 Q1024 NOSIG,1,0,0,9999,0,0,0,
2026-04-27 00:00:00,METAR LZIB 270000Z 01003KT CAVOK 08/M00 Q1024 NOSIG,1,0,0,9999,0,0,0,
2026-04-26 23:30:00,METAR LZIB 262330Z 03004KT CAVOK 07/M00 Q1024 NOSIG,1,0,0,9999,0,0,0,
2026-04-26 23:00:00,METAR LZIB 262300Z 04003KT CAVOK 08/00 Q1024 NOSIG,1,0,0,9999,0,0,0,
2026-04-26 22:30:00,METAR LZIB 262230Z 05004KT CAVOK 08/00 Q1024 NOSIG,1,0,0,9999,0,0,0,
2026-04-26 22:00:00,METAR LZIB 262200Z 01002KT CAVOK 08/M01 Q1024 NOSIG,1,0,0,9999,0,0,0,
2026-04-26 21:30:00,METAR LZIB 262130Z 34005KT CAVOK 09/M01 Q1024 NOSIG,1,0,0,9999,0,0,0,
2026-04-26 21:00:00,METAR LZIB 262100Z 34004KT CAVOK 09/M01 Q1024 NOSIG,1,0,0,9999,0,0,0,
2026-04-26 20:30:00,METAR LZIB 262030Z 07003KT CAVOK 08/M01 Q1023 NOSIG,1,0,0,9999,0,0,0,
2026-04-26 20:00:00,METAR LZIB 262000Z 32004KT CAVOK 11/M01 Q1023 NOSIG,1,0,0,9999,0,0,0,
2026-04-26 19:30:00,METAR LZIB 261930Z 33005KT CAVOK 11/M01 Q1023 NOSIG,1,0,0,9999,0,0,0,
2026-04-26 19:00:00,METAR LZIB 261900Z 32004KT CAVOK 12/M02 Q1022 NOSIG,1,0,0,9999,0,0,0,
2026-04-26 18:30:00,METAR LZIB 261830Z 34006KT CAVOK 12/M02 Q1022 NOSIG,1,0,0,9999,0,0,0,
2026-04-26 18:00:00,METAR LZIB 261800Z 35007KT CAVOK 13/M03 Q1021 NOSIG,1,0,0,9999,0,0,0,
2026-04-26 17:30:00,METAR LZIB 261730Z 35011KT CAVOK 14/M03 Q1021 NOSIG,1,0,0,9999,0,0,0,
2026-04-26 17:00:00,METAR LZIB 261700Z 35013KT CAVOK 15/M02 Q1021 NOSIG,1,0,0,9999,0,0,0,
2026-04-26 16:30:00,METAR LZIB 261630Z 36013KT CAVOK 16/M03 Q1021 NOSIG,1,0,0,9999,0,0,0,
2026-04-26 16:00:00,METAR LZIB 261600Z 36014KT CAVOK 16/M02 Q1021 NOSIG,1,0,0,9999,0,0,0,
2026-04-26 15:30:00,METAR LZIB 261530Z 35014KT 320V020 CAVOK 16/M03 Q1021 NOSIG,1,0,0,9999,0,0,0,
2026-04-26 15:00:00,METAR LZIB 261500Z 35015KT CAVOK 16/M02 Q1021 NOSIG,1,0,0,9999,0,0,0,
2026-04-26 14:30:00,METAR LZIB 261430Z 34016KT 310V010 CAVOK 16/M03 Q1021 NOSIG,1,0,0,9999,0,0,0,
2026-04-26 14:00:00,METAR LZIB 261400Z 34015KT CAVOK 16/M02 Q1021 NOSIG,1,0,0,9999,0,0,0,
2026-04-26 13:30:00,METAR LZIB 261330Z 34014KT 310V010 CAVOK 16/M03 Q1021 NOSIG,1,0,0,9999,0,0,0,
2026-04-26 13:00:00,METAR LZIB 261300Z 33015KT CAVOK 16/M03 Q1021 NOSIG,1,0,0,9999,0,0,0,
2026-04-26 12:30:00,METAR LZIB 261230Z 33016KT CAVOK 16/M03 Q1021 NOSIG,1,0,0,9999,0,0,0,
2026-04-26 12:00:00,METAR LZIB 261200Z 32015KT 290V360 CAVOK 15/M02 Q1021 NOSIG,1,0,0,9999,0,0,0,
2026-04-26 11:30:00,METAR LZIB 261130Z 32015KT CAVOK 15/M03 Q1021 NOSIG,1,0,0,9999,0,0,0,
2026-04-26 11:00:00,METAR LZIB 261100Z 32017KT CAVOK 15/M02 Q1021 NOSIG,1,0,0,9999,0,0,0,
2026-04-26 10:30:00,METAR LZIB 261030Z 32016KT CAVOK 14/M02 Q1021 NOSIG,1,0,0,9999,0,0,0,
2026-04-26 10:00:00,METAR LZIB 261000Z 32015KT 290V350 CAVOK 14/M01 Q1021 NOSIG,1,0,0,9999,0,0,0,
2026-04-26 09:30:00,METAR LZIB 260930Z 34017KT 310V010 CAVOK 13/M01 Q1021 NOSIG,1,0,0,9999,0,0,0,
2026-04-26 09:00:00,METAR LZIB 260900Z 31017KT 280V340 CAVOK 13/M02 Q1020 NOSIG,1,0,0,9999,0,0,0,
2026-04-26 08:30:00,METAR LZIB 260830Z 33020KT CAVOK 12/M02 Q1020 NOSIG,1,0,0,9999,0,0,0,
2026-04-26 08:00:00,METAR LZIB 260800Z 33019KT CAVOK 12/M02 Q1020 NOSIG,1,0,0,9999,0,0,0,
2026-04-26 07:30:00,METAR LZIB 260730Z 32020KT CAVOK 12/M02 Q1019 NOSIG,1,0,0,9999,0,0,0,
2026-04-26 07:00:00,METAR LZIB 260700Z 31024KT 9999 FEW045 12/M00 Q1019 NOSIG,0,24,0,10000,0,0,0,
2026-04-26 06:30:00,METAR LZIB 260630Z 32017KT 9999 FEW045 13/01 Q1018 NOSIG,0,17,0,10000,0,0,0,
2026-04-26 06:00:00,METAR LZIB 260600Z 31017KT CAVOK 13/01 Q1018 NOSIG,1,0,0,9999,0,0,0,
2026-04-26 05:30:00,METAR LZIB 260530Z 32016KT CAVOK 13/01 Q1017 NOSIG,1,0,0,9999,0,0,0,
2026-04-26 05:00:00,METAR LZIB 260500Z 30010KT 260V330 CAVOK 12/M01 Q1017 NOSIG,1,0,0,9999,0,0,0,
2026-04-26 04:30:00,METAR LZIB 260430Z 30013KT CAVOK 12/M01 Q1016 NOSIG,1,0,0,9999,0,0,0,
2026-04-26 04:00:00,METAR LZIB 260400Z 30013KT CAVOK 12/M01 Q1015 NOSIG,1,0,0,9999,0,0,0,
2026-04-26 03:30:00,METAR LZIB 260330Z 31013KT CAVOK 13/M02 Q1015 NOSIG,1,0,0,9999,0,0,0,
2026-04-26 03:00:00,METAR LZIB 260300Z 30010KT CAVOK 13/M02 Q1014 NOSIG,1,0,0,9999,0,0,0,
2026-04-26 02:30:00,METAR LZIB 260230Z 29008KT 270V330 CAVOK 13/M01 Q1014 NOSIG,1,0,0,9999,0,0,0,
2026-04-26 02:00:00,METAR LZIB 260200Z 30009KT CAVOK 13/01 Q1013 NOSIG,1,0,0,9999,0,0,0,
2026-04-26 01:30:00,METAR LZIB 260130Z 31008KT CAVOK 13/02 Q1013 NOSIG,1,0,0,9999,0,0,0,
2026-04-26 01:00:00,METAR LZIB 260100Z 29010KT CAVOK 14/01 Q1012 NOSIG,1,0,0,9999,0,0,0,
2026-04-26 00:30:00,METAR LZIB 260030Z 29011KT CAVOK 14/02 Q1012 NOSIG,1,0,0,9999,0,0,0,
2026-04-26 00:00:00,METAR LZIB 260000Z 29009KT CAVOK 14/02 Q1012 NOSIG,1,0,0,9999,0,0,0,
2026-04-25 23:30:00,METAR LZIB 252330Z 29008KT CAVOK 15/02 Q1012 NOSIG,1,0,0,9999,0,0,0,
2026-04-25 23:00:00,METAR LZIB 252300Z 30010KT CAVOK 16/02 Q1012 NOSIG,1,0,0,9999,0,0,0,
2026-04-25 22:30:00,METAR LZIB 252230Z 29009KT CAVOK 16/02 Q1012 NOSIG,1,0,0,9999,0,0,0,
2026-04-25 22:00:00,METAR LZIB 252200Z 29009KT CAVOK 16/02 Q1012 NOSIG,1,0,0,9999,0,0,0,
2026-04-25 21:30:00,METAR LZIB 252130Z 30010KT CAVOK 17/02 Q1012 NOSIG,1,0,0,9999,0,0,0,
2026-04-25 21:00:00,METAR LZIB 252100Z 29006KT CAVOK 17/02 Q1012 NOSIG,1,0,0,9999,0,0,0,
2026-04-25 20:30:00,METAR LZIB 252030Z 22005KT CAVOK 17/02 Q1012 NOSIG,1,0,0,9999,0,0,0,
2026-04-25 20:00:00,METAR LZIB 252000Z VRB03KT CAVOK 18/02 Q1012 NOSIG,1,0,0,9999,0,0,0,
2026-04-25 19:30:00,METAR LZIB 251930Z VRB02KT CAVOK 19/02 Q1012 NOSIG,1,0,0,9999,0,0,0,
2026-04-25 19:00:00,METAR LZIB 251900Z VRB03KT CAVOK 20/02 Q1012 NOSIG,1,0,0,9999,0,0,0,
2026-04-25 18:30:00,METAR LZIB 251830Z 30005KT CAVOK 20/02 Q1011 NOSIG,1,0,0,9999,0,0,0,
2026-04-25 18:00:00,METAR LZIB 251800Z 29005KT CAVOK 20/02 Q1011 NOSIG,1,0,0,9999,0,0,0,
2026-04-25 17:30:00,METAR LZIB 251730Z 30007KT CAVOK 22/01 Q1011 NOSIG,1,0,0,9999,0,0,0,
2026-04-25 17:00:00,METAR LZIB 251700Z 31007KT 280V340 CAVOK 23/01 Q1011 NOSIG,1,0,0,9999,0,0,0,
2026-04-25 16:30:00,METAR LZIB 251630Z 29008KT 250V320 CAVOK 24/02 Q1011 NOSIG,1,0,0,9999,0,0,0,
2026-04-25 16:00:00,METAR LZIB 251600Z 29010KT 260V330 CAVOK 24/02 Q1011 NOSIG,1,0,0,9999,0,0,0,
2026-04-25 15:30:00,METAR LZIB 251530Z 30010KT 250V340 CAVOK 24/02 Q1011 NOSIG,1,0,0,9999,0,0,0,
2026-04-25 15:00:00,METAR LZIB 251500Z 28010KT 250V310 CAVOK 24/03 Q1011 NOSIG,1,0,0,9999,0,0,0,
2026-04-25 14:30:00,METAR LZIB 251430Z 30008KT CAVOK 24/03 Q1011 NOSIG,1,0,0,9999,0,0,0,
2026-04-25 14:00:00,METAR LZIB 251400Z 27010KT 240V330 CAVOK 24/03 Q1012 NOSIG,1,0,0,9999,0,0,0,
2026-04-25 13:30:00,METAR LZIB 251330Z 28013KT 250V320 CAVOK 23/03 Q1012 NOSIG,1,0,0,9999,0,0,0,
2026-04-25 13:00:00,METAR LZIB 251300Z 30011KT CAVOK 23/03 Q1012 NOSIG,1,0,0,9999,0,0,0,
2026-04-25 12:30:00,METAR LZIB 251230Z 29010KT 250V330 CAVOK 22/04 Q1013 NOSIG,1,0,0,9999,0,0,0,
2026-04-25 12:00:00,METAR LZIB 251200Z 27008KT 240V300 CAVOK 22/05 Q1013 NOSIG,1,0,0,9999,0,0,0,
2026-04-25 11:30:00,METAR LZIB 251130Z 29010KT CAVOK 21/04 Q1014 NOSIG,1,0,0,9999,0,0,0,
2026-04-25 11:00:00,METAR LZIB 251100Z 31012KT 270V340 CAVOK 20/05 Q1014 NOSIG,1,0,0,9999,0,0,0,
2026-04-25 10:30:00,METAR LZIB 251030Z 26009KT 210V310 CAVOK 19/06 Q1014 NOSIG,1,0,0,9999,0,0,0,
2026-04-25 10:00:00,METAR LZIB 251000Z 27007KT 220V330 9999 FEW045 17/06 Q1015 NOSIG,0,7,0,10000,0,0,0,
2026-04-25 09:30:00,METAR LZIB 250930Z 29007KT 220V350 CAVOK 16/06 Q1015 NOSIG,1,0,0,9999,0,0,0,
2026-04-25 09:00:00,METAR LZIB 250900Z 29007KT 250V330 CAVOK 16/06 Q1015 NOSIG,1,0,0,9999,0,0,0,
2026-04-25 08:30:00,METAR LZIB 250830Z 24006KT 190V290 CAVOK 15/06 Q1016 NOSIG,1,0,0,9999,0,0,0,
2026-04-25 08:00:00,METAR LZIB 250800Z 24005KT 190V280 CAVOK 14/05 Q1016 NOSIG,1,0,0,9999,0,0,0,
2026-04-25 07:30:00,METAR LZIB 250730Z 26007KT CAVOK 12/05 Q1016 NOSIG,1,0,0,9999,0,0,0,
2026-04-25 07:00:00,METAR LZIB 250700Z 28009KT CAVOK 12/05 Q1016 NOSIG,1,0,0,9999,0,0,0,
2026-04-25 06:30:00,METAR LZIB 250630Z 29010KT CAVOK 11/04 Q1016 NOSIG,1,0,0,9999,0,0,0,
2026-04-25 06:00:00,METAR LZIB 250600Z 28010KT CAVOK 10/04 Q1016 NOSIG,1,0,0,9999,0,0,0,
2026-04-25 05:30:00,METAR LZIB 250530Z 29006KT 250V330 CAVOK 10/04 Q1016 NOSIG,1,0,0,9999,0,0,0,
2026-04-25 05:00:00,METAR LZIB 250500Z 28005KT 230V360 CAVOK 09/04 Q1016 NOSIG,1,0,0,9999,0,0,0,
2026-04-25 04:30:00,METAR LZIB 250430Z VRB03KT CAVOK 09/03 Q1016 NOSIG,1,0,0,9999,0,0,0,
2026-04-25 04:00:00,METAR LZIB 250400Z 29010KT CAVOK 09/03 Q1015 NOSIG,1,0,0,9999,0,0,0,
2026-04-25 03:30:00,METAR LZIB 250330Z 29012KT CAVOK 09/03 Q1015 NOSIG,1,0,0,9999,0,0,0,
2026-04-25 03:00:00,METAR LZIB 250300Z 29012KT CAVOK 10/02 Q1015 NOSIG,1,0,0,9999,0,0,0,
2026-04-25 02:30:00,METAR LZIB 250230Z 31012KT CAVOK 11/02 Q1015 NOSIG,1,0,0,9999,0,0,0,
2026-04-25 02:00:00,METAR LZIB 250200Z 30012KT CAVOK 11/02 Q1015 NOSIG,1,0,0,9999,0,0,0,
2026-04-25 01:30:00,METAR LZIB 250130Z 30007KT CAVOK 11/01 Q1015 NOSIG,1,0,0,9999,0,0,0,
2026-04-25 01:00:00,METAR LZIB 250100Z 29006KT CAVOK 11/02 Q1015 NOSIG,1,0,0,9999,0,0,0,
2026-04-25 00:30:00,METAR LZIB 250030Z 29005KT CAVOK 12/02 Q1015 NOSIG,1,0,0,9999,0,0,0,
2026-04-25 00:00:00,METAR LZIB 250000Z VRB03KT CAVOK 13/02 Q1015 NOSIG,1,0,0,9999,0,0,0,
2026-04-24 23:30:00,METAR LZIB 242330Z 32007KT 290V010 CAVOK 13/01 Q1015 NOSIG,1,0,0,9999,0,0,0,
2026-04-24 23:00:00,METAR LZIB 242300Z 31010KT CAVOK 15/01 Q1015 NOSIG,1,0,0,9999,0,0,0,
2026-04-24 22:30:00,METAR LZIB 242230Z 29007KT CAVOK 12/01 Q1015 NOSIG,1,0,0,9999,0,0,0,
2026-04-24 22:00:00,METAR LZIB 242200Z 30004KT CAVOK 12/01 Q1015 NOSIG,1,0,0,9999,0,0,0,
2026-04-24 21:30:00,METAR LZIB 242130Z 30002KT CAVOK 12/01 Q1015 NOSIG,1,0,0,9999,0,0,0,
2026-04-24 21:00:00,METAR LZIB 242100Z 32004KT CAVOK 12/02 Q1015 NOSIG,1,0,0,9999,0,0,0,
2026-04-24 20:30:00,METAR LZIB 242030Z VRB02KT CAVOK 14/01 Q1014 NOSIG,1,0,0,9999,0,0,0,
2026-04-24 20:00:00,METAR LZIB 242000Z 28006KT CAVOK 15/00 Q1014 NOSIG,1,0,0,9999,0,0,0,
2026-04-24 19:30:00,METAR LZIB 241930Z 30007KT CAVOK 15/01 Q1014 NOSIG,1,0,0,9999,0,0,0,
2026-04-24 19:00:00,METAR LZIB 241900Z 30006KT CAVOK 15/01 Q1014 NOSIG,1,0,0,9999,0,0,0,
2026-04-24 18:30:00,METAR LZIB 241830Z 33005KT CAVOK 17/00 Q1014 NOSIG,1,0,0,9999,0,0,0,
2026-04-24 18:00:00,METAR LZIB 241800Z 35008KT CAVOK 18/00 Q1013 NOSIG,1,0,0,9999,0,0,0,
2026-04-24 17:30:00,METAR LZIB 241730Z 32007KT CAVOK 20/M01 Q1013 NOSIG,1,0,0,9999,0,0,0,
2026-04-24 17:00:00,METAR LZIB 241700Z 32012KT CAVOK 21/M01 Q1013 NOSIG,1,0,0,9999,0,0,0,
2026-04-24 16:30:00,METAR LZIB 241630Z 32013KT CAVOK 21/M00 Q1013 NOSIG,1,0,0,9999,0,0,0,
2026-04-24 16:00:00,METAR LZIB 241600Z 31013KT CAVOK 21/M01 Q1013 NOSIG,1,0,0,9999,0,0,0,
2026-04-24 15:30:00,METAR LZIB 241530Z 32013KT 290V350 CAVOK 21/M01 Q1013 NOSIG,1,0,0,9999,0,0,0,
2026-04-24 15:00:00,METAR LZIB 241500Z 32015KT CAVOK 21/01 Q1013 NOSIG,1,0,0,9999,0,0,0,
2026-04-24 14:30:00,METAR LZIB 241430Z 32014KT CAVOK 21/01 Q1014 NOSIG,1,0,0,9999,0,0,0,
2026-04-24 14:00:00,METAR LZIB 241400Z 32015KT CAVOK 21/02 Q1014 NOSIG,1,0,0,9999,0,0,0,
2026-04-24 13:30:00,METAR LZIB 241330Z 32013KT 290V350 CAVOK 21/02 Q1014 NOSIG,1,0,0,9999,0,0,0,
2026-04-24 13:00:00,METAR LZIB 241300Z 30014KT 260V340 CAVOK 21/02 Q1014 NOSIG,1,0,0,9999,0,0,0,
2026-04-24 12:30:00,METAR LZIB 241230Z 30015KT CAVOK 21/02 Q1015 NOSIG,1,0,0,9999,0,0,0,
2026-04-24 12:00:00,METAR LZIB 241200Z 31015KT CAVOK 20/03 Q1015 NOSIG,1,0,0,9999,0,0,0,
2026-04-24 11:30:00,METAR LZIB 241130Z 31014KT CAVOK 19/03 Q1015 NOSIG,1,0,0,9999,0,0,0,
2026-04-24 11:00:00,METAR LZIB 241100Z 31014KT 280V340 CAVOK 19/04 Q1016 NOSIG,1,0,0,9999,0,0,0,
2026-04-24 10:30:00,METAR LZIB 241030Z 30012KT CAVOK 19/04 Q1016 NOSIG,1,0,0,9999,0,0,0,
2026-04-24 10:00:00,METAR LZIB 241000Z 31014KT 280V340 CAVOK 18/04 Q1017 NOSIG,1,0,0,9999,0,0,0,
2026-04-24 09:30:00,METAR LZIB 240930Z 31010KT 280V350 CAVOK 17/04 Q1017 NOSIG,1,0,0,9999,0,0,0,
2026-04-24 09:00:00,METAR LZIB 240900Z 30008KT 270V330 CAVOK 16/04 Q1017 NOSIG,1,0,0,9999,0,0,0,
2026-04-24 08:30:00,METAR LZIB 240830Z 31009KT 260V340 9999 FEW044 16/05 Q1017 NOSIG,0,9,0,10000,0,0,0,
2026-04-24 08:00:00,METAR LZIB 240800Z 30007KT 260V330 CAVOK 15/05 Q1017 NOSIG,1,0,0,9999,0,0,0,
2026-04-24 07:30:00,METAR LZIB 240730Z 30009KT CAVOK 14/04 Q1018 NOSIG,1,0,0,9999,0,0,0,
2026-04-24 07:00:00,METAR LZIB 240700Z 30010KT CAVOK 13/04 Q1018 NOSIG,1,0,0,9999,0,0,0,
2026-04-24 06:30:00,METAR LZIB 240630Z 31010KT CAVOK 13/04 Q1018 NOSIG,1,0,0,9999,0,0,0,
2026-04-24 06:00:00,METAR LZIB 240600Z 32009KT CAVOK 12/04 Q1018 NOSIG,1,0,0,9999,0,0,0,
2026-04-24 05:30:00,METAR LZIB 240530Z 31011KT CAVOK 11/03 Q1018 NOSIG,1,0,0,9999,0,0,0,
2026-04-24 05:00:00,METAR LZIB 240500Z 30008KT CAVOK 10/03 Q1018 NOSIG,1,0,0,9999,0,0,0,
2026-04-24 04:30:00,METAR LZIB 240430Z 30009KT CAVOK 09/02 Q1018 NOSIG,1,0,0,9999,0,0,0,
2026-04-24 04:00:00,METAR LZIB 240400Z 29010KT CAVOK 09/02 Q1017 NOSIG,1,0,0,9999,0,0,0,
2026-04-24 03:30:00,METAR LZIB 240330Z 29009KT CAVOK 09/02 Q1017 NOSIG,1,0,0,9999,0,0,0,
2026-04-24 03:00:00,METAR LZIB 240300Z 29008KT CAVOK 09/02 Q1017 NOSIG,1,0,0,9999,0,0,0,
2026-04-24 02:30:00,METAR LZIB 240230Z 31009KT CAVOK 10/02 Q1017 NOSIG,1,0,0,9999,0,0,0,
2026-04-24 02:00:00,METAR LZIB 240200Z 31011KT CAVOK 11/01 Q1017 NOSIG,1,0,0,9999,0,0,0,
2026-04-24 01:30:00,METAR LZIB 240130Z 30011KT CAVOK 11/01 Q1017 NOSIG,1,0,0,9999,0,0,0,
2026-04-24 01:00:00,METAR LZIB 240100Z 31010KT CAVOK 12/00 Q1017 NOSIG,1,0,0,9999,0,0,0,
2026-04-24 00:30:00,METAR LZIB 240030Z 30012KT CAVOK 12/M00 Q1017 NOSIG,1,0,0,9999,0,0,0,
2026-04-24 00:00:00,METAR LZIB 240000Z 32011KT CAVOK 12/M00 Q1017 NOSIG,1,0,0,9999,0,0,0,
2026-04-23 23:30:00,METAR LZIB 232330Z 33009KT CAVOK 13/M01 Q1017 NOSIG,1,0,0,9999,0,0,0,
2026-04-23 23:00:00,METAR LZIB 232300Z 33010KT CAVOK 13/M01 Q1017 NOSIG,1,0,0,9999,0,0,0,
2026-04-23 22:30:00,METAR LZIB 232230Z 33010KT CAVOK 14/M01 Q1017 NOSIG,1,0,0,9999,0,0,0,
2026-04-23 22:00:00,METAR LZIB 232200Z 33011KT CAVOK 14/M01 Q1017 NOSIG,1,0,0,9999,0,0,0,
2026-04-23 21:30:00,METAR LZIB 232130Z 33013KT CAVOK 15/M02 Q1017 NOSIG,1,0,0,9999,0,0,0,
2026-04-23 21:00:00,METAR LZIB 232100Z 33010KT CAVOK 15/M02 Q1017 NOSIG,1,0,0,9999,0,0,0,
2026-04-23 20:30:00,METAR LZIB 232030Z 32010KT CAVOK 16/M04 Q1016 NOSIG,1,0,0,9999,0,0,0,
2026-04-23 20:00:00,METAR LZIB 232000Z 32014KT CAVOK 16/M05 Q1016 NOSIG,1,0,0,9999,0,0,0,
2026-04-23 19:30:00,METAR LZIB 231930Z 32015KT CAVOK 16/M06 Q1016 NOSIG,1,0,0,9999,0,0,0,
2026-04-23 19:00:00,METAR LZIB 231900Z 32013KT CAVOK 17/M05 Q1016 NOSIG,1,0,0,9999,0,0,0,
2026-04-23 18:30:00,METAR LZIB 231830Z 31013KT CAVOK 17/M05 Q1015 NOSIG,1,0,0,9999,0,0,0,
2026-04-23 17:30:00,METAR LZIB 231730Z 32012KT CAVOK 18/M03 Q1015 NOSIG,1,0,0,9999,0,0,0,
2026-04-23 17:00:00,METAR LZIB 231700Z 33017KT CAVOK 18/M04 Q1015 NOSIG,1,0,0,9999,0,0,0,
2026-04-23 16:30:00,METAR LZIB 231630Z 33020KT CAVOK 19/M05 Q1015 NOSIG,1,0,0,9999,0,0,0,
2026-04-23 16:00:00,METAR LZIB 231600Z 33020KT CAVOK 19/M04 Q1015 NOSIG,1,0,0,9999,0,0,0,
2026-04-23 15:30:00,METAR LZIB 231530Z 33017KT CAVOK 19/M04 Q1015 NOSIG,1,0,0,9999,0,0,0,
2026-04-23 15:00:00,METAR LZIB 231500Z 33015KT CAVOK 18/M04 Q1015 NOSIG,1,0,0,9999,0,0,0,
2026-04-23 14:30:00,METAR LZIB 231430Z 31015KT CAVOK 18/M05 Q1016 NOSIG,1,0,0,9999,0,0,0,
2026-04-23 14:00:00,METAR LZIB 231400Z 32015KT CAVOK 18/M04 Q1016 NOSIG,1,0,0,9999,0,0,0,
2026-04-23 13:30:00,METAR LZIB 231330Z 31021KT CAVOK 18/M05 Q1016 NOSIG,1,0,0,9999,0,0,0,
2026-04-23 13:00:00,METAR LZIB 231300Z 32019KT CAVOK 18/M04 Q1016 NOSIG,1,0,0,9999,0,0,0,
2026-04-23 12:30:00,METAR LZIB 231230Z 32020KT CAVOK 18/M04 Q1017 NOSIG,1,0,0,9999,0,0,0,
2026-04-23 12:00:00,METAR LZIB 231200Z 30017KT CAVOK 17/M01 Q1017 NOSIG,1,0,0,9999,0,0,0,
2026-04-23 11:30:00,METAR LZIB 231130Z 32017G27KT CAVOK 17/M01 Q1018 NOSIG,1,0,0,9999,0,0,0,
2026-04-23 11:00:00,METAR LZIB 231100Z 31020KT CAVOK 16/M03 Q1018 NOSIG,1,0,0,9999,0,0,0,
2026-04-23 10:30:00,METAR LZIB 231030Z 30013KT CAVOK 16/01 Q1019 NOSIG,1,0,0,9999,0,0,0,
2026-04-23 10:00:00,METAR LZIB 231000Z 32018KT 280V340 CAVOK 16/M01 Q1019 NOSIG,1,0,0,9999,0,0,0,
2026-04-23 09:30:00,METAR LZIB 230930Z 31019KT CAVOK 14/M01 Q1020 NOSIG,1,0,0,9999,0,0,0,
2026-04-23 09:00:00,METAR LZIB 230900Z 31017KT CAVOK 14/00 Q1020 NOSIG,1,0,0,9999,0,0,0,
2026-04-23 08:30:00,METAR LZIB 230830Z 31014KT CAVOK 13/01 Q1021 NOSIG,1,0,0,9999,0,0,0,
2026-04-23 08:00:00,METAR LZIB 230800Z 31015KT CAVOK 12/01 Q1021 NOSIG,1,0,0,9999,0,0,0,
2026-04-23 07:30:00,METAR LZIB 230730Z 31015KT CAVOK 12/01 Q1021 NOSIG,1,0,0,9999,0,0,0,
2026-04-23 07:00:00,METAR LZIB 230700Z 30012KT 270V330 CAVOK 10/00 Q1021 NOSIG,1,0,0,9999,0,0,0,
2026-04-23 06:30:00,METAR LZIB 230630Z 31012KT CAVOK 10/00 Q1021 NOSIG,1,0,0,9999,0,0,0,
2026-04-23 06:00:00,METAR LZIB 230600Z 30014KT CAVOK 09/00 Q1021 NOSIG,1,0,0,9999,0,0,0,
2026-04-23 05:30:00,METAR LZIB 230530Z 30014KT CAVOK 09/M00 Q1021 NOSIG,1,0,0,9999,0,0,0,
2026-04-23 05:00:00,METAR LZIB 230500Z 30010KT CAVOK 09/M00 Q1021 NOSIG,1,0,0,9999,0,0,0,
2026-04-23 04:30:00,METAR LZIB 230430Z 30011KT CAVOK 08/M01 Q1020 NOSIG,1,0,0,9999,0,0,0,
2026-04-23 04:00:00,METAR LZIB 230400Z 30011KT CAVOK 08/M01 Q1020 NOSIG,1,0,0,9999,0,0,0,
2026-04-23 03:30:00,METAR LZIB 230330Z 31012KT CAVOK 09/M01 Q1020 NOSIG,1,0,0,9999,0,0,0,
2026-04-23 03:00:00,METAR LZIB 230300Z 31012KT CAVOK 10/M01 Q1020 NOSIG,1,0,0,9999,0,0,0,
2026-04-23 02:30:00,METAR LZIB 230230Z 31013KT CAVOK 10/M01 Q1020 NOSIG,1,0,0,9999,0,0,0,
2026-04-23 02:00:00,METAR LZIB 230200Z 31013KT CAVOK 11/M02 Q1020 NOSIG,1,0,0,9999,0,0,0,
2026-04-23 01:30:00,METAR LZIB 230130Z 30013KT CAVOK 11/M02 Q1020 NOSIG,1,0,0,9999,0,0,0,
2026-04-23 01:00:00,METAR LZIB 230100Z 30011KT CAVOK 11/M02 Q1021 NOSIG,1,0,0,9999,0,0,0,
2026-04-23 00:30:00,METAR LZIB 230030Z 30009KT CAVOK 11/M03 Q1021 NOSIG,1,0,0,9999,0,0,0,
2026-04-23 00:00:00,METAR LZIB 230000Z 29006KT CAVOK 10/M04 Q1021 NOSIG,1,0,0,9999,0,0,0,
2026-04-22 23:30:00,METAR LZIB 222330Z 29010KT CAVOK 09/M03 Q1021 NOSIG,1,0,0,9999,0,0,0,
2026-04-22 23:00:00,METAR LZIB 222300Z 29006KT CAVOK 09/M03 Q1021 NOSIG,1,0,0,9999,0,0,0,
2026-04-22 22:30:00,METAR LZIB 222230Z 28005KT CAVOK 09/M03 Q1021 NOSIG,1,0,0,9999,0,0,0,
2026-04-22 22:00:00,METAR LZIB 222200Z 28007KT CAVOK 09/M02 Q1021 NOSIG,1,0,0,9999,0,0,0,
2026-04-22 21:30:00,METAR LZIB 222130Z 29004KT CAVOK 09/M02 Q1021 NOSIG,1,0,0,9999,0,0,0,
2026-04-22 21:00:00,METAR LZIB 222100Z 32003KT CAVOK 09/M02 Q1021 NOSIG,1,0,0,9999,0,0,0,
2026-04-22 20:30:00,METAR LZIB 222030Z 32005KT CAVOK 08/M01 Q1021 NOSIG,1,0,0,9999,0,0,0,
2026-04-22 20:00:00,METAR LZIB 222000Z 31006KT CAVOK 09/M01 Q1020 NOSIG,1,0,0,9999,0,0,0,
2026-04-22 19:30:00,METAR LZIB 221930Z 30006KT CAVOK 10/M01 Q1020 NOSIG,1,0,0,9999,0,0,0,
2026-04-22 19:00:00,METAR LZIB 221900Z 31007KT CAVOK 12/M02 Q1020 NOSIG,1,0,0,9999,0,0,0,
2026-04-22 18:30:00,METAR LZIB 221830Z 32006KT CAVOK 13/M02 Q1020 NOSIG,1,0,0,9999,0,0,0,
2026-04-22 18:00:00,METAR LZIB 221800Z 33007KT CAVOK 13/M03 Q1020 NOSIG,1,0,0,9999,0,0,0,
2026-04-22 17:30:00,METAR LZIB 221730Z 33014KT CAVOK 14/M04 Q1019 NOSIG,1,0,0,9999,0,0,0,
2026-04-22 17:00:00,METAR LZIB 221700Z 34008KT CAVOK 15/M03 Q1019 NOSIG,1,0,0,9999,0,0,0,
2026-04-22 16:30:00,METAR LZIB 221630Z 34014KT CAVOK 15/M05 Q1019 NOSIG,1,0,0,9999,0,0,0,
2026-04-22 16:00:00,METAR LZIB 221600Z 33014KT CAVOK 16/M05 Q1019 NOSIG,1,0,0,9999,0,0,0,
2026-04-22 15:30:00,METAR LZIB 221530Z 32012KT CAVOK 16/M05 Q1019 NOSIG,1,0,0,9999,0,0,0,
2026-04-22 15:00:00,METAR LZIB 221500Z 35009KT 310V020 CAVOK 16/M05 Q1019 NOSIG,1,0,0,9999,0,0,0,
2026-04-22 14:30:00,METAR LZIB 221430Z 31012KT CAVOK 16/M05 Q1019 NOSIG,1,0,0,9999,0,0,0,
2026-04-22 14:00:00,METAR LZIB 221400Z 35013KT CAVOK 16/M05 Q1019 NOSIG,1,0,0,9999,0,0,0,
2026-04-22 13:30:00,METAR LZIB 221330Z 32013KT CAVOK 16/M06 Q1019 NOSIG,1,0,0,9999,0,0,0,
2026-04-22 13:00:00,METAR LZIB 221300Z 32012KT 290V360 CAVOK 16/M04 Q1020 NOSIG,1,0,0,9999,0,0,0,
2026-04-22 12:30:00,METAR LZIB 221230Z 34010KT 300V360 CAVOK 15/M05 Q1020 NOSIG,1,0,0,9999,0,0,0,
2026-04-22 12:00:00,METAR LZIB 221200Z 01011KT CAVOK 15/M04 Q1020 NOSIG,1,0,0,9999,0,0,0,
2026-04-22 11:30:00,METAR LZIB 221130Z 34014KT 300V360 CAVOK 15/M03 Q1020 NOSIG,1,0,0,9999,0,0,0,
2026-04-22 11:00:00,METAR LZIB 221100Z 33011KT CAVOK 14/M02 Q1020 NOSIG,1,0,0,9999,0,0,0,
2026-04-22 10:30:00,METAR LZIB 221030Z 32013KT 290V350 CAVOK 14/M04 Q1020 NOSIG,1,0,0,9999,0,0,0,
2026-04-22 10:00:00,METAR LZIB 221000Z 33010KT CAVOK 14/M02 Q1021 NOSIG,1,0,0,9999,0,0,0,
2026-04-22 09:30:00,METAR LZIB 220930Z 36013KT CAVOK 14/M03 Q1021 NOSIG,1,0,0,9999,0,0,0,
2026-04-22 09:00:00,METAR LZIB 220900Z 32013KT 300V010 CAVOK 14/M05 Q1021 NOSIG,1,0,0,9999,0,0,0,
2026-04-22 08:30:00,METAR LZIB 220830Z 34012KT CAVOK 14/M05 Q1021 NOSIG,1,0,0,9999,0,0,0,
2026-04-22 08:00:00,METAR LZIB 220800Z 36013KT CAVOK 14/M04 Q1021 NOSIG,1,0,0,9999,0,0,0,
2026-04-22 07:30:00,METAR LZIB 220730Z 35007KT 280V030 CAVOK 12/M00 Q1021 NOSIG,1,0,0,9999,0,0,0,
2026-04-22 07:00:00,METAR LZIB 220700Z 28005KT 220V330 CAVOK 11/M01 Q1021 NOSIG,1,0,0,9999,0,0,0,
2026-04-22 06:30:00,METAR LZIB 220630Z 35005KT CAVOK 11/M01 Q1021 NOSIG,1,0,0,9999,0,0,0,
2026-04-22 06:00:00,METAR LZIB 220600Z 30004KT 270V330 CAVOK 10/M01 Q1021 NOSIG,1,0,0,9999,0,0,0,
2026-04-22 05:30:00,METAR LZIB 220530Z 25004KT CAVOK 09/M00 Q1020 NOSIG,1,0,0,9999,0,0,0,
2026-04-22 05:00:00,METAR LZIB 220500Z VRB03KT CAVOK 07/02 Q1020 NOSIG,1,0,0,9999,0,0,0,
2026-04-22 04:30:00,METAR LZIB 220430Z 20004KT CAVOK 06/02 Q1020 NOSIG,1,0,0,9999,0,0,0,
2026-04-22 04:00:00,METAR LZIB 220400Z VRB03KT CAVOK 07/01 Q1020 NOSIG,1,0,0,9999,0,0,0,
2026-04-22 03:30:00,METAR LZIB 220330Z 20004KT CAVOK 07/01 Q1020 NOSIG,1,0,0,9999,0,0,0,
2026-04-22 03:00:00,METAR LZIB 220300Z VRB02KT CAVOK 07/01 Q1020 NOSIG,1,0,0,9999,0,0,0,
2026-04-22 02:30:00,METAR LZIB 220230Z VRB02KT CAVOK 08/M01 Q1020 NOSIG,1,0,0,9999,0,0,0,
2026-04-22 02:00:00,METAR LZIB 220200Z 01004KT CAVOK 08/M01 Q1020 NOSIG,1,0,0,9999,0,0,0,
2026-04-22 01:30:00,METAR LZIB 220130Z 36005KT CAVOK 08/M01 Q1020 NOSIG,1,0,0,9999,0,0,0,
2026-04-22 01:00:00,METAR LZIB 220100Z 36006KT CAVOK 08/M01 Q1020 NOSIG,1,0,0,9999,0,0,0,
2026-04-22 00:30:00,METAR LZIB 220030Z 36006KT CAVOK 08/M01 Q1020 NOSIG,1,0,0,9999,0,0,0,
2026-04-22 00:00:00,METAR LZIB 220000Z 36006KT CAVOK 08/M02 Q1020 NOSIG,1,0,0,9999,0,0,0,
2026-04-21 23:30:00,METAR LZIB 212330Z 36008KT CAVOK 08/M02 Q1020 NOSIG,1,0,0,9999,0,0,0,
2026-04-21 23:00:00,METAR LZIB 212300Z 01007KT CAVOK 09/M02 Q1020 NOSIG,1,0,0,9999,0,0,0,
2026-04-21 22:30:00,METAR LZIB 212230Z 01006KT CAVOK 09/M01 Q1020 NOSIG,1,0,0,9999,0,0,0,
2026-04-21 22:00:00,METAR LZIB 212200Z 36007KT CAVOK 09/M01 Q1020 NOSIG,1,0,0,9999,0,0,0,
2026-04-21 21:30:00,METAR LZIB 212130Z 35007KT CAVOK 08/M02 Q1020 NOSIG,1,0,0,9999,0,0,0,
2026-04-21 21:00:00,METAR LZIB 212100Z 34007KT CAVOK 08/M02 Q1020 NOSIG,1,0,0,9999,0,0,0,
2026-04-21 20:30:00,METAR LZIB 212030Z 33006KT CAVOK 08/M02 Q1019 NOSIG,1,0,0,9999,0,0,0,
2026-04-21 20:00:00,METAR LZIB 212000Z 36005KT CAVOK 08/M02 Q1019 NOSIG,1,0,0,9999,0,0,0,
2026-04-21 19:30:00,METAR LZIB 211930Z 36007KT CAVOK 08/M02 Q1019 NOSIG,1,0,0,9999,0,0,0,
2026-04-21 19:00:00,METAR LZIB 211900Z 35005KT CAVOK 09/M02 Q1019 NOSIG,1,0,0,9999,0,0,0,
2026-04-21 18:30:00,METAR LZIB 211830Z 36005KT CAVOK 10/M02 Q1018 NOSIG,1,0,0,9999,0,0,0,
2026-04-21 18:00:00,METAR LZIB 211800Z 02004KT CAVOK 10/M03 Q1018 NOSIG,1,0,0,9999,0,0,0,
2026-04-21 17:30:00,METAR LZIB 211730Z 01009KT CAVOK 11/M03 Q1017 NOSIG,1,0,0,9999,0,0,0,
2026-04-21 17:00:00,METAR LZIB 211700Z 36008KT CAVOK 12/M03 Q1017 NOSIG,1,0,0,9999,0,0,0,
2026-04-21 16:30:00,METAR LZIB 211630Z 36009KT CAVOK 12/M03 Q1017 NOSIG,1,0,0,9999,0,0,0,
2026-04-21 16:00:00,METAR LZIB 211600Z 01012KT CAVOK 13/M02 Q1017 NOSIG,1,0,0,9999,0,0,0,
2026-04-21 15:30:00,METAR LZIB 211530Z 36014KT CAVOK 13/M02 Q1016 NOSIG,1,0,0,9999,0,0,0,
2026-04-21 15:00:00,METAR LZIB 211500Z 34012KT 9999 FEW049 13/M02 Q1016 NOSIG,0,12,0,10000,0,0,0,
2026-04-21 14:30:00,METAR LZIB 211430Z 33014KT 9999 FEW049 13/M01 Q1016 NOSIG,0,14,0,10000,0,0,0,
2026-04-21 14:00:00,METAR LZIB 211400Z 33013KT 9999 FEW048 13/01 Q1016 NOSIG,0,13,0,10000,0,0,0,
2026-04-21 13:30:00,METAR LZIB 211330Z 30010KT 280V340 9999 FEW032 12/04 Q1016 BECMG NSC,0,10,0,10000,0,0,0,
2026-04-21 13:00:00,METAR LZIB 211300Z 30012KT 9999 FEW047TCU 12/05 Q1016 TEMPO NSC,0,12,0,10000,0,0,0,
2026-04-21 12:30:00,METAR LZIB 211230Z 33020KT 9999 FEW034CB 13/04 Q1016 TEMPO -SHRA FEW035TCU,0,20,0,10000,0,0,0,RA
2026-04-21 12:00:00,METAR LZIB 211200Z 30014KT 9999 FEW034 SCT047 13/05 Q1016 NOSIG,0,14,0,10000,0,0,0,
2026-04-21 11:30:00,METAR LZIB 211130Z 29014KT 9999 FEW026 SCT035 13/05 Q1016 NOSIG,0,14,0,10000,0,0,0,
2026-04-21 11:00:00,METAR LZIB 211100Z 29013KT 9999 FEW020 SCT031 13/05 Q1016 NOSIG,0,13,0,10000,0,0,0,
2026-04-21 10:30:00,METAR LZIB 211030Z 31014KT 9999 FEW018 SCT027 BKN034 12/06 Q1016 NOSIG,0,14,0,10000,0,0,0,
2026-04-21 10:00:00,METAR LZIB 211000Z 30013KT 9999 FEW018 SCT021 10/05 Q1016 NOSIG,0,13,0,10000,0,0,0,
2026-04-21 09:30:00,METAR LZIB 210930Z 29010KT 260V330 9999 FEW018 SCT020 10/05 Q1016 NOSIG,0,10,0,10000,0,0,0,
2026-04-21 09:00:00,METAR LZIB 210900Z 31010KT 9999 FEW018 SCT033 BKN040 09/04 Q1016 NOSIG,0,10,0,10000,0,0,0,
2026-04-21 08:30:00,METAR LZIB 210830Z 31010KT 9999 FEW016 BKN034 BKN042 09/04 Q1016 NOSIG,0,10,0,10000,0,0,0,
2026-04-21 08:00:00,METAR LZIB 210800Z 30009KT 9999 FEW016 BKN018 BKN029 08/04 Q1017 NOSIG,0,9,0,10000,0,0,0,
2026-04-21 07:30:00,METAR LZIB 210730Z 32010KT 280V350 9999 FEW019 SCT022 BKN045 09/04 Q1016 NOSIG,0,10,0,10000,0,0,0,
2026-04-21 07:00:00,METAR LZIB 210700Z 32010KT 9999 FEW020 SCT025 09/04 Q1016 NOSIG,0,10,0,10000,0,0,0,
2026-04-21 06:30:00,METAR LZIB 210630Z 32010KT 9999 FEW014 SCT027 09/03 Q1016 NOSIG,0,10,0,10000,0,0,0,
2026-04-21 06:00:00,METAR LZIB 210600Z 30009KT 260V340 9999 FEW014 SCT023 08/03 Q1016 NOSIG,0,9,0,10000,0,0,0,
2026-04-21 05:30:00,METAR LZIB 210530Z 30010KT 270V330 9999 FEW014 SCT020 07/03 Q1016 NOSIG,0,10,0,10000,0,0,0,
2026-04-21 05:00:00,METAR LZIB 210500Z 31008KT 270V360 9999 SCT020 07/03 Q1016 NOSIG,0,8,0,10000,0,0,0,
2026-04-21 04:30:00,METAR LZIB 210430Z 29009KT 250V310 9999 FEW015 07/03 Q1016 NOSIG,0,9,0,10000,0,0,0,
2026-04-21 04:00:00,METAR LZIB 210400Z 29010KT 9999 FEW015 07/03 Q1015 NOSIG,0,10,0,10000,0,0,0,
2026-04-21 03:30:00,METAR LZIB 210330Z 29011KT CAVOK 07/03 Q1015 NOSIG,1,0,0,9999,0,0,0,
2026-04-21 03:00:00,METAR LZIB 210300Z 28004KT 250V330 CAVOK 08/03 Q1015 NOSIG,1,0,0,9999,0,0,0,
2026-04-21 02:30:00,METAR LZIB 210230Z 32005KT 290V020 CAVOK 08/03 Q1015 NOSIG,1,0,0,9999,0,0,0,
2026-04-21 02:00:00,METAR LZIB 210200Z 30004KT 240V340 CAVOK 08/03 Q1015 NOSIG,1,0,0,9999,0,0,0,
2026-04-21 01:30:00,METAR LZIB 210130Z 30004KT 240V340 CAVOK 08/03 Q1016 NOSIG,1,0,0,9999,0,0,0,
2026-04-21 01:00:00,METAR LZIB 210100Z 31007KT 270V350 CAVOK 09/03 Q1015 NOSIG,1,0,0,9999,0,0,0,
2026-04-21 00:30:00,METAR LZIB 210030Z 30010KT CAVOK 09/03 Q1015 NOSIG,1,0,0,9999,0,0,0,
2026-04-21 00:00:00,METAR LZIB 210000Z 30009KT CAVOK 09/03 Q1015 NOSIG,1,0,0,9999,0,0,0,
2026-04-20 23:30:00,METAR LZIB 202330Z 31009KT CAVOK 09/03 Q1015 NOSIG,1,0,0,9999,0,0,0,
2026-04-20 23:00:00,METAR LZIB 202300Z 29006KT 240V330 CAVOK 10/03 Q1015 NOSIG,1,0,0,9999,0,0,0,
2026-04-20 22:30:00,METAR LZIB 202230Z 31004KT 250V020 CAVOK 10/03 Q1015 NOSIG,1,0,0,9999,0,0,0,
2026-04-20 22:00:00,METAR LZIB 202200Z 33006KT CAVOK 10/03 Q1015 NOSIG,1,0,0,9999,0,0,0,
2026-04-20 21:30:00,METAR LZIB 202130Z 33008KT 300V010 CAVOK 10/02 Q1015 NOSIG,1,0,0,9999,0,0,0,
2026-04-20 21:00:00,METAR LZIB 202100Z 34007KT CAVOK 11/02 Q1015 NOSIG,1,0,0,9999,0,0,0,
2026-04-20 20:30:00,METAR LZIB 202030Z 35007KT CAVOK 10/02 Q1015 NOSIG,1,0,0,9999,0,0,0,
2026-04-20 20:00:00,METAR LZIB 202000Z 01007KT CAVOK 09/02 Q1014 NOSIG,1,0,0,9999,0,0,0,
2026-04-20 19:30:00,METAR LZIB 201930Z 36005KT CAVOK 10/02 Q1014 NOSIG,1,0,0,9999,0,0,0,
2026-04-20 18:30:00,METAR LZIB 201830Z 33003KT CAVOK 13/01 Q1014 NOSIG,1,0,0,9999,0,0,0,
2026-04-20 18:00:00,METAR LZIB 201800Z 36005KT CAVOK 13/01 Q1013 NOSIG,1,0,0,9999,0,0,0,
2026-04-20 17:30:00,METAR LZIB 201730Z 35009KT CAVOK 13/00 Q1013 NOSIG,1,0,0,9999,0,0,0,
2026-04-20 17:00:00,METAR LZIB 201700Z 32008KT CAVOK 14/M00 Q1013 NOSIG,1,0,0,9999,0,0,0,
2026-04-20 16:30:00,METAR LZIB 201630Z 33008KT CAVOK 15/01 Q1013 NOSIG,1,0,0,9999,0,0,0,
2026-04-20 16:00:00,METAR LZIB 201600Z 33009KT 280V360 CAVOK 15/01 Q1013 NOSIG,1,0,0,9999,0,0,0,
2026-04-20 15:30:00,METAR LZIB 201530Z 32011KT CAVOK 16/00 Q1013 NOSIG,1,0,0,9999,0,0,0,
2026-04-20 15:00:00,METAR LZIB 201500Z 33013KT CAVOK 16/01 Q1013 NOSIG,1,0,0,9999,0,0,0,
2026-04-20 14:30:00,METAR LZIB 201430Z 33013KT CAVOK 15/02 Q1013 NOSIG,1,0,0,9999,0,0,0,
2026-04-20 14:00:00,METAR LZIB 201400Z 32013KT 290V010 CAVOK 15/01 Q1013 NOSIG,1,0,0,9999,0,0,0,
2026-04-20 13:30:00,METAR LZIB 201330Z 30011KT 270V330 CAVOK 16/02 Q1013 NOSIG,1,0,0,9999,0,0,0,
2026-04-20 13:00:00,METAR LZIB 201300Z 31012KT 270V330 CAVOK 15/02 Q1013 NOSIG,1,0,0,9999,0,0,0,
2026-04-20 12:30:00,METAR LZIB 201230Z 28010KT 250V310 CAVOK 14/03 Q1014 NOSIG,1,0,0,9999,0,0,0,
2026-04-20 12:00:00,METAR LZIB 201200Z 30013KT 9999 SCT048 15/03 Q1014 NOSIG,0,13,0,10000,0,0,0,
2026-04-20 11:30:00,METAR LZIB 201130Z 29011KT 260V320 9999 SCT045 15/03 Q1014 NOSIG,0,11,0,10000,0,0,0,
2026-04-20 11:00:00,METAR LZIB 201100Z 30011KT 260V350 9999 SCT044 14/04 Q1014 NOSIG,0,11,0,10000,0,0,0,
2026-04-20 10:30:00,METAR LZIB 201030Z 30011KT 260V330 9999 SCT036 SCT044 13/04 Q1015 NOSIG,0,11,0,10000,0,0,0,
2026-04-20 10:00:00,METAR LZIB 201000Z 30013KT 9999 SCT035 12/04 Q1015 NOSIG,0,13,0,10000,0,0,0,
2026-04-20 09:30:00,METAR LZIB 200930Z 30013KT 9999 FEW032 12/03 Q1015 NOSIG,0,13,0,10000,0,0,0,
2026-04-20 09:00:00,METAR LZIB 200900Z 29013KT 9999 FEW032 12/04 Q1015 NOSIG,0,13,0,10000,0,0,0,
2026-04-20 08:30:00,METAR LZIB 200830Z 30013KT 9999 FEW032 12/04 Q1015 NOSIG,0,13,0,10000,0,0,0,
2026-04-20 08:00:00,METAR LZIB 200800Z 31015KT 9999 FEW034 11/04 Q1015 NOSIG,0,15,0,10000,0,0,0,
2026-04-20 07:30:00,METAR LZIB 200730Z 31011KT 9999 FEW025 11/04 Q1015 NOSIG,0,11,0,10000,0,0,0,
2026-04-20 07:00:00,METAR LZIB 200700Z 30010KT 9999 FEW023 11/04 Q1015 NOSIG,0,10,0,10000,0,0,0,
2026-04-20 06:30:00,METAR LZIB 200630Z 30009KT 9999 FEW022 10/04 Q1015 NOSIG,0,9,0,10000,0,0,0,
2026-04-20 05:30:00,METAR LZIB 200530Z 31012KT 9999 FEW020 09/04 Q1015 NOSIG,0,12,0,10000,0,0,0,
2026-04-20 05:00:00,METAR LZIB 200500Z 30010KT 9999 FEW020 09/04 Q1015 NOSIG,0,10,0,10000,0,0,0,
2026-04-20 04:30:00,METAR LZIB 200430Z 30010KT 9999 FEW018 SCT025 08/04 Q1015 NOSIG,0,10,0,10000,0,0,0,
2026-04-20 04:00:00,METAR LZIB 200400Z 30009KT 9999 FEW018 SCT025 08/04 Q1015 NOSIG,0,9,0,10000,0,0,0,
2026-04-20 03:30:00,METAR LZIB 200330Z 30007KT 9999 FEW020 BKN025 09/04 Q1015 NOSIG,0,7,0,10000,0,0,0,
2026-04-20 03:00:00,METAR LZIB 200300Z 33005KT 9999 FEW030 SCT048 08/04 Q1015 NOSIG,0,5,0,10000,0,0,0,
2026-04-20 02:30:00,METAR LZIB 200230Z 33011KT 9999 BKN031 09/04 Q1015 NOSIG,0,11,0,10000,0,0,0,
2026-04-20 02:00:00,METAR LZIB 200200Z 32012KT 9999 FEW032 SCT046 09/04 Q1015 NOSIG,0,12,0,10000,0,0,0,
2026-04-20 01:30:00,METAR LZIB 200130Z 33012KT CAVOK 10/04 Q1015 NOSIG,1,0,0,9999,0,0,0,
2026-04-20 01:00:00,METAR LZIB 200100Z 33007KT 290V010 CAVOK 10/06 Q1015 NOSIG,1,0,0,9999,0,0,0,
2026-04-20 00:30:00,METAR LZIB 200030Z 31007KT 9999 FEW020 10/06 Q1015 NOSIG,0,7,0,10000,0,0,0,
2026-04-20 00:00:00,METAR LZIB 200000Z 31010KT 9999 FEW020 11/06 Q1015 NOSIG,0,10,0,10000,0,0,0,
2026-04-19 23:30:00,METAR LZIB 192330Z 30009KT CAVOK 11/06 Q1015 NOSIG,1,0,0,9999,0,0,0,
2026-04-19 23:00:00,METAR LZIB 192300Z 32010KT CAVOK 12/08 Q1015 NOSIG,1,0,0,9999,0,0,0,
2026-04-19 22:30:00,METAR LZIB 192230Z 31013KT CAVOK 12/09 Q1014 NOSIG,1,0,0,9999,0,0,0,
2026-04-19 22:00:00,METAR LZIB 192200Z 31009KT CAVOK 12/09 Q1014 NOSIG,1,0,0,9999,0,0,0,
2026-04-19 21:30:00,METAR LZIB 192130Z 29008KT CAVOK 13/09 Q1014 NOSIG,1,0,0,9999,0,0,0,
2026-04-19 21:00:00,METAR LZIB 192100Z 30004KT CAVOK 13/10 Q1014 NOSIG,1,0,0,9999,0,0,0,
2026-04-19 20:30:00,METAR LZIB 192030Z 28005KT 9999 FEW045 13/10 Q1014 BECMG NSC,0,5,0,10000,0,0,0,
2026-04-19 20:00:00,METAR LZIB 192000Z 29006KT 260V320 9999 -SHRA FEW013 SCT042TCU 14/11 Q1014 BECMG NSC,0,6,0,10000,0,0,0,RA
2026-04-19 19:30:00,METAR LZIB 191930Z 22004KT CAVOK 13/12 Q1014 TEMPO FEW030TCU,1,0,0,9999,0,0,0,
2026-04-19 19:00:00,METAR LZIB 191900Z 22004KT CAVOK 13/12 Q1014 TEMPO FEW030TCU,1,0,0,9999,0,0,0,
2026-04-19 18:30:00,METAR LZIB 191830Z 22004KT CAVOK 14/12 Q1013 NOSIG,1,0,0,9999,0,0,0,
2026-04-19 18:00:00,METAR LZIB 191800Z 21005KT 9999 FEW013 14/12 Q1013 NOSIG,0,5,0,10000,0,0,0,
2026-04-19 17:30:00,METAR LZIB 191730Z 22007KT 9999 FEW013 14/13 Q1013 NOSIG,0,7,0,10000,0,0,0,
2026-04-19 17:00:00,METAR LZIB 191700Z 21007KT 9999 FEW013 14/13 Q1013 NOSIG,0,7,0,10000,0,0,0,
2026-04-19 16:30:00,METAR LZIB 191630Z 20005KT CAVOK 14/13 Q1013 NOSIG,1,0,0,9999,0,0,0,
2026-04-19 16:00:00,METAR LZIB 191600Z 23008KT 9999 FEW012 14/12 Q1013 NOSIG,0,8,0,10000,0,0,0,
2026-04-19 15:30:00,METAR LZIB 191530Z 32009KT 9999 -SHRA FEW040CB 14/12 Q1014 RESHRA BECMG NSC,0,9,0,10000,0,0,0,RA
2026-04-19 15:00:00,METAR LZIB 191500Z 30013KT 8000 SHRA FEW040CB 14/12 Q1014 BECMG NSW NSC,0,13,0,8000,0,0,0,"RA,SH"
2026-04-19 14:30:00,METAR LZIB 191430Z 29025KT 6000 -SHRA SCT049CB 14/12 Q1014 RESHRA BECMG NSW NSC,0,25,0,6000,0,0,0,RA
2026-04-19 14:00:00,METAR LZIB 191400Z VRB02KT 9999 FEW040 FEW040CB 21/06 Q1012 TEMPO 27020G30KT 4500 SHRA,0,2,0,10000,0,0,0,"RA,SH"
2026-04-19 13:30:00,METAR LZIB 191330Z VRB02KT CAVOK 22/04 Q1012 TEMPO 27020G30KT 4500 TSRA FEW045CB,1,0,0,9999,0,0,0,
2026-04-19 13:00:00,METAR LZIB 191300Z VRB03KT CAVOK 22/05 Q1012 TEMPO 27020G30KT 4500 TSRA FEW045CB,1,0,0,9999,0,0,0,
2026-04-19 12:30:00,METAR LZIB 191230Z 16006KT 120V220 CAVOK 21/05 Q1013 TEMPO -SHRA FEW045TCU,1,0,0,9999,0,0,0,
2026-04-19 11:30:00,METAR LZIB 191130Z 17006KT 140V200 CAVOK 21/05 Q1014 TEMPO -SHRA FEW045TCU,1,0,0,9999,0,0,0,
2026-04-19 11:00:00,METAR LZIB 191100Z VRB02KT CAVOK 20/06 Q1014 NOSIG,1,0,0,9999,0,0,0,
2026-04-19 10:30:00,METAR LZIB 191030Z 12004KT 070V190 CAVOK 19/05 Q1015 NOSIG,1,0,0,9999,0,0,0,
2026-04-19 10:00:00,METAR LZIB 191000Z VRB02KT CAVOK 19/06 Q1015 NOSIG,1,0,0,9999,0,0,0,
2026-04-19 09:30:00,METAR LZIB 190930Z 07004KT 040V100 CAVOK 18/05 Q1015 NOSIG,1,0,0,9999,0,0,0,
2026-04-19 09:00:00,METAR LZIB 190900Z 06004KT 020V100 CAVOK 17/06 Q1015 NOSIG,1,0,0,9999,0,0,0,
2026-04-19 08:30:00,METAR LZIB 190830Z 08004KT CAVOK 16/06 Q1015 NOSIG,1,0,0,9999,0,0,0,
2026-04-19 08:00:00,METAR LZIB 190800Z 07004KT 010V110 CAVOK 16/05 Q1016 NOSIG,1,0,0,9999,0,0,0,
2026-04-19 07:30:00,METAR LZIB 190730Z 06005KT 030V090 CAVOK 15/06 Q1016 NOSIG,1,0,0,9999,0,0,0,
2026-04-19 07:00:00,METAR LZIB 190700Z 08005KT CAVOK 13/05 Q1016 NOSIG,1,0,0,9999,0,0,0,
2026-04-19 06:30:00,METAR LZIB 190630Z 05005KT CAVOK 13/05 Q1016 NOSIG,1,0,0,9999,0,0,0,
2026-04-19 06:00:00,METAR LZIB 190600Z 05004KT CAVOK 11/05 Q1016 NOSIG,1,0,0,9999,0,0,0,
2026-04-19 05:30:00,METAR LZIB 190530Z 34003KT CAVOK 09/04 Q1016 NOSIG,1,0,0,9999,0,0,0,
2026-04-19 05:00:00,METAR LZIB 190500Z 34006KT CAVOK 08/04 Q1016 NOSIG,1,0,0,9999,0,0,0,
2026-04-19 04:30:00,METAR LZIB 190430Z 08004KT CAVOK 06/04 Q1016 NOSIG,1,0,0,9999,0,0,0,
2026-04-19 04:00:00,METAR LZIB 190400Z 08004KT CAVOK 06/03 Q1016 NOSIG,1,0,0,9999,0,0,0,
2026-04-19 03:30:00,METAR LZIB 190330Z VRB01KT CAVOK 08/04 Q1016 NOSIG,1,0,0,9999,0,0,0,
2026-04-19 03:00:00,METAR LZIB 190300Z 00000KT CAVOK 09/04 Q1016 NOSIG,1,0,0,9999,0,0,0,
2026-04-19 02:30:00,METAR LZIB 190230Z 00000KT CAVOK 09/04 Q1016 NOSIG,1,0,0,9999,0,0,0,
2026-04-19 02:00:00,METAR LZIB 190200Z 01002KT CAVOK 09/04 Q1017 NOSIG,1,0,0,9999,0,0,0,
2026-04-19 01:30:00,METAR LZIB 190130Z VRB02KT CAVOK 09/04 Q1017 NOSIG,1,0,0,9999,0,0,0,
2026-04-19 01:00:00,METAR LZIB 190100Z 24001KT CAVOK 09/04 Q1017 NOSIG,1,0,0,9999,0,0,0,
2026-04-19 00:30:00,METAR LZIB 190030Z 35002KT CAVOK 09/04 Q1017 NOSIG,1,0,0,9999,0,0,0,
2026-04-19 00:00:00,METAR LZIB 190000Z 32002KT CAVOK 10/04 Q1017 NOSIG,1,0,0,9999,0,0,0,
2026-04-18 23:30:00,METAR LZIB 182330Z VRB02KT CAVOK 10/04 Q1018 NOSIG,1,0,0,9999,0,0,0,
2026-04-18 23:00:00,METAR LZIB 182300Z 04003KT CAVOK 09/04 Q1018 NOSIG,1,0,0,9999,0,0,0,
2026-04-18 22:30:00,METAR LZIB 182230Z VRB02KT CAVOK 10/04 Q1018 NOSIG,1,0,0,9999,0,0,0,
2026-04-18 22:00:00,METAR LZIB 182200Z 00000KT CAVOK 10/03 Q1018 NOSIG,1,0,0,9999,0,0,0,
2026-04-18 21:30:00,METAR LZIB 182130Z VRB02KT CAVOK 11/03 Q1018 NOSIG,1,0,0,9999,0,0,0,
2026-04-18 21:00:00,METAR LZIB 182100Z 25003KT CAVOK 12/03 Q1018 NOSIG,1,0,0,9999,0,0,0,
2026-04-18 20:30:00,METAR LZIB 182030Z 27003KT CAVOK 13/03 Q1018 NOSIG,1,0,0,9999,0,0,0,
2026-04-18 20:00:00,METAR LZIB 182000Z 33003KT CAVOK 13/03 Q1018 NOSIG,1,0,0,9999,0,0,0,
2026-04-18 19:30:00,METAR LZIB 181930Z 31003KT CAVOK 14/03 Q1018 NOSIG,1,0,0,9999,0,0,0,
2026-04-18 19:00:00,METAR LZIB 181900Z 35004KT CAVOK 13/03 Q1018 NOSIG,1,0,0,9999,0,0,0,
2026-04-18 18:30:00,METAR LZIB 181830Z 35003KT CAVOK 15/02 Q1018 NOSIG,1,0,0,9999,0,0,0,
2026-04-18 18:00:00,METAR LZIB 181800Z 35004KT CAVOK 17/01 Q1018 NOSIG,1,0,0,9999,0,0,0,
2026-04-18 17:30:00,METAR LZIB 181730Z 34005KT CAVOK 18/01 Q1018 NOSIG,1,0,0,9999,0,0,0,
2026-04-18 17:00:00,METAR LZIB 181700Z 33008KT CAVOK 19/02 Q1018 NOSIG,1,0,0,9999,0,0,0,
2026-04-18 16:30:00,METAR LZIB 181630Z 33008KT CAVOK 19/01 Q1018 NOSIG,1,0,0,9999,0,0,0,
2026-04-18 16:00:00,METAR LZIB 181600Z 35009KT CAVOK 20/01 Q1018 NOSIG,1,0,0,9999,0,0,0,
2026-04-18 15:00:00,METAR LZIB 181500Z 01010KT 340V050 CAVOK 20/01 Q1018 NOSIG,1,0,0,9999,0,0,0,
2026-04-18 14:30:00,METAR LZIB 181430Z 02009KT CAVOK 21/01 Q1018 NOSIG,1,0,0,9999,0,0,0,
2026-04-18 14:00:00,METAR LZIB 181400Z 02008KT 350V050 CAVOK 20/01 Q1018 NOSIG,1,0,0,9999,0,0,0,
2026-04-18 13:30:00,METAR LZIB 181330Z VRB06KT CAVOK 20/01 Q1019 NOSIG,1,0,0,9999,0,0,0,
2026-04-18 13:00:00,METAR LZIB 181300Z 01007KT 330V050 CAVOK 20/01 Q1019 NOSIG,1,0,0,9999,0,0,0,
2026-04-18 12:30:00,METAR LZIB 181230Z 33011KT CAVOK 19/01 Q1019 NOSIG,1,0,0,9999,0,0,0,
2026-04-18 12:00:00,METAR LZIB 181200Z 36006KT 300V040 CAVOK 19/02 Q1019 NOSIG,1,0,0,9999,0,0,0,
2026-04-18 11:30:00,METAR LZIB 181130Z 34007KT 290V030 CAVOK 19/02 Q1019 NOSIG,1,0,0,9999,0,0,0,
2026-04-18 11:00:00,METAR LZIB 181100Z 33008KT 280V350 CAVOK 19/01 Q1020 NOSIG,1,0,0,9999,0,0,0,
2026-04-18 10:30:00,METAR LZIB 181030Z 34007KT 290V080 CAVOK 18/01 Q1020 NOSIG,1,0,0,9999,0,0,0,
2026-04-18 10:00:00,METAR LZIB 181000Z VRB05KT CAVOK 18/01 Q1020 NOSIG,1,0,0,9999,0,0,0,
2026-04-18 09:30:00,METAR LZIB 180930Z 03010KT 340V050 CAVOK 18/01 Q1020 NOSIG,1,0,0,9999,0,0,0,
2026-04-18 09:00:00,METAR LZIB 180900Z 02006KT 310V070 CAVOK 17/01 Q1020 NOSIG,1,0,0,9999,0,0,0,
2026-04-18 08:30:00,METAR LZIB 180830Z 01006KT 330V060 CAVOK 17/01 Q1021 NOSIG,1,0,0,9999,0,0,0,
2026-04-18 08:00:00,METAR LZIB 180800Z 03010KT CAVOK 16/01 Q1021 NOSIG,1,0,0,9999,0,0,0,
2026-04-18 07:30:00,METAR LZIB 180730Z 01011KT CAVOK 16/00 Q1021 NOSIG,1,0,0,9999,0,0,0,
2026-04-18 07:00:00,METAR LZIB 180700Z 01010KT CAVOK 16/01 Q1021 NOSIG,1,0,0,9999,0,0,0,
2026-04-18 06:30:00,METAR LZIB 180630Z 34007KT CAVOK 15/02 Q1021 NOSIG,1,0,0,9999,0,0,0,
2026-04-18 05:30:00,METAR LZIB 180530Z 02002KT CAVOK 10/06 Q1021 NOSIG,1,0,0,9999,0,0,0,
2026-04-18 05:00:00,METAR LZIB 180500Z 01003KT CAVOK 07/03 Q1021 NOSIG,1,0,0,9999,0,0,0,
2026-04-18 04:30:00,METAR LZIB 180430Z 36002KT CAVOK 07/03 Q1021 NOSIG,1,0,0,9999,0,0,0,
2026-04-18 04:00:00,METAR LZIB 180400Z 00000KT CAVOK 07/02 Q1021 NOSIG,1,0,0,9999,0,0,0,
2026-04-18 03:30:00,METAR LZIB 180330Z 29006KT CAVOK 10/04 Q1021 NOSIG,1,0,0,9999,0,0,0,
2026-04-18 03:00:00,METAR LZIB 180300Z 28004KT CAVOK 09/04 Q1021 NOSIG,1,0,0,9999,0,0,0,
2026-04-18 02:30:00,METAR LZIB 180230Z 26003KT CAVOK 09/04 Q1021 NOSIG,1,0,0,9999,0,0,0,
2026-04-18 02:00:00,METAR LZIB 180200Z 25004KT CAVOK 10/04 Q1021 NOSIG,1,0,0,9999,0,0,0,
2026-04-18 01:30:00,METAR LZIB 180130Z VRB02KT CAVOK 11/03 Q1020 NOSIG,1,0,0,9999,0,0,0,
2026-04-18 01:00:00,METAR LZIB 180100Z 31006KT CAVOK 11/04 Q1020 NOSIG,1,0,0,9999,0,0,0,
2026-04-18 00:30:00,METAR LZIB 180030Z 28004KT CAVOK 11/04 Q1020 NOSIG,1,0,0,9999,0,0,0,
2026-04-18 00:00:00,METAR LZIB 180000Z 34003KT CAVOK 12/04 Q1020 NOSIG,1,0,0,9999,0,0,0,
2026-04-17 23:30:00,METAR LZIB 172330Z 35004KT CAVOK 12/04 Q1020 NOSIG,1,0,0,9999,0,0,0,
2026-04-17 23:00:00,METAR LZIB 172300Z 05006KT CAVOK 11/04 Q1020 NOSIG,1,0,0,9999,0,0,0,
2026-04-17 22:30:00,METAR LZIB 172230Z 09004KT CAVOK 11/04 Q1020 NOSIG,1,0,0,9999,0,0,0,
2026-04-17 22:00:00,METAR LZIB 172200Z 10004KT 040V140 CAVOK 11/04 Q1020 NOSIG,1,0,0,9999,0,0,0,
2026-04-17 21:30:00,METAR LZIB 172130Z 04005KT CAVOK 13/04 Q1020 NOSIG,1,0,0,9999,0,0,0,
2026-04-17 21:00:00,METAR LZIB 172100Z 04004KT CAVOK 13/04 Q1020 NOSIG,1,0,0,9999,0,0,0,
2026-04-17 20:30:00,METAR LZIB 172030Z 05004KT CAVOK 14/05 Q1020 NOSIG,1,0,0,9999,0,0,0,
2026-04-17 20:00:00,METAR LZIB 172000Z 05004KT CAVOK 14/05 Q1020 NOSIG,1,0,0,9999,0,0,0,
2026-04-17 19:30:00,METAR LZIB 171930Z 02007KT CAVOK 15/05 Q1019 NOSIG,1,0,0,9999,0,0,0,
2026-04-17 19:00:00,METAR LZIB 171900Z 36006KT CAVOK 16/06 Q1019 NOSIG,1,0,0,9999,0,0,0,
2026-04-17 18:30:00,METAR LZIB 171830Z 01007KT CAVOK 16/05 Q1019 NOSIG,1,0,0,9999,0,0,0,
2026-04-17 18:00:00,METAR LZIB 171800Z 34006KT CAVOK 18/05 Q1018 NOSIG,1,0,0,9999,0,0,0,
2026-04-17 17:30:00,METAR LZIB 171730Z 36005KT CAVOK 18/06 Q1018 NOSIG,1,0,0,9999,0,0,0,
2026-04-17 17:00:00,METAR LZIB 171700Z 01010KT CAVOK 19/06 Q1018 NOSIG,1,0,0,9999,0,0,0,
2026-04-17 16:30:00,METAR LZIB 171630Z 36007KT 310V040 CAVOK 21/05 Q1018 NOSIG,1,0,0,9999,0,0,0,
2026-04-17 16:00:00,METAR LZIB 171600Z 30011KT 9999 -SHRA FEW055TCU 21/05 Q1018 NOSIG,0,11,0,10000,0,0,0,RA
2026-04-17 15:30:00,METAR LZIB 171530Z 31013KT CAVOK 21/05 Q1018 NOSIG,1,0,0,9999,0,0,0,
2026-04-17 15:00:00,METAR LZIB 171500Z 33012KT 300V360 CAVOK 21/03 Q1018 NOSIG,1,0,0,9999,0,0,0,
2026-04-17 14:30:00,METAR LZIB 171430Z 34014KT 9999 FEW055TCU 20/04 Q1018 BECMG NSC,0,14,0,10000,0,0,0,
2026-04-17 14:00:00,METAR LZIB 171400Z 34012KT 9999 FEW060TCU 21/04 Q1018 TEMPO -SHRA FEW035TCU,0,12,0,10000,0,0,0,RA
2026-04-17 13:30:00,METAR LZIB 171330Z 35010KT CAVOK 22/04 Q1019 TEMPO -SHRA FEW035TCU,1,0,0,9999,0,0,0,
2026-04-17 13:00:00,METAR LZIB 171300Z 35011KT CAVOK 21/04 Q1019 NOSIG,1,0,0,9999,0,0,0,
2026-04-17 12:30:00,METAR LZIB 171230Z 34010KT 290V020 CAVOK 21/04 Q1019 NOSIG,1,0,0,9999,0,0,0,
2026-04-17 12:00:00,METAR LZIB 171200Z 33011KT CAVOK 21/04 Q1020 NOSIG,1,0,0,9999,0,0,0,
2026-04-17 11:30:00,METAR LZIB 171130Z 34008KT 320V020 CAVOK 21/05 Q1020 NOSIG,1,0,0,9999,0,0,0,
2026-04-17 11:00:00,METAR LZIB 171100Z 31009KT 290V350 CAVOK 21/05 Q1020 NOSIG,1,0,0,9999,0,0,0,
2026-04-17 10:30:00,METAR LZIB 171030Z 35008KT 320V030 CAVOK 21/04 Q1020 NOSIG,1,0,0,9999,0,0,0,
2026-04-17 10:00:00,METAR LZIB 171000Z 35010KT 330V030 CAVOK 20/04 Q1021 NOSIG,1,0,0,9999,0,0,0,
2026-04-17 09:30:00,METAR LZIB 170930Z 35006KT 320V040 CAVOK 19/05 Q1021 NOSIG,1,0,0,9999,0,0,0,
2026-04-17 09:00:00,METAR LZIB 170900Z VRB02KT CAVOK 19/06 Q1021 NOSIG,1,0,0,9999,0,0,0,
2026-04-17 08:30:00,METAR LZIB 170830Z VRB02KT CAVOK 20/07 Q1021 NOSIG,1,0,0,9999,0,0,0,
2026-04-17 08:00:00,METAR LZIB 170800Z VRB03KT 9999 FEW048 19/07 Q1021 NOSIG,0,3,0,10000,0,0,0,
2026-04-17 07:30:00,METAR LZIB 170730Z 30004KT 270V330 CAVOK 18/09 Q1021 NOSIG,1,0,0,9999,0,0,0,
2026-04-17 07:00:00,METAR LZIB 170700Z 30008KT CAVOK 17/09 Q1021 NOSIG,1,0,0,9999,0,0,0,
2026-04-17 06:30:00,METAR LZIB 170630Z 30008KT CAVOK 16/09 Q1021 NOSIG,1,0,0,9999,0,0,0,
2026-04-17 06:00:00,METAR LZIB 170600Z 31008KT CAVOK 15/09 Q1021 NOSIG,1,0,0,9999,0,0,0,
2026-04-17 05:30:00,METAR LZIB 170530Z 28007KT CAVOK 15/09 Q1021 NOSIG,1,0,0,9999,0,0,0,
2026-04-17 05:00:00,METAR LZIB 170500Z 29005KT CAVOK 14/09 Q1020 NOSIG,1,0,0,9999,0,0,0,
2026-04-17 04:30:00,METAR LZIB 170430Z 29008KT CAVOK 13/09 Q1020 NOSIG,1,0,0,9999,0,0,0,
2026-04-17 04:00:00,METAR LZIB 170400Z 29006KT CAVOK 12/08 Q1020 NOSIG,1,0,0,9999,0,0,0,
2026-04-17 03:30:00,METAR LZIB 170330Z 26003KT CAVOK 13/08 Q1020 NOSIG,1,0,0,9999,0,0,0,
2026-04-17 03:00:00,METAR LZIB 170300Z 26002KT CAVOK 13/08 Q1020 NOSIG,1,0,0,9999,0,0,0,
2026-04-17 02:30:00,METAR LZIB 170230Z 25005KT CAVOK 14/09 Q1020 NOSIG,1,0,0,9999,0,0,0,
2026-04-17 02:00:00,METAR LZIB 170200Z 24003KT CAVOK 13/08 Q1020 NOSIG,1,0,0,9999,0,0,0,
2026-04-17 01:30:00,METAR LZIB 170130Z VRB02KT CAVOK 14/09 Q1021 NOSIG,1,0,0,9999,0,0,0,
2026-04-17 01:00:00,METAR LZIB 170100Z 31006KT 280V340 CAVOK 15/09 Q1020 NOSIG,1,0,0,9999,0,0,0,
2026-04-17 00:30:00,METAR LZIB 170030Z 31008KT CAVOK 15/09 Q1021 NOSIG,1,0,0,9999,0,0,0,
2026-04-17 00:00:00,METAR LZIB 170000Z 29010KT CAVOK 15/09 Q1021 NOSIG,1,0,0,9999,0,0,0,
2026-04-16 23:30:00,METAR LZIB 162330Z 29008KT CAVOK 15/09 Q1021 NOSIG,1,0,0,9999,0,0,0,
2026-04-16 23:00:00,METAR LZIB 162300Z 28008KT CAVOK 15/09 Q1021 NOSIG,1,0,0,9999,0,0,0,
2026-04-16 22:30:00,METAR LZIB 162230Z 28009KT CAVOK 15/09 Q1021 NOSIG,1,0,0,9999,0,0,0,
2026-04-16 22:00:00,METAR LZIB 162200Z 30009KT CAVOK 15/09 Q1021 NOSIG,1,0,0,9999,0,0,0,
2026-04-16 21:30:00,METAR LZIB 162130Z VRB03KT CAVOK 15/09 Q1021 NOSIG,1,0,0,9999,0,0,0,
2026-04-16 21:00:00,METAR LZIB 162100Z VRB02KT CAVOK 16/08 Q1021 NOSIG,1,0,0,9999,0,0,0,
2026-04-16 20:30:00,METAR LZIB 162030Z 28004KT 240V330 CAVOK 16/08 Q1021 NOSIG,1,0,0,9999,0,0,0,
2026-04-16 20:00:00,METAR LZIB 162000Z 27005KT 240V330 CAVOK 17/08 Q1021 NOSIG,1,0,0,9999,0,0,0,
2026-04-16 19:30:00,METAR LZIB 161930Z 28005KT 200V330 CAVOK 17/08 Q1021 NOSIG,1,0,0,9999,0,0,0,
2026-04-16 19:00:00,METAR LZIB 161900Z 29009KT 260V330 CAVOK 17/09 Q1020 NOSIG,1,0,0,9999,0,0,0,
2026-04-16 18:30:00,METAR LZIB 161830Z 29008KT CAVOK 17/09 Q1020 NOSIG,1,0,0,9999,0,0,0,
2026-04-16 18:00:00,METAR LZIB 161800Z 29005KT 250V310 CAVOK 17/09 Q1020 NOSIG,1,0,0,9999,0,0,0,
2026-04-16 17:30:00,METAR LZIB 161730Z 27006KT 240V300 9999 FEW046 17/09 Q1020 NOSIG,0,6,0,10000,0,0,0,
2026-04-16 17:00:00,METAR LZIB 161700Z 29006KT 250V320 9999 FEW046 18/08 Q1020 NOSIG,0,6,0,10000,0,0,0,
2026-04-16 16:30:00,METAR LZIB 161630Z 30007KT 9999 FEW045 18/08 Q1020 NOSIG,0,7,0,10000,0,0,0,
2026-04-16 16:00:00,METAR LZIB 161600Z 28011KT 9999 FEW045 19/09 Q1020 NOSIG,0,11,0,10000,0,0,0,
2026-04-16 15:30:00,METAR LZIB 161530Z 28013KT 9999 FEW045 19/08 Q1020 NOSIG,0,13,0,10000,0,0,0,
2026-04-16 15:00:00,METAR LZIB 161500Z 28011KT 9999 FEW045 19/08 Q1020 NOSIG,0,11,0,10000,0,0,0,
2026-04-16 14:30:00,METAR LZIB 161430Z 30010KT CAVOK 20/09 Q1020 NOSIG,1,0,0,9999,0,0,0,
2026-04-16 14:00:00,METAR LZIB 161400Z 28010KT 260V320 CAVOK 19/07 Q1020 NOSIG,1,0,0,9999,0,0,0,
2026-04-16 13:30:00,METAR LZIB 161330Z 28013KT CAVOK 19/07 Q1020 NOSIG,1,0,0,9999,0,0,0,
2026-04-16 13:00:00,METAR LZIB 161300Z 29009KT 250V330 CAVOK 19/06 Q1020 NOSIG,1,0,0,9999,0,0,0,
2026-04-16 12:30:00,METAR LZIB 161230Z 31009KT 260V330 CAVOK 19/06 Q1020 NOSIG,1,0,0,9999,0,0,0,
2026-04-16 12:00:00,METAR LZIB 161200Z 30009KT CAVOK 19/06 Q1020 NOSIG,1,0,0,9999,0,0,0,
2026-04-16 11:30:00,METAR LZIB 161130Z 32007KT 260V360 CAVOK 19/06 Q1020 NOSIG,1,0,0,9999,0,0,0,
2026-04-16 11:00:00,METAR LZIB 161100Z 30007KT 260V350 9999 SCT049 19/06 Q1021 NOSIG,0,7,0,10000,0,0,0,
2026-04-16 10:30:00,METAR LZIB 161030Z 31009KT 250V360 9999 SCT048 19/06 Q1021 NOSIG,0,9,0,10000,0,0,0,
2026-04-16 10:00:00,METAR LZIB 161000Z 33009KT 280V010 9999 SCT047 19/06 Q1021 NOSIG,0,9,0,10000,0,0,0,
2026-04-16 09:30:00,METAR LZIB 160930Z 36009KT 330V030 9999 FEW048 18/05 Q1021 NOSIG,0,9,0,10000,0,0,0,
2026-04-16 09:00:00,METAR LZIB 160900Z 36010KT 330V030 9999 SCT046 18/06 Q1021 NOSIG,0,10,0,10000,0,0,0,
2026-04-16 08:30:00,METAR LZIB 160830Z 34010KT 310V010 9999 FEW045 18/07 Q1021 NOSIG,0,10,0,10000,0,0,0,
2026-04-16 08:00:00,METAR LZIB 160800Z 33010KT 9999 FEW040 17/06 Q1021 NOSIG,0,10,0,10000,0,0,0,
2026-04-16 07:30:00,METAR LZIB 160730Z 29009KT CAVOK 16/08 Q1021 NOSIG,1,0,0,9999,0,0,0,
2026-04-16 07:00:00,METAR LZIB 160700Z 30008KT CAVOK 14/08 Q1021 NOSIG,1,0,0,9999,0,0,0,
2026-04-16 06:30:00,METAR LZIB 160630Z 28004KT 250V310 CAVOK 14/08 Q1021 NOSIG,1,0,0,9999,0,0,0,
2026-04-16 06:00:00,METAR LZIB 160600Z 33005KT 9000 NSC 13/08 Q1020 NOSIG,0,5,0,9000,0,0,0,
2026-04-16 05:30:00,METAR LZIB 160530Z 30005KT 8000 FEW048 12/08 Q1020 NOSIG,0,5,0,8000,0,0,0,
2026-04-16 05:00:00,METAR LZIB 160500Z 29008KT 8000 FEW048 12/08 Q1020 NOSIG,0,8,0,8000,0,0,0,
2026-04-16 04:30:00,METAR LZIB 160430Z 31008KT 9999 FEW048 12/08 Q1020 NOSIG,0,8,0,10000,0,0,0,
2026-04-16 04:00:00,METAR LZIB 160400Z 29007KT 9999 BKN048 12/08 Q1020 NOSIG,0,7,0,10000,0,0,0,
2026-04-16 03:30:00,METAR LZIB 160330Z 28008KT 9999 SCT048 12/09 Q1019 NOSIG,0,8,0,10000,0,0,0,
2026-04-16 03:00:00,METAR LZIB 160300Z 27006KT 9999 BKN046 12/08 Q1019 NOSIG,0,6,0,10000,0,0,0,
2026-04-16 02:30:00,METAR LZIB 160230Z 24003KT 9999 BKN046 10/08 Q1019 NOSIG,0,3,0,10000,0,0,0,
2026-04-16 02:00:00,METAR LZIB 160200Z 23005KT 9999 SCT048 11/08 Q1019 NOSIG,0,5,0,10000,0,0,0,
2026-04-16 01:30:00,METAR LZIB 160130Z 22003KT 9999 FEW048 09/07 Q1019 NOSIG,0,3,0,10000,0,0,0,
2026-04-16 01:00:00,METAR LZIB 160100Z 00000KT 9999 BKN048 09/07 Q1019 NOSIG,0,0,0,10000,0,0,0,
2026-04-16 00:30:00,METAR LZIB 160030Z VRB02KT 9999 BKN048 09/08 Q1019 NOSIG,0,2,0,10000,0,0,0,
2026-04-16 00:00:00,METAR LZIB 160000Z 35002KT CAVOK 09/08 Q1019 NOSIG,1,0,0,9999,0,0,0,
2026-04-15 23:30:00,METAR LZIB 152330Z VRB02KT CAVOK 09/08 Q1020 NOSIG,1,0,0,9999,0,0,0,
2026-04-15 23:00:00,METAR LZIB 152300Z 22004KT 9999 SCT048 11/08 Q1020 NOSIG,0,4,0,10000,0,0,0,
2026-04-15 22:30:00,METAR LZIB 152230Z 21004KT 9999 BKN049 11/08 Q1020 NOSIG,0,4,0,10000,0,0,0,
2026-04-15 22:00:00,METAR LZIB 152200Z 17002KT CAVOK 10/07 Q1020 NOSIG,1,0,0,9999,0,0,0,
2026-04-15 21:30:00,METAR LZIB 152130Z VRB03KT CAVOK 12/06 Q1020 NOSIG,1,0,0,9999,0,0,0,
2026-04-15 21:00:00,METAR LZIB 152100Z VRB03KT CAVOK 13/09 Q1020 NOSIG,1,0,0,9999,0,0,0,
2026-04-15 20:30:00,METAR LZIB 152030Z 25001KT CAVOK 12/08 Q1020 NOSIG,1,0,0,9999,0,0,0,
2026-04-15 20:00:00,METAR LZIB 152000Z VRB01KT 9999 FEW042 12/08 Q1020 NOSIG,0,1,0,10000,0,0,0,
2026-04-15 19:30:00,METAR LZIB 151930Z 30004KT 9999 FEW047 13/09 Q1020 NOSIG,0,4,0,10000,0,0,0,
2026-04-15 19:00:00,METAR LZIB 151900Z 31002KT 9999 SCT047 14/09 Q1020 NOSIG,0,2,0,10000,0,0,0,
2026-04-15 18:30:00,METAR LZIB 151830Z 29004KT 9999 SCT048 14/09 Q1020 NOSIG,0,4,0,10000,0,0,0,
2026-04-15 18:00:00,METAR LZIB 151800Z 31005KT 9999 SCT047 15/09 Q1020 NOSIG,0,5,0,10000,0,0,0,
2026-04-15 17:30:00,METAR LZIB 151730Z 32006KT 9999 SCT047 16/09 Q1020 NOSIG,0,6,0,10000,0,0,0,
2026-04-15 17:00:00,METAR LZIB 151700Z 30007KT 9999 BKN045 17/09 Q1020 NOSIG,0,7,0,10000,0,0,0,
2026-04-15 16:30:00,METAR LZIB 151630Z 29006KT 9999 BKN042 17/10 Q1020 NOSIG,0,6,0,10000,0,0,0,
2026-04-15 16:00:00,METAR LZIB 151600Z 29009KT 9999 BKN045 17/10 Q1020 NOSIG,0,9,0,10000,0,0,0,
2026-04-15 15:30:00,METAR LZIB 151530Z 30009KT 9999 BKN044 17/10 Q1020 NOSIG,0,9,0,10000,0,0,0,
2026-04-15 15:00:00,METAR LZIB 151500Z 26007KT 240V300 9999 FEW039 BKN044 18/10 Q1020 NOSIG,0,7,0,10000,0,0,0,
2026-04-15 14:30:00,METAR LZIB 151430Z VRB02KT 9999 FEW039 BKN042 18/10 Q1020 NOSIG,0,2,0,10000,0,0,0,
2026-04-15 14:00:00,METAR LZIB 151400Z VRB02KT 9999 FEW039 BKN044 19/10 Q1020 NOSIG,0,2,0,10000,0,0,0,
2026-04-15 13:30:00,METAR LZIB 151330Z VRB02KT 9999 FEW039 BKN041 18/09 Q1020 NOSIG,0,2,0,10000,0,0,0,
2026-04-15 13:00:00,METAR LZIB 151300Z VRB01KT 9999 FEW037 BKN043 18/09 Q1020 NOSIG,0,1,0,10000,0,0,0,
2026-04-15 12:30:00,METAR LZIB 151230Z 05005KT 310V090 9999 FEW037 BKN043 18/09 Q1021 NOSIG,0,5,0,10000,0,0,0,
2026-04-15 12:00:00,METAR LZIB 151200Z VRB03KT 9999 FEW037 SCT039 18/09 Q1021 NOSIG,0,3,0,10000,0,0,0,
2026-04-15 11:30:00,METAR LZIB 151130Z 07004KT 350V150 9999 FEW036 18/09 Q1021 NOSIG,0,4,0,10000,0,0,0,
2026-04-15 11:00:00,METAR LZIB 151100Z 05005KT 010V120 9999 FEW036 17/08 Q1021 NOSIG,0,5,0,10000,0,0,0,
2026-04-15 10:30:00,METAR LZIB 151030Z 04004KT 350V090 9999 FEW033 17/08 Q1021 NOSIG,0,4,0,10000,0,0,0,
2026-04-15 10:00:00,METAR LZIB 151000Z 33003KT 280V010 9999 FEW028 16/09 Q1022 NOSIG,0,3,0,10000,0,0,0,
2026-04-15 09:30:00,METAR LZIB 150930Z 28005KT 9999 FEW025 16/09 Q1022 NOSIG,0,5,0,10000,0,0,0,
2026-04-15 09:00:00,METAR LZIB 150900Z 29006KT 9999 FEW025 15/09 Q1022 NOSIG,0,6,0,10000,0,0,0,
2026-04-15 08:30:00,METAR LZIB 150830Z 31006KT 9999 FEW023 15/09 Q1022 NOSIG,0,6,0,10000,0,0,0,
2026-04-15 08:00:00,METAR LZIB 150800Z 29005KT 9999 FEW020 14/10 Q1022 NOSIG,0,5,0,10000,0,0,0,
2026-04-15 07:30:00,METAR LZIB 150730Z 29005KT CAVOK 14/09 Q1021 NOSIG,1,0,0,9999,0,0,0,
2026-04-15 07:00:00,METAR LZIB 150700Z 28006KT CAVOK 13/09 Q1021 NOSIG,1,0,0,9999,0,0,0,
2026-04-15 06:30:00,METAR LZIB 150630Z 29003KT 260V330 CAVOK 13/09 Q1021 NOSIG,1,0,0,9999,0,0,0,
2026-04-15 06:00:00,METAR LZIB 150600Z VRB02KT CAVOK 12/09 Q1021 NOSIG,1,0,0,9999,0,0,0,
2026-04-15 05:30:00,METAR LZIB 150530Z 31002KT CAVOK 12/08 Q1021 NOSIG,1,0,0,9999,0,0,0,
2026-04-15 05:00:00,METAR LZIB 150500Z 27002KT 9999 SCT049 11/08 Q1021 NOSIG,0,2,0,10000,0,0,0,
2026-04-15 04:30:00,METAR LZIB 150430Z VRB01KT 8000 BKN049 10/09 Q1021 NOSIG,0,1,0,8000,0,0,0,
2026-04-15 04:00:00,METAR LZIB 150400Z VRB02KT CAVOK 11/09 Q1021 NOSIG,1,0,0,9999,0,0,0,
2026-04-15 03:30:00,METAR LZIB 150330Z 00000KT CAVOK 11/09 Q1021 NOSIG,1,0,0,9999,0,0,0,
2026-04-15 03:00:00,METAR LZIB 150300Z VRB03KT CAVOK 11/09 Q1021 NOSIG,1,0,0,9999,0,0,0,
2026-04-15 02:30:00,METAR LZIB 150230Z 29002KT CAVOK 11/09 Q1021 NOSIG,1,0,0,9999,0,0,0,
2026-04-15 02:00:00,METAR LZIB 150200Z 04001KT CAVOK 10/09 Q1021 NOSIG,1,0,0,9999,0,0,0,
2026-04-15 01:30:00,METAR LZIB 150130Z 00000KT CAVOK 10/09 Q1021 NOSIG,1,0,0,9999,0,0,0,
2026-04-15 01:00:00,METAR LZIB 150100Z 10002KT CAVOK 10/09 Q1021 NOSIG,1,0,0,9999,0,0,0,
2026-04-15 00:30:00,METAR LZIB 150030Z 35001KT CAVOK 10/09 Q1020 NOSIG,1,0,0,9999,0,0,0,
2026-04-15 00:00:00,METAR LZIB 150000Z 31002KT CAVOK 11/09 Q1021 NOSIG,1,0,0,9999,0,0,0,
2026-04-14 23:30:00,METAR LZIB 142330Z 28001KT CAVOK 10/09 Q1021 NOSIG,1,0,0,9999,0,0,0,
2026-04-14 23:00:00,METAR LZIB 142300Z 29002KT CAVOK 11/09 Q1020 NOSIG,1,0,0,9999,0,0,0,
2026-04-14 22:30:00,METAR LZIB 142230Z 31002KT CAVOK 11/09 Q1020 NOSIG,1,0,0,9999,0,0,0,
2026-04-14 22:00:00,METAR LZIB 142200Z 33002KT CAVOK 11/09 Q1020 NOSIG,1,0,0,9999,0,0,0,
2026-04-14 21:30:00,METAR LZIB 142130Z 32002KT CAVOK 11/09 Q1020 NOSIG,1,0,0,9999,0,0,0,
2026-04-14 21:00:00,METAR LZIB 142100Z VRB02KT CAVOK 11/09 Q1020 NOSIG,1,0,0,9999,0,0,0,
2026-04-14 20:30:00,METAR LZIB 142030Z 32002KT CAVOK 12/09 Q1020 NOSIG,1,0,0,9999,0,0,0,
2026-04-14 20:00:00,METAR LZIB 142000Z 32003KT CAVOK 11/10 Q1020 NOSIG,1,0,0,9999,0,0,0,
2026-04-14 19:30:00,METAR LZIB 141930Z 34002KT CAVOK 12/10 Q1020 NOSIG,1,0,0,9999,0,0,0,
2026-04-14 19:00:00,METAR LZIB 141900Z 32004KT CAVOK 12/09 Q1019 NOSIG,1,0,0,9999,0,0,0,
2026-04-14 18:30:00,METAR LZIB 141830Z 32002KT CAVOK 12/09 Q1019 NOSIG,1,0,0,9999,0,0,0,
2026-04-14 18:00:00,METAR LZIB 141800Z 34003KT 9999 -RA NSC 12/09 Q1019 NOSIG,0,3,0,10000,0,0,0,-RA
2026-04-14 17:30:00,METAR LZIB 141730Z 30003KT 9999 -RA NSC 12/08 Q1019 NOSIG,0,3,0,10000,0,0,0,-RA
2026-04-14 17:00:00,METAR LZIB 141700Z 30003KT 9999 -RA NSC 13/08 Q1018 NOSIG,0,3,0,10000,0,0,0,-RA
2026-04-14 16:30:00,METAR LZIB 141630Z 31004KT 9999 -RA NSC 13/07 Q1018 NOSIG,0,4,0,10000,0,0,0,-RA
2026-04-14 16:00:00,METAR LZIB 141600Z 32003KT 9999 -RA NSC 13/08 Q1018 NOSIG,0,3,0,10000,0,0,0,-RA
2026-04-14 15:30:00,METAR LZIB 141530Z 01003KT 9999 -RA NSC 13/07 Q1018 NOSIG,0,3,0,10000,0,0,0,-RA
2026-04-14 15:00:00,METAR LZIB 141500Z VRB01KT 9999 -RA NSC 13/06 Q1018 NOSIG,0,1,0,10000,0,0,0,-RA
2026-04-14 14:30:00,METAR LZIB 141430Z VRB03KT 9999 -RA NSC 14/06 Q1018 NOSIG,0,3,0,10000,0,0,0,-RA
2026-04-14 14:00:00,METAR LZIB 141400Z 05004KT 9999 -RA FEW033 13/07 Q1018 NOSIG,0,4,0,10000,0,0,0,-RA
2026-04-14 13:30:00,METAR LZIB 141330Z 06003KT 9999 -RA FEW033 13/07 Q1018 NOSIG,0,3,0,10000,0,0,0,-RA
2026-04-14 13:00:00,METAR LZIB 141300Z 08004KT 9999 -RA FEW034 13/07 Q1018 NOSIG,0,4,0,10000,0,0,0,-RA
2026-04-14 12:30:00,METAR LZIB 141230Z 07006KT 040V100 9999 -RA FEW034 13/06 Q1018 NOSIG,0,6,0,10000,0,0,0,-RA
2026-04-14 12:00:00,METAR LZIB 141200Z 08008KT 9999 -RA SCT035 13/05 Q1018 NOSIG,0,8,0,10000,0,0,0,-RA
2026-04-14 11:30:00,METAR LZIB 141130Z 08008KT 9999 -RA FEW028 SCT038 13/05 Q1018 NOSIG,0,8,0,10000,0,0,0,-RA
2026-04-14 11:00:00,METAR LZIB 141100Z 09010KT 9999 -RA FEW035 13/05 Q1017 NOSIG,0,10,0,10000,0,0,0,-RA
2026-04-14 10:30:00,METAR LZIB 141030Z 10009KT 9999 -RA FEW035 14/05 Q1017 NOSIG,0,9,0,10000,0,0,0,-RA
2026-04-14 10:00:00,METAR LZIB 141000Z 10011KT 9999 -RA FEW029 13/04 Q1017 NOSIG,0,11,0,10000,0,0,0,-RA
2026-04-14 09:30:00,METAR LZIB 140930Z 08009KT 9999 -RA FEW029 SCT040 13/05 Q1017 NOSIG,0,9,0,10000,0,0,0,-RA
2026-04-14 09:00:00,METAR LZIB 140900Z 09011KT 9999 -RA FEW026 14/02 Q1017 NOSIG,0,11,0,10000,0,0,0,-RA
2026-04-14 08:30:00,METAR LZIB 140830Z 08009KT 9999 -RA FEW030 SCT044 13/02 Q1017 NOSIG,0,9,0,10000,0,0,0,-RA
2026-04-14 08:00:00,METAR LZIB 140800Z 08010KT CAVOK 13/01 Q1017 NOSIG,1,0,0,9999,0,0,0,
2026-04-14 07:30:00,METAR LZIB 140730Z 07009KT CAVOK 13/01 Q1016 NOSIG,1,0,0,9999,0,0,0,
2026-04-14 07:00:00,METAR LZIB 140700Z 06010KT 9999 FEW040 12/00 Q1016 NOSIG,0,10,0,10000,0,0,0,
2026-04-14 06:30:00,METAR LZIB 140630Z 06008KT 9999 FEW040 12/00 Q1016 NOSIG,0,8,0,10000,0,0,0,
2026-04-14 06:00:00,METAR LZIB 140600Z 06009KT CAVOK 11/M00 Q1016 NOSIG,1,0,0,9999,0,0,0,
2026-04-14 05:30:00,METAR LZIB 140530Z 05007KT 9999 FEW040 11/01 Q1016 NOSIG,0,7,0,10000,0,0,0,
2026-04-14 05:00:00,METAR LZIB 140500Z 04008KT 9999 FEW040 10/M00 Q1015 NOSIG,0,8,0,10000,0,0,0,
2026-04-14 04:30:00,METAR LZIB 140430Z 03008KT CAVOK 10/M01 Q1015 NOSIG,1,0,0,9999,0,0,0,
2026-04-14 04:00:00,METAR LZIB 140400Z 03007KT CAVOK 10/M01 Q1015 NOSIG,1,0,0,9999,0,0,0,
2026-04-14 03:30:00,METAR LZIB 140330Z 03004KT CAVOK 10/M01 Q1015 NOSIG,1,0,0,9999,0,0,0,
2026-04-14 03:00:00,METAR LZIB 140300Z 02005KT CAVOK 10/M01 Q1015 NOSIG,1,0,0,9999,0,0,0,
2026-04-14 02:30:00,METAR LZIB 140230Z 01005KT CAVOK 10/M01 Q1015 NOSIG,1,0,0,9999,0,0,0,
2026-04-14 02:00:00,METAR LZIB 140200Z 01005KT 330V030 CAVOK 10/M01 Q1015 NOSIG,1,0,0,9999,0,0,0,
2026-04-14 01:30:00,METAR LZIB 140130Z 03008KT CAVOK 10/M00 Q1015 NOSIG,1,0,0,9999,0,0,0,
2026-04-14 01:00:00,METAR LZIB 140100Z 03007KT CAVOK 10/00 Q1015 NOSIG,1,0,0,9999,0,0,0,
2026-04-14 00:30:00,METAR LZIB 140030Z 02006KT CAVOK 09/00 Q1015 NOSIG,1,0,0,9999,0,0,0,
2026-04-14 00:00:00,METAR LZIB 140000Z 01006KT CAVOK 09/00 Q1015 NOSIG,1,0,0,9999,0,0,0,
2026-04-13 23:30:00,METAR LZIB 132330Z 01006KT CAVOK 09/01 Q1015 NOSIG,1,0,0,9999,0,0,0,
2026-04-13 23:00:00,METAR LZIB 132300Z 02006KT CAVOK 09/01 Q1015 NOSIG,1,0,0,9999,0,0,0,
2026-04-13 22:30:00,METAR LZIB 132230Z 06005KT CAVOK 09/01 Q1015 NOSIG,1,0,0,9999,0,0,0,
2026-04-13 22:00:00,METAR LZIB 132200Z 04006KT CAVOK 09/01 Q1015 NOSIG,1,0,0,9999,0,0,0,
2026-04-13 21:30:00,METAR LZIB 132130Z 01004KT CAVOK 11/02 Q1015 NOSIG,1,0,0,9999,0,0,0,
2026-04-13 21:00:00,METAR LZIB 132100Z 05005KT CAVOK 10/01 Q1015 NOSIG,1,0,0,9999,0,0,0,
2026-04-13 20:30:00,METAR LZIB 132030Z 09007KT CAVOK 12/01 Q1015 NOSIG,1,0,0,9999,0,0,0,
2026-04-13 20:00:00,METAR LZIB 132000Z 09008KT CAVOK 13/01 Q1015 NOSIG,1,0,0,9999,0,0,0,
2026-04-13 19:30:00,METAR LZIB 131930Z 10009KT CAVOK 13/02 Q1015 NOSIG,1,0,0,9999,0,0,0,
2026-04-13 19:00:00,METAR LZIB 131900Z 09007KT CAVOK 13/02 Q1015 NOSIG,1,0,0,9999,0,0,0,
2026-04-13 18:30:00,METAR LZIB 131830Z 09008KT CAVOK 13/02 Q1014 NOSIG,1,0,0,9999,0,0,0,
2026-04-13 18:00:00,METAR LZIB 131800Z 08008KT CAVOK 14/02 Q1014 NOSIG,1,0,0,9999,0,0,0,
2026-04-13 17:30:00,METAR LZIB 131730Z 09010KT CAVOK 15/02 Q1014 NOSIG,1,0,0,9999,0,0,0,
2026-04-13 17:00:00,METAR LZIB 131700Z 10010KT CAVOK 15/02 Q1014 NOSIG,1,0,0,9999,0,0,0,
2026-04-13 16:30:00,METAR LZIB 131630Z 11011KT CAVOK 16/02 Q1014 NOSIG,1,0,0,9999,0,0,0,
2026-04-13 16:00:00,METAR LZIB 131600Z 12013KT CAVOK 16/02 Q1014 NOSIG,1,0,0,9999,0,0,0,
2026-04-13 15:30:00,METAR LZIB 131530Z 12013KT CAVOK 16/02 Q1014 NOSIG,1,0,0,9999,0,0,0,
2026-04-13 15:00:00,METAR LZIB 131500Z 11014KT CAVOK 16/01 Q1014 NOSIG,1,0,0,9999,0,0,0,
2026-04-13 14:30:00,METAR LZIB 131430Z 11015KT CAVOK 17/01 Q1014 NOSIG,1,0,0,9999,0,0,0,
2026-04-13 14:00:00,METAR LZIB 131400Z 11015KT CAVOK 16/00 Q1014 NOSIG,1,0,0,9999,0,0,0,
2026-04-13 13:30:00,METAR LZIB 131330Z 12012KT CAVOK 16/00 Q1014 NOSIG,1,0,0,9999,0,0,0,
2026-04-13 13:00:00,METAR LZIB 131300Z 11014KT CAVOK 16/M01 Q1014 NOSIG,1,0,0,9999,0,0,0,
2026-04-13 12:30:00,METAR LZIB 131230Z 11014KT CAVOK 16/M01 Q1014 NOSIG,1,0,0,9999,0,0,0,
2026-04-13 12:00:00,METAR LZIB 131200Z 11015KT CAVOK 15/M02 Q1015 NOSIG,1,0,0,9999,0,0,0,
2026-04-13 11:30:00,METAR LZIB 131130Z 11013KT CAVOK 15/M02 Q1015 NOSIG,1,0,0,9999,0,0,0,
2026-04-13 11:00:00,METAR LZIB 131100Z 12014KT CAVOK 15/M02 Q1015 NOSIG,1,0,0,9999,0,0,0,
2026-04-13 10:00:00,METAR LZIB 131000Z 11015KT CAVOK 15/M01 Q1015 NOSIG,1,0,0,9999,0,0,0,
2026-04-13 09:30:00,METAR LZIB 130930Z 12013KT CAVOK 14/M01 Q1016 NOSIG,1,0,0,9999,0,0,0,
2026-04-13 09:00:00,METAR LZIB 130900Z 11016KT CAVOK 13/M02 Q1016 NOSIG,1,0,0,9999,0,0,0,
2026-04-13 08:30:00,METAR LZIB 130830Z 10014KT CAVOK 13/M02 Q1016 NOSIG,1,0,0,9999,0,0,0,
2026-04-13 08:00:00,METAR LZIB 130800Z 10012KT CAVOK 13/M01 Q1016 NOSIG,1,0,0,9999,0,0,0,
2026-04-13 07:30:00,METAR LZIB 130730Z 09011KT 9999 FEW042 12/M00 Q1016 NOSIG,0,11,0,10000,0,0,0,
2026-04-13 07:00:00,METAR LZIB 130700Z 10009KT CAVOK 11/01 Q1016 NOSIG,1,0,0,9999,0,0,0,
2026-04-13 06:30:00,METAR LZIB 130630Z 08008KT CAVOK 10/01 Q1016 NOSIG,1,0,0,9999,0,0,0,
2026-04-13 06:00:00,METAR LZIB 130600Z 06009KT CAVOK 09/01 Q1016 NOSIG,1,0,0,9999,0,0,0,
2026-04-13 05:30:00,METAR LZIB 130530Z 06007KT CAVOK 09/01 Q1016 NOSIG,1,0,0,9999,0,0,0,
2026-04-13 05:00:00,METAR LZIB 130500Z 05007KT CAVOK 09/01 Q1016 NOSIG,1,0,0,9999,0,0,0,
2026-04-13 04:30:00,METAR LZIB 130430Z 04005KT CAVOK 09/01 Q1016 NOSIG,1,0,0,9999,0,0,0,
2026-04-13 04:00:00,METAR LZIB 130400Z 06005KT CAVOK 09/01 Q1016 NOSIG,1,0,0,9999,0,0,0,
2026-04-13 03:30:00,METAR LZIB 130330Z 07006KT CAVOK 09/00 Q1016 NOSIG,1,0,0,9999,0,0,0,
2026-04-13 03:00:00,METAR LZIB 130300Z 07005KT CAVOK 09/00 Q1016 NOSIG,1,0,0,9999,0,0,0,
2026-04-13 02:30:00,METAR LZIB 130230Z 08004KT CAVOK 10/00 Q1016 NOSIG,1,0,0,9999,0,0,0,
2026-04-13 02:00:00,METAR LZIB 130200Z 07005KT CAVOK 09/00 Q1016 NOSIG,1,0,0,9999,0,0,0,
2026-04-13 01:30:00,METAR LZIB 130130Z 06005KT CAVOK 10/00 Q1016 NOSIG,1,0,0,9999,0,0,0,
2026-04-13 01:00:00,METAR LZIB 130100Z 08004KT CAVOK 10/00 Q1016 NOSIG,1,0,0,9999,0,0,0,
2026-04-13 00:30:00,METAR LZIB 130030Z 09004KT CAVOK 10/M00 Q1016 NOSIG,1,0,0,9999,0,0,0,
2026-04-13 00:00:00,METAR LZIB 130000Z 07005KT CAVOK 10/00 Q1016 NOSIG,1,0,0,9999,0,0,0,
2026-04-12 23:30:00,METAR LZIB 122330Z 05004KT CAVOK 10/01 Q1017 NOSIG,1,0,0,9999,0,0,0,
2026-04-12 23:00:00,METAR LZIB 122300Z 06004KT CAVOK 09/01 Q1017 NOSIG,1,0,0,9999,0,0,0,
2026-04-12 22:30:00,METAR LZIB 122230Z 06005KT CAVOK 09/00 Q1016 NOSIG,1,0,0,9999,0,0,0,
2026-04-12 22:00:00,METAR LZIB 122200Z 09004KT CAVOK 10/00 Q1016 NOSIG,1,0,0,9999,0,0,0,
2026-04-12 21:30:00,METAR LZIB 122130Z 08006KT CAVOK 10/00 Q1016 NOSIG,1,0,0,9999,0,0,0,
2026-04-12 21:00:00,METAR LZIB 122100Z 09007KT CAVOK 11/01 Q1016 NOSIG,1,0,0,9999,0,0,0,
2026-04-12 20:30:00,METAR LZIB 122030Z 10008KT CAVOK 11/01 Q1016 NOSIG,1,0,0,9999,0,0,0,
2026-04-12 20:00:00,METAR LZIB 122000Z 10008KT CAVOK 11/01 Q1017 NOSIG,1,0,0,9999,0,0,0,
2026-04-12 19:30:00,METAR LZIB 121930Z 10008KT CAVOK 12/02 Q1017 NOSIG,1,0,0,9999,0,0,0,
2026-04-12 19:00:00,METAR LZIB 121900Z 09008KT CAVOK 12/02 Q1016 NOSIG,1,0,0,9999,0,0,0,
2026-04-12 18:30:00,METAR LZIB 121830Z 09007KT CAVOK 12/02 Q1016 NOSIG,1,0,0,9999,0,0,0,
2026-04-12 18:00:00,METAR LZIB 121800Z 09007KT CAVOK 13/02 Q1016 NOSIG,1,0,0,9999,0,0,0,
2026-04-12 17:30:00,METAR LZIB 121730Z 10007KT CAVOK 14/02 Q1016 NOSIG,1,0,0,9999,0,0,0,
2026-04-12 17:00:00,METAR LZIB 121700Z 11010KT CAVOK 15/03 Q1016 NOSIG,1,0,0,9999,0,0,0,
2026-04-12 16:30:00,METAR LZIB 121630Z 10010KT CAVOK 15/03 Q1016 NOSIG,1,0,0,9999,0,0,0,
2026-04-12 16:00:00,METAR LZIB 121600Z 11010KT CAVOK 15/03 Q1016 NOSIG,1,0,0,9999,0,0,0,
2026-04-12 15:00:00,METAR LZIB 121500Z 13009KT 100V160 CAVOK 16/03 Q1016 NOSIG,1,0,0,9999,0,0,0,
2026-04-12 14:30:00,METAR LZIB 121430Z 12011KT CAVOK 16/01 Q1016 NOSIG,1,0,0,9999,0,0,0,
2026-04-12 14:00:00,METAR LZIB 121400Z 14009KT 100V180 CAVOK 16/01 Q1016 NOSIG,1,0,0,9999,0,0,0,
2026-04-12 13:30:00,METAR LZIB 121330Z 14010KT CAVOK 16/03 Q1017 NOSIG,1,0,0,9999,0,0,0,
2026-04-12 13:00:00,METAR LZIB 121300Z 12012KT CAVOK 15/03 Q1017 NOSIG,1,0,0,9999,0,0,0,
2026-04-12 12:30:00,METAR LZIB 121230Z 13010KT CAVOK 15/02 Q1017 NOSIG,1,0,0,9999,0,0,0,
2026-04-12 12:00:00,METAR LZIB 121200Z 12012KT CAVOK 14/02 Q1017 NOSIG,1,0,0,9999,0,0,0,
2026-04-12 11:30:00,METAR LZIB 121130Z 12011KT CAVOK 13/02 Q1018 NOSIG,1,0,0,9999,0,0,0,
2026-04-12 11:00:00,METAR LZIB 121100Z 11011KT 080V140 CAVOK 12/02 Q1018 NOSIG,1,0,0,9999,0,0,0,
2026-04-12 10:30:00,METAR LZIB 121030Z 11009KT CAVOK 12/02 Q1018 NOSIG,1,0,0,9999,0,0,0,
2026-04-12 10:00:00,METAR LZIB 121000Z 10008KT CAVOK 11/01 Q1019 NOSIG,1,0,0,9999,0,0,0,
2026-04-12 09:30:00,METAR LZIB 120930Z 08009KT 9999 BKN049 10/00 Q1019 BECMG 14012KT,0,9,0,10000,0,0,0,
2026-04-12 09:00:00,METAR LZIB 120900Z 08008KT 9999 BKN049 09/M01 Q1019 BECMG 14012KT,0,8,0,10000,0,0,0,
2026-04-12 08:30:00,METAR LZIB 120830Z 07008KT 9999 OVC049 08/M01 Q1019 BECMG 14012KT,0,8,0,10000,0,0,0,
2026-04-12 08:00:00,METAR LZIB 120800Z 08009KT 9999 BKN047 08/M02 Q1019 NOSIG,0,9,0,10000,0,0,0,
2026-04-12 07:30:00,METAR LZIB 120730Z 06010KT 9999 BKN048 07/M03 Q1019 NOSIG,0,10,0,10000,0,0,0,
2026-04-12 07:00:00,METAR LZIB 120700Z 05010KT 9999 BKN048 07/M03 Q1019 NOSIG,0,10,0,10000,0,0,0,
2026-04-12 06:30:00,METAR LZIB 120630Z 05010KT 020V080 CAVOK 06/M04 Q1019 NOSIG,1,0,0,9999,0,0,0,
2026-04-12 06:00:00,METAR LZIB 120600Z 05009KT CAVOK 06/M03 Q1019 NOSIG,1,0,0,9999,0,0,0,
2026-04-12 05:30:00,METAR LZIB 120530Z 04011KT CAVOK 06/M04 Q1018 NOSIG,1,0,0,9999,0,0,0,
2026-04-12 05:00:00,METAR LZIB 120500Z 03010KT CAVOK 05/M04 Q1019 NOSIG,1,0,0,9999,0,0,0,
2026-04-12 04:30:00,METAR LZIB 120430Z 03010KT CAVOK 05/M03 Q1019 NOSIG,1,0,0,9999,0,0,0,
2026-04-12 04:00:00,METAR LZIB 120400Z 04009KT CAVOK 04/M03 Q1018 NOSIG,1,0,0,9999,0,0,0,
2026-04-12 03:30:00,METAR LZIB 120330Z 03009KT CAVOK 04/M03 Q1018 NOSIG,1,0,0,9999,0,0,0,
2026-04-12 03:00:00,METAR LZIB 120300Z 04008KT CAVOK 05/M03 Q1018 NOSIG,1,0,0,9999,0,0,0,
2026-04-12 02:30:00,METAR LZIB 120230Z 03008KT CAVOK 05/M03 Q1018 NOSIG,1,0,0,9999,0,0,0,
2026-04-12 02:00:00,METAR LZIB 120200Z 02008KT CAVOK 04/M03 Q1018 NOSIG,1,0,0,9999,0,0,0,
2026-04-12 01:30:00,METAR LZIB 120130Z 03008KT CAVOK 05/M03 Q1018 NOSIG,1,0,0,9999,0,0,0,
2026-04-12 01:00:00,METAR LZIB 120100Z 03008KT CAVOK 05/M04 Q1018 NOSIG,1,0,0,9999,0,0,0,
2026-04-12 00:30:00,METAR LZIB 120030Z 03006KT CAVOK 05/M04 Q1017 NOSIG,1,0,0,9999,0,0,0,
2026-04-12 00:00:00,METAR LZIB 120000Z 04005KT CAVOK 04/M04 Q1018 NOSIG,1,0,0,9999,0,0,0,
2026-04-11 23:30:00,METAR LZIB 112330Z 03005KT CAVOK 05/M04 Q1018 NOSIG,1,0,0,9999,0,0,0,
2026-04-11 23:00:00,METAR LZIB 112300Z 04005KT CAVOK 05/M04 Q1018 NOSIG,1,0,0,9999,0,0,0,
2026-04-11 22:30:00,METAR LZIB 112230Z 03006KT CAVOK 05/M03 Q1018 NOSIG,1,0,0,9999,0,0,0,
2026-04-11 22:00:00,METAR LZIB 112200Z 03007KT CAVOK 06/M03 Q1018 NOSIG,1,0,0,9999,0,0,0,
2026-04-11 21:30:00,METAR LZIB 112130Z 02004KT CAVOK 06/M03 Q1018 NOSIG,1,0,0,9999,0,0,0,
2026-04-11 21:00:00,METAR LZIB 112100Z 01002KT CAVOK 06/M03 Q1018 NOSIG,1,0,0,9999,0,0,0,
2026-04-11 20:30:00,METAR LZIB 112030Z 03004KT CAVOK 07/M03 Q1018 NOSIG,1,0,0,9999,0,0,0,
2026-04-11 20:00:00,METAR LZIB 112000Z 35004KT CAVOK 08/M03 Q1017 NOSIG,1,0,0,9999,0,0,0,
2026-04-11 19:30:00,METAR LZIB 111930Z 02004KT CAVOK 08/M03 Q1017 NOSIG,1,0,0,9999,0,0,0,
2026-04-11 19:00:00,METAR LZIB 111900Z 34005KT CAVOK 10/M03 Q1017 NOSIG,1,0,0,9999,0,0,0,
2026-04-11 18:30:00,METAR LZIB 111830Z 04005KT CAVOK 10/M04 Q1017 NOSIG,1,0,0,9999,0,0,0,
2026-04-11 18:00:00,METAR LZIB 111800Z 05007KT CAVOK 10/M04 Q1016 NOSIG,1,0,0,9999,0,0,0,
2026-04-11 17:30:00,METAR LZIB 111730Z 06008KT CAVOK 11/M04 Q1016 NOSIG,1,0,0,9999,0,0,0,
2026-04-11 17:00:00,METAR LZIB 111700Z 07005KT 040V120 CAVOK 13/M02 Q1016 NOSIG,1,0,0,9999,0,0,0,
2026-04-11 16:30:00,METAR LZIB 111630Z 11003KT CAVOK 14/M02 Q1016 NOSIG,1,0,0,9999,0,0,0,
2026-04-11 16:00:00,METAR LZIB 111600Z 12003KT 090V200 CAVOK 14/M01 Q1016 NOSIG,1,0,0,9999,0,0,0,
2026-04-11 15:30:00,METAR LZIB 111530Z VRB02KT CAVOK 15/M01 Q1016 NOSIG,1,0,0,9999,0,0,0,
2026-04-11 15:00:00,METAR LZIB 111500Z VRB03KT CAVOK 14/M02 Q1016 NOSIG,1,0,0,9999,0,0,0,
2026-04-11 14:30:00,METAR LZIB 111430Z VRB04KT CAVOK 15/M01 Q1016 NOSIG,1,0,0,9999,0,0,0,
2026-04-11 14:00:00,METAR LZIB 111400Z VRB03KT CAVOK 15/M01 Q1016 NOSIG,1,0,0,9999,0,0,0,
2026-04-11 13:30:00,METAR LZIB 111330Z 19005KT 110V250 CAVOK 15/M01 Q1017 NOSIG,1,0,0,9999,0,0,0,
2026-04-11 13:00:00,METAR LZIB 111300Z 18003KT 130V240 CAVOK 14/M01 Q1017 NOSIG,1,0,0,9999,0,0,0,
2026-04-11 12:30:00,METAR LZIB 111230Z VRB04KT CAVOK 14/M01 Q1017 NOSIG,1,0,0,9999,0,0,0,
2026-04-11 12:00:00,METAR LZIB 111200Z VRB01KT CAVOK 13/M01 Q1017 NOSIG,1,0,0,9999,0,0,0,
2026-04-11 11:30:00,METAR LZIB 111130Z VRB05KT CAVOK 13/M01 Q1018 NOSIG,1,0,0,9999,0,0,0,
2026-04-11 11:00:00,METAR LZIB 111100Z VRB02KT CAVOK 12/M01 Q1018 NOSIG,1,0,0,9999,0,0,0,
2026-04-11 10:30:00,METAR LZIB 111030Z 33004KT 240V020 CAVOK 13/M01 Q1018 NOSIG,1,0,0,9999,0,0,0,
2026-04-11 10:00:00,METAR LZIB 111000Z VRB03KT CAVOK 12/M02 Q1018 NOSIG,1,0,0,9999,0,0,0,
2026-04-11 09:30:00,METAR LZIB 110930Z VRB03KT CAVOK 11/M03 Q1019 NOSIG,1,0,0,9999,0,0,0,
2026-04-11 09:00:00,METAR LZIB 110900Z 07003KT 340V150 CAVOK 11/M01 Q1018 NOSIG,1,0,0,9999,0,0,0,
2026-04-11 08:30:00,METAR LZIB 110830Z 05003KT 320V120 CAVOK 10/M02 Q1019 NOSIG,1,0,0,9999,0,0,0,
2026-04-11 08:00:00,METAR LZIB 110800Z 32003KT 260V030 CAVOK 10/M02 Q1019 NOSIG,1,0,0,9999,0,0,0,
2026-04-11 07:30:00,METAR LZIB 110730Z VRB02KT CAVOK 09/M01 Q1019 NOSIG,1,0,0,9999,0,0,0,
2026-04-11 07:00:00,METAR LZIB 110700Z 36005KT 300V060 CAVOK 08/M01 Q1019 NOSIG,1,0,0,9999,0,0,0,
2026-04-11 06:30:00,METAR LZIB 110630Z 31005KT 260V330 CAVOK 07/M00 Q1019 NOSIG,1,0,0,9999,0,0,0,
2026-04-11 05:30:00,METAR LZIB 110530Z 30006KT CAVOK 05/01 Q1019 NOSIG,1,0,0,9999,0,0,0,
2026-04-11 05:00:00,METAR LZIB 110500Z 29008KT 9999 FEW015 05/01 Q1019 NOSIG,0,8,0,10000,0,0,0,
2026-04-11 04:30:00,METAR LZIB 110430Z 28006KT 9999 FEW014 04/01 Q1018 NOSIG,0,6,0,10000,0,0,0,
2026-04-11 04:00:00,METAR LZIB 110400Z 28006KT CAVOK 04/01 Q1018 NOSIG,1,0,0,9999,0,0,0,
2026-04-11 03:30:00,METAR LZIB 110330Z 30007KT CAVOK 04/01 Q1018 NOSIG,1,0,0,9999,0,0,0,
2026-04-11 03:00:00,METAR LZIB 110300Z 29006KT CAVOK 05/01 Q1018 NOSIG,1,0,0,9999,0,0,0,
2026-04-11 02:30:00,METAR LZIB 110230Z 28006KT CAVOK 05/01 Q1018 NOSIG,1,0,0,9999,0,0,0,
2026-04-11 02:00:00,METAR LZIB 110200Z 28003KT CAVOK 05/01 Q1018 NOSIG,1,0,0,9999,0,0,0,
2026-04-11 01:30:00,METAR LZIB 110130Z 32004KT 9999 BKN049 05/01 Q1018 NOSIG,0,4,0,10000,0,0,0,
2026-04-11 01:00:00,METAR LZIB 110100Z 31008KT 9999 BKN049 05/01 Q1018 NOSIG,0,8,0,10000,0,0,0,
2026-04-11 00:30:00,METAR LZIB 110030Z 30010KT 9999 BKN045 05/01 Q1018 NOSIG,0,10,0,10000,0,0,0,
2026-04-11 00:00:00,METAR LZIB 110000Z 29007KT 9999 OVC045 05/01 Q1018 NOSIG,0,7,0,10000,0,0,0,
2026-04-10 23:30:00,METAR LZIB 102330Z 29007KT 9999 BKN045 05/01 Q1019 NOSIG,0,7,0,10000,0,0,0,
2026-04-10 23:00:00,METAR LZIB 102300Z 29009KT 9999 BKN045 05/01 Q1019 NOSIG,0,9,0,10000,0,0,0,
2026-04-10 22:30:00,METAR LZIB 102230Z 28009KT 9999 SCT044 05/01 Q1018 NOSIG,0,9,0,10000,0,0,0,
2026-04-10 22:00:00,METAR LZIB 102200Z 30008KT 9999 BKN045 06/01 Q1018 NOSIG,0,8,0,10000,0,0,0,
2026-04-10 21:30:00,METAR LZIB 102130Z 30008KT 9999 BKN043 06/01 Q1019 NOSIG,0,8,0,10000,0,0,0,
2026-04-10 21:00:00,METAR LZIB 102100Z 28007KT 9999 OVC045 06/01 Q1019 NOSIG,0,7,0,10000,0,0,0,
2026-04-10 20:30:00,METAR LZIB 102030Z 26006KT 9999 OVC043 06/01 Q1018 NOSIG,0,6,0,10000,0,0,0,
2026-04-10 20:00:00,METAR LZIB 102000Z 26005KT 9999 OVC043 06/01 Q1019 NOSIG,0,5,0,10000,0,0,0,
2026-04-10 19:30:00,METAR LZIB 101930Z 29003KT 9999 OVC045 06/01 Q1019 NOSIG,0,3,0,10000,0,0,0,
2026-04-10 19:00:00,METAR LZIB 101900Z 26003KT 240V300 9999 OVC047 06/01 Q1019 NOSIG,0,3,0,10000,0,0,0,
2026-04-10 18:30:00,METAR LZIB 101830Z 00000KT CAVOK 06/01 Q1018 NOSIG,1,0,0,9999,0,0,0,
2026-04-10 18:00:00,METAR LZIB 101800Z 24004KT CAVOK 06/00 Q1018 NOSIG,1,0,0,9999,0,0,0,
2026-04-10 17:30:00,METAR LZIB 101730Z 23002KT CAVOK 06/00 Q1018 NOSIG,1,0,0,9999,0,0,0,
2026-04-10 17:00:00,METAR LZIB 101700Z 23005KT CAVOK 06/M01 Q1017 NOSIG,1,0,0,9999,0,0,0,
2026-04-10 16:30:00,METAR LZIB 101630Z 23009KT 9999 FEW030 06/01 Q1017 NOSIG,0,9,0,10000,0,0,0,
2026-04-10 16:00:00,METAR LZIB 101600Z 22009KT 9999 FEW043 07/01 Q1017 NOSIG,0,9,0,10000,0,0,0,
2026-04-10 15:30:00,METAR LZIB 101530Z 25009KT 9999 FEW043 07/00 Q1017 NOSIG,0,9,0,10000,0,0,0,
2026-04-10 15:00:00,METAR LZIB 101500Z 22012KT 9999 FEW043 07/00 Q1018 NOSIG,0,12,0,10000,0,0,0,
2026-04-10 14:30:00,METAR LZIB 101430Z 19005KT 9999 FEW043 08/M02 Q1018 NOSIG,0,5,0,10000,0,0,0,
2026-04-10 14:00:00,METAR LZIB 101400Z VRB02KT 9999 FEW043 08/M02 Q1018 NOSIG,0,2,0,10000,0,0,0,
2026-04-10 13:30:00,METAR LZIB 101330Z VRB02KT 9999 FEW043 08/M02 Q1018 NOSIG,0,2,0,10000,0,0,0,
2026-04-10 13:00:00,METAR LZIB 101300Z VRB03KT 9999 FEW035 07/M02 Q1018 NOSIG,0,3,0,10000,0,0,0,
2026-04-10 12:30:00,METAR LZIB 101230Z 00000KT 9999 FEW035 07/M01 Q1018 NOSIG,0,0,0,10000,0,0,0,
2026-04-10 12:00:00,METAR LZIB 101200Z VRB03KT 9999 FEW034 07/M01 Q1019 NOSIG,0,3,0,10000,0,0,0,
2026-04-10 11:30:00,METAR LZIB 101130Z 00000KT 9999 FEW033 07/M01 Q1018 NOSIG,0,0,0,10000,0,0,0,
2026-04-10 11:00:00,METAR LZIB 101100Z VRB02KT 9999 FEW030 07/M01 Q1019 NOSIG,0,2,0,10000,0,0,0,
2026-04-10 10:30:00,METAR LZIB 101030Z VRB02KT 9999 FEW030 07/M01 Q1019 NOSIG,0,2,0,10000,0,0,0,
2026-04-10 10:00:00,METAR LZIB 101000Z VRB03KT 9999 FEW032 07/M01 Q1019 NOSIG,0,3,0,10000,0,0,0,
2026-04-10 09:30:00,METAR LZIB 100930Z VRB04KT 9999 FEW026 06/M01 Q1019 NOSIG,0,4,0,10000,0,0,0,
2026-04-10 09:00:00,METAR LZIB 100900Z 11005KT 060V170 9999 FEW026 06/M01 Q1019 NOSIG,0,5,0,10000,0,0,0,
2026-04-10 08:30:00,METAR LZIB 100830Z 09004KT 040V130 9999 FEW028 06/M00 Q1019 NOSIG,0,4,0,10000,0,0,0,
2026-04-10 08:00:00,METAR LZIB 100800Z 08006KT 050V120 CAVOK 05/M01 Q1019 NOSIG,1,0,0,9999,0,0,0,
2026-04-10 07:30:00,METAR LZIB 100730Z 08005KT 050V110 CAVOK 04/M01 Q1019 NOSIG,1,0,0,9999,0,0,0,
2026-04-10 07:00:00,METAR LZIB 100700Z 07006KT 040V100 CAVOK 03/M02 Q1019 NOSIG,1,0,0,9999,0,0,0,
2026-04-10 06:30:00,METAR LZIB 100630Z 05007KT CAVOK 03/M03 Q1019 NOSIG,1,0,0,9999,0,0,0,
2026-04-10 06:00:00,METAR LZIB 100600Z 03006KT CAVOK 02/M03 Q1019 NOSIG,1,0,0,9999,0,0,0,
2026-04-10 05:30:00,METAR LZIB 100530Z 03007KT CAVOK 01/M04 Q1019 NOSIG,1,0,0,9999,0,0,0,
2026-04-10 05:00:00,METAR LZIB 100500Z 03008KT CAVOK 00/M04 Q1019 NOSIG,1,0,0,9999,0,0,0,
2026-04-10 04:30:00,METAR LZIB 100430Z 03006KT CAVOK M01/M05 Q1019 NOSIG,1,0,0,9999,0,0,0,
2026-04-10 04:00:00,METAR LZIB 100400Z 03006KT CAVOK M01/M06 Q1019 NOSIG,1,0,0,9999,0,0,0,
2026-04-10 03:30:00,METAR LZIB 100330Z 03005KT CAVOK M01/M06 Q1018 NOSIG,1,0,0,9999,0,0,0,
2026-04-10 03:00:00,METAR LZIB 100300Z 03006KT CAVOK M01/M06 Q1018 NOSIG,1,0,0,9999,0,0,0,
2026-04-10 02:30:00,METAR LZIB 100230Z 03004KT CAVOK M00/M06 Q1019 NOSIG,1,0,0,9999,0,0,0,
2026-04-10 02:00:00,METAR LZIB 100200Z 03004KT CAVOK 00/M05 Q1019 NOSIG,1,0,0,9999,0,0,0,
2026-04-10 01:30:00,METAR LZIB 100130Z 36004KT CAVOK 00/M05 Q1019 NOSIG,1,0,0,9999,0,0,0,
2026-04-10 01:00:00,METAR LZIB 100100Z 03005KT CAVOK 01/M05 Q1019 NOSIG,1,0,0,9999,0,0,0,
2026-04-10 00:30:00,METAR LZIB 100030Z 05002KT CAVOK 02/M05 Q1019 NOSIG,1,0,0,9999,0,0,0,
2026-04-10 00:00:00,METAR LZIB 100000Z 05004KT 340V100 CAVOK 01/M05 Q1019 NOSIG,1,0,0,9999,0,0,0,
2026-04-09 23:30:00,METAR LZIB 092330Z VRB02KT CAVOK 02/M05 Q1019 NOSIG,1,0,0,9999,0,0,0,
2026-04-09 23:00:00,METAR LZIB 092300Z 05004KT 010V070 CAVOK 02/M05 Q1019 NOSIG,1,0,0,9999,0,0,0,
2026-04-09 22:30:00,METAR LZIB 092230Z 03007KT CAVOK 02/M05 Q1019 NOSIG,1,0,0,9999,0,0,0,
2026-04-09 22:00:00,METAR LZIB 092200Z 03009KT CAVOK 04/M05 Q1019 NOSIG,1,0,0,9999,0,0,0,
2026-04-09 21:30:00,METAR LZIB 092130Z 03007KT CAVOK 04/M06 Q1019 NOSIG,1,0,0,9999,0,0,0,
2026-04-09 21:00:00,METAR LZIB 092100Z 03004KT CAVOK 05/M07 Q1018 NOSIG,1,0,0,9999,0,0,0,
2026-04-09 20:30:00,METAR LZIB 092030Z 03009KT CAVOK 06/M07 Q1018 NOSIG,1,0,0,9999,0,0,0,
2026-04-09 20:00:00,METAR LZIB 092000Z 04008KT CAVOK 06/M06 Q1018 NOSIG,1,0,0,9999,0,0,0,
2026-04-09 19:30:00,METAR LZIB 091930Z 03009KT CAVOK 07/M06 Q1018 NOSIG,1,0,0,9999,0,0,0,
2026-04-09 19:00:00,METAR LZIB 091900Z 04011KT CAVOK 08/M05 Q1017 NOSIG,1,0,0,9999,0,0,0,
2026-04-09 18:30:00,METAR LZIB 091830Z 04012KT CAVOK 09/M05 Q1017 NOSIG,1,0,0,9999,0,0,0,
2026-04-09 18:00:00,METAR LZIB 091800Z 04010KT CAVOK 10/M04 Q1017 NOSIG,1,0,0,9999,0,0,0,
2026-04-09 17:30:00,METAR LZIB 091730Z 04011KT CAVOK 10/M03 Q1017 NOSIG,1,0,0,9999,0,0,0,
2026-04-09 17:00:00,METAR LZIB 091700Z 02008KT CAVOK 12/M03 Q1016 NOSIG,1,0,0,9999,0,0,0,
2026-04-09 16:30:00,METAR LZIB 091630Z 36008KT CAVOK 13/M04 Q1016 NOSIG,1,0,0,9999,0,0,0,
2026-04-09 16:00:00,METAR LZIB 091600Z 34010KT 290V010 CAVOK 13/M04 Q1017 NOSIG,1,0,0,9999,0,0,0,
2026-04-09 15:30:00,METAR LZIB 091530Z 32013KT 300V360 CAVOK 14/M05 Q1017 NOSIG,1,0,0,9999,0,0,0,
2026-04-09 15:00:00,METAR LZIB 091500Z 31014KT CAVOK 14/M05 Q1017 NOSIG,1,0,0,9999,0,0,0,
2026-04-09 14:30:00,METAR LZIB 091430Z 30015KT CAVOK 14/M04 Q1017 NOSIG,1,0,0,9999,0,0,0,
2026-04-09 14:00:00,METAR LZIB 091400Z 32012KT 290V350 CAVOK 14/M04 Q1018 NOSIG,1,0,0,9999,0,0,0,
2026-04-09 13:30:00,METAR LZIB 091330Z 33014KT CAVOK 14/M04 Q1018 NOSIG,1,0,0,9999,0,0,0,
2026-04-09 13:00:00,METAR LZIB 091300Z 31011KT 280V350 CAVOK 13/M06 Q1018 NOSIG,1,0,0,9999,0,0,0,
2026-04-09 12:30:00,METAR LZIB 091230Z 31012KT CAVOK 13/M05 Q1019 NOSIG,1,0,0,9999,0,0,0,
2026-04-09 12:00:00,METAR LZIB 091200Z 32013KT 290V350 CAVOK 13/M04 Q1019 NOSIG,1,0,0,9999,0,0,0,
2026-04-09 11:30:00,METAR LZIB 091130Z 34011KT 290V020 CAVOK 13/M04 Q1019 NOSIG,1,0,0,9999,0,0,0,
2026-04-09 11:00:00,METAR LZIB 091100Z 33013KT CAVOK 12/M03 Q1020 NOSIG,1,0,0,9999,0,0,0,
2026-04-09 10:30:00,METAR LZIB 091030Z 34012KT 310V010 CAVOK 12/M04 Q1020 NOSIG,1,0,0,9999,0,0,0,
2026-04-09 10:00:00,METAR LZIB 091000Z 33015KT CAVOK 11/M02 Q1021 NOSIG,1,0,0,9999,0,0,0,
2026-04-09 09:30:00,METAR LZIB 090930Z 34011KT 300V010 9999 SCT048 11/M01 Q1021 NOSIG,0,11,0,10000,0,0,0,
2026-04-09 09:00:00,METAR LZIB 090900Z 34013KT 9999 SCT044 10/M02 Q1021 NOSIG,0,13,0,10000,0,0,0,
2026-04-09 08:30:00,METAR LZIB 090830Z 35012KT 310V020 9999 FEW044 10/M01 Q1022 NOSIG,0,12,0,10000,0,0,0,
2026-04-09 08:00:00,METAR LZIB 090800Z 34010KT 9999 FEW045 09/M01 Q1022 NOSIG,0,10,0,10000,0,0,0,
2026-04-09 07:30:00,METAR LZIB 090730Z 31012KT 9999 FEW045 09/M02 Q1022 NOSIG,0,12,0,10000,0,0,0,
2026-04-09 07:00:00,METAR LZIB 090700Z 32012KT 9999 FEW037 08/M01 Q1022 NOSIG,0,12,0,10000,0,0,0,
2026-04-09 06:30:00,METAR LZIB 090630Z 31009KT CAVOK 07/M01 Q1022 NOSIG,1,0,0,9999,0,0,0,
2026-04-09 06:00:00,METAR LZIB 090600Z 30008KT CAVOK 06/M01 Q1022 NOSIG,1,0,0,9999,0,0,0,
2026-04-09 05:30:00,METAR LZIB 090530Z 30005KT CAVOK 05/M01 Q1022 NOSIG,1,0,0,9999,0,0,0,
2026-04-09 05:00:00,METAR LZIB 090500Z 29006KT CAVOK 04/M02 Q1022 NOSIG,1,0,0,9999,0,0,0,
2026-04-09 04:30:00,METAR LZIB 090430Z 29004KT CAVOK 03/M02 Q1023 NOSIG,1,0,0,9999,0,0,0,
2026-04-09 04:00:00,METAR LZIB 090400Z 27004KT CAVOK 03/M02 Q1023 NOSIG,1,0,0,9999,0,0,0,
2026-04-09 03:30:00,METAR LZIB 090330Z 29005KT CAVOK 03/M02 Q1023 NOSIG,1,0,0,9999,0,0,0,
2026-04-09 03:00:00,METAR LZIB 090300Z 29006KT CAVOK 03/M02 Q1023 NOSIG,1,0,0,9999,0,0,0,
2026-04-09 02:30:00,METAR LZIB 090230Z 29009KT CAVOK 04/M02 Q1023 NOSIG,1,0,0,9999,0,0,0,
2026-04-09 02:00:00,METAR LZIB 090200Z 29008KT CAVOK 04/M02 Q1023 NOSIG,1,0,0,9999,0,0,0,
2026-04-09 01:30:00,METAR LZIB 090130Z 29006KT CAVOK 04/M02 Q1024 NOSIG,1,0,0,9999,0,0,0,
2026-04-09 01:00:00,METAR LZIB 090100Z 25005KT 220V290 CAVOK 05/M03 Q1024 NOSIG,1,0,0,9999,0,0,0,
2026-04-09 00:30:00,METAR LZIB 090030Z 32005KT 220V010 CAVOK 04/M03 Q1024 NOSIG,1,0,0,9999,0,0,0,
2026-04-09 00:00:00,METAR LZIB 090000Z 06005KT 020V080 CAVOK 04/M02 Q1024 NOSIG,1,0,0,9999,0,0,0,
2026-04-08 23:30:00,METAR LZIB 082330Z 36008KT CAVOK 05/M03 Q1024 NOSIG,1,0,0,9999,0,0,0,
2026-04-08 23:00:00,METAR LZIB 082300Z 36012KT CAVOK 05/M02 Q1024 NOSIG,1,0,0,9999,0,0,0,
2026-04-08 22:30:00,METAR LZIB 082230Z 01011KT CAVOK 05/M02 Q1024 NOSIG,1,0,0,9999,0,0,0,
2026-04-08 22:00:00,METAR LZIB 082200Z 02014KT CAVOK 06/M02 Q1024 NOSIG,1,0,0,9999,0,0,0,
2026-04-08 21:30:00,METAR LZIB 082130Z 03013KT CAVOK 06/M02 Q1024 NOSIG,1,0,0,9999,0,0,0,
2026-04-08 21:00:00,METAR LZIB 082100Z 03013KT CAVOK 06/M02 Q1024 NOSIG,1,0,0,9999,0,0,0,
2026-04-08 20:30:00,METAR LZIB 082030Z 04010KT CAVOK 05/M02 Q1024 NOSIG,1,0,0,9999,0,0,0,
2026-04-08 20:00:00,METAR LZIB 082000Z 04009KT CAVOK 06/M02 Q1025 NOSIG,1,0,0,9999,0,0,0,
2026-04-08 19:30:00,METAR LZIB 081930Z 04010KT CAVOK 06/M02 Q1025 NOSIG,1,0,0,9999,0,0,0,
2026-04-08 19:00:00,METAR LZIB 081900Z 04011KT CAVOK 07/M02 Q1024 NOSIG,1,0,0,9999,0,0,0,
2026-04-08 18:30:00,METAR LZIB 081830Z 02013KT CAVOK 08/M02 Q1024 NOSIG,1,0,0,9999,0,0,0,
2026-04-08 18:00:00,METAR LZIB 081800Z 02013KT CAVOK 09/M02 Q1023 NOSIG,1,0,0,9999,0,0,0,
2026-04-08 17:30:00,METAR LZIB 081730Z 01012KT CAVOK 10/M02 Q1023 NOSIG,1,0,0,9999,0,0,0,
2026-04-08 17:00:00,METAR LZIB 081700Z 36014KT CAVOK 11/M03 Q1023 NOSIG,1,0,0,9999,0,0,0,
2026-04-08 16:30:00,METAR LZIB 081630Z 33012KT CAVOK 13/M04 Q1023 NOSIG,1,0,0,9999,0,0,0,
2026-04-08 16:00:00,METAR LZIB 081600Z 34016KT CAVOK 13/M04 Q1022 NOSIG,1,0,0,9999,0,0,0,
2026-04-08 15:30:00,METAR LZIB 081530Z 34014KT CAVOK 12/M03 Q1022 NOSIG,1,0,0,9999,0,0,0,
2026-04-08 15:00:00,METAR LZIB 081500Z 32016KT CAVOK 13/M04 Q1022 NOSIG,1,0,0,9999,0,0,0,
2026-04-08 14:30:00,METAR LZIB 081430Z 35018KT CAVOK 14/M03 Q1023 NOSIG,1,0,0,9999,0,0,0,
2026-04-08 14:00:00,METAR LZIB 081400Z 34014KT 300V010 CAVOK 13/M03 Q1023 NOSIG,1,0,0,9999,0,0,0,
2026-04-08 13:30:00,METAR LZIB 081330Z 34015KT CAVOK 14/M04 Q1023 NOSIG,1,0,0,9999,0,0,0,
2026-04-08 13:00:00,METAR LZIB 081300Z 33013KT 290V020 CAVOK 13/M03 Q1024 NOSIG,1,0,0,9999,0,0,0,
2026-04-08 12:30:00,METAR LZIB 081230Z 35015KT 300V030 CAVOK 13/M03 Q1024 NOSIG,1,0,0,9999,0,0,0,
2026-04-08 12:00:00,METAR LZIB 081200Z 32011KT 290V360 CAVOK 13/M03 Q1024 NOSIG,1,0,0,9999,0,0,0,
2026-04-08 11:30:00,METAR LZIB 081130Z 34011KT 300V030 CAVOK 12/M04 Q1024 NOSIG,1,0,0,9999,0,0,0,
2026-04-08 11:00:00,METAR LZIB 081100Z 33012KT 310V010 CAVOK 11/M04 Q1025 NOSIG,1,0,0,9999,0,0,0,
2026-04-08 10:30:00,METAR LZIB 081030Z 34013KT 290V020 CAVOK 12/M03 Q1025 NOSIG,1,0,0,9999,0,0,0,
2026-04-08 10:00:00,METAR LZIB 081000Z 33012KT CAVOK 11/M04 Q1025 NOSIG,1,0,0,9999,0,0,0,
2026-04-08 09:30:00,METAR LZIB 080930Z 31009KT 280V340 CAVOK 11/M03 Q1026 NOSIG,1,0,0,9999,0,0,0,
2026-04-08 09:00:00,METAR LZIB 080900Z 31008KT 260V350 CAVOK 10/M03 Q1026 NOSIG,1,0,0,9999,0,0,0,
2026-04-08 08:30:00,METAR LZIB 080830Z 30009KT 260V330 9999 FEW043 10/M02 Q1026 NOSIG,0,9,0,10000,0,0,0,
2026-04-08 08:00:00,METAR LZIB 080800Z 35009KT 310V020 9999 FEW041 09/M02 Q1027 NOSIG,0,9,0,10000,0,0,0,
2026-04-08 07:30:00,METAR LZIB 080730Z 33013KT 9999 FEW040 08/M03 Q1027 NOSIG,0,13,0,10000,0,0,0,
2026-04-08 07:00:00,METAR LZIB 080700Z 33012KT CAVOK 07/M03 Q1026 NOSIG,1,0,0,9999,0,0,0,
2026-04-08 06:30:00,METAR LZIB 080630Z 32009KT 290V350 CAVOK 07/M03 Q1026 NOSIG,1,0,0,9999,0,0,0,
2026-04-08 06:00:00,METAR LZIB 080600Z 29008KT CAVOK 06/M03 Q1027 NOSIG,1,0,0,9999,0,0,0,
2026-04-08 05:30:00,METAR LZIB 080530Z 29009KT CAVOK 05/M03 Q1026 NOSIG,1,0,0,9999,0,0,0,
2026-04-08 05:00:00,METAR LZIB 080500Z 29009KT CAVOK 05/M03 Q1026 NOSIG,1,0,0,9999,0,0,0,
2026-04-08 04:30:00,METAR LZIB 080430Z 30007KT CAVOK 05/M03 Q1026 NOSIG,1,0,0,9999,0,0,0,
2026-04-08 04:00:00,METAR LZIB 080400Z 28009KT CAVOK 05/M03 Q1026 NOSIG,1,0,0,9999,0,0,0,
2026-04-08 03:30:00,METAR LZIB 080330Z 28006KT CAVOK 05/M03 Q1025 NOSIG,1,0,0,9999,0,0,0,
2026-04-08 03:00:00,METAR LZIB 080300Z 29007KT CAVOK 05/M03 Q1025 NOSIG,1,0,0,9999,0,0,0,
2026-04-08 02:30:00,METAR LZIB 080230Z 30005KT CAVOK 06/M03 Q1025 NOSIG,1,0,0,9999,0,0,0,
2026-04-08 02:00:00,METAR LZIB 080200Z 32007KT CAVOK 07/M03 Q1025 NOSIG,1,0,0,9999,0,0,0,
2026-04-08 01:30:00,METAR LZIB 080130Z 34007KT CAVOK 07/M04 Q1024 NOSIG,1,0,0,9999,0,0,0,
2026-04-08 01:00:00,METAR LZIB 080100Z 35009KT CAVOK 07/M04 Q1024 NOSIG,1,0,0,9999,0,0,0,
2026-04-08 00:30:00,METAR LZIB 080030Z 33011KT CAVOK 08/M04 Q1024 NOSIG,1,0,0,9999,0,0,0,
2026-04-08 00:00:00,METAR LZIB 080000Z 33011KT CAVOK 08/M03 Q1024 NOSIG,1,0,0,9999,0,0,0,
2026-04-07 23:30:00,METAR LZIB 072330Z 33011KT CAVOK 08/M04 Q1024 NOSIG,1,0,0,9999,0,0,0,
2026-04-07 23:00:00,METAR LZIB 072300Z 32007KT CAVOK 08/M04 Q1024 NOSIG,1,0,0,9999,0,0,0,
2026-04-07 22:30:00,METAR LZIB 072230Z 36014KT CAVOK 08/M04 Q1023 NOSIG,1,0,0,9999,0,0,0,
2026-04-07 22:00:00,METAR LZIB 072200Z 36010KT CAVOK 08/M04 Q1023 NOSIG,1,0,0,9999,0,0,0,
2026-04-07 21:30:00,METAR LZIB 072130Z 01014KT CAVOK 08/M04 Q1023 NOSIG,1,0,0,9999,0,0,0,
2026-04-07 21:00:00,METAR LZIB 072100Z 01014KT CAVOK 09/M04 Q1023 NOSIG,1,0,0,9999,0,0,0,
2026-04-07 20:30:00,METAR LZIB 072030Z 01016KT CAVOK 10/M03 Q1022 NOSIG,1,0,0,9999,0,0,0,
2026-04-07 20:00:00,METAR LZIB 072000Z 01015KT CAVOK 11/M05 Q1022 NOSIG,1,0,0,9999,0,0,0,
2026-04-07 19:30:00,METAR LZIB 071930Z 34011KT CAVOK 12/M07 Q1021 NOSIG,1,0,0,9999,0,0,0,
2026-04-07 19:00:00,METAR LZIB 071900Z 34012KT CAVOK 12/M08 Q1021 NOSIG,1,0,0,9999,0,0,0,
2026-04-07 18:30:00,METAR LZIB 071830Z 34014KT CAVOK 13/M08 Q1020 NOSIG,1,0,0,9999,0,0,0,
2026-04-07 18:00:00,METAR LZIB 071800Z 34013KT CAVOK 13/M07 Q1020 NOSIG,1,0,0,9999,0,0,0,
2026-04-07 17:30:00,METAR LZIB 071730Z 34012KT CAVOK 14/M09 Q1019 NOSIG,1,0,0,9999,0,0,0,
2026-04-07 17:00:00,METAR LZIB 071700Z 34015KT CAVOK 15/M08 Q1019 NOSIG,1,0,0,9999,0,0,0,
2026-04-07 16:30:00,METAR LZIB 071630Z 34016KT 300V010 CAVOK 16/M06 Q1019 NOSIG,1,0,0,9999,0,0,0,
2026-04-07 16:00:00,METAR LZIB 071600Z 33020KT CAVOK 16/M07 Q1019 NOSIG,1,0,0,9999,0,0,0,
2026-04-07 15:30:00,METAR LZIB 071530Z 34018KT CAVOK 17/M06 Q1019 NOSIG,1,0,0,9999,0,0,0,
2026-04-07 15:00:00,METAR LZIB 071500Z 32017KT CAVOK 17/M05 Q1019 NOSIG,1,0,0,9999,0,0,0,
2026-04-07 14:30:00,METAR LZIB 071430Z 33019KT CAVOK 17/M04 Q1019 NOSIG,1,0,0,9999,0,0,0,
2026-04-07 14:00:00,METAR LZIB 071400Z 31018KT 280V350 CAVOK 17/M04 Q1019 NOSIG,1,0,0,9999,0,0,0,
2026-04-07 13:30:00,METAR LZIB 071330Z 32016G27KT 270V350 CAVOK 17/M03 Q1020 NOSIG,1,0,0,9999,0,0,0,
2026-04-07 13:00:00,METAR LZIB 071300Z 32017G28KT CAVOK 16/M03 Q1020 NOSIG,1,0,0,9999,0,0,0,
2026-04-07 12:30:00,METAR LZIB 071230Z 30014KT CAVOK 16/M02 Q1021 NOSIG,1,0,0,9999,0,0,0,
2026-04-07 12:00:00,METAR LZIB 071200Z 29015G25KT CAVOK 16/M01 Q1021 NOSIG,1,0,0,9999,0,0,0,
2026-04-07 11:30:00,METAR LZIB 071130Z 32015KT CAVOK 15/M02 Q1022 NOSIG,1,0,0,9999,0,0,0,
2026-04-07 11:00:00,METAR LZIB 071100Z 29015KT CAVOK 14/M02 Q1022 NOSIG,1,0,0,9999,0,0,0,
2026-04-07 10:30:00,METAR LZIB 071030Z 30013KT CAVOK 14/M01 Q1023 NOSIG,1,0,0,9999,0,0,0,
2026-04-07 10:00:00,METAR LZIB 071000Z 29013KT CAVOK 14/M02 Q1023 NOSIG,1,0,0,9999,0,0,0,
2026-04-07 09:30:00,METAR LZIB 070930Z 32013KT CAVOK 13/M02 Q1024 NOSIG,1,0,0,9999,0,0,0,
2026-04-07 09:00:00,METAR LZIB 070900Z 30014KT CAVOK 12/M02 Q1024 NOSIG,1,0,0,9999,0,0,0,
2026-04-07 08:30:00,METAR LZIB 070830Z 30013KT 270V330 CAVOK 12/M02 Q1024 NOSIG,1,0,0,9999,0,0,0,
2026-04-07 08:00:00,METAR LZIB 070800Z 32010KT CAVOK 11/M03 Q1024 NOSIG,1,0,0,9999,0,0,0,
2026-04-07 07:30:00,METAR LZIB 070730Z 31010KT 280V340 CAVOK 11/M03 Q1024 NOSIG,1,0,0,9999,0,0,0,
2026-04-07 07:00:00,METAR LZIB 070700Z 31009KT CAVOK 10/M03 Q1024 NOSIG,1,0,0,9999,0,0,0,
2026-04-07 06:30:00,METAR LZIB 070630Z 31008KT CAVOK 10/M02 Q1024 NOSIG,1,0,0,9999,0,0,0,
2026-04-07 06:00:00,METAR LZIB 070600Z 31007KT CAVOK 09/M02 Q1024 NOSIG,1,0,0,9999,0,0,0,
2026-04-07 05:30:00,METAR LZIB 070530Z 30008KT CAVOK 08/M02 Q1024 NOSIG,1,0,0,9999,0,0,0,
2026-04-07 05:00:00,METAR LZIB 070500Z 30008KT CAVOK 07/M03 Q1024 NOSIG,1,0,0,9999,0,0,0,
2026-04-07 04:30:00,METAR LZIB 070430Z 30008KT CAVOK 06/M03 Q1024 NOSIG,1,0,0,9999,0,0,0,
2026-04-07 04:00:00,METAR LZIB 070400Z 31008KT CAVOK 07/M03 Q1024 NOSIG,1,0,0,9999,0,0,0,
2026-04-07 03:30:00,METAR LZIB 070330Z 30008KT CAVOK 06/M03 Q1024 NOSIG,1,0,0,9999,0,0,0,
2026-04-07 03:00:00,METAR LZIB 070300Z 30006KT CAVOK 06/M03 Q1025 NOSIG,1,0,0,9999,0,0,0,
2026-04-07 02:30:00,METAR LZIB 070230Z 29007KT CAVOK 06/M03 Q1025 NOSIG,1,0,0,9999,0,0,0,
2026-04-07 02:00:00,METAR LZIB 070200Z 30007KT CAVOK 06/M03 Q1025 NOSIG,1,0,0,9999,0,0,0,
2026-04-07 01:30:00,METAR LZIB 070130Z 28008KT CAVOK 07/M03 Q1024 NOSIG,1,0,0,9999,0,0,0,
2026-04-07 01:00:00,METAR LZIB 070100Z 27008KT CAVOK 08/M03 Q1025 NOSIG,1,0,0,9999,0,0,0,
2026-04-07 00:30:00,METAR LZIB 070030Z 28007KT CAVOK 08/M03 Q1025 NOSIG,1,0,0,9999,0,0,0,
2026-04-07 00:00:00,METAR LZIB 070000Z 31004KT CAVOK 08/M04 Q1025 NOSIG,1,0,0,9999,0,0,0,
2026-04-06 23:30:00,METAR LZIB 062330Z 31007KT CAVOK 09/M05 Q1025 NOSIG,1,0,0,9999,0,0,0,
2026-04-06 23:00:00,METAR LZIB 062300Z 30008KT CAVOK 09/M05 Q1025 NOSIG,1,0,0,9999,0,0,0,
2026-04-06 22:30:00,METAR LZIB 062230Z 31007KT CAVOK 09/M05 Q1024 NOSIG,1,0,0,9999,0,0,0,
2026-04-06 22:00:00,METAR LZIB 062200Z 31007KT CAVOK 09/M05 Q1024 NOSIG,1,0,0,9999,0,0,0,
2026-04-06 21:30:00,METAR LZIB 062130Z 30005KT 270V330 CAVOK 09/M04 Q1024 NOSIG,1,0,0,9999,0,0,0,
2026-04-06 21:00:00,METAR LZIB 062100Z 33005KT CAVOK 10/M05 Q1024 NOSIG,1,0,0,9999,0,0,0,
2026-04-06 20:30:00,METAR LZIB 062030Z 31006KT CAVOK 11/M04 Q1024 NOSIG,1,0,0,9999,0,0,0,
2026-04-06 20:00:00,METAR LZIB 062000Z 32006KT CAVOK 12/M03 Q1023 NOSIG,1,0,0,9999,0,0,0,
2026-04-06 19:30:00,METAR LZIB 061930Z 32007KT CAVOK 12/M02 Q1023 NOSIG,1,0,0,9999,0,0,0,
2026-04-06 19:00:00,METAR LZIB 061900Z 35008KT CAVOK 12/M02 Q1023 NOSIG,1,0,0,9999,0,0,0,
2026-04-06 18:30:00,METAR LZIB 061830Z 35007KT CAVOK 12/M01 Q1023 NOSIG,1,0,0,9999,0,0,0,
2026-04-06 18:00:00,METAR LZIB 061800Z 34007KT CAVOK 13/M01 Q1022 NOSIG,1,0,0,9999,0,0,0,
2026-04-06 17:30:00,METAR LZIB 061730Z 34013KT CAVOK 14/M01 Q1022 NOSIG,1,0,0,9999,0,0,0,
2026-04-06 17:00:00,METAR LZIB 061700Z 34011KT CAVOK 15/M01 Q1022 NOSIG,1,0,0,9999,0,0,0,
2026-04-06 16:30:00,METAR LZIB 061630Z 33011KT CAVOK 16/M00 Q1022 NOSIG,1,0,0,9999,0,0,0,
2026-04-06 16:00:00,METAR LZIB 061600Z 35015KT CAVOK 16/M00 Q1022 NOSIG,1,0,0,9999,0,0,0,
2026-04-06 15:30:00,METAR LZIB 061530Z 32015KT CAVOK 17/M01 Q1022 NOSIG,1,0,0,9999,0,0,0,
2026-04-06 15:00:00,METAR LZIB 061500Z 32015KT CAVOK 17/M01 Q1022 NOSIG,1,0,0,9999,0,0,0,
2026-04-06 14:30:00,METAR LZIB 061430Z 32015KT CAVOK 17/M00 Q1022 NOSIG,1,0,0,9999,0,0,0,
2026-04-06 14:00:00,METAR LZIB 061400Z 32016KT CAVOK 17/M01 Q1022 NOSIG,1,0,0,9999,0,0,0,
2026-04-06 13:30:00,METAR LZIB 061330Z 31014KT CAVOK 17/M00 Q1022 NOSIG,1,0,0,9999,0,0,0,
2026-04-06 13:00:00,METAR LZIB 061300Z 31011KT 280V350 CAVOK 17/01 Q1022 NOSIG,1,0,0,9999,0,0,0,
2026-04-06 12:30:00,METAR LZIB 061230Z 30015KT 260V330 CAVOK 17/M00 Q1023 NOSIG,1,0,0,9999,0,0,0,
2026-04-06 12:00:00,METAR LZIB 061200Z 29015KT 250V310 CAVOK 17/00 Q1023 NOSIG,1,0,0,9999,0,0,0,
2026-04-06 11:30:00,METAR LZIB 061130Z 31013KT 280V340 CAVOK 16/02 Q1024 NOSIG,1,0,0,9999,0,0,0,
2026-04-06 11:00:00,METAR LZIB 061100Z 32012KT 290V350 CAVOK 15/03 Q1024 NOSIG,1,0,0,9999,0,0,0,
2026-04-06 10:30:00,METAR LZIB 061030Z 32013KT CAVOK 16/03 Q1024 NOSIG,1,0,0,9999,0,0,0,
2026-04-06 10:00:00,METAR LZIB 061000Z 31009KT 290V350 CAVOK 15/03 Q1024 NOSIG,1,0,0,9999,0,0,0,
2026-04-06 09:30:00,METAR LZIB 060930Z 32011KT 290V350 9999 FEW043 14/04 Q1024 NOSIG,0,11,0,10000,0,0,0,
2026-04-06 09:00:00,METAR LZIB 060900Z 32012KT 9999 FEW042 14/04 Q1024 NOSIG,0,12,0,10000,0,0,0,
2026-04-06 08:30:00,METAR LZIB 060830Z 32016KT 9999 FEW045 14/04 Q1024 NOSIG,0,16,0,10000,0,0,0,
2026-04-06 08:00:00,METAR LZIB 060800Z 31014KT 280V340 9999 FEW044 14/05 Q1024 NOSIG,0,14,0,10000,0,0,0,
2026-04-06 07:30:00,METAR LZIB 060730Z 33008KT 9999 FEW044 14/05 Q1023 NOSIG,0,8,0,10000,0,0,0,
2026-04-06 07:00:00,METAR LZIB 060700Z 33010KT CAVOK 14/04 Q1023 NOSIG,1,0,0,9999,0,0,0,
2026-04-06 06:30:00,METAR LZIB 060630Z 33009KT CAVOK 14/04 Q1023 NOSIG,1,0,0,9999,0,0,0,
2026-04-06 05:30:00,METAR LZIB 060530Z 34009KT CAVOK 14/06 Q1023 NOSIG,1,0,0,9999,0,0,0,
2026-04-06 05:00:00,METAR LZIB 060500Z 34009KT CAVOK 14/06 Q1022 NOSIG,1,0,0,9999,0,0,0,
2026-04-06 04:30:00,METAR LZIB 060430Z 32011KT CAVOK 15/05 Q1021 NOSIG,1,0,0,9999,0,0,0,
2026-04-06 04:00:00,METAR LZIB 060400Z 29009KT CAVOK 16/07 Q1021 NOSIG,1,0,0,9999,0,0,0,
2026-04-06 03:30:00,METAR LZIB 060330Z 29012KT CAVOK 16/07 Q1020 NOSIG,1,0,0,9999,0,0,0,
2026-04-06 03:00:00,METAR LZIB 060300Z 26011KT CAVOK 17/07 Q1019 NOSIG,1,0,0,9999,0,0,0,
2026-04-06 02:30:00,METAR LZIB 060230Z 26011KT CAVOK 17/07 Q1019 NOSIG,1,0,0,9999,0,0,0,
2026-04-06 02:00:00,METAR LZIB 060200Z 25010KT CAVOK 18/07 Q1019 NOSIG,1,0,0,9999,0,0,0,
2026-04-06 01:30:00,METAR LZIB 060130Z 25011KT CAVOK 18/07 Q1019 NOSIG,1,0,0,9999,0,0,0,
2026-04-06 01:00:00,METAR LZIB 060100Z 27011KT CAVOK 18/07 Q1019 NOSIG,1,0,0,9999,0,0,0,
2026-04-06 00:30:00,METAR LZIB 060030Z 26013KT CAVOK 18/07 Q1019 NOSIG,1,0,0,9999,0,0,0,
2026-04-06 00:00:00,METAR LZIB 060000Z 26014KT CAVOK 19/07 Q1019 NOSIG,1,0,0,9999,0,0,0,
2026-04-05 23:30:00,METAR LZIB 052330Z 25013KT CAVOK 19/07 Q1019 NOSIG,1,0,0,9999,0,0,0,
2026-04-05 23:00:00,METAR LZIB 052300Z 26010KT CAVOK 18/08 Q1018 NOSIG,1,0,0,9999,0,0,0,
2026-04-05 22:30:00,METAR LZIB 052230Z VRB03KT CAVOK 14/10 Q1018 BECMG 29012KT,1,0,0,9999,0,0,0,
2026-04-05 22:00:00,METAR LZIB 052200Z 22007KT CAVOK 14/10 Q1018 BECMG 29012KT,1,0,0,9999,0,0,0,
2026-04-05 21:30:00,METAR LZIB 052130Z 23008KT 9999 FEW046 16/10 Q1018 BECMG 29012KT,0,8,0,10000,0,0,0,
2026-04-05 21:00:00,METAR LZIB 052100Z 23011KT 9999 -SHRA FEW046 16/10 Q1019 RETSRA BECMG 29012KT,0,11,0,10000,1,0,0,RA
2026-04-05 20:30:00,METAR LZIB 052030Z 18007KT 9999 TSRA FEW046CB 15/11 Q1018 BECMG 28012KT NSW,0,7,0,10000,1,0,0,"RA,TS"
2026-04-05 20:00:00,METAR LZIB 052000Z 20008KT 9999 TSRA FEW050CB 18/09 Q1018 TEMPO 30015KT NSW,0,8,0,10000,1,0,0,"RA,TS"
2026-04-05 19:30:00,METAR LZIB 051930Z 21014KT 190V260 9999 FEW049 18/09 Q1018 RETSRA TEMPO 30015KT -TSRA SCT040CB,0,14,0,10000,1,0,0,RA
2026-04-05 19:00:00,METAR LZIB 051900Z 19010KT 9999 -TSRA SCT050CB 19/07 Q1018 TEMPO 32015KT TSRA SCT040CB,0,10,0,10000,1,0,0,"RA,TS"
2026-04-05 18:30:00,METAR LZIB 051830Z 19009KT CAVOK 19/07 Q1018 NOSIG,1,0,0,9999,0,0,0,
2026-04-05 18:00:00,METAR LZIB 051800Z 19010KT CAVOK 19/07 Q1017 NOSIG,1,0,0,9999,0,0,0,
2026-04-05 17:30:00,METAR LZIB 051730Z 19012KT CAVOK 21/07 Q1017 NOSIG,1,0,0,9999,0,0,0,
2026-04-05 17:00:00,METAR LZIB 051700Z 18011KT CAVOK 21/06 Q1017 NOSIG,1,0,0,9999,0,0,0,
2026-04-05 16:30:00,METAR LZIB 051630Z 18012KT CAVOK 22/07 Q1017 NOSIG,1,0,0,9999,0,0,0,
2026-04-05 16:00:00,METAR LZIB 051600Z 19011KT CAVOK 23/06 Q1017 NOSIG,1,0,0,9999,0,0,0,
2026-04-05 15:30:00,METAR LZIB 051530Z 20012KT 170V230 CAVOK 23/07 Q1017 NOSIG,1,0,0,9999,0,0,0,
2026-04-05 15:00:00,METAR LZIB 051500Z 18011KT CAVOK 23/06 Q1018 NOSIG,1,0,0,9999,0,0,0,
2026-04-05 13:00:00,METAR LZIB 051300Z 21009KT 170V250 CAVOK 23/07 Q1019 NOSIG,1,0,0,9999,0,0,0,
2026-04-05 12:30:00,METAR LZIB 051230Z 22009KT 180V250 CAVOK 22/07 Q1019 NOSIG,1,0,0,9999,0,0,0,
2026-04-05 12:00:00,METAR LZIB 051200Z 23007KT 200V300 CAVOK 21/06 Q1020 NOSIG,1,0,0,9999,0,0,0,
2026-04-05 11:30:00,METAR LZIB 051130Z 19007KT 150V240 CAVOK 21/07 Q1020 NOSIG,1,0,0,9999,0,0,0,
2026-04-05 11:00:00,METAR LZIB 051100Z 22007KT 200V260 CAVOK 20/07 Q1021 NOSIG,1,0,0,9999,0,0,0,
2026-04-05 10:30:00,METAR LZIB 051030Z 18007KT 130V220 9999 FEW047 19/08 Q1021 NOSIG,0,7,0,10000,0,0,0,
2026-04-05 10:00:00,METAR LZIB 051000Z 16008KT 130V210 9999 FEW045 19/08 Q1021 NOSIG,0,8,0,10000,0,0,0,
2026-04-05 09:30:00,METAR LZIB 050930Z 17009KT 9999 FEW040 18/08 Q1022 NOSIG,0,9,0,10000,0,0,0,
2026-04-05 09:00:00,METAR LZIB 050900Z 17006KT 110V220 9999 FEW036 17/08 Q1022 NOSIG,0,6,0,10000,0,0,0,
2026-04-05 08:30:00,METAR LZIB 050830Z VRB04KT 9999 FEW034 16/08 Q1022 NOSIG,0,4,0,10000,0,0,0,
2026-04-05 08:00:00,METAR LZIB 050800Z 18003KT 120V240 9999 FEW030 16/08 Q1022 NOSIG,0,3,0,10000,0,0,0,
2026-04-05 07:30:00,METAR LZIB 050730Z VRB03KT 9999 FEW026 15/08 Q1022 NOSIG,0,3,0,10000,0,0,0,
2026-04-05 07:00:00,METAR LZIB 050700Z 20005KT 170V230 9999 FEW022 14/09 Q1022 NOSIG,0,5,0,10000,0,0,0,
2026-04-05 06:30:00,METAR LZIB 050630Z 22003KT 9999 FEW039 12/09 Q1022 NOSIG,0,3,0,10000,0,0,0,
2026-04-05 06:00:00,METAR LZIB 050600Z 23006KT 9999 FEW035 11/09 Q1022 NOSIG,0,6,0,10000,0,0,0,
2026-04-05 05:30:00,METAR LZIB 050530Z 21006KT CAVOK 10/08 Q1022 NOSIG,1,0,0,9999,0,0,0,
2026-04-05 05:00:00,METAR LZIB 050500Z 20004KT CAVOK 09/08 Q1022 NOSIG,1,0,0,9999,0,0,0,
2026-04-05 04:30:00,METAR LZIB 050430Z 21005KT CAVOK 09/08 Q1022 NOSIG,1,0,0,9999,0,0,0,
2026-04-05 04:00:00,METAR LZIB 050400Z 19004KT CAVOK 09/07 Q1022 NOSIG,1,0,0,9999,0,0,0,
2026-04-05 03:30:00,METAR LZIB 050330Z 20005KT CAVOK 09/07 Q1022 NOSIG,1,0,0,9999,0,0,0,
2026-04-05 03:00:00,METAR LZIB 050300Z VRB02KT CAVOK 08/07 Q1022 NOSIG,1,0,0,9999,0,0,0,
2026-04-05 02:30:00,METAR LZIB 050230Z 24003KT 210V270 CAVOK 11/08 Q1022 NOSIG,1,0,0,9999,0,0,0,
2026-04-05 02:00:00,METAR LZIB 050200Z 23003KT CAVOK 10/07 Q1022 NOSIG,1,0,0,9999,0,0,0,
2026-04-05 01:30:00,METAR LZIB 050130Z VRB02KT 9999 FEW036 10/08 Q1022 NOSIG,0,2,0,10000,0,0,0,
2026-04-05 01:00:00,METAR LZIB 050100Z 28005KT 9999 FEW042 12/08 Q1022 NOSIG,0,5,0,10000,0,0,0,
2026-04-05 00:30:00,METAR LZIB 050030Z 29007KT CAVOK 12/08 Q1022 NOSIG,1,0,0,9999,0,0,0,
2026-04-05 00:00:00,METAR LZIB 050000Z 29011KT 9999 FEW040 12/08 Q1022 NOSIG,0,11,0,10000,0,0,0,
2026-04-04 23:30:00,METAR LZIB 042330Z 29010KT 9999 FEW033 12/08 Q1022 NOSIG,0,10,0,10000,0,0,0,
2026-04-04 23:00:00,METAR LZIB 042300Z 29010KT CAVOK 12/08 Q1022 NOSIG,1,0,0,9999,0,0,0,
2026-04-04 22:30:00,METAR LZIB 042230Z 29006KT 260V320 CAVOK 12/08 Q1022 NOSIG,1,0,0,9999,0,0,0,
2026-04-04 22:00:00,METAR LZIB 042200Z 29009KT CAVOK 12/08 Q1022 NOSIG,1,0,0,9999,0,0,0,
2026-04-04 21:30:00,METAR LZIB 042130Z 29008KT CAVOK 12/08 Q1022 NOSIG,1,0,0,9999,0,0,0,
2026-04-04 21:00:00,METAR LZIB 042100Z 29013KT CAVOK 13/08 Q1022 NOSIG,1,0,0,9999,0,0,0,
2026-04-04 20:30:00,METAR LZIB 042030Z 29012KT CAVOK 12/08 Q1021 NOSIG,1,0,0,9999,0,0,0,
2026-04-04 19:30:00,METAR LZIB 041930Z 28009KT CAVOK 12/07 Q1021 NOSIG,1,0,0,9999,0,0,0,
2026-04-04 19:00:00,METAR LZIB 041900Z 28010KT CAVOK 13/07 Q1021 NOSIG,1,0,0,9999,0,0,0,
2026-04-04 18:30:00,METAR LZIB 041830Z 29009KT 9999 FEW048 13/07 Q1021 NOSIG,0,9,0,10000,0,0,0,
2026-04-04 18:00:00,METAR LZIB 041800Z 29008KT 260V320 CAVOK 13/07 Q1021 NOSIG,1,0,0,9999,0,0,0,
2026-04-04 17:30:00,METAR LZIB 041730Z 28009KT 9999 FEW033 SCT048 14/07 Q1021 NOSIG,0,9,0,10000,0,0,0,
2026-04-04 17:00:00,METAR LZIB 041700Z 28010KT 9999 FEW033 BKN048 14/07 Q1020 NOSIG,0,10,0,10000,0,0,0,
2026-04-04 16:30:00,METAR LZIB 041630Z 28009KT 9999 FEW033 BKN038 14/07 Q1020 NOSIG,0,9,0,10000,0,0,0,
2026-04-04 16:00:00,METAR LZIB 041600Z 29009KT 9999 FEW033 BKN048 14/07 Q1020 NOSIG,0,9,0,10000,0,0,0,
2026-04-04 15:30:00,METAR LZIB 041530Z 29009KT 9999 FEW032 SCT039 14/07 Q1020 NOSIG,0,9,0,10000,0,0,0,
2026-04-04 15:00:00,METAR LZIB 041500Z 29014KT 9999 FEW032 SCT037 14/07 Q1020 NOSIG,0,14,0,10000,0,0,0,
2026-04-04 14:30:00,METAR LZIB 041430Z 29014KT 260V320 9999 FEW030 SCT032 16/08 Q1020 NOSIG,0,14,0,10000,0,0,0,
2026-04-04 14:00:00,METAR LZIB 041400Z 29015KT 9999 FEW029 SCT033 14/07 Q1020 NOSIG,0,15,0,10000,0,0,0,
2026-04-04 13:30:00,METAR LZIB 041330Z 28017KT 9999 FEW031 SCT043 14/07 Q1020 NOSIG,0,17,0,10000,0,0,0,
2026-04-04 13:00:00,METAR LZIB 041300Z 28019KT 9999 SCT036 SCT043 14/07 Q1020 NOSIG,0,19,0,10000,0,0,0,
2026-04-04 12:30:00,METAR LZIB 041230Z 28016KT 9999 SCT038 SCT045 15/06 Q1020 NOSIG,0,16,0,10000,0,0,0,
2026-04-04 12:00:00,METAR LZIB 041200Z 29014KT 9999 FEW036 SCT044 15/06 Q1020 NOSIG,0,14,0,10000,0,0,0,
2026-04-04 11:30:00,METAR LZIB 041130Z 28017KT 9999 FEW035 SCT044 14/06 Q1020 NOSIG,0,17,0,10000,0,0,0,
2026-04-04 11:00:00,METAR LZIB 041100Z 28019KT 9999 FEW036 SCT042 15/06 Q1019 NOSIG,0,19,0,10000,0,0,0,
2026-04-04 10:30:00,METAR LZIB 041030Z 27017KT 9999 BKN042 15/05 Q1020 NOSIG,0,17,0,10000,0,0,0,
2026-04-04 10:00:00,METAR LZIB 041000Z 28015KT 9999 BKN045 14/04 Q1019 NOSIG,0,15,0,10000,0,0,0,
2026-04-04 09:30:00,METAR LZIB 040930Z 30016KT 260V330 9999 BKN046 15/04 Q1019 NOSIG,0,16,0,10000,0,0,0,
2026-04-04 09:00:00,METAR LZIB 040900Z 27014KT 9999 FEW046 15/04 Q1019 NOSIG,0,14,0,10000,0,0,0,
2026-04-04 08:30:00,METAR LZIB 040830Z 28013KT 9999 SCT044 14/02 Q1019 NOSIG,0,13,0,10000,0,0,0,
2026-04-04 08:00:00,METAR LZIB 040800Z 24006KT 210V280 9999 SCT048 13/02 Q1019 NOSIG,0,6,0,10000,0,0,0,
2026-04-04 07:30:00,METAR LZIB 040730Z 23007KT 9999 FEW049 13/02 Q1019 NOSIG,0,7,0,10000,0,0,0,
2026-04-04 07:00:00,METAR LZIB 040700Z 26007KT CAVOK 13/01 Q1019 NOSIG,1,0,0,9999,0,0,0,
2026-04-04 06:30:00,METAR LZIB 040630Z 27007KT CAVOK 13/02 Q1018 BECMG 28014KT,1,0,0,9999,0,0,0,
2026-04-04 06:00:00,METAR LZIB 040600Z VRB03KT CAVOK 10/03 Q1018 BECMG 28014KT,1,0,0,9999,0,0,0,
2026-04-04 05:30:00,METAR LZIB 040530Z 29003KT CAVOK 09/01 Q1018 NOSIG,1,0,0,9999,0,0,0,
2026-04-04 05:00:00,METAR LZIB 040500Z 31006KT CAVOK 10/01 Q1018 NOSIG,1,0,0,9999,0,0,0,
2026-04-04 04:30:00,METAR LZIB 040430Z 30009KT CAVOK 10/00 Q1018 NOSIG,1,0,0,9999,0,0,0,
2026-04-04 04:00:00,METAR LZIB 040400Z 29009KT CAVOK 09/01 Q1018 NOSIG,1,0,0,9999,0,0,0,
2026-04-04 03:30:00,METAR LZIB 040330Z 29005KT CAVOK 07/01 Q1018 NOSIG,1,0,0,9999,0,0,0,
2026-04-04 03:00:00,METAR LZIB 040300Z 28004KT CAVOK 07/01 Q1018 NOSIG,1,0,0,9999,0,0,0,
2026-04-04 02:30:00,METAR LZIB 040230Z 23003KT CAVOK 06/01 Q1017 NOSIG,1,0,0,9999,0,0,0,
2026-04-04 02:00:00,METAR LZIB 040200Z 22003KT CAVOK 06/01 Q1017 NOSIG,1,0,0,9999,0,0,0,
2026-04-04 01:30:00,METAR LZIB 040130Z 23003KT 210V270 CAVOK 08/01 Q1017 NOSIG,1,0,0,9999,0,0,0,
2026-04-04 01:00:00,METAR LZIB 040100Z 25005KT CAVOK 08/01 Q1017 NOSIG,1,0,0,9999,0,0,0,
2026-04-04 00:30:00,METAR LZIB 040030Z 26008KT CAVOK 09/01 Q1018 NOSIG,1,0,0,9999,0,0,0,
2026-04-04 00:00:00,METAR LZIB 040000Z 29007KT CAVOK 09/01 Q1018 NOSIG,1,0,0,9999,0,0,0,
2026-04-03 23:30:00,METAR LZIB 032330Z 28007KT CAVOK 09/01 Q1018 NOSIG,1,0,0,9999,0,0,0,
2026-04-03 23:00:00,METAR LZIB 032300Z 28007KT CAVOK 09/01 Q1018 NOSIG,1,0,0,9999,0,0,0,
2026-04-03 22:30:00,METAR LZIB 032230Z 28008KT CAVOK 10/01 Q1017 NOSIG,1,0,0,9999,0,0,0,
2026-04-03 22:00:00,METAR LZIB 032200Z 27006KT 210V300 CAVOK 10/01 Q1017 NOSIG,1,0,0,9999,0,0,0,
2026-04-03 21:30:00,METAR LZIB 032130Z VRB02KT CAVOK 08/01 Q1017 NOSIG,1,0,0,9999,0,0,0,
2026-04-03 21:00:00,METAR LZIB 032100Z VRB02KT CAVOK 08/01 Q1017 NOSIG,1,0,0,9999,0,0,0,
2026-04-03 20:30:00,METAR LZIB 032030Z 29004KT CAVOK 10/01 Q1016 NOSIG,1,0,0,9999,0,0,0,
2026-04-03 20:00:00,METAR LZIB 032000Z 30006KT CAVOK 10/01 Q1016 NOSIG,1,0,0,9999,0,0,0,
2026-04-03 19:30:00,METAR LZIB 031930Z 30004KT CAVOK 10/00 Q1016 NOSIG,1,0,0,9999,0,0,0,
2026-04-03 19:00:00,METAR LZIB 031900Z 32003KT CAVOK 10/00 Q1016 NOSIG,1,0,0,9999,0,0,0,
2026-04-03 18:30:00,METAR LZIB 031830Z 33005KT CAVOK 13/M00 Q1015 NOSIG,1,0,0,9999,0,0,0,
2026-04-03 18:00:00,METAR LZIB 031800Z 34005KT CAVOK 13/M00 Q1015 NOSIG,1,0,0,9999,0,0,0,
2026-04-03 17:30:00,METAR LZIB 031730Z 34006KT CAVOK 13/M00 Q1015 NOSIG,1,0,0,9999,0,0,0,
2026-04-03 17:00:00,METAR LZIB 031700Z 35012KT CAVOK 14/M00 Q1014 NOSIG,1,0,0,9999,0,0,0,
2026-04-03 16:30:00,METAR LZIB 031630Z 31013KT CAVOK 15/M01 Q1014 NOSIG,1,0,0,9999,0,0,0,
2026-04-03 16:00:00,METAR LZIB 031600Z 33015KT CAVOK 16/M01 Q1014 NOSIG,1,0,0,9999,0,0,0,
2026-04-03 15:30:00,METAR LZIB 031530Z 33015KT CAVOK 16/00 Q1014 NOSIG,1,0,0,9999,0,0,0,
2026-04-03 15:00:00,METAR LZIB 031500Z 33016KT CAVOK 16/M00 Q1014 NOSIG,1,0,0,9999,0,0,0,
2026-04-03 14:30:00,METAR LZIB 031430Z 34017KT CAVOK 16/M00 Q1014 NOSIG,1,0,0,9999,0,0,0,
2026-04-03 14:00:00,METAR LZIB 031400Z 32018KT CAVOK 16/M01 Q1014 NOSIG,1,0,0,9999,0,0,0,
2026-04-03 13:30:00,METAR LZIB 031330Z 34020KT 310V010 CAVOK 16/M02 Q1014 NOSIG,1,0,0,9999,0,0,0,
2026-04-03 13:00:00,METAR LZIB 031300Z 32019KT CAVOK 15/M03 Q1014 NOSIG,1,0,0,9999,0,0,0,
2026-04-03 12:30:00,METAR LZIB 031230Z 33020KT CAVOK 15/M05 Q1014 NOSIG,1,0,0,9999,0,0,0,
2026-04-03 12:00:00,METAR LZIB 031200Z 32019KT CAVOK 15/M03 Q1014 NOSIG,1,0,0,9999,0,0,0,
2026-04-03 11:30:00,METAR LZIB 031130Z 32015KT CAVOK 14/M01 Q1014 NOSIG,1,0,0,9999,0,0,0,
2026-04-03 11:00:00,METAR LZIB 031100Z 31015KT CAVOK 14/M02 Q1014 NOSIG,1,0,0,9999,0,0,0,
2026-04-03 10:30:00,METAR LZIB 031030Z 31016KT CAVOK 14/M01 Q1014 NOSIG,1,0,0,9999,0,0,0,
2026-04-03 10:00:00,METAR LZIB 031000Z 34016KT CAVOK 14/M01 Q1015 NOSIG,1,0,0,9999,0,0,0,
2026-04-03 09:30:00,METAR LZIB 030930Z 32013KT CAVOK 13/00 Q1015 NOSIG,1,0,0,9999,0,0,0,
2026-04-03 09:00:00,METAR LZIB 030900Z 32013KT CAVOK 12/M01 Q1015 NOSIG,1,0,0,9999,0,0,0,
2026-04-03 08:30:00,METAR LZIB 030830Z 29008KT CAVOK 10/00 Q1015 NOSIG,1,0,0,9999,0,0,0,
2026-04-03 08:00:00,METAR LZIB 030800Z 30010KT CAVOK 10/M00 Q1015 NOSIG,1,0,0,9999,0,0,0,
2026-04-03 07:30:00,METAR LZIB 030730Z 32010KT CAVOK 10/M02 Q1015 NOSIG,1,0,0,9999,0,0,0,
2026-04-03 07:00:00,METAR LZIB 030700Z 31010KT CAVOK 09/00 Q1014 NOSIG,1,0,0,9999,0,0,0,
2026-04-03 06:30:00,METAR LZIB 030630Z 30014KT CAVOK 08/M01 Q1014 NOSIG,1,0,0,9999,0,0,0,
2026-04-03 06:00:00,METAR LZIB 030600Z 28005KT 230V320 CAVOK 08/M01 Q1014 NOSIG,1,0,0,9999,0,0,0,
2026-04-03 05:30:00,METAR LZIB 030530Z 29009KT CAVOK 07/M01 Q1013 NOSIG,1,0,0,9999,0,0,0,
2026-04-03 05:00:00,METAR LZIB 030500Z 30013KT 270V330 CAVOK 07/M01 Q1013 NOSIG,1,0,0,9999,0,0,0,
2026-04-03 04:30:00,METAR LZIB 030430Z 31016KT CAVOK 08/M01 Q1013 NOSIG,1,0,0,9999,0,0,0,
2026-04-03 04:00:00,METAR LZIB 030400Z 31015KT CAVOK 08/M00 Q1012 NOSIG,1,0,0,9999,0,0,0,
2026-04-03 03:30:00,METAR LZIB 030330Z 30012KT CAVOK 08/01 Q1012 NOSIG,1,0,0,9999,0,0,0,
2026-04-03 03:00:00,METAR LZIB 030300Z 30012KT CAVOK 08/01 Q1012 NOSIG,1,0,0,9999,0,0,0,
2026-04-03 02:30:00,METAR LZIB 030230Z 31013KT CAVOK 08/02 Q1012 NOSIG,1,0,0,9999,0,0,0,
2026-04-03 02:00:00,METAR LZIB 030200Z 30013KT CAVOK 08/02 Q1012 NOSIG,1,0,0,9999,0,0,0,
2026-04-03 01:30:00,METAR LZIB 030130Z 30014KT CAVOK 08/02 Q1012 NOSIG,1,0,0,9999,0,0,0,
2026-04-03 01:00:00,METAR LZIB 030100Z 30013KT 9999 -RA NSC 08/02 Q1011 NOSIG,0,13,0,10000,0,0,0,-RA
2026-04-03 00:30:00,METAR LZIB 030030Z 30014KT 9999 -RA NSC 08/03 Q1011 NOSIG,0,14,0,10000,0,0,0,-RA
2026-04-03 00:00:00,METAR LZIB 030000Z 30013KT 9999 -RA NSC 08/03 Q1011 NOSIG,0,13,0,10000,0,0,0,-RA
2026-04-02 23:30:00,METAR LZIB 022330Z 29013KT 9999 -RA NSC 08/04 Q1011 NOSIG,0,13,0,10000,0,0,0,-RA
2026-04-02 23:00:00,METAR LZIB 022300Z 28011KT 9999 -RA NSC 08/04 Q1011 NOSIG,0,11,0,10000,0,0,0,-RA
2026-04-02 22:30:00,METAR LZIB 022230Z 27011KT 9999 -RA NSC 09/04 Q1011 NOSIG,0,11,0,10000,0,0,0,-RA
2026-04-02 22:00:00,METAR LZIB 022200Z 27007KT CAVOK 09/03 Q1011 NOSIG,1,0,0,9999,0,0,0,
2026-04-02 21:30:00,METAR LZIB 022130Z 28010KT CAVOK 09/03 Q1011 NOSIG,1,0,0,9999,0,0,0,
2026-04-02 21:00:00,METAR LZIB 022100Z 29009KT CAVOK 10/03 Q1011 NOSIG,1,0,0,9999,0,0,0,
2026-04-02 20:30:00,METAR LZIB 022030Z 30011KT CAVOK 11/02 Q1011 NOSIG,1,0,0,9999,0,0,0,
2026-04-02 20:00:00,METAR LZIB 022000Z 32011KT CAVOK 11/01 Q1011 NOSIG,1,0,0,9999,0,0,0,
2026-04-02 19:30:00,METAR LZIB 021930Z 32013KT CAVOK 11/01 Q1010 NOSIG,1,0,0,9999,0,0,0,
2026-04-02 19:00:00,METAR LZIB 021900Z 33014KT CAVOK 12/01 Q1010 NOSIG,1,0,0,9999,0,0,0,
2026-04-02 18:30:00,METAR LZIB 021830Z 33016KT CAVOK 12/02 Q1010 NOSIG,1,0,0,9999,0,0,0,
2026-04-02 18:00:00,METAR LZIB 021800Z 33014KT CAVOK 11/02 Q1009 NOSIG,1,0,0,9999,0,0,0,
2026-04-02 17:30:00,METAR LZIB 021730Z 33018KT CAVOK 12/02 Q1009 NOSIG,1,0,0,9999,0,0,0,
2026-04-02 17:00:00,METAR LZIB 021700Z 32017KT CAVOK 12/02 Q1008 NOSIG,1,0,0,9999,0,0,0,
2026-04-02 16:30:00,METAR LZIB 021630Z 33015KT CAVOK 13/02 Q1008 NOSIG,1,0,0,9999,0,0,0,
2026-04-02 16:00:00,METAR LZIB 021600Z 33019KT 9999 FEW046 13/01 Q1008 NOSIG,0,19,0,10000,0,0,0,
2026-04-02 15:30:00,METAR LZIB 021530Z 33016KT 9999 FEW046 13/01 Q1008 NOSIG,0,16,0,10000,0,0,0,
2026-04-02 15:00:00,METAR LZIB 021500Z 33015KT CAVOK 13/02 Q1008 NOSIG,1,0,0,9999,0,0,0,
2026-04-02 14:30:00,METAR LZIB 021430Z 33016KT 9999 FEW048 13/01 Q1008 NOSIG,0,16,0,10000,0,0,0,
2026-04-02 14:00:00,METAR LZIB 021400Z 34018KT CAVOK 14/02 Q1008 NOSIG,1,0,0,9999,0,0,0,
2026-04-02 13:30:00,METAR LZIB 021330Z 33016KT CAVOK 14/02 Q1008 NOSIG,1,0,0,9999,0,0,0,
2026-04-02 13:00:00,METAR LZIB 021300Z 33014KT CAVOK 13/01 Q1008 NOSIG,1,0,0,9999,0,0,0,
2026-04-02 12:30:00,METAR LZIB 021230Z 33015KT CAVOK 13/01 Q1008 NOSIG,1,0,0,9999,0,0,0,
2026-04-02 12:00:00,METAR LZIB 021200Z 33014KT CAVOK 13/01 Q1009 NOSIG,1,0,0,9999,0,0,0,
2026-04-02 11:30:00,METAR LZIB 021130Z 32013KT 300V010 CAVOK 13/02 Q1009 NOSIG,1,0,0,9999,0,0,0,
2026-04-02 11:00:00,METAR LZIB 021100Z 31013KT CAVOK 12/02 Q1010 NOSIG,1,0,0,9999,0,0,0,
2026-04-02 10:30:00,METAR LZIB 021030Z 30010KT CAVOK 11/03 Q1010 NOSIG,1,0,0,9999,0,0,0,
2026-04-02 10:00:00,METAR LZIB 021000Z 31012KT CAVOK 10/03 Q1010 NOSIG,1,0,0,9999,0,0,0,
2026-04-02 09:30:00,METAR LZIB 020930Z 31010KT 9999 -RA NSC 09/03 Q1010 NOSIG,0,10,0,10000,0,0,0,-RA
2026-04-02 09:00:00,METAR LZIB 020900Z 30012KT 9999 -RA NSC 08/03 Q1011 NOSIG,0,12,0,10000,0,0,0,-RA
2026-04-02 08:30:00,METAR LZIB 020830Z 30011KT 9999 -RA FEW015 SCT049 07/03 Q1011 NOSIG,0,11,0,10000,0,0,0,-RA
2026-04-02 08:00:00,METAR LZIB 020800Z 30008KT 9999 -RA FEW015 SCT048 07/04 Q1011 NOSIG,0,8,0,10000,0,0,0,-RA
2026-04-02 07:30:00,METAR LZIB 020730Z 30007KT 9999 -RA BKN048 07/03 Q1011 NOSIG,0,7,0,10000,0,0,0,-RA
2026-04-02 07:00:00,METAR LZIB 020700Z 30007KT 9999 -RA BKN043 07/03 Q1011 NOSIG,0,7,0,10000,0,0,0,-RA
2026-04-02 06:30:00,METAR LZIB 020630Z 29007KT 9999 -RA BKN044 07/03 Q1011 NOSIG,0,7,0,10000,0,0,0,-RA
2026-04-02 06:00:00,METAR LZIB 020600Z 33007KT 9999 -RA BKN043 08/02 Q1011 NOSIG,0,7,0,10000,0,0,0,-RA
2026-04-02 05:30:00,METAR LZIB 020530Z 31006KT 9999 -RA BKN042 08/01 Q1011 NOSIG,0,6,0,10000,0,0,0,-RA
2026-04-02 05:00:00,METAR LZIB 020500Z 30006KT 9999 BKN041 08/01 Q1011 NOSIG,0,6,0,10000,0,0,0,
2026-04-02 04:30:00,METAR LZIB 020430Z 30004KT 270V330 9999 BKN042 08/01 Q1011 NOSIG,0,4,0,10000,0,0,0,
2026-04-02 04:00:00,METAR LZIB 020400Z 30005KT 9999 BKN041 08/01 Q1012 NOSIG,0,5,0,10000,0,0,0,
2026-04-02 03:30:00,METAR LZIB 020330Z 32006KT 280V350 9999 BKN042 08/01 Q1012 NOSIG,0,6,0,10000,0,0,0,
2026-04-02 03:00:00,METAR LZIB 020300Z 34008KT 9999 BKN046 08/01 Q1012 NOSIG,0,8,0,10000,0,0,0,
2026-04-02 02:30:00,METAR LZIB 020230Z 34009KT 9999 BKN043 08/01 Q1013 NOSIG,0,9,0,10000,0,0,0,
2026-04-02 02:00:00,METAR LZIB 020200Z 34010KT 9999 BKN043 08/01 Q1013 NOSIG,0,10,0,10000,0,0,0,
2026-04-02 01:30:00,METAR LZIB 020130Z 34010KT 9999 BKN046 08/01 Q1013 NOSIG,0,10,0,10000,0,0,0,
2026-04-02 01:00:00,METAR LZIB 020100Z 33011KT 9999 BKN044 08/01 Q1014 NOSIG,0,11,0,10000,0,0,0,
2026-04-02 00:30:00,METAR LZIB 020030Z 34009KT 9999 OVC041 08/01 Q1014 NOSIG,0,9,0,10000,0,0,0,
2026-04-02 00:00:00,METAR LZIB 020000Z 34009KT 9999 BKN046 08/01 Q1015 NOSIG,0,9,0,10000,0,0,0,
2026-04-01 23:30:00,METAR LZIB 012330Z 34010KT CAVOK 09/01 Q1015 NOSIG,1,0,0,9999,0,0,0,
2026-04-01 23:00:00,METAR LZIB 012300Z 33007KT CAVOK 08/01 Q1015 NOSIG,1,0,0,9999,0,0,0,
2026-04-01 22:30:00,METAR LZIB 012230Z 34006KT CAVOK 08/01 Q1016 NOSIG,1,0,0,9999,0,0,0,
2026-04-01 22:00:00,METAR LZIB 012200Z 36008KT CAVOK 08/01 Q1016 NOSIG,1,0,0,9999,0,0,0,
2026-04-01 21:30:00,METAR LZIB 012130Z 01012KT CAVOK 08/01 Q1016 NOSIG,1,0,0,9999,0,0,0,
2026-04-01 21:00:00,METAR LZIB 012100Z 36010KT CAVOK 07/01 Q1016 NOSIG,1,0,0,9999,0,0,0,
2026-04-01 20:30:00,METAR LZIB 012030Z 01007KT 340V040 CAVOK 07/01 Q1017 NOSIG,1,0,0,9999,0,0,0,
2026-04-01 20:00:00,METAR LZIB 012000Z 35009KT CAVOK 08/01 Q1017 NOSIG,1,0,0,9999,0,0,0,
2026-04-01 19:30:00,METAR LZIB 011930Z 35012KT CAVOK 08/01 Q1017 NOSIG,1,0,0,9999,0,0,0,
2026-04-01 19:00:00,METAR LZIB 011900Z 36013KT CAVOK 09/01 Q1017 NOSIG,1,0,0,9999,0,0,0,
2026-04-01 18:30:00,METAR LZIB 011830Z 35011KT CAVOK 09/01 Q1017 NOSIG,1,0,0,9999,0,0,0,
2026-04-01 18:00:00,METAR LZIB 011800Z 35009KT 9999 SCT049 09/01 Q1017 NOSIG,0,9,0,10000,0,0,0,
2026-04-01 17:30:00,METAR LZIB 011730Z 35011KT CAVOK 09/01 Q1017 NOSIG,1,0,0,9999,0,0,0,
2026-04-01 17:00:00,METAR LZIB 011700Z 34012KT CAVOK 10/01 Q1017 NOSIG,1,0,0,9999,0,0,0,
2026-04-01 16:30:00,METAR LZIB 011630Z 34018KT CAVOK 10/00 Q1017 NOSIG,1,0,0,9999,0,0,0,
2026-04-01 16:00:00,METAR LZIB 011600Z 35015KT CAVOK 11/00 Q1017 NOSIG,1,0,0,9999,0,0,0,
2026-04-01 15:30:00,METAR LZIB 011530Z 34018KT CAVOK 11/M00 Q1017 NOSIG,1,0,0,9999,0,0,0,
2026-04-01 15:00:00,METAR LZIB 011500Z 34018KT CAVOK 12/M00 Q1017 NOSIG,1,0,0,9999,0,0,0,
2026-04-01 14:00:00,METAR LZIB 011400Z 33018KT 9999 FEW047 12/00 Q1018 NOSIG,0,18,0,10000,0,0,0,
2026-04-01 13:30:00,METAR LZIB 011330Z 34018KT 9999 FEW045 12/00 Q1018 NOSIG,0,18,0,10000,0,0,0,
2026-04-01 13:00:00,METAR LZIB 011300Z 34017KT 9999 FEW045 11/M00 Q1018 NOSIG,0,17,0,10000,0,0,0,
2026-04-01 12:30:00,METAR LZIB 011230Z 34017KT 9999 FEW045 12/00 Q1019 NOSIG,0,17,0,10000,0,0,0,
2026-04-01 12:00:00,METAR LZIB 011200Z 34018KT 9999 FEW045 11/M00 Q1019 NOSIG,0,18,0,10000,0,0,0,
2026-04-01 11:30:00,METAR LZIB 011130Z 34017KT 9999 FEW046 11/00 Q1020 NOSIG,0,17,0,10000,0,0,0,
2026-04-01 11:00:00,METAR LZIB 011100Z 36016KT 9999 FEW044 11/M00 Q1020 NOSIG,0,16,0,10000,0,0,0,
2026-04-01 10:30:00,METAR LZIB 011030Z 35016KT 9999 SCT043 11/M00 Q1020 NOSIG,0,16,0,10000,0,0,0,
2026-04-01 10:00:00,METAR LZIB 011000Z 35017G28KT 9999 SCT042 10/M00 Q1021 NOSIG,0,17,1,10000,0,0,0,
2026-04-01 09:30:00,METAR LZIB 010930Z 35018KT 9999 FEW040 11/01 Q1021 NOSIG,0,18,0,10000,0,0,0,
2026-04-01 09:00:00,METAR LZIB 010900Z 36016KT 310V020 9999 FEW041 10/M00 Q1021 NOSIG,0,16,0,10000,0,0,0,
2026-04-01 08:30:00,METAR LZIB 010830Z 35016KT 9999 FEW035 10/00 Q1021 NOSIG,0,16,0,10000,0,0,0,
2026-04-01 08:00:00,METAR LZIB 010800Z 34015KT 9999 FEW034 09/M00 Q1021 NOSIG,0,15,0,10000,0,0,0,
2026-04-01 07:30:00,METAR LZIB 010730Z 35015KT 9999 FEW032 08/M00 Q1021 NOSIG,0,15,0,10000,0,0,0,
2026-04-01 07:00:00,METAR LZIB 010700Z 35014KT 9999 FEW031 08/M01 Q1021 NOSIG,0,14,0,10000,0,0,0,
2026-04-01 06:30:00,METAR LZIB 010630Z 35015KT CAVOK 07/M01 Q1021 NOSIG,1,0,0,9999,0,0,0,
2026-04-01 06:00:00,METAR LZIB 010600Z 35014KT CAVOK 07/M01 Q1021 NOSIG,1,0,0,9999,0,0,0,
2026-04-01 05:30:00,METAR LZIB 010530Z 35014KT CAVOK 06/M01 Q1021 NOSIG,1,0,0,9999,0,0,0,
2026-04-01 05:00:00,METAR LZIB 010500Z 35011KT CAVOK 05/M01 Q1021 NOSIG,1,0,0,9999,0,0,0,
2026-04-01 04:30:00,METAR LZIB 010430Z 35011KT CAVOK 05/M01 Q1021 NOSIG,1,0,0,9999,0,0,0,
2026-04-01 04:00:00,METAR LZIB 010400Z 35011KT CAVOK 06/M01 Q1021 NOSIG,1,0,0,9999,0,0,0,
2026-04-01 03:30:00,METAR LZIB 010330Z 34011KT CAVOK 05/M01 Q1021 NOSIG,1,0,0,9999,0,0,0,
2026-04-01 03:00:00,METAR LZIB 010300Z 34013KT CAVOK 06/M01 Q1021 NOSIG,1,0,0,9999,0,0,0,
2026-04-01 02:30:00,METAR LZIB 010230Z 34014KT CAVOK 06/M01 Q1021 NOSIG,1,0,0,9999,0,0,0,
2026-04-01 02:00:00,METAR LZIB 010200Z 34011KT CAVOK 06/M01 Q1021 NOSIG,1,0,0,9999,0,0,0,
2026-04-01 01:30:00,METAR LZIB 010130Z 34014KT CAVOK 06/M01 Q1021 NOSIG,1,0,0,9999,0,0,0,
2026-04-01 01:00:00,METAR LZIB 010100Z 34014KT CAVOK 06/M01 Q1021 NOSIG,1,0,0,9999,0,0,0,
2026-04-01 00:30:00,METAR LZIB 010030Z 33014KT CAVOK 06/M01 Q1021 NOSIG,1,0,0,9999,0,0,0,
2026-04-01 00:00:00,METAR LZIB 010000Z 34012G22KT 320V020 CAVOK 07/M01 Q1021 NOSIG,1,0,0,9999,0,0,0,
2026-03-31 23:30:00,METAR LZIB 312330Z 34009KT CAVOK 07/M00 Q1021 NOSIG,1,0,0,9999,0,0,0,
2026-03-31 23:00:00,METAR LZIB 312300Z 33011KT 310V010 CAVOK 07/M00 Q1021 NOSIG,1,0,0,9999,0,0,0,
2026-03-31 22:30:00,METAR LZIB 312230Z 34011KT CAVOK 07/00 Q1021 NOSIG,1,0,0,9999,0,0,0,
2026-03-31 22:00:00,METAR LZIB 312200Z 33012KT CAVOK 07/01 Q1021 NOSIG,1,0,0,9999,0,0,0,
2026-03-31 21:30:00,METAR LZIB 312130Z 33010KT CAVOK 07/01 Q1021 NOSIG,1,0,0,9999,0,0,0,
2026-03-31 21:00:00,METAR LZIB 312100Z 35009KT CAVOK 07/01 Q1021 NOSIG,1,0,0,9999,0,0,0,
2026-03-31 20:30:00,METAR LZIB 312030Z 32011KT CAVOK 07/01 Q1021 NOSIG,1,0,0,9999,0,0,0,
2026-03-31 20:00:00,METAR LZIB 312000Z 34012KT 9999 FEW030 07/01 Q1021 NOSIG,0,12,0,9999,0,0,0,
2026-03-31 19:30:00,METAR LZIB 311930Z 34012KT CAVOK 07/01 Q1021 NOSIG,1,0,0,9999,0,0,0,
2026-03-31 19:00:00,METAR LZIB 311900Z 36012KT CAVOK 07/00 Q1020 NOSIG,1,0,0,9999,0,0,0,
2026-03-31 18:30:00,METAR LZIB 311830Z 35013KT CAVOK 07/01 Q1020 NOSIG,1,0,0,9999,0,0,0,
2026-03-31 18:00:00,METAR LZIB 311800Z 35012KT 9999 FEW030 07/01 Q1019 NOSIG,0,12,0,9999,0,0,0,
2026-03-31 17:30:00,METAR LZIB 311730Z 35012KT 9999 FEW030 07/01 Q1019 NOSIG,0,12,0,9999,0,0,0,
2026-03-31 17:00:00,METAR LZIB 311700Z 36013KT 9999 FEW031 07/01 Q1019 NOSIG,0,13,0,9999,0,0,0,
2026-03-31 16:30:00,METAR LZIB 311630Z 35013KT 9999 FEW032 07/01 Q1018 NOSIG,0,13,0,9999,0,0,0,
2026-03-31 16:00:00,METAR LZIB 311600Z 36015KT 9999 FEW027 07/01 Q1018 NOSIG,0,15,0,9999,0,0,0,
2026-03-31 15:30:00,METAR LZIB 311530Z 35018KT 9999 FEW027 07/01 Q1018 NOSIG,0,18,0,9999,0,0,0,
2026-03-31 15:00:00,METAR LZIB 311500Z 35017KT 9999 FEW027 08/01 Q1018 NOSIG,0,17,0,9999,0,0,0,
2026-03-31 14:30:00,METAR LZIB 311430Z 36018KT 9999 FEW025 08/01 Q1017 NOSIG,0,18,0,9999,0,0,0,
2026-03-31 14:00:00,METAR LZIB 311400Z 35019KT 9999 FEW023 07/02 Q1017 NOSIG,0,19,0,9999,0,0,0,
2026-03-31 13:30:00,METAR LZIB 311330Z 34018KT 9999 FEW017 SCT025 BKN035 07/02 Q1017 NOSIG,0,18,0,9999,0,0,0,
2026-03-31 13:00:00,METAR LZIB 311300Z 34016KT 9999 FEW016 SCT028 BKN035 07/02 Q1017 NOSIG,0,16,0,9999,0,0,0,
2026-03-31 12:30:00,METAR LZIB 311230Z 34018KT 9999 FEW014 SCT021 BKN034 08/03 Q1017 NOSIG,0,18,0,9999,0,0,0,
2026-03-31 12:00:00,METAR LZIB 311200Z 34015KT 9999 FEW014 SCT019 BKN036 07/03 Q1017 NOSIG,0,15,0,9999,0,0,0,
2026-03-31 11:30:00,METAR LZIB 311130Z 34015KT 9999 FEW014 SCT023 07/03 Q1016 NOSIG,0,15,0,9999,0,0,0,
2026-03-31 11:00:00,METAR LZIB 311100Z 33015KT 9999 FEW012 SCT018 07/02 Q1016 NOSIG,0,15,0,9999,0,0,0,
2026-03-31 10:30:00,METAR LZIB 311030Z 34016KT 300V360 9999 FEW023 BKN027 08/03 Q1016 NOSIG,0,16,0,9999,0,0,0,
2026-03-31 10:00:00,METAR LZIB 311000Z 34016KT 9999 SCT022 BKN029 08/03 Q1016 NOSIG,0,16,0,9999,0,0,0,
2026-03-31 09:30:00,METAR LZIB 310930Z 35016KT 9999 SCT019 BKN026 07/03 Q1016 NOSIG,0,16,0,9999,0,0,0,
2026-03-31 09:00:00,METAR LZIB 310900Z 34016KT 9999 FEW018 SCT023 08/03 Q1016 NOSIG,0,16,0,9999,0,0,0,
2026-03-31 08:30:00,METAR LZIB 310830Z 34015KT 9999 FEW011 SCT020 08/03 Q1015 NOSIG,0,15,0,9999,0,0,0,
2026-03-31 08:00:00,METAR LZIB 310800Z 34017KT 9999 FEW011 SCT020 07/03 Q1015 NOSIG,0,17,0,9999,0,0,0,
2026-03-31 07:30:00,METAR LZIB 310730Z 33013KT 9999 FEW010 SCT018 06/02 Q1015 NOSIG,0,13,0,9999,0,0,0,
2026-03-31 07:00:00,METAR LZIB 310700Z 33015KT 9999 FEW010 SCT017 06/02 Q1014 NOSIG,0,15,0,9999,0,0,0,
2026-03-31 06:30:00,METAR LZIB 310630Z 33014KT 9999 FEW010 SCT017 05/02 Q1014 NOSIG,0,14,0,9999,0,0,0,
2026-03-31 06:00:00,METAR LZIB 310600Z 33013KT 9999 FEW010 SCT018 BKN048 05/02 Q1014 NOSIG,0,13,0,9999,0,0,0,
2026-03-31 05:30:00,METAR LZIB 310530Z 33011KT 9999 FEW010 SCT018 05/02 Q1014 NOSIG,0,11,0,9999,0,0,0,
2026-03-31 05:00:00,METAR LZIB 310500Z 33010KT 9999 -RA FEW010 SCT018 BKN041 05/02 Q1014 NOSIG,0,10,0,9999,0,0,0,-RA
2026-03-31 04:30:00,METAR LZIB 310430Z 31009KT 9999 -RA FEW010 SCT018 05/02 Q1013 NOSIG,0,9,0,9999,0,0,0,-RA
2026-03-31 04:00:00,METAR LZIB 310400Z 32013KT 9999 -RA FEW010 SCT031 05/02 Q1013 NOSIG,0,13,0,9999,0,0,0,-RA
2026-03-31 03:30:00,METAR LZIB 310330Z 32013KT 9999 -RA FEW011 SCT019 05/02 Q1013 NOSIG,0,13,0,9999,0,0,0,-RA
2026-03-31 03:00:00,METAR LZIB 310300Z 32013KT 9999 FEW013 SCT020 06/02 Q1012 NOSIG,0,13,0,9999,0,0,0,
2026-03-31 02:30:00,METAR LZIB 310230Z 33011KT 9999 SCT022 BKN045 06/02 Q1012 NOSIG,0,11,0,9999,0,0,0,
2026-03-31 02:00:00,METAR LZIB 310200Z 32010KT 9999 SCT025 BKN035 06/02 Q1012 NOSIG,0,10,0,9999,0,0,0,
2026-03-31 01:30:00,METAR LZIB 310130Z 31010KT 9999 BKN030 06/01 Q1012 NOSIG,0,10,0,9999,0,0,0,
2026-03-31 01:00:00,METAR LZIB 310100Z 31012KT 9999 FEW027 BKN035 06/01 Q1012 NOSIG,0,12,0,9999,0,0,0,
2026-03-31 00:30:00,METAR LZIB 310030Z 31012KT 9999 BKN036 06/01 Q1012 NOSIG,0,12,0,9999,0,0,0,
2026-03-31 00:00:00,METAR LZIB 310000Z 31012KT 9999 BKN040 06/01 Q1012 NOSIG,0,12,0,9999,0,0,0,
2026-03-30 23:30:00,METAR LZIB 302330Z 31013KT 9999 BKN043 07/01 Q1012 NOSIG,0,13,0,10000,0,0,0,
2026-03-30 23:00:00,METAR LZIB 302300Z 30011KT 9999 BKN047 06/01 Q1012 NOSIG,0,11,0,10000,0,0,0,
2026-03-30 22:30:00,METAR LZIB 302230Z 29010KT 260V320 9999 FEW045 06/01 Q1012 NOSIG,0,10,0,10000,0,0,0,
2026-03-30 22:00:00,METAR LZIB 302200Z 29008KT 9999 BKN045 06/01 Q1012 NOSIG,0,8,0,10000,0,0,0,
2026-03-30 21:30:00,METAR LZIB 302130Z 28010KT 9999 SCT043 07/01 Q1012 NOSIG,0,10,0,10000,0,0,0,
2026-03-30 21:00:00,METAR LZIB 302100Z 27009KT CAVOK 06/01 Q1012 NOSIG,1,0,0,9999,0,0,0,
2026-03-30 20:30:00,METAR LZIB 302030Z 28007KT 9999 FEW047 06/01 Q1012 NOSIG,0,7,0,10000,0,0,0,
2026-03-30 20:00:00,METAR LZIB 302000Z 29007KT 9999 FEW047 07/01 Q1011 NOSIG,0,7,0,10000,0,0,0,
2026-03-30 19:30:00,METAR LZIB 301930Z 29006KT 9999 SCT047 07/01 Q1011 NOSIG,0,6,0,10000,0,0,0,
2026-03-30 19:00:00,METAR LZIB 301900Z 29006KT CAVOK 07/01 Q1011 NOSIG,1,0,0,9999,0,0,0,
2026-03-30 18:30:00,METAR LZIB 301830Z 31006KT 9999 FEW045 08/01 Q1011 NOSIG,0,6,0,10000,0,0,0,
2026-03-30 18:00:00,METAR LZIB 301800Z 31008KT 9999 FEW046 08/01 Q1011 NOSIG,0,8,0,10000,0,0,0,
2026-03-30 17:30:00,METAR LZIB 301730Z 30007KT 9999 FEW046 08/01 Q1011 NOSIG,0,7,0,10000,0,0,0,
2026-03-30 17:00:00,METAR LZIB 301700Z 30008KT 9999 FEW046 08/01 Q1011 NOSIG,0,8,0,10000,0,0,0,
2026-03-30 16:30:00,METAR LZIB 301630Z 30007KT 9999 SCT048 08/01 Q1011 NOSIG,0,7,0,10000,0,0,0,
2026-03-30 16:00:00,METAR LZIB 301600Z 30007KT 9999 FEW047 08/01 Q1011 NOSIG,0,7,0,10000,0,0,0,
2026-03-30 15:30:00,METAR LZIB 301530Z 30010KT 9999 FEW048 08/01 Q1011 NOSIG,0,10,0,10000,0,0,0,
2026-03-30 15:00:00,METAR LZIB 301500Z 30011KT 9999 FEW041 08/01 Q1011 NOSIG,0,11,0,10000,0,0,0,
2026-03-30 14:30:00,METAR LZIB 301430Z 29012KT 9999 FEW037 BKN042 08/00 Q1012 NOSIG,0,12,0,10000,0,0,0,
2026-03-30 14:00:00,METAR LZIB 301400Z 30011KT 9999 FEW037 BKN042 08/00 Q1012 NOSIG,0,11,0,10000,0,0,0,
2026-03-30 13:30:00,METAR LZIB 301330Z 29010KT 270V330 9999 FEW038 BKN046 09/M00 Q1012 NOSIG,0,10,0,10000,0,0,0,
2026-03-30 13:00:00,METAR LZIB 301300Z 29012KT 280V340 9999 FEW037 SCT048 09/00 Q1012 NOSIG,0,12,0,10000,0,0,0,
2026-03-30 12:30:00,METAR LZIB 301230Z 29014KT 260V320 9999 FEW039 09/00 Q1013 NOSIG,0,14,0,10000,0,0,0,
2026-03-30 12:00:00,METAR LZIB 301200Z 29014KT 9999 FEW040 09/M01 Q1013 NOSIG,0,14,0,10000,0,0,0,
2026-03-30 11:30:00,METAR LZIB 301130Z 29014KT 9999 FEW040 SCT045 09/M01 Q1013 NOSIG,0,14,0,10000,0,0,0,
2026-03-30 11:00:00,METAR LZIB 301100Z 31007KT 270V340 9999 FEW045 09/00 Q1014 NOSIG,0,7,0,10000,0,0,0,
2026-03-30 10:30:00,METAR LZIB 301030Z 33005KT 9999 SCT043 07/01 Q1015 NOSIG,0,5,0,10000,0,0,0,
2026-03-30 10:00:00,METAR LZIB 301000Z 32004KT 280V340 9999 FEW045 07/01 Q1015 NOSIG,0,4,0,10000,0,0,0,
2026-03-30 09:30:00,METAR LZIB 300930Z 32005KT CAVOK 07/01 Q1015 NOSIG,1,0,0,9999,0,0,0,
2026-03-30 09:00:00,METAR LZIB 300900Z 30006KT CAVOK 07/01 Q1016 NOSIG,1,0,0,9999,0,0,0,
2026-03-30 08:30:00,METAR LZIB 300830Z 30007KT CAVOK 06/00 Q1016 NOSIG,1,0,0,9999,0,0,0,
2026-03-30 08:00:00,METAR LZIB 300800Z 30008KT CAVOK 06/00 Q1017 NOSIG,1,0,0,9999,0,0,0,
2026-03-30 07:30:00,METAR LZIB 300730Z 31008KT 280V350 CAVOK 06/M00 Q1017 NOSIG,1,0,0,9999,0,0,0,
2026-03-30 07:00:00,METAR LZIB 300700Z 30010KT 280V340 CAVOK 06/M00 Q1017 NOSIG,1,0,0,9999,0,0,0,
2026-03-30 06:30:00,METAR LZIB 300630Z 30008KT CAVOK 06/M01 Q1017 NOSIG,1,0,0,9999,0,0,0,
2026-03-30 06:00:00,METAR LZIB 300600Z 31008KT 280V340 CAVOK 06/M01 Q1017 NOSIG,1,0,0,9999,0,0,0,
2026-03-30 05:30:00,METAR LZIB 300530Z 32009KT 280V350 CAVOK 07/M01 Q1017 NOSIG,1,0,0,9999,0,0,0,
2026-03-30 05:00:00,METAR LZIB 300500Z 33006KT 280V020 CAVOK 06/M01 Q1017 NOSIG,1,0,0,9999,0,0,0,
2026-03-30 04:30:00,METAR LZIB 300430Z VRB04KT CAVOK 06/M01 Q1018 NOSIG,1,0,0,9999,0,0,0,
2026-03-30 04:00:00,METAR LZIB 300400Z VRB03KT CAVOK 06/M01 Q1018 NOSIG,1,0,0,9999,0,0,0,
2026-03-30 03:30:00,METAR LZIB 300330Z 31005KT 270V060 CAVOK 06/M00 Q1018 NOSIG,1,0,0,9999,0,0,0,
2026-03-30 03:00:00,METAR LZIB 300300Z 30007KT CAVOK 07/M01 Q1018 NOSIG,1,0,0,9999,0,0,0,
2026-03-30 02:30:00,METAR LZIB 300230Z 34008KT 300V020 CAVOK 07/M01 Q1018 NOSIG,1,0,0,9999,0,0,0,
2026-03-30 02:00:00,METAR LZIB 300200Z 34009KT 310V010 CAVOK 07/M00 Q1019 NOSIG,1,0,0,9999,0,0,0,
2026-03-30 01:30:00,METAR LZIB 300130Z 34013KT 290V010 9999 FEW038 07/M00 Q1019 NOSIG,0,13,0,10000,0,0,0,
2026-03-30 01:00:00,METAR LZIB 300100Z 35011KT 310V040 9999 FEW038 07/00 Q1019 NOSIG,0,11,0,10000,0,0,0,
2026-03-30 00:30:00,METAR LZIB 300030Z 35008KT 310V020 9999 FEW036 07/00 Q1020 NOSIG,0,8,0,10000,0,0,0,
2026-03-30 00:00:00,METAR LZIB 300000Z 34007KT 310V010 9999 FEW028 07/01 Q1020 NOSIG,0,7,0,10000,0,0,0,
2026-03-29 23:30:00,METAR LZIB 292330Z 32009KT 9999 FEW028 SCT036 07/01 Q1021 NOSIG,0,9,0,10000,0,0,0,
2026-03-29 23:00:00,METAR LZIB 292300Z 33011KT 290V360 9999 FEW028 07/01 Q1021 NOSIG,0,11,0,10000,0,0,0,
2026-03-29 22:30:00,METAR LZIB 292230Z 34008KT 310V020 9999 FEW024 07/02 Q1021 NOSIG,0,8,0,10000,0,0,0,
2026-03-29 22:00:00,METAR LZIB 292200Z 35006KT 310V060 9999 -RA FEW024 SCT048 07/02 Q1021 NOSIG,0,6,0,10000,0,0,0,-RA
2026-03-29 21:30:00,METAR LZIB 292130Z 01007KT 310V070 9999 FEW024 SCT046 07/02 Q1021 NOSIG,0,7,0,10000,0,0,0,
2026-03-29 21:00:00,METAR LZIB 292100Z 36007KT 320V040 9999 SCT025 SCT045 07/02 Q1021 NOSIG,0,7,0,10000,0,0,0,
2026-03-29 20:30:00,METAR LZIB 292030Z 34010KT 300V020 9999 SCT023 SCT032 BKN046 07/02 Q1021 NOSIG,0,10,0,10000,0,0,0,
2026-03-29 20:00:00,METAR LZIB 292000Z 33013KT 300V020 9999 FEW023 SCT043 BKN049 07/02 Q1021 NOSIG,0,13,0,10000,0,0,0,
2026-03-29 19:30:00,METAR LZIB 291930Z 34012KT 300V020 9999 SCT024 SCT045 07/03 Q1021 NOSIG,0,12,0,10000,0,0,0,
2026-03-29 19:00:00,METAR LZIB 291900Z 35009KT 330V030 9999 -RA SCT023 SCT043 07/03 Q1021 NOSIG,0,9,0,10000,0,0,0,-RA
2026-03-29 18:30:00,METAR LZIB 291830Z 35010KT 260V020 9999 -RA SCT024 SCT048 07/03 Q1021 NOSIG,0,10,0,10000,0,0,0,-RA
2026-03-29 18:00:00,METAR LZIB 291800Z 36008KT 320V080 9999 -RA SCT023 BKN048 07/03 Q1021 NOSIG,0,8,0,10000,0,0,0,-RA
2026-03-29 17:30:00,METAR LZIB 291730Z 35011KT 9999 -RA SCT024 BKN043 07/03 Q1020 NOSIG,0,11,0,10000,0,0,0,-RA
2026-03-29 17:00:00,METAR LZIB 291700Z 33012KT 300V010 9999 -RA FEW018 BKN023 07/03 Q1020 NOSIG,0,12,0,10000,0,0,0,-RA
2026-03-29 16:30:00,METAR LZIB 291630Z 32013G23KT 9999 SCT023 BKN043 07/03 Q1020 NOSIG,0,13,1,10000,0,0,0,
2026-03-29 16:00:00,METAR LZIB 291600Z 31017KT 9999 SCT023 BKN042 07/03 Q1019 NOSIG,0,17,0,10000,0,0,0,
2026-03-29 15:30:00,METAR LZIB 291530Z 31018G29KT 9999 FEW023 SCT045 07/03 Q1019 NOSIG,0,18,1,10000,0,0,0,
2026-03-29 15:00:00,METAR LZIB 291500Z 30018G28KT 9999 SCT021 BKN042 07/03 Q1019 NOSIG,0,18,1,10000,0,0,0,
2026-03-29 14:30:00,METAR LZIB 291430Z 30018G30KT 270V340 9999 SCT020 BKN040 07/03 Q1019 NOSIG,0,18,1,10000,0,0,0,
2026-03-29 14:00:00,METAR LZIB 291400Z 30017KT 9999 SCT019 BKN043 07/03 Q1019 NOSIG,0,17,0,10000,0,0,0,
2026-03-29 13:30:00,METAR LZIB 291330Z 31015KT 9999 SCT019 BKN041 07/03 Q1019 NOSIG,0,15,0,10000,0,0,0,
2026-03-29 13:00:00,METAR LZIB 291300Z 31019G30KT 260V330 9999 SCT018 SCT029 BKN045 07/03 Q1019 NOSIG,0,19,1,10000,0,0,0,
2026-03-29 12:30:00,METAR LZIB 291230Z 30018KT 280V340 9999 SCT018 SCT034 07/03 Q1018 WS R31 NOSIG,0,18,0,10000,0,0,0,
2026-03-29 12:00:00,METAR LZIB 291200Z 31019G30KT 9999 SCT018 SCT032 06/02 Q1018 WS R31 NOSIG,0,19,1,10000,0,0,0,
2026-03-29 11:30:00,METAR LZIB 291130Z 31017G28KT 280V340 9999 SCT018 SCT032 06/02 Q1018 NOSIG,0,17,1,10000,0,0,0,
2026-03-29 11:00:00,METAR LZIB 291100Z 33016KT 280V010 9999 SCT018 SCT031 06/02 Q1018 NOSIG,0,16,0,10000,0,0,0,
2026-03-29 10:30:00,METAR LZIB 291030Z 31022G36KT 9999 -RA SCT018 SCT037 06/02 Q1017 WS R31 NOSIG,0,22,1,10000,0,0,0,-RA
2026-03-29 10:00:00,METAR LZIB 291000Z 32019G32KT 9999 FEW013 BKN018 BKN034 06/02 Q1017 WS R31 NOSIG,0,19,1,10000,0,0,0,
2026-03-29 09:30:00,METAR LZIB 290930Z 32021G33KT 9999 FEW012 BKN017 06/02 Q1017 NOSIG,0,21,1,10000,0,0,0,
2026-03-29 09:00:00,METAR LZIB 290900Z 33017KT 9999 FEW011 BKN016 06/02 Q1017 NOSIG,0,17,0,10000,0,0,0,
2026-03-29 08:30:00,METAR LZIB 290830Z 35011KT 300V020 9999 FEW010 BKN015 05/02 Q1017 NOSIG,0,11,0,10000,0,0,0,
2026-03-29 08:00:00,METAR LZIB 290800Z 35011KT 310V030 9999 BKN010 BKN015 05/02 Q1017 NOSIG,0,11,0,10000,0,0,0,
2026-03-29 07:30:00,METAR LZIB 290730Z 32017G27KT 290V010 9999 FEW009 BKN014 05/02 Q1016 NOSIG,0,17,1,10000,0,0,0,
2026-03-29 07:00:00,METAR LZIB 290700Z 31020KT 280V340 9999 FEW009 BKN014 05/02 Q1016 NOSIG,0,20,0,10000,0,0,0,
2026-03-29 06:30:00,METAR LZIB 290630Z 31021G34KT 9999 FEW009 BKN013 BKN043 05/02 Q1016 BECMG SCT014 BKN048,0,21,1,10000,0,0,0,
2026-03-29 06:00:00,METAR LZIB 290600Z 32018G32KT 290V350 9999 FEW009 BKN013 BKN039 04/02 Q1015 BECMG SCT014 BKN048,0,18,1,10000,0,0,0,
2026-03-29 05:30:00,METAR LZIB 290530Z 31019G30KT 280V340 9999 FEW009 BKN013 04/02 Q1015 BECMG SCT014 BKN048,0,19,1,10000,0,0,0,
2026-03-29 05:00:00,METAR LZIB 290500Z 31023G35KT 9999 BKN013 04/02 Q1014 BECMG SCT014 BKN048,0,23,1,10000,0,0,0,
2026-03-29 04:30:00,METAR LZIB 290430Z 32016G27KT 9999 -SHRA BKN012 BKN045 05/02 Q1014 BECMG SCT014 BKN048,0,16,1,10000,0,0,0,RA
2026-03-29 04:00:00,METAR LZIB 290400Z 31018G29KT 9999 -SHRA FEW012 BKN014 BKN048 05/02 Q1014 NOSIG,0,18,1,10000,0,0,0,RA
2026-03-29 03:30:00,METAR LZIB 290330Z 31017KT 9999 -SHRA FEW012 SCT017 BKN045 05/03 Q1013 NOSIG,0,17,0,10000,0,0,0,RA
2026-03-29 03:00:00,METAR LZIB 290300Z 31014G24KT 270V350 9999 FEW016 SCT039 BKN041 05/03 Q1013 NOSIG,0,14,1,10000,0,0,0,
2026-03-29 02:30:00,METAR LZIB 290230Z 33011KT 9999 -SHRA SCT018 BKN041 06/01 Q1013 NOSIG,0,11,0,10000,0,0,0,RA
2026-03-29 02:00:00,METAR LZIB 290200Z AUTO 32013KT 290V350 9999 OVC045/// 06/02 Q1013 NOSIG,0,13,0,10000,0,0,0,
2026-03-29 01:30:00,METAR LZIB 290130Z 30011KT 270V340 9999 FEW021 SCT046 06/02 Q1013 NOSIG,0,11,0,10000,0,0,0,
2026-03-29 01:00:00,METAR LZIB 290100Z AUTO 33015G27KT 9999 FEW026/// 06/01 Q1013 NOSIG,0,15,1,10000,0,0,0,
2026-03-29 00:30:00,METAR LZIB 290030Z 33011KT 9999 -SHRA FEW026 BKN040 06/01 Q1013 NOSIG,0,11,0,10000,0,0,0,RA
2026-03-29 00:00:00,METAR LZIB 290000Z 33017KT 300V010 9999 -RA FEW027 SCT045 06/01 Q1013 NOSIG,0,17,0,10000,0,0,0,-RA
2026-03-28 23:30:00,METAR LZIB 282330Z 01010KT 330V040 9999 -RA FEW029 BKN047 07/00 Q1013 NOSIG,0,10,0,10000,0,0,0,-RA
2026-03-28 23:00:00,METAR LZIB 282300Z 36011KT 9999 -RA SCT029 BKN048 07/M00 Q1013 NOSIG,0,11,0,10000,0,0,0,-RA
2026-03-28 22:30:00,METAR LZIB 282230Z 35008KT 310V030 9999 -RA FEW044 06/00 Q1013 NOSIG,0,8,0,10000,0,0,0,-RA
2026-03-28 22:00:00,METAR LZIB 282200Z 32011G22KT 9999 -RA SCT038 BKN046 07/M00 Q1013 NOSIG,0,11,1,10000,0,0,0,-RA
2026-03-28 21:30:00,METAR LZIB 282130Z 34009KT 310V010 9999 -RA SCT046 07/M01 Q1013 NOSIG,0,9,0,10000,0,0,0,-RA
2026-03-28 21:00:00,METAR LZIB 282100Z 34009KT CAVOK 07/M01 Q1013 NOSIG,1,0,0,9999,0,0,0,
2026-03-28 20:30:00,METAR LZIB 282030Z 35010KT 310V020 CAVOK 07/M00 Q1013 NOSIG,1,0,0,9999,0,0,0,
2026-03-28 20:00:00,METAR LZIB 282000Z 33008KT 280V010 9999 -RA NSC 07/M01 Q1013 NOSIG,0,8,0,10000,0,0,0,-RA
2026-03-28 19:30:00,METAR LZIB 281930Z 34013G23KT 300V010 CAVOK 07/M01 Q1013 NOSIG,1,0,0,9999,0,0,0,
2026-03-28 19:00:00,METAR LZIB 281900Z 33014KT 290V360 CAVOK 07/M01 Q1013 NOSIG,1,0,0,9999,0,0,0,
2026-03-28 18:30:00,METAR LZIB 281830Z 32015KT CAVOK 06/M01 Q1013 NOSIG,1,0,0,9999,0,0,0,
2026-03-28 18:00:00,METAR LZIB 281800Z 31018G32KT CAVOK 06/M02 Q1012 NOSIG,1,0,0,9999,0,0,0,
2026-03-28 17:30:00,METAR LZIB 281730Z 30017KT 9999 FEW036 06/M02 Q1012 NOSIG,0,17,0,10000,0,0,0,
2026-03-28 17:00:00,METAR LZIB 281700Z 31016G27KT 9999 FEW036 06/M01 Q1012 NOSIG,0,16,1,10000,0,0,0,
2026-03-28 16:30:00,METAR LZIB 281630Z 30018KT 9999 FEW036 06/M02 Q1011 NOSIG,0,18,0,10000,0,0,0,
2026-03-28 16:00:00,METAR LZIB 281600Z 30016KT 270V340 9999 FEW036 06/M01 Q1011 NOSIG,0,16,0,10000,0,0,0,
2026-03-28 15:30:00,METAR LZIB 281530Z 30016KT 9999 FEW036 07/M02 Q1012 NOSIG,0,16,0,10000,0,0,0,
2026-03-28 15:00:00,METAR LZIB 281500Z 31017KT 9999 FEW036 07/M01 Q1012 NOSIG,0,17,0,10000,0,0,0,
2026-03-28 14:30:00,METAR LZIB 281430Z 31015KT 9999 FEW036 07/M02 Q1012 NOSIG,0,15,0,10000,0,0,0,
2026-03-28 14:00:00,METAR LZIB 281400Z 30016G28KT 9999 FEW036 07/M01 Q1012 NOSIG,0,16,1,10000,0,0,0,
2026-03-28 13:30:00,METAR LZIB 281330Z 31019KT 9999 FEW036 07/M01 Q1012 NOSIG,0,19,0,10000,0,0,0,
2026-03-28 13:00:00,METAR LZIB 281300Z 31020KT 9999 FEW036 07/M01 Q1012 NOSIG,0,20,0,10000,0,0,0,
2026-03-28 12:30:00,METAR LZIB 281230Z 30022G35KT 9999 FEW033 07/M01 Q1012 NOSIG,0,22,1,10000,0,0,0,
2026-03-28 12:00:00,METAR LZIB 281200Z 31021G31KT 9999 FEW030 SCT038 07/M01 Q1012 NOSIG,0,21,1,10000,0,0,0,
2026-03-28 11:30:00,METAR LZIB 281130Z 30019KT 9999 FEW030 BKN036 07/M01 Q1013 NOSIG,0,19,0,10000,0,0,0,
2026-03-28 11:00:00,METAR LZIB 281100Z 31017KT 9999 FEW029 BKN034 06/M02 Q1013 NOSIG,0,17,0,10000,0,0,0,
2026-03-28 10:30:00,METAR LZIB 281030Z 30019G31KT 9999 FEW027 BKN035 06/M02 Q1013 NOSIG,0,19,1,10000,0,0,0,
2026-03-28 10:00:00,METAR LZIB 281000Z 31017G28KT 280V340 9999 FEW027 BKN034 05/M02 Q1014 NOSIG,0,17,1,10000,0,0,0,
2026-03-28 09:30:00,METAR LZIB 280930Z 32016KT 9999 FEW024 BKN032 05/M01 Q1014 NOSIG,0,16,0,10000,0,0,0,
2026-03-28 09:00:00,METAR LZIB 280900Z 31018G28KT 280V340 9999 FEW022 BKN030 04/M01 Q1014 NOSIG,0,18,1,10000,0,0,0,
2026-03-28 08:30:00,METAR LZIB 280830Z 31022KT 9999 FEW022 BKN030 04/M01 Q1014 NOSIG,0,22,0,10000,0,0,0,
2026-03-28 08:00:00,METAR LZIB 280800Z 30019KT 9999 FEW020 BKN031 04/M01 Q1014 NOSIG,0,19,0,10000,0,0,0,
2026-03-28 07:30:00,METAR LZIB 280730Z 30020KT 9999 FEW018 BKN031 04/M01 Q1014 NOSIG,0,20,0,10000,0,0,0,
2026-03-28 07:00:00,METAR LZIB 280700Z 30021G33KT 9999 FEW018 BKN032 03/M01 Q1014 NOSIG,0,21,1,10000,0,0,0,
2026-03-28 06:30:00,METAR LZIB 280630Z 30017KT 9999 FEW018 BKN034 03/M01 Q1014 NOSIG,0,17,0,10000,0,0,0,
2026-03-28 06:00:00,METAR LZIB 280600Z 30024KT 9999 FEW018 BKN033 03/M01 Q1014 NOSIG,0,24,0,10000,0,0,0,
2026-03-28 05:30:00,METAR LZIB 280530Z 31016G29KT 9999 FEW020 BKN034 04/M01 Q1014 NOSIG,0,16,1,10000,0,0,0,
2026-03-28 05:00:00,METAR LZIB 280500Z 32015KT 9999 FEW025 BKN036 04/M01 Q1015 NOSIG,0,15,0,10000,0,0,0,
2026-03-28 04:30:00,METAR LZIB 280430Z 33013KT 9999 FEW030 BKN037 04/M01 Q1014 NOSIG,0,13,0,10000,0,0,0,
2026-03-28 04:00:00,METAR LZIB 280400Z 32015KT 9999 BKN038 04/M01 Q1014 NOSIG,0,15,0,10000,0,0,0,
2026-03-28 03:30:00,METAR LZIB 280330Z 32015KT 9999 BKN038 04/M01 Q1014 NOSIG,0,15,0,10000,0,0,0,
2026-03-28 03:00:00,METAR LZIB 280300Z 34012KT 310V010 9999 FEW030 BKN040 04/M01 Q1014 NOSIG,0,12,0,10000,0,0,0,
2026-03-28 02:30:00,METAR LZIB 280230Z 32013KT 9999 FEW023 BKN039 04/M01 Q1014 NOSIG,0,13,0,10000,0,0,0,
2026-03-28 02:00:00,METAR LZIB 280200Z 34011KT 310V010 9999 FEW023 BKN041 04/M00 Q1014 NOSIG,0,11,0,10000,0,0,0,
2026-03-28 01:30:00,METAR LZIB 280130Z 34009KT 310V010 9999 FEW011 SCT022 BKN041 04/00 Q1015 NOSIG,0,9,0,10000,0,0,0,
2026-03-28 01:00:00,METAR LZIB 280100Z 33012G22KT 300V010 9999 FEW010 BKN040 04/00 Q1015 NOSIG,0,12,1,10000,0,0,0,
2026-03-28 00:30:00,METAR LZIB 280030Z 34017KT 9999 FEW010 BKN040 04/00 Q1015 NOSIG,0,17,0,10000,0,0,0,
2026-03-28 00:00:00,METAR LZIB 280000Z 33017KT 9999 FEW009 SCT042 04/00 Q1015 NOSIG,0,17,0,10000,0,0,0,
2026-03-27 23:30:00,METAR LZIB 272330Z 33016KT 9999 FEW009 BKN040 04/01 Q1015 NOSIG,0,16,0,10000,0,0,0,
2026-03-27 23:00:00,METAR LZIB 272300Z 33017KT 9999 FEW009 SCT048 04/01 Q1015 NOSIG,0,17,0,10000,0,0,0,
2026-03-27 22:30:00,METAR LZIB 272230Z 33021KT 9999 FEW010 SCT049 04/01 Q1015 NOSIG,0,21,0,10000,0,0,0,
2026-03-27 22:00:00,METAR LZIB 272200Z 33015KT 310V010 9999 FEW010 BKN048 04/01 Q1015 NOSIG,0,15,0,10000,0,0,0,
2026-03-27 21:30:00,METAR LZIB 272130Z 34021KT 9999 -RA FEW009 SCT033 BKN041 04/01 Q1015 NOSIG,0,21,0,10000,0,0,0,-RA
2026-03-27 21:00:00,METAR LZIB 272100Z 34018KT 9999 FEW010 SCT048 04/01 Q1015 NOSIG,0,18,0,10000,0,0,0,
2026-03-27 20:30:00,METAR LZIB 272030Z 34020KT 9999 -RA FEW010 SCT038 BKN048 04/01 Q1015 NOSIG,0,20,0,10000,0,0,0,-RA
2026-03-27 20:00:00,METAR LZIB 272000Z 35019KT 9999 FEW010 BKN038 05/01 Q1015 NOSIG,0,19,0,10000,0,0,0,
2026-03-27 19:30:00,METAR LZIB 271930Z 34019KT 9999 FEW010 05/01 Q1015 NOSIG,0,19,0,10000,0,0,0,
2026-03-27 19:00:00,METAR LZIB 271900Z 34018KT 9999 FEW010 SCT023 05/01 Q1015 NOSIG,0,18,0,10000,0,0,0,
2026-03-27 18:30:00,METAR LZIB 271830Z 34015KT 9999 -RA FEW010 SCT027 BKN049 05/01 Q1015 NOSIG,0,15,0,10000,0,0,0,-RA
2026-03-27 18:00:00,METAR LZIB 271800Z 34014KT 9999 -RA FEW010 BKN048 04/02 Q1015 NOSIG,0,14,0,10000,0,0,0,-RA
2026-03-27 17:30:00,METAR LZIB 271730Z 34018KT 9999 -RA SCT021 BKN027 BKN047 05/02 Q1014 NOSIG,0,18,0,10000,0,0,0,-RA
2026-03-27 17:00:00,METAR LZIB 271700Z 35015KT 9999 -RA BKN024 BKN032 05/01 Q1014 NOSIG,0,15,0,10000,0,0,0,-RA
2026-03-27 16:30:00,METAR LZIB 271630Z 35016KT 9999 -RA SCT028 BKN035 BKN046 05/01 Q1013 NOSIG,0,16,0,10000,0,0,0,-RA
2026-03-27 16:00:00,METAR LZIB 271600Z 35015KT 9999 -RA SCT029 BKN032 BKN048 05/01 Q1013 NOSIG,0,15,0,10000,0,0,0,-RA
2026-03-25 15:00:00,METAR LZIB 251500Z 16011KT CAVOK 17/M01 Q1000 NOSIG,1,0,0,9999,0,0,0,
2026-03-25 14:30:00,METAR LZIB 251430Z 17012KT CAVOK 18/M01 Q1001 NOSIG,1,0,0,9999,0,0,0,
2026-03-25 14:00:00,METAR LZIB 251400Z 19012KT CAVOK 18/M02 Q1002 NOSIG,1,0,0,9999,0,0,0,
2026-03-25 13:30:00,METAR LZIB 251330Z 16011KT 130V200 CAVOK 17/M01 Q1002 NOSIG,1,0,0,9999,0,0,0,
2026-03-25 13:00:00,METAR LZIB 251300Z 17010KT 120V200 CAVOK 17/00 Q1003 NOSIG,1,0,0,9999,0,0,0,
2026-03-25 12:30:00,METAR LZIB 251230Z 15009KT 130V200 CAVOK 17/00 Q1003 NOSIG,1,0,0,9999,0,0,0,
2026-03-25 12:00:00,METAR LZIB 251200Z 17007KT 120V260 CAVOK 16/01 Q1004 NOSIG,1,0,0,9999,0,0,0,
2026-03-25 11:30:00,METAR LZIB 251130Z 14003KT 060V210 CAVOK 15/04 Q1005 NOSIG,1,0,0,9999,0,0,0,
2026-03-25 11:00:00,METAR LZIB 251100Z VRB02KT CAVOK 13/03 Q1006 NOSIG,1,0,0,9999,0,0,0,
2026-03-25 10:30:00,METAR LZIB 251030Z 11004KT 070V170 CAVOK 11/03 Q1007 NOSIG,1,0,0,9999,0,0,0,
2026-03-25 10:00:00,METAR LZIB 251000Z VRB03KT CAVOK 10/02 Q1008 NOSIG,1,0,0,9999,0,0,0,
2026-03-25 09:30:00,METAR LZIB 250930Z 08004KT 030V120 CAVOK 09/01 Q1008 NOSIG,1,0,0,9999,0,0,0,
2026-03-25 09:00:00,METAR LZIB 250900Z VRB03KT CAVOK 08/01 Q1009 NOSIG,1,0,0,9999,0,0,0,
2026-03-25 08:30:00,METAR LZIB 250830Z 04004KT 010V090 CAVOK 07/01 Q1009 NOSIG,1,0,0,9999,0,0,0,
2026-03-25 08:00:00,METAR LZIB 250800Z 04005KT CAVOK 06/01 Q1010 NOSIG,1,0,0,9999,0,0,0,
2026-03-25 07:30:00,METAR LZIB 250730Z 03005KT CAVOK 06/01 Q1010 NOSIG,1,0,0,9999,0,0,0,
2026-03-25 07:00:00,METAR LZIB 250700Z 02005KT CAVOK 05/00 Q1011 NOSIG,1,0,0,9999,0,0,0,
2026-03-25 06:30:00,METAR LZIB 250630Z 02004KT CAVOK 04/00 Q1011 NOSIG,1,0,0,9999,0,0,0,
2026-03-25 06:00:00,METAR LZIB 250600Z VRB02KT CAVOK 03/00 Q1011 NOSIG,1,0,0,9999,0,0,0,
2026-03-25 05:30:00,METAR LZIB 250530Z 15004KT CAVOK 03/M00 Q1012 NOSIG,1,0,0,9999,0,0,0,
2026-03-25 05:00:00,METAR LZIB 250500Z 11004KT 050V160 CAVOK 01/M01 Q1012 NOSIG,1,0,0,9999,0,0,0,
2026-03-25 04:30:00,METAR LZIB 250430Z 05004KT CAVOK 02/M01 Q1012 NOSIG,1,0,0,9999,0,0,0,
2026-03-25 04:00:00,METAR LZIB 250400Z 36006KT CAVOK 03/M01 Q1012 NOSIG,1,0,0,9999,0,0,0,
2026-03-25 03:30:00,METAR LZIB 250330Z 02003KT CAVOK 03/M00 Q1013 NOSIG,1,0,0,9999,0,0,0,
2026-03-25 03:00:00,METAR LZIB 250300Z VRB02KT CAVOK 03/M01 Q1013 NOSIG,1,0,0,9999,0,0,0,
2026-03-25 02:30:00,METAR LZIB 250230Z VRB02KT CAVOK 05/M01 Q1013 NOSIG,1,0,0,9999,0,0,0,
2026-03-25 02:00:00,METAR LZIB 250200Z 20005KT CAVOK 04/M01 Q1013 NOSIG,1,0,0,9999,0,0,0,
2026-03-25 01:30:00,METAR LZIB 250130Z 18003KT CAVOK 05/00 Q1014 NOSIG,1,0,0,9999,0,0,0,
2026-03-25 01:00:00,METAR LZIB 250100Z 19002KT CAVOK 07/M00 Q1014 NOSIG,1,0,0,9999,0,0,0,
2026-03-25 00:30:00,METAR LZIB 250030Z 18002KT CAVOK 06/M00 Q1015 NOSIG,1,0,0,9999,0,0,0,
2026-03-25 00:00:00,METAR LZIB 250000Z VRB02KT CAVOK 06/00 Q1015 NOSIG,1,0,0,9999,0,0,0,
2026-03-24 23:30:00,METAR LZIB 242330Z 28002KT CAVOK 08/00 Q1015 NOSIG,1,0,0,9999,0,0,0,
2026-03-24 23:00:00,METAR LZIB 242300Z 28003KT CAVOK 09/M00 Q1015 NOSIG,1,0,0,9999,0,0,0,
2026-03-24 22:30:00,METAR LZIB 242230Z 27004KT CAVOK 10/00 Q1016 NOSIG,1,0,0,9999,0,0,0,
2026-03-24 22:00:00,METAR LZIB 242200Z 27004KT CAVOK 10/00 Q1016 NOSIG,1,0,0,9999,0,0,0,
2026-03-24 21:30:00,METAR LZIB 242130Z 28003KT CAVOK 11/00 Q1016 NOSIG,1,0,0,9999,0,0,0,
2026-03-24 21:00:00,METAR LZIB 242100Z 27004KT CAVOK 11/00 Q1016 NOSIG,1,0,0,9999,0,0,0,
2026-03-24 20:30:00,METAR LZIB 242030Z 28004KT CAVOK 11/01 Q1017 NOSIG,1,0,0,9999,0,0,0,
2026-03-24 20:00:00,METAR LZIB 242000Z 28003KT CAVOK 11/00 Q1017 NOSIG,1,0,0,9999,0,0,0,
2026-03-24 19:30:00,METAR LZIB 241930Z 27004KT CAVOK 11/00 Q1017 NOSIG,1,0,0,9999,0,0,0,
2026-03-24 19:00:00,METAR LZIB 241900Z 30003KT CAVOK 12/M00 Q1017 NOSIG,1,0,0,9999,0,0,0,
2026-03-24 18:30:00,METAR LZIB 241830Z VRB02KT CAVOK 13/M01 Q1017 NOSIG,1,0,0,9999,0,0,0,
2026-03-24 18:00:00,METAR LZIB 241800Z 28003KT CAVOK 14/M01 Q1017 NOSIG,1,0,0,9999,0,0,0,
2026-03-24 17:30:00,METAR LZIB 241730Z 27005KT CAVOK 14/M01 Q1017 NOSIG,1,0,0,9999,0,0,0,
2026-03-24 17:00:00,METAR LZIB 241700Z 31004KT CAVOK 15/M01 Q1017 NOSIG,1,0,0,9999,0,0,0,
2026-03-24 16:30:00,METAR LZIB 241630Z 34005KT CAVOK 15/M01 Q1017 NOSIG,1,0,0,9999,0,0,0,
2026-03-24 16:00:00,METAR LZIB 241600Z 32008KT CAVOK 16/M02 Q1017 NOSIG,1,0,0,9999,0,0,0,
2026-03-24 15:30:00,METAR LZIB 241530Z 32010KT CAVOK 16/M02 Q1018 NOSIG,1,0,0,9999,0,0,0,
2026-03-24 15:00:00,METAR LZIB 241500Z 34009KT CAVOK 16/M02 Q1018 NOSIG,1,0,0,9999,0,0,0,
2026-03-24 14:30:00,METAR LZIB 241430Z 33008KT 260V360 CAVOK 16/M02 Q1018 NOSIG,1,0,0,9999,0,0,0,
2026-03-24 14:00:00,METAR LZIB 241400Z 32007KT 280V020 CAVOK 16/M01 Q1018 NOSIG,1,0,0,9999,0,0,0,
2026-03-24 13:30:00,METAR LZIB 241330Z 31010KT CAVOK 16/M01 Q1018 NOSIG,1,0,0,9999,0,0,0,
2026-03-24 13:00:00,METAR LZIB 241300Z 34011KT CAVOK 16/M01 Q1019 NOSIG,1,0,0,9999,0,0,0,
2026-03-24 12:30:00,METAR LZIB 241230Z 35011KT CAVOK 16/M02 Q1019 NOSIG,1,0,0,9999,0,0,0,
2026-03-24 12:00:00,METAR LZIB 241200Z 30010KT 270V360 CAVOK 17/M01 Q1019 NOSIG,1,0,0,9999,0,0,0,
2026-03-24 11:30:00,METAR LZIB 241130Z 30009KT 260V340 CAVOK 17/M01 Q1019 NOSIG,1,0,0,9999,0,0,0,
2026-03-24 11:00:00,METAR LZIB 241100Z 28009KT 240V310 CAVOK 16/00 Q1019 NOSIG,1,0,0,9999,0,0,0,
2026-03-24 10:30:00,METAR LZIB 241030Z 27010KT CAVOK 16/01 Q1020 NOSIG,1,0,0,9999,0,0,0,
2026-03-24 10:00:00,METAR LZIB 241000Z 29009KT CAVOK 15/01 Q1020 NOSIG,1,0,0,9999,0,0,0,
2026-03-24 09:30:00,METAR LZIB 240930Z 30009KT CAVOK 15/00 Q1020 NOSIG,1,0,0,9999,0,0,0,
2026-03-24 09:00:00,METAR LZIB 240900Z 28008KT CAVOK 15/02 Q1020 NOSIG,1,0,0,9999,0,0,0,
2026-03-24 08:30:00,METAR LZIB 240830Z 30008KT 280V340 CAVOK 13/01 Q1020 NOSIG,1,0,0,9999,0,0,0,
2026-03-24 08:00:00,METAR LZIB 240800Z 27006KT CAVOK 13/02 Q1020 NOSIG,1,0,0,9999,0,0,0,
2026-03-24 07:30:00,METAR LZIB 240730Z 29007KT CAVOK 12/02 Q1020 NOSIG,1,0,0,9999,0,0,0,
2026-03-24 07:00:00,METAR LZIB 240700Z 29009KT CAVOK 12/01 Q1020 NOSIG,1,0,0,9999,0,0,0,
2026-03-24 06:30:00,METAR LZIB 240630Z 29008KT CAVOK 11/01 Q1020 NOSIG,1,0,0,9999,0,0,0,
2026-03-24 06:00:00,METAR LZIB 240600Z 29006KT CAVOK 10/01 Q1020 NOSIG,1,0,0,9999,0,0,0,
2026-03-24 05:30:00,METAR LZIB 240530Z 29009KT CAVOK 10/01 Q1020 NOSIG,1,0,0,9999,0,0,0,
2026-03-24 05:00:00,METAR LZIB 240500Z 29009KT CAVOK 10/M00 Q1020 NOSIG,1,0,0,9999,0,0,0,
2026-03-24 04:30:00,METAR LZIB 240430Z 30005KT CAVOK 10/M00 Q1020 NOSIG,1,0,0,9999,0,0,0,
2026-03-24 04:00:00,METAR LZIB 240400Z 26004KT 230V300 CAVOK 08/M00 Q1019 NOSIG,1,0,0,9999,0,0,0,
2026-03-24 03:30:00,METAR LZIB 240330Z 30004KT CAVOK 06/M01 Q1019 NOSIG,1,0,0,9999,0,0,0,
2026-03-24 03:00:00,METAR LZIB 240300Z VRB01KT CAVOK 05/M01 Q1019 NOSIG,1,0,0,9999,0,0,0,
2026-03-24 02:30:00,METAR LZIB 240230Z VRB01KT CAVOK 06/M00 Q1019 NOSIG,1,0,0,9999,0,0,0,
2026-03-24 02:00:00,METAR LZIB 240200Z 30002KT CAVOK 07/M00 Q1019 NOSIG,1,0,0,9999,0,0,0,
2026-03-24 01:30:00,METAR LZIB 240130Z 27001KT CAVOK 07/00 Q1019 NOSIG,1,0,0,9999,0,0,0,
2026-03-24 01:00:00,METAR LZIB 240100Z 00000KT CAVOK 08/00 Q1019 NOSIG,1,0,0,9999,0,0,0,
2026-03-24 00:30:00,METAR LZIB 240030Z 30005KT CAVOK 10/00 Q1019 NOSIG,1,0,0,9999,0,0,0,
2026-03-24 00:00:00,METAR LZIB 240000Z 29006KT CAVOK 10/00 Q1019 NOSIG,1,0,0,9999,0,0,0,
2026-03-23 23:30:00,METAR LZIB 232330Z 29005KT CAVOK 11/00 Q1019 NOSIG,1,0,0,9999,0,0,0,
2026-03-23 23:00:00,METAR LZIB 232300Z 29007KT CAVOK 12/00 Q1019 NOSIG,1,0,0,9999,0,0,0,
2026-03-23 22:30:00,METAR LZIB 232230Z 31006KT CAVOK 11/00 Q1019 NOSIG,1,0,0,9999,0,0,0,
2026-03-23 22:00:00,METAR LZIB 232200Z 32004KT CAVOK 13/M00 Q1019 NOSIG,1,0,0,9999,0,0,0,
2026-03-23 21:30:00,METAR LZIB 232130Z 26003KT CAVOK 12/01 Q1019 NOSIG,1,0,0,9999,0,0,0,
2026-03-23 21:00:00,METAR LZIB 232100Z VRB03KT CAVOK 12/01 Q1019 NOSIG,1,0,0,9999,0,0,0,
2026-03-23 20:30:00,METAR LZIB 232030Z 00000KT CAVOK 12/01 Q1019 NOSIG,1,0,0,9999,0,0,0,
2026-03-23 20:00:00,METAR LZIB 232000Z 00000KT CAVOK 11/01 Q1018 NOSIG,1,0,0,9999,0,0,0,
2026-03-23 19:30:00,METAR LZIB 231930Z VRB02KT CAVOK 12/01 Q1018 NOSIG,1,0,0,9999,0,0,0,
2026-03-23 19:00:00,METAR LZIB 231900Z 03005KT 330V070 CAVOK 11/02 Q1018 NOSIG,1,0,0,9999,0,0,0,
2026-03-23 18:30:00,METAR LZIB 231830Z 31005KT CAVOK 13/01 Q1018 NOSIG,1,0,0,9999,0,0,0,
2026-03-23 18:00:00,METAR LZIB 231800Z 31006KT CAVOK 13/01 Q1017 NOSIG,1,0,0,9999,0,0,0,
2026-03-23 17:30:00,METAR LZIB 231730Z 31005KT 9999 VCSH FEW048 14/00 Q1017 NOSIG,0,5,0,10000,0,0,0,"SH,VC"
2026-03-23 17:00:00,METAR LZIB 231700Z 31003KT 9999 VCSH FEW048 14/M00 Q1017 NOSIG,0,3,0,10000,0,0,0,"SH,VC"
2026-03-23 16:30:00,METAR LZIB 231630Z 36002KT CAVOK 14/M01 Q1017 NOSIG,1,0,0,9999,0,0,0,
2026-03-23 16:00:00,METAR LZIB 231600Z 01003KT CAVOK 14/00 Q1016 NOSIG,1,0,0,9999,0,0,0,
2026-03-23 15:30:00,METAR LZIB 231530Z 07003KT 010V130 CAVOK 15/M01 Q1016 NOSIG,1,0,0,9999,0,0,0,
2026-03-23 15:00:00,METAR LZIB 231500Z VRB03KT CAVOK 16/00 Q1016 NOSIG,1,0,0,9999,0,0,0,
2026-03-23 14:30:00,METAR LZIB 231430Z 08004KT 050V110 CAVOK 16/01 Q1016 NOSIG,1,0,0,9999,0,0,0,
2026-03-23 14:00:00,METAR LZIB 231400Z VRB04KT CAVOK 16/00 Q1016 NOSIG,1,0,0,9999,0,0,0,
2026-03-23 13:30:00,METAR LZIB 231330Z 07006KT 030V120 CAVOK 16/01 Q1016 NOSIG,1,0,0,9999,0,0,0,
2026-03-23 13:00:00,METAR LZIB 231300Z VRB03KT CAVOK 15/01 Q1016 NOSIG,1,0,0,9999,0,0,0,
2026-03-23 12:30:00,METAR LZIB 231230Z VRB04KT CAVOK 15/00 Q1017 NOSIG,1,0,0,9999,0,0,0,
2026-03-23 12:00:00,METAR LZIB 231200Z 07005KT 360V120 CAVOK 15/M00 Q1017 NOSIG,1,0,0,9999,0,0,0,
2026-03-23 11:30:00,METAR LZIB 231130Z VRB02KT CAVOK 14/02 Q1017 NOSIG,1,0,0,9999,0,0,0,
2026-03-23 11:00:00,METAR LZIB 231100Z VRB01KT CAVOK 14/02 Q1017 NOSIG,1,0,0,9999,0,0,0,
2026-03-23 10:30:00,METAR LZIB 231030Z VRB02KT CAVOK 13/01 Q1017 NOSIG,1,0,0,9999,0,0,0,
2026-03-23 10:00:00,METAR LZIB 231000Z 04004KT 310V100 CAVOK 12/01 Q1017 NOSIG,1,0,0,9999,0,0,0,
2026-03-23 09:30:00,METAR LZIB 230930Z 03004KT 350V100 CAVOK 11/01 Q1017 NOSIG,1,0,0,9999,0,0,0,
2026-03-23 09:00:00,METAR LZIB 230900Z 04004KT CAVOK 11/01 Q1017 NOSIG,1,0,0,9999,0,0,0,
2026-03-23 08:30:00,METAR LZIB 230830Z 03005KT 010V070 CAVOK 10/01 Q1017 NOSIG,1,0,0,9999,0,0,0,
2026-03-23 08:00:00,METAR LZIB 230800Z 04005KT CAVOK 10/00 Q1017 NOSIG,1,0,0,9999,0,0,0,
2026-03-23 07:30:00,METAR LZIB 230730Z 04005KT CAVOK 09/01 Q1017 NOSIG,1,0,0,9999,0,0,0,
2026-03-23 07:00:00,METAR LZIB 230700Z 34003KT CAVOK 07/02 Q1017 NOSIG,1,0,0,9999,0,0,0,
2026-03-23 06:30:00,METAR LZIB 230630Z VRB03KT CAVOK 06/01 Q1016 NOSIG,1,0,0,9999,0,0,0,
2026-03-23 06:00:00,METAR LZIB 230600Z 08003KT CAVOK 05/01 Q1016 NOSIG,1,0,0,9999,0,0,0,
2026-03-23 05:30:00,METAR LZIB 230530Z 13005KT CAVOK 04/M00 Q1016 NOSIG,1,0,0,9999,0,0,0,
2026-03-23 05:00:00,METAR LZIB 230500Z VRB02KT CAVOK 05/M01 Q1016 NOSIG,1,0,0,9999,0,0,0,
2026-03-23 04:30:00,METAR LZIB 230430Z 02003KT CAVOK 05/M01 Q1016 NOSIG,1,0,0,9999,0,0,0,
2026-03-23 04:00:00,METAR LZIB 230400Z 02004KT 340V040 CAVOK 05/M01 Q1016 NOSIG,1,0,0,9999,0,0,0,
2026-03-23 03:30:00,METAR LZIB 230330Z 01003KT CAVOK 05/M01 Q1016 NOSIG,1,0,0,9999,0,0,0,
2026-03-23 03:00:00,METAR LZIB 230300Z 35003KT CAVOK 05/M01 Q1015 NOSIG,1,0,0,9999,0,0,0,
2026-03-23 02:30:00,METAR LZIB 230230Z 03004KT CAVOK 04/M01 Q1015 NOSIG,1,0,0,9999,0,0,0,
2026-03-23 02:00:00,METAR LZIB 230200Z 04003KT CAVOK 04/M01 Q1015 NOSIG,1,0,0,9999,0,0,0,
2026-03-23 01:30:00,METAR LZIB 230130Z 04003KT CAVOK 05/M01 Q1015 NOSIG,1,0,0,9999,0,0,0,
2026-03-23 01:00:00,METAR LZIB 230100Z VRB02KT CAVOK 05/M01 Q1015 NOSIG,1,0,0,9999,0,0,0,
2026-03-23 00:30:00,METAR LZIB 230030Z 33003KT CAVOK 05/M02 Q1015 NOSIG,1,0,0,9999,0,0,0,
2026-03-23 00:00:00,METAR LZIB 230000Z VRB03KT CAVOK 05/M02 Q1016 NOSIG,1,0,0,9999,0,0,0,
2026-03-22 23:30:00,METAR LZIB 222330Z 02003KT CAVOK 05/M02 Q1016 NOSIG,1,0,0,9999,0,0,0,
2026-03-22 23:00:00,METAR LZIB 222300Z 03004KT CAVOK 05/M02 Q1016 NOSIG,1,0,0,9999,0,0,0,
2026-03-22 22:30:00,METAR LZIB 222230Z VRB03KT CAVOK 06/M02 Q1016 NOSIG,1,0,0,9999,0,0,0,
2026-03-22 22:00:00,METAR LZIB 222200Z 36004KT CAVOK 06/M01 Q1016 NOSIG,1,0,0,9999,0,0,0,
2026-03-22 21:30:00,METAR LZIB 222130Z 02003KT CAVOK 06/M02 Q1016 NOSIG,1,0,0,9999,0,0,0,
2026-03-22 21:00:00,METAR LZIB 222100Z 36003KT CAVOK 07/M02 Q1016 NOSIG,1,0,0,9999,0,0,0,
2026-03-22 20:30:00,METAR LZIB 222030Z VRB03KT CAVOK 07/M02 Q1015 NOSIG,1,0,0,9999,0,0,0,
2026-03-22 20:00:00,METAR LZIB 222000Z 02003KT CAVOK 07/M02 Q1015 NOSIG,1,0,0,9999,0,0,0,
2026-03-22 19:30:00,METAR LZIB 221930Z 01003KT CAVOK 08/M02 Q1016 NOSIG,1,0,0,9999,0,0,0,
2026-03-22 18:30:00,METAR LZIB 221830Z 01003KT CAVOK 09/M02 Q1015 NOSIG,1,0,0,9999,0,0,0,
2026-03-22 18:00:00,METAR LZIB 221800Z 03005KT CAVOK 10/M02 Q1015 NOSIG,1,0,0,9999,0,0,0,
2026-03-22 17:30:00,METAR LZIB 221730Z 05004KT CAVOK 11/M02 Q1015 NOSIG,1,0,0,9999,0,0,0,
2026-03-22 17:00:00,METAR LZIB 221700Z 07005KT CAVOK 11/M01 Q1015 NOSIG,1,0,0,9999,0,0,0,
2026-03-22 16:30:00,METAR LZIB 221630Z 09004KT CAVOK 13/M01 Q1015 NOSIG,1,0,0,9999,0,0,0,
2026-03-22 16:00:00,METAR LZIB 221600Z 12006KT CAVOK 13/M01 Q1015 NOSIG,1,0,0,9999,0,0,0,
2026-03-22 15:30:00,METAR LZIB 221530Z 11005KT CAVOK 14/M03 Q1015 NOSIG,1,0,0,9999,0,0,0,
2026-03-22 15:00:00,METAR LZIB 221500Z 12006KT CAVOK 14/M03 Q1015 NOSIG,1,0,0,9999,0,0,0,
2026-03-22 14:30:00,METAR LZIB 221430Z 12007KT 090V150 CAVOK 14/M02 Q1016 NOSIG,1,0,0,9999,0,0,0,
2026-03-22 14:00:00,METAR LZIB 221400Z 07006KT 040V110 CAVOK 14/M02 Q1016 NOSIG,1,0,0,9999,0,0,0,
2026-03-22 13:30:00,METAR LZIB 221330Z 09006KT 040V130 CAVOK 15/M02 Q1016 NOSIG,1,0,0,9999,0,0,0,
2026-03-22 12:30:00,METAR LZIB 221230Z 08008KT 030V130 CAVOK 15/M01 Q1016 NOSIG,1,0,0,9999,0,0,0,
2026-03-22 12:00:00,METAR LZIB 221200Z 08006KT 020V120 CAVOK 14/M01 Q1017 WS R31 NOSIG,1,0,0,9999,0,0,0,
2026-03-22 11:30:00,METAR LZIB 221130Z 07007KT 360V110 CAVOK 14/M01 Q1017 WS R31 NOSIG,1,0,0,9999,0,0,0,
2026-03-22 11:00:00,METAR LZIB 221100Z 06010KT CAVOK 13/00 Q1017 NOSIG,1,0,0,9999,0,0,0,
2026-03-22 10:30:00,METAR LZIB 221030Z 05009KT 020V090 CAVOK 13/M01 Q1017 NOSIG,1,0,0,9999,0,0,0,
2026-03-22 09:30:00,METAR LZIB 220930Z 07008KT 030V100 CAVOK 11/01 Q1018 NOSIG,1,0,0,9999,0,0,0,
2026-03-22 09:00:00,METAR LZIB 220900Z 06010KT CAVOK 11/01 Q1018 NOSIG,1,0,0,9999,0,0,0,
2026-03-22 08:30:00,METAR LZIB 220830Z 07012KT CAVOK 10/01 Q1018 NOSIG,1,0,0,9999,0,0,0,
2026-03-22 08:00:00,METAR LZIB 220800Z 05010KT CAVOK 10/00 Q1018 NOSIG,1,0,0,9999,0,0,0,
2026-03-22 07:30:00,METAR LZIB 220730Z 04008KT CAVOK 10/01 Q1018 NOSIG,1,0,0,9999,0,0,0,
2026-03-22 07:00:00,METAR LZIB 220700Z 03007KT CAVOK 09/01 Q1018 NOSIG,1,0,0,9999,0,0,0,
2026-03-22 06:30:00,METAR LZIB 220630Z 03006KT 9999 VCSH NSC 08/01 Q1018 NOSIG,0,6,0,10000,0,0,0,"SH,VC"
2026-03-22 06:00:00,METAR LZIB 220600Z 03007KT 9999 VCSH NSC 08/01 Q1018 NOSIG,0,7,0,10000,0,0,0,"SH,VC"
2026-03-22 05:30:00,METAR LZIB 220530Z 02007KT CAVOK 08/01 Q1018 NOSIG,1,0,0,9999,0,0,0,
2026-03-22 05:00:00,METAR LZIB 220500Z 02008KT CAVOK 08/01 Q1018 NOSIG,1,0,0,9999,0,0,0,
2026-03-22 04:30:00,METAR LZIB 220430Z 02007KT CAVOK 08/01 Q1018 NOSIG,1,0,0,9999,0,0,0,
2026-03-22 04:00:00,METAR LZIB 220400Z 02007KT CAVOK 07/01 Q1018 NOSIG,1,0,0,9999,0,0,0,
2026-03-22 03:30:00,METAR LZIB 220330Z 02006KT CAVOK 07/02 Q1018 NOSIG,1,0,0,9999,0,0,0,
2026-03-22 03:00:00,METAR LZIB 220300Z 03006KT CAVOK 07/02 Q1018 NOSIG,1,0,0,9999,0,0,0,
2026-03-22 02:30:00,METAR LZIB 220230Z 02005KT CAVOK 07/02 Q1018 NOSIG,1,0,0,9999,0,0,0,
2026-03-22 02:00:00,METAR LZIB 220200Z 35004KT CAVOK 08/02 Q1018 NOSIG,1,0,0,9999,0,0,0,
2026-03-22 01:30:00,METAR LZIB 220130Z VRB02KT CAVOK 08/02 Q1018 NOSIG,1,0,0,9999,0,0,0,
2026-03-22 01:00:00,METAR LZIB 220100Z 01005KT CAVOK 08/03 Q1018 NOSIG,1,0,0,9999,0,0,0,
2026-03-22 00:30:00,METAR LZIB 220030Z 01005KT CAVOK 08/03 Q1018 NOSIG,1,0,0,9999,0,0,0,
2026-03-22 00:00:00,METAR LZIB 220000Z 01004KT CAVOK 08/03 Q1018 NOSIG,1,0,0,9999,0,0,0,
2026-03-21 23:30:00,METAR LZIB 212330Z 02006KT CAVOK 08/03 Q1018 NOSIG,1,0,0,9999,0,0,0,
2026-03-21 23:00:00,METAR LZIB 212300Z 02006KT 9999 -RA NSC 08/03 Q1018 NOSIG,0,6,0,10000,0,0,0,-RA
2026-03-21 22:30:00,METAR LZIB 212230Z 02006KT CAVOK 08/03 Q1018 NOSIG,1,0,0,9999,0,0,0,
2026-03-21 22:00:00,METAR LZIB 212200Z 02006KT CAVOK 08/03 Q1018 NOSIG,1,0,0,9999,0,0,0,
2026-03-21 21:30:00,METAR LZIB 212130Z 02007KT CAVOK 08/03 Q1018 NOSIG,1,0,0,9999,0,0,0,
2026-03-21 21:00:00,METAR LZIB 212100Z 03005KT CAVOK 08/02 Q1018 NOSIG,1,0,0,9999,0,0,0,
2026-03-21 20:30:00,METAR LZIB 212030Z 03005KT CAVOK 08/03 Q1018 NOSIG,1,0,0,9999,0,0,0,
2026-03-21 20:00:00,METAR LZIB 212000Z 03007KT CAVOK 08/03 Q1017 NOSIG,1,0,0,9999,0,0,0,
2026-03-21 19:30:00,METAR LZIB 211930Z 02007KT CAVOK 09/02 Q1017 NOSIG,1,0,0,9999,0,0,0,
2026-03-21 19:00:00,METAR LZIB 211900Z 02008KT CAVOK 09/02 Q1017 NOSIG,1,0,0,9999,0,0,0,
2026-03-21 18:30:00,METAR LZIB 211830Z 02008KT CAVOK 09/02 Q1017 NOSIG,1,0,0,9999,0,0,0,
2026-03-21 18:00:00,METAR LZIB 211800Z 02007KT 9999 FEW046 09/03 Q1017 NOSIG,0,7,0,10000,0,0,0,
2026-03-21 17:30:00,METAR LZIB 211730Z 02007KT 9999 FEW043 09/03 Q1017 NOSIG,0,7,0,10000,0,0,0,
2026-03-21 17:00:00,METAR LZIB 211700Z 03008KT 9999 FEW043 10/03 Q1016 NOSIG,0,8,0,10000,0,0,0,
2026-03-21 16:30:00,METAR LZIB 211630Z 04010KT 9999 -RA FEW043 11/03 Q1016 NOSIG,0,10,0,10000,0,0,0,-RA
2026-03-21 16:00:00,METAR LZIB 211600Z 08005KT 060V130 9999 -RA FEW046 11/02 Q1016 NOSIG,0,5,0,10000,0,0,0,-RA
2026-03-21 15:30:00,METAR LZIB 211530Z 07007KT 9999 FEW046 12/01 Q1016 NOSIG,0,7,0,10000,0,0,0,
2026-03-21 15:00:00,METAR LZIB 211500Z 06005KT 9999 -RA FEW046 12/01 Q1016 NOSIG,0,5,0,10000,0,0,0,-RA
2026-03-21 14:30:00,METAR LZIB 211430Z 08004KT 9999 FEW046 12/00 Q1015 NOSIG,0,4,0,10000,0,0,0,
2026-03-21 14:00:00,METAR LZIB 211400Z 08006KT 9999 FEW046 12/01 Q1015 NOSIG,0,6,0,10000,0,0,0,
2026-03-21 13:30:00,METAR LZIB 211330Z 10004KT 070V140 9999 FEW046 12/00 Q1015 NOSIG,0,4,0,10000,0,0,0,
2026-03-21 13:00:00,METAR LZIB 211300Z 14005KT 100V180 9999 FEW046 12/01 Q1015 NOSIG,0,5,0,10000,0,0,0,
2026-03-21 12:30:00,METAR LZIB 211230Z VRB04KT 9999 FEW046 12/01 Q1015 NOSIG,0,4,0,10000,0,0,0,
2026-03-21 12:00:00,METAR LZIB 211200Z 14005KT 060V190 9999 SCT046 12/00 Q1015 NOSIG,0,5,0,10000,0,0,0,
2026-03-21 11:30:00,METAR LZIB 211130Z 16007KT 110V210 CAVOK 13/M00 Q1016 NOSIG,1,0,0,9999,0,0,0,
2026-03-21 11:00:00,METAR LZIB 211100Z 17008KT 9999 FEW049 12/M01 Q1016 NOSIG,0,8,0,10000,0,0,0,
2026-03-21 10:30:00,METAR LZIB 211030Z 14009KT 110V170 9999 FEW048 13/00 Q1016 NOSIG,0,9,0,10000,0,0,0,
2026-03-21 10:00:00,METAR LZIB 211000Z 09003KT 350V150 9999 FEW044 12/01 Q1016 NOSIG,0,3,0,10000,0,0,0,
2026-03-21 09:30:00,METAR LZIB 210930Z 12005KT 060V160 CAVOK 11/00 Q1016 NOSIG,1,0,0,9999,0,0,0,
2026-03-21 09:00:00,METAR LZIB 210900Z 11005KT 080V140 CAVOK 11/M00 Q1016 NOSIG,1,0,0,9999,0,0,0,
2026-03-21 08:30:00,METAR LZIB 210830Z 07006KT 030V120 CAVOK 10/M00 Q1016 NOSIG,1,0,0,9999,0,0,0,
2026-03-21 08:00:00,METAR LZIB 210800Z 06008KT CAVOK 09/M01 Q1016 NOSIG,1,0,0,9999,0,0,0,
2026-03-21 07:30:00,METAR LZIB 210730Z 06008KT CAVOK 09/M01 Q1016 NOSIG,1,0,0,9999,0,0,0,
2026-03-21 07:00:00,METAR LZIB 210700Z 05007KT CAVOK 08/00 Q1015 NOSIG,1,0,0,9999,0,0,0,
2026-03-21 06:30:00,METAR LZIB 210630Z 04007KT CAVOK 07/01 Q1015 NOSIG,1,0,0,9999,0,0,0,
2026-03-21 06:00:00,METAR LZIB 210600Z 03005KT CAVOK 06/00 Q1015 NOSIG,1,0,0,9999,0,0,0,
2026-03-21 05:30:00,METAR LZIB 210530Z 04007KT CAVOK 05/M00 Q1015 NOSIG,1,0,0,9999,0,0,0,
2026-03-21 05:00:00,METAR LZIB 210500Z 03007KT CAVOK 05/M00 Q1015 NOSIG,1,0,0,9999,0,0,0,
2026-03-21 04:30:00,METAR LZIB 210430Z 03004KT CAVOK 06/M00 Q1014 NOSIG,1,0,0,9999,0,0,0,
2026-03-21 04:00:00,METAR LZIB 210400Z 02002KT CAVOK 07/M00 Q1014 NOSIG,1,0,0,9999,0,0,0,
2026-03-21 03:30:00,METAR LZIB 210330Z 00000KT CAVOK 07/M00 Q1014 NOSIG,1,0,0,9999,0,0,0,
2026-03-21 03:00:00,METAR LZIB 210300Z 05003KT CAVOK 07/M00 Q1014 NOSIG,1,0,0,9999,0,0,0,
2026-03-21 02:30:00,METAR LZIB 210230Z 03005KT CAVOK 07/M00 Q1014 NOSIG,1,0,0,9999,0,0,0,
2026-03-21 02:00:00,METAR LZIB 210200Z 02005KT CAVOK 07/M01 Q1014 NOSIG,1,0,0,9999,0,0,0,
2026-03-21 01:30:00,METAR LZIB 210130Z 02006KT CAVOK 08/M01 Q1015 NOSIG,1,0,0,9999,0,0,0,
2026-03-21 01:00:00,METAR LZIB 210100Z 03007KT CAVOK 08/M01 Q1015 NOSIG,1,0,0,9999,0,0,0,
2026-03-21 00:30:00,METAR LZIB 210030Z 02006KT CAVOK 08/M01 Q1015 NOSIG,1,0,0,9999,0,0,0,
2026-03-21 00:00:00,METAR LZIB 210000Z 35004KT CAVOK 09/M01 Q1015 NOSIG,1,0,0,9999,0,0,0,
2026-03-20 23:30:00,METAR LZIB 202330Z VRB02KT CAVOK 08/M01 Q1016 NOSIG,1,0,0,9999,0,0,0,
2026-03-20 23:00:00,METAR LZIB 202300Z 36004KT CAVOK 09/M02 Q1016 NOSIG,1,0,0,9999,0,0,0,
2026-03-20 22:30:00,METAR LZIB 202230Z 02006KT CAVOK 08/M02 Q1016 NOSIG,1,0,0,9999,0,0,0,
2026-03-20 22:00:00,METAR LZIB 202200Z 02008KT CAVOK 08/M01 Q1016 NOSIG,1,0,0,9999,0,0,0,
2026-03-20 21:30:00,METAR LZIB 202130Z 01006KT CAVOK 08/M02 Q1016 NOSIG,1,0,0,9999,0,0,0,
2026-03-20 21:00:00,METAR LZIB 202100Z 01005KT CAVOK 08/M03 Q1016 NOSIG,1,0,0,9999,0,0,0,
2026-03-20 20:30:00,METAR LZIB 202030Z 34004KT CAVOK 09/M03 Q1016 NOSIG,1,0,0,9999,0,0,0,
2026-03-20 20:00:00,METAR LZIB 202000Z 01003KT CAVOK 09/M04 Q1016 NOSIG,1,0,0,9999,0,0,0,
2026-03-20 19:30:00,METAR LZIB 201930Z 02007KT CAVOK 08/M04 Q1016 NOSIG,1,0,0,9999,0,0,0,
2026-03-20 19:00:00,METAR LZIB 201900Z 03006KT CAVOK 08/M04 Q1016 NOSIG,1,0,0,9999,0,0,0,
2026-03-20 18:30:00,METAR LZIB 201830Z 36006KT CAVOK 09/M04 Q1016 NOSIG,1,0,0,9999,0,0,0,
2026-03-20 18:00:00,METAR LZIB 201800Z 32008KT CAVOK 11/M05 Q1016 NOSIG,1,0,0,9999,0,0,0,
2026-03-20 17:30:00,METAR LZIB 201730Z 33007KT CAVOK 11/M05 Q1015 NOSIG,1,0,0,9999,0,0,0,
2026-03-20 17:00:00,METAR LZIB 201700Z 33008KT CAVOK 12/M05 Q1015 NOSIG,1,0,0,9999,0,0,0,
2026-03-20 16:30:00,METAR LZIB 201630Z 34011KT CAVOK 13/M05 Q1015 NOSIG,1,0,0,9999,0,0,0,
2026-03-20 16:00:00,METAR LZIB 201600Z 34010KT CAVOK 14/M05 Q1015 NOSIG,1,0,0,9999,0,0,0,
2026-03-20 15:30:00,METAR LZIB 201530Z 34009KT CAVOK 14/M05 Q1015 NOSIG,1,0,0,9999,0,0,0,
2026-03-20 15:00:00,METAR LZIB 201500Z 34008KT 310V020 CAVOK 14/M06 Q1015 NOSIG,1,0,0,9999,0,0,0,
2026-03-20 14:30:00,METAR LZIB 201430Z 02007KT 310V070 CAVOK 14/M06 Q1015 NOSIG,1,0,0,9999,0,0,0,
2026-03-20 14:00:00,METAR LZIB 201400Z 36006KT 330V030 CAVOK 14/M04 Q1016 NOSIG,1,0,0,9999,0,0,0,
2026-03-20 13:30:00,METAR LZIB 201330Z 30005KT 260V040 CAVOK 15/M03 Q1016 NOSIG,1,0,0,9999,0,0,0,
2026-03-20 12:30:00,METAR LZIB 201230Z 33007KT 300V020 CAVOK 14/M04 Q1016 NOSIG,1,0,0,9999,0,0,0,
2026-03-20 12:00:00,METAR LZIB 201200Z 35011KT CAVOK 14/M03 Q1017 NOSIG,1,0,0,9999,0,0,0,
2026-03-20 11:30:00,METAR LZIB 201130Z 01006KT 330V060 CAVOK 14/M04 Q1017 NOSIG,1,0,0,9999,0,0,0,
2026-03-20 11:00:00,METAR LZIB 201100Z 36012KT CAVOK 14/M03 Q1017 NOSIG,1,0,0,9999,0,0,0,
2026-03-20 10:30:00,METAR LZIB 201030Z 32005KT 290V350 CAVOK 13/M02 Q1018 NOSIG,1,0,0,9999,0,0,0,
2026-03-20 10:00:00,METAR LZIB 201000Z 32006G17KT 260V020 CAVOK 13/M01 Q1018 NOSIG,1,0,0,9999,0,0,0,
2026-03-20 09:30:00,METAR LZIB 200930Z 10005KT 050V160 CAVOK 13/M00 Q1018 NOSIG,1,0,0,9999,0,0,0,
2026-03-20 09:00:00,METAR LZIB 200900Z 07005KT 010V100 9999 FEW049 12/M01 Q1018 NOSIG,0,5,0,10000,0,0,0,
2026-03-20 08:30:00,METAR LZIB 200830Z VRB03KT 9999 FEW046 11/M01 Q1018 NOSIG,0,3,0,10000,0,0,0,
2026-03-20 08:00:00,METAR LZIB 200800Z 12004KT 090V150 9999 FEW035 10/01 Q1018 NOSIG,0,4,0,10000,0,0,0,
2026-03-20 07:30:00,METAR LZIB 200730Z VRB02KT CAVOK 09/M01 Q1018 NOSIG,1,0,0,9999,0,0,0,
2026-03-20 07:00:00,METAR LZIB 200700Z VRB02KT CAVOK 08/01 Q1018 NOSIG,1,0,0,9999,0,0,0,
2026-03-20 06:30:00,METAR LZIB 200630Z 21003KT CAVOK 05/00 Q1018 NOSIG,1,0,0,9999,0,0,0,
2026-03-20 06:00:00,METAR LZIB 200600Z VRB01KT CAVOK 03/M02 Q1018 NOSIG,1,0,0,9999,0,0,0,
2026-03-20 05:30:00,METAR LZIB 200530Z VRB01KT CAVOK 02/M03 Q1018 NOSIG,1,0,0,9999,0,0,0,
2026-03-20 05:00:00,METAR LZIB 200500Z 34002KT CAVOK 03/M02 Q1018 NOSIG,1,0,0,9999,0,0,0,
2026-03-20 04:30:00,METAR LZIB 200430Z 35002KT CAVOK 03/M03 Q1018 NOSIG,1,0,0,9999,0,0,0,
2026-03-20 04:00:00,METAR LZIB 200400Z 01002KT CAVOK 02/M03 Q1018 NOSIG,1,0,0,9999,0,0,0,
2026-03-20 03:30:00,METAR LZIB 200330Z 04002KT CAVOK 03/M03 Q1018 NOSIG,1,0,0,9999,0,0,0,
2026-03-20 03:00:00,METAR LZIB 200300Z 01002KT CAVOK 04/M03 Q1018 NOSIG,1,0,0,9999,0,0,0,
2026-03-20 02:30:00,METAR LZIB 200230Z 34002KT CAVOK 05/M03 Q1018 NOSIG,1,0,0,9999,0,0,0,
2026-03-20 02:00:00,METAR LZIB 200200Z 01004KT CAVOK 06/M02 Q1018 NOSIG,1,0,0,9999,0,0,0,
2026-03-20 01:30:00,METAR LZIB 200130Z 01006KT CAVOK 05/M02 Q1018 NOSIG,1,0,0,9999,0,0,0,
2026-03-20 01:00:00,METAR LZIB 200100Z 03007KT CAVOK 05/M02 Q1019 NOSIG,1,0,0,9999,0,0,0,
2026-03-20 00:30:00,METAR LZIB 200030Z 02007KT CAVOK 05/M02 Q1019 NOSIG,1,0,0,9999,0,0,0,
2026-03-20 00:00:00,METAR LZIB 200000Z 02010KT CAVOK 05/M02 Q1019 NOSIG,1,0,0,9999,0,0,0,
2026-03-19 23:30:00,METAR LZIB 192330Z 02009KT CAVOK 06/M02 Q1019 NOSIG,1,0,0,9999,0,0,0,
2026-03-19 23:00:00,METAR LZIB 192300Z 02009KT CAVOK 06/M02 Q1019 NOSIG,1,0,0,9999,0,0,0,
2026-03-19 22:30:00,METAR LZIB 192230Z 03007KT CAVOK 07/M03 Q1019 NOSIG,1,0,0,9999,0,0,0,
2026-03-19 22:00:00,METAR LZIB 192200Z 36007KT CAVOK 07/M03 Q1020 NOSIG,1,0,0,9999,0,0,0,
2026-03-19 21:30:00,METAR LZIB 192130Z 35006KT CAVOK 08/M03 Q1020 NOSIG,1,0,0,9999,0,0,0,
2026-03-19 21:00:00,METAR LZIB 192100Z 01007KT CAVOK 08/M03 Q1020 NOSIG,1,0,0,9999,0,0,0,
2026-03-19 20:30:00,METAR LZIB 192030Z 36008KT CAVOK 08/M03 Q1020 NOSIG,1,0,0,9999,0,0,0,
2026-03-19 20:00:00,METAR LZIB 192000Z 36007KT CAVOK 09/M03 Q1020 NOSIG,1,0,0,9999,0,0,0,
2026-03-19 19:30:00,METAR LZIB 191930Z 01008KT CAVOK 09/M02 Q1020 NOSIG,1,0,0,9999,0,0,0,
2026-03-19 19:00:00,METAR LZIB 191900Z 36007KT CAVOK 09/M02 Q1019 NOSIG,1,0,0,9999,0,0,0,
2026-03-19 18:30:00,METAR LZIB 191830Z 34006KT CAVOK 11/M02 Q1019 NOSIG,1,0,0,9999,0,0,0,
2026-03-19 18:00:00,METAR LZIB 191800Z 01006KT CAVOK 11/M01 Q1019 NOSIG,1,0,0,9999,0,0,0,
2026-03-19 17:30:00,METAR LZIB 191730Z VRB02KT CAVOK 12/M04 Q1019 NOSIG,1,0,0,9999,0,0,0,
2026-03-19 17:00:00,METAR LZIB 191700Z 19003KT CAVOK 13/M03 Q1019 NOSIG,1,0,0,9999,0,0,0,
2026-03-19 16:30:00,METAR LZIB 191630Z 17003KT CAVOK 13/M02 Q1019 NOSIG,1,0,0,9999,0,0,0,
2026-03-19 16:00:00,METAR LZIB 191600Z VRB03KT CAVOK 13/M03 Q1019 NOSIG,1,0,0,9999,0,0,0,
2026-03-19 15:30:00,METAR LZIB 191530Z 07005KT 050V110 CAVOK 14/M03 Q1019 NOSIG,1,0,0,9999,0,0,0,
2026-03-19 15:00:00,METAR LZIB 191500Z VRB03KT CAVOK 14/M03 Q1020 NOSIG,1,0,0,9999,0,0,0,
2026-03-19 14:30:00,METAR LZIB 191430Z 01004KT 260V070 CAVOK 15/M03 Q1020 NOSIG,1,0,0,9999,0,0,0,
2026-03-19 14:00:00,METAR LZIB 191400Z 05008KT 010V090 CAVOK 14/M02 Q1020 NOSIG,1,0,0,9999,0,0,0,
2026-03-19 13:30:00,METAR LZIB 191330Z VRB04KT CAVOK 15/M02 Q1021 NOSIG,1,0,0,9999,0,0,0,
2026-03-19 13:00:00,METAR LZIB 191300Z VRB04KT CAVOK 14/M02 Q1021 NOSIG,1,0,0,9999,0,0,0,
2026-03-19 12:30:00,METAR LZIB 191230Z 04006KT 350V090 CAVOK 14/M03 Q1021 NOSIG,1,0,0,9999,0,0,0,
2026-03-19 12:00:00,METAR LZIB 191200Z 04006KT 350V070 CAVOK 14/M02 Q1022 NOSIG,1,0,0,9999,0,0,0,
2026-03-19 11:30:00,METAR LZIB 191130Z 06010KT CAVOK 13/M03 Q1022 NOSIG,1,0,0,9999,0,0,0,
2026-03-19 11:00:00,METAR LZIB 191100Z 03010KT CAVOK 13/M03 Q1023 NOSIG,1,0,0,9999,0,0,0,
2026-03-19 10:30:00,METAR LZIB 191030Z 04007KT 340V070 9999 FEW048 12/M03 Q1023 NOSIG,0,7,0,10000,0,0,0,
2026-03-19 10:00:00,METAR LZIB 191000Z 05008KT 9999 FEW044 12/M03 Q1023 NOSIG,0,8,0,10000,0,0,0,
2026-03-19 09:30:00,METAR LZIB 190930Z 07008KT 010V120 9999 FEW042 12/M03 Q1023 NOSIG,0,8,0,10000,0,0,0,
2026-03-19 09:00:00,METAR LZIB 190900Z 04008KT 020V080 9999 FEW040 11/M02 Q1024 NOSIG,0,8,0,10000,0,0,0,
2026-03-19 08:30:00,METAR LZIB 190830Z 03005KT CAVOK 11/M01 Q1024 NOSIG,1,0,0,9999,0,0,0,
2026-03-19 08:00:00,METAR LZIB 190800Z 02007KT CAVOK 10/M02 Q1024 NOSIG,1,0,0,9999,0,0,0,
2026-03-19 07:30:00,METAR LZIB 190730Z 03008KT CAVOK 09/M01 Q1024 NOSIG,1,0,0,9999,0,0,0,
2026-03-19 07:00:00,METAR LZIB 190700Z 03006KT CAVOK 08/M01 Q1024 NOSIG,1,0,0,9999,0,0,0,
2026-03-19 06:30:00,METAR LZIB 190630Z VRB02KT CAVOK 05/M00 Q1024 NOSIG,1,0,0,9999,0,0,0,
2026-03-19 06:00:00,METAR LZIB 190600Z 34003KT CAVOK 04/M02 Q1024 NOSIG,1,0,0,9999,0,0,0,
2026-03-19 05:30:00,METAR LZIB 190530Z 34004KT CAVOK 03/M02 Q1024 NOSIG,1,0,0,9999,0,0,0,
2026-03-19 05:00:00,METAR LZIB 190500Z 34003KT CAVOK 03/M01 Q1024 NOSIG,1,0,0,9999,0,0,0,
2026-03-19 04:30:00,METAR LZIB 190430Z 34003KT CAVOK 03/M02 Q1024 NOSIG,1,0,0,9999,0,0,0,
2026-03-19 04:00:00,METAR LZIB 190400Z 33003KT CAVOK 04/M02 Q1024 NOSIG,1,0,0,9999,0,0,0,
2026-03-19 03:30:00,METAR LZIB 190330Z VRB02KT CAVOK 04/M02 Q1024 NOSIG,1,0,0,9999,0,0,0,
2026-03-19 03:00:00,METAR LZIB 190300Z VRB02KT CAVOK 05/M03 Q1024 NOSIG,1,0,0,9999,0,0,0,
2026-03-19 02:30:00,METAR LZIB 190230Z 00000KT CAVOK 05/M03 Q1024 NOSIG,1,0,0,9999,0,0,0,
2026-03-19 02:00:00,METAR LZIB 190200Z 09003KT CAVOK 04/M03 Q1024 NOSIG,1,0,0,9999,0,0,0,
2026-03-19 01:30:00,METAR LZIB 190130Z 04005KT CAVOK 04/M03 Q1024 NOSIG,1,0,0,9999,0,0,0,
2026-03-19 01:00:00,METAR LZIB 190100Z 04005KT CAVOK 05/M02 Q1024 NOSIG,1,0,0,9999,0,0,0,
2026-03-19 00:30:00,METAR LZIB 190030Z 03005KT CAVOK 06/M02 Q1024 NOSIG,1,0,0,9999,0,0,0,
2026-03-19 00:00:00,METAR LZIB 190000Z 04007KT CAVOK 05/M02 Q1024 NOSIG,1,0,0,9999,0,0,0,
2026-03-18 23:30:00,METAR LZIB 182330Z 05007KT CAVOK 05/M02 Q1024 NOSIG,1,0,0,9999,0,0,0,
2026-03-18 23:00:00,METAR LZIB 182300Z 05006KT CAVOK 06/M02 Q1024 NOSIG,1,0,0,9999,0,0,0,
2026-03-18 22:30:00,METAR LZIB 182230Z 04008KT CAVOK 06/M02 Q1024 NOSIG,1,0,0,9999,0,0,0,
2026-03-18 22:00:00,METAR LZIB 182200Z 04008KT CAVOK 07/M02 Q1024 NOSIG,1,0,0,9999,0,0,0,
2026-03-18 21:30:00,METAR LZIB 182130Z 03008KT CAVOK 07/M02 Q1024 NOSIG,1,0,0,9999,0,0,0,
2026-03-18 21:00:00,METAR LZIB 182100Z 03009KT CAVOK 08/M02 Q1024 NOSIG,1,0,0,9999,0,0,0,
2026-03-18 20:30:00,METAR LZIB 182030Z 03008KT CAVOK 08/M01 Q1024 NOSIG,1,0,0,9999,0,0,0,
2026-03-18 20:00:00,METAR LZIB 182000Z 02007KT CAVOK 08/M01 Q1023 NOSIG,1,0,0,9999,0,0,0,
2026-03-18 19:30:00,METAR LZIB 181930Z 03006KT CAVOK 09/M02 Q1023 NOSIG,1,0,0,9999,0,0,0,
2026-03-18 19:00:00,METAR LZIB 181900Z 05008KT CAVOK 10/M01 Q1023 NOSIG,1,0,0,9999,0,0,0,
2026-03-18 18:30:00,METAR LZIB 181830Z 04008KT CAVOK 11/M01 Q1023 NOSIG,1,0,0,9999,0,0,0,
2026-03-18 18:00:00,METAR LZIB 181800Z 02009KT CAVOK 11/M01 Q1022 NOSIG,1,0,0,9999,0,0,0,
2026-03-18 17:30:00,METAR LZIB 181730Z 03009KT CAVOK 13/M01 Q1022 NOSIG,1,0,0,9999,0,0,0,
2026-03-18 17:00:00,METAR LZIB 181700Z 03006KT CAVOK 14/M02 Q1022 NOSIG,1,0,0,9999,0,0,0,
2026-03-18 16:30:00,METAR LZIB 181630Z 04006KT CAVOK 15/M02 Q1022 NOSIG,1,0,0,9999,0,0,0,
2026-03-18 16:00:00,METAR LZIB 181600Z 07008KT CAVOK 16/M03 Q1022 NOSIG,1,0,0,9999,0,0,0,
2026-03-18 15:30:00,METAR LZIB 181530Z 05009KT CAVOK 17/M02 Q1022 NOSIG,1,0,0,9999,0,0,0,
2026-03-18 15:00:00,METAR LZIB 181500Z 04009KT CAVOK 17/M02 Q1022 NOSIG,1,0,0,9999,0,0,0,
2026-03-18 14:30:00,METAR LZIB 181430Z 05009KT CAVOK 17/M02 Q1022 NOSIG,1,0,0,9999,0,0,0,
2026-03-18 14:00:00,METAR LZIB 181400Z 05008KT 020V080 CAVOK 16/M02 Q1022 NOSIG,1,0,0,9999,0,0,0,
2026-03-18 13:30:00,METAR LZIB 181330Z 04010KT 020V080 CAVOK 16/M02 Q1022 NOSIG,1,0,0,9999,0,0,0,
2026-03-18 13:00:00,METAR LZIB 181300Z 06008KT 010V090 CAVOK 16/M00 Q1022 NOSIG,1,0,0,9999,0,0,0,
2026-03-18 12:30:00,METAR LZIB 181230Z 07011KT CAVOK 16/M01 Q1023 NOSIG,1,0,0,9999,0,0,0,
2026-03-18 12:00:00,METAR LZIB 181200Z 06010G21KT 020V100 CAVOK 16/M00 Q1023 NOSIG,1,0,0,9999,0,0,0,
2026-03-18 11:30:00,METAR LZIB 181130Z 07013KT CAVOK 16/M01 Q1024 NOSIG,1,0,0,9999,0,0,0,
2026-03-18 11:00:00,METAR LZIB 181100Z 07013KT 040V100 CAVOK 15/M00 Q1024 NOSIG,1,0,0,9999,0,0,0,
2026-03-18 10:30:00,METAR LZIB 181030Z 07010KT 040V100 CAVOK 15/M00 Q1024 NOSIG,1,0,0,9999,0,0,0,
2026-03-18 10:00:00,METAR LZIB 181000Z 06010KT 040V100 CAVOK 14/02 Q1024 NOSIG,1,0,0,9999,0,0,0,
2026-03-18 09:30:00,METAR LZIB 180930Z 07014KT 050V110 CAVOK 13/02 Q1024 NOSIG,1,0,0,9999,0,0,0,
2026-03-18 09:00:00,METAR LZIB 180900Z 06012KT CAVOK 13/02 Q1024 NOSIG,1,0,0,9999,0,0,0,
2026-03-18 08:30:00,METAR LZIB 180830Z 04010KT 010V070 CAVOK 12/02 Q1024 NOSIG,1,0,0,9999,0,0,0,
2026-03-18 08:00:00,METAR LZIB 180800Z 03012KT CAVOK 11/02 Q1024 NOSIG,1,0,0,9999,0,0,0,
2026-03-18 07:30:00,METAR LZIB 180730Z 03011KT CAVOK 10/03 Q1024 NOSIG,1,0,0,9999,0,0,0,
2026-03-18 07:00:00,METAR LZIB 180700Z 02013KT CAVOK 09/03 Q1023 NOSIG,1,0,0,9999,0,0,0,
2026-03-18 06:30:00,METAR LZIB 180630Z 02010KT CAVOK 08/02 Q1023 NOSIG,1,0,0,9999,0,0,0,
2026-03-18 06:00:00,METAR LZIB 180600Z 03006KT CAVOK 07/02 Q1023 NOSIG,1,0,0,9999,0,0,0,
2026-03-18 05:30:00,METAR LZIB 180530Z 03005KT CAVOK 06/01 Q1022 NOSIG,1,0,0,9999,0,0,0,
2026-03-18 05:00:00,METAR LZIB 180500Z 02008KT CAVOK 06/01 Q1022 NOSIG,1,0,0,9999,0,0,0,
2026-03-18 04:30:00,METAR LZIB 180430Z 02008KT CAVOK 06/01 Q1022 NOSIG,1,0,0,9999,0,0,0,
2026-03-18 04:00:00,METAR LZIB 180400Z 02006KT CAVOK 06/01 Q1022 NOSIG,1,0,0,9999,0,0,0,
2026-03-18 03:30:00,METAR LZIB 180330Z 36003KT CAVOK 07/01 Q1021 NOSIG,1,0,0,9999,0,0,0,
2026-03-18 03:00:00,METAR LZIB 180300Z 36002KT CAVOK 06/01 Q1021 NOSIG,1,0,0,9999,0,0,0,
2026-03-18 02:30:00,METAR LZIB 180230Z 35003KT CAVOK 07/01 Q1021 NOSIG,1,0,0,9999,0,0,0,
2026-03-18 02:00:00,METAR LZIB 180200Z 36004KT CAVOK 06/01 Q1021 NOSIG,1,0,0,9999,0,0,0,
2026-03-18 01:30:00,METAR LZIB 180130Z VRB02KT CAVOK 06/01 Q1021 NOSIG,1,0,0,9999,0,0,0,
2026-03-18 01:00:00,METAR LZIB 180100Z 02002KT CAVOK 06/01 Q1021 NOSIG,1,0,0,9999,0,0,0,
2026-03-18 00:30:00,METAR LZIB 180030Z 02005KT CAVOK 06/01 Q1022 NOSIG,1,0,0,9999,0,0,0,
2026-03-18 00:00:00,METAR LZIB 180000Z 01006KT CAVOK 06/01 Q1022 NOSIG,1,0,0,9999,0,0,0,
2026-03-17 23:30:00,METAR LZIB 172330Z 36006KT CAVOK 06/02 Q1021 NOSIG,1,0,0,9999,0,0,0,
2026-03-17 23:00:00,METAR LZIB 172300Z 01007KT CAVOK 07/02 Q1022 NOSIG,1,0,0,9999,0,0,0,
2026-03-17 22:30:00,METAR LZIB 172230Z 36007KT CAVOK 07/02 Q1022 NOSIG,1,0,0,9999,0,0,0,
2026-03-17 22:00:00,METAR LZIB 172200Z 36007KT CAVOK 07/02 Q1022 NOSIG,1,0,0,9999,0,0,0,
2026-03-17 21:30:00,METAR LZIB 172130Z 36007KT CAVOK 07/02 Q1022 NOSIG,1,0,0,9999,0,0,0,
2026-03-17 21:00:00,METAR LZIB 172100Z 36006KT CAVOK 07/02 Q1021 NOSIG,1,0,0,9999,0,0,0,
2026-03-17 20:30:00,METAR LZIB 172030Z 35006KT 9999 -RA NSC 07/02 Q1021 NOSIG,0,6,0,10000,0,0,0,-RA
2026-03-17 20:00:00,METAR LZIB 172000Z 33007KT 9999 -RA FEW045 07/03 Q1021 NOSIG,0,7,0,10000,0,0,0,-RA
2026-03-17 19:30:00,METAR LZIB 171930Z 35008KT 9999 -RA SCT045 07/03 Q1021 NOSIG,0,8,0,10000,0,0,0,-RA
2026-03-17 19:00:00,METAR LZIB 171900Z 02010KT 9999 -RA SCT031 BKN039 08/02 Q1021 NOSIG,0,10,0,10000,0,0,0,-RA
2026-03-17 18:30:00,METAR LZIB 171830Z 02009KT 9999 -RA BKN032 BKN037 08/01 Q1021 NOSIG,0,9,0,10000,0,0,0,-RA
2026-03-17 18:00:00,METAR LZIB 171800Z 36008KT 9999 BKN037 08/01 Q1021 NOSIG,0,8,0,10000,0,0,0,
2026-03-17 17:30:00,METAR LZIB 171730Z 36007KT 9999 BKN039 08/01 Q1021 NOSIG,0,7,0,10000,0,0,0,
2026-03-17 17:00:00,METAR LZIB 171700Z 02009KT 9999 FEW039 08/01 Q1020 NOSIG,0,9,0,10000,0,0,0,
2026-03-17 16:30:00,METAR LZIB 171630Z 03011KT 9999 SCT039 08/02 Q1020 NOSIG,0,11,0,10000,0,0,0,
2026-03-17 16:00:00,METAR LZIB 171600Z 02012KT 9999 -RA BKN040 09/02 Q1020 NOSIG,0,12,0,10000,0,0,0,-RA
2026-03-17 15:30:00,METAR LZIB 171530Z 36013KT 9999 -RA BKN042 10/01 Q1020 NOSIG,0,13,0,10000,0,0,0,-RA
2026-03-17 15:00:00,METAR LZIB 171500Z 36013KT 9999 SCT043 10/M00 Q1020 NOSIG,0,13,0,10000,0,0,0,
2026-03-17 14:30:00,METAR LZIB 171430Z 33016KT 9999 SCT045 10/00 Q1020 NOSIG,0,16,0,10000,0,0,0,
2026-03-17 14:00:00,METAR LZIB 171400Z 34014KT 9999 SCT043 11/01 Q1020 NOSIG,0,14,0,10000,0,0,0,
2026-03-17 13:30:00,METAR LZIB 171330Z 34012KT 9999 SCT040 10/01 Q1020 NOSIG,0,12,0,10000,0,0,0,
2026-03-17 13:00:00,METAR LZIB 171300Z 35013KT 9999 FEW038 10/00 Q1020 NOSIG,0,13,0,10000,0,0,0,
2026-03-17 12:30:00,METAR LZIB 171230Z 33014KT 9999 FEW036 10/01 Q1020 NOSIG,0,14,0,10000,0,0,0,
2026-03-17 12:00:00,METAR LZIB 171200Z 33014KT 9999 -RA FEW023 SCT033 09/01 Q1021 NOSIG,0,14,0,10000,0,0,0,-RA
2026-03-17 11:30:00,METAR LZIB 171130Z 33013KT 9999 SCT034 10/01 Q1021 NOSIG,0,13,0,10000,0,0,0,
2026-03-17 11:00:00,METAR LZIB 171100Z 34014KT 9999 SCT032 09/02 Q1021 NOSIG,0,14,0,10000,0,0,0,
2026-03-17 10:30:00,METAR LZIB 171030Z 33013KT 9999 SCT028 08/01 Q1021 NOSIG,0,13,0,10000,0,0,0,
2026-03-17 10:00:00,METAR LZIB 171000Z 34015KT 9999 BKN027 08/02 Q1021 NOSIG,0,15,0,10000,0,0,0,
2026-03-17 09:30:00,METAR LZIB 170930Z 35012KT 310V010 9999 BKN026 08/01 Q1021 NOSIG,0,12,0,10000,0,0,0,
2026-03-17 09:00:00,METAR LZIB 170900Z 34007KT 300V010 9999 BKN027 08/01 Q1021 NOSIG,0,7,0,10000,0,0,0,
2026-03-17 08:30:00,METAR LZIB 170830Z 32008KT 280V020 9999 BKN025 07/01 Q1021 NOSIG,0,8,0,10000,0,0,0,
2026-03-17 08:00:00,METAR LZIB 170800Z 32009KT 9999 SCT024 07/01 Q1021 NOSIG,0,9,0,10000,0,0,0,
2026-03-17 07:30:00,METAR LZIB 170730Z 30009KT 260V340 9999 SCT024 06/01 Q1021 NOSIG,0,9,0,10000,0,0,0,
2026-03-17 07:00:00,METAR LZIB 170700Z 30010KT 9999 FEW025 06/01 Q1021 NOSIG,0,10,0,10000,0,0,0,
2026-03-17 06:30:00,METAR LZIB 170630Z 30015KT 9999 FEW020 05/01 Q1021 NOSIG,0,15,0,10000,0,0,0,
2026-03-17 06:00:00,METAR LZIB 170600Z 30011KT 9999 FEW030 04/00 Q1021 NOSIG,0,11,0,10000,0,0,0,
2026-03-17 05:30:00,METAR LZIB 170530Z 30010KT 9999 FEW031 04/00 Q1021 NOSIG,0,10,0,10000,0,0,0,
2026-03-17 05:00:00,METAR LZIB 170500Z 30014KT 9999 SCT031 05/00 Q1021 NOSIG,0,14,0,10000,0,0,0,
2026-03-17 04:30:00,METAR LZIB 170430Z 30013KT 9999 SCT030 04/00 Q1020 NOSIG,0,13,0,10000,0,0,0,
2026-03-17 04:00:00,METAR LZIB 170400Z 30011KT 9999 SCT045 04/00 Q1020 NOSIG,0,11,0,10000,0,0,0,
2026-03-17 03:30:00,METAR LZIB 170330Z 30011KT 9999 SCT040 05/00 Q1020 NOSIG,0,11,0,10000,0,0,0,
2026-03-17 03:00:00,METAR LZIB 170300Z 30011KT 9999 FEW035 05/01 Q1020 NOSIG,0,11,0,10000,0,0,0,
2026-03-17 02:30:00,METAR LZIB 170230Z 29010KT 9999 FEW040 05/01 Q1020 NOSIG,0,10,0,10000,0,0,0,
2026-03-17 02:00:00,METAR LZIB 170200Z 29008KT 9999 FEW036 05/01 Q1020 NOSIG,0,8,0,10000,0,0,0,
2026-03-17 01:30:00,METAR LZIB 170130Z 29008KT 9999 FEW036 06/02 Q1020 NOSIG,0,8,0,10000,0,0,0,
2026-03-17 01:00:00,METAR LZIB 170100Z 29010KT 9999 SCT035 06/02 Q1020 NOSIG,0,10,0,10000,0,0,0,
2026-03-17 00:30:00,METAR LZIB 170030Z 29012KT CAVOK 06/02 Q1020 NOSIG,1,0,0,9999,0,0,0,
2026-03-17 00:00:00,METAR LZIB 170000Z 29009KT 9999 FEW044 07/02 Q1019 NOSIG,0,9,0,10000,0,0,0,
2026-03-16 23:30:00,METAR LZIB 162330Z 29005KT 260V320 CAVOK 07/01 Q1019 NOSIG,1,0,0,9999,0,0,0,
2026-03-16 23:00:00,METAR LZIB 162300Z 29006KT 250V320 9999 SCT036 07/01 Q1019 NOSIG,0,6,0,10000,0,0,0,
2026-03-16 22:30:00,METAR LZIB 162230Z 32004KT CAVOK 07/01 Q1019 NOSIG,1,0,0,9999,0,0,0,
2026-03-16 22:00:00,METAR LZIB 162200Z 29007KT CAVOK 07/01 Q1019 NOSIG,1,0,0,9999,0,0,0,
2026-03-16 21:30:00,METAR LZIB 162130Z 29008KT CAVOK 08/01 Q1019 NOSIG,1,0,0,9999,0,0,0,
2026-03-16 21:00:00,METAR LZIB 162100Z 27006KT 240V300 CAVOK 08/01 Q1018 NOSIG,1,0,0,9999,0,0,0,
2026-03-16 20:30:00,METAR LZIB 162030Z 20002KT CAVOK 05/03 Q1018 BECMG 29010KT,1,0,0,9999,0,0,0,
2026-03-16 20:00:00,METAR LZIB 162000Z 21003KT CAVOK 07/03 Q1018 BECMG 29010KT,1,0,0,9999,0,0,0,
2026-03-16 19:30:00,METAR LZIB 161930Z 22003KT CAVOK 07/03 Q1018 BECMG 29010KT,1,0,0,9999,0,0,0,
2026-03-16 19:00:00,METAR LZIB 161900Z 21003KT 9999 FEW046 07/03 Q1018 NOSIG,0,3,0,10000,0,0,0,
2026-03-16 18:30:00,METAR LZIB 161830Z 20003KT 9999 FEW046 07/03 Q1017 NOSIG,0,3,0,10000,0,0,0,
2026-03-16 18:00:00,METAR LZIB 161800Z 15002KT 9999 FEW045 06/03 Q1017 NOSIG,0,2,0,10000,0,0,0,
2026-03-16 17:30:00,METAR LZIB 161730Z 22005KT 9999 FEW045 08/03 Q1017 NOSIG,0,5,0,10000,0,0,0,
2026-03-16 17:00:00,METAR LZIB 161700Z 18003KT 9999 FEW045 08/04 Q1017 NOSIG,0,3,0,10000,0,0,0,
2026-03-16 16:30:00,METAR LZIB 161630Z 20004KT CAVOK 08/03 Q1017 NOSIG,1,0,0,9999,0,0,0,
2026-03-16 16:00:00,METAR LZIB 161600Z 21005KT CAVOK 09/04 Q1017 NOSIG,1,0,0,9999,0,0,0,
2026-03-16 15:30:00,METAR LZIB 161530Z 21006KT CAVOK 09/04 Q1017 NOSIG,1,0,0,9999,0,0,0,
2026-03-16 15:00:00,METAR LZIB 161500Z 21004KT 170V240 CAVOK 09/04 Q1017 NOSIG,1,0,0,9999,0,0,0,
2026-03-16 14:30:00,METAR LZIB 161430Z 22004KT 190V250 CAVOK 09/03 Q1017 NOSIG,1,0,0,9999,0,0,0,
2026-03-16 14:00:00,METAR LZIB 161400Z 22006KT CAVOK 08/04 Q1017 NOSIG,1,0,0,9999,0,0,0,
2026-03-16 13:30:00,METAR LZIB 161330Z 24009KT 9999 FEW019 08/03 Q1017 NOSIG,0,9,0,10000,0,0,0,
2026-03-16 13:00:00,METAR LZIB 161300Z 25008KT 9999 FEW014 08/04 Q1017 NOSIG,0,8,0,10000,0,0,0,
2026-03-16 12:30:00,METAR LZIB 161230Z VRB03KT 9999 -RA FEW014 SCT042 07/04 Q1017 RERA NOSIG,0,3,0,10000,0,0,0,"-RA,RA"
2026-03-16 12:00:00,METAR LZIB 161200Z 29015KT 9999 -RA SCT024 08/03 Q1018 NOSIG,0,15,0,10000,0,0,0,-RA
2026-03-16 11:30:00,METAR LZIB 161130Z 30016KT 9999 -RA SCT027 SCT034 09/03 Q1018 NOSIG,0,16,0,10000,0,0,0,-RA
2026-03-16 11:00:00,METAR LZIB 161100Z 30013KT 9999 SCT034 10/02 Q1017 NOSIG,0,13,0,10000,0,0,0,
2026-03-16 10:30:00,METAR LZIB 161030Z 30011KT 9999 FEW036 10/02 Q1017 NOSIG,0,11,0,10000,0,0,0,
2026-03-16 10:00:00,METAR LZIB 161000Z 29012KT 250V310 9999 FEW036 11/02 Q1017 NOSIG,0,12,0,10000,0,0,0,
2026-03-16 09:30:00,METAR LZIB 160930Z 29010KT 9999 FEW031 10/02 Q1017 NOSIG,0,10,0,10000,0,0,0,
2026-03-16 09:00:00,METAR LZIB 160900Z 30011KT 9999 FEW030 10/03 Q1016 NOSIG,0,11,0,10000,0,0,0,
2026-03-16 08:30:00,METAR LZIB 160830Z 29009KT 9999 FEW030 10/02 Q1016 NOSIG,0,9,0,10000,0,0,0,
2026-03-16 08:00:00,METAR LZIB 160800Z 30008KT 9999 BKN047 10/02 Q1016 NOSIG,0,8,0,10000,0,0,0,
2026-03-16 07:30:00,METAR LZIB 160730Z 30007KT 9999 BKN045 09/02 Q1016 NOSIG,0,7,0,10000,0,0,0,
2026-03-16 07:00:00,METAR LZIB 160700Z 31007KT 9999 BKN045 08/02 Q1016 NOSIG,0,7,0,10000,0,0,0,
2026-03-16 06:30:00,METAR LZIB 160630Z 30005KT 270V340 9999 BKN045 08/03 Q1016 NOSIG,0,5,0,10000,0,0,0,
2026-03-16 06:00:00,METAR LZIB 160600Z 30006KT CAVOK 08/02 Q1015 NOSIG,1,0,0,9999,0,0,0,
2026-03-16 05:30:00,METAR LZIB 160530Z 30009KT CAVOK 07/02 Q1015 NOSIG,1,0,0,9999,0,0,0,
2026-03-16 05:00:00,METAR LZIB 160500Z 28007KT CAVOK 07/03 Q1015 NOSIG,1,0,0,9999,0,0,0,
2026-03-16 04:30:00,METAR LZIB 160430Z 27007KT CAVOK 07/03 Q1014 NOSIG,1,0,0,9999,0,0,0,
2026-03-16 04:00:00,METAR LZIB 160400Z 29008KT CAVOK 08/03 Q1014 NOSIG,1,0,0,9999,0,0,0,
2026-03-16 03:30:00,METAR LZIB 160330Z 29007KT CAVOK 07/03 Q1014 NOSIG,1,0,0,9999,0,0,0,
2026-03-16 03:00:00,METAR LZIB 160300Z 29007KT CAVOK 07/03 Q1014 NOSIG,1,0,0,9999,0,0,0,
2026-03-16 02:30:00,METAR LZIB 160230Z 29009KT CAVOK 07/03 Q1014 NOSIG,1,0,0,9999,0,0,0,
2026-03-16 02:00:00,METAR LZIB 160200Z 29008KT CAVOK 07/03 Q1014 NOSIG,1,0,0,9999,0,0,0,
2026-03-16 01:30:00,METAR LZIB 160130Z 29008KT CAVOK 08/03 Q1014 NOSIG,1,0,0,9999,0,0,0,
2026-03-16 01:00:00,METAR LZIB 160100Z 28009KT CAVOK 08/04 Q1014 NOSIG,1,0,0,9999,0,0,0,
2026-03-16 00:30:00,METAR LZIB 160030Z 27008KT CAVOK 08/04 Q1014 NOSIG,1,0,0,9999,0,0,0,
2026-03-16 00:00:00,METAR LZIB 160000Z 27007KT CAVOK 08/04 Q1014 NOSIG,1,0,0,9999,0,0,0,
2026-03-15 23:30:00,METAR LZIB 152330Z 28007KT CAVOK 08/04 Q1014 NOSIG,1,0,0,9999,0,0,0,
2026-03-15 23:00:00,METAR LZIB 152300Z 29009KT CAVOK 09/04 Q1014 NOSIG,1,0,0,9999,0,0,0,
2026-03-15 22:30:00,METAR LZIB 152230Z 28007KT CAVOK 09/04 Q1014 NOSIG,1,0,0,9999,0,0,0,
2026-03-15 22:00:00,METAR LZIB 152200Z 29007KT CAVOK 09/04 Q1014 NOSIG,1,0,0,9999,0,0,0,
2026-03-15 21:30:00,METAR LZIB 152130Z 30005KT 270V330 CAVOK 09/04 Q1014 NOSIG,1,0,0,9999,0,0,0,
2026-03-15 21:00:00,METAR LZIB 152100Z 30007KT CAVOK 09/04 Q1014 NOSIG,1,0,0,9999,0,0,0,
2026-03-15 20:30:00,METAR LZIB 152030Z 31008KT CAVOK 10/04 Q1014 NOSIG,1,0,0,9999,0,0,0,
2026-03-15 20:00:00,METAR LZIB 152000Z 30010KT CAVOK 10/04 Q1014 NOSIG,1,0,0,9999,0,0,0,
2026-03-15 19:30:00,METAR LZIB 151930Z 30009KT CAVOK 10/04 Q1014 NOSIG,1,0,0,9999,0,0,0,
2026-03-15 19:00:00,METAR LZIB 151900Z 30009KT CAVOK 11/04 Q1013 NOSIG,1,0,0,9999,0,0,0,
2026-03-15 18:30:00,METAR LZIB 151830Z 30008KT CAVOK 11/04 Q1013 NOSIG,1,0,0,9999,0,0,0,
2026-03-15 18:00:00,METAR LZIB 151800Z 31008KT CAVOK 12/04 Q1013 NOSIG,1,0,0,9999,0,0,0,
2026-03-15 17:30:00,METAR LZIB 151730Z 30008KT CAVOK 12/05 Q1013 NOSIG,1,0,0,9999,0,0,0,
2026-03-15 17:00:00,METAR LZIB 151700Z 30007KT CAVOK 13/05 Q1013 NOSIG,1,0,0,9999,0,0,0,
2026-03-15 16:30:00,METAR LZIB 151630Z 31009KT 280V340 CAVOK 14/05 Q1012 NOSIG,1,0,0,9999,0,0,0,
2026-03-15 16:00:00,METAR LZIB 151600Z VRB01KT CAVOK 15/01 Q1012 NOSIG,1,0,0,9999,0,0,0,
2026-03-15 15:30:00,METAR LZIB 151530Z VRB01KT CAVOK 15/01 Q1012 NOSIG,1,0,0,9999,0,0,0,
2026-03-15 15:00:00,METAR LZIB 151500Z VRB02KT CAVOK 16/01 Q1012 NOSIG,1,0,0,9999,0,0,0,
2026-03-15 14:30:00,METAR LZIB 151430Z 15005KT 120V190 CAVOK 15/01 Q1012 NOSIG,1,0,0,9999,0,0,0,
2026-03-15 14:00:00,METAR LZIB 151400Z 11003KT 070V170 CAVOK 15/01 Q1012 NOSIG,1,0,0,9999,0,0,0,
2026-03-15 13:30:00,METAR LZIB 151330Z VRB03KT CAVOK 15/02 Q1012 NOSIG,1,0,0,9999,0,0,0,
2026-03-15 13:00:00,METAR LZIB 151300Z VRB03KT CAVOK 15/02 Q1012 NOSIG,1,0,0,9999,0,0,0,
2026-03-15 12:30:00,METAR LZIB 151230Z VRB03KT CAVOK 14/02 Q1012 NOSIG,1,0,0,9999,0,0,0,
2026-03-15 12:00:00,METAR LZIB 151200Z VRB03KT CAVOK 14/01 Q1012 NOSIG,1,0,0,9999,0,0,0,
2026-03-15 11:30:00,METAR LZIB 151130Z VRB05KT CAVOK 14/02 Q1013 NOSIG,1,0,0,9999,0,0,0,
2026-03-15 11:00:00,METAR LZIB 151100Z 07006KT 040V130 CAVOK 13/01 Q1013 NOSIG,1,0,0,9999,0,0,0,
2026-03-15 10:30:00,METAR LZIB 151030Z 07007KT 040V110 CAVOK 13/01 Q1013 NOSIG,1,0,0,9999,0,0,0,
2026-03-15 10:00:00,METAR LZIB 151000Z 02005KT 310V080 CAVOK 12/01 Q1012 NOSIG,1,0,0,9999,0,0,0,
2026-03-15 09:30:00,METAR LZIB 150930Z 06006KT 020V100 CAVOK 12/01 Q1012 NOSIG,1,0,0,9999,0,0,0,
2026-03-15 09:00:00,METAR LZIB 150900Z 04005KT 020V080 CAVOK 11/01 Q1012 NOSIG,1,0,0,9999,0,0,0,
2026-03-15 08:30:00,METAR LZIB 150830Z 09005KT CAVOK 10/00 Q1012 NOSIG,1,0,0,9999,0,0,0,
2026-03-15 08:00:00,METAR LZIB 150800Z 07006KT CAVOK 10/00 Q1012 NOSIG,1,0,0,9999,0,0,0,
