Time_recorded,METAR,is_cavok,wind_speed,is_gust,visibility_meters,has_thunderstorm,has_heavy_rain,has_low_vis_fog,other_phenomenon
2026-05-02 15:00:00,METAR RJOA 021500Z AUTO 30004KT 9999 NSC 17/10 Q1012,0,4,0,10000,0,0,0,
2026-05-02 14:00:00,METAR RJOA 021400Z AUTO 30003KT 9999 NSC 17/09 Q1013,0,3,0,10000,0,0,0,
2026-05-02 13:00:00,METAR RJOA 021300Z 26004KT CAVOK 17/08 Q1013,1,0,0,9999,0,0,0,
2026-05-02 12:00:00,METAR RJOA 021200Z 00000KT CAVOK 17/09 Q1013,1,0,0,9999,0,0,0,
2026-05-02 11:00:00,METAR RJOA 021100Z 12002KT CAVOK 17/10 Q1012,1,0,0,9999,0,0,0,
2026-05-02 10:00:00,METAR RJOA 021000Z 13003KT CAVOK 17/10 Q1012,1,0,0,9999,0,0,0,
2026-05-02 09:00:00,METAR RJOA 020900Z 17002KT CAVOK 19/11 Q1012,1,0,0,9999,0,0,0,
2026-05-02 08:00:00,METAR RJOA 020800Z 19003KT 140V220 CAVOK 20/10 Q1012,1,0,0,9999,0,0,0,
2026-05-02 07:00:00,METAR RJOA 020700Z 19004KT 100V260 CAVOK 20/09 Q1012,1,0,0,9999,0,0,0,
2026-05-02 06:00:00,METAR RJOA 020600Z 16004KT 090V220 CAVOK 20/11 Q1012,1,0,0,9999,0,0,0,
2026-05-02 05:00:00,METAR RJOA 020500Z 20005KT 150V240 CAVOK 21/12 Q1012,1,0,0,9999,0,0,0,
2026-05-02 04:00:00,METAR RJOA 020400Z 20007KT 150V240 CAVOK 20/11 Q1012,1,0,0,9999,0,0,0,
2026-05-02 03:00:00,METAR RJOA 020300Z VRB02KT CAVOK 21/13 Q1013,1,0,0,9999,0,0,0,
2026-05-02 02:00:00,METAR RJOA 020200Z 28006KT 240V340 CAVOK 20/09 Q1013,1,0,0,9999,0,0,0,
2026-05-02 01:00:00,METAR RJOA 020100Z 26006KT CAVOK 18/11 Q1013,1,0,0,9999,0,0,0,
2026-05-02 00:00:00,METAR RJOA 020000Z 25003KT 180V290 CAVOK 16/11 Q1013,1,0,0,9999,0,0,0,
2026-05-01 23:00:00,METAR RJOA 012300Z 28005KT CAVOK 14/10 Q1013,1,0,0,9999,0,0,0,
2026-05-01 22:30:00,METAR RJOA 012230Z 29006KT CAVOK 14/09 Q1012,1,0,0,9999,0,0,0,
2026-05-01 22:00:00,METAR RJOA 012200Z AUTO 29005KT 9999 NCD 13/09 Q1012,0,5,0,10000,0,0,0,
2026-05-01 21:00:00,METAR RJOA 012100Z AUTO 31006KT 9999 NSC 10/08 Q1011,0,6,0,10000,0,0,0,
2026-05-01 20:00:00,METAR RJOA 012000Z AUTO 30004KT 9999 NCD 10/08 Q1011,0,4,0,10000,0,0,0,
2026-05-01 19:00:00,METAR RJOA 011900Z AUTO 32004KT 9999 NCD 10/08 Q1010,0,4,0,10000,0,0,0,
2026-05-01 18:00:00,METAR RJOA 011800Z AUTO 32005KT 9999 NCD 10/08 Q1010,0,5,0,10000,0,0,0,
2026-05-01 17:00:00,METAR RJOA 011700Z AUTO 30008KT 9999 NCD 11/08 Q1010,0,8,0,10000,0,0,0,
2026-05-01 16:00:00,METAR RJOA 011600Z AUTO 29007KT 9999 NCD 10/08 Q1010,0,7,0,10000,0,0,0,
2026-05-01 15:00:00,METAR RJOA 011500Z AUTO 30004KT 9999 NCD 10/07 Q1010,0,4,0,10000,0,0,0,
2026-05-01 14:00:00,METAR RJOA 011400Z AUTO 28006KT 9999 NCD 10/07 Q1009,0,6,0,10000,0,0,0,
2026-05-01 13:00:00,METAR RJOA 011300Z 24003KT 200V270 9999 FEW025 11/07 Q1010,0,3,0,10000,0,0,0,
2026-05-01 12:00:00,METAR RJOA 011200Z 21003KT 9999 FEW025 BKN070 11/08 Q1008,0,3,0,10000,0,0,0,
2026-05-01 11:00:00,METAR RJOA 011100Z 27007KT 9999 FEW020 BKN030 BKN050 11/07 Q1007,0,7,0,10000,0,0,0,
2026-05-01 10:00:00,METAR RJOA 011000Z 25007KT 9999 FEW020 SCT035 BKN050 10/07 Q1006,0,7,0,10000,0,0,0,
2026-05-01 09:00:00,METAR RJOA 010900Z 26009KT 9999 FEW020 SCT030 BKN040 10/07 Q1006,0,9,0,10000,0,0,0,
2026-05-01 08:00:00,METAR RJOA 010800Z 26009KT 9999 -SHRA FEW020 SCT030 BKN040 11/07 Q1005,0,9,0,10000,0,0,0,RA
2026-05-01 07:00:00,METAR RJOA 010700Z 28016KT 9999 -SHRA FEW020 SCT030 BKN040 12/07 Q1004,0,16,0,10000,0,0,0,RA
2026-05-01 06:00:00,METAR RJOA 010600Z 27011KT 9999 -SHRA FEW015 SCT020 BKN030 11/09 Q1004,0,11,0,10000,0,0,0,RA
2026-05-01 05:00:00,METAR RJOA 010500Z 27012KT 9999 -SHRA FEW020 SCT025 BKN035 12/09 Q1004,0,12,0,10000,0,0,0,RA
2026-05-01 04:00:00,METAR RJOA 010400Z 26011KT 9999 FEW020 SCT030 BKN040 14/08 Q1003,0,11,0,10000,0,0,0,
2026-05-01 03:00:00,METAR RJOA 010300Z 27011G21KT 240V310 9999 FEW015 SCT020 BKN035 15/11 Q1003,0,11,1,10000,0,0,0,
2026-05-01 02:00:00,METAR RJOA 010200Z 26011KT 9999 FEW005 SCT015 BKN030 14/12 Q1004,0,11,0,10000,0,0,0,
2026-05-01 01:00:00,METAR RJOA 010100Z 28012KT 9999 SHRA FEW005 SCT010 BKN025 13/11 Q1004,0,12,0,10000,0,0,0,"RA,SH"
2026-05-01 00:00:00,METAR RJOA 010000Z 28008KT 9999 -SHRA FEW003 SCT008 BKN015 14/13 Q1004,0,8,0,10000,0,0,0,RA
2026-04-30 23:00:00,METAR RJOA 302300Z VRB02KT 0900 R28/P2000N -SHRA FG FEW000 SCT001 BKN002 13/13 Q1004,0,2,0,1448100,0,0,1,"FG,RA"
2026-04-30 22:30:00,METAR RJOA 302230Z 25007KT 5000 BCFG BR FEW000 SCT002 BKN005 13/13 Q1005,0,7,0,5000,0,0,1,"BC,BR,FG"
2026-04-30 22:00:00,METAR RJOA 302200Z AUTO 26009KT 9999 BKN002 BKN005 OVC008 13/13 Q1004,0,9,0,10000,0,0,0,
2026-04-30 21:00:00,METAR RJOA 302100Z AUTO 27007KT 6000 -RA OVC001 13/13 Q1004,0,7,0,6000,0,0,0,-RA
2026-04-30 20:00:00,METAR RJOA 302000Z AUTO 26005KT 0200 R28/P2000N RA FG OVC000 13/13 Q1004,0,5,0,321800,0,0,1,"FG,RA"
2026-04-30 19:00:00,METAR RJOA 301900Z AUTO 35003KT 270V030 4800 RA BR FEW000 BKN008 BKN031 //////TCU 13/13 Q1003,0,3,0,4800,0,0,1,"BR,RA"
2026-04-30 18:00:00,METAR RJOA 301800Z AUTO 08008KT 4200 BR OVC001 //////TCU 13/13 Q1003,0,8,0,4200,0,0,1,BR
2026-04-30 17:00:00,METAR RJOA 301700Z AUTO 07008KT 7000 -RA OVC002 13/13 Q1004,0,8,0,7000,0,0,0,-RA
2026-04-30 16:00:00,METAR RJOA 301600Z AUTO 07011KT 9999 OVC003 13/13 Q1006,0,11,0,10000,0,0,0,
2026-04-30 15:00:00,METAR RJOA 301500Z AUTO 07009KT 9999 SCT003 OVC005 13/13 Q1007,0,9,0,10000,0,0,0,
2026-04-30 14:00:00,METAR RJOA 301400Z AUTO 07009KT 9999 BKN003 13/13 Q1008,0,9,0,10000,0,0,0,
2026-04-30 13:00:00,METAR RJOA 301300Z 08012KT 6000 -SHRA BCFG FEW000 SCT003 BKN005 13/12 Q1009,0,12,0,6000,0,0,1,"BC,FG,RA"
2026-04-30 12:00:00,METAR RJOA 301200Z 07013KT 6000 -SHRA BCFG FEW000 SCT003 BKN006 13/12 Q1010,0,13,0,6000,0,0,1,"BC,FG,RA"
2026-04-30 11:00:00,METAR RJOA 301100Z 06008KT 4500 -SHRA BCFG BR FEW000 SCT003 BKN005 13/12 Q1011,0,8,0,4500,0,0,1,"BC,BR,FG,RA"
2026-04-30 10:00:00,METAR RJOA 301000Z 07014KT 4500 BCFG BR FEW000 SCT003 BKN004 12/12 Q1010,0,14,0,4500,0,0,1,"BC,BR,FG"
2026-04-30 09:00:00,METAR RJOA 300900Z 07013KT 7000 BCFG FEW000 SCT003 BKN005 12/11 Q1011,0,13,0,7000,0,0,1,"BC,FG"
2026-04-30 08:00:00,METAR RJOA 300800Z 07014KT 7000 BCFG FEW000 SCT005 BKN007 12/11 Q1011,0,14,0,7000,0,0,1,"BC,FG"
2026-04-30 07:00:00,METAR RJOA 300700Z 07012KT 4000 -RA BCFG BR FEW000 SCT004 BKN006 11/11 Q1012,0,12,0,4000,0,0,1,"-RA,BC,BR,FG"
2026-04-30 06:00:00,METAR RJOA 300600Z 07009KT 4000 -RA BCFG BR FEW000 SCT003 BKN005 12/11 Q1013,0,9,0,4000,0,0,1,"-RA,BC,BR,FG"
2026-04-30 05:00:00,METAR RJOA 300500Z 07010KT 4000 -RA BCFG BR FEW000 SCT003 BKN005 11/11 Q1014,0,10,0,4000,0,0,1,"-RA,BC,BR,FG"
2026-04-30 04:00:00,METAR RJOA 300400Z 08012KT 3000 -RA BCFG BR FEW000 SCT006 BKN008 11/11 Q1015,0,12,0,3000,0,0,1,"-RA,BC,BR,FG"
2026-04-30 03:00:00,METAR RJOA 300300Z 08010KT 3000 -RA BCFG BR FEW000 SCT005 BKN007 11/11 Q1016,0,10,0,3000,0,0,1,"-RA,BC,BR,FG"
2026-04-30 02:00:00,METAR RJOA 300200Z 11008KT 080V140 3000 -RA BCFG BR FEW000 SCT003 BKN006 12/11 Q1017,0,8,0,3000,0,0,1,"-RA,BC,BR,FG"
2026-04-30 01:00:00,METAR RJOA 300100Z 10007KT 0900 R10/P2000N -RA FG FEW000 BKN001 BKN002 11/11 Q1017,0,7,0,1448100,0,0,1,"-RA,FG"
2026-04-30 00:00:00,METAR RJOA 300000Z 09008KT 2000 -RA BCFG BR FEW000 SCT003 BKN006 11/10 Q1018,0,8,0,2000,0,0,1,"-RA,BC,BR,FG"
2026-04-29 23:00:00,METAR RJOA 292300Z 07010KT 5000 -RA BCFG BR FEW000 BKN006 BKN015 11/10 Q1018,0,10,0,5000,0,0,1,"-RA,BC,BR,FG"
2026-04-29 22:30:00,METAR RJOA 292230Z 07008KT 5000 -RA BCFG BR FEW000 SCT006 BKN015 10/10 Q1018,0,8,0,5000,0,0,1,"-RA,BC,BR,FG"
2026-04-29 22:00:00,METAR RJOA 292200Z AUTO 07009KT 9999 -RA FEW003 SCT010 BKN013 10/10 Q1018,0,9,0,10000,0,0,0,-RA
2026-04-29 21:00:00,METAR RJOA 292100Z AUTO 08009KT 7000 -RA FEW003 SCT005 BKN016 11/10 Q1017,0,9,0,7000,0,0,0,-RA
2026-04-29 20:00:00,METAR RJOA 292000Z AUTO 08006KT 7000 R28/1300VP2000D -RA BKN002 OVC050 11/10 Q1017,0,6,0,7000,0,0,0,-RA
2026-04-29 19:00:00,METAR RJOA 291900Z AUTO 05005KT 9000 -RA SCT045 BKN050 OVC060 11/10 Q1018,0,5,0,9000,0,0,0,-RA
2026-04-29 18:00:00,METAR RJOA 291800Z AUTO 06003KT 8000 -RA FEW011 SCT048 BKN050 11/10 Q1018,0,3,0,8000,0,0,0,-RA
2026-04-29 17:00:00,METAR RJOA 291700Z AUTO 04003KT 9999 -RA FEW047 SCT050 BKN060 11/10 Q1018,0,3,0,10000,0,0,0,-RA
2026-04-29 16:00:00,METAR RJOA 291600Z AUTO VRB01KT 9999 -RA NSC 11/10 Q1018,0,1,0,10000,0,0,0,-RA
2026-04-29 15:00:00,METAR RJOA 291500Z AUTO 35002KT 9999 -RA NSC 12/09 Q1018,0,2,0,10000,0,0,0,-RA
2026-04-29 14:00:00,METAR RJOA 291400Z AUTO 35003KT 9999 -RA NSC 12/09 Q1018,0,3,0,10000,0,0,0,-RA
2026-04-29 13:00:00,METAR RJOA 291300Z 02005KT 9999 -RA FEW015 BKN100 BKN120 13/09 Q1018,0,5,0,10000,0,0,0,-RA
2026-04-29 12:00:00,METAR RJOA 291200Z 01004KT 9999 -RA FEW020 BKN100 BKN120 14/08 Q1018,0,4,0,10000,0,0,0,-RA
2026-04-29 11:00:00,METAR RJOA 291100Z 36006KT 9999 -RA FEW025 BKN100 BKN120 14/07 Q1017,0,6,0,10000,0,0,0,-RA
2026-04-29 10:00:00,METAR RJOA 291000Z 32003KT 230V030 9999 FEW030 SCT080 BKN100 14/07 Q1017,0,3,0,10000,0,0,0,
2026-04-29 09:00:00,METAR RJOA 290900Z 35008KT 310V040 9999 FEW030 SCT100 BKN120 15/06 Q1017,0,8,0,10000,0,0,0,
2026-04-29 08:00:00,METAR RJOA 290800Z 35005KT 310V010 9999 FEW030 SCT110 BKN140 15/07 Q1017,0,5,0,10000,0,0,0,
2026-04-29 07:00:00,METAR RJOA 290700Z 32007KT 290V350 9999 FEW030 SCT110 BKN150 15/07 Q1016,0,7,0,10000,0,0,0,
2026-04-29 06:00:00,METAR RJOA 290600Z 34008KT 310V010 9999 FEW030 SCT110 BKN150 15/07 Q1016,0,8,0,10000,0,0,0,
2026-04-29 05:00:00,METAR RJOA 290500Z 34006KT 310V010 9999 FEW025 SCT100 BKN130 15/07 Q1016,0,6,0,10000,0,0,0,
2026-04-29 04:00:00,METAR RJOA 290400Z 32008KT 9999 FEW025 BKN130 15/08 Q1017,0,8,0,10000,0,0,0,
2026-04-29 03:00:00,METAR RJOA 290300Z 32007KT 300V010 9999 FEW025 BKN130 15/09 Q1017,0,7,0,10000,0,0,0,
2026-04-29 02:00:00,METAR RJOA 290200Z 32011KT 9999 FEW025 BKN130 16/09 Q1017,0,11,0,10000,0,0,0,
2026-04-29 01:00:00,METAR RJOA 290100Z 32008KT 260V360 9999 FEW030 BKN090 BKN150 16/09 Q1017,0,8,0,10000,0,0,0,
2026-04-29 00:00:00,METAR RJOA 290000Z VRB04KT 9999 FEW040 SCT090 BKN130 15/09 Q1016,0,4,0,10000,0,0,0,
2026-04-28 23:00:00,METAR RJOA 282300Z 32007KT 290V050 9999 FEW030 BKN120 14/08 Q1016,0,7,0,10000,0,0,0,
2026-04-28 22:30:00,METAR RJOA 282230Z 32008KT CAVOK 14/09 Q1015,1,0,0,9999,0,0,0,
2026-04-28 22:00:00,METAR RJOA 282200Z AUTO 29008KT 280V340 9999 NSC 14/09 Q1015,0,8,0,10000,0,0,0,
2026-04-28 21:00:00,METAR RJOA 282100Z AUTO 27006KT 9999 FEW038 SCT120 BKN160 14/10 Q1014,0,6,0,10000,0,0,0,
2026-04-28 20:00:00,METAR RJOA 282000Z AUTO 33003KT 280V010 9999 NSC 14/10 Q1013,0,3,0,10000,0,0,0,
2026-04-28 19:00:00,METAR RJOA 281900Z AUTO 27006KT 240V310 9999 FEW034 BKN090 BKN180 15/09 Q1013,0,6,0,10000,0,0,0,
2026-04-28 18:00:00,METAR RJOA 281800Z AUTO 29005KT 260V320 9999 FEW034 SCT090 BKN100 15/08 Q1013,0,5,0,10000,0,0,0,
2026-04-28 17:00:00,METAR RJOA 281700Z AUTO 31006KT 280V340 9999 SCT029 BKN090 OVC100 16/10 Q1013,0,6,0,10000,0,0,0,
2026-04-28 16:00:00,METAR RJOA 281600Z AUTO 01004KT 340V040 9999 BKN029 BKN044 OVC120 16/12 Q1013,0,4,0,10000,0,0,0,
2026-04-28 15:00:00,METAR RJOA 281500Z AUTO 06004KT 9999 BKN028 BKN037 OVC120 16/12 Q1014,0,4,0,10000,0,0,0,
2026-04-28 14:00:00,METAR RJOA 281400Z AUTO 06003KT 9999 FEW030 SCT049 OVC120 17/11 Q1014,0,3,0,10000,0,0,0,
2026-04-28 13:00:00,METAR RJOA 281300Z VRB01KT 9999 FEW045 BKN110 17/10 Q1014,0,1,0,10000,0,0,0,
2026-04-28 12:00:00,METAR RJOA 281200Z 25003KT 9999 FEW045 BKN120 18/10 Q1013,0,3,0,10000,0,0,0,
2026-04-28 11:00:00,METAR RJOA 281100Z 30003KT CAVOK 18/10 Q1013,1,0,0,9999,0,0,0,
2026-04-28 10:00:00,METAR RJOA 281000Z VRB02KT CAVOK 17/09 Q1012,1,0,0,9999,0,0,0,
2026-04-28 09:00:00,METAR RJOA 280900Z 20003KT 150V250 CAVOK 18/08 Q1011,1,0,0,9999,0,0,0,
2026-04-28 08:00:00,METAR RJOA 280800Z 22006KT 180V270 9999 FEW040 SCT140 19/07 Q1011,0,6,0,10000,0,0,0,
2026-04-28 07:00:00,METAR RJOA 280700Z 20007KT 140V270 9999 FEW030 SCT180 21/07 Q1011,0,7,0,10000,0,0,0,
2026-04-28 06:00:00,METAR RJOA 280600Z 21007KT 160V250 9999 FEW030 SCT/// 22/08 Q1011,0,7,0,10000,0,0,0,
2026-04-28 05:00:00,METAR RJOA 280500Z 20010KT 160V260 9999 FEW030 SCT150 22/07 Q1011,0,10,0,10000,0,0,0,
2026-04-28 04:00:00,METAR RJOA 280400Z VRB06KT 9999 FEW030 BKN/// 22/08 Q1012,0,6,0,10000,0,0,0,
2026-04-28 03:00:00,METAR RJOA 280300Z 22008KT 180V250 9999 FEW030 SCT130 22/11 Q1012,0,8,0,10000,0,0,0,
2026-04-28 02:00:00,METAR RJOA 280200Z 20007KT 160V250 9999 FEW030 BKN/// 21/12 Q1013,0,7,0,10000,0,0,0,
2026-04-28 01:00:00,METAR RJOA 280100Z 21006KT 140V310 9999 FEW020 SCT025 BKN/// 20/14 Q1013,0,6,0,10000,0,0,0,
2026-04-28 00:00:00,METAR RJOA 280000Z 20006KT 150V240 9999 FEW015 18/14 Q1013,0,6,0,10000,0,0,0,
2026-04-27 23:00:00,METAR RJOA 272300Z 28003KT 250V310 9999 PRFG FEW000 BKN/// 16/13 Q1013,0,3,0,10000,0,0,1,FG
2026-04-27 22:30:00,METAR RJOA 272230Z 28003KT 9999 PRFG FEW000 BKN/// 16/13 Q1013,0,3,0,10000,0,0,1,FG
2026-04-27 22:00:00,METAR RJOA 272200Z AUTO 27002KT 9999 NSC 15/13 Q1013,0,2,0,10000,0,0,0,
2026-04-27 21:00:00,METAR RJOA 272100Z AUTO VRB01KT 9999 NSC 14/12 Q1012,0,1,0,10000,0,0,0,
2026-04-27 20:00:00,METAR RJOA 272000Z AUTO VRB01KT 9999 NCD 13/11 Q1012,0,1,0,10000,0,0,0,
2026-04-27 19:00:00,METAR RJOA 271900Z AUTO 04002KT 9999 NCD 13/12 Q1012,0,2,0,10000,0,0,0,
2026-04-27 18:00:00,METAR RJOA 271800Z AUTO VRB01KT 9999 NSC 13/12 Q1012,0,1,0,10000,0,0,0,
2026-04-27 17:00:00,METAR RJOA 271700Z AUTO VRB01KT 9999 NSC 14/11 Q1012,0,1,0,10000,0,0,0,
2026-04-27 16:00:00,METAR RJOA 271600Z AUTO VRB01KT 9999 NCD 15/12 Q1012,0,1,0,10000,0,0,0,
2026-04-27 15:00:00,METAR RJOA 271500Z AUTO VRB02KT 9999 NCD 15/12 Q1012,0,2,0,10000,0,0,0,
2026-04-27 14:00:00,METAR RJOA 271400Z AUTO 20002KT 9999 NCD 16/13 Q1013,0,2,0,10000,0,0,0,
2026-04-27 13:00:00,METAR RJOA 271300Z VRB01KT 9999 FEW025 BKN/// 16/13 Q1013,0,1,0,10000,0,0,0,
2026-04-27 12:00:00,METAR RJOA 271200Z 32004KT 9999 FEW025 BKN/// 17/13 Q1013,0,4,0,10000,0,0,0,
2026-04-27 11:00:00,METAR RJOA 271100Z VRB01KT 9999 FEW025 BKN/// 17/13 Q1012,0,1,0,10000,0,0,0,
2026-04-27 10:00:00,METAR RJOA 271000Z 27003KT 9999 FEW025 SCT/// 17/13 Q1012,0,3,0,10000,0,0,0,
2026-04-27 09:00:00,METAR RJOA 270900Z 21004KT 150V250 9999 FEW025 SCT040 BKN/// 18/14 Q1011,0,4,0,10000,0,0,0,
2026-04-27 08:00:00,METAR RJOA 270800Z 18004KT 120V250 9999 -SHRA FEW030 SCT040 19/14 Q1011,0,4,0,10000,0,0,0,RA
2026-04-27 07:00:00,METAR RJOA 270700Z 17004KT 120V230 9999 SCT030 BKN/// 21/14 Q1010,0,4,0,10000,0,0,0,
2026-04-27 06:00:00,METAR RJOA 270600Z 18004KT 140V230 9999 SCT030 21/14 Q1010,0,4,0,10000,0,0,0,
2026-04-27 05:00:00,METAR RJOA 270500Z 21007KT 170V260 9999 FEW020 SCT030 21/15 Q1010,0,7,0,10000,0,0,0,
2026-04-27 04:00:00,METAR RJOA 270400Z 20008KT 130V250 9999 FEW020 SCT025 20/14 Q1011,0,8,0,10000,0,0,0,
2026-04-27 03:00:00,METAR RJOA 270300Z 07004KT 030V140 9999 FEW015 BKN020 19/15 Q1011,0,4,0,10000,0,0,0,
2026-04-27 02:00:00,METAR RJOA 270200Z 11005KT 9999 FEW010 SCT015 BKN030 17/14 Q1012,0,5,0,10000,0,0,0,
2026-04-27 01:00:00,METAR RJOA 270100Z 21005KT 160V250 9999 FEW010 BKN025 17/15 Q1011,0,5,0,10000,0,0,0,
2026-04-27 00:00:00,METAR RJOA 270000Z 24004KT 210V290 9999 FEW003 SCT015 16/13 Q1011,0,4,0,10000,0,0,0,
2026-04-26 23:00:00,METAR RJOA 262300Z 29004KT 200V330 9999 BCFG FEW000 SCT005 14/13 Q1011,0,4,0,10000,0,0,1,"BC,FG"
2026-04-26 22:30:00,METAR RJOA 262230Z 31004KT 9999 R28/P2000N BCFG FEW000 13/13 Q1011,0,4,0,10000,0,0,1,"BC,FG"
2026-04-26 22:00:00,METAR RJOA 262200Z AUTO 26002KT 2900 R28/P2000N BR BKN000 13/13 Q1010,0,2,0,2900,0,0,1,BR
2026-04-26 21:00:00,METAR RJOA 262100Z AUTO 29005KT 5000 BR SCT000 BKN017 BKN049 13/13 Q1010,0,5,0,5000,0,0,1,BR
2026-04-26 20:00:00,METAR RJOA 262000Z AUTO 30004KT 9999 FEW011 BKN015 OVC017 13/12 Q1010,0,4,0,10000,0,0,0,
2026-04-26 19:00:00,METAR RJOA 261900Z AUTO 29003KT 8000 FEW000 SCT012 BKN017 13/12 Q1009,0,3,0,8000,0,0,0,
2026-04-26 18:00:00,METAR RJOA 261800Z AUTO 28003KT 260V320 0100 R28/P2000N FG FEW000 BKN001 OVC120 13/12 Q1010,0,3,0,160900,0,0,1,FG
2026-04-26 17:00:00,METAR RJOA 261700Z AUTO 09003KT 9999 -RA BKN021 BKN045 BKN060 13/12 Q1010,0,3,0,10000,0,0,0,-RA
2026-04-26 16:00:00,METAR RJOA 261600Z AUTO 11004KT 9999 -RA FEW012 SCT017 BKN020 13/12 Q1010,0,4,0,10000,0,0,0,-RA
2026-04-26 15:00:00,METAR RJOA 261500Z AUTO 10005KT 9999 BKN008 OVC010 13/13 Q1010,0,5,0,10000,0,0,0,
2026-04-26 14:00:00,METAR RJOA 261400Z AUTO 07007KT 9999 -RA FEW008 SCT070 BKN090 13/13 Q1011,0,7,0,10000,0,0,0,-RA
2026-04-26 13:00:00,METAR RJOA 261300Z 08008KT 9000 RA BCFG FEW000 SCT070 BKN090 14/13 Q1011,0,8,0,9000,0,0,1,"BC,FG,RA"
2026-04-26 12:00:00,METAR RJOA 261200Z 07006KT 8000 RA BCFG FEW000 SCT070 BKN080 14/13 Q1012,0,6,0,8000,0,0,1,"BC,FG,RA"
2026-04-26 11:00:00,METAR RJOA 261100Z 04008KT 8000 RA BCFG FEW000 BKN070 BKN080 14/13 Q1012,0,8,0,8000,0,0,1,"BC,FG,RA"
2026-04-26 10:00:00,METAR RJOA 261000Z 06010KT 8000 RA BCFG FEW000 SCT070 BKN080 14/13 Q1012,0,10,0,8000,0,0,1,"BC,FG,RA"
2026-04-26 09:00:00,METAR RJOA 260900Z 07010KT 7000 RA BCFG FEW000 SCT050 BKN080 14/13 Q1013,0,10,0,7000,0,0,1,"BC,FG,RA"
2026-04-26 08:00:00,METAR RJOA 260800Z 04007KT 6000 RA BCFG FEW000 SCT050 BKN070 14/13 Q1013,0,7,0,6000,0,0,1,"BC,FG,RA"
2026-04-26 07:00:00,METAR RJOA 260700Z 08008KT 040V120 3500 RA BCFG BR FEW000 SCT050 BKN070 14/13 Q1013,0,8,0,3500,0,0,1,"BC,BR,FG,RA"
2026-04-26 06:00:00,METAR RJOA 260600Z 04010KT 4500 RA BCFG BR FEW000 SCT050 BKN070 14/13 Q1013,0,10,0,4500,0,0,1,"BC,BR,FG,RA"
2026-04-26 05:00:00,METAR RJOA 260500Z 09003KT 040V140 4500 RA BR FEW010 SCT030 BKN060 15/14 Q1014,0,3,0,4500,0,0,1,"BR,RA"
2026-04-26 04:00:00,METAR RJOA 260400Z 07008KT 040V110 9999 FEW025 SCT050 BKN120 17/13 Q1014,0,8,0,10000,0,0,0,
2026-04-26 03:00:00,METAR RJOA 260300Z 13003KT 090V180 9999 -RA FEW030 SCT040 BKN070 17/13 Q1015,0,3,0,10000,0,0,0,-RA
2026-04-26 02:00:00,METAR RJOA 260200Z 13004KT 100V160 9999 FEW030 BKN045 BKN100 16/12 Q1016,0,4,0,10000,0,0,0,
2026-04-26 01:00:00,METAR RJOA 260100Z 10007KT 070V130 9999 FEW030 SCT090 BKN/// 17/11 Q1016,0,7,0,10000,0,0,0,
2026-04-26 00:00:00,METAR RJOA 260000Z 07009KT 9999 FEW030 SCT090 BKN/// 16/11 Q1017,0,9,0,10000,0,0,0,
2026-04-25 23:00:00,METAR RJOA 252300Z 07011KT 9999 FEW030 SCT110 BKN/// 15/11 Q1017,0,11,0,10000,0,0,0,
2026-04-25 22:30:00,METAR RJOA 252230Z 08008KT 9999 FEW030 SCT120 BKN/// 14/11 Q1017,0,8,0,10000,0,0,0,
2026-04-25 22:00:00,METAR RJOA 252200Z AUTO 06009KT 9999 NSC 14/11 Q1017,0,9,0,10000,0,0,0,
2026-04-25 21:00:00,METAR RJOA 252100Z AUTO 06007KT 9999 NSC 13/10 Q1017,0,7,0,10000,0,0,0,
2026-04-25 20:00:00,METAR RJOA 252000Z AUTO 05009KT 9999 NCD 12/10 Q1017,0,9,0,10000,0,0,0,
2026-04-25 19:00:00,METAR RJOA 251900Z AUTO 05007KT 9999 NCD 12/09 Q1017,0,7,0,10000,0,0,0,
2026-04-25 18:00:00,METAR RJOA 251800Z AUTO 04007KT 9999 NCD 13/09 Q1017,0,7,0,10000,0,0,0,
2026-04-25 17:00:00,METAR RJOA 251700Z AUTO 05006KT 9999 NCD 13/09 Q1017,0,6,0,10000,0,0,0,
2026-04-25 16:00:00,METAR RJOA 251600Z AUTO VRB02KT 9999 NCD 14/09 Q1017,0,2,0,10000,0,0,0,
2026-04-25 15:00:00,METAR RJOA 251500Z AUTO 04002KT 9999 NCD 14/09 Q1018,0,2,0,10000,0,0,0,
2026-04-25 14:00:00,METAR RJOA 251400Z AUTO VRB01KT 9999 NCD 15/09 Q1018,0,1,0,10000,0,0,0,
2026-04-25 13:00:00,METAR RJOA 251300Z VRB01KT CAVOK 15/09 Q1019,1,0,0,9999,0,0,0,
2026-04-25 12:00:00,METAR RJOA 251200Z VRB01KT CAVOK 15/09 Q1019,1,0,0,9999,0,0,0,
2026-04-25 11:00:00,METAR RJOA 251100Z 09003KT 9999 FEW025 SCT/// 16/09 Q1018,0,3,0,10000,0,0,0,
2026-04-25 10:00:00,METAR RJOA 251000Z 11003KT 030V160 9999 FEW030 SCT/// 16/09 Q1018,0,3,0,10000,0,0,0,
2026-04-25 09:00:00,METAR RJOA 250900Z 14004KT 100V180 9999 FEW035 SCT/// 18/09 Q1017,0,4,0,10000,0,0,0,
2026-04-25 08:00:00,METAR RJOA 250800Z 14006KT 110V170 9999 FEW040 20/08 Q1017,0,6,0,10000,0,0,0,
2026-04-25 07:00:00,METAR RJOA 250700Z 14008KT 100V170 9999 FEW040 21/08 Q1017,0,8,0,10000,0,0,0,
2026-04-25 06:00:00,METAR RJOA 250600Z VRB06KT 9999 FEW040 21/09 Q1018,0,6,0,10000,0,0,0,
2026-04-25 05:00:00,METAR RJOA 250500Z 13007KT 080V180 9999 FEW040 20/07 Q1018,0,7,0,10000,0,0,0,
2026-04-25 04:00:00,METAR RJOA 250400Z 13005KT 090V180 9999 FEW040 SCT/// 20/06 Q1019,0,5,0,10000,0,0,0,
2026-04-25 03:00:00,METAR RJOA 250300Z 13006KT 090V180 9999 FEW040 BKN/// 18/05 Q1019,0,6,0,10000,0,0,0,
2026-04-25 02:00:00,METAR RJOA 250200Z 12005KT 070V180 9999 FEW030 BKN/// 17/03 Q1020,0,5,0,10000,0,0,0,
2026-04-25 01:00:00,METAR RJOA 250100Z VRB04KT 9999 FEW030 BKN/// 16/03 Q1020,0,4,0,10000,0,0,0,
2026-04-25 00:00:00,METAR RJOA 250000Z 12004KT 080V160 9999 FEW030 BKN/// 15/M00 Q1020,0,4,0,10000,0,0,0,
2026-04-24 23:00:00,METAR RJOA 242300Z 07008KT 9999 FEW030 BKN/// 14/M00 Q1019,0,8,0,10000,0,0,0,
2026-04-24 22:30:00,METAR RJOA 242230Z 07009KT 9999 FEW030 SCT/// 13/M01 Q1019,0,9,0,10000,0,0,0,
2026-04-24 22:00:00,METAR RJOA 242200Z AUTO 06006KT 9999 NCD 12/M02 Q1019,0,6,0,10000,0,0,0,
2026-04-24 21:00:00,METAR RJOA 242100Z AUTO 06004KT 9999 NCD 09/M01 Q1018,0,4,0,10000,0,0,0,
2026-04-24 20:00:00,METAR RJOA 242000Z AUTO 06003KT 9999 NSC 09/M01 Q1018,0,3,0,10000,0,0,0,
2026-04-24 19:00:00,METAR RJOA 241900Z AUTO 01003KT 9999 NSC 11/M02 Q1017,0,3,0,10000,0,0,0,
2026-04-24 18:00:00,METAR RJOA 241800Z AUTO 04002KT 9999 NSC 11/M02 Q1017,0,2,0,10000,0,0,0,
2026-04-24 17:00:00,METAR RJOA 241700Z AUTO 04004KT 9999 NSC 12/M01 Q1017,0,4,0,10000,0,0,0,
2026-04-24 16:00:00,METAR RJOA 241600Z AUTO 04006KT 9999 NCD 12/M01 Q1017,0,6,0,10000,0,0,0,
2026-04-24 15:00:00,METAR RJOA 241500Z AUTO 04006KT 9999 NSC 12/M00 Q1017,0,6,0,10000,0,0,0,
2026-04-24 14:00:00,METAR RJOA 241400Z AUTO 05008KT 9999 NSC 13/00 Q1016,0,8,0,10000,0,0,0,
2026-04-24 13:00:00,METAR RJOA 241300Z 05005KT 9999 FEW025 BKN150 12/06 Q1017,0,5,0,10000,0,0,0,
2026-04-24 12:00:00,METAR RJOA 241200Z 05006KT 9999 FEW025 BKN150 13/08 Q1016,0,6,0,10000,0,0,0,
2026-04-24 11:00:00,METAR RJOA 241100Z 08005KT 9999 FEW025 BKN150 BKN/// 14/07 Q1016,0,5,0,10000,0,0,0,
2026-04-24 10:00:00,METAR RJOA 241000Z 08004KT 9999 FEW025 BKN150 BKN/// 14/07 Q1015,0,4,0,10000,0,0,0,
2026-04-24 09:00:00,METAR RJOA 240900Z 13004KT 050V170 9999 FEW025 BKN150 15/08 Q1014,0,4,0,10000,0,0,0,
2026-04-24 08:00:00,METAR RJOA 240800Z 12005KT 070V180 9999 FEW025 SCT110 BKN180 15/07 Q1014,0,5,0,10000,0,0,0,
2026-04-24 07:00:00,METAR RJOA 240700Z 11005KT 080V160 9999 FEW025 SCT110 BKN150 15/07 Q1013,0,5,0,10000,0,0,0,
2026-04-24 06:00:00,METAR RJOA 240600Z 11004KT 080V150 9999 FEW030 SCT090 BKN140 15/07 Q1013,0,4,0,10000,0,0,0,
2026-04-24 05:00:00,METAR RJOA 240500Z 12003KT 060V170 9999 FEW030 SCT080 BKN150 16/07 Q1013,0,3,0,10000,0,0,0,
2026-04-24 04:00:00,METAR RJOA 240400Z VRB04KT 9999 FEW030 SCT080 BKN160 16/07 Q1013,0,4,0,10000,0,0,0,
2026-04-24 03:00:00,METAR RJOA 240300Z 12006KT 070V180 9999 FEW030 SCT080 BKN150 16/06 Q1013,0,6,0,10000,0,0,0,
2026-04-24 02:00:00,METAR RJOA 240200Z 09012KT 060V140 9999 FEW020 SCT080 BKN150 16/05 Q1013,0,12,0,10000,0,0,0,
2026-04-24 01:00:00,METAR RJOA 240100Z 08012KT 9999 FEW020 SCT080 BKN150 16/06 Q1013,0,12,0,10000,0,0,0,
2026-04-24 00:00:00,METAR RJOA 240000Z 05010KT 9999 FEW020 BKN060 BKN080 14/05 Q1013,0,10,0,10000,0,0,0,
2026-04-23 23:00:00,METAR RJOA 232300Z 05008KT 9999 FEW020 SCT050 BKN060 13/06 Q1012,0,8,0,10000,0,0,0,
2026-04-23 22:30:00,METAR RJOA 232230Z 06009KT 9999 FEW020 SCT050 BKN070 13/06 Q1012,0,9,0,10000,0,0,0,
2026-04-23 22:00:00,METAR RJOA 232200Z AUTO 05008KT 9999 NSC 12/07 Q1012,0,8,0,10000,0,0,0,
2026-04-23 21:00:00,METAR RJOA 232100Z AUTO 02005KT 350V070 9999 NSC 12/08 Q1011,0,5,0,10000,0,0,0,
2026-04-23 20:00:00,METAR RJOA 232000Z AUTO 02006KT 350V060 9999 NSC 12/08 Q1010,0,6,0,10000,0,0,0,
2026-04-23 19:00:00,METAR RJOA 231900Z AUTO 02007KT 350V070 9999 NSC 11/08 Q1010,0,7,0,10000,0,0,0,
2026-04-23 18:00:00,METAR RJOA 231800Z AUTO 35006KT 330V040 9999 NSC 12/09 Q1010,0,6,0,10000,0,0,0,
2026-04-23 17:00:00,METAR RJOA 231700Z AUTO 36005KT 320V040 9999 NSC 12/09 Q1009,0,5,0,10000,0,0,0,
2026-04-23 16:00:00,METAR RJOA 231600Z AUTO 03006KT 350V060 9999 FEW036 OVC050 12/10 Q1008,0,6,0,10000,0,0,0,
2026-04-23 15:00:00,METAR RJOA 231500Z AUTO 36010KT 330V040 9999 FEW032 SCT043 OVC044 12/10 Q1008,0,10,0,10000,0,0,0,
2026-04-23 14:00:00,METAR RJOA 231400Z AUTO 02008KT 9999 FEW028 BKN029 BKN033 12/10 Q1009,0,8,0,10000,0,0,0,
2026-04-23 13:00:00,METAR RJOA 231300Z 01008KT 340V040 9999 FEW010 SCT025 BKN035 12/10 Q1008,0,8,0,10000,0,0,0,
2026-04-23 12:00:00,METAR RJOA 231200Z 36010KT 340V040 9999 FEW008 BKN030 BKN050 12/10 Q1008,0,10,0,10000,0,0,0,
2026-04-23 11:00:00,METAR RJOA 231100Z 35010KT 320V020 9999 FEW003 BKN050 13/11 Q1007,0,10,0,10000,0,0,0,
2026-04-23 10:00:00,METAR RJOA 231000Z 02004KT 340V050 9999 BCFG FEW000 SCT010 BKN050 13/12 Q1006,0,4,0,10000,0,0,1,"BC,FG"
2026-04-23 09:00:00,METAR RJOA 230900Z 04005KT 010V080 9999 -SHRA BCFG FEW000 SCT010 BKN050 13/12 Q1006,0,5,0,10000,0,0,1,"BC,FG,RA"
2026-04-23 08:00:00,METAR RJOA 230800Z 04004KT 360V070 9999 -SHRA BCFG FEW000 SCT010 BKN035 13/12 Q1005,0,4,0,10000,0,0,1,"BC,FG,RA"
2026-04-23 07:00:00,METAR RJOA 230700Z 05006KT 7000 -SHRA BCFG FEW000 SCT015 BKN020 12/12 Q1005,0,6,0,7000,0,0,1,"BC,FG,RA"
2026-04-23 06:00:00,METAR RJOA 230600Z 06004KT 6000 -SHRA BCFG FEW000 SCT006 BKN008 12/11 Q1005,0,4,0,6000,0,0,1,"BC,FG,RA"
2026-04-23 05:00:00,METAR RJOA 230500Z 07011KT 3500 -SHRA BCFG BR FEW000 SCT006 BKN008 12/11 Q1005,0,11,0,3500,0,0,1,"BC,BR,FG,RA"
2026-04-23 04:00:00,METAR RJOA 230400Z 07012KT 7000 -SHRA BCFG FEW000 SCT006 BKN008 12/11 Q1005,0,12,0,7000,0,0,1,"BC,FG,RA"
2026-04-23 03:00:00,METAR RJOA 230300Z 07012KT 7000 -SHRA BCFG FEW000 SCT006 BKN008 11/10 Q1006,0,12,0,7000,0,0,1,"BC,FG,RA"
2026-04-23 02:00:00,METAR RJOA 230200Z 07014KT 2500 SHRA BCFG BR FEW000 SCT006 BKN008 12/11 Q1006,0,14,0,2500,0,0,1,"BC,BR,FG,RA,SH"
2026-04-23 01:00:00,METAR RJOA 230100Z 07013KT 3000 SHRA BCFG BR FEW000 SCT006 BKN008 11/10 Q1007,0,13,0,3000,0,0,1,"BC,BR,FG,RA,SH"
2026-04-23 00:00:00,METAR RJOA 230000Z 07012KT 5000 -SHRA BCFG BR FEW000 SCT006 BKN010 11/10 Q1007,0,12,0,5000,0,0,1,"BC,BR,FG,RA"
2026-04-22 23:00:00,METAR RJOA 222300Z 06013KT 4500 RA BCFG BR FEW000 SCT006 BKN045 10/10 Q1007,0,13,0,4500,0,0,1,"BC,BR,FG,RA"
2026-04-22 22:30:00,METAR RJOA 222230Z 07012KT 5000 RA BCFG BR FEW000 SCT007 BKN045 10/10 Q1008,0,12,0,5000,0,0,1,"BC,BR,FG,RA"
2026-04-22 22:00:00,METAR RJOA 222200Z AUTO 07014KT 7000 RA FEW006 SCT010 BKN040 10/09 Q1008,0,14,0,7000,0,0,0,RA
2026-04-22 21:00:00,METAR RJOA 222100Z AUTO 06012KT 7000 RA FEW035 BKN038 OVC046 10/10 Q1008,0,12,0,7000,0,0,0,RA
2026-04-22 20:00:00,METAR RJOA 222000Z AUTO 07009KT 9000 -RA FEW005 BKN034 OVC036 10/09 Q1009,0,9,0,9000,0,0,0,-RA
2026-04-22 19:00:00,METAR RJOA 221900Z AUTO 07010KT 8000 -RA OVC038 10/09 Q1009,0,10,0,8000,0,0,0,-RA
2026-04-22 18:00:00,METAR RJOA 221800Z AUTO 07007KT 9999 -RA FEW038 BKN050 OVC060 11/10 Q1010,0,7,0,10000,0,0,0,-RA
2026-04-22 17:00:00,METAR RJOA 221700Z AUTO 32002KT 9999 -RA FEW019 SCT049 BKN050 12/10 Q1010,0,2,0,10000,0,0,0,-RA
2026-04-22 16:00:00,METAR RJOA 221600Z AUTO 32003KT 9999 -RA BKN047 OVC060 12/10 Q1011,0,3,0,10000,0,0,0,-RA
2026-04-22 15:00:00,METAR RJOA 221500Z AUTO 30003KT 280V340 9999 -RA NSC 13/08 Q1012,0,3,0,10000,0,0,0,-RA
2026-04-22 14:00:00,METAR RJOA 221400Z AUTO 33002KT 9999 -RA NSC 13/07 Q1012,0,2,0,10000,0,0,0,-RA
2026-04-22 13:00:00,METAR RJOA 221300Z VRB02KT 9999 -RA FEW025 SCT070 BKN090 13/08 Q1012,0,2,0,10000,0,0,0,-RA
2026-04-22 12:00:00,METAR RJOA 221200Z 10003KT 9999 -RA FEW025 SCT090 BKN130 13/07 Q1013,0,3,0,10000,0,0,0,-RA
2026-04-22 11:00:00,METAR RJOA 221100Z 05003KT 9999 -RA FEW025 SCT070 BKN090 13/09 Q1013,0,3,0,10000,0,0,0,-RA
2026-04-22 10:00:00,METAR RJOA 221000Z 23003KT 160V270 9999 -RA FEW025 SCT070 BKN090 13/09 Q1013,0,3,0,10000,0,0,0,-RA
2026-04-22 09:00:00,METAR RJOA 220900Z 07005KT 9999 -RA FEW020 SCT060 BKN080 15/06 Q1012,0,5,0,10000,0,0,0,-RA
2026-04-22 08:00:00,METAR RJOA 220800Z 12004KT 9999 -RA FEW020 SCT060 BKN080 15/07 Q1013,0,4,0,10000,0,0,0,-RA
2026-04-22 07:00:00,METAR RJOA 220700Z 14004KT 110V180 9999 -RA FEW020 SCT050 BKN070 17/04 Q1014,0,4,0,10000,0,0,0,-RA
2026-04-22 06:00:00,METAR RJOA 220600Z 29003KT 250V040 9999 FEW035 SCT080 BKN110 17/03 Q1014,0,3,0,10000,0,0,0,
2026-04-22 05:00:00,METAR RJOA 220500Z VRB02KT 9999 FEW035 SCT120 OVC/// 17/02 Q1015,0,2,0,10000,0,0,0,
2026-04-22 04:00:00,METAR RJOA 220400Z 13003KT 080V170 CAVOK 17/01 Q1015,1,0,0,9999,0,0,0,
2026-04-22 03:00:00,METAR RJOA 220300Z 13004KT 090V190 CAVOK 16/01 Q1015,1,0,0,9999,0,0,0,
2026-04-22 02:00:00,METAR RJOA 220200Z 07005KT CAVOK 16/02 Q1015,1,0,0,9999,0,0,0,
2026-04-22 01:00:00,METAR RJOA 220100Z 12002KT CAVOK 14/01 Q1016,1,0,0,9999,0,0,0,
2026-04-22 00:00:00,METAR RJOA 220000Z 12003KT 090V150 CAVOK 13/01 Q1016,1,0,0,9999,0,0,0,
2026-04-21 23:00:00,METAR RJOA 212300Z 09005KT 070V130 CAVOK 13/00 Q1016,1,0,0,9999,0,0,0,
2026-04-21 22:30:00,METAR RJOA 212230Z 07005KT CAVOK 13/00 Q1016,1,0,0,9999,0,0,0,
2026-04-21 22:00:00,METAR RJOA 212200Z AUTO 06005KT 9999 NSC 13/00 Q1016,0,5,0,10000,0,0,0,
2026-04-21 21:00:00,METAR RJOA 212100Z AUTO 13002KT 9999 NSC 12/01 Q1016,0,2,0,10000,0,0,0,
2026-04-21 20:00:00,METAR RJOA 212000Z AUTO VRB02KT 9999 NSC 13/M00 Q1016,0,2,0,10000,0,0,0,
2026-04-21 19:00:00,METAR RJOA 211900Z AUTO 04003KT 9999 NSC 12/01 Q1016,0,3,0,10000,0,0,0,
2026-04-21 18:00:00,METAR RJOA 211800Z AUTO VRB01KT 9999 NSC 12/00 Q1016,0,1,0,10000,0,0,0,
2026-04-21 17:00:00,METAR RJOA 211700Z AUTO VRB01KT 9999 NSC 12/00 Q1017,0,1,0,10000,0,0,0,
2026-04-21 16:00:00,METAR RJOA 211600Z AUTO VRB01KT 9999 NSC 12/04 Q1017,0,1,0,10000,0,0,0,
2026-04-21 15:00:00,METAR RJOA 211500Z AUTO 30004KT 9999 NCD 11/M00 Q1017,0,4,0,10000,0,0,0,
2026-04-21 14:00:00,METAR RJOA 211400Z AUTO 31002KT 9999 NCD 14/M01 Q1017,0,2,0,10000,0,0,0,
2026-04-21 13:00:00,METAR RJOA 211300Z 32003KT CAVOK 14/00 Q1017,1,0,0,9999,0,0,0,
2026-04-21 12:00:00,METAR RJOA 211200Z VRB01KT CAVOK 15/01 Q1017,1,0,0,9999,0,0,0,
2026-04-21 11:00:00,METAR RJOA 211100Z 01002KT CAVOK 15/01 Q1016,1,0,0,9999,0,0,0,
2026-04-21 10:00:00,METAR RJOA 211000Z 28003KT CAVOK 16/02 Q1016,1,0,0,9999,0,0,0,
2026-04-21 09:00:00,METAR RJOA 210900Z VRB02KT CAVOK 17/M00 Q1016,1,0,0,9999,0,0,0,
2026-04-21 08:00:00,METAR RJOA 210800Z 16004KT 120V200 CAVOK 18/00 Q1015,1,0,0,9999,0,0,0,
2026-04-21 07:00:00,METAR RJOA 210700Z 16005KT 100V220 CAVOK 20/02 Q1015,1,0,0,9999,0,0,0,
2026-04-21 06:00:00,METAR RJOA 210600Z 35008KT 290V070 CAVOK 22/M09 Q1015,1,0,0,9999,0,0,0,
2026-04-21 05:00:00,METAR RJOA 210500Z 04005KT 290V100 CAVOK 21/M08 Q1016,1,0,0,9999,0,0,0,
2026-04-21 04:00:00,METAR RJOA 210400Z 36010KT 290V060 CAVOK 20/M07 Q1016,1,0,0,9999,0,0,0,
2026-04-21 03:00:00,METAR RJOA 210300Z 36014KT 330V030 CAVOK 18/M08 Q1017,1,0,0,9999,0,0,0,
2026-04-21 02:00:00,METAR RJOA 210200Z 36016KT 320V050 CAVOK 19/M06 Q1017,1,0,0,9999,0,0,0,
2026-04-21 01:00:00,METAR RJOA 210100Z 02007KT 320V070 CAVOK 17/M01 Q1017,1,0,0,9999,0,0,0,
2026-04-21 00:00:00,METAR RJOA 210000Z 33013KT 300V360 CAVOK 14/01 Q1017,1,0,0,9999,0,0,0,
2026-04-20 23:00:00,METAR RJOA 202300Z 32011KT 290V360 9999 FEW030 BKN/// 13/03 Q1016,0,11,0,10000,0,0,0,
2026-04-20 22:30:00,METAR RJOA 202230Z 33013KT 300V360 9999 FEW025 BKN/// 13/05 Q1016,0,13,0,10000,0,0,0,
2026-04-20 22:00:00,METAR RJOA 202200Z AUTO 33014KT 310V010 9999 NCD 12/06 Q1016,0,14,0,10000,0,0,0,
2026-04-20 21:00:00,METAR RJOA 202100Z AUTO 32016KT 300V360 9999 NCD 12/07 Q1014,0,16,0,10000,0,0,0,
2026-04-20 20:00:00,METAR RJOA 202000Z AUTO 34019KT 300V360 9999 FEW019 13/07 Q1013,0,19,0,10000,0,0,0,
2026-04-20 19:00:00,METAR RJOA 201900Z AUTO 30006KT 9999 FEW008 SCT029 BKN033 16/15 Q1012,0,6,0,10000,0,0,0,
2026-04-20 18:00:00,METAR RJOA 201800Z AUTO 26004KT 8000 FEW003 OVC080 15/15 Q1011,0,4,0,8000,0,0,0,
2026-04-20 17:00:00,METAR RJOA 201700Z AUTO 24003KT 180V300 9999 FEW007 BKN010 OVC022 16/15 Q1011,0,3,0,10000,0,0,0,
2026-04-20 16:00:00,METAR RJOA 201600Z AUTO 19003KT 120V260 9999 FEW005 SCT050 BKN080 16/15 Q1011,0,3,0,10000,0,0,0,
2026-04-20 15:00:00,METAR RJOA 201500Z AUTO 29004KT 9999 -RA FEW012 SCT014 BKN028 16/15 Q1011,0,4,0,10000,0,0,0,-RA
2026-04-20 14:00:00,METAR RJOA 201400Z AUTO 26005KT 230V290 9999 -RA FEW018 SCT026 BKN029 17/14 Q1011,0,5,0,10000,0,0,0,-RA
2026-04-20 13:00:00,METAR RJOA 201300Z 26006KT 9999 FEW030 SCT040 BKN100 17/14 Q1011,0,6,0,10000,0,0,0,
2026-04-20 12:00:00,METAR RJOA 201200Z 26003KT 220V310 9999 FEW020 BKN035 BKN100 18/13 Q1011,0,3,0,10000,0,0,0,
2026-04-20 11:00:00,METAR RJOA 201100Z VRB01KT 9999 FEW020 BKN040 BKN070 18/13 Q1011,0,1,0,10000,0,0,0,
2026-04-20 10:00:00,METAR RJOA 201000Z VRB02KT 9999 FEW020 BKN040 BKN070 19/13 Q1010,0,2,0,10000,0,0,0,
2026-04-20 09:00:00,METAR RJOA 200900Z VRB02KT 9999 FEW025 SCT050 BKN070 19/13 Q1010,0,2,0,10000,0,0,0,
2026-04-20 08:00:00,METAR RJOA 200800Z 10003KT 010V150 9999 FEW025 BKN070 20/12 Q1010,0,3,0,10000,0,0,0,
2026-04-20 07:00:00,METAR RJOA 200700Z 22003KT 180V250 9999 FEW030 BKN060 BKN070 20/13 Q1010,0,3,0,10000,0,0,0,
2026-04-20 06:00:00,METAR RJOA 200600Z 20005KT 150V250 9999 FEW035 BKN060 BKN070 20/12 Q1011,0,5,0,10000,0,0,0,
2026-04-20 05:00:00,METAR RJOA 200500Z 17008KT 110V210 9999 FEW035 SCT060 BKN070 22/12 Q1011,0,8,0,10000,0,0,0,
2026-04-20 04:00:00,METAR RJOA 200400Z 20004KT 120V270 9999 FEW030 SCT060 BKN100 22/12 Q1011,0,4,0,10000,0,0,0,
2026-04-20 03:00:00,METAR RJOA 200300Z VRB04KT 9999 FEW030 SCT040 21/13 Q1012,0,4,0,10000,0,0,0,
2026-04-20 02:00:00,METAR RJOA 200200Z 13007KT 060V170 9999 FEW025 21/13 Q1013,0,7,0,10000,0,0,0,
2026-04-20 01:00:00,METAR RJOA 200100Z 12006KT 060V170 9999 FEW020 20/14 Q1013,0,6,0,10000,0,0,0,
2026-04-20 00:00:00,METAR RJOA 200000Z 10005KT 070V160 9999 FEW015 SCT080 18/12 Q1013,0,5,0,10000,0,0,0,
2026-04-19 23:00:00,METAR RJOA 192300Z 06006KT 9999 BCFG FEW000 SCT080 15/13 Q1013,0,6,0,10000,0,0,1,"BC,FG"
2026-04-19 22:30:00,METAR RJOA 192230Z 06006KT 9999 -RA BCFG FEW000 SCT060 BKN070 15/13 Q1013,0,6,0,10000,0,0,1,"-RA,BC,FG"
2026-04-19 22:00:00,METAR RJOA 192200Z AUTO 32003KT 9999 -RA NSC 14/13 Q1013,0,3,0,10000,0,0,0,-RA
2026-04-19 21:00:00,METAR RJOA 192100Z AUTO VRB02KT 9999 NSC 14/12 Q1013,0,2,0,10000,0,0,0,
2026-04-19 20:00:00,METAR RJOA 192000Z AUTO 07006KT 9999 -RA NSC 15/12 Q1013,0,6,0,10000,0,0,0,-RA
2026-04-19 19:00:00,METAR RJOA 191900Z AUTO 07005KT 9999 -RA NSC 15/12 Q1013,0,5,0,10000,0,0,0,-RA
2026-04-19 18:00:00,METAR RJOA 191800Z AUTO VRB01KT 9999 NSC 15/11 Q1013,0,1,0,10000,0,0,0,
2026-04-19 17:00:00,METAR RJOA 191700Z AUTO 06005KT 9999 NSC 15/12 Q1013,0,5,0,10000,0,0,0,
2026-04-19 16:00:00,METAR RJOA 191600Z AUTO 07005KT 9999 NSC 15/12 Q1013,0,5,0,10000,0,0,0,
2026-04-19 15:00:00,METAR RJOA 191500Z AUTO VRB01KT 9999 NSC 16/12 Q1014,0,1,0,10000,0,0,0,
2026-04-19 14:00:00,METAR RJOA 191400Z AUTO 07003KT 9999 NSC 15/12 Q1014,0,3,0,10000,0,0,0,
2026-04-19 13:00:00,METAR RJOA 191300Z 30003KT 9999 FEW020 BKN110 15/13 Q1014,0,3,0,10000,0,0,0,
2026-04-19 12:00:00,METAR RJOA 191200Z VRB02KT 9999 FEW020 BKN110 15/12 Q1014,0,2,0,10000,0,0,0,
2026-04-19 11:00:00,METAR RJOA 191100Z VRB01KT 9999 FEW020 BKN110 15/13 Q1014,0,1,0,10000,0,0,0,
2026-04-19 10:00:00,METAR RJOA 191000Z VRB02KT 9999 FEW020 BKN110 16/13 Q1014,0,2,0,10000,0,0,0,
2026-04-19 09:00:00,METAR RJOA 190900Z 18003KT 080V240 9999 FEW020 SCT090 BKN110 17/13 Q1013,0,3,0,10000,0,0,0,
2026-04-19 08:00:00,METAR RJOA 190800Z 04008KT 9999 FEW020 SCT080 BKN100 18/13 Q1012,0,8,0,10000,0,0,0,
2026-04-19 07:00:00,METAR RJOA 190700Z 12004KT 9999 FEW020 SCT080 BKN110 17/13 Q1014,0,4,0,10000,0,0,0,
2026-04-19 06:00:00,METAR RJOA 190600Z 12004KT 080V150 9999 FEW025 SCT100 BKN140 18/13 Q1013,0,4,0,10000,0,0,0,
2026-04-19 05:00:00,METAR RJOA 190500Z 15004KT 100V200 9999 FEW025 SCT100 BKN140 19/13 Q1014,0,4,0,10000,0,0,0,
2026-04-19 04:00:00,METAR RJOA 190400Z 15004KT 100V190 9999 FEW025 SCT110 BKN140 19/13 Q1014,0,4,0,10000,0,0,0,
2026-04-19 03:00:00,METAR RJOA 190300Z 13003KT 080V170 9999 FEW025 SCT120 BKN160 18/12 Q1015,0,3,0,10000,0,0,0,
2026-04-19 02:00:00,METAR RJOA 190200Z 11003KT 070V150 9999 FEW030 SCT100 BKN140 18/11 Q1015,0,3,0,10000,0,0,0,
2026-04-19 01:00:00,METAR RJOA 190100Z 09003KT 060V120 CAVOK 17/12 Q1015,1,0,0,9999,0,0,0,
2026-04-19 00:00:00,METAR RJOA 190000Z 06004KT CAVOK 17/11 Q1015,1,0,0,9999,0,0,0,
2026-04-18 23:00:00,METAR RJOA 182300Z 05005KT CAVOK 16/12 Q1015,1,0,0,9999,0,0,0,
2026-04-18 22:30:00,METAR RJOA 182230Z 04004KT CAVOK 16/12 Q1015,1,0,0,9999,0,0,0,
2026-04-18 22:00:00,METAR RJOA 182200Z AUTO 04004KT 9999 NSC 16/12 Q1015,0,4,0,10000,0,0,0,
2026-04-18 21:00:00,METAR RJOA 182100Z AUTO VRB02KT 9999 NSC 15/12 Q1015,0,2,0,10000,0,0,0,
2026-04-18 20:00:00,METAR RJOA 182000Z AUTO 06008KT 9999 NSC 16/12 Q1014,0,8,0,10000,0,0,0,
2026-04-18 19:00:00,METAR RJOA 181900Z AUTO 06007KT 9999 NSC 16/12 Q1014,0,7,0,10000,0,0,0,
2026-04-18 18:00:00,METAR RJOA 181800Z AUTO 04006KT 9999 NSC 16/13 Q1015,0,6,0,10000,0,0,0,
2026-04-18 17:00:00,METAR RJOA 181700Z AUTO VRB02KT 9999 NSC 16/13 Q1015,0,2,0,10000,0,0,0,
2026-04-18 16:00:00,METAR RJOA 181600Z AUTO 27004KT 9999 BKN048 BKN060 OVC200 15/13 Q1016,0,4,0,10000,0,0,0,
2026-04-18 15:00:00,METAR RJOA 181500Z AUTO 32005KT 9999 NSC 16/13 Q1015,0,5,0,10000,0,0,0,
2026-04-18 14:00:00,METAR RJOA 181400Z AUTO VRB02KT 9999 FEW048 BKN050 BKN200 17/13 Q1015,0,2,0,10000,0,0,0,
2026-04-18 13:00:00,METAR RJOA 181300Z VRB01KT 9999 FEW020 BKN045 OVC/// 17/13 Q1015,0,1,0,10000,0,0,0,
2026-04-18 12:00:00,METAR RJOA 181200Z VRB01KT 9999 FEW020 SCT045 BKN060 17/13 Q1015,0,1,0,10000,0,0,0,
2026-04-18 11:00:00,METAR RJOA 181100Z 10002KT 9999 FEW020 BKN050 OVC/// 17/12 Q1015,0,2,0,10000,0,0,0,
2026-04-18 10:00:00,METAR RJOA 181000Z 13001KT 9999 FEW020 SCT060 OVC/// 18/13 Q1015,0,1,0,10000,0,0,0,
2026-04-18 09:00:00,METAR RJOA 180900Z VRB02KT 9999 FEW025 BKN060 BKN/// 19/13 Q1014,0,2,0,10000,0,0,0,
2026-04-18 08:00:00,METAR RJOA 180800Z VRB02KT 9999 FEW025 BKN060 BKN/// 20/13 Q1014,0,2,0,10000,0,0,0,
2026-04-18 07:00:00,METAR RJOA 180700Z 15004KT 100V200 9999 FEW020 BKN060 20/13 Q1014,0,4,0,10000,0,0,0,
2026-04-18 06:00:00,METAR RJOA 180600Z 13005KT 100V180 9999 FEW020 SCT040 BKN050 20/13 Q1014,0,5,0,10000,0,0,0,
2026-04-18 05:00:00,METAR RJOA 180500Z 12003KT 090V160 9999 FEW020 SCT035 BKN045 20/12 Q1015,0,3,0,10000,0,0,0,
2026-04-18 04:00:00,METAR RJOA 180400Z VRB02KT 9999 FEW020 SCT030 BKN050 20/12 Q1015,0,2,0,10000,0,0,0,
2026-04-18 03:00:00,METAR RJOA 180300Z 07005KT 010V120 9999 FEW020 SCT030 20/12 Q1016,0,5,0,10000,0,0,0,
2026-04-18 02:00:00,METAR RJOA 180200Z 11005KT 060V150 9999 FEW015 SCT030 BKN120 18/13 Q1017,0,5,0,10000,0,0,0,
2026-04-18 01:00:00,METAR RJOA 180100Z 07003KT 020V110 9999 FEW010 SCT050 BKN110 16/13 Q1017,0,3,0,10000,0,0,0,
2026-04-18 00:00:00,METAR RJOA 180000Z 09004KT 040V150 9999 BCFG FEW000 SCT110 BKN140 16/13 Q1017,0,4,0,10000,0,0,1,"BC,FG"
2026-04-17 23:00:00,METAR RJOA 172300Z 05005KT 9999 -RA PRFG FEW000 SCT050 BKN080 14/13 Q1017,0,5,0,10000,0,0,1,"-RA,FG"
2026-04-17 22:30:00,METAR RJOA 172230Z 04005KT 9999 -RA FEW030 SCT050 BKN070 14/12 Q1017,0,5,0,10000,0,0,0,-RA
2026-04-17 22:00:00,METAR RJOA 172200Z AUTO 04005KT 9999 -RA NSC 14/12 Q1017,0,5,0,10000,0,0,0,-RA
2026-04-17 21:00:00,METAR RJOA 172100Z AUTO 05004KT 300V100 9999 -RA FEW042 SCT044 OVC050 15/11 Q1016,0,4,0,10000,0,0,0,-RA
2026-04-17 20:00:00,METAR RJOA 172000Z AUTO 04005KT 9999 NSC 15/10 Q1016,0,5,0,10000,0,0,0,
2026-04-17 19:00:00,METAR RJOA 171900Z AUTO 05007KT 9999 NSC 15/11 Q1016,0,7,0,10000,0,0,0,
2026-04-17 18:00:00,METAR RJOA 171800Z AUTO 34003KT 270V030 9999 SCT038 SCT040 BKN050 15/11 Q1016,0,3,0,10000,0,0,0,
2026-04-17 17:00:00,METAR RJOA 171700Z AUTO VRB02KT 9999 FEW039 BKN040 BKN047 15/11 Q1016,0,2,0,10000,0,0,0,
2026-04-17 16:00:00,METAR RJOA 171600Z AUTO 06003KT 9999 NCD 14/11 Q1017,0,3,0,10000,0,0,0,
2026-04-17 15:00:00,METAR RJOA 171500Z AUTO 34001KT 9999 NSC 15/11 Q1017,0,1,0,10000,0,0,0,
2026-04-17 14:00:00,METAR RJOA 171400Z AUTO 33002KT 9999 FEW038 SCT040 BKN043 16/11 Q1017,0,2,0,10000,0,0,0,
2026-04-17 13:00:00,METAR RJOA 171300Z 02001KT 9999 FEW025 SCT120 15/11 Q1017,0,1,0,10000,0,0,0,
2026-04-17 12:00:00,METAR RJOA 171200Z VRB01KT 9999 FEW025 SCT035 BKN120 16/10 Q1017,0,1,0,10000,0,0,0,
2026-04-17 11:00:00,METAR RJOA 171100Z VRB02KT 9999 FEW025 SCT035 BKN050 16/11 Q1017,0,2,0,10000,0,0,0,
2026-04-17 10:00:00,METAR RJOA 171000Z VRB01KT 9999 FEW030 SCT050 BKN130 16/11 Q1016,0,1,0,10000,0,0,0,
2026-04-17 09:00:00,METAR RJOA 170900Z 10003KT 9999 FEW030 SCT050 BKN140 16/10 Q1016,0,3,0,10000,0,0,0,
2026-04-17 08:00:00,METAR RJOA 170800Z 12005KT 9999 FEW030 SCT120 BKN140 16/09 Q1016,0,5,0,10000,0,0,0,
2026-04-17 07:00:00,METAR RJOA 170700Z 12006KT 100V170 9999 FEW035 SCT110 BKN130 16/10 Q1016,0,6,0,10000,0,0,0,
2026-04-17 06:00:00,METAR RJOA 170600Z 13004KT 090V160 9999 FEW035 BKN130 BKN150 17/10 Q1017,0,4,0,10000,0,0,0,
2026-04-17 05:00:00,METAR RJOA 170500Z 12003KT 090V180 9999 FEW035 BKN050 BKN170 17/09 Q1017,0,3,0,10000,0,0,0,
2026-04-17 04:00:00,METAR RJOA 170400Z 11004KT 080V180 9999 FEW035 BKN050 BKN180 18/09 Q1018,0,4,0,10000,0,0,0,
2026-04-17 03:00:00,METAR RJOA 170300Z 12004KT 080V170 9999 FEW035 BKN180 OVC/// 17/08 Q1018,0,4,0,10000,0,0,0,
2026-04-17 02:00:00,METAR RJOA 170200Z 11006KT 9999 FEW030 SCT180 BKN/// 18/08 Q1018,0,6,0,10000,0,0,0,
2026-04-17 01:00:00,METAR RJOA 170100Z 12003KT 080V150 9999 FEW025 BKN/// 15/08 Q1019,0,3,0,10000,0,0,0,
2026-04-17 00:00:00,METAR RJOA 170000Z 14003KT 060V200 9999 FEW040 BKN/// 14/06 Q1019,0,3,0,10000,0,0,0,
2026-04-16 23:00:00,METAR RJOA 162300Z 04005KT 9999 FEW025 BKN/// 12/04 Q1019,0,5,0,10000,0,0,0,
2026-04-16 22:30:00,METAR RJOA 162230Z 06004KT 010V080 9999 FEW025 BKN/// 12/04 Q1019,0,4,0,10000,0,0,0,
2026-04-16 22:00:00,METAR RJOA 162200Z AUTO VRB01KT 9999 NSC 11/04 Q1019,0,1,0,10000,0,0,0,
2026-04-16 21:00:00,METAR RJOA 162100Z AUTO 05003KT 9999 NSC 10/04 Q1018,0,3,0,10000,0,0,0,
2026-04-16 20:00:00,METAR RJOA 162000Z AUTO 06005KT 9999 NSC 10/04 Q1018,0,5,0,10000,0,0,0,
2026-04-16 19:00:00,METAR RJOA 161900Z AUTO 06006KT 9999 NSC 10/05 Q1018,0,6,0,10000,0,0,0,
2026-04-16 18:00:00,METAR RJOA 161800Z AUTO 08008KT 9999 NSC 11/04 Q1017,0,8,0,10000,0,0,0,
2026-04-16 17:00:00,METAR RJOA 161700Z AUTO 07006KT 9999 NCD 11/04 Q1018,0,6,0,10000,0,0,0,
2026-04-16 16:00:00,METAR RJOA 161600Z AUTO 07009KT 9999 NCD 12/04 Q1018,0,9,0,10000,0,0,0,
2026-04-16 15:00:00,METAR RJOA 161500Z AUTO 07011KT 9999 NCD 13/04 Q1018,0,11,0,10000,0,0,0,
2026-04-16 14:00:00,METAR RJOA 161400Z AUTO 07010KT 9999 NCD 14/04 Q1018,0,10,0,10000,0,0,0,
2026-04-16 13:00:00,METAR RJOA 161300Z 05007KT CAVOK 15/04 Q1018,1,0,0,9999,0,0,0,
2026-04-16 12:00:00,METAR RJOA 161200Z 06004KT CAVOK 15/05 Q1018,1,0,0,9999,0,0,0,
2026-04-16 11:00:00,METAR RJOA 161100Z 04003KT CAVOK 16/06 Q1017,1,0,0,9999,0,0,0,
2026-04-16 10:00:00,METAR RJOA 161000Z VRB01KT CAVOK 17/04 Q1016,1,0,0,9999,0,0,0,
2026-04-16 09:00:00,METAR RJOA 160900Z VRB02KT CAVOK 18/05 Q1016,1,0,0,9999,0,0,0,
2026-04-16 08:00:00,METAR RJOA 160800Z 13005KT CAVOK 19/05 Q1015,1,0,0,9999,0,0,0,
2026-04-16 07:00:00,METAR RJOA 160700Z 13006KT 070V170 CAVOK 20/05 Q1015,1,0,0,9999,0,0,0,
2026-04-16 06:00:00,METAR RJOA 160600Z 13005KT 080V190 CAVOK 20/07 Q1015,1,0,0,9999,0,0,0,
2026-04-16 05:00:00,METAR RJOA 160500Z 13008KT 090V200 CAVOK 20/07 Q1016,1,0,0,9999,0,0,0,
2026-04-16 04:00:00,METAR RJOA 160400Z 14006KT 090V190 CAVOK 20/05 Q1016,1,0,0,9999,0,0,0,
2026-04-16 03:00:00,METAR RJOA 160300Z 05009KT 020V090 9999 FEW040 20/02 Q1017,0,9,0,10000,0,0,0,
2026-04-16 02:00:00,METAR RJOA 160200Z 07012KT 020V100 9999 FEW040 19/02 Q1017,0,12,0,10000,0,0,0,
2026-04-16 01:00:00,METAR RJOA 160100Z 36009KT 300V040 9999 FEW030 18/05 Q1017,0,9,0,10000,0,0,0,
2026-04-16 00:00:00,METAR RJOA 160000Z 01007KT 290V070 9999 FEW020 SCT030 17/08 Q1017,0,7,0,10000,0,0,0,
2026-04-15 23:00:00,METAR RJOA 152300Z VRB03KT 9999 FEW015 15/11 Q1016,0,3,0,10000,0,0,0,
2026-04-15 22:30:00,METAR RJOA 152230Z 01004KT 330V050 9999 FEW015 14/11 Q1016,0,4,0,10000,0,0,0,
2026-04-15 22:00:00,METAR RJOA 152200Z AUTO 36005KT 9999 FEW028 OVC036 13/11 Q1016,0,5,0,10000,0,0,0,
2026-04-15 21:00:00,METAR RJOA 152100Z AUTO 34005KT 9999 NCD 13/10 Q1015,0,5,0,10000,0,0,0,
2026-04-15 20:00:00,METAR RJOA 152000Z AUTO 32006KT 9999 FEW031 13/10 Q1014,0,6,0,10000,0,0,0,
2026-04-15 19:00:00,METAR RJOA 151900Z AUTO 32008KT 9999 NCD 13/11 Q1013,0,8,0,10000,0,0,0,
2026-04-15 18:00:00,METAR RJOA 151800Z AUTO 33006KT 9999 SCT031 13/11 Q1013,0,6,0,10000,0,0,0,
2026-04-15 17:00:00,METAR RJOA 151700Z AUTO 35004KT 270V020 9999 NCD 13/11 Q1013,0,4,0,10000,0,0,0,
2026-04-15 16:00:00,METAR RJOA 151600Z AUTO 36003KT 290V070 9999 FEW016 14/12 Q1012,0,3,0,10000,0,0,0,
2026-04-15 15:00:00,METAR RJOA 151500Z AUTO 34011KT 310V020 9999 FEW013 14/12 Q1012,0,11,0,10000,0,0,0,
2026-04-15 14:00:00,METAR RJOA 151400Z AUTO 34010KT 290V360 9999 FEW014 OVC028 15/13 Q1012,0,10,0,10000,0,0,0,
2026-04-15 13:00:00,METAR RJOA 151300Z 33007KT 280V030 9999 FEW010 SCT080 15/13 Q1011,0,7,0,10000,0,0,0,
2026-04-15 12:00:00,METAR RJOA 151200Z 34011KT 9999 FEW010 SCT030 BKN060 15/14 Q1010,0,11,0,10000,0,0,0,
2026-04-15 11:00:00,METAR RJOA 151100Z 32007KT 300V360 9999 PRFG FEW000 SCT012 BKN040 15/14 Q1010,0,7,0,10000,0,0,1,FG
2026-04-15 10:00:00,METAR RJOA 151000Z 33005KT 300V010 5000 BCFG BR FEW000 SCT012 BKN030 16/15 Q1009,0,5,0,5000,0,0,1,"BC,BR,FG"
2026-04-15 09:00:00,METAR RJOA 150900Z VRB03KT 1200 R10/P2000N -SHRA BCFG BR FEW000 SCT002 BKN006 16/15 Q1008,0,3,0,1200,0,0,1,"BC,BR,FG,RA"
2026-04-15 08:00:00,METAR RJOA 150800Z VRB01KT 0900 R10/P2000N -SHRA FG FEW000 SCT001 BKN002 16/16 Q1008,0,1,0,1448100,0,0,1,"FG,RA"
2026-04-15 07:00:00,METAR RJOA 150700Z VRB02KT 2000 -SHRA BCFG BR FEW000 SCT003 BKN008 16/15 Q1008,0,2,0,2000,0,0,1,"BC,BR,FG,RA"
2026-04-15 06:00:00,METAR RJOA 150600Z VRB02KT 3000 -SHRA BCFG BR FEW000 SCT006 BKN020 16/15 Q1008,0,2,0,3000,0,0,1,"BC,BR,FG,RA"
2026-04-15 05:00:00,METAR RJOA 150500Z VRB02KT 3000 -SHRA BCFG BR FEW000 SCT004 BKN030 16/15 Q1008,0,2,0,3000,0,0,1,"BC,BR,FG,RA"
2026-04-15 04:00:00,METAR RJOA 150400Z VRB01KT 3000 SHRA BCFG BR FEW000 SCT005 BKN008 15/14 Q1008,0,1,0,3000,0,0,1,"BC,BR,FG,RA,SH"
2026-04-15 03:00:00,METAR RJOA 150300Z 06007KT 3000 RA BCFG BR FEW000 SCT008 BKN020 15/14 Q1008,0,7,0,3000,0,0,1,"BC,BR,FG,RA"
2026-04-15 02:00:00,METAR RJOA 150200Z 06008KT 1600 RA BCFG BR FEW000 SCT003 BKN008 15/14 Q1009,0,8,0,1600,0,0,1,"BC,BR,FG,RA"
2026-04-15 01:00:00,METAR RJOA 150100Z 07011KT 3500 -RA BCFG BR FEW000 SCT006 BKN035 15/14 Q1009,0,11,0,3500,0,0,1,"-RA,BC,BR,FG"
2026-04-15 00:00:00,METAR RJOA 150000Z 06008KT 7000 -RA BCFG FEW000 SCT004 BKN035 15/14 Q1009,0,8,0,7000,0,0,1,"-RA,BC,FG"
2026-04-14 23:00:00,METAR RJOA 142300Z 07010KT 6000 -RA BCFG FEW000 SCT004 OVC080 15/14 Q1010,0,10,0,6000,0,0,1,"-RA,BC,FG"
2026-04-14 22:30:00,METAR RJOA 142230Z 08010KT 7000 -RA BCFG FEW000 SCT005 OVC080 14/14 Q1010,0,10,0,7000,0,0,1,"-RA,BC,FG"
2026-04-14 22:00:00,METAR RJOA 142200Z AUTO 07009KT 9999 -RA NSC 14/13 Q1010,0,9,0,10000,0,0,0,-RA
2026-04-14 21:00:00,METAR RJOA 142100Z AUTO 07006KT 9999 FEW013 OVC060 14/13 Q1010,0,6,0,10000,0,0,0,
2026-04-14 20:00:00,METAR RJOA 142000Z AUTO 06008KT 9999 NSC 14/13 Q1010,0,8,0,10000,0,0,0,
2026-04-14 19:00:00,METAR RJOA 141900Z AUTO 06008KT 9999 -RA NSC 14/13 Q1010,0,8,0,10000,0,0,0,-RA
2026-04-14 18:00:00,METAR RJOA 141800Z AUTO 06005KT 9999 FEW011 OVC060 14/13 Q1010,0,5,0,10000,0,0,0,
2026-04-14 17:00:00,METAR RJOA 141700Z AUTO 07006KT 9999 -RA NSC 14/12 Q1011,0,6,0,10000,0,0,0,-RA
2026-04-14 16:00:00,METAR RJOA 141600Z AUTO 06007KT 9999 -RA NSC 14/12 Q1011,0,7,0,10000,0,0,0,-RA
2026-04-14 15:00:00,METAR RJOA 141500Z AUTO 06008KT 9999 -RA FEW015 SCT100 OVC110 14/12 Q1012,0,8,0,10000,0,0,0,-RA
2026-04-14 14:00:00,METAR RJOA 141400Z AUTO 06007KT 9999 -RA NSC 14/12 Q1012,0,7,0,10000,0,0,0,-RA
2026-04-14 13:00:00,METAR RJOA 141300Z 07009KT 9999 -RA FEW025 SCT050 OVC120 14/12 Q1013,0,9,0,10000,0,0,0,-RA
2026-04-14 12:00:00,METAR RJOA 141200Z 01004KT 330V030 9999 -RA FEW025 BKN050 OVC080 15/13 Q1013,0,4,0,10000,0,0,0,-RA
2026-04-14 11:00:00,METAR RJOA 141100Z 06007KT 9999 -RA FEW025 SCT050 OVC080 15/12 Q1012,0,7,0,10000,0,0,0,-RA
2026-04-14 10:00:00,METAR RJOA 141000Z 08005KT 9999 -RA FEW025 SCT035 OVC080 15/13 Q1012,0,5,0,10000,0,0,0,-RA
2026-04-14 09:00:00,METAR RJOA 140900Z VRB01KT 9999 -RA BKN035 OVC070 17/13 Q1012,0,1,0,10000,0,0,0,-RA
2026-04-14 08:00:00,METAR RJOA 140800Z 09004KT 9999 SCT040 OVC080 17/12 Q1011,0,4,0,10000,0,0,0,
2026-04-14 07:00:00,METAR RJOA 140700Z 11004KT 9999 FEW025 SCT050 BKN070 17/12 Q1011,0,4,0,10000,0,0,0,
2026-04-14 06:00:00,METAR RJOA 140600Z 15003KT 100V190 9999 -RA FEW025 SCT050 BKN090 19/11 Q1012,0,3,0,10000,0,0,0,-RA
2026-04-14 05:00:00,METAR RJOA 140500Z VRB03KT 9999 FEW030 SCT060 BKN090 20/11 Q1012,0,3,0,10000,0,0,0,
2026-04-14 04:00:00,METAR RJOA 140400Z 14005KT 080V180 CAVOK 19/11 Q1012,1,0,0,9999,0,0,0,
2026-04-14 03:00:00,METAR RJOA 140300Z 11004KT 050V160 CAVOK 20/11 Q1013,1,0,0,9999,0,0,0,
2026-04-14 02:00:00,METAR RJOA 140200Z 07006KT 020V180 9999 FEW030 SCT080 BKN110 18/10 Q1014,0,6,0,10000,0,0,0,
2026-04-14 01:00:00,METAR RJOA 140100Z 07005KT 030V100 9999 FEW030 BKN080 BKN110 18/10 Q1015,0,5,0,10000,0,0,0,
2026-04-14 00:00:00,METAR RJOA 140000Z 08005KT 9999 FEW030 BKN080 BKN100 16/09 Q1015,0,5,0,10000,0,0,0,
2026-04-13 23:00:00,METAR RJOA 132300Z 06005KT 9999 FEW030 SCT060 BKN080 16/09 Q1014,0,5,0,10000,0,0,0,
2026-04-13 22:30:00,METAR RJOA 132230Z 06003KT 9999 -RA FEW030 SCT060 BKN080 15/08 Q1014,0,3,0,10000,0,0,0,-RA
2026-04-13 22:00:00,METAR RJOA 132200Z AUTO VRB02KT 9999 -RA NSC 15/08 Q1015,0,2,0,10000,0,0,0,-RA
2026-04-13 21:00:00,METAR RJOA 132100Z AUTO VRB02KT 9999 NSC 15/08 Q1014,0,2,0,10000,0,0,0,
2026-04-13 20:00:00,METAR RJOA 132000Z AUTO 04002KT 9999 NSC 15/08 Q1014,0,2,0,10000,0,0,0,
2026-04-13 19:00:00,METAR RJOA 131900Z AUTO 32002KT 9999 NSC 15/09 Q1014,0,2,0,10000,0,0,0,
2026-04-13 18:00:00,METAR RJOA 131800Z AUTO 05004KT 9999 NSC 15/09 Q1014,0,4,0,10000,0,0,0,
2026-04-13 17:00:00,METAR RJOA 131700Z AUTO 06001KT 9999 NSC 16/08 Q1014,0,1,0,10000,0,0,0,
2026-04-13 16:00:00,METAR RJOA 131600Z AUTO VRB02KT 9999 NSC 15/09 Q1015,0,2,0,10000,0,0,0,
2026-04-13 15:00:00,METAR RJOA 131500Z AUTO 05003KT 9999 NSC 16/09 Q1015,0,3,0,10000,0,0,0,
2026-04-13 14:00:00,METAR RJOA 131400Z AUTO VRB02KT 9999 NSC 16/10 Q1015,0,2,0,10000,0,0,0,
2026-04-13 13:00:00,METAR RJOA 131300Z VRB02KT 9999 FEW030 SCT090 BKN110 16/10 Q1016,0,2,0,10000,0,0,0,
2026-04-13 12:00:00,METAR RJOA 131200Z VRB01KT 9999 FEW030 SCT090 BKN110 16/10 Q1015,0,1,0,10000,0,0,0,
2026-04-13 11:00:00,METAR RJOA 131100Z VRB01KT 9999 FEW030 SCT100 BKN120 17/10 Q1015,0,1,0,10000,0,0,0,
2026-04-13 10:00:00,METAR RJOA 131000Z VRB02KT 9999 FEW035 SCT100 BKN120 17/09 Q1014,0,2,0,10000,0,0,0,
2026-04-13 09:00:00,METAR RJOA 130900Z 13003KT 090V170 9999 FEW035 BKN100 BKN120 19/10 Q1014,0,3,0,10000,0,0,0,
2026-04-13 08:00:00,METAR RJOA 130800Z 14003KT 100V180 CAVOK 20/09 Q1014,1,0,0,9999,0,0,0,
2026-04-13 07:00:00,METAR RJOA 130700Z 12003KT 080V190 CAVOK 20/09 Q1014,1,0,0,9999,0,0,0,
2026-04-13 06:00:00,METAR RJOA 130600Z 13005KT 090V170 9999 FEW040 SCT100 BKN120 21/08 Q1014,0,5,0,10000,0,0,0,
2026-04-13 05:00:00,METAR RJOA 130500Z 12005KT 080V190 9999 FEW040 BKN150 21/08 Q1014,0,5,0,10000,0,0,0,
2026-04-13 04:00:00,METAR RJOA 130400Z 12006KT 060V180 CAVOK 20/09 Q1015,1,0,0,9999,0,0,0,
2026-04-13 03:00:00,METAR RJOA 130300Z 12005KT 080V210 CAVOK 20/10 Q1015,1,0,0,9999,0,0,0,
2026-04-13 02:00:00,METAR RJOA 130200Z 14004KT 090V200 CAVOK 20/11 Q1016,1,0,0,9999,0,0,0,
2026-04-13 01:00:00,METAR RJOA 130100Z 15005KT 100V190 CAVOK 19/07 Q1016,1,0,0,9999,0,0,0,
2026-04-13 00:00:00,METAR RJOA 130000Z 13002KT CAVOK 17/06 Q1016,1,0,0,9999,0,0,0,
2026-04-12 23:00:00,METAR RJOA 122300Z 09003KT 060V130 CAVOK 16/06 Q1016,1,0,0,9999,0,0,0,
2026-04-12 22:30:00,METAR RJOA 122230Z 12002KT CAVOK 15/07 Q1016,1,0,0,9999,0,0,0,
2026-04-12 22:00:00,METAR RJOA 122200Z AUTO VRB01KT 9999 NSC 15/07 Q1016,0,1,0,10000,0,0,0,
2026-04-12 21:00:00,METAR RJOA 122100Z AUTO 09005KT 9999 NSC 14/07 Q1015,0,5,0,10000,0,0,0,
2026-04-12 20:00:00,METAR RJOA 122000Z AUTO VRB01KT 9999 NSC 15/06 Q1016,0,1,0,10000,0,0,0,
2026-04-12 19:00:00,METAR RJOA 121900Z AUTO 30002KT 9999 NSC 15/06 Q1015,0,2,0,10000,0,0,0,
2026-04-12 18:00:00,METAR RJOA 121800Z AUTO VRB01KT 9999 NSC 15/06 Q1015,0,1,0,10000,0,0,0,
2026-04-12 17:00:00,METAR RJOA 121700Z AUTO VRB02KT 9999 NSC 15/07 Q1015,0,2,0,10000,0,0,0,
2026-04-12 16:00:00,METAR RJOA 121600Z AUTO VRB01KT 9999 NSC 15/07 Q1015,0,1,0,10000,0,0,0,
2026-04-12 15:00:00,METAR RJOA 121500Z AUTO 30002KT 9999 NSC 15/06 Q1015,0,2,0,10000,0,0,0,
2026-04-12 14:00:00,METAR RJOA 121400Z AUTO VRB01KT 9999 NSC 16/07 Q1016,0,1,0,10000,0,0,0,
2026-04-12 13:00:00,METAR RJOA 121300Z 06001KT 9999 FEW030 BKN/// 17/06 Q1016,0,1,0,10000,0,0,0,
2026-04-12 12:00:00,METAR RJOA 121200Z 01002KT 9999 FEW030 BKN/// 17/07 Q1016,0,2,0,10000,0,0,0,
2026-04-12 11:00:00,METAR RJOA 121100Z VRB01KT 9999 FEW030 BKN/// 17/06 Q1015,0,1,0,10000,0,0,0,
2026-04-12 10:00:00,METAR RJOA 121000Z 13001KT 9999 FEW030 BKN/// 17/07 Q1014,0,1,0,10000,0,0,0,
2026-04-12 09:00:00,METAR RJOA 120900Z VRB02KT CAVOK 17/07 Q1014,1,0,0,9999,0,0,0,
2026-04-12 08:00:00,METAR RJOA 120800Z 13004KT 100V170 CAVOK 19/07 Q1014,1,0,0,9999,0,0,0,
2026-04-12 07:00:00,METAR RJOA 120700Z 12004KT 090V200 CAVOK 20/07 Q1014,1,0,0,9999,0,0,0,
2026-04-12 06:00:00,METAR RJOA 120600Z 16004KT 090V200 CAVOK 20/08 Q1014,1,0,0,9999,0,0,0,
2026-04-12 05:00:00,METAR RJOA 120500Z 13005KT 080V210 CAVOK 20/07 Q1014,1,0,0,9999,0,0,0,
2026-04-12 04:00:00,METAR RJOA 120400Z 17007KT 120V230 CAVOK 20/08 Q1015,1,0,0,9999,0,0,0,
2026-04-12 03:00:00,METAR RJOA 120300Z VRB04KT CAVOK 19/08 Q1015,1,0,0,9999,0,0,0,
2026-04-12 02:00:00,METAR RJOA 120200Z VRB04KT CAVOK 19/06 Q1016,1,0,0,9999,0,0,0,
2026-04-12 01:00:00,METAR RJOA 120100Z 14006KT 090V220 CAVOK 17/06 Q1016,1,0,0,9999,0,0,0,
2026-04-12 00:00:00,METAR RJOA 120000Z 12004KT 070V180 CAVOK 16/07 Q1016,1,0,0,9999,0,0,0,
2026-04-11 23:00:00,METAR RJOA 112300Z 05003KT 350V090 CAVOK 14/09 Q1015,1,0,0,9999,0,0,0,
2026-04-11 22:30:00,METAR RJOA 112230Z 36004KT 330V030 9999 FEW030 BKN/// 14/09 Q1015,0,4,0,10000,0,0,0,
2026-04-11 22:00:00,METAR RJOA 112200Z AUTO 07003KT 9999 NSC 13/08 Q1015,0,3,0,10000,0,0,0,
2026-04-11 21:00:00,METAR RJOA 112100Z AUTO 02004KT 9999 NSC 13/07 Q1014,0,4,0,10000,0,0,0,
2026-04-11 20:00:00,METAR RJOA 112000Z AUTO 36003KT 9999 NSC 14/06 Q1014,0,3,0,10000,0,0,0,
2026-04-11 19:00:00,METAR RJOA 111900Z AUTO 35005KT 9999 NSC 14/05 Q1014,0,5,0,10000,0,0,0,
2026-04-11 18:00:00,METAR RJOA 111800Z AUTO VRB02KT 9999 NSC 14/08 Q1013,0,2,0,10000,0,0,0,
2026-04-11 17:00:00,METAR RJOA 111700Z AUTO 32002KT 9999 NSC 13/09 Q1013,0,2,0,10000,0,0,0,
2026-04-11 16:00:00,METAR RJOA 111600Z AUTO VRB01KT 9999 NSC 14/10 Q1013,0,1,0,10000,0,0,0,
2026-04-11 15:00:00,METAR RJOA 111500Z AUTO 34002KT 9999 NSC 14/10 Q1013,0,2,0,10000,0,0,0,
2026-04-11 14:00:00,METAR RJOA 111400Z AUTO VRB01KT 9999 NSC 14/09 Q1012,0,1,0,10000,0,0,0,
2026-04-11 13:00:00,METAR RJOA 111300Z VRB01KT CAVOK 14/09 Q1012,1,0,0,9999,0,0,0,
2026-04-11 12:00:00,METAR RJOA 111200Z 30004KT CAVOK 16/10 Q1012,1,0,0,9999,0,0,0,
2026-04-11 11:00:00,METAR RJOA 111100Z 28005KT CAVOK 16/09 Q1012,1,0,0,9999,0,0,0,
2026-04-11 10:00:00,METAR RJOA 111000Z 24003KT CAVOK 16/09 Q1011,1,0,0,9999,0,0,0,
2026-04-11 09:00:00,METAR RJOA 110900Z 18004KT 150V220 CAVOK 17/09 Q1010,1,0,0,9999,0,0,0,
2026-04-11 08:00:00,METAR RJOA 110800Z 21006KT 160V250 CAVOK 19/09 Q1010,1,0,0,9999,0,0,0,
2026-04-11 07:00:00,METAR RJOA 110700Z 20006KT 130V270 CAVOK 19/10 Q1010,1,0,0,9999,0,0,0,
2026-04-11 06:00:00,METAR RJOA 110600Z 21006KT 140V260 9999 FEW030 SCT/// 19/10 Q1009,0,6,0,10000,0,0,0,
2026-04-11 05:00:00,METAR RJOA 110500Z 21008KT 160V260 9999 FEW030 20/10 Q1009,0,8,0,10000,0,0,0,
2026-04-11 04:00:00,METAR RJOA 110400Z VRB07KT 9999 FEW025 19/10 Q1010,0,7,0,10000,0,0,0,
2026-04-11 03:00:00,METAR RJOA 110300Z VRB06KT 9999 FEW025 18/11 Q1011,0,6,0,10000,0,0,0,
2026-04-11 02:00:00,METAR RJOA 110200Z 22007KT 180V260 9999 FEW020 18/12 Q1011,0,7,0,10000,0,0,0,
2026-04-11 01:00:00,METAR RJOA 110100Z VRB02KT 9999 SCT020 17/11 Q1011,0,2,0,10000,0,0,0,
2026-04-11 00:00:00,METAR RJOA 110000Z 27006KT 240V310 9999 FEW020 15/09 Q1011,0,6,0,10000,0,0,0,
2026-04-10 23:00:00,METAR RJOA 102300Z VRB02KT 9999 FEW015 SCT025 14/10 Q1011,0,2,0,10000,0,0,0,
2026-04-10 22:30:00,METAR RJOA 102230Z VRB02KT 9999 FEW015 BKN025 13/10 Q1010,0,2,0,10000,0,0,0,
2026-04-10 22:00:00,METAR RJOA 102200Z AUTO 35004KT 9999 FEW030 SCT032 BKN033 12/10 Q1010,0,4,0,10000,0,0,0,
2026-04-10 21:00:00,METAR RJOA 102100Z AUTO 30006KT 9999 FEW032 BKN042 OVC044 11/10 Q1008,0,6,0,10000,0,0,0,
2026-04-10 20:00:00,METAR RJOA 102000Z AUTO 32004KT 9999 NCD 11/10 Q1007,0,4,0,10000,0,0,0,
2026-04-10 19:00:00,METAR RJOA 101900Z AUTO 27004KT 230V290 9999 NCD 12/11 Q1007,0,4,0,10000,0,0,0,
2026-04-10 18:00:00,METAR RJOA 101800Z AUTO 30006KT 9999 NCD 12/10 Q1007,0,6,0,10000,0,0,0,
2026-04-10 17:00:00,METAR RJOA 101700Z AUTO 29009KT 9999 NCD 13/11 Q1006,0,9,0,10000,0,0,0,
2026-04-10 16:00:00,METAR RJOA 101600Z AUTO 29010KT 9999 NSC 14/11 Q1005,0,10,0,10000,0,0,0,
2026-04-10 15:00:00,METAR RJOA 101500Z AUTO 28007KT 9999 NCD 14/11 Q1004,0,7,0,10000,0,0,0,
2026-04-10 14:00:00,METAR RJOA 101400Z AUTO 28005KT 9999 NCD 14/12 Q1004,0,5,0,10000,0,0,0,
2026-04-10 13:00:00,METAR RJOA 101300Z 26005KT 230V290 CAVOK 16/13 Q1004,1,0,0,9999,0,0,0,
2026-04-10 12:00:00,METAR RJOA 101200Z 24005KT 9999 FEW015 17/14 Q1004,0,5,0,10000,0,0,0,
2026-04-10 11:00:00,METAR RJOA 101100Z 25006KT 9999 FEW015 17/16 Q1003,0,6,0,10000,0,0,0,
2026-04-10 10:00:00,METAR RJOA 101000Z 21004KT 170V250 9999 FEW005 SCT/// 18/16 Q1003,0,4,0,10000,0,0,0,
2026-04-10 09:00:00,METAR RJOA 100900Z 23008KT 170V260 9999 FEW003 SCT020 BKN/// 19/17 Q1002,0,8,0,10000,0,0,0,
2026-04-10 08:00:00,METAR RJOA 100800Z 24009KT 190V290 9999 FEW001 SCT015 BKN025 20/17 Q1002,0,9,0,10000,0,0,0,
2026-04-10 07:00:00,METAR RJOA 100700Z 24009KT 180V280 9999 -SHRA FEW010 SCT020 BKN035 19/17 Q1002,0,9,0,10000,0,0,0,RA
2026-04-10 06:00:00,METAR RJOA 100600Z 25008KT 210V290 9999 -SHRA FEW003 BKN015 BKN025 18/18 Q1002,0,8,0,10000,0,0,0,RA
2026-04-10 05:00:00,METAR RJOA 100500Z 25007KT 180V280 9999 FEW003 BKN015 BKN035 18/18 Q1002,0,7,0,10000,0,0,0,
2026-04-10 04:00:00,METAR RJOA 100400Z 23007KT 190V270 4000 BCFG BR FEW000 SCT002 BKN003 18/18 Q1002,0,7,0,4000,0,0,1,"BC,BR,FG"
2026-04-10 03:00:00,METAR RJOA 100300Z VRB04KT 0800 R10/0900VP2000N FG FEW000 SCT001 BKN003 16/16 Q1002,0,4,0,1287200,0,0,1,FG
2026-04-10 02:00:00,METAR RJOA 100200Z VRB02KT 0300 R10/0550VP2000U -SHRA FG FEW000 SCT001 BKN002 14/14 Q1003,0,2,0,482700,0,0,1,"FG,RA"
2026-04-10 01:00:00,METAR RJOA 100100Z VRB02KT 1400 R10/P2000N -SHRA BCFG BR FEW000 SCT002 BKN006 14/14 Q1003,0,2,0,1400,0,0,1,"BC,BR,FG,RA"
2026-04-10 00:00:00,METAR RJOA 100000Z 07003KT 050V120 8000 -SHRA BCFG FEW000 SCT005 BKN015 14/14 Q1003,0,3,0,8000,0,0,1,"BC,FG,RA"
2026-04-09 23:00:00,METAR RJOA 092300Z VRB03KT 3000 R10/0450VP2000D SHRA BCFG BR FEW000 SCT002 BKN006 13/13 Q1003,0,3,0,3000,0,0,1,"BC,BR,FG,RA,SH"
2026-04-09 22:30:00,METAR RJOA 092230Z 07007KT 2500 -SHRA BCFG BR FEW000 SCT003 BKN006 13/13 Q1003,0,7,0,2500,0,0,1,"BC,BR,FG,RA"
2026-04-09 22:00:00,METAR RJOA 092200Z AUTO 11003KT 2600 BR FEW003 SCT005 BKN007 //////TCU 13/13 Q1003,0,3,0,2600,0,0,1,BR
2026-04-09 21:00:00,METAR RJOA 092100Z AUTO 10006KT 3100 R28/P2000N RA BR FEW008 SCT011 BKN020 //////TCU 13/12 Q1003,0,6,0,3100,0,0,1,"BR,RA"
2026-04-09 20:00:00,METAR RJOA 092000Z AUTO 07006KT 020V110 3200 RA BR FEW001 SCT010 BKN015 //////TCU 13/12 Q1003,0,6,0,3200,0,0,1,"BR,RA"
2026-04-09 19:00:00,METAR RJOA 091900Z AUTO 01003KT 330V050 4100 RA BR FEW013 BKN021 OVC048 //////TCU 12/12 Q1004,0,3,0,4100,0,0,1,"BR,RA"
2026-04-09 18:00:00,METAR RJOA 091800Z AUTO 08004KT 040V110 7000 -RA FEW012 BKN014 BKN019 //////TCU 12/11 Q1004,0,4,0,7000,0,0,0,-RA
2026-04-09 17:00:00,METAR RJOA 091700Z AUTO 32004KT 290V350 9999 -RA FEW018 OVC027 //////TCU 13/12 Q1005,0,4,0,10000,0,0,0,-RA
2026-04-09 16:00:00,METAR RJOA 091600Z AUTO 31003KT 2100 -RA BR FEW023 OVC029 //////TCU 11/11 Q1006,0,3,0,2100,0,0,1,"-RA,BR"
2026-04-09 15:00:00,METAR RJOA 091500Z AUTO 28003KT 0900 R28/P2000N RA FG FEW019 SCT025 OVC031 11/10 Q1007,0,3,0,1448100,0,0,1,"FG,RA"
2026-04-09 14:00:00,METAR RJOA 091400Z AUTO 29003KT 0300 R28/P2000N -RA FG FEW000 SCT028 OVC031 11/10 Q1007,0,3,0,482700,0,0,1,"-RA,FG"
2026-04-09 13:00:00,METAR RJOA 091300Z 01003KT 290V060 3000 -SHRA BCFG BR FEW000 BKN030 10/10 Q1008,0,3,0,3000,0,0,1,"BC,BR,FG,RA"
2026-04-09 12:00:00,METAR RJOA 091200Z 11004KT 070V140 3000 R10/1100VP2000U BCFG BR FEW000 BKN035 10/09 Q1009,0,4,0,3000,0,0,1,"BC,BR,FG"
2026-04-09 11:00:00,METAR RJOA 091100Z 10006KT 2500 R10/P2000N -SHRA BCFG BR FEW000 SCT030 BKN050 10/09 Q1010,0,6,0,2500,0,0,1,"BC,BR,FG,RA"
2026-04-09 10:00:00,METAR RJOA 091000Z 04004KT 300V090 3000 SHRA BCFG BR FEW000 FEW015CB SCT030 BKN040 10/09 Q1012,0,4,0,3000,0,0,1,"BC,BR,FG,RA,SH"
2026-04-09 09:00:00,METAR RJOA 090900Z 33005KT 290V050 9999 -SHRA FEW002 SCT040 BKN050 11/09 Q1012,0,5,0,10000,0,0,0,RA
2026-04-09 08:00:00,METAR RJOA 090800Z 07005KT 9999 -RA FEW002 BKN060 BKN110 11/08 Q1012,0,5,0,10000,0,0,0,-RA
2026-04-09 07:00:00,METAR RJOA 090700Z 10003KT 9999 -RA FEW025 SCT080 BKN110 12/06 Q1013,0,3,0,10000,0,0,0,-RA
2026-04-09 06:00:00,METAR RJOA 090600Z VRB02KT 9999 FEW030 BKN070 13/03 Q1014,0,2,0,10000,0,0,0,
2026-04-09 05:00:00,METAR RJOA 090500Z 13004KT 080V170 9999 FEW030 SCT080 BKN110 13/03 Q1014,0,4,0,10000,0,0,0,
2026-04-09 04:00:00,METAR RJOA 090400Z 12008KT 100V160 9999 FEW030 SCT090 BKN110 13/04 Q1014,0,8,0,10000,0,0,0,
2026-04-09 03:00:00,METAR RJOA 090300Z 12007KT 9999 -RA FEW030 SCT080 BKN110 11/04 Q1017,0,7,0,10000,0,0,0,-RA
2026-04-09 02:00:00,METAR RJOA 090200Z 12004KT 090V160 9999 FEW030 SCT090 BKN110 12/03 Q1018,0,4,0,10000,0,0,0,
2026-04-09 01:00:00,METAR RJOA 090100Z VRB01KT 9999 FEW030 SCT090 BKN110 10/02 Q1019,0,1,0,10000,0,0,0,
2026-04-09 00:00:00,METAR RJOA 090000Z 11004KT 9999 FEW030 BKN100 BKN120 10/02 Q1019,0,4,0,10000,0,0,0,
2026-04-08 23:00:00,METAR RJOA 082300Z 12002KT 9999 FEW030 SCT130 BKN150 09/01 Q1019,0,2,0,10000,0,0,0,
2026-04-08 22:30:00,METAR RJOA 082230Z 12003KT 080V150 9999 FEW030 SCT150 BKN/// 09/01 Q1019,0,3,0,10000,0,0,0,
2026-04-08 22:00:00,METAR RJOA 082200Z AUTO 12004KT 090V150 9999 NSC 10/01 Q1019,0,4,0,10000,0,0,0,
2026-04-08 21:00:00,METAR RJOA 082100Z AUTO 11004KT 9999 FEW031 SCT210 BKN230 09/00 Q1018,0,4,0,10000,0,0,0,
2026-04-08 20:00:00,METAR RJOA 082000Z AUTO 10003KT 9999 SCT030 BKN240 08/01 Q1018,0,3,0,10000,0,0,0,
2026-04-08 19:00:00,METAR RJOA 081900Z AUTO VRB01KT 9999 NCD 08/01 Q1018,0,1,0,10000,0,0,0,
2026-04-08 18:00:00,METAR RJOA 081800Z AUTO 05002KT 9999 NCD 08/01 Q1019,0,2,0,10000,0,0,0,
2026-04-08 17:00:00,METAR RJOA 081700Z AUTO 03002KT 9999 NCD 08/M01 Q1019,0,2,0,10000,0,0,0,
2026-04-08 16:00:00,METAR RJOA 081600Z AUTO VRB02KT 9999 NCD 08/M01 Q1019,0,2,0,10000,0,0,0,
2026-04-08 15:00:00,METAR RJOA 081500Z AUTO 00000KT 9999 NCD 09/M03 Q1019,0,0,0,10000,0,0,0,
2026-04-08 14:00:00,METAR RJOA 081400Z AUTO VRB01KT 9999 NCD 08/M02 Q1019,0,1,0,10000,0,0,0,
2026-04-08 13:00:00,METAR RJOA 081300Z 00000KT CAVOK 10/M04 Q1019,1,0,0,9999,0,0,0,
2026-04-08 12:00:00,METAR RJOA 081200Z 00000KT CAVOK 10/M02 Q1020,1,0,0,9999,0,0,0,
2026-04-08 11:00:00,METAR RJOA 081100Z VRB01KT CAVOK 10/M03 Q1019,1,0,0,9999,0,0,0,
2026-04-08 10:00:00,METAR RJOA 081000Z VRB02KT CAVOK 11/M03 Q1019,1,0,0,9999,0,0,0,
2026-04-08 09:00:00,METAR RJOA 080900Z VRB02KT CAVOK 13/M04 Q1018,1,0,0,9999,0,0,0,
2026-04-08 08:00:00,METAR RJOA 080800Z 19005KT 150V250 CAVOK 14/M04 Q1018,1,0,0,9999,0,0,0,
2026-04-08 07:00:00,METAR RJOA 080700Z 16005KT 090V230 CAVOK 15/M02 Q1018,1,0,0,9999,0,0,0,
2026-04-08 06:00:00,METAR RJOA 080600Z VRB05KT CAVOK 15/M00 Q1018,1,0,0,9999,0,0,0,
2026-04-08 05:00:00,METAR RJOA 080500Z 12007KT 040V150 CAVOK 15/02 Q1019,1,0,0,9999,0,0,0,
2026-04-08 04:00:00,METAR RJOA 080400Z 13006KT 060V210 CAVOK 14/00 Q1019,1,0,0,9999,0,0,0,
2026-04-08 03:00:00,METAR RJOA 080300Z VRB05KT CAVOK 12/M01 Q1020,1,0,0,9999,0,0,0,
2026-04-08 02:00:00,METAR RJOA 080200Z VRB04KT CAVOK 11/00 Q1021,1,0,0,9999,0,0,0,
2026-04-08 01:00:00,METAR RJOA 080100Z 14006KT 050V190 CAVOK 10/M00 Q1021,1,0,0,9999,0,0,0,
2026-04-08 00:00:00,METAR RJOA 080000Z 15006KT 100V200 CAVOK 09/M02 Q1021,1,0,0,9999,0,0,0,
2026-04-07 23:00:00,METAR RJOA 072300Z 10003KT 080V140 CAVOK 07/M01 Q1021,1,0,0,9999,0,0,0,
2026-04-07 22:30:00,METAR RJOA 072230Z 00000KT CAVOK 06/M02 Q1021,1,0,0,9999,0,0,0,
2026-04-07 22:00:00,METAR RJOA 072200Z AUTO 00000KT 9999 NCD 06/M02 Q1020,0,0,0,10000,0,0,0,
2026-04-07 21:00:00,METAR RJOA 072100Z AUTO 32001KT 9999 NCD 04/M02 Q1020,0,1,0,10000,0,0,0,
2026-04-07 20:00:00,METAR RJOA 072000Z AUTO 31001KT 9999 NCD 03/M02 Q1019,0,1,0,10000,0,0,0,
2026-04-07 19:00:00,METAR RJOA 071900Z AUTO 31002KT 9999 NCD 03/M02 Q1018,0,2,0,10000,0,0,0,
2026-04-07 18:00:00,METAR RJOA 071800Z AUTO VRB01KT 9999 NCD 04/M01 Q1018,0,1,0,10000,0,0,0,
2026-04-07 17:00:00,METAR RJOA 071700Z AUTO VRB02KT 9999 NCD 05/M02 Q1017,0,2,0,10000,0,0,0,
2026-04-07 16:00:00,METAR RJOA 071600Z AUTO VRB02KT 9999 NCD 05/M01 Q1017,0,2,0,10000,0,0,0,
2026-04-07 15:00:00,METAR RJOA 071500Z AUTO VRB02KT 9999 NCD 06/M02 Q1016,0,2,0,10000,0,0,0,
2026-04-07 14:00:00,METAR RJOA 071400Z AUTO 32008KT 9999 NCD 06/M02 Q1016,0,8,0,10000,0,0,0,
2026-04-07 13:00:00,METAR RJOA 071300Z 32005KT CAVOK 06/M02 Q1016,1,0,0,9999,0,0,0,
2026-04-07 12:00:00,METAR RJOA 071200Z 34004KT CAVOK 07/M03 Q1015,1,0,0,9999,0,0,0,
2026-04-07 11:00:00,METAR RJOA 071100Z 31006KT CAVOK 07/M04 Q1015,1,0,0,9999,0,0,0,
2026-04-07 10:00:00,METAR RJOA 071000Z 32009KT 280V350 CAVOK 08/M06 Q1013,1,0,0,9999,0,0,0,
2026-04-07 09:00:00,METAR RJOA 070900Z 33010KT 9999 FEW030 09/M04 Q1013,0,10,0,10000,0,0,0,
2026-04-07 08:00:00,METAR RJOA 070800Z 32013KT 280V360 9999 FEW030 11/M04 Q1012,0,13,0,10000,0,0,0,
2026-04-07 07:00:00,METAR RJOA 070700Z 33016KT 300V010 9999 FEW030 12/M03 Q1011,0,16,0,10000,0,0,0,
2026-04-07 06:00:00,METAR RJOA 070600Z 34014KT 300V030 9999 FEW030 13/M02 Q1010,0,14,0,10000,0,0,0,
2026-04-07 05:00:00,METAR RJOA 070500Z 32014KT 290V030 9999 FEW030 14/M05 Q1009,0,14,0,10000,0,0,0,
2026-04-07 04:00:00,METAR RJOA 070400Z 35013KT 300V030 9999 FEW020 14/M07 Q1009,0,13,0,10000,0,0,0,
2026-04-07 03:00:00,METAR RJOA 070300Z 32016G27KT 300V020 9999 FEW020 14/M04 Q1009,0,16,1,10000,0,0,0,
2026-04-07 02:00:00,METAR RJOA 070200Z 33014G24KT 300V020 9999 FEW020 14/M02 Q1009,0,14,1,10000,0,0,0,
2026-04-07 01:00:00,METAR RJOA 070100Z 34008KT 300V030 9999 FEW015 BKN/// 11/01 Q1010,0,8,0,10000,0,0,0,
2026-04-07 00:00:00,METAR RJOA 070000Z 33013G23KT 9999 VCSH FEW010 SCT040 BKN070 09/06 Q1009,0,13,1,10000,0,0,0,"SH,VC"
2026-04-06 23:00:00,METAR RJOA 062300Z 34017KT 310V020 9999 -SHRA FEW015 SCT030 BKN040 10/06 Q1008,0,17,0,10000,0,0,0,RA
2026-04-06 22:30:00,METAR RJOA 062230Z 34016G26KT 9999 -SHRA FEW015 SCT030 BKN040 10/07 Q1008,0,16,1,10000,0,0,0,RA
2026-04-06 22:00:00,METAR RJOA 062200Z AUTO 34021G32KT 9999 OVC034 10/07 Q1008,0,21,1,10000,0,0,0,
2026-04-06 21:00:00,METAR RJOA 062100Z AUTO 34020G32KT 9999 -RA FEW011 SCT036 BKN038 10/09 Q1008,0,20,1,10000,0,0,0,-RA
2026-04-06 20:00:00,METAR RJOA 062000Z AUTO 35010KT 7000 -RA BKN018 BKN023 OVC041 14/11 Q1007,0,10,0,7000,0,0,0,-RA
2026-04-06 19:00:00,METAR RJOA 061900Z AUTO 29008KT 9999 FEW030 BKN031 BKN037 16/11 Q1007,0,8,0,10000,0,0,0,
2026-04-06 18:00:00,METAR RJOA 061800Z AUTO 24004KT 220V280 9999 NSC 16/09 Q1007,0,4,0,10000,0,0,0,
2026-04-06 17:00:00,METAR RJOA 061700Z AUTO 27005KT 9999 NSC 16/08 Q1007,0,5,0,10000,0,0,0,
2026-04-06 16:00:00,METAR RJOA 061600Z AUTO 29005KT 9999 NSC 16/06 Q1008,0,5,0,10000,0,0,0,
2026-04-06 15:00:00,METAR RJOA 061500Z AUTO 31005KT 9999 NSC 16/05 Q1009,0,5,0,10000,0,0,0,
2026-04-06 14:00:00,METAR RJOA 061400Z AUTO VRB02KT 9999 NSC 16/05 Q1009,0,2,0,10000,0,0,0,
2026-04-06 13:00:00,METAR RJOA 061300Z VRB01KT CAVOK 15/06 Q1010,1,0,0,9999,0,0,0,
2026-04-06 12:00:00,METAR RJOA 061200Z VRB02KT CAVOK 16/05 Q1010,1,0,0,9999,0,0,0,
2026-04-06 11:00:00,METAR RJOA 061100Z VRB02KT CAVOK 16/06 Q1010,1,0,0,9999,0,0,0,
2026-04-06 10:00:00,METAR RJOA 061000Z VRB01KT CAVOK 17/05 Q1010,1,0,0,9999,0,0,0,
2026-04-06 09:00:00,METAR RJOA 060900Z VRB01KT CAVOK 18/05 Q1010,1,0,0,9999,0,0,0,
2026-04-06 08:00:00,METAR RJOA 060800Z 21003KT 130V290 CAVOK 18/05 Q1010,1,0,0,9999,0,0,0,
2026-04-06 07:00:00,METAR RJOA 060700Z 19005KT 140V240 9999 FEW030 BKN120 BKN/// 18/05 Q1011,0,5,0,10000,0,0,0,
2026-04-06 06:00:00,METAR RJOA 060600Z 19004KT 140V230 9999 FEW030 SCT120 BKN/// 18/08 Q1011,0,4,0,10000,0,0,0,
2026-04-06 05:00:00,METAR RJOA 060500Z 20007KT 160V250 9999 FEW040 SCT170 BKN/// 21/10 Q1012,0,7,0,10000,0,0,0,
2026-04-06 04:00:00,METAR RJOA 060400Z VRB06KT 9999 FEW030 BKN/// 21/11 Q1012,0,6,0,10000,0,0,0,
2026-04-06 03:00:00,METAR RJOA 060300Z 21007KT 150V260 CAVOK 19/08 Q1013,1,0,0,9999,0,0,0,
2026-04-06 02:00:00,METAR RJOA 060200Z 20006KT 140V240 CAVOK 17/05 Q1013,1,0,0,9999,0,0,0,
2026-04-06 01:00:00,METAR RJOA 060100Z 21005KT 160V270 CAVOK 17/07 Q1014,1,0,0,9999,0,0,0,
2026-04-06 00:00:00,METAR RJOA 060000Z VRB02KT CAVOK 13/09 Q1014,1,0,0,9999,0,0,0,
2026-04-05 23:00:00,METAR RJOA 052300Z VRB02KT 9999 BCFG FEW000 BKN/// 12/08 Q1014,0,2,0,10000,0,0,1,"BC,FG"
2026-04-05 22:30:00,METAR RJOA 052230Z VRB02KT 9999 BCFG FEW000 BKN/// 11/09 Q1014,0,2,0,10000,0,0,1,"BC,FG"
2026-04-05 22:00:00,METAR RJOA 052200Z AUTO 00000KT 9999 NCD 11/09 Q1014,0,0,0,10000,0,0,0,
2026-04-05 21:00:00,METAR RJOA 052100Z AUTO VRB01KT 9999 NCD 11/08 Q1013,0,1,0,10000,0,0,0,
2026-04-05 20:00:00,METAR RJOA 052000Z AUTO 31003KT 9999 NCD 10/08 Q1013,0,3,0,10000,0,0,0,
2026-04-05 19:00:00,METAR RJOA 051900Z AUTO 32004KT 9999 NCD 11/09 Q1013,0,4,0,10000,0,0,0,
2026-04-05 18:00:00,METAR RJOA 051800Z AUTO VRB02KT 9999 NCD 12/09 Q1013,0,2,0,10000,0,0,0,
2026-04-05 17:00:00,METAR RJOA 051700Z AUTO 30002KT 9999 NCD 11/09 Q1012,0,2,0,10000,0,0,0,
2026-04-05 16:00:00,METAR RJOA 051600Z AUTO VRB02KT 9999 NCD 11/09 Q1012,0,2,0,10000,0,0,0,
2026-04-05 15:00:00,METAR RJOA 051500Z AUTO 29002KT 9999 NCD 12/09 Q1012,0,2,0,10000,0,0,0,
2026-04-05 13:00:00,METAR RJOA 051300Z VRB01KT CAVOK 13/09 Q1011,1,0,0,9999,0,0,0,
2026-04-05 12:00:00,METAR RJOA 051200Z VRB02KT 9999 FEW020 14/09 Q1011,0,2,0,10000,0,0,0,
2026-04-05 11:00:00,METAR RJOA 051100Z 18003KT 9999 FEW020 14/09 Q1010,0,3,0,10000,0,0,0,
2026-04-05 10:00:00,METAR RJOA 051000Z VRB02KT 9999 FEW025 15/09 Q1010,0,2,0,10000,0,0,0,
2026-04-05 09:00:00,METAR RJOA 050900Z 19003KT 130V240 9999 FEW025 SCT180 BKN/// 16/09 Q1009,0,3,0,10000,0,0,0,
2026-04-05 08:00:00,METAR RJOA 050800Z 20006KT 160V240 9999 FEW030 SCT/// 18/09 Q1008,0,6,0,10000,0,0,0,
2026-04-05 07:00:00,METAR RJOA 050700Z 21006KT 160V270 9999 FEW030 19/09 Q1008,0,6,0,10000,0,0,0,
2026-04-05 06:00:00,METAR RJOA 050600Z 21007KT 170V320 9999 FEW030 19/10 Q1008,0,7,0,10000,0,0,0,
2026-04-05 05:00:00,METAR RJOA 050500Z 20007KT 130V240 9999 FEW030 19/10 Q1008,0,7,0,10000,0,0,0,
2026-04-05 04:00:00,METAR RJOA 050400Z 17007KT 130V260 9999 FEW020 SCT030 18/12 Q1008,0,7,0,10000,0,0,0,
2026-04-05 03:00:00,METAR RJOA 050300Z 11005KT 070V180 9999 FEW015 SCT025 BKN035 17/13 Q1008,0,5,0,10000,0,0,0,
2026-04-05 02:00:00,METAR RJOA 050200Z VRB04KT 9999 FEW010 SCT015 BKN/// 17/12 Q1009,0,4,0,10000,0,0,0,
2026-04-05 01:00:00,METAR RJOA 050100Z 20004KT 150V250 9999 FEW010 SCT015 BKN/// 16/13 Q1009,0,4,0,10000,0,0,0,
2026-04-05 00:00:00,METAR RJOA 050000Z 28003KT 210V360 9999 FEW007 SCT015 BKN/// 15/13 Q1009,0,3,0,10000,0,0,0,
2026-04-04 23:00:00,METAR RJOA 042300Z VRB03KT 5000 R10/0125VP2000D BCFG BR FEW000 SCT001 BKN/// 13/13 Q1009,0,3,0,5000,0,0,1,"BC,BR,FG"
2026-04-04 22:30:00,METAR RJOA 042230Z 06003KT 030V110 6000 BCFG FEW000 SCT005 BKN/// 12/12 Q1008,0,3,0,6000,0,0,1,"BC,FG"
2026-04-04 22:00:00,METAR RJOA 042200Z AUTO 07002KT 9999 OVC042 12/12 Q1008,0,2,0,10000,0,0,0,
2026-04-04 21:00:00,METAR RJOA 042100Z AUTO VRB02KT 9999 R28/P2000N SCT003 BKN005 OVC007 11/11 Q1008,0,2,0,10000,0,0,0,
2026-04-04 20:00:00,METAR RJOA 042000Z AUTO 07002KT 9999 FEW044 BKN230 BKN240 11/11 Q1007,0,2,0,10000,0,0,0,
2026-04-04 19:00:00,METAR RJOA 041900Z AUTO 01002KT 9999 BKN041 BKN050 OVC240 12/12 Q1007,0,2,0,10000,0,0,0,
2026-04-04 18:00:00,METAR RJOA 041800Z AUTO 21003KT 9999 OVC047 12/11 Q1008,0,3,0,10000,0,0,0,
2026-04-04 17:00:00,METAR RJOA 041700Z AUTO 35003KT 9999 FEW040 13/12 Q1007,0,3,0,10000,0,0,0,
2026-04-04 16:00:00,METAR RJOA 041600Z AUTO 04002KT 9999 NCD 12/12 Q1006,0,2,0,10000,0,0,0,
2026-04-04 15:00:00,METAR RJOA 041500Z AUTO 26004KT 210V310 9999 NCD 13/11 Q1005,0,4,0,10000,0,0,0,
2026-04-04 14:00:00,METAR RJOA 041400Z AUTO 31008KT 9999 FEW043 14/13 Q1005,0,8,0,10000,0,0,0,
2026-04-04 13:00:00,METAR RJOA 041300Z 29010KT 9999 FEW010 SCT050 15/13 Q1004,0,10,0,10000,0,0,0,
2026-04-04 12:00:00,METAR RJOA 041200Z 27012KT 9999 FEW010 SCT060 15/14 Q1003,0,12,0,10000,0,0,0,
2026-04-04 11:00:00,METAR RJOA 041100Z 20003KT 150V290 3000 BCFG BR FEW000 SCT003 BKN008 16/15 Q1002,0,3,0,3000,0,0,1,"BC,BR,FG"
2026-04-04 10:00:00,METAR RJOA 041000Z 18003KT 080V220 1400 R28/P2000N -RA BCFG BR FEW000 SCT002 BKN005 16/15 Q1000,0,3,0,1400,0,0,1,"-RA,BC,BR,FG"
2026-04-04 09:00:00,METAR RJOA 040900Z VRB02KT 0100 R10/0700VP2000U -RA FG FEW000 SCT001 BKN002 15/15 Q0999,0,2,0,160900,0,0,1,"-RA,FG"
2026-04-04 08:00:00,METAR RJOA 040800Z 12002KT 3000 R10/0700VP2000D -RA BCFG BR FEW000 SCT006 BKN009 15/15 Q0998,0,2,0,3000,0,0,1,"-RA,BC,BR,FG"
2026-04-04 07:00:00,METAR RJOA 040700Z 09004KT 050V140 3000 BCFG BR FEW000 SCT006 BKN012 15/14 Q0998,0,4,0,3000,0,0,1,"BC,BR,FG"
2026-04-04 06:00:00,METAR RJOA 040600Z 09007KT 6000 -RA BCFG FEW000 SCT015 BKN020 14/14 Q0999,0,7,0,6000,0,0,1,"-RA,BC,FG"
2026-04-04 05:00:00,METAR RJOA 040500Z VRB02KT 2000 R10/0500VP2000U RA BCFG BR FEW000 SCT003 BKN015 14/14 Q1000,0,2,0,2000,0,0,1,"BC,BR,FG,RA"
2026-04-04 04:00:00,METAR RJOA 040400Z 11007KT 090V160 2500 -RA BCFG BR FEW000 SCT020 BKN030 14/13 Q1000,0,7,0,2500,0,0,1,"-RA,BC,BR,FG"
2026-04-04 03:00:00,METAR RJOA 040300Z 12006KT 080V160 2500 R10/P2000N -RA BCFG BR FEW000 SCT020 BKN060 13/13 Q1002,0,6,0,2500,0,0,1,"-RA,BC,BR,FG"
2026-04-04 02:00:00,METAR RJOA 040200Z 13003KT 060V230 3000 -RA BCFG BR FEW000 SCT001 BKN025 13/12 Q1003,0,3,0,3000,0,0,1,"-RA,BC,BR,FG"
2026-04-04 01:00:00,METAR RJOA 040100Z 09007KT 9000 -RA BCFG FEW000 SCT050 OVC090 12/11 Q1004,0,7,0,9000,0,0,1,"-RA,BC,FG"
2026-04-04 00:00:00,METAR RJOA 040000Z 11003KT 9999 -RA BCFG FEW000 BKN040 BKN060 12/11 Q1006,0,3,0,10000,0,0,1,"-RA,BC,FG"
2026-04-03 23:00:00,METAR RJOA 032300Z 09011KT 8000 -RA BCFG FEW000 SCT060 OVC080 12/11 Q1006,0,11,0,8000,0,0,1,"-RA,BC,FG"
2026-04-03 22:30:00,METAR RJOA 032230Z 10009KT 8000 -RA FEW003 SCT060 OVC080 11/10 Q1007,0,9,0,8000,0,0,0,-RA
2026-04-03 22:00:00,METAR RJOA 032200Z AUTO 09012KT 9999 -RA FEW041 SCT050 BKN060 11/09 Q1007,0,12,0,10000,0,0,0,-RA
2026-04-03 21:00:00,METAR RJOA 032100Z AUTO 08007KT 9999 -RA FEW046 SCT050 BKN060 12/08 Q1009,0,7,0,10000,0,0,0,-RA
2026-04-03 20:00:00,METAR RJOA 032000Z AUTO 07008KT 9999 NSC 12/07 Q1009,0,8,0,10000,0,0,0,
2026-04-03 19:00:00,METAR RJOA 031900Z AUTO 09005KT 9999 NSC 12/06 Q1010,0,5,0,10000,0,0,0,
2026-04-03 18:00:00,METAR RJOA 031800Z AUTO 06007KT 9999 NSC 12/06 Q1011,0,7,0,10000,0,0,0,
2026-04-03 17:00:00,METAR RJOA 031700Z AUTO 08008KT 9999 -RA NSC 12/06 Q1012,0,8,0,10000,0,0,0,-RA
2026-04-03 16:00:00,METAR RJOA 031600Z AUTO VRB02KT 9999 NSC 12/06 Q1014,0,2,0,10000,0,0,0,
2026-04-03 15:00:00,METAR RJOA 031500Z AUTO 08005KT 9999 FEW047 SCT070 BKN080 13/06 Q1014,0,5,0,10000,0,0,0,
2026-04-03 14:00:00,METAR RJOA 031400Z AUTO VRB02KT 9999 NSC 14/06 Q1015,0,2,0,10000,0,0,0,
2026-04-03 13:00:00,METAR RJOA 031300Z 25003KT 180V310 CAVOK 13/07 Q1016,1,0,0,9999,0,0,0,
2026-04-03 12:00:00,METAR RJOA 031200Z 28005KT 150V310 CAVOK 14/07 Q1016,1,0,0,9999,0,0,0,
2026-04-03 11:00:00,METAR RJOA 031100Z 27001KT CAVOK 14/04 Q1016,1,0,0,9999,0,0,0,
2026-04-03 10:00:00,METAR RJOA 031000Z VRB02KT CAVOK 14/04 Q1016,1,0,0,9999,0,0,0,
2026-04-03 09:00:00,METAR RJOA 030900Z 18004KT 140V220 CAVOK 15/04 Q1016,1,0,0,9999,0,0,0,
2026-04-03 08:00:00,METAR RJOA 030800Z 16005KT 110V200 CAVOK 16/03 Q1016,1,0,0,9999,0,0,0,
2026-04-03 07:00:00,METAR RJOA 030700Z 19006KT 140V230 CAVOK 19/01 Q1016,1,0,0,9999,0,0,0,
2026-04-03 06:00:00,METAR RJOA 030600Z 18006KT 140V230 CAVOK 19/02 Q1015,1,0,0,9999,0,0,0,
2026-04-03 05:00:00,METAR RJOA 030500Z 23007KT 160V290 9999 FEW040 BKN/// 19/02 Q1016,0,7,0,10000,0,0,0,
2026-04-03 04:00:00,METAR RJOA 030400Z 18008KT 130V240 9999 FEW040 BKN/// 18/03 Q1017,0,8,0,10000,0,0,0,
2026-04-03 03:00:00,METAR RJOA 030300Z 20006KT 120V270 9999 FEW040 SCT/// 18/04 Q1018,0,6,0,10000,0,0,0,
2026-04-03 02:00:00,METAR RJOA 030200Z 17004KT 110V250 CAVOK 16/03 Q1018,1,0,0,9999,0,0,0,
2026-04-03 01:00:00,METAR RJOA 030100Z VRB03KT CAVOK 15/07 Q1018,1,0,0,9999,0,0,0,
2026-04-03 00:00:00,METAR RJOA 030000Z 22005KT 180V270 CAVOK 13/08 Q1018,1,0,0,9999,0,0,0,
2026-04-02 23:00:00,METAR RJOA 022300Z VRB01KT CAVOK 11/07 Q1018,1,0,0,9999,0,0,0,
2026-04-02 22:30:00,METAR RJOA 022230Z VRB01KT CAVOK 11/07 Q1018,1,0,0,9999,0,0,0,
2026-04-02 22:00:00,METAR RJOA 022200Z AUTO VRB02KT 9999 NCD 09/06 Q1018,0,2,0,10000,0,0,0,
2026-04-02 21:00:00,METAR RJOA 022100Z AUTO VRB01KT 9999 NCD 09/05 Q1018,0,1,0,10000,0,0,0,
2026-04-02 20:00:00,METAR RJOA 022000Z AUTO 30001KT 9999 NCD 09/05 Q1017,0,1,0,10000,0,0,0,
2026-04-02 19:00:00,METAR RJOA 021900Z AUTO 30002KT 9999 NCD 07/04 Q1017,0,2,0,10000,0,0,0,
2026-04-02 18:00:00,METAR RJOA 021800Z AUTO VRB01KT 9999 NCD 09/04 Q1017,0,1,0,10000,0,0,0,
2026-04-02 17:00:00,METAR RJOA 021700Z AUTO 32005KT 9999 NCD 08/05 Q1017,0,5,0,10000,0,0,0,
2026-04-02 16:00:00,METAR RJOA 021600Z AUTO 33005KT 9999 NCD 09/05 Q1017,0,5,0,10000,0,0,0,
2026-04-02 15:00:00,METAR RJOA 021500Z AUTO 32004KT 9999 NCD 08/05 Q1017,0,4,0,10000,0,0,0,
2026-04-02 14:00:00,METAR RJOA 021400Z AUTO 33004KT 9999 NCD 09/07 Q1017,0,4,0,10000,0,0,0,
2026-04-02 13:00:00,METAR RJOA 021300Z 33003KT CAVOK 10/07 Q1016,1,0,0,9999,0,0,0,
2026-04-02 12:00:00,METAR RJOA 021200Z 30002KT CAVOK 10/07 Q1016,1,0,0,9999,0,0,0,
2026-04-02 11:00:00,METAR RJOA 021100Z 03002KT 9999 FEW040 11/09 Q1015,0,2,0,10000,0,0,0,
2026-04-02 10:00:00,METAR RJOA 021000Z VRB01KT 9999 FEW030 SCT040 11/09 Q1014,0,1,0,10000,0,0,0,
2026-04-02 09:00:00,METAR RJOA 020900Z VRB02KT 9999 FEW030 BKN040 12/09 Q1013,0,2,0,10000,0,0,0,
2026-04-02 08:00:00,METAR RJOA 020800Z 20004KT 130V230 9999 FEW020 BKN040 12/10 Q1013,0,4,0,10000,0,0,0,
2026-04-02 07:00:00,METAR RJOA 020700Z 18003KT 140V230 9999 -SHRA FEW015 SCT030 BKN035 12/10 Q1012,0,3,0,10000,0,0,0,RA
2026-04-02 06:00:00,METAR RJOA 020600Z VRB04KT 9999 -SHRA FEW015 SCT030 BKN040 12/09 Q1012,0,4,0,10000,0,0,0,RA
2026-04-02 05:00:00,METAR RJOA 020500Z 28007KT 9999 VCSH FEW020 BKN040 BKN070 13/09 Q1012,0,7,0,10000,0,0,0,"SH,VC"
2026-04-02 04:00:00,METAR RJOA 020400Z 19007KT 130V240 9999 VCSH FEW020 SCT030 BKN040 13/08 Q1012,0,7,0,10000,0,0,0,"SH,VC"
2026-04-02 03:00:00,METAR RJOA 020300Z 27006KT 9999 FEW020 BKN040 14/07 Q1012,0,6,0,10000,0,0,0,
2026-04-02 02:00:00,METAR RJOA 020200Z 29008KT 250V340 9999 FEW020 BKN035 14/06 Q1012,0,8,0,10000,0,0,0,
2026-04-02 01:00:00,METAR RJOA 020100Z 28011KT 9999 FEW030 SCT070 13/07 Q1012,0,11,0,10000,0,0,0,
2026-04-02 00:00:00,METAR RJOA 020000Z 29010KT 250V310 9999 FEW020 BKN/// 12/07 Q1012,0,10,0,10000,0,0,0,
2026-04-01 23:00:00,METAR RJOA 012300Z 29008KT 9999 FEW010 10/07 Q1012,0,8,0,10000,0,0,0,
2026-04-01 22:30:00,METAR RJOA 012230Z 29006KT 9999 FEW010 SCT080 09/06 Q1012,0,6,0,10000,0,0,0,
2026-04-01 22:00:00,METAR RJOA 012200Z AUTO 27006KT 9999 NCD 08/06 Q1011,0,6,0,10000,0,0,0,
2026-04-01 21:00:00,METAR RJOA 012100Z AUTO 30009KT 9999 NSC 08/05 Q1010,0,9,0,10000,0,0,0,
2026-04-01 20:00:00,METAR RJOA 012000Z AUTO 28006KT 9999 NCD 08/05 Q1010,0,6,0,10000,0,0,0,
2026-04-01 19:00:00,METAR RJOA 011900Z AUTO 32007KT 290V360 9999 NSC 09/05 Q1009,0,7,0,10000,0,0,0,
2026-04-01 18:00:00,METAR RJOA 011800Z AUTO 31008KT 280V340 9999 NSC 09/06 Q1009,0,8,0,10000,0,0,0,
2026-04-01 17:00:00,METAR RJOA 011700Z AUTO 31012KT 9999 FEW015 SCT060 BKN070 09/07 Q1008,0,12,0,10000,0,0,0,
2026-04-01 16:00:00,METAR RJOA 011600Z AUTO 31010KT 9999 FEW017 SCT080 BKN090 09/07 Q1008,0,10,0,10000,0,0,0,
2026-04-01 15:00:00,METAR RJOA 011500Z AUTO 31008KT 9999 FEW012 SCT050 BKN060 09/08 Q1008,0,8,0,10000,0,0,0,
2026-04-01 14:00:00,METAR RJOA 011400Z AUTO 32006KT 290V350 9999 FEW014 SCT015 BKN044 10/08 Q1008,0,6,0,10000,0,0,0,
2026-04-01 13:00:00,METAR RJOA 011300Z 30006KT 9999 -RA FEW008 SCT020 BKN050 10/09 Q1008,0,6,0,10000,0,0,0,-RA
2026-04-01 12:00:00,METAR RJOA 011200Z 32004KT 5000 -RA BCFG BR FEW000 SCT010 BKN020 10/09 Q1008,0,4,0,5000,0,0,1,"-RA,BC,BR,FG"
2026-04-01 11:00:00,METAR RJOA 011100Z 31003KT 260V010 1400 R10/P2000N -RA BCFG BR FEW000 SCT002 BKN004 10/09 Q1008,0,3,0,1400,0,0,1,"-RA,BC,BR,FG"
2026-04-01 10:00:00,METAR RJOA 011000Z VRB02KT 1200 R10/P2000N RA BCFG BR FEW000 SCT002 BKN004 10/10 Q1008,0,2,0,1200,0,0,1,"BC,BR,FG,RA"
2026-04-01 09:00:00,METAR RJOA 010900Z 10003KT 060V120 1200 R10/P2000N -RA BCFG BR FEW000 SCT002 BKN003 10/10 Q1008,0,3,0,1200,0,0,1,"-RA,BC,BR,FG"
2026-04-01 08:00:00,METAR RJOA 010800Z 11004KT 060V150 0900 R10/0225VP2000D -RA FG FEW000 SCT002 BKN003 10/10 Q1008,0,4,0,1448100,0,0,1,"-RA,FG"
2026-04-01 07:00:00,METAR RJOA 010700Z 20003KT 170V230 0500 R10/2000N -RA FG FEW000 SCT002 BKN003 10/10 Q1009,0,3,0,804500,0,0,1,"-RA,FG"
2026-04-01 06:00:00,METAR RJOA 010600Z 14004KT 110V180 1400 R10/0400VP2000D -RA BCFG BR FEW000 SCT003 BKN005 10/10 Q1008,0,4,0,1400,0,0,1,"-RA,BC,BR,FG"
2026-04-01 05:00:00,METAR RJOA 010500Z 15004KT 110V190 9999 -RA FEW006 SCT010 BKN050 11/10 Q1009,0,4,0,10000,0,0,0,-RA
2026-04-01 04:00:00,METAR RJOA 010400Z 13003KT 080V150 9999 -RA FEW008 SCT015 BKN070 11/09 Q1010,0,3,0,10000,0,0,0,-RA
2026-04-01 03:00:00,METAR RJOA 010300Z 09005KT 030V130 9999 -RA FEW008 BKN010 BKN070 11/09 Q1011,0,5,0,10000,0,0,0,-RA
2026-04-01 02:00:00,METAR RJOA 010200Z 08006KT 9999 -RA FEW008 BKN010 OVC070 11/09 Q1012,0,6,0,10000,0,0,0,-RA
2026-04-01 01:00:00,METAR RJOA 010100Z 12005KT 080V140 9999 FEW007 BKN015 OVC070 11/09 Q1013,0,5,0,10000,0,0,0,
2026-04-01 00:00:00,METAR RJOA 010000Z 07007KT 9999 -RA FEW005 OVC080 11/09 Q1012,0,7,0,10000,0,0,0,-RA
2026-03-31 23:00:00,METAR RJOA 312300Z 33003KT 300V070 9999 -RA FEW025 OVC080 10/08 Q1013,0,3,0,9999,0,0,0,-RA
2026-03-31 22:30:00,METAR RJOA 312230Z VRB02KT 9999 -RA FEW020 BKN030 10/08 Q1013,0,2,0,9999,0,0,0,-RA
2026-03-31 22:00:00,METAR RJOA 312200Z AUTO VRB02KT 9999 -RA FEW028 SCT030 BKN080 10/08 Q1012,0,2,0,9999,0,0,0,-RA
2026-03-31 21:00:00,METAR RJOA 312100Z AUTO 05009KT 9999 NSC 10/07 Q1011,0,9,0,9999,0,0,0,
2026-03-31 20:00:00,METAR RJOA 312000Z AUTO 36007KT 330V030 9999 FEW031 SCT110 BKN120 11/07 Q1012,0,7,0,9999,0,0,0,
2026-03-31 19:00:00,METAR RJOA 311900Z AUTO 35007KT 9999 FEW025 BKN150 OVC160 11/07 Q1012,0,7,0,9999,0,0,0,
2026-03-31 18:00:00,METAR RJOA 311800Z AUTO 36007KT 9999 BKN030 BKN033 BKN150 11/07 Q1013,0,7,0,9999,0,0,0,
2026-03-31 17:00:00,METAR RJOA 311700Z AUTO 36007KT 9999 FEW030 BKN032 OVC033 11/07 Q1012,0,7,0,9999,0,0,0,
2026-03-31 16:00:00,METAR RJOA 311600Z AUTO 33005KT 9999 FEW023 SCT026 OVC027 11/08 Q1012,0,5,0,9999,0,0,0,
2026-03-31 15:00:00,METAR RJOA 311500Z AUTO 36004KT 330V040 9999 OVC023 11/08 Q1012,0,4,0,9999,0,0,0,
2026-03-31 14:00:00,METAR RJOA 311400Z AUTO 31003KT 270V350 9999 BKN020 OVC022 11/07 Q1012,0,3,0,9999,0,0,0,
2026-03-31 13:00:00,METAR RJOA 311300Z 32006KT 290V360 9999 SCT015 BKN020 11/08 Q1012,0,6,0,9999,0,0,0,
2026-03-31 12:00:00,METAR RJOA 311200Z 32011KT 290V350 9999 FEW015 BKN020 11/07 Q1011,0,11,0,9999,0,0,0,
2026-03-31 11:00:00,METAR RJOA 311100Z 32017G28KT 290V360 9999 FEW015 BKN020 11/07 Q1010,0,17,1,9999,0,0,0,
2026-03-31 10:00:00,METAR RJOA 311000Z 30021KT 9999 FEW015 SCT020 BKN025 12/08 Q1009,0,21,0,9999,0,0,0,
2026-03-31 09:00:00,METAR RJOA 310900Z 30016KT 270V340 9999 FEW020 BKN030 BKN/// 13/09 Q1008,0,16,0,9999,0,0,0,
2026-03-31 08:00:00,METAR RJOA 310800Z 32013KT 9999 FEW030 BKN035 BKN/// 16/10 Q1007,0,13,0,9999,0,0,0,
2026-03-31 07:00:00,METAR RJOA 310700Z 29022KT 9999 SCT035 BKN/// 19/10 Q1005,0,22,0,9999,0,0,0,
2026-03-31 06:00:00,METAR RJOA 310600Z 26019KT 9999 SCT035 SCT050 BKN/// 20/12 Q1004,0,19,0,9999,0,0,0,
2026-03-31 05:00:00,METAR RJOA 310500Z 26019G30KT 9999 FEW025 SCT030 BKN/// 19/13 Q1003,0,19,1,9999,0,0,0,
2026-03-31 04:00:00,METAR RJOA 310400Z 26015KT 220V290 9999 FEW015 BKN020 19/15 Q1003,0,15,0,9999,0,0,0,
2026-03-31 03:00:00,METAR RJOA 310300Z 25014G25KT 200V270 9999 FEW008 SCT010 BKN014 18/17 Q1003,0,14,1,9999,0,0,0,
2026-03-31 02:00:00,METAR RJOA 310200Z VRB03KT 9999 -SHRA FEW002 SCT004 BKN006 16/15 Q1002,0,3,0,9999,0,0,0,RA
2026-03-31 01:00:00,METAR RJOA 310100Z VRB02KT 7000 BCFG FEW000 SCT004 BKN006 15/15 Q1003,0,2,0,7000,0,0,1,"BC,FG"
2026-03-31 00:00:00,METAR RJOA 310000Z 11004KT 3000 R10/P2000N -SHRA BCFG BR FEW000 SCT002 BKN010 14/14 Q1003,0,4,0,3000,0,0,1,"BC,BR,FG,RA"
2026-03-30 23:00:00,METAR RJOA 302300Z VRB02KT 4000 -SHRA BCFG BR FEW000 SCT005 BKN010 14/13 Q1003,0,2,0,4000,0,0,1,"BC,BR,FG,RA"
2026-03-30 22:00:00,METAR RJOA 302200Z AUTO 09005KT 8000 FEW004 BKN013 OVC015 //////TCU 13/13 Q1003,0,5,0,8000,0,0,0,
2026-03-30 21:00:00,METAR RJOA 302100Z AUTO 08008KT 9000 -RA FEW005 BKN020 OVC023 //////TCU 13/12 Q1004,0,8,0,9000,0,0,0,-RA
2026-03-30 20:00:00,METAR RJOA 302000Z AUTO 08005KT 7000 RA SCT006 BKN008 BKN020 //////CB 13/13 Q1004,0,5,0,7000,0,0,0,RA
2026-03-30 19:00:00,METAR RJOA 301900Z AUTO 07012KT 9999 -RA BKN043 OVC045 //////TCU 13/12 Q1005,0,12,0,10000,0,0,0,-RA
2026-03-30 18:00:00,METAR RJOA 301800Z AUTO 09007KT 8000 -RA FEW010 SCT032 BKN033 //////TCU 13/12 Q1006,0,7,0,8000,0,0,0,-RA
2026-03-30 17:00:00,METAR RJOA 301700Z AUTO 11007KT 5000 -RA BR FEW016 BKN050 OVC080 //////TCU 12/12 Q1007,0,7,0,5000,0,0,1,"-RA,BR"
2026-03-30 16:00:00,METAR RJOA 301600Z AUTO 10006KT 070V130 8000 -RA FEW020 SCT033 OVC050 //////TCU 13/11 Q1009,0,6,0,8000,0,0,0,-RA
2026-03-30 15:00:00,METAR RJOA 301500Z AUTO 11006KT 9999 -RA FEW041 SCT043 BKN048 13/11 Q1010,0,6,0,10000,0,0,0,-RA
2026-03-30 14:00:00,METAR RJOA 301400Z AUTO 09009KT 9999 -RA FEW042 BKN048 OVC050 13/11 Q1012,0,9,0,10000,0,0,0,-RA
2026-03-30 13:00:00,METAR RJOA 301300Z 08009KT 4000 RA BR FEW010 BKN050 BKN070 13/12 Q1013,0,9,0,4000,0,0,1,"BR,RA"
2026-03-30 12:00:00,METAR RJOA 301200Z VRB02KT 7000 -RA FEW010 BKN050 BKN070 14/11 Q1015,0,2,0,7000,0,0,0,-RA
2026-03-30 11:00:00,METAR RJOA 301100Z VRB02KT 9999 -RA FEW015 BKN060 BKN080 14/11 Q1015,0,2,0,10000,0,0,0,-RA
2026-03-30 10:00:00,METAR RJOA 301000Z 11005KT 080V170 9999 -RA FEW025 BKN060 BKN080 17/09 Q1014,0,5,0,10000,0,0,0,-RA
2026-03-30 09:00:00,METAR RJOA 300900Z 14004KT 080V200 9999 FEW030 BKN060 BKN100 17/09 Q1014,0,4,0,10000,0,0,0,
2026-03-30 08:00:00,METAR RJOA 300800Z 12006KT 090V170 9999 FEW030 BKN060 BKN100 18/09 Q1014,0,6,0,10000,0,0,0,
2026-03-30 07:00:00,METAR RJOA 300700Z 11006KT 9999 FEW040 BKN/// 20/08 Q1014,0,6,0,10000,0,0,0,
2026-03-30 06:00:00,METAR RJOA 300600Z 12006KT 080V180 9999 FEW040 BKN/// 21/09 Q1015,0,6,0,10000,0,0,0,
2026-03-30 05:00:00,METAR RJOA 300500Z 12007KT 090V150 9999 FEW030 BKN/// 20/10 Q1015,0,7,0,10000,0,0,0,
2026-03-30 04:00:00,METAR RJOA 300400Z VRB03KT 9999 FEW030 BKN/// 21/10 Q1017,0,3,0,10000,0,0,0,
2026-03-30 03:00:00,METAR RJOA 300300Z 21006KT 140V280 9999 FEW025 BKN/// 19/10 Q1018,0,6,0,10000,0,0,0,
2026-03-30 02:00:00,METAR RJOA 300200Z 16004KT 100V230 9999 FEW025 BKN110 BKN/// 17/09 Q1019,0,4,0,10000,0,0,0,
2026-03-30 01:00:00,METAR RJOA 300100Z 11005KT 9999 SCT020 SCT120 BKN/// 16/07 Q1019,0,5,0,10000,0,0,0,
2026-03-30 00:00:00,METAR RJOA 300000Z 11004KT CAVOK 15/07 Q1019,1,0,0,9999,0,0,0,
2026-03-29 23:00:00,METAR RJOA 292300Z VRB01KT 9999 FEW010 BKN/// 15/07 Q1019,0,1,0,10000,0,0,0,
2026-03-29 22:00:00,METAR RJOA 292200Z AUTO 07003KT 9999 NSC 12/05 Q1018,0,3,0,10000,0,0,0,
2026-03-29 21:00:00,METAR RJOA 292100Z AUTO 05002KT 9999 NCD 11/05 Q1018,0,2,0,10000,0,0,0,
2026-03-29 20:00:00,METAR RJOA 292000Z AUTO 08003KT 9999 NSC 11/05 Q1018,0,3,0,10000,0,0,0,
2026-03-29 19:00:00,METAR RJOA 291900Z AUTO 35001KT 9999 NSC 12/05 Q1018,0,1,0,10000,0,0,0,
2026-03-29 18:00:00,METAR RJOA 291800Z AUTO 31003KT 9999 NCD 11/05 Q1017,0,3,0,10000,0,0,0,
2026-03-29 17:00:00,METAR RJOA 291700Z AUTO 31003KT 9999 NCD 11/05 Q1017,0,3,0,10000,0,0,0,
2026-03-29 16:00:00,METAR RJOA 291600Z AUTO 34002KT 9999 NCD 11/05 Q1017,0,2,0,10000,0,0,0,
2026-03-29 15:00:00,METAR RJOA 291500Z AUTO 33001KT 9999 NCD 12/05 Q1018,0,1,0,10000,0,0,0,
2026-03-29 14:00:00,METAR RJOA 291400Z AUTO 31002KT 9999 NSC 12/05 Q1017,0,2,0,10000,0,0,0,
2026-03-29 13:00:00,METAR RJOA 291300Z 33001KT CAVOK 13/05 Q1017,1,0,0,9999,0,0,0,
2026-03-29 12:00:00,METAR RJOA 291200Z 01001KT CAVOK 14/05 Q1017,1,0,0,9999,0,0,0,
2026-03-29 11:00:00,METAR RJOA 291100Z 00000KT CAVOK 14/05 Q1017,1,0,0,9999,0,0,0,
2026-03-29 10:00:00,METAR RJOA 291000Z VRB02KT CAVOK 14/05 Q1016,1,0,0,9999,0,0,0,
2026-03-29 09:00:00,METAR RJOA 290900Z 13004KT 110V170 CAVOK 16/05 Q1016,1,0,0,9999,0,0,0,
2026-03-29 08:00:00,METAR RJOA 290800Z 20005KT 160V230 9999 FEW040 BKN/// 18/03 Q1015,0,5,0,10000,0,0,0,
2026-03-29 07:00:00,METAR RJOA 290700Z 20006KT 140V240 9999 FEW040 BKN/// 20/05 Q1015,0,6,0,10000,0,0,0,
2026-03-29 06:00:00,METAR RJOA 290600Z 20007KT 160V240 9999 FEW040 BKN/// 20/05 Q1015,0,7,0,10000,0,0,0,
2026-03-29 05:00:00,METAR RJOA 290500Z 19005KT 130V300 CAVOK 19/05 Q1015,1,0,0,9999,0,0,0,
2026-03-29 04:00:00,METAR RJOA 290400Z 12004KT 080V180 CAVOK 19/05 Q1016,1,0,0,9999,0,0,0,
2026-03-29 03:00:00,METAR RJOA 290300Z 10005KT 040V160 CAVOK 18/03 Q1016,1,0,0,9999,0,0,0,
2026-03-29 02:00:00,METAR RJOA 290200Z 11004KT 060V140 CAVOK 17/05 Q1017,1,0,0,9999,0,0,0,
2026-03-29 01:00:00,METAR RJOA 290100Z VRB02KT CAVOK 16/03 Q1017,1,0,0,9999,0,0,0,
2026-03-29 00:00:00,METAR RJOA 290000Z 08005KT CAVOK 15/03 Q1017,1,0,0,9999,0,0,0,
2026-03-28 23:00:00,METAR RJOA 282300Z 30003KT 260V330 CAVOK 13/01 Q1017,1,0,0,9999,0,0,0,
2026-03-28 22:00:00,METAR RJOA 282200Z AUTO 30003KT 9999 NCD 11/02 Q1017,0,3,0,10000,0,0,0,
2026-03-28 21:00:00,METAR RJOA 282100Z AUTO VRB02KT 9999 NCD 10/02 Q1016,0,2,0,10000,0,0,0,
2026-03-28 20:00:00,METAR RJOA 282000Z AUTO 29003KT 9999 NCD 09/02 Q1015,0,3,0,10000,0,0,0,
2026-03-28 19:00:00,METAR RJOA 281900Z AUTO 28003KT 9999 NCD 10/02 Q1015,0,3,0,10000,0,0,0,
2026-03-28 18:00:00,METAR RJOA 281800Z AUTO 29004KT 9999 NCD 10/02 Q1015,0,4,0,10000,0,0,0,
2026-03-28 17:00:00,METAR RJOA 281700Z AUTO 29006KT 9999 NCD 12/02 Q1015,0,6,0,10000,0,0,0,
2026-03-28 16:00:00,METAR RJOA 281600Z AUTO 29006KT 9999 NCD 12/02 Q1015,0,6,0,10000,0,0,0,
2026-03-28 15:00:00,METAR RJOA 281500Z AUTO 32004KT 9999 NCD 11/05 Q1016,0,4,0,10000,0,0,0,
2026-03-28 14:00:00,METAR RJOA 281400Z AUTO VRB02KT 9999 NCD 11/06 Q1016,0,2,0,10000,0,0,0,
2026-03-28 13:00:00,METAR RJOA 281300Z 29006KT CAVOK 12/06 Q1016,1,0,0,9999,0,0,0,
2026-03-28 12:00:00,METAR RJOA 281200Z VRB06KT CAVOK 13/07 Q1015,1,0,0,9999,0,0,0,
2026-03-28 11:00:00,METAR RJOA 281100Z 31006KT 9999 FEW030 14/09 Q1014,0,6,0,10000,0,0,0,
2026-03-28 10:00:00,METAR RJOA 281000Z 28004KT 220V350 9999 FEW030 16/08 Q1014,0,4,0,10000,0,0,0,
2026-03-28 09:00:00,METAR RJOA 280900Z 04007KT 9999 FEW025 16/07 Q1013,0,7,0,10000,0,0,0,
2026-03-28 08:00:00,METAR RJOA 280800Z 20003KT 140V250 9999 FEW030CB SCT/// 18/04 Q1012,0,3,0,10000,0,0,0,
2026-03-28 07:00:00,METAR RJOA 280700Z 20007KT 160V240 9999 TS FEW030CB BKN/// 19/06 Q1012,0,7,0,10000,1,0,0,TS
2026-03-28 06:00:00,METAR RJOA 280600Z 19008KT 150V230 9999 FEW040 BKN/// 19/06 Q1012,0,8,0,10000,0,0,0,
2026-03-28 05:00:00,METAR RJOA 280500Z 20007KT 150V240 9999 FEW040 BKN/// 19/07 Q1012,0,7,0,10000,0,0,0,
2026-03-28 04:00:00,METAR RJOA 280400Z 19006KT 130V230 9999 FEW040 BKN/// 18/06 Q1013,0,6,0,10000,0,0,0,
2026-03-28 03:00:00,METAR RJOA 280300Z VRB05KT CAVOK 18/07 Q1013,1,0,0,9999,0,0,0,
2026-03-28 02:00:00,METAR RJOA 280200Z VRB04KT CAVOK 17/05 Q1014,1,0,0,9999,0,0,0,
2026-03-28 01:00:00,METAR RJOA 280100Z 28007KT 230V310 CAVOK 16/04 Q1014,1,0,0,9999,0,0,0,
2026-03-28 00:00:00,METAR RJOA 280000Z 28003KT 250V340 CAVOK 14/04 Q1014,1,0,0,9999,0,0,0,
2026-03-27 23:00:00,METAR RJOA 272300Z VRB01KT CAVOK 13/04 Q1014,1,0,0,9999,0,0,0,
2026-03-27 22:00:00,METAR RJOA 272200Z AUTO 04002KT 9999 NCD 10/03 Q1013,0,2,0,10000,0,0,0,
2026-03-27 21:00:00,METAR RJOA 272100Z AUTO 05002KT 9999 NSC 09/03 Q1013,0,2,0,10000,0,0,0,
2026-03-27 20:00:00,METAR RJOA 272000Z AUTO 01002KT 9999 FEW049 BKN050 BKN240 09/03 Q1013,0,2,0,10000,0,0,0,
2026-03-27 19:00:00,METAR RJOA 271900Z AUTO VRB01KT 9999 FEW047 09/03 Q1012,0,1,0,10000,0,0,0,
2026-03-27 18:00:00,METAR RJOA 271800Z AUTO VRB02KT 9999 NCD 10/03 Q1012,0,2,0,10000,0,0,0,
2026-03-27 17:00:00,METAR RJOA 271700Z AUTO 00000KT 9999 NCD 10/02 Q1013,0,0,0,10000,0,0,0,
2026-03-27 16:00:00,METAR RJOA 271600Z AUTO VRB01KT 9999 NCD 11/03 Q1013,0,1,0,10000,0,0,0,
2026-03-25 15:00:00,METAR RJOA 251500Z AUTO 02007KT 9999 FEW015 SCT070 BKN100 09/07 Q1010,0,7,0,10000,0,0,0,
2026-03-25 14:00:00,METAR RJOA 251400Z AUTO 36007KT 9999 -RA SCT018 BKN022 OVC028 09/07 Q1010,0,7,0,10000,0,0,0,-RA
2026-03-25 13:00:00,METAR RJOA 251300Z 36007KT 9999 -RA BCFG FEW000 SCT015 BKN030 09/07 Q1010,0,7,0,10000,0,0,1,"-RA,BC,FG"
2026-03-25 12:00:00,METAR RJOA 251200Z 02008KT 8000 -RA BCFG FEW000 SCT020 BKN030 08/07 Q1010,0,8,0,8000,0,0,1,"-RA,BC,FG"
2026-03-25 11:00:00,METAR RJOA 251100Z 02003KT 330V080 7000 RA BCFG FEW000 SCT010 BKN030 08/07 Q1010,0,3,0,7000,0,0,1,"BC,FG,RA"
2026-03-25 10:00:00,METAR RJOA 251000Z 06007KT 7000 -RA BCFG FEW000 SCT010 BKN040 08/07 Q1010,0,7,0,7000,0,0,1,"-RA,BC,FG"
2026-03-25 09:00:00,METAR RJOA 250900Z 06009KT 7000 -RA BCFG FEW000 SCT010 BKN045 08/07 Q1009,0,9,0,7000,0,0,1,"-RA,BC,FG"
2026-03-25 08:00:00,METAR RJOA 250800Z 07013KT 8000 -RA BCFG FEW000 BKN010 BKN045 08/07 Q1009,0,13,0,8000,0,0,1,"-RA,BC,FG"
2026-03-25 07:00:00,METAR RJOA 250700Z 07014KT 8000 -RA BCFG FEW000 BKN010 BKN050 09/08 Q1009,0,14,0,8000,0,0,1,"-RA,BC,FG"
2026-03-25 06:00:00,METAR RJOA 250600Z 07013KT 9999 -RA FEW005 BKN010 BKN060 10/08 Q1009,0,13,0,10000,0,0,0,-RA
2026-03-25 05:00:00,METAR RJOA 250500Z 07014KT 9999 -RA BCFG FEW000 SCT010 BKN060 10/08 Q1010,0,14,0,10000,0,0,1,"-RA,BC,FG"
2026-03-25 04:00:00,METAR RJOA 250400Z 07016KT 8000 -RA BCFG FEW000 BKN015 BKN060 10/09 Q1011,0,16,0,8000,0,0,1,"-RA,BC,FG"
2026-03-25 03:00:00,METAR RJOA 250300Z 07011KT 6000 -RA BCFG FEW000 SCT025 BKN060 10/08 Q1012,0,11,0,6000,0,0,1,"-RA,BC,FG"
2026-03-25 02:00:00,METAR RJOA 250200Z 07009KT 6000 -RA BCFG FEW000 SCT050 BKN080 09/08 Q1013,0,9,0,6000,0,0,1,"-RA,BC,FG"
2026-03-25 01:00:00,METAR RJOA 250100Z 07010KT 6000 -RA BCFG FEW000 SCT050 BKN080 08/07 Q1014,0,10,0,6000,0,0,1,"-RA,BC,FG"
2026-03-25 00:00:00,METAR RJOA 250000Z 07009KT 7000 -RA BCFG FEW025 SCT035 BKN045 08/07 Q1014,0,9,0,7000,0,0,1,"-RA,BC,FG"
2026-03-24 23:00:00,METAR RJOA 242300Z 05009KT 8000 -RA FEW030 SCT045 BKN070 07/06 Q1014,0,9,0,8000,0,0,0,-RA
2026-03-24 22:00:00,METAR RJOA 242200Z AUTO 06008KT 9999 -RA OVC040 07/04 Q1014,0,8,0,10000,0,0,0,-RA
2026-03-24 21:00:00,METAR RJOA 242100Z AUTO 06009KT 9999 -RA OVC039 08/03 Q1014,0,9,0,10000,0,0,0,-RA
2026-03-24 20:00:00,METAR RJOA 242000Z AUTO 06009KT 9999 -RA OVC038 09/02 Q1013,0,9,0,10000,0,0,0,-RA
2026-03-24 19:00:00,METAR RJOA 241900Z AUTO 06009KT 9999 BKN035 BKN038 OVC050 10/M01 Q1013,0,9,0,10000,0,0,0,
2026-03-24 18:00:00,METAR RJOA 241800Z AUTO 06008KT 9999 BKN036 OVC050 10/M01 Q1014,0,8,0,10000,0,0,0,
2026-03-24 17:00:00,METAR RJOA 241700Z AUTO 07008KT 9999 BKN036 BKN042 OVC050 11/M03 Q1015,0,8,0,10000,0,0,0,
2026-03-24 16:00:00,METAR RJOA 241600Z AUTO 05005KT 9999 BKN033 OVC100 11/M02 Q1015,0,5,0,10000,0,0,0,
2026-03-24 15:00:00,METAR RJOA 241500Z AUTO 06004KT 9999 FEW032 BKN040 BKN120 11/M00 Q1016,0,4,0,10000,0,0,0,
2026-03-24 14:00:00,METAR RJOA 241400Z AUTO 06005KT 9999 FEW030 SCT046 BKN130 10/01 Q1016,0,5,0,10000,0,0,0,
2026-03-24 13:00:00,METAR RJOA 241300Z VRB01KT 9999 FEW025 BKN160 11/02 Q1017,0,1,0,10000,0,0,0,
2026-03-24 12:00:00,METAR RJOA 241200Z 09006KT CAVOK 11/00 Q1017,1,0,0,9999,0,0,0,
2026-03-24 11:00:00,METAR RJOA 241100Z 09005KT 080V140 CAVOK 11/02 Q1017,1,0,0,9999,0,0,0,
2026-03-24 10:00:00,METAR RJOA 241000Z VRB02KT CAVOK 11/M01 Q1016,1,0,0,9999,0,0,0,
2026-03-24 09:00:00,METAR RJOA 240900Z 13004KT 090V170 9999 FEW030 BKN170 13/M03 Q1016,0,4,0,10000,0,0,0,
2026-03-24 08:00:00,METAR RJOA 240800Z 13005KT 100V170 9999 FEW030 BKN/// 15/M05 Q1016,0,5,0,10000,0,0,0,
2026-03-24 07:00:00,METAR RJOA 240700Z 14004KT 090V210 9999 FEW030 SCT180 BKN/// 15/M05 Q1016,0,4,0,10000,0,0,0,
2026-03-24 06:00:00,METAR RJOA 240600Z 12006KT 080V160 9999 FEW030 BKN180 BKN/// 15/M06 Q1016,0,6,0,10000,0,0,0,
2026-03-24 05:00:00,METAR RJOA 240500Z 16005KT 090V230 9999 FEW030 BKN/// 15/M03 Q1017,0,5,0,10000,0,0,0,
2026-03-24 04:00:00,METAR RJOA 240400Z 11007KT 060V180 CAVOK 15/M02 Q1018,1,0,0,9999,0,0,0,
2026-03-24 03:00:00,METAR RJOA 240300Z 14007KT 080V210 CAVOK 14/M04 Q1018,1,0,0,9999,0,0,0,
2026-03-24 02:00:00,METAR RJOA 240200Z 11006KT 080V200 CAVOK 13/M02 Q1019,1,0,0,9999,0,0,0,
2026-03-24 01:00:00,METAR RJOA 240100Z VRB03KT CAVOK 11/01 Q1020,1,0,0,9999,0,0,0,
2026-03-24 00:00:00,METAR RJOA 240000Z 07006KT 020V110 CAVOK 09/00 Q1020,1,0,0,9999,0,0,0,
2026-03-23 23:00:00,METAR RJOA 232300Z VRB01KT CAVOK 08/01 Q1020,1,0,0,9999,0,0,0,
2026-03-23 22:00:00,METAR RJOA 232200Z AUTO 03005KT 9999 NCD 07/03 Q1019,0,5,0,10000,0,0,0,
2026-03-23 21:00:00,METAR RJOA 232100Z AUTO 05004KT 9999 NCD 05/03 Q1019,0,4,0,10000,0,0,0,
2026-03-23 20:00:00,METAR RJOA 232000Z AUTO 02005KT 9999 NCD 06/03 Q1019,0,5,0,10000,0,0,0,
2026-03-23 19:00:00,METAR RJOA 231900Z AUTO 02007KT 9999 NCD 06/04 Q1019,0,7,0,10000,0,0,0,
2026-03-23 18:00:00,METAR RJOA 231800Z AUTO 06003KT 9999 NCD 06/04 Q1019,0,3,0,10000,0,0,0,
2026-03-23 17:00:00,METAR RJOA 231700Z AUTO VRB02KT 9999 NSC 07/04 Q1019,0,2,0,10000,0,0,0,
2026-03-23 16:00:00,METAR RJOA 231600Z AUTO 01004KT 340V080 9999 NCD 08/04 Q1019,0,4,0,10000,0,0,0,
2026-03-23 15:00:00,METAR RJOA 231500Z AUTO 34006KT 9999 NCD 08/04 Q1019,0,6,0,10000,0,0,0,
2026-03-23 14:00:00,METAR RJOA 231400Z AUTO 32005KT 9999 NCD 09/03 Q1019,0,5,0,10000,0,0,0,
2026-03-23 13:00:00,METAR RJOA 231300Z 36012KT 9999 FEW030 09/03 Q1019,0,12,0,10000,0,0,0,
2026-03-23 12:00:00,METAR RJOA 231200Z 33007KT 9999 FEW030 11/02 Q1018,0,7,0,10000,0,0,0,
2026-03-23 11:00:00,METAR RJOA 231100Z 33007KT 300V360 9999 FEW030 12/04 Q1018,0,7,0,10000,0,0,0,
2026-03-23 10:00:00,METAR RJOA 231000Z 33011KT 9999 FEW030 SCT/// 13/02 Q1017,0,11,0,10000,0,0,0,
2026-03-23 09:00:00,METAR RJOA 230900Z 32008KT 290V350 9999 FEW030 SCT/// 15/00 Q1016,0,8,0,10000,0,0,0,
2026-03-23 08:00:00,METAR RJOA 230800Z 32012KT 280V350 9999 FEW040 17/01 Q1016,0,12,0,10000,0,0,0,
2026-03-23 07:00:00,METAR RJOA 230700Z 30013KT 270V350 9999 FEW040 SCT/// 17/01 Q1015,0,13,0,10000,0,0,0,
2026-03-23 06:00:00,METAR RJOA 230600Z 34012KT 280V020 9999 SCT040 BKN/// 18/02 Q1015,0,12,0,10000,0,0,0,
2026-03-23 05:00:00,METAR RJOA 230500Z 33011KT 290V020 9999 FEW040 17/03 Q1015,0,11,0,10000,0,0,0,
2026-03-23 04:00:00,METAR RJOA 230400Z 32008KT 270V070 9999 FEW030 SCT040 16/06 Q1016,0,8,0,10000,0,0,0,
2026-03-23 03:00:00,METAR RJOA 230300Z VRB03KT 9999 FEW025 BKN030 15/05 Q1016,0,3,0,10000,0,0,0,
2026-03-23 02:00:00,METAR RJOA 230200Z 27005KT 240V310 9999 FEW020 BKN025 13/08 Q1017,0,5,0,10000,0,0,0,
2026-03-23 01:00:00,METAR RJOA 230100Z VRB02KT 9999 FEW015 BKN025 12/08 Q1017,0,2,0,10000,0,0,0,
2026-03-23 00:00:00,METAR RJOA 230000Z VRB02KT 9999 FEW003 SCT010 10/09 Q1017,0,2,0,10000,0,0,0,
2026-03-22 23:00:00,METAR RJOA 222300Z VRB02KT 4500 BCFG BR FEW000 BKN060 09/08 Q1017,0,2,0,4500,0,0,1,"BC,BR,FG"
2026-03-22 22:00:00,METAR RJOA 222200Z AUTO VRB01KT 9999 SCT039 OVC060 08/07 Q1017,0,1,0,10000,0,0,0,
2026-03-22 21:00:00,METAR RJOA 222100Z AUTO 28003KT 5000 BR SCT040 OVC060 08/07 Q1016,0,3,0,5000,0,0,1,BR
2026-03-22 20:00:00,METAR RJOA 222000Z AUTO 34003KT 9999 NSC 08/07 Q1016,0,3,0,10000,0,0,0,
2026-03-22 19:00:00,METAR RJOA 221900Z AUTO 36004KT 9999 BKN049 OVC100 08/07 Q1016,0,4,0,10000,0,0,0,
2026-03-22 18:00:00,METAR RJOA 221800Z AUTO 03003KT 9999 -RA FEW007 BKN100 BKN110 08/08 Q1016,0,3,0,10000,0,0,0,-RA
2026-03-22 17:00:00,METAR RJOA 221700Z AUTO 10005KT 9999 BKN011 BKN090 OVC100 08/08 Q1017,0,5,0,10000,0,0,0,
2026-03-22 16:00:00,METAR RJOA 221600Z AUTO 07005KT 360V110 0200 R28/0150N FG OVC000 08/08 Q1017,0,5,0,321800,0,0,1,FG
2026-03-22 15:00:00,METAR RJOA 221500Z AUTO 12004KT 0000 R28/0550V1500D -RA FG BKN000 OVC090 07/07 Q1018,0,4,0,0,0,0,1,"-RA,FG"
2026-03-22 14:00:00,METAR RJOA 221400Z AUTO 12004KT 0100 R28/0225V0900D -RA FG NSC 08/07 Q1019,0,4,0,160900,0,0,1,"-RA,FG"
2026-03-22 13:00:00,METAR RJOA 221300Z VRB01KT 2000 -RA BCFG BR FEW000 BKN050 BKN070 08/07 Q1019,0,1,0,2000,0,0,1,"-RA,BC,BR,FG"
2026-03-22 12:00:00,METAR RJOA 221200Z 08005KT 4500 -RA BR FEW003 BKN050 BKN070 08/07 Q1019,0,5,0,4500,0,0,1,"-RA,BR"
2026-03-22 11:00:00,METAR RJOA 221100Z 32003KT 290V360 4000 -RA BR FEW005 BKN050 BKN070 08/07 Q1020,0,3,0,4000,0,0,1,"-RA,BR"
2026-03-22 10:00:00,METAR RJOA 221000Z VRB02KT 4500 -RA BR FEW005 SCT025 BKN050 08/07 Q1020,0,2,0,4500,0,0,1,"-RA,BR"
2026-03-22 09:00:00,METAR RJOA 220900Z VRB02KT 7000 -RA FEW025 SCT035 BKN050 08/06 Q1020,0,2,0,7000,0,0,0,-RA
2026-03-22 08:00:00,METAR RJOA 220800Z VRB02KT 9999 -RA FEW030 SCT040 BKN060 10/07 Q1019,0,2,0,10000,0,0,0,-RA
2026-03-22 07:00:00,METAR RJOA 220700Z 09005KT 060V140 9999 -RA FEW030 SCT040 BKN060 11/04 Q1018,0,5,0,10000,0,0,0,-RA
2026-03-22 06:00:00,METAR RJOA 220600Z 04005KT 9999 FEW030 SCT040 BKN050 11/06 Q1018,0,5,0,10000,0,0,0,
2026-03-22 05:00:00,METAR RJOA 220500Z 07005KT 9999 -RA FEW015 SCT030 BKN060 10/05 Q1019,0,5,0,10000,0,0,0,-RA
2026-03-22 04:00:00,METAR RJOA 220400Z 13005KT 100V190 9999 FEW035 SCT090 BKN150 12/00 Q1020,0,5,0,10000,0,0,0,
2026-03-22 03:00:00,METAR RJOA 220300Z 12006KT 090V170 9999 FEW030 SCT050 BKN070 12/01 Q1021,0,6,0,10000,0,0,0,
2026-03-22 02:00:00,METAR RJOA 220200Z 12003KT 9999 FEW025 BKN035 BKN/// 11/00 Q1022,0,3,0,10000,0,0,0,
2026-03-22 01:00:00,METAR RJOA 220100Z VRB02KT 9999 FEW030 SCT140 BKN/// 09/M01 Q1022,0,2,0,10000,0,0,0,
2026-03-22 00:00:00,METAR RJOA 220000Z 13003KT 9999 FEW030 BKN070 BKN/// 09/M02 Q1022,0,3,0,10000,0,0,0,
2026-03-21 23:00:00,METAR RJOA 212300Z 12003KT 9999 FEW030 BKN/// 08/M03 Q1022,0,3,0,10000,0,0,0,
2026-03-21 22:00:00,METAR RJOA 212200Z AUTO 06007KT 9999 NSC 07/M02 Q1022,0,7,0,10000,0,0,0,
2026-03-21 21:00:00,METAR RJOA 212100Z AUTO 34001KT 9999 BKN023 BKN210 OVC230 06/M02 Q1022,0,1,0,10000,0,0,0,
2026-03-21 20:00:00,METAR RJOA 212000Z AUTO 06002KT 9999 BKN027 07/M02 Q1022,0,2,0,10000,0,0,0,
2026-03-21 19:00:00,METAR RJOA 211900Z AUTO 00000KT 9999 BKN026 07/M01 Q1022,0,0,0,10000,0,0,0,
2026-03-21 18:00:00,METAR RJOA 211800Z AUTO 09001KT 9999 BKN026 07/M02 Q1022,0,1,0,10000,0,0,0,
2026-03-21 17:00:00,METAR RJOA 211700Z AUTO 00000KT 9999 NCD 06/M03 Q1022,0,0,0,10000,0,0,0,
2026-03-21 16:00:00,METAR RJOA 211600Z AUTO 06003KT 9999 NCD 06/M03 Q1022,0,3,0,10000,0,0,0,
2026-03-21 14:00:00,METAR RJOA 211400Z AUTO 33004KT 9999 NCD 07/M04 Q1023,0,4,0,10000,0,0,0,
2026-03-21 13:00:00,METAR RJOA 211300Z 07002KT CAVOK 08/M05 Q1023,1,0,0,9999,0,0,0,
2026-03-21 12:00:00,METAR RJOA 211200Z 09003KT CAVOK 08/M04 Q1023,1,0,0,9999,0,0,0,
2026-03-21 11:00:00,METAR RJOA 211100Z VRB02KT CAVOK 09/M01 Q1023,1,0,0,9999,0,0,0,
2026-03-21 10:00:00,METAR RJOA 211000Z VRB02KT CAVOK 09/M02 Q1023,1,0,0,9999,0,0,0,
2026-03-21 09:00:00,METAR RJOA 210900Z 15003KT CAVOK 11/M04 Q1022,1,0,0,9999,0,0,0,
2026-03-21 08:00:00,METAR RJOA 210800Z 16005KT 120V210 CAVOK 13/M08 Q1022,1,0,0,9999,0,0,0,
2026-03-21 07:00:00,METAR RJOA 210700Z 12005KT 080V230 CAVOK 13/M07 Q1022,1,0,0,9999,0,0,0,
2026-03-21 06:00:00,METAR RJOA 210600Z 13006KT 080V190 CAVOK 13/M07 Q1022,1,0,0,9999,0,0,0,
2026-03-21 05:00:00,METAR RJOA 210500Z VRB05KT CAVOK 13/M05 Q1023,1,0,0,9999,0,0,0,
2026-03-21 04:00:00,METAR RJOA 210400Z VRB04KT CAVOK 12/M05 Q1024,1,0,0,9999,0,0,0,
2026-03-21 03:00:00,METAR RJOA 210300Z VRB03KT CAVOK 11/M05 Q1024,1,0,0,9999,0,0,0,
2026-03-21 02:00:00,METAR RJOA 210200Z VRB03KT CAVOK 10/M06 Q1025,1,0,0,9999,0,0,0,
2026-03-21 01:00:00,METAR RJOA 210100Z VRB05KT CAVOK 08/M05 Q1025,1,0,0,9999,0,0,0,
2026-03-21 00:00:00,METAR RJOA 210000Z 12006KT 080V170 CAVOK 08/M02 Q1025,1,0,0,9999,0,0,0,
2026-03-20 23:00:00,METAR RJOA 202300Z 07009KT CAVOK 06/M05 Q1024,1,0,0,9999,0,0,0,
2026-03-20 22:00:00,METAR RJOA 202200Z AUTO 05005KT 9999 NCD 04/M02 Q1024,0,5,0,10000,0,0,0,
2026-03-20 21:00:00,METAR RJOA 202100Z AUTO 06004KT 9999 NCD 03/M01 Q1023,0,4,0,10000,0,0,0,
2026-03-20 19:00:00,METAR RJOA 201900Z AUTO 04006KT 9999 NCD 05/M02 Q1022,0,6,0,10000,0,0,0,
2026-03-20 18:00:00,METAR RJOA 201800Z AUTO 05006KT 9999 NCD 05/M00 Q1022,0,6,0,10000,0,0,0,
2026-03-20 17:00:00,METAR RJOA 201700Z AUTO 05005KT 9999 NCD 05/00 Q1022,0,5,0,10000,0,0,0,
2026-03-20 16:00:00,METAR RJOA 201600Z AUTO 02004KT 9999 NCD 06/M01 Q1022,0,4,0,10000,0,0,0,
2026-03-20 15:00:00,METAR RJOA 201500Z AUTO 01003KT 9999 NCD 07/M01 Q1022,0,3,0,10000,0,0,0,
2026-03-20 14:00:00,METAR RJOA 201400Z AUTO VRB02KT 9999 NSC 07/M02 Q1022,0,2,0,10000,0,0,0,
2026-03-20 13:00:00,METAR RJOA 201300Z 33008KT CAVOK 08/M02 Q1021,1,0,0,9999,0,0,0,
2026-03-20 12:00:00,METAR RJOA 201200Z 33007KT CAVOK 08/M04 Q1020,1,0,0,9999,0,0,0,
2026-03-20 11:00:00,METAR RJOA 201100Z 33004KT 290V360 CAVOK 10/M09 Q1020,1,0,0,9999,0,0,0,
2026-03-20 10:00:00,METAR RJOA 201000Z 31010KT CAVOK 10/M09 Q1018,1,0,0,9999,0,0,0,
2026-03-20 09:00:00,METAR RJOA 200900Z 34009KT 9999 FEW040 BKN/// 12/M08 Q1017,0,9,0,10000,0,0,0,
2026-03-20 08:00:00,METAR RJOA 200800Z 32014KT 9999 FEW040 BKN/// 14/M07 Q1017,0,14,0,10000,0,0,0,
2026-03-20 07:00:00,METAR RJOA 200700Z VRB04KT 9999 FEW040 SCT/// 14/04 Q1016,0,4,0,10000,0,0,0,
2026-03-20 06:00:00,METAR RJOA 200600Z 27006KT 220V360 9999 FEW040 14/02 Q1015,0,6,0,10000,0,0,0,
2026-03-20 05:00:00,METAR RJOA 200500Z VRB07KT 9999 FEW040 14/M01 Q1015,0,7,0,10000,0,0,0,
2026-03-20 04:00:00,METAR RJOA 200400Z 26009KT 210V310 9999 FEW035 BKN/// 14/01 Q1016,0,9,0,10000,0,0,0,
2026-03-20 03:00:00,METAR RJOA 200300Z 29009KT 230V350 9999 FEW035 SCT140 BKN/// 12/02 Q1017,0,9,0,10000,0,0,0,
2026-03-20 02:00:00,METAR RJOA 200200Z VRB04KT 9999 FEW025 SCT030 BKN130 10/03 Q1017,0,4,0,10000,0,0,0,
2026-03-20 01:00:00,METAR RJOA 200100Z 22004KT 180V270 9999 FEW030 SCT140 BKN/// 10/04 Q1017,0,4,0,10000,0,0,0,
2026-03-20 00:00:00,METAR RJOA 200000Z VRB04KT CAVOK 08/04 Q1017,1,0,0,9999,0,0,0,
2026-03-19 23:00:00,METAR RJOA 192300Z VRB02KT 9999 PRFG FEW000 SCT/// 07/04 Q1016,0,2,0,10000,0,0,1,FG
2026-03-19 22:00:00,METAR RJOA 192200Z AUTO 00000KT 9999 NSC 04/02 Q1016,0,0,0,10000,0,0,0,
2026-03-19 21:00:00,METAR RJOA 192100Z AUTO VRB01KT 9999 NSC 04/02 Q1016,0,1,0,10000,0,0,0,
2026-03-19 20:00:00,METAR RJOA 192000Z AUTO VRB01KT 9999 NCD 04/02 Q1016,0,1,0,10000,0,0,0,
2026-03-19 19:00:00,METAR RJOA 191900Z AUTO VRB02KT 9999 NCD 04/02 Q1016,0,2,0,10000,0,0,0,
2026-03-19 18:00:00,METAR RJOA 191800Z AUTO 06003KT 9999 NCD 04/02 Q1015,0,3,0,10000,0,0,0,
2026-03-19 17:00:00,METAR RJOA 191700Z AUTO 32005KT 9999 NCD 04/02 Q1016,0,5,0,10000,0,0,0,
2026-03-19 16:00:00,METAR RJOA 191600Z AUTO 33005KT 9999 NCD 06/03 Q1016,0,5,0,10000,0,0,0,
2026-03-19 15:00:00,METAR RJOA 191500Z AUTO 04004KT 9999 NCD 06/02 Q1016,0,4,0,10000,0,0,0,
2026-03-19 14:00:00,METAR RJOA 191400Z AUTO 02005KT 9999 NCD 07/02 Q1015,0,5,0,10000,0,0,0,
2026-03-19 13:00:00,METAR RJOA 191300Z VRB01KT 9999 FEW040 07/02 Q1015,0,1,0,10000,0,0,0,
2026-03-19 12:00:00,METAR RJOA 191200Z VRB01KT 9999 FEW040 09/02 Q1014,0,1,0,10000,0,0,0,
2026-03-19 11:00:00,METAR RJOA 191100Z 36005KT 9999 FEW040 09/02 Q1014,0,5,0,10000,0,0,0,
2026-03-19 10:00:00,METAR RJOA 191000Z 36003KT 9999 FEW040 10/03 Q1014,0,3,0,10000,0,0,0,
2026-03-19 09:00:00,METAR RJOA 190900Z 36007KT 9999 FEW030 SCT040 11/03 Q1013,0,7,0,10000,0,0,0,
2026-03-19 08:00:00,METAR RJOA 190800Z 35008G19KT 300V050 9999 FEW030 SCT040 12/02 Q1013,0,8,1,10000,0,0,0,
2026-03-19 07:00:00,METAR RJOA 190700Z 33009KT 290V360 9999 FEW030 SCT040 BKN050 12/03 Q1013,0,9,0,10000,0,0,0,
2026-03-19 06:00:00,METAR RJOA 190600Z 01008KT 9999 FEW030 BKN040 12/02 Q1012,0,8,0,10000,0,0,0,
2026-03-19 05:00:00,METAR RJOA 190500Z 36009KT 310V050 9999 FEW030 BKN040 13/04 Q1012,0,9,0,10000,0,0,0,
2026-03-19 04:00:00,METAR RJOA 190400Z 34011KT 290V020 9999 FEW030 SCT035 13/03 Q1013,0,11,0,10000,0,0,0,
2026-03-19 03:00:00,METAR RJOA 190300Z 34011KT 280V030 9999 FEW030 SCT035 12/04 Q1013,0,11,0,10000,0,0,0,
2026-03-19 02:00:00,METAR RJOA 190200Z 31012G22KT 280V350 9999 FEW020 SCT025 12/05 Q1013,0,12,1,10000,0,0,0,
2026-03-19 01:00:00,METAR RJOA 190100Z 35014KT 9999 FEW010 SCT015 10/06 Q1013,0,14,0,10000,0,0,0,
2026-03-19 00:00:00,METAR RJOA 190000Z 33013KT 9999 FEW010 SCT015 BKN060 10/07 Q1013,0,13,0,10000,0,0,0,
2026-03-18 23:00:00,METAR RJOA 182300Z 31008KT 220V340 9999 PRFG FEW000 SCT015 BKN060 10/07 Q1012,0,8,0,10000,0,0,1,FG
2026-03-18 22:00:00,METAR RJOA 182200Z AUTO 31009KT 9999 FEW017 SCT080 BKN110 09/07 Q1011,0,9,0,10000,0,0,0,
2026-03-18 21:00:00,METAR RJOA 182100Z AUTO 33007KT 9999 FEW013 SCT015 BKN040 09/08 Q1011,0,7,0,10000,0,0,0,
2026-03-18 20:00:00,METAR RJOA 182000Z AUTO 28008KT 9999 BKN041 BKN050 BKN060 10/08 Q1010,0,8,0,10000,0,0,0,
2026-03-18 19:00:00,METAR RJOA 181900Z AUTO 29006KT 9999 -RA NSC 10/09 Q1010,0,6,0,10000,0,0,0,-RA
2026-03-18 18:00:00,METAR RJOA 181800Z AUTO 29007KT 9999 -RA FEW022 BKN050 OVC060 10/09 Q1010,0,7,0,10000,0,0,0,-RA
2026-03-18 17:00:00,METAR RJOA 181700Z AUTO 29006KT 2900 -RA BR FEW003 SCT026 BKN031 11/10 Q1010,0,6,0,2900,0,0,1,"-RA,BR"
2026-03-18 16:00:00,METAR RJOA 181600Z AUTO 29008KT 2600 R28/P2000N -RA BR FEW001 OVC005 11/10 Q1010,0,8,0,2600,0,0,1,"-RA,BR"
2026-03-18 15:00:00,METAR RJOA 181500Z AUTO 29004KT 4900 -RA BR BKN003 BKN005 BKN007 11/10 Q1009,0,4,0,4900,0,0,1,"-RA,BR"
2026-03-18 14:00:00,METAR RJOA 181400Z AUTO 30006KT 5000 -RA BR SCT004 BKN005 BKN007 10/10 Q1009,0,6,0,5000,0,0,1,"-RA,BR"
2026-03-18 13:00:00,METAR RJOA 181300Z 35003KT 1800 R10/1600VP2000N -SHRA BCFG BR FEW000 SCT004 BKN007 09/09 Q1010,0,3,0,1800,0,0,1,"BC,BR,FG,RA"
2026-03-18 12:00:00,METAR RJOA 181200Z 05004KT 020V160 1600 -SHRA BCFG BR FEW000 SCT002 BKN004 08/08 Q1010,0,4,0,1600,0,0,1,"BC,BR,FG,RA"
2026-03-18 11:00:00,METAR RJOA 181100Z VRB02KT 2000 -SHRA BCFG BR FEW000 SCT003 BKN007 07/07 Q1010,0,2,0,2000,0,0,1,"BC,BR,FG,RA"
2026-03-18 10:00:00,METAR RJOA 181000Z VRB02KT 0900 R10/0500VP2000U -SHRA FG FEW000 SCT001 BKN002 07/07 Q1010,0,2,0,1448100,0,0,1,"FG,RA"
2026-03-18 09:00:00,METAR RJOA 180900Z 12002KT 0600 R10/0500V1500D -SHRA FG FEW000 SCT001 BKN002 07/07 Q1011,0,2,0,965400,0,0,1,"FG,RA"
2026-03-18 08:00:00,METAR RJOA 180800Z 11003KT 0900 R10/1000VP2000U -SHRA FG FEW000 SCT001 BKN002 07/07 Q1011,0,3,0,1448100,0,0,1,"FG,RA"
2026-03-18 07:00:00,METAR RJOA 180700Z 12004KT 0500 R10/0275V0800D -RA FG FEW000 SCT002 BKN010 07/07 Q1012,0,4,0,804500,0,0,1,"-RA,FG"
2026-03-18 06:00:00,METAR RJOA 180600Z 12004KT 1200 R10/0800V2000D -RA BCFG BR FEW000 SCT002 BKN008 07/06 Q1013,0,4,0,1200,0,0,1,"-RA,BC,BR,FG"
2026-03-18 05:00:00,METAR RJOA 180500Z VRB02KT 2500 R10/P2000N -RA BCFG BR FEW000 SCT001 BKN003 07/06 Q1014,0,2,0,2500,0,0,1,"-RA,BC,BR,FG"
2026-03-18 04:00:00,METAR RJOA 180400Z VRB02KT 9999 -RA FEW005 BKN030 BKN050 07/06 Q1015,0,2,0,10000,0,0,0,-RA
2026-03-18 03:00:00,METAR RJOA 180300Z 29003KT 260V330 9999 -RA FEW020 BKN030 BKN050 07/04 Q1016,0,3,0,10000,0,0,0,-RA
2026-03-18 02:00:00,METAR RJOA 180200Z VRB01KT 9999 -RA FEW025 BKN030 08/02 Q1016,0,1,0,10000,0,0,0,-RA
2026-03-18 01:00:00,METAR RJOA 180100Z 12003KT 080V160 9999 -RA FEW030 SCT050 BKN080 09/01 Q1017,0,3,0,10000,0,0,0,-RA
2026-03-18 00:00:00,METAR RJOA 180000Z 12003KT 9999 FEW030 SCT080 OVC100 07/01 Q1017,0,3,0,10000,0,0,0,
2026-03-17 23:00:00,METAR RJOA 172300Z 10004KT 060V120 CAVOK 07/01 Q1018,1,0,0,9999,0,0,0,
2026-03-17 22:00:00,METAR RJOA 172200Z AUTO 07006KT 9999 NSC 06/01 Q1018,0,6,0,10000,0,0,0,
2026-03-17 21:00:00,METAR RJOA 172100Z AUTO 32003KT 9999 NSC 06/01 Q1018,0,3,0,10000,0,0,0,
2026-03-17 20:00:00,METAR RJOA 172000Z AUTO 06003KT 9999 NSC 06/01 Q1018,0,3,0,10000,0,0,0,
2026-03-17 19:00:00,METAR RJOA 171900Z AUTO 06007KT 9999 NCD 05/01 Q1018,0,7,0,10000,0,0,0,
2026-03-17 18:00:00,METAR RJOA 171800Z AUTO 06006KT 9999 NCD 06/02 Q1019,0,6,0,10000,0,0,0,
2026-03-17 17:00:00,METAR RJOA 171700Z AUTO 11004KT 9999 NCD 06/02 Q1019,0,4,0,10000,0,0,0,
2026-03-17 16:00:00,METAR RJOA 171600Z AUTO 33003KT 9999 NCD 07/02 Q1019,0,3,0,10000,0,0,0,
2026-03-17 15:00:00,METAR RJOA 171500Z AUTO 34002KT 9999 NCD 07/02 Q1020,0,2,0,10000,0,0,0,
2026-03-17 14:00:00,METAR RJOA 171400Z AUTO 03002KT 9999 NCD 09/01 Q1020,0,2,0,10000,0,0,0,
2026-03-17 13:00:00,METAR RJOA 171300Z 08002KT CAVOK 10/01 Q1020,1,0,0,9999,0,0,0,
2026-03-17 12:00:00,METAR RJOA 171200Z 05003KT 010V100 CAVOK 10/02 Q1020,1,0,0,9999,0,0,0,
2026-03-17 11:00:00,METAR RJOA 171100Z 04002KT CAVOK 10/01 Q1020,1,0,0,9999,0,0,0,
2026-03-17 10:00:00,METAR RJOA 171000Z VRB02KT CAVOK 11/00 Q1019,1,0,0,9999,0,0,0,
2026-03-17 09:00:00,METAR RJOA 170900Z 17003KT 130V210 CAVOK 12/M03 Q1018,1,0,0,9999,0,0,0,
2026-03-17 08:00:00,METAR RJOA 170800Z 17004KT 090V210 CAVOK 13/01 Q1018,1,0,0,9999,0,0,0,
2026-03-17 07:00:00,METAR RJOA 170700Z 20006KT 150V240 9999 FEW040 14/01 Q1018,0,6,0,10000,0,0,0,
2026-03-17 06:00:00,METAR RJOA 170600Z 15006KT 080V220 9999 FEW040 SCT/// 13/01 Q1019,0,6,0,10000,0,0,0,
2026-03-17 05:00:00,METAR RJOA 170500Z VRB04KT 9999 FEW040 BKN/// 13/01 Q1019,0,4,0,10000,0,0,0,
2026-03-17 04:00:00,METAR RJOA 170400Z VRB05KT 9999 FEW040 BKN/// 13/01 Q1020,0,5,0,10000,0,0,0,
2026-03-17 03:00:00,METAR RJOA 170300Z VRB04KT 9999 FEW030 BKN/// 13/01 Q1020,0,4,0,10000,0,0,0,
2026-03-17 02:00:00,METAR RJOA 170200Z 10004KT 030V180 9999 FEW030 BKN/// 11/01 Q1021,0,4,0,10000,0,0,0,
2026-03-17 01:00:00,METAR RJOA 170100Z VRB04KT CAVOK 09/01 Q1022,1,0,0,9999,0,0,0,
2026-03-17 00:00:00,METAR RJOA 170000Z 08005KT 030V110 CAVOK 08/01 Q1022,1,0,0,9999,0,0,0,
2026-03-16 23:00:00,METAR RJOA 162300Z 04006KT CAVOK 06/01 Q1021,1,0,0,9999,0,0,0,
2026-03-16 22:00:00,METAR RJOA 162200Z AUTO 06005KT 9999 NCD 05/00 Q1021,0,5,0,10000,0,0,0,
2026-03-16 21:00:00,METAR RJOA 162100Z AUTO 05006KT 9999 NCD 04/M01 Q1021,0,6,0,10000,0,0,0,
2026-03-16 20:00:00,METAR RJOA 162000Z AUTO 06005KT 9999 NCD 05/M01 Q1020,0,5,0,10000,0,0,0,
2026-03-16 19:00:00,METAR RJOA 161900Z AUTO 06005KT 9999 NCD 05/M00 Q1020,0,5,0,10000,0,0,0,
2026-03-16 18:00:00,METAR RJOA 161800Z AUTO 04005KT 9999 NCD 05/M01 Q1020,0,5,0,10000,0,0,0,
2026-03-16 17:00:00,METAR RJOA 161700Z AUTO 06006KT 9999 NCD 06/M01 Q1020,0,6,0,10000,0,0,0,
2026-03-16 16:00:00,METAR RJOA 161600Z AUTO 04005KT 9999 NCD 06/M01 Q1020,0,5,0,10000,0,0,0,
2026-03-16 15:00:00,METAR RJOA 161500Z AUTO 04003KT 350V060 9999 NSC 07/M01 Q1020,0,3,0,10000,0,0,0,
2026-03-16 14:00:00,METAR RJOA 161400Z AUTO 06003KT 020V120 9999 NSC 08/M01 Q1020,0,3,0,10000,0,0,0,
2026-03-16 13:00:00,METAR RJOA 161300Z 34009KT CAVOK 08/M00 Q1020,1,0,0,9999,0,0,0,
2026-03-16 12:00:00,METAR RJOA 161200Z 36003KT 330V040 CAVOK 09/00 Q1020,1,0,0,9999,0,0,0,
2026-03-16 11:00:00,METAR RJOA 161100Z 02003KT CAVOK 09/M00 Q1020,1,0,0,9999,0,0,0,
2026-03-16 10:00:00,METAR RJOA 161000Z VRB02KT CAVOK 09/M01 Q1019,1,0,0,9999,0,0,0,
2026-03-16 09:00:00,METAR RJOA 160900Z 12002KT CAVOK 10/M01 Q1019,1,0,0,9999,0,0,0,
2026-03-16 08:00:00,METAR RJOA 160800Z 13005KT 110V190 CAVOK 11/M02 Q1019,1,0,0,9999,0,0,0,
2026-03-16 07:00:00,METAR RJOA 160700Z 14004KT 080V210 9999 FEW045 12/M01 Q1019,0,4,0,10000,0,0,0,
2026-03-16 06:00:00,METAR RJOA 160600Z 16007KT 110V240 9999 FEW045 12/M01 Q1019,0,7,0,10000,0,0,0,
2026-03-16 05:00:00,METAR RJOA 160500Z 17007KT 100V240 9999 FEW045 12/M02 Q1019,0,7,0,10000,0,0,0,
2026-03-16 04:00:00,METAR RJOA 160400Z VRB05KT 9999 FEW045 12/M01 Q1020,0,5,0,10000,0,0,0,
2026-03-16 03:00:00,METAR RJOA 160300Z 20006KT 120V270 9999 FEW040 SCT050 11/M01 Q1021,0,6,0,10000,0,0,0,
2026-03-16 02:00:00,METAR RJOA 160200Z 16005KT 100V250 9999 FEW040 SCT/// 09/M02 Q1022,0,5,0,10000,0,0,0,
2026-03-16 01:00:00,METAR RJOA 160100Z VRB04KT CAVOK 08/M01 Q1022,1,0,0,9999,0,0,0,
2026-03-16 00:00:00,METAR RJOA 160000Z 11004KT 080V170 CAVOK 08/M02 Q1022,1,0,0,9999,0,0,0,
2026-03-15 23:00:00,METAR RJOA 152300Z 10004KT 080V140 CAVOK 06/M01 Q1022,1,0,0,9999,0,0,0,
2026-03-15 22:00:00,METAR RJOA 152200Z AUTO 06002KT 9999 NSC 05/M00 Q1022,0,2,0,10000,0,0,0,
2026-03-15 21:00:00,METAR RJOA 152100Z AUTO 05005KT 9999 NSC 04/M00 Q1021,0,5,0,10000,0,0,0,
2026-03-15 20:00:00,METAR RJOA 152000Z AUTO 36002KT 9999 NSC 05/00 Q1021,0,2,0,10000,0,0,0,
2026-03-15 19:00:00,METAR RJOA 151900Z AUTO 32004KT 9999 NSC 04/00 Q1021,0,4,0,10000,0,0,0,
2026-03-15 18:00:00,METAR RJOA 151800Z AUTO 02004KT 9999 NCD 05/00 Q1021,0,4,0,10000,0,0,0,
2026-03-15 17:00:00,METAR RJOA 151700Z AUTO VRB01KT 9999 NCD 05/01 Q1021,0,1,0,10000,0,0,0,
2026-03-15 16:00:00,METAR RJOA 151600Z AUTO VRB02KT 9999 NSC 06/01 Q1021,0,2,0,10000,0,0,0,
2026-03-15 15:00:00,METAR RJOA 151500Z AUTO 32003KT 240V020 9999 NSC 07/01 Q1022,0,3,0,10000,0,0,0,
2026-03-15 14:00:00,METAR RJOA 151400Z AUTO 33004KT 300V010 9999 NSC 07/01 Q1021,0,4,0,10000,0,0,0,
2026-03-15 13:00:00,METAR RJOA 151300Z 31005KT 280V350 9999 FEW030 BKN060 08/01 Q1021,0,5,0,10000,0,0,0,
2026-03-15 12:00:00,METAR RJOA 151200Z 01008KT 360V060 9999 FEW030 BKN060 08/01 Q1021,0,8,0,10000,0,0,0,
2026-03-15 11:00:00,METAR RJOA 151100Z 36010KT 9999 FEW030 BKN060 09/01 Q1021,0,10,0,10000,0,0,0,
2026-03-15 10:00:00,METAR RJOA 151000Z 35004KT 280V020 9999 FEW030 BKN060 10/01 Q1021,0,4,0,10000,0,0,0,
2026-03-15 09:00:00,METAR RJOA 150900Z 14004KT 9999 FEW030 BKN050 09/01 Q1020,0,4,0,10000,0,0,0,
2026-03-15 08:00:00,METAR RJOA 150800Z 12005KT 090V160 9999 FEW035 SCT050 BKN/// 10/01 Q1020,0,5,0,10000,0,0,0,
