Time_recorded,METAR,is_cavok,wind_speed,is_gust,visibility_meters,has_thunderstorm,has_heavy_rain,has_low_vis_fog,other_phenomenon
2026-05-02 15:30:00,METAR YPPH 021530Z 00000KT CAVOK 07/05 Q1025,1,0,0,9999,0,0,0,
2026-05-02 15:00:00,METAR YPPH 021500Z 00000KT CAVOK 08/06 Q1025,1,0,0,9999,0,0,0,
2026-05-02 14:30:00,METAR YPPH 021430Z 09003KT CAVOK 08/06 Q1025,1,0,0,9999,0,0,0,
2026-05-02 14:00:00,METAR YPPH 021400Z 19006KT CAVOK 09/06 Q1025,1,0,0,9999,0,0,0,
2026-05-02 13:30:00,METAR YPPH 021330Z 18007KT CAVOK 10/07 Q1025,1,0,0,9999,0,0,0,
2026-05-02 13:00:00,METAR YPPH 021300Z 19006KT CAVOK 10/07 Q1025,1,0,0,9999,0,0,0,
2026-05-02 12:30:00,METAR YPPH 021230Z 19007KT CAVOK 11/07 Q1025,1,0,0,9999,0,0,0,
2026-05-02 12:00:00,METAR YPPH 021200Z 21007KT CAVOK 12/07 Q1025,1,0,0,9999,0,0,0,
2026-05-02 11:30:00,METAR YPPH 021130Z 16006KT CAVOK 13/07 Q1024,1,0,0,9999,0,0,0,
2026-05-02 11:00:00,METAR YPPH 021100Z 18006KT CAVOK 15/07 Q1024,1,0,0,9999,0,0,0,
2026-05-02 10:30:00,METAR YPPH 021030Z 17008KT CAVOK 16/07 Q1024,1,0,0,9999,0,0,0,
2026-05-02 10:00:00,METAR YPPH 021000Z 16010KT CAVOK 17/06 Q1024,1,0,0,9999,0,0,0,
2026-05-02 09:30:00,METAR YPPH 020930Z 16009KT CAVOK 17/06 Q1023,1,0,0,9999,0,0,0,
2026-05-02 09:00:00,METAR YPPH 020900Z 14009KT 9999 BKN048 17/06 Q1023,0,9,0,10000,0,0,0,
2026-05-02 08:30:00,METAR YPPH 020830Z 15009KT 9999 SCT045 18/06 Q1023,0,9,0,10000,0,0,0,
2026-05-02 08:00:00,METAR YPPH 020800Z 15010KT 9999 SCT045 18/06 Q1023,0,10,0,10000,0,0,0,
2026-05-02 07:30:00,METAR YPPH 020730Z AUTO 16010KT 9999 // NCD 19/06 Q1023,0,10,0,10000,0,0,0,
2026-05-02 07:00:00,METAR YPPH 020700Z 17009KT 9999 FEW045 19/06 Q1023,0,9,0,10000,0,0,0,
2026-05-02 06:30:00,METAR YPPH 020630Z 18011KT 9999 SCT046 19/07 Q1023,0,11,0,10000,0,0,0,
2026-05-02 06:00:00,METAR YPPH 020600Z 17011KT 9999 SCT046 19/06 Q1024,0,11,0,10000,0,0,0,
2026-05-02 05:30:00,METAR YPPH 020530Z 17015KT 9999 FEW042 BKN045 17/05 Q1024,0,15,0,10000,0,0,0,
2026-05-02 05:00:00,METAR YPPH 020500Z 18013KT 9999 FEW042 BKN045 19/07 Q1024,0,13,0,10000,0,0,0,
2026-05-02 04:30:00,METAR YPPH 020430Z 17014KT 9999 FEW042 BKN045 18/06 Q1025,0,14,0,10000,0,0,0,
2026-05-02 04:00:00,METAR YPPH 020400Z 18014KT 9999 FEW040 SCT044 17/07 Q1026,0,14,0,10000,0,0,0,
2026-05-02 03:30:00,METAR YPPH 020330Z 19015KT 9999 FEW042 18/07 Q1026,0,15,0,10000,0,0,0,
2026-05-02 03:00:00,METAR YPPH 020300Z 18014KT 9999 FEW042 17/06 Q1026,0,14,0,10000,0,0,0,
2026-05-02 02:30:00,METAR YPPH 020230Z 19012KT 9999 FEW040 17/07 Q1026,0,12,0,10000,0,0,0,
2026-05-02 02:00:00,METAR YPPH 020200Z 17009KT 9999 FEW036 16/07 Q1026,0,9,0,10000,0,0,0,
2026-05-02 01:30:00,METAR YPPH 020130Z 22005KT 180V250 CAVOK 14/07 Q1026,1,0,0,9999,0,0,0,
2026-05-02 01:00:00,METAR YPPH 020100Z 20005KT CAVOK 12/07 Q1027,1,0,0,9999,0,0,0,
2026-05-02 00:30:00,METAR YPPH 020030Z 00000KT CAVOK 10/07 Q1026,1,0,0,9999,0,0,0,
2026-05-02 00:00:00,METAR YPPH 020000Z 07003KT CAVOK 08/07 Q1026,1,0,0,9999,0,0,0,
2026-05-01 23:30:00,METAR YPPH 012330Z 02001KT CAVOK 05/04 Q1026,1,0,0,9999,0,0,0,
2026-05-01 23:00:00,METAR YPPH 012300Z 00000KT CAVOK 03/02 Q1026,1,0,0,9999,0,0,0,
2026-05-01 22:30:00,METAR YPPH 012230Z 35004KT CAVOK 03/02 Q1025,1,0,0,9999,0,0,0,
2026-05-01 22:00:00,METAR YPPH 012200Z 01003KT CAVOK 04/03 Q1025,1,0,0,9999,0,0,0,
2026-05-01 21:30:00,METAR YPPH 012130Z AUTO 36004KT 9999 // NCD 03/02 Q1025,0,4,0,10000,0,0,0,
2026-05-01 21:00:00,METAR YPPH 012100Z AUTO 00000KT 9999 // NCD 03/02 Q1025,0,0,0,10000,0,0,0,
2026-05-01 20:30:00,METAR YPPH 012030Z AUTO 18004KT 9999 // NCD 04/03 Q1025,0,4,0,10000,0,0,0,
2026-05-01 20:00:00,METAR YPPH 012000Z AUTO 19002KT 9999 // NCD 04/02 Q1025,0,2,0,10000,0,0,0,
2026-05-01 19:30:00,METAR YPPH 011930Z AUTO 00000KT 9999 // NCD 04/03 Q1025,0,0,0,10000,0,0,0,
2026-05-01 19:00:00,METAR YPPH 011900Z AUTO 00000KT 9999 // NCD 04/03 Q1025,0,0,0,10000,0,0,0,
2026-05-01 18:30:00,METAR YPPH 011830Z AUTO 00000KT 9999 // NCD 05/03 Q1025,0,0,0,10000,0,0,0,
2026-05-01 18:00:00,METAR YPPH 011800Z AUTO 20001KT 9999 // NCD 05/03 Q1025,0,1,0,10000,0,0,0,
2026-05-01 17:30:00,METAR YPPH 011730Z AUTO 18005KT 9999 // NCD 05/03 Q1025,0,5,0,10000,0,0,0,
2026-05-01 17:00:00,METAR YPPH 011700Z AUTO 20005KT 9999 // NCD 05/03 Q1025,0,5,0,10000,0,0,0,
2026-05-01 16:30:00,METAR YPPH 011630Z AUTO 19004KT 9999 // NCD 07/04 Q1025,0,4,0,10000,0,0,0,
2026-05-01 16:00:00,METAR YPPH 011600Z 21005KT CAVOK 08/05 Q1025,1,0,0,9999,0,0,0,
2026-05-01 15:30:00,METAR YPPH 011530Z 19007KT CAVOK 08/05 Q1025,1,0,0,9999,0,0,0,
2026-05-01 15:00:00,METAR YPPH 011500Z 18006KT CAVOK 08/05 Q1025,1,0,0,9999,0,0,0,
2026-05-01 14:30:00,METAR YPPH 011430Z 23004KT CAVOK 08/05 Q1025,1,0,0,9999,0,0,0,
2026-05-01 14:00:00,METAR YPPH 011400Z 18006KT CAVOK 08/04 Q1025,1,0,0,9999,0,0,0,
2026-05-01 13:30:00,METAR YPPH 011330Z 17007KT CAVOK 08/04 Q1025,1,0,0,9999,0,0,0,
2026-05-01 13:00:00,METAR YPPH 011300Z 16008KT CAVOK 09/04 Q1025,1,0,0,9999,0,0,0,
2026-05-01 12:30:00,METAR YPPH 011230Z 17010KT CAVOK 11/04 Q1025,1,0,0,9999,0,0,0,
2026-05-01 12:00:00,METAR YPPH 011200Z 18011KT CAVOK 12/04 Q1024,1,0,0,9999,0,0,0,
2026-05-01 11:30:00,METAR YPPH 011130Z 19010KT CAVOK 13/04 Q1024,1,0,0,9999,0,0,0,
2026-05-01 11:00:00,METAR YPPH 011100Z 19011KT CAVOK 13/04 Q1024,1,0,0,9999,0,0,0,
2026-05-01 10:30:00,METAR YPPH 011030Z 21009KT CAVOK 14/03 Q1023,1,0,0,9999,0,0,0,
2026-05-01 10:00:00,METAR YPPH 011000Z 20012KT CAVOK 14/04 Q1023,1,0,0,9999,0,0,0,
2026-05-01 09:30:00,METAR YPPH 010930Z 19014KT CAVOK 15/04 Q1022,1,0,0,9999,0,0,0,
2026-05-01 09:00:00,METAR YPPH 010900Z 18015KT CAVOK 16/03 Q1022,1,0,0,9999,0,0,0,
2026-05-01 08:30:00,METAR YPPH 010830Z 19016KT CAVOK 16/02 Q1022,1,0,0,9999,0,0,0,
2026-05-01 08:00:00,METAR YPPH 010800Z 20017KT CAVOK 17/03 Q1022,1,0,0,9999,0,0,0,
2026-05-01 07:30:00,METAR YPPH 010730Z AUTO 19017KT 9999 // NCD 18/03 Q1022,0,17,0,10000,0,0,0,
2026-05-01 07:00:00,METAR YPPH 010700Z 18014KT CAVOK 18/04 Q1022,1,0,0,9999,0,0,0,
2026-05-01 06:30:00,METAR YPPH 010630Z 18015KT CAVOK 17/03 Q1022,1,0,0,9999,0,0,0,
2026-05-01 06:00:00,METAR YPPH 010600Z 18017KT CAVOK 18/04 Q1022,1,0,0,9999,0,0,0,
2026-05-01 05:38:00,SPECI YPPH 010538Z AUTO 20015G25KT 9999 // FEW054 18/05 Q1022,0,15,1,10000,0,0,0,
2026-05-01 05:30:00,METAR YPPH 010530Z 19017KT CAVOK 18/05 Q1022,1,0,0,9999,0,0,0,
2026-05-01 05:00:00,METAR YPPH 010500Z 19017KT CAVOK 18/04 Q1022,1,0,0,9999,0,0,0,
2026-05-01 04:30:00,METAR YPPH 010430Z 19018KT 9999 FEW048 17/05 Q1022,0,18,0,10000,0,0,0,
2026-05-01 04:08:00,SPECI YPPH 010408Z 19018G28KT 9999 FEW048 17/04 Q1023,0,18,1,10000,0,0,0,
2026-05-01 04:00:00,METAR YPPH 010400Z 19019KT 9999 FEW048 18/04 Q1023,0,19,0,10000,0,0,0,
2026-05-01 03:48:00,SPECI YPPH 010348Z 18017G28KT 9999 FEW046 17/05 Q1023,0,17,1,10000,0,0,0,
2026-05-01 03:30:00,METAR YPPH 010330Z 18019KT 9999 FEW044 17/05 Q1023,0,19,0,10000,0,0,0,
2026-05-01 03:04:00,SPECI YPPH 010304Z 18018G28KT 9999 FEW045 17/05 Q1023,0,18,1,10000,0,0,0,
2026-05-01 02:30:00,METAR YPPH 010230Z 17018KT 9999 FEW044 SCT065 16/05 Q1023,0,18,0,10000,0,0,0,
2026-05-01 02:00:00,METAR YPPH 010200Z 18018KT 9999 FEW035 BKN065 15/06 Q1023,0,18,0,10000,0,0,0,
2026-05-01 01:30:00,METAR YPPH 010130Z 17015KT 9999 FEW028 BKN065 14/06 Q1023,0,15,0,10000,0,0,0,
2026-05-01 01:00:00,METAR YPPH 010100Z 18015KT 9999 FEW018 BKN065 14/07 Q1023,0,15,0,10000,0,0,0,
2026-05-01 00:30:00,METAR YPPH 010030Z 16010KT 9999 FEW018 BKN065 13/08 Q1022,0,10,0,10000,0,0,0,
2026-05-01 00:00:00,METAR YPPH 010000Z 17010KT 9999 FEW018 BKN065 13/09 Q1022,0,10,0,10000,0,0,0,
2026-04-30 23:30:00,METAR YPPH 302330Z 18009KT 9999 FEW018 BKN065 12/09 Q1021,0,9,0,10000,0,0,0,
2026-04-30 23:00:00,METAR YPPH 302300Z 18008KT 9999 FEW020 BKN050 12/09 Q1021,0,8,0,10000,0,0,0,
2026-04-30 22:30:00,METAR YPPH 302230Z 20007KT 9999 FEW020 SCT042 BKN065 12/10 Q1020,0,7,0,10000,0,0,0,
2026-04-30 22:00:00,METAR YPPH 302200Z 20007KT 9999 FEW030 BKN042 BKN065 12/10 Q1020,0,7,0,10000,0,0,0,
2026-04-30 21:30:00,METAR YPPH 302130Z AUTO 17007KT 9999 // FEW031 SCT062 BKN070 12/09 Q1020,0,7,0,10000,0,0,0,
2026-04-30 21:00:00,METAR YPPH 302100Z AUTO 17013KT 9999 // SCT031 SCT039 OVC059 12/10 Q1020,0,13,0,10000,0,0,0,
2026-04-30 20:49:00,SPECI YPPH 302049Z AUTO 19011KT 9999 -SHRA FEW020 BKN031 BKN039 12/10 Q1020,0,11,0,10000,0,0,0,RA
2026-04-30 20:33:00,SPECI YPPH 302033Z AUTO 20013KT 6000 -SHRA FEW014 SCT020 BKN031 12/10 Q1020,0,13,0,6000,0,0,0,RA
2026-04-30 20:25:00,SPECI YPPH 302025Z AUTO 20013KT 9999 -SHRA FEW014 SCT022 BKN031 12/11 Q1019,0,13,0,10000,0,0,0,RA
2026-04-30 20:05:00,SPECI YPPH 302005Z AUTO 19008KT 130V220 6000 -SHRA FEW015 SCT028 BKN035 12/11 Q1019,0,8,0,6000,0,0,0,RA
2026-04-30 19:30:00,METAR YPPH 301930Z AUTO 19004KT 9999 // FEW028 SCT050 OVC068 13/11 Q1019,0,4,0,10000,0,0,0,
2026-04-30 19:00:00,METAR YPPH 301900Z AUTO 00000KT 9999 // BKN030 BKN034 OVC046 13/11 Q1019,0,0,0,10000,0,0,0,
2026-04-30 18:30:00,METAR YPPH 301830Z AUTO 00000KT 9999 // FEW028 SCT041 OVC054 13/11 Q1019,0,0,0,10000,0,0,0,
2026-04-30 18:24:00,SPECI YPPH 301824Z AUTO 13001KT 9999 -SHRA FEW031 SCT041 OVC054 13/11 Q1019,0,1,0,10000,0,0,0,RA
2026-04-30 18:08:00,SPECI YPPH 301808Z AUTO 19008KT 150V210 6000 -SHRA FEW028 SCT034 BKN040 13/11 Q1019,0,8,0,6000,0,0,0,RA
2026-04-30 18:00:00,METAR YPPH 301800Z AUTO 19008KT 9999 // FEW035 BKN049 BKN071 13/11 Q1019,0,8,0,10000,0,0,0,
2026-04-30 17:50:00,SPECI YPPH 301750Z AUTO 15010KT 9999 -SHRA FEW013 SCT053 BKN071 13/11 Q1019,0,10,0,10000,0,0,0,RA
2026-04-30 17:31:00,SPECI YPPH 301731Z AUTO 18016KT 6000 -DZ FEW018 SCT029 BKN036 13/11 Q1019,0,16,0,6000,0,0,0,DZ
2026-04-30 17:26:00,SPECI YPPH 301726Z AUTO 19015KT 9999 -RA FEW018 SCT031 BKN047 14/11 Q1019,0,15,0,10000,0,0,0,-RA
2026-04-30 17:00:00,METAR YPPH 301700Z AUTO 23004KT 180V250 9999 // SCT049 BKN058 BKN069 13/11 Q1019,0,4,0,10000,0,0,0,
2026-04-30 16:30:00,METAR YPPH 301630Z AUTO 18005KT 9999 // FEW039 SCT048 BKN063 14/11 Q1019,0,5,0,10000,0,0,0,
2026-04-30 16:00:00,METAR YPPH 301600Z 19011KT 9999 SCT048 BKN066 15/10 Q1019,0,11,0,10000,0,0,0,
2026-04-30 15:00:00,METAR YPPH 301500Z 16006KT CAVOK 14/09 Q1019,1,0,0,9999,0,0,0,
2026-04-30 14:30:00,METAR YPPH 301430Z 19006KT 9999 SCT046 15/10 Q1019,0,6,0,10000,0,0,0,
2026-04-30 14:00:00,METAR YPPH 301400Z 20007KT CAVOK 15/09 Q1019,1,0,0,9999,0,0,0,
2026-04-30 13:30:00,METAR YPPH 301330Z 20011KT CAVOK 17/09 Q1019,1,0,0,9999,0,0,0,
2026-04-30 13:00:00,METAR YPPH 301300Z 20011KT 9999 SCT039 BKN053 17/10 Q1018,0,11,0,10000,0,0,0,
2026-04-30 12:30:00,METAR YPPH 301230Z 19013KT 9999 OVC048 17/11 Q1018,0,13,0,10000,0,0,0,
2026-04-30 12:00:00,METAR YPPH 301200Z 20011KT 9999 OVC040 17/12 Q1018,0,11,0,10000,0,0,0,
2026-04-30 11:30:00,METAR YPPH 301130Z 20010KT 9999 OVC038 17/13 Q1018,0,10,0,10000,0,0,0,
2026-04-30 11:00:00,METAR YPPH 301100Z 21007KT 9999 VCSH OVC038 16/14 Q1017,0,7,0,10000,0,0,0,"SH,VC"
2026-04-30 10:30:00,SPECI YPPH 301030Z 21010KT 9999 -DZ FEW020 BKN034 OVC040 16/14 Q1017,0,10,0,10000,0,0,0,DZ
2026-04-30 10:13:00,SPECI YPPH 301013Z 21017KT 5000 -DZ FEW019 BKN032 OVC041 17/14 Q1017,0,17,0,5000,0,0,0,DZ
2026-04-30 10:00:00,SPECI YPPH 301000Z 21015G26KT 9999 VCSH SCT031 BKN049 18/13 Q1016,0,15,1,10000,0,0,0,"SH,VC"
2026-04-30 09:35:00,SPECI YPPH 300935Z 23015G25KT 9999 SCT029 BKN055 18/14 Q1016,0,15,1,10000,0,0,0,
2026-04-30 09:30:00,METAR YPPH 300930Z 22017KT 9999 SCT026 BKN055 19/13 Q1016,0,17,0,10000,0,0,0,
2026-04-30 09:00:00,METAR YPPH 300900Z 22015KT 9999 SCT042 19/12 Q1016,0,15,0,10000,0,0,0,
2026-04-30 08:30:00,METAR YPPH 300830Z 22014KT 9999 BKN032 21/13 Q1015,0,14,0,10000,0,0,0,
2026-04-30 08:00:00,METAR YPPH 300800Z 23011KT 9999 BKN032 22/13 Q1015,0,11,0,10000,0,0,0,
2026-04-30 07:30:00,METAR YPPH 300730Z 24011KT 9999 SCT034 22/13 Q1015,0,11,0,10000,0,0,0,
2026-04-30 07:00:00,METAR YPPH 300700Z 23011KT 9999 SCT036 BKN054 21/13 Q1015,0,11,0,10000,0,0,0,
2026-04-30 06:30:00,METAR YPPH 300630Z 23014KT 9999 SCT030 BKN045 20/13 Q1015,0,14,0,10000,0,0,0,
2026-04-30 06:00:00,METAR YPPH 300600Z 20011KT 9999 BKN025 BKN040 21/14 Q1015,0,11,0,10000,0,0,0,
2026-04-30 05:30:00,METAR YPPH 300530Z 20010KT 9999 VCSH FEW020 BKN035 20/14 Q1016,0,10,0,10000,0,0,0,"SH,VC"
2026-04-30 05:00:00,METAR YPPH 300500Z 21015KT 9999 VCSH SCT020 BKN030 19/14 Q1016,0,15,0,10000,0,0,0,"SH,VC"
2026-04-30 04:30:00,METAR YPPH 300430Z 22012KT 9999 VCSH SCT028 BKN040 20/14 Q1016,0,12,0,10000,0,0,0,"SH,VC"
2026-04-30 04:00:00,METAR YPPH 300400Z 22009KT 9999 VCSH SCT030 BKN040 21/13 Q1016,0,9,0,10000,0,0,0,"SH,VC"
2026-04-30 03:30:00,METAR YPPH 300330Z 21008KT 9999 SCT030 BKN050 23/13 Q1016,0,8,0,10000,0,0,0,
2026-04-30 03:00:00,METAR YPPH 300300Z 19006KT 9999 FEW014 21/13 Q1016,0,6,0,10000,0,0,0,
2026-04-30 02:30:00,METAR YPPH 300230Z 23005KT 180V250 9999 FEW018 20/15 Q1017,0,5,0,10000,0,0,0,
2026-04-30 02:00:00,METAR YPPH 300200Z 09003KT 9999 FEW015 18/15 Q1017,0,3,0,10000,0,0,0,
2026-04-30 01:30:00,METAR YPPH 300130Z AUTO 16002KT 9999 // NCD 17/15 Q1017,0,2,0,10000,0,0,0,
2026-04-30 01:00:00,METAR YPPH 300100Z 30001KT 9999 FEW010 16/15 Q1017,0,1,0,10000,0,0,0,
2026-04-30 00:30:00,SPECI YPPH 300030Z 02003KT 9000 VCFG SCT005 14/14 Q1016,0,3,0,9000,0,0,1,"FG,VC"
2026-04-30 00:18:00,SPECI YPPH 300018Z 02004KT 5000 VCFG SCT005 14/13 Q1016,0,4,0,5000,0,0,1,"FG,VC"
2026-04-30 00:10:00,SPECI YPPH 300010Z 03004KT 2000 R21/P2000N PRFG SCT005 13/13 Q1016,0,4,0,2000,0,0,1,FG
2026-04-30 00:00:00,SPECI YPPH 300000Z 02005KT 1500 R21/P2000N PRFG SCT005 13/13 Q1016,0,5,0,1500,0,0,1,FG
2026-04-29 23:53:00,SPECI YPPH 292353Z 02005KT 1000 R21/0800VP2000U PRFG NSC 13/13 Q1016,0,5,0,1000,0,0,1,FG
2026-04-29 23:30:00,METAR YPPH 292330Z 36004KT 0300 R21/0450VP2000U PRFG NSC 12/12 Q1016,0,4,0,482700,0,0,1,FG
2026-04-29 23:12:00,SPECI YPPH 292312Z 02004KT 0500 R21/0700VP2000D FG NSC 12/11 Q1016,0,4,0,804500,0,0,1,FG
2026-04-29 23:00:00,SPECI YPPH 292300Z 03005KT 1000 R21/P2000N PRFG NSC 12/11 Q1015,0,5,0,1000,0,0,1,FG
2026-04-29 22:52:00,SPECI YPPH 292252Z 03005KT 1000 R21/P2000N PRFG SCT048 12/11 Q1015,0,5,0,1000,0,0,1,FG
2026-04-29 22:30:00,SPECI YPPH 292230Z 06005KT 0500 R21/P2000N BCFG BKN048 12/11 Q1015,0,5,0,804500,0,0,1,"BC,FG"
2026-04-29 22:28:00,SPECI YPPH 292228Z AUTO 06005KT 1000 R21/P2000N BR SCT002 BKN042 OVC048 12/11 Q1015,0,5,0,1000,0,0,1,BR
2026-04-29 22:20:00,SPECI YPPH 292220Z AUTO 03004KT 0500 R21/P2000N FG SCT002 BKN042 OVC048 12/11 Q1015,0,4,0,804500,0,0,1,FG
2026-04-29 22:00:00,SPECI YPPH 292200Z AUTO 03005KT 0200 R21/P2000N FG BKN001 OVC038 OVC044 12/11 Q1015,0,5,0,321800,0,0,1,FG
2026-04-29 21:30:00,METAR YPPH 292130Z AUTO 36003KT 0300 R21/1600VP2000D FG BKN001 BKN037 11/11 Q1015,0,3,0,482700,0,0,1,FG
2026-04-29 21:26:00,SPECI YPPH 292126Z AUTO 35004KT 0900 R21/P2000N FG BKN001 BKN037 11/10 Q1015,0,4,0,1448100,0,0,1,FG
2026-04-29 21:21:00,SPECI YPPH 292121Z AUTO 34004KT 5000 BR BKN001 BKN037 11/10 Q1015,0,4,0,5000,0,0,1,BR
2026-04-29 21:12:00,SPECI YPPH 292112Z AUTO 34004KT 6000 // FEW002 SCT037 11/11 Q1015,0,4,0,6000,0,0,0,
2026-04-29 21:02:00,SPECI YPPH 292102Z AUTO 33004KT 9000 // SCT047 11/10 Q1015,0,4,0,9000,0,0,0,
2026-04-29 21:00:00,SPECI YPPH 292100Z AUTO 33004KT 9000 // SCT047 11/10 Q1015,0,4,0,9000,0,0,0,
2026-04-29 20:45:00,SPECI YPPH 292045Z AUTO 34004KT 6000 // BKN047 11/11 Q1015,0,4,0,6000,0,0,0,
2026-04-29 20:30:00,METAR YPPH 292030Z AUTO 33005KT 8000 // SCT045 11/10 Q1014,0,5,0,8000,0,0,0,
2026-04-29 20:00:00,METAR YPPH 292000Z AUTO 35004KT 9000 // NCD 11/10 Q1014,0,4,0,9000,0,0,0,
2026-04-29 19:55:00,SPECI YPPH 291955Z AUTO 36004KT 9000 // NCD 11/10 Q1014,0,4,0,9000,0,0,0,
2026-04-29 19:39:00,SPECI YPPH 291939Z AUTO 03004KT 6000 // NCD 11/10 Q1014,0,4,0,6000,0,0,0,
2026-04-29 19:30:00,METAR YPPH 291930Z AUTO 04003KT 8000 // NCD 11/10 Q1014,0,3,0,8000,0,0,0,
2026-04-29 19:12:00,SPECI YPPH 291912Z AUTO 02004KT 6000 // NCD 11/11 Q1014,0,4,0,6000,0,0,0,
2026-04-29 19:00:00,METAR YPPH 291900Z AUTO 02004KT 9999 // NCD 11/10 Q1014,0,4,0,10000,0,0,0,
2026-04-29 18:47:00,SPECI YPPH 291847Z AUTO 02004KT 9999 // NCD 11/10 Q1014,0,4,0,10000,0,0,0,
2026-04-29 18:33:00,SPECI YPPH 291833Z AUTO 03002KT 6000 // NCD 11/11 Q1014,0,2,0,6000,0,0,0,
2026-04-29 18:00:00,METAR YPPH 291800Z AUTO 00000KT 8000 // NCD 12/11 Q1015,0,0,0,8000,0,0,0,
2026-04-29 17:34:00,SPECI YPPH 291734Z AUTO 04003KT 7000 // NCD 12/11 Q1015,0,3,0,7000,0,0,0,
2026-04-29 17:30:00,SPECI YPPH 291730Z AUTO 04003KT 8000 // NCD 12/12 Q1015,0,3,0,8000,0,0,0,
2026-04-29 17:20:00,SPECI YPPH 291720Z AUTO 04003KT 6000 // NCD 13/12 Q1015,0,3,0,6000,0,0,0,
2026-04-29 17:00:00,METAR YPPH 291700Z AUTO 04005KT 9999 // NCD 13/12 Q1014,0,5,0,10000,0,0,0,
2026-04-29 16:30:00,METAR YPPH 291630Z AUTO 02004KT 9999 // FEW031 SCT040 14/13 Q1014,0,4,0,10000,0,0,0,
2026-04-29 16:00:00,METAR YPPH 291600Z 36004KT 9999 BKN040 14/13 Q1015,0,4,0,10000,0,0,0,
2026-04-29 15:30:00,METAR YPPH 291530Z 00000KT 9999 BKN032 14/13 Q1015,0,0,0,10000,0,0,0,
2026-04-29 15:00:00,METAR YPPH 291500Z 00000KT 9999 SCT030 13/12 Q1015,0,0,0,10000,0,0,0,
2026-04-29 14:30:00,METAR YPPH 291430Z 00000KT 9999 SCT030 14/13 Q1015,0,0,0,10000,0,0,0,
2026-04-29 14:00:00,METAR YPPH 291400Z 00000KT 9999 FEW030 14/13 Q1015,0,0,0,10000,0,0,0,
2026-04-29 13:30:00,METAR YPPH 291330Z 22001KT 9999 FEW031 15/13 Q1015,0,1,0,10000,0,0,0,
2026-04-29 13:00:00,METAR YPPH 291300Z 21005KT 9999 FEW031 16/14 Q1015,0,5,0,10000,0,0,0,
2026-04-29 12:30:00,METAR YPPH 291230Z 21005KT 9999 FEW048 17/14 Q1015,0,5,0,10000,0,0,0,
2026-04-29 12:00:00,METAR YPPH 291200Z 21006KT 9999 FEW048 17/15 Q1015,0,6,0,10000,0,0,0,
2026-04-29 11:30:00,METAR YPPH 291130Z 20007KT 9999 SCT031 18/15 Q1015,0,7,0,10000,0,0,0,
2026-04-29 11:00:00,METAR YPPH 291100Z 22007KT 9999 BKN031 18/15 Q1015,0,7,0,10000,0,0,0,
2026-04-29 10:30:00,METAR YPPH 291030Z 23007KT 9999 BKN048 18/14 Q1014,0,7,0,10000,0,0,0,
2026-04-29 10:00:00,METAR YPPH 291000Z 25007KT 9999 SCT048 19/14 Q1014,0,7,0,10000,0,0,0,
2026-04-29 09:30:00,METAR YPPH 290930Z 24007KT 9999 FEW034 BKN048 21/14 Q1014,0,7,0,10000,0,0,0,
2026-04-29 09:00:00,METAR YPPH 290900Z 26010KT 9999 SCT036 BKN050 22/14 Q1014,0,10,0,10000,0,0,0,
2026-04-29 08:30:00,METAR YPPH 290830Z 24009KT CAVOK 22/15 Q1013,1,0,0,9999,0,0,0,
2026-04-29 08:00:00,METAR YPPH 290800Z 25008KT CAVOK 22/15 Q1013,1,0,0,9999,0,0,0,
2026-04-29 07:30:00,METAR YPPH 290730Z 24008KT 9999 FEW030 SCT042 BKN250 23/15 Q1013,0,8,0,10000,0,0,0,
2026-04-29 07:00:00,METAR YPPH 290700Z 26008KT 9999 SCT030 BKN045 22/15 Q1013,0,8,0,10000,0,0,0,
2026-04-29 06:30:00,METAR YPPH 290630Z 26008KT 9999 R21/P2000N SCT030 BKN045 23/14 Q1013,0,8,0,10000,0,0,0,
2026-04-29 06:00:00,METAR YPPH 290600Z 27008KT 9999 FEW030 BKN045 23/15 Q1013,0,8,0,10000,0,0,0,
2026-04-29 05:30:00,METAR YPPH 290530Z 29007KT 9999 SCT045 BKN060 23/15 Q1013,0,7,0,10000,0,0,0,
2026-04-29 05:00:00,METAR YPPH 290500Z 26007KT 9999 BKN040 BKN060 23/15 Q1013,0,7,0,10000,0,0,0,
2026-04-29 04:30:00,METAR YPPH 290430Z 25007KT 9999 BKN030 BKN060 23/16 Q1014,0,7,0,10000,0,0,0,
2026-04-29 04:00:00,METAR YPPH 290400Z 24006KT 200V290 9999 SCT030 BKN060 BKN300 23/16 Q1014,0,6,0,10000,0,0,0,
2026-04-29 03:30:00,METAR YPPH 290330Z 33005KT 300V010 9999 SCT025 BKN050 22/16 Q1014,0,5,0,10000,0,0,0,
2026-04-29 03:00:00,METAR YPPH 290300Z 00000KT 9999 SCT020 BKN048 22/15 Q1015,0,0,0,10000,0,0,0,
2026-04-29 02:30:00,METAR YPPH 290230Z 34003KT 9999 FEW020 BKN300 21/16 Q1015,0,3,0,10000,0,0,0,
2026-04-29 02:00:00,METAR YPPH 290200Z 32001KT 9999 SCT040 BKN300 20/16 Q1015,0,1,0,10000,0,0,0,
2026-04-29 01:30:00,METAR YPPH 290130Z 16005KT 9999 BKN040 19/16 Q1015,0,5,0,10000,0,0,0,
2026-04-29 01:00:00,METAR YPPH 290100Z 18004KT 9999 BKN035 18/16 Q1015,0,4,0,10000,0,0,0,
2026-04-29 00:30:00,METAR YPPH 290030Z 17007KT 9999 BKN032 17/15 Q1015,0,7,0,10000,0,0,0,
2026-04-29 00:00:00,METAR YPPH 290000Z 19007KT 9999 BKN030 16/15 Q1015,0,7,0,10000,0,0,0,
2026-04-28 23:30:00,METAR YPPH 282330Z 21007KT 9999 BKN030 16/15 Q1015,0,7,0,10000,0,0,0,
2026-04-28 23:00:00,METAR YPPH 282300Z 23006KT 9999 BKN028 16/15 Q1015,0,6,0,10000,0,0,0,
2026-04-28 22:30:00,METAR YPPH 282230Z 22004KT 9999 BKN028 15/15 Q1014,0,4,0,10000,0,0,0,
2026-04-28 22:00:00,METAR YPPH 282200Z 28004KT 9999 BKN030 15/14 Q1014,0,4,0,10000,0,0,0,
2026-04-28 21:30:00,METAR YPPH 282130Z AUTO 00000KT 9999 // OVC032 14/14 Q1014,0,0,0,10000,0,0,0,
2026-04-28 21:00:00,METAR YPPH 282100Z AUTO 20004KT 9999 // BKN025 OVC034 14/13 Q1014,0,4,0,10000,0,0,0,
2026-04-28 20:30:00,METAR YPPH 282030Z AUTO 00000KT 9999 // BKN025 14/13 Q1014,0,0,0,10000,0,0,0,
2026-04-28 20:00:00,METAR YPPH 282000Z AUTO 24001KT 9999 // NCD 14/13 Q1014,0,1,0,10000,0,0,0,
2026-04-28 19:30:00,METAR YPPH 281930Z AUTO 00000KT 9999 // NCD 15/14 Q1014,0,0,0,10000,0,0,0,
2026-04-28 19:00:00,METAR YPPH 281900Z AUTO 20004KT 9999 // NCD 15/14 Q1014,0,4,0,10000,0,0,0,
2026-04-28 18:30:00,METAR YPPH 281830Z AUTO 11004KT 9999 // NCD 16/14 Q1014,0,4,0,10000,0,0,0,
2026-04-28 18:00:00,METAR YPPH 281800Z AUTO 06005KT 9999 // NCD 15/14 Q1014,0,5,0,10000,0,0,0,
2026-04-28 17:30:00,METAR YPPH 281730Z AUTO 10004KT 060V130 9999 // NCD 15/13 Q1015,0,4,0,10000,0,0,0,
2026-04-28 17:00:00,METAR YPPH 281700Z AUTO 13006KT 9999 // NCD 15/13 Q1014,0,6,0,10000,0,0,0,
2026-04-28 16:30:00,METAR YPPH 281630Z AUTO 14004KT 9999 // NCD 16/14 Q1015,0,4,0,10000,0,0,0,
2026-04-28 16:09:00,SPECI YPPH 281609Z AUTO 11006KT 9999 // FEW016 17/14 Q1015,0,6,0,10000,0,0,0,
2026-04-28 16:00:00,METAR YPPH 281600Z 11006KT 9999 SCT016 17/14 Q1015,0,6,0,10000,0,0,0,
2026-04-28 15:30:00,SPECI YPPH 281530Z 09006KT 9999 BKN016 17/15 Q1015,0,6,0,10000,0,0,0,
2026-04-28 15:00:00,SPECI YPPH 281500Z 06004KT 9999 BKN016 18/15 Q1015,0,4,0,10000,0,0,0,
2026-04-28 14:30:00,SPECI YPPH 281430Z 07006KT 9999 BKN014 18/15 Q1016,0,6,0,10000,0,0,0,
2026-04-28 14:00:00,SPECI YPPH 281400Z 07008KT 9999 BKN014 18/15 Q1016,0,8,0,10000,0,0,0,
2026-04-28 13:30:00,SPECI YPPH 281330Z 08007KT 9999 BKN014 17/15 Q1016,0,7,0,10000,0,0,0,
2026-04-28 13:00:00,METAR YPPH 281300Z 11005KT 9999 SCT016 16/14 Q1016,0,5,0,10000,0,0,0,
2026-04-28 12:30:00,METAR YPPH 281230Z 16006KT 9999 SCT018 17/14 Q1016,0,6,0,10000,0,0,0,
2026-04-28 12:00:00,SPECI YPPH 281200Z 10007KT 9999 BKN018 18/14 Q1016,0,7,0,10000,0,0,0,
2026-04-28 11:30:00,SPECI YPPH 281130Z 09009KT 9999 BKN018 18/14 Q1016,0,9,0,10000,0,0,0,
2026-04-28 11:00:00,SPECI YPPH 281100Z 08009KT 9999 BKN018 18/14 Q1015,0,9,0,10000,0,0,0,
2026-04-28 10:56:00,SPECI YPPH 281056Z 08010KT 9999 BKN018 18/14 Q1015,0,10,0,10000,0,0,0,
2026-04-28 10:30:00,METAR YPPH 281030Z 10008KT 9999 FEW020 SCT038 18/14 Q1015,0,8,0,10000,0,0,0,
2026-04-28 10:00:00,METAR YPPH 281000Z 09009KT 9999 FEW020 BKN038 18/14 Q1015,0,9,0,10000,0,0,0,
2026-04-28 09:30:00,METAR YPPH 280930Z 11009KT 9999 SCT034 BKN042 19/14 Q1015,0,9,0,10000,0,0,0,
2026-04-28 09:00:00,METAR YPPH 280900Z 10009KT 9999 SCT034 BKN040 19/14 Q1015,0,9,0,10000,0,0,0,
2026-04-28 08:30:00,METAR YPPH 280830Z 11010KT 9999 SCT032 BKN040 20/15 Q1015,0,10,0,10000,0,0,0,
2026-04-28 08:00:00,METAR YPPH 280800Z 11011KT 9999 FEW020 BKN040 20/15 Q1015,0,11,0,10000,0,0,0,
2026-04-28 07:30:00,METAR YPPH 280730Z 09012KT 9999 FEW020 BKN039 20/14 Q1015,0,12,0,10000,0,0,0,
2026-04-28 07:00:00,METAR YPPH 280700Z 09014KT 9999 FEW020 BKN035 20/15 Q1015,0,14,0,10000,0,0,0,
2026-04-28 06:30:00,METAR YPPH 280630Z 09014KT 9999 FEW020 BKN030 20/15 Q1015,0,14,0,10000,0,0,0,
2026-04-28 06:00:00,METAR YPPH 280600Z 11009KT 9999 FEW020 BKN030 20/15 Q1015,0,9,0,10000,0,0,0,
2026-04-28 05:30:00,METAR YPPH 280530Z 11010KT 9999 SCT020 BKN030 19/15 Q1015,0,10,0,10000,0,0,0,
2026-04-28 05:00:00,METAR YPPH 280500Z 12010KT 9999 BKN020 19/14 Q1016,0,10,0,10000,0,0,0,
2026-04-28 04:30:00,METAR YPPH 280430Z 11011KT 9999 BKN020 19/15 Q1016,0,11,0,10000,0,0,0,
2026-04-28 04:00:00,METAR YPPH 280400Z 09011KT 9999 BKN020 19/14 Q1017,0,11,0,10000,0,0,0,
2026-04-28 03:30:00,METAR YPPH 280330Z 10011KT 9999 BKN020 19/15 Q1017,0,11,0,10000,0,0,0,
2026-04-28 03:00:00,METAR YPPH 280300Z 09008KT 9999 BKN020 18/14 Q1018,0,8,0,10000,0,0,0,
2026-04-28 02:30:00,METAR YPPH 280230Z 08012KT 9999 BKN020 19/14 Q1018,0,12,0,10000,0,0,0,
2026-04-28 02:00:00,METAR YPPH 280200Z 11007KT 9999 BKN020 19/14 Q1018,0,7,0,10000,0,0,0,
2026-04-28 01:30:00,METAR YPPH 280130Z 11006KT 9999 BKN019 18/14 Q1018,0,6,0,10000,0,0,0,
2026-04-28 01:00:00,METAR YPPH 280100Z 10008KT 9999 SCT018 BKN140 17/14 Q1018,0,8,0,10000,0,0,0,
2026-04-28 00:30:00,METAR YPPH 280030Z 11007KT 9999 FEW016 SCT030 BKN150 17/14 Q1017,0,7,0,10000,0,0,0,
2026-04-28 00:00:00,METAR YPPH 280000Z 14006KT 100V160 9999 R21/P2000N SCT016 SCT140 BKN200 16/14 Q1017,0,6,0,10000,0,0,0,
2026-04-27 23:30:00,METAR YPPH 272330Z 20007KT 9999 FEW016 BKN200 15/13 Q1017,0,7,0,10000,0,0,0,
2026-04-27 23:00:00,METAR YPPH 272300Z 21006KT 9999 SCT016 SCT160 BKN200 15/13 Q1017,0,6,0,10000,0,0,0,
2026-04-27 22:30:00,SPECI YPPH 272230Z 21007KT 9999 R21/P2000N SCT016 BKN160 15/13 Q1017,0,7,0,10000,0,0,0,
2026-04-27 22:00:00,SPECI YPPH 272200Z 19007KT 9999 BKN016 15/13 Q1016,0,7,0,10000,0,0,0,
2026-04-27 21:30:00,METAR YPPH 272130Z AUTO 20006KT 9999 // OVC016 15/14 Q1017,0,6,0,10000,0,0,0,
2026-04-27 21:00:00,METAR YPPH 272100Z AUTO 19008KT 9999 // OVC016 15/14 Q1016,0,8,0,10000,0,0,0,
2026-04-27 20:30:00,METAR YPPH 272030Z AUTO 19007KT 9999 // OVC016 15/14 Q1016,0,7,0,10000,0,0,0,
2026-04-27 20:00:00,METAR YPPH 272000Z AUTO 20006KT 9999 // OVC016 15/14 Q1016,0,6,0,10000,0,0,0,
2026-04-27 19:30:00,METAR YPPH 271930Z AUTO 18008KT 9999 // OVC016 15/14 Q1016,0,8,0,10000,0,0,0,
2026-04-27 19:00:00,METAR YPPH 271900Z AUTO 19007KT 9999 // OVC016 15/14 Q1017,0,7,0,10000,0,0,0,
2026-04-27 18:30:00,METAR YPPH 271830Z AUTO 21005KT 9999 // OVC016 15/14 Q1017,0,5,0,10000,0,0,0,
2026-04-27 18:00:00,METAR YPPH 271800Z AUTO 27004KT 9999 // OVC016 15/14 Q1017,0,4,0,10000,0,0,0,
2026-04-27 17:30:00,METAR YPPH 271730Z AUTO 15004KT 120V180 9999 // OVC016 14/14 Q1016,0,4,0,10000,0,0,0,
2026-04-27 17:00:00,METAR YPPH 271700Z AUTO 16002KT 9999 // OVC016 14/14 Q1016,0,2,0,10000,0,0,0,
2026-04-27 16:30:00,METAR YPPH 271630Z AUTO 16003KT 9000 // BKN018 13/12 Q1016,0,3,0,9000,0,0,0,
2026-04-27 16:27:00,SPECI YPPH 271627Z AUTO 16005KT 9000 // BKN018 13/12 Q1016,0,5,0,9000,0,0,0,
2026-04-27 16:00:00,METAR YPPH 271600Z 20005KT 9999 FEW017 SCT190 14/13 Q1016,0,5,0,10000,0,0,0,
2026-04-27 15:30:00,METAR YPPH 271530Z 16007KT 9999 FEW015 SCT190 14/13 Q1016,0,7,0,10000,0,0,0,
2026-04-27 15:00:00,METAR YPPH 271500Z 17008KT 9999 FEW015 BKN190 15/14 Q1016,0,8,0,10000,0,0,0,
2026-04-27 14:49:00,SPECI YPPH 271449Z 17008KT 9999 SCT015 BKN180 15/15 Q1016,0,8,0,10000,0,0,0,
2026-04-27 14:30:00,SPECI YPPH 271430Z 16007KT 9999 FEW004 SCT015 15/15 Q1016,0,7,0,10000,0,0,0,
2026-04-27 14:00:00,SPECI YPPH 271400Z 19010KT 9999 BKN004 16/15 Q1016,0,10,0,10000,0,0,0,
2026-04-27 13:30:00,SPECI YPPH 271330Z 18007KT 9999 BKN005 BKN050 16/15 Q1016,0,7,0,10000,0,0,0,
2026-04-27 13:00:00,SPECI YPPH 271300Z 20007KT 9999 BKN006 OVC050 16/15 Q1016,0,7,0,10000,0,0,0,
2026-04-27 12:30:00,SPECI YPPH 271230Z 19005KT 9999 BKN006 BKN050 16/15 Q1017,0,5,0,10000,0,0,0,
2026-04-27 12:00:00,SPECI YPPH 271200Z 20005KT 9999 SCT006 BKN008 16/15 Q1016,0,5,0,10000,0,0,0,
2026-04-27 11:30:00,SPECI YPPH 271130Z 22007KT 9000 BKN004 BKN008 16/15 Q1016,0,7,0,9000,0,0,0,
2026-04-27 11:00:00,SPECI YPPH 271100Z 25007KT 8000 BKN004 16/15 Q1016,0,7,0,8000,0,0,0,
2026-04-27 10:30:00,SPECI YPPH 271030Z 20006KT 170V230 8000 BKN004 16/15 Q1015,0,6,0,8000,0,0,0,
2026-04-27 10:15:00,SPECI YPPH 271015Z 21005KT 9000 BKN004 16/15 Q1014,0,5,0,9000,0,0,0,
2026-04-27 10:00:00,SPECI YPPH 271000Z 26004KT 6000 BKN004 BKN040 16/15 Q1015,0,4,0,6000,0,0,0,
2026-04-27 09:48:00,SPECI YPPH 270948Z 27003KT 6000 VCSH FEW009 BKN038 BKN050 16/15 Q1014,0,3,0,6000,0,0,0,"SH,VC"
2026-04-27 09:30:00,SPECI YPPH 270930Z 28005KT 9000 -RA FEW010 BKN038 BKN047 16/15 Q1014,0,5,0,9000,0,0,0,-RA
2026-04-27 09:04:00,SPECI YPPH 270904Z 21003KT 7000 -RA SCT029 BKN038 16/15 Q1014,0,3,0,7000,0,0,0,-RA
2026-04-27 09:00:00,METAR YPPH 270900Z 21005KT 8000 -RA BKN028 BKN036 16/15 Q1014,0,5,0,8000,0,0,0,-RA
2026-04-27 08:42:00,SPECI YPPH 270842Z 27003KT 9000 VCSH BKN022 BKN027 16/15 Q1014,0,3,0,9000,0,0,0,"SH,VC"
2026-04-27 08:30:00,SPECI YPPH 270830Z 21005KT 6000 -RA BKN022 16/15 Q1014,0,5,0,6000,0,0,0,-RA
2026-04-27 08:00:00,SPECI YPPH 270800Z 21004KT 6000 -RA OVC022 16/15 Q1014,0,4,0,6000,0,0,0,-RA
2026-04-27 07:42:00,SPECI YPPH 270742Z 21005KT 6000 -RA OVC021 16/15 Q1014,0,5,0,6000,0,0,0,-RA
2026-04-27 07:30:00,METAR YPPH 270730Z 21006KT 9999 -DZ OVC021 16/15 Q1013,0,6,0,10000,0,0,0,DZ
2026-04-27 07:16:00,SPECI YPPH 270716Z 18006KT 9999 OVC019 16/15 Q1013,0,6,0,10000,0,0,0,
2026-04-27 07:00:00,SPECI YPPH 270700Z 19008KT 5000 -RA OVC019 16/15 Q1013,0,8,0,5000,0,0,0,-RA
2026-04-27 06:30:00,SPECI YPPH 270630Z 17009KT 5000 RA FEW006 OVC017 15/14 Q1013,0,9,0,5000,0,0,0,RA
2026-04-27 06:00:00,SPECI YPPH 270600Z 18013KT 6000 -RA FEW007 OVC015 15/14 Q1013,0,13,0,6000,0,0,0,-RA
2026-04-27 05:30:00,SPECI YPPH 270530Z 19011KT 7000 -RA FEW006 OVC013 15/14 Q1014,0,11,0,7000,0,0,0,-RA
2026-04-27 05:00:00,SPECI YPPH 270500Z 21009KT 7000 -RA SCT006 OVC013 15/14 Q1014,0,9,0,7000,0,0,0,-RA
2026-04-27 04:30:00,SPECI YPPH 270430Z 19010KT 9999 FEW006 OVC013 16/15 Q1014,0,10,0,10000,0,0,0,
2026-04-27 04:00:00,SPECI YPPH 270400Z 18011KT 9999 -RA FEW007 OVC013 16/14 Q1014,0,11,0,10000,0,0,0,-RA
2026-04-27 03:30:00,SPECI YPPH 270330Z 17012KT 9999 -RA BKN013 OVC034 16/15 Q1014,0,12,0,10000,0,0,0,-RA
2026-04-27 03:00:00,SPECI YPPH 270300Z 18012KT 7000 RA SCT007 OVC011 16/15 Q1015,0,12,0,7000,0,0,0,RA
2026-04-27 02:40:00,SPECI YPPH 270240Z 20008KT 9000 -RA BKN014 OVC035 17/16 Q1015,0,8,0,9000,0,0,0,-RA
2026-04-27 02:30:00,METAR YPPH 270230Z 21008KT 9999 -RA FEW014 SCT033 OVC047 17/15 Q1015,0,8,0,10000,0,0,0,-RA
2026-04-27 02:00:00,METAR YPPH 270200Z 25007KT 9999 -RA BKN047 OVC053 17/15 Q1015,0,7,0,10000,0,0,0,-RA
2026-04-27 01:30:00,METAR YPPH 270130Z 04007KT 9999 -RA NSC 17/15 Q1014,0,7,0,10000,0,0,0,-RA
2026-04-27 01:00:00,METAR YPPH 270100Z 06011KT 9999 -RA NSC 16/14 Q1014,0,11,0,10000,0,0,0,-RA
2026-04-27 00:30:00,METAR YPPH 270030Z 06005KT 9999 -RA NSC 16/13 Q1015,0,5,0,10000,0,0,0,-RA
2026-04-27 00:00:00,METAR YPPH 270000Z 05006KT CAVOK 16/12 Q1015,1,0,0,9999,0,0,0,
2026-04-26 23:30:00,METAR YPPH 262330Z 06007KT 9999 -RA NSC 15/12 Q1014,0,7,0,10000,0,0,0,-RA
2026-04-26 23:00:00,METAR YPPH 262300Z 04006KT 9999 -RA NSC 15/12 Q1014,0,6,0,10000,0,0,0,-RA
2026-04-26 22:30:00,METAR YPPH 262230Z 05007KT 9999 -RA NSC 15/12 Q1014,0,7,0,10000,0,0,0,-RA
2026-04-26 22:00:00,METAR YPPH 262200Z AUTO 02005KT 9999 -RA BKN120 15/12 Q1014,0,5,0,10000,0,0,0,-RA
2026-04-26 21:30:00,METAR YPPH 262130Z AUTO 05008KT 9999 -RA FEW110 15/13 Q1015,0,8,0,10000,0,0,0,-RA
2026-04-26 21:00:00,METAR YPPH 262100Z AUTO 06006KT 9999 -RA OVC120 15/13 Q1015,0,6,0,10000,0,0,0,-RA
2026-04-26 20:30:00,METAR YPPH 262030Z AUTO 03006KT 9999 -RA OVC120 16/11 Q1016,0,6,0,10000,0,0,0,-RA
2026-04-26 20:00:00,METAR YPPH 262000Z AUTO 04005KT 9999 // OVC120 16/11 Q1016,0,5,0,10000,0,0,0,
2026-04-26 19:30:00,METAR YPPH 261930Z AUTO 20004KT 9999 // OVC120 16/11 Q1015,0,4,0,10000,0,0,0,
2026-04-26 19:00:00,METAR YPPH 261900Z AUTO 29004KT 9999 // BKN098 OVC120 17/11 Q1015,0,4,0,10000,0,0,0,
2026-04-26 18:30:00,METAR YPPH 261830Z AUTO 00000KT 9999 // OVC096 16/12 Q1015,0,0,0,10000,0,0,0,
2026-04-26 18:00:00,METAR YPPH 261800Z AUTO 21003KT 9999 // SCT096 SCT115 16/11 Q1015,0,3,0,10000,0,0,0,
2026-04-26 17:30:00,METAR YPPH 261730Z AUTO 21004KT 9999 // BKN125 17/10 Q1015,0,4,0,10000,0,0,0,
2026-04-26 17:00:00,METAR YPPH 261700Z AUTO 25004KT 9999 // SCT125 17/11 Q1015,0,4,0,10000,0,0,0,
2026-04-26 16:30:00,METAR YPPH 261630Z AUTO 24004KT 9999 // NCD 18/10 Q1015,0,4,0,10000,0,0,0,
2026-04-26 16:00:00,METAR YPPH 261600Z 24006KT CAVOK 18/10 Q1015,1,0,0,9999,0,0,0,
2026-04-26 15:30:00,METAR YPPH 261530Z 25006KT CAVOK 18/11 Q1016,1,0,0,9999,0,0,0,
2026-04-26 15:00:00,METAR YPPH 261500Z 27003KT CAVOK 17/11 Q1016,1,0,0,9999,0,0,0,
2026-04-26 14:30:00,METAR YPPH 261430Z 22006KT CAVOK 17/11 Q1016,1,0,0,9999,0,0,0,
2026-04-26 14:00:00,METAR YPPH 261400Z 26004KT CAVOK 16/11 Q1016,1,0,0,9999,0,0,0,
2026-04-26 13:30:00,METAR YPPH 261330Z 22006KT CAVOK 17/11 Q1016,1,0,0,9999,0,0,0,
2026-04-26 13:00:00,METAR YPPH 261300Z 21005KT CAVOK 16/11 Q1017,1,0,0,9999,0,0,0,
2026-04-26 12:30:00,METAR YPPH 261230Z 00000KT CAVOK 16/11 Q1017,1,0,0,9999,0,0,0,
2026-04-26 12:00:00,METAR YPPH 261200Z 19005KT CAVOK 17/10 Q1017,1,0,0,9999,0,0,0,
2026-04-26 11:30:00,METAR YPPH 261130Z 19004KT CAVOK 18/10 Q1017,1,0,0,9999,0,0,0,
2026-04-26 11:00:00,METAR YPPH 261100Z 15006KT CAVOK 18/10 Q1017,1,0,0,9999,0,0,0,
2026-04-26 10:30:00,METAR YPPH 261030Z 16006KT CAVOK 19/10 Q1017,1,0,0,9999,0,0,0,
2026-04-26 10:00:00,METAR YPPH 261000Z 16006KT CAVOK 20/10 Q1017,1,0,0,9999,0,0,0,
2026-04-26 09:30:00,METAR YPPH 260930Z 15006KT CAVOK 21/09 Q1017,1,0,0,9999,0,0,0,
2026-04-26 09:00:00,METAR YPPH 260900Z 11005KT CAVOK 23/09 Q1017,1,0,0,9999,0,0,0,
2026-04-26 08:30:00,METAR YPPH 260830Z 10008KT CAVOK 24/07 Q1017,1,0,0,9999,0,0,0,
2026-04-26 08:00:00,METAR YPPH 260800Z 09007KT CAVOK 26/07 Q1018,1,0,0,9999,0,0,0,
2026-04-26 07:30:00,METAR YPPH 260730Z 06007KT CAVOK 26/08 Q1018,1,0,0,9999,0,0,0,
2026-04-26 07:00:00,METAR YPPH 260700Z 06007KT CAVOK 26/07 Q1018,1,0,0,9999,0,0,0,
2026-04-26 06:30:00,METAR YPPH 260630Z 05004KT 010V120 CAVOK 25/08 Q1018,1,0,0,9999,0,0,0,
2026-04-26 06:00:00,METAR YPPH 260600Z 12005KT 070V140 CAVOK 25/08 Q1018,1,0,0,9999,0,0,0,
2026-04-26 05:30:00,METAR YPPH 260530Z 08005KT CAVOK 25/08 Q1018,1,0,0,9999,0,0,0,
2026-04-26 05:00:00,METAR YPPH 260500Z 09006KT 020V120 CAVOK 26/09 Q1019,1,0,0,9999,0,0,0,
2026-04-26 04:30:00,METAR YPPH 260430Z 10006KT CAVOK 24/10 Q1020,1,0,0,9999,0,0,0,
2026-04-26 04:00:00,METAR YPPH 260400Z 11007KT 080V140 CAVOK 24/10 Q1020,1,0,0,9999,0,0,0,
2026-04-26 03:30:00,METAR YPPH 260330Z 10006KT CAVOK 23/10 Q1021,1,0,0,9999,0,0,0,
2026-04-26 03:00:00,METAR YPPH 260300Z 07006KT CAVOK 22/10 Q1022,1,0,0,9999,0,0,0,
2026-04-26 02:30:00,METAR YPPH 260230Z 08010KT CAVOK 21/10 Q1022,1,0,0,9999,0,0,0,
2026-04-26 02:00:00,METAR YPPH 260200Z 08012KT CAVOK 20/10 Q1022,1,0,0,9999,0,0,0,
2026-04-26 01:30:00,METAR YPPH 260130Z 05010KT CAVOK 19/10 Q1022,1,0,0,9999,0,0,0,
2026-04-26 01:00:00,METAR YPPH 260100Z 00000KT CAVOK 18/10 Q1023,1,0,0,9999,0,0,0,
2026-04-26 00:30:00,METAR YPPH 260030Z 31004KT CAVOK 16/11 Q1023,1,0,0,9999,0,0,0,
2026-04-26 00:00:00,METAR YPPH 260000Z 00000KT CAVOK 12/11 Q1022,1,0,0,9999,0,0,0,
2026-04-25 23:30:00,METAR YPPH 252330Z 01003KT CAVOK 09/09 Q1022,1,0,0,9999,0,0,0,
2026-04-25 23:00:00,METAR YPPH 252300Z 32005KT CAVOK 07/06 Q1023,1,0,0,9999,0,0,0,
2026-04-25 22:30:00,METAR YPPH 252230Z 31004KT CAVOK 07/06 Q1022,1,0,0,9999,0,0,0,
2026-04-25 22:00:00,METAR YPPH 252200Z AUTO 35003KT 9999 // NCD 06/06 Q1022,0,3,0,10000,0,0,0,
2026-04-25 21:30:00,METAR YPPH 252130Z AUTO 35004KT 9999 // NCD 07/06 Q1022,0,4,0,10000,0,0,0,
2026-04-25 21:00:00,METAR YPPH 252100Z AUTO 31005KT 9999 // NCD 08/07 Q1022,0,5,0,10000,0,0,0,
2026-04-25 20:30:00,METAR YPPH 252030Z AUTO 30005KT 9999 // NCD 08/07 Q1021,0,5,0,10000,0,0,0,
2026-04-25 20:00:00,METAR YPPH 252000Z AUTO 32005KT 9999 // NCD 08/08 Q1021,0,5,0,10000,0,0,0,
2026-04-25 19:30:00,METAR YPPH 251930Z AUTO 31005KT 9999 // NCD 09/08 Q1021,0,5,0,10000,0,0,0,
2026-04-25 19:00:00,METAR YPPH 251900Z AUTO 32005KT 9999 // NCD 08/07 Q1021,0,5,0,10000,0,0,0,
2026-04-25 18:30:00,METAR YPPH 251830Z AUTO 32004KT 300V360 9999 // NCD 09/08 Q1022,0,4,0,10000,0,0,0,
2026-04-25 18:00:00,METAR YPPH 251800Z AUTO 00000KT 9999 // NCD 09/08 Q1022,0,0,0,10000,0,0,0,
2026-04-25 17:30:00,METAR YPPH 251730Z AUTO 36004KT 9999 // NCD 09/08 Q1023,0,4,0,10000,0,0,0,
2026-04-25 17:00:00,METAR YPPH 251700Z AUTO 30004KT 220V330 9999 // NCD 10/09 Q1023,0,4,0,10000,0,0,0,
2026-04-25 16:30:00,METAR YPPH 251630Z AUTO 19005KT 9999 // NCD 10/09 Q1023,0,5,0,10000,0,0,0,
2026-04-25 16:00:00,METAR YPPH 251600Z 14005KT CAVOK 10/09 Q1023,1,0,0,9999,0,0,0,
2026-04-25 15:30:00,METAR YPPH 251530Z 00000KT CAVOK 10/08 Q1023,1,0,0,9999,0,0,0,
2026-04-25 15:00:00,METAR YPPH 251500Z 00000KT CAVOK 11/09 Q1024,1,0,0,9999,0,0,0,
2026-04-25 14:30:00,METAR YPPH 251430Z 00000KT CAVOK 12/09 Q1024,1,0,0,9999,0,0,0,
2026-04-25 14:00:00,METAR YPPH 251400Z 16007KT CAVOK 13/10 Q1024,1,0,0,9999,0,0,0,
2026-04-25 13:30:00,METAR YPPH 251330Z 17007KT CAVOK 14/10 Q1024,1,0,0,9999,0,0,0,
2026-04-25 13:00:00,METAR YPPH 251300Z 18008KT CAVOK 16/11 Q1024,1,0,0,9999,0,0,0,
2026-04-25 12:30:00,METAR YPPH 251230Z 19008KT CAVOK 17/10 Q1024,1,0,0,9999,0,0,0,
2026-04-25 12:00:00,METAR YPPH 251200Z 20006KT CAVOK 17/10 Q1024,1,0,0,9999,0,0,0,
2026-04-25 11:30:00,METAR YPPH 251130Z 20009KT 9999 FEW040 17/10 Q1024,0,9,0,10000,0,0,0,
2026-04-25 11:00:00,METAR YPPH 251100Z 20010KT 9999 FEW042 18/11 Q1024,0,10,0,10000,0,0,0,
2026-04-25 10:30:00,METAR YPPH 251030Z 21009KT 9999 FEW042 19/10 Q1023,0,9,0,10000,0,0,0,
2026-04-25 10:00:00,METAR YPPH 251000Z 21012KT 9999 FEW042 19/11 Q1023,0,12,0,10000,0,0,0,
2026-04-25 09:30:00,METAR YPPH 250930Z 23011KT CAVOK 20/11 Q1022,1,0,0,9999,0,0,0,
2026-04-25 09:00:00,METAR YPPH 250900Z 23011KT 9999 FEW042 21/10 Q1022,0,11,0,10000,0,0,0,
2026-04-25 08:30:00,METAR YPPH 250830Z 21011KT 9999 FEW042 22/11 Q1022,0,11,0,10000,0,0,0,
2026-04-25 08:00:00,METAR YPPH 250800Z 23008KT 9999 FEW042 23/12 Q1022,0,8,0,10000,0,0,0,
2026-04-25 07:30:00,METAR YPPH 250730Z 24008KT 220V280 9999 FEW045 23/12 Q1022,0,8,0,10000,0,0,0,
2026-04-25 07:00:00,METAR YPPH 250700Z 25011KT 190V270 9999 FEW045 23/10 Q1022,0,11,0,10000,0,0,0,
2026-04-25 06:30:00,METAR YPPH 250630Z 19009KT 160V230 9999 FEW045 24/11 Q1022,0,9,0,10000,0,0,0,
2026-04-25 06:00:00,METAR YPPH 250600Z 24010KT 9999 FEW045 24/11 Q1022,0,10,0,10000,0,0,0,
2026-04-25 05:30:00,METAR YPPH 250530Z 20006KT 9999 FEW045 24/12 Q1022,0,6,0,10000,0,0,0,
2026-04-25 05:00:00,METAR YPPH 250500Z 17007KT 110V200 9999 SCT044 24/11 Q1023,0,7,0,10000,0,0,0,
2026-04-25 04:30:00,METAR YPPH 250430Z 22007KT 170V250 9999 SCT044 23/11 Q1023,0,7,0,10000,0,0,0,
2026-04-25 04:00:00,METAR YPPH 250400Z 21007KT 9999 FEW040 SCT047 24/11 Q1024,0,7,0,10000,0,0,0,
2026-04-25 03:30:00,METAR YPPH 250330Z 21005KT 9999 SCT038 23/12 Q1024,0,5,0,10000,0,0,0,
2026-04-25 03:00:00,METAR YPPH 250300Z 18006KT 130V220 9999 FEW032 22/13 Q1025,0,6,0,10000,0,0,0,
2026-04-25 02:30:00,METAR YPPH 250230Z 01004KT 330V060 9999 FEW032 21/11 Q1025,0,4,0,10000,0,0,0,
2026-04-25 02:00:00,METAR YPPH 250200Z 06005KT 9999 FEW030 19/12 Q1025,0,5,0,10000,0,0,0,
2026-04-25 01:30:00,METAR YPPH 250130Z 03005KT 9999 FEW025 17/12 Q1025,0,5,0,10000,0,0,0,
2026-04-25 01:00:00,METAR YPPH 250100Z 02005KT 9999 FEW040 16/11 Q1025,0,5,0,10000,0,0,0,
2026-04-25 00:30:00,METAR YPPH 250030Z 02005KT 9999 FEW040 14/11 Q1025,0,5,0,10000,0,0,0,
2026-04-25 00:00:00,METAR YPPH 250000Z 01006KT 9999 FEW040 11/10 Q1024,0,6,0,10000,0,0,0,
2026-04-24 23:30:00,METAR YPPH 242330Z 01004KT 9999 FEW045 09/08 Q1024,0,4,0,10000,0,0,0,
2026-04-24 23:00:00,METAR YPPH 242300Z 02004KT 9999 FEW045 07/06 Q1024,0,4,0,10000,0,0,0,
2026-04-24 22:30:00,METAR YPPH 242230Z 00000KT CAVOK 07/06 Q1023,1,0,0,9999,0,0,0,
2026-04-24 22:00:00,METAR YPPH 242200Z AUTO 00000KT 9999 // NCD 07/06 Q1023,0,0,0,10000,0,0,0,
2026-04-24 21:30:00,METAR YPPH 242130Z AUTO 01006KT 9999 // NCD 07/06 Q1023,0,6,0,10000,0,0,0,
2026-04-24 21:00:00,METAR YPPH 242100Z AUTO 00000KT 9999 // NCD 07/06 Q1023,0,0,0,10000,0,0,0,
2026-04-24 20:30:00,METAR YPPH 242030Z AUTO 00000KT 9999 // NCD 07/06 Q1023,0,0,0,10000,0,0,0,
2026-04-24 20:00:00,METAR YPPH 242000Z AUTO 00000KT 9999 // NCD 07/06 Q1022,0,0,0,10000,0,0,0,
2026-04-24 19:30:00,METAR YPPH 241930Z AUTO 00000KT 9999 // NCD 07/06 Q1022,0,0,0,10000,0,0,0,
2026-04-24 19:00:00,METAR YPPH 241900Z AUTO 00000KT 9999 // NCD 07/06 Q1022,0,0,0,10000,0,0,0,
2026-04-24 18:30:00,METAR YPPH 241830Z AUTO 00000KT 9999 // NCD 08/07 Q1022,0,0,0,10000,0,0,0,
2026-04-24 18:00:00,METAR YPPH 241800Z AUTO 08004KT 9999 // NCD 08/07 Q1022,0,4,0,10000,0,0,0,
2026-04-24 17:30:00,METAR YPPH 241730Z AUTO 06005KT 9999 // NCD 08/07 Q1022,0,5,0,10000,0,0,0,
2026-04-24 17:00:00,METAR YPPH 241700Z AUTO 00000KT 9999 // NCD 08/07 Q1022,0,0,0,10000,0,0,0,
2026-04-24 16:30:00,METAR YPPH 241630Z AUTO 04004KT 9999 // NCD 09/08 Q1022,0,4,0,10000,0,0,0,
2026-04-24 16:00:00,METAR YPPH 241600Z 36004KT 9999 FEW038 09/08 Q1022,0,4,0,10000,0,0,0,
2026-04-24 15:30:00,METAR YPPH 241530Z 01005KT 9999 FEW038 09/08 Q1022,0,5,0,10000,0,0,0,
2026-04-24 15:00:00,METAR YPPH 241500Z 02005KT 9999 FEW038 10/08 Q1022,0,5,0,10000,0,0,0,
2026-04-24 14:30:00,METAR YPPH 241430Z 02004KT 9999 FEW038 10/09 Q1022,0,4,0,10000,0,0,0,
2026-04-24 14:00:00,METAR YPPH 241400Z 01004KT 9999 FEW040 11/09 Q1022,0,4,0,10000,0,0,0,
2026-04-24 13:30:00,METAR YPPH 241330Z 04005KT 9999 FEW040 11/09 Q1023,0,5,0,10000,0,0,0,
2026-04-24 13:00:00,METAR YPPH 241300Z 04004KT 9999 FEW040 12/10 Q1022,0,4,0,10000,0,0,0,
2026-04-24 12:30:00,METAR YPPH 241230Z 06004KT 9999 FEW038 13/10 Q1022,0,4,0,10000,0,0,0,
2026-04-24 12:00:00,METAR YPPH 241200Z 17005KT 9999 FEW038 14/10 Q1022,0,5,0,10000,0,0,0,
2026-04-24 11:30:00,METAR YPPH 241130Z 21007KT 9999 FEW038 15/11 Q1022,0,7,0,10000,0,0,0,
2026-04-24 11:00:00,METAR YPPH 241100Z 21007KT 9999 FEW036 16/11 Q1021,0,7,0,10000,0,0,0,
2026-04-24 10:30:00,METAR YPPH 241030Z 21006KT 9999 FEW032 17/11 Q1021,0,6,0,10000,0,0,0,
2026-04-24 10:00:00,METAR YPPH 241000Z 22007KT 9999 FEW032 17/10 Q1020,0,7,0,10000,0,0,0,
2026-04-24 09:30:00,METAR YPPH 240930Z 24009KT 9999 FEW032 19/11 Q1020,0,9,0,10000,0,0,0,
2026-04-24 09:00:00,METAR YPPH 240900Z 24008KT 9999 FEW032 20/11 Q1020,0,8,0,10000,0,0,0,
2026-04-24 08:30:00,METAR YPPH 240830Z 23011KT 9999 FEW034 21/12 Q1020,0,11,0,10000,0,0,0,
2026-04-24 08:00:00,METAR YPPH 240800Z 26009KT 9999 VCSH FEW034 SCT056 20/11 Q1019,0,9,0,10000,0,0,0,"SH,VC"
2026-04-24 07:30:00,METAR YPPH 240730Z 23011KT 9999 FEW032 BKN060 20/12 Q1019,0,11,0,10000,0,0,0,
2026-04-24 07:00:00,METAR YPPH 240700Z 25013KT 9999 FEW032 BKN060 21/11 Q1019,0,13,0,10000,0,0,0,
2026-04-24 06:30:00,METAR YPPH 240630Z 24012KT 9999 SCT032 BKN050 20/12 Q1019,0,12,0,10000,0,0,0,
2026-04-24 06:00:00,METAR YPPH 240600Z 23009KT 9999 FEW035 BKN060 20/13 Q1018,0,9,0,10000,0,0,0,
2026-04-24 05:30:00,METAR YPPH 240530Z 24009KT 9999 FEW032 SCT045 BKN060 21/12 Q1018,0,9,0,10000,0,0,0,
2026-04-24 05:00:00,METAR YPPH 240500Z 26011KT 9999 FEW030 SCT045 BKN060 20/11 Q1019,0,11,0,10000,0,0,0,
2026-04-24 04:30:00,METAR YPPH 240430Z 24009KT 9999 FEW028 SCT045 BKN055 20/12 Q1019,0,9,0,10000,0,0,0,
2026-04-24 04:00:00,METAR YPPH 240400Z 24007KT 210V270 9999 SCT026 BKN055 19/12 Q1019,0,7,0,10000,0,0,0,
2026-04-24 03:30:00,METAR YPPH 240330Z 30005KT 9999 VCSH FEW018 SCT024 20/13 Q1019,0,5,0,10000,0,0,0,"SH,VC"
2026-04-24 03:00:00,METAR YPPH 240300Z 29003KT 9999 FEW015 SCT024 19/13 Q1019,0,3,0,10000,0,0,0,
2026-04-24 02:30:00,METAR YPPH 240230Z 34004KT 320V020 9999 FEW015 SCT025 19/15 Q1019,0,4,0,10000,0,0,0,
2026-04-24 02:00:00,METAR YPPH 240200Z 36005KT 9999 VCSH FEW018 SCT033 BKN045 17/14 Q1019,0,5,0,10000,0,0,0,"SH,VC"
2026-04-24 01:30:00,METAR YPPH 240130Z 01007KT 9999 FEW025 SCT032 BKN055 16/13 Q1019,0,7,0,10000,0,0,0,
2026-04-24 01:00:00,METAR YPPH 240100Z 02007KT 9999 FEW019 SCT032 BKN055 15/14 Q1019,0,7,0,10000,0,0,0,
2026-04-24 00:40:00,SPECI YPPH 240040Z AUTO 03008KT 6000 // BKN037 OVC043 14/13 Q1019,0,8,0,6000,0,0,0,
2026-04-24 00:30:00,METAR YPPH 240030Z 01008KT 9999 -DZ FEW025 BKN040 BKN055 14/13 Q1019,0,8,0,10000,0,0,0,DZ
2026-04-24 00:00:00,METAR YPPH 240000Z 01007KT 9999 -DZ FEW025 SCT032 BKN042 13/12 Q1019,0,7,0,10000,0,0,0,DZ
2026-04-23 23:30:00,METAR YPPH 232330Z 05005KT 9999 VCSH FEW025 SCT035 BKN057 13/12 Q1018,0,5,0,10000,0,0,0,"SH,VC"
2026-04-23 23:00:00,METAR YPPH 232300Z 04006KT 9999 VCSH FEW017 SCT025 BKN035 12/11 Q1018,0,6,0,10000,0,0,0,"SH,VC"
2026-04-23 22:30:00,METAR YPPH 232230Z 07003KT 9999 VCSH FEW025 SCT030 BKN040 11/10 Q1018,0,3,0,10000,0,0,0,"SH,VC"
2026-04-23 22:00:00,METAR YPPH 232200Z AUTO 09003KT 9999 // OVC028 12/10 Q1018,0,3,0,10000,0,0,0,
2026-04-23 21:30:00,METAR YPPH 232130Z AUTO 08003KT 9999 // SCT031 SCT035 BKN042 12/10 Q1017,0,3,0,10000,0,0,0,
2026-04-23 21:00:00,METAR YPPH 232100Z AUTO 21004KT 130V250 9999 // SCT028 BKN036 BKN041 12/11 Q1017,0,4,0,10000,0,0,0,
2026-04-23 20:30:00,METAR YPPH 232030Z AUTO 35006KT 9999 -DZ FEW040 SCT047 BKN054 12/10 Q1017,0,6,0,10000,0,0,0,DZ
2026-04-23 20:00:00,METAR YPPH 232000Z AUTO 01005KT 9999 // BKN040 OVC058 12/10 Q1017,0,5,0,10000,0,0,0,
2026-04-23 19:30:00,METAR YPPH 231930Z AUTO 01005KT 9999 // OVC054 11/10 Q1017,0,5,0,10000,0,0,0,
2026-04-23 19:00:00,METAR YPPH 231900Z AUTO 01004KT 9999 // BKN056 11/09 Q1017,0,4,0,10000,0,0,0,
2026-04-23 18:30:00,METAR YPPH 231830Z AUTO 01005KT 9999 // FEW056 11/09 Q1017,0,5,0,10000,0,0,0,
2026-04-23 18:00:00,METAR YPPH 231800Z AUTO 02005KT 9999 // SCT054 11/09 Q1017,0,5,0,10000,0,0,0,
2026-04-23 17:30:00,METAR YPPH 231730Z AUTO 03004KT 9999 // OVC054 11/10 Q1017,0,4,0,10000,0,0,0,
2026-04-23 17:00:00,METAR YPPH 231700Z AUTO 02006KT 9999 // BKN052 11/09 Q1017,0,6,0,10000,0,0,0,
2026-04-23 16:30:00,METAR YPPH 231630Z AUTO 01005KT 9999 // NCD 11/09 Q1016,0,5,0,10000,0,0,0,
2026-04-23 16:00:00,METAR YPPH 231600Z 04004KT CAVOK 12/09 Q1016,1,0,0,9999,0,0,0,
2026-04-23 15:30:00,METAR YPPH 231530Z 02005KT CAVOK 12/10 Q1016,1,0,0,9999,0,0,0,
2026-04-23 15:00:00,METAR YPPH 231500Z 00000KT CAVOK 12/09 Q1016,1,0,0,9999,0,0,0,
2026-04-23 14:30:00,METAR YPPH 231430Z 04004KT 9999 FEW040 BKN055 14/10 Q1016,0,4,0,10000,0,0,0,
2026-04-23 14:00:00,METAR YPPH 231400Z 03004KT 9999 VCSH SCT040 BKN055 14/10 Q1016,0,4,0,10000,0,0,0,"SH,VC"
2026-04-23 13:30:00,METAR YPPH 231330Z 04004KT 9999 SCT040 BKN055 14/10 Q1016,0,4,0,10000,0,0,0,
2026-04-23 13:00:00,METAR YPPH 231300Z 05005KT 9999 FEW040 BKN055 14/10 Q1016,0,5,0,10000,0,0,0,
2026-04-23 12:30:00,METAR YPPH 231230Z 06006KT 9999 FEW040 BKN055 14/10 Q1016,0,6,0,10000,0,0,0,
2026-04-23 12:00:00,METAR YPPH 231200Z 06004KT 9999 FEW040 BKN055 13/09 Q1016,0,4,0,10000,0,0,0,
2026-04-23 11:30:00,METAR YPPH 231130Z 27004KT 9999 FEW040 BKN055 14/09 Q1016,0,4,0,10000,0,0,0,
2026-04-23 11:00:00,METAR YPPH 231100Z 25005KT 9999 SCT045 15/09 Q1015,0,5,0,10000,0,0,0,
2026-04-23 10:30:00,METAR YPPH 231030Z 21006KT 9999 FEW045 16/09 Q1015,0,6,0,10000,0,0,0,
2026-04-23 10:00:00,METAR YPPH 231000Z 23007KT 9999 SCT045 17/09 Q1014,0,7,0,10000,0,0,0,
2026-04-23 09:30:00,METAR YPPH 230930Z 23008KT 9999 SCT040 18/10 Q1014,0,8,0,10000,0,0,0,
2026-04-23 09:00:00,METAR YPPH 230900Z 25008KT 9999 FEW040 19/10 Q1014,0,8,0,10000,0,0,0,
2026-04-23 08:30:00,METAR YPPH 230830Z 25011KT 9999 FEW040 20/09 Q1014,0,11,0,10000,0,0,0,
2026-04-23 08:00:00,METAR YPPH 230800Z 25012KT 9999 FEW040 SCT055 19/10 Q1014,0,12,0,10000,0,0,0,
2026-04-23 07:30:00,METAR YPPH 230730Z 27010KT 9999 SCT040 SCT050 20/10 Q1014,0,10,0,10000,0,0,0,
2026-04-23 07:00:00,METAR YPPH 230700Z 25012KT 9999 SCT040 20/10 Q1014,0,12,0,10000,0,0,0,
2026-04-23 06:30:00,METAR YPPH 230630Z 25013KT 9999 FEW042 SCT070 21/10 Q1014,0,13,0,10000,0,0,0,
2026-04-23 06:00:00,METAR YPPH 230600Z 25013KT CAVOK 20/09 Q1014,1,0,0,9999,0,0,0,
2026-04-23 05:30:00,METAR YPPH 230530Z 25014KT 9999 FEW045 SCT070 20/08 Q1014,0,14,0,10000,0,0,0,
2026-04-23 05:00:00,METAR YPPH 230500Z 24014KT 9999 FEW042 SCT070 20/08 Q1014,0,14,0,10000,0,0,0,
2026-04-23 04:30:00,METAR YPPH 230430Z 25014KT 9999 FEW040 BKN057 20/07 Q1014,0,14,0,10000,0,0,0,
2026-04-23 04:00:00,METAR YPPH 230400Z 24015KT CAVOK 20/10 Q1014,1,0,0,9999,0,0,0,
2026-04-23 03:30:00,METAR YPPH 230330Z 25014KT 9999 FEW048 BKN055 20/10 Q1014,0,14,0,10000,0,0,0,
2026-04-23 03:00:00,METAR YPPH 230300Z 25015KT 9999 FEW048 BKN055 20/11 Q1014,0,15,0,10000,0,0,0,
2026-04-23 02:30:00,METAR YPPH 230230Z 25014KT 9999 SCT047 BKN055 20/11 Q1013,0,14,0,10000,0,0,0,
2026-04-23 02:00:00,METAR YPPH 230200Z 24016KT 9999 BKN040 BKN048 19/12 Q1013,0,16,0,10000,0,0,0,
2026-04-23 01:30:00,METAR YPPH 230130Z 26012KT 9999 BKN038 BKN045 18/12 Q1013,0,12,0,10000,0,0,0,
2026-04-23 01:00:00,METAR YPPH 230100Z 23013KT 9999 VCSH FEW015 BKN030 BKN042 17/14 Q1013,0,13,0,10000,0,0,0,"SH,VC"
2026-04-23 00:30:00,METAR YPPH 230030Z 24011KT 9999 FEW015 BKN022 BKN030 17/15 Q1013,0,11,0,10000,0,0,0,
2026-04-23 00:13:00,SPECI YPPH 230013Z 24011KT 9999 SCT008 BKN020 BKN025 16/15 Q1012,0,11,0,10000,0,0,0,
2026-04-23 00:00:00,SPECI YPPH 230000Z 25012KT 8000 VCSH FEW008 BKN025 16/15 Q1012,0,12,0,8000,0,0,0,"SH,VC"
2026-04-22 23:30:00,SPECI YPPH 222330Z 25009KT 5000 DZ FEW010 BKN017 BKN030 17/16 Q1011,0,9,0,5000,0,0,0,DZ
2026-04-22 23:00:00,SPECI YPPH 222300Z 27014KT 5000 -SHRA FEW012 BKN020 17/15 Q1011 RESHRA,0,14,0,5000,0,0,0,RA
2026-04-22 22:54:00,SPECI YPPH 222254Z 27015KT 5000 -SHRA FEW012 BKN018 BKN030 17/15 Q1011,0,15,0,5000,0,0,0,RA
2026-04-22 22:44:00,SPECI YPPH 222244Z 27014KT 260V350 6000 SHRA FEW010 SCT025 BKN055 17/15 Q1011,0,14,0,6000,0,0,0,"RA,SH"
2026-04-22 22:30:00,METAR YPPH 222230Z 32011KT 9999 VCSH FEW012 SCT030 BKN055 17/15 Q1011,0,11,0,10000,0,0,0,"SH,VC"
2026-04-22 22:13:00,SPECI YPPH 222213Z AUTO 32016KT 9999 -SHRA SCT012 SCT025 BKN033 17/15 Q1011,0,16,0,10000,0,0,0,RA
2026-04-22 22:00:00,SPECI YPPH 222200Z AUTO 29015KT 5000 DZ HZ SCT012 BKN022 BKN030 17/15 Q1011,0,15,0,5000,0,0,0,DZ
2026-04-22 21:53:00,SPECI YPPH 222153Z AUTO 29017KT 6000 DZ FEW015 BKN024 BKN033 17/15 Q1011,0,17,0,6000,0,0,0,DZ
2026-04-22 21:45:00,SPECI YPPH 222145Z AUTO 31015KT 290V010 9999 -DZ FEW031 SCT037 BKN046 15/11 Q1010,0,15,0,10000,0,0,0,DZ
2026-04-22 21:30:00,METAR YPPH 222130Z AUTO 02008KT 9999 // SCT041 BKN050 OVC056 15/11 Q1010,0,8,0,10000,0,0,0,
2026-04-22 21:00:00,METAR YPPH 222100Z AUTO 03008KT 9999 // FEW039 OVC055 15/10 Q1010,0,8,0,10000,0,0,0,
2026-04-22 20:30:00,METAR YPPH 222030Z AUTO 03009KT 9999 // FEW039 OVC055 14/10 Q1010,0,9,0,10000,0,0,0,
2026-04-22 20:00:00,METAR YPPH 222000Z AUTO 03008KT 9999 // FEW043 BKN055 14/10 Q1010,0,8,0,10000,0,0,0,
2026-04-22 19:30:00,METAR YPPH 221930Z AUTO 03008KT 9999 // FEW042 13/10 Q1010,0,8,0,10000,0,0,0,
2026-04-22 19:00:00,METAR YPPH 221900Z AUTO 02007KT 9999 // BKN060 13/10 Q1010,0,7,0,10000,0,0,0,
2026-04-22 18:30:00,METAR YPPH 221830Z AUTO 04006KT 9999 // FEW050 BKN060 13/09 Q1010,0,6,0,10000,0,0,0,
2026-04-22 18:00:00,METAR YPPH 221800Z AUTO 05005KT 9999 // FEW058 13/09 Q1011,0,5,0,10000,0,0,0,
2026-04-22 17:30:00,METAR YPPH 221730Z AUTO 02006KT 9999 // OVC056 14/10 Q1011,0,6,0,10000,0,0,0,
2026-04-22 17:00:00,METAR YPPH 221700Z AUTO 02004KT 9999 // BKN043 OVC054 13/09 Q1011,0,4,0,10000,0,0,0,
2026-04-22 16:30:00,METAR YPPH 221630Z AUTO 04006KT 9999 // BKN058 13/09 Q1011,0,6,0,10000,0,0,0,
2026-04-22 16:00:00,METAR YPPH 221600Z 01004KT 9999 FEW040 BKN055 13/09 Q1011,0,4,0,10000,0,0,0,
2026-04-22 15:30:00,METAR YPPH 221530Z 04005KT 9999 SCT040 12/09 Q1011,0,5,0,10000,0,0,0,
2026-04-22 15:00:00,METAR YPPH 221500Z 03005KT 9999 FEW038 12/08 Q1012,0,5,0,10000,0,0,0,
2026-04-22 14:30:00,METAR YPPH 221430Z 03005KT 9999 FEW040 12/09 Q1012,0,5,0,10000,0,0,0,
2026-04-22 14:00:00,METAR YPPH 221400Z 04005KT 9999 FEW040 12/08 Q1012,0,5,0,10000,0,0,0,
2026-04-22 13:30:00,METAR YPPH 221330Z 04005KT CAVOK 12/08 Q1012,1,0,0,9999,0,0,0,
2026-04-22 13:00:00,METAR YPPH 221300Z 04001KT CAVOK 12/08 Q1013,1,0,0,9999,0,0,0,
2026-04-22 12:30:00,METAR YPPH 221230Z 27003KT CAVOK 13/09 Q1013,1,0,0,9999,0,0,0,
2026-04-22 12:00:00,METAR YPPH 221200Z 27005KT CAVOK 13/08 Q1013,1,0,0,9999,0,0,0,
2026-04-22 11:30:00,METAR YPPH 221130Z 26004KT CAVOK 14/08 Q1013,1,0,0,9999,0,0,0,
2026-04-22 11:00:00,METAR YPPH 221100Z 25005KT CAVOK 15/08 Q1013,1,0,0,9999,0,0,0,
2026-04-22 10:30:00,SPECI YPPH 221030Z 25005KT CAVOK 17/08 Q1012,1,0,0,9999,0,0,0,
2026-04-22 10:00:00,METAR YPPH 221000Z 25006KT CAVOK 19/08 Q1012,1,0,0,9999,0,0,0,
2026-04-22 09:30:00,METAR YPPH 220930Z 25009KT CAVOK 20/07 Q1012,1,0,0,9999,0,0,0,
2026-04-22 09:00:00,METAR YPPH 220900Z 25009KT CAVOK 21/06 Q1012,1,0,0,9999,0,0,0,
2026-04-22 08:30:00,METAR YPPH 220830Z 23010KT CAVOK 22/07 Q1012,1,0,0,9999,0,0,0,
2026-04-22 08:00:00,METAR YPPH 220800Z 23011KT CAVOK 23/06 Q1012,1,0,0,9999,0,0,0,
2026-04-22 07:30:00,METAR YPPH 220730Z AUTO 22011KT 9999 // NCD 23/06 Q1012,0,11,0,10000,0,0,0,
2026-04-22 07:00:00,METAR YPPH 220700Z 26010KT CAVOK 23/05 Q1012,1,0,0,9999,0,0,0,
2026-04-22 06:30:00,METAR YPPH 220630Z 25009KT 240V300 CAVOK 24/05 Q1013,1,0,0,9999,0,0,0,
2026-04-22 06:00:00,METAR YPPH 220600Z 01009KT 320V020 CAVOK 24/05 Q1013,1,0,0,9999,0,0,0,
2026-04-22 05:30:00,METAR YPPH 220530Z 31006KT 280V350 CAVOK 24/03 Q1013,1,0,0,9999,0,0,0,
2026-04-22 05:00:00,METAR YPPH 220500Z 33009KT CAVOK 23/04 Q1014,1,0,0,9999,0,0,0,
2026-04-22 04:30:00,METAR YPPH 220430Z 32008KT CAVOK 23/05 Q1015,1,0,0,9999,0,0,0,
2026-04-22 04:00:00,METAR YPPH 220400Z 34009KT CAVOK 22/05 Q1016,1,0,0,9999,0,0,0,
2026-04-22 03:30:00,METAR YPPH 220330Z 01007KT CAVOK 22/05 Q1016,1,0,0,9999,0,0,0,
2026-04-22 03:00:00,METAR YPPH 220300Z 01008KT CAVOK 21/04 Q1017,1,0,0,9999,0,0,0,
2026-04-22 02:30:00,METAR YPPH 220230Z 03009KT CAVOK 21/04 Q1017,1,0,0,9999,0,0,0,
2026-04-22 02:00:00,METAR YPPH 220200Z 04008KT CAVOK 20/04 Q1018,1,0,0,9999,0,0,0,
2026-04-22 01:30:00,METAR YPPH 220130Z 07008KT CAVOK 18/06 Q1018,1,0,0,9999,0,0,0,
2026-04-22 01:00:00,METAR YPPH 220100Z AUTO 06006KT 9999 // NCD 16/06 Q1018,0,6,0,10000,0,0,0,
2026-04-22 00:30:00,METAR YPPH 220030Z 06007KT CAVOK 15/05 Q1019,1,0,0,9999,0,0,0,
2026-04-22 00:00:00,METAR YPPH 220000Z 04007KT CAVOK 13/05 Q1019,1,0,0,9999,0,0,0,
2026-04-21 23:30:00,METAR YPPH 212330Z 05007KT CAVOK 11/05 Q1018,1,0,0,9999,0,0,0,
2026-04-21 23:00:00,METAR YPPH 212300Z 05009KT CAVOK 10/05 Q1018,1,0,0,9999,0,0,0,
2026-04-21 22:30:00,METAR YPPH 212230Z 06009KT CAVOK 10/06 Q1018,1,0,0,9999,0,0,0,
2026-04-21 22:00:00,METAR YPPH 212200Z 05007KT CAVOK 10/06 Q1019,1,0,0,9999,0,0,0,
2026-04-21 21:30:00,METAR YPPH 212130Z AUTO 06009KT 9999 // NCD 10/06 Q1019,0,9,0,10000,0,0,0,
2026-04-21 21:00:00,METAR YPPH 212100Z AUTO 05008KT 9999 // NCD 10/06 Q1019,0,8,0,10000,0,0,0,
2026-04-21 20:30:00,METAR YPPH 212030Z AUTO 03006KT 9999 // NCD 09/06 Q1019,0,6,0,10000,0,0,0,
2026-04-21 20:00:00,METAR YPPH 212000Z AUTO 01005KT 9999 // NCD 09/06 Q1019,0,5,0,10000,0,0,0,
2026-04-21 19:30:00,METAR YPPH 211930Z AUTO 03005KT 9999 // NCD 09/06 Q1019,0,5,0,10000,0,0,0,
2026-04-21 19:00:00,METAR YPPH 211900Z AUTO 02005KT 9999 // NCD 10/07 Q1019,0,5,0,10000,0,0,0,
2026-04-21 18:30:00,METAR YPPH 211830Z AUTO 05005KT 9999 // NCD 10/07 Q1020,0,5,0,10000,0,0,0,
2026-04-21 18:00:00,METAR YPPH 211800Z AUTO 04006KT 9999 // NCD 10/07 Q1020,0,6,0,10000,0,0,0,
2026-04-21 17:30:00,METAR YPPH 211730Z AUTO 06004KT 9999 // NCD 09/07 Q1020,0,4,0,10000,0,0,0,
2026-04-21 17:00:00,METAR YPPH 211700Z AUTO 00000KT 9999 // NCD 08/07 Q1020,0,0,0,10000,0,0,0,
2026-04-21 16:30:00,METAR YPPH 211630Z AUTO 05004KT 9999 // NCD 08/07 Q1020,0,4,0,10000,0,0,0,
2026-04-21 16:00:00,METAR YPPH 211600Z 08005KT CAVOK 08/06 Q1020,1,0,0,9999,0,0,0,
2026-04-21 15:30:00,METAR YPPH 211530Z 08003KT CAVOK 08/07 Q1021,1,0,0,9999,0,0,0,
2026-04-21 15:00:00,METAR YPPH 211500Z 02003KT CAVOK 09/07 Q1021,1,0,0,9999,0,0,0,
2026-04-21 14:30:00,METAR YPPH 211430Z 07004KT CAVOK 09/07 Q1021,1,0,0,9999,0,0,0,
2026-04-21 14:00:00,METAR YPPH 211400Z 18004KT CAVOK 09/07 Q1021,1,0,0,9999,0,0,0,
2026-04-21 13:30:00,METAR YPPH 211330Z AUTO 11005KT 9999 // NCD 10/07 Q1021,0,5,0,10000,0,0,0,
2026-04-21 13:00:00,METAR YPPH 211300Z 13005KT CAVOK 11/08 Q1021,1,0,0,9999,0,0,0,
2026-04-21 12:30:00,METAR YPPH 211230Z 17007KT CAVOK 13/08 Q1021,1,0,0,9999,0,0,0,
2026-04-21 12:00:00,METAR YPPH 211200Z 17005KT CAVOK 12/08 Q1021,1,0,0,9999,0,0,0,
2026-04-21 11:30:00,METAR YPPH 211130Z 20006KT CAVOK 14/08 Q1021,1,0,0,9999,0,0,0,
2026-04-21 11:00:00,METAR YPPH 211100Z 19007KT CAVOK 15/08 Q1021,1,0,0,9999,0,0,0,
2026-04-21 10:30:00,METAR YPPH 211030Z 19008KT CAVOK 16/08 Q1020,1,0,0,9999,0,0,0,
2026-04-21 10:00:00,METAR YPPH 211000Z 18011KT CAVOK 16/08 Q1020,1,0,0,9999,0,0,0,
2026-04-21 09:30:00,METAR YPPH 210930Z 16009KT CAVOK 17/08 Q1020,1,0,0,9999,0,0,0,
2026-04-21 09:00:00,METAR YPPH 210900Z 18007KT CAVOK 18/07 Q1019,1,0,0,9999,0,0,0,
2026-04-21 08:30:00,METAR YPPH 210830Z 19011KT CAVOK 18/08 Q1019,1,0,0,9999,0,0,0,
2026-04-21 08:00:00,METAR YPPH 210800Z 18008KT CAVOK 18/07 Q1019,1,0,0,9999,0,0,0,
2026-04-21 07:30:00,METAR YPPH 210730Z AUTO 22009KT 9999 // FEW053 20/07 Q1019,0,9,0,10000,0,0,0,
2026-04-21 07:00:00,METAR YPPH 210700Z 20007KT 170V230 9999 FEW048 20/08 Q1019,0,7,0,10000,0,0,0,
2026-04-21 06:30:00,METAR YPPH 210630Z AUTO 17007KT 9999 // OVC053 19/07 Q1019,0,7,0,10000,0,0,0,
2026-04-21 06:00:00,METAR YPPH 210600Z 23008KT 9999 FEW046 21/08 Q1019,0,8,0,10000,0,0,0,
2026-04-21 05:30:00,METAR YPPH 210530Z 22007KT 180V260 9999 FEW046 20/07 Q1019,0,7,0,10000,0,0,0,
2026-04-21 05:00:00,METAR YPPH 210500Z 20007KT 160V260 9999 FEW044 SCT050 18/08 Q1020,0,7,0,10000,0,0,0,
2026-04-21 04:30:00,METAR YPPH 210430Z 18008KT 9999 FEW042 19/08 Q1020,0,8,0,10000,0,0,0,
2026-04-21 04:00:00,METAR YPPH 210400Z 21009KT 9999 FEW042 19/08 Q1020,0,9,0,10000,0,0,0,
2026-04-21 03:30:00,METAR YPPH 210330Z 17011KT 160V220 9999 FEW042 20/08 Q1021,0,11,0,10000,0,0,0,
2026-04-21 03:00:00,METAR YPPH 210300Z 17007KT 120V200 9999 FEW042 SCT060 18/09 Q1021,0,7,0,10000,0,0,0,
2026-04-21 02:30:00,METAR YPPH 210230Z 17009KT 9999 FEW038 SCT065 17/08 Q1021,0,9,0,10000,0,0,0,
2026-04-21 02:00:00,METAR YPPH 210200Z 17012KT 9999 VCSH FEW042 SCT058 16/08 Q1021,0,12,0,10000,0,0,0,"SH,VC"
2026-04-21 01:30:00,METAR YPPH 210130Z 17011KT 9999 -SHRA FEW046 17/08 Q1020,0,11,0,10000,0,0,0,RA
2026-04-21 01:00:00,METAR YPPH 210100Z 18012KT 9999 FEW044 16/09 Q1020,0,12,0,10000,0,0,0,
2026-04-21 00:30:00,METAR YPPH 210030Z 16009KT 9999 VCSH FEW042 15/08 Q1019,0,9,0,10000,0,0,0,"SH,VC"
2026-04-21 00:00:00,METAR YPPH 210000Z 16014KT 9999 FEW040 14/08 Q1018,0,14,0,10000,0,0,0,
2026-04-20 23:30:00,METAR YPPH 202330Z 20008KT 9999 VCSH FEW040 15/08 Q1018,0,8,0,10000,0,0,0,"SH,VC"
2026-04-20 23:00:00,METAR YPPH 202300Z 25010KT 9999 -SHRA FEW040 15/07 Q1017,0,10,0,10000,0,0,0,RA
2026-04-20 22:30:00,METAR YPPH 202230Z 23010KT 9999 VCSH FEW038 14/07 Q1017,0,10,0,10000,0,0,0,"SH,VC"
2026-04-20 22:00:00,METAR YPPH 202200Z 23012KT 9999 VCSH FEW036 14/08 Q1016,0,12,0,10000,0,0,0,"SH,VC"
2026-04-20 21:30:00,METAR YPPH 202130Z AUTO 23012KT 9999 // NCD 14/07 Q1016,0,12,0,10000,0,0,0,
2026-04-20 21:00:00,METAR YPPH 202100Z AUTO 24013KT 9999 // FEW068 15/07 Q1015,0,13,0,10000,0,0,0,
2026-04-20 20:30:00,METAR YPPH 202030Z AUTO 23013KT 9999 // FEW049 15/06 Q1015,0,13,0,10000,0,0,0,
2026-04-20 20:00:00,METAR YPPH 202000Z AUTO 23014KT 9999 // FEW044 SCT076 15/08 Q1014,0,14,0,10000,0,0,0,
2026-04-20 19:30:00,METAR YPPH 201930Z AUTO 23019KT 9999 // SCT043 BKN068 BKN077 15/08 Q1014,0,19,0,10000,0,0,0,
2026-04-20 19:21:00,SPECI YPPH 201921Z AUTO 24015G27KT 9999 // BKN043 BKN076 15/08 Q1014,0,15,1,10000,0,0,0,
2026-04-20 19:00:00,METAR YPPH 201900Z AUTO 26014KT 9999 // FEW079 16/08 Q1014,0,14,0,10000,0,0,0,
2026-04-20 18:30:00,METAR YPPH 201830Z AUTO 25015KT 9999 // FEW039 SCT045 BKN065 16/08 Q1013,0,15,0,10000,0,0,0,
2026-04-20 18:00:00,METAR YPPH 201800Z AUTO 25015KT 9999 // FEW038 SCT054 16/08 Q1013,0,15,0,10000,0,0,0,
2026-04-20 17:45:00,SPECI YPPH 201745Z AUTO 25017G31KT 9999 // FEW040 SCT064 16/09 Q1013,0,17,1,10000,0,0,0,
2026-04-20 17:30:00,METAR YPPH 201730Z AUTO 25019KT 9999 // SCT041 SCT061 BKN090 16/09 Q1013,0,19,0,10000,0,0,0,
2026-04-20 17:09:00,SPECI YPPH 201709Z AUTO 26015G27KT 9999 // SCT070 BKN079 OVC087 16/09 Q1012,0,15,1,10000,0,0,0,
2026-04-20 17:00:00,METAR YPPH 201700Z AUTO 25015KT 9999 // FEW038 OVC074 16/10 Q1012,0,15,0,10000,0,0,0,
2026-04-20 16:38:00,SPECI YPPH 201638Z AUTO 25015G26KT 9999 -SHRA FEW029 SCT039 BKN044 16/11 Q1011,0,15,1,10000,0,0,0,RA
2026-04-20 16:30:00,METAR YPPH 201630Z AUTO 25012KT 9999 -SHRA SCT031 BKN042 OVC056 15/12 Q1011,0,12,0,10000,0,0,0,RA
2026-04-20 16:23:00,SPECI YPPH 201623Z AUTO 26012KT 9999 -SHRA FEW017 BKN031 BKN038 15/13 Q1011,0,12,0,10000,0,0,0,RA
2026-04-20 16:04:00,SPECI YPPH 201604Z 26016G27KT 5000 -SHRA SCT020 OVC039 15/13 Q1011,0,16,1,5000,0,0,0,RA
2026-04-20 16:00:00,SPECI YPPH 201600Z 26014G24KT 6000 -SHRA SCT020 OVC039 15/13 Q1011,0,14,1,6000,0,0,0,RA
2026-04-20 15:46:00,SPECI YPPH 201546Z 26015G26KT 8000 -SHRA FEW018 SCT023 OVC039 15/12 Q1011,0,15,1,8000,0,0,0,RA
2026-04-20 15:30:00,METAR YPPH 201530Z 27014KT 9999 VCSH SCT015 BKN034 15/13 Q1010,0,14,0,10000,0,0,0,"SH,VC"
2026-04-20 15:00:00,SPECI YPPH 201500Z 26015G25KT 8000 -SHRA FEW012 BKN017 OVC022 16/14 Q1010,0,15,1,8000,0,0,0,RA
2026-04-20 14:46:00,SPECI YPPH 201446Z 25015G27KT 5000 -SHRA SCT014 OVC026 16/15 Q1010,0,15,1,5000,0,0,0,RA
2026-04-20 14:30:00,SPECI YPPH 201430Z 26015KT 5000 -SHRA SCT012 BKN023 OVC027 16/14 Q1010,0,15,0,5000,0,0,0,RA
2026-04-20 14:17:00,SPECI YPPH 201417Z 26019G33KT 7000 -SHRA FEW010 SCT014 OVC022 16/14 Q1010,0,19,1,7000,0,0,0,RA
2026-04-20 14:00:00,SPECI YPPH 201400Z 25018KT 7000 -SHRA FEW008 SCT014 OVC017 16/15 Q1010,0,18,0,7000,0,0,0,RA
2026-04-20 13:45:00,SPECI YPPH 201345Z 25016KT 6000 -SHRA FEW008 SCT014 OVC028 17/15 Q1009,0,16,0,6000,0,0,0,RA
2026-04-20 13:36:00,SPECI YPPH 201336Z 27019G29KT 260V330 7000 -SHRA FEW016 BKN028 OVC044 18/15 Q1009,0,19,1,7000,0,0,0,RA
2026-04-20 13:34:00,SPECI YPPH 201334Z 27022KT 260V330 4000 SHRA SCT028 OVC048 19/15 Q1009,0,22,0,4000,0,0,0,"RA,SH"
2026-04-20 13:32:00,SPECI YPPH 201332Z 32018G33KT 4000 SHRA BKN027 OVC050 19/16 Q1009,0,18,1,4000,0,0,0,"RA,SH"
2026-04-20 13:30:00,SPECI YPPH 201330Z 33016G33KT 9999 VCSH BKN036 OVC050 19/16 Q1008,0,16,1,10000,0,0,0,"SH,VC"
2026-04-20 13:00:00,METAR YPPH 201300Z 34012KT 8000 -SHRA SCT028 BKN054 19/15 Q1009,0,12,0,8000,0,0,0,RA
2026-04-20 12:30:00,METAR YPPH 201230Z 34011KT 9999 SCT034 BKN070 20/14 Q1009,0,11,0,10000,0,0,0,
2026-04-20 12:00:00,METAR YPPH 201200Z 34010KT 9999 SCT036 BKN062 20/14 Q1009,0,10,0,10000,0,0,0,
2026-04-20 11:30:00,METAR YPPH 201130Z 31011KT 9999 FEW028 SCT033 BKN048 20/14 Q1009,0,11,0,10000,0,0,0,
2026-04-20 11:00:00,METAR YPPH 201100Z 33011KT 9999 FEW028 SCT044 BKN064 20/15 Q1009,0,11,0,10000,0,0,0,
2026-04-20 10:30:00,METAR YPPH 201030Z 32011KT 9999 VCSH SCT030 BKN065 19/15 Q1009,0,11,0,10000,0,0,0,"SH,VC"
2026-04-20 10:00:00,SPECI YPPH 201000Z 30016G29KT 8000 -SHRA SCT033 OVC058 20/14 Q1009,0,16,1,8000,0,0,0,RA
2026-04-20 09:30:00,METAR YPPH 200930Z 33013KT 9999 -SHRA SCT035 BKN054 21/12 Q1009,0,13,0,10000,0,0,0,RA
2026-04-20 09:00:00,METAR YPPH 200900Z 32017KT 9999 SCT043 BKN050 21/12 Q1009,0,17,0,10000,0,0,0,
2026-04-20 08:30:00,METAR YPPH 200830Z 31019KT 9999 SCT042 BKN049 21/11 Q1009,0,19,0,10000,0,0,0,
2026-04-20 08:00:00,METAR YPPH 200800Z 31019KT 9999 SCT040 BKN049 22/12 Q1009,0,19,0,10000,0,0,0,
2026-04-20 07:30:00,METAR YPPH 200730Z AUTO 31016KT 9999 // FEW031 SCT038 BKN043 22/12 Q1009,0,16,0,10000,0,0,0,
2026-04-20 07:00:00,METAR YPPH 200700Z 30017KT 9999 VCSH BKN033 22/13 Q1009,0,17,0,10000,0,0,0,"SH,VC"
2026-04-20 06:30:00,METAR YPPH 200630Z 31017KT 9999 SCT038 23/13 Q1009,0,17,0,10000,0,0,0,
2026-04-20 06:00:00,METAR YPPH 200600Z AUTO 31016KT 9999 // FEW040 BKN048 23/12 Q1009,0,16,0,10000,0,0,0,
2026-04-20 05:30:00,METAR YPPH 200530Z 31013KT 9999 FEW043 23/11 Q1009,0,13,0,10000,0,0,0,
2026-04-20 05:00:00,METAR YPPH 200500Z 28013KT 9999 FEW042 23/11 Q1009,0,13,0,10000,0,0,0,
2026-04-20 04:30:00,METAR YPPH 200430Z 29013KT 9999 FEW044 23/11 Q1010,0,13,0,10000,0,0,0,
2026-04-20 04:00:00,METAR YPPH 200400Z 31009KT 9999 FEW043 24/12 Q1011,0,9,0,10000,0,0,0,
2026-04-20 03:30:00,METAR YPPH 200330Z 31008KT 9999 FEW038 23/11 Q1011,0,8,0,10000,0,0,0,
2026-04-20 03:00:00,METAR YPPH 200300Z 31007KT 290V350 9999 FEW046 22/11 Q1011,0,7,0,10000,0,0,0,
2026-04-20 02:30:00,METAR YPPH 200230Z AUTO 35005KT 9999 // NCD 22/11 Q1012,0,5,0,10000,0,0,0,
2026-04-20 02:00:00,METAR YPPH 200200Z 04007KT CAVOK 21/11 Q1012,1,0,0,9999,0,0,0,
2026-04-20 01:30:00,METAR YPPH 200130Z 03007KT CAVOK 19/11 Q1012,1,0,0,9999,0,0,0,
2026-04-20 01:00:00,METAR YPPH 200100Z 03006KT CAVOK 18/10 Q1013,1,0,0,9999,0,0,0,
2026-04-20 00:30:00,METAR YPPH 200030Z 01005KT CAVOK 16/10 Q1013,1,0,0,9999,0,0,0,
2026-04-20 00:00:00,METAR YPPH 200000Z 03006KT CAVOK 14/10 Q1013,1,0,0,9999,0,0,0,
2026-04-19 23:30:00,METAR YPPH 192330Z 02005KT CAVOK 12/10 Q1014,1,0,0,9999,0,0,0,
2026-04-19 23:00:00,METAR YPPH 192300Z 02005KT CAVOK 10/09 Q1014,1,0,0,9999,0,0,0,
2026-04-19 22:30:00,METAR YPPH 192230Z 03005KT CAVOK 09/08 Q1014,1,0,0,9999,0,0,0,
2026-04-19 22:00:00,METAR YPPH 192200Z 03004KT CAVOK 09/07 Q1014,1,0,0,9999,0,0,0,
2026-04-19 21:30:00,METAR YPPH 192130Z AUTO 07005KT 9999 // NCD 09/08 Q1014,0,5,0,10000,0,0,0,
2026-04-19 21:00:00,METAR YPPH 192100Z AUTO 00000KT 9999 // NCD 09/08 Q1014,0,0,0,10000,0,0,0,
2026-04-19 20:30:00,METAR YPPH 192030Z AUTO 02004KT 9999 // NCD 09/08 Q1014,0,4,0,10000,0,0,0,
2026-04-19 20:00:00,METAR YPPH 192000Z AUTO 00000KT 9999 // NCD 09/08 Q1014,0,0,0,10000,0,0,0,
2026-04-19 19:30:00,METAR YPPH 191930Z AUTO 00000KT 9999 // NCD 10/08 Q1014,0,0,0,10000,0,0,0,
2026-04-19 19:00:00,METAR YPPH 191900Z AUTO 00000KT 9999 // NCD 10/09 Q1014,0,0,0,10000,0,0,0,
2026-04-19 18:30:00,METAR YPPH 191830Z AUTO 00000KT 9999 // NCD 10/09 Q1015,0,0,0,10000,0,0,0,
2026-04-19 18:00:00,METAR YPPH 191800Z AUTO 00000KT 9999 // NCD 10/09 Q1015,0,0,0,10000,0,0,0,
2026-04-19 17:30:00,METAR YPPH 191730Z AUTO 00000KT 9999 // NCD 10/09 Q1015,0,0,0,10000,0,0,0,
2026-04-19 17:00:00,METAR YPPH 191700Z AUTO 00000KT 9999 // NCD 11/09 Q1015,0,0,0,10000,0,0,0,
2026-04-19 16:30:00,METAR YPPH 191630Z AUTO 00000KT 9999 // NCD 11/09 Q1015,0,0,0,10000,0,0,0,
2026-04-19 16:00:00,METAR YPPH 191600Z 04003KT CAVOK 11/09 Q1015,1,0,0,9999,0,0,0,
2026-04-19 15:30:00,METAR YPPH 191530Z 00000KT CAVOK 11/09 Q1016,1,0,0,9999,0,0,0,
2026-04-19 15:00:00,METAR YPPH 191500Z 00000KT CAVOK 12/09 Q1016,1,0,0,9999,0,0,0,
2026-04-19 14:30:00,METAR YPPH 191430Z 08003KT CAVOK 12/09 Q1016,1,0,0,9999,0,0,0,
2026-04-19 14:00:00,METAR YPPH 191400Z 15003KT CAVOK 13/09 Q1017,1,0,0,9999,0,0,0,
2026-04-19 13:30:00,METAR YPPH 191330Z 17005KT CAVOK 13/10 Q1017,1,0,0,9999,0,0,0,
2026-04-19 13:00:00,METAR YPPH 191300Z 18006KT CAVOK 15/10 Q1017,1,0,0,9999,0,0,0,
2026-04-19 12:30:00,METAR YPPH 191230Z 18007KT CAVOK 16/10 Q1017,1,0,0,9999,0,0,0,
2026-04-19 12:00:00,METAR YPPH 191200Z 18007KT CAVOK 17/10 Q1017,1,0,0,9999,0,0,0,
2026-04-19 11:30:00,METAR YPPH 191130Z 18009KT CAVOK 17/10 Q1017,1,0,0,9999,0,0,0,
2026-04-19 11:00:00,METAR YPPH 191100Z 18008KT CAVOK 18/10 Q1017,1,0,0,9999,0,0,0,
2026-04-19 10:30:00,METAR YPPH 191030Z 21008KT CAVOK 18/10 Q1017,1,0,0,9999,0,0,0,
2026-04-19 10:00:00,METAR YPPH 191000Z 21010KT CAVOK 19/10 Q1017,1,0,0,9999,0,0,0,
2026-04-19 09:30:00,METAR YPPH 190930Z 21010KT 9999 SCT049 19/10 Q1017,0,10,0,10000,0,0,0,
2026-04-19 09:00:00,METAR YPPH 190900Z 22011KT 9999 BKN049 20/10 Q1017,0,11,0,10000,0,0,0,
2026-04-19 08:30:00,METAR YPPH 190830Z 21011KT 9999 BKN049 22/10 Q1017,0,11,0,10000,0,0,0,
2026-04-19 08:00:00,METAR YPPH 190800Z 24010KT CAVOK 23/10 Q1017,1,0,0,9999,0,0,0,
2026-04-19 07:30:00,METAR YPPH 190730Z 23009KT CAVOK 24/11 Q1017,1,0,0,9999,0,0,0,
2026-04-19 07:00:00,METAR YPPH 190700Z 26009KT CAVOK 24/10 Q1017,1,0,0,9999,0,0,0,
2026-04-19 06:30:00,METAR YPPH 190630Z 23006KT CAVOK 24/10 Q1017,1,0,0,9999,0,0,0,
2026-04-19 06:00:00,METAR YPPH 190600Z 19005KT 160V250 CAVOK 23/10 Q1017,1,0,0,9999,0,0,0,
2026-04-19 05:30:00,METAR YPPH 190530Z 19005KT 150V220 CAVOK 22/09 Q1018,1,0,0,9999,0,0,0,
2026-04-19 05:00:00,METAR YPPH 190500Z 18004KT CAVOK 22/09 Q1018,1,0,0,9999,0,0,0,
2026-04-19 04:30:00,METAR YPPH 190430Z 06003KT CAVOK 22/10 Q1019,1,0,0,9999,0,0,0,
2026-04-19 04:00:00,METAR YPPH 190400Z 35005KT CAVOK 22/09 Q1019,1,0,0,9999,0,0,0,
2026-04-19 03:30:00,METAR YPPH 190330Z 36003KT CAVOK 21/08 Q1020,1,0,0,9999,0,0,0,
2026-04-19 03:00:00,METAR YPPH 190300Z 08007KT CAVOK 20/08 Q1020,1,0,0,9999,0,0,0,
2026-04-19 02:30:00,METAR YPPH 190230Z 08008KT CAVOK 20/09 Q1020,1,0,0,9999,0,0,0,
2026-04-19 02:00:00,METAR YPPH 190200Z 08009KT CAVOK 20/09 Q1021,1,0,0,9999,0,0,0,
2026-04-19 01:30:00,METAR YPPH 190130Z 08009KT CAVOK 19/09 Q1021,1,0,0,9999,0,0,0,
2026-04-19 01:00:00,METAR YPPH 190100Z 08008KT CAVOK 19/09 Q1021,1,0,0,9999,0,0,0,
2026-04-19 00:30:00,METAR YPPH 190030Z 07007KT CAVOK 17/09 Q1021,1,0,0,9999,0,0,0,
2026-04-19 00:00:00,METAR YPPH 190000Z 05005KT CAVOK 15/09 Q1021,1,0,0,9999,0,0,0,
2026-04-18 23:30:00,METAR YPPH 182330Z 03005KT CAVOK 14/09 Q1020,1,0,0,9999,0,0,0,
2026-04-18 23:00:00,METAR YPPH 182300Z 04005KT CAVOK 13/09 Q1020,1,0,0,9999,0,0,0,
2026-04-18 22:30:00,METAR YPPH 182230Z 35003KT CAVOK 13/10 Q1020,1,0,0,9999,0,0,0,
2026-04-18 22:00:00,METAR YPPH 182200Z 01003KT CAVOK 13/10 Q1019,1,0,0,9999,0,0,0,
2026-04-18 21:30:00,METAR YPPH 182130Z AUTO 32001KT 9999 // OVC052 13/10 Q1019,0,1,0,10000,0,0,0,
2026-04-18 21:00:00,METAR YPPH 182100Z AUTO 00000KT 9999 // OVC046 12/10 Q1019,0,0,0,10000,0,0,0,
2026-04-18 20:30:00,METAR YPPH 182030Z AUTO 00000KT 9999 // OVC048 12/10 Q1019,0,0,0,10000,0,0,0,
2026-04-18 20:00:00,METAR YPPH 182000Z AUTO 06004KT 9999 // OVC050 12/09 Q1019,0,4,0,10000,0,0,0,
2026-04-18 19:30:00,METAR YPPH 181930Z AUTO 01003KT 9999 // OVC050 10/09 Q1019,0,3,0,10000,0,0,0,
2026-04-18 19:00:00,METAR YPPH 181900Z AUTO 02002KT 9999 // FEW052 09/08 Q1019,0,2,0,10000,0,0,0,
2026-04-18 18:30:00,METAR YPPH 181830Z AUTO 00000KT 9999 // NCD 10/08 Q1019,0,0,0,10000,0,0,0,
2026-04-18 18:00:00,METAR YPPH 181800Z AUTO 00000KT 9999 // NCD 10/08 Q1019,0,0,0,10000,0,0,0,
2026-04-18 17:30:00,METAR YPPH 181730Z AUTO 03004KT 9999 // NCD 11/08 Q1019,0,4,0,10000,0,0,0,
2026-04-18 17:00:00,METAR YPPH 181700Z AUTO 06004KT 9999 // NCD 11/08 Q1019,0,4,0,10000,0,0,0,
2026-04-18 16:30:00,METAR YPPH 181630Z AUTO 07005KT 9999 // NCD 11/08 Q1019,0,5,0,10000,0,0,0,
2026-04-18 16:00:00,METAR YPPH 181600Z 08006KT CAVOK 11/08 Q1019,1,0,0,9999,0,0,0,
2026-04-18 15:00:00,METAR YPPH 181500Z 06005KT CAVOK 13/09 Q1019,1,0,0,9999,0,0,0,
2026-04-18 14:30:00,METAR YPPH 181430Z 03005KT CAVOK 14/10 Q1020,1,0,0,9999,0,0,0,
2026-04-18 14:00:00,METAR YPPH 181400Z 16006KT CAVOK 15/09 Q1020,1,0,0,9999,0,0,0,
2026-04-18 13:30:00,METAR YPPH 181330Z 17006KT CAVOK 16/10 Q1020,1,0,0,9999,0,0,0,
2026-04-18 13:00:00,METAR YPPH 181300Z 17007KT CAVOK 17/09 Q1020,1,0,0,9999,0,0,0,
2026-04-18 12:30:00,METAR YPPH 181230Z 18008KT CAVOK 17/09 Q1019,1,0,0,9999,0,0,0,
2026-04-18 12:00:00,METAR YPPH 181200Z 17009KT CAVOK 17/09 Q1019,1,0,0,9999,0,0,0,
2026-04-18 11:30:00,METAR YPPH 181130Z 21007KT CAVOK 18/09 Q1019,1,0,0,9999,0,0,0,
2026-04-18 11:00:00,METAR YPPH 181100Z 22007KT CAVOK 18/09 Q1019,1,0,0,9999,0,0,0,
2026-04-18 10:30:00,METAR YPPH 181030Z 22008KT CAVOK 18/09 Q1018,1,0,0,9999,0,0,0,
2026-04-18 10:00:00,METAR YPPH 181000Z 24008KT CAVOK 18/08 Q1018,1,0,0,9999,0,0,0,
2026-04-18 09:30:00,METAR YPPH 180930Z 23009KT CAVOK 19/08 Q1018,1,0,0,9999,0,0,0,
2026-04-18 09:00:00,METAR YPPH 180900Z 25009KT CAVOK 21/09 Q1017,1,0,0,9999,0,0,0,
2026-04-18 08:30:00,METAR YPPH 180830Z 25008KT CAVOK 22/09 Q1017,1,0,0,9999,0,0,0,
2026-04-18 08:00:00,METAR YPPH 180800Z 26008KT 240V300 CAVOK 22/09 Q1017,1,0,0,9999,0,0,0,
2026-04-18 07:30:00,METAR YPPH 180730Z 24007KT 210V270 CAVOK 22/09 Q1017,1,0,0,9999,0,0,0,
2026-04-18 07:00:00,METAR YPPH 180700Z 24007KT CAVOK 22/08 Q1017,1,0,0,9999,0,0,0,
2026-04-18 06:30:00,METAR YPPH 180630Z 19006KT 120V260 CAVOK 23/09 Q1017,1,0,0,9999,0,0,0,
2026-04-18 06:00:00,METAR YPPH 180600Z 13003KT CAVOK 22/07 Q1017,1,0,0,9999,0,0,0,
2026-04-18 05:30:00,METAR YPPH 180530Z 22004KT 190V250 CAVOK 22/07 Q1017,1,0,0,9999,0,0,0,
2026-04-18 05:00:00,METAR YPPH 180500Z 19006KT 150V240 CAVOK 22/10 Q1017,1,0,0,9999,0,0,0,
2026-04-18 04:30:00,METAR YPPH 180430Z 33005KT CAVOK 22/09 Q1018,1,0,0,9999,0,0,0,
2026-04-18 04:00:00,METAR YPPH 180400Z 25005KT 190V270 CAVOK 20/08 Q1018,1,0,0,9999,0,0,0,
2026-04-18 03:30:00,METAR YPPH 180330Z 13007KT 070V170 CAVOK 20/10 Q1018,1,0,0,9999,0,0,0,
2026-04-18 03:00:00,METAR YPPH 180300Z 19007KT 9999 BKN048 19/09 Q1018,0,7,0,10000,0,0,0,
2026-04-18 02:30:00,METAR YPPH 180230Z 15009KT 9999 FEW035 BKN045 19/11 Q1018,0,9,0,10000,0,0,0,
2026-04-18 02:00:00,METAR YPPH 180200Z 15008KT 9999 FEW032 BKN042 19/10 Q1018,0,8,0,10000,0,0,0,
2026-04-18 01:30:00,METAR YPPH 180130Z 15008KT 9999 BKN042 18/12 Q1018,0,8,0,10000,0,0,0,
2026-04-18 01:00:00,METAR YPPH 180100Z 15008KT CAVOK 17/12 Q1018,1,0,0,9999,0,0,0,
2026-04-18 00:30:00,METAR YPPH 180030Z 13002KT 9999 R21/P2000N FEW045 BKN055 15/14 Q1017,0,2,0,10000,0,0,0,
2026-04-18 00:00:00,METAR YPPH 180000Z 06003KT 9999 FEW045 BKN055 14/14 Q1017,0,3,0,10000,0,0,0,
2026-04-17 23:30:00,METAR YPPH 172330Z 08005KT 9999 SCT045 13/12 Q1016,0,5,0,10000,0,0,0,
2026-04-17 23:00:00,METAR YPPH 172300Z 00000KT 9999 FEW040 BKN055 13/12 Q1016,0,0,0,10000,0,0,0,
2026-04-17 22:30:00,METAR YPPH 172230Z 17005KT 9999 FEW040 SCT055 12/11 Q1016,0,5,0,10000,0,0,0,
2026-04-17 22:00:00,METAR YPPH 172200Z 17004KT 9999 FEW045 13/11 Q1015,0,4,0,10000,0,0,0,
2026-04-17 21:30:00,METAR YPPH 172130Z AUTO 20005KT 9999 // BKN044 BKN052 14/12 Q1015,0,5,0,10000,0,0,0,
2026-04-17 21:00:00,METAR YPPH 172100Z AUTO 21006KT 9999 // SCT040 15/13 Q1015,0,6,0,10000,0,0,0,
2026-04-17 20:30:00,METAR YPPH 172030Z AUTO 21006KT 9999 // BKN040 15/14 Q1014,0,6,0,10000,0,0,0,
2026-04-17 20:00:00,METAR YPPH 172000Z AUTO 21005KT 9999 // FEW040 OVC062 16/15 Q1014,0,5,0,10000,0,0,0,
2026-04-17 19:30:00,METAR YPPH 171930Z AUTO 21006KT 9999 // OVC057 16/15 Q1014,0,6,0,10000,0,0,0,
2026-04-17 19:00:00,METAR YPPH 171900Z AUTO 21007KT 9999 // SCT041 OVC059 16/15 Q1014,0,7,0,10000,0,0,0,
2026-04-17 18:30:00,METAR YPPH 171830Z AUTO 21005KT 9999 // BKN035 BKN041 OVC052 17/16 Q1014,0,5,0,10000,0,0,0,
2026-04-17 18:00:00,METAR YPPH 171800Z AUTO 19006KT 9999 // SCT033 OVC048 17/16 Q1014,0,6,0,10000,0,0,0,
2026-04-17 17:30:00,METAR YPPH 171730Z AUTO 20007KT 7000 -SHRA SCT022 OVC031 17/17 Q1013,0,7,0,7000,0,0,0,RA
2026-04-17 17:20:00,SPECI YPPH 171720Z AUTO 20007KT 9999 -RA FEW017 BKN029 OVC034 17/17 Q1013,0,7,0,10000,0,0,0,-RA
2026-04-17 17:00:00,SPECI YPPH 171700Z AUTO 20007KT 7000 -RA FEW006 SCT017 BKN024 17/17 Q1013 RERA,0,7,0,7000,0,0,0,"-RA,RA"
2026-04-17 16:30:00,SPECI YPPH 171630Z AUTO 22011KT 3500 -RA SCT006 BKN013 BKN021 17/17 Q1013 RERA,0,11,0,3500,0,0,0,"-RA,RA"
2026-04-17 16:16:00,SPECI YPPH 171616Z AUTO 22011KT 2500 RA SCT006 BKN019 BKN024 17/17 Q1013,0,11,0,2500,0,0,0,RA
2026-04-17 16:00:00,SPECI YPPH 171600Z 24013KT 4000 RA FEW006 BKN009 BKN018 17/16 Q1013,0,13,0,4000,0,0,0,RA
2026-04-17 15:30:00,SPECI YPPH 171530Z 24011KT 6000 -RA BKN011 BKN019 18/17 Q1012,0,11,0,6000,0,0,0,-RA
2026-04-17 15:00:00,SPECI YPPH 171500Z 24010KT 4000 SHRA BKN010 BKN015 18/17 Q1012,0,10,0,4000,0,0,0,"RA,SH"
2026-04-17 14:46:00,SPECI YPPH 171446Z 22011KT 220V310 4000 SHRA BKN014 BKN025 18/17 Q1012,0,11,0,4000,0,0,0,"RA,SH"
2026-04-17 14:30:00,SPECI YPPH 171430Z 34008KT 6000 BKN029 BKN035 18/15 Q1012,0,8,0,6000,0,0,0,
2026-04-17 14:27:00,SPECI YPPH 171427Z 34007KT 6000 -SHRA BKN029 BKN035 17/15 Q1012,0,7,0,6000,0,0,0,RA
2026-04-17 14:00:00,METAR YPPH 171400Z 03008KT 9999 VCSH FEW033 BKN055 BKN070 18/14 Q1012,0,8,0,10000,0,0,0,"SH,VC"
2026-04-17 13:30:00,METAR YPPH 171330Z 02008KT 9999 FEW033 SCT070 18/14 Q1012,0,8,0,10000,0,0,0,
2026-04-17 13:00:00,METAR YPPH 171300Z 02007KT 9999 FEW033 BKN055 18/14 Q1012,0,7,0,10000,0,0,0,
2026-04-17 12:30:00,METAR YPPH 171230Z 35006KT 9999 FEW033 18/14 Q1012,0,6,0,10000,0,0,0,
2026-04-17 12:00:00,METAR YPPH 171200Z 34007KT 9999 SCT030 18/14 Q1012,0,7,0,10000,0,0,0,
2026-04-17 11:30:00,METAR YPPH 171130Z 33007KT 9999 SCT035 SCT042 19/14 Q1012,0,7,0,10000,0,0,0,
2026-04-17 11:00:00,METAR YPPH 171100Z 32009KT 9999 FEW030 SCT055 20/14 Q1012,0,9,0,10000,0,0,0,
2026-04-17 10:30:00,METAR YPPH 171030Z 31009KT 9999 FEW030 SCT042 20/15 Q1012,0,9,0,10000,0,0,0,
2026-04-17 10:00:00,METAR YPPH 171000Z 29009KT 9999 VCSH SCT030 BKN042 21/15 Q1011,0,9,0,10000,0,0,0,"SH,VC"
2026-04-17 09:30:00,METAR YPPH 170930Z 32016KT 9999 VCSH SCT030 SCT040 BKN045 22/14 Q1011,0,16,0,10000,0,0,0,"SH,VC"
2026-04-17 09:00:00,METAR YPPH 170900Z 30014KT 9999 BKN030 BKN045 22/14 Q1011,0,14,0,10000,0,0,0,
2026-04-17 08:30:00,METAR YPPH 170830Z 31012KT 9999 SCT029 SCT035 BKN044 22/15 Q1011,0,12,0,10000,0,0,0,
2026-04-17 08:00:00,METAR YPPH 170800Z 31012KT 9999 BKN029 BKN042 22/15 Q1011,0,12,0,10000,0,0,0,
2026-04-17 07:30:00,METAR YPPH 170730Z 30011KT 9999 BKN030 BKN042 22/14 Q1011,0,11,0,10000,0,0,0,
2026-04-17 07:00:00,METAR YPPH 170700Z 29010KT 9999 SCT027 BKN042 23/14 Q1011,0,10,0,10000,0,0,0,
2026-04-17 06:30:00,METAR YPPH 170630Z 28013KT 9999 SCT027 BKN039 22/15 Q1011,0,13,0,10000,0,0,0,
2026-04-17 06:00:00,METAR YPPH 170600Z 27011KT 9999 SCT027 BKN041 22/15 Q1011,0,11,0,10000,0,0,0,
2026-04-17 05:30:00,METAR YPPH 170530Z 29010KT 9999 SCT025 BKN036 22/15 Q1010,0,10,0,10000,0,0,0,
2026-04-17 05:00:00,METAR YPPH 170500Z 30013KT 9999 SCT033 BKN039 22/15 Q1010,0,13,0,10000,0,0,0,
2026-04-17 04:30:00,METAR YPPH 170430Z 27010KT 9999 SCT027 BKN033 24/15 Q1010,0,10,0,10000,0,0,0,
2026-04-17 04:00:00,METAR YPPH 170400Z 29010KT 9999 SCT023 BKN033 23/16 Q1011,0,10,0,10000,0,0,0,
2026-04-17 03:30:00,METAR YPPH 170330Z 29006KT 250V320 9999 SCT021 BKN027 23/16 Q1011,0,6,0,10000,0,0,0,
2026-04-17 03:00:00,METAR YPPH 170300Z 28006KT 9999 SCT021 BKN025 23/17 Q1011,0,6,0,10000,0,0,0,
2026-04-17 02:30:00,METAR YPPH 170230Z 33004KT 300V360 9999 SCT014 BKN025 23/17 Q1011,0,4,0,10000,0,0,0,
2026-04-17 02:00:00,METAR YPPH 170200Z 34003KT 9999 SCT014 BKN027 22/16 Q1011,0,3,0,10000,0,0,0,
2026-04-17 01:36:00,SPECI YPPH 170136Z AUTO 32006KT 9999 // BKN014 OVC021 21/15 Q1012,0,6,0,10000,0,0,0,
2026-04-17 01:30:00,METAR YPPH 170130Z 34005KT 9999 SCT014 BKN021 21/15 Q1012,0,5,0,10000,0,0,0,
2026-04-17 01:00:00,METAR YPPH 170100Z 01005KT 9999 BKN019 21/14 Q1012,0,5,0,10000,0,0,0,
2026-04-17 00:52:00,SPECI YPPH 170052Z AUTO 01005KT 350V050 9999 // BKN019 21/14 Q1012,0,5,0,10000,0,0,0,
2026-04-17 00:37:00,SPECI YPPH 170037Z AUTO 03005KT 9999 // BKN017 20/14 Q1012,0,5,0,10000,0,0,0,
2026-04-17 00:30:00,METAR YPPH 170030Z 04005KT 9999 SCT020 BKN110 20/14 Q1012,0,5,0,10000,0,0,0,
2026-04-17 00:00:00,METAR YPPH 170000Z 07006KT CAVOK 19/13 Q1011,1,0,0,9999,0,0,0,
2026-04-16 23:30:00,METAR YPPH 162330Z 07007KT CAVOK 18/13 Q1011,1,0,0,9999,0,0,0,
2026-04-16 23:00:00,METAR YPPH 162300Z 33004KT CAVOK 16/13 Q1011,1,0,0,9999,0,0,0,
2026-04-16 22:30:00,METAR YPPH 162230Z 35005KT CAVOK 16/13 Q1011,1,0,0,9999,0,0,0,
2026-04-16 22:00:00,METAR YPPH 162200Z AUTO 01005KT 9999 // OVC097 17/13 Q1010,0,5,0,10000,0,0,0,
2026-04-16 21:30:00,METAR YPPH 162130Z AUTO 05007KT 9999 // FEW099 17/13 Q1010,0,7,0,10000,0,0,0,
2026-04-16 21:00:00,METAR YPPH 162100Z AUTO 03006KT 9999 // FEW095 18/13 Q1010,0,6,0,10000,0,0,0,
2026-04-16 20:30:00,METAR YPPH 162030Z AUTO 06007KT 9999 // NCD 18/12 Q1010,0,7,0,10000,0,0,0,
2026-04-16 20:00:00,METAR YPPH 162000Z AUTO 05007KT 9999 // NCD 18/13 Q1010,0,7,0,10000,0,0,0,
2026-04-16 19:30:00,METAR YPPH 161930Z AUTO 05007KT 9999 // FEW105 18/12 Q1010,0,7,0,10000,0,0,0,
2026-04-16 19:00:00,METAR YPPH 161900Z AUTO 06007KT 9999 // NCD 19/12 Q1010,0,7,0,10000,0,0,0,
2026-04-16 18:30:00,METAR YPPH 161830Z AUTO 03006KT 9999 // NCD 19/12 Q1011,0,6,0,10000,0,0,0,
2026-04-16 18:00:00,METAR YPPH 161800Z AUTO 04007KT 9999 // FEW115 19/13 Q1011,0,7,0,10000,0,0,0,
2026-04-16 17:30:00,METAR YPPH 161730Z AUTO 05008KT 9999 // FEW115 19/13 Q1011,0,8,0,10000,0,0,0,
2026-04-16 17:00:00,METAR YPPH 161700Z AUTO 05008KT 9999 // NCD 19/13 Q1011,0,8,0,10000,0,0,0,
2026-04-16 16:30:00,METAR YPPH 161630Z AUTO 03005KT 9999 // NCD 16/14 Q1011,0,5,0,10000,0,0,0,
2026-04-16 16:00:00,METAR YPPH 161600Z 01004KT CAVOK 16/14 Q1011,1,0,0,9999,0,0,0,
2026-04-16 15:30:00,METAR YPPH 161530Z 01005KT CAVOK 16/15 Q1012,1,0,0,9999,0,0,0,
2026-04-16 15:00:00,METAR YPPH 161500Z AUTO 06004KT 9999 // NCD 17/15 Q1012,0,4,0,10000,0,0,0,
2026-04-16 14:30:00,METAR YPPH 161430Z 00000KT CAVOK 17/14 Q1012,1,0,0,9999,0,0,0,
2026-04-16 14:00:00,METAR YPPH 161400Z 19005KT CAVOK 17/15 Q1012,1,0,0,9999,0,0,0,
2026-04-16 13:30:00,METAR YPPH 161330Z 18007KT CAVOK 19/15 Q1012,1,0,0,9999,0,0,0,
2026-04-16 13:00:00,METAR YPPH 161300Z AUTO 20007KT 9999 // NCD 20/15 Q1012,0,7,0,10000,0,0,0,
2026-04-16 12:30:00,METAR YPPH 161230Z 19009KT CAVOK 20/16 Q1012,1,0,0,9999,0,0,0,
2026-04-16 12:00:00,METAR YPPH 161200Z 19010KT CAVOK 21/16 Q1012,1,0,0,9999,0,0,0,
2026-04-16 11:30:00,METAR YPPH 161130Z 20009KT CAVOK 22/16 Q1012,1,0,0,9999,0,0,0,
2026-04-16 11:00:00,METAR YPPH 161100Z 21008KT CAVOK 22/16 Q1012,1,0,0,9999,0,0,0,
2026-04-16 10:30:00,METAR YPPH 161030Z 22008KT CAVOK 22/16 Q1012,1,0,0,9999,0,0,0,
2026-04-16 10:00:00,METAR YPPH 161000Z 22009KT CAVOK 23/16 Q1012,1,0,0,9999,0,0,0,
2026-04-16 09:30:00,METAR YPPH 160930Z 23009KT CAVOK 25/16 Q1012,1,0,0,9999,0,0,0,
2026-04-16 09:00:00,METAR YPPH 160900Z 22010KT CAVOK 26/16 Q1012,1,0,0,9999,0,0,0,
2026-04-16 08:30:00,METAR YPPH 160830Z 23010KT CAVOK 27/16 Q1012,1,0,0,9999,0,0,0,
2026-04-16 08:00:00,METAR YPPH 160800Z 23007KT CAVOK 29/15 Q1012,1,0,0,9999,0,0,0,
2026-04-16 07:30:00,METAR YPPH 160730Z 21007KT CAVOK 29/14 Q1012,1,0,0,9999,0,0,0,
2026-04-16 07:00:00,METAR YPPH 160700Z 25007KT CAVOK 29/15 Q1012,1,0,0,9999,0,0,0,
2026-04-16 06:30:00,METAR YPPH 160630Z 27005KT 240V310 CAVOK 29/14 Q1012,1,0,0,9999,0,0,0,
2026-04-16 06:00:00,METAR YPPH 160600Z 18005KT 130V280 CAVOK 29/13 Q1012,1,0,0,9999,0,0,0,
2026-04-16 05:30:00,METAR YPPH 160530Z 15005KT 110V210 CAVOK 28/14 Q1013,1,0,0,9999,0,0,0,
2026-04-16 05:00:00,METAR YPPH 160500Z 19005KT CAVOK 28/14 Q1013,1,0,0,9999,0,0,0,
2026-04-16 04:30:00,METAR YPPH 160430Z 21004KT 130V280 CAVOK 27/14 Q1014,1,0,0,9999,0,0,0,
2026-04-16 04:00:00,METAR YPPH 160400Z 29003KT CAVOK 27/15 Q1014,1,0,0,9999,0,0,0,
2026-04-16 03:30:00,METAR YPPH 160330Z 07006KT CAVOK 26/15 Q1015,1,0,0,9999,0,0,0,
2026-04-16 03:00:00,METAR YPPH 160300Z 10007KT CAVOK 25/15 Q1015,1,0,0,9999,0,0,0,
2026-04-16 02:30:00,METAR YPPH 160230Z 10009KT 060V120 CAVOK 25/16 Q1015,1,0,0,9999,0,0,0,
2026-04-16 02:00:00,METAR YPPH 160200Z 10010KT CAVOK 23/15 Q1015,1,0,0,9999,0,0,0,
2026-04-16 01:30:00,METAR YPPH 160130Z 07009KT CAVOK 23/15 Q1016,1,0,0,9999,0,0,0,
2026-04-16 01:00:00,METAR YPPH 160100Z 11008KT CAVOK 22/16 Q1016,1,0,0,9999,0,0,0,
2026-04-16 00:30:00,METAR YPPH 160030Z 10007KT CAVOK 21/15 Q1016,1,0,0,9999,0,0,0,
2026-04-16 00:00:00,METAR YPPH 160000Z 11007KT CAVOK 20/15 Q1016,1,0,0,9999,0,0,0,
2026-04-15 23:30:00,METAR YPPH 152330Z 12007KT CAVOK 19/15 Q1015,1,0,0,9999,0,0,0,
2026-04-15 23:00:00,METAR YPPH 152300Z 11007KT CAVOK 17/14 Q1015,1,0,0,9999,0,0,0,
2026-04-15 22:30:00,METAR YPPH 152230Z 13006KT CAVOK 17/14 Q1015,1,0,0,9999,0,0,0,
2026-04-15 22:00:00,METAR YPPH 152200Z AUTO 11005KT 080V160 9999 // NCD 17/14 Q1015,0,5,0,10000,0,0,0,
2026-04-15 21:30:00,METAR YPPH 152130Z AUTO 15003KT 9999 // NCD 16/14 Q1015,0,3,0,10000,0,0,0,
2026-04-15 21:00:00,METAR YPPH 152100Z AUTO 10005KT 9999 // NCD 17/14 Q1015,0,5,0,10000,0,0,0,
2026-04-15 20:30:00,METAR YPPH 152030Z AUTO 09005KT 9999 // NCD 16/14 Q1014,0,5,0,10000,0,0,0,
2026-04-15 20:00:00,METAR YPPH 152000Z AUTO 09006KT 9999 // NCD 17/14 Q1014,0,6,0,10000,0,0,0,
2026-04-15 19:30:00,METAR YPPH 151930Z AUTO 09004KT 060V130 9999 // NCD 17/14 Q1014,0,4,0,10000,0,0,0,
2026-04-15 19:00:00,METAR YPPH 151900Z AUTO 11006KT 9999 // NCD 17/14 Q1014,0,6,0,10000,0,0,0,
2026-04-15 18:30:00,METAR YPPH 151830Z AUTO 12006KT 9999 // NCD 17/14 Q1014,0,6,0,10000,0,0,0,
2026-04-15 18:00:00,METAR YPPH 151800Z AUTO 09005KT 9999 // NCD 17/14 Q1015,0,5,0,10000,0,0,0,
2026-04-15 17:30:00,METAR YPPH 151730Z AUTO 00000KT 9999 // NCD 17/14 Q1015,0,0,0,10000,0,0,0,
2026-04-15 17:00:00,METAR YPPH 151700Z AUTO 11006KT 9999 // NCD 17/14 Q1014,0,6,0,10000,0,0,0,
2026-04-15 16:30:00,METAR YPPH 151630Z AUTO 09006KT 9999 // NCD 16/15 Q1014,0,6,0,10000,0,0,0,
2026-04-15 16:00:00,METAR YPPH 151600Z 00000KT CAVOK 16/15 Q1015,1,0,0,9999,0,0,0,
2026-04-15 15:30:00,METAR YPPH 151530Z 00000KT CAVOK 16/15 Q1015,1,0,0,9999,0,0,0,
2026-04-15 15:00:00,METAR YPPH 151500Z 00000KT CAVOK 15/14 Q1015,1,0,0,9999,0,0,0,
2026-04-15 14:30:00,METAR YPPH 151430Z 31004KT 250V320 CAVOK 16/15 Q1015,1,0,0,9999,0,0,0,
2026-04-15 14:00:00,METAR YPPH 151400Z 07001KT CAVOK 16/15 Q1015,1,0,0,9999,0,0,0,
2026-04-15 13:30:00,METAR YPPH 151330Z 18005KT 140V220 CAVOK 17/15 Q1015,1,0,0,9999,0,0,0,
2026-04-15 13:00:00,METAR YPPH 151300Z 20006KT CAVOK 18/15 Q1015,1,0,0,9999,0,0,0,
2026-04-15 12:30:00,METAR YPPH 151230Z 21008KT CAVOK 19/16 Q1015,1,0,0,9999,0,0,0,
2026-04-15 12:00:00,METAR YPPH 151200Z 21007KT CAVOK 19/16 Q1015,1,0,0,9999,0,0,0,
2026-04-15 11:30:00,METAR YPPH 151130Z 22008KT CAVOK 19/15 Q1014,1,0,0,9999,0,0,0,
2026-04-15 11:00:00,METAR YPPH 151100Z 18006KT CAVOK 20/16 Q1014,1,0,0,9999,0,0,0,
2026-04-15 10:30:00,METAR YPPH 151030Z 19006KT CAVOK 21/16 Q1014,1,0,0,9999,0,0,0,
2026-04-15 10:00:00,METAR YPPH 151000Z 20007KT CAVOK 22/16 Q1014,1,0,0,9999,0,0,0,
2026-04-15 09:30:00,METAR YPPH 150930Z 19010KT CAVOK 23/15 Q1013,1,0,0,9999,0,0,0,
2026-04-15 09:00:00,METAR YPPH 150900Z 17009KT CAVOK 24/16 Q1013,1,0,0,9999,0,0,0,
2026-04-15 08:30:00,METAR YPPH 150830Z 17009KT CAVOK 24/15 Q1014,1,0,0,9999,0,0,0,
2026-04-15 08:00:00,METAR YPPH 150800Z 19009KT CAVOK 25/16 Q1014,1,0,0,9999,0,0,0,
2026-04-15 07:30:00,METAR YPPH 150730Z 19011KT CAVOK 23/15 Q1014,1,0,0,9999,0,0,0,
2026-04-15 07:00:00,METAR YPPH 150700Z 20010KT CAVOK 23/15 Q1014,1,0,0,9999,0,0,0,
2026-04-15 06:30:00,METAR YPPH 150630Z 18010KT CAVOK 23/16 Q1014,1,0,0,9999,0,0,0,
2026-04-15 06:00:00,METAR YPPH 150600Z 18010KT CAVOK 22/17 Q1014,1,0,0,9999,0,0,0,
2026-04-15 05:30:00,METAR YPPH 150530Z 24009KT CAVOK 23/18 Q1014,1,0,0,9999,0,0,0,
2026-04-15 05:00:00,METAR YPPH 150500Z 13003KT CAVOK 23/17 Q1014,1,0,0,9999,0,0,0,
2026-04-15 04:30:00,METAR YPPH 150430Z 28003KT CAVOK 22/16 Q1015,1,0,0,9999,0,0,0,
2026-04-15 04:00:00,METAR YPPH 150400Z 10003KT CAVOK 22/16 Q1015,1,0,0,9999,0,0,0,
2026-04-15 03:30:00,METAR YPPH 150330Z AUTO 16008KT 9999 // BKN115 21/17 Q1015,0,8,0,10000,0,0,0,
2026-04-15 03:00:00,METAR YPPH 150300Z AUTO 16012KT 9999 // OVC115 20/17 Q1016,0,12,0,10000,0,0,0,
2026-04-15 02:30:00,METAR YPPH 150230Z 18011KT 9999 VCSH NSC 20/17 Q1017,0,11,0,10000,0,0,0,"SH,VC"
2026-04-15 02:00:00,METAR YPPH 150200Z 22010KT 210V270 9999 VCSH FEW012 BKN120 BKN140 20/18 Q1018,0,10,0,10000,0,0,0,"SH,VC"
2026-04-15 01:30:00,METAR YPPH 150130Z 16004KT 9000 VCSH FEW015 BKN110 19/17 Q1018,0,4,0,9000,0,0,0,"SH,VC"
2026-04-15 01:00:00,METAR YPPH 150100Z 20010KT 9000 RA NSC 19/16 Q1017,0,10,0,9000,0,0,0,RA
2026-04-15 00:30:00,METAR YPPH 150030Z 22006KT 150V230 9999 -RA NSC 19/16 Q1017,0,6,0,10000,0,0,0,-RA
2026-04-15 00:00:00,METAR YPPH 150000Z 16011KT 9999 -SHRA NSC 19/15 Q1017,0,11,0,10000,0,0,0,RA
2026-04-14 23:30:00,METAR YPPH 142330Z 14007KT 9999 -SHRA FEW048 BKN110 FEW080CB 19/17 Q1017,0,7,0,10000,0,0,0,RA
2026-04-14 23:00:00,METAR YPPH 142300Z 16005KT 140V200 9999 VCSH FEW060 BKN110 FEW080CB 18/16 Q1016 RETS,0,5,0,10000,1,0,0,"SH,TS,VC"
2026-04-14 22:50:00,SPECI YPPH 142250Z 27006KT 220V290 9999 VCSH SCT065 BKN110 FEW090CB 18/16 Q1016 RETS,0,6,0,10000,1,0,0,"SH,TS,VC"
2026-04-14 22:30:00,SPECI YPPH 142230Z 26003KT 9999 -TSRA BKN085 BKN110 FEW090CB 18/15 Q1016,0,3,0,10000,1,0,0,RA
2026-04-14 22:28:00,SPECI YPPH 142228Z 28003KT 9999 -TSRA BKN085 BKN110 FEW090CB 18/15 Q1016,0,3,0,10000,1,0,0,RA
2026-04-14 22:00:00,METAR YPPH 142200Z AUTO 29011KT 200V290 9999 // OVC110 17/15 Q1016,0,11,0,10000,0,0,0,
2026-04-14 21:30:00,METAR YPPH 142130Z AUTO 17004KT 9999 // FEW110 16/14 Q1015,0,4,0,10000,0,0,0,
2026-04-14 21:00:00,METAR YPPH 142100Z AUTO 20005KT 9999 // NCD 16/14 Q1014,0,5,0,10000,0,0,0,
2026-04-14 20:30:00,METAR YPPH 142030Z AUTO 00000KT 9999 // NCD 16/14 Q1014,0,0,0,10000,0,0,0,
2026-04-14 20:00:00,METAR YPPH 142000Z AUTO 21006KT 9999 // SCT110 17/15 Q1014,0,6,0,10000,0,0,0,
2026-04-14 19:30:00,METAR YPPH 141930Z AUTO 20006KT 9999 // SCT110 17/14 Q1014,0,6,0,10000,0,0,0,
2026-04-14 19:00:00,METAR YPPH 141900Z AUTO 21004KT 9999 // FEW110 16/14 Q1014,0,4,0,10000,0,0,0,
2026-04-14 18:30:00,METAR YPPH 141830Z AUTO 22005KT 9999 // FEW105 17/14 Q1015,0,5,0,10000,0,0,0,
2026-04-14 18:00:00,METAR YPPH 141800Z AUTO 19005KT 9999 // FEW115 17/14 Q1015,0,5,0,10000,0,0,0,
2026-04-14 17:30:00,METAR YPPH 141730Z AUTO 19005KT 9999 // FEW110 18/14 Q1015,0,5,0,10000,0,0,0,
2026-04-14 17:00:00,METAR YPPH 141700Z AUTO 20004KT 9999 // FEW115 19/14 Q1015,0,4,0,10000,0,0,0,
2026-04-14 16:30:00,METAR YPPH 141630Z AUTO 24006KT 9999 // SCT115 20/15 Q1016,0,6,0,10000,0,0,0,
2026-04-14 16:00:00,METAR YPPH 141600Z 21008KT CAVOK 20/15 Q1016,1,0,0,9999,0,0,0,
2026-04-14 15:30:00,METAR YPPH 141530Z 19008KT CAVOK 21/15 Q1016,1,0,0,9999,0,0,0,
2026-04-14 15:00:00,METAR YPPH 141500Z 18008KT CAVOK 20/15 Q1016,1,0,0,9999,0,0,0,
2026-04-14 14:30:00,METAR YPPH 141430Z 09002KT CAVOK 20/14 Q1017,1,0,0,9999,0,0,0,
2026-04-14 14:00:00,METAR YPPH 141400Z 01008KT CAVOK 21/15 Q1018,1,0,0,9999,0,0,0,
2026-04-14 13:30:00,METAR YPPH 141330Z 19010KT CAVOK 21/15 Q1017,1,0,0,9999,0,0,0,
2026-04-14 13:00:00,METAR YPPH 141300Z 20010KT CAVOK 21/15 Q1017,1,0,0,9999,0,0,0,
2026-04-14 12:30:00,METAR YPPH 141230Z 19011KT CAVOK 22/15 Q1017,1,0,0,9999,0,0,0,
2026-04-14 12:00:00,METAR YPPH 141200Z 19012KT CAVOK 23/15 Q1017,1,0,0,9999,0,0,0,
2026-04-14 11:30:00,METAR YPPH 141130Z 20011KT CAVOK 23/16 Q1017,1,0,0,9999,0,0,0,
2026-04-14 11:00:00,METAR YPPH 141100Z 21010KT CAVOK 24/16 Q1017,1,0,0,9999,0,0,0,
2026-04-14 10:30:00,METAR YPPH 141030Z 22008KT CAVOK 24/16 Q1016,1,0,0,9999,0,0,0,
2026-04-14 10:00:00,METAR YPPH 141000Z 22009KT CAVOK 25/16 Q1016,1,0,0,9999,0,0,0,
2026-04-14 09:30:00,METAR YPPH 140930Z 23010KT CAVOK 27/16 Q1016,1,0,0,9999,0,0,0,
2026-04-14 09:00:00,METAR YPPH 140900Z 25009KT CAVOK 28/16 Q1016,1,0,0,9999,0,0,0,
2026-04-14 08:30:00,METAR YPPH 140830Z 25010KT CAVOK 29/16 Q1016,1,0,0,9999,0,0,0,
2026-04-14 08:00:00,METAR YPPH 140800Z 24009KT CAVOK 30/16 Q1016,1,0,0,9999,0,0,0,
2026-04-14 07:30:00,METAR YPPH 140730Z 23006KT 200V290 CAVOK 31/14 Q1016,1,0,0,9999,0,0,0,
2026-04-14 07:00:00,METAR YPPH 140700Z 15004KT CAVOK 31/14 Q1016,1,0,0,9999,0,0,0,
2026-04-14 06:30:00,METAR YPPH 140630Z 15004KT 130V190 CAVOK 31/14 Q1016,1,0,0,9999,0,0,0,
2026-04-14 06:00:00,METAR YPPH 140600Z 12005KT 090V160 CAVOK 30/14 Q1017,1,0,0,9999,0,0,0,
2026-04-14 05:30:00,METAR YPPH 140530Z 15005KT 120V180 CAVOK 29/14 Q1017,1,0,0,9999,0,0,0,
2026-04-14 05:00:00,METAR YPPH 140500Z 13005KT 110V170 CAVOK 29/14 Q1017,1,0,0,9999,0,0,0,
2026-04-14 04:30:00,METAR YPPH 140430Z AUTO 08006KT 9999 // NCD 28/14 Q1018,0,6,0,10000,0,0,0,
2026-04-14 04:00:00,METAR YPPH 140400Z 11010KT CAVOK 26/14 Q1019,1,0,0,9999,0,0,0,
2026-04-14 03:30:00,METAR YPPH 140330Z 10009KT CAVOK 26/14 Q1019,1,0,0,9999,0,0,0,
2026-04-14 03:00:00,METAR YPPH 140300Z 11012KT CAVOK 26/15 Q1020,1,0,0,9999,0,0,0,
2026-04-14 02:30:00,METAR YPPH 140230Z 11011KT CAVOK 24/14 Q1020,1,0,0,9999,0,0,0,
2026-04-14 02:00:00,METAR YPPH 140200Z 08011KT CAVOK 23/13 Q1021,1,0,0,9999,0,0,0,
2026-04-14 01:30:00,METAR YPPH 140130Z 08013KT CAVOK 21/13 Q1021,1,0,0,9999,0,0,0,
2026-04-14 01:00:00,METAR YPPH 140100Z 07014KT CAVOK 20/13 Q1021,1,0,0,9999,0,0,0,
2026-04-14 00:30:00,METAR YPPH 140030Z 07012KT CAVOK 19/12 Q1021,1,0,0,9999,0,0,0,
2026-04-14 00:00:00,METAR YPPH 140000Z 08010KT CAVOK 19/12 Q1021,1,0,0,9999,0,0,0,
2026-04-13 23:30:00,METAR YPPH 132330Z 08013KT CAVOK 18/12 Q1020,1,0,0,9999,0,0,0,
2026-04-13 23:00:00,METAR YPPH 132300Z 08011KT CAVOK 18/12 Q1020,1,0,0,9999,0,0,0,
2026-04-13 22:30:00,METAR YPPH 132230Z 08009KT CAVOK 17/12 Q1020,1,0,0,9999,0,0,0,
2026-04-13 22:00:00,METAR YPPH 132200Z AUTO 10007KT 9999 // NCD 18/12 Q1020,0,7,0,10000,0,0,0,
2026-04-13 21:30:00,METAR YPPH 132130Z AUTO 10010KT 9999 // NCD 18/12 Q1020,0,10,0,10000,0,0,0,
2026-04-13 21:00:00,METAR YPPH 132100Z AUTO 08010KT 9999 // NCD 18/12 Q1020,0,10,0,10000,0,0,0,
2026-04-13 20:30:00,METAR YPPH 132030Z AUTO 08011KT 9999 // NCD 19/12 Q1019,0,11,0,10000,0,0,0,
2026-04-13 20:00:00,METAR YPPH 132000Z AUTO 07005KT 010V140 9999 // NCD 20/11 Q1019,0,5,0,10000,0,0,0,
2026-04-13 19:30:00,METAR YPPH 131930Z AUTO 08005KT 9999 // NCD 20/11 Q1019,0,5,0,10000,0,0,0,
2026-04-13 19:00:00,METAR YPPH 131900Z AUTO 13008KT 9999 // NCD 20/12 Q1019,0,8,0,10000,0,0,0,
2026-04-13 18:30:00,METAR YPPH 131830Z AUTO 10013KT 9999 // NCD 21/12 Q1019,0,13,0,10000,0,0,0,
2026-04-13 18:00:00,METAR YPPH 131800Z AUTO 11013KT 9999 // NCD 21/12 Q1019,0,13,0,10000,0,0,0,
2026-04-13 17:30:00,METAR YPPH 131730Z AUTO 10014KT 9999 // NCD 22/12 Q1019,0,14,0,10000,0,0,0,
2026-04-13 17:00:00,METAR YPPH 131700Z AUTO 10013KT 9999 // NCD 22/12 Q1019,0,13,0,10000,0,0,0,
2026-04-13 16:30:00,METAR YPPH 131630Z AUTO 09007KT 9999 // NCD 22/11 Q1019,0,7,0,10000,0,0,0,
2026-04-13 16:00:00,METAR YPPH 131600Z 07006KT 020V100 CAVOK 20/12 Q1019,1,0,0,9999,0,0,0,
2026-04-13 15:30:00,METAR YPPH 131530Z 22005KT CAVOK 17/14 Q1020,1,0,0,9999,0,0,0,
2026-04-13 15:00:00,METAR YPPH 131500Z 21005KT CAVOK 18/15 Q1020,1,0,0,9999,0,0,0,
2026-04-13 14:30:00,METAR YPPH 131430Z 21005KT CAVOK 18/15 Q1020,1,0,0,9999,0,0,0,
2026-04-13 14:00:00,METAR YPPH 131400Z 20005KT CAVOK 18/15 Q1020,1,0,0,9999,0,0,0,
2026-04-13 13:30:00,METAR YPPH 131330Z 18006KT CAVOK 19/15 Q1020,1,0,0,9999,0,0,0,
2026-04-13 13:00:00,METAR YPPH 131300Z 19007KT CAVOK 20/15 Q1020,1,0,0,9999,0,0,0,
2026-04-13 12:30:00,METAR YPPH 131230Z 20008KT CAVOK 21/16 Q1020,1,0,0,9999,0,0,0,
2026-04-13 12:00:00,METAR YPPH 131200Z 20010KT CAVOK 21/15 Q1020,1,0,0,9999,0,0,0,
2026-04-13 11:30:00,METAR YPPH 131130Z 21008KT CAVOK 22/15 Q1020,1,0,0,9999,0,0,0,
2026-04-13 11:00:00,METAR YPPH 131100Z 20008KT CAVOK 22/15 Q1019,1,0,0,9999,0,0,0,
2026-04-13 10:30:00,METAR YPPH 131030Z 21009KT CAVOK 23/15 Q1019,1,0,0,9999,0,0,0,
2026-04-13 10:00:00,METAR YPPH 131000Z 23009KT CAVOK 23/15 Q1019,1,0,0,9999,0,0,0,
2026-04-13 09:30:00,METAR YPPH 130930Z 24010KT CAVOK 25/14 Q1019,1,0,0,9999,0,0,0,
2026-04-13 09:00:00,METAR YPPH 130900Z 24009KT CAVOK 26/15 Q1018,1,0,0,9999,0,0,0,
2026-04-13 08:30:00,METAR YPPH 130830Z 24009KT CAVOK 27/15 Q1018,1,0,0,9999,0,0,0,
2026-04-13 08:00:00,METAR YPPH 130800Z AUTO 23011KT 9999 // NCD 27/15 Q1018,0,11,0,10000,0,0,0,
2026-04-13 07:30:00,METAR YPPH 130730Z 26010KT CAVOK 27/16 Q1018,1,0,0,9999,0,0,0,
2026-04-13 07:00:00,METAR YPPH 130700Z 26011KT CAVOK 27/15 Q1018,1,0,0,9999,0,0,0,
2026-04-13 06:30:00,METAR YPPH 130630Z 26011KT CAVOK 29/14 Q1018,1,0,0,9999,0,0,0,
2026-04-13 06:00:00,METAR YPPH 130600Z 26009KT CAVOK 28/14 Q1018,1,0,0,9999,0,0,0,
2026-04-13 05:30:00,METAR YPPH 130530Z 27009KT CAVOK 28/15 Q1018,1,0,0,9999,0,0,0,
2026-04-13 05:00:00,METAR YPPH 130500Z 28007KT 250V310 CAVOK 29/14 Q1019,1,0,0,9999,0,0,0,
2026-04-13 04:30:00,METAR YPPH 130430Z 21005KT 170V240 CAVOK 29/11 Q1019,1,0,0,9999,0,0,0,
2026-04-13 04:00:00,METAR YPPH 130400Z 23005KT CAVOK 27/11 Q1020,1,0,0,9999,0,0,0,
2026-04-13 03:30:00,METAR YPPH 130330Z 26006KT 220V300 CAVOK 27/13 Q1020,1,0,0,9999,0,0,0,
2026-04-13 03:00:00,METAR YPPH 130300Z 22006KT 190V270 CAVOK 25/14 Q1020,1,0,0,9999,0,0,0,
2026-04-13 02:30:00,METAR YPPH 130230Z 23006KT CAVOK 25/14 Q1020,1,0,0,9999,0,0,0,
2026-04-13 02:00:00,METAR YPPH 130200Z 23005KT CAVOK 23/15 Q1020,1,0,0,9999,0,0,0,
2026-04-13 01:30:00,METAR YPPH 130130Z 22005KT 170V250 CAVOK 22/14 Q1020,1,0,0,9999,0,0,0,
2026-04-13 01:00:00,METAR YPPH 130100Z 21004KT CAVOK 21/14 Q1020,1,0,0,9999,0,0,0,
2026-04-13 00:30:00,METAR YPPH 130030Z AUTO 00000KT 9999 // NCD 19/13 Q1020,0,0,0,10000,0,0,0,
2026-04-13 00:00:00,METAR YPPH 130000Z 33004KT CAVOK 18/13 Q1020,1,0,0,9999,0,0,0,
2026-04-12 23:30:00,METAR YPPH 122330Z 03006KT CAVOK 16/13 Q1020,1,0,0,9999,0,0,0,
2026-04-12 23:00:00,METAR YPPH 122300Z 20004KT CAVOK 13/11 Q1019,1,0,0,9999,0,0,0,
2026-04-12 22:30:00,METAR YPPH 122230Z 18005KT CAVOK 13/11 Q1019,1,0,0,9999,0,0,0,
2026-04-12 22:00:00,METAR YPPH 122200Z AUTO 19004KT 9999 // NCD 13/11 Q1019,0,4,0,10000,0,0,0,
2026-04-12 21:30:00,METAR YPPH 122130Z AUTO 00000KT 9999 // NCD 13/11 Q1018,0,0,0,10000,0,0,0,
2026-04-12 21:00:00,METAR YPPH 122100Z AUTO 18002KT 9999 // NCD 14/11 Q1018,0,2,0,10000,0,0,0,
2026-04-12 20:30:00,METAR YPPH 122030Z AUTO 19004KT 9999 // NCD 14/12 Q1017,0,4,0,10000,0,0,0,
2026-04-12 20:00:00,METAR YPPH 122000Z AUTO 20004KT 9999 // NCD 15/12 Q1017,0,4,0,10000,0,0,0,
2026-04-12 19:30:00,METAR YPPH 121930Z AUTO 21006KT 9999 // NCD 16/14 Q1017,0,6,0,10000,0,0,0,
2026-04-12 19:00:00,METAR YPPH 121900Z AUTO 00000KT 9999 // NCD 15/12 Q1017,0,0,0,10000,0,0,0,
2026-04-12 18:30:00,METAR YPPH 121830Z AUTO 00000KT 9999 // NCD 15/12 Q1018,0,0,0,10000,0,0,0,
2026-04-12 18:00:00,METAR YPPH 121800Z AUTO 19006KT 9999 // NCD 15/13 Q1017,0,6,0,10000,0,0,0,
2026-04-12 17:30:00,METAR YPPH 121730Z AUTO 20005KT 9999 // NCD 15/12 Q1017,0,5,0,10000,0,0,0,
2026-04-12 17:00:00,METAR YPPH 121700Z AUTO 21007KT 9999 // NCD 16/11 Q1017,0,7,0,10000,0,0,0,
2026-04-12 16:30:00,METAR YPPH 121630Z AUTO 21005KT 9999 // NCD 16/12 Q1017,0,5,0,10000,0,0,0,
2026-04-12 16:00:00,METAR YPPH 121600Z 19005KT CAVOK 17/11 Q1017,1,0,0,9999,0,0,0,
2026-04-12 15:00:00,METAR YPPH 121500Z 20007KT CAVOK 19/12 Q1017,1,0,0,9999,0,0,0,
2026-04-12 14:30:00,METAR YPPH 121430Z 21009KT CAVOK 20/11 Q1017,1,0,0,9999,0,0,0,
2026-04-12 14:00:00,METAR YPPH 121400Z 20007KT CAVOK 21/11 Q1017,1,0,0,9999,0,0,0,
2026-04-12 13:30:00,METAR YPPH 121330Z 19008KT CAVOK 21/11 Q1017,1,0,0,9999,0,0,0,
2026-04-12 13:00:00,METAR YPPH 121300Z 20009KT CAVOK 22/11 Q1017,1,0,0,9999,0,0,0,
2026-04-12 12:30:00,METAR YPPH 121230Z 20009KT CAVOK 22/11 Q1017,1,0,0,9999,0,0,0,
2026-04-12 12:00:00,METAR YPPH 121200Z 21008KT CAVOK 23/11 Q1016,1,0,0,9999,0,0,0,
2026-04-12 11:30:00,METAR YPPH 121130Z 21008KT CAVOK 24/11 Q1016,1,0,0,9999,0,0,0,
2026-04-12 11:00:00,METAR YPPH 121100Z 21008KT CAVOK 24/11 Q1016,1,0,0,9999,0,0,0,
2026-04-12 10:30:00,METAR YPPH 121030Z 21009KT CAVOK 25/12 Q1015,1,0,0,9999,0,0,0,
2026-04-12 10:00:00,METAR YPPH 121000Z 23009KT CAVOK 26/13 Q1015,1,0,0,9999,0,0,0,
2026-04-12 09:30:00,METAR YPPH 120930Z 23009KT CAVOK 27/13 Q1015,1,0,0,9999,0,0,0,
2026-04-12 09:00:00,METAR YPPH 120900Z 23010KT CAVOK 29/13 Q1015,1,0,0,9999,0,0,0,
2026-04-12 08:30:00,METAR YPPH 120830Z 22011KT CAVOK 30/13 Q1015,1,0,0,9999,0,0,0,
2026-04-12 08:00:00,METAR YPPH 120800Z 23011KT CAVOK 31/13 Q1015,1,0,0,9999,0,0,0,
2026-04-12 07:30:00,METAR YPPH 120730Z AUTO 23010KT 9999 // NCD 32/13 Q1014,0,10,0,10000,0,0,0,
2026-04-12 07:00:00,METAR YPPH 120700Z 25009KT CAVOK 32/14 Q1014,1,0,0,9999,0,0,0,
2026-04-12 06:30:00,METAR YPPH 120630Z 18005KT 150V240 CAVOK 33/12 Q1014,1,0,0,9999,0,0,0,
2026-04-12 06:00:00,METAR YPPH 120600Z 15006KT CAVOK 32/13 Q1015,1,0,0,9999,0,0,0,
2026-04-12 05:30:00,METAR YPPH 120530Z 23005KT 150V260 CAVOK 32/12 Q1015,1,0,0,9999,0,0,0,
2026-04-12 05:00:00,METAR YPPH 120500Z 21004KT 140V270 CAVOK 31/12 Q1015,1,0,0,9999,0,0,0,
2026-04-12 04:30:00,METAR YPPH 120430Z 30004KT CAVOK 31/13 Q1016,1,0,0,9999,0,0,0,
2026-04-12 04:00:00,METAR YPPH 120400Z 26003KT CAVOK 30/12 Q1016,1,0,0,9999,0,0,0,
2026-04-12 03:30:00,METAR YPPH 120330Z 34004KT 290V090 CAVOK 29/12 Q1017,1,0,0,9999,0,0,0,
2026-04-12 03:00:00,METAR YPPH 120300Z AUTO 01005KT 350V060 9999 // NCD 28/12 Q1017,0,5,0,10000,0,0,0,
2026-04-12 02:30:00,METAR YPPH 120230Z 05003KT CAVOK 28/12 Q1017,1,0,0,9999,0,0,0,
2026-04-12 02:00:00,METAR YPPH 120200Z 06005KT 020V090 CAVOK 27/11 Q1018,1,0,0,9999,0,0,0,
2026-04-12 01:30:00,METAR YPPH 120130Z 07007KT CAVOK 25/10 Q1018,1,0,0,9999,0,0,0,
2026-04-12 01:00:00,METAR YPPH 120100Z 07008KT CAVOK 23/09 Q1018,1,0,0,9999,0,0,0,
2026-04-12 00:30:00,METAR YPPH 120030Z 07008KT CAVOK 22/10 Q1018,1,0,0,9999,0,0,0,
2026-04-12 00:00:00,METAR YPPH 120000Z 07009KT CAVOK 20/08 Q1018,1,0,0,9999,0,0,0,
2026-04-11 23:30:00,METAR YPPH 112330Z 07009KT CAVOK 19/08 Q1018,1,0,0,9999,0,0,0,
2026-04-11 23:00:00,METAR YPPH 112300Z 06008KT CAVOK 18/07 Q1018,1,0,0,9999,0,0,0,
2026-04-11 22:30:00,METAR YPPH 112230Z 06009KT CAVOK 17/07 Q1017,1,0,0,9999,0,0,0,
2026-04-11 22:00:00,METAR YPPH 112200Z AUTO 06009KT 9999 // NCD 17/07 Q1017,0,9,0,10000,0,0,0,
2026-04-11 21:30:00,METAR YPPH 112130Z AUTO 06002KT 9999 // NCD 15/08 Q1017,0,2,0,10000,0,0,0,
2026-04-11 21:00:00,METAR YPPH 112100Z AUTO 20001KT 9999 // NCD 13/09 Q1017,0,1,0,10000,0,0,0,
2026-04-11 20:30:00,METAR YPPH 112030Z AUTO 21005KT 9999 // NCD 13/09 Q1017,0,5,0,10000,0,0,0,
2026-04-11 20:00:00,METAR YPPH 112000Z AUTO 20005KT 9999 // NCD 13/09 Q1017,0,5,0,10000,0,0,0,
2026-04-11 19:30:00,METAR YPPH 111930Z AUTO 19005KT 9999 // NCD 13/09 Q1017,0,5,0,10000,0,0,0,
2026-04-11 19:00:00,METAR YPPH 111900Z AUTO 09003KT 9999 // NCD 14/08 Q1017,0,3,0,10000,0,0,0,
2026-04-11 18:30:00,METAR YPPH 111830Z AUTO 22001KT 9999 // NCD 15/08 Q1017,0,1,0,10000,0,0,0,
2026-04-11 18:00:00,METAR YPPH 111800Z AUTO 03004KT 360V060 9999 // NCD 16/08 Q1017,0,4,0,10000,0,0,0,
2026-04-11 17:30:00,METAR YPPH 111730Z AUTO 34002KT 9999 // NCD 14/08 Q1017,0,2,0,10000,0,0,0,
2026-04-11 17:00:00,METAR YPPH 111700Z AUTO 34003KT 9999 // NCD 15/09 Q1017,0,3,0,10000,0,0,0,
2026-04-11 16:30:00,METAR YPPH 111630Z AUTO 31005KT 9999 // NCD 16/09 Q1017,0,5,0,10000,0,0,0,
2026-04-11 16:00:00,METAR YPPH 111600Z 29006KT CAVOK 16/09 Q1017,1,0,0,9999,0,0,0,
2026-04-11 15:30:00,METAR YPPH 111530Z 31006KT CAVOK 16/10 Q1017,1,0,0,9999,0,0,0,
2026-04-11 15:00:00,METAR YPPH 111500Z 31002KT CAVOK 16/10 Q1017,1,0,0,9999,0,0,0,
2026-04-11 14:30:00,METAR YPPH 111430Z 26004KT CAVOK 15/10 Q1018,1,0,0,9999,0,0,0,
2026-04-11 14:00:00,METAR YPPH 111400Z 20006KT CAVOK 16/10 Q1018,1,0,0,9999,0,0,0,
2026-04-11 13:30:00,METAR YPPH 111330Z 20006KT CAVOK 16/10 Q1018,1,0,0,9999,0,0,0,
2026-04-11 13:00:00,METAR YPPH 111300Z 21007KT CAVOK 17/10 Q1018,1,0,0,9999,0,0,0,
2026-04-11 12:30:00,METAR YPPH 111230Z 18006KT CAVOK 17/10 Q1018,1,0,0,9999,0,0,0,
2026-04-11 12:00:00,METAR YPPH 111200Z 16007KT CAVOK 18/10 Q1018,1,0,0,9999,0,0,0,
2026-04-11 11:30:00,METAR YPPH 111130Z 15007KT CAVOK 20/10 Q1018,1,0,0,9999,0,0,0,
2026-04-11 11:00:00,METAR YPPH 111100Z 15007KT CAVOK 20/10 Q1018,1,0,0,9999,0,0,0,
2026-04-11 10:30:00,METAR YPPH 111030Z 15007KT CAVOK 22/10 Q1017,1,0,0,9999,0,0,0,
2026-04-11 10:00:00,METAR YPPH 111000Z 15008KT CAVOK 24/10 Q1017,1,0,0,9999,0,0,0,
2026-04-11 09:30:00,METAR YPPH 110930Z 13007KT CAVOK 27/10 Q1017,1,0,0,9999,0,0,0,
2026-04-11 09:00:00,METAR YPPH 110900Z AUTO 13007KT 9999 // NCD 28/09 Q1017,0,7,0,10000,0,0,0,
2026-04-11 08:30:00,METAR YPPH 110830Z 11009KT CAVOK 28/09 Q1017,1,0,0,9999,0,0,0,
2026-04-11 08:00:00,METAR YPPH 110800Z 13009KT 9000 NSC 29/09 Q1017,0,9,0,9000,0,0,0,
2026-04-11 07:30:00,METAR YPPH 110730Z 13007KT CAVOK 29/10 Q1017,1,0,0,9999,0,0,0,
2026-04-11 07:00:00,METAR YPPH 110700Z 13008KT CAVOK 29/11 Q1017,1,0,0,9999,0,0,0,
2026-04-11 06:30:00,METAR YPPH 110630Z 12010KT CAVOK 29/10 Q1017,1,0,0,9999,0,0,0,
2026-04-11 06:00:00,METAR YPPH 110600Z 08005KT 040V110 CAVOK 29/10 Q1017,1,0,0,9999,0,0,0,
2026-04-11 05:30:00,METAR YPPH 110530Z 13007KT 090V170 CAVOK 28/10 Q1018,1,0,0,9999,0,0,0,
2026-04-11 05:00:00,METAR YPPH 110500Z 10007KT CAVOK 28/10 Q1018,1,0,0,9999,0,0,0,
2026-04-11 04:30:00,METAR YPPH 110430Z 08009KT CAVOK 27/10 Q1019,1,0,0,9999,0,0,0,
2026-04-11 04:00:00,METAR YPPH 110400Z 09008KT CAVOK 26/10 Q1019,1,0,0,9999,0,0,0,
2026-04-11 03:30:00,METAR YPPH 110330Z 08009KT 050V110 CAVOK 26/10 Q1020,1,0,0,9999,0,0,0,
2026-04-11 03:00:00,METAR YPPH 110300Z 09011KT CAVOK 25/10 Q1020,1,0,0,9999,0,0,0,
2026-04-11 02:30:00,METAR YPPH 110230Z 09012KT CAVOK 23/10 Q1020,1,0,0,9999,0,0,0,
2026-04-11 02:00:00,METAR YPPH 110200Z 08014KT CAVOK 21/09 Q1021,1,0,0,9999,0,0,0,
2026-04-11 01:30:00,METAR YPPH 110130Z 09015KT CAVOK 20/09 Q1021,1,0,0,9999,0,0,0,
2026-04-11 01:00:00,METAR YPPH 110100Z 07015KT CAVOK 18/08 Q1021,1,0,0,9999,0,0,0,
2026-04-11 00:30:00,METAR YPPH 110030Z 07017KT CAVOK 17/08 Q1021,1,0,0,9999,0,0,0,
2026-04-11 00:00:00,METAR YPPH 110000Z 07015KT CAVOK 16/08 Q1021,1,0,0,9999,0,0,0,
2026-04-10 23:30:00,METAR YPPH 102330Z 07012KT CAVOK 15/08 Q1021,1,0,0,9999,0,0,0,
2026-04-10 23:00:00,METAR YPPH 102300Z 07014KT CAVOK 15/08 Q1020,1,0,0,9999,0,0,0,
2026-04-10 22:30:00,METAR YPPH 102230Z 07014KT CAVOK 14/07 Q1020,1,0,0,9999,0,0,0,
2026-04-10 22:00:00,METAR YPPH 102200Z 08013KT CAVOK 15/07 Q1020,1,0,0,9999,0,0,0,
2026-04-10 21:30:00,METAR YPPH 102130Z AUTO 07011KT 9999 // NCD 15/07 Q1020,0,11,0,10000,0,0,0,
2026-04-10 21:00:00,METAR YPPH 102100Z AUTO 07012KT 9999 // NCD 15/07 Q1020,0,12,0,10000,0,0,0,
2026-04-10 20:30:00,METAR YPPH 102030Z AUTO 07011KT 9999 // NCD 15/07 Q1020,0,11,0,10000,0,0,0,
2026-04-10 20:00:00,METAR YPPH 102000Z AUTO 06011KT 9999 // NCD 15/07 Q1020,0,11,0,10000,0,0,0,
2026-04-10 19:30:00,METAR YPPH 101930Z AUTO 05013KT 9999 // NCD 16/07 Q1020,0,13,0,10000,0,0,0,
2026-04-10 19:00:00,METAR YPPH 101900Z AUTO 06015KT 9999 // NCD 16/07 Q1020,0,15,0,10000,0,0,0,
2026-04-10 18:41:00,SPECI YPPH 101841Z AUTO 07016G26KT 9999 // NCD 16/07 Q1020,0,16,1,10000,0,0,0,
2026-04-10 18:30:00,METAR YPPH 101830Z AUTO 07015KT 9999 // NCD 17/07 Q1020,0,15,0,10000,0,0,0,
2026-04-10 18:12:00,SPECI YPPH 101812Z AUTO 07015G27KT 9999 // NCD 17/07 Q1020,0,15,1,10000,0,0,0,
2026-04-10 18:00:00,METAR YPPH 101800Z AUTO 07014KT 9999 // NCD 17/07 Q1020,0,14,0,10000,0,0,0,
2026-04-10 17:30:00,METAR YPPH 101730Z AUTO 08013KT 9999 // NCD 17/07 Q1020,0,13,0,10000,0,0,0,
2026-04-10 17:00:00,METAR YPPH 101700Z AUTO 07016KT 9999 // NCD 18/07 Q1020,0,16,0,10000,0,0,0,
2026-04-10 16:30:00,METAR YPPH 101630Z AUTO 09015KT 9999 // NCD 18/07 Q1020,0,15,0,10000,0,0,0,
2026-04-10 16:00:00,METAR YPPH 101600Z 09018KT CAVOK 18/07 Q1020,1,0,0,9999,0,0,0,
2026-04-10 15:56:00,SPECI YPPH 101556Z 09017G27KT CAVOK 18/07 Q1020,1,0,0,9999,0,0,0,
2026-04-10 15:30:00,METAR YPPH 101530Z 09016KT CAVOK 19/06 Q1020,1,0,0,9999,0,0,0,
2026-04-10 15:00:00,METAR YPPH 101500Z 09014KT CAVOK 19/06 Q1020,1,0,0,9999,0,0,0,
2026-04-10 14:30:00,METAR YPPH 101430Z 09016KT CAVOK 19/06 Q1020,1,0,0,9999,0,0,0,
2026-04-10 14:00:00,METAR YPPH 101400Z 09015KT CAVOK 19/06 Q1020,1,0,0,9999,0,0,0,
2026-04-10 13:30:00,METAR YPPH 101330Z 10013KT CAVOK 20/06 Q1021,1,0,0,9999,0,0,0,
2026-04-10 13:00:00,METAR YPPH 101300Z 09012KT CAVOK 20/06 Q1021,1,0,0,9999,0,0,0,
2026-04-10 12:30:00,METAR YPPH 101230Z 10013KT CAVOK 21/05 Q1021,1,0,0,9999,0,0,0,
2026-04-10 12:00:00,METAR YPPH 101200Z 10009KT CAVOK 21/06 Q1021,1,0,0,9999,0,0,0,
2026-04-10 11:30:00,METAR YPPH 101130Z 11007KT CAVOK 21/06 Q1021,1,0,0,9999,0,0,0,
2026-04-10 11:00:00,METAR YPPH 101100Z 11009KT CAVOK 21/07 Q1020,1,0,0,9999,0,0,0,
2026-04-10 10:30:00,METAR YPPH 101030Z 11008KT CAVOK 22/07 Q1020,1,0,0,9999,0,0,0,
2026-04-10 10:00:00,METAR YPPH 101000Z 11010KT CAVOK 22/07 Q1020,1,0,0,9999,0,0,0,
2026-04-10 09:30:00,METAR YPPH 100930Z 11012KT CAVOK 23/08 Q1019,1,0,0,9999,0,0,0,
2026-04-10 09:00:00,METAR YPPH 100900Z 09011KT CAVOK 24/08 Q1019,1,0,0,9999,0,0,0,
2026-04-10 08:30:00,METAR YPPH 100830Z 08011KT CAVOK 25/08 Q1019,1,0,0,9999,0,0,0,
2026-04-10 08:00:00,METAR YPPH 100800Z 11012KT CAVOK 26/08 Q1019,1,0,0,9999,0,0,0,
2026-04-10 07:30:00,METAR YPPH 100730Z 10013KT CAVOK 26/08 Q1019,1,0,0,9999,0,0,0,
2026-04-10 07:00:00,METAR YPPH 100700Z 10011KT CAVOK 26/08 Q1019,1,0,0,9999,0,0,0,
2026-04-10 06:30:00,METAR YPPH 100630Z 08013KT CAVOK 25/08 Q1019,1,0,0,9999,0,0,0,
2026-04-10 06:00:00,METAR YPPH 100600Z 11013KT CAVOK 25/08 Q1019,1,0,0,9999,0,0,0,
2026-04-10 05:30:00,METAR YPPH 100530Z 10012KT CAVOK 25/08 Q1020,1,0,0,9999,0,0,0,
2026-04-10 05:00:00,METAR YPPH 100500Z 11012KT CAVOK 24/09 Q1020,1,0,0,9999,0,0,0,
2026-04-10 04:30:00,METAR YPPH 100430Z AUTO 10013KT 9999 // NCD 24/09 Q1021,0,13,0,10000,0,0,0,
2026-04-10 04:00:00,METAR YPPH 100400Z 10013KT CAVOK 23/09 Q1021,1,0,0,9999,0,0,0,
2026-04-10 03:30:00,METAR YPPH 100330Z 09013KT CAVOK 22/09 Q1022,1,0,0,9999,0,0,0,
2026-04-10 03:00:00,METAR YPPH 100300Z 09012KT CAVOK 21/09 Q1022,1,0,0,9999,0,0,0,
2026-04-10 02:30:00,METAR YPPH 100230Z 09016KT CAVOK 20/09 Q1023,1,0,0,9999,0,0,0,
2026-04-10 02:00:00,METAR YPPH 100200Z 09015KT CAVOK 19/09 Q1023,1,0,0,9999,0,0,0,
2026-04-10 01:30:00,METAR YPPH 100130Z 08011KT 040V100 CAVOK 18/08 Q1023,1,0,0,9999,0,0,0,
2026-04-10 01:00:00,METAR YPPH 100100Z 07016KT CAVOK 17/08 Q1023,1,0,0,9999,0,0,0,
2026-04-10 00:30:00,METAR YPPH 100030Z 07018KT CAVOK 16/08 Q1023,1,0,0,9999,0,0,0,
2026-04-10 00:00:00,METAR YPPH 100000Z 08018KT CAVOK 15/08 Q1023,1,0,0,9999,0,0,0,
2026-04-09 23:30:00,METAR YPPH 092330Z 07017KT CAVOK 15/08 Q1022,1,0,0,9999,0,0,0,
2026-04-09 23:15:00,SPECI YPPH 092315Z 07016G28KT CAVOK 15/08 Q1022,1,0,0,9999,0,0,0,
2026-04-09 23:00:00,METAR YPPH 092300Z 07018KT CAVOK 15/08 Q1022,1,0,0,9999,0,0,0,
2026-04-09 22:30:00,SPECI YPPH 092230Z AUTO 08017G28KT 9999 // NCD 15/07 Q1022,0,17,1,10000,0,0,0,
2026-04-09 22:00:00,SPECI YPPH 092200Z 07018G28KT CAVOK 15/07 Q1022,1,0,0,9999,0,0,0,
2026-04-09 21:40:00,SPECI YPPH 092140Z AUTO 08020G30KT 9999 // NCD 15/07 Q1021,0,20,1,10000,0,0,0,
2026-04-09 21:30:00,METAR YPPH 092130Z AUTO 08021KT 9999 // NCD 15/07 Q1021,0,21,0,10000,0,0,0,
2026-04-09 21:00:00,METAR YPPH 092100Z AUTO 08021KT 9999 // NCD 15/08 Q1021,0,21,0,10000,0,0,0,
2026-04-09 20:34:00,SPECI YPPH 092034Z AUTO 08021G31KT 9999 // NCD 15/08 Q1021,0,21,1,10000,0,0,0,
2026-04-09 20:02:00,SPECI YPPH 092002Z AUTO 09020G30KT 9999 // NCD 15/07 Q1020,0,20,1,10000,0,0,0,
2026-04-09 19:34:00,SPECI YPPH 091934Z AUTO 09020G30KT 9999 // NCD 15/07 Q1020,0,20,1,10000,0,0,0,
2026-04-09 19:05:00,SPECI YPPH 091905Z AUTO 09021G33KT 9999 // NCD 16/07 Q1020,0,21,1,10000,0,0,0,
2026-04-09 18:36:00,SPECI YPPH 091836Z AUTO 09024G34KT 9999 // NCD 16/07 Q1020,0,24,1,10000,0,0,0,
2026-04-09 18:30:00,METAR YPPH 091830Z AUTO 09025KT 9999 // NCD 16/07 Q1021,0,25,0,10000,0,0,0,
2026-04-09 18:00:00,METAR YPPH 091800Z AUTO 09020G30KT 9999 // NCD 16/07 Q1021,0,20,1,10000,0,0,0,
2026-04-09 17:32:00,SPECI YPPH 091732Z AUTO 10016G26KT 9999 // NCD 16/07 Q1020,0,16,1,10000,0,0,0,
2026-04-09 17:01:00,SPECI YPPH 091701Z AUTO 10017G27KT 9999 // NCD 17/07 Q1020,0,17,1,10000,0,0,0,
2026-04-09 17:00:00,SPECI YPPH 091700Z AUTO 10017KT 9999 // NCD 17/07 Q1020,0,17,0,10000,0,0,0,
2026-04-09 16:30:00,METAR YPPH 091630Z AUTO 12009KT 9999 // NCD 17/07 Q1020,0,9,0,10000,0,0,0,
2026-04-09 16:00:00,METAR YPPH 091600Z 12009KT CAVOK 16/08 Q1020,1,0,0,9999,0,0,0,
2026-04-09 15:30:00,METAR YPPH 091530Z 18008KT 130V230 CAVOK 17/08 Q1020,1,0,0,9999,0,0,0,
2026-04-09 15:00:00,METAR YPPH 091500Z 21005KT 170V240 CAVOK 16/09 Q1021,1,0,0,9999,0,0,0,
2026-04-09 14:30:00,METAR YPPH 091430Z 19003KT CAVOK 14/10 Q1021,1,0,0,9999,0,0,0,
2026-04-09 14:00:00,METAR YPPH 091400Z 18006KT CAVOK 15/10 Q1021,1,0,0,9999,0,0,0,
2026-04-09 13:30:00,METAR YPPH 091330Z AUTO 20007KT 9999 // NCD 17/10 Q1021,0,7,0,10000,0,0,0,
2026-04-09 13:00:00,METAR YPPH 091300Z 19009KT CAVOK 17/11 Q1021,1,0,0,9999,0,0,0,
2026-04-09 12:30:00,METAR YPPH 091230Z 18009KT CAVOK 18/11 Q1021,1,0,0,9999,0,0,0,
2026-04-09 12:00:00,METAR YPPH 091200Z 18009KT CAVOK 18/11 Q1020,1,0,0,9999,0,0,0,
2026-04-09 11:30:00,METAR YPPH 091130Z 18011KT CAVOK 18/11 Q1020,1,0,0,9999,0,0,0,
2026-04-09 11:00:00,METAR YPPH 091100Z 19011KT CAVOK 18/10 Q1020,1,0,0,9999,0,0,0,
2026-04-09 10:30:00,METAR YPPH 091030Z 20011KT CAVOK 19/09 Q1020,1,0,0,9999,0,0,0,
2026-04-09 10:00:00,METAR YPPH 091000Z 21010KT CAVOK 20/09 Q1019,1,0,0,9999,0,0,0,
2026-04-09 09:30:00,METAR YPPH 090930Z 21013KT CAVOK 21/09 Q1019,1,0,0,9999,0,0,0,
2026-04-09 09:00:00,METAR YPPH 090900Z 23014KT CAVOK 21/09 Q1019,1,0,0,9999,0,0,0,
2026-04-09 08:30:00,METAR YPPH 090830Z 22015KT CAVOK 22/09 Q1019,1,0,0,9999,0,0,0,
2026-04-09 08:00:00,METAR YPPH 090800Z 24014KT CAVOK 23/11 Q1018,1,0,0,9999,0,0,0,
2026-04-09 07:30:00,METAR YPPH 090730Z 22014KT CAVOK 24/11 Q1018,1,0,0,9999,0,0,0,
2026-04-09 07:00:00,METAR YPPH 090700Z 23011KT 190V250 CAVOK 25/11 Q1018,1,0,0,9999,0,0,0,
2026-04-09 06:30:00,METAR YPPH 090630Z 20011KT CAVOK 23/10 Q1018,1,0,0,9999,0,0,0,
2026-04-09 06:00:00,METAR YPPH 090600Z 21007KT CAVOK 25/10 Q1018,1,0,0,9999,0,0,0,
2026-04-09 05:30:00,METAR YPPH 090530Z 19009KT CAVOK 25/11 Q1018,1,0,0,9999,0,0,0,
2026-04-09 05:00:00,METAR YPPH 090500Z 20006KT 170V230 9999 BKN047 23/11 Q1019,0,6,0,10000,0,0,0,
2026-04-09 04:30:00,METAR YPPH 090430Z 19007KT CAVOK 24/12 Q1019,1,0,0,9999,0,0,0,
2026-04-09 04:00:00,METAR YPPH 090400Z 15007KT 9999 BKN045 23/11 Q1019,0,7,0,10000,0,0,0,
2026-04-09 03:30:00,METAR YPPH 090330Z 16009KT 9999 BKN041 24/11 Q1020,0,9,0,10000,0,0,0,
2026-04-09 03:00:00,METAR YPPH 090300Z 18008KT 150V210 9999 BKN039 23/11 Q1020,0,8,0,10000,0,0,0,
2026-04-09 02:30:00,METAR YPPH 090230Z 18007KT 9999 SCT037 22/11 Q1020,0,7,0,10000,0,0,0,
2026-04-09 02:00:00,METAR YPPH 090200Z 16007KT 9999 SCT030 21/12 Q1020,0,7,0,10000,0,0,0,
2026-04-09 01:30:00,METAR YPPH 090130Z 17009KT 9999 FEW040 21/13 Q1020,0,9,0,10000,0,0,0,
2026-04-09 01:00:00,METAR YPPH 090100Z 15008KT 9999 FEW040 21/13 Q1020,0,8,0,10000,0,0,0,
2026-04-09 00:30:00,METAR YPPH 090030Z 16007KT CAVOK 19/13 Q1019,1,0,0,9999,0,0,0,
2026-04-09 00:00:00,METAR YPPH 090000Z 17005KT CAVOK 17/13 Q1019,1,0,0,9999,0,0,0,
2026-04-08 23:30:00,METAR YPPH 082330Z 14002KT CAVOK 15/13 Q1019,1,0,0,9999,0,0,0,
2026-04-08 23:00:00,METAR YPPH 082300Z 12003KT CAVOK 13/11 Q1019,1,0,0,9999,0,0,0,
2026-04-08 22:30:00,METAR YPPH 082230Z 07004KT CAVOK 13/11 Q1018,1,0,0,9999,0,0,0,
2026-04-08 22:00:00,METAR YPPH 082200Z AUTO 07004KT 9999 // SCT053 13/11 Q1018,0,4,0,10000,0,0,0,
2026-04-08 21:30:00,METAR YPPH 082130Z AUTO 06005KT 9999 // OVC053 14/12 Q1018,0,5,0,10000,0,0,0,
2026-04-08 21:00:00,METAR YPPH 082100Z AUTO 02005KT 9999 // FEW041 OVC053 14/12 Q1018,0,5,0,10000,0,0,0,
2026-04-08 20:30:00,METAR YPPH 082030Z AUTO 30001KT 9999 // BKN041 OVC049 15/12 Q1018,0,1,0,10000,0,0,0,
2026-04-08 20:00:00,METAR YPPH 082000Z AUTO 29004KT 9999 // OVC039 14/12 Q1018,0,4,0,10000,0,0,0,
2026-04-08 19:30:00,METAR YPPH 081930Z AUTO 33004KT 9999 // SCT041 BKN052 14/11 Q1018,0,4,0,10000,0,0,0,
2026-04-08 19:00:00,METAR YPPH 081900Z AUTO 34004KT 9999 // FEW056 13/11 Q1018,0,4,0,10000,0,0,0,
2026-04-08 18:30:00,METAR YPPH 081830Z AUTO 00000KT 9999 // NCD 14/11 Q1018,0,0,0,10000,0,0,0,
2026-04-08 18:00:00,METAR YPPH 081800Z AUTO 00000KT 9999 // SCT051 14/12 Q1017,0,0,0,10000,0,0,0,
2026-04-08 17:30:00,METAR YPPH 081730Z AUTO 04004KT 9999 // FEW026 SCT037 14/11 Q1018,0,4,0,10000,0,0,0,
2026-04-08 17:00:00,METAR YPPH 081700Z AUTO 05004KT 9999 -SHRA FEW025 SCT030 OVC034 14/11 Q1017,0,4,0,10000,0,0,0,RA
2026-04-08 16:30:00,METAR YPPH 081630Z AUTO 04004KT 020V080 9999 // SCT027 BKN035 BKN047 14/10 Q1017,0,4,0,10000,0,0,0,
2026-04-08 16:00:00,METAR YPPH 081600Z 35004KT 9999 FEW030 BKN048 14/09 Q1017,0,4,0,10000,0,0,0,
2026-04-08 15:30:00,METAR YPPH 081530Z 00000KT 9999 FEW030 BKN048 13/09 Q1017,0,0,0,10000,0,0,0,
2026-04-08 15:00:00,METAR YPPH 081500Z 04005KT 9999 FEW030 SCT050 12/08 Q1017,0,5,0,10000,0,0,0,
2026-04-08 14:30:00,METAR YPPH 081430Z 10004KT 9999 FEW035 12/08 Q1017,0,4,0,10000,0,0,0,
2026-04-08 14:00:00,METAR YPPH 081400Z 15004KT 9999 FEW040 13/08 Q1017,0,4,0,10000,0,0,0,
2026-04-08 13:30:00,METAR YPPH 081330Z 11005KT 9999 FEW040 14/08 Q1017,0,5,0,10000,0,0,0,
2026-04-08 13:00:00,METAR YPPH 081300Z 19006KT 150V220 9999 FEW048 16/08 Q1017,0,6,0,10000,0,0,0,
2026-04-08 12:30:00,METAR YPPH 081230Z 24008KT 9999 FEW048 SCT230 17/08 Q1017,0,8,0,10000,0,0,0,
2026-04-08 12:00:00,METAR YPPH 081200Z 21009KT 9999 SCT048 SCT230 18/08 Q1016,0,9,0,10000,0,0,0,
2026-04-08 11:30:00,METAR YPPH 081130Z 21009KT 9999 BKN048 SCT230 18/09 Q1016,0,9,0,10000,0,0,0,
2026-04-08 11:00:00,METAR YPPH 081100Z 21011KT 9999 BKN048 19/09 Q1016,0,11,0,10000,0,0,0,
2026-04-08 10:30:00,METAR YPPH 081030Z 21011KT 9999 FEW042 BKN048 20/09 Q1015,0,11,0,10000,0,0,0,
2026-04-08 10:00:00,METAR YPPH 081000Z 23013KT 9999 FEW040 BKN048 20/10 Q1015,0,13,0,10000,0,0,0,
2026-04-08 09:30:00,METAR YPPH 080930Z 24013KT 9999 BKN045 20/10 Q1015,0,13,0,10000,0,0,0,
2026-04-08 09:00:00,METAR YPPH 080900Z 22013KT 9999 SCT045 20/09 Q1015,0,13,0,10000,0,0,0,
2026-04-08 08:30:00,METAR YPPH 080830Z 23014KT 9999 SCT048 21/09 Q1015,0,14,0,10000,0,0,0,
2026-04-08 08:00:00,METAR YPPH 080800Z 21014KT 9999 SCT048 23/08 Q1015,0,14,0,10000,0,0,0,
2026-04-08 07:30:00,METAR YPPH 080730Z 25013KT 9999 BKN044 22/08 Q1015,0,13,0,10000,0,0,0,
2026-04-08 07:00:00,METAR YPPH 080700Z 26013KT 9999 BKN044 23/11 Q1015,0,13,0,10000,0,0,0,
2026-04-08 06:30:00,METAR YPPH 080630Z 27014KT 9999 BKN044 23/10 Q1015,0,14,0,10000,0,0,0,
2026-04-08 06:00:00,METAR YPPH 080600Z 22012KT 9999 BKN046 24/11 Q1015,0,12,0,10000,0,0,0,
2026-04-08 05:30:00,METAR YPPH 080530Z 19013KT 190V270 9999 BKN046 24/10 Q1015,0,13,0,10000,0,0,0,
2026-04-08 05:00:00,METAR YPPH 080500Z 23012KT 200V260 CAVOK 24/09 Q1015,1,0,0,9999,0,0,0,
2026-04-08 04:30:00,METAR YPPH 080430Z 23013KT CAVOK 24/09 Q1015,1,0,0,9999,0,0,0,
2026-04-08 04:00:00,METAR YPPH 080400Z 26011KT 170V270 CAVOK 23/08 Q1015,1,0,0,9999,0,0,0,
2026-04-08 03:30:00,SPECI YPPH 080330Z 20009KT 9999 FEW045 23/09 Q1016,0,9,0,10000,0,0,0,
2026-04-08 03:00:00,METAR YPPH 080300Z 21009KT 9999 FEW043 22/09 Q1016,0,9,0,10000,0,0,0,
2026-04-08 02:30:00,METAR YPPH 080230Z 21010KT 9999 FEW043 22/10 Q1016,0,10,0,10000,0,0,0,
2026-04-08 02:00:00,METAR YPPH 080200Z 17009KT CAVOK 21/09 Q1016,1,0,0,9999,0,0,0,
2026-04-08 01:30:00,METAR YPPH 080130Z 17009KT CAVOK 20/10 Q1016,1,0,0,9999,0,0,0,
2026-04-08 01:00:00,METAR YPPH 080100Z 00000KT CAVOK 19/10 Q1017,1,0,0,9999,0,0,0,
2026-04-08 00:30:00,METAR YPPH 080030Z 00000KT 9999 FEW048 17/10 Q1017,0,0,0,10000,0,0,0,
2026-04-08 00:00:00,METAR YPPH 080000Z 00000KT 9999 FEW047 15/10 Q1017,0,0,0,10000,0,0,0,
2026-04-07 23:30:00,METAR YPPH 072330Z 03002KT 9999 FEW047 11/10 Q1016,0,2,0,10000,0,0,0,
2026-04-07 23:00:00,METAR YPPH 072300Z 02005KT 9999 FEW049 09/07 Q1016,0,5,0,10000,0,0,0,
2026-04-07 22:30:00,METAR YPPH 072230Z 26002KT 9999 FEW048 08/07 Q1016,0,2,0,10000,0,0,0,
2026-04-07 22:00:00,METAR YPPH 072200Z 22002KT 9999 FEW048 08/07 Q1016,0,2,0,10000,0,0,0,
2026-04-07 21:30:00,METAR YPPH 072130Z AUTO 16004KT 9999 // BKN048 09/07 Q1016,0,4,0,10000,0,0,0,
2026-04-07 21:00:00,METAR YPPH 072100Z AUTO 00000KT 9999 // BKN048 09/07 Q1016,0,0,0,10000,0,0,0,
2026-04-07 20:30:00,METAR YPPH 072030Z AUTO 00000KT 9999 // FEW048 09/07 Q1016,0,0,0,10000,0,0,0,
2026-04-07 20:00:00,METAR YPPH 072000Z AUTO 00000KT 9999 // NCD 10/08 Q1015,0,0,0,10000,0,0,0,
2026-04-07 19:30:00,METAR YPPH 071930Z AUTO 00000KT 9999 // NCD 10/08 Q1015,0,0,0,10000,0,0,0,
2026-04-07 19:00:00,METAR YPPH 071900Z AUTO 17005KT 9999 // NCD 11/09 Q1015,0,5,0,10000,0,0,0,
2026-04-07 18:30:00,METAR YPPH 071830Z AUTO 13006KT 9999 // NCD 11/09 Q1015,0,6,0,10000,0,0,0,
2026-04-07 18:00:00,METAR YPPH 071800Z AUTO 18008KT 9999 // NCD 12/09 Q1015,0,8,0,10000,0,0,0,
2026-04-07 17:30:00,METAR YPPH 071730Z AUTO 20009KT 9999 // NCD 13/10 Q1015,0,9,0,10000,0,0,0,
2026-04-07 17:00:00,METAR YPPH 071700Z AUTO 19009KT 9999 // NCD 14/10 Q1015,0,9,0,10000,0,0,0,
2026-04-07 16:30:00,METAR YPPH 071630Z AUTO 19009KT 9999 // NCD 14/10 Q1015,0,9,0,10000,0,0,0,
2026-04-07 16:00:00,METAR YPPH 071600Z 19010KT CAVOK 15/10 Q1015,1,0,0,9999,0,0,0,
2026-04-07 15:30:00,METAR YPPH 071530Z 20010KT CAVOK 15/10 Q1015,1,0,0,9999,0,0,0,
2026-04-07 15:00:00,METAR YPPH 071500Z 21007KT CAVOK 15/10 Q1016,1,0,0,9999,0,0,0,
2026-04-07 14:30:00,METAR YPPH 071430Z 21008KT CAVOK 15/10 Q1016,1,0,0,9999,0,0,0,
2026-04-07 14:00:00,METAR YPPH 071400Z 20008KT 9999 FEW048 16/10 Q1016,0,8,0,10000,0,0,0,
2026-04-07 13:30:00,METAR YPPH 071330Z 20008KT 9999 FEW048 16/11 Q1016,0,8,0,10000,0,0,0,
2026-04-07 13:00:00,METAR YPPH 071300Z 20010KT CAVOK 17/10 Q1016,1,0,0,9999,0,0,0,
2026-04-07 12:30:00,METAR YPPH 071230Z 20011KT CAVOK 18/10 Q1015,1,0,0,9999,0,0,0,
2026-04-07 12:00:00,METAR YPPH 071200Z 20011KT CAVOK 18/10 Q1015,1,0,0,9999,0,0,0,
2026-04-07 11:30:00,METAR YPPH 071130Z 20010KT CAVOK 19/10 Q1015,1,0,0,9999,0,0,0,
2026-04-07 11:00:00,METAR YPPH 071100Z 20013KT CAVOK 19/11 Q1014,1,0,0,9999,0,0,0,
2026-04-07 10:30:00,METAR YPPH 071030Z 21012KT CAVOK 20/10 Q1014,1,0,0,9999,0,0,0,
2026-04-07 10:00:00,METAR YPPH 071000Z 20014KT CAVOK 20/10 Q1014,1,0,0,9999,0,0,0,
2026-04-07 09:30:00,METAR YPPH 070930Z 23012KT CAVOK 22/11 Q1014,1,0,0,9999,0,0,0,
2026-04-07 09:00:00,METAR YPPH 070900Z 24013KT CAVOK 23/11 Q1013,1,0,0,9999,0,0,0,
2026-04-07 08:30:00,METAR YPPH 070830Z 24013KT CAVOK 24/12 Q1013,1,0,0,9999,0,0,0,
2026-04-07 08:00:00,METAR YPPH 070800Z 23013KT 9999 FEW045 SCT270 25/13 Q1013,0,13,0,10000,0,0,0,
2026-04-07 07:30:00,METAR YPPH 070730Z 27012KT 9999 SCT045 BKN270 24/13 Q1014,0,12,0,10000,0,0,0,
2026-04-07 07:00:00,METAR YPPH 070700Z 29008KT 230V300 9999 SCT045 BKN270 25/14 Q1014,0,8,0,10000,0,0,0,
2026-04-07 06:30:00,METAR YPPH 070630Z 26010KT 9999 SCT043 SCT270 24/13 Q1014,0,10,0,10000,0,0,0,
2026-04-07 06:00:00,METAR YPPH 070600Z 19008KT 9999 SCT043 24/12 Q1014,0,8,0,10000,0,0,0,
2026-04-07 05:30:00,METAR YPPH 070530Z 19008KT 170V230 9999 BKN041 25/13 Q1014,0,8,0,10000,0,0,0,
2026-04-07 05:00:00,METAR YPPH 070500Z 21008KT 9999 BKN037 25/14 Q1015,0,8,0,10000,0,0,0,
2026-04-07 04:30:00,METAR YPPH 070430Z 34004KT 9999 BKN033 23/13 Q1015,0,4,0,10000,0,0,0,
2026-04-07 04:00:00,METAR YPPH 070400Z 02006KT 9999 BKN031 22/13 Q1015,0,6,0,10000,0,0,0,
2026-04-07 03:30:00,METAR YPPH 070330Z 12005KT 080V150 9999 BKN029 22/13 Q1016,0,5,0,10000,0,0,0,
2026-04-07 03:00:00,METAR YPPH 070300Z 16005KT 100V200 9999 BKN025 21/14 Q1016,0,5,0,10000,0,0,0,
2026-04-07 02:30:00,METAR YPPH 070230Z 14006KT 9999 BKN023 19/13 Q1016,0,6,0,10000,0,0,0,
2026-04-07 02:00:00,METAR YPPH 070200Z 15006KT 110V170 9999 SCT019 19/13 Q1017,0,6,0,10000,0,0,0,
2026-04-07 01:30:00,SPECI YPPH 070130Z 12006KT 9999 BKN017 18/13 Q1017,0,6,0,10000,0,0,0,
2026-04-07 01:00:00,SPECI YPPH 070100Z 14008KT 9999 BKN017 17/13 Q1017,0,8,0,10000,0,0,0,
2026-04-07 00:30:00,SPECI YPPH 070030Z 15007KT 9999 BKN017 17/12 Q1017,0,7,0,10000,0,0,0,
2026-04-07 00:00:00,SPECI YPPH 070000Z 17007KT 9999 BKN017 16/12 Q1016,0,7,0,10000,0,0,0,
2026-04-06 23:30:00,SPECI YPPH 062330Z 14005KT 9999 BKN017 15/12 Q1016,0,5,0,10000,0,0,0,
2026-04-06 23:00:00,SPECI YPPH 062300Z 11006KT 9999 SCT017 14/11 Q1016,0,6,0,10000,0,0,0,
2026-04-06 22:30:00,METAR YPPH 062230Z 13007KT 9999 BKN019 15/11 Q1016,0,7,0,10000,0,0,0,
2026-04-06 22:00:00,METAR YPPH 062200Z 17007KT 9999 BKN019 15/11 Q1016,0,7,0,10000,0,0,0,
2026-04-06 21:30:00,METAR YPPH 062130Z AUTO 17009KT 9999 // OVC019 OVC087 15/12 Q1016,0,9,0,10000,0,0,0,
2026-04-06 21:00:00,METAR YPPH 062100Z AUTO 18008KT 9999 // BKN019 OVC083 14/11 Q1016,0,8,0,10000,0,0,0,
2026-04-06 20:30:00,METAR YPPH 062030Z AUTO 17009KT 9999 // FEW079 14/11 Q1016,0,9,0,10000,0,0,0,
2026-04-06 20:00:00,METAR YPPH 062000Z AUTO 18009KT 9999 // NCD 14/11 Q1015,0,9,0,10000,0,0,0,
2026-04-06 19:30:00,METAR YPPH 061930Z AUTO 16008KT 9999 // NCD 15/11 Q1016,0,8,0,10000,0,0,0,
2026-04-06 19:00:00,METAR YPPH 061900Z AUTO 15008KT 9999 // NCD 15/11 Q1016,0,8,0,10000,0,0,0,
2026-04-06 18:30:00,METAR YPPH 061830Z AUTO 15008KT 9999 // SCT020 15/11 Q1016,0,8,0,10000,0,0,0,
2026-04-06 18:00:00,METAR YPPH 061800Z AUTO 15008KT 9999 // OVC020 15/12 Q1016,0,8,0,10000,0,0,0,
2026-04-06 17:30:00,METAR YPPH 061730Z AUTO 17008KT 9999 // BKN020 15/12 Q1017,0,8,0,10000,0,0,0,
2026-04-06 17:00:00,METAR YPPH 061700Z AUTO 16007KT 9999 // BKN020 15/12 Q1017,0,7,0,10000,0,0,0,
2026-04-06 16:30:00,METAR YPPH 061630Z AUTO 15007KT 9999 // SCT020 15/12 Q1017,0,7,0,10000,0,0,0,
2026-04-06 16:00:00,METAR YPPH 061600Z 16006KT 9999 FEW020 15/12 Q1017,0,6,0,10000,0,0,0,
2026-04-06 15:30:00,METAR YPPH 061530Z 15006KT 9999 FEW020 16/13 Q1017,0,6,0,10000,0,0,0,
2026-04-06 15:00:00,METAR YPPH 061500Z 15007KT 9999 BKN020 SCT110 17/13 Q1017,0,7,0,10000,0,0,0,
2026-04-06 14:30:00,METAR YPPH 061430Z 17007KT 9999 FEW022 BKN115 17/13 Q1017,0,7,0,10000,0,0,0,
2026-04-06 14:00:00,METAR YPPH 061400Z 16009KT 9999 FEW022 BKN115 18/13 Q1017,0,9,0,10000,0,0,0,
2026-04-06 13:30:00,METAR YPPH 061330Z 21007KT 140V250 9999 FEW022 SCT120 17/13 Q1017,0,7,0,10000,0,0,0,
2026-04-06 13:00:00,METAR YPPH 061300Z 09010KT 9999 FEW020 SCT120 17/13 Q1017,0,10,0,10000,0,0,0,
2026-04-06 12:30:00,METAR YPPH 061230Z 11008KT CAVOK 18/13 Q1017,1,0,0,9999,0,0,0,
2026-04-06 12:00:00,METAR YPPH 061200Z AUTO 10008KT 9999 // NCD 18/13 Q1017,0,8,0,10000,0,0,0,
2026-04-06 11:30:00,METAR YPPH 061130Z 11008KT 9999 FEW025 BKN130 18/13 Q1017,0,8,0,10000,0,0,0,
2026-04-06 11:00:00,METAR YPPH 061100Z 11008KT 9999 FEW025 BKN160 18/13 Q1017,0,8,0,10000,0,0,0,
2026-04-06 10:30:00,METAR YPPH 061030Z 12008KT 9999 FEW020 BKN155 18/13 Q1017,0,8,0,10000,0,0,0,
2026-04-06 10:00:00,METAR YPPH 061000Z 13008KT 9999 FEW025 SCT080 BKN180 18/13 Q1017,0,8,0,10000,0,0,0,
2026-04-06 09:30:00,METAR YPPH 060930Z AUTO 14008KT 9999 // BKN081 18/13 Q1017,0,8,0,10000,0,0,0,
2026-04-06 09:00:00,METAR YPPH 060900Z 14011KT 9999 FEW020 BKN180 18/13 Q1017,0,11,0,10000,0,0,0,
2026-04-06 08:30:00,METAR YPPH 060830Z 14012KT 9999 FEW018 BKN090 BKN180 19/13 Q1017,0,12,0,10000,0,0,0,
2026-04-06 08:00:00,METAR YPPH 060800Z 14011KT 9999 FEW025 SCT090 OVC185 19/13 Q1017,0,11,0,10000,0,0,0,
2026-04-06 07:30:00,METAR YPPH 060730Z 15013KT 9999 FEW025 SCT090 OVC185 19/13 Q1017,0,13,0,10000,0,0,0,
2026-04-06 07:00:00,METAR YPPH 060700Z 18013KT 9999 FEW027 SCT120 BKN160 19/14 Q1017,0,13,0,10000,0,0,0,
2026-04-06 06:30:00,METAR YPPH 060630Z 18011KT 9999 FEW027 SCT120 BKN150 20/13 Q1017,0,11,0,10000,0,0,0,
2026-04-06 06:00:00,METAR YPPH 060600Z 16010KT CAVOK 20/13 Q1017,1,0,0,9999,0,0,0,
2026-04-06 05:30:00,METAR YPPH 060530Z 17007KT CAVOK 20/13 Q1018,1,0,0,9999,0,0,0,
2026-04-06 05:00:00,METAR YPPH 060500Z 13009KT 9999 FEW027 OVC130 20/13 Q1018,0,9,0,10000,0,0,0,
2026-04-06 04:30:00,METAR YPPH 060430Z 12008KT 9999 FEW030 OVC120 19/13 Q1018,0,8,0,10000,0,0,0,
2026-04-06 04:00:00,METAR YPPH 060400Z 11008KT 9999 FEW030 OVC120 19/13 Q1019,0,8,0,10000,0,0,0,
2026-04-06 03:30:00,METAR YPPH 060330Z 10009KT 9999 -RA FEW027 BKN120 18/13 Q1019,0,9,0,10000,0,0,0,-RA
2026-04-06 03:00:00,METAR YPPH 060300Z 11009KT 9999 -RA FEW027 BKN120 18/12 Q1019,0,9,0,10000,0,0,0,-RA
2026-04-06 02:30:00,METAR YPPH 060230Z 11009KT 9999 FEW030 BKN130 18/12 Q1019,0,9,0,10000,0,0,0,
2026-04-06 02:00:00,METAR YPPH 060200Z 10009KT 9999 FEW035 BKN120 18/12 Q1019,0,9,0,10000,0,0,0,
2026-04-06 01:30:00,METAR YPPH 060130Z 10008KT 9999 FEW035 BKN130 18/11 Q1019,0,8,0,10000,0,0,0,
2026-04-06 01:00:00,METAR YPPH 060100Z 10009KT 9999 FEW035 BKN130 17/11 Q1020,0,9,0,10000,0,0,0,
2026-04-06 00:30:00,METAR YPPH 060030Z 10008KT 9999 FEW035 BKN130 BKN240 17/11 Q1020,0,8,0,10000,0,0,0,
2026-04-06 00:00:00,METAR YPPH 060000Z 13007KT 9999 FEW035 BKN130 BKN240 17/11 Q1019,0,7,0,10000,0,0,0,
2026-04-05 23:30:00,METAR YPPH 052330Z 15008KT 9999 -RA FEW030 SCT130 BKN150 17/10 Q1019,0,8,0,10000,0,0,0,-RA
2026-04-05 23:00:00,METAR YPPH 052300Z 16008KT 9999 FEW030 BKN150 16/11 Q1019,0,8,0,10000,0,0,0,
2026-04-05 22:30:00,METAR YPPH 052230Z 17006KT 120V190 9999 FEW020 BKN150 BKN240 16/10 Q1019,0,6,0,10000,0,0,0,
2026-04-05 22:00:00,METAR YPPH 052200Z 14007KT 110V180 CAVOK 16/10 Q1019,1,0,0,9999,0,0,0,
2026-04-05 21:30:00,METAR YPPH 052130Z AUTO 15006KT 120V190 9999 // NCD 16/10 Q1018,0,6,0,10000,0,0,0,
2026-04-05 21:00:00,METAR YPPH 052100Z AUTO 11007KT 9999 // NCD 16/10 Q1018,0,7,0,10000,0,0,0,
2026-04-05 20:30:00,METAR YPPH 052030Z AUTO 09008KT 9999 // NCD 16/10 Q1018,0,8,0,10000,0,0,0,
2026-04-05 20:00:00,METAR YPPH 052000Z AUTO 11009KT 9999 // NCD 17/10 Q1018,0,9,0,10000,0,0,0,
2026-04-05 19:30:00,METAR YPPH 051930Z AUTO 10011KT 9999 // NCD 17/10 Q1018,0,11,0,10000,0,0,0,
2026-04-05 19:00:00,METAR YPPH 051900Z AUTO 13009KT 9999 // NCD 17/12 Q1018,0,9,0,10000,0,0,0,
2026-04-05 18:30:00,METAR YPPH 051830Z AUTO 12009KT 9999 // NCD 17/12 Q1018,0,9,0,10000,0,0,0,
2026-04-05 18:00:00,METAR YPPH 051800Z AUTO 13006KT 9999 // NCD 16/13 Q1018,0,6,0,10000,0,0,0,
2026-04-05 17:30:00,METAR YPPH 051730Z AUTO 14008KT 9999 // NCD 17/13 Q1018,0,8,0,10000,0,0,0,
2026-04-05 17:00:00,METAR YPPH 051700Z AUTO 16008KT 9999 // NCD 16/13 Q1018,0,8,0,10000,0,0,0,
2026-04-05 16:30:00,METAR YPPH 051630Z AUTO 12006KT 9999 // NCD 15/12 Q1018,0,6,0,10000,0,0,0,
2026-04-05 16:00:00,METAR YPPH 051600Z 21005KT CAVOK 16/12 Q1018,1,0,0,9999,0,0,0,
2026-04-05 15:00:00,METAR YPPH 051500Z 19010KT CAVOK 17/13 Q1018,1,0,0,9999,0,0,0,
2026-04-05 13:00:00,METAR YPPH 051300Z 19009KT CAVOK 19/13 Q1018,1,0,0,9999,0,0,0,
2026-04-05 12:30:00,METAR YPPH 051230Z 19010KT CAVOK 19/13 Q1017,1,0,0,9999,0,0,0,
2026-04-05 12:00:00,METAR YPPH 051200Z 19010KT CAVOK 19/14 Q1017,1,0,0,9999,0,0,0,
2026-04-05 11:30:00,METAR YPPH 051130Z 20013KT CAVOK 20/14 Q1017,1,0,0,9999,0,0,0,
2026-04-05 11:00:00,METAR YPPH 051100Z 20012KT CAVOK 20/14 Q1017,1,0,0,9999,0,0,0,
2026-04-05 10:30:00,METAR YPPH 051030Z 21014KT CAVOK 21/14 Q1017,1,0,0,9999,0,0,0,
2026-04-05 10:00:00,METAR YPPH 051000Z 23009KT 9999 FEW035 22/14 Q1016,0,9,0,10000,0,0,0,
2026-04-05 09:30:00,METAR YPPH 050930Z 23013KT 9999 FEW035 23/13 Q1016,0,13,0,10000,0,0,0,
2026-04-05 09:00:00,METAR YPPH 050900Z 20011KT 9999 FEW040 23/13 Q1016,0,11,0,10000,0,0,0,
2026-04-05 08:30:00,METAR YPPH 050830Z 23014KT 190V250 9999 FEW040 25/15 Q1016,0,14,0,10000,0,0,0,
2026-04-05 08:00:00,METAR YPPH 050800Z 23013KT 9999 FEW040 SCT065 25/13 Q1016,0,13,0,10000,0,0,0,
2026-04-05 07:30:00,METAR YPPH 050730Z 22015KT 9999 FEW040 SCT065 25/13 Q1016,0,15,0,10000,0,0,0,
2026-04-05 07:00:00,METAR YPPH 050700Z 25014KT 9999 FEW040 26/12 Q1015,0,14,0,10000,0,0,0,
2026-04-05 06:30:00,METAR YPPH 050630Z 23014KT 9999 FEW036 26/14 Q1015,0,14,0,10000,0,0,0,
2026-04-05 06:00:00,METAR YPPH 050600Z 23013KT 9999 FEW036 26/14 Q1015,0,13,0,10000,0,0,0,
2026-04-05 05:30:00,METAR YPPH 050530Z 22012KT 9999 FEW036 SCT060 25/15 Q1015,0,12,0,10000,0,0,0,
2026-04-05 05:00:00,METAR YPPH 050500Z 23011KT 9999 SCT036 SCT060 25/15 Q1016,0,11,0,10000,0,0,0,
2026-04-05 04:30:00,METAR YPPH 050430Z 24011KT 9999 SCT036 SCT350 25/14 Q1016,0,11,0,10000,0,0,0,
2026-04-05 04:00:00,METAR YPPH 050400Z 20012KT 9999 SCT032 BKN350 26/15 Q1016,0,12,0,10000,0,0,0,
2026-04-05 03:30:00,METAR YPPH 050330Z 19012KT 9999 SCT030 26/16 Q1016,0,12,0,10000,0,0,0,
2026-04-05 03:00:00,METAR YPPH 050300Z 18012KT 9999 FEW028 24/15 Q1016,0,12,0,10000,0,0,0,
2026-04-05 02:30:00,METAR YPPH 050230Z 21012KT 9999 FEW028 BKN350 25/16 Q1017,0,12,0,10000,0,0,0,
2026-04-05 02:00:00,METAR YPPH 050200Z 19010KT 9999 FEW020 BKN360 23/16 Q1016,0,10,0,10000,0,0,0,
2026-04-05 01:30:00,METAR YPPH 050130Z 17009KT 9999 FEW016 BKN360 22/16 Q1016,0,9,0,10000,0,0,0,
2026-04-05 01:00:00,METAR YPPH 050100Z 18006KT 9999 FEW010 21/18 Q1016,0,6,0,10000,0,0,0,
2026-04-05 00:30:00,METAR YPPH 050030Z 00000KT 8000 3000E PRFG FEW002 19/18 Q1016,0,0,0,8000,0,0,1,FG
2026-04-05 00:12:00,SPECI YPPH 050012Z 02004KT 8000 0800E PRFG FEW002 18/17 Q1016,0,4,0,8000,0,0,1,FG
2026-04-05 00:00:00,METAR YPPH 050000Z 02002KT 6000 0200E R21/P2000N PRFG FEW002 17/16 Q1016,0,2,0,6000,0,0,1,FG
2026-04-04 23:30:00,METAR YPPH 042330Z 05004KT 6000 0200E R21/P2000N PRFG FEW002 16/16 Q1016,0,4,0,6000,0,0,1,FG
2026-04-04 23:00:00,METAR YPPH 042300Z 01004KT 3000 0200NE PRFG FEW002 15/14 Q1016,0,4,0,3000,0,0,1,FG
2026-04-04 22:30:00,METAR YPPH 042230Z 03004KT 0100 R21/1300VP2000D FG FEW002 15/14 Q1015,0,4,0,160900,0,0,1,FG
2026-04-04 22:16:00,SPECI YPPH 042216Z 02006KT 0100 R21/0800VP2000U FG FEW001 15/14 Q1015,0,6,0,160900,0,0,1,FG
2026-04-04 22:00:00,METAR YPPH 042200Z 02005KT 0100 R21/0500D FG FEW001 15/14 Q1015,0,5,0,160900,0,0,1,FG
2026-04-04 21:57:00,SPECI YPPH 042157Z 01005KT 0500 R21/0650D FG 15/14 Q1015,0,5,0,804500,0,0,1,FG
2026-04-04 21:56:00,SPECI YPPH 042156Z 01004KT 1000 R21/0700D PRFG FEW002 15/14 Q1015,0,4,0,1000,0,0,1,FG
2026-04-04 21:51:00,SPECI YPPH 042151Z 01002KT 1000 R21/P2000N PRFG FEW002 15/14 Q1015,0,2,0,1000,0,0,1,FG
2026-04-04 21:41:00,SPECI YPPH 042141Z AUTO 00000KT 6000 // NCD 14/13 Q1015,0,0,0,6000,0,0,0,
2026-04-04 21:38:00,SPECI YPPH 042138Z AUTO 00000KT 8000 // NCD 14/13 Q1015,0,0,0,8000,0,0,0,
2026-04-04 21:30:00,METAR YPPH 042130Z AUTO 00000KT 8000 // NCD 14/13 Q1015,0,0,0,8000,0,0,0,
2026-04-04 21:00:00,SPECI YPPH 042100Z AUTO 05002KT 1200 R21/P2000N BR SCT007 15/14 Q1015,0,2,0,1200,0,0,1,BR
2026-04-04 20:30:00,METAR YPPH 042030Z AUTO 00000KT 7000 // NCD 15/14 Q1014,0,0,0,7000,0,0,0,
2026-04-04 20:19:00,SPECI YPPH 042019Z AUTO 35003KT 6000 // NCD 15/14 Q1014,0,3,0,6000,0,0,0,
2026-04-04 20:00:00,METAR YPPH 042000Z AUTO 01004KT 8000 // NCD 16/15 Q1014,0,4,0,8000,0,0,0,
2026-04-04 19:30:00,METAR YPPH 041930Z AUTO 03003KT 9999 // SCT021 16/15 Q1014,0,3,0,10000,0,0,0,
2026-04-04 19:00:00,METAR YPPH 041900Z AUTO 03005KT 9999 // FEW013 BKN021 17/16 Q1014,0,5,0,10000,0,0,0,
2026-04-04 18:49:00,SPECI YPPH 041849Z AUTO 04004KT 9999 // FEW013 BKN019 17/16 Q1014,0,4,0,10000,0,0,0,
2026-04-04 18:30:00,METAR YPPH 041830Z AUTO 00000KT 9999 // OVC018 17/16 Q1014,0,0,0,10000,0,0,0,
2026-04-04 18:00:00,METAR YPPH 041800Z AUTO 36004KT 340V060 9999 // BKN016 16/15 Q1014,0,4,0,10000,0,0,0,
2026-04-04 17:44:00,SPECI YPPH 041744Z AUTO 36003KT 9999 // BKN014 16/15 Q1014,0,3,0,10000,0,0,0,
2026-04-04 17:39:00,SPECI YPPH 041739Z AUTO 02004KT 9000 // SCT014 16/15 Q1014,0,4,0,9000,0,0,0,
2026-04-04 17:30:00,METAR YPPH 041730Z AUTO 01004KT 350V050 9999 // SCT014 16/15 Q1014,0,4,0,10000,0,0,0,
2026-04-04 17:00:00,METAR YPPH 041700Z AUTO 34004KT 9999 // BKN014 17/16 Q1014,0,4,0,10000,0,0,0,
2026-04-04 16:50:00,SPECI YPPH 041650Z AUTO 01005KT 9999 // BKN014 17/16 Q1014,0,5,0,10000,0,0,0,
2026-04-04 16:43:00,SPECI YPPH 041643Z AUTO 01004KT 9999 // FEW012 SCT016 17/16 Q1014,0,4,0,10000,0,0,0,
2026-04-04 16:30:00,METAR YPPH 041630Z AUTO 02005KT 9999 // BKN012 17/16 Q1014,0,5,0,10000,0,0,0,
2026-04-04 16:13:00,SPECI YPPH 041613Z AUTO 03001KT 9999 // BKN012 17/16 Q1014,0,1,0,10000,0,0,0,
2026-04-04 16:00:00,METAR YPPH 041600Z 00000KT 9999 FEW012 17/15 Q1014,0,0,0,10000,0,0,0,
2026-04-04 15:37:00,SPECI YPPH 041537Z AUTO 00000KT 9999 // FEW013 17/16 Q1014,0,0,0,10000,0,0,0,
2026-04-04 15:30:00,METAR YPPH 041530Z 20002KT 9999 FEW012 18/16 Q1014,0,2,0,10000,0,0,0,
2026-04-04 15:18:00,SPECI YPPH 041518Z 20004KT 9999 R21/P2000N SCT012 18/16 Q1014,0,4,0,10000,0,0,0,
2026-04-04 15:00:00,SPECI YPPH 041500Z AUTO 20004KT 9999 // BKN013 18/16 Q1015,0,4,0,10000,0,0,0,
2026-04-04 14:30:00,SPECI YPPH 041430Z 21005KT 9999 BKN012 19/16 Q1015,0,5,0,10000,0,0,0,
2026-04-04 14:00:00,METAR YPPH 041400Z 21005KT 9999 FEW012 19/17 Q1015,0,5,0,10000,0,0,0,
2026-04-04 13:30:00,METAR YPPH 041330Z 20006KT 9999 FEW015 20/17 Q1015,0,6,0,10000,0,0,0,
2026-04-04 13:00:00,METAR YPPH 041300Z 21007KT 9999 FEW015 20/17 Q1015,0,7,0,10000,0,0,0,
2026-04-04 12:30:00,METAR YPPH 041230Z 23007KT CAVOK 20/17 Q1014,1,0,0,9999,0,0,0,
2026-04-04 12:00:00,METAR YPPH 041200Z 26008KT CAVOK 21/17 Q1014,1,0,0,9999,0,0,0,
2026-04-04 11:30:00,METAR YPPH 041130Z 25006KT CAVOK 21/16 Q1014,1,0,0,9999,0,0,0,
2026-04-04 11:00:00,METAR YPPH 041100Z 25006KT CAVOK 21/16 Q1013,1,0,0,9999,0,0,0,
2026-04-04 10:30:00,METAR YPPH 041030Z 25007KT CAVOK 22/16 Q1013,1,0,0,9999,0,0,0,
2026-04-04 10:00:00,METAR YPPH 041000Z 21007KT CAVOK 23/16 Q1013,1,0,0,9999,0,0,0,
2026-04-04 09:30:00,METAR YPPH 040930Z 23008KT 9999 FEW040 24/16 Q1013,0,8,0,10000,0,0,0,
2026-04-04 09:00:00,METAR YPPH 040900Z 22010KT 9999 FEW040 25/16 Q1013,0,10,0,10000,0,0,0,
2026-04-04 08:30:00,METAR YPPH 040830Z AUTO 23011KT 9999 // NCD 26/16 Q1013,0,11,0,10000,0,0,0,
2026-04-04 08:00:00,METAR YPPH 040800Z 24012KT 9999 FEW040 26/16 Q1013,0,12,0,10000,0,0,0,
2026-04-04 07:30:00,METAR YPPH 040730Z AUTO 25013KT 9999 // NCD 27/16 Q1012,0,13,0,10000,0,0,0,
2026-04-04 07:00:00,METAR YPPH 040700Z 24011KT CAVOK 27/16 Q1012,1,0,0,9999,0,0,0,
2026-04-04 06:30:00,METAR YPPH 040630Z 25011KT CAVOK 27/16 Q1012,1,0,0,9999,0,0,0,
2026-04-04 06:00:00,METAR YPPH 040600Z 25013KT CAVOK 27/16 Q1011,1,0,0,9999,0,0,0,
2026-04-04 05:30:00,METAR YPPH 040530Z 25009KT CAVOK 27/15 Q1011,1,0,0,9999,0,0,0,
2026-04-04 05:00:00,METAR YPPH 040500Z 25009KT CAVOK 28/14 Q1012,1,0,0,9999,0,0,0,
2026-04-04 04:30:00,METAR YPPH 040430Z 28009KT CAVOK 28/14 Q1012,1,0,0,9999,0,0,0,
2026-04-04 04:00:00,METAR YPPH 040400Z 28006KT 240V340 CAVOK 29/15 Q1012,1,0,0,9999,0,0,0,
2026-04-04 03:30:00,METAR YPPH 040330Z 28002KT 9999 FEW048 SCT260 28/15 Q1012,0,2,0,10000,0,0,0,
2026-04-04 03:00:00,METAR YPPH 040300Z 24004KT 180V300 9999 FEW045 28/15 Q1013,0,4,0,10000,0,0,0,
2026-04-04 02:30:00,METAR YPPH 040230Z AUTO 29005KT 240V340 9999 // NCD 27/14 Q1013,0,5,0,10000,0,0,0,
2026-04-04 02:00:00,METAR YPPH 040200Z 28005KT CAVOK 25/15 Q1013,1,0,0,9999,0,0,0,
2026-04-04 01:30:00,METAR YPPH 040130Z 27003KT CAVOK 25/15 Q1013,1,0,0,9999,0,0,0,
2026-04-04 01:00:00,METAR YPPH 040100Z 17002KT CAVOK 23/15 Q1013,1,0,0,9999,0,0,0,
2026-04-04 00:30:00,METAR YPPH 040030Z 23004KT CAVOK 23/15 Q1013,1,0,0,9999,0,0,0,
2026-04-04 00:00:00,METAR YPPH 040000Z 00000KT CAVOK 22/15 Q1013,1,0,0,9999,0,0,0,
2026-04-03 23:30:00,METAR YPPH 032330Z 00000KT CAVOK 20/15 Q1013,1,0,0,9999,0,0,0,
2026-04-03 23:00:00,METAR YPPH 032300Z 07004KT 030V150 CAVOK 18/14 Q1013,1,0,0,9999,0,0,0,
2026-04-03 22:30:00,METAR YPPH 032230Z 02004KT 010V070 CAVOK 18/13 Q1012,1,0,0,9999,0,0,0,
2026-04-03 22:00:00,METAR YPPH 032200Z 05006KT CAVOK 18/13 Q1012,1,0,0,9999,0,0,0,
2026-04-03 21:30:00,METAR YPPH 032130Z AUTO 05006KT 9999 // NCD 18/13 Q1012,0,6,0,10000,0,0,0,
2026-04-03 21:00:00,METAR YPPH 032100Z AUTO 06007KT 9999 // NCD 19/13 Q1012,0,7,0,10000,0,0,0,
2026-04-03 20:30:00,METAR YPPH 032030Z AUTO 05008KT 9999 // NCD 19/13 Q1012,0,8,0,10000,0,0,0,
2026-04-03 20:00:00,METAR YPPH 032000Z AUTO 04007KT 9999 // NCD 20/13 Q1012,0,7,0,10000,0,0,0,
2026-04-03 19:30:00,METAR YPPH 031930Z AUTO 05007KT 9999 // NCD 20/13 Q1012,0,7,0,10000,0,0,0,
2026-04-03 19:00:00,METAR YPPH 031900Z AUTO 05005KT 9999 // NCD 20/13 Q1012,0,5,0,10000,0,0,0,
2026-04-03 18:30:00,METAR YPPH 031830Z AUTO 03004KT 9999 // NCD 20/13 Q1013,0,4,0,10000,0,0,0,
2026-04-03 18:00:00,METAR YPPH 031800Z AUTO 05003KT 9999 // NCD 20/13 Q1013,0,3,0,10000,0,0,0,
2026-04-03 17:30:00,METAR YPPH 031730Z AUTO 07006KT 9999 // NCD 21/13 Q1012,0,6,0,10000,0,0,0,
2026-04-03 17:00:00,METAR YPPH 031700Z AUTO 06007KT 010V100 9999 // NCD 19/14 Q1012,0,7,0,10000,0,0,0,
2026-04-03 16:30:00,METAR YPPH 031630Z AUTO 28002KT 9999 // NCD 17/15 Q1013,0,2,0,10000,0,0,0,
2026-04-03 16:00:00,METAR YPPH 031600Z 24004KT CAVOK 17/15 Q1012,1,0,0,9999,0,0,0,
2026-04-03 15:30:00,METAR YPPH 031530Z 21005KT CAVOK 18/15 Q1013,1,0,0,9999,0,0,0,
2026-04-03 15:00:00,METAR YPPH 031500Z 25003KT CAVOK 19/16 Q1013,1,0,0,9999,0,0,0,
2026-04-03 14:30:00,METAR YPPH 031430Z 24005KT CAVOK 20/16 Q1013,1,0,0,9999,0,0,0,
2026-04-03 14:00:00,METAR YPPH 031400Z 21006KT CAVOK 19/16 Q1013,1,0,0,9999,0,0,0,
2026-04-03 13:30:00,METAR YPPH 031330Z 19008KT CAVOK 21/16 Q1013,1,0,0,9999,0,0,0,
2026-04-03 13:00:00,METAR YPPH 031300Z 19011KT CAVOK 22/16 Q1013,1,0,0,9999,0,0,0,
2026-04-03 12:30:00,METAR YPPH 031230Z 18011KT CAVOK 22/16 Q1013,1,0,0,9999,0,0,0,
2026-04-03 12:00:00,METAR YPPH 031200Z 19009KT CAVOK 23/16 Q1013,1,0,0,9999,0,0,0,
2026-04-03 11:30:00,METAR YPPH 031130Z 20009KT CAVOK 23/17 Q1013,1,0,0,9999,0,0,0,
2026-04-03 11:00:00,METAR YPPH 031100Z 21007KT CAVOK 23/15 Q1013,1,0,0,9999,0,0,0,
2026-04-03 10:30:00,METAR YPPH 031030Z 12005KT CAVOK 25/14 Q1013,1,0,0,9999,0,0,0,
2026-04-03 10:00:00,METAR YPPH 031000Z 10006KT CAVOK 27/14 Q1013,1,0,0,9999,0,0,0,
2026-04-03 09:30:00,METAR YPPH 030930Z 10008KT CAVOK 28/14 Q1013,1,0,0,9999,0,0,0,
2026-04-03 09:00:00,METAR YPPH 030900Z 11008KT CAVOK 28/14 Q1013,1,0,0,9999,0,0,0,
2026-04-03 08:30:00,METAR YPPH 030830Z 09009KT CAVOK 29/14 Q1013,1,0,0,9999,0,0,0,
2026-04-03 08:00:00,METAR YPPH 030800Z 10008KT CAVOK 29/15 Q1013,1,0,0,9999,0,0,0,
2026-04-03 07:30:00,METAR YPPH 030730Z 08008KT CAVOK 29/15 Q1013,1,0,0,9999,0,0,0,
2026-04-03 07:00:00,METAR YPPH 030700Z 08007KT CAVOK 29/15 Q1013,1,0,0,9999,0,0,0,
2026-04-03 06:30:00,METAR YPPH 030630Z 09009KT 9999 SCT048 29/16 Q1014,0,9,0,10000,0,0,0,
2026-04-03 06:00:00,METAR YPPH 030600Z 11011KT 050V110 9999 SCT046 29/15 Q1014,0,11,0,10000,0,0,0,
2026-04-03 05:30:00,METAR YPPH 030530Z 11011KT 9999 FEW046 29/16 Q1014,0,11,0,10000,0,0,0,
2026-04-03 05:00:00,METAR YPPH 030500Z 12011KT 9999 FEW044 28/16 Q1014,0,11,0,10000,0,0,0,
2026-04-03 04:30:00,METAR YPPH 030430Z 10011KT 9999 FEW042 28/16 Q1015,0,11,0,10000,0,0,0,
2026-04-03 04:00:00,METAR YPPH 030400Z 12012KT 9999 FEW040 27/16 Q1015,0,12,0,10000,0,0,0,
2026-04-03 03:30:00,METAR YPPH 030330Z 11013KT 9999 FEW038 27/16 Q1016,0,13,0,10000,0,0,0,
2026-04-03 03:00:00,METAR YPPH 030300Z 07013KT 9999 FEW034 26/15 Q1016,0,13,0,10000,0,0,0,
2026-04-03 02:30:00,METAR YPPH 030230Z 08013KT 9999 FEW034 25/15 Q1016,0,13,0,10000,0,0,0,
2026-04-03 02:00:00,METAR YPPH 030200Z 08016KT 9999 FEW030 25/15 Q1017,0,16,0,10000,0,0,0,
2026-04-03 01:30:00,METAR YPPH 030130Z 09014KT 9999 FEW028 24/15 Q1017,0,14,0,10000,0,0,0,
2026-04-03 01:00:00,METAR YPPH 030100Z 08015KT 9999 FEW026 22/14 Q1017,0,15,0,10000,0,0,0,
2026-04-03 00:30:00,METAR YPPH 030030Z 08016KT CAVOK 21/14 Q1017,1,0,0,9999,0,0,0,
2026-04-03 00:00:00,METAR YPPH 030000Z 09015KT CAVOK 21/14 Q1017,1,0,0,9999,0,0,0,
2026-04-02 23:30:00,METAR YPPH 022330Z 10013KT CAVOK 20/14 Q1016,1,0,0,9999,0,0,0,
2026-04-02 23:00:00,METAR YPPH 022300Z 10012G22KT CAVOK 19/14 Q1016,1,0,0,9999,0,0,0,
2026-04-02 22:57:00,SPECI YPPH 022257Z 10012G22KT CAVOK 19/14 Q1016 WS RWY06,1,0,0,9999,0,0,0,
2026-04-02 22:55:00,SPECI YPPH 022255Z 10013KT CAVOK 19/14 Q1016 WS RWY03,1,0,0,9999,0,0,0,
2026-04-02 22:30:00,METAR YPPH 022230Z 10014KT CAVOK 19/14 Q1016,1,0,0,9999,0,0,0,
2026-04-02 22:00:00,METAR YPPH 022200Z 10013KT CAVOK 19/14 Q1016,1,0,0,9999,0,0,0,
2026-04-02 21:30:00,METAR YPPH 022130Z AUTO 10013KT 9999 // NCD 19/14 Q1016,0,13,0,10000,0,0,0,
2026-04-02 21:00:00,METAR YPPH 022100Z AUTO 10012KT 9999 // NCD 19/13 Q1015,0,12,0,10000,0,0,0,
2026-04-02 20:30:00,METAR YPPH 022030Z AUTO 10015G26KT 9999 // NCD 19/14 Q1015,0,15,1,10000,0,0,0,
2026-04-02 20:00:00,METAR YPPH 022000Z AUTO 11015G25KT 9999 // NCD 19/14 Q1015,0,15,1,10000,0,0,0,
2026-04-02 19:48:00,SPECI YPPH 021948Z AUTO 10015G28KT 9999 // NCD 19/13 Q1015,0,15,1,10000,0,0,0,
2026-04-02 19:30:00,METAR YPPH 021930Z AUTO 12008KT 9999 // NCD 19/13 Q1015,0,8,0,10000,0,0,0,
2026-04-02 19:00:00,METAR YPPH 021900Z AUTO 11012KT 9999 // NCD 19/13 Q1015,0,12,0,10000,0,0,0,
2026-04-02 18:30:00,METAR YPPH 021830Z AUTO 11011KT 9999 // NCD 19/13 Q1016,0,11,0,10000,0,0,0,
2026-04-02 18:00:00,METAR YPPH 021800Z AUTO 18005KT 9999 // NCD 19/13 Q1016,0,5,0,10000,0,0,0,
2026-04-02 17:30:00,METAR YPPH 021730Z AUTO 15008KT 110V210 9999 // NCD 19/13 Q1016,0,8,0,10000,0,0,0,
2026-04-02 17:00:00,METAR YPPH 021700Z AUTO 15008KT 080V210 9999 // NCD 20/13 Q1016,0,8,0,10000,0,0,0,
2026-04-02 16:30:00,METAR YPPH 021630Z AUTO 15007KT 110V180 9999 // NCD 20/13 Q1016,0,7,0,10000,0,0,0,
2026-04-02 16:00:00,METAR YPPH 021600Z 11014KT CAVOK 20/13 Q1016,1,0,0,9999,0,0,0,
2026-04-02 15:30:00,SPECI YPPH 021530Z 11020G30KT CAVOK 20/13 Q1017,1,0,0,9999,0,0,0,
2026-04-02 15:21:00,SPECI YPPH 021521Z 11019G29KT CAVOK 21/13 Q1017,1,0,0,9999,0,0,0,
2026-04-02 15:00:00,METAR YPPH 021500Z 11015KT CAVOK 21/13 Q1017,1,0,0,9999,0,0,0,
2026-04-02 14:50:00,SPECI YPPH 021450Z 10015G27KT CAVOK 21/12 Q1017,1,0,0,9999,0,0,0,
2026-04-02 14:30:00,METAR YPPH 021430Z 10012KT CAVOK 22/13 Q1017,1,0,0,9999,0,0,0,
2026-04-02 14:00:00,METAR YPPH 021400Z 18003KT CAVOK 21/12 Q1017,1,0,0,9999,0,0,0,
2026-04-02 13:30:00,METAR YPPH 021330Z 15005KT CAVOK 19/12 Q1017,1,0,0,9999,0,0,0,
2026-04-02 13:00:00,METAR YPPH 021300Z 17006KT CAVOK 18/14 Q1017,1,0,0,9999,0,0,0,
2026-04-02 12:30:00,METAR YPPH 021230Z 18006KT CAVOK 19/14 Q1017,1,0,0,9999,0,0,0,
2026-04-02 12:00:00,METAR YPPH 021200Z 21006KT CAVOK 20/14 Q1017,1,0,0,9999,0,0,0,
2026-04-02 11:30:00,METAR YPPH 021130Z 21006KT CAVOK 21/15 Q1016,1,0,0,9999,0,0,0,
2026-04-02 11:00:00,METAR YPPH 021100Z 22009KT CAVOK 22/15 Q1016,1,0,0,9999,0,0,0,
2026-04-02 10:30:00,METAR YPPH 021030Z 24009KT CAVOK 23/15 Q1016,1,0,0,9999,0,0,0,
2026-04-02 10:00:00,METAR YPPH 021000Z 25009KT CAVOK 24/14 Q1016,1,0,0,9999,0,0,0,
2026-04-02 09:30:00,METAR YPPH 020930Z 25010KT CAVOK 26/14 Q1016,1,0,0,9999,0,0,0,
2026-04-02 09:00:00,METAR YPPH 020900Z 25012KT CAVOK 27/14 Q1016,1,0,0,9999,0,0,0,
2026-04-02 08:30:00,METAR YPPH 020830Z 19006KT CAVOK 29/08 Q1016,1,0,0,9999,0,0,0,
2026-04-02 08:00:00,METAR YPPH 020800Z 18010KT CAVOK 29/09 Q1016,1,0,0,9999,0,0,0,
2026-04-02 07:30:00,METAR YPPH 020730Z 10008KT 080V190 CAVOK 29/09 Q1016,1,0,0,9999,0,0,0,
2026-04-02 07:00:00,METAR YPPH 020700Z 16010KT 130V190 CAVOK 28/08 Q1016,1,0,0,9999,0,0,0,
2026-04-02 06:30:00,METAR YPPH 020630Z 17010KT 130V210 CAVOK 28/09 Q1016,1,0,0,9999,0,0,0,
2026-04-02 06:00:00,METAR YPPH 020600Z 15007KT 120V190 CAVOK 29/09 Q1016,1,0,0,9999,0,0,0,
2026-04-02 05:30:00,METAR YPPH 020530Z 15009KT CAVOK 29/10 Q1017,1,0,0,9999,0,0,0,
2026-04-02 05:00:00,METAR YPPH 020500Z 14006KT 110V170 CAVOK 28/10 Q1017,1,0,0,9999,0,0,0,
2026-04-02 04:30:00,METAR YPPH 020430Z 11007KT 060V130 CAVOK 27/10 Q1018,1,0,0,9999,0,0,0,
2026-04-02 04:00:00,METAR YPPH 020400Z 11008KT CAVOK 27/12 Q1018,1,0,0,9999,0,0,0,
2026-04-02 03:30:00,METAR YPPH 020330Z 11007KT 070V150 CAVOK 27/11 Q1018,1,0,0,9999,0,0,0,
2026-04-02 03:00:00,METAR YPPH 020300Z 10009KT CAVOK 25/12 Q1019,1,0,0,9999,0,0,0,
2026-04-02 02:30:00,METAR YPPH 020230Z 09010KT CAVOK 24/11 Q1019,1,0,0,9999,0,0,0,
2026-04-02 02:00:00,METAR YPPH 020200Z 10009KT CAVOK 23/11 Q1019,1,0,0,9999,0,0,0,
2026-04-02 01:30:00,METAR YPPH 020130Z 11005KT 070V170 CAVOK 22/12 Q1020,1,0,0,9999,0,0,0,
2026-04-02 01:00:00,METAR YPPH 020100Z 10016KT CAVOK 21/11 Q1019,1,0,0,9999,0,0,0,
2026-04-02 00:30:00,METAR YPPH 020030Z 10020KT CAVOK 19/11 Q1019,1,0,0,9999,0,0,0,
2026-04-02 00:00:00,SPECI YPPH 020000Z 10021G31KT CAVOK 18/11 Q1019,1,0,0,9999,0,0,0,
2026-04-01 23:30:00,METAR YPPH 012330Z 10022KT CAVOK 18/11 Q1019,1,0,0,9999,0,0,0,
2026-04-01 23:08:00,SPECI YPPH 012308Z 10020G30KT CAVOK 17/11 Q1019,1,0,0,9999,0,0,0,
2026-04-01 23:00:00,METAR YPPH 012300Z 10022KT CAVOK 17/11 Q1019,1,0,0,9999,0,0,0,
2026-04-01 22:30:00,METAR YPPH 012230Z 10022KT CAVOK 16/10 Q1019,1,0,0,9999,0,0,0,
2026-04-01 22:17:00,SPECI YPPH 012217Z 10021G31KT CAVOK 16/10 Q1019,1,0,0,9999,0,0,0,
2026-04-01 22:00:00,METAR YPPH 012200Z 10022KT CAVOK 16/11 Q1019,1,0,0,9999,0,0,0,
2026-04-01 21:30:00,METAR YPPH 012130Z AUTO 10021KT 9999 // NCD 17/10 Q1019,0,21,0,10000,0,0,0,
2026-04-01 21:03:00,SPECI YPPH 012103Z AUTO 10021G31KT 9999 // NCD 17/10 Q1019,0,21,1,10000,0,0,0,
2026-04-01 20:30:00,METAR YPPH 012030Z AUTO 10022KT 9999 // NCD 17/10 Q1019,0,22,0,10000,0,0,0,
2026-04-01 20:00:00,METAR YPPH 012000Z AUTO 10020KT 9999 // NCD 17/10 Q1019,0,20,0,10000,0,0,0,
2026-04-01 19:30:00,METAR YPPH 011930Z AUTO 10020KT 9999 // NCD 17/10 Q1018,0,20,0,10000,0,0,0,
2026-04-01 19:00:00,METAR YPPH 011900Z AUTO 11015KT 9999 // NCD 18/10 Q1018,0,15,0,10000,0,0,0,
2026-04-01 18:30:00,METAR YPPH 011830Z AUTO 12011KT 9999 // NCD 17/10 Q1019,0,11,0,10000,0,0,0,
2026-04-01 18:00:00,METAR YPPH 011800Z AUTO 19006KT 100V240 9999 // NCD 17/10 Q1019,0,6,0,10000,0,0,0,
2026-04-01 17:30:00,METAR YPPH 011730Z AUTO 21009KT 9999 // NCD 15/12 Q1019,0,9,0,10000,0,0,0,
2026-04-01 17:00:00,METAR YPPH 011700Z AUTO 20009KT 9999 // NCD 14/11 Q1019,0,9,0,10000,0,0,0,
2026-04-01 16:30:00,METAR YPPH 011630Z AUTO 20007KT 9999 // NCD 15/12 Q1019,0,7,0,10000,0,0,0,
2026-04-01 16:00:00,METAR YPPH 011600Z 18008KT CAVOK 16/12 Q1020,1,0,0,9999,0,0,0,
2026-04-01 15:30:00,METAR YPPH 011530Z 19008KT CAVOK 16/12 Q1020,1,0,0,9999,0,0,0,
2026-04-01 15:00:00,METAR YPPH 011500Z 19008KT CAVOK 16/12 Q1020,1,0,0,9999,0,0,0,
2026-04-01 14:30:00,METAR YPPH 011430Z 19008KT CAVOK 16/12 Q1020,1,0,0,9999,0,0,0,
2026-04-01 14:00:00,METAR YPPH 011400Z 18008KT CAVOK 17/12 Q1020,1,0,0,9999,0,0,0,
2026-04-01 13:30:00,METAR YPPH 011330Z 19011KT CAVOK 17/12 Q1020,1,0,0,9999,0,0,0,
2026-04-01 13:00:00,METAR YPPH 011300Z 19012KT CAVOK 18/12 Q1020,1,0,0,9999,0,0,0,
2026-04-01 12:30:00,METAR YPPH 011230Z 19015KT CAVOK 18/12 Q1020,1,0,0,9999,0,0,0,
2026-04-01 12:00:00,METAR YPPH 011200Z 19013KT CAVOK 18/12 Q1020,1,0,0,9999,0,0,0,
2026-04-01 11:30:00,METAR YPPH 011130Z 19013KT 9999 FEW040 BKN300 19/12 Q1020,0,13,0,10000,0,0,0,
2026-04-01 11:00:00,METAR YPPH 011100Z 19012KT 9999 FEW040 BKN300 19/12 Q1020,0,12,0,10000,0,0,0,
2026-04-01 10:30:00,METAR YPPH 011030Z 19013KT 9999 FEW040 BKN300 19/12 Q1019,0,13,0,10000,0,0,0,
2026-04-01 10:00:00,METAR YPPH 011000Z 21012KT 9999 FEW040 BKN300 20/13 Q1019,0,12,0,10000,0,0,0,
2026-04-01 09:30:00,METAR YPPH 010930Z 22013KT 9999 FEW040 BKN300 21/13 Q1019,0,13,0,10000,0,0,0,
2026-04-01 09:00:00,METAR YPPH 010900Z 21012KT 9999 FEW040 BKN300 21/12 Q1019,0,12,0,10000,0,0,0,
2026-04-01 08:30:00,METAR YPPH 010830Z 22015KT 9999 FEW040 BKN300 22/11 Q1019,0,15,0,10000,0,0,0,
2026-04-01 08:00:00,METAR YPPH 010800Z 23014KT CAVOK 23/11 Q1019,1,0,0,9999,0,0,0,
2026-04-01 07:30:00,METAR YPPH 010730Z 25014KT CAVOK 23/12 Q1019,1,0,0,9999,0,0,0,
2026-04-01 07:00:00,METAR YPPH 010700Z 26012KT CAVOK 24/12 Q1019,1,0,0,9999,0,0,0,
2026-04-01 06:30:00,METAR YPPH 010630Z 23012KT CAVOK 25/12 Q1018,1,0,0,9999,0,0,0,
2026-04-01 06:00:00,METAR YPPH 010600Z 22008KT 210V280 CAVOK 25/10 Q1019,1,0,0,9999,0,0,0,
2026-04-01 05:30:00,METAR YPPH 010530Z 19006KT CAVOK 24/08 Q1019,1,0,0,9999,0,0,0,
2026-04-01 05:00:00,METAR YPPH 010500Z 27009KT CAVOK 25/08 Q1019,1,0,0,9999,0,0,0,
2026-04-01 04:30:00,METAR YPPH 010430Z 27005KT 250V310 9999 SCT048 BKN300 23/08 Q1019,0,5,0,10000,0,0,0,
2026-04-01 04:00:00,METAR YPPH 010400Z 12006KT 9999 SCT048 BKN300 24/10 Q1020,0,6,0,10000,0,0,0,
2026-04-01 03:30:00,METAR YPPH 010330Z 17005KT 9999 SCT048 BKN300 22/09 Q1020,0,5,0,10000,0,0,0,
2026-04-01 03:00:00,METAR YPPH 010300Z 12004KT 070V210 9999 SCT048 BKN300 23/09 Q1020,0,4,0,10000,0,0,0,
2026-04-01 02:30:00,METAR YPPH 010230Z 13006KT 9999 FEW040 SCT300 22/09 Q1021,0,6,0,10000,0,0,0,
2026-04-01 02:00:00,METAR YPPH 010200Z 07005KT 9999 FEW035 SCT300 21/11 Q1021,0,5,0,10000,0,0,0,
2026-04-01 01:30:00,METAR YPPH 010130Z 09008KT CAVOK 20/13 Q1021,1,0,0,9999,0,0,0,
2026-04-01 01:00:00,METAR YPPH 010100Z 06008KT CAVOK 19/12 Q1021,1,0,0,9999,0,0,0,
2026-04-01 00:30:00,METAR YPPH 010030Z 02004KT CAVOK 17/12 Q1021,1,0,0,9999,0,0,0,
2026-04-01 00:00:00,METAR YPPH 010000Z 04005KT CAVOK 15/12 Q1021,1,0,0,9999,0,0,0,
2026-03-31 23:30:00,METAR YPPH 312330Z 05006KT CAVOK 13/11 Q1021,1,0,0,9999,0,0,0,
2026-03-31 23:00:00,METAR YPPH 312300Z 04005KT CAVOK 12/11 Q1020,1,0,0,9999,0,0,0,
2026-03-31 22:30:00,METAR YPPH 312230Z 03004KT CAVOK 10/09 Q1020,1,0,0,9999,0,0,0,
2026-03-31 22:00:00,METAR YPPH 312200Z 05001KT CAVOK 10/09 Q1020,1,0,0,9999,0,0,0,
2026-03-31 21:30:00,METAR YPPH 312130Z AUTO 03004KT 9999 // NCD 10/09 Q1020,0,4,0,9999,0,0,0,
2026-03-31 21:00:00,METAR YPPH 312100Z AUTO 06002KT 9999 // NCD 10/09 Q1020,0,2,0,9999,0,0,0,
2026-03-31 20:30:00,METAR YPPH 312030Z AUTO 00000KT 9999 // NCD 09/08 Q1019,0,0,0,9999,0,0,0,
2026-03-31 20:00:00,METAR YPPH 312000Z AUTO 00000KT 9999 // NCD 10/08 Q1019,0,0,0,9999,0,0,0,
2026-03-31 19:30:00,METAR YPPH 311930Z AUTO 00000KT 9999 // NCD 10/09 Q1019,0,0,0,9999,0,0,0,
2026-03-31 19:00:00,METAR YPPH 311900Z AUTO 00000KT 9999 // NCD 10/09 Q1019,0,0,0,9999,0,0,0,
2026-03-31 18:30:00,METAR YPPH 311830Z AUTO 00000KT 9999 // NCD 10/09 Q1019,0,0,0,9999,0,0,0,
2026-03-31 18:00:00,METAR YPPH 311800Z AUTO 07002KT 9999 // NCD 10/09 Q1019,0,2,0,9999,0,0,0,
2026-03-31 17:30:00,METAR YPPH 311730Z AUTO 03004KT 9999 // NCD 10/09 Q1019,0,4,0,9999,0,0,0,
2026-03-31 17:00:00,METAR YPPH 311700Z AUTO 36003KT 9999 // NCD 11/09 Q1019,0,3,0,9999,0,0,0,
2026-03-31 16:30:00,METAR YPPH 311630Z AUTO 36003KT 9999 // NCD 11/10 Q1020,0,3,0,9999,0,0,0,
2026-03-31 16:00:00,METAR YPPH 311600Z 02003KT CAVOK 12/10 Q1019,1,0,0,9999,0,0,0,
2026-03-31 15:30:00,METAR YPPH 311530Z 03005KT CAVOK 12/10 Q1019,1,0,0,9999,0,0,0,
2026-03-31 15:00:00,METAR YPPH 311500Z 06002KT CAVOK 12/10 Q1019,1,0,0,9999,0,0,0,
2026-03-31 14:30:00,METAR YPPH 311430Z 09004KT CAVOK 13/10 Q1020,1,0,0,9999,0,0,0,
2026-03-31 14:00:00,METAR YPPH 311400Z 16005KT 120V180 CAVOK 14/10 Q1020,1,0,0,9999,0,0,0,
2026-03-31 13:30:00,METAR YPPH 311330Z 18006KT CAVOK 15/11 Q1020,1,0,0,9999,0,0,0,
2026-03-31 13:00:00,METAR YPPH 311300Z 19006KT CAVOK 17/11 Q1020,1,0,0,9999,0,0,0,
2026-03-31 12:30:00,METAR YPPH 311230Z 20007KT CAVOK 17/11 Q1020,1,0,0,9999,0,0,0,
2026-03-31 12:00:00,METAR YPPH 311200Z 19007KT CAVOK 18/11 Q1019,1,0,0,9999,0,0,0,
2026-03-31 11:30:00,METAR YPPH 311130Z 20009KT CAVOK 18/11 Q1019,1,0,0,9999,0,0,0,
2026-03-31 11:00:00,METAR YPPH 311100Z 20008KT CAVOK 19/11 Q1019,1,0,0,9999,0,0,0,
2026-03-31 10:30:00,METAR YPPH 311030Z 23010KT 9999 FEW040 19/10 Q1019,0,10,0,9999,0,0,0,
2026-03-31 10:00:00,METAR YPPH 311000Z 24010KT CAVOK 20/10 Q1018,1,0,0,9999,0,0,0,
2026-03-31 09:30:00,METAR YPPH 310930Z 24011KT CAVOK 21/10 Q1018,1,0,0,9999,0,0,0,
2026-03-31 09:00:00,METAR YPPH 310900Z 25012KT CAVOK 22/11 Q1018,1,0,0,9999,0,0,0,
2026-03-31 08:30:00,METAR YPPH 310830Z 25011KT CAVOK 22/09 Q1017,1,0,0,9999,0,0,0,
2026-03-31 08:00:00,METAR YPPH 310800Z 26013KT CAVOK 22/10 Q1017,1,0,0,9999,0,0,0,
2026-03-31 07:30:00,METAR YPPH 310730Z 27011KT CAVOK 23/09 Q1017,1,0,0,9999,0,0,0,
2026-03-31 07:00:00,METAR YPPH 310700Z 26011KT CAVOK 23/08 Q1017,1,0,0,9999,0,0,0,
2026-03-31 06:30:00,METAR YPPH 310630Z AUTO 27011KT 9999 // SCT046 OVC058 23/10 Q1017,0,11,0,9999,0,0,0,
2026-03-31 06:00:00,METAR YPPH 310600Z 26011KT 9999 SCT045 SCT065 23/11 Q1017,0,11,0,9999,0,0,0,
2026-03-31 05:30:00,METAR YPPH 310530Z 26011KT 9999 SCT045 BKN065 23/10 Q1017,0,11,0,9999,0,0,0,
2026-03-31 05:00:00,METAR YPPH 310500Z 26013KT 9999 FEW045 BKN065 24/09 Q1018,0,13,0,9999,0,0,0,
2026-03-31 04:30:00,METAR YPPH 310430Z 25012KT 9999 SCT045 BKN060 22/08 Q1018,0,12,0,9999,0,0,0,
2026-03-31 04:00:00,METAR YPPH 310400Z 25014KT 9999 FEW045 BKN065 22/10 Q1018,0,14,0,9999,0,0,0,
2026-03-31 03:30:00,METAR YPPH 310330Z 24009KT 9999 VCSH NSC 21/11 Q1018,0,9,0,9999,0,0,0,"SH,VC"
2026-03-31 03:00:00,METAR YPPH 310300Z 27010KT 9999 VCSH FEW042 BKN060 20/11 Q1018,0,10,0,9999,0,0,0,"SH,VC"
2026-03-31 02:30:00,METAR YPPH 310230Z 25010KT 9999 VCSH FEW045 BKN065 21/09 Q1018,0,10,0,9999,0,0,0,"SH,VC"
2026-03-31 02:00:00,METAR YPPH 310200Z 26008KT 9999 VCSH FEW045 BKN065 21/11 Q1018,0,8,0,9999,0,0,0,"SH,VC"
2026-03-31 01:30:00,METAR YPPH 310130Z 22015KT 9999 VCSH FEW040 BKN060 20/10 Q1018,0,15,0,9999,0,0,0,"SH,VC"
2026-03-31 01:00:00,METAR YPPH 310100Z 24013G24KT 9999 VCSH SCT045 BKN065 21/11 Q1017,0,13,1,9999,0,0,0,"SH,VC"
2026-03-31 00:30:00,METAR YPPH 310030Z 25010KT CAVOK 19/08 Q1017,1,0,0,9999,0,0,0,
2026-03-31 00:00:00,METAR YPPH 310000Z 25008KT 9999 FEW045 BKN060 19/11 Q1017,0,8,0,9999,0,0,0,
2026-03-30 23:30:00,METAR YPPH 302330Z 23010KT 9999 FEW045 BKN060 18/11 Q1016,0,10,0,10000,0,0,0,
2026-03-30 23:00:00,METAR YPPH 302300Z 22006KT CAVOK 18/10 Q1016,1,0,0,9999,0,0,0,
2026-03-30 22:30:00,METAR YPPH 302230Z 21006KT CAVOK 17/10 Q1016,1,0,0,9999,0,0,0,
2026-03-30 22:00:00,METAR YPPH 302200Z 23007KT 9999 FEW045 BKN060 18/10 Q1015,0,7,0,10000,0,0,0,
2026-03-30 21:30:00,METAR YPPH 302130Z AUTO 24008KT 9999 // SCT047 OVC058 17/10 Q1015,0,8,0,10000,0,0,0,
2026-03-30 21:00:00,METAR YPPH 302100Z AUTO 23009KT 9999 // SCT040 OVC056 17/11 Q1015,0,9,0,10000,0,0,0,
2026-03-30 20:30:00,METAR YPPH 302030Z AUTO 27005KT 9999 // BKN036 OVC043 OVC053 17/11 Q1015,0,5,0,10000,0,0,0,
2026-03-30 20:00:00,METAR YPPH 302000Z AUTO 29006KT 9999 // SCT040 OVC055 17/10 Q1015,0,6,0,10000,0,0,0,
2026-03-30 19:30:00,METAR YPPH 301930Z AUTO 27005KT 9999 // FEW042 OVC051 16/09 Q1015,0,5,0,10000,0,0,0,
2026-03-30 19:00:00,METAR YPPH 301900Z AUTO 24007KT 9999 // FEW051 16/09 Q1015,0,7,0,10000,0,0,0,
2026-03-30 18:30:00,METAR YPPH 301830Z AUTO 23009KT 9999 // BKN051 17/10 Q1015,0,9,0,10000,0,0,0,
2026-03-30 18:00:00,METAR YPPH 301800Z AUTO 23010KT 9999 // FEW041 OVC053 17/11 Q1015,0,10,0,10000,0,0,0,
2026-03-30 17:30:00,METAR YPPH 301730Z AUTO 23011KT 9999 // SCT039 OVC053 18/12 Q1015,0,11,0,10000,0,0,0,
2026-03-30 17:00:00,METAR YPPH 301700Z AUTO 23009KT 9999 // FEW042 BKN054 17/13 Q1015,0,9,0,10000,0,0,0,
2026-03-30 16:30:00,METAR YPPH 301630Z AUTO 23008KT 9999 // FEW034 BKN040 BKN046 17/14 Q1015,0,8,0,10000,0,0,0,
2026-03-30 16:00:00,METAR YPPH 301600Z 23009KT 9999 VCSH SCT033 BKN050 17/14 Q1014,0,9,0,10000,0,0,0,"SH,VC"
2026-03-30 15:30:00,METAR YPPH 301530Z 24007KT 9999 FEW035 BKN055 17/15 Q1014,0,7,0,10000,0,0,0,
2026-03-30 15:00:00,METAR YPPH 301500Z 24008KT 9999 VCSH FEW023 SCT032 BKN050 17/15 Q1014 RESHRA,0,8,0,10000,0,0,0,"RA,SH,VC"
2026-03-30 14:30:00,METAR YPPH 301430Z 26006KT 9999 SHRA SCT026 BKN040 BKN050 18/15 Q1014,0,6,0,10000,0,0,0,"RA,SH"
2026-03-30 14:00:00,METAR YPPH 301400Z 24007KT 9999 -SHRA FEW017 SCT023 BKN045 19/13 Q1014,0,7,0,10000,0,0,0,RA
2026-03-30 13:30:00,METAR YPPH 301330Z 24009KT 9999 FEW030 18/12 Q1014,0,9,0,10000,0,0,0,
2026-03-30 13:00:00,METAR YPPH 301300Z 25009KT 9999 FEW035 19/12 Q1015,0,9,0,10000,0,0,0,
2026-03-30 12:30:00,METAR YPPH 301230Z 24009KT 9999 FEW038 SCT060 19/12 Q1014,0,9,0,10000,0,0,0,
2026-03-30 12:00:00,METAR YPPH 301200Z 25009KT 9999 FEW038 BKN060 19/11 Q1014,0,9,0,10000,0,0,0,
2026-03-30 11:30:00,METAR YPPH 301130Z 25012KT CAVOK 20/12 Q1014,1,0,0,9999,0,0,0,
2026-03-30 11:00:00,METAR YPPH 301100Z 25009KT 9999 SCT043 BKN065 20/12 Q1013,0,9,0,10000,0,0,0,
2026-03-30 10:30:00,METAR YPPH 301030Z 26007KT 9999 SCT040 BKN050 20/13 Q1013,0,7,0,10000,0,0,0,
2026-03-30 10:00:00,METAR YPPH 301000Z 25007KT 9999 FEW025 BKN050 20/14 Q1013,0,7,0,10000,0,0,0,
2026-03-30 09:30:00,METAR YPPH 300930Z 25011KT 9999 FEW021 SCT024 BKN040 20/15 Q1013,0,11,0,10000,0,0,0,
2026-03-30 09:00:00,METAR YPPH 300900Z 25010KT 9999 VCSH SCT027 SCT040 BKN070 20/14 Q1013,0,10,0,10000,0,0,0,"SH,VC"
2026-03-30 08:30:00,METAR YPPH 300830Z 27008KT 9999 FEW033 BKN050 20/15 Q1013,0,8,0,10000,0,0,0,
2026-03-30 08:00:00,METAR YPPH 300800Z 26013KT 9999 VCSH FEW020 SCT030 BKN038 18/14 Q1013,0,13,0,10000,0,0,0,"SH,VC"
2026-03-30 07:51:00,SPECI YPPH 300751Z 25017KT 4000 SHRA SCT025 BKN038 19/14 Q1014,0,17,0,4000,0,0,0,"RA,SH"
2026-03-30 07:30:00,METAR YPPH 300730Z 25013KT 9999 SCT037 BKN045 22/14 Q1013,0,13,0,10000,0,0,0,
2026-03-30 07:00:00,METAR YPPH 300700Z 25012KT 9999 FEW039 BKN046 22/13 Q1013,0,12,0,10000,0,0,0,
2026-03-30 06:30:00,METAR YPPH 300630Z 24013KT 9999 FEW041 BKN048 23/13 Q1013,0,13,0,10000,0,0,0,
2026-03-30 06:00:00,METAR YPPH 300600Z 29013KT 9999 FEW041 BKN070 23/12 Q1013,0,13,0,10000,0,0,0,
2026-03-30 05:30:00,METAR YPPH 300530Z 26014KT 9999 FEW047 BKN065 22/12 Q1013,0,14,0,10000,0,0,0,
2026-03-30 05:00:00,METAR YPPH 300500Z 26012KT 9999 FEW047 BKN065 23/11 Q1013,0,12,0,10000,0,0,0,
2026-03-30 04:30:00,METAR YPPH 300430Z 27014KT 9999 FEW048 BKN058 23/11 Q1013,0,14,0,10000,0,0,0,
2026-03-30 04:00:00,METAR YPPH 300400Z 27013KT 9999 FEW046 BKN060 23/12 Q1013,0,13,0,10000,0,0,0,
2026-03-30 03:30:00,METAR YPPH 300330Z 26010KT 9999 FEW044 BKN060 23/13 Q1013,0,10,0,10000,0,0,0,
2026-03-30 03:00:00,METAR YPPH 300300Z 25009KT 9999 FEW045 BKN064 23/14 Q1013,0,9,0,10000,0,0,0,
2026-03-30 02:30:00,METAR YPPH 300230Z 24008KT 9999 FEW045 BKN062 22/14 Q1014,0,8,0,10000,0,0,0,
2026-03-30 02:00:00,METAR YPPH 300200Z 23011KT 9999 SCT032 BKN057 21/14 Q1014,0,11,0,10000,0,0,0,
2026-03-30 01:30:00,METAR YPPH 300130Z 26009KT 9999 SCT022 BKN037 21/15 Q1014,0,9,0,10000,0,0,0,
2026-03-30 01:00:00,METAR YPPH 300100Z 23007KT 9999 SCT019 BKN058 20/15 Q1014,0,7,0,10000,0,0,0,
2026-03-30 00:30:00,METAR YPPH 300030Z 26006KT 9999 FEW015 SCT056 19/16 Q1014,0,6,0,10000,0,0,0,
2026-03-30 00:00:00,METAR YPPH 300000Z 23010KT 9999 VCSH FEW015 SCT029 BKN034 18/16 Q1014,0,10,0,10000,0,0,0,"SH,VC"
2026-03-29 23:30:00,METAR YPPH 292330Z 29007KT 9999 VCSH SCT032 BKN041 17/16 Q1014,0,7,0,10000,0,0,0,"SH,VC"
2026-03-29 23:00:00,METAR YPPH 292300Z 35006KT 9999 -SHRA FEW018 BKN048 16/15 Q1013,0,6,0,10000,0,0,0,RA
2026-03-29 22:30:00,METAR YPPH 292230Z 36007KT 9999 VCSH FEW018 BKN054 16/16 Q1013,0,7,0,10000,0,0,0,"SH,VC"
2026-03-29 22:00:00,METAR YPPH 292200Z AUTO 04005KT 9999 // OVC052 16/15 Q1013,0,5,0,10000,0,0,0,
2026-03-29 21:30:00,METAR YPPH 292130Z AUTO 05005KT 9999 // OVC050 16/15 Q1013,0,5,0,10000,0,0,0,
2026-03-29 21:00:00,METAR YPPH 292100Z AUTO 02005KT 9999 // OVC052 16/15 Q1013,0,5,0,10000,0,0,0,
2026-03-29 20:30:00,METAR YPPH 292030Z AUTO 03004KT 9999 // BKN052 16/15 Q1013,0,4,0,10000,0,0,0,
2026-03-29 20:00:00,METAR YPPH 292000Z AUTO 02005KT 9999 // BKN048 16/15 Q1013,0,5,0,10000,0,0,0,
2026-03-29 19:30:00,METAR YPPH 291930Z AUTO 01005KT 9999 // BKN048 16/15 Q1013,0,5,0,10000,0,0,0,
2026-03-29 19:00:00,METAR YPPH 291900Z AUTO 03005KT 9999 // FEW023 SCT050 16/15 Q1013,0,5,0,10000,0,0,0,
2026-03-29 18:30:00,METAR YPPH 291830Z AUTO 03005KT 9999 // FEW023 OVC050 16/15 Q1013,0,5,0,10000,0,0,0,
2026-03-29 18:00:00,METAR YPPH 291800Z AUTO 05005KT 9999 // FEW023 SCT050 16/15 Q1013,0,5,0,10000,0,0,0,
2026-03-29 17:30:00,METAR YPPH 291730Z AUTO 03004KT 9999 // FEW051 17/15 Q1013,0,4,0,10000,0,0,0,
2026-03-29 17:00:00,METAR YPPH 291700Z AUTO 01005KT 9999 // FEW024 OVC051 18/16 Q1013,0,5,0,10000,0,0,0,
2026-03-29 16:30:00,METAR YPPH 291630Z AUTO 31004KT 9999 // SCT051 18/16 Q1013,0,4,0,10000,0,0,0,
2026-03-29 16:00:00,METAR YPPH 291600Z 31004KT 9999 FEW027 BKN045 18/17 Q1013,0,4,0,10000,0,0,0,
2026-03-29 15:30:00,METAR YPPH 291530Z 28003KT 9999 SCT025 BKN050 19/17 Q1014,0,3,0,10000,0,0,0,
2026-03-29 15:00:00,METAR YPPH 291500Z 28004KT 9999 FEW017 SCT025 BKN042 19/17 Q1014,0,4,0,10000,0,0,0,
2026-03-29 14:30:00,METAR YPPH 291430Z 28005KT 9999 VCSH FEW017 SCT021 BKN035 19/17 Q1014,0,5,0,10000,0,0,0,"SH,VC"
2026-03-29 14:00:00,METAR YPPH 291400Z 29007KT 9999 -SHRA FEW018 BKN025 BKN042 19/17 Q1014,0,7,0,10000,0,0,0,RA
2026-03-29 13:30:00,METAR YPPH 291330Z 28005KT 9999 VCSH FEW018 SCT024 BKN030 19/17 Q1014,0,5,0,10000,0,0,0,"SH,VC"
2026-03-29 13:00:00,METAR YPPH 291300Z 27004KT 9999 FEW025 SCT033 BKN045 18/16 Q1013,0,4,0,10000,0,0,0,
2026-03-29 12:30:00,METAR YPPH 291230Z 28004KT 9999 FEW024 SCT045 18/15 Q1013,0,4,0,10000,0,0,0,
2026-03-29 12:00:00,METAR YPPH 291200Z 28005KT 9999 FEW024 BKN290 19/15 Q1013,0,5,0,10000,0,0,0,
2026-03-29 11:30:00,METAR YPPH 291130Z 27006KT 9999 FEW024 SCT042 20/15 Q1013,0,6,0,10000,0,0,0,
2026-03-29 11:00:00,METAR YPPH 291100Z 25007KT 9999 FEW025 SCT040 21/16 Q1013,0,7,0,10000,0,0,0,
2026-03-29 10:30:00,METAR YPPH 291030Z 25007KT 9999 FEW026 SCT038 21/15 Q1012,0,7,0,10000,0,0,0,
2026-03-29 10:00:00,METAR YPPH 291000Z 25007KT 9999 FEW030 SCT042 21/15 Q1012,0,7,0,10000,0,0,0,
2026-03-29 09:30:00,METAR YPPH 290930Z 27007KT 9999 FEW030 21/15 Q1012,0,7,0,10000,0,0,0,
2026-03-29 09:00:00,METAR YPPH 290900Z 24010KT 9999 FEW030 22/15 Q1012,0,10,0,10000,0,0,0,
2026-03-29 08:30:00,METAR YPPH 290830Z 24009KT 9999 SCT040 22/15 Q1012,0,9,0,10000,0,0,0,
2026-03-29 08:00:00,METAR YPPH 290800Z 25010KT 9999 SCT037 23/16 Q1012,0,10,0,10000,0,0,0,
2026-03-29 07:30:00,METAR YPPH 290730Z 24012KT 9999 BKN033 23/15 Q1012,0,12,0,10000,0,0,0,
2026-03-29 07:00:00,METAR YPPH 290700Z 25011KT 9999 SCT033 24/15 Q1012,0,11,0,10000,0,0,0,
2026-03-29 06:30:00,METAR YPPH 290630Z 24011KT 9999 BKN033 24/16 Q1012,0,11,0,10000,0,0,0,
2026-03-29 06:00:00,METAR YPPH 290600Z 26010KT 9999 BKN033 24/15 Q1011,0,10,0,10000,0,0,0,
2026-03-29 05:30:00,METAR YPPH 290530Z 26010KT 9999 BKN031 24/16 Q1012,0,10,0,10000,0,0,0,
2026-03-29 05:00:00,METAR YPPH 290500Z 26011KT 9999 BKN031 23/14 Q1012,0,11,0,10000,0,0,0,
2026-03-29 04:30:00,METAR YPPH 290430Z 28010KT 9999 BKN031 24/16 Q1012,0,10,0,10000,0,0,0,
2026-03-29 04:00:00,METAR YPPH 290400Z 26012KT 9999 BKN033 24/15 Q1012,0,12,0,10000,0,0,0,
2026-03-29 03:30:00,METAR YPPH 290330Z 25009KT 9999 BKN029 25/17 Q1012,0,9,0,10000,0,0,0,
2026-03-29 03:00:00,METAR YPPH 290300Z 29010KT 9999 BKN031 23/17 Q1012,0,10,0,10000,0,0,0,
2026-03-29 02:30:00,METAR YPPH 290230Z 25010KT 9999 BKN025 24/17 Q1012,0,10,0,10000,0,0,0,
2026-03-29 02:00:00,METAR YPPH 290200Z 25010KT 9999 BKN025 22/17 Q1012,0,10,0,10000,0,0,0,
2026-03-29 01:30:00,METAR YPPH 290130Z 26008KT 9999 VCSH SCT016 BKN041 21/18 Q1012,0,8,0,10000,0,0,0,"SH,VC"
2026-03-29 01:00:00,METAR YPPH 290100Z 26005KT 230V290 9999 VCSH BKN029 21/18 Q1012,0,5,0,10000,0,0,0,"SH,VC"
2026-03-29 00:30:00,METAR YPPH 290030Z 24007KT 9999 VCSH SCT024 BKN031 20/18 Q1012,0,7,0,10000,0,0,0,"SH,VC"
2026-03-29 00:00:00,SPECI YPPH 290000Z 25008KT 9999 VCSH SCT012 BKN019 20/18 Q1011,0,8,0,10000,0,0,0,"SH,VC"
2026-03-28 23:30:00,SPECI YPPH 282330Z 23005KT 5000 -SHRA SCT024 BKN030 20/18 Q1011,0,5,0,5000,0,0,0,RA
2026-03-28 23:00:00,METAR YPPH 282300Z 27005KT 9999 SCT013 OVC022 19/18 Q1010,0,5,0,10000,0,0,0,
2026-03-28 22:30:00,SPECI YPPH 282230Z 25005KT 8000 -DZ SCT012 OVC019 19/19 Q1010,0,5,0,8000,0,0,0,DZ
2026-03-28 22:06:00,SPECI YPPH 282206Z AUTO 26005KT 6000 // SCT006 BKN012 BKN019 20/19 Q1009,0,5,0,6000,0,0,0,
2026-03-28 22:02:00,SPECI YPPH 282202Z AUTO 25006KT 7000 -SHRA FEW006 BKN012 BKN019 19/19 Q1009,0,6,0,7000,0,0,0,RA
2026-03-28 22:00:00,SPECI YPPH 282200Z AUTO 25006KT 9000 -SHRA FEW006 BKN012 BKN019 19/19 Q1009,0,6,0,9000,0,0,0,RA
2026-03-28 21:30:00,SPECI YPPH 282130Z AUTO 25008KT 7000 -SHRA OVC006 20/19 Q1009,0,8,0,7000,0,0,0,RA
2026-03-28 21:07:00,SPECI YPPH 282107Z AUTO 26006KT 6000 -SHRA BKN006 BKN011 OVC022 20/19 Q1008,0,6,0,6000,0,0,0,RA
2026-03-28 21:00:00,METAR YPPH 282100Z AUTO 27005KT 9999 // BKN006 BKN011 BKN018 20/19 Q1008,0,5,0,10000,0,0,0,
2026-03-28 20:50:00,SPECI YPPH 282050Z AUTO 28004KT 9999 // BKN006 BKN009 BKN013 20/19 Q1008,0,4,0,10000,0,0,0,
2026-03-28 20:30:00,SPECI YPPH 282030Z AUTO 29005KT 4700 BR SCT006 SCT010 OVC017 20/19 Q1008,0,5,0,4700,0,0,1,BR
2026-03-28 20:28:00,SPECI YPPH 282028Z AUTO 29005KT 6000 // FEW004 SCT008 OVC017 20/19 Q1008,0,5,0,6000,0,0,0,
2026-03-28 20:15:00,SPECI YPPH 282015Z AUTO 29005KT 9999 // SCT004 BKN008 OVC017 20/19 Q1008,0,5,0,10000,0,0,0,
2026-03-28 20:00:00,SPECI YPPH 282000Z AUTO 27005KT 4100 -SHRA BKN005 OVC010 20/19 Q1007,0,5,0,4100,0,0,0,RA
2026-03-28 19:30:00,SPECI YPPH 281930Z AUTO 28005KT 2800 -RA BKN006 OVC011 20/19 Q1007,0,5,0,2800,0,0,0,-RA
2026-03-28 19:09:00,SPECI YPPH 281909Z AUTO 31007KT 6000 -SHRA BKN008 BKN011 OVC015 20/19 Q1007,0,7,0,6000,0,0,0,RA
2026-03-28 19:00:00,METAR YPPH 281900Z AUTO 31007KT 9999 // BKN008 OVC015 OVC018 20/19 Q1007,0,7,0,10000,0,0,0,
2026-03-28 18:38:00,SPECI YPPH 281838Z AUTO 31006KT 9999 // BKN006 OVC012 OVC021 20/19 Q1007,0,6,0,10000,0,0,0,
2026-03-28 18:30:00,SPECI YPPH 281830Z AUTO 31007KT 9000 -SHRA BKN006 BKN012 OVC022 20/19 Q1007,0,7,0,9000,0,0,0,RA
2026-03-28 18:07:00,SPECI YPPH 281807Z AUTO 32009KT 6000 -SHRA FEW010 BKN016 BKN024 20/19 Q1007,0,9,0,6000,0,0,0,RA
2026-03-28 18:03:00,SPECI YPPH 281803Z AUTO 31009KT 9999 -SHRA FEW010 SCT016 OVC024 20/19 Q1007,0,9,0,10000,0,0,0,RA
2026-03-28 18:00:00,SPECI YPPH 281800Z AUTO 32010KT 9999 -SHRA BKN016 BKN024 20/19 Q1007,0,10,0,10000,0,0,0,RA
2026-03-28 17:59:00,SPECI YPPH 281759Z AUTO 31010KT 9999 -SHRA BKN016 OVC024 OVC042 20/19 Q1007,0,10,0,10000,0,0,0,RA
2026-03-28 17:58:00,SPECI YPPH 281758Z AUTO 31010KT 9999 -SHRA FEW008 BKN016 OVC024 20/19 Q1007,0,10,0,10000,0,0,0,RA
2026-03-28 17:30:00,SPECI YPPH 281730Z AUTO 30009KT 4700 -SHRA BKN006 BKN011 OVC018 20/19 Q1007,0,9,0,4700,0,0,0,RA
2026-03-28 17:00:00,SPECI YPPH 281700Z AUTO 29009KT 9999 -SHRA BKN006 OVC011 20/20 Q1007,0,9,0,10000,0,0,0,RA
2026-03-28 16:30:00,METAR YPPH 281630Z AUTO 31008KT 9000 // SCT008 BKN015 OVC022 20/20 Q1007,0,8,0,9000,0,0,0,
2026-03-28 16:23:00,SPECI YPPH 281623Z AUTO 31007KT 6000 // SCT006 BKN010 OVC015 20/20 Q1007,0,7,0,6000,0,0,0,
2026-03-28 16:14:00,SPECI YPPH 281614Z AUTO 30006KT 9999 // FEW004 SCT008 OVC015 20/19 Q1007,0,6,0,10000,0,0,0,
2026-03-28 16:00:00,SPECI YPPH 281600Z 30007KT 8000 -DZ FEW005 SCT015 BKN024 20/20 Q1007,0,7,0,8000,0,0,0,DZ
2026-03-28 15:30:00,SPECI YPPH 281530Z 30005KT 3000 DZ FEW009 BKN015 BKN022 20/19 Q1007,0,5,0,3000,0,0,0,DZ
2026-03-28 15:27:00,SPECI YPPH 281527Z 30005KT 3000 DZ FEW009 BKN015 BKN022 20/19 Q1007,0,5,0,3000,0,0,0,DZ
2026-03-28 15:19:00,SPECI YPPH 281519Z 28006KT 9000 -DZ FEW009 SCT015 BKN024 20/19 Q1007,0,6,0,9000,0,0,0,DZ
2026-03-28 15:00:00,SPECI YPPH 281500Z 30006KT 4000 -DZ FEW009 BKN016 BKN024 21/19 Q1007,0,6,0,4000,0,0,0,DZ
2026-03-28 14:55:00,SPECI YPPH 281455Z 29006KT 5000 -DZ FEW010 SCT016 BKN024 21/19 Q1007,0,6,0,5000,0,0,0,DZ
2026-03-28 14:48:00,SPECI YPPH 281448Z 28005KT 9000 -DZ FEW010 SCT015 BKN023 21/19 Q1007,0,5,0,9000,0,0,0,DZ
2026-03-28 14:30:00,SPECI YPPH 281430Z 26006KT 5000 -DZ FEW010 BKN016 BKN024 21/19 Q1007,0,6,0,5000,0,0,0,DZ
2026-03-28 14:23:00,SPECI YPPH 281423Z 26007KT 6000 -DZ FEW010 BKN015 BKN024 21/19 Q1007,0,7,0,6000,0,0,0,DZ
2026-03-28 14:00:00,METAR YPPH 281400Z 29007KT 9999 -DZ FEW010 SCT018 BKN025 21/19 Q1007,0,7,0,10000,0,0,0,DZ
2026-03-28 13:30:00,METAR YPPH 281330Z 29008KT 9999 FEW010 BKN024 21/19 Q1007,0,8,0,10000,0,0,0,
2026-03-28 13:00:00,METAR YPPH 281300Z 29008KT 9999 -DZ FEW009 SCT014 BKN025 21/19 Q1006,0,8,0,10000,0,0,0,DZ
2026-03-28 12:30:00,METAR YPPH 281230Z 31008KT 9999 -DZ FEW009 BKN024 21/19 Q1006,0,8,0,10000,0,0,0,DZ
2026-03-28 12:00:00,METAR YPPH 281200Z 29008KT 9999 -DZ FEW009 SCT012 BKN023 21/19 Q1006,0,8,0,10000,0,0,0,DZ
2026-03-28 11:30:00,METAR YPPH 281130Z 29007KT 9999 -DZ FEW009 SCT014 BKN022 21/19 Q1005,0,7,0,10000,0,0,0,DZ
2026-03-28 11:00:00,SPECI YPPH 281100Z 30007KT 9999 FEW008 BKN022 21/20 Q1005,0,7,0,10000,0,0,0,
2026-03-28 10:30:00,SPECI YPPH 281030Z 32007KT 9999 -DZ FEW008 BKN011 BKN015 21/20 Q1005,0,7,0,10000,0,0,0,DZ
2026-03-28 10:00:00,SPECI YPPH 281000Z 31010KT 9000 -DZ FEW008 SCT010 BKN015 21/19 Q1004,0,10,0,9000,0,0,0,DZ
2026-03-28 09:30:00,SPECI YPPH 280930Z 31008KT 9999 FEW009 BKN010 21/19 Q1004,0,8,0,10000,0,0,0,
2026-03-28 09:00:00,SPECI YPPH 280900Z 29009KT 9999 FEW010 BKN011 21/19 Q1004,0,9,0,10000,0,0,0,
2026-03-28 08:30:00,SPECI YPPH 280830Z 30010KT 9999 FEW009 BKN010 21/19 Q1003,0,10,0,10000,0,0,0,
2026-03-28 08:00:00,SPECI YPPH 280800Z 29013KT 9999 FEW010 BKN011 20/18 Q1003,0,13,0,10000,0,0,0,
2026-03-28 07:30:00,SPECI YPPH 280730Z 29010KT 9999 BKN008 20/18 Q1003,0,10,0,10000,0,0,0,
2026-03-28 07:11:00,SPECI YPPH 280711Z 30008KT 9999 BKN006 BKN010 20/19 Q1003,0,8,0,10000,0,0,0,
2026-03-28 07:00:00,SPECI YPPH 280700Z 31007KT 6000 BKN006 BKN010 20/19 Q1002,0,7,0,6000,0,0,0,
2026-03-28 06:30:00,SPECI YPPH 280630Z 33010KT 5000 -DZ BKN010 20/18 Q1002,0,10,0,5000,0,0,0,DZ
2026-03-28 06:00:00,SPECI YPPH 280600Z 34008KT 9999 BKN013 BKN021 21/18 Q1001,0,8,0,10000,0,0,0,
2026-03-28 05:30:00,SPECI YPPH 280530Z 29005KT 260V330 9999 FEW006 SCT012 BKN017 20/17 Q1001,0,5,0,10000,0,0,0,
2026-03-28 05:27:00,SPECI YPPH 280527Z 28005KT 9999 FEW006 SCT010 BKN017 20/18 Q1001,0,5,0,10000,0,0,0,
2026-03-28 05:00:00,SPECI YPPH 280500Z 28007KT 3000 DZ FEW005 BKN015 BKN028 19/17 Q1002,0,7,0,3000,0,0,0,DZ
2026-03-28 04:46:00,SPECI YPPH 280446Z 29007KT 5000 DZ BKN015 BKN030 20/17 Q1002,0,7,0,5000,0,0,0,DZ
2026-03-28 04:33:00,SPECI YPPH 280433Z 29007KT 9999 BKN015 BKN030 20/17 Q1002,0,7,0,10000,0,0,0,
2026-03-28 04:00:00,METAR YPPH 280400Z 11004KT 9999 FEW016 BKN030 20/16 Q1001,0,4,0,10000,0,0,0,
2026-03-28 03:30:00,METAR YPPH 280330Z 11007KT 9999 FEW018 BKN030 BKN042 20/17 Q1001,0,7,0,10000,0,0,0,
2026-03-28 03:00:00,METAR YPPH 280300Z 11004KT 9999 FEW020 BKN035 BKN045 20/16 Q1001,0,4,0,10000,0,0,0,
2026-03-28 02:43:00,SPECI YPPH 280243Z AUTO 15001KT 9999 -RA OVC032 19/16 Q1002,0,1,0,10000,0,0,0,-RA
2026-03-28 02:30:00,SPECI YPPH 280230Z 12005KT 6000 -RA BKN032 BKN038 18/17 Q1002,0,5,0,6000,0,0,0,-RA
2026-03-28 02:22:00,SPECI YPPH 280222Z 15005KT 090V190 6000 RA BKN030 BKN040 18/16 Q1002,0,5,0,6000,0,0,0,RA
2026-03-28 02:00:00,METAR YPPH 280200Z 19005KT 8000 -DZ BKN040 BKN050 18/16 Q1002,0,5,0,8000,0,0,0,DZ
2026-03-28 01:30:00,METAR YPPH 280130Z 16006KT 9000 DZ BKN040 BKN065 18/16 Q1002,0,6,0,9000,0,0,0,DZ
2026-03-28 01:00:00,METAR YPPH 280100Z 12007KT 100V170 9999 VCSH NSC 17/15 Q1002,0,7,0,10000,0,0,0,"SH,VC"
2026-03-28 00:30:00,METAR YPPH 280030Z 10008KT 9999 -RA NSC 17/15 Q1002,0,8,0,10000,0,0,0,-RA
2026-03-28 00:00:00,METAR YPPH 280000Z 07012G25KT 8000 -RA NSC 17/15 Q1003,0,12,1,8000,0,0,0,-RA
2026-03-27 23:30:00,METAR YPPH 272330Z 07010KT 8000 RA NSC 17/15 Q1004,0,10,0,8000,0,0,0,RA
2026-03-27 23:22:00,SPECI YPPH 272322Z 08009KT 9999 -RA FEW035 BKN050 BKN080 17/15 Q1004,0,9,0,10000,0,0,0,-RA
2026-03-27 23:00:00,SPECI YPPH 272300Z 09005KT 300V110 9000 RA FEW038 BKN045 BKN070 17/15 Q1004,0,5,0,9000,0,0,0,RA
2026-03-27 22:30:00,SPECI YPPH 272230Z 32005KT 280V030 6000 RA BKN040 BKN050 17/15 Q1004,0,5,0,6000,0,0,0,RA
2026-03-27 22:17:00,SPECI YPPH 272217Z 06008KT 7000 RA FEW017 SCT035 BKN070 17/15 Q1004,0,8,0,7000,0,0,0,RA
2026-03-27 22:00:00,METAR YPPH 272200Z AUTO 07009KT 9999 RA BKN049 BKN071 BKN079 17/15 Q1004,0,9,0,10000,0,0,0,RA
2026-03-27 21:30:00,METAR YPPH 272130Z AUTO 06009KT 9999 -RA BKN073 BKN090 OVC110 17/15 Q1004 RERA,0,9,0,10000,0,0,0,"-RA,RA"
2026-03-27 21:00:00,METAR YPPH 272100Z AUTO 06010KT 9999 -RA FEW049 BKN059 BKN073 17/15 Q1004,0,10,0,10000,0,0,0,-RA
2026-03-27 20:30:00,METAR YPPH 272030Z AUTO 07011KT 9999 -RA BKN052 BKN081 17/15 Q1005,0,11,0,10000,0,0,0,-RA
2026-03-27 20:00:00,METAR YPPH 272000Z AUTO 06010KT 9999 -SHRA BKN047 OVC058 OVC069 17/15 Q1005,0,10,0,10000,0,0,0,RA
2026-03-27 19:30:00,METAR YPPH 271930Z AUTO 07008KT 9999 -SHRA BKN049 OVC059 17/15 Q1005 RESHRA,0,8,0,10000,0,0,0,RA
2026-03-27 19:00:00,METAR YPPH 271900Z AUTO 07007KT 040V110 9999 -SHRA BKN042 BKN052 OVC091 18/15 Q1005 RESHRA,0,7,0,10000,0,0,0,RA
2026-03-27 18:30:00,METAR YPPH 271830Z AUTO 08009KT 9999 -SHRA OVC045 18/14 Q1005,0,9,0,10000,0,0,0,RA
2026-03-27 18:00:00,METAR YPPH 271800Z AUTO 09005KT 9999 // FEW047 BKN055 OVC100 18/15 Q1006,0,5,0,10000,0,0,0,
2026-03-27 17:30:00,METAR YPPH 271730Z AUTO 08008KT 9999 // FEW065 OVC098 18/15 Q1006,0,8,0,10000,0,0,0,
2026-03-27 17:00:00,METAR YPPH 271700Z AUTO 08011KT 9999 -SHRA FEW068 BKN087 18/14 Q1006,0,11,0,10000,0,0,0,RA
2026-03-27 16:30:00,METAR YPPH 271630Z AUTO 05009KT 9999 -SHRA OVC080 OVC100 17/15 Q1007,0,9,0,10000,0,0,0,RA
2026-03-27 16:00:00,METAR YPPH 271600Z 06011KT 9999 -RA FEW013 SCT090 OVC110 17/15 Q1007,0,11,0,10000,0,0,0,-RA
2026-03-25 15:00:00,METAR YPPH 251500Z 10012G27KT 060V130 CAVOK 20/12 Q1017,1,0,0,9999,0,0,0,
2026-03-25 14:30:00,METAR YPPH 251430Z 09012G22KT 050V130 CAVOK 20/12 Q1017,1,0,0,9999,0,0,0,
2026-03-25 14:00:00,METAR YPPH 251400Z 09009KT 050V120 CAVOK 20/12 Q1017,1,0,0,9999,0,0,0,
2026-03-25 13:30:00,METAR YPPH 251330Z 12013G30KT CAVOK 21/12 Q1017,1,0,0,9999,0,0,0,
2026-03-25 13:09:00,SPECI YPPH 251309Z 11015G32KT CAVOK 21/12 Q1017,1,0,0,9999,0,0,0,
2026-03-25 13:00:00,METAR YPPH 251300Z 10011KT CAVOK 21/12 Q1017,1,0,0,9999,0,0,0,
2026-03-25 12:30:00,METAR YPPH 251230Z 10012KT 090V150 CAVOK 22/12 Q1016,1,0,0,9999,0,0,0,
2026-03-25 12:00:00,METAR YPPH 251200Z 12014G29KT 090V150 CAVOK 23/12 Q1016,1,0,0,9999,0,0,0,
2026-03-25 11:33:00,SPECI YPPH 251133Z 11016G26KT CAVOK 23/12 Q1015,1,0,0,9999,0,0,0,
2026-03-25 11:00:00,METAR YPPH 251100Z 11013KT 9999 FEW045 24/13 Q1015,0,13,0,10000,0,0,0,
2026-03-25 10:30:00,METAR YPPH 251030Z 12015KT 9999 FEW045 25/13 Q1014,0,15,0,10000,0,0,0,
2026-03-25 10:00:00,METAR YPPH 251000Z 11015KT 9999 FEW045 26/13 Q1014,0,15,0,10000,0,0,0,
2026-03-25 09:34:00,SPECI YPPH 250934Z 12016G26KT 9999 FEW045 27/13 Q1014,0,16,1,10000,0,0,0,
2026-03-25 09:00:00,METAR YPPH 250900Z 12020KT 9999 FEW045 27/13 Q1014,0,20,0,10000,0,0,0,
2026-03-25 08:42:00,SPECI YPPH 250842Z 11018G28KT 9999 FEW045 28/13 Q1014,0,18,1,10000,0,0,0,
2026-03-25 08:30:00,METAR YPPH 250830Z 11020KT 9999 FEW045 28/12 Q1014,0,20,0,10000,0,0,0,
2026-03-25 08:00:00,METAR YPPH 250800Z 12017KT 9999 FEW045 28/13 Q1014,0,17,0,10000,0,0,0,
2026-03-25 07:33:00,SPECI YPPH 250733Z 12020G30KT 9999 FEW044 28/13 Q1014,0,20,1,10000,0,0,0,
2026-03-25 07:03:00,SPECI YPPH 250703Z 12017G27KT 9999 FEW044 27/13 Q1014,0,17,1,10000,0,0,0,
2026-03-25 06:30:00,SPECI YPPH 250630Z 11018G28KT 9999 FEW042 27/14 Q1014,0,18,1,10000,0,0,0,
2026-03-25 06:19:00,SPECI YPPH 250619Z 09020G30KT 9999 FEW040 27/13 Q1014,0,20,1,10000,0,0,0,
2026-03-25 06:00:00,METAR YPPH 250600Z 11021KT 9999 FEW040 27/13 Q1014,0,21,0,10000,0,0,0,
2026-03-25 05:30:00,METAR YPPH 250530Z 10018KT 9999 FEW040 27/14 Q1014,0,18,0,10000,0,0,0,
2026-03-25 05:03:00,SPECI YPPH 250503Z 09018G31KT 9999 FEW038 26/13 Q1015,0,18,1,10000,0,0,0,
2026-03-25 04:30:00,METAR YPPH 250430Z 10018KT 9999 FEW036 26/13 Q1015,0,18,0,10000,0,0,0,
2026-03-25 04:00:00,METAR YPPH 250400Z 11019KT 9999 FEW036 25/14 Q1015,0,19,0,10000,0,0,0,
2026-03-25 03:37:00,SPECI YPPH 250337Z 10019G30KT 9999 FEW034 26/14 Q1016,0,19,1,10000,0,0,0,
2026-03-25 03:30:00,METAR YPPH 250330Z 10020KT 9999 FEW034 25/13 Q1016,0,20,0,10000,0,0,0,
2026-03-25 03:00:00,METAR YPPH 250300Z 11020KT 9999 FEW034 25/13 Q1016,0,20,0,10000,0,0,0,
2026-03-25 02:30:00,METAR YPPH 250230Z AUTO 10023G34KT 9999 // BKN039 23/13 Q1016,0,23,1,10000,0,0,0,
2026-03-25 02:00:00,SPECI YPPH 250200Z 10019G29KT 9999 SCT032 22/13 Q1017,0,19,1,10000,0,0,0,
2026-03-25 01:54:00,SPECI YPPH 250154Z AUTO 11016G29KT 9999 // BKN031 OVC039 21/12 Q1017,0,16,1,10000,0,0,0,
2026-03-25 01:30:00,METAR YPPH 250130Z 12017KT 9999 BKN027 21/12 Q1017,0,17,0,10000,0,0,0,
2026-03-25 01:00:00,METAR YPPH 250100Z 12014KT 9999 BKN027 21/13 Q1017,0,14,0,10000,0,0,0,
2026-03-25 00:35:00,SPECI YPPH 250035Z 12016G27KT 080V140 9999 BKN027 20/12 Q1017,0,16,1,10000,0,0,0,
2026-03-25 00:30:00,METAR YPPH 250030Z 11015KT 9999 BKN026 20/12 Q1016,0,15,0,10000,0,0,0,
2026-03-25 00:00:00,METAR YPPH 250000Z 13011KT 9999 BKN026 19/12 Q1016,0,11,0,10000,0,0,0,
2026-03-24 23:30:00,METAR YPPH 242330Z 13012KT 9999 BKN026 19/12 Q1016,0,12,0,10000,0,0,0,
2026-03-24 23:00:00,METAR YPPH 242300Z 12013KT 9999 BKN026 18/12 Q1016,0,13,0,10000,0,0,0,
2026-03-24 22:30:00,METAR YPPH 242230Z 12011KT 9999 BKN026 18/12 Q1016,0,11,0,10000,0,0,0,
2026-03-24 22:00:00,METAR YPPH 242200Z 12011KT 9999 BKN026 18/12 Q1016,0,11,0,10000,0,0,0,
2026-03-24 21:30:00,METAR YPPH 242130Z AUTO 14012G22KT 100V160 9999 // OVC027 18/12 Q1015,0,12,1,10000,0,0,0,
2026-03-24 21:00:00,METAR YPPH 242100Z AUTO 13011G21KT 090V160 9999 // SCT027 18/11 Q1015,0,11,1,10000,0,0,0,
2026-03-24 20:30:00,METAR YPPH 242030Z AUTO 12011KT 9999 // SCT027 18/11 Q1015,0,11,0,10000,0,0,0,
2026-03-24 20:11:00,SPECI YPPH 242011Z AUTO 12017KT 9999 // BKN027 18/11 Q1015,0,17,0,10000,0,0,0,
2026-03-24 20:00:00,METAR YPPH 242000Z AUTO 12007KT 9999 // OVC027 18/11 Q1015,0,7,0,10000,0,0,0,
2026-03-24 19:30:00,METAR YPPH 241930Z AUTO 12010KT 9999 // BKN027 18/11 Q1015,0,10,0,10000,0,0,0,
2026-03-24 19:00:00,METAR YPPH 241900Z AUTO 12010KT 9999 // BKN027 18/11 Q1015,0,10,0,10000,0,0,0,
2026-03-24 18:30:00,METAR YPPH 241830Z AUTO 12012KT 9999 // BKN027 18/11 Q1015,0,12,0,10000,0,0,0,
2026-03-24 18:00:00,METAR YPPH 241800Z AUTO 11008KT 9999 // SCT029 18/11 Q1015,0,8,0,10000,0,0,0,
2026-03-24 17:30:00,METAR YPPH 241730Z AUTO 11014KT 9999 // FEW029 18/11 Q1015,0,14,0,10000,0,0,0,
2026-03-24 17:00:00,METAR YPPH 241700Z AUTO 11008KT 9999 // NCD 19/12 Q1015,0,8,0,10000,0,0,0,
2026-03-24 16:30:00,METAR YPPH 241630Z AUTO 15008KT 120V200 9999 // NCD 18/12 Q1015,0,8,0,10000,0,0,0,
2026-03-24 16:00:00,METAR YPPH 241600Z 14009KT 9999 SCT025 19/12 Q1015,0,9,0,10000,0,0,0,
2026-03-24 15:30:00,METAR YPPH 241530Z 12010KT 9999 FEW045 19/12 Q1015,0,10,0,10000,0,0,0,
2026-03-24 15:00:00,METAR YPPH 241500Z 12014KT 9999 FEW040 19/11 Q1015,0,14,0,10000,0,0,0,
2026-03-24 14:30:00,METAR YPPH 241430Z 11012KT 9999 FEW040 20/11 Q1015,0,12,0,10000,0,0,0,
2026-03-24 14:00:00,METAR YPPH 241400Z 13013KT 9999 FEW040 20/11 Q1015,0,13,0,10000,0,0,0,
2026-03-24 13:30:00,METAR YPPH 241330Z 13012KT 9999 FEW045 20/11 Q1015,0,12,0,10000,0,0,0,
2026-03-24 13:00:00,METAR YPPH 241300Z 13013KT 9999 FEW045 21/12 Q1015,0,13,0,10000,0,0,0,
2026-03-24 12:30:00,METAR YPPH 241230Z 14011KT CAVOK 21/12 Q1014,1,0,0,9999,0,0,0,
2026-03-24 12:00:00,METAR YPPH 241200Z 16009KT CAVOK 21/12 Q1014,1,0,0,9999,0,0,0,
2026-03-24 11:30:00,METAR YPPH 241130Z 13010KT 9999 FEW045 21/12 Q1014,0,10,0,10000,0,0,0,
2026-03-24 11:00:00,METAR YPPH 241100Z 12008KT 9999 FEW045 22/12 Q1013,0,8,0,10000,0,0,0,
2026-03-24 10:30:00,METAR YPPH 241030Z 12013KT 9999 FEW045 23/13 Q1013,0,13,0,10000,0,0,0,
2026-03-24 10:00:00,METAR YPPH 241000Z 11011KT 9999 FEW045 24/13 Q1013,0,11,0,10000,0,0,0,
2026-03-24 09:30:00,METAR YPPH 240930Z 11016KT 9999 FEW045 25/13 Q1013,0,16,0,10000,0,0,0,
2026-03-24 09:00:00,METAR YPPH 240900Z 13015KT 9999 FEW045 25/13 Q1012,0,15,0,10000,0,0,0,
2026-03-24 08:30:00,METAR YPPH 240830Z 11013KT 9999 FEW045 26/13 Q1012,0,13,0,10000,0,0,0,
2026-03-24 08:00:00,METAR YPPH 240800Z 12013KT 9999 FEW045 26/13 Q1012,0,13,0,10000,0,0,0,
2026-03-24 07:30:00,METAR YPPH 240730Z 10013KT 090V150 9999 FEW046 26/13 Q1012,0,13,0,10000,0,0,0,
2026-03-24 07:00:00,METAR YPPH 240700Z 15014KT 9999 FEW046 26/13 Q1012,0,14,0,10000,0,0,0,
2026-03-24 06:30:00,METAR YPPH 240630Z 14011KT 9999 FEW045 27/13 Q1012,0,11,0,10000,0,0,0,
2026-03-24 06:00:00,METAR YPPH 240600Z 14013KT 9999 FEW045 27/13 Q1012,0,13,0,10000,0,0,0,
2026-03-24 05:30:00,METAR YPPH 240530Z 09008KT 9999 SCT042 26/12 Q1013,0,8,0,10000,0,0,0,
2026-03-24 05:00:00,METAR YPPH 240500Z 15015KT 9999 SCT040 26/13 Q1013,0,15,0,10000,0,0,0,
2026-03-24 04:30:00,METAR YPPH 240430Z 12012KT 9999 BKN040 24/12 Q1014,0,12,0,10000,0,0,0,
2026-03-24 04:00:00,METAR YPPH 240400Z 14012KT 9999 BKN038 24/13 Q1014,0,12,0,10000,0,0,0,
2026-03-24 03:30:00,METAR YPPH 240330Z 11012KT 9999 BKN034 22/12 Q1014,0,12,0,10000,0,0,0,
2026-03-24 03:00:00,METAR YPPH 240300Z 13012KT 9999 BKN032 23/13 Q1015,0,12,0,10000,0,0,0,
2026-03-24 02:30:00,METAR YPPH 240230Z 12011KT 9999 BKN031 21/12 Q1015,0,11,0,10000,0,0,0,
2026-03-24 02:00:00,METAR YPPH 240200Z 12011KT 9999 BKN029 21/12 Q1015,0,11,0,10000,0,0,0,
2026-03-24 01:30:00,METAR YPPH 240130Z 13013KT 9999 BKN025 20/12 Q1016,0,13,0,10000,0,0,0,
2026-03-24 01:00:00,METAR YPPH 240100Z 12014KT 9999 BKN025 20/12 Q1015,0,14,0,10000,0,0,0,
2026-03-24 00:30:00,METAR YPPH 240030Z 12013KT 9999 BKN025 19/12 Q1015,0,13,0,10000,0,0,0,
2026-03-24 00:00:00,METAR YPPH 240000Z 13012KT 9999 BKN025 19/12 Q1015,0,12,0,10000,0,0,0,
2026-03-23 23:30:00,METAR YPPH 232330Z 11008KT 9999 BKN025 18/12 Q1015,0,8,0,10000,0,0,0,
2026-03-23 23:00:00,METAR YPPH 232300Z 12010KT 9999 BKN025 18/11 Q1015,0,10,0,10000,0,0,0,
2026-03-23 22:30:00,METAR YPPH 232230Z 12010KT 9999 BKN027 18/11 Q1015,0,10,0,10000,0,0,0,
2026-03-23 22:00:00,METAR YPPH 232200Z 10009KT 9999 BKN027 18/11 Q1015,0,9,0,10000,0,0,0,
2026-03-23 21:30:00,METAR YPPH 232130Z AUTO 11008KT 9999 // BKN029 17/11 Q1015,0,8,0,10000,0,0,0,
2026-03-23 21:00:00,METAR YPPH 232100Z AUTO 11011KT 9999 // BKN027 17/11 Q1015,0,11,0,10000,0,0,0,
2026-03-23 20:30:00,METAR YPPH 232030Z AUTO 09014KT 9999 // OVC027 18/11 Q1015,0,14,0,10000,0,0,0,
2026-03-23 20:00:00,METAR YPPH 232000Z AUTO 11013KT 9999 // OVC027 18/11 Q1015,0,13,0,10000,0,0,0,
2026-03-23 19:30:00,METAR YPPH 231930Z AUTO 10013KT 9999 // OVC027 18/11 Q1015,0,13,0,10000,0,0,0,
2026-03-23 19:00:00,METAR YPPH 231900Z AUTO 10012KT 9999 // OVC027 18/12 Q1015,0,12,0,10000,0,0,0,
2026-03-23 18:30:00,METAR YPPH 231830Z AUTO 11009KT 9999 // OVC027 17/12 Q1015,0,9,0,10000,0,0,0,
2026-03-23 18:00:00,METAR YPPH 231800Z AUTO 12007KT 100V160 9999 // SCT027 17/12 Q1015,0,7,0,10000,0,0,0,
2026-03-23 17:30:00,METAR YPPH 231730Z AUTO 12011KT 9999 // SCT027 SCT033 17/12 Q1015,0,11,0,10000,0,0,0,
2026-03-23 17:00:00,METAR YPPH 231700Z AUTO 13010KT 9999 // BKN027 18/12 Q1015,0,10,0,10000,0,0,0,
2026-03-23 16:30:00,METAR YPPH 231630Z AUTO 11009KT 9999 // FEW027 18/12 Q1015,0,9,0,10000,0,0,0,
2026-03-23 16:00:00,METAR YPPH 231600Z 12020KT 9999 BKN041 18/12 Q1016,0,20,0,10000,0,0,0,
2026-03-23 15:30:00,METAR YPPH 231530Z 10014KT 9999 BKN041 19/12 Q1016,0,14,0,10000,0,0,0,
2026-03-23 15:00:00,METAR YPPH 231500Z 11019KT 9999 BKN039 19/11 Q1016,0,19,0,10000,0,0,0,
2026-03-23 14:30:00,METAR YPPH 231430Z 10019KT 9999 BKN048 20/11 Q1016,0,19,0,10000,0,0,0,
2026-03-23 14:00:00,METAR YPPH 231400Z 11017KT 9999 BKN049 21/11 Q1016,0,17,0,10000,0,0,0,
2026-03-23 13:30:00,METAR YPPH 231330Z 10016KT 9999 BKN049 21/11 Q1016,0,16,0,10000,0,0,0,
2026-03-23 13:00:00,METAR YPPH 231300Z 11015KT 9999 BKN049 22/11 Q1016,0,15,0,10000,0,0,0,
2026-03-23 12:30:00,METAR YPPH 231230Z 10015KT 9999 BKN049 22/11 Q1016,0,15,0,10000,0,0,0,
2026-03-23 12:00:00,METAR YPPH 231200Z 11013KT CAVOK 22/11 Q1016,1,0,0,9999,0,0,0,
2026-03-23 11:30:00,METAR YPPH 231130Z 11013KT CAVOK 23/10 Q1015,1,0,0,9999,0,0,0,
2026-03-23 11:00:00,METAR YPPH 231100Z 11013KT CAVOK 23/11 Q1015,1,0,0,9999,0,0,0,
2026-03-23 10:30:00,METAR YPPH 231030Z 10015KT CAVOK 23/10 Q1015,1,0,0,9999,0,0,0,
2026-03-23 10:00:00,METAR YPPH 231000Z 09014KT CAVOK 23/10 Q1015,1,0,0,9999,0,0,0,
2026-03-23 09:30:00,METAR YPPH 230930Z 10014KT CAVOK 24/10 Q1015,1,0,0,9999,0,0,0,
2026-03-23 09:00:00,METAR YPPH 230900Z 10016KT 9999 SCT049 25/10 Q1014,0,16,0,10000,0,0,0,
2026-03-23 08:30:00,METAR YPPH 230830Z 11014KT CAVOK 25/10 Q1014,1,0,0,9999,0,0,0,
2026-03-23 08:00:00,METAR YPPH 230800Z 11014KT CAVOK 26/10 Q1014,1,0,0,9999,0,0,0,
2026-03-23 07:30:00,METAR YPPH 230730Z 12016KT CAVOK 25/11 Q1014,1,0,0,9999,0,0,0,
2026-03-23 07:00:00,METAR YPPH 230700Z AUTO 10014KT 9999 // OVC049 25/11 Q1015,0,14,0,10000,0,0,0,
2026-03-23 06:30:00,METAR YPPH 230630Z AUTO 11015KT 9999 // BKN047 25/11 Q1015,0,15,0,10000,0,0,0,
2026-03-23 06:00:00,METAR YPPH 230600Z 11016KT 9999 BKN045 25/11 Q1015,0,16,0,10000,0,0,0,
2026-03-23 05:43:00,SPECI YPPH 230543Z AUTO 11017G27KT 9999 // OVC045 25/11 Q1015,0,17,1,10000,0,0,0,
2026-03-23 05:30:00,METAR YPPH 230530Z 11017KT 9999 BKN045 24/11 Q1015,0,17,0,10000,0,0,0,
2026-03-23 05:00:00,METAR YPPH 230500Z 11015KT 9999 BKN045 24/11 Q1016,0,15,0,10000,0,0,0,
2026-03-23 04:30:00,METAR YPPH 230430Z 10016KT 9999 BKN045 24/11 Q1016,0,16,0,10000,0,0,0,
2026-03-23 04:00:00,METAR YPPH 230400Z 13015KT 9999 BKN045 24/11 Q1016,0,15,0,10000,0,0,0,
2026-03-23 03:30:00,METAR YPPH 230330Z 13018KT 9999 BKN042 24/11 Q1016,0,18,0,10000,0,0,0,
2026-03-23 03:00:00,METAR YPPH 230300Z 11015KT 9999 BKN040 24/11 Q1017,0,15,0,10000,0,0,0,
2026-03-23 02:30:00,METAR YPPH 230230Z 10019KT 9999 BKN040 23/11 Q1017,0,19,0,10000,0,0,0,
2026-03-23 02:00:00,METAR YPPH 230200Z 13019KT 9999 BKN040 22/11 Q1017,0,19,0,10000,0,0,0,
2026-03-23 01:30:00,SPECI YPPH 230130Z 12015G27KT 9999 BKN040 22/11 Q1017,0,15,1,10000,0,0,0,
2026-03-23 01:00:00,SPECI YPPH 230100Z 14016G27KT 9999 BKN035 22/12 Q1017,0,16,1,10000,0,0,0,
2026-03-23 00:39:00,SPECI YPPH 230039Z 11015G25KT 9999 BKN035 20/11 Q1017,0,15,1,10000,0,0,0,
2026-03-23 00:30:00,METAR YPPH 230030Z 12016KT 9999 BKN035 20/11 Q1017,0,16,0,10000,0,0,0,
2026-03-23 00:00:00,METAR YPPH 230000Z 13016KT 9999 BKN030 20/11 Q1017,0,16,0,10000,0,0,0,
2026-03-22 23:30:00,METAR YPPH 222330Z 12014KT 9999 BKN030 19/12 Q1017,0,14,0,10000,0,0,0,
2026-03-22 23:00:00,METAR YPPH 222300Z 12014KT 9999 BKN027 19/12 Q1017,0,14,0,10000,0,0,0,
2026-03-22 22:30:00,METAR YPPH 222230Z 13015KT 9999 BKN027 19/13 Q1016,0,15,0,10000,0,0,0,
2026-03-22 22:00:00,METAR YPPH 222200Z 13012KT 9999 BKN027 19/13 Q1016,0,12,0,10000,0,0,0,
2026-03-22 21:30:00,METAR YPPH 222130Z AUTO 13015KT 9999 // OVC029 19/12 Q1016,0,15,0,10000,0,0,0,
2026-03-22 21:20:00,SPECI YPPH 222120Z AUTO 13016G26KT 9999 // OVC031 20/12 Q1015,0,16,1,10000,0,0,0,
2026-03-22 21:00:00,METAR YPPH 222100Z AUTO 13010KT 9999 // OVC031 20/12 Q1015,0,10,0,10000,0,0,0,
2026-03-22 20:30:00,METAR YPPH 222030Z AUTO 12015KT 9999 // BKN031 19/12 Q1015,0,15,0,10000,0,0,0,
2026-03-22 20:00:00,METAR YPPH 222000Z AUTO 12014KT 9999 // FEW031 19/12 Q1015,0,14,0,10000,0,0,0,
2026-03-22 19:30:00,METAR YPPH 221930Z AUTO 12015KT 9999 // NCD 19/12 Q1015,0,15,0,10000,0,0,0,
2026-03-22 19:00:00,METAR YPPH 221900Z AUTO 12015KT 9999 // NCD 19/12 Q1015,0,15,0,10000,0,0,0,
2026-03-22 18:30:00,METAR YPPH 221830Z AUTO 13012KT 9999 // NCD 19/12 Q1015,0,12,0,10000,0,0,0,
2026-03-22 18:00:00,METAR YPPH 221800Z AUTO 13013KT 9999 // NCD 19/12 Q1015,0,13,0,10000,0,0,0,
2026-03-22 17:30:00,METAR YPPH 221730Z AUTO 13010KT 9999 // NCD 19/12 Q1015,0,10,0,10000,0,0,0,
2026-03-22 17:00:00,METAR YPPH 221700Z AUTO 13011KT 9999 // NCD 19/12 Q1015,0,11,0,10000,0,0,0,
2026-03-22 16:30:00,METAR YPPH 221630Z AUTO 12011KT 9999 // NCD 19/11 Q1015,0,11,0,10000,0,0,0,
2026-03-22 16:00:00,METAR YPPH 221600Z 12015KT CAVOK 20/11 Q1015,1,0,0,9999,0,0,0,
2026-03-22 15:30:00,METAR YPPH 221530Z 12017KT CAVOK 21/11 Q1015,1,0,0,9999,0,0,0,
2026-03-22 15:13:00,SPECI YPPH 221513Z 11015G26KT CAVOK 21/11 Q1015,1,0,0,9999,0,0,0,
2026-03-22 15:00:00,METAR YPPH 221500Z 13014KT CAVOK 21/11 Q1015,1,0,0,9999,0,0,0,
2026-03-22 14:30:00,METAR YPPH 221430Z 13013KT CAVOK 22/12 Q1014,1,0,0,9999,0,0,0,
2026-03-22 14:00:00,METAR YPPH 221400Z 13015KT CAVOK 22/12 Q1014,1,0,0,9999,0,0,0,
2026-03-22 13:30:00,METAR YPPH 221330Z 13014KT CAVOK 22/12 Q1014,1,0,0,9999,0,0,0,
2026-03-22 13:00:00,METAR YPPH 221300Z 15015KT CAVOK 23/12 Q1014,1,0,0,9999,0,0,0,
2026-03-22 12:30:00,METAR YPPH 221230Z 13017KT CAVOK 24/13 Q1013,1,0,0,9999,0,0,0,
2026-03-22 12:00:00,METAR YPPH 221200Z 15013KT CAVOK 25/13 Q1013,1,0,0,9999,0,0,0,
2026-03-22 11:30:00,METAR YPPH 221130Z 15014KT CAVOK 26/13 Q1012,1,0,0,9999,0,0,0,
2026-03-22 11:00:00,METAR YPPH 221100Z 16016KT CAVOK 27/13 Q1011,1,0,0,9999,0,0,0,
2026-03-22 10:30:00,METAR YPPH 221030Z 11010KT CAVOK 27/13 Q1011,1,0,0,9999,0,0,0,
2026-03-22 10:00:00,METAR YPPH 221000Z 11012KT CAVOK 28/13 Q1011,1,0,0,9999,0,0,0,
2026-03-22 09:30:00,METAR YPPH 220930Z 11011KT CAVOK 29/14 Q1011,1,0,0,9999,0,0,0,
2026-03-22 09:00:00,METAR YPPH 220900Z 11007KT 080V140 CAVOK 30/14 Q1010,1,0,0,9999,0,0,0,
2026-03-22 08:30:00,METAR YPPH 220830Z 14006KT 110V190 CAVOK 31/13 Q1010,1,0,0,9999,0,0,0,
2026-03-22 08:00:00,METAR YPPH 220800Z 16008KT 100V230 CAVOK 32/14 Q1010,1,0,0,9999,0,0,0,
2026-03-22 07:30:00,METAR YPPH 220730Z 17007KT 130V200 CAVOK 31/14 Q1010,1,0,0,9999,0,0,0,
2026-03-22 07:00:00,METAR YPPH 220700Z 23005KT CAVOK 31/14 Q1010,1,0,0,9999,0,0,0,
2026-03-22 06:30:00,METAR YPPH 220630Z 23010KT CAVOK 31/13 Q1010,1,0,0,9999,0,0,0,
2026-03-22 06:00:00,METAR YPPH 220600Z 20006KT 140V240 CAVOK 30/14 Q1011,1,0,0,9999,0,0,0,
2026-03-22 05:30:00,METAR YPPH 220530Z 20007KT CAVOK 30/14 Q1011,1,0,0,9999,0,0,0,
2026-03-22 05:00:00,METAR YPPH 220500Z 27004KT CAVOK 29/15 Q1012,1,0,0,9999,0,0,0,
2026-03-22 04:30:00,METAR YPPH 220430Z VRB03KT 9999 FEW040 SCT150 28/15 Q1012,0,3,0,10000,0,0,0,
2026-03-22 04:00:00,METAR YPPH 220400Z 13007KT 100V160 9999 FEW035 SCT150 28/15 Q1012,0,7,0,10000,0,0,0,
2026-03-22 03:30:00,METAR YPPH 220330Z 16009KT 9999 FEW030 SCT150 26/15 Q1013,0,9,0,10000,0,0,0,
2026-03-22 03:00:00,METAR YPPH 220300Z 17008KT 9999 SCT030 25/15 Q1013,0,8,0,10000,0,0,0,
2026-03-22 02:30:00,METAR YPPH 220230Z 13010KT 9999 SCT030 25/16 Q1014,0,10,0,10000,0,0,0,
2026-03-22 02:00:00,METAR YPPH 220200Z 17012KT 9999 BKN027 23/15 Q1014,0,12,0,10000,0,0,0,
2026-03-22 01:30:00,METAR YPPH 220130Z 17013KT 9999 BKN025 22/15 Q1014,0,13,0,10000,0,0,0,
2026-03-22 01:00:00,METAR YPPH 220100Z 17010KT 9999 BKN025 22/15 Q1014,0,10,0,10000,0,0,0,
2026-03-22 00:30:00,METAR YPPH 220030Z 15009KT 9999 BKN026 23/15 Q1013,0,9,0,10000,0,0,0,
2026-03-22 00:00:00,METAR YPPH 220000Z 16010KT 9999 BKN026 22/15 Q1014,0,10,0,10000,0,0,0,
2026-03-21 23:30:00,METAR YPPH 212330Z 18009KT 9999 BKN027 21/15 Q1013,0,9,0,10000,0,0,0,
2026-03-21 23:00:00,METAR YPPH 212300Z 18006KT 9999 BKN025 21/16 Q1013,0,6,0,10000,0,0,0,
2026-03-21 22:30:00,METAR YPPH 212230Z 18008KT 9999 BKN024 21/16 Q1013,0,8,0,10000,0,0,0,
2026-03-21 22:00:00,METAR YPPH 212200Z 18007KT 9999 BKN024 20/16 Q1012,0,7,0,10000,0,0,0,
2026-03-21 21:30:00,METAR YPPH 212130Z AUTO 17007KT 9999 // OVC022 19/17 Q1012,0,7,0,10000,0,0,0,
2026-03-21 21:00:00,METAR YPPH 212100Z AUTO 17006KT 9999 // OVC022 18/17 Q1012,0,6,0,10000,0,0,0,
2026-03-21 20:30:00,METAR YPPH 212030Z AUTO 10004KT 9999 // BKN020 18/16 Q1011,0,4,0,10000,0,0,0,
2026-03-21 20:00:00,METAR YPPH 212000Z AUTO 10005KT 9999 // FEW020 18/17 Q1011,0,5,0,10000,0,0,0,
2026-03-21 19:30:00,METAR YPPH 211930Z AUTO 09007KT 9999 // FEW019 19/18 Q1011,0,7,0,10000,0,0,0,
2026-03-21 19:08:00,SPECI YPPH 211908Z AUTO 08005KT 9999 // FEW013 SCT019 19/17 Q1011,0,5,0,10000,0,0,0,
2026-03-21 19:00:00,METAR YPPH 211900Z AUTO 08005KT 9999 // FEW011 SCT017 BKN022 19/17 Q1011,0,5,0,10000,0,0,0,
2026-03-21 18:30:00,METAR YPPH 211830Z AUTO 09005KT 9999 // BKN011 OVC022 19/18 Q1011,0,5,0,10000,0,0,0,
2026-03-21 18:00:00,METAR YPPH 211800Z AUTO 05004KT 9999 // OVC011 19/17 Q1011,0,4,0,10000,0,0,0,
2026-03-21 17:30:00,METAR YPPH 211730Z AUTO 04003KT 9999 // BKN011 20/18 Q1011,0,3,0,10000,0,0,0,
2026-03-21 17:00:00,METAR YPPH 211700Z AUTO 00000KT 9999 // BKN011 20/18 Q1011,0,0,0,10000,0,0,0,
2026-03-21 16:34:00,SPECI YPPH 211634Z AUTO 08001KT 9999 // BKN011 20/18 Q1011,0,1,0,10000,0,0,0,
2026-03-21 16:22:00,SPECI YPPH 211622Z AUTO 35005KT 9999 // FEW011 21/18 Q1011,0,5,0,10000,0,0,0,
2026-03-21 16:00:00,SPECI YPPH 211600Z 00000KT 9999 SCT013 21/18 Q1011,0,0,0,10000,0,0,0,
2026-03-21 15:30:00,SPECI YPPH 211530Z 23005KT 9999 BKN013 22/19 Q1011,0,5,0,10000,0,0,0,
2026-03-21 15:00:00,SPECI YPPH 211500Z 21006KT 9999 BKN013 22/19 Q1012,0,6,0,10000,0,0,0,
2026-03-21 14:30:00,SPECI YPPH 211430Z 24007KT 9999 BKN013 22/19 Q1011,0,7,0,10000,0,0,0,
2026-03-21 14:00:00,SPECI YPPH 211400Z 25006KT 9999 BKN011 22/19 Q1011,0,6,0,10000,0,0,0,
2026-03-21 13:30:00,SPECI YPPH 211330Z 27005KT 9999 BKN011 22/19 Q1011,0,5,0,10000,0,0,0,
2026-03-21 13:00:00,SPECI YPPH 211300Z 29004KT 9999 BKN011 21/19 Q1011,0,4,0,10000,0,0,0,
2026-03-21 12:47:00,SPECI YPPH 211247Z AUTO 28005KT 9999 // BKN011 21/18 Q1012,0,5,0,10000,0,0,0,
2026-03-21 12:30:00,METAR YPPH 211230Z 29005KT 9999 FEW012 22/19 Q1012,0,5,0,10000,0,0,0,
2026-03-21 12:00:00,METAR YPPH 211200Z 29006KT CAVOK 22/18 Q1011,1,0,0,9999,0,0,0,
2026-03-21 11:30:00,METAR YPPH 211130Z 28006KT CAVOK 22/19 Q1011,1,0,0,9999,0,0,0,
2026-03-21 11:00:00,METAR YPPH 211100Z 25008KT CAVOK 23/19 Q1011,1,0,0,9999,0,0,0,
2026-03-21 10:30:00,METAR YPPH 211030Z 25009KT 9999 FEW016 24/18 Q1011,0,9,0,10000,0,0,0,
2026-03-21 10:00:00,METAR YPPH 211000Z 26008KT CAVOK 25/19 Q1010,1,0,0,9999,0,0,0,
2026-03-21 09:30:00,METAR YPPH 210930Z AUTO 24010KT 9999 // NCD 27/19 Q1010,0,10,0,10000,0,0,0,
2026-03-21 09:00:00,METAR YPPH 210900Z 25008KT CAVOK 28/18 Q1010,1,0,0,9999,0,0,0,
2026-03-21 08:30:00,METAR YPPH 210830Z 24007KT CAVOK 28/18 Q1010,1,0,0,9999,0,0,0,
2026-03-21 08:00:00,METAR YPPH 210800Z 26009KT CAVOK 29/18 Q1010,1,0,0,9999,0,0,0,
2026-03-21 07:30:00,METAR YPPH 210730Z 29010KT 250V310 CAVOK 30/17 Q1010,1,0,0,9999,0,0,0,
2026-03-21 07:00:00,METAR YPPH 210700Z 28010KT CAVOK 31/17 Q1010,1,0,0,9999,0,0,0,
2026-03-21 06:30:00,METAR YPPH 210630Z 28009KT CAVOK 33/17 Q1009,1,0,0,9999,0,0,0,
2026-03-21 06:00:00,METAR YPPH 210600Z 28009KT CAVOK 32/17 Q1009,1,0,0,9999,0,0,0,
2026-03-21 05:30:00,METAR YPPH 210530Z 26010KT CAVOK 34/16 Q1010,1,0,0,9999,0,0,0,
2026-03-21 05:00:00,METAR YPPH 210500Z 31010KT 260V320 CAVOK 33/15 Q1010,1,0,0,9999,0,0,0,
2026-03-21 04:30:00,METAR YPPH 210430Z AUTO 26009KT 220V290 9999 // NCD 33/18 Q1010,0,9,0,10000,0,0,0,
2026-03-21 04:00:00,METAR YPPH 210400Z 26010KT CAVOK 32/17 Q1011,1,0,0,9999,0,0,0,
2026-03-21 03:30:00,METAR YPPH 210330Z 27008KT 240V300 CAVOK 32/14 Q1011,1,0,0,9999,0,0,0,
2026-03-21 03:00:00,METAR YPPH 210300Z 31009KT CAVOK 32/14 Q1012,1,0,0,9999,0,0,0,
2026-03-21 02:30:00,METAR YPPH 210230Z 33005KT 280V350 CAVOK 32/11 Q1012,1,0,0,9999,0,0,0,
2026-03-21 02:00:00,METAR YPPH 210200Z 36007KT CAVOK 30/13 Q1012,1,0,0,9999,0,0,0,
2026-03-21 01:30:00,METAR YPPH 210130Z 36006KT CAVOK 27/14 Q1012,1,0,0,9999,0,0,0,
2026-03-21 01:00:00,METAR YPPH 210100Z 35004KT CAVOK 25/15 Q1012,1,0,0,9999,0,0,0,
2026-03-21 00:30:00,METAR YPPH 210030Z 35005KT 310V030 CAVOK 23/15 Q1012,1,0,0,9999,0,0,0,
2026-03-21 00:00:00,METAR YPPH 210000Z 01004KT CAVOK 22/17 Q1012,1,0,0,9999,0,0,0,
2026-03-20 23:30:00,METAR YPPH 202330Z 33005KT 310V010 CAVOK 20/15 Q1012,1,0,0,9999,0,0,0,
2026-03-20 23:00:00,METAR YPPH 202300Z 01006KT CAVOK 18/14 Q1012,1,0,0,9999,0,0,0,
2026-03-20 22:30:00,METAR YPPH 202230Z 34006KT CAVOK 17/13 Q1012,1,0,0,9999,0,0,0,
2026-03-20 22:00:00,METAR YPPH 202200Z AUTO 35006KT 9999 // NCD 17/12 Q1011,0,6,0,10000,0,0,0,
2026-03-20 21:30:00,METAR YPPH 202130Z AUTO 36008KT 9999 // NCD 18/12 Q1012,0,8,0,10000,0,0,0,
2026-03-20 21:00:00,METAR YPPH 202100Z AUTO 36008KT 9999 // NCD 18/13 Q1011,0,8,0,10000,0,0,0,
2026-03-20 20:30:00,METAR YPPH 202030Z AUTO 01007KT 9999 // NCD 18/13 Q1011,0,7,0,10000,0,0,0,
2026-03-20 20:00:00,METAR YPPH 202000Z AUTO 03005KT 9999 // NCD 18/13 Q1011,0,5,0,10000,0,0,0,
2026-03-20 19:30:00,METAR YPPH 201930Z AUTO 01004KT 9999 // NCD 18/13 Q1011,0,4,0,10000,0,0,0,
2026-03-20 19:00:00,METAR YPPH 201900Z AUTO 04005KT 9999 // NCD 19/14 Q1011,0,5,0,10000,0,0,0,
2026-03-20 18:30:00,METAR YPPH 201830Z AUTO 06004KT 9999 // NCD 18/13 Q1011,0,4,0,10000,0,0,0,
2026-03-20 18:00:00,METAR YPPH 201800Z AUTO 01005KT 9999 // NCD 19/12 Q1011,0,5,0,10000,0,0,0,
2026-03-20 17:30:00,METAR YPPH 201730Z AUTO 03005KT 9999 // NCD 19/12 Q1011,0,5,0,10000,0,0,0,
2026-03-20 17:00:00,METAR YPPH 201700Z AUTO 03003KT 9999 // NCD 19/12 Q1011,0,3,0,10000,0,0,0,
2026-03-20 16:30:00,METAR YPPH 201630Z AUTO 34004KT 9999 // NCD 20/13 Q1011,0,4,0,10000,0,0,0,
2026-03-20 16:00:00,METAR YPPH 201600Z 33004KT CAVOK 20/14 Q1011,1,0,0,9999,0,0,0,
2026-03-20 15:30:00,METAR YPPH 201530Z 32005KT CAVOK 21/13 Q1011,1,0,0,9999,0,0,0,
2026-03-20 15:00:00,METAR YPPH 201500Z 36004KT CAVOK 22/13 Q1011,1,0,0,9999,0,0,0,
2026-03-20 14:30:00,METAR YPPH 201430Z 04006KT CAVOK 22/14 Q1011,1,0,0,9999,0,0,0,
2026-03-20 14:00:00,METAR YPPH 201400Z 36003KT CAVOK 22/16 Q1011,1,0,0,9999,0,0,0,
2026-03-20 13:30:00,METAR YPPH 201330Z 00000KT CAVOK 23/17 Q1011,1,0,0,9999,0,0,0,
2026-03-20 13:00:00,METAR YPPH 201300Z 32003KT CAVOK 25/16 Q1011,1,0,0,9999,0,0,0,
2026-03-20 12:30:00,METAR YPPH 201230Z 25004KT CAVOK 26/16 Q1011,1,0,0,9999,0,0,0,
2026-03-20 12:00:00,METAR YPPH 201200Z 00000KT CAVOK 27/15 Q1011,1,0,0,9999,0,0,0,
2026-03-20 11:30:00,METAR YPPH 201130Z 23005KT CAVOK 29/16 Q1011,1,0,0,9999,0,0,0,
2026-03-20 11:00:00,METAR YPPH 201100Z 27005KT CAVOK 29/14 Q1011,1,0,0,9999,0,0,0,
2026-03-20 10:30:00,METAR YPPH 201030Z 25007KT CAVOK 31/14 Q1011,1,0,0,9999,0,0,0,
2026-03-20 10:00:00,METAR YPPH 201000Z 21007KT CAVOK 32/11 Q1011,1,0,0,9999,0,0,0,
2026-03-20 09:30:00,METAR YPPH 200930Z 21010KT CAVOK 33/11 Q1011,1,0,0,9999,0,0,0,
2026-03-20 09:00:00,METAR YPPH 200900Z 22010KT CAVOK 34/12 Q1010,1,0,0,9999,0,0,0,
2026-03-20 08:30:00,METAR YPPH 200830Z 24008KT CAVOK 34/12 Q1011,1,0,0,9999,0,0,0,
2026-03-20 08:00:00,METAR YPPH 200800Z 24010KT CAVOK 34/13 Q1011,1,0,0,9999,0,0,0,
2026-03-20 07:30:00,METAR YPPH 200730Z 24010KT CAVOK 34/13 Q1011,1,0,0,9999,0,0,0,
2026-03-20 07:00:00,METAR YPPH 200700Z 24011KT CAVOK 34/14 Q1011,1,0,0,9999,0,0,0,
2026-03-20 06:30:00,METAR YPPH 200630Z 25012KT CAVOK 35/15 Q1011,1,0,0,9999,0,0,0,
2026-03-20 06:00:00,METAR YPPH 200600Z 27010KT CAVOK 36/14 Q1011,1,0,0,9999,0,0,0,
2026-03-20 05:30:00,METAR YPPH 200530Z 25010KT CAVOK 36/16 Q1011,1,0,0,9999,0,0,0,
2026-03-20 05:00:00,METAR YPPH 200500Z 29007KT 220V320 CAVOK 37/12 Q1011,1,0,0,9999,0,0,0,
2026-03-20 04:30:00,METAR YPPH 200430Z AUTO 29005KT 9999 // NCD 36/14 Q1011,0,5,0,10000,0,0,0,
2026-03-20 04:00:00,METAR YPPH 200400Z AUTO 35005KT 310V060 9999 // NCD 34/14 Q1012,0,5,0,10000,0,0,0,
2026-03-20 03:30:00,METAR YPPH 200330Z 36004KT 310V040 CAVOK 34/14 Q1012,1,0,0,9999,0,0,0,
2026-03-20 03:00:00,METAR YPPH 200300Z 29004KT CAVOK 33/15 Q1013,1,0,0,9999,0,0,0,
2026-03-20 02:30:00,METAR YPPH 200230Z 30005KT 280V340 CAVOK 31/14 Q1013,1,0,0,9999,0,0,0,
2026-03-20 02:00:00,METAR YPPH 200200Z 29003KT CAVOK 30/17 Q1013,1,0,0,9999,0,0,0,
2026-03-20 01:30:00,METAR YPPH 200130Z 34003KT CAVOK 28/16 Q1013,1,0,0,9999,0,0,0,
2026-03-20 01:00:00,METAR YPPH 200100Z 36002KT CAVOK 28/15 Q1013,1,0,0,9999,0,0,0,
2026-03-20 00:30:00,METAR YPPH 200030Z 03004KT CAVOK 26/15 Q1013,1,0,0,9999,0,0,0,
2026-03-20 00:00:00,METAR YPPH 200000Z 00000KT CAVOK 25/18 Q1013,1,0,0,9999,0,0,0,
2026-03-19 23:30:00,METAR YPPH 192330Z 32005KT CAVOK 23/17 Q1013,1,0,0,9999,0,0,0,
2026-03-19 23:00:00,METAR YPPH 192300Z 33003KT CAVOK 21/16 Q1013,1,0,0,9999,0,0,0,
2026-03-19 22:30:00,METAR YPPH 192230Z 33003KT CAVOK 20/14 Q1012,1,0,0,9999,0,0,0,
2026-03-19 22:00:00,METAR YPPH 192200Z AUTO 04005KT 9999 // NCD 21/15 Q1012,0,5,0,10000,0,0,0,
2026-03-19 21:30:00,METAR YPPH 192130Z AUTO 04005KT 9999 // NCD 21/14 Q1012,0,5,0,10000,0,0,0,
2026-03-19 21:00:00,METAR YPPH 192100Z AUTO 04005KT 9999 // NCD 20/13 Q1012,0,5,0,10000,0,0,0,
2026-03-19 20:30:00,METAR YPPH 192030Z AUTO 04004KT 9999 // NCD 21/14 Q1012,0,4,0,10000,0,0,0,
2026-03-19 20:00:00,METAR YPPH 192000Z AUTO 03005KT 9999 // NCD 22/15 Q1012,0,5,0,10000,0,0,0,
2026-03-19 19:30:00,METAR YPPH 191930Z AUTO 30004KT 9999 // NCD 22/15 Q1012,0,4,0,10000,0,0,0,
2026-03-19 19:00:00,METAR YPPH 191900Z AUTO 11005KT 9999 // NCD 21/16 Q1012,0,5,0,10000,0,0,0,
2026-03-19 18:30:00,METAR YPPH 191830Z AUTO 00000KT 9999 // NCD 21/15 Q1012,0,0,0,10000,0,0,0,
2026-03-19 18:00:00,METAR YPPH 191800Z AUTO 26004KT 9999 // NCD 21/16 Q1012,0,4,0,10000,0,0,0,
2026-03-19 17:30:00,METAR YPPH 191730Z AUTO 00000KT 9999 // NCD 22/15 Q1012,0,0,0,10000,0,0,0,
2026-03-19 17:00:00,METAR YPPH 191700Z AUTO 00000KT 9999 // NCD 22/15 Q1012,0,0,0,10000,0,0,0,
2026-03-19 16:30:00,METAR YPPH 191630Z AUTO 23004KT 9999 // NCD 23/15 Q1012,0,4,0,10000,0,0,0,
2026-03-19 16:00:00,METAR YPPH 191600Z 27004KT CAVOK 23/15 Q1012,1,0,0,9999,0,0,0,
2026-03-19 15:30:00,METAR YPPH 191530Z 24005KT CAVOK 24/15 Q1012,1,0,0,9999,0,0,0,
2026-03-19 15:00:00,METAR YPPH 191500Z 28004KT CAVOK 24/14 Q1012,1,0,0,9999,0,0,0,
2026-03-19 14:30:00,METAR YPPH 191430Z 22004KT CAVOK 24/14 Q1012,1,0,0,9999,0,0,0,
2026-03-19 14:00:00,METAR YPPH 191400Z 18005KT CAVOK 24/14 Q1012,1,0,0,9999,0,0,0,
2026-03-19 13:30:00,METAR YPPH 191330Z 21005KT CAVOK 25/15 Q1012,1,0,0,9999,0,0,0,
2026-03-19 13:00:00,METAR YPPH 191300Z 21005KT CAVOK 25/14 Q1012,1,0,0,9999,0,0,0,
2026-03-19 12:30:00,METAR YPPH 191230Z 27004KT CAVOK 25/14 Q1012,1,0,0,9999,0,0,0,
2026-03-19 12:00:00,METAR YPPH 191200Z 30003KT CAVOK 26/13 Q1012,1,0,0,9999,0,0,0,
2026-03-19 11:30:00,METAR YPPH 191130Z 33003KT CAVOK 27/13 Q1012,1,0,0,9999,0,0,0,
2026-03-19 11:00:00,METAR YPPH 191100Z 27005KT CAVOK 29/13 Q1011,1,0,0,9999,0,0,0,
2026-03-19 10:30:00,METAR YPPH 191030Z 26005KT CAVOK 31/12 Q1011,1,0,0,9999,0,0,0,
2026-03-19 10:00:00,METAR YPPH 191000Z 29005KT CAVOK 33/13 Q1011,1,0,0,9999,0,0,0,
2026-03-19 09:30:00,METAR YPPH 190930Z 27006KT CAVOK 34/12 Q1011,1,0,0,9999,0,0,0,
2026-03-19 09:00:00,METAR YPPH 190900Z 33007KT CAVOK 35/11 Q1011,1,0,0,9999,0,0,0,
2026-03-19 08:30:00,METAR YPPH 190830Z 30007KT CAVOK 34/10 Q1011,1,0,0,9999,0,0,0,
2026-03-19 08:00:00,METAR YPPH 190800Z 29007KT CAVOK 34/10 Q1011,1,0,0,9999,0,0,0,
2026-03-19 07:30:00,METAR YPPH 190730Z 30008KT CAVOK 33/11 Q1012,1,0,0,9999,0,0,0,
2026-03-19 07:00:00,METAR YPPH 190700Z 32008KT CAVOK 32/10 Q1012,1,0,0,9999,0,0,0,
2026-03-19 06:30:00,METAR YPPH 190630Z 30010KT CAVOK 32/11 Q1012,1,0,0,9999,0,0,0,
2026-03-19 06:00:00,METAR YPPH 190600Z 28009KT CAVOK 33/11 Q1012,1,0,0,9999,0,0,0,
2026-03-19 05:30:00,METAR YPPH 190530Z 28012KT CAVOK 32/10 Q1012,1,0,0,9999,0,0,0,
2026-03-19 05:00:00,METAR YPPH 190500Z 27013KT CAVOK 34/09 Q1012,1,0,0,9999,0,0,0,
2026-03-19 04:30:00,METAR YPPH 190430Z 26017KT CAVOK 37/08 Q1012,1,0,0,9999,0,0,0,
2026-03-19 04:00:00,METAR YPPH 190400Z 32008KT 300V360 CAVOK 39/06 Q1012,1,0,0,9999,0,0,0,
2026-03-19 03:30:00,METAR YPPH 190330Z 01010KT CAVOK 38/06 Q1012,1,0,0,9999,0,0,0,
2026-03-19 03:00:00,METAR YPPH 190300Z 01013KT CAVOK 37/05 Q1012,1,0,0,9999,0,0,0,
2026-03-19 02:30:00,METAR YPPH 190230Z 01014KT CAVOK 36/06 Q1012,1,0,0,9999,0,0,0,
2026-03-19 02:00:00,METAR YPPH 190200Z 01011KT CAVOK 35/06 Q1013,1,0,0,9999,0,0,0,
2026-03-19 01:30:00,METAR YPPH 190130Z 01012KT CAVOK 33/07 Q1013,1,0,0,9999,0,0,0,
2026-03-19 01:00:00,METAR YPPH 190100Z 03014KT CAVOK 32/07 Q1013,1,0,0,9999,0,0,0,
2026-03-19 00:30:00,METAR YPPH 190030Z 02010KT CAVOK 31/07 Q1013,1,0,0,9999,0,0,0,
2026-03-19 00:00:00,METAR YPPH 190000Z 04008KT CAVOK 29/09 Q1013,1,0,0,9999,0,0,0,
2026-03-18 23:30:00,METAR YPPH 182330Z 05008KT CAVOK 27/09 Q1013,1,0,0,9999,0,0,0,
2026-03-18 23:00:00,METAR YPPH 182300Z 04007KT CAVOK 26/09 Q1013,1,0,0,9999,0,0,0,
2026-03-18 22:30:00,METAR YPPH 182230Z 06008KT CAVOK 24/08 Q1012,1,0,0,9999,0,0,0,
2026-03-18 22:00:00,METAR YPPH 182200Z AUTO 05007KT 9999 // NCD 24/09 Q1012,0,7,0,10000,0,0,0,
2026-03-18 21:30:00,METAR YPPH 182130Z AUTO 03004KT 9999 // NCD 21/10 Q1012,0,4,0,10000,0,0,0,
2026-03-18 21:00:00,METAR YPPH 182100Z AUTO 05004KT 010V070 9999 // NCD 21/09 Q1012,0,4,0,10000,0,0,0,
2026-03-18 20:30:00,METAR YPPH 182030Z AUTO 06006KT 9999 // NCD 23/09 Q1012,0,6,0,10000,0,0,0,
2026-03-18 20:00:00,METAR YPPH 182000Z AUTO 06008KT 9999 // NCD 25/09 Q1012,0,8,0,10000,0,0,0,
2026-03-18 19:30:00,METAR YPPH 181930Z AUTO 07007KT 9999 // NCD 24/09 Q1012,0,7,0,10000,0,0,0,
2026-03-18 19:00:00,METAR YPPH 181900Z AUTO 07008KT 9999 // NCD 24/09 Q1012,0,8,0,10000,0,0,0,
2026-03-18 18:30:00,METAR YPPH 181830Z AUTO 05007KT 9999 // NCD 25/09 Q1012,0,7,0,10000,0,0,0,
2026-03-18 18:00:00,METAR YPPH 181800Z AUTO 07009KT 9999 // NCD 26/09 Q1012,0,9,0,10000,0,0,0,
2026-03-18 17:30:00,METAR YPPH 181730Z AUTO 05008KT 9999 // NCD 27/10 Q1012,0,8,0,10000,0,0,0,
2026-03-18 17:00:00,METAR YPPH 181700Z AUTO 06008KT 9999 // NCD 27/10 Q1012,0,8,0,10000,0,0,0,
2026-03-18 16:30:00,METAR YPPH 181630Z AUTO 06008KT 9999 // NCD 26/10 Q1012,0,8,0,10000,0,0,0,
2026-03-18 16:00:00,METAR YPPH 181600Z 34003KT CAVOK 22/11 Q1012,1,0,0,9999,0,0,0,
2026-03-18 15:30:00,METAR YPPH 181530Z 00000KT CAVOK 22/11 Q1012,1,0,0,9999,0,0,0,
2026-03-18 15:00:00,METAR YPPH 181500Z 00000KT CAVOK 23/11 Q1013,1,0,0,9999,0,0,0,
2026-03-18 14:30:00,METAR YPPH 181430Z 00000KT CAVOK 23/11 Q1013,1,0,0,9999,0,0,0,
2026-03-18 14:00:00,METAR YPPH 181400Z 18006KT CAVOK 24/10 Q1013,1,0,0,9999,0,0,0,
2026-03-18 13:30:00,METAR YPPH 181330Z 21006KT CAVOK 25/10 Q1013,1,0,0,9999,0,0,0,
2026-03-18 13:00:00,METAR YPPH 181300Z 21006KT CAVOK 27/10 Q1013,1,0,0,9999,0,0,0,
2026-03-18 12:30:00,METAR YPPH 181230Z 18009KT CAVOK 29/10 Q1013,1,0,0,9999,0,0,0,
2026-03-18 12:00:00,METAR YPPH 181200Z 19011KT CAVOK 30/10 Q1013,1,0,0,9999,0,0,0,
2026-03-18 11:30:00,METAR YPPH 181130Z 19013KT CAVOK 31/09 Q1012,1,0,0,9999,0,0,0,
2026-03-18 11:00:00,METAR YPPH 181100Z 20010KT CAVOK 32/10 Q1012,1,0,0,9999,0,0,0,
2026-03-18 10:30:00,METAR YPPH 181030Z 20011KT CAVOK 33/10 Q1012,1,0,0,9999,0,0,0,
2026-03-18 10:00:00,METAR YPPH 181000Z 22013KT CAVOK 35/10 Q1012,1,0,0,9999,0,0,0,
2026-03-18 09:30:00,METAR YPPH 180930Z 23012KT CAVOK 36/08 Q1012,1,0,0,9999,0,0,0,
2026-03-18 09:00:00,METAR YPPH 180900Z 22013KT CAVOK 37/08 Q1011,1,0,0,9999,0,0,0,
2026-03-18 08:30:00,METAR YPPH 180830Z 24011KT CAVOK 38/08 Q1011,1,0,0,9999,0,0,0,
2026-03-18 08:00:00,METAR YPPH 180800Z 26012KT CAVOK 38/08 Q1011,1,0,0,9999,0,0,0,
2026-03-18 07:30:00,METAR YPPH 180730Z 24011KT CAVOK 38/09 Q1011,1,0,0,9999,0,0,0,
2026-03-18 07:00:00,METAR YPPH 180700Z 24011KT CAVOK 38/09 Q1011,1,0,0,9999,0,0,0,
2026-03-18 06:30:00,METAR YPPH 180630Z 05005KT 340V120 CAVOK 38/08 Q1012,1,0,0,9999,0,0,0,
2026-03-18 06:00:00,METAR YPPH 180600Z 09004KT CAVOK 38/10 Q1012,1,0,0,9999,0,0,0,
2026-03-18 05:30:00,METAR YPPH 180530Z 30006KT 250V340 CAVOK 39/10 Q1012,1,0,0,9999,0,0,0,
2026-03-18 05:00:00,METAR YPPH 180500Z 33005KT 270V030 CAVOK 38/11 Q1013,1,0,0,9999,0,0,0,
2026-03-18 04:30:00,METAR YPPH 180430Z 34005KT CAVOK 37/10 Q1013,1,0,0,9999,0,0,0,
2026-03-18 04:00:00,METAR YPPH 180400Z 02008KT 350V050 CAVOK 35/10 Q1013,1,0,0,9999,0,0,0,
2026-03-18 03:30:00,METAR YPPH 180330Z 04009KT CAVOK 35/11 Q1014,1,0,0,9999,0,0,0,
2026-03-18 03:00:00,METAR YPPH 180300Z 03010KT CAVOK 34/11 Q1014,1,0,0,9999,0,0,0,
2026-03-18 02:30:00,METAR YPPH 180230Z 02013KT CAVOK 33/11 Q1014,1,0,0,9999,0,0,0,
2026-03-18 02:00:00,METAR YPPH 180200Z 02012KT CAVOK 32/11 Q1015,1,0,0,9999,0,0,0,
2026-03-18 01:30:00,METAR YPPH 180130Z 03013KT CAVOK 31/12 Q1015,1,0,0,9999,0,0,0,
2026-03-18 01:00:00,METAR YPPH 180100Z 04013KT CAVOK 30/12 Q1015,1,0,0,9999,0,0,0,
2026-03-18 00:30:00,METAR YPPH 180030Z 05012KT CAVOK 29/12 Q1014,1,0,0,9999,0,0,0,
2026-03-18 00:00:00,METAR YPPH 180000Z 06010KT CAVOK 27/12 Q1014,1,0,0,9999,0,0,0,
2026-03-17 23:30:00,METAR YPPH 172330Z 06011KT CAVOK 26/11 Q1014,1,0,0,9999,0,0,0,
2026-03-17 23:00:00,METAR YPPH 172300Z 06011KT CAVOK 24/11 Q1014,1,0,0,9999,0,0,0,
2026-03-17 22:30:00,METAR YPPH 172230Z 06009KT CAVOK 23/11 Q1014,1,0,0,9999,0,0,0,
2026-03-17 22:00:00,METAR YPPH 172200Z AUTO 06010KT 9999 // NCD 24/10 Q1013,0,10,0,10000,0,0,0,
2026-03-17 21:30:00,METAR YPPH 172130Z AUTO 06008KT 9999 // NCD 24/10 Q1013,0,8,0,10000,0,0,0,
2026-03-17 21:00:00,METAR YPPH 172100Z AUTO 05009KT 9999 // NCD 24/10 Q1013,0,9,0,10000,0,0,0,
2026-03-17 20:30:00,METAR YPPH 172030Z AUTO 06013KT 9999 // NCD 24/10 Q1012,0,13,0,10000,0,0,0,
2026-03-17 20:00:00,METAR YPPH 172000Z AUTO 05011KT 9999 // NCD 24/09 Q1012,0,11,0,10000,0,0,0,
2026-03-17 19:30:00,METAR YPPH 171930Z AUTO 05007KT 9999 // NCD 24/09 Q1012,0,7,0,10000,0,0,0,
2026-03-17 19:00:00,METAR YPPH 171900Z AUTO 07011KT 9999 // NCD 25/09 Q1012,0,11,0,10000,0,0,0,
2026-03-17 18:30:00,METAR YPPH 171830Z AUTO 07011KT 9999 // NCD 25/09 Q1012,0,11,0,10000,0,0,0,
2026-03-17 18:00:00,METAR YPPH 171800Z AUTO 07013KT 9999 // NCD 26/09 Q1012,0,13,0,10000,0,0,0,
2026-03-17 17:30:00,METAR YPPH 171730Z AUTO 05010KT 9999 // NCD 26/08 Q1012,0,10,0,10000,0,0,0,
2026-03-17 17:00:00,METAR YPPH 171700Z AUTO 05009KT 9999 // NCD 26/09 Q1012,0,9,0,10000,0,0,0,
2026-03-17 16:30:00,METAR YPPH 171630Z AUTO 07011KT 9999 // NCD 26/08 Q1012,0,11,0,10000,0,0,0,
2026-03-17 16:00:00,METAR YPPH 171600Z 07012KT CAVOK 27/09 Q1012,1,0,0,9999,0,0,0,
2026-03-17 15:30:00,METAR YPPH 171530Z 07010KT CAVOK 27/08 Q1012,1,0,0,9999,0,0,0,
2026-03-17 15:00:00,METAR YPPH 171500Z 07012KT CAVOK 27/09 Q1013,1,0,0,9999,0,0,0,
2026-03-17 14:30:00,METAR YPPH 171430Z 07011KT CAVOK 27/09 Q1013,1,0,0,9999,0,0,0,
2026-03-17 14:00:00,METAR YPPH 171400Z 07008KT CAVOK 27/09 Q1013,1,0,0,9999,0,0,0,
2026-03-17 13:30:00,METAR YPPH 171330Z 04005KT CAVOK 26/10 Q1013,1,0,0,9999,0,0,0,
2026-03-17 13:00:00,METAR YPPH 171300Z 08005KT CAVOK 25/11 Q1013,1,0,0,9999,0,0,0,
2026-03-17 12:30:00,METAR YPPH 171230Z 10006KT CAVOK 27/11 Q1013,1,0,0,9999,0,0,0,
2026-03-17 12:00:00,METAR YPPH 171200Z 17007KT CAVOK 26/11 Q1012,1,0,0,9999,0,0,0,
2026-03-17 11:30:00,METAR YPPH 171130Z 12005KT CAVOK 28/10 Q1012,1,0,0,9999,0,0,0,
2026-03-17 11:00:00,METAR YPPH 171100Z 11006KT CAVOK 30/11 Q1012,1,0,0,9999,0,0,0,
2026-03-17 10:30:00,METAR YPPH 171030Z 11007KT CAVOK 31/10 Q1011,1,0,0,9999,0,0,0,
2026-03-17 10:00:00,METAR YPPH 171000Z 10008KT CAVOK 33/10 Q1011,1,0,0,9999,0,0,0,
2026-03-17 09:30:00,METAR YPPH 170930Z 09007KT 060V120 CAVOK 34/11 Q1011,1,0,0,9999,0,0,0,
2026-03-17 09:00:00,METAR YPPH 170900Z 15009KT CAVOK 34/10 Q1011,1,0,0,9999,0,0,0,
2026-03-17 08:30:00,METAR YPPH 170830Z 12005KT 090V170 CAVOK 35/10 Q1011,1,0,0,9999,0,0,0,
2026-03-17 08:00:00,METAR YPPH 170800Z 05007KT 020V100 CAVOK 35/09 Q1011,1,0,0,9999,0,0,0,
2026-03-17 07:30:00,METAR YPPH 170730Z 36009KT CAVOK 35/11 Q1011,1,0,0,9999,0,0,0,
2026-03-17 07:00:00,METAR YPPH 170700Z 08009KT CAVOK 34/11 Q1011,1,0,0,9999,0,0,0,
2026-03-17 06:30:00,METAR YPPH 170630Z 09007KT CAVOK 34/11 Q1012,1,0,0,9999,0,0,0,
2026-03-17 06:00:00,METAR YPPH 170600Z 02017KT 010V120 CAVOK 34/10 Q1012,1,0,0,9999,0,0,0,
2026-03-17 05:30:00,METAR YPPH 170530Z 04012KT CAVOK 34/10 Q1012,1,0,0,9999,0,0,0,
2026-03-17 05:00:00,METAR YPPH 170500Z 07008KT 360V070 CAVOK 33/11 Q1013,1,0,0,9999,0,0,0,
2026-03-17 04:30:00,METAR YPPH 170430Z 06012KT CAVOK 32/11 Q1013,1,0,0,9999,0,0,0,
2026-03-17 04:00:00,METAR YPPH 170400Z 06014KT CAVOK 32/12 Q1014,1,0,0,9999,0,0,0,
2026-03-17 03:30:00,METAR YPPH 170330Z 06014KT CAVOK 31/12 Q1014,1,0,0,9999,0,0,0,
2026-03-17 03:00:00,METAR YPPH 170300Z 06016KT CAVOK 30/12 Q1015,1,0,0,9999,0,0,0,
2026-03-17 02:30:00,METAR YPPH 170230Z 04013KT CAVOK 29/13 Q1015,1,0,0,9999,0,0,0,
2026-03-17 02:00:00,METAR YPPH 170200Z 05014KT CAVOK 29/13 Q1015,1,0,0,9999,0,0,0,
2026-03-17 01:30:00,METAR YPPH 170130Z 03013KT CAVOK 27/13 Q1015,1,0,0,9999,0,0,0,
2026-03-17 01:00:00,METAR YPPH 170100Z 05010KT CAVOK 26/14 Q1015,1,0,0,9999,0,0,0,
2026-03-17 00:30:00,METAR YPPH 170030Z 07010KT CAVOK 25/14 Q1015,1,0,0,9999,0,0,0,
2026-03-17 00:00:00,METAR YPPH 170000Z 08015KT CAVOK 23/14 Q1016,1,0,0,9999,0,0,0,
2026-03-16 23:30:00,METAR YPPH 162330Z 06013KT CAVOK 21/14 Q1015,1,0,0,9999,0,0,0,
2026-03-16 23:00:00,METAR YPPH 162300Z 06013KT CAVOK 21/14 Q1015,1,0,0,9999,0,0,0,
2026-03-16 22:30:00,METAR YPPH 162230Z 06015KT CAVOK 20/13 Q1014,1,0,0,9999,0,0,0,
2026-03-16 22:00:00,METAR YPPH 162200Z AUTO 07017KT 9999 // NCD 21/14 Q1014,0,17,0,10000,0,0,0,
2026-03-16 21:30:00,METAR YPPH 162130Z AUTO 06016KT 9999 // NCD 21/14 Q1014,0,16,0,10000,0,0,0,
2026-03-16 21:00:00,METAR YPPH 162100Z AUTO 07017KT 9999 // NCD 21/14 Q1013,0,17,0,10000,0,0,0,
2026-03-16 20:30:00,METAR YPPH 162030Z AUTO 08017KT 9999 // NCD 21/14 Q1013,0,17,0,10000,0,0,0,
2026-03-16 20:00:00,METAR YPPH 162000Z AUTO 08017KT 9999 // NCD 22/14 Q1013,0,17,0,10000,0,0,0,
2026-03-16 19:30:00,METAR YPPH 161930Z AUTO 08017KT 9999 // NCD 22/14 Q1013,0,17,0,10000,0,0,0,
2026-03-16 19:00:00,METAR YPPH 161900Z AUTO 09019KT 9999 // NCD 22/14 Q1013,0,19,0,10000,0,0,0,
2026-03-16 18:30:00,METAR YPPH 161830Z AUTO 09018KT 9999 // NCD 23/14 Q1012,0,18,0,10000,0,0,0,
2026-03-16 18:03:00,SPECI YPPH 161803Z AUTO 09019G29KT 9999 // NCD 23/14 Q1013,0,19,1,10000,0,0,0,
2026-03-16 17:30:00,METAR YPPH 161730Z AUTO 10018KT 9999 // NCD 24/14 Q1013,0,18,0,10000,0,0,0,
2026-03-16 17:02:00,SPECI YPPH 161702Z AUTO 10016G26KT 9999 // NCD 24/14 Q1013,0,16,1,10000,0,0,0,
2026-03-16 16:30:00,METAR YPPH 161630Z AUTO 10016KT 9999 // NCD 25/13 Q1013,0,16,0,10000,0,0,0,
2026-03-16 16:00:00,METAR YPPH 161600Z 10017KT CAVOK 25/13 Q1013,1,0,0,9999,0,0,0,
2026-03-16 15:30:00,METAR YPPH 161530Z 10017KT CAVOK 25/13 Q1013,1,0,0,9999,0,0,0,
2026-03-16 15:00:00,METAR YPPH 161500Z 10011KT CAVOK 25/13 Q1013,1,0,0,9999,0,0,0,
2026-03-16 14:30:00,METAR YPPH 161430Z 12007KT CAVOK 22/14 Q1013,1,0,0,9999,0,0,0,
2026-03-16 14:00:00,METAR YPPH 161400Z 16006KT CAVOK 22/16 Q1013,1,0,0,9999,0,0,0,
2026-03-16 13:30:00,METAR YPPH 161330Z 19008KT CAVOK 23/17 Q1014,1,0,0,9999,0,0,0,
2026-03-16 13:00:00,METAR YPPH 161300Z 20008KT CAVOK 24/17 Q1013,1,0,0,9999,0,0,0,
2026-03-16 12:30:00,METAR YPPH 161230Z 20008KT CAVOK 25/17 Q1013,1,0,0,9999,0,0,0,
2026-03-16 12:00:00,METAR YPPH 161200Z 20008KT CAVOK 25/17 Q1013,1,0,0,9999,0,0,0,
2026-03-16 11:30:00,METAR YPPH 161130Z 21008KT CAVOK 26/17 Q1013,1,0,0,9999,0,0,0,
2026-03-16 11:00:00,METAR YPPH 161100Z 21009KT CAVOK 26/16 Q1012,1,0,0,9999,0,0,0,
2026-03-16 10:30:00,METAR YPPH 161030Z 21012KT CAVOK 27/16 Q1012,1,0,0,9999,0,0,0,
2026-03-16 10:00:00,METAR YPPH 161000Z 22013KT CAVOK 28/15 Q1012,1,0,0,9999,0,0,0,
2026-03-16 09:30:00,METAR YPPH 160930Z 24012KT CAVOK 29/17 Q1012,1,0,0,9999,0,0,0,
2026-03-16 09:00:00,METAR YPPH 160900Z 23013KT CAVOK 30/16 Q1012,1,0,0,9999,0,0,0,
2026-03-16 08:30:00,METAR YPPH 160830Z 24015KT CAVOK 31/16 Q1012,1,0,0,9999,0,0,0,
2026-03-16 08:00:00,METAR YPPH 160800Z 23014KT CAVOK 31/16 Q1012,1,0,0,9999,0,0,0,
2026-03-16 07:30:00,METAR YPPH 160730Z 08006KT CAVOK 33/14 Q1012,1,0,0,9999,0,0,0,
2026-03-16 07:00:00,METAR YPPH 160700Z 06006KT 010V130 CAVOK 33/12 Q1012,1,0,0,9999,0,0,0,
2026-03-16 06:30:00,METAR YPPH 160630Z 13007KT 070V160 CAVOK 32/12 Q1012,1,0,0,9999,0,0,0,
2026-03-16 06:00:00,METAR YPPH 160600Z 13011KT 070V190 CAVOK 32/12 Q1012,1,0,0,9999,0,0,0,
2026-03-16 05:30:00,METAR YPPH 160530Z 10008KT CAVOK 32/14 Q1013,1,0,0,9999,0,0,0,
2026-03-16 05:00:00,METAR YPPH 160500Z 13008KT 100V160 CAVOK 30/13 Q1013,1,0,0,9999,0,0,0,
2026-03-16 04:30:00,METAR YPPH 160430Z 07010KT 040V100 CAVOK 31/13 Q1013,1,0,0,9999,0,0,0,
2026-03-16 04:00:00,METAR YPPH 160400Z AUTO 07009KT 040V110 9999 // FEW054 31/14 Q1014,0,9,0,10000,0,0,0,
2026-03-16 03:30:00,METAR YPPH 160330Z 04010KT 030V090 9999 FEW048 30/14 Q1014,0,10,0,10000,0,0,0,
2026-03-16 03:00:00,METAR YPPH 160300Z AUTO 08009KT 040V110 9999 // FEW048 29/15 Q1015,0,9,0,10000,0,0,0,
2026-03-16 02:30:00,METAR YPPH 160230Z 05011KT 9999 FEW038 28/15 Q1015,0,11,0,10000,0,0,0,
2026-03-16 02:00:00,METAR YPPH 160200Z 07011KT 9999 FEW028 27/15 Q1015,0,11,0,10000,0,0,0,
2026-03-16 01:30:00,METAR YPPH 160130Z 07008KT 9999 FEW028 27/16 Q1015,0,8,0,10000,0,0,0,
2026-03-16 01:00:00,METAR YPPH 160100Z 08013KT 9999 FEW024 25/16 Q1015,0,13,0,10000,0,0,0,
2026-03-16 00:30:00,METAR YPPH 160030Z 09013KT 9999 FEW028 25/16 Q1015,0,13,0,10000,0,0,0,
2026-03-16 00:00:00,METAR YPPH 160000Z 09011KT 9999 FEW028 23/16 Q1015,0,11,0,10000,0,0,0,
2026-03-15 23:30:00,METAR YPPH 152330Z 09012KT 9999 FEW028 22/16 Q1015,0,12,0,10000,0,0,0,
2026-03-15 23:00:00,METAR YPPH 152300Z 09009KT 9999 FEW028 22/16 Q1015,0,9,0,10000,0,0,0,
2026-03-15 22:30:00,METAR YPPH 152230Z 10009KT 9999 FEW028 21/16 Q1015,0,9,0,10000,0,0,0,
2026-03-15 22:00:00,METAR YPPH 152200Z 11010KT 9999 FEW030 20/16 Q1014,0,10,0,10000,0,0,0,
2026-03-15 21:30:00,METAR YPPH 152130Z AUTO 11009KT 9999 // NCD 20/15 Q1014,0,9,0,10000,0,0,0,
2026-03-15 21:00:00,METAR YPPH 152100Z AUTO 12012KT 9999 // NCD 20/15 Q1014,0,12,0,10000,0,0,0,
2026-03-15 20:30:00,METAR YPPH 152030Z AUTO 13007KT 9999 // NCD 20/15 Q1014,0,7,0,10000,0,0,0,
2026-03-15 20:00:00,METAR YPPH 152000Z AUTO 12005KT 080V170 9999 // NCD 20/15 Q1014,0,5,0,10000,0,0,0,
2026-03-15 19:30:00,METAR YPPH 151930Z AUTO 15006KT 9999 // NCD 20/15 Q1014,0,6,0,10000,0,0,0,
2026-03-15 19:00:00,METAR YPPH 151900Z AUTO 11009KT 9999 // NCD 20/15 Q1014,0,9,0,10000,0,0,0,
2026-03-15 18:30:00,METAR YPPH 151830Z AUTO 10011KT 9999 // NCD 21/15 Q1014,0,11,0,10000,0,0,0,
2026-03-15 18:00:00,METAR YPPH 151800Z AUTO 11009KT 9999 // NCD 21/15 Q1014,0,9,0,10000,0,0,0,
2026-03-15 17:30:00,METAR YPPH 151730Z AUTO 11009KT 9999 // NCD 21/14 Q1014,0,9,0,10000,0,0,0,
2026-03-15 17:00:00,METAR YPPH 151700Z AUTO 10012KT 9999 // NCD 21/14 Q1015,0,12,0,10000,0,0,0,
2026-03-15 16:30:00,METAR YPPH 151630Z AUTO 10011KT 9999 // NCD 22/14 Q1015,0,11,0,10000,0,0,0,
2026-03-15 16:00:00,METAR YPPH 151600Z 11012KT CAVOK 22/14 Q1015,1,0,0,9999,0,0,0,
2026-03-15 15:30:00,METAR YPPH 151530Z 11009KT CAVOK 22/13 Q1015,1,0,0,9999,0,0,0,
2026-03-15 15:00:00,METAR YPPH 151500Z 12011KT CAVOK 22/13 Q1015,1,0,0,9999,0,0,0,
2026-03-15 14:30:00,METAR YPPH 151430Z 14010KT CAVOK 23/13 Q1015,1,0,0,9999,0,0,0,
2026-03-15 14:00:00,METAR YPPH 151400Z 15010KT CAVOK 23/13 Q1015,1,0,0,9999,0,0,0,
2026-03-15 13:30:00,METAR YPPH 151330Z 16009KT CAVOK 23/13 Q1015,1,0,0,9999,0,0,0,
2026-03-15 13:00:00,METAR YPPH 151300Z 16009KT CAVOK 24/13 Q1015,1,0,0,9999,0,0,0,
2026-03-15 12:30:00,METAR YPPH 151230Z 15009KT CAVOK 24/13 Q1015,1,0,0,9999,0,0,0,
2026-03-15 12:00:00,METAR YPPH 151200Z 17010KT CAVOK 25/13 Q1015,1,0,0,9999,0,0,0,
2026-03-15 11:30:00,METAR YPPH 151130Z 16011KT CAVOK 25/13 Q1014,1,0,0,9999,0,0,0,
2026-03-15 11:00:00,METAR YPPH 151100Z 16011KT CAVOK 26/12 Q1014,1,0,0,9999,0,0,0,
2026-03-15 10:30:00,METAR YPPH 151030Z 14011KT CAVOK 27/12 Q1014,1,0,0,9999,0,0,0,
2026-03-15 10:00:00,METAR YPPH 151000Z 13012KT CAVOK 28/12 Q1014,1,0,0,9999,0,0,0,
2026-03-15 09:30:00,METAR YPPH 150930Z 13011KT CAVOK 29/12 Q1014,1,0,0,9999,0,0,0,
2026-03-15 09:00:00,METAR YPPH 150900Z 13013KT CAVOK 29/12 Q1013,1,0,0,9999,0,0,0,
2026-03-15 08:30:00,METAR YPPH 150830Z 11013KT CAVOK 30/12 Q1013,1,0,0,9999,0,0,0,
2026-03-15 08:00:00,METAR YPPH 150800Z 12009KT CAVOK 30/13 Q1013,1,0,0,9999,0,0,0,
