Time_recorded,METAR,is_cavok,wind_speed,is_gust,visibility_meters,has_thunderstorm,has_heavy_rain,has_low_vis_fog,other_phenomenon
2026-05-02 14:56:00,METAR TJSJ 021456Z 06012KT 10SM FEW027 SCT060 31/23 A3003 RMK AO2 SLP167 T03060233 50007 $,0,12.0,0,16090,0,0,0,
2026-05-02 13:56:00,METAR TJSJ 021356Z 09011KT 10SM FEW027 SCT055 29/23 A3003 RMK AO2 SLP168 T02890228 $,0,11.0,0,16090,0,0,0,
2026-05-02 12:56:00,METAR TJSJ 021256Z 10011KT 10SM FEW033 SCT060 SCT085 28/22 A3002 RMK AO2 SLP165 T02830222 $,0,11.0,0,16090,0,0,0,
2026-05-02 11:56:00,METAR TJSJ 021156Z 09009KT 10SM FEW029 SCT085 27/23 A3001 RMK AO2 SLP160 T02670228 10267 20244 52017 $,0,9.0,0,16090,0,0,0,
2026-05-02 10:56:00,METAR TJSJ 021056Z 12004KT 10SM FEW030 SCT065 26/22 A2999 RMK AO2 SLP154 T02560217 $,0,4.0,0,16090,0,0,0,
2026-05-02 09:56:00,METAR TJSJ 020956Z 13003KT 10SM CLR 24/21 A2997 RMK AO2 SLP148 T02440211 $,0,3.0,0,16090,0,0,0,
2026-05-02 07:56:00,METAR TJSJ 020756Z 14003KT 10SM CLR 24/21 A2994 RMK AO2 SLP137 T02440211 $,0,3.0,0,16090,0,0,0,
2026-05-02 06:56:00,METAR TJSJ 020656Z 15003KT 10SM FEW033 25/22 A2995 RMK AO2 SLP140 T02500217 $,0,3.0,0,16090,0,0,0,
2026-05-02 05:56:00,METAR TJSJ 020556Z 13003KT 10SM FEW035 25/22 A2995 RMK AO2 SLP141 T02500217 10267 20250 58011,0,3.0,0,16090,0,0,0,
2026-05-02 04:56:00,METAR TJSJ 020456Z 14003KT 10SM FEW035 26/22 A2996 RMK AO2 SLP145 T02560217,0,3.0,0,16090,0,0,0,
2026-05-02 03:56:00,METAR TJSJ 020356Z 00000KT 10SM FEW035 26/22 A2999 RMK AO2 SLP153 T02610222 403060244,0,0.0,0,16090,0,0,0,
2026-05-02 02:56:00,METAR TJSJ 020256Z 08005KT 10SM FEW040 26/23 A2998 RMK AO2 SLP152 T02610228 53013,0,5.0,0,16090,0,0,0,
2026-05-02 01:56:00,METAR TJSJ 020156Z 11004KT 10SM FEW043 FEW060 26/23 A2997 RMK AO2 SLP148 T02560228,0,4.0,0,16090,0,0,0,
2026-05-02 00:56:00,METAR TJSJ 020056Z 09008KT 10SM FEW046 FEW080 26/23 A2996 RMK AO2 SLP143 T02610228,0,8.0,0,16090,0,0,0,
2026-05-01 23:56:00,METAR TJSJ 012356Z 09008KT 10SM FEW040 FEW080 27/23 A2995 RMK AO2 SLP139 60000 T02670228 10306 20267 53013,0,8.0,0,16090,0,0,0,
2026-05-01 22:56:00,METAR TJSJ 012256Z 09010KT 10SM FEW034 FEW047 SCT070 27/23 A2992 RMK AO2 RAB00E14 SLP132 VCSH W-NW P0000 T02720233,0,10.0,0,16090,0,0,0,"RA,SH,VC"
2026-05-01 21:56:00,METAR TJSJ 012156Z 08016KT 10SM FEW034 SCT041 SCT070 28/23 A2991 RMK AO2 SLP127 VCSH W T02830233,0,16.0,0,16090,0,0,0,"SH,VC"
2026-05-01 20:56:00,METAR TJSJ 012056Z 08016KT 10SM FEW028 FEW043 SCT070 28/24 A2991 RMK AO2 SLP126 VCSH SW-W 60000 T02830239 55007,0,16.0,0,16090,0,0,0,"SH,VC"
2026-05-01 19:56:00,METAR TJSJ 011956Z 07015KT 10SM FEW028 SCT043 SCT070 29/23 A2990 RMK AO2 RAB42E51 SLP123 VCSH W P0000 T02890233,0,15.0,0,16090,0,0,0,"RA,SH,VC"
2026-05-01 18:56:00,METAR TJSJ 011856Z 06017KT 10SM FEW039 SCT100 31/23 A2991 RMK AO2 SLP128 VCSH S T03060233,0,17.0,0,16090,0,0,0,"SH,VC"
2026-05-01 17:56:00,METAR TJSJ 011756Z 06015KT 10SM FEW029 SCT080 31/23 A2993 RMK AO2 SLP133 VCSH SE S T03060233 10306 20256 58017,0,15.0,0,16090,0,0,0,"SH,VC"
2026-05-01 16:56:00,METAR TJSJ 011656Z 06014G19KT 10SM FEW026 SCT095 30/24 A2995 RMK AO2 SLP141 VCSH SE S T03000239 $,0,14.0,1,16090,0,0,0,"SH,VC"
2026-05-01 15:56:00,METAR TJSJ 011556Z 04008KT 10SM FEW023 SCT095 29/23 A2997 RMK AO2 SLP147 T02940233 $,0,8.0,0,16090,0,0,0,
2026-05-01 14:56:00,METAR TJSJ 011456Z 07010KT 10SM FEW028 SCT095 29/23 A2998 RMK AO2 SLP150 T02940233 51014 $,0,10.0,0,16090,0,0,0,
2026-05-01 13:56:00,METAR TJSJ 011356Z 02007KT 10SM FEW033 FEW080 SCT095 28/22 A2998 RMK AO2 SLP150 T02830217 $,0,7.0,0,16090,0,0,0,
2026-05-01 12:56:00,METAR TJSJ 011256Z 00000KT 10SM FEW030 FEW075 SCT090 28/22 A2997 RMK AO2 SLP147 T02830217 $,0,0.0,0,16090,0,0,0,
2026-05-01 11:56:00,METAR TJSJ 011156Z 17004KT 10SM FEW030 FEW075 SCT090 26/23 A2994 RMK AO2 SLP137 70034 T02560228 10256 20244 51014 $,0,4.0,0,16090,0,0,0,
2026-05-01 10:56:00,METAR TJSJ 011056Z 12003KT 10SM FEW030 SCT075 25/23 A2993 RMK AO2 SLP134 T02500233 $,0,3.0,0,16090,0,0,0,
2026-05-01 09:56:00,METAR TJSJ 010956Z 16003KT 10SM SCT033 SCT070 25/23 A2991 RMK AO2 SLP127 T02500233 $,0,3.0,0,16090,0,0,0,
2026-05-01 08:56:00,METAR TJSJ 010856Z 00000KT 10SM FEW060 25/23 A2990 RMK AO2 SLP122 T02500233 55003 $,0,0.0,0,16090,0,0,0,
2026-05-01 07:56:00,METAR TJSJ 010756Z 00000KT 10SM FEW060 25/24 A2989 RMK AO2 SLP121 T02500239 $,0,0.0,0,16090,0,0,0,
2026-05-01 06:56:00,METAR TJSJ 010656Z 00000KT 10SM FEW045 25/24 A2989 RMK AO2 SLP121 T02500239 $,0,0.0,0,16090,0,0,0,
2026-05-01 05:56:00,METAR TJSJ 010556Z 00000KT 10SM FEW045 26/24 A2991 RMK AO2 SLP125 60009 T02560239 10256 20250 58021 $,0,0.0,0,16090,0,0,0,
2026-05-01 04:56:00,METAR TJSJ 010456Z 00000KT 10SM FEW028 FEW080 26/24 A2993 RMK AO2 SLP133 T02560239 $,0,0.0,0,16090,0,0,0,
2026-05-01 03:56:00,METAR TJSJ 010356Z 00000KT 10SM FEW028 FEW080 26/24 A2995 RMK AO2 SLP142 T02560239 403170244 $,0,0.0,0,16090,0,0,0,
2026-05-01 02:56:00,METAR TJSJ 010256Z VRB04KT 10SM FEW028 SCT080 26/23 A2997 RMK AO2 RAB03E19 SLP146 P0000 60009 T02560233 53015 $,0,4.0,0,16090,0,0,0,RA
2026-05-01 01:56:00,METAR TJSJ 010156Z 00000KT 10SM FEW060 SCT100 26/24 A2995 RMK AO2 RAE44 SLP140 P0002 T02560239 $,0,0.0,0,16090,0,0,0,
2026-05-01 00:56:00,METAR TJSJ 010056Z 00000KT 10SM -RA FEW050 BKN100 26/24 A2993 RMK AO2 SLP135 P0007 T02560239 $,0,0.0,0,16090,0,0,0,-RA
2026-04-30 23:56:00,METAR TJSJ 302356Z 13004KT 9SM -RA FEW026 BKN100 26/24 A2992 RMK AO2 SLP131 P0009 60025 T02560239 10289 20250 53020 $,0,4.0,0,14481,0,0,0,-RA
2026-04-30 22:56:00,METAR TJSJ 302256Z 10004KT 9SM -RA FEW026 SCT050 BKN080 26/24 A2991 RMK AO2 SLP126 P0012 T02560239 $,0,4.0,0,14481,0,0,0,-RA
2026-04-30 21:56:00,METAR TJSJ 302156Z 09006KT 8SM -RA SCT026 SCT050 BKN080 26/24 A2988 RMK AO2 SLP117 P0003 T02610244 $,0,6.0,0,12872,0,0,0,-RA
2026-04-30 20:56:00,METAR TJSJ 302056Z 09008KT 10SM -RA SCT039 SCT055 BKN075 27/24 A2986 RMK AO2 SLP112 P0001 60001 T02670239 55004 $,0,8.0,0,16090,0,0,0,-RA
2026-04-30 19:56:00,METAR TJSJ 301956Z 06012KT 10SM -RA SCT039 BKN055 27/23 A2985 RMK AO2 RAB09 SLP108 VCSH SE SW P0000 T02670233 $,0,12.0,0,16090,0,0,0,"-RA,SH,VC"
2026-04-30 18:56:00,METAR TJSJ 301856Z 07014KT 10SM FEW029 SCT039 BKN060 28/23 A2987 RMK AO2 SLP113 VCSH SE T02830228 $,0,14.0,0,16090,0,0,0,"SH,VC"
2026-04-30 17:56:00,METAR TJSJ 301756Z 05010KT 10SM SCT029 BKN036 OVC060 29/23 A2988 RMK AO2 RAB18E27 SLP115 P0000 60000 T02890233 10317 20261 56014 $,0,10.0,0,16090,0,0,0,RA
2026-04-30 16:56:00,METAR TJSJ 301656Z 07015KT 10SM SCT033 BKN090 29/23 A2989 RMK AO2 SLP119 T02890233 $,0,15.0,0,16090,0,0,0,
2026-04-30 15:56:00,METAR TJSJ 301556Z 10009KT 10SM FEW028 SCT040 SCT085 31/23 A2990 RMK AO2 SLP122 T03060228,0,9.0,0,16090,0,0,0,
2026-04-30 14:56:00,METAR TJSJ 301456Z 13005KT 10SM FEW033 SCT080 30/21 A2992 RMK AO2 SLP129 T03000211 58002,0,5.0,0,16090,0,0,0,
2026-04-30 13:56:00,METAR TJSJ 301356Z 11005KT 10SM FEW025 SCT075 29/22 A2993 RMK AO2 SLP134 T02890217,0,5.0,0,16090,0,0,0,
2026-04-30 12:56:00,METAR TJSJ 301256Z 11004KT 10SM FEW028 BKN080 27/22 A2993 RMK AO2 SLP135 T02720222,0,4.0,0,16090,0,0,0,
2026-04-30 11:56:00,METAR TJSJ 301156Z 00000KT 10SM FEW026 BKN080 26/23 A2992 RMK AO2 SLP131 70071 T02610228 10261 20244 53015,0,0.0,0,16090,0,0,0,
2026-04-30 10:56:00,METAR TJSJ 301056Z 00000KT 10SM FEW026 BKN080 25/23 A2990 RMK AO2 SLP123 T02500228 $,0,0.0,0,16090,0,0,0,
2026-04-30 09:56:00,METAR TJSJ 300956Z 00000KT 10SM FEW024 BKN085 25/23 A2989 RMK AO2 SLP119 T02500228 $,0,0.0,0,16090,0,0,0,
2026-04-30 08:56:00,METAR TJSJ 300856Z 13003KT 10SM FEW035 BKN085 25/23 A2988 RMK AO2 SLP116 T02500228 55007 $,0,3.0,0,16090,0,0,0,
2026-04-30 07:56:00,METAR TJSJ 300756Z 00000KT 10SM BKN085 25/23 A2987 RMK AO2 SLP112 T02500228 $,0,0.0,0,16090,0,0,0,
2026-04-30 06:56:00,METAR TJSJ 300656Z 00000KT 10SM FEW025 BKN085 26/23 A2987 RMK AO2 SLP115 T02560233 $,0,0.0,0,16090,0,0,0,
2026-04-30 05:56:00,METAR TJSJ 300556Z 00000KT 10SM FEW020 SCT060 BKN085 26/23 A2990 RMK AO2 SLP123 T02560233 10267 20256 58018 $,0,0.0,0,16090,0,0,0,
2026-04-30 04:56:00,METAR TJSJ 300456Z 00000KT 10SM FEW019 SCT060 BKN085 26/23 A2992 RMK AO2 SLP131 T02610233 $,0,0.0,0,16090,0,0,0,
2026-04-30 03:56:00,METAR TJSJ 300356Z 00000KT 10SM FEW040 SCT070 BKN085 26/23 A2993 RMK AO2 SLP134 T02610233 402940239 $,0,0.0,0,16090,0,0,0,
2026-04-30 02:56:00,METAR TJSJ 300256Z 00000KT 10SM FEW032 SCT055 BKN085 26/23 A2995 RMK AO2 SLP141 T02610228 51009 $,0,0.0,0,16090,0,0,0,
2026-04-30 01:56:00,METAR TJSJ 300156Z 11004KT 10SM FEW031 BKN085 26/23 A2994 RMK AO2 SLP138 T02610233 $,0,4.0,0,16090,0,0,0,
2026-04-30 00:56:00,METAR TJSJ 300056Z 00000KT 10SM SCT031 BKN075 27/23 A2993 RMK AO2 SLP136 T02670233 $,0,0.0,0,16090,0,0,0,
2026-04-29 23:56:00,METAR TJSJ 292356Z 09004KT 10SM SCT033 BKN060 27/23 A2992 RMK AO2 SLP132 60021 T02670228 10278 20244 53013 $,0,4.0,0,16090,0,0,0,
2026-04-29 22:56:00,METAR TJSJ 292256Z 09008KT 10SM FEW035 SCT055 BKN100 27/23 A2990 RMK AO2 RAB33E43 SLP124 SHRA DSNT NW P0000 T02670228 $,0,8.0,0,16090,0,0,0,"DS,RA,SH"
2026-04-29 21:56:00,METAR TJSJ 292156Z 08008KT 10SM FEW035 SCT050 BKN070 27/23 A2990 RMK AO2 SLP124 T02720233 $,0,8.0,0,16090,0,0,0,
2026-04-29 20:56:00,METAR TJSJ 292056Z 06006KT 10SM FEW028 SCT055 BKN100 28/23 A2989 RMK AO2 SLP119 60021 T02780233 55017 $,0,6.0,0,16090,0,0,0,
2026-04-29 19:56:00,METAR TJSJ 291956Z 07005KT 10SM FEW034 FEW065 BKN100 27/22 A2988 RMK AO2 SLP117 SHRA DSNT W T02720222 $,0,5.0,0,16090,0,0,0,"DS,RA,SH"
2026-04-29 18:56:00,METAR TJSJ 291856Z 08007KT 10SM FEW031 SCT055 BKN090 27/23 A2990 RMK AO2 RAE31 SLP122 SHRA DSNT W P0021 T02670228 $,0,7.0,0,16090,0,0,0,"DS,RA,SH"
2026-04-29 18:08:00,SPECI TJSJ 291808Z 06006KT 6SM RA BR FEW034 SCT042 OVC060 25/23 A2993 RMK AO2 VIS E 2 P0018 T02500228 $,0,6.0,0,9654,0,0,1,"BR,RA"
2026-04-29 17:56:00,METAR TJSJ 291756Z 10006KT 2 1/2SM +RA FEW028 SCT042 OVC060 25/23 A2994 RMK AO2 RAB02 SLP136 P0042 60050 T02500228 10294 20250 58008 $,0,6.0,0,4022,0,1,0,+RA
2026-04-29 17:46:00,SPECI TJSJ 291746Z 11009KT 2SM +RA FEW028 SCT042 BKN060 26/23 A2994 RMK AO2 RAB02 P0025 T02560228 $,0,9.0,0,3218,0,1,0,+RA
2026-04-29 16:56:00,METAR TJSJ 291656Z 00000KT 10SM FEW023 SCT032 BKN100 28/23 A2994 RMK AO2 SLP138 VCSH S-SW T02830233 $,0,0.0,0,16090,0,0,0,"SH,VC"
2026-04-29 15:56:00,METAR TJSJ 291556Z 06009KT 10SM FEW023 SCT032 BKN090 28/24 A2996 RMK AO2 RAE35 SLP142 VCSH S-SW P0008 T02780239 $,0,9.0,0,16090,0,0,0,"SH,VC"
2026-04-29 14:56:00,METAR TJSJ 291456Z 09009KT 9SM -RA FEW025 SCT034 BKN065 28/23 A2996 RMK AO2 RAB55 SLP145 P0000 60000 T02830233 50003 $,0,9.0,0,14481,0,0,0,-RA
2026-04-29 13:56:00,METAR TJSJ 291356Z 06007KT 10SM FEW022 SCT027 SCT090 29/24 A2997 RMK AO2 SLP146 T02890239 $,0,7.0,0,16090,0,0,0,
2026-04-29 12:56:00,METAR TJSJ 291256Z 08006KT 10SM FEW020 SCT085 28/23 A2997 RMK AO2 SLP147 T02780233 $,0,6.0,0,16090,0,0,0,
2026-04-29 11:56:00,METAR TJSJ 291156Z 12003KT 10SM FEW025 SCT080 26/23 A2995 RMK AO2 SLP142 SHRA DSNT N 70120 T02610228 10261 20239 51014 $,0,3.0,0,16090,0,0,0,"DS,RA,SH"
2026-04-29 10:56:00,METAR TJSJ 291056Z 00000KT 10SM FEW025 SCT075 24/23 A2994 RMK AO2 SLP138 T02440233 $,0,0.0,0,16090,0,0,0,
2026-04-29 09:56:00,METAR TJSJ 290956Z 00000KT 10SM SCT032 BKN070 24/23 A2993 RMK AO2 SLP133 T02440233 $,0,0.0,0,16090,0,0,0,
2026-04-29 08:56:00,METAR TJSJ 290856Z 00000KT 10SM SCT032 BKN065 24/23 A2991 RMK AO2 SLP128 T02390228 55010 $,0,0.0,0,16090,0,0,0,
2026-04-29 07:56:00,METAR TJSJ 290756Z 00000KT 10SM SCT032 BKN065 24/23 A2991 RMK AO2 SLP127 T02440233 $,0,0.0,0,16090,0,0,0,
2026-04-29 06:56:00,METAR TJSJ 290656Z 00000KT 10SM SCT032 BKN060 24/23 A2993 RMK AO2 SLP132 T02440233 $,0,0.0,0,16090,0,0,0,
2026-04-29 05:56:00,METAR TJSJ 290556Z 00000KT 10SM FEW050 24/23 A2994 RMK AO2 SLP138 T02440233 10256 20244 58017 $,0,0.0,0,16090,0,0,0,
2026-04-29 04:56:00,METAR TJSJ 290456Z 00000KT 10SM SCT027 SCT080 25/24 A2997 RMK AO2 SLP146 T02500239 $,0,0.0,0,16090,0,0,0,
2026-04-29 03:56:00,METAR TJSJ 290356Z 00000KT 10SM SCT030 SCT080 25/24 A2999 RMK AO2 SLP153 T02500239 403110244 $,0,0.0,0,16090,0,0,0,
2026-04-29 02:56:00,METAR TJSJ 290256Z 00000KT 10SM FEW033 26/24 A2999 RMK AO2 SLP155 T02560239 50008 $,0,0.0,0,16090,0,0,0,
2026-04-29 01:56:00,METAR TJSJ 290156Z 00000KT 10SM FEW022 SCT060 BKN085 25/24 A3000 RMK AO2 SLP157 T02500239 $,0,0.0,0,16090,0,0,0,
2026-04-29 00:56:00,METAR TJSJ 290056Z 00000KT 10SM FEW022 SCT060 BKN080 25/24 A2999 RMK AO2 SLP153 T02500239 $,0,0.0,0,16090,0,0,0,
2026-04-28 23:56:00,METAR TJSJ 282356Z 00000KT 10SM FEW020 BKN085 25/23 A2997 RMK AO2 RAE19 SLP147 P0001 60021 T02500233 10261 20244 58000 $,0,0.0,0,16090,0,0,0,
2026-04-28 22:56:00,METAR TJSJ 282256Z 00000KT 9SM -RA FEW026 BKN060 OVC120 26/23 A2997 RMK AO2 SLP147 P0001 T02560233 $,0,0.0,0,14481,0,0,0,-RA
2026-04-28 21:56:00,METAR TJSJ 282156Z 18003KT 9SM -RA SCT019 SCT090 BKN110 25/24 A2998 RMK AO2 SLP150 P0006 T02500239 $,0,3.0,0,14481,0,0,0,-RA
2026-04-28 20:56:00,METAR TJSJ 282056Z 23004KT 9SM -RA SCT024 BKN060 OVC095 25/24 A2997 RMK AO2 SLP147 P0008 60013 T02500239 55000 $,0,4.0,0,14481,0,0,0,-RA
2026-04-28 19:56:00,METAR TJSJ 281956Z 00000KT 9SM -RA SCT020 BKN060 BKN110 26/23 A2997 RMK AO2 SLP147 P0003 T02560233 $,0,0.0,0,14481,0,0,0,-RA
2026-04-28 18:56:00,METAR TJSJ 281856Z 14003KT 9SM -RA SCT020 BKN065 BKN095 24/23 A2997 RMK AO2 SLP147 P0002 T02440228 $,0,3.0,0,14481,0,0,0,-RA
2026-04-28 18:53:00,SPECI TJSJ 281853Z 12003KT 6SM -RA BR SCT022 BKN050 BKN080 24/23 A2997 RMK AO2 P0002 $,0,3.0,0,9654,0,0,1,"-RA,BR"
2026-04-28 17:56:00,METAR TJSJ 281756Z 09013KT 9SM -RA BKN026 BKN048 OVC120 26/24 A2999 RMK AO2 RAB08 SLP153 P0099 60099 T02560239 10311 20244 56013 $,0,13.0,0,14481,0,0,0,-RA
2026-04-28 17:29:00,SPECI TJSJ 281729Z 10009KT 3/4SM +RA BR SCT017 BKN026 OVC037 26/24 A3000 RMK AO2 RAB08 P0036 T02560244 $,0,9.0,0,1207,0,1,1,"+RA,BR"
2026-04-28 17:20:00,SPECI TJSJ 281720Z 11009G16KT 1SM +RA BR SCT019 BKN037 BKN048 27/24 A3000 RMK AO2 RAB08 P0017 T02670244 $,0,9.0,1,1609,0,1,1,"+RA,BR"
2026-04-28 16:56:00,METAR TJSJ 281656Z 05009G17KT 10SM SCT034 SCT120 31/23 A3000 RMK AO2 SLP156 VCSH SE-S T03060228 $,0,9.0,1,16090,0,0,0,"SH,VC"
2026-04-28 15:56:00,METAR TJSJ 281556Z 01006KT 10SM SCT023 SCT120 30/23 A3001 RMK AO2 SLP162 VCSH SE T03000233 $,0,6.0,0,16090,0,0,0,"SH,VC"
2026-04-28 14:56:00,METAR TJSJ 281456Z 03007KT 10SM SCT027 SCT120 29/23 A3003 RMK AO2 SLP166 T02890233 51007 $,0,7.0,0,16090,0,0,0,
2026-04-28 13:56:00,METAR TJSJ 281356Z 01005KT 10SM FEW025 BKN075 28/23 A3002 RMK AO2 SLP166 T02830228 $,0,5.0,0,16090,0,0,0,
2026-04-28 12:56:00,METAR TJSJ 281256Z 04003KT 10SM FEW025 BKN075 28/23 A3001 RMK AO2 SLP162 T02780228 $,0,3.0,0,16090,0,0,0,
2026-04-28 11:56:00,METAR TJSJ 281156Z 00000KT 10SM FEW025 BKN075 27/23 A3000 RMK AO2 SLP159 70015 T02720228 10272 20256 51018 $,0,0.0,0,16090,0,0,0,
2026-04-28 10:56:00,METAR TJSJ 281056Z 00000KT 10SM FEW023 BKN075 26/23 A2999 RMK AO2 SLP156 T02610233 $,0,0.0,0,16090,0,0,0,
2026-04-28 09:56:00,METAR TJSJ 280956Z COR 00000KT 10SM FEW025 SCT040 OVC060 26/23 A2997 RMK AO2 SLP148 T02610233 $,0,0.0,0,16090,0,0,0,
2026-04-28 08:56:00,METAR TJSJ 280856Z 00000KT 10SM FEW034 SCT060 26/23 A2995 RMK AO2 SLP142 T02560233 55003 $,0,0.0,0,16090,0,0,0,
2026-04-28 07:56:00,METAR TJSJ 280756Z 00000KT 10SM FEW030 26/23 A2994 RMK AO2 SLP138 T02610233 $,0,0.0,0,16090,0,0,0,
2026-04-28 06:56:00,METAR TJSJ 280656Z 00000KT 10SM FEW030 FEW060 26/23 A2995 RMK AO2 SLP140 T02610233 $,0,0.0,0,16090,0,0,0,
2026-04-28 05:56:00,METAR TJSJ 280556Z 00000KT 10SM FEW025 SCT065 26/23 A2996 RMK AO2 SLP144 T02610233 10272 20256 58021 $,0,0.0,0,16090,0,0,0,
2026-04-28 04:56:00,METAR TJSJ 280456Z 00000KT 10SM FEW025 SCT065 26/23 A2999 RMK AO2 SLP153 T02560228 $,0,0.0,0,16090,0,0,0,
2026-04-28 03:56:00,METAR TJSJ 280356Z 09004KT 10SM FEW028 SCT065 26/23 A3002 RMK AO2 SLP164 T02560233 403000250 $,0,4.0,0,16090,0,0,0,
2026-04-28 02:56:00,METAR TJSJ 280256Z 22003KT 10SM FEW028 SCT055 27/23 A3002 RMK AO2 SLP166 T02720228 51010 $,0,3.0,0,16090,0,0,0,
2026-04-28 01:56:00,METAR TJSJ 280156Z 00000KT 10SM FEW036 27/23 A3002 RMK AO2 SLP166 T02720228 $,0,0.0,0,16090,0,0,0,
2026-04-28 00:56:00,METAR TJSJ 280056Z 00000KT 10SM FEW036 27/23 A3000 RMK AO2 SLP159 T02720233 $,0,0.0,0,16090,0,0,0,
2026-04-27 23:56:00,METAR TJSJ 272356Z 13003KT 10SM FEW030 SCT065 27/23 A2999 RMK AO2 SLP155 60005 T02720228 10289 20256 53014 $,0,3.0,0,16090,0,0,0,
2026-04-27 22:56:00,METAR TJSJ 272256Z 00000KT 10SM FEW025 SCT060 BKN080 28/23 A2998 RMK AO2 SLP149 T02780228 $,0,0.0,0,16090,0,0,0,
2026-04-27 21:56:00,METAR TJSJ 272156Z 11005KT 10SM SCT033 BKN065 BKN080 28/24 A2997 RMK AO2 RAB06E29 SLP146 VCSH NW P0005 T02830239 $,0,5.0,0,16090,0,0,0,"RA,SH,VC"
2026-04-27 20:56:00,METAR TJSJ 272056Z 07010KT 10SM SCT035 SCT045 BKN080 28/24 A2995 RMK AO2 SLP141 VCSH S 60000 T02830244 55007 $,0,10.0,0,16090,0,0,0,"SH,VC"
2026-04-27 19:56:00,METAR TJSJ 271956Z 09009KT 10SM FEW032 SCT060 BKN110 27/23 A2995 RMK AO2 RAE32 SLP141 VCSH SW-W P0000 T02720233 $,0,9.0,0,16090,0,0,0,"SH,VC"
2026-04-27 18:56:00,METAR TJSJ 271856Z VRB04KT 9SM -RA SCT032 BKN065 BKN085 27/23 A2996 RMK AO2 RAB52 SLP143 P0000 T02670228 $,0,4.0,0,14481,0,0,0,-RA
2026-04-27 17:56:00,METAR TJSJ 271756Z 11010G19KT 10SM SCT025 SCT038 BKN065 26/22 A2997 RMK AO2 RAB19E51 SLP148 VCSH SE S SW-W P0001 60010 T02560222 10300 20256 58011 $,0,10.0,1,16090,0,0,0,"RA,SH,VC"
2026-04-27 16:56:00,METAR TJSJ 271656Z 07012KT 10SM SCT020 SCT046 BKN055 28/24 A2998 RMK AO2 RAB1559E47 SLP151 VCSH SE S W P0009 T02780244 $,0,12.0,0,16090,0,0,0,"RA,SH,VC"
2026-04-27 15:56:00,METAR TJSJ 271556Z 08017KT 10SM SCT018 SCT045 BKN060 29/24 A3000 RMK AO2 RAB17E30 SLP158 VCSH SE-SW P0000 T02890239 $,0,17.0,0,16090,0,0,0,"RA,SH,VC"
2026-04-27 14:56:00,METAR TJSJ 271456Z 04010KT 10SM SCT040 SCT055 BKN070 29/24 A3000 RMK AO2 SLP159 T02940239 50004 $,0,10.0,0,16090,0,0,0,
2026-04-27 13:56:00,METAR TJSJ 271356Z 04008KT 10SM SCT028 SCT120 29/23 A3001 RMK AO2 SLP161 T02890233 $,0,8.0,0,16090,0,0,0,
2026-04-27 12:56:00,METAR TJSJ 271256Z VRB04KT 10SM FEW028 SCT120 28/23 A3001 RMK AO2 SLP160 T02780228 $,0,4.0,0,16090,0,0,0,
2026-04-27 11:56:00,METAR TJSJ 271156Z 00000KT 10SM FEW065 SCT120 27/23 A2999 RMK AO2 SLP155 T02670228 10267 20250 53021 $,0,0.0,0,16090,0,0,0,
2026-04-27 10:56:00,METAR TJSJ 271056Z 00000KT 10SM FEW065 SCT150 26/23 A2997 RMK AO2 SLP146 T02560228 $,0,0.0,0,16090,0,0,0,
2026-04-27 09:56:00,METAR TJSJ 270956Z 00000KT 10SM FEW028 FEW065 SCT150 26/22 A2995 RMK AO2 SLP140 T02560222 $,0,0.0,0,16090,0,0,0,
2026-04-27 08:56:00,METAR TJSJ 270856Z 00000KT 10SM SCT100 26/22 A2993 RMK AO2 SLP134 T02560222 53001 $,0,0.0,0,16090,0,0,0,
2026-04-27 07:56:00,METAR TJSJ 270756Z 00000KT 10SM FEW025 FEW080 26/23 A2991 RMK AO2 SLP128 T02560228 $,0,0.0,0,16090,0,0,0,
2026-04-27 06:56:00,METAR TJSJ 270656Z 16003KT 10SM FEW080 26/22 A2991 RMK AO2 SLP128 T02560222 $,0,3.0,0,16090,0,0,0,
2026-04-27 05:56:00,METAR TJSJ 270556Z 20003KT 10SM FEW080 26/22 A2993 RMK AO2 SLP133 T02610222 10278 20256 58016 $,0,3.0,0,16090,0,0,0,
2026-04-27 04:56:00,METAR TJSJ 270456Z 00000KT 10SM FEW100 26/22 A2994 RMK AO2 SLP137 T02610222 $,0,0.0,0,16090,0,0,0,
2026-04-27 03:56:00,METAR TJSJ 270356Z 00000KT 10SM FEW035 FEW080 27/22 A2996 RMK AO2 SLP145 T02670222 $,0,0.0,0,16090,0,0,0,
2026-04-27 02:56:00,METAR TJSJ 270256Z 17003KT 10SM FEW035 27/22 A2997 RMK AO2 SLP149 T02670222 50010 $,0,3.0,0,16090,0,0,0,
2026-04-27 01:56:00,METAR TJSJ 270156Z 18004KT 10SM FEW037 27/22 A2998 RMK AO2 SLP150 T02720217 $,0,4.0,0,16090,0,0,0,
2026-04-27 00:56:00,METAR TJSJ 270056Z 17006KT 10SM FEW037 FEW060 28/22 A2997 RMK AO2 SLP146 T02780217 $,0,6.0,0,16090,0,0,0,
2026-04-26 23:56:00,METAR TJSJ 262356Z 17006KT 10SM FEW034 FEW055 28/22 A2994 RMK AO2 SLP139 T02780217 10333 20278 51025 $,0,6.0,0,16090,0,0,0,
2026-04-26 22:56:00,METAR TJSJ 262256Z 17007KT 10SM FEW028 FEW048 SCT095 29/21 A2992 RMK AO2 SLP132 T02940211 $,0,7.0,0,16090,0,0,0,
2026-04-26 20:56:00,METAR TJSJ 262056Z 16005KT 10SM FEW026 SCT040 SCT090 31/20 A2987 RMK AO2 SLP114 T03110200 55003 $,0,5.0,0,16090,0,0,0,
2026-04-26 19:56:00,METAR TJSJ 261956Z 16008G21KT 10SM FEW029 SCT040 SCT090 32/19 A2986 RMK AO2 SLP111 T03220194 $,0,8.0,1,16090,0,0,0,
2026-04-26 18:56:00,METAR TJSJ 261856Z 16009G19KT 10SM FEW033 SCT045 SCT090 33/20 A2987 RMK AO2 SLP115 T03330200 $,0,9.0,1,16090,0,0,0,
2026-04-26 17:56:00,METAR TJSJ 261756Z 13011G18KT 10SM FEW033 SCT047 BKN100 32/21 A2988 RMK AO2 SLP118 T03220206 58018 $,0,11.0,1,16090,0,0,0,
2026-04-26 16:56:00,METAR TJSJ 261656Z 06010KT 10SM FEW047 SCT055 BKN100 31/23 A2991 RMK AO2 SLP126 T03110233 $,0,10.0,0,16090,0,0,0,
2026-04-26 15:56:00,METAR TJSJ 261556Z 06011KT 10SM SCT045 BKN080 31/22 A2992 RMK AO2 SLP130 T03110222 $,0,11.0,0,16090,0,0,0,
2026-04-26 14:56:00,METAR TJSJ 261456Z 06008KT 10SM FEW038 SCT060 BKN120 30/22 A2993 RMK AO2 SLP135 T03000222 58001 $,0,8.0,0,16090,0,0,0,
2026-04-26 13:56:00,METAR TJSJ 261356Z 00000KT 10SM FEW038 SCT060 BKN100 30/21 A2994 RMK AO2 SLP139 T03000211 $,0,0.0,0,16090,0,0,0,
2026-04-26 12:56:00,METAR TJSJ 261256Z 18003KT 10SM FEW055 BKN120 28/21 A2994 RMK AO2 SLP136 T02830211 $,0,3.0,0,16090,0,0,0,
2026-04-26 11:56:00,METAR TJSJ 261156Z 19005KT 10SM FEW028 BKN120 27/21 A2994 RMK AO2 SLP136 T02720211 51013 $,0,5.0,0,16090,0,0,0,
2026-04-26 10:56:00,METAR TJSJ 261056Z 19003KT 10SM FEW025 SCT065 BKN120 26/21 A2993 RMK AO2 SLP133 T02560211 $,0,3.0,0,16090,0,0,0,
2026-04-26 09:56:00,METAR TJSJ 260956Z 00000KT 10SM FEW028 FEW065 24/21 A2991 RMK AO2 SLP128 T02440211 $,0,0.0,0,16090,0,0,0,
2026-04-26 08:56:00,METAR TJSJ 260856Z 00000KT 10SM FEW025 FEW070 25/21 A2990 RMK AO2 SLP123 T02500211 53003 $,0,0.0,0,16090,0,0,0,
2026-04-26 07:56:00,METAR TJSJ 260756Z 00000KT 10SM FEW025 FEW070 25/21 A2988 RMK AO2 SLP119 T02500211 $,0,0.0,0,16090,0,0,0,
2026-04-26 06:56:00,METAR TJSJ 260656Z 20003KT 10SM FEW028 FEW065 26/21 A2988 RMK AO2 SLP117 T02560211 $,0,3.0,0,16090,0,0,0,
2026-04-26 05:56:00,METAR TJSJ 260556Z 00000KT 10SM FEW025 FEW060 26/21 A2989 RMK AO2 SLP120 T02560211 10278 20256 58013 $,0,0.0,0,16090,0,0,0,
2026-04-26 04:56:00,METAR TJSJ 260456Z 00000KT 10SM FEW025 FEW060 26/21 A2990 RMK AO2 SLP125 T02610211 $,0,0.0,0,16090,0,0,0,
2026-04-26 03:56:00,METAR TJSJ 260356Z 18003KT 10SM FEW025 26/22 A2992 RMK AO2 SLP130 T02610217 403330244 $,0,3.0,0,16090,0,0,0,
2026-04-26 02:56:00,METAR TJSJ 260256Z VRB03KT 10SM FEW022 27/22 A2993 RMK AO2 SLP133 T02720217 51013 $,0,3.0,0,16090,0,0,0,
2026-04-26 01:56:00,METAR TJSJ 260156Z 25004KT 10SM SCT022 27/23 A2992 RMK AO2 SLP130 T02670228 $,0,4.0,0,16090,0,0,0,
2026-04-26 00:56:00,METAR TJSJ 260056Z 29006KT 10SM SCT029 27/23 A2991 RMK AO2 SLP126 T02720233 $,0,6.0,0,16090,0,0,0,
2026-04-25 23:56:00,METAR TJSJ 252356Z 30006KT 10SM SCT029 28/23 A2989 RMK AO2 SLP120 T02780228 10317 20272 53022 $,0,6.0,0,16090,0,0,0,
2026-04-25 22:56:00,METAR TJSJ 252256Z 29009KT 10SM FEW032 SCT047 SCT130 28/23 A2987 RMK AO2 SLP112 T02830228 $,0,9.0,0,16090,0,0,0,
2026-04-25 21:56:00,METAR TJSJ 252156Z 30006KT 10SM FEW032 SCT045 SCT060 29/22 A2984 RMK AO2 SLP104 T02890222 $,0,6.0,0,16090,0,0,0,
2026-04-25 20:56:00,METAR TJSJ 252056Z 32008KT 10SM FEW034 FEW050 29/22 A2982 RMK AO2 SLP098 T02940222 56009 $,0,8.0,0,16090,0,0,0,
2026-04-25 19:56:00,METAR TJSJ 251956Z 36009KT 10SM FEW034 FEW055 SCT110 31/21 A2983 RMK AO2 SLP099 T03060211 $,0,9.0,0,16090,0,0,0,
2026-04-25 18:56:00,METAR TJSJ 251856Z 34008KT 10SM FEW034 FEW055 SCT110 31/21 A2983 RMK AO2 SLP102 T03110206 $,0,8.0,0,16090,0,0,0,
2026-04-25 17:56:00,METAR TJSJ 251756Z VRB05KT 10SM FEW035 SCT060 BKN100 32/19 A2985 RMK AO2 RAB48E51 SLP107 P0000 60000 T03220189 10333 20267 58020 $,0,5.0,0,16090,0,0,0,RA
2026-04-25 16:56:00,METAR TJSJ 251656Z 16009G15KT 10SM FEW038 BKN055 BKN100 33/19 A2987 RMK AO2 SLP115 T03330194 $,0,9.0,1,16090,0,0,0,
2026-04-25 15:56:00,METAR TJSJ 251556Z 18005KT 10SM FEW033 BKN055 BKN100 31/19 A2990 RMK AO2 SLP124 T03110194 $,0,5.0,0,16090,0,0,0,
2026-04-25 14:56:00,METAR TJSJ 251456Z 17008G15KT 10SM FEW036 SCT060 BKN100 31/20 A2991 RMK AO2 SLP127 T03060200 50002 $,0,8.0,1,16090,0,0,0,
2026-04-25 13:56:00,METAR TJSJ 251356Z 15009KT 10SM FEW031 SCT060 BKN100 30/20 A2991 RMK AO2 SLP128 T03000200 $,0,9.0,0,16090,0,0,0,
2026-04-25 12:56:00,METAR TJSJ 251256Z 14006KT 10SM FEW035 SCT060 BKN120 29/21 A2991 RMK AO2 SLP127 T02890206 $,0,6.0,0,16090,0,0,0,
2026-04-25 11:56:00,METAR TJSJ 251156Z VRB03KT 10SM FEW033 SCT070 BKN120 27/21 A2990 RMK AO2 SLP125 T02670211 10267 20244 51013 $,0,3.0,0,16090,0,0,0,
2026-04-25 10:56:00,METAR TJSJ 251056Z 00000KT 10SM FEW022 SCT075 BKN120 26/21 A2990 RMK AO2 SLP122 T02560211 $,0,0.0,0,16090,0,0,0,
2026-04-25 09:56:00,METAR TJSJ 250956Z 00000KT 10SM FEW035 SCT065 24/21 A2988 RMK AO2 SLP117 T02440211 $,0,0.0,0,16090,0,0,0,
2026-04-25 08:56:00,METAR TJSJ 250856Z 19003KT 10SM SCT075 26/21 A2987 RMK AO2 SLP112 T02560211 55004 $,0,3.0,0,16090,0,0,0,
2026-04-25 07:56:00,METAR TJSJ 250756Z 17003KT 10SM FEW040 SCT060 26/21 A2986 RMK AO2 SLP111 T02560211,0,3.0,0,16090,0,0,0,
2026-04-25 06:56:00,METAR TJSJ 250656Z 18004KT 10SM FEW040 SCT060 25/21 A2986 RMK AO2 SLP112 T02500206,0,4.0,0,16090,0,0,0,
2026-04-25 05:56:00,METAR TJSJ 250556Z 19004KT 10SM FEW040 SCT055 26/20 A2988 RMK AO2 SLP116 T02560200 10261 20250 58017,0,4.0,0,16090,0,0,0,
2026-04-25 04:56:00,METAR TJSJ 250456Z VRB03KT 10SM FEW042 SCT055 BKN085 25/22 A2990 RMK AO2 SLP123 T02500217,0,3.0,0,16090,0,0,0,
2026-04-25 03:56:00,METAR TJSJ 250356Z 19004KT 10SM FEW038 SCT050 BKN080 26/22 A2992 RMK AO2 SLP132 VCSH S-SW T02610217 403060233,0,4.0,0,16090,0,0,0,"SH,VC"
2026-04-25 02:56:00,METAR TJSJ 250256Z 00000KT 10SM FEW055 26/22 A2993 RMK AO2 SLP134 T02610217 51010,0,0.0,0,16090,0,0,0,
2026-04-25 01:56:00,METAR TJSJ 250156Z 10004KT 10SM FEW060 26/22 A2993 RMK AO2 SLP133 T02560217,0,4.0,0,16090,0,0,0,
2026-04-24 23:56:00,METAR TJSJ 242356Z 09008KT 10SM FEW050 26/22 A2990 RMK AO2 SLP124 T02560222 10306 20256 53010,0,8.0,0,16090,0,0,0,
2026-04-24 22:56:00,METAR TJSJ 242256Z 10007KT 10SM FEW035 FEW050 SCT110 27/22 A2989 RMK AO2 SLP120 T02670217,0,7.0,0,16090,0,0,0,
2026-04-24 21:56:00,METAR TJSJ 242156Z 13006KT 10SM FEW031 SCT050 SCT110 29/20 A2988 RMK AO2 SLP116 SHRA DSNT NW-N T02890200,0,6.0,0,16090,0,0,0,"DS,RA,SH"
2026-04-24 20:56:00,METAR TJSJ 242056Z 13006KT 10SM FEW031 SCT043 SCT095 29/20 A2987 RMK AO2 SLP113 VCSH NW T02940200 55011,0,6.0,0,16090,0,0,0,"SH,VC"
2026-04-24 19:56:00,METAR TJSJ 241956Z 07017KT 10SM SCT032 SCT055 SCT095 29/22 A2986 RMK AO2 SLP112 VCSH SW-NW T02890217,0,17.0,0,16090,0,0,0,"SH,VC"
2026-04-24 18:56:00,METAR TJSJ 241856Z 07016G26KT 10SM FEW040 SCT060 SCT130 29/22 A2988 RMK AO2 PK WND 06026/1850 SLP116 SHRA DSNT W T02940217,0,16.0,1,16090,0,0,0,"DS,RA,SH"
2026-04-24 17:56:00,METAR TJSJ 241756Z 07016G23KT 10SM FEW032 SCT040 SCT075 30/22 A2990 RMK AO2 SLP124 SHRA DSNT SW T03000217 10300 20256 58019,0,16.0,1,16090,0,0,0,"DS,RA,SH"
2026-04-24 16:56:00,METAR TJSJ 241656Z 07016G27KT 10SM SCT045 SCT060 29/21 A2993 RMK AO2 PK WND 06027/1655 SLP133 T02940211,0,16.0,1,16090,0,0,0,
2026-04-24 15:56:00,METAR TJSJ 241556Z 04012KT 10SM FEW035 SCT045 SCT150 29/22 A2995 RMK AO2 SLP139 T02890217,0,12.0,0,16090,0,0,0,
2026-04-24 14:56:00,METAR TJSJ 241456Z 05010KT 10SM FEW035 SCT041 SCT150 29/21 A2996 RMK AO2 SLP143 T02890211 58001,0,10.0,0,16090,0,0,0,
2026-04-24 13:56:00,METAR TJSJ 241356Z 11004KT 10SM FEW035 SCT150 28/18 A2997 RMK AO2 SLP148 T02830178,0,4.0,0,16090,0,0,0,
2026-04-24 12:56:00,METAR TJSJ 241256Z 00000KT 10SM FEW035 SCT150 27/19 A2997 RMK AO2 SLP147 T02670194,0,0.0,0,16090,0,0,0,
2026-04-24 11:56:00,METAR TJSJ 241156Z 00000KT 10SM FEW028 SCT150 26/20 A2996 RMK AO2 SLP144 T02560200 10256 20233 52016,0,0.0,0,16090,0,0,0,
2026-04-24 10:56:00,METAR TJSJ 241056Z 00000KT 10SM FEW028 SCT150 24/20 A2994 RMK AO2 SLP139 T02390200,0,0.0,0,16090,0,0,0,
2026-04-24 09:56:00,METAR TJSJ 240956Z 00000KT 10SM SCT028 SCT090 23/19 A2993 RMK AO2 SLP133 T02330194,0,0.0,0,16090,0,0,0,
2026-04-24 08:56:00,METAR TJSJ 240856Z 00000KT 10SM CLR 23/20 A2991 RMK AO2 SLP128 T02330200 55004,0,0.0,0,16090,0,0,0,
2026-04-24 07:56:00,METAR TJSJ 240756Z 17004KT 10SM CLR 23/20 A2990 RMK AO2 SLP123 T02330200,0,4.0,0,16090,0,0,0,
2026-04-24 06:56:00,METAR TJSJ 240656Z 21003KT 10SM FEW025 24/19 A2990 RMK AO2 SLP125 T02390194,0,3.0,0,16090,0,0,0,
2026-04-24 05:56:00,METAR TJSJ 240556Z 00000KT 10SM FEW028 25/19 A2992 RMK AO2 SLP132 T02500194 10256 20250 58012,0,0.0,0,16090,0,0,0,
2026-04-24 04:56:00,METAR TJSJ 240456Z 17003KT 10SM FEW025 25/20 A2994 RMK AO2 SLP137 T02500200,0,3.0,0,16090,0,0,0,
2026-04-24 03:56:00,METAR TJSJ 240356Z 12004KT 10SM FEW033 25/20 A2996 RMK AO2 SLP143 T02500200 402940228,0,4.0,0,16090,0,0,0,
2026-04-24 02:56:00,METAR TJSJ 240256Z 11004KT 10SM FEW033 26/20 A2996 RMK AO2 SLP144 T02560200 51009,0,4.0,0,16090,0,0,0,
2026-04-24 01:56:00,METAR TJSJ 240156Z 11005KT 10SM FEW047 26/20 A2995 RMK AO2 SLP142 T02560200,0,5.0,0,16090,0,0,0,
2026-04-24 00:56:00,METAR TJSJ 240056Z 09007KT 10SM SCT047 26/20 A2994 RMK AO2 SLP138 T02560200,0,7.0,0,16090,0,0,0,
2026-04-23 23:56:00,METAR TJSJ 232356Z 09008KT 10SM SCT050 SCT100 26/20 A2993 RMK AO2 SLP134 T02560200 10294 20256 53014,0,8.0,0,16090,0,0,0,
2026-04-23 22:56:00,METAR TJSJ 232256Z 09009KT 10SM SCT050 SCT150 26/21 A2992 RMK AO2 SLP129 SHRA DSNT W T02610206,0,9.0,0,16090,0,0,0,"DS,RA,SH"
2026-04-23 21:56:00,METAR TJSJ 232156Z 05010KT 10SM SCT045 SCT150 27/20 A2990 RMK AO2 SLP124 SHRA DSNT W T02670200,0,10.0,0,16090,0,0,0,"DS,RA,SH"
2026-04-23 20:56:00,METAR TJSJ 232056Z 07010KT 10SM FEW043 SCT150 27/20 A2989 RMK AO2 SLP120 SHRA DSNT W T02720200 56012,0,10.0,0,16090,0,0,0,"DS,RA,SH"
2026-04-23 19:56:00,METAR TJSJ 231956Z 05012KT 10SM FEW040 SCT150 28/19 A2989 RMK AO2 SLP121 T02780194,0,12.0,0,16090,0,0,0,
2026-04-23 18:56:00,METAR TJSJ 231856Z 05012KT 10SM FEW040 SCT130 28/19 A2991 RMK AO2 SLP126 T02830189,0,12.0,0,16090,0,0,0,
2026-04-23 17:56:00,METAR TJSJ 231756Z 06010G23KT 10SM FEW038 SCT110 29/20 A2993 RMK AO2 SLP132 T02890200 10294 20261 58017,0,10.0,1,16090,0,0,0,
2026-04-23 16:56:00,METAR TJSJ 231656Z 05010G18KT 10SM FEW038 SCT110 29/19 A2994 RMK AO2 SLP139 T02890194,0,10.0,1,16090,0,0,0,
2026-04-23 15:56:00,METAR TJSJ 231556Z 03010G17KT 10SM FEW035 SCT110 28/20 A2996 RMK AO2 SLP145 T02830200,0,10.0,1,16090,0,0,0,
2026-04-23 14:56:00,METAR TJSJ 231456Z 05009KT 10SM FEW032 SCT100 29/19 A2998 RMK AO2 SLP149 T02890194 50002,0,9.0,0,16090,0,0,0,
2026-04-23 13:56:00,METAR TJSJ 231356Z VRB03KT 10SM FEW032 SCT100 27/19 A2998 RMK AO2 SLP151 T02720189,0,3.0,0,16090,0,0,0,
2026-04-23 12:56:00,METAR TJSJ 231256Z 11005KT 10SM FEW030 SCT100 27/19 A2998 RMK AO2 SLP150 T02720194,0,5.0,0,16090,0,0,0,
2026-04-23 11:56:00,METAR TJSJ 231156Z 00000KT 10SM FEW033 SCT100 26/19 A2997 RMK AO2 SLP147 T02560189 10256 20228 51017,0,0.0,0,16090,0,0,0,
2026-04-23 09:56:00,METAR TJSJ 230956Z 00000KT 10SM FEW030 SCT060 SCT095 23/19 A2994 RMK AO2 SLP137 T02280189,0,0.0,0,16090,0,0,0,
2026-04-23 08:56:00,METAR TJSJ 230856Z 00000KT 10SM FEW060 23/19 A2992 RMK AO2 SLP130 T02280189 55005,0,0.0,0,16090,0,0,0,
2026-04-23 07:56:00,METAR TJSJ 230756Z 00000KT 10SM FEW031 SCT080 23/19 A2992 RMK AO2 SLP129 T02330189,0,0.0,0,16090,0,0,0,
2026-04-23 06:56:00,METAR TJSJ 230656Z 00000KT 10SM FEW040 SCT060 24/19 A2992 RMK AO2 SLP130 T02390194,0,0.0,0,16090,0,0,0,
2026-04-23 05:56:00,METAR TJSJ 230556Z 00000KT 10SM FEW050 SCT070 24/19 A2993 RMK AO2 SLP135 T02390194 10256 20239 58018,0,0.0,0,16090,0,0,0,
2026-04-23 04:56:00,METAR TJSJ 230456Z 00000KT 10SM FEW045 24/19 A2995 RMK AO2 SLP142 T02440194,0,0.0,0,16090,0,0,0,
2026-04-23 03:56:00,METAR TJSJ 230356Z 15003KT 10SM FEW060 SCT095 25/19 A2998 RMK AO2 SLP150 T02500189 402940233,0,3.0,0,16090,0,0,0,
2026-04-23 02:56:00,METAR TJSJ 230256Z 00000KT 10SM FEW038 SCT060 25/19 A2999 RMK AO2 SLP154 T02500194 51011,0,0.0,0,16090,0,0,0,
2026-04-23 01:56:00,METAR TJSJ 230156Z 11003KT 10SM FEW060 26/19 A2998 RMK AO2 SLP152 T02560194,0,3.0,0,16090,0,0,0,
2026-04-23 00:56:00,METAR TJSJ 230056Z 07007KT 10SM FEW060 26/19 A2997 RMK AO2 SLP146 T02560194,0,7.0,0,16090,0,0,0,
2026-04-22 23:56:00,METAR TJSJ 222356Z 07006KT 10SM FEW060 SCT100 26/19 A2996 RMK AO2 SLP143 T02560194 10294 20250 53017,0,6.0,0,16090,0,0,0,
2026-04-22 22:56:00,METAR TJSJ 222256Z 07007KT 10SM FEW050 SCT130 26/19 A2993 RMK AO2 SLP135 T02610189,0,7.0,0,16090,0,0,0,
2026-04-22 21:56:00,METAR TJSJ 222156Z 07011KT 10SM FEW040 SCT150 27/19 A2991 RMK AO2 SLP128 T02670194,0,11.0,0,16090,0,0,0,
2026-04-22 20:56:00,METAR TJSJ 222056Z 07010KT 10SM FEW040 SCT150 27/19 A2991 RMK AO2 SLP125 T02720189 56012,0,10.0,0,16090,0,0,0,
2026-04-22 19:56:00,METAR TJSJ 221956Z 05011KT 10SM FEW043 FEW150 28/18 A2991 RMK AO2 SLP126 T02830178,0,11.0,0,16090,0,0,0,
2026-04-22 18:56:00,METAR TJSJ 221856Z 06010KT 10SM FEW043 FEW130 29/18 A2992 RMK AO2 SLP131 T02890183,0,10.0,0,16090,0,0,0,
2026-04-22 17:56:00,METAR TJSJ 221756Z 06013G22KT 10SM FEW045 FEW100 29/18 A2994 RMK AO2 SLP138 T02890183 10294 20256 58021,0,13.0,1,16090,0,0,0,
2026-04-22 16:56:00,METAR TJSJ 221656Z 06011KT 10SM FEW042 FEW095 29/18 A2997 RMK AO2 SLP146 T02940183,0,11.0,0,16090,0,0,0,
2026-04-22 15:56:00,METAR TJSJ 221556Z 04009G23KT 10SM FEW040 FEW090 29/18 A2999 RMK AO2 SLP153 T02890183,0,9.0,1,16090,0,0,0,
2026-04-22 14:56:00,METAR TJSJ 221456Z 04009KT 10SM FEW040 FEW090 29/18 A3000 RMK AO2 SLP159 T02890183 50004,0,9.0,0,16090,0,0,0,
2026-04-22 13:56:00,METAR TJSJ 221356Z 03010KT 10SM FEW038 28/18 A3001 RMK AO2 SLP161 T02830183,0,10.0,0,16090,0,0,0,
2026-04-22 12:56:00,METAR TJSJ 221256Z 07006KT 10SM SCT035 27/19 A3000 RMK AO2 SLP158 T02720194,0,6.0,0,16090,0,0,0,
2026-04-22 11:56:00,METAR TJSJ 221156Z VRB03KT 10SM FEW033 FEW080 26/19 A2999 RMK AO2 SLP154 T02560194 10261 20233 53014 $,0,3.0,0,16090,0,0,0,
2026-04-22 10:56:00,METAR TJSJ 221056Z 00000KT 10SM FEW033 23/20 A2997 RMK AO2 SLP149 T02330200 $,0,0.0,0,16090,0,0,0,
2026-04-22 09:56:00,METAR TJSJ 220956Z 00000KT 10SM FEW030 FEW075 24/20 A2996 RMK AO2 SLP143 T02390200 $,0,0.0,0,16090,0,0,0,
2026-04-22 08:56:00,METAR TJSJ 220856Z 00000KT 10SM FEW030 FEW050 24/20 A2995 RMK AO2 SLP141 T02390200 55006 $,0,0.0,0,16090,0,0,0,
2026-04-22 07:56:00,METAR TJSJ 220756Z 00000KT 10SM FEW030 FEW045 24/20 A2994 RMK AO2 SLP139 T02440200 $,0,0.0,0,16090,0,0,0,
2026-04-22 06:56:00,METAR TJSJ 220656Z 00000KT 10SM FEW033 FEW045 24/20 A2995 RMK AO2 SLP140 T02440200 $,0,0.0,0,16090,0,0,0,
2026-04-22 05:56:00,METAR TJSJ 220556Z 00000KT 10SM FEW028 SCT035 BKN055 24/20 A2997 RMK AO2 SLP147 T02440200 10256 20244 58013 $,0,0.0,0,16090,0,0,0,
2026-04-22 04:56:00,METAR TJSJ 220456Z 00000KT 10SM FEW028 SCT035 BKN050 25/20 A2998 RMK AO2 SLP152 T02500200 $,0,0.0,0,16090,0,0,0,
2026-04-22 03:56:00,METAR TJSJ 220356Z 12003KT 10SM FEW025 SCT034 BKN050 26/21 A3000 RMK AO2 SLP157 T02560206 403060233 $,0,3.0,0,16090,0,0,0,
2026-04-22 02:56:00,METAR TJSJ 220256Z 09004KT 10SM FEW027 SCT038 SCT065 25/21 A3000 RMK AO2 SLP159 T02500211 51013 $,0,4.0,0,16090,0,0,0,
2026-04-22 01:56:00,METAR TJSJ 220156Z 08005KT 10SM FEW030 SCT050 SCT085 24/21 A2999 RMK AO2 SLP155 T02440206 $,0,5.0,0,16090,0,0,0,
2026-04-22 00:56:00,METAR TJSJ 220056Z 09004KT 10SM FEW038 SCT065 26/21 A2999 RMK AO2 SLP153 T02560206 $,0,4.0,0,16090,0,0,0,
2026-04-21 23:56:00,METAR TJSJ 212356Z 09006KT 10SM FEW036 SCT085 26/21 A2997 RMK AO2 SLP147 T02560211 10300 20256 52015 $,0,6.0,0,16090,0,0,0,
2026-04-21 22:56:00,METAR TJSJ 212256Z 08007KT 10SM FEW060 SCT095 26/21 A2995 RMK AO2 SLP142 T02610211 $,0,7.0,0,16090,0,0,0,
2026-04-21 21:56:00,METAR TJSJ 212156Z 08010KT 10SM FEW060 SCT085 27/21 A2994 RMK AO2 SLP136 T02720211 $,0,10.0,0,16090,0,0,0,
2026-04-21 20:56:00,METAR TJSJ 212056Z 07015KT 10SM FEW060 SCT085 28/21 A2992 RMK AO2 SLP132 T02830206 55013 $,0,15.0,0,16090,0,0,0,
2026-04-21 19:56:00,METAR TJSJ 211956Z 07015KT 10SM FEW060 29/20 A2992 RMK AO2 SLP131 T02890200 $,0,15.0,0,16090,0,0,0,
2026-04-21 18:56:00,METAR TJSJ 211856Z 05013G21KT 10SM FEW040 FEW055 30/21 A2994 RMK AO2 SLP138 T03000206 $,0,13.0,1,16090,0,0,0,
2026-04-21 17:56:00,METAR TJSJ 211756Z 05013KT 10SM SCT045 29/20 A2996 RMK AO2 SLP145 T02940200 10306 20261 58020 $,0,13.0,0,16090,0,0,0,
2026-04-21 16:56:00,METAR TJSJ 211656Z 06016KT 10SM FEW035 SCT046 31/21 A2998 RMK AO2 SLP152 T03060206 $,0,16.0,0,16090,0,0,0,
2026-04-21 15:56:00,METAR TJSJ 211556Z 06014KT 10SM FEW035 SCT046 30/21 A3001 RMK AO2 SLP160 T03000206 $,0,14.0,0,16090,0,0,0,
2026-04-21 14:56:00,METAR TJSJ 211456Z 07014G19KT 10SM SCT034 29/20 A3002 RMK AO2 SLP164 T02890200 50002 $,0,14.0,1,16090,0,0,0,
2026-04-21 13:56:00,METAR TJSJ 211356Z 09013KT 10SM SCT036 SCT065 28/21 A3003 RMK AO2 SLP166 T02830206,0,13.0,0,16090,0,0,0,
2026-04-21 12:56:00,METAR TJSJ 211256Z 08012KT 10SM SCT036 SCT065 28/21 A3002 RMK AO2 SLP165 T02780206,0,12.0,0,16090,0,0,0,
2026-04-21 11:56:00,METAR TJSJ 211156Z 13004KT 10SM FEW020 FEW035 SCT060 27/20 A3001 RMK AO2 SLP163 T02670200 10267 20233 51011 $,0,4.0,0,16090,0,0,0,
2026-04-21 10:56:00,METAR TJSJ 211056Z 00000KT 10SM FEW020 SCT035 23/19 A3001 RMK AO2 SLP159 T02330194 $,0,0.0,0,16090,0,0,0,
2026-04-21 09:56:00,METAR TJSJ 210956Z 18003KT 10SM FEW021 FEW045 24/20 A3000 RMK AO2 SLP156 VCSH NE T02390200 $,0,3.0,0,16090,0,0,0,"SH,VC"
2026-04-21 08:56:00,METAR TJSJ 210856Z 19003KT 10SM CLR 24/19 A2998 RMK AO2 SLP152 T02390194 53003 $,0,3.0,0,16090,0,0,0,
2026-04-21 07:56:00,METAR TJSJ 210756Z 16003KT 10SM CLR 24/19 A2997 RMK AO2 SLP148 T02390189,0,3.0,0,16090,0,0,0,
2026-04-21 06:56:00,METAR TJSJ 210656Z 00000KT 10SM CLR 24/19 A2997 RMK AO2 SLP146 T02390194,0,0.0,0,16090,0,0,0,
2026-04-21 05:56:00,METAR TJSJ 210556Z 15003KT 10SM FEW038 24/20 A2997 RMK AO2 SLP149 60000 T02390200 10261 20239 57013,0,3.0,0,16090,0,0,0,
2026-04-21 04:56:00,METAR TJSJ 210456Z 12004KT 10SM FEW035 24/20 A2998 RMK AO2 SLP152 T02440200,0,4.0,0,16090,0,0,0,
2026-04-21 03:56:00,METAR TJSJ 210356Z 12005KT 10SM FEW030 25/20 A3000 RMK AO2 SLP159 T02500200 403060233,0,5.0,0,16090,0,0,0,
2026-04-21 02:56:00,METAR TJSJ 210256Z 12004KT 10SM FEW032 SCT060 25/21 A3001 RMK AO2 SLP162 60000 T02500206 51013,0,4.0,0,16090,0,0,0,
2026-04-21 01:56:00,METAR TJSJ 210156Z 06008KT 10SM FEW028 SCT060 24/21 A3001 RMK AO2 RAB48E55 SLP160 P0000 T02440211,0,8.0,0,16090,0,0,0,RA
2026-04-21 00:56:00,METAR TJSJ 210056Z 08006KT 10SM FEW026 SCT055 SCT085 26/21 A3000 RMK AO2 SLP156 T02560206,0,6.0,0,16090,0,0,0,
2026-04-20 23:56:00,METAR TJSJ 202356Z 11006KT 10SM FEW028 SCT060 26/20 A2998 RMK AO2 SLP150 T02610200 10300 20256 53014,0,6.0,0,16090,0,0,0,
2026-04-20 22:56:00,METAR TJSJ 202256Z 09010KT 10SM FEW034 SCT060 26/21 A2996 RMK AO2 SLP144 T02610206,0,10.0,0,16090,0,0,0,
2026-04-20 21:56:00,METAR TJSJ 202156Z 08014KT 10SM FEW029 SCT070 28/20 A2994 RMK AO2 SLP139 T02780200,0,14.0,0,16090,0,0,0,
2026-04-20 20:56:00,METAR TJSJ 202056Z 06016G22KT 10SM FEW040 SCT065 29/21 A2994 RMK AO2 SLP136 T02890206 56010,0,16.0,1,16090,0,0,0,
2026-04-20 19:56:00,METAR TJSJ 201956Z 07015KT 10SM FEW028 SCT060 29/21 A2994 RMK AO2 PK WND 06027/1901 SLP137 T02940211,0,15.0,0,16090,0,0,0,
2026-04-20 18:56:00,METAR TJSJ 201856Z 07018G24KT 10SM FEW030 SCT060 30/21 A2995 RMK AO2 PK WND 02029/1757 SLP140 T03000206,0,18.0,1,16090,0,0,0,
2026-04-20 17:56:00,METAR TJSJ 201756Z 07019G27KT 10SM FEW030 SCT040 30/21 A2997 RMK AO2 PK WND 07027/1755 SLP146 T03000211 10306 20261 58020,0,19.0,1,16090,0,0,0,
2026-04-20 16:56:00,METAR TJSJ 201656Z 06015G24KT 10SM FEW035 SCT040 30/21 A2999 RMK AO2 PK WND 04027/1604 SLP155 T03000206,0,15.0,1,16090,0,0,0,
2026-04-20 15:56:00,METAR TJSJ 201556Z 08018G21KT 10SM SCT040 30/21 A3001 RMK AO2 SLP160 T03000206,0,18.0,1,16090,0,0,0,
2026-04-20 14:56:00,METAR TJSJ 201456Z 09012G20KT 10SM FEW032 SCT040 29/20 A3002 RMK AO2 SLP166 T02940200 50000,0,12.0,1,16090,0,0,0,
2026-04-20 13:56:00,METAR TJSJ 201356Z 09012KT 10SM SCT032 29/20 A3003 RMK AO2 SLP168 T02890200,0,12.0,0,16090,0,0,0,
2026-04-20 12:56:00,METAR TJSJ 201256Z 11013KT 10SM SCT032 28/20 A3003 RMK AO2 SLP166 T02780200,0,13.0,0,16090,0,0,0,
2026-04-20 11:56:00,METAR TJSJ 201156Z 10008KT 10SM FEW025 SCT032 26/20 A3003 RMK AO2 SLP166 60000 T02610200 10261 20233 51016,0,8.0,0,16090,0,0,0,
2026-04-20 10:56:00,METAR TJSJ 201056Z 00000KT 10SM FEW028 SCT065 24/20 A3001 RMK AO2 SLP160 T02440200 $,0,0.0,0,16090,0,0,0,
2026-04-20 09:56:00,METAR TJSJ 200956Z 00000KT 10SM FEW026 FEW065 SCT080 24/20 A3000 RMK AO2 RAB36E47 SLP157 VCSH W-NW P0000 T02390200 $,0,0.0,0,16090,0,0,0,"RA,SH,VC"
2026-04-20 08:56:00,METAR TJSJ 200856Z 00000KT 10SM FEW026 FEW040 23/20 A2998 RMK AO2 SLP150 T02330200 55008 $,0,0.0,0,16090,0,0,0,
2026-04-20 07:56:00,METAR TJSJ 200756Z 14004KT 10SM FEW025 FEW036 24/20 A2997 RMK AO2 SLP148 T02390200 $,0,4.0,0,16090,0,0,0,
2026-04-20 06:56:00,METAR TJSJ 200656Z 13004KT 10SM FEW025 24/20 A2998 RMK AO2 SLP151 T02440200 $,0,4.0,0,16090,0,0,0,
2026-04-20 05:56:00,METAR TJSJ 200556Z 13003KT 10SM FEW025 24/21 A3000 RMK AO2 SLP157 60000 T02440206 10256 20244 58009 $,0,3.0,0,16090,0,0,0,
2026-04-20 04:56:00,METAR TJSJ 200456Z VRB04KT 10SM FEW023 25/21 A3001 RMK AO2 SLP162 T02500206 $,0,4.0,0,16090,0,0,0,
2026-04-20 03:56:00,METAR TJSJ 200356Z 11005KT 10SM FEW023 25/21 A3003 RMK AO2 SLP168 T02500206 403000228 $,0,5.0,0,16090,0,0,0,
2026-04-20 02:56:00,METAR TJSJ 200256Z 10006KT 10SM FEW023 26/21 A3003 RMK AO2 RAB02E11 SLP167 P0000 60000 T02560206 51015 $,0,6.0,0,16090,0,0,0,RA
2026-04-20 01:56:00,METAR TJSJ 200156Z 09006KT 10SM FEW026 26/21 A3002 RMK AO2 SLP163 T02560211 $,0,6.0,0,16090,0,0,0,
2026-04-20 00:56:00,METAR TJSJ 200056Z 09008KT 10SM FEW026 25/21 A3000 RMK AO2 SLP156 T02500211 $,0,8.0,0,16090,0,0,0,
2026-04-19 23:56:00,METAR TJSJ 192356Z 10008KT 10SM FEW030 FEW050 FEW090 26/20 A2998 RMK AO2 RAB37E46 SLP152 P0000 60000 T02560200 10300 20256 53015 $,0,8.0,0,16090,0,0,0,RA
2026-04-19 22:56:00,METAR TJSJ 192256Z 09009KT 10SM SCT030 SCT085 27/20 A2996 RMK AO2 SLP143 VCSH SE T02670200 $,0,9.0,0,16090,0,0,0,"SH,VC"
2026-04-19 21:56:00,METAR TJSJ 192156Z 09015KT 10SM FEW034 FEW050 SCT100 27/21 A2994 RMK AO2 SLP139 T02720211 $,0,15.0,0,16090,0,0,0,
2026-04-19 20:56:00,METAR TJSJ 192056Z 08014G21KT 10SM FEW045 28/21 A2994 RMK AO2 PK WND 08026/2006 SLP137 T02830206 56007 $,0,14.0,1,16090,0,0,0,
2026-04-19 19:56:00,METAR TJSJ 191956Z 08017KT 10SM SCT043 29/21 A2994 RMK AO2 PK WND 06026/1953 SLP137 VCSH W T02890211 $,0,17.0,0,16090,0,0,0,"SH,VC"
2026-04-19 18:56:00,METAR TJSJ 191856Z 08018G24KT 10SM SCT040 29/21 A2994 RMK AO2 PK WND 08027/1822 SLP139 VCSH W T02940211 $,0,18.0,1,16090,0,0,0,"SH,VC"
2026-04-19 17:56:00,METAR TJSJ 191756Z 08018G26KT 10SM SCT040 29/20 A2996 RMK AO2 PK WND 07026/1749 SLP144 VCSH SW-W T02940200 10300 20256 58016 $,0,18.0,1,16090,0,0,0,"SH,VC"
2026-04-19 16:56:00,METAR TJSJ 191656Z 07019G25KT 10SM FEW027CB SCT060 29/21 A2998 RMK AO2 PK WND 06027/1611 SLP151 VCSH S CB S-W-NW MOV W T02940206 $,0,19.0,1,16090,0,0,0,"SH,VC"
2026-04-19 15:56:00,METAR TJSJ 191556Z 08015G22KT 10SM FEW030CB SCT055 29/22 A2999 RMK AO2 SLP155 VCSH SW CB S-W MOV NW T02890217 $,0,15.0,1,16090,0,0,0,"SH,VC"
2026-04-19 14:56:00,METAR TJSJ 191456Z 06015G22KT 10SM FEW033 SCT055 29/21 A3001 RMK AO2 SLP160 T02890211 50006 $,0,15.0,1,16090,0,0,0,
2026-04-19 13:56:00,METAR TJSJ 191356Z 08017KT 10SM FEW028 SCT037 SCT045 28/20 A3001 RMK AO2 SLP161 VCSH SW T02780200 $,0,17.0,0,16090,0,0,0,"SH,VC"
2026-04-19 12:56:00,METAR TJSJ 191256Z 08011KT 10SM FEW033 SCT055 27/22 A3000 RMK AO2 SLP157 SHRA DSNT NE SE T02720217 $,0,11.0,0,16090,0,0,0,"DS,RA,SH"
2026-04-19 11:56:00,METAR TJSJ 191156Z 12005KT 10SM FEW029 SCT060 SCT095 26/21 A2999 RMK AO2 SLP154 60007 70023 T02560211 10261 20228 53017 $,0,5.0,0,16090,0,0,0,
2026-04-19 10:56:00,METAR TJSJ 191056Z 00000KT 10SM SCT027 BKN060 BKN080 24/22 A2997 RMK AO2 RAE07 SLP146 SHRA DSNT S P0000 T02390217 $,0,0.0,0,16090,0,0,0,"DS,RA,SH"
2026-04-19 09:56:00,METAR TJSJ 190956Z 12003KT 10SM -RA FEW025 SCT060 BKN075 23/21 A2995 RMK AO2 RAB18E37B55 SLP140 P0001 T02280211 $,0,3.0,0,16090,0,0,0,"-RA,RA"
2026-04-19 08:56:00,METAR TJSJ 190856Z 10003KT 10SM FEW025 SCT050 BKN060 23/21 A2994 RMK AO2 RAB38E55 SLP137 VCSH W P0005 60006 T02280211 55008,0,3.0,0,16090,0,0,0,"RA,SH,VC"
2026-04-19 07:56:00,METAR TJSJ 190756Z 00000KT 10SM FEW028 SCT075 23/21 A2993 RMK AO2 RAB36E49 SLP134 P0001 T02330211,0,0.0,0,16090,0,0,0,RA
2026-04-19 06:56:00,METAR TJSJ 190656Z 16003KT 10SM FEW028 SCT075 24/21 A2994 RMK AO2 SLP138 T02390211,0,3.0,0,16090,0,0,0,
2026-04-19 05:56:00,METAR TJSJ 190556Z 00000KT 10SM FEW040 FEW065 24/21 A2996 RMK AO2 SLP145 60005 T02390211 10250 20239 58009,0,0.0,0,16090,0,0,0,
2026-04-19 04:56:00,METAR TJSJ 190456Z 00000KT 10SM FEW040 FEW065 24/21 A2998 RMK AO2 SLP151 T02390211,0,0.0,0,16090,0,0,0,
2026-04-19 03:56:00,METAR TJSJ 190356Z 00000KT 10SM FEW022 FEW055 24/22 A2999 RMK AO2 SLP154 T02390217 402940228,0,0.0,0,16090,0,0,0,
2026-04-19 02:56:00,METAR TJSJ 190256Z 11004KT 10SM FEW022 SCT055 24/22 A2999 RMK AO2 RAB09E23 SLP154 P0005 60005 T02390217 51012,0,4.0,0,16090,0,0,0,RA
2026-04-19 01:56:00,METAR TJSJ 190156Z 13004KT 10SM SCT023 SCT060 25/21 A2999 RMK AO2 SLP154 T02500211,0,4.0,0,16090,0,0,0,
2026-04-19 00:56:00,METAR TJSJ 190056Z 09005KT 10SM FEW035 SCT070 24/21 A2997 RMK AO2 RAB19E33 SLP149 P0000 T02440206,0,5.0,0,16090,0,0,0,RA
2026-04-18 23:56:00,METAR TJSJ 182356Z 12009KT 10SM FEW028 SCT039 25/21 A2995 RMK AO2 SLP142 T02500206 10294 20250 51015,0,9.0,0,16090,0,0,0,
2026-04-18 22:56:00,METAR TJSJ 182256Z 10006KT 10SM FEW030 SCT055 26/21 A2994 RMK AO2 SLP138 SHRA DSNT SE T02610206,0,6.0,0,16090,0,0,0,"DS,RA,SH"
2026-04-18 21:56:00,METAR TJSJ 182156Z 08011KT 10SM FEW030 SCT055 SCT110 27/21 A2994 RMK AO2 SLP136 SHRA DSNT W T02670211,0,11.0,0,16090,0,0,0,"DS,RA,SH"
2026-04-18 20:56:00,METAR TJSJ 182056Z 10012KT 10SM FEW030 SCT043 SCT130 27/21 A2991 RMK AO2 SLP127 SHRA DSNT S-SW T02670211 58006,0,12.0,0,16090,0,0,0,"DS,RA,SH"
2026-04-18 19:56:00,METAR TJSJ 181956Z 07015KT 10SM FEW028 SCT045 BKN110 27/22 A2992 RMK AO2 PK WND 06026/1902 SLP130 SHRA DSNT S-W T02670217,0,15.0,0,16090,0,0,0,"DS,RA,SH"
2026-04-18 18:56:00,METAR TJSJ 181856Z 06012G20KT 10SM SCT028 SCT045 BKN110 28/22 A2992 RMK AO2 SLP131 VCSH S SW-W T02780217,0,12.0,1,16090,0,0,0,"SH,VC"
2026-04-18 17:56:00,METAR TJSJ 181756Z 09018KT 10SM FEW024CB SCT060 SCT095 29/21 A2993 RMK AO2 SLP134 VCSH E SW CB SW-W MOV NW 60011 T02890211 10294 20228 58016,0,18.0,0,16090,0,0,0,"SH,VC"
2026-04-18 16:56:00,METAR TJSJ 181656Z 07018G23KT 10SM FEW027CB SCT060 29/22 A2995 RMK AO2 SLP142 VCSH S-SW CB SE-SW-NW MOV NW T02940222,0,18.0,1,16090,0,0,0,"SH,VC"
2026-04-18 15:56:00,METAR TJSJ 181556Z 07014G21KT 10SM FEW038 SCT055 SCT085 29/22 A2997 RMK AO2 SLP147 VCSH S SW T02890217,0,14.0,1,16090,0,0,0,"SH,VC"
2026-04-18 14:56:00,METAR TJSJ 181456Z 07014KT 10SM FEW036 SCT065 SCT095 28/22 A2998 RMK AO2 SLP149 VCSH S SW 60011 T02830217 53003,0,14.0,0,16090,0,0,0,"SH,VC"
2026-04-18 13:56:00,METAR TJSJ 181356Z 09006KT 10SM FEW030 SCT070 BKN110 26/22 A2998 RMK AO2 RAE34 SLP149 VCSH S-W NW P0001 T02560222,0,6.0,0,16090,0,0,0,"SH,VC"
2026-04-18 12:56:00,METAR TJSJ 181256Z 10005KT 9SM -RA FEW033 SCT065 BKN100 24/22 A2996 RMK AO2 SLP145 P0010 T02440222,0,5.0,0,14481,0,0,0,-RA
2026-04-18 11:56:00,METAR TJSJ 181156Z 07009KT 8SM -RA SCT019 SCT024 BKN038 24/22 A2997 RMK AO2 RAB07E24B54 SLP146 VIS SE 1 P0000 60007 70009 T02390217 10244 20233 53019,0,9.0,0,12872,0,0,0,"-RA,RA"
2026-04-18 10:56:00,METAR TJSJ 181056Z 13004KT 10SM FEW028 SCT040 BKN055 23/21 A2994 RMK AO2 RAB14E29 SLP138 VCSH N-NE E SE NW P0002 T02330211,0,4.0,0,16090,0,0,0,"RA,SH,VC"
2026-04-18 09:56:00,METAR TJSJ 180956Z 13004KT 10SM SCT022 SCT050 BKN080 23/21 A2993 RMK AO2 SLP133 VCSH SE T02330211,0,4.0,0,16090,0,0,0,"SH,VC"
2026-04-18 08:56:00,METAR TJSJ 180856Z 15003KT 10SM CLR 23/22 A2991 RMK AO2 SLP127 60005 T02330217 55008,0,3.0,0,16090,0,0,0,
2026-04-18 07:56:00,METAR TJSJ 180756Z 12004KT 10SM FEW023 24/22 A2991 RMK AO2 RAB02E43 SLP126 P0005 T02390217,0,4.0,0,16090,0,0,0,RA
2026-04-18 06:56:00,METAR TJSJ 180656Z 00000KT 10SM FEW023 24/21 A2991 RMK AO2 SLP128 T02390211,0,0.0,0,16090,0,0,0,
2026-04-18 05:56:00,METAR TJSJ 180556Z 00000KT 10SM FEW028 24/21 A2993 RMK AO2 SLP136 60002 T02390211 10256 20239 58017,0,0.0,0,16090,0,0,0,
2026-04-18 04:56:00,METAR TJSJ 180456Z 13003KT 10SM FEW028 24/22 A2996 RMK AO2 RAB05E25 SLP146 P0001 T02440217,0,3.0,0,16090,0,0,0,RA
2026-04-18 03:56:00,METAR TJSJ 180356Z 10003KT 10SM FEW022 FEW080 25/22 A2998 RMK AO2 RAB19E31 SLP151 P0001 T02500222 403000233,0,3.0,0,16090,0,0,0,RA
2026-04-18 02:56:00,METAR TJSJ 180256Z 12004KT 10SM FEW025 FEW080 26/22 A2998 RMK AO2 RAB17E27 SLP152 P0000 60000 T02560222 50013,0,4.0,0,16090,0,0,0,RA
2026-04-18 01:56:00,METAR TJSJ 180156Z 10006KT 10SM SCT040 26/22 A2999 RMK AO2 SLP153 VCSH SW T02560222,0,6.0,0,16090,0,0,0,"SH,VC"
2026-04-18 00:56:00,METAR TJSJ 180056Z 09006KT 10SM SCT040 25/22 A2997 RMK AO2 SLP148 VCSH SW T02500222,0,6.0,0,16090,0,0,0,"SH,VC"
2026-04-17 23:56:00,METAR TJSJ 172356Z 09006KT 10SM FEW043 FEW100 26/22 A2995 RMK AO2 SLP140 T02560217 10289 20256 53013,0,6.0,0,16090,0,0,0,
2026-04-17 22:56:00,METAR TJSJ 172256Z 09009KT 10SM SCT028 SCT080 26/22 A2993 RMK AO2 SLP135 T02560217,0,9.0,0,16090,0,0,0,
2026-04-17 21:56:00,METAR TJSJ 172156Z 09009KT 10SM FEW023 SCT031 SCT100 27/22 A2991 RMK AO2 SLP129 T02670222,0,9.0,0,16090,0,0,0,
2026-04-17 20:56:00,METAR TJSJ 172056Z 11007KT 10SM SCT035 BKN100 27/22 A2991 RMK AO2 SLP127 VCSH SW NW T02720222 55009,0,7.0,0,16090,0,0,0,"SH,VC"
2026-04-17 19:56:00,METAR TJSJ 171956Z 07012KT 10SM SCT035 BKN100 27/22 A2990 RMK AO2 SLP125 VCSH S-W-NW T02720217,0,12.0,0,16090,0,0,0,"SH,VC"
2026-04-17 18:56:00,METAR TJSJ 171856Z 08014KT 10SM SCT035 BKN100 28/22 A2992 RMK AO2 SLP132 VCSH NE SW W T02780217,0,14.0,0,16090,0,0,0,"SH,VC"
2026-04-17 17:56:00,METAR TJSJ 171756Z 08013KT 10SM FEW028 SCT036 SCT080 28/22 A2994 RMK AO2 SLP136 VCSH SW-W T02830217 10300 20261 58012,0,13.0,0,16090,0,0,0,"SH,VC"
2026-04-17 16:56:00,METAR TJSJ 171656Z 09016KT 10SM FEW028 SCT036 SCT080 28/22 A2996 RMK AO2 SLP142 VCSH S-W T02830222 $,0,16.0,0,16090,0,0,0,"SH,VC"
2026-04-17 15:56:00,METAR TJSJ 171556Z 07018KT 10SM SCT026 SCT070 29/22 A2996 RMK AO2 SLP146 VCSH S-W T02890222 $,0,18.0,0,16090,0,0,0,"SH,VC"
2026-04-17 14:56:00,METAR TJSJ 171456Z 07017G24KT 10SM SCT028 SCT070 29/22 A2997 RMK AO2 SLP148 VCSH S T02940222 50007 $,0,17.0,1,16090,0,0,0,"SH,VC"
2026-04-17 13:56:00,METAR TJSJ 171356Z 08014G19KT 10SM SCT026 SCT070 28/22 A2997 RMK AO2 SLP148 T02830222 $,0,14.0,1,16090,0,0,0,
2026-04-17 12:56:00,METAR TJSJ 171256Z 08010KT 10SM FEW030 FEW080 28/23 A2996 RMK AO2 SLP145 T02780228 $,0,10.0,0,16090,0,0,0,
2026-04-17 11:56:00,METAR TJSJ 171156Z 10006KT 10SM FEW028 SCT075 27/22 A2995 RMK AO2 SLP140 60001 70001 T02670222 10267 20233 53013 $,0,6.0,0,16090,0,0,0,
2026-04-17 10:56:00,METAR TJSJ 171056Z 00000KT 10SM FEW028 SCT075 24/22 A2993 RMK AO2 SLP133 T02440217 $,0,0.0,0,16090,0,0,0,
2026-04-17 09:56:00,METAR TJSJ 170956Z 00000KT 10SM SCT030 SCT070 24/21 A2992 RMK AO2 SLP129 T02390211 $,0,0.0,0,16090,0,0,0,
2026-04-17 08:56:00,METAR TJSJ 170856Z 00000KT 10SM FEW065 23/22 A2991 RMK AO2 RAB05E17 SLP128 P0001 60001 T02330217 56010 $,0,0.0,0,16090,0,0,0,RA
2026-04-17 07:56:00,METAR TJSJ 170756Z 00000KT 10SM FEW025 24/21 A2991 RMK AO2 SLP128 T02390211 $,0,0.0,0,16090,0,0,0,
2026-04-17 06:56:00,METAR TJSJ 170656Z 09004KT 10SM FEW025 24/21 A2992 RMK AO2 SLP129 T02440211 $,0,4.0,0,16090,0,0,0,
2026-04-17 05:56:00,METAR TJSJ 170556Z 00000KT 10SM FEW045 25/22 A2994 RMK AO2 SLP137 T02500217 10256 20250 58015 $,0,0.0,0,16090,0,0,0,
2026-04-17 04:56:00,METAR TJSJ 170456Z 14003KT 10SM FEW030 SCT095 25/22 A2995 RMK AO2 SLP142 T02500217 $,0,3.0,0,16090,0,0,0,
2026-04-17 03:56:00,METAR TJSJ 170356Z 11003KT 10SM FEW028 SCT100 25/22 A2997 RMK AO2 SLP149 OCNL LTGICCG DSNT N CB DSNT N T02500217 402940239 $,0,3.0,0,16090,0,0,0,DS
2026-04-17 02:56:00,METAR TJSJ 170256Z 16003KT 10SM FEW028 25/22 A2998 RMK AO2 SLP152 T02500217 50009 $,0,3.0,0,16090,0,0,0,
2026-04-17 01:56:00,METAR TJSJ 170156Z 12004KT 10SM FEW022 FEW100 26/22 A2999 RMK AO2 SLP154 T02560217 $,0,4.0,0,16090,0,0,0,
2026-04-17 00:56:00,METAR TJSJ 170056Z 00000KT 10SM FEW090 FEW120 26/22 A2997 RMK AO2 SLP148 T02560217 $,0,0.0,0,16090,0,0,0,
2026-04-16 23:56:00,METAR TJSJ 162356Z 12003KT 10SM FEW030 FEW080 26/22 A2996 RMK AO2 SLP143 60000 T02560217 10294 20239 53008 $,0,3.0,0,16090,0,0,0,
2026-04-16 22:56:00,METAR TJSJ 162256Z 11005KT 10SM FEW030 SCT070 SCT100 26/22 A2994 RMK AO2 SLP139 T02560217 $,0,5.0,0,16090,0,0,0,
2026-04-16 21:56:00,METAR TJSJ 162156Z 10006KT 10SM FEW032 SCT070 BKN100 26/22 A2994 RMK AO2 SLP137 SHRA DSNT NW T02610217 $,0,6.0,0,16090,0,0,0,"DS,RA,SH"
2026-04-16 20:56:00,METAR TJSJ 162056Z 12004KT 10SM FEW034 SCT075 BKN100 26/22 A2993 RMK AO2 RAE04 SLP134 VCSH SE NW P0000 60000 T02610217 58007 $,0,4.0,0,16090,0,0,0,"SH,VC"
2026-04-16 19:56:00,METAR TJSJ 161956Z 10005KT 10SM -RA FEW034 SCT070 BKN110 26/21 A2995 RMK AO2 RAE18B53 SLP141 P0000 T02560211 $,0,5.0,0,16090,0,0,0,"-RA,RA"
2026-04-16 18:56:00,METAR TJSJ 161856Z 07013G22KT 6SM -RA SCT030 OVC048 24/21 A2995 RMK AO2 PK WND 07027/1842 RAB46 SLP140 P0000 T02440211 $,0,13.0,1,9654,0,0,0,-RA
2026-04-16 17:56:00,METAR TJSJ 161756Z 12007KT 10SM SCT035 BKN050 BKN090 28/21 A2995 RMK AO2 RAB15E34 SLP141 VCSH SE-S W-NW P0000 60000 T02780211 10294 20261 58019 $,0,7.0,0,16090,0,0,0,"RA,SH,VC"
2026-04-16 16:56:00,METAR TJSJ 161656Z 08011KT 10SM SCT035 BKN050 BKN095 29/22 A2997 RMK AO2 SLP147 VCSH SE-S T02890217 $,0,11.0,0,16090,0,0,0,"SH,VC"
2026-04-16 15:56:00,METAR TJSJ 161556Z 00000KT 10SM SCT032 BKN045 28/22 A2999 RMK AO2 RAE1457B27E47 SLP154 SHRA DSNT NE P0000 T02780222,0,0.0,0,16090,0,0,0,"DS,RA,SH"
2026-04-16 14:56:00,METAR TJSJ 161456Z 18005KT 10SM -RA SCT028 BKN041 28/22 A3001 RMK AO2 RAB39 SLP160 P0000 60000 T02780222 51008,0,5.0,0,16090,0,0,0,-RA
2026-04-16 13:56:00,METAR TJSJ 161356Z 13006KT 10SM FEW030 SCT080 SCT120 28/21 A3000 RMK AO2 SLP158 VCSH SE-SW W T02780211,0,6.0,0,16090,0,0,0,"SH,VC"
2026-04-16 12:56:00,METAR TJSJ 161256Z 11011KT 10SM FEW036 SCT050 28/22 A2999 RMK AO2 SLP156 VCSH SE T02780217,0,11.0,0,16090,0,0,0,"SH,VC"
2026-04-16 11:56:00,METAR TJSJ 161156Z 11006KT 10SM FEW033 FEW048 26/21 A2998 RMK AO2 SLP151 VCSH SE T02610211 10261 20244 52019,0,6.0,0,16090,0,0,0,"SH,VC"
2026-04-16 10:56:00,METAR TJSJ 161056Z 14003KT 10SM FEW030 FEW046 24/21 A2997 RMK AO2 SLP146 VCSH SE T02440211,0,3.0,0,16090,0,0,0,"SH,VC"
2026-04-16 09:56:00,METAR TJSJ 160956Z 11004KT 10SM FEW028 SCT070 SCT095 24/21 A2994 RMK AO2 SLP137 SHRA DSNT SE T02440211,0,4.0,0,16090,0,0,0,"DS,RA,SH"
2026-04-16 08:56:00,METAR TJSJ 160856Z 13004KT 10SM FEW026 SCT085 24/21 A2992 RMK AO2 SLP132 T02440211 55006,0,4.0,0,16090,0,0,0,
2026-04-16 07:56:00,METAR TJSJ 160756Z 12004KT 10SM FEW022 SCT065 25/21 A2992 RMK AO2 SLP130 T02500211,0,4.0,0,16090,0,0,0,
2026-04-16 06:56:00,METAR TJSJ 160656Z 12003KT 10SM FEW024 SCT060 SCT085 24/21 A2992 RMK AO2 SLP132 T02440211,0,3.0,0,16090,0,0,0,
2026-04-16 05:56:00,METAR TJSJ 160556Z VRB04KT 10SM FEW032 SCT085 25/21 A2994 RMK AO2 SLP138 T02500211 10272 20250 58009,0,4.0,0,16090,0,0,0,
2026-04-16 04:56:00,METAR TJSJ 160456Z 15004KT 10SM FEW025 SCT060 SCT085 25/22 A2995 RMK AO2 SLP142 T02500217,0,4.0,0,16090,0,0,0,
2026-04-16 03:56:00,METAR TJSJ 160356Z 11004KT 10SM FEW028 SCT060 SCT085 26/21 A2996 RMK AO2 SLP145 T02560211 403220228,0,4.0,0,16090,0,0,0,
2026-04-16 02:56:00,METAR TJSJ 160256Z 09004KT 10SM FEW030 SCT060 SCT085 25/21 A2997 RMK AO2 SLP147 T02500211 51009,0,4.0,0,16090,0,0,0,
2026-04-16 01:56:00,METAR TJSJ 160156Z 12006KT 10SM FEW028 FEW080 26/21 A2996 RMK AO2 SLP146 T02560211,0,6.0,0,16090,0,0,0,
2026-04-16 00:56:00,METAR TJSJ 160056Z 09005KT 10SM FEW070 FEW100 26/22 A2996 RMK AO2 SLP145 T02610217,0,5.0,0,16090,0,0,0,
2026-04-15 23:56:00,METAR TJSJ 152356Z 00000KT 10SM FEW060 SCT100 27/21 A2994 RMK AO2 SLP139 OCNL LTGIC DSNT NW-N CB DSNT NW-N T02720211 10322 20272 53027,0,0.0,0,16090,0,0,0,DS
2026-04-15 22:56:00,METAR TJSJ 152256Z 13005KT 10SM FEW036 SCT100 28/20 A2991 RMK AO2 SLP128 SHRA W NW-N T02780200,0,5.0,0,16090,0,0,0,"RA,SH"
2026-04-15 21:56:00,METAR TJSJ 152156Z 13009KT 10SM FEW036 SCT100 29/19 A2989 RMK AO2 SLP119 SHRA DSNT NW T02890194,0,9.0,0,16090,0,0,0,"DS,RA,SH"
2026-04-15 20:56:00,METAR TJSJ 152056Z 14007G17KT 10SM FEW037 FEW120 30/18 A2986 RMK AO2 SLP112 T03000183 55007,0,7.0,1,16090,0,0,0,
2026-04-15 19:56:00,METAR TJSJ 151956Z 15007G16KT 10SM FEW037 FEW120 32/18 A2986 RMK AO2 SLP109 T03170183,0,7.0,1,16090,0,0,0,
2026-04-15 18:56:00,METAR TJSJ 151856Z 16007KT 10SM FEW037 FEW050 SCT120 32/18 A2986 RMK AO2 SLP111 T03170178,0,7.0,0,16090,0,0,0,
2026-04-15 17:56:00,METAR TJSJ 151756Z 14007G15KT 100V170 10SM SCT048 SCT075 32/18 A2989 RMK AO2 SLP119 60000 T03170178 10322 20256 57023,0,7.0,1,16090,0,0,0,
2026-04-15 16:56:00,METAR TJSJ 151656Z 06010KT 10SM FEW039 SCT060 29/22 A2991 RMK AO2 RAB22E55 SLP126 P0000 T02940222,0,10.0,0,16090,0,0,0,RA
2026-04-15 15:56:00,METAR TJSJ 151556Z 06014G17KT 10SM FEW024 SCT032 29/23 A2993 RMK AO2 SLP135 T02940228,0,14.0,1,16090,0,0,0,
2026-04-15 14:56:00,METAR TJSJ 151456Z 06011KT 10SM FEW026 FEW035 SCT042 27/22 A2995 RMK AO2 SLP142 VCSH E T02720217 51005,0,11.0,0,16090,0,0,0,"SH,VC"
2026-04-15 13:56:00,METAR TJSJ 151356Z 12006KT 10SM FEW032 FEW070 28/21 A2995 RMK AO2 SLP142 T02780206,0,6.0,0,16090,0,0,0,
2026-04-15 12:56:00,METAR TJSJ 151256Z 06003KT 10SM FEW026 FEW065 27/21 A2995 RMK AO2 SLP139 T02670211,0,3.0,0,16090,0,0,0,
2026-04-15 11:56:00,METAR TJSJ 151156Z 11003KT 10SM FEW026 FEW065 26/21 A2994 RMK AO2 SLP137 T02560211 10256 20228 53017,0,3.0,0,16090,0,0,0,
2026-04-15 10:56:00,METAR TJSJ 151056Z VRB03KT 10SM FEW023 FEW060 24/21 A2992 RMK AO2 SLP129 T02390206 $,0,3.0,0,16090,0,0,0,
2026-04-15 09:56:00,METAR TJSJ 150956Z 00000KT 10SM FEW025 FEW038 23/21 A2990 RMK AO2 SLP123 T02280206 $,0,0.0,0,16090,0,0,0,
2026-04-15 08:56:00,METAR TJSJ 150856Z 00000KT 10SM FEW035 23/21 A2989 RMK AO2 SLP120 T02280206 55000 $,0,0.0,0,16090,0,0,0,
2026-04-15 06:56:00,METAR TJSJ 150656Z 17003KT 10SM FEW032 23/20 A2988 RMK AO2 SLP117 T02280200 $,0,3.0,0,16090,0,0,0,
2026-04-15 05:56:00,METAR TJSJ 150556Z 00000KT 10SM FEW034 23/21 A2989 RMK AO2 SLP120 T02330206 10256 20233 58022 $,0,0.0,0,16090,0,0,0,
2026-04-15 04:56:00,METAR TJSJ 150456Z 00000KT 10SM FEW034 24/21 A2992 RMK AO2 SLP130 T02390206 $,0,0.0,0,16090,0,0,0,
2026-04-15 03:56:00,METAR TJSJ 150356Z 00000KT 10SM FEW037 23/21 A2994 RMK AO2 SLP136 T02330206 402890222 $,0,0.0,0,16090,0,0,0,
2026-04-15 02:56:00,METAR TJSJ 150256Z 00000KT 10SM FEW028 FEW046 24/21 A2995 RMK AO2 SLP141 T02390211 51009 $,0,0.0,0,16090,0,0,0,
2026-04-15 01:56:00,METAR TJSJ 150156Z 25005KT 10SM FEW028 SCT050 24/22 A2995 RMK AO2 SLP140 T02440217 $,0,5.0,0,16090,0,0,0,
2026-04-15 00:56:00,METAR TJSJ 150056Z 26005KT 10SM FEW028 SCT045 SCT085 25/22 A2993 RMK AO2 SLP134 T02500217 $,0,5.0,0,16090,0,0,0,
2026-04-14 23:56:00,METAR TJSJ 142356Z 29004KT 10SM FEW030 SCT045 SCT075 25/21 A2992 RMK AO2 SLP132 60000 T02500211 10272 20250 53018 $,0,4.0,0,16090,0,0,0,
2026-04-14 22:56:00,METAR TJSJ 142256Z 28006KT 10SM SCT033 SCT045 BKN075 26/21 A2990 RMK AO2 SLP122 VCSH SW-W T02560211 $,0,6.0,0,16090,0,0,0,"SH,VC"
2026-04-14 21:56:00,METAR TJSJ 142156Z 00000KT 10SM SCT033 SCT055 BKN090 26/21 A2988 RMK AO2 SLP117 VCSH SW-W T02610206 $,0,0.0,0,16090,0,0,0,"SH,VC"
2026-04-14 20:56:00,METAR TJSJ 142056Z 00000KT 10SM SCT028 SCT045 BKN090 26/20 A2987 RMK AO2 SLP114 VCSH SW-W 60000 T02610200 58006 $,0,0.0,0,16090,0,0,0,"SH,VC"
2026-04-14 19:56:00,METAR TJSJ 141956Z 08004KT 10SM SCT030 SCT045 BKN085 26/19 A2988 RMK AO2 SLP115 VCSH SW T02610194 $,0,4.0,0,16090,0,0,0,"SH,VC"
2026-04-14 18:56:00,METAR TJSJ 141856Z 06007KT 10SM SCT028 SCT050 BKN085 27/21 A2988 RMK AO2 RAB24E39 SLP118 VCSH S SW P0000 T02670211 $,0,7.0,0,16090,0,0,0,"RA,SH,VC"
2026-04-14 17:56:00,METAR TJSJ 141756Z 03009KT 10SM SCT031 SCT050 BKN085 27/21 A2989 RMK AO2 SLP120 VCSH SE-SW T02670211 10289 20239 58019,0,9.0,0,16090,0,0,0,"SH,VC"
2026-04-14 16:56:00,METAR TJSJ 141656Z 34009KT 10SM FEW031 SCT055 SCT110 28/20 A2991 RMK AO2 SLP127 SHRA DSNT E-SE T02780200,0,9.0,0,16090,0,0,0,"DS,RA,SH"
2026-04-14 15:56:00,METAR TJSJ 141556Z 36007KT 10SM FEW029 SCT055 SCT110 28/21 A2993 RMK AO2 SLP134 SHRA DSNT SE T02780206,0,7.0,0,16090,0,0,0,"DS,RA,SH"
2026-04-14 14:56:00,METAR TJSJ 141456Z 00000KT 10SM FEW020 SCT060 BKN110 27/21 A2994 RMK AO2 SLP138 T02670206 58001,0,0.0,0,16090,0,0,0,
2026-04-14 13:56:00,METAR TJSJ 141356Z 14003KT 10SM FEW020 SCT060 BKN090 25/20 A2995 RMK AO2 SLP140 T02500200,0,3.0,0,16090,0,0,0,
2026-04-14 12:56:00,METAR TJSJ 141256Z VRB04KT 10SM FEW022 SCT055 BKN120 24/21 A2995 RMK AO2 SLP142 VCSH N-NE T02440211,0,4.0,0,16090,0,0,0,"SH,VC"
2026-04-14 11:56:00,METAR TJSJ 141156Z 00000KT 10SM FEW023 SCT060 BKN120 24/19 A2994 RMK AO2 SLP139 VCSH NE 60000 70001 T02390194 10244 20222 53017,0,0.0,0,16090,0,0,0,"SH,VC"
2026-04-14 10:56:00,METAR TJSJ 141056Z 36007KT 10SM FEW023 SCT026 BKN065 23/20 A2993 RMK AO2 RAE55 SLP133 VCSH N NE-SE P0000 T02280200,0,7.0,0,16090,0,0,0,"SH,VC"
2026-04-14 09:56:00,METAR TJSJ 140956Z 29005KT 10SM -RA SCT018 BKN026 OVC080 23/21 A2991 RMK AO2 RAB56 SLP127 P0000 T02330206 $,0,5.0,0,16090,0,0,0,-RA
2026-04-14 08:56:00,METAR TJSJ 140856Z 22004KT 10SM FEW022 SCT027 SCT038 24/21 A2989 RMK AO2 SLP122 VCSH N-E T02390211 55007 $,0,4.0,0,16090,0,0,0,"SH,VC"
2026-04-14 07:56:00,METAR TJSJ 140756Z 00000KT 10SM SCT027 SCT040 24/22 A2989 RMK AO2 SLP120 T02390217 $,0,0.0,0,16090,0,0,0,
2026-04-14 06:56:00,METAR TJSJ 140656Z 11004KT 10SM SCT027 SCT040 24/21 A2989 RMK AO2 SLP119 T02390211 $,0,4.0,0,16090,0,0,0,
2026-04-14 05:56:00,METAR TJSJ 140556Z 00000KT 10SM SCT027 SCT045 24/21 A2992 RMK AO2 SLP129 T02390206 10250 20239 56014 $,0,0.0,0,16090,0,0,0,
2026-04-14 04:56:00,METAR TJSJ 140456Z 00000KT 10SM FEW025 SCT044 24/21 A2993 RMK AO2 SLP133 VCSH N-NE T02390206 $,0,0.0,0,16090,0,0,0,"SH,VC"
2026-04-14 04:03:00,SPECI TJSJ 140403Z 00000KT 10SM BKN025 BKN030 24/21 A2994 RMK AO2 T02390206 $,0,0.0,0,16090,0,0,0,
2026-04-14 03:56:00,METAR TJSJ 140356Z 00000KT 10SM FEW025 FEW080 24/21 A2994 RMK AO2 SLP138 T02390206 402890222 $,0,0.0,0,16090,0,0,0,
2026-04-14 02:56:00,METAR TJSJ 140256Z 17003KT 10SM FEW022 SCT080 24/21 A2996 RMK AO2 SLP143 T02440211 58005 $,0,3.0,0,16090,0,0,0,
2026-04-14 01:56:00,METAR TJSJ 140156Z 09005KT 10SM FEW022 SCT080 24/21 A2996 RMK AO2 SLP145 T02390206 $,0,5.0,0,16090,0,0,0,
2026-04-14 00:56:00,METAR TJSJ 140056Z 12005KT 10SM FEW030 SCT060 BKN085 25/21 A2997 RMK AO2 SLP148 T02500206 $,0,5.0,0,16090,0,0,0,
2026-04-13 23:56:00,METAR TJSJ 132356Z 25004KT 10SM FEW029 SCT060 SCT085 25/20 A2997 RMK AO2 SLP148 60001 T02500200 10289 20250 51020 $,0,4.0,0,16090,0,0,0,
2026-04-13 22:56:00,METAR TJSJ 132256Z 00000KT 10SM FEW026 SCT060 BKN085 26/20 A2996 RMK AO2 SLP142 T02560200 $,0,0.0,0,16090,0,0,0,
2026-04-13 21:56:00,METAR TJSJ 132156Z 28004KT 10SM FEW029 BKN060 BKN085 26/19 A2994 RMK AO2 SLP138 T02560194 $,0,4.0,0,16090,0,0,0,
2026-04-13 20:56:00,METAR TJSJ 132056Z 18006KT 10SM FEW038 BKN060 BKN095 26/21 A2991 RMK AO2 RAB41E55 SLP128 SHRA DSNT SW P0000 60001 T02560206 56016 $,0,6.0,0,16090,0,0,0,"DS,RA,SH"
2026-04-13 19:56:00,METAR TJSJ 131956Z VRB03KT 10SM SCT046 BKN070 BKN100 26/22 A2992 RMK AO2 RAB1857E50 SLP131 VCSH SW-W P0001 T02560222 $,0,3.0,0,16090,0,0,0,"RA,SH,VC"
2026-04-13 18:56:00,METAR TJSJ 131856Z 19003KT 10SM FEW034 BKN060 BKN100 27/21 A2995 RMK AO2 SLP139 VCSH SE-SW T02720211 $,0,3.0,0,16090,0,0,0,"SH,VC"
2026-04-13 17:56:00,METAR TJSJ 131756Z VRB04KT 10SM FEW033 FEW055 BKN080 28/20 A2996 RMK AO2 SLP143 VCSH SW T02830200 10289 20239 56021 $,0,4.0,0,16090,0,0,0,"SH,VC"
2026-04-13 16:56:00,METAR TJSJ 131656Z 09015KT 10SM FEW050 BKN100 28/19 A2997 RMK AO2 SLP149 VCSH SE T02830194 $,0,15.0,0,16090,0,0,0,"SH,VC"
2026-04-13 15:56:00,METAR TJSJ 131556Z 12011G21KT 10SM FEW048 BKN100 27/19 A3000 RMK AO2 SLP156 T02670194 $,0,11.0,1,16090,0,0,0,
2026-04-13 14:56:00,METAR TJSJ 131456Z 10014G20KT 10SM FEW030 SCT080 27/21 A3002 RMK AO2 SLP164 VCSH E-SE T02670206 50001,0,14.0,1,16090,0,0,0,"SH,VC"
2026-04-13 13:56:00,METAR TJSJ 131356Z 07015KT 10SM FEW026 FEW033 SCT060 26/20 A3004 RMK AO2 SLP172 VCSH E-SE T02610200,0,15.0,0,16090,0,0,0,"SH,VC"
2026-04-13 12:56:00,METAR TJSJ 131256Z 03017G27KT 10SM FEW016 SCT022 BKN030 24/21 A3006 RMK AO2 PK WND 01027/1252 WSHFT 1229 SLP178 VCSH N-E SW-NW T02390206,0,17.0,1,16090,0,0,0,"SH,VC"
2026-04-13 12:49:00,SPECI TJSJ 131249Z 03017G25KT 10SM FEW030 SCT060 24/21 A3006 RMK AO2 WSHFT 1229 SHRA DSNT N-NE T02440211,0,17.0,1,16090,0,0,0,"DS,RA,SH"
2026-04-13 11:56:00,METAR TJSJ 131156Z 00000KT 10SM FEW030 SCT060 26/21 A3002 RMK AO2 SLP163 T02610211 10261 20222 53018,0,0.0,0,16090,0,0,0,
2026-04-13 10:56:00,METAR TJSJ 131056Z VRBO3KT 10SM FEW028 SCT040 SCT060 24/21 A3000 RMK AO2 SLP157 T02440206 $,0,3.0,0,16090,0,0,0,
2026-04-13 09:56:00,METAR TJSJ 130956Z 00000KT 10SM FEW025 FEW033 23/20 A2998 RMK AO2 SLP150 OCNL LTGIC DSNT N E CB DSNT N E T02330200 $,0,0.0,0,16090,0,0,0,DS
2026-04-13 08:56:00,METAR TJSJ 130856Z 08003KT 10SM FEW023 BKN033 BKN055 23/19 A2996 RMK AO2 SLP145 VCSH E FRQ LTGICCG DSNT N CB DSNT N T02330194 55005 $,0,3.0,0,16090,0,0,0,"DS,SH,VC"
2026-04-13 07:56:00,METAR TJSJ 130756Z 20004KT 10SM SCT023 BKN033 BKN055 22/19 A2994 RMK AO2 SLP136 VCSH E FRQ LTGICCG DSNT N CB DSNT N T02220194 $,0,4.0,0,16090,0,0,0,"DS,SH,VC"
2026-04-13 06:56:00,METAR TJSJ 130656Z 08006KT 10SM SCT023 BKN033 BKN055 22/18 A2996 RMK AO2 SLP144 VCSH N-E S FRQ LTGICCG DSNT N CB DSNT N T02220183 $,0,6.0,0,16090,0,0,0,"DS,SH,VC"
2026-04-13 05:56:00,METAR TJSJ 130556Z 29005KT 10SM FEW017 SCT055 BKN070 25/22 A2998 RMK AO2 SLP150 VCSH N-E FRQ LTGICCG DSNT N CB DSNT N T02500222 10272 20250 58007 $,0,5.0,0,16090,0,0,0,"DS,SH,VC"
2026-04-13 04:56:00,METAR TJSJ 130456Z 00000KT 10SM FEW027 26/21 A2998 RMK AO2 SLP152 SHRA DSNT N-NW T02560211 $,0,0.0,0,16090,0,0,0,"DS,RA,SH"
2026-04-13 03:56:00,METAR TJSJ 130356Z 00000KT 10SM FEW027 25/21 A2999 RMK AO2 SLP155 T02500206 $,0,0.0,0,16090,0,0,0,
2026-04-13 02:56:00,METAR TJSJ 130256Z 11004KT 10SM FEW027 26/21 A3000 RMK AO2 SLP157 T02560211 50004 $,0,4.0,0,16090,0,0,0,
2026-04-13 01:56:00,METAR TJSJ 130156Z 17003KT 10SM FEW027 FEW080 27/22 A3000 RMK AO2 SLP158 T02670217 $,0,3.0,0,16090,0,0,0,
2026-04-13 00:56:00,METAR TJSJ 130056Z 27004KT 10SM FEW065 27/22 A3000 RMK AO2 SLP158 T02670217 $,0,4.0,0,16090,0,0,0,
2026-04-12 23:56:00,METAR TJSJ 122356Z 00000KT 10SM FEW080 27/21 A2999 RMK AO2 SLP153 T02720211 51015 $,0,0.0,0,16090,0,0,0,
2026-04-12 22:56:00,METAR TJSJ 122256Z 16004KT 10SM FEW043 SCT120 27/22 A2997 RMK AO2 SLP147 SHRA DSNT NW T02720217 $,0,4.0,0,16090,0,0,0,"DS,RA,SH"
2026-04-12 21:56:00,METAR TJSJ 122156Z 00000KT 10SM FEW025 FEW047 SCT120 28/21 A2996 RMK AO2 SLP145 SHRA DSNT W-NW T02780206 $,0,0.0,0,16090,0,0,0,"DS,RA,SH"
2026-04-12 20:56:00,METAR TJSJ 122056Z 19003KT 10SM FEW025 FEW047 SCT100 28/19 A2994 RMK AO2 SLP138 CB DSNT W T02830189 55005 $,0,3.0,0,16090,0,0,0,DS
2026-04-12 19:56:00,METAR TJSJ 121956Z 09006KT 10SM FEW025 FEW050 SCT100 28/24 A2993 RMK AO2 SLP135 SHRA DSNT W CB DSNT W T02780239 $,0,6.0,0,16090,0,0,0,"DS,RA,SH"
2026-04-12 18:56:00,METAR TJSJ 121856Z 06013G22KT 10SM FEW025 FEW045 SCT090 28/24 A2995 RMK AO2 SLP139 SHRA DSNT W CB DSNT W T02830239 $,0,13.0,1,16090,0,0,0,"DS,RA,SH"
2026-04-12 17:56:00,METAR TJSJ 121756Z 07015KT 10SM FEW022 SCT043 SCT085 30/24 A2996 RMK AO2 RAE1657 SLP143 P0000 60000 T03000244 56021 $,0,15.0,0,16090,0,0,0,RA
2026-04-12 16:56:00,METAR TJSJ 121656Z 06014G22KT 10SM -RA SCT037 SCT060 BKN080 29/24 A2998 RMK AO2 RAB55 SLP149 P0000 T02940239 $,0,14.0,1,16090,0,0,0,-RA
2026-04-12 15:56:00,METAR TJSJ 121556Z 06012KT 10SM FEW027 SCT060 SCT085 29/24 A3000 RMK AO2 SLP156 T02890239 $,0,12.0,0,16090,0,0,0,
2026-04-12 14:56:00,METAR TJSJ 121456Z 07010KT 10SM FEW029 SCT060 SCT085 29/24 A3002 RMK AO2 SLP163 T02940239 50001 $,0,10.0,0,16090,0,0,0,
2026-04-12 13:56:00,METAR TJSJ 121356Z 07010KT 10SM FEW022 SCT041 SCT080 29/24 A3004 RMK AO2 SLP170 T02890239 $,0,10.0,0,16090,0,0,0,
2026-04-12 12:56:00,METAR TJSJ 121256Z 09008KT 10SM FEW020 SCT060 SCT095 28/23 A3003 RMK AO2 SLP169 SHRA DSNT SE T02780233 $,0,8.0,0,16090,0,0,0,"DS,RA,SH"
2026-04-12 11:56:00,METAR TJSJ 121156Z 10004KT 10SM FEW020 SCT060 SCT095 27/23 A3002 RMK AO2 SLP163 T02670228 10267 20244 53018 $,0,4.0,0,16090,0,0,0,
2026-04-12 10:56:00,METAR TJSJ 121056Z 14003KT 10SM FEW022 SCT085 SCT110 25/22 A2999 RMK AO2 SLP153 T02500222 $,0,3.0,0,16090,0,0,0,
2026-04-12 09:56:00,METAR TJSJ 120956Z 13003KT 10SM FEW025 FEW075 25/22 A2997 RMK AO2 SLP147 T02500222 $,0,3.0,0,16090,0,0,0,
2026-04-12 08:56:00,METAR TJSJ 120856Z 00000KT 10SM FEW035 25/22 A2996 RMK AO2 SLP144 T02500222 55004 $,0,0.0,0,16090,0,0,0,
2026-04-12 07:56:00,METAR TJSJ 120756Z 00000KT 10SM FEW035 25/22 A2995 RMK AO2 SLP142 T02500222 $,0,0.0,0,16090,0,0,0,
2026-04-12 06:56:00,METAR TJSJ 120656Z 11003KT 10SM FEW038 25/22 A2995 RMK AO2 SLP142 T02500222 $,0,3.0,0,16090,0,0,0,
2026-04-12 05:56:00,METAR TJSJ 120556Z 00000KT 10SM FEW038 26/22 A2997 RMK AO2 SLP148 T02560217 10267 20250 58015 $,0,0.0,0,16090,0,0,0,
2026-04-12 04:56:00,METAR TJSJ 120456Z 12003KT 10SM FEW035 26/22 A2999 RMK AO2 SLP155 T02560222 $,0,3.0,0,16090,0,0,0,
2026-04-12 03:56:00,METAR TJSJ 120356Z 09006KT 10SM FEW025 FEW055 25/22 A3001 RMK AO2 SLP161 T02500222 403220239 $,0,6.0,0,16090,0,0,0,
2026-04-12 02:56:00,METAR TJSJ 120256Z 07004KT 10SM FEW030 26/22 A3002 RMK AO2 SLP163 T02560217 51013 $,0,4.0,0,16090,0,0,0,
2026-04-12 01:56:00,METAR TJSJ 120156Z 12005KT 10SM FEW030 FEW065 26/22 A3001 RMK AO2 SLP162 T02610222 $,0,5.0,0,16090,0,0,0,
2026-04-12 00:56:00,METAR TJSJ 120056Z 10006KT 10SM FEW030 FEW065 27/22 A3000 RMK AO2 SLP157 T02670222 $,0,6.0,0,16090,0,0,0,
2026-04-11 23:56:00,METAR TJSJ 112356Z 08005KT 10SM SCT045 SCT080 26/22 A2998 RMK AO2 SLP151 T02610222 10306 20261 51021 $,0,5.0,0,16090,0,0,0,
2026-04-11 22:56:00,METAR TJSJ 112256Z 13005KT 10SM FEW029 SCT042 SCT065 27/22 A2996 RMK AO2 SLP143 T02720222 $,0,5.0,0,16090,0,0,0,
2026-04-11 21:56:00,METAR TJSJ 112156Z 09014KT 10SM FEW025 SCT042 SCT110 28/22 A2994 RMK AO2 SLP137 T02780222 $,0,14.0,0,16090,0,0,0,
2026-04-11 20:56:00,METAR TJSJ 112056Z 11012KT 10SM FEW033 FEW044 SCT110 29/22 A2992 RMK AO2 SLP130 VCSH NW T02940222 55010 $,0,12.0,0,16090,0,0,0,"SH,VC"
2026-04-11 19:56:00,METAR TJSJ 111956Z 07015KT 10SM FEW035 FEW044 31/23 A2992 RMK AO2 PK WND 04026/1937 SLP129 SHRA DSNT W T03060233 $,0,15.0,0,16090,0,0,0,"DS,RA,SH"
2026-04-11 18:56:00,METAR TJSJ 111856Z 07016KT 10SM SCT035 SCT090 31/23 A2993 RMK AO2 SLP132 T03060233 $,0,16.0,0,16090,0,0,0,
2026-04-11 17:56:00,METAR TJSJ 111756Z 08014KT 10SM FEW046 SCT055 BKN085 29/23 A2995 RMK AO2 SLP140 T02940228 10322 20267 58018 $,0,14.0,0,16090,0,0,0,
2026-04-11 16:56:00,METAR TJSJ 111656Z 10013G18KT 10SM SCT046 BKN055 BKN085 29/23 A2997 RMK AO2 SLP149 T02940228 $,0,13.0,1,16090,0,0,0,
2026-04-11 15:56:00,METAR TJSJ 111556Z 14008G15KT 10SM SCT035 BKN060 31/21 A2999 RMK AO2 SLP153 T03110211 $,0,8.0,1,16090,0,0,0,
2026-04-11 14:56:00,METAR TJSJ 111456Z 15008G14KT 120V180 10SM SCT036 BKN055 31/21 A3000 RMK AO2 SLP158 T03060206 58006 $,0,8.0,1,16090,0,0,0,
2026-04-11 13:56:00,METAR TJSJ 111356Z VRB04KT 10SM FEW031 SCT050 SCT080 29/21 A3002 RMK AO2 SLP163 T02940211,0,4.0,0,16090,0,0,0,
2026-04-11 12:56:00,METAR TJSJ 111256Z 08004KT 10SM FEW032 SCT060 28/21 A3003 RMK AO2 SLP167 T02780211,0,4.0,0,16090,0,0,0,
2026-04-11 11:56:00,METAR TJSJ 111156Z 00000KT 10SM FEW033 SCT060 27/21 A3002 RMK AO2 SLP164 T02670206 10267 20239 53020,0,0.0,0,16090,0,0,0,
2026-04-11 10:56:00,METAR TJSJ 111056Z 00000KT 10SM FEW030 SCT060 25/22 A3000 RMK AO2 SLP156 T02500217,0,0.0,0,16090,0,0,0,
2026-04-11 09:56:00,METAR TJSJ 110956Z 00000KT 10SM SCT025 24/21 A2998 RMK AO2 SLP149 T02440211,0,0.0,0,16090,0,0,0,
2026-04-11 08:56:00,METAR TJSJ 110856Z 00000KT 10SM FEW025 24/22 A2998 RMK AO2 SLP143 T02440217 55009,0,0.0,0,16090,0,0,0,
2026-04-11 07:56:00,METAR TJSJ 110756Z 00000KT 10SM FEW025 24/21 A2995 RMK AO2 SLP141 T02440211,0,0.0,0,16090,0,0,0,
2026-04-11 06:56:00,METAR TJSJ 110656Z 00000KT 10SM FEW022 25/21 A2996 RMK AO2 SLP144 T02500211,0,0.0,0,16090,0,0,0,
2026-04-11 05:56:00,METAR TJSJ 110556Z 00000KT 10SM CLR 25/21 A2998 RMK AO2 SLP152 T02500211 10261 20250 58009,0,0.0,0,16090,0,0,0,
2026-04-11 04:56:00,METAR TJSJ 110456Z 00000KT 10SM CLR 25/21 A3000 RMK AO2 SLP158 T02500211,0,0.0,0,16090,0,0,0,
2026-04-11 02:56:00,METAR TJSJ 110256Z 08005KT 10SM FEW038 25/22 A3001 RMK AO2 SLP162 T02500217 51007,0,5.0,0,16090,0,0,0,
2026-04-11 01:56:00,METAR TJSJ 110156Z 10005KT 10SM FEW040 25/22 A3001 RMK AO2 SLP161 T02500222,0,5.0,0,16090,0,0,0,
2026-04-11 00:56:00,METAR TJSJ 110056Z 11007KT 10SM FEW040 26/22 A3000 RMK AO2 SLP158 T02610217,0,7.0,0,16090,0,0,0,
2026-04-10 23:56:00,METAR TJSJ 102356Z 10009KT 10SM FEW042 26/22 A2999 RMK AO2 SLP154 T02610222 10306 20261 53020,0,9.0,0,16090,0,0,0,
2026-04-10 22:56:00,METAR TJSJ 102256Z 09012G19KT 10SM FEW029 FEW050 27/22 A2997 RMK AO2 SLP146 T02720217,0,12.0,1,16090,0,0,0,
2026-04-10 21:56:00,METAR TJSJ 102156Z 10011KT 10SM FEW029 FEW050 28/22 A2994 RMK AO2 SLP139 T02830217,0,11.0,0,16090,0,0,0,
2026-04-10 20:56:00,METAR TJSJ 102056Z 09013G20KT 10SM FEW029 FEW050 29/22 A2993 RMK AO2 SLP134 T02940217 56006,0,13.0,1,16090,0,0,0,
2026-04-10 19:56:00,METAR TJSJ 101956Z 07014KT 10SM FEW032 SCT041 SCT055 29/23 A2993 RMK AO2 SLP135 T02890228,0,14.0,0,16090,0,0,0,
2026-04-10 18:56:00,METAR TJSJ 101856Z 08011KT 10SM FEW032 FEW041 SCT055 29/22 A2994 RMK AO2 SLP137 T02890217,0,11.0,0,16090,0,0,0,
2026-04-10 17:56:00,METAR TJSJ 101756Z 08014G20KT 10SM FEW029 FEW036 SCT047 31/23 A2995 RMK AO2 SLP141 T03060228 10311 20267 58023,0,14.0,1,16090,0,0,0,
2026-04-10 16:56:00,METAR TJSJ 101656Z 07013G21KT 10SM FEW036 SCT045 OVC060 29/22 A2998 RMK AO2 SLP151 T02940222,0,13.0,1,16090,0,0,0,
2026-04-10 15:56:00,METAR TJSJ 101556Z 10013G20KT 10SM FEW029 FEW038 SCT048 30/21 A3001 RMK AO2 SLP160 T03000211,0,13.0,1,16090,0,0,0,
2026-04-10 14:56:00,METAR TJSJ 101456Z 09013G21KT 10SM FEW032 SCT055 30/22 A3002 RMK AO2 SLP163 T03000217 58002,0,13.0,1,16090,0,0,0,
2026-04-10 13:56:00,METAR TJSJ 101356Z 13008KT 10SM FEW030 SCT080 29/22 A3003 RMK AO2 SLP168 T02940217,0,8.0,0,16090,0,0,0,
2026-04-10 12:56:00,METAR TJSJ 101256Z 04005KT 10SM FEW036 SCT060 28/22 A3003 RMK AO2 SLP169 T02780217,0,5.0,0,16090,0,0,0,
2026-04-10 11:56:00,METAR TJSJ 101156Z 00000KT 10SM FEW034 SCT060 27/22 A3002 RMK AO2 SLP165 VCSH N T02670217 10267 20244 53016,0,0.0,0,16090,0,0,0,"SH,VC"
2026-04-10 10:56:00,METAR TJSJ 101056Z 00000KT 10SM SCT037 SCT055 25/22 A3000 RMK AO2 SLP157 VCSH N NE T02500217,0,0.0,0,16090,0,0,0,"SH,VC"
2026-04-10 09:56:00,METAR TJSJ 100956Z VRB03KT 10SM SCT030 SCT070 25/22 A2999 RMK AO2 SLP153 T02500217,0,3.0,0,16090,0,0,0,
2026-04-10 08:56:00,METAR TJSJ 100856Z 26003KT 10SM FEW028 25/21 A2998 RMK AO2 SLP150 T02500211 55003,0,3.0,0,16090,0,0,0,
2026-04-10 07:56:00,METAR TJSJ 100756Z 00000KT 10SM CLR 24/21 A2996 RMK AO2 SLP145 T02440211,0,0.0,0,16090,0,0,0,
2026-04-10 06:56:00,METAR TJSJ 100656Z 18003KT 10SM CLR 25/21 A2996 RMK AO2 SLP145 T02500211,0,3.0,0,16090,0,0,0,
2026-04-10 05:56:00,METAR TJSJ 100556Z 00000KT 10SM CLR 25/22 A2998 RMK AO2 SLP152 T02500217 10261 20250 58011,0,0.0,0,16090,0,0,0,
2026-04-10 04:56:00,METAR TJSJ 100456Z 11004KT 10SM CLR 25/22 A3000 RMK AO2 SLP158 T02500217,0,4.0,0,16090,0,0,0,
2026-04-10 03:56:00,METAR TJSJ 100356Z 10006KT 10SM CLR 26/22 A3001 RMK AO2 SLP161 T02560217 403170250,0,6.0,0,16090,0,0,0,
2026-04-10 02:56:00,METAR TJSJ 100256Z 11005KT 10SM CLR 26/22 A3002 RMK AO2 SLP163 T02560217 51006,0,5.0,0,16090,0,0,0,
2026-04-10 01:56:00,METAR TJSJ 100156Z 10009KT 10SM FEW040 26/22 A3001 RMK AO2 SLP161 T02560222,0,9.0,0,16090,0,0,0,
2026-04-10 00:56:00,METAR TJSJ 100056Z 10009KT 10SM FEW043 26/22 A3001 RMK AO2 SLP160 T02610217,0,9.0,0,16090,0,0,0,
2026-04-09 23:56:00,METAR TJSJ 092356Z 09009KT 10SM FEW047 26/22 A3000 RMK AO2 SLP157 60000 T02610217 10317 20261 53013,0,9.0,0,16090,0,0,0,
2026-04-09 22:56:00,METAR TJSJ 092256Z 10010KT 10SM SCT050 27/22 A2998 RMK AO2 SLP152 T02720217,0,10.0,0,16090,0,0,0,
2026-04-09 21:56:00,METAR TJSJ 092156Z 10012KT 10SM SCT033 SCT055 28/22 A2997 RMK AO2 SLP147 T02830217,0,12.0,0,16090,0,0,0,
2026-04-09 20:56:00,METAR TJSJ 092056Z 12007KT 10SM SCT031 SCT050 29/22 A2996 RMK AO2 RAB41E51 SLP144 P0000 60000 T02890217 56004,0,7.0,0,16090,0,0,0,RA
2026-04-09 19:56:00,METAR TJSJ 091956Z 08010KT 10SM SCT045 29/22 A2996 RMK AO2 SLP145 T02940222,0,10.0,0,16090,0,0,0,
2026-04-09 18:56:00,METAR TJSJ 091856Z 07016G20KT 10SM SCT045 29/23 A2996 RMK AO2 SLP145 T02940228,0,16.0,1,16090,0,0,0,
2026-04-09 17:56:00,METAR TJSJ 091756Z 11007KT 9SM FEW036 SCT055 31/22 A2997 RMK AO2 SLP149 HZ ALQDS T03060217 10317 20267 58018,0,7.0,0,14481,0,0,0,DS
2026-04-09 16:56:00,METAR TJSJ 091656Z 12011G19KT 9SM SCT034 30/22 A3000 RMK AO2 PK WND 07028/1618 SLP157 HZ ALQDS T03000222,0,11.0,1,14481,0,0,0,DS
2026-04-09 15:56:00,METAR TJSJ 091556Z 07016G24KT 9SM FEW037 SCT048 31/23 A3002 RMK AO2 SLP163 HZ ALQDS T03060228,0,16.0,1,14481,0,0,0,DS
2026-04-09 14:56:00,METAR TJSJ 091456Z 08014KT 9SM FEW035 SCT044 30/22 A3003 RMK AO2 SLP167 HZ ALQDS T03000222 58005,0,14.0,0,14481,0,0,0,DS
2026-04-09 13:56:00,METAR TJSJ 091356Z 08015KT 10SM FEW028 SCT035 29/22 A3004 RMK AO2 SLP172 HZ ALQDS T02890222,0,15.0,0,16090,0,0,0,DS
2026-04-09 12:56:00,METAR TJSJ 091256Z 09013KT 9SM FEW020 SCT034 28/23 A3004 RMK AO2 SLP172 HZ ALQDS T02780228,0,13.0,0,14481,0,0,0,DS
2026-04-09 11:56:00,METAR TJSJ 091156Z 10006KT 10SM FEW033 FEW048 27/22 A3004 RMK AO2 SLP171 T02670222 10267 20250 53013,0,6.0,0,16090,0,0,0,
2026-04-09 10:56:00,METAR TJSJ 091056Z 12004KT 10SM FEW026 FEW085 26/22 A3003 RMK AO2 SLP168 T02560217,0,4.0,0,16090,0,0,0,
2026-04-09 09:56:00,METAR TJSJ 090956Z 09005KT 10SM FEW024 SCT060 SCT085 25/22 A3001 RMK AO2 SLP161 T02500222,0,5.0,0,16090,0,0,0,
2026-04-09 08:56:00,METAR TJSJ 090856Z 11005KT 10SM FEW034 BKN100 26/22 A3000 RMK AO2 SLP158 T02560222 53000,0,5.0,0,16090,0,0,0,
2026-04-09 07:56:00,METAR TJSJ 090756Z 12003KT 10SM FEW060 BKN085 26/22 A2999 RMK AO2 SLP153 T02560222,0,3.0,0,16090,0,0,0,
2026-04-09 06:56:00,METAR TJSJ 090656Z 13005KT 10SM FEW030 SCT060 BKN085 26/22 A2999 RMK AO2 SLP153 T02560222,0,5.0,0,16090,0,0,0,
2026-04-09 05:56:00,METAR TJSJ 090556Z 10006KT 10SM SCT032 BKN060 26/23 A3000 RMK AO2 SLP158 T02560228 10272 20256 58016,0,6.0,0,16090,0,0,0,
2026-04-09 04:56:00,METAR TJSJ 090456Z 12006KT 10SM SCT025 BKN038 26/22 A3002 RMK AO2 SLP165 T02610222,0,6.0,0,16090,0,0,0,
2026-04-09 03:56:00,METAR TJSJ 090356Z 11006KT 10SM SCT025 OVC038 26/23 A3004 RMK AO2 SLP170 T02610233 403220244,0,6.0,0,16090,0,0,0,
2026-04-09 02:56:00,METAR TJSJ 090256Z 09007KT 10SM FEW025 OVC038 26/23 A3005 RMK AO2 SLP173 T02610228 51015,0,7.0,0,16090,0,0,0,
2026-04-09 01:56:00,METAR TJSJ 090156Z 09009KT 10SM SCT047 SCT080 26/23 A3004 RMK AO2 SLP170 T02610233,0,9.0,0,16090,0,0,0,
2026-04-09 00:56:00,METAR TJSJ 090056Z 09007KT 10SM FEW040 FEW090 27/23 A3002 RMK AO2 SLP165 T02670233,0,7.0,0,16090,0,0,0,
2026-04-08 23:56:00,METAR TJSJ 082356Z 08004KT 10SM FEW045 FEW090 28/22 A3000 RMK AO2 SLP159 T02780222 10322 20278 53013,0,4.0,0,16090,0,0,0,
2026-04-08 22:56:00,METAR TJSJ 082256Z 14004KT 10SM FEW035 FEW055 SCT090 28/22 A2999 RMK AO2 SLP154 T02830222,0,4.0,0,16090,0,0,0,
2026-04-08 21:56:00,METAR TJSJ 082156Z 17007KT 10SM FEW035 FEW055 BKN090 29/21 A2997 RMK AO2 SLP149 T02890211,0,7.0,0,16090,0,0,0,
2026-04-08 20:56:00,METAR TJSJ 082056Z 17010G18KT 10SM FEW036 SCT050 BKN080 29/22 A2996 RMK AO2 SLP146 T02940217 55003,0,10.0,1,16090,0,0,0,
2026-04-08 19:56:00,METAR TJSJ 081956Z 15010G21KT 10SM SCT034 SCT090 31/21 A2996 RMK AO2 SLP145 T03060211,0,10.0,1,16090,0,0,0,
2026-04-08 18:56:00,METAR TJSJ 081856Z 15009G22KT 10SM SCT034 SCT050 32/21 A2996 RMK AO2 SLP143 T03170206,0,9.0,1,16090,0,0,0,
2026-04-08 17:56:00,METAR TJSJ 081756Z 16012G21KT 10SM SCT045 32/20 A2997 RMK AO2 SLP149 T03220200 10322 20261 58008,0,12.0,1,16090,0,0,0,
2026-04-08 16:56:00,METAR TJSJ 081656Z 16012G22KT 10SM SCT049 31/21 A2999 RMK AO2 SLP153 T03110206,0,12.0,1,16090,0,0,0,
2026-04-08 15:56:00,METAR TJSJ 081556Z 16012G20KT 10SM SCT044 31/21 A3000 RMK AO2 SLP157 T03110206,0,12.0,1,16090,0,0,0,
2026-04-08 14:56:00,METAR TJSJ 081456Z 16009G19KT 10SM FEW037 FEW044 31/21 A3000 RMK AO2 SLP157 T03060211 58009,0,9.0,1,16090,0,0,0,
2026-04-08 13:56:00,METAR TJSJ 081356Z 14005KT 10SM SCT034 29/21 A3002 RMK AO2 SLP164 T02940211,0,5.0,0,16090,0,0,0,
2026-04-08 12:56:00,METAR TJSJ 081256Z 09005KT 10SM FEW031 FEW120 28/22 A3003 RMK AO2 SLP167 T02780217 $,0,5.0,0,16090,0,0,0,
2026-04-08 11:56:00,METAR TJSJ 081156Z 08005KT 10SM FEW031 SCT120 26/22 A3002 RMK AO2 SLP166 T02610222 10261 20244 51018 $,0,5.0,0,16090,0,0,0,
2026-04-08 10:56:00,METAR TJSJ 081056Z 08003KT 10SM SCT033 SCT060 26/22 A3001 RMK AO2 SLP161 T02560217 $,0,3.0,0,16090,0,0,0,
2026-04-08 09:56:00,METAR TJSJ 080956Z 11004KT 10SM SCT032 BKN080 25/22 A2999 RMK AO2 SLP154 T02500217 $,0,4.0,0,16090,0,0,0,
2026-04-08 08:56:00,METAR TJSJ 080856Z 00000KT 10SM SCT036 SCT080 26/21 A2997 RMK AO2 SLP147 T02560211 55002 $,0,0.0,0,16090,0,0,0,
2026-04-08 07:56:00,METAR TJSJ 080756Z 06004KT 10SM FEW090 25/21 A2996 RMK AO2 SLP145 T02500206 $,0,4.0,0,16090,0,0,0,
2026-04-08 06:56:00,METAR TJSJ 080656Z 10003KT 10SM FEW090 25/21 A2996 RMK AO2 SLP145 T02500211 $,0,3.0,0,16090,0,0,0,
2026-04-08 05:56:00,METAR TJSJ 080556Z 00000KT 10SM FEW110 24/21 A2998 RMK AO2 SLP149 T02440211 10267 20244 58017 $,0,0.0,0,16090,0,0,0,
2026-04-08 04:56:00,METAR TJSJ 080456Z 08004KT 10SM FEW100 25/21 A3000 RMK AO2 SLP157 T02500211 $,0,4.0,0,16090,0,0,0,
2026-04-08 03:56:00,METAR TJSJ 080356Z 00000KT 10SM FEW090 26/21 A3002 RMK AO2 SLP164 T02560211 403220239 $,0,0.0,0,16090,0,0,0,
2026-04-08 02:56:00,METAR TJSJ 080256Z 12004KT 10SM SCT090 26/21 A3002 RMK AO2 SLP166 T02560211 53016 $,0,4.0,0,16090,0,0,0,
2026-04-08 01:56:00,METAR TJSJ 080156Z 09006KT 10SM FEW080 26/22 A3000 RMK AO2 SLP159 T02610217 $,0,6.0,0,16090,0,0,0,
2026-04-08 00:56:00,METAR TJSJ 080056Z 10005KT 10SM FEW080 26/22 A3000 RMK AO2 SLP156 T02560222 $,0,5.0,0,16090,0,0,0,
2026-04-07 23:56:00,METAR TJSJ 072356Z 09009KT 10SM FEW060 SCT080 27/22 A2998 RMK AO2 SLP150 T02670217 10322 20267 53015,0,9.0,0,16090,0,0,0,
2026-04-07 22:56:00,METAR TJSJ 072256Z 14008KT 10SM FEW030 SCT060 SCT095 28/20 A2995 RMK AO2 SLP142 T02780200,0,8.0,0,16090,0,0,0,
2026-04-07 21:56:00,METAR TJSJ 072156Z 14012G19KT 10SM FEW029 SCT060 SCT085 29/20 A2995 RMK AO2 SLP139 T02890200,0,12.0,1,16090,0,0,0,
2026-04-07 20:56:00,METAR TJSJ 072056Z 16012G19KT 10SM FEW034 SCT040 SCT085 31/21 A2993 RMK AO2 SLP135 T03060206 55003,0,12.0,1,16090,0,0,0,
2026-04-07 19:56:00,METAR TJSJ 071956Z 16011G18KT 10SM FEW035 SCT055 SCT095 31/21 A2993 RMK AO2 SLP132 T03110206,0,11.0,1,16090,0,0,0,
2026-04-07 18:56:00,METAR TJSJ 071856Z 16011G20KT 10SM FEW032 SCT045 SCT085 31/21 A2993 RMK AO2 SLP135 T03110206,0,11.0,1,16090,0,0,0,
2026-04-07 17:56:00,METAR TJSJ 071756Z 16010G18KT 10SM FEW029 SCT035 32/21 A2994 RMK AO2 SLP139 T03170211 10317 20256 58022,0,10.0,1,16090,0,0,0,
2026-04-07 16:56:00,METAR TJSJ 071656Z 18008G18KT 10SM FEW029 SCT037 31/22 A2997 RMK AO2 SLP148 T03110217,0,8.0,1,16090,0,0,0,
2026-04-07 15:56:00,METAR TJSJ 071556Z 15009G17KT 10SM FEW031 SCT035 SCT044 31/22 A2999 RMK AO2 SLP155 T03060217,0,9.0,1,16090,0,0,0,
2026-04-07 14:56:00,METAR TJSJ 071456Z 09006KT 10SM SCT031 SCT095 29/22 A3001 RMK AO2 SLP161 VCSH SE T02890217 50004,0,6.0,0,16090,0,0,0,"SH,VC"
2026-04-07 13:56:00,METAR TJSJ 071356Z 10005KT 10SM FEW036 SCT070 SCT100 28/21 A3002 RMK AO2 SLP163 VCSH SE-S T02780211,0,5.0,0,16090,0,0,0,"SH,VC"
2026-04-07 12:56:00,METAR TJSJ 071256Z 10004KT 10SM FEW033 SCT070 SCT100 26/22 A3000 RMK AO2 SLP159 VCSH NE SE T02610217,0,4.0,0,16090,0,0,0,"SH,VC"
2026-04-07 11:56:00,METAR TJSJ 071156Z VRB03KT 10SM FEW039 SCT100 26/22 A3000 RMK AO2 SLP156 VCSH SE-S 70003 T02560217 10256 20239 53018,0,3.0,0,16090,0,0,0,"SH,VC"
2026-04-07 10:56:00,METAR TJSJ 071056Z 00000KT 10SM FEW022 SCT030 SCT065 24/21 A2997 RMK AO2 SLP149 VCSH E-SE T02440211,0,0.0,0,16090,0,0,0,"SH,VC"
2026-04-07 09:56:00,METAR TJSJ 070956Z 13003KT 10SM FEW018 SCT026 SCT065 24/21 A2996 RMK AO2 SLP145 VCSH SE T02390211,0,3.0,0,16090,0,0,0,"SH,VC"
2026-04-07 08:56:00,METAR TJSJ 070856Z 10005KT 10SM FEW026 SCT038 SCT070 24/21 A2994 RMK AO2 SLP138 VCSH E-SE T02440206 55002,0,5.0,0,16090,0,0,0,"SH,VC"
2026-04-07 07:56:00,METAR TJSJ 070756Z 00000KT 10SM FEW026 SCT035 SCT070 25/21 A2993 RMK AO2 SLP134 VCSH SE T02500211,0,0.0,0,16090,0,0,0,"SH,VC"
2026-04-07 06:56:00,METAR TJSJ 070656Z 00000KT 10SM FEW030 SCT036 SCT070 26/22 A2993 RMK AO2 SLP135 T02560217,0,0.0,0,16090,0,0,0,
2026-04-07 05:56:00,METAR TJSJ 070556Z 09004KT 10SM FEW030 SCT075 25/21 A2995 RMK AO2 SLP140 FRQ LTGICCG DSNT NE CB DSNT SE T02500211 10267 20250 58011,0,4.0,0,16090,0,0,0,DS
2026-04-07 04:56:00,METAR TJSJ 070456Z 00000KT 10SM FEW030 SCT075 26/21 A2996 RMK AO2 SLP144 FRQ LTGIC DSNT NE CB DSNT NE T02560211,0,0.0,0,16090,0,0,0,DS
2026-04-07 03:56:00,METAR TJSJ 070356Z 00000KT 10SM FEW028 FEW070 26/21 A2998 RMK AO2 SLP150 T02610211 403170228,0,0.0,0,16090,0,0,0,
2026-04-07 02:56:00,METAR TJSJ 070256Z 12003KT 10SM FEW028 FEW070 26/21 A2998 RMK AO2 SLP151 T02610211 51018,0,3.0,0,16090,0,0,0,
2026-04-07 01:56:00,METAR TJSJ 070156Z 15004KT 10SM FEW060 SCT085 27/21 A2998 RMK AO2 SLP149 T02670211,0,4.0,0,16090,0,0,0,
2026-04-07 00:56:00,METAR TJSJ 070056Z 12004KT 10SM FEW080 27/21 A2995 RMK AO2 SLP141 T02670211,0,4.0,0,16090,0,0,0,
2026-04-06 23:56:00,METAR TJSJ 062356Z 15006KT 10SM FEW045 SCT070 27/21 A2993 RMK AO2 SLP133 T02670211 10317 20267 53010,0,6.0,0,16090,0,0,0,
2026-04-06 22:56:00,METAR TJSJ 062256Z 13005G15KT 10SM FEW025 SCT060 SCT095 27/21 A2992 RMK AO2 SLP130 T02720211,0,5.0,1,16090,0,0,0,
2026-04-06 21:56:00,METAR TJSJ 062156Z 15007KT 10SM FEW024 SCT065 SCT120 28/21 A2990 RMK AO2 SLP124 T02830206,0,7.0,0,16090,0,0,0,
2026-04-06 20:56:00,METAR TJSJ 062056Z 15011G19KT 10SM FEW029 SCT065 SCT095 30/19 A2990 RMK AO2 SLP123 T03000189 55008,0,11.0,1,16090,0,0,0,
2026-04-06 19:56:00,METAR TJSJ 061956Z 14014G22KT 10SM FEW029 SCT060 SCT085 31/18 A2989 RMK AO2 SLP121 T03110183,0,14.0,1,16090,0,0,0,
2026-04-06 18:56:00,METAR TJSJ 061856Z 15010G17KT 10SM FEW034 SCT060 SCT085 32/19 A2991 RMK AO2 SLP126 T03170189,0,10.0,1,16090,0,0,0,
2026-04-06 17:56:00,METAR TJSJ 061756Z 16010G18KT 10SM FEW045 31/19 A2992 RMK AO2 SLP131 60003 T03110189 10317 20239 58021,0,10.0,1,16090,0,0,0,
2026-04-06 16:56:00,METAR TJSJ 061656Z 16010KT 10SM FEW042 31/19 A2994 RMK AO2 SLP138 T03110194,0,10.0,0,16090,0,0,0,
2026-04-06 15:56:00,METAR TJSJ 061556Z 16009KT 10SM FEW028 FEW040 SCT065 31/20 A2996 RMK AO2 SLP146 T03060200,0,9.0,0,16090,0,0,0,
2026-04-06 14:56:00,METAR TJSJ 061456Z 15006KT 10SM FEW026 SCT032 SCT075 29/22 A2998 RMK AO2 SLP152 60003 T02890217 58007,0,6.0,0,16090,0,0,0,
2026-04-06 13:56:00,METAR TJSJ 061356Z 17006KT 10SM FEW015 SCT050 27/23 A3000 RMK AO2 RAE02 SLP157 P0000 T02670228 $,0,6.0,0,16090,0,0,0,
2026-04-06 12:56:00,METAR TJSJ 061256Z 10004KT 10SM -RA FEW040 SCT050 SCT070 24/22 A3001 RMK AO2 RAB33 SLP161 P0003 T02440222 $,0,4.0,0,16090,0,0,0,-RA
2026-04-06 11:56:00,METAR TJSJ 061156Z 07005KT 10SM FEW020 SCT036 BKN055 24/22 A3000 RMK AO2 RAB04E29 SLP159 VCSH NE-SE S P0000 60000 70010 T02440217 10244 20228 51016 $,0,5.0,0,16090,0,0,0,"RA,SH,VC"
2026-04-06 10:56:00,METAR TJSJ 061056Z 19003KT 10SM FEW027 SCT042 BKN060 24/21 A2999 RMK AO2 SLP155 VCSH NE-SE S T02390206 $,0,3.0,0,16090,0,0,0,"SH,VC"
2026-04-06 09:56:00,METAR TJSJ 060956Z 00000KT 10SM FEW029 SCT110 23/19 A2997 RMK AO2 SLP147 VCSH E SE T02330194 $,0,0.0,0,16090,0,0,0,"SH,VC"
2026-04-06 08:56:00,METAR TJSJ 060856Z 10005KT 10SM SCT029 SCT055 BKN085 23/20 A2996 RMK AO2 RAB38E50 SLP143 VCSH S P0000 60000 T02330200 55009 $,0,5.0,0,16090,0,0,0,"RA,SH,VC"
2026-04-06 07:56:00,METAR TJSJ 060756Z 00000KT 10SM SCT029 SCT055 BKN110 24/22 A2995 RMK AO2 SLP142 VCSH S T02390217 $,0,0.0,0,16090,0,0,0,"SH,VC"
2026-04-06 06:56:00,METAR TJSJ 060656Z 00000KT 10SM FEW034 BKN070 BKN090 24/22 A2996 RMK AO2 RAB35E44 SLP143 VCSH SW P0000 T02440217 $,0,0.0,0,16090,0,0,0,"RA,SH,VC"
2026-04-06 05:56:00,METAR TJSJ 060556Z 12003KT 10SM FEW034 BKN041 BKN060 24/22 A2998 RMK AO2 SLP152 VCSH SW T02390217 10250 20239 58010 $,0,3.0,0,16090,0,0,0,"SH,VC"
2026-04-06 04:56:00,METAR TJSJ 060456Z 00000KT 10SM FEW045 SCT065 24/21 A2999 RMK AO2 SLP154 VCSH NE T02440211 $,0,0.0,0,16090,0,0,0,"SH,VC"
2026-04-06 03:56:00,METAR TJSJ 060356Z 00000KT 10SM SCT050 25/21 A3001 RMK AO2 SLP161 SHRA DSNT N T02500206 402940233 $,0,0.0,0,16090,0,0,0,"DS,RA,SH"
2026-04-06 02:56:00,METAR TJSJ 060256Z 00000KT 10SM FEW055 SCT070 25/22 A3001 RMK AO2 SLP162 SHRA DSNT NE T02500217 51013 $,0,0.0,0,16090,0,0,0,"DS,RA,SH"
2026-04-06 00:56:00,METAR TJSJ 060056Z 11005KT 10SM FEW040 FEW090 24/21 A3000 RMK AO2 SLP156 T02440211 $,0,5.0,0,16090,0,0,0,
2026-04-05 23:56:00,METAR TJSJ 052356Z 09012KT 10SM FEW030 FEW090 25/22 A2998 RMK AO2 SLP149 60000 T02500217 10294 20250 53014 $,0,12.0,0,16090,0,0,0,
2026-04-05 22:56:00,METAR TJSJ 052256Z 10008KT 10SM FEW030 SCT047 SCT070 26/22 A2996 RMK AO2 SLP144 VCSH NE T02610222 $,0,8.0,0,16090,0,0,0,"SH,VC"
2026-04-05 21:56:00,METAR TJSJ 052156Z 09012KT 10SM FEW034 SCT055 SCT070 27/22 A2995 RMK AO2 SLP140 SHRA DSNT NE NW T02670217 $,0,12.0,0,16090,0,0,0,"DS,RA,SH"
2026-04-05 20:56:00,METAR TJSJ 052056Z 10014G20KT 10SM FEW045 SCT060 28/22 A2993 RMK AO2 SLP135 60000 T02830217 55008 $,0,14.0,1,16090,0,0,0,
2026-04-05 19:56:00,METAR TJSJ 051956Z 08012KT 10SM FEW045 SCT060 28/22 A2993 RMK AO2 SLP134 T02780222 $,0,12.0,0,16090,0,0,0,
2026-04-05 18:56:00,METAR TJSJ 051856Z 08013KT 10SM FEW035 SCT045 SCT080 29/21 A2994 RMK AO2 RAB06E12 SLP138 SHRA DSNT SE P0000 T02890211 $,0,13.0,0,16090,0,0,0,"DS,RA,SH"
2026-04-05 17:56:00,METAR TJSJ 051756Z 10014G21KT 10SM SCT035 SCT045 SCT080 29/21 A2996 RMK AO2 RAE08 SLP144 VCSH E-SE P0000 60010 T02890211 10294 20261 58020 $,0,14.0,1,16090,0,0,0,"SH,VC"
2026-04-05 16:56:00,METAR TJSJ 051656Z 09016G21KT 9SM -RA SCT036 SCT050 BKN065 28/22 A2998 RMK AO2 RAB56 SLP151 P0000 T02780217 $,0,16.0,1,14481,0,0,0,-RA
2026-04-05 15:56:00,METAR TJSJ 051556Z 09013KT 10SM SCT035 SCT045 BKN090 28/22 A3001 RMK AO2 SLP160 VCSH E T02830222 $,0,13.0,0,16090,0,0,0,"SH,VC"
2026-04-05 14:56:00,METAR TJSJ 051456Z 12005G19KT 10SM SCT025 BKN045 BKN060 27/23 A3002 RMK AO2 RAE1358B34E55 SLP164 VCSH SE NW P0009 60010 T02720228 50000 $,0,5.0,1,16090,0,0,0,"RA,SH,VC"
2026-04-05 12:56:00,METAR TJSJ 051256Z 13008KT 10SM FEW030 SCT065 SCT085 28/22 A3003 RMK AO2 SLP166 SHRA DSNT SE T02780217 $,0,8.0,0,16090,0,0,0,"DS,RA,SH"
2026-04-05 11:56:00,METAR TJSJ 051156Z 13004KT 10SM FEW029 SCT060 SCT085 26/21 A3002 RMK AO2 SLP164 SHRA DSNT SE T02610211 10261 20233 51016 $,0,4.0,0,16090,0,0,0,"DS,RA,SH"
2026-04-05 10:56:00,METAR TJSJ 051056Z 13003KT 10SM FEW030 SCT060 SCT085 24/21 A3000 RMK AO2 SLP159 VCSH N T02440206 $,0,3.0,0,16090,0,0,0,"SH,VC"
2026-04-05 09:56:00,METAR TJSJ 050956Z 00000KT 10SM FEW028 FEW075 23/21 A2999 RMK AO2 SLP154 SHRA DSNT NE E T02330206 $,0,0.0,0,16090,0,0,0,"DS,RA,SH"
2026-04-05 08:56:00,METAR TJSJ 050856Z 12004KT 10SM FEW030 FEW075 24/21 A2997 RMK AO2 SLP148 T02390206 56006 $,0,4.0,0,16090,0,0,0,
2026-04-05 07:56:00,METAR TJSJ 050756Z 00000KT 10SM FEW028 FEW055 24/21 A2997 RMK AO2 SLP148 T02390211 $,0,0.0,0,16090,0,0,0,
2026-04-05 06:56:00,METAR TJSJ 050656Z 12005KT 10SM FEW028 FEW045 24/21 A2997 RMK AO2 SLP149 T02440211 $,0,5.0,0,16090,0,0,0,
2026-04-05 05:56:00,METAR TJSJ 050556Z 13003KT 10SM FEW025 FEW050 24/21 A2999 RMK AO2 SLP154 60000 T02440211 10261 20244 58015 $,0,3.0,0,16090,0,0,0,
2026-04-05 04:56:00,METAR TJSJ 050456Z 11005KT 10SM FEW025 FEW050 24/22 A3001 RMK AO2 SLP160 T02440217 $,0,5.0,0,16090,0,0,0,
2026-04-05 03:56:00,METAR TJSJ 050356Z 12004KT 10SM FEW028 25/22 A3003 RMK AO2 RAB11E24 SLP167 P0000 T02500217 402890228 $,0,4.0,0,16090,0,0,0,RA
2026-04-05 02:56:00,METAR TJSJ 050256Z 10006KT 10SM FEW038 24/22 A3003 RMK AO2 SLP169 T02440217 50008 $,0,6.0,0,16090,0,0,0,
2026-04-05 01:56:00,METAR TJSJ 050156Z 11008KT 10SM FEW040 26/22 A3004 RMK AO2 SLP171 T02560217 $,0,8.0,0,16090,0,0,0,
2026-04-05 00:56:00,METAR TJSJ 050056Z 09007KT 10SM SCT023 SCT100 26/22 A3002 RMK AO2 SLP166 T02560217 $,0,7.0,0,16090,0,0,0,
2026-04-04 23:56:00,METAR TJSJ 042356Z 10008KT 10SM FEW040 FEW110 26/21 A3001 RMK AO2 SLP161 T02610211 10289 20256 53014 $,0,8.0,0,16090,0,0,0,
2026-04-04 22:56:00,METAR TJSJ 042256Z 10010KT 10SM SCT024 SCT100 26/22 A2999 RMK AO2 SLP155 SHRA DSNT N NE NW T02610217 $,0,10.0,0,16090,0,0,0,"DS,RA,SH"
2026-04-04 21:56:00,METAR TJSJ 042156Z 09012KT 10SM SCT034 SCT120 27/22 A2997 RMK AO2 SLP148 SHRA DSNT W NW-NE T02670217 $,0,12.0,0,16090,0,0,0,"DS,RA,SH"
2026-04-04 20:56:00,METAR TJSJ 042056Z 08015KT 10SM SCT034 SCT120 28/23 A2997 RMK AO2 PK WND 06027/2033 SLP147 SHRA DSNT W T02780228 55007 $,0,15.0,0,16090,0,0,0,"DS,RA,SH"
2026-04-04 19:56:00,METAR TJSJ 041956Z 06018G24KT 10SM SCT036 SCT100 28/22 A2996 RMK AO2 PK WND 08026/1859 SLP144 SHRA DSNT SW-W T02780217 $,0,18.0,1,16090,0,0,0,"DS,RA,SH"
2026-04-04 18:56:00,METAR TJSJ 041856Z 07016KT 10SM SCT038 SCT080 28/22 A2997 RMK AO2 SLP148 T02830222 $,0,16.0,0,16090,0,0,0,
2026-04-04 17:56:00,METAR TJSJ 041756Z 07014KT 10SM FEW036CB SCT060 SCT095 28/22 A2999 RMK AO2 SLP154 VCSH S-SW CB SE-SW MOV NW T02780222 10289 20256 57016 $,0,14.0,0,16090,0,0,0,"SH,VC"
2026-04-04 16:56:00,METAR TJSJ 041656Z 07014G21KT 10SM FEW038CB SCT065 SCT100 27/22 A3000 RMK AO2 SLP158 VCSH S-W CB SE-SW-W MOV NW T02720217 $,0,14.0,1,16090,0,0,0,"SH,VC"
2026-04-04 15:56:00,METAR TJSJ 041556Z 07018KT 10SM FEW038CB SCT050 SCT095 29/22 A3002 RMK AO2 SLP165 VCSH SW CB S-W MOV NW T02890217 $,0,18.0,0,16090,0,0,0,"SH,VC"
2026-04-04 14:56:00,METAR TJSJ 041456Z 08014KT 10SM FEW035 SCT060 SCT100 29/22 A3004 RMK AO2 SLP170 VCSH S SW T02890222 51005 $,0,14.0,0,16090,0,0,0,"SH,VC"
2026-04-04 13:56:00,METAR TJSJ 041356Z 07013KT 10SM FEW025 SCT043 SCT095 27/22 A3003 RMK AO2 SLP169 T02720217 $,0,13.0,0,16090,0,0,0,
2026-04-04 12:56:00,METAR TJSJ 041256Z 09011KT 10SM FEW032 SCT060 BKN085 27/22 A3003 RMK AO2 SLP169 T02720217 $,0,11.0,0,16090,0,0,0,
2026-04-04 11:56:00,METAR TJSJ 041156Z 12004KT 10SM FEW025 SCT065 BKN095 26/22 A3002 RMK AO2 SLP165 VCSH NW 60006 70006 T02560217 10256 20228 53010 $,0,4.0,0,16090,0,0,0,"SH,VC"
2026-04-04 10:56:00,METAR TJSJ 041056Z 15003KT 10SM FEW028 SCT060 BKN095 23/21 A3000 RMK AO2 SLP159 T02330206 $,0,3.0,0,16090,0,0,0,
2026-04-04 09:56:00,METAR TJSJ 040956Z 12003KT 10SM FEW022 SCT030 23/21 A3000 RMK AO2 SLP157 T02330206 $,0,3.0,0,16090,0,0,0,
2026-04-04 08:56:00,METAR TJSJ 040856Z 00000KT 10SM FEW022 23/22 A2999 RMK AO2 SLP155 60006 T02330217 55007 $,0,0.0,0,16090,0,0,0,
2026-04-04 07:56:00,METAR TJSJ 040756Z 11003KT 10SM FEW025 23/22 A2998 RMK AO2 RAE00 SLP151 P0005 T02330217 $,0,3.0,0,16090,0,0,0,
2026-04-04 06:56:00,METAR TJSJ 040656Z 10011G18KT 10SM RA SCT025 24/21 A2999 RMK AO2 RAB51 SLP155 P0001 T02390206 $,0,11.0,1,16090,0,0,0,RA
2026-04-04 05:56:00,METAR TJSJ 040556Z 14003KT 10SM SCT025 24/21 A3001 RMK AO2 SLP162 T02440211 10256 20244 58014 $,0,3.0,0,16090,0,0,0,
2026-04-04 04:56:00,METAR TJSJ 040456Z 12004KT 10SM FEW022 25/21 A3003 RMK AO2 SLP168 T02500211 $,0,4.0,0,16090,0,0,0,
2026-04-04 03:56:00,METAR TJSJ 040356Z 15003KT 10SM FEW022 25/21 A3005 RMK AO2 SLP174 T02500211 402890228 $,0,3.0,0,16090,0,0,0,
2026-04-04 02:56:00,METAR TJSJ 040256Z 10006KT 10SM FEW022 26/21 A3005 RMK AO2 SLP176 T02560206 51012 $,0,6.0,0,16090,0,0,0,
2026-04-04 01:56:00,METAR TJSJ 040156Z 09007KT 10SM FEW023 SCT100 25/21 A3005 RMK AO2 SLP174 T02500211 $,0,7.0,0,16090,0,0,0,
2026-04-04 00:56:00,METAR TJSJ 040056Z 09009KT 10SM FEW023 FEW075 26/22 A3003 RMK AO2 SLP169 T02560217 $,0,9.0,0,16090,0,0,0,
2026-04-03 23:56:00,METAR TJSJ 032356Z 09009KT 10SM FEW023 FEW080 26/21 A3002 RMK AO2 SLP164 T02560211 10289 20256 53013 $,0,9.0,0,16090,0,0,0,
2026-04-03 22:56:00,METAR TJSJ 032256Z 08011KT 10SM SCT023 SCT100 26/21 A3000 RMK AO2 SLP158 T02610206 $,0,11.0,0,16090,0,0,0,
2026-04-03 21:56:00,METAR TJSJ 032156Z 07012KT 10SM FEW023 SCT080 SCT130 27/21 A2999 RMK AO2 SLP153 T02670206 $,0,12.0,0,16090,0,0,0,
2026-04-03 20:56:00,METAR TJSJ 032056Z 07013G18KT 10SM FEW032 SCT130 27/21 A2998 RMK AO2 SLP151 T02720206 56008 $,0,13.0,1,16090,0,0,0,
2026-04-03 19:56:00,METAR TJSJ 031956Z 05013KT 10SM FEW035 SCT100 28/21 A2998 RMK AO2 SLP151 T02780206 $,0,13.0,0,16090,0,0,0,
2026-04-03 18:56:00,METAR TJSJ 031856Z 06015G22KT 10SM SCT035 28/21 A2999 RMK AO2 SLP153 T02830206 $,0,15.0,1,16090,0,0,0,
2026-04-03 17:56:00,METAR TJSJ 031756Z 05012G21KT 10SM FEW020 SCT030 28/21 A3000 RMK AO2 PK WND 07026/1658 SLP158 60000 T02830206 10289 20239 58016 $,0,12.0,1,16090,0,0,0,
2026-04-03 16:56:00,METAR TJSJ 031656Z 07011G19KT 10SM SCT028 28/21 A3002 RMK AO2 SLP165 T02780206 $,0,11.0,1,16090,0,0,0,
2026-04-03 15:56:00,METAR TJSJ 031556Z 08014KT 10SM SCT028 28/21 A3004 RMK AO2 SLP172 T02780211 $,0,14.0,0,16090,0,0,0,
2026-04-03 14:56:00,METAR TJSJ 031456Z 08014KT 10SM FEW022 SCT035 28/21 A3005 RMK AO2 SLP175 60000 T02780206 51009 $,0,14.0,0,16090,0,0,0,
2026-04-03 13:56:00,METAR TJSJ 031356Z 08016G22KT 10SM SCT028 27/21 A3005 RMK AO2 SLP174 T02720206 $,0,16.0,1,16090,0,0,0,
2026-04-03 12:56:00,METAR TJSJ 031256Z 07014G21KT 10SM SCT027 SCT065 27/21 A3004 RMK AO2 SLP172 T02670206 $,0,14.0,1,16090,0,0,0,
2026-04-03 11:56:00,METAR TJSJ 031156Z 09006KT 10SM FEW025 SCT050 SCT075 24/21 A3002 RMK AO2 RAE18B36E55 SLP166 VCSH S SW P0007 60009 70012 T02390211 10250 20228 51016 $,0,6.0,0,16090,0,0,0,"RA,SH,VC"
2026-04-03 08:56:00,METAR TJSJ 030856Z 12003KT 10SM FEW022 SCT050 24/21 A2998 RMK AO2 RAB0759E16 SLP150 P0000 60000 T02440206 56006 $,0,3.0,0,16090,0,0,0,RA
2026-04-03 05:56:00,METAR TJSJ 030556Z 07010KT 10SM FEW027 SCT042 SCT070 24/21 A3000 RMK AO2 RAE10B32E56 SLP156 VCSH W P0001 60003 T02440211 10256 20239 58016 $,0,10.0,0,16090,0,0,0,"RA,SH,VC"
2026-04-03 04:56:00,METAR TJSJ 030456Z 07011KT 10SM -RA SCT025 SCT035 25/21 A3002 RMK AO2 RAB56 SLP164 P0000 T02500206 $,0,11.0,0,16090,0,0,0,-RA
2026-04-03 03:56:00,METAR TJSJ 030356Z 07012G20KT 10SM SCT025 25/21 A3004 RMK AO2 RAE07 SLP170 P0000 T02500206 402940233 $,0,12.0,1,16090,0,0,0,
2026-04-03 02:56:00,METAR TJSJ 030256Z 08014KT 10SM -RA SCT025 SCT060 25/21 A3004 RMK AO2 RAB56 SLP172 P0000 60002 T02500211 51013 $,0,14.0,0,16090,0,0,0,-RA
2026-04-03 01:56:00,METAR TJSJ 030156Z 07011KT 10SM SCT025 24/21 A3004 RMK AO2 RAB16E33 SLP169 P0002 T02440211 $,0,11.0,0,16090,0,0,0,RA
2026-04-03 00:56:00,METAR TJSJ 030056Z 08010KT 10SM SCT023 SCT070 25/21 A3003 RMK AO2 RAB17E27 SLP166 VCSH SW P0000 T02500211 $,0,10.0,0,16090,0,0,0,"RA,SH,VC"
2026-04-02 23:56:00,METAR TJSJ 022356Z 08010KT 10SM SCT023 SCT075 26/21 A3001 RMK AO2 SLP159 60000 T02560211 10289 20250 53010 $,0,10.0,0,16090,0,0,0,
2026-04-02 22:56:00,METAR TJSJ 022256Z 07010KT 10SM FEW025 SCT048 SCT120 26/21 A3000 RMK AO2 RAB30E46 SLP156 VCSH SE W P0000 T02560211 $,0,10.0,0,16090,0,0,0,"RA,SH,VC"
2026-04-02 21:56:00,METAR TJSJ 022156Z 09012KT 10SM FEW025 SCT065 SCT120 27/21 A2998 RMK AO2 SLP151 VCSH NW T02670206 $,0,12.0,0,16090,0,0,0,"SH,VC"
2026-04-02 20:56:00,METAR TJSJ 022056Z 07013KT 10SM FEW025 SCT055 SCT120 27/21 A2997 RMK AO2 SLP149 SHRA DSNT SW T02720211 56007 $,0,13.0,0,16090,0,0,0,"DS,RA,SH"
2026-04-02 19:56:00,METAR TJSJ 021956Z 06015KT 10SM SCT025 SCT075 28/21 A2998 RMK AO2 PK WND 04027/1917 SLP149 SHRA DSNT SE SW T02780211 $,0,15.0,0,16090,0,0,0,"DS,RA,SH"
2026-04-02 18:56:00,METAR TJSJ 021856Z 07016G23KT 10SM SCT025 SCT120 28/21 A2998 RMK AO2 SLP150 VCSH S T02780211 $,0,16.0,1,16090,0,0,0,"SH,VC"
2026-04-02 17:56:00,METAR TJSJ 021756Z 06015KT 10SM FEW025 SCT055 SCT090 28/21 A2999 RMK AO2 PK WND 05026/1744 SLP156 VCSH SE SW T02830211 10294 20250 58017 $,0,15.0,0,16090,0,0,0,"SH,VC"
2026-04-02 16:56:00,METAR TJSJ 021656Z 07016G28KT 10SM FEW027 SCT046 SCT065 28/21 A3002 RMK AO2 PK WND 06028/1654 SLP163 VCSH S T02830211 $,0,16.0,1,16090,0,0,0,"SH,VC"
2026-04-02 15:56:00,METAR TJSJ 021556Z 06016KT 10SM FEW028 SCT040 SCT070 29/21 A3004 RMK AO2 SLP172 VCSH SE T02890206 $,0,16.0,0,16090,0,0,0,"SH,VC"
2026-04-02 14:56:00,METAR TJSJ 021456Z 06014G25KT 10SM FEW028 SCT040 SCT070 28/21 A3004 RMK AO2 SLP172 VCSH SE T02780206 50013 $,0,14.0,1,16090,0,0,0,"SH,VC"
2026-04-02 13:56:00,METAR TJSJ 021356Z 07017KT 10SM FEW026 SCT036 27/21 A3004 RMK AO2 SLP173 VCSH S-W T02720211 $,0,17.0,0,16090,0,0,0,"SH,VC"
2026-04-02 12:56:00,METAR TJSJ 021256Z 10013KT 10SM FEW026 SCT034 SCT060 27/21 A3003 RMK AO2 SLP166 VCSH S W-NW T02670211,0,13.0,0,16090,0,0,0,"SH,VC"
2026-04-02 11:56:00,METAR TJSJ 021156Z 12003KT 10SM FEW026 FEW031 SCT040 25/21 A3000 RMK AO2 SLP159 VCSH SE NW 60000 70003 T02500211 10250 20233 53019 $,0,3.0,0,16090,0,0,0,"SH,VC"
2026-04-02 10:56:00,METAR TJSJ 021056Z 00000KT 10SM SCT025 BKN060 23/21 A2998 RMK AO2 SLP151 T02330211 $,0,0.0,0,16090,0,0,0,
2026-04-02 09:56:00,METAR TJSJ 020956Z 00000KT 10SM SCT025 BKN060 23/21 A2997 RMK AO2 RAB50E55 SLP146 P0000 T02330211 $,0,0.0,0,16090,0,0,0,RA
2026-04-02 08:56:00,METAR TJSJ 020856Z 00000KT 10SM FEW028 SCT034 SCT060 23/21 A2995 RMK AO2 SLP140 60000 T02330211 55008 $,0,0.0,0,16090,0,0,0,
2026-04-02 07:56:00,METAR TJSJ 020756Z 12003KT 10SM FEW025 SCT030 SCT046 24/21 A2995 RMK AO2 RAB18E29 SLP139 P0000 T02390211 $,0,3.0,0,16090,0,0,0,RA
2026-04-02 06:56:00,METAR TJSJ 020656Z 11005KT 10SM FEW025 SCT055 24/21 A2995 RMK AO2 SLP142 T02390211 $,0,5.0,0,16090,0,0,0,
2026-04-02 05:56:00,METAR TJSJ 020556Z 12004KT 10SM SCT025 SCT055 24/21 A2997 RMK AO2 RAB02E14 SLP148 P0002 60003 T02390211 10256 20233 58016 $,0,4.0,0,16090,0,0,0,RA
2026-04-02 04:56:00,METAR TJSJ 020456Z 00000KT 10SM FEW025 SCT050 24/21 A3000 RMK AO2 RAB21E31 SLP157 T02390211,0,0.0,0,16090,0,0,0,RA
2026-04-02 03:56:00,METAR TJSJ 020356Z 12003KT 10SM FEW028 SCT036 SCT060 24/21 A3001 RMK AO2 RAB40E56 SLP162 P0001 T02440211 402890233,0,3.0,0,16090,0,0,0,RA
2026-04-02 02:56:00,METAR TJSJ 020256Z VRB03KT 10SM FEW028 SCT034 SCT060 25/21 A3002 RMK AO2 SLP164 T02500206 51013,0,3.0,0,16090,0,0,0,
2026-04-02 01:56:00,METAR TJSJ 020156Z 11005KT 10SM FEW028 SCT034 26/21 A3001 RMK AO2 SLP161 T02560206,0,5.0,0,16090,0,0,0,
2026-04-02 00:56:00,METAR TJSJ 020056Z 10006KT 10SM FEW026 FEW040 26/20 A3001 RMK AO2 SLP161 VCSH W T02560200,0,6.0,0,16090,0,0,0,"SH,VC"
2026-04-01 23:56:00,METAR TJSJ 012356Z 09010KT 10SM SCT023 SCT034 26/21 A2998 RMK AO2 SLP152 T02560211 10289 20256 51013,0,10.0,0,16090,0,0,0,
2026-04-01 22:56:00,METAR TJSJ 012256Z 07010KT 10SM SCT023 26/21 A2997 RMK AO2 SLP149 T02560211,0,10.0,0,16090,0,0,0,
2026-04-01 21:56:00,METAR TJSJ 012156Z 08011G19KT 10SM SCT033 SCT055 27/21 A2996 RMK AO2 SLP146 T02670211,0,11.0,1,16090,0,0,0,
2026-04-01 20:56:00,METAR TJSJ 012056Z 08015KT 10SM SCT037 27/21 A2994 RMK AO2 SLP139 T02720206 55008,0,15.0,0,16090,0,0,0,
2026-04-01 19:56:00,METAR TJSJ 011956Z 07016KT 10SM SCT034 28/21 A2994 RMK AO2 SLP138 SHRA DSNT S T02780206,0,16.0,0,16090,0,0,0,"DS,RA,SH"
2026-04-01 18:56:00,METAR TJSJ 011856Z 06012G21KT 10SM SCT036 28/21 A2995 RMK AO2 SLP142 SHRA DSNT SW T02830211,0,12.0,1,16090,0,0,0,"DS,RA,SH"
2026-04-01 17:56:00,METAR TJSJ 011756Z 05014G20KT 10SM SCT038 28/22 A2997 RMK AO2 SLP147 VCSH S T02830217 10289 20250 58019,0,14.0,1,16090,0,0,0,"SH,VC"
2026-04-01 16:56:00,METAR TJSJ 011656Z 06011G19KT 10SM FEW036 FEW065 28/21 A2999 RMK AO2 SLP155 T02830211,0,11.0,1,16090,0,0,0,
2026-04-01 15:56:00,METAR TJSJ 011556Z 07012G21KT 10SM FEW032 FEW060 28/21 A3001 RMK AO2 SLP162 T02780206,0,12.0,1,16090,0,0,0,
2026-04-01 14:56:00,METAR TJSJ 011456Z 01006G15KT 10SM FEW023 SCT046 SCT055 27/21 A3002 RMK AO2 SLP165 VCSH S SW T02720211 52010,0,6.0,1,16090,0,0,0,"SH,VC"
2026-04-01 13:56:00,METAR TJSJ 011356Z 08007KT 10SM FEW026 SCT048 27/21 A3002 RMK AO2 SLP163 VCSH N S T02670206,0,7.0,0,16090,0,0,0,"SH,VC"
2026-04-01 12:56:00,METAR TJSJ 011256Z 08006KT 10SM FEW026 SCT055 26/21 A3000 RMK AO2 SLP158 VCSH N SE T02610206,0,6.0,0,16090,0,0,0,"SH,VC"
2026-04-01 11:56:00,METAR TJSJ 011156Z 10003KT 10SM SCT030 SCT060 25/21 A2999 RMK AO2 RAE10 SLP155 VCSH N SE P0000 60000 70001 T02500211 10250 20233 53019,0,3.0,0,16090,0,0,0,"SH,VC"
2026-04-01 10:56:00,METAR TJSJ 011056Z 19003KT 9SM -RA FEW030 SCT060 24/21 A2998 RMK AO2 RAB06E16B55 SLP150 P0000 T02390211,0,3.0,0,14481,0,0,0,"-RA,RA"
2026-04-01 09:56:00,METAR TJSJ 010956Z 00000KT 10SM FEW025 SCT031 23/21 A2995 RMK AO2 RAB41E51 SLP141 VCSH W P0000 T02330206,0,0.0,0,16090,0,0,0,"RA,SH,VC"
2026-04-01 08:56:00,METAR TJSJ 010856Z 13003KT 10SM FEW025 SCT038 SCT075 24/21 A2994 RMK AO2 RAB32E42 SLP137 P0000 60000 T02390211 56012,0,3.0,0,16090,0,0,0,RA
2026-04-01 07:56:00,METAR TJSJ 010756Z 17003KT 10SM SCT025 24/21 A2994 RMK AO2 SLP137 T02390206,0,3.0,0,16090,0,0,0,
2026-04-01 06:56:00,METAR TJSJ 010656Z 12003KT 10SM SCT026 24/21 A2995 RMK AO2 SLP142 T02390206,0,3.0,0,16090,0,0,0,
2026-04-01 05:56:00,METAR TJSJ 010556Z 10005KT 10SM SCT026 24/21 A2997 RMK AO2 SLP148 VCSH SE 60001 T02390211 10261 20239 58020,0,5.0,0,16090,0,0,0,"SH,VC"
2026-04-01 04:56:00,METAR TJSJ 010456Z 13005KT 10SM FEW026 SCT032 24/22 A2999 RMK AO2 RAB33E43 SLP156 VCSH E W NW P0001 T02440217,0,5.0,0,16090,0,0,0,"RA,SH,VC"
2026-04-01 03:56:00,METAR TJSJ 010356Z 07009KT 10SM SCT026 25/20 A3001 RMK AO2 SLP162 VCSH E T02500200 402890233,0,9.0,0,16090,0,0,0,"SH,VC"
2026-04-01 02:56:00,METAR TJSJ 010256Z 07009KT 10SM FEW026 SCT048 26/21 A3003 RMK AO2 SLP168 VCSH S SW T02560211 50012,0,9.0,0,16090,0,0,0,"SH,VC"
2026-04-01 01:56:00,METAR TJSJ 010156Z 06011KT 10SM SCT026 SCT060 26/20 A3004 RMK AO2 SLP170 T02560200,0,11.0,0,16090,0,0,0,
2026-04-01 00:56:00,METAR TJSJ 010056Z 05010KT 10SM FEW026 SCT055 26/21 A3002 RMK AO2 SLP164 T02560206,0,10.0,0,16090,0,0,0,
2026-03-31 23:56:00,METAR TJSJ 312356Z 05007KT 10SM FEW026 SCT055 26/21 A3000 RMK AO2 SLP156 60000 T02560206 10289 20256 53009,0,7.0,0,16090,0,0,0,
2026-03-31 22:56:00,METAR TJSJ 312256Z 05008KT 10SM SCT025 SCT065 26/21 A2998 RMK AO2 RAB40E52 SLP151 P0000 T02560211,0,8.0,0,16090,0,0,0,RA
2026-03-31 21:56:00,METAR TJSJ 312156Z 06010KT 10SM FEW030 SCT065 26/20 A2997 RMK AO2 SLP148 SHRA DSNT SW-W T02610200,0,10.0,0,16090,0,0,0,"DS,RA,SH"
2026-03-31 20:56:00,METAR TJSJ 312056Z 05013KT 10SM FEW024 SCT050 SCT065 27/20 A2997 RMK AO2 SLP147 VCSH NE T02720200 56011,0,13.0,0,16090,0,0,0,"SH,VC"
2026-03-31 19:56:00,METAR TJSJ 311956Z 04014G22KT 10SM FEW026 SCT060 28/21 A2998 RMK AO2 PK WND 03026/1911 SLP149 T02780211,0,14.0,1,16090,0,0,0,
2026-03-31 18:56:00,METAR TJSJ 311856Z 05013G24KT 10SM FEW034 SCT060 28/21 A2998 RMK AO2 SLP151 T02780206,0,13.0,1,16090,0,0,0,
2026-03-31 17:56:00,METAR TJSJ 311756Z 05012KT 10SM SCT030 29/21 A3000 RMK AO2 SLP158 T02890206 10289 20256 58021,0,12.0,0,16090,0,0,0,
2026-03-31 16:56:00,METAR TJSJ 311656Z 06012G20KT 10SM SCT030 29/21 A3003 RMK AO2 SLP166 T02890206,0,12.0,1,16090,0,0,0,
2026-03-31 15:56:00,METAR TJSJ 311556Z 06012G20KT 10SM SCT030 28/20 A3005 RMK AO2 SLP174 T02830200,0,12.0,1,16090,0,0,0,
2026-03-31 14:56:00,METAR TJSJ 311456Z 07013G19KT 10SM SCT027 28/21 A3006 RMK AO2 SLP179 T02830206 51005,0,13.0,1,16090,0,0,0,
2026-03-31 13:56:00,METAR TJSJ 311356Z 06011KT 10SM FEW030 28/19 A3006 RMK AO2 SLP178 T02780194,0,11.0,0,16090,0,0,0,
2026-03-31 12:56:00,METAR TJSJ 311256Z 06013KT 10SM FEW027 FEW034 SCT049 27/19 A3006 RMK AO2 SLP178 VCSH NE T02670194,0,13.0,0,16090,0,0,0,"SH,VC"
2026-03-31 11:56:00,METAR TJSJ 311156Z 16003KT 10SM FEW028 26/21 A3005 RMK AO2 SLP173 VCSH SE 60000 T02560206 10256 20233 53012,0,3.0,0,16090,0,0,0,"SH,VC"
2026-03-31 10:56:00,METAR TJSJ 311056Z 00000KT 10SM FEW028 FEW065 24/20 A3003 RMK AO2 RAB0958E12 SLP167 P0000 T02390200,0,0.0,0,16090,0,0,0,RA
2026-03-31 09:56:00,METAR TJSJ 310956Z 00000KT 10SM SCT026 SCT038 24/20 A3002 RMK AO2 SLP166 T02390200,0,0.0,0,16090,0,0,0,
2026-03-31 08:56:00,METAR TJSJ 310856Z 00000KT 10SM FEW026 BKN035 BKN080 23/20 A3001 RMK AO2 SLP162 T02330200 55006,0,0.0,0,16090,0,0,0,
2026-03-31 07:56:00,METAR TJSJ 310756Z 17004KT 10SM SCT028 BKN040 24/20 A3000 RMK AO2 RAB53E56 SLP159 P0000 T02390200,0,4.0,0,16090,0,0,0,RA
2026-03-31 06:56:00,METAR TJSJ 310656Z 00000KT 10SM SCT028 BKN036 24/19 A3000 RMK AO2 SLP159 VCSH SE T02390194,0,0.0,0,16090,0,0,0,"SH,VC"
2026-03-31 05:56:00,METAR TJSJ 310556Z 00000KT 10SM SCT023 BKN032 23/18 A3003 RMK AO2 SLP168 T02330183 10256 20233 58011,0,0.0,0,16090,0,0,0,
2026-03-31 04:56:00,METAR TJSJ 310456Z 08015G21KT 10SM SCT023 BKN032 24/20 A3006 RMK AO2 SLP178 VCSH SE-S T02390200,0,15.0,1,16090,0,0,0,"SH,VC"
2026-03-31 03:56:00,METAR TJSJ 310356Z 05010KT 10SM SCT026 SCT037 24/21 A3006 RMK AO2 SLP178 T02440206 402830233,0,10.0,0,16090,0,0,0,
2026-03-31 02:56:00,METAR TJSJ 310256Z 06014G21KT 10SM FEW029 SCT050 26/20 A3006 RMK AO2 SLP179 T02560200 51011,0,14.0,1,16090,0,0,0,
2026-03-31 01:56:00,METAR TJSJ 310156Z 06013KT 10SM FEW029 SCT050 26/19 A3006 RMK AO2 SLP178 T02560194,0,13.0,0,16090,0,0,0,
2026-03-31 00:56:00,METAR TJSJ 310056Z 06012G23KT 10SM SCT023 SCT027 BKN048 26/21 A3005 RMK AO2 SLP175 T02560206,0,12.0,1,16090,0,0,0,
2026-03-30 23:56:00,METAR TJSJ 302356Z 06014G19KT 10SM FEW027 SCT037 SCT070 26/21 A3003 RMK AO2 RAB32E43 SLP168 P0000 60000 T02560206 10283 20256 53015,0,14.0,1,16090,0,0,0,RA
2026-03-30 22:56:00,METAR TJSJ 302256Z 06014KT 10SM FEW027 SCT050 26/19 A3001 RMK AO2 SLP162 VCSH NW T02610194,0,14.0,0,16090,0,0,0,"SH,VC"
2026-03-30 21:56:00,METAR TJSJ 302156Z 07013KT 10SM FEW027 SCT033 27/20 A3000 RMK AO2 SLP158 VCSH SE T02670200,0,13.0,0,16090,0,0,0,"SH,VC"
2026-03-30 20:56:00,METAR TJSJ 302056Z 06014G24KT 10SM FEW027 SCT060 27/20 A2999 RMK AO2 PK WND 04027/1959 SLP154 VCSH S SW T02720200 55008,0,14.0,1,16090,0,0,0,"SH,VC"
2026-03-30 19:56:00,METAR TJSJ 301956Z 05013G25KT 10SM FEW029 SCT043 SCT090 28/21 A2999 RMK AO2 SLP154 SHRA DSNT SE T02780206,0,13.0,1,16090,0,0,0,"DS,RA,SH"
2026-03-30 18:56:00,METAR TJSJ 301856Z 04015G22KT 10SM SCT027 SCT065 28/20 A2999 RMK AO2 SLP155 T02780200,0,15.0,1,16090,0,0,0,
2026-03-30 17:56:00,METAR TJSJ 301756Z 08015KT 10SM SCT027 28/21 A3001 RMK AO2 SLP162 VCSH SE 60000 T02780211 10283 20261 58019,0,15.0,0,16090,0,0,0,"SH,VC"
2026-03-30 16:56:00,METAR TJSJ 301656Z 06014KT 10SM SCT036 28/20 A3004 RMK AO2 RAE1557 SLP170 VCSH SW P0000 T02830200,0,14.0,0,16090,0,0,0,"RA,SH,VC"
2026-03-30 15:56:00,METAR TJSJ 301556Z 06015KT 10SM -RA SCT031 28/21 A3006 RMK AO2 RAB55 SLP179 P0000 T02780206 $,0,15.0,0,16090,0,0,0,-RA
2026-03-30 14:56:00,METAR TJSJ 301456Z 05014G22KT 10SM FEW033 SCT048 28/21 A3007 RMK AO2 SLP180 VCSH S T02780211 50010 $,0,14.0,1,16090,0,0,0,"SH,VC"
2026-03-30 13:56:00,METAR TJSJ 301356Z 05011KT 10SM FEW026 FEW033 SCT045 28/20 A3007 RMK AO2 SLP181 VCSH S T02780200,0,11.0,0,16090,0,0,0,"SH,VC"
2026-03-30 12:56:00,METAR TJSJ 301256Z 06011G20KT 10SM FEW026 FEW033 SCT044 27/21 A3005 RMK AO2 SLP175 SHRA DSNT SE SW T02720206 $,0,11.0,1,16090,0,0,0,"DS,RA,SH"
2026-03-30 11:56:00,METAR TJSJ 301156Z 07012KT 10SM FEW030 SCT044 26/20 A3004 RMK AO2 RAB24E33 SLP170 SHRA DSNT W P0000 60000 T02610200 10261 20233 53018 $,0,12.0,0,16090,0,0,0,"DS,RA,SH"
2026-03-30 10:56:00,METAR TJSJ 301056Z VRB05KT 10SM FEW029 SCT042 24/19 A3001 RMK AO2 SLP161 VCSH SE SW T02440194 $,0,5.0,0,16090,0,0,0,"SH,VC"
2026-03-30 09:56:00,METAR TJSJ 300956Z 07007KT 10SM SCT029 SCT039 BKN048 24/20 A3000 RMK AO2 SLP156 SE W-NW T02440200 $,0,7.0,0,16090,0,0,0,
2026-03-30 08:56:00,METAR TJSJ 300856Z 08008KT 10SM FEW032 FEW075 SCT095 23/20 A2998 RMK AO2 RAB37E52 SLP152 P0000 60000 T02330200 56010,0,8.0,0,16090,0,0,0,RA
2026-03-30 07:56:00,METAR TJSJ 300756Z 07011KT 10SM FEW027 SCT033 BKN045 24/19 A2999 RMK AO2 RAE02B18E28 SLP153 VCSH S P0000 T02440194 $,0,11.0,0,16090,0,0,0,"RA,SH,VC"
2026-03-30 06:56:00,METAR TJSJ 300656Z 08009KT 10SM -RA FEW027 SCT080 BKN095 25/20 A2999 RMK AO2 RAB53 SLP156 P0000 T02500200 $,0,9.0,0,16090,0,0,0,-RA
2026-03-30 05:56:00,METAR TJSJ 300556Z 06012KT 10SM FEW027 SCT045 25/19 A3001 RMK AO2 RAB37E49 SLP162 VCSH SE W P0000 60000 T02500194 10256 20250 58012 $,0,12.0,0,16090,0,0,0,"RA,SH,VC"
2026-03-30 04:56:00,METAR TJSJ 300456Z 05012G19KT 10SM FEW027 SCT045 BKN080 26/19 A3003 RMK AO2 RAE00 SLP168 P0000 T02560194 $,0,12.0,1,16090,0,0,0,
2026-03-30 03:56:00,METAR TJSJ 300356Z 07012G18KT 10SM -RA SCT027 SCT045 BKN080 25/20 A3004 RMK AO2 RAB51 SLP172 P0000 T02500200 403000228 $,0,12.0,1,16090,0,0,0,-RA
2026-03-30 02:56:00,METAR TJSJ 300256Z 05011KT 10SM SCT027 26/20 A3005 RMK AO2 SLP174 VCSH W T02560200 50008 $,0,11.0,0,16090,0,0,0,"SH,VC"
2026-03-30 01:56:00,METAR TJSJ 300156Z 05011KT 10SM SCT027 26/20 A3005 RMK AO2 SLP175 T02560200 $,0,11.0,0,16090,0,0,0,
2026-03-30 00:56:00,METAR TJSJ 300056Z 05010KT 10SM FEW028 26/19 A3004 RMK AO2 SLP172 T02560194 $,0,10.0,0,16090,0,0,0,
2026-03-29 23:56:00,METAR TJSJ 292356Z 05009KT 10SM SCT028 26/20 A3002 RMK AO2 SLP165 60000 T02560200 10283 20256 53013 $,0,9.0,0,16090,0,0,0,
2026-03-29 22:56:00,METAR TJSJ 292256Z 05009G17KT 10SM SCT027 SCT100 26/19 A3000 RMK AO2 RAB13E23 SLP159 P0000 T02560194 $,0,9.0,1,16090,0,0,0,RA
2026-03-29 21:56:00,METAR TJSJ 292156Z 05009KT 10SM SCT027 SCT120 26/20 A2999 RMK AO2 SLP156 T02610200 $,0,9.0,0,16090,0,0,0,
2026-03-29 20:56:00,METAR TJSJ 292056Z 02012G19KT 10SM FEW029 SCT034 SCT120 27/21 A2998 RMK AO2 SLP152 T02720206 56009 $,0,12.0,1,16090,0,0,0,
2026-03-29 19:56:00,METAR TJSJ 291956Z 03011G20KT 10SM SCT033 SCT100 27/21 A2999 RMK AO2 SLP154 T02720206 $,0,11.0,1,16090,0,0,0,
2026-03-29 18:56:00,METAR TJSJ 291856Z 04009KT 10SM FEW027 SCT034 SCT100 28/21 A3000 RMK AO2 SLP157 T02780206 $,0,9.0,0,16090,0,0,0,
2026-03-29 17:56:00,METAR TJSJ 291756Z 04010KT 10SM FEW027 SCT048 SCT100 28/21 A3001 RMK AO2 SLP162 SHRA DSNT W T02780206 10283 20256 58016 $,0,10.0,0,16090,0,0,0,"DS,RA,SH"
2026-03-29 16:56:00,METAR TJSJ 291656Z 02010KT 10SM SCT029 SCT060 BKN095 28/21 A3004 RMK AO2 SLP170 T02780206 $,0,10.0,0,16090,0,0,0,
2026-03-29 14:56:00,METAR TJSJ 291456Z 04011KT 10SM FEW029 SCT060 SCT120 27/19 A3006 RMK AO2 SLP178 T02720194 51013 $,0,11.0,0,16090,0,0,0,
2026-03-29 13:56:00,METAR TJSJ 291356Z 04008G17KT 10SM FEW034 SCT055 SCT095 27/19 A3005 RMK AO2 SLP175 T02720194 $,0,8.0,1,16090,0,0,0,
2026-03-29 12:56:00,METAR TJSJ 291256Z 04009G16KT 10SM FEW028 SCT048 BKN120 26/20 A3004 RMK AO2 SLP172 T02560200 $,0,9.0,1,16090,0,0,0,
2026-03-29 11:56:00,METAR TJSJ 291156Z 11003KT 10SM SCT030 SCT085 24/21 A3002 RMK AO2 SLP164 60000 70003 T02440206 53014 $,0,3.0,0,16090,0,0,0,
2026-03-29 10:56:00,METAR TJSJ 291056Z 00000KT 10SM FEW027 SCT043 BKN085 23/21 A3000 RMK AO2 RAB01E09 SLP159 P0000 T02280211 $,0,0.0,0,16090,0,0,0,RA
2026-03-29 09:56:00,METAR TJSJ 290956Z 20003KT 10SM FEW022 SCT030 A2999 RMK AO2 SLP156 $,0,3.0,0,16090,0,0,0,
2026-03-29 08:56:00,METAR TJSJ 290856Z 18003KT 10SM SCT028 23/20 A2998 RMK AO2 SLP151 T02330200 55001 $,0,3.0,0,16090,0,0,0,
2026-03-29 07:56:00,METAR TJSJ 290756Z 00000KT 10SM FEW022 24/20 A2998 RMK AO2 SLP150 T02390200,0,0.0,0,16090,0,0,0,
2026-03-29 06:56:00,METAR TJSJ 290656Z 17004KT 10SM FEW022 23/20 A2998 RMK AO2 SLP150 T02330200,0,4.0,0,16090,0,0,0,
2026-03-29 05:56:00,METAR TJSJ 290556Z 05005KT 10SM FEW030 SCT055 25/19 A2998 RMK AO2 SLP152 T02500189 10256 20239 58011,0,5.0,0,16090,0,0,0,
2026-03-29 04:56:00,METAR TJSJ 290456Z 11004KT 10SM FEW018 24/20 A3000 RMK AO2 SLP158 T02440200,0,4.0,0,16090,0,0,0,
2026-03-29 03:56:00,METAR TJSJ 290356Z 05007KT 10SM FEW018 25/19 A3001 RMK AO2 SLP161 T02500194 402830211,0,7.0,0,16090,0,0,0,
2026-03-29 02:56:00,METAR TJSJ 290256Z 06007KT 10SM FEW022 25/21 A3002 RMK AO2 SLP163 T02500206 51005,0,7.0,0,16090,0,0,0,
2026-03-29 01:56:00,METAR TJSJ 290156Z 07009KT 10SM FEW026 24/19 A3002 RMK AO2 SLP163 T02440194,0,9.0,0,16090,0,0,0,
2026-03-29 00:56:00,METAR TJSJ 290056Z 09006KT 10SM SCT024 SCT038 24/21 A3001 RMK AO2 SLP161 T02440206,0,6.0,0,16090,0,0,0,
2026-03-28 23:56:00,METAR TJSJ 282356Z 05007KT 10SM SCT028 SCT038 26/19 A3000 RMK AO2 SLP158 VCSH S 60003 T02560194 10283 20244 53016,0,7.0,0,16090,0,0,0,"SH,VC"
2026-03-28 22:56:00,METAR TJSJ 282256Z 04009KT 10SM SCT028 SCT090 26/20 A2998 RMK AO2 SLP151 VCSH SE W T02560200,0,9.0,0,16090,0,0,0,"SH,VC"
2026-03-28 21:56:00,METAR TJSJ 282156Z 04007KT 10SM SCT028 SCT090 26/21 A2997 RMK AO2 SLP148 VCSH SE T02610206,0,7.0,0,16090,0,0,0,"SH,VC"
2026-03-28 20:56:00,METAR TJSJ 282056Z 05008KT 10SM SCT026 SCT090 27/20 A2996 RMK AO2 SLP143 SHRA DSNT S-SW 60003 T02720200 56005,0,8.0,0,16090,0,0,0,"DS,RA,SH"
2026-03-28 19:56:00,METAR TJSJ 281956Z 05011G16KT 10SM SCT026 SCT060 27/21 A2996 RMK AO2 RAE24 SLP142 SHRA DSNT SE S SW P0003 T02670211,0,11.0,1,16090,0,0,0,"DS,RA,SH"
2026-03-28 18:56:00,METAR TJSJ 281856Z 03015G23KT 5SM RA FEW026 SCT034 SCT050 26/21 A2997 RMK AO2 RAB55 SLP146 P0000 T02610211,0,15.0,1,8045,0,0,0,RA
2026-03-28 17:56:00,METAR TJSJ 281756Z 03011G21KT 10SM FEW028 SCT034 SCT044 28/21 A2997 RMK AO2 SLP148 VCSH SE S W T02780206 10283 20233 58017,0,11.0,1,16090,0,0,0,"SH,VC"
2026-03-28 16:56:00,METAR TJSJ 281656Z 01011KT 10SM FEW024 SCT030 SCT065 27/21 A2999 RMK AO2 SLP155 VCSH SE S T02670211,0,11.0,0,16090,0,0,0,"SH,VC"
2026-03-28 15:56:00,METAR TJSJ 281556Z 02010KT 10SM FEW030 SCT060 SCT085 27/21 A3001 RMK AO2 SLP162 SHRA DSNT NE S NW T02720206,0,10.0,0,16090,0,0,0,"DS,RA,SH"
2026-03-28 14:56:00,METAR TJSJ 281456Z 01008KT 10SM FEW024 SCT060 SCT085 27/21 A3002 RMK AO2 SLP165 VCSH NW T02720211 51006,0,8.0,0,16090,0,0,0,"SH,VC"
2026-03-28 13:56:00,METAR TJSJ 281356Z 05006KT 10SM SCT022 SCT030 BKN065 26/21 A3002 RMK AO2 SLP165 VCSH N NE T02610206,0,6.0,0,16090,0,0,0,"SH,VC"
2026-03-28 12:56:00,METAR TJSJ 281256Z 00000KT 10SM FEW030 SCT060 BKN085 25/21 A3003 RMK AO2 SLP166 T02500206,0,0.0,0,16090,0,0,0,
2026-03-28 11:56:00,METAR TJSJ 281156Z 00000KT 10SM FEW028 SCT065 BKN085 23/21 A3000 RMK AO2 SLP159 60000 70007 T02330211 10233 20217 51017,0,0.0,0,16090,0,0,0,
2026-03-28 10:56:00,METAR TJSJ 281056Z 00000KT 10SM FEW024 BKN065 22/20 A2999 RMK AO2 RAB14E26 SLP154 VCSH NW P0000 T02220200,0,0.0,0,16090,0,0,0,"RA,SH,VC"
2026-03-28 09:56:00,METAR TJSJ 280956Z 00000KT 10SM FEW028 BKN090 22/20 A2997 RMK AO2 SLP148 T02220200,0,0.0,0,16090,0,0,0,
2026-03-28 08:56:00,METAR TJSJ 280856Z 19003KT 10SM FEW038 FEW120 22/20 A2995 RMK AO2 SLP142 60000 T02170200 55003,0,3.0,0,16090,0,0,0,
2026-03-28 07:56:00,METAR TJSJ 280756Z 17003KT 10SM FEW040 FEW120 22/20 A2995 RMK AO2 SLP140 T02170200,0,3.0,0,16090,0,0,0,
2026-03-28 06:56:00,METAR TJSJ 280656Z 00000KT 10SM FEW030 SCT120 22/21 A2994 RMK AO2 SLP139 T02170206,0,0.0,0,16090,0,0,0,
2026-03-28 05:56:00,METAR TJSJ 280556Z 00000KT 10SM FEW025 SCT100 22/21 A2996 RMK AO2 SLP145 60007 T02220211 10250 20211 56022,0,0.0,0,16090,0,0,0,
2026-03-28 04:56:00,METAR TJSJ 280456Z 20003KT 10SM FEW021 SCT100 22/21 A2997 RMK AO2 SLP149 T02220206,0,3.0,0,16090,0,0,0,
2026-03-28 03:56:00,METAR TJSJ 280356Z 00000KT 10SM FEW035 BKN085 22/19 A3000 RMK AO2 RAE38 SLP158 P0001 T02170194 402890211,0,0.0,0,16090,0,0,0,
2026-03-28 02:56:00,METAR TJSJ 280256Z 11004KT 9SM -RA SCT035 SCT090 OVC120 22/19 A3003 RMK AO2 SLP167 P0001 60006 T02170194 50021,0,4.0,0,14481,0,0,0,-RA
2026-03-28 01:56:00,METAR TJSJ 280156Z 10006KT 9SM -RA FEW026 SCT044 BKN080 22/20 A3003 RMK AO2 SLP167 P0005 T02220200,0,6.0,0,14481,0,0,0,-RA
2026-03-28 00:56:00,METAR TJSJ 280056Z 04012G21KT 9SM -RA FEW026 SCT040 BKN080 23/21 A3000 RMK AO2 RAE10B46 SLP158 OCNL LTGIC DSNT N-E CB DSNT N-E P0000 T02330206,0,12.0,1,14481,0,0,0,"-RA,DS,RA"
2026-03-27 23:56:00,METAR TJSJ 272356Z 00000KT 10SM -RA FEW026 SCT040 BKN080 25/19 A2997 RMK AO2 RAB47 SLP146 P0000 60000 T02500194 10272 20244 53014,0,0.0,0,16090,0,0,0,-RA
2026-03-27 22:56:00,METAR TJSJ 272256Z 09007KT 10SM SCT033 BKN080 26/22 A2995 RMK AO2 SLP140 VCSH NE W T02560217,0,7.0,0,16090,0,0,0,"SH,VC"
2026-03-27 21:56:00,METAR TJSJ 272156Z 08007KT 10SM FEW030 SCT050 BKN100 26/21 A2993 RMK AO2 SLP135 SHRA DSNT N-NE S SW-NW T02610206,0,7.0,0,16090,0,0,0,"DS,RA,SH"
2026-03-27 20:56:00,METAR TJSJ 272056Z 09010KT 10SM FEW032 SCT050 SCT110 26/21 A2992 RMK AO2 SLP132 VCSH W T02610211 55007,0,10.0,0,16090,0,0,0,"SH,VC"
2026-03-27 19:56:00,METAR TJSJ 271956Z 08013KT 10SM FEW035 SCT045 BKN110 27/21 A2991 RMK AO2 SLP128 OCNL LTGICCG DSNT SW-W CB DSNT SW-W SHRA DSNT SW-W T02670211,0,13.0,0,16090,0,0,0,"DS,RA,SH"
2026-03-27 18:56:00,METAR TJSJ 271856Z 09007KT 10SM FEW035 SCT045 BKN110 27/21 A2991 RMK AO2 SLP128 OCNL LTGICCG DSNT SW-W CB DSNT SW-W SHRA DSNT SW-W T02720206,0,7.0,0,16090,0,0,0,"DS,RA,SH"
2026-03-27 17:56:00,METAR TJSJ 271756Z 19007KT 10SM FEW028 SCT040 BKN110 25/20 A2995 RMK AO2 SLP139 VCSH SW-W T02500200 10289 20239 58015,0,7.0,0,16090,0,0,0,"SH,VC"
2026-03-27 16:56:00,METAR TJSJ 271656Z 06014KT 10SM FEW028 SCT035 BKN110 28/21 A2996 RMK AO2 SLP145 VCSH S-W T02780211,0,14.0,0,16090,0,0,0,"SH,VC"
2026-03-27 15:56:00,METAR TJSJ 271556Z 06018KT 10SM FEW032 SCT044 SCT150 29/21 A2998 RMK AO2 SLP150 VCSH S T02890211,0,18.0,0,16090,0,0,0,"SH,VC"
2026-03-25 14:56:00,METAR TJSJ 251456Z 19003KT 10SM FEW037 SCT055 BKN110 25/22 A3002 RMK AO2 RAE39 SLP164 VCSH SE SW NW P0028 60048 T02500222 51011,0,3.0,0,16090,0,0,0,"SH,VC"
2026-03-25 13:56:00,METAR TJSJ 251356Z 15009G19KT 6SM RA BR FEW019 SCT032 BKN075 23/22 A3002 RMK AO2 RAB40 SLP163 P0020 T02330217,0,9.0,1,9654,0,0,1,"BR,RA"
2026-03-25 12:56:00,METAR TJSJ 251256Z 00000KT 10SM FEW021 SCT030 BKN075 26/23 A3000 RMK AO2 SLP159 VCSH SE NW T02610228,0,0.0,0,16090,0,0,0,"SH,VC"
2026-03-25 11:56:00,METAR TJSJ 251156Z 00000KT 10SM FEW025 SCT030 BKN070 24/23 A2999 RMK AO2 SLP153 VCSH N-NE 60079 70122 T02440228 10244 20228 53016,0,0.0,0,16090,0,0,0,"SH,VC"
2026-03-25 10:56:00,METAR TJSJ 251056Z 00000KT 10SM FEW025 SCT030 BKN075 24/22 A2997 RMK AO2 SLP146 VCSH N-NE T02390222,0,0.0,0,16090,0,0,0,"SH,VC"
2026-03-25 09:56:00,METAR TJSJ 250956Z 16003KT 10SM SCT020 BKN034 BKN065 24/23 A2996 RMK AO2 RAE29 SLP143 P0001 T02390228,0,3.0,0,16090,0,0,0,
2026-03-25 08:56:00,METAR TJSJ 250856Z 09003KT 9SM -RA SCT019 BKN031 BKN060 23/22 A2994 RMK AO2 SLP137 P0076 60078 T02330222 55004,0,3.0,0,14481,0,0,0,-RA
2026-03-25 07:56:00,METAR TJSJ 250756Z 11003KT 9SM -RA SCT016 SCT025 BKN070 24/22 A2993 RMK AO2 RAB20E36B56 SLP135 P0002 T02390222,0,3.0,0,14481,0,0,0,"-RA,RA"
2026-03-25 06:56:00,METAR TJSJ 250656Z 00000KT 10SM SCT019 BKN028 OVC075 24/22 A2994 RMK AO2 RAB01E10 SLP137 VCSH E-S W P0000 T02390222,0,0.0,0,16090,0,0,0,"RA,SH,VC"
2026-03-25 05:56:00,METAR TJSJ 250556Z 14003KT 10SM SCT014 BKN025 OVC060 24/22 A2995 RMK AO2 SLP141 VCSH SE-SW W 60015 T02390222 10256 20233 58015,0,3.0,0,16090,0,0,0,"SH,VC"
2026-03-25 04:56:00,METAR TJSJ 250456Z 18003KT 10SM SCT020 BKN028 BKN070 24/23 A2997 RMK AO2 RAE28 SLP148 VCSH SE-SW W P0014 T02440228,0,3.0,0,16090,0,0,0,"SH,VC"
2026-03-25 03:56:00,METAR TJSJ 250356Z 08014KT 9SM RA SCT020 BKN028 BKN070 25/22 A2999 RMK AO2 RAB49 SLP155 P0000 T02500222 403110233,0,14.0,0,14481,0,0,0,RA
2026-03-25 02:56:00,METAR TJSJ 250256Z 04009KT 10SM SCT018 BKN025 OVC080 25/22 A2999 RMK AO2 RAE22 SLP156 VCSH SE-SW W P0000 60001 T02500222 50005,0,9.0,0,16090,0,0,0,"SH,VC"
2026-03-25 01:56:00,METAR TJSJ 250156Z 05009KT 9SM -RA FEW015 BKN025 BKN050 25/23 A3000 RMK AO2 SLP156 P0000 T02500228,0,9.0,0,14481,0,0,0,-RA
2026-03-25 00:56:00,METAR TJSJ 250056Z 04010KT 9SM -RA SCT015 BKN025 BKN070 25/23 A2998 RMK AO2 SLP151 P0001 T02500228,0,10.0,0,14481,0,0,0,-RA
2026-03-24 23:56:00,METAR TJSJ 242356Z 08009G17KT 9SM -RA SCT015 BKN020 BKN050 25/23 A2998 RMK AO2 SLP151 P0006 60028 T02500228 10300 20239 53014,0,9.0,1,14481,0,0,0,-RA
2026-03-24 22:56:00,METAR TJSJ 242256Z 02009KT 5SM -RA BR SCT009 BKN017 OVC033 24/23 A2996 RMK AO2 RAB26 SLP144 VIS SW-NW 2 P0022 T02440233,0,9.0,0,8045,0,0,1,"-RA,BR"
2026-03-24 22:49:00,SPECI TJSJ 242249Z 35010G21KT 5SM -RA BR SCT005 BKN019 OVC038 24/23 A2996 RMK AO2 RAB26 VIS SW-NW 1 P0021 T02440233,0,10.0,1,8045,0,0,1,"-RA,BR"
2026-03-24 22:35:00,SPECI TJSJ 242235Z 34007KT 1SM RA BR SCT010 BKN024 OVC032 24/23 A2996 RMK AO2 RAB26 P0003 T02440228,0,7.0,0,1609,0,0,1,"BR,RA"
2026-03-24 21:56:00,METAR TJSJ 242156Z 03011KT 10SM SCT017 SCT024 BKN080 26/22 A2995 RMK AO2 SLP142 VCSH W-N-NE T02560222,0,11.0,0,16090,0,0,0,"SH,VC"
2026-03-24 20:56:00,METAR TJSJ 242056Z 06013KT 10SM SCT024 SCT070 BKN090 27/22 A2994 RMK AO2 SLP137 VCSH NE SE S T02670217 56007,0,13.0,0,16090,0,0,0,"SH,VC"
2026-03-24 19:56:00,METAR TJSJ 241956Z 07014G19KT 10SM SCT024 BKN060 BKN090 27/22 A2994 RMK AO2 SLP138 VCSH SE T02720217,0,14.0,1,16090,0,0,0,"SH,VC"
2026-03-24 18:56:00,METAR TJSJ 241856Z 05012KT 10SM FEW030 SCT065 SCT095 28/22 A2994 RMK AO2 SLP138 VCSH SE T02830217,0,12.0,0,16090,0,0,0,"SH,VC"
2026-03-24 17:56:00,METAR TJSJ 241756Z 07006KT 10SM SCT033 SCT070 30/22 A2996 RMK AO2 SLP144 T03000222 10311 20239 58015 $,0,6.0,0,16090,0,0,0,
2026-03-24 16:56:00,METAR TJSJ 241656Z 03006KT 10SM SCT030 SCT075 31/22 A2998 RMK AO2 SLP150 VCSH E T03110222 $,0,6.0,0,16090,0,0,0,"SH,VC"
2026-03-24 15:56:00,METAR TJSJ 241556Z 02006KT 10SM SCT033 SCT075 28/23 A3000 RMK AO2 SLP156 VCSH E T02830228 $,0,6.0,0,16090,0,0,0,"SH,VC"
2026-03-24 14:56:00,METAR TJSJ 241456Z 00000KT 10SM SCT035 SCT080 29/22 A3000 RMK AO2 SLP159 T02890222 53003 $,0,0.0,0,16090,0,0,0,
2026-03-24 13:56:00,METAR TJSJ 241356Z 00000KT 10SM SCT033 SCT080 30/23 A3000 RMK AO2 SLP158 T03000228 $,0,0.0,0,16090,0,0,0,
2026-03-24 12:56:00,METAR TJSJ 241256Z 00000KT 10SM FEW030 SCT075 26/22 A3000 RMK AO2 SLP157 T02610217 $,0,0.0,0,16090,0,0,0,
2026-03-24 11:56:00,METAR TJSJ 241156Z 10SM FEW025 SCT034 BKN065 A2999 RMK AO2 SLP156 VCSH SE 6//// 7//// 10239 20233 53016 PNO $,0,,0,16090,0,0,0,"SH,VC"
2026-03-24 10:56:00,METAR TJSJ 241056Z 00000KT 10SM FEW025 SCT034 BKN065 23/21 A2997 RMK AO2 RAB04E41 SLP148 P0000 T02330206 $,0,0.0,0,16090,0,0,0,RA
2026-03-24 09:56:00,METAR TJSJ 240956Z 00000KT 10SM FEW023 SCT034 BKN070 23/21 A2996 RMK AO2 SLP145 T02330206,0,0.0,0,16090,0,0,0,
2026-03-24 08:56:00,METAR TJSJ 240856Z 23003KT 10SM FEW025 SCT042 SCT060 24/20 A2995 RMK AO2 SLP140 T02390200 55003,0,3.0,0,16090,0,0,0,
2026-03-24 07:56:00,METAR TJSJ 240756Z 00000KT 10SM FEW025 SCT041 SCT060 23/20 A2994 RMK AO2 SLP137 T02330200,0,0.0,0,16090,0,0,0,
2026-03-24 06:56:00,METAR TJSJ 240656Z 00000KT 10SM FEW025 SCT048 BKN075 23/20 A2994 RMK AO2 SLP138 T02330200,0,0.0,0,16090,0,0,0,
2026-03-24 05:56:00,METAR TJSJ 240556Z 00000KT 10SM FEW032 BKN044 BKN075 23/20 A2996 RMK AO2 SLP143 VCSH N-NE 60003 T02330200 10244 20233 58010,0,0.0,0,16090,0,0,0,"SH,VC"
2026-03-24 04:56:00,METAR TJSJ 240456Z 15003KT 10SM FEW028 BKN038 BKN065 23/21 A2997 RMK AO2 SLP148 T02330211,0,3.0,0,16090,0,0,0,
2026-03-24 03:56:00,METAR TJSJ 240356Z 13003KT 10SM SCT025 BKN040 BKN065 23/21 A2998 RMK AO2 SLP151 T02330211 402670228,0,3.0,0,16090,0,0,0,
2026-03-24 02:56:00,METAR TJSJ 240256Z 12003KT 10SM -RA FEW027 BKN042 BKN065 23/21 A2999 RMK AO2 RAB42 SLP153 P0000 60003 T02330211 50006,0,3.0,0,16090,0,0,0,-RA
2026-03-24 01:56:00,METAR TJSJ 240156Z 11004KT 10SM FEW027 BKN042 BKN065 24/21 A2999 RMK AO2 SLP155 T02390211,0,4.0,0,16090,0,0,0,
2026-03-24 00:56:00,METAR TJSJ 240056Z 12004KT 10SM FEW017 SCT049 BKN060 24/22 A2999 RMK AO2 RAB38E55 SLP153 P0003 T02390222,0,4.0,0,16090,0,0,0,RA
2026-03-23 23:56:00,METAR TJSJ 232356Z 12003KT 10SM FEW033 SCT044 BKN060 24/21 A2997 RMK AO2 SLP147 60000 T02440211 10267 20233 53011,0,3.0,0,16090,0,0,0,
2026-03-23 22:56:00,METAR TJSJ 232256Z 03003KT 10SM SCT020 BKN037 BKN060 24/19 A2995 RMK AO2 SLP142 T02440194,0,3.0,0,16090,0,0,0,
2026-03-23 21:56:00,METAR TJSJ 232156Z 05010G21KT 10SM SCT020 BKN042 BKN065 25/21 A2995 RMK AO2 SLP139 VCSH NW-NE T02500206,0,10.0,1,16090,0,0,0,"SH,VC"
2026-03-23 20:56:00,METAR TJSJ 232056Z 07010KT 10SM SCT035 BKN044 BKN065 26/21 A2994 RMK AO2 SLP136 VCSH W-NW 60000 T02610206 56010,0,10.0,0,16090,0,0,0,"SH,VC"
2026-03-23 19:56:00,METAR TJSJ 231956Z 07007KT 10SM SCT020 BKN031 OVC048 26/21 A2994 RMK AO2 WSHFT 1906 RAB15E52 SLP136 VCSH SE S SW P0000 T02560211,0,7.0,0,16090,0,0,0,"RA,SH,VC"
2026-03-23 19:24:00,SPECI TJSJ 231924Z 02009G18KT 9SM -RA SCT020 BKN026 OVC048 24/21 A2995 RMK AO2 WSHFT 1906 RAB15 P0000 T02390206,0,9.0,1,14481,0,0,0,-RA
2026-03-23 18:56:00,METAR TJSJ 231856Z VRB03KT 10SM SCT015 SCT048 BKN070 27/22 A2994 RMK AO2 RAE1758 SLP138 VCSH N NE-E P0000 T02670217,0,3.0,0,16090,0,0,0,"RA,SH,VC"
2026-03-23 17:56:00,METAR TJSJ 231756Z 11004KT 9SM -RA SCT023 SCT036 OVC050 24/23 A2997 RMK AO2 RAE08B27 SLP146 P0002 6//// T02440228 10267 20233 58012,0,4.0,0,14481,0,0,0,"-RA,RA"
2026-03-23 16:56:00,METAR TJSJ 231656Z 11003KT 9SM -RA SCT027 OVC036 24/22 A2998 RMK AO2 SLP151 P0004 T02390217,0,3.0,0,14481,0,0,0,-RA
2026-03-23 16:11:00,SPECI TJSJ 231611Z 03006KT 5SM -RA BR FEW020 BKN030 OVC044 23/22 A3000 RMK AO2 P0002 T02330217,0,6.0,0,8045,0,0,1,"-RA,BR"
2026-03-23 16:03:00,SPECI TJSJ 231603Z 03006KT 2SM -RA BR BKN015 BKN030 OVC043 23/22 A3000 RMK AO2 P0002 T02330222,0,6.0,0,3218,0,0,1,"-RA,BR"
2026-03-23 15:49:00,SPECI TJSJ 231549Z 03009G18KT 1 3/4SM RA BR BKN018 OVC026 23/22 A3000 RMK AO2 RAB36 P0001 T02330217,0,9.0,1,2816,0,0,1,"BR,RA"
2026-03-23 14:56:00,METAR TJSJ 231456Z VRB04KT 10SM SCT016 BKN029 OVC048 25/22 A3000 RMK AO2 SLP158 VCSH N SE S W-NW 6//// T02500217 50008 $,0,4.0,0,16090,0,0,0,"SH,VC"
2026-03-23 13:56:00,METAR TJSJ 231356Z 27003KT 10SM SCT022 BKN035 OVC050 27/22 A3000 RMK AO2 RAE54 SLP158 VCSH E SE SW-NW T02670222 PNO $,0,3.0,0,16090,0,0,0,"SH,VC"
2026-03-23 12:56:00,METAR TJSJ 231256Z 00000KT 10SM -RA SCT022 SCT035 BKN050 24/22 A2999 RMK AO2 RAB55 SLP153 T02390217 PNO $,0,0.0,0,16090,0,0,0,-RA
2026-03-23 11:56:00,METAR TJSJ 231156Z 10SM SCT025 SCT035 BKN044 A2997 RMK AO2 RAB36RAEMM SLP149 P0000 60000 70066 10244 20228 53014 $,0,,0,16090,0,0,0,RA
2026-03-23 10:56:00,METAR TJSJ 231056Z 00000KT 10SM SCT025 SCT035 BKN044 24/21 A2995 RMK AO2 SLP139 VCSH W T02390211 $,0,0.0,0,16090,0,0,0,"SH,VC"
2026-03-23 09:56:00,METAR TJSJ 230956Z 07006KT 10SM FEW031 SCT047 BKN065 24/20 A2994 RMK AO2 SLP137 T02440200 $,0,6.0,0,16090,0,0,0,
2026-03-23 08:56:00,METAR TJSJ 230856Z 06009KT 10SM SCT025 BKN040 24/21 A2993 RMK AO2 SLP135 60000 T02440211 55007 $,0,9.0,0,16090,0,0,0,
2026-03-23 07:56:00,METAR TJSJ 230756Z 07007KT 10SM FEW022 BKN040 24/21 A2993 RMK AO2 SLP134 T02440211 $,0,7.0,0,16090,0,0,0,
2026-03-23 06:56:00,METAR TJSJ 230656Z 04006KT 10SM BKN036 24/21 A2994 RMK AO2 SLP136 T02390206 $,0,6.0,0,16090,0,0,0,
2026-03-23 05:56:00,METAR TJSJ 230556Z VRB03KT 10SM FEW017 SCT030 BKN060 23/22 A2995 RMK AO2 SLP142 VCSH S W 60008 T02280217 10250 20228 58013 $,0,3.0,0,16090,0,0,0,"SH,VC"
2026-03-23 04:56:00,METAR TJSJ 230456Z 23003KT 10SM FEW021 SCT043 BKN055 23/22 A2997 RMK AO2 RAE53 SLP148 P0008 T02280217 $,0,3.0,0,16090,0,0,0,
2026-03-23 03:56:00,METAR TJSJ 230356Z 15003KT 10SM -RA SCT021 BKN060 24/21 A2998 RMK AO2 RAB55 SLP152 P0000 T02390211 402890222 $,0,3.0,0,16090,0,0,0,-RA
2026-03-23 02:56:00,METAR TJSJ 230256Z 13003KT 10SM FEW025 BKN041 25/20 A2999 RMK AO2 SLP155 T02500200 50007 $,0,3.0,0,16090,0,0,0,
2026-03-23 01:56:00,METAR TJSJ 230156Z 05005KT 10SM BKN038 25/19 A3000 RMK AO2 SLP156 T02500194 $,0,5.0,0,16090,0,0,0,
2026-03-23 00:56:00,METAR TJSJ 230056Z 07007KT 10SM FEW020 SCT044 24/20 A2999 RMK AO2 SLP154 T02440200 $,0,7.0,0,16090,0,0,0,
2026-03-22 23:56:00,METAR TJSJ 222356Z 04006KT 10SM FEW020 BKN048 24/19 A2997 RMK AO2 SLP148 VCSH W 60007 T02440194 10244 20228 53014 $,0,6.0,0,16090,0,0,0,"SH,VC"
2026-03-22 22:56:00,METAR TJSJ 222256Z 03005KT 10SM FEW015 BKN045 BKN060 24/20 A2996 RMK AO2 SLP143 T02440200 $,0,5.0,0,16090,0,0,0,
2026-03-22 21:56:00,METAR TJSJ 222156Z 04007KT 10SM FEW017 SCT041 BKN065 24/21 A2994 RMK AO2 SLP138 T02440206 $,0,7.0,0,16090,0,0,0,
2026-03-22 20:56:00,METAR TJSJ 222056Z 06007KT 10SM FEW010 SCT036 BKN070 24/22 A2993 RMK AO2 RAB00E10 SLP134 P0000 60007 T02390217 55007 $,0,7.0,0,16090,0,0,0,RA
2026-03-22 19:56:00,METAR TJSJ 221956Z 07006KT 10SM FEW010 BKN055 OVC070 23/22 A2993 RMK AO2 RAE37 SLP134 P0001 T02330222 $,0,6.0,0,16090,0,0,0,
2026-03-22 19:28:00,SPECI TJSJ 221928Z 07008KT 3SM -RA BR FEW010 BKN039 OVC049 23/22 A2994 RMK AO2 P0001 T02280222 $,0,8.0,0,4827,0,0,1,"-RA,BR"
2026-03-22 18:56:00,METAR TJSJ 221856Z 08012KT 2SM RA BR FEW010 SCT025 OVC039 23/22 A2994 RMK AO2 SLP139 P0006 T02280222 $,0,12.0,0,3218,0,0,1,"BR,RA"
2026-03-22 18:09:00,SPECI TJSJ 221809Z 08011KT 2SM RA BR FEW010 SCT023 OVC036 23/23 A2995 RMK AO2 P0001 T02330228 $,0,11.0,0,3218,0,0,1,"BR,RA"
2026-03-22 17:56:00,METAR TJSJ 221756Z 08010KT 1SM RA BR SCT010 BKN023 OVC036 23/22 A2995 RMK AO2 SLP142 P0007 60051 T02330222 56010 $,0,10.0,0,1609,0,0,1,"BR,RA"
2026-03-22 16:56:00,METAR TJSJ 221656Z 04011KT 1SM RA BR SCT016 BKN021 OVC033 23/22 A2996 RMK AO2 WSHFT 1626 RAB32 SLP145 P0005 T02330222 $,0,11.0,0,1609,0,0,1,"BR,RA"
2026-03-22 16:46:00,SPECI TJSJ 221646Z 03010G18KT 1SM RA BR SCT020 BKN029 OVC036 23/22 A2996 RMK AO2 WSHFT 1626 RAB32 P0004 T02330222 $,0,10.0,1,1609,0,0,1,"BR,RA"
2026-03-22 16:35:00,SPECI TJSJ 221635Z 02012G20KT 1SM RA BR SCT017 BKN025 OVC055 25/22 A2997 RMK AO2 RAB32 P0000 T02500222 $,0,12.0,1,1609,0,0,1,"BR,RA"
2026-03-22 15:56:00,METAR TJSJ 221556Z 07010KT 10SM FEW010 SCT025 BKN046 26/22 A2997 RMK AO2 SLP147 VCSH SE SW-NW-N T02610222 $,0,10.0,0,16090,0,0,0,"SH,VC"
2026-03-22 14:56:00,METAR TJSJ 221456Z VRB03KT 10SM SCT010 BKN023 OVC036 24/23 A2998 RMK AO2 RAE39 SLP152 VCSH SE S SW P0002 60039 T02390228 51014 $,0,3.0,0,16090,0,0,0,"SH,VC"
2026-03-22 14:03:00,SPECI TJSJ 221403Z 08003KT 5SM -RA BR SCT007 BKN023 OVC039 23/22 A2997 RMK AO2 P0001 T02280222 $,0,3.0,0,8045,0,0,1,"-RA,BR"
2026-03-22 13:56:00,METAR TJSJ 221356Z VRB03KT 2SM RA BR SCT007 BKN016 OVC034 23/22 A2997 RMK AO2 SLP149 P0033 T02330222 $,0,3.0,0,3218,0,0,1,"BR,RA"
2026-03-22 13:06:00,SPECI TJSJ 221306Z 00000KT 1SM RA BR BKN019 OVC029 23/22 A2996 RMK AO2 P0001 T02280217 $,0,0.0,0,1609,0,0,1,"BR,RA"
2026-03-22 12:56:00,METAR TJSJ 221256Z 14004KT 3SM RA BR SCT019 BKN033 OVC080 23/22 A2996 RMK AO2 SLP144 P0004 T02280222 $,0,4.0,0,4827,0,0,1,"BR,RA"
2026-03-22 12:16:00,SPECI TJSJ 221216Z 15004KT 4SM RA BR SCT022 BKN044 OVC055 22/22 A2995 RMK AO2 P0004 T02220217 $,0,4.0,0,6436,0,0,1,"BR,RA"
2026-03-22 11:56:00,METAR TJSJ 221156Z 21004KT 2SM RA BR SCT007 BKN025 OVC050 22/21 A2994 RMK AO2 SLP138 P0078 60102 70102 T02220211 10250 20222 53022 $,0,4.0,0,3218,0,0,1,"BR,RA"
2026-03-22 10:56:00,METAR TJSJ 221056Z 00000KT 2SM RA BR SCT013 BKN025 OVC033 23/22 A2992 RMK AO2 SLP130 P0024 T02280217 $,0,0.0,0,3218,0,0,1,"BR,RA"
2026-03-22 10:29:00,SPECI TJSJ 221029Z 31007KT 270V340 2SM RA BR SCT015 BKN047 OVC055 23/21 A2991 RMK AO2 P0000 T02280206 $,0,7.0,0,3218,0,0,1,"BR,RA"
2026-03-22 09:56:00,METAR TJSJ 220956Z 30007KT 260V330 8SM -RA FEW020 SCT042 OVC055 23/22 A2990 RMK AO2 RAB41 SLP122 P0000 T02330217 $,0,7.0,0,12872,0,0,0,-RA
2026-03-22 08:56:00,METAR TJSJ 220856Z 29008KT 10SM FEW014 SCT022 BKN060 24/21 A2988 RMK AO2 SLP117 VCSH NW-NE T02390211 53001 $,0,8.0,0,16090,0,0,0,"SH,VC"
2026-03-22 07:56:00,METAR TJSJ 220756Z 25005KT 10SM FEW032 SCT050 25/20 A2987 RMK AO2 SLP112 T02500200 $,0,5.0,0,16090,0,0,0,
2026-03-22 06:56:00,METAR TJSJ 220656Z 21003KT 10SM FEW032 SCT050 25/21 A2987 RMK AO2 SLP114 T02500206 $,0,3.0,0,16090,0,0,0,
2026-03-22 05:56:00,METAR TJSJ 220556Z 00000KT 10SM FEW050 SCT060 25/21 A2988 RMK AO2 SLP115 T02500206 10272 20250 58010 $,0,0.0,0,16090,0,0,0,
2026-03-22 04:56:00,METAR TJSJ 220456Z 18005KT 10SM SCT055 26/21 A2989 RMK AO2 SLP120 T02560206 $,0,5.0,0,16090,0,0,0,
2026-03-22 03:56:00,METAR TJSJ 220356Z 21004KT 10SM SCT050 26/21 A2991 RMK AO2 SLP126 T02560206 403170239 $,0,4.0,0,16090,0,0,0,
2026-03-22 02:56:00,METAR TJSJ 220256Z 17004KT 10SM FEW040 SCT085 26/21 A2990 RMK AO2 SLP125 T02560206 50010 $,0,4.0,0,16090,0,0,0,
2026-03-22 01:56:00,METAR TJSJ 220156Z 18004KT 10SM FEW055 SCT085 26/20 A2991 RMK AO2 SLP126 T02610200 $,0,4.0,0,16090,0,0,0,
2026-03-22 00:56:00,METAR TJSJ 220056Z 19003KT 10SM SCT055 SCT085 27/20 A2989 RMK AO2 SLP122 T02670200 $,0,3.0,0,16090,0,0,0,
2026-03-21 23:56:00,METAR TJSJ 212356Z 18006KT 10SM FEW030 FEW095 27/20 A2987 RMK AO2 SLP115 VCSH NW T02670200 10317 20267 53021 $,0,6.0,0,16090,0,0,0,"SH,VC"
2026-03-21 22:56:00,METAR TJSJ 212256Z 19006KT 10SM SCT034 SCT100 28/19 A2985 RMK AO2 SLP108 T02780194 $,0,6.0,0,16090,0,0,0,
2026-03-21 21:56:00,METAR TJSJ 212156Z 19007G15KT 10SM FEW034 FEW043 SCT100 29/18 A2983 RMK AO2 SLP100 T02890183 $,0,7.0,1,16090,0,0,0,
2026-03-21 20:56:00,METAR TJSJ 212056Z 17010G20KT 10SM FEW035 FEW050 31/18 A2981 RMK AO2 SLP094 T03060183 55005 $,0,10.0,1,16090,0,0,0,
2026-03-21 19:56:00,METAR TJSJ 211956Z 18007G22KT 10SM FEW038 FEW070 31/18 A2980 RMK AO2 SLP092 T03060183 $,0,7.0,1,16090,0,0,0,
2026-03-21 18:56:00,METAR TJSJ 211856Z 17015G23KT 10SM FEW040 31/19 A2981 RMK AO2 SLP093 T03110189 $,0,15.0,1,16090,0,0,0,
2026-03-21 17:56:00,METAR TJSJ 211756Z 17011G23KT 10SM FEW034 SCT047 SCT085 31/19 A2983 RMK AO2 SLP099 T03060194 10317 20261 58020 $,0,11.0,1,16090,0,0,0,
2026-03-21 16:56:00,METAR TJSJ 211656Z 15010G20KT 10SM FEW033 SCT044 SCT060 31/19 A2985 RMK AO2 SLP106 T03060189 $,0,10.0,1,16090,0,0,0,
2026-03-21 15:56:00,METAR TJSJ 211556Z 18011G25KT 140V210 10SM FEW038 SCT060 31/19 A2987 RMK AO2 SLP114 T03060194 $,0,11.0,1,16090,0,0,0,
2026-03-21 14:56:00,METAR TJSJ 211456Z 17008G19KT 140V210 10SM FEW039 SCT055 SCT085 29/20 A2989 RMK AO2 SLP119 T02940200 50003 $,0,8.0,1,16090,0,0,0,
2026-03-21 13:56:00,METAR TJSJ 211356Z 15011G20KT 10SM FEW036 SCT060 SCT080 28/20 A2989 RMK AO2 SLP122 T02830200 $,0,11.0,1,16090,0,0,0,
2026-03-21 12:56:00,METAR TJSJ 211256Z 18007KT 150V220 10SM FEW034 SCT060 28/21 A2989 RMK AO2 SLP121 T02780206 $,0,7.0,0,16090,0,0,0,
2026-03-21 11:56:00,METAR TJSJ 211156Z 14006KT 10SM FEW030 SCT060 26/20 A2988 RMK AO2 SLP116 T02610200 10261 20239 51012 $,0,6.0,0,16090,0,0,0,
2026-03-21 10:56:00,METAR TJSJ 211056Z 15003KT 10SM FEW032 SCT065 24/20 A2987 RMK AO2 SLP114 T02440200 $,0,3.0,0,16090,0,0,0,
2026-03-21 09:56:00,METAR TJSJ 210956Z 15004KT 10SM SCT028 24/20 A2985 RMK AO2 SLP106 T02390200 $,0,4.0,0,16090,0,0,0,
2026-03-21 08:56:00,METAR TJSJ 210856Z 00000KT 10SM FEW022 24/20 A2984 RMK AO2 SLP104 T02390200 55006 $,0,0.0,0,16090,0,0,0,
2026-03-21 07:56:00,METAR TJSJ 210756Z 00000KT 10SM CLR 24/20 A2984 RMK AO2 SLP103 T02390200 $,0,0.0,0,16090,0,0,0,
2026-03-21 06:56:00,METAR TJSJ 210656Z 00000KT 10SM CLR 24/20 A2984 RMK AO2 SLP104 T02440200 $,0,0.0,0,16090,0,0,0,
2026-03-21 05:56:00,METAR TJSJ 210556Z 16003KT 10SM CLR 24/20 A2986 RMK AO2 SLP109 T02440200 10261 20244 58018 $,0,3.0,0,16090,0,0,0,
2026-03-21 04:56:00,METAR TJSJ 210456Z 15003KT 10SM CLR 24/21 A2988 RMK AO2 SLP117 T02440206 $,0,3.0,0,16090,0,0,0,
2026-03-21 03:56:00,METAR TJSJ 210356Z 14003KT 10SM CLR 25/21 A2990 RMK AO2 SLP124 T02500206 403110222 $,0,3.0,0,16090,0,0,0,
2026-03-21 02:56:00,METAR TJSJ 210256Z 16003KT 10SM CLR 25/21 A2991 RMK AO2 SLP127 T02500206 50010 $,0,3.0,0,16090,0,0,0,
2026-03-21 01:56:00,METAR TJSJ 210156Z 15004KT 10SM CLR 26/21 A2991 RMK AO2 SLP128 T02560206 $,0,4.0,0,16090,0,0,0,
2026-03-21 00:56:00,METAR TJSJ 210056Z 15004KT 10SM FEW045 26/21 A2990 RMK AO2 SLP125 T02560206 $,0,4.0,0,16090,0,0,0,
2026-03-20 23:56:00,METAR TJSJ 202356Z 15005KT 10SM FEW033 26/21 A2988 RMK AO2 SLP117 T02610206 10311 20261 53017 $,0,5.0,0,16090,0,0,0,
2026-03-20 22:56:00,METAR TJSJ 202256Z 15007KT 10SM FEW035 FEW050 27/19 A2986 RMK AO2 SLP109 T02670194 $,0,7.0,0,16090,0,0,0,
2026-03-20 21:56:00,METAR TJSJ 202156Z 16008KT 120V180 10SM FEW035 FEW044 28/19 A2984 RMK AO2 SLP104 T02830189 $,0,8.0,0,16090,0,0,0,
2026-03-20 20:56:00,METAR TJSJ 202056Z 16007KT 10SM FEW035 FEW044 29/18 A2983 RMK AO2 SLP101 T02940183 55013 $,0,7.0,0,16090,0,0,0,
2026-03-20 19:56:00,METAR TJSJ 201956Z 17011G21KT 10SM SCT035 31/18 A2982 RMK AO2 SLP098 T03060178 $,0,11.0,1,16090,0,0,0,
2026-03-20 18:56:00,METAR TJSJ 201856Z 16011G19KT 10SM FEW037 SCT047 31/18 A2985 RMK AO2 SLP106 T03060183 $,0,11.0,1,16090,0,0,0,
2026-03-20 17:56:00,METAR TJSJ 201756Z 17012G21KT 10SM FEW041 FEW050 SCT085 30/19 A2987 RMK AO2 SLP113 T03000194 10306 20244 56023 $,0,12.0,1,16090,0,0,0,
2026-03-20 16:56:00,METAR TJSJ 201656Z 16010G18KT 130V200 10SM SCT047 SCT060 30/18 A2989 RMK AO2 SLP120 T03000183 $,0,10.0,1,16090,0,0,0,
2026-03-20 15:56:00,METAR TJSJ 201556Z 14010G21KT 120V180 10SM FEW042 29/18 A2991 RMK AO2 SLP128 T02940183 $,0,10.0,1,16090,0,0,0,
2026-03-20 13:56:00,METAR TJSJ 201356Z 11009G15KT 10SM SCT035 28/19 A2994 RMK AO2 SLP139 VCSH SE-S T02780194 $,0,9.0,1,16090,0,0,0,"SH,VC"
2026-03-20 12:56:00,METAR TJSJ 201256Z 15005KT 10SM FEW027 FEW065 26/19 A2994 RMK AO2 SLP137 VCSH SE T02610194 $,0,5.0,0,16090,0,0,0,"SH,VC"
2026-03-20 11:56:00,METAR TJSJ 201156Z 12003KT 10SM FEW024 FEW075 24/21 A2993 RMK AO2 SLP133 VCSH SE 70003 T02440206 10244 20222 51009 $,0,3.0,0,16090,0,0,0,"SH,VC"
2026-03-20 10:56:00,METAR TJSJ 201056Z 13003KT 10SM FEW025 FEW080 23/20 A2993 RMK AO2 SLP133 T02280200 $,0,3.0,0,16090,0,0,0,
2026-03-20 09:56:00,METAR TJSJ 200956Z 12003KT 10SM SCT025 22/20 A2991 RMK AO2 SLP128 T02220200 $,0,3.0,0,16090,0,0,0,
2026-03-20 08:56:00,METAR TJSJ 200856Z 00000KT 10SM CLR 22/20 A2990 RMK AO2 SLP125 T02220200 55009,0,0.0,0,16090,0,0,0,
2026-03-20 07:56:00,METAR TJSJ 200756Z 00000KT 10SM CLR 23/20 A2989 RMK AO2 SLP119 T02280200,0,0.0,0,16090,0,0,0,
2026-03-20 06:56:00,METAR TJSJ 200656Z 00000KT 10SM CLR 23/19 A2991 RMK AO2 SLP126 T02280194,0,0.0,0,16090,0,0,0,
2026-03-20 05:56:00,METAR TJSJ 200556Z 11004KT 10SM CLR 23/19 A2993 RMK AO2 SLP133 T02280194 10256 20228 58016,0,4.0,0,16090,0,0,0,
2026-03-20 04:56:00,METAR TJSJ 200456Z 00000KT 10SM CLR 23/19 A2996 RMK AO2 SLP144 T02330189,0,0.0,0,16090,0,0,0,
2026-03-20 03:56:00,METAR TJSJ 200356Z 00000KT 10SM CLR 23/19 A2997 RMK AO2 SLP148 T02330194 403000228,0,0.0,0,16090,0,0,0,
2026-03-20 02:56:00,METAR TJSJ 200256Z 00000KT 10SM CLR 24/19 A2998 RMK AO2 SLP149 T02390194 51007,0,0.0,0,16090,0,0,0,
2026-03-20 01:56:00,METAR TJSJ 200156Z 13003KT 10SM FEW050 24/20 A2997 RMK AO2 SLP149 T02440200,0,3.0,0,16090,0,0,0,
2026-03-20 00:56:00,METAR TJSJ 200056Z 11004KT 10SM FEW050 25/20 A2997 RMK AO2 SLP146 T02500200,0,4.0,0,16090,0,0,0,
2026-03-19 23:56:00,METAR TJSJ 192356Z 11004KT 10SM FEW050 26/19 A2995 RMK AO2 SLP142 60003 T02560194 10294 20239 53012,0,4.0,0,16090,0,0,0,
2026-03-19 22:56:00,METAR TJSJ 192256Z 12006KT 10SM FEW032 FEW055 26/19 A2993 RMK AO2 SLP135 T02610189,0,6.0,0,16090,0,0,0,
2026-03-19 21:56:00,METAR TJSJ 192156Z 13007KT 10SM FEW040 FEW065 28/17 A2992 RMK AO2 SLP132 T02780172,0,7.0,0,16090,0,0,0,
2026-03-19 20:56:00,METAR TJSJ 192056Z 09007KT 10SM FEW046 SCT095 28/18 A2992 RMK AO2 SLP130 SHRA DSNT NW 60003 T02830183 58007,0,7.0,0,16090,0,0,0,"DS,RA,SH"
2026-03-19 19:56:00,METAR TJSJ 191956Z 12009KT 10SM FEW036 SCT047 SCT085 27/18 A2993 RMK AO2 SLP133 T02720183,0,9.0,0,16090,0,0,0,
2026-03-19 18:56:00,METAR TJSJ 191856Z 00000KT 10SM FEW032 SCT047 BKN070 25/20 A2994 RMK AO2 RAB18E53 SLP138 P0003 T02500200,0,0.0,0,16090,0,0,0,RA
2026-03-19 17:56:00,METAR TJSJ 191756Z 11007G18KT 10SM FEW039 SCT046 SCT080 29/18 A2994 RMK AO2 SLP138 VCSH SE 60000 T02940178 10300 20250 58024,0,7.0,1,16090,0,0,0,"SH,VC"
2026-03-19 16:56:00,METAR TJSJ 191656Z 13009KT 10SM FEW039 SCT046 SCT080 29/18 A2997 RMK AO2 RAB29E43 SLP147 VCSH SE P0000 T02940183,0,9.0,0,16090,0,0,0,"RA,SH,VC"
2026-03-19 15:56:00,METAR TJSJ 191556Z 13007KT 10SM FEW036 SCT065 SCT080 28/19 A2999 RMK AO2 RAB35E50 SLP155 VCSH SE NW P0000 T02830189,0,7.0,0,16090,0,0,0,"RA,SH,VC"
2026-03-19 14:56:00,METAR TJSJ 191456Z 10012KT 10SM FEW033 FEW060 SCT075 28/18 A3001 RMK AO2 SLP162 VCSH SE NW T02780183 51005 $,0,12.0,0,16090,0,0,0,"SH,VC"
2026-03-19 13:56:00,METAR TJSJ 191356Z 08014KT 10SM FEW038 FEW050 SCT060 28/20 A3001 RMK AO2 SLP161 VCSH SE SW T02780200 $,0,14.0,0,16090,0,0,0,"SH,VC"
2026-03-19 12:56:00,METAR TJSJ 191256Z 12007KT 10SM FEW033 FEW065 27/19 A3000 RMK AO2 SLP159 VCSH E T02670194 $,0,7.0,0,16090,0,0,0,"SH,VC"
2026-03-19 11:56:00,METAR TJSJ 191156Z VRB03KT 10SM FEW033 FEW065 25/20 A3000 RMK AO2 SLP157 VCSH E 70001 T02500200 10250 20228 53009 $,0,3.0,0,16090,0,0,0,"SH,VC"
2026-03-19 10:56:00,METAR TJSJ 191056Z 00000KT 10SM FEW030 FEW060 23/20 A2998 RMK AO2 SLP152 VCSH E T02280200 $,0,0.0,0,16090,0,0,0,"SH,VC"
2026-03-19 09:56:00,METAR TJSJ 190956Z 00000KT 10SM FEW020 23/19 A2998 RMK AO2 SLP150 T02280194 $,0,0.0,0,16090,0,0,0,
2026-03-19 08:56:00,METAR TJSJ 190856Z 00000KT 10SM FEW028 SCT060 23/19 A2997 RMK AO2 SLP147 T02280194 55006 $,0,0.0,0,16090,0,0,0,
2026-03-19 07:56:00,METAR TJSJ 190756Z 00000KT 10SM FEW024 SCT075 23/20 A2996 RMK AO2 SLP143 T02280200 $,0,0.0,0,16090,0,0,0,
2026-03-19 06:56:00,METAR TJSJ 190656Z 00000KT 10SM FEW032 23/20 A2996 RMK AO2 SLP146 T02280200 $,0,0.0,0,16090,0,0,0,
2026-03-19 05:56:00,METAR TJSJ 190556Z 17003KT 10SM FEW030 SCT065 23/20 A2999 RMK AO2 SLP154 60001 T02330200 10256 20233 58019,0,3.0,0,16090,0,0,0,
2026-03-19 04:56:00,METAR TJSJ 190456Z 00000KT 10SM FEW031 SCT055 BKN070 23/20 A3002 RMK AO2 RAB26E43 SLP165 P0001 T02330200,0,0.0,0,16090,0,0,0,RA
2026-03-19 03:56:00,METAR TJSJ 190356Z 21003KT 10SM FEW022 SCT060 24/20 A3004 RMK AO2 SLP171 T02440200 403000228,0,3.0,0,16090,0,0,0,
2026-03-19 02:56:00,METAR TJSJ 190256Z 00000KT 10SM FEW025 24/20 A3004 RMK AO2 SLP173 T02440200 51013,0,0.0,0,16090,0,0,0,
2026-03-19 01:56:00,METAR TJSJ 190156Z 18003KT 10SM FEW032 24/20 A3004 RMK AO2 SLP172 T02440200,0,3.0,0,16090,0,0,0,
2026-03-19 00:56:00,METAR TJSJ 190056Z 11007KT 10SM FEW060 25/20 A3003 RMK AO2 SLP168 T02500200,0,7.0,0,16090,0,0,0,
2026-03-18 23:56:00,METAR TJSJ 182356Z 11007KT 10SM CLR 26/20 A3001 RMK AO2 SLP159 T02560200 10300 20256 53013,0,7.0,0,16090,0,0,0,
2026-03-18 22:56:00,METAR TJSJ 182256Z 11008KT 10SM FEW033 FEW050 26/19 A2999 RMK AO2 SLP153 T02610194,0,8.0,0,16090,0,0,0,
2026-03-18 21:56:00,METAR TJSJ 182156Z 09012KT 10SM FEW035 FEW050 27/19 A2997 RMK AO2 SLP148 T02720194,0,12.0,0,16090,0,0,0,
2026-03-18 20:56:00,METAR TJSJ 182056Z 10013G22KT 10SM FEW035 SCT050 28/19 A2997 RMK AO2 SLP146 SHRA DSNT S T02830189 56012,0,13.0,1,16090,0,0,0,"DS,RA,SH"
2026-03-18 19:56:00,METAR TJSJ 181956Z 09012G20KT 10SM SCT039 29/18 A2997 RMK AO2 SLP147 T02940183,0,12.0,1,16090,0,0,0,
2026-03-18 18:56:00,METAR TJSJ 181856Z 09018G26KT 10SM SCT047 29/19 A2998 RMK AO2 PK WND 09026/1855 SLP150 T02940194,0,18.0,1,16090,0,0,0,
2026-03-18 17:56:00,METAR TJSJ 181756Z 09019G27KT 10SM FEW038 SCT055 29/18 A3000 RMK AO2 PK WND 09027/1742 SLP158 T02940178 10300 20250 58024,0,19.0,1,16090,0,0,0,
2026-03-18 16:56:00,METAR TJSJ 181656Z 08017KT 10SM FEW038 SCT055 29/21 A3003 RMK AO2 PK WND 06027/1635 SLP168 T02890206,0,17.0,0,16090,0,0,0,
2026-03-18 15:56:00,METAR TJSJ 181556Z 08014G24KT 10SM FEW038 SCT049 28/21 A3005 RMK AO2 SLP175 VCSH NE S T02830206,0,14.0,1,16090,0,0,0,"SH,VC"
2026-03-18 14:56:00,METAR TJSJ 181456Z 09016KT 10SM FEW038 SCT046 28/21 A3007 RMK AO2 SLP182 VCSH SE T02780206 50006,0,16.0,0,16090,0,0,0,"SH,VC"
2026-03-18 13:56:00,METAR TJSJ 181356Z 08016KT 10SM FEW034 SCT041 28/19 A3007 RMK AO2 SLP183 T02780194,0,16.0,0,16090,0,0,0,
2026-03-18 12:56:00,METAR TJSJ 181256Z 09012G18KT 10SM FEW032 FEW100 26/20 A3007 RMK AO2 SLP180 T02610200,0,12.0,1,16090,0,0,0,
2026-03-18 11:56:00,METAR TJSJ 181156Z 10008KT 10SM FEW032 FEW100 25/20 A3006 RMK AO2 SLP177 60006 70006 T02500200 10250 20228 51019,0,8.0,0,16090,0,0,0,
2026-03-18 10:56:00,METAR TJSJ 181056Z 14003KT 10SM FEW030 FEW095 23/20 A3004 RMK AO2 SLP172 T02280200,0,3.0,0,16090,0,0,0,
2026-03-18 09:56:00,METAR TJSJ 180956Z 00000KT 10SM FEW027 FEW044 SCT100 23/21 A3002 RMK AO2 SLP163 T02280206 $,0,0.0,0,16090,0,0,0,
2026-03-18 08:56:00,METAR TJSJ 180856Z 10008KT 10SM FEW029 SCT040 SCT080 23/21 A3000 RMK AO2 SLP158 60006 T02330206 55010 $,0,8.0,0,16090,0,0,0,
2026-03-18 07:56:00,METAR TJSJ 180756Z 12004KT 10SM FEW028 SCT040 SCT080 23/21 A3000 RMK AO2 RAB12E46 SLP157 P0006 T02330206 $,0,4.0,0,16090,0,0,0,RA
2026-03-18 06:56:00,METAR TJSJ 180656Z 09006KT 10SM FEW026 SCT080 24/20 A3002 RMK AO2 SLP163 VCSH SE-S T02390200 $,0,6.0,0,16090,0,0,0,"SH,VC"
2026-03-18 05:56:00,METAR TJSJ 180556Z 09004KT 10SM FEW030 FEW038 24/19 A3003 RMK AO2 SLP168 60000 T02440194 10256 20239 58016 $,0,4.0,0,16090,0,0,0,
2026-03-18 04:56:00,METAR TJSJ 180456Z 12003KT 10SM FEW028 SCT038 24/20 A3006 RMK AO2 SLP177 T02390200 $,0,3.0,0,16090,0,0,0,
2026-03-18 03:56:00,METAR TJSJ 180356Z 00000KT 10SM FEW022 SCT035 SCT070 24/20 A3007 RMK AO2 SLP182 T02440200 403000233 $,0,0.0,0,16090,0,0,0,
2026-03-18 02:56:00,METAR TJSJ 180256Z 10006KT 10SM FEW022 SCT035 SCT070 25/20 A3008 RMK AO2 SLP184 VCSH SW T02500200 51014 $,0,6.0,0,16090,0,0,0,"SH,VC"
2026-03-18 01:56:00,METAR TJSJ 180156Z 12007KT 10SM FEW025 SCT046 SCT070 25/20 A3007 RMK AO2 SLP181 T02500200,0,7.0,0,16090,0,0,0,
2026-03-18 00:56:00,METAR TJSJ 180056Z 10006KT 10SM FEW028 SCT080 25/20 A3005 RMK AO2 SLP175 T02500200,0,6.0,0,16090,0,0,0,
2026-03-17 23:56:00,METAR TJSJ 172356Z 09007KT 10SM FEW033 SCT060 25/20 A3004 RMK AO2 SLP170 T02500200 10300 20250 53014,0,7.0,0,16090,0,0,0,
2026-03-17 22:56:00,METAR TJSJ 172256Z 09009KT 10SM FEW032 SCT060 26/20 A3002 RMK AO2 SLP163 T02560200,0,9.0,0,16090,0,0,0,
2026-03-17 21:56:00,METAR TJSJ 172156Z 09014KT 10SM SCT032 SCT070 27/19 A3001 RMK AO2 SLP160 T02670194,0,14.0,0,16090,0,0,0,
2026-03-17 20:56:00,METAR TJSJ 172056Z 09017KT 10SM SCT035 SCT050 27/20 A3000 RMK AO2 SLP156 VCSH SW T02720200 55010,0,17.0,0,16090,0,0,0,"SH,VC"
2026-03-17 19:56:00,METAR TJSJ 171956Z 10015G25KT 10SM SCT038 SCT060 29/19 A2999 RMK AO2 PK WND 09027/1940 SLP155 T02890194,0,15.0,1,16090,0,0,0,
2026-03-17 18:56:00,METAR TJSJ 171856Z 10016G26KT 10SM FEW045 SCT065 29/19 A3000 RMK AO2 PK WND 08028/1818 SLP159 T02940194,0,16.0,1,16090,0,0,0,
2026-03-17 17:56:00,METAR TJSJ 171756Z 10012G27KT 10SM FEW045 30/19 A3003 RMK AO2 PK WND 08028/1717 SLP166 T03000189 10300 20256 58024,0,12.0,1,16090,0,0,0,
2026-03-17 16:56:00,METAR TJSJ 171656Z 09016G27KT 10SM FEW042 SCT055 29/19 A3005 RMK AO2 PK WND 08027/1647 SLP176 SHRA DSNT NE T02940189,0,16.0,1,16090,0,0,0,"DS,RA,SH"
2026-03-17 15:56:00,METAR TJSJ 171556Z 10014G22KT 10SM FEW042 SCT050 29/19 A3008 RMK AO2 SLP186 T02940189,0,14.0,1,16090,0,0,0,
2026-03-17 14:56:00,METAR TJSJ 171456Z 09015G22KT 10SM FEW039 FEW050 29/19 A3010 RMK AO2 SLP191 T02890189 51010,0,15.0,1,16090,0,0,0,
2026-03-17 13:56:00,METAR TJSJ 171356Z 11013G25KT 10SM FEW042 FEW055 28/18 A3010 RMK AO2 PK WND 09026/1345 SLP190 T02830178,0,13.0,1,16090,0,0,0,
2026-03-17 12:56:00,METAR TJSJ 171256Z 10015G21KT 9SM FEW038 27/18 A3009 RMK AO2 SLP188 HZ ALQDS T02720183,0,15.0,1,14481,0,0,0,DS
2026-03-17 11:56:00,METAR TJSJ 171156Z 10011KT 9SM FEW036 25/19 A3007 RMK AO2 SLP181 HZ ALQDS T02500189 10250 20233 53017 $,0,11.0,0,14481,0,0,0,DS
2026-03-17 10:56:00,METAR TJSJ 171056Z 09009KT 10SM FEW025 FEW036 24/19 A3005 RMK AO2 SLP174 T02390194 $,0,9.0,0,16090,0,0,0,
2026-03-17 09:56:00,METAR TJSJ 170956Z 10008KT 10SM FEW024 FEW034 SCT070 24/20 A3003 RMK AO2 SLP166 T02390200 $,0,8.0,0,16090,0,0,0,
2026-03-17 08:56:00,METAR TJSJ 170856Z 11007KT 10SM FEW026 SCT060 24/20 A3002 RMK AO2 SLP164 T02390200 56011 $,0,7.0,0,16090,0,0,0,
2026-03-17 07:56:00,METAR TJSJ 170756Z 10008KT 10SM FEW030 FEW060 24/19 A3002 RMK AO2 SLP166 T02440194 $,0,8.0,0,16090,0,0,0,
2026-03-17 06:56:00,METAR TJSJ 170656Z 10010KT 10SM FEW030 FEW060 24/19 A3003 RMK AO2 SLP169 T02440194 $,0,10.0,0,16090,0,0,0,
2026-03-17 05:56:00,METAR TJSJ 170556Z 10009KT 10SM FEW027 FEW060 24/19 A3005 RMK AO2 SLP175 T02440194 10256 20244 58015 $,0,9.0,0,16090,0,0,0,
2026-03-17 04:56:00,METAR TJSJ 170456Z 11007KT 10SM FEW027 FEW060 24/19 A3008 RMK AO2 SLP183 T02440194 $,0,7.0,0,16090,0,0,0,
2026-03-17 03:56:00,METAR TJSJ 170356Z 09008KT 10SM FEW040 24/19 A3009 RMK AO2 SLP188 T02440194 403060233 $,0,8.0,0,16090,0,0,0,
2026-03-17 02:56:00,METAR TJSJ 170256Z 09009KT 10SM FEW040 24/20 A3010 RMK AO2 SLP190 T02440200 51012,0,9.0,0,16090,0,0,0,
2026-03-17 01:56:00,METAR TJSJ 170156Z 10009KT 10SM FEW038 FEW065 25/19 A3009 RMK AO2 SLP189 T02500194,0,9.0,0,16090,0,0,0,
2026-03-17 00:56:00,METAR TJSJ 170056Z 10009KT 10SM FEW035 SCT065 25/19 A3008 RMK AO2 SLP183 T02500194,0,9.0,0,16090,0,0,0,
2026-03-16 23:56:00,METAR TJSJ 162356Z 09010KT 10SM FEW030 SCT065 26/20 A3006 RMK AO2 SLP179 T02560200 10300 20256 51012,0,10.0,0,16090,0,0,0,
2026-03-16 22:56:00,METAR TJSJ 162256Z 09010KT 9SM FEW036 SCT060 26/19 A3005 RMK AO2 SLP175 HZ ALQDS T02560194,0,10.0,0,14481,0,0,0,DS
2026-03-16 21:56:00,METAR TJSJ 162156Z 10010G21KT 9SM FEW030 SCT060 27/18 A3004 RMK AO2 PK WND 09028/2132 SLP172 HZ ALQDS T02720183,0,10.0,1,14481,0,0,0,DS
2026-03-16 20:56:00,METAR TJSJ 162056Z 09016G23KT 9SM FEW034 SCT070 28/18 A3003 RMK AO2 PK WND 09030/2016 SLP167 HZ ALQDS T02830178 55007,0,16.0,1,14481,0,0,0,DS
2026-03-16 19:56:00,METAR TJSJ 161956Z 10015G24KT 10SM FEW040 SCT080 30/16 A3002 RMK AO2 PK WND 11029/1932 SLP165 T03000156,0,15.0,1,16090,0,0,0,
2026-03-16 18:56:00,METAR TJSJ 161856Z 10022G31KT 10SM FEW038 SCT060 29/18 A3002 RMK AO2 PK WND 10031/1850 SLP165 T02940178,0,22.0,1,16090,0,0,0,
2026-03-16 17:56:00,METAR TJSJ 161756Z 09019G27KT 10SM FEW028 SCT042 30/19 A3005 RMK AO2 PK WND 10030/1706 SLP174 T03000194 10306 20261 56019,0,19.0,1,16090,0,0,0,
2026-03-16 16:56:00,METAR TJSJ 161656Z 11016G30KT 10SM SCT030 SCT042 30/18 A3006 RMK AO2 PK WND 09030/1634 SLP177 VCSH SW T03000183,0,16.0,1,16090,0,0,0,"SH,VC"
2026-03-16 15:56:00,METAR TJSJ 161556Z 10016G29KT 10SM SCT030 SCT038 30/19 A3009 RMK AO2 PK WND 11029/1457 SLP187 T03000189,0,16.0,1,16090,0,0,0,
2026-03-16 14:56:00,METAR TJSJ 161456Z 11013G29KT 10SM FEW027 SCT034 29/20 A3010 RMK AO2 PK WND 10030/1439 SLP193 T02890200 50010,0,13.0,1,16090,0,0,0,
2026-03-16 13:56:00,METAR TJSJ 161356Z 09016G29KT 10SM FEW030 FEW038 SCT050 28/19 A3011 RMK AO2 PK WND 09029/1350 SLP193 T02830194,0,16.0,1,16090,0,0,0,
2026-03-16 12:56:00,METAR TJSJ 161256Z 09018G25KT 10SM FEW030 FEW038 27/20 A3009 RMK AO2 SLP187 T02720200,0,18.0,1,16090,0,0,0,
2026-03-16 11:56:00,METAR TJSJ 161156Z 10012KT 10SM FEW026 FEW034 26/20 A3007 RMK AO2 SLP183 T02610200 10261 20233 53022,0,12.0,0,16090,0,0,0,
2026-03-16 10:56:00,METAR TJSJ 161056Z 10009KT 10SM FEW023 SCT031 24/20 A3005 RMK AO2 SLP176 T02440200,0,9.0,0,16090,0,0,0,
2026-03-16 09:56:00,METAR TJSJ 160956Z 10009KT 10SM FEW030 24/20 A3002 RMK AO2 SLP166 T02440200 $,0,9.0,0,16090,0,0,0,
2026-03-16 08:56:00,METAR TJSJ 160856Z 10010KT 10SM FEW035 24/20 A3001 RMK AO2 SLP161 T02440200 55007 $,0,10.0,0,16090,0,0,0,
2026-03-16 07:56:00,METAR TJSJ 160756Z 10007KT 10SM FEW034 24/20 A3000 RMK AO2 SLP159 T02390200 $,0,7.0,0,16090,0,0,0,
2026-03-16 06:56:00,METAR TJSJ 160656Z 10006KT 10SM FEW036 24/19 A3001 RMK AO2 SLP162 T02390194 $,0,6.0,0,16090,0,0,0,
2026-03-16 05:56:00,METAR TJSJ 160556Z 12007KT 10SM FEW038 24/19 A3003 RMK AO2 SLP168 T02440194 10256 20244 58010 $,0,7.0,0,16090,0,0,0,
2026-03-16 04:56:00,METAR TJSJ 160456Z 12008KT 10SM FEW035 25/19 A3005 RMK AO2 SLP175 T02500189 $,0,8.0,0,16090,0,0,0,
2026-03-16 03:56:00,METAR TJSJ 160356Z 11005KT 10SM FEW035 25/19 A3006 RMK AO2 SLP177 T02500189 402890228 $,0,5.0,0,16090,0,0,0,
2026-03-16 02:56:00,METAR TJSJ 160256Z 10009KT 10SM FEW037 25/19 A3006 RMK AO2 SLP178 T02500189 50010 $,0,9.0,0,16090,0,0,0,
2026-03-16 01:56:00,METAR TJSJ 160156Z 10009KT 10SM FEW026 SCT037 SCT060 26/20 A3007 RMK AO2 SLP180 T02560200 $,0,9.0,0,16090,0,0,0,
2026-03-16 00:56:00,METAR TJSJ 160056Z 09011KT 10SM FEW024 SCT037 BKN055 26/21 A3006 RMK AO2 SLP178 VCSH SW T02560211 $,0,11.0,0,16090,0,0,0,"SH,VC"
2026-03-15 23:56:00,METAR TJSJ 152356Z 10007KT 10SM FEW028 SCT040 SCT075 26/20 A3003 RMK AO2 SLP168 T02560200 10289 20250 53016 $,0,7.0,0,16090,0,0,0,
2026-03-15 22:56:00,METAR TJSJ 152256Z 10008KT 10SM FEW030 SCT040 SCT070 26/19 A3000 RMK AO2 SLP158 T02610194 $,0,8.0,0,16090,0,0,0,
2026-03-15 21:56:00,METAR TJSJ 152156Z 10013KT 10SM FEW030 SCT040 SCT070 27/20 A2999 RMK AO2 SLP155 T02670200 $,0,13.0,0,16090,0,0,0,
2026-03-15 20:56:00,METAR TJSJ 152056Z 09016G25KT 10SM FEW025 SCT035 SCT055 28/20 A2998 RMK AO2 PK WND 08026/2029 SLP152 60000 T02780200 56016 $,0,16.0,1,16090,0,0,0,
2026-03-15 19:56:00,METAR TJSJ 151956Z 09019G27KT 10SM FEW025 FEW037 SCT060 28/19 A2999 RMK AO2 PK WND 08029/1939 SLP155 T02780194 $,0,19.0,1,16090,0,0,0,
2026-03-15 18:56:00,METAR TJSJ 151856Z 09015KT 10SM FEW023 SCT032 SCT060 27/22 A3001 RMK AO2 PK WND 09031/1835 SLP160 VCSH S-SW T02670222 $,0,15.0,0,16090,0,0,0,"SH,VC"
2026-03-15 17:56:00,METAR TJSJ 151756Z 09019G30KT 9SM -RA FEW023 SCT028 BKN037 27/22 A3003 RMK AO2 PK WND 07033/1746 RAE1657B50 SLP168 P0000 60000 T02670217 10289 20239 56014 $,0,19.0,1,14481,0,0,0,"-RA,RA"
2026-03-15 16:56:00,METAR TJSJ 151656Z 08018G25KT 9SM -RA FEW021 SCT039 SCT055 28/22 A3004 RMK AO2 PK WND 09027/1611 RAB54 SLP171 P0000 T02830222 $,0,18.0,1,14481,0,0,0,-RA
2026-03-15 15:56:00,METAR TJSJ 151556Z 08012KT 10SM FEW026 SCT042 BKN065 27/22 A3006 RMK AO2 PK WND 09028/1539 RAB42E47 SLP178 VCSH SE NW P0000 T02720222 $,0,12.0,0,16090,0,0,0,"RA,SH,VC"
2026-03-15 14:56:00,METAR TJSJ 151456Z 07017G23KT 10SM FEW028 SCT034 SCT046 28/22 A3007 RMK AO2 SLP182 VCSH SE S T02780217 51006 $,0,17.0,1,16090,0,0,0,"SH,VC"
2026-03-15 13:56:00,METAR TJSJ 151356Z 08011KT 10SM FEW024 SCT042 BKN065 27/22 A3007 RMK AO2 SLP182 SHRA DSNT NE T02670217 $,0,11.0,0,16090,0,0,0,"DS,RA,SH"
2026-03-15 12:56:00,METAR TJSJ 151256Z 09006KT 10SM FEW029 SCT060 BKN075 26/22 A3007 RMK AO2 SLP181 VCSH NE T02560217 $,0,6.0,0,16090,0,0,0,"SH,VC"
2026-03-15 11:56:00,METAR TJSJ 151156Z 14004KT 10SM SCT023 SCT029 BKN035 24/21 A3005 RMK AO2 SLP176 VCSH SE 60016 70017 T02390211 10239 20228 53017 $,0,4.0,0,16090,0,0,0,"SH,VC"
2026-03-15 10:56:00,METAR TJSJ 151056Z 13004KT 10SM SCT025 BKN033 BKN065 23/21 A3003 RMK AO2 RAE34 SLP169 VCSH SE S SW P0011 T02330211 $,0,4.0,0,16090,0,0,0,"SH,VC"
2026-03-15 09:56:00,METAR TJSJ 150956Z 00000KT 10SM -RA FEW023 SCT045 BKN065 23/21 A3002 RMK AO2 RAB47 SLP164 P0001 T02280211 $,0,0.0,0,16090,0,0,0,-RA
2026-03-15 08:56:00,METAR TJSJ 150856Z 16003KT 10SM FEW025 SCT070 23/21 A3001 RMK AO2 RAB03E17 SLP159 VCSH N P0001 60004 T02280211 56011 $,0,3.0,0,16090,0,0,0,"RA,SH,VC"
