Time_recorded,METAR,is_cavok,wind_speed,is_gust,visibility_meters,has_thunderstorm,has_heavy_rain,has_low_vis_fog,other_phenomenon
2026-05-02 15:00:00,METAR RKPK 021500Z 17004KT CAVOK 16/10 Q1009,1,0,0,9999.0,0,0,0,
2026-05-02 14:00:00,METAR RKPK 021400Z 18007KT CAVOK 17/10 Q1010,1,0,0,9999.0,0,0,0,
2026-05-02 13:00:00,METAR RKPK 021300Z 15003KT CAVOK 17/11 Q1011,1,0,0,9999.0,0,0,0,
2026-05-02 12:00:00,METAR RKPK 021200Z 17005KT CAVOK 17/11 Q1011,1,0,0,9999.0,0,0,0,
2026-05-02 11:00:00,METAR RKPK 021100Z 17008KT CAVOK 17/11 Q1010,1,0,0,9999.0,0,0,0,
2026-05-02 10:00:00,METAR RKPK 021000Z 19009KT CAVOK 18/11 Q1010,1,0,0,9999.0,0,0,0,
2026-05-02 09:00:00,METAR RKPK 020900Z 19009KT CAVOK 18/11 Q1010,1,0,0,9999.0,0,0,0,
2026-05-02 08:38:00,SPECI RKPK 020838Z 19005KT CAVOK 18/12 Q1010 RMK CIG200,1,0,0,9999.0,0,0,0,
2026-05-02 08:00:00,METAR RKPK 020800Z 19010KT CAVOK 19/11 Q1010,1,0,0,9999.0,0,0,0,
2026-05-02 07:00:00,METAR RKPK 020700Z 20013KT CAVOK 19/11 Q1010,1,0,0,9999.0,0,0,0,
2026-05-02 06:00:00,METAR RKPK 020600Z 21012KT CAVOK 20/11 Q1011,1,0,0,9999.0,0,0,0,
2026-05-02 05:00:00,METAR RKPK 020500Z 21011KT CAVOK 23/06 Q1011,1,0,0,9999.0,0,0,0,
2026-05-02 04:00:00,METAR RKPK 020400Z 20008KT CAVOK 24/10 Q1012,1,0,0,9999.0,0,0,0,
2026-05-02 03:00:00,METAR RKPK 020300Z 20006KT CAVOK 23/08 Q1012,1,0,0,9999.0,0,0,0,
2026-05-02 02:00:00,METAR RKPK 020200Z 20008KT CAVOK 21/09 Q1013,1,0,0,9999.0,0,0,0,
2026-05-02 01:42:00,SPECI RKPK 020142Z 20008KT CAVOK 21/09 Q1013 RMK CIG200,1,0,0,9999.0,0,0,0,
2026-05-02 01:00:00,METAR RKPK 020100Z 26003KT CAVOK 21/05 Q1012,1,0,0,9999.0,0,0,0,
2026-05-02 00:00:00,METAR RKPK 020000Z 34003KT CAVOK 19/04 Q1013,1,0,0,9999.0,0,0,0,
2026-05-01 23:00:00,METAR RKPK 012300Z 31003KT CAVOK 16/04 Q1013,1,0,0,9999.0,0,0,0,
2026-05-01 22:00:00,METAR RKPK 012200Z 30004KT CAVOK 14/05 Q1012,1,0,0,9999.0,0,0,0,
2026-05-01 21:00:00,METAR RKPK 012100Z 33003KT 9999 FEW050 SCT250 13/04 Q1012,0,3,0,10000.0,0,0,0,
2026-05-01 20:00:00,METAR RKPK 012000Z 29004KT CAVOK 13/02 Q1011,1,0,0,9999.0,0,0,0,
2026-05-01 19:00:00,METAR RKPK 011900Z 32001KT CAVOK 14/02 Q1011,1,0,0,9999.0,0,0,0,
2026-05-01 18:00:00,METAR RKPK 011800Z 34008KT CAVOK 16/00 Q1011,1,0,0,9999.0,0,0,0,
2026-05-01 17:00:00,METAR RKPK 011700Z 35005KT CAVOK 14/02 Q1011,1,0,0,9999.0,0,0,0,
2026-05-01 16:00:00,METAR RKPK 011600Z 36007KT CAVOK 13/03 Q1011,1,0,0,9999.0,0,0,0,
2026-05-01 15:00:00,METAR RKPK 011500Z 31007KT CAVOK 17/01 Q1011,1,0,0,9999.0,0,0,0,
2026-05-01 14:00:00,METAR RKPK 011400Z 02006KT CAVOK 16/03 Q1011,1,0,0,9999.0,0,0,0,
2026-05-01 13:00:00,METAR RKPK 011300Z 33006KT CAVOK 19/02 Q1011,1,0,0,9999.0,0,0,0,
2026-05-01 12:00:00,METAR RKPK 011200Z 25003KT CAVOK 20/02 Q1010,1,0,0,9999.0,0,0,0,
2026-05-01 11:00:00,METAR RKPK 011100Z 31007KT CAVOK 18/07 Q1008,1,0,0,9999.0,0,0,0,
2026-05-01 10:00:00,METAR RKPK 011000Z 23006KT CAVOK 20/08 Q1007,1,0,0,9999.0,0,0,0,
2026-05-01 09:00:00,METAR RKPK 010900Z 23001KT CAVOK 23/10 Q1007,1,0,0,9999.0,0,0,0,
2026-05-01 08:00:00,METAR RKPK 010800Z 30010KT 9999 FEW050 24/05 Q1006,0,10,0,10000.0,0,0,0,
2026-05-01 07:00:00,METAR RKPK 010700Z 31005KT 9999 FEW050 23/09 Q1006,0,5,0,10000.0,0,0,0,
2026-05-01 06:00:00,METAR RKPK 010600Z 24003KT 9999 FEW050 21/08 Q1006,0,3,0,10000.0,0,0,0,
2026-05-01 05:00:00,METAR RKPK 010500Z 35003KT CAVOK 19/09 Q1007,1,0,0,9999.0,0,0,0,
2026-05-01 04:00:00,METAR RKPK 010400Z 30004KT CAVOK 17/06 Q1008,1,0,0,9999.0,0,0,0,
2026-05-01 03:00:00,METAR RKPK 010300Z 21003KT CAVOK 15/06 Q1009,1,0,0,9999.0,0,0,0,
2026-05-01 02:00:00,METAR RKPK 010200Z 08005KT 9999 FEW030 BKN060 BKN100 13/08 Q1008,0,5,0,10000.0,0,0,0,
2026-05-01 01:00:00,METAR RKPK 010100Z 30003KT CAVOK 12/07 Q1009,1,0,0,9999.0,0,0,0,
2026-05-01 00:00:00,METAR RKPK 010000Z 34004KT 9999 -RA FEW015 BKN060 OVC100 12/07 Q1010,0,4,0,10000.0,0,0,0,-RA
2026-04-30 23:49:00,SPECI RKPK 302349Z 33005KT 9999 -RA FEW015 BKN060 BKN100 12/07 Q1009 RMK CIG060,0,5,0,10000.0,0,0,0,-RA
2026-04-30 23:00:00,METAR RKPK 302300Z COR 32006KT 9999 FEW015 BKN050 BKN100 12/07 Q1010,0,6,0,10000.0,0,0,0,
2026-04-30 22:00:00,METAR RKPK 302200Z 31005KT 9999 FEW015 BKN060 BKN100 12/08 Q1009,0,5,0,10000.0,0,0,0,
2026-04-30 21:00:00,METAR RKPK 302100Z 32007KT 9999 -RA SCT015 OVC060 12/08 Q1009,0,7,0,10000.0,0,0,0,-RA
2026-04-30 20:00:00,METAR RKPK 302000Z 34007KT 9999 -RA SCT015 OVC060 12/08 Q1009,0,7,0,10000.0,0,0,0,-RA
2026-04-30 19:00:00,METAR RKPK 301900Z 32008KT 9999 -RA SCT015 OVC060 13/10 Q1009,0,8,0,10000.0,0,0,0,-RA
2026-04-30 18:00:00,METAR RKPK 301800Z 02005KT 4800 -RA BR FEW015 OVC060 12/11 Q1009,0,5,0,4800.0,0,0,1,"-RA,BR"
2026-04-30 17:00:00,METAR RKPK 301700Z 06001KT 4800 -RA BR FEW008 SCT015 OVC060 12/10 Q1009,0,1,0,4800.0,0,0,1,"-RA,BR"
2026-04-30 16:00:00,METAR RKPK 301600Z 06002KT 9999 -RA FEW030 BKN100 13/10 Q1010,0,2,0,10000.0,0,0,0,-RA
2026-04-30 14:00:00,METAR RKPK 301400Z 29002KT 9999 -RA FEW050 BKN080 14/10 Q1011,0,2,0,10000.0,0,0,0,-RA
2026-04-30 13:00:00,METAR RKPK 301300Z 04003KT 9999 -RA FEW050 BKN080 14/09 Q1012,0,3,0,10000.0,0,0,0,-RA
2026-04-30 12:00:00,METAR RKPK 301200Z 07004KT 9999 -RA FEW050 BKN080 15/08 Q1012,0,4,0,10000.0,0,0,0,-RA
2026-04-30 11:00:00,METAR RKPK 301100Z 09005KT 9999 -RA FEW050 BKN090 16/08 Q1011,0,5,0,10000.0,0,0,0,-RA
2026-04-30 10:49:00,SPECI RKPK 301049Z 09005KT 9999 FEW050 BKN090 16/08 Q1011 RMK CIG090,0,5,0,10000.0,0,0,0,
2026-04-30 10:25:00,SPECI RKPK 301025Z 08006KT 9999 FEW050 BKN090 16/08 Q1011 RMK CIG090,0,6,0,10000.0,0,0,0,
2026-04-30 10:11:00,SPECI RKPK 301011Z 08008KT 9999 -RA FEW050 BKN100 16/08 Q1011 RMK CIG100,0,8,0,10000.0,0,0,0,-RA
2026-04-30 10:00:00,METAR RKPK 301000Z 07008KT 9999 FEW050 BKN100 16/07 Q1011,0,8,0,10000.0,0,0,0,
2026-04-30 09:00:00,METAR RKPK 300900Z 07008KT 9999 FEW050 BKN100 16/08 Q1012,0,8,0,10000.0,0,0,0,
2026-04-30 08:00:00,METAR RKPK 300800Z 07008KT 9999 BKN050 BKN110 17/08 Q1012,0,8,0,10000.0,0,0,0,
2026-04-30 07:00:00,METAR RKPK 300700Z 07006KT 9999 BKN050 BKN110 17/07 Q1012,0,6,0,10000.0,0,0,0,
2026-04-30 06:00:00,METAR RKPK 300600Z 07009KT 9999 BKN040 BKN120 18/07 Q1013,0,9,0,10000.0,0,0,0,
2026-04-30 05:00:00,METAR RKPK 300500Z 07009KT 9999 BKN040 BKN120 17/07 Q1014,0,9,0,10000.0,0,0,0,
2026-04-30 04:00:00,METAR RKPK 300400Z 08006KT 9999 BKN050 BKN120 18/06 Q1015,0,6,0,10000.0,0,0,0,
2026-04-30 03:00:00,METAR RKPK 300300Z 09008KT 9999 SCT040 BKN150 18/07 Q1015,0,8,0,10000.0,0,0,0,
2026-04-30 02:00:00,METAR RKPK 300200Z 07007KT 9999 SCT030 BKN150 17/08 Q1016,0,7,0,10000.0,0,0,0,
2026-04-30 01:00:00,METAR RKPK 300100Z 06006KT 9999 SCT030 BKN080 BKN180 16/09 Q1017,0,6,0,10000.0,0,0,0,
2026-04-30 00:00:00,METAR RKPK 300000Z 04005KT 9999 FEW015 BKN080 BKN150 15/10 Q1017,0,5,0,10000.0,0,0,0,
2026-04-29 23:00:00,METAR RKPK 292300Z 03005KT 9999 FEW015 BKN080 14/11 Q1017,0,5,0,10000.0,0,0,0,
2026-04-29 22:00:00,METAR RKPK 292200Z 03003KT 9999 FEW015 BKN080 13/10 Q1017,0,3,0,10000.0,0,0,0,
2026-04-29 21:25:00,SPECI RKPK 292125Z 05004KT 9999 FEW040 BKN080 13/10 Q1017 RMK CIG080,0,4,0,10000.0,0,0,0,
2026-04-29 21:00:00,METAR RKPK 292100Z 04004KT 9999 -RA SCT040 OVC100 13/10 Q1017,0,4,0,10000.0,0,0,0,-RA
2026-04-29 20:00:00,METAR RKPK 292000Z 04004KT 9999 -RA SCT040 OVC080 13/10 Q1018,0,4,0,10000.0,0,0,0,-RA
2026-04-29 19:00:00,METAR RKPK 291900Z 04005KT 9999 -RA NSC 13/10 Q1018,0,5,0,10000.0,0,0,0,-RA
2026-04-29 18:00:00,METAR RKPK 291800Z 05004KT 9999 -RA NSC 13/10 Q1018,0,4,0,10000.0,0,0,0,-RA
2026-04-29 17:14:00,SPECI RKPK 291714Z 06004KT 9999 -RA NSC 14/09 Q1018 RMK CIG100,0,4,0,10000.0,0,0,0,-RA
2026-04-29 17:00:00,METAR RKPK 291700Z 04005KT CAVOK 14/08 Q1018,1,0,0,9999.0,0,0,0,
2026-04-29 16:00:00,METAR RKPK 291600Z 05003KT CAVOK 14/08 Q1019,1,0,0,9999.0,0,0,0,
2026-04-29 15:00:00,METAR RKPK 291500Z 05003KT CAVOK 14/08 Q1019,1,0,0,9999.0,0,0,0,
2026-04-29 14:00:00,METAR RKPK 291400Z 34002KT CAVOK 14/08 Q1019,1,0,0,9999.0,0,0,0,
2026-04-29 13:00:00,METAR RKPK 291300Z 14004KT 9999 FEW050 BKN150 15/08 Q1019,0,4,0,10000.0,0,0,0,
2026-04-29 12:00:00,METAR RKPK 291200Z 14006KT 9999 FEW050 BKN150 15/08 Q1019,0,6,0,10000.0,0,0,0,
2026-04-29 11:00:00,METAR RKPK 291100Z 14004KT 9999 FEW050 BKN150 OVC200 15/08 Q1018,0,4,0,10000.0,0,0,0,
2026-04-29 10:00:00,METAR RKPK 291000Z 13007KT 9999 FEW050 BKN150 OVC200 16/07 Q1018,0,7,0,10000.0,0,0,0,
2026-04-29 09:00:00,METAR RKPK 290900Z 15009KT 9999 FEW050 BKN150 OVC200 16/07 Q1017,0,9,0,10000.0,0,0,0,
2026-04-29 08:00:00,METAR RKPK 290800Z 15009KT 9999 FEW050 BKN150 OVC200 16/07 Q1017,0,9,0,10000.0,0,0,0,
2026-04-29 07:00:00,METAR RKPK 290700Z 15009KT 9999 FEW050 BKN150 OVC200 17/07 Q1017,0,9,0,10000.0,0,0,0,
2026-04-29 06:00:00,METAR RKPK 290600Z 15006KT 9999 FEW050 BKN150 OVC200 17/05 Q1017,0,6,0,10000.0,0,0,0,
2026-04-29 05:00:00,METAR RKPK 290500Z 20009KT 9999 FEW050 BKN150 OVC200 18/05 Q1018,0,9,0,10000.0,0,0,0,
2026-04-29 04:00:00,METAR RKPK 290400Z 17008KT 9999 FEW050 BKN130 18/08 Q1018,0,8,0,10000.0,0,0,0,
2026-04-29 03:00:00,METAR RKPK 290300Z 30004KT 9999 FEW050 BKN130 18/05 Q1018,0,4,0,10000.0,0,0,0,
2026-04-29 02:00:00,METAR RKPK 290200Z 30004KT 9999 FEW030 BKN130 18/07 Q1019,0,4,0,10000.0,0,0,0,
2026-04-29 01:00:00,METAR RKPK 290100Z 33004KT 9999 FEW030 BKN130 16/03 Q1019,0,4,0,10000.0,0,0,0,
2026-04-29 00:00:00,METAR RKPK 290000Z 36003KT CAVOK 16/06 Q1019,1,0,0,9999.0,0,0,0,
2026-04-28 23:00:00,METAR RKPK 282300Z 35002KT CAVOK 14/06 Q1019,1,0,0,9999.0,0,0,0,
2026-04-28 22:00:00,METAR RKPK 282200Z 04003KT CAVOK 13/08 Q1018,1,0,0,9999.0,0,0,0,
2026-04-28 21:00:00,METAR RKPK 282100Z 01003KT CAVOK 13/06 Q1018,1,0,0,9999.0,0,0,0,
2026-04-28 20:00:00,METAR RKPK 282000Z 05003KT CAVOK 12/07 Q1017,1,0,0,9999.0,0,0,0,
2026-04-28 19:00:00,METAR RKPK 281900Z 06004KT CAVOK 13/07 Q1017,1,0,0,9999.0,0,0,0,
2026-04-28 18:00:00,METAR RKPK 281800Z 05006KT CAVOK 13/07 Q1017,1,0,0,9999.0,0,0,0,
2026-04-28 17:00:00,METAR RKPK 281700Z 06005KT CAVOK 14/07 Q1016,1,0,0,9999.0,0,0,0,
2026-04-28 16:00:00,METAR RKPK 281600Z 06005KT CAVOK 14/07 Q1016,1,0,0,9999.0,0,0,0,
2026-04-28 15:00:00,METAR RKPK 281500Z 05005KT CAVOK 15/07 Q1016,1,0,0,9999.0,0,0,0,
2026-04-28 14:00:00,METAR RKPK 281400Z 05004KT CAVOK 16/08 Q1015,1,0,0,9999.0,0,0,0,
2026-04-28 13:00:00,METAR RKPK 281300Z 35006KT CAVOK 17/01 Q1015,1,0,0,9999.0,0,0,0,
2026-04-28 12:00:00,METAR RKPK 281200Z 32008KT CAVOK 19/00 Q1015,1,0,0,9999.0,0,0,0,
2026-04-28 11:00:00,METAR RKPK 281100Z 32010KT CAVOK 20/M01 Q1013,1,0,0,9999.0,0,0,0,
2026-04-28 10:00:00,METAR RKPK 281000Z 31010KT CAVOK 20/M01 Q1013,1,0,0,9999.0,0,0,0,
2026-04-28 09:00:00,METAR RKPK 280900Z 32008KT CAVOK 21/M02 Q1011,1,0,0,9999.0,0,0,0,
2026-04-28 08:00:00,METAR RKPK 280800Z 25008KT CAVOK 22/05 Q1010,1,0,0,9999.0,0,0,0,
2026-04-28 07:00:00,METAR RKPK 280700Z 26010KT CAVOK 22/08 Q1010,1,0,0,9999.0,0,0,0,
2026-04-28 06:00:00,METAR RKPK 280600Z 25011KT CAVOK 23/10 Q1010,1,0,0,9999.0,0,0,0,
2026-04-28 05:00:00,METAR RKPK 280500Z 24011KT CAVOK 23/11 Q1010,1,0,0,9999.0,0,0,0,
2026-04-28 04:00:00,METAR RKPK 280400Z 26006KT CAVOK 23/09 Q1011,1,0,0,9999.0,0,0,0,
2026-04-28 03:00:00,METAR RKPK 280300Z 27006KT CAVOK 21/11 Q1011,1,0,0,9999.0,0,0,0,
2026-04-28 02:00:00,METAR RKPK 280200Z 32005KT CAVOK 21/10 Q1012,1,0,0,9999.0,0,0,0,
2026-04-28 01:00:00,METAR RKPK 280100Z 28006KT CAVOK 20/09 Q1011,1,0,0,9999.0,0,0,0,
2026-04-28 00:00:00,METAR RKPK 280000Z 26005KT CAVOK 19/06 Q1012,1,0,0,9999.0,0,0,0,
2026-04-27 23:00:00,METAR RKPK 272300Z 29005KT CAVOK 17/06 Q1011,1,0,0,9999.0,0,0,0,
2026-04-27 22:00:00,METAR RKPK 272200Z 25006KT CAVOK 16/06 Q1011,1,0,0,9999.0,0,0,0,
2026-04-27 21:00:00,METAR RKPK 272100Z 23005KT CAVOK 16/07 Q1010,1,0,0,9999.0,0,0,0,
2026-04-27 20:00:00,METAR RKPK 272000Z 25004KT CAVOK 15/08 Q1010,1,0,0,9999.0,0,0,0,
2026-04-27 19:00:00,METAR RKPK 271900Z 21003KT CAVOK 15/09 Q1010,1,0,0,9999.0,0,0,0,
2026-04-27 18:00:00,METAR RKPK 271800Z 21004KT CAVOK 15/08 Q1010,1,0,0,9999.0,0,0,0,
2026-04-27 17:00:00,METAR RKPK 271700Z 20007KT CAVOK 15/08 Q1011,1,0,0,9999.0,0,0,0,
2026-04-27 16:00:00,METAR RKPK 271600Z 23004KT CAVOK 16/07 Q1012,1,0,0,9999.0,0,0,0,
2026-04-27 15:00:00,METAR RKPK 271500Z 17005KT CAVOK 15/11 Q1012,1,0,0,9999.0,0,0,0,
2026-04-27 14:00:00,METAR RKPK 271400Z 18006KT CAVOK 15/11 Q1012,1,0,0,9999.0,0,0,0,
2026-04-27 13:00:00,METAR RKPK 271300Z 20009KT CAVOK 16/10 Q1012,1,0,0,9999.0,0,0,0,
2026-04-27 12:00:00,METAR RKPK 271200Z 20008KT CAVOK 17/10 Q1012,1,0,0,9999.0,0,0,0,
2026-04-27 11:00:00,METAR RKPK 271100Z 18006KT CAVOK 18/10 Q1012,1,0,0,9999.0,0,0,0,
2026-04-27 10:00:00,METAR RKPK 271000Z 16010KT CAVOK 19/06 Q1011,1,0,0,9999.0,0,0,0,
2026-04-27 09:00:00,METAR RKPK 270900Z 20009KT CAVOK 20/06 Q1011,1,0,0,9999.0,0,0,0,
2026-04-27 08:00:00,METAR RKPK 270800Z 20012KT CAVOK 21/05 Q1011,1,0,0,9999.0,0,0,0,
2026-04-27 07:00:00,METAR RKPK 270700Z 15008KT CAVOK 23/07 Q1011,1,0,0,9999.0,0,0,0,
2026-04-27 06:00:00,METAR RKPK 270600Z 15012KT CAVOK 24/07 Q1011,1,0,0,9999.0,0,0,0,
2026-04-27 05:00:00,METAR RKPK 270500Z 16011KT CAVOK 24/06 Q1011,1,0,0,9999.0,0,0,0,
2026-04-27 04:00:00,METAR RKPK 270400Z 15012KT CAVOK 24/05 Q1012,1,0,0,9999.0,0,0,0,
2026-04-27 03:00:00,METAR RKPK 270300Z 16011KT CAVOK 24/06 Q1012,1,0,0,9999.0,0,0,0,
2026-04-27 02:00:00,METAR RKPK 270200Z 30004KT CAVOK 24/06 Q1012,1,0,0,9999.0,0,0,0,
2026-04-27 01:00:00,METAR RKPK 270100Z 01003KT CAVOK 23/05 Q1011,1,0,0,9999.0,0,0,0,
2026-04-27 00:00:00,METAR RKPK 270000Z 34004KT CAVOK 21/05 Q1011,1,0,0,9999.0,0,0,0,
2026-04-26 23:00:00,METAR RKPK 262300Z 35004KT CAVOK 18/09 Q1012,1,0,0,9999.0,0,0,0,
2026-04-26 22:00:00,METAR RKPK 262200Z 02003KT CAVOK 16/10 Q1011,1,0,0,9999.0,0,0,0,
2026-04-26 21:00:00,METAR RKPK 262100Z 03002KT CAVOK 14/09 Q1010,1,0,0,9999.0,0,0,0,
2026-04-26 20:00:00,METAR RKPK 262000Z 34004KT CAVOK 15/10 Q1010,1,0,0,9999.0,0,0,0,
2026-04-26 19:00:00,METAR RKPK 261900Z 36005KT CAVOK 14/10 Q1011,1,0,0,9999.0,0,0,0,
2026-04-26 18:00:00,METAR RKPK 261800Z 01002KT CAVOK 14/10 Q1011,1,0,0,9999.0,0,0,0,
2026-04-26 17:00:00,METAR RKPK 261700Z 01003KT CAVOK 14/11 Q1011,1,0,0,9999.0,0,0,0,
2026-04-26 16:00:00,METAR RKPK 261600Z 32002KT CAVOK 14/10 Q1011,1,0,0,9999.0,0,0,0,
2026-04-26 15:00:00,METAR RKPK 261500Z 22001KT CAVOK 14/11 Q1011,1,0,0,9999.0,0,0,0,
2026-04-26 14:00:00,METAR RKPK 261400Z 04002KT CAVOK 16/10 Q1011,1,0,0,9999.0,0,0,0,
2026-04-26 13:00:00,METAR RKPK 261300Z 16005KT CAVOK 17/11 Q1011,1,0,0,9999.0,0,0,0,
2026-04-26 12:00:00,METAR RKPK 261200Z 18005KT CAVOK 17/11 Q1011,1,0,0,9999.0,0,0,0,
2026-04-26 11:00:00,METAR RKPK 261100Z 20005KT CAVOK 18/12 Q1010,1,0,0,9999.0,0,0,0,
2026-04-26 10:16:00,SPECI RKPK 261016Z 21006KT CAVOK 18/11 Q1010,1,0,0,9999.0,0,0,0,
2026-04-26 10:00:00,METAR RKPK 261000Z 21008KT CAVOK 19/11 Q1009,1,0,0,9999.0,0,0,0,
2026-04-26 09:00:00,METAR RKPK 260900Z 22009KT CAVOK 21/11 Q1009,1,0,0,9999.0,0,0,0,
2026-04-26 08:00:00,METAR RKPK 260800Z 21008KT CAVOK 22/12 Q1009,1,0,0,9999.0,0,0,0,
2026-04-26 07:00:00,METAR RKPK 260700Z 19009KT CAVOK 23/12 Q1010,1,0,0,9999.0,0,0,0,
2026-04-26 06:00:00,METAR RKPK 260600Z 18010KT CAVOK 23/12 Q1011,1,0,0,9999.0,0,0,0,
2026-04-26 05:00:00,METAR RKPK 260500Z 19009KT CAVOK 23/13 Q1012,1,0,0,9999.0,0,0,0,
2026-04-26 04:00:00,METAR RKPK 260400Z 19008KT CAVOK 22/12 Q1012,1,0,0,9999.0,0,0,0,
2026-04-26 03:00:00,METAR RKPK 260300Z 20006KT CAVOK 22/10 Q1013,1,0,0,9999.0,0,0,0,
2026-04-26 02:00:00,METAR RKPK 260200Z 17002KT CAVOK 21/07 Q1014,1,0,0,9999.0,0,0,0,
2026-04-26 01:00:00,METAR RKPK 260100Z 29002KT CAVOK 20/05 Q1015,1,0,0,9999.0,0,0,0,
2026-04-26 00:00:00,METAR RKPK 260000Z 03002KT CAVOK 17/02 Q1015,1,0,0,9999.0,0,0,0,
2026-04-25 23:00:00,METAR RKPK 252300Z 03004KT CAVOK 14/04 Q1015,1,0,0,9999.0,0,0,0,
2026-04-25 22:00:00,METAR RKPK 252200Z 01001KT CAVOK 13/04 Q1015,1,0,0,9999.0,0,0,0,
2026-04-25 21:00:00,METAR RKPK 252100Z 02003KT CAVOK 09/03 Q1015,1,0,0,9999.0,0,0,0,
2026-04-25 20:00:00,METAR RKPK 252000Z 01003KT CAVOK 10/02 Q1015,1,0,0,9999.0,0,0,0,
2026-04-25 19:00:00,METAR RKPK 251900Z 02004KT CAVOK 10/02 Q1015,1,0,0,9999.0,0,0,0,
2026-04-25 18:00:00,METAR RKPK 251800Z 04003KT CAVOK 11/02 Q1015,1,0,0,9999.0,0,0,0,
2026-04-25 17:00:00,METAR RKPK 251700Z 05003KT CAVOK 12/02 Q1016,1,0,0,9999.0,0,0,0,
2026-04-25 16:00:00,METAR RKPK 251600Z 33001KT CAVOK 12/05 Q1016,1,0,0,9999.0,0,0,0,
2026-04-25 15:00:00,METAR RKPK 251500Z 06003KT CAVOK 13/05 Q1017,1,0,0,9999.0,0,0,0,
2026-04-25 14:00:00,METAR RKPK 251400Z 27002KT CAVOK 14/09 Q1017,1,0,0,9999.0,0,0,0,
2026-04-25 13:00:00,METAR RKPK 251300Z 16005KT CAVOK 15/07 Q1018,1,0,0,9999.0,0,0,0,
2026-04-25 12:00:00,METAR RKPK 251200Z 20005KT CAVOK 16/06 Q1018,1,0,0,9999.0,0,0,0,
2026-04-25 11:00:00,METAR RKPK 251100Z 19004KT CAVOK 16/07 Q1017,1,0,0,9999.0,0,0,0,
2026-04-25 10:00:00,METAR RKPK 251000Z 16004KT CAVOK 19/01 Q1016,1,0,0,9999.0,0,0,0,
2026-04-25 09:00:00,METAR RKPK 250900Z 17004KT CAVOK 21/07 Q1016,1,0,0,9999.0,0,0,0,
2026-04-25 08:00:00,METAR RKPK 250800Z 07006KT CAVOK 24/M02 Q1016,1,0,0,9999.0,0,0,0,
2026-04-25 07:00:00,METAR RKPK 250700Z 12006KT CAVOK 24/M01 Q1017,1,0,0,9999.0,0,0,0,
2026-04-25 06:00:00,METAR RKPK 250600Z 11006KT CAVOK 24/M02 Q1018,1,0,0,9999.0,0,0,0,
2026-04-25 05:00:00,METAR RKPK 250500Z 12008KT CAVOK 24/M01 Q1018,1,0,0,9999.0,0,0,0,
2026-04-25 04:00:00,METAR RKPK 250400Z 10007KT CAVOK 24/01 Q1019,1,0,0,9999.0,0,0,0,
2026-04-25 03:00:00,METAR RKPK 250300Z 07006KT CAVOK 23/02 Q1020,1,0,0,9999.0,0,0,0,
2026-04-25 02:00:00,METAR RKPK 250200Z 05004KT CAVOK 22/02 Q1020,1,0,0,9999.0,0,0,0,
2026-04-25 01:00:00,METAR RKPK 250100Z 01005KT CAVOK 20/M03 Q1020,1,0,0,9999.0,0,0,0,
2026-04-25 00:00:00,METAR RKPK 250000Z 30002KT CAVOK 16/01 Q1020,1,0,0,9999.0,0,0,0,
2026-04-24 23:00:00,METAR RKPK 242300Z 36002KT CAVOK 13/01 Q1020,1,0,0,9999.0,0,0,0,
2026-04-24 22:00:00,METAR RKPK 242200Z 05005KT CAVOK 11/02 Q1020,1,0,0,9999.0,0,0,0,
2026-04-24 21:00:00,METAR RKPK 242100Z 02005KT CAVOK 07/01 Q1020,1,0,0,9999.0,0,0,0,
2026-04-24 20:00:00,METAR RKPK 242000Z 05004KT CAVOK 09/01 Q1020,1,0,0,9999.0,0,0,0,
2026-04-24 19:00:00,METAR RKPK 241900Z 33002KT CAVOK 11/01 Q1020,1,0,0,9999.0,0,0,0,
2026-04-24 18:00:00,METAR RKPK 241800Z 04005KT CAVOK 11/01 Q1019,1,0,0,9999.0,0,0,0,
2026-04-24 17:00:00,METAR RKPK 241700Z 36003KT CAVOK 10/01 Q1018,1,0,0,9999.0,0,0,0,
2026-04-24 16:00:00,METAR RKPK 241600Z 07005KT CAVOK 13/02 Q1019,1,0,0,9999.0,0,0,0,
2026-04-24 15:00:00,METAR RKPK 241500Z 08003KT CAVOK 14/00 Q1019,1,0,0,9999.0,0,0,0,
2026-04-24 14:00:00,METAR RKPK 241400Z 05006KT CAVOK 15/00 Q1019,1,0,0,9999.0,0,0,0,
2026-04-24 13:00:00,METAR RKPK 241300Z 06006KT CAVOK 15/02 Q1018,1,0,0,9999.0,0,0,0,
2026-04-24 12:00:00,METAR RKPK 241200Z 03005KT CAVOK 15/04 Q1018,1,0,0,9999.0,0,0,0,
2026-04-24 11:00:00,METAR RKPK 241100Z 02005KT CAVOK 15/04 Q1018,1,0,0,9999.0,0,0,0,
2026-04-24 10:00:00,METAR RKPK 241000Z 08006KT CAVOK 17/04 Q1017,1,0,0,9999.0,0,0,0,
2026-04-24 09:00:00,METAR RKPK 240900Z 07009KT CAVOK 19/03 Q1016,1,0,0,9999.0,0,0,0,
2026-04-24 08:00:00,METAR RKPK 240800Z 08009KT CAVOK 20/02 Q1016,1,0,0,9999.0,0,0,0,
2026-04-24 07:00:00,METAR RKPK 240700Z 05008G18KT CAVOK 21/04 Q1015,1,0,0,9999.0,0,0,0,
2026-04-24 06:00:00,METAR RKPK 240600Z 05012KT CAVOK 21/02 Q1016,1,0,0,9999.0,0,0,0,
2026-04-24 05:00:00,METAR RKPK 240500Z 06012KT CAVOK 21/M01 Q1016,1,0,0,9999.0,0,0,0,
2026-04-24 04:00:00,METAR RKPK 240400Z 05012KT CAVOK 21/M01 Q1016,1,0,0,9999.0,0,0,0,
2026-04-24 03:00:00,METAR RKPK 240300Z 04012KT CAVOK 20/00 Q1016,1,0,0,9999.0,0,0,0,
2026-04-24 02:00:00,METAR RKPK 240200Z 03011KT CAVOK 18/04 Q1017,1,0,0,9999.0,0,0,0,
2026-04-24 01:00:00,METAR RKPK 240100Z 04011KT CAVOK 17/03 Q1017,1,0,0,9999.0,0,0,0,
2026-04-24 00:00:00,METAR RKPK 240000Z 03008KT CAVOK 16/04 Q1016,1,0,0,9999.0,0,0,0,
2026-04-23 23:00:00,METAR RKPK 232300Z 03008KT CAVOK 14/04 Q1016,1,0,0,9999.0,0,0,0,
2026-04-23 22:00:00,METAR RKPK 232200Z 36003KT CAVOK 11/03 Q1016,1,0,0,9999.0,0,0,0,
2026-04-23 21:00:00,METAR RKPK 232100Z 04007KT CAVOK 10/03 Q1015,1,0,0,9999.0,0,0,0,
2026-04-23 20:00:00,METAR RKPK 232000Z 30003KT CAVOK 09/03 Q1014,1,0,0,9999.0,0,0,0,
2026-04-23 19:00:00,METAR RKPK 231900Z 02005KT CAVOK 09/03 Q1014,1,0,0,9999.0,0,0,0,
2026-04-23 18:00:00,METAR RKPK 231800Z 34005KT CAVOK 11/02 Q1014,1,0,0,9999.0,0,0,0,
2026-04-23 17:00:00,METAR RKPK 231700Z 03011KT CAVOK 13/02 Q1014,1,0,0,9999.0,0,0,0,
2026-04-23 16:00:00,METAR RKPK 231600Z 02010KT CAVOK 13/02 Q1014,1,0,0,9999.0,0,0,0,
2026-04-23 15:00:00,METAR RKPK 231500Z 02010KT CAVOK 12/02 Q1014,1,0,0,9999.0,0,0,0,
2026-04-23 14:00:00,METAR RKPK 231400Z 03010KT CAVOK 13/03 Q1014,1,0,0,9999.0,0,0,0,
2026-04-23 13:00:00,METAR RKPK 231300Z 02012KT CAVOK 13/04 Q1013,1,0,0,9999.0,0,0,0,
2026-04-23 12:00:00,METAR RKPK 231200Z 02012KT CAVOK 14/04 Q1013,1,0,0,9999.0,0,0,0,
2026-04-23 11:00:00,METAR RKPK 231100Z 02012KT 9999 FEW040 BKN200 14/04 Q1012,0,12,0,10000.0,0,0,0,
2026-04-23 10:00:00,METAR RKPK 231000Z 02011KT 9999 FEW040 BKN240 15/05 Q1011,0,11,0,10000.0,0,0,0,
2026-04-23 09:00:00,METAR RKPK 230900Z 02011G21KT 9999 FEW040 BKN200 16/05 Q1011,0,11,1,10000.0,0,0,0,
2026-04-23 08:00:00,METAR RKPK 230800Z 03013G23KT 9999 FEW040 BKN200 18/06 Q1010,0,13,1,10000.0,0,0,0,
2026-04-23 07:00:00,METAR RKPK 230700Z COR 03015G25KT 9999 FEW040 SCT200 18/06 Q1009,0,15,1,10000.0,0,0,0,
2026-04-23 06:00:00,METAR RKPK 230600Z 03011G21KT 9999 SCT040 BKN200 18/07 Q1009,0,11,1,10000.0,0,0,0,
2026-04-23 05:00:00,METAR RKPK 230500Z 04014G24KT 9999 SCT040 OVC200 18/08 Q1008,0,14,1,10000.0,0,0,0,
2026-04-23 04:00:00,METAR RKPK 230400Z 07012G22KT 9999 SCT040 OVC200 18/07 Q1009,0,12,1,10000.0,0,0,0,
2026-04-23 03:00:00,METAR RKPK 230300Z 07009KT 9999 SCT040 OVC200 18/08 Q1009,0,9,0,10000.0,0,0,0,
2026-04-23 02:00:00,METAR RKPK 230200Z 04010G20KT 9999 BKN040 OVC200 16/08 Q1009,0,10,1,10000.0,0,0,0,
2026-04-23 01:00:00,METAR RKPK 230100Z 04013G23KT 9999 BKN040 OVC200 16/08 Q1009,0,13,1,10000.0,0,0,0,
2026-04-23 00:25:00,SPECI RKPK 230025Z 05013KT 9999 FEW040 SCT060 OVC100 16/08 Q1009 RMK CIG100,0,13,0,10000.0,0,0,0,
2026-04-23 00:00:00,METAR RKPK 230000Z 03015KT 9999 -RA FEW030 SCT060 OVC100 15/08 Q1009,0,15,0,10000.0,0,0,0,-RA
2026-04-22 23:32:00,SPECI RKPK 222332Z 04010KT 9999 -RA FEW020 SCT060 OVC100 15/08 Q1008 RMK CIG100,0,10,0,10000.0,0,0,0,-RA
2026-04-22 23:24:00,SPECI RKPK 222324Z 04010KT 9999 FEW020 SCT060 OVC100 15/08 Q1009 RMK CIG100,0,10,0,10000.0,0,0,0,
2026-04-22 23:00:00,METAR RKPK 222300Z 34003KT 9999 -RA FEW020 SCT060 OVC100 14/09 Q1009,0,3,0,10000.0,0,0,0,-RA
2026-04-22 22:47:00,SPECI RKPK 222247Z COR 31002KT 9999 -RA FEW015 SCT050 BKN130 OVC250 14/09 Q1009 RMK CIG130,0,2,0,10000.0,0,0,0,-RA
2026-04-22 22:00:00,METAR RKPK 222200Z 04004KT 9999 FEW020 FEW060 BKN110 13/09 Q1008,0,4,0,10000.0,0,0,0,
2026-04-22 21:45:00,SPECI RKPK 222145Z 04004KT CAVOK 13/08 Q1008 RMK CIG110,1,0,0,9999.0,0,0,0,
2026-04-22 21:26:00,SPECI RKPK 222126Z 36002KT 9999 -RA NSC 13/09 Q1008 RMK CIG110,0,2,0,10000.0,0,0,0,-RA
2026-04-22 21:00:00,METAR RKPK 222100Z 35004KT 9999 -RA NSC 13/08 Q1008,0,4,0,10000.0,0,0,0,-RA
2026-04-22 20:00:00,METAR RKPK 222000Z 01001KT 9999 -RA NSC 13/09 Q1008,0,1,0,10000.0,0,0,0,-RA
2026-04-22 19:00:00,METAR RKPK 221900Z 33001KT 9999 -RA FEW050 BKN110 13/09 Q1009,0,1,0,10000.0,0,0,0,-RA
2026-04-22 18:00:00,METAR RKPK 221800Z 34002KT 9999 -RA SCT050 BKN100 13/09 Q1009,0,2,0,10000.0,0,0,0,-RA
2026-04-22 17:27:00,SPECI RKPK 221727Z 33001KT 9999 -RA BKN050 BKN100 13/10 Q1009 RMK CIG050,0,1,0,10000.0,0,0,0,-RA
2026-04-22 17:00:00,METAR RKPK 221700Z 36003KT 9999 BKN050 BKN100 13/10 Q1009,0,3,0,10000.0,0,0,0,
2026-04-22 16:00:00,METAR RKPK 221600Z 05002KT 9999 BKN050 13/09 Q1010,0,2,0,10000.0,0,0,0,
2026-04-22 15:00:00,METAR RKPK 221500Z 28003KT 9999 BKN050 13/10 Q1011,0,3,0,10000.0,0,0,0,
2026-04-22 14:32:00,SPECI RKPK 221432Z 05001KT 9999 -RA BKN050 14/08 Q1012 RMK CIG050,0,1,0,10000.0,0,0,0,-RA
2026-04-22 14:00:00,METAR RKPK 221400Z 02003KT 9999 BKN050 13/09 Q1012,0,3,0,10000.0,0,0,0,
2026-04-22 13:00:00,METAR RKPK 221300Z 03002KT 9999 BKN050 BKN070 13/09 Q1012,0,2,0,10000.0,0,0,0,
2026-04-22 12:26:00,SPECI RKPK 221226Z 01004KT 9999 SCT050 OVC070 13/09 Q1012 RMK CIG070,0,4,0,10000.0,0,0,0,
2026-04-22 12:00:00,METAR RKPK 221200Z 25002KT 9999 -RA SCT050 OVC070 13/09 Q1012,0,2,0,10000.0,0,0,0,-RA
2026-04-22 11:00:00,METAR RKPK 221100Z 22005KT 9999 -RA NSC 13/08 Q1012,0,5,0,10000.0,0,0,0,-RA
2026-04-22 10:00:00,METAR RKPK 221000Z 18005KT 9999 -RA NSC 14/08 Q1012,0,5,0,10000.0,0,0,0,-RA
2026-04-22 09:00:00,METAR RKPK 220900Z 05003KT 9999 -RA FEW050 OVC100 17/03 Q1013,0,3,0,10000.0,0,0,0,-RA
2026-04-22 08:00:00,METAR RKPK 220800Z 36006KT 9999 -RA NSC 17/03 Q1013,0,6,0,10000.0,0,0,0,-RA
2026-04-22 07:25:00,SPECI RKPK 220725Z 36004KT 9999 -RA NSC 18/02 Q1013 RMK CIG080,0,4,0,10000.0,0,0,0,-RA
2026-04-22 07:09:00,SPECI RKPK 220709Z 34004KT CAVOK 18/M01 Q1013 RMK CIG080,1,0,0,9999.0,0,0,0,
2026-04-22 07:00:00,METAR RKPK 220700Z 31005KT 9999 -RA NSC 18/02 Q1013,0,5,0,10000.0,0,0,0,-RA
2026-04-22 06:36:00,SPECI RKPK 220636Z 33005KT CAVOK 19/02 Q1013 RMK CIG070,1,0,0,9999.0,0,0,0,
2026-04-22 06:00:00,METAR RKPK 220600Z 33004KT 9999 -RA NSC 19/00 Q1013,0,4,0,10000.0,0,0,0,-RA
2026-04-22 05:00:00,METAR RKPK 220500Z 33005KT 9999 -RA FEW050 OVC100 20/M04 Q1014,0,5,0,10000.0,0,0,0,-RA
2026-04-22 04:00:00,METAR RKPK 220400Z 01005KT 9999 FEW050 OVC100 19/03 Q1014,0,5,0,10000.0,0,0,0,
2026-04-22 03:00:00,METAR RKPK 220300Z 32005KT CAVOK 18/02 Q1015,1,0,0,9999.0,0,0,0,
2026-04-22 02:00:00,METAR RKPK 220200Z 02006KT CAVOK 17/03 Q1015,1,0,0,9999.0,0,0,0,
2026-04-22 01:00:00,METAR RKPK 220100Z 30002KT CAVOK 17/01 Q1015,1,0,0,9999.0,0,0,0,
2026-04-22 00:00:00,METAR RKPK 220000Z 03005KT CAVOK 15/03 Q1015,1,0,0,9999.0,0,0,0,
2026-04-21 23:00:00,METAR RKPK 212300Z 24002KT CAVOK 14/03 Q1016,1,0,0,9999.0,0,0,0,
2026-04-21 22:00:00,METAR RKPK 212200Z 36005KT CAVOK 14/03 Q1015,1,0,0,9999.0,0,0,0,
2026-04-21 21:00:00,METAR RKPK 212100Z 02002KT CAVOK 13/03 Q1015,1,0,0,9999.0,0,0,0,
2026-04-21 20:00:00,METAR RKPK 212000Z 31002KT CAVOK 14/03 Q1015,1,0,0,9999.0,0,0,0,
2026-04-21 19:00:00,METAR RKPK 211900Z COR 03002KT CAVOK 13/03 Q1015,1,0,0,9999.0,0,0,0,
2026-04-21 18:00:00,METAR RKPK 211800Z 09002KT CAVOK 14/02 Q1015,1,0,0,9999.0,0,0,0,
2026-04-21 17:00:00,METAR RKPK 211700Z 33003KT CAVOK 13/05 Q1016,1,0,0,9999.0,0,0,0,
2026-04-21 16:00:00,METAR RKPK 211600Z 34002KT CAVOK 13/04 Q1017,1,0,0,9999.0,0,0,0,
2026-04-21 15:00:00,METAR RKPK 211500Z 36002KT CAVOK 13/03 Q1017,1,0,0,9999.0,0,0,0,
2026-04-21 14:00:00,METAR RKPK 211400Z 10001KT CAVOK 13/02 Q1017,1,0,0,9999.0,0,0,0,
2026-04-21 13:00:00,METAR RKPK 211300Z 18002KT CAVOK 15/M01 Q1018,1,0,0,9999.0,0,0,0,
2026-04-21 12:00:00,METAR RKPK 211200Z 13003KT CAVOK 15/00 Q1018,1,0,0,9999.0,0,0,0,
2026-04-21 11:00:00,METAR RKPK 211100Z 22003KT CAVOK 16/M02 Q1017,1,0,0,9999.0,0,0,0,
2026-04-21 10:00:00,METAR RKPK 211000Z 17006KT CAVOK 16/04 Q1017,1,0,0,9999.0,0,0,0,
2026-04-21 09:39:00,SPECI RKPK 210939Z 17006KT CAVOK 16/04 Q1016 RMK ASIAN DUST(HWANGSA),1,0,0,9999.0,0,0,0,
2026-04-21 09:00:00,METAR RKPK 210900Z 18007KT CAVOK 17/01 Q1016,1,0,0,9999.0,0,0,0,
2026-04-21 08:00:00,METAR RKPK 210800Z 19016KT CAVOK 18/M04 Q1017,1,0,0,9999.0,0,0,0,
2026-04-21 07:00:00,METAR RKPK 210700Z 19018KT CAVOK 19/M01 Q1016,1,0,0,9999.0,0,0,0,
2026-04-21 06:00:00,METAR RKPK 210600Z 18010G20KT CAVOK 20/03 Q1016,1,0,0,9999.0,0,0,0,
2026-04-21 05:00:00,METAR RKPK 210500Z 21013KT CAVOK 21/M07 Q1017,1,0,0,9999.0,0,0,0,
2026-04-21 04:11:00,SPECI RKPK 210411Z 24006KT CAVOK 21/M07 Q1017 RMK ASIAN DUST(HWANGSA),1,0,0,9999.0,0,0,0,
2026-04-21 04:00:00,METAR RKPK 210400Z 23008KT CAVOK 21/M07 Q1018,1,0,0,9999.0,0,0,0,
2026-04-21 03:00:00,METAR RKPK 210300Z 23006KT CAVOK 19/M09 Q1019,1,0,0,9999.0,0,0,0,
2026-04-21 02:00:00,METAR RKPK 210200Z COR 28006KT CAVOK 18/M07 Q1019,1,0,0,9999.0,0,0,0,
2026-04-21 01:00:00,METAR RKPK 210100Z 30006KT CAVOK 16/M08 Q1020,1,0,0,9999.0,0,0,0,
2026-04-21 00:00:00,METAR RKPK 210000Z 30006KT CAVOK 15/M06 Q1020,1,0,0,9999.0,0,0,0,
2026-04-20 23:00:00,METAR RKPK 202300Z 32005KT CAVOK 12/M06 Q1020,1,0,0,9999.0,0,0,0,
2026-04-20 22:00:00,METAR RKPK 202200Z 21004KT CAVOK 11/M06 Q1019,1,0,0,9999.0,0,0,0,
2026-04-20 21:00:00,METAR RKPK 202100Z 34009KT CAVOK 11/M09 Q1018,1,0,0,9999.0,0,0,0,
2026-04-20 20:00:00,METAR RKPK 202000Z 33008KT CAVOK 11/M09 Q1017,1,0,0,9999.0,0,0,0,
2026-04-20 19:00:00,METAR RKPK 201900Z 32010KT CAVOK 12/M08 Q1017,1,0,0,9999.0,0,0,0,
2026-04-20 18:00:00,METAR RKPK 201800Z 33005KT CAVOK 11/M05 Q1016,1,0,0,9999.0,0,0,0,
2026-04-20 17:00:00,METAR RKPK 201700Z 36006KT CAVOK 11/M01 Q1016,1,0,0,9999.0,0,0,0,
2026-04-20 16:00:00,METAR RKPK 201600Z 34008KT 9999 FEW040 14/M01 Q1015,0,8,0,10000.0,0,0,0,
2026-04-20 15:00:00,METAR RKPK 201500Z 32006KT 9999 FEW040 14/03 Q1014,0,6,0,10000.0,0,0,0,
2026-04-20 14:00:00,METAR RKPK 201400Z 31010KT 9999 FEW040 16/05 Q1013,0,10,0,10000.0,0,0,0,
2026-04-20 13:00:00,METAR RKPK 201300Z 33013KT 9999 FEW040 18/05 Q1012,0,13,0,10000.0,0,0,0,
2026-04-20 12:00:00,METAR RKPK 201200Z 31005KT 9999 FEW040 SCT100 19/09 Q1011,0,5,0,10000.0,0,0,0,
2026-04-20 11:00:00,METAR RKPK 201100Z 30005KT 9999 SCT040 BKN100 20/11 Q1009,0,5,0,10000.0,0,0,0,
2026-04-20 10:00:00,METAR RKPK 201000Z 27004KT 9999 SCT040 BKN100 20/14 Q1009,0,4,0,10000.0,0,0,0,
2026-04-20 09:00:00,METAR RKPK 200900Z 27004KT 9999 SCT040 BKN080 BKN250 21/13 Q1008,0,4,0,10000.0,0,0,0,
2026-04-20 08:03:00,SPECI RKPK 200803Z 17007KT 9999 BKN040 BKN080 BKN250 20/13 Q1008 RMK CIG040,0,7,0,10000.0,0,0,0,
2026-04-20 08:00:00,METAR RKPK 200800Z 19007KT 9999 BKN040 BKN080 BKN250 20/14 Q1009,0,7,0,10000.0,0,0,0,
2026-04-20 07:00:00,METAR RKPK 200700Z 18012KT 9999 BKN040 BKN080 BKN250 19/13 Q1008,0,12,0,10000.0,0,0,0,
2026-04-20 06:00:00,METAR RKPK 200600Z 20010G20KT 9999 SCT040 BKN080 BKN250 21/13 Q1008,0,10,1,10000.0,0,0,0,
2026-04-20 05:00:00,METAR RKPK 200500Z 19011G21KT 9999 FEW040 BKN080 BKN250 21/15 Q1009,0,11,1,10000.0,0,0,0,
2026-04-20 04:00:00,METAR RKPK 200400Z 20011G21KT 9999 SCT040 BKN080 BKN250 21/14 Q1009,0,11,1,10000.0,0,0,0,
2026-04-20 03:00:00,METAR RKPK 200300Z COR 19010G20KT 9999 SCT040 SCT080 BKN250 21/14 Q1010,0,10,1,10000.0,0,0,0,
2026-04-20 02:05:00,SPECI RKPK 200205Z 20010KT 9999 FEW040 SCT250 22/15 Q1011,0,10,0,10000.0,0,0,0,
2026-04-20 02:00:00,METAR RKPK 200200Z 21005KT 9999 FEW040 SCT250 22/14 Q1010,0,5,0,10000.0,0,0,0,
2026-04-20 01:00:00,METAR RKPK 200100Z 30002KT 9999 FEW040 SCT080 SCT250 21/13 Q1011,0,2,0,10000.0,0,0,0,
2026-04-20 00:00:00,METAR RKPK 200000Z 30001KT CAVOK 19/13 Q1012,1,0,0,9999.0,0,0,0,
2026-04-19 23:00:00,METAR RKPK 192300Z 35002KT 9999 FEW040 BKN080 BKN250 17/13 Q1012,0,2,0,10000.0,0,0,0,
2026-04-19 22:00:00,METAR RKPK 192200Z 32002KT CAVOK 16/12 Q1012,1,0,0,9999.0,0,0,0,
2026-04-19 21:00:00,METAR RKPK 192100Z 05002KT CAVOK 15/12 Q1011,1,0,0,9999.0,0,0,0,
2026-04-19 20:00:00,METAR RKPK 192000Z 04001KT CAVOK 14/12 Q1011,1,0,0,9999.0,0,0,0,
2026-04-19 19:00:00,METAR RKPK 191900Z 01002KT CAVOK 14/11 Q1011,1,0,0,9999.0,0,0,0,
2026-04-19 18:00:00,METAR RKPK 191800Z 06002KT CAVOK 16/12 Q1012,1,0,0,9999.0,0,0,0,
2026-04-19 17:00:00,METAR RKPK 191700Z 35003KT CAVOK 16/12 Q1013,1,0,0,9999.0,0,0,0,
2026-04-19 16:00:00,METAR RKPK 191600Z 20002KT CAVOK 16/13 Q1013,1,0,0,9999.0,0,0,0,
2026-04-19 15:00:00,METAR RKPK 191500Z 17002KT CAVOK 16/13 Q1013,1,0,0,9999.0,0,0,0,
2026-04-19 14:00:00,METAR RKPK 191400Z 23002KT CAVOK 18/13 Q1013,1,0,0,9999.0,0,0,0,
2026-04-19 13:00:00,METAR RKPK 191300Z 11004KT CAVOK 20/11 Q1013,1,0,0,9999.0,0,0,0,
2026-04-19 12:00:00,METAR RKPK 191200Z 13007KT CAVOK 20/12 Q1013,1,0,0,9999.0,0,0,0,
2026-04-19 11:00:00,METAR RKPK 191100Z 13007KT CAVOK 20/12 Q1012,1,0,0,9999.0,0,0,0,
2026-04-19 10:00:00,METAR RKPK 191000Z 13005KT CAVOK 21/12 Q1012,1,0,0,9999.0,0,0,0,
2026-04-19 09:00:00,METAR RKPK 190900Z 14011KT CAVOK 21/11 Q1012,1,0,0,9999.0,0,0,0,
2026-04-19 08:00:00,METAR RKPK 190800Z 13010KT CAVOK 23/13 Q1011,1,0,0,9999.0,0,0,0,
2026-04-19 07:00:00,METAR RKPK 190700Z 12008KT CAVOK 25/15 Q1011,1,0,0,9999.0,0,0,0,
2026-04-19 06:00:00,METAR RKPK 190600Z COR 14008KT CAVOK 25/16 Q1012,1,0,0,9999.0,0,0,0,
2026-04-19 05:00:00,METAR RKPK 190500Z 14010KT CAVOK 24/15 Q1013,1,0,0,9999.0,0,0,0,
2026-04-19 04:00:00,METAR RKPK 190400Z 13009KT 9999 FEW050 BKN180 25/15 Q1013,0,9,0,10000.0,0,0,0,
2026-04-19 03:00:00,METAR RKPK 190300Z 12009KT 9999 SCT040 BKN200 25/15 Q1013,0,9,0,10000.0,0,0,0,
2026-04-19 02:00:00,METAR RKPK 190200Z 14009KT 9999 SCT040 BKN200 24/14 Q1014,0,9,0,10000.0,0,0,0,
2026-04-19 01:00:00,METAR RKPK 190100Z 11006KT 9999 FEW030 BKN200 23/15 Q1014,0,6,0,10000.0,0,0,0,
2026-04-19 00:00:00,METAR RKPK 190000Z 08002KT CAVOK 21/13 Q1014,1,0,0,9999.0,0,0,0,
2026-04-18 23:00:00,METAR RKPK 182300Z 08002KT CAVOK 19/13 Q1015,1,0,0,9999.0,0,0,0,
2026-04-18 22:00:00,METAR RKPK 182200Z 01002KT CAVOK 17/13 Q1014,1,0,0,9999.0,0,0,0,
2026-04-18 21:00:00,METAR RKPK 182100Z 08003KT CAVOK 16/13 Q1014,1,0,0,9999.0,0,0,0,
2026-04-18 20:00:00,METAR RKPK 182000Z 06003KT CAVOK 15/13 Q1014,1,0,0,9999.0,0,0,0,
2026-04-18 19:00:00,METAR RKPK 181900Z 30002KT CAVOK 16/13 Q1014,1,0,0,9999.0,0,0,0,
2026-04-18 18:00:00,METAR RKPK 181800Z 03005KT CAVOK 16/13 Q1014,1,0,0,9999.0,0,0,0,
2026-04-18 17:00:00,METAR RKPK 181700Z COR 04002KT CAVOK 16/13 Q1015,1,0,0,9999.0,0,0,0,
2026-04-18 16:00:00,METAR RKPK 181600Z 35003KT CAVOK 16/13 Q1015,1,0,0,9999.0,0,0,0,
2026-04-18 15:00:00,METAR RKPK 181500Z 21001KT CAVOK 16/13 Q1015,1,0,0,9999.0,0,0,0,
2026-04-18 14:00:00,METAR RKPK 181400Z 25002KT CAVOK 17/13 Q1015,1,0,0,9999.0,0,0,0,
2026-04-18 13:00:00,METAR RKPK 181300Z 30003KT CAVOK 17/13 Q1015,1,0,0,9999.0,0,0,0,
2026-04-18 12:00:00,METAR RKPK 181200Z 25003KT CAVOK 18/14 Q1015,1,0,0,9999.0,0,0,0,
2026-04-18 11:00:00,METAR RKPK 181100Z 17003KT CAVOK 18/14 Q1014,1,0,0,9999.0,0,0,0,
2026-04-18 10:05:00,SPECI RKPK 181005Z 21006KT CAVOK 19/14 Q1014 RMK CIG230,1,0,0,9999.0,0,0,0,
2026-04-18 10:00:00,METAR RKPK 181000Z 20007KT CAVOK 19/13 Q1014,1,0,0,9999.0,0,0,0,
2026-04-18 09:00:00,METAR RKPK 180900Z 19008KT CAVOK 21/12 Q1014,1,0,0,9999.0,0,0,0,
2026-04-18 08:00:00,METAR RKPK 180800Z 19009KT CAVOK 21/12 Q1013,1,0,0,9999.0,0,0,0,
2026-04-18 07:12:00,SPECI RKPK 180712Z 20011KT CAVOK 22/14 Q1013 RMK CIG230,1,0,0,9999.0,0,0,0,
2026-04-18 07:00:00,METAR RKPK 180700Z 19009KT CAVOK 22/14 Q1013,1,0,0,9999.0,0,0,0,
2026-04-18 06:00:00,METAR RKPK 180600Z 19006KT CAVOK 23/14 Q1013,1,0,0,9999.0,0,0,0,
2026-04-18 05:00:00,METAR RKPK 180500Z 19006KT CAVOK 22/13 Q1014,1,0,0,9999.0,0,0,0,
2026-04-18 04:00:00,METAR RKPK 180400Z 19007KT 9999 FEW020 SCT060 BKN250 22/14 Q1015,0,7,0,10000.0,0,0,0,
2026-04-18 03:00:00,METAR RKPK 180300Z 20005KT 9999 FEW020 SCT060 BKN250 21/15 Q1015,0,5,0,10000.0,0,0,0,
2026-04-18 02:00:00,METAR RKPK 180200Z 22003KT 9999 SCT020 BKN060 20/16 Q1016,0,3,0,10000.0,0,0,0,
2026-04-18 01:00:00,METAR RKPK 180100Z 16001KT 9999 SCT020 BKN060 BKN250 19/15 Q1016,0,1,0,10000.0,0,0,0,
2026-04-18 00:00:00,METAR RKPK 180000Z 35003KT 8000 FEW005 SCT020 BKN060 17/14 Q1017,0,3,0,8000.0,0,0,0,
2026-04-17 23:08:00,SPECI RKPK 172308Z 33003KT 8000 FEW005 SCT020 BKN060 16/13 Q1017 RMK CIG060,0,3,0,8000.0,0,0,0,
2026-04-17 23:00:00,METAR RKPK 172300Z 32003KT 6000 -RA FEW005 SCT020 BKN060 16/13 Q1017,0,3,0,6000.0,0,0,0,-RA
2026-04-17 22:00:00,METAR RKPK 172200Z 32004KT 6000 -RA FEW005 SCT020 BKN060 15/13 Q1016,0,4,0,6000.0,0,0,0,-RA
2026-04-17 21:15:00,SPECI RKPK 172115Z 26002KT 6000 -RA FEW005 SCT020 BKN060 14/13 Q1016 RMK CIG060,0,2,0,6000.0,0,0,0,-RA
2026-04-17 21:00:00,METAR RKPK 172100Z 27002KT 4800 -RA BR SCT005 BKN020 OVC030 14/13 Q1016,0,2,0,4800.0,0,0,1,"-RA,BR"
2026-04-17 20:00:00,METAR RKPK 172000Z 31003KT 4800 -RA BR SCT005 BKN020 OVC030 14/13 Q1015,0,3,0,4800.0,0,0,1,"-RA,BR"
2026-04-17 19:00:00,METAR RKPK 171900Z 34002KT 4000 -RA BR BKN005 BKN015 OVC030 14/13 Q1016,0,2,0,4000.0,0,0,1,"-RA,BR"
2026-04-17 18:00:00,METAR RKPK 171800Z 31003KT 4800 -RA BR BKN005 BKN015 OVC030 14/13 Q1016,0,3,0,4800.0,0,0,1,"-RA,BR"
2026-04-17 17:00:00,METAR RKPK 171700Z 33005KT 4800 -RA BR BKN005 BKN015 OVC030 14/12 Q1016,0,5,0,4800.0,0,0,1,"-RA,BR"
2026-04-17 16:00:00,METAR RKPK 171600Z 30003KT 4800 -RA BR BKN005 BKN015 OVC030 14/12 Q1016,0,3,0,4800.0,0,0,1,"-RA,BR"
2026-04-17 15:10:00,SPECI RKPK 171510Z 28003KT 4800 -RA BR BKN005 BKN015 OVC050 14/12 Q1016 RMK CIG005,0,3,0,4800.0,0,0,1,"-RA,BR"
2026-04-17 15:00:00,METAR RKPK 171500Z 28003KT 4800 -RA BR SCT005 BKN015 OVC050 14/12 Q1016,0,3,0,4800.0,0,0,1,"-RA,BR"
2026-04-17 14:00:00,METAR RKPK 171400Z 32004KT 4800 RA BR SCT005 BKN015 OVC060 14/12 Q1016,0,4,0,4800.0,0,0,1,"BR,RA"
2026-04-17 13:00:00,METAR RKPK 171300Z 33005KT 4800 -RA BR SCT005 BKN015 OVC060 14/12 Q1016,0,5,0,4800.0,0,0,1,"-RA,BR"
2026-04-17 12:00:00,METAR RKPK 171200Z COR 31005KT 4800 -RA BR SCT005 BKN015 OVC060 14/12 Q1016,0,5,0,4800.0,0,0,1,"-RA,BR"
2026-04-17 11:22:00,SPECI RKPK 171122Z 30004KT 4800 -RA BR FEW005 BKN015 OVC060 14/12 Q1016 RMK CIG015,0,4,0,4800.0,0,0,1,"-RA,BR"
2026-04-17 11:00:00,METAR RKPK 171100Z 32005KT 4800 -RA BR FEW005 BKN020 OVC060 14/12 Q1015,0,5,0,4800.0,0,0,1,"-RA,BR"
2026-04-17 10:33:00,SPECI RKPK 171033Z 31005KT 4800 -RA BR FEW005 BKN020 OVC060 14/12 Q1015 RMK CIG020,0,5,0,4800.0,0,0,1,"-RA,BR"
2026-04-17 10:14:00,SPECI RKPK 171014Z 32005KT 4800 -RA BR FEW008 SCT020 BKN040 OVC060 14/12 Q1015 RMK CIG040,0,5,0,4800.0,0,0,1,"-RA,BR"
2026-04-17 10:00:00,METAR RKPK 171000Z 31005KT 6000 -RA SCT020 BKN040 OVC060 14/12 Q1015,0,5,0,6000.0,0,0,0,-RA
2026-04-17 09:00:00,METAR RKPK 170900Z 31005KT 8000 -RA FEW020 BKN040 OVC070 15/12 Q1015,0,5,0,8000.0,0,0,0,-RA
2026-04-17 08:00:00,METAR RKPK 170800Z 31003KT 9000 -RA BKN040 OVC090 16/11 Q1014,0,3,0,9000.0,0,0,0,-RA
2026-04-17 07:00:00,METAR RKPK 170700Z 30005KT 9999 -RA BKN040 OVC090 17/10 Q1014,0,5,0,10000.0,0,0,0,-RA
2026-04-17 06:11:00,SPECI RKPK 170611Z 30004KT 9999 -RA BKN040 OVC090 18/08 Q1014 RMK CIG040,0,4,0,10000.0,0,0,0,-RA
2026-04-17 06:00:00,METAR RKPK 170600Z 30004KT 9999 SCT040 OVC090 19/08 Q1015,0,4,0,10000.0,0,0,0,
2026-04-17 05:00:00,METAR RKPK 170500Z 32002KT 9999 FEW050 OVC090 19/08 Q1015,0,2,0,10000.0,0,0,0,
2026-04-17 04:00:00,METAR RKPK 170400Z 32003KT 9999 FEW050 OVC090 18/08 Q1016,0,3,0,10000.0,0,0,0,
2026-04-17 03:40:00,SPECI RKPK 170340Z 32003KT 9999 FEW050 OVC090 17/07 Q1016 RMK CIG090,0,3,0,10000.0,0,0,0,
2026-04-17 03:26:00,SPECI RKPK 170326Z 33003KT 9999 -RA FEW050 OVC090 17/07 Q1016 RMK CIG090,0,3,0,10000.0,0,0,0,-RA
2026-04-17 03:00:00,METAR RKPK 170300Z 33003KT 9999 FEW050 OVC090 17/07 Q1016,0,3,0,10000.0,0,0,0,
2026-04-17 02:00:00,METAR RKPK 170200Z 32004KT 9999 SCT050 OVC090 16/06 Q1017,0,4,0,10000.0,0,0,0,
2026-04-17 01:06:00,SPECI RKPK 170106Z 31004KT 9999 SCT030 OVC090 15/06 Q1017 RMK CIG090,0,4,0,10000.0,0,0,0,
2026-04-17 01:00:00,METAR RKPK 170100Z 31003KT 9999 -RA SCT050 OVC090 15/05 Q1017,0,3,0,10000.0,0,0,0,-RA
2026-04-17 00:00:00,METAR RKPK 170000Z 31004KT 9999 FEW050 SCT080 OVC150 14/05 Q1017,0,4,0,10000.0,0,0,0,
2026-04-16 23:00:00,METAR RKPK 162300Z COR 31003KT CAVOK 13/04 Q1017,1,0,0,9999.0,0,0,0,
2026-04-16 22:00:00,METAR RKPK 162200Z 32003KT CAVOK 12/03 Q1017,1,0,0,9999.0,0,0,0,
2026-04-16 21:00:00,METAR RKPK 162100Z 30003KT CAVOK 12/03 Q1017,1,0,0,9999.0,0,0,0,
2026-04-16 20:00:00,METAR RKPK 162000Z 31002KT CAVOK 12/04 Q1017,1,0,0,9999.0,0,0,0,
2026-04-16 19:00:00,METAR RKPK 161900Z 31003KT CAVOK 12/03 Q1017,1,0,0,9999.0,0,0,0,
2026-04-16 18:00:00,METAR RKPK 161800Z 04007KT CAVOK 12/05 Q1018,1,0,0,9999.0,0,0,0,
2026-04-16 17:00:00,METAR RKPK 161700Z 04006KT CAVOK 13/05 Q1018,1,0,0,9999.0,0,0,0,
2026-04-16 16:00:00,METAR RKPK 161600Z 05003KT CAVOK 13/04 Q1018,1,0,0,9999.0,0,0,0,
2026-04-16 15:00:00,METAR RKPK 161500Z 03009KT CAVOK 13/04 Q1017,1,0,0,9999.0,0,0,0,
2026-04-16 14:00:00,METAR RKPK 161400Z 02009KT CAVOK 13/03 Q1018,1,0,0,9999.0,0,0,0,
2026-04-16 13:00:00,METAR RKPK 161300Z 05008KT CAVOK 14/00 Q1019,1,0,0,9999.0,0,0,0,
2026-04-16 12:00:00,METAR RKPK 161200Z 05008KT CAVOK 14/M02 Q1019,1,0,0,9999.0,0,0,0,
2026-04-16 11:00:00,METAR RKPK 161100Z 07008KT CAVOK 15/M02 Q1019,1,0,0,9999.0,0,0,0,
2026-04-16 10:00:00,METAR RKPK 161000Z 08010KT CAVOK 17/M03 Q1018,1,0,0,9999.0,0,0,0,
2026-04-16 09:00:00,METAR RKPK 160900Z 08013KT CAVOK 19/M05 Q1018,1,0,0,9999.0,0,0,0,
2026-04-16 08:00:00,METAR RKPK 160800Z 06014KT CAVOK 20/M04 Q1018,1,0,0,9999.0,0,0,0,
2026-04-16 07:00:00,METAR RKPK 160700Z 08007G17KT CAVOK 21/M03 Q1019,1,0,0,9999.0,0,0,0,
2026-04-16 06:00:00,METAR RKPK 160600Z 08009G19KT CAVOK 21/M01 Q1019,1,0,0,9999.0,0,0,0,
2026-04-16 05:00:00,METAR RKPK 160500Z 08010G20KT CAVOK 21/01 Q1020,1,0,0,9999.0,0,0,0,
2026-04-16 04:00:00,METAR RKPK 160400Z 08012G22KT CAVOK 21/01 Q1019,1,0,0,9999.0,0,0,0,
2026-04-16 03:00:00,METAR RKPK 160300Z 06006G16KT 9999 FEW030 FEW200 20/04 Q1020,0,6,1,10000.0,0,0,0,
2026-04-16 02:00:00,METAR RKPK 160200Z 06009KT 9999 FEW030 FEW200 19/06 Q1021,0,9,0,10000.0,0,0,0,
2026-04-16 01:00:00,METAR RKPK 160100Z 04008KT 9999 FEW030 FEW200 18/06 Q1021,0,8,0,10000.0,0,0,0,
2026-04-16 00:00:00,METAR RKPK 160000Z 04011KT CAVOK 16/04 Q1021,1,0,0,9999.0,0,0,0,
2026-04-15 23:00:00,METAR RKPK 152300Z 03012KT CAVOK 15/05 Q1020,1,0,0,9999.0,0,0,0,
2026-04-15 22:00:00,METAR RKPK 152200Z 04011KT CAVOK 13/05 Q1019,1,0,0,9999.0,0,0,0,
2026-04-15 21:00:00,METAR RKPK 152100Z 04009KT CAVOK 12/05 Q1018,1,0,0,9999.0,0,0,0,
2026-04-15 20:00:00,METAR RKPK 152000Z 05008KT CAVOK 13/04 Q1018,1,0,0,9999.0,0,0,0,
2026-04-15 19:00:00,METAR RKPK 151900Z 03006KT CAVOK 13/03 Q1018,1,0,0,9999.0,0,0,0,
2026-04-15 18:00:00,METAR RKPK 151800Z 03007KT CAVOK 13/04 Q1018,1,0,0,9999.0,0,0,0,
2026-04-15 17:00:00,METAR RKPK 151700Z 04006KT CAVOK 14/05 Q1018,1,0,0,9999.0,0,0,0,
2026-04-15 16:00:00,METAR RKPK 151600Z 04012KT CAVOK 14/05 Q1017,1,0,0,9999.0,0,0,0,
2026-04-15 15:00:00,METAR RKPK 151500Z 04011KT CAVOK 15/06 Q1017,1,0,0,9999.0,0,0,0,
2026-04-15 14:00:00,METAR RKPK 151400Z 04010KT CAVOK 15/07 Q1016,1,0,0,9999.0,0,0,0,
2026-04-15 13:00:00,METAR RKPK 151300Z 04009KT CAVOK 15/06 Q1016,1,0,0,9999.0,0,0,0,
2026-04-15 12:00:00,METAR RKPK 151200Z 05007KT CAVOK 17/03 Q1014,1,0,0,9999.0,0,0,0,
2026-04-15 11:00:00,METAR RKPK 151100Z 20002KT CAVOK 18/08 Q1013,1,0,0,9999.0,0,0,0,
2026-04-15 10:00:00,METAR RKPK 151000Z 22005KT CAVOK 18/08 Q1012,1,0,0,9999.0,0,0,0,
2026-04-15 09:23:00,SPECI RKPK 150923Z 21007KT CAVOK 19/07 Q1011,1,0,0,9999.0,0,0,0,
2026-04-15 09:00:00,METAR RKPK 150900Z 21009KT CAVOK 19/08 Q1011,1,0,0,9999.0,0,0,0,
2026-04-15 08:00:00,METAR RKPK 150800Z 22011KT CAVOK 20/07 Q1010,1,0,0,9999.0,0,0,0,
2026-04-15 07:00:00,METAR RKPK 150700Z 22011KT CAVOK 21/08 Q1010,1,0,0,9999.0,0,0,0,
2026-04-15 06:00:00,METAR RKPK 150600Z 20010KT CAVOK 21/07 Q1010,1,0,0,9999.0,0,0,0,
2026-04-15 05:00:00,METAR RKPK 150500Z 20011KT CAVOK 21/08 Q1010,1,0,0,9999.0,0,0,0,
2026-04-15 04:00:00,METAR RKPK 150400Z 20011KT CAVOK 21/07 Q1010,1,0,0,9999.0,0,0,0,
2026-04-15 03:31:00,SPECI RKPK 150331Z 21011KT CAVOK 21/08 Q1010,1,0,0,9999.0,0,0,0,
2026-04-15 03:00:00,METAR RKPK 150300Z 12002KT CAVOK 22/04 Q1011,1,0,0,9999.0,0,0,0,
2026-04-15 02:00:00,METAR RKPK 150200Z 12003KT CAVOK 20/05 Q1011,1,0,0,9999.0,0,0,0,
2026-04-15 01:00:00,METAR RKPK 150100Z 31003KT CAVOK 18/06 Q1012,1,0,0,9999.0,0,0,0,
2026-04-15 00:00:00,METAR RKPK 150000Z 30004KT CAVOK 17/05 Q1012,1,0,0,9999.0,0,0,0,
2026-04-14 23:00:00,METAR RKPK 142300Z 36004KT CAVOK 15/04 Q1012,1,0,0,9999.0,0,0,0,
2026-04-14 22:00:00,METAR RKPK 142200Z COR 32004KT 9999 BKN050 BKN100 14/06 Q1012,0,4,0,10000.0,0,0,0,
2026-04-14 21:00:00,METAR RKPK 142100Z COR 34004KT 9999 BKN035 OVC100 14/06 Q1011,0,4,0,10000.0,0,0,0,
2026-04-14 20:00:00,METAR RKPK 142000Z 36003KT 9999 SCT030 BKN100 14/07 Q1011,0,3,0,10000.0,0,0,0,
2026-04-14 19:00:00,METAR RKPK 141900Z 03003KT 9999 FEW030 BKN100 14/05 Q1011,0,3,0,10000.0,0,0,0,
2026-04-14 18:00:00,METAR RKPK 141800Z 05008KT 9999 FEW030 BKN100 14/06 Q1012,0,8,0,10000.0,0,0,0,
2026-04-14 17:00:00,METAR RKPK 141700Z 04008KT CAVOK 15/05 Q1012,1,0,0,9999.0,0,0,0,
2026-04-14 16:00:00,METAR RKPK 141600Z 04008KT CAVOK 15/05 Q1013,1,0,0,9999.0,0,0,0,
2026-04-14 15:00:00,METAR RKPK 141500Z 04005KT 9999 BKN050 OVC090 15/07 Q1013,0,5,0,10000.0,0,0,0,
2026-04-14 14:00:00,METAR RKPK 141400Z 04006KT 9999 BKN050 OVC090 15/07 Q1013,0,6,0,10000.0,0,0,0,
2026-04-14 13:00:00,METAR RKPK 141300Z 04006KT 9999 BKN050 OVC090 15/07 Q1013,0,6,0,10000.0,0,0,0,
2026-04-14 12:00:00,METAR RKPK 141200Z 04008KT 9999 BKN050 OVC090 16/07 Q1013,0,8,0,10000.0,0,0,0,
2026-04-14 11:00:00,METAR RKPK 141100Z 03007KT CAVOK 16/06 Q1012,1,0,0,9999.0,0,0,0,
2026-04-14 10:00:00,METAR RKPK 141000Z 04008KT CAVOK 17/06 Q1012,1,0,0,9999.0,0,0,0,
2026-04-14 09:00:00,METAR RKPK 140900Z 05008KT CAVOK 17/06 Q1012,1,0,0,9999.0,0,0,0,
2026-04-14 08:00:00,METAR RKPK 140800Z 05011KT CAVOK 18/07 Q1012,1,0,0,9999.0,0,0,0,
2026-04-14 07:00:00,METAR RKPK 140700Z 05011KT CAVOK 18/08 Q1012,1,0,0,9999.0,0,0,0,
2026-04-14 06:00:00,METAR RKPK 140600Z 05008KT CAVOK 18/09 Q1012,1,0,0,9999.0,0,0,0,
2026-04-14 05:00:00,METAR RKPK 140500Z 04010KT CAVOK 18/08 Q1013,1,0,0,9999.0,0,0,0,
2026-04-14 04:39:00,SPECI RKPK 140439Z 04010KT CAVOK 18/08 Q1013 RMK CIG070,1,0,0,9999.0,0,0,0,
2026-04-14 04:21:00,SPECI RKPK 140421Z 04011KT 9999 -RA NSC 18/08 Q1013 RMK CIG070,0,11,0,10000.0,0,0,0,-RA
2026-04-14 04:00:00,METAR RKPK 140400Z 04011KT CAVOK 19/09 Q1013,1,0,0,9999.0,0,0,0,
2026-04-14 03:00:00,METAR RKPK 140300Z 06008KT CAVOK 19/07 Q1014,1,0,0,9999.0,0,0,0,
2026-04-14 02:48:00,SPECI RKPK 140248Z 06008KT CAVOK 19/07 Q1014 RMK CIG070,1,0,0,9999.0,0,0,0,
2026-04-14 02:19:00,SPECI RKPK 140219Z 05008KT 9999 -RA NSC 18/05 Q1014 RMK CIG070,0,8,0,10000.0,0,0,0,-RA
2026-04-14 02:00:00,METAR RKPK 140200Z 04009KT CAVOK 19/06 Q1014,1,0,0,9999.0,0,0,0,
2026-04-14 01:00:00,METAR RKPK 140100Z 05009KT CAVOK 18/05 Q1014,1,0,0,9999.0,0,0,0,
2026-04-14 00:00:00,METAR RKPK 140000Z 03007KT CAVOK 17/06 Q1014,1,0,0,9999.0,0,0,0,
2026-04-13 23:00:00,METAR RKPK 132300Z 03006KT CAVOK 16/07 Q1014,1,0,0,9999.0,0,0,0,
2026-04-13 22:00:00,METAR RKPK 132200Z 05006KT CAVOK 15/07 Q1014,1,0,0,9999.0,0,0,0,
2026-04-13 21:00:00,METAR RKPK 132100Z 06006KT CAVOK 15/07 Q1014,1,0,0,9999.0,0,0,0,
2026-04-13 20:00:00,METAR RKPK 132000Z 05006KT CAVOK 16/06 Q1014,1,0,0,9999.0,0,0,0,
2026-04-13 19:00:00,METAR RKPK 131900Z 06007KT CAVOK 16/06 Q1014,1,0,0,9999.0,0,0,0,
2026-04-13 18:00:00,METAR RKPK 131800Z 04007KT CAVOK 16/06 Q1014,1,0,0,9999.0,0,0,0,
2026-04-13 17:00:00,METAR RKPK 131700Z 03008KT CAVOK 16/06 Q1015,1,0,0,9999.0,0,0,0,
2026-04-13 16:00:00,METAR RKPK 131600Z 03008KT CAVOK 16/06 Q1015,1,0,0,9999.0,0,0,0,
2026-04-13 15:00:00,METAR RKPK 131500Z 06005KT CAVOK 16/06 Q1016,1,0,0,9999.0,0,0,0,
2026-04-13 14:00:00,METAR RKPK 131400Z 03007KT CAVOK 17/06 Q1015,1,0,0,9999.0,0,0,0,
2026-04-13 13:00:00,METAR RKPK 131300Z 06008KT CAVOK 17/06 Q1016,1,0,0,9999.0,0,0,0,
2026-04-13 12:00:00,METAR RKPK 131200Z 06008KT CAVOK 18/07 Q1015,1,0,0,9999.0,0,0,0,
2026-04-13 11:00:00,METAR RKPK 131100Z 06007KT CAVOK 19/07 Q1015,1,0,0,9999.0,0,0,0,
2026-04-13 10:00:00,METAR RKPK 131000Z 11007KT CAVOK 20/04 Q1014,1,0,0,9999.0,0,0,0,
2026-04-13 09:00:00,METAR RKPK 130900Z 08011KT CAVOK 21/02 Q1014,1,0,0,9999.0,0,0,0,
2026-04-13 08:00:00,METAR RKPK 130800Z 11011KT CAVOK 22/03 Q1013,1,0,0,9999.0,0,0,0,
2026-04-13 07:00:00,METAR RKPK 130700Z 10011KT CAVOK 24/02 Q1013,1,0,0,9999.0,0,0,0,
2026-04-13 06:00:00,METAR RKPK 130600Z 10011KT CAVOK 25/M01 Q1013,1,0,0,9999.0,0,0,0,
2026-04-13 05:00:00,METAR RKPK 130500Z 10012KT CAVOK 26/01 Q1013,1,0,0,9999.0,0,0,0,
2026-04-13 04:16:00,SPECI RKPK 130416Z 10012KT CAVOK 26/M01 Q1013 RMK CIG180,1,0,0,9999.0,0,0,0,
2026-04-13 04:00:00,METAR RKPK 130400Z 08012KT CAVOK 26/M03 Q1014,1,0,0,9999.0,0,0,0,
2026-04-13 03:00:00,METAR RKPK 130300Z 08011KT CAVOK 26/00 Q1014,1,0,0,9999.0,0,0,0,
2026-04-13 02:00:00,METAR RKPK 130200Z 06011KT CAVOK 24/M02 Q1015,1,0,0,9999.0,0,0,0,
2026-04-13 01:00:00,METAR RKPK 130100Z 34004KT CAVOK 20/03 Q1015,1,0,0,9999.0,0,0,0,
2026-04-12 23:00:00,METAR RKPK 122300Z 33005KT CAVOK 16/05 Q1015,1,0,0,9999.0,0,0,0,
2026-04-12 22:00:00,METAR RKPK 122200Z 33002KT CAVOK 15/03 Q1015,1,0,0,9999.0,0,0,0,
2026-04-12 21:00:00,METAR RKPK 122100Z 31002KT CAVOK 15/02 Q1015,1,0,0,9999.0,0,0,0,
2026-04-12 20:00:00,METAR RKPK 122000Z 04003KT CAVOK 14/04 Q1014,1,0,0,9999.0,0,0,0,
2026-04-12 19:00:00,METAR RKPK 121900Z 02005KT CAVOK 13/05 Q1015,1,0,0,9999.0,0,0,0,
2026-04-12 18:00:00,METAR RKPK 121800Z 04002KT CAVOK 14/05 Q1015,1,0,0,9999.0,0,0,0,
2026-04-12 17:00:00,METAR RKPK 121700Z 31002KT CAVOK 14/05 Q1016,1,0,0,9999.0,0,0,0,
2026-04-12 16:00:00,METAR RKPK 121600Z 36003KT CAVOK 14/07 Q1016,1,0,0,9999.0,0,0,0,
2026-04-12 15:00:00,METAR RKPK 121500Z 32001KT CAVOK 14/11 Q1016,1,0,0,9999.0,0,0,0,
2026-04-12 14:00:00,METAR RKPK 121400Z 16001KT CAVOK 15/10 Q1016,1,0,0,9999.0,0,0,0,
2026-04-12 13:00:00,METAR RKPK 121300Z 18001KT CAVOK 15/10 Q1016,1,0,0,9999.0,0,0,0,
2026-04-12 12:00:00,METAR RKPK 121200Z 21006KT CAVOK 15/10 Q1016,1,0,0,9999.0,0,0,0,
2026-04-12 11:00:00,METAR RKPK 121100Z 21004KT CAVOK 16/04 Q1015,1,0,0,9999.0,0,0,0,
2026-04-12 10:00:00,METAR RKPK 121000Z 20003KT CAVOK 18/00 Q1015,1,0,0,9999.0,0,0,0,
2026-04-12 09:00:00,METAR RKPK 120900Z 16005KT CAVOK 18/M01 Q1015,1,0,0,9999.0,0,0,0,
2026-04-12 08:00:00,METAR RKPK 120800Z 13005KT CAVOK 20/M04 Q1014,1,0,0,9999.0,0,0,0,
2026-04-12 07:00:00,METAR RKPK 120700Z 14006KT CAVOK 20/M03 Q1014,1,0,0,9999.0,0,0,0,
2026-04-12 06:00:00,METAR RKPK 120600Z 17006KT CAVOK 20/M03 Q1015,1,0,0,9999.0,0,0,0,
2026-04-12 05:00:00,METAR RKPK 120500Z 14009KT CAVOK 20/M03 Q1015,1,0,0,9999.0,0,0,0,
2026-04-12 04:00:00,METAR RKPK 120400Z 15005KT CAVOK 20/M01 Q1015,1,0,0,9999.0,0,0,0,
2026-04-12 03:00:00,METAR RKPK 120300Z 15006KT CAVOK 21/01 Q1016,1,0,0,9999.0,0,0,0,
2026-04-12 02:00:00,METAR RKPK 120200Z 14004KT CAVOK 20/M01 Q1017,1,0,0,9999.0,0,0,0,
2026-04-12 01:00:00,METAR RKPK 120100Z 04007KT CAVOK 19/01 Q1016,1,0,0,9999.0,0,0,0,
2026-04-12 00:00:00,METAR RKPK 120000Z 05005KT CAVOK 18/01 Q1017,1,0,0,9999.0,0,0,0,
2026-04-11 23:00:00,METAR RKPK 112300Z 03005KT CAVOK 16/02 Q1016,1,0,0,9999.0,0,0,0,
2026-04-11 22:00:00,METAR RKPK 112200Z 02004KT CAVOK 13/04 Q1016,1,0,0,9999.0,0,0,0,
2026-04-11 21:00:00,METAR RKPK 112100Z 04006KT CAVOK 12/03 Q1016,1,0,0,9999.0,0,0,0,
2026-04-11 20:00:00,METAR RKPK 112000Z 04006KT CAVOK 14/04 Q1015,1,0,0,9999.0,0,0,0,
2026-04-11 19:00:00,METAR RKPK 111900Z 08005KT CAVOK 14/05 Q1015,1,0,0,9999.0,0,0,0,
2026-04-11 18:00:00,METAR RKPK 111800Z 04001KT CAVOK 15/06 Q1014,1,0,0,9999.0,0,0,0,
2026-04-11 17:00:00,METAR RKPK 111700Z 04003KT CAVOK 15/06 Q1014,1,0,0,9999.0,0,0,0,
2026-04-11 16:00:00,METAR RKPK 111600Z 04004KT CAVOK 15/07 Q1014,1,0,0,9999.0,0,0,0,
2026-04-11 15:00:00,METAR RKPK 111500Z 32004KT CAVOK 17/05 Q1014,1,0,0,9999.0,0,0,0,
2026-04-11 14:00:00,METAR RKPK 111400Z 30003KT CAVOK 16/08 Q1013,1,0,0,9999.0,0,0,0,
2026-04-11 13:00:00,METAR RKPK 111300Z 20003KT CAVOK 16/09 Q1013,1,0,0,9999.0,0,0,0,
2026-04-11 12:00:00,METAR RKPK 111200Z 23004KT CAVOK 18/08 Q1012,1,0,0,9999.0,0,0,0,
2026-04-11 11:00:00,METAR RKPK 111100Z 20006KT CAVOK 19/08 Q1011,1,0,0,9999.0,0,0,0,
2026-04-11 10:00:00,METAR RKPK 111000Z 21008KT CAVOK 20/07 Q1010,1,0,0,9999.0,0,0,0,
2026-04-11 09:14:00,SPECI RKPK 110914Z 25008KT CAVOK 20/07 Q1009 RMK CIG250,1,0,0,9999.0,0,0,0,
2026-04-11 09:00:00,METAR RKPK 110900Z 25011KT CAVOK 21/07 Q1009,1,0,0,9999.0,0,0,0,
2026-04-11 08:00:00,METAR RKPK 110800Z 23013KT CAVOK 22/06 Q1009,1,0,0,9999.0,0,0,0,
2026-04-11 07:00:00,METAR RKPK 110700Z 24011KT CAVOK 23/06 Q1009,1,0,0,9999.0,0,0,0,
2026-04-11 06:00:00,METAR RKPK 110600Z 21014KT CAVOK 21/09 Q1009,1,0,0,9999.0,0,0,0,
2026-04-11 05:00:00,METAR RKPK 110500Z 20014KT CAVOK 21/08 Q1010,1,0,0,9999.0,0,0,0,
2026-04-11 04:00:00,METAR RKPK 110400Z 19014KT CAVOK 20/08 Q1010,1,0,0,9999.0,0,0,0,
2026-04-11 03:00:00,METAR RKPK 110300Z 20013KT CAVOK 19/07 Q1011,1,0,0,9999.0,0,0,0,
2026-04-11 02:47:00,SPECI RKPK 110247Z 20012KT CAVOK 19/07 Q1011,1,0,0,9999.0,0,0,0,
2026-04-11 02:00:00,METAR RKPK 110200Z 20004KT CAVOK 18/06 Q1012,1,0,0,9999.0,0,0,0,
2026-04-11 01:00:00,METAR RKPK 110100Z 23003KT CAVOK 16/06 Q1013,1,0,0,9999.0,0,0,0,
2026-04-11 00:00:00,METAR RKPK 110000Z 33005KT CAVOK 15/06 Q1013,1,0,0,9999.0,0,0,0,
2026-04-10 23:00:00,METAR RKPK 102300Z 35001KT CAVOK 13/06 Q1012,1,0,0,9999.0,0,0,0,
2026-04-10 22:00:00,METAR RKPK 102200Z 31003KT CAVOK 11/06 Q1012,1,0,0,9999.0,0,0,0,
2026-04-10 21:00:00,METAR RKPK 102100Z 22002KT CAVOK 08/05 Q1011,1,0,0,9999.0,0,0,0,
2026-04-10 20:00:00,METAR RKPK 102000Z 31002KT CAVOK 10/05 Q1010,1,0,0,9999.0,0,0,0,
2026-04-10 19:00:00,METAR RKPK 101900Z 05002KT CAVOK 10/06 Q1010,1,0,0,9999.0,0,0,0,
2026-04-10 18:00:00,METAR RKPK 101800Z 33003KT CAVOK 11/05 Q1009,1,0,0,9999.0,0,0,0,
2026-04-10 17:00:00,METAR RKPK 101700Z 28002KT 9999 FEW030 12/05 Q1008,0,2,0,10000.0,0,0,0,
2026-04-10 16:00:00,METAR RKPK 101600Z 34006KT 9999 FEW030 13/05 Q1008,0,6,0,10000.0,0,0,0,
2026-04-10 15:00:00,METAR RKPK 101500Z 32006KT 9999 FEW030 13/05 Q1007,0,6,0,10000.0,0,0,0,
2026-04-10 14:00:00,METAR RKPK 101400Z 33007KT 9999 FEW030 14/05 Q1007,0,7,0,10000.0,0,0,0,
2026-04-10 13:00:00,METAR RKPK 101300Z 32012KT 9999 FEW030 15/06 Q1006,0,12,0,10000.0,0,0,0,
2026-04-10 12:00:00,METAR RKPK 101200Z 31013KT 9999 FEW030 16/06 Q1005,0,13,0,10000.0,0,0,0,
2026-04-10 11:00:00,METAR RKPK 101100Z 27007KT 9999 FEW030 16/10 Q1004,0,7,0,10000.0,0,0,0,
2026-04-10 10:00:00,METAR RKPK 101000Z 27008KT 9999 FEW030 18/10 Q1002,0,8,0,10000.0,0,0,0,
2026-04-10 09:00:00,METAR RKPK 100900Z 27009KT 9999 FEW030 20/10 Q1001,0,9,0,10000.0,0,0,0,
2026-04-10 08:00:00,METAR RKPK 100800Z 27011KT 9999 FEW030 22/11 Q1001,0,11,0,10000.0,0,0,0,
2026-04-10 07:00:00,METAR RKPK 100700Z 27011KT 9999 FEW030 SCT200 22/11 Q1000,0,11,0,10000.0,0,0,0,
2026-04-10 06:00:00,METAR RKPK 100600Z 27011KT 9999 FEW030 SCT200 23/12 Q1000,0,11,0,10000.0,0,0,0,
2026-04-10 05:00:00,METAR RKPK 100500Z 30011KT 9999 FEW030 SCT200 23/14 Q1000,0,11,0,10000.0,0,0,0,
2026-04-10 04:00:00,METAR RKPK 100400Z 28007KT 9999 SCT030 BKN200 20/12 Q1001,0,7,0,10000.0,0,0,0,
2026-04-10 03:00:00,METAR RKPK 100300Z 25009KT 9999 SCT030 BKN200 21/13 Q1001,0,9,0,10000.0,0,0,0,
2026-04-10 02:27:00,SPECI RKPK 100227Z 23009KT 9999 SCT030 BKN200 20/12 Q1001 RMK CIG200,0,9,0,10000.0,0,0,0,
2026-04-10 02:00:00,METAR RKPK 100200Z 24010KT 9999 SCT030 BKN200 19/13 Q1000,0,10,0,10000.0,0,0,0,
2026-04-10 01:00:00,METAR RKPK 100100Z 23008KT 9999 SCT030 BKN200 19/13 Q1000,0,8,0,10000.0,0,0,0,
2026-04-10 00:00:00,METAR RKPK 100000Z 23016KT 9999 BKN030 BKN200 18/14 Q0999,0,16,0,10000.0,0,0,0,
2026-04-09 23:31:00,SPECI RKPK 092331Z 23013KT 9999 FEW010 SCT020 OVC200 18/14 Q0999 RMK CIG200,0,13,0,10000.0,0,0,0,
2026-04-09 23:00:00,METAR RKPK 092300Z 22006KT 9999 SCT010 BKN020 OVC180 18/15 Q0999,0,6,0,10000.0,0,0,0,
2026-04-09 22:00:00,METAR RKPK 092200Z 24009KT 9000 SCT010 OVC020 17/15 Q0999,0,9,0,9000.0,0,0,0,
2026-04-09 21:31:00,SPECI RKPK 092131Z 24008KT 8000 SCT010 OVC020 17/15 Q0999 RMK CIG020,0,8,0,8000.0,0,0,0,
2026-04-09 21:00:00,METAR RKPK 092100Z 25007KT 6000 BKN010 OVC020 17/15 Q0998,0,7,0,6000.0,0,0,0,
2026-04-09 20:41:00,SPECI RKPK 092041Z 25008KT 6000 BKN010 OVC020 18/15 Q0999 RMK CIG010,0,8,0,6000.0,0,0,0,
2026-04-09 20:18:00,SPECI RKPK 092018Z COR 25008KT 6000 -RA BKN010 OVC020 18/15 Q0999 RMK CIG010,0,8,0,6000.0,0,0,0,-RA
2026-04-09 20:00:00,METAR RKPK 092000Z 13002KT 6000 BKN010 OVC020 17/15 Q0998,0,2,0,6000.0,0,0,0,
2026-04-09 19:00:00,METAR RKPK 091900Z 25009KT 6000 BKN010 OVC020 18/15 Q0999,0,9,0,6000.0,0,0,0,
2026-04-09 18:00:00,METAR RKPK 091800Z 24008KT 6000 BKN010 OVC020 18/15 Q1000,0,8,0,6000.0,0,0,0,
2026-04-09 17:00:00,METAR RKPK 091700Z 25006KT 6000 BKN010 OVC020 18/15 Q1000,0,6,0,6000.0,0,0,0,
2026-04-09 16:00:00,METAR RKPK 091600Z COR 31005KT 4800 -RA BR FEW005 BKN010 OVC020 17/15 Q1001,0,5,0,4800.0,0,0,1,"-RA,BR"
2026-04-09 15:00:00,METAR RKPK 091500Z COR 21005KT 4800 -RA BR FEW005 BKN010 OVC020 17/15 Q1001,0,5,0,4800.0,0,0,1,"-RA,BR"
2026-04-09 14:00:00,METAR RKPK 091400Z 25005KT 4800 -RA BR FEW005 BKN010 OVC020 18/15 Q1001,0,5,0,4800.0,0,0,1,"-RA,BR"
2026-04-09 13:00:00,METAR RKPK 091300Z 18005KT 4800 -RA BR FEW005 BKN010 OVC020 17/16 Q1001,0,5,0,4800.0,0,0,1,"-RA,BR"
2026-04-09 12:07:00,SPECI RKPK 091207Z 20004KT 4800 -RA BR SCT005 BKN010 OVC020 17/15 Q1001 RMK CIG010,0,4,0,4800.0,0,0,1,"-RA,BR"
2026-04-09 12:00:00,METAR RKPK 091200Z 21008KT 4800 -RA BR SCT005 BKN010 OVC020 17/15 Q1001,0,8,0,4800.0,0,0,1,"-RA,BR"
2026-04-09 11:16:00,SPECI RKPK 091116Z 19013KT 4800 -RA BR SCT005 BKN010 OVC020 16/15 Q1001 RMK CIG010,0,13,0,4800.0,0,0,1,"-RA,BR"
2026-04-09 11:00:00,METAR RKPK 091100Z 16007KT 3200 RA BR SCT006 BKN010 OVC020 16/14 Q1001,0,7,0,3200.0,0,0,1,"BR,RA"
2026-04-09 10:00:00,METAR RKPK 091000Z 12006KT 3200 RA BR SCT006 BKN010 OVC020 14/12 Q1002,0,6,0,3200.0,0,0,1,"BR,RA"
2026-04-09 09:14:00,SPECI RKPK 090914Z 12005KT 3200 RA BR SCT006 BKN010 OVC020 14/12 Q1003 RMK CIG010 8/7// 9/8//,0,5,0,3200.0,0,0,1,"BR,RA"
2026-04-09 09:00:00,METAR RKPK 090900Z COR 15009KT 3200 RA BR SCT006 BKN010 OVC020 14/12 Q1003,0,9,0,3200.0,0,0,1,"BR,RA"
2026-04-09 08:00:00,METAR RKPK 090800Z 16009KT 4000 -RA BR SCT006 BKN010 OVC020 15/12 Q1004,0,9,0,4000.0,0,0,1,"-RA,BR"
2026-04-09 07:00:00,METAR RKPK 090700Z 16012KT 4000 RA BR SCT006 BKN010 OVC020 15/12 Q1006,0,12,0,4000.0,0,0,1,"BR,RA"
2026-04-09 06:00:00,METAR RKPK 090600Z 19013G23KT 4000 -RA BR SCT006 BKN010 OVC020 15/13 Q1007,0,13,1,4000.0,0,0,1,"-RA,BR"
2026-04-09 05:00:00,METAR RKPK 090500Z 19017G27KT 4000 -RA BR SCT006 BKN010 OVC020 15/13 Q1009,0,17,1,4000.0,0,0,1,"-RA,BR"
2026-04-09 04:13:00,SPECI RKPK 090413Z 18010KT 4000 -RA BR SCT008 BKN010 OVC020 14/12 Q1011 RMK CIG010,0,10,0,4000.0,0,0,1,"-RA,BR"
2026-04-09 04:00:00,METAR RKPK 090400Z 18010KT 4800 -RA BR SCT008 BKN013 OVC020 14/12 Q1011,0,10,0,4800.0,0,0,1,"-RA,BR"
2026-04-09 03:00:00,METAR RKPK 090300Z 18011KT 8000 -RA SCT008 BKN013 OVC020 14/11 Q1012,0,11,0,8000.0,0,0,0,-RA
2026-04-09 02:00:00,METAR RKPK 090200Z 18012KT 9000 -RA SCT010 BKN013 OVC020 15/11 Q1013,0,12,0,9000.0,0,0,0,-RA
2026-04-09 01:00:00,METAR RKPK 090100Z 18011KT 8000 -RA SCT010 BKN013 OVC020 15/11 Q1013,0,11,0,8000.0,0,0,0,-RA
2026-04-09 00:23:00,SPECI RKPK 090023Z 17011KT 9000 -RA SCT010 BKN014 OVC020 15/12 Q1013 RMK CIG014,0,11,0,9000.0,0,0,0,-RA
2026-04-09 00:00:00,METAR RKPK 090000Z 16006KT 9000 -RA SCT010 BKN014 OVC020 13/10 Q1014,0,6,0,9000.0,0,0,0,-RA
2026-04-08 23:00:00,METAR RKPK 082300Z 31003KT 9000 -RA SCT010 BKN014 BKN020 12/09 Q1015,0,3,0,9000.0,0,0,0,-RA
2026-04-08 22:31:00,SPECI RKPK 082231Z 30002KT 9999 SCT010 BKN014 BKN020 12/08 Q1015 RMK CIG014,0,2,0,10000.0,0,0,0,
2026-04-08 22:16:00,SPECI RKPK 082216Z 15002KT 8000 -RA SCT010 BKN014 OVC020 12/08 Q1014 RMK CIG014,0,2,0,8000.0,0,0,0,-RA
2026-04-08 22:00:00,METAR RKPK 082200Z 14002KT 6000 -RA SCT014 OVC025 12/08 Q1015,0,2,0,6000.0,0,0,0,-RA
2026-04-08 21:35:00,SPECI RKPK 082135Z 13003KT 9000 -RA SCT018 OVC025 12/08 Q1015 RMK CIG025,0,3,0,9000.0,0,0,0,-RA
2026-04-08 21:20:00,SPECI RKPK 082120Z 25001KT 9000 -RA BKN025 OVC100 12/07 Q1015 RMK CIG025,0,1,0,9000.0,0,0,0,-RA
2026-04-08 21:00:00,METAR RKPK 082100Z 17001KT 9999 -RA BKN030 OVC100 11/07 Q1015,0,1,0,10000.0,0,0,0,-RA
2026-04-08 20:21:00,SPECI RKPK 082021Z 12001KT 9999 -RA BKN030 OVC100 12/05 Q1015 RMK CIG030,0,1,0,10000.0,0,0,0,-RA
2026-04-08 20:00:00,METAR RKPK 082000Z 06002KT 9999 BKN030 BKN130 11/05 Q1015,0,2,0,10000.0,0,0,0,
2026-04-08 19:00:00,METAR RKPK 081900Z 01004KT 9999 SCT030 BKN150 10/05 Q1015,0,4,0,10000.0,0,0,0,
2026-04-08 18:00:00,METAR RKPK 081800Z 19001KT CAVOK 11/05 Q1016,1,0,0,9999.0,0,0,0,
2026-04-08 17:00:00,METAR RKPK 081700Z 18003KT CAVOK 11/05 Q1017,1,0,0,9999.0,0,0,0,
2026-04-08 16:00:00,METAR RKPK 081600Z 26004KT CAVOK 11/05 Q1018,1,0,0,9999.0,0,0,0,
2026-04-08 15:00:00,METAR RKPK 081500Z 21003KT CAVOK 10/04 Q1018,1,0,0,9999.0,0,0,0,
2026-04-08 14:00:00,METAR RKPK 081400Z 21004KT CAVOK 11/03 Q1018,1,0,0,9999.0,0,0,0,
2026-04-08 13:00:00,METAR RKPK 081300Z 23005KT CAVOK 11/02 Q1018,1,0,0,9999.0,0,0,0,
2026-04-08 12:00:00,METAR RKPK 081200Z 22005KT CAVOK 12/00 Q1018,1,0,0,9999.0,0,0,0,
2026-04-08 11:00:00,METAR RKPK 081100Z 20008KT CAVOK 13/M01 Q1018,1,0,0,9999.0,0,0,0,
2026-04-08 10:00:00,METAR RKPK 081000Z 21011KT CAVOK 14/01 Q1017,1,0,0,9999.0,0,0,0,
2026-04-08 09:00:00,METAR RKPK 080900Z 20014KT CAVOK 15/03 Q1018,1,0,0,9999.0,0,0,0,
2026-04-08 08:00:00,METAR RKPK 080800Z 20015KT CAVOK 16/02 Q1018,1,0,0,9999.0,0,0,0,
2026-04-08 07:00:00,METAR RKPK 080700Z 20015KT CAVOK 17/01 Q1017,1,0,0,9999.0,0,0,0,
2026-04-08 06:00:00,METAR RKPK 080600Z 19013KT CAVOK 17/03 Q1018 RMK SLP187,1,0,0,9999.0,0,0,0,
2026-04-08 05:00:00,METAR RKPK 080500Z 18015KT CAVOK 17/02 Q1019,1,0,0,9999.0,0,0,0,
2026-04-08 04:00:00,METAR RKPK 080400Z 19012KT CAVOK 17/00 Q1020,1,0,0,9999.0,0,0,0,
2026-04-08 03:00:00,METAR RKPK 080300Z 20011KT CAVOK 16/02 Q1020,1,0,0,9999.0,0,0,0,
2026-04-08 02:34:00,SPECI RKPK 080234Z 21010KT CAVOK 17/02 Q1021,1,0,0,9999.0,0,0,0,
2026-04-08 02:00:00,METAR RKPK 080200Z 21004KT CAVOK 16/01 Q1021,1,0,0,9999.0,0,0,0,
2026-04-08 01:00:00,METAR RKPK 080100Z 31003KT CAVOK 13/M02 Q1022,1,0,0,9999.0,0,0,0,
2026-04-08 00:00:00,METAR RKPK 080000Z 04003KT CAVOK 10/00 Q1022,1,0,0,9999.0,0,0,0,
2026-04-07 23:00:00,METAR RKPK 072300Z 01002KT CAVOK 08/M01 Q1021,1,0,0,9999.0,0,0,0,
2026-04-07 22:00:00,METAR RKPK 072200Z 05004KT CAVOK 05/M01 Q1021,1,0,0,9999.0,0,0,0,
2026-04-07 21:00:00,METAR RKPK 072100Z 06004KT CAVOK 04/M01 Q1020,1,0,0,9999.0,0,0,0,
2026-04-07 20:00:00,METAR RKPK 072000Z 06004KT CAVOK 05/M02 Q1020,1,0,0,9999.0,0,0,0,
2026-04-07 19:00:00,METAR RKPK 071900Z 02003KT CAVOK 04/M02 Q1019,1,0,0,9999.0,0,0,0,
2026-04-07 18:00:00,METAR RKPK 071800Z 06003KT CAVOK 07/M02 Q1019,1,0,0,9999.0,0,0,0,
2026-04-07 17:00:00,METAR RKPK 071700Z 01004KT CAVOK 07/M02 Q1019,1,0,0,9999.0,0,0,0,
2026-04-07 16:00:00,METAR RKPK 071600Z 05005KT CAVOK 06/M01 Q1019,1,0,0,9999.0,0,0,0,
2026-04-07 15:00:00,METAR RKPK 071500Z 02004KT CAVOK 08/00 Q1019,1,0,0,9999.0,0,0,0,
2026-04-07 14:00:00,METAR RKPK 071400Z 36003KT CAVOK 07/00 Q1018,1,0,0,9999.0,0,0,0,
2026-04-07 13:00:00,METAR RKPK 071300Z 23004KT CAVOK 11/M01 Q1018,1,0,0,9999.0,0,0,0,
2026-04-07 12:00:00,METAR RKPK 071200Z 27004KT CAVOK 10/00 Q1017,1,0,0,9999.0,0,0,0,
2026-04-07 11:00:00,METAR RKPK 071100Z 22005KT CAVOK 12/00 Q1016,1,0,0,9999.0,0,0,0,
2026-04-07 10:00:00,METAR RKPK 071000Z 30004KT CAVOK 13/M05 Q1015,1,0,0,9999.0,0,0,0,
2026-04-07 09:00:00,METAR RKPK 070900Z 30006KT CAVOK 15/M06 Q1015,1,0,0,9999.0,0,0,0,
2026-04-07 08:00:00,METAR RKPK 070800Z 32008KT CAVOK 16/M07 Q1014,1,0,0,9999.0,0,0,0,
2026-04-07 07:00:00,METAR RKPK 070700Z 35009KT CAVOK 16/M09 Q1014,1,0,0,9999.0,0,0,0,
2026-04-07 06:00:00,METAR RKPK 070600Z 35008G18KT CAVOK 16/M09 Q1014,1,0,0,9999.0,0,0,0,
2026-04-07 05:00:00,METAR RKPK 070500Z 35016KT CAVOK 16/M06 Q1015,1,0,0,9999.0,0,0,0,
2026-04-07 04:00:00,METAR RKPK 070400Z 33011G21KT CAVOK 14/M09 Q1015,1,0,0,9999.0,0,0,0,
2026-04-07 03:00:00,METAR RKPK 070300Z 35014G24KT CAVOK 14/M08 Q1016,1,0,0,9999.0,0,0,0,
2026-04-07 02:00:00,METAR RKPK 070200Z 34011KT CAVOK 11/M10 Q1016,1,0,0,9999.0,0,0,0,
2026-04-07 01:00:00,METAR RKPK 070100Z 33010KT CAVOK 10/M10 Q1016,1,0,0,9999.0,0,0,0,
2026-04-07 00:00:00,METAR RKPK 070000Z 32011KT CAVOK 10/M10 Q1016,1,0,0,9999.0,0,0,0,
2026-04-06 23:00:00,METAR RKPK 062300Z 33009KT CAVOK 09/M10 Q1016,1,0,0,9999.0,0,0,0,
2026-04-06 22:00:00,METAR RKPK 062200Z 34005KT CAVOK 08/M09 Q1014,1,0,0,9999.0,0,0,0,
2026-04-06 21:00:00,METAR RKPK 062100Z 33008KT CAVOK 08/M12 Q1013,1,0,0,9999.0,0,0,0,
2026-04-06 20:00:00,METAR RKPK 062000Z 35004KT CAVOK 06/M06 Q1012,1,0,0,9999.0,0,0,0,
2026-04-06 19:00:00,METAR RKPK 061900Z 34007KT CAVOK 09/M09 Q1012,1,0,0,9999.0,0,0,0,
2026-04-06 18:00:00,METAR RKPK 061800Z 33008KT CAVOK 09/M03 Q1011,1,0,0,9999.0,0,0,0,
2026-04-06 17:00:00,METAR RKPK 061700Z 35008KT CAVOK 11/M02 Q1011,1,0,0,9999.0,0,0,0,
2026-04-06 16:00:00,METAR RKPK 061600Z 34015KT CAVOK 12/01 Q1011,1,0,0,9999.0,0,0,0,
2026-04-06 15:00:00,METAR RKPK 061500Z 33010KT CAVOK 12/06 Q1010,1,0,0,9999.0,0,0,0,
2026-04-06 14:00:00,METAR RKPK 061400Z 33011KT 9999 FEW040 SCT250 12/07 Q1009,0,11,0,10000.0,0,0,0,
2026-04-06 13:00:00,METAR RKPK 061300Z 32011KT 9999 SCT025 BKN040 13/09 Q1009,0,11,0,10000.0,0,0,0,
2026-04-06 12:00:00,METAR RKPK 061200Z 33011KT 9999 SCT020 BKN040 13/11 Q1008,0,11,0,10000.0,0,0,0,
2026-04-06 11:00:00,METAR RKPK 061100Z 26008KT 9999 SCT018 BKN040 17/14 Q1007,0,8,0,10000.0,0,0,0,
2026-04-06 10:36:00,SPECI RKPK 061036Z 22009KT 9999 -RA FEW020 BKN040 18/14 Q1007 RMK CIG040,0,9,0,10000.0,0,0,0,-RA
2026-04-06 10:00:00,METAR RKPK 061000Z 23010KT 9999 FEW020 BKN040 18/14 Q1007,0,10,0,10000.0,0,0,0,
2026-04-06 09:22:00,SPECI RKPK 060922Z 23009G20KT 9999 SCT020 BKN050 18/14 Q1007 RMK CIG050,0,9,1,10000.0,0,0,0,
2026-04-06 09:00:00,METAR RKPK 060900Z 22013G23KT 9999 SCT020 BKN050 18/14 Q1007,0,13,1,10000.0,0,0,0,
2026-04-06 08:40:00,SPECI RKPK 060840Z 22010KT 9999 SCT020 BKN050 18/15 Q1007 RMK CIG050,0,10,0,10000.0,0,0,0,
2026-04-06 08:00:00,METAR RKPK 060800Z 23015G25KT 9999 -RA SCT020 BKN050 18/15 Q1006,0,15,1,10000.0,0,0,0,-RA
2026-04-06 07:34:00,SPECI RKPK 060734Z 21006KT 9999 FEW015 BKN025 BKN200 18/15 Q1007 RMK CIG025,0,6,0,10000.0,0,0,0,
2026-04-06 07:26:00,SPECI RKPK 060726Z 19006KT 9999 -RA FEW015 BKN025 BKN200 18/15 Q1007 RMK CIG025,0,6,0,10000.0,0,0,0,-RA
2026-04-06 07:00:00,METAR RKPK 060700Z 20010KT 9999 FEW015 BKN025 BKN200 18/15 Q1007,0,10,0,10000.0,0,0,0,
2026-04-06 06:00:00,METAR RKPK 060600Z 19012KT 9999 FEW015 SCT030 BKN100 19/15 Q1007,0,12,0,10000.0,0,0,0,
2026-04-06 05:44:00,SPECI RKPK 060544Z 19013KT 9999 FEW015 BKN025 BKN100 19/15 Q1007 RMK CIG025,0,13,0,10000.0,0,0,0,
2026-04-06 05:00:00,METAR RKPK 060500Z 20011KT 9999 -RA SCT015 BKN025 BKN050 18/14 Q1009,0,11,0,10000.0,0,0,0,-RA
2026-04-06 04:19:00,SPECI RKPK 060419Z 18012KT 9999 -RA FEW015 BKN025 BKN050 18/15 Q1009 RMK CIG025,0,12,0,10000.0,0,0,0,-RA
2026-04-06 04:00:00,METAR RKPK 060400Z 18009KT 9999 SCT015 BKN025 BKN050 18/14 Q1009,0,9,0,10000.0,0,0,0,
2026-04-06 03:56:00,SPECI RKPK 060356Z 18009KT 9999 SCT015 BKN025 BKN050 17/14 Q1009 RMK CIG025,0,9,0,10000.0,0,0,0,
2026-04-06 03:17:00,SPECI RKPK 060317Z 21007KT 9999 SCT015 OVC025 16/13 Q1010 RMK CIG025 SLP108,0,7,0,10000.0,0,0,0,
2026-04-06 03:07:00,SPECI RKPK 060307Z 20005KT 9999 -RA SCT015 OVC025 16/13 Q1011 RMK CIG025,0,5,0,10000.0,0,0,0,-RA
2026-04-06 03:00:00,METAR RKPK 060300Z COR 20005KT 9999 SCT015 OVC025 16/12 Q1011,0,5,0,10000.0,0,0,0,
2026-04-06 02:00:00,METAR RKPK 060200Z 19007KT 9999 BKN025 BKN200 16/12 Q1010,0,7,0,10000.0,0,0,0,
2026-04-06 01:00:00,METAR RKPK 060100Z 17003KT 9999 BKN025 BKN230 16/11 Q1011,0,3,0,10000.0,0,0,0,
2026-04-06 00:27:00,SPECI RKPK 060027Z 27001KT 9999 BKN025 BKN230 15/11 Q1012 RMK CIG025,0,1,0,10000.0,0,0,0,
2026-04-06 00:14:00,SPECI RKPK 060014Z 29001KT 9999 BKN030 BKN250 15/11 Q1012 RMK CIG030,0,1,0,10000.0,0,0,0,
2026-04-06 00:00:00,METAR RKPK 060000Z 29001KT 9999 FEW030 BKN230 15/11 Q1012,0,1,0,10000.0,0,0,0,
2026-04-05 23:00:00,METAR RKPK 052300Z 19004KT 9999 FEW020 FEW140 BKN250 14/10 Q1011,0,4,0,10000.0,0,0,0,
2026-04-05 22:00:00,METAR RKPK 052200Z 18003KT 9000 FEW035 SCT140 BKN250 12/09 Q1011,0,3,0,9000.0,0,0,0,
2026-04-05 21:00:00,METAR RKPK 052100Z 16002KT 9999 FEW030 SCT150 BKN230 11/08 Q1011,0,2,0,10000.0,0,0,0,
2026-04-05 20:00:00,METAR RKPK 052000Z 17004KT 9999 FEW030 BKN250 10/07 Q1011,0,4,0,10000.0,0,0,0,
2026-04-05 19:00:00,METAR RKPK 051900Z 18005KT 9999 FEW030 SCT200 11/07 Q1011,0,5,0,10000.0,0,0,0,
2026-04-05 18:00:00,METAR RKPK 051800Z 18006KT CAVOK 10/07 Q1011,1,0,0,9999.0,0,0,0,
2026-04-05 17:00:00,METAR RKPK 051700Z 18004KT CAVOK 09/06 Q1012,1,0,0,9999.0,0,0,0,
2026-04-05 16:00:00,METAR RKPK 051600Z 20008KT 9999 FEW050 10/06 Q1012,0,8,0,10000.0,0,0,0,
2026-04-05 15:00:00,METAR RKPK 051500Z 22005KT CAVOK 11/06 Q1011,1,0,0,9999.0,0,0,0,
2026-04-05 13:00:00,METAR RKPK 051300Z 20006KT CAVOK 10/06 Q1010,1,0,0,9999.0,0,0,0,
2026-04-05 12:00:00,METAR RKPK 051200Z 19005KT CAVOK 12/05 Q1010,1,0,0,9999.0,0,0,0,
2026-04-05 11:00:00,METAR RKPK 051100Z 17005KT CAVOK 12/06 Q1009,1,0,0,9999.0,0,0,0,
2026-04-05 10:34:00,SPECI RKPK 051034Z 19003KT CAVOK 12/07 Q1009,1,0,0,9999.0,0,0,0,
2026-04-05 10:00:00,METAR RKPK 051000Z 20013KT CAVOK 12/08 Q1009,1,0,0,9999.0,0,0,0,
2026-04-05 09:00:00,METAR RKPK 050900Z 19010KT CAVOK 14/09 Q1008,1,0,0,9999.0,0,0,0,
2026-04-05 08:00:00,METAR RKPK 050800Z 18013KT CAVOK 15/09 Q1008,1,0,0,9999.0,0,0,0,
2026-04-05 07:00:00,METAR RKPK 050700Z 19010KT CAVOK 15/08 Q1008,1,0,0,9999.0,0,0,0,
2026-04-05 06:00:00,METAR RKPK 050600Z 20014KT CAVOK 15/09 Q1008,1,0,0,9999.0,0,0,0,
2026-04-05 05:00:00,METAR RKPK 050500Z 19013KT CAVOK 14/09 Q1008,1,0,0,9999.0,0,0,0,
2026-04-05 04:00:00,METAR RKPK 050400Z 20013KT CAVOK 15/09 Q1009,1,0,0,9999.0,0,0,0,
2026-04-05 03:00:00,METAR RKPK 050300Z 21008KT 9999 FEW030 SCT250 16/10 Q1009,0,8,0,10000.0,0,0,0,
2026-04-05 02:00:00,METAR RKPK 050200Z 34002KT 9999 FEW030 SCT250 15/07 Q1009,0,2,0,10000.0,0,0,0,
2026-04-05 01:00:00,METAR RKPK 050100Z 36002KT 9999 FEW020 FEW030 SCT250 14/09 Q1009,0,2,0,10000.0,0,0,0,
2026-04-05 00:00:00,METAR RKPK 050000Z 31004KT 9999 FEW015 FEW030 SCT250 12/08 Q1009,0,4,0,10000.0,0,0,0,
2026-04-04 23:00:00,METAR RKPK 042300Z 02003KT CAVOK 10/08 Q1009,1,0,0,9999.0,0,0,0,
2026-04-04 22:00:00,METAR RKPK 042200Z 33004KT CAVOK 09/06 Q1008,1,0,0,9999.0,0,0,0,
2026-04-04 21:00:00,METAR RKPK 042100Z 27002KT CAVOK 08/06 Q1008,1,0,0,9999.0,0,0,0,
2026-04-04 20:00:00,METAR RKPK 042000Z 31004KT 9999 FEW050 09/06 Q1007,0,4,0,10000.0,0,0,0,
2026-04-04 19:00:00,METAR RKPK 041900Z 23002KT 9999 FEW050 10/07 Q1007,0,2,0,10000.0,0,0,0,
2026-04-04 18:00:00,METAR RKPK 041800Z 27003KT 9999 FEW050 10/06 Q1007,0,3,0,10000.0,0,0,0,
2026-04-04 17:00:00,METAR RKPK 041700Z 31004KT 9999 FEW050 11/08 Q1006,0,4,0,10000.0,0,0,0,
2026-04-04 16:00:00,METAR RKPK 041600Z 34003KT 9999 FEW050 11/08 Q1006,0,3,0,10000.0,0,0,0,
2026-04-04 15:00:00,METAR RKPK 041500Z 33006KT 9999 FEW050 13/09 Q1006,0,6,0,10000.0,0,0,0,
2026-04-04 14:00:00,METAR RKPK 041400Z 30002KT 9999 FEW050 12/11 Q1005,0,2,0,10000.0,0,0,0,
2026-04-04 13:00:00,METAR RKPK 041300Z 29002KT 9999 FEW050 13/12 Q1005,0,2,0,10000.0,0,0,0,
2026-04-04 12:00:00,METAR RKPK 041200Z 20004KT 9999 SCT050 14/12 Q1004,0,4,0,10000.0,0,0,0,
2026-04-04 11:00:00,METAR RKPK 041100Z 20007KT 9999 FEW030 SCT050 15/12 Q1003,0,7,0,10000.0,0,0,0,
2026-04-04 10:00:00,METAR RKPK 041000Z 29002KT 9999 FEW030 BKN050 17/11 Q1001,0,2,0,10000.0,0,0,0,
2026-04-04 09:00:00,METAR RKPK 040900Z 28007KT 9999 SCT030 BKN050 18/11 Q1000,0,7,0,10000.0,0,0,0,
2026-04-04 08:00:00,METAR RKPK 040800Z 32006KT 9999 BKN030 18/11 Q0999,0,6,0,10000.0,0,0,0,
2026-04-04 07:00:00,METAR RKPK 040700Z 32009KT 9999 BKN025 17/12 Q0998,0,9,0,10000.0,0,0,0,
2026-04-04 06:00:00,METAR RKPK 040600Z 31006KT 9999 BKN020 BKN030 16/12 Q0997,0,6,0,10000.0,0,0,0,
2026-04-04 05:00:00,METAR RKPK 040500Z 31010KT 9999 FEW010 BKN015 BKN030 15/12 Q0996,0,10,0,10000.0,0,0,0,
2026-04-04 04:00:00,METAR RKPK 040400Z 31010KT 9999 FEW010 BKN015 BKN025 14/12 Q0995,0,10,0,10000.0,0,0,0,
2026-04-04 03:02:00,SPECI RKPK 040302Z 30010KT 9999 FEW008 BKN015 OVC025 14/13 Q0995 RMK CIG015,0,10,0,10000.0,0,0,0,
2026-04-04 03:00:00,METAR RKPK 040300Z 30010KT 8000 RA SCT008 BKN014 OVC020 14/13 Q0995,0,10,0,8000.0,0,0,0,RA
2026-04-04 02:11:00,SPECI RKPK 040211Z 24010KT 6000 RA SCT007 BKN013 OVC020 15/14 Q0995 RMK CIG013,0,10,0,6000.0,0,0,0,RA
2026-04-04 02:00:00,METAR RKPK 040200Z 23010KT 6000 RA SCT006 BKN012 OVC020 15/14 Q0995,0,10,0,6000.0,0,0,0,RA
2026-04-04 01:00:00,METAR RKPK 040100Z 20013KT 4800 RA SCT006 BKN012 OVC020 15/14 Q0994,0,13,0,4800.0,0,0,0,RA
2026-04-04 00:15:00,SPECI RKPK 040015Z 16012KT 4800 RA FEW007 BKN013 OVC025 15/14 Q0994 RMK CIG013,0,12,0,4800.0,0,0,0,RA
2026-04-04 00:00:00,METAR RKPK 040000Z COR 15007KT 3200 RA SCT008 BKN015 OVC025 14/13 Q0995,0,7,0,3200.0,0,0,0,RA
2026-04-03 23:42:00,SPECI RKPK 032342Z 15008KT 4000 RA SCT008 BKN015 OVC025 14/13 Q0995 RMK CIG015,0,8,0,4000.0,0,0,0,RA
2026-04-03 23:12:00,SPECI RKPK 032312Z 13008KT 3200 RA SCT009 BKN015 OVC025 14/13 Q0996 RMK CIG015,0,8,0,3200.0,0,0,0,RA
2026-04-03 23:00:00,METAR RKPK 032300Z 12012KT 3200 RA BR BKN015 BKN030 OVC050 14/13 Q0996,0,12,0,3200.0,0,0,1,"BR,RA"
2026-04-03 22:00:00,METAR RKPK 032200Z 12012KT 3200 RA BR BKN015 BKN030 OVC050 14/12 Q0998,0,12,0,3200.0,0,0,1,"BR,RA"
2026-04-03 21:00:00,METAR RKPK 032100Z 12012KT 6000 RA BKN015 BKN030 OVC050 13/11 Q1000,0,12,0,6000.0,0,0,0,RA
2026-04-03 20:19:00,SPECI RKPK 032019Z 12010KT 6000 RA BKN015 BKN030 OVC050 13/11 Q1001 RMK CIG015,0,10,0,6000.0,0,0,0,RA
2026-04-03 20:00:00,METAR RKPK 032000Z 12012KT 6000 RA SCT015 BKN030 OVC050 13/11 Q1002,0,12,0,6000.0,0,0,0,RA
2026-04-03 19:00:00,METAR RKPK 031900Z 12012KT 6000 -RA FEW015 BKN030 OVC050 13/11 Q1004,0,12,0,6000.0,0,0,0,-RA
2026-04-03 18:00:00,METAR RKPK 031800Z 14011KT 6000 -RA FEW015 BKN030 OVC050 13/11 Q1006,0,11,0,6000.0,0,0,0,-RA
2026-04-03 17:00:00,METAR RKPK 031700Z 07006KT 6000 -RA FEW015 BKN030 OVC050 12/11 Q1008,0,6,0,6000.0,0,0,0,-RA
2026-04-03 16:00:00,METAR RKPK 031600Z 04005KT 6000 -RA SCT020 BKN040 OVC080 12/11 Q1009,0,5,0,6000.0,0,0,0,-RA
2026-04-03 15:00:00,METAR RKPK 031500Z 11002KT 6000 -RA FEW030 SCT050 OVC080 13/11 Q1011,0,2,0,6000.0,0,0,0,-RA
2026-04-03 14:00:00,METAR RKPK 031400Z 20003KT 6000 -RA FEW030 SCT050 OVC080 14/12 Q1012,0,3,0,6000.0,0,0,0,-RA
2026-04-03 13:32:00,SPECI RKPK 031332Z 20003KT 6000 -RA FEW050 OVC100 14/12 Q1012 RMK CIG100,0,3,0,6000.0,0,0,0,-RA
2026-04-03 13:00:00,METAR RKPK 031300Z 20003KT 6000 NSC 14/11 Q1012,0,3,0,6000.0,0,0,0,
2026-04-03 12:00:00,METAR RKPK 031200Z 19006KT 8000 NSC 14/11 Q1012,0,6,0,8000.0,0,0,0,
2026-04-03 11:00:00,METAR RKPK 031100Z 21003KT 8000 NSC 15/09 Q1012,0,3,0,8000.0,0,0,0,
2026-04-03 10:00:00,METAR RKPK 031000Z 19006KT 6000 NSC 14/11 Q1013,0,6,0,6000.0,0,0,0,
2026-04-03 09:35:00,SPECI RKPK 030935Z 19006KT 6000 NSC 14/11 Q1013 RMK CIG140,0,6,0,6000.0,0,0,0,
2026-04-03 09:00:00,METAR RKPK 030900Z 18009KT 6000 NSC 15/11 Q1014,0,9,0,6000.0,0,0,0,
2026-04-03 08:00:00,METAR RKPK 030800Z 20014KT 8000 NSC 15/10 Q1013,0,14,0,8000.0,0,0,0,
2026-04-03 07:27:00,SPECI RKPK 030727Z 20014KT 6000 NSC 16/08 Q1014 RMK CIG180,0,14,0,6000.0,0,0,0,
2026-04-03 07:00:00,METAR RKPK 030700Z 21013KT CAVOK 17/05 Q1013,1,0,0,9999.0,0,0,0,
2026-04-03 06:00:00,METAR RKPK 030600Z 21013KT CAVOK 18/05 Q1014,1,0,0,9999.0,0,0,0,
2026-04-03 05:00:00,METAR RKPK 030500Z 21012KT CAVOK 18/04 Q1014,1,0,0,9999.0,0,0,0,
2026-04-03 04:06:00,SPECI RKPK 030406Z 21010KT CAVOK 20/03 Q1015 RMK CIG200,1,0,0,9999.0,0,0,0,
2026-04-03 04:00:00,METAR RKPK 030400Z 21010KT CAVOK 20/04 Q1015,1,0,0,9999.0,0,0,0,
2026-04-03 03:00:00,METAR RKPK 030300Z 21005KT CAVOK 19/01 Q1016,1,0,0,9999.0,0,0,0,
2026-04-03 02:00:00,METAR RKPK 030200Z 22004KT CAVOK 18/M01 Q1017,1,0,0,9999.0,0,0,0,
2026-04-03 01:00:00,METAR RKPK 030100Z 01002KT CAVOK 16/00 Q1017,1,0,0,9999.0,0,0,0,
2026-04-03 00:00:00,METAR RKPK 030000Z 02002KT CAVOK 13/01 Q1017,1,0,0,9999.0,0,0,0,
2026-04-02 23:00:00,METAR RKPK 022300Z 33002KT CAVOK 12/01 Q1017,1,0,0,9999.0,0,0,0,
2026-04-02 22:00:00,METAR RKPK 022200Z 29001KT CAVOK 09/00 Q1017,1,0,0,9999.0,0,0,0,
2026-04-02 21:00:00,METAR RKPK 022100Z 36002KT CAVOK 08/00 Q1017,1,0,0,9999.0,0,0,0,
2026-04-02 20:00:00,METAR RKPK 022000Z 09002KT CAVOK 08/01 Q1017,1,0,0,9999.0,0,0,0,
2026-04-02 19:00:00,METAR RKPK 021900Z 32004KT CAVOK 11/M02 Q1017,1,0,0,9999.0,0,0,0,
2026-04-02 18:00:00,METAR RKPK 021800Z 33001KT CAVOK 08/02 Q1017,1,0,0,9999.0,0,0,0,
2026-04-02 17:00:00,METAR RKPK 021700Z 35003KT CAVOK 09/01 Q1017,1,0,0,9999.0,0,0,0,
2026-04-02 16:00:00,METAR RKPK 021600Z 09002KT CAVOK 11/02 Q1017,1,0,0,9999.0,0,0,0,
2026-04-02 15:00:00,METAR RKPK 021500Z 03004KT CAVOK 08/04 Q1016,1,0,0,9999.0,0,0,0,
2026-04-02 14:00:00,METAR RKPK 021400Z 10001KT CAVOK 11/06 Q1016,1,0,0,9999.0,0,0,0,
2026-04-02 13:00:00,METAR RKPK 021300Z 21003KT CAVOK 10/05 Q1016,1,0,0,9999.0,0,0,0,
2026-04-02 12:00:00,METAR RKPK 021200Z 18005KT CAVOK 11/06 Q1016,1,0,0,9999.0,0,0,0,
2026-04-02 11:00:00,METAR RKPK 021100Z 21003KT CAVOK 13/06 Q1015,1,0,0,9999.0,0,0,0,
2026-04-02 10:50:00,SPECI RKPK 021050Z 22005KT CAVOK 13/06 Q1015,1,0,0,9999.0,0,0,0,
2026-04-02 10:00:00,METAR RKPK 021000Z 19010KT CAVOK 14/08 Q1014,1,0,0,9999.0,0,0,0,
2026-04-02 09:00:00,METAR RKPK 020900Z 18013KT CAVOK 16/08 Q1013,1,0,0,9999.0,0,0,0,
2026-04-02 08:00:00,METAR RKPK 020800Z 18012KT CAVOK 17/06 Q1012,1,0,0,9999.0,0,0,0,
2026-04-02 07:13:00,SPECI RKPK 020713Z 19010KT CAVOK 18/07 Q1012,1,0,0,9999.0,0,0,0,
2026-04-02 07:00:00,METAR RKPK 020700Z 32004KT CAVOK 20/01 Q1012,1,0,0,9999.0,0,0,0,
2026-04-02 06:00:00,METAR RKPK 020600Z 31011KT CAVOK 20/M01 Q1013,1,0,0,9999.0,0,0,0,
2026-04-02 05:00:00,METAR RKPK 020500Z 31007KT CAVOK 20/01 Q1013,1,0,0,9999.0,0,0,0,
2026-04-02 04:00:00,METAR RKPK 020400Z COR 35007KT CAVOK 18/01 Q1014,1,0,0,9999.0,0,0,0,
2026-04-02 03:00:00,METAR RKPK 020300Z 32012KT CAVOK 17/01 Q1015,1,0,0,9999.0,0,0,0,
2026-04-02 02:00:00,METAR RKPK 020200Z 33009KT CAVOK 16/01 Q1015,1,0,0,9999.0,0,0,0,
2026-04-02 01:00:00,METAR RKPK 020100Z 33010KT CAVOK 15/01 Q1015,1,0,0,9999.0,0,0,0,
2026-04-02 00:00:00,METAR RKPK 020000Z 32008KT CAVOK 12/04 Q1015,1,0,0,9999.0,0,0,0,
2026-04-01 23:00:00,METAR RKPK 012300Z COR 31005KT CAVOK 11/06 Q1015,1,0,0,9999.0,0,0,0,
2026-04-01 22:00:00,METAR RKPK 012200Z 31005KT CAVOK 09/06 Q1014,1,0,0,9999.0,0,0,0,
2026-04-01 21:00:00,METAR RKPK 012100Z 36001KT 9000 NSC 08/06 Q1013,0,1,0,9000.0,0,0,0,
2026-04-01 20:00:00,METAR RKPK 012000Z 01003KT 6000 NSC 08/07 Q1012,0,3,0,6000.0,0,0,0,
2026-04-01 19:00:00,METAR RKPK 011900Z 01002KT 6000 NSC 09/09 Q1012,0,2,0,6000.0,0,0,0,
2026-04-01 18:00:00,METAR RKPK 011800Z 36001KT 4800 BR FEW030 SCT100 11/10 Q1012,0,1,0,4800.0,0,0,1,BR
2026-04-01 17:00:00,METAR RKPK 011700Z 32002KT 4800 BR FEW030 BKN100 11/10 Q1013,0,2,0,4800.0,0,0,1,BR
2026-04-01 16:00:00,METAR RKPK 011600Z 34001KT 4800 BR FEW030 BKN100 11/10 Q1013,0,1,0,4800.0,0,0,1,BR
2026-04-01 15:00:00,METAR RKPK 011500Z 05001KT 8000 SCT030 BKN080 11/10 Q1013,0,1,0,8000.0,0,0,0,
2026-04-01 14:00:00,METAR RKPK 011400Z 23002KT 9999 SCT025 BKN065 12/10 Q1013,0,2,0,10000.0,0,0,0,
2026-04-01 13:15:00,SPECI RKPK 011315Z 33001KT 9000 BKN025 BKN060 12/10 Q1013 RMK CIG025,0,1,0,9000.0,0,0,0,
2026-04-01 13:00:00,METAR RKPK 011300Z 26002KT 8000 -RA BKN025 OVC060 12/10 Q1013,0,2,0,8000.0,0,0,0,-RA
2026-04-01 12:01:00,SPECI RKPK 011201Z 20004KT 9999 -RA BKN030 OVC060 13/09 Q1013 RMK CIG030,0,4,0,10000.0,0,0,0,-RA
2026-04-01 12:00:00,METAR RKPK 011200Z 20003KT 9999 BKN030 BKN060 13/09 Q1012,0,3,0,10000.0,0,0,0,
2026-04-01 11:00:00,METAR RKPK 011100Z 20004KT 9999 SCT030 BKN130 13/09 Q1012,0,4,0,10000.0,0,0,0,
2026-04-01 10:00:00,METAR RKPK 011000Z 19004KT 9999 SCT040 BKN130 13/09 Q1011,0,4,0,10000.0,0,0,0,
2026-04-01 09:00:00,METAR RKPK 010900Z 20005KT 9999 SCT040 BKN130 13/09 Q1011,0,5,0,10000.0,0,0,0,
2026-04-01 08:00:00,METAR RKPK 010800Z 20008KT 9999 SCT040 BKN150 14/09 Q1011,0,8,0,10000.0,0,0,0,
2026-04-01 07:00:00,METAR RKPK 010700Z 20003KT 9999 SCT050 BKN150 14/08 Q1011,0,3,0,10000.0,0,0,0,
2026-04-01 06:00:00,METAR RKPK 010600Z 09003KT 9999 SCT050 BKN150 15/09 Q1012,0,3,0,10000.0,0,0,0,
2026-04-01 05:00:00,METAR RKPK 010500Z 06004KT 9999 BKN050 BKN150 14/08 Q1012,0,4,0,10000.0,0,0,0,
2026-04-01 04:00:00,METAR RKPK 010400Z 09002KT 9999 BKN040 BKN150 14/08 Q1014,0,2,0,10000.0,0,0,0,
2026-04-01 03:00:00,METAR RKPK 010300Z 11005KT 9999 FEW025 BKN030 BKN150 14/08 Q1014,0,5,0,10000.0,0,0,0,
2026-04-01 02:00:00,METAR RKPK 010200Z 08005KT 9999 FEW025 BKN030 BKN150 14/08 Q1014,0,5,0,10000.0,0,0,0,
2026-04-01 01:00:00,METAR RKPK 010100Z 04005KT 9999 BKN030 BKN150 13/08 Q1014,0,5,0,10000.0,0,0,0,
2026-04-01 00:00:00,METAR RKPK 010000Z 04006KT 9000 SCT030 BKN150 BKN200 13/08 Q1014,0,6,0,9000.0,0,0,0,
2026-03-31 23:00:00,METAR RKPK 312300Z 04006KT 9000 BKN050 BKN150 12/07 Q1014,0,6,0,9000.0,0,0,0,
2026-03-31 22:36:00,SPECI RKPK 312236Z 03005KT 9000 FEW025 BKN050 BKN150 11/07 Q1014 RMK CIG050,0,5,0,9000.0,0,0,0,
2026-03-31 22:33:00,SPECI RKPK 312233Z 03005KT 9000 -RA FEW030 BKN050 BKN150 11/07 Q1014 RMK CIG050,0,5,0,9000.0,0,0,0,-RA
2026-03-31 22:00:00,METAR RKPK 312200Z 03003KT 9999 FEW030 BKN050 BKN150 11/07 Q1015,0,3,0,9999.0,0,0,0,
2026-03-31 21:00:00,METAR RKPK 312100Z 36003KT 9999 FEW020 BKN050 BKN150 10/08 Q1014,0,3,0,9999.0,0,0,0,
2026-03-31 20:00:00,METAR RKPK 312000Z 03005KT 9999 FEW020 BKN050 BKN200 11/07 Q1014,0,5,0,9999.0,0,0,0,
2026-03-31 19:00:00,METAR RKPK 311900Z 07004KT 9999 BKN050 BKN200 11/07 Q1014,0,4,0,9999.0,0,0,0,
2026-03-31 18:00:00,METAR RKPK 311800Z 04006KT 9999 BKN050 BKN200 11/07 Q1014,0,6,0,9999.0,0,0,0,
2026-03-31 17:00:00,METAR RKPK 311700Z 13002KT CAVOK 11/06 Q1015,1,0,0,9999.0,0,0,0,
2026-03-31 16:00:00,METAR RKPK 311600Z 04004KT CAVOK 11/07 Q1015,1,0,0,9999.0,0,0,0,
2026-03-31 15:00:00,METAR RKPK 311500Z 04003KT CAVOK 11/07 Q1014,1,0,0,9999.0,0,0,0,
2026-03-31 14:00:00,METAR RKPK 311400Z 05005KT CAVOK 12/07 Q1014,1,0,0,9999.0,0,0,0,
2026-03-31 13:00:00,METAR RKPK 311300Z 06007KT CAVOK 12/07 Q1014,1,0,0,9999.0,0,0,0,
2026-03-31 12:00:00,METAR RKPK 311200Z 05008KT CAVOK 12/07 Q1014,1,0,0,9999.0,0,0,0,
2026-03-31 11:00:00,METAR RKPK 311100Z 06009KT CAVOK 13/07 Q1014,1,0,0,9999.0,0,0,0,
2026-03-31 10:00:00,METAR RKPK 311000Z 05006KT 9999 BKN050 13/07 Q1014,0,6,0,9999.0,0,0,0,
2026-03-31 09:00:00,METAR RKPK 310900Z 02003KT 9999 BKN040 14/08 Q1013,0,3,0,9999.0,0,0,0,
2026-03-31 08:00:00,METAR RKPK 310800Z 05008KT 9999 BKN050 14/08 Q1012,0,8,0,9999.0,0,0,0,
2026-03-31 07:00:00,METAR RKPK 310700Z 04010KT 9999 BKN050 14/08 Q1011,0,10,0,9999.0,0,0,0,
2026-03-31 06:00:00,METAR RKPK 310600Z 04012KT 9999 BKN040 14/07 Q1011,0,12,0,9999.0,0,0,0,
2026-03-31 05:00:00,METAR RKPK 310500Z COR 04011KT 9999 BKN040 15/08 Q1011,0,11,0,9999.0,0,0,0,
2026-03-31 04:00:00,METAR RKPK 310400Z 03014KT 9999 BKN030 15/08 Q1010,0,14,0,9999.0,0,0,0,
2026-03-31 03:00:00,METAR RKPK 310300Z 35005KT 9999 BKN030 15/08 Q1009,0,5,0,9999.0,0,0,0,
2026-03-31 02:00:00,METAR RKPK 310200Z 33009KT 9999 FEW025 BKN030 14/09 Q1008,0,9,0,9999.0,0,0,0,
2026-03-31 01:00:00,METAR RKPK 310100Z 34008KT 9999 FEW020 SCT025 OVC030 14/11 Q1008,0,8,0,9999.0,0,0,0,
2026-03-31 00:00:00,METAR RKPK 310000Z 34008KT 9999 FEW020 SCT025 OVC030 12/10 Q1006,0,8,0,9999.0,0,0,0,
2026-03-30 23:35:00,SPECI RKPK 302335Z 33011KT 9999 FEW020 SCT025 OVC030 12/10 Q1006 RMK CIG030,0,11,0,10000.0,0,0,0,
2026-03-30 23:30:00,SPECI RKPK 302330Z 33011KT 9000 -RA FEW020 SCT025 OVC030 12/10 Q1006 RMK CIG030,0,11,0,9000.0,0,0,0,-RA
2026-03-30 23:00:00,METAR RKPK 302300Z 34008KT 9000 -RA BKN020 OVC030 12/10 Q1005,0,8,0,9000.0,0,0,0,-RA
2026-03-30 22:00:00,METAR RKPK 302200Z 33006KT 8000 -RA FEW015 BKN020 OVC030 11/10 Q1004,0,6,0,8000.0,0,0,0,-RA
2026-03-30 21:00:00,METAR RKPK 302100Z 34007KT 4800 -RA BR FEW010 SCT018 BKN020 OVC030 11/10 Q1003,0,7,0,4800.0,0,0,1,"-RA,BR"
2026-03-30 20:46:00,SPECI RKPK 302046Z 35007KT 4800 -RA BR FEW010 SCT018 BKN020 OVC030 11/10 Q1003 RMK CIG020,0,7,0,4800.0,0,0,1,"-RA,BR"
2026-03-30 20:34:00,SPECI RKPK 302034Z 32008KT 8000 -RA FEW010 SCT015 OVC030 11/11 Q1002 RMK CIG030,0,8,0,8000.0,0,0,0,-RA
2026-03-30 20:00:00,METAR RKPK 302000Z 03006KT 9000 -RA SCT015 OVC030 11/10 Q1001,0,6,0,9000.0,0,0,0,-RA
2026-03-30 19:00:00,METAR RKPK 301900Z 02008KT 9000 -RA SCT015 OVC030 11/10 Q1001,0,8,0,9000.0,0,0,0,-RA
2026-03-30 18:00:00,METAR RKPK 301800Z 04010KT 9000 -RA SCT015 OVC030 12/11 Q1002,0,10,0,9000.0,0,0,0,-RA
2026-03-30 17:00:00,METAR RKPK 301700Z COR 05012KT 6000 RA BKN015 OVC030 14/12 Q1002,0,12,0,6000.0,0,0,0,RA
2026-03-30 16:00:00,METAR RKPK 301600Z 06010KT 8000 -RA BKN015 OVC030 13/12 Q1003,0,10,0,8000.0,0,0,0,-RA
2026-03-30 15:00:00,METAR RKPK 301500Z 07007KT 8000 -RA BKN015 OVC030 12/11 Q1005,0,7,0,8000.0,0,0,0,-RA
2026-03-30 14:00:00,METAR RKPK 301400Z 06006KT 6000 -RA BKN015 OVC030 12/10 Q1006,0,6,0,6000.0,0,0,0,-RA
2026-03-30 13:00:00,METAR RKPK 301300Z 04009KT 6000 RA BKN025 OVC080 11/09 Q1008,0,9,0,6000.0,0,0,0,RA
2026-03-30 12:00:00,METAR RKPK 301200Z 05007KT 8000 RA BKN025 OVC080 12/08 Q1009,0,7,0,8000.0,0,0,0,RA
2026-03-30 11:47:00,SPECI RKPK 301147Z 06010KT 6000 RA BKN025 OVC080 12/08 Q1009 RMK CIG025,0,10,0,6000.0,0,0,0,RA
2026-03-30 11:00:00,METAR RKPK 301100Z 06011KT 9999 -RA BKN040 OVC080 13/09 Q1009,0,11,0,10000.0,0,0,0,-RA
2026-03-30 10:00:00,METAR RKPK 301000Z 06009KT 9000 -RA SCT050 OVC080 13/10 Q1010,0,9,0,9000.0,0,0,0,-RA
2026-03-30 09:00:00,METAR RKPK 300900Z COR 11006KT 9000 -RA FEW020 SCT050 OVC080 14/11 Q1011,0,6,0,9000.0,0,0,0,-RA
2026-03-30 08:00:00,METAR RKPK 300800Z 05005KT 9000 -RA BKN040 OVC080 16/10 Q1011,0,5,0,9000.0,0,0,0,-RA
2026-03-30 07:02:00,SPECI RKPK 300702Z 06006KT 9000 -RA SCT040 BKN080 OVC200 16/08 Q1011 RMK CIG080,0,6,0,9000.0,0,0,0,-RA
2026-03-30 07:00:00,METAR RKPK 300700Z 07005KT 9999 SCT040 BKN080 BKN200 16/08 Q1011,0,5,0,10000.0,0,0,0,
2026-03-30 06:19:00,SPECI RKPK 300619Z 06005KT 9999 SCT040 BKN090 BKN200 16/09 Q1012 RMK CIG7,0,5,0,10000.0,0,0,0,
2026-03-30 06:01:00,SPECI RKPK 300601Z 06006KT 9000 -RA SCT040 BKN090 OVC200 16/09 Q1012 RMK CIG090,0,6,0,9000.0,0,0,0,-RA
2026-03-30 06:00:00,METAR RKPK 300600Z 12007KT 9999 SCT040 BKN090 BKN200 16/09 Q1012,0,7,0,10000.0,0,0,0,
2026-03-30 05:30:00,SPECI RKPK 300530Z COR 12008KT 9000 -RA SCT040 BKN090 BKN200 18/07 Q1012 RMK CIG090,0,8,0,9000.0,0,0,0,-RA
2026-03-30 05:00:00,METAR RKPK 300500Z 21007KT 9999 SCT035 BKN090 BKN200 19/08 Q1013,0,7,0,10000.0,0,0,0,
2026-03-30 04:00:00,METAR RKPK 300400Z 17002KT CAVOK 19/05 Q1014,1,0,0,9999.0,0,0,0,
2026-03-30 03:00:00,METAR RKPK 300300Z 20004KT CAVOK 18/07 Q1015,1,0,0,9999.0,0,0,0,
2026-03-30 02:00:00,METAR RKPK 300200Z 19001KT 9000 NSC 18/07 Q1016,0,1,0,9000.0,0,0,0,
2026-03-30 01:00:00,METAR RKPK 300100Z 01001KT 8000 NSC 14/09 Q1017,0,1,0,8000.0,0,0,0,
2026-03-30 00:00:00,METAR RKPK 300000Z 03003KT 8000 NSC 12/09 Q1017,0,3,0,8000.0,0,0,0,
2026-03-29 23:00:00,METAR RKPK 292300Z 03003KT 6000 NSC 10/07 Q1017,0,3,0,6000.0,0,0,0,
2026-03-29 22:00:00,METAR RKPK 292200Z 34001KT 6000 NSC 09/06 Q1017,0,1,0,6000.0,0,0,0,
2026-03-29 21:00:00,METAR RKPK 292100Z 04003KT 6000 NSC 07/06 Q1016,0,3,0,6000.0,0,0,0,
2026-03-29 20:00:00,METAR RKPK 292000Z 03002KT 6000 NSC 07/06 Q1016,0,2,0,6000.0,0,0,0,
2026-03-29 19:00:00,METAR RKPK 291900Z 34002KT 6000 NSC 08/07 Q1017,0,2,0,6000.0,0,0,0,
2026-03-29 18:00:00,METAR RKPK 291800Z 01002KT 8000 NSC 08/06 Q1017,0,2,0,8000.0,0,0,0,
2026-03-29 17:00:00,METAR RKPK 291700Z 36002KT 8000 NSC 09/07 Q1017,0,2,0,8000.0,0,0,0,
2026-03-29 16:00:00,METAR RKPK 291600Z 35002KT 8000 NSC 08/07 Q1017,0,2,0,8000.0,0,0,0,
2026-03-29 15:00:00,METAR RKPK 291500Z 04002KT 8000 NSC 09/06 Q1017,0,2,0,8000.0,0,0,0,
2026-03-29 14:00:00,METAR RKPK 291400Z 33001KT 8000 NSC 10/08 Q1017,0,1,0,8000.0,0,0,0,
2026-03-29 13:00:00,METAR RKPK 291300Z 34002KT 8000 NSC 11/09 Q1017,0,2,0,8000.0,0,0,0,
2026-03-29 12:00:00,METAR RKPK 291200Z 23003KT 8000 NSC 12/09 Q1017,0,3,0,8000.0,0,0,0,
2026-03-29 11:00:00,METAR RKPK 291100Z 22002KT 9000 NSC 13/08 Q1017,0,2,0,9000.0,0,0,0,
2026-03-29 10:00:00,METAR RKPK 291000Z 25003KT 9000 NSC 13/07 Q1016,0,3,0,9000.0,0,0,0,
2026-03-29 09:00:00,METAR RKPK 290900Z 21008KT CAVOK 15/06 Q1016,1,0,0,9999.0,0,0,0,
2026-03-29 08:00:00,METAR RKPK 290800Z 21009KT CAVOK 16/05 Q1016,1,0,0,9999.0,0,0,0,
2026-03-29 07:00:00,METAR RKPK 290700Z 21008KT 9000 NSC 18/04 Q1015,0,8,0,9000.0,0,0,0,
2026-03-29 06:00:00,METAR RKPK 290600Z 20008KT 8000 NSC 17/08 Q1016,0,8,0,8000.0,0,0,0,
2026-03-29 05:00:00,METAR RKPK 290500Z 21010KT 8000 FEW040 SCT170 17/09 Q1016,0,10,0,8000.0,0,0,0,
2026-03-29 04:00:00,METAR RKPK 290400Z 21008KT 6000 FEW040 SCT170 17/08 Q1017,0,8,0,6000.0,0,0,0,
2026-03-29 03:00:00,METAR RKPK 290300Z 20006KT 6000 FEW040 SCT200 16/09 Q1017,0,6,0,6000.0,0,0,0,
2026-03-29 02:00:00,METAR RKPK 290200Z 30002KT 6000 NSC 15/08 Q1018,0,2,0,6000.0,0,0,0,
2026-03-29 01:00:00,METAR RKPK 290100Z 34002KT 6000 NSC 14/08 Q1018,0,2,0,6000.0,0,0,0,
2026-03-29 00:00:00,METAR RKPK 290000Z 02003KT 4800 BR NSC 11/08 Q1018,0,3,0,4800.0,0,0,1,BR
2026-03-28 23:00:00,METAR RKPK 282300Z 04003KT 4800 BR NSC 09/07 Q1018,0,3,0,4800.0,0,0,1,BR
2026-03-28 22:00:00,METAR RKPK 282200Z 01003KT 4800 BR NSC 08/06 Q1018,0,3,0,4800.0,0,0,1,BR
2026-03-28 21:00:00,METAR RKPK 282100Z 06005KT 6000 NSC 08/06 Q1017,0,5,0,6000.0,0,0,0,
2026-03-28 20:00:00,METAR RKPK 282000Z 06004KT 6000 NSC 08/06 Q1017,0,4,0,6000.0,0,0,0,
2026-03-28 19:00:00,METAR RKPK 281900Z 03003KT 6000 NSC 08/06 Q1017,0,3,0,6000.0,0,0,0,
2026-03-28 18:00:00,METAR RKPK 281800Z 01003KT 6000 NSC 07/05 Q1017,0,3,0,6000.0,0,0,0,
2026-03-28 17:00:00,METAR RKPK 281700Z 04004KT 9000 NSC 08/06 Q1017,0,4,0,9000.0,0,0,0,
2026-03-28 16:00:00,METAR RKPK 281600Z 04002KT 9000 NSC 08/06 Q1017,0,2,0,9000.0,0,0,0,
2026-03-28 15:00:00,METAR RKPK 281500Z 34002KT 9000 NSC 10/07 Q1018,0,2,0,9000.0,0,0,0,
2026-03-28 14:00:00,METAR RKPK 281400Z 25002KT 9000 NSC 10/07 Q1017,0,2,0,9000.0,0,0,0,
2026-03-28 13:00:00,METAR RKPK 281300Z 32002KT 9000 NSC 11/07 Q1017,0,2,0,9000.0,0,0,0,
2026-03-28 12:00:00,METAR RKPK 281200Z 13005KT 9000 NSC 12/07 Q1017,0,5,0,9000.0,0,0,0,
2026-03-28 11:00:00,METAR RKPK 281100Z 13007KT 9000 NSC 13/08 Q1016,0,7,0,9000.0,0,0,0,
2026-03-28 10:00:00,METAR RKPK 281000Z 14009KT 9000 NSC 13/08 Q1015,0,9,0,9000.0,0,0,0,
2026-03-28 09:00:00,METAR RKPK 280900Z 15011KT 9000 NSC 14/07 Q1015,0,11,0,9000.0,0,0,0,
2026-03-28 08:00:00,METAR RKPK 280800Z 15011KT 9000 NSC 16/07 Q1014,0,11,0,9000.0,0,0,0,
2026-03-28 07:00:00,METAR RKPK 280700Z 15011KT 9000 NSC 17/08 Q1014,0,11,0,9000.0,0,0,0,
2026-03-28 06:00:00,METAR RKPK 280600Z 13012KT 9000 NSC 17/08 Q1014,0,12,0,9000.0,0,0,0,
2026-03-28 05:00:00,METAR RKPK 280500Z 19007KT 9000 NSC 19/01 Q1014,0,7,0,9000.0,0,0,0,
2026-03-28 04:00:00,METAR RKPK 280400Z 16010KT 9000 NSC 19/03 Q1014,0,10,0,9000.0,0,0,0,
2026-03-28 03:00:00,METAR RKPK 280300Z 27003KT CAVOK 20/05 Q1014,1,0,0,9999.0,0,0,0,
2026-03-28 02:00:00,METAR RKPK 280200Z 31005KT CAVOK 19/M01 Q1015,1,0,0,9999.0,0,0,0,
2026-03-28 01:00:00,METAR RKPK 280100Z 33008KT 9000 NSC 18/00 Q1015,0,8,0,9000.0,0,0,0,
2026-03-28 00:00:00,METAR RKPK 280000Z 32008KT 9000 NSC 16/02 Q1015,0,8,0,9000.0,0,0,0,
2026-03-27 23:00:00,METAR RKPK 272300Z 30007KT 9000 NSC 14/03 Q1015,0,7,0,9000.0,0,0,0,
2026-03-27 22:00:00,METAR RKPK 272200Z 31002KT 8000 NSC 10/03 Q1014,0,2,0,8000.0,0,0,0,
2026-03-27 21:00:00,METAR RKPK 272100Z 01001KT 8000 NSC 07/04 Q1013,0,1,0,8000.0,0,0,0,
2026-03-27 20:00:00,METAR RKPK 272000Z 25002KT 9000 NSC 09/03 Q1013,0,2,0,9000.0,0,0,0,
2026-03-27 19:00:00,METAR RKPK 271900Z 22002KT 9000 NSC 08/03 Q1013,0,2,0,9000.0,0,0,0,
2026-03-27 18:00:00,METAR RKPK 271800Z 21002KT 9000 NSC 09/03 Q1012,0,2,0,9000.0,0,0,0,
2026-03-27 17:00:00,METAR RKPK 271700Z 03004KT 9000 NSC 10/04 Q1012,0,4,0,9000.0,0,0,0,
2026-03-27 16:00:00,METAR RKPK 271600Z 04002KT 9000 NSC 12/04 Q1012,0,2,0,9000.0,0,0,0,
2026-03-25 15:00:00,METAR RKPK 251500Z 33002KT CAVOK 07/05 Q1015,1,0,0,9999.0,0,0,0,
2026-03-25 14:00:00,METAR RKPK 251400Z 12003KT CAVOK 08/06 Q1015,1,0,0,9999.0,0,0,0,
2026-03-25 13:00:00,METAR RKPK 251300Z 23003KT CAVOK 09/07 Q1015,1,0,0,9999.0,0,0,0,
2026-03-25 12:00:00,METAR RKPK 251200Z 18003KT CAVOK 10/06 Q1014,1,0,0,9999.0,0,0,0,
2026-03-25 11:00:00,METAR RKPK 251100Z 16006KT CAVOK 11/07 Q1013,1,0,0,9999.0,0,0,0,
2026-03-25 10:00:00,METAR RKPK 251000Z 15004KT CAVOK 11/05 Q1013,1,0,0,9999.0,0,0,0,
2026-03-25 09:00:00,METAR RKPK 250900Z 10004KT CAVOK 14/04 Q1013,1,0,0,9999.0,0,0,0,
2026-03-25 08:00:00,METAR RKPK 250800Z 08005KT CAVOK 14/04 Q1012,1,0,0,9999.0,0,0,0,
2026-03-25 07:00:00,METAR RKPK 250700Z 07007KT 9999 FEW050 BKN080 14/05 Q1012,0,7,0,10000.0,0,0,0,
2026-03-25 06:41:00,SPECI RKPK 250641Z 07006KT 9999 FEW050 BKN080 13/04 Q1012 RMK CIG080,0,6,0,10000.0,0,0,0,
2026-03-25 06:14:00,SPECI RKPK 250614Z 07007KT 9000 FEW050 OVC080 14/04 Q1013 RMK CIG080,0,7,0,9000.0,0,0,0,
2026-03-25 06:00:00,METAR RKPK 250600Z 06008KT 8000 -RA BKN050 OVC080 13/04 Q1013,0,8,0,8000.0,0,0,0,-RA
2026-03-25 05:00:00,METAR RKPK 250500Z 25003KT 6000 -RA BKN050 OVC080 14/04 Q1013,0,3,0,6000.0,0,0,0,-RA
2026-03-25 04:00:00,METAR RKPK 250400Z 24002KT 6000 -RA BKN050 OVC080 14/04 Q1013,0,2,0,6000.0,0,0,0,-RA
2026-03-25 03:34:00,SPECI RKPK 250334Z 25001KT 4800 -RA HZ BKN050 OVC080 14/04 Q1013 RMK CIG050,0,1,0,4800.0,0,0,0,-RA
2026-03-25 03:00:00,METAR RKPK 250300Z 06002KT 6000 SCT050 OVC080 13/04 Q1014,0,2,0,6000.0,0,0,0,
2026-03-25 02:00:00,METAR RKPK 250200Z 06002KT 4800 HZ SCT050 OVC080 13/06 Q1014,0,2,0,4800.0,0,0,0,
2026-03-25 01:00:00,METAR RKPK 250100Z 06002KT 4800 BR BKN050 OVC080 12/06 Q1015,0,2,0,4800.0,0,0,1,BR
2026-03-25 00:00:00,METAR RKPK 250000Z 35002KT 4800 BR BKN050 OVC080 11/06 Q1015,0,2,0,4800.0,0,0,1,BR
2026-03-24 23:00:00,METAR RKPK 242300Z 32004KT 4800 BR BKN050 OVC080 09/06 Q1014,0,4,0,4800.0,0,0,1,BR
2026-03-24 22:00:00,METAR RKPK 242200Z 06004KT 4800 BR BKN050 OVC080 09/06 Q1014,0,4,0,4800.0,0,0,1,BR
2026-03-24 21:52:00,SPECI RKPK 242152Z 05004KT 4800 BR BKN050 OVC080 09/06 Q1014 RMK CIG050,0,4,0,4800.0,0,0,1,BR
2026-03-24 21:00:00,METAR RKPK 242100Z 34002KT 6000 -RA BKN050 OVC100 09/07 Q1014,0,2,0,6000.0,0,0,0,-RA
2026-03-24 20:00:00,METAR RKPK 242000Z 35002KT 9000 -RA NSC 10/05 Q1014,0,2,0,9000.0,0,0,0,-RA
2026-03-24 19:00:00,METAR RKPK 241900Z 05002KT 9000 NSC 10/04 Q1014,0,2,0,9000.0,0,0,0,
2026-03-24 18:00:00,METAR RKPK 241800Z 04003KT 9000 NSC 10/04 Q1015,0,3,0,9000.0,0,0,0,
2026-03-24 17:00:00,METAR RKPK 241700Z 01004KT 9000 NSC 10/04 Q1016,0,4,0,9000.0,0,0,0,
2026-03-24 16:00:00,METAR RKPK 241600Z 06003KT 9000 NSC 11/04 Q1016,0,3,0,9000.0,0,0,0,
2026-03-24 15:00:00,METAR RKPK 241500Z 06004KT CAVOK 11/04 Q1016,1,0,0,9999.0,0,0,0,
2026-03-24 14:00:00,METAR RKPK 241400Z 06004KT CAVOK 11/03 Q1016,1,0,0,9999.0,0,0,0,
2026-03-24 13:00:00,METAR RKPK 241300Z 04005KT CAVOK 12/03 Q1017,1,0,0,9999.0,0,0,0,
2026-03-24 12:00:00,METAR RKPK 241200Z 12005KT 9000 NSC 11/02 Q1017,0,5,0,9000.0,0,0,0,
2026-03-24 11:00:00,METAR RKPK 241100Z 11010KT 9000 NSC 12/03 Q1017,0,10,0,9000.0,0,0,0,
2026-03-24 10:00:00,METAR RKPK 241000Z 12010KT 9000 NSC 12/03 Q1017,0,10,0,9000.0,0,0,0,
2026-03-24 09:00:00,METAR RKPK 240900Z 14009KT 9000 NSC 13/03 Q1016,0,9,0,9000.0,0,0,0,
2026-03-24 08:00:00,METAR RKPK 240800Z 14011KT 9000 NSC 14/02 Q1016,0,11,0,9000.0,0,0,0,
2026-03-24 07:00:00,METAR RKPK 240700Z 12010KT 9000 NSC 15/02 Q1017,0,10,0,9000.0,0,0,0,
2026-03-24 06:00:00,METAR RKPK 240600Z 14009KT 9000 NSC 16/03 Q1017,0,9,0,9000.0,0,0,0,
2026-03-24 05:00:00,METAR RKPK 240500Z 14010KT 9000 NSC 16/02 Q1018,0,10,0,9000.0,0,0,0,
2026-03-24 04:00:00,METAR RKPK 240400Z 12008KT 8000 NSC 16/03 Q1018,0,8,0,8000.0,0,0,0,
2026-03-24 03:00:00,METAR RKPK 240300Z 10007KT 9000 NSC 15/03 Q1019,0,7,0,9000.0,0,0,0,
2026-03-24 02:00:00,METAR RKPK 240200Z 07006KT 6000 NSC 14/04 Q1020,0,6,0,6000.0,0,0,0,
2026-03-24 01:00:00,METAR RKPK 240100Z 06007KT 6000 NSC 13/05 Q1021,0,7,0,6000.0,0,0,0,
2026-03-24 00:00:00,METAR RKPK 240000Z 35003KT 4800 BR NSC 10/04 Q1022,0,3,0,4800.0,0,0,1,BR
2026-03-23 23:00:00,METAR RKPK 232300Z 30003KT 4800 BR FEW030 SCT200 07/04 Q1021,0,3,0,4800.0,0,0,1,BR
2026-03-23 22:00:00,METAR RKPK 232200Z 32002KT 4800 BR FEW030 SCT180 06/03 Q1021,0,2,0,4800.0,0,0,1,BR
2026-03-23 21:00:00,METAR RKPK 232100Z 36003KT 6000 FEW030 04/01 Q1021,0,3,0,6000.0,0,0,0,
2026-03-23 20:00:00,METAR RKPK 232000Z 35001KT 8000 NSC 04/02 Q1021,0,1,0,8000.0,0,0,0,
2026-03-23 19:00:00,METAR RKPK 231900Z 36003KT 8000 NSC 06/02 Q1021,0,3,0,8000.0,0,0,0,
2026-03-23 18:00:00,METAR RKPK 231800Z 01006KT 8000 NSC 06/03 Q1022,0,6,0,8000.0,0,0,0,
2026-03-23 17:00:00,METAR RKPK 231700Z 03005KT 8000 NSC 07/03 Q1022,0,5,0,8000.0,0,0,0,
2026-03-23 16:00:00,METAR RKPK 231600Z 03006KT 8000 NSC 08/03 Q1022,0,6,0,8000.0,0,0,0,
2026-03-23 15:00:00,METAR RKPK 231500Z 04006KT 9000 NSC 09/03 Q1022,0,6,0,9000.0,0,0,0,
2026-03-23 14:00:00,METAR RKPK 231400Z 06006KT 9000 NSC 09/03 Q1022,0,6,0,9000.0,0,0,0,
2026-03-23 13:00:00,METAR RKPK 231300Z 08008KT 9000 NSC 10/02 Q1022,0,8,0,9000.0,0,0,0,
2026-03-23 12:00:00,METAR RKPK 231200Z 08010KT 9000 NSC 11/01 Q1022,0,10,0,9000.0,0,0,0,
2026-03-23 11:00:00,METAR RKPK 231100Z COR 08010KT 9000 NSC 11/03 Q1020,0,10,0,9000.0,0,0,0,
2026-03-23 10:00:00,METAR RKPK 231000Z COR 10011KT CAVOK 12/02 Q1020,1,0,0,9999.0,0,0,0,
2026-03-23 09:00:00,METAR RKPK 230900Z 10012KT CAVOK 14/01 Q1019,1,0,0,9999.0,0,0,0,
2026-03-23 08:00:00,METAR RKPK 230800Z 10013KT CAVOK 15/02 Q1019,1,0,0,9999.0,0,0,0,
2026-03-23 07:00:00,METAR RKPK 230700Z 10013KT 9999 FEW050 SCT250 17/03 Q1018,0,13,0,10000.0,0,0,0,
2026-03-23 06:00:00,METAR RKPK 230600Z 15015KT 9999 FEW050 18/04 Q1018,0,15,0,10000.0,0,0,0,
2026-03-23 05:00:00,METAR RKPK 230500Z 11010KT 9999 FEW030 FEW250 19/03 Q1017,0,10,0,10000.0,0,0,0,
2026-03-23 04:00:00,METAR RKPK 230400Z 08006KT CAVOK 19/M04 Q1018,1,0,0,9999.0,0,0,0,
2026-03-23 03:00:00,METAR RKPK 230300Z 36004KT CAVOK 18/M06 Q1019,1,0,0,9999.0,0,0,0,
2026-03-23 02:00:00,METAR RKPK 230200Z 10003KT CAVOK 16/M04 Q1019,1,0,0,9999.0,0,0,0,
2026-03-23 01:00:00,METAR RKPK 230100Z 05004KT CAVOK 14/M01 Q1019,1,0,0,9999.0,0,0,0,
2026-03-23 00:00:00,METAR RKPK 230000Z 04004KT CAVOK 10/01 Q1019,1,0,0,9999.0,0,0,0,
2026-03-22 23:00:00,METAR RKPK 222300Z 05005KT CAVOK 07/01 Q1019,1,0,0,9999.0,0,0,0,
2026-03-22 22:00:00,METAR RKPK 222200Z 04004KT CAVOK 04/00 Q1018,1,0,0,9999.0,0,0,0,
2026-03-22 21:00:00,METAR RKPK 222100Z 03003KT CAVOK 03/00 Q1018,1,0,0,9999.0,0,0,0,
2026-03-22 20:00:00,METAR RKPK 222000Z 04002KT CAVOK 04/00 Q1018,1,0,0,9999.0,0,0,0,
2026-03-22 19:00:00,METAR RKPK 221900Z 04003KT CAVOK 04/01 Q1018,1,0,0,9999.0,0,0,0,
2026-03-22 18:00:00,METAR RKPK 221800Z 03002KT CAVOK 03/00 Q1018,1,0,0,9999.0,0,0,0,
2026-03-22 17:00:00,METAR RKPK 221700Z 02002KT CAVOK 05/01 Q1018,1,0,0,9999.0,0,0,0,
2026-03-22 16:00:00,METAR RKPK 221600Z 03002KT CAVOK 07/01 Q1018,1,0,0,9999.0,0,0,0,
2026-03-22 15:00:00,METAR RKPK 221500Z 02003KT CAVOK 05/01 Q1018,1,0,0,9999.0,0,0,0,
2026-03-22 14:00:00,METAR RKPK 221400Z 34001KT CAVOK 06/02 Q1018,1,0,0,9999.0,0,0,0,
2026-03-22 13:00:00,METAR RKPK 221300Z 03002KT CAVOK 08/02 Q1017,1,0,0,9999.0,0,0,0,
2026-03-22 12:00:00,METAR RKPK 221200Z 16001KT CAVOK 10/05 Q1017,1,0,0,9999.0,0,0,0,
2026-03-22 11:00:00,METAR RKPK 221100Z 21004KT CAVOK 10/04 Q1017,1,0,0,9999.0,0,0,0,
2026-03-22 10:00:00,METAR RKPK 221000Z 21007KT CAVOK 12/03 Q1017,1,0,0,9999.0,0,0,0,
2026-03-22 09:00:00,METAR RKPK 220900Z 21009KT CAVOK 13/03 Q1017,1,0,0,9999.0,0,0,0,
2026-03-22 08:00:00,METAR RKPK 220800Z 20006KT CAVOK 16/00 Q1017,1,0,0,9999.0,0,0,0,
2026-03-22 07:00:00,METAR RKPK 220700Z 21005KT CAVOK 15/M02 Q1017,1,0,0,9999.0,0,0,0,
2026-03-22 06:00:00,METAR RKPK 220600Z 23004KT CAVOK 15/02 Q1017,1,0,0,9999.0,0,0,0,
2026-03-22 05:00:00,METAR RKPK 220500Z 21003KT CAVOK 14/02 Q1018,1,0,0,9999.0,0,0,0,
2026-03-22 04:00:00,METAR RKPK 220400Z 32003KT CAVOK 13/02 Q1019,1,0,0,9999.0,0,0,0,
2026-03-22 03:00:00,METAR RKPK 220300Z 31003KT CAVOK 13/03 Q1020,1,0,0,9999.0,0,0,0,
2026-03-22 02:00:00,METAR RKPK 220200Z 31001KT CAVOK 12/04 Q1021,1,0,0,9999.0,0,0,0,
2026-03-22 01:00:00,METAR RKPK 220100Z 01004KT CAVOK 10/04 Q1021,1,0,0,9999.0,0,0,0,
2026-03-22 00:00:00,METAR RKPK 220000Z 03004KT CAVOK 09/04 Q1021,1,0,0,9999.0,0,0,0,
2026-03-21 23:00:00,METAR RKPK 212300Z 02003KT CAVOK 07/04 Q1021,1,0,0,9999.0,0,0,0,
2026-03-21 22:00:00,METAR RKPK 212200Z 30001KT CAVOK 06/03 Q1020,1,0,0,9999.0,0,0,0,
2026-03-21 21:00:00,METAR RKPK 212100Z 03003KT CAVOK 06/03 Q1021,1,0,0,9999.0,0,0,0,
2026-03-21 20:00:00,METAR RKPK 212000Z 31002KT CAVOK 05/03 Q1022,1,0,0,9999.0,0,0,0,
2026-03-21 19:00:00,METAR RKPK 211900Z 07002KT CAVOK 06/02 Q1022,1,0,0,9999.0,0,0,0,
2026-03-21 18:00:00,METAR RKPK 211800Z 03003KT CAVOK 04/02 Q1022,1,0,0,9999.0,0,0,0,
2026-03-21 17:00:00,METAR RKPK 211700Z 34002KT CAVOK 05/02 Q1022,1,0,0,9999.0,0,0,0,
2026-03-21 16:00:00,METAR RKPK 211600Z 02003KT CAVOK 06/03 Q1022,1,0,0,9999.0,0,0,0,
2026-03-21 14:00:00,METAR RKPK 211400Z 26002KT CAVOK 09/04 Q1023,1,0,0,9999.0,0,0,0,
2026-03-21 13:00:00,METAR RKPK 211300Z 21004KT CAVOK 09/04 Q1023,1,0,0,9999.0,0,0,0,
2026-03-21 12:00:00,METAR RKPK 211200Z 17003KT CAVOK 10/05 Q1023,1,0,0,9999.0,0,0,0,
2026-03-21 11:00:00,METAR RKPK 211100Z 17005KT CAVOK 11/06 Q1022,1,0,0,9999.0,0,0,0,
2026-03-21 10:00:00,METAR RKPK 211000Z 21006KT CAVOK 12/04 Q1022,1,0,0,9999.0,0,0,0,
2026-03-21 09:00:00,METAR RKPK 210900Z 20007KT CAVOK 13/05 Q1022,1,0,0,9999.0,0,0,0,
2026-03-21 08:00:00,METAR RKPK 210800Z 20010KT CAVOK 14/05 Q1022,1,0,0,9999.0,0,0,0,
2026-03-21 07:00:00,METAR RKPK 210700Z 19010KT CAVOK 15/05 Q1022,1,0,0,9999.0,0,0,0,
2026-03-21 06:00:00,METAR RKPK 210600Z 19011KT 9999 FEW030 16/03 Q1022,0,11,0,10000.0,0,0,0,
2026-03-21 05:00:00,METAR RKPK 210500Z 19010KT 9999 FEW030 16/03 Q1023,0,10,0,10000.0,0,0,0,
2026-03-21 04:00:00,METAR RKPK 210400Z 21006KT 9999 FEW030 16/01 Q1024,0,6,0,10000.0,0,0,0,
2026-03-21 03:26:00,SPECI RKPK 210326Z 22008KT 9999 FEW030 16/M02 Q1024,0,8,0,10000.0,0,0,0,
2026-03-21 03:00:00,METAR RKPK 210300Z 21005KT 9999 FEW030 16/M02 Q1024,0,5,0,10000.0,0,0,0,
2026-03-21 02:00:00,METAR RKPK 210200Z 36002KT 9999 FEW030 15/04 Q1025,0,2,0,10000.0,0,0,0,
2026-03-21 01:00:00,METAR RKPK 210100Z 32003KT CAVOK 12/03 Q1025,1,0,0,9999.0,0,0,0,
2026-03-21 00:00:00,METAR RKPK 210000Z 04003KT CAVOK 09/01 Q1025,1,0,0,9999.0,0,0,0,
2026-03-20 23:00:00,METAR RKPK 202300Z 36002KT CAVOK 06/00 Q1025,1,0,0,9999.0,0,0,0,
2026-03-20 22:00:00,METAR RKPK 202200Z 34003KT CAVOK 04/M02 Q1024,1,0,0,9999.0,0,0,0,
2026-03-20 21:00:00,METAR RKPK 202100Z 01002KT CAVOK 03/M03 Q1024,1,0,0,9999.0,0,0,0,
2026-03-20 20:00:00,METAR RKPK 202000Z 34002KT CAVOK 03/M03 Q1024,1,0,0,9999.0,0,0,0,
2026-03-20 19:00:00,METAR RKPK 201900Z 33003KT CAVOK 05/M02 Q1023,1,0,0,9999.0,0,0,0,
2026-03-20 18:00:00,METAR RKPK 201800Z 05004KT CAVOK 06/01 Q1023,1,0,0,9999.0,0,0,0,
2026-03-20 17:00:00,METAR RKPK 201700Z 01003KT CAVOK 06/M01 Q1023,1,0,0,9999.0,0,0,0,
2026-03-20 16:00:00,METAR RKPK 201600Z 07005KT CAVOK 07/M01 Q1023,1,0,0,9999.0,0,0,0,
2026-03-20 15:00:00,METAR RKPK 201500Z 05005KT CAVOK 07/M02 Q1023,1,0,0,9999.0,0,0,0,
2026-03-20 14:00:00,METAR RKPK 201400Z 33003KT CAVOK 07/M01 Q1022,1,0,0,9999.0,0,0,0,
2026-03-20 13:00:00,METAR RKPK 201300Z 03004KT CAVOK 06/M02 Q1022,1,0,0,9999.0,0,0,0,
2026-03-20 12:00:00,METAR RKPK 201200Z 22002KT CAVOK 10/M04 Q1021,1,0,0,9999.0,0,0,0,
2026-03-20 11:00:00,METAR RKPK 201100Z 22003KT CAVOK 11/M04 Q1020,1,0,0,9999.0,0,0,0,
2026-03-20 10:00:00,METAR RKPK 201000Z 19004KT CAVOK 10/01 Q1019,1,0,0,9999.0,0,0,0,
2026-03-20 09:42:00,SPECI RKPK 200942Z 19005KT CAVOK 11/01 Q1019 RMK SLP199,1,0,0,9999.0,0,0,0,
2026-03-20 09:00:00,METAR RKPK 200900Z 20008KT CAVOK 13/01 Q1019,1,0,0,9999.0,0,0,0,
2026-03-20 08:00:00,METAR RKPK 200800Z 20014KT CAVOK 14/M01 Q1018,1,0,0,9999.0,0,0,0,
2026-03-20 07:00:00,METAR RKPK 200700Z 21009KT CAVOK 14/M06 Q1018,1,0,0,9999.0,0,0,0,
2026-03-20 06:17:00,SPECI RKPK 200617Z 20009KT CAVOK 15/M02 Q1018,1,0,0,9999.0,0,0,0,
2026-03-20 06:00:00,METAR RKPK 200600Z 26007KT CAVOK 17/M11 Q1018,1,0,0,9999.0,0,0,0,
2026-03-20 05:00:00,METAR RKPK 200500Z 32006KT CAVOK 15/M11 Q1019,1,0,0,9999.0,0,0,0,
2026-03-20 04:00:00,METAR RKPK 200400Z 32010KT CAVOK 14/M14 Q1020,1,0,0,9999.0,0,0,0,
2026-03-20 03:00:00,METAR RKPK 200300Z 32009KT CAVOK 13/M13 Q1020,1,0,0,9999.0,0,0,0,
2026-03-20 02:00:00,METAR RKPK 200200Z 33010KT CAVOK 12/M11 Q1020,1,0,0,9999.0,0,0,0,
2026-03-20 01:00:00,METAR RKPK 200100Z 35008KT CAVOK 10/M12 Q1020,1,0,0,9999.0,0,0,0,
2026-03-20 00:00:00,METAR RKPK 200000Z 30006KT CAVOK 07/M09 Q1020,1,0,0,9999.0,0,0,0,
2026-03-19 23:00:00,METAR RKPK 192300Z 26002KT CAVOK 05/M06 Q1020,1,0,0,9999.0,0,0,0,
2026-03-19 22:00:00,METAR RKPK 192200Z 28003KT 9999 BKN005 04/M07 Q1019,0,3,0,10000.0,0,0,0,
2026-03-19 21:00:00,METAR RKPK 192100Z 29005KT CAVOK 04/M06 Q1018,1,0,0,9999.0,0,0,0,
2026-03-19 20:00:00,METAR RKPK 192000Z 30005KT CAVOK 04/M05 Q1018,1,0,0,9999.0,0,0,0,
2026-03-19 19:00:00,METAR RKPK 191900Z 29004KT CAVOK 05/M04 Q1018,1,0,0,9999.0,0,0,0,
2026-03-19 18:00:00,METAR RKPK 191800Z 33001KT CAVOK 06/00 Q1019,1,0,0,9999.0,0,0,0,
2026-03-19 17:00:00,METAR RKPK 191700Z 11001KT CAVOK 04/02 Q1019,1,0,0,9999.0,0,0,0,
2026-03-19 16:00:00,METAR RKPK 191600Z 34002KT CAVOK 05/03 Q1019,1,0,0,9999.0,0,0,0,
2026-03-19 15:00:00,METAR RKPK 191500Z 02003KT CAVOK 04/02 Q1018,1,0,0,9999.0,0,0,0,
2026-03-19 14:00:00,METAR RKPK 191400Z 05004KT CAVOK 07/04 Q1018,1,0,0,9999.0,0,0,0,
2026-03-19 13:00:00,METAR RKPK 191300Z 01003KT 9999 FEW035 07/03 Q1017,0,3,0,10000.0,0,0,0,
2026-03-19 12:00:00,METAR RKPK 191200Z 21001KT 9999 FEW035 09/04 Q1017,0,1,0,10000.0,0,0,0,
2026-03-19 11:00:00,METAR RKPK 191100Z 15003KT 9999 FEW040 09/04 Q1016,0,3,0,10000.0,0,0,0,
2026-03-19 10:00:00,METAR RKPK 191000Z 19005KT 9999 FEW040 09/03 Q1016,0,5,0,10000.0,0,0,0,
2026-03-19 09:18:00,SPECI RKPK 190918Z 19005KT 9999 FEW030 10/02 Q1016,0,5,0,10000.0,0,0,0,
2026-03-19 09:00:00,METAR RKPK 190900Z 19006KT 9999 FEW030 11/02 Q1015,0,6,0,10000.0,0,0,0,
2026-03-19 08:00:00,METAR RKPK 190800Z 19006KT 9999 FEW030 12/02 Q1015,0,6,0,10000.0,0,0,0,
2026-03-19 07:00:00,METAR RKPK 190700Z 19010KT 9999 FEW040 13/02 Q1015,0,10,0,10000.0,0,0,0,
2026-03-19 06:00:00,METAR RKPK 190600Z 20012KT 9999 FEW040 13/02 Q1016,0,12,0,10000.0,0,0,0,
2026-03-19 05:00:00,METAR RKPK 190500Z 20009KT 9999 FEW040 14/01 Q1016,0,9,0,10000.0,0,0,0,
2026-03-19 04:43:00,SPECI RKPK 190443Z 20010KT 9999 FEW040 13/01 Q1016,0,10,0,10000.0,0,0,0,
2026-03-19 04:00:00,METAR RKPK 190400Z 34002KT 9999 FEW040 14/00 Q1016,0,2,0,10000.0,0,0,0,
2026-03-19 03:00:00,METAR RKPK 190300Z 30007KT 9999 FEW050 12/M01 Q1017,0,7,0,10000.0,0,0,0,
2026-03-19 02:00:00,METAR RKPK 190200Z 32007KT CAVOK 11/M01 Q1017,1,0,0,9999.0,0,0,0,
2026-03-19 01:00:00,METAR RKPK 190100Z 32008KT CAVOK 09/M01 Q1018,1,0,0,9999.0,0,0,0,
2026-03-19 00:00:00,METAR RKPK 190000Z 32008KT CAVOK 07/M02 Q1018,1,0,0,9999.0,0,0,0,
2026-03-18 23:00:00,METAR RKPK 182300Z 33005KT CAVOK 06/M02 Q1017,1,0,0,9999.0,0,0,0,
2026-03-18 22:00:00,METAR RKPK 182200Z 32004KT CAVOK 05/M03 Q1016,1,0,0,9999.0,0,0,0,
2026-03-18 21:00:00,METAR RKPK 182100Z 35006KT CAVOK 05/M02 Q1015,1,0,0,9999.0,0,0,0,
2026-03-18 20:00:00,METAR RKPK 182000Z 34007KT 9000 NSC 06/M02 Q1015,0,7,0,9000.0,0,0,0,
2026-03-18 19:00:00,METAR RKPK 181900Z 33009KT 9000 NSC 06/M01 Q1015,0,9,0,9000.0,0,0,0,
2026-03-18 18:00:00,METAR RKPK 181800Z 34010KT 9000 NSC 07/02 Q1014,0,10,0,9000.0,0,0,0,
2026-03-18 17:00:00,METAR RKPK 181700Z 35006KT CAVOK 07/03 Q1014,1,0,0,9999.0,0,0,0,
2026-03-18 16:00:00,METAR RKPK 181600Z 34006KT 9999 FEW030 SCT200 08/04 Q1013,0,6,0,10000.0,0,0,0,
2026-03-18 15:00:00,METAR RKPK 181500Z 03008KT 9999 FEW030 BKN200 09/04 Q1013,0,8,0,10000.0,0,0,0,
2026-03-18 14:00:00,METAR RKPK 181400Z 32006KT 9000 SCT030 BKN100 BKN150 09/07 Q1014,0,6,0,9000.0,0,0,0,
2026-03-18 13:14:00,SPECI RKPK 181314Z 35002KT 9000 SCT030 BKN080 BKN150 09/07 Q1013 RMK CIG080,0,2,0,9000.0,0,0,0,
2026-03-18 13:04:00,SPECI RKPK 181304Z 35002KT 9000 -RA SCT030 BKN080 BKN150 09/07 Q1013 RMK CIG080,0,2,0,9000.0,0,0,0,-RA
2026-03-18 13:00:00,METAR RKPK 181300Z 36003KT 9000 SCT030 BKN080 BKN150 09/07 Q1013,0,3,0,9000.0,0,0,0,
2026-03-18 12:00:00,METAR RKPK 181200Z 31005KT 9000 SCT030 BKN100 BKN150 09/07 Q1012,0,5,0,9000.0,0,0,0,
2026-03-18 11:00:00,METAR RKPK 181100Z 30005KT 9000 SCT040 BKN100 BKN150 09/07 Q1012,0,5,0,9000.0,0,0,0,
2026-03-18 10:00:00,METAR RKPK 181000Z 31007KT 9000 FEW010 SCT040 BKN090 OVC150 09/07 Q1011,0,7,0,9000.0,0,0,0,
2026-03-18 09:00:00,METAR RKPK 180900Z 34004KT 9000 FEW010 SCT030 BKN090 OVC150 09/07 Q1010,0,4,0,9000.0,0,0,0,
2026-03-18 08:00:00,METAR RKPK 180800Z 32006KT 8000P2000 FEW010 BKN020 OVC030 09/07 Q1010,0,6,0,,0,0,0,
2026-03-18 07:31:00,SPECI RKPK 180731Z 32005KT 8000 SCT010 BKN020 OVC030 09/07 Q1010 RMK CIG020,0,5,0,8000.0,0,0,0,
2026-03-18 07:00:00,METAR RKPK 180700Z 32005KT 6000 -DZ FEW008 BKN015 OVC025 09/08 Q1010,0,5,0,6000.0,0,0,0,DZ
2026-03-18 06:23:00,SPECI RKPK 180623Z 32006KT 4800 -RA BR SCT005 BKN015 OVC025 09/08 Q1010 RMK CIG015,0,6,0,4800.0,0,0,1,"-RA,BR"
2026-03-18 06:07:00,SPECI RKPK 180607Z 32005KT 3200 -RA BR SCT005 BKN015 OVC025 09/08 Q1010 RMK CIG015,0,5,0,3200.0,0,0,1,"-RA,BR"
2026-03-18 06:00:00,METAR RKPK 180600Z 31005KT 3200 -RA BR SCT006 BKN015 OVC030 09/08 Q1010,0,5,0,3200.0,0,0,1,"-RA,BR"
2026-03-18 05:00:00,METAR RKPK 180500Z COR 36004KT 4000 -RA BR FEW008 BKN015 OVC030 09/07 Q1011,0,4,0,4000.0,0,0,1,"-RA,BR"
2026-03-18 04:24:00,SPECI RKPK 180424Z 01005KT 4000 -RA BR FEW008 BKN015 OVC030 09/07 Q1011 RMK CIG015,0,5,0,4000.0,0,0,1,"-RA,BR"
2026-03-18 04:01:00,SPECI RKPK 180401Z 03005KT 4800 -RA BR FEW008 SCT015 OVC025 09/07 Q1012 RMK CIG025,0,5,0,4800.0,0,0,1,"-RA,BR"
2026-03-18 04:00:00,METAR RKPK 180400Z 04004KT 4800 -RA BR FEW008 SCT015 OVC030 09/07 Q1012,0,4,0,4800.0,0,0,1,"-RA,BR"
2026-03-18 03:00:00,METAR RKPK 180300Z 13003KT 4800 -RA BR SCT020 OVC030 09/06 Q1013,0,3,0,4800.0,0,0,1,"-RA,BR"
2026-03-18 02:00:00,METAR RKPK 180200Z 05005KT 4800 -RA BR FEW020 FEW025 OVC040 10/07 Q1014,0,5,0,4800.0,0,0,1,"-RA,BR"
2026-03-18 01:00:00,METAR RKPK 180100Z 02004KT 4800 -RA BR FEW020 FEW025 OVC045 09/07 Q1015,0,4,0,4800.0,0,0,1,"-RA,BR"
2026-03-18 00:00:00,METAR RKPK 180000Z 01004KT 4800 -RA BR FEW020 FEW025 OVC045 09/07 Q1015,0,4,0,4800.0,0,0,1,"-RA,BR"
2026-03-17 23:00:00,METAR RKPK 172300Z 04004KT 4800 -RA BR FEW020 FEW025 OVC045 08/06 Q1016,0,4,0,4800.0,0,0,1,"-RA,BR"
2026-03-17 22:00:00,METAR RKPK 172200Z 32002KT 4800 -RA BR FEW020 FEW030 OVC060 08/06 Q1017,0,2,0,4800.0,0,0,1,"-RA,BR"
2026-03-17 21:00:00,METAR RKPK 172100Z 31001KT 8000 -RA FEW030 SCT060 BKN080 07/05 Q1017,0,1,0,8000.0,0,0,0,-RA
2026-03-17 20:00:00,METAR RKPK 172000Z COR 06004KT 9000 -RA FEW030 BKN080 08/04 Q1017,0,4,0,9000.0,0,0,0,-RA
2026-03-17 19:00:00,METAR RKPK 171900Z 36001KT 9000 SCT030 BKN080 07/04 Q1018,0,1,0,9000.0,0,0,0,
2026-03-17 18:00:00,METAR RKPK 171800Z 02004KT 9000 FEW030 BKN120 07/04 Q1018,0,4,0,9000.0,0,0,0,
2026-03-17 17:00:00,METAR RKPK 171700Z 01002KT CAVOK 07/04 Q1019,1,0,0,9999.0,0,0,0,
2026-03-17 16:00:00,METAR RKPK 171600Z 32001KT CAVOK 05/03 Q1020,1,0,0,9999.0,0,0,0,
2026-03-17 15:00:00,METAR RKPK 171500Z 03002KT CAVOK 06/03 Q1020,1,0,0,9999.0,0,0,0,
2026-03-17 14:00:00,METAR RKPK 171400Z 04002KT CAVOK 07/03 Q1020,1,0,0,9999.0,0,0,0,
2026-03-17 13:00:00,METAR RKPK 171300Z 07004KT CAVOK 07/03 Q1021,1,0,0,9999.0,0,0,0,
2026-03-17 12:00:00,METAR RKPK 171200Z 36002KT CAVOK 09/04 Q1021,1,0,0,9999.0,0,0,0,
2026-03-17 11:00:00,METAR RKPK 171100Z 15003KT CAVOK 10/03 Q1021,1,0,0,9999.0,0,0,0,
2026-03-17 10:00:00,METAR RKPK 171000Z 18005KT CAVOK 10/03 Q1021,1,0,0,9999.0,0,0,0,
2026-03-17 09:42:00,SPECI RKPK 170942Z 19007KT CAVOK 11/04 Q1020,1,0,0,9999.0,0,0,0,
2026-03-17 09:00:00,METAR RKPK 170900Z 18009KT CAVOK 12/04 Q1020,1,0,0,9999.0,0,0,0,
2026-03-17 08:00:00,METAR RKPK 170800Z 20010KT CAVOK 13/04 Q1020,1,0,0,9999.0,0,0,0,
2026-03-17 07:00:00,METAR RKPK 170700Z 19009KT 9999 FEW040 14/04 Q1020,0,9,0,10000.0,0,0,0,
2026-03-17 06:00:00,METAR RKPK 170600Z 19009KT 9999 FEW040 15/04 Q1020,0,9,0,10000.0,0,0,0,
2026-03-17 05:00:00,METAR RKPK 170500Z 20009KT 9999 FEW040 14/03 Q1021,0,9,0,10000.0,0,0,0,
2026-03-17 04:00:00,METAR RKPK 170400Z 20011KT 9999 FEW040 15/05 Q1022,0,11,0,10000.0,0,0,0,
2026-03-17 03:10:00,SPECI RKPK 170310Z 21009KT 9999 SCT040 14/05 Q1022,0,9,0,10000.0,0,0,0,
2026-03-17 03:00:00,METAR RKPK 170300Z 22005KT 9999P2000 SCT040 14/05 Q1023,0,5,0,,0,0,0,
2026-03-17 02:00:00,METAR RKPK 170200Z 22002KT 9999 FEW040 13/04 Q1023,0,2,0,10000.0,0,0,0,
2026-03-17 01:00:00,METAR RKPK 170100Z 01002KT 9999 FEW040 SCT250 11/05 Q1023,0,2,0,10000.0,0,0,0,
2026-03-17 00:00:00,METAR RKPK 170000Z 35001KT 9000 FEW030 FEW250 08/04 Q1023,0,1,0,9000.0,0,0,0,
2026-03-16 23:00:00,METAR RKPK 162300Z 03004KT 9000 NSC 06/03 Q1023,0,4,0,9000.0,0,0,0,
2026-03-16 22:00:00,METAR RKPK 162200Z 06005KT 9000 NSC 05/02 Q1023,0,5,0,9000.0,0,0,0,
2026-03-16 21:00:00,METAR RKPK 162100Z 05004KT 8000 NSC 04/02 Q1023,0,4,0,8000.0,0,0,0,
2026-03-16 20:00:00,METAR RKPK 162000Z 03003KT CAVOK 05/02 Q1022,1,0,0,9999.0,0,0,0,
2026-03-16 19:00:00,METAR RKPK 161900Z 04003KT CAVOK 05/03 Q1022,1,0,0,9999.0,0,0,0,
2026-03-16 18:00:00,METAR RKPK 161800Z 07003KT 9999 FEW040 BKN200 05/03 Q1023,0,3,0,10000.0,0,0,0,
2026-03-16 17:00:00,METAR RKPK 161700Z 34001KT 9999 FEW040 BKN200 05/03 Q1023,0,1,0,10000.0,0,0,0,
2026-03-16 16:00:00,METAR RKPK 161600Z 02002KT 9999 FEW040 BKN200 06/03 Q1022,0,2,0,10000.0,0,0,0,
2026-03-16 15:00:00,METAR RKPK 161500Z 02002KT 9999 FEW040 BKN200 08/03 Q1023,0,2,0,10000.0,0,0,0,
2026-03-16 14:00:00,METAR RKPK 161400Z 32001KT 9999 FEW040 BKN200 08/03 Q1023,0,1,0,10000.0,0,0,0,
2026-03-16 13:00:00,METAR RKPK 161300Z 28003KT 9999 FEW040 BKN120 08/02 Q1023,0,3,0,10000.0,0,0,0,
2026-03-16 12:00:00,METAR RKPK 161200Z 10004KT CAVOK 11/03 Q1022,1,0,0,9999.0,0,0,0,
2026-03-16 11:00:00,METAR RKPK 161100Z 11006KT CAVOK 11/03 Q1022,1,0,0,9999.0,0,0,0,
2026-03-16 10:00:00,METAR RKPK 161000Z 11008KT CAVOK 11/03 Q1022,1,0,0,9999.0,0,0,0,
2026-03-16 09:00:00,METAR RKPK 160900Z 13008KT 9999 FEW040 BKN140 11/03 Q1021,0,8,0,10000.0,0,0,0,
2026-03-16 08:00:00,METAR RKPK 160800Z 13008KT 9999 SCT040 BKN140 12/03 Q1021,0,8,0,10000.0,0,0,0,
2026-03-16 07:00:00,METAR RKPK 160700Z 14008KT 9999 SCT040 BKN160 13/03 Q1022,0,8,0,10000.0,0,0,0,
2026-03-16 06:00:00,METAR RKPK 160600Z 14008KT 9999 SCT050 BKN160 13/04 Q1022,0,8,0,10000.0,0,0,0,
2026-03-16 05:00:00,METAR RKPK 160500Z 13008KT 9999 BKN050 13/04 Q1022,0,8,0,10000.0,0,0,0,
2026-03-16 04:00:00,METAR RKPK 160400Z 16005KT 9999 BKN040 12/03 Q1023,0,5,0,10000.0,0,0,0,
2026-03-16 03:00:00,METAR RKPK 160300Z 14004KT 9999 BKN040 13/04 Q1024,0,4,0,10000.0,0,0,0,
2026-03-16 02:00:00,METAR RKPK 160200Z COR 02002KT 9000 FEW030 FEW200 12/03 Q1024,0,2,0,9000.0,0,0,0,
2026-03-16 01:00:00,METAR RKPK 160100Z 31002KT 9000 NSC 10/01 Q1024,0,2,0,9000.0,0,0,0,
2026-03-16 00:00:00,METAR RKPK 160000Z 03005KT 9000 NSC 07/01 Q1024,0,5,0,9000.0,0,0,0,
2026-03-15 23:00:00,METAR RKPK 152300Z 32004KT 8000 NSC 06/00 Q1025,0,4,0,8000.0,0,0,0,
2026-03-15 22:00:00,METAR RKPK 152200Z 35003KT 8000 NSC 05/00 Q1024,0,3,0,8000.0,0,0,0,
2026-03-15 21:00:00,METAR RKPK 152100Z 35003KT 8000 NSC 04/00 Q1024,0,3,0,8000.0,0,0,0,
2026-03-15 20:00:00,METAR RKPK 152000Z 34004KT 8000 NSC 05/M01 Q1024,0,4,0,8000.0,0,0,0,
2026-03-15 19:00:00,METAR RKPK 151900Z 32004KT 8000 NSC 06/00 Q1023,0,4,0,8000.0,0,0,0,
2026-03-15 18:00:00,METAR RKPK 151800Z 32005KT 8000 NSC 06/00 Q1024,0,5,0,8000.0,0,0,0,
2026-03-15 17:00:00,METAR RKPK 151700Z 32006KT 8000 NSC 07/01 Q1024,0,6,0,8000.0,0,0,0,
2026-03-15 16:00:00,METAR RKPK 151600Z 33005KT 8000 NSC 07/01 Q1024,0,5,0,8000.0,0,0,0,
2026-03-15 15:00:00,METAR RKPK 151500Z 33005KT 8000 NSC 07/01 Q1024,0,5,0,8000.0,0,0,0,
2026-03-15 14:00:00,METAR RKPK 151400Z 33006KT 8000 NSC 07/00 Q1024,0,6,0,8000.0,0,0,0,
2026-03-15 13:00:00,METAR RKPK 151300Z 33004KT CAVOK 07/M01 Q1024,1,0,0,9999.0,0,0,0,
2026-03-15 12:00:00,METAR RKPK 151200Z 02003KT CAVOK 10/00 Q1024,1,0,0,9999.0,0,0,0,
2026-03-15 11:00:00,METAR RKPK 151100Z 14003KT CAVOK 11/01 Q1023,1,0,0,9999.0,0,0,0,
2026-03-15 10:00:00,METAR RKPK 151000Z 18006KT CAVOK 11/02 Q1023,1,0,0,9999.0,0,0,0,
2026-03-15 09:00:00,METAR RKPK 150900Z 20006KT CAVOK 11/02 Q1023,1,0,0,9999.0,0,0,0,
2026-03-15 08:00:00,METAR RKPK 150800Z 18010KT CAVOK 11/01 Q1022,1,0,0,9999.0,0,0,0,
