Time_recorded,METAR,is_cavok,wind_speed,is_gust,visibility_meters,has_thunderstorm,has_heavy_rain,has_low_vis_fog,other_phenomenon
2026-05-02 15:30:00,METAR LFLB 021530Z AUTO 36004KT CAVOK 24/12 Q1018 NOSIG,1,0.0,0,9999.0,0,0,0,
2026-05-02 15:00:00,METAR LFLB 021500Z AUTO 01005KT 330V030 CAVOK 24/13 Q1018 NOSIG,1,0.0,0,9999.0,0,0,0,
2026-05-02 14:30:00,METAR LFLB 021430Z AUTO 01006KT CAVOK 24/13 Q1019 NOSIG,1,0.0,0,9999.0,0,0,0,
2026-05-02 14:00:00,METAR LFLB 021400Z AUTO 36005KT CAVOK 24/12 Q1019 NOSIG,1,0.0,0,9999.0,0,0,0,
2026-05-02 13:30:00,METAR LFLB 021330Z AUTO 01004KT 330V040 CAVOK 24/13 Q1020 NOSIG,1,0.0,0,9999.0,0,0,0,
2026-05-02 13:00:00,METAR LFLB 021300Z AUTO 01003KT 330V050 CAVOK 23/12 Q1020 NOSIG,1,0.0,0,9999.0,0,0,0,
2026-05-02 12:30:00,METAR LFLB 021230Z AUTO 36006KT CAVOK 22/12 Q1020 NOSIG,1,0.0,0,9999.0,0,0,0,
2026-05-02 12:00:00,METAR LFLB 021200Z AUTO 36006KT 320V020 CAVOK 22/12 Q1021 NOSIG,1,0.0,0,9999.0,0,0,0,
2026-05-02 11:30:00,METAR LFLB 021130Z AUTO 36006KT 330V030 CAVOK 21/11 Q1021 NOSIG,1,0.0,0,9999.0,0,0,0,
2026-05-02 11:00:00,METAR LFLB 021100Z AUTO 36007KT CAVOK 21/12 Q1022 NOSIG,1,0.0,0,9999.0,0,0,0,
2026-05-02 10:30:00,METAR LFLB 021030Z AUTO 01007KT CAVOK 20/11 Q1022 NOSIG,1,0.0,0,9999.0,0,0,0,
2026-05-02 10:00:00,METAR LFLB 021000Z AUTO 01006KT CAVOK 19/11 Q1022 NOSIG,1,0.0,0,9999.0,0,0,0,
2026-05-02 09:30:00,METAR LFLB 020930Z AUTO 01006KT CAVOK 19/11 Q1023 NOSIG,1,0.0,0,9999.0,0,0,0,
2026-05-02 09:00:00,METAR LFLB 020900Z AUTO 01005KT CAVOK 18/11 Q1023 NOSIG,1,0.0,0,9999.0,0,0,0,
2026-05-02 08:30:00,METAR LFLB 020830Z AUTO 02004KT 350V050 CAVOK 18/11 Q1023 NOSIG,1,0.0,0,9999.0,0,0,0,
2026-05-02 08:00:00,METAR LFLB 020800Z AUTO 02004KT 350V050 CAVOK 17/10 Q1023 NOSIG,1,0.0,0,9999.0,0,0,0,
2026-05-02 07:30:00,METAR LFLB 020730Z AUTO 01003KT 330V060 CAVOK 16/08 Q1024 NOSIG,1,0.0,0,9999.0,0,0,0,
2026-05-02 07:00:00,METAR LFLB 020700Z AUTO VRB01KT CAVOK 16/09 Q1024 NOSIG,1,0.0,0,9999.0,0,0,0,
2026-05-02 06:30:00,METAR LFLB 020630Z AUTO VRB02KT CAVOK 14/09 Q1024 NOSIG,1,0.0,0,9999.0,0,0,0,
2026-05-02 06:00:00,METAR LFLB 020600Z AUTO 13003KT CAVOK 12/10 Q1024 NOSIG,1,0.0,0,9999.0,0,0,0,
2026-05-02 05:30:00,METAR LFLB 020530Z AUTO 00000KT CAVOK 10/08 Q1024 NOSIG,1,0.0,0,9999.0,0,0,0,
2026-05-02 05:00:00,METAR LFLB 020500Z AUTO 19001KT CAVOK 09/08 Q1024 NOSIG,1,0.0,0,9999.0,0,0,0,
2026-05-02 04:30:00,METAR LFLB 020430Z AUTO 18002KT CAVOK 09/08 Q1024 NOSIG,1,0.0,0,9999.0,0,0,0,
2026-05-02 04:00:00,METAR LFLB 020400Z AUTO 18002KT CAVOK 10/08 Q1024 NOSIG,1,0.0,0,9999.0,0,0,0,
2026-05-02 03:30:00,METAR LFLB 020330Z AUTO 18002KT CAVOK 09/08 Q1024 NOSIG,1,0.0,0,9999.0,0,0,0,
2026-05-02 03:00:00,METAR LFLB 020300Z AUTO 17001KT CAVOK 10/09 Q1024 NOSIG,1,0.0,0,9999.0,0,0,0,
2026-05-02 02:30:00,METAR LFLB 020230Z AUTO 00000KT CAVOK 11/09 Q1023 NOSIG,1,0.0,0,9999.0,0,0,0,
2026-05-02 02:00:00,METAR LFLB 020200Z AUTO 18002KT CAVOK 11/10 Q1024,1,0.0,0,9999.0,0,0,0,
2026-05-02 01:30:00,METAR LFLB 020130Z AUTO VRB02KT 9999 FEW090 12/10 Q1024,0,2.0,0,10000.0,0,0,0,
2026-05-02 01:00:00,METAR LFLB 020100Z AUTO VRB02KT 9999 SCT090 13/11 Q1024,0,2.0,0,10000.0,0,0,0,
2026-05-02 00:30:00,METAR LFLB 020030Z AUTO VRB01KT CAVOK 14/11 Q1024,1,0.0,0,9999.0,0,0,0,
2026-05-02 00:00:00,METAR LFLB 020000Z AUTO 30002KT CAVOK 14/12 Q1024,1,0.0,0,9999.0,0,0,0,
2026-05-01 23:30:00,METAR LFLB 012330Z AUTO VRB02KT CAVOK 16/12 Q1024,1,0.0,0,9999.0,0,0,0,
2026-05-01 23:00:00,METAR LFLB 012300Z AUTO 17001KT 9999 FEW058 SCT088 OVC120 15/12 Q1024,0,1.0,0,10000.0,0,0,0,
2026-05-01 22:30:00,METAR LFLB 012230Z AUTO 01003KT 9999 FEW058 OVC110 16/13 Q1024,0,3.0,0,10000.0,0,0,0,
2026-05-01 22:00:00,METAR LFLB 012200Z AUTO VRB02KT 9999 SCT088 BKN120 16/12 Q1023,0,2.0,0,10000.0,0,0,0,
2026-05-01 21:30:00,METAR LFLB 012130Z AUTO 05001KT CAVOK 16/12 Q1023,1,0.0,0,9999.0,0,0,0,
2026-05-01 21:00:00,METAR LFLB 012100Z AUTO 00000KT CAVOK 17/13 Q1023,1,0.0,0,9999.0,0,0,0,
2026-05-01 20:30:00,METAR LFLB 012030Z AUTO VRB02KT CAVOK 17/12 Q1023,1,0.0,0,9999.0,0,0,0,
2026-05-01 20:00:00,METAR LFLB 012000Z AUTO VRB02KT CAVOK 18/13 Q1023,1,0.0,0,9999.0,0,0,0,
2026-05-01 19:30:00,METAR LFLB 011930Z AUTO VRB02KT CAVOK 19/13 Q1022,1,0.0,0,9999.0,0,0,0,
2026-05-01 19:00:00,METAR LFLB 011900Z AUTO VRB02KT CAVOK 19/12 Q1022 TEMPO FEW060TCU,1,0.0,0,9999.0,0,0,0,
2026-05-01 18:30:00,METAR LFLB 011830Z AUTO VRB03KT CAVOK 19/14 Q1022 TEMPO FEW060TCU,1,0.0,0,9999.0,0,0,0,
2026-05-01 18:00:00,METAR LFLB 011800Z AUTO 00000KT CAVOK 20/15 Q1021 TEMPO FEW060TCU,1,0.0,0,9999.0,0,0,0,
2026-05-01 17:30:00,METAR LFLB 011730Z AUTO 01004KT 9999 FEW088 21/15 Q1021 TEMPO FEW060TCU,0,4.0,0,10000.0,0,0,0,
2026-05-01 17:00:00,METAR LFLB 011700Z AUTO VRB03KT CAVOK 23/15 Q1021 TEMPO FEW060TCU,1,0.0,0,9999.0,0,0,0,
2026-05-01 16:30:00,METAR LFLB 011630Z AUTO VRB02KT CAVOK 24/13 Q1021 TEMPO FEW060TCU,1,0.0,0,9999.0,0,0,0,
2026-05-01 16:00:00,METAR LFLB 011600Z AUTO VRB02KT CAVOK 24/13 Q1021 TEMPO FEW060TCU,1,0.0,0,9999.0,0,0,0,
2026-05-01 15:30:00,METAR LFLB 011530Z AUTO VRB03KT CAVOK 24/12 Q1021 TEMPO FEW060TCU,1,0.0,0,9999.0,0,0,0,
2026-05-01 15:00:00,METAR LFLB 011500Z AUTO 35005KT CAVOK 24/13 Q1021 TEMPO FEW060TCU,1,0.0,0,9999.0,0,0,0,
2026-05-01 14:30:00,METAR LFLB 011430Z AUTO 01006KT CAVOK 24/12 Q1021 TEMPO FEW050TCU,1,0.0,0,9999.0,0,0,0,
2026-05-01 14:00:00,METAR LFLB 011400Z AUTO 36005KT CAVOK 23/12 Q1022 TEMPO FEW050TCU,1,0.0,0,9999.0,0,0,0,
2026-05-01 13:30:00,METAR LFLB 011330Z AUTO 35005KT 330V030 CAVOK 23/11 Q1022 TEMPO FEW050TCU,1,0.0,0,9999.0,0,0,0,
2026-05-01 13:00:00,METAR LFLB 011300Z AUTO 36006KT CAVOK 23/11 Q1022 NOSIG,1,0.0,0,9999.0,0,0,0,
2026-05-01 12:30:00,METAR LFLB 011230Z AUTO 36006KT CAVOK 22/11 Q1023 NOSIG,1,0.0,0,9999.0,0,0,0,
2026-05-01 12:00:00,METAR LFLB 011200Z AUTO 35006KT CAVOK 21/10 Q1023 NOSIG,1,0.0,0,9999.0,0,0,0,
2026-05-01 11:30:00,METAR LFLB 011130Z AUTO 01005KT CAVOK 21/10 Q1023 NOSIG,1,0.0,0,9999.0,0,0,0,
2026-05-01 11:00:00,METAR LFLB 011100Z AUTO 36005KT CAVOK 20/09 Q1024 NOSIG,1,0.0,0,9999.0,0,0,0,
2026-05-01 10:30:00,METAR LFLB 011030Z AUTO 01006KT CAVOK 19/08 Q1024 NOSIG,1,0.0,0,9999.0,0,0,0,
2026-05-01 10:00:00,METAR LFLB 011000Z AUTO 01005KT 320V030 CAVOK 19/07 Q1024 NOSIG,1,0.0,0,9999.0,0,0,0,
2026-05-01 09:30:00,METAR LFLB 010930Z AUTO 36004KT 330V040 CAVOK 19/07 Q1024 NOSIG,1,0.0,0,9999.0,0,0,0,
2026-05-01 09:00:00,METAR LFLB 010900Z AUTO VRB02KT CAVOK 18/07 Q1024 NOSIG,1,0.0,0,9999.0,0,0,0,
2026-05-01 08:30:00,METAR LFLB 010830Z AUTO VRB03KT CAVOK 17/07 Q1024 NOSIG,1,0.0,0,9999.0,0,0,0,
2026-05-01 08:00:00,METAR LFLB 010800Z AUTO VRB02KT CAVOK 17/05 Q1024 NOSIG,1,0.0,0,9999.0,0,0,0,
2026-05-01 07:30:00,METAR LFLB 010730Z AUTO VRB03KT CAVOK 16/05 Q1024 NOSIG,1,0.0,0,9999.0,0,0,0,
2026-05-01 07:00:00,METAR LFLB 010700Z AUTO 36003KT 310V030 9999 FEW070 15/06 Q1024 NOSIG,0,3.0,0,10000.0,0,0,0,
2026-05-01 06:30:00,METAR LFLB 010630Z AUTO VRB01KT CAVOK 14/08 Q1024 NOSIG,1,0.0,0,9999.0,0,0,0,
2026-05-01 06:00:00,METAR LFLB 010600Z AUTO VRB03KT CAVOK 11/09 Q1024 TEMPO 2000 MIFG,1,0.0,0,9999.0,0,0,0,
2026-05-01 05:30:00,METAR LFLB 010530Z AUTO VRB02KT CAVOK 09/08 Q1024 TEMPO 2000 MIFG,1,0.0,0,9999.0,0,0,0,
2026-05-01 05:00:00,METAR LFLB 010500Z AUTO 31002KT CAVOK 09/08 Q1023 TEMPO 2000 MIFG,1,0.0,0,9999.0,0,0,0,
2026-05-01 04:30:00,METAR LFLB 010430Z AUTO 20002KT CAVOK 09/08 Q1023 TEMPO 2000 MIFG,1,0.0,0,9999.0,0,0,0,
2026-05-01 04:00:00,METAR LFLB 010400Z AUTO VRB02KT CAVOK 09/08 Q1023 TEMPO 2000 MIFG,1,0.0,0,9999.0,0,0,0,
2026-05-01 03:30:00,METAR LFLB 010330Z AUTO VRB02KT CAVOK 09/08 Q1023 TEMPO 2000 MIFG,1,0.0,0,9999.0,0,0,0,
2026-05-01 03:00:00,METAR LFLB 010300Z AUTO VRB03KT 9999 FEW086 09/09 Q1023 TEMPO 2000 MIFG,0,3.0,0,10000.0,0,0,1,FG
2026-05-01 02:30:00,METAR LFLB 010230Z AUTO VRB01KT 9999 FEW086 10/09 Q1023 TEMPO 2000 MIFG,0,1.0,0,10000.0,0,0,1,FG
2026-05-01 02:00:00,METAR LFLB 010200Z AUTO 16003KT CAVOK 10/09 Q1022,1,0.0,0,9999.0,0,0,0,
2026-05-01 01:30:00,METAR LFLB 010130Z AUTO VRB02KT 9999 4600 NSC 10/09 Q1022,0,2.0,0,10000.0,0,0,0,
2026-05-01 01:00:00,METAR LFLB 010100Z AUTO VRB01KT CAVOK 11/10 Q1022,1,0.0,0,9999.0,0,0,0,
2026-05-01 00:30:00,METAR LFLB 010030Z AUTO VRB02KT CAVOK 11/10 Q1022,1,0.0,0,9999.0,0,0,0,
2026-05-01 00:00:00,METAR LFLB 010000Z AUTO 20003KT CAVOK 12/10 Q1022,1,0.0,0,9999.0,0,0,0,
2026-04-30 23:30:00,METAR LFLB 302330Z AUTO 00000KT CAVOK 12/11 Q1022,1,0.0,0,9999.0,0,0,0,
2026-04-30 23:00:00,METAR LFLB 302300Z AUTO 31003KT 280V350 CAVOK 13/11 Q1022,1,0.0,0,9999.0,0,0,0,
2026-04-30 22:30:00,METAR LFLB 302230Z AUTO 00000KT CAVOK 13/11 Q1022,1,0.0,0,9999.0,0,0,0,
2026-04-30 22:00:00,METAR LFLB 302200Z AUTO VRB02KT CAVOK 13/11 Q1022,1,0.0,0,9999.0,0,0,0,
2026-04-30 21:30:00,METAR LFLB 302130Z AUTO VRB01KT 9999 FEW088 14/11 Q1021,0,1.0,0,10000.0,0,0,0,
2026-04-30 21:00:00,METAR LFLB 302100Z AUTO 31003KT 9999 FEW076 14/11 Q1021,0,3.0,0,10000.0,0,0,0,
2026-04-30 20:30:00,METAR LFLB 302030Z AUTO 30002KT 9999 BKN074 15/11 Q1021,0,2.0,0,10000.0,0,0,0,
2026-04-30 20:00:00,METAR LFLB 302000Z AUTO 00000KT 9999 SCT074 15/11 Q1020,0,0.0,0,10000.0,0,0,0,
2026-04-30 19:30:00,METAR LFLB 301930Z AUTO 29001KT 9999 FEW076 16/11 Q1020,0,1.0,0,10000.0,0,0,0,
2026-04-30 19:00:00,METAR LFLB 301900Z AUTO 00000KT CAVOK 18/10 Q1019 NOSIG,1,0.0,0,9999.0,0,0,0,
2026-04-30 18:30:00,METAR LFLB 301830Z AUTO VRB02KT 9999 FEW068 19/11 Q1019 NOSIG,0,2.0,0,10000.0,0,0,0,
2026-04-30 18:00:00,METAR LFLB 301800Z AUTO VRB02KT CAVOK 19/11 Q1019 TEMPO 4000 SHRA FEW050CB SCT055TCU,1,0.0,0,9999.0,0,0,0,
2026-04-30 17:30:00,METAR LFLB 301730Z AUTO 16007KT 9999 FEW066/// ///TCU 21/11 Q1018 TEMPO 4000 SHRA FEW050CB SCT055TCU,0,7.0,0,10000.0,0,0,0,"RA,SH"
2026-04-30 17:00:00,METAR LFLB 301700Z AUTO 15009KT 120V180 9999 BKN068/// BKN092/// ///TCU 22/12 Q1018 TEMPO VRB15G30KT 4000 SHRA FEW050CB SCT055TCU,0,9.0,0,10000.0,0,0,0,"RA,SH"
2026-04-30 16:30:00,METAR LFLB 301630Z AUTO 22007KT 190V270 9999 OVC066/// ///CB 23/11 Q1018 TEMPO VRB15G30KT 4000 SHRA,0,7.0,0,10000.0,0,0,0,"RA,SH"
2026-04-30 16:00:00,METAR LFLB 301600Z AUTO 35004KT 9999 BKN070/// BKN080/// ///CB 22/11 Q1018 TEMPO VRB15G30KT 2000 TSRA,0,4.0,0,10000.0,1,0,0,"RA,TS"
2026-04-30 15:00:00,METAR LFLB 301500Z AUTO 36004KT 9999 ///TCU 23/11 Q1017 TEMPO VRB15G30KT 2000 TSRA BKN050CB,0,4.0,0,10000.0,1,0,0,"RA,TS"
2026-04-30 14:30:00,METAR LFLB 301430Z AUTO 34005KT 300V020 CAVOK 23/13 Q1017 TEMPO VRB15G30KT 2000 TSRA BKN050CB,1,0.0,0,9999.0,0,0,0,
2026-04-30 14:00:00,METAR LFLB 301400Z AUTO 35006KT CAVOK 23/12 Q1017 TEMPO VRB15G30KT 2000 TSRA BKN050CB,1,0.0,0,9999.0,0,0,0,
2026-04-30 13:30:00,METAR LFLB 301330Z AUTO 34006KT 300V030 CAVOK 23/12 Q1018 TEMPO VRB15G30KT 2000 TSRA BKN050CB,1,0.0,0,9999.0,0,0,0,
2026-04-30 13:00:00,METAR LFLB 301300Z AUTO 34007KT 300V010 CAVOK 22/12 Q1018 TEMPO VRB15G30KT 2000 TSRA BKN050CB,1,0.0,0,9999.0,0,0,0,
2026-04-30 12:30:00,METAR LFLB 301230Z AUTO 35008KT CAVOK 22/11 Q1018 TEMPO VRB15G30KT 2000 TSRA BKN050CB,1,0.0,0,9999.0,0,0,0,
2026-04-30 12:00:00,METAR LFLB 301200Z AUTO 34006KT 310V020 CAVOK 21/10 Q1018 TEMPO VRB15G30KT 2000 TSRA BKN050CB,1,0.0,0,9999.0,0,0,0,
2026-04-30 11:30:00,METAR LFLB 301130Z AUTO 35008KT CAVOK 20/09 Q1019 TEMPO VRB15G30KT 2000 TSRA BKN050CB,1,0.0,0,9999.0,0,0,0,
2026-04-30 11:00:00,METAR LFLB 301100Z AUTO 36007KT CAVOK 20/10 Q1019 NOSIG,1,0.0,0,9999.0,0,0,0,
2026-04-30 10:30:00,METAR LFLB 301030Z AUTO 35007KT 300V020 CAVOK 19/09 Q1019 NOSIG,1,0.0,0,9999.0,0,0,0,
2026-04-30 10:00:00,METAR LFLB 301000Z AUTO 35007KT 320V020 CAVOK 19/10 Q1019 NOSIG,1,0.0,0,9999.0,0,0,0,
2026-04-30 09:30:00,METAR LFLB 300930Z AUTO 35006KT 310V020 CAVOK 18/07 Q1019 NOSIG,1,0.0,0,9999.0,0,0,0,
2026-04-30 09:00:00,METAR LFLB 300900Z AUTO 01009KT 330V040 CAVOK 18/08 Q1020 NOSIG,1,0.0,0,9999.0,0,0,0,
2026-04-30 08:30:00,METAR LFLB 300830Z AUTO 02010KT CAVOK 17/07 Q1020 NOSIG,1,0.0,0,9999.0,0,0,0,
2026-04-30 08:00:00,METAR LFLB 300800Z AUTO 03011KT CAVOK 17/07 Q1020 NOSIG,1,0.0,0,9999.0,0,0,0,
2026-04-30 07:30:00,METAR LFLB 300730Z AUTO 03010KT CAVOK 16/06 Q1020 NOSIG,1,0.0,0,9999.0,0,0,0,
2026-04-30 07:00:00,METAR LFLB 300700Z AUTO 03011KT CAVOK 15/06 Q1020 NOSIG,1,0.0,0,9999.0,0,0,0,
2026-04-30 06:30:00,METAR LFLB 300630Z AUTO 02013KT CAVOK 14/06 Q1019 NOSIG,1,0.0,0,9999.0,0,0,0,
2026-04-30 06:00:00,METAR LFLB 300600Z AUTO 03011KT 9999 FEW040 14/06 Q1019 NOSIG,0,11.0,0,10000.0,0,0,0,
2026-04-30 05:30:00,METAR LFLB 300530Z AUTO 02010KT 9999 FEW040 13/06 Q1019 NOSIG,0,10.0,0,10000.0,0,0,0,
2026-04-30 05:00:00,METAR LFLB 300500Z AUTO 03008KT CAVOK 12/07 Q1019 NOSIG,1,0.0,0,9999.0,0,0,0,
2026-04-30 04:30:00,METAR LFLB 300430Z AUTO VRB03KT CAVOK 12/08 Q1018 NOSIG,1,0.0,0,9999.0,0,0,0,
2026-04-30 04:00:00,METAR LFLB 300400Z AUTO 33004KT 290V040 CAVOK 12/08 Q1018 NOSIG,1,0.0,0,9999.0,0,0,0,
2026-04-30 03:30:00,METAR LFLB 300330Z AUTO VRB02KT CAVOK 11/08 Q1018 NOSIG,1,0.0,0,9999.0,0,0,0,
2026-04-30 03:00:00,METAR LFLB 300300Z AUTO VRB03KT CAVOK 12/09 Q1018 NOSIG,1,0.0,0,9999.0,0,0,0,
2026-04-30 02:30:00,METAR LFLB 300230Z AUTO 30003KT 250V320 9999 FEW044 11/09 Q1018 NOSIG,0,3.0,0,10000.0,0,0,0,
2026-04-30 02:00:00,METAR LFLB 300200Z AUTO VRB02KT CAVOK 12/09 Q1018,1,0.0,0,9999.0,0,0,0,
2026-04-30 01:30:00,METAR LFLB 300130Z AUTO VRB02KT CAVOK 11/09 Q1018,1,0.0,0,9999.0,0,0,0,
2026-04-30 01:00:00,METAR LFLB 300100Z AUTO VRB02KT CAVOK 12/10 Q1018,1,0.0,0,9999.0,0,0,0,
2026-04-30 00:30:00,METAR LFLB 300030Z AUTO VRB03KT CAVOK 13/10 Q1018,1,0.0,0,9999.0,0,0,0,
2026-04-30 00:00:00,METAR LFLB 300000Z AUTO 30003KT 240V340 CAVOK 13/10 Q1017,1,0.0,0,9999.0,0,0,0,
2026-04-29 23:30:00,METAR LFLB 292330Z AUTO VRB03KT CAVOK 14/10 Q1017,1,0.0,0,9999.0,0,0,0,
2026-04-29 23:00:00,METAR LFLB 292300Z AUTO VRB01KT CAVOK 14/10 Q1017,1,0.0,0,9999.0,0,0,0,
2026-04-29 22:00:00,METAR LFLB 292200Z AUTO 36005KT CAVOK 16/11 Q1017,1,0.0,0,9999.0,0,0,0,
2026-04-29 21:30:00,METAR LFLB 292130Z AUTO 36008KT 320V030 CAVOK 17/11 Q1016,1,0.0,0,9999.0,0,0,0,
2026-04-29 21:00:00,METAR LFLB 292100Z AUTO 01009KT CAVOK 17/11 Q1016,1,0.0,0,9999.0,0,0,0,
2026-04-29 20:30:00,METAR LFLB 292030Z AUTO 36010KT CAVOK 18/11 Q1016,1,0.0,0,9999.0,0,0,0,
2026-04-29 20:00:00,METAR LFLB 292000Z AUTO 01010KT CAVOK 18/11 Q1015,1,0.0,0,9999.0,0,0,0,
2026-04-29 19:30:00,METAR LFLB 291930Z AUTO 01011KT CAVOK 18/11 Q1015 NOSIG,1,0.0,0,9999.0,0,0,0,
2026-04-29 19:00:00,METAR LFLB 291900Z AUTO 01008KT CAVOK 18/12 Q1015 NOSIG,1,0.0,0,9999.0,0,0,0,
2026-04-29 18:30:00,METAR LFLB 291830Z AUTO 35009KT 320V020 CAVOK 20/11 Q1014 NOSIG,1,0.0,0,9999.0,0,0,0,
2026-04-29 18:00:00,METAR LFLB 291800Z AUTO 34008KT 310V010 CAVOK 20/12 Q1014 TEMPO FEW055TCU,1,0.0,0,9999.0,0,0,0,
2026-04-29 17:30:00,METAR LFLB 291730Z AUTO 34008KT 320V020 CAVOK 20/12 Q1014 TEMPO FEW055TCU,1,0.0,0,9999.0,0,0,0,
2026-04-29 17:00:00,METAR LFLB 291700Z AUTO 36010KT CAVOK 21/13 Q1014 TEMPO FEW055TCU,1,0.0,0,9999.0,0,0,0,
2026-04-29 16:30:00,METAR LFLB 291630Z AUTO 01010KT 330V040 CAVOK 21/14 Q1014 TEMPO FEW055TCU,1,0.0,0,9999.0,0,0,0,
2026-04-29 16:00:00,METAR LFLB 291600Z AUTO 35008KT CAVOK 22/13 Q1014 TEMPO FEW055TCU,1,0.0,0,9999.0,0,0,0,
2026-04-29 15:30:00,METAR LFLB 291530Z AUTO 35007KT CAVOK 23/14 Q1014 TEMPO FEW055TCU,1,0.0,0,9999.0,0,0,0,
2026-04-29 15:00:00,METAR LFLB 291500Z AUTO 35008KT CAVOK 23/14 Q1014 TEMPO FEW055TCU,1,0.0,0,9999.0,0,0,0,
2026-04-29 14:30:00,METAR LFLB 291430Z AUTO 35008KT CAVOK 22/13 Q1014 TEMPO FEW050CB,1,0.0,0,9999.0,0,0,0,
2026-04-29 14:00:00,METAR LFLB 291400Z AUTO 35007KT CAVOK 22/14 Q1014 TEMPO FEW055TCU,1,0.0,0,9999.0,0,0,0,
2026-04-29 13:30:00,METAR LFLB 291330Z AUTO 34007KT 300V020 CAVOK 22/14 Q1014 TEMPO FEW055TCU,1,0.0,0,9999.0,0,0,0,
2026-04-29 13:00:00,METAR LFLB 291300Z AUTO 35008KT CAVOK 21/14 Q1015 TEMPO FEW055TCU,1,0.0,0,9999.0,0,0,0,
2026-04-29 12:30:00,METAR LFLB 291230Z AUTO 35007KT 310V030 9999 FEW034 21/14 Q1015 TEMPO FEW055TCU,0,7.0,0,10000.0,0,0,0,
2026-04-29 12:00:00,METAR LFLB 291200Z AUTO 36005KT 300V030 9999 BKN034 20/14 Q1015 TEMPO FEW055TCU,0,5.0,0,10000.0,0,0,0,
2026-04-29 11:30:00,METAR LFLB 291130Z AUTO 35005KT 300V040 9999 OVC032 20/13 Q1016 TEMPO FEW055TCU,0,5.0,0,10000.0,0,0,0,
2026-04-29 11:00:00,METAR LFLB 291100Z AUTO 35004KT 320V020 9999 OVC032 19/13 Q1016 NOSIG,0,4.0,0,10000.0,0,0,0,
2026-04-29 10:30:00,METAR LFLB 291030Z AUTO VRB03KT 9999 BKN031 19/12 Q1016 NOSIG,0,3.0,0,10000.0,0,0,0,
2026-04-29 10:00:00,METAR LFLB 291000Z AUTO VRB03KT 9999 BKN028 17/11 Q1016 NOSIG,0,3.0,0,10000.0,0,0,0,
2026-04-29 09:30:00,METAR LFLB 290930Z AUTO 35005KT 310V030 9999 OVC029 17/12 Q1016 NOSIG,0,5.0,0,10000.0,0,0,0,
2026-04-29 09:00:00,METAR LFLB 290900Z AUTO 35005KT 310V020 9999 OVC029 17/12 Q1016 NOSIG,0,5.0,0,10000.0,0,0,0,
2026-04-29 08:30:00,METAR LFLB 290830Z AUTO 35005KT 320V020 9999 OVC029 16/12 Q1016 NOSIG,0,5.0,0,10000.0,0,0,0,
2026-04-29 08:00:00,METAR LFLB 290800Z AUTO 36006KT 9999 BKN029 16/12 Q1016 NOSIG,0,6.0,0,10000.0,0,0,0,
2026-04-29 07:30:00,METAR LFLB 290730Z AUTO 36005KT 320V050 9999 OVC028 16/13 Q1016 NOSIG,0,5.0,0,10000.0,0,0,0,
2026-04-29 07:00:00,METAR LFLB 290700Z AUTO 01005KT 9999 OVC029 15/12 Q1016 NOSIG,0,5.0,0,10000.0,0,0,0,
2026-04-29 06:30:00,METAR LFLB 290630Z AUTO 01005KT 9999 OVC027 14/12 Q1016 NOSIG,0,5.0,0,10000.0,0,0,0,
2026-04-29 06:00:00,METAR LFLB 290600Z AUTO 36006KT 320V020 9999 OVC026 14/12 Q1016 NOSIG,0,6.0,0,10000.0,0,0,0,
2026-04-29 05:30:00,METAR LFLB 290530Z AUTO 33004KT 300V360 9999 OVC026 14/12 Q1015 TEMPO 4000 BR BKN008,0,4.0,0,10000.0,0,0,1,BR
2026-04-29 05:00:00,METAR LFLB 290500Z AUTO 36005KT 280V040 9999 OVC026 14/12 Q1015 TEMPO 4000 BR BKN008,0,5.0,0,10000.0,0,0,1,BR
2026-04-29 04:30:00,METAR LFLB 290430Z AUTO 34003KT 9999 OVC027 14/12 Q1015 TEMPO 4000 BR BKN008,0,3.0,0,10000.0,0,0,1,BR
2026-04-29 04:00:00,METAR LFLB 290400Z AUTO 01004KT 9999 FEW014 OVC027 14/12 Q1015 TEMPO 4000 BR BKN008,0,4.0,0,10000.0,0,0,1,BR
2026-04-29 03:30:00,METAR LFLB 290330Z AUTO 36004KT 320V020 9999 OVC027 14/12 Q1015 TEMPO 4000 BR BKN008,0,4.0,0,10000.0,0,0,1,BR
2026-04-29 03:00:00,METAR LFLB 290300Z AUTO 01007KT 9999 OVC026 14/13 Q1015 TEMPO 4000 BR BKN008,0,7.0,0,10000.0,0,0,1,BR
2026-04-29 02:30:00,METAR LFLB 290230Z AUTO 01006KT 340V040 9999 OVC026 14/13 Q1015 TEMPO 4000 BR BKN008,0,6.0,0,10000.0,0,0,1,BR
2026-04-29 02:00:00,METAR LFLB 290200Z AUTO 00000KT 8000 FEW013 OVC026 14/13 Q1015,0,0.0,0,8000.0,0,0,0,
2026-04-29 01:30:00,METAR LFLB 290130Z AUTO VRB02KT 7000 OVC025 14/13 Q1015,0,2.0,0,7000.0,0,0,0,
2026-04-29 01:00:00,METAR LFLB 290100Z AUTO VRB01KT 9999 OVC025 14/13 Q1015,0,1.0,0,10000.0,0,0,0,
2026-04-29 00:30:00,METAR LFLB 290030Z AUTO VRB01KT 9999 FEW009 OVC025 14/13 Q1015,0,1.0,0,10000.0,0,0,0,
2026-04-29 00:00:00,METAR LFLB 290000Z AUTO 00000KT 9999 OVC025 14/13 Q1015,0,0.0,0,10000.0,0,0,0,
2026-04-28 23:30:00,METAR LFLB 282330Z AUTO VRB02KT 9999 FEW021 BKN027 BKN032 14/13 Q1016,0,2.0,0,10000.0,0,0,0,
2026-04-28 23:00:00,METAR LFLB 282300Z AUTO VRB03KT 7000 FEW012 SCT020 BKN029 14/13 Q1015,0,3.0,0,7000.0,0,0,0,
2026-04-28 22:30:00,METAR LFLB 282230Z AUTO 31002KT 6000 FEW005 SCT018 BKN030 14/13 Q1015,0,2.0,0,6000.0,0,0,0,
2026-04-28 22:00:00,METAR LFLB 282200Z AUTO VRB02KT 6000 BKN005 BKN009 OVC017 14/14 Q1016,0,2.0,0,6000.0,0,0,0,
2026-04-28 21:30:00,METAR LFLB 282130Z AUTO 35002KT 9999 -RA SCT007 BKN015 BKN048 14/13 Q1016,0,2.0,0,10000.0,0,0,0,-RA
2026-04-28 21:00:00,METAR LFLB 282100Z AUTO 31003KT 280V350 9999 -RA BKN016 OVC086 14/13 Q1016,0,3.0,0,10000.0,0,0,0,-RA
2026-04-28 20:30:00,METAR LFLB 282030Z AUTO VRB02KT 6000 -RA OVC017 14/14 Q1016,0,2.0,0,6000.0,0,0,0,-RA
2026-04-28 20:00:00,METAR LFLB 282000Z AUTO 27002KT 7000 -RA SCT013/// OVC020/// ///CB 14/14 Q1016,0,2.0,0,7000.0,0,0,0,-RA
2026-04-28 19:30:00,METAR LFLB 281930Z AUTO VRB03KT 5000 RA BR FEW008/// BKN022/// BKN041/// ///CB 14/14 Q1016,0,3.0,0,5000.0,0,0,1,"BR,RA"
2026-04-28 19:00:00,METAR LFLB 281900Z AUTO 36005KT 5000 RA BR FEW010/// OVC080/// ///CB 14/14 Q1016 TEMPO VRB15KT BKN012,0,5.0,0,5000.0,0,0,1,"BR,RA"
2026-04-28 18:30:00,METAR LFLB 281830Z AUTO 02004KT 5000 RA BR FEW060/// OVC080/// ///CB 14/13 Q1016 TEMPO VRB15KT BKN012,0,4.0,0,5000.0,0,0,1,"BR,RA"
2026-04-28 18:00:00,METAR LFLB 281800Z AUTO 36004KT 330V050 5000 RA BR FEW041/// BKN060/// OVC082/// ///CB 15/14 Q1016 TEMPO VRB15KT TSRA BKN012,0,4.0,0,5000.0,1,0,1,"BR,RA,TS"
2026-04-28 17:30:00,METAR LFLB 281730Z AUTO 01007KT 6000 -RA FEW012/// SCT023/// BKN034/// ///CB 15/14 Q1015 TEMPO 3000 SHRA BKN012,0,7.0,0,6000.0,0,0,0,"-RA,RA,SH"
2026-04-28 17:00:00,METAR LFLB 281700Z AUTO 03009KT 4700 RA BR FEW010/// SCT015/// BKN020/// ///CB 15/14 Q1015 TEMPO TSRA,0,9.0,0,4700.0,1,0,1,"BR,RA,TS"
2026-04-28 16:30:00,METAR LFLB 281630Z AUTO 01008KT 310V060 2600 RA BR SCT010/// BKN017/// BKN026/// ///CB 15/14 Q1015 TEMPO 3000 SHRA,0,8.0,0,2600.0,0,0,1,"BR,RA,SH"
2026-04-28 16:00:00,METAR LFLB 281600Z AUTO 19005KT 9999 2300 RA FEW026/// BKN047/// BKN056/// ///CB 16/15 Q1015 TEMPO VRB15KT 3000 SHRA,0,5.0,0,10000.0,0,0,0,"RA,SH"
2026-04-28 15:30:00,METAR LFLB 281530Z AUTO VRB02KT 9999 -RA FEW029/// BKN072/// OVC088/// ///CB 17/15 Q1014 TEMPO VRB15KT 3000 SHRA,0,2.0,0,10000.0,0,0,0,"-RA,RA,SH"
2026-04-28 15:00:00,METAR LFLB 281500Z AUTO 17004KT 140V210 6000 RA VCTS FEW068/// OVC082/// ///CB 17/15 Q1013 TEMPO VRB15KT 3000 SHRA,0,4.0,0,6000.0,1,0,0,"RA,SH,TS,VC"
2026-04-28 14:30:00,METAR LFLB 281430Z AUTO 36007KT 9999 -RA VCTS FEW052/// OVC086/// ///CB 18/13 Q1013 TEMPO 3000 SHRA,0,7.0,0,10000.0,1,0,0,"-RA,RA,SH,TS,VC"
2026-04-28 14:00:00,METAR LFLB 281400Z AUTO 35005KT 310V020 9999 FEW023/// SCT070/// OVC098/// ///CB 19/13 Q1013 TEMPO VRB15KT 3000 SHRA,0,5.0,0,10000.0,0,0,0,"RA,SH"
2026-04-28 13:30:00,METAR LFLB 281330Z AUTO 32004KT 260V010 9999 FEW062 BKN100 BKN130 20/11 Q1013 TEMPO VRB15KT 3000 SHRA SCT010 BKN030CB,0,4.0,0,10000.0,0,0,0,"RA,SH"
2026-04-28 13:00:00,METAR LFLB 281300Z AUTO 34005KT 280V010 9999 ///TCU 20/13 Q1013 TEMPO VRB15KT 3000 SHRA SCT010 BKN030CB,0,5.0,0,10000.0,0,0,0,"RA,SH"
2026-04-28 12:30:00,METAR LFLB 281230Z AUTO 34005KT CAVOK 21/11 Q1013 TEMPO VRB15KT 3000 SHRA SCT010 BKN030CB,1,0.0,0,9999.0,0,0,0,
2026-04-28 12:00:00,METAR LFLB 281200Z AUTO 36005KT CAVOK 20/12 Q1014 TEMPO VRB15KT 3000 SHRA SCT010 BKN030CB,1,0.0,0,9999.0,0,0,0,
2026-04-28 11:30:00,METAR LFLB 281130Z AUTO 35007KT 320V030 CAVOK 20/12 Q1014 TEMPO 3000 SHRA SCT010 BKN030CB,1,0.0,0,9999.0,0,0,0,
2026-04-28 11:00:00,METAR LFLB 281100Z AUTO 36005KT 330V030 CAVOK 20/11 Q1014 NOSIG,1,0.0,0,9999.0,0,0,0,
2026-04-28 10:30:00,METAR LFLB 281030Z AUTO 36005KT CAVOK 19/11 Q1014 NOSIG,1,0.0,0,9999.0,0,0,0,
2026-04-28 10:00:00,METAR LFLB 281000Z AUTO 01003KT 310V070 CAVOK 19/11 Q1015 NOSIG,1,0.0,0,9999.0,0,0,0,
2026-04-28 09:30:00,METAR LFLB 280930Z AUTO 36004KT 310V040 CAVOK 18/11 Q1015 NOSIG,1,0.0,0,9999.0,0,0,0,
2026-04-28 09:00:00,METAR LFLB 280900Z AUTO 01003KT 340V060 CAVOK 17/10 Q1015 NOSIG,1,0.0,0,9999.0,0,0,0,
2026-04-28 08:30:00,METAR LFLB 280830Z AUTO 36005KT 330V030 CAVOK 15/10 Q1015 NOSIG,1,0.0,0,9999.0,0,0,0,
2026-04-28 08:00:00,METAR LFLB 280800Z AUTO 02007KT CAVOK 14/11 Q1015 TEMPO -TSRA SCT070CB,1,0.0,0,9999.0,0,0,0,
2026-04-28 07:30:00,METAR LFLB 280730Z AUTO 35003KT 300V020 CAVOK 13/11 Q1015 TEMPO -TSRA SCT070CB,1,0.0,0,9999.0,0,0,0,
2026-04-28 07:00:00,METAR LFLB 280700Z AUTO 32002KT 9999 ///TCU 12/11 Q1015 TEMPO -TSRA SCT070CB,0,2.0,0,10000.0,1,0,0,RA
2026-04-28 06:30:00,METAR LFLB 280630Z AUTO 00000KT 9999 FEW038/// SCT092/// BKN110/// ///TCU 12/11 Q1015 TEMPO -TSRA SCT070CB,0,0.0,0,10000.0,1,0,0,RA
2026-04-28 06:00:00,METAR LFLB 280600Z AUTO VRB02KT 8000 -RA FEW052/// BKN072/// BKN086/// ///TCU 12/11 Q1015 TEMPO -TSRA SCT070CB,0,2.0,0,8000.0,1,0,0,"-RA,RA"
2026-04-28 05:30:00,METAR LFLB 280530Z AUTO 00000KT 9999 -RA FEW049/// OVC086/// ///TCU 12/10 Q1015 TEMPO -TSRA SCT070CB,0,0.0,0,10000.0,1,0,0,"-RA,RA"
2026-04-28 05:00:00,METAR LFLB 280500Z AUTO 20001KT 9999 SCT078/// OVC090/// ///TCU 12/09 Q1015 NOSIG,0,1.0,0,10000.0,0,0,0,
2026-04-28 04:30:00,METAR LFLB 280430Z AUTO 17002KT 9999 FEW076/// BKN090/// OVC100/// ///TCU 12/09 Q1015 NOSIG,0,2.0,0,10000.0,0,0,0,
2026-04-28 04:00:00,METAR LFLB 280400Z AUTO 00000KT CAVOK 12/09 Q1015 TEMPO SCT080TCU,1,0.0,0,9999.0,0,0,0,
2026-04-28 03:30:00,METAR LFLB 280330Z AUTO VRB01KT CAVOK 12/08 Q1015 TEMPO SCT080TCU,1,0.0,0,9999.0,0,0,0,
2026-04-28 03:00:00,METAR LFLB 280300Z AUTO VRB01KT CAVOK 12/08 Q1015 NOSIG,1,0.0,0,9999.0,0,0,0,
2026-04-28 02:30:00,METAR LFLB 280230Z AUTO 00000KT CAVOK 11/08 Q1016,1,0.0,0,9999.0,0,0,0,
2026-04-28 02:00:00,METAR LFLB 280200Z AUTO 19002KT CAVOK 11/08 Q1016,1,0.0,0,9999.0,0,0,0,
2026-04-28 01:30:00,METAR LFLB 280130Z AUTO VRB02KT CAVOK 11/08 Q1016,1,0.0,0,9999.0,0,0,0,
2026-04-28 01:00:00,METAR LFLB 280100Z AUTO 17003KT CAVOK 11/08 Q1016,1,0.0,0,9999.0,0,0,0,
2026-04-28 00:30:00,METAR LFLB 280030Z AUTO 00000KT CAVOK 10/07 Q1016,1,0.0,0,9999.0,0,0,0,
2026-04-28 00:00:00,METAR LFLB 280000Z AUTO 18002KT CAVOK 09/07 Q1016,1,0.0,0,9999.0,0,0,0,
2026-04-27 23:30:00,METAR LFLB 272330Z AUTO VRB01KT CAVOK 09/07 Q1016,1,0.0,0,9999.0,0,0,0,
2026-04-27 23:00:00,METAR LFLB 272300Z AUTO 23002KT CAVOK 10/07 Q1016,1,0.0,0,9999.0,0,0,0,
2026-04-27 22:30:00,METAR LFLB 272230Z AUTO VRB02KT CAVOK 11/07 Q1016,1,0.0,0,9999.0,0,0,0,
2026-04-27 22:00:00,METAR LFLB 272200Z AUTO VRB02KT CAVOK 10/07 Q1016,1,0.0,0,9999.0,0,0,0,
2026-04-27 21:30:00,METAR LFLB 272130Z AUTO 28002KT CAVOK 11/08 Q1016,1,0.0,0,9999.0,0,0,0,
2026-04-27 21:00:00,METAR LFLB 272100Z AUTO VRB03KT CAVOK 12/07 Q1016,1,0.0,0,9999.0,0,0,0,
2026-04-27 20:30:00,METAR LFLB 272030Z AUTO VRB02KT CAVOK 12/08 Q1016,1,0.0,0,9999.0,0,0,0,
2026-04-27 20:00:00,METAR LFLB 272000Z AUTO VRB02KT CAVOK 13/08 Q1016,1,0.0,0,9999.0,0,0,0,
2026-04-27 19:30:00,METAR LFLB 271930Z AUTO 00000KT CAVOK 14/09 Q1016,1,0.0,0,9999.0,0,0,0,
2026-04-27 19:00:00,METAR LFLB 271900Z AUTO 31002KT CAVOK 17/09 Q1016 NOSIG,1,0.0,0,9999.0,0,0,0,
2026-04-27 18:30:00,METAR LFLB 271830Z AUTO 00000KT CAVOK 18/08 Q1015 NOSIG,1,0.0,0,9999.0,0,0,0,
2026-04-27 18:00:00,METAR LFLB 271800Z AUTO VRB02KT CAVOK 19/09 Q1015 NOSIG,1,0.0,0,9999.0,0,0,0,
2026-04-27 17:30:00,METAR LFLB 271730Z AUTO 29003KT CAVOK 22/09 Q1015 NOSIG,1,0.0,0,9999.0,0,0,0,
2026-04-27 17:00:00,METAR LFLB 271700Z AUTO VRB02KT CAVOK 25/09 Q1015 NOSIG,1,0.0,0,9999.0,0,0,0,
2026-04-27 16:30:00,METAR LFLB 271630Z AUTO 01003KT CAVOK 25/09 Q1015 NOSIG,1,0.0,0,9999.0,0,0,0,
2026-04-27 16:00:00,METAR LFLB 271600Z AUTO 01003KT 340V040 CAVOK 25/08 Q1015 NOSIG,1,0.0,0,9999.0,0,0,0,
2026-04-27 15:30:00,METAR LFLB 271530Z AUTO 02003KT CAVOK 25/09 Q1016 NOSIG,1,0.0,0,9999.0,0,0,0,
2026-04-27 15:00:00,METAR LFLB 271500Z AUTO 03004KT 350V060 CAVOK 25/10 Q1016 NOSIG,1,0.0,0,9999.0,0,0,0,
2026-04-27 14:30:00,METAR LFLB 271430Z AUTO 02006KT CAVOK 24/09 Q1016 NOSIG,1,0.0,0,9999.0,0,0,0,
2026-04-27 14:00:00,METAR LFLB 271400Z AUTO 03005KT 360V060 CAVOK 24/09 Q1016 NOSIG,1,0.0,0,9999.0,0,0,0,
2026-04-27 13:30:00,METAR LFLB 271330Z AUTO 01004KT 340V040 CAVOK 24/08 Q1017 NOSIG,1,0.0,0,9999.0,0,0,0,
2026-04-27 13:00:00,METAR LFLB 271300Z AUTO 36004KT 320V060 CAVOK 24/08 Q1017 NOSIG,1,0.0,0,9999.0,0,0,0,
2026-04-27 12:30:00,METAR LFLB 271230Z AUTO 36003KT 280V070 CAVOK 23/08 Q1018 NOSIG,1,0.0,0,9999.0,0,0,0,
2026-04-27 12:00:00,METAR LFLB 271200Z AUTO 36004KT 300V050 CAVOK 23/08 Q1018 NOSIG,1,0.0,0,9999.0,0,0,0,
2026-04-27 11:30:00,METAR LFLB 271130Z AUTO 36004KT 320V040 CAVOK 21/08 Q1018 NOSIG,1,0.0,0,9999.0,0,0,0,
2026-04-27 11:00:00,METAR LFLB 271100Z AUTO 01006KT 340V040 CAVOK 21/06 Q1018 NOSIG,1,0.0,0,9999.0,0,0,0,
2026-04-27 10:30:00,METAR LFLB 271030Z AUTO 36004KT 310V050 CAVOK 21/09 Q1019 NOSIG,1,0.0,0,9999.0,0,0,0,
2026-04-27 10:00:00,METAR LFLB 271000Z AUTO 01005KT 310V050 CAVOK 21/08 Q1019 NOSIG,1,0.0,0,9999.0,0,0,0,
2026-04-27 09:30:00,METAR LFLB 270930Z AUTO 04004KT 010V090 CAVOK 20/08 Q1019 NOSIG,1,0.0,0,9999.0,0,0,0,
2026-04-27 09:00:00,METAR LFLB 270900Z AUTO VRB03KT CAVOK 19/07 Q1019 NOSIG,1,0.0,0,9999.0,0,0,0,
2026-04-27 08:30:00,METAR LFLB 270830Z AUTO VRB02KT CAVOK 18/08 Q1019 NOSIG,1,0.0,0,9999.0,0,0,0,
2026-04-27 08:00:00,METAR LFLB 270800Z AUTO VRB01KT CAVOK 17/09 Q1020 NOSIG,1,0.0,0,9999.0,0,0,0,
2026-04-27 07:30:00,METAR LFLB 270730Z AUTO VRB01KT CAVOK 16/09 Q1020 NOSIG,1,0.0,0,9999.0,0,0,0,
2026-04-27 07:00:00,METAR LFLB 270700Z AUTO VRB02KT CAVOK 14/08 Q1020 NOSIG,1,0.0,0,9999.0,0,0,0,
2026-04-27 06:30:00,METAR LFLB 270630Z AUTO 00000KT CAVOK 12/09 Q1020 NOSIG,1,0.0,0,9999.0,0,0,0,
2026-04-27 06:00:00,METAR LFLB 270600Z AUTO VRB02KT CAVOK 09/08 Q1020 NOSIG,1,0.0,0,9999.0,0,0,0,
2026-04-27 05:30:00,METAR LFLB 270530Z AUTO 16002KT CAVOK 06/05 Q1020 NOSIG,1,0.0,0,9999.0,0,0,0,
2026-04-27 05:00:00,METAR LFLB 270500Z AUTO 19004KT CAVOK 06/06 Q1020 NOSIG,1,0.0,0,9999.0,0,0,0,
2026-04-27 04:30:00,METAR LFLB 270430Z AUTO 16002KT CAVOK 06/05 Q1020 NOSIG,1,0.0,0,9999.0,0,0,0,
2026-04-27 04:00:00,METAR LFLB 270400Z AUTO VRB01KT CAVOK 07/06 Q1020 NOSIG,1,0.0,0,9999.0,0,0,0,
2026-04-27 03:30:00,METAR LFLB 270330Z AUTO 16002KT 9999 2800 NSC 07/06 Q1020 NOSIG,0,2.0,0,10000.0,0,0,0,
2026-04-27 03:00:00,METAR LFLB 270300Z AUTO VRB01KT CAVOK 07/06 Q1020 NOSIG,1,0.0,0,9999.0,0,0,0,
2026-04-27 02:30:00,METAR LFLB 270230Z AUTO 21001KT CAVOK 08/07 Q1020 NOSIG,1,0.0,0,9999.0,0,0,0,
2026-04-27 02:00:00,METAR LFLB 270200Z AUTO 00000KT CAVOK 08/07 Q1020,1,0.0,0,9999.0,0,0,0,
2026-04-27 01:30:00,METAR LFLB 270130Z AUTO 17002KT CAVOK 08/07 Q1020,1,0.0,0,9999.0,0,0,0,
2026-04-27 01:00:00,METAR LFLB 270100Z AUTO 18001KT CAVOK 09/08 Q1019,1,0.0,0,9999.0,0,0,0,
2026-04-27 00:30:00,METAR LFLB 270030Z AUTO 18002KT CAVOK 09/08 Q1020,1,0.0,0,9999.0,0,0,0,
2026-04-27 00:00:00,METAR LFLB 270000Z AUTO 19003KT CAVOK 09/07 Q1020,1,0.0,0,9999.0,0,0,0,
2026-04-26 23:30:00,METAR LFLB 262330Z AUTO 18002KT CAVOK 10/08 Q1020,1,0.0,0,9999.0,0,0,0,
2026-04-26 23:00:00,METAR LFLB 262300Z AUTO 19002KT CAVOK 10/08 Q1019,1,0.0,0,9999.0,0,0,0,
2026-04-26 22:30:00,METAR LFLB 262230Z AUTO VRB02KT CAVOK 11/08 Q1019,1,0.0,0,9999.0,0,0,0,
2026-04-26 22:00:00,METAR LFLB 262200Z AUTO VRB01KT CAVOK 12/08 Q1019,1,0.0,0,9999.0,0,0,0,
2026-04-26 21:30:00,METAR LFLB 262130Z AUTO VRB01KT CAVOK 12/08 Q1019,1,0.0,0,9999.0,0,0,0,
2026-04-26 21:00:00,METAR LFLB 262100Z AUTO 16001KT CAVOK 12/08 Q1019,1,0.0,0,9999.0,0,0,0,
2026-04-26 20:30:00,METAR LFLB 262030Z AUTO VRB01KT CAVOK 13/09 Q1018,1,0.0,0,9999.0,0,0,0,
2026-04-26 20:00:00,METAR LFLB 262000Z AUTO 22001KT CAVOK 14/09 Q1018,1,0.0,0,9999.0,0,0,0,
2026-04-26 19:30:00,METAR LFLB 261930Z AUTO 00000KT CAVOK 14/09 Q1018,1,0.0,0,9999.0,0,0,0,
2026-04-26 19:00:00,METAR LFLB 261900Z AUTO VRB02KT CAVOK 15/09 Q1018 NOSIG,1,0.0,0,9999.0,0,0,0,
2026-04-26 18:30:00,METAR LFLB 261830Z AUTO VRB02KT CAVOK 17/10 Q1017 NOSIG,1,0.0,0,9999.0,0,0,0,
2026-04-26 18:00:00,METAR LFLB 261800Z AUTO VRB02KT CAVOK 18/09 Q1017 NOSIG,1,0.0,0,9999.0,0,0,0,
2026-04-26 17:30:00,METAR LFLB 261730Z AUTO VRB02KT CAVOK 21/09 Q1017 NOSIG,1,0.0,0,9999.0,0,0,0,
2026-04-26 17:00:00,METAR LFLB 261700Z AUTO 31003KT 270V020 CAVOK 24/08 Q1017 NOSIG,1,0.0,0,9999.0,0,0,0,
2026-04-26 16:30:00,METAR LFLB 261630Z AUTO 35004KT 300V020 CAVOK 25/10 Q1017 NOSIG,1,0.0,0,9999.0,0,0,0,
2026-04-26 16:00:00,METAR LFLB 261600Z AUTO 35005KT 320V030 CAVOK 25/08 Q1017 NOSIG,1,0.0,0,9999.0,0,0,0,
2026-04-26 15:30:00,METAR LFLB 261530Z AUTO 01007KT CAVOK 25/09 Q1017 NOSIG,1,0.0,0,9999.0,0,0,0,
2026-04-26 15:00:00,METAR LFLB 261500Z AUTO 01008KT CAVOK 25/09 Q1017 NOSIG,1,0.0,0,9999.0,0,0,0,
2026-04-26 14:30:00,METAR LFLB 261430Z AUTO 36007KT 330V030 CAVOK 24/08 Q1017 NOSIG,1,0.0,0,9999.0,0,0,0,
2026-04-26 14:00:00,METAR LFLB 261400Z AUTO 36007KT 330V030 CAVOK 24/09 Q1018 NOSIG,1,0.0,0,9999.0,0,0,0,
2026-04-26 13:30:00,METAR LFLB 261330Z AUTO 36008KT CAVOK 24/09 Q1018 NOSIG,1,0.0,0,9999.0,0,0,0,
2026-04-26 13:00:00,METAR LFLB 261300Z AUTO 02009KT CAVOK 24/08 Q1018 NOSIG,1,0.0,0,9999.0,0,0,0,
2026-04-26 12:30:00,METAR LFLB 261230Z AUTO 02008KT CAVOK 23/09 Q1018 NOSIG,1,0.0,0,9999.0,0,0,0,
2026-04-26 12:00:00,METAR LFLB 261200Z AUTO 02009KT CAVOK 22/09 Q1018 NOSIG,1,0.0,0,9999.0,0,0,0,
2026-04-26 11:30:00,METAR LFLB 261130Z AUTO 02009KT CAVOK 21/08 Q1019 NOSIG,1,0.0,0,9999.0,0,0,0,
2026-04-26 11:00:00,METAR LFLB 261100Z AUTO 36005KT 300V050 CAVOK 20/11 Q1019 NOSIG,1,0.0,0,9999.0,0,0,0,
2026-04-26 10:30:00,METAR LFLB 261030Z AUTO 35005KT 300V030 CAVOK 18/08 Q1019 NOSIG,1,0.0,0,9999.0,0,0,0,
2026-04-26 10:00:00,METAR LFLB 261000Z AUTO 36006KT CAVOK 17/10 Q1019 NOSIG,1,0.0,0,9999.0,0,0,0,
2026-04-26 09:30:00,METAR LFLB 260930Z AUTO 35005KT 320V020 CAVOK 19/07 Q1019 NOSIG,1,0.0,0,9999.0,0,0,0,
2026-04-26 09:00:00,METAR LFLB 260900Z AUTO 35004KT 320V030 CAVOK 18/08 Q1019 NOSIG,1,0.0,0,9999.0,0,0,0,
2026-04-26 08:30:00,METAR LFLB 260830Z AUTO VRB02KT CAVOK 17/08 Q1020 NOSIG,1,0.0,0,9999.0,0,0,0,
2026-04-26 08:00:00,METAR LFLB 260800Z AUTO VRB01KT CAVOK 16/07 Q1020 NOSIG,1,0.0,0,9999.0,0,0,0,
2026-04-26 07:30:00,METAR LFLB 260730Z AUTO VRB03KT CAVOK 14/08 Q1020 NOSIG,1,0.0,0,9999.0,0,0,0,
2026-04-26 07:00:00,METAR LFLB 260700Z AUTO VRB02KT CAVOK 12/07 Q1020 NOSIG,1,0.0,0,9999.0,0,0,0,
2026-04-26 06:30:00,METAR LFLB 260630Z AUTO VRB02KT CAVOK 11/07 Q1020 NOSIG,1,0.0,0,9999.0,0,0,0,
2026-04-26 06:00:00,METAR LFLB 260600Z AUTO 00000KT CAVOK 09/08 Q1020 NOSIG,1,0.0,0,9999.0,0,0,0,
2026-04-26 05:30:00,METAR LFLB 260530Z AUTO VRB02KT CAVOK 07/06 Q1019 NOSIG,1,0.0,0,9999.0,0,0,0,
2026-04-26 05:00:00,METAR LFLB 260500Z AUTO VRB01KT CAVOK 06/05 Q1019 NOSIG,1,0.0,0,9999.0,0,0,0,
2026-04-26 04:30:00,METAR LFLB 260430Z AUTO 18003KT CAVOK 05/04 Q1019 NOSIG,1,0.0,0,9999.0,0,0,0,
2026-04-26 04:00:00,METAR LFLB 260400Z AUTO VRB02KT CAVOK 07/05 Q1019 NOSIG,1,0.0,0,9999.0,0,0,0,
2026-04-26 03:30:00,METAR LFLB 260330Z AUTO VRB02KT CAVOK 07/06 Q1019 NOSIG,1,0.0,0,9999.0,0,0,0,
2026-04-26 03:00:00,METAR LFLB 260300Z AUTO 18002KT CAVOK 07/06 Q1019 NOSIG,1,0.0,0,9999.0,0,0,0,
2026-04-26 02:30:00,METAR LFLB 260230Z AUTO 17002KT CAVOK 07/06 Q1019 NOSIG,1,0.0,0,9999.0,0,0,0,
2026-04-26 02:00:00,METAR LFLB 260200Z AUTO 18002KT CAVOK 08/06 Q1019,1,0.0,0,9999.0,0,0,0,
2026-04-26 01:30:00,METAR LFLB 260130Z AUTO 15002KT CAVOK 08/06 Q1018,1,0.0,0,9999.0,0,0,0,
2026-04-26 01:00:00,METAR LFLB 260100Z AUTO VRB02KT CAVOK 09/07 Q1018,1,0.0,0,9999.0,0,0,0,
2026-04-26 00:30:00,METAR LFLB 260030Z AUTO VRB02KT CAVOK 09/07 Q1018,1,0.0,0,9999.0,0,0,0,
2026-04-26 00:00:00,METAR LFLB 260000Z AUTO 18002KT CAVOK 09/07 Q1018,1,0.0,0,9999.0,0,0,0,
2026-04-25 23:30:00,METAR LFLB 252330Z AUTO VRB01KT CAVOK 10/07 Q1018,1,0.0,0,9999.0,0,0,0,
2026-04-25 23:00:00,METAR LFLB 252300Z AUTO 28001KT CAVOK 10/07 Q1018,1,0.0,0,9999.0,0,0,0,
2026-04-25 22:30:00,METAR LFLB 252230Z AUTO 20002KT CAVOK 11/07 Q1018,1,0.0,0,9999.0,0,0,0,
2026-04-25 22:00:00,METAR LFLB 252200Z AUTO 14002KT CAVOK 12/07 Q1018,1,0.0,0,9999.0,0,0,0,
2026-04-25 21:30:00,METAR LFLB 252130Z AUTO VRB02KT CAVOK 12/07 Q1017,1,0.0,0,9999.0,0,0,0,
2026-04-25 21:00:00,METAR LFLB 252100Z AUTO VRB02KT CAVOK 15/06 Q1017,1,0.0,0,9999.0,0,0,0,
2026-04-25 20:30:00,METAR LFLB 252030Z AUTO 27003KT 240V330 CAVOK 15/07 Q1017,1,0.0,0,9999.0,0,0,0,
2026-04-25 20:00:00,METAR LFLB 252000Z AUTO VRB02KT CAVOK 16/07 Q1017,1,0.0,0,9999.0,0,0,0,
2026-04-25 19:30:00,METAR LFLB 251930Z AUTO VRB02KT CAVOK 17/06 Q1016,1,0.0,0,9999.0,0,0,0,
2026-04-25 19:00:00,METAR LFLB 251900Z AUTO 36005KT 320V040 CAVOK 20/05 Q1016 NOSIG,1,0.0,0,9999.0,0,0,0,
2026-04-25 18:30:00,METAR LFLB 251830Z AUTO 34007KT 290V010 CAVOK 22/05 Q1015 NOSIG,1,0.0,0,9999.0,0,0,0,
2026-04-25 18:00:00,METAR LFLB 251800Z AUTO 34004KT 280V040 CAVOK 22/04 Q1015 NOSIG,1,0.0,0,9999.0,0,0,0,
2026-04-25 17:30:00,METAR LFLB 251730Z AUTO 34006KT 290V020 CAVOK 23/05 Q1015 NOSIG,1,0.0,0,9999.0,0,0,0,
2026-04-25 17:00:00,METAR LFLB 251700Z AUTO 35006KT 310V040 CAVOK 24/07 Q1015 NOSIG,1,0.0,0,9999.0,0,0,0,
2026-04-25 16:30:00,METAR LFLB 251630Z AUTO 33004KT 290V040 CAVOK 26/08 Q1015 NOSIG,1,0.0,0,9999.0,0,0,0,
2026-04-25 16:00:00,METAR LFLB 251600Z AUTO 33006KT 270V010 CAVOK 25/08 Q1015 NOSIG,1,0.0,0,9999.0,0,0,0,
2026-04-25 15:30:00,METAR LFLB 251530Z AUTO 36008KT 330V030 CAVOK 25/09 Q1015 NOSIG,1,0.0,0,9999.0,0,0,0,
2026-04-25 15:00:00,METAR LFLB 251500Z AUTO 36006KT 320V030 CAVOK 25/08 Q1015 NOSIG,1,0.0,0,9999.0,0,0,0,
2026-04-25 14:30:00,METAR LFLB 251430Z AUTO 36008KT 330V030 CAVOK 26/07 Q1015 NOSIG,1,0.0,0,9999.0,0,0,0,
2026-04-25 14:00:00,METAR LFLB 251400Z AUTO 35007KT CAVOK 26/07 Q1015 NOSIG,1,0.0,0,9999.0,0,0,0,
2026-04-25 13:30:00,METAR LFLB 251330Z AUTO 36007KT CAVOK 25/09 Q1016 NOSIG,1,0.0,0,9999.0,0,0,0,
2026-04-25 13:00:00,METAR LFLB 251300Z AUTO 01006KT 340V040 CAVOK 23/11 Q1016 NOSIG,1,0.0,0,9999.0,0,0,0,
2026-04-25 12:30:00,METAR LFLB 251230Z AUTO 36005KT 310V040 CAVOK 22/09 Q1016 NOSIG,1,0.0,0,9999.0,0,0,0,
2026-04-25 12:00:00,METAR LFLB 251200Z AUTO 36006KT 330V030 CAVOK 21/07 Q1016 NOSIG,1,0.0,0,9999.0,0,0,0,
2026-04-25 11:30:00,METAR LFLB 251130Z AUTO 01004KT 330V050 CAVOK 21/06 Q1017 NOSIG,1,0.0,0,9999.0,0,0,0,
2026-04-25 11:00:00,METAR LFLB 251100Z AUTO 02003KT 340V050 CAVOK 19/08 Q1017 NOSIG,1,0.0,0,9999.0,0,0,0,
2026-04-25 10:30:00,METAR LFLB 251030Z AUTO 01006KT CAVOK 18/08 Q1018 NOSIG,1,0.0,0,9999.0,0,0,0,
2026-04-25 10:00:00,METAR LFLB 251000Z AUTO 02004KT 330V050 CAVOK 18/10 Q1018 NOSIG,1,0.0,0,9999.0,0,0,0,
2026-04-25 09:30:00,METAR LFLB 250930Z AUTO 01005KT CAVOK 17/10 Q1018 NOSIG,1,0.0,0,9999.0,0,0,0,
2026-04-25 09:00:00,METAR LFLB 250900Z AUTO VRB02KT CAVOK 17/09 Q1018 NOSIG,1,0.0,0,9999.0,0,0,0,
2026-04-25 08:30:00,METAR LFLB 250830Z AUTO VRB02KT CAVOK 17/08 Q1018 NOSIG,1,0.0,0,9999.0,0,0,0,
2026-04-25 08:00:00,METAR LFLB 250800Z AUTO VRB02KT CAVOK 15/07 Q1018 NOSIG,1,0.0,0,9999.0,0,0,0,
2026-04-25 07:30:00,METAR LFLB 250730Z AUTO VRB01KT CAVOK 14/08 Q1019 NOSIG,1,0.0,0,9999.0,0,0,0,
2026-04-25 07:00:00,METAR LFLB 250700Z AUTO VRB01KT CAVOK 13/07 Q1019 NOSIG,1,0.0,0,9999.0,0,0,0,
2026-04-25 06:30:00,METAR LFLB 250630Z AUTO 00000KT CAVOK 11/08 Q1019 NOSIG,1,0.0,0,9999.0,0,0,0,
2026-04-25 06:00:00,METAR LFLB 250600Z AUTO 00000KT CAVOK 08/08 Q1019 NOSIG,1,0.0,0,9999.0,0,0,0,
2026-04-25 05:30:00,METAR LFLB 250530Z AUTO 17002KT CAVOK 05/05 Q1018 NOSIG,1,0.0,0,9999.0,0,0,0,
2026-04-25 05:00:00,METAR LFLB 250500Z AUTO 00000KT CAVOK 06/05 Q1018 NOSIG,1,0.0,0,9999.0,0,0,0,
2026-04-25 04:30:00,METAR LFLB 250430Z AUTO VRB02KT CAVOK 06/05 Q1018 NOSIG,1,0.0,0,9999.0,0,0,0,
2026-04-25 04:00:00,METAR LFLB 250400Z AUTO 17002KT CAVOK 06/05 Q1018 NOSIG,1,0.0,0,9999.0,0,0,0,
2026-04-25 03:30:00,METAR LFLB 250330Z AUTO 14001KT CAVOK 06/05 Q1018 NOSIG,1,0.0,0,9999.0,0,0,0,
2026-04-25 03:00:00,METAR LFLB 250300Z AUTO 18002KT CAVOK 06/05 Q1018 NOSIG,1,0.0,0,9999.0,0,0,0,
2026-04-25 02:30:00,METAR LFLB 250230Z AUTO 26001KT CAVOK 06/05 Q1018,1,0.0,0,9999.0,0,0,0,
2026-04-25 02:00:00,METAR LFLB 250200Z AUTO 13001KT CAVOK 07/06 Q1018,1,0.0,0,9999.0,0,0,0,
2026-04-25 01:30:00,METAR LFLB 250130Z AUTO VRB02KT CAVOK 07/05 Q1018,1,0.0,0,9999.0,0,0,0,
2026-04-25 01:00:00,METAR LFLB 250100Z AUTO 00000KT CAVOK 08/05 Q1018,1,0.0,0,9999.0,0,0,0,
2026-04-25 00:30:00,METAR LFLB 250030Z AUTO 17001KT CAVOK 08/06 Q1018,1,0.0,0,9999.0,0,0,0,
2026-04-25 00:00:00,METAR LFLB 250000Z AUTO 17003KT 140V200 CAVOK 08/05 Q1018,1,0.0,0,9999.0,0,0,0,
2026-04-24 23:30:00,METAR LFLB 242330Z AUTO 18002KT CAVOK 08/05 Q1018,1,0.0,0,9999.0,0,0,0,
2026-04-24 23:00:00,METAR LFLB 242300Z AUTO 18001KT CAVOK 09/06 Q1018,1,0.0,0,9999.0,0,0,0,
2026-04-24 22:30:00,METAR LFLB 242230Z AUTO 17001KT CAVOK 09/06 Q1018,1,0.0,0,9999.0,0,0,0,
2026-04-24 22:00:00,METAR LFLB 242200Z AUTO VRB01KT CAVOK 10/05 Q1018,1,0.0,0,9999.0,0,0,0,
2026-04-24 21:30:00,METAR LFLB 242130Z AUTO 16003KT CAVOK 10/06 Q1018,1,0.0,0,9999.0,0,0,0,
2026-04-24 21:00:00,METAR LFLB 242100Z AUTO VRB01KT CAVOK 11/06 Q1017,1,0.0,0,9999.0,0,0,0,
2026-04-24 20:30:00,METAR LFLB 242030Z AUTO 00000KT CAVOK 12/07 Q1017,1,0.0,0,9999.0,0,0,0,
2026-04-24 20:00:00,METAR LFLB 242000Z AUTO 19003KT CAVOK 12/07 Q1017,1,0.0,0,9999.0,0,0,0,
2026-04-24 19:30:00,METAR LFLB 241930Z AUTO VRB02KT CAVOK 12/06 Q1017,1,0.0,0,9999.0,0,0,0,
2026-04-24 19:00:00,METAR LFLB 241900Z AUTO 21003KT CAVOK 14/06 Q1016 NOSIG,1,0.0,0,9999.0,0,0,0,
2026-04-24 18:30:00,METAR LFLB 241830Z AUTO 30001KT CAVOK 15/07 Q1016 NOSIG,1,0.0,0,9999.0,0,0,0,
2026-04-24 18:00:00,METAR LFLB 241800Z AUTO 28001KT CAVOK 17/06 Q1016 NOSIG,1,0.0,0,9999.0,0,0,0,
2026-04-24 17:30:00,METAR LFLB 241730Z AUTO 29003KT CAVOK 19/06 Q1016 NOSIG,1,0.0,0,9999.0,0,0,0,
2026-04-24 17:00:00,METAR LFLB 241700Z AUTO 32003KT CAVOK 23/06 Q1016 NOSIG,1,0.0,0,9999.0,0,0,0,
2026-04-24 16:30:00,METAR LFLB 241630Z AUTO 35003KT 320V020 CAVOK 24/08 Q1016 NOSIG,1,0.0,0,9999.0,0,0,0,
2026-04-24 16:00:00,METAR LFLB 241600Z AUTO 02005KT CAVOK 24/08 Q1016 NOSIG,1,0.0,0,9999.0,0,0,0,
2026-04-24 15:30:00,METAR LFLB 241530Z AUTO 01006KT CAVOK 24/09 Q1016 NOSIG,1,0.0,0,9999.0,0,0,0,
2026-04-24 15:00:00,METAR LFLB 241500Z AUTO 36006KT CAVOK 24/05 Q1017 NOSIG,1,0.0,0,9999.0,0,0,0,
2026-04-24 14:30:00,METAR LFLB 241430Z AUTO 36005KT 330V030 CAVOK 24/09 Q1017 NOSIG,1,0.0,0,9999.0,0,0,0,
2026-04-24 14:00:00,METAR LFLB 241400Z AUTO 36005KT 330V030 CAVOK 23/09 Q1017 NOSIG,1,0.0,0,9999.0,0,0,0,
2026-04-24 13:30:00,METAR LFLB 241330Z AUTO 01006KT CAVOK 22/08 Q1018 NOSIG,1,0.0,0,9999.0,0,0,0,
2026-04-24 13:00:00,METAR LFLB 241300Z AUTO 01005KT 340V040 CAVOK 21/09 Q1018 NOSIG,1,0.0,0,9999.0,0,0,0,
2026-04-24 12:30:00,METAR LFLB 241230Z AUTO 35005KT 330V030 CAVOK 22/11 Q1019 NOSIG,1,0.0,0,9999.0,0,0,0,
2026-04-24 12:00:00,METAR LFLB 241200Z AUTO 35004KT 320V030 CAVOK 21/07 Q1019 NOSIG,1,0.0,0,9999.0,0,0,0,
2026-04-24 11:30:00,METAR LFLB 241130Z AUTO 36003KT 320V050 CAVOK 21/05 Q1019 NOSIG,1,0.0,0,9999.0,0,0,0,
2026-04-24 11:00:00,METAR LFLB 241100Z AUTO 35003KT 280V050 CAVOK 20/04 Q1019 NOSIG,1,0.0,0,9999.0,0,0,0,
2026-04-24 10:30:00,METAR LFLB 241030Z AUTO 36003KT 300V090 CAVOK 19/06 Q1020 NOSIG,1,0.0,0,9999.0,0,0,0,
2026-04-24 10:00:00,METAR LFLB 241000Z AUTO 01004KT 320V050 CAVOK 18/06 Q1020 NOSIG,1,0.0,0,9999.0,0,0,0,
2026-04-24 09:30:00,METAR LFLB 240930Z AUTO VRB03KT CAVOK 18/06 Q1020 NOSIG,1,0.0,0,9999.0,0,0,0,
2026-04-24 09:00:00,METAR LFLB 240900Z AUTO VRB03KT CAVOK 17/07 Q1021 NOSIG,1,0.0,0,9999.0,0,0,0,
2026-04-24 08:30:00,METAR LFLB 240830Z AUTO VRB02KT CAVOK 16/05 Q1021 NOSIG,1,0.0,0,9999.0,0,0,0,
2026-04-24 08:00:00,METAR LFLB 240800Z AUTO VRB02KT CAVOK 15/04 Q1021 NOSIG,1,0.0,0,9999.0,0,0,0,
2026-04-24 07:30:00,METAR LFLB 240730Z AUTO VRB01KT CAVOK 14/05 Q1021 NOSIG,1,0.0,0,9999.0,0,0,0,
2026-04-24 07:00:00,METAR LFLB 240700Z AUTO VRB02KT CAVOK 11/06 Q1021 NOSIG,1,0.0,0,9999.0,0,0,0,
2026-04-24 06:30:00,METAR LFLB 240630Z AUTO 17003KT CAVOK 09/06 Q1022 NOSIG,1,0.0,0,9999.0,0,0,0,
2026-04-24 06:00:00,METAR LFLB 240600Z AUTO 20002KT CAVOK 06/05 Q1021 NOSIG,1,0.0,0,9999.0,0,0,0,
2026-04-24 05:30:00,METAR LFLB 240530Z AUTO VRB02KT CAVOK 04/03 Q1021 NOSIG,1,0.0,0,9999.0,0,0,0,
2026-04-24 05:00:00,METAR LFLB 240500Z AUTO 19003KT CAVOK 04/03 Q1021 NOSIG,1,0.0,0,9999.0,0,0,0,
2026-04-24 04:30:00,METAR LFLB 240430Z AUTO 24001KT CAVOK 05/03 Q1021 NOSIG,1,0.0,0,9999.0,0,0,0,
2026-04-24 04:00:00,METAR LFLB 240400Z AUTO 00000KT CAVOK 05/04 Q1020 NOSIG,1,0.0,0,9999.0,0,0,0,
2026-04-24 03:30:00,METAR LFLB 240330Z AUTO 26002KT CAVOK 05/04 Q1020 NOSIG,1,0.0,0,9999.0,0,0,0,
2026-04-24 03:00:00,METAR LFLB 240300Z AUTO VRB02KT CAVOK 05/03 Q1020 NOSIG,1,0.0,0,9999.0,0,0,0,
2026-04-24 02:30:00,METAR LFLB 240230Z AUTO 19002KT CAVOK 05/04 Q1021 NOSIG,1,0.0,0,9999.0,0,0,0,
2026-04-24 02:00:00,METAR LFLB 240200Z AUTO 17002KT CAVOK 05/04 Q1020,1,0.0,0,9999.0,0,0,0,
2026-04-24 01:30:00,METAR LFLB 240130Z AUTO 17002KT CAVOK 06/04 Q1021,1,0.0,0,9999.0,0,0,0,
2026-04-24 01:00:00,METAR LFLB 240100Z AUTO 19003KT CAVOK 06/04 Q1020,1,0.0,0,9999.0,0,0,0,
2026-04-24 00:30:00,METAR LFLB 240030Z AUTO VRB01KT CAVOK 07/04 Q1020,1,0.0,0,9999.0,0,0,0,
2026-04-24 00:00:00,METAR LFLB 240000Z AUTO 21003KT CAVOK 07/05 Q1021,1,0.0,0,9999.0,0,0,0,
2026-04-23 23:30:00,METAR LFLB 232330Z AUTO 21002KT CAVOK 07/04 Q1021,1,0.0,0,9999.0,0,0,0,
2026-04-23 23:00:00,METAR LFLB 232300Z AUTO 19003KT CAVOK 07/05 Q1021,1,0.0,0,9999.0,0,0,0,
2026-04-23 22:30:00,METAR LFLB 232230Z AUTO 21002KT CAVOK 08/05 Q1021,1,0.0,0,9999.0,0,0,0,
2026-04-23 22:00:00,METAR LFLB 232200Z AUTO VRB01KT CAVOK 09/05 Q1021,1,0.0,0,9999.0,0,0,0,
2026-04-23 21:30:00,METAR LFLB 232130Z AUTO 00000KT CAVOK 10/05 Q1021,1,0.0,0,9999.0,0,0,0,
2026-04-23 21:00:00,METAR LFLB 232100Z AUTO VRB03KT CAVOK 10/05 Q1021,1,0.0,0,9999.0,0,0,0,
2026-04-23 20:30:00,METAR LFLB 232030Z AUTO VRB03KT CAVOK 12/05 Q1021,1,0.0,0,9999.0,0,0,0,
2026-04-23 20:00:00,METAR LFLB 232000Z AUTO 19003KT 150V300 CAVOK 12/05 Q1021,1,0.0,0,9999.0,0,0,0,
2026-04-23 19:30:00,METAR LFLB 231930Z AUTO 30004KT CAVOK 14/05 Q1021,1,0.0,0,9999.0,0,0,0,
2026-04-23 19:00:00,METAR LFLB 231900Z AUTO 30004KT CAVOK 15/05 Q1020 NOSIG,1,0.0,0,9999.0,0,0,0,
2026-04-23 18:30:00,METAR LFLB 231830Z AUTO 31005KT 280V360 CAVOK 17/05 Q1020 NOSIG,1,0.0,0,9999.0,0,0,0,
2026-04-23 18:00:00,METAR LFLB 231800Z AUTO 33005KT 290V010 CAVOK 17/06 Q1020 NOSIG,1,0.0,0,9999.0,0,0,0,
2026-04-23 17:30:00,METAR LFLB 231730Z AUTO 30003KT CAVOK 18/05 Q1020 NOSIG,1,0.0,0,9999.0,0,0,0,
2026-04-23 17:00:00,METAR LFLB 231700Z AUTO 31004KT 270V350 CAVOK 22/05 Q1020 NOSIG,1,0.0,0,9999.0,0,0,0,
2026-04-23 16:30:00,METAR LFLB 231630Z AUTO 34004KT 310V010 CAVOK 22/05 Q1020 NOSIG,1,0.0,0,9999.0,0,0,0,
2026-04-23 16:00:00,METAR LFLB 231600Z AUTO 35006KT CAVOK 22/05 Q1020 NOSIG,1,0.0,0,9999.0,0,0,0,
2026-04-23 15:30:00,METAR LFLB 231530Z AUTO 36006KT CAVOK 22/06 Q1020 NOSIG,1,0.0,0,9999.0,0,0,0,
2026-04-23 15:00:00,METAR LFLB 231500Z AUTO 02006KT CAVOK 22/06 Q1020 NOSIG,1,0.0,0,9999.0,0,0,0,
2026-04-23 14:30:00,METAR LFLB 231430Z AUTO 01007KT CAVOK 22/06 Q1021 NOSIG,1,0.0,0,9999.0,0,0,0,
2026-04-23 14:00:00,METAR LFLB 231400Z AUTO 36007KT 330V030 CAVOK 21/07 Q1021 NOSIG,1,0.0,0,9999.0,0,0,0,
2026-04-23 13:30:00,METAR LFLB 231330Z AUTO 36007KT CAVOK 21/07 Q1022 NOSIG,1,0.0,0,9999.0,0,0,0,
2026-04-23 13:00:00,METAR LFLB 231300Z AUTO 35006KT 320V020 CAVOK 20/07 Q1022 NOSIG,1,0.0,0,9999.0,0,0,0,
2026-04-23 12:30:00,METAR LFLB 231230Z AUTO 35007KT CAVOK 20/06 Q1022 NOSIG,1,0.0,0,9999.0,0,0,0,
2026-04-23 12:00:00,METAR LFLB 231200Z AUTO 35008KT CAVOK 19/08 Q1023 NOSIG,1,0.0,0,9999.0,0,0,0,
2026-04-23 11:30:00,METAR LFLB 231130Z AUTO 33006KT 290V020 CAVOK 19/06 Q1023 NOSIG,1,0.0,0,9999.0,0,0,0,
2026-04-23 11:00:00,METAR LFLB 231100Z AUTO 35005KT 310V030 CAVOK 18/05 Q1023 NOSIG,1,0.0,0,9999.0,0,0,0,
2026-04-23 10:30:00,METAR LFLB 231030Z AUTO 36005KT 320V030 CAVOK 17/05 Q1024 NOSIG,1,0.0,0,9999.0,0,0,0,
2026-04-23 10:00:00,METAR LFLB 231000Z AUTO 36005KT 310V030 CAVOK 16/04 Q1024 NOSIG,1,0.0,0,9999.0,0,0,0,
2026-04-23 09:30:00,METAR LFLB 230930Z AUTO 36005KT 330V030 CAVOK 15/05 Q1024 NOSIG,1,0.0,0,9999.0,0,0,0,
2026-04-23 09:00:00,METAR LFLB 230900Z AUTO 01008KT 320V040 CAVOK 15/05 Q1024 NOSIG,1,0.0,0,9999.0,0,0,0,
2026-04-23 08:30:00,METAR LFLB 230830Z AUTO 02009KT CAVOK 14/04 Q1025 NOSIG,1,0.0,0,9999.0,0,0,0,
2026-04-23 08:00:00,METAR LFLB 230800Z AUTO 03007KT CAVOK 14/02 Q1025 NOSIG,1,0.0,0,9999.0,0,0,0,
2026-04-23 07:30:00,METAR LFLB 230730Z AUTO 03004KT 340V090 CAVOK 12/03 Q1025 NOSIG,1,0.0,0,9999.0,0,0,0,
2026-04-23 07:00:00,METAR LFLB 230700Z AUTO 01004KT 320V070 CAVOK 12/03 Q1025 NOSIG,1,0.0,0,9999.0,0,0,0,
2026-04-23 06:30:00,METAR LFLB 230630Z AUTO VRB02KT CAVOK 10/05 Q1025 NOSIG,1,0.0,0,9999.0,0,0,0,
2026-04-23 06:00:00,METAR LFLB 230600Z AUTO VRB02KT CAVOK 07/04 Q1024 NOSIG,1,0.0,0,9999.0,0,0,0,
2026-04-23 05:30:00,METAR LFLB 230530Z AUTO VRB02KT CAVOK 06/03 Q1024 NOSIG,1,0.0,0,9999.0,0,0,0,
2026-04-23 05:00:00,METAR LFLB 230500Z AUTO VRB02KT CAVOK 04/03 Q1024 NOSIG,1,0.0,0,9999.0,0,0,0,
2026-04-23 04:30:00,METAR LFLB 230430Z AUTO 22003KT 170V290 CAVOK 05/03 Q1023 NOSIG,1,0.0,0,9999.0,0,0,0,
2026-04-23 04:00:00,METAR LFLB 230400Z AUTO VRB01KT CAVOK 05/03 Q1023 NOSIG,1,0.0,0,9999.0,0,0,0,
2026-04-23 03:30:00,METAR LFLB 230330Z AUTO VRB02KT CAVOK 06/03 Q1023 NOSIG,1,0.0,0,9999.0,0,0,0,
2026-04-23 03:00:00,METAR LFLB 230300Z AUTO VRB03KT CAVOK 05/03 Q1023 NOSIG,1,0.0,0,9999.0,0,0,0,
2026-04-23 02:30:00,METAR LFLB 230230Z AUTO VRB03KT CAVOK 05/03 Q1022,1,0.0,0,9999.0,0,0,0,
2026-04-23 02:00:00,METAR LFLB 230200Z AUTO VRB03KT CAVOK 06/03 Q1022,1,0.0,0,9999.0,0,0,0,
2026-04-23 01:30:00,METAR LFLB 230130Z AUTO VRB02KT CAVOK 06/04 Q1022,1,0.0,0,9999.0,0,0,0,
2026-04-23 01:00:00,METAR LFLB 230100Z AUTO VRB02KT CAVOK 07/05 Q1022,1,0.0,0,9999.0,0,0,0,
2026-04-23 00:30:00,METAR LFLB 230030Z AUTO 20003KT 160V230 CAVOK 06/03 Q1022,1,0.0,0,9999.0,0,0,0,
2026-04-23 00:00:00,METAR LFLB 230000Z AUTO VRB02KT CAVOK 08/04 Q1021,1,0.0,0,9999.0,0,0,0,
2026-04-22 23:30:00,METAR LFLB 222330Z AUTO 31003KT 270V030 CAVOK 11/04 Q1021,1,0.0,0,9999.0,0,0,0,
2026-04-22 23:00:00,METAR LFLB 222300Z AUTO 36006KT 330V030 CAVOK 12/04 Q1021,1,0.0,0,9999.0,0,0,0,
2026-04-22 22:30:00,METAR LFLB 222230Z AUTO 01007KT CAVOK 12/04 Q1021,1,0.0,0,9999.0,0,0,0,
2026-04-22 22:00:00,METAR LFLB 222200Z AUTO 02008KT CAVOK 13/05 Q1020,1,0.0,0,9999.0,0,0,0,
2026-04-22 21:30:00,METAR LFLB 222130Z AUTO 36006KT 330V030 CAVOK 13/05 Q1020,1,0.0,0,9999.0,0,0,0,
2026-04-22 21:00:00,METAR LFLB 222100Z AUTO 01006KT CAVOK 13/06 Q1020,1,0.0,0,9999.0,0,0,0,
2026-04-22 20:30:00,METAR LFLB 222030Z AUTO 32003KT 290V010 CAVOK 13/06 Q1020,1,0.0,0,9999.0,0,0,0,
2026-04-22 20:00:00,METAR LFLB 222000Z AUTO 33004KT 280V060 CAVOK 14/06 Q1019,1,0.0,0,9999.0,0,0,0,
2026-04-22 19:30:00,METAR LFLB 221930Z AUTO VRB03KT CAVOK 14/06 Q1019 NOSIG,1,0.0,0,9999.0,0,0,0,
2026-04-22 19:00:00,METAR LFLB 221900Z AUTO 34003KT 290V020 CAVOK 15/08 Q1018 NOSIG,1,0.0,0,9999.0,0,0,0,
2026-04-22 18:30:00,METAR LFLB 221830Z AUTO 33004KT 310V010 CAVOK 15/08 Q1018 NOSIG,1,0.0,0,9999.0,0,0,0,
2026-04-22 18:00:00,METAR LFLB 221800Z AUTO 35003KT 310V020 CAVOK 16/08 Q1017 NOSIG,1,0.0,0,9999.0,0,0,0,
2026-04-22 17:30:00,METAR LFLB 221730Z AUTO 35004KT 9999 FEW086 17/09 Q1017 NOSIG,0,4.0,0,10000.0,0,0,0,
2026-04-22 17:00:00,METAR LFLB 221700Z AUTO 34003KT 290V020 9999 FEW084 18/08 Q1017 NOSIG,0,3.0,0,10000.0,0,0,0,
2026-04-22 16:30:00,METAR LFLB 221630Z AUTO VRB03KT CAVOK 18/07 Q1017 NOSIG,1,0.0,0,9999.0,0,0,0,
2026-04-22 16:00:00,METAR LFLB 221600Z AUTO 35003KT 320V030 CAVOK 19/07 Q1017 NOSIG,1,0.0,0,9999.0,0,0,0,
2026-04-22 15:30:00,METAR LFLB 221530Z AUTO 35004KT 9999 FEW084 19/06 Q1016 NOSIG,0,4.0,0,10000.0,0,0,0,
2026-04-22 15:00:00,METAR LFLB 221500Z AUTO 35006KT 9999 SCT086 19/06 Q1016 NOSIG,0,6.0,0,10000.0,0,0,0,
2026-04-22 14:30:00,METAR LFLB 221430Z AUTO 35007KT CAVOK 19/07 Q1016 NOSIG,1,0.0,0,9999.0,0,0,0,
2026-04-22 14:00:00,METAR LFLB 221400Z AUTO 35006KT 320V020 CAVOK 19/07 Q1016 NOSIG,1,0.0,0,9999.0,0,0,0,
2026-04-22 13:30:00,METAR LFLB 221330Z AUTO 33006KT CAVOK 18/07 Q1017 NOSIG,1,0.0,0,9999.0,0,0,0,
2026-04-22 13:00:00,METAR LFLB 221300Z AUTO 34006KT 320V020 CAVOK 17/07 Q1017 NOSIG,1,0.0,0,9999.0,0,0,0,
2026-04-22 12:30:00,METAR LFLB 221230Z AUTO 36008KT 330V030 CAVOK 17/07 Q1017 NOSIG,1,0.0,0,9999.0,0,0,0,
2026-04-22 12:00:00,METAR LFLB 221200Z AUTO 36009KT CAVOK 17/06 Q1016 NOSIG,1,0.0,0,9999.0,0,0,0,
2026-04-22 11:30:00,METAR LFLB 221130Z AUTO 34007KT 300V020 CAVOK 17/07 Q1016 NOSIG,1,0.0,0,9999.0,0,0,0,
2026-04-22 11:00:00,METAR LFLB 221100Z AUTO 36008KT CAVOK 15/06 Q1016 NOSIG,1,0.0,0,9999.0,0,0,0,
2026-04-22 10:30:00,METAR LFLB 221030Z AUTO 35007KT 310V020 CAVOK 16/08 Q1017 NOSIG,1,0.0,0,9999.0,0,0,0,
2026-04-22 10:00:00,METAR LFLB 221000Z AUTO 34006KT 290V010 CAVOK 14/06 Q1017 NOSIG,1,0.0,0,9999.0,0,0,0,
2026-04-22 09:30:00,METAR LFLB 220930Z AUTO 34008KT 310V010 CAVOK 14/06 Q1017 NOSIG,1,0.0,0,9999.0,0,0,0,
2026-04-22 09:00:00,METAR LFLB 220900Z AUTO 36010KT CAVOK 13/06 Q1017 NOSIG,1,0.0,0,9999.0,0,0,0,
2026-04-22 08:30:00,METAR LFLB 220830Z AUTO 01011KT CAVOK 12/06 Q1017 NOSIG,1,0.0,0,9999.0,0,0,0,
2026-04-22 08:00:00,METAR LFLB 220800Z AUTO 01010KT CAVOK 12/06 Q1017 NOSIG,1,0.0,0,9999.0,0,0,0,
2026-04-22 07:30:00,METAR LFLB 220730Z AUTO 01011KT CAVOK 11/05 Q1017 NOSIG,1,0.0,0,9999.0,0,0,0,
2026-04-22 07:00:00,METAR LFLB 220700Z AUTO 01013KT CAVOK 11/05 Q1017 NOSIG,1,0.0,0,9999.0,0,0,0,
2026-04-22 06:30:00,METAR LFLB 220630Z AUTO 01012KT 340V040 CAVOK 10/04 Q1017 NOSIG,1,0.0,0,9999.0,0,0,0,
2026-04-22 06:00:00,METAR LFLB 220600Z AUTO 01014KT CAVOK 09/04 Q1017 NOSIG,1,0.0,0,9999.0,0,0,0,
2026-04-22 05:30:00,METAR LFLB 220530Z AUTO 02013KT CAVOK 09/04 Q1016 NOSIG,1,0.0,0,9999.0,0,0,0,
2026-04-22 05:00:00,METAR LFLB 220500Z AUTO 36013KT CAVOK 09/03 Q1016 TEMPO VRB02KT,1,0.0,0,9999.0,0,0,0,
2026-04-22 04:30:00,METAR LFLB 220430Z AUTO 01015KT CAVOK 09/03 Q1016 TEMPO VRB02KT,1,0.0,0,9999.0,0,0,0,
2026-04-22 04:00:00,METAR LFLB 220400Z AUTO 01014KT CAVOK 09/03 Q1015 TEMPO VRB02KT,1,0.0,0,9999.0,0,0,0,
2026-04-22 03:30:00,METAR LFLB 220330Z AUTO 02012KT CAVOK 09/04 Q1015 TEMPO VRB02KT,1,0.0,0,9999.0,0,0,0,
2026-04-22 03:00:00,METAR LFLB 220300Z AUTO 02012KT CAVOK 10/04 Q1015 TEMPO VRB02KT,1,0.0,0,9999.0,0,0,0,
2026-04-22 02:30:00,METAR LFLB 220230Z AUTO 02012KT CAVOK 10/04 Q1015 TEMPO VRB02KT,1,0.0,0,9999.0,0,0,0,
2026-04-22 02:00:00,METAR LFLB 220200Z AUTO 02011KT CAVOK 10/04 Q1016,1,0.0,0,9999.0,0,0,0,
2026-04-22 01:30:00,METAR LFLB 220130Z AUTO 02013KT CAVOK 11/04 Q1015,1,0.0,0,9999.0,0,0,0,
2026-04-22 01:00:00,METAR LFLB 220100Z AUTO 01013KT CAVOK 11/04 Q1015,1,0.0,0,9999.0,0,0,0,
2026-04-22 00:30:00,METAR LFLB 220030Z AUTO 01013KT CAVOK 12/03 Q1015,1,0.0,0,9999.0,0,0,0,
2026-04-22 00:00:00,METAR LFLB 220000Z AUTO 01013KT 330V030 CAVOK 12/03 Q1014,1,0.0,0,9999.0,0,0,0,
2026-04-21 23:30:00,METAR LFLB 212330Z AUTO 36015KT 320V030 CAVOK 13/03 Q1014,1,0.0,0,9999.0,0,0,0,
2026-04-21 23:00:00,METAR LFLB 212300Z AUTO 01014KT CAVOK 13/03 Q1014,1,0.0,0,9999.0,0,0,0,
2026-04-21 22:30:00,METAR LFLB 212230Z AUTO 01012KT CAVOK 13/03 Q1014,1,0.0,0,9999.0,0,0,0,
2026-04-21 22:00:00,METAR LFLB 212200Z AUTO 02012KT CAVOK 14/04 Q1014,1,0.0,0,9999.0,0,0,0,
2026-04-21 21:30:00,METAR LFLB 212130Z AUTO 02012KT 9999 NSC 14/04 Q1014,0,12.0,0,10000.0,0,0,0,
2026-04-21 21:00:00,METAR LFLB 212100Z AUTO 02010KT CAVOK 14/04 Q1013,1,0.0,0,9999.0,0,0,0,
2026-04-21 20:30:00,METAR LFLB 212030Z AUTO 01010KT 330V030 CAVOK 15/05 Q1013,1,0.0,0,9999.0,0,0,0,
2026-04-21 20:00:00,METAR LFLB 212000Z AUTO 36010KT CAVOK 15/05 Q1013,1,0.0,0,9999.0,0,0,0,
2026-04-21 19:30:00,METAR LFLB 211930Z AUTO 01008KT 310V030 CAVOK 15/06 Q1013 NOSIG,1,0.0,0,9999.0,0,0,0,
2026-04-21 19:00:00,METAR LFLB 211900Z AUTO 36005KT 320V030 CAVOK 15/07 Q1012 NOSIG,1,0.0,0,9999.0,0,0,0,
2026-04-21 18:30:00,METAR LFLB 211830Z AUTO 32004KT CAVOK 16/07 Q1012 NOSIG,1,0.0,0,9999.0,0,0,0,
2026-04-21 18:00:00,METAR LFLB 211800Z AUTO 01007KT CAVOK 16/08 Q1012 NOSIG,1,0.0,0,9999.0,0,0,0,
2026-04-21 17:30:00,METAR LFLB 211730Z AUTO 02008KT CAVOK 17/09 Q1011 NOSIG,1,0.0,0,9999.0,0,0,0,
2026-04-21 17:00:00,METAR LFLB 211700Z AUTO 01008KT CAVOK 19/09 Q1011 NOSIG,1,0.0,0,9999.0,0,0,0,
2026-04-21 16:30:00,METAR LFLB 211630Z AUTO 01008KT CAVOK 18/10 Q1011 NOSIG,1,0.0,0,9999.0,0,0,0,
2026-04-21 16:00:00,METAR LFLB 211600Z AUTO 36006KT CAVOK 18/09 Q1012 NOSIG,1,0.0,0,9999.0,0,0,0,
2026-04-21 15:30:00,METAR LFLB 211530Z AUTO 01008KT CAVOK 20/09 Q1012 NOSIG,1,0.0,0,9999.0,0,0,0,
2026-04-21 15:00:00,METAR LFLB 211500Z AUTO 36009KT CAVOK 21/09 Q1012 NOSIG,1,0.0,0,9999.0,0,0,0,
2026-04-21 14:30:00,METAR LFLB 211430Z AUTO 01008KT CAVOK 21/09 Q1012 NOSIG,1,0.0,0,9999.0,0,0,0,
2026-04-21 14:00:00,METAR LFLB 211400Z AUTO 01009KT CAVOK 21/09 Q1012 NOSIG,1,0.0,0,9999.0,0,0,0,
2026-04-21 13:30:00,METAR LFLB 211330Z AUTO 01010KT CAVOK 20/08 Q1012 NOSIG,1,0.0,0,9999.0,0,0,0,
2026-04-21 13:00:00,METAR LFLB 211300Z AUTO 01009KT CAVOK 19/09 Q1013 NOSIG,1,0.0,0,9999.0,0,0,0,
2026-04-21 12:30:00,METAR LFLB 211230Z AUTO 36008KT CAVOK 19/08 Q1013 NOSIG,1,0.0,0,9999.0,0,0,0,
2026-04-21 12:00:00,METAR LFLB 211200Z AUTO 01008KT 340V040 CAVOK 19/07 Q1013 NOSIG,1,0.0,0,9999.0,0,0,0,
2026-04-21 11:30:00,METAR LFLB 211130Z AUTO 35007KT CAVOK 18/07 Q1013 NOSIG,1,0.0,0,9999.0,0,0,0,
2026-04-21 11:00:00,METAR LFLB 211100Z AUTO 36007KT CAVOK 17/06 Q1013 NOSIG,1,0.0,0,9999.0,0,0,0,
2026-04-21 10:30:00,METAR LFLB 211030Z AUTO 35006KT 330V030 CAVOK 17/06 Q1014 NOSIG,1,0.0,0,9999.0,0,0,0,
2026-04-21 10:00:00,METAR LFLB 211000Z AUTO 35007KT 310V030 CAVOK 16/07 Q1014 NOSIG,1,0.0,0,9999.0,0,0,0,
2026-04-21 09:30:00,METAR LFLB 210930Z AUTO 35006KT 300V020 CAVOK 15/05 Q1014 NOSIG,1,0.0,0,9999.0,0,0,0,
2026-04-21 09:00:00,METAR LFLB 210900Z AUTO 36007KT 330V030 CAVOK 15/06 Q1015 NOSIG,1,0.0,0,9999.0,0,0,0,
2026-04-21 08:30:00,METAR LFLB 210830Z AUTO 02010KT 350V050 CAVOK 14/05 Q1015 NOSIG,1,0.0,0,9999.0,0,0,0,
2026-04-21 08:00:00,METAR LFLB 210800Z AUTO 02009KT CAVOK 14/05 Q1015 NOSIG,1,0.0,0,9999.0,0,0,0,
2026-04-21 07:30:00,METAR LFLB 210730Z AUTO 03011KT CAVOK 13/05 Q1015 NOSIG,1,0.0,0,9999.0,0,0,0,
2026-04-21 07:00:00,METAR LFLB 210700Z AUTO 04010KT CAVOK 12/05 Q1015 NOSIG,1,0.0,0,9999.0,0,0,0,
2026-04-21 06:30:00,METAR LFLB 210630Z AUTO 03009KT CAVOK 12/06 Q1015 NOSIG,1,0.0,0,9999.0,0,0,0,
2026-04-21 06:00:00,METAR LFLB 210600Z AUTO 03008KT CAVOK 11/06 Q1015 NOSIG,1,0.0,0,9999.0,0,0,0,
2026-04-21 05:30:00,METAR LFLB 210530Z AUTO 03007KT CAVOK 10/05 Q1015 NOSIG,1,0.0,0,9999.0,0,0,0,
2026-04-21 05:00:00,METAR LFLB 210500Z AUTO 03005KT 360V060 CAVOK 10/05 Q1015 NOSIG,1,0.0,0,9999.0,0,0,0,
2026-04-21 04:30:00,METAR LFLB 210430Z AUTO 02009KT CAVOK 10/06 Q1014 NOSIG,1,0.0,0,9999.0,0,0,0,
2026-04-21 04:00:00,METAR LFLB 210400Z AUTO 35006KT 310V010 CAVOK 09/06 Q1014 NOSIG,1,0.0,0,9999.0,0,0,0,
2026-04-21 03:30:00,METAR LFLB 210330Z AUTO VRB02KT CAVOK 07/05 Q1015 BECMG 36012KT,1,0.0,0,9999.0,0,0,0,
2026-04-21 03:00:00,METAR LFLB 210300Z AUTO VRB02KT CAVOK 07/05 Q1015 BECMG 36012KT,1,0.0,0,9999.0,0,0,0,
2026-04-21 02:30:00,METAR LFLB 210230Z AUTO VRB02KT CAVOK 06/05 Q1014 BECMG 36012KT,1,0.0,0,9999.0,0,0,0,
2026-04-21 02:00:00,METAR LFLB 210200Z AUTO 00000KT CAVOK 06/05 Q1015,1,0.0,0,9999.0,0,0,0,
2026-04-21 01:30:00,METAR LFLB 210130Z AUTO VRB03KT CAVOK 07/06 Q1015,1,0.0,0,9999.0,0,0,0,
2026-04-21 01:00:00,METAR LFLB 210100Z AUTO VRB02KT CAVOK 07/07 Q1015,1,0.0,0,9999.0,0,0,0,
2026-04-21 00:30:00,METAR LFLB 210030Z AUTO 19003KT CAVOK 08/07 Q1015,1,0.0,0,9999.0,0,0,0,
2026-04-21 00:00:00,METAR LFLB 210000Z AUTO 22003KT CAVOK 09/07 Q1015,1,0.0,0,9999.0,0,0,0,
2026-04-20 23:30:00,METAR LFLB 202330Z AUTO VRB02KT CAVOK 08/07 Q1015,1,0.0,0,9999.0,0,0,0,
2026-04-20 23:00:00,METAR LFLB 202300Z AUTO VRB02KT CAVOK 09/07 Q1014,1,0.0,0,9999.0,0,0,0,
2026-04-20 22:30:00,METAR LFLB 202230Z AUTO 19002KT CAVOK 09/08 Q1014,1,0.0,0,9999.0,0,0,0,
2026-04-20 22:00:00,METAR LFLB 202200Z AUTO VRB01KT CAVOK 10/08 Q1014,1,0.0,0,9999.0,0,0,0,
2026-04-20 21:30:00,METAR LFLB 202130Z AUTO 17001KT CAVOK 10/08 Q1014,1,0.0,0,9999.0,0,0,0,
2026-04-20 21:00:00,METAR LFLB 202100Z AUTO 00000KT CAVOK 11/08 Q1014,1,0.0,0,9999.0,0,0,0,
2026-04-20 20:30:00,METAR LFLB 202030Z AUTO 13002KT CAVOK 11/08 Q1014,1,0.0,0,9999.0,0,0,0,
2026-04-20 20:00:00,METAR LFLB 202000Z AUTO VRB02KT CAVOK 12/08 Q1013,1,0.0,0,9999.0,0,0,0,
2026-04-20 19:30:00,METAR LFLB 201930Z AUTO VRB01KT CAVOK 13/09 Q1013 NOSIG,1,0.0,0,9999.0,0,0,0,
2026-04-20 19:00:00,METAR LFLB 201900Z AUTO VRB01KT CAVOK 15/08 Q1013 NOSIG,1,0.0,0,9999.0,0,0,0,
2026-04-20 18:30:00,METAR LFLB 201830Z AUTO VRB02KT CAVOK 15/09 Q1012 NOSIG,1,0.0,0,9999.0,0,0,0,
2026-04-20 18:00:00,METAR LFLB 201800Z AUTO VRB02KT CAVOK 17/10 Q1012 NOSIG,1,0.0,0,9999.0,0,0,0,
2026-04-20 17:30:00,METAR LFLB 201730Z AUTO 04003KT CAVOK 18/09 Q1012 NOSIG,1,0.0,0,9999.0,0,0,0,
2026-04-20 17:00:00,METAR LFLB 201700Z AUTO 03004KT CAVOK 19/10 Q1012 NOSIG,1,0.0,0,9999.0,0,0,0,
2026-04-20 16:30:00,METAR LFLB 201630Z AUTO 02004KT CAVOK 20/09 Q1012 NOSIG,1,0.0,0,9999.0,0,0,0,
2026-04-20 16:00:00,METAR LFLB 201600Z AUTO 02006KT CAVOK 20/08 Q1012 NOSIG,1,0.0,0,9999.0,0,0,0,
2026-04-20 15:30:00,METAR LFLB 201530Z AUTO 03005KT 350V060 CAVOK 20/07 Q1013 NOSIG,1,0.0,0,9999.0,0,0,0,
2026-04-20 15:00:00,METAR LFLB 201500Z AUTO 03006KT 350V060 CAVOK 21/09 Q1013 NOSIG,1,0.0,0,9999.0,0,0,0,
2026-04-20 14:30:00,METAR LFLB 201430Z AUTO 02006KT CAVOK 20/08 Q1013 NOSIG,1,0.0,0,9999.0,0,0,0,
2026-04-20 14:00:00,METAR LFLB 201400Z AUTO 03006KT CAVOK 20/09 Q1013 NOSIG,1,0.0,0,9999.0,0,0,0,
2026-04-20 13:30:00,METAR LFLB 201330Z AUTO 02007KT CAVOK 20/09 Q1013 NOSIG,1,0.0,0,9999.0,0,0,0,
2026-04-20 13:00:00,METAR LFLB 201300Z AUTO 02006KT 350V060 CAVOK 20/10 Q1014 NOSIG,1,0.0,0,9999.0,0,0,0,
2026-04-20 12:30:00,METAR LFLB 201230Z AUTO 02006KT 350V050 CAVOK 20/10 Q1014 NOSIG,1,0.0,0,9999.0,0,0,0,
2026-04-20 12:00:00,METAR LFLB 201200Z AUTO 03008KT CAVOK 19/09 Q1014 NOSIG,1,0.0,0,9999.0,0,0,0,
2026-04-20 11:30:00,METAR LFLB 201130Z AUTO 03007KT CAVOK 18/09 Q1014 NOSIG,1,0.0,0,9999.0,0,0,0,
2026-04-20 11:00:00,METAR LFLB 201100Z AUTO 01007KT CAVOK 17/09 Q1014 NOSIG,1,0.0,0,9999.0,0,0,0,
2026-04-20 10:30:00,METAR LFLB 201030Z AUTO 36006KT 310V030 CAVOK 17/09 Q1015 NOSIG,1,0.0,0,9999.0,0,0,0,
2026-04-20 10:00:00,METAR LFLB 201000Z AUTO 35007KT CAVOK 16/08 Q1015 NOSIG,1,0.0,0,9999.0,0,0,0,
2026-04-20 09:30:00,METAR LFLB 200930Z AUTO 02006KT CAVOK 15/09 Q1015 NOSIG,1,0.0,0,9999.0,0,0,0,
2026-04-20 09:00:00,METAR LFLB 200900Z AUTO 01005KT 310V060 CAVOK 15/09 Q1016 NOSIG,1,0.0,0,9999.0,0,0,0,
2026-04-20 08:30:00,METAR LFLB 200830Z AUTO 00000KT CAVOK 14/07 Q1016 NOSIG,1,0.0,0,9999.0,0,0,0,
2026-04-20 08:00:00,METAR LFLB 200800Z AUTO 01004KT 340V040 CAVOK 13/08 Q1016 NOSIG,1,0.0,0,9999.0,0,0,0,
2026-04-20 07:30:00,METAR LFLB 200730Z AUTO VRB01KT 9999 FEW039 13/08 Q1016 NOSIG,0,1.0,0,10000.0,0,0,0,
2026-04-20 07:00:00,METAR LFLB 200700Z AUTO VRB01KT 9999 BKN038 11/08 Q1016 NOSIG,0,1.0,0,10000.0,0,0,0,
2026-04-20 06:30:00,METAR LFLB 200630Z AUTO VRB02KT 9999 BKN037 10/09 Q1016 NOSIG,0,2.0,0,10000.0,0,0,0,
2026-04-20 06:00:00,METAR LFLB 200600Z AUTO 00000KT 9999 BKN038 09/09 Q1016 NOSIG,0,0.0,0,10000.0,0,0,0,
2026-04-20 05:30:00,METAR LFLB 200530Z AUTO 24001KT 9999 BKN040 07/07 Q1016 NOSIG,0,1.0,0,10000.0,0,0,0,
2026-04-20 05:00:00,METAR LFLB 200500Z AUTO VRB01KT 9000 0900 R18/P5000 R36/P5000 BCFG SCT042 07/07 Q1016 NOSIG,0,1.0,0,9000.0,0,0,1,"BC,FG"
2026-04-20 04:30:00,METAR LFLB 200430Z AUTO 00000KT 9999 BKN043 07/07 Q1016 NOSIG,0,0.0,0,10000.0,0,0,0,
2026-04-20 04:00:00,METAR LFLB 200400Z AUTO 00000KT 6000 FEW001 BKN046 08/08 Q1016 NOSIG,0,0.0,0,6000.0,0,0,0,
2026-04-20 03:30:00,METAR LFLB 200330Z AUTO 18001KT 3900 0750 R18/2500D R36/P5000 BCFG FEW045 08/08 Q1016 BECMG 9999 NSW,0,1.0,0,3900.0,0,0,1,"BC,FG"
2026-04-20 03:00:00,METAR LFLB 200300Z AUTO 00000KT 9999 FEW044 08/08 Q1016 NOSIG,0,0.0,0,10000.0,0,0,0,
2026-04-20 02:30:00,METAR LFLB 200230Z AUTO 20003KT 9999 OVC043 09/09 Q1017 NOSIG,0,3.0,0,10000.0,0,0,0,
2026-04-20 02:00:00,METAR LFLB 200200Z AUTO VRB02KT 9999 3800 SCT043 09/08 Q1017,0,2.0,0,10000.0,0,0,0,
2026-04-20 01:30:00,METAR LFLB 200130Z AUTO VRB02KT 9999 BKN043 09/08 Q1017,0,2.0,0,10000.0,0,0,0,
2026-04-20 01:00:00,METAR LFLB 200100Z AUTO 17002KT 9999 SCT041 08/08 Q1017,0,2.0,0,10000.0,0,0,0,
2026-04-20 00:30:00,METAR LFLB 200030Z AUTO VRB02KT 9999 FEW041 09/08 Q1017,0,2.0,0,10000.0,0,0,0,
2026-04-20 00:00:00,METAR LFLB 200000Z AUTO VRB01KT CAVOK 10/09 Q1017,1,0.0,0,9999.0,0,0,0,
2026-04-19 23:30:00,METAR LFLB 192330Z AUTO 32001KT CAVOK 10/09 Q1017,1,0.0,0,9999.0,0,0,0,
2026-04-19 23:00:00,METAR LFLB 192300Z AUTO 00000KT CAVOK 11/09 Q1017,1,0.0,0,9999.0,0,0,0,
2026-04-19 22:30:00,METAR LFLB 192230Z AUTO 21001KT CAVOK 11/10 Q1017,1,0.0,0,9999.0,0,0,0,
2026-04-19 22:00:00,METAR LFLB 192200Z AUTO 00000KT 9999 SCT046 12/10 Q1017,0,0.0,0,10000.0,0,0,0,
2026-04-19 21:30:00,METAR LFLB 192130Z AUTO 00000KT 9999 BKN047 13/10 Q1017,0,0.0,0,10000.0,0,0,0,
2026-04-19 21:00:00,METAR LFLB 192100Z AUTO 23001KT 9999 SCT048 13/11 Q1017,0,1.0,0,10000.0,0,0,0,
2026-04-19 20:30:00,METAR LFLB 192030Z AUTO 21002KT 9999 BKN046 14/11 Q1017,0,2.0,0,10000.0,0,0,0,
2026-04-19 20:00:00,METAR LFLB 192000Z AUTO VRB02KT 9999 BKN049 15/11 Q1017,0,2.0,0,10000.0,0,0,0,
2026-04-19 19:30:00,METAR LFLB 191930Z AUTO VRB02KT 9999 SCT049 15/10 Q1017,0,2.0,0,10000.0,0,0,0,
2026-04-19 19:00:00,METAR LFLB 191900Z AUTO 16004KT 110V180 CAVOK 15/11 Q1017 NOSIG,1,0.0,0,9999.0,0,0,0,
2026-04-19 18:30:00,METAR LFLB 191830Z AUTO 19003KT 120V220 CAVOK 16/10 Q1016 NOSIG,1,0.0,0,9999.0,0,0,0,
2026-04-19 18:00:00,METAR LFLB 191800Z AUTO 15003KT 110V210 CAVOK 17/11 Q1016 NOSIG,1,0.0,0,9999.0,0,0,0,
2026-04-19 17:30:00,METAR LFLB 191730Z AUTO VRB02KT CAVOK 18/10 Q1016 NOSIG,1,0.0,0,9999.0,0,0,0,
2026-04-19 17:00:00,METAR LFLB 191700Z AUTO VRB02KT CAVOK 20/10 Q1016 NOSIG,1,0.0,0,9999.0,0,0,0,
2026-04-19 16:30:00,METAR LFLB 191630Z AUTO VRB02KT 9999 FEW052 22/12 Q1016 NOSIG,0,2.0,0,10000.0,0,0,0,
2026-04-19 16:00:00,METAR LFLB 191600Z AUTO 02004KT 340V060 CAVOK 22/12 Q1016 TEMPO FEW060CB,1,0.0,0,9999.0,0,0,0,
2026-04-19 15:30:00,METAR LFLB 191530Z AUTO VRB05KT CAVOK 22/12 Q1016 TEMPO FEW060CB,1,0.0,0,9999.0,0,0,0,
2026-04-19 15:00:00,METAR LFLB 191500Z AUTO 30009KT 270V340 CAVOK 22/11 Q1016 TEMPO FEW060CB,1,0.0,0,9999.0,0,0,0,
2026-04-19 14:30:00,METAR LFLB 191430Z AUTO 02005KT 310V060 CAVOK 22/12 Q1017 TEMPO FEW060CB,1,0.0,0,9999.0,0,0,0,
2026-04-19 14:00:00,METAR LFLB 191400Z AUTO 34007KT 280V030 9999 FEW049 23/12 Q1017 TEMPO FEW060CB,0,7.0,0,10000.0,0,0,0,
2026-04-19 13:30:00,METAR LFLB 191330Z AUTO VRB04KT 9999 ///TCU 23/12 Q1017 TEMPO FEW060CB,0,4.0,0,10000.0,0,0,0,
2026-04-19 13:00:00,METAR LFLB 191300Z AUTO 02007KT 9999 FEW050/// ///CB 22/12 Q1017 NOSIG,0,7.0,0,10000.0,0,0,0,
2026-04-19 12:30:00,METAR LFLB 191230Z AUTO 01004KT 330V050 9999 FEW049/// ///CB 23/11 Q1017 NOSIG,0,4.0,0,10000.0,0,0,0,
2026-04-19 12:00:00,METAR LFLB 191200Z AUTO 02005KT 330V040 CAVOK 22/11 Q1018 TEMPO FEW060CB,1,0.0,0,9999.0,0,0,0,
2026-04-19 11:30:00,METAR LFLB 191130Z AUTO 04005KT 350V070 CAVOK 22/12 Q1018 TEMPO FEW060CB,1,0.0,0,9999.0,0,0,0,
2026-04-19 11:00:00,METAR LFLB 191100Z AUTO VRB02KT CAVOK 21/12 Q1018 NOSIG,1,0.0,0,9999.0,0,0,0,
2026-04-19 10:30:00,METAR LFLB 191030Z AUTO 01005KT 350V050 CAVOK 20/12 Q1019,1,0.0,0,9999.0,0,0,0,
2026-04-19 02:00:00,METAR LFLB 190200Z AUTO 21003KT CAVOK 10/09 Q1018,1,0.0,0,9999.0,0,0,0,
2026-04-19 01:30:00,METAR LFLB 190130Z AUTO 21001KT CAVOK 10/09 Q1018,1,0.0,0,9999.0,0,0,0,
2026-04-19 01:00:00,METAR LFLB 190100Z AUTO 00000KT CAVOK 10/09 Q1018,1,0.0,0,9999.0,0,0,0,
2026-04-19 00:30:00,METAR LFLB 190030Z AUTO 00000KT CAVOK 11/10 Q1019,1,0.0,0,9999.0,0,0,0,
2026-04-19 00:00:00,METAR LFLB 190000Z AUTO VRB02KT CAVOK 11/09 Q1019,1,0.0,0,9999.0,0,0,0,
2026-04-18 23:30:00,METAR LFLB 182330Z AUTO VRB03KT CAVOK 12/10 Q1019,1,0.0,0,9999.0,0,0,0,
2026-04-18 23:00:00,METAR LFLB 182300Z AUTO 17003KT 140V200 CAVOK 12/10 Q1019,1,0.0,0,9999.0,0,0,0,
2026-04-18 22:30:00,METAR LFLB 182230Z AUTO 00000KT CAVOK 12/10 Q1019,1,0.0,0,9999.0,0,0,0,
2026-04-18 22:00:00,METAR LFLB 182200Z AUTO 00000KT CAVOK 13/10 Q1019,1,0.0,0,9999.0,0,0,0,
2026-04-18 21:30:00,METAR LFLB 182130Z AUTO 19002KT CAVOK 13/11 Q1019,1,0.0,0,9999.0,0,0,0,
2026-04-18 21:00:00,METAR LFLB 182100Z AUTO 00000KT CAVOK 14/11 Q1019,1,0.0,0,9999.0,0,0,0,
2026-04-18 20:30:00,METAR LFLB 182030Z AUTO 00000KT CAVOK 14/11 Q1019,1,0.0,0,9999.0,0,0,0,
2026-04-18 20:00:00,METAR LFLB 182000Z AUTO VRB02KT CAVOK 16/12 Q1019,1,0.0,0,9999.0,0,0,0,
2026-04-18 19:30:00,METAR LFLB 181930Z AUTO VRB02KT CAVOK 16/12 Q1018,1,0.0,0,9999.0,0,0,0,
2026-04-18 19:00:00,METAR LFLB 181900Z AUTO VRB02KT CAVOK 17/13 Q1018 NOSIG,1,0.0,0,9999.0,0,0,0,
2026-04-18 18:30:00,METAR LFLB 181830Z AUTO VRB02KT CAVOK 18/13 Q1018 NOSIG,1,0.0,0,9999.0,0,0,0,
2026-04-18 18:00:00,METAR LFLB 181800Z AUTO 00000KT CAVOK 20/12 Q1017 NOSIG,1,0.0,0,9999.0,0,0,0,
2026-04-18 17:30:00,METAR LFLB 181730Z AUTO 00000KT CAVOK 20/14 Q1017 NOSIG,1,0.0,0,9999.0,0,0,0,
2026-04-18 17:00:00,METAR LFLB 181700Z AUTO 05001KT CAVOK 21/14 Q1017 NOSIG,1,0.0,0,9999.0,0,0,0,
2026-04-18 16:30:00,METAR LFLB 181630Z AUTO 05003KT CAVOK 22/13 Q1017 NOSIG,1,0.0,0,9999.0,0,0,0,
2026-04-18 16:00:00,METAR LFLB 181600Z AUTO 03004KT CAVOK 23/11 Q1017 NOSIG,1,0.0,0,9999.0,0,0,0,
2026-04-18 15:00:00,METAR LFLB 181500Z AUTO 02005KT CAVOK 24/11 Q1018 NOSIG,1,0.0,0,9999.0,0,0,0,
2026-04-18 14:30:00,METAR LFLB 181430Z AUTO 02006KT 330V040 CAVOK 24/11 Q1018 NOSIG,1,0.0,0,9999.0,0,0,0,
2026-04-18 14:00:00,METAR LFLB 181400Z AUTO 03007KT CAVOK 24/12 Q1018 NOSIG,1,0.0,0,9999.0,0,0,0,
2026-04-18 13:30:00,METAR LFLB 181330Z AUTO 01006KT 320V050 CAVOK 23/12 Q1019 NOSIG,1,0.0,0,9999.0,0,0,0,
2026-04-18 13:00:00,METAR LFLB 181300Z AUTO 01005KT 340V040 CAVOK 22/11 Q1019 NOSIG,1,0.0,0,9999.0,0,0,0,
2026-04-18 12:30:00,METAR LFLB 181230Z AUTO 36004KT 320V050 CAVOK 22/11 Q1019 NOSIG,1,0.0,0,9999.0,0,0,0,
2026-04-18 12:00:00,METAR LFLB 181200Z AUTO 35005KT 280V020 CAVOK 21/10 Q1019 NOSIG,1,0.0,0,9999.0,0,0,0,
2026-04-18 11:30:00,METAR LFLB 181130Z AUTO 01005KT 320V030 CAVOK 20/11 Q1020 NOSIG,1,0.0,0,9999.0,0,0,0,
2026-04-18 11:00:00,METAR LFLB 181100Z AUTO 01005KT CAVOK 18/11 Q1020 NOSIG,1,0.0,0,9999.0,0,0,0,
2026-04-18 10:30:00,METAR LFLB 181030Z AUTO 01006KT CAVOK 17/11 Q1020 NOSIG,1,0.0,0,9999.0,0,0,0,
2026-04-18 10:00:00,METAR LFLB 181000Z AUTO 01005KT 340V040 CAVOK 17/12 Q1020 NOSIG,1,0.0,0,9999.0,0,0,0,
2026-04-18 09:30:00,METAR LFLB 180930Z AUTO 02003KT 350V060 CAVOK 18/12 Q1021 NOSIG,1,0.0,0,9999.0,0,0,0,
2026-04-18 09:00:00,METAR LFLB 180900Z AUTO VRB01KT CAVOK 18/11 Q1021 NOSIG,1,0.0,0,9999.0,0,0,0,
2026-04-18 08:30:00,METAR LFLB 180830Z AUTO 00000KT CAVOK 17/10 Q1021 NOSIG,1,0.0,0,9999.0,0,0,0,
2026-04-18 08:00:00,METAR LFLB 180800Z AUTO VRB02KT CAVOK 15/10 Q1021 NOSIG,1,0.0,0,9999.0,0,0,0,
2026-04-18 07:30:00,METAR LFLB 180730Z AUTO 00000KT CAVOK 13/10 Q1021 NOSIG,1,0.0,0,9999.0,0,0,0,
2026-04-18 07:00:00,METAR LFLB 180700Z AUTO 00000KT CAVOK 12/09 Q1021 NOSIG,1,0.0,0,9999.0,0,0,0,
2026-04-18 06:30:00,METAR LFLB 180630Z AUTO 00000KT CAVOK 10/10 Q1021 NOSIG,1,0.0,0,9999.0,0,0,0,
2026-04-18 06:00:00,METAR LFLB 180600Z AUTO 00000KT CAVOK 08/08 Q1021 NOSIG,1,0.0,0,9999.0,0,0,0,
2026-04-18 05:30:00,METAR LFLB 180530Z AUTO VRB01KT 8000 NSC 08/07 Q1021 NOSIG,0,1.0,0,8000.0,0,0,0,
2026-04-18 05:00:00,METAR LFLB 180500Z AUTO 14002KT 9000 3300 NSC 07/07 Q1021 TEMPO 0600 BCFG,0,2.0,0,9000.0,0,0,1,"BC,FG"
2026-04-18 04:30:00,METAR LFLB 180430Z AUTO 18002KT 1700 0900 R18/1800U R36/P5000 BCFG NSC 07/07 Q1020 BECMG 9999 NSW,0,2.0,0,1700.0,0,0,1,"BC,FG"
2026-04-18 04:00:00,METAR LFLB 180400Z AUTO 19002KT 9000 2300 NSC 07/07 Q1020 TEMPO 0600 BCFG,0,2.0,0,9000.0,0,0,1,"BC,FG"
2026-04-18 03:30:00,METAR LFLB 180330Z AUTO 17002KT 5000 0650 R18/3100U R36/1600D BCFG NSC 07/07 Q1020 TEMPO 0600 BCFG,0,2.0,0,5000.0,0,0,1,"BC,FG"
2026-04-18 03:00:00,METAR LFLB 180300Z AUTO 17002KT CAVOK 07/07 Q1020 TEMPO 0600 BCFG,1,0.0,0,9999.0,0,0,0,
2026-04-18 02:30:00,METAR LFLB 180230Z AUTO 00000KT CAVOK 08/08 Q1020,1,0.0,0,9999.0,0,0,0,
2026-04-18 02:00:00,METAR LFLB 180200Z AUTO 24001KT CAVOK 09/08 Q1020,1,0.0,0,9999.0,0,0,0,
2026-04-18 01:30:00,METAR LFLB 180130Z AUTO 20001KT CAVOK 09/08 Q1020,1,0.0,0,9999.0,0,0,0,
2026-04-18 01:00:00,METAR LFLB 180100Z AUTO 16002KT CAVOK 08/08 Q1020,1,0.0,0,9999.0,0,0,0,
2026-04-18 00:30:00,METAR LFLB 180030Z AUTO VRB02KT CAVOK 09/09 Q1020,1,0.0,0,9999.0,0,0,0,
2026-04-18 00:00:00,METAR LFLB 180000Z AUTO 17002KT CAVOK 09/09 Q1020,1,0.0,0,9999.0,0,0,0,
2026-04-17 23:30:00,METAR LFLB 172330Z AUTO 00000KT CAVOK 10/09 Q1020,1,0.0,0,9999.0,0,0,0,
2026-04-17 23:00:00,METAR LFLB 172300Z AUTO VRB01KT CAVOK 10/08 Q1020,1,0.0,0,9999.0,0,0,0,
2026-04-17 22:30:00,METAR LFLB 172230Z AUTO 15002KT CAVOK 11/09 Q1020,1,0.0,0,9999.0,0,0,0,
2026-04-17 22:00:00,METAR LFLB 172200Z AUTO 16001KT CAVOK 10/09 Q1020,1,0.0,0,9999.0,0,0,0,
2026-04-17 21:30:00,METAR LFLB 172130Z AUTO 00000KT CAVOK 12/10 Q1020,1,0.0,0,9999.0,0,0,0,
2026-04-17 21:00:00,METAR LFLB 172100Z AUTO VRB01KT CAVOK 13/10 Q1020,1,0.0,0,9999.0,0,0,0,
2026-04-17 20:30:00,METAR LFLB 172030Z AUTO VRB02KT CAVOK 13/10 Q1020,1,0.0,0,9999.0,0,0,0,
2026-04-17 20:00:00,METAR LFLB 172000Z AUTO 30001KT CAVOK 14/10 Q1020,1,0.0,0,9999.0,0,0,0,
2026-04-17 19:30:00,METAR LFLB 171930Z AUTO VRB01KT CAVOK 15/11 Q1019,1,0.0,0,9999.0,0,0,0,
2026-04-17 19:00:00,METAR LFLB 171900Z AUTO VRB02KT CAVOK 16/10 Q1019 NOSIG,1,0.0,0,9999.0,0,0,0,
2026-04-17 18:30:00,METAR LFLB 171830Z AUTO VRB02KT CAVOK 17/11 Q1018 NOSIG,1,0.0,0,9999.0,0,0,0,
2026-04-17 18:00:00,METAR LFLB 171800Z AUTO 00000KT CAVOK 17/11 Q1018 NOSIG,1,0.0,0,9999.0,0,0,0,
2026-04-17 17:30:00,METAR LFLB 171730Z AUTO VRB03KT CAVOK 18/11 Q1018 NOSIG,1,0.0,0,9999.0,0,0,0,
2026-04-17 17:00:00,METAR LFLB 171700Z AUTO VRB02KT CAVOK 22/11 Q1018 NOSIG,1,0.0,0,9999.0,0,0,0,
2026-04-17 16:30:00,METAR LFLB 171630Z AUTO 36004KT 320V030 CAVOK 22/12 Q1018 NOSIG,1,0.0,0,9999.0,0,0,0,
2026-04-17 16:00:00,METAR LFLB 171600Z AUTO 02006KT CAVOK 23/11 Q1018 NOSIG,1,0.0,0,9999.0,0,0,0,
2026-04-17 15:30:00,METAR LFLB 171530Z AUTO 01006KT CAVOK 23/10 Q1018 NOSIG,1,0.0,0,9999.0,0,0,0,
2026-04-17 15:00:00,METAR LFLB 171500Z AUTO 01006KT 340V040 CAVOK 23/12 Q1018 NOSIG,1,0.0,0,9999.0,0,0,0,
2026-04-17 14:30:00,METAR LFLB 171430Z AUTO 02007KT CAVOK 22/12 Q1018 NOSIG,1,0.0,0,9999.0,0,0,0,
2026-04-17 14:00:00,METAR LFLB 171400Z AUTO 01005KT 330V040 CAVOK 22/10 Q1018 NOSIG,1,0.0,0,9999.0,0,0,0,
2026-04-17 13:30:00,METAR LFLB 171330Z AUTO 01004KT CAVOK 21/11 Q1019 NOSIG,1,0.0,0,9999.0,0,0,0,
2026-04-17 13:00:00,METAR LFLB 171300Z AUTO 36004KT 330V040 CAVOK 21/11 Q1019 NOSIG,1,0.0,0,9999.0,0,0,0,
2026-04-17 12:30:00,METAR LFLB 171230Z AUTO 35004KT 310V030 CAVOK 21/10 Q1019 NOSIG,1,0.0,0,9999.0,0,0,0,
2026-04-17 12:00:00,METAR LFLB 171200Z AUTO 36005KT 320V030 CAVOK 21/10 Q1020 NOSIG,1,0.0,0,9999.0,0,0,0,
2026-04-17 11:30:00,METAR LFLB 171130Z AUTO 36004KT 280V050 CAVOK 20/10 Q1020 NOSIG,1,0.0,0,9999.0,0,0,0,
2026-04-17 11:00:00,METAR LFLB 171100Z AUTO 01005KT 340V040 CAVOK 19/11 Q1020 NOSIG,1,0.0,0,9999.0,0,0,0,
2026-04-17 10:30:00,METAR LFLB 171030Z AUTO 01005KT 330V040 CAVOK 18/09 Q1020 NOSIG,1,0.0,0,9999.0,0,0,0,
2026-04-17 10:00:00,METAR LFLB 171000Z AUTO 02004KT CAVOK 17/09 Q1021 NOSIG,1,0.0,0,9999.0,0,0,0,
2026-04-17 09:30:00,METAR LFLB 170930Z AUTO 01003KT 330V040 CAVOK 17/10 Q1021 NOSIG,1,0.0,0,9999.0,0,0,0,
2026-04-17 09:00:00,METAR LFLB 170900Z AUTO VRB02KT CAVOK 16/09 Q1021 NOSIG,1,0.0,0,9999.0,0,0,0,
2026-04-17 08:30:00,METAR LFLB 170830Z AUTO VRB01KT CAVOK 15/08 Q1021 NOSIG,1,0.0,0,9999.0,0,0,0,
2026-04-17 08:00:00,METAR LFLB 170800Z AUTO VRB03KT CAVOK 13/09 Q1021 NOSIG,1,0.0,0,9999.0,0,0,0,
2026-04-17 07:30:00,METAR LFLB 170730Z AUTO 00000KT CAVOK 12/09 Q1022 NOSIG,1,0.0,0,9999.0,0,0,0,
2026-04-17 07:00:00,METAR LFLB 170700Z AUTO VRB01KT CAVOK 10/08 Q1022 NOSIG,1,0.0,0,9999.0,0,0,0,
2026-04-17 06:30:00,METAR LFLB 170630Z AUTO VRB01KT CAVOK 09/08 Q1022 NOSIG,1,0.0,0,9999.0,0,0,0,
2026-04-17 06:00:00,METAR LFLB 170600Z AUTO 15002KT CAVOK 07/07 Q1022 TEMPO 0800 BCFG,1,0.0,0,9999.0,0,0,0,
2026-04-17 05:30:00,METAR LFLB 170530Z AUTO 16002KT CAVOK 06/06 Q1022 TEMPO 0800 BCFG,1,0.0,0,9999.0,0,0,0,
2026-04-17 05:00:00,METAR LFLB 170500Z AUTO 18003KT 9999 1700 NSC 05/05 Q1021 TEMPO 0800 BCFG,0,3.0,0,10000.0,0,0,1,"BC,FG"
2026-04-17 04:30:00,METAR LFLB 170430Z AUTO 18002KT 9999 1000 R18/0650D R36/P5000 NSC 06/06 Q1021 TEMPO 0800 BCFG,0,2.0,0,10000.0,0,0,1,"BC,FG"
2026-04-17 04:00:00,METAR LFLB 170400Z AUTO 00000KT CAVOK 06/06 Q1021 TEMPO 0800 BCFG,1,0.0,0,9999.0,0,0,0,
2026-04-17 03:30:00,METAR LFLB 170330Z AUTO 00000KT CAVOK 06/06 Q1021 TEMPO 0800 BCFG,1,0.0,0,9999.0,0,0,0,
2026-04-17 03:00:00,METAR LFLB 170300Z AUTO VRB01KT 9999 0600 R18/P5000 R36/P5000 BCFG NSC 06/06 Q1021 TEMPO 0800 BCFG,0,1.0,0,10000.0,0,0,1,"BC,FG"
2026-04-17 02:30:00,METAR LFLB 170230Z AUTO VRB02KT 9999 0800 R18/P5000 R36/P5000 BCFG NSC 07/06 Q1021 TEMPO 0800 BCFG,0,2.0,0,10000.0,0,0,1,"BC,FG"
2026-04-17 02:00:00,METAR LFLB 170200Z AUTO 19002KT CAVOK 07/07 Q1021,1,0.0,0,9999.0,0,0,0,
2026-04-17 01:30:00,METAR LFLB 170130Z AUTO 19002KT CAVOK 08/07 Q1021,1,0.0,0,9999.0,0,0,0,
2026-04-17 01:00:00,METAR LFLB 170100Z AUTO 20001KT CAVOK 08/07 Q1021,1,0.0,0,9999.0,0,0,0,
2026-04-17 00:30:00,METAR LFLB 170030Z AUTO 00000KT CAVOK 08/07 Q1021,1,0.0,0,9999.0,0,0,0,
2026-04-17 00:00:00,METAR LFLB 170000Z AUTO 18002KT CAVOK 08/07 Q1021,1,0.0,0,9999.0,0,0,0,
2026-04-16 23:30:00,METAR LFLB 162330Z AUTO 00000KT CAVOK 08/07 Q1021,1,0.0,0,9999.0,0,0,0,
2026-04-16 23:00:00,METAR LFLB 162300Z AUTO VRB02KT CAVOK 08/07 Q1021,1,0.0,0,9999.0,0,0,0,
2026-04-16 22:30:00,METAR LFLB 162230Z AUTO 21004KT CAVOK 09/07 Q1020,1,0.0,0,9999.0,0,0,0,
2026-04-16 22:00:00,METAR LFLB 162200Z AUTO VRB02KT CAVOK 10/07 Q1020,1,0.0,0,9999.0,0,0,0,
2026-04-16 21:30:00,METAR LFLB 162130Z AUTO VRB01KT CAVOK 10/08 Q1020,1,0.0,0,9999.0,0,0,0,
2026-04-16 21:00:00,METAR LFLB 162100Z AUTO VRB02KT CAVOK 12/08 Q1020,1,0.0,0,9999.0,0,0,0,
2026-04-16 20:30:00,METAR LFLB 162030Z AUTO 19003KT CAVOK 12/08 Q1020,1,0.0,0,9999.0,0,0,0,
2026-04-16 20:00:00,METAR LFLB 162000Z AUTO VRB02KT CAVOK 13/08 Q1020,1,0.0,0,9999.0,0,0,0,
2026-04-16 19:30:00,METAR LFLB 161930Z AUTO 30004KT CAVOK 15/08 Q1020,1,0.0,0,9999.0,0,0,0,
2026-04-16 19:00:00,METAR LFLB 161900Z AUTO VRB03KT CAVOK 15/09 Q1020 NOSIG,1,0.0,0,9999.0,0,0,0,
2026-04-16 18:30:00,METAR LFLB 161830Z AUTO 36004KT CAVOK 16/09 Q1019 NOSIG,1,0.0,0,9999.0,0,0,0,
2026-04-16 18:00:00,METAR LFLB 161800Z AUTO 02004KT CAVOK 17/09 Q1019 NOSIG,1,0.0,0,9999.0,0,0,0,
2026-04-16 17:30:00,METAR LFLB 161730Z AUTO 36005KT CAVOK 18/09 Q1019 NOSIG,1,0.0,0,9999.0,0,0,0,
2026-04-16 17:00:00,METAR LFLB 161700Z AUTO 34005KT CAVOK 20/07 Q1019 NOSIG,1,0.0,0,9999.0,0,0,0,
2026-04-16 16:30:00,METAR LFLB 161630Z AUTO 36006KT CAVOK 22/07 Q1019 NOSIG,1,0.0,0,9999.0,0,0,0,
2026-04-16 16:00:00,METAR LFLB 161600Z AUTO 36008KT CAVOK 21/08 Q1020 NOSIG,1,0.0,0,9999.0,0,0,0,
2026-04-16 15:30:00,METAR LFLB 161530Z AUTO 35008KT CAVOK 22/07 Q1020 NOSIG,1,0.0,0,9999.0,0,0,0,
2026-04-16 15:00:00,METAR LFLB 161500Z AUTO 36008KT CAVOK 22/07 Q1020 NOSIG,1,0.0,0,9999.0,0,0,0,
2026-04-16 14:30:00,METAR LFLB 161430Z AUTO 35007KT CAVOK 22/07 Q1020 NOSIG,1,0.0,0,9999.0,0,0,0,
2026-04-16 14:00:00,METAR LFLB 161400Z AUTO 35008KT CAVOK 22/06 Q1020 NOSIG,1,0.0,0,9999.0,0,0,0,
2026-04-16 13:30:00,METAR LFLB 161330Z AUTO 36009KT CAVOK 21/07 Q1020 NOSIG,1,0.0,0,9999.0,0,0,0,
2026-04-16 13:00:00,METAR LFLB 161300Z AUTO 35009KT CAVOK 21/08 Q1021 NOSIG,1,0.0,0,9999.0,0,0,0,
2026-04-16 12:30:00,METAR LFLB 161230Z AUTO 36011KT CAVOK 21/07 Q1021 NOSIG,1,0.0,0,9999.0,0,0,0,
2026-04-16 12:00:00,METAR LFLB 161200Z AUTO 36010KT CAVOK 21/08 Q1021 NOSIG,1,0.0,0,9999.0,0,0,0,
2026-04-16 11:30:00,METAR LFLB 161130Z AUTO 36010KT CAVOK 20/09 Q1021 NOSIG,1,0.0,0,9999.0,0,0,0,
2026-04-16 11:00:00,METAR LFLB 161100Z AUTO 01009KT CAVOK 18/10 Q1022 NOSIG,1,0.0,0,9999.0,0,0,0,
2026-04-16 10:30:00,METAR LFLB 161030Z AUTO 01006KT 340V060 CAVOK 18/10 Q1022 NOSIG,1,0.0,0,9999.0,0,0,0,
2026-04-16 10:00:00,METAR LFLB 161000Z AUTO 01005KT 340V050 CAVOK 17/11 Q1022 NOSIG,1,0.0,0,9999.0,0,0,0,
2026-04-16 09:30:00,METAR LFLB 160930Z AUTO 01004KT 340V040 CAVOK 15/09 Q1022 NOSIG,1,0.0,0,9999.0,0,0,0,
2026-04-16 09:00:00,METAR LFLB 160900Z AUTO 02004KT 340V040 CAVOK 14/09 Q1022 NOSIG,1,0.0,0,9999.0,0,0,0,
2026-04-16 08:30:00,METAR LFLB 160830Z AUTO VRB02KT CAVOK 14/09 Q1023 NOSIG,1,0.0,0,9999.0,0,0,0,
2026-04-16 08:00:00,METAR LFLB 160800Z AUTO VRB02KT CAVOK 13/09 Q1023 NOSIG,1,0.0,0,9999.0,0,0,0,
2026-04-16 07:30:00,METAR LFLB 160730Z AUTO VRB02KT CAVOK 11/09 Q1023 NOSIG,1,0.0,0,9999.0,0,0,0,
2026-04-16 07:00:00,METAR LFLB 160700Z AUTO 04003KT 010V080 9999 FEW006 SCT062 10/09 Q1023 NOSIG,0,3.0,0,10000.0,0,0,0,
2026-04-16 06:30:00,METAR LFLB 160630Z AUTO VRB01KT 9000 FEW007 SCT062 10/10 Q1023 NOSIG,0,1.0,0,9000.0,0,0,0,
2026-04-16 06:00:00,METAR LFLB 160600Z AUTO 13002KT 9999 SCT008 07/07 Q1023 BECMG 36010KT,0,2.0,0,10000.0,0,0,0,
2026-04-16 05:30:00,METAR LFLB 160530Z AUTO VRB02KT 7000 BKN006 06/06 Q1023 BECMG BKN040,0,2.0,0,7000.0,0,0,0,
2026-04-16 05:00:00,METAR LFLB 160500Z AUTO 19003KT 1100 0450 R18/1400U R36/1400U BCFG FEW005 SCT062 06/06 Q1023 BECMG 9999 NSW,0,3.0,0,1100.0,0,0,1,"BC,FG"
2026-04-16 04:30:00,METAR LFLB 160430Z AUTO 00000KT 1500 0400 R18/2200D R36/2300U BCFG FEW002 BKN062 06/06 Q1023 BECMG 9999 NSW,0,0.0,0,1500.0,0,0,1,"BC,FG"
2026-04-16 04:00:00,METAR LFLB 160400Z AUTO 00000KT 2900 0700 R18/4500D R36/1000D BCFG NSC 07/07 Q1023 TEMPO 0500 BCFG,0,0.0,0,2900.0,0,0,1,"BC,FG"
2026-04-16 03:30:00,METAR LFLB 160330Z AUTO 13002KT 9000 FEW002 07/07 Q1022 NOSIG,0,2.0,0,9000.0,0,0,0,
2026-04-16 03:00:00,METAR LFLB 160300Z AUTO VRB02KT 3500 BR NSC 08/07 Q1022 BECMG 9999 NSW,0,2.0,0,3500.0,0,0,1,BR
2026-04-16 02:30:00,METAR LFLB 160230Z AUTO 28001KT 7000 SCT058 08/08 Q1022 NOSIG,0,1.0,0,7000.0,0,0,0,
2026-04-16 02:00:00,METAR LFLB 160200Z AUTO 00000KT 9999 BKN058 08/08 Q1022,0,0.0,0,10000.0,0,0,0,
2026-04-16 01:30:00,METAR LFLB 160130Z AUTO 00000KT 9999 BKN058 09/08 Q1022,0,0.0,0,10000.0,0,0,0,
2026-04-16 01:00:00,METAR LFLB 160100Z AUTO 00000KT 9999 FEW048 BKN058 09/08 Q1022,0,0.0,0,10000.0,0,0,0,
2026-04-16 00:30:00,METAR LFLB 160030Z AUTO VRB02KT 9999 BKN056 08/08 Q1022,0,2.0,0,10000.0,0,0,0,
2026-04-16 00:00:00,METAR LFLB 160000Z AUTO 10002KT 9999 SCT056 08/08 Q1022,0,2.0,0,10000.0,0,0,0,
2026-04-15 23:30:00,METAR LFLB 152330Z AUTO 21002KT 9999 FEW056 08/08 Q1022,0,2.0,0,10000.0,0,0,0,
2026-04-15 23:00:00,METAR LFLB 152300Z AUTO 00000KT 9999 FEW054 08/08 Q1022,0,0.0,0,10000.0,0,0,0,
2026-04-15 22:30:00,METAR LFLB 152230Z AUTO VRB02KT CAVOK 09/09 Q1022,1,0.0,0,9999.0,0,0,0,
2026-04-15 22:00:00,METAR LFLB 152200Z AUTO 16002KT 9999 FEW045 10/08 Q1022,0,2.0,0,10000.0,0,0,0,
2026-04-15 21:30:00,METAR LFLB 152130Z AUTO 16003KT 9999 FEW047 09/08 Q1022,0,3.0,0,10000.0,0,0,0,
2026-04-15 21:00:00,METAR LFLB 152100Z AUTO 27003KT 9999 FEW048 SCT056 10/09 Q1022,0,3.0,0,10000.0,0,0,0,
2026-04-15 20:30:00,METAR LFLB 152030Z AUTO VRB02KT 9999 FEW048 BKN054 11/09 Q1022,0,2.0,0,10000.0,0,0,0,
2026-04-15 20:00:00,METAR LFLB 152000Z AUTO 29002KT 9999 BKN052 11/09 Q1021 NOSIG,0,2.0,0,10000.0,0,0,0,
2026-04-15 19:30:00,METAR LFLB 151930Z AUTO VRB02KT 9999 FEW050 11/09 Q1021 NOSIG,0,2.0,0,10000.0,0,0,0,
2026-04-15 19:00:00,METAR LFLB 151900Z AUTO VRB02KT CAVOK 12/09 Q1021 NOSIG,1,0.0,0,9999.0,0,0,0,
2026-04-15 18:30:00,METAR LFLB 151830Z AUTO VRB03KT CAVOK 12/10 Q1020 NOSIG,1,0.0,0,9999.0,0,0,0,
2026-04-15 18:00:00,METAR LFLB 151800Z AUTO VRB02KT CAVOK 13/10 Q1020 NOSIG,1,0.0,0,9999.0,0,0,0,
2026-04-15 17:30:00,METAR LFLB 151730Z AUTO 00000KT CAVOK 15/09 Q1020 NOSIG,1,0.0,0,9999.0,0,0,0,
2026-04-15 17:00:00,METAR LFLB 151700Z AUTO 34003KT CAVOK 16/10 Q1020 NOSIG,1,0.0,0,9999.0,0,0,0,
2026-04-15 16:30:00,METAR LFLB 151630Z AUTO VRB02KT CAVOK 19/09 Q1020 NOSIG,1,0.0,0,9999.0,0,0,0,
2026-04-15 16:00:00,METAR LFLB 151600Z AUTO 36004KT 310V040 CAVOK 18/09 Q1019 NOSIG,1,0.0,0,9999.0,0,0,0,
2026-04-15 15:30:00,METAR LFLB 151530Z AUTO 36004KT 320V040 CAVOK 18/09 Q1020 NOSIG,1,0.0,0,9999.0,0,0,0,
2026-04-15 15:00:00,METAR LFLB 151500Z AUTO 36004KT 310V060 CAVOK 18/09 Q1020 NOSIG,1,0.0,0,9999.0,0,0,0,
2026-04-15 14:30:00,METAR LFLB 151430Z AUTO 02006KT 9999 FEW039 17/09 Q1020 NOSIG,0,6.0,0,10000.0,0,0,0,
2026-04-15 14:00:00,METAR LFLB 151400Z AUTO 02008KT 9999 BKN040 17/09 Q1020 NOSIG,0,8.0,0,10000.0,0,0,0,
2026-04-15 13:30:00,METAR LFLB 151330Z AUTO 03008KT 9999 OVC040 17/10 Q1020 NOSIG,0,8.0,0,10000.0,0,0,0,
2026-04-15 13:00:00,METAR LFLB 151300Z AUTO 03010KT 9999 OVC041 16/09 Q1020 NOSIG,0,10.0,0,10000.0,0,0,0,
2026-04-15 12:30:00,METAR LFLB 151230Z AUTO 02009KT 9999 OVC042 16/09 Q1020 NOSIG,0,9.0,0,10000.0,0,0,0,
2026-04-15 12:00:00,METAR LFLB 151200Z AUTO 35007KT 310V020 9999 OVC044 16/08 Q1021 NOSIG,0,7.0,0,10000.0,0,0,0,
2026-04-15 11:30:00,METAR LFLB 151130Z AUTO 36006KT 320V030 9999 OVC044 15/08 Q1021 NOSIG,0,6.0,0,10000.0,0,0,0,
2026-04-15 11:00:00,METAR LFLB 151100Z AUTO 01004KT 330V050 9999 OVC045 15/08 Q1021 NOSIG,0,4.0,0,10000.0,0,0,0,
2026-04-15 10:30:00,METAR LFLB 151030Z AUTO 01004KT 310V110 9999 OVC045 15/07 Q1021 NOSIG,0,4.0,0,10000.0,0,0,0,
2026-04-15 10:00:00,METAR LFLB 151000Z AUTO VRB03KT 9999 BKN045 14/07 Q1021 NOSIG,0,3.0,0,10000.0,0,0,0,
2026-04-15 09:30:00,METAR LFLB 150930Z AUTO 36003KT 300V060 9999 SCT046 13/07 Q1021 NOSIG,0,3.0,0,10000.0,0,0,0,
2026-04-15 09:00:00,METAR LFLB 150900Z AUTO 01004KT 330V070 9999 FEW046 12/07 Q1021 NOSIG,0,4.0,0,10000.0,0,0,0,
2026-04-15 08:30:00,METAR LFLB 150830Z AUTO 01006KT CAVOK 13/08 Q1021 NOSIG,1,0.0,0,9999.0,0,0,0,
2026-04-15 08:00:00,METAR LFLB 150800Z AUTO 03004KT 350V060 9999 FEW028 12/08 Q1021 NOSIG,0,4.0,0,10000.0,0,0,0,
2026-04-15 07:30:00,METAR LFLB 150730Z AUTO 03004KT 350V050 9999 SCT028 11/08 Q1021 NOSIG,0,4.0,0,10000.0,0,0,0,
2026-04-15 07:00:00,METAR LFLB 150700Z AUTO VRB01KT 9999 BKN031 11/07 Q1021 NOSIG,0,1.0,0,10000.0,0,0,0,
2026-04-15 06:30:00,METAR LFLB 150630Z AUTO VRB02KT 9999 BKN030 09/07 Q1021 NOSIG,0,2.0,0,10000.0,0,0,0,
2026-04-15 06:00:00,METAR LFLB 150600Z AUTO VRB02KT 9999 BKN029 08/07 Q1021 NOSIG,0,2.0,0,10000.0,0,0,0,
2026-04-15 05:30:00,METAR LFLB 150530Z AUTO 31002KT 9999 BKN030 BKN035 08/07 Q1021 NOSIG,0,2.0,0,10000.0,0,0,0,
2026-04-15 05:00:00,METAR LFLB 150500Z AUTO 00000KT 9999 BKN028 BKN034 07/07 Q1021 NOSIG,0,0.0,0,10000.0,0,0,0,
2026-04-15 04:30:00,METAR LFLB 150430Z AUTO 13001KT 9999 BKN028 07/07 Q1020 NOSIG,0,1.0,0,10000.0,0,0,0,
2026-04-15 04:00:00,METAR LFLB 150400Z AUTO 00000KT 9999 BKN028 BKN140 07/06 Q1020 NOSIG,0,0.0,0,10000.0,0,0,0,
2026-04-15 03:30:00,METAR LFLB 150330Z AUTO 26002KT 9999 BKN029 08/07 Q1020 NOSIG,0,2.0,0,10000.0,0,0,0,
2026-04-15 03:00:00,METAR LFLB 150300Z AUTO VRB02KT 9999 OVC030 08/07 Q1020 NOSIG,0,2.0,0,10000.0,0,0,0,
2026-04-15 02:30:00,METAR LFLB 150230Z AUTO VRB02KT 9999 BKN031 OVC052 09/07 Q1020,0,2.0,0,10000.0,0,0,0,
2026-04-15 02:00:00,METAR LFLB 150200Z AUTO VRB02KT 9999 BKN032 OVC052 09/07 Q1020,0,2.0,0,10000.0,0,0,0,
2026-04-15 01:30:00,METAR LFLB 150130Z AUTO VRB02KT 9999 BKN032 OVC052 09/07 Q1020,0,2.0,0,10000.0,0,0,0,
2026-04-15 01:00:00,METAR LFLB 150100Z AUTO VRB02KT 9999 SCT032 OVC054 10/07 Q1020,0,2.0,0,10000.0,0,0,0,
2026-04-15 00:30:00,METAR LFLB 150030Z AUTO 32004KT 290V360 9999 BKN034 OVC054 10/07 Q1020,0,4.0,0,10000.0,0,0,0,
2026-04-15 00:00:00,METAR LFLB 150000Z AUTO VRB03KT 9999 SCT033 OVC056 10/07 Q1020,0,3.0,0,10000.0,0,0,0,
2026-04-14 23:30:00,METAR LFLB 142330Z AUTO VRB03KT 9999 SCT032 BKN056 10/07 Q1020,0,3.0,0,10000.0,0,0,0,
2026-04-14 23:00:00,METAR LFLB 142300Z AUTO 01005KT 9999 BKN056 10/07 Q1020,0,5.0,0,10000.0,0,0,0,
2026-04-14 22:30:00,METAR LFLB 142230Z AUTO 03006KT 9999 FEW032 OVC056 11/07 Q1020,0,6.0,0,10000.0,0,0,0,
2026-04-14 22:00:00,METAR LFLB 142200Z AUTO 02008KT 9999 FEW037 OVC056 12/07 Q1020,0,8.0,0,10000.0,0,0,0,
2026-04-14 21:30:00,METAR LFLB 142130Z AUTO 01007KT 9999 FEW035 OVC056 12/07 Q1020,0,7.0,0,10000.0,0,0,0,
2026-04-14 21:00:00,METAR LFLB 142100Z AUTO 01007KT 9999 OVC054 11/08 Q1020,0,7.0,0,10000.0,0,0,0,
2026-04-14 20:30:00,METAR LFLB 142030Z AUTO 01007KT 9999 OVC054 12/07 Q1020,0,7.0,0,10000.0,0,0,0,
2026-04-14 20:00:00,METAR LFLB 142000Z AUTO 01007KT 9999 SCT039 OVC054 12/07 Q1020,0,7.0,0,10000.0,0,0,0,
2026-04-14 19:30:00,METAR LFLB 141930Z AUTO 02006KT 9999 SCT042 OVC052 12/08 Q1020,0,6.0,0,10000.0,0,0,0,
2026-04-14 19:00:00,METAR LFLB 141900Z AUTO 04005KT 9999 BKN041 OVC050 11/08 Q1020 NOSIG,0,5.0,0,10000.0,0,0,0,
2026-04-14 18:30:00,METAR LFLB 141830Z AUTO 01005KT 9999 BKN040 OVC048 11/08 Q1019 NOSIG,0,5.0,0,10000.0,0,0,0,
2026-04-14 18:00:00,METAR LFLB 141800Z AUTO 02005KT 9999 OVC038 12/09 Q1019 NOSIG,0,5.0,0,10000.0,0,0,0,
2026-04-14 17:30:00,METAR LFLB 141730Z AUTO 04004KT 9999 OVC040 12/08 Q1019 NOSIG,0,4.0,0,10000.0,0,0,0,
2026-04-14 17:00:00,METAR LFLB 141700Z AUTO 03005KT 9999 OVC038 12/08 Q1019 NOSIG,0,5.0,0,10000.0,0,0,0,
2026-04-14 16:30:00,METAR LFLB 141630Z AUTO 01006KT 9999 BKN037 OVC043 12/08 Q1019 NOSIG,0,6.0,0,10000.0,0,0,0,
2026-04-14 16:00:00,METAR LFLB 141600Z AUTO 01005KT 9999 BKN035 OVC046 12/07 Q1019 NOSIG,0,5.0,0,10000.0,0,0,0,
2026-04-14 15:30:00,METAR LFLB 141530Z AUTO 02006KT 9999 BKN035 OVC041 13/07 Q1018 NOSIG,0,6.0,0,10000.0,0,0,0,
2026-04-14 15:00:00,METAR LFLB 141500Z AUTO 02005KT 9999 BKN038 OVC054 13/08 Q1018 NOSIG,0,5.0,0,10000.0,0,0,0,
2026-04-14 14:30:00,METAR LFLB 141430Z AUTO 02005KT 9999 BKN039 OVC054 13/07 Q1019 NOSIG,0,5.0,0,10000.0,0,0,0,
2026-04-14 14:00:00,METAR LFLB 141400Z AUTO 01005KT 9999 BKN036 OVC049 12/07 Q1019 NOSIG,0,5.0,0,10000.0,0,0,0,
2026-04-14 13:30:00,METAR LFLB 141330Z AUTO 01006KT 340V050 9999 OVC036 12/07 Q1019 NOSIG,0,6.0,0,10000.0,0,0,0,
2026-04-14 13:00:00,METAR LFLB 141300Z AUTO 05006KT 020V080 9999 OVC035 12/06 Q1019 NOSIG,0,6.0,0,10000.0,0,0,0,
2026-04-14 12:30:00,METAR LFLB 141230Z AUTO 04005KT 9999 OVC034 11/07 Q1018 NOSIG,0,5.0,0,10000.0,0,0,0,
2026-04-14 12:00:00,METAR LFLB 141200Z AUTO 03008KT 360V060 9999 // OVC033 11/06 Q1018,0,8.0,0,10000.0,0,0,0,
2026-04-14 11:30:00,METAR LFLB 141130Z AUTO 03008KT 9999 BKN034 OVC041 11/07 Q1018 NOSIG,0,8.0,0,10000.0,0,0,0,
2026-04-14 11:00:00,METAR LFLB 141100Z AUTO 03006KT 9999 OVC036 11/07 Q1018 NOSIG,0,6.0,0,10000.0,0,0,0,
2026-04-14 10:30:00,METAR LFLB 141030Z AUTO 02007KT 9999 OVC035 11/07 Q1018 NOSIG,0,7.0,0,10000.0,0,0,0,
2026-04-14 10:00:00,METAR LFLB 141000Z AUTO 03006KT 9999 OVC035 10/07 Q1018 NOSIG,0,6.0,0,10000.0,0,0,0,
2026-04-14 09:30:00,METAR LFLB 140930Z AUTO 01004KT 330V040 9999 BKN029 OVC040 10/07 Q1018 NOSIG,0,4.0,0,10000.0,0,0,0,
2026-04-14 09:00:00,METAR LFLB 140900Z AUTO 36006KT 9999 BKN028 OVC034 09/06 Q1018 NOSIG,0,6.0,0,10000.0,0,0,0,
2026-04-14 08:30:00,METAR LFLB 140830Z AUTO 34005KT 300V010 9999 BKN029 BKN034 OVC041 09/07 Q1018 NOSIG,0,5.0,0,10000.0,0,0,0,
2026-04-14 08:00:00,METAR LFLB 140800Z AUTO 35006KT 9999 SCT029 BKN035 OVC046 09/07 Q1018 NOSIG,0,6.0,0,10000.0,0,0,0,
2026-04-14 07:30:00,METAR LFLB 140730Z AUTO 36007KT 9999 SCT040 OVC046 09/07 Q1017 NOSIG,0,7.0,0,10000.0,0,0,0,
2026-04-14 07:00:00,METAR LFLB 140700Z AUTO 35005KT 320V020 9999 FEW028 OVC044 08/07 Q1017 TEMPO BKN009,0,5.0,0,10000.0,0,0,0,
2026-04-14 06:30:00,METAR LFLB 140630Z AUTO 32004KT 290V350 9999 FEW027 OVC042 08/07 Q1017 TEMPO BKN009,0,4.0,0,10000.0,0,0,0,
2026-04-14 06:00:00,METAR LFLB 140600Z AUTO 36006KT 9999 OVC040 08/06 Q1017 TEMPO BKN009,0,6.0,0,10000.0,0,0,0,
2026-04-14 05:30:00,METAR LFLB 140530Z AUTO 01007KT 9999 FEW028 OVC038 08/06 Q1016 TEMPO BKN009,0,7.0,0,10000.0,0,0,0,
2026-04-14 05:00:00,METAR LFLB 140500Z AUTO 36006KT 320V020 9999 FEW029 OVC035 08/06 Q1016 TEMPO BKN009,0,6.0,0,10000.0,0,0,0,
2026-04-14 04:30:00,METAR LFLB 140430Z AUTO 36005KT 320V030 9999 OVC039 08/06 Q1016 TEMPO BKN009,0,5.0,0,10000.0,0,0,0,
2026-04-14 04:00:00,METAR LFLB 140400Z AUTO 01007KT 340V040 9999 FEW028 OVC043 08/06 Q1016 TEMPO BKN009,0,7.0,0,10000.0,0,0,0,
2026-04-14 03:30:00,METAR LFLB 140330Z AUTO 01006KT 9999 FEW026 OVC040 08/06 Q1016 TEMPO BKN009,0,6.0,0,10000.0,0,0,0,
2026-04-14 03:00:00,METAR LFLB 140300Z AUTO 35005KT 320V020 9999 FEW027 OVC038 08/06 Q1016 TEMPO BKN009,0,5.0,0,10000.0,0,0,0,
2026-04-14 02:30:00,METAR LFLB 140230Z AUTO 34005KT 9999 OVC026 08/06 Q1016,0,5.0,0,10000.0,0,0,0,
2026-04-14 02:00:00,METAR LFLB 140200Z AUTO 01006KT 9999 OVC028 08/06 Q1015,0,6.0,0,10000.0,0,0,0,
2026-04-14 01:30:00,METAR LFLB 140130Z AUTO 03007KT 9999 OVC030 08/06 Q1015,0,7.0,0,10000.0,0,0,0,
2026-04-14 01:00:00,METAR LFLB 140100Z AUTO 02008KT 9999 OVC031 08/06 Q1015,0,8.0,0,10000.0,0,0,0,
2026-04-14 00:30:00,METAR LFLB 140030Z AUTO 35003KT 320V030 9999 FEW008 OVC035 08/07 Q1016,0,3.0,0,10000.0,0,0,0,
2026-04-14 00:00:00,METAR LFLB 140000Z AUTO VRB01KT 9999 BKN009 BKN022 OVC036 07/07 Q1016,0,1.0,0,10000.0,0,0,0,
2026-04-13 23:30:00,METAR LFLB 132330Z AUTO VRB01KT 9999 BKN009 BKN025 OVC037 07/07 Q1016,0,1.0,0,10000.0,0,0,0,
2026-04-13 23:00:00,METAR LFLB 132300Z AUTO 00000KT 9999 FEW009 SCT013 OVC034 07/07 Q1016,0,0.0,0,10000.0,0,0,0,
2026-04-13 22:30:00,METAR LFLB 132230Z AUTO 00000KT 9999 -RA FEW010 OVC036 07/07 Q1016,0,0.0,0,10000.0,0,0,0,-RA
2026-04-13 22:00:00,METAR LFLB 132200Z AUTO 00000KT 9999 -RA FEW008 BKN016 BKN030 07/07 Q1016,0,0.0,0,10000.0,0,0,0,-RA
2026-04-13 21:30:00,METAR LFLB 132130Z AUTO 20001KT 9999 -RA SCT009 SCT016 BKN029 07/07 Q1016,0,1.0,0,10000.0,0,0,0,-RA
2026-04-13 21:00:00,METAR LFLB 132100Z AUTO VRB01KT 7000 -RA BKN010 BKN019 BKN030 07/07 Q1016,0,1.0,0,7000.0,0,0,0,-RA
2026-04-13 20:30:00,METAR LFLB 132030Z AUTO VRB01KT 7000 -RA BKN012 BKN023 OVC031 07/07 Q1015,0,1.0,0,7000.0,0,0,0,-RA
2026-04-13 20:00:00,METAR LFLB 132000Z AUTO 24001KT 9000 -RA SCT010 BKN016 BKN023 08/07 Q1015,0,1.0,0,9000.0,0,0,0,-RA
2026-04-13 19:30:00,METAR LFLB 131930Z AUTO VRB02KT 9000 -RA FEW012 SCT017 BKN037 08/07 Q1015 NOSIG,0,2.0,0,9000.0,0,0,0,-RA
2026-04-13 19:00:00,METAR LFLB 131900Z AUTO VRB02KT 9999 -RA BKN012 BKN018 OVC041 08/07 Q1015 BECMG FEW013 OVC030,0,2.0,0,10000.0,0,0,0,-RA
2026-04-13 18:30:00,METAR LFLB 131830Z AUTO 00000KT 9999 -RA BKN014 BKN022 OVC038 08/07 Q1014 BECMG FEW013 OVC030,0,0.0,0,10000.0,0,0,0,-RA
2026-04-13 18:00:00,METAR LFLB 131800Z AUTO VRB02KT 9999 -RA FEW014 BKN035 BKN041 08/07 Q1014 NOSIG,0,2.0,0,10000.0,0,0,0,-RA
2026-04-13 17:30:00,METAR LFLB 131730Z AUTO VRB02KT 9999 -RA FEW008 SCT017 BKN033 08/06 Q1013 NOSIG,0,2.0,0,10000.0,0,0,0,-RA
2026-04-13 17:00:00,METAR LFLB 131700Z AUTO 11002KT 9999 -RA FEW012 BKN018 BKN029 08/07 Q1013 TEMPO 4500 -RADZ BKN013,0,2.0,0,10000.0,0,0,0,"-RA,DZ"
2026-04-13 16:30:00,METAR LFLB 131630Z AUTO VRB01KT 9999 -RA FEW010 SCT028 BKN039 09/07 Q1013 TEMPO 4500 -RADZ BKN013,0,1.0,0,10000.0,0,0,0,"-RA,DZ"
2026-04-13 16:00:00,METAR LFLB 131600Z AUTO VRB02KT 9999 -RA FEW011 OVC035 09/07 Q1013 TEMPO 4500 -RADZ BKN013,0,2.0,0,10000.0,0,0,0,"-RA,DZ"
2026-04-13 15:30:00,METAR LFLB 131530Z AUTO 02001KT 9999 -RA FEW010 SCT033 BKN039 09/06 Q1012 TEMPO 4500 -RADZ BKN013,0,1.0,0,10000.0,0,0,0,"-RA,DZ"
2026-04-13 15:00:00,METAR LFLB 131500Z AUTO VRB02KT 9999 -RA FEW011 BKN038 BKN046 09/07 Q1012 TEMPO 4500 -RADZ BKN013,0,2.0,0,10000.0,0,0,0,"-RA,DZ"
2026-04-13 14:30:00,METAR LFLB 131430Z AUTO VRB03KT 9999 -RA FEW014 BKN038 BKN047 09/07 Q1012,0,3.0,0,10000.0,0,0,0,-RA
2026-04-13 14:00:00,METAR LFLB 131400Z AUTO VRB02KT 9999 -RA FEW011 SCT016 BKN037 09/07 Q1012 TEMPO 4500 RA,0,2.0,0,10000.0,0,0,0,"-RA,RA"
2026-04-13 13:30:00,METAR LFLB 131330Z AUTO 34004KT 310V010 9999 -RA SCT010 SCT015 OVC044 09/07 Q1012 TEMPO 4500 RA,0,4.0,0,10000.0,0,0,0,"-RA,RA"
2026-04-13 13:00:00,METAR LFLB 131300Z AUTO 35003KT 310V020 9999 -RA FEW009 SCT022 BKN034 09/07 Q1012 TEMPO 4500 RA,0,3.0,0,10000.0,0,0,0,"-RA,RA"
2026-04-13 12:30:00,METAR LFLB 131230Z AUTO 35003KT 320V020 9999 -RA FEW010/// BKN023/// BKN037/// ///TCU 09/07 Q1012 TEMPO 4500 RA BECMG OVC025,0,3.0,0,10000.0,0,0,0,"-RA,RA"
2026-04-13 12:00:00,METAR LFLB 131200Z AUTO VRB02KT 9999 -RA SCT007 SCT011 BKN021 08/07 Q1011 TEMPO 4500 RA,0,2.0,0,10000.0,0,0,0,"-RA,RA"
2026-04-13 11:30:00,METAR LFLB 131130Z AUTO 00000KT 8000 -RA SCT009 OVC019 08/07 Q1011 TEMPO 4500 RA,0,0.0,0,8000.0,0,0,0,"-RA,RA"
2026-04-13 11:00:00,METAR LFLB 131100Z AUTO 01001KT 7000 -RA OVC017 08/07 Q1011 TEMPO 4500 RA BKN012 OVC017,0,1.0,0,7000.0,0,0,0,"-RA,RA"
2026-04-13 10:30:00,METAR LFLB 131030Z AUTO VRB03KT 9999 -RA FEW007 OVC017 08/07 Q1011 TEMPO 4500 RA BKN012 OVC017,0,3.0,0,10000.0,0,0,0,"-RA,RA"
2026-04-13 10:00:00,METAR LFLB 131000Z AUTO 19003KT 5000 -RA BR SCT007 OVC013 08/07 Q1011 TEMPO SCT012 OVC025,0,3.0,0,5000.0,0,0,1,"-RA,BR"
2026-04-13 09:30:00,METAR LFLB 130930Z AUTO 19005KT 3400 -RA BR OVC011 08/07 Q1011 TEMPO SCT012 OVC025 BECMG 9999 -RA,0,5.0,0,3400.0,0,0,1,"-RA,BR"
2026-04-13 09:00:00,METAR LFLB 130900Z AUTO 12005KT 070V160 9999 -RA BKN009 OVC013 08/07 Q1010 TEMPO BKN012,0,5.0,0,10000.0,0,0,0,-RA
2026-04-13 08:30:00,METAR LFLB 130830Z AUTO 14005KT 090V180 5000 -RA BR OVC009 08/07 Q1010 TEMPO BKN012,0,5.0,0,5000.0,0,0,1,"-RA,BR"
2026-04-13 08:00:00,METAR LFLB 130800Z AUTO 08004KT 040V130 8000 -RA BKN008 OVC012 08/07 Q1010 TEMPO BKN012,0,4.0,0,8000.0,0,0,0,-RA
2026-04-13 07:30:00,METAR LFLB 130730Z AUTO 09003KT 040V130 6000 -RA BKN007 OVC013 08/07 Q1010 TEMPO BKN012,0,3.0,0,6000.0,0,0,0,-RA
2026-04-13 07:00:00,METAR LFLB 130700Z AUTO 08005KT 030V120 9999 -RA OVC009 08/07 Q1010 TEMPO BKN010,0,5.0,0,10000.0,0,0,0,-RA
2026-04-13 06:30:00,METAR LFLB 130630Z AUTO 10003KT 070V140 9999 -RA BKN012 OVC017 08/07 Q1010 NOSIG,0,3.0,0,10000.0,0,0,0,-RA
2026-04-13 06:00:00,METAR LFLB 130600Z AUTO VRB03KT 9999 -RA BKN011 OVC019 08/08 Q1009 NOSIG,0,3.0,0,10000.0,0,0,0,-RA
2026-04-13 05:30:00,METAR LFLB 130530Z AUTO 36003KT 320V060 9999 -RA BKN011 BKN020 OVC025 08/08 Q1009 NOSIG,0,3.0,0,10000.0,0,0,0,-RA
2026-04-13 05:00:00,METAR LFLB 130500Z AUTO 02008KT 9000 -RA BKN011 OVC024 08/07 Q1009 NOSIG,0,8.0,0,9000.0,0,0,0,-RA
2026-04-13 04:30:00,METAR LFLB 130430Z AUTO 02009KT 9999 -RA BKN010 BKN014 OVC024 08/07 Q1009 NOSIG,0,9.0,0,10000.0,0,0,0,-RA
2026-04-13 04:00:00,METAR LFLB 130400Z AUTO VRB02KT 8000 -RA BKN010 BKN015 OVC022 09/08 Q1009 NOSIG,0,2.0,0,8000.0,0,0,0,-RA
2026-04-13 03:30:00,METAR LFLB 130330Z AUTO 02006KT 330V050 9999 -RA BKN010 BKN015 OVC024 08/08 Q1009 NOSIG,0,6.0,0,10000.0,0,0,0,-RA
2026-04-13 03:00:00,METAR LFLB 130300Z AUTO VRB02KT 9999 -RA BKN010 OVC024 08/07 Q1009 NOSIG,0,2.0,0,10000.0,0,0,0,-RA
2026-04-13 02:30:00,METAR LFLB 130230Z AUTO 11003KT 030V160 9000 -RA BKN013 OVC024 08/07 Q1009 NOSIG,0,3.0,0,9000.0,0,0,0,-RA
2026-04-13 02:00:00,METAR LFLB 130200Z AUTO 03005KT 9999 -RA BKN011 BKN016 OVC023 08/07 Q1010,0,5.0,0,10000.0,0,0,0,-RA
2026-04-13 01:30:00,METAR LFLB 130130Z AUTO 33003KT 290V350 9999 BKN011 BKN017 OVC023 09/08 Q1010,0,3.0,0,10000.0,0,0,0,
2026-04-13 01:00:00,METAR LFLB 130100Z AUTO 10005KT 070V140 9999 FEW015 OVC024 08/07 Q1010,0,5.0,0,10000.0,0,0,0,
2026-04-13 00:30:00,METAR LFLB 130030Z AUTO 04009KT 9999 FEW014 SCT019 OVC025 08/07 Q1010,0,9.0,0,10000.0,0,0,0,
2026-04-13 00:00:00,METAR LFLB 130000Z AUTO 02010KT 9999 -RA FEW015 OVC024 09/07 Q1010,0,10.0,0,10000.0,0,0,0,-RA
2026-04-12 23:30:00,METAR LFLB 122330Z AUTO 02010KT 9999 BKN017 OVC026 09/07 Q1011,0,10.0,0,10000.0,0,0,0,
2026-04-12 23:00:00,METAR LFLB 122300Z AUTO 04008KT 9999 -RA BKN015 BKN021 OVC026 09/08 Q1011,0,8.0,0,10000.0,0,0,0,-RA
2026-04-12 22:30:00,METAR LFLB 122230Z AUTO 03008KT 7000 -RA BKN013 OVC028 09/08 Q1011,0,8.0,0,7000.0,0,0,0,-RA
2026-04-12 22:00:00,METAR LFLB 122200Z AUTO 03009KT 6000 -RA BKN010 OVC016 09/08 Q1011,0,9.0,0,6000.0,0,0,0,-RA
2026-04-12 21:30:00,METAR LFLB 122130Z AUTO 04008KT 010V070 6000 -RA BKN015/// OVC023/// ///TCU 09/08 Q1011,0,8.0,0,6000.0,0,0,0,-RA
2026-04-12 21:00:00,METAR LFLB 122100Z AUTO 02009KT 7000 -RA OVC010/// ///TCU 09/08 Q1011,0,9.0,0,7000.0,0,0,0,-RA
2026-04-12 20:30:00,METAR LFLB 122030Z AUTO 02010KT 6000 RA BKN010/// BKN018/// OVC023/// ///TCU 09/08 Q1011,0,10.0,0,6000.0,0,0,0,RA
2026-04-12 20:00:00,METAR LFLB 122000Z AUTO 04010KT 010V070 5000 RA BR FEW008/// BKN013/// OVC023/// ///TCU 09/08 Q1012,0,10.0,0,5000.0,0,0,1,"BR,RA"
2026-04-12 19:30:00,METAR LFLB 121930Z AUTO 02010KT 5000 RA BR BKN012/// OVC023/// ///TCU 09/08 Q1012,0,10.0,0,5000.0,0,0,1,"BR,RA"
2026-04-12 19:00:00,METAR LFLB 121900Z AUTO 01011KT 8000 -RA SCT012/// BKN025/// BKN030/// ///TCU 10/09 Q1011 TEMPO 4000 -RA BKN009,0,11.0,0,8000.0,0,0,0,-RA
2026-04-12 18:30:00,METAR LFLB 121830Z AUTO 02010KT 6000 -RA BKN012/// BKN017/// OVC024/// ///TCU 10/09 Q1011 TEMPO 4000 -RA BKN009,0,10.0,0,6000.0,0,0,0,-RA
2026-04-12 18:00:00,METAR LFLB 121800Z AUTO 36006KT 9999 RA SCT012/// BKN017/// OVC024/// ///TCU 11/09 Q1011 TEMPO 4000 -RA BKN009,0,6.0,0,10000.0,0,0,0,"-RA,RA"
2026-04-12 17:30:00,METAR LFLB 121730Z AUTO 03007KT 7000 RA BKN019/// OVC024/// ///TCU 11/09 Q1011 TEMPO 4000 -RA BKN009,0,7.0,0,7000.0,0,0,0,"-RA,RA"
2026-04-12 17:00:00,METAR LFLB 121700Z AUTO 04009KT 9999 OVC021/// ///TCU 11/09 Q1011 TEMPO 4000 -RA BKN009,0,9.0,0,10000.0,0,0,0,-RA
2026-04-12 16:30:00,METAR LFLB 121630Z AUTO 04008KT 9999 OVC023 11/09 Q1011 TEMPO 4000 -RA BKN009,0,8.0,0,10000.0,0,0,0,-RA
2026-04-12 16:00:00,METAR LFLB 121600Z AUTO 02009KT 9999 OVC022/// ///TCU 11/09 Q1011 TEMPO 4000 -RA BKN013,0,9.0,0,10000.0,0,0,0,-RA
2026-04-12 15:00:00,METAR LFLB 121500Z AUTO 01010KT 9999 OVC022 11/09 Q1012 TEMPO 4000 -RA BKN013,0,10.0,0,10000.0,0,0,0,-RA
2026-04-12 14:30:00,METAR LFLB 121430Z AUTO 02010KT 9999 BKN023 OVC030 11/09 Q1012 TEMPO 4000 -RA BKN013,0,10.0,0,10000.0,0,0,0,-RA
2026-04-12 14:00:00,METAR LFLB 121400Z AUTO 02009KT 9999 BKN022 OVC027 11/09 Q1013 TEMPO 4000 RA BKN009,0,9.0,0,10000.0,0,0,0,RA
2026-04-12 13:30:00,METAR LFLB 121330Z AUTO 02010KT 9999 BKN023 OVC031 11/09 Q1013 TEMPO 4000 RA BKN009,0,10.0,0,10000.0,0,0,0,RA
2026-04-12 13:00:00,METAR LFLB 121300Z AUTO 02011KT 9999 FEW017 BKN026 OVC040 11/09 Q1013 TEMPO 4000 RA BKN009,0,11.0,0,10000.0,0,0,0,RA
2026-04-12 12:30:00,METAR LFLB 121230Z AUTO 02010KT 9999 FEW019 OVC039 11/09 Q1013 TEMPO 4000 RA BKN009,0,10.0,0,10000.0,0,0,0,RA
2026-04-12 12:00:00,METAR LFLB 121200Z AUTO 02010KT 9999 FEW015 BKN024 OVC037 11/09 Q1014 TEMPO 4000 RA BKN009,0,10.0,0,10000.0,0,0,0,RA
2026-04-12 11:30:00,METAR LFLB 121130Z AUTO 03012KT 360V070 9999 FEW016 BKN026 BKN031 12/09 Q1014 TEMPO 4000 RA BKN009,0,12.0,0,10000.0,0,0,0,RA
2026-04-12 11:00:00,METAR LFLB 121100Z AUTO 07007KT 040V100 9999 FEW013 BKN026 BKN036 11/09 Q1014 TEMPO 4000 RA BKN009,0,7.0,0,10000.0,0,0,0,RA
2026-04-12 10:30:00,METAR LFLB 121030Z AUTO 03011KT 9999 FEW014 BKN025 BKN033 11/09 Q1014 TEMPO 4000 RA BKN009,0,11.0,0,10000.0,0,0,0,RA
2026-04-12 10:00:00,METAR LFLB 121000Z AUTO 02013KT 9999 BKN025 BKN030 OVC049 11/09 Q1014 TEMPO BKN012 BECMG VRB03KT,0,13.0,0,10000.0,0,0,0,
2026-04-12 09:30:00,METAR LFLB 120930Z AUTO 02013KT 9999 FEW022 BKN031 OVC048 11/10 Q1014 TEMPO BKN012 BECMG VRB03KT,0,13.0,0,10000.0,0,0,0,
2026-04-12 09:00:00,METAR LFLB 120900Z AUTO 02011KT 9999 FEW025 OVC046 12/10 Q1014 TEMPO BKN012,0,11.0,0,10000.0,0,0,0,
2026-04-12 08:30:00,METAR LFLB 120830Z AUTO 02011KT 9999 -RA SCT024 SCT029 BKN034 11/10 Q1014 TEMPO BKN012,0,11.0,0,10000.0,0,0,0,-RA
2026-04-12 08:00:00,METAR LFLB 120800Z AUTO 03009KT 9999 FEW025 SCT032 OVC050 11/10 Q1015 TEMPO BKN012,0,9.0,0,10000.0,0,0,0,
2026-04-12 07:30:00,METAR LFLB 120730Z AUTO 01010KT 9999 FEW018 SCT034 OVC054 11/10 Q1014 TEMPO BKN012,0,10.0,0,10000.0,0,0,0,
2026-04-12 07:00:00,METAR LFLB 120700Z AUTO 36009KT 9999 -DZ SCT022 BKN034 OVC054 12/10 Q1014 TEMPO BKN012,0,9.0,0,10000.0,0,0,0,DZ
2026-04-12 06:30:00,METAR LFLB 120630Z AUTO 02010KT 9999 OVC026 11/10 Q1015 TEMPO BKN012,0,10.0,0,10000.0,0,0,0,
2026-04-12 06:00:00,METAR LFLB 120600Z AUTO 01010KT 9999 -RA BKN031/// OVC050/// ///TCU 12/10 Q1014 TEMPO BKN012,0,10.0,0,10000.0,0,0,0,-RA
2026-04-12 05:30:00,METAR LFLB 120530Z AUTO 36005KT 9999 -RA FEW013/// BKN029/// OVC034/// ///TCU 12/10 Q1015 TEMPO BKN012,0,5.0,0,10000.0,0,0,0,-RA
2026-04-12 05:00:00,METAR LFLB 120500Z AUTO 07005KT 050V110 9999 SCT014/// BKN035/// OVC052/// ///TCU 12/10 Q1015 TEMPO BKN012,0,5.0,0,10000.0,0,0,0,
2026-04-12 04:30:00,METAR LFLB 120430Z AUTO VRB02KT 9999 -RA OVC052 12/10 Q1015 TEMPO BKN012,0,2.0,0,10000.0,0,0,0,-RA
2026-04-12 04:00:00,METAR LFLB 120400Z AUTO 29003KT 240V330 9999 OVC047 12/10 Q1015 TEMPO BKN012,0,3.0,0,10000.0,0,0,0,
2026-04-12 03:30:00,METAR LFLB 120330Z AUTO 02008KT 9999 -DZ FEW028 OVC041 12/10 Q1014 TEMPO BKN012,0,8.0,0,10000.0,0,0,0,DZ
2026-04-12 03:00:00,METAR LFLB 120300Z AUTO 02011KT 9999 -RA FEW018/// SCT026/// OVC036/// ///TCU 12/10 Q1015 TEMPO BKN012,0,11.0,0,10000.0,0,0,0,-RA
2026-04-12 02:30:00,METAR LFLB 120230Z AUTO 01011KT 9999 -RA SCT025/// BKN031/// OVC045/// ///TCU 13/10 Q1015 TEMPO BKN012,0,11.0,0,10000.0,0,0,0,-RA
2026-04-12 02:00:00,METAR LFLB 120200Z AUTO 35009KT 9999 -RA SCT028/// BKN033/// BKN039/// ///TCU 13/10 Q1015,0,9.0,0,10000.0,0,0,0,-RA
2026-04-12 01:30:00,METAR LFLB 120130Z AUTO 02008KT 9999 BKN041/// OVC047/// ///TCU 14/09 Q1015,0,8.0,0,10000.0,0,0,0,
2026-04-12 01:00:00,METAR LFLB 120100Z AUTO VRB02KT 9999 FEW032 OVC039 14/10 Q1015,0,2.0,0,10000.0,0,0,0,
2026-04-12 00:30:00,METAR LFLB 120030Z AUTO 16008KT 9999 SCT033 OVC039 15/10 Q1015,0,8.0,0,10000.0,0,0,0,
2026-04-12 00:00:00,METAR LFLB 120000Z AUTO 18003KT 9999 OVC032 15/11 Q1015,0,3.0,0,10000.0,0,0,0,
2026-04-11 23:30:00,METAR LFLB 112330Z AUTO VRB03KT 9999 OVC030 15/10 Q1015,0,3.0,0,10000.0,0,0,0,
2026-04-11 23:00:00,METAR LFLB 112300Z AUTO 13006KT 090V160 9999 BKN032 OVC042 15/10 Q1015,0,6.0,0,10000.0,0,0,0,
2026-04-11 22:30:00,METAR LFLB 112230Z AUTO 12005KT 090V150 9999 BKN041 BKN070 BKN082 16/10 Q1015,0,5.0,0,10000.0,0,0,0,
2026-04-11 22:00:00,METAR LFLB 112200Z AUTO 06007KT 9999 BKN041 BKN047 BKN066 16/11 Q1014,0,7.0,0,10000.0,0,0,0,
2026-04-11 21:30:00,METAR LFLB 112130Z AUTO 06005KT 330V110 9999 FEW039 SCT052 16/11 Q1014,0,5.0,0,10000.0,0,0,0,
2026-04-11 21:00:00,METAR LFLB 112100Z AUTO 07006KT 9999 FEW054 BKN140 17/12 Q1013,0,6.0,0,10000.0,0,0,0,
2026-04-11 20:30:00,METAR LFLB 112030Z AUTO 12011KT CAVOK 18/12 Q1012,1,0.0,0,9999.0,0,0,0,
2026-04-11 20:00:00,METAR LFLB 112000Z AUTO VRB03KT 9999 FEW082 BKN140 20/10 Q1012,0,3.0,0,10000.0,0,0,0,
2026-04-11 19:30:00,METAR LFLB 111930Z AUTO 14008KT 080V190 9999 FEW068 SCT130 21/09 Q1011 TEMPO VRB15G25KT 2000 TSRA BKN025CB,0,8.0,0,10000.0,1,0,0,"RA,TS"
2026-04-11 19:00:00,METAR LFLB 111900Z AUTO 17004KT 100V260 CAVOK 21/09 Q1011 TEMPO VRB15G25KT 2000 TSRA BKN025CB,1,0.0,0,9999.0,0,0,0,
2026-04-11 18:30:00,METAR LFLB 111830Z AUTO 16004KT 140V200 CAVOK 21/10 Q1010 TEMPO VRB15G25KT 2000 TSRA BKN025CB,1,0.0,0,9999.0,0,0,0,
2026-04-11 18:00:00,METAR LFLB 111800Z AUTO 05004KT 350V110 CAVOK 21/10 Q1010 TEMPO VRB15G25KT 2000 TSRA BKN025CB,1,0.0,0,9999.0,0,0,0,
2026-04-11 17:30:00,METAR LFLB 111730Z AUTO 06006KT 020V100 CAVOK 21/10 Q1010 TEMPO VRB15G25KT 2000 TSRA BKN025CB,1,0.0,0,9999.0,0,0,0,
2026-04-11 17:00:00,METAR LFLB 111700Z AUTO 08004KT CAVOK 23/12 Q1009 TEMPO VRB15G25KT 2000 TSRA BKN025CB,1,0.0,0,9999.0,0,0,0,
2026-04-11 16:30:00,METAR LFLB 111630Z AUTO VRB02KT CAVOK 24/12 Q1009 TEMPO VRB15G25KT 2000 TSRA BKN025CB,1,0.0,0,9999.0,0,0,0,
2026-04-11 16:00:00,METAR LFLB 111600Z AUTO 27004KT CAVOK 24/10 Q1009 TEMPO FEW090TCU BKN120,1,0.0,0,9999.0,0,0,0,
2026-04-11 15:30:00,METAR LFLB 111530Z AUTO VRB02KT CAVOK 23/12 Q1010 TEMPO FEW090TCU BKN120,1,0.0,0,9999.0,0,0,0,
2026-04-11 15:00:00,METAR LFLB 111500Z AUTO 04005KT 360V060 CAVOK 24/11 Q1011 TEMPO FEW090TCU BKN120,1,0.0,0,9999.0,0,0,0,
2026-04-11 14:30:00,METAR LFLB 111430Z AUTO 02005KT 340V050 CAVOK 25/07 Q1011 TEMPO FEW090TCU BKN120,1,0.0,0,9999.0,0,0,0,
2026-04-11 14:00:00,METAR LFLB 111400Z AUTO 06006KT CAVOK 24/11 Q1011 TEMPO 32015G30KT FEW090TCU BKN130,1,0.0,0,9999.0,0,0,0,
2026-04-11 13:30:00,METAR LFLB 111330Z AUTO 01008KT CAVOK 22/11 Q1011 TEMPO 32015G30KT FEW090TCU BKN130,1,0.0,0,9999.0,0,0,0,
2026-04-11 13:00:00,METAR LFLB 111300Z AUTO VRB02KT 9999 FEW043 OVC120 21/10 Q1011 TEMPO 32015G30KT FEW090TCU BKN130,0,2.0,0,10000.0,0,0,0,
2026-04-11 12:30:00,METAR LFLB 111230Z AUTO 35005KT 310V020 9999 NSC 19/10 Q1011 TEMPO 32015G30KT FEW090TCU BKN130,0,5.0,0,10000.0,0,0,0,
2026-04-11 12:00:00,METAR LFLB 111200Z AUTO 01006KT 340V040 CAVOK 20/11 Q1011 TEMPO 32015G30KT FEW090TCU BKN130,1,0.0,0,9999.0,0,0,0,
2026-04-11 11:30:00,METAR LFLB 111130Z AUTO 36005KT CAVOK 19/10 Q1011 TEMPO 32015G30KT FEW090TCU BKN130,1,0.0,0,9999.0,0,0,0,
2026-04-11 11:00:00,METAR LFLB 111100Z AUTO 01007KT CAVOK 21/11 Q1011 NOSIG,1,0.0,0,9999.0,0,0,0,
2026-04-11 10:30:00,METAR LFLB 111030Z AUTO 20003KT 160V250 CAVOK 23/07 Q1011 NOSIG,1,0.0,0,9999.0,0,0,0,
2026-04-11 10:00:00,METAR LFLB 111000Z AUTO 18006KT 150V220 CAVOK 22/08 Q1011 NOSIG,1,0.0,0,9999.0,0,0,0,
2026-04-11 09:30:00,METAR LFLB 110930Z AUTO 14004KT 100V210 CAVOK 21/09 Q1012 NOSIG,1,0.0,0,9999.0,0,0,0,
2026-04-11 09:00:00,METAR LFLB 110900Z AUTO 15008KT 110V190 CAVOK 20/09 Q1012 NOSIG,1,0.0,0,9999.0,0,0,0,
2026-04-11 08:30:00,METAR LFLB 110830Z AUTO 17012KT CAVOK 19/07 Q1012 NOSIG,1,0.0,0,9999.0,0,0,0,
2026-04-11 08:00:00,METAR LFLB 110800Z AUTO 18009KT CAVOK 18/07 Q1012 NOSIG,1,0.0,0,9999.0,0,0,0,
2026-04-11 07:30:00,METAR LFLB 110730Z AUTO 18004KT 140V220 CAVOK 15/09 Q1013 NOSIG,1,0.0,0,9999.0,0,0,0,
2026-04-11 07:00:00,METAR LFLB 110700Z AUTO VRB02KT CAVOK 12/09 Q1013 NOSIG,1,0.0,0,9999.0,0,0,0,
2026-04-11 06:30:00,METAR LFLB 110630Z AUTO 00000KT CAVOK 10/09 Q1013 NOSIG,1,0.0,0,9999.0,0,0,0,
2026-04-11 06:00:00,METAR LFLB 110600Z AUTO 00000KT CAVOK 07/07 Q1014 NOSIG,1,0.0,0,9999.0,0,0,0,
2026-04-11 05:30:00,METAR LFLB 110530Z AUTO 18003KT CAVOK 06/06 Q1013 NOSIG,1,0.0,0,9999.0,0,0,0,
2026-04-11 05:00:00,METAR LFLB 110500Z AUTO 00000KT CAVOK 06/05 Q1013 NOSIG,1,0.0,0,9999.0,0,0,0,
2026-04-11 04:30:00,METAR LFLB 110430Z AUTO 17001KT CAVOK 07/07 Q1014 NOSIG,1,0.0,0,9999.0,0,0,0,
2026-04-11 04:00:00,METAR LFLB 110400Z AUTO 00000KT 9999 2400 NSC 07/07 Q1014 NOSIG,0,0.0,0,10000.0,0,0,0,
2026-04-11 03:30:00,METAR LFLB 110330Z AUTO VRB02KT CAVOK 08/07 Q1014 NOSIG,1,0.0,0,9999.0,0,0,0,
2026-04-11 03:00:00,METAR LFLB 110300Z AUTO 00000KT CAVOK 08/07 Q1014 NOSIG,1,0.0,0,9999.0,0,0,0,
2026-04-11 02:30:00,METAR LFLB 110230Z AUTO 19002KT CAVOK 07/07 Q1014,1,0.0,0,9999.0,0,0,0,
2026-04-11 02:00:00,METAR LFLB 110200Z AUTO 25001KT CAVOK 08/08 Q1014,1,0.0,0,9999.0,0,0,0,
2026-04-11 01:30:00,METAR LFLB 110130Z AUTO 00000KT CAVOK 09/08 Q1014,1,0.0,0,9999.0,0,0,0,
2026-04-11 01:00:00,METAR LFLB 110100Z AUTO 00000KT CAVOK 09/08 Q1014,1,0.0,0,9999.0,0,0,0,
2026-04-11 00:30:00,METAR LFLB 110030Z AUTO 17003KT CAVOK 09/08 Q1014,1,0.0,0,9999.0,0,0,0,
2026-04-11 00:00:00,METAR LFLB 110000Z AUTO 16001KT CAVOK 09/08 Q1015,1,0.0,0,9999.0,0,0,0,
2026-04-10 23:30:00,METAR LFLB 102330Z AUTO 10001KT CAVOK 09/07 Q1014,1,0.0,0,9999.0,0,0,0,
2026-04-10 23:00:00,METAR LFLB 102300Z AUTO VRB02KT CAVOK 10/08 Q1014,1,0.0,0,9999.0,0,0,0,
2026-04-10 22:30:00,METAR LFLB 102230Z AUTO VRB02KT CAVOK 10/08 Q1014,1,0.0,0,9999.0,0,0,0,
2026-04-10 22:00:00,METAR LFLB 102200Z AUTO 20004KT CAVOK 11/09 Q1015,1,0.0,0,9999.0,0,0,0,
2026-04-10 21:30:00,METAR LFLB 102130Z AUTO 19002KT CAVOK 10/09 Q1015,1,0.0,0,9999.0,0,0,0,
2026-04-10 21:00:00,METAR LFLB 102100Z AUTO VRB02KT CAVOK 12/09 Q1015,1,0.0,0,9999.0,0,0,0,
2026-04-10 20:30:00,METAR LFLB 102030Z AUTO 00000KT CAVOK 13/10 Q1015,1,0.0,0,9999.0,0,0,0,
2026-04-10 20:00:00,METAR LFLB 102000Z AUTO 29002KT CAVOK 14/10 Q1015,1,0.0,0,9999.0,0,0,0,
2026-04-10 19:30:00,METAR LFLB 101930Z AUTO 18001KT CAVOK 14/10 Q1014,1,0.0,0,9999.0,0,0,0,
2026-04-10 19:00:00,METAR LFLB 101900Z AUTO 00000KT CAVOK 15/11 Q1014 NOSIG,1,0.0,0,9999.0,0,0,0,
2026-04-10 18:30:00,METAR LFLB 101830Z AUTO VRB02KT CAVOK 17/11 Q1014 NOSIG,1,0.0,0,9999.0,0,0,0,
2026-04-10 18:00:00,METAR LFLB 101800Z AUTO VRB03KT CAVOK 19/11 Q1014 NOSIG,1,0.0,0,9999.0,0,0,0,
2026-04-10 17:30:00,METAR LFLB 101730Z AUTO VRB02KT CAVOK 20/12 Q1014 NOSIG,1,0.0,0,9999.0,0,0,0,
2026-04-10 17:00:00,METAR LFLB 101700Z AUTO VRB02KT CAVOK 21/11 Q1014 NOSIG,1,0.0,0,9999.0,0,0,0,
2026-04-10 16:30:00,METAR LFLB 101630Z AUTO 04004KT CAVOK 22/12 Q1014 NOSIG,1,0.0,0,9999.0,0,0,0,
2026-04-10 16:00:00,METAR LFLB 101600Z AUTO 05004KT CAVOK 23/11 Q1014 NOSIG,1,0.0,0,9999.0,0,0,0,
2026-04-10 15:30:00,METAR LFLB 101530Z AUTO 03005KT CAVOK 23/10 Q1015 NOSIG,1,0.0,0,9999.0,0,0,0,
2026-04-10 15:00:00,METAR LFLB 101500Z AUTO 02005KT CAVOK 23/09 Q1015 NOSIG,1,0.0,0,9999.0,0,0,0,
2026-04-10 14:30:00,METAR LFLB 101430Z AUTO 00000KT CAVOK 24/09 Q1015 NOSIG,1,0.0,0,9999.0,0,0,0,
2026-04-10 14:00:00,METAR LFLB 101400Z AUTO 03004KT 360V060 CAVOK 23/09 Q1016 NOSIG,1,0.0,0,9999.0,0,0,0,
2026-04-10 13:30:00,METAR LFLB 101330Z AUTO VRB03KT CAVOK 23/09 Q1016 NOSIG,1,0.0,0,9999.0,0,0,0,
2026-04-10 13:00:00,METAR LFLB 101300Z AUTO 03003KT 340V060 CAVOK 22/09 Q1016 NOSIG,1,0.0,0,9999.0,0,0,0,
2026-04-10 12:30:00,METAR LFLB 101230Z AUTO 02004KT 350V050 CAVOK 21/10 Q1016 NOSIG,1,0.0,0,9999.0,0,0,0,
2026-04-10 12:00:00,METAR LFLB 101200Z AUTO 03003KT 010V070 CAVOK 20/08 Q1016 NOSIG,1,0.0,0,9999.0,0,0,0,
2026-04-10 11:30:00,METAR LFLB 101130Z AUTO 01005KT CAVOK 20/09 Q1017 NOSIG,1,0.0,0,9999.0,0,0,0,
2026-04-10 11:00:00,METAR LFLB 101100Z AUTO 01003KT 340V060 CAVOK 19/08 Q1017 NOSIG,1,0.0,0,9999.0,0,0,0,
2026-04-10 10:30:00,METAR LFLB 101030Z AUTO 01005KT CAVOK 17/08 Q1017 NOSIG,1,0.0,0,9999.0,0,0,0,
2026-04-10 10:00:00,METAR LFLB 101000Z AUTO 01007KT CAVOK 16/08 Q1018 NOSIG,1,0.0,0,9999.0,0,0,0,
2026-04-10 09:30:00,METAR LFLB 100930Z AUTO 36004KT CAVOK 16/09 Q1018 NOSIG,1,0.0,0,9999.0,0,0,0,
2026-04-10 09:00:00,METAR LFLB 100900Z AUTO 36005KT CAVOK 15/08 Q1018 NOSIG,1,0.0,0,9999.0,0,0,0,
2026-04-10 08:30:00,METAR LFLB 100830Z AUTO VRB03KT CAVOK 16/07 Q1018 NOSIG,1,0.0,0,9999.0,0,0,0,
2026-04-10 08:00:00,METAR LFLB 100800Z AUTO 00000KT CAVOK 15/07 Q1018 NOSIG,1,0.0,0,9999.0,0,0,0,
2026-04-10 07:30:00,METAR LFLB 100730Z AUTO VRB02KT CAVOK 13/07 Q1018 NOSIG,1,0.0,0,9999.0,0,0,0,
2026-04-10 07:00:00,METAR LFLB 100700Z AUTO VRB01KT CAVOK 12/08 Q1018 NOSIG,1,0.0,0,9999.0,0,0,0,
2026-04-10 06:30:00,METAR LFLB 100630Z AUTO 14002KT CAVOK 09/07 Q1018 NOSIG,1,0.0,0,9999.0,0,0,0,
2026-04-10 06:00:00,METAR LFLB 100600Z AUTO VRB02KT CAVOK 07/06 Q1018 NOSIG,1,0.0,0,9999.0,0,0,0,
2026-04-10 05:30:00,METAR LFLB 100530Z AUTO VRB02KT CAVOK 06/05 Q1018 NOSIG,1,0.0,0,9999.0,0,0,0,
2026-04-10 05:00:00,METAR LFLB 100500Z AUTO 16003KT CAVOK 06/05 Q1018 NOSIG,1,0.0,0,9999.0,0,0,0,
2026-04-10 04:30:00,METAR LFLB 100430Z AUTO 17002KT CAVOK 07/05 Q1018 NOSIG,1,0.0,0,9999.0,0,0,0,
2026-04-10 04:00:00,METAR LFLB 100400Z AUTO 27003KT CAVOK 07/06 Q1017 NOSIG,1,0.0,0,9999.0,0,0,0,
2026-04-10 03:30:00,METAR LFLB 100330Z AUTO VRB02KT CAVOK 07/05 Q1018 NOSIG,1,0.0,0,9999.0,0,0,0,
2026-04-10 03:00:00,METAR LFLB 100300Z AUTO 14003KT CAVOK 07/05 Q1018 NOSIG,1,0.0,0,9999.0,0,0,0,
2026-04-10 02:30:00,METAR LFLB 100230Z AUTO 00000KT CAVOK 07/06 Q1018 NOSIG,1,0.0,0,9999.0,0,0,0,
2026-04-10 02:00:00,METAR LFLB 100200Z AUTO VRB02KT CAVOK 07/05 Q1018,1,0.0,0,9999.0,0,0,0,
2026-04-10 01:30:00,METAR LFLB 100130Z AUTO VRB02KT CAVOK 08/05 Q1018,1,0.0,0,9999.0,0,0,0,
2026-04-10 01:00:00,METAR LFLB 100100Z AUTO VRB02KT CAVOK 08/06 Q1018,1,0.0,0,9999.0,0,0,0,
2026-04-10 00:30:00,METAR LFLB 100030Z AUTO 29001KT CAVOK 09/06 Q1018,1,0.0,0,9999.0,0,0,0,
2026-04-10 00:00:00,METAR LFLB 100000Z AUTO 17003KT CAVOK 08/06 Q1018,1,0.0,0,9999.0,0,0,0,
2026-04-09 23:30:00,METAR LFLB 092330Z AUTO 13001KT CAVOK 09/06 Q1018,1,0.0,0,9999.0,0,0,0,
2026-04-09 23:00:00,METAR LFLB 092300Z AUTO 30002KT CAVOK 10/07 Q1018,1,0.0,0,9999.0,0,0,0,
2026-04-09 22:30:00,METAR LFLB 092230Z AUTO 15002KT CAVOK 11/06 Q1018,1,0.0,0,9999.0,0,0,0,
2026-04-09 22:00:00,METAR LFLB 092200Z AUTO VRB02KT CAVOK 11/07 Q1018,1,0.0,0,9999.0,0,0,0,
2026-04-09 21:30:00,METAR LFLB 092130Z AUTO 14003KT CAVOK 12/07 Q1017,1,0.0,0,9999.0,0,0,0,
2026-04-09 21:00:00,METAR LFLB 092100Z AUTO VRB02KT CAVOK 13/07 Q1017,1,0.0,0,9999.0,0,0,0,
2026-04-09 20:30:00,METAR LFLB 092030Z AUTO VRB03KT CAVOK 14/06 Q1017,1,0.0,0,9999.0,0,0,0,
2026-04-09 20:00:00,METAR LFLB 092000Z AUTO 19004KT 160V220 CAVOK 15/07 Q1017,1,0.0,0,9999.0,0,0,0,
2026-04-09 19:30:00,METAR LFLB 091930Z AUTO 33003KT 300V010 CAVOK 19/05 Q1017,1,0.0,0,9999.0,0,0,0,
2026-04-09 19:00:00,METAR LFLB 091900Z AUTO 36005KT 250V060 CAVOK 20/05 Q1016 NOSIG,1,0.0,0,9999.0,0,0,0,
2026-04-09 18:30:00,METAR LFLB 091830Z AUTO 08008KT CAVOK 20/06 Q1016 NOSIG,1,0.0,0,9999.0,0,0,0,
2026-04-09 18:00:00,METAR LFLB 091800Z AUTO VRB03KT CAVOK 21/05 Q1016 NOSIG,1,0.0,0,9999.0,0,0,0,
2026-04-09 17:30:00,METAR LFLB 091730Z AUTO VRB02KT CAVOK 22/08 Q1016 NOSIG,1,0.0,0,9999.0,0,0,0,
2026-04-09 17:00:00,METAR LFLB 091700Z AUTO 00000KT CAVOK 25/05 Q1016 NOSIG,1,0.0,0,9999.0,0,0,0,
2026-04-09 16:30:00,METAR LFLB 091630Z AUTO 33003KT 260V050 CAVOK 26/12 Q1016 NOSIG,1,0.0,0,9999.0,0,0,0,
2026-04-09 16:00:00,METAR LFLB 091600Z AUTO 03002KT CAVOK 25/10 Q1015 NOSIG,1,0.0,0,9999.0,0,0,0,
2026-04-09 15:30:00,METAR LFLB 091530Z AUTO 02004KT CAVOK 25/11 Q1016 NOSIG,1,0.0,0,9999.0,0,0,0,
2026-04-09 15:00:00,METAR LFLB 091500Z AUTO 36004KT 310V060 CAVOK 25/12 Q1016 NOSIG,1,0.0,0,9999.0,0,0,0,
2026-04-09 14:30:00,METAR LFLB 091430Z AUTO 01006KT CAVOK 25/13 Q1016 NOSIG,1,0.0,0,9999.0,0,0,0,
2026-04-09 14:00:00,METAR LFLB 091400Z AUTO 36006KT 310V040 CAVOK 25/11 Q1016 NOSIG,1,0.0,0,9999.0,0,0,0,
2026-04-09 13:30:00,METAR LFLB 091330Z AUTO 01005KT CAVOK 24/12 Q1017 NOSIG,1,0.0,0,9999.0,0,0,0,
2026-04-09 13:00:00,METAR LFLB 091300Z AUTO 01004KT 330V050 CAVOK 24/10 Q1017 NOSIG,1,0.0,0,9999.0,0,0,0,
2026-04-09 12:30:00,METAR LFLB 091230Z AUTO 02005KT CAVOK 23/11 Q1017 NOSIG,1,0.0,0,9999.0,0,0,0,
2026-04-09 12:00:00,METAR LFLB 091200Z AUTO 01004KT 320V050 CAVOK 22/11 Q1018 NOSIG,1,0.0,0,9999.0,0,0,0,
2026-04-09 11:30:00,METAR LFLB 091130Z AUTO 01005KT CAVOK 21/10 Q1018 NOSIG,1,0.0,0,9999.0,0,0,0,
2026-04-09 11:00:00,METAR LFLB 091100Z AUTO 01005KT CAVOK 20/12 Q1018 NOSIG,1,0.0,0,9999.0,0,0,0,
2026-04-09 10:30:00,METAR LFLB 091030Z AUTO 01004KT 340V040 CAVOK 21/10 Q1019 NOSIG,1,0.0,0,9999.0,0,0,0,
2026-04-09 10:00:00,METAR LFLB 091000Z AUTO VRB03KT CAVOK 21/10 Q1019 NOSIG,1,0.0,0,9999.0,0,0,0,
2026-04-09 09:30:00,METAR LFLB 090930Z AUTO VRB02KT CAVOK 20/10 Q1019 NOSIG,1,0.0,0,9999.0,0,0,0,
2026-04-09 09:00:00,METAR LFLB 090900Z AUTO VRB02KT CAVOK 19/10 Q1019 NOSIG,1,0.0,0,9999.0,0,0,0,
2026-04-09 08:30:00,METAR LFLB 090830Z AUTO VRB01KT CAVOK 18/11 Q1020 NOSIG,1,0.0,0,9999.0,0,0,0,
2026-04-09 08:00:00,METAR LFLB 090800Z AUTO VRB02KT CAVOK 16/10 Q1020 NOSIG,1,0.0,0,9999.0,0,0,0,
2026-04-09 07:30:00,METAR LFLB 090730Z AUTO VRB02KT CAVOK 14/09 Q1020 NOSIG,1,0.0,0,9999.0,0,0,0,
2026-04-09 07:00:00,METAR LFLB 090700Z AUTO VRB01KT CAVOK 12/10 Q1020 NOSIG,1,0.0,0,9999.0,0,0,0,
2026-04-09 06:30:00,METAR LFLB 090630Z AUTO 16001KT 9999 2600 NSC 09/09 Q1020 NOSIG,0,1.0,0,10000.0,0,0,0,
2026-04-09 06:00:00,METAR LFLB 090600Z AUTO 14003KT CAVOK 06/06 Q1020 NOSIG,1,0.0,0,9999.0,0,0,0,
2026-04-09 05:30:00,METAR LFLB 090530Z AUTO 00000KT CAVOK 07/07 Q1020 NOSIG,1,0.0,0,9999.0,0,0,0,
2026-04-09 05:00:00,METAR LFLB 090500Z AUTO 00000KT CAVOK 07/07 Q1020 NOSIG,1,0.0,0,9999.0,0,0,0,
2026-04-09 04:30:00,METAR LFLB 090430Z AUTO 18002KT CAVOK 07/07 Q1020 NOSIG,1,0.0,0,9999.0,0,0,0,
2026-04-09 04:00:00,METAR LFLB 090400Z AUTO 00000KT CAVOK 08/07 Q1020 NOSIG,1,0.0,0,9999.0,0,0,0,
2026-04-09 03:30:00,METAR LFLB 090330Z AUTO 17003KT CAVOK 07/07 Q1020 NOSIG,1,0.0,0,9999.0,0,0,0,
2026-04-09 03:00:00,METAR LFLB 090300Z AUTO 20002KT CAVOK 07/06 Q1020 NOSIG,1,0.0,0,9999.0,0,0,0,
2026-04-09 02:30:00,METAR LFLB 090230Z AUTO 21001KT CAVOK 09/08 Q1020 NOSIG,1,0.0,0,9999.0,0,0,0,
2026-04-09 02:00:00,METAR LFLB 090200Z AUTO 13001KT CAVOK 09/08 Q1020,1,0.0,0,9999.0,0,0,0,
2026-04-09 01:30:00,METAR LFLB 090130Z AUTO 17002KT CAVOK 09/08 Q1020,1,0.0,0,9999.0,0,0,0,
2026-04-09 01:00:00,METAR LFLB 090100Z AUTO 18002KT CAVOK 09/08 Q1020,1,0.0,0,9999.0,0,0,0,
2026-04-09 00:30:00,METAR LFLB 090030Z AUTO 17002KT CAVOK 09/08 Q1021,1,0.0,0,9999.0,0,0,0,
2026-04-09 00:00:00,METAR LFLB 090000Z AUTO VRB02KT CAVOK 10/08 Q1021,1,0.0,0,9999.0,0,0,0,
2026-04-08 23:30:00,METAR LFLB 082330Z AUTO 18002KT CAVOK 10/09 Q1020,1,0.0,0,9999.0,0,0,0,
2026-04-08 23:00:00,METAR LFLB 082300Z AUTO 00000KT CAVOK 11/09 Q1020,1,0.0,0,9999.0,0,0,0,
2026-04-08 22:30:00,METAR LFLB 082230Z AUTO 17002KT CAVOK 11/09 Q1020,1,0.0,0,9999.0,0,0,0,
2026-04-08 22:00:00,METAR LFLB 082200Z AUTO VRB01KT CAVOK 12/09 Q1020,1,0.0,0,9999.0,0,0,0,
2026-04-08 21:30:00,METAR LFLB 082130Z AUTO 00000KT CAVOK 12/09 Q1020,1,0.0,0,9999.0,0,0,0,
2026-04-08 21:00:00,METAR LFLB 082100Z AUTO 17002KT CAVOK 13/09 Q1020,1,0.0,0,9999.0,0,0,0,
2026-04-08 20:30:00,METAR LFLB 082030Z AUTO 00000KT CAVOK 13/10 Q1020,1,0.0,0,9999.0,0,0,0,
2026-04-08 20:00:00,METAR LFLB 082000Z AUTO 00000KT CAVOK 14/10 Q1020,1,0.0,0,9999.0,0,0,0,
2026-04-08 19:30:00,METAR LFLB 081930Z AUTO VRB01KT CAVOK 15/10 Q1019,1,0.0,0,9999.0,0,0,0,
2026-04-08 19:00:00,METAR LFLB 081900Z AUTO 00000KT CAVOK 15/11 Q1019 NOSIG,1,0.0,0,9999.0,0,0,0,
2026-04-08 18:30:00,METAR LFLB 081830Z AUTO 00000KT CAVOK 17/12 Q1019 NOSIG,1,0.0,0,9999.0,0,0,0,
2026-04-08 18:00:00,METAR LFLB 081800Z AUTO VRB01KT CAVOK 18/11 Q1018 NOSIG,1,0.0,0,9999.0,0,0,0,
2026-04-08 17:30:00,METAR LFLB 081730Z AUTO VRB02KT CAVOK 20/10 Q1018 NOSIG,1,0.0,0,9999.0,0,0,0,
2026-04-08 17:00:00,METAR LFLB 081700Z AUTO 30003KT CAVOK 22/10 Q1018 NOSIG,1,0.0,0,9999.0,0,0,0,
2026-04-08 16:30:00,METAR LFLB 081630Z AUTO 02003KT CAVOK 25/11 Q1018 NOSIG,1,0.0,0,9999.0,0,0,0,
2026-04-08 16:00:00,METAR LFLB 081600Z AUTO 01004KT CAVOK 25/10 Q1018 NOSIG,1,0.0,0,9999.0,0,0,0,
2026-04-08 15:30:00,METAR LFLB 081530Z AUTO 36003KT 330V030 CAVOK 26/10 Q1019 NOSIG,1,0.0,0,9999.0,0,0,0,
2026-04-08 15:00:00,METAR LFLB 081500Z AUTO 01003KT 340V050 CAVOK 26/09 Q1019 NOSIG,1,0.0,0,9999.0,0,0,0,
2026-04-08 14:30:00,METAR LFLB 081430Z AUTO 01004KT 330V060 CAVOK 25/10 Q1019 NOSIG,1,0.0,0,9999.0,0,0,0,
2026-04-08 14:00:00,METAR LFLB 081400Z AUTO 03003KT 350V050 CAVOK 25/10 Q1019 NOSIG,1,0.0,0,9999.0,0,0,0,
2026-04-08 13:30:00,METAR LFLB 081330Z AUTO 36003KT 310V060 CAVOK 25/11 Q1020 NOSIG,1,0.0,0,9999.0,0,0,0,
2026-04-08 13:00:00,METAR LFLB 081300Z AUTO 36004KT 320V040 CAVOK 24/10 Q1020 NOSIG,1,0.0,0,9999.0,0,0,0,
2026-04-08 12:30:00,METAR LFLB 081230Z AUTO 36003KT 280V060 CAVOK 23/10 Q1020 NOSIG,1,0.0,0,9999.0,0,0,0,
2026-04-08 12:00:00,METAR LFLB 081200Z AUTO 35004KT 310V040 CAVOK 22/09 Q1020 NOSIG,1,0.0,0,9999.0,0,0,0,
2026-04-08 11:30:00,METAR LFLB 081130Z AUTO 01004KT 330V040 CAVOK 22/09 Q1021 NOSIG,1,0.0,0,9999.0,0,0,0,
2026-04-08 11:00:00,METAR LFLB 081100Z AUTO VRB03KT CAVOK 21/10 Q1021 NOSIG,1,0.0,0,9999.0,0,0,0,
2026-04-08 10:30:00,METAR LFLB 081030Z AUTO 05003KT 360V080 CAVOK 20/09 Q1021 NOSIG,1,0.0,0,9999.0,0,0,0,
2026-04-08 10:00:00,METAR LFLB 081000Z AUTO 03004KT 340V070 CAVOK 19/08 Q1022 NOSIG,1,0.0,0,9999.0,0,0,0,
2026-04-08 09:30:00,METAR LFLB 080930Z AUTO VRB02KT CAVOK 18/08 Q1022 NOSIG,1,0.0,0,9999.0,0,0,0,
2026-04-08 09:00:00,METAR LFLB 080900Z AUTO VRB02KT CAVOK 18/08 Q1022 NOSIG,1,0.0,0,9999.0,0,0,0,
2026-04-08 08:30:00,METAR LFLB 080830Z AUTO 00000KT CAVOK 17/09 Q1022 NOSIG,1,0.0,0,9999.0,0,0,0,
2026-04-08 08:00:00,METAR LFLB 080800Z AUTO VRB02KT CAVOK 15/07 Q1022 NOSIG,1,0.0,0,9999.0,0,0,0,
2026-04-08 07:30:00,METAR LFLB 080730Z AUTO VRB01KT CAVOK 14/08 Q1022 NOSIG,1,0.0,0,9999.0,0,0,0,
2026-04-08 07:00:00,METAR LFLB 080700Z AUTO VRB02KT CAVOK 11/07 Q1023 NOSIG,1,0.0,0,9999.0,0,0,0,
2026-04-08 06:30:00,METAR LFLB 080630Z AUTO 19003KT CAVOK 08/07 Q1023 NOSIG,1,0.0,0,9999.0,0,0,0,
2026-04-08 06:00:00,METAR LFLB 080600Z AUTO 00000KT CAVOK 06/06 Q1023 NOSIG,1,0.0,0,9999.0,0,0,0,
2026-04-08 05:30:00,METAR LFLB 080530Z AUTO VRB01KT CAVOK 06/06 Q1023 NOSIG,1,0.0,0,9999.0,0,0,0,
2026-04-08 05:00:00,METAR LFLB 080500Z AUTO 00000KT CAVOK 06/05 Q1022 NOSIG,1,0.0,0,9999.0,0,0,0,
2026-04-08 04:30:00,METAR LFLB 080430Z AUTO 19002KT CAVOK 06/04 Q1022 NOSIG,1,0.0,0,9999.0,0,0,0,
2026-04-08 04:00:00,METAR LFLB 080400Z AUTO 18001KT CAVOK 07/06 Q1022 NOSIG,1,0.0,0,9999.0,0,0,0,
2026-04-08 03:30:00,METAR LFLB 080330Z AUTO 17003KT CAVOK 06/06 Q1022 NOSIG,1,0.0,0,9999.0,0,0,0,
2026-04-08 03:00:00,METAR LFLB 080300Z AUTO 00000KT CAVOK 06/06 Q1022 NOSIG,1,0.0,0,9999.0,0,0,0,
2026-04-08 02:30:00,METAR LFLB 080230Z AUTO 00000KT CAVOK 07/06 Q1022 NOSIG,1,0.0,0,9999.0,0,0,0,
2026-04-08 02:00:00,METAR LFLB 080200Z AUTO VRB02KT CAVOK 08/06 Q1022,1,0.0,0,9999.0,0,0,0,
2026-04-08 01:30:00,METAR LFLB 080130Z AUTO 22002KT CAVOK 08/06 Q1022,1,0.0,0,9999.0,0,0,0,
2026-04-08 01:00:00,METAR LFLB 080100Z AUTO 19002KT CAVOK 08/07 Q1022,1,0.0,0,9999.0,0,0,0,
2026-04-08 00:30:00,METAR LFLB 080030Z AUTO VRB02KT CAVOK 09/07 Q1022,1,0.0,0,9999.0,0,0,0,
2026-04-08 00:00:00,METAR LFLB 080000Z AUTO 15001KT CAVOK 09/07 Q1022,1,0.0,0,9999.0,0,0,0,
2026-04-07 23:30:00,METAR LFLB 072330Z AUTO VRB01KT CAVOK 09/07 Q1022,1,0.0,0,9999.0,0,0,0,
2026-04-07 23:00:00,METAR LFLB 072300Z AUTO 00000KT CAVOK 10/08 Q1021,1,0.0,0,9999.0,0,0,0,
2026-04-07 22:30:00,METAR LFLB 072230Z AUTO 00000KT CAVOK 11/08 Q1021,1,0.0,0,9999.0,0,0,0,
2026-04-07 22:00:00,METAR LFLB 072200Z AUTO VRB02KT CAVOK 11/08 Q1021,1,0.0,0,9999.0,0,0,0,
2026-04-07 21:30:00,METAR LFLB 072130Z AUTO VRB01KT CAVOK 12/08 Q1021,1,0.0,0,9999.0,0,0,0,
2026-04-07 21:00:00,METAR LFLB 072100Z AUTO 00000KT CAVOK 13/09 Q1021,1,0.0,0,9999.0,0,0,0,
2026-04-07 20:30:00,METAR LFLB 072030Z AUTO VRB02KT CAVOK 14/09 Q1021,1,0.0,0,9999.0,0,0,0,
2026-04-07 20:00:00,METAR LFLB 072000Z AUTO 00000KT CAVOK 14/09 Q1021,1,0.0,0,9999.0,0,0,0,
2026-04-07 19:30:00,METAR LFLB 071930Z AUTO VRB02KT CAVOK 15/09 Q1020,1,0.0,0,9999.0,0,0,0,
2026-04-07 19:00:00,METAR LFLB 071900Z AUTO VRB02KT CAVOK 16/09 Q1020 NOSIG,1,0.0,0,9999.0,0,0,0,
2026-04-07 18:30:00,METAR LFLB 071830Z AUTO VRB02KT CAVOK 17/11 Q1020 NOSIG,1,0.0,0,9999.0,0,0,0,
2026-04-07 18:00:00,METAR LFLB 071800Z AUTO VRB01KT CAVOK 18/11 Q1020 NOSIG,1,0.0,0,9999.0,0,0,0,
2026-04-07 17:30:00,METAR LFLB 071730Z AUTO 00000KT CAVOK 19/11 Q1020 NOSIG,1,0.0,0,9999.0,0,0,0,
2026-04-07 17:00:00,METAR LFLB 071700Z AUTO 33002KT CAVOK 22/10 Q1020 NOSIG,1,0.0,0,9999.0,0,0,0,
2026-04-07 16:30:00,METAR LFLB 071630Z AUTO 02004KT CAVOK 24/10 Q1020 NOSIG,1,0.0,0,9999.0,0,0,0,
2026-04-07 16:00:00,METAR LFLB 071600Z AUTO VRB02KT CAVOK 25/11 Q1020 NOSIG,1,0.0,0,9999.0,0,0,0,
2026-04-07 15:30:00,METAR LFLB 071530Z AUTO 36003KT 330V030 CAVOK 25/08 Q1020 NOSIG,1,0.0,0,9999.0,0,0,0,
2026-04-07 15:00:00,METAR LFLB 071500Z AUTO 01004KT CAVOK 25/08 Q1020 NOSIG,1,0.0,0,9999.0,0,0,0,
2026-04-07 14:30:00,METAR LFLB 071430Z AUTO 36005KT CAVOK 24/10 Q1020 NOSIG,1,0.0,0,9999.0,0,0,0,
2026-04-07 14:00:00,METAR LFLB 071400Z AUTO 36006KT CAVOK 24/08 Q1020 NOSIG,1,0.0,0,9999.0,0,0,0,
2026-04-07 13:30:00,METAR LFLB 071330Z AUTO 01005KT CAVOK 23/09 Q1021 NOSIG,1,0.0,0,9999.0,0,0,0,
2026-04-07 13:00:00,METAR LFLB 071300Z AUTO 36004KT CAVOK 22/09 Q1021 NOSIG,1,0.0,0,9999.0,0,0,0,
2026-04-07 12:30:00,METAR LFLB 071230Z AUTO 36005KT CAVOK 21/09 Q1022 NOSIG,1,0.0,0,9999.0,0,0,0,
2026-04-07 12:00:00,METAR LFLB 071200Z AUTO 01005KT CAVOK 20/09 Q1022 NOSIG,1,0.0,0,9999.0,0,0,0,
2026-04-07 11:30:00,METAR LFLB 071130Z AUTO 01005KT CAVOK 20/09 Q1022 NOSIG,1,0.0,0,9999.0,0,0,0,
2026-04-07 11:00:00,METAR LFLB 071100Z AUTO 01004KT CAVOK 20/08 Q1023 NOSIG,1,0.0,0,9999.0,0,0,0,
2026-04-07 10:30:00,METAR LFLB 071030Z AUTO 02004KT 350V070 CAVOK 20/08 Q1023 NOSIG,1,0.0,0,9999.0,0,0,0,
2026-04-07 10:00:00,METAR LFLB 071000Z AUTO VRB03KT CAVOK 19/08 Q1023 NOSIG,1,0.0,0,9999.0,0,0,0,
2026-04-07 09:30:00,METAR LFLB 070930Z AUTO VRB03KT CAVOK 18/08 Q1024 NOSIG,1,0.0,0,9999.0,0,0,0,
2026-04-07 09:00:00,METAR LFLB 070900Z AUTO VRB01KT CAVOK 18/09 Q1024 NOSIG,1,0.0,0,9999.0,0,0,0,
2026-04-07 08:30:00,METAR LFLB 070830Z AUTO 00000KT CAVOK 16/09 Q1024 NOSIG,1,0.0,0,9999.0,0,0,0,
2026-04-07 08:00:00,METAR LFLB 070800Z AUTO VRB01KT CAVOK 14/08 Q1024 NOSIG,1,0.0,0,9999.0,0,0,0,
2026-04-07 07:30:00,METAR LFLB 070730Z AUTO VRB02KT CAVOK 13/08 Q1024 NOSIG,1,0.0,0,9999.0,0,0,0,
2026-04-07 07:00:00,METAR LFLB 070700Z AUTO 07002KT 9999 4400 NSC 11/07 Q1024 NOSIG,0,2.0,0,10000.0,0,0,0,
2026-04-07 06:30:00,METAR LFLB 070630Z AUTO 14002KT CAVOK 08/07 Q1024 NOSIG,1,0.0,0,9999.0,0,0,0,
2026-04-07 06:00:00,METAR LFLB 070600Z AUTO VRB02KT CAVOK 05/04 Q1024 NOSIG,1,0.0,0,9999.0,0,0,0,
2026-04-07 05:30:00,METAR LFLB 070530Z AUTO 17002KT CAVOK 05/04 Q1024 NOSIG,1,0.0,0,9999.0,0,0,0,
2026-04-07 05:00:00,METAR LFLB 070500Z AUTO 17002KT CAVOK 06/05 Q1024 NOSIG,1,0.0,0,9999.0,0,0,0,
2026-04-07 04:30:00,METAR LFLB 070430Z AUTO 00000KT CAVOK 06/06 Q1024 NOSIG,1,0.0,0,9999.0,0,0,0,
2026-04-07 04:00:00,METAR LFLB 070400Z AUTO 19003KT CAVOK 06/05 Q1023 NOSIG,1,0.0,0,9999.0,0,0,0,
2026-04-07 03:30:00,METAR LFLB 070330Z AUTO 00000KT CAVOK 06/05 Q1023 NOSIG,1,0.0,0,9999.0,0,0,0,
2026-04-07 03:00:00,METAR LFLB 070300Z AUTO 19003KT CAVOK 06/05 Q1024 NOSIG,1,0.0,0,9999.0,0,0,0,
2026-04-07 02:30:00,METAR LFLB 070230Z AUTO VRB02KT CAVOK 07/06 Q1024 NOSIG,1,0.0,0,9999.0,0,0,0,
2026-04-07 02:00:00,METAR LFLB 070200Z AUTO 00000KT CAVOK 07/06 Q1023,1,0.0,0,9999.0,0,0,0,
2026-04-07 01:30:00,METAR LFLB 070130Z AUTO 17001KT CAVOK 08/06 Q1023,1,0.0,0,9999.0,0,0,0,
2026-04-07 01:00:00,METAR LFLB 070100Z AUTO 20003KT CAVOK 08/06 Q1023,1,0.0,0,9999.0,0,0,0,
2026-04-07 00:30:00,METAR LFLB 070030Z AUTO 00000KT CAVOK 08/06 Q1024,1,0.0,0,9999.0,0,0,0,
2026-04-07 00:00:00,METAR LFLB 070000Z AUTO 18003KT CAVOK 08/06 Q1023,1,0.0,0,9999.0,0,0,0,
2026-04-06 23:30:00,METAR LFLB 062330Z AUTO 17002KT CAVOK 09/07 Q1023,1,0.0,0,9999.0,0,0,0,
2026-04-06 23:00:00,METAR LFLB 062300Z AUTO 15003KT CAVOK 09/06 Q1023,1,0.0,0,9999.0,0,0,0,
2026-04-06 22:30:00,METAR LFLB 062230Z AUTO VRB02KT CAVOK 09/07 Q1023,1,0.0,0,9999.0,0,0,0,
2026-04-06 22:00:00,METAR LFLB 062200Z AUTO 24002KT CAVOK 10/07 Q1023,1,0.0,0,9999.0,0,0,0,
2026-04-06 21:30:00,METAR LFLB 062130Z AUTO 00000KT CAVOK 11/07 Q1023,1,0.0,0,9999.0,0,0,0,
2026-04-06 21:00:00,METAR LFLB 062100Z AUTO 00000KT CAVOK 11/08 Q1023,1,0.0,0,9999.0,0,0,0,
2026-04-06 20:30:00,METAR LFLB 062030Z AUTO 00000KT CAVOK 12/08 Q1022,1,0.0,0,9999.0,0,0,0,
2026-04-06 20:00:00,METAR LFLB 062000Z AUTO 00000KT CAVOK 13/08 Q1022,1,0.0,0,9999.0,0,0,0,
2026-04-06 19:30:00,METAR LFLB 061930Z AUTO 00000KT CAVOK 13/08 Q1022 NOSIG,1,0.0,0,9999.0,0,0,0,
2026-04-06 19:00:00,METAR LFLB 061900Z AUTO 22002KT CAVOK 14/09 Q1022 NOSIG,1,0.0,0,9999.0,0,0,0,
2026-04-06 18:30:00,METAR LFLB 061830Z AUTO VRB01KT CAVOK 15/09 Q1022 NOSIG,1,0.0,0,9999.0,0,0,0,
2026-04-06 18:00:00,METAR LFLB 061800Z AUTO 28003KT CAVOK 17/09 Q1022 NOSIG,1,0.0,0,9999.0,0,0,0,
2026-04-06 17:30:00,METAR LFLB 061730Z AUTO 28002KT CAVOK 19/11 Q1022 NOSIG,1,0.0,0,9999.0,0,0,0,
2026-04-06 17:00:00,METAR LFLB 061700Z AUTO 31003KT CAVOK 21/10 Q1022 NOSIG,1,0.0,0,9999.0,0,0,0,
2026-04-06 16:30:00,METAR LFLB 061630Z AUTO VRB03KT CAVOK 25/11 Q1022 NOSIG,1,0.0,0,9999.0,0,0,0,
2026-04-06 16:00:00,METAR LFLB 061600Z AUTO 36004KT CAVOK 24/10 Q1022 NOSIG,1,0.0,0,9999.0,0,0,0,
2026-04-06 15:30:00,METAR LFLB 061530Z AUTO 01004KT CAVOK 24/10 Q1022 NOSIG,1,0.0,0,9999.0,0,0,0,
2026-04-06 15:00:00,METAR LFLB 061500Z AUTO 01005KT CAVOK 24/10 Q1022 NOSIG,1,0.0,0,9999.0,0,0,0,
2026-04-06 14:30:00,METAR LFLB 061430Z AUTO 36005KT CAVOK 24/11 Q1022 NOSIG,1,0.0,0,9999.0,0,0,0,
2026-04-06 14:00:00,METAR LFLB 061400Z AUTO 36004KT CAVOK 23/10 Q1023 NOSIG,1,0.0,0,9999.0,0,0,0,
2026-04-06 13:30:00,METAR LFLB 061330Z AUTO 01005KT 330V030 CAVOK 23/10 Q1023 NOSIG,1,0.0,0,9999.0,0,0,0,
2026-04-06 13:00:00,METAR LFLB 061300Z AUTO 01005KT CAVOK 22/10 Q1023 NOSIG,1,0.0,0,9999.0,0,0,0,
2026-04-06 12:30:00,METAR LFLB 061230Z AUTO 35004KT 320V020 CAVOK 22/10 Q1024 NOSIG,1,0.0,0,9999.0,0,0,0,
2026-04-06 12:00:00,METAR LFLB 061200Z AUTO 36004KT CAVOK 21/09 Q1024 NOSIG,1,0.0,0,9999.0,0,0,0,
2026-04-06 11:30:00,METAR LFLB 061130Z AUTO 36006KT CAVOK 19/08 Q1025 NOSIG,1,0.0,0,9999.0,0,0,0,
2026-04-06 11:00:00,METAR LFLB 061100Z AUTO 01006KT CAVOK 18/10 Q1025 NOSIG,1,0.0,0,9999.0,0,0,0,
2026-04-06 10:30:00,METAR LFLB 061030Z AUTO 02006KT CAVOK 17/10 Q1025 NOSIG,1,0.0,0,9999.0,0,0,0,
2026-04-06 10:00:00,METAR LFLB 061000Z AUTO 01005KT CAVOK 17/10 Q1026 NOSIG,1,0.0,0,9999.0,0,0,0,
2026-04-06 09:30:00,METAR LFLB 060930Z AUTO 01005KT CAVOK 15/09 Q1026 NOSIG,1,0.0,0,9999.0,0,0,0,
2026-04-06 09:00:00,METAR LFLB 060900Z AUTO 01005KT CAVOK 14/09 Q1026 NOSIG,1,0.0,0,9999.0,0,0,0,
2026-04-06 08:30:00,METAR LFLB 060830Z AUTO 01006KT CAVOK 14/08 Q1026 NOSIG,1,0.0,0,9999.0,0,0,0,
2026-04-06 08:00:00,METAR LFLB 060800Z AUTO 01004KT CAVOK 14/09 Q1026 NOSIG,1,0.0,0,9999.0,0,0,0,
2026-04-06 07:30:00,METAR LFLB 060730Z AUTO VRB01KT CAVOK 14/09 Q1026 NOSIG,1,0.0,0,9999.0,0,0,0,
2026-04-06 07:00:00,METAR LFLB 060700Z AUTO 00000KT CAVOK 13/08 Q1026 NOSIG,1,0.0,0,9999.0,0,0,0,
2026-04-06 06:30:00,METAR LFLB 060630Z AUTO VRB01KT CAVOK 10/08 Q1026 NOSIG,1,0.0,0,9999.0,0,0,0,
2026-04-06 06:00:00,METAR LFLB 060600Z AUTO VRB02KT CAVOK 08/06 Q1026 NOSIG,1,0.0,0,9999.0,0,0,0,
2026-04-06 05:30:00,METAR LFLB 060530Z AUTO VRB02KT CAVOK 07/06 Q1026 NOSIG,1,0.0,0,9999.0,0,0,0,
2026-04-06 05:00:00,METAR LFLB 060500Z AUTO 23003KT CAVOK 08/07 Q1025 TEMPO 3000 MIFG,1,0.0,0,9999.0,0,0,0,
2026-04-06 04:30:00,METAR LFLB 060430Z AUTO 29001KT CAVOK 09/07 Q1025 TEMPO 3000 MIFG,1,0.0,0,9999.0,0,0,0,
2026-04-06 04:00:00,METAR LFLB 060400Z AUTO VRB02KT CAVOK 09/07 Q1025 TEMPO 3000 MIFG,1,0.0,0,9999.0,0,0,0,
2026-04-06 03:30:00,METAR LFLB 060330Z AUTO 18004KT CAVOK 09/07 Q1025 TEMPO 3000 MIFG,1,0.0,0,9999.0,0,0,0,
2026-04-06 03:00:00,METAR LFLB 060300Z AUTO 18002KT CAVOK 11/07 Q1025 TEMPO 3000 MIFG,1,0.0,0,9999.0,0,0,0,
2026-04-06 02:30:00,METAR LFLB 060230Z AUTO VRB03KT CAVOK 10/07 Q1025 TEMPO 3000 MIFG,1,0.0,0,9999.0,0,0,0,
2026-04-06 02:00:00,METAR LFLB 060200Z AUTO 15004KT CAVOK 10/07 Q1025,1,0.0,0,9999.0,0,0,0,
2026-04-06 01:30:00,METAR LFLB 060130Z AUTO VRB03KT CAVOK 11/07 Q1025,1,0.0,0,9999.0,0,0,0,
2026-04-06 01:00:00,METAR LFLB 060100Z AUTO VRB01KT CAVOK 12/07 Q1025,1,0.0,0,9999.0,0,0,0,
2026-04-06 00:30:00,METAR LFLB 060030Z AUTO VRB02KT CAVOK 13/07 Q1025,1,0.0,0,9999.0,0,0,0,
2026-04-06 00:00:00,METAR LFLB 060000Z AUTO VRB03KT CAVOK 14/07 Q1025,1,0.0,0,9999.0,0,0,0,
2026-04-05 23:30:00,METAR LFLB 052330Z AUTO 28004KT 230V310 CAVOK 16/07 Q1025,1,0.0,0,9999.0,0,0,0,
2026-04-05 23:00:00,METAR LFLB 052300Z AUTO 21005KT 170V250 CAVOK 18/06 Q1025,1,0.0,0,9999.0,0,0,0,
2026-04-05 22:30:00,METAR LFLB 052230Z AUTO 25004KT 190V290 CAVOK 18/06 Q1025,1,0.0,0,9999.0,0,0,0,
2026-04-05 22:00:00,METAR LFLB 052200Z AUTO 22006KT 190V270 9999 OVC086 17/05 Q1024,0,6.0,0,10000.0,0,0,0,
2026-04-05 21:30:00,METAR LFLB 052130Z AUTO 21004KT 170V250 9999 BKN088 BKN110 BKN130 17/07 Q1024,0,4.0,0,10000.0,0,0,0,
2026-04-05 21:00:00,METAR LFLB 052100Z AUTO 19004KT CAVOK 18/07 Q1024,1,0.0,0,9999.0,0,0,0,
2026-04-05 20:30:00,METAR LFLB 052030Z AUTO VRB03KT 9999 ///TCU 19/10 Q1024,0,3.0,0,10000.0,0,0,0,
2026-04-05 20:00:00,METAR LFLB 052000Z AUTO 31005KT 290V350 9999 ///CB 20/10 Q1023,0,5.0,0,10000.0,0,0,0,
2026-04-05 19:30:00,METAR LFLB 051930Z AUTO 23003KT 170V310 9999 ///CB 20/10 Q1022 BECMG NSC,0,3.0,0,10000.0,0,0,0,
2026-04-05 19:00:00,METAR LFLB 051900Z AUTO 25004KT 200V290 9999 ///TCU 20/10 Q1022 BECMG NSC,0,4.0,0,10000.0,0,0,0,
2026-04-05 18:30:00,METAR LFLB 051830Z AUTO VRB02KT CAVOK 19/11 Q1022 TEMPO SCT070TCU,1,0.0,0,9999.0,0,0,0,
2026-04-05 18:00:00,METAR LFLB 051800Z AUTO 30001KT 9999 ///CB 20/11 Q1021 NOSIG,0,1.0,0,10000.0,0,0,0,
2026-04-05 17:30:00,METAR LFLB 051730Z AUTO VRB02KT CAVOK 20/09 Q1021 TEMPO SCT070TCU,1,0.0,0,9999.0,0,0,0,
2026-04-05 17:00:00,METAR LFLB 051700Z AUTO 00000KT CAVOK 22/11 Q1021 TEMPO SCT070TCU,1,0.0,0,9999.0,0,0,0,
2026-04-05 16:30:00,METAR LFLB 051630Z AUTO 01003KT CAVOK 23/12 Q1021 TEMPO SCT070TCU,1,0.0,0,9999.0,0,0,0,
2026-04-05 16:00:00,METAR LFLB 051600Z AUTO 35004KT 310V020 CAVOK 24/10 Q1021 TEMPO SCT070TCU,1,0.0,0,9999.0,0,0,0,
2026-04-05 15:00:00,METAR LFLB 051500Z AUTO 03005KT CAVOK 24/10 Q1021 NOSIG,1,0.0,0,9999.0,0,0,0,
2026-04-05 13:00:00,METAR LFLB 051300Z AUTO 01005KT 330V030 CAVOK 22/08 Q1023 NOSIG,1,0.0,0,9999.0,0,0,0,
2026-04-05 12:30:00,METAR LFLB 051230Z AUTO 01004KT CAVOK 21/10 Q1023 NOSIG,1,0.0,0,9999.0,0,0,0,
2026-04-05 12:00:00,METAR LFLB 051200Z AUTO 36005KT CAVOK 19/08 Q1023 NOSIG,1,0.0,0,9999.0,0,0,0,
2026-04-05 11:30:00,METAR LFLB 051130Z AUTO 01007KT CAVOK 18/08 Q1024 NOSIG,1,0.0,0,9999.0,0,0,0,
2026-04-05 11:00:00,METAR LFLB 051100Z AUTO 02003KT 350V070 CAVOK 20/08 Q1024 NOSIG,1,0.0,0,9999.0,0,0,0,
2026-04-05 10:30:00,METAR LFLB 051030Z AUTO VRB03KT CAVOK 18/09 Q1024 NOSIG,1,0.0,0,9999.0,0,0,0,
2026-04-05 10:00:00,METAR LFLB 051000Z AUTO 01006KT CAVOK 16/07 Q1024 NOSIG,1,0.0,0,9999.0,0,0,0,
2026-04-05 09:30:00,METAR LFLB 050930Z AUTO 01005KT CAVOK 16/09 Q1024 NOSIG,1,0.0,0,9999.0,0,0,0,
2026-04-05 09:00:00,METAR LFLB 050900Z AUTO 02004KT 350V050 CAVOK 16/09 Q1024 NOSIG,1,0.0,0,9999.0,0,0,0,
2026-04-05 08:30:00,METAR LFLB 050830Z AUTO VRB03KT CAVOK 17/06 Q1024 NOSIG,1,0.0,0,9999.0,0,0,0,
2026-04-05 08:00:00,METAR LFLB 050800Z AUTO 18005KT 150V210 CAVOK 15/07 Q1024 NOSIG,1,0.0,0,9999.0,0,0,0,
2026-04-05 07:30:00,METAR LFLB 050730Z AUTO VRB01KT CAVOK 12/08 Q1024 NOSIG,1,0.0,0,9999.0,0,0,0,
2026-04-05 07:00:00,METAR LFLB 050700Z AUTO 00000KT CAVOK 10/08 Q1024 NOSIG,1,0.0,0,9999.0,0,0,0,
2026-04-05 06:30:00,METAR LFLB 050630Z AUTO 00000KT CAVOK 08/08 Q1024 NOSIG,1,0.0,0,9999.0,0,0,0,
2026-04-05 06:00:00,METAR LFLB 050600Z AUTO 00000KT CAVOK 06/05 Q1024 NOSIG,1,0.0,0,9999.0,0,0,0,
2026-04-05 05:30:00,METAR LFLB 050530Z AUTO 00000KT CAVOK 05/05 Q1024 NOSIG,1,0.0,0,9999.0,0,0,0,
2026-04-05 05:00:00,METAR LFLB 050500Z AUTO VRB02KT CAVOK 05/04 Q1023 TEMPO 3000 MIFG,1,0.0,0,9999.0,0,0,0,
2026-04-05 04:30:00,METAR LFLB 050430Z AUTO 14001KT CAVOK 05/05 Q1023 TEMPO 3000 MIFG,1,0.0,0,9999.0,0,0,0,
2026-04-05 04:00:00,METAR LFLB 050400Z AUTO 18001KT CAVOK 06/05 Q1023 TEMPO 3000 MIFG,1,0.0,0,9999.0,0,0,0,
2026-04-05 03:30:00,METAR LFLB 050330Z AUTO 00000KT CAVOK 07/06 Q1023 TEMPO 3000 MIFG,1,0.0,0,9999.0,0,0,0,
2026-04-05 03:00:00,METAR LFLB 050300Z AUTO 15002KT CAVOK 07/06 Q1023 TEMPO 3000 MIFG,1,0.0,0,9999.0,0,0,0,
2026-04-05 02:30:00,METAR LFLB 050230Z AUTO 17002KT CAVOK 07/06 Q1023 TEMPO 3000 MIFG,1,0.0,0,9999.0,0,0,0,
2026-04-05 02:00:00,METAR LFLB 050200Z AUTO VRB01KT CAVOK 07/07 Q1023,1,0.0,0,9999.0,0,0,0,
2026-04-05 01:30:00,METAR LFLB 050130Z AUTO 29002KT CAVOK 07/05 Q1023,1,0.0,0,9999.0,0,0,0,
2026-04-05 01:00:00,METAR LFLB 050100Z AUTO VRB01KT CAVOK 07/06 Q1023,1,0.0,0,9999.0,0,0,0,
2026-04-05 00:30:00,METAR LFLB 050030Z AUTO 00000KT CAVOK 08/06 Q1023,1,0.0,0,9999.0,0,0,0,
2026-04-05 00:00:00,METAR LFLB 050000Z AUTO 15003KT CAVOK 09/07 Q1023,1,0.0,0,9999.0,0,0,0,
2026-04-04 23:30:00,METAR LFLB 042330Z AUTO 18003KT CAVOK 09/07 Q1023,1,0.0,0,9999.0,0,0,0,
2026-04-04 23:00:00,METAR LFLB 042300Z AUTO 20001KT CAVOK 09/07 Q1023,1,0.0,0,9999.0,0,0,0,
2026-04-04 22:30:00,METAR LFLB 042230Z AUTO VRB02KT CAVOK 10/08 Q1023,1,0.0,0,9999.0,0,0,0,
2026-04-04 22:00:00,METAR LFLB 042200Z AUTO VRB01KT CAVOK 09/08 Q1023,1,0.0,0,9999.0,0,0,0,
2026-04-04 21:30:00,METAR LFLB 042130Z AUTO 17002KT CAVOK 09/07 Q1023,1,0.0,0,9999.0,0,0,0,
2026-04-04 21:00:00,METAR LFLB 042100Z AUTO 19002KT CAVOK 10/08 Q1022,1,0.0,0,9999.0,0,0,0,
2026-04-04 20:30:00,METAR LFLB 042030Z AUTO 16003KT CAVOK 11/08 Q1022,1,0.0,0,9999.0,0,0,0,
2026-04-04 20:00:00,METAR LFLB 042000Z AUTO VRB01KT CAVOK 11/09 Q1022,1,0.0,0,9999.0,0,0,0,
2026-04-04 19:30:00,METAR LFLB 041930Z AUTO 00000KT CAVOK 12/09 Q1022 NOSIG,1,0.0,0,9999.0,0,0,0,
2026-04-04 19:00:00,METAR LFLB 041900Z AUTO VRB01KT CAVOK 12/09 Q1022 NOSIG,1,0.0,0,9999.0,0,0,0,
2026-04-04 18:30:00,METAR LFLB 041830Z AUTO 30001KT CAVOK 14/09 Q1022 NOSIG,1,0.0,0,9999.0,0,0,0,
2026-04-04 18:00:00,METAR LFLB 041800Z AUTO VRB01KT CAVOK 15/10 Q1021 NOSIG,1,0.0,0,9999.0,0,0,0,
2026-04-04 17:30:00,METAR LFLB 041730Z AUTO VRB02KT CAVOK 15/10 Q1022 NOSIG,1,0.0,0,9999.0,0,0,0,
2026-04-04 17:00:00,METAR LFLB 041700Z AUTO 31003KT CAVOK 18/10 Q1022 NOSIG,1,0.0,0,9999.0,0,0,0,
2026-04-04 16:30:00,METAR LFLB 041630Z AUTO VRB02KT CAVOK 20/09 Q1022 NOSIG,1,0.0,0,9999.0,0,0,0,
2026-04-04 16:00:00,METAR LFLB 041600Z AUTO 01003KT 340V040 CAVOK 21/10 Q1022 NOSIG,1,0.0,0,9999.0,0,0,0,
2026-04-04 15:30:00,METAR LFLB 041530Z AUTO 02004KT CAVOK 20/09 Q1022 NOSIG,1,0.0,0,9999.0,0,0,0,
2026-04-04 15:00:00,METAR LFLB 041500Z AUTO 03004KT 340V060 CAVOK 21/08 Q1022 NOSIG,1,0.0,0,9999.0,0,0,0,
2026-04-04 14:30:00,METAR LFLB 041430Z AUTO 01004KT 340V040 CAVOK 21/08 Q1022 NOSIG,1,0.0,0,9999.0,0,0,0,
2026-04-04 14:00:00,METAR LFLB 041400Z AUTO 04003KT 360V070 CAVOK 21/09 Q1023 NOSIG,1,0.0,0,9999.0,0,0,0,
2026-04-04 13:30:00,METAR LFLB 041330Z AUTO VRB02KT CAVOK 20/08 Q1023 NOSIG,1,0.0,0,9999.0,0,0,0,
2026-04-04 13:00:00,METAR LFLB 041300Z AUTO VRB03KT CAVOK 19/07 Q1023 NOSIG,1,0.0,0,9999.0,0,0,0,
2026-04-04 12:30:00,METAR LFLB 041230Z AUTO 33004KT 290V010 CAVOK 18/08 Q1023 NOSIG,1,0.0,0,9999.0,0,0,0,
2026-04-04 12:00:00,METAR LFLB 041200Z AUTO 01005KT 320V050 CAVOK 18/07 Q1024 NOSIG,1,0.0,0,9999.0,0,0,0,
2026-04-04 11:30:00,METAR LFLB 041130Z AUTO 01005KT 330V040 CAVOK 17/06 Q1024 NOSIG,1,0.0,0,9999.0,0,0,0,
2026-04-04 11:00:00,METAR LFLB 041100Z AUTO 36006KT 310V030 CAVOK 16/06 Q1024 NOSIG,1,0.0,0,9999.0,0,0,0,
2026-04-04 10:30:00,METAR LFLB 041030Z AUTO 36005KT 330V030 CAVOK 16/07 Q1025 NOSIG,1,0.0,0,9999.0,0,0,0,
2026-04-04 10:00:00,METAR LFLB 041000Z AUTO 01005KT 320V030 CAVOK 14/06 Q1025 NOSIG,1,0.0,0,9999.0,0,0,0,
2026-04-04 09:30:00,METAR LFLB 040930Z AUTO 01005KT CAVOK 14/06 Q1025 NOSIG,1,0.0,0,9999.0,0,0,0,
2026-04-04 09:00:00,METAR LFLB 040900Z AUTO 01004KT 330V040 CAVOK 14/07 Q1025 NOSIG,1,0.0,0,9999.0,0,0,0,
2026-04-04 08:30:00,METAR LFLB 040830Z AUTO VRB02KT CAVOK 14/06 Q1025 NOSIG,1,0.0,0,9999.0,0,0,0,
2026-04-04 08:00:00,METAR LFLB 040800Z AUTO VRB02KT CAVOK 13/06 Q1025 NOSIG,1,0.0,0,9999.0,0,0,0,
2026-04-04 07:30:00,METAR LFLB 040730Z AUTO VRB01KT CAVOK 13/05 Q1025 NOSIG,1,0.0,0,9999.0,0,0,0,
2026-04-04 07:00:00,METAR LFLB 040700Z AUTO 00000KT CAVOK 12/05 Q1025 NOSIG,1,0.0,0,9999.0,0,0,0,
2026-04-04 06:30:00,METAR LFLB 040630Z AUTO 00000KT 9999 BKN080 09/06 Q1025 NOSIG,0,0.0,0,10000.0,0,0,0,
2026-04-04 06:00:00,METAR LFLB 040600Z AUTO 00000KT 9999 OVC082 08/05 Q1025 NOSIG,0,0.0,0,10000.0,0,0,0,
2026-04-04 05:30:00,METAR LFLB 040530Z AUTO 11002KT 9999 OVC084 08/05 Q1025 NOSIG,0,2.0,0,10000.0,0,0,0,
2026-04-04 05:00:00,METAR LFLB 040500Z AUTO VRB02KT 9999 FEW062 OVC082 08/05 Q1024 NOSIG,0,2.0,0,10000.0,0,0,0,
2026-04-04 04:30:00,METAR LFLB 040430Z AUTO 18004KT 9999 OVC080 08/06 Q1024 NOSIG,0,4.0,0,10000.0,0,0,0,
2026-04-04 04:00:00,METAR LFLB 040400Z AUTO 00000KT 9999 FEW072 OVC082 08/05 Q1024 NOSIG,0,0.0,0,10000.0,0,0,0,
2026-04-04 03:30:00,METAR LFLB 040330Z AUTO 00000KT 9999 OVC074 08/06 Q1024 NOSIG,0,0.0,0,10000.0,0,0,0,
2026-04-04 03:00:00,METAR LFLB 040300Z AUTO 20002KT 9999 OVC074 08/05 Q1024 NOSIG,0,2.0,0,10000.0,0,0,0,
2026-04-04 02:30:00,METAR LFLB 040230Z AUTO 15001KT 9999 OVC082 08/05 Q1024 NOSIG,0,1.0,0,10000.0,0,0,0,
2026-04-04 02:00:00,METAR LFLB 040200Z AUTO 00000KT CAVOK 09/05 Q1024,1,0.0,0,9999.0,0,0,0,
2026-04-04 01:30:00,METAR LFLB 040130Z AUTO VRB02KT CAVOK 09/05 Q1024,1,0.0,0,9999.0,0,0,0,
2026-04-04 01:00:00,METAR LFLB 040100Z AUTO 18003KT 9999 OVC088 09/05 Q1024,0,3.0,0,10000.0,0,0,0,
2026-04-04 00:30:00,METAR LFLB 040030Z AUTO 20003KT CAVOK 08/05 Q1024,1,0.0,0,9999.0,0,0,0,
2026-04-04 00:00:00,METAR LFLB 040000Z AUTO 18003KT CAVOK 08/05 Q1024,1,0.0,0,9999.0,0,0,0,
2026-04-03 23:30:00,METAR LFLB 032330Z AUTO 19003KT CAVOK 08/05 Q1024,1,0.0,0,9999.0,0,0,0,
2026-04-03 23:00:00,METAR LFLB 032300Z AUTO 20003KT 170V250 CAVOK 08/05 Q1023,1,0.0,0,9999.0,0,0,0,
2026-04-03 22:30:00,METAR LFLB 032230Z AUTO 19005KT CAVOK 08/05 Q1023,1,0.0,0,9999.0,0,0,0,
2026-04-03 22:00:00,METAR LFLB 032200Z AUTO VRB02KT CAVOK 09/05 Q1023,1,0.0,0,9999.0,0,0,0,
2026-04-03 21:30:00,METAR LFLB 032130Z AUTO VRB02KT CAVOK 09/05 Q1023,1,0.0,0,9999.0,0,0,0,
2026-04-03 21:00:00,METAR LFLB 032100Z AUTO VRB01KT CAVOK 10/05 Q1023,1,0.0,0,9999.0,0,0,0,
2026-04-03 20:30:00,METAR LFLB 032030Z AUTO VRB01KT CAVOK 11/05 Q1022,1,0.0,0,9999.0,0,0,0,
2026-04-03 20:00:00,METAR LFLB 032000Z AUTO VRB02KT CAVOK 12/05 Q1022,1,0.0,0,9999.0,0,0,0,
2026-04-03 19:30:00,METAR LFLB 031930Z AUTO VRB02KT CAVOK 12/05 Q1022,1,0.0,0,9999.0,0,0,0,
2026-04-03 19:00:00,METAR LFLB 031900Z AUTO VRB02KT CAVOK 13/05 Q1022 NOSIG,1,0.0,0,9999.0,0,0,0,
2026-04-03 18:30:00,METAR LFLB 031830Z AUTO 05010KT 020V100 CAVOK 13/05 Q1021 NOSIG,1,0.0,0,9999.0,0,0,0,
2026-04-03 18:00:00,METAR LFLB 031800Z AUTO VRB03KT CAVOK 14/05 Q1021 NOSIG,1,0.0,0,9999.0,0,0,0,
2026-04-03 17:30:00,METAR LFLB 031730Z AUTO 36004KT 320V020 CAVOK 15/04 Q1020 NOSIG,1,0.0,0,9999.0,0,0,0,
2026-04-03 17:00:00,METAR LFLB 031700Z AUTO VRB02KT CAVOK 15/04 Q1020 NOSIG,1,0.0,0,9999.0,0,0,0,
2026-04-03 16:30:00,METAR LFLB 031630Z AUTO VRB01KT 9999 FEW074 16/02 Q1020 NOSIG,0,1.0,0,10000.0,0,0,0,
2026-04-03 16:00:00,METAR LFLB 031600Z AUTO 36004KT CAVOK 15/04 Q1020 NOSIG,1,0.0,0,9999.0,0,0,0,
2026-04-03 15:30:00,METAR LFLB 031530Z AUTO 02003KT 350V060 CAVOK 17/03 Q1019 NOSIG,1,0.0,0,9999.0,0,0,0,
2026-04-03 15:00:00,METAR LFLB 031500Z AUTO VRB02KT CAVOK 18/03 Q1019 NOSIG,1,0.0,0,9999.0,0,0,0,
2026-04-03 14:30:00,METAR LFLB 031430Z AUTO 04006KT 010V070 CAVOK 17/03 Q1019 NOSIG,1,0.0,0,9999.0,0,0,0,
2026-04-03 14:00:00,METAR LFLB 031400Z AUTO 34004KT 300V040 CAVOK 17/02 Q1019 NOSIG,1,0.0,0,9999.0,0,0,0,
2026-04-03 13:30:00,METAR LFLB 031330Z AUTO VRB05KT CAVOK 17/02 Q1020 NOSIG,1,0.0,0,9999.0,0,0,0,
2026-04-03 13:00:00,METAR LFLB 031300Z AUTO 34005KT 280V040 CAVOK 17/03 Q1020 NOSIG,1,0.0,0,9999.0,0,0,0,
2026-04-03 12:30:00,METAR LFLB 031230Z AUTO 34004KT 270V050 CAVOK 16/03 Q1020 NOSIG,1,0.0,0,9999.0,0,0,0,
2026-04-03 12:00:00,METAR LFLB 031200Z AUTO 36005KT 310V030 CAVOK 14/03 Q1020 NOSIG,1,0.0,0,9999.0,0,0,0,
2026-04-03 11:30:00,METAR LFLB 031130Z AUTO 01006KT CAVOK 13/04 Q1020 NOSIG,1,0.0,0,9999.0,0,0,0,
2026-04-03 11:00:00,METAR LFLB 031100Z AUTO 01005KT CAVOK 12/04 Q1020 NOSIG,1,0.0,0,9999.0,0,0,0,
2026-04-03 10:30:00,METAR LFLB 031030Z AUTO 02005KT CAVOK 13/04 Q1021 NOSIG,1,0.0,0,9999.0,0,0,0,
2026-04-03 10:00:00,METAR LFLB 031000Z AUTO 01005KT 340V040 CAVOK 12/04 Q1021 NOSIG,1,0.0,0,9999.0,0,0,0,
2026-04-03 09:30:00,METAR LFLB 030930Z AUTO 01003KT 310V050 CAVOK 10/02 Q1021 NOSIG,1,0.0,0,9999.0,0,0,0,
2026-04-03 09:00:00,METAR LFLB 030900Z AUTO 03003KT 350V080 CAVOK 09/03 Q1021 NOSIG,1,0.0,0,9999.0,0,0,0,
2026-04-03 08:30:00,METAR LFLB 030830Z AUTO 02003KT 340V050 CAVOK 08/02 Q1021 NOSIG,1,0.0,0,9999.0,0,0,0,
2026-04-03 08:00:00,METAR LFLB 030800Z AUTO 01003KT 330V040 CAVOK 07/02 Q1021 NOSIG,1,0.0,0,9999.0,0,0,0,
2026-04-03 07:30:00,METAR LFLB 030730Z AUTO VRB03KT CAVOK 06/02 Q1021 NOSIG,1,0.0,0,9999.0,0,0,0,
2026-04-03 07:00:00,METAR LFLB 030700Z AUTO 14002KT CAVOK 04/02 Q1021 BECMG 36010KT,1,0.0,0,9999.0,0,0,0,
2026-04-03 06:30:00,METAR LFLB 030630Z AUTO VRB02KT CAVOK 02/01 Q1020 NOSIG,1,0.0,0,9999.0,0,0,0,
2026-04-03 06:00:00,METAR LFLB 030600Z AUTO VRB02KT CAVOK 00/M00 Q1020 NOSIG,1,0.0,0,9999.0,0,0,0,
2026-04-03 05:30:00,METAR LFLB 030530Z AUTO VRB01KT CAVOK 01/M00 Q1020 NOSIG,1,0.0,0,9999.0,0,0,0,
2026-04-03 05:00:00,METAR LFLB 030500Z AUTO VRB02KT CAVOK 00/M01 Q1019 NOSIG,1,0.0,0,9999.0,0,0,0,
2026-04-03 04:30:00,METAR LFLB 030430Z AUTO VRB01KT CAVOK 01/M00 Q1019 NOSIG,1,0.0,0,9999.0,0,0,0,
2026-04-03 04:00:00,METAR LFLB 030400Z AUTO VRB02KT CAVOK 00/M01 Q1018 NOSIG,1,0.0,0,9999.0,0,0,0,
2026-04-03 03:30:00,METAR LFLB 030330Z AUTO VRB02KT CAVOK 01/00 Q1018 NOSIG,1,0.0,0,9999.0,0,0,0,
2026-04-03 03:00:00,METAR LFLB 030300Z AUTO 00000KT CAVOK 01/M00 Q1018 NOSIG,1,0.0,0,9999.0,0,0,0,
2026-04-03 02:30:00,METAR LFLB 030230Z AUTO 18002KT CAVOK 02/01 Q1018 NOSIG,1,0.0,0,9999.0,0,0,0,
2026-04-03 02:00:00,METAR LFLB 030200Z AUTO VRB02KT CAVOK 02/M00 Q1017,1,0.0,0,9999.0,0,0,0,
2026-04-03 01:30:00,METAR LFLB 030130Z AUTO 21003KT CAVOK 03/01 Q1017,1,0.0,0,9999.0,0,0,0,
2026-04-03 01:00:00,METAR LFLB 030100Z AUTO 23002KT CAVOK 04/01 Q1017,1,0.0,0,9999.0,0,0,0,
2026-04-03 00:30:00,METAR LFLB 030030Z AUTO VRB02KT CAVOK 05/01 Q1017,1,0.0,0,9999.0,0,0,0,
2026-04-03 00:00:00,METAR LFLB 030000Z AUTO 32004KT 290V040 CAVOK 06/01 Q1017,1,0.0,0,9999.0,0,0,0,
2026-04-02 23:30:00,METAR LFLB 022330Z AUTO 32004KT 290V350 CAVOK 08/01 Q1017,1,0.0,0,9999.0,0,0,0,
2026-04-02 23:00:00,METAR LFLB 022300Z AUTO 31004KT 250V360 CAVOK 07/01 Q1017,1,0.0,0,9999.0,0,0,0,
2026-04-02 22:30:00,METAR LFLB 022230Z AUTO 30003KT CAVOK 08/02 Q1016,1,0.0,0,9999.0,0,0,0,
2026-04-02 22:00:00,METAR LFLB 022200Z AUTO 33003KT 290V050 CAVOK 09/01 Q1016,1,0.0,0,9999.0,0,0,0,
2026-04-02 21:30:00,METAR LFLB 022130Z AUTO 05008KT CAVOK 09/01 Q1016,1,0.0,0,9999.0,0,0,0,
2026-04-02 21:00:00,METAR LFLB 022100Z AUTO 03010KT CAVOK 10/01 Q1016,1,0.0,0,9999.0,0,0,0,
2026-04-02 20:30:00,METAR LFLB 022030Z AUTO 02010KT 350V060 CAVOK 10/02 Q1016,1,0.0,0,9999.0,0,0,0,
2026-04-02 20:00:00,METAR LFLB 022000Z AUTO 02010KT CAVOK 11/02 Q1016,1,0.0,0,9999.0,0,0,0,
2026-04-02 19:30:00,METAR LFLB 021930Z AUTO 02011KT CAVOK 11/02 Q1015,1,0.0,0,9999.0,0,0,0,
2026-04-02 19:00:00,METAR LFLB 021900Z AUTO 01012KT CAVOK 11/02 Q1015 NOSIG,1,0.0,0,9999.0,0,0,0,
2026-04-02 18:30:00,METAR LFLB 021830Z AUTO 01014KT 9999 FEW060 12/02 Q1015 NOSIG,0,14.0,0,10000.0,0,0,0,
2026-04-02 18:00:00,METAR LFLB 021800Z AUTO 02013KT 9999 FEW062 12/02 Q1014 NOSIG,0,13.0,0,10000.0,0,0,0,
2026-04-02 17:30:00,METAR LFLB 021730Z AUTO 36015KT 9999 BKN062 13/02 Q1014 NOSIG,0,15.0,0,10000.0,0,0,0,
2026-04-02 17:00:00,METAR LFLB 021700Z AUTO 35015KT 9999 OVC062 13/02 Q1014 NOSIG,0,15.0,0,10000.0,0,0,0,
2026-04-02 16:30:00,METAR LFLB 021630Z AUTO 36016KT 330V030 9999 OVC062 14/02 Q1013 NOSIG,0,16.0,0,10000.0,0,0,0,
2026-04-02 16:00:00,METAR LFLB 021600Z AUTO 01015KT 9999 OVC064 13/03 Q1013 TEMPO 36015G27KT,0,15.0,0,10000.0,0,0,0,
2026-04-02 15:30:00,METAR LFLB 021530Z AUTO 01012KT 9999 OVC066 13/04 Q1013 TEMPO 36015G27KT,0,12.0,0,10000.0,0,0,0,
2026-04-02 15:00:00,METAR LFLB 021500Z AUTO 36012KT 9999 BKN062 14/03 Q1013 BECMG 36015G27KT,0,12.0,0,10000.0,0,0,0,
2026-04-02 14:30:00,METAR LFLB 021430Z AUTO 36015KT 9999 SCT062 14/03 Q1013 TEMPO 36017G27KT,0,15.0,0,10000.0,0,0,0,
2026-04-02 14:00:00,METAR LFLB 021400Z AUTO 36013KT 9999 BKN058 13/01 Q1013 TEMPO 36017G27KT,0,13.0,0,10000.0,0,0,0,
2026-04-02 13:30:00,METAR LFLB 021330Z AUTO 36013KT 9999 BKN058 14/03 Q1014 TEMPO 36017G27KT,0,13.0,0,10000.0,0,0,0,
2026-04-02 13:00:00,METAR LFLB 021300Z AUTO 02013KT 9999 BKN056 14/03 Q1014 TEMPO 36017G27KT,0,13.0,0,10000.0,0,0,0,
2026-04-02 12:30:00,METAR LFLB 021230Z AUTO 01016KT 330V040 9999 BKN052 13/03 Q1014 TEMPO 36017G27KT,0,16.0,0,10000.0,0,0,0,
2026-04-02 12:00:00,METAR LFLB 021200Z AUTO 03009KT 360V060 9999 BKN049 OVC056 12/01 Q1015 TEMPO 36017G27KT,0,9.0,0,10000.0,0,0,0,
2026-04-02 11:30:00,METAR LFLB 021130Z AUTO 02010KT 350V050 9999 BKN044 10/01 Q1015 TEMPO 36017G27KT,0,10.0,0,10000.0,0,0,0,
2026-04-02 11:00:00,METAR LFLB 021100Z AUTO 35012KT 9999 BKN043 BKN050 10/02 Q1015 TEMPO 36017G27KT,0,12.0,0,10000.0,0,0,0,
2026-04-02 10:30:00,METAR LFLB 021030Z AUTO 36011KT 9999 OVC042 09/01 Q1015 TEMPO 36017G27KT,0,11.0,0,10000.0,0,0,0,
2026-04-02 10:00:00,METAR LFLB 021000Z AUTO 01008KT 9999 OVC039 09/01 Q1015 TEMPO 36017G27KT,0,8.0,0,10000.0,0,0,0,
2026-04-02 09:30:00,METAR LFLB 020930Z AUTO 02009KT 330V050 9999 BKN038 08/01 Q1015 TEMPO 36017G27KT,0,9.0,0,10000.0,0,0,0,
2026-04-02 09:00:00,METAR LFLB 020900Z AUTO 04012KT 9999 BKN036 09/01 Q1015 NOSIG,0,12.0,0,10000.0,0,0,0,
2026-04-02 08:30:00,METAR LFLB 020830Z AUTO 03014KT 9999 BKN033 BKN039 08/01 Q1015 NOSIG,0,14.0,0,10000.0,0,0,0,
2026-04-02 08:00:00,METAR LFLB 020800Z AUTO 03013KT 9999 BKN033 07/01 Q1015 NOSIG,0,13.0,0,10000.0,0,0,0,
2026-04-02 07:30:00,METAR LFLB 020730Z AUTO 03012KT 9999 BKN029 07/01 Q1015 NOSIG,0,12.0,0,10000.0,0,0,0,
2026-04-02 07:00:00,METAR LFLB 020700Z AUTO 04009KT 9999 SCT031 06/01 Q1015 NOSIG,0,9.0,0,10000.0,0,0,0,
2026-04-02 06:30:00,METAR LFLB 020630Z AUTO 03010KT 9999 FEW030 05/01 Q1015 NOSIG,0,10.0,0,10000.0,0,0,0,
2026-04-02 06:00:00,METAR LFLB 020600Z AUTO 03008KT 9999 FEW031 04/00 Q1015 NOSIG,0,8.0,0,10000.0,0,0,0,
2026-04-02 05:30:00,METAR LFLB 020530Z AUTO VRB02KT 9999 BKN035 02/M01 Q1015 NOSIG,0,2.0,0,10000.0,0,0,0,
2026-04-02 05:00:00,METAR LFLB 020500Z AUTO 03006KT 9999 SCT034 04/M00 Q1015 NOSIG,0,6.0,0,10000.0,0,0,0,
2026-04-02 04:30:00,METAR LFLB 020430Z AUTO 01009KT 9999 SCT033 04/00 Q1015 NOSIG,0,9.0,0,10000.0,0,0,0,
2026-04-02 04:00:00,METAR LFLB 020400Z AUTO 01007KT 9999 FEW036 04/M00 Q1014 NOSIG,0,7.0,0,10000.0,0,0,0,
2026-04-02 03:30:00,METAR LFLB 020330Z AUTO 02010KT 9999 FEW035 05/M00 Q1014 NOSIG,0,10.0,0,10000.0,0,0,0,
2026-04-02 03:00:00,METAR LFLB 020300Z AUTO 02011KT CAVOK 05/00 Q1015 NOSIG,1,0.0,0,9999.0,0,0,0,
2026-04-02 02:30:00,METAR LFLB 020230Z AUTO 02010KT CAVOK 05/00 Q1015,1,0.0,0,9999.0,0,0,0,
2026-04-02 02:00:00,METAR LFLB 020200Z AUTO 02012KT CAVOK 05/M00 Q1015,1,0.0,0,9999.0,0,0,0,
2026-04-02 01:30:00,METAR LFLB 020130Z AUTO 02009KT CAVOK 05/M00 Q1015,1,0.0,0,9999.0,0,0,0,
2026-04-02 01:00:00,METAR LFLB 020100Z AUTO 02010KT CAVOK 05/M00 Q1015,1,0.0,0,9999.0,0,0,0,
2026-04-02 00:30:00,METAR LFLB 020030Z AUTO 02011KT CAVOK 05/M00 Q1016,1,0.0,0,9999.0,0,0,0,
2026-04-02 00:00:00,METAR LFLB 020000Z AUTO 03012KT CAVOK 06/M01 Q1016,1,0.0,0,9999.0,0,0,0,
2026-04-01 23:30:00,METAR LFLB 012330Z AUTO 03012KT CAVOK 06/M01 Q1016,1,0.0,0,9999.0,0,0,0,
2026-04-01 23:00:00,METAR LFLB 012300Z AUTO 02013KT CAVOK 06/M00 Q1016,1,0.0,0,9999.0,0,0,0,
2026-04-01 22:30:00,METAR LFLB 012230Z AUTO 02014KT CAVOK 06/M01 Q1016,1,0.0,0,9999.0,0,0,0,
2026-04-01 22:00:00,METAR LFLB 012200Z AUTO 02014KT CAVOK 07/M00 Q1016,1,0.0,0,9999.0,0,0,0,
2026-04-01 21:30:00,METAR LFLB 012130Z AUTO 35010KT CAVOK 07/M01 Q1016,1,0.0,0,9999.0,0,0,0,
2026-04-01 21:00:00,METAR LFLB 012100Z AUTO 35008KT 300V020 CAVOK 07/M02 Q1016,1,0.0,0,9999.0,0,0,0,
2026-04-01 20:30:00,METAR LFLB 012030Z AUTO 01011KT CAVOK 07/M01 Q1016,1,0.0,0,9999.0,0,0,0,
2026-04-01 20:00:00,METAR LFLB 012000Z AUTO 01010KT CAVOK 07/M01 Q1016,1,0.0,0,9999.0,0,0,0,
2026-04-01 19:30:00,METAR LFLB 011930Z AUTO 01010KT CAVOK 08/M01 Q1016,1,0.0,0,9999.0,0,0,0,
2026-04-01 19:00:00,METAR LFLB 011900Z AUTO 01013KT CAVOK 09/M01 Q1016 NOSIG,1,0.0,0,9999.0,0,0,0,
2026-04-01 18:30:00,METAR LFLB 011830Z AUTO 01016KT CAVOK 09/M00 Q1016 NOSIG,1,0.0,0,9999.0,0,0,0,
2026-04-01 18:00:00,METAR LFLB 011800Z AUTO 36016KT CAVOK 09/M02 Q1016 NOSIG,1,0.0,0,9999.0,0,0,0,
2026-04-01 17:30:00,METAR LFLB 011730Z AUTO 36017KT CAVOK 10/M02 Q1016 NOSIG,1,0.0,0,9999.0,0,0,0,
2026-04-01 17:00:00,METAR LFLB 011700Z AUTO 35015KT CAVOK 10/M02 Q1016 NOSIG,1,0.0,0,9999.0,0,0,0,
2026-04-01 16:30:00,METAR LFLB 011630Z AUTO 36017G27KT CAVOK 11/M01 Q1016 BECMG 36015KT,1,0.0,0,9999.0,0,0,0,
2026-04-01 16:00:00,METAR LFLB 011600Z AUTO 36016KT CAVOK 11/M00 Q1016 TEMPO 35017G27KT,1,0.0,0,9999.0,0,0,0,
2026-04-01 15:30:00,METAR LFLB 011530Z AUTO 36018KT 9999 FEW066 11/M01 Q1016 TEMPO 35017G27KT,0,18.0,0,10000.0,0,0,0,
2026-04-01 15:00:00,METAR LFLB 011500Z AUTO 35017KT 9999 FEW066 11/M01 Q1016 TEMPO 35017G27KT,0,17.0,0,10000.0,0,0,0,
2026-04-01 14:00:00,METAR LFLB 011400Z AUTO 36015KT 9999 FEW064 13/00 Q1016 TEMPO 35017G27KT,0,15.0,0,10000.0,0,0,0,
2026-04-01 13:30:00,METAR LFLB 011330Z AUTO 36016KT 9999 SCT064 BKN074 12/M00 Q1017 TEMPO 35017G27KT,0,16.0,0,10000.0,0,0,0,
2026-04-01 13:00:00,METAR LFLB 011300Z AUTO 36016KT 9999 BKN066 12/M00 Q1017 TEMPO 35017G27KT,0,16.0,0,10000.0,0,0,0,
2026-04-01 12:30:00,METAR LFLB 011230Z AUTO 36018KT 9999 BKN066 11/M01 Q1017 TEMPO 35017G27KT,0,18.0,0,10000.0,0,0,0,
2026-04-01 12:00:00,METAR LFLB 011200Z AUTO 36015KT 9999 BKN058 BKN074 12/01 Q1018 TEMPO 35017G27KT,0,15.0,0,10000.0,0,0,0,
2026-04-01 11:30:00,METAR LFLB 011130Z AUTO 35016KT 9999 BKN054 BKN066 11/00 Q1018 TEMPO 35017G27KT,0,16.0,0,10000.0,0,0,0,
2026-04-01 11:00:00,METAR LFLB 011100Z AUTO 36017KT 9999 BKN054 10/M01 Q1018 TEMPO 35017G27KT,0,17.0,0,10000.0,0,0,0,
2026-04-01 10:30:00,METAR LFLB 011030Z AUTO 36017KT 9999 BKN052 12/00 Q1019 TEMPO 35017G27KT,0,17.0,0,10000.0,0,0,0,
2026-04-01 10:00:00,METAR LFLB 011000Z AUTO 36018KT 9999 BKN052 11/00 Q1019 TEMPO 35017G27KT,0,18.0,0,10000.0,0,0,0,
2026-04-01 09:30:00,METAR LFLB 010930Z AUTO 36016KT 9999 BKN049 BKN056 10/00 Q1019 TEMPO 35017G27KT,0,16.0,0,10000.0,0,0,0,
2026-04-01 09:00:00,METAR LFLB 010900Z AUTO 01016KT 330V030 9999 BKN045 BKN052 10/01 Q1019 TEMPO 35017G27KT,0,16.0,0,10000.0,0,0,0,
2026-04-01 08:30:00,METAR LFLB 010830Z AUTO 01011KT 330V030 9999 BKN041 BKN047 09/01 Q1020 TEMPO 35017G27KT,0,11.0,0,10000.0,0,0,0,
2026-04-01 08:00:00,METAR LFLB 010800Z AUTO 04009KT 010V080 9999 BKN039 OVC045 08/00 Q1021 NOSIG,0,9.0,0,10000.0,0,0,0,
2026-04-01 07:30:00,METAR LFLB 010730Z AUTO 05009KT 020V090 9999 BKN041 08/00 Q1021 NOSIG,0,9.0,0,10000.0,0,0,0,
2026-04-01 07:00:00,METAR LFLB 010700Z AUTO 03013KT 9999 BKN037 BKN044 BKN190 07/M00 Q1021 NOSIG,0,13.0,0,10000.0,0,0,0,
2026-04-01 06:30:00,METAR LFLB 010630Z AUTO 04008KT 9999 SCT041 OVC190 06/M00 Q1021 NOSIG,0,8.0,0,10000.0,0,0,0,
2026-04-01 06:00:00,METAR LFLB 010600Z AUTO 06006KT 030V090 9999 BKN043 OVC190 05/M01 Q1021 NOSIG,0,6.0,0,10000.0,0,0,0,
2026-04-01 05:30:00,METAR LFLB 010530Z AUTO 05007KT 020V080 9999 BKN038 BKN045 OVC190 05/M01 Q1021 NOSIG,0,7.0,0,10000.0,0,0,0,
2026-04-01 05:00:00,METAR LFLB 010500Z AUTO 05007KT 9999 BKN036 OVC190 05/M01 Q1021 NOSIG,0,7.0,0,10000.0,0,0,0,
2026-04-01 04:30:00,METAR LFLB 010430Z AUTO 05009KT 9999 BKN036 OVC042 05/M00 Q1021 NOSIG,0,9.0,0,10000.0,0,0,0,
2026-04-01 04:00:00,METAR LFLB 010400Z AUTO 05008KT 010V080 9999 BKN036 BKN048 OVC180 05/M01 Q1022 NOSIG,0,8.0,0,10000.0,0,0,0,
2026-04-01 03:30:00,METAR LFLB 010330Z AUTO 05008KT 9999 BKN035 OVC180 05/M01 Q1022 NOSIG,0,8.0,0,10000.0,0,0,0,
2026-04-01 03:00:00,METAR LFLB 010300Z AUTO 05008KT 9999 BKN036 BKN046 OVC180 05/M00 Q1022 NOSIG,0,8.0,0,10000.0,0,0,0,
2026-04-01 02:30:00,METAR LFLB 010230Z AUTO 05008KT 020V080 9999 BKN038 OVC180 05/M01 Q1022 NOSIG,0,8.0,0,10000.0,0,0,0,
2026-04-01 02:00:00,METAR LFLB 010200Z AUTO 05007KT 9999 BKN037 05/M01 Q1023,0,7.0,0,10000.0,0,0,0,
2026-04-01 01:30:00,METAR LFLB 010130Z AUTO 04009KT 360V070 9999 BKN040 BKN180 05/M01 Q1023,0,9.0,0,10000.0,0,0,0,
2026-04-01 01:00:00,METAR LFLB 010100Z AUTO 05009KT 020V080 9999 BKN041 BKN049 BKN180 06/M01 Q1023,0,9.0,0,10000.0,0,0,0,
2026-04-01 00:30:00,METAR LFLB 010030Z AUTO 05009KT 020V080 9999 BKN040 BKN050 06/M01 Q1023,0,9.0,0,10000.0,0,0,0,
2026-04-01 00:00:00,METAR LFLB 010000Z AUTO 04009KT 010V070 9999 BKN041 06/M01 Q1024,0,9.0,0,10000.0,0,0,0,
2026-03-31 23:30:00,METAR LFLB 312330Z AUTO 02016KT 350V050 9999 BKN041 OVC048 07/M01 Q1023,0,16.0,0,9999.0,0,0,0,
2026-03-31 23:00:00,METAR LFLB 312300Z AUTO 03011KT 360V060 9999 BKN042 BKN048 06/M00 Q1024,0,11.0,0,9999.0,0,0,0,
2026-03-31 22:30:00,METAR LFLB 312230Z AUTO 03012KT 9999 BKN043 BKN054 06/M01 Q1024,0,12.0,0,9999.0,0,0,0,
2026-03-31 22:00:00,METAR LFLB 312200Z AUTO 03013KT 9999 BKN045 06/M01 Q1024,0,13.0,0,9999.0,0,0,0,
2026-03-31 21:30:00,METAR LFLB 312130Z AUTO 01014KT 330V040 9999 SCT045 SCT054 07/M01 Q1024,0,14.0,0,9999.0,0,0,0,
2026-03-31 21:00:00,METAR LFLB 312100Z AUTO 03013KT 9999 FEW046 06/M01 Q1024,0,13.0,0,9999.0,0,0,0,
2026-03-31 20:30:00,METAR LFLB 312030Z AUTO 02015KT 350V050 9999 FEW047 07/M02 Q1024,0,15.0,0,9999.0,0,0,0,
2026-03-31 20:00:00,METAR LFLB 312000Z AUTO 01016KT 330V040 9999 FEW052 07/M02 Q1024,0,16.0,0,9999.0,0,0,0,
2026-03-31 19:30:00,METAR LFLB 311930Z AUTO 01019KT 9999 FEW052 07/M02 Q1024,0,19.0,0,9999.0,0,0,0,
2026-03-31 19:00:00,METAR LFLB 311900Z AUTO 01017G31KT 330V050 9999 FEW054 08/M02 Q1024 NOSIG,0,17.0,1,9999.0,0,0,0,
2026-03-31 18:30:00,METAR LFLB 311830Z AUTO 01017KT 340V040 9999 SCT058 08/M02 Q1023 TEMPO 36020G30KT,0,17.0,0,9999.0,0,0,0,
2026-03-31 18:00:00,METAR LFLB 311800Z AUTO 01019G30KT 340V040 9999 BKN060 BKN074 08/M01 Q1023 NOSIG,0,19.0,1,9999.0,0,0,0,
2026-03-31 17:30:00,METAR LFLB 311730Z AUTO 35020KT 9999 SCT062 09/M02 Q1023 TEMPO 36020G30KT,0,20.0,0,9999.0,0,0,0,
2026-03-31 17:00:00,METAR LFLB 311700Z AUTO 35018G30KT 9999 BKN064 BKN084 09/M03 Q1023 NOSIG,0,18.0,1,9999.0,0,0,0,
2026-03-31 16:30:00,METAR LFLB 311630Z AUTO 35020G31KT 9999 BKN060 BKN074 BKN088 09/M02 Q1023 NOSIG,0,20.0,1,9999.0,0,0,0,
2026-03-31 16:00:00,METAR LFLB 311600Z AUTO 35020KT 9999 BKN064 OVC078 10/M02 Q1023 TEMPO 36020G30KT,0,20.0,0,9999.0,0,0,0,
2026-03-31 15:30:00,METAR LFLB 311530Z AUTO 36021KT 330V030 9999 BKN066 BKN082 10/M03 Q1023 TEMPO 36020G30KT,0,21.0,0,9999.0,0,0,0,
2026-03-31 15:00:00,METAR LFLB 311500Z AUTO 02020KT 9999 BKN066 BKN084 BKN100 10/M03 Q1023 TEMPO 36020G30KT,0,20.0,0,9999.0,0,0,0,
2026-03-31 14:30:00,METAR LFLB 311430Z AUTO 01016KT 9999 BKN068 BKN090 11/M02 Q1023 TEMPO 36020G30KT,0,16.0,0,9999.0,0,0,0,
2026-03-31 14:00:00,METAR LFLB 311400Z AUTO 01016KT 9999 FEW040 SCT060 BKN070 10/M02 Q1024 TEMPO 36020G30KT,0,16.0,0,9999.0,0,0,0,
2026-03-31 13:30:00,METAR LFLB 311330Z AUTO 36018KT 9999 FEW029 BKN060 BKN078 09/M01 Q1024 TEMPO 36020G30KT,0,18.0,0,9999.0,0,0,0,
2026-03-31 13:00:00,METAR LFLB 311300Z AUTO 36017KT 9999 BKN058 BKN088 10/M01 Q1024 TEMPO 36020G30KT,0,17.0,0,9999.0,0,0,0,
2026-03-31 12:30:00,METAR LFLB 311230Z AUTO 36018KT 9999 BKN058 BKN072 BKN082 10/M00 Q1024 TEMPO 36020G30KT,0,18.0,0,9999.0,0,0,0,
2026-03-31 12:00:00,METAR LFLB 311200Z AUTO 35017KT 9999 BKN056 BKN070 09/M02 Q1025 TEMPO 36020G30KT,0,17.0,0,9999.0,0,0,0,
2026-03-31 11:30:00,METAR LFLB 311130Z AUTO 35017G28KT 9999 SCT054 BKN068 BKN082 10/M01 Q1025 NOSIG,0,17.0,1,9999.0,0,0,0,
2026-03-31 11:00:00,METAR LFLB 311100Z AUTO 35017KT 9999 BKN054 BKN068 BKN084 09/M01 Q1025 TEMPO 36020G30KT,0,17.0,0,9999.0,0,0,0,
2026-03-31 10:30:00,METAR LFLB 311030Z AUTO 35019KT 310V010 9999 FEW052 BKN068 BKN080 08/M02 Q1025 TEMPO 36020G30KT,0,19.0,0,9999.0,0,0,0,
2026-03-31 10:00:00,METAR LFLB 311000Z AUTO 35019KT 9999 FEW047 SCT054 BKN074 08/M01 Q1025 TEMPO 36020G30KT,0,19.0,0,9999.0,0,0,0,
2026-03-31 09:30:00,METAR LFLB 310930Z AUTO 35017G28KT 9999 BKN046 OVC060 08/M01 Q1025 NOSIG,0,17.0,1,9999.0,0,0,0,
2026-03-31 09:00:00,METAR LFLB 310900Z AUTO 36019KT 9999 BKN041 BKN047 OVC060 07/M00 Q1025 TEMPO 36020G30KT,0,19.0,0,9999.0,0,0,0,
2026-03-31 08:30:00,METAR LFLB 310830Z AUTO 01016G28KT 9999 OVC041 07/01 Q1025 NOSIG,0,16.0,1,9999.0,0,0,0,
2026-03-31 08:00:00,METAR LFLB 310800Z AUTO 03010KT 9999 FEW037 BKN043 OVC052 07/02 Q1025 TEMPO 36020G30KT,0,10.0,0,9999.0,0,0,0,
2026-03-31 07:30:00,METAR LFLB 310730Z AUTO 05007KT 030V090 9999 BKN045 06/01 Q1025 TEMPO 36020G30KT,0,7.0,0,9999.0,0,0,0,
2026-03-31 07:00:00,METAR LFLB 310700Z AUTO 06008KT 030V110 9999 FEW043 05/02 Q1024 NOSIG,0,8.0,0,9999.0,0,0,0,
2026-03-31 06:30:00,METAR LFLB 310630Z AUTO 04011KT 010V080 9999 FEW036 SCT045 BKN054 05/02 Q1024 NOSIG,0,11.0,0,9999.0,0,0,0,
2026-03-31 06:00:00,METAR LFLB 310600Z AUTO 02011KT 350V050 9999 FEW048 BKN086 05/02 Q1024 NOSIG,0,11.0,0,9999.0,0,0,0,
2026-03-31 05:30:00,METAR LFLB 310530Z AUTO 03012KT 9999 FEW029 SCT068 BKN092 05/02 Q1023 NOSIG,0,12.0,0,9999.0,0,0,0,
2026-03-31 05:00:00,METAR LFLB 310500Z AUTO 03011KT 9999 FEW049 SCT068 OVC092 05/01 Q1023 NOSIG,0,11.0,0,9999.0,0,0,0,
2026-03-31 04:30:00,METAR LFLB 310430Z AUTO 03013KT 9999 FEW050 BKN062 BKN072 05/01 Q1023 NOSIG,0,13.0,0,9999.0,0,0,0,
2026-03-31 04:00:00,METAR LFLB 310400Z AUTO 01018KT 9999 FEW062 SCT072 06/00 Q1023 NOSIG,0,18.0,0,9999.0,0,0,0,
2026-03-31 03:30:00,METAR LFLB 310330Z AUTO 36019KT 9999 BKN058 BKN082 06/00 Q1022 NOSIG,0,19.0,0,9999.0,0,0,0,
2026-03-31 03:00:00,METAR LFLB 310300Z AUTO 01015KT 9999 BKN064 06/00 Q1022 NOSIG,0,15.0,0,9999.0,0,0,0,
2026-03-31 02:30:00,METAR LFLB 310230Z AUTO 02010KT 9999 FEW037 SCT068 05/03 Q1022,0,10.0,0,9999.0,0,0,0,
2026-03-31 02:00:00,METAR LFLB 310200Z AUTO VRB03KT 9999 BKN037 BKN058 BKN072 05/03 Q1022,0,3.0,0,9999.0,0,0,0,
2026-03-31 01:30:00,METAR LFLB 310130Z AUTO 02004KT 340V040 9999 SCT035 BKN050 BKN064 05/03 Q1022,0,4.0,0,9999.0,0,0,0,
2026-03-31 01:00:00,METAR LFLB 310100Z AUTO 01007KT 330V030 9999 FEW027 BKN110 05/03 Q1022,0,7.0,0,9999.0,0,0,0,
2026-03-31 00:30:00,METAR LFLB 310030Z AUTO 03006KT 9999 FEW024 BKN029 BKN054 06/04 Q1022,0,6.0,0,9999.0,0,0,0,
2026-03-31 00:00:00,METAR LFLB 310000Z AUTO 03008KT 9999 -RA BKN024 BKN030 OVC037 06/04 Q1022,0,8.0,0,9999.0,0,0,0,-RA
2026-03-30 23:30:00,METAR LFLB 302330Z AUTO 04009KT 9999 -RA BKN025 BKN038 BKN046 06/04 Q1022,0,9.0,0,10000.0,0,0,0,-RA
2026-03-30 23:00:00,METAR LFLB 302300Z AUTO 02011KT 9999 -RA BKN026/// BKN031/// BKN043/// ///TCU 06/04 Q1022,0,11.0,0,10000.0,0,0,0,-RA
2026-03-30 22:30:00,METAR LFLB 302230Z AUTO 02009KT 9000 -RA FEW025/// SCT032/// BKN041/// ///TCU 06/04 Q1022,0,9.0,0,9000.0,0,0,0,-RA
2026-03-30 22:00:00,METAR LFLB 302200Z AUTO 01010KT 9999 -RA SCT024 BKN033 BKN062 06/04 Q1022,0,10.0,0,10000.0,0,0,0,-RA
2026-03-30 21:30:00,METAR LFLB 302130Z AUTO 32004KT 280V050 9999 BKN040/// BKN050/// BKN066/// ///TCU 06/05 Q1022,0,4.0,0,10000.0,0,0,0,
2026-03-30 21:00:00,METAR LFLB 302100Z AUTO 03005KT 9999 -RA FEW030 BKN037 BKN046 06/05 Q1022,0,5.0,0,10000.0,0,0,0,-RA
2026-03-30 20:30:00,METAR LFLB 302030Z AUTO 01011KT 9999 -RA FEW021/// BKN030/// BKN038/// ///TCU 06/05 Q1022,0,11.0,0,10000.0,0,0,0,-RA
2026-03-30 20:00:00,METAR LFLB 302000Z AUTO 04007KT 9999 FEW033/// BKN048/// BKN058/// ///TCU 07/05 Q1021,0,7.0,0,10000.0,0,0,0,
2026-03-30 19:30:00,METAR LFLB 301930Z AUTO 03005KT 9999 -RA FEW036 SCT044 BKN056 06/05 Q1021,0,5.0,0,10000.0,0,0,0,-RA
2026-03-30 19:00:00,METAR LFLB 301900Z AUTO VRB03KT 9999 FEW013 BKN037 BKN066 07/05 Q1020 TEMPO 4000 SHRA BKN030TCU,0,3.0,0,10000.0,0,0,0,"RA,SH"
2026-03-30 18:30:00,METAR LFLB 301830Z AUTO VRB02KT 9999 -RA FEW013/// BKN041/// OVC050/// ///TCU 07/06 Q1021 TEMPO 36012G25KT 4000 SHRA,0,2.0,0,10000.0,0,0,0,"-RA,RA,SH"
2026-03-30 18:00:00,METAR LFLB 301800Z AUTO VRB03KT 9999 FEW040 BKN047 OVC054 07/06 Q1020 TEMPO 4000 SHRA BKN030TCU,0,3.0,0,10000.0,0,0,0,"RA,SH"
2026-03-30 17:30:00,METAR LFLB 301730Z AUTO 02006KT 9999 -RA FEW030/// BKN038/// OVC044/// ///TCU 07/06 Q1020 TEMPO 4000 SHRA,0,6.0,0,10000.0,0,0,0,"-RA,RA,SH"
2026-03-30 17:00:00,METAR LFLB 301700Z AUTO 35004KT 6000 -RA FEW035 BKN042 OVC049 08/05 Q1020 TEMPO 4000 SHRA BKN030TCU,0,4.0,0,6000.0,0,0,0,"-RA,RA,SH"
2026-03-30 16:30:00,METAR LFLB 301630Z AUTO 03003KT 340V050 9999 BKN049 OVC060 08/05 Q1020 TEMPO 4000 SHRA BKN030TCU,0,3.0,0,10000.0,0,0,0,"RA,SH"
2026-03-30 16:00:00,METAR LFLB 301600Z AUTO VRB02KT 9999 FEW049 BKN060 OVC076 08/05 Q1020 TEMPO 36012G25KT 4000 SHRA BKN030TCU,0,2.0,0,10000.0,0,0,0,"RA,SH"
2026-03-30 15:30:00,METAR LFLB 301530Z AUTO 35003KT 9999 -RA BKN062 OVC078 08/05 Q1021 TEMPO 4000 SHRA BKN030TCU,0,3.0,0,10000.0,0,0,0,"-RA,RA,SH"
2026-03-30 15:00:00,METAR LFLB 301500Z AUTO 36004KT 320V060 9999 FEW062 SCT086 OVC100 09/04 Q1021 TEMPO 4000 SHRA BKN030TCU,0,4.0,0,10000.0,0,0,0,"RA,SH"
2026-03-30 14:30:00,METAR LFLB 301430Z AUTO 01006KT 310V050 9999 FEW022 SCT041 BKN052 09/04 Q1022 TEMPO 4000 SHRA BKN030TCU,0,6.0,0,10000.0,0,0,0,"RA,SH"
2026-03-30 14:00:00,METAR LFLB 301400Z AUTO 36005KT 340V040 9999 BKN042 BKN048 OVC100 08/04 Q1022 TEMPO FEW030TCU BKN040,0,5.0,0,10000.0,0,0,0,
2026-03-30 13:30:00,METAR LFLB 301330Z AUTO 02006KT 340V040 9999 OVC040 08/04 Q1022 TEMPO FEW030TCU BKN040,0,6.0,0,10000.0,0,0,0,
2026-03-30 13:00:00,METAR LFLB 301300Z AUTO 01007KT 9999 OVC043 08/04 Q1023 TEMPO FEW030TCU BKN040,0,7.0,0,10000.0,0,0,0,
2026-03-30 12:30:00,METAR LFLB 301230Z AUTO 01009KT 9999 OVC044 07/04 Q1023 TEMPO FEW030TCU BKN040,0,9.0,0,10000.0,0,0,0,
2026-03-30 12:00:00,METAR LFLB 301200Z AUTO 36007KT 9999 OVC050 07/04 Q1024 TEMPO FEW030TCU BKN040,0,7.0,0,10000.0,0,0,0,
2026-03-30 11:30:00,METAR LFLB 301130Z AUTO 01009KT 9999 FEW036 BKN050 OVC068 07/03 Q1024 TEMPO FEW030TCU BKN040,0,9.0,0,10000.0,0,0,0,
2026-03-30 11:00:00,METAR LFLB 301100Z AUTO 04010KT 9999 BKN037 BKN045 OVC052 07/03 Q1024 NOSIG,0,10.0,0,10000.0,0,0,0,
2026-03-30 10:30:00,METAR LFLB 301030Z AUTO VRB03KT 9999 OVC040 08/01 Q1025 NOSIG,0,3.0,0,10000.0,0,0,0,
2026-03-30 10:00:00,METAR LFLB 301000Z AUTO 20003KT 180V250 9999 SCT045 OVC052 08/01 Q1025 NOSIG,0,3.0,0,10000.0,0,0,0,
2026-03-30 09:30:00,METAR LFLB 300930Z AUTO 19004KT 9999 OVC052 07/01 Q1025 NOSIG,0,4.0,0,10000.0,0,0,0,
2026-03-30 09:00:00,METAR LFLB 300900Z AUTO 18004KT 9999 BKN046 OVC056 07/01 Q1026 NOSIG,0,4.0,0,10000.0,0,0,0,
2026-03-30 08:30:00,METAR LFLB 300830Z AUTO VRB02KT 9999 OVC049 06/02 Q1026 NOSIG,0,2.0,0,10000.0,0,0,0,
2026-03-30 08:00:00,METAR LFLB 300800Z AUTO 00000KT 9999 BKN058 OVC068 06/02 Q1027 NOSIG,0,0.0,0,10000.0,0,0,0,
2026-03-30 07:30:00,METAR LFLB 300730Z AUTO 00000KT 9999 BKN056 OVC070 06/01 Q1027 NOSIG,0,0.0,0,10000.0,0,0,0,
2026-03-30 07:00:00,METAR LFLB 300700Z AUTO 32001KT 9999 BKN054 OVC066 05/01 Q1027 NOSIG,0,1.0,0,10000.0,0,0,0,
2026-03-30 06:30:00,METAR LFLB 300630Z AUTO 00000KT 9999 FEW060 OVC070 05/01 Q1027 NOSIG,0,0.0,0,10000.0,0,0,0,
2026-03-30 06:00:00,METAR LFLB 300600Z AUTO VRB01KT 9999 OVC072 04/01 Q1027 NOSIG,0,1.0,0,10000.0,0,0,0,
2026-03-30 05:30:00,METAR LFLB 300530Z AUTO 14003KT 9999 BKN078 OVC094 04/01 Q1027 NOSIG,0,3.0,0,10000.0,0,0,0,
2026-03-30 05:00:00,METAR LFLB 300500Z AUTO 30003KT 9999 OVC090 04/01 Q1026 NOSIG,0,3.0,0,10000.0,0,0,0,
2026-03-30 04:30:00,METAR LFLB 300430Z AUTO VRB03KT 9999 OVC086 04/01 Q1027 NOSIG,0,3.0,0,10000.0,0,0,0,
2026-03-30 04:00:00,METAR LFLB 300400Z AUTO 18003KT 9999 BKN084 OVC100 04/01 Q1027 NOSIG,0,3.0,0,10000.0,0,0,0,
2026-03-30 03:30:00,METAR LFLB 300330Z AUTO VRB02KT CAVOK 05/00 Q1027 NOSIG,1,0.0,0,9999.0,0,0,0,
2026-03-30 03:00:00,METAR LFLB 300300Z AUTO VRB02KT CAVOK 05/00 Q1027 NOSIG,1,0.0,0,9999.0,0,0,0,
2026-03-30 02:30:00,METAR LFLB 300230Z AUTO VRB02KT CAVOK 05/00 Q1028 NOSIG,1,0.0,0,9999.0,0,0,0,
2026-03-30 02:00:00,METAR LFLB 300200Z AUTO 33004KT 260V010 CAVOK 06/00 Q1028,1,0.0,0,9999.0,0,0,0,
2026-03-30 01:30:00,METAR LFLB 300130Z AUTO 03006KT CAVOK 06/M00 Q1028,1,0.0,0,9999.0,0,0,0,
2026-03-30 01:00:00,METAR LFLB 300100Z AUTO 03010KT CAVOK 06/M00 Q1028,1,0.0,0,9999.0,0,0,0,
2026-03-30 00:30:00,METAR LFLB 300030Z AUTO 03009KT CAVOK 06/M00 Q1027,1,0.0,0,9999.0,0,0,0,
2026-03-30 00:00:00,METAR LFLB 300000Z AUTO 02011KT CAVOK 06/M00 Q1027,1,0.0,0,9999.0,0,0,0,
2026-03-29 23:30:00,METAR LFLB 292330Z AUTO 02014KT CAVOK 07/00 Q1028,1,0.0,0,9999.0,0,0,0,
2026-03-29 23:00:00,METAR LFLB 292300Z AUTO 03011KT CAVOK 07/M00 Q1028,1,0.0,0,9999.0,0,0,0,
2026-03-29 22:30:00,METAR LFLB 292230Z AUTO 03011KT CAVOK 07/M01 Q1028,1,0.0,0,9999.0,0,0,0,
2026-03-29 22:00:00,METAR LFLB 292200Z AUTO 36012KT CAVOK 07/M01 Q1028,1,0.0,0,9999.0,0,0,0,
2026-03-29 21:30:00,METAR LFLB 292130Z AUTO 01008KT 340V040 9999 FEW044 SCT220 07/M00 Q1027,0,8.0,0,10000.0,0,0,0,
2026-03-29 21:00:00,METAR LFLB 292100Z AUTO 36012KT CAVOK 08/M00 Q1028,1,0.0,0,9999.0,0,0,0,
2026-03-29 20:30:00,METAR LFLB 292030Z AUTO 35010KT 310V010 CAVOK 08/M01 Q1027,1,0.0,0,9999.0,0,0,0,
2026-03-29 20:00:00,METAR LFLB 292000Z AUTO 01011KT 9999 FEW080 07/M01 Q1027,0,11.0,0,10000.0,0,0,0,
2026-03-29 19:30:00,METAR LFLB 291930Z AUTO 01014KT 9999 BKN080 08/M01 Q1027,0,14.0,0,10000.0,0,0,0,
2026-03-29 19:00:00,METAR LFLB 291900Z AUTO 02015KT 9999 FEW056 OVC078 09/M01 Q1027 NOSIG,0,15.0,0,10000.0,0,0,0,
2026-03-29 18:30:00,METAR LFLB 291830Z AUTO 02015KT 9999 BKN056 OVC080 09/M01 Q1027 NOSIG,0,15.0,0,10000.0,0,0,0,
2026-03-29 18:00:00,METAR LFLB 291800Z AUTO 01016KT 9999 BKN058 BKN070 OVC082 09/M01 Q1026 NOSIG,0,16.0,0,10000.0,0,0,0,
2026-03-29 17:30:00,METAR LFLB 291730Z AUTO 02014KT 9999 FEW062 OVC078 09/M01 Q1026 NOSIG,0,14.0,0,10000.0,0,0,0,
2026-03-29 17:00:00,METAR LFLB 291700Z AUTO 02016KT 9999 OVC060 10/M02 Q1026 TEMPO 01017G27KT,0,16.0,0,10000.0,0,0,0,
2026-03-29 16:30:00,METAR LFLB 291630Z AUTO 01017KT 9999 OVC062 10/M02 Q1025 TEMPO 01017G27KT,0,17.0,0,10000.0,0,0,0,
2026-03-29 16:00:00,METAR LFLB 291600Z AUTO 01016KT 9999 BKN060 OVC070 10/M01 Q1025 TEMPO 01017G27KT,0,16.0,0,10000.0,0,0,0,
2026-03-29 15:30:00,METAR LFLB 291530Z AUTO 01015KT 9999 BKN058 OVC072 10/M01 Q1025 TEMPO 01017G27KT,0,15.0,0,10000.0,0,0,0,
2026-03-29 15:00:00,METAR LFLB 291500Z AUTO 01017KT 9999 OVC056 10/M00 Q1024 TEMPO 01017G27KT,0,17.0,0,10000.0,0,0,0,
2026-03-29 14:30:00,METAR LFLB 291430Z AUTO 36016KT 9999 OVC054 10/M00 Q1024 TEMPO 01020G33KT,0,16.0,0,10000.0,0,0,0,
2026-03-29 14:00:00,METAR LFLB 291400Z AUTO 01017KT 9999 BKN054 BKN064 10/01 Q1024 TEMPO 01020G33KT,0,17.0,0,10000.0,0,0,0,
2026-03-29 13:30:00,METAR LFLB 291330Z AUTO 36016KT 9999 BKN058 BKN068 10/01 Q1024 TEMPO 01020G33KT,0,16.0,0,10000.0,0,0,0,
2026-03-29 13:00:00,METAR LFLB 291300Z AUTO 36015KT 9999 BKN050 BKN062 10/01 Q1024 TEMPO 01020G33KT,0,15.0,0,10000.0,0,0,0,
2026-03-29 12:30:00,METAR LFLB 291230Z AUTO 35014KT 9999 BKN048 OVC056 10/00 Q1024 TEMPO 01020G33KT,0,14.0,0,10000.0,0,0,0,
2026-03-29 12:00:00,METAR LFLB 291200Z AUTO 35014KT 310V010 9999 BKN046 OVC054 09/00 Q1024 TEMPO 01020G33KT,0,14.0,0,10000.0,0,0,0,
2026-03-29 11:30:00,METAR LFLB 291130Z AUTO 35017KT 320V020 9999 BKN046 OVC056 09/00 Q1024 TEMPO 01020G33KT,0,17.0,0,10000.0,0,0,0,
2026-03-29 11:00:00,METAR LFLB 291100Z AUTO 01017KT 9999 BKN044 OVC052 09/01 Q1024 TEMPO 01020G33KT,0,17.0,0,10000.0,0,0,0,
2026-03-29 10:30:00,METAR LFLB 291030Z AUTO 35018KT 9999 BKN043 OVC052 09/01 Q1024 TEMPO 01020G33KT,0,18.0,0,10000.0,0,0,0,
2026-03-29 10:00:00,METAR LFLB 291000Z AUTO 02015KT 350V050 9999 BKN042 OVC049 09/01 Q1024 TEMPO 01020G33KT,0,15.0,0,10000.0,0,0,0,
2026-03-29 09:30:00,METAR LFLB 290930Z AUTO 02016KT 9999 BKN042 BKN048 OVC058 09/01 Q1023 TEMPO 01020G33KT,0,16.0,0,10000.0,0,0,0,
2026-03-29 09:00:00,METAR LFLB 290900Z AUTO 03019KT 9999 BKN041 BKN047 OVC056 08/00 Q1023 TEMPO 01020G33KT,0,19.0,0,10000.0,0,0,0,
2026-03-29 08:30:00,METAR LFLB 290830Z AUTO 01015KT 9999 BKN039 OVC048 08/00 Q1023 TEMPO 01020G33KT,0,15.0,0,10000.0,0,0,0,
2026-03-29 08:00:00,METAR LFLB 290800Z AUTO 01017KT 9999 BKN038 OVC130 08/01 Q1023 TEMPO 01020G35KT,0,17.0,0,10000.0,0,0,0,
2026-03-29 07:30:00,METAR LFLB 290730Z AUTO 02017KT 9999 OVC037 08/01 Q1022 TEMPO 01020G35KT,0,17.0,0,10000.0,0,0,0,
2026-03-29 07:00:00,METAR LFLB 290700Z AUTO 02020KT 9999 BKN035 07/00 Q1022 TEMPO 01020G35KT,0,20.0,0,10000.0,0,0,0,
2026-03-29 06:30:00,METAR LFLB 290630Z AUTO 02020KT 9999 BKN033 OVC040 07/01 Q1022 TEMPO 01020G35KT,0,20.0,0,10000.0,0,0,0,
2026-03-29 06:00:00,METAR LFLB 290600Z AUTO 02020KT 9999 BKN034 OVC040 06/00 Q1022 TEMPO 01020G35KT,0,20.0,0,10000.0,0,0,0,
2026-03-29 05:30:00,METAR LFLB 290530Z AUTO 02019KT 9999 BKN036 OVC045 06/01 Q1021 TEMPO 01020G35KT,0,19.0,0,10000.0,0,0,0,
2026-03-29 05:00:00,METAR LFLB 290500Z AUTO 01022KT 340V040 9999 BKN035 OVC041 06/00 Q1021 TEMPO 01015G25KT BKN014,0,22.0,0,10000.0,0,0,0,
2026-03-29 04:30:00,METAR LFLB 290430Z AUTO 36023G39KT 9999 BKN035 OVC042 07/00 Q1021 TEMPO 01015G25KT BKN014,0,23.0,1,10000.0,0,0,0,
2026-03-29 04:00:00,METAR LFLB 290400Z AUTO 01023G33KT 330V030 9999 BKN035 OVC041 06/00 Q1021 TEMPO BKN014,0,23.0,1,10000.0,0,0,0,
2026-03-29 03:30:00,METAR LFLB 290330Z AUTO 01022KT 9999 OVC037 06/00 Q1020 TEMPO 01015G25KT BKN014,0,22.0,0,10000.0,0,0,0,
2026-03-29 03:00:00,METAR LFLB 290300Z AUTO 01020G31KT 9999 OVC039 06/M00 Q1021 TEMPO BKN014,0,20.0,1,10000.0,0,0,0,
2026-03-29 02:30:00,METAR LFLB 290230Z AUTO 36020KT 330V030 9999 BKN039 OVC045 07/M00 Q1021 TEMPO 01015G25KT BKN014,0,20.0,0,10000.0,0,0,0,
2026-03-29 02:00:00,METAR LFLB 290200Z AUTO 01020KT 9999 OVC037 07/M00 Q1021,0,20.0,0,10000.0,0,0,0,
2026-03-29 01:30:00,METAR LFLB 290130Z AUTO 36019KT 330V030 9999 OVC035 07/01 Q1021,0,19.0,0,10000.0,0,0,0,
2026-03-29 01:00:00,METAR LFLB 290100Z AUTO 36018KT 9999 OVC034 07/01 Q1021,0,18.0,0,10000.0,0,0,0,
2026-03-29 00:30:00,METAR LFLB 290030Z AUTO 03011KT 350V060 9999 BKN034 BKN047 OVC054 06/02 Q1021,0,11.0,0,10000.0,0,0,0,
2026-03-29 00:00:00,METAR LFLB 290000Z AUTO 03010KT 9999 BKN035 BKN047 OVC060 06/02 Q1021,0,10.0,0,10000.0,0,0,0,
2026-03-28 23:30:00,METAR LFLB 282330Z AUTO 04010KT 9999 BKN037 OVC048 06/02 Q1021,0,10.0,0,10000.0,0,0,0,
2026-03-28 23:00:00,METAR LFLB 282300Z AUTO 03010KT 9999 BKN037 BKN052 BKN064 06/02 Q1021,0,10.0,0,10000.0,0,0,0,
2026-03-28 22:30:00,METAR LFLB 282230Z AUTO 04012KT 350V050 9999 BKN036 BKN050 BKN066 06/02 Q1021,0,12.0,0,10000.0,0,0,0,
2026-03-28 22:00:00,METAR LFLB 282200Z AUTO 04012KT 9999 FEW030 BKN036 BKN100 06/02 Q1021,0,12.0,0,10000.0,0,0,0,
2026-03-28 21:30:00,METAR LFLB 282130Z AUTO 03012KT 9999 SCT035 BKN100 06/03 Q1021,0,12.0,0,10000.0,0,0,0,
2026-03-28 21:00:00,METAR LFLB 282100Z AUTO 03011KT 9999 FEW032 OVC098 06/03 Q1021,0,11.0,0,10000.0,0,0,0,
2026-03-28 20:30:00,METAR LFLB 282030Z AUTO 03010KT 9999 BKN045 OVC096 06/04 Q1022,0,10.0,0,10000.0,0,0,0,
2026-03-28 20:00:00,METAR LFLB 282000Z AUTO 03009KT 9999 FEW022 BKN047 OVC076 06/04 Q1022 NOSIG,0,9.0,0,10000.0,0,0,0,
2026-03-28 19:30:00,METAR LFLB 281930Z AUTO 03008KT 010V080 9999 FEW020 SCT052 OVC074 06/04 Q1022 NOSIG,0,8.0,0,10000.0,0,0,0,
2026-03-28 19:00:00,METAR LFLB 281900Z AUTO 02006KT 9999 FEW039 OVC058 06/04 Q1022 NOSIG,0,6.0,0,10000.0,0,0,0,
2026-03-28 18:30:00,METAR LFLB 281830Z AUTO 36007KT 9000 -RA FEW031 OVC060 06/04 Q1021 NOSIG,0,7.0,0,9000.0,0,0,0,-RA
2026-03-28 18:00:00,METAR LFLB 281800Z AUTO 02006KT 9999 -RA FEW019 SCT029 OVC058 06/04 Q1021 NOSIG,0,6.0,0,10000.0,0,0,0,-RA
2026-03-28 17:30:00,METAR LFLB 281730Z AUTO 05008KT 9999 -RA BKN029 BKN036 BKN042 06/04 Q1020 NOSIG,0,8.0,0,10000.0,0,0,0,-RA
2026-03-28 17:00:00,METAR LFLB 281700Z AUTO 05008KT 9999 -RA SCT032 BKN041 OVC050 06/04 Q1020 TEMPO 4000 -RA BKN014,0,8.0,0,10000.0,0,0,0,-RA
2026-03-28 16:30:00,METAR LFLB 281630Z AUTO 04010KT 9999 -RA SCT029 BKN034 OVC043 07/04 Q1020 TEMPO 4000 -RA BKN014,0,10.0,0,10000.0,0,0,0,-RA
2026-03-28 16:00:00,METAR LFLB 281600Z AUTO 05010KT 9999 -RA FEW029 BKN042 BKN048 08/03 Q1020 TEMPO 4000 -RA BKN014,0,10.0,0,10000.0,0,0,0,-RA
2026-03-28 15:30:00,METAR LFLB 281530Z AUTO 04009KT 9999 -RA BKN043 OVC052 08/02 Q1019 TEMPO 4000 -RA BKN014,0,9.0,0,10000.0,0,0,0,-RA
2026-03-28 15:00:00,METAR LFLB 281500Z AUTO 03010KT 9999 -RA FEW034 BKN046 OVC054 09/02 Q1019 TEMPO 4000 -RA BKN014,0,10.0,0,10000.0,0,0,0,-RA
2026-03-28 14:30:00,METAR LFLB 281430Z AUTO 01011KT 340V040 9999 BKN047 OVC054 10/01 Q1019 TEMPO 4000 -RA BKN014,0,11.0,0,10000.0,0,0,0,-RA
2026-03-28 14:00:00,METAR LFLB 281400Z AUTO 01011KT 9999 FEW033 SCT043 OVC052 10/00 Q1019 TEMPO 4000 -RA,0,11.0,0,10000.0,0,0,0,-RA
2026-03-28 13:30:00,METAR LFLB 281330Z AUTO 01010KT 9999 OVC054 10/M01 Q1019 TEMPO 4000 -RA,0,10.0,0,10000.0,0,0,0,-RA
2026-03-28 13:00:00,METAR LFLB 281300Z AUTO 35007KT 9999 BKN056 BKN068 OVC078 11/M03 Q1019 NOSIG,0,7.0,0,10000.0,0,0,0,
2026-03-28 12:30:00,METAR LFLB 281230Z AUTO 36007KT 9999 FEW058 BKN080 11/M03 Q1020 NOSIG,0,7.0,0,10000.0,0,0,0,
2026-03-28 12:00:00,METAR LFLB 281200Z AUTO 35006KT 9999 BKN058 BKN084 10/M03 Q1020 NOSIG,0,6.0,0,10000.0,0,0,0,
2026-03-28 11:30:00,METAR LFLB 281130Z AUTO 34006KT 290V030 9999 FEW084 10/M02 Q1020 NOSIG,0,6.0,0,10000.0,0,0,0,
2026-03-28 11:00:00,METAR LFLB 281100Z AUTO 35005KT 320V060 CAVOK 09/M02 Q1021 NOSIG,1,0.0,0,9999.0,0,0,0,
2026-03-28 10:30:00,METAR LFLB 281030Z AUTO 03007KT 350V060 CAVOK 09/M01 Q1021 NOSIG,1,0.0,0,9999.0,0,0,0,
2026-03-28 10:00:00,METAR LFLB 281000Z AUTO VRB03KT CAVOK 08/M01 Q1022 NOSIG,1,0.0,0,9999.0,0,0,0,
2026-03-28 09:30:00,METAR LFLB 280930Z AUTO 01006KT 320V070 CAVOK 07/M02 Q1022 NOSIG,1,0.0,0,9999.0,0,0,0,
2026-03-28 09:00:00,METAR LFLB 280900Z AUTO 03009KT CAVOK 06/M02 Q1022 NOSIG,1,0.0,0,9999.0,0,0,0,
2026-03-28 08:30:00,METAR LFLB 280830Z AUTO 03005KT 330V080 CAVOK 05/M02 Q1022 NOSIG,1,0.0,0,9999.0,0,0,0,
2026-03-28 08:00:00,METAR LFLB 280800Z AUTO VRB01KT CAVOK 04/M03 Q1022 NOSIG,1,0.0,0,9999.0,0,0,0,
2026-03-28 07:30:00,METAR LFLB 280730Z AUTO VRB03KT CAVOK 03/M03 Q1022 NOSIG,1,0.0,0,9999.0,0,0,0,
2026-03-28 07:00:00,METAR LFLB 280700Z AUTO VRB02KT CAVOK 01/M01 Q1022 NOSIG,1,0.0,0,9999.0,0,0,0,
2026-03-28 06:30:00,METAR LFLB 280630Z AUTO VRB02KT CAVOK M02/M03 Q1022 NOSIG,1,0.0,0,9999.0,0,0,0,
2026-03-28 06:00:00,METAR LFLB 280600Z AUTO 19005KT CAVOK M02/M03 Q1022 BECMG 36010KT,1,0.0,0,9999.0,0,0,0,
2026-03-28 05:30:00,METAR LFLB 280530Z AUTO VRB02KT CAVOK M02/M03 Q1021 NOSIG,1,0.0,0,9999.0,0,0,0,
2026-03-28 05:00:00,METAR LFLB 280500Z AUTO 17003KT CAVOK M02/M04 Q1021 NOSIG,1,0.0,0,9999.0,0,0,0,
2026-03-28 04:30:00,METAR LFLB 280430Z AUTO 00000KT CAVOK M01/M03 Q1021 NOSIG,1,0.0,0,9999.0,0,0,0,
2026-03-28 04:00:00,METAR LFLB 280400Z AUTO VRB01KT CAVOK M02/M04 Q1021 NOSIG,1,0.0,0,9999.0,0,0,0,
2026-03-28 03:30:00,METAR LFLB 280330Z AUTO 07003KT 020V170 CAVOK M00/M05 Q1021 NOSIG,1,0.0,0,9999.0,0,0,0,
2026-03-28 03:00:00,METAR LFLB 280300Z AUTO 04007KT CAVOK 02/M03 Q1021 NOSIG,1,0.0,0,9999.0,0,0,0,
2026-03-28 02:30:00,METAR LFLB 280230Z AUTO 03009KT CAVOK 03/M03 Q1020 NOSIG,1,0.0,0,9999.0,0,0,0,
2026-03-28 02:00:00,METAR LFLB 280200Z AUTO 04008KT CAVOK 03/M03 Q1021,1,0.0,0,9999.0,0,0,0,
2026-03-28 01:30:00,METAR LFLB 280130Z AUTO 04009KT CAVOK 03/M03 Q1021,1,0.0,0,9999.0,0,0,0,
2026-03-28 01:00:00,METAR LFLB 280100Z AUTO 03011KT CAVOK 03/M03 Q1021,1,0.0,0,9999.0,0,0,0,
2026-03-28 00:30:00,METAR LFLB 280030Z AUTO 03011KT CAVOK 04/M03 Q1021,1,0.0,0,9999.0,0,0,0,
2026-03-28 00:00:00,METAR LFLB 280000Z AUTO 03010KT CAVOK 04/M03 Q1021,1,0.0,0,9999.0,0,0,0,
2026-03-27 23:30:00,METAR LFLB 272330Z AUTO 04010KT CAVOK 04/M04 Q1021,1,0.0,0,9999.0,0,0,0,
2026-03-27 23:00:00,METAR LFLB 272300Z AUTO 03012KT CAVOK 04/M03 Q1021,1,0.0,0,9999.0,0,0,0,
2026-03-27 22:30:00,METAR LFLB 272230Z AUTO 03011KT CAVOK 04/M03 Q1021,1,0.0,0,9999.0,0,0,0,
2026-03-27 22:00:00,METAR LFLB 272200Z AUTO 03011KT CAVOK 04/M03 Q1020,1,0.0,0,9999.0,0,0,0,
2026-03-27 21:30:00,METAR LFLB 272130Z AUTO 02012KT CAVOK 05/M03 Q1020,1,0.0,0,9999.0,0,0,0,
2026-03-27 21:00:00,METAR LFLB 272100Z AUTO 02013KT CAVOK 05/M04 Q1021,1,0.0,0,9999.0,0,0,0,
2026-03-27 20:30:00,METAR LFLB 272030Z AUTO 03013KT CAVOK 05/M04 Q1021,1,0.0,0,9999.0,0,0,0,
2026-03-27 20:00:00,METAR LFLB 272000Z AUTO 04011KT CAVOK 05/M04 Q1021 NOSIG,1,0.0,0,9999.0,0,0,0,
2026-03-27 19:30:00,METAR LFLB 271930Z AUTO 03013KT 9999 SCT068 06/M04 Q1021 NOSIG,0,13.0,0,10000.0,0,0,0,
2026-03-27 19:00:00,METAR LFLB 271900Z AUTO 02014KT 9999 BKN068 06/M04 Q1020 NOSIG,0,14.0,0,10000.0,0,0,0,
2026-03-27 18:30:00,METAR LFLB 271830Z AUTO 01017KT 9999 BKN068 07/M04 Q1020 NOSIG,0,17.0,0,10000.0,0,0,0,
2026-03-27 18:00:00,METAR LFLB 271800Z AUTO 01016KT 9999 BKN066 07/M04 Q1020 NOSIG,0,16.0,0,10000.0,0,0,0,
2026-03-27 17:30:00,METAR LFLB 271730Z AUTO 36018KT 9999 OVC066 07/M04 Q1019 NOSIG,0,18.0,0,10000.0,0,0,0,
2026-03-27 17:00:00,METAR LFLB 271700Z AUTO 36018KT 9999 OVC066 07/M04 Q1019 NOSIG,0,18.0,0,10000.0,0,0,0,
2026-03-27 16:30:00,METAR LFLB 271630Z AUTO 36017KT 9999 OVC064 08/M04 Q1019 NOSIG,0,17.0,0,10000.0,0,0,0,
2026-03-27 16:00:00,METAR LFLB 271600Z AUTO 01016KT 9999 BKN064 08/M03 Q1019 NOSIG,0,16.0,0,10000.0,0,0,0,
2026-03-25 15:00:00,METAR LFLB 251500Z AUTO 04012G31KT 340V150 9999 BKN039/// OVC052/// ///TCU 10/02 Q1013 TEMPO 4000 SHRA,0,12.0,1,10000.0,0,0,0,"RA,SH"
2026-03-25 14:30:00,METAR LFLB 251430Z AUTO 01018G30KT 310V050 9999 -RA FEW021/// SCT036/// BKN043/// //////TCU 10/04 Q1013 TEMPO 4000 SHRA,0,18.0,1,10000.0,0,0,0,"-RA,RA,SH"
2026-03-25 14:00:00,METAR LFLB 251400Z AUTO VRB11G23KT 5000 RA HZ FEW032 SCT047 OVC058 11/04 Q1012 TEMPO BKN030TCU,0,11.0,1,5000.0,0,0,0,RA
2026-03-25 13:30:00,METAR LFLB 251330Z AUTO VRB09G21KT 9999 -RA FEW041/// BKN054/// BKN064/// //////TCU 14/05 Q1010 TEMPO 4000 SHRA,0,9.0,1,10000.0,0,0,0,"-RA,RA,SH"
2026-03-25 13:00:00,METAR LFLB 251300Z AUTO VRB10G28KT 9999 FEW019 BKN066 OVC082 16/03 Q1010 TEMPO 4000 SHRA BKN030TCU,0,10.0,1,10000.0,0,0,0,"RA,SH"
2026-03-25 12:30:00,METAR LFLB 251230Z AUTO 20009G19KT 160V250 9999 BKN066 BKN086 16/04 Q1010 TEMPO 34018G30KT 4000 SHRA BKN030TCU,0,9.0,1,10000.0,0,0,0,"RA,SH"
2026-03-25 12:00:00,METAR LFLB 251200Z AUTO 23009G20KT 150V280 9999 FEW066 SCT084 17/04 Q1011 TEMPO 34020G35KT 4000 RA,0,9.0,1,10000.0,0,0,0,RA
2026-03-25 11:30:00,METAR LFLB 251130Z AUTO 24009KT 200V290 CAVOK 18/04 Q1011 TEMPO 34020G35KT 4000 RA,1,0.0,0,9999.0,0,0,0,
2026-03-25 11:00:00,METAR LFLB 251100Z AUTO 22010KT 190V270 CAVOK 17/06 Q1011 NOSIG,1,0.0,0,9999.0,0,0,0,
2026-03-25 10:30:00,METAR LFLB 251030Z AUTO 17006KT 130V210 CAVOK 16/05 Q1012 NOSIG,1,0.0,0,9999.0,0,0,0,
2026-03-25 10:00:00,METAR LFLB 251000Z AUTO 16006KT CAVOK 14/05 Q1013 NOSIG,1,0.0,0,9999.0,0,0,0,
2026-03-25 09:30:00,METAR LFLB 250930Z AUTO 22004KT 190V270 CAVOK 12/04 Q1014 NOSIG,1,0.0,0,9999.0,0,0,0,
2026-03-25 09:00:00,METAR LFLB 250900Z AUTO VRB03KT CAVOK 12/04 Q1014 NOSIG,1,0.0,0,9999.0,0,0,0,
2026-03-25 08:30:00,METAR LFLB 250830Z AUTO 12003KT 080V160 9999 FEW068 12/04 Q1015 NOSIG,0,3.0,0,10000.0,0,0,0,
2026-03-25 08:00:00,METAR LFLB 250800Z AUTO 16006KT 050V220 CAVOK 11/05 Q1015 NOSIG,1,0.0,0,9999.0,0,0,0,
2026-03-25 07:30:00,METAR LFLB 250730Z AUTO 22005KT 190V280 9999 FEW070 10/04 Q1015 NOSIG,0,5.0,0,10000.0,0,0,0,
2026-03-25 07:00:00,METAR LFLB 250700Z AUTO 20006KT 150V250 9999 BKN070 08/03 Q1016 NOSIG,0,6.0,0,10000.0,0,0,0,
2026-03-25 06:30:00,METAR LFLB 250630Z AUTO 23006KT 180V270 CAVOK 07/03 Q1016 NOSIG,1,0.0,0,9999.0,0,0,0,
2026-03-25 06:00:00,METAR LFLB 250600Z AUTO 22006KT 190V260 CAVOK 07/02 Q1016 TEMPO 4000 BR,1,0.0,0,9999.0,0,0,0,
2026-03-25 05:30:00,METAR LFLB 250530Z AUTO 22006KT 180V270 CAVOK 07/02 Q1016 TEMPO 4000 BR,1,0.0,0,9999.0,0,0,0,
2026-03-25 05:00:00,METAR LFLB 250500Z AUTO 23004KT 200V280 CAVOK 05/03 Q1016 TEMPO 4000 BR,1,0.0,0,9999.0,0,0,0,
2026-03-25 04:30:00,METAR LFLB 250430Z AUTO 17006KT 150V210 9999 FEW070 05/02 Q1017 TEMPO 4000 BR,0,6.0,0,10000.0,0,0,1,BR
2026-03-25 04:00:00,METAR LFLB 250400Z AUTO 21004KT CAVOK 06/03 Q1016 TEMPO 4000 BR,1,0.0,0,9999.0,0,0,0,
2026-03-25 03:30:00,METAR LFLB 250330Z AUTO 20005KT 150V270 CAVOK 07/02 Q1017 TEMPO 4000 BR,1,0.0,0,9999.0,0,0,0,
2026-03-25 03:00:00,METAR LFLB 250300Z AUTO 19007KT CAVOK 06/03 Q1017 TEMPO 4000 BR,1,0.0,0,9999.0,0,0,0,
2026-03-25 02:30:00,METAR LFLB 250230Z AUTO 22005KT 150V260 CAVOK 08/03 Q1017 TEMPO 4000 BR,1,0.0,0,9999.0,0,0,0,
2026-03-25 02:00:00,METAR LFLB 250200Z AUTO 22004KT 180V270 CAVOK 06/03 Q1018,1,0.0,0,9999.0,0,0,0,
2026-03-25 01:30:00,METAR LFLB 250130Z AUTO VRB02KT CAVOK 06/03 Q1019,1,0.0,0,9999.0,0,0,0,
2026-03-25 01:00:00,METAR LFLB 250100Z AUTO 18005KT 140V230 CAVOK 07/04 Q1019,1,0.0,0,9999.0,0,0,0,
2026-03-25 00:30:00,METAR LFLB 250030Z AUTO 22006KT 190V250 CAVOK 10/04 Q1019,1,0.0,0,9999.0,0,0,0,
2026-03-25 00:00:00,METAR LFLB 250000Z AUTO 22005KT 190V260 CAVOK 10/04 Q1019,1,0.0,0,9999.0,0,0,0,
2026-03-24 23:30:00,METAR LFLB 242330Z AUTO 22007KT 190V260 CAVOK 10/04 Q1019,1,0.0,0,9999.0,0,0,0,
2026-03-24 23:00:00,METAR LFLB 242300Z AUTO 23005KT 190V280 CAVOK 09/04 Q1019,1,0.0,0,9999.0,0,0,0,
2026-03-24 22:30:00,METAR LFLB 242230Z AUTO 22006KT 190V260 CAVOK 10/04 Q1019,1,0.0,0,9999.0,0,0,0,
2026-03-24 22:00:00,METAR LFLB 242200Z AUTO 21003KT 170V240 CAVOK 06/03 Q1019,1,0.0,0,9999.0,0,0,0,
2026-03-24 21:30:00,METAR LFLB 242130Z AUTO 22002KT CAVOK 06/04 Q1020,1,0.0,0,9999.0,0,0,0,
2026-03-24 21:00:00,METAR LFLB 242100Z AUTO VRB01KT CAVOK 07/05 Q1020,1,0.0,0,9999.0,0,0,0,
2026-03-24 20:30:00,METAR LFLB 242030Z AUTO 00000KT CAVOK 07/05 Q1020,1,0.0,0,9999.0,0,0,0,
2026-03-24 20:00:00,METAR LFLB 242000Z AUTO 20002KT CAVOK 08/05 Q1020 NOSIG,1,0.0,0,9999.0,0,0,0,
2026-03-24 19:30:00,METAR LFLB 241930Z AUTO VRB02KT CAVOK 09/05 Q1020 NOSIG,1,0.0,0,9999.0,0,0,0,
2026-03-24 19:00:00,METAR LFLB 241900Z AUTO 00000KT CAVOK 09/06 Q1020 NOSIG,1,0.0,0,9999.0,0,0,0,
2026-03-24 18:30:00,METAR LFLB 241830Z AUTO 00000KT CAVOK 10/06 Q1020 NOSIG,1,0.0,0,9999.0,0,0,0,
2026-03-24 18:00:00,METAR LFLB 241800Z AUTO 00000KT CAVOK 12/06 Q1019 NOSIG,1,0.0,0,9999.0,0,0,0,
2026-03-24 17:30:00,METAR LFLB 241730Z AUTO 30002KT CAVOK 14/08 Q1020 NOSIG,1,0.0,0,9999.0,0,0,0,
2026-03-24 17:00:00,METAR LFLB 241700Z AUTO 00000KT CAVOK 15/07 Q1020 NOSIG,1,0.0,0,9999.0,0,0,0,
2026-03-24 16:30:00,METAR LFLB 241630Z AUTO 02003KT CAVOK 16/04 Q1020 NOSIG,1,0.0,0,9999.0,0,0,0,
2026-03-24 16:00:00,METAR LFLB 241600Z AUTO 02003KT CAVOK 16/04 Q1020 NOSIG,1,0.0,0,9999.0,0,0,0,
2026-03-24 15:30:00,METAR LFLB 241530Z AUTO 36003KT 330V030 CAVOK 17/04 Q1020 NOSIG,1,0.0,0,9999.0,0,0,0,
2026-03-24 15:00:00,METAR LFLB 241500Z AUTO VRB03KT CAVOK 17/03 Q1021 NOSIG,1,0.0,0,9999.0,0,0,0,
2026-03-24 14:30:00,METAR LFLB 241430Z AUTO VRB03KT CAVOK 17/03 Q1021 NOSIG,1,0.0,0,9999.0,0,0,0,
2026-03-24 14:00:00,METAR LFLB 241400Z AUTO VRB03KT CAVOK 17/04 Q1021 NOSIG,1,0.0,0,9999.0,0,0,0,
2026-03-24 13:30:00,METAR LFLB 241330Z AUTO 01003KT 330V080 CAVOK 16/05 Q1021 NOSIG,1,0.0,0,9999.0,0,0,0,
2026-03-24 13:00:00,METAR LFLB 241300Z AUTO 02004KT 330V070 CAVOK 16/04 Q1022 NOSIG,1,0.0,0,9999.0,0,0,0,
2026-03-24 12:30:00,METAR LFLB 241230Z AUTO 36003KT 270V050 CAVOK 16/04 Q1022 NOSIG,1,0.0,0,9999.0,0,0,0,
2026-03-24 12:00:00,METAR LFLB 241200Z AUTO VRB03KT CAVOK 15/05 Q1022 NOSIG,1,0.0,0,9999.0,0,0,0,
2026-03-24 11:30:00,METAR LFLB 241130Z AUTO VRB03KT CAVOK 15/05 Q1023 NOSIG,1,0.0,0,9999.0,0,0,0,
2026-03-24 11:00:00,METAR LFLB 241100Z AUTO 32003KT 240V040 CAVOK 13/05 Q1023 NOSIG,1,0.0,0,9999.0,0,0,0,
2026-03-24 10:30:00,METAR LFLB 241030Z AUTO VRB03KT CAVOK 13/04 Q1023 NOSIG,1,0.0,0,9999.0,0,0,0,
2026-03-24 10:00:00,METAR LFLB 241000Z AUTO VRB02KT CAVOK 12/04 Q1023 NOSIG,1,0.0,0,9999.0,0,0,0,
2026-03-24 09:30:00,METAR LFLB 240930Z AUTO VRB01KT CAVOK 11/05 Q1023 NOSIG,1,0.0,0,9999.0,0,0,0,
2026-03-24 09:00:00,METAR LFLB 240900Z AUTO VRB02KT CAVOK 09/05 Q1023 NOSIG,1,0.0,0,9999.0,0,0,0,
2026-03-24 08:30:00,METAR LFLB 240830Z AUTO VRB02KT CAVOK 07/04 Q1024 NOSIG,1,0.0,0,9999.0,0,0,0,
2026-03-24 08:00:00,METAR LFLB 240800Z AUTO 00000KT 9000 NSC 06/05 Q1024 NOSIG,0,0.0,0,9000.0,0,0,0,
2026-03-24 07:30:00,METAR LFLB 240730Z AUTO VRB02KT 6000 NSC 05/04 Q1024 NOSIG,0,2.0,0,6000.0,0,0,0,
2026-03-24 07:00:00,METAR LFLB 240700Z AUTO VRB01KT 7000 NSC 02/02 Q1023 NOSIG,0,1.0,0,7000.0,0,0,0,
2026-03-24 06:30:00,METAR LFLB 240630Z AUTO 19001KT 3600 1000 R18/3800D R36/2600D BR NSC 01/01 Q1023 BECMG 9999 NSW,0,1.0,0,3600.0,0,0,1,BR
2026-03-24 06:00:00,METAR LFLB 240600Z AUTO 00000KT 2500 1400 R18/3400D R36/1900U BR NSC 01/00 Q1023 BECMG 9999 NSW,0,0.0,0,2500.0,0,0,1,BR
2026-03-24 05:30:00,METAR LFLB 240530Z AUTO 00000KT 2400 0700 R18/3600D R36/1900D BCFG NSC 01/00 Q1023 BECMG 9999 NSW,0,0.0,0,2400.0,0,0,1,"BC,FG"
2026-03-24 05:00:00,METAR LFLB 240500Z AUTO 00000KT 6000 NSC 01/01 Q1023 TEMPO 0600 BCFG,0,0.0,0,6000.0,0,0,1,"BC,FG"
2026-03-24 04:30:00,METAR LFLB 240430Z AUTO 00000KT 3100 1000 R18/P5000 R36/3100D BR NSC 02/01 Q1023 TEMPO 0600 BCFG,0,0.0,0,3100.0,0,0,1,"BC,BR,FG"
2026-03-24 04:00:00,METAR LFLB 240400Z AUTO VRB02KT 4700 BR NSC 01/01 Q1022 TEMPO 0600 BCFG,0,2.0,0,4700.0,0,0,1,"BC,BR,FG"
2026-03-24 03:30:00,METAR LFLB 240330Z AUTO VRB02KT 5000 BR NSC 01/01 Q1022 TEMPO 0600 BCFG,0,2.0,0,5000.0,0,0,1,"BC,BR,FG"
2026-03-24 03:00:00,METAR LFLB 240300Z AUTO VRB01KT 4800 0800 R18/3600D R36/2300D BCFG NSC 02/01 Q1022 TEMPO 0600 BCFG,0,1.0,0,4800.0,0,0,1,"BC,FG"
2026-03-24 02:30:00,METAR LFLB 240230Z AUTO VRB01KT 4700 1500 BR NSC 02/02 Q1022 TEMPO 0600 BCFG,0,1.0,0,4700.0,0,0,1,"BC,BR,FG"
2026-03-24 02:00:00,METAR LFLB 240200Z AUTO 19002KT 5000 BR NSC 02/02 Q1022,0,2.0,0,5000.0,0,0,1,BR
2026-03-24 01:30:00,METAR LFLB 240130Z AUTO 20002KT 6000 NSC 03/02 Q1022,0,2.0,0,6000.0,0,0,0,
2026-03-24 01:00:00,METAR LFLB 240100Z AUTO VRB01KT 6000 NSC 03/03 Q1022,0,1.0,0,6000.0,0,0,0,
2026-03-24 00:30:00,METAR LFLB 240030Z AUTO VRB02KT 6000 NSC 03/03 Q1021,0,2.0,0,6000.0,0,0,0,
2026-03-24 00:00:00,METAR LFLB 240000Z AUTO 12001KT 5000 BR NSC 03/03 Q1021,0,1.0,0,5000.0,0,0,1,BR
2026-03-23 23:30:00,METAR LFLB 232330Z AUTO 14002KT 6000 NSC 04/03 Q1021,0,2.0,0,6000.0,0,0,0,
2026-03-23 23:00:00,METAR LFLB 232300Z AUTO VRB02KT 6000 NSC 04/03 Q1021,0,2.0,0,6000.0,0,0,0,
2026-03-23 22:30:00,METAR LFLB 232230Z AUTO 00000KT 7000 NSC 04/03 Q1021,0,0.0,0,7000.0,0,0,0,
2026-03-23 22:00:00,METAR LFLB 232200Z AUTO VRB01KT 7000 NSC 05/04 Q1020,0,1.0,0,7000.0,0,0,0,
2026-03-23 21:30:00,METAR LFLB 232130Z AUTO VRB01KT CAVOK 05/04 Q1020,1,0.0,0,9999.0,0,0,0,
2026-03-23 21:00:00,METAR LFLB 232100Z AUTO VRB03KT CAVOK 05/04 Q1020,1,0.0,0,9999.0,0,0,0,
2026-03-23 20:30:00,METAR LFLB 232030Z AUTO VRB02KT CAVOK 05/04 Q1020,1,0.0,0,9999.0,0,0,0,
2026-03-23 20:00:00,METAR LFLB 232000Z AUTO VRB,0,,0,,0,0,0,
2026-03-23 19:30:00,METAR LFLB 231930Z AUTO VRB01KT CAVOK 07/05 Q1020 NOSIG,1,0.0,0,9999.0,0,0,0,
2026-03-23 19:00:00,METAR LFLB 231900Z AUTO 19004KT 9999 FEW068 07/05 Q1020 TEMPO 02010KT,0,4.0,0,10000.0,0,0,0,
2026-03-23 18:30:00,METAR LFLB 231830Z AUTO VRB03KT CAVOK 09/05 Q1019 NOSIG,1,0.0,0,9999.0,0,0,0,
2026-03-23 18:00:00,METAR LFLB 231800Z AUTO 36005KT 310V030 CAVOK 10/06 Q1019 NOSIG,1,0.0,0,9999.0,0,0,0,
2026-03-23 17:30:00,METAR LFLB 231730Z AUTO 35004KT 310V020 CAVOK 10/07 Q1019 NOSIG,1,0.0,0,9999.0,0,0,0,
2026-03-23 17:00:00,METAR LFLB 231700Z AUTO 02008KT CAVOK 11/07 Q1018 TEMPO FEW040TCU,1,0.0,0,9999.0,0,0,0,
2026-03-23 16:30:00,METAR LFLB 231630Z AUTO 02007KT 330V050 9999 FEW050 12/07 Q1018 TEMPO FEW040TCU,0,7.0,0,10000.0,0,0,0,
2026-03-23 16:00:00,METAR LFLB 231600Z AUTO 01007KT 9999 SCT050 12/07 Q1018 TEMPO FEW040TCU,0,7.0,0,10000.0,0,0,0,
2026-03-23 15:30:00,METAR LFLB 231530Z AUTO 03009KT 9999 FEW046 13/07 Q1018 TEMPO FEW040TCU,0,9.0,0,10000.0,0,0,0,
2026-03-23 15:00:00,METAR LFLB 231500Z AUTO 02008KT CAVOK 12/07 Q1018 TEMPO FEW040TCU,1,0.0,0,9999.0,0,0,0,
2026-03-23 14:30:00,METAR LFLB 231430Z AUTO 01010KT CAVOK 13/08 Q1018 TEMPO FEW040TCU,1,0.0,0,9999.0,0,0,0,
2026-03-23 14:00:00,METAR LFLB 231400Z AUTO 02010KT CAVOK 12/07 Q1018 TEMPO FEW040TCU,1,0.0,0,9999.0,0,0,0,
2026-03-23 13:30:00,METAR LFLB 231330Z AUTO 36008KT 330V050 CAVOK 11/07 Q1018 TEMPO FEW040TCU,1,0.0,0,9999.0,0,0,0,
2026-03-23 13:00:00,METAR LFLB 231300Z AUTO 03006KT 350V070 CAVOK 11/06 Q1018 NOSIG,1,0.0,0,9999.0,0,0,0,
2026-03-23 12:30:00,METAR LFLB 231230Z AUTO 04005KT 360V070 CAVOK 10/06 Q1019 NOSIG,1,0.0,0,9999.0,0,0,0,
2026-03-23 12:00:00,METAR LFLB 231200Z AUTO 02007KT CAVOK 09/05 Q1019 NOSIG,1,0.0,0,9999.0,0,0,0,
2026-03-23 11:30:00,METAR LFLB 231130Z AUTO 02005KT 340V050 CAVOK 09/05 Q1019 NOSIG,1,0.0,0,9999.0,0,0,0,
2026-03-23 11:00:00,METAR LFLB 231100Z AUTO 03005KT 340V060 CAVOK 09/06 Q1019 NOSIG,1,0.0,0,9999.0,0,0,0,
2026-03-23 10:30:00,METAR LFLB 231030Z AUTO 05004KT 340V150 9999 FEW013 08/05 Q1019 NOSIG,0,4.0,0,10000.0,0,0,0,
2026-03-23 10:00:00,METAR LFLB 231000Z AUTO VRB03KT 9999 FEW011 07/04 Q1019 NOSIG,0,3.0,0,10000.0,0,0,0,
2026-03-23 09:30:00,METAR LFLB 230930Z AUTO VRB03KT 9999 BKN011 BKN050 06/05 Q1019 BECMG SCT040,0,3.0,0,10000.0,0,0,0,
2026-03-23 09:00:00,METAR LFLB 230900Z AUTO VRB03KT 9999 BKN010 OVC052 05/04 Q1019 BECMG SCT040,0,3.0,0,10000.0,0,0,0,
2026-03-23 08:30:00,METAR LFLB 230830Z AUTO VRB02KT 9999 BKN010 OVC050 05/04 Q1019 BECMG SCT040,0,2.0,0,10000.0,0,0,0,
2026-03-23 08:00:00,METAR LFLB 230800Z AUTO VRB02KT 9999 OVC008 04/03 Q1019 BECMG SCT040,0,2.0,0,10000.0,0,0,0,
2026-03-23 07:30:00,METAR LFLB 230730Z AUTO VRB02KT 8000 OVC007 04/03 Q1019 BECMG SCT040,0,2.0,0,8000.0,0,0,0,
2026-03-23 07:00:00,METAR LFLB 230700Z AUTO VRB02KT 7000 OVC009 04/04 Q1018 TEMPO 0600 FG VV///,0,2.0,0,7000.0,0,0,1,FG
2026-03-23 06:30:00,METAR LFLB 230630Z AUTO 19003KT 6000 BKN007 OVC011 04/04 Q1018 TEMPO 0600 FG VV///,0,3.0,0,6000.0,0,0,1,FG
2026-03-23 06:00:00,METAR LFLB 230600Z AUTO 21002KT 5000 BR OVC006 03/03 Q1018 TEMPO 0600 FG VV///,0,2.0,0,5000.0,0,0,1,"BR,FG"
2026-03-23 05:30:00,METAR LFLB 230530Z AUTO 36001KT 7000 OVC006 03/03 Q1018 TEMPO 3000 BR BECMG VV///,0,1.0,0,7000.0,0,0,1,BR
2026-03-23 05:00:00,METAR LFLB 230500Z AUTO 16003KT 6000 OVC007 03/03 Q1017 TEMPO 3000 BR BECMG VV///,0,3.0,0,6000.0,0,0,1,BR
2026-03-23 04:30:00,METAR LFLB 230430Z AUTO 19004KT 4600 BR OVC008 02/02 Q1017 BECMG VV///,0,4.0,0,4600.0,0,0,1,BR
2026-03-23 04:00:00,METAR LFLB 230400Z AUTO 25001KT 1800 1200 R18/P5000 R36/2400U BR BKN006 OVC011 02/02 Q1017 TEMPO 3000 BR BECMG VV///,0,1.0,0,1800.0,0,0,1,BR
2026-03-23 03:30:00,METAR LFLB 230330Z AUTO VRB02KT 1200 0350 R18/3400D R36/0400N BCFG BKN004 OVC011 02/02 Q1017 TEMPO 3000 BR BECMG VV///,0,2.0,0,1200.0,0,0,1,"BC,BR,FG"
2026-03-23 03:00:00,METAR LFLB 230300Z AUTO 13002KT 1600 BR VV/// 01/01 Q1017 TEMPO 3000 BR,0,2.0,0,1600.0,0,0,1,BR
2026-03-23 02:30:00,METAR LFLB 230230Z AUTO 14002KT 0800 0600 R18/1900U R36/0700D FG BKN003 BKN009 00/00 Q1016 TEMPO 3000 BR BECMG VV///,0,2.0,0,1287200.0,0,0,1,"BR,FG"
2026-03-23 02:00:00,METAR LFLB 230200Z AUTO 20002KT 0650 0500 R18/1700U R36/1000U FG BKN002 BKN014 01/01 Q1016,0,2.0,0,1045850.0,0,0,1,FG
2026-03-23 01:30:00,METAR LFLB 230130Z AUTO 14001KT 0800 0650 R18/1700U R36/0800N FG FEW002 01/01 Q1016,0,1.0,0,1287200.0,0,0,1,FG
2026-03-23 01:00:00,METAR LFLB 230100Z AUTO VRB01KT 2100 0700 R18/1400D R36/2400U BCFG VV/// 01/00 Q1016,0,1.0,0,2100.0,0,0,1,"BC,FG"
2026-03-23 00:30:00,METAR LFLB 230030Z AUTO 18002KT 0500 0450 R18/0600U R36/2300D FZFG VV/// M00/M00 Q1016,0,2.0,0,804500.0,0,0,1,FG
2026-03-23 00:00:00,METAR LFLB 230000Z AUTO 15001KT 0450 R18/0300D R36/0550N FG FEW002 01/01 Q1016,0,1.0,0,724050.0,0,0,1,FG
2026-03-22 23:30:00,METAR LFLB 222330Z AUTO 08002KT 0550 0450 R18/0800U R36/0650D FG VV/// 02/01 Q1016,0,2.0,0,884950.0,0,0,1,FG
2026-03-22 23:00:00,METAR LFLB 222300Z AUTO VRB01KT 3200 BR NSC 02/02 Q1016,0,1.0,0,3200.0,0,0,1,BR
2026-03-22 22:30:00,METAR LFLB 222230Z AUTO 19005KT 5000 BR FEW001 01/01 Q1015,0,5.0,0,5000.0,0,0,1,BR
2026-03-22 22:00:00,METAR LFLB 222200Z AUTO 19003KT 0750 R18/1500U R36/1300D FG NSC 02/02 Q1015,0,3.0,0,1206750.0,0,0,1,FG
2026-03-22 21:30:00,METAR LFLB 222130Z AUTO 27002KT 2500 BR FEW045 04/03 Q1015,0,2.0,0,2500.0,0,0,1,BR
2026-03-22 21:00:00,METAR LFLB 222100Z AUTO VRB02KT 2900 0500 R18/2200D R36/3700D BCFG FEW001 SCT046 04/03 Q1015,0,2.0,0,2900.0,0,0,1,"BC,FG"
2026-03-22 20:30:00,METAR LFLB 222030Z AUTO VRB02KT 9999 BKN047 05/04 Q1015,0,2.0,0,10000.0,0,0,0,
2026-03-22 20:00:00,METAR LFLB 222000Z AUTO 21003KT 9999 BKN048 05/04 Q1014 NOSIG,0,3.0,0,10000.0,0,0,0,
2026-03-22 19:30:00,METAR LFLB 221930Z AUTO VRB02KT 9999 OVC044 06/05 Q1014 NOSIG,0,2.0,0,10000.0,0,0,0,
2026-03-22 19:00:00,METAR LFLB 221900Z AUTO 16003KT 9999 FEW035 OVC042 06/05 Q1014 NOSIG,0,3.0,0,10000.0,0,0,0,
2026-03-22 18:30:00,METAR LFLB 221830Z AUTO VRB02KT 9999 BKN042 05/05 Q1014 NOSIG,0,2.0,0,10000.0,0,0,0,
2026-03-22 18:00:00,METAR LFLB 221800Z AUTO 21002KT 9999 FEW015 SCT039 BKN094 06/04 Q1013 NOSIG,0,2.0,0,10000.0,0,0,0,
2026-03-22 17:30:00,METAR LFLB 221730Z AUTO VRB02KT 9999 BKN086 06/04 Q1013 NOSIG,0,2.0,0,10000.0,0,0,0,
2026-03-22 17:00:00,METAR LFLB 221700Z AUTO VRB02KT 9999 BKN090 BKN110 06/05 Q1012 NOSIG,0,2.0,0,10000.0,0,0,0,
2026-03-22 16:30:00,METAR LFLB 221630Z AUTO 17009KT CAVOK 07/05 Q1012 NOSIG,1,0.0,0,9999.0,0,0,0,
2026-03-22 16:00:00,METAR LFLB 221600Z AUTO 20004KT 160V240 CAVOK 07/04 Q1012 NOSIG,1,0.0,0,9999.0,0,0,0,
2026-03-22 15:30:00,METAR LFLB 221530Z AUTO 22007KT 200V270 9999 FEW038 SCT072 07/04 Q1012 NOSIG,0,7.0,0,10000.0,0,0,0,
2026-03-22 15:00:00,METAR LFLB 221500Z AUTO 21010KT 9999 -RA BKN038 BKN050 OVC064 06/05 Q1012 NOSIG,0,10.0,0,10000.0,0,0,0,-RA
2026-03-22 14:30:00,METAR LFLB 221430Z AUTO 20008KT 9999 -RA OVC036/// ///TCU 06/04 Q1012 BECMG BKN040,0,8.0,0,10000.0,0,0,0,-RA
2026-03-22 14:00:00,METAR LFLB 221400Z AUTO 21009KT 9999 -RA FEW015/// BKN032/// OVC040/// //////TCU 05/04 Q1012 TEMPO 3500 RA BECMG BKN040,0,9.0,0,10000.0,0,0,0,"-RA,RA"
2026-03-22 13:30:00,METAR LFLB 221330Z AUTO 22007KT 190V260 9000 -RA FEW010/// BKN038/// OVC044/// ///TCU 05/04 Q1012 TEMPO 3500 RA BECMG BKN040,0,7.0,0,9000.0,0,0,0,"-RA,RA"
2026-03-22 13:00:00,METAR LFLB 221300Z AUTO 21007KT 9999 +SNRA FEW011/// SCT030/// BKN036/// //////TCU 05/04 Q1013 TEMPO 3500 RA,0,7.0,0,10000.0,0,0,0,RA
2026-03-22 12:30:00,METAR LFLB 221230Z AUTO 18009KT 6000 -SNRA FEW012/// OVC033/// ///TCU 05/04 Q1013 TEMPO 3500 RA,0,9.0,0,6000.0,0,0,0,RA
2026-03-22 12:00:00,METAR LFLB 221200Z AUTO 21005KT 4600 -SNRA BR FEW012/// OVC031/// //////TCU 05/04 Q1012 TEMPO RA,0,5.0,0,4600.0,0,0,1,"BR,RA"
2026-03-22 11:30:00,METAR LFLB 221130Z AUTO 20009KT 5000 RA BR FEW022/// OVC030/// ///TCU 06/04 Q1012 NOSIG,0,9.0,0,5000.0,0,0,1,"BR,RA"
2026-03-22 10:30:00,METAR LFLB 221030Z AUTO 19009KT 9999 RA FEW012/// OVC028/// ///TCU 07/06 Q1011 TEMPO 3500 RA,0,9.0,0,10000.0,0,0,0,RA
2026-03-22 10:00:00,METAR LFLB 221000Z AUTO 20006KT 9000 -RA FEW009/// BKN029/// OVC036/// ///TCU 08/06 Q1011 TEMPO 3500 RA,0,6.0,0,9000.0,0,0,0,"-RA,RA"
2026-03-22 09:30:00,METAR LFLB 220930Z AUTO VRB01KT 5000 RA BR SCT029/// BKN037/// OVC043/// ///TCU 08/07 Q1011 NOSIG,0,1.0,0,5000.0,0,0,1,"BR,RA"
2026-03-22 09:00:00,METAR LFLB 220900Z AUTO VRB02KT 6000 -RA BKN033/// OVC043/// ///TCU 08/07 Q1011 TEMPO 3500 RA,0,2.0,0,6000.0,0,0,0,"-RA,RA"
2026-03-22 08:30:00,METAR LFLB 220830Z AUTO 20004KT 160V310 6000 -RA BKN037/// OVC044/// ///TCU 08/07 Q1010 TEMPO 3500 RA,0,4.0,0,6000.0,0,0,0,"-RA,RA"
2026-03-22 08:00:00,METAR LFLB 220800Z AUTO 17010KT 7000 RA FEW029/// BKN038/// OVC044/// ///TCU 08/07 Q1010 TEMPO 4000 RA BECMG BKN040,0,10.0,0,7000.0,0,0,0,RA
2026-03-22 07:30:00,METAR LFLB 220730Z AUTO VRB02KT 5000 RA BR BKN041/// OVC050/// //////TCU 09/07 Q1010 TEMPO VRB13KT,0,2.0,0,5000.0,0,0,1,"BR,RA"
2026-03-22 07:00:00,METAR LFLB 220700Z AUTO 23004KT 180V340 9000 -RA OVC049/// ///TCU 09/06 Q1010 TEMPO 4000 SHRA,0,4.0,0,9000.0,0,0,0,"-RA,RA,SH"
2026-03-22 06:30:00,METAR LFLB 220630Z AUTO 18004KT 150V220 9999 -RA BKN052/// OVC070/// //////TCU 09/06 Q1010 TEMPO 4000 SHRA,0,4.0,0,10000.0,0,0,0,"-RA,RA,SH"
2026-03-22 06:00:00,METAR LFLB 220600Z AUTO 00000KT 7000 -RA FEW049/// BKN056/// OVC074/// ///TCU 08/07 Q1009 TEMPO RA BECMG BKN060,0,0.0,0,7000.0,0,0,0,"-RA,RA"
2026-03-22 05:30:00,METAR LFLB 220530Z AUTO 23004KT 230V300 7000 -RA FEW048/// BKN058/// OVC072/// ///TCU 08/06 Q1009 TEMPO RA BECMG BKN060,0,4.0,0,7000.0,0,0,0,"-RA,RA"
2026-03-22 05:00:00,METAR LFLB 220500Z AUTO 01001KT 9999 BKN058/// OVC070/// //////TCU 08/06 Q1009 TEMPO RA BECMG BKN060,0,1.0,0,10000.0,0,0,0,RA
2026-03-22 04:30:00,METAR LFLB 220430Z AUTO 21002KT 8000 -RA SCT049 BKN060 OVC076 08/06 Q1009 TEMPO RA,0,2.0,0,8000.0,0,0,0,"-RA,RA"
2026-03-22 04:00:00,METAR LFLB 220400Z AUTO 04002KT 9999 FEW072 OVC084 08/05 Q1009 TEMPO RA,0,2.0,0,10000.0,0,0,0,RA
2026-03-22 03:30:00,METAR LFLB 220330Z AUTO VRB01KT 9999 BKN086 BKN120 OVC160 07/05 Q1009 TEMPO RA,0,1.0,0,10000.0,0,0,0,RA
2026-03-22 03:00:00,METAR LFLB 220300Z AUTO VRB02KT 9999 FEW070 BKN088 OVC110 08/05 Q1009 TEMPO RA,0,2.0,0,10000.0,0,0,0,RA
2026-03-22 02:30:00,METAR LFLB 220230Z AUTO 00000KT 9999 FEW068 BKN088 OVC100 07/05 Q1009 TEMPO RA,0,0.0,0,10000.0,0,0,0,RA
2026-03-22 02:00:00,METAR LFLB 220200Z AUTO 00000KT 9999 SCT084 OVC170 07/05 Q1009,0,0.0,0,10000.0,0,0,0,
2026-03-22 01:30:00,METAR LFLB 220130Z AUTO VRB02KT 9999 FEW070 SCT090 OVC170 08/05 Q1009,0,2.0,0,10000.0,0,0,0,
2026-03-22 01:00:00,METAR LFLB 220100Z AUTO VRB02KT 9999 FEW070 SCT150 OVC170 08/04 Q1010,0,2.0,0,10000.0,0,0,0,
2026-03-22 00:30:00,METAR LFLB 220030Z AUTO VRB02KT 9999 BKN070 BKN100 OVC170 08/05 Q1010,0,2.0,0,10000.0,0,0,0,
2026-03-22 00:00:00,METAR LFLB 220000Z AUTO VRB02KT 9999 SCT070 BKN100 BKN160 08/04 Q1010,0,2.0,0,10000.0,0,0,0,
2026-03-21 23:30:00,METAR LFLB 212330Z AUTO VRB02KT 9999 FEW066 BKN100 BKN150 09/04 Q1010,0,2.0,0,10000.0,0,0,0,
2026-03-21 23:00:00,METAR LFLB 212300Z AUTO VRB02KT 9999 BKN066 BKN100 BKN150 08/05 Q1010,0,2.0,0,10000.0,0,0,0,
2026-03-21 22:30:00,METAR LFLB 212230Z AUTO 20001KT 9999 SCT066 BKN100 OVC140 09/05 Q1010,0,1.0,0,10000.0,0,0,0,
2026-03-21 22:00:00,METAR LFLB 212200Z AUTO VRB02KT 9999 FEW066 BKN100 BKN150 09/04 Q1010,0,2.0,0,10000.0,0,0,0,
2026-03-21 21:30:00,METAR LFLB 212130Z AUTO 20003KT CAVOK 09/05 Q1010,1,0.0,0,9999.0,0,0,0,
2026-03-21 21:00:00,METAR LFLB 212100Z AUTO 16004KT 9999 SCT084 BKN140 BKN160 10/05 Q1010,0,4.0,0,10000.0,0,0,0,
2026-03-21 20:30:00,METAR LFLB 212030Z AUTO 29004KT 260V320 9999 BKN082/// BKN160/// OVC190/// ///TCU 12/04 Q1010,0,4.0,0,10000.0,0,0,0,
2026-03-21 20:00:00,METAR LFLB 212000Z AUTO VRB01KT 9999 BKN068 OVC096 11/05 Q1010 NOSIG,0,1.0,0,10000.0,0,0,0,
2026-03-21 19:30:00,METAR LFLB 211930Z AUTO VRB02KT 9999 SCT068/// BKN078/// BKN098/// ///TCU 11/05 Q1010 BECMG NSC,0,2.0,0,10000.0,0,0,0,
2026-03-21 19:00:00,METAR LFLB 211900Z AUTO VRB01KT CAVOK 12/04 Q1010 TEMPO 4000 SHRA SCT050TCU,1,0.0,0,9999.0,0,0,0,
2026-03-21 18:30:00,METAR LFLB 211830Z AUTO VRB02KT CAVOK 12/04 Q1010 TEMPO 4000 SHRA SCT050TCU,1,0.0,0,9999.0,0,0,0,
2026-03-21 18:00:00,METAR LFLB 211800Z AUTO 16001KT 9999 FEW070 BKN120 13/04 Q1010 TEMPO 4000 SHRA SCT050TCU,0,1.0,0,10000.0,0,0,0,"RA,SH"
2026-03-21 17:30:00,METAR LFLB 211730Z AUTO 00000KT CAVOK 14/04 Q1009 TEMPO 4000 SHRA SCT050TCU,1,0.0,0,9999.0,0,0,0,
2026-03-21 17:00:00,METAR LFLB 211700Z AUTO 08003KT CAVOK 15/04 Q1010 TEMPO 4000 SHRA SCT050TCU,1,0.0,0,9999.0,0,0,0,
2026-03-21 16:30:00,METAR LFLB 211630Z AUTO 03003KT 340V070 9999 FEW070 BKN110 15/04 Q1010 TEMPO 4000 SHRA SCT050TCU,0,3.0,0,10000.0,0,0,0,"RA,SH"
2026-03-21 16:00:00,METAR LFLB 211600Z AUTO 03003KT 9999 SCT072 BKN110 16/05 Q1010 TEMPO 4000 SHRA SCT050TCU,0,3.0,0,10000.0,0,0,0,"RA,SH"
2026-03-21 15:30:00,METAR LFLB 211530Z AUTO 01003KT CAVOK 15/07 Q1010 TEMPO 4000 SHRA SCT050TCU,1,0.0,0,9999.0,0,0,0,
2026-03-21 15:00:00,METAR LFLB 211500Z AUTO VRB01KT CAVOK 16/03 Q1010 TEMPO 4000 SHRA SCT050TCU,1,0.0,0,9999.0,0,0,0,
2026-03-21 14:30:00,METAR LFLB 211430Z AUTO VRB03KT CAVOK 16/03 Q1010 TEMPO 4000 SHRA SCT050TCU,1,0.0,0,9999.0,0,0,0,
2026-03-21 14:00:00,METAR LFLB 211400Z AUTO VRB02KT CAVOK 17/05 Q1011 NOSIG,1,0.0,0,9999.0,0,0,0,
2026-03-21 13:30:00,METAR LFLB 211330Z AUTO 02004KT 300V070 CAVOK 16/03 Q1011 NOSIG,1,0.0,0,9999.0,0,0,0,
2026-03-21 13:00:00,METAR LFLB 211300Z AUTO 36004KT 320V040 CAVOK 16/03 Q1011 NOSIG,1,0.0,0,9999.0,0,0,0,
2026-03-21 12:30:00,METAR LFLB 211230Z AUTO 01003KT 330V050 CAVOK 15/04 Q1011 NOSIG,1,0.0,0,9999.0,0,0,0,
2026-03-21 12:00:00,METAR LFLB 211200Z AUTO 01005KT 340V050 9999 FEW080 14/03 Q1012 NOSIG,0,5.0,0,10000.0,0,0,0,
2026-03-21 11:30:00,METAR LFLB 211130Z AUTO 01003KT 310V050 9999 FEW082 14/02 Q1012 NOSIG,0,3.0,0,10000.0,0,0,0,
2026-03-21 11:00:00,METAR LFLB 211100Z AUTO 01003KT 330V070 CAVOK 14/02 Q1012 NOSIG,1,0.0,0,9999.0,0,0,0,
2026-03-21 10:30:00,METAR LFLB 211030Z AUTO VRB02KT CAVOK 13/03 Q1013 NOSIG,1,0.0,0,9999.0,0,0,0,
2026-03-21 10:00:00,METAR LFLB 211000Z AUTO VRB02KT CAVOK 12/03 Q1013 NOSIG,1,0.0,0,9999.0,0,0,0,
2026-03-21 09:30:00,METAR LFLB 210930Z AUTO VRB02KT CAVOK 10/03 Q1014 NOSIG,1,0.0,0,9999.0,0,0,0,
2026-03-21 09:00:00,METAR LFLB 210900Z AUTO VRB03KT CAVOK 09/03 Q1014 NOSIG,1,0.0,0,9999.0,0,0,0,
2026-03-21 08:30:00,METAR LFLB 210830Z AUTO VRB02KT 9999 FEW080 09/03 Q1014 NOSIG,0,2.0,0,10000.0,0,0,0,
2026-03-21 08:00:00,METAR LFLB 210800Z AUTO VRB01KT 9999 SCT082 07/03 Q1014 NOSIG,0,1.0,0,10000.0,0,0,0,
2026-03-21 07:30:00,METAR LFLB 210730Z AUTO 00000KT 9999 SCT080 05/03 Q1014 NOSIG,0,0.0,0,10000.0,0,0,0,
2026-03-21 07:00:00,METAR LFLB 210700Z AUTO VRB01KT 9000 SCT078 03/02 Q1014 NOSIG,0,1.0,0,9000.0,0,0,0,
2026-03-21 06:30:00,METAR LFLB 210630Z AUTO 00000KT 9000 SCT078 02/01 Q1014 NOSIG,0,0.0,0,9000.0,0,0,0,
2026-03-21 06:00:00,METAR LFLB 210600Z AUTO 15002KT 8000 NSC 01/01 Q1014 NOSIG,0,2.0,0,8000.0,0,0,0,
2026-03-21 05:30:00,METAR LFLB 210530Z AUTO 20003KT 6000 NSC 01/M00 Q1014 NOSIG,0,3.0,0,6000.0,0,0,0,
2026-03-21 05:00:00,METAR LFLB 210500Z AUTO 16002KT 8000 NSC 01/00 Q1014 NOSIG,0,2.0,0,8000.0,0,0,0,
2026-03-21 04:30:00,METAR LFLB 210430Z AUTO 00000KT 6000 NSC 01/01 Q1014 NOSIG,0,0.0,0,6000.0,0,0,0,
2026-03-21 04:00:00,METAR LFLB 210400Z AUTO 16002KT 9000 NSC 02/02 Q1014 NOSIG,0,2.0,0,9000.0,0,0,0,
2026-03-21 03:30:00,METAR LFLB 210330Z AUTO 00000KT CAVOK 02/01 Q1014 NOSIG,1,0.0,0,9999.0,0,0,0,
2026-03-21 03:00:00,METAR LFLB 210300Z AUTO 18003KT CAVOK 02/01 Q1014 NOSIG,1,0.0,0,9999.0,0,0,0,
2026-03-21 02:30:00,METAR LFLB 210230Z AUTO 18002KT 8000 NSC 03/02 Q1014 NOSIG,0,2.0,0,8000.0,0,0,0,
2026-03-21 02:00:00,METAR LFLB 210200Z AUTO VRB01KT 9000 NSC 03/02 Q1014,0,1.0,0,9000.0,0,0,0,
2026-03-21 01:30:00,METAR LFLB 210130Z AUTO 16001KT CAVOK 04/02 Q1014,1,0.0,0,9999.0,0,0,0,
2026-03-21 01:00:00,METAR LFLB 210100Z AUTO VRB03KT CAVOK 03/02 Q1014,1,0.0,0,9999.0,0,0,0,
2026-03-21 00:30:00,METAR LFLB 210030Z AUTO VRB02KT CAVOK 04/02 Q1014,1,0.0,0,9999.0,0,0,0,
2026-03-21 00:00:00,METAR LFLB 210000Z AUTO VRB02KT CAVOK 04/02 Q1014,1,0.0,0,9999.0,0,0,0,
2026-03-20 23:30:00,METAR LFLB 202330Z AUTO 18004KT CAVOK 05/02 Q1014,1,0.0,0,9999.0,0,0,0,
2026-03-20 23:00:00,METAR LFLB 202300Z AUTO 19003KT CAVOK 05/03 Q1014,1,0.0,0,9999.0,0,0,0,
2026-03-20 22:30:00,METAR LFLB 202230Z AUTO 17004KT CAVOK 05/03 Q1014,1,0.0,0,9999.0,0,0,0,
2026-03-20 22:00:00,METAR LFLB 202200Z AUTO VRB02KT CAVOK 06/03 Q1014,1,0.0,0,9999.0,0,0,0,
2026-03-20 21:30:00,METAR LFLB 202130Z AUTO 19002KT CAVOK 06/03 Q1014,1,0.0,0,9999.0,0,0,0,
2026-03-20 21:00:00,METAR LFLB 202100Z AUTO 17003KT CAVOK 06/03 Q1014,1,0.0,0,9999.0,0,0,0,
2026-03-20 20:30:00,METAR LFLB 202030Z AUTO VRB02KT CAVOK 07/03 Q1014,1,0.0,0,9999.0,0,0,0,
2026-03-20 20:00:00,METAR LFLB 202000Z AUTO VRB02KT CAVOK 07/03 Q1014 NOSIG,1,0.0,0,9999.0,0,0,0,
2026-03-20 19:30:00,METAR LFLB 201930Z AUTO VRB02KT CAVOK 08/03 Q1014 NOSIG,1,0.0,0,9999.0,0,0,0,
2026-03-20 19:00:00,METAR LFLB 201900Z AUTO 00000KT CAVOK 09/04 Q1014 NOSIG,1,0.0,0,9999.0,0,0,0,
2026-03-20 18:30:00,METAR LFLB 201830Z AUTO 26001KT CAVOK 09/05 Q1013 NOSIG,1,0.0,0,9999.0,0,0,0,
2026-03-20 18:00:00,METAR LFLB 201800Z AUTO VRB02KT CAVOK 11/05 Q1013 NOSIG,1,0.0,0,9999.0,0,0,0,
2026-03-20 17:30:00,METAR LFLB 201730Z AUTO 00000KT CAVOK 13/05 Q1013 NOSIG,1,0.0,0,9999.0,0,0,0,
2026-03-20 17:00:00,METAR LFLB 201700Z AUTO 30003KT CAVOK 15/04 Q1013 NOSIG,1,0.0,0,9999.0,0,0,0,
2026-03-20 16:30:00,METAR LFLB 201630Z AUTO VRB03KT CAVOK 16/03 Q1013 NOSIG,1,0.0,0,9999.0,0,0,0,
2026-03-20 16:00:00,METAR LFLB 201600Z AUTO 35003KT CAVOK 17/02 Q1014 NOSIG,1,0.0,0,9999.0,0,0,0,
2026-03-20 15:30:00,METAR LFLB 201530Z AUTO 36003KT 320V020 CAVOK 17/02 Q1014 NOSIG,1,0.0,0,9999.0,0,0,0,
2026-03-20 15:00:00,METAR LFLB 201500Z AUTO 36004KT 310V020 CAVOK 17/03 Q1014 NOSIG,1,0.0,0,9999.0,0,0,0,
2026-03-20 14:30:00,METAR LFLB 201430Z AUTO 35004KT 320V020 CAVOK 17/04 Q1015 NOSIG,1,0.0,0,9999.0,0,0,0,
2026-03-20 14:00:00,METAR LFLB 201400Z AUTO 35006KT CAVOK 17/04 Q1015 NOSIG,1,0.0,0,9999.0,0,0,0,
2026-03-20 13:30:00,METAR LFLB 201330Z AUTO 36005KT CAVOK 16/04 Q1015 NOSIG,1,0.0,0,9999.0,0,0,0,
2026-03-20 12:30:00,METAR LFLB 201230Z AUTO 36006KT CAVOK 15/03 Q1016 NOSIG,1,0.0,0,9999.0,0,0,0,
2026-03-20 12:00:00,METAR LFLB 201200Z AUTO 02004KT 320V050 CAVOK 15/03 Q1016 NOSIG,1,0.0,0,9999.0,0,0,0,
2026-03-20 11:30:00,METAR LFLB 201130Z AUTO 02003KT 310V090 CAVOK 14/03 Q1017 NOSIG,1,0.0,0,9999.0,0,0,0,
2026-03-20 11:00:00,METAR LFLB 201100Z AUTO 01004KT 320V050 CAVOK 13/03 Q1017 NOSIG,1,0.0,0,9999.0,0,0,0,
2026-03-20 10:30:00,METAR LFLB 201030Z AUTO VRB03KT CAVOK 13/03 Q1017 NOSIG,1,0.0,0,9999.0,0,0,0,
2026-03-20 10:00:00,METAR LFLB 201000Z AUTO 01003KT 300V060 CAVOK 12/04 Q1018 NOSIG,1,0.0,0,9999.0,0,0,0,
2026-03-20 09:30:00,METAR LFLB 200930Z AUTO 34003KT 300V030 CAVOK 11/03 Q1018 NOSIG,1,0.0,0,9999.0,0,0,0,
2026-03-20 09:00:00,METAR LFLB 200900Z AUTO VRB02KT CAVOK 10/04 Q1018 NOSIG,1,0.0,0,9999.0,0,0,0,
2026-03-20 08:30:00,METAR LFLB 200830Z AUTO VRB01KT CAVOK 09/03 Q1018 NOSIG,1,0.0,0,9999.0,0,0,0,
2026-03-20 08:00:00,METAR LFLB 200800Z AUTO VRB02KT CAVOK 07/03 Q1019 NOSIG,1,0.0,0,9999.0,0,0,0,
2026-03-20 07:30:00,METAR LFLB 200730Z AUTO VRB01KT CAVOK 05/03 Q1019 NOSIG,1,0.0,0,9999.0,0,0,0,
2026-03-20 07:00:00,METAR LFLB 200700Z AUTO 00000KT 8000 NSC 02/01 Q1019 NOSIG,0,0.0,0,8000.0,0,0,0,
2026-03-20 06:30:00,METAR LFLB 200630Z AUTO 19003KT 8000 NSC 01/00 Q1019 NOSIG,0,3.0,0,8000.0,0,0,0,
2026-03-20 06:00:00,METAR LFLB 200600Z AUTO 20002KT 6000 NSC 01/M00 Q1018 NOSIG,0,2.0,0,6000.0,0,0,0,
2026-03-20 05:30:00,METAR LFLB 200530Z AUTO 14001KT 9000 NSC 02/01 Q1018 NOSIG,0,1.0,0,9000.0,0,0,0,
2026-03-20 05:00:00,METAR LFLB 200500Z AUTO 16003KT 9000 NSC 01/M00 Q1018 NOSIG,0,3.0,0,9000.0,0,0,0,
2026-03-20 04:30:00,METAR LFLB 200430Z AUTO 14001KT CAVOK 02/01 Q1018 NOSIG,1,0.0,0,9999.0,0,0,0,
2026-03-20 04:00:00,METAR LFLB 200400Z AUTO 20003KT CAVOK 02/01 Q1018 NOSIG,1,0.0,0,9999.0,0,0,0,
2026-03-20 03:30:00,METAR LFLB 200330Z AUTO VRB01KT CAVOK 02/01 Q1017 NOSIG,1,0.0,0,9999.0,0,0,0,
2026-03-20 03:00:00,METAR LFLB 200300Z AUTO VRB03KT CAVOK 03/01 Q1017 NOSIG,1,0.0,0,9999.0,0,0,0,
2026-03-20 02:30:00,METAR LFLB 200230Z AUTO 30001KT CAVOK 03/02 Q1017 NOSIG,1,0.0,0,9999.0,0,0,0,
2026-03-20 02:00:00,METAR LFLB 200200Z AUTO 16003KT CAVOK 03/01 Q1017,1,0.0,0,9999.0,0,0,0,
2026-03-20 01:30:00,METAR LFLB 200130Z AUTO VRB02KT CAVOK 03/01 Q1017,1,0.0,0,9999.0,0,0,0,
2026-03-20 01:00:00,METAR LFLB 200100Z AUTO 18003KT CAVOK 03/01 Q1017,1,0.0,0,9999.0,0,0,0,
2026-03-20 00:30:00,METAR LFLB 200030Z AUTO 14002KT CAVOK 03/02 Q1017,1,0.0,0,9999.0,0,0,0,
2026-03-20 00:00:00,METAR LFLB 200000Z AUTO 20003KT CAVOK 04/02 Q1017,1,0.0,0,9999.0,0,0,0,
2026-03-19 23:30:00,METAR LFLB 192330Z AUTO 20004KT CAVOK 05/02 Q1017,1,0.0,0,9999.0,0,0,0,
2026-03-19 23:00:00,METAR LFLB 192300Z AUTO 19004KT 170V250 CAVOK 04/02 Q1018,1,0.0,0,9999.0,0,0,0,
2026-03-19 22:30:00,METAR LFLB 192230Z AUTO VRB03KT CAVOK 05/02 Q1017,1,0.0,0,9999.0,0,0,0,
2026-03-19 22:00:00,METAR LFLB 192200Z AUTO VRB02KT CAVOK 05/02 Q1017,1,0.0,0,9999.0,0,0,0,
2026-03-19 21:30:00,METAR LFLB 192130Z AUTO 19003KT CAVOK 06/03 Q1017,1,0.0,0,9999.0,0,0,0,
2026-03-19 21:00:00,METAR LFLB 192100Z AUTO VRB02KT CAVOK 07/03 Q1017,1,0.0,0,9999.0,0,0,0,
2026-03-19 20:30:00,METAR LFLB 192030Z AUTO VRB03KT CAVOK 10/03 Q1017,1,0.0,0,9999.0,0,0,0,
2026-03-19 20:00:00,METAR LFLB 192000Z AUTO 03006KT CAVOK 10/03 Q1017 NOSIG,1,0.0,0,9999.0,0,0,0,
2026-03-19 19:30:00,METAR LFLB 191930Z AUTO 01004KT 330V050 CAVOK 11/04 Q1016 NOSIG,1,0.0,0,9999.0,0,0,0,
2026-03-19 19:00:00,METAR LFLB 191900Z AUTO 03007KT CAVOK 11/03 Q1016 NOSIG,1,0.0,0,9999.0,0,0,0,
2026-03-19 18:30:00,METAR LFLB 191830Z AUTO 02007KT CAVOK 12/03 Q1016 NOSIG,1,0.0,0,9999.0,0,0,0,
2026-03-19 18:00:00,METAR LFLB 191800Z AUTO 31004KT CAVOK 13/04 Q1016 NOSIG,1,0.0,0,9999.0,0,0,0,
2026-03-19 17:30:00,METAR LFLB 191730Z AUTO 36005KT 330V030 CAVOK 13/04 Q1016 NOSIG,1,0.0,0,9999.0,0,0,0,
2026-03-19 17:00:00,METAR LFLB 191700Z AUTO 03006KT 010V080 CAVOK 13/04 Q1016 NOSIG,1,0.0,0,9999.0,0,0,0,
2026-03-19 16:30:00,METAR LFLB 191630Z AUTO 34004KT CAVOK 16/04 Q1016 NOSIG,1,0.0,0,9999.0,0,0,0,
2026-03-19 16:00:00,METAR LFLB 191600Z AUTO 35005KT CAVOK 17/03 Q1016 NOSIG,1,0.0,0,9999.0,0,0,0,
2026-03-19 15:30:00,METAR LFLB 191530Z AUTO 01008KT 330V030 CAVOK 17/03 Q1016 NOSIG,1,0.0,0,9999.0,0,0,0,
2026-03-19 15:00:00,METAR LFLB 191500Z AUTO 01009KT CAVOK 17/02 Q1016 NOSIG,1,0.0,0,9999.0,0,0,0,
2026-03-19 14:30:00,METAR LFLB 191430Z AUTO 01010KT CAVOK 17/03 Q1017 NOSIG,1,0.0,0,9999.0,0,0,0,
2026-03-19 14:00:00,METAR LFLB 191400Z AUTO 01009KT CAVOK 17/03 Q1017 NOSIG,1,0.0,0,9999.0,0,0,0,
2026-03-19 13:30:00,METAR LFLB 191330Z AUTO 01009KT CAVOK 17/04 Q1017 NOSIG,1,0.0,0,9999.0,0,0,0,
2026-03-19 13:00:00,METAR LFLB 191300Z AUTO 36006KT 330V030 CAVOK 15/04 Q1018 NOSIG,1,0.0,0,9999.0,0,0,0,
2026-03-19 12:30:00,METAR LFLB 191230Z AUTO 36004KT 330V050 CAVOK 15/04 Q1018 NOSIG,1,0.0,0,9999.0,0,0,0,
2026-03-19 12:00:00,METAR LFLB 191200Z AUTO 36006KT 310V040 CAVOK 14/04 Q1019 NOSIG,1,0.0,0,9999.0,0,0,0,
2026-03-19 11:30:00,METAR LFLB 191130Z AUTO 02006KT 350V060 CAVOK 14/05 Q1019 NOSIG,1,0.0,0,9999.0,0,0,0,
2026-03-19 11:00:00,METAR LFLB 191100Z AUTO 34004KT 260V040 CAVOK 13/04 Q1019 NOSIG,1,0.0,0,9999.0,0,0,0,
2026-03-19 10:30:00,METAR LFLB 191030Z AUTO 35004KT 310V060 CAVOK 12/04 Q1020 NOSIG,1,0.0,0,9999.0,0,0,0,
2026-03-19 10:00:00,METAR LFLB 191000Z AUTO 36004KT 320V070 CAVOK 11/04 Q1020 NOSIG,1,0.0,0,9999.0,0,0,0,
2026-03-19 09:30:00,METAR LFLB 190930Z AUTO 01006KT 330V050 CAVOK 11/04 Q1020 NOSIG,1,0.0,0,9999.0,0,0,0,
2026-03-19 09:00:00,METAR LFLB 190900Z AUTO 03006KT 350V080 CAVOK 10/04 Q1021 NOSIG,1,0.0,0,9999.0,0,0,0,
2026-03-19 08:30:00,METAR LFLB 190830Z AUTO VRB02KT CAVOK 09/04 Q1021 NOSIG,1,0.0,0,9999.0,0,0,0,
2026-03-19 08:00:00,METAR LFLB 190800Z AUTO 14003KT 090V200 CAVOK 08/03 Q1021 NOSIG,1,0.0,0,9999.0,0,0,0,
2026-03-19 07:30:00,METAR LFLB 190730Z AUTO VRB02KT CAVOK 05/03 Q1021 NOSIG,1,0.0,0,9999.0,0,0,0,
2026-03-19 07:00:00,METAR LFLB 190700Z AUTO 21003KT 170V300 CAVOK 02/01 Q1021 NOSIG,1,0.0,0,9999.0,0,0,0,
2026-03-19 06:30:00,METAR LFLB 190630Z AUTO 18003KT 120V260 9000 NSC 01/M00 Q1020 NOSIG,0,3.0,0,9000.0,0,0,0,
2026-03-19 06:00:00,METAR LFLB 190600Z AUTO 18003KT CAVOK 01/00 Q1020 TEMPO 2000 MIFG,1,0.0,0,9999.0,0,0,0,
2026-03-19 05:30:00,METAR LFLB 190530Z AUTO 22003KT CAVOK 00/M00 Q1020 TEMPO 2000 MIFG,1,0.0,0,9999.0,0,0,0,
2026-03-19 05:00:00,METAR LFLB 190500Z AUTO VRB02KT CAVOK 01/00 Q1020 TEMPO 2000 MIFG,1,0.0,0,9999.0,0,0,0,
2026-03-19 04:30:00,METAR LFLB 190430Z AUTO 17004KT CAVOK 01/M00 Q1020 TEMPO 2000 MIFG,1,0.0,0,9999.0,0,0,0,
2026-03-19 04:00:00,METAR LFLB 190400Z AUTO 18002KT CAVOK 01/00 Q1019 TEMPO 2000 MIFG,1,0.0,0,9999.0,0,0,0,
2026-03-19 03:30:00,METAR LFLB 190330Z AUTO 22002KT CAVOK 01/00 Q1019 TEMPO 2000 MIFG,1,0.0,0,9999.0,0,0,0,
2026-03-19 03:00:00,METAR LFLB 190300Z AUTO 17003KT CAVOK 02/01 Q1019 NOSIG,1,0.0,0,9999.0,0,0,0,
2026-03-19 02:30:00,METAR LFLB 190230Z AUTO VRB01KT CAVOK 02/01 Q1019 NOSIG,1,0.0,0,9999.0,0,0,0,
2026-03-19 02:00:00,METAR LFLB 190200Z AUTO 19002KT CAVOK 02/01 Q1019,1,0.0,0,9999.0,0,0,0,
2026-03-19 01:30:00,METAR LFLB 190130Z AUTO 19003KT 150V230 CAVOK 02/00 Q1019,1,0.0,0,9999.0,0,0,0,
2026-03-19 01:00:00,METAR LFLB 190100Z AUTO VRB03KT CAVOK 04/01 Q1019,1,0.0,0,9999.0,0,0,0,
2026-03-19 00:30:00,METAR LFLB 190030Z AUTO 14004KT 090V200 CAVOK 04/01 Q1019,1,0.0,0,9999.0,0,0,0,
2026-03-19 00:00:00,METAR LFLB 190000Z AUTO 20003KT 150V300 CAVOK 06/02 Q1019,1,0.0,0,9999.0,0,0,0,
2026-03-18 23:30:00,METAR LFLB 182330Z AUTO 01009KT 290V060 CAVOK 09/02 Q1018,1,0.0,0,9999.0,0,0,0,
2026-03-18 23:00:00,METAR LFLB 182300Z AUTO 02013KT CAVOK 08/02 Q1018,1,0.0,0,9999.0,0,0,0,
2026-03-18 22:30:00,METAR LFLB 182230Z AUTO 02008KT 350V070 CAVOK 08/02 Q1018,1,0.0,0,9999.0,0,0,0,
2026-03-18 22:00:00,METAR LFLB 182200Z AUTO 01014KT CAVOK 10/02 Q1018,1,0.0,0,9999.0,0,0,0,
2026-03-18 21:30:00,METAR LFLB 182130Z AUTO 35014KT CAVOK 10/02 Q1017,1,0.0,0,9999.0,0,0,0,
2026-03-18 21:00:00,METAR LFLB 182100Z AUTO 34006KT 280V010 CAVOK 06/03 Q1017,1,0.0,0,9999.0,0,0,0,
2026-03-18 20:30:00,METAR LFLB 182030Z AUTO VRB02KT CAVOK 05/03 Q1017,1,0.0,0,9999.0,0,0,0,
2026-03-18 20:00:00,METAR LFLB 182000Z AUTO 26003KT 170V330 CAVOK 06/03 Q1017 NOSIG,1,0.0,0,9999.0,0,0,0,
2026-03-18 19:30:00,METAR LFLB 181930Z AUTO VRB03KT CAVOK 06/03 Q1016 NOSIG,1,0.0,0,9999.0,0,0,0,
2026-03-18 19:00:00,METAR LFLB 181900Z AUTO VRB03KT CAVOK 06/04 Q1016 NOSIG,1,0.0,0,9999.0,0,0,0,
2026-03-18 18:30:00,METAR LFLB 181830Z AUTO VRB02KT CAVOK 06/03 Q1016 NOSIG,1,0.0,0,9999.0,0,0,0,
2026-03-18 18:00:00,METAR LFLB 181800Z AUTO VRB03KT CAVOK 09/04 Q1016 NOSIG,1,0.0,0,9999.0,0,0,0,
2026-03-18 17:30:00,METAR LFLB 181730Z AUTO 14001KT CAVOK 09/04 Q1015 NOSIG,1,0.0,0,9999.0,0,0,0,
2026-03-18 17:00:00,METAR LFLB 181700Z AUTO 00000KT CAVOK 11/04 Q1015 NOSIG,1,0.0,0,9999.0,0,0,0,
2026-03-18 16:30:00,METAR LFLB 181630Z AUTO VRB03KT CAVOK 13/04 Q1014 NOSIG,1,0.0,0,9999.0,0,0,0,
2026-03-18 16:00:00,METAR LFLB 181600Z AUTO 35004KT 320V030 CAVOK 14/03 Q1014 NOSIG,1,0.0,0,9999.0,0,0,0,
2026-03-18 15:30:00,METAR LFLB 181530Z AUTO 34006KT 310V020 CAVOK 13/03 Q1014 NOSIG,1,0.0,0,9999.0,0,0,0,
2026-03-18 15:00:00,METAR LFLB 181500Z AUTO 34005KT 290V010 CAVOK 12/04 Q1014 NOSIG,1,0.0,0,9999.0,0,0,0,
2026-03-18 14:30:00,METAR LFLB 181430Z AUTO 33006KT 300V010 9999 FEW082 11/03 Q1014 TEMPO FEW060TCU,0,6.0,0,10000.0,0,0,0,
2026-03-18 14:00:00,METAR LFLB 181400Z AUTO 35007KT 300V030 CAVOK 12/03 Q1014 TEMPO FEW060TCU,1,0.0,0,9999.0,0,0,0,
2026-03-18 13:30:00,METAR LFLB 181330Z AUTO 01006KT CAVOK 11/03 Q1014 TEMPO FEW060TCU,1,0.0,0,9999.0,0,0,0,
2026-03-18 13:00:00,METAR LFLB 181300Z AUTO 01008KT 9999 FEW043 BKN096 11/03 Q1014 TEMPO FEW060TCU,0,8.0,0,10000.0,0,0,0,
2026-03-18 12:30:00,METAR LFLB 181230Z AUTO 36009KT 9999 FEW042 BKN088 11/03 Q1014 TEMPO FEW060TCU,0,9.0,0,10000.0,0,0,0,
2026-03-18 12:00:00,METAR LFLB 181200Z AUTO 35008KT 9999 BKN037 BKN043 12/03 Q1014 NOSIG,0,8.0,0,10000.0,0,0,0,
2026-03-18 11:30:00,METAR LFLB 181130Z AUTO 01008KT 9999 BKN038 11/03 Q1014 NOSIG,0,8.0,0,10000.0,0,0,0,
2026-03-18 11:00:00,METAR LFLB 181100Z AUTO 01009KT 9999 SCT036 11/03 Q1014 NOSIG,0,9.0,0,10000.0,0,0,0,
2026-03-18 10:30:00,METAR LFLB 181030Z AUTO 02010KT 9999 FEW037 10/03 Q1014 NOSIG,0,10.0,0,10000.0,0,0,0,
2026-03-18 10:00:00,METAR LFLB 181000Z AUTO 02013KT 9999 BKN034 09/03 Q1014 NOSIG,0,13.0,0,10000.0,0,0,0,
2026-03-18 09:30:00,METAR LFLB 180930Z AUTO 36009KT 9999 BKN028 BKN033 09/04 Q1014 NOSIG,0,9.0,0,10000.0,0,0,0,
2026-03-18 09:00:00,METAR LFLB 180900Z AUTO 02011KT 350V050 9999 BKN027 09/03 Q1014 NOSIG,0,11.0,0,10000.0,0,0,0,
2026-03-18 08:30:00,METAR LFLB 180830Z AUTO 01012KT 9999 BKN028 BKN035 09/04 Q1014 NOSIG,0,12.0,0,10000.0,0,0,0,
2026-03-18 08:00:00,METAR LFLB 180800Z AUTO 02010KT 9999 OVC027 08/04 Q1014 NOSIG,0,10.0,0,10000.0,0,0,0,
2026-03-18 07:30:00,METAR LFLB 180730Z AUTO 02013KT 9999 BKN027 08/04 Q1014 NOSIG,0,13.0,0,10000.0,0,0,0,
2026-03-18 07:00:00,METAR LFLB 180700Z AUTO 02012KT 9999 BKN027 07/03 Q1014 NOSIG,0,12.0,0,10000.0,0,0,0,
2026-03-18 06:30:00,METAR LFLB 180630Z AUTO 02012KT 9999 BKN027 07/03 Q1014 NOSIG,0,12.0,0,10000.0,0,0,0,
2026-03-18 06:00:00,METAR LFLB 180600Z AUTO 01011KT 9999 FEW027 07/03 Q1014 NOSIG,0,11.0,0,10000.0,0,0,0,
2026-03-18 05:30:00,METAR LFLB 180530Z AUTO 02014KT CAVOK 07/03 Q1014 NOSIG,1,0.0,0,9999.0,0,0,0,
2026-03-18 05:00:00,METAR LFLB 180500Z AUTO 02011KT CAVOK 07/04 Q1014 NOSIG,1,0.0,0,9999.0,0,0,0,
2026-03-18 04:30:00,METAR LFLB 180430Z AUTO 03011KT CAVOK 07/03 Q1014 NOSIG,1,0.0,0,9999.0,0,0,0,
2026-03-18 04:00:00,METAR LFLB 180400Z AUTO 02010KT CAVOK 07/03 Q1014 NOSIG,1,0.0,0,9999.0,0,0,0,
2026-03-18 03:30:00,METAR LFLB 180330Z AUTO 35005KT 290V040 CAVOK 07/03 Q1014 NOSIG,1,0.0,0,9999.0,0,0,0,
2026-03-18 03:00:00,METAR LFLB 180300Z AUTO 02010KT CAVOK 07/03 Q1015 NOSIG,1,0.0,0,9999.0,0,0,0,
2026-03-18 02:30:00,METAR LFLB 180230Z AUTO 36006KT 320V030 CAVOK 07/03 Q1015 NOSIG,1,0.0,0,9999.0,0,0,0,
2026-03-18 02:00:00,METAR LFLB 180200Z AUTO 01009KT 340V040 CAVOK 08/03 Q1015,1,0.0,0,9999.0,0,0,0,
2026-03-18 01:30:00,METAR LFLB 180130Z AUTO 03011KT CAVOK 08/03 Q1015,1,0.0,0,9999.0,0,0,0,
2026-03-18 01:00:00,METAR LFLB 180100Z AUTO 01009KT CAVOK 08/03 Q1015,1,0.0,0,9999.0,0,0,0,
2026-03-18 00:30:00,METAR LFLB 180030Z AUTO 02011KT CAVOK 09/03 Q1015,1,0.0,0,9999.0,0,0,0,
2026-03-18 00:00:00,METAR LFLB 180000Z AUTO 35004KT 300V040 CAVOK 09/03 Q1015,1,0.0,0,9999.0,0,0,0,
2026-03-17 23:30:00,METAR LFLB 172330Z AUTO VRB02KT CAVOK 09/03 Q1016,1,0.0,0,9999.0,0,0,0,
2026-03-17 23:00:00,METAR LFLB 172300Z AUTO 35005KT 310V010 CAVOK 10/03 Q1016,1,0.0,0,9999.0,0,0,0,
2026-03-17 22:30:00,METAR LFLB 172230Z AUTO 33005KT 280V360 CAVOK 10/03 Q1016,1,0.0,0,9999.0,0,0,0,
2026-03-17 22:00:00,METAR LFLB 172200Z AUTO 33005KT CAVOK 10/03 Q1016,1,0.0,0,9999.0,0,0,0,
2026-03-17 21:30:00,METAR LFLB 172130Z AUTO 31005KT 280V350 CAVOK 10/03 Q1016,1,0.0,0,9999.0,0,0,0,
2026-03-17 21:00:00,METAR LFLB 172100Z AUTO 33005KT 290V010 CAVOK 11/03 Q1016,1,0.0,0,9999.0,0,0,0,
2026-03-17 20:30:00,METAR LFLB 172030Z AUTO 31005KT 280V360 CAVOK 11/03 Q1016,1,0.0,0,9999.0,0,0,0,
2026-03-17 20:00:00,METAR LFLB 172000Z AUTO 32004KT 280V020 CAVOK 11/04 Q1016 NOSIG,1,0.0,0,9999.0,0,0,0,
2026-03-17 19:30:00,METAR LFLB 171930Z AUTO 01005KT 290V040 CAVOK 11/04 Q1016 NOSIG,1,0.0,0,9999.0,0,0,0,
2026-03-17 19:00:00,METAR LFLB 171900Z AUTO 36006KT CAVOK 11/04 Q1016 NOSIG,1,0.0,0,9999.0,0,0,0,
2026-03-17 18:30:00,METAR LFLB 171830Z AUTO 35006KT CAVOK 12/05 Q1016 NOSIG,1,0.0,0,9999.0,0,0,0,
2026-03-17 18:00:00,METAR LFLB 171800Z AUTO 01010KT CAVOK 12/04 Q1016 NOSIG,1,0.0,0,9999.0,0,0,0,
2026-03-17 17:30:00,METAR LFLB 171730Z AUTO 35007KT 320V020 CAVOK 13/04 Q1016 NOSIG,1,0.0,0,9999.0,0,0,0,
2026-03-17 17:00:00,METAR LFLB 171700Z AUTO 34006KT 300V360 CAVOK 14/04 Q1016 NOSIG,1,0.0,0,9999.0,0,0,0,
2026-03-17 16:30:00,METAR LFLB 171630Z AUTO 34007KT CAVOK 15/03 Q1016 NOSIG,1,0.0,0,9999.0,0,0,0,
2026-03-17 16:00:00,METAR LFLB 171600Z AUTO 36008KT CAVOK 16/04 Q1016 NOSIG,1,0.0,0,9999.0,0,0,0,
2026-03-17 15:30:00,METAR LFLB 171530Z AUTO 36007KT CAVOK 16/03 Q1016 NOSIG,1,0.0,0,9999.0,0,0,0,
2026-03-17 15:00:00,METAR LFLB 171500Z AUTO 36008KT CAVOK 16/04 Q1016 NOSIG,1,0.0,0,9999.0,0,0,0,
2026-03-17 14:30:00,METAR LFLB 171430Z AUTO 36008KT CAVOK 16/03 Q1016 NOSIG,1,0.0,0,9999.0,0,0,0,
2026-03-17 14:00:00,METAR LFLB 171400Z AUTO 36009KT CAVOK 16/04 Q1017 NOSIG,1,0.0,0,9999.0,0,0,0,
2026-03-17 13:30:00,METAR LFLB 171330Z AUTO 36010KT 330V030 CAVOK 15/04 Q1017 NOSIG,1,0.0,0,9999.0,0,0,0,
2026-03-17 13:00:00,METAR LFLB 171300Z AUTO 36010KT CAVOK 15/04 Q1018 NOSIG,1,0.0,0,9999.0,0,0,0,
2026-03-17 12:30:00,METAR LFLB 171230Z AUTO 35009KT CAVOK 15/03 Q1018 NOSIG,1,0.0,0,9999.0,0,0,0,
2026-03-17 12:00:00,METAR LFLB 171200Z AUTO 35008KT 320V020 CAVOK 14/04 Q1019 NOSIG,1,0.0,0,9999.0,0,0,0,
2026-03-17 11:30:00,METAR LFLB 171130Z AUTO 35008KT CAVOK 14/04 Q1019 NOSIG,1,0.0,0,9999.0,0,0,0,
2026-03-17 11:00:00,METAR LFLB 171100Z AUTO 34008KT 300V360 CAVOK 13/04 Q1019 NOSIG,1,0.0,0,9999.0,0,0,0,
2026-03-17 10:30:00,METAR LFLB 171030Z AUTO 34006KT 300V010 CAVOK 12/04 Q1019 NOSIG,1,0.0,0,9999.0,0,0,0,
2026-03-17 10:00:00,METAR LFLB 171000Z AUTO 34006KT 300V020 CAVOK 11/04 Q1020 NOSIG,1,0.0,0,9999.0,0,0,0,
2026-03-17 09:30:00,METAR LFLB 170930Z AUTO 34006KT 290V040 CAVOK 10/03 Q1020 NOSIG,1,0.0,0,9999.0,0,0,0,
2026-03-17 09:00:00,METAR LFLB 170900Z AUTO 02007KT 340V040 CAVOK 09/04 Q1020 NOSIG,1,0.0,0,9999.0,0,0,0,
2026-03-17 08:30:00,METAR LFLB 170830Z AUTO 03005KT 340V080 CAVOK 08/03 Q1021 NOSIG,1,0.0,0,9999.0,0,0,0,
2026-03-17 08:00:00,METAR LFLB 170800Z AUTO VRB04KT CAVOK 07/03 Q1021 NOSIG,1,0.0,0,9999.0,0,0,0,
2026-03-17 07:30:00,METAR LFLB 170730Z AUTO 00000KT CAVOK 05/03 Q1021 BECMG 36010KT,1,0.0,0,9999.0,0,0,0,
2026-03-17 07:00:00,METAR LFLB 170700Z AUTO 19002KT CAVOK 02/02 Q1021 BECMG 36010KT,1,0.0,0,9999.0,0,0,0,
2026-03-17 06:30:00,METAR LFLB 170630Z AUTO 17003KT CAVOK 01/00 Q1021 BECMG 36010KT,1,0.0,0,9999.0,0,0,0,
2026-03-17 06:00:00,METAR LFLB 170600Z AUTO VRB02KT CAVOK 01/01 Q1021 TEMPO 1500 MIFG,1,0.0,0,9999.0,0,0,0,
2026-03-17 05:30:00,METAR LFLB 170530Z AUTO 17002KT CAVOK 01/00 Q1021 TEMPO 1500 MIFG BECMG 36010KT,1,0.0,0,9999.0,0,0,0,
2026-03-17 05:00:00,METAR LFLB 170500Z AUTO 00000KT CAVOK 02/01 Q1021 TEMPO 1500 MIFG,1,0.0,0,9999.0,0,0,0,
2026-03-17 04:30:00,METAR LFLB 170430Z AUTO 00000KT CAVOK 02/01 Q1021 TEMPO 1500 MIFG,1,0.0,0,9999.0,0,0,0,
2026-03-17 04:00:00,METAR LFLB 170400Z AUTO VRB02KT CAVOK 02/01 Q1021 TEMPO 1500 MIFG,1,0.0,0,9999.0,0,0,0,
2026-03-17 03:30:00,METAR LFLB 170330Z AUTO 18003KT CAVOK 02/01 Q1021 TEMPO 1500 MIFG,1,0.0,0,9999.0,0,0,0,
2026-03-17 03:00:00,METAR LFLB 170300Z AUTO VRB03KT CAVOK 03/02 Q1021 TEMPO 1500 MIFG,1,0.0,0,9999.0,0,0,0,
2026-03-17 02:30:00,METAR LFLB 170230Z AUTO VRB02KT CAVOK 03/02 Q1021 TEMPO 1500 MIFG,1,0.0,0,9999.0,0,0,0,
2026-03-17 02:00:00,METAR LFLB 170200Z AUTO VRB01KT CAVOK 03/02 Q1021,1,0.0,0,9999.0,0,0,0,
2026-03-17 01:30:00,METAR LFLB 170130Z AUTO VRB03KT CAVOK 05/02 Q1021,1,0.0,0,9999.0,0,0,0,
2026-03-17 01:00:00,METAR LFLB 170100Z AUTO 17004KT 100V260 CAVOK 05/02 Q1021,1,0.0,0,9999.0,0,0,0,
2026-03-17 00:30:00,METAR LFLB 170030Z AUTO 33004KT CAVOK 07/03 Q1021,1,0.0,0,9999.0,0,0,0,
2026-03-17 00:00:00,METAR LFLB 170000Z AUTO 32003KT 290V020 CAVOK 07/03 Q1022,1,0.0,0,9999.0,0,0,0,
2026-03-16 23:30:00,METAR LFLB 162330Z AUTO 02007KT CAVOK 07/03 Q1022,1,0.0,0,9999.0,0,0,0,
2026-03-16 23:00:00,METAR LFLB 162300Z AUTO 36006KT CAVOK 07/04 Q1022,1,0.0,0,9999.0,0,0,0,
2026-03-16 22:30:00,METAR LFLB 162230Z AUTO 04008KT CAVOK 08/03 Q1022,1,0.0,0,9999.0,0,0,0,
2026-03-16 22:00:00,METAR LFLB 162200Z AUTO 02009KT 9999 FEW054 08/04 Q1022,0,9.0,0,10000.0,0,0,0,
2026-03-16 21:30:00,METAR LFLB 162130Z AUTO 35007KT 9999 BKN054 10/03 Q1022,0,7.0,0,10000.0,0,0,0,
2026-03-16 21:00:00,METAR LFLB 162100Z AUTO 35007KT 9999 OVC056 10/04 Q1023,0,7.0,0,10000.0,0,0,0,
2026-03-16 20:30:00,METAR LFLB 162030Z AUTO 35007KT 320V020 9999 BKN056 10/03 Q1023,0,7.0,0,10000.0,0,0,0,
2026-03-16 20:00:00,METAR LFLB 162000Z AUTO 36008KT 9999 OVC058 11/04 Q1022 NOSIG,0,8.0,0,10000.0,0,0,0,
2026-03-16 19:30:00,METAR LFLB 161930Z AUTO 01011KT 9999 FEW045 OVC056 11/04 Q1022 NOSIG,0,11.0,0,10000.0,0,0,0,
2026-03-16 19:00:00,METAR LFLB 161900Z AUTO 36012KT 9999 OVC054 11/04 Q1022 NOSIG,0,12.0,0,10000.0,0,0,0,
2026-03-16 18:30:00,METAR LFLB 161830Z AUTO 01008KT 9999 OVC058 12/04 Q1022 NOSIG,0,8.0,0,10000.0,0,0,0,
2026-03-16 18:00:00,METAR LFLB 161800Z AUTO 36010KT 9999 OVC058 12/04 Q1022 NOSIG,0,10.0,0,10000.0,0,0,0,
2026-03-16 17:30:00,METAR LFLB 161730Z AUTO 34007KT 290V020 9999 FEW049 BKN058 12/04 Q1021 NOSIG,0,7.0,0,10000.0,0,0,0,
2026-03-16 17:00:00,METAR LFLB 161700Z AUTO 01006KT 320V060 9999 OVC054 13/04 Q1021 NOSIG,0,6.0,0,10000.0,0,0,0,
2026-03-16 16:30:00,METAR LFLB 161630Z AUTO 01003KT 330V060 9999 FEW054 SCT110 12/04 Q1021 NOSIG,0,3.0,0,10000.0,0,0,0,
2026-03-16 16:00:00,METAR LFLB 161600Z AUTO 36004KT 300V040 CAVOK 13/02 Q1021 NOSIG,1,0.0,0,9999.0,0,0,0,
2026-03-16 15:30:00,METAR LFLB 161530Z AUTO 35004KT 300V080 CAVOK 13/02 Q1021 NOSIG,1,0.0,0,9999.0,0,0,0,
2026-03-16 15:00:00,METAR LFLB 161500Z AUTO 36005KT 330V050 CAVOK 13/M01 Q1021 NOSIG,1,0.0,0,9999.0,0,0,0,
2026-03-16 14:30:00,METAR LFLB 161430Z AUTO 36006KT CAVOK 12/02 Q1021 NOSIG,1,0.0,0,9999.0,0,0,0,
2026-03-16 14:00:00,METAR LFLB 161400Z AUTO 36005KT CAVOK 12/02 Q1021 NOSIG,1,0.0,0,9999.0,0,0,0,
2026-03-16 13:30:00,METAR LFLB 161330Z AUTO 01005KT CAVOK 11/01 Q1021 NOSIG,1,0.0,0,9999.0,0,0,0,
2026-03-16 13:00:00,METAR LFLB 161300Z AUTO 01004KT 340V040 CAVOK 11/02 Q1021 NOSIG,1,0.0,0,9999.0,0,0,0,
2026-03-16 12:30:00,METAR LFLB 161230Z AUTO 01006KT CAVOK 10/02 Q1022 NOSIG,1,0.0,0,9999.0,0,0,0,
2026-03-16 12:00:00,METAR LFLB 161200Z AUTO 01005KT CAVOK 10/02 Q1022 NOSIG,1,0.0,0,9999.0,0,0,0,
2026-03-16 11:30:00,METAR LFLB 161130Z AUTO 36006KT CAVOK 09/02 Q1023 NOSIG,1,0.0,0,9999.0,0,0,0,
2026-03-16 11:00:00,METAR LFLB 161100Z AUTO 36007KT CAVOK 10/03 Q1023 NOSIG,1,0.0,0,9999.0,0,0,0,
2026-03-16 10:30:00,METAR LFLB 161030Z AUTO 36005KT CAVOK 09/02 Q1023 NOSIG,1,0.0,0,9999.0,0,0,0,
2026-03-16 10:00:00,METAR LFLB 161000Z AUTO VRB03KT CAVOK 09/03 Q1023 NOSIG,1,0.0,0,9999.0,0,0,0,
2026-03-16 09:30:00,METAR LFLB 160930Z AUTO 00000KT CAVOK 09/03 Q1023 NOSIG,1,0.0,0,9999.0,0,0,0,
2026-03-16 09:00:00,METAR LFLB 160900Z AUTO VRB02KT 9999 FEW062 OVC150 07/02 Q1023 NOSIG,0,2.0,0,10000.0,0,0,0,
2026-03-16 08:30:00,METAR LFLB 160830Z AUTO VRB02KT 9999 SCT060 SCT150 06/02 Q1023 NOSIG,0,2.0,0,10000.0,0,0,0,
2026-03-16 08:00:00,METAR LFLB 160800Z AUTO VRB03KT CAVOK 04/02 Q1023 NOSIG,1,0.0,0,9999.0,0,0,0,
2026-03-16 07:30:00,METAR LFLB 160730Z AUTO VRB02KT 9999 NCD 03/01 Q1023 NOSIG,0,2.0,0,10000.0,0,0,0,
2026-03-16 07:00:00,METAR LFLB 160700Z AUTO 00000KT CAVOK M00/M00 Q1023 NOSIG,1,0.0,0,9999.0,0,0,0,
2026-03-16 06:30:00,METAR LFLB 160630Z AUTO 18002KT CAVOK M01/M01 Q1023 NOSIG,1,0.0,0,9999.0,0,0,0,
2026-03-16 06:00:00,METAR LFLB 160600Z AUTO VRB02KT CAVOK M01/M02 Q1023 TEMPO 3000 MIFG,1,0.0,0,9999.0,0,0,0,
2026-03-16 05:30:00,METAR LFLB 160530Z AUTO VRB02KT CAVOK 01/M00 Q1022 TEMPO 3000 MIFG,1,0.0,0,9999.0,0,0,0,
2026-03-16 05:00:00,METAR LFLB 160500Z AUTO VRB02KT CAVOK 00/M01 Q1022 TEMPO 3000 MIFG,1,0.0,0,9999.0,0,0,0,
2026-03-16 04:30:00,METAR LFLB 160430Z AUTO VRB02KT CAVOK 00/M01 Q1021 TEMPO 3000 MIFG,1,0.0,0,9999.0,0,0,0,
2026-03-16 04:00:00,METAR LFLB 160400Z AUTO VRB02KT CAVOK 00/M01 Q1021 TEMPO 3000 MIFG,1,0.0,0,9999.0,0,0,0,
2026-03-16 03:30:00,METAR LFLB 160330Z AUTO 01004KT CAVOK 02/00 Q1021 TEMPO 3000 MIFG,1,0.0,0,9999.0,0,0,0,
2026-03-16 03:00:00,METAR LFLB 160300Z AUTO VRB02KT CAVOK 02/01 Q1020 NOSIG,1,0.0,0,9999.0,0,0,0,
2026-03-16 02:30:00,METAR LFLB 160230Z AUTO 32004KT 290V350 CAVOK 02/01 Q1020 NOSIG,1,0.0,0,9999.0,0,0,0,
2026-03-16 02:00:00,METAR LFLB 160200Z AUTO 11002KT CAVOK 02/00 Q1020,1,0.0,0,9999.0,0,0,0,
2026-03-16 01:30:00,METAR LFLB 160130Z AUTO 18004KT 130V230 CAVOK 03/01 Q1020,1,0.0,0,9999.0,0,0,0,
2026-03-16 01:00:00,METAR LFLB 160100Z AUTO 31005KT CAVOK 05/01 Q1020,1,0.0,0,9999.0,0,0,0,
2026-03-16 00:30:00,METAR LFLB 160030Z AUTO 04007KT 9999 FEW056 05/01 Q1020,0,7.0,0,10000.0,0,0,0,
2026-03-16 00:00:00,METAR LFLB 160000Z AUTO 03008KT 9999 SCT056 05/02 Q1020,0,8.0,0,10000.0,0,0,0,
2026-03-15 23:30:00,METAR LFLB 152330Z AUTO VRB02KT 9999 FEW054 05/01 Q1020,0,2.0,0,10000.0,0,0,0,
2026-03-15 23:00:00,METAR LFLB 152300Z AUTO 31004KT 9999 BKN056 06/01 Q1019,0,4.0,0,10000.0,0,0,0,
2026-03-15 22:30:00,METAR LFLB 152230Z AUTO VRB02KT 9999 OVC058 06/02 Q1019,0,2.0,0,10000.0,0,0,0,
2026-03-15 22:00:00,METAR LFLB 152200Z AUTO VRB02KT 9999 OVC060 07/02 Q1019,0,2.0,0,10000.0,0,0,0,
2026-03-15 21:30:00,METAR LFLB 152130Z AUTO 31003KT 9999 BKN062 BKN120 07/02 Q1019,0,3.0,0,10000.0,0,0,0,
2026-03-15 21:00:00,METAR LFLB 152100Z AUTO 04004KT 9999 BKN062 BKN120 06/01 Q1019,0,4.0,0,10000.0,0,0,0,
2026-03-15 20:30:00,METAR LFLB 152030Z AUTO 04006KT 9999 FEW056 BKN066 BKN120 07/01 Q1019,0,6.0,0,10000.0,0,0,0,
2026-03-15 20:00:00,METAR LFLB 152000Z AUTO 04005KT 9999 BKN058 BKN086 OVC120 08/01 Q1019 NOSIG,0,5.0,0,10000.0,0,0,0,
2026-03-15 19:30:00,METAR LFLB 151930Z AUTO 02008KT 9999 BKN060 BKN080 OVC100 08/01 Q1018 NOSIG,0,8.0,0,10000.0,0,0,0,
2026-03-15 19:00:00,METAR LFLB 151900Z AUTO 04009KT 9999 BKN064 OVC120 08/01 Q1018 NOSIG,0,9.0,0,10000.0,0,0,0,
2026-03-15 18:30:00,METAR LFLB 151830Z AUTO 04006KT 9999 FEW056 OVC120 08/02 Q1018 NOSIG,0,6.0,0,10000.0,0,0,0,
2026-03-15 18:00:00,METAR LFLB 151800Z AUTO 03006KT 9999 BKN058 OVC120 08/02 Q1017 NOSIG,0,6.0,0,10000.0,0,0,0,
2026-03-15 17:30:00,METAR LFLB 151730Z AUTO 04006KT 9999 BKN058 OVC130 08/01 Q1017 NOSIG,0,6.0,0,10000.0,0,0,0,
2026-03-15 17:00:00,METAR LFLB 151700Z AUTO 36008KT 9999 FEW045 OVC056 09/02 Q1016 NOSIG,0,8.0,0,10000.0,0,0,0,
2026-03-15 16:30:00,METAR LFLB 151630Z AUTO 05006KT 9999 BKN046 OVC056 09/02 Q1016 NOSIG,0,6.0,0,10000.0,0,0,0,
2026-03-15 16:00:00,METAR LFLB 151600Z AUTO 06007KT 9999 BKN049 OVC056 09/01 Q1015 NOSIG,0,7.0,0,10000.0,0,0,0,
2026-03-15 15:30:00,METAR LFLB 151530Z AUTO 03011KT 9999 BKN049 OVC056 09/01 Q1015 NOSIG,0,11.0,0,10000.0,0,0,0,
2026-03-15 15:00:00,METAR LFLB 151500Z AUTO 01009KT 9999 OVC052 10/02 Q1015 NOSIG,0,9.0,0,10000.0,0,0,0,
2026-03-15 14:30:00,METAR LFLB 151430Z AUTO 01010KT 9999 OVC050 10/01 Q1014 NOSIG,0,10.0,0,10000.0,0,0,0,
2026-03-15 14:00:00,METAR LFLB 151400Z AUTO 01009KT 330V040 9999 BKN046 OVC052 10/01 Q1014 NOSIG,0,9.0,0,10000.0,0,0,0,
2026-03-15 13:30:00,METAR LFLB 151330Z AUTO 01007KT 330V030 9999 BKN045 OVC052 10/01 Q1014 NOSIG,0,7.0,0,10000.0,0,0,0,
2026-03-15 13:00:00,METAR LFLB 151300Z AUTO 01008KT 9999 BKN044 OVC050 09/01 Q1013 NOSIG,0,8.0,0,10000.0,0,0,0,
2026-03-15 12:30:00,METAR LFLB 151230Z AUTO 36009KT 320V020 9999 BKN041 OVC048 09/01 Q1013 NOSIG,0,9.0,0,10000.0,0,0,0,
2026-03-15 12:00:00,METAR LFLB 151200Z AUTO 36011KT 9999 OVC042 09/01 Q1013 NOSIG,0,11.0,0,10000.0,0,0,0,
2026-03-15 11:30:00,METAR LFLB 151130Z AUTO 36011KT 330V040 9999 BKN039 OVC047 08/01 Q1012 NOSIG,0,11.0,0,10000.0,0,0,0,
2026-03-15 11:00:00,METAR LFLB 151100Z AUTO 01011KT 9999 OVC038 08/02 Q1012 NOSIG,0,11.0,0,10000.0,0,0,0,
2026-03-15 10:30:00,METAR LFLB 151030Z AUTO 01013KT 9999 BKN038 OVC044 08/00 Q1012 NOSIG,0,13.0,0,10000.0,0,0,0,
2026-03-15 10:00:00,METAR LFLB 151000Z AUTO 03013KT 9999 BKN036 OVC043 09/02 Q1011 NOSIG,0,13.0,0,10000.0,0,0,0,
2026-03-15 09:30:00,METAR LFLB 150930Z AUTO 03016KT 9999 OVC035 08/01 Q1011 NOSIG,0,16.0,0,10000.0,0,0,0,
2026-03-15 09:00:00,METAR LFLB 150900Z AUTO 03015KT 9999 BKN034 BKN040 08/01 Q1011 NOSIG,0,15.0,0,10000.0,0,0,0,
2026-03-15 08:30:00,METAR LFLB 150830Z AUTO 03015KT 9999 BKN033 BKN039 07/01 Q1010 NOSIG,0,15.0,0,10000.0,0,0,0,
2026-03-15 08:00:00,METAR LFLB 150800Z AUTO 03015KT 9999 BKN034 OVC041 07/01 Q1010 TEMPO 36018G28KT,0,15.0,0,10000.0,0,0,0,
