Time_recorded,METAR,is_cavok,wind_speed,is_gust,visibility_meters,has_thunderstorm,has_heavy_rain,has_low_vis_fog,other_phenomenon
2026-05-02 15:35:00,METAR KBGE 021535Z AUTO 01011KT 10SM BKN010 OVC014 14/ A2992 RMK AO2 T0143////,0,11,0,16090.0,0,0,0,
2026-05-02 15:15:00,METAR KBGE 021515Z AUTO 02008KT 10SM -RA OVC010 14/ A2991 RMK AO2 T0140////,0,8,0,16090.0,0,0,0,-RA
2026-05-02 14:55:00,METAR KBGE 021455Z AUTO 03008KT 10SM -RA OVC010 14/ A2991 RMK AO2 T0136//// 60006,0,8,0,16090.0,0,0,0,-RA
2026-05-02 14:35:00,METAR KBGE 021435Z AUTO 06010KT 10SM OVC008 14/ A2988 RMK AO2 T0135////,0,10,0,16090.0,0,0,0,
2026-05-02 14:15:00,METAR KBGE 021415Z AUTO 03010KT 10SM OVC008 13/ A2988 RMK AO2 T0134////,0,10,0,16090.0,0,0,0,
2026-05-02 13:55:00,METAR KBGE 021355Z AUTO 03009KT 10SM OVC008 13/ A2989 RMK AO2 T0132////,0,9,0,16090.0,0,0,0,
2026-05-02 13:35:00,METAR KBGE 021335Z AUTO 02008KT 10SM -RA OVC006 13/ A2990 RMK AO2 T0131////,0,8,0,16090.0,0,0,0,-RA
2026-05-02 13:15:00,METAR KBGE 021315Z AUTO 04006KT 10SM OVC006 13/ A2990 RMK AO2 LTG DSNT E T0129////,0,6,0,16090.0,0,0,0,DS
2026-05-02 12:55:00,METAR KBGE 021255Z AUTO 03012KT 10SM OVC006 13/ A2988 RMK AO2 P0006 T0129////,0,12,0,16090.0,0,0,0,
2026-05-02 12:35:00,METAR KBGE 021235Z AUTO 02010KT 5SM RA OVC006 13/ A2988 RMK AO2 P0005 T0129////,0,10,0,8045.0,0,0,0,RA
2026-05-02 12:15:00,METAR KBGE 021215Z AUTO 35010KT 7SM RA OVC006 13/ A2990 RMK AO2 P0002 T0130////,0,10,0,11263.0,0,0,0,RA
2026-05-02 11:55:00,METAR KBGE 021155Z AUTO 01011KT 10SM -RA OVC004 13/ A2988 RMK AO2 P0019 T0131//// 10150 20130 60118 70267,0,11,0,16090.0,0,0,0,-RA
2026-05-02 11:35:00,METAR KBGE 021135Z AUTO 36010KT 7SM RA BKN004 OVC011 13/ A2987 RMK AO2 P0018 T0132////,0,10,0,11263.0,0,0,0,RA
2026-05-02 11:15:00,METAR KBGE 021115Z AUTO 01008KT 4SM RA BKN006 OVC026 13/ A2987 RMK AO2 LTG DSNT SE P0011 T0133////,0,8,0,6436.0,0,0,0,"DS,RA"
2026-05-02 10:55:00,METAR KBGE 021055Z AUTO 33013KT 4SM +RA BR OVC004 14/ A2989 RMK AO2 P0031 T0136////,0,13,0,6436.0,0,1,1,"+RA,BR"
2026-05-02 10:35:00,METAR KBGE 021035Z AUTO 01008KT 5SM +RA OVC004 14/ A2985 RMK AO2 P0014 T0139////,0,8,0,8045.0,0,1,0,+RA
2026-05-02 10:15:00,METAR KBGE 021015Z AUTO 04009KT 10SM RA OVC004 14/ A2983 RMK AO2 P0001 T0139////,0,9,0,16090.0,0,0,0,RA
2026-05-02 09:55:00,METAR KBGE 020955Z AUTO 04007KT 7SM -RA BKN004 OVC046 14/ A2983 RMK AO2 P0031 T0140////,0,7,0,11263.0,0,0,0,-RA
2026-05-02 09:35:00,METAR KBGE 020935Z AUTO 06005KT 7SM -RA BKN006 BKN046 OVC110 14/ A2985 RMK AO2 P0023 T0142////,0,5,0,11263.0,0,0,0,-RA
2026-05-02 09:15:00,METAR KBGE 020915Z AUTO 05005KT 5SM +RA OVC004 14/ A2985 RMK AO2 P0017 T0143////,0,5,0,8045.0,0,1,0,+RA
2026-05-02 08:55:00,METAR KBGE 020855Z AUTO 35004KT 7SM RA BKN004 OVC008 14/ A2988 RMK AO2 P0023 T0145//// 60035,0,4,0,11263.0,0,0,0,RA
2026-05-02 08:35:00,METAR KBGE 020835Z AUTO 03009KT 5SM RA BKN006 BKN016 OVC050 15/ A2984 RMK AO2 P0017 T0148////,0,9,0,8045.0,0,0,0,RA
2026-05-02 08:15:00,METAR KBGE 020815Z AUTO 02009KT 5SM RA BKN006 OVC022 15/ A2986 RMK AO2 P0004 T0150////,0,9,0,8045.0,0,0,0,RA
2026-05-02 07:55:00,METAR KBGE 020755Z AUTO 03008KT 7SM RA OVC006 15/ A2985 RMK AO2 P0005 T0149////,0,8,0,11263.0,0,0,0,RA
2026-05-02 07:35:00,METAR KBGE 020735Z AUTO 07008KT 7SM -RA OVC004 15/ A2985 RMK AO2 P0004 T0149////,0,8,0,11263.0,0,0,0,-RA
2026-05-02 07:15:00,METAR KBGE 020715Z AUTO 02004KT 10SM RA OVC004 15/ A2987 RMK AO2 P0001 T0148////,0,4,0,16090.0,0,0,0,RA
2026-05-02 06:55:00,METAR KBGE 020655Z AUTO 09006KT 10SM -RA BKN004 BKN026 OVC055 15/ A2986 RMK AO2 P0006 T0145////,0,6,0,16090.0,0,0,0,-RA
2026-05-02 06:35:00,METAR KBGE 020635Z AUTO 08006KT 5SM -RA SCT010 BKN050 OVC075 15/ A2988 RMK AO2 P0006 T0145////,0,6,0,8045.0,0,0,0,-RA
2026-05-02 06:15:00,METAR KBGE 020615Z AUTO 07007KT 7SM RA SCT007 BKN020 OVC075 15/ A2990 RMK AO2 P0002 T0145////,0,7,0,11263.0,0,0,0,RA
2026-05-02 05:55:00,METAR KBGE 020555Z AUTO 05006KT 5SM +RA BKN005 BKN016 OVC075 15/ A2992 RMK AO2 P0047 T0145//// 10169 20139 60130,0,6,0,8045.0,0,1,0,+RA
2026-05-02 05:35:00,METAR KBGE 020535Z AUTO 01005KT 3 1/2SM +RA BR BKN005 OVC012 15/ A2993 RMK AO2 P0034 T0146////,0,5,0,5632.0,0,1,1,"+RA,BR"
2026-05-02 05:15:00,METAR KBGE 020515Z AUTO 32009KT 5SM +RA OVC005 14/ A2993 RMK AO2 P0007 T0145////,0,9,0,8045.0,0,1,0,+RA
2026-05-02 04:55:00,METAR KBGE 020455Z AUTO 04010KT 5SM RA BKN007 BKN013 OVC043 14/ A2989 RMK AO2 P0016 T0142////,0,10,0,8045.0,0,0,0,RA
2026-05-02 04:35:00,METAR KBGE 020435Z AUTO 06007KT 4SM +RA BR BKN005 BKN021 OVC049 14/ A2992 RMK AO2 P0012 T0140////,0,7,0,6436.0,0,1,1,"+RA,BR"
2026-05-02 04:15:00,METAR KBGE 020415Z AUTO 33008KT 300V360 5SM -RA SCT011 BKN048 OVC050 14/ A2992 RMK AO2 P0002 T0139////,0,8,0,8045.0,0,0,0,-RA
2026-05-02 03:55:00,METAR KBGE 020355Z AUTO 04012KT 4SM +RA SCT012 BKN039 OVC050 14/ A2990 RMK AO2 P0026 T0140////,0,12,0,6436.0,0,1,0,+RA
2026-05-02 03:35:00,METAR KBGE 020335Z AUTO 04008KT 5SM RA SCT023 BKN037 OVC050 14/ A2991 RMK AO2 P0015 T0140////,0,8,0,8045.0,0,0,0,RA
2026-05-02 03:15:00,METAR KBGE 020315Z AUTO 05008KT 5SM RA SCT009 BKN023 OVC050 14/ A2992 RMK AO2 P0006 T0142////,0,8,0,8045.0,0,0,0,RA
2026-05-02 02:55:00,METAR KBGE 020255Z AUTO 03010KT 5SM -RA SCT011 BKN022 OVC050 15/ A2992 RMK AO2 P0026 T0148//// 60039,0,10,0,8045.0,0,0,0,-RA
2026-05-02 02:35:00,METAR KBGE 020235Z AUTO 01008KT 5SM +RA SCT010 BKN014 OVC023 15/ A2994 RMK AO2 P0013 T0154////,0,8,0,8045.0,0,1,0,+RA
2026-05-02 02:15:00,METAR KBGE 020215Z AUTO 04011KT 10SM -RA BKN006 BKN010 OVC025 15/ A2992 RMK AO2 T0155////,0,11,0,16090.0,0,0,0,-RA
2026-05-02 01:55:00,METAR KBGE 020155Z AUTO 01007KT 10SM -RA BKN006 OVC009 16/ A2991 RMK AO2 P0001 T0162////,0,7,0,16090.0,0,0,0,-RA
2026-05-02 01:35:00,METAR KBGE 020135Z AUTO 03007KT 7SM -RA SCT006 BKN026 OVC055 16/ A2990 RMK AO2 P0001 T0164////,0,7,0,11263.0,0,0,0,-RA
2026-05-02 01:15:00,METAR KBGE 020115Z AUTO 02006KT 10SM -RA SCT013 SCT026 OVC055 16/ A2991 RMK AO2 T0163////,0,6,0,16090.0,0,0,0,-RA
2026-05-02 00:55:00,METAR KBGE 020055Z AUTO 05007KT 10SM -RA SCT011 BKN060 OVC110 16/ A2990 RMK AO2 P0010 T0165////,0,7,0,16090.0,0,0,0,-RA
2026-05-02 00:35:00,METAR KBGE 020035Z AUTO 06009KT 5SM +RA SCT013 BKN038 OVC060 17/ A2988 RMK AO2 P0009 T0166////,0,9,0,8045.0,0,1,0,+RA
2026-05-02 00:15:00,METAR KBGE 020015Z AUTO 03007KT 4SM RA SCT007 SCT031 OVC060 17/ A2989 RMK AO2 P0005 T0166////,0,7,0,6436.0,0,0,0,RA
2026-05-01 23:55:00,METAR KBGE 012355Z AUTO 04006KT 4SM +RA BR BKN007 BKN028 OVC036 17/ A2988 RMK AO2 P0009 T0169//// 10211 20167 402570167 60019,0,6,0,6436.0,0,1,1,"+RA,BR"
2026-05-01 23:35:00,METAR KBGE 012335Z AUTO 04008KT 10SM -RA BKN007 BKN050 OVC065 17/ A2988 RMK AO2 P0004 T0170////,0,8,0,16090.0,0,0,0,-RA
2026-05-01 23:15:00,METAR KBGE 012315Z AUTO 02006KT 5SM -RA BKN007 BKN031 OVC075 17/ A2989 RMK AO2 P0003 T0171////,0,6,0,8045.0,0,0,0,-RA
2026-05-01 22:55:00,METAR KBGE 012255Z AUTO 02004KT 10SM -RA SCT031 OVC075 17/ A2991 RMK AO2 P0002 T0170////,0,4,0,16090.0,0,0,0,-RA
2026-05-01 22:35:00,METAR KBGE 012235Z AUTO 04009KT 10SM -RA SCT075 BKN085 OVC120 17/ A2987 RMK AO2 P0001 T0169////,0,9,0,16090.0,0,0,0,-RA
2026-05-01 22:15:00,METAR KBGE 012215Z AUTO 05010KT 10SM -RA SCT090 OVC120 17/ A2988 RMK AO2 P0001 T0170////,0,10,0,16090.0,0,0,0,-RA
2026-05-01 21:55:00,METAR KBGE 012155Z AUTO 04007KT 7SM -RA SCT090 OVC110 17/ A2988 RMK AO2 P0006 T0173////,0,7,0,11263.0,0,0,0,-RA
2026-05-01 21:35:00,METAR KBGE 012135Z AUTO 06005KT 10SM -RA OVC120 17/ A2989 RMK AO2 P0003 T0175////,0,5,0,16090.0,0,0,0,-RA
2026-05-01 21:15:00,METAR KBGE 012115Z AUTO 04008KT 10SM -RA OVC110 17/ A2988 RMK AO2 P0002 T0173////,0,8,0,16090.0,0,0,0,-RA
2026-05-01 21:00:00,METAR KBGE 012100Z AUTO 04008KT 10SM RA SCT035 SCT050 OVC110 17/ A2989 RMK AO2 P0001 T0175////,0,8,0,16090.0,0,0,0,RA
2026-05-01 20:35:00,METAR KBGE 012035Z AUTO 04007KT 10SM -RA SCT033 BKN050 OVC085 18/17 A2989 RMK AO2 P0001 T01760173,0,7,0,16090.0,0,0,0,-RA
2026-05-01 20:15:00,METAR KBGE 012015Z AUTO 02006KT 7SM -RA OVC031 18/17 A2992 RMK AO2 T01800168,0,6,0,11263.0,0,0,0,-RA
2026-05-01 19:55:00,METAR KBGE 011955Z AUTO 02009KT 10SM OVC029 19/15 A2992 RMK AO2 T01860149,0,9,0,16090.0,0,0,0,
2026-05-01 19:35:00,METAR KBGE 011935Z AUTO 03011KT 10SM OVC029 21/14 A2990 RMK AO2 T02060137,0,11,0,16090.0,0,0,0,
2026-05-01 19:15:00,METAR KBGE 011915Z AUTO 04011KT 10SM BKN029 BKN040 OVC050 20/13 A2992 RMK AO2 T02020134,0,11,0,16090.0,0,0,0,
2026-05-01 18:55:00,METAR KBGE 011855Z AUTO 03009KT 10SM SCT029 BKN049 OVC090 20/14 A2993 RMK AO2 T01980135,0,9,0,16090.0,0,0,0,
2026-05-01 18:35:00,METAR KBGE 011835Z AUTO 02009KT 10SM OVC029 20/13 A2994 RMK AO2 T02050135,0,9,0,16090.0,0,0,0,
2026-05-01 18:15:00,METAR KBGE 011815Z AUTO 04009KT 10SM OVC029 20/14 A2994 RMK AO2 T02020136,0,9,0,16090.0,0,0,0,
2026-05-01 17:55:00,METAR KBGE 011755Z AUTO 03011KT 10SM OVC031 20/13 A2994 RMK AO2 T02020135 10223 20181,0,11,0,16090.0,0,0,0,
2026-05-01 17:35:00,METAR KBGE 011735Z AUTO 02011KT 10SM OVC029 21/12 A2994 RMK AO2 T02130118,0,11,0,16090.0,0,0,0,
2026-05-01 17:15:00,METAR KBGE 011715Z AUTO 07012KT 10SM OVC029 21/12 A2993 RMK AO2 T02110121,0,12,0,16090.0,0,0,0,
2026-05-01 16:55:00,METAR KBGE 011655Z AUTO 06009KT 10SM OVC029 20/12 A2995 RMK AO2 T02020123,0,9,0,16090.0,0,0,0,
2026-05-01 16:35:00,METAR KBGE 011635Z AUTO 02008KT 10SM OVC029 21/13 A2996 RMK AO2 T02060125,0,8,0,16090.0,0,0,0,
2026-05-01 16:15:00,METAR KBGE 011615Z AUTO 03010KT 10SM OVC027 21/12 A2996 RMK AO2 T02080119,0,10,0,16090.0,0,0,0,
2026-05-01 15:55:00,METAR KBGE 011555Z AUTO 06008KT 10SM OVC027 22/12 A2995 RMK AO2 T02190123,0,8,0,16090.0,0,0,0,
2026-05-01 15:35:00,METAR KBGE 011535Z AUTO 05010KT 10SM OVC027 22/13 A2994 RMK AO2 T02180129,0,10,0,16090.0,0,0,0,
2026-05-01 15:15:00,METAR KBGE 011515Z AUTO 05007KT 10SM -DZ OVC027 20/13 A2995 RMK AO2 T02010126,0,7,0,16090.0,0,0,0,DZ
2026-05-01 14:55:00,METAR KBGE 011455Z AUTO 06004KT 10SM BKN027 OVC041 20/12 A2996 RMK AO2 T01970124,0,4,0,16090.0,0,0,0,
2026-05-01 14:35:00,METAR KBGE 011435Z AUTO 04006KT 10SM SCT027 OVC041 20/12 A2996 RMK AO2 T01970125,0,6,0,16090.0,0,0,0,
2026-05-01 14:15:00,METAR KBGE 011415Z AUTO 05006KT 10SM SCT041 OVC090 20/13 A2994 RMK AO2 T02000130,0,6,0,16090.0,0,0,0,
2026-05-01 13:55:00,METAR KBGE 011355Z AUTO 06007KT 10SM SCT033 BKN090 OVC110 19/13 A2994 RMK AO2 T01930135,0,7,0,16090.0,0,0,0,
2026-05-01 13:35:00,METAR KBGE 011335Z AUTO 04006KT 10SM -RA SCT037 BKN085 OVC110 18/14 A2994 RMK AO2 T01830137,0,6,0,16090.0,0,0,0,-RA
2026-05-01 13:15:00,METAR KBGE 011315Z AUTO 04006KT 10SM -RA SCT042 BKN065 OVC085 19/13 A2994 RMK AO2 T01890128,0,6,0,16090.0,0,0,0,-RA
2026-05-01 12:55:00,METAR KBGE 011255Z AUTO 03008KT 10SM -RA SCT037 SCT050 BKN065 19/13 A2994 RMK AO2 T01910133,0,8,0,16090.0,0,0,0,-RA
2026-05-01 12:35:00,METAR KBGE 011235Z AUTO 04007KT 10SM SCT100 19/13 A2993 RMK AO2 T01930127,0,7,0,16090.0,0,0,0,
2026-05-01 12:15:00,METAR KBGE 011215Z AUTO 03007KT 10SM SCT050 SCT070 SCT110 19/13 A2992 RMK AO2 T01920128,0,7,0,16090.0,0,0,0,
2026-05-01 11:55:00,METAR KBGE 011155Z AUTO 04005KT 10SM SCT055 SCT065 BKN110 19/14 A2991 RMK AO2 T01910142 10208 20189,0,5,0,16090.0,0,0,0,
2026-05-01 11:35:00,METAR KBGE 011135Z AUTO 03005KT 10SM SCT045 SCT065 BKN120 19/15 A2990 RMK AO2 T01920146,0,5,0,16090.0,0,0,0,
2026-05-01 11:15:00,METAR KBGE 011115Z AUTO 02007KT 10SM BKN043 BKN100 19/15 A2990 RMK AO2 T01920148,0,7,0,16090.0,0,0,0,
2026-05-01 10:55:00,METAR KBGE 011055Z AUTO 01006KT 10SM BKN045 BKN065 19/16 A2990 RMK AO2 T01920163,0,6,0,16090.0,0,0,0,
2026-05-01 10:35:00,METAR KBGE 011035Z AUTO 01006KT 10SM CLR 19/17 A2989 RMK AO2 T01900171,0,6,0,16090.0,0,0,0,
2026-05-01 10:15:00,METAR KBGE 011015Z AUTO 01005KT 10SM SCT120 19/17 A2988 RMK AO2 T01900175,0,5,0,16090.0,0,0,0,
2026-05-01 09:55:00,METAR KBGE 010955Z AUTO 35005KT 10SM SCT120 19/18 A2989 RMK AO2 T01920176,0,5,0,16090.0,0,0,0,
2026-05-01 09:35:00,METAR KBGE 010935Z AUTO 34005KT 10SM CLR 19/18 A2989 RMK AO2 T01930177,0,5,0,16090.0,0,0,0,
2026-05-01 09:15:00,METAR KBGE 010915Z AUTO 35003KT 10SM CLR 20/18 A2988 RMK AO2 T01950175,0,3,0,16090.0,0,0,0,
2026-05-01 08:55:00,METAR KBGE 010855Z AUTO 32003KT 10SM CLR 19/18 A2988 RMK AO2 T01950178,0,3,0,16090.0,0,0,0,
2026-05-01 08:35:00,METAR KBGE 010835Z AUTO 33004KT 10SM CLR 19/18 A2988 RMK AO2 T01910184,0,4,0,16090.0,0,0,0,
2026-05-01 08:15:00,METAR KBGE 010815Z AUTO 32005KT 10SM CLR 20/18 A2988 RMK AO2 T01970178,0,5,0,16090.0,0,0,0,
2026-05-01 07:55:00,METAR KBGE 010755Z AUTO 33005KT 10SM CLR 20/18 A2987 RMK AO2 T01990176,0,5,0,16090.0,0,0,0,
2026-05-01 07:35:00,METAR KBGE 010735Z AUTO 36005KT 10SM CLR 20/18 A2986 RMK AO2 T02020177,0,5,0,16090.0,0,0,0,
2026-05-01 07:15:00,METAR KBGE 010715Z AUTO 01004KT 10SM CLR 20/18 A2987 RMK AO2 T02030177,0,4,0,16090.0,0,0,0,
2026-05-01 06:55:00,METAR KBGE 010655Z AUTO 36004KT 10SM CLR 20/18 A2987 RMK AO2 T02050179,0,4,0,16090.0,0,0,0,
2026-05-01 06:35:00,METAR KBGE 010635Z AUTO 01003KT 10SM CLR 20/18 A2986 RMK AO2 T02040182,0,3,0,16090.0,0,0,0,
2026-05-01 06:15:00,METAR KBGE 010615Z AUTO 35003KT 10SM CLR 21/18 A2988 RMK AO2 T02070183,0,3,0,16090.0,0,0,0,
2026-05-01 05:55:00,METAR KBGE 010555Z AUTO 34004KT 10SM CLR 21/19 A2989 RMK AO2 T02080185 10257 20207,0,4,0,16090.0,0,0,0,
2026-05-01 05:35:00,METAR KBGE 010535Z AUTO 36003KT 10SM CLR 21/18 A2990 RMK AO2 T02090185,0,3,0,16090.0,0,0,0,
2026-05-01 05:15:00,METAR KBGE 010515Z AUTO 00000KT 10SM SCT095 21/18 A2989 RMK AO2 T02100185,0,0,0,16090.0,0,0,0,
2026-05-01 04:55:00,METAR KBGE 010455Z AUTO 36003KT 10SM CLR 21/18 A2990 RMK AO2 T02110184,0,3,0,16090.0,0,0,0,
2026-05-01 04:35:00,METAR KBGE 010435Z AUTO 33003KT 10SM SCT070 21/19 A2991 RMK AO2 T02130185,0,3,0,16090.0,0,0,0,
2026-05-01 04:15:00,METAR KBGE 010415Z AUTO 34005KT 10SM BKN070 22/18 A2992 RMK AO2 T02160183,0,5,0,16090.0,0,0,0,
2026-05-01 03:55:00,METAR KBGE 010355Z AUTO 32005KT 10SM BKN070 22/18 A2992 RMK AO2 T02160184,0,5,0,16090.0,0,0,0,
2026-05-01 03:35:00,METAR KBGE 010335Z AUTO 33005KT 10SM CLR 21/19 A2992 RMK AO2 T02100187,0,5,0,16090.0,0,0,0,
2026-05-01 03:15:00,METAR KBGE 010315Z AUTO 00000KT 10SM CLR 21/18 A2990 RMK AO2 T02130183,0,0,0,16090.0,0,0,0,
2026-05-01 02:55:00,METAR KBGE 010255Z AUTO 32003KT 10SM CLR 22/18 A2990 RMK AO2 T02170182,0,3,0,16090.0,0,0,0,
2026-05-01 02:35:00,METAR KBGE 010235Z AUTO 35004KT 10SM CLR 22/18 A2989 RMK AO2 T02230179,0,4,0,16090.0,0,0,0,
2026-05-01 02:15:00,METAR KBGE 010215Z AUTO 34004KT 10SM CLR 22/18 A2989 RMK AO2 T02240180,0,4,0,16090.0,0,0,0,
2026-05-01 01:55:00,METAR KBGE 010155Z AUTO 34004KT 10SM CLR 23/18 A2988 RMK AO2 T02280178,0,4,0,16090.0,0,0,0,
2026-05-01 01:40:00,METAR KBGE 010140Z AUTO 33004KT 10SM CLR 23/18 A2988 RMK AO2 T02320177,0,4,0,16090.0,0,0,0,
2026-05-01 01:15:00,METAR KBGE 010115Z AUTO 35006KT 10SM CLR 24/17 A2987 RMK AO2 T02380175,0,6,0,16090.0,0,0,0,
2026-05-01 00:55:00,METAR KBGE 010055Z AUTO 34006KT 10SM SCT041 24/17 A2986 RMK AO2 T02430174,0,6,0,16090.0,0,0,0,
2026-05-01 00:35:00,METAR KBGE 010035Z AUTO 34007KT 10SM SCT065 25/17 A2985 RMK AO2 T02480174,0,7,0,16090.0,0,0,0,
2026-05-01 00:15:00,METAR KBGE 010015Z AUTO 32005KT 10SM SCT044 SCT049 OVC065 25/17 A2983 RMK AO2 T02530173,0,5,0,16090.0,0,0,0,
2026-04-30 23:55:00,METAR KBGE 302355Z AUTO 32007KT 10SM BKN044 BKN050 BKN065 26/17 A2984 RMK AO2 T02570172 10292 20257 402920203,0,7,0,16090.0,0,0,0,
2026-04-30 23:35:00,METAR KBGE 302335Z AUTO 32007KT 10SM SCT044 SCT060 26/17 A2983 RMK AO2 T02600172,0,7,0,16090.0,0,0,0,
2026-04-30 23:15:00,METAR KBGE 302315Z AUTO 28009KT 10SM SCT042 26/17 A2982 RMK AO2 T02610171,0,9,0,16090.0,0,0,0,
2026-04-30 22:55:00,METAR KBGE 302255Z AUTO 28007KT 10SM SCT042 SCT060 27/17 A2982 RMK AO2 T02690174,0,7,0,16090.0,0,0,0,
2026-04-30 22:35:00,METAR KBGE 302235Z AUTO 31010KT 10SM SCT042 BKN060 27/17 A2982 RMK AO2 T02660173,0,10,0,16090.0,0,0,0,
2026-04-30 22:15:00,METAR KBGE 302215Z AUTO 30012KT 10SM SCT042 SCT047 OVC060 27/17 A2982 RMK AO2 T02700173,0,12,0,16090.0,0,0,0,
2026-04-30 21:55:00,METAR KBGE 302155Z AUTO 30010KT 10SM SCT044 BKN060 27/17 A2983 RMK AO2 T02730172,0,10,0,16090.0,0,0,0,
2026-04-30 21:35:00,METAR KBGE 302135Z AUTO 28012KT 10SM SCT044 BKN050 28/17 A2983 RMK AO2 T02750169,0,12,0,16090.0,0,0,0,
2026-04-30 21:15:00,METAR KBGE 302115Z AUTO 27010KT 10SM SCT042 27/17 A2983 RMK AO2 T02720168,0,10,0,16090.0,0,0,0,
2026-04-30 20:55:00,METAR KBGE 302055Z AUTO 30009KT 10SM SCT047 SCT055 27/17 A2982 RMK AO2 T02730168,0,9,0,16090.0,0,0,0,
2026-04-30 20:35:00,METAR KBGE 302035Z AUTO 29013KT 10SM SCT045 28/17 A2984 RMK AO2 T02780166,0,13,0,16090.0,0,0,0,
2026-04-30 20:15:00,METAR KBGE 302015Z AUTO 28012G16KT 10SM CLR 29/17 A2984 RMK AO2 T02860167,0,12,1,16090.0,0,0,0,
2026-04-30 19:55:00,METAR KBGE 301955Z AUTO 28009KT 250V310 10SM SCT041 SCT055 29/18 A2984 RMK AO2 T02850176,0,9,0,16090.0,0,0,0,
2026-04-30 19:35:00,METAR KBGE 301935Z AUTO 31011G15KT 10SM SCT034 BKN044 OVC090 28/17 A2985 RMK AO2 T02840173,0,11,1,16090.0,0,0,0,
2026-04-30 19:15:00,METAR KBGE 301915Z AUTO 32012KT 10SM SCT041 BKN090 OVC110 28/17 A2985 RMK AO2 T02830171,0,12,0,16090.0,0,0,0,
2026-04-30 18:55:00,METAR KBGE 301855Z AUTO 29013G17KT 10SM SCT049 SCT060 OVC110 28/17 A2986 RMK AO2 T02800167,0,13,1,16090.0,0,0,0,
2026-04-30 18:35:00,METAR KBGE 301835Z AUTO 29014KT 10SM SCT048 OVC060 28/16 A2986 RMK AO2 T02780163,0,14,0,16090.0,0,0,0,
2026-04-30 18:15:00,METAR KBGE 301815Z AUTO 27011G18KT 10SM BKN048 BKN050 28/16 A2986 RMK AO2 T02810162,0,11,1,16090.0,0,0,0,
2026-04-30 17:55:00,METAR KBGE 301755Z AUTO 27012G17KT 10SM BKN046 BKN050 29/17 A2986 RMK AO2 T02860165 10289 20206,0,12,1,16090.0,0,0,0,
2026-04-30 17:35:00,METAR KBGE 301735Z AUTO 26010G15KT 10SM BKN047 BKN055 28/17 A2986 RMK AO2 T02820170,0,10,1,16090.0,0,0,0,
2026-04-30 17:15:00,METAR KBGE 301715Z AUTO 30009G15KT 10SM SCT043 28/17 A2987 RMK AO2 T02820166,0,9,1,16090.0,0,0,0,
2026-04-30 16:55:00,METAR KBGE 301655Z AUTO 32006KT 10SM CLR 27/17 A2988 RMK AO2 T02680170,0,6,0,16090.0,0,0,0,
2026-04-30 16:35:00,METAR KBGE 301635Z AUTO 29008KT 10SM CLR 26/17 A2989 RMK AO2 T02650170,0,8,0,16090.0,0,0,0,
2026-04-30 16:15:00,METAR KBGE 301615Z AUTO 27006KT 10SM CLR 26/17 A2989 RMK AO2 T02640171,0,6,0,16090.0,0,0,0,
2026-04-30 15:55:00,METAR KBGE 301555Z AUTO 35004KT 10SM CLR 26/17 A2990 RMK AO2 T02630174,0,4,0,16090.0,0,0,0,
2026-04-30 14:55:00,METAR KBGE 301455Z AUTO 29008KT 10SM CLR 24/18 A2989 RMK AO2 T02410175,0,8,0,16090.0,0,0,0,
2026-04-30 14:35:00,METAR KBGE 301435Z AUTO 29006KT 10SM SCT023 24/18 A2989 RMK AO2 T02400180,0,6,0,16090.0,0,0,0,
2026-04-30 14:15:00,METAR KBGE 301415Z AUTO 30009KT 10SM BKN021 23/18 A2989 RMK AO2 T02330185,0,9,0,16090.0,0,0,0,
2026-04-30 13:55:00,METAR KBGE 301355Z AUTO 32011KT 10SM SCT020 SCT026 23/19 A2988 RMK AO2 T02290189,0,11,0,16090.0,0,0,0,
2026-04-30 13:35:00,METAR KBGE 301335Z AUTO 30008KT 10SM CLR 23/19 A2988 RMK AO2 T02280193,0,8,0,16090.0,0,0,0,
2026-04-30 13:15:00,METAR KBGE 301315Z AUTO 28011KT 10SM CLR 23/20 A2988 RMK AO2 T02260200,0,11,0,16090.0,0,0,0,
2026-04-30 12:55:00,METAR KBGE 301255Z AUTO 27010KT 10SM CLR 22/21 A2988 RMK AO2 T02190208,0,10,0,16090.0,0,0,0,
2026-04-30 12:35:00,METAR KBGE 301235Z AUTO 29008KT 10SM CLR 22/21 A2988 RMK AO2 T02170212,0,8,0,16090.0,0,0,0,
2026-04-30 12:15:00,METAR KBGE 301215Z AUTO 28004KT 10SM SCT055 BKN075 21/ A2987 RMK AO2 T0210////,0,4,0,16090.0,0,0,0,
2026-04-30 11:55:00,METAR KBGE 301155Z AUTO 25004KT 10SM SCT018 BKN055 OVC075 21/ A2988 RMK AO2 T0205//// 10225 20203,0,4,0,16090.0,0,0,0,
2026-04-30 11:35:00,METAR KBGE 301135Z AUTO 29006KT 10SM SCT018 SCT038 BKN055 20/ A2987 RMK AO2 T0204////,0,6,0,16090.0,0,0,0,
2026-04-30 11:15:00,METAR KBGE 301115Z AUTO 26003KT 10SM SCT120 20/ A2986 RMK AO2 T0204////,0,3,0,16090.0,0,0,0,
2026-04-30 10:55:00,METAR KBGE 301055Z AUTO 25003KT 10SM -RA BKN120 20/ A2985 RMK AO2 T0205////,0,3,0,16090.0,0,0,0,-RA
2026-04-30 10:35:00,METAR KBGE 301035Z AUTO 26003KT 10SM SCT120 20/ A2985 RMK AO2 T0205////,0,3,0,16090.0,0,0,0,
2026-04-30 10:15:00,METAR KBGE 301015Z AUTO 23004KT 10SM CLR 21/ A2985 RMK AO2 T0206////,0,4,0,16090.0,0,0,0,
2026-04-30 09:55:00,METAR KBGE 300955Z AUTO 25005KT 10SM CLR 20/ A2985 RMK AO2 T0205////,0,5,0,16090.0,0,0,0,
2026-04-30 09:35:00,METAR KBGE 300935Z AUTO 25003KT 10SM CLR 21/21 A2985 RMK AO2 T0206////,0,3,0,16090.0,0,0,0,
2026-04-30 09:15:00,METAR KBGE 300915Z AUTO 34004KT 10SM CLR 21/21 A2984 RMK AO2 T0208////,0,4,0,16090.0,0,0,0,
2026-04-30 08:55:00,METAR KBGE 300855Z AUTO 32003KT 10SM CLR 21/21 A2984 RMK AO2 T02080208,0,3,0,16090.0,0,0,0,
2026-04-30 08:35:00,METAR KBGE 300835Z AUTO 24003KT 10SM SCT120 21/ A2983 RMK AO2 T0209////,0,3,0,16090.0,0,0,0,
2026-04-30 08:15:00,METAR KBGE 300815Z AUTO 28004KT 10SM SCT120 21/21 A2984 RMK AO2 T02100210,0,4,0,16090.0,0,0,0,
2026-04-30 07:55:00,METAR KBGE 300755Z AUTO 25004KT 10SM CLR 21/21 A2984 RMK AO2 T02120212,0,4,0,16090.0,0,0,0,
2026-04-30 07:35:00,METAR KBGE 300735Z AUTO 25006KT 10SM CLR 22/ A2985 RMK AO2 T0216////,0,6,0,16090.0,0,0,0,
2026-04-30 07:15:00,METAR KBGE 300715Z AUTO 23006KT 10SM CLR 22/ A2984 RMK AO2 T0216////,0,6,0,16090.0,0,0,0,
2026-04-30 06:55:00,METAR KBGE 300655Z AUTO 22003KT 10SM SCT110 22/ A2983 RMK AO2 T0218////,0,3,0,16090.0,0,0,0,
2026-04-30 06:35:00,METAR KBGE 300635Z AUTO 23003KT 10SM SCT110 22/ A2985 RMK AO2 T0221////,0,3,0,16090.0,0,0,0,
2026-04-30 06:15:00,METAR KBGE 300615Z AUTO 24006KT 10SM CLR 22/ A2987 RMK AO2 LTG DSNT N T0223////,0,6,0,16090.0,0,0,0,DS
2026-04-30 05:55:00,METAR KBGE 300555Z AUTO 24007KT 10SM SCT009 SCT013 22/ A2988 RMK AO2 T0225//// 10279 20225,0,7,0,16090.0,0,0,0,
2026-04-30 05:35:00,METAR KBGE 300535Z AUTO 25010KT 10SM SCT009 SCT120 23/ A2991 RMK AO2 T0226////,0,10,0,16090.0,0,0,0,
2026-04-30 05:15:00,METAR KBGE 300515Z AUTO 23009KT 10SM SCT011 23/ A2989 RMK AO2 T0226////,0,9,0,16090.0,0,0,0,
2026-04-30 04:55:00,METAR KBGE 300455Z AUTO 22007KT 10SM OVC011 23/23 A2988 RMK AO2 T02290229,0,7,0,16090.0,0,0,0,
2026-04-30 04:35:00,METAR KBGE 300435Z AUTO 25007KT 10SM BKN013 23/23 A2991 RMK AO2 T02290228,0,7,0,16090.0,0,0,0,
2026-04-30 04:15:00,METAR KBGE 300415Z AUTO 23008KT 10SM CLR 23/23 A2991 RMK AO2 T02290227,0,8,0,16090.0,0,0,0,
2026-04-30 03:55:00,METAR KBGE 300355Z AUTO 24010KT 10SM CLR 23/23 A2992 RMK AO2 T02300226,0,10,0,16090.0,0,0,0,
2026-04-30 03:35:00,METAR KBGE 300335Z AUTO 23011KT 10SM CLR 23/23 A2991 RMK AO2 T02290225,0,11,0,16090.0,0,0,0,
2026-04-30 03:15:00,METAR KBGE 300315Z AUTO 23009KT 10SM CLR 23/23 A2993 RMK AO2 T02280226,0,9,0,16090.0,0,0,0,
2026-04-30 02:55:00,METAR KBGE 300255Z AUTO 23008KT 10SM SCT045 SCT050 SCT060 23/23 A2994 RMK AO2 T02290227,0,8,0,16090.0,0,0,0,
2026-04-30 02:35:00,METAR KBGE 300235Z AUTO 24006KT 10SM SCT043 OVC050 23/23 A2994 RMK AO2 T0229////,0,6,0,16090.0,0,0,0,
2026-04-30 02:15:00,METAR KBGE 300215Z AUTO 27006KT 10SM -RA BKN060 BKN120 23/23 A2995 RMK AO2 T02290229,0,6,0,16090.0,0,0,0,-RA
2026-04-30 01:55:00,METAR KBGE 300155Z AUTO 28008KT 10SM -RA SCT024 SCT060 BKN120 23/23 A2994 RMK AO2 T02310228,0,8,0,16090.0,0,0,0,-RA
2026-04-30 01:35:00,METAR KBGE 300135Z AUTO 27014KT 10SM -RA BKN120 24/21 A2993 RMK AO2 T02450214,0,14,0,16090.0,0,0,0,-RA
2026-04-30 01:15:00,METAR KBGE 300115Z AUTO 25007KT 10SM SCT120 24/22 A2992 RMK AO2 LTG DSNT NW T02450217,0,7,0,16090.0,0,0,0,DS
2026-04-30 00:55:00,METAR KBGE 300055Z AUTO 27008KT 10SM -RA SCT060 SCT070 SCT110 24/22 A2990 RMK AO2 T02400223,0,8,0,16090.0,0,0,0,-RA
2026-04-30 00:35:00,METAR KBGE 300035Z AUTO 27012KT 10SM -RA SCT060 BKN070 OVC110 25/21 A2988 RMK AO2 T02540207,0,12,0,16090.0,0,0,0,-RA
2026-04-30 00:15:00,METAR KBGE 300015Z AUTO 27012G17KT 10SM SCT046 OVC070 27/19 A2988 RMK AO2 LTG DSNT NW T02730192,0,12,1,16090.0,0,0,0,DS
2026-04-29 23:55:00,METAR KBGE 292355Z AUTO 27014KT 10SM SCT046 BKN070 28/19 A2988 RMK AO2 T02810185 10331 20279 403310188,0,14,0,16090.0,0,0,0,
2026-04-29 23:35:00,METAR KBGE 292335Z AUTO 31010KT 10SM SCT070 29/18 A2987 RMK AO2 T02860178,0,10,0,16090.0,0,0,0,
2026-04-29 23:15:00,METAR KBGE 292315Z AUTO 32009KT 10SM CLR 29/18 A2986 RMK AO2 T02890177,0,9,0,16090.0,0,0,0,
2026-04-29 22:55:00,METAR KBGE 292255Z AUTO 30010KT 10SM CLR 30/17 A2985 RMK AO2 T02960173,0,10,0,16090.0,0,0,0,
2026-04-29 22:35:00,METAR KBGE 292235Z AUTO 30010KT 10SM CLR 30/17 A2984 RMK AO2 T03020168,0,10,0,16090.0,0,0,0,
2026-04-29 22:15:00,METAR KBGE 292215Z AUTO 29012KT 10SM CLR 30/17 A2985 RMK AO2 T03010168,0,12,0,16090.0,0,0,0,
2026-04-29 21:55:00,METAR KBGE 292155Z AUTO 31015KT 10SM SCT110 31/17 A2985 RMK AO2 T03130171,0,15,0,16090.0,0,0,0,
2026-04-29 21:35:00,METAR KBGE 292135Z AUTO 28011KT 10SM SCT110 30/16 A2986 RMK AO2 T02990164,0,11,0,16090.0,0,0,0,
2026-04-29 21:15:00,METAR KBGE 292115Z AUTO 27009KT 10SM CLR 30/16 A2985 RMK AO2 T03000160,0,9,0,16090.0,0,0,0,
2026-04-29 20:55:00,METAR KBGE 292055Z AUTO 29015KT 10SM CLR 32/16 A2986 RMK AO2 T03240160,0,15,0,16090.0,0,0,0,
2026-04-29 20:35:00,METAR KBGE 292035Z AUTO 27015G18KT 10SM CLR 32/16 A2986 RMK AO2 T03170161,0,15,1,16090.0,0,0,0,
2026-04-29 20:15:00,METAR KBGE 292015Z AUTO 24015G19KT 10SM CLR 32/16 A2987 RMK AO2 T03250161,0,15,1,16090.0,0,0,0,
2026-04-29 19:55:00,METAR KBGE 291955Z AUTO 24010KT 10SM CLR 33/16 A2988 RMK AO2 T03270161,0,10,0,16090.0,0,0,0,
2026-04-29 19:35:00,METAR KBGE 291935Z AUTO 24014G18KT 10SM CLR 33/17 A2990 RMK AO2 T03270167,0,14,1,16090.0,0,0,0,
2026-04-29 19:15:00,METAR KBGE 291915Z AUTO 23014G18KT 10SM CLR 32/17 A2991 RMK AO2 T03180168,0,14,1,16090.0,0,0,0,
2026-04-29 18:55:00,METAR KBGE 291855Z AUTO 25013G17KT 10SM CLR 32/17 A2992 RMK AO2 T03200169,0,13,1,16090.0,0,0,0,
2026-04-29 18:35:00,METAR KBGE 291835Z AUTO 22013G20KT 10SM CLR 32/17 A2992 RMK AO2 T03160169,0,13,1,16090.0,0,0,0,
2026-04-29 18:15:00,METAR KBGE 291815Z AUTO 24013G18KT 10SM CLR 31/16 A2993 RMK AO2 T03120164,0,13,1,16090.0,0,0,0,
2026-04-29 17:55:00,METAR KBGE 291755Z AUTO 26012G21KT 10SM CLR 31/16 A2994 RMK AO2 T03100165 10311 20193,0,12,1,16090.0,0,0,0,
2026-04-29 17:35:00,METAR KBGE 291735Z AUTO 21010G17KT 10SM CLR 30/17 A2995 RMK AO2 T03020172,0,10,1,16090.0,0,0,0,
2026-04-29 17:15:00,METAR KBGE 291715Z AUTO 26010KT 200V270 10SM CLR 30/17 A2997 RMK AO2 T03050174,0,10,0,16090.0,0,0,0,
2026-04-29 16:55:00,METAR KBGE 291655Z AUTO 25013G18KT 10SM CLR 29/17 A2998 RMK AO2 T02950172,0,13,1,16090.0,0,0,0,
2026-04-29 16:35:00,METAR KBGE 291635Z AUTO 27009KT 10SM CLR 29/17 A3000 RMK AO2 T02930172,0,9,0,16090.0,0,0,0,
2026-04-29 16:15:00,METAR KBGE 291615Z AUTO 26011KT 10SM CLR 29/17 A3002 RMK AO2 T02850170,0,11,0,16090.0,0,0,0,
2026-04-29 15:55:00,METAR KBGE 291555Z AUTO 22010KT 10SM CLR 28/18 A3002 RMK AO2 T02780176,0,10,0,16090.0,0,0,0,
2026-04-29 15:35:00,METAR KBGE 291535Z AUTO 21008KT 10SM CLR 27/18 A3003 RMK AO2 T02720180,0,8,0,16090.0,0,0,0,
2026-04-29 15:15:00,METAR KBGE 291515Z AUTO 21007KT 10SM SCT110 26/18 A3004 RMK AO2 T02600179,0,7,0,16090.0,0,0,0,
2026-04-29 14:55:00,METAR KBGE 291455Z AUTO 23005KT 10SM SCT110 25/18 A3005 RMK AO2 T02510176,0,5,0,16090.0,0,0,0,
2026-04-29 14:35:00,METAR KBGE 291435Z AUTO 20005KT 10SM CLR 25/19 A3004 RMK AO2 T02520187,0,5,0,16090.0,0,0,0,
2026-04-29 14:15:00,METAR KBGE 291415Z AUTO 19005KT 10SM CLR 24/19 A3004 RMK AO2 T02430189,0,5,0,16090.0,0,0,0,
2026-04-29 13:55:00,METAR KBGE 291355Z AUTO 24003KT 10SM CLR 23/19 A3005 RMK AO2 T02300194,0,3,0,16090.0,0,0,0,
2026-04-29 13:35:00,METAR KBGE 291335Z AUTO 18003KT 10SM CLR 22/20 A3006 RMK AO2 T02170195,0,3,0,16090.0,0,0,0,
2026-04-29 13:15:00,METAR KBGE 291315Z AUTO 14004KT 10SM CLR 21/19 A3005 RMK AO2 T02100193,0,4,0,16090.0,0,0,0,
2026-04-29 12:55:00,METAR KBGE 291255Z AUTO 15004KT 10SM CLR 20/19 A3005 RMK AO2 T02020193,0,4,0,16090.0,0,0,0,
2026-04-29 12:35:00,METAR KBGE 291235Z AUTO 00000KT 10SM SCT070 SCT090 SCT120 20/19 A3006 RMK AO2 T01990193,0,0,0,16090.0,0,0,0,
2026-04-29 12:15:00,METAR KBGE 291215Z AUTO 19004KT 10SM SCT120 20/19 A3005 RMK AO2 LTG DSNT NW T01960193,0,4,0,16090.0,0,0,0,DS
2026-04-29 11:55:00,METAR KBGE 291155Z AUTO 18008KT 10SM BKN120 19/ A3003 RMK AO2 LTG DSNT NW T0193//// 10210 20188,0,8,0,16090.0,0,0,0,DS
2026-04-29 11:35:00,METAR KBGE 291135Z AUTO 12004KT 10SM BKN120 19/ A3005 RMK AO2 T0190////,0,4,0,16090.0,0,0,0,
2026-04-29 11:15:00,METAR KBGE 291115Z AUTO 08003KT 10SM SCT120 19/19 A3005 RMK AO2 T0189////,0,3,0,16090.0,0,0,0,
2026-04-29 10:55:00,METAR KBGE 291055Z AUTO 07004KT 10SM SCT110 19/19 A3005 RMK AO2 T01930192,0,4,0,16090.0,0,0,0,
2026-04-29 10:35:00,METAR KBGE 291035Z AUTO 05004KT 10SM SCT060 SCT110 19/19 A3005 RMK AO2 T01930190,0,4,0,16090.0,0,0,0,
2026-04-29 10:15:00,METAR KBGE 291015Z AUTO 05005KT 10SM SCT060 SCT110 19/19 A3005 RMK AO2 T01950189,0,5,0,16090.0,0,0,0,
2026-04-29 09:55:00,METAR KBGE 290955Z AUTO 04007KT 10SM SCT065 SCT075 20/19 A3005 RMK AO2 LTG DSNT N T01970187,0,7,0,16090.0,0,0,0,DS
2026-04-29 09:35:00,METAR KBGE 290935Z AUTO 35011KT 10SM BKN065 BKN075 20/18 A3008 RMK AO2 LTG DSNT NW T02020184,0,11,0,16090.0,0,0,0,DS
2026-04-29 09:15:00,METAR KBGE 290915Z AUTO 33014KT 10SM CLR 20/18 A3007 RMK AO2 T01990183,0,14,0,16090.0,0,0,0,
2026-04-29 08:55:00,METAR KBGE 290855Z AUTO 18004KT 10SM CLR 19/18 A2998 RMK AO2 T01950182,0,4,0,16090.0,0,0,0,
2026-04-29 08:35:00,METAR KBGE 290835Z AUTO 16004KT 10SM VCTS CLR 19/18 A2998 RMK AO2 T01890184,0,4,0,16090.0,1,0,0,"TS,VC"
2026-04-29 08:15:00,METAR KBGE 290815Z AUTO 16004KT 10SM CLR 19/18 A2998 RMK AO2 LTG DSNT NW T01900182,0,4,0,16090.0,0,0,0,DS
2026-04-29 07:55:00,METAR KBGE 290755Z AUTO 15003KT 10SM CLR 19/18 A2998 RMK AO2 LTG DSNT NW T01940182,0,3,0,16090.0,0,0,0,DS
2026-04-29 07:35:00,METAR KBGE 290735Z AUTO 13005KT 10SM CLR 20/18 A2998 RMK AO2 T01960182,0,5,0,16090.0,0,0,0,
2026-04-29 07:15:00,METAR KBGE 290715Z AUTO 13005KT 10SM CLR 20/18 A2999 RMK AO2 T02000182,0,5,0,16090.0,0,0,0,
2026-04-29 06:55:00,METAR KBGE 290655Z AUTO 13005KT 10SM CLR 20/18 A3000 RMK AO2 T02010182,0,5,0,16090.0,0,0,0,
2026-04-29 06:35:00,METAR KBGE 290635Z AUTO 11005KT 10SM CLR 20/18 A3000 RMK AO2 T02020181,0,5,0,16090.0,0,0,0,
2026-04-29 06:15:00,METAR KBGE 290615Z AUTO 08006KT 10SM CLR 21/18 A3001 RMK AO2 T02060182,0,6,0,16090.0,0,0,0,
2026-04-29 05:55:00,METAR KBGE 290555Z AUTO 05007KT 10SM CLR 21/18 A3004 RMK AO2 T02100180 10266 20210,0,7,0,16090.0,0,0,0,
2026-04-29 05:35:00,METAR KBGE 290535Z AUTO 02008KT 10SM CLR 21/18 A3005 RMK AO2 T02140177,0,8,0,16090.0,0,0,0,
2026-04-29 05:15:00,METAR KBGE 290515Z AUTO 36016KT 10SM CLR 22/18 A3007 RMK AO2 T02230177,0,16,0,16090.0,0,0,0,
2026-04-29 04:55:00,METAR KBGE 290455Z AUTO 34010KT 10SM CLR 23/19 A3007 RMK AO2 LTG DSNT N T02320194,0,10,0,16090.0,0,0,0,DS
2026-04-29 04:35:00,METAR KBGE 290435Z AUTO 33010KT 10SM CLR 23/20 A3009 RMK AO2 T02310196,0,10,0,16090.0,0,0,0,
2026-04-29 04:15:00,METAR KBGE 290415Z AUTO 32009KT 10SM CLR 23/20 A3007 RMK AO2 LTG DSNT N AND NW T02280202,0,9,0,16090.0,0,0,0,DS
2026-04-29 03:55:00,METAR KBGE 290355Z AUTO 30004KT 10SM CLR 23/20 A3004 RMK AO2 T02260201,0,4,0,16090.0,0,0,0,
2026-04-29 03:35:00,METAR KBGE 290335Z AUTO 27007KT 10SM CLR 23/20 A3004 RMK AO2 LTG DSNT NW T02320198,0,7,0,16090.0,0,0,0,DS
2026-04-29 03:15:00,METAR KBGE 290315Z AUTO 24005KT 10SM CLR 24/20 A3003 RMK AO2 T02360197,0,5,0,16090.0,0,0,0,
2026-04-29 02:55:00,METAR KBGE 290255Z AUTO 26005KT 10SM CLR 24/19 A3004 RMK AO2 LTG DSNT NW T02380186,0,5,0,16090.0,0,0,0,DS
2026-04-29 02:35:00,METAR KBGE 290235Z AUTO 22005KT 10SM CLR 24/17 A3003 RMK AO2 LTG DSNT NW T02420166,0,5,0,16090.0,0,0,0,DS
2026-04-29 02:15:00,METAR KBGE 290215Z AUTO 23008KT 10SM CLR 23/16 A3004 RMK AO2 T02340163,0,8,0,16090.0,0,0,0,
2026-04-29 01:55:00,METAR KBGE 290155Z AUTO 00000KT 10SM CLR 24/16 A3004 RMK AO2 T02400160,0,0,0,16090.0,0,0,0,
2026-04-29 01:35:00,METAR KBGE 290135Z AUTO 09003KT 10SM CLR 24/16 A3004 RMK AO2 T02410159,0,3,0,16090.0,0,0,0,
2026-04-29 01:15:00,METAR KBGE 290115Z AUTO 09003KT 10SM CLR 25/15 A3005 RMK AO2 T02480155,0,3,0,16090.0,0,0,0,
2026-04-29 00:55:00,METAR KBGE 290055Z AUTO 08005KT 10SM CLR 25/16 A3005 RMK AO2 T02490155,0,5,0,16090.0,0,0,0,
2026-04-29 00:35:00,METAR KBGE 290035Z AUTO 06006KT 10SM CLR 25/15 A3005 RMK AO2 T02550152,0,6,0,16090.0,0,0,0,
2026-04-29 00:15:00,METAR KBGE 290015Z AUTO 09005KT 10SM CLR 25/15 A3005 RMK AO2 T02550147,0,5,0,16090.0,0,0,0,
2026-04-28 23:55:00,METAR KBGE 282355Z AUTO 08006KT 10SM BKN090 27/15 A3005 RMK AO2 T02680146 10302 20267 403020141,0,6,0,16090.0,0,0,0,
2026-04-28 23:35:00,METAR KBGE 282335Z AUTO 08005KT 10SM OVC090 28/14 A3006 RMK AO2 LTG DSNT NW T02760143,0,5,0,16090.0,0,0,0,DS
2026-04-28 23:15:00,METAR KBGE 282315Z AUTO 09005KT 10SM OVC080 28/15 A3006 RMK AO2 T02790145,0,5,0,16090.0,0,0,0,
2026-04-28 22:55:00,METAR KBGE 282255Z AUTO 10003KT 10SM OVC080 28/14 A3006 RMK AO2 T02800144,0,3,0,16090.0,0,0,0,
2026-04-28 22:35:00,METAR KBGE 282235Z AUTO 11005KT 10SM SCT080 28/15 A3006 RMK AO2 LTG DSNT NW T02840149,0,5,0,16090.0,0,0,0,DS
2026-04-28 22:15:00,METAR KBGE 282215Z AUTO 10006KT 10SM CLR 29/15 A3007 RMK AO2 T02880149,0,6,0,16090.0,0,0,0,
2026-04-28 21:55:00,METAR KBGE 282155Z AUTO 10008KT 040V110 10SM SCT055 29/15 A3007 RMK AO2 T02910150,0,8,0,16090.0,0,0,0,
2026-04-28 21:35:00,METAR KBGE 282135Z AUTO 08011G14KT 10SM CLR 30/15 A3007 RMK AO2 LTG DSNT NW T02980152,0,11,1,16090.0,0,0,0,DS
2026-04-28 21:15:00,METAR KBGE 282115Z AUTO 08012KT 10SM SCT055 29/15 A3008 RMK AO2 LTG DSNT N AND NW T02930151,0,12,0,16090.0,0,0,0,DS
2026-04-28 20:55:00,METAR KBGE 282055Z AUTO 09007KT 060V130 10SM SCT055 29/15 A3009 RMK AO2 T02910149,0,7,0,16090.0,0,0,0,
2026-04-28 20:35:00,METAR KBGE 282035Z AUTO 10009KT 10SM CLR 29/15 A3009 RMK AO2 T02930152,0,9,0,16090.0,0,0,0,
2026-04-28 20:15:00,METAR KBGE 282015Z AUTO 09010KT 10SM SCT050 SCT090 28/15 A3011 RMK AO2 T02830150,0,10,0,16090.0,0,0,0,
2026-04-28 19:55:00,METAR KBGE 281955Z AUTO 05009G18KT 030V090 10SM SCT050 BKN090 29/15 A3011 RMK AO2 T02930152,0,9,1,16090.0,0,0,0,
2026-04-28 19:35:00,METAR KBGE 281935Z AUTO 10007G16KT 10SM CLR 30/15 A3012 RMK AO2 T02960153,0,7,1,16090.0,0,0,0,
2026-04-28 19:15:00,METAR KBGE 281915Z AUTO 04010G17KT 10SM CLR 29/15 A3013 RMK AO2 T02920155,0,10,1,16090.0,0,0,0,
2026-04-28 18:55:00,METAR KBGE 281855Z AUTO 07013KT 10SM SCT055 28/15 A3014 RMK AO2 T02820153,0,13,0,16090.0,0,0,0,
2026-04-28 18:35:00,METAR KBGE 281835Z AUTO 07011KT 10SM BKN055 27/15 A3017 RMK AO2 T02740153,0,11,0,16090.0,0,0,0,
2026-04-28 18:15:00,METAR KBGE 281815Z AUTO 04013G17KT 10SM SCT055 28/16 A3016 RMK AO2 T02820155,0,13,1,16090.0,0,0,0,
2026-04-28 17:55:00,METAR KBGE 281755Z AUTO 05014KT 10SM SCT055 27/16 A3017 RMK AO2 LTG DSNT N AND NW T02740156 10288 20159,0,14,0,16090.0,0,0,0,DS
2026-04-28 17:35:00,METAR KBGE 281735Z AUTO 06014KT 10SM SCT055 SCT090 29/16 A3018 RMK AO2 T02870160,0,14,0,16090.0,0,0,0,
2026-04-28 17:15:00,METAR KBGE 281715Z AUTO 07008KT 10SM SCT090 28/16 A3018 RMK AO2 T02790158,0,8,0,16090.0,0,0,0,
2026-04-28 16:55:00,METAR KBGE 281655Z AUTO 06010KT 10SM SCT090 27/16 A3019 RMK AO2 LTG DSNT NW T02740157,0,10,0,16090.0,0,0,0,DS
2026-04-28 16:35:00,METAR KBGE 281635Z AUTO 16003KT 10SM CLR 27/16 A3019 RMK AO2 T02730161,0,3,0,16090.0,0,0,0,
2026-04-28 16:15:00,METAR KBGE 281615Z AUTO 08004KT 10SM CLR 26/16 A3018 RMK AO2 T02620159,0,4,0,16090.0,0,0,0,
2026-04-28 15:55:00,METAR KBGE 281555Z AUTO 12006KT 10SM CLR 26/16 A3018 RMK AO2 T02590158,0,6,0,16090.0,0,0,0,
2026-04-28 15:35:00,METAR KBGE 281535Z AUTO 12004KT 10SM CLR 25/16 A3017 RMK AO2 T02500157,0,4,0,16090.0,0,0,0,
2026-04-28 15:15:00,METAR KBGE 281515Z AUTO 19006KT 10SM CLR 25/16 A3017 RMK AO2 T02480158,0,6,0,16090.0,0,0,0,
2026-04-28 14:55:00,METAR KBGE 281455Z AUTO 17009KT 10SM CLR 24/16 A3017 RMK AO2 T02450158,0,9,0,16090.0,0,0,0,
2026-04-28 14:35:00,METAR KBGE 281435Z AUTO 18010KT 10SM CLR 24/16 A3016 RMK AO2 T02360160,0,10,0,16090.0,0,0,0,
2026-04-28 14:15:00,METAR KBGE 281415Z AUTO 19008KT 10SM CLR 22/16 A3017 RMK AO2 T02230162,0,8,0,16090.0,0,0,0,
2026-04-28 13:55:00,METAR KBGE 281355Z AUTO 17008KT 10SM CLR 21/16 A3017 RMK AO2 T02120160,0,8,0,16090.0,0,0,0,
2026-04-28 13:35:00,METAR KBGE 281335Z AUTO 14005KT 10SM CLR 20/16 A3018 RMK AO2 T02030163,0,5,0,16090.0,0,0,0,
2026-04-28 13:15:00,METAR KBGE 281315Z AUTO 14006KT 10SM CLR 19/16 A3017 RMK AO2 T01950160,0,6,0,16090.0,0,0,0,
2026-04-28 12:55:00,METAR KBGE 281255Z AUTO 13006KT 10SM CLR 18/16 A3017 RMK AO2 T01830160,0,6,0,16090.0,0,0,0,
2026-04-28 12:35:00,METAR KBGE 281235Z AUTO 14006KT 10SM CLR 17/16 A3016 RMK AO2 T01740160,0,6,0,16090.0,0,0,0,
2026-04-28 12:15:00,METAR KBGE 281215Z AUTO 12006KT 10SM CLR 16/16 A3014 RMK AO2 T01640161,0,6,0,16090.0,0,0,0,
2026-04-28 11:55:00,METAR KBGE 281155Z AUTO 12008KT 10SM CLR 16/ A3013 RMK AO2 T0159//// 10195 20141,0,8,0,16090.0,0,0,0,
2026-04-28 11:35:00,METAR KBGE 281135Z AUTO 10005KT 10SM CLR 15/ A3014 RMK AO2 LTG DSNT N T0151////,0,5,0,16090.0,0,0,0,DS
2026-04-28 11:15:00,METAR KBGE 281115Z AUTO 07005KT 10SM CLR 15/ A3015 RMK AO2 T0146////,0,5,0,16090.0,0,0,0,
2026-04-28 10:55:00,METAR KBGE 281055Z AUTO 11004KT 10SM CLR 14/ A3014 RMK AO2 T0142////,0,4,0,16090.0,0,0,0,
2026-04-28 10:35:00,METAR KBGE 281035Z AUTO 11004KT 10SM CLR 14/ A3013 RMK AO2 T0144////,0,4,0,16090.0,0,0,0,
2026-04-28 10:15:00,METAR KBGE 281015Z AUTO 08005KT 10SM CLR 15/ A3013 RMK AO2 T0150////,0,5,0,16090.0,0,0,0,
2026-04-28 09:55:00,METAR KBGE 280955Z AUTO 11003KT 10SM CLR 16/16 A3011 RMK AO2 T01570156,0,3,0,16090.0,0,0,0,
2026-04-28 09:35:00,METAR KBGE 280935Z AUTO 13007KT 10SM CLR 16/16 A3010 RMK AO2 T01610158,0,7,0,16090.0,0,0,0,
2026-04-28 09:15:00,METAR KBGE 280915Z AUTO 13006KT 10SM CLR 16/16 A3010 RMK AO2 T01620158,0,6,0,16090.0,0,0,0,
2026-04-28 08:55:00,METAR KBGE 280855Z AUTO 14007KT 10SM CLR 16/16 A3010 RMK AO2 T01640157,0,7,0,16090.0,0,0,0,
2026-04-28 08:35:00,METAR KBGE 280835Z AUTO 14006KT 10SM CLR 17/16 A3010 RMK AO2 T01660157,0,6,0,16090.0,0,0,0,
2026-04-28 08:15:00,METAR KBGE 280815Z AUTO 13007KT 10SM CLR 17/16 A3010 RMK AO2 T01710156,0,7,0,16090.0,0,0,0,
2026-04-28 07:55:00,METAR KBGE 280755Z AUTO 14009KT 10SM CLR 17/16 A3010 RMK AO2 T01730155,0,9,0,16090.0,0,0,0,
2026-04-28 07:35:00,METAR KBGE 280735Z AUTO 13009KT 10SM CLR 18/16 A3010 RMK AO2,0,9,0,16090.0,0,0,0,
2026-04-28 07:15:00,METAR KBGE 280715Z AUTO 13009KT 10SM CLR 18/15 A3010 RMK AO2 T01800155,0,9,0,16090.0,0,0,0,
2026-04-28 06:55:00,METAR KBGE 280655Z AUTO 13010KT 10SM CLR 18/15 A3010 RMK AO2 T01830154,0,10,0,16090.0,0,0,0,
2026-04-28 06:35:00,METAR KBGE 280635Z AUTO 13009KT 10SM CLR 18/15 A3010 RMK AO2 T01850154,0,9,0,16090.0,0,0,0,
2026-04-28 06:15:00,METAR KBGE 280615Z AUTO 13010KT 10SM CLR 19/15 A3011 RMK AO2 T01900154,0,10,0,16090.0,0,0,0,
2026-04-28 05:55:00,METAR KBGE 280555Z AUTO 13012KT 10SM CLR 19/15 A3011 RMK AO2 T01950153 10256 20195,0,12,0,16090.0,0,0,0,
2026-04-28 05:35:00,METAR KBGE 280535Z AUTO 14015KT 10SM CLR 20/15 A3011 RMK AO2 T01990153,0,15,0,16090.0,0,0,0,
2026-04-28 05:15:00,METAR KBGE 280515Z AUTO 13008KT 10SM CLR 20/15 A3011 RMK AO2 T02020150,0,8,0,16090.0,0,0,0,
2026-04-28 04:55:00,METAR KBGE 280455Z AUTO 13010KT 10SM CLR 20/15 A3011 RMK AO2 T02030147,0,10,0,16090.0,0,0,0,
2026-04-28 04:35:00,METAR KBGE 280435Z AUTO 13007KT 10SM CLR 20/14 A3011 RMK AO2 T02020143,0,7,0,16090.0,0,0,0,
2026-04-28 04:15:00,METAR KBGE 280415Z AUTO 12007KT 10SM CLR 21/14 A3011 RMK AO2 T02050142,0,7,0,16090.0,0,0,0,
2026-04-28 03:55:00,METAR KBGE 280355Z AUTO 12007KT 10SM CLR 21/14 A3011 RMK AO2 T02090144,0,7,0,16090.0,0,0,0,
2026-04-28 03:35:00,METAR KBGE 280335Z AUTO 12009KT 10SM CLR 21/15 A3011 RMK AO2 T02120146,0,9,0,16090.0,0,0,0,
2026-04-28 03:15:00,METAR KBGE 280315Z AUTO 12008KT 10SM CLR 21/15 A3011 RMK AO2 T02140150,0,8,0,16090.0,0,0,0,
2026-04-28 02:55:00,METAR KBGE 280255Z AUTO 12009KT 10SM CLR 22/15 A3011 RMK AO2 T02170154,0,9,0,16090.0,0,0,0,
2026-04-28 02:35:00,METAR KBGE 280235Z AUTO 11006KT 10SM CLR 20/16 A3011 RMK AO2 T02010161,0,6,0,16090.0,0,0,0,
2026-04-28 02:15:00,METAR KBGE 280215Z AUTO 11004KT 10SM CLR 21/16 A3010 RMK AO2 T02120157,0,4,0,16090.0,0,0,0,
2026-04-28 01:55:00,METAR KBGE 280155Z AUTO 11004KT 10SM CLR 22/16 A3010 RMK AO2 T02170156,0,4,0,16090.0,0,0,0,
2026-04-28 01:35:00,METAR KBGE 280135Z AUTO 12005KT 10SM CLR 22/16 A3009 RMK AO2 T02200156,0,5,0,16090.0,0,0,0,
2026-04-28 01:15:00,METAR KBGE 280115Z AUTO 12006KT 10SM CLR 23/16 A3009 RMK AO2 T02260156,0,6,0,16090.0,0,0,0,
2026-04-28 00:55:00,METAR KBGE 280055Z AUTO 11005KT 10SM CLR 23/16 A3008 RMK AO2 T02300157,0,5,0,16090.0,0,0,0,
2026-04-28 00:35:00,METAR KBGE 280035Z AUTO 11006KT 10SM CLR 23/16 A3007 RMK AO2 T02300156,0,6,0,16090.0,0,0,0,
2026-04-28 00:15:00,METAR KBGE 280015Z AUTO 09007KT 10SM CLR 24/15 A3007 RMK AO2 T02420154,0,7,0,16090.0,0,0,0,
2026-04-27 23:55:00,METAR KBGE 272355Z AUTO 08007KT 10SM CLR 26/15 A3007 RMK AO2 T02590152 10293 20257 402930170,0,7,0,16090.0,0,0,0,
2026-04-27 23:35:00,METAR KBGE 272335Z AUTO 09008KT 10SM CLR 27/15 A3007 RMK AO2 T02660153,0,8,0,16090.0,0,0,0,
2026-04-27 23:15:00,METAR KBGE 272315Z AUTO 09009KT 10SM CLR 27/15 A3006 RMK AO2 T02720155,0,9,0,16090.0,0,0,0,
2026-04-27 22:55:00,METAR KBGE 272255Z AUTO 09011G15KT 10SM CLR 28/16 A3006 RMK AO2 T02790157,0,11,1,16090.0,0,0,0,
2026-04-27 22:35:00,METAR KBGE 272235Z AUTO 08009KT 10SM CLR 28/15 A3005 RMK AO2 T02850155,0,9,0,16090.0,0,0,0,
2026-04-27 22:15:00,METAR KBGE 272215Z AUTO 09007KT 10SM CLR 28/15 A3005 RMK AO2 T02840150,0,7,0,16090.0,0,0,0,
2026-04-27 21:55:00,METAR KBGE 272155Z AUTO 04005KT 10SM CLR 28/15 A3005 RMK AO2 T02830154,0,5,0,16090.0,0,0,0,
2026-04-27 21:35:00,METAR KBGE 272135Z AUTO 08006KT 10SM CLR 29/16 A3005 RMK AO2 T02900155,0,6,0,16090.0,0,0,0,
2026-04-27 21:15:00,METAR KBGE 272115Z AUTO 06010KT 10SM CLR 29/16 A3005 RMK AO2 T02880161,0,10,0,16090.0,0,0,0,
2026-04-27 20:55:00,METAR KBGE 272055Z AUTO 11008KT 10SM CLR 29/16 A3005 RMK AO2 T02860163,0,8,0,16090.0,0,0,0,
2026-04-27 20:35:00,METAR KBGE 272035Z AUTO 12006KT 10SM CLR 29/16 A3005 RMK AO2 T02870163,0,6,0,16090.0,0,0,0,
2026-04-27 20:15:00,METAR KBGE 272015Z AUTO 10007KT 060V130 10SM CLR 28/17 A3005 RMK AO2 T02820165,0,7,0,16090.0,0,0,0,
2026-04-27 19:55:00,METAR KBGE 271955Z AUTO 11010G20KT 10SM CLR 29/17 A3005 RMK AO2 T02870171,0,10,1,16090.0,0,0,0,
2026-04-27 19:35:00,METAR KBGE 271935Z AUTO 11011KT 10SM CLR 28/17 A3006 RMK AO2 T02800168,0,11,0,16090.0,0,0,0,
2026-04-27 19:15:00,METAR KBGE 271915Z AUTO 10011G19KT 10SM SCT039 28/17 A3006 RMK AO2 T02820170,0,11,1,16090.0,0,0,0,
2026-04-27 18:55:00,METAR KBGE 271855Z AUTO 12011KT 10SM SCT040 28/17 A3007 RMK AO2 T02770166,0,11,0,16090.0,0,0,0,
2026-04-27 18:35:00,METAR KBGE 271835Z AUTO 11014G18KT 10SM CLR 28/17 A3007 RMK AO2 T02780170,0,14,1,16090.0,0,0,0,
2026-04-27 18:15:00,METAR KBGE 271815Z AUTO 10010KT 10SM SCT035 27/17 A3008 RMK AO2 T02720167,0,10,0,16090.0,0,0,0,
2026-04-27 17:55:00,METAR KBGE 271755Z AUTO 08014G21KT 10SM SCT033 27/17 A3009 RMK AO2 T02710169 10280 20194,0,14,1,16090.0,0,0,0,
2026-04-27 17:35:00,METAR KBGE 271735Z AUTO 08014G18KT 10SM SCT031 27/17 A3009 RMK AO2 T02720168,0,14,1,16090.0,0,0,0,
2026-04-27 17:15:00,METAR KBGE 271715Z AUTO 08014G19KT 10SM BKN031 27/17 A3010 RMK AO2 T02710171,0,14,1,16090.0,0,0,0,
2026-04-27 16:55:00,METAR KBGE 271655Z AUTO 10011G22KT 10SM SCT031 26/17 A3010 RMK AO2 T02630170,0,11,1,16090.0,0,0,0,
2026-04-27 16:35:00,METAR KBGE 271635Z AUTO 12009KT 10SM BKN029 26/17 A3011 RMK AO2 T02610171,0,9,0,16090.0,0,0,0,
2026-04-27 16:15:00,METAR KBGE 271615Z AUTO 09009KT 10SM BKN027 25/17 A3011 RMK AO2 T02530171,0,9,0,16090.0,0,0,0,
2026-04-27 15:55:00,METAR KBGE 271555Z AUTO 09010G17KT 10SM BKN025 25/17 A3011 RMK AO2 T02530174,0,10,1,16090.0,0,0,0,
2026-04-27 15:35:00,METAR KBGE 271535Z AUTO 10011KT 10SM OVC025 24/17 A3011 RMK AO2 T02420173,0,11,0,16090.0,0,0,0,
2026-04-27 15:15:00,METAR KBGE 271515Z AUTO 13011KT 10SM OVC023 24/17 A3010 RMK AO2 T02390174,0,11,0,16090.0,0,0,0,
2026-04-27 14:55:00,METAR KBGE 271455Z AUTO 08015G21KT 10SM OVC023 23/17 A3010 RMK AO2 T02330173,0,15,1,16090.0,0,0,0,
2026-04-27 14:35:00,METAR KBGE 271435Z AUTO 10013KT 10SM OVC021 23/17 A3009 RMK AO2 T02330175,0,13,0,16090.0,0,0,0,
2026-04-27 14:15:00,METAR KBGE 271415Z AUTO 11012KT 10SM OVC019 22/18 A3009 RMK AO2 T02240176,0,12,0,16090.0,0,0,0,
2026-04-27 13:55:00,METAR KBGE 271355Z AUTO 10011G20KT 10SM OVC017 22/18 A3009 RMK AO2 T02180178,0,11,1,16090.0,0,0,0,
2026-04-27 13:35:00,METAR KBGE 271335Z AUTO 08016KT 5SM HZ OVC017 22/18 A3008 RMK AO2 T02160181,0,16,0,8045.0,0,0,0,
2026-04-27 13:15:00,METAR KBGE 271315Z AUTO 10011G19KT 10SM OVC015 21/18 A3008 RMK AO2 T02110183,0,11,1,16090.0,0,0,0,
2026-04-27 12:55:00,METAR KBGE 271255Z AUTO 09014G21KT 10SM OVC015 21/18 A3007 RMK AO2 T02070185,0,14,1,16090.0,0,0,0,
2026-04-27 12:35:00,METAR KBGE 271235Z AUTO 10011KT 10SM OVC013 20/19 A3006 RMK AO2 T02040189,0,11,0,16090.0,0,0,0,
2026-04-27 12:15:00,METAR KBGE 271215Z AUTO 10012KT 10SM OVC013 20/19 A3006 RMK AO2 T01990193,0,12,0,16090.0,0,0,0,
2026-04-27 11:55:00,METAR KBGE 271155Z AUTO 09013KT 7SM OVC011 19/ A3005 RMK AO2 T0194//// 10194 20170,0,13,0,11263.0,0,0,0,
2026-04-27 11:35:00,METAR KBGE 271135Z AUTO 09009KT 7SM OVC011 19/ A3004 RMK AO2 T0189////,0,9,0,11263.0,0,0,0,
2026-04-27 11:15:00,METAR KBGE 271115Z AUTO 09009KT 7SM SCT011 18/ A3002 RMK AO2 T0183////,0,9,0,11263.0,0,0,0,
2026-04-27 10:55:00,METAR KBGE 271055Z AUTO 10007KT 7SM CLR 18/ A3001 RMK AO2 T0177////,0,7,0,11263.0,0,0,0,
2026-04-27 10:35:00,METAR KBGE 271035Z AUTO 09006KT 10SM CLR 18/ A3001 RMK AO2 T0177////,0,6,0,16090.0,0,0,0,
2026-04-27 10:15:00,METAR KBGE 271015Z AUTO 09008KT 10SM CLR 17/ A3000 RMK AO2 T0175////,0,8,0,16090.0,0,0,0,
2026-04-27 09:55:00,METAR KBGE 270955Z AUTO 09005KT 10SM CLR 18/ A3000 RMK AO2 T0178////,0,5,0,16090.0,0,0,0,
2026-04-27 09:35:00,METAR KBGE 270935Z AUTO 08007KT 10SM CLR 17/17 A2999 RMK AO2 T0174////,0,7,0,16090.0,0,0,0,
2026-04-27 09:15:00,METAR KBGE 270915Z AUTO 08005KT 10SM CLR 18/17 A2998 RMK AO2 T01770172,0,5,0,16090.0,0,0,0,
2026-04-27 08:55:00,METAR KBGE 270855Z AUTO 08006KT 10SM CLR 17/17 A2998 RMK AO2 T01730171,0,6,0,16090.0,0,0,0,
2026-04-27 08:35:00,METAR KBGE 270835Z AUTO 09005KT 10SM CLR 18/17 A2997 RMK AO2 T01750172,0,5,0,16090.0,0,0,0,
2026-04-27 08:15:00,METAR KBGE 270815Z AUTO 09006KT 10SM CLR 17/17 A2997 RMK AO2 T0171////,0,6,0,16090.0,0,0,0,
2026-04-27 07:55:00,METAR KBGE 270755Z AUTO 08005KT 10SM CLR 17/17 A2996 RMK AO2 T01740170,0,5,0,16090.0,0,0,0,
2026-04-27 07:35:00,METAR KBGE 270735Z AUTO 08004KT 10SM CLR 18/17 A2996 RMK AO2 T01790172,0,4,0,16090.0,0,0,0,
2026-04-27 07:15:00,METAR KBGE 270715Z AUTO 10003KT 10SM SCT065 18/17 A2995 RMK AO2 T01790172,0,3,0,16090.0,0,0,0,
2026-04-27 06:55:00,METAR KBGE 270655Z AUTO 09006KT 10SM SCT065 18/17 A2995 RMK AO2 T01750174,0,6,0,16090.0,0,0,0,
2026-04-27 06:35:00,METAR KBGE 270635Z AUTO 00000KT 10SM CLR 18/17 A2995 RMK AO2 T01770168,0,0,0,16090.0,0,0,0,
2026-04-27 06:15:00,METAR KBGE 270615Z AUTO 00000KT 10SM CLR 18/17 A2995 RMK AO2 T01800170,0,0,0,16090.0,0,0,0,
2026-04-27 05:55:00,METAR KBGE 270555Z AUTO 00000KT 10SM CLR 18/17 A2995 RMK AO2 T01780171 10267 20177,0,0,0,16090.0,0,0,0,
2026-04-27 05:35:00,METAR KBGE 270535Z AUTO 00000KT 10SM CLR 18/17 A2995 RMK AO2 T01820170,0,0,0,16090.0,0,0,0,
2026-04-27 05:15:00,METAR KBGE 270515Z AUTO 00000KT 10SM CLR 18/17 A2995 RMK AO2 T01840168,0,0,0,16090.0,0,0,0,
2026-04-27 04:55:00,METAR KBGE 270455Z AUTO 00000KT 10SM CLR 19/17 A2995 RMK AO2 T01900168,0,0,0,16090.0,0,0,0,
2026-04-27 04:35:00,METAR KBGE 270435Z AUTO 00000KT 10SM CLR 19/17 A2995 RMK AO2 T01920168,0,0,0,16090.0,0,0,0,
2026-04-27 04:15:00,METAR KBGE 270415Z AUTO 00000KT 10SM CLR 20/17 A2995 RMK AO2 T01990168,0,0,0,16090.0,0,0,0,
2026-04-27 03:55:00,METAR KBGE 270355Z AUTO 00000KT 10SM CLR 20/17 A2995 RMK AO2 T02010167,0,0,0,16090.0,0,0,0,
2026-04-27 03:35:00,METAR KBGE 270335Z AUTO 00000KT 10SM CLR 20/16 A2994 RMK AO2 T02000162,0,0,0,16090.0,0,0,0,
2026-04-27 03:15:00,METAR KBGE 270315Z AUTO 00000KT 10SM CLR 20/16 A2994 RMK AO2 T02040160,0,0,0,16090.0,0,0,0,
2026-04-27 02:55:00,METAR KBGE 270255Z AUTO 00000KT 10SM CLR 21/17 A2994 RMK AO2 T02130167,0,0,0,16090.0,0,0,0,
2026-04-27 02:35:00,METAR KBGE 270235Z AUTO 31003KT 10SM CLR 21/17 A2993 RMK AO2 T02050168,0,3,0,16090.0,0,0,0,
2026-04-27 02:15:00,METAR KBGE 270215Z AUTO 29005KT 10SM CLR 20/16 A2993 RMK AO2 T02020161,0,5,0,16090.0,0,0,0,
2026-04-27 01:55:00,METAR KBGE 270155Z AUTO 27003KT 10SM CLR 21/16 A2992 RMK AO2 T02120158,0,3,0,16090.0,0,0,0,
2026-04-27 01:35:00,METAR KBGE 270135Z AUTO 29004KT 10SM CLR 22/16 A2990 RMK AO2 T02220158,0,4,0,16090.0,0,0,0,
2026-04-27 01:15:00,METAR KBGE 270115Z AUTO 32003KT 10SM CLR 23/15 A2989 RMK AO2 T02350155,0,3,0,16090.0,0,0,0,
2026-04-27 00:55:00,METAR KBGE 270055Z AUTO 31004KT 10SM CLR 24/16 A2989 RMK AO2 T02400157,0,4,0,16090.0,0,0,0,
2026-04-27 00:35:00,METAR KBGE 270035Z AUTO 31004KT 10SM CLR 24/16 A2988 RMK AO2 T02390159,0,4,0,16090.0,0,0,0,
2026-04-27 00:15:00,METAR KBGE 270015Z AUTO 33004KT 10SM CLR 26/15 A2988 RMK AO2 T02560153,0,4,0,16090.0,0,0,0,
2026-04-26 23:55:00,METAR KBGE 262355Z AUTO 34004KT 10SM CLR 27/15 A2987 RMK AO2 T02690149 10312 20268 403120171,0,4,0,16090.0,0,0,0,
2026-04-26 23:35:00,METAR KBGE 262335Z AUTO 02005KT 10SM CLR 28/15 A2987 RMK AO2 T02760145,0,5,0,16090.0,0,0,0,
2026-04-26 23:15:00,METAR KBGE 262315Z AUTO 01005KT 10SM CLR 28/14 A2987 RMK AO2 T02830137,0,5,0,16090.0,0,0,0,
2026-04-26 22:55:00,METAR KBGE 262255Z AUTO 36008KT 10SM CLR 29/14 A2987 RMK AO2 T02860137,0,8,0,16090.0,0,0,0,
2026-04-26 22:35:00,METAR KBGE 262235Z AUTO 36007KT 10SM CLR 29/14 A2986 RMK AO2 T02880137,0,7,0,16090.0,0,0,0,
2026-04-26 22:15:00,METAR KBGE 262215Z AUTO 33008KT 10SM CLR 29/15 A2987 RMK AO2 T02910148,0,8,0,16090.0,0,0,0,
2026-04-26 21:55:00,METAR KBGE 262155Z AUTO 33009KT 10SM CLR 29/16 A2987 RMK AO2 T02920157,0,9,0,16090.0,0,0,0,
2026-04-26 21:35:00,METAR KBGE 262135Z AUTO 32009KT 10SM CLR 29/15 A2987 RMK AO2 T02870154,0,9,0,16090.0,0,0,0,
2026-04-26 21:15:00,METAR KBGE 262115Z AUTO 32010KT 10SM CLR 28/15 A2987 RMK AO2 T02820152,0,10,0,16090.0,0,0,0,
2026-04-26 20:55:00,METAR KBGE 262055Z AUTO 32010KT 10SM SCT055 29/15 A2987 RMK AO2 T02870150,0,10,0,16090.0,0,0,0,
2026-04-26 20:35:00,METAR KBGE 262035Z AUTO 32008KT 300V360 10SM SCT055 29/15 A2987 RMK AO2 T02900150,0,8,0,16090.0,0,0,0,
2026-04-26 20:15:00,METAR KBGE 262015Z AUTO 34012G16KT 10SM SCT065 29/15 A2986 RMK AO2 T02940150,0,12,1,16090.0,0,0,0,
2026-04-26 19:55:00,METAR KBGE 261955Z AUTO 34010KT 10SM BKN050 BKN065 29/15 A2987 RMK AO2 T02950154,0,10,0,16090.0,0,0,0,
2026-04-26 19:35:00,METAR KBGE 261935Z AUTO 34010KT 10SM SCT050 30/16 A2987 RMK AO2 T03010160,0,10,0,16090.0,0,0,0,
2026-04-26 19:15:00,METAR KBGE 261915Z AUTO 33012G16KT 10SM SCT050 SCT070 30/15 A2987 RMK AO2 LTG DSNT W T02980150,0,12,1,16090.0,0,0,0,DS
2026-04-26 18:55:00,METAR KBGE 261855Z AUTO 33012G16KT 10SM SCT050 SCT070 30/16 A2988 RMK AO2 T02980162,0,12,1,16090.0,0,0,0,
2026-04-26 18:35:00,METAR KBGE 261835Z AUTO 32011G15KT 10SM SCT050 SCT070 SCT080 30/16 A2988 RMK AO2 T02970155,0,11,1,16090.0,0,0,0,
2026-04-26 18:15:00,METAR KBGE 261815Z AUTO 32013G17KT 10SM SCT050 30/16 A2989 RMK AO2 T02980164,0,13,1,16090.0,0,0,0,
2026-04-26 17:55:00,METAR KBGE 261755Z AUTO 33013KT 10SM SCT050 SCT060 SCT080 30/16 A2989 RMK AO2 T03010164 10305 20179,0,13,0,16090.0,0,0,0,
2026-04-26 17:35:00,METAR KBGE 261735Z AUTO 30012G15KT 10SM BKN048 BKN055 BKN080 29/17 A2989 RMK AO2 T02940166,0,12,1,16090.0,0,0,0,
2026-04-26 17:15:00,METAR KBGE 261715Z AUTO 33009KT 10SM BKN046 BKN055 BKN070 29/17 A2989 RMK AO2 T02870168,0,9,0,16090.0,0,0,0,
2026-04-26 16:55:00,METAR KBGE 261655Z AUTO 29010G16KT 10SM SCT046 BKN055 BKN070 29/17 A2990 RMK AO2 T02890168,0,10,1,16090.0,0,0,0,
2026-04-26 16:35:00,METAR KBGE 261635Z AUTO 31011KT 10SM SCT046 BKN055 BKN070 28/17 A2990 RMK AO2 T02840172,0,11,0,16090.0,0,0,0,
2026-04-26 16:15:00,METAR KBGE 261615Z AUTO 31007KT 10SM SCT055 29/17 A2990 RMK AO2 T02860174,0,7,0,16090.0,0,0,0,
2026-04-26 15:55:00,METAR KBGE 261555Z AUTO 32006KT 10SM SCT038 28/18 A2990 RMK AO2 T02840175,0,6,0,16090.0,0,0,0,
2026-04-26 15:35:00,METAR KBGE 261535Z AUTO 32008KT 10SM CLR 28/18 A2990 RMK AO2 T02790181,0,8,0,16090.0,0,0,0,
2026-04-26 15:15:00,METAR KBGE 261515Z AUTO 33008KT 10SM CLR 27/18 A2991 RMK AO2 T02730183,0,8,0,16090.0,0,0,0,
2026-04-26 14:55:00,METAR KBGE 261455Z AUTO 36006KT 10SM CLR 27/19 A2991 RMK AO2 T02670190,0,6,0,16090.0,0,0,0,
2026-04-26 14:35:00,METAR KBGE 261435Z AUTO 34009G14KT 10SM CLR 26/19 A2991 RMK AO2 T02560189,0,9,1,16090.0,0,0,0,
2026-04-26 14:15:00,METAR KBGE 261415Z AUTO 33009KT 10SM CLR 25/19 A2991 RMK AO2 T02530194,0,9,0,16090.0,0,0,0,
2026-04-26 13:55:00,METAR KBGE 261355Z AUTO 34007KT 10SM CLR 24/20 A2990 RMK AO2 T02400198,0,7,0,16090.0,0,0,0,
2026-04-26 13:35:00,METAR KBGE 261335Z AUTO 30005KT 10SM CLR 23/20 A2990 RMK AO2 T02300198,0,5,0,16090.0,0,0,0,
2026-04-26 13:15:00,METAR KBGE 261315Z AUTO 30006KT 10SM CLR 22/20 A2990 RMK AO2 T02200198,0,6,0,16090.0,0,0,0,
2026-04-26 12:55:00,METAR KBGE 261255Z AUTO 28005KT 10SM CLR 21/20 A2989 RMK AO2 LTG DSNT E T02060199,0,5,0,16090.0,0,0,0,DS
2026-04-26 12:35:00,METAR KBGE 261235Z AUTO 24005KT 10SM CLR 19/ A2988 RMK AO2 T0195////,0,5,0,16090.0,0,0,0,
2026-04-26 12:15:00,METAR KBGE 261215Z AUTO 25006KT 10SM CLR 18/ A2988 RMK AO2 T0185////,0,6,0,16090.0,0,0,0,
2026-04-26 11:55:00,METAR KBGE 261155Z AUTO 25004KT 7SM CLR 18/ A2988 RMK AO2 T0179//// 10190 20171,0,4,0,11263.0,0,0,0,
2026-04-26 11:35:00,METAR KBGE 261135Z AUTO 26003KT 7SM HZ SCT001 17/ A2987 RMK AO2 T0174////,0,3,0,11263.0,0,0,0,
2026-04-26 11:15:00,METAR KBGE 261115Z AUTO 27005KT 3 1/2SM BR OVC001 17/ A2986 RMK AO2 T0173////,0,5,0,5632.0,0,0,1,BR
2026-04-26 10:55:00,METAR KBGE 261055Z AUTO 27004KT 1 1/4SM BR OVC001 17/ A2986 RMK AO2 T0173////,0,4,0,2011.0,0,0,1,BR
2026-04-26 10:35:00,METAR KBGE 261035Z AUTO 27004KT 1 1/4SM BR OVC001 17/ A2985 RMK AO2 T0173////,0,4,0,2011.0,0,0,1,BR
2026-04-26 10:15:00,METAR KBGE 261015Z AUTO 26004KT 3/4SM BR OVC001 17/ A2985 RMK AO2 T0174////,0,4,0,1207.0,0,0,1,BR
2026-04-26 09:55:00,METAR KBGE 260955Z AUTO 26004KT 1SM BR OVC001 17/ A2984 RMK AO2 T0173////,0,4,0,1609.0,0,0,1,BR
2026-04-26 09:35:00,METAR KBGE 260935Z AUTO 25004KT 10SM CLR 17/ A2983 RMK AO2 T0171////,0,4,0,16090.0,0,0,0,
2026-04-26 09:15:00,METAR KBGE 260915Z AUTO 25004KT 10SM CLR 17/ A2983 RMK AO2 T0173////,0,4,0,16090.0,0,0,0,
2026-04-26 08:55:00,METAR KBGE 260855Z AUTO 26004KT 10SM CLR 17/ A2983 RMK AO2 T0172////,0,4,0,16090.0,0,0,0,
2026-04-26 08:35:00,METAR KBGE 260835Z AUTO 25005KT 10SM CLR 18/ A2983 RMK AO2,0,5,0,16090.0,0,0,0,
2026-04-26 08:15:00,METAR KBGE 260815Z AUTO 22004KT 10SM CLR 17/ A2982 RMK AO2 T0175////,0,4,0,16090.0,0,0,0,
2026-04-26 07:55:00,METAR KBGE 260755Z AUTO 22004KT 10SM CLR 18/ A2982 RMK AO2 T0177////,0,4,0,16090.0,0,0,0,
2026-04-26 07:35:00,METAR KBGE 260735Z AUTO 21003KT 10SM CLR 18/ A2983 RMK AO2 T0180////,0,3,0,16090.0,0,0,0,
2026-04-26 07:15:00,METAR KBGE 260715Z AUTO 25003KT 10SM CLR 18/ A2983 RMK AO2 T0182////,0,3,0,16090.0,0,0,0,
2026-04-26 06:55:00,METAR KBGE 260655Z AUTO 27005KT 10SM SCT037 18/ A2985 RMK AO2 T0183////,0,5,0,16090.0,0,0,0,
2026-04-26 06:35:00,METAR KBGE 260635Z AUTO 28004KT 10SM BKN037 BKN044 19/ A2984 RMK AO2 T0187////,0,4,0,16090.0,0,0,0,
2026-04-26 06:15:00,METAR KBGE 260615Z AUTO 26004KT 10SM BKN039 BKN044 19/19 A2984 RMK AO2 T01900189,0,4,0,16090.0,0,0,0,
2026-04-26 05:55:00,METAR KBGE 260555Z AUTO 27004KT 10SM SCT037 SCT120 19/19 A2985 RMK AO2 T01880186 10246 20187,0,4,0,16090.0,0,0,0,
2026-04-26 05:35:00,METAR KBGE 260535Z AUTO 26005KT 10SM SCT120 19/19 A2985 RMK AO2 T01910186,0,5,0,16090.0,0,0,0,
2026-04-26 05:15:00,METAR KBGE 260515Z AUTO 23003KT 10SM SCT120 19/18 A2985 RMK AO2 T01950184,0,3,0,16090.0,0,0,0,
2026-04-26 04:55:00,METAR KBGE 260455Z AUTO 24004KT 10SM SCT120 20/18 A2985 RMK AO2 T01990184,0,4,0,16090.0,0,0,0,
2026-04-26 04:35:00,METAR KBGE 260435Z AUTO 26005KT 10SM SCT095 BKN120 20/18 A2985 RMK AO2 T02000184,0,5,0,16090.0,0,0,0,
2026-04-26 04:15:00,METAR KBGE 260415Z AUTO 23003KT 10SM OVC095 20/19 A2985 RMK AO2 T02030191,0,3,0,16090.0,0,0,0,
2026-04-26 03:55:00,METAR KBGE 260355Z AUTO 22003KT 10SM BKN085 BKN120 20/19 A2985 RMK AO2 T02000189,0,3,0,16090.0,0,0,0,
2026-04-26 03:35:00,METAR KBGE 260335Z AUTO 20003KT 10SM SCT060 19/19 A2985 RMK AO2 T01950188,0,3,0,16090.0,0,0,0,
2026-04-26 03:15:00,METAR KBGE 260315Z AUTO 00000KT 10SM SCT060 20/19 A2985 RMK AO2 T01950187,0,0,0,16090.0,0,0,0,
2026-04-26 02:55:00,METAR KBGE 260255Z AUTO 21004KT 10SM CLR 20/18 A2985 RMK AO2 T02040185,0,4,0,16090.0,0,0,0,
2026-04-26 02:35:00,METAR KBGE 260235Z AUTO 21005KT 10SM CLR 21/18 A2984 RMK AO2 T02080182,0,5,0,16090.0,0,0,0,
2026-04-26 02:15:00,METAR KBGE 260215Z AUTO 22005KT 10SM CLR 21/19 A2984 RMK AO2 T02110188,0,5,0,16090.0,0,0,0,
2026-04-26 01:55:00,METAR KBGE 260155Z AUTO 17004KT 10SM SCT033 21/20 A2983 RMK AO2 T02100203,0,4,0,16090.0,0,0,0,
2026-04-26 01:35:00,METAR KBGE 260135Z AUTO 17004KT 10SM BKN033 22/20 A2983 RMK AO2 T02170205,0,4,0,16090.0,0,0,0,
2026-04-26 01:15:00,METAR KBGE 260115Z AUTO 18003KT 10SM BKN033 22/20 A2982 RMK AO2 T02230201,0,3,0,16090.0,0,0,0,
2026-04-26 00:55:00,METAR KBGE 260055Z AUTO 18003KT 10SM BKN033 BKN060 23/17 A2982 RMK AO2 T02300170,0,3,0,16090.0,0,0,0,
2026-04-26 00:35:00,METAR KBGE 260035Z AUTO 24005KT 10SM SCT035 SCT060 24/17 A2981 RMK AO2 T02350166,0,5,0,16090.0,0,0,0,
2026-04-26 00:15:00,METAR KBGE 260015Z AUTO 25006KT 10SM CLR 24/16 A2981 RMK AO2 T02400162,0,6,0,16090.0,0,0,0,
2026-04-25 23:55:00,METAR KBGE 252355Z AUTO 25007KT 220V280 10SM CLR 25/17 A2981 RMK AO2 T02470172 10292 20247 402970175,0,7,0,16090.0,0,0,0,
2026-04-25 23:35:00,METAR KBGE 252335Z AUTO 22009KT 10SM CLR 25/18 A2980 RMK AO2 T02490179,0,9,0,16090.0,0,0,0,
2026-04-25 23:15:00,METAR KBGE 252315Z AUTO 22008KT 10SM SCT031 SCT037 SCT044 25/18 A2980 RMK AO2 T02510185,0,8,0,16090.0,0,0,0,
2026-04-25 22:55:00,METAR KBGE 252255Z AUTO 17008KT 10SM SCT031 SCT037 SCT044 25/21 A2979 RMK AO2 T02500208,0,8,0,16090.0,0,0,0,
2026-04-25 22:35:00,METAR KBGE 252235Z AUTO 19009KT 10SM SCT045 SCT055 SCT070 25/21 A2979 RMK AO2 T02520206,0,9,0,16090.0,0,0,0,
2026-04-25 22:15:00,METAR KBGE 252215Z AUTO 18008KT 10SM SCT046 BKN055 BKN070 25/20 A2979 RMK AO2 T02530201,0,8,0,16090.0,0,0,0,
2026-04-25 21:55:00,METAR KBGE 252155Z AUTO 16010KT 10SM BKN039 BKN047 BKN070 25/20 A2979 RMK AO2 T02520201,0,10,0,16090.0,0,0,0,
2026-04-25 21:35:00,METAR KBGE 252135Z AUTO 18009KT 10SM BKN039 OVC044 26/20 A2979 RMK AO2 T02590200,0,9,0,16090.0,0,0,0,
2026-04-25 21:15:00,METAR KBGE 252115Z AUTO 22005KT 10SM BKN039 BKN048 27/18 A2979 RMK AO2 T02690180,0,5,0,16090.0,0,0,0,
2026-04-25 20:55:00,METAR KBGE 252055Z AUTO 22008KT 10SM SCT037 SCT120 27/18 A2979 RMK AO2 T02750183,0,8,0,16090.0,0,0,0,
2026-04-25 20:35:00,METAR KBGE 252035Z AUTO 20008KT 10SM BKN120 27/18 A2979 RMK AO2 T02730181,0,8,0,16090.0,0,0,0,
2026-04-25 20:15:00,METAR KBGE 252015Z AUTO 19007KT 10SM SCT038 SCT120 27/18 A2980 RMK AO2 T02710181,0,7,0,16090.0,0,0,0,
2026-04-25 19:55:00,METAR KBGE 251955Z AUTO 21010KT 10SM SCT036 27/18 A2980 RMK AO2 T02730182,0,10,0,16090.0,0,0,0,
2026-04-25 19:35:00,METAR KBGE 251935Z AUTO 23013KT 10SM CLR 28/18 A2980 RMK AO2 T02770182,0,13,0,16090.0,0,0,0,
2026-04-25 19:15:00,METAR KBGE 251915Z AUTO 22009KT 10SM CLR 27/18 A2982 RMK AO2 T02720180,0,9,0,16090.0,0,0,0,
2026-04-25 18:55:00,METAR KBGE 251855Z AUTO 19007KT 10SM SCT120 26/18 A2982 RMK AO2 T02610182,0,7,0,16090.0,0,0,0,
2026-04-25 18:35:00,METAR KBGE 251835Z AUTO 22011KT 10SM SCT041 SCT050 26/18 A2984 RMK AO2 T02620183,0,11,0,16090.0,0,0,0,
2026-04-25 18:15:00,METAR KBGE 251815Z AUTO 21010KT 10SM BKN041 BKN047 BKN060 27/17 A2984 RMK AO2 T02750175,0,10,0,16090.0,0,0,0,
2026-04-25 17:55:00,METAR KBGE 251755Z AUTO 23009G14KT 10SM SCT041 SCT060 SCT120 29/17 A2984 RMK AO2 T02870173 10297 20192,0,9,1,16090.0,0,0,0,
2026-04-25 17:35:00,METAR KBGE 251735Z AUTO 21014KT 10SM SCT038 SCT046 SCT120 29/17 A2986 RMK AO2 T02860174,0,14,0,16090.0,0,0,0,
2026-04-25 17:15:00,METAR KBGE 251715Z AUTO 21009G15KT 180V260 10SM SCT038 SCT046 BKN050 28/17 A2986 RMK AO2 T02780175,0,9,1,16090.0,0,0,0,
2026-04-25 16:55:00,METAR KBGE 251655Z AUTO 23012KT 10SM SCT042 SCT048 29/17 A2987 RMK AO2 T02860172,0,12,0,16090.0,0,0,0,
2026-04-25 16:35:00,METAR KBGE 251635Z AUTO 23005KT 10SM SCT032 SCT038 SCT050 26/17 A2987 RMK AO2 T02640174,0,5,0,16090.0,0,0,0,
2026-04-25 16:15:00,METAR KBGE 251615Z AUTO 24010KT 10SM SCT032 SCT038 SCT046 27/18 A2989 RMK AO2 T02680176,0,10,0,16090.0,0,0,0,
2026-04-25 15:55:00,METAR KBGE 251555Z AUTO 26009KT 10SM SCT024 BKN033 BKN043 26/19 A2989 RMK AO2 T02570189,0,9,0,16090.0,0,0,0,
2026-04-25 15:35:00,METAR KBGE 251535Z AUTO 27011KT 10SM SCT020 BKN024 BKN033 26/19 A2990 RMK AO2 T02580190,0,11,0,16090.0,0,0,0,
2026-04-25 15:15:00,METAR KBGE 251515Z AUTO 28010KT 10SM SCT017 BKN021 OVC032 24/20 A2990 RMK AO2 T02450199,0,10,0,16090.0,0,0,0,
2026-04-25 14:55:00,METAR KBGE 251455Z AUTO 25010KT 10SM BKN015 BKN021 BKN110 24/20 A2991 RMK AO2 LTG DSNT W T02420204,0,10,0,16090.0,0,0,0,DS
2026-04-25 14:35:00,METAR KBGE 251435Z AUTO 26009KT 10SM BKN015 24/20 A2991 RMK AO2 T02390204,0,9,0,16090.0,0,0,0,
2026-04-25 14:15:00,METAR KBGE 251415Z AUTO 26008KT 10SM SCT011 24/21 A2990 RMK AO2 T02370206,0,8,0,16090.0,0,0,0,
2026-04-25 13:55:00,METAR KBGE 251355Z AUTO 26007KT 10SM SCT011 23/21 A2989 RMK AO2 T02280212,0,7,0,16090.0,0,0,0,
2026-04-25 13:35:00,METAR KBGE 251335Z AUTO 28007KT 10SM CLR 22/ A2989 RMK AO2 T0220////,0,7,0,16090.0,0,0,0,
2026-04-25 13:15:00,METAR KBGE 251315Z AUTO 28005KT 10SM CLR 21/ A2988 RMK AO2 T0209////,0,5,0,16090.0,0,0,0,
2026-04-25 12:55:00,METAR KBGE 251255Z AUTO 00000KT 10SM CLR 20/ A2986 RMK AO2 T0201////,0,0,0,16090.0,0,0,0,
2026-04-25 12:35:00,METAR KBGE 251235Z AUTO 17004KT 7SM CLR 20/ A2986 RMK AO2 T0197////,0,4,0,11263.0,0,0,0,
2026-04-25 12:15:00,METAR KBGE 251215Z AUTO 15005KT 7SM HZ SCT003 19/ A2985 RMK AO2 T0194////,0,5,0,11263.0,0,0,0,
2026-04-25 11:55:00,METAR KBGE 251155Z AUTO 17006KT 3SM BR OVC003 19/ A2984 RMK AO2 T0193//// 10194 20175,0,6,0,4827.0,0,0,1,BR
2026-04-25 11:35:00,METAR KBGE 251135Z AUTO 18007KT 3/4SM BR OVC003 19/ A2984 RMK AO2 T0190////,0,7,0,1207.0,0,0,1,BR
2026-04-25 11:15:00,METAR KBGE 251115Z AUTO 19008KT 1/2SM FG OVC003 19/ A2984 RMK AO2 T0188////,0,8,0,804.0,0,0,1,FG
2026-04-25 10:55:00,METAR KBGE 251055Z AUTO 20007KT 1/4SM FG OVC003 18/ A2984 RMK AO2 T0185////,0,7,0,402.0,0,0,1,FG
2026-04-25 10:35:00,METAR KBGE 251035Z AUTO 18004KT 1/4SM FG OVC003 18/ A2984 RMK AO2 T0184////,0,4,0,402.0,0,0,1,FG
2026-04-25 10:15:00,METAR KBGE 251015Z AUTO 21006KT 1/4SM FG OVC003 18/ A2984 RMK AO2 T0184////,0,6,0,402.0,0,0,1,FG
2026-04-25 09:55:00,METAR KBGE 250955Z AUTO 23004KT 1/4SM FG OVC003 18/ A2985 RMK AO2 T0185////,0,4,0,402.0,0,0,1,FG
2026-04-25 09:35:00,METAR KBGE 250935Z AUTO 21004KT 1/4SM FG OVC003 18/ A2985 RMK AO2 T0183////,0,4,0,402.0,0,0,1,FG
2026-04-25 09:15:00,METAR KBGE 250915Z AUTO 22004KT 1/4SM FG OVC003 18/ A2986 RMK AO2 T0182////,0,4,0,402.0,0,0,1,FG
2026-04-25 08:55:00,METAR KBGE 250855Z AUTO 23004KT 1/2SM FG OVC003 18/ A2986 RMK AO2 T0181////,0,4,0,804.0,0,0,1,FG
2026-04-25 08:35:00,METAR KBGE 250835Z AUTO 22003KT 1 3/4SM BR OVC003 18/ A2987 RMK AO2 T0182////,0,3,0,2816.0,0,0,1,BR
2026-04-25 08:15:00,METAR KBGE 250815Z AUTO 00000KT 10SM OVC005 18/ A2988 RMK AO2 T0180////,0,0,0,16090.0,0,0,0,
2026-04-25 07:55:00,METAR KBGE 250755Z AUTO 26003KT 10SM BKN005 18/ A2987 RMK AO2 T0176////,0,3,0,16090.0,0,0,0,
2026-04-25 07:35:00,METAR KBGE 250735Z AUTO 25003KT 10SM CLR 18/ A2987 RMK AO2 LTG DSNT NW T0175////,0,3,0,16090.0,0,0,0,DS
2026-04-25 07:15:00,METAR KBGE 250715Z AUTO 26005KT 10SM CLR 17/ A2987 RMK AO2 T0175////,0,5,0,16090.0,0,0,0,
2026-04-25 06:55:00,METAR KBGE 250655Z AUTO 26005KT 10SM CLR 18/ A2987 RMK AO2 T0177////,0,5,0,16090.0,0,0,0,
2026-04-25 06:35:00,METAR KBGE 250635Z AUTO 25004KT 10SM CLR 18/ A2988 RMK AO2 T0181////,0,4,0,16090.0,0,0,0,
2026-04-25 06:15:00,METAR KBGE 250615Z AUTO 25004KT 10SM CLR 18/18 A2988 RMK AO2 T0183////,0,4,0,16090.0,0,0,0,
2026-04-25 05:55:00,METAR KBGE 250555Z AUTO 25004KT 10SM CLR 19/18 A2988 RMK AO2 T01860182 10263 20183,0,4,0,16090.0,0,0,0,
2026-04-25 05:35:00,METAR KBGE 250535Z AUTO 25004KT 10SM CLR 19/18 A2988 RMK AO2 T01860178,0,4,0,16090.0,0,0,0,
2026-04-25 05:15:00,METAR KBGE 250515Z AUTO 24005KT 10SM CLR 19/17 A2989 RMK AO2 T01860173,0,5,0,16090.0,0,0,0,
2026-04-25 04:55:00,METAR KBGE 250455Z AUTO 24004KT 10SM CLR 19/17 A2988 RMK AO2 T01900170,0,4,0,16090.0,0,0,0,
2026-04-25 04:35:00,METAR KBGE 250435Z AUTO 23003KT 10SM CLR 19/16 A2988 RMK AO2 T01930164,0,3,0,16090.0,0,0,0,
2026-04-25 04:15:00,METAR KBGE 250415Z AUTO 23004KT 10SM CLR 20/16 A2988 RMK AO2 T01960162,0,4,0,16090.0,0,0,0,
2026-04-25 03:55:00,METAR KBGE 250355Z AUTO 23005KT 10SM CLR 20/16 A2988 RMK AO2 T01990157,0,5,0,16090.0,0,0,0,
2026-04-25 03:35:00,METAR KBGE 250335Z AUTO 22005KT 10SM CLR 20/15 A2988 RMK AO2 T02030152,0,5,0,16090.0,0,0,0,
2026-04-25 03:15:00,METAR KBGE 250315Z AUTO 21006KT 10SM CLR 21/14 A2988 RMK AO2 T02090144,0,6,0,16090.0,0,0,0,
2026-04-25 02:55:00,METAR KBGE 250255Z AUTO 22006KT 10SM CLR 22/14 A2988 RMK AO2 T02180140,0,6,0,16090.0,0,0,0,
2026-04-25 02:35:00,METAR KBGE 250235Z AUTO 21005KT 10SM CLR 22/13 A2988 RMK AO2 T02200134,0,5,0,16090.0,0,0,0,
2026-04-25 02:15:00,METAR KBGE 250215Z AUTO 22007KT 10SM CLR 23/13 A2988 RMK AO2 T02250133,0,7,0,16090.0,0,0,0,
2026-04-25 01:55:00,METAR KBGE 250155Z AUTO 22007KT 10SM CLR 23/13 A2987 RMK AO2 LTG DSNT NW T02310132,0,7,0,16090.0,0,0,0,DS
2026-04-25 01:35:00,METAR KBGE 250135Z AUTO 20006KT 10SM CLR 23/13 A2987 RMK AO2 T02330132,0,6,0,16090.0,0,0,0,
2026-04-25 01:15:00,METAR KBGE 250115Z AUTO 21007KT 10SM CLR 24/13 A2986 RMK AO2 T02390135,0,7,0,16090.0,0,0,0,
2026-04-25 00:55:00,METAR KBGE 250055Z AUTO 21006KT 10SM SCT085 24/14 A2985 RMK AO2 T02420136,0,6,0,16090.0,0,0,0,
2026-04-25 00:35:00,METAR KBGE 250035Z AUTO 21006KT 10SM SCT085 25/14 A2985 RMK AO2 T02460135,0,6,0,16090.0,0,0,0,
2026-04-25 00:15:00,METAR KBGE 250015Z AUTO 22007KT 10SM OVC085 26/13 A2984 RMK AO2 LTG DSNT NW T02570133,0,7,0,16090.0,0,0,0,DS
2026-04-24 23:55:00,METAR KBGE 242355Z AUTO 22008KT 10SM SCT085 26/13 A2984 RMK AO2 T02640130 10316 20263 403160119,0,8,0,16090.0,0,0,0,
2026-04-24 23:35:00,METAR KBGE 242335Z AUTO 22007KT 10SM SCT085 27/12 A2984 RMK AO2 T02740125,0,7,0,16090.0,0,0,0,
2026-04-24 23:15:00,METAR KBGE 242315Z AUTO 23008KT 10SM SCT085 28/11 A2984 RMK AO2 T02850113,0,8,0,16090.0,0,0,0,
2026-04-24 22:55:00,METAR KBGE 242255Z AUTO 25009KT 10SM SCT085 30/11 A2984 RMK AO2 T02950107,0,9,0,16090.0,0,0,0,
2026-04-24 22:35:00,METAR KBGE 242235Z AUTO 24007KT 10SM CLR 30/10 A2983 RMK AO2 T02990104,0,7,0,16090.0,0,0,0,
2026-04-24 22:15:00,METAR KBGE 242215Z AUTO 26006KT 10SM CLR 30/10 A2984 RMK AO2 T02990098,0,6,0,16090.0,0,0,0,
2026-04-24 21:55:00,METAR KBGE 242155Z AUTO 28007KT 10SM SCT080 31/09 A2984 RMK AO2 T03060094,0,7,0,16090.0,0,0,0,
2026-04-24 21:35:00,METAR KBGE 242135Z AUTO 22010KT 10SM SCT080 31/11 A2984 RMK AO2 T03080110,0,10,0,16090.0,0,0,0,
2026-04-24 21:15:00,METAR KBGE 242115Z AUTO 28010KT 10SM SCT070 SCT085 30/10 A2984 RMK AO2 T03040104,0,10,0,16090.0,0,0,0,
2026-04-24 20:55:00,METAR KBGE 242055Z AUTO 21008KT 190V250 10SM BKN070 BKN085 30/11 A2985 RMK AO2 T03010110,0,8,0,16090.0,0,0,0,
2026-04-24 20:35:00,METAR KBGE 242035Z AUTO 22004KT 10SM SCT070 30/11 A2985 RMK AO2 T03000115,0,4,0,16090.0,0,0,0,
2026-04-24 20:15:00,METAR KBGE 242015Z AUTO 26009KT 10SM BKN070 30/11 A2986 RMK AO2 T03030113,0,9,0,16090.0,0,0,0,
2026-04-24 19:55:00,METAR KBGE 241955Z AUTO 21011G16KT 180V240 10SM SCT070 30/12 A2987 RMK AO2 T03010117,0,11,1,16090.0,0,0,0,
2026-04-24 19:35:00,METAR KBGE 241935Z AUTO 20004KT 10SM SCT070 30/12 A2988 RMK AO2 T02970115,0,4,0,16090.0,0,0,0,
2026-04-24 19:15:00,METAR KBGE 241915Z AUTO 26008KT 10SM SCT070 30/12 A2989 RMK AO2 T03010115,0,8,0,16090.0,0,0,0,
2026-04-24 18:55:00,METAR KBGE 241855Z AUTO 25004KT 10SM SCT070 29/12 A2990 RMK AO2 T02880122,0,4,0,16090.0,0,0,0,
2026-04-24 18:35:00,METAR KBGE 241835Z AUTO 19008KT 140V210 10SM SCT060 29/12 A2991 RMK AO2 T02880121,0,8,0,16090.0,0,0,0,
2026-04-24 18:15:00,METAR KBGE 241815Z AUTO 21007KT 10SM SCT060 29/12 A2992 RMK AO2 T02890123,0,7,0,16090.0,0,0,0,
2026-04-24 17:55:00,METAR KBGE 241755Z AUTO 24008KT 180V250 10SM SCT060 29/12 A2993 RMK AO2 T02890119 10298 20146,0,8,0,16090.0,0,0,0,
2026-04-24 17:35:00,METAR KBGE 241735Z AUTO 24009G16KT 220V280 10SM SCT060 29/12 A2994 RMK AO2 T02880121,0,9,1,16090.0,0,0,0,
2026-04-24 17:15:00,METAR KBGE 241715Z AUTO 21006G16KT 10SM SCT060 29/12 A2995 RMK AO2 T02860121,0,6,1,16090.0,0,0,0,
2026-04-24 16:55:00,METAR KBGE 241655Z AUTO 24008KT 10SM SCT060 28/12 A2995 RMK AO2 T02810125,0,8,0,16090.0,0,0,0,
2026-04-24 16:35:00,METAR KBGE 241635Z AUTO 17010KT 10SM CLR 28/13 A2996 RMK AO2 T02820126,0,10,0,16090.0,0,0,0,
2026-04-24 16:15:00,METAR KBGE 241615Z AUTO 23010KT 10SM CLR 28/12 A2997 RMK AO2 T02770124,0,10,0,16090.0,0,0,0,
2026-04-24 15:55:00,METAR KBGE 241555Z AUTO 16006KT 10SM CLR 27/12 A2998 RMK AO2 T02730123,0,6,0,16090.0,0,0,0,
2026-04-24 15:35:00,METAR KBGE 241535Z AUTO 16007KT 10SM CLR 27/13 A2998 RMK AO2 T02670125,0,7,0,16090.0,0,0,0,
2026-04-24 15:15:00,METAR KBGE 241515Z AUTO 19009KT 130V210 10SM CLR 26/13 A2999 RMK AO2 T02580128,0,9,0,16090.0,0,0,0,
2026-04-24 14:55:00,METAR KBGE 241455Z AUTO 17008KT 10SM CLR 25/13 A2998 RMK AO2 T02510134,0,8,0,16090.0,0,0,0,
2026-04-24 14:35:00,METAR KBGE 241435Z AUTO 16006KT 10SM CLR 24/13 A2998 RMK AO2 T02440135,0,6,0,16090.0,0,0,0,
2026-04-24 14:15:00,METAR KBGE 241415Z AUTO 17004KT 10SM CLR 24/14 A2998 RMK AO2 T02360141,0,4,0,16090.0,0,0,0,
2026-04-24 13:55:00,METAR KBGE 241355Z AUTO 17004KT 10SM CLR 23/13 A2998 RMK AO2 T02270130,0,4,0,16090.0,0,0,0,
2026-04-24 13:35:00,METAR KBGE 241335Z AUTO 17005KT 10SM CLR 21/13 A2998 RMK AO2 T02130133,0,5,0,16090.0,0,0,0,
2026-04-24 13:15:00,METAR KBGE 241315Z AUTO 15006KT 10SM CLR 20/13 A2998 RMK AO2 T02010131,0,6,0,16090.0,0,0,0,
2026-04-24 12:55:00,METAR KBGE 241255Z AUTO 13004KT 10SM CLR 19/14 A2998 RMK AO2 T01900135,0,4,0,16090.0,0,0,0,
2026-04-24 12:35:00,METAR KBGE 241235Z AUTO 00000KT 10SM CLR 17/14 A2998 RMK AO2 T01740137,0,0,0,16090.0,0,0,0,
2026-04-24 12:15:00,METAR KBGE 241215Z AUTO 00000KT 10SM CLR 16/14 A2999 RMK AO2 T01610138,0,0,0,16090.0,0,0,0,
2026-04-24 11:55:00,METAR KBGE 241155Z AUTO 00000KT 10SM CLR 14/14 A2998 RMK AO2 T01450139 10154 20119,0,0,0,16090.0,0,0,0,
2026-04-24 11:35:00,METAR KBGE 241135Z AUTO 14004KT 10SM CLR 14/13 A2998 RMK AO2 T01370126,0,4,0,16090.0,0,0,0,
2026-04-24 11:15:00,METAR KBGE 241115Z AUTO 14004KT 10SM CLR 13/12 A2997 RMK AO2 T01320124,0,4,0,16090.0,0,0,0,
2026-04-24 10:55:00,METAR KBGE 241055Z AUTO 14004KT 10SM CLR 13/13 A2997 RMK AO2 T01300130,0,4,0,16090.0,0,0,0,
2026-04-24 10:35:00,METAR KBGE 241035Z AUTO 15004KT 10SM CLR 13/ A2997 RMK AO2 T0129////,0,4,0,16090.0,0,0,0,
2026-04-24 10:15:00,METAR KBGE 241015Z AUTO 14005KT 10SM CLR 12/ A2998 RMK AO2 T0123////,0,5,0,16090.0,0,0,0,
2026-04-24 09:55:00,METAR KBGE 240955Z AUTO 00000KT 10SM CLR 13/ A2997 RMK AO2 T0130////,0,0,0,16090.0,0,0,0,
2026-04-24 09:35:00,METAR KBGE 240935Z AUTO 00000KT 10SM CLR 13/ A2997 RMK AO2 T0129////,0,0,0,16090.0,0,0,0,
2026-04-24 09:15:00,METAR KBGE 240915Z AUTO 16003KT 10SM CLR 13/ A2996 RMK AO2 T0132////,0,3,0,16090.0,0,0,0,
2026-04-24 08:55:00,METAR KBGE 240855Z AUTO 00000KT 10SM CLR 14/14 A2996 RMK AO2 T0136////,0,0,0,16090.0,0,0,0,
2026-04-24 04:35:00,METAR KBGE 240435Z AUTO 00000KT 10SM CLR 17/14 A2999 RMK AO2 T01720140,0,0,0,16090.0,0,0,0,
2026-04-24 04:15:00,METAR KBGE 240415Z AUTO 00000KT 10SM CLR 17/14 A2999 RMK AO2 T01730141,0,0,0,16090.0,0,0,0,
2026-04-24 03:55:00,METAR KBGE 240355Z AUTO 21003KT 10SM CLR 17/14 A2999 RMK AO2 T01710141,0,3,0,16090.0,0,0,0,
2026-04-24 03:35:00,METAR KBGE 240335Z AUTO 20003KT 10SM CLR 19/14 A2999 RMK AO2 T01860137,0,3,0,16090.0,0,0,0,
2026-04-24 03:15:00,METAR KBGE 240315Z AUTO 22003KT 10SM CLR 20/14 A3000 RMK AO2 T01970137,0,3,0,16090.0,0,0,0,
2026-04-24 02:55:00,METAR KBGE 240255Z AUTO 22003KT 10SM CLR 20/14 A3000 RMK AO2 T01980136,0,3,0,16090.0,0,0,0,
2026-04-24 02:35:00,METAR KBGE 240235Z AUTO 25004KT 10SM CLR 21/13 A3000 RMK AO2 T02060135,0,4,0,16090.0,0,0,0,
2026-04-24 02:15:00,METAR KBGE 240215Z AUTO 23005KT 10SM CLR 21/13 A3000 RMK AO2 T02070131,0,5,0,16090.0,0,0,0,
2026-04-24 01:55:00,METAR KBGE 240155Z AUTO 25005KT 10SM CLR 22/13 A3000 RMK AO2 T02160126,0,5,0,16090.0,0,0,0,
2026-04-24 01:35:00,METAR KBGE 240135Z AUTO 24004KT 10SM CLR 21/13 A2999 RMK AO2 T02150130,0,4,0,16090.0,0,0,0,
2026-04-24 01:15:00,METAR KBGE 240115Z AUTO 23003KT 10SM SCT120 23/13 A2999 RMK AO2 T02280125,0,3,0,16090.0,0,0,0,
2026-04-24 00:55:00,METAR KBGE 240055Z AUTO 25003KT 10SM OVC110 23/13 A2999 RMK AO2 T02300128,0,3,0,16090.0,0,0,0,
2026-04-24 00:15:00,METAR KBGE 240015Z AUTO 21004KT 10SM SCT075 OVC110 24/12 A2998 RMK AO2 T02410118,0,4,0,16090.0,0,0,0,
2026-04-23 23:55:00,METAR KBGE 232355Z AUTO 19005KT 10SM SCT120 24/12 A2999 RMK AO2 T02450118 10290 20244 402900152,0,5,0,16090.0,0,0,0,
2026-04-23 23:35:00,METAR KBGE 232335Z AUTO 18007KT 10SM CLR 25/12 A2999 RMK AO2 T02510121,0,7,0,16090.0,0,0,0,
2026-04-23 23:15:00,METAR KBGE 232315Z AUTO 17004KT 10SM SCT110 26/12 A2998 RMK AO2 T02600122,0,4,0,16090.0,0,0,0,
2026-04-23 22:55:00,METAR KBGE 232255Z AUTO 19004KT 10SM BKN110 27/12 A2998 RMK AO2 T02690122,0,4,0,16090.0,0,0,0,
2026-04-23 22:35:00,METAR KBGE 232235Z AUTO 19004KT 10SM OVC100 27/12 A2999 RMK AO2 T02710120,0,4,0,16090.0,0,0,0,
2026-04-23 22:15:00,METAR KBGE 232215Z AUTO 20006KT 10SM OVC100 26/12 A2999 RMK AO2 T02640124,0,6,0,16090.0,0,0,0,
2026-04-23 21:55:00,METAR KBGE 232155Z AUTO 17006KT 10SM OVC110 26/12 A2999 RMK AO2 T02640124,0,6,0,16090.0,0,0,0,
2026-04-23 21:35:00,METAR KBGE 232135Z AUTO 22003KT 10SM BKN110 26/12 A2999 RMK AO2 T02630124,0,3,0,16090.0,0,0,0,
2026-04-23 21:15:00,METAR KBGE 232115Z AUTO 22005KT 10SM SCT080 BKN120 26/12 A2999 RMK AO2 T02630119,0,5,0,16090.0,0,0,0,
2026-04-23 20:55:00,METAR KBGE 232055Z AUTO 14006KT 10SM BKN080 BKN120 27/11 A2999 RMK AO2 T02670112,0,6,0,16090.0,0,0,0,
2026-04-23 20:35:00,METAR KBGE 232035Z AUTO 11003KT 10SM SCT120 27/11 A2999 RMK AO2 T02710108,0,3,0,16090.0,0,0,0,
2026-04-23 20:15:00,METAR KBGE 232015Z AUTO 14004KT 10SM BKN120 27/11 A3000 RMK AO2 T02750115,0,4,0,16090.0,0,0,0,
2026-04-23 19:55:00,METAR KBGE 231955Z AUTO 14005KT 10SM OVC110 27/11 A3001 RMK AO2 T02710112,0,5,0,16090.0,0,0,0,
2026-04-23 19:35:00,METAR KBGE 231935Z AUTO 18003KT 10SM BKN095 OVC120 26/11 A3002 RMK AO2 T02640111,0,3,0,16090.0,0,0,0,
2026-04-23 19:15:00,METAR KBGE 231915Z AUTO 16005KT 10SM OVC095 26/12 A3003 RMK AO2 T02640117,0,5,0,16090.0,0,0,0,
2026-04-23 18:55:00,METAR KBGE 231855Z AUTO 15005KT 10SM SCT070 OVC095 26/11 A3004 RMK AO2 T02650112,0,5,0,16090.0,0,0,0,
2026-04-23 18:35:00,METAR KBGE 231835Z AUTO 16004KT 10SM BKN060 OVC075 26/11 A3005 RMK AO2 T02650114,0,4,0,16090.0,0,0,0,
2026-04-23 18:15:00,METAR KBGE 231815Z AUTO 10007KT 10SM BKN060 BKN100 28/12 A3005 RMK AO2 T02750119,0,7,0,16090.0,0,0,0,
2026-04-23 17:55:00,METAR KBGE 231755Z AUTO 16008KT 10SM SCT065 SCT100 28/12 A3006 RMK AO2 T02770124 10284 20162,0,8,0,16090.0,0,0,0,
2026-04-23 17:35:00,METAR KBGE 231735Z AUTO 15004KT 10SM SCT055 BKN065 OVC090 27/14 A3007 RMK AO2 T02700137,0,4,0,16090.0,0,0,0,
2026-04-23 17:15:00,METAR KBGE 231715Z AUTO 21004KT 10SM SCT049 SCT065 OVC080 26/13 A3008 RMK AO2 T02560134,0,4,0,16090.0,0,0,0,
2026-04-23 16:55:00,METAR KBGE 231655Z AUTO 14004KT 10SM BKN049 SCT065 BKN080 27/13 A3009 RMK AO2 T02660131,0,4,0,16090.0,0,0,0,
2026-04-23 16:35:00,METAR KBGE 231635Z AUTO 12007KT 10SM BKN049 BKN065 BKN090 27/13 A3010 RMK AO2 T02720134,0,7,0,16090.0,0,0,0,
2026-04-23 15:55:00,METAR KBGE 231555Z AUTO 18006KT 10SM SCT043 SCT050 26/14 A3011 RMK AO2 T02610144,0,6,0,16090.0,0,0,0,
2026-04-23 15:35:00,METAR KBGE 231535Z AUTO 15006KT 10SM CLR 26/15 A3012 RMK AO2 T02550148,0,6,0,16090.0,0,0,0,
2026-04-23 15:15:00,METAR KBGE 231515Z AUTO 12007KT 10SM CLR 25/15 A3012 RMK AO2 T02480149,0,7,0,16090.0,0,0,0,
2026-04-23 14:55:00,METAR KBGE 231455Z AUTO 16007KT 10SM CLR 24/15 A3012 RMK AO2 T02430149,0,7,0,16090.0,0,0,0,
2026-04-23 14:35:00,METAR KBGE 231435Z AUTO 16006KT 10SM CLR 24/15 A3013 RMK AO2 T02360150,0,6,0,16090.0,0,0,0,
2026-04-23 14:15:00,METAR KBGE 231415Z AUTO 14006KT 10SM CLR 23/15 A3013 RMK AO2 T02280148,0,6,0,16090.0,0,0,0,
2026-04-23 13:55:00,METAR KBGE 231355Z AUTO 14007KT 10SM CLR 22/14 A3013 RMK AO2 T02230137,0,7,0,16090.0,0,0,0,
2026-04-23 13:35:00,METAR KBGE 231335Z AUTO 15005KT 10SM CLR 21/13 A3013 RMK AO2 T02140129,0,5,0,16090.0,0,0,0,
2026-04-23 13:15:00,METAR KBGE 231315Z AUTO 12005KT 10SM CLR 21/13 A3013 RMK AO2 T02070130,0,5,0,16090.0,0,0,0,
2026-04-23 12:55:00,METAR KBGE 231255Z AUTO 12005KT 10SM CLR 20/13 A3013 RMK AO2 T01970129,0,5,0,16090.0,0,0,0,
2026-04-23 12:35:00,METAR KBGE 231235Z AUTO 13004KT 10SM CLR 18/14 A3014 RMK AO2 T01800140,0,4,0,16090.0,0,0,0,
2026-04-23 12:15:00,METAR KBGE 231215Z AUTO 14003KT 10SM CLR 17/15 A3013 RMK AO2 T01700146,0,3,0,16090.0,0,0,0,
2026-04-23 11:55:00,METAR KBGE 231155Z AUTO 12004KT 10SM CLR 16/15 A3012 RMK AO2 T01610148 10172 20152,0,4,0,16090.0,0,0,0,
2026-04-23 11:35:00,METAR KBGE 231135Z AUTO 13003KT 10SM CLR 16/14 A3012 RMK AO2 T01590144,0,3,0,16090.0,0,0,0,
2026-04-23 11:15:00,METAR KBGE 231115Z AUTO 00000KT 10SM CLR 15/15 A3011 RMK AO2 T01550147,0,0,0,16090.0,0,0,0,
2026-04-23 10:55:00,METAR KBGE 231055Z AUTO 13006KT 10SM CLR 15/15 A3011 RMK AO2 T01530151,0,6,0,16090.0,0,0,0,
2026-04-23 10:35:00,METAR KBGE 231035Z AUTO 11003KT 10SM CLR 16/15 A3010 RMK AO2 T01600145,0,3,0,16090.0,0,0,0,
2026-04-23 10:15:00,METAR KBGE 231015Z AUTO 09004KT 10SM CLR 16/15 A3010 RMK AO2 T01580146,0,4,0,16090.0,0,0,0,
2026-04-23 09:55:00,METAR KBGE 230955Z AUTO 08004KT 10SM CLR 16/15 A3010 RMK AO2 T01560150,0,4,0,16090.0,0,0,0,
2026-04-23 09:35:00,METAR KBGE 230935Z AUTO 09004KT 10SM CLR 16/15 A3009 RMK AO2 T01580150,0,4,0,16090.0,0,0,0,
2026-04-23 09:15:00,METAR KBGE 230915Z AUTO 00000KT 10SM CLR 16/16 A3009 RMK AO2 T01600155,0,0,0,16090.0,0,0,0,
2026-04-23 08:55:00,METAR KBGE 230855Z AUTO 00000KT 10SM CLR 16/15 A3009 RMK AO2 T01650153,0,0,0,16090.0,0,0,0,
2026-04-23 08:35:00,METAR KBGE 230835Z AUTO 00000KT 10SM CLR 17/16 A3009 RMK AO2 T01660158,0,0,0,16090.0,0,0,0,
2026-04-23 07:55:00,METAR KBGE 230755Z AUTO 13003KT 10SM CLR 17/15 A3009 RMK AO2 T01670151,0,3,0,16090.0,0,0,0,
2026-04-23 07:35:00,METAR KBGE 230735Z AUTO 00000KT 10SM CLR 17/15 A3009 RMK AO2 T01660154,0,0,0,16090.0,0,0,0,
2026-04-23 07:15:00,METAR KBGE 230715Z AUTO 00000KT 10SM CLR 17/15 A3009 RMK AO2 T01680152,0,0,0,16090.0,0,0,0,
2026-04-23 06:55:00,METAR KBGE 230655Z AUTO 00000KT 10SM CLR 17/15 A3010 RMK AO2 T01690152,0,0,0,16090.0,0,0,0,
2026-04-23 06:15:00,METAR KBGE 230615Z AUTO 00000KT 10SM CLR 17/15 A3011 RMK AO2 T01690148,0,0,0,16090.0,0,0,0,
2026-04-23 05:55:00,METAR KBGE 230555Z AUTO 00000KT 10SM CLR 17/15 A3012 RMK AO2 T01710147 10235 20163,0,0,0,16090.0,0,0,0,
2026-04-23 05:35:00,METAR KBGE 230535Z AUTO 00000KT 10SM CLR 17/15 A3012 RMK AO2 T01650149,0,0,0,16090.0,0,0,0,
2026-04-23 05:15:00,METAR KBGE 230515Z AUTO 00000KT 10SM CLR 17/15 A3012 RMK AO2 T01670148,0,0,0,16090.0,0,0,0,
2026-04-23 04:55:00,METAR KBGE 230455Z AUTO 00000KT 10SM CLR 17/15 A3012 RMK AO2 T01710146,0,0,0,16090.0,0,0,0,
2026-04-23 04:35:00,METAR KBGE 230435Z AUTO 00000KT 10SM CLR 17/14 A3013 RMK AO2 T01730139,0,0,0,16090.0,0,0,0,
2026-04-23 04:15:00,METAR KBGE 230415Z AUTO 00000KT 10SM CLR 18/14 A3013 RMK AO2 T01770138,0,0,0,16090.0,0,0,0,
2026-04-23 03:55:00,METAR KBGE 230355Z AUTO 00000KT 10SM CLR 19/13 A3013 RMK AO2 T01890135,0,0,0,16090.0,0,0,0,
2026-04-23 03:35:00,METAR KBGE 230335Z AUTO 00000KT 10SM SCT110 18/13 A3013 RMK AO2 T01830134,0,0,0,16090.0,0,0,0,
2026-04-23 03:15:00,METAR KBGE 230315Z AUTO 00000KT 10SM BKN110 19/14 A3014 RMK AO2 T01930136,0,0,0,16090.0,0,0,0,
2026-04-23 02:55:00,METAR KBGE 230255Z AUTO 27003KT 10SM CLR 19/14 A3014 RMK AO2 T01950137,0,3,0,16090.0,0,0,0,
2026-04-23 02:35:00,METAR KBGE 230235Z AUTO 26003KT 10SM CLR 20/13 A3014 RMK AO2 T02000132,0,3,0,16090.0,0,0,0,
2026-04-23 02:15:00,METAR KBGE 230215Z AUTO 24005KT 10SM CLR 20/13 A3014 RMK AO2 T02040129,0,5,0,16090.0,0,0,0,
2026-04-23 01:55:00,METAR KBGE 230155Z AUTO 24006KT 10SM SCT080 SCT120 21/13 A3014 RMK AO2 T02070128,0,6,0,16090.0,0,0,0,
2026-04-23 01:35:00,METAR KBGE 230135Z AUTO 25010KT 10SM SCT080 SCT120 21/13 A3014 RMK AO2 T02110126,0,10,0,16090.0,0,0,0,
2026-04-23 01:15:00,METAR KBGE 230115Z AUTO 24011KT 10SM SCT120 22/13 A3013 RMK AO2 T02160126,0,11,0,16090.0,0,0,0,
2026-04-23 00:55:00,METAR KBGE 230055Z AUTO 24008KT 10SM CLR 22/12 A3012 RMK AO2 T02240119,0,8,0,16090.0,0,0,0,
2026-04-23 00:35:00,METAR KBGE 230035Z AUTO 22010KT 10SM CLR 23/12 A3012 RMK AO2 T02310118,0,10,0,16090.0,0,0,0,
2026-04-23 00:15:00,METAR KBGE 230015Z AUTO 19006KT 10SM BKN110 23/12 A3011 RMK AO2 T02320121,0,6,0,16090.0,0,0,0,
2026-04-22 23:55:00,METAR KBGE 222355Z AUTO 19007KT 10SM OVC110 23/12 A3011 RMK AO2 T02350116 10282 20234 402820147,0,7,0,16090.0,0,0,0,
2026-04-22 23:35:00,METAR KBGE 222335Z AUTO 19004KT 10SM BKN110 24/11 A3010 RMK AO2 T02380115,0,4,0,16090.0,0,0,0,
2026-04-22 23:15:00,METAR KBGE 222315Z AUTO 19004KT 10SM SCT110 24/11 A3011 RMK AO2 T02430114,0,4,0,16090.0,0,0,0,
2026-04-22 22:55:00,METAR KBGE 222255Z AUTO 18005KT 10SM SCT090 SCT120 25/11 A3011 RMK AO2 T02480111,0,5,0,16090.0,0,0,0,
2026-04-22 22:35:00,METAR KBGE 222235Z AUTO 19006KT 10SM SCT120 25/11 A3011 RMK AO2 T02500108,0,6,0,16090.0,0,0,0,
2026-04-22 22:15:00,METAR KBGE 222215Z AUTO 17006KT 10SM BKN090 BKN120 25/11 A3011 RMK AO2 T02520106,0,6,0,16090.0,0,0,0,
2026-04-22 21:55:00,METAR KBGE 222155Z AUTO 17010KT 10SM SCT090 BKN120 25/10 A3011 RMK AO2 T02540099,0,10,0,16090.0,0,0,0,
2026-04-22 21:35:00,METAR KBGE 222135Z AUTO 18008KT 10SM SCT090 OVC120 25/11 A3011 RMK AO2 T02550106,0,8,0,16090.0,0,0,0,
2026-04-22 21:15:00,METAR KBGE 222115Z AUTO 18013KT 10SM BKN090 BKN120 25/11 A3012 RMK AO2 T02540106,0,13,0,16090.0,0,0,0,
2026-04-22 20:35:00,METAR KBGE 222035Z AUTO 00000KT 10SM BKN100 26/07 A3012 RMK AO2 T02630070,0,0,0,16090.0,0,0,0,
2026-04-22 20:15:00,METAR KBGE 222015Z AUTO 25003KT 10SM BKN100 26/07 A3013 RMK AO2 T02650075,0,3,0,16090.0,0,0,0,
2026-04-22 19:55:00,METAR KBGE 221955Z AUTO 34005KT 10SM CLR 27/09 A3015 RMK AO2 LTG DSNT W T02710089,0,5,0,16090.0,0,0,0,DS
2026-04-22 19:35:00,METAR KBGE 221935Z AUTO 36005KT 10SM CLR 28/10 A3016 RMK AO2 T02760099,0,5,0,16090.0,0,0,0,
2026-04-22 19:15:00,METAR KBGE 221915Z AUTO 00000KT 10SM CLR 27/09 A3017 RMK AO2 T02670092,0,0,0,16090.0,0,0,0,
2026-04-22 18:55:00,METAR KBGE 221855Z AUTO 20003KT 10SM CLR 27/10 A3018 RMK AO2 T02740099,0,3,0,16090.0,0,0,0,
2026-04-22 18:35:00,METAR KBGE 221835Z AUTO 00000KT 10SM CLR 27/10 A3020 RMK AO2 T02660100,0,0,0,16090.0,0,0,0,
2026-04-22 18:15:00,METAR KBGE 221815Z AUTO 25003KT 10SM CLR 26/10 A3021 RMK AO2 T02620103,0,3,0,16090.0,0,0,0,
2026-04-22 17:55:00,METAR KBGE 221755Z AUTO 21007KT 190V260 10SM CLR 26/11 A3021 RMK AO2 T02590108 10272 20155,0,7,0,16090.0,0,0,0,
2026-04-22 17:35:00,METAR KBGE 221735Z AUTO 20005KT 10SM CLR 26/12 A3022 RMK AO2 T02620115,0,5,0,16090.0,0,0,0,
2026-04-22 16:40:00,METAR KBGE 221640Z AUTO 26008KT 10SM CLR 25/10 A3024 RMK AO2 T02520100,0,8,0,16090.0,0,0,0,
2026-04-22 16:15:00,METAR KBGE 221615Z AUTO 24008G14KT 10SM CLR 26/10 A3025 RMK AO2 T02590098,0,8,1,16090.0,0,0,0,
2026-04-22 15:55:00,METAR KBGE 221555Z AUTO 21010KT 10SM CLR 25/11 A3025 RMK AO2 T02510114,0,10,0,16090.0,0,0,0,
2026-04-22 15:35:00,METAR KBGE 221535Z AUTO 22008KT 10SM CLR 25/12 A3025 RMK AO2 T02480123,0,8,0,16090.0,0,0,0,
2026-04-22 15:15:00,METAR KBGE 221515Z AUTO 20009KT 10SM CLR 24/13 A3025 RMK AO2 T02430129,0,9,0,16090.0,0,0,0,
2026-04-22 14:55:00,METAR KBGE 221455Z AUTO 20009KT 10SM CLR 23/13 A3025 RMK AO2 T02250134,0,9,0,16090.0,0,0,0,
2026-04-22 14:35:00,METAR KBGE 221435Z AUTO 20011KT 10SM CLR 22/13 A3025 RMK AO2 T02180130,0,11,0,16090.0,0,0,0,
2026-04-22 14:15:00,METAR KBGE 221415Z AUTO 19007KT 10SM CLR 20/12 A3025 RMK AO2 T02010118,0,7,0,16090.0,0,0,0,
2026-04-22 13:35:00,METAR KBGE 221335Z AUTO 18005KT 10SM CLR 18/11 A3025 RMK AO2 T01790105,0,5,0,16090.0,0,0,0,
2026-04-22 13:15:00,METAR KBGE 221315Z AUTO 17005KT 10SM CLR 17/11 A3024 RMK AO2 T01710105,0,5,0,16090.0,0,0,0,
2026-04-22 12:55:00,METAR KBGE 221255Z AUTO 19003KT 10SM CLR 17/10 A3024 RMK AO2 T01660105,0,3,0,16090.0,0,0,0,
2026-04-22 12:35:00,METAR KBGE 221235Z AUTO 19004KT 10SM CLR 16/10 A3024 RMK AO2 T01610103,0,4,0,16090.0,0,0,0,
2026-04-22 12:15:00,METAR KBGE 221215Z AUTO 21003KT 10SM CLR 16/10 A3024 RMK AO2 T01570102,0,3,0,16090.0,0,0,0,
2026-04-22 11:55:00,METAR KBGE 221155Z AUTO 17004KT 10SM CLR 15/10 A3022 RMK AO2 T01550100 10175 20147,0,4,0,16090.0,0,0,0,
2026-04-22 11:35:00,METAR KBGE 221135Z AUTO 19003KT 10SM CLR 15/09 A3022 RMK AO2 T01550093,0,3,0,16090.0,0,0,0,
2026-04-22 11:15:00,METAR KBGE 221115Z AUTO 15003KT 10SM CLR 15/09 A3021 RMK AO2 T01510087,0,3,0,16090.0,0,0,0,
2026-04-22 10:55:00,METAR KBGE 221055Z AUTO 15005KT 10SM CLR 15/09 A3020 RMK AO2 T01520086,0,5,0,16090.0,0,0,0,
2026-04-22 10:35:00,METAR KBGE 221035Z AUTO 14004KT 10SM CLR 16/08 A3020 RMK AO2 T01590081,0,4,0,16090.0,0,0,0,
2026-04-22 10:15:00,METAR KBGE 221015Z AUTO 12004KT 10SM CLR 16/08 A3019 RMK AO2 T01550082,0,4,0,16090.0,0,0,0,
2026-04-22 09:55:00,METAR KBGE 220955Z AUTO 13003KT 10SM CLR 16/08 A3019 RMK AO2 T01590081,0,3,0,16090.0,0,0,0,
2026-04-22 09:35:00,METAR KBGE 220935Z AUTO 13006KT 10SM CLR 16/08 A3019 RMK AO2 T01580084,0,6,0,16090.0,0,0,0,
2026-04-22 09:15:00,METAR KBGE 220915Z AUTO 11005KT 10SM CLR 16/09 A3019 RMK AO2 T01560091,0,5,0,16090.0,0,0,0,
2026-04-22 08:35:00,METAR KBGE 220835Z AUTO 11003KT 10SM CLR 15/11 A3020 RMK AO2 T01490111,0,3,0,16090.0,0,0,0,
2026-04-22 08:15:00,METAR KBGE 220815Z AUTO 10004KT 10SM CLR 15/12 A3020 RMK AO2 T01480117,0,4,0,16090.0,0,0,0,
2026-04-22 07:55:00,METAR KBGE 220755Z AUTO 09005KT 10SM CLR 15/11 A3020 RMK AO2 T01530114,0,5,0,16090.0,0,0,0,
2026-04-22 07:35:00,METAR KBGE 220735Z AUTO 00000KT 10SM CLR 16/11 A3021 RMK AO2 T01570114,0,0,0,16090.0,0,0,0,
2026-04-22 07:15:00,METAR KBGE 220715Z AUTO 10003KT 10SM CLR 15/11 A3021 RMK AO2 T01520114,0,3,0,16090.0,0,0,0,
2026-04-22 06:55:00,METAR KBGE 220655Z AUTO 00000KT 10SM CLR 17/11 A3021 RMK AO2 T01670105,0,0,0,16090.0,0,0,0,
2026-04-22 06:35:00,METAR KBGE 220635Z AUTO 00000KT 10SM CLR 17/10 A3021 RMK AO2 T01710099,0,0,0,16090.0,0,0,0,
2026-04-22 06:15:00,METAR KBGE 220615Z AUTO 00000KT 10SM CLR 17/10 A3023 RMK AO2 T01710102,0,0,0,16090.0,0,0,0,
2026-04-22 05:55:00,METAR KBGE 220555Z AUTO 00000KT 10SM CLR 17/10 A3023 RMK AO2 T01690104 10237 20164,0,0,0,16090.0,0,0,0,
2026-04-22 05:35:00,METAR KBGE 220535Z AUTO 11003KT 10SM CLR 17/10 A3023 RMK AO2 T01710099,0,3,0,16090.0,0,0,0,
2026-04-22 05:15:00,METAR KBGE 220515Z AUTO 03004KT 10SM CLR 18/10 A3023 RMK AO2 T01770099,0,4,0,16090.0,0,0,0,
2026-04-22 04:55:00,METAR KBGE 220455Z AUTO 32003KT 10SM CLR 17/10 A3023 RMK AO2 T01710102,0,3,0,16090.0,0,0,0,
2026-04-22 04:35:00,METAR KBGE 220435Z AUTO 30004KT 10SM CLR 19/09 A3024 RMK AO2 T01850092,0,4,0,16090.0,0,0,0,
2026-04-22 04:15:00,METAR KBGE 220415Z AUTO 28003KT 10SM SCT110 18/09 A3024 RMK AO2 T01760086,0,3,0,16090.0,0,0,0,
2026-04-22 03:55:00,METAR KBGE 220355Z AUTO 25005KT 10SM SCT110 18/08 A3024 RMK AO2 T01840081,0,5,0,16090.0,0,0,0,
2026-04-22 03:35:00,METAR KBGE 220335Z AUTO 25006KT 10SM SCT110 19/07 A3025 RMK AO2 T01900074,0,6,0,16090.0,0,0,0,
2026-04-22 03:15:00,METAR KBGE 220315Z AUTO 22005KT 10SM SCT100 19/06 A3024 RMK AO2 T01930062,0,5,0,16090.0,0,0,0,
2026-04-22 02:55:00,METAR KBGE 220255Z AUTO 18006KT 10SM CLR 17/07 A3024 RMK AO2 T01710070,0,6,0,16090.0,0,0,0,
2026-04-22 02:35:00,METAR KBGE 220235Z AUTO 15003KT 10SM CLR 18/06 A3024 RMK AO2 T01810064,0,3,0,16090.0,0,0,0,
2026-04-22 02:15:00,METAR KBGE 220215Z AUTO 11004KT 10SM CLR 18/06 A3024 RMK AO2 T01840064,0,4,0,16090.0,0,0,0,
2026-04-22 01:55:00,METAR KBGE 220155Z AUTO 14005KT 10SM CLR 19/06 A3024 RMK AO2 T01890064,0,5,0,16090.0,0,0,0,
2026-04-22 01:35:00,METAR KBGE 220135Z AUTO 07003KT 10SM CLR 20/04 A3023 RMK AO2 T02050041,0,3,0,16090.0,0,0,0,
2026-04-22 01:15:00,METAR KBGE 220115Z AUTO 00000KT 10SM CLR 22/03 A3022 RMK AO2 T02180032,0,0,0,16090.0,0,0,0,
2026-04-22 00:55:00,METAR KBGE 220055Z AUTO 00000KT 10SM CLR 22/04 A3022 RMK AO2 T02160037,0,0,0,16090.0,0,0,0,
2026-04-22 00:35:00,METAR KBGE 220035Z AUTO 07005KT 10SM CLR 22/03 A3021 RMK AO2 T02240035,0,5,0,16090.0,0,0,0,
2026-04-22 00:15:00,METAR KBGE 220015Z AUTO 07005KT 10SM CLR 23/03 A3021 RMK AO2 T02280034,0,5,0,16090.0,0,0,0,
2026-04-21 23:55:00,METAR KBGE 212355Z AUTO 07006KT 10SM CLR 24/03 A3021 RMK AO2 T02420029 10299 20238 402990074,0,6,0,16090.0,0,0,0,
2026-04-21 23:35:00,METAR KBGE 212335Z AUTO 08008KT 10SM CLR 25/03 A3021 RMK AO2 T02500029,0,8,0,16090.0,0,0,0,
2026-04-21 23:15:00,METAR KBGE 212315Z AUTO 09008KT 10SM CLR 27/02 A3020 RMK AO2 T02660023,0,8,0,16090.0,0,0,0,
2026-04-21 22:55:00,METAR KBGE 212255Z AUTO 08009KT 10SM CLR 28/02 A3020 RMK AO2 T02800022,0,9,0,16090.0,0,0,0,
2026-04-21 22:35:00,METAR KBGE 212235Z AUTO 08011KT 10SM CLR 28/02 A3020 RMK AO2 T02790021,0,11,0,16090.0,0,0,0,
2026-04-21 22:15:00,METAR KBGE 212215Z AUTO 08007KT 10SM CLR 28/02 A3020 RMK AO2 T02840021,0,7,0,16090.0,0,0,0,
2026-04-21 21:55:00,METAR KBGE 212155Z AUTO 08007KT 10SM CLR 28/01 A3020 RMK AO2 T02760012,0,7,0,16090.0,0,0,0,
2026-04-21 21:35:00,METAR KBGE 212135Z AUTO 08009KT 10SM CLR 28/02 A3020 RMK AO2 T02770017,0,9,0,16090.0,0,0,0,
2026-04-21 21:15:00,METAR KBGE 212115Z AUTO 06006KT 10SM CLR 28/01 A3020 RMK AO2 T02800015,0,6,0,16090.0,0,0,0,
2026-04-21 20:55:00,METAR KBGE 212055Z AUTO 07011G15KT 10SM CLR 28/02 A3020 RMK AO2 T02800017,0,11,1,16090.0,0,0,0,
2026-04-21 20:35:00,METAR KBGE 212035Z AUTO 10008KT 10SM CLR 29/02 A3021 RMK AO2 T02890016,0,8,0,16090.0,0,0,0,
2026-04-21 20:15:00,METAR KBGE 212015Z AUTO 07011G20KT 030V100 10SM CLR 29/02 A3022 RMK AO2 T02890019,0,11,1,16090.0,0,0,0,
2026-04-21 19:55:00,METAR KBGE 211955Z AUTO 07012KT 10SM CLR 29/02 A3023 RMK AO2 T02920024,0,12,0,16090.0,0,0,0,
2026-04-21 19:35:00,METAR KBGE 211935Z AUTO 32007KT 10SM CLR 29/03 A3024 RMK AO2 T02860033,0,7,0,16090.0,0,0,0,
2026-04-21 19:15:00,METAR KBGE 211915Z AUTO 05008G15KT 10SM CLR 29/03 A3025 RMK AO2 T02870032,0,8,1,16090.0,0,0,0,
2026-04-21 18:55:00,METAR KBGE 211855Z AUTO 05007G15KT 020V080 10SM CLR 29/05 A3026 RMK AO2 T02890045,0,7,1,16090.0,0,0,0,
2026-04-21 18:35:00,METAR KBGE 211835Z AUTO 06004KT 10SM CLR 28/04 A3027 RMK AO2 T02820041,0,4,0,16090.0,0,0,0,
2026-04-21 18:15:00,METAR KBGE 211815Z AUTO 04007KT 010V090 10SM CLR 27/04 A3027 RMK AO2 T02730035,0,7,0,16090.0,0,0,0,
2026-04-21 17:55:00,METAR KBGE 211755Z AUTO 10004G16KT 10SM CLR 28/03 A3028 RMK AO2 T02790030 10284 20090,0,4,1,16090.0,0,0,0,
2026-04-21 17:35:00,METAR KBGE 211735Z AUTO 04008G16KT 10SM CLR 27/02 A3029 RMK AO2 T02750024,0,8,1,16090.0,0,0,0,
2026-04-21 17:15:00,METAR KBGE 211715Z AUTO 06008KT 310V080 10SM CLR 26/02 A3030 RMK AO2 T02630017,0,8,0,16090.0,0,0,0,
2026-04-21 16:55:00,METAR KBGE 211655Z AUTO 02005G15KT 10SM CLR 27/02 A3031 RMK AO2 T02710024,0,5,1,16090.0,0,0,0,
2026-04-21 16:35:00,METAR KBGE 211635Z AUTO 03004KT 10SM CLR 26/03 A3032 RMK AO2 T02610025,0,4,0,16090.0,0,0,0,
2026-04-21 16:15:00,METAR KBGE 211615Z AUTO 07009KT 010V090 10SM CLR 26/02 A3032 RMK AO2 T02620023,0,9,0,16090.0,0,0,0,
2026-04-21 15:55:00,METAR KBGE 211555Z AUTO 08006KT 10SM CLR 26/02 A3032 RMK AO2 T02590022,0,6,0,16090.0,0,0,0,
2026-04-21 15:35:00,METAR KBGE 211535Z AUTO 06004KT 10SM CLR 25/02 A3033 RMK AO2 T02530022,0,4,0,16090.0,0,0,0,
2026-04-21 15:15:00,METAR KBGE 211515Z AUTO 09006KT 10SM CLR 25/03 A3033 RMK AO2 T02470030,0,6,0,16090.0,0,0,0,
2026-04-21 14:55:00,METAR KBGE 211455Z AUTO 04006KT 10SM CLR 24/03 A3033 RMK AO2 T02390029,0,6,0,16090.0,0,0,0,
2026-04-21 14:35:00,METAR KBGE 211435Z AUTO 08005KT 10SM CLR 23/04 A3033 RMK AO2 T02340042,0,5,0,16090.0,0,0,0,
2026-04-21 14:15:00,METAR KBGE 211415Z AUTO 03005KT 10SM CLR 22/03 A3032 RMK AO2 T02190026,0,5,0,16090.0,0,0,0,
2026-04-21 13:55:00,METAR KBGE 211355Z AUTO 00000KT 10SM CLR 20/04 A3032 RMK AO2 T02010038,0,0,0,16090.0,0,0,0,
2026-04-21 13:35:00,METAR KBGE 211335Z AUTO 00000KT 10SM CLR 19/04 A3032 RMK AO2 T01900036,0,0,0,16090.0,0,0,0,
2026-04-21 13:15:00,METAR KBGE 211315Z AUTO 09003KT 10SM CLR 17/06 A3031 RMK AO2 T01700058,0,3,0,16090.0,0,0,0,
2026-04-21 12:55:00,METAR KBGE 211255Z AUTO 09003KT 10SM CLR 15/06 A3031 RMK AO2 T01470063,0,3,0,16090.0,0,0,0,
2026-04-21 12:35:00,METAR KBGE 211235Z AUTO 09003KT 10SM CLR 12/08 A3031 RMK AO2 T01240080,0,3,0,16090.0,0,0,0,
2026-04-21 12:15:00,METAR KBGE 211215Z AUTO 00000KT 10SM CLR 11/08 A3031 RMK AO2 T01060080,0,0,0,16090.0,0,0,0,
2026-04-21 11:55:00,METAR KBGE 211155Z AUTO 00000KT 10SM CLR 09/08 A3030 RMK AO2 T00880080 10114 20074,0,0,0,16090.0,0,0,0,
2026-04-21 11:35:00,METAR KBGE 211135Z AUTO 00000KT 10SM CLR 08/07 A3030 RMK AO2 T00760068,0,0,0,16090.0,0,0,0,
2026-04-21 11:15:00,METAR KBGE 211115Z AUTO 00000KT 10SM CLR 08/06 A3030 RMK AO2 T00790059,0,0,0,16090.0,0,0,0,
2026-04-21 10:55:00,METAR KBGE 211055Z AUTO 00000KT 10SM CLR 08/07 A3029 RMK AO2 T00800065,0,0,0,16090.0,0,0,0,
2026-04-21 10:35:00,METAR KBGE 211035Z AUTO 00000KT 10SM CLR 08/06 A3029 RMK AO2 LTG DSNT W T00770059,0,0,0,16090.0,0,0,0,DS
2026-04-21 10:15:00,METAR KBGE 211015Z AUTO 00000KT 10SM CLR 08/07 A3029 RMK AO2 T00790066,0,0,0,16090.0,0,0,0,
2026-04-21 09:55:00,METAR KBGE 210955Z AUTO 00000KT 10SM CLR 09/06 A3028 RMK AO2 T00940057,0,0,0,16090.0,0,0,0,
2026-04-21 09:35:00,METAR KBGE 210935Z AUTO 00000KT 10SM CLR 08/06 A3028 RMK AO2 T00840063,0,0,0,16090.0,0,0,0,
2026-04-21 09:15:00,METAR KBGE 210915Z AUTO 36004KT 10SM CLR 10/06 A3028 RMK AO2 T00960059,0,4,0,16090.0,0,0,0,
2026-04-21 08:55:00,METAR KBGE 210855Z AUTO 00000KT 10SM CLR 10/06 A3027 RMK AO2 T01030063,0,0,0,16090.0,0,0,0,
2026-04-21 08:35:00,METAR KBGE 210835Z AUTO 00000KT 10SM CLR 10/07 A3027 RMK AO2 T00970066,0,0,0,16090.0,0,0,0,
2026-04-21 08:15:00,METAR KBGE 210815Z AUTO 00000KT 10SM CLR 09/07 A3027 RMK AO2 T00900070,0,0,0,16090.0,0,0,0,
2026-04-21 07:55:00,METAR KBGE 210755Z AUTO 13005KT 10SM CLR 08/06 A3027 RMK AO2 T00840063,0,5,0,16090.0,0,0,0,
2026-04-21 07:35:00,METAR KBGE 210735Z AUTO 13008KT 10SM CLR 09/05 A3027 RMK AO2 T00910052,0,8,0,16090.0,0,0,0,
2026-04-21 07:15:00,METAR KBGE 210715Z AUTO 00000KT 10SM CLR 10/05 A3026 RMK AO2 T01000046,0,0,0,16090.0,0,0,0,
2026-04-21 06:55:00,METAR KBGE 210655Z AUTO 00000KT 10SM CLR 10/05 A3027 RMK AO2 T01020047,0,0,0,16090.0,0,0,0,
2026-04-21 06:35:00,METAR KBGE 210635Z AUTO 00000KT 10SM CLR 10/05 A3027 RMK AO2 T01030047,0,0,0,16090.0,0,0,0,
2026-04-21 06:15:00,METAR KBGE 210615Z AUTO 00000KT 10SM CLR 10/05 A3027 RMK AO2 T01030054,0,0,0,16090.0,0,0,0,
2026-04-21 05:55:00,METAR KBGE 210555Z AUTO 00000KT 10SM CLR 11/04 A3027 RMK AO2 T01100043 10221 20106,0,0,0,16090.0,0,0,0,
2026-04-21 05:35:00,METAR KBGE 210535Z AUTO 00000KT 10SM CLR 12/05 A3028 RMK AO2 T01190053,0,0,0,16090.0,0,0,0,
2026-04-21 05:15:00,METAR KBGE 210515Z AUTO 00000KT 10SM CLR 12/05 A3028 RMK AO2 T01220053,0,0,0,16090.0,0,0,0,
2026-04-21 04:55:00,METAR KBGE 210455Z AUTO 32003KT 10SM CLR 12/06 A3028 RMK AO2 T01210059,0,3,0,16090.0,0,0,0,
2026-04-21 04:35:00,METAR KBGE 210435Z AUTO 00000KT 10SM CLR 12/05 A3027 RMK AO2 T01230052,0,0,0,16090.0,0,0,0,
2026-04-21 04:15:00,METAR KBGE 210415Z AUTO 00000KT 10SM CLR 13/04 A3027 RMK AO2 T01270045,0,0,0,16090.0,0,0,0,
2026-04-21 03:55:00,METAR KBGE 210355Z AUTO 00000KT 10SM CLR 13/06 A3027 RMK AO2 T01260056,0,0,0,16090.0,0,0,0,
2026-04-21 03:35:00,METAR KBGE 210335Z AUTO 13004KT 10SM CLR 12/06 A3026 RMK AO2 T01190060,0,4,0,16090.0,0,0,0,
2026-04-21 03:15:00,METAR KBGE 210315Z AUTO 00000KT 10SM CLR 14/03 A3026 RMK AO2 T01360033,0,0,0,16090.0,0,0,0,
2026-04-21 02:55:00,METAR KBGE 210255Z AUTO 00000KT 10SM CLR 15/02 A3026 RMK AO2 T01550019,0,0,0,16090.0,0,0,0,
2026-04-21 02:35:00,METAR KBGE 210235Z AUTO 00000KT 10SM CLR 15/04 A3026 RMK AO2 T01550037,0,0,0,16090.0,0,0,0,
2026-04-21 02:15:00,METAR KBGE 210215Z AUTO 00000KT 10SM CLR 17/03 A3026 RMK AO2 T01710029,0,0,0,16090.0,0,0,0,
2026-04-21 01:55:00,METAR KBGE 210155Z AUTO 00000KT 10SM CLR 18/01 A3025 RMK AO2 T01830007,0,0,0,16090.0,0,0,0,
2026-04-21 01:35:00,METAR KBGE 210135Z AUTO 02003KT 10SM CLR 18/01 A3024 RMK AO2 T01830013,0,3,0,16090.0,0,0,0,
2026-04-21 01:15:00,METAR KBGE 210115Z AUTO 03005KT 10SM CLR 20/00 A3023 RMK AO2 T02001000,0,5,0,16090.0,0,0,0,
2026-04-21 00:55:00,METAR KBGE 210055Z AUTO 03004KT 10SM CLR 21/00 A3023 RMK AO2 T02051001,0,4,0,16090.0,0,0,0,
2026-04-21 00:35:00,METAR KBGE 210035Z AUTO 02004KT 10SM CLR 21/00 A3022 RMK AO2 T02141001,0,4,0,16090.0,0,0,0,
2026-04-21 00:15:00,METAR KBGE 210015Z AUTO 02004KT 10SM CLR 22/00 A3022 RMK AO2 T02151003,0,4,0,16090.0,0,0,0,
2026-04-20 23:55:00,METAR KBGE 202355Z AUTO 04006KT 10SM CLR 22/M01 A3021 RMK AO2 T02241006 10266 20223 402660052,0,6,0,16090.0,0,0,0,
2026-04-20 23:35:00,METAR KBGE 202335Z AUTO 05009KT 10SM CLR 23/M01 A3021 RMK AO2 T02351012,0,9,0,16090.0,0,0,0,
2026-04-20 23:15:00,METAR KBGE 202315Z AUTO 05006KT 10SM CLR 25/M01 A3021 RMK AO2 T02461011,0,6,0,16090.0,0,0,0,
2026-04-20 22:55:00,METAR KBGE 202255Z AUTO 05010KT 10SM CLR 25/M02 A3021 RMK AO2 T02521016,0,10,0,16090.0,0,0,0,
2026-04-20 22:35:00,METAR KBGE 202235Z AUTO 05010KT 10SM CLR 25/M02 A3021 RMK AO2 T02541022,0,10,0,16090.0,0,0,0,
2026-04-20 22:15:00,METAR KBGE 202215Z AUTO 04011KT 10SM CLR 26/M01 A3021 RMK AO2 T02571014,0,11,0,16090.0,0,0,0,
2026-04-20 21:55:00,METAR KBGE 202155Z AUTO 05011KT 10SM CLR 26/M01 A3021 RMK AO2 T02601005,0,11,0,16090.0,0,0,0,
2026-04-20 21:35:00,METAR KBGE 202135Z AUTO 05010KT 10SM CLR 26/M02 A3021 RMK AO2 T02601019,0,10,0,16090.0,0,0,0,
2026-04-20 21:15:00,METAR KBGE 202115Z AUTO 04010KT 10SM CLR 26/M01 A3021 RMK AO2 T02601014,0,10,0,16090.0,0,0,0,
2026-04-20 20:55:00,METAR KBGE 202055Z AUTO 04008KT 10SM CLR 26/M01 A3021 RMK AO2 T02601012,0,8,0,16090.0,0,0,0,
2026-04-20 20:15:00,METAR KBGE 202015Z AUTO 03008G18KT 10SM CLR 26/M01 A3023 RMK AO2 T02571009,0,8,1,16090.0,0,0,0,
2026-04-20 19:55:00,METAR KBGE 201955Z AUTO 03013G17KT 10SM CLR 26/00 A3024 RMK AO2 T02611003,0,13,1,16090.0,0,0,0,
2026-04-20 19:35:00,METAR KBGE 201935Z AUTO 03013G18KT 10SM CLR 26/M01 A3025 RMK AO2 T02611006,0,13,1,16090.0,0,0,0,
2026-04-20 19:15:00,METAR KBGE 201915Z AUTO 04011G17KT 10SM CLR 26/00 A3025 RMK AO2 T02561005,0,11,1,16090.0,0,0,0,
2026-04-20 18:55:00,METAR KBGE 201855Z AUTO 04014G17KT 10SM CLR 25/00 A3026 RMK AO2 T02541002,0,14,1,16090.0,0,0,0,
2026-04-20 18:35:00,METAR KBGE 201835Z AUTO 06012KT 10SM CLR 25/01 A3026 RMK AO2 T02520006,0,12,0,16090.0,0,0,0,
2026-04-20 18:15:00,METAR KBGE 201815Z AUTO 03010G20KT 10SM CLR 24/00 A3027 RMK AO2 T02431000,0,10,1,16090.0,0,0,0,
2026-04-20 17:55:00,METAR KBGE 201755Z AUTO 04014G19KT 10SM CLR 25/01 A3027 RMK AO2 T02500008 10252 20078,0,14,1,16090.0,0,0,0,
2026-04-20 17:35:00,METAR KBGE 201735Z AUTO 03011G19KT 020V080 10SM CLR 24/00 A3028 RMK AO2 T02380000,0,11,1,16090.0,0,0,0,
2026-04-20 17:15:00,METAR KBGE 201715Z AUTO 04009G20KT 10SM CLR 23/01 A3029 RMK AO2 T02310005,0,9,1,16090.0,0,0,0,
2026-04-20 16:55:00,METAR KBGE 201655Z AUTO 06014KT 10SM CLR 23/01 A3030 RMK AO2 T02290008,0,14,0,16090.0,0,0,0,
2026-04-20 16:35:00,METAR KBGE 201635Z AUTO 05012G16KT 10SM CLR 22/01 A3031 RMK AO2 T02190012,0,12,1,16090.0,0,0,0,
2026-04-20 16:15:00,METAR KBGE 201615Z AUTO 08011G18KT 10SM CLR 22/02 A3032 RMK AO2 T02150018,0,11,1,16090.0,0,0,0,
2026-04-20 15:55:00,METAR KBGE 201555Z AUTO 08012G21KT 10SM CLR 21/03 A3033 RMK AO2 T02110025,0,12,1,16090.0,0,0,0,
2026-04-20 15:35:00,METAR KBGE 201535Z AUTO 06014KT 10SM CLR 20/02 A3032 RMK AO2 T01990021,0,14,0,16090.0,0,0,0,
2026-04-20 15:15:00,METAR KBGE 201515Z AUTO 08014KT 10SM CLR 20/03 A3032 RMK AO2 T01960029,0,14,0,16090.0,0,0,0,
2026-04-20 14:55:00,METAR KBGE 201455Z AUTO 08011KT 10SM CLR 19/03 A3032 RMK AO2 T01850030,0,11,0,16090.0,0,0,0,
2026-04-20 14:35:00,METAR KBGE 201435Z AUTO 07013G17KT 10SM CLR 18/03 A3032 RMK AO2 T01770027,0,13,1,16090.0,0,0,0,
2026-04-20 14:15:00,METAR KBGE 201415Z AUTO 06012KT 10SM CLR 16/02 A3032 RMK AO2 T01630022,0,12,0,16090.0,0,0,0,
2026-04-20 13:55:00,METAR KBGE 201355Z AUTO 06012KT 10SM CLR 15/02 A3031 RMK AO2 T01550022,0,12,0,16090.0,0,0,0,
2026-04-20 13:35:00,METAR KBGE 201335Z AUTO 06010KT 10SM CLR 14/02 A3031 RMK AO2 T01380024,0,10,0,16090.0,0,0,0,
2026-04-20 13:15:00,METAR KBGE 201315Z AUTO 05014G18KT 10SM CLR 13/03 A3030 RMK AO2 T01260027,0,14,1,16090.0,0,0,0,
2026-04-20 12:55:00,METAR KBGE 201255Z AUTO 05012KT 10SM CLR 12/03 A3030 RMK AO2 T01160029,0,12,0,16090.0,0,0,0,
2026-04-20 12:35:00,METAR KBGE 201235Z AUTO 03012KT 10SM CLR 10/03 A3029 RMK AO2 T00990032,0,12,0,16090.0,0,0,0,
2026-04-20 12:15:00,METAR KBGE 201215Z AUTO 03009KT 10SM CLR 09/04 A3029 RMK AO2 T00890036,0,9,0,16090.0,0,0,0,
2026-04-20 11:55:00,METAR KBGE 201155Z AUTO 04006KT 10SM CLR 08/04 A3028 RMK AO2 T00780039 10100 20052,0,6,0,16090.0,0,0,0,
2026-04-20 11:35:00,METAR KBGE 201135Z AUTO 03005KT 10SM CLR 07/04 A3027 RMK AO2 T00700037,0,5,0,16090.0,0,0,0,
2026-04-20 11:15:00,METAR KBGE 201115Z AUTO 03004KT 10SM CLR 06/03 A3026 RMK AO2 T00620035,0,4,0,16090.0,0,0,0,
2026-04-20 10:55:00,METAR KBGE 201055Z AUTO 02004KT 10SM CLR 06/04 A3026 RMK AO2 T00650037,0,4,0,16090.0,0,0,0,
2026-04-20 10:35:00,METAR KBGE 201035Z AUTO 36005KT 10SM CLR 07/04 A3025 RMK AO2 T00660036,0,5,0,16090.0,0,0,0,
2026-04-20 10:15:00,METAR KBGE 201015Z AUTO 36004KT 10SM CLR 07/03 A3025 RMK AO2 T00710033,0,4,0,16090.0,0,0,0,
2026-04-20 09:55:00,METAR KBGE 200955Z AUTO 01005KT 10SM CLR 07/03 A3024 RMK AO2 T00710035,0,5,0,16090.0,0,0,0,
2026-04-20 09:35:00,METAR KBGE 200935Z AUTO 02004KT 10SM CLR 07/03 A3024 RMK AO2 T00750033,0,4,0,16090.0,0,0,0,
2026-04-20 09:15:00,METAR KBGE 200915Z AUTO 03004KT 10SM CLR 08/03 A3024 RMK AO2 T00780033,0,4,0,16090.0,0,0,0,
2026-04-20 08:55:00,METAR KBGE 200855Z AUTO 05004KT 10SM CLR 08/04 A3023 RMK AO2 T00790036,0,4,0,16090.0,0,0,0,
2026-04-20 08:35:00,METAR KBGE 200835Z AUTO 03004KT 10SM CLR 08/03 A3023 RMK AO2 T00850033,0,4,0,16090.0,0,0,0,
2026-04-20 08:15:00,METAR KBGE 200815Z AUTO 02004KT 10SM CLR 09/03 A3022 RMK AO2 T00860034,0,4,0,16090.0,0,0,0,
2026-04-20 07:55:00,METAR KBGE 200755Z AUTO 03005KT 10SM CLR 09/03 A3022 RMK AO2 T00860033,0,5,0,16090.0,0,0,0,
2026-04-20 07:35:00,METAR KBGE 200735Z AUTO 04005KT 10SM CLR 09/03 A3021 RMK AO2 T00860034,0,5,0,16090.0,0,0,0,
2026-04-20 07:15:00,METAR KBGE 200715Z AUTO 03005KT 10SM CLR 09/04 A3021 RMK AO2 T00880036,0,5,0,16090.0,0,0,0,
2026-04-20 06:55:00,METAR KBGE 200655Z AUTO 04005KT 10SM CLR 09/04 A3021 RMK AO2 T00900037,0,5,0,16090.0,0,0,0,
2026-04-20 06:35:00,METAR KBGE 200635Z AUTO 03003KT 10SM CLR 10/03 A3021 RMK AO2 T00980031,0,3,0,16090.0,0,0,0,
2026-04-20 06:15:00,METAR KBGE 200615Z AUTO 01003KT 10SM CLR 10/03 A3022 RMK AO2 T00970031,0,3,0,16090.0,0,0,0,
2026-04-20 05:55:00,METAR KBGE 200555Z AUTO 01004KT 10SM CLR 10/03 A3022 RMK AO2 T00980029 10172 20097,0,4,0,16090.0,0,0,0,
2026-04-20 05:35:00,METAR KBGE 200535Z AUTO 36004KT 10SM CLR 10/03 A3022 RMK AO2 T01000027,0,4,0,16090.0,0,0,0,
2026-04-20 05:15:00,METAR KBGE 200515Z AUTO 36004KT 10SM CLR 10/02 A3022 RMK AO2 T01030025,0,4,0,16090.0,0,0,0,
2026-04-20 04:55:00,METAR KBGE 200455Z AUTO 01004KT 10SM CLR 11/02 A3021 RMK AO2 T01060021,0,4,0,16090.0,0,0,0,
2026-04-20 04:35:00,METAR KBGE 200435Z AUTO 35004KT 10SM CLR 11/02 A3021 RMK AO2 T01140019,0,4,0,16090.0,0,0,0,
2026-04-20 04:15:00,METAR KBGE 200415Z AUTO 01003KT 10SM CLR 12/02 A3021 RMK AO2 T01160016,0,3,0,16090.0,0,0,0,
2026-04-20 03:55:00,METAR KBGE 200355Z AUTO 35004KT 10SM CLR 12/01 A3021 RMK AO2 T01210015,0,4,0,16090.0,0,0,0,
2026-04-20 03:35:00,METAR KBGE 200335Z AUTO 35004KT 10SM CLR 12/01 A3021 RMK AO2 T01220014,0,4,0,16090.0,0,0,0,
2026-04-20 03:15:00,METAR KBGE 200315Z AUTO 35004KT 10SM CLR 12/01 A3021 RMK AO2 T01220013,0,4,0,16090.0,0,0,0,
2026-04-20 02:55:00,METAR KBGE 200255Z AUTO 35004KT 10SM CLR 12/02 A3021 RMK AO2 T01190019,0,4,0,16090.0,0,0,0,
2026-04-20 02:35:00,METAR KBGE 200235Z AUTO 34003KT 10SM CLR 12/01 A3021 RMK AO2 T01230014,0,3,0,16090.0,0,0,0,
2026-04-20 02:15:00,METAR KBGE 200215Z AUTO 34004KT 10SM CLR 13/00 A3021 RMK AO2 T01310003,0,4,0,16090.0,0,0,0,
2026-04-20 01:55:00,METAR KBGE 200155Z AUTO 36004KT 10SM CLR 13/01 A3019 RMK AO2 T01290006,0,4,0,16090.0,0,0,0,
2026-04-20 01:35:00,METAR KBGE 200135Z AUTO 36006KT 10SM CLR 14/00 A3019 RMK AO2 T01380001,0,6,0,16090.0,0,0,0,
2026-04-20 00:55:00,METAR KBGE 200055Z AUTO 01008KT 10SM CLR 15/M01 A3017 RMK AO2 T01531010,0,8,0,16090.0,0,0,0,
2026-04-20 00:35:00,METAR KBGE 200035Z AUTO 36011KT 10SM CLR 16/M01 A3015 RMK AO2 T01591011,0,11,0,16090.0,0,0,0,
2026-04-20 00:15:00,METAR KBGE 200015Z AUTO 36012KT 10SM CLR 17/M01 A3014 RMK AO2 T01671013,0,12,0,16090.0,0,0,0,
2026-04-19 23:35:00,METAR KBGE 192335Z AUTO 36012KT 10SM CLR 18/00 A3013 RMK AO2 T01751002,0,12,0,16090.0,0,0,0,
2026-04-19 23:15:00,METAR KBGE 192315Z AUTO 36011KT 10SM CLR 18/00 A3013 RMK AO2 T01800002,0,11,0,16090.0,0,0,0,
2026-04-19 22:55:00,METAR KBGE 192255Z AUTO 36010KT 10SM CLR 18/00 A3013 RMK AO2 T01820000,0,10,0,16090.0,0,0,0,
2026-04-19 22:35:00,METAR KBGE 192235Z AUTO 01013KT 10SM CLR 18/00 A3012 RMK AO2 T01831004,0,13,0,16090.0,0,0,0,
2026-04-19 22:15:00,METAR KBGE 192215Z AUTO 36016KT 10SM CLR 18/M01 A3013 RMK AO2 T01841006,0,16,0,16090.0,0,0,0,
2026-04-19 21:55:00,METAR KBGE 192155Z AUTO 36012KT 10SM CLR 19/00 A3013 RMK AO2 T01870002,0,12,0,16090.0,0,0,0,
2026-04-19 21:35:00,METAR KBGE 192135Z AUTO 36013KT 7SM CLR 19/00 A3011 RMK AO2 T01870004,0,13,0,11263.0,0,0,0,
2026-04-19 21:15:00,METAR KBGE 192115Z AUTO 36017KT 10SM CLR 19/00 A3011 RMK AO2 T01891000,0,17,0,16090.0,0,0,0,
2026-04-19 20:55:00,METAR KBGE 192055Z AUTO 01015G19KT 10SM CLR 19/00 A3011 RMK AO2 T01921004,0,15,1,16090.0,0,0,0,
2026-04-19 20:35:00,METAR KBGE 192035Z AUTO 36016G24KT 10SM CLR 20/00 A3011 RMK AO2 T01960004,0,16,1,16090.0,0,0,0,
2026-04-19 20:15:00,METAR KBGE 192015Z AUTO 35011G19KT 10SM CLR 20/01 A3012 RMK AO2 T01980008,0,11,1,16090.0,0,0,0,
2026-04-19 19:55:00,METAR KBGE 191955Z AUTO 35017G21KT 10SM CLR 20/00 A3012 RMK AO2 T02010004,0,17,1,16090.0,0,0,0,
2026-04-19 19:35:00,METAR KBGE 191935Z AUTO 01017KT 10SM CLR 21/02 A3012 RMK AO2 T02050016,0,17,0,16090.0,0,0,0,
2026-04-19 19:15:00,METAR KBGE 191915Z AUTO 01016G24KT 10SM CLR 20/01 A3013 RMK AO2 T02000009,0,16,1,16090.0,0,0,0,
2026-04-19 18:55:00,METAR KBGE 191855Z AUTO 35016G19KT 10SM CLR 20/04 A3014 RMK AO2 T02020037,0,16,1,16090.0,0,0,0,
2026-04-19 18:35:00,METAR KBGE 191835Z AUTO 01013G17KT 10SM CLR 19/05 A3014 RMK AO2 T01860055,0,13,1,16090.0,0,0,0,
2026-04-19 18:15:00,METAR KBGE 191815Z AUTO 35013KT 10SM SCT120 18/06 A3015 RMK AO2 T01780063,0,13,0,16090.0,0,0,0,
2026-04-19 17:55:00,METAR KBGE 191755Z AUTO 34014KT 10SM CLR 17/07 A3017 RMK AO2 T01750070 10224 20174,0,14,0,16090.0,0,0,0,
2026-04-19 17:35:00,METAR KBGE 191735Z AUTO 36015G20KT 10SM CLR 18/07 A3017 RMK AO2 T01830068,0,15,1,16090.0,0,0,0,
2026-04-19 17:15:00,METAR KBGE 191715Z AUTO 34014KT 10SM CLR 19/10 A3018 RMK AO2 T01870095,0,14,0,16090.0,0,0,0,
2026-04-19 16:55:00,METAR KBGE 191655Z AUTO 33014KT 10SM CLR 18/11 A3018 RMK AO2 T01810108,0,14,0,16090.0,0,0,0,
2026-04-19 16:35:00,METAR KBGE 191635Z AUTO 36015KT 10SM SCT120 19/10 A3017 RMK AO2 T01880104,0,15,0,16090.0,0,0,0,
2026-04-19 16:15:00,METAR KBGE 191615Z AUTO 35014G17KT 10SM SCT028 OVC120 18/12 A3015 RMK AO2 T01840122,0,14,1,16090.0,0,0,0,
2026-04-19 15:55:00,METAR KBGE 191555Z AUTO 36019KT 10SM SCT028 SCT060 OVC120 19/12 A3015 RMK AO2 T01880121,0,19,0,16090.0,0,0,0,
2026-04-19 15:15:00,METAR KBGE 191515Z AUTO 34018KT 10SM SCT025 BKN100 22/14 A3013 RMK AO2 T02200139,0,18,0,16090.0,0,0,0,
2026-04-19 14:55:00,METAR KBGE 191455Z AUTO 36017G20KT 10SM OVC023 22/15 A3013 RMK AO2 T02180146,0,17,1,16090.0,0,0,0,
2026-04-19 14:35:00,METAR KBGE 191435Z AUTO 33014KT 10SM BKN018 OVC095 21/16 A3011 RMK AO2 T02080162,0,14,0,16090.0,0,0,0,
2026-04-19 14:15:00,METAR KBGE 191415Z AUTO 33017KT 10SM BKN020 OVC095 21/17 A3009 RMK AO2 T02100170,0,17,0,16090.0,0,0,0,
2026-04-19 13:55:00,METAR KBGE 191355Z AUTO 34013G18KT 10SM OVC022 21/17 A3008 RMK AO2 T02120173,0,13,1,16090.0,0,0,0,
2026-04-19 13:35:00,METAR KBGE 191335Z AUTO 34015KT 10SM BKN022 OVC090 22/17 A3007 RMK AO2 T02160172,0,15,0,16090.0,0,0,0,
2026-04-19 13:15:00,METAR KBGE 191315Z AUTO 33013KT 10SM SCT022 BKN090 21/17 A3007 RMK AO2 T02140173,0,13,0,16090.0,0,0,0,
2026-04-19 12:55:00,METAR KBGE 191255Z AUTO 35012G18KT 10SM BKN090 21/17 A3005 RMK AO2 T02090173,0,12,1,16090.0,0,0,0,
2026-04-19 12:35:00,METAR KBGE 191235Z AUTO 35010KT 10SM BKN090 21/17 A3005 RMK AO2 T02070174,0,10,0,16090.0,0,0,0,
2026-04-19 12:15:00,METAR KBGE 191215Z AUTO 34008KT 10SM SCT090 20/18 A3004 RMK AO2 T02020177,0,8,0,16090.0,0,0,0,
2026-04-19 11:55:00,METAR KBGE 191155Z AUTO 34009KT 10SM BKN090 19/18 A3004 RMK AO2 T01940178 10194 20171,0,9,0,16090.0,0,0,0,
2026-04-19 11:35:00,METAR KBGE 191135Z AUTO 34008KT 10SM BKN080 19/18 A3003 RMK AO2 T01930180,0,8,0,16090.0,0,0,0,
2026-04-19 11:15:00,METAR KBGE 191115Z AUTO 33008KT 10SM SCT050 OVC070 19/18 A3003 RMK AO2 T01910184,0,8,0,16090.0,0,0,0,
2026-04-19 10:55:00,METAR KBGE 191055Z AUTO 32007KT 10SM BKN070 19/19 A3002 RMK AO2 T01890189,0,7,0,16090.0,0,0,0,
2026-04-19 10:35:00,METAR KBGE 191035Z AUTO 31006KT 10SM SCT049 18/ A3001 RMK AO2 T0184////,0,6,0,16090.0,0,0,0,
2026-04-19 10:15:00,METAR KBGE 191015Z AUTO 29005KT 10SM BKN049 18/ A3001 RMK AO2 T0180////,0,5,0,16090.0,0,0,0,
2026-04-19 09:55:00,METAR KBGE 190955Z AUTO 29003KT 10SM BKN049 18/ A3000 RMK AO2 T0178////,0,3,0,16090.0,0,0,0,
2026-04-19 09:35:00,METAR KBGE 190935Z AUTO 26003KT 10SM SCT047 18/ A3000 RMK AO2 T0176////,0,3,0,16090.0,0,0,0,
2026-04-19 09:15:00,METAR KBGE 190915Z AUTO 00000KT 10SM CLR 17/ A3000 RMK AO2 T0172////,0,0,0,16090.0,0,0,0,
2026-04-19 08:55:00,METAR KBGE 190855Z AUTO 27004KT 10SM CLR 18/18 A3000 RMK AO2 T0176////,0,4,0,16090.0,0,0,0,
2026-04-19 08:35:00,METAR KBGE 190835Z AUTO 25003KT 10SM CLR 18/18 A2999 RMK AO2 T01800178,0,3,0,16090.0,0,0,0,
2026-04-19 08:15:00,METAR KBGE 190815Z AUTO 25004KT 10SM CLR 18/18 A2999 RMK AO2 T01820178,0,4,0,16090.0,0,0,0,
2026-04-19 07:55:00,METAR KBGE 190755Z AUTO 25005KT 10SM CLR 18/18 A2999 RMK AO2 T01810177,0,5,0,16090.0,0,0,0,
2026-04-19 07:35:00,METAR KBGE 190735Z AUTO 25005KT 10SM CLR 18/18 A2999 RMK AO2 T01830177,0,5,0,16090.0,0,0,0,
2026-04-19 07:15:00,METAR KBGE 190715Z AUTO 25005KT 10SM CLR 18/18 A3000 RMK AO2 T01850176,0,5,0,16090.0,0,0,0,
2026-04-19 06:55:00,METAR KBGE 190655Z AUTO 26005KT 10SM CLR 19/18 A3000 RMK AO2 T01870177,0,5,0,16090.0,0,0,0,
2026-04-19 06:35:00,METAR KBGE 190635Z AUTO 23004KT 10SM CLR 19/18 A3000 RMK AO2 T01900177,0,4,0,16090.0,0,0,0,
2026-04-19 06:15:00,METAR KBGE 190615Z AUTO 26005KT 10SM CLR 19/18 A3001 RMK AO2 T01910178,0,5,0,16090.0,0,0,0,
2026-04-19 05:55:00,METAR KBGE 190555Z AUTO 22004KT 10SM CLR 19/18 A3001 RMK AO2 T01900178 10259 20189,0,4,0,16090.0,0,0,0,
2026-04-19 05:35:00,METAR KBGE 190535Z AUTO 25004KT 10SM CLR 19/18 A3002 RMK AO2 T01930178,0,4,0,16090.0,0,0,0,
2026-04-19 05:15:00,METAR KBGE 190515Z AUTO 26004KT 10SM CLR 19/18 A3002 RMK AO2 T01940179,0,4,0,16090.0,0,0,0,
2026-04-19 04:55:00,METAR KBGE 190455Z AUTO 26005KT 10SM CLR 20/18 A3003 RMK AO2 T01970179,0,5,0,16090.0,0,0,0,
2026-04-19 04:35:00,METAR KBGE 190435Z AUTO 25005KT 10SM CLR 20/18 A3003 RMK AO2 T02010179,0,5,0,16090.0,0,0,0,
2026-04-19 04:15:00,METAR KBGE 190415Z AUTO 24005KT 10SM CLR 21/18 A3003 RMK AO2 T02050179,0,5,0,16090.0,0,0,0,
2026-04-19 03:55:00,METAR KBGE 190355Z AUTO 24005KT 10SM CLR 21/18 A3003 RMK AO2 T02080178,0,5,0,16090.0,0,0,0,
2026-04-19 03:35:00,METAR KBGE 190335Z AUTO 25006KT 10SM CLR 21/18 A3003 RMK AO2 T02110178,0,6,0,16090.0,0,0,0,
2026-04-19 03:15:00,METAR KBGE 190315Z AUTO 26006KT 10SM CLR 21/18 A3003 RMK AO2 T02150176,0,6,0,16090.0,0,0,0,
2026-04-19 02:55:00,METAR KBGE 190255Z AUTO 26006KT 10SM CLR 22/17 A3003 RMK AO2 T02170173,0,6,0,16090.0,0,0,0,
2026-04-19 02:35:00,METAR KBGE 190235Z AUTO 26006KT 10SM CLR 22/17 A3002 RMK AO2 T02210170,0,6,0,16090.0,0,0,0,
2026-04-19 02:15:00,METAR KBGE 190215Z AUTO 26005KT 10SM CLR 22/17 A3001 RMK AO2 T02230168,0,5,0,16090.0,0,0,0,
2026-04-19 01:55:00,METAR KBGE 190155Z AUTO 26006KT 10SM CLR 22/16 A3000 RMK AO2 T02250163,0,6,0,16090.0,0,0,0,
2026-04-19 01:35:00,METAR KBGE 190135Z AUTO 23007KT 10SM CLR 23/16 A2998 RMK AO2 T02340160,0,7,0,16090.0,0,0,0,
2026-04-19 01:15:00,METAR KBGE 190115Z AUTO 23008KT 10SM CLR 24/16 A2998 RMK AO2 T02410156,0,8,0,16090.0,0,0,0,
2026-04-19 00:55:00,METAR KBGE 190055Z AUTO 22007KT 10SM CLR 24/15 A2997 RMK AO2 T02430153,0,7,0,16090.0,0,0,0,
2026-04-19 00:35:00,METAR KBGE 190035Z AUTO 22006KT 10SM CLR 25/15 A2997 RMK AO2 T02450151,0,6,0,16090.0,0,0,0,
2026-04-19 00:15:00,METAR KBGE 190015Z AUTO 22007KT 10SM CLR 25/15 A2997 RMK AO2 T02540150,0,7,0,16090.0,0,0,0,
2026-04-18 23:55:00,METAR KBGE 182355Z AUTO 22005KT 10SM CLR 26/15 A2996 RMK AO2 T02590151 10307 20258 403070137,0,5,0,16090.0,0,0,0,
2026-04-18 23:35:00,METAR KBGE 182335Z AUTO 22006KT 10SM CLR 27/15 A2997 RMK AO2 T02670149,0,6,0,16090.0,0,0,0,
2026-04-18 23:15:00,METAR KBGE 182315Z AUTO 24007KT 10SM CLR 28/15 A2997 RMK AO2 T02760148,0,7,0,16090.0,0,0,0,
2026-04-18 22:55:00,METAR KBGE 182255Z AUTO 22008KT 10SM CLR 28/15 A2997 RMK AO2 T02840147,0,8,0,16090.0,0,0,0,
2026-04-18 22:35:00,METAR KBGE 182235Z AUTO 21009KT 10SM CLR 29/15 A2996 RMK AO2 T02900146,0,9,0,16090.0,0,0,0,
2026-04-18 22:15:00,METAR KBGE 182215Z AUTO 22011KT 10SM CLR 29/14 A2997 RMK AO2 T02910144,0,11,0,16090.0,0,0,0,
2026-04-18 21:55:00,METAR KBGE 182155Z AUTO 20008KT 10SM CLR 28/15 A2997 RMK AO2 T02840147,0,8,0,16090.0,0,0,0,
2026-04-18 21:35:00,METAR KBGE 182135Z AUTO 22009KT 10SM CLR 29/15 A2997 RMK AO2 T02890148,0,9,0,16090.0,0,0,0,
2026-04-18 21:15:00,METAR KBGE 182115Z AUTO 24010KT 10SM CLR 29/15 A2997 RMK AO2 T02930153,0,10,0,16090.0,0,0,0,
2026-04-18 20:55:00,METAR KBGE 182055Z AUTO 23007KT 10SM SCT055 29/15 A2998 RMK AO2 T02920151,0,7,0,16090.0,0,0,0,
2026-04-18 20:35:00,METAR KBGE 182035Z AUTO 20013KT 10SM SCT055 29/15 A2998 RMK AO2 T02910150,0,13,0,16090.0,0,0,0,
2026-04-18 20:15:00,METAR KBGE 182015Z AUTO 23009G15KT 10SM SCT055 30/15 A2999 RMK AO2 T02990153,0,9,1,16090.0,0,0,0,
2026-04-18 19:55:00,METAR KBGE 181955Z AUTO 25008KT 10SM SCT055 29/15 A2999 RMK AO2 T02930154,0,8,0,16090.0,0,0,0,
2026-04-18 19:35:00,METAR KBGE 181935Z AUTO 24007KT 10SM SCT055 30/15 A3000 RMK AO2 T02960152,0,7,0,16090.0,0,0,0,
2026-04-18 19:15:00,METAR KBGE 181915Z AUTO 25009KT 10SM SCT055 30/15 A3000 RMK AO2 T02960154,0,9,0,16090.0,0,0,0,
2026-04-18 18:55:00,METAR KBGE 181855Z AUTO 21007G15KT 10SM SCT049 29/15 A3001 RMK AO2 T02920154,0,7,1,16090.0,0,0,0,
2026-04-18 18:35:00,METAR KBGE 181835Z AUTO 25013KT 10SM SCT049 28/16 A3002 RMK AO2 T02840156,0,13,0,16090.0,0,0,0,
2026-04-18 18:15:00,METAR KBGE 181815Z AUTO 22009KT 10SM SCT049 28/16 A3002 RMK AO2 T02840155,0,9,0,16090.0,0,0,0,
2026-04-18 17:55:00,METAR KBGE 181755Z AUTO 25006G19KT 10SM SCT049 29/16 A3003 RMK AO2 T02850157 10291 20149,0,6,1,16090.0,0,0,0,
2026-04-18 17:35:00,METAR KBGE 181735Z AUTO 26012G15KT 10SM SCT045 28/15 A3004 RMK AO2 T02810153,0,12,1,16090.0,0,0,0,
2026-04-18 17:15:00,METAR KBGE 181715Z AUTO 21009KT 10SM SCT045 28/16 A3004 RMK AO2 T02760155,0,9,0,16090.0,0,0,0,
2026-04-18 16:55:00,METAR KBGE 181655Z AUTO 24008KT 10SM SCT041 27/16 A3005 RMK AO2 T02750159,0,8,0,16090.0,0,0,0,
2026-04-18 16:35:00,METAR KBGE 181635Z AUTO 24011G19KT 10SM SCT039 27/16 A3005 RMK AO2 T02670162,0,11,1,16090.0,0,0,0,
2026-04-18 16:15:00,METAR KBGE 181615Z AUTO 25010KT 10SM SCT039 26/16 A3005 RMK AO2 T02590160,0,10,0,16090.0,0,0,0,
2026-04-18 15:55:00,METAR KBGE 181555Z AUTO 20008KT 10SM SCT036 26/17 A3005 RMK AO2 T02610166,0,8,0,16090.0,0,0,0,
2026-04-18 15:15:00,METAR KBGE 181515Z AUTO 20011G15KT 10SM SCT032 25/16 A3004 RMK AO2 T02540158,0,11,1,16090.0,0,0,0,
2026-04-18 14:55:00,METAR KBGE 181455Z AUTO 21008KT 190V250 10SM SCT029 25/16 A3005 RMK AO2 T02490165,0,8,0,16090.0,0,0,0,
2026-04-18 14:35:00,METAR KBGE 181435Z AUTO 20008KT 10SM CLR 25/17 A3004 RMK AO2 T02470171,0,8,0,16090.0,0,0,0,
2026-04-18 14:15:00,METAR KBGE 181415Z AUTO 23007KT 10SM CLR 24/17 A3004 RMK AO2 T02360171,0,7,0,16090.0,0,0,0,
2026-04-18 13:55:00,METAR KBGE 181355Z AUTO 25006KT 10SM CLR 23/18 A3004 RMK AO2 T02280176,0,6,0,16090.0,0,0,0,
2026-04-18 13:35:00,METAR KBGE 181335Z AUTO 23005KT 10SM CLR 22/18 A3003 RMK AO2 T02190182,0,5,0,16090.0,0,0,0,
2026-04-18 13:15:00,METAR KBGE 181315Z AUTO 24005KT 10SM CLR 21/19 A3003 RMK AO2 T02070186,0,5,0,16090.0,0,0,0,
2026-04-18 12:55:00,METAR KBGE 181255Z AUTO 19003KT 10SM CLR 19/18 A3002 RMK AO2 T01920183,0,3,0,16090.0,0,0,0,
2026-04-18 12:35:00,METAR KBGE 181235Z AUTO 18003KT 10SM CLR 18/ A3002 RMK AO2 T0178////,0,3,0,16090.0,0,0,0,
2026-04-18 12:15:00,METAR KBGE 181215Z AUTO 00000KT 10SM CLR 16/ A3001 RMK AO2 T0158////,0,0,0,16090.0,0,0,0,
2026-04-18 11:55:00,METAR KBGE 181155Z AUTO 00000KT 7SM CLR 15/ A3001 RMK AO2 T0149//// 10181 20137,0,0,0,11263.0,0,0,0,
2026-04-18 11:35:00,METAR KBGE 181135Z AUTO 00000KT 10SM CLR 14/ A3001 RMK AO2 T0142////,0,0,0,16090.0,0,0,0,
2026-04-18 11:15:00,METAR KBGE 181115Z AUTO 00000KT 7SM HZ CLR 14/ A3000 RMK AO2 T0142////,0,0,0,11263.0,0,0,0,
2026-04-18 10:55:00,METAR KBGE 181055Z AUTO 15003KT 10SM CLR 14/ A3000 RMK AO2 T0139////,0,3,0,16090.0,0,0,0,
2026-04-18 10:35:00,METAR KBGE 181035Z AUTO 17003KT 10SM CLR 14/ A2999 RMK AO2 T0143////,0,3,0,16090.0,0,0,0,
2026-04-18 10:15:00,METAR KBGE 181015Z AUTO 14003KT 10SM CLR 15/ A2999 RMK AO2 T0146////,0,3,0,16090.0,0,0,0,
2026-04-18 09:55:00,METAR KBGE 180955Z AUTO 14004KT 10SM CLR 15/ A2999 RMK AO2 T0147////,0,4,0,16090.0,0,0,0,
2026-04-18 09:35:00,METAR KBGE 180935Z AUTO 00000KT 10SM CLR 15/ A3000 RMK AO2 T0152////,0,0,0,16090.0,0,0,0,
2026-04-18 09:15:00,METAR KBGE 180915Z AUTO 00000KT 10SM CLR 16/ A2999 RMK AO2 T0156////,0,0,0,16090.0,0,0,0,
2026-04-18 08:55:00,METAR KBGE 180855Z AUTO 00000KT 10SM CLR 16/ A2999 RMK AO2 T0155////,0,0,0,16090.0,0,0,0,
2026-04-18 08:35:00,METAR KBGE 180835Z AUTO 00000KT 10SM CLR 16/16 A2999 RMK AO2 T0160////,0,0,0,16090.0,0,0,0,
2026-04-18 08:15:00,METAR KBGE 180815Z AUTO 00000KT 10SM CLR 16/16 A2999 RMK AO2 T0156////,0,0,0,16090.0,0,0,0,
2026-04-18 07:55:00,METAR KBGE 180755Z AUTO 00000KT 10SM CLR 16/ A2999 RMK AO2 T0160////,0,0,0,16090.0,0,0,0,
2026-04-18 07:35:00,METAR KBGE 180735Z AUTO 00000KT 10SM CLR 16/ A2999 RMK AO2 T0164////,0,0,0,16090.0,0,0,0,
2026-04-18 07:15:00,METAR KBGE 180715Z AUTO 00000KT 10SM CLR 16/17 A2999 RMK AO2 T0164////,0,0,0,16090.0,0,0,0,
2026-04-18 06:55:00,METAR KBGE 180655Z AUTO 00000KT 10SM CLR 17/16 A2999 RMK AO2 T01710162,0,0,0,16090.0,0,0,0,
2026-04-18 06:35:00,METAR KBGE 180635Z AUTO 22003KT 10SM CLR 17/16 A2999 RMK AO2 T01730160,0,3,0,16090.0,0,0,0,
2026-04-18 06:15:00,METAR KBGE 180615Z AUTO 00000KT 10SM CLR 18/16 A2999 RMK AO2 T01750158,0,0,0,16090.0,0,0,0,
2026-04-18 05:55:00,METAR KBGE 180555Z AUTO 00000KT 10SM CLR 18/16 A2999 RMK AO2 T01820156 10274 20179,0,0,0,16090.0,0,0,0,
2026-04-18 05:35:00,METAR KBGE 180535Z AUTO 00000KT 10SM CLR 18/16 A3000 RMK AO2 T01810158,0,0,0,16090.0,0,0,0,
2026-04-18 05:15:00,METAR KBGE 180515Z AUTO 27004KT 10SM CLR 18/16 A3001 RMK AO2 T01800159,0,4,0,16090.0,0,0,0,
2026-04-18 04:55:00,METAR KBGE 180455Z AUTO 26006KT 10SM CLR 19/16 A3000 RMK AO2 T01860159,0,6,0,16090.0,0,0,0,
2026-04-18 04:35:00,METAR KBGE 180435Z AUTO 25005KT 10SM CLR 19/15 A3001 RMK AO2 T01890155,0,5,0,16090.0,0,0,0,
2026-04-18 04:15:00,METAR KBGE 180415Z AUTO 25005KT 10SM CLR 19/15 A3001 RMK AO2 T01950153,0,5,0,16090.0,0,0,0,
2026-04-18 03:55:00,METAR KBGE 180355Z AUTO 24005KT 10SM CLR 20/15 A3001 RMK AO2 T01980150,0,5,0,16090.0,0,0,0,
2026-04-18 03:35:00,METAR KBGE 180335Z AUTO 23007KT 10SM CLR 20/15 A3002 RMK AO2 T02040147,0,7,0,16090.0,0,0,0,
2026-04-18 03:15:00,METAR KBGE 180315Z AUTO 23006KT 10SM CLR 21/14 A3002 RMK AO2 T02090145,0,6,0,16090.0,0,0,0,
2026-04-18 02:55:00,METAR KBGE 180255Z AUTO 23006KT 10SM CLR 21/14 A3003 RMK AO2 T02120144,0,6,0,16090.0,0,0,0,
2026-04-18 02:35:00,METAR KBGE 180235Z AUTO 23006KT 10SM CLR 22/14 A3003 RMK AO2 T02190143,0,6,0,16090.0,0,0,0,
2026-04-18 02:15:00,METAR KBGE 180215Z AUTO 23008KT 10SM CLR 23/14 A3002 RMK AO2 T02260143,0,8,0,16090.0,0,0,0,
2026-04-18 01:55:00,METAR KBGE 180155Z AUTO 23008KT 10SM CLR 23/14 A3002 RMK AO2 T02310142,0,8,0,16090.0,0,0,0,
2026-04-18 01:35:00,METAR KBGE 180135Z AUTO 23009KT 10SM CLR 24/14 A3001 RMK AO2 T02380142,0,9,0,16090.0,0,0,0,
2026-04-18 01:15:00,METAR KBGE 180115Z AUTO 22009KT 10SM CLR 24/14 A3001 RMK AO2 T02420143,0,9,0,16090.0,0,0,0,
2026-04-18 00:55:00,METAR KBGE 180055Z AUTO 23008KT 10SM CLR 25/14 A3001 RMK AO2 T02490142,0,8,0,16090.0,0,0,0,
2026-04-18 00:35:00,METAR KBGE 180035Z AUTO 23012G18KT 10SM CLR 26/14 A3000 RMK AO2 T02590141,0,12,1,16090.0,0,0,0,
2026-04-18 00:15:00,METAR KBGE 180015Z AUTO 24012G16KT 10SM CLR 27/14 A2999 RMK AO2 T02670138,0,12,1,16090.0,0,0,0,
2026-04-17 23:55:00,METAR KBGE 172355Z AUTO 23005KT 10SM CLR 28/12 A2998 RMK AO2 T02780124 10317 20275 403170145,0,5,0,16090.0,0,0,0,
2026-04-17 23:35:00,METAR KBGE 172335Z AUTO 24007KT 10SM CLR 29/12 A2998 RMK AO2 T02900121,0,7,0,16090.0,0,0,0,
2026-04-17 23:15:00,METAR KBGE 172315Z AUTO 24009KT 10SM CLR 30/12 A2998 RMK AO2 T03000120,0,9,0,16090.0,0,0,0,
2026-04-17 22:55:00,METAR KBGE 172255Z AUTO 22004KT 10SM CLR 31/12 A2998 RMK AO2 T03050115,0,4,0,16090.0,0,0,0,
2026-04-17 22:35:00,METAR KBGE 172235Z AUTO 21003KT 10SM CLR 31/11 A2998 RMK AO2 T03080113,0,3,0,16090.0,0,0,0,
2026-04-17 22:15:00,METAR KBGE 172215Z AUTO 00000KT 10SM CLR 31/11 A2998 RMK AO2 T03090113,0,0,0,16090.0,0,0,0,
2026-04-17 21:55:00,METAR KBGE 172155Z AUTO 21006KT 10SM CLR 31/12 A2998 RMK AO2 T03120117,0,6,0,16090.0,0,0,0,
2026-04-17 21:35:00,METAR KBGE 172135Z AUTO 21005KT 10SM CLR 31/12 A2998 RMK AO2 T03150119,0,5,0,16090.0,0,0,0,
2026-04-17 21:15:00,METAR KBGE 172115Z AUTO 32006KT 10SM CLR 31/12 A2999 RMK AO2 T03110116,0,6,0,16090.0,0,0,0,
2026-04-17 20:55:00,METAR KBGE 172055Z AUTO 25003KT 10SM CLR 31/12 A2999 RMK AO2 T03110118,0,3,0,16090.0,0,0,0,
2026-04-17 20:35:00,METAR KBGE 172035Z AUTO 16003KT 10SM CLR 31/12 A3000 RMK AO2 T03110117,0,3,0,16090.0,0,0,0,
2026-04-17 20:15:00,METAR KBGE 172015Z AUTO 17008KT 10SM CLR 31/12 A3001 RMK AO2 T03100119,0,8,0,16090.0,0,0,0,
2026-04-17 19:55:00,METAR KBGE 171955Z AUTO 28005KT 10SM CLR 31/12 A3002 RMK AO2 T03060120,0,5,0,16090.0,0,0,0,
2026-04-17 19:35:00,METAR KBGE 171935Z AUTO 31003KT 10SM CLR 30/12 A3003 RMK AO2 T03020119,0,3,0,16090.0,0,0,0,
2026-04-17 19:15:00,METAR KBGE 171915Z AUTO 22009KT 160V250 3SM HZ CLR 31/12 A3004 RMK AO2 T03060122,0,9,0,4827.0,0,0,0,
2026-04-17 18:55:00,METAR KBGE 171855Z AUTO 30003KT 10SM CLR 30/12 A3005 RMK AO2 T03040120,0,3,0,16090.0,0,0,0,
2026-04-17 18:35:00,METAR KBGE 171835Z AUTO 13008KT 120V180 10SM CLR 31/12 A3006 RMK AO2 T03060122,0,8,0,16090.0,0,0,0,
2026-04-17 18:15:00,METAR KBGE 171815Z AUTO 13008KT 10SM CLR 30/13 A3007 RMK AO2 T03030125,0,8,0,16090.0,0,0,0,
2026-04-17 17:55:00,METAR KBGE 171755Z AUTO 27003KT 10SM CLR 29/13 A3007 RMK AO2 T02950126 10301 20159,0,3,0,16090.0,0,0,0,
2026-04-17 17:35:00,METAR KBGE 171735Z AUTO 14005KT 10SM CLR 29/13 A3008 RMK AO2 T02910126,0,5,0,16090.0,0,0,0,
2026-04-17 17:15:00,METAR KBGE 171715Z AUTO 24005KT 10SM CLR 29/13 A3009 RMK AO2 T02860127,0,5,0,16090.0,0,0,0,
2026-04-17 16:55:00,METAR KBGE 171655Z AUTO 22003KT 10SM CLR 28/13 A3010 RMK AO2 T02830127,0,3,0,16090.0,0,0,0,
2026-04-17 16:35:00,METAR KBGE 171635Z AUTO 00000KT 10SM CLR 28/14 A3010 RMK AO2 T02770136,0,0,0,16090.0,0,0,0,
2026-04-17 16:15:00,METAR KBGE 171615Z AUTO 18006KT 10SM CLR 28/14 A3010 RMK AO2 T02790143,0,6,0,16090.0,0,0,0,
2026-04-17 15:35:00,METAR KBGE 171535Z AUTO 20006KT 10SM CLR 27/14 A3010 RMK AO2 T02660143,0,6,0,16090.0,0,0,0,
2026-04-17 15:15:00,METAR KBGE 171515Z AUTO 20005KT 10SM CLR 26/15 A3011 RMK AO2 T02650146,0,5,0,16090.0,0,0,0,
2026-04-17 14:55:00,METAR KBGE 171455Z AUTO 24003KT 10SM CLR 26/17 A3011 RMK AO2 T02580169,0,3,0,16090.0,0,0,0,
2026-04-17 14:35:00,METAR KBGE 171435Z AUTO 23005KT 10SM CLR 25/18 A3011 RMK AO2 T02520177,0,5,0,16090.0,0,0,0,
2026-04-17 14:15:00,METAR KBGE 171415Z AUTO 33004KT 10SM CLR 24/19 A3010 RMK AO2 T02440187,0,4,0,16090.0,0,0,0,
2026-04-17 13:55:00,METAR KBGE 171355Z AUTO 30006KT 10SM CLR 24/19 A3010 RMK AO2 T02390191,0,6,0,16090.0,0,0,0,
2026-04-17 13:35:00,METAR KBGE 171335Z AUTO 29004KT 10SM CLR 23/19 A3010 RMK AO2 T02310192,0,4,0,16090.0,0,0,0,
2026-04-17 13:15:00,METAR KBGE 171315Z AUTO 27004KT 10SM CLR 22/18 A3010 RMK AO2 T02180181,0,4,0,16090.0,0,0,0,
2026-04-17 12:55:00,METAR KBGE 171255Z AUTO 00000KT 10SM CLR 20/18 A3010 RMK AO2 T02040184,0,0,0,16090.0,0,0,0,
2026-04-17 12:35:00,METAR KBGE 171235Z AUTO 24003KT 10SM CLR 19/19 A3010 RMK AO2 T01930188,0,3,0,16090.0,0,0,0,
2026-04-17 12:15:00,METAR KBGE 171215Z AUTO 00000KT 7SM HZ CLR 18/ A3009 RMK AO2 T0176////,0,0,0,11263.0,0,0,0,
2026-04-17 11:55:00,METAR KBGE 171155Z AUTO 00000KT 7SM CLR 16/ A3009 RMK AO2 T0157//// 10186 20145,0,0,0,11263.0,0,0,0,
2026-04-17 11:35:00,METAR KBGE 171135Z AUTO 00000KT 7SM CLR 15/ A3009 RMK AO2 T0148////,0,0,0,11263.0,0,0,0,
2026-04-17 11:15:00,METAR KBGE 171115Z AUTO 00000KT 7SM CLR 15/ A3008 RMK AO2 T0152////,0,0,0,11263.0,0,0,0,
2026-04-17 10:55:00,METAR KBGE 171055Z AUTO 00000KT 10SM CLR 15/ A3007 RMK AO2 T0149////,0,0,0,16090.0,0,0,0,
2026-04-17 10:35:00,METAR KBGE 171035Z AUTO 18003KT 10SM CLR 15/ A3007 RMK AO2 T0151////,0,3,0,16090.0,0,0,0,
2026-04-17 10:15:00,METAR KBGE 171015Z AUTO 00000KT 10SM CLR 15/ A3008 RMK AO2 T0149////,0,0,0,16090.0,0,0,0,
2026-04-17 09:55:00,METAR KBGE 170955Z AUTO 00000KT 10SM CLR 15/ A3007 RMK AO2 T0149////,0,0,0,16090.0,0,0,0,
2026-04-17 09:35:00,METAR KBGE 170935Z AUTO 00000KT 10SM CLR 15/ A3007 RMK AO2 T0153////,0,0,0,16090.0,0,0,0,
2026-04-17 09:15:00,METAR KBGE 170915Z AUTO 00000KT 10SM CLR 15/ A3007 RMK AO2 T0152////,0,0,0,16090.0,0,0,0,
2026-04-17 08:55:00,METAR KBGE 170855Z AUTO 00000KT 10SM CLR 16/ A3007 RMK AO2 T0163////,0,0,0,16090.0,0,0,0,
2026-04-17 08:35:00,METAR KBGE 170835Z AUTO 00000KT 10SM CLR 16/ A3007 RMK AO2 T0162////,0,0,0,16090.0,0,0,0,
2026-04-17 08:15:00,METAR KBGE 170815Z AUTO 24003KT 10SM CLR 17/ A3006 RMK AO2 T0166////,0,3,0,16090.0,0,0,0,
2026-04-17 07:55:00,METAR KBGE 170755Z AUTO 23003KT 10SM CLR 17/ A3006 RMK AO2 T0170////,0,3,0,16090.0,0,0,0,
2026-04-17 07:35:00,METAR KBGE 170735Z AUTO 00000KT 10SM CLR 17/17 A3007 RMK AO2 T01730172,0,0,0,16090.0,0,0,0,
2026-04-17 07:15:00,METAR KBGE 170715Z AUTO 28003KT 10SM CLR 18/17 A3007 RMK AO2 T01760173,0,3,0,16090.0,0,0,0,
2026-04-17 06:55:00,METAR KBGE 170655Z AUTO 27004KT 10SM CLR 18/17 A3007 RMK AO2 T01800173,0,4,0,16090.0,0,0,0,
2026-04-17 06:35:00,METAR KBGE 170635Z AUTO 25004KT 10SM CLR 18/17 A3007 RMK AO2 T01770169,0,4,0,16090.0,0,0,0,
2026-04-17 06:10:00,METAR KBGE 170610Z AUTO 23006KT 10SM CLR 18/17 A3008 RMK AO2 T01850169,0,6,0,16090.0,0,0,0,
2026-04-17 05:55:00,METAR KBGE 170555Z AUTO 22005KT 10SM CLR 19/17 A3009 RMK AO2 T01860167 10249 20185,0,5,0,16090.0,0,0,0,
2026-04-17 05:35:00,METAR KBGE 170535Z AUTO 23005KT 10SM CLR 19/16 A3009 RMK AO2 T01880164,0,5,0,16090.0,0,0,0,
2026-04-17 05:15:00,METAR KBGE 170515Z AUTO 24006KT 10SM CLR 19/16 A3009 RMK AO2 T01910164,0,6,0,16090.0,0,0,0,
2026-04-17 04:55:00,METAR KBGE 170455Z AUTO 25006KT 10SM CLR 19/16 A3009 RMK AO2 T01920162,0,6,0,16090.0,0,0,0,
2026-04-17 04:35:00,METAR KBGE 170435Z AUTO 27006KT 10SM CLR 20/16 A3009 RMK AO2 T01960161,0,6,0,16090.0,0,0,0,
2026-04-17 04:15:00,METAR KBGE 170415Z AUTO 23005KT 10SM CLR 20/16 A3008 RMK AO2 T02010159,0,5,0,16090.0,0,0,0,
2026-04-17 03:55:00,METAR KBGE 170355Z AUTO 23005KT 10SM CLR 21/16 A3008 RMK AO2 T02080157,0,5,0,16090.0,0,0,0,
2026-04-17 03:35:00,METAR KBGE 170335Z AUTO 23007KT 10SM CLR 21/16 A3008 RMK AO2 T02120156,0,7,0,16090.0,0,0,0,
2026-04-17 03:15:00,METAR KBGE 170315Z AUTO 24009KT 10SM CLR 22/16 A3008 RMK AO2 T02180155,0,9,0,16090.0,0,0,0,
2026-04-17 02:55:00,METAR KBGE 170255Z AUTO 23009KT 10SM CLR 22/16 A3007 RMK AO2 T02220157,0,9,0,16090.0,0,0,0,
2026-04-17 02:35:00,METAR KBGE 170235Z AUTO 23008KT 10SM CLR 22/15 A3007 RMK AO2 T02250155,0,8,0,16090.0,0,0,0,
2026-04-17 02:15:00,METAR KBGE 170215Z AUTO 22010KT 10SM CLR 23/15 A3007 RMK AO2 T02300155,0,10,0,16090.0,0,0,0,
2026-04-17 01:55:00,METAR KBGE 170155Z AUTO 20011KT 10SM CLR 24/15 A3006 RMK AO2 T02350153,0,11,0,16090.0,0,0,0,
2026-04-17 01:35:00,METAR KBGE 170135Z AUTO 20008KT 10SM CLR 23/15 A3005 RMK AO2 T02270148,0,8,0,16090.0,0,0,0,
2026-04-17 01:15:00,METAR KBGE 170115Z AUTO 23003KT 10SM CLR 22/15 A3003 RMK AO2 T02230149,0,3,0,16090.0,0,0,0,
2026-04-17 00:55:00,METAR KBGE 170055Z AUTO 25003KT 10SM CLR 24/14 A3003 RMK AO2 T02400144,0,3,0,16090.0,0,0,0,
2026-04-17 00:35:00,METAR KBGE 170035Z AUTO 26003KT 10SM CLR 24/15 A3003 RMK AO2 T02390145,0,3,0,16090.0,0,0,0,
2026-04-17 00:15:00,METAR KBGE 170015Z AUTO 28005KT 10SM CLR 24/15 A3003 RMK AO2 T02400147,0,5,0,16090.0,0,0,0,
2026-04-16 23:55:00,METAR KBGE 162355Z AUTO 28006KT 10SM CLR 25/14 A3003 RMK AO2 T02530145 10299 20251 402990140,0,6,0,16090.0,0,0,0,
2026-04-16 23:35:00,METAR KBGE 162335Z AUTO 28006KT 10SM CLR 27/14 A3004 RMK AO2 T02710136,0,6,0,16090.0,0,0,0,
2026-04-16 23:15:00,METAR KBGE 162315Z AUTO 27007KT 10SM CLR 28/13 A3004 RMK AO2 T02800134,0,7,0,16090.0,0,0,0,
2026-04-16 22:55:00,METAR KBGE 162255Z AUTO 27009KT 10SM CLR 28/13 A3004 RMK AO2 T02850127,0,9,0,16090.0,0,0,0,
2026-04-16 22:35:00,METAR KBGE 162235Z AUTO 28007KT 10SM CLR 29/13 A3004 RMK AO2 T02870128,0,7,0,16090.0,0,0,0,
2026-04-16 22:15:00,METAR KBGE 162215Z AUTO 26008KT 10SM CLR 29/12 A3005 RMK AO2 T02900123,0,8,0,16090.0,0,0,0,
2026-04-16 21:55:00,METAR KBGE 162155Z AUTO 24008KT 10SM CLR 29/12 A3005 RMK AO2 T02930123,0,8,0,16090.0,0,0,0,
2026-04-16 21:35:00,METAR KBGE 162135Z AUTO 25009KT 10SM CLR 29/12 A3005 RMK AO2 T02930123,0,9,0,16090.0,0,0,0,
2026-04-16 21:15:00,METAR KBGE 162115Z AUTO 26009KT 200V290 10SM CLR 29/12 A3005 RMK AO2 T02950116,0,9,0,16090.0,0,0,0,
2026-04-16 20:55:00,METAR KBGE 162055Z AUTO 27007KT 220V280 10SM CLR 29/12 A3006 RMK AO2 T02910116,0,7,0,16090.0,0,0,0,
2026-04-16 20:35:00,METAR KBGE 162035Z AUTO 24009KT 10SM CLR 29/12 A3007 RMK AO2 T02920116,0,9,0,16090.0,0,0,0,
2026-04-16 20:15:00,METAR KBGE 162015Z AUTO 24010KT 10SM CLR 30/12 A3008 RMK AO2 T02970116,0,10,0,16090.0,0,0,0,
2026-04-16 19:55:00,METAR KBGE 161955Z AUTO 27006KT 10SM CLR 29/11 A3008 RMK AO2 T02910112,0,6,0,16090.0,0,0,0,
2026-04-16 19:35:00,METAR KBGE 161935Z AUTO 24006G14KT 10SM CLR 29/12 A3009 RMK AO2 T02890118,0,6,1,16090.0,0,0,0,
2026-04-16 19:15:00,METAR KBGE 161915Z AUTO 23011KT 10SM CLR 29/13 A3010 RMK AO2 T02910128,0,11,0,16090.0,0,0,0,
2026-04-16 18:55:00,METAR KBGE 161855Z AUTO 25012G16KT 10SM CLR 29/14 A3011 RMK AO2 T02880136,0,12,1,16090.0,0,0,0,
2026-04-16 18:35:00,METAR KBGE 161835Z AUTO 24010G14KT 10SM CLR 29/14 A3012 RMK AO2 T02860137,0,10,1,16090.0,0,0,0,
2026-04-16 18:15:00,METAR KBGE 161815Z AUTO 20011KT 10SM SCT055 28/14 A3013 RMK AO2 T02810142,0,11,0,16090.0,0,0,0,
2026-04-16 17:55:00,METAR KBGE 161755Z AUTO 25010KT 200V260 10SM SCT055 28/14 A3014 RMK AO2 T02780139 10283 20152,0,10,0,16090.0,0,0,0,
2026-04-16 17:35:00,METAR KBGE 161735Z AUTO 24010G15KT 10SM CLR 28/14 A3016 RMK AO2 T02760138,0,10,1,16090.0,0,0,0,
2026-04-16 17:15:00,METAR KBGE 161715Z AUTO 26009KT 10SM CLR 28/14 A3016 RMK AO2 T02750141,0,9,0,16090.0,0,0,0,
2026-04-16 16:55:00,METAR KBGE 161655Z AUTO 25007KT 10SM CLR 27/14 A3017 RMK AO2 T02720137,0,7,0,16090.0,0,0,0,
2026-04-16 16:35:00,METAR KBGE 161635Z AUTO 27010G17KT 10SM CLR 27/13 A3018 RMK AO2 T02710127,0,10,1,16090.0,0,0,0,
2026-04-16 16:15:00,METAR KBGE 161615Z AUTO 22011G15KT 10SM CLR 27/13 A3018 RMK AO2 T02670130,0,11,1,16090.0,0,0,0,
2026-04-16 15:55:00,METAR KBGE 161555Z AUTO 22008KT 10SM CLR 27/14 A3018 RMK AO2 T02670135,0,8,0,16090.0,0,0,0,
2026-04-16 15:35:00,METAR KBGE 161535Z AUTO 20011KT 10SM CLR 26/14 A3018 RMK AO2 T02630141,0,11,0,16090.0,0,0,0,
2026-04-16 14:55:00,METAR KBGE 161455Z AUTO 27005KT 10SM CLR 25/14 A3019 RMK AO2 T02490140,0,5,0,16090.0,0,0,0,
2026-04-16 14:35:00,METAR KBGE 161435Z AUTO 01004KT 10SM CLR 25/14 A3019 RMK AO2 T02490143,0,4,0,16090.0,0,0,0,
2026-04-16 14:15:00,METAR KBGE 161415Z AUTO 00000KT 10SM CLR 23/15 A3019 RMK AO2 T02350155,0,0,0,16090.0,0,0,0,
2026-04-16 13:55:00,METAR KBGE 161355Z AUTO 00000KT 10SM CLR 23/16 A3018 RMK AO2 T02310163,0,0,0,16090.0,0,0,0,
2026-04-16 13:35:00,METAR KBGE 161335Z AUTO 00000KT 10SM CLR 21/17 A3018 RMK AO2 T02140167,0,0,0,16090.0,0,0,0,
2026-04-16 13:15:00,METAR KBGE 161315Z AUTO 00000KT 7SM HZ CLR 20/17 A3018 RMK AO2 T02040172,0,0,0,11263.0,0,0,0,
2026-04-16 12:55:00,METAR KBGE 161255Z AUTO 00000KT 10SM CLR 19/18 A3017 RMK AO2 T01910180,0,0,0,16090.0,0,0,0,
2026-04-16 12:35:00,METAR KBGE 161235Z AUTO 00000KT 7SM CLR 17/ A3017 RMK AO2 T0175////,0,0,0,11263.0,0,0,0,
2026-04-16 12:15:00,METAR KBGE 161215Z AUTO 00000KT 7SM CLR 17/ A3017 RMK AO2 T0165////,0,0,0,11263.0,0,0,0,
2026-04-16 11:55:00,METAR KBGE 161155Z AUTO 00000KT 7SM HZ CLR 15/ A3016 RMK AO2 T0148//// 10187 20140,0,0,0,11263.0,0,0,0,
2026-04-16 11:35:00,METAR KBGE 161135Z AUTO 00000KT 5SM HZ CLR 15/ A3015 RMK AO2 T0145////,0,0,0,8045.0,0,0,0,
2026-04-16 11:15:00,METAR KBGE 161115Z AUTO 00000KT 7SM CLR 15/ A3013 RMK AO2 T0148////,0,0,0,11263.0,0,0,0,
2026-04-16 10:55:00,METAR KBGE 161055Z AUTO 00000KT 7SM CLR 15/ A3012 RMK AO2 T0146////,0,0,0,11263.0,0,0,0,
2026-04-16 10:35:00,METAR KBGE 161035Z AUTO 00000KT 10SM CLR 15/ A3011 RMK AO2 T0148////,0,0,0,16090.0,0,0,0,
2026-04-16 10:15:00,METAR KBGE 161015Z AUTO 00000KT 10SM CLR 15/ A3011 RMK AO2 T0151////,0,0,0,16090.0,0,0,0,
2026-04-16 09:55:00,METAR KBGE 160955Z AUTO 00000KT 10SM CLR 15/ A3011 RMK AO2 T0152////,0,0,0,16090.0,0,0,0,
2026-04-16 09:35:00,METAR KBGE 160935Z AUTO 00000KT 10SM CLR 16/ A3011 RMK AO2 T0159////,0,0,0,16090.0,0,0,0,
2026-04-16 09:15:00,METAR KBGE 160915Z AUTO 00000KT 10SM CLR 15/ A3011 RMK AO2 T0155////,0,0,0,16090.0,0,0,0,
2026-04-16 08:55:00,METAR KBGE 160855Z AUTO 00000KT 10SM CLR 16/ A3011 RMK AO2 T0159////,0,0,0,16090.0,0,0,0,
2026-04-16 08:35:00,METAR KBGE 160835Z AUTO 00000KT 10SM CLR 15/16 A3011 RMK AO2 T0155////,0,0,0,16090.0,0,0,0,
2026-04-16 08:15:00,METAR KBGE 160815Z AUTO 22003KT 10SM CLR 17/16 A3011 RMK AO2 T01690162,0,3,0,16090.0,0,0,0,
2026-04-16 07:55:00,METAR KBGE 160755Z AUTO 00000KT 10SM CLR 16/16 A3011 RMK AO2 T01630160,0,0,0,16090.0,0,0,0,
2026-04-16 07:35:00,METAR KBGE 160735Z AUTO 26003KT 10SM CLR 17/16 A3011 RMK AO2 T01660161,0,3,0,16090.0,0,0,0,
2026-04-16 07:15:00,METAR KBGE 160715Z AUTO 25003KT 10SM CLR 17/16 A3011 RMK AO2 T01730163,0,3,0,16090.0,0,0,0,
2026-04-16 06:55:00,METAR KBGE 160655Z AUTO 23003KT 10SM CLR 18/16 A3011 RMK AO2 T01800162,0,3,0,16090.0,0,0,0,
2026-04-16 06:35:00,METAR KBGE 160635Z AUTO 23004KT 10SM CLR 18/16 A3011 RMK AO2 T01810163,0,4,0,16090.0,0,0,0,
2026-04-16 06:15:00,METAR KBGE 160615Z AUTO 24003KT 10SM CLR 18/16 A3011 RMK AO2 T01840162,0,3,0,16090.0,0,0,0,
2026-04-16 05:55:00,METAR KBGE 160555Z AUTO 24005KT 10SM CLR 19/16 A3012 RMK AO2 T01870162 10277 20185,0,5,0,16090.0,0,0,0,
2026-04-16 05:35:00,METAR KBGE 160535Z AUTO 22005KT 10SM CLR 19/16 A3012 RMK AO2 T01910161,0,5,0,16090.0,0,0,0,
2026-04-16 05:15:00,METAR KBGE 160515Z AUTO 20003KT 10SM CLR 19/16 A3012 RMK AO2 T01890159,0,3,0,16090.0,0,0,0,
2026-04-16 04:55:00,METAR KBGE 160455Z AUTO 26004KT 10SM CLR 20/16 A3012 RMK AO2 T01980156,0,4,0,16090.0,0,0,0,
2026-04-16 04:35:00,METAR KBGE 160435Z AUTO 23004KT 10SM CLR 20/16 A3012 RMK AO2 T02020156,0,4,0,16090.0,0,0,0,
2026-04-16 04:15:00,METAR KBGE 160415Z AUTO 23004KT 10SM CLR 21/16 A3011 RMK AO2 T02070155,0,4,0,16090.0,0,0,0,
2026-04-16 03:55:00,METAR KBGE 160355Z AUTO 20004KT 10SM CLR 21/15 A3011 RMK AO2 T02080154,0,4,0,16090.0,0,0,0,
2026-04-16 03:35:00,METAR KBGE 160335Z AUTO 22004KT 10SM CLR 21/15 A3012 RMK AO2 T02140152,0,4,0,16090.0,0,0,0,
2026-04-16 03:15:00,METAR KBGE 160315Z AUTO 24006KT 10SM CLR 22/15 A3011 RMK AO2 T02230152,0,6,0,16090.0,0,0,0,
2026-04-16 02:55:00,METAR KBGE 160255Z AUTO 24006KT 10SM CLR 22/15 A3012 RMK AO2 T02220154,0,6,0,16090.0,0,0,0,
2026-04-16 02:35:00,METAR KBGE 160235Z AUTO 24006KT 10SM CLR 23/15 A3012 RMK AO2 T02310153,0,6,0,16090.0,0,0,0,
2026-04-16 02:15:00,METAR KBGE 160215Z AUTO 24006KT 10SM CLR 24/15 A3012 RMK AO2 T02370153,0,6,0,16090.0,0,0,0,
2026-04-16 01:55:00,METAR KBGE 160155Z AUTO 23008KT 10SM CLR 24/15 A3011 RMK AO2 T02420154,0,8,0,16090.0,0,0,0,
2026-04-16 01:35:00,METAR KBGE 160135Z AUTO 23008KT 10SM CLR 25/15 A3010 RMK AO2 T02490154,0,8,0,16090.0,0,0,0,
2026-04-16 01:15:00,METAR KBGE 160115Z AUTO 23008KT 10SM SCT075 25/15 A3010 RMK AO2 T02520154,0,8,0,16090.0,0,0,0,
2026-04-16 00:55:00,METAR KBGE 160055Z AUTO 21007KT 10SM BKN075 25/15 A3009 RMK AO2 T02500151,0,7,0,16090.0,0,0,0,
2026-04-16 00:35:00,METAR KBGE 160035Z AUTO 22007KT 10SM BKN075 25/15 A3009 RMK AO2 T02470150,0,7,0,16090.0,0,0,0,
2026-04-16 00:15:00,METAR KBGE 160015Z AUTO 21003KT 10SM SCT075 26/14 A3008 RMK AO2 T02620144,0,3,0,16090.0,0,0,0,
2026-04-15 23:55:00,METAR KBGE 152355Z AUTO 00000KT 10SM CLR 28/13 A3008 RMK AO2 T02780131 10312 20277 403120277,0,0,0,16090.0,0,0,0,
2026-04-15 23:35:00,METAR KBGE 152335Z AUTO 20003KT 10SM SCT075 29/13 A3008 RMK AO2 T02850131,0,3,0,16090.0,0,0,0,
2026-04-15 23:15:00,METAR KBGE 152315Z AUTO 19003KT 10SM SCT075 29/12 A3008 RMK AO2 T02930125,0,3,0,16090.0,0,0,0,
2026-04-15 22:55:00,METAR KBGE 152255Z AUTO 21003KT 10SM SCT075 30/13 A3008 RMK AO2 T02970126,0,3,0,16090.0,0,0,0,
2026-04-15 22:35:00,METAR KBGE 152235Z AUTO 28006KT 10SM SCT075 30/13 A3008 RMK AO2 T03000131,0,6,0,16090.0,0,0,0,
2026-04-15 22:15:00,METAR KBGE 152215Z AUTO 30004KT 10SM SCT075 30/13 A3008 RMK AO2 T03020128,0,4,0,16090.0,0,0,0,
2026-04-15 21:55:00,METAR KBGE 152155Z AUTO 00000KT 10SM CLR 30/13 A3008 RMK AO2 T03000127,0,0,0,16090.0,0,0,0,
2026-04-15 21:35:00,METAR KBGE 152135Z AUTO 24004KT 10SM CLR 30/13 A3008 RMK AO2 T03050135,0,4,0,16090.0,0,0,0,
2026-04-15 21:15:00,METAR KBGE 152115Z AUTO 21008KT 10SM CLR 30/13 A3008 RMK AO2 T03020133,0,8,0,16090.0,0,0,0,
2026-04-15 20:55:00,METAR KBGE 152055Z AUTO 24007KT 10SM SCT070 30/13 A3009 RMK AO2 T03040130,0,7,0,16090.0,0,0,0,
2026-04-15 20:35:00,METAR KBGE 152035Z AUTO 16003KT 10SM CLR 30/13 A3009 RMK AO2 T02990126,0,3,0,16090.0,0,0,0,
2026-04-15 20:15:00,METAR KBGE 152015Z AUTO 21007KT 10SM SCT070 30/13 A3010 RMK AO2 T03010129,0,7,0,16090.0,0,0,0,
2026-04-15 19:55:00,METAR KBGE 151955Z AUTO 22008KT 10SM BKN070 31/13 A3011 RMK AO2 T03050134,0,8,0,16090.0,0,0,0,
2026-04-15 19:35:00,METAR KBGE 151935Z AUTO 28005KT 10SM BKN070 30/14 A3012 RMK AO2 T03040138,0,5,0,16090.0,0,0,0,
2026-04-15 19:15:00,METAR KBGE 151915Z AUTO 26005KT 10SM 29/13 A3013 RMK AO2 T02880132,0,5,0,16090.0,0,0,0,
2026-04-15 18:55:00,METAR KBGE 151855Z AUTO 17006KT BKN060 30/13 A3013 RMK AO2 T02980133,0,6,0,,0,0,0,
2026-04-15 18:35:00,METAR KBGE 151835Z AUTO 01005KT BKN060 29/14 A3014 RMK AO2 PWINO T02910142,0,5,0,,0,0,0,
2026-04-15 18:15:00,METAR KBGE 151815Z AUTO 13003KT BKN060 29/15 A3014 RMK AO2 PWINO T02870146,0,3,0,,0,0,0,
2026-04-15 17:55:00,METAR KBGE 151755Z AUTO 23008KT CLR 29/15 A3016 RMK AO2 PWINO T02930145 10296 20156,0,8,0,,0,0,0,
2026-04-15 17:35:00,METAR KBGE 151735Z AUTO 09006KT SCT060 29/14 A3017 RMK AO2 PWINO T02910141,0,6,0,,0,0,0,
2026-04-15 17:15:00,METAR KBGE 151715Z AUTO 21004KT SCT060 28/14 A3018 RMK AO2 PWINO T02800143,0,4,0,,0,0,0,
2026-04-15 16:55:00,METAR KBGE 151655Z AUTO 08004KT CLR 28/15 A3018 RMK AO2 PWINO T02800150,0,4,0,,0,0,0,
2026-04-15 16:35:00,METAR KBGE 151635Z AUTO 17004KT CLR 27/15 A3020 RMK AO2 PWINO T02710150,0,4,0,,0,0,0,
2026-04-15 16:15:00,METAR KBGE 151615Z AUTO 20007KT CLR 27/15 A3020 RMK AO2 PWINO T02710149,0,7,0,,0,0,0,
2026-04-15 15:55:00,METAR KBGE 151555Z AUTO 21003KT CLR 26/14 A3020 RMK AO2 PWINO T02640144,0,3,0,,0,0,0,
2026-04-15 15:35:00,METAR KBGE 151535Z AUTO 20006KT CLR 26/14 A3020 RMK AO2 PWINO T02620144,0,6,0,,0,0,0,
2026-04-15 15:15:00,METAR KBGE 151515Z AUTO 21004KT CLR 26/15 A3020 RMK AO2 PWINO T02590148,0,4,0,,0,0,0,
2026-04-15 14:55:00,METAR KBGE 151455Z AUTO 00000KT CLR 25/15 A3020 RMK AO2 PWINO T02520146,0,0,0,,0,0,0,
2026-04-15 14:35:00,METAR KBGE 151435Z AUTO 20005KT CLR 24/15 A3020 RMK AO2 PWINO T02420148,0,5,0,,0,0,0,
2026-04-15 14:15:00,METAR KBGE 151415Z AUTO 13003KT CLR 24/16 A3019 RMK AO2 PWINO T02360157,0,3,0,,0,0,0,
2026-04-15 13:55:00,METAR KBGE 151355Z AUTO 14005KT CLR 23/16 A3019 RMK AO2 PWINO T02290158,0,5,0,,0,0,0,
2026-04-15 13:35:00,METAR KBGE 151335Z AUTO 16004KT CLR 22/16 A3019 RMK AO2 PWINO T02160164,0,4,0,,0,0,0,
2026-04-15 13:15:00,METAR KBGE 151315Z AUTO 16004KT CLR 20/17 A3019 RMK AO2 PWINO T02010168,0,4,0,,0,0,0,
2026-04-15 12:55:00,METAR KBGE 151255Z AUTO 18004KT 19/17 A3019 RMK AO2 PWINO T01890173,0,4,0,,0,0,0,
2026-04-15 12:35:00,METAR KBGE 151235Z AUTO 16003KT 18/17 A3019 RMK AO2 PWINO T01760173,0,3,0,,0,0,0,
2026-04-15 12:15:00,METAR KBGE 151215Z AUTO 14003KT 17/ A3018 RMK AO2 PWINO T0165////,0,3,0,,0,0,0,
2026-04-15 11:55:00,METAR KBGE 151155Z AUTO 00000KT 15/ A3017 RMK AO2 PWINO T0153//// 10182 20133,0,0,0,,0,0,0,
2026-04-15 11:35:00,METAR KBGE 151135Z AUTO 16003KT 15/ A3017 RMK AO2 PWINO T0149////,0,3,0,,0,0,0,
2026-04-15 11:15:00,METAR KBGE 151115Z AUTO 00000KT 15/ A3016 RMK AO2 PWINO T0147////,0,0,0,,0,0,0,
2026-04-15 10:55:00,METAR KBGE 151055Z AUTO 14005KT 15/ A3015 RMK AO2 PWINO T0149////,0,5,0,,0,0,0,
2026-04-15 10:35:00,METAR KBGE 151035Z AUTO 15007KT 15/ A3014 RMK AO2 PWINO T0146////,0,7,0,,0,0,0,
2026-04-15 10:15:00,METAR KBGE 151015Z AUTO 00000KT 14/ A3013 RMK AO2 PWINO T0140////,0,0,0,,0,0,0,
2026-04-15 09:55:00,METAR KBGE 150955Z AUTO 00000KT 14/ A3013 RMK AO2 PWINO T0138////,0,0,0,,0,0,0,
2026-04-15 09:35:00,METAR KBGE 150935Z AUTO 00000KT 15/ A3013 RMK AO2 PWINO T0145////,0,0,0,,0,0,0,
2026-04-15 09:15:00,METAR KBGE 150915Z AUTO 00000KT 15/ A3012 RMK AO2 PWINO T0153////,0,0,0,,0,0,0,
2026-04-15 08:55:00,METAR KBGE 150855Z AUTO 00000KT 15/ A3012 RMK AO2 PWINO T0152////,0,0,0,,0,0,0,
2026-04-15 08:35:00,METAR KBGE 150835Z AUTO 00000KT 16/ A3012 RMK AO2 PWINO T0157////,0,0,0,,0,0,0,
2026-04-15 07:55:00,METAR KBGE 150755Z AUTO 00000KT 16/ A3012 RMK AO2 PWINO T0158////,0,0,0,,0,0,0,
2026-04-15 07:35:00,METAR KBGE 150735Z AUTO 00000KT 16/ A3012 RMK AO2 PWINO T0164////,0,0,0,,0,0,0,
2026-04-15 07:15:00,METAR KBGE 150715Z AUTO 00000KT 17/ A3011 RMK AO2 PWINO T0168////,0,0,0,,0,0,0,
2026-04-15 06:55:00,METAR KBGE 150655Z AUTO 00000KT 17/ A3012 RMK AO2 PWINO T0169////,0,0,0,,0,0,0,
2026-04-15 06:35:00,METAR KBGE 150635Z AUTO 00000KT 17/ A3012 RMK AO2 PWINO T0171////,0,0,0,,0,0,0,
2026-04-15 06:15:00,METAR KBGE 150615Z AUTO 00000KT 17/17 A3013 RMK AO2 PWINO T0171////,0,0,0,,0,0,0,
2026-04-15 05:55:00,METAR KBGE 150555Z AUTO 26004KT 18/17 A3014 RMK AO2 PWINO T01830173 10277 20181,0,4,0,,0,0,0,
2026-04-15 05:35:00,METAR KBGE 150535Z AUTO 00000KT 19/18 A3014 RMK AO2 PWINO T01900176,0,0,0,,0,0,0,
2026-04-15 04:55:00,METAR KBGE 150455Z AUTO 26005KT 19/17 A3015 RMK AO2 PWINO T01860175,0,5,0,,0,0,0,
2026-04-15 04:35:00,METAR KBGE 150435Z AUTO 26005KT 19/17 A3016 RMK AO2 PWINO T01930174,0,5,0,,0,0,0,
2026-04-15 04:15:00,METAR KBGE 150415Z AUTO 25005KT 20/17 A3016 RMK AO2 PWINO T01970171,0,5,0,,0,0,0,
2026-04-15 03:35:00,METAR KBGE 150335Z AUTO 24005KT CLR 20/15 A3017 RMK AO2 PWINO T02030150,0,5,0,,0,0,0,
2026-04-15 03:15:00,METAR KBGE 150315Z AUTO 24004KT CLR 21/12 A3017 RMK AO2 PWINO T02090125,0,4,0,,0,0,0,
2026-04-15 02:55:00,METAR KBGE 150255Z AUTO 22006KT CLR 21/12 A3017 RMK AO2 PWINO T02090122,0,6,0,,0,0,0,
2026-04-15 02:35:00,METAR KBGE 150235Z AUTO 21005KT CLR 21/12 A3017 RMK AO2 PWINO T02140121,0,5,0,,0,0,0,
2026-04-15 02:15:00,METAR KBGE 150215Z AUTO 22005KT CLR 22/12 A3017 RMK AO2 PWINO T02220122,0,5,0,,0,0,0,
2026-04-15 01:55:00,METAR KBGE 150155Z AUTO 22007KT CLR 23/12 A3016 RMK AO2 PWINO T02310123,0,7,0,,0,0,0,
2026-04-15 01:35:00,METAR KBGE 150135Z AUTO 22006KT CLR 23/13 A3015 RMK AO2 PWINO T02320134,0,6,0,,0,0,0,
2026-04-15 01:15:00,METAR KBGE 150115Z AUTO 21007KT SCT075 24/14 A3015 RMK AO2 PWINO T02420136,0,7,0,,0,0,0,
2026-04-15 00:55:00,METAR KBGE 150055Z AUTO 19007KT SCT075 25/14 A3014 RMK AO2 PWINO T02470136,0,7,0,,0,0,0,
2026-04-15 00:35:00,METAR KBGE 150035Z AUTO 18010KT BKN075 25/15 A3013 RMK AO2 PWINO T02450151,0,10,0,,0,0,0,
2026-04-15 00:15:00,METAR KBGE 150015Z AUTO 00000KT SCT075 25/14 A3013 RMK AO2 PWINO T02520140,0,0,0,,0,0,0,
2026-04-14 23:55:00,METAR KBGE 142355Z AUTO 29003KT CLR 27/13 A3013 RMK AO2 PWINO T02720129 10306 20272 403060116,0,3,0,,0,0,0,
2026-04-14 23:35:00,METAR KBGE 142335Z AUTO 28003KT SCT075 28/14 A3013 RMK AO2 PWINO T02770141,0,3,0,,0,0,0,
2026-04-14 23:15:00,METAR KBGE 142315Z AUTO 00000KT CLR 28/12 A3013 RMK AO2 PWINO T02800123,0,0,0,,0,0,0,
2026-04-14 22:55:00,METAR KBGE 142255Z AUTO 26003KT CLR 29/12 A3013 RMK AO2 PWINO T02920118,0,3,0,,0,0,0,
2026-04-14 22:35:00,METAR KBGE 142235Z AUTO 22006KT SCT075 29/12 A3013 RMK AO2 PWINO T02950121,0,6,0,,0,0,0,
2026-04-14 22:15:00,METAR KBGE 142215Z AUTO 00000KT CLR 29/12 A3013 RMK AO2 PWINO T02940119,0,0,0,,0,0,0,
2026-04-14 21:55:00,METAR KBGE 142155Z AUTO 20004KT CLR 30/12 A3013 RMK AO2 PWINO T02980120,0,4,0,,0,0,0,
2026-04-14 21:35:00,METAR KBGE 142135Z AUTO 13005KT SCT070 30/13 A3013 RMK AO2 PWINO T03000127,0,5,0,,0,0,0,
2026-04-14 21:15:00,METAR KBGE 142115Z AUTO 20003KT SCT070 30/13 A3013 RMK AO2 PWINO T03030129,0,3,0,,0,0,0,
2026-04-14 20:55:00,METAR KBGE 142055Z AUTO 18006KT SCT070 30/12 A3013 RMK AO2 PWINO T02990124,0,6,0,,0,0,0,
2026-04-14 20:35:00,METAR KBGE 142035Z AUTO 17003KT CLR 30/13 A3014 RMK AO2 PWINO T02990127,0,3,0,,0,0,0,
2026-04-14 20:15:00,METAR KBGE 142015Z AUTO 13006KT CLR 30/13 A3015 RMK AO2 PWINO T02990128,0,6,0,,0,0,0,
2026-04-14 19:55:00,METAR KBGE 141955Z AUTO 17004KT CLR 30/12 A3015 RMK AO2 PWINO T02980125,0,4,0,,0,0,0,
2026-04-14 19:35:00,METAR KBGE 141935Z AUTO 27006KT SCT065 30/13 A3017 RMK AO2 PWINO T02960129,0,6,0,,0,0,0,
2026-04-14 19:15:00,METAR KBGE 141915Z AUTO 20004KT SCT065 30/13 A3017 RMK AO2 PWINO T02960129,0,4,0,,0,0,0,
2026-04-14 18:55:00,METAR KBGE 141855Z AUTO 14006KT CLR 29/13 A3018 RMK AO2 PWINO T02880126,0,6,0,,0,0,0,
2026-04-14 18:35:00,METAR KBGE 141835Z AUTO 15009KT CLR 29/13 A3019 RMK AO2 PWINO T02940127,0,9,0,,0,0,0,
2026-04-14 18:15:00,METAR KBGE 141815Z AUTO 14007KT SCT060 29/13 A3020 RMK AO2 PWINO T02870129,0,7,0,,0,0,0,
2026-04-14 17:55:00,METAR KBGE 141755Z AUTO 08005KT SCT060 28/14 A3021 RMK AO2 PWINO T02800136 10286 20135,0,5,0,,0,0,0,
2026-04-14 17:35:00,METAR KBGE 141735Z AUTO 13006KT SCT050 28/14 A3022 RMK AO2 PWINO T02790136,0,6,0,,0,0,0,
2026-04-14 17:15:00,METAR KBGE 141715Z AUTO 00000KT SCT050 27/12 A3023 RMK AO2 PWINO T02740123,0,0,0,,0,0,0,
2026-04-14 16:55:00,METAR KBGE 141655Z AUTO 23004KT SCT050 26/14 A3024 RMK AO2 PWINO T02610144,0,4,0,,0,0,0,
2026-04-14 16:35:00,METAR KBGE 141635Z AUTO 30003KT SCT045 27/16 A3025 RMK AO2 PWINO,0,3,0,,0,0,0,
2026-04-14 16:15:00,METAR KBGE 141615Z AUTO 17005KT CLR 26/16 A3025 RMK AO2 PWINO T02610159,0,5,0,,0,0,0,
2026-04-14 15:55:00,METAR KBGE 141555Z AUTO 25004KT CLR 26/15 A3026 RMK AO2 PWINO T02550155,0,4,0,,0,0,0,
2026-04-14 15:35:00,METAR KBGE 141535Z AUTO 15006KT CLR 25/16 A3026 RMK AO2 PWINO T02530161,0,6,0,,0,0,0,
2026-04-14 15:15:00,METAR KBGE 141515Z AUTO 22006KT CLR 25/17 A3026 RMK AO2 PWINO T02530168,0,6,0,,0,0,0,
2026-04-14 14:55:00,METAR KBGE 141455Z AUTO 23007KT CLR 24/16 A3027 RMK AO2 PWINO T02410160,0,7,0,,0,0,0,
2026-04-14 14:35:00,METAR KBGE 141435Z AUTO 17005KT CLR 23/16 A3027 RMK AO2 PWINO T02330156,0,5,0,,0,0,0,
2026-04-14 14:15:00,METAR KBGE 141415Z AUTO 13004KT CLR 23/16 A3026 RMK AO2 PWINO T02290156,0,4,0,,0,0,0,
2026-04-14 13:55:00,METAR KBGE 141355Z AUTO 12005KT CLR 22/15 A3026 RMK AO2 PWINO T02230154,0,5,0,,0,0,0,
2026-04-14 13:35:00,METAR KBGE 141335Z AUTO 12005KT CLR 22/15 A3026 RMK AO2 PWINO T02160151,0,5,0,,0,0,0,
2026-04-14 13:15:00,METAR KBGE 141315Z AUTO 11004KT CLR 20/16 A3026 RMK AO2 PWINO T02030165,0,4,0,,0,0,0,
2026-04-14 12:55:00,METAR KBGE 141255Z AUTO 14004KT 19/17 A3025 RMK AO2 PWINO T01850167,0,4,0,,0,0,0,
2026-04-14 12:35:00,METAR KBGE 141235Z AUTO 13003KT 17/16 A3025 RMK AO2 PWINO T01650162,0,3,0,,0,0,0,
2026-04-14 12:15:00,METAR KBGE 141215Z AUTO 00000KT 15/ A3024 RMK AO2 PWINO T0149////,0,0,0,,0,0,0,
2026-04-14 11:55:00,METAR KBGE 141155Z AUTO 10003KT 13/ A3023 RMK AO2 PWINO T0133//// 10160 20116,0,3,0,,0,0,0,
2026-04-14 11:35:00,METAR KBGE 141135Z AUTO 10003KT 13/ A3023 RMK AO2 PWINO T0126////,0,3,0,,0,0,0,
2026-04-14 11:15:00,METAR KBGE 141115Z AUTO 00000KT 13/ A3022 RMK AO2 PWINO T0126////,0,0,0,,0,0,0,
2026-04-14 10:55:00,METAR KBGE 141055Z AUTO 14003KT 12/ A3022 RMK AO2 PWINO T0117////,0,3,0,,0,0,0,
2026-04-14 10:35:00,METAR KBGE 141035Z AUTO 16003KT 13/ A3021 RMK AO2 PWINO T0129////,0,3,0,,0,0,0,
2026-04-14 10:15:00,METAR KBGE 141015Z AUTO 12003KT 13/ A3021 RMK AO2 PWINO T0132////,0,3,0,,0,0,0,
2026-04-14 09:55:00,METAR KBGE 140955Z AUTO 00000KT 13/ A3021 RMK AO2 PWINO T0127////,0,0,0,,0,0,0,
2026-04-14 09:35:00,METAR KBGE 140935Z AUTO 00000KT 13/ A3021 RMK AO2 PWINO T0128////,0,0,0,,0,0,0,
2026-04-14 09:15:00,METAR KBGE 140915Z AUTO 00000KT 14/ A3021 RMK AO2 PWINO T0138////,0,0,0,,0,0,0,
2026-04-14 08:55:00,METAR KBGE 140855Z AUTO 25003KT 14/ A3021 RMK AO2 PWINO T0140////,0,3,0,,0,0,0,
2026-04-14 08:35:00,METAR KBGE 140835Z AUTO 15005KT 14/ A3021 RMK AO2 PWINO T0138////,0,5,0,,0,0,0,
2026-04-14 08:15:00,METAR KBGE 140815Z AUTO 14006KT 14/ A3021 RMK AO2 PWINO T0144////,0,6,0,,0,0,0,
2026-04-14 07:55:00,METAR KBGE 140755Z AUTO 10006KT 14/ A3021 RMK AO2 PWINO T0136////,0,6,0,,0,0,0,
2026-04-14 07:35:00,METAR KBGE 140735Z AUTO 18003KT 14/ A3021 RMK AO2 PWINO T0142////,0,3,0,,0,0,0,
2026-04-14 07:15:00,METAR KBGE 140715Z AUTO 30005KT 15/ A3021 RMK AO2 PWINO T0147////,0,5,0,,0,0,0,
2026-04-14 06:55:00,METAR KBGE 140655Z AUTO 27003KT 15/15 A3022 RMK AO2 PWINO T01550153,0,3,0,,0,0,0,
2026-04-14 06:35:00,METAR KBGE 140635Z AUTO 00000KT 16/15 A3022 RMK AO2 PWINO T01560153,0,0,0,,0,0,0,
2026-04-14 06:15:00,METAR KBGE 140615Z AUTO 00000KT 15/14 A3022 RMK AO2 PWINO T01460143,0,0,0,,0,0,0,
2026-04-14 05:55:00,METAR KBGE 140555Z AUTO 25004KT 16/15 A3023 RMK AO2 PWINO T01590147 10266 20155,0,4,0,,0,0,0,
2026-04-14 05:35:00,METAR KBGE 140535Z AUTO 25005KT 16/15 A3023 RMK AO2 PWINO T01630147,0,5,0,,0,0,0,
2026-04-14 05:15:00,METAR KBGE 140515Z AUTO 24004KT 16/14 A3023 RMK AO2 PWINO T01650145,0,4,0,,0,0,0,
2026-04-14 04:55:00,METAR KBGE 140455Z AUTO 20004KT CLR 17/14 A3024 RMK AO2 PWINO T01720143,0,4,0,,0,0,0,
2026-04-14 04:35:00,METAR KBGE 140435Z AUTO 19004KT CLR 17/14 A3024 RMK AO2 PWINO T01730141,0,4,0,,0,0,0,
2026-04-14 04:15:00,METAR KBGE 140415Z AUTO 00000KT CLR 17/14 A3024 RMK AO2 PWINO T01730141,0,0,0,,0,0,0,
2026-04-14 03:55:00,METAR KBGE 140355Z AUTO 26003KT CLR 19/14 A3024 RMK AO2 PWINO T01940142,0,3,0,,0,0,0,
2026-04-14 03:35:00,METAR KBGE 140335Z AUTO 28003KT CLR 20/14 A3023 RMK AO2 PWINO T01960135,0,3,0,,0,0,0,
2026-04-14 03:15:00,METAR KBGE 140315Z AUTO 27003KT CLR 19/14 A3023 RMK AO2 PWINO T01930135,0,3,0,,0,0,0,
2026-04-14 02:55:00,METAR KBGE 140255Z AUTO 25005KT CLR 20/12 A3023 RMK AO2 PWINO T02040123,0,5,0,,0,0,0,
2026-04-14 02:35:00,METAR KBGE 140235Z AUTO 22005KT CLR 21/12 A3023 RMK AO2 PWINO T02070122,0,5,0,,0,0,0,
2026-04-14 02:15:00,METAR KBGE 140215Z AUTO 22007KT CLR 21/12 A3022 RMK AO2 PWINO T02120124,0,7,0,,0,0,0,
2026-04-14 01:55:00,METAR KBGE 140155Z AUTO 22006KT CLR 21/12 A3022 RMK AO2 PWINO T02140122,0,6,0,,0,0,0,
2026-04-14 01:35:00,METAR KBGE 140135Z AUTO 22006KT CLR 21/12 A3022 RMK AO2 PWINO T02130122,0,6,0,,0,0,0,
2026-04-14 01:15:00,METAR KBGE 140115Z AUTO 18005KT CLR 22/12 A3021 RMK AO2 PWINO T02190119,0,5,0,,0,0,0,
2026-04-14 00:55:00,METAR KBGE 140055Z AUTO 20003KT CLR 22/10 A3021 RMK AO2 PWINO T02240104,0,3,0,,0,0,0,
2026-04-14 00:35:00,METAR KBGE 140035Z AUTO 20005KT CLR 23/11 A3020 RMK AO2 PWINO T02270107,0,5,0,,0,0,0,
2026-04-14 00:15:00,METAR KBGE 140015Z AUTO 00000KT CLR 24/11 A3020 RMK AO2 PWINO T02410106,0,0,0,,0,0,0,
2026-04-13 23:55:00,METAR KBGE 132355Z AUTO 19003KT CLR 27/09 A3020 RMK AO2 PWINO T02700089 10300 20268 403000148,0,3,0,,0,0,0,
2026-04-13 23:35:00,METAR KBGE 132335Z AUTO 18003KT CLR 27/09 A3020 RMK AO2 PWINO T02740094,0,3,0,,0,0,0,
2026-04-13 23:15:00,METAR KBGE 132315Z AUTO 18005KT CLR 28/09 A3020 RMK AO2 PWINO T02810092,0,5,0,,0,0,0,
2026-04-13 22:55:00,METAR KBGE 132255Z AUTO 17006KT CLR 29/10 A3020 RMK AO2 PWINO T02860096,0,6,0,,0,0,0,
2026-04-13 22:35:00,METAR KBGE 132235Z AUTO 17005KT CLR 29/10 A3021 RMK AO2 PWINO T02890097,0,5,0,,0,0,0,
2026-04-13 22:15:00,METAR KBGE 132215Z AUTO 23006KT SCT075 29/09 A3021 RMK AO2 PWINO T02920090,0,6,0,,0,0,0,
2026-04-13 21:55:00,METAR KBGE 132155Z AUTO 21004KT SCT075 29/10 A3021 RMK AO2 PWINO T02910103,0,4,0,,0,0,0,
2026-04-13 21:35:00,METAR KBGE 132135Z AUTO 09003KT SCT075 29/12 A3022 RMK AO2 PWINO T02940115,0,3,0,,0,0,0,
2026-04-13 21:15:00,METAR KBGE 132115Z AUTO 07007KT 040V100 CLR 29/11 A3022 RMK AO2 PWINO T02910111,0,7,0,,0,0,0,
2026-04-13 20:55:00,METAR KBGE 132055Z AUTO 14007KT 120V180 CLR 30/12 A3022 RMK AO2 PWINO T02980120,0,7,0,,0,0,0,
2026-04-13 20:35:00,METAR KBGE 132035Z AUTO 03004KT CLR 29/12 A3023 RMK AO2 PWINO T02930117,0,4,0,,0,0,0,
2026-04-13 20:15:00,METAR KBGE 132015Z AUTO 11005KT CLR 29/12 A3024 RMK AO2 PWINO T02920118,0,5,0,,0,0,0,
2026-04-13 19:55:00,METAR KBGE 131955Z AUTO 13009KT 070V150 CLR 30/12 A3025 RMK AO2 PWINO T02960125,0,9,0,,0,0,0,
2026-04-13 19:35:00,METAR KBGE 131935Z AUTO 13009KT 090V150 CLR 29/12 A3026 RMK AO2 PWINO T02930124,0,9,0,,0,0,0,
2026-04-13 19:15:00,METAR KBGE 131915Z AUTO 13006KT CLR 29/13 A3026 RMK AO2 PWINO T02860126,0,6,0,,0,0,0,
2026-04-13 18:55:00,METAR KBGE 131855Z AUTO 12006KT CLR 28/13 A3027 RMK AO2 PWINO T02840129,0,6,0,,0,0,0,
2026-04-13 18:35:00,METAR KBGE 131835Z AUTO 15004KT CLR 28/13 A3027 RMK AO2 PWINO T02810133,0,4,0,,0,0,0,
2026-04-13 18:15:00,METAR KBGE 131815Z AUTO 13010KT CLR 28/15 A3028 RMK AO2 PWINO T02820145,0,10,0,,0,0,0,
2026-04-13 17:55:00,METAR KBGE 131755Z AUTO 16010KT CLR 27/14 A3029 RMK AO2 PWINO T02730141 10279 20156,0,10,0,,0,0,0,
2026-04-13 17:35:00,METAR KBGE 131735Z AUTO 15006KT CLR 27/15 A3030 RMK AO2 PWINO T02650150,0,6,0,,0,0,0,
2026-04-13 17:15:00,METAR KBGE 131715Z AUTO 11008KT CLR 27/15 A3031 RMK AO2 PWINO T02660146,0,8,0,,0,0,0,
2026-04-13 16:55:00,METAR KBGE 131655Z AUTO 19005KT CLR 26/15 A3032 RMK AO2 PWINO T02570154,0,5,0,,0,0,0,
2026-04-13 16:35:00,METAR KBGE 131635Z AUTO 00000KT CLR 25/15 A3033 RMK AO2 PWINO T02550149,0,0,0,,0,0,0,
2026-04-13 16:15:00,METAR KBGE 131615Z AUTO 11007KT 060V130 CLR 25/15 A3034 RMK AO2 PWINO T02520154,0,7,0,,0,0,0,
2026-04-13 15:55:00,METAR KBGE 131555Z AUTO 20003KT CLR 25/16 A3035 RMK AO2 PWINO T02460155,0,3,0,,0,0,0,
2026-04-13 15:35:00,METAR KBGE 131535Z AUTO 17005KT CLR 24/15 A3035 RMK AO2 PWINO T02360151,0,5,0,,0,0,0,
2026-04-13 15:15:00,METAR KBGE 131515Z AUTO 18005KT CLR 23/16 A3035 RMK AO2 PWINO T02330159,0,5,0,,0,0,0,
2026-04-13 14:55:00,METAR KBGE 131455Z AUTO 17008KT 130V210 CLR 23/16 A3035 RMK AO2 PWINO T02290161,0,8,0,,0,0,0,
2026-04-13 14:35:00,METAR KBGE 131435Z AUTO 18007KT CLR 23/16 A3035 RMK AO2 PWINO T02250163,0,7,0,,0,0,0,
2026-04-13 14:15:00,METAR KBGE 131415Z AUTO 15009KT CLR 22/16 A3035 RMK AO2 PWINO T02150160,0,9,0,,0,0,0,
2026-04-13 13:55:00,METAR KBGE 131355Z AUTO 16006KT CLR 21/16 A3035 RMK AO2 PWINO T02050156,0,6,0,,0,0,0,
2026-04-13 13:35:00,METAR KBGE 131335Z AUTO 14006KT CLR 19/16 A3036 RMK AO2 PWINO T01940159,0,6,0,,0,0,0,
2026-04-13 13:15:00,METAR KBGE 131315Z AUTO 15007KT CLR 18/15 A3035 RMK AO2 PWINO T01840154,0,7,0,,0,0,0,
2026-04-13 12:55:00,METAR KBGE 131255Z AUTO 14008KT CLR 18/15 A3035 RMK AO2 PWINO T01810150,0,8,0,,0,0,0,
2026-04-13 12:35:00,METAR KBGE 131235Z AUTO 13004KT 17/16 A3035 RMK AO2 PWINO T01690157,0,4,0,,0,0,0,
2026-04-13 12:15:00,METAR KBGE 131215Z AUTO 13003KT 16/16 A3035 RMK AO2 PWINO T01610157,0,3,0,,0,0,0,
2026-04-13 11:55:00,METAR KBGE 131155Z AUTO 00000KT 16/14 A3034 RMK AO2 PWINO T01570143 10165 20148,0,0,0,,0,0,0,
2026-04-13 11:35:00,METAR KBGE 131135Z AUTO 12003KT 15/14 A3033 RMK AO2 PWINO T01530142,0,3,0,,0,0,0,
2026-04-13 11:15:00,METAR KBGE 131115Z AUTO 12003KT 15/14 A3032 RMK AO2 PWINO T01510142,0,3,0,,0,0,0,
2026-04-13 10:55:00,METAR KBGE 131055Z AUTO 00000KT 15/14 A3031 RMK AO2 PWINO T01520141,0,0,0,,0,0,0,
2026-04-13 10:35:00,METAR KBGE 131035Z AUTO 13005KT 15/14 A3030 RMK AO2 PWINO T01510140,0,5,0,,0,0,0,
2026-04-13 10:15:00,METAR KBGE 131015Z AUTO 13004KT 16/14 A3030 RMK AO2 PWINO T01560140,0,4,0,,0,0,0,
2026-04-13 09:55:00,METAR KBGE 130955Z AUTO 14007KT 16/14 A3029 RMK AO2 PWINO T01620141,0,7,0,,0,0,0,
2026-04-13 09:35:00,METAR KBGE 130935Z AUTO 14007KT 16/14 A3028 RMK AO2 PWINO T01620142,0,7,0,,0,0,0,
2026-04-13 09:15:00,METAR KBGE 130915Z AUTO 14007KT 16/14 A3029 RMK AO2 PWINO T01630142,0,7,0,,0,0,0,
2026-04-13 08:55:00,METAR KBGE 130855Z AUTO 14008KT 16/14 A3028 RMK AO2 PWINO T01610141,0,8,0,,0,0,0,
2026-04-13 08:35:00,METAR KBGE 130835Z AUTO 14007KT 15/14 A3028 RMK AO2 PWINO T01550137,0,7,0,,0,0,0,
2026-04-13 08:15:00,METAR KBGE 130815Z AUTO 15006KT 16/13 A3028 RMK AO2 PWINO T01560134,0,6,0,,0,0,0,
2026-04-13 07:55:00,METAR KBGE 130755Z AUTO 14006KT 15/13 A3028 RMK AO2 PWINO T01520127,0,6,0,,0,0,0,
2026-04-13 07:35:00,METAR KBGE 130735Z AUTO 11004KT CLR 16/12 A3029 RMK AO2 PWINO T01570125,0,4,0,,0,0,0,
2026-04-13 07:15:00,METAR KBGE 130715Z AUTO 15005KT CLR 16/13 A3029 RMK AO2 PWINO T01610127,0,5,0,,0,0,0,
2026-04-13 06:55:00,METAR KBGE 130655Z AUTO 14005KT CLR 16/13 A3030 RMK AO2 PWINO T01560125,0,5,0,,0,0,0,
2026-04-13 06:35:00,METAR KBGE 130635Z AUTO 15004KT CLR 15/13 A3030 RMK AO2 PWINO T01540127,0,4,0,,0,0,0,
2026-04-13 06:15:00,METAR KBGE 130615Z AUTO 15004KT CLR 16/13 A3031 RMK AO2 PWINO T01560127,0,4,0,,0,0,0,
2026-04-13 05:55:00,METAR KBGE 130555Z AUTO 00000KT CLR 16/12 A3031 RMK AO2 PWINO T01580119 10252 20157,0,0,0,,0,0,0,
2026-04-13 05:35:00,METAR KBGE 130535Z AUTO 00000KT CLR 17/11 A3031 RMK AO2 PWINO T01720114,0,0,0,,0,0,0,
2026-04-13 05:15:00,METAR KBGE 130515Z AUTO 00000KT CLR 16/12 A3031 RMK AO2 PWINO T01630118,0,0,0,,0,0,0,
2026-04-13 04:55:00,METAR KBGE 130455Z AUTO 16007KT CLR 17/11 A3030 RMK AO2 PWINO T01730115,0,7,0,,0,0,0,
2026-04-13 04:35:00,METAR KBGE 130435Z AUTO 22003KT CLR 18/10 A3028 RMK AO2 PWINO T01790102,0,3,0,,0,0,0,
2026-04-13 04:15:00,METAR KBGE 130415Z AUTO 23004KT CLR 19/09 A3028 RMK AO2 PWINO T01870095,0,4,0,,0,0,0,
2026-04-13 03:55:00,METAR KBGE 130355Z AUTO 25005KT CLR 18/09 A3028 RMK AO2 PWINO T01850094,0,5,0,,0,0,0,
2026-04-13 03:35:00,METAR KBGE 130335Z AUTO 25005KT CLR 18/10 A3029 RMK AO2 PWINO T01810100,0,5,0,,0,0,0,
2026-04-13 03:15:00,METAR KBGE 130315Z AUTO 23005KT CLR 20/10 A3029 RMK AO2 PWINO T01950096,0,5,0,,0,0,0,
2026-04-13 02:55:00,METAR KBGE 130255Z AUTO 24004KT CLR 20/09 A3029 RMK AO2 PWINO T02040090,0,4,0,,0,0,0,
2026-04-13 02:35:00,METAR KBGE 130235Z AUTO 24005KT CLR 21/08 A3029 RMK AO2 PWINO T02130085,0,5,0,,0,0,0,
2026-04-13 02:15:00,METAR KBGE 130215Z AUTO 22004KT CLR 21/09 A3028 RMK AO2 PWINO T02060085,0,4,0,,0,0,0,
2026-04-13 01:55:00,METAR KBGE 130155Z AUTO 23004KT CLR 21/08 A3028 RMK AO2 PWINO T02150082,0,4,0,,0,0,0,
2026-04-13 01:35:00,METAR KBGE 130135Z AUTO 23006KT CLR 22/08 A3027 RMK AO2 PWINO T02190075,0,6,0,,0,0,0,
2026-04-13 01:15:00,METAR KBGE 130115Z AUTO 21006KT CLR 22/09 A3026 RMK AO2 PWINO T02170089,0,6,0,,0,0,0,
2026-04-13 00:55:00,METAR KBGE 130055Z AUTO 23004KT CLR 23/08 A3025 RMK AO2 PWINO T02280076,0,4,0,,0,0,0,
2026-04-13 00:35:00,METAR KBGE 130035Z AUTO 24004KT CLR 24/08 A3025 RMK AO2 PWINO T02360076,0,4,0,,0,0,0,
2026-04-13 00:15:00,METAR KBGE 130015Z AUTO 24004KT CLR 24/07 A3024 RMK AO2 PWINO T02430073,0,4,0,,0,0,0,
2026-04-12 23:55:00,METAR KBGE 122355Z AUTO 25005KT CLR 26/08 A3024 RMK AO2 PWINO T02550076 10302 20253 403020123,0,5,0,,0,0,0,
2026-04-12 23:35:00,METAR KBGE 122335Z AUTO 23006KT CLR 27/08 A3024 RMK AO2 PWINO T02690082,0,6,0,,0,0,0,
2026-04-12 23:15:00,METAR KBGE 122315Z AUTO 20004KT CLR 28/09 A3024 RMK AO2 PWINO T02820086,0,4,0,,0,0,0,
2026-04-12 22:55:00,METAR KBGE 122255Z AUTO 19007KT CLR 29/09 A3024 RMK AO2 PWINO T02860090,0,7,0,,0,0,0,
2026-04-12 22:35:00,METAR KBGE 122235Z AUTO 18007KT CLR 29/08 A3023 RMK AO2 PWINO T02890077,0,7,0,,0,0,0,
2026-04-12 22:15:00,METAR KBGE 122215Z AUTO 17006KT CLR 29/08 A3023 RMK AO2 PWINO T02920080,0,6,0,,0,0,0,
2026-04-12 21:55:00,METAR KBGE 122155Z AUTO 21008KT CLR 29/08 A3023 RMK AO2 PWINO T02950084,0,8,0,,0,0,0,
2026-04-12 21:35:00,METAR KBGE 122135Z AUTO 20006KT CLR 30/09 A3023 RMK AO2 PWINO T02960086,0,6,0,,0,0,0,
2026-04-12 21:15:00,METAR KBGE 122115Z AUTO 15007KT 120V180 CLR 30/08 A3024 RMK AO2 PWINO T02960076,0,7,0,,0,0,0,
2026-04-12 20:55:00,METAR KBGE 122055Z AUTO 17008KT CLR 30/08 A3024 RMK AO2 PWINO T02970080,0,8,0,,0,0,0,
2026-04-12 20:35:00,METAR KBGE 122035Z AUTO 18010KT CLR 30/08 A3025 RMK AO2 PWINO T02980082,0,10,0,,0,0,0,
2026-04-12 20:15:00,METAR KBGE 122015Z AUTO 14009KT CLR 29/07 A3025 RMK AO2 PWINO T02950067,0,9,0,,0,0,0,
2026-04-12 19:55:00,METAR KBGE 121955Z AUTO 13008KT CLR 29/07 A3026 RMK AO2 PWINO T02940068,0,8,0,,0,0,0,
2026-04-12 19:35:00,METAR KBGE 121935Z AUTO 18011KT CLR 30/07 A3027 RMK AO2 PWINO,0,11,0,,0,0,0,
2026-04-12 19:15:00,METAR KBGE 121915Z AUTO 16010G15KT CLR 29/06 A3027 RMK AO2 PWINO T02930063,0,10,1,,0,0,0,
2026-04-12 18:55:00,METAR KBGE 121855Z AUTO 15010KT CLR 29/08 A3027 RMK AO2 PWINO T02900079,0,10,0,,0,0,0,
2026-04-12 18:35:00,METAR KBGE 121835Z AUTO 14005KT CLR 29/09 A3028 RMK AO2 PWINO T02910088,0,5,0,,0,0,0,
2026-04-12 18:15:00,METAR KBGE 121815Z AUTO 17007KT CLR 28/08 A3029 RMK AO2 PWINO T02830084,0,7,0,,0,0,0,
2026-04-12 17:55:00,METAR KBGE 121755Z AUTO 13010KT CLR 29/08 A3030 RMK AO2 PWINO T02870084 10287 20147,0,10,0,,0,0,0,
2026-04-12 17:35:00,METAR KBGE 121735Z AUTO 14006KT CLR 28/10 A3031 RMK AO2 PWINO T02780104,0,6,0,,0,0,0,
2026-04-12 17:15:00,METAR KBGE 121715Z AUTO 18007KT 160V220 CLR 28/11 A3032 RMK AO2 PWINO T02780113,0,7,0,,0,0,0,
2026-04-12 16:55:00,METAR KBGE 121655Z AUTO 09006KT CLR 27/11 A3032 RMK AO2 PWINO T02700113,0,6,0,,0,0,0,
2026-04-12 16:35:00,METAR KBGE 121635Z AUTO 18004KT CLR 26/13 A3033 RMK AO2 PWINO T02610126,0,4,0,,0,0,0,
2026-04-12 16:15:00,METAR KBGE 121615Z AUTO 13004KT CLR 26/13 A3033 RMK AO2 PWINO T02620126,0,4,0,,0,0,0,
2026-04-12 15:55:00,METAR KBGE 121555Z AUTO 13007KT CLR 26/15 A3034 RMK AO2 PWINO T02560145,0,7,0,,0,0,0,
2026-04-12 14:55:00,METAR KBGE 121455Z AUTO 16007KT CLR 24/16 A3034 RMK AO2 PWINO T02360156,0,7,0,,0,0,0,
2026-04-12 14:35:00,METAR KBGE 121435Z AUTO 17007KT CLR 23/16 A3034 RMK AO2 PWINO T02320155,0,7,0,,0,0,0,
2026-04-12 14:15:00,METAR KBGE 121415Z AUTO 17009KT CLR 23/16 A3034 RMK AO2 PWINO T02260162,0,9,0,,0,0,0,
2026-04-12 13:55:00,METAR KBGE 121355Z AUTO 15008KT CLR 21/16 A3033 RMK AO2 PWINO T02150163,0,8,0,,0,0,0,
2026-04-12 13:35:00,METAR KBGE 121335Z AUTO 16010KT CLR 20/16 A3032 RMK AO2 PWINO T02050164,0,10,0,,0,0,0,
2026-04-12 13:15:00,METAR KBGE 121315Z AUTO 16007KT CLR 19/17 A3032 RMK AO2 PWINO T01950165,0,7,0,,0,0,0,
2026-04-12 12:55:00,METAR KBGE 121255Z AUTO 15004KT 18/16 A3032 RMK AO2 PWINO T01810163,0,4,0,,0,0,0,
2026-04-12 12:35:00,METAR KBGE 121235Z AUTO 15004KT 17/16 A3031 RMK AO2 PWINO T01710160,0,4,0,,0,0,0,
2026-04-12 12:15:00,METAR KBGE 121215Z AUTO 14005KT 16/16 A3030 RMK AO2 PWINO T01590157,0,5,0,,0,0,0,
2026-04-12 11:55:00,METAR KBGE 121155Z AUTO 15004KT 15/ A3030 RMK AO2 PWINO T0145//// 10162 20123,0,4,0,,0,0,0,
2026-04-12 11:35:00,METAR KBGE 121135Z AUTO 16005KT 14/14 A3029 RMK AO2 PWINO T0138////,0,5,0,,0,0,0,
2026-04-12 11:15:00,METAR KBGE 121115Z AUTO 15005KT 13/ A3028 RMK AO2 PWINO T0135////,0,5,0,,0,0,0,
2026-04-12 10:55:00,METAR KBGE 121055Z AUTO 13005KT 13/13 A3028 RMK AO2 PWINO T01330129,0,5,0,,0,0,0,
2026-04-12 10:35:00,METAR KBGE 121035Z AUTO 00000KT 13/ A3027 RMK AO2 PWINO T0131////,0,0,0,,0,0,0,
2026-04-12 10:15:00,METAR KBGE 121015Z AUTO 15003KT 13/ A3027 RMK AO2 PWINO T0132////,0,3,0,,0,0,0,
2026-04-12 09:55:00,METAR KBGE 120955Z AUTO 00000KT 14/14 A3027 RMK AO2 PWINO T01370136,0,0,0,,0,0,0,
2026-04-12 09:35:00,METAR KBGE 120935Z AUTO 13004KT 13/ A3026 RMK AO2 PWINO T0133////,0,4,0,,0,0,0,
2026-04-12 09:15:00,METAR KBGE 120915Z AUTO 12004KT 14/13 A3026 RMK AO2 PWINO T0136////,0,4,0,,0,0,0,
2026-04-12 08:55:00,METAR KBGE 120855Z AUTO 13005KT 14/ A3025 RMK AO2 PWINO T0137////,0,5,0,,0,0,0,
2026-04-12 08:35:00,METAR KBGE 120835Z AUTO 13004KT 14/ A3025 RMK AO2 PWINO T0136////,0,4,0,,0,0,0,
2026-04-12 08:15:00,METAR KBGE 120815Z AUTO 15004KT 14/ A3025 RMK AO2 PWINO T0136////,0,4,0,,0,0,0,
2026-04-12 07:55:00,METAR KBGE 120755Z AUTO 14004KT 14/14 A3025 RMK AO2 PWINO T0139////,0,4,0,,0,0,0,
2026-04-12 07:35:00,METAR KBGE 120735Z AUTO 00000KT 15/14 A3025 RMK AO2 PWINO T01470145,0,0,0,,0,0,0,
2026-04-12 07:15:00,METAR KBGE 120715Z AUTO 00000KT 14/14 A3025 RMK AO2 PWINO T01430142,0,0,0,,0,0,0,
2026-04-12 06:55:00,METAR KBGE 120655Z AUTO 15003KT 15/14 A3026 RMK AO2 PWINO T01530143,0,3,0,,0,0,0,
2026-04-12 06:35:00,METAR KBGE 120635Z AUTO 11004KT 16/14 A3026 RMK AO2 PWINO T01570141,0,4,0,,0,0,0,
2026-04-12 06:15:00,METAR KBGE 120615Z AUTO 00000KT 16/14 A3026 RMK AO2 PWINO T01600140,0,0,0,,0,0,0,
2026-04-12 05:55:00,METAR KBGE 120555Z AUTO 13005KT 15/14 A3025 RMK AO2 PWINO T01510139 10266 20147,0,5,0,,0,0,0,
2026-04-12 05:35:00,METAR KBGE 120535Z AUTO 24003KT CLR 17/13 A3025 RMK AO2 PWINO T01700135,0,3,0,,0,0,0,
2026-04-12 05:15:00,METAR KBGE 120515Z AUTO 26003KT CLR 17/13 A3025 RMK AO2 PWINO T01740134,0,3,0,,0,0,0,
2026-04-12 04:55:00,METAR KBGE 120455Z AUTO 00000KT CLR 18/13 A3026 RMK AO2 PWINO T01770135,0,0,0,,0,0,0,
2026-04-12 04:35:00,METAR KBGE 120435Z AUTO 25005KT CLR 18/14 A3026 RMK AO2 PWINO T01810136,0,5,0,,0,0,0,
2026-04-12 04:15:00,METAR KBGE 120415Z AUTO 26005KT CLR 19/14 A3026 RMK AO2 PWINO T01870136,0,5,0,,0,0,0,
2026-04-12 03:55:00,METAR KBGE 120355Z AUTO 26007KT CLR 19/14 A3026 RMK AO2 PWINO T01900139,0,7,0,,0,0,0,
2026-04-12 03:35:00,METAR KBGE 120335Z AUTO 25007KT CLR 19/14 A3026 RMK AO2 PWINO T01900140,0,7,0,,0,0,0,
2026-04-12 03:15:00,METAR KBGE 120315Z AUTO 23007KT CLR 19/14 A3027 RMK AO2 PWINO T01920139,0,7,0,,0,0,0,
2026-04-12 02:55:00,METAR KBGE 120255Z AUTO 23012KT CLR 19/14 A3026 RMK AO2 PWINO T01860135,0,12,0,,0,0,0,
2026-04-12 02:35:00,METAR KBGE 120235Z AUTO 00000KT CLR 20/11 A3025 RMK AO2 PWINO T02020113,0,0,0,,0,0,0,
2026-04-12 02:15:00,METAR KBGE 120215Z AUTO 00000KT CLR 20/11 A3026 RMK AO2 PWINO T01950114,0,0,0,,0,0,0,
2026-04-12 01:55:00,METAR KBGE 120155Z AUTO 00000KT CLR 20/13 A3025 RMK AO2 PWINO T02020130,0,0,0,,0,0,0,
2026-04-12 01:35:00,METAR KBGE 120135Z AUTO 00000KT CLR 21/11 A3024 RMK AO2 PWINO T02110108,0,0,0,,0,0,0,
2026-04-12 01:15:00,METAR KBGE 120115Z AUTO 00000KT CLR 22/13 A3024 RMK AO2 PWINO T02190125,0,0,0,,0,0,0,
2026-04-12 00:55:00,METAR KBGE 120055Z AUTO 00000KT CLR 22/13 A3023 RMK AO2 PWINO T02200132,0,0,0,,0,0,0,
2026-04-12 00:35:00,METAR KBGE 120035Z AUTO 00000KT CLR 24/11 A3023 RMK AO2 PWINO T02410110,0,0,0,,0,0,0,
2026-04-12 00:15:00,METAR KBGE 120015Z AUTO 02003KT CLR 26/09 A3022 RMK AO2 PWINO T02610089,0,3,0,,0,0,0,
2026-04-11 23:55:00,METAR KBGE 112355Z AUTO 03003KT CLR 26/09 A3022 RMK AO2 PWINO T02630092 10292 20261 402920121,0,3,0,,0,0,0,
2026-04-11 23:35:00,METAR KBGE 112335Z AUTO 03003KT CLR 27/09 A3022 RMK AO2 PWINO T02680091,0,3,0,,0,0,0,
2026-04-11 23:15:00,METAR KBGE 112315Z AUTO 00000KT CLR 28/09 A3022 RMK AO2 PWINO T02760086,0,0,0,,0,0,0,
2026-04-11 22:55:00,METAR KBGE 112255Z AUTO 08003KT CLR 28/10 A3022 RMK AO2 PWINO T02820095,0,3,0,,0,0,0,
2026-04-11 22:35:00,METAR KBGE 112235Z AUTO 00000KT CLR 28/09 A3022 RMK AO2 PWINO T02830087,0,0,0,,0,0,0,
2026-04-11 22:15:00,METAR KBGE 112215Z AUTO 03006KT CLR 28/10 A3022 RMK AO2 PWINO T02840095,0,6,0,,0,0,0,
2026-04-11 21:55:00,METAR KBGE 112155Z AUTO 33003KT CLR 28/09 A3022 RMK AO2 PWINO T02830091,0,3,0,,0,0,0,
2026-04-11 21:35:00,METAR KBGE 112135Z AUTO 35005KT CLR 29/10 A3022 RMK AO2 PWINO T02860098,0,5,0,,0,0,0,
2026-04-11 21:15:00,METAR KBGE 112115Z AUTO 00000KT CLR 29/10 A3022 RMK AO2 PWINO T02860098,0,0,0,,0,0,0,
2026-04-11 20:55:00,METAR KBGE 112055Z AUTO 36007KT CLR 29/10 A3022 RMK AO2 PWINO T02860103,0,7,0,,0,0,0,
2026-04-11 20:35:00,METAR KBGE 112035Z AUTO 06006KT CLR 28/10 A3022 RMK AO2 PWINO T02830099,0,6,0,,0,0,0,
2026-04-11 20:15:00,METAR KBGE 112015Z AUTO 30005KT CLR 28/10 A3023 RMK AO2 PWINO T02810100,0,5,0,,0,0,0,
2026-04-11 19:55:00,METAR KBGE 111955Z AUTO 05004KT CLR 28/10 A3023 RMK AO2 PWINO T02810103,0,4,0,,0,0,0,
2026-04-11 19:35:00,METAR KBGE 111935Z AUTO 07009KT 020V080 CLR 28/10 A3024 RMK AO2 PWINO T02800101,0,9,0,,0,0,0,
2026-04-11 19:15:00,METAR KBGE 111915Z AUTO 05008KT CLR 28/11 A3025 RMK AO2 PWINO T02840106,0,8,0,,0,0,0,
2026-04-11 18:55:00,METAR KBGE 111855Z AUTO 12008KT CLR 28/10 A3025 RMK AO2 PWINO T02810103,0,8,0,,0,0,0,
2026-04-11 18:35:00,METAR KBGE 111835Z AUTO 21003KT CLR 28/10 A3026 RMK AO2 PWINO T02780100,0,3,0,,0,0,0,
2026-04-11 18:15:00,METAR KBGE 111815Z AUTO 09008KT CLR 28/10 A3027 RMK AO2 PWINO T02780101,0,8,0,,0,0,0,
2026-04-11 17:55:00,METAR KBGE 111755Z AUTO 04008KT CLR 27/11 A3028 RMK AO2 PWINO T02680110 10276 20134,0,8,0,,0,0,0,
2026-04-11 17:35:00,METAR KBGE 111735Z AUTO 35003KT CLR 27/11 A3028 RMK AO2 PWINO T02660106,0,3,0,,0,0,0,
2026-04-11 17:15:00,METAR KBGE 111715Z AUTO 05007KT 010V100 CLR 26/11 A3029 RMK AO2 PWINO T02640107,0,7,0,,0,0,0,
2026-04-11 16:55:00,METAR KBGE 111655Z AUTO 05004KT CLR 26/10 A3030 RMK AO2 PWINO T02610099,0,4,0,,0,0,0,
2026-04-11 16:35:00,METAR KBGE 111635Z AUTO 13006KT CLR 26/11 A3031 RMK AO2 PWINO T02600115,0,6,0,,0,0,0,
2026-04-11 16:15:00,METAR KBGE 111615Z AUTO 15003KT CLR 26/11 A3032 RMK AO2 PWINO T02580112,0,3,0,,0,0,0,
2026-04-11 15:55:00,METAR KBGE 111555Z AUTO 08004KT CLR 26/12 A3033 RMK AO2 PWINO T02590122,0,4,0,,0,0,0,
2026-04-11 15:35:00,METAR KBGE 111535Z AUTO 09003KT CLR 25/13 A3033 RMK AO2 PWINO T02520134,0,3,0,,0,0,0,
2026-04-11 15:15:00,METAR KBGE 111515Z AUTO 00000KT CLR 24/14 A3033 RMK AO2 PWINO T02430138,0,0,0,,0,0,0,
2026-04-11 14:55:00,METAR KBGE 111455Z AUTO 13004KT CLR 23/14 A3033 RMK AO2 PWINO T02330145,0,4,0,,0,0,0,
2026-04-11 14:35:00,METAR KBGE 111435Z AUTO 21003KT CLR 22/15 A3033 RMK AO2 PWINO T02230153,0,3,0,,0,0,0,
2026-04-11 14:15:00,METAR KBGE 111415Z AUTO 15003KT CLR 22/16 A3032 RMK AO2 PWINO T02160155,0,3,0,,0,0,0,
2026-04-11 13:55:00,METAR KBGE 111355Z AUTO 15003KT CLR 21/15 A3032 RMK AO2 PWINO T02070152,0,3,0,,0,0,0,
2026-04-11 13:35:00,METAR KBGE 111335Z AUTO 11003KT CLR 20/15 A3032 RMK AO2 PWINO T01960148,0,3,0,,0,0,0,
2026-04-11 13:15:00,METAR KBGE 111315Z AUTO 09003KT CLR 18/15 A3033 RMK AO2 PWINO T01810149,0,3,0,,0,0,0,
2026-04-11 12:55:00,METAR KBGE 111255Z AUTO 10003KT 17/15 A3033 RMK AO2 PWINO T01680148,0,3,0,,0,0,0,
2026-04-11 12:35:00,METAR KBGE 111235Z AUTO 07003KT 16/14 A3032 RMK AO2 PWINO T01600145,0,3,0,,0,0,0,
2026-04-11 12:15:00,METAR KBGE 111215Z AUTO 00000KT 14/14 A3032 RMK AO2 PWINO T01440139,0,0,0,,0,0,0,
2026-04-11 11:55:00,METAR KBGE 111155Z AUTO 00000KT 13/13 A3031 RMK AO2 PWINO T0132//// 10159 20121,0,0,0,,0,0,0,
2026-04-11 11:35:00,METAR KBGE 111135Z AUTO 00000KT 12/ A3030 RMK AO2 PWINO T0124////,0,0,0,,0,0,0,
2026-04-11 11:15:00,METAR KBGE 111115Z AUTO 00000KT 12/ A3029 RMK AO2 PWINO T0124////,0,0,0,,0,0,0,
2026-04-11 10:55:00,METAR KBGE 111055Z AUTO 00000KT 12/ A3028 RMK AO2 PWINO T0122////,0,0,0,,0,0,0,
2026-04-11 10:35:00,METAR KBGE 111035Z AUTO 10003KT 12/ A3028 RMK AO2 PWINO T0123////,0,3,0,,0,0,0,
2026-04-11 10:15:00,METAR KBGE 111015Z AUTO 00000KT 13/ A3027 RMK AO2 PWINO T0126////,0,0,0,,0,0,0,
2026-04-11 09:55:00,METAR KBGE 110955Z AUTO 09003KT 13/13 A3027 RMK AO2 PWINO T0129////,0,3,0,,0,0,0,
2026-04-11 09:35:00,METAR KBGE 110935Z AUTO 09004KT 13/13 A3026 RMK AO2 PWINO T01320131,0,4,0,,0,0,0,
2026-04-11 09:15:00,METAR KBGE 110915Z AUTO 08004KT 13/13 A3026 RMK AO2 PWINO T01300128,0,4,0,,0,0,0,
2026-04-11 08:55:00,METAR KBGE 110855Z AUTO 10003KT 13/13 A3025 RMK AO2 PWINO T01330129,0,3,0,,0,0,0,
2026-04-11 08:35:00,METAR KBGE 110835Z AUTO 09003KT 14/13 A3025 RMK AO2 PWINO T01370128,0,3,0,,0,0,0,
2026-04-11 08:15:00,METAR KBGE 110815Z AUTO 00000KT 13/13 A3025 RMK AO2 PWINO T01310125,0,0,0,,0,0,0,
2026-04-11 07:55:00,METAR KBGE 110755Z AUTO 08004KT 14/13 A3026 RMK AO2 PWINO T01390128,0,4,0,,0,0,0,
2026-04-11 07:35:00,METAR KBGE 110735Z AUTO 08004KT 14/13 A3026 RMK AO2 PWINO T01410127,0,4,0,,0,0,0,
2026-04-11 07:15:00,METAR KBGE 110715Z AUTO 09003KT 14/13 A3026 RMK AO2 PWINO T01440127,0,3,0,,0,0,0,
2026-04-11 06:55:00,METAR KBGE 110655Z AUTO 08004KT 14/13 A3026 RMK AO2 PWINO T01440127,0,4,0,,0,0,0,
2026-04-11 06:35:00,METAR KBGE 110635Z AUTO 07005KT 15/13 A3026 RMK AO2 PWINO T01490126,0,5,0,,0,0,0,
2026-04-11 06:15:00,METAR KBGE 110615Z AUTO 09003KT 15/13 A3027 RMK AO2 PWINO T01520127,0,3,0,,0,0,0,
2026-04-11 05:55:00,METAR KBGE 110555Z AUTO 11003KT CLR 16/13 A3027 RMK AO2 PWINO T01600126 10239 20152,0,3,0,,0,0,0,
2026-04-11 05:35:00,METAR KBGE 110535Z AUTO 10003KT CLR 16/13 A3027 RMK AO2 PWINO T01570125,0,3,0,,0,0,0,
2026-04-11 05:15:00,METAR KBGE 110515Z AUTO 10004KT CLR 15/13 A3028 RMK AO2 PWINO T01530125,0,4,0,,0,0,0,
2026-04-11 04:55:00,METAR KBGE 110455Z AUTO 09006KT SCT070 16/13 A3028 RMK AO2 PWINO T01580126,0,6,0,,0,0,0,
2026-04-11 04:35:00,METAR KBGE 110435Z AUTO 04004KT CLR 18/12 A3027 RMK AO2 PWINO T01800119,0,4,0,,0,0,0,
2026-04-11 04:15:00,METAR KBGE 110415Z AUTO 00000KT SCT075 18/12 A3027 RMK AO2 PWINO T01760124,0,0,0,,0,0,0,
2026-04-11 03:55:00,METAR KBGE 110355Z AUTO 36004KT BKN075 17/13 A3028 RMK AO2 PWINO T01740133,0,4,0,,0,0,0,
2026-04-11 03:35:00,METAR KBGE 110335Z AUTO 33003KT SCT075 18/12 A3028 RMK AO2 PWINO T01840121,0,3,0,,0,0,0,
2026-04-11 03:15:00,METAR KBGE 110315Z AUTO 00000KT CLR 18/13 A3028 RMK AO2 PWINO T01850128,0,0,0,,0,0,0,
2026-04-11 02:55:00,METAR KBGE 110255Z AUTO 00000KT CLR 19/12 A3027 RMK AO2 PWINO T01940124,0,0,0,,0,0,0,
2026-04-11 02:35:00,METAR KBGE 110235Z AUTO 00000KT CLR 19/12 A3027 RMK AO2 PWINO T01900124,0,0,0,,0,0,0,
2026-04-11 02:15:00,METAR KBGE 110215Z AUTO 01003KT CLR 19/12 A3026 RMK AO2 PWINO T01930119,0,3,0,,0,0,0,
2026-04-11 01:55:00,METAR KBGE 110155Z AUTO 02004KT CLR 21/12 A3026 RMK AO2 PWINO T02070118,0,4,0,,0,0,0,
2026-04-11 01:35:00,METAR KBGE 110135Z AUTO 03005KT CLR 21/12 A3025 RMK AO2 PWINO T02140115,0,5,0,,0,0,0,
2026-04-11 01:15:00,METAR KBGE 110115Z AUTO 02004KT SCT070 21/12 A3025 RMK AO2 PWINO T02060123,0,4,0,,0,0,0,
2026-04-11 00:55:00,METAR KBGE 110055Z AUTO 01004KT SCT070 22/11 A3024 RMK AO2 PWINO T02230115,0,4,0,,0,0,0,
2026-04-11 00:35:00,METAR KBGE 110035Z AUTO 01004KT SCT070 23/11 A3023 RMK AO2 PWINO T02350109,0,4,0,,0,0,0,
2026-04-11 00:15:00,METAR KBGE 110015Z AUTO 03004KT CLR 23/11 A3023 RMK AO2 PWINO T02340110,0,4,0,,0,0,0,
2026-04-10 23:55:00,METAR KBGE 102355Z AUTO 04005KT CLR 24/11 A3023 RMK AO2 PWINO T02410108 10275 20240 402750112,0,5,0,,0,0,0,
2026-04-10 23:35:00,METAR KBGE 102335Z AUTO 05004KT CLR 25/11 A3022 RMK AO2 PWINO T02510111,0,4,0,,0,0,0,
2026-04-10 23:15:00,METAR KBGE 102315Z AUTO 07005KT CLR 26/10 A3022 RMK AO2 PWINO T02590103,0,5,0,,0,0,0,
2026-04-10 22:55:00,METAR KBGE 102255Z AUTO 07007KT CLR 26/11 A3022 RMK AO2 PWINO T02630106,0,7,0,,0,0,0,
2026-04-10 22:35:00,METAR KBGE 102235Z AUTO 03005KT CLR 26/10 A3022 RMK AO2 PWINO T02630102,0,5,0,,0,0,0,
2026-04-10 22:15:00,METAR KBGE 102215Z AUTO 07007KT CLR 27/10 A3022 RMK AO2 PWINO T02680102,0,7,0,,0,0,0,
2026-04-10 21:55:00,METAR KBGE 102155Z AUTO 06003KT SCT070 26/10 A3022 RMK AO2 PWINO T02650103,0,3,0,,0,0,0,
2026-04-10 21:35:00,METAR KBGE 102135Z AUTO 08008KT BKN070 27/11 A3023 RMK AO2 PWINO T02700106,0,8,0,,0,0,0,
2026-04-10 21:15:00,METAR KBGE 102115Z AUTO 06007KT SCT070 27/11 A3023 RMK AO2 PWINO T02720110,0,7,0,,0,0,0,
2026-04-10 20:55:00,METAR KBGE 102055Z AUTO 05005KT SCT060 26/11 A3023 RMK AO2 PWINO T02650111,0,5,0,,0,0,0,
2026-04-10 20:35:00,METAR KBGE 102035Z AUTO 06009KT BKN060 26/11 A3024 RMK AO2 PWINO T02630111,0,9,0,,0,0,0,
2026-04-10 20:15:00,METAR KBGE 102015Z AUTO 06006KT SCT060 27/11 A3025 RMK AO2 PWINO T02670114,0,6,0,,0,0,0,
2026-04-10 19:55:00,METAR KBGE 101955Z AUTO 07007G14KT SCT060 25/11 A3025 RMK AO2 PWINO T02540112,0,7,1,,0,0,0,
2026-04-10 19:35:00,METAR KBGE 101935Z AUTO 02009KT SCT060 26/12 A3026 RMK AO2 PWINO T02600118,0,9,0,,0,0,0,
2026-04-10 19:15:00,METAR KBGE 101915Z AUTO 06009KT 010V070 CLR 26/12 A3027 RMK AO2 PWINO T02650120,0,9,0,,0,0,0,
2026-04-10 18:55:00,METAR KBGE 101855Z AUTO 10008KT 020V110 SCT050 26/12 A3028 RMK AO2 PWINO T02550118,0,8,0,,0,0,0,
2026-04-10 18:35:00,METAR KBGE 101835Z AUTO 07008KT SCT050 25/11 A3029 RMK AO2 PWINO T02460115,0,8,0,,0,0,0,
2026-04-10 18:15:00,METAR KBGE 101815Z AUTO 08007G15KT SCT048 25/12 A3030 RMK AO2 PWINO T02470119,0,7,1,,0,0,0,
2026-04-10 17:55:00,METAR KBGE 101755Z AUTO 06008KT SCT048 24/12 A3030 RMK AO2 PWINO T02420123 10254 20120,0,8,0,,0,0,0,
2026-04-10 17:35:00,METAR KBGE 101735Z AUTO 03009G16KT SCT048 24/13 A3031 RMK AO2 PWINO T02400128,0,9,1,,0,0,0,
2026-04-10 17:15:00,METAR KBGE 101715Z AUTO 11008KT SCT044 25/13 A3032 RMK AO2 PWINO T02490130,0,8,0,,0,0,0,
2026-04-10 16:55:00,METAR KBGE 101655Z AUTO 05009KT SCT042 24/13 A3033 RMK AO2 PWINO T02410133,0,9,0,,0,0,0,
2026-04-10 16:35:00,METAR KBGE 101635Z AUTO 07011KT CLR 23/13 A3034 RMK AO2 PWINO T02320130,0,11,0,,0,0,0,
2026-04-10 16:15:00,METAR KBGE 101615Z AUTO 08008KT 050V120 CLR 23/13 A3034 RMK AO2 PWINO T02320135,0,8,0,,0,0,0,
2026-04-10 15:55:00,METAR KBGE 101555Z AUTO 07010KT CLR 23/13 A3035 RMK AO2 PWINO T02310133,0,10,0,,0,0,0,
2026-04-10 15:35:00,METAR KBGE 101535Z AUTO 11009KT CLR 23/13 A3035 RMK AO2 PWINO T02290132,0,9,0,,0,0,0,
2026-04-10 15:15:00,METAR KBGE 101515Z AUTO 09012KT CLR 22/13 A3035 RMK AO2 PWINO T02220133,0,12,0,,0,0,0,
2026-04-10 14:55:00,METAR KBGE 101455Z AUTO 08013G18KT CLR 21/13 A3035 RMK AO2 PWINO T02120128,0,13,1,,0,0,0,
2026-04-10 14:35:00,METAR KBGE 101435Z AUTO 08011KT CLR 20/12 A3034 RMK AO2 PWINO T02020122,0,11,0,,0,0,0,
2026-04-10 14:15:00,METAR KBGE 101415Z AUTO 09010KT CLR 19/11 A3035 RMK AO2 PWINO T01900114,0,10,0,,0,0,0,
2026-04-10 13:55:00,METAR KBGE 101355Z AUTO 09009KT CLR 18/11 A3035 RMK AO2 PWINO T01840112,0,9,0,,0,0,0,
2026-04-10 13:35:00,METAR KBGE 101335Z AUTO 08009KT CLR 17/11 A3035 RMK AO2 PWINO T01750109,0,9,0,,0,0,0,
2026-04-10 13:15:00,METAR KBGE 101315Z AUTO 07010KT CLR 16/11 A3034 RMK AO2 PWINO T01620108,0,10,0,,0,0,0,
2026-04-10 12:55:00,METAR KBGE 101255Z AUTO 06008KT CLR 15/11 A3034 RMK AO2 PWINO T01480109,0,8,0,,0,0,0,
2026-04-10 12:35:00,METAR KBGE 101235Z AUTO 06007KT CLR 14/11 A3033 RMK AO2 PWINO T01380106,0,7,0,,0,0,0,
2026-04-10 12:15:00,METAR KBGE 101215Z AUTO 04004KT 13/11 A3033 RMK AO2 PWINO T01270107,0,4,0,,0,0,0,
2026-04-10 11:55:00,METAR KBGE 101155Z AUTO 04005KT 12/10 A3032 RMK AO2 PWINO T01180104 10141 20112,0,5,0,,0,0,0,
2026-04-10 11:35:00,METAR KBGE 101135Z AUTO 04005KT 11/10 A3032 RMK AO2 PWINO T01130101,0,5,0,,0,0,0,
2026-04-10 11:15:00,METAR KBGE 101115Z AUTO 04005KT 11/10 A3031 RMK AO2 PWINO T01130099,0,5,0,,0,0,0,
2026-04-10 10:55:00,METAR KBGE 101055Z AUTO 03004KT 12/10 A3030 RMK AO2 PWINO T01160100,0,4,0,,0,0,0,
2026-04-10 10:35:00,METAR KBGE 101035Z AUTO 06004KT 11/10 A3030 RMK AO2 PWINO T01140097,0,4,0,,0,0,0,
2026-04-10 10:15:00,METAR KBGE 101015Z AUTO 06005KT 12/10 A3029 RMK AO2 PWINO T01200100,0,5,0,,0,0,0,
2026-04-10 09:55:00,METAR KBGE 100955Z AUTO 05005KT CLR 12/10 A3028 RMK AO2 PWINO T01230097,0,5,0,,0,0,0,
2026-04-10 09:35:00,METAR KBGE 100935Z AUTO 06005KT CLR 12/10 A3028 RMK AO2 PWINO T01220097,0,5,0,,0,0,0,
2026-04-10 09:15:00,METAR KBGE 100915Z AUTO 06005KT 12/10 A3027 RMK AO2 PWINO T01200099,0,5,0,,0,0,0,
2026-04-10 08:55:00,METAR KBGE 100855Z AUTO 07005KT 12/10 A3027 RMK AO2 PWINO T01170099,0,5,0,,0,0,0,
2026-04-10 08:35:00,METAR KBGE 100835Z AUTO 07007KT 12/10 A3027 RMK AO2 PWINO T01220098,0,7,0,,0,0,0,
2026-04-10 08:15:00,METAR KBGE 100815Z AUTO 09006KT CLR 13/10 A3027 RMK AO2 PWINO T01260096,0,6,0,,0,0,0,
2026-04-10 07:55:00,METAR KBGE 100755Z AUTO 09006KT 12/10 A3027 RMK AO2 PWINO T01230099,0,6,0,,0,0,0,
2026-04-10 07:35:00,METAR KBGE 100735Z AUTO 08006KT CLR 13/10 A3027 RMK AO2 PWINO T01290096,0,6,0,,0,0,0,
2026-04-10 07:15:00,METAR KBGE 100715Z AUTO 08006KT CLR 13/10 A3027 RMK AO2 PWINO T01290100,0,6,0,,0,0,0,
2026-04-10 06:55:00,METAR KBGE 100655Z AUTO 09005KT CLR 13/10 A3028 RMK AO2 PWINO T01280098,0,5,0,,0,0,0,
2026-04-10 06:35:00,METAR KBGE 100635Z AUTO 10005KT CLR 13/10 A3028 RMK AO2 PWINO T01290097,0,5,0,,0,0,0,
2026-04-10 06:15:00,METAR KBGE 100615Z AUTO 09007KT CLR 13/10 A3029 RMK AO2 PWINO T01310102,0,7,0,,0,0,0,
2026-04-10 05:55:00,METAR KBGE 100555Z AUTO 10004KT CLR 14/10 A3029 RMK AO2 PWINO T01400096 10215 20139,0,4,0,,0,0,0,
2026-04-10 05:35:00,METAR KBGE 100535Z AUTO 11004KT CLR 14/10 A3029 RMK AO2 PWINO T01430100,0,4,0,,0,0,0,
2026-04-10 05:15:00,METAR KBGE 100515Z AUTO 10005KT CLR 15/11 A3029 RMK AO2 PWINO T01460105,0,5,0,,0,0,0,
2026-04-10 04:55:00,METAR KBGE 100455Z AUTO 10006KT CLR 15/10 A3029 RMK AO2 PWINO T01520104,0,6,0,,0,0,0,
2026-04-10 04:35:00,METAR KBGE 100435Z AUTO 11007KT CLR 16/11 A3029 RMK AO2 PWINO T01610109,0,7,0,,0,0,0,
2026-04-10 04:15:00,METAR KBGE 100415Z AUTO 11005KT CLR 16/11 A3029 RMK AO2 PWINO T01570109,0,5,0,,0,0,0,
2026-04-10 03:55:00,METAR KBGE 100355Z AUTO 11006KT CLR 17/11 A3029 RMK AO2 PWINO T01660110,0,6,0,,0,0,0,
2026-04-10 03:35:00,METAR KBGE 100335Z AUTO 12007KT CLR 17/11 A3029 RMK AO2 PWINO T01720109,0,7,0,,0,0,0,
2026-04-10 03:15:00,METAR KBGE 100315Z AUTO 09008KT CLR 15/11 A3028 RMK AO2 PWINO T01530106,0,8,0,,0,0,0,
2026-04-10 02:55:00,METAR KBGE 100255Z AUTO 09007KT CLR 16/11 A3028 RMK AO2 PWINO T01560107,0,7,0,,0,0,0,
2026-04-10 02:35:00,METAR KBGE 100235Z AUTO 08008KT CLR 16/11 A3028 RMK AO2 PWINO T01620107,0,8,0,,0,0,0,
2026-04-10 02:15:00,METAR KBGE 100215Z AUTO 07006KT CLR 17/10 A3028 RMK AO2 PWINO T01740105,0,6,0,,0,0,0,
2026-04-10 01:55:00,METAR KBGE 100155Z AUTO 08006KT CLR 18/10 A3027 RMK AO2 PWINO T01760101,0,6,0,,0,0,0,
2026-04-10 01:35:00,METAR KBGE 100135Z AUTO 08005KT CLR 18/10 A3027 RMK AO2 PWINO T01830102,0,5,0,,0,0,0,
2026-04-10 01:15:00,METAR KBGE 100115Z AUTO 07005KT CLR 18/10 A3026 RMK AO2 PWINO T01840102,0,5,0,,0,0,0,
2026-04-10 00:55:00,METAR KBGE 100055Z AUTO 07007KT CLR 19/10 A3026 RMK AO2 PWINO T01860100,0,7,0,,0,0,0,
2026-04-10 00:35:00,METAR KBGE 100035Z AUTO 07008KT CLR 20/10 A3025 RMK AO2 PWINO T02010100,0,8,0,,0,0,0,
2026-04-10 00:15:00,METAR KBGE 100015Z AUTO 07006KT CLR 20/10 A3025 RMK AO2 PWINO T02020100,0,6,0,,0,0,0,
2026-04-09 23:55:00,METAR KBGE 092355Z AUTO 08008KT CLR 22/09 A3025 RMK AO2 PWINO T02200095 10263 20217 402630131,0,8,0,,0,0,0,
2026-04-09 23:35:00,METAR KBGE 092335Z AUTO 07008KT CLR 23/10 A3025 RMK AO2 PWINO T02310096,0,8,0,,0,0,0,
2026-04-09 23:15:00,METAR KBGE 092315Z AUTO 08012KT SCT065 24/09 A3024 RMK AO2 PWINO T02380092,0,12,0,,0,0,0,
2026-04-09 22:55:00,METAR KBGE 092255Z AUTO 07011KT SCT065 24/09 A3024 RMK AO2 PWINO T02440089,0,11,0,,0,0,0,
2026-04-09 22:35:00,METAR KBGE 092235Z AUTO 09011KT SCT065 25/09 A3025 RMK AO2 PWINO T02460088,0,11,0,,0,0,0,
2026-04-09 22:15:00,METAR KBGE 092215Z AUTO 09011KT SCT065 24/09 A3025 RMK AO2 PWINO T02390091,0,11,0,,0,0,0,
2026-04-09 21:55:00,METAR KBGE 092155Z AUTO 08012KT SCT060 25/09 A3024 RMK AO2 PWINO T02490092,0,12,0,,0,0,0,
2026-04-09 21:35:00,METAR KBGE 092135Z AUTO 09014G21KT SCT060 24/09 A3024 RMK AO2 PWINO T02440091,0,14,1,,0,0,0,
2026-04-09 21:15:00,METAR KBGE 092115Z AUTO 07014G28KT SCT060 26/09 A3024 RMK AO2 PWINO T02560092,0,14,1,,0,0,0,
2026-04-09 20:55:00,METAR KBGE 092055Z AUTO 07018G21KT SCT065 26/10 A3025 RMK AO2 PWINO T02570095,0,18,1,,0,0,0,
2026-04-09 20:35:00,METAR KBGE 092035Z AUTO 07018KT SCT065 26/09 A3025 RMK AO2 PWINO T02560094,0,18,0,,0,0,0,
2026-04-09 20:15:00,METAR KBGE 092015Z AUTO 08014G21KT SCT065 26/09 A3025 RMK AO2 PWINO T02570089,0,14,1,,0,0,0,
2026-04-09 19:55:00,METAR KBGE 091955Z AUTO 10013KT SCT055 25/09 A3025 RMK AO2 PWINO T02500089,0,13,0,,0,0,0,
2026-04-09 19:35:00,METAR KBGE 091935Z AUTO 08016G24KT SCT055 26/09 A3026 RMK AO2 PWINO T02550094,0,16,1,,0,0,0,
2026-04-09 19:15:00,METAR KBGE 091915Z AUTO 07015G21KT SCT055 26/10 A3027 RMK AO2 PWINO T02600096,0,15,1,,0,0,0,
2026-04-09 18:55:00,METAR KBGE 091855Z AUTO 07017G23KT CLR 25/10 A3027 RMK AO2 PWINO T02500105,0,17,1,,0,0,0,
2026-04-09 18:35:00,METAR KBGE 091835Z AUTO 06017G22KT SCT049 24/11 A3027 RMK AO2 PWINO T02450108,0,17,1,,0,0,0,
2026-04-09 18:15:00,METAR KBGE 091815Z AUTO 06014G19KT SCT049 24/11 A3028 RMK AO2 PWINO T02420111,0,14,1,,0,0,0,
2026-04-09 17:55:00,METAR KBGE 091755Z AUTO 07018G23KT CLR 24/11 A3029 RMK AO2 PWINO T02410111 10243 20133,0,18,1,,0,0,0,
2026-04-09 17:35:00,METAR KBGE 091735Z AUTO 07018G22KT CLR 23/11 A3030 RMK AO2 PWINO T02340113,0,18,1,,0,0,0,
2026-04-09 17:15:00,METAR KBGE 091715Z AUTO 06012G17KT CLR 23/12 A3031 RMK AO2 PWINO T02300117,0,12,1,,0,0,0,
2026-04-09 16:55:00,METAR KBGE 091655Z AUTO 06014G19KT CLR 22/11 A3032 RMK AO2 PWINO T02230115,0,14,1,,0,0,0,
2026-04-09 16:35:00,METAR KBGE 091635Z AUTO 05016G20KT CLR 22/11 A3032 RMK AO2 PWINO T02160112,0,16,1,,0,0,0,
2026-04-09 16:15:00,METAR KBGE 091615Z AUTO 05009KT CLR 20/10 A3033 RMK AO2 PWINO T02010103,0,9,0,,0,0,0,
2026-04-09 15:55:00,METAR KBGE 091555Z AUTO 06012KT CLR 20/10 A3034 RMK AO2 PWINO T01990101,0,12,0,,0,0,0,
2026-04-09 15:35:00,METAR KBGE 091535Z AUTO 07012KT CLR 19/10 A3034 RMK AO2 PWINO T01880095,0,12,0,,0,0,0,
2026-04-09 15:15:00,METAR KBGE 091515Z AUTO 07013KT CLR 19/10 A3035 RMK AO2 PWINO T01910097,0,13,0,,0,0,0,
2026-04-09 14:55:00,METAR KBGE 091455Z AUTO 07015G19KT CLR 19/09 A3034 RMK AO2 PWINO T01890093,0,15,1,,0,0,0,
2026-04-09 14:35:00,METAR KBGE 091435Z AUTO 08015KT CLR 18/09 A3034 RMK AO2 PWINO T01790085,0,15,0,,0,0,0,
2026-04-09 14:15:00,METAR KBGE 091415Z AUTO 08013G20KT CLR 17/08 A3034 RMK AO2 PWINO T01740082,0,13,1,,0,0,0,
2026-04-09 13:55:00,METAR KBGE 091355Z AUTO 07013KT CLR 17/08 A3034 RMK AO2 PWINO T01680077,0,13,0,,0,0,0,
2026-04-09 13:35:00,METAR KBGE 091335Z AUTO 07014G22KT CLR 16/07 A3033 RMK AO2 PWINO T01600071,0,14,1,,0,0,0,
2026-04-09 13:15:00,METAR KBGE 091315Z AUTO 07015KT CLR 15/06 A3033 RMK AO2 PWINO T01530064,0,15,0,,0,0,0,
2026-04-09 12:55:00,METAR KBGE 091255Z AUTO 07016KT CLR 15/06 A3033 RMK AO2 PWINO T01480056,0,16,0,,0,0,0,
2026-04-09 12:35:00,METAR KBGE 091235Z AUTO 07011KT CLR 14/05 A3032 RMK AO2 PWINO T01430053,0,11,0,,0,0,0,
2026-04-09 12:15:00,METAR KBGE 091215Z AUTO 07009KT CLR 14/05 A3032 RMK AO2 PWINO T01370047,0,9,0,,0,0,0,
2026-04-09 11:55:00,METAR KBGE 091155Z AUTO 06013KT SCT110 13/04 A3031 RMK AO2 PWINO T01320041 10150 20131,0,13,0,,0,0,0,
2026-04-09 11:35:00,METAR KBGE 091135Z AUTO 07013KT SCT120 13/04 A3030 RMK AO2 PWINO T01320036,0,13,0,,0,0,0,
2026-04-09 11:15:00,METAR KBGE 091115Z AUTO 06010KT SCT120 13/03 A3029 RMK AO2 PWINO T01330035,0,10,0,,0,0,0,
2026-04-09 10:55:00,METAR KBGE 091055Z AUTO 07014G19KT CLR 14/03 A3028 RMK AO2 PWINO T01360031,0,14,1,,0,0,0,
2026-04-09 10:35:00,METAR KBGE 091035Z AUTO 07013KT CLR 14/03 A3028 RMK AO2 PWINO T01370030,0,13,0,,0,0,0,
2026-04-09 10:15:00,METAR KBGE 091015Z AUTO 07013KT SCT110 14/04 A3028 RMK AO2 PWINO T01360037,0,13,0,,0,0,0,
2026-04-09 09:55:00,METAR KBGE 090955Z AUTO 07013KT OVC110 14/04 A3027 RMK AO2 PWINO T01370044,0,13,0,,0,0,0,
2026-04-09 09:35:00,METAR KBGE 090935Z AUTO 07010KT OVC110 13/05 A3027 RMK AO2 PWINO T01340055,0,10,0,,0,0,0,
2026-04-09 09:15:00,METAR KBGE 090915Z AUTO 07011KT OVC100 14/05 A3027 RMK AO2 PWINO T01370053,0,11,0,,0,0,0,
2026-04-09 08:55:00,METAR KBGE 090855Z AUTO 07012KT OVC100 13/06 A3027 RMK AO2 PWINO T01340060,0,12,0,,0,0,0,
2026-04-09 08:35:00,METAR KBGE 090835Z AUTO 07010KT BKN100 OVC120 14/06 A3027 RMK AO2 PWINO T01360062,0,10,0,,0,0,0,
2026-04-09 08:15:00,METAR KBGE 090815Z AUTO 07012G18KT SCT080 OVC120 14/06 A3027 RMK AO2 PWINO T01390059,0,12,1,,0,0,0,
2026-04-09 07:55:00,METAR KBGE 090755Z AUTO 07011KT SCT090 OVC110 14/06 A3027 RMK AO2 PWINO T01400062,0,11,0,,0,0,0,
2026-04-09 07:35:00,METAR KBGE 090735Z AUTO 06011KT OVC110 14/06 A3027 RMK AO2 PWINO T01420064,0,11,0,,0,0,0,
2026-04-09 07:15:00,METAR KBGE 090715Z AUTO 07010KT OVC100 14/07 A3028 RMK AO2 PWINO T01440066,0,10,0,,0,0,0,
2026-04-09 06:55:00,METAR KBGE 090655Z AUTO 06010KT OVC100 14/07 A3028 RMK AO2 PWINO T01440070,0,10,0,,0,0,0,
2026-04-09 06:35:00,METAR KBGE 090635Z AUTO 07012KT OVC110 14/07 A3029 RMK AO2 PWINO T01420074,0,12,0,,0,0,0,
2026-04-09 06:15:00,METAR KBGE 090615Z AUTO 08011KT OVC100 14/07 A3029 RMK AO2 PWINO T01450068,0,11,0,,0,0,0,
2026-04-09 05:55:00,METAR KBGE 090555Z AUTO 08011KT OVC100 15/06 A3029 RMK AO2 PWINO T01480060 10206 20147,0,11,0,,0,0,0,
2026-04-09 05:35:00,METAR KBGE 090535Z AUTO 08013KT SCT050 BKN110 16/02 A3029 RMK AO2 PWINO T01640018,0,13,0,,0,0,0,
2026-04-09 05:15:00,METAR KBGE 090515Z AUTO 09012KT BKN050 BKN110 17/M02 A3030 RMK AO2 PWINO T01651019,0,12,0,,0,0,0,
2026-04-09 04:55:00,METAR KBGE 090455Z AUTO 09012KT BKN050 17/M03 A3030 RMK AO2 PWINO T01701031,0,12,0,,0,0,0,
2026-04-09 04:35:00,METAR KBGE 090435Z AUTO 10009G18KT SCT050 17/M03 A3031 RMK AO2 PWINO,0,9,1,,0,0,0,
2026-04-09 04:15:00,METAR KBGE 090415Z AUTO 10008KT CLR 17/M02 A3030 RMK AO2 PWINO T01681023,0,8,0,,0,0,0,
2026-04-09 03:55:00,METAR KBGE 090355Z AUTO 10010KT CLR 17/M02 A3029 RMK AO2 PWINO T01741023,0,10,0,,0,0,0,
2026-04-09 03:35:00,METAR KBGE 090335Z AUTO 10014G18KT CLR 18/M01 A3028 RMK AO2 PWINO T01781006,0,14,1,,0,0,0,
2026-04-09 03:15:00,METAR KBGE 090315Z AUTO 08012KT CLR 18/04 A3028 RMK AO2 PWINO T01790041,0,12,0,,0,0,0,
2026-04-09 02:55:00,METAR KBGE 090255Z AUTO 07014KT CLR 19/04 A3028 RMK AO2 PWINO T01860042,0,14,0,,0,0,0,
2026-04-09 02:35:00,METAR KBGE 090235Z AUTO 08013G19KT BKN120 19/05 A3028 RMK AO2 PWINO T01890052,0,13,1,,0,0,0,
2026-04-09 02:20:00,METAR KBGE 090220Z AUTO 10011KT OVC120 19/06 A3027 RMK AO2 PWINO T01900059,0,11,0,,0,0,0,
2026-04-09 01:55:00,METAR KBGE 090155Z AUTO 09018G23KT OVC120 20/06 A3026 RMK AO2 PWINO T01950061,0,18,1,,0,0,0,
2026-04-09 01:35:00,METAR KBGE 090135Z AUTO 09016KT OVC120 20/07 A3025 RMK AO2 PWINO T01960072,0,16,0,,0,0,0,
2026-04-09 01:15:00,METAR KBGE 090115Z AUTO 06013KT OVC120 20/07 A3024 RMK AO2 PWINO T01960074,0,13,0,,0,0,0,
2026-04-09 00:55:00,METAR KBGE 090055Z AUTO 06011KT OVC120 20/06 A3023 RMK AO2 PWINO T01980065,0,11,0,,0,0,0,
2026-04-09 00:35:00,METAR KBGE 090035Z AUTO 06011KT SCT060 BKN120 20/06 A3023 RMK AO2 PWINO T01980062,0,11,0,,0,0,0,
2026-04-09 00:15:00,METAR KBGE 090015Z AUTO 06011KT BKN060 BKN120 20/06 A3023 RMK AO2 PWINO T02020059,0,11,0,,0,0,0,
2026-04-08 23:55:00,METAR KBGE 082355Z AUTO 07013KT SCT060 BKN120 21/06 A3022 RMK AO2 PWINO T02060056 10254 20206 402540105,0,13,0,,0,0,0,
2026-04-08 23:35:00,METAR KBGE 082335Z AUTO 07015KT BKN120 21/05 A3022 RMK AO2 PWINO T02100051,0,15,0,,0,0,0,
2026-04-08 23:15:00,METAR KBGE 082315Z AUTO 08019G24KT BKN120 22/06 A3021 RMK AO2 PWINO T02200059,0,19,1,,0,0,0,
2026-04-08 22:55:00,METAR KBGE 082255Z AUTO 06014G19KT BKN060 22/07 A3020 RMK AO2 PWINO T02210073,0,14,1,,0,0,0,
2026-04-08 22:35:00,METAR KBGE 082235Z AUTO 09014G26KT OVC060 23/07 A3020 RMK AO2 PWINO T02270074,0,14,1,,0,0,0,
2026-04-08 22:15:00,METAR KBGE 082215Z AUTO 06014G20KT BKN060 BKN080 23/06 A3020 RMK AO2 PWINO T02320064,0,14,1,,0,0,0,
2026-04-08 21:55:00,METAR KBGE 082155Z AUTO 07016G21KT BKN060 OVC080 23/07 A3020 RMK AO2 PWINO T02300069,0,16,1,,0,0,0,
2026-04-08 21:35:00,METAR KBGE 082135Z AUTO 08013G27KT SCT060 OVC080 23/07 A3020 RMK AO2 PWINO T02290073,0,13,1,,0,0,0,
2026-04-08 21:15:00,METAR KBGE 082115Z AUTO 08021G25KT OVC070 23/07 A3020 RMK AO2 PWINO T02330067,0,21,1,,0,0,0,
2026-04-08 20:55:00,METAR KBGE 082055Z AUTO 07019G24KT OVC060 23/07 A3020 RMK AO2 PWINO T02330071,0,19,1,,0,0,0,
2026-04-08 20:35:00,METAR KBGE 082035Z AUTO 07014KT BKN060 23/07 A3020 RMK AO2 PWINO T02330072,0,14,0,,0,0,0,
2026-04-08 20:15:00,METAR KBGE 082015Z AUTO 08018G23KT BKN060 BKN075 24/07 A3020 RMK AO2 PWINO T02390075,0,18,1,,0,0,0,
2026-04-08 19:55:00,METAR KBGE 081955Z AUTO 08021G27KT OVC060 23/07 A3021 RMK AO2 PWINO T02320069,0,21,1,,0,0,0,
2026-04-08 19:35:00,METAR KBGE 081935Z AUTO 09020G24KT OVC060 23/07 A3021 RMK AO2 PWINO T02290075,0,20,1,,0,0,0,
2026-04-08 19:15:00,METAR KBGE 081915Z AUTO 07017G22KT OVC060 23/07 A3021 RMK AO2 PWINO T02270072,0,17,1,,0,0,0,
2026-04-08 18:55:00,METAR KBGE 081855Z AUTO 07017G23KT BKN060 24/08 A3021 RMK AO2 PWINO T02430080,0,17,1,,0,0,0,
2026-04-08 18:35:00,METAR KBGE 081835Z AUTO 08022G27KT CLR 25/09 A3021 RMK AO2 PWINO T02520088,0,22,1,,0,0,0,
2026-04-08 18:15:00,METAR KBGE 081815Z AUTO 07021G24KT CLR 24/09 A3021 RMK AO2 PWINO T02400085,0,21,1,,0,0,0,
2026-04-08 17:55:00,METAR KBGE 081755Z AUTO 08020G24KT CLR 23/09 A3021 RMK AO2 PWINO T02320087 10239 20112,0,20,1,,0,0,0,
2026-04-08 17:35:00,METAR KBGE 081735Z AUTO 08019G27KT CLR 23/09 A3022 RMK AO2 PWINO T02340090,0,19,1,,0,0,0,
2026-04-08 17:15:00,METAR KBGE 081715Z AUTO 07019G26KT CLR 23/09 A3022 RMK AO2 PWINO T02320090,0,19,1,,0,0,0,
2026-04-08 16:55:00,METAR KBGE 081655Z AUTO 08018G24KT SCT050 23/09 A3023 RMK AO2 PWINO T02340089,0,18,1,,0,0,0,
2026-04-08 16:35:00,METAR KBGE 081635Z AUTO 07017G22KT BKN050 22/08 A3023 RMK AO2 PWINO T02220083,0,17,1,,0,0,0,
2026-04-08 16:15:00,METAR KBGE 081615Z AUTO 06017KT SCT050 23/08 A3024 RMK AO2 PWINO T02260078,0,17,0,,0,0,0,
2026-04-08 15:55:00,METAR KBGE 081555Z AUTO 07017G23KT CLR 22/08 A3024 RMK AO2 PWINO T02220076,0,17,1,,0,0,0,
2026-04-08 15:35:00,METAR KBGE 081535Z AUTO 06017G23KT CLR 22/07 A3024 RMK AO2 PWINO T02160072,0,17,1,,0,0,0,
2026-04-08 15:15:00,METAR KBGE 081515Z AUTO 05017KT CLR 21/07 A3024 RMK AO2 PWINO T02120074,0,17,0,,0,0,0,
2026-04-08 14:55:00,METAR KBGE 081455Z AUTO 06016KT CLR 21/07 A3024 RMK AO2 PWINO T02070075,0,16,0,,0,0,0,
2026-04-08 14:35:00,METAR KBGE 081435Z AUTO 07015KT CLR 20/08 A3023 RMK AO2 PWINO T01990076,0,15,0,,0,0,0,
2026-04-08 13:55:00,METAR KBGE 081355Z AUTO 07014KT CLR 17/08 A3023 RMK AO2 PWINO T01750079,0,14,0,,0,0,0,
2026-04-08 13:35:00,METAR KBGE 081335Z AUTO 06013KT CLR 16/08 A3022 RMK AO2 PWINO T01630078,0,13,0,,0,0,0,
2026-04-08 13:15:00,METAR KBGE 081315Z AUTO 07015KT CLR 15/08 A3022 RMK AO2 PWINO T01530076,0,15,0,,0,0,0,
2026-04-08 12:55:00,METAR KBGE 081255Z AUTO 06011KT CLR 14/08 A3022 RMK AO2 PWINO T01440075,0,11,0,,0,0,0,
2026-04-08 12:35:00,METAR KBGE 081235Z AUTO 06011KT CLR 13/07 A3022 RMK AO2 PWINO T01350073,0,11,0,,0,0,0,
2026-04-08 12:15:00,METAR KBGE 081215Z AUTO 05008KT CLR 13/07 A3021 RMK AO2 PWINO T01250069,0,8,0,,0,0,0,
2026-04-08 11:55:00,METAR KBGE 081155Z AUTO 04007KT CLR 11/07 A3020 RMK AO2 PWINO T01100066 10142 20105,0,7,0,,0,0,0,
2026-04-08 11:35:00,METAR KBGE 081135Z AUTO 04008KT CLR 11/06 A3019 RMK AO2 PWINO T01090062,0,8,0,,0,0,0,
2026-04-08 10:55:00,METAR KBGE 081055Z AUTO 04008KT CLR 11/06 A3018 RMK AO2 PWINO T01110059,0,8,0,,0,0,0,
2026-04-08 10:35:00,METAR KBGE 081035Z AUTO 05007KT CLR 11/06 A3017 RMK AO2 PWINO T01070057,0,7,0,,0,0,0,
2026-04-08 10:15:00,METAR KBGE 081015Z AUTO 04006KT CLR 11/06 A3017 RMK AO2 PWINO T01060059,0,6,0,,0,0,0,
2026-04-08 09:55:00,METAR KBGE 080955Z AUTO 03006KT CLR 11/06 A3017 RMK AO2 PWINO T01070058,0,6,0,,0,0,0,
2026-04-08 09:35:00,METAR KBGE 080935Z AUTO 04005KT CLR 11/05 A3016 RMK AO2 PWINO T01130053,0,5,0,,0,0,0,
2026-04-08 09:15:00,METAR KBGE 080915Z AUTO 04005KT CLR 12/05 A3015 RMK AO2 PWINO T01180050,0,5,0,,0,0,0,
2026-04-08 08:55:00,METAR KBGE 080855Z AUTO 04004KT CLR 12/05 A3015 RMK AO2 PWINO T01220051,0,4,0,,0,0,0,
2026-04-08 08:35:00,METAR KBGE 080835Z AUTO 06005KT CLR 12/05 A3015 RMK AO2 PWINO T01240052,0,5,0,,0,0,0,
2026-04-08 08:15:00,METAR KBGE 080815Z AUTO 07006KT CLR 11/06 A3014 RMK AO2 PWINO T01130057,0,6,0,,0,0,0,
2026-04-08 07:55:00,METAR KBGE 080755Z AUTO 08007KT CLR 12/06 A3014 RMK AO2 PWINO T01220056,0,7,0,,0,0,0,
2026-04-08 07:35:00,METAR KBGE 080735Z AUTO 07006KT CLR 13/05 A3014 RMK AO2 PWINO T01280055,0,6,0,,0,0,0,
2026-04-08 07:15:00,METAR KBGE 080715Z AUTO 07008KT CLR 12/06 A3014 RMK AO2 PWINO T01210061,0,8,0,,0,0,0,
2026-04-08 06:55:00,METAR KBGE 080655Z AUTO 07007KT CLR 12/06 A3014 RMK AO2 PWINO T01220058,0,7,0,,0,0,0,
2026-04-08 06:35:00,METAR KBGE 080635Z AUTO 08009KT CLR 12/06 A3015 RMK AO2 PWINO T01230060,0,9,0,,0,0,0,
2026-04-08 06:15:00,METAR KBGE 080615Z AUTO 07006KT CLR 14/05 A3015 RMK AO2 PWINO T01360051,0,6,0,,0,0,0,
2026-04-08 05:55:00,METAR KBGE 080555Z AUTO 05004KT CLR 13/05 A3015 RMK AO2 PWINO T01340048 10211 20128,0,4,0,,0,0,0,
2026-04-08 05:35:00,METAR KBGE 080535Z AUTO 07003KT CLR 13/05 A3016 RMK AO2 PWINO T01320053,0,3,0,,0,0,0,
2026-04-08 05:15:00,METAR KBGE 080515Z AUTO 08005KT CLR 13/05 A3015 RMK AO2 PWINO T01300051,0,5,0,,0,0,0,
2026-04-08 04:35:00,METAR KBGE 080435Z AUTO 06005KT CLR 13/06 A3015 RMK AO2 PWINO T01330056,0,5,0,,0,0,0,
2026-04-08 04:15:00,METAR KBGE 080415Z AUTO 06006KT CLR 15/05 A3015 RMK AO2 PWINO T01460050,0,6,0,,0,0,0,
2026-04-08 03:55:00,METAR KBGE 080355Z AUTO 09006KT CLR 13/05 A3015 RMK AO2 PWINO T01350052,0,6,0,,0,0,0,
2026-04-08 03:40:00,METAR KBGE 080340Z AUTO 07006KT CLR 15/05 A3015 RMK AO2 PWINO T01470050,0,6,0,,0,0,0,
2026-04-08 03:15:00,METAR KBGE 080315Z AUTO 05004KT CLR 17/04 A3015 RMK AO2 PWINO T01680040,0,4,0,,0,0,0,
2026-04-08 02:55:00,METAR KBGE 080255Z AUTO 05005KT CLR 16/05 A3014 RMK AO2 PWINO T01630046,0,5,0,,0,0,0,
2026-04-08 02:35:00,METAR KBGE 080235Z AUTO 05007KT CLR 17/04 A3013 RMK AO2 PWINO T01720043,0,7,0,,0,0,0,
2026-04-08 02:15:00,METAR KBGE 080215Z AUTO 05007KT CLR 18/04 A3013 RMK AO2 PWINO T01770042,0,7,0,,0,0,0,
2026-04-08 01:55:00,METAR KBGE 080155Z AUTO 05006KT CLR 18/04 A3012 RMK AO2 PWINO T01780043,0,6,0,,0,0,0,
2026-04-08 01:35:00,METAR KBGE 080135Z AUTO 05008KT CLR 18/04 A3011 RMK AO2 PWINO T01830041,0,8,0,,0,0,0,
2026-04-08 01:15:00,METAR KBGE 080115Z AUTO 05006KT CLR 19/04 A3010 RMK AO2 PWINO T01870040,0,6,0,,0,0,0,
2026-04-08 00:55:00,METAR KBGE 080055Z AUTO 05006KT CLR 19/04 A3010 RMK AO2 PWINO T01900041,0,6,0,,0,0,0,
2026-04-08 00:35:00,METAR KBGE 080035Z AUTO 05007KT CLR 20/04 A3008 RMK AO2 PWINO T01960040,0,7,0,,0,0,0,
2026-04-08 00:15:00,METAR KBGE 080015Z AUTO 06006KT CLR 20/04 A3008 RMK AO2 PWINO T02030039,0,6,0,,0,0,0,
2026-04-07 23:55:00,METAR KBGE 072355Z AUTO 05006KT CLR 21/03 A3008 RMK AO2 PWINO T02140029 10262 20212 402620099,0,6,0,,0,0,0,
2026-04-07 23:35:00,METAR KBGE 072335Z AUTO 06011KT CLR 22/03 A3007 RMK AO2 PWINO T02240030,0,11,0,,0,0,0,
2026-04-07 23:15:00,METAR KBGE 072315Z AUTO 07010KT CLR 23/02 A3007 RMK AO2 PWINO T02330016,0,10,0,,0,0,0,
2026-04-07 22:55:00,METAR KBGE 072255Z AUTO 07013KT CLR 24/02 A3006 RMK AO2 PWINO T02430016,0,13,0,,0,0,0,
2026-04-07 22:35:00,METAR KBGE 072235Z AUTO 06014KT CLR 25/01 A3006 RMK AO2 PWINO T02470012,0,14,0,,0,0,0,
2026-04-07 22:15:00,METAR KBGE 072215Z AUTO 05015G19KT CLR 25/02 A3005 RMK AO2 PWINO T02510020,0,15,1,,0,0,0,
2026-04-07 21:55:00,METAR KBGE 072155Z AUTO 07017KT CLR 25/02 A3006 RMK AO2 PWINO T02520016,0,17,0,,0,0,0,
2026-04-07 21:35:00,METAR KBGE 072135Z AUTO 04017G20KT CLR 25/01 A3005 RMK AO2 PWINO T02530015,0,17,1,,0,0,0,
2026-04-07 21:15:00,METAR KBGE 072115Z AUTO 06013G23KT CLR 25/01 A3005 RMK AO2 PWINO T02530013,0,13,1,,0,0,0,
2026-04-07 20:55:00,METAR KBGE 072055Z AUTO 06012G24KT CLR 26/02 A3005 RMK AO2 PWINO T02570016,0,12,1,,0,0,0,
2026-04-07 20:35:00,METAR KBGE 072035Z AUTO 04016G25KT CLR 26/01 A3005 RMK AO2 PWINO T02560009,0,16,1,,0,0,0,
2026-04-07 20:15:00,METAR KBGE 072015Z AUTO 06018G26KT CLR 26/01 A3006 RMK AO2 PWINO T02590011,0,18,1,,0,0,0,
2026-04-07 19:55:00,METAR KBGE 071955Z AUTO 07021G28KT CLR 26/01 A3007 RMK AO2 PWINO T02560009,0,21,1,,0,0,0,
2026-04-07 19:35:00,METAR KBGE 071935Z AUTO 06015KT CLR 26/01 A3007 RMK AO2 PWINO T02580013,0,15,0,,0,0,0,
2026-04-07 19:15:00,METAR KBGE 071915Z AUTO 08019G25KT CLR 26/01 A3008 RMK AO2 PWINO T02550012,0,19,1,,0,0,0,
2026-04-07 18:55:00,METAR KBGE 071855Z AUTO 07018G23KT CLR 25/02 A3009 RMK AO2 PWINO T02540018,0,18,1,,0,0,0,
2026-04-07 18:35:00,METAR KBGE 071835Z AUTO 06021G27KT CLR 25/01 A3009 RMK AO2 PWINO T02520015,0,21,1,,0,0,0,
2026-04-07 18:15:00,METAR KBGE 071815Z AUTO 07016G25KT CLR 25/01 A3010 RMK AO2 PWINO T02480010,0,16,1,,0,0,0,
2026-04-07 17:55:00,METAR KBGE 071755Z AUTO 07017G23KT CLR 25/02 A3011 RMK AO2 PWINO T02490025 10252 20099,0,17,1,,0,0,0,
2026-04-07 17:35:00,METAR KBGE 071735Z AUTO 07022G28KT CLR 24/01 A3011 RMK AO2 PWINO T02420014,0,22,1,,0,0,0,
2026-04-07 17:15:00,METAR KBGE 071715Z AUTO 08019G24KT CLR 24/02 A3012 RMK AO2 PWINO T02410017,0,19,1,,0,0,0,
2026-04-07 16:55:00,METAR KBGE 071655Z AUTO 08021G26KT CLR 24/02 A3012 RMK AO2 PWINO T02350024,0,21,1,,0,0,0,
2026-04-07 16:35:00,METAR KBGE 071635Z AUTO 07021G26KT CLR 23/03 A3013 RMK AO2 PWINO T02300028,0,21,1,,0,0,0,
2026-04-07 16:15:00,METAR KBGE 071615Z AUTO 08019G22KT CLR 22/03 A3014 RMK AO2 PWINO T02240033,0,19,1,,0,0,0,
2026-04-07 15:55:00,METAR KBGE 071555Z AUTO 07021G27KT CLR 21/04 A3014 RMK AO2 PWINO T02090036,0,21,1,,0,0,0,
2026-04-07 15:35:00,METAR KBGE 071535Z AUTO 06015G19KT CLR 20/05 A3014 RMK AO2 PWINO T02030045,0,15,1,,0,0,0,
2026-04-07 15:15:00,METAR KBGE 071515Z AUTO 07017KT CLR 20/05 A3014 RMK AO2 PWINO T01950051,0,17,0,,0,0,0,
2026-04-07 14:55:00,METAR KBGE 071455Z AUTO 06014KT CLR 18/05 A3014 RMK AO2 PWINO T01780049,0,14,0,,0,0,0,
2026-04-07 14:35:00,METAR KBGE 071435Z AUTO 06014KT CLR 17/05 A3014 RMK AO2 PWINO T01720052,0,14,0,,0,0,0,
2026-04-07 14:15:00,METAR KBGE 071415Z AUTO 05014KT CLR 17/06 A3014 RMK AO2 PWINO T01690056,0,14,0,,0,0,0,
2026-04-07 13:55:00,METAR KBGE 071355Z AUTO 04013KT CLR 16/06 A3013 RMK AO2 PWINO T01610062,0,13,0,,0,0,0,
2026-04-07 13:35:00,METAR KBGE 071335Z AUTO 05011KT CLR 15/07 A3013 RMK AO2 PWINO T01510067,0,11,0,,0,0,0,
2026-04-07 13:15:00,METAR KBGE 071315Z AUTO 05012KT CLR 14/07 A3013 RMK AO2 PWINO T01400071,0,12,0,,0,0,0,
2026-04-07 12:55:00,METAR KBGE 071255Z AUTO 04010KT CLR 13/08 A3013 RMK AO2 PWINO T01270076,0,10,0,,0,0,0,
2026-04-07 12:35:00,METAR KBGE 071235Z AUTO 04007KT CLR 11/08 A3013 RMK AO2 LTG DSNT SE PWINO T01130082,0,7,0,,0,0,0,DS
2026-04-07 12:15:00,METAR KBGE 071215Z AUTO 04005KT 10/08 A3013 RMK AO2 PWINO T01000080,0,5,0,,0,0,0,
2026-04-07 11:55:00,METAR KBGE 071155Z AUTO 04006KT 10/08 A3013 RMK AO2 PWINO T01020082 10141 20101,0,6,0,,0,0,0,
2026-04-07 11:35:00,METAR KBGE 071135Z AUTO 02006KT 10/08 A3012 RMK AO2 PWINO T01040081,0,6,0,,0,0,0,
2026-04-07 11:15:00,METAR KBGE 071115Z AUTO 02007KT 11/08 A3011 RMK AO2 PWINO T01060082,0,7,0,,0,0,0,
2026-04-07 10:55:00,METAR KBGE 071055Z AUTO 01006KT CLR 11/08 A3011 RMK AO2 PWINO T01090084,0,6,0,,0,0,0,
2026-04-07 10:35:00,METAR KBGE 071035Z AUTO 01006KT CLR 11/08 A3010 RMK AO2 PWINO T01140081,0,6,0,,0,0,0,
2026-04-07 10:15:00,METAR KBGE 071015Z AUTO 02006KT CLR 12/08 A3010 RMK AO2 PWINO T01150083,0,6,0,,0,0,0,
2026-04-07 09:55:00,METAR KBGE 070955Z AUTO 03005KT CLR 12/08 A3010 RMK AO2 PWINO T01160083,0,5,0,,0,0,0,
2026-04-07 09:35:00,METAR KBGE 070935Z AUTO 04006KT CLR 12/08 A3009 RMK AO2 PWINO T01210082,0,6,0,,0,0,0,
2026-04-07 09:15:00,METAR KBGE 070915Z AUTO 04007KT CLR 13/08 A3010 RMK AO2 PWINO T01250083,0,7,0,,0,0,0,
2026-04-07 08:55:00,METAR KBGE 070855Z AUTO 03007KT CLR 13/08 A3010 RMK AO2 PWINO T01280082,0,7,0,,0,0,0,
2026-04-07 08:35:00,METAR KBGE 070835Z AUTO 02006KT CLR 13/08 A3010 RMK AO2 PWINO T01280083,0,6,0,,0,0,0,
2026-04-07 08:15:00,METAR KBGE 070815Z AUTO 02006KT CLR 13/08 A3010 RMK AO2 PWINO T01300083,0,6,0,,0,0,0,
2026-04-07 07:55:00,METAR KBGE 070755Z AUTO 03006KT CLR 13/08 A3010 RMK AO2 PWINO T01320078,0,6,0,,0,0,0,
2026-04-07 07:35:00,METAR KBGE 070735Z AUTO 04006KT CLR 13/08 A3010 RMK AO2 PWINO T01340076,0,6,0,,0,0,0,
2026-04-07 07:15:00,METAR KBGE 070715Z AUTO 04007KT CLR 14/08 A3011 RMK AO2 PWINO T01360077,0,7,0,,0,0,0,
2026-04-07 06:55:00,METAR KBGE 070655Z AUTO 04005KT CLR 14/08 A3011 RMK AO2 PWINO T01360080,0,5,0,,0,0,0,
2026-04-07 06:35:00,METAR KBGE 070635Z AUTO 04007KT CLR 14/08 A3012 RMK AO2 PWINO T01390080,0,7,0,,0,0,0,
2026-04-07 06:15:00,METAR KBGE 070615Z AUTO 04008KT CLR 14/08 A3012 RMK AO2 PWINO T01400082,0,8,0,,0,0,0,
2026-04-07 05:55:00,METAR KBGE 070555Z AUTO 04008KT CLR 14/09 A3012 RMK AO2 PWINO T01410086 10164 20140,0,8,0,,0,0,0,
2026-04-07 05:35:00,METAR KBGE 070535Z AUTO 03008KT CLR 14/09 A3012 RMK AO2 PWINO T01420087,0,8,0,,0,0,0,
2026-04-07 05:15:00,METAR KBGE 070515Z AUTO 03007KT CLR 14/09 A3012 RMK AO2 PWINO T01420088,0,7,0,,0,0,0,
2026-04-07 04:55:00,METAR KBGE 070455Z AUTO 04007KT CLR 14/09 A3013 RMK AO2 PWINO T01450086,0,7,0,,0,0,0,
2026-04-07 04:35:00,METAR KBGE 070435Z AUTO 04007KT CLR 15/08 A3013 RMK AO2 PWINO T01470085,0,7,0,,0,0,0,
2026-04-07 04:15:00,METAR KBGE 070415Z AUTO 05007KT CLR 15/08 A3013 RMK AO2 PWINO T01510083,0,7,0,,0,0,0,
2026-04-07 03:55:00,METAR KBGE 070355Z AUTO 04008KT CLR 15/09 A3013 RMK AO2 PWINO T01520086,0,8,0,,0,0,0,
2026-04-07 03:35:00,METAR KBGE 070335Z AUTO 04007KT CLR 15/09 A3013 RMK AO2 PWINO T01520090,0,7,0,,0,0,0,
2026-04-07 03:15:00,METAR KBGE 070315Z AUTO 04007KT CLR 15/09 A3013 RMK AO2 PWINO T01530090,0,7,0,,0,0,0,
2026-04-07 02:55:00,METAR KBGE 070255Z AUTO 04009KT CLR 15/09 A3012 RMK AO2 PWINO T01540091,0,9,0,,0,0,0,
2026-04-07 02:35:00,METAR KBGE 070235Z AUTO 04009KT CLR 15/09 A3011 RMK AO2 PWINO T01540092,0,9,0,,0,0,0,
2026-04-07 02:15:00,METAR KBGE 070215Z AUTO 03006KT CLR 16/09 A3011 RMK AO2 PWINO T01560089,0,6,0,,0,0,0,
2026-04-07 01:55:00,METAR KBGE 070155Z AUTO 04009KT CLR 16/09 A3011 RMK AO2 PWINO T01570085,0,9,0,,0,0,0,
2026-04-07 01:35:00,METAR KBGE 070135Z AUTO 04010KT CLR 16/08 A3011 RMK AO2 PWINO T01600081,0,10,0,,0,0,0,
2026-04-07 01:15:00,METAR KBGE 070115Z AUTO 02011KT SCT120 16/08 A3011 RMK AO2 PWINO T01600080,0,11,0,,0,0,0,
2026-04-07 00:55:00,METAR KBGE 070055Z AUTO 03012KT CLR 16/08 A3010 RMK AO2 PWINO T01610081,0,12,0,,0,0,0,
2026-04-07 00:35:00,METAR KBGE 070035Z AUTO 02008KT CLR 16/09 A3011 RMK AO2 PWINO T01610086,0,8,0,,0,0,0,
2026-04-07 00:15:00,METAR KBGE 070015Z AUTO 03009KT SCT120 16/09 A3010 RMK AO2 PWINO T01630087,0,9,0,,0,0,0,
2026-04-06 23:55:00,METAR KBGE 062355Z AUTO 02011KT BKN110 16/09 A3010 RMK AO2 PWINO T01640087 10195 20164 402200139,0,11,0,,0,0,0,
2026-04-06 23:35:00,METAR KBGE 062335Z AUTO 02010KT OVC110 17/09 A3011 RMK AO2 PWINO T01660089,0,10,0,,0,0,0,
2026-04-06 23:15:00,METAR KBGE 062315Z AUTO 04010KT OVC120 17/09 A3011 RMK AO2 PWINO T01670087,0,10,0,,0,0,0,
2026-04-06 22:55:00,METAR KBGE 062255Z AUTO 04012KT SCT050 SCT070 OVC120 17/09 A3011 RMK AO2 PWINO T01670087,0,12,0,,0,0,0,
2026-04-06 22:35:00,METAR KBGE 062235Z AUTO 03010KT SCT055 SCT070 OVC085 17/09 A3010 RMK AO2 PWINO T01670087,0,10,0,,0,0,0,
2026-04-06 22:15:00,METAR KBGE 062215Z AUTO 02010KT SCT075 OVC100 17/08 A3010 RMK AO2 PWINO T01680081,0,10,0,,0,0,0,
2026-04-06 21:55:00,METAR KBGE 062155Z AUTO 03010KT SCT070 OVC100 17/08 A3009 RMK AO2 PWINO T01680082,0,10,0,,0,0,0,
2026-04-06 21:35:00,METAR KBGE 062135Z AUTO 02013KT SCT070 OVC100 17/08 A3009 RMK AO2 PWINO T01670079,0,13,0,,0,0,0,
2026-04-06 21:15:00,METAR KBGE 062115Z AUTO 02009KT BKN100 OVC110 17/08 A3009 RMK AO2 PWINO T01690080,0,9,0,,0,0,0,
2026-04-06 20:55:00,METAR KBGE 062055Z AUTO 02010KT BKN110 17/08 A3009 RMK AO2 PWINO T01700080,0,10,0,,0,0,0,
2026-04-06 20:35:00,METAR KBGE 062035Z AUTO 01013KT BKN120 17/09 A3009 RMK AO2 PWINO T01740085,0,13,0,,0,0,0,
2026-04-06 20:15:00,METAR KBGE 062015Z AUTO 01013KT SCT120 18/09 A3010 RMK AO2 PWINO T01800088,0,13,0,,0,0,0,
2026-04-06 19:55:00,METAR KBGE 061955Z AUTO 02012KT CLR 19/09 A3010 RMK AO2 PWINO T01880091,0,12,0,,0,0,0,
2026-04-06 19:35:00,METAR KBGE 061935Z AUTO 03010KT CLR 19/09 A3011 RMK AO2 PWINO T01890090,0,10,0,,0,0,0,
2026-04-06 19:15:00,METAR KBGE 061915Z AUTO 01010KT CLR 19/09 A3011 RMK AO2 PWINO T01890088,0,10,0,,0,0,0,
2026-04-06 18:55:00,METAR KBGE 061855Z AUTO 02010KT CLR 19/09 A3013 RMK AO2 PWINO T01880088,0,10,0,,0,0,0,
2026-04-06 18:35:00,METAR KBGE 061835Z AUTO 06007KT CLR 19/09 A3012 RMK AO2 PWINO T01910089,0,7,0,,0,0,0,
2026-04-06 18:15:00,METAR KBGE 061815Z AUTO 02009G15KT CLR 19/09 A3013 RMK AO2 PWINO T01910085,0,9,1,,0,0,0,
2026-04-06 17:55:00,METAR KBGE 061755Z AUTO 02010KT CLR 19/09 A3012 RMK AO2 PWINO T01900094 10196 20139,0,10,0,,0,0,0,
2026-04-06 17:35:00,METAR KBGE 061735Z AUTO 05011G17KT CLR 19/09 A3012 RMK AO2 PWINO T01860087,0,11,1,,0,0,0,
2026-04-06 17:15:00,METAR KBGE 061715Z AUTO 05011KT CLR 19/09 A3012 RMK AO2 PWINO T01900091,0,11,0,,0,0,0,
2026-04-06 16:55:00,METAR KBGE 061655Z AUTO 06011KT CLR 19/09 A3013 RMK AO2 PWINO T01920091,0,11,0,,0,0,0,
2026-04-06 16:35:00,METAR KBGE 061635Z AUTO 03013G17KT CLR 19/08 A3013 RMK AO2 PWINO T01880084,0,13,1,,0,0,0,
2026-04-06 16:15:00,METAR KBGE 061615Z AUTO 05012KT CLR 18/09 A3014 RMK AO2 PWINO T01770087,0,12,0,,0,0,0,
2026-04-06 15:55:00,METAR KBGE 061555Z AUTO 06014G18KT CLR 18/09 A3014 RMK AO2 PWINO T01780087,0,14,1,,0,0,0,
2026-04-06 15:35:00,METAR KBGE 061535Z AUTO 06014KT CLR 17/08 A3014 RMK AO2 PWINO T01710082,0,14,0,,0,0,0,
2026-04-06 14:55:00,METAR KBGE 061455Z AUTO 04012KT SCT080 16/08 A3014 RMK AO2 PWINO T01560081,0,12,0,,0,0,0,
2026-04-06 14:35:00,METAR KBGE 061435Z AUTO 04010KT BKN080 15/08 A3013 RMK AO2 PWINO T01520080,0,10,0,,0,0,0,
2026-04-06 14:15:00,METAR KBGE 061415Z AUTO 02012KT BKN080 15/08 A3014 RMK AO2 PWINO T01490079,0,12,0,,0,0,0,
2026-04-06 13:55:00,METAR KBGE 061355Z AUTO 03010KT CLR 15/08 A3013 RMK AO2 PWINO T01450078,0,10,0,,0,0,0,
2026-04-06 13:35:00,METAR KBGE 061335Z AUTO 04013KT SCT090 14/08 A3012 RMK AO2 PWINO T01440075,0,13,0,,0,0,0,
2026-04-06 13:15:00,METAR KBGE 061315Z AUTO 03011KT BKN090 14/08 A3012 RMK AO2 PWINO T01400076,0,11,0,,0,0,0,
2026-04-06 12:55:00,METAR KBGE 061255Z AUTO 02011KT OVC090 14/08 A3013 RMK AO2 PWINO T01400076,0,11,0,,0,0,0,
2026-04-06 12:35:00,METAR KBGE 061235Z AUTO 01008KT OVC090 14/07 A3013 RMK AO2 PWINO T01400075,0,8,0,,0,0,0,
2026-04-06 12:15:00,METAR KBGE 061215Z AUTO 03008KT OVC090 14/07 A3011 RMK AO2 PWINO T01410072,0,8,0,,0,0,0,
2026-04-06 11:55:00,METAR KBGE 061155Z AUTO 02009KT OVC090 14/08 A3011 RMK AO2 PWINO T01420076 10182 20142 70001,0,9,0,,0,0,0,
2026-04-06 11:35:00,METAR KBGE 061135Z AUTO 02009KT SCT043 OVC090 14/07 A3011 RMK AO2 PWINO T01420074,0,9,0,,0,0,0,
2026-04-06 11:15:00,METAR KBGE 061115Z AUTO 01010KT BKN043 OVC090 14/07 A3011 RMK AO2 PWINO T01450072,0,10,0,,0,0,0,
2026-04-06 10:55:00,METAR KBGE 061055Z AUTO 02008KT OVC090 15/08 A3010 RMK AO2 PWINO T01470075,0,8,0,,0,0,0,
2026-04-06 10:35:00,METAR KBGE 061035Z AUTO 01009KT OVC090 15/08 A3010 RMK AO2 PWINO T01500083,0,9,0,,0,0,0,
2026-04-06 10:15:00,METAR KBGE 061015Z AUTO 02011KT OVC090 15/08 A3009 RMK AO2 PWINO T01520085,0,11,0,,0,0,0,
2026-04-06 09:55:00,METAR KBGE 060955Z AUTO 02009KT SCT075 OVC100 15/09 A3008 RMK AO2 PWINO T01540092,0,9,0,,0,0,0,
2026-04-06 09:35:00,METAR KBGE 060935Z AUTO 01009KT OVC075 16/10 A3008 RMK AO2 PWINO T01570100,0,9,0,,0,0,0,
2026-04-06 09:15:00,METAR KBGE 060915Z AUTO 02009KT OVC075 16/10 A3008 RMK AO2 PWINO T01590104,0,9,0,,0,0,0,
2026-04-06 08:55:00,METAR KBGE 060855Z AUTO 02011KT OVC075 16/11 A3008 RMK AO2 PWINO T01600107,0,11,0,,0,0,0,
2026-04-06 08:35:00,METAR KBGE 060835Z AUTO 01010KT OVC075 16/11 A3007 RMK AO2 PWINO T01600110,0,10,0,,0,0,0,
2026-04-06 08:15:00,METAR KBGE 060815Z AUTO 01010KT OVC065 16/11 A3008 RMK AO2 PWINO T01630110,0,10,0,,0,0,0,
2026-04-06 07:55:00,METAR KBGE 060755Z AUTO 01009KT OVC065 17/12 A3008 RMK AO2 PWINO T01670122,0,9,0,,0,0,0,
2026-04-06 07:35:00,METAR KBGE 060735Z AUTO 02010KT OVC065 17/12 A3008 RMK AO2 PWINO T01710116,0,10,0,,0,0,0,
2026-04-06 07:15:00,METAR KBGE 060715Z AUTO 01009KT OVC065 17/13 A3008 RMK AO2 PWINO T01720130,0,9,0,,0,0,0,
2026-04-06 06:55:00,METAR KBGE 060655Z AUTO 02010G15KT OVC065 18/13 A3008 RMK AO2 PWINO T01750133,0,10,1,,0,0,0,
2026-04-06 06:35:00,METAR KBGE 060635Z AUTO 01009KT BKN065 OVC080 18/14 A3008 RMK AO2 PWINO T01770142,0,9,0,,0,0,0,
2026-04-06 06:15:00,METAR KBGE 060615Z AUTO 36009KT OVC065 18/15 A3008 RMK AO2 PWINO T01790153,0,9,0,,0,0,0,
2026-04-06 05:55:00,METAR KBGE 060555Z AUTO 36011KT OVC065 18/16 A3008 RMK AO2 PWINO T01820155 10220 20181 60001,0,11,0,,0,0,0,
2026-04-06 05:35:00,METAR KBGE 060535Z AUTO 36012KT 19/17 A3009 RMK AO2 PWINO T01860166,0,12,0,,0,0,0,
2026-04-06 05:15:00,METAR KBGE 060515Z AUTO 36009KT BKN045 OVC075 19/19 A3009 RMK AO2 PWINO T0187////,0,9,0,,0,0,0,
2026-04-06 04:55:00,METAR KBGE 060455Z AUTO 02005KT 18/18 A3010 RMK AO2 P0001 PWINO T0184////,0,5,0,,0,0,0,
2026-04-06 04:35:00,METAR KBGE 060435Z AUTO 02010KT 18/ A3010 RMK AO2 P0001 PWINO T0183////,0,10,0,,0,0,0,
2026-04-06 04:15:00,METAR KBGE 060415Z AUTO 35009KT 19/ A3010 RMK AO2 P0001 PWINO T0189////,0,9,0,,0,0,0,
2026-04-06 03:55:00,METAR KBGE 060355Z AUTO 34006KT 19/20 A3010 RMK AO2 PWINO T0194////,0,6,0,,0,0,0,
2026-04-06 03:35:00,METAR KBGE 060335Z AUTO 34007KT BKN045 OVC060 20/20 A3010 RMK AO2 PWINO T01980196,0,7,0,,0,0,0,
2026-04-06 03:15:00,METAR KBGE 060315Z AUTO 34009KT 20/20 A3010 RMK AO2 PWINO T02000195,0,9,0,,0,0,0,
2026-04-06 02:55:00,METAR KBGE 060255Z AUTO 34007KT BKN047 BKN055 OVC120 20/20 A3010 RMK AO2 PWINO T02010200,0,7,0,,0,0,0,
2026-04-06 02:35:00,METAR KBGE 060235Z AUTO 33009KT 20/ A3010 RMK AO2 PWINO T0203////,0,9,0,,0,0,0,
2026-04-06 02:15:00,METAR KBGE 060215Z AUTO 34007KT BKN042 OVC050 21/21 A3009 RMK AO2 PWINO T0206////,0,7,0,,0,0,0,
2026-04-06 01:55:00,METAR KBGE 060155Z AUTO 34007KT 21/21 A3009 RMK AO2 PWINO T02080207,0,7,0,,0,0,0,
2026-04-06 01:35:00,METAR KBGE 060135Z AUTO 33008KT 21/21 A3008 RMK AO2 PWINO T02090207,0,8,0,,0,0,0,
2026-04-06 01:15:00,METAR KBGE 060115Z AUTO 32011KT 21/20 A3007 RMK AO2 PWINO T02130205,0,11,0,,0,0,0,
2026-04-06 00:55:00,METAR KBGE 060055Z AUTO 30006KT BKN035 OVC042 22/20 A3007 RMK AO2 PWINO T02150200,0,6,0,,0,0,0,
2026-04-06 00:35:00,METAR KBGE 060035Z AUTO 29006KT 22/20 A3006 RMK AO2 PWINO T02160197,0,6,0,,0,0,0,
2026-04-06 00:15:00,METAR KBGE 060015Z AUTO 31008KT 22/20 A3006 RMK AO2 PWINO T02180196,0,8,0,,0,0,0,
2026-04-05 23:55:00,METAR KBGE 052355Z AUTO 31007KT 22/20 A3005 RMK AO2 PWINO T02200198 10263 20220 402630153,0,7,0,,0,0,0,
2026-04-05 23:35:00,METAR KBGE 052335Z AUTO 30009KT SCT120 23/19 A3005 RMK AO2 PWINO T02250194,0,9,0,,0,0,0,
2026-04-05 23:15:00,METAR KBGE 052315Z AUTO 31010KT SCT085 SCT120 23/20 A3004 RMK AO2 PWINO T02290199,0,10,0,,0,0,0,
2026-04-05 22:55:00,METAR KBGE 052255Z AUTO 31009KT SCT075 SCT090 BKN110 23/20 A3004 RMK AO2 PWINO T02340197,0,9,0,,0,0,0,
2026-04-05 22:35:00,METAR KBGE 052235Z AUTO 30008KT SCT075 OVC100 24/19 A3004 RMK AO2 PWINO T02360190,0,8,0,,0,0,0,
2026-04-05 22:15:00,METAR KBGE 052215Z AUTO 29010KT BKN100 BKN120 24/19 A3003 RMK AO2 PWINO T02430188,0,10,0,,0,0,0,
2026-04-05 21:55:00,METAR KBGE 052155Z AUTO 28008KT CLR 25/18 A3003 RMK AO2 PWINO T02470178,0,8,0,,0,0,0,
2026-04-05 21:35:00,METAR KBGE 052135Z AUTO 27010KT SCT120 25/18 A3003 RMK AO2 PWINO T02540181,0,10,0,,0,0,0,
2026-04-05 21:15:00,METAR KBGE 052115Z AUTO 27008KT BKN120 25/19 A3004 RMK AO2 PWINO T02530192,0,8,0,,0,0,0,
2026-04-05 20:55:00,METAR KBGE 052055Z AUTO 29008KT OVC120 25/19 A3004 RMK AO2 PWINO T02490191,0,8,0,,0,0,0,
2026-04-05 20:35:00,METAR KBGE 052035Z AUTO 28008KT OVC120 26/18 A3005 RMK AO2 PWINO T02560182,0,8,0,,0,0,0,
2026-04-05 20:15:00,METAR KBGE 052015Z AUTO 27007KT BKN120 25/17 A3005 RMK AO2 PWINO T02530173,0,7,0,,0,0,0,
2026-04-05 19:55:00,METAR KBGE 051955Z AUTO 26008KT SCT120 26/16 A3005 RMK AO2 PWINO T02550164,0,8,0,,0,0,0,
2026-04-05 19:35:00,METAR KBGE 051935Z AUTO 25007KT BKN120 26/16 A3006 RMK AO2 PWINO T02580163,0,7,0,,0,0,0,
2026-04-05 19:15:00,METAR KBGE 051915Z AUTO 26008KT CLR 26/17 A3007 RMK AO2 PWINO T02600171,0,8,0,,0,0,0,
2026-04-05 18:55:00,METAR KBGE 051855Z AUTO 25008KT CLR 26/18 A3007 RMK AO2 PWINO T02610182,0,8,0,,0,0,0,
2026-04-05 18:35:00,METAR KBGE 051835Z AUTO 28010KT CLR 25/18 A3008 RMK AO2 PWINO T02530182,0,10,0,,0,0,0,
2026-04-05 18:15:00,METAR KBGE 051815Z AUTO 29009KT CLR 25/18 A3009 RMK AO2 PWINO T02550181,0,9,0,,0,0,0,
2026-04-05 17:55:00,METAR KBGE 051755Z AUTO 31008KT CLR 25/19 A3009 RMK AO2 PWINO T02520192 10260 20167,0,8,0,,0,0,0,
2026-04-05 17:35:00,METAR KBGE 051735Z AUTO 28009KT CLR 26/15 A3010 RMK AO2 PWINO T02590148,0,9,0,,0,0,0,
2026-04-05 17:15:00,METAR KBGE 051715Z AUTO 25010KT CLR 26/14 A3011 RMK AO2 PWINO T02570139,0,10,0,,0,0,0,
2026-04-05 16:55:00,METAR KBGE 051655Z AUTO 23008KT CLR 25/14 A3011 RMK AO2 PWINO T02550141,0,8,0,,0,0,0,
2026-04-05 16:35:00,METAR KBGE 051635Z AUTO 24008KT CLR 26/13 A3012 RMK AO2 PWINO T02560135,0,8,0,,0,0,0,
2026-04-05 16:15:00,METAR KBGE 051615Z AUTO 28006KT CLR 24/16 A3013 RMK AO2 PWINO,0,6,0,,0,0,0,
2026-04-05 15:55:00,METAR KBGE 051555Z AUTO 24007KT CLR 24/17 A3012 RMK AO2 PWINO T02390167,0,7,0,,0,0,0,
2026-04-05 15:35:00,METAR KBGE 051535Z AUTO 23006KT CLR 23/16 A3012 RMK AO2 PWINO T02350164,0,6,0,,0,0,0,
2026-04-05 15:15:00,METAR KBGE 051515Z AUTO 22005KT SCT050 23/18 A3012 RMK AO2 PWINO T02330181,0,5,0,,0,0,0,
2026-04-05 14:55:00,METAR KBGE 051455Z AUTO 24004KT SCT050 23/19 A3012 RMK AO2 PWINO T02280190,0,4,0,,0,0,0,
2026-04-05 14:35:00,METAR KBGE 051435Z AUTO 20004KT 21/ A3012 RMK AO2 PWINO T0208////,0,4,0,,0,0,0,
2026-04-05 12:55:00,METAR KBGE 051255Z AUTO 29004KT BKN050 BKN065 17/ A3014 RMK AO2 PWINO T0175////,0,4,0,,0,0,0,
2026-04-05 12:35:00,METAR KBGE 051235Z AUTO 27003KT BKN050 BKN065 17/ A3014 RMK AO2 PWINO T0172////,0,3,0,,0,0,0,
2026-04-05 12:15:00,METAR KBGE 051215Z AUTO 00000KT BKN050 BKN065 17/ A3013 RMK AO2 PWINO T0170////,0,0,0,,0,0,0,
2026-04-05 11:55:00,METAR KBGE 051155Z AUTO 15003KT BKN050 BKN065 17/ A3013 RMK AO2 PWINO T0165//// 10167 20153 70100,0,3,0,,0,0,0,
2026-04-05 11:35:00,METAR KBGE 051135Z AUTO 00000KT BKN050 BKN065 16/ A3012 RMK AO2 PWINO T0161////,0,0,0,,0,0,0,
2026-04-05 11:15:00,METAR KBGE 051115Z AUTO 14003KT 16/ A3012 RMK AO2 PWINO T0160////,0,3,0,,0,0,0,
2026-04-05 10:55:00,METAR KBGE 051055Z AUTO 00000KT 16/ A3012 RMK AO2 PWINO T0160////,0,0,0,,0,0,0,
2026-04-05 10:35:00,METAR KBGE 051035Z AUTO 00000KT 16/ A3012 RMK AO2 PWINO T0160////,0,0,0,,0,0,0,
2026-04-05 10:15:00,METAR KBGE 051015Z AUTO 12003KT 16/ A3012 RMK AO2 PWINO T0160////,0,3,0,,0,0,0,
2026-04-05 09:55:00,METAR KBGE 050955Z AUTO 14003KT 16/ A3012 RMK AO2 PWINO T0158////,0,3,0,,0,0,0,
2026-04-05 09:35:00,METAR KBGE 050935Z AUTO 14004KT 17/ A3012 RMK AO2 PWINO T0166////,0,4,0,,0,0,0,
2026-04-05 09:15:00,METAR KBGE 050915Z AUTO 00000KT 16/ A3013 RMK AO2 PWINO T0162////,0,0,0,,0,0,0,
2026-04-05 08:55:00,METAR KBGE 050855Z AUTO 14004KT 16/ A3012 RMK AO2 PWINO T0162////,0,4,0,,0,0,0,
2026-04-05 08:35:00,METAR KBGE 050835Z AUTO 00000KT 17/ A3012 RMK AO2 PWINO T0165////,0,0,0,,0,0,0,
2026-04-05 08:15:00,METAR KBGE 050815Z AUTO 14009KT OVC004 16/ A3012 RMK AO2 PWINO T0164////,0,9,0,,0,0,0,
2026-04-05 07:55:00,METAR KBGE 050755Z AUTO 00000KT OVC004 16/ A3011 RMK AO2 PWINO T0156////,0,0,0,,0,0,0,
2026-04-05 07:35:00,METAR KBGE 050735Z AUTO 00000KT BKN004 16/ A3012 RMK AO2 PWINO T0156////,0,0,0,,0,0,0,
2026-04-05 07:15:00,METAR KBGE 050715Z AUTO 00000KT 16/ A3012 RMK AO2 PWINO T0162////,0,0,0,,0,0,0,
2026-04-05 06:55:00,METAR KBGE 050655Z AUTO 00000KT 16/ A3012 RMK AO2 PWINO T0162////,0,0,0,,0,0,0,
2026-04-05 06:35:00,METAR KBGE 050635Z AUTO 00000KT 16/ A3012 RMK AO2 PWINO T0164////,0,0,0,,0,0,0,
2026-04-05 06:15:00,METAR KBGE 050615Z AUTO 16003KT 16/ A3013 RMK AO2 PWINO T0163////,0,3,0,,0,0,0,
2026-04-05 05:55:00,METAR KBGE 050555Z AUTO 15003KT BKN002 16/ A3013 RMK AO2 PWINO T0164//// 10191 20163 60001,0,3,0,,0,0,0,
2026-04-05 05:35:00,METAR KBGE 050535Z AUTO 13003KT BKN002 17/ A3014 RMK AO2 PWINO T0166////,0,3,0,,0,0,0,
2026-04-05 05:15:00,METAR KBGE 050515Z AUTO 00000KT 17/ A3015 RMK AO2 PWINO T0169////,0,0,0,,0,0,0,
2026-04-05 04:55:00,METAR KBGE 050455Z AUTO 29003KT 17/ A3015 RMK AO2 PWINO T0170////,0,3,0,,0,0,0,
2026-04-05 04:35:00,METAR KBGE 050435Z AUTO 30003KT 17/ A3016 RMK AO2 PWINO T0172////,0,3,0,,0,0,0,
2026-04-05 04:15:00,METAR KBGE 050415Z AUTO 00000KT 18/ A3016 RMK AO2 PWINO T0176////,0,0,0,,0,0,0,
2026-04-05 03:55:00,METAR KBGE 050355Z AUTO 00000KT 17/ A3016 RMK AO2 PWINO T0175////,0,0,0,,0,0,0,
2026-04-05 03:35:00,METAR KBGE 050335Z AUTO 00000KT 17/ A3016 RMK AO2 PWINO T0172////,0,0,0,,0,0,0,
2026-04-05 03:15:00,METAR KBGE 050315Z AUTO 00000KT 18/ A3015 RMK AO2 PWINO T0177////,0,0,0,,0,0,0,
2026-04-05 02:55:00,METAR KBGE 050255Z AUTO 00000KT 18/ A3015 RMK AO2 PWINO T0180//// 60001,0,0,0,,0,0,0,
2026-04-05 02:35:00,METAR KBGE 050235Z AUTO 00000KT 18/ A3015 RMK AO2 PWINO T0182////,0,0,0,,0,0,0,
2026-04-05 02:15:00,METAR KBGE 050215Z AUTO 04003KT 18/ A3015 RMK AO2 LTG DSNT NW PWINO T0180////,0,3,0,,0,0,0,DS
2026-04-05 01:55:00,METAR KBGE 050155Z AUTO 00000KT 18/ A3015 RMK AO2 P0001 PWINO T0180////,0,0,0,,0,0,0,
2026-04-05 01:35:00,METAR KBGE 050135Z AUTO 00000KT 18/ A3014 RMK AO2 P0001 PWINO T0185////,0,0,0,,0,0,0,
2026-04-05 01:15:00,METAR KBGE 050115Z AUTO 00000KT 19/ A3014 RMK AO2 PWINO T0187////,0,0,0,,0,0,0,
2026-04-05 00:55:00,METAR KBGE 050055Z AUTO 00000KT 19/ A3013 RMK AO2 PWINO T0186////,0,0,0,,0,0,0,
2026-04-05 00:35:00,METAR KBGE 050035Z AUTO 24004KT 19/ A3013 RMK AO2 PWINO T0187////,0,4,0,,0,0,0,
2026-04-05 00:15:00,METAR KBGE 050015Z AUTO 00000KT 19/ A3012 RMK AO2 PWINO T0190////,0,0,0,,0,0,0,
2026-04-04 23:55:00,METAR KBGE 042355Z AUTO 18004KT 19/ A3012 RMK AO2 PWINO T0190//// 10276 20189 402850172 60098,0,4,0,,0,0,0,
2026-04-04 23:35:00,METAR KBGE 042335Z AUTO 17007KT 19/ A3012 RMK AO2 PWINO T0192////,0,7,0,,0,0,0,
2026-04-04 23:15:00,METAR KBGE 042315Z AUTO 14003KT 20/ A3012 RMK AO2 PWINO T0196////,0,3,0,,0,0,0,
2026-04-04 22:55:00,METAR KBGE 042255Z AUTO 07004KT 19/ A3013 RMK AO2 LTG DSNT N P0011 PWINO T0195////,0,4,0,,0,0,0,DS
2026-04-04 22:35:00,METAR KBGE 042235Z AUTO 05003KT OVC095 19/ A3014 RMK AO2 LTG DSNT E P0008 PWINO T0194////,0,3,0,,0,0,0,DS
2026-04-04 22:15:00,METAR KBGE 042215Z AUTO 00000KT 19/ A3015 RMK AO2 LTG DSNT E AND NW P0003 PWINO T0191////,0,0,0,,0,0,0,DS
2026-04-04 21:55:00,METAR KBGE 042155Z AUTO 13009KT TS 19/ A3016 RMK AO2 LTG DSNT N THRU SE P0077 PWINO T0189////,0,9,0,,1,0,0,"DS,TS"
2026-04-04 21:35:00,METAR KBGE 042135Z AUTO 16011KT TS 20/ A3018 RMK AO2 LTG DSNT NW THRU E P0060 PWINO T0195////,0,11,0,,1,0,0,"DS,TS"
2026-04-04 21:15:00,METAR KBGE 042115Z AUTO 22010KT VCTS 20/19 A3018 RMK AO2 LTG DSNT ALQDS P0041 PWINO T0198////,0,10,0,,1,0,0,"DS,TS,VC"
2026-04-04 20:55:00,METAR KBGE 042055Z AUTO 25020G29KT TS 22/20 A3017 RMK AO2 LTG DSNT ALQDS P0002 PWINO T02160205 60006,0,20,1,,1,0,0,"DS,TS"
2026-04-04 20:35:00,METAR KBGE 042035Z AUTO 10009KT VCTS 21/20 A3014 RMK AO2 LTG DSNT ALQDS PWINO T02150200,0,9,0,,1,0,0,"DS,TS,VC"
2026-04-04 20:15:00,METAR KBGE 042015Z AUTO 09015KT 22/22 A3014 RMK AO2 LTG DSNT E AND NW PWINO T02190216,0,15,0,,0,0,0,DS
2026-04-04 19:55:00,METAR KBGE 041955Z AUTO 07019KT BKN042 OVC050 23/22 A3014 RMK AO2 LTG DSNT E AND W P0003 PWINO T02340217,0,19,0,,0,0,0,DS
2026-04-04 19:35:00,METAR KBGE 041935Z AUTO 04009KT SCT039 BKN048 BKN060 24/21 A3014 RMK AO2 LTG DSNT E AND NW P0003 PWINO T02430214,0,9,0,,0,0,0,DS
2026-04-04 19:15:00,METAR KBGE 041915Z AUTO 04003KT SCT033 BKN046 OVC055 25/22 A3016 RMK AO2 LTG DSNT NW THRU NE P0003 PWINO T02480215,0,3,0,,0,0,0,DS
2026-04-04 18:55:00,METAR KBGE 041855Z AUTO 13006KT BKN040 BKN047 OVC070 25/23 A3016 RMK AO2 PWINO T02530226,0,6,0,,0,0,0,
2026-04-04 18:35:00,METAR KBGE 041835Z AUTO 05006KT SCT036 BKN042 OVC090 26/21 A3017 RMK AO2 PWINO T02610213,0,6,0,,0,0,0,
2026-04-04 18:15:00,METAR KBGE 041815Z AUTO 10005KT BKN038 BKN046 OVC060 27/21 A3018 RMK AO2 PWINO T02690212,0,5,0,,0,0,0,
2026-04-04 17:55:00,METAR KBGE 041755Z AUTO 10005KT SCT042 BKN070 OVC090 26/22 A3019 RMK AO2 P0001 PWINO T02640218 10285 20177 60001,0,5,0,,0,0,0,
2026-04-04 17:35:00,METAR KBGE 041735Z AUTO 14005KT SCT036 SCT050 BKN070 27/20 A3020 RMK AO2 PWINO T02700202,0,5,0,,0,0,0,
2026-04-04 17:15:00,METAR KBGE 041715Z AUTO 15006KT SCT031 SCT038 BKN050 27/21 A3020 RMK AO2 PWINO T02710206,0,6,0,,0,0,0,
2026-04-04 16:55:00,METAR KBGE 041655Z AUTO 13006KT BKN029 BKN038 BKN045 27/21 A3021 RMK AO2 PWINO T02740208,0,6,0,,0,0,0,
2026-04-04 16:35:00,METAR KBGE 041635Z AUTO 15005KT SCT029 27/21 A3021 RMK AO2 PWINO T02710207,0,5,0,,0,0,0,
2026-04-04 16:15:00,METAR KBGE 041615Z AUTO 15006KT SCT025 27/21 A3022 RMK AO2 PWINO T02670215,0,6,0,,0,0,0,
2026-04-04 15:55:00,METAR KBGE 041555Z AUTO 14009KT SCT020 26/21 A3022 RMK AO2 PWINO T02630212,0,9,0,,0,0,0,
2026-04-04 15:35:00,METAR KBGE 041535Z AUTO 17009KT SCT018 25/21 A3022 RMK AO2 PWINO T02530214,0,9,0,,0,0,0,
2026-04-04 15:15:00,METAR KBGE 041515Z AUTO 16009KT BKN014 25/22 A3023 RMK AO2 PWINO T02460216,0,9,0,,0,0,0,
2026-04-04 14:55:00,METAR KBGE 041455Z AUTO 16010KT OVC014 24/22 A3023 RMK AO2 PWINO T02390215,0,10,0,,0,0,0,
2026-04-04 14:35:00,METAR KBGE 041435Z AUTO 15008KT OVC010 23/22 A3023 RMK AO2 PWINO T02310221,0,8,0,,0,0,0,
2026-04-04 14:15:00,METAR KBGE 041415Z AUTO 14006KT OVC006 22/22 A3023 RMK AO2 PWINO T02210219,0,6,0,,0,0,0,
2026-04-04 13:55:00,METAR KBGE 041355Z AUTO 15007KT OVC006 21/ A3024 RMK AO2 PWINO T0211////,0,7,0,,0,0,0,
2026-04-04 13:35:00,METAR KBGE 041335Z AUTO 15007KT OVC006 20/ A3024 RMK AO2 PWINO T0202////,0,7,0,,0,0,0,
2026-04-04 13:15:00,METAR KBGE 041315Z AUTO 13006KT OVC006 19/ A3024 RMK AO2 PWINO T0194////,0,6,0,,0,0,0,
2026-04-04 12:55:00,METAR KBGE 041255Z AUTO 12004KT BKN008 OVC034 19/ A3024 RMK AO2 PWINO T0193////,0,4,0,,0,0,0,
2026-04-04 12:35:00,METAR KBGE 041235Z AUTO 09004KT 19/ A3023 RMK AO2 PWINO T0191////,0,4,0,,0,0,0,
2026-04-04 12:15:00,METAR KBGE 041215Z AUTO 08003KT 18/ A3023 RMK AO2 PWINO T0183////,0,3,0,,0,0,0,
2026-04-04 11:55:00,METAR KBGE 041155Z AUTO 09004KT 18/ A3022 RMK AO2 PWINO T0176//// 10184 20172 60001 70037,0,4,0,,0,0,0,
2026-04-04 11:35:00,METAR KBGE 041135Z AUTO 11004KT 17/ A3021 RMK AO2 PWINO T0174////,0,4,0,,0,0,0,
2026-04-04 11:15:00,METAR KBGE 041115Z AUTO 10006KT 17/ A3021 RMK AO2 PWINO T0173////,0,6,0,,0,0,0,
2026-04-04 10:55:00,METAR KBGE 041055Z AUTO 08006KT 17/ A3020 RMK AO2 P0001 PWINO T0174////,0,6,0,,0,0,0,
2026-04-04 10:35:00,METAR KBGE 041035Z AUTO 07005KT 18/ A3020 RMK AO2 P0001 PWINO T0177////,0,5,0,,0,0,0,
2026-04-04 10:15:00,METAR KBGE 041015Z AUTO 07006KT 18/ A3019 RMK AO2 PWINO T0178////,0,6,0,,0,0,0,
2026-04-04 09:55:00,METAR KBGE 040955Z AUTO 06005KT 18/ A3019 RMK AO2 PWINO T0178////,0,5,0,,0,0,0,
2026-04-04 09:35:00,METAR KBGE 040935Z AUTO 06005KT 18/ A3019 RMK AO2 PWINO T0178////,0,5,0,,0,0,0,
2026-04-04 09:15:00,METAR KBGE 040915Z AUTO 05004KT 18/ A3018 RMK AO2 PWINO T0177////,0,4,0,,0,0,0,
2026-04-04 08:55:00,METAR KBGE 040855Z AUTO 03005KT 18/ A3018 RMK AO2 PWINO T0179////,0,5,0,,0,0,0,
2026-04-04 08:35:00,METAR KBGE 040835Z AUTO 00000KT 18/ A3019 RMK AO2 PWINO T0180////,0,0,0,,0,0,0,
2026-04-04 08:15:00,METAR KBGE 040815Z AUTO 09003KT 18/ A3018 RMK AO2 PWINO T0177////,0,3,0,,0,0,0,
2026-04-04 07:55:00,METAR KBGE 040755Z AUTO 12005KT 18/ A3019 RMK AO2 PWINO T0180////,0,5,0,,0,0,0,
2026-04-04 07:35:00,METAR KBGE 040735Z AUTO 13005KT 18/ A3019 RMK AO2 PWINO T0181////,0,5,0,,0,0,0,
2026-04-04 07:15:00,METAR KBGE 040715Z AUTO 13005KT 18/ A3020 RMK AO2 PWINO T0180////,0,5,0,,0,0,0,
2026-04-04 06:55:00,METAR KBGE 040655Z AUTO 11005KT 18/ A3020 RMK AO2 PWINO T0180////,0,5,0,,0,0,0,
2026-04-04 06:35:00,METAR KBGE 040635Z AUTO 09006KT 18/ A3021 RMK AO2 PWINO T0181////,0,6,0,,0,0,0,
2026-04-04 06:15:00,METAR KBGE 040615Z AUTO 09005KT 18/ A3021 RMK AO2 PWINO T0182////,0,5,0,,0,0,0,
2026-04-04 05:55:00,METAR KBGE 040555Z AUTO 09005KT 18/ A3022 RMK AO2 PWINO T0183//// 10214 20180 60003,0,5,0,,0,0,0,
2026-04-04 05:35:00,METAR KBGE 040535Z AUTO 09006KT 19/ A3022 RMK AO2 PWINO T0185////,0,6,0,,0,0,0,
2026-04-04 05:15:00,METAR KBGE 040515Z AUTO 01004KT 19/ A3022 RMK AO2 PWINO T0193////,0,4,0,,0,0,0,
2026-04-04 04:55:00,METAR KBGE 040455Z AUTO 02003KT 19/ A3023 RMK AO2 PWINO T0194////,0,3,0,,0,0,0,
2026-04-04 04:35:00,METAR KBGE 040435Z AUTO 34004KT 19/ A3024 RMK AO2 PWINO T0195////,0,4,0,,0,0,0,
2026-04-04 04:15:00,METAR KBGE 040415Z AUTO 00000KT 20/ A3024 RMK AO2 PWINO T0196////,0,0,0,,0,0,0,
2026-04-04 03:55:00,METAR KBGE 040355Z AUTO 00000KT 20/ A3025 RMK AO2 PWINO T0196////,0,0,0,,0,0,0,
2026-04-04 03:35:00,METAR KBGE 040335Z AUTO 06004KT BKN075 19/ A3025 RMK AO2 PWINO T0194////,0,4,0,,0,0,0,
2026-04-04 03:15:00,METAR KBGE 040315Z AUTO 09005KT 19/ A3024 RMK AO2 LTG DSNT NW PWINO T0193////,0,5,0,,0,0,0,DS
2026-04-04 02:55:00,METAR KBGE 040255Z AUTO 10003KT 20/ A3023 RMK AO2 LTG DSNT NW PWINO T0195//// 60003,0,3,0,,0,0,0,DS
2026-04-04 02:35:00,METAR KBGE 040235Z AUTO 10005KT 20/ A3023 RMK AO2 LTG DSNT NW PWINO T0196////,0,5,0,,0,0,0,DS
2026-04-04 02:15:00,METAR KBGE 040215Z AUTO 09007KT VCTS BKN039 BKN047 BKN120 20/ A3022 RMK AO2 LTG DSNT NW PWINO T0201////,0,7,0,,1,0,0,"DS,TS,VC"
2026-04-04 01:55:00,METAR KBGE 040155Z AUTO 08007KT 20/ A3022 RMK AO2 LTG DSNT NW PWINO T0202////,0,7,0,,0,0,0,DS
2026-04-04 01:35:00,METAR KBGE 040135Z AUTO 08008KT 20/ A3022 RMK AO2 PWINO T0204////,0,8,0,,0,0,0,
2026-04-04 01:15:00,METAR KBGE 040115Z AUTO 08007KT BKN042 BKN055 OVC095 20/ A3021 RMK AO2 PWINO T0204////,0,7,0,,0,0,0,
2026-04-04 00:55:00,METAR KBGE 040055Z AUTO 07005KT 20/ A3020 RMK AO2 P0003 PWINO T0204////,0,5,0,,0,0,0,
2026-04-04 00:35:00,METAR KBGE 040035Z AUTO 07009KT TS 20/ A3020 RMK AO2 LTG DSNT N AND NE P0002 PWINO T0205////,0,9,0,,1,0,0,"DS,TS"
2026-04-04 00:15:00,METAR KBGE 040015Z AUTO 07012KT VCTS OVC037 21/ A3018 RMK AO2 LTG DSNT NE PWINO T0208////,0,12,0,,1,0,0,"DS,TS,VC"
2026-04-03 23:55:00,METAR KBGE 032355Z AUTO 08012KT BKN039 OVC046 22/21 A3018 RMK AO2 LTG DSNT N AND NE P0004 PWINO T02150213 10296 20215 402960162 60033,0,12,0,,0,0,0,DS
2026-04-03 23:35:00,METAR KBGE 032335Z AUTO 11007KT BKN045 BKN110 22/ A3018 RMK AO2 LTG DSNT N PWINO T0218////,0,7,0,,0,0,0,DS
2026-04-03 23:15:00,METAR KBGE 032315Z AUTO 03003KT BKN120 22/22 A3016 RMK AO2 LTG DSNT NW THRU E PWINO T02230218,0,3,0,,0,0,0,DS
2026-04-03 22:55:00,METAR KBGE 032255Z AUTO 34006KT VCTS OVC110 22/22 A3017 RMK AO2 LTG DSNT N THRU E P0021 PWINO T02240216,0,6,0,,1,0,0,"DS,TS,VC"
2026-04-03 22:35:00,METAR KBGE 032235Z AUTO 31004KT VCTS 22/22 A3017 RMK AO2 LTG DSNT N AND E P0021 PWINO T02220215,0,4,0,,1,0,0,"DS,TS,VC"
2026-04-03 22:15:00,METAR KBGE 032215Z AUTO 35005KT VCTS 22/22 A3017 RMK AO2 LTG DSNT NW THRU E P0021 PWINO T02190216,0,5,0,,1,0,0,"DS,TS,VC"
2026-04-03 21:55:00,METAR KBGE 032155Z AUTO 28011KT 22/22 A3017 RMK AO2 LTG DSNT E P0008 PWINO T02240218,0,11,0,,0,0,0,DS
2026-04-03 21:35:00,METAR KBGE 032135Z AUTO 26012KT SCT050 SCT065 OVC100 24/22 A3016 RMK AO2 LTG DSNT N PWINO T02430219,0,12,0,,0,0,0,DS
2026-04-03 21:15:00,METAR KBGE 032115Z AUTO 31008KT VCTS SCT050 BKN070 BKN085 27/19 A3015 RMK AO2 LTG DSNT SW AND W PWINO T02700193,0,8,0,,1,0,0,"DS,TS,VC"
2026-04-03 20:55:00,METAR KBGE 032055Z AUTO 31011KT BKN050 BKN070 28/19 A3015 RMK AO2 LTG DSNT SE PWINO T02750188,0,11,0,,0,0,0,DS
2026-04-03 20:35:00,METAR KBGE 032035Z AUTO 00000KT BKN050 BKN060 BKN120 29/17 A3016 RMK AO2 LTG DSNT SE AND W PWINO T02870169,0,0,0,,0,0,0,DS
2026-04-03 20:15:00,METAR KBGE 032015Z AUTO 20005KT SCT050 SCT065 SCT110 28/18 A3016 RMK AO2 LTG DSNT E SW AND W PWINO T02850181,0,5,0,,0,0,0,DS
2026-04-03 19:55:00,METAR KBGE 031955Z AUTO 15005KT SCT048 SCT065 BKN110 28/18 A3017 RMK AO2 LTG DSNT SE AND NW PWINO T02850181,0,5,0,,0,0,0,DS
2026-04-03 19:35:00,METAR KBGE 031935Z AUTO 18007KT SCT047 SCT055 BKN065 29/18 A3018 RMK AO2 PWINO T02860176,0,7,0,,0,0,0,
2026-04-03 19:15:00,METAR KBGE 031915Z AUTO 10004KT BKN060 BKN070 BKN110 28/18 A3019 RMK AO2 LTG DSNT NE PWINO T02830182,0,4,0,,0,0,0,DS
2026-04-03 18:55:00,METAR KBGE 031855Z AUTO 13006KT SCT050 SCT060 BKN080 29/19 A3020 RMK AO2 PWINO T02900187,0,6,0,,0,0,0,
2026-04-03 18:35:00,METAR KBGE 031835Z AUTO 24005KT SCT040 SCT046 BKN070 28/19 A3020 RMK AO2 LTG DSNT SE PWINO T02790190,0,5,0,,0,0,0,DS
2026-04-03 18:15:00,METAR KBGE 031815Z AUTO 11004KT BKN040 BKN047 BKN085 28/19 A3021 RMK AO2 PWINO T02750188,0,4,0,,0,0,0,
2026-04-03 17:55:00,METAR KBGE 031755Z AUTO 13004KT SCT036 SCT046 SCT080 28/19 A3022 RMK AO2 PWINO T02820191 10284 20182,0,4,0,,0,0,0,
2026-04-03 17:35:00,METAR KBGE 031735Z AUTO 11005KT SCT034 SCT041 SCT070 28/20 A3023 RMK AO2 PWINO T02770196,0,5,0,,0,0,0,
2026-04-03 17:15:00,METAR KBGE 031715Z AUTO 20006KT BKN031 BKN042 BKN070 28/20 A3023 RMK AO2 PWINO T02760200,0,6,0,,0,0,0,
2026-04-03 16:55:00,METAR KBGE 031655Z AUTO 20006KT BKN031 BKN035 BKN055 27/20 A3024 RMK AO2 PWINO T02670199,0,6,0,,0,0,0,
2026-04-03 16:35:00,METAR KBGE 031635Z AUTO 17006KT BKN028 BKN055 26/20 A3025 RMK AO2 PWINO T02620197,0,6,0,,0,0,0,
2026-04-03 16:15:00,METAR KBGE 031615Z AUTO 17010KT BKN028 26/20 A3025 RMK AO2 PWINO T02620199,0,10,0,,0,0,0,
2026-04-03 15:55:00,METAR KBGE 031555Z AUTO 14010KT OVC026 26/20 A3026 RMK AO2 PWINO T02640202,0,10,0,,0,0,0,
2026-04-03 15:35:00,METAR KBGE 031535Z AUTO 15010KT OVC022 25/20 A3026 RMK AO2 PWINO T02550203,0,10,0,,0,0,0,
2026-04-03 15:15:00,METAR KBGE 031515Z AUTO 14011KT OVC020 25/20 A3026 RMK AO2 PWINO T02470204,0,11,0,,0,0,0,
2026-04-03 14:55:00,METAR KBGE 031455Z AUTO 14011KT OVC018 24/20 A3026 RMK AO2 PWINO T02420204,0,11,0,,0,0,0,
2026-04-03 14:35:00,METAR KBGE 031435Z AUTO 16009KT OVC016 24/21 A3026 RMK AO2 PWINO T02390207,0,9,0,,0,0,0,
2026-04-03 14:15:00,METAR KBGE 031415Z AUTO 12008KT OVC014 23/20 A3026 RMK AO2 PWINO T02300205,0,8,0,,0,0,0,
2026-04-03 13:55:00,METAR KBGE 031355Z AUTO 14008KT BKN014 OVC022 22/20 A3025 RMK AO2 LTG DSNT S PWINO T02210201,0,8,0,,0,0,0,DS
2026-04-03 13:35:00,METAR KBGE 031335Z AUTO 12007KT 21/19 A3025 RMK AO2 LTG DSNT SE PWINO T02090193,0,7,0,,0,0,0,DS
2026-04-03 13:15:00,METAR KBGE 031315Z AUTO 09007KT OVC016 20/19 A3025 RMK AO2 PWINO T02020189,0,7,0,,0,0,0,
2026-04-03 12:55:00,METAR KBGE 031255Z AUTO 08006KT OVC018 20/19 A3024 RMK AO2 PWINO T01960187,0,6,0,,0,0,0,
2026-04-03 12:35:00,METAR KBGE 031235Z AUTO 07006KT BKN020 BKN080 19/18 A3024 RMK AO2 PWINO T01880182,0,6,0,,0,0,0,
2026-04-03 12:15:00,METAR KBGE 031215Z AUTO 07006KT 18/18 A3023 RMK AO2 PWINO T01830181,0,6,0,,0,0,0,
2026-04-03 11:55:00,METAR KBGE 031155Z AUTO 06005KT 18/18 A3022 RMK AO2 PWINO T01820181 10195 20162,0,5,0,,0,0,0,
2026-04-03 11:35:00,METAR KBGE 031135Z AUTO 08006KT 18/18 A3022 RMK AO2 PWINO T0184////,0,6,0,,0,0,0,
2026-04-03 11:15:00,METAR KBGE 031115Z AUTO 07004KT OVC013 18/18 A3022 RMK AO2 LTG DSNT SE PWINO T01830182,0,4,0,,0,0,0,DS
2026-04-03 06:15:00,METAR KBGE 030615Z AUTO 00000KT 19/16 A3019 RMK AO2 PWINO T01890164,0,0,0,,0,0,0,
2026-04-03 05:55:00,METAR KBGE 030555Z AUTO 00000KT CLR 19/16 A3019 RMK AO2 PWINO T01930162 10261 20182,0,0,0,,0,0,0,
2026-04-03 05:35:00,METAR KBGE 030535Z AUTO 16004KT CLR 20/16 A3019 RMK AO2 PWINO T01970162,0,4,0,,0,0,0,
2026-04-03 05:15:00,METAR KBGE 030515Z AUTO 17004KT CLR 20/16 A3019 RMK AO2 PWINO T01990161,0,4,0,,0,0,0,
2026-04-03 04:55:00,METAR KBGE 030455Z AUTO 15006KT CLR 20/16 A3019 RMK AO2 PWINO T02010160,0,6,0,,0,0,0,
2026-04-03 04:35:00,METAR KBGE 030435Z AUTO 15007KT CLR 20/16 A3019 RMK AO2 PWINO T02010159,0,7,0,,0,0,0,
2026-04-03 04:15:00,METAR KBGE 030415Z AUTO 14008KT CLR 20/16 A3019 RMK AO2 PWINO T02050158,0,8,0,,0,0,0,
2026-04-03 03:55:00,METAR KBGE 030355Z AUTO 11007G15KT CLR 19/16 A3019 RMK AO2 PWINO T01870163,0,7,1,,0,0,0,
2026-04-03 03:35:00,METAR KBGE 030335Z AUTO 00000KT 19/17 A3017 RMK AO2 PWINO T01930170,0,0,0,,0,0,0,
2026-04-03 03:15:00,METAR KBGE 030315Z AUTO 00000KT CLR 21/16 A3016 RMK AO2 PWINO T02070162,0,0,0,,0,0,0,
2026-04-03 02:55:00,METAR KBGE 030255Z AUTO 00000KT CLR 21/17 A3017 RMK AO2 PWINO T02090166,0,0,0,,0,0,0,
2026-04-03 02:35:00,METAR KBGE 030235Z AUTO 19003KT CLR 21/16 A3017 RMK AO2 PWINO T02140159,0,3,0,,0,0,0,
2026-04-03 02:15:00,METAR KBGE 030215Z AUTO 17005KT CLR 21/17 A3017 RMK AO2 PWINO T02080172,0,5,0,,0,0,0,
2026-04-03 01:55:00,METAR KBGE 030155Z AUTO 15003KT SCT100 21/18 A3017 RMK AO2 PWINO T02100179,0,3,0,,0,0,0,
2026-04-03 01:35:00,METAR KBGE 030135Z AUTO 16003KT OVC100 24/15 A3016 RMK AO2 PWINO T02360153,0,3,0,,0,0,0,
2026-04-03 01:15:00,METAR KBGE 030115Z AUTO 18003KT SCT070 OVC100 24/15 A3015 RMK AO2 PWINO T02450150,0,3,0,,0,0,0,
2026-04-03 00:55:00,METAR KBGE 030055Z AUTO 00000KT BKN080 BKN100 24/15 A3015 RMK AO2 PWINO T02430149,0,0,0,,0,0,0,
2026-04-03 00:35:00,METAR KBGE 030035Z AUTO 11003KT SCT080 SCT100 24/15 A3014 RMK AO2 PWINO T02370153,0,3,0,,0,0,0,
2026-04-03 00:15:00,METAR KBGE 030015Z AUTO 14003KT SCT070 BKN100 25/15 A3013 RMK AO2 PWINO T02510146,0,3,0,,0,0,0,
2026-04-02 23:55:00,METAR KBGE 022355Z AUTO 17005KT SCT070 BKN080 BKN090 26/14 A3013 RMK AO2 PWINO T02630144 10296 20260 402960165,0,5,0,,0,0,0,
2026-04-02 23:35:00,METAR KBGE 022335Z AUTO 16004KT SCT065 BKN090 26/14 A3013 RMK AO2 PWINO T02630141,0,4,0,,0,0,0,
2026-04-02 23:15:00,METAR KBGE 022315Z AUTO 15004KT SCT065 BKN090 27/14 A3012 RMK AO2 PWINO T02740141,0,4,0,,0,0,0,
2026-04-02 22:55:00,METAR KBGE 022255Z AUTO 15008KT SCT065 BKN090 28/13 A3012 RMK AO2 PWINO T02810134,0,8,0,,0,0,0,
2026-04-02 22:35:00,METAR KBGE 022235Z AUTO 11005KT BKN065 BKN075 28/14 A3012 RMK AO2 PWINO T02810139,0,5,0,,0,0,0,
2026-04-02 22:15:00,METAR KBGE 022215Z AUTO 22005KT SCT065 28/14 A3012 RMK AO2 PWINO T02850137,0,5,0,,0,0,0,
2026-04-02 21:55:00,METAR KBGE 022155Z AUTO 14003KT SCT065 SCT090 28/14 A3011 RMK AO2 PWINO T02780141,0,3,0,,0,0,0,
2026-04-02 21:35:00,METAR KBGE 022135Z AUTO 14007KT SCT065 28/14 A3012 RMK AO2 PWINO T02790136,0,7,0,,0,0,0,
2026-04-02 21:15:00,METAR KBGE 022115Z AUTO 13009KT SCT065 SCT075 29/14 A3012 RMK AO2 PWINO T02880138,0,9,0,,0,0,0,
2026-04-02 20:55:00,METAR KBGE 022055Z AUTO 15006KT SCT075 28/13 A3012 RMK AO2 PWINO T02800134,0,6,0,,0,0,0,
2026-04-02 20:35:00,METAR KBGE 022035Z AUTO 16007KT CLR 29/14 A3013 RMK AO2 PWINO T02880140,0,7,0,,0,0,0,
2026-04-02 20:15:00,METAR KBGE 022015Z AUTO 14008KT SCT065 SCT085 29/14 A3013 RMK AO2 PWINO T02850136,0,8,0,,0,0,0,
2026-04-02 19:55:00,METAR KBGE 021955Z AUTO 11004KT SCT065 SCT085 29/14 A3014 RMK AO2 PWINO T02880139,0,4,0,,0,0,0,
2026-04-02 19:35:00,METAR KBGE 021935Z AUTO 15006KT SCT075 SCT085 29/14 A3015 RMK AO2 PWINO T02860140,0,6,0,,0,0,0,
2026-04-02 19:15:00,METAR KBGE 021915Z AUTO 14007KT 100V160 BKN070 28/14 A3015 RMK AO2 PWINO T02850143,0,7,0,,0,0,0,
2026-04-02 18:55:00,METAR KBGE 021855Z AUTO 15006KT SCT060 BKN080 27/14 A3016 RMK AO2 PWINO T02750141,0,6,0,,0,0,0,
2026-04-02 18:35:00,METAR KBGE 021835Z AUTO 11007KT 070V150 SCT060 SCT070 SCT080 28/14 A3016 RMK AO2 PWINO T02850140,0,7,0,,0,0,0,
2026-04-02 18:15:00,METAR KBGE 021815Z AUTO 17005G15KT SCT050 SCT070 28/15 A3018 RMK AO2 PWINO T02800154,0,5,1,,0,0,0,
2026-04-02 17:55:00,METAR KBGE 021755Z AUTO 11006KT SCT048 SCT060 28/15 A3019 RMK AO2 PWINO T02830148 10287 20174,0,6,0,,0,0,0,
2026-04-02 17:35:00,METAR KBGE 021735Z AUTO 12007KT BKN044 28/16 A3020 RMK AO2 PWINO T02770159,0,7,0,,0,0,0,
2026-04-02 17:15:00,METAR KBGE 021715Z AUTO 15008KT SCT042 BKN050 28/17 A3020 RMK AO2 PWINO T02760168,0,8,0,,0,0,0,
2026-04-02 16:55:00,METAR KBGE 021655Z AUTO 10006KT SCT040 26/17 A3021 RMK AO2 PWINO T02620166,0,6,0,,0,0,0,
2026-04-02 16:35:00,METAR KBGE 021635Z AUTO 14005KT SCT036 26/17 A3022 RMK AO2 PWINO T02640175,0,5,0,,0,0,0,
2026-04-02 16:15:00,METAR KBGE 021615Z AUTO 15009KT SCT036 26/17 A3023 RMK AO2 PWINO T02600173,0,9,0,,0,0,0,
2026-04-02 15:55:00,METAR KBGE 021555Z AUTO 14009KT CLR 26/17 A3023 RMK AO2 PWINO T02600170,0,9,0,,0,0,0,
2026-04-02 15:35:00,METAR KBGE 021535Z AUTO 14010KT SCT029 26/18 A3023 RMK AO2 PWINO T02580176,0,10,0,,0,0,0,
2026-04-02 15:15:00,METAR KBGE 021515Z AUTO 15007KT CLR 25/18 A3024 RMK AO2 PWINO T02500179,0,7,0,,0,0,0,
2026-04-02 14:55:00,METAR KBGE 021455Z AUTO 16009KT CLR 24/18 A3023 RMK AO2 PWINO T02430179,0,9,0,,0,0,0,
2026-04-02 14:35:00,METAR KBGE 021435Z AUTO 16009KT CLR 24/18 A3022 RMK AO2 PWINO T02400180,0,9,0,,0,0,0,
2026-04-02 14:15:00,METAR KBGE 021415Z AUTO 16011KT CLR 23/18 A3022 RMK AO2 PWINO T02300178,0,11,0,,0,0,0,
2026-04-02 13:55:00,METAR KBGE 021355Z AUTO 17011KT CLR 22/19 A3021 RMK AO2 PWINO T02230185,0,11,0,,0,0,0,
2026-04-02 13:35:00,METAR KBGE 021335Z AUTO 16008KT 21/19 A3021 RMK AO2 PWINO T02130188,0,8,0,,0,0,0,
2026-04-02 13:15:00,METAR KBGE 021315Z AUTO 14008KT 20/19 A3020 RMK AO2 PWINO T02020188,0,8,0,,0,0,0,
2026-04-02 12:55:00,METAR KBGE 021255Z AUTO 13007KT 19/18 A3020 RMK AO2 PWINO T01930184,0,7,0,,0,0,0,
2026-04-02 12:35:00,METAR KBGE 021235Z AUTO 13007KT 19/18 A3020 RMK AO2 PWINO T01880182,0,7,0,,0,0,0,
2026-04-02 12:15:00,METAR KBGE 021215Z AUTO 13005KT 18/ A3019 RMK AO2 PWINO T0181////,0,5,0,,0,0,0,
2026-04-02 11:55:00,METAR KBGE 021155Z AUTO 14006KT 17/ A3018 RMK AO2 PWINO T0172//// 10189 20165,0,6,0,,0,0,0,
2026-04-02 11:35:00,METAR KBGE 021135Z AUTO 13005KT 17/17 A3018 RMK AO2 PWINO T0170////,0,5,0,,0,0,0,
2026-04-02 11:15:00,METAR KBGE 021115Z AUTO 15004KT 18/17 A3017 RMK AO2 PWINO T01760173,0,4,0,,0,0,0,
2026-04-02 10:55:00,METAR KBGE 021055Z AUTO 16004KT 18/17 A3016 RMK AO2 PWINO T01770175,0,4,0,,0,0,0,
2026-04-02 10:35:00,METAR KBGE 021035Z AUTO 15007KT 18/18 A3014 RMK AO2 PWINO T01820177,0,7,0,,0,0,0,
2026-04-02 10:15:00,METAR KBGE 021015Z AUTO 16008KT 18/18 A3013 RMK AO2 PWINO T01800178,0,8,0,,0,0,0,
2026-04-02 09:55:00,METAR KBGE 020955Z AUTO 15006KT 18/ A3013 RMK AO2 PWINO T0176////,0,6,0,,0,0,0,
2026-04-02 09:35:00,METAR KBGE 020935Z AUTO 15004KT 17/ A3013 RMK AO2 PWINO T0173////,0,4,0,,0,0,0,
2026-04-02 09:15:00,METAR KBGE 020915Z AUTO 14005KT 17/ A3012 RMK AO2 PWINO T0174////,0,5,0,,0,0,0,
2026-04-02 08:55:00,METAR KBGE 020855Z AUTO 14005KT 17/ A3012 RMK AO2 PWINO T0171////,0,5,0,,0,0,0,
2026-04-02 08:35:00,METAR KBGE 020835Z AUTO 14003KT 18/ A3012 RMK AO2 PWINO T0177////,0,3,0,,0,0,0,
2026-04-02 08:15:00,METAR KBGE 020815Z AUTO 12005KT 17/ A3012 RMK AO2 PWINO T0173////,0,5,0,,0,0,0,
2026-04-02 07:55:00,METAR KBGE 020755Z AUTO 13004KT 17/ A3012 RMK AO2 PWINO T0171////,0,4,0,,0,0,0,
2026-04-02 07:35:00,METAR KBGE 020735Z AUTO 11004KT BKN055 17/ A3012 RMK AO2 PWINO T0171////,0,4,0,,0,0,0,
2026-04-02 07:15:00,METAR KBGE 020715Z AUTO 10004KT OVC055 17/ A3013 RMK AO2 PWINO T0172////,0,4,0,,0,0,0,
2026-04-02 06:55:00,METAR KBGE 020655Z AUTO 11003KT 17/ A3013 RMK AO2 PWINO T0174////,0,3,0,,0,0,0,
2026-04-02 06:35:00,METAR KBGE 020635Z AUTO 13003KT 18/ A3014 RMK AO2 PWINO T0176////,0,3,0,,0,0,0,
2026-04-02 06:15:00,METAR KBGE 020615Z AUTO 11003KT 18/ A3014 RMK AO2 PWINO T0183////,0,3,0,,0,0,0,
2026-04-02 05:55:00,METAR KBGE 020555Z AUTO 00000KT 19/ A3014 RMK AO2 PWINO T0190//// 10219 20185,0,0,0,,0,0,0,
2026-04-02 05:35:00,METAR KBGE 020535Z AUTO 00000KT 19/ A3015 RMK AO2 PWINO T0186////,0,0,0,,0,0,0,
2026-04-02 05:15:00,METAR KBGE 020515Z AUTO 14003KT 19/19 A3016 RMK AO2 PWINO T01910190,0,3,0,,0,0,0,
2026-04-02 04:55:00,METAR KBGE 020455Z AUTO 13003KT 19/19 A3017 RMK AO2 PWINO T01930189,0,3,0,,0,0,0,
2026-04-02 04:35:00,METAR KBGE 020435Z AUTO 12004KT OVC065 19/19 A3017 RMK AO2 PWINO T01940191,0,4,0,,0,0,0,
2026-04-02 04:15:00,METAR KBGE 020415Z AUTO 11003KT BKN065 19/19 A3017 RMK AO2 PWINO T01930188,0,3,0,,0,0,0,
2026-04-02 03:55:00,METAR KBGE 020355Z AUTO 00000KT 19/19 A3017 RMK AO2 PWINO T01950187,0,0,0,,0,0,0,
2026-04-02 03:35:00,METAR KBGE 020335Z AUTO 02004KT 20/19 A3017 RMK AO2 PWINO T02020187,0,4,0,,0,0,0,
2026-04-02 03:15:00,METAR KBGE 020315Z AUTO 03005KT 20/19 A3017 RMK AO2 PWINO T02030187,0,5,0,,0,0,0,
2026-04-02 02:55:00,METAR KBGE 020255Z AUTO 03004KT 21/19 A3018 RMK AO2 PWINO T02060186,0,4,0,,0,0,0,
2026-04-02 02:35:00,METAR KBGE 020235Z AUTO 03005KT BKN090 BKN110 21/19 A3018 RMK AO2 LTG DSNT NE PWINO T02070186,0,5,0,,0,0,0,DS
2026-04-02 02:15:00,METAR KBGE 020215Z AUTO 03004KT SCT095 21/18 A3018 RMK AO2 LTG DSNT NE PWINO T02090181,0,4,0,,0,0,0,DS
2026-04-02 01:55:00,METAR KBGE 020155Z AUTO 36003KT 20/19 A3016 RMK AO2 LTG DSNT NE PWINO T02030191,0,3,0,,0,0,0,DS
2026-04-02 01:35:00,METAR KBGE 020135Z AUTO 00000KT CLR 21/18 A3015 RMK AO2 LTG DSNT NE PWINO T02090183,0,0,0,,0,0,0,DS
2026-04-02 01:15:00,METAR KBGE 020115Z AUTO 00000KT CLR 21/18 A3014 RMK AO2 PWINO T02090184,0,0,0,,0,0,0,
2026-04-02 00:55:00,METAR KBGE 020055Z AUTO 25003KT CLR 21/18 A3014 RMK AO2 PWINO T02110185,0,3,0,,0,0,0,
2026-04-02 00:35:00,METAR KBGE 020035Z AUTO 28005KT SCT100 22/19 A3014 RMK AO2 PWINO T02160187,0,5,0,,0,0,0,
2026-04-02 00:15:00,METAR KBGE 020015Z AUTO 30004KT 22/19 A3014 RMK AO2 PWINO T02170193,0,4,0,,0,0,0,
2026-04-01 23:55:00,METAR KBGE 012355Z AUTO 29007KT CLR 22/18 A3013 RMK AO2 LTG DSNT NW THRU E PWINO T02200182 10299 20219 402990149,0,7,0,,0,0,0,DS
2026-04-01 23:35:00,METAR KBGE 012335Z AUTO 25008KT CLR 22/18 A3013 RMK AO2 LTG DSNT N PWINO T02240178,0,8,0,,0,0,0,DS
2026-04-01 23:15:00,METAR KBGE 012315Z AUTO 26008KT CLR 23/18 A3013 RMK AO2 PWINO T02300181,0,8,0,,0,0,0,
2026-04-01 22:55:00,METAR KBGE 012255Z AUTO 26007KT CLR 24/18 A3013 RMK AO2 LTG DSNT N AND NW PWINO T02370179,0,7,0,,0,0,0,DS
2026-04-01 22:35:00,METAR KBGE 012235Z AUTO 24008KT SCT085 24/17 A3013 RMK AO2 LTG DSNT N AND NW PWINO T02430170,0,8,0,,0,0,0,DS
2026-04-01 22:15:00,METAR KBGE 012215Z AUTO 23010KT CLR 25/17 A3013 RMK AO2 LTG DSNT N AND NW PWINO T02480173,0,10,0,,0,0,0,DS
2026-04-01 21:55:00,METAR KBGE 012155Z AUTO 22013G16KT SCT075 SCT080 26/17 A3012 RMK AO2 LTG DSNT W THRU E PWINO T02580173,0,13,1,,0,0,0,DS
2026-04-01 21:35:00,METAR KBGE 012135Z AUTO 16007KT SCT060 SCT075 SCT120 27/17 A3011 RMK AO2 LTG DSNT W PWINO T02720166,0,7,0,,0,0,0,DS
2026-04-01 21:15:00,METAR KBGE 012115Z AUTO 18009KT SCT060 29/16 A3011 RMK AO2 LTG DSNT SW THRU N PWINO T02930162,0,9,0,,0,0,0,DS
2026-04-01 20:55:00,METAR KBGE 012055Z AUTO 17007KT CLR 29/16 A3011 RMK AO2 LTG DSNT S AND W PWINO T02900163,0,7,0,,0,0,0,DS
2026-04-01 20:35:00,METAR KBGE 012035Z AUTO 29004KT SCT050 SCT065 SCT110 28/18 A3012 RMK AO2 LTG DSNT S PWINO T02840181,0,4,0,,0,0,0,DS
2026-04-01 20:15:00,METAR KBGE 012015Z AUTO 26004KT VCTS SCT055 SCT065 OVC090 27/19 A3013 RMK AO2 LTG DSNT W PWINO T02700191,0,4,0,,1,0,0,"DS,TS,VC"
2026-04-01 19:55:00,METAR KBGE 011955Z AUTO 26005KT SCT050 SCT065 OVC100 26/19 A3015 RMK AO2 LTG DSNT N AND SW PWINO T02590187,0,5,0,,0,0,0,DS
2026-04-01 19:35:00,METAR KBGE 011935Z AUTO 18007KT SCT050 BKN060 OVC100 27/17 A3016 RMK AO2 PWINO T02710172,0,7,0,,0,0,0,
2026-04-01 19:15:00,METAR KBGE 011915Z AUTO 17003KT BKN050 BKN065 BKN080 28/17 A3017 RMK AO2 PWINO T02760170,0,3,0,,0,0,0,
2026-04-01 18:55:00,METAR KBGE 011855Z AUTO 00000KT CLR 27/17 A3018 RMK AO2 LTG DSNT W PWINO T02740168,0,0,0,,0,0,0,DS
2026-04-01 18:35:00,METAR KBGE 011835Z AUTO 15005KT SCT049 SCT065 28/17 A3019 RMK AO2 LTG DSNT NW PWINO T02780170,0,5,0,,0,0,0,DS
2026-04-01 18:15:00,METAR KBGE 011815Z AUTO 00000KT SCT060 27/16 A3020 RMK AO2 PWINO T02740165,0,0,0,,0,0,0,
2026-04-01 17:55:00,METAR KBGE 011755Z AUTO 00000KT CLR 28/17 A3021 RMK AO2 PWINO T02840168 10292 20150,0,0,0,,0,0,0,
2026-04-01 17:35:00,METAR KBGE 011735Z AUTO 11007KT 060V130 CLR 29/17 A3022 RMK AO2 PWINO T02900175,0,7,0,,0,0,0,
2026-04-01 17:15:00,METAR KBGE 011715Z AUTO 11006KT CLR 27/17 A3023 RMK AO2 PWINO T02720168,0,6,0,,0,0,0,
2026-04-01 16:55:00,METAR KBGE 011655Z AUTO 13006KT CLR 28/18 A3024 RMK AO2 PWINO T02770179,0,6,0,,0,0,0,
2026-04-01 16:35:00,METAR KBGE 011635Z AUTO 14003KT CLR 27/18 A3025 RMK AO2 PWINO T02670183,0,3,0,,0,0,0,
2026-04-01 16:15:00,METAR KBGE 011615Z AUTO 11006KT CLR 26/19 A3025 RMK AO2 LTG DSNT W PWINO T02630186,0,6,0,,0,0,0,DS
2026-04-01 15:55:00,METAR KBGE 011555Z AUTO 16005KT CLR 26/19 A3026 RMK AO2 LTG DSNT W PWINO T02600189,0,5,0,,0,0,0,DS
2026-04-01 15:35:00,METAR KBGE 011535Z AUTO 14006KT CLR 25/19 A3026 RMK AO2 PWINO T02510186,0,6,0,,0,0,0,
2026-04-01 15:15:00,METAR KBGE 011515Z AUTO 16006KT CLR 24/19 A3026 RMK AO2 PWINO T02440194,0,6,0,,0,0,0,
2026-04-01 14:55:00,METAR KBGE 011455Z AUTO 14004KT CLR 24/20 A3026 RMK AO2 PWINO T02410197,0,4,0,,0,0,0,
2026-04-01 14:35:00,METAR KBGE 011435Z AUTO 19005KT CLR 23/19 A3026 RMK AO2 PWINO T02310191,0,5,0,,0,0,0,
2026-04-01 13:55:00,METAR KBGE 011355Z AUTO 17007KT 22/19 A3025 RMK AO2 PWINO T02180194,0,7,0,,0,0,0,
2026-04-01 13:35:00,METAR KBGE 011335Z AUTO 16005KT 20/20 A3025 RMK AO2 PWINO T02020196,0,5,0,,0,0,0,
2026-04-01 13:15:00,METAR KBGE 011315Z AUTO 15005KT 19/ A3024 RMK AO2 PWINO T0189////,0,5,0,,0,0,0,
2026-04-01 12:55:00,METAR KBGE 011255Z AUTO 14005KT 18/ A3024 RMK AO2 PWINO T0181////,0,5,0,,0,0,0,
2026-04-01 12:35:00,METAR KBGE 011235Z AUTO 14004KT 17/ A3023 RMK AO2 PWINO T0173////,0,4,0,,0,0,0,
2026-04-01 12:15:00,METAR KBGE 011215Z AUTO 12003KT 16/ A3022 RMK AO2 PWINO T0160////,0,3,0,,0,0,0,
2026-04-01 11:55:00,METAR KBGE 011155Z AUTO 11003KT 15/ A3022 RMK AO2 PWINO T0150//// 10169 20149 70052,0,3,0,,0,0,0,
2026-04-01 11:35:00,METAR KBGE 011135Z AUTO 08004KT 15/ A3020 RMK AO2 PWINO T0151////,0,4,0,,0,0,0,
2026-04-01 11:15:00,METAR KBGE 011115Z AUTO 08003KT 15/ A3019 RMK AO2 PWINO T0151////,0,3,0,,0,0,0,
2026-04-01 10:55:00,METAR KBGE 011055Z AUTO 09003KT 15/ A3019 RMK AO2 PWINO T0151////,0,3,0,,0,0,0,
2026-04-01 10:40:00,METAR KBGE 011040Z AUTO 08004KT 15/ A3019 RMK AO2 PWINO T0152////,0,4,0,,0,0,0,
2026-04-01 10:15:00,METAR KBGE 011015Z AUTO 00000KT 16/ A3018 RMK AO2 PWINO T0157////,0,0,0,,0,0,0,
2026-04-01 09:55:00,METAR KBGE 010955Z AUTO 00000KT 16/ A3017 RMK AO2 PWINO T0162////,0,0,0,,0,0,0,
2026-04-01 09:35:00,METAR KBGE 010935Z AUTO 00000KT 16/ A3017 RMK AO2 PWINO T0161////,0,0,0,,0,0,0,
2026-04-01 09:15:00,METAR KBGE 010915Z AUTO 09003KT 16/ A3017 RMK AO2 PWINO T0161////,0,3,0,,0,0,0,
2026-04-01 08:55:00,METAR KBGE 010855Z AUTO 12003KT 16/ A3016 RMK AO2 PWINO T0163////,0,3,0,,0,0,0,
2026-04-01 08:40:00,METAR KBGE 010840Z AUTO 15003KT 16/ A3017 RMK AO2 PWINO T0162////,0,3,0,,0,0,0,
2026-04-01 08:15:00,METAR KBGE 010815Z AUTO 14004KT 16/ A3016 RMK AO2 PWINO T0162////,0,4,0,,0,0,0,
2026-04-01 07:55:00,METAR KBGE 010755Z AUTO 15003KT 16/ A3016 RMK AO2 PWINO T0160////,0,3,0,,0,0,0,
2026-04-01 07:35:00,METAR KBGE 010735Z AUTO 14003KT 16/ A3016 RMK AO2 PWINO T0163////,0,3,0,,0,0,0,
2026-04-01 07:15:00,METAR KBGE 010715Z AUTO 14005KT 16/ A3017 RMK AO2 PWINO T0163////,0,5,0,,0,0,0,
2026-04-01 06:55:00,METAR KBGE 010655Z AUTO 15004KT 17/ A3018 RMK AO2 PWINO T0166////,0,4,0,,0,0,0,
2026-04-01 06:35:00,METAR KBGE 010635Z AUTO 12005KT 16/ A3018 RMK AO2 PWINO T0157////,0,5,0,,0,0,0,
2026-04-01 06:15:00,METAR KBGE 010615Z AUTO 00000KT 17/ A3018 RMK AO2 PWINO T0168////,0,0,0,,0,0,0,
2026-04-01 05:55:00,METAR KBGE 010555Z AUTO 10003KT 17/ A3018 RMK AO2 PWINO T0167//// 10201 20163 60001,0,3,0,,0,0,0,
2026-04-01 05:35:00,METAR KBGE 010535Z AUTO 11003KT 17/ A3019 RMK AO2 PWINO T0169////,0,3,0,,0,0,0,
2026-04-01 05:15:00,METAR KBGE 010515Z AUTO 15003KT 17/ A3020 RMK AO2 PWINO T0171////,0,3,0,,0,0,0,
2026-04-01 04:55:00,METAR KBGE 010455Z AUTO 14005KT 17/ A3020 RMK AO2 PWINO T0168////,0,5,0,,0,0,0,
2026-04-01 04:35:00,METAR KBGE 010435Z AUTO 14003KT 17/ A3021 RMK AO2 PWINO T0174////,0,3,0,,0,0,0,
2026-04-01 04:15:00,METAR KBGE 010415Z AUTO 00000KT 18/ A3021 RMK AO2 PWINO T0175////,0,0,0,,0,0,0,
2026-04-01 03:55:00,METAR KBGE 010355Z AUTO 09003KT 18/ A3021 RMK AO2 PWINO T0177////,0,3,0,,0,0,0,
2026-04-01 03:35:00,METAR KBGE 010335Z AUTO 07003KT 18/ A3022 RMK AO2 PWINO T0177////,0,3,0,,0,0,0,
2026-04-01 03:15:00,METAR KBGE 010315Z AUTO 00000KT 18/ A3022 RMK AO2 PWINO T0176////,0,0,0,,0,0,0,
2026-04-01 02:55:00,METAR KBGE 010255Z AUTO 00000KT 18/ A3022 RMK AO2 P0001 PWINO T0183//// 60001,0,0,0,,0,0,0,
2026-04-01 02:35:00,METAR KBGE 010235Z AUTO 00000KT 19/ A3022 RMK AO2 P0001 PWINO T0187////,0,0,0,,0,0,0,
2026-04-01 02:15:00,METAR KBGE 010215Z AUTO 26003KT 19/ A3022 RMK AO2 PWINO T0189////,0,3,0,,0,0,0,
2026-04-01 01:55:00,METAR KBGE 010155Z AUTO 31003KT 19/ A3021 RMK AO2 PWINO T0188////,0,3,0,,0,0,0,
2026-04-01 01:35:00,METAR KBGE 010135Z AUTO 32003KT 19/ A3021 RMK AO2 PWINO T0195////,0,3,0,,0,0,0,
2026-04-01 01:15:00,METAR KBGE 010115Z AUTO 05004KT 19/ A3020 RMK AO2 PWINO T0188////,0,4,0,,0,0,0,
2026-04-01 00:55:00,METAR KBGE 010055Z AUTO 31003KT 19/ A3019 RMK AO2 PWINO T0194////,0,3,0,,0,0,0,
2026-04-01 00:35:00,METAR KBGE 010035Z AUTO 22003KT 20/ A3018 RMK AO2 LTG DSNT N PWINO T0197////,0,3,0,,0,0,0,DS
2026-04-01 00:15:00,METAR KBGE 010015Z AUTO 19003KT 20/ A3018 RMK AO2 PWINO T0200////,0,3,0,,0,0,0,
2026-03-31 23:55:00,METAR KBGE 312355Z AUTO 16004KT 20/ A3019 RMK AO2 PWINO T0201//// 10297 20200 402970141 60051,0,4,0,,0,0,0,
2026-03-31 23:35:00,METAR KBGE 312335Z AUTO 14006KT 20/ A3019 RMK AO2 LTG DSNT N AND NE PWINO T0203////,0,6,0,,0,0,0,DS
2026-03-31 23:15:00,METAR KBGE 312315Z AUTO 08003KT 21/21 A3019 RMK AO2 PWINO T0210////,0,3,0,,0,0,0,
2026-03-31 22:55:00,METAR KBGE 312255Z AUTO 28003KT 21/ A3019 RMK AO2 LTG DSNT E P0051 PWINO T0206////,0,3,0,,0,0,0,DS
2026-03-31 22:35:00,METAR KBGE 312235Z AUTO 25010KT 20/20 A3019 RMK AO2 LTG DSNT N AND NW P0030 PWINO T02040198,0,10,0,,0,0,0,DS
2026-03-31 22:15:00,METAR KBGE 312215Z AUTO 25017G22KT 21/20 A3019 RMK AO2 LTG DSNT N AND NW P0003 PWINO T02060196,0,17,1,,0,0,0,DS
2026-03-31 21:55:00,METAR KBGE 312155Z AUTO 26011KT BKN050 BKN070 OVC110 23/19 A3019 RMK AO2 LTG DSNT SW THRU NW PWINO T02270186,0,11,0,,0,0,0,DS
2026-03-31 21:35:00,METAR KBGE 312135Z AUTO 28017KT TS SCT050 BKN060 BKN070 24/18 A3019 RMK AO2 LTG DSNT E W AND NW PWINO T02420182,0,17,0,,1,0,0,"DS,TS"
2026-03-31 21:15:00,METAR KBGE 312115Z AUTO 11005KT SCT060 BKN070 25/19 A3017 RMK AO2 LTG DSNT NW PWINO T02510188,0,5,0,,0,0,0,DS
2026-03-31 20:55:00,METAR KBGE 312055Z AUTO 12006KT SCT050 BKN070 OVC085 26/19 A3017 RMK AO2 PWINO T02560188,0,6,0,,0,0,0,
2026-03-31 20:35:00,METAR KBGE 312035Z AUTO 12007KT 070V130 SCT025 BKN060 OVC085 26/19 A3017 RMK AO2 LTG DSNT NW PWINO T02580188,0,7,0,,0,0,0,DS
2026-03-31 20:15:00,METAR KBGE 312015Z AUTO 11005KT SCT023 SCT031 OVC049 27/19 A3018 RMK AO2 LTG DSNT W PWINO T02660187,0,5,0,,0,0,0,DS
2026-03-31 19:55:00,METAR KBGE 311955Z AUTO 14007KT OVC049 28/17 A3019 RMK AO2 LTG DSNT W AND NW PWINO T02780168,0,7,0,,0,0,0,DS
2026-03-31 19:35:00,METAR KBGE 311935Z AUTO 10007KT OVC047 29/17 A3019 RMK AO2 LTG DSNT W AND NW PWINO T02860169,0,7,0,,0,0,0,DS
2026-03-31 19:15:00,METAR KBGE 311915Z AUTO 13009KT BKN049 BKN075 28/17 A3020 RMK AO2 PWINO T02830172,0,9,0,,0,0,0,
2026-03-31 18:55:00,METAR KBGE 311855Z AUTO 20005KT BKN047 BKN060 28/17 A3022 RMK AO2 LTG DSNT W PWINO T02810165,0,5,0,,0,0,0,DS
2026-03-31 18:35:00,METAR KBGE 311835Z AUTO 21004KT SCT043 BKN060 BKN070 28/17 A3023 RMK AO2 LTG DSNT W PWINO T02780169,0,4,0,,0,0,0,DS
2026-03-31 18:15:00,METAR KBGE 311815Z AUTO 20005KT SCT043 SCT050 OVC060 28/17 A3025 RMK AO2 PWINO T02750171,0,5,0,,0,0,0,
2026-03-31 17:55:00,METAR KBGE 311755Z AUTO 15009KT SCT043 SCT050 OVC060 27/17 A3026 RMK AO2 PWINO T02720173 10284 20147,0,9,0,,0,0,0,
2026-03-31 17:35:00,METAR KBGE 311735Z AUTO 16006KT SCT043 BKN060 OVC070 27/17 A3026 RMK AO2 PWINO T02730175,0,6,0,,0,0,0,
2026-03-31 17:15:00,METAR KBGE 311715Z AUTO 17006G14KT SCT041 SCT047 BKN070 27/17 A3027 RMK AO2 PWINO T02720173,0,6,1,,0,0,0,
2026-03-31 16:55:00,METAR KBGE 311655Z AUTO 13007KT SCT037 BKN070 27/18 A3028 RMK AO2 PWINO T02730178,0,7,0,,0,0,0,
2026-03-31 16:35:00,METAR KBGE 311635Z AUTO 15009KT SCT033 28/18 A3028 RMK AO2 LTG DSNT SW PWINO T02750181,0,9,0,,0,0,0,DS
2026-03-31 16:15:00,METAR KBGE 311615Z AUTO 15004KT SCT033 27/18 A3029 RMK AO2 PWINO T02690185,0,4,0,,0,0,0,
2026-03-31 15:55:00,METAR KBGE 311555Z AUTO 13008KT CLR 26/19 A3029 RMK AO2 PWINO T02600185,0,8,0,,0,0,0,
2026-03-31 15:35:00,METAR KBGE 311535Z AUTO 15005KT CLR 25/19 A3029 RMK AO2 PWINO T02520187,0,5,0,,0,0,0,
2026-03-31 15:15:00,METAR KBGE 311515Z AUTO 13006KT CLR 24/19 A3030 RMK AO2 LTG DSNT SW PWINO T02420188,0,6,0,,0,0,0,DS
2026-03-31 14:55:00,METAR KBGE 311455Z AUTO 14009KT CLR 24/19 A3030 RMK AO2 PWINO T02390189,0,9,0,,0,0,0,
2026-03-31 14:35:00,METAR KBGE 311435Z AUTO 15008KT CLR 23/19 A3030 RMK AO2 PWINO T02280187,0,8,0,,0,0,0,
2026-03-31 14:15:00,METAR KBGE 311415Z AUTO 16008KT CLR 22/19 A3030 RMK AO2 LTG DSNT W PWINO T02240187,0,8,0,,0,0,0,DS
2026-03-31 13:55:00,METAR KBGE 311355Z AUTO 14007KT CLR 21/19 A3030 RMK AO2 PWINO T02140186,0,7,0,,0,0,0,
2026-03-31 13:35:00,METAR KBGE 311335Z AUTO 14005KT 20/18 A3030 RMK AO2 PWINO T02010183,0,5,0,,0,0,0,
2026-03-31 13:15:00,METAR KBGE 311315Z AUTO 14007KT 19/18 A3030 RMK AO2 PWINO T01900178,0,7,0,,0,0,0,
2026-03-31 12:55:00,METAR KBGE 311255Z AUTO 13005KT 18/18 A3029 RMK AO2 PWINO T01810177,0,5,0,,0,0,0,
2026-03-31 12:35:00,METAR KBGE 311235Z AUTO 11004KT 17/ A3029 RMK AO2 PWINO T0173////,0,4,0,,0,0,0,
2026-03-31 12:15:00,METAR KBGE 311215Z AUTO 10003KT 16/ A3028 RMK AO2 PWINO T0160////,0,3,0,,0,0,0,
2026-03-31 11:55:00,METAR KBGE 311155Z AUTO 12003KT 15/ A3028 RMK AO2 PWINO T0147//// 10186 20141,0,3,0,,0,0,0,
2026-03-31 11:35:00,METAR KBGE 311135Z AUTO 08006KT 14/ A3027 RMK AO2 PWINO T0145////,0,6,0,,0,0,0,
2026-03-31 11:15:00,METAR KBGE 311115Z AUTO 08004KT 14/ A3027 RMK AO2 PWINO T0144////,0,4,0,,0,0,0,
2026-03-31 10:55:00,METAR KBGE 311055Z AUTO 10005KT 14/ A3027 RMK AO2 PWINO T0143////,0,5,0,,0,0,0,
2026-03-31 10:35:00,METAR KBGE 311035Z AUTO 09006KT 15/ A3026 RMK AO2 PWINO T0145////,0,6,0,,0,0,0,
2026-03-31 10:15:00,METAR KBGE 311015Z AUTO 08006KT 15/ A3026 RMK AO2 PWINO T0146////,0,6,0,,0,0,0,
2026-03-31 09:55:00,METAR KBGE 310955Z AUTO 10004KT 15/ A3025 RMK AO2 PWINO T0148////,0,4,0,,0,0,0,
2026-03-31 09:35:00,METAR KBGE 310935Z AUTO 10003KT 15/ A3025 RMK AO2 PWINO T0149////,0,3,0,,0,0,0,
2026-03-31 09:15:00,METAR KBGE 310915Z AUTO 11004KT 15/ A3024 RMK AO2 PWINO T0149////,0,4,0,,0,0,0,
2026-03-31 08:55:00,METAR KBGE 310855Z AUTO 09004KT 15/ A3025 RMK AO2 PWINO T0154////,0,4,0,,0,0,0,
2026-03-31 08:35:00,METAR KBGE 310835Z AUTO 10003KT 15/ A3025 RMK AO2 PWINO T0153////,0,3,0,,0,0,0,
2026-03-31 08:15:00,METAR KBGE 310815Z AUTO 09003KT 15/15 A3025 RMK AO2 PWINO T0150////,0,3,0,,0,0,0,
2026-03-31 07:55:00,METAR KBGE 310755Z AUTO 07005KT 16/15 A3025 RMK AO2 PWINO T01600152,0,5,0,,0,0,0,
2026-03-31 07:35:00,METAR KBGE 310735Z AUTO 08005KT 16/15 A3025 RMK AO2 PWINO T01630154,0,5,0,,0,0,0,
2026-03-31 07:15:00,METAR KBGE 310715Z AUTO 09004KT 17/15 A3025 RMK AO2 PWINO T01660153,0,4,0,,0,0,0,
2026-03-31 06:55:00,METAR KBGE 310655Z AUTO 12004KT 17/15 A3026 RMK AO2 PWINO T01740153,0,4,0,,0,0,0,
2026-03-31 06:35:00,METAR KBGE 310635Z AUTO 12005KT 18/15 A3026 RMK AO2 PWINO T01750153,0,5,0,,0,0,0,
2026-03-31 06:15:00,METAR KBGE 310615Z AUTO 13005KT CLR 18/15 A3026 RMK AO2 PWINO T01830152,0,5,0,,0,0,0,
2026-03-31 05:55:00,METAR KBGE 310555Z AUTO 15005KT CLR 19/15 A3026 RMK AO2 PWINO T01870151 10240 20166,0,5,0,,0,0,0,
2026-03-31 05:35:00,METAR KBGE 310535Z AUTO 15006KT CLR 19/15 A3027 RMK AO2 PWINO T01910150,0,6,0,,0,0,0,
2026-03-31 05:15:00,METAR KBGE 310515Z AUTO 14007KT CLR 20/15 A3027 RMK AO2 PWINO T01990150,0,7,0,,0,0,0,
2026-03-31 04:55:00,METAR KBGE 310455Z AUTO 13008KT 18/16 A3027 RMK AO2 PWINO T01800156,0,8,0,,0,0,0,
2026-03-31 04:35:00,METAR KBGE 310435Z AUTO 11004KT 17/16 A3027 RMK AO2 PWINO T01740162,0,4,0,,0,0,0,
2026-03-31 04:15:00,METAR KBGE 310415Z AUTO 14004KT 18/16 A3027 RMK AO2 PWINO T01750164,0,4,0,,0,0,0,
2026-03-31 03:55:00,METAR KBGE 310355Z AUTO 11003KT 17/16 A3027 RMK AO2 PWINO T01740161,0,3,0,,0,0,0,
2026-03-31 03:35:00,METAR KBGE 310335Z AUTO 15004KT 18/16 A3026 RMK AO2 PWINO T01820162,0,4,0,,0,0,0,
2026-03-31 03:15:00,METAR KBGE 310315Z AUTO 00000KT CLR 19/16 A3027 RMK AO2 PWINO T01890162,0,0,0,,0,0,0,
2026-03-31 02:55:00,METAR KBGE 310255Z AUTO 00000KT CLR 19/16 A3026 RMK AO2 PWINO T01920158,0,0,0,,0,0,0,
2026-03-31 02:35:00,METAR KBGE 310235Z AUTO 00000KT CLR 21/15 A3026 RMK AO2 PWINO T02090154,0,0,0,,0,0,0,
2026-03-31 02:15:00,METAR KBGE 310215Z AUTO 21003KT CLR 20/16 A3026 RMK AO2 PWINO T02020159,0,3,0,,0,0,0,
2026-03-31 01:55:00,METAR KBGE 310155Z AUTO 15003KT CLR 21/16 A3025 RMK AO2 PWINO T02110156,0,3,0,,0,0,0,
2026-03-31 01:35:00,METAR KBGE 310135Z AUTO 13003KT CLR 22/15 A3024 RMK AO2 PWINO T02160154,0,3,0,,0,0,0,
2026-03-31 01:15:00,METAR KBGE 310115Z AUTO 12004KT CLR 21/15 A3024 RMK AO2 PWINO T02140152,0,4,0,,0,0,0,
2026-03-31 00:55:00,METAR KBGE 310055Z AUTO 13005KT SCT055 22/15 A3024 RMK AO2 PWINO T02210149,0,5,0,,0,0,0,
2026-03-31 00:35:00,METAR KBGE 310035Z AUTO 12006KT SCT055 22/15 A3023 RMK AO2 PWINO T02230149,0,6,0,,0,0,0,
2026-03-31 00:15:00,METAR KBGE 310015Z AUTO 11004KT SCT060 SCT095 23/15 A3023 RMK AO2 PWINO T02290149,0,4,0,,0,0,0,
2026-03-30 23:55:00,METAR KBGE 302355Z AUTO 12006KT SCT060 BKN095 24/15 A3023 RMK AO2 PWINO T02420148 10284 20240 402840122,0,6,0,,0,0,0,
2026-03-30 23:35:00,METAR KBGE 302335Z AUTO 11005KT BKN095 25/15 A3023 RMK AO2 PWINO T02480146,0,5,0,,0,0,0,
2026-03-30 23:15:00,METAR KBGE 302315Z AUTO 13007KT SCT075 SCT095 26/15 A3023 RMK AO2 PWINO T02560146,0,7,0,,0,0,0,
2026-03-30 22:55:00,METAR KBGE 302255Z AUTO 12008KT SCT060 SCT070 26/14 A3024 RMK AO2 PWINO T02630144,0,8,0,,0,0,0,
2026-03-30 22:35:00,METAR KBGE 302235Z AUTO 10007KT BKN060 BKN070 OVC090 27/14 A3024 RMK AO2 PWINO T02690144,0,7,0,,0,0,0,
2026-03-30 22:15:00,METAR KBGE 302215Z AUTO 14008KT SCT065 BKN070 BKN090 27/14 A3024 RMK AO2 PWINO T02670141,0,8,0,,0,0,0,
2026-03-30 21:55:00,METAR KBGE 302155Z AUTO 10007KT SCT090 27/14 A3024 RMK AO2 PWINO T02720144,0,7,0,,0,0,0,
2026-03-30 21:35:00,METAR KBGE 302135Z AUTO 12008KT SCT055 BKN090 27/15 A3024 RMK AO2 PWINO T02750147,0,8,0,,0,0,0,
2026-03-30 21:15:00,METAR KBGE 302115Z AUTO 11006KT SCT055 BKN080 27/14 A3024 RMK AO2 PWINO T02720143,0,6,0,,0,0,0,
2026-03-30 20:55:00,METAR KBGE 302055Z AUTO 07008KT SCT050 SCT070 BKN090 27/14 A3024 RMK AO2 PWINO T02700144,0,8,0,,0,0,0,
2026-03-30 20:35:00,METAR KBGE 302035Z AUTO 11007KT SCT050 BKN080 BKN090 27/14 A3025 RMK AO2 PWINO T02660143,0,7,0,,0,0,0,
2026-03-30 20:15:00,METAR KBGE 302015Z AUTO 13009KT SCT050 SCT090 28/15 A3025 RMK AO2 PWINO T02760149,0,9,0,,0,0,0,
2026-03-30 19:55:00,METAR KBGE 301955Z AUTO 15004KT SCT050 SCT055 28/15 A3027 RMK AO2 PWINO T02780145,0,4,0,,0,0,0,
2026-03-30 19:35:00,METAR KBGE 301935Z AUTO 15005KT SCT070 SCT090 27/14 A3028 RMK AO2 PWINO T02740145,0,5,0,,0,0,0,
2026-03-30 19:15:00,METAR KBGE 301915Z AUTO 11006KT SCT050 BKN070 BKN080 27/15 A3029 RMK AO2 PWINO T02650147,0,6,0,,0,0,0,
2026-03-30 18:55:00,METAR KBGE 301855Z AUTO 10005KT SCT050 SCT080 27/15 A3029 RMK AO2 PWINO T02680147,0,5,0,,0,0,0,
2026-03-30 18:35:00,METAR KBGE 301835Z AUTO 14005KT SCT048 BKN080 26/15 A3031 RMK AO2 PWINO T02620147,0,5,0,,0,0,0,
2026-03-30 18:15:00,METAR KBGE 301815Z AUTO 20007KT SCT048 BKN070 BKN090 26/15 A3032 RMK AO2 PWINO T02570148,0,7,0,,0,0,0,
2026-03-30 17:55:00,METAR KBGE 301755Z AUTO 14004KT SCT049 SCT090 27/15 A3033 RMK AO2 PWINO T02710148 10275 20129,0,4,0,,0,0,0,
2026-03-30 17:35:00,METAR KBGE 301735Z AUTO 14005KT SCT049 26/14 A3034 RMK AO2 PWINO T02630143,0,5,0,,0,0,0,
2026-03-30 17:15:00,METAR KBGE 301715Z AUTO 18006KT SCT041 SCT049 26/15 A3034 RMK AO2 PWINO T02640151,0,6,0,,0,0,0,
2026-03-30 16:55:00,METAR KBGE 301655Z AUTO 15007KT CLR 26/15 A3035 RMK AO2 PWINO T02610154,0,7,0,,0,0,0,
2026-03-30 16:35:00,METAR KBGE 301635Z AUTO 17005KT CLR 25/15 A3035 RMK AO2 PWINO T02490154,0,5,0,,0,0,0,
2026-03-30 16:15:00,METAR KBGE 301615Z AUTO 13006KT CLR 25/15 A3036 RMK AO2 PWINO T02480152,0,6,0,,0,0,0,
2026-03-30 15:55:00,METAR KBGE 301555Z AUTO 15010KT CLR 24/15 A3037 RMK AO2 PWINO T02430151,0,10,0,,0,0,0,
2026-03-30 15:35:00,METAR KBGE 301535Z AUTO 15009KT CLR 24/15 A3037 RMK AO2 LTG DSNT W PWINO T02380152,0,9,0,,0,0,0,DS
2026-03-30 15:15:00,METAR KBGE 301515Z AUTO 13010KT CLR 23/15 A3037 RMK AO2 PWINO T02300152,0,10,0,,0,0,0,
2026-03-30 14:55:00,METAR KBGE 301455Z AUTO 14010KT CLR 22/15 A3037 RMK AO2 LTG DSNT SW AND W PWINO T02250153,0,10,0,,0,0,0,DS
2026-03-30 14:35:00,METAR KBGE 301435Z AUTO 13011KT CLR 22/15 A3036 RMK AO2 PWINO T02160153,0,11,0,,0,0,0,
2026-03-30 14:15:00,METAR KBGE 301415Z AUTO 14008KT CLR 20/15 A3036 RMK AO2 LTG DSNT W PWINO T02050146,0,8,0,,0,0,0,DS
2026-03-30 13:55:00,METAR KBGE 301355Z AUTO 10006KT CLR 19/14 A3037 RMK AO2 PWINO T01900140,0,6,0,,0,0,0,
2026-03-30 13:35:00,METAR KBGE 301335Z AUTO 12007KT CLR 18/14 A3037 RMK AO2 PWINO T01810138,0,7,0,,0,0,0,
2026-03-30 13:15:00,METAR KBGE 301315Z AUTO 09007KT CLR 17/14 A3036 RMK AO2 PWINO T01700138,0,7,0,,0,0,0,
2026-03-30 12:55:00,METAR KBGE 301255Z AUTO 09007KT 16/14 A3036 RMK AO2 PWINO T01600141,0,7,0,,0,0,0,
2026-03-30 12:35:00,METAR KBGE 301235Z AUTO 09005KT 15/14 A3035 RMK AO2 PWINO T01480141,0,5,0,,0,0,0,
2026-03-30 12:15:00,METAR KBGE 301215Z AUTO 08005KT 14/ A3035 RMK AO2 PWINO T0138////,0,5,0,,0,0,0,
2026-03-30 11:55:00,METAR KBGE 301155Z AUTO 09004KT 13/ A3034 RMK AO2 PWINO T0128//// 10170 20122,0,4,0,,0,0,0,
2026-03-30 11:35:00,METAR KBGE 301135Z AUTO 10004KT 13/ A3033 RMK AO2 PWINO T0129////,0,4,0,,0,0,0,
2026-03-30 11:15:00,METAR KBGE 301115Z AUTO 10004KT 12/ A3033 RMK AO2 PWINO T0123////,0,4,0,,0,0,0,
2026-03-30 10:55:00,METAR KBGE 301055Z AUTO 07005KT 13/13 A3033 RMK AO2 PWINO T0126////,0,5,0,,0,0,0,
2026-03-30 10:35:00,METAR KBGE 301035Z AUTO 07005KT 13/13 A3033 RMK AO2 PWINO T01280127,0,5,0,,0,0,0,
2026-03-30 10:15:00,METAR KBGE 301015Z AUTO 08005KT 13/13 A3032 RMK AO2 PWINO T01320130,0,5,0,,0,0,0,
2026-03-30 09:55:00,METAR KBGE 300955Z AUTO 08005KT 14/13 A3032 RMK AO2 PWINO T01350129,0,5,0,,0,0,0,
2026-03-30 09:35:00,METAR KBGE 300935Z AUTO 07006KT 14/13 A3031 RMK AO2 PWINO T01360130,0,6,0,,0,0,0,
2026-03-30 09:15:00,METAR KBGE 300915Z AUTO 08006KT 14/13 A3031 RMK AO2 PWINO T01360129,0,6,0,,0,0,0,
2026-03-30 08:55:00,METAR KBGE 300855Z AUTO 11003KT 14/13 A3031 RMK AO2 PWINO T01440129,0,3,0,,0,0,0,
2026-03-30 08:35:00,METAR KBGE 300835Z AUTO 12005KT 15/13 A3031 RMK AO2 PWINO T01480130,0,5,0,,0,0,0,
2026-03-30 08:15:00,METAR KBGE 300815Z AUTO 12006KT 15/13 A3031 RMK AO2 PWINO T01530131,0,6,0,,0,0,0,
2026-03-30 07:55:00,METAR KBGE 300755Z AUTO 12007KT 16/13 A3031 RMK AO2 PWINO T01560131,0,7,0,,0,0,0,
2026-03-30 07:35:00,METAR KBGE 300735Z AUTO 12007KT 16/13 A3032 RMK AO2 PWINO T01570131,0,7,0,,0,0,0,
2026-03-30 07:15:00,METAR KBGE 300715Z AUTO 11006KT CLR 16/13 A3033 RMK AO2 PWINO T01610131,0,6,0,,0,0,0,
2026-03-30 06:55:00,METAR KBGE 300655Z AUTO 10007KT CLR 16/13 A3033 RMK AO2 PWINO T01600131,0,7,0,,0,0,0,
2026-03-30 06:35:00,METAR KBGE 300635Z AUTO 10007KT CLR 16/13 A3033 RMK AO2 PWINO T01630130,0,7,0,,0,0,0,
2026-03-30 06:15:00,METAR KBGE 300615Z AUTO 10007KT SCT055 17/13 A3034 RMK AO2 PWINO T01660130,0,7,0,,0,0,0,
2026-03-30 05:55:00,METAR KBGE 300555Z AUTO 10007KT BKN055 17/13 A3034 RMK AO2 PWINO T01700129 10183 20168,0,7,0,,0,0,0,
2026-03-30 05:35:00,METAR KBGE 300535Z AUTO 11007KT OVC055 17/13 A3035 RMK AO2 PWINO T01740130,0,7,0,,0,0,0,
2026-03-30 05:15:00,METAR KBGE 300515Z AUTO 11007KT OVC049 17/13 A3035 RMK AO2 PWINO T01740132,0,7,0,,0,0,0,
2026-03-30 04:55:00,METAR KBGE 300455Z AUTO 10007KT OVC049 17/14 A3035 RMK AO2 PWINO T01730136,0,7,0,,0,0,0,
2026-03-30 04:35:00,METAR KBGE 300435Z AUTO 08007KT OVC049 17/14 A3036 RMK AO2 PWINO T01750139,0,7,0,,0,0,0,
2026-03-30 04:15:00,METAR KBGE 300415Z AUTO 06006KT OVC049 17/14 A3036 RMK AO2 PWINO T01730142,0,6,0,,0,0,0,
2026-03-30 03:55:00,METAR KBGE 300355Z AUTO 04005KT OVC049 17/14 A3036 RMK AO2 PWINO T01700145,0,5,0,,0,0,0,
2026-03-30 03:35:00,METAR KBGE 300335Z AUTO 03004KT OVC049 17/15 A3036 RMK AO2 PWINO T01690146,0,4,0,,0,0,0,
2026-03-30 03:15:00,METAR KBGE 300315Z AUTO 02003KT OVC049 17/14 A3036 RMK AO2 PWINO T01700145,0,3,0,,0,0,0,
2026-03-30 02:55:00,METAR KBGE 300255Z AUTO 04005KT OVC049 17/14 A3036 RMK AO2 PWINO T01700143,0,5,0,,0,0,0,
2026-03-30 02:35:00,METAR KBGE 300235Z AUTO 06004KT OVC049 17/14 A3036 RMK AO2 PWINO T01690142,0,4,0,,0,0,0,
2026-03-30 02:15:00,METAR KBGE 300215Z AUTO 04005KT OVC049 17/14 A3036 RMK AO2 PWINO T01720138,0,5,0,,0,0,0,
2026-03-30 01:55:00,METAR KBGE 300155Z AUTO 06004KT OVC049 17/14 A3036 RMK AO2 PWINO T01720136,0,4,0,,0,0,0,
2026-03-30 01:35:00,METAR KBGE 300135Z AUTO 06005KT OVC049 18/13 A3035 RMK AO2 PWINO T01770134,0,5,0,,0,0,0,
2026-03-30 01:15:00,METAR KBGE 300115Z AUTO 07006KT OVC049 18/13 A3035 RMK AO2 PWINO T01770133,0,6,0,,0,0,0,
2026-03-30 00:55:00,METAR KBGE 300055Z AUTO 07008KT OVC049 18/13 A3035 RMK AO2 PWINO T01780132,0,8,0,,0,0,0,
2026-03-30 00:35:00,METAR KBGE 300035Z AUTO 07009KT OVC049 18/13 A3035 RMK AO2 PWINO T01800131,0,9,0,,0,0,0,
2026-03-30 00:15:00,METAR KBGE 300015Z AUTO 07010KT OVC049 18/13 A3035 RMK AO2 PWINO T01820130,0,10,0,,0,0,0,
2026-03-29 23:55:00,METAR KBGE 292355Z AUTO 06008KT OVC049 18/13 A3035 RMK AO2 PWINO T01840132 10222 20183 402220139,0,8,0,,0,0,0,
2026-03-29 23:35:00,METAR KBGE 292335Z AUTO 06008KT OVC049 18/13 A3035 RMK AO2 PWINO T01850133,0,8,0,,0,0,0,
2026-03-29 23:15:00,METAR KBGE 292315Z AUTO 05008KT BKN049 OVC110 19/13 A3036 RMK AO2 PWINO T01860133,0,8,0,,0,0,0,
2026-03-29 22:55:00,METAR KBGE 292255Z AUTO 06010KT BKN049 OVC110 19/13 A3035 RMK AO2 PWINO T01890132,0,10,0,,0,0,0,
2026-03-29 22:35:00,METAR KBGE 292235Z AUTO 07011KT OVC049 19/13 A3035 RMK AO2 PWINO T01910130,0,11,0,,0,0,0,
2026-03-29 22:15:00,METAR KBGE 292215Z AUTO 07011KT OVC049 19/13 A3036 RMK AO2 PWINO T01920128,0,11,0,,0,0,0,
2026-03-29 21:55:00,METAR KBGE 292155Z AUTO 05010KT OVC049 20/12 A3035 RMK AO2 PWINO T01970123,0,10,0,,0,0,0,
2026-03-29 21:35:00,METAR KBGE 292135Z AUTO 07011KT SCT043 OVC049 20/12 A3036 RMK AO2 PWINO T01990124,0,11,0,,0,0,0,
2026-03-29 21:15:00,METAR KBGE 292115Z AUTO 07011KT BKN039 OVC049 20/12 A3036 RMK AO2 PWINO T02010123,0,11,0,,0,0,0,
2026-03-29 20:55:00,METAR KBGE 292055Z AUTO 07012KT OVC039 20/12 A3036 RMK AO2 PWINO T02030123,0,12,0,,0,0,0,
2026-03-29 20:35:00,METAR KBGE 292035Z AUTO 09013KT OVC039 20/12 A3037 RMK AO2 PWINO T02030124,0,13,0,,0,0,0,
2026-03-29 20:15:00,METAR KBGE 292015Z AUTO 09011KT BKN039 OVC060 20/12 A3037 RMK AO2 PWINO T02050123,0,11,0,,0,0,0,
2026-03-29 19:55:00,METAR KBGE 291955Z AUTO 08012KT SCT039 BKN060 OVC075 21/12 A3037 RMK AO2 PWINO T02070120,0,12,0,,0,0,0,
2026-03-29 19:35:00,METAR KBGE 291935Z AUTO 08011G17KT BKN039 BKN060 OVC080 21/12 A3038 RMK AO2 PWINO T02120119,0,11,1,,0,0,0,
2026-03-29 19:15:00,METAR KBGE 291915Z AUTO 08014G20KT BKN039 OVC060 22/12 A3038 RMK AO2 PWINO T02150119,0,14,1,,0,0,0,
2026-03-29 18:55:00,METAR KBGE 291855Z AUTO 08014KT OVC060 22/12 A3038 RMK AO2 PWINO T02170116,0,14,0,,0,0,0,
2026-03-29 18:35:00,METAR KBGE 291835Z AUTO 11010G15KT OVC050 21/12 A3039 RMK AO2 PWINO T02110116,0,10,1,,0,0,0,
2026-03-29 18:15:00,METAR KBGE 291815Z AUTO 08010G18KT BKN050 BKN080 BKN090 22/12 A3040 RMK AO2 PWINO T02150117,0,10,1,,0,0,0,
2026-03-29 17:55:00,METAR KBGE 291755Z AUTO 09010G18KT BKN050 BKN080 20/11 A3041 RMK AO2 PWINO T02030111 10207 20139,0,10,1,,0,0,0,
2026-03-29 17:35:00,METAR KBGE 291735Z AUTO 10012G18KT SCT050 OVC080 20/11 A3042 RMK AO2 PWINO T01960109,0,12,1,,0,0,0,
2026-03-29 17:15:00,METAR KBGE 291715Z AUTO 09009KT OVC080 18/10 A3043 RMK AO2 PWINO T01820104,0,9,0,,0,0,0,
2026-03-29 16:55:00,METAR KBGE 291655Z AUTO 09011KT OVC080 18/10 A3043 RMK AO2 PWINO T01770101,0,11,0,,0,0,0,
2026-03-29 16:35:00,METAR KBGE 291635Z AUTO 07014KT OVC080 17/10 A3044 RMK AO2 PWINO T01730097,0,14,0,,0,0,0,
2026-03-29 16:15:00,METAR KBGE 291615Z AUTO 08013KT OVC080 17/09 A3044 RMK AO2 PWINO T01680094,0,13,0,,0,0,0,
2026-03-29 15:55:00,METAR KBGE 291555Z AUTO 08012G18KT OVC070 16/09 A3045 RMK AO2 PWINO T01620091,0,12,1,,0,0,0,
2026-03-29 15:35:00,METAR KBGE 291535Z AUTO 08014KT SCT050 OVC070 16/09 A3045 RMK AO2 PWINO T01580089,0,14,0,,0,0,0,
2026-03-29 15:15:00,METAR KBGE 291515Z AUTO 07013KT OVC050 15/09 A3045 RMK AO2 PWINO T01520085,0,13,0,,0,0,0,
2026-03-29 14:55:00,METAR KBGE 291455Z AUTO 07010KT BKN050 BKN065 OVC080 15/08 A3045 RMK AO2 PWINO T01500084,0,10,0,,0,0,0,
2026-03-29 14:35:00,METAR KBGE 291435Z AUTO 08016KT BKN050 OVC080 15/08 A3044 RMK AO2 PWINO T01470082,0,16,0,,0,0,0,
2026-03-29 14:15:00,METAR KBGE 291415Z AUTO 07016KT OVC050 15/08 A3044 RMK AO2 PWINO T01450082,0,16,0,,0,0,0,
2026-03-29 13:55:00,METAR KBGE 291355Z AUTO 08016KT SCT033 OVC050 14/08 A3043 RMK AO2 PWINO T01430080,0,16,0,,0,0,0,
2026-03-29 13:35:00,METAR KBGE 291335Z AUTO 07012KT BKN031 OVC050 14/08 A3043 RMK AO2 PWINO T01420082,0,12,0,,0,0,0,
2026-03-29 13:15:00,METAR KBGE 291315Z AUTO 09014G21KT OVC029 14/08 A3043 RMK AO2 PWINO T01400082,0,14,1,,0,0,0,
2026-03-29 12:55:00,METAR KBGE 291255Z AUTO 07013KT OVC029 14/08 A3042 RMK AO2 PWINO T01420077,0,13,0,,0,0,0,
2026-03-29 12:35:00,METAR KBGE 291235Z AUTO 07010KT OVC027 14/07 A3042 RMK AO2 PWINO T01430074,0,10,0,,0,0,0,
2026-03-29 12:15:00,METAR KBGE 291215Z AUTO 08011KT OVC027 14/07 A3041 RMK AO2 PWINO T01440074,0,11,0,,0,0,0,
2026-03-29 11:55:00,METAR KBGE 291155Z AUTO 07012KT OVC029 14/07 A3039 RMK AO2 PWINO T01440071 10160 20144,0,12,0,,0,0,0,
2026-03-29 11:35:00,METAR KBGE 291135Z AUTO 08013KT BKN029 OVC046 14/07 A3039 RMK AO2 PWINO T01450070,0,13,0,,0,0,0,
2026-03-29 11:15:00,METAR KBGE 291115Z AUTO 09013KT OVC029 15/07 A3039 RMK AO2 PWINO T01460067,0,13,0,,0,0,0,
2026-03-29 10:55:00,METAR KBGE 291055Z AUTO 08012KT BKN029 OVC046 15/06 A3038 RMK AO2 PWINO T01470065,0,12,0,,0,0,0,
2026-03-29 10:35:00,METAR KBGE 291035Z AUTO 09012G16KT OVC046 15/06 A3038 RMK AO2 PWINO T01480064,0,12,1,,0,0,0,
2026-03-29 10:15:00,METAR KBGE 291015Z AUTO 08009KT OVC048 15/06 A3037 RMK AO2 PWINO T01490061,0,9,0,,0,0,0,
2026-03-29 09:55:00,METAR KBGE 290955Z AUTO 08012KT OVC048 15/06 A3037 RMK AO2 PWINO T01500059,0,12,0,,0,0,0,
2026-03-29 09:35:00,METAR KBGE 290935Z AUTO 08013G18KT OVC046 15/06 A3036 RMK AO2 PWINO T01500058,0,13,1,,0,0,0,
2026-03-29 09:15:00,METAR KBGE 290915Z AUTO 09014G18KT OVC048 15/05 A3036 RMK AO2 PWINO T01510055,0,14,1,,0,0,0,
2026-03-29 08:55:00,METAR KBGE 290855Z AUTO 09013KT OVC048 15/05 A3036 RMK AO2 PWINO T01510055,0,13,0,,0,0,0,
2026-03-29 08:35:00,METAR KBGE 290835Z AUTO 09010KT OVC046 15/06 A3036 RMK AO2 PWINO T01520057,0,10,0,,0,0,0,
2026-03-29 08:15:00,METAR KBGE 290815Z AUTO 09010KT OVC044 15/06 A3036 RMK AO2 PWINO T01530056,0,10,0,,0,0,0,
2026-03-29 07:55:00,METAR KBGE 290755Z AUTO 09014KT OVC044 15/05 A3036 RMK AO2 PWINO T01540053,0,14,0,,0,0,0,
2026-03-29 07:35:00,METAR KBGE 290735Z AUTO 10013KT OVC044 15/05 A3036 RMK AO2 PWINO T01550050,0,13,0,,0,0,0,
2026-03-29 07:15:00,METAR KBGE 290715Z AUTO 09012KT OVC046 16/05 A3037 RMK AO2 PWINO T01560049,0,12,0,,0,0,0,
2026-03-29 06:55:00,METAR KBGE 290655Z AUTO 09012G19KT OVC046 16/05 A3037 RMK AO2 PWINO T01570048,0,12,1,,0,0,0,
2026-03-29 06:35:00,METAR KBGE 290635Z AUTO 10011KT OVC046 16/05 A3038 RMK AO2 PWINO T01580052,0,11,0,,0,0,0,
2026-03-29 06:15:00,METAR KBGE 290615Z AUTO 10012G22KT OVC046 16/06 A3038 RMK AO2 PWINO T01580055,0,12,1,,0,0,0,
2026-03-29 05:55:00,METAR KBGE 290555Z AUTO 09014G18KT OVC046 16/06 A3038 RMK AO2 PWINO T01600063 10193 20160,0,14,1,,0,0,0,
2026-03-29 05:35:00,METAR KBGE 290535Z AUTO 10010KT OVC044 16/08 A3038 RMK AO2 PWINO T01610076,0,10,0,,0,0,0,
2026-03-29 05:15:00,METAR KBGE 290515Z AUTO 09014KT OVC042 16/08 A3037 RMK AO2 PWINO T01630077,0,14,0,,0,0,0,
2026-03-29 04:55:00,METAR KBGE 290455Z AUTO 10016G19KT OVC042 17/08 A3037 RMK AO2 PWINO T01660078,0,16,1,,0,0,0,
2026-03-29 04:35:00,METAR KBGE 290435Z AUTO 10014KT OVC044 17/08 A3037 RMK AO2 PWINO T01690082,0,14,0,,0,0,0,
2026-03-29 04:15:00,METAR KBGE 290415Z AUTO 10008KT OVC046 17/10 A3037 RMK AO2 PWINO T01710097,0,8,0,,0,0,0,
2026-03-29 03:55:00,METAR KBGE 290355Z AUTO 10011KT OVC050 17/10 A3037 RMK AO2 PWINO T01740095,0,11,0,,0,0,0,
2026-03-29 03:35:00,METAR KBGE 290335Z AUTO 10011KT OVC050 17/10 A3036 RMK AO2 PWINO T01750098,0,11,0,,0,0,0,
2026-03-29 03:15:00,METAR KBGE 290315Z AUTO 11011KT OVC050 18/11 A3036 RMK AO2 PWINO T01780107,0,11,0,,0,0,0,
2026-03-29 02:55:00,METAR KBGE 290255Z AUTO 10011G17KT OVC060 18/11 A3036 RMK AO2 PWINO T01810108,0,11,1,,0,0,0,
2026-03-29 02:35:00,METAR KBGE 290235Z AUTO 11013KT OVC060 18/11 A3035 RMK AO2 PWINO T01830109,0,13,0,,0,0,0,
2026-03-29 02:15:00,METAR KBGE 290215Z AUTO 11011KT OVC060 19/12 A3034 RMK AO2 PWINO T01860117,0,11,0,,0,0,0,
2026-03-29 01:55:00,METAR KBGE 290155Z AUTO 11010KT OVC060 19/12 A3033 RMK AO2 PWINO T01870118,0,10,0,,0,0,0,
2026-03-29 01:35:00,METAR KBGE 290135Z AUTO 10011KT OVC060 19/12 A3033 RMK AO2 PWINO T01880116,0,11,0,,0,0,0,
2026-03-29 01:15:00,METAR KBGE 290115Z AUTO 10008KT OVC060 19/12 A3032 RMK AO2 PWINO T01900116,0,8,0,,0,0,0,
2026-03-29 00:55:00,METAR KBGE 290055Z AUTO 11009KT OVC060 19/12 A3032 RMK AO2 PWINO T01900117,0,9,0,,0,0,0,
2026-03-29 00:35:00,METAR KBGE 290035Z AUTO 09010KT OVC050 19/12 A3031 RMK AO2 PWINO T01900116,0,10,0,,0,0,0,
2026-03-29 00:15:00,METAR KBGE 290015Z AUTO 11011KT BKN050 BKN060 19/12 A3030 RMK AO2 PWINO T01900117,0,11,0,,0,0,0,
2026-03-28 23:55:00,METAR KBGE 282355Z AUTO 10011KT SCT050 SCT060 19/12 A3029 RMK AO2 PWINO T01930116 10256 20192 402560158,0,11,0,,0,0,0,
2026-03-28 23:35:00,METAR KBGE 282335Z AUTO 11011KT SCT060 BKN070 20/12 A3029 RMK AO2 PWINO T01980116,0,11,0,,0,0,0,
2026-03-28 23:15:00,METAR KBGE 282315Z AUTO 10011KT OVC060 20/12 A3028 RMK AO2 PWINO T02050119,0,11,0,,0,0,0,
2026-03-28 22:55:00,METAR KBGE 282255Z AUTO 10010G17KT OVC060 21/12 A3028 RMK AO2 PWINO T02080117,0,10,1,,0,0,0,
2026-03-28 22:35:00,METAR KBGE 282235Z AUTO 10014KT OVC060 21/12 A3027 RMK AO2 PWINO T02130121,0,14,0,,0,0,0,
2026-03-28 22:15:00,METAR KBGE 282215Z AUTO 11014G23KT OVC060 22/12 A3027 RMK AO2 PWINO T02170117,0,14,1,,0,0,0,
2026-03-28 21:55:00,METAR KBGE 282155Z AUTO 10017G24KT OVC060 23/10 A3026 RMK AO2 PWINO T02270101,0,17,1,,0,0,0,
2026-03-28 21:35:00,METAR KBGE 282135Z AUTO 08020G28KT OVC060 25/10 A3025 RMK AO2 PWINO T02460097,0,20,1,,0,0,0,
2026-03-28 21:15:00,METAR KBGE 282115Z AUTO 10015KT OVC050 25/09 A3025 RMK AO2 PWINO T02520094,0,15,0,,0,0,0,
2026-03-28 20:55:00,METAR KBGE 282055Z AUTO 10011KT OVC050 25/11 A3025 RMK AO2 PWINO T02470113,0,11,0,,0,0,0,
2026-03-28 20:35:00,METAR KBGE 282035Z AUTO 07013G18KT OVC050 24/12 A3025 RMK AO2 PWINO T02430118,0,13,1,,0,0,0,
2026-03-28 20:15:00,METAR KBGE 282015Z AUTO 07014KT OVC050 24/12 A3025 RMK AO2 PWINO T02410120,0,14,0,,0,0,0,
2026-03-28 19:55:00,METAR KBGE 281955Z AUTO 07013G25KT OVC050 24/12 A3025 RMK AO2 PWINO T02440119,0,13,1,,0,0,0,
2026-03-28 19:35:00,METAR KBGE 281935Z AUTO 06015G21KT BKN050 OVC055 25/12 A3026 RMK AO2 PWINO T02460116,0,15,1,,0,0,0,
2026-03-28 19:15:00,METAR KBGE 281915Z AUTO 06016G23KT BKN055 24/11 A3026 RMK AO2 PWINO T02440114,0,16,1,,0,0,0,
2026-03-28 18:55:00,METAR KBGE 281855Z AUTO 06016G22KT CLR 24/11 A3026 RMK AO2 PWINO T02440112,0,16,1,,0,0,0,
2026-03-28 18:35:00,METAR KBGE 281835Z AUTO 06015G22KT CLR 24/11 A3027 RMK AO2 PWINO T02420106,0,15,1,,0,0,0,
2026-03-28 18:15:00,METAR KBGE 281815Z AUTO 07015G24KT CLR 23/10 A3028 RMK AO2 PWINO T02350100,0,15,1,,0,0,0,
2026-03-28 17:55:00,METAR KBGE 281755Z AUTO 08019G24KT CLR 23/10 A3028 RMK AO2 PWINO T02290099 10234 20158,0,19,1,,0,0,0,
2026-03-28 17:35:00,METAR KBGE 281735Z AUTO 06013G22KT CLR 23/09 A3028 RMK AO2 PWINO T02260094,0,13,1,,0,0,0,
2026-03-28 17:15:00,METAR KBGE 281715Z AUTO 04016G21KT SCT034 22/09 A3029 RMK AO2 PWINO T02210092,0,16,1,,0,0,0,
2026-03-28 16:55:00,METAR KBGE 281655Z AUTO 04016KT BKN032 22/09 A3029 RMK AO2 PWINO T02150089,0,16,0,,0,0,0,
2026-03-28 16:35:00,METAR KBGE 281635Z AUTO 03017G20KT BKN032 21/08 A3029 RMK AO2 PWINO,0,17,1,,0,0,0,
2026-03-28 16:15:00,METAR KBGE 281615Z AUTO 04017KT SCT032 21/09 A3030 RMK AO2 PWINO T02140085,0,17,0,,0,0,0,
2026-03-28 15:55:00,METAR KBGE 281555Z AUTO 04014G21KT CLR 21/08 A3030 RMK AO2 PWINO T02060075,0,14,1,,0,0,0,
2026-03-28 15:35:00,METAR KBGE 281535Z AUTO 04016KT CLR 20/07 A3031 RMK AO2 PWINO T02000072,0,16,0,,0,0,0,
2026-03-28 15:15:00,METAR KBGE 281515Z AUTO 03017KT CLR 19/06 A3031 RMK AO2 PWINO T01940064,0,17,0,,0,0,0,
2026-03-28 14:55:00,METAR KBGE 281455Z AUTO 04017G21KT CLR 19/06 A3030 RMK AO2 PWINO T01950064,0,17,1,,0,0,0,
2026-03-28 14:35:00,METAR KBGE 281435Z AUTO 01015G19KT CLR 19/07 A3030 RMK AO2 PWINO T01880066,0,15,1,,0,0,0,
2026-03-28 14:15:00,METAR KBGE 281415Z AUTO 02013G19KT CLR 18/07 A3029 RMK AO2 PWINO T01830068,0,13,1,,0,0,0,
2026-03-28 13:55:00,METAR KBGE 281355Z AUTO 01015KT CLR 18/07 A3028 RMK AO2 PWINO T01770069,0,15,0,,0,0,0,
2026-03-28 13:35:00,METAR KBGE 281335Z AUTO 01016G20KT CLR 18/07 A3028 RMK AO2 PWINO T01770070,0,16,1,,0,0,0,
2026-03-28 13:15:00,METAR KBGE 281315Z AUTO 01015KT CLR 17/07 A3026 RMK AO2 PWINO T01710071,0,15,0,,0,0,0,
2026-03-28 12:55:00,METAR KBGE 281255Z AUTO 36014G18KT CLR 17/08 A3025 RMK AO2 PWINO T01680081,0,14,1,,0,0,0,
2026-03-28 12:35:00,METAR KBGE 281235Z AUTO 36013KT CLR 16/09 A3024 RMK AO2 PWINO T01650092,0,13,0,,0,0,0,
2026-03-28 12:15:00,METAR KBGE 281215Z AUTO 36011KT CLR 16/11 A3023 RMK AO2 PWINO T01610105,0,11,0,,0,0,0,
2026-03-28 11:55:00,METAR KBGE 281155Z AUTO 35011KT CLR 16/12 A3022 RMK AO2 PWINO T01590116 10182 20158,0,11,0,,0,0,0,
2026-03-28 11:35:00,METAR KBGE 281135Z AUTO 35011KT CLR 16/13 A3020 RMK AO2 PWINO T01620131,0,11,0,,0,0,0,
2026-03-28 11:15:00,METAR KBGE 281115Z AUTO 35009KT 17/15 A3019 RMK AO2 PWINO T01670152,0,9,0,,0,0,0,
2026-03-28 10:55:00,METAR KBGE 281055Z AUTO 35008KT 17/16 A3018 RMK AO2 PWINO T01690161,0,8,0,,0,0,0,
2026-03-28 10:35:00,METAR KBGE 281035Z AUTO 34007KT 17/17 A3017 RMK AO2 PWINO T01690167,0,7,0,,0,0,0,
2026-03-28 10:15:00,METAR KBGE 281015Z AUTO 35007KT 17/17 A3016 RMK AO2 PWINO T01700169,0,7,0,,0,0,0,
2026-03-28 09:55:00,METAR KBGE 280955Z AUTO 34006KT 17/ A3016 RMK AO2 PWINO T0169////,0,6,0,,0,0,0,
2026-03-28 09:35:00,METAR KBGE 280935Z AUTO 32006KT 16/ A3015 RMK AO2 PWINO T0165////,0,6,0,,0,0,0,
2026-03-28 09:15:00,METAR KBGE 280915Z AUTO 30005KT 17/ A3015 RMK AO2 PWINO T0166////,0,5,0,,0,0,0,
2026-03-28 08:55:00,METAR KBGE 280855Z AUTO 27005KT 16/ A3014 RMK AO2 PWINO T0164////,0,5,0,,0,0,0,
2026-03-28 08:35:00,METAR KBGE 280835Z AUTO 28005KT 17/ A3014 RMK AO2 PWINO T0165////,0,5,0,,0,0,0,
2026-03-28 08:15:00,METAR KBGE 280815Z AUTO 29004KT 17/ A3014 RMK AO2 PWINO T0170////,0,4,0,,0,0,0,
2026-03-28 07:55:00,METAR KBGE 280755Z AUTO 29004KT 17/ A3014 RMK AO2 PWINO T0171////,0,4,0,,0,0,0,
2026-03-28 07:35:00,METAR KBGE 280735Z AUTO 26006KT 18/ A3014 RMK AO2 PWINO T0177////,0,6,0,,0,0,0,
2026-03-28 07:15:00,METAR KBGE 280715Z AUTO 26006KT BKN005 18/ A3013 RMK AO2 PWINO T0180////,0,6,0,,0,0,0,
2026-03-28 06:55:00,METAR KBGE 280655Z AUTO 27006KT OVC005 18/ A3014 RMK AO2 PWINO T0181////,0,6,0,,0,0,0,
2026-03-28 06:35:00,METAR KBGE 280635Z AUTO 26006KT BKN007 18/ A3013 RMK AO2 PWINO T0178////,0,6,0,,0,0,0,
2026-03-28 06:15:00,METAR KBGE 280615Z AUTO 24005KT 18/ A3013 RMK AO2 PWINO T0180////,0,5,0,,0,0,0,
2026-03-28 05:55:00,METAR KBGE 280555Z AUTO 25006KT 18/ A3013 RMK AO2 PWINO T0182//// 10235 20182,0,6,0,,0,0,0,
2026-03-28 05:35:00,METAR KBGE 280535Z AUTO 25006KT 18/ A3013 RMK AO2 PWINO T0184////,0,6,0,,0,0,0,
2026-03-28 05:15:00,METAR KBGE 280515Z AUTO 25007KT 19/19 A3013 RMK AO2 PWINO T01870186,0,7,0,,0,0,0,
2026-03-28 04:55:00,METAR KBGE 280455Z AUTO 25007KT 19/18 A3013 RMK AO2 PWINO T01880185,0,7,0,,0,0,0,
2026-03-28 04:35:00,METAR KBGE 280435Z AUTO 25007KT 19/18 A3013 RMK AO2 PWINO T01920183,0,7,0,,0,0,0,
2026-03-28 04:15:00,METAR KBGE 280415Z AUTO 25009KT 19/18 A3013 RMK AO2 PWINO T01940181,0,9,0,,0,0,0,
2026-03-28 03:55:00,METAR KBGE 280355Z AUTO 24007KT 20/18 A3013 RMK AO2 PWINO T01990179,0,7,0,,0,0,0,
2026-03-28 03:35:00,METAR KBGE 280335Z AUTO 24008KT CLR 20/17 A3012 RMK AO2 PWINO T02030174,0,8,0,,0,0,0,
2026-03-28 03:15:00,METAR KBGE 280315Z AUTO 24006KT 19/17 A3013 RMK AO2 PWINO T01920174,0,6,0,,0,0,0,
2026-03-28 02:55:00,METAR KBGE 280255Z AUTO 22005KT CLR 20/17 A3012 RMK AO2 PWINO T01980175,0,5,0,,0,0,0,
2026-03-28 02:35:00,METAR KBGE 280235Z AUTO 22006KT CLR 20/17 A3012 RMK AO2 PWINO T02000175,0,6,0,,0,0,0,
2026-03-28 02:15:00,METAR KBGE 280215Z AUTO 21005KT CLR 20/17 A3011 RMK AO2 PWINO T02020174,0,5,0,,0,0,0,
2026-03-28 01:55:00,METAR KBGE 280155Z AUTO 21005KT CLR 21/17 A3011 RMK AO2 PWINO T02060173,0,5,0,,0,0,0,
2026-03-28 01:35:00,METAR KBGE 280135Z AUTO 22005KT CLR 21/17 A3010 RMK AO2 PWINO T02080173,0,5,0,,0,0,0,
2026-03-28 01:15:00,METAR KBGE 280115Z AUTO 22005KT CLR 21/17 A3009 RMK AO2 PWINO T02100173,0,5,0,,0,0,0,
2026-03-28 00:55:00,METAR KBGE 280055Z AUTO 22005KT CLR 21/17 A3009 RMK AO2 PWINO T02110173,0,5,0,,0,0,0,
2026-03-28 00:35:00,METAR KBGE 280035Z AUTO 22005KT CLR 22/17 A3008 RMK AO2 PWINO T02170173,0,5,0,,0,0,0,
2026-03-28 00:15:00,METAR KBGE 280015Z AUTO 21006KT CLR 22/17 A3008 RMK AO2 PWINO T02220172,0,6,0,,0,0,0,
2026-03-27 23:55:00,METAR KBGE 272355Z AUTO 22007KT CLR 23/17 A3007 RMK AO2 PWINO T02340167 10271 20222 402710174,0,7,0,,0,0,0,
2026-03-27 23:35:00,METAR KBGE 272335Z AUTO 25005KT CLR 25/16 A3007 RMK AO2 PWINO T02480163,0,5,0,,0,0,0,
2026-03-27 23:15:00,METAR KBGE 272315Z AUTO 24006KT CLR 26/16 A3006 RMK AO2 PWINO T02580160,0,6,0,,0,0,0,
2026-03-27 22:55:00,METAR KBGE 272255Z AUTO 29005KT CLR 26/16 A3006 RMK AO2 PWINO T02630159,0,5,0,,0,0,0,
2026-03-27 22:35:00,METAR KBGE 272235Z AUTO 26006KT CLR 27/16 A3006 RMK AO2 PWINO T02660164,0,6,0,,0,0,0,
2026-03-27 22:15:00,METAR KBGE 272215Z AUTO 28006KT CLR 26/16 A3006 RMK AO2 PWINO T02650162,0,6,0,,0,0,0,
2026-03-27 21:55:00,METAR KBGE 272155Z AUTO 30007KT CLR 27/16 A3007 RMK AO2 PWINO T02670164,0,7,0,,0,0,0,
2026-03-27 21:35:00,METAR KBGE 272135Z AUTO 30007KT CLR 27/16 A3007 RMK AO2 PWINO T02660162,0,7,0,,0,0,0,
2026-03-27 21:15:00,METAR KBGE 272115Z AUTO 30006KT SCT040 26/16 A3007 RMK AO2 PWINO T02630164,0,6,0,,0,0,0,
2026-03-27 20:55:00,METAR KBGE 272055Z AUTO 30004KT SCT038 26/17 A3007 RMK AO2 PWINO T02610166,0,4,0,,0,0,0,
2026-03-27 20:35:00,METAR KBGE 272035Z AUTO 30006KT SCT036 SCT042 26/17 A3009 RMK AO2 PWINO T02560167,0,6,0,,0,0,0,
2026-03-27 20:15:00,METAR KBGE 272015Z AUTO 29009KT BKN034 BKN042 26/17 A3010 RMK AO2 PWINO T02560171,0,9,0,,0,0,0,
2026-03-27 19:55:00,METAR KBGE 271955Z AUTO 34004KT BKN030 BKN035 25/17 A3010 RMK AO2 PWINO T02490174,0,4,0,,0,0,0,
2026-03-27 19:35:00,METAR KBGE 271935Z AUTO 28005KT SCT030 25/18 A3010 RMK AO2 PWINO T02510180,0,5,0,,0,0,0,
2026-03-27 19:15:00,METAR KBGE 271915Z AUTO 29006KT SCT026 BKN032 25/18 A3011 RMK AO2 PWINO T02460177,0,6,0,,0,0,0,
2026-03-27 18:55:00,METAR KBGE 271855Z AUTO 32007KT BKN028 23/18 A3013 RMK AO2 PWINO T02350179,0,7,0,,0,0,0,
2026-03-27 18:35:00,METAR KBGE 271835Z AUTO 31006KT OVC028 23/18 A3014 RMK AO2 PWINO T02330175,0,6,0,,0,0,0,
2026-03-27 18:15:00,METAR KBGE 271815Z AUTO 27008KT 200V280 SCT023 BKN029 OVC034 23/18 A3015 RMK AO2 PWINO T02330179,0,8,0,,0,0,0,
2026-03-27 17:55:00,METAR KBGE 271755Z AUTO 31007KT OVC025 22/18 A3017 RMK AO2 PWINO T02220176 10225 20180,0,7,0,,0,0,0,
2026-03-27 17:35:00,METAR KBGE 271735Z AUTO 30007KT 290V350 SCT021 OVC027 22/17 A3018 RMK AO2 PWINO T02230175,0,7,0,,0,0,0,
2026-03-27 17:15:00,METAR KBGE 271715Z AUTO 30008KT OVC025 22/18 A3018 RMK AO2 PWINO T02200177,0,8,0,,0,0,0,
2026-03-27 16:55:00,METAR KBGE 271655Z AUTO 32009KT OVC023 22/17 A3019 RMK AO2 PWINO T02210173,0,9,0,,0,0,0,
2026-03-27 16:35:00,METAR KBGE 271635Z AUTO 29009KT OVC021 22/18 A3019 RMK AO2 PWINO T02150175,0,9,0,,0,0,0,
2026-03-27 16:15:00,METAR KBGE 271615Z AUTO 30008KT OVC019 21/18 A3019 RMK AO2 PWINO T02150179,0,8,0,,0,0,0,
2026-03-27 15:55:00,METAR KBGE 271555Z AUTO 30007KT OVC017 21/18 A3020 RMK AO2 PWINO T02110180,0,7,0,,0,0,0,
2026-03-25 14:55:00,METAR KBGE 251455Z AUTO 07010KT BKN016 BKN034 OVC041 17/11 A3026 RMK AO2 PWINO T01670112,0,10,0,,0,0,0,
2026-03-25 14:35:00,METAR KBGE 251435Z AUTO 08010KT BKN016 OVC033 16/11 A3026 RMK AO2 PWINO T01590108,0,10,0,,0,0,0,
2026-03-25 14:15:00,METAR KBGE 251415Z AUTO 09010KT OVC016 16/11 A3026 RMK AO2 PWINO T01600107,0,10,0,,0,0,0,
2026-03-25 13:55:00,METAR KBGE 251355Z AUTO 06011KT OVC016 15/10 A3025 RMK AO2 PWINO T01520100,0,11,0,,0,0,0,
2026-03-25 13:35:00,METAR KBGE 251335Z AUTO 07012KT OVC016 15/10 A3024 RMK AO2 PWINO T01490098,0,12,0,,0,0,0,
2026-03-25 13:15:00,METAR KBGE 251315Z AUTO 08009KT OVC016 14/09 A3024 RMK AO2 PWINO T01430094,0,9,0,,0,0,0,
2026-03-25 12:55:00,METAR KBGE 251255Z AUTO 07009KT OVC016 14/10 A3025 RMK AO2 PWINO T01420096,0,9,0,,0,0,0,
2026-03-25 12:35:00,METAR KBGE 251235Z AUTO 08011KT OVC016 14/10 A3024 RMK AO2 PWINO T01410096,0,11,0,,0,0,0,
2026-03-25 12:15:00,METAR KBGE 251215Z AUTO 07010KT OVC016 14/10 A3023 RMK AO2 PWINO T01370099,0,10,0,,0,0,0,
2026-03-25 11:55:00,METAR KBGE 251155Z AUTO 07009KT OVC016 13/10 A3022 RMK AO2 LTG DSNT SE PWINO T01350099 10154 20131,0,9,0,,0,0,0,DS
2026-03-25 11:35:00,METAR KBGE 251135Z AUTO 08008KT OVC016 13/10 A3022 RMK AO2 LTG DSNT SE PWINO T01350099,0,8,0,,0,0,0,DS
2026-03-25 11:15:00,METAR KBGE 251115Z AUTO 08009KT OVC016 14/10 A3022 RMK AO2 LTG DSNT SE PWINO T01360100,0,9,0,,0,0,0,DS
2026-03-25 10:55:00,METAR KBGE 251055Z AUTO 09008KT OVC016 14/10 A3022 RMK AO2 PWINO T01360101,0,8,0,,0,0,0,
2026-03-25 10:35:00,METAR KBGE 251035Z AUTO 08010KT OVC018 14/10 A3022 RMK AO2 PWINO T01370103,0,10,0,,0,0,0,
2026-03-25 10:15:00,METAR KBGE 251015Z AUTO 07007KT BKN018 OVC037 14/10 A3022 RMK AO2 PWINO T01390103,0,7,0,,0,0,0,
2026-03-25 09:55:00,METAR KBGE 250955Z AUTO 07006KT SCT018 OVC035 14/10 A3022 RMK AO2 PWINO T01380103,0,6,0,,0,0,0,
2026-03-25 09:35:00,METAR KBGE 250935Z AUTO 07007KT BKN018 BKN033 14/11 A3021 RMK AO2 PWINO T01370106,0,7,0,,0,0,0,
2026-03-25 09:15:00,METAR KBGE 250915Z AUTO 09007KT SCT018 13/11 A3020 RMK AO2 PWINO T01320106,0,7,0,,0,0,0,
2026-03-25 08:55:00,METAR KBGE 250855Z AUTO 09010KT SCT018 13/11 A3020 RMK AO2 PWINO T01330107,0,10,0,,0,0,0,
2026-03-25 08:35:00,METAR KBGE 250835Z AUTO 11009KT BKN020 BKN031 BKN060 14/11 A3019 RMK AO2 PWINO T01370108,0,9,0,,0,0,0,
2026-03-25 08:15:00,METAR KBGE 250815Z AUTO 11010KT BKN020 OVC031 14/11 A3020 RMK AO2 PWINO T01420107,0,10,0,,0,0,0,
2026-03-25 07:55:00,METAR KBGE 250755Z AUTO 08011KT OVC020 14/11 A3021 RMK AO2 PWINO T01450107,0,11,0,,0,0,0,
2026-03-25 07:35:00,METAR KBGE 250735Z AUTO 08008KT OVC020 15/11 A3022 RMK AO2 PWINO T01470108,0,8,0,,0,0,0,
2026-03-25 07:15:00,METAR KBGE 250715Z AUTO 09008KT OVC020 15/11 A3022 RMK AO2 PWINO T01480109,0,8,0,,0,0,0,
2026-03-25 06:55:00,METAR KBGE 250655Z AUTO 09011KT OVC020 15/11 A3022 RMK AO2 PWINO T01490111,0,11,0,,0,0,0,
2026-03-25 06:35:00,METAR KBGE 250635Z AUTO 08013KT OVC020 15/11 A3022 RMK AO2 PWINO T01510111,0,13,0,,0,0,0,
2026-03-25 06:15:00,METAR KBGE 250615Z AUTO 10009KT OVC022 15/11 A3021 RMK AO2 PWINO T01520110,0,9,0,,0,0,0,
2026-03-25 05:55:00,METAR KBGE 250555Z AUTO 09012KT OVC022 15/11 A3022 RMK AO2 PWINO T01540111 10211 20154,0,12,0,,0,0,0,
2026-03-25 05:35:00,METAR KBGE 250535Z AUTO 08016KT OVC022 16/11 A3022 RMK AO2 PWINO T01560111,0,16,0,,0,0,0,
2026-03-25 05:15:00,METAR KBGE 250515Z AUTO 09010KT OVC022 16/12 A3022 RMK AO2 PWINO T01600117,0,10,0,,0,0,0,
2026-03-25 04:55:00,METAR KBGE 250455Z AUTO 10010KT OVC022 16/12 A3023 RMK AO2 PWINO T01610118,0,10,0,,0,0,0,
2026-03-25 04:35:00,METAR KBGE 250435Z AUTO 09010KT OVC022 16/12 A3022 RMK AO2 PWINO T01630115,0,10,0,,0,0,0,
2026-03-25 04:15:00,METAR KBGE 250415Z AUTO 08012KT OVC022 16/11 A3022 RMK AO2 PWINO T01640115,0,12,0,,0,0,0,
2026-03-25 03:55:00,METAR KBGE 250355Z AUTO 11008KT OVC022 17/13 A3022 RMK AO2 PWINO T01670126,0,8,0,,0,0,0,
2026-03-25 03:35:00,METAR KBGE 250335Z AUTO 10008KT OVC022 17/12 A3021 RMK AO2 PWINO T01670123,0,8,0,,0,0,0,
2026-03-25 03:15:00,METAR KBGE 250315Z AUTO 10010KT BKN022 BKN030 16/12 A3020 RMK AO2 PWINO T01650120,0,10,0,,0,0,0,
2026-03-25 02:55:00,METAR KBGE 250255Z AUTO 10008KT CLR 17/12 A3020 RMK AO2 PWINO T01660122,0,8,0,,0,0,0,
2026-03-25 02:35:00,METAR KBGE 250235Z AUTO 10009KT CLR 17/12 A3019 RMK AO2 PWINO T01670122,0,9,0,,0,0,0,
2026-03-25 02:15:00,METAR KBGE 250215Z AUTO 10011KT CLR 17/12 A3019 RMK AO2 PWINO T01710125,0,11,0,,0,0,0,
2026-03-25 01:55:00,METAR KBGE 250155Z AUTO 10009KT CLR 17/13 A3018 RMK AO2 PWINO T01750126,0,9,0,,0,0,0,
2026-03-25 01:35:00,METAR KBGE 250135Z AUTO 09011KT CLR 18/13 A3017 RMK AO2 PWINO T01780128,0,11,0,,0,0,0,
2026-03-25 01:15:00,METAR KBGE 250115Z AUTO 09012KT CLR 18/13 A3016 RMK AO2 PWINO T01840130,0,12,0,,0,0,0,
2026-03-25 00:55:00,METAR KBGE 250055Z AUTO 10011G17KT CLR 19/13 A3016 RMK AO2 PWINO T01890131,0,11,1,,0,0,0,
2026-03-25 00:35:00,METAR KBGE 250035Z AUTO 10011KT CLR 20/13 A3015 RMK AO2 PWINO T01960133,0,11,0,,0,0,0,
2026-03-25 00:15:00,METAR KBGE 250015Z AUTO 10009KT CLR 20/13 A3014 RMK AO2 PWINO T02030134,0,9,0,,0,0,0,
2026-03-24 23:55:00,METAR KBGE 242355Z AUTO 10011G18KT CLR 21/13 A3013 RMK AO2 PWINO T02130133 10263 20211 402630140,0,11,1,,0,0,0,
2026-03-24 23:35:00,METAR KBGE 242335Z AUTO 10010KT SCT060 22/13 A3012 RMK AO2 PWINO T02230129,0,10,0,,0,0,0,
2026-03-24 23:15:00,METAR KBGE 242315Z AUTO 11010KT BKN060 23/13 A3012 RMK AO2 PWINO T02340128,0,10,0,,0,0,0,
2026-03-24 22:55:00,METAR KBGE 242255Z AUTO 08009KT CLR 25/12 A3011 RMK AO2 PWINO T02460116,0,9,0,,0,0,0,
2026-03-24 22:35:00,METAR KBGE 242235Z AUTO 06011KT CLR 25/11 A3011 RMK AO2 PWINO T02510113,0,11,0,,0,0,0,
2026-03-24 22:15:00,METAR KBGE 242215Z AUTO 09010G14KT CLR 25/11 A3011 RMK AO2 PWINO T02540105,0,10,1,,0,0,0,
2026-03-24 21:55:00,METAR KBGE 242155Z AUTO 07006KT CLR 25/10 A3011 RMK AO2 PWINO T02530098,0,6,0,,0,0,0,
2026-03-24 21:35:00,METAR KBGE 242135Z AUTO 06009KT SCT100 26/09 A3011 RMK AO2 PWINO T02560093,0,9,0,,0,0,0,
2026-03-24 21:15:00,METAR KBGE 242115Z AUTO 06011KT SCT100 25/09 A3011 RMK AO2 PWINO T02510091,0,11,0,,0,0,0,
2026-03-24 20:55:00,METAR KBGE 242055Z AUTO 08010G16KT CLR 26/09 A3011 RMK AO2 PWINO T02600089,0,10,1,,0,0,0,
2026-03-24 20:35:00,METAR KBGE 242035Z AUTO 06010G19KT CLR 26/08 A3012 RMK AO2 PWINO T02580083,0,10,1,,0,0,0,
2026-03-24 20:15:00,METAR KBGE 242015Z AUTO 06012G15KT CLR 26/08 A3012 RMK AO2 PWINO T02550076,0,12,1,,0,0,0,
2026-03-24 19:55:00,METAR KBGE 241955Z AUTO 10009KT CLR 25/07 A3012 RMK AO2 PWINO T02550073,0,9,0,,0,0,0,
2026-03-24 19:35:00,METAR KBGE 241935Z AUTO 05010KT CLR 25/07 A3013 RMK AO2 PWINO T02550071,0,10,0,,0,0,0,
2026-03-24 19:15:00,METAR KBGE 241915Z AUTO 06008G16KT 030V110 CLR 25/06 A3013 RMK AO2 PWINO T02510065,0,8,1,,0,0,0,
2026-03-24 18:55:00,METAR KBGE 241855Z AUTO 07008KT CLR 25/06 A3014 RMK AO2 PWINO T02460061,0,8,0,,0,0,0,
2026-03-24 18:35:00,METAR KBGE 241835Z AUTO 08010G22KT CLR 24/06 A3014 RMK AO2 PWINO T02440057,0,10,1,,0,0,0,
2026-03-24 18:15:00,METAR KBGE 241815Z AUTO 07012G18KT CLR 25/06 A3015 RMK AO2 PWINO T02460059,0,12,1,,0,0,0,
2026-03-24 17:55:00,METAR KBGE 241755Z AUTO 09012G16KT CLR 24/05 A3016 RMK AO2 PWINO T02400052 10245 20144,0,12,1,,0,0,0,
2026-03-24 17:35:00,METAR KBGE 241735Z AUTO 12007KT CLR 23/05 A3017 RMK AO2 PWINO T02340046,0,7,0,,0,0,0,
2026-03-24 17:15:00,METAR KBGE 241715Z AUTO 07011G19KT CLR 24/04 A3017 RMK AO2 PWINO T02370043,0,11,1,,0,0,0,
2026-03-24 16:55:00,METAR KBGE 241655Z AUTO 07014G21KT CLR 23/03 A3018 RMK AO2 PWINO T02290034,0,14,1,,0,0,0,
2026-03-24 16:35:00,METAR KBGE 241635Z AUTO 07010KT CLR 23/03 A3018 RMK AO2 PWINO T02300030,0,10,0,,0,0,0,
2026-03-24 16:15:00,METAR KBGE 241615Z AUTO 08017KT CLR 22/03 A3018 RMK AO2 PWINO T02240030,0,17,0,,0,0,0,
2026-03-24 15:55:00,METAR KBGE 241555Z AUTO 09016G20KT CLR 22/03 A3018 RMK AO2 PWINO T02210027,0,16,1,,0,0,0,
2026-03-24 15:35:00,METAR KBGE 241535Z AUTO 09015G20KT CLR 22/02 A3018 RMK AO2 PWINO T02170024,0,15,1,,0,0,0,
2026-03-24 15:15:00,METAR KBGE 241515Z AUTO 07019G24KT CLR 21/03 A3018 RMK AO2 PWINO T02110025,0,19,1,,0,0,0,
2026-03-24 14:55:00,METAR KBGE 241455Z AUTO 09015G22KT CLR 21/03 A3017 RMK AO2 PWINO T02070030,0,15,1,,0,0,0,
2026-03-24 14:35:00,METAR KBGE 241435Z AUTO 08014G18KT CLR 20/05 A3017 RMK AO2 PWINO T01970052,0,14,1,,0,0,0,
2026-03-24 14:15:00,METAR KBGE 241415Z AUTO 07012G19KT CLR 19/06 A3017 RMK AO2 PWINO T01870062,0,12,1,,0,0,0,
2026-03-24 13:55:00,METAR KBGE 241355Z AUTO 06014G19KT CLR 18/07 A3015 RMK AO2 PWINO T01800067,0,14,1,,0,0,0,
2026-03-24 13:35:00,METAR KBGE 241335Z AUTO 06011KT CLR 17/07 A3014 RMK AO2 PWINO T01690072,0,11,0,,0,0,0,
2026-03-24 13:15:00,METAR KBGE 241315Z AUTO 07008KT SCT055 16/07 A3014 RMK AO2 PWINO T01570074,0,8,0,,0,0,0,
2026-03-24 12:55:00,METAR KBGE 241255Z AUTO 04008KT SCT055 15/07 A3014 RMK AO2 PWINO T01480071,0,8,0,,0,0,0,
2026-03-24 12:35:00,METAR KBGE 241235Z AUTO 04006KT CLR 14/07 A3013 RMK AO2 PWINO T01440069,0,6,0,,0,0,0,
2026-03-24 05:55:00,METAR KBGE 240555Z AUTO 27004KT 18/17 A3006 RMK AO2 PWINO T01790172 10261 20177,0,4,0,,0,0,0,
2026-03-24 05:35:00,METAR KBGE 240535Z AUTO 29003KT 18/17 A3006 RMK AO2 PWINO T01800172,0,3,0,,0,0,0,
2026-03-24 05:15:00,METAR KBGE 240515Z AUTO 00000KT 18/17 A3006 RMK AO2 PWINO T01840174,0,0,0,,0,0,0,
2026-03-24 04:55:00,METAR KBGE 240455Z AUTO 26004KT 19/17 A3006 RMK AO2 PWINO T01890173,0,4,0,,0,0,0,
2026-03-24 04:35:00,METAR KBGE 240435Z AUTO 26005KT 19/17 A3006 RMK AO2 PWINO T01950174,0,5,0,,0,0,0,
2026-03-24 04:15:00,METAR KBGE 240415Z AUTO 27005KT CLR 20/17 A3006 RMK AO2 PWINO T02000173,0,5,0,,0,0,0,
2026-03-24 03:55:00,METAR KBGE 240355Z AUTO 26006KT CLR 20/17 A3006 RMK AO2 PWINO T02000172,0,6,0,,0,0,0,
2026-03-24 03:35:00,METAR KBGE 240335Z AUTO 26007KT CLR 21/17 A3006 RMK AO2 PWINO T02070171,0,7,0,,0,0,0,
2026-03-24 03:15:00,METAR KBGE 240315Z AUTO 25007KT SCT060 21/17 A3005 RMK AO2 PWINO T02110169,0,7,0,,0,0,0,
2026-03-24 02:55:00,METAR KBGE 240255Z AUTO 24008KT SCT060 SCT080 21/17 A3005 RMK AO2 PWINO T02140168,0,8,0,,0,0,0,
2026-03-24 02:35:00,METAR KBGE 240235Z AUTO 23007KT SCT055 SCT080 22/17 A3004 RMK AO2 PWINO T02170168,0,7,0,,0,0,0,
2026-03-24 02:15:00,METAR KBGE 240215Z AUTO 23007KT CLR 22/17 A3004 RMK AO2 PWINO T02220169,0,7,0,,0,0,0,
2026-03-24 01:55:00,METAR KBGE 240155Z AUTO 23006KT SCT060 SCT075 23/17 A3004 RMK AO2 PWINO T02270169,0,6,0,,0,0,0,
2026-03-24 01:35:00,METAR KBGE 240135Z AUTO 23008KT SCT060 SCT080 BKN085 23/17 A3003 RMK AO2 PWINO T02350169,0,8,0,,0,0,0,
2026-03-24 01:15:00,METAR KBGE 240115Z AUTO 22010KT SCT060 BKN080 BKN085 25/17 A3002 RMK AO2 PWINO T02470169,0,10,0,,0,0,0,
2026-03-24 00:55:00,METAR KBGE 240055Z AUTO 24008KT BKN060 BKN070 OVC080 26/17 A3001 RMK AO2 PWINO T02570170,0,8,0,,0,0,0,
2026-03-24 00:35:00,METAR KBGE 240035Z AUTO 26006KT BKN060 BKN085 26/17 A3000 RMK AO2 PWINO T02600168,0,6,0,,0,0,0,
2026-03-24 00:15:00,METAR KBGE 240015Z AUTO 27007KT SCT060 SCT070 25/17 A2999 RMK AO2 PWINO T02530167,0,7,0,,0,0,0,
2026-03-23 23:55:00,METAR KBGE 232355Z AUTO 28007KT SCT070 26/17 A2999 RMK AO2 PWINO T02610166 10305 20260 403050165,0,7,0,,0,0,0,
2026-03-23 23:35:00,METAR KBGE 232335Z AUTO 29008KT SCT060 27/17 A2999 RMK AO2 PWINO T02700165,0,8,0,,0,0,0,
2026-03-23 23:15:00,METAR KBGE 232315Z AUTO 28009KT CLR 28/16 A2998 RMK AO2 PWINO T02810164,0,9,0,,0,0,0,
2026-03-23 22:55:00,METAR KBGE 232255Z AUTO 27009KT CLR 29/16 A2997 RMK AO2 PWINO T02890157,0,9,0,,0,0,0,
2026-03-23 22:35:00,METAR KBGE 232235Z AUTO 27011KT CLR 29/16 A2997 RMK AO2 PWINO T02930158,0,11,0,,0,0,0,
2026-03-23 22:15:00,METAR KBGE 232215Z AUTO 27009KT CLR 30/15 A2996 RMK AO2 PWINO T02970154,0,9,0,,0,0,0,
2026-03-23 21:55:00,METAR KBGE 232155Z AUTO 28011KT CLR 30/16 A2996 RMK AO2 PWINO T03000157,0,11,0,,0,0,0,
2026-03-23 21:35:00,METAR KBGE 232135Z AUTO 29012KT CLR 30/16 A2996 RMK AO2 PWINO T03020156,0,12,0,,0,0,0,
2026-03-23 21:15:00,METAR KBGE 232115Z AUTO 29009G15KT CLR 30/15 A2996 RMK AO2 PWINO T03010153,0,9,1,,0,0,0,
2026-03-23 20:55:00,METAR KBGE 232055Z AUTO 27010KT CLR 30/15 A2996 RMK AO2 PWINO T03020153,0,10,0,,0,0,0,
2026-03-23 20:35:00,METAR KBGE 232035Z AUTO 23009KT CLR 30/15 A2996 RMK AO2 PWINO T02990154,0,9,0,,0,0,0,
2026-03-23 20:15:00,METAR KBGE 232015Z AUTO 24007KT CLR 29/15 A2997 RMK AO2 PWINO T02950155,0,7,0,,0,0,0,
2026-03-23 19:55:00,METAR KBGE 231955Z AUTO 28012G15KT CLR 30/15 A2998 RMK AO2 PWINO T02950151,0,12,1,,0,0,0,
2026-03-23 19:35:00,METAR KBGE 231935Z AUTO 26009KT CLR 29/15 A2998 RMK AO2 PWINO,0,9,0,,0,0,0,
2026-03-23 19:15:00,METAR KBGE 231915Z AUTO 26008KT 230V290 CLR 29/15 A2999 RMK AO2 PWINO T02860153,0,8,0,,0,0,0,
2026-03-23 18:55:00,METAR KBGE 231855Z AUTO 27006KT CLR 28/15 A3000 RMK AO2 PWINO T02830155,0,6,0,,0,0,0,
2026-03-23 18:35:00,METAR KBGE 231835Z AUTO 28013KT CLR 28/15 A3001 RMK AO2 PWINO T02840154,0,13,0,,0,0,0,
2026-03-23 18:15:00,METAR KBGE 231815Z AUTO 25008KT CLR 28/15 A3002 RMK AO2 PWINO T02770150,0,8,0,,0,0,0,
2026-03-23 17:55:00,METAR KBGE 231755Z AUTO 30012KT CLR 27/15 A3004 RMK AO2 PWINO T02720149 10276 20170,0,12,0,,0,0,0,
2026-03-23 17:35:00,METAR KBGE 231735Z AUTO 31009G16KT CLR 27/15 A3004 RMK AO2 PWINO T02670147,0,9,1,,0,0,0,
2026-03-23 17:15:00,METAR KBGE 231715Z AUTO 28013KT CLR 27/15 A3005 RMK AO2 PWINO T02690150,0,13,0,,0,0,0,
2026-03-23 16:55:00,METAR KBGE 231655Z AUTO 26014G18KT CLR 27/15 A3006 RMK AO2 PWINO T02660151,0,14,1,,0,0,0,
2026-03-23 16:35:00,METAR KBGE 231635Z AUTO 27013G16KT CLR 26/16 A3007 RMK AO2 PWINO T02560158,0,13,1,,0,0,0,
2026-03-23 16:15:00,METAR KBGE 231615Z AUTO 26014G19KT CLR 25/17 A3007 RMK AO2 PWINO T02470165,0,14,1,,0,0,0,
2026-03-23 15:55:00,METAR KBGE 231555Z AUTO 27015G19KT CLR 24/17 A3008 RMK AO2 PWINO T02400168,0,15,1,,0,0,0,
2026-03-23 15:35:00,METAR KBGE 231535Z AUTO 29015KT CLR 23/17 A3009 RMK AO2 PWINO T02320170,0,15,0,,0,0,0,
2026-03-23 15:15:00,METAR KBGE 231515Z AUTO 29013KT SCT017 22/17 A3009 RMK AO2 PWINO T02250174,0,13,0,,0,0,0,
2026-03-23 14:55:00,METAR KBGE 231455Z AUTO 28013G19KT SCT016 22/17 A3009 RMK AO2 PWINO T02170171,0,13,1,,0,0,0,
2026-03-23 14:35:00,METAR KBGE 231435Z AUTO 30013KT BKN014 21/18 A3009 RMK AO2 PWINO T02120176,0,13,0,,0,0,0,
2026-03-23 14:15:00,METAR KBGE 231415Z AUTO 30013G20KT BKN014 21/18 A3009 RMK AO2 PWINO T02100178,0,13,1,,0,0,0,
2026-03-23 13:55:00,METAR KBGE 231355Z AUTO 28015KT BKN012 20/18 A3008 RMK AO2 PWINO T02050181,0,15,0,,0,0,0,
2026-03-23 13:35:00,METAR KBGE 231335Z AUTO 27014KT BKN012 20/18 A3008 RMK AO2 PWINO T01970181,0,14,0,,0,0,0,
2026-03-23 13:15:00,METAR KBGE 231315Z AUTO 25011KT 19/18 A3007 RMK AO2 PWINO T01910183,0,11,0,,0,0,0,
2026-03-23 12:55:00,METAR KBGE 231255Z AUTO 25009KT 18/18 A3006 RMK AO2 PWINO T01830182,0,9,0,,0,0,0,
2026-03-23 12:35:00,METAR KBGE 231235Z AUTO 24008KT 18/ A3006 RMK AO2 PWINO T0176////,0,8,0,,0,0,0,
2026-03-23 12:15:00,METAR KBGE 231215Z AUTO 24006KT 17/ A3006 RMK AO2 PWINO T0173////,0,6,0,,0,0,0,
2026-03-23 11:55:00,METAR KBGE 231155Z AUTO 24008KT 17/ A3006 RMK AO2 PWINO T0169//// 10180 20165,0,8,0,,0,0,0,
2026-03-23 11:35:00,METAR KBGE 231135Z AUTO 25008KT BKN008 17/ A3005 RMK AO2 PWINO T0171////,0,8,0,,0,0,0,
2026-03-23 11:15:00,METAR KBGE 231115Z AUTO 24008KT OVC008 17/ A3005 RMK AO2 PWINO T0173////,0,8,0,,0,0,0,
2026-03-23 10:55:00,METAR KBGE 231055Z AUTO 26009KT OVC008 17/ A3005 RMK AO2 PWINO T0175////,0,9,0,,0,0,0,
2026-03-23 10:35:00,METAR KBGE 231035Z AUTO 27008KT OVC008 18/ A3004 RMK AO2 PWINO T0176////,0,8,0,,0,0,0,
2026-03-23 10:15:00,METAR KBGE 231015Z AUTO 26011KT OVC006 18/ A3003 RMK AO2 PWINO T0177////,0,11,0,,0,0,0,
2026-03-23 09:55:00,METAR KBGE 230955Z AUTO 26011KT OVC006 18/ A3003 RMK AO2 PWINO T0177////,0,11,0,,0,0,0,
2026-03-23 09:35:00,METAR KBGE 230935Z AUTO 26012KT OVC006 18/ A3003 RMK AO2 PWINO T0179////,0,12,0,,0,0,0,
2026-03-23 09:15:00,METAR KBGE 230915Z AUTO 25008KT OVC006 18/ A3003 RMK AO2 PWINO T0180////,0,8,0,,0,0,0,
2026-03-23 08:55:00,METAR KBGE 230855Z AUTO 25010KT OVC006 18/ A3003 RMK AO2 PWINO T0179////,0,10,0,,0,0,0,
2026-03-23 08:35:00,METAR KBGE 230835Z AUTO 25010KT OVC004 18/ A3003 RMK AO2 PWINO T0178////,0,10,0,,0,0,0,
2026-03-23 08:15:00,METAR KBGE 230815Z AUTO 25008KT OVC004 18/ A3003 RMK AO2 PWINO T0177////,0,8,0,,0,0,0,
2026-03-23 07:55:00,METAR KBGE 230755Z AUTO 25009KT OVC004 17/ A3003 RMK AO2 PWINO T0174////,0,9,0,,0,0,0,
2026-03-23 07:35:00,METAR KBGE 230735Z AUTO 24007KT OVC004 17/ A3004 RMK AO2 PWINO T0172////,0,7,0,,0,0,0,
2026-03-23 07:15:00,METAR KBGE 230715Z AUTO 24007KT 17/ A3004 RMK AO2 PWINO T0166////,0,7,0,,0,0,0,
2026-03-23 06:55:00,METAR KBGE 230655Z AUTO 25007KT 17/ A3005 RMK AO2 PWINO T0166////,0,7,0,,0,0,0,
2026-03-23 06:35:00,METAR KBGE 230635Z AUTO 23007KT 17/ A3005 RMK AO2 PWINO T0167////,0,7,0,,0,0,0,
2026-03-23 06:15:00,METAR KBGE 230615Z AUTO 24005KT 17/ A3005 RMK AO2 PWINO T0169////,0,5,0,,0,0,0,
2026-03-23 05:55:00,METAR KBGE 230555Z AUTO 24006KT 17/ A3006 RMK AO2 PWINO T0172//// 10236 20172,0,6,0,,0,0,0,
2026-03-23 05:35:00,METAR KBGE 230535Z AUTO 23008KT 17/ A3005 RMK AO2 PWINO T0173////,0,8,0,,0,0,0,
2026-03-23 05:15:00,METAR KBGE 230515Z AUTO 23007KT 18/ A3006 RMK AO2 PWINO T0175////,0,7,0,,0,0,0,
2026-03-23 04:55:00,METAR KBGE 230455Z AUTO 23007KT 18/ A3006 RMK AO2 PWINO T0177////,0,7,0,,0,0,0,
2026-03-23 04:35:00,METAR KBGE 230435Z AUTO 23007KT 18/18 A3006 RMK AO2 PWINO T0178////,0,7,0,,0,0,0,
2026-03-23 04:15:00,METAR KBGE 230415Z AUTO 23008KT 18/18 A3005 RMK AO2 PWINO T01800180,0,8,0,,0,0,0,
2026-03-23 03:55:00,METAR KBGE 230355Z AUTO 22009KT 18/18 A3005 RMK AO2 PWINO T01830179,0,9,0,,0,0,0,
2026-03-23 03:35:00,METAR KBGE 230335Z AUTO 23009KT 18/18 A3005 RMK AO2 PWINO T01830176,0,9,0,,0,0,0,
2026-03-23 03:15:00,METAR KBGE 230315Z AUTO 23010KT 19/17 A3005 RMK AO2 PWINO T01870175,0,10,0,,0,0,0,
2026-03-23 02:55:00,METAR KBGE 230255Z AUTO 23008KT 19/17 A3005 RMK AO2 PWINO T01880175,0,8,0,,0,0,0,
2026-03-23 02:35:00,METAR KBGE 230235Z AUTO 23010KT 19/18 A3005 RMK AO2 PWINO T01920175,0,10,0,,0,0,0,
2026-03-23 02:15:00,METAR KBGE 230215Z AUTO 23010G15KT 20/17 A3004 RMK AO2 PWINO T01950174,0,10,1,,0,0,0,
2026-03-23 01:55:00,METAR KBGE 230155Z AUTO 23012KT CLR 20/17 A3004 RMK AO2 PWINO T01990173,0,12,0,,0,0,0,
2026-03-23 01:35:00,METAR KBGE 230135Z AUTO 23011KT CLR 21/17 A3003 RMK AO2 PWINO T02050170,0,11,0,,0,0,0,
2026-03-23 01:15:00,METAR KBGE 230115Z AUTO 23012G16KT CLR 21/16 A3003 RMK AO2 PWINO T02110163,0,12,1,,0,0,0,
2026-03-23 00:55:00,METAR KBGE 230055Z AUTO 23013G17KT CLR 22/15 A3002 RMK AO2 PWINO T02170149,0,13,1,,0,0,0,
2026-03-23 00:35:00,METAR KBGE 230035Z AUTO 22011KT CLR 22/14 A3001 RMK AO2 PWINO T02240143,0,11,0,,0,0,0,
2026-03-23 00:15:00,METAR KBGE 230015Z AUTO 22013KT CLR 23/14 A3000 RMK AO2 PWINO T02290138,0,13,0,,0,0,0,
2026-03-22 23:55:00,METAR KBGE 222355Z AUTO 22012KT CLR 24/14 A3000 RMK AO2 PWINO T02370138 10294 20236 402940133,0,12,0,,0,0,0,
2026-03-22 23:35:00,METAR KBGE 222335Z AUTO 22013KT CLR 25/14 A3000 RMK AO2 PWINO T02480137,0,13,0,,0,0,0,
2026-03-22 23:15:00,METAR KBGE 222315Z AUTO 22014G21KT CLR 26/14 A2999 RMK AO2 PWINO T02580138,0,14,1,,0,0,0,
2026-03-22 22:55:00,METAR KBGE 222255Z AUTO 23013G21KT CLR 27/14 A2999 RMK AO2 PWINO T02680137,0,13,1,,0,0,0,
2026-03-22 22:35:00,METAR KBGE 222235Z AUTO 22015KT CLR 28/13 A2999 RMK AO2 PWINO T02770133,0,15,0,,0,0,0,
2026-03-22 22:15:00,METAR KBGE 222215Z AUTO 22013KT CLR 28/13 A2998 RMK AO2 PWINO T02820134,0,13,0,,0,0,0,
2026-03-22 21:55:00,METAR KBGE 222155Z AUTO 21013G17KT CLR 29/13 A2998 RMK AO2 PWINO T02860132,0,13,1,,0,0,0,
2026-03-22 21:35:00,METAR KBGE 222135Z AUTO 22012KT CLR 29/13 A2998 RMK AO2 PWINO T02870134,0,12,0,,0,0,0,
2026-03-22 21:15:00,METAR KBGE 222115Z AUTO 22009KT CLR 29/14 A2998 RMK AO2 PWINO T02900137,0,9,0,,0,0,0,
2026-03-22 20:55:00,METAR KBGE 222055Z AUTO 23012G16KT CLR 29/13 A2999 RMK AO2 PWINO T02920132,0,12,1,,0,0,0,
2026-03-22 20:35:00,METAR KBGE 222035Z AUTO 24010G15KT CLR 29/13 A2999 RMK AO2 PWINO T02880133,0,10,1,,0,0,0,
2026-03-22 20:15:00,METAR KBGE 222015Z AUTO 27009G20KT CLR 29/13 A3000 RMK AO2 PWINO T02880134,0,9,1,,0,0,0,
2026-03-22 19:55:00,METAR KBGE 221955Z AUTO 24010G15KT CLR 29/14 A3000 RMK AO2 PWINO T02890136,0,10,1,,0,0,0,
2026-03-22 19:35:00,METAR KBGE 221935Z AUTO 24013KT CLR 28/13 A3001 RMK AO2 PWINO T02830134,0,13,0,,0,0,0,
2026-03-22 19:15:00,METAR KBGE 221915Z AUTO 24013G17KT CLR 28/13 A3002 RMK AO2 PWINO T02790129,0,13,1,,0,0,0,
2026-03-22 18:55:00,METAR KBGE 221855Z AUTO 26010KT CLR 28/13 A3003 RMK AO2 PWINO T02770134,0,10,0,,0,0,0,
2026-03-22 18:35:00,METAR KBGE 221835Z AUTO 24009KT CLR 27/13 A3004 RMK AO2 PWINO T02740135,0,9,0,,0,0,0,
2026-03-22 18:15:00,METAR KBGE 221815Z AUTO 22010G15KT CLR 27/14 A3005 RMK AO2 PWINO T02730142,0,10,1,,0,0,0,
2026-03-22 17:55:00,METAR KBGE 221755Z AUTO 26006KT CLR 27/15 A3006 RMK AO2 PWINO T02650150 10271 20152,0,6,0,,0,0,0,
2026-03-22 17:35:00,METAR KBGE 221735Z AUTO 24009KT SCT040 26/15 A3007 RMK AO2 PWINO T02600152,0,9,0,,0,0,0,
2026-03-22 17:15:00,METAR KBGE 221715Z AUTO 26011KT SCT031 26/16 A3008 RMK AO2 PWINO T02570158,0,11,0,,0,0,0,
2026-03-22 16:55:00,METAR KBGE 221655Z AUTO 25009KT SCT031 25/16 A3009 RMK AO2 PWINO T02470164,0,9,0,,0,0,0,
2026-03-22 16:35:00,METAR KBGE 221635Z AUTO 27007KT CLR 24/17 A3009 RMK AO2 PWINO T02430166,0,7,0,,0,0,0,
2026-03-22 16:15:00,METAR KBGE 221615Z AUTO 27009KT CLR 24/17 A3009 RMK AO2 PWINO T02400171,0,9,0,,0,0,0,
2026-03-22 15:55:00,METAR KBGE 221555Z AUTO 26009KT CLR 23/17 A3010 RMK AO2 PWINO T02320169,0,9,0,,0,0,0,
2026-03-22 15:35:00,METAR KBGE 221535Z AUTO 27013KT CLR 23/17 A3010 RMK AO2 PWINO T02270168,0,13,0,,0,0,0,
2026-03-22 15:15:00,METAR KBGE 221515Z AUTO 27013G16KT CLR 22/16 A3010 RMK AO2 PWINO T02200165,0,13,1,,0,0,0,
2026-03-22 14:55:00,METAR KBGE 221455Z AUTO 28014G17KT CLR 22/17 A3010 RMK AO2 PWINO T02200167,0,14,1,,0,0,0,
2026-03-22 14:35:00,METAR KBGE 221435Z AUTO 25012KT CLR 21/17 A3010 RMK AO2 PWINO T02110173,0,12,0,,0,0,0,
2026-03-22 14:15:00,METAR KBGE 221415Z AUTO 26010KT 20/18 A3010 RMK AO2 PWINO T02020178,0,10,0,,0,0,0,
2026-03-22 13:55:00,METAR KBGE 221355Z AUTO 26009KT 19/18 A3009 RMK AO2 PWINO T01910181,0,9,0,,0,0,0,
2026-03-22 13:35:00,METAR KBGE 221335Z AUTO 25009KT 18/ A3009 RMK AO2 PWINO T0181////,0,9,0,,0,0,0,
2026-03-22 13:15:00,METAR KBGE 221315Z AUTO 24006KT 17/ A3008 RMK AO2 PWINO T0173////,0,6,0,,0,0,0,
2026-03-22 12:55:00,METAR KBGE 221255Z AUTO 24007KT 17/ A3008 RMK AO2 PWINO T0167////,0,7,0,,0,0,0,
2026-03-22 12:35:00,METAR KBGE 221235Z AUTO 24005KT 16/ A3008 RMK AO2 PWINO T0160////,0,5,0,,0,0,0,
2026-03-22 12:15:00,METAR KBGE 221215Z AUTO 24006KT BKN002 16/ A3007 RMK AO2 PWINO T0156////,0,6,0,,0,0,0,
2026-03-22 11:35:00,METAR KBGE 221135Z AUTO 23006KT OVC002 15/ A3006 RMK AO2 PWINO T0148////,0,6,0,,0,0,0,
2026-03-22 11:15:00,METAR KBGE 221115Z AUTO 22007KT OVC002 15/ A3006 RMK AO2 PWINO T0146////,0,7,0,,0,0,0,
2026-03-22 10:55:00,METAR KBGE 221055Z AUTO 23005KT OVC002 14/ A3006 RMK AO2 PWINO T0145////,0,5,0,,0,0,0,
2026-03-22 10:35:00,METAR KBGE 221035Z AUTO 22005KT OVC002 15/ A3005 RMK AO2 PWINO T0146////,0,5,0,,0,0,0,
2026-03-22 10:15:00,METAR KBGE 221015Z AUTO 22003KT OVC002 14/ A3005 RMK AO2 PWINO T0142////,0,3,0,,0,0,0,
2026-03-22 09:55:00,METAR KBGE 220955Z AUTO 23004KT BKN002 14/ A3004 RMK AO2 PWINO T0138////,0,4,0,,0,0,0,
2026-03-22 09:35:00,METAR KBGE 220935Z AUTO 22004KT 14/ A3004 RMK AO2 PWINO T0138////,0,4,0,,0,0,0,
2026-03-22 09:15:00,METAR KBGE 220915Z AUTO 23004KT 14/ A3004 RMK AO2 PWINO T0138////,0,4,0,,0,0,0,
2026-03-22 08:55:00,METAR KBGE 220855Z AUTO 22004KT 14/ A3004 RMK AO2 PWINO T0137////,0,4,0,,0,0,0,
2026-03-22 08:35:00,METAR KBGE 220835Z AUTO 22004KT 14/ A3004 RMK AO2 PWINO T0139////,0,4,0,,0,0,0,
2026-03-22 08:15:00,METAR KBGE 220815Z AUTO 23003KT 14/ A3004 RMK AO2 PWINO T0143////,0,3,0,,0,0,0,
2026-03-22 07:55:00,METAR KBGE 220755Z AUTO 26004KT 15/ A3004 RMK AO2 PWINO T0146////,0,4,0,,0,0,0,
2026-03-22 07:35:00,METAR KBGE 220735Z AUTO 24005KT 15/ A3004 RMK AO2 PWINO T0147////,0,5,0,,0,0,0,
2026-03-22 07:15:00,METAR KBGE 220715Z AUTO 23005KT 15/ A3005 RMK AO2 PWINO T0150////,0,5,0,,0,0,0,
2026-03-22 06:55:00,METAR KBGE 220655Z AUTO 24005KT 15/ A3005 RMK AO2 PWINO T0151////,0,5,0,,0,0,0,
2026-03-22 06:35:00,METAR KBGE 220635Z AUTO 24005KT 15/ A3005 RMK AO2 PWINO T0154////,0,5,0,,0,0,0,
2026-03-22 06:15:00,METAR KBGE 220615Z AUTO 24005KT 16/16 A3006 RMK AO2 PWINO T0156////,0,5,0,,0,0,0,
2026-03-22 05:55:00,METAR KBGE 220555Z AUTO 24007KT 16/16 A3005 RMK AO2 PWINO T01590156 10240 20157,0,7,0,,0,0,0,
2026-03-22 05:35:00,METAR KBGE 220535Z AUTO 23009KT 16/16 A3005 RMK AO2 PWINO T01590156,0,9,0,,0,0,0,
2026-03-22 05:15:00,METAR KBGE 220515Z AUTO 23008KT 16/15 A3005 RMK AO2 PWINO T01580151,0,8,0,,0,0,0,
2026-03-22 04:55:00,METAR KBGE 220455Z AUTO 23007KT 16/15 A3006 RMK AO2 PWINO T01590146,0,7,0,,0,0,0,
2026-03-22 04:35:00,METAR KBGE 220435Z AUTO 24007KT 16/14 A3006 RMK AO2 PWINO T01640143,0,7,0,,0,0,0,
2026-03-22 04:15:00,METAR KBGE 220415Z AUTO 24007KT CLR 17/14 A3006 RMK AO2 PWINO T01670138,0,7,0,,0,0,0,
2026-03-22 03:55:00,METAR KBGE 220355Z AUTO 23009KT CLR 17/13 A3006 RMK AO2 PWINO T01690132,0,9,0,,0,0,0,
2026-03-22 03:35:00,METAR KBGE 220335Z AUTO 23008KT CLR 17/12 A3006 RMK AO2 PWINO T01730125,0,8,0,,0,0,0,
2026-03-22 03:15:00,METAR KBGE 220315Z AUTO 24007KT CLR 18/12 A3006 RMK AO2 PWINO T01770116,0,7,0,,0,0,0,
2026-03-22 02:55:00,METAR KBGE 220255Z AUTO 24008KT CLR 18/11 A3006 RMK AO2 PWINO T01800107,0,8,0,,0,0,0,
2026-03-22 02:35:00,METAR KBGE 220235Z AUTO 24009KT CLR 19/10 A3005 RMK AO2 PWINO T01870100,0,9,0,,0,0,0,
2026-03-22 02:15:00,METAR KBGE 220215Z AUTO 24010KT CLR 19/09 A3004 RMK AO2 PWINO T01900095,0,10,0,,0,0,0,
2026-03-22 01:55:00,METAR KBGE 220155Z AUTO 23009KT CLR 20/09 A3004 RMK AO2 PWINO T01980090,0,9,0,,0,0,0,
2026-03-22 01:35:00,METAR KBGE 220135Z AUTO 23010KT CLR 21/09 A3003 RMK AO2 PWINO T02050087,0,10,0,,0,0,0,
2026-03-22 01:15:00,METAR KBGE 220115Z AUTO 23011KT CLR 21/09 A3002 RMK AO2 PWINO T02120086,0,11,0,,0,0,0,
2026-03-22 00:50:00,METAR KBGE 220050Z AUTO 23013G20KT CLR 22/09 A3001 RMK AO2 PWINO T02230089,0,13,1,,0,0,0,
2026-03-22 00:35:00,METAR KBGE 220035Z AUTO 22010KT CLR 23/10 A3001 RMK AO2 PWINO T02280096,0,10,0,,0,0,0,
2026-03-22 00:15:00,METAR KBGE 220015Z AUTO 23012G16KT CLR 24/09 A3001 RMK AO2 PWINO T02370092,0,12,1,,0,0,0,
2026-03-21 23:55:00,METAR KBGE 212355Z AUTO 22004KT CLR 24/08 A3000 RMK AO2 PWINO T02390082 10281 20235 402810103,0,4,0,,0,0,0,
2026-03-21 23:35:00,METAR KBGE 212335Z AUTO 24005KT CLR 25/08 A3000 RMK AO2 PWINO T02470080,0,5,0,,0,0,0,
2026-03-21 23:15:00,METAR KBGE 212315Z AUTO 22005KT CLR 26/08 A2999 RMK AO2 PWINO T02600079,0,5,0,,0,0,0,
2026-03-21 22:55:00,METAR KBGE 212255Z AUTO 23008KT CLR 27/07 A2999 RMK AO2 PWINO T02690072,0,8,0,,0,0,0,
2026-03-21 22:35:00,METAR KBGE 212235Z AUTO 26008KT CLR 27/07 A2999 RMK AO2 PWINO T02730071,0,8,0,,0,0,0,
2026-03-21 22:15:00,METAR KBGE 212215Z AUTO 25009KT CLR 27/07 A2999 RMK AO2 PWINO T02740069,0,9,0,,0,0,0,
2026-03-21 21:55:00,METAR KBGE 212155Z AUTO 26009KT CLR 27/07 A3000 RMK AO2 PWINO T02750074,0,9,0,,0,0,0,
2026-03-21 21:35:00,METAR KBGE 212135Z AUTO 22011G17KT CLR 28/07 A3000 RMK AO2 PWINO T02770075,0,11,1,,0,0,0,
2026-03-21 21:15:00,METAR KBGE 212115Z AUTO 24008KT CLR 28/08 A3001 RMK AO2 PWINO T02780082,0,8,0,,0,0,0,
2026-03-21 20:55:00,METAR KBGE 212055Z AUTO 27010KT CLR 28/08 A3001 RMK AO2 PWINO T02760079,0,10,0,,0,0,0,
2026-03-21 20:35:00,METAR KBGE 212035Z AUTO 25008KT CLR 28/09 A3002 RMK AO2 PWINO T02770087,0,8,0,,0,0,0,
2026-03-21 20:15:00,METAR KBGE 212015Z AUTO 25010G16KT CLR 27/09 A3003 RMK AO2 PWINO T02740089,0,10,1,,0,0,0,
2026-03-21 19:55:00,METAR KBGE 211955Z AUTO 26009KT CLR 27/09 A3003 RMK AO2 PWINO T02710091,0,9,0,,0,0,0,
2026-03-21 19:35:00,METAR KBGE 211935Z AUTO 25006KT CLR 27/09 A3004 RMK AO2 PWINO T02710093,0,6,0,,0,0,0,
2026-03-21 19:15:00,METAR KBGE 211915Z AUTO 29007KT 260V320 CLR 27/09 A3005 RMK AO2 PWINO T02680094,0,7,0,,0,0,0,
2026-03-21 18:55:00,METAR KBGE 211855Z AUTO 27006KT CLR 27/10 A3007 RMK AO2 PWINO T02670096,0,6,0,,0,0,0,
2026-03-21 18:35:00,METAR KBGE 211835Z AUTO 29008KT CLR 26/09 A3008 RMK AO2 PWINO T02620090,0,8,0,,0,0,0,
2026-03-21 18:15:00,METAR KBGE 211815Z AUTO 26010KT CLR 26/09 A3009 RMK AO2 PWINO T02630092,0,10,0,,0,0,0,
2026-03-21 17:55:00,METAR KBGE 211755Z AUTO 27012G17KT CLR 26/09 A3010 RMK AO2 PWINO T02580095 10260 20109,0,12,1,,0,0,0,
2026-03-21 17:35:00,METAR KBGE 211735Z AUTO 28010KT CLR 25/10 A3011 RMK AO2 PWINO T02540098,0,10,0,,0,0,0,
2026-03-21 17:15:00,METAR KBGE 211715Z AUTO 27010KT CLR 25/10 A3011 RMK AO2 PWINO T02480100,0,10,0,,0,0,0,
2026-03-21 16:55:00,METAR KBGE 211655Z AUTO 27008KT CLR 24/11 A3012 RMK AO2 PWINO T02440108,0,8,0,,0,0,0,
2026-03-21 16:35:00,METAR KBGE 211635Z AUTO 28010KT CLR 24/11 A3012 RMK AO2 PWINO T02390107,0,10,0,,0,0,0,
2026-03-21 16:15:00,METAR KBGE 211615Z AUTO 29010KT CLR 23/10 A3012 RMK AO2 PWINO T02300104,0,10,0,,0,0,0,
2026-03-21 15:55:00,METAR KBGE 211555Z AUTO 29009KT CLR 22/10 A3013 RMK AO2 PWINO T02230103,0,9,0,,0,0,0,
2026-03-21 15:35:00,METAR KBGE 211535Z AUTO 28009KT CLR 22/11 A3013 RMK AO2 PWINO T02200109,0,9,0,,0,0,0,
2026-03-21 14:55:00,METAR KBGE 211455Z AUTO 28011KT CLR 20/11 A3013 RMK AO2 PWINO T02010113,0,11,0,,0,0,0,
2026-03-21 14:35:00,METAR KBGE 211435Z AUTO 28009KT CLR 19/12 A3013 RMK AO2 PWINO T01890117,0,9,0,,0,0,0,
2026-03-21 14:15:00,METAR KBGE 211415Z AUTO 29010KT CLR 18/12 A3013 RMK AO2 PWINO T01800120,0,10,0,,0,0,0,
2026-03-21 13:55:00,METAR KBGE 211355Z AUTO 29010KT CLR 17/13 A3013 RMK AO2 PWINO T01660125,0,10,0,,0,0,0,
2026-03-21 13:35:00,METAR KBGE 211335Z AUTO 29009KT 15/13 A3013 RMK AO2 PWINO T01510129,0,9,0,,0,0,0,
2026-03-21 13:15:00,METAR KBGE 211315Z AUTO 27007KT 14/13 A3013 RMK AO2 PWINO T01380130,0,7,0,,0,0,0,
2026-03-21 12:55:00,METAR KBGE 211255Z AUTO 26005KT 13/13 A3012 RMK AO2 PWINO T01290128,0,5,0,,0,0,0,
2026-03-21 12:35:00,METAR KBGE 211235Z AUTO 25006KT 12/ A3012 RMK AO2 PWINO T0119////,0,6,0,,0,0,0,
2026-03-21 12:15:00,METAR KBGE 211215Z AUTO 24005KT 11/ A3011 RMK AO2 PWINO T0114////,0,5,0,,0,0,0,
2026-03-21 11:55:00,METAR KBGE 211155Z AUTO 24004KT 11/ A3011 RMK AO2 PWINO T0110//// 10137 20103,0,4,0,,0,0,0,
2026-03-21 11:35:00,METAR KBGE 211135Z AUTO 24005KT 11/ A3011 RMK AO2 PWINO T0107////,0,5,0,,0,0,0,
2026-03-21 11:15:00,METAR KBGE 211115Z AUTO 24005KT 11/ A3011 RMK AO2 PWINO T0107////,0,5,0,,0,0,0,
2026-03-21 10:55:00,METAR KBGE 211055Z AUTO 23004KT 11/ A3011 RMK AO2 PWINO T0108////,0,4,0,,0,0,0,
2026-03-21 10:35:00,METAR KBGE 211035Z AUTO 24003KT 11/11 A3010 RMK AO2 PWINO T0109////,0,3,0,,0,0,0,
2026-03-21 10:15:00,METAR KBGE 211015Z AUTO 24004KT 11/11 A3010 RMK AO2 PWINO T01100109,0,4,0,,0,0,0,
2026-03-21 09:55:00,METAR KBGE 210955Z AUTO 24004KT 11/11 A3009 RMK AO2 PWINO T01120107,0,4,0,,0,0,0,
2026-03-21 09:35:00,METAR KBGE 210935Z AUTO 25004KT 11/11 A3009 RMK AO2 PWINO T01120107,0,4,0,,0,0,0,
2026-03-21 09:15:00,METAR KBGE 210915Z AUTO 24004KT 11/11 A3010 RMK AO2 PWINO T01150108,0,4,0,,0,0,0,
2026-03-21 08:55:00,METAR KBGE 210855Z AUTO 26005KT 12/11 A3010 RMK AO2 PWINO T01170107,0,5,0,,0,0,0,
2026-03-21 08:35:00,METAR KBGE 210835Z AUTO 26006KT 12/11 A3011 RMK AO2 PWINO T01180107,0,6,0,,0,0,0,
2026-03-21 08:15:00,METAR KBGE 210815Z AUTO 26005KT 12/11 A3011 RMK AO2 PWINO T01230106,0,5,0,,0,0,0,
2026-03-21 07:55:00,METAR KBGE 210755Z AUTO 24005KT 13/10 A3011 RMK AO2 PWINO T01260104,0,5,0,,0,0,0,
2026-03-21 07:35:00,METAR KBGE 210735Z AUTO 24007KT CLR 13/10 A3011 RMK AO2 PWINO T01300102,0,7,0,,0,0,0,
2026-03-21 07:15:00,METAR KBGE 210715Z AUTO 24006KT CLR 13/10 A3011 RMK AO2 PWINO T01310099,0,6,0,,0,0,0,
2026-03-21 06:55:00,METAR KBGE 210655Z AUTO 23007KT CLR 13/10 A3012 RMK AO2 PWINO T01340096,0,7,0,,0,0,0,
2026-03-21 06:35:00,METAR KBGE 210635Z AUTO 23008KT CLR 13/09 A3011 RMK AO2 PWINO T01330092,0,8,0,,0,0,0,
2026-03-21 06:15:00,METAR KBGE 210615Z AUTO 23008KT CLR 13/09 A3012 RMK AO2 PWINO T01340088,0,8,0,,0,0,0,
2026-03-21 05:55:00,METAR KBGE 210555Z AUTO 23007KT CLR 13/08 A3012 RMK AO2 PWINO T01340084 10194 20125,0,7,0,,0,0,0,
2026-03-21 05:35:00,METAR KBGE 210535Z AUTO 23006KT CLR 13/08 A3013 RMK AO2 PWINO T01330079,0,6,0,,0,0,0,
2026-03-21 05:15:00,METAR KBGE 210515Z AUTO 23006KT CLR 13/08 A3013 RMK AO2 PWINO T01330076,0,6,0,,0,0,0,
2026-03-21 04:55:00,METAR KBGE 210455Z AUTO 23005KT CLR 14/07 A3013 RMK AO2 PWINO T01360072,0,5,0,,0,0,0,
2026-03-21 04:35:00,METAR KBGE 210435Z AUTO 23006KT CLR 14/07 A3013 RMK AO2 PWINO T01380071,0,6,0,,0,0,0,
2026-03-21 04:15:00,METAR KBGE 210415Z AUTO 22007KT CLR 14/07 A3013 RMK AO2 PWINO T01390073,0,7,0,,0,0,0,
2026-03-21 03:55:00,METAR KBGE 210355Z AUTO 22006KT CLR 14/07 A3013 RMK AO2 PWINO T01410073,0,6,0,,0,0,0,
2026-03-21 03:35:00,METAR KBGE 210335Z AUTO 22007KT CLR 14/07 A3013 RMK AO2 PWINO T01440074,0,7,0,,0,0,0,
2026-03-21 03:15:00,METAR KBGE 210315Z AUTO 22007KT CLR 15/07 A3013 RMK AO2 PWINO T01470074,0,7,0,,0,0,0,
2026-03-21 02:55:00,METAR KBGE 210255Z AUTO 22008KT CLR 15/07 A3012 RMK AO2 PWINO T01460075,0,8,0,,0,0,0,
2026-03-21 02:35:00,METAR KBGE 210235Z AUTO 21009KT CLR 13/06 A3012 RMK AO2 PWINO T01290064,0,9,0,,0,0,0,
2026-03-21 02:15:00,METAR KBGE 210215Z AUTO 15003KT CLR 13/07 A3012 RMK AO2 PWINO T01350065,0,3,0,,0,0,0,
2026-03-21 01:55:00,METAR KBGE 210155Z AUTO 18003KT CLR 14/07 A3011 RMK AO2 PWINO T01450071,0,3,0,,0,0,0,
2026-03-21 01:35:00,METAR KBGE 210135Z AUTO 00000KT CLR 14/07 A3012 RMK AO2 PWINO T01420067,0,0,0,,0,0,0,
2026-03-21 01:15:00,METAR KBGE 210115Z AUTO 00000KT CLR 15/07 A3011 RMK AO2 PWINO T01510067,0,0,0,,0,0,0,
2026-03-21 00:55:00,METAR KBGE 210055Z AUTO 00000KT CLR 15/07 A3011 RMK AO2 PWINO T01530072,0,0,0,,0,0,0,
2026-03-21 00:35:00,METAR KBGE 210035Z AUTO 22003KT CLR 18/05 A3012 RMK AO2 PWINO T01770054,0,3,0,,0,0,0,
2026-03-21 00:15:00,METAR KBGE 210015Z AUTO 21004KT CLR 19/05 A3011 RMK AO2 PWINO T01870050,0,4,0,,0,0,0,
2026-03-20 23:55:00,METAR KBGE 202355Z AUTO 19004KT CLR 19/08 A3011 RMK AO2 PWINO T01940076 10245 20190 402450048,0,4,0,,0,0,0,
2026-03-20 23:35:00,METAR KBGE 202335Z AUTO 17003KT CLR 22/04 A3011 RMK AO2 PWINO T02200039,0,3,0,,0,0,0,
2026-03-20 23:15:00,METAR KBGE 202315Z AUTO 17003KT CLR 23/04 A3011 RMK AO2 PWINO T02270039,0,3,0,,0,0,0,
2026-03-20 22:55:00,METAR KBGE 202255Z AUTO 20003KT CLR 23/04 A3010 RMK AO2 PWINO T02320035,0,3,0,,0,0,0,
2026-03-20 22:35:00,METAR KBGE 202235Z AUTO 00000KT CLR 24/03 A3010 RMK AO2 PWINO T02350027,0,0,0,,0,0,0,
2026-03-20 22:15:00,METAR KBGE 202215Z AUTO 03003KT CLR 23/03 A3010 RMK AO2 PWINO T02340027,0,3,0,,0,0,0,
2026-03-20 21:55:00,METAR KBGE 202155Z AUTO 28003KT CLR 24/02 A3011 RMK AO2 PWINO T02360024,0,3,0,,0,0,0,
2026-03-20 21:35:00,METAR KBGE 202135Z AUTO 26004KT CLR 24/02 A3011 RMK AO2 PWINO T02390024,0,4,0,,0,0,0,
2026-03-20 21:15:00,METAR KBGE 202115Z AUTO 26004KT CLR 24/03 A3012 RMK AO2 PWINO T02410031,0,4,0,,0,0,0,
2026-03-20 20:55:00,METAR KBGE 202055Z AUTO 27005KT CLR 24/03 A3012 RMK AO2 PWINO T02420026,0,5,0,,0,0,0,
2026-03-20 20:35:00,METAR KBGE 202035Z AUTO 29004KT CLR 24/02 A3013 RMK AO2 PWINO T02360017,0,4,0,,0,0,0,
2026-03-20 20:15:00,METAR KBGE 202015Z AUTO 26005KT CLR 24/02 A3013 RMK AO2 PWINO T02390017,0,5,0,,0,0,0,
2026-03-20 19:55:00,METAR KBGE 201955Z AUTO 00000KT CLR 24/02 A3014 RMK AO2 PWINO T02360023,0,0,0,,0,0,0,
2026-03-20 19:35:00,METAR KBGE 201935Z AUTO 16004KT CLR 24/02 A3015 RMK AO2 PWINO T02350020,0,4,0,,0,0,0,
2026-03-20 19:15:00,METAR KBGE 201915Z AUTO 34004KT CLR 23/01 A3016 RMK AO2 PWINO T02320013,0,4,0,,0,0,0,
2026-03-20 18:55:00,METAR KBGE 201855Z AUTO 32004KT CLR 23/02 A3017 RMK AO2 PWINO T02280016,0,4,0,,0,0,0,
2026-03-20 18:35:00,METAR KBGE 201835Z AUTO 04005KT CLR 23/02 A3018 RMK AO2 PWINO T02290020,0,5,0,,0,0,0,
2026-03-20 18:15:00,METAR KBGE 201815Z AUTO 02007KT CLR 23/02 A3019 RMK AO2 PWINO T02300022,0,7,0,,0,0,0,
2026-03-20 17:55:00,METAR KBGE 201755Z AUTO 08007KT CLR 23/01 A3020 RMK AO2 PWINO T02280015 10231 20050,0,7,0,,0,0,0,
2026-03-20 17:35:00,METAR KBGE 201735Z AUTO 10005KT CLR 22/01 A3021 RMK AO2 PWINO T02230014,0,5,0,,0,0,0,
2026-03-20 17:15:00,METAR KBGE 201715Z AUTO 27005KT CLR 21/03 A3022 RMK AO2 PWINO T02140025,0,5,0,,0,0,0,
2026-03-20 16:55:00,METAR KBGE 201655Z AUTO 00000KT CLR 21/02 A3023 RMK AO2 PWINO T02130024,0,0,0,,0,0,0,
2026-03-20 16:35:00,METAR KBGE 201635Z AUTO 00000KT CLR 21/01 A3023 RMK AO2 PWINO T02060014,0,0,0,,0,0,0,
2026-03-20 16:15:00,METAR KBGE 201615Z AUTO 33003KT CLR 20/03 A3024 RMK AO2 PWINO T02000028,0,3,0,,0,0,0,
2026-03-20 15:55:00,METAR KBGE 201555Z AUTO 00000KT CLR 20/03 A3025 RMK AO2 PWINO T01980032,0,0,0,,0,0,0,
2026-03-20 15:40:00,METAR KBGE 201540Z AUTO 11003KT CLR 19/04 A3025 RMK AO2 PWINO T01930040,0,3,0,,0,0,0,
2026-03-20 15:15:00,METAR KBGE 201515Z AUTO 09003KT CLR 18/04 A3025 RMK AO2 PWINO T01850039,0,3,0,,0,0,0,
2026-03-20 14:35:00,METAR KBGE 201435Z AUTO 15003KT CLR 15/07 A3026 RMK AO2 PWINO T01540068,0,3,0,,0,0,0,
2026-03-20 14:15:00,METAR KBGE 201415Z AUTO 14003KT CLR 14/07 A3025 RMK AO2 PWINO T01370071,0,3,0,,0,0,0,
2026-03-20 13:55:00,METAR KBGE 201355Z AUTO 14003KT CLR 12/07 A3025 RMK AO2 PWINO T01200070,0,3,0,,0,0,0,
2026-03-20 13:35:00,METAR KBGE 201335Z AUTO 12003KT CLR 11/08 A3025 RMK AO2 PWINO T01060078,0,3,0,,0,0,0,
2026-03-20 13:15:00,METAR KBGE 201315Z AUTO 13004KT 09/08 A3024 RMK AO2 PWINO T00920081,0,4,0,,0,0,0,
2026-03-20 12:55:00,METAR KBGE 201255Z AUTO 11004KT 08/08 A3024 RMK AO2 PWINO T00780076,0,4,0,,0,0,0,
2026-03-20 12:35:00,METAR KBGE 201235Z AUTO 12003KT 06/ A3024 RMK AO2 PWINO T0063////,0,3,0,,0,0,0,
2026-03-20 12:15:00,METAR KBGE 201215Z AUTO 12003KT 05/ A3023 RMK AO2 PWINO T0052////,0,3,0,,0,0,0,
2026-03-20 11:55:00,METAR KBGE 201155Z AUTO 12003KT 05/ A3023 RMK AO2 PWINO T0052//// 10090 20048,0,3,0,,0,0,0,
2026-03-20 11:35:00,METAR KBGE 201135Z AUTO 11003KT 05/ A3022 RMK AO2 PWINO T0054////,0,3,0,,0,0,0,
2026-03-20 11:15:00,METAR KBGE 201115Z AUTO 00000KT 05/ A3022 RMK AO2 PWINO T0052////,0,0,0,,0,0,0,
2026-03-20 10:55:00,METAR KBGE 201055Z AUTO 00000KT 05/ A3022 RMK AO2 PWINO T0054////,0,0,0,,0,0,0,
2026-03-20 10:35:00,METAR KBGE 201035Z AUTO 00000KT 06/06 A3021 RMK AO2 PWINO T00630060,0,0,0,,0,0,0,
2026-03-20 10:15:00,METAR KBGE 201015Z AUTO 00000KT 06/ A3020 RMK AO2 PWINO T0058////,0,0,0,,0,0,0,
2026-03-20 09:55:00,METAR KBGE 200955Z AUTO 00000KT 06/ A3020 RMK AO2 PWINO T0058////,0,0,0,,0,0,0,
2026-03-20 09:35:00,METAR KBGE 200935Z AUTO 00000KT 05/ A3019 RMK AO2 PWINO T0054////,0,0,0,,0,0,0,
2026-03-20 09:15:00,METAR KBGE 200915Z AUTO 00000KT 06/ A3019 RMK AO2 PWINO T0059////,0,0,0,,0,0,0,
2026-03-20 08:55:00,METAR KBGE 200855Z AUTO 00000KT 06/06 A3018 RMK AO2 PWINO T0057////,0,0,0,,0,0,0,
2026-03-20 08:35:00,METAR KBGE 200835Z AUTO 13004KT 06/06 A3019 RMK AO2 PWINO T00590056,0,4,0,,0,0,0,
2026-03-20 08:15:00,METAR KBGE 200815Z AUTO 11003KT 06/06 A3020 RMK AO2 PWINO T00630061,0,3,0,,0,0,0,
2026-03-20 07:55:00,METAR KBGE 200755Z AUTO 00000KT 07/06 A3020 RMK AO2 PWINO T00690061,0,0,0,,0,0,0,
2026-03-20 07:35:00,METAR KBGE 200735Z AUTO 00000KT 08/07 A3020 RMK AO2 PWINO T00780071,0,0,0,,0,0,0,
2026-03-20 07:15:00,METAR KBGE 200715Z AUTO 00000KT 08/07 A3020 RMK AO2 PWINO T00790073,0,0,0,,0,0,0,
2026-03-20 06:55:00,METAR KBGE 200655Z AUTO 00000KT 07/06 A3020 RMK AO2 PWINO T00740058,0,0,0,,0,0,0,
2026-03-20 06:35:00,METAR KBGE 200635Z AUTO 00000KT 08/07 A3020 RMK AO2 PWINO T00800068,0,0,0,,0,0,0,
2026-03-20 06:15:00,METAR KBGE 200615Z AUTO 00000KT 09/06 A3021 RMK AO2 PWINO T00890064,0,0,0,,0,0,0,
2026-03-20 05:55:00,METAR KBGE 200555Z AUTO 00000KT 09/07 A3021 RMK AO2 PWINO T00890068 10161 20085,0,0,0,,0,0,0,
2026-03-20 05:35:00,METAR KBGE 200535Z AUTO 00000KT CLR 09/04 A3021 RMK AO2 PWINO T00880042,0,0,0,,0,0,0,
2026-03-20 05:15:00,METAR KBGE 200515Z AUTO 00000KT CLR 09/04 A3021 RMK AO2 PWINO T00910038,0,0,0,,0,0,0,
2026-03-20 04:55:00,METAR KBGE 200455Z AUTO 00000KT CLR 09/06 A3021 RMK AO2 PWINO T00870060,0,0,0,,0,0,0,
2026-03-20 04:35:00,METAR KBGE 200435Z AUTO 00000KT CLR 09/05 A3021 RMK AO2 PWINO T00910048,0,0,0,,0,0,0,
2026-03-20 04:15:00,METAR KBGE 200415Z AUTO 00000KT CLR 10/05 A3021 RMK AO2 PWINO T00980051,0,0,0,,0,0,0,
2026-03-20 03:55:00,METAR KBGE 200355Z AUTO 00000KT CLR 10/06 A3022 RMK AO2 PWINO T01030055,0,0,0,,0,0,0,
2026-03-20 03:35:00,METAR KBGE 200335Z AUTO 00000KT CLR 10/05 A3022 RMK AO2 PWINO T00990051,0,0,0,,0,0,0,
2026-03-20 03:15:00,METAR KBGE 200315Z AUTO 00000KT CLR 11/04 A3021 RMK AO2 PWINO T01110041,0,0,0,,0,0,0,
2026-03-20 02:55:00,METAR KBGE 200255Z AUTO 00000KT CLR 11/06 A3022 RMK AO2 PWINO T01090063,0,0,0,,0,0,0,
2026-03-20 02:35:00,METAR KBGE 200235Z AUTO 14003KT CLR 11/06 A3022 RMK AO2 PWINO T01110063,0,3,0,,0,0,0,
2026-03-20 02:15:00,METAR KBGE 200215Z AUTO 13003KT CLR 11/07 A3021 RMK AO2 PWINO T01130066,0,3,0,,0,0,0,
2026-03-20 01:55:00,METAR KBGE 200155Z AUTO 13003KT CLR 12/07 A3021 RMK AO2 PWINO T01160074,0,3,0,,0,0,0,
2026-03-20 01:35:00,METAR KBGE 200135Z AUTO 14003KT CLR 12/04 A3021 RMK AO2 PWINO T01240042,0,3,0,,0,0,0,
2026-03-20 01:15:00,METAR KBGE 200115Z AUTO 16003KT CLR 14/04 A3020 RMK AO2 PWINO T01370039,0,3,0,,0,0,0,
2026-03-20 00:55:00,METAR KBGE 200055Z AUTO 00000KT CLR 15/03 A3020 RMK AO2 PWINO T01460029,0,0,0,,0,0,0,
2026-03-20 00:35:00,METAR KBGE 200035Z AUTO 00000KT CLR 15/03 A3019 RMK AO2 PWINO T01540031,0,0,0,,0,0,0,
2026-03-20 00:15:00,METAR KBGE 200015Z AUTO 00000KT CLR 16/03 A3019 RMK AO2 PWINO T01580033,0,0,0,,0,0,0,
2026-03-19 23:55:00,METAR KBGE 192355Z AUTO 12003KT CLR 17/02 A3019 RMK AO2 PWINO T01670023 10218 20156 402180025,0,3,0,,0,0,0,
2026-03-19 23:35:00,METAR KBGE 192335Z AUTO 11003KT CLR 18/01 A3018 RMK AO2 PWINO T01820014,0,3,0,,0,0,0,
2026-03-19 23:15:00,METAR KBGE 192315Z AUTO 11004KT CLR 19/02 A3018 RMK AO2 PWINO T01900021,0,4,0,,0,0,0,
2026-03-19 22:55:00,METAR KBGE 192255Z AUTO 06004KT CLR 20/01 A3018 RMK AO2 PWINO T01990005,0,4,0,,0,0,0,
2026-03-19 22:35:00,METAR KBGE 192235Z AUTO 06006KT CLR 20/01 A3017 RMK AO2 PWINO T02000006,0,6,0,,0,0,0,
2026-03-19 22:15:00,METAR KBGE 192215Z AUTO 02006KT CLR 20/00 A3017 RMK AO2 PWINO T02041001,0,6,0,,0,0,0,
2026-03-19 21:55:00,METAR KBGE 192155Z AUTO 02006KT CLR 21/00 A3017 RMK AO2 PWINO T02060003,0,6,0,,0,0,0,
2026-03-19 21:35:00,METAR KBGE 192135Z AUTO 06004KT CLR 21/00 A3017 RMK AO2 PWINO T02101000,0,4,0,,0,0,0,
2026-03-19 21:15:00,METAR KBGE 192115Z AUTO 07009KT CLR 21/01 A3017 RMK AO2 PWINO T02110007,0,9,0,,0,0,0,
2026-03-19 20:55:00,METAR KBGE 192055Z AUTO 06008KT CLR 21/00 A3018 RMK AO2 PWINO T02111001,0,8,0,,0,0,0,
2026-03-19 20:35:00,METAR KBGE 192035Z AUTO 06008KT CLR 21/00 A3018 RMK AO2 PWINO T02150000,0,8,0,,0,0,0,
2026-03-19 20:15:00,METAR KBGE 192015Z AUTO 07008KT 030V100 CLR 21/00 A3019 RMK AO2 PWINO T02091001,0,8,0,,0,0,0,
2026-03-19 19:55:00,METAR KBGE 191955Z AUTO 03006KT CLR 21/00 A3020 RMK AO2 PWINO T02081003,0,6,0,,0,0,0,
2026-03-19 19:35:00,METAR KBGE 191935Z AUTO 06005KT CLR 20/00 A3021 RMK AO2 PWINO T02030001,0,5,0,,0,0,0,
2026-03-19 19:15:00,METAR KBGE 191915Z AUTO 02006KT CLR 20/00 A3022 RMK AO2 PWINO T01970002,0,6,0,,0,0,0,
2026-03-19 18:55:00,METAR KBGE 191855Z AUTO 02010G17KT 350V060 CLR 19/00 A3023 RMK AO2 PWINO T01951002,0,10,1,,0,0,0,
2026-03-19 18:35:00,METAR KBGE 191835Z AUTO 02005KT CLR 19/00 A3025 RMK AO2 PWINO T01951005,0,5,0,,0,0,0,
2026-03-19 18:15:00,METAR KBGE 191815Z AUTO 09007KT CLR 20/01 A3026 RMK AO2 PWINO T01980005,0,7,0,,0,0,0,
2026-03-19 17:55:00,METAR KBGE 191755Z AUTO 02009KT CLR 19/M01 A3027 RMK AO2 PWINO T01911006 10194 20036,0,9,0,,0,0,0,
2026-03-19 17:35:00,METAR KBGE 191735Z AUTO 04007KT CLR 18/M02 A3028 RMK AO2 PWINO T01821016,0,7,0,,0,0,0,
2026-03-19 17:15:00,METAR KBGE 191715Z AUTO 35007KT CLR 18/M01 A3029 RMK AO2 PWINO T01801014,0,7,0,,0,0,0,
2026-03-19 16:55:00,METAR KBGE 191655Z AUTO 00000KT CLR 17/M02 A3029 RMK AO2 PWINO T01731021,0,0,0,,0,0,0,
2026-03-19 16:35:00,METAR KBGE 191635Z AUTO 05006KT CLR 17/M02 A3030 RMK AO2 PWINO T01701022,0,6,0,,0,0,0,
2026-03-19 16:15:00,METAR KBGE 191615Z AUTO 36007KT CLR 16/M02 A3031 RMK AO2 PWINO T01631021,0,7,0,,0,0,0,
2026-03-19 15:55:00,METAR KBGE 191555Z AUTO 01009KT CLR 16/M02 A3031 RMK AO2 PWINO T01581024,0,9,0,,0,0,0,
2026-03-19 15:35:00,METAR KBGE 191535Z AUTO 02005KT CLR 15/M03 A3032 RMK AO2 PWINO T01531030,0,5,0,,0,0,0,
2026-03-19 15:15:00,METAR KBGE 191515Z AUTO 00000KT CLR 14/M01 A3032 RMK AO2 PWINO T01391008,0,0,0,,0,0,0,
2026-03-19 14:55:00,METAR KBGE 191455Z AUTO 06003KT CLR 13/01 A3031 RMK AO2 PWINO T01310008,0,3,0,,0,0,0,
2026-03-19 14:35:00,METAR KBGE 191435Z AUTO 00000KT CLR 12/03 A3031 RMK AO2 PWINO T01210033,0,0,0,,0,0,0,
2026-03-19 14:15:00,METAR KBGE 191415Z AUTO 00000KT CLR 10/02 A3031 RMK AO2 PWINO T01030018,0,0,0,,0,0,0,
2026-03-19 13:55:00,METAR KBGE 191355Z AUTO 08003KT CLR 09/02 A3031 RMK AO2 PWINO T00940023,0,3,0,,0,0,0,
2026-03-19 13:35:00,METAR KBGE 191335Z AUTO 07003KT CLR 08/02 A3031 RMK AO2 PWINO T00770023,0,3,0,,0,0,0,
2026-03-19 13:15:00,METAR KBGE 191315Z AUTO 06004KT CLR 07/02 A3030 RMK AO2 PWINO T00670023,0,4,0,,0,0,0,
2026-03-19 12:55:00,METAR KBGE 191255Z AUTO 03003KT CLR 05/03 A3030 RMK AO2 PWINO T00530028,0,3,0,,0,0,0,
2026-03-19 12:35:00,METAR KBGE 191235Z AUTO 34003KT 05/03 A3030 RMK AO2 PWINO T00490028,0,3,0,,0,0,0,
2026-03-19 12:15:00,METAR KBGE 191215Z AUTO 36003KT 04/02 A3029 RMK AO2 PWINO T00430024,0,3,0,,0,0,0,
2026-03-19 11:55:00,METAR KBGE 191155Z AUTO 34003KT 03/03 A3029 RMK AO2 PWINO T00330031 10055 20025,0,3,0,,0,0,0,
2026-03-19 11:35:00,METAR KBGE 191135Z AUTO 00000KT 03/02 A3029 RMK AO2 PWINO T00350018,0,0,0,,0,0,0,
2026-03-19 11:15:00,METAR KBGE 191115Z AUTO 00000KT 03/02 A3028 RMK AO2 PWINO T00320020,0,0,0,,0,0,0,
2026-03-19 10:55:00,METAR KBGE 191055Z AUTO 00000KT 03/03 A3027 RMK AO2 PWINO T00320025,0,0,0,,0,0,0,
2026-03-19 10:35:00,METAR KBGE 191035Z AUTO 00000KT 03/03 A3027 RMK AO2 PWINO T00330026,0,0,0,,0,0,0,
2026-03-19 10:15:00,METAR KBGE 191015Z AUTO 29003KT 03/ A3026 RMK AO2 PWINO T0027////,0,3,0,,0,0,0,
2026-03-19 09:55:00,METAR KBGE 190955Z AUTO 27004KT 03/03 A3026 RMK AO2 PWINO T0028////,0,4,0,,0,0,0,
2026-03-19 09:35:00,METAR KBGE 190935Z AUTO 00000KT 03/03 A3025 RMK AO2 PWINO T00320029,0,0,0,,0,0,0,
2026-03-19 09:15:00,METAR KBGE 190915Z AUTO 00000KT 04/03 A3024 RMK AO2 PWINO T00390030,0,0,0,,0,0,0,
2026-03-19 08:55:00,METAR KBGE 190855Z AUTO 00000KT 04/03 A3024 RMK AO2 PWINO T00380031,0,0,0,,0,0,0,
2026-03-19 08:35:00,METAR KBGE 190835Z AUTO 00000KT 04/03 A3024 RMK AO2 PWINO T00440026,0,0,0,,0,0,0,
2026-03-19 08:15:00,METAR KBGE 190815Z AUTO 00000KT 04/03 A3025 RMK AO2 PWINO T00450029,0,0,0,,0,0,0,
2026-03-19 07:55:00,METAR KBGE 190755Z AUTO 00000KT CLR 05/03 A3026 RMK AO2 PWINO T00530028,0,0,0,,0,0,0,
2026-03-19 07:35:00,METAR KBGE 190735Z AUTO 00000KT 05/03 A3026 RMK AO2 PWINO T00490028,0,0,0,,0,0,0,
2026-03-19 07:15:00,METAR KBGE 190715Z AUTO 00000KT 05/02 A3026 RMK AO2 PWINO T00470025,0,0,0,,0,0,0,
2026-03-19 06:55:00,METAR KBGE 190655Z AUTO 00000KT CLR 05/02 A3027 RMK AO2 PWINO T00510020,0,0,0,,0,0,0,
2026-03-19 06:35:00,METAR KBGE 190635Z AUTO 00000KT CLR 05/02 A3027 RMK AO2 PWINO T00490021,0,0,0,,0,0,0,
2026-03-19 06:15:00,METAR KBGE 190615Z AUTO 00000KT CLR 05/01 A3027 RMK AO2 PWINO T00530013,0,0,0,,0,0,0,
2026-03-19 05:55:00,METAR KBGE 190555Z AUTO 00000KT CLR 05/01 A3027 RMK AO2 PWINO T00550006 10118 20053,0,0,0,,0,0,0,
2026-03-19 05:35:00,METAR KBGE 190535Z AUTO 00000KT CLR 06/01 A3027 RMK AO2 PWINO T00590012,0,0,0,,0,0,0,
2026-03-19 05:15:00,METAR KBGE 190515Z AUTO 00000KT CLR 06/01 A3027 RMK AO2 PWINO,0,0,0,,0,0,0,
2026-03-19 04:55:00,METAR KBGE 190455Z AUTO 00000KT CLR 06/02 A3028 RMK AO2 PWINO T00600018,0,0,0,,0,0,0,
2026-03-19 04:35:00,METAR KBGE 190435Z AUTO 00000KT CLR 06/02 A3028 RMK AO2 PWINO T00580021,0,0,0,,0,0,0,
2026-03-19 04:15:00,METAR KBGE 190415Z AUTO 12003KT CLR 06/01 A3028 RMK AO2 PWINO T00580013,0,3,0,,0,0,0,
2026-03-19 03:55:00,METAR KBGE 190355Z AUTO 00000KT CLR 08/M01 A3028 RMK AO2 PWINO T00791006,0,0,0,,0,0,0,
2026-03-19 03:35:00,METAR KBGE 190335Z AUTO 00000KT CLR 08/M01 A3029 RMK AO2 PWINO T00811007,0,0,0,,0,0,0,
2026-03-19 03:15:00,METAR KBGE 190315Z AUTO 00000KT CLR 08/00 A3028 RMK AO2 PWINO T00840001,0,0,0,,0,0,0,
2026-03-19 02:55:00,METAR KBGE 190255Z AUTO 08003KT CLR 09/00 A3028 RMK AO2 PWINO T00871005,0,3,0,,0,0,0,
2026-03-19 02:35:00,METAR KBGE 190235Z AUTO 06003KT CLR 09/M01 A3028 RMK AO2 PWINO T00891007,0,3,0,,0,0,0,
2026-03-19 02:15:00,METAR KBGE 190215Z AUTO 12003KT CLR 08/01 A3028 RMK AO2 PWINO T00840005,0,3,0,,0,0,0,
2026-03-19 01:55:00,METAR KBGE 190155Z AUTO 00000KT CLR 08/02 A3028 RMK AO2 PWINO T00850020,0,0,0,,0,0,0,
2026-03-19 01:35:00,METAR KBGE 190135Z AUTO 00000KT CLR 09/M01 A3027 RMK AO2 PWINO T00931008,0,0,0,,0,0,0,
2026-03-19 01:15:00,METAR KBGE 190115Z AUTO 00000KT CLR 10/M01 A3026 RMK AO2 PWINO T00971010,0,0,0,,0,0,0,
2026-03-19 00:55:00,METAR KBGE 190055Z AUTO 00000KT CLR 10/00 A3026 RMK AO2 PWINO T01001003,0,0,0,,0,0,0,
2026-03-19 00:35:00,METAR KBGE 190035Z AUTO 00000KT CLR 11/M02 A3025 RMK AO2 PWINO T01071020,0,0,0,,0,0,0,
2026-03-19 00:15:00,METAR KBGE 190015Z AUTO 11003KT CLR 11/M04 A3025 RMK AO2 PWINO T01151036,0,3,0,,0,0,0,
2026-03-18 23:55:00,METAR KBGE 182355Z AUTO 09004KT CLR 11/M03 A3025 RMK AO2 PWINO T01141027 10161 20114 401610005,0,4,0,,0,0,0,
2026-03-18 23:35:00,METAR KBGE 182335Z AUTO 07007KT CLR 13/M03 A3025 RMK AO2 PWINO T01271034,0,7,0,,0,0,0,
2026-03-18 23:15:00,METAR KBGE 182315Z AUTO 08007KT CLR 13/M05 A3024 RMK AO2 PWINO T01351048,0,7,0,,0,0,0,
2026-03-18 22:55:00,METAR KBGE 182255Z AUTO 08009KT CLR 14/M05 A3023 RMK AO2 PWINO T01401055,0,9,0,,0,0,0,
2026-03-18 22:35:00,METAR KBGE 182235Z AUTO 09009KT CLR 15/M05 A3023 RMK AO2 PWINO T01511051,0,9,0,,0,0,0,
2026-03-18 22:15:00,METAR KBGE 182215Z AUTO 06006KT CLR 15/M06 A3024 RMK AO2 PWINO T01511064,0,6,0,,0,0,0,
2026-03-18 21:55:00,METAR KBGE 182155Z AUTO 05009KT CLR 15/M07 A3024 RMK AO2 PWINO T01501069,0,9,0,,0,0,0,
2026-03-18 21:35:00,METAR KBGE 182135Z AUTO 03009KT CLR 16/M06 A3024 RMK AO2 PWINO T01551064,0,9,0,,0,0,0,
2026-03-18 21:15:00,METAR KBGE 182115Z AUTO 02006KT CLR 15/M07 A3025 RMK AO2 PWINO T01501070,0,6,0,,0,0,0,
2026-03-18 20:55:00,METAR KBGE 182055Z AUTO 03006KT CLR 15/M06 A3025 RMK AO2 PWINO T01531059,0,6,0,,0,0,0,
2026-03-18 20:35:00,METAR KBGE 182035Z AUTO 02008KT 360V090 CLR 16/M06 A3025 RMK AO2 PWINO T01581061,0,8,0,,0,0,0,
2026-03-18 20:15:00,METAR KBGE 182015Z AUTO 36007KT CLR 15/M08 A3026 RMK AO2 PWINO T01471077,0,7,0,,0,0,0,
2026-03-18 19:55:00,METAR KBGE 181955Z AUTO 05008KT 340V060 CLR 15/M08 A3026 RMK AO2 PWINO T01511075,0,8,0,,0,0,0,
2026-03-18 19:35:00,METAR KBGE 181935Z AUTO 02004KT CLR 14/M08 A3027 RMK AO2 PWINO T01421080,0,4,0,,0,0,0,
2026-03-18 19:15:00,METAR KBGE 181915Z AUTO 00000KT CLR 14/M07 A3028 RMK AO2 PWINO T01431074,0,0,0,,0,0,0,
2026-03-18 18:55:00,METAR KBGE 181855Z AUTO 07009KT CLR 14/M07 A3029 RMK AO2 PWINO T01431071,0,9,0,,0,0,0,
2026-03-18 18:35:00,METAR KBGE 181835Z AUTO 01006KT CLR 14/M08 A3030 RMK AO2 PWINO T01381078,0,6,0,,0,0,0,
2026-03-18 18:15:00,METAR KBGE 181815Z AUTO 04010KT CLR 14/M07 A3031 RMK AO2 PWINO T01421072,0,10,0,,0,0,0,
2026-03-18 17:55:00,METAR KBGE 181755Z AUTO 05010KT CLR 13/M07 A3033 RMK AO2 PWINO T01351075 10139 20005,0,10,0,,0,0,0,
2026-03-18 17:35:00,METAR KBGE 181735Z AUTO 03006KT CLR 13/M08 A3034 RMK AO2 PWINO T01281078,0,6,0,,0,0,0,
2026-03-18 17:15:00,METAR KBGE 181715Z AUTO 36009KT CLR 12/M09 A3035 RMK AO2 PWINO T01221089,0,9,0,,0,0,0,
2026-03-18 16:55:00,METAR KBGE 181655Z AUTO 02009KT CLR 12/M07 A3035 RMK AO2 PWINO T01191071,0,9,0,,0,0,0,
2026-03-18 16:35:00,METAR KBGE 181635Z AUTO 02010KT CLR 12/M06 A3035 RMK AO2 PWINO T01231063,0,10,0,,0,0,0,
2026-03-18 16:15:00,METAR KBGE 181615Z AUTO 01010KT CLR 11/M07 A3036 RMK AO2 PWINO T01141066,0,10,0,,0,0,0,
2026-03-18 15:55:00,METAR KBGE 181555Z AUTO 02005KT CLR 11/M05 A3036 RMK AO2 PWINO T01081054,0,5,0,,0,0,0,
2026-03-18 15:35:00,METAR KBGE 181535Z AUTO 08007KT CLR 10/M06 A3036 RMK AO2 PWINO T00991056,0,7,0,,0,0,0,
2026-03-18 15:15:00,METAR KBGE 181515Z AUTO 08012KT CLR 10/M05 A3036 RMK AO2 PWINO T00991052,0,12,0,,0,0,0,
2026-03-18 14:55:00,METAR KBGE 181455Z AUTO 05010KT CLR 09/M05 A3036 RMK AO2 PWINO T00911053,0,10,0,,0,0,0,
2026-03-18 14:35:00,METAR KBGE 181435Z AUTO 08011KT CLR 09/M05 A3037 RMK AO2 PWINO T00851048,0,11,0,,0,0,0,
2026-03-18 14:15:00,METAR KBGE 181415Z AUTO 06010KT CLR 08/M04 A3036 RMK AO2 PWINO T00781044,0,10,0,,0,0,0,
2026-03-18 13:55:00,METAR KBGE 181355Z AUTO 05012KT CLR 07/M04 A3036 RMK AO2 PWINO T00681042,0,12,0,,0,0,0,
2026-03-18 13:35:00,METAR KBGE 181335Z AUTO 05010KT CLR 06/M03 A3036 RMK AO2 PWINO T00591031,0,10,0,,0,0,0,
2026-03-18 13:15:00,METAR KBGE 181315Z AUTO 03009KT BKN120 04/M03 A3035 RMK AO2 PWINO T00431026,0,9,0,,0,0,0,
2026-03-18 12:55:00,METAR KBGE 181255Z AUTO 02005KT OVC120 03/M02 A3035 RMK AO2 PWINO T00301024,0,5,0,,0,0,0,
2026-03-18 12:35:00,METAR KBGE 181235Z AUTO 04004KT OVC120 03/M03 A3034 RMK AO2 PWINO T00261029,0,4,0,,0,0,0,
2026-03-18 12:15:00,METAR KBGE 181215Z AUTO 03004KT BKN120 02/M03 A3032 RMK AO2 PWINO T00161028,0,4,0,,0,0,0,
2026-03-18 11:55:00,METAR KBGE 181155Z AUTO 07003KT SCT120 01/M03 A3031 RMK AO2 PWINO T00121033 10024 20006,0,3,0,,0,0,0,
2026-03-18 11:35:00,METAR KBGE 181135Z AUTO 04003KT CLR 01/M04 A3030 RMK AO2 PWINO T00131035,0,3,0,,0,0,0,
2026-03-18 11:15:00,METAR KBGE 181115Z AUTO 36004KT CLR 01/M03 A3029 RMK AO2 PWINO T00121032,0,4,0,,0,0,0,
2026-03-18 10:55:00,METAR KBGE 181055Z AUTO 02004KT CLR 01/M03 A3028 RMK AO2 PWINO T00131033,0,4,0,,0,0,0,
2026-03-18 10:35:00,METAR KBGE 181035Z AUTO 04004KT CLR 01/M03 A3027 RMK AO2 PWINO T00121033,0,4,0,,0,0,0,
2026-03-18 10:15:00,METAR KBGE 181015Z AUTO 02003KT CLR 01/M03 A3026 RMK AO2 PWINO T00141034,0,3,0,,0,0,0,
2026-03-18 09:55:00,METAR KBGE 180955Z AUTO 36004KT CLR 02/M03 A3026 RMK AO2 PWINO T00161035,0,4,0,,0,0,0,
2026-03-18 09:35:00,METAR KBGE 180935Z AUTO 01004KT CLR 01/M03 A3026 RMK AO2 PWINO T00141027,0,4,0,,0,0,0,
2026-03-18 09:15:00,METAR KBGE 180915Z AUTO 36004KT CLR 02/M03 A3026 RMK AO2 PWINO T00171028,0,4,0,,0,0,0,
2026-03-18 08:55:00,METAR KBGE 180855Z AUTO 36004KT CLR 02/M03 A3025 RMK AO2 PWINO T00171026,0,4,0,,0,0,0,
2026-03-18 08:35:00,METAR KBGE 180835Z AUTO 00000KT CLR 01/M02 A3025 RMK AO2 PWINO T00131023,0,0,0,,0,0,0,
2026-03-18 08:15:00,METAR KBGE 180815Z AUTO 36005KT CLR 02/M03 A3026 RMK AO2 PWINO T00161027,0,5,0,,0,0,0,
2026-03-18 07:55:00,METAR KBGE 180755Z AUTO 34004KT CLR 01/M01 A3027 RMK AO2 PWINO T00141011,0,4,0,,0,0,0,
2026-03-18 07:35:00,METAR KBGE 180735Z AUTO 33004KT CLR 02/M01 A3027 RMK AO2 PWINO T00181010,0,4,0,,0,0,0,
2026-03-18 07:15:00,METAR KBGE 180715Z AUTO 00000KT 01/M01 A3026 RMK AO2 PWINO T00131009,0,0,0,,0,0,0,
2026-03-18 06:55:00,METAR KBGE 180655Z AUTO 00000KT 02/M01 A3026 RMK AO2 PWINO T00181005,0,0,0,,0,0,0,
2026-03-18 06:35:00,METAR KBGE 180635Z AUTO 00000KT CLR 02/M02 A3026 RMK AO2 PWINO T00191021,0,0,0,,0,0,0,
2026-03-18 06:15:00,METAR KBGE 180615Z AUTO 00000KT CLR 01/M02 A3027 RMK AO2 PWINO T00121017,0,0,0,,0,0,0,
2026-03-18 05:55:00,METAR KBGE 180555Z AUTO 15003KT CLR 01/M02 A3027 RMK AO2 PWINO T00111016 10093 20010,0,3,0,,0,0,0,
2026-03-18 05:35:00,METAR KBGE 180535Z AUTO 16003KT CLR 02/M02 A3027 RMK AO2 PWINO T00191017,0,3,0,,0,0,0,
2026-03-18 05:15:00,METAR KBGE 180515Z AUTO 00000KT CLR 03/M03 A3027 RMK AO2 PWINO T00291027,0,0,0,,0,0,0,
2026-03-18 04:55:00,METAR KBGE 180455Z AUTO 00000KT CLR 03/M02 A3028 RMK AO2 PWINO T00271020,0,0,0,,0,0,0,
2026-03-18 04:35:00,METAR KBGE 180435Z AUTO 00000KT CLR 03/M03 A3028 RMK AO2 PWINO T00351027,0,0,0,,0,0,0,
2026-03-18 04:15:00,METAR KBGE 180415Z AUTO 34004KT CLR 05/M05 A3029 RMK AO2 PWINO T00491048,0,4,0,,0,0,0,
2026-03-18 03:55:00,METAR KBGE 180355Z AUTO 36005KT CLR 05/M05 A3029 RMK AO2 PWINO T00491054,0,5,0,,0,0,0,
2026-03-18 03:35:00,METAR KBGE 180335Z AUTO 35005KT CLR 05/M06 A3029 RMK AO2 PWINO T00541059,0,5,0,,0,0,0,
2026-03-18 03:15:00,METAR KBGE 180315Z AUTO 33006KT CLR 05/M06 A3029 RMK AO2 PWINO T00551056,0,6,0,,0,0,0,
2026-03-18 02:55:00,METAR KBGE 180255Z AUTO 35005KT CLR 06/M06 A3028 RMK AO2 PWINO T00581057,0,5,0,,0,0,0,
2026-03-18 02:35:00,METAR KBGE 180235Z AUTO 33008KT CLR 06/M06 A3027 RMK AO2 PWINO T00631057,0,8,0,,0,0,0,
2026-03-18 02:15:00,METAR KBGE 180215Z AUTO 34007KT CLR 07/M05 A3027 RMK AO2 PWINO T00661053,0,7,0,,0,0,0,
2026-03-18 01:55:00,METAR KBGE 180155Z AUTO 33008KT CLR 07/M06 A3026 RMK AO2 PWINO T00691055,0,8,0,,0,0,0,
2026-03-18 01:35:00,METAR KBGE 180135Z AUTO 34007KT CLR 07/M06 A3025 RMK AO2 PWINO T00731064,0,7,0,,0,0,0,
2026-03-18 01:15:00,METAR KBGE 180115Z AUTO 32007KT CLR 07/M05 A3025 RMK AO2 PWINO T00711053,0,7,0,,0,0,0,
2026-03-18 00:55:00,METAR KBGE 180055Z AUTO 32006KT CLR 08/M06 A3024 RMK AO2 PWINO T00771063,0,6,0,,0,0,0,
2026-03-18 00:35:00,METAR KBGE 180035Z AUTO 32006KT CLR 07/M04 A3023 RMK AO2 PWINO T00741040,0,6,0,,0,0,0,
2026-03-18 00:15:00,METAR KBGE 180015Z AUTO 32006KT CLR 08/M05 A3022 RMK AO2 PWINO T00821053,0,6,0,,0,0,0,
2026-03-17 23:55:00,METAR KBGE 172355Z AUTO 32007KT CLR 09/M08 A3021 RMK AO2 PWINO T00941081 10125 20088 401250011,0,7,0,,0,0,0,
2026-03-17 23:35:00,METAR KBGE 172335Z AUTO 32007KT CLR 10/M07 A3020 RMK AO2 PWINO T01011072,0,7,0,,0,0,0,
2026-03-17 23:15:00,METAR KBGE 172315Z AUTO 33009KT CLR 11/M08 A3020 RMK AO2 PWINO T01121085,0,9,0,,0,0,0,
2026-03-17 23:00:00,METAR KBGE 172300Z AUTO 31009KT CLR 11/M09 A3019 RMK AO2 PWINO T01131090,0,9,0,,0,0,0,
2026-03-17 22:35:00,METAR KBGE 172235Z AUTO 32007KT CLR 12/M08 A3019 RMK AO2 PWINO T01171079,0,7,0,,0,0,0,
2026-03-17 22:15:00,METAR KBGE 172215Z AUTO 31012KT CLR 12/M08 A3019 RMK AO2 PWINO T01201077,0,12,0,,0,0,0,
2026-03-17 21:55:00,METAR KBGE 172155Z AUTO 27008G15KT CLR 12/M07 A3018 RMK AO2 PWINO T01191073,0,8,1,,0,0,0,
2026-03-17 21:35:00,METAR KBGE 172135Z AUTO 32008KT CLR 12/M07 A3019 RMK AO2 PWINO T01191072,0,8,0,,0,0,0,
2026-03-17 21:15:00,METAR KBGE 172115Z AUTO 31010G15KT CLR 12/M07 A3020 RMK AO2 PWINO T01201066,0,10,1,,0,0,0,
2026-03-17 20:55:00,METAR KBGE 172055Z AUTO 29012G17KT CLR 12/M06 A3020 RMK AO2 PWINO T01201056,0,12,1,,0,0,0,
2026-03-17 20:35:00,METAR KBGE 172035Z AUTO 32010G16KT CLR 12/M06 A3020 RMK AO2 PWINO T01201062,0,10,1,,0,0,0,
2026-03-17 20:15:00,METAR KBGE 172015Z AUTO 30012KT CLR 12/M06 A3021 RMK AO2 PWINO T01171056,0,12,0,,0,0,0,
2026-03-17 19:55:00,METAR KBGE 171955Z AUTO 27007KT CLR 11/M06 A3022 RMK AO2 PWINO T01101062,0,7,0,,0,0,0,
2026-03-17 19:35:00,METAR KBGE 171935Z AUTO 33011KT CLR 10/M06 A3022 RMK AO2 PWINO T01041064,0,11,0,,0,0,0,
2026-03-17 19:15:00,METAR KBGE 171915Z AUTO 31005KT CLR 10/M06 A3023 RMK AO2 PWINO T01031059,0,5,0,,0,0,0,
2026-03-17 18:55:00,METAR KBGE 171855Z AUTO 31010KT CLR 10/M06 A3023 RMK AO2 PWINO T01021057,0,10,0,,0,0,0,
2026-03-17 18:35:00,METAR KBGE 171835Z AUTO 25006KT CLR 10/M05 A3024 RMK AO2 PWINO T00981050,0,6,0,,0,0,0,
2026-03-17 18:15:00,METAR KBGE 171815Z AUTO 25005KT CLR 09/M05 A3025 RMK AO2 PWINO T00901055,0,5,0,,0,0,0,
2026-03-17 17:55:00,METAR KBGE 171755Z AUTO 02004KT CLR 09/M06 A3027 RMK AO2 PWINO T00871062 10093 20011,0,4,0,,0,0,0,
2026-03-17 17:35:00,METAR KBGE 171735Z AUTO 02006KT CLR 08/M07 A3028 RMK AO2 PWINO T00841065,0,6,0,,0,0,0,
2026-03-17 17:15:00,METAR KBGE 171715Z AUTO 00000KT CLR 08/M07 A3028 RMK AO2 PWINO T00771068,0,0,0,,0,0,0,
2026-03-17 16:55:00,METAR KBGE 171655Z AUTO 36007KT CLR 08/M07 A3030 RMK AO2 PWINO T00761069,0,7,0,,0,0,0,
2026-03-17 16:35:00,METAR KBGE 171635Z AUTO 03006KT CLR 08/M06 A3030 RMK AO2 PWINO T00751063,0,6,0,,0,0,0,
2026-03-17 16:15:00,METAR KBGE 171615Z AUTO 35009G15KT CLR 07/M07 A3031 RMK AO2 PWINO T00751069,0,9,1,,0,0,0,
2026-03-17 15:55:00,METAR KBGE 171555Z AUTO 36010KT 330V040 CLR 07/M07 A3031 RMK AO2 PWINO T00711068,0,10,0,,0,0,0,
2026-03-17 15:35:00,METAR KBGE 171535Z AUTO 02012KT CLR 07/M07 A3032 RMK AO2 PWINO T00701066,0,12,0,,0,0,0,
2026-03-17 14:55:00,METAR KBGE 171455Z AUTO 35014G18KT CLR 06/M06 A3031 RMK AO2 PWINO T00621057,0,14,1,,0,0,0,
2026-03-17 14:35:00,METAR KBGE 171435Z AUTO 36008G16KT CLR 05/M06 A3031 RMK AO2 PWINO T00541057,0,8,1,,0,0,0,
2026-03-17 14:15:00,METAR KBGE 171415Z AUTO 01008G15KT CLR 05/M05 A3030 RMK AO2 PWINO T00531048,0,8,1,,0,0,0,
2026-03-17 13:55:00,METAR KBGE 171355Z AUTO 01011KT CLR 05/M05 A3029 RMK AO2 PWINO T00481048,0,11,0,,0,0,0,
2026-03-17 13:35:00,METAR KBGE 171335Z AUTO 35009KT CLR 04/M04 A3029 RMK AO2 PWINO T00441038,0,9,0,,0,0,0,
2026-03-17 13:15:00,METAR KBGE 171315Z AUTO 33009KT CLR 04/M04 A3028 RMK AO2 PWINO T00361036,0,9,0,,0,0,0,
2026-03-17 12:55:00,METAR KBGE 171255Z AUTO 32009KT CLR 03/M03 A3027 RMK AO2 PWINO T00291030,0,9,0,,0,0,0,
2026-03-17 12:35:00,METAR KBGE 171235Z AUTO 31007KT CLR 02/M03 A3026 RMK AO2 PWINO T00221026,0,7,0,,0,0,0,
2026-03-17 12:15:00,METAR KBGE 171215Z AUTO 31006KT CLR 02/M02 A3024 RMK AO2 PWINO T00161024,0,6,0,,0,0,0,
2026-03-17 11:55:00,METAR KBGE 171155Z AUTO 31005KT CLR 01/M02 A3024 RMK AO2 PWINO T00111022 10046 20011 70067,0,5,0,,0,0,0,
2026-03-17 11:35:00,METAR KBGE 171135Z AUTO 32005KT CLR 01/M02 A3023 RMK AO2 PWINO T00111022,0,5,0,,0,0,0,
2026-03-17 11:15:00,METAR KBGE 171115Z AUTO 31006KT CLR 01/M03 A3022 RMK AO2 PWINO T00131025,0,6,0,,0,0,0,
2026-03-17 10:55:00,METAR KBGE 171055Z AUTO 31005KT CLR 01/M02 A3021 RMK AO2 PWINO T00151023,0,5,0,,0,0,0,
2026-03-17 10:35:00,METAR KBGE 171035Z AUTO 30006KT CLR 02/M03 A3022 RMK AO2 PWINO T00181028,0,6,0,,0,0,0,
2026-03-17 10:15:00,METAR KBGE 171015Z AUTO 31006KT CLR 02/M03 A3020 RMK AO2 PWINO T00231034,0,6,0,,0,0,0,
2026-03-17 09:55:00,METAR KBGE 170955Z AUTO 32009KT CLR 03/M04 A3018 RMK AO2 PWINO T00261037,0,9,0,,0,0,0,
2026-03-17 09:35:00,METAR KBGE 170935Z AUTO 32007KT CLR 03/M04 A3018 RMK AO2 PWINO T00291036,0,7,0,,0,0,0,
2026-03-17 09:15:00,METAR KBGE 170915Z AUTO 32008KT CLR 03/M03 A3017 RMK AO2 PWINO T00291032,0,8,0,,0,0,0,
2026-03-17 08:55:00,METAR KBGE 170855Z AUTO 31008KT CLR 03/M04 A3016 RMK AO2 PWINO T00321039,0,8,0,,0,0,0,
2026-03-17 08:35:00,METAR KBGE 170835Z AUTO 33009KT CLR 04/M05 A3016 RMK AO2 PWINO T00351045,0,9,0,,0,0,0,
2026-03-17 08:15:00,METAR KBGE 170815Z AUTO 33012KT CLR 04/M04 A3014 RMK AO2 PWINO T00371045,0,12,0,,0,0,0,
2026-03-17 07:55:00,METAR KBGE 170755Z AUTO 33010KT CLR 04/M04 A3013 RMK AO2 PWINO T00381043,0,10,0,,0,0,0,
2026-03-17 07:35:00,METAR KBGE 170735Z AUTO 33008KT CLR 04/M04 A3014 RMK AO2 PWINO T00391041,0,8,0,,0,0,0,
2026-03-17 07:15:00,METAR KBGE 170715Z AUTO 33012KT CLR 04/M04 A3014 RMK AO2 PWINO T00411043,0,12,0,,0,0,0,
2026-03-17 06:55:00,METAR KBGE 170655Z AUTO 33013KT CLR 04/M04 A3015 RMK AO2 PWINO T00411042,0,13,0,,0,0,0,
2026-03-17 06:35:00,METAR KBGE 170635Z AUTO 33012G16KT CLR 04/M03 A3015 RMK AO2 PWINO T00421033,0,12,1,,0,0,0,
2026-03-17 06:15:00,METAR KBGE 170615Z AUTO 33015KT CLR 04/M03 A3015 RMK AO2 PWINO T00441029,0,15,0,,0,0,0,
2026-03-17 05:55:00,METAR KBGE 170555Z AUTO 33014KT CLR 05/M03 A3015 RMK AO2 PWINO T00461028 10067 20036,0,14,0,,0,0,0,
2026-03-17 05:35:00,METAR KBGE 170535Z AUTO 33013KT CLR 04/M01 A3015 RMK AO2 PWINO T00441012,0,13,0,,0,0,0,
2026-03-17 05:15:00,METAR KBGE 170515Z AUTO 33012KT CLR 04/M01 A3015 RMK AO2 PWINO T00441005,0,12,0,,0,0,0,
2026-03-17 04:55:00,METAR KBGE 170455Z AUTO 32010KT CLR 04/00 A3014 RMK AO2 PWINO T00430003,0,10,0,,0,0,0,
2026-03-17 04:35:00,METAR KBGE 170435Z AUTO 32011KT CLR 04/01 A3014 RMK AO2 PWINO T00430006,0,11,0,,0,0,0,
2026-03-17 04:15:00,METAR KBGE 170415Z AUTO 32010KT CLR 04/01 A3014 RMK AO2 PWINO T00420012,0,10,0,,0,0,0,
2026-03-17 03:55:00,METAR KBGE 170355Z AUTO 31007KT 04/02 A3013 RMK AO2 PWINO T00420017,0,7,0,,0,0,0,
2026-03-17 03:35:00,METAR KBGE 170335Z AUTO 30005KT 04/02 A3014 RMK AO2 PWINO T00360019,0,5,0,,0,0,0,
2026-03-17 03:15:00,METAR KBGE 170315Z AUTO 30005KT 04/02 A3013 RMK AO2 PWINO T00380020,0,5,0,,0,0,0,
2026-03-17 02:55:00,METAR KBGE 170255Z AUTO 31005KT 04/02 A3012 RMK AO2 PWINO T00390018,0,5,0,,0,0,0,
2026-03-17 02:35:00,METAR KBGE 170235Z AUTO 27004KT CLR 04/01 A3012 RMK AO2 PWINO T00410008,0,4,0,,0,0,0,
2026-03-17 02:15:00,METAR KBGE 170215Z AUTO 28004KT CLR 04/01 A3011 RMK AO2 PWINO T00430012,0,4,0,,0,0,0,
2026-03-17 01:55:00,METAR KBGE 170155Z AUTO 28004KT CLR 04/01 A3009 RMK AO2 PWINO T00450012,0,4,0,,0,0,0,
2026-03-17 01:35:00,METAR KBGE 170135Z AUTO 30005KT CLR 05/01 A3008 RMK AO2 PWINO T00460011,0,5,0,,0,0,0,
2026-03-17 01:15:00,METAR KBGE 170115Z AUTO 31004KT CLR 05/M01 A3007 RMK AO2 PWINO T00531006,0,4,0,,0,0,0,
2026-03-17 00:55:00,METAR KBGE 170055Z AUTO 32008KT CLR 06/M01 A3005 RMK AO2 PWINO T00571013,0,8,0,,0,0,0,
2026-03-17 00:35:00,METAR KBGE 170035Z AUTO 32010KT CLR 06/M01 A3003 RMK AO2 PWINO T00601014,0,10,0,,0,0,0,
2026-03-17 00:15:00,METAR KBGE 170015Z AUTO 32012KT CLR 06/M01 A3003 RMK AO2 PWINO T00641015,0,12,0,,0,0,0,
2026-03-16 23:55:00,METAR KBGE 162355Z AUTO 32012KT CLR 07/M01 A3002 RMK AO2 PWINO T00681010 10136 20067 402420067,0,12,0,,0,0,0,
2026-03-16 23:35:00,METAR KBGE 162335Z AUTO 31014KT CLR 07/M01 A3001 RMK AO2 PWINO T00721010,0,14,0,,0,0,0,
2026-03-16 23:15:00,METAR KBGE 162315Z AUTO 32019KT SCT039 08/M02 A3000 RMK AO2 PWINO T00791017,0,19,0,,0,0,0,
2026-03-16 22:55:00,METAR KBGE 162255Z AUTO 31014KT SCT037 08/01 A2998 RMK AO2 PWINO T00850011,0,14,0,,0,0,0,
2026-03-16 22:35:00,METAR KBGE 162235Z AUTO 30018G24KT SCT037 09/02 A2996 RMK AO2 PWINO T00910017,0,18,1,,0,0,0,
2026-03-16 22:15:00,METAR KBGE 162215Z AUTO 31018G22KT SCT037 10/01 A2996 RMK AO2 PWINO T00960008,0,18,1,,0,0,0,
2026-03-16 21:55:00,METAR KBGE 162155Z AUTO 30017KT SCT034 SCT041 SCT085 10/02 A2995 RMK AO2 PWINO T01030025,0,17,0,,0,0,0,
2026-03-16 21:35:00,METAR KBGE 162135Z AUTO 30018KT OVC085 10/03 A2993 RMK AO2 PWINO T01030033,0,18,0,,0,0,0,
2026-03-16 21:15:00,METAR KBGE 162115Z AUTO 31014KT OVC085 09/04 A2992 RMK AO2 PWINO T00890044,0,14,0,,0,0,0,
2026-03-16 20:55:00,METAR KBGE 162055Z AUTO 33016KT BKN025 OVC085 09/04 A2991 RMK AO2 PWINO T00900041,0,16,0,,0,0,0,
2026-03-16 20:35:00,METAR KBGE 162035Z AUTO 33019KT BKN027 OVC032 09/04 A2990 RMK AO2 PWINO T00940045,0,19,0,,0,0,0,
2026-03-16 20:15:00,METAR KBGE 162015Z AUTO 31019KT BKN032 OVC070 10/05 A2990 RMK AO2 PWINO T01020052,0,19,0,,0,0,0,
2026-03-16 19:55:00,METAR KBGE 161955Z AUTO 31020KT BKN034 OVC070 11/06 A2989 RMK AO2 PWINO T01150060,0,20,0,,0,0,0,
2026-03-16 19:35:00,METAR KBGE 161935Z AUTO 31020KT SCT032 OVC070 13/07 A2988 RMK AO2 LTG DSNT SE PWINO T01290066,0,20,0,,0,0,0,DS
2026-03-16 19:15:00,METAR KBGE 161915Z AUTO 32019G23KT OVC070 13/06 A2986 RMK AO2 LTG DSNT E AND SE PWINO T01340063,0,19,1,,0,0,0,DS
2026-03-16 18:55:00,METAR KBGE 161855Z AUTO 30015KT OVC070 13/07 A2985 RMK AO2 LTG DSNT SE PWINO T01320065,0,15,0,,0,0,0,DS
2026-03-16 15:55:00,METAR KBGE 161555Z AUTO 33016G27KT OVC012 13/13 A2980 RMK AO2 LTG DSNT E P0002 PWINO T0130////,0,16,1,,0,0,0,DS
2026-03-16 15:40:00,METAR KBGE 161540Z AUTO 33024G30KT OVC012 15/ A2979 RMK AO2 LTG DSNT E P0002 PWINO T0152////,0,24,1,,0,0,0,DS
2026-03-16 15:15:00,METAR KBGE 161515Z AUTO 27011KT BKN010 BKN030 OVC095 18/ A2976 RMK AO2 LTG DSNT NE THRU SE P0001 PWINO T0180////,0,11,0,,0,0,0,DS
2026-03-16 11:15:00,METAR KBGE 161115Z AUTO 18010KT TS 21/ A2973 RMK AO2 LTG DSNT W THRU NE P0005 PWINO T0208////,0,10,0,,1,0,0,"DS,TS"
2026-03-16 10:55:00,METAR KBGE 161055Z AUTO 20011KT OVC015 21/ A2973 RMK AO2 LTG DSNT N AND NE PWINO T0213////,0,11,0,,0,0,0,DS
2026-03-16 10:35:00,METAR KBGE 161035Z AUTO 21005KT VCTS 20/20 A2973 RMK AO2 LTG DSNT NW THRU E PWINO T0205////,0,5,0,,1,0,0,"DS,TS,VC"
2026-03-16 10:15:00,METAR KBGE 161015Z AUTO 22011G17KT TS 21/ A2973 RMK AO2 LTG DSNT N THRU E PWINO T0212////,0,11,1,,1,0,0,"DS,TS"
2026-03-16 09:55:00,METAR KBGE 160955Z AUTO 19007G17KT TS 22/ A2973 RMK AO2 LTG DSNT N THRU E P0002 PWINO T0218////,0,7,1,,1,0,0,"DS,TS"
2026-03-16 09:35:00,METAR KBGE 160935Z AUTO 22004KT BKN016 OVC024 22/22 A2973 RMK AO2 LTG DSNT ALQDS PWINO T0216////,0,4,0,,0,0,0,DS
2026-03-16 09:15:00,METAR KBGE 160915Z AUTO 19010G14KT VCTS 22/22 A2974 RMK AO2 LTG DSNT NE THRU S PWINO T02210219,0,10,1,,1,0,0,"DS,TS,VC"
2026-03-16 08:55:00,METAR KBGE 160855Z AUTO 19009KT 22/ A2975 RMK AO2 LTG DSNT E AND SE PWINO T0219////,0,9,0,,0,0,0,DS
2026-03-16 08:35:00,METAR KBGE 160835Z AUTO 19009KT BKN013 OVC019 22/22 A2975 RMK AO2 LTG DSNT E PWINO T02180217,0,9,0,,0,0,0,DS
2026-03-16 08:15:00,METAR KBGE 160815Z AUTO 18009KT BKN013 OVC018 21/ A2975 RMK AO2 LTG DSNT SE PWINO T0214////,0,9,0,,0,0,0,DS
2026-03-16 07:55:00,METAR KBGE 160755Z AUTO 19010KT OVC011 21/ A2977 RMK AO2 LTG DSNT E THRU S PWINO T0214////,0,10,0,,0,0,0,DS
2026-03-16 07:35:00,METAR KBGE 160735Z AUTO 21009KT OVC009 21/21 A2979 RMK AO2 LTG DSNT SE AND S PWINO T0214////,0,9,0,,0,0,0,DS
2026-03-16 07:15:00,METAR KBGE 160715Z AUTO 21010KT OVC011 21/21 A2980 RMK AO2 LTG DSNT E THRU S PWINO T02150214,0,10,0,,0,0,0,DS
2026-03-16 06:55:00,METAR KBGE 160655Z AUTO 19012KT OVC011 21/21 A2980 RMK AO2 LTG DSNT S PWINO T02110210,0,12,0,,0,0,0,DS
2026-03-16 06:35:00,METAR KBGE 160635Z AUTO 18013G17KT OVC011 21/21 A2980 RMK AO2 PWINO T02060206,0,13,1,,0,0,0,
2026-03-16 06:15:00,METAR KBGE 160615Z AUTO 18010KT BKN011 20/20 A2981 RMK AO2 PWINO T02040202,0,10,0,,0,0,0,
2026-03-16 05:55:00,METAR KBGE 160555Z AUTO 19009KT BKN011 BKN049 BKN070 21/20 A2982 RMK AO2 LTG DSNT S PWINO T02050199 10242 20194,0,9,0,,0,0,0,DS
2026-03-16 05:35:00,METAR KBGE 160535Z AUTO 19009KT 20/19 A2983 RMK AO2 PWINO T02010192,0,9,0,,0,0,0,
2026-03-16 05:15:00,METAR KBGE 160515Z AUTO 19010KT 20/19 A2982 RMK AO2 LTG DSNT S PWINO T01980187,0,10,0,,0,0,0,DS
2026-03-16 04:55:00,METAR KBGE 160455Z AUTO 18010KT 20/18 A2982 RMK AO2 LTG DSNT SE PWINO T02020185,0,10,0,,0,0,0,DS
2026-03-16 04:35:00,METAR KBGE 160435Z AUTO 18010G16KT 20/18 A2983 RMK AO2 PWINO T02010180,0,10,1,,0,0,0,
2026-03-16 04:15:00,METAR KBGE 160415Z AUTO 17008KT 20/17 A2983 RMK AO2 PWINO T01970171,0,8,0,,0,0,0,
2026-03-16 03:55:00,METAR KBGE 160355Z AUTO 17009KT CLR 20/17 A2984 RMK AO2 LTG DSNT SE PWINO T01970167,0,9,0,,0,0,0,DS
2026-03-16 03:35:00,METAR KBGE 160335Z AUTO 18007KT CLR 20/16 A2985 RMK AO2 LTG DSNT SE PWINO T01960158,0,7,0,,0,0,0,DS
2026-03-16 03:15:00,METAR KBGE 160315Z AUTO 17008KT SCT080 20/15 A2985 RMK AO2 PWINO T01990152,0,8,0,,0,0,0,
2026-03-16 02:55:00,METAR KBGE 160255Z AUTO 16009KT BKN080 20/15 A2985 RMK AO2 LTG DSNT E PWINO T02030152,0,9,0,,0,0,0,DS
2026-03-16 02:35:00,METAR KBGE 160235Z AUTO 16010KT SCT035 SCT050 SCT080 20/15 A2985 RMK AO2 LTG DSNT E PWINO T02040154,0,10,0,,0,0,0,DS
2026-03-16 02:15:00,METAR KBGE 160215Z AUTO 17011KT SCT035 21/16 A2985 RMK AO2 LTG DSNT E PWINO T02070160,0,11,0,,0,0,0,DS
2026-03-16 01:55:00,METAR KBGE 160155Z AUTO 17010KT CLR 21/16 A2986 RMK AO2 PWINO T02090164,0,10,0,,0,0,0,
2026-03-16 01:35:00,METAR KBGE 160135Z AUTO 17009KT CLR 21/17 A2985 RMK AO2 LTG DSNT S PWINO T02110167,0,9,0,,0,0,0,DS
2026-03-16 01:15:00,METAR KBGE 160115Z AUTO 18008KT CLR 22/17 A2984 RMK AO2 LTG DSNT S PWINO T02170169,0,8,0,,0,0,0,DS
2026-03-16 00:55:00,METAR KBGE 160055Z AUTO 17008KT CLR 22/17 A2984 RMK AO2 PWINO T02200170,0,8,0,,0,0,0,
2026-03-16 00:35:00,METAR KBGE 160035Z AUTO 19008KT CLR 23/17 A2985 RMK AO2 LTG DSNT E PWINO T02290168,0,8,0,,0,0,0,DS
2026-03-16 00:15:00,METAR KBGE 160015Z AUTO 19008KT SCT090 23/16 A2986 RMK AO2 PWINO T02340161,0,8,0,,0,0,0,
2026-03-15 23:55:00,METAR KBGE 152355Z AUTO 20011G17KT SCT055 SCT090 24/16 A2986 RMK AO2 LTG DSNT SE AND NW PWINO T02430158 10294 20242 402940132,0,11,1,,0,0,0,DS
2026-03-15 23:35:00,METAR KBGE 152335Z AUTO 20013KT SCT055 BKN090 25/16 A2986 RMK AO2 PWINO T02510157,0,13,0,,0,0,0,
2026-03-15 23:15:00,METAR KBGE 152315Z AUTO 23011KT BKN090 26/14 A2986 RMK AO2 PWINO T02600143,0,11,0,,0,0,0,
2026-03-15 22:55:00,METAR KBGE 152255Z AUTO 23015G20KT BKN090 27/14 A2986 RMK AO2 PWINO T02660141,0,15,1,,0,0,0,
2026-03-15 22:35:00,METAR KBGE 152235Z AUTO 22015G21KT BKN100 27/13 A2986 RMK AO2 PWINO T02720128,0,15,1,,0,0,0,
2026-03-15 22:15:00,METAR KBGE 152215Z AUTO 23013G20KT OVC090 28/12 A2986 RMK AO2 PWINO T02770124,0,13,1,,0,0,0,
2026-03-15 21:55:00,METAR KBGE 152155Z AUTO 23013G21KT OVC090 28/12 A2986 RMK AO2 PWINO T02770124,0,13,1,,0,0,0,
2026-03-15 21:35:00,METAR KBGE 152135Z AUTO 24014G19KT BKN090 28/12 A2986 RMK AO2 PWINO T02790119,0,14,1,,0,0,0,
2026-03-15 21:15:00,METAR KBGE 152115Z AUTO 23013KT SCT090 29/12 A2986 RMK AO2 PWINO T02890121,0,13,0,,0,0,0,
2026-03-15 20:55:00,METAR KBGE 152055Z AUTO 21015KT SCT095 29/12 A2986 RMK AO2 PWINO T02890118,0,15,0,,0,0,0,
2026-03-15 20:35:00,METAR KBGE 152035Z AUTO 23015G19KT SCT095 29/11 A2987 RMK AO2 PWINO T02890114,0,15,1,,0,0,0,
2026-03-15 20:15:00,METAR KBGE 152015Z AUTO 25009G17KT SCT095 29/12 A2988 RMK AO2 PWINO T02860124,0,9,1,,0,0,0,
2026-03-15 19:55:00,METAR KBGE 151955Z AUTO 24012G19KT SCT060 SCT095 28/13 A2990 RMK AO2 PWINO T02820127,0,12,1,,0,0,0,
2026-03-15 19:35:00,METAR KBGE 151935Z AUTO 25012G23KT SCT060 28/13 A2991 RMK AO2 PWINO T02780131,0,12,1,,0,0,0,
2026-03-15 19:15:00,METAR KBGE 151915Z AUTO 24016G21KT SCT060 28/13 A2992 RMK AO2 PWINO T02800131,0,16,1,,0,0,0,
2026-03-15 18:55:00,METAR KBGE 151855Z AUTO 24013G17KT SCT050 28/13 A2993 RMK AO2 PWINO T02780131,0,13,1,,0,0,0,
2026-03-15 18:35:00,METAR KBGE 151835Z AUTO 25016G19KT SCT050 27/14 A2994 RMK AO2 PWINO T02700136,0,16,1,,0,0,0,
2026-03-15 18:15:00,METAR KBGE 151815Z AUTO 22010G21KT SCT048 SCT055 27/15 A2995 RMK AO2 PWINO T02670148,0,10,1,,0,0,0,
2026-03-15 17:55:00,METAR KBGE 151755Z AUTO 23010G17KT CLR 26/15 A2996 RMK AO2 PWINO T02630153 10269 20142,0,10,1,,0,0,0,
2026-03-15 17:35:00,METAR KBGE 151735Z AUTO 24012G18KT CLR 26/16 A2996 RMK AO2 PWINO T02590159,0,12,1,,0,0,0,
2026-03-15 17:15:00,METAR KBGE 151715Z AUTO 25013G16KT SCT029 SCT034 SCT047 24/17 A2997 RMK AO2 PWINO T02450169,0,13,1,,0,0,0,
2026-03-15 16:55:00,METAR KBGE 151655Z AUTO 21010G16KT BKN029 24/18 A2998 RMK AO2 PWINO T02430175,0,10,1,,0,0,0,
2026-03-15 16:35:00,METAR KBGE 151635Z AUTO 24012KT SCT029 24/17 A2998 RMK AO2 PWINO T02440166,0,12,0,,0,0,0,
2026-03-15 16:15:00,METAR KBGE 151615Z AUTO 20009KT SCT025 24/17 A2999 RMK AO2 PWINO T02360170,0,9,0,,0,0,0,
2026-03-15 15:55:00,METAR KBGE 151555Z AUTO 22010KT BKN023 23/17 A2999 RMK AO2 PWINO T02340171,0,10,0,,0,0,0,
2026-03-15 15:35:00,METAR KBGE 151535Z AUTO 19011KT BKN023 22/17 A2999 RMK AO2 PWINO T02240168,0,11,0,,0,0,0,
2026-03-15 15:15:00,METAR KBGE 151515Z AUTO 17011G17KT SCT019 SCT024 22/17 A2999 RMK AO2 PWINO T02170169,0,11,1,,0,0,0,
2026-03-15 14:55:00,METAR KBGE 151455Z AUTO 17009KT BKN017 OVC026 21/17 A2999 RMK AO2 PWINO T02080174,0,9,0,,0,0,0,
2026-03-15 14:35:00,METAR KBGE 151435Z AUTO 17007KT SCT015 OVC026 20/17 A2999 RMK AO2 PWINO T02030174,0,7,0,,0,0,0,
2026-03-15 14:15:00,METAR KBGE 151415Z AUTO 18006KT SCT014 BKN026 20/17 A2999 RMK AO2 PWINO T02000174,0,6,0,,0,0,0,
2026-03-15 13:55:00,METAR KBGE 151355Z AUTO 17005KT 19/17 A3000 RMK AO2 PWINO T01930172,0,5,0,,0,0,0,
2026-03-15 13:35:00,METAR KBGE 151335Z AUTO 15005KT 18/17 A3000 RMK AO2 PWINO T01840171,0,5,0,,0,0,0,
2026-03-15 13:15:00,METAR KBGE 151315Z AUTO 10004KT 18/17 A2999 RMK AO2 PWINO T01760167,0,4,0,,0,0,0,
2026-03-15 12:55:00,METAR KBGE 151255Z AUTO 08004KT 16/16 A2999 RMK AO2 LTG DSNT E PWINO T01650161,0,4,0,,0,0,0,DS
2026-03-15 12:35:00,METAR KBGE 151235Z AUTO 07003KT 16/ A2999 RMK AO2 PWINO T0155////,0,3,0,,0,0,0,
2026-03-15 12:15:00,METAR KBGE 151215Z AUTO 05003KT 15/ A2999 RMK AO2 PWINO T0145////,0,3,0,,0,0,0,
2026-03-15 11:55:00,METAR KBGE 151155Z AUTO 02003KT 14/ A2999 RMK AO2 PWINO T0144//// 10170 20132,0,3,0,,0,0,0,
2026-03-15 11:35:00,METAR KBGE 151135Z AUTO 05003KT 13/ A2999 RMK AO2 PWINO T0134////,0,3,0,,0,0,0,
2026-03-15 11:15:00,METAR KBGE 151115Z AUTO 07004KT 13/ A2999 RMK AO2 LTG DSNT E PWINO T0135////,0,4,0,,0,0,0,DS
2026-03-15 10:55:00,METAR KBGE 151055Z AUTO 00000KT 14/14 A2999 RMK AO2 PWINO T0141////,0,0,0,,0,0,0,
2026-03-15 10:35:00,METAR KBGE 151035Z AUTO 00000KT 15/14 A2999 RMK AO2 PWINO T01510141,0,0,0,,0,0,0,
2026-03-15 10:15:00,METAR KBGE 151015Z AUTO 02003KT BKN017 15/14 A2999 RMK AO2 PWINO T01540141,0,3,0,,0,0,0,
2026-03-15 09:55:00,METAR KBGE 150955Z AUTO 01003KT 15/14 A2999 RMK AO2 PWINO T01510141,0,3,0,,0,0,0,
2026-03-15 09:35:00,METAR KBGE 150935Z AUTO 04004KT 15/14 A2999 RMK AO2 PWINO T01510143,0,4,0,,0,0,0,
2026-03-15 09:15:00,METAR KBGE 150915Z AUTO 06004KT 16/14 A2999 RMK AO2 PWINO T01560142,0,4,0,,0,0,0,
2026-03-15 08:55:00,METAR KBGE 150855Z AUTO 06003KT 15/14 A2999 RMK AO2 PWINO T01460135,0,3,0,,0,0,0,
2026-03-15 08:35:00,METAR KBGE 150835Z AUTO 04004KT 15/13 A3000 RMK AO2 PWINO T01530131,0,4,0,,0,0,0,
2026-03-15 08:15:00,METAR KBGE 150815Z AUTO 05004KT CLR 16/13 A3001 RMK AO2 PWINO T01560128,0,4,0,,0,0,0,
2026-03-15 07:55:00,METAR KBGE 150755Z AUTO 05003KT SCT065 SCT080 16/13 A3001 RMK AO2 PWINO T01620129,0,3,0,,0,0,0,
