Time_recorded,METAR,is_cavok,wind_speed,is_gust,visibility_meters,has_thunderstorm,has_heavy_rain,has_low_vis_fog,other_phenomenon
2026-05-02 14:56:00,METAR KLAS 021456Z 22004KT 10SM BKN250 21/M08 A3004 RMK AO2 SLP151 T02061083 51014,0,4.0,0,16090,0,0,0,
2026-05-02 13:56:00,METAR KLAS 021356Z 20005KT 10SM BKN250 18/M09 A3002 RMK AO2 SLP148 T01781089,0,5.0,0,16090,0,0,0,
2026-05-02 12:56:00,METAR KLAS 021256Z 22005KT 10SM BKN250 17/M10 A3000 RMK AO2 SLP141 T01671100,0,5.0,0,16090,0,0,0,
2026-05-02 11:56:00,METAR KLAS 021156Z 00000KT 10SM BKN200 18/M09 A2999 RMK AO2 SLP137 T01781089 10239 20178 53001,0,0.0,0,16090,0,0,0,
2026-05-02 10:56:00,METAR KLAS 021056Z 27005KT 10SM SCT200 19/M09 A2999 RMK AO2 SLP135 T01891094,0,5.0,0,16090,0,0,0,
2026-05-02 09:56:00,METAR KLAS 020956Z 26003KT 10SM SCT200 20/M09 A2998 RMK AO2 SLP133 T02001094,0,3.0,0,16090,0,0,0,
2026-05-02 08:56:00,METAR KLAS 020856Z VRB03KT 10SM BKN200 22/M11 A2999 RMK AO2 SLP134 T02171111 50008,0,3.0,0,16090,0,0,0,
2026-05-02 07:56:00,METAR KLAS 020756Z 03004KT 10SM SCT200 23/M12 A2999 RMK AO2 SLP134 T02281122 402940178,0,4.0,0,16090,0,0,0,
2026-05-02 06:56:00,METAR KLAS 020656Z 03008KT 10SM FEW200 23/M12 A2998 RMK AO2 SLP132 T02331117,0,8.0,0,16090,0,0,0,
2026-05-02 05:56:00,METAR KLAS 020556Z 03011KT 10SM CLR 24/M11 A2996 RMK AO2 SLP125 T02391111 10289 20239 51019,0,11.0,0,16090,0,0,0,
2026-05-02 04:56:00,METAR KLAS 020456Z 04005KT 10SM FEW250 26/M11 A2995 RMK AO2 SLP122 T02561106,0,5.0,0,16090,0,0,0,
2026-05-02 03:56:00,METAR KLAS 020356Z 03007KT 10SM FEW150 26/M11 A2993 RMK AO2 SLP115 T02611106,0,7.0,0,16090,0,0,0,
2026-05-02 02:56:00,METAR KLAS 020256Z 04008KT 10SM FEW150 27/M11 A2990 RMK AO2 SLP106 T02721106 53005,0,8.0,0,16090,0,0,0,
2026-05-02 01:56:00,METAR KLAS 020156Z 08007KT 10SM FEW150 28/M11 A2989 RMK AO2 SLP101 T02781106,0,7.0,0,16090,0,0,0,
2026-05-02 00:56:00,METAR KLAS 020056Z 11006KT 10SM FEW150 28/M07 A2988 RMK AO2 SLP099 T02831072,0,6.0,0,16090,0,0,0,
2026-05-01 23:56:00,METAR KLAS 012356Z VRB03KT 10SM SCT130 28/M07 A2989 RMK AO2 SLP101 T02831072 10294 20250 56016,0,3.0,0,16090,0,0,0,
2026-05-01 22:56:00,METAR KLAS 012256Z 03013G21KT 10SM SCT130 29/M07 A2990 RMK AO2 SLP102 T02891067,0,13.0,1,16090,0,0,0,
2026-05-01 21:56:00,METAR KLAS 012156Z VRB03KT 10SM SCT130 28/M06 A2991 RMK AO2 SLP109 T02781056,0,3.0,0,16090,0,0,0,
2026-05-01 20:56:00,METAR KLAS 012056Z 07013G19KT 10SM FEW130 28/M07 A2994 RMK AO2 SLP117 T02831067 58017,0,13.0,1,16090,0,0,0,
2026-05-01 20:03:00,SPECI KLAS 012003Z VRB03KT 10SM FEW130 27/M07 A2995 RMK AO2 T02721067,0,3.0,0,16090,0,0,0,
2026-05-01 19:56:00,METAR KLAS 011956Z 04007G16KT 10SM FEW130 28/M07 A2996 RMK AO2 SLP122 T02781067,0,7.0,1,16090,0,0,0,
2026-05-01 18:56:00,METAR KLAS 011856Z 03007KT 10SM FEW130 27/M07 A2998 RMK AO2 SLP130 T02671067,0,7.0,0,16090,0,0,0,
2026-05-01 18:13:00,SPECI KLAS 011813Z 01009KT 10SM FEW130 26/M07 A2999 RMK AO2 T02611072,0,9.0,0,16090,0,0,0,
2026-05-01 18:03:00,SPECI KLAS 011803Z 04011G16KT 10SM FEW130 26/M07 A2999 RMK AO2 T02561072,0,11.0,1,16090,0,0,0,
2026-05-01 17:56:00,METAR KLAS 011756Z 03008G16KT 10SM FEW130 26/M07 A2999 RMK AO2 SLP135 T02561072 10261 20178 50004,0,8.0,1,16090,0,0,0,
2026-05-01 17:31:00,SPECI KLAS 011731Z 05004KT 10SM FEW140 25/M07 A3000 RMK AO2 T02501072,0,4.0,0,16090,0,0,0,
2026-05-01 17:29:00,SPECI KLAS 011729Z 10SM FEW140 25/M07 A3000 RMK AO2 T02501072,0,,0,16090,0,0,0,
2026-05-01 17:11:00,SPECI KLAS 011711Z 01012G16KT 10SM FEW140 25/M06 A3000 RMK AO2 T02501061,0,12.0,1,16090,0,0,0,
2026-05-01 16:56:00,METAR KLAS 011656Z 03012G18KT 10SM FEW140 24/M06 A3000 RMK AO2 SLP138 T02441061,0,12.0,1,16090,0,0,0,
2026-05-01 15:56:00,METAR KLAS 011556Z 16003KT 10SM FEW140 22/M03 A2999 RMK AO2 SLP136 T02221033,0,3.0,0,16090,0,0,0,
2026-05-01 14:56:00,METAR KLAS 011456Z 16003KT 10SM SCT140 22/M03 A2998 RMK AO2 SLP132 T02171033 53020,0,3.0,0,16090,0,0,0,
2026-05-01 13:56:00,METAR KLAS 011356Z 21005KT 10SM FEW120 19/M03 A2996 RMK AO2 SLP124 T01941033,0,5.0,0,16090,0,0,0,
2026-05-01 12:56:00,METAR KLAS 011256Z 36004KT 10SM FEW120 19/M04 A2993 RMK AO2 SLP115 T01941044,0,4.0,0,16090,0,0,0,
2026-05-01 11:56:00,METAR KLAS 011156Z 00000KT 10SM CLR 19/M04 A2992 RMK AO2 SLP110 T01941039 10244 20189 53010,0,0.0,0,16090,0,0,0,
2026-05-01 10:56:00,METAR KLAS 011056Z 09006KT 10SM FEW140 21/M04 A2990 RMK AO2 SLP105 T02061044,0,6.0,0,16090,0,0,0,
2026-05-01 09:56:00,METAR KLAS 010956Z 00000KT 10SM FEW140 21/M04 A2989 RMK AO2 SLP100 T02061044,0,0.0,0,16090,0,0,0,
2026-05-01 08:56:00,METAR KLAS 010856Z 04006KT 10SM FEW140 22/M06 A2988 RMK AO2 SLP099 T02171056 51010,0,6.0,0,16090,0,0,0,
2026-05-01 07:56:00,METAR KLAS 010756Z 02008KT 10SM FEW140 23/M06 A2988 RMK AO2 SLP099 T02281061 402890167,0,8.0,0,16090,0,0,0,
2026-05-01 06:56:00,METAR KLAS 010656Z 01009KT 10SM SCT140 23/M06 A2987 RMK AO2 SLP094 T02331061,0,9.0,0,16090,0,0,0,
2026-05-01 05:56:00,METAR KLAS 010556Z 01013KT 10SM BKN140 24/M07 A2985 RMK AO2 SLP087 T02441067 10283 20244 51017,0,13.0,0,16090,0,0,0,
2026-05-01 04:56:00,METAR KLAS 010456Z 01004KT 10SM SCT140 26/M07 A2983 RMK AO2 SLP081 T02561067,0,4.0,0,16090,0,0,0,
2026-05-01 03:56:00,METAR KLAS 010356Z 01010KT 10SM FEW120 27/M07 A2982 RMK AO2 SLP078 T02671067,0,10.0,0,16090,0,0,0,
2026-05-01 02:56:00,METAR KLAS 010256Z 03008KT 10SM FEW120 FEW150 27/M07 A2980 RMK AO2 SLP071 T02721067 53003,0,8.0,0,16090,0,0,0,
2026-05-01 02:07:00,SPECI KLAS 010207Z 03009KT 10SM FEW120 FEW150 28/M06 A2979 RMK AO2 T02781061,0,9.0,0,16090,0,0,0,
2026-05-01 01:56:00,METAR KLAS 010156Z 08010G15KT 10SM FEW120 FEW150 28/M06 A2978 RMK AO2 SLP066 T02781056,0,10.0,1,16090,0,0,0,
2026-05-01 00:56:00,METAR KLAS 010056Z 03008KT 10SM FEW120 28/M05 A2978 RMK AO2 SLP066 T02831050,0,8.0,0,16090,0,0,0,
2026-05-01 00:05:00,SPECI KLAS 010005Z VRB05KT 10SM FEW120 28/M04 A2979 RMK AO2 T02831044,0,5.0,0,16090,0,0,0,
2026-04-30 23:56:00,METAR KLAS 302356Z 06008G17KT 10SM FEW120 28/M04 A2979 RMK AO2 SLP068 T02831044 10289 20256 56024,0,8.0,1,16090,0,0,0,
2026-04-30 22:56:00,METAR KLAS 302256Z VRB03KT 10SM FEW120 28/M04 A2981 RMK AO2 SLP074 T02781044,0,3.0,0,16090,0,0,0,
2026-04-30 22:00:00,SPECI KLAS 302200Z VRB03KT 10SM FEW120 27/M04 A2984 RMK AO2 T02721039,0,3.0,0,16090,0,0,0,
2026-04-30 21:56:00,METAR KLAS 302156Z VRB04G18KT 10SM FEW120 27/M04 A2984 RMK AO2 SLP084 T02721039,0,4.0,1,16090,0,0,0,
2026-04-30 20:56:00,METAR KLAS 302056Z VRB03KT 10SM FEW120 27/M04 A2987 RMK AO2 SLP094 T02671039 58021,0,3.0,0,16090,0,0,0,
2026-04-30 19:56:00,METAR KLAS 301956Z 00000KT 10SM FEW120 26/M04 A2989 RMK AO2 SLP101 T02611039,0,0.0,0,16090,0,0,0,
2026-04-30 19:22:00,SPECI KLAS 301922Z 05006KT 10SM FEW120 26/M04 A2990 RMK AO2 T02611039,0,6.0,0,16090,0,0,0,
2026-04-30 18:56:00,METAR KLAS 301856Z 06009G15KT 10SM FEW120 27/M04 A2991 RMK AO2 SLP110 T02671039,0,9.0,1,16090,0,0,0,
2026-04-30 17:56:00,METAR KLAS 301756Z 03016KT 10SM FEW120 26/M04 A2993 RMK AO2 SLP116 T02611039 10261 20167 58006,0,16.0,0,16090,0,0,0,
2026-04-30 16:56:00,METAR KLAS 301656Z 06008KT 10SM FEW120 24/M03 A2995 RMK AO2 SLP120 T02391028,0,8.0,0,16090,0,0,0,
2026-04-30 15:56:00,METAR KLAS 301556Z 05005KT 10SM FEW120 22/M03 A2995 RMK AO2 SLP123 T02221028,0,5.0,0,16090,0,0,0,
2026-04-30 14:56:00,METAR KLAS 301456Z 00000KT 10SM FEW120 20/M03 A2995 RMK AO2 SLP123 T02001033 53012,0,0.0,0,16090,0,0,0,
2026-04-30 13:56:00,METAR KLAS 301356Z 00000KT 10SM FEW120 19/M03 A2994 RMK AO2 SLP119 T01891033,0,0.0,0,16090,0,0,0,
2026-04-30 12:56:00,METAR KLAS 301256Z 20004KT 10SM FEW120 17/M04 A2992 RMK AO2 SLP113 T01671044,0,4.0,0,16090,0,0,0,
2026-04-30 11:56:00,METAR KLAS 301156Z 22003KT 10SM CLR 17/M05 A2991 RMK AO2 SLP111 T01721050 10222 20167 53003,0,3.0,0,16090,0,0,0,
2026-04-30 10:56:00,METAR KLAS 301056Z 23004KT 10SM CLR 18/M05 A2991 RMK AO2 SLP109 T01781050,0,4.0,0,16090,0,0,0,
2026-04-30 09:56:00,METAR KLAS 300956Z 28003KT 10SM CLR 18/M04 A2991 RMK AO2 SLP108 T01781039,0,3.0,0,16090,0,0,0,
2026-04-30 08:56:00,METAR KLAS 300856Z 23005KT 10SM CLR 18/M06 A2991 RMK AO2 SLP109 T01831061 58005,0,5.0,0,16090,0,0,0,
2026-04-30 07:56:00,METAR KLAS 300756Z 22005KT 10SM CLR 19/M05 A2992 RMK AO2 SLP112 T01941050 402780150,0,5.0,0,16090,0,0,0,
2026-04-30 06:56:00,METAR KLAS 300656Z 27004KT 10SM CLR 22/M04 A2992 RMK AO2 SLP112 T02171039,0,4.0,0,16090,0,0,0,
2026-04-30 05:56:00,METAR KLAS 300556Z 04003KT 10SM CLR 22/M03 A2992 RMK AO2 SLP113 T02221033 10278 20222 50012,0,3.0,0,16090,0,0,0,
2026-04-30 04:56:00,METAR KLAS 300456Z 23004KT 10SM FEW120 23/M03 A2992 RMK AO2 SLP115 T02331028,0,4.0,0,16090,0,0,0,
2026-04-30 03:56:00,METAR KLAS 300356Z 29004KT 10SM FEW120 24/M03 A2990 RMK AO2 SLP108 T02441028,0,4.0,0,16090,0,0,0,
2026-04-30 02:56:00,METAR KLAS 300256Z 34006KT 10SM FEW120 26/M04 A2988 RMK AO2 SLP100 T02561039 55004,0,6.0,0,16090,0,0,0,
2026-04-30 01:56:00,METAR KLAS 300156Z 01008KT 10SM FEW120 26/M04 A2987 RMK AO2 SLP097 T02611044,0,8.0,0,16090,0,0,0,
2026-04-30 00:56:00,METAR KLAS 300056Z 35009G15KT 10SM FEW120 27/M06 A2988 RMK AO2 SLP100 T02721056,0,9.0,1,16090,0,0,0,
2026-04-29 23:56:00,METAR KLAS 292356Z COR 10SM VRB03 FEW120 27/M06 A2989 RMK AO2 SLP105 T02671056 10272 20222 56023,0,,0,16090,0,0,0,
2026-04-29 22:56:00,METAR KLAS 292256Z 02005KT 10SM FEW120 27/M05 A2992 RMK AO2 SLP113 T02671050,0,5.0,0,16090,0,0,0,
2026-04-29 21:56:00,METAR KLAS 292156Z 36009KT 10SM FEW120 27/M05 A2994 RMK AO2 SLP121 T02671050,0,9.0,0,16090,0,0,0,
2026-04-29 20:56:00,METAR KLAS 292056Z 06004KT 10SM FEW120 25/M05 A2997 RMK AO2 SLP129 T02501050 58022,0,4.0,0,16090,0,0,0,
2026-04-29 19:56:00,METAR KLAS 291956Z 13004KT 10SM FEW120 24/M06 A2999 RMK AO2 SLP138 T02441056,0,4.0,0,16090,0,0,0,
2026-04-29 18:56:00,METAR KLAS 291856Z VRB03KT 10SM FEW120 23/M02 A3002 RMK AO2 SLP147 T02331022,0,3.0,0,16090,0,0,0,
2026-04-29 17:56:00,METAR KLAS 291756Z VRB05KT 10SM FEW120 22/M02 A3004 RMK AO2 SLP154 T02221017 10228 20150 58006,0,5.0,0,16090,0,0,0,
2026-04-29 16:56:00,METAR KLAS 291656Z 00000KT 10SM FEW120 21/M01 A3005 RMK AO2 SLP158 T02111006,0,0.0,0,16090,0,0,0,
2026-04-29 15:56:00,METAR KLAS 291556Z VRB03KT 10SM FEW120 19/M03 A3005 RMK AO2 SLP160 T01941028,0,3.0,0,16090,0,0,0,
2026-04-29 14:56:00,METAR KLAS 291456Z 03006KT 10SM CLR 18/M02 A3006 RMK AO2 SLP161 T01831022 51014,0,6.0,0,16090,0,0,0,
2026-04-29 13:56:00,METAR KLAS 291356Z 36007KT 10SM CLR 17/M02 A3005 RMK AO2 SLP159 T01721017,0,7.0,0,16090,0,0,0,
2026-04-29 12:56:00,METAR KLAS 291256Z 00000KT 10SM CLR 16/M05 A3003 RMK AO2 SLP153 T01561050,0,0.0,0,16090,0,0,0,
2026-04-29 11:56:00,METAR KLAS 291156Z 16003KT 10SM CLR 16/M06 A3001 RMK AO2 SLP146 T01561061 10206 20156 53004,0,3.0,0,16090,0,0,0,
2026-04-29 10:56:00,METAR KLAS 291056Z 20004KT 10SM CLR 16/M07 A3000 RMK AO2 SLP144 T01611072,0,4.0,0,16090,0,0,0,
2026-04-29 09:56:00,METAR KLAS 290956Z 19003KT 10SM CLR 17/M07 A2999 RMK AO2 SLP141 T01721067,0,3.0,0,16090,0,0,0,
2026-04-29 08:56:00,METAR KLAS 290856Z 00000KT 10SM CLR 19/M05 A3000 RMK AO2 SLP141 T01891050 51006,0,0.0,0,16090,0,0,0,
2026-04-29 07:56:00,METAR KLAS 290756Z 27006KT 10SM CLR 18/M04 A3000 RMK AO2 SLP143 T01831044 402500128,0,6.0,0,16090,0,0,0,
2026-04-29 06:56:00,METAR KLAS 290656Z 31007KT 10SM CLR 19/M04 A3000 RMK AO2 SLP143 T01941039,0,7.0,0,16090,0,0,0,
2026-04-29 05:56:00,METAR KLAS 290556Z 30004KT 10SM CLR 20/M04 A2998 RMK AO2 SLP137 T02001039 10250 20200 51010,0,4.0,0,16090,0,0,0,
2026-04-29 04:56:00,METAR KLAS 290456Z 00000KT 10SM CLR 22/M06 A2998 RMK AO2 SLP135 T02171056,0,0.0,0,16090,0,0,0,
2026-04-29 03:56:00,METAR KLAS 290356Z 09005KT 10SM FEW100 22/M06 A2997 RMK AO2 SLP134 T02221061,0,5.0,0,16090,0,0,0,
2026-04-29 02:56:00,METAR KLAS 290256Z 10004KT 10SM FEW100 23/M06 A2995 RMK AO2 SLP126 T02331061 53002,0,4.0,0,16090,0,0,0,
2026-04-29 01:56:00,METAR KLAS 290156Z 09007KT 10SM FEW100 24/M06 A2993 RMK AO2 SLP120 T02391061,0,7.0,0,16090,0,0,0,
2026-04-29 00:56:00,METAR KLAS 290056Z 00000KT 10SM FEW100 FEW200 24/M06 A2993 RMK AO2 SLP122 T02441061,0,0.0,0,16090,0,0,0,
2026-04-28 23:56:00,METAR KLAS 282356Z 31010G15KT 10SM FEW100 FEW200 25/M06 A2994 RMK AO2 SLP125 T02501061 10250 20194 57024,0,10.0,1,16090,0,0,0,
2026-04-28 22:56:00,METAR KLAS 282256Z VRB05KT 10SM FEW100 FEW200 24/M06 A2996 RMK AO2 SLP132 T02391061,0,5.0,0,16090,0,0,0,
2026-04-28 21:56:00,METAR KLAS 282156Z 35006KT 10SM FEW100 SCT200 23/M06 A3000 RMK AO2 SLP143 T02331056,0,6.0,0,16090,0,0,0,
2026-04-28 20:56:00,METAR KLAS 282056Z 03007KT 10SM FEW100 SCT200 23/M06 A3002 RMK AO2 SLP150 T02331061 58022,0,7.0,0,16090,0,0,0,
2026-04-28 19:56:00,METAR KLAS 281956Z 14004KT 10SM FEW100 SCT200 22/M03 A3004 RMK AO2 SLP160 T02171028,0,4.0,0,16090,0,0,0,
2026-04-28 18:56:00,METAR KLAS 281856Z 18005KT 10SM FEW100 SCT200 21/M01 A3007 RMK AO2 SLP167 T02061011,0,5.0,0,16090,0,0,0,
2026-04-28 17:56:00,METAR KLAS 281756Z VRB03KT 10SM SCT200 19/00 A3009 RMK AO2 SLP175 T01890000 10194 20128 50005,0,3.0,0,16090,0,0,0,
2026-04-28 16:56:00,METAR KLAS 281656Z VRB04KT 10SM CLR 18/00 A3009 RMK AO2 SLP176 T01830000 $,0,4.0,0,16090,0,0,0,
2026-04-28 15:56:00,METAR KLAS 281556Z 06003KT 10SM FEW200 17/M01 A3009 RMK AO2 SLP177 T01671006,0,3.0,0,16090,0,0,0,
2026-04-28 14:56:00,METAR KLAS 281456Z 02005KT 10SM FEW200 15/01 A3007 RMK AO2 SLP172 T01500006 53019,0,5.0,0,16090,0,0,0,
2026-04-28 13:56:00,METAR KLAS 281356Z 23003KT 10SM CLR 13/M01 A3005 RMK AO2 SLP165 T01331011,0,3.0,0,16090,0,0,0,
2026-04-28 12:56:00,METAR KLAS 281256Z 32004KT 10SM CLR 13/01 A3002 RMK AO2 SLP154 T01330006,0,4.0,0,16090,0,0,0,
2026-04-28 11:56:00,METAR KLAS 281156Z 26003KT 10SM CLR 14/M01 A3001 RMK AO2 SLP150 T01391006 10178 20139 53005,0,3.0,0,16090,0,0,0,
2026-04-28 10:56:00,METAR KLAS 281056Z 17003KT 10SM CLR 14/M01 A3000 RMK AO2 SLP146 T01391011,0,3.0,0,16090,0,0,0,
2026-04-28 09:56:00,METAR KLAS 280956Z 19003KT 10SM CLR 14/M01 A3000 RMK AO2 SLP144 T01441011,0,3.0,0,16090,0,0,0,
2026-04-28 08:56:00,METAR KLAS 280856Z 20003KT 10SM CLR 14/M01 A2999 RMK AO2 SLP145 T01441006 51011,0,3.0,0,16090,0,0,0,
2026-04-28 07:56:00,METAR KLAS 280756Z 22004KT 10SM CLR 16/00 A2999 RMK AO2 SLP142 T01560000 402220117,0,4.0,0,16090,0,0,0,
2026-04-28 06:56:00,METAR KLAS 280656Z 34012KT 10SM FEW180 17/01 A2997 RMK AO2 SLP137 T01720006,0,12.0,0,16090,0,0,0,
2026-04-28 05:56:00,METAR KLAS 280556Z 34008KT 10SM FEW150 SCT180 18/00 A2996 RMK AO2 SLP132 T01780000 10222 20178 51021,0,8.0,0,16090,0,0,0,
2026-04-28 04:56:00,METAR KLAS 280456Z 33010KT 10SM FEW100 FEW150 SCT180 18/00 A2994 RMK AO2 SLP128 T01780000,0,10.0,0,16090,0,0,0,
2026-04-28 03:56:00,METAR KLAS 280356Z 33011G18KT 10SM FEW100 FEW150 SCT180 18/00 A2992 RMK AO2 WSHFT 0254 SLP121 T01830000,0,11.0,1,16090,0,0,0,
2026-04-28 03:14:00,SPECI KLAS 280314Z 34010KT 10SM FEW100 FEW150 SCT180 19/00 A2990 RMK AO2 WSHFT 0254 T01890000,0,10.0,0,16090,0,0,0,
2026-04-28 02:56:00,METAR KLAS 280256Z 34013KT 10SM FEW100 FEW150 SCT180 19/M02 A2989 RMK AO2 SLP110 T01941022 53020,0,13.0,0,16090,0,0,0,
2026-04-28 01:56:00,METAR KLAS 280156Z 24015G22KT 10SM FEW100 FEW150 SCT180 21/M04 A2986 RMK AO2 SLP100 T02061039,0,15.0,1,16090,0,0,0,
2026-04-28 00:56:00,METAR KLAS 280056Z 25014G22KT 10SM FEW100 FEW150 21/M03 A2985 RMK AO2 PK WND 24026/0030 WSHFT 0002 SLP095 T02111028,0,14.0,1,16090,0,0,0,
2026-04-28 00:22:00,SPECI KLAS 280022Z 25011G19KT 10SM FEW100 FEW150 22/M02 A2984 RMK AO2 WSHFT 0002 T02171022,0,11.0,1,16090,0,0,0,
2026-04-27 23:56:00,METAR KLAS 272356Z 19011G21KT 10SM FEW100 FEW150 22/M04 A2983 RMK AO2 SLP089 T02171039 10222 20172 56008,0,11.0,1,16090,0,0,0,
2026-04-27 22:56:00,METAR KLAS 272256Z 23012G26KT 10SM FEW100 FEW150 22/M04 A2984 RMK AO2 PK WND 21026/2252 SLP090 T02221039,0,12.0,1,16090,0,0,0,
2026-04-27 21:56:00,METAR KLAS 272156Z 22012G22KT 10SM FEW100 FEW150 22/M04 A2985 RMK AO2 SLP096 T02171039,0,12.0,1,16090,0,0,0,
2026-04-27 20:56:00,METAR KLAS 272056Z 19013G25KT 10SM FEW100 21/M04 A2986 RMK AO2 SLP098 T02111044 58014,0,13.0,1,16090,0,0,0,
2026-04-27 19:56:00,METAR KLAS 271956Z 18011G21KT 10SM FEW100 19/M03 A2987 RMK AO2 PK WND 17027/1923 SLP104 T01941033,0,11.0,1,16090,0,0,0,
2026-04-27 18:56:00,METAR KLAS 271856Z 17008G19KT 140V210 10SM FEW100 FEW250 18/M02 A2990 RMK AO2 SLP111 T01831017,0,8.0,1,16090,0,0,0,
2026-04-27 17:56:00,METAR KLAS 271756Z 18009G18KT 10SM FEW100 FEW250 18/M02 A2990 RMK AO2 SLP113 T01781022 10178 20117 51004,0,9.0,1,16090,0,0,0,
2026-04-27 16:56:00,METAR KLAS 271656Z 18009G17KT 10SM FEW100 FEW250 16/00 A2990 RMK AO2 SLP114 T01610000,0,9.0,1,16090,0,0,0,
2026-04-27 15:56:00,METAR KLAS 271556Z 20012G19KT 10SM FEW065 FEW250 15/01 A2989 RMK AO2 SLP111 T01500006,0,12.0,1,16090,0,0,0,
2026-04-27 14:56:00,METAR KLAS 271456Z 21007KT 10SM FEW065 FEW250 13/01 A2989 RMK AO2 SLP110 T01330011 53018,0,7.0,0,16090,0,0,0,
2026-04-27 13:56:00,METAR KLAS 271356Z 21017KT 10SM FEW065 FEW250 12/01 A2986 RMK AO2 SLP102 T01170006,0,17.0,0,16090,0,0,0,
2026-04-27 12:56:00,METAR KLAS 271256Z 20012G20KT 10SM FEW065 FEW250 12/00 A2985 RMK AO2 SLP098 T01170000,0,12.0,1,16090,0,0,0,
2026-04-27 11:56:00,METAR KLAS 271156Z 18012G22KT 10SM FEW250 12/00 A2983 RMK AO2 SLP091 T01170000 10167 20117 50003,0,12.0,1,16090,0,0,0,
2026-04-27 10:56:00,METAR KLAS 271056Z 21013G22KT 10SM CLR 13/M01 A2984 RMK AO2 SLP093 T01281006,0,13.0,1,16090,0,0,0,
2026-04-27 09:56:00,METAR KLAS 270956Z 21016G24KT 10SM CLR 13/00 A2982 RMK AO2 SLP089 T01280000,0,16.0,1,16090,0,0,0,
2026-04-27 08:56:00,METAR KLAS 270856Z 19011G21KT 10SM CLR 14/00 A2983 RMK AO2 SLP088 T01390000 50004,0,11.0,1,16090,0,0,0,
2026-04-27 07:56:00,METAR KLAS 270756Z 22009KT 10SM CLR 15/01 A2984 RMK AO2 SLP092 T01500011 402000122,0,9.0,0,16090,0,0,0,
2026-04-27 06:56:00,METAR KLAS 270656Z 20010KT 10SM CLR 16/01 A2982 RMK AO2 SLP087 T01560011,0,10.0,0,16090,0,0,0,
2026-04-27 05:56:00,METAR KLAS 270556Z 22010KT 10SM CLR 17/01 A2981 RMK AO2 SLP083 T01670006 10200 20167 51012,0,10.0,0,16090,0,0,0,
2026-04-27 04:56:00,METAR KLAS 270456Z 24009G20KT 10SM CLR 17/M01 A2981 RMK AO2 SLP082 T01721006,0,9.0,1,16090,0,0,0,
2026-04-27 03:56:00,METAR KLAS 270356Z 23011KT 10SM FEW110 18/M02 A2979 RMK AO2 SLP076 T01831017,0,11.0,0,16090,0,0,0,
2026-04-27 02:56:00,METAR KLAS 270256Z 22009KT 10SM FEW110 19/M01 A2978 RMK AO2 SLP070 T01891006 53004,0,9.0,0,16090,0,0,0,
2026-04-27 01:56:00,METAR KLAS 270156Z 23009KT 10SM FEW110 FEW200 19/01 A2976 RMK AO2 SLP067 T01940006,0,9.0,0,16090,0,0,0,
2026-04-27 00:56:00,METAR KLAS 270056Z 22009G16KT 10SM FEW070 FEW110 SCT140 BKN200 20/01 A2976 RMK AO2 SLP066 T02000011,0,9.0,1,16090,0,0,0,
2026-04-26 23:56:00,METAR KLAS 262356Z 21011G15KT 10SM FEW070 FEW110 SCT140 BKN200 20/01 A2976 RMK AO2 SLP066 T02000011 10200 20161 58007,0,11.0,1,16090,0,0,0,
2026-04-26 22:56:00,METAR KLAS 262256Z 26008KT 10SM FEW075 SCT110 BKN140 19/01 A2977 RMK AO2 SLP068 T01890011,0,8.0,0,16090,0,0,0,
2026-04-26 21:56:00,METAR KLAS 262156Z 23009KT 10SM FEW060 BKN085 BKN120 18/01 A2978 RMK AO2 SLP074 T01780011,0,9.0,0,16090,0,0,0,
2026-04-26 20:56:00,METAR KLAS 262056Z 25010KT 10SM FEW060 BKN085 BKN130 18/01 A2978 RMK AO2 SLP074 T01830011 53009,0,10.0,0,16090,0,0,0,
2026-04-26 20:05:00,SPECI KLAS 262005Z 28009G18KT 10SM SCT065 OVC100 19/01 A2977 RMK AO2 T01890011,0,9.0,1,16090,0,0,0,
2026-04-26 19:56:00,METAR KLAS 261956Z 30008G20KT 10SM SCT065 OVC100 18/01 A2977 RMK AO2 PK WND 21028/1901 SLP069 T01830006,0,8.0,1,16090,0,0,0,
2026-04-26 18:56:00,METAR KLAS 261856Z 21013G21KT 10SM SCT060 BKN100 18/01 A2977 RMK AO2 SLP068 T01780011,0,13.0,1,16090,0,0,0,
2026-04-26 17:56:00,METAR KLAS 261756Z 21013G25KT 10SM SCT050 BKN080 17/01 A2976 RMK AO2 SLP064 T01720011 10178 20122 53014,0,13.0,1,16090,0,0,0,
2026-04-26 16:56:00,METAR KLAS 261656Z 23009G19KT 10SM SCT050 BKN080 15/01 A2974 RMK AO2 SLP061 T01500011,0,9.0,1,16090,0,0,0,
2026-04-26 15:56:00,METAR KLAS 261556Z 23017G22KT 10SM FEW050 BKN100 15/02 A2972 RMK AO2 PK WND 20027/1534 SLP051 T01500017,0,17.0,1,16090,0,0,0,
2026-04-26 14:56:00,METAR KLAS 261456Z 23014G21KT 10SM SCT060 BKN150 14/02 A2971 RMK AO2 PK WND 24026/1429 SLP048 T01390017 53015,0,14.0,1,16090,0,0,0,
2026-04-26 13:56:00,METAR KLAS 261356Z 23017G24KT 10SM SCT060 BKN150 13/02 A2969 RMK AO2 PK WND 24032/1324 SLP041 T01280017,0,17.0,1,16090,0,0,0,
2026-04-26 12:56:00,METAR KLAS 261256Z 22014G23KT 10SM FEW060 SCT200 12/02 A2968 RMK AO2 SLP036 ACSL DSNT S T01220017,0,14.0,1,16090,0,0,0,DS
2026-04-26 11:56:00,METAR KLAS 261156Z 22016G28KT 10SM FEW060 FEW150 SCT200 12/02 A2966 RMK AO2 PK WND 22032/1110 SLP030 T01220022 10150 20122 58006,0,16.0,1,16090,0,0,0,
2026-04-26 10:56:00,METAR KLAS 261056Z 21016G24KT 10SM SCT060 SCT150 BKN200 13/02 A2967 RMK AO2 PK WND 20027/1019 SLP033 T01280022,0,16.0,1,16090,0,0,0,
2026-04-26 09:56:00,METAR KLAS 260956Z 21020G31KT 10SM SCT060 SCT150 BKN200 13/03 A2967 RMK AO2 PK WND 20031/0954 SLP034 T01280028,0,20.0,1,16090,0,0,0,
2026-04-26 08:56:00,METAR KLAS 260856Z 22020G30KT 10SM FEW090 SCT150 BKN200 13/02 A2968 RMK AO2 PK WND 22030/0855 SLP036 T01330022 56004,0,20.0,1,16090,0,0,0,
2026-04-26 07:56:00,METAR KLAS 260756Z 21012G20KT 10SM FEW090 SCT150 BKN200 14/04 A2969 RMK AO2 SLP038 T01390039 402500139,0,12.0,1,16090,0,0,0,
2026-04-26 06:56:00,METAR KLAS 260656Z 21017G26KT 10SM FEW080 SCT100 BKN120 14/04 A2968 RMK AO2 PK WND 21027/0642 SLP035 T01440039,0,17.0,1,16090,0,0,0,
2026-04-26 05:56:00,METAR KLAS 260556Z 22018G28KT 10SM SCT065 BKN080 OVC100 15/06 A2969 RMK AO2 PK WND 23030/0546 SLP039 T01500056 10233 20150 51016,0,18.0,1,16090,0,0,0,
2026-04-26 04:56:00,METAR KLAS 260456Z 25011G23KT 10SM BKN110 17/04 A2969 RMK AO2 PK WND 25026/0439 SLP036 T01670039,0,11.0,1,16090,0,0,0,
2026-04-26 03:56:00,METAR KLAS 260356Z 24014G21KT 10SM OVC110 19/02 A2966 RMK AO2 SLP026 T01890017,0,14.0,1,16090,0,0,0,
2026-04-26 02:56:00,METAR KLAS 260256Z 27017G25KT 10SM OVC100 19/01 A2964 RMK AO2 PK WND 23027/0158 SLP022 T01940011 58003,0,17.0,1,16090,0,0,0,
2026-04-26 01:56:00,METAR KLAS 260156Z 24014G26KT 10SM BKN120 OVC200 22/M02 A2965 RMK AO2 PK WND 23027/0146 SLP022 T02171022,0,14.0,1,16090,0,0,0,
2026-04-26 00:56:00,METAR KLAS 260056Z 24014G22KT 210V270 10SM BKN120 OVC200 22/M02 A2965 RMK AO2 PK WND 22029/0017 SLP025 T02221022,0,14.0,1,16090,0,0,0,
2026-04-25 23:56:00,METAR KLAS 252356Z 21015G28KT 10SM BKN120 OVC200 23/M03 A2965 RMK AO2 PK WND 22034/2337 SLP023 T02331028 10250 20222 56014,0,15.0,1,16090,0,0,0,
2026-04-25 22:56:00,METAR KLAS 252256Z 21018G29KT 10SM SCT120 OVC200 24/M01 A2965 RMK AO2 PK WND 22032/2228 SLP023 T02391011,0,18.0,1,16090,0,0,0,
2026-04-25 21:56:00,METAR KLAS 252156Z 20018G29KT 10SM SCT120 BKN200 23/M01 A2967 RMK AO2 PK WND 21029/2155 SLP029 T02281006,0,18.0,1,16090,0,0,0,
2026-04-25 20:56:00,METAR KLAS 252056Z 22017G26KT 10SM BKN100 OVC200 23/01 A2969 RMK AO2 PK WND 24028/2028 SLP036 T02280006 56010,0,17.0,1,16090,0,0,0,
2026-04-25 19:56:00,METAR KLAS 251956Z 20015G25KT 10SM BKN200 24/M02 A2969 RMK AO2 PK WND 19027/1900 SLP036 T02391017,0,15.0,1,16090,0,0,0,
2026-04-25 18:56:00,METAR KLAS 251856Z 18011G25KT 10SM BKN200 24/M01 A2971 RMK AO2 SLP041 T02391011,0,11.0,1,16090,0,0,0,
2026-04-25 17:56:00,METAR KLAS 251756Z 17010G18KT 140V200 10SM BKN200 23/M01 A2972 RMK AO2 SLP045 T02331011 10233 20167 56002,0,10.0,1,16090,0,0,0,
2026-04-25 16:56:00,METAR KLAS 251656Z 29007KT 10SM BKN200 21/M02 A2973 RMK AO2 SLP047 T02111017,0,7.0,0,16090,0,0,0,
2026-04-25 15:56:00,METAR KLAS 251556Z 18008G17KT 140V210 10SM BKN200 21/M01 A2972 RMK AO2 SLP042 T02061006,0,8.0,1,16090,0,0,0,
2026-04-25 14:56:00,METAR KLAS 251456Z 17006KT 10SM SCT200 19/M01 A2973 RMK AO2 SLP048 T01891006 53015,0,6.0,0,16090,0,0,0,
2026-04-25 13:56:00,METAR KLAS 251356Z 18005KT 10SM BKN200 18/M01 A2971 RMK AO2 SLP041 T01781011,0,5.0,0,16090,0,0,0,
2026-04-25 12:56:00,METAR KLAS 251256Z 15004G16KT 10SM BKN200 17/M01 A2970 RMK AO2 SLP038 T01721006,0,4.0,1,16090,0,0,0,
2026-04-25 11:56:00,METAR KLAS 251156Z 21009KT 10SM SCT200 17/00 A2968 RMK AO2 SLP031 T01720000 10228 20172 56006,0,9.0,0,16090,0,0,0,
2026-04-25 10:56:00,METAR KLAS 251056Z 19012G17KT 10SM FEW200 18/M01 A2969 RMK AO2 SLP033 T01831006,0,12.0,1,16090,0,0,0,
2026-04-25 09:56:00,METAR KLAS 250956Z 20011G20KT 10SM CLR 19/M01 A2970 RMK AO2 SLP035 T01891006,0,11.0,1,16090,0,0,0,
2026-04-25 08:56:00,METAR KLAS 250856Z 21010KT 10SM CLR 19/M02 A2970 RMK AO2 SLP038 T01941017 58001,0,10.0,0,16090,0,0,0,
2026-04-25 07:56:00,METAR KLAS 250756Z 22012G16KT 10SM CLR 21/M02 A2972 RMK AO2 SLP043 T02061022 402780150,0,12.0,1,16090,0,0,0,
2026-04-25 06:56:00,METAR KLAS 250656Z 22009KT 10SM CLR 22/M03 A2972 RMK AO2 SLP044 T02171033,0,9.0,0,16090,0,0,0,
2026-04-25 05:56:00,METAR KLAS 250556Z 24012KT 10SM CLR 23/M05 A2970 RMK AO2 SLP039 T02281050 10272 20228 51007,0,12.0,0,16090,0,0,0,
2026-04-25 04:56:00,METAR KLAS 250456Z 19007KT 10SM FEW140 FEW170 SCT200 24/M11 A2970 RMK AO2 SLP038 T02391106,0,7.0,0,16090,0,0,0,
2026-04-25 03:56:00,METAR KLAS 250356Z 18005G14KT 10SM SCT170 SCT200 24/M12 A2970 RMK AO2 SLP037 T02441122,0,5.0,1,16090,0,0,0,
2026-04-25 02:56:00,METAR KLAS 250256Z 22009KT 10SM FEW140 SCT170 SCT200 25/M12 A2968 RMK AO2 SLP032 T02501122 55004,0,9.0,0,16090,0,0,0,
2026-04-25 01:56:00,METAR KLAS 250156Z 21014G21KT 10SM FEW140 SCT170 SCT200 26/M13 A2968 RMK AO2 SLP032 T02611133,0,14.0,1,16090,0,0,0,
2026-04-25 00:56:00,METAR KLAS 250056Z 22012G23KT 10SM FEW140 BKN170 BKN200 27/M13 A2969 RMK AO2 PK WND 25027/0006 SLP034 T02671133,0,12.0,1,16090,0,0,0,
2026-04-24 23:56:00,METAR KLAS 242356Z 22016G26KT 10SM SCT140 BKN170 BKN220 28/M13 A2969 RMK AO2 PK WND 22026/2352 SLP037 T02781128 10278 20233 56021,0,16.0,1,16090,0,0,0,
2026-04-24 22:56:00,METAR KLAS 242256Z 23015G20KT 10SM BKN140 BKN170 BKN220 27/M11 A2970 RMK AO2 SLP040 T02671111,0,15.0,1,16090,0,0,0,
2026-04-24 21:56:00,METAR KLAS 242156Z 23014G23KT 10SM SCT140 SCT200 27/M11 A2974 RMK AO2 SLP050 T02721111,0,14.0,1,16090,0,0,0,
2026-04-24 20:56:00,METAR KLAS 242056Z 21015G28KT 10SM SCT140 SCT200 27/M11 A2976 RMK AO2 PK WND 21028/2052 SLP058 T02721106 56026,0,15.0,1,16090,0,0,0,
2026-04-24 19:56:00,METAR KLAS 241956Z 18008G24KT 120V210 10SM FEW140 SCT200 SCT250 27/M12 A2978 RMK AO2 SLP065 T02671122,0,8.0,1,16090,0,0,0,
2026-04-24 19:20:00,SPECI KLAS 241920Z 20010G16KT 10SM SCT200 BKN250 26/M12 A2979 RMK AO2 T02611122,0,10.0,1,16090,0,0,0,
2026-04-24 18:56:00,METAR KLAS 241856Z 14007G18KT 100V170 10SM SCT200 BKN250 26/M12 A2981 RMK AO2 SLP076 T02561117,0,7.0,1,16090,0,0,0,
2026-04-24 17:56:00,METAR KLAS 241756Z VRB04KT 10SM SCT200 BKN250 24/M11 A2984 RMK AO2 SLP087 T02391111 10239 20150 56008,0,4.0,0,16090,0,0,0,
2026-04-24 16:56:00,METAR KLAS 241656Z 00000KT 10SM SCT200 BKN250 22/M09 A2985 RMK AO2 SLP091 T02171094,0,0.0,0,16090,0,0,0,
2026-04-24 15:56:00,METAR KLAS 241556Z 00000KT 10SM FEW200 SCT250 20/M09 A2985 RMK AO2 SLP091 T02001094,0,0.0,0,16090,0,0,0,
2026-04-24 14:56:00,METAR KLAS 241456Z 18003KT 10SM FEW006 SCT250 18/M10 A2987 RMK AO2 SLP096 FU FEW006 T01831100 53006 $,0,3.0,0,16090,0,0,0,
2026-04-24 14:36:00,SPECI KLAS 241436Z 20003KT 10SM FEW006 SCT250 17/M10 A2987 RMK AO2 FU FEW006 T01721100 $,0,3.0,0,16090,0,0,0,
2026-04-24 13:56:00,METAR KLAS 241356Z 20005KT 10SM SCT250 16/M09 A2986 RMK AO2 SLP097 T01561094 $,0,5.0,0,16090,0,0,0,
2026-04-24 12:56:00,METAR KLAS 241256Z 00000KT 10SM FEW250 15/M10 A2985 RMK AO2 SLP092 T01501100 $,0,0.0,0,16090,0,0,0,
2026-04-24 11:56:00,METAR KLAS 241156Z 00000KT 10SM BKN250 16/M10 A2985 RMK AO2 SLP092 T01561100 10200 20150 56005 $,0,0.0,0,16090,0,0,0,
2026-04-24 10:56:00,METAR KLAS 241056Z 00000KT 10SM BKN250 16/M10 A2985 RMK AO2 SLP092 T01561100 $,0,0.0,0,16090,0,0,0,
2026-04-24 09:56:00,METAR KLAS 240956Z 20003KT 10SM BKN250 17/M10 A2985 RMK AO2 SLP092 T01671100 $,0,3.0,0,16090,0,0,0,
2026-04-24 08:56:00,METAR KLAS 240856Z 20007KT 10SM BKN250 17/M11 A2986 RMK AO2 SLP097 T01721106 58006,0,7.0,0,16090,0,0,0,
2026-04-24 07:56:00,METAR KLAS 240756Z 21005KT 10SM BKN250 18/M11 A2988 RMK AO2 SLP102 T01831106 402500156,0,5.0,0,16090,0,0,0,
2026-04-24 06:56:00,METAR KLAS 240656Z 21006KT 10SM BKN250 19/M10 A2988 RMK AO2 SLP102 T01891100,0,6.0,0,16090,0,0,0,
2026-04-24 05:56:00,METAR KLAS 240556Z 19003KT 10SM BKN250 20/M09 A2988 RMK AO2 SLP102 T02001094 10244 20200 51008,0,3.0,0,16090,0,0,0,
2026-04-24 04:56:00,METAR KLAS 240456Z 25006KT 10SM BKN250 22/M09 A2988 RMK AO2 SLP101 T02171089,0,6.0,0,16090,0,0,0,
2026-04-24 03:56:00,METAR KLAS 240356Z 25007KT 10SM BKN250 22/M09 A2987 RMK AO2 SLP098 T02221089,0,7.0,0,16090,0,0,0,
2026-04-24 02:56:00,METAR KLAS 240256Z 17004KT 10SM BKN250 23/M08 A2986 RMK AO2 SLP093 T02331078 55005,0,4.0,0,16090,0,0,0,
2026-04-24 01:56:00,METAR KLAS 240156Z 00000KT 10SM SCT250 24/M07 A2985 RMK AO2 SLP092 T02391072,0,0.0,0,16090,0,0,0,
2026-04-24 00:56:00,METAR KLAS 240056Z 00000KT 10SM SCT250 24/M07 A2986 RMK AO2 SLP094 T02391072,0,0.0,0,16090,0,0,0,
2026-04-23 23:56:00,METAR KLAS 232356Z 09005KT 10SM FEW250 24/M07 A2988 RMK AO2 SLP100 T02441072 10250 20200 56021,0,5.0,0,16090,0,0,0,
2026-04-23 22:56:00,METAR KLAS 232256Z 22004KT 10SM FEW250 24/M08 A2989 RMK AO2 SLP103 T02441078,0,4.0,0,16090,0,0,0,
2026-04-23 21:56:00,METAR KLAS 232156Z 00000KT 10SM FEW250 24/M09 A2992 RMK AO2 SLP114 T02391089,0,0.0,0,16090,0,0,0,
2026-04-23 20:56:00,METAR KLAS 232056Z VRB04KT 10SM FEW250 23/M09 A2994 RMK AO2 SLP123 T02281089 58020,0,4.0,0,16090,0,0,0,
2026-04-23 19:56:00,METAR KLAS 231956Z 24003KT 10SM FEW250 22/M09 A2997 RMK AO2 SLP131 T02171094,0,3.0,0,16090,0,0,0,
2026-04-23 18:56:00,METAR KLAS 231856Z 05009KT 10SM FEW250 22/M08 A2999 RMK AO2 SLP139 T02221078,0,9.0,0,16090,0,0,0,
2026-04-23 17:56:00,METAR KLAS 231756Z 35012G22KT 10SM FEW250 21/M08 A3000 RMK AO2 SLP144 T02111083 10211 20156 58003,0,12.0,1,16090,0,0,0,
2026-04-23 16:56:00,METAR KLAS 231656Z 05009KT 10SM FEW250 20/M07 A3002 RMK AO2 SLP150 T02001072,0,9.0,0,16090,0,0,0,
2026-04-23 15:56:00,METAR KLAS 231556Z 02018G24KT 10SM FEW250 19/M07 A3002 RMK AO2 SLP150 T01891067,0,18.0,1,16090,0,0,0,
2026-04-23 14:56:00,METAR KLAS 231456Z 02009KT 10SM FEW250 18/M05 A3001 RMK AO2 SLP148 T01831050 53017,0,9.0,0,16090,0,0,0,
2026-04-23 13:56:00,METAR KLAS 231356Z 30005KT 10SM FEW250 16/M05 A2999 RMK AO2 SLP143 T01611050,0,5.0,0,16090,0,0,0,
2026-04-23 12:56:00,METAR KLAS 231256Z 05009KT 10SM FEW250 17/M06 A2997 RMK AO2 SLP133 T01671061,0,9.0,0,16090,0,0,0,
2026-04-23 11:56:00,METAR KLAS 231156Z 03007KT 10SM CLR 16/M06 A2996 RMK AO2 SLP129 T01611056 10194 20161 51009,0,7.0,0,16090,0,0,0,
2026-04-23 10:56:00,METAR KLAS 231056Z 05006KT 10SM CLR 17/M06 A2995 RMK AO2 SLP126 T01721056,0,6.0,0,16090,0,0,0,
2026-04-23 09:56:00,METAR KLAS 230956Z 35011KT 10SM CLR 18/M06 A2994 RMK AO2 PK WND 35027/0910 SLP120 T01781056,0,11.0,0,16090,0,0,0,
2026-04-23 08:56:00,METAR KLAS 230856Z 33012G22KT 10SM CLR 18/M06 A2993 RMK AO2 PK WND 31027/0803 SLP117 T01781061 52013,0,12.0,1,16090,0,0,0,
2026-04-23 07:56:00,METAR KLAS 230756Z 31012G20KT 10SM CLR 19/M07 A2992 RMK AO2 SLP115 T01891072 402500133,0,12.0,1,16090,0,0,0,
2026-04-23 06:56:00,METAR KLAS 230656Z 23006KT 10SM CLR 18/M06 A2990 RMK AO2 SLP109 T01831056,0,6.0,0,16090,0,0,0,
2026-04-23 05:56:00,METAR KLAS 230556Z 23007KT 10SM CLR 19/M07 A2989 RMK AO2 SLP106 T01941067 10244 20194 50012,0,7.0,0,16090,0,0,0,
2026-04-23 04:56:00,METAR KLAS 230456Z 24007KT 10SM CLR 21/M07 A2989 RMK AO2 SLP108 T02061072,0,7.0,0,16090,0,0,0,
2026-04-23 03:56:00,METAR KLAS 230356Z 27009KT 10SM CLR 21/M07 A2988 RMK AO2 SLP102 T02111072,0,9.0,0,16090,0,0,0,
2026-04-23 02:56:00,METAR KLAS 230256Z 25012KT 10SM FEW120 22/M07 A2985 RMK AO2 SLP094 T02171072 55008,0,12.0,0,16090,0,0,0,
2026-04-23 01:56:00,METAR KLAS 230156Z 26013KT 10SM FEW120 23/M07 A2985 RMK AO2 SLP093 T02281072,0,13.0,0,16090,0,0,0,
2026-04-23 00:56:00,METAR KLAS 230056Z 26011KT 10SM FEW120 FEW200 24/M07 A2986 RMK AO2 SLP097 T02391067,0,11.0,0,16090,0,0,0,
2026-04-22 23:56:00,METAR KLAS 222356Z 22012G20KT 10SM FEW120 FEW200 24/M07 A2988 RMK AO2 SLP102 T02391072 10250 20189 56019,0,12.0,1,16090,0,0,0,
2026-04-22 22:56:00,METAR KLAS 222256Z 28011G21KT 10SM FEW120 FEW200 SCT250 24/M07 A2989 RMK AO2 SLP106 T02441072,0,11.0,1,16090,0,0,0,
2026-04-22 21:56:00,METAR KLAS 222156Z 00000KT 10SM FEW120 FEW200 SCT250 24/M07 A2991 RMK AO2 SLP114 T02391072,0,0.0,0,16090,0,0,0,
2026-04-22 20:56:00,METAR KLAS 222056Z VRB05KT 10SM FEW120 FEW200 SCT250 24/M08 A2994 RMK AO2 SLP123 T02391078 58025,0,5.0,0,16090,0,0,0,
2026-04-22 19:56:00,METAR KLAS 221956Z 35006KT 10SM FEW120 FEW200 BKN250 22/M04 A2996 RMK AO2 SLP132 T02171044,0,6.0,0,16090,0,0,0,
2026-04-22 18:56:00,METAR KLAS 221856Z 00000KT 10SM FEW120 BKN250 20/M04 A2999 RMK AO2 SLP143 T02001039,0,0.0,0,16090,0,0,0,
2026-04-22 17:56:00,METAR KLAS 221756Z 18007KT 10SM FEW200 BKN250 19/M02 A3002 RMK AO2 SLP150 T01941022 10194 20133 50003,0,7.0,0,16090,0,0,0,
2026-04-22 16:56:00,METAR KLAS 221656Z 17009G15KT 10SM FEW200 BKN250 18/M01 A3002 RMK AO2 SLP151 T01831011,0,9.0,1,16090,0,0,0,
2026-04-22 15:56:00,METAR KLAS 221556Z 21012G19KT 10SM SCT250 17/M01 A3001 RMK AO2 SLP149 T01721006,0,12.0,1,16090,0,0,0,
2026-04-22 14:56:00,METAR KLAS 221456Z 21014G22KT 10SM FEW250 15/01 A3001 RMK AO2 SLP147 T01500006 51008,0,14.0,1,16090,0,0,0,
2026-04-22 13:56:00,METAR KLAS 221356Z 20011KT 10SM FEW250 14/01 A3001 RMK AO2 SLP147 T01390006,0,11.0,0,16090,0,0,0,
2026-04-22 12:56:00,METAR KLAS 221256Z 21013KT 10SM CLR 13/01 A2998 RMK AO2 SLP135 T01330011,0,13.0,0,16090,0,0,0,
2026-04-22 11:56:00,METAR KLAS 221156Z 19011G23KT 10SM CLR 14/02 A2998 RMK AO2 PK WND 22029/1118 SLP135 T01390017 10183 20139 53012,0,11.0,1,16090,0,0,0,
2026-04-22 10:56:00,METAR KLAS 221056Z 22018G24KT 10SM CLR 14/02 A2995 RMK AO2 SLP123 T01440017,0,18.0,1,16090,0,0,0,
2026-04-22 09:56:00,METAR KLAS 220956Z 22012G27KT 10SM CLR 15/02 A2995 RMK AO2 PK WND 21027/0900 SLP122 T01500017,0,12.0,1,16090,0,0,0,
2026-04-22 08:56:00,METAR KLAS 220856Z 22015G26KT 10SM CLR 15/02 A2994 RMK AO2 PK WND 21026/0853 SLP120 T01500022 50010,0,15.0,1,16090,0,0,0,
2026-04-22 07:56:00,METAR KLAS 220756Z 21015G24KT 10SM CLR 16/01 A2996 RMK AO2 PK WND 21032/0714 SLP125 T01610011 403060161,0,15.0,1,16090,0,0,0,
2026-04-22 06:56:00,METAR KLAS 220656Z 22018G26KT 10SM CLR 17/01 A2993 RMK AO2 PK WND 21029/0615 SLP116 T01720006,0,18.0,1,16090,0,0,0,
2026-04-22 05:56:00,METAR KLAS 220556Z 21016G26KT 10SM FEW120 18/00 A2991 RMK AO2 PK WND 22026/0546 SLP109 T01830000 10294 20183 51030,0,16.0,1,16090,0,0,0,
2026-04-22 04:56:00,METAR KLAS 220456Z 23015G30KT 10SM FEW120 19/02 A2989 RMK AO2 PK WND 20030/0432 SLP103 T01940022,0,15.0,1,16090,0,0,0,
2026-04-22 03:56:00,METAR KLAS 220356Z 24016KT 10SM FEW120 21/03 A2986 RMK AO2 PK WND 24029/0306 SLP092 T02060033,0,16.0,0,16090,0,0,0,
2026-04-22 02:56:00,METAR KLAS 220256Z 25014KT 10SM FEW120 23/04 A2982 RMK AO2 PK WND 24034/0217 SLP078 T02280039 53017,0,14.0,0,16090,0,0,0,
2026-04-22 01:56:00,METAR KLAS 220156Z 24021G35KT 10SM FEW120 24/04 A2977 RMK AO2 PK WND 24038/0134 SLP063 T02440044,0,21.0,1,16090,0,0,0,
2026-04-22 00:56:00,METAR KLAS 220056Z 23023G33KT 10SM FEW120 28/M06 A2975 RMK AO2 PK WND 21036/0042 SLP052 T02831056,0,23.0,1,16090,0,0,0,
2026-04-21 23:56:00,METAR KLAS 212356Z 20018G34KT 10SM FEW120 SCT200 29/M08 A2976 RMK AO2 PK WND 19037/2337 SLP056 T02941078 10306 20261 56018,0,18.0,1,16090,0,0,0,
2026-04-21 22:56:00,METAR KLAS 212256Z 21018G30KT 10SM FEW120 SCT200 30/M08 A2978 RMK AO2 PK WND 21037/2226 SLP060 T03001083,0,18.0,1,16090,0,0,0,
2026-04-21 21:56:00,METAR KLAS 212156Z 20015G33KT 10SM FEW120 FEW200 30/M11 A2979 RMK AO2 PK WND 20036/2117 SLP065 T03001106,0,15.0,1,16090,0,0,0,
2026-04-21 20:56:00,METAR KLAS 212056Z 20015G35KT 10SM FEW200 30/M10 A2982 RMK AO2 PK WND 20035/2003 SLP074 T03001100 56027,0,15.0,1,16090,0,0,0,
2026-04-21 19:56:00,METAR KLAS 211956Z 21020G32KT 10SM FEW200 30/M12 A2984 RMK AO2 PK WND 21035/1944 SLP080 T03001122,0,20.0,1,16090,0,0,0,
2026-04-21 18:56:00,METAR KLAS 211856Z 20007G16KT 10SM CLR 28/M03 A2988 RMK AO2 SLP094 T02831033,0,7.0,1,16090,0,0,0,
2026-04-21 18:16:00,SPECI KLAS 211816Z VRB06KT 10SM CLR 27/M03 A2990 RMK AO2 T02721028,0,6.0,0,16090,0,0,0,
2026-04-21 17:56:00,METAR KLAS 211756Z VRB06G15KT 10SM CLR 27/M02 A2990 RMK AO2 SLP104 T02671022 10267 20194 58003,0,6.0,1,16090,0,0,0,
2026-04-21 16:56:00,METAR KLAS 211656Z 16006G18KT 10SM CLR 26/M02 A2991 RMK AO2 SLP108 T02561022,0,6.0,1,16090,0,0,0,
2026-04-21 15:56:00,METAR KLAS 211556Z 14005KT 10SM FEW220 24/M02 A2991 RMK AO2 SLP108 T02391022,0,5.0,0,16090,0,0,0,
2026-04-21 14:56:00,METAR KLAS 211456Z 14006KT 10SM FEW220 22/M03 A2991 RMK AO2 SLP107 T02171028 51008,0,6.0,0,16090,0,0,0,
2026-04-21 13:56:00,METAR KLAS 211356Z 18006KT 10SM FEW160 SCT220 19/M03 A2991 RMK AO2 SLP106 ACSL DSNT NW T01941033,0,6.0,0,16090,0,0,0,DS
2026-04-21 12:56:00,METAR KLAS 211256Z 18006KT 10SM FEW200 BKN250 21/M02 A2989 RMK AO2 SLP101 T02061022,0,6.0,0,16090,0,0,0,
2026-04-21 11:56:00,METAR KLAS 211156Z 17006KT 10SM BKN220 22/M02 A2989 RMK AO2 SLP097 T02171017 10256 20211 56001,0,6.0,0,16090,0,0,0,
2026-04-21 10:56:00,METAR KLAS 211056Z 18006KT 10SM OVC250 22/M01 A2989 RMK AO2 SLP096 T02221011,0,6.0,0,16090,0,0,0,
2026-04-21 09:56:00,METAR KLAS 210956Z 20009KT 10SM OVC250 23/M02 A2987 RMK AO2 SLP092 T02281017,0,9.0,0,16090,0,0,0,
2026-04-21 08:56:00,METAR KLAS 210856Z 21007KT 10SM BKN250 23/M02 A2989 RMK AO2 SLP097 T02281022 50002,0,7.0,0,16090,0,0,0,
2026-04-21 07:56:00,METAR KLAS 210756Z 20006KT 10SM BKN250 24/M03 A2990 RMK AO2 SLP099 T02391033 403220172,0,6.0,0,16090,0,0,0,
2026-04-21 06:56:00,METAR KLAS 210656Z 18006KT 10SM BKN250 25/M04 A2989 RMK AO2 SLP096 T02501044,0,6.0,0,16090,0,0,0,
2026-04-21 05:56:00,METAR KLAS 210556Z 19006KT 10SM BKN250 26/M06 A2988 RMK AO2 SLP096 T02561056 10317 20250 50011,0,6.0,0,16090,0,0,0,
2026-04-21 04:56:00,METAR KLAS 210456Z 20005KT 10SM BKN250 26/M06 A2988 RMK AO2 SLP097 T02561061,0,5.0,0,16090,0,0,0,
2026-04-21 03:56:00,METAR KLAS 210356Z 17005KT 10SM BKN250 27/M06 A2987 RMK AO2 SLP093 T02671061,0,5.0,0,16090,0,0,0,
2026-04-21 02:56:00,METAR KLAS 210256Z 20009KT 10SM SCT250 28/M06 A2985 RMK AO2 SLP085 T02831061 53002,0,9.0,0,16090,0,0,0,
2026-04-21 01:56:00,METAR KLAS 210156Z 19011G19KT 10SM SCT250 29/M08 A2983 RMK AO2 SLP082 T02941078,0,11.0,1,16090,0,0,0,
2026-04-21 00:56:00,METAR KLAS 210056Z 19011G18KT 10SM SCT250 31/M08 A2984 RMK AO2 PK WND 16027/0025 SLP083 T03061078,0,11.0,1,16090,0,0,0,
2026-04-20 23:56:00,METAR KLAS 202356Z 20014G23KT 10SM FEW250 32/M06 A2984 RMK AO2 PK WND 21029/2330 SLP083 T03171061 10322 20267 56015,0,14.0,1,16090,0,0,0,
2026-04-20 22:56:00,METAR KLAS 202256Z 21014G26KT 10SM FEW150 FEW250 32/M05 A2985 RMK AO2 PK WND 16027/2205 SLP086 T03171050,0,14.0,1,16090,0,0,0,
2026-04-20 21:56:00,METAR KLAS 202156Z 20012G18KT 10SM FEW150 SCT250 32/M04 A2987 RMK AO2 PK WND 17028/2140 SLP092 T03171044,0,12.0,1,16090,0,0,0,
2026-04-20 20:56:00,METAR KLAS 202056Z 17008G20KT 140V200 10SM FEW150 BKN250 31/M04 A2989 RMK AO2 PK WND 17026/2045 SLP098 T03111044 58025,0,8.0,1,16090,0,0,0,
2026-04-20 19:56:00,METAR KLAS 201956Z 02005KT 10SM FEW150 BKN250 31/M04 A2991 RMK AO2 SLP108 T03061044,0,5.0,0,16090,0,0,0,
2026-04-20 18:56:00,METAR KLAS 201856Z VRB04KT 10SM FEW150 BKN250 29/M04 A2994 RMK AO2 SLP119 T02891044,0,4.0,0,16090,0,0,0,
2026-04-20 17:56:00,METAR KLAS 201756Z 06005KT 10SM FEW150 BKN250 27/M06 A2996 RMK AO2 SLP126 T02671056 10267 20172 51007,0,5.0,0,16090,0,0,0,
2026-04-20 16:56:00,METAR KLAS 201656Z 04005KT 10SM FEW150 BKN250 24/M05 A2996 RMK AO2 SLP126 T02441050,0,5.0,0,16090,0,0,0,
2026-04-20 15:56:00,METAR KLAS 201556Z 00000KT 10SM FEW150 BKN250 23/M05 A2995 RMK AO2 SLP123 T02281050,0,0.0,0,16090,0,0,0,
2026-04-20 14:56:00,METAR KLAS 201456Z 35003KT 10SM FEW150 BKN250 21/M04 A2994 RMK AO2 SLP119 T02111039 53013,0,3.0,0,16090,0,0,0,
2026-04-20 13:56:00,METAR KLAS 201356Z 21003KT 10SM FEW150 SCT250 18/M04 A2992 RMK AO2 SLP113 T01781044,0,3.0,0,16090,0,0,0,
2026-04-20 12:56:00,METAR KLAS 201256Z 00000KT 10SM FEW150 FEW250 18/M05 A2991 RMK AO2 SLP108 T01781050,0,0.0,0,16090,0,0,0,
2026-04-20 11:56:00,METAR KLAS 201156Z 00000KT 10SM FEW250 18/M06 A2990 RMK AO2 SLP106 T01781061 10228 20172 53002,0,0.0,0,16090,0,0,0,
2026-04-20 10:56:00,METAR KLAS 201056Z 29004KT 10SM SCT250 19/M07 A2990 RMK AO2 SLP103 T01891072,0,4.0,0,16090,0,0,0,
2026-04-20 09:56:00,METAR KLAS 200956Z 24004KT 10SM SCT250 19/M07 A2990 RMK AO2 SLP105 T01941072,0,4.0,0,16090,0,0,0,
2026-04-20 08:56:00,METAR KLAS 200856Z 23004KT 10SM SCT250 19/M09 A2989 RMK AO2 SLP104 T01941089 50004,0,4.0,0,16090,0,0,0,
2026-04-20 07:56:00,METAR KLAS 200756Z 24005KT 10SM SCT150 SCT250 21/M09 A2990 RMK AO2 SLP105 T02061089 402890133,0,5.0,0,16090,0,0,0,
2026-04-20 06:56:00,METAR KLAS 200656Z 19005KT 10SM FEW150 SCT250 21/M09 A2989 RMK AO2 SLP104 T02111094,0,5.0,0,16090,0,0,0,
2026-04-20 05:56:00,METAR KLAS 200556Z 00000KT 10SM FEW150 SCT250 23/M09 A2988 RMK AO2 SLP099 T02281094 10289 20222 50011,0,0.0,0,16090,0,0,0,
2026-04-20 04:56:00,METAR KLAS 200456Z 25006KT 10SM FEW150 SCT250 24/M09 A2989 RMK AO2 SLP101 T02441094,0,6.0,0,16090,0,0,0,
2026-04-20 03:56:00,METAR KLAS 200356Z 24005KT 10SM FEW150 SCT250 26/M10 A2987 RMK AO2 SLP095 T02611100,0,5.0,0,16090,0,0,0,
2026-04-20 02:56:00,METAR KLAS 200256Z 06007KT 10SM FEW200 BKN250 27/M11 A2985 RMK AO2 SLP087 T02721106 55001,0,7.0,0,16090,0,0,0,
2026-04-20 01:56:00,METAR KLAS 200156Z 09003KT 10SM FEW130 FEW200 BKN250 28/M11 A2983 RMK AO2 SLP084 T02831106,0,3.0,0,16090,0,0,0,
2026-04-20 00:56:00,METAR KLAS 200056Z 07009KT 10SM FEW130 FEW200 BKN250 29/M11 A2984 RMK AO2 SLP087 T02891111,0,9.0,0,16090,0,0,0,
2026-04-19 23:56:00,METAR KLAS 192356Z 05008KT 10SM FEW130 SCT200 BKN250 28/M12 A2985 RMK AO2 SLP090 T02831117 10289 20228 56027,0,8.0,0,16090,0,0,0,
2026-04-19 22:56:00,METAR KLAS 192256Z 06008KT 10SM FEW130 BKN200 BKN250 29/M12 A2987 RMK AO2 SLP096 T02891122,0,8.0,0,16090,0,0,0,
2026-04-19 21:56:00,METAR KLAS 192156Z 03003KT 10SM FEW130 BKN200 BKN250 27/M13 A2990 RMK AO2 SLP108 T02721128,0,3.0,0,16090,0,0,0,
2026-04-19 20:56:00,METAR KLAS 192056Z 08005KT 10SM FEW130 BKN200 BKN250 26/M14 A2993 RMK AO2 SLP120 T02611144 58015,0,5.0,0,16090,0,0,0,
2026-04-19 19:56:00,METAR KLAS 191956Z 02004KT 10SM FEW130 BKN200 BKN250 25/M16 A2995 RMK AO2 SLP126 T02501156,0,4.0,0,16090,0,0,0,
2026-04-19 18:56:00,METAR KLAS 191856Z 00000KT 10SM SCT200 BKN250 23/M16 A2997 RMK AO2 SLP135 T02331161,0,0.0,0,16090,0,0,0,
2026-04-19 17:56:00,METAR KLAS 191756Z VRB03KT 10SM FEW200 BKN250 22/M16 A2998 RMK AO2 SLP137 T02221156 10228 20133 50001,0,3.0,0,16090,0,0,0,
2026-04-19 16:56:00,METAR KLAS 191656Z 05004KT 10SM FEW200 BKN250 22/M16 A2999 RMK AO2 SLP138 T02171161,0,4.0,0,16090,0,0,0,
2026-04-19 15:56:00,METAR KLAS 191556Z 00000KT 10SM FEW200 BKN250 19/M16 A2998 RMK AO2 SLP137 T01941161,0,0.0,0,16090,0,0,0,
2026-04-19 14:56:00,METAR KLAS 191456Z 03003KT 10SM FEW200 BKN250 18/M16 A2998 RMK AO2 SLP136 T01831161 53007,0,3.0,0,16090,0,0,0,
2026-04-19 13:56:00,METAR KLAS 191356Z 23003KT 10SM FEW150 FEW200 BKN250 15/M11 A2997 RMK AO2 SLP134 T01501111,0,3.0,0,16090,0,0,0,
2026-04-19 12:56:00,METAR KLAS 191256Z 22003KT 10SM FEW150 SCT200 14/M13 A2996 RMK AO2 SLP130 T01391128,0,3.0,0,16090,0,0,0,
2026-04-19 11:56:00,METAR KLAS 191156Z 23003KT 10SM FEW250 14/M12 A2996 RMK AO2 SLP130 T01391122 10183 20133 58005,0,3.0,0,16090,0,0,0,
2026-04-19 10:56:00,METAR KLAS 191056Z 22004KT 10SM FEW250 13/M13 A2996 RMK AO2 SLP132 T01331133,0,4.0,0,16090,0,0,0,
2026-04-19 09:56:00,METAR KLAS 190956Z 22004KT 10SM FEW250 14/M14 A2998 RMK AO2 SLP136 T01441139,0,4.0,0,16090,0,0,0,
2026-04-19 08:56:00,METAR KLAS 190856Z 21003KT 10SM CLR 15/M14 A2998 RMK AO2 SLP136 T01501139 58001,0,3.0,0,16090,0,0,0,
2026-04-19 07:56:00,METAR KLAS 190756Z 20005KT 10SM CLR 16/M14 A2998 RMK AO2 SLP139 T01611139 402500094,0,5.0,0,16090,0,0,0,
2026-04-19 06:56:00,METAR KLAS 190656Z 20004KT 10SM CLR 17/M14 A2998 RMK AO2 SLP139 T01671139,0,4.0,0,16090,0,0,0,
2026-04-19 05:56:00,METAR KLAS 190556Z 00000KT 10SM FEW250 18/M13 A2998 RMK AO2 SLP138 T01831128 10244 20183 50005,0,0.0,0,16090,0,0,0,
2026-04-19 04:56:00,METAR KLAS 190456Z 23005KT 10SM FEW250 19/M14 A2998 RMK AO2 SLP139 T01891139,0,5.0,0,16090,0,0,0,
2026-04-19 03:56:00,METAR KLAS 190356Z 27003KT 10SM FEW250 21/M16 A2998 RMK AO2 SLP137 T02111161,0,3.0,0,16090,0,0,0,
2026-04-19 02:56:00,METAR KLAS 190256Z 29005KT 10SM SCT250 22/M16 A2996 RMK AO2 SLP134 T02221156 56006,0,5.0,0,16090,0,0,0,
2026-04-19 01:56:00,METAR KLAS 190156Z 28004KT 10SM FEW120 BKN250 24/M17 A2996 RMK AO2 SLP135 T02391167,0,4.0,0,16090,0,0,0,
2026-04-19 00:56:00,METAR KLAS 190056Z 00000KT 10SM FEW120 BKN250 24/M17 A2997 RMK AO2 SLP138 T02441172,0,0.0,0,16090,0,0,0,
2026-04-18 23:56:00,METAR KLAS 182356Z 00000KT 10SM FEW120 BKN250 24/M17 A2998 RMK AO2 SLP141 T02441172 10250 20200 56025,0,0.0,0,16090,0,0,0,
2026-04-18 22:56:00,METAR KLAS 182256Z VRB03KT 10SM FEW120 BKN250 24/M18 A3000 RMK AO2 SLP147 T02441178,0,3.0,0,16090,0,0,0,
2026-04-18 21:56:00,METAR KLAS 182156Z 01007KT 10SM SCT120 BKN250 24/M18 A3003 RMK AO2 SLP155 T02441178,0,7.0,0,16090,0,0,0,
2026-04-18 21:01:00,SPECI KLAS 182101Z VRB03KT 10SM SCT120 BKN250 23/M18 A3006 RMK AO2 T02281178,0,3.0,0,16090,0,0,0,
2026-04-18 20:56:00,METAR KLAS 182056Z VRB03G15KT 10SM SCT120 BKN250 22/M18 A3006 RMK AO2 SLP169 T02221178 58024,0,3.0,1,16090,0,0,0,
2026-04-18 19:56:00,METAR KLAS 181956Z 02007KT 10SM SCT120 BKN250 22/M18 A3010 RMK AO2 SLP180 T02171183,0,7.0,0,16090,0,0,0,
2026-04-18 18:56:00,METAR KLAS 181856Z 04009G18KT 10SM SCT250 21/M18 A3012 RMK AO2 SLP190 T02061183,0,9.0,1,16090,0,0,0,
2026-04-18 17:56:00,METAR KLAS 181756Z 07010G21KT 10SM SCT250 20/M18 A3014 RMK AO2 SLP194 T02001183 10206 20094 51002,0,10.0,1,16090,0,0,0,
2026-04-18 16:56:00,METAR KLAS 181656Z 05009KT 10SM SCT250 18/M18 A3014 RMK AO2 SLP194 T01831183,0,9.0,0,16090,0,0,0,
2026-04-18 15:56:00,METAR KLAS 181556Z 04006KT 10SM BKN250 16/M18 A3014 RMK AO2 SLP196 T01611178,0,6.0,0,16090,0,0,0,
2026-04-18 14:56:00,METAR KLAS 181456Z 00000KT 10SM FEW250 13/M15 A3013 RMK AO2 SLP194 T01331150 53016,0,0.0,0,16090,0,0,0,
2026-04-18 13:56:00,METAR KLAS 181356Z 20006KT 10SM SCT250 10/M16 A3012 RMK AO2 SLP190 T01001161,0,6.0,0,16090,0,0,0,
2026-04-18 12:56:00,METAR KLAS 181256Z 20006KT 10SM FEW250 09/M16 A3009 RMK AO2 SLP182 T00941161,0,6.0,0,16090,0,0,0,
2026-04-18 11:56:00,METAR KLAS 181156Z 00000KT 10SM FEW250 11/M15 A3008 RMK AO2 SLP178 T01061150 10161 20106 50000,0,0.0,0,16090,0,0,0,
2026-04-18 10:56:00,METAR KLAS 181056Z 00000KT 10SM CLR 11/M16 A3009 RMK AO2 SLP180 T01111161,0,0.0,0,16090,0,0,0,
2026-04-18 09:56:00,METAR KLAS 180956Z 18003KT 10SM CLR 12/M15 A3008 RMK AO2 SLP177 T01171150,0,3.0,0,16090,0,0,0,
2026-04-18 08:56:00,METAR KLAS 180856Z 20004KT 10SM FEW250 12/M16 A3008 RMK AO2 SLP178 T01221156 50000,0,4.0,0,16090,0,0,0,
2026-04-18 07:56:00,METAR KLAS 180756Z 18003KT 10SM CLR 13/M16 A3009 RMK AO2 SLP180 T01281161 402060100,0,3.0,0,16090,0,0,0,
2026-04-18 06:56:00,METAR KLAS 180656Z 27004KT 10SM CLR 14/M16 A3008 RMK AO2 SLP178 T01391156,0,4.0,0,16090,0,0,0,
2026-04-18 05:56:00,METAR KLAS 180556Z 24003KT 10SM CLR 16/M17 A3008 RMK AO2 SLP178 T01561167 10200 20156 51012,0,3.0,0,16090,0,0,0,
2026-04-18 04:56:00,METAR KLAS 180456Z 01006KT 10SM CLR 17/M18 A3008 RMK AO2 SLP176 T01721183,0,6.0,0,16090,0,0,0,
2026-04-18 03:56:00,METAR KLAS 180356Z 04006KT 10SM CLR 18/M18 A3006 RMK AO2 SLP171 T01781183,0,6.0,0,16090,0,0,0,
2026-04-18 02:56:00,METAR KLAS 180256Z 04009KT 10SM CLR 18/M19 A3005 RMK AO2 SLP166 T01831194 55002,0,9.0,0,16090,0,0,0,
2026-04-18 01:56:00,METAR KLAS 180156Z 05010KT 10SM FEW250 19/M21 A3004 RMK AO2 SLP164 T01941206,0,10.0,0,16090,0,0,0,
2026-04-18 00:56:00,METAR KLAS 180056Z 04011G17KT 10SM FEW250 20/M21 A3004 RMK AO2 SLP164 T02001211,0,11.0,1,16090,0,0,0,
2026-04-17 23:56:00,METAR KLAS 172356Z 03009G20KT 10SM CLR 20/M22 A3005 RMK AO2 SLP167 T02001217 10206 20150 56025,0,9.0,1,16090,0,0,0,
2026-04-17 22:56:00,METAR KLAS 172256Z 05015G21KT 10SM CLR 20/M21 A3007 RMK AO2 SLP172 T02001211,0,15.0,1,16090,0,0,0,
2026-04-17 21:56:00,METAR KLAS 172156Z 03015G23KT 10SM CLR 19/M21 A3010 RMK AO2 SLP183 T01891211,0,15.0,1,16090,0,0,0,
2026-04-17 20:56:00,METAR KLAS 172056Z 03015G24KT 10SM CLR 18/M22 A3013 RMK AO2 PK WND 03028/2019 SLP193 T01781217 58021,0,15.0,1,16090,0,0,0,
2026-04-17 19:56:00,METAR KLAS 171956Z 03017G27KT 10SM CLR 17/M23 A3015 RMK AO2 PK WND 02029/1921 SLP199 T01721228 $,0,17.0,1,16090,0,0,0,
2026-04-17 18:56:00,METAR KLAS 171856Z 03018G29KT 10SM CLR 16/M23 A3018 RMK AO2 PK WND 05030/1757 SLP208 T01611233,0,18.0,1,16090,0,0,0,
2026-04-17 17:56:00,METAR KLAS 171756Z 06018G26KT 10SM CLR 15/M21 A3020 RMK AO2 PK WND 05026/1749 SLP213 T01501211 10150 20100 50006,0,18.0,1,16090,0,0,0,
2026-04-17 16:56:00,METAR KLAS 171656Z 35015G23KT 10SM CLR 13/M22 A3020 RMK AO2 SLP215 T01331217,0,15.0,1,16090,0,0,0,
2026-04-17 15:56:00,METAR KLAS 171556Z 36013G21KT 10SM CLR 12/M21 A3019 RMK AO2 SLP212 T01221211,0,13.0,1,16090,0,0,0,
2026-04-17 14:56:00,METAR KLAS 171456Z 34017G24KT 10SM FEW120 11/M19 A3018 RMK AO2 SLP207 T01111194 51038 $,0,17.0,1,16090,0,0,0,
2026-04-17 13:56:00,METAR KLAS 171356Z 34021G29KT 10SM FEW120 11/M21 A3014 RMK AO2 SLP194 T01061211 $,0,21.0,1,16090,0,0,0,
2026-04-17 12:56:00,METAR KLAS 171256Z 36025G32KT 10SM FEW120 11/M18 A3010 RMK AO2 SLP181 T01061183 $,0,25.0,1,16090,0,0,0,
2026-04-17 11:56:00,METAR KLAS 171156Z 33024G36KT 10SM FEW250 11/M16 A3006 RMK AO2 SLP166 T01111161 10217 20111 51037 $,0,24.0,1,16090,0,0,0,
2026-04-17 10:56:00,METAR KLAS 171056Z 35026G39KT 10SM FEW250 12/M15 A3003 RMK AO2 SLP154 T01171150 $,0,26.0,1,16090,0,0,0,
2026-04-17 09:56:00,METAR KLAS 170956Z 36028G46KT 10SM FEW250 13/M14 A2998 RMK AO2 SLP139 T01281144 $,0,28.0,1,16090,0,0,0,
2026-04-17 08:56:00,METAR KLAS 170856Z 34031G41KT 10SM FEW250 14/M15 A2994 RMK AO2 SLP123 OCNL VCBLDU W T01441150 51047 $,0,31.0,1,16090,0,0,0,VC
2026-04-17 08:31:00,SPECI KLAS 170831Z 33029G41KT 10SM FEW250 15/M15 A2991 RMK AO2 T01501150 $,0,29.0,1,16090,0,0,0,
2026-04-17 07:56:00,METAR KLAS 170756Z 33018G30KT 10SM FEW250 17/M16 A2991 RMK AO2 WSHFT 0713 SLP111 T01721156 402670172 $,0,18.0,1,16090,0,0,0,
2026-04-17 07:29:00,SPECI KLAS 170729Z 34019G29KT 10SM FEW250 19/M17 A2989 RMK AO2 WSHFT 0713 PRESRR T01891172 $,0,19.0,1,16090,0,0,0,
2026-04-17 06:56:00,METAR KLAS 170656Z 03016G27KT 10SM FEW250 21/M19 A2984 RMK AO2 SLP086 T02061194 $,0,16.0,1,16090,0,0,0,
2026-04-17 05:56:00,METAR KLAS 170556Z 32016G26KT 10SM FEW250 22/M15 A2979 RMK AO2 SLP070 T02171150 10261 20217 53023 $,0,16.0,1,16090,0,0,0,
2026-04-17 05:37:00,SPECI KLAS 170537Z 31018KT 10SM FEW250 22/M13 A2978 RMK AO2 T02221133 $,0,18.0,0,16090,0,0,0,
2026-04-17 04:56:00,METAR KLAS 170456Z 21011KT 10SM FEW250 22/M03 A2975 RMK AO2 SLP055 T02221028 $,0,11.0,0,16090,0,0,0,
2026-04-17 03:56:00,METAR KLAS 170356Z 21012KT 10SM FEW250 23/M03 A2973 RMK AO2 SLP049 T02281028 $,0,12.0,0,16090,0,0,0,
2026-04-17 02:56:00,METAR KLAS 170256Z 22013KT 10SM FEW170 SCT250 24/M03 A2972 RMK AO2 SLP046 T02391028 53004 $,0,13.0,0,16090,0,0,0,
2026-04-17 01:56:00,METAR KLAS 170156Z 21017KT 10SM FEW120 FEW170 BKN250 24/M02 A2971 RMK AO2 SLP041 T02441022 $,0,17.0,0,16090,0,0,0,
2026-04-17 00:56:00,METAR KLAS 170056Z 20020G29KT 10SM FEW120 FEW170 BKN250 26/M02 A2970 RMK AO2 SLP039 T02561022 $,0,20.0,1,16090,0,0,0,
2026-04-16 23:56:00,METAR KLAS 162356Z 21022KT 10SM FEW120 SCT170 BKN250 26/M03 A2971 RMK AO2 SLP040 T02561028 10267 20228 56022 $,0,22.0,0,16090,0,0,0,
2026-04-16 22:56:00,METAR KLAS 162256Z 22015G27KT 10SM FEW120 SCT170 BKN250 26/M03 A2973 RMK AO2 PK WND 20030/2200 SLP049 T02611028,0,15.0,1,16090,0,0,0,
2026-04-16 21:56:00,METAR KLAS 162156Z 21016G23KT 10SM FEW120 SCT170 BKN250 26/M07 A2975 RMK AO2 PK WND 20031/2058 SLP054 T02611067,0,16.0,1,16090,0,0,0,
2026-04-16 20:56:00,METAR KLAS 162056Z 21020G31KT 10SM FEW120 SCT150 BKN210 26/M07 A2978 RMK AO2 PK WND 20031/2052 SLP063 T02611072 58020,0,20.0,1,16090,0,0,0,
2026-04-16 19:56:00,METAR KLAS 161956Z 22016G26KT 10SM FEW120 SCT150 BKN210 25/M06 A2980 RMK AO2 PK WND 23030/1938 SLP072 ACSL DSNT E T02501061,0,16.0,1,16090,0,0,0,DS
2026-04-16 18:56:00,METAR KLAS 161856Z 18012G23KT 10SM FEW120 SCT150 BKN210 23/M06 A2982 RMK AO2 SLP079 ACSL DSNT E T02331056,0,12.0,1,16090,0,0,0,DS
2026-04-16 17:56:00,METAR KLAS 161756Z 19010G20KT 10SM FEW120 BKN170 BKN220 23/M05 A2984 RMK AO2 SLP086 ACSL DSNT SW T02281050 10228 20178 53003,0,10.0,1,16090,0,0,0,DS
2026-04-16 16:56:00,METAR KLAS 161656Z 17014G24KT 10SM FEW120 BKN170 BKN220 21/M03 A2984 RMK AO2 SLP086 ACSL DSNT NW T02061033,0,14.0,1,16090,0,0,0,DS
2026-04-16 15:56:00,METAR KLAS 161556Z 19011G21KT 10SM FEW120 BKN180 BKN250 20/M02 A2982 RMK AO2 SLP081 ACSL DSNT NW T02001017,0,11.0,1,16090,0,0,0,DS
2026-04-16 14:56:00,METAR KLAS 161456Z 19010G21KT 10SM SCT180 OVC250 19/M01 A2983 RMK AO2 SLP083 ACSL DSNT NW T01941006 51007,0,10.0,1,16090,0,0,0,DS
2026-04-16 13:56:00,METAR KLAS 161356Z 18006KT 10SM SCT180 BKN250 18/01 A2983 RMK AO2 SLP082 ACSL DSNT W-NW T01830006,0,6.0,0,16090,0,0,0,DS
2026-04-16 12:56:00,METAR KLAS 161256Z 17007G15KT 10SM SCT200 BKN250 18/01 A2982 RMK AO2 SLP080 T01830006,0,7.0,1,16090,0,0,0,
2026-04-16 11:56:00,METAR KLAS 161156Z 16009G16KT 10SM SCT210 18/01 A2981 RMK AO2 SLP074 T01830006 10222 20178 56010,0,9.0,1,16090,0,0,0,
2026-04-16 10:56:00,METAR KLAS 161056Z 15009KT 10SM BKN210 18/M01 A2982 RMK AO2 SLP079 T01831006,0,9.0,0,16090,0,0,0,
2026-04-16 09:56:00,METAR KLAS 160956Z 19007KT 10SM FEW180 BKN210 20/M01 A2983 RMK AO2 SLP080 T02001006,0,7.0,0,16090,0,0,0,
2026-04-16 08:56:00,METAR KLAS 160856Z 19006KT 10SM SCT210 21/M02 A2984 RMK AO2 SLP085 T02061022 58008,0,6.0,0,16090,0,0,0,
2026-04-16 07:56:00,METAR KLAS 160756Z 19007KT 10SM BKN210 21/M04 A2986 RMK AO2 SLP092 T02061044 402830139,0,7.0,0,16090,0,0,0,
2026-04-16 06:56:00,METAR KLAS 160656Z 20009KT 10SM SCT200 SCT250 22/M05 A2987 RMK AO2 SLP094 T02171050,0,9.0,0,16090,0,0,0,
2026-04-16 05:56:00,METAR KLAS 160556Z 18006KT 10SM SCT200 SCT250 22/M05 A2987 RMK AO2 SLP095 T02171050 10278 20217 50001,0,6.0,0,16090,0,0,0,
2026-04-16 04:56:00,METAR KLAS 160456Z 20006KT 10SM SCT200 SCT250 23/M06 A2988 RMK AO2 SLP100 T02281056,0,6.0,0,16090,0,0,0,
2026-04-16 03:56:00,METAR KLAS 160356Z 22007KT 10SM SCT200 SCT250 24/M06 A2987 RMK AO2 SLP098 T02391061,0,7.0,0,16090,0,0,0,
2026-04-16 02:56:00,METAR KLAS 160256Z 22012KT 10SM SCT200 SCT250 24/M08 A2986 RMK AO2 SLP094 T02441083 55001,0,12.0,0,16090,0,0,0,
2026-04-16 01:56:00,METAR KLAS 160156Z 24014G21KT 10SM SCT200 BKN250 26/M11 A2985 RMK AO2 SLP093 T02561106,0,14.0,1,16090,0,0,0,
2026-04-16 00:56:00,METAR KLAS 160056Z 24014KT 10SM FEW200 SCT250 27/M09 A2986 RMK AO2 SLP094 T02721089,0,14.0,0,16090,0,0,0,
2026-04-15 23:56:00,METAR KLAS 152356Z 21011G16KT 10SM FEW200 SCT250 28/M08 A2987 RMK AO2 SLP095 T02781083 10283 20228 56024,0,11.0,1,16090,0,0,0,
2026-04-15 22:56:00,METAR KLAS 152256Z 16007G16KT 10SM FEW250 28/M07 A2988 RMK AO2 SLP100 T02781067,0,7.0,1,16090,0,0,0,
2026-04-15 21:56:00,METAR KLAS 152156Z 18007G18KT 140V200 10SM FEW250 27/M06 A2991 RMK AO2 SLP112 T02671061,0,7.0,1,16090,0,0,0,
2026-04-15 20:56:00,METAR KLAS 152056Z 19010KT 10SM FEW250 26/M07 A2994 RMK AO2 SLP122 T02611067 58024,0,10.0,0,16090,0,0,0,
2026-04-15 19:56:00,METAR KLAS 151956Z 19008G17KT 10SM FEW250 26/M07 A2997 RMK AO2 SLP131 T02561067,0,8.0,1,16090,0,0,0,
2026-04-15 18:56:00,METAR KLAS 151856Z 15005KT 10SM CLR 24/M06 A2999 RMK AO2 SLP140 T02441056,0,5.0,0,16090,0,0,0,
2026-04-15 17:56:00,METAR KLAS 151756Z VRB03KT 10SM CLR 23/M04 A3002 RMK AO2 SLP148 T02281039 10228 20139 58001,0,3.0,0,16090,0,0,0,
2026-04-15 16:56:00,METAR KLAS 151656Z 00000KT 10SM CLR 21/M04 A3003 RMK AO2 SLP153 T02061044,0,0.0,0,16090,0,0,0,
2026-04-15 15:56:00,METAR KLAS 151556Z 07003KT 10SM CLR 18/M06 A3002 RMK AO2 SLP151 T01831056,0,3.0,0,16090,0,0,0,
2026-04-15 14:56:00,METAR KLAS 151456Z 00000KT 10SM CLR 17/M07 A3002 RMK AO2 SLP151 T01721067 53012,0,0.0,0,16090,0,0,0,
2026-04-15 13:56:00,METAR KLAS 151356Z 00000KT 10SM CLR 16/M06 A3001 RMK AO2 SLP149 T01561061,0,0.0,0,16090,0,0,0,
2026-04-15 12:56:00,METAR KLAS 151256Z 00000KT 10SM CLR 14/M06 A2999 RMK AO2 SLP141 T01441061,0,0.0,0,16090,0,0,0,
2026-04-15 11:56:00,METAR KLAS 151156Z 00000KT 10SM CLR 14/M07 A2998 RMK AO2 SLP139 7//// T01441072 10189 20144 51003,0,0.0,0,16090,0,0,0,
2026-04-15 10:56:00,METAR KLAS 151056Z 22007KT 10SM CLR 15/M07 A2998 RMK AO2 SLP138 T01501072,0,7.0,0,16090,0,0,0,
2026-04-15 09:56:00,METAR KLAS 150956Z 21005KT 10SM CLR 15/M07 A2998 RMK AO2 SLP137 T01501072,0,5.0,0,16090,0,0,0,
2026-04-15 08:56:00,METAR KLAS 150856Z 23005KT 10SM CLR 16/M07 A2998 RMK AO2 SLP136 T01561072 50001,0,5.0,0,16090,0,0,0,
2026-04-15 07:56:00,METAR KLAS 150756Z 21006KT 10SM CLR 17/M08 A2998 RMK AO2 SLP138 T01671078 402390117,0,6.0,0,16090,0,0,0,
2026-04-15 06:56:00,METAR KLAS 150656Z 20004KT 10SM CLR 18/M08 A2998 RMK AO2 SLP136 T01781083,0,4.0,0,16090,0,0,0,
2026-04-15 05:56:00,METAR KLAS 150556Z 20004KT 10SM CLR 19/M08 A2997 RMK AO2 SLP135 T01891083 10239 20189 51009,0,4.0,0,16090,0,0,0,
2026-04-15 04:56:00,METAR KLAS 150456Z 21006KT 10SM CLR 19/M08 A2997 RMK AO2 SLP135 T01941078,0,6.0,0,16090,0,0,0,
2026-04-15 03:56:00,METAR KLAS 150356Z 24009KT 10SM CLR 21/M08 A2997 RMK AO2 SLP133 T02111083,0,9.0,0,16090,0,0,0,
2026-04-15 02:56:00,METAR KLAS 150256Z 24007KT 10SM FEW250 22/M09 A2994 RMK AO2 SLP125 T02221094 55002,0,7.0,0,16090,0,0,0,
2026-04-15 01:56:00,METAR KLAS 150156Z VRB03KT 10SM FEW100 FEW250 23/M07 A2994 RMK AO2 SLP125 T02281072,0,3.0,0,16090,0,0,0,
2026-04-15 00:56:00,METAR KLAS 150056Z 02004KT 10SM FEW100 FEW250 23/M05 A2994 RMK AO2 SLP126 T02331050,0,4.0,0,16090,0,0,0,
2026-04-14 23:56:00,METAR KLAS 142356Z VRB03KT 10SM FEW100 FEW250 23/M04 A2995 RMK AO2 SLP127 T02331044 10239 20189 56019,0,3.0,0,16090,0,0,0,
2026-04-14 22:56:00,METAR KLAS 142256Z COR VRB03KT 10SM FEW100 FEW250 23/M03 A2996 RMK AO2 SLP132 T02281033,0,3.0,0,16090,0,0,0,
2026-04-14 21:56:00,METAR KLAS 142156Z VRB03KT 10SM FEW085 23/M02 A2998 RMK AO2 SLP138 T02281022,0,3.0,0,16090,0,0,0,
2026-04-14 20:56:00,METAR KLAS 142056Z 27006KT 10SM FEW085 22/M03 A3001 RMK AO2 SLP149 T02171028 58013,0,6.0,0,16090,0,0,0,
2026-04-14 19:56:00,METAR KLAS 141956Z 21003KT 10SM FEW085 21/M03 A3002 RMK AO2 SLP154 T02111028 $,0,3.0,0,16090,0,0,0,
2026-04-14 18:56:00,METAR KLAS 141856Z 00000KT 10SM FEW085 19/M02 A3004 RMK AO2 SLP161 T01941017 PNO $,0,0.0,0,16090,0,0,0,
2026-04-14 17:56:00,METAR KLAS 141756Z VRB05KT 10SM FEW085 19/00 A3005 RMK AO2 SLP164 T01890000 10189 20117 51008,0,5.0,0,16090,0,0,0,
2026-04-14 16:56:00,METAR KLAS 141656Z VRB04KT 10SM FEW090 18/01 A3004 RMK AO2 SLP163 T01780006,0,4.0,0,16090,0,0,0,
2026-04-14 15:56:00,METAR KLAS 141556Z 32004KT 10SM CLR 16/01 A3003 RMK AO2 SLP158 T01610011,0,4.0,0,16090,0,0,0,
2026-04-14 14:56:00,METAR KLAS 141456Z VRB04KT 10SM CLR 15/01 A3002 RMK AO2 SLP157 T01500011 53015,0,4.0,0,16090,0,0,0,
2026-04-14 13:56:00,METAR KLAS 141356Z 00000KT 10SM FEW080 FEW200 12/01 A3001 RMK AO2 SLP154 T01220006,0,0.0,0,16090,0,0,0,
2026-04-14 12:56:00,METAR KLAS 141256Z 19004KT 10SM FEW080 FEW200 12/01 A2998 RMK AO2 SLP144 T01220006,0,4.0,0,16090,0,0,0,
2026-04-14 11:56:00,METAR KLAS 141156Z 18005KT 10SM SCT080 13/01 A2998 RMK AO2 SLP140 T01280006 10150 20128 53005,0,5.0,0,16090,0,0,0,
2026-04-14 10:56:00,METAR KLAS 141056Z 00000KT 10SM BKN080 OVC095 14/01 A2997 RMK AO2 SLP138 T01390006,0,0.0,0,16090,0,0,0,
2026-04-14 09:56:00,METAR KLAS 140956Z 00000KT 10SM SCT085 14/02 A2996 RMK AO2 SLP133 T01390017,0,0.0,0,16090,0,0,0,
2026-04-14 08:56:00,METAR KLAS 140856Z 15004KT 10SM FEW120 14/01 A2996 RMK AO2 SLP133 T01390006 51010,0,4.0,0,16090,0,0,0,
2026-04-14 07:56:00,METAR KLAS 140756Z 12005KT 10SM FEW090 14/00 A2996 RMK AO2 SLP132 T01440000 402110122,0,5.0,0,16090,0,0,0,
2026-04-14 06:56:00,METAR KLAS 140656Z VRB04KT 10SM SCT090 SCT110 14/01 A2994 RMK AO2 SLP128 T01440006,0,4.0,0,16090,0,0,0,
2026-04-14 05:56:00,METAR KLAS 140556Z 19007KT 10SM OVC100 15/01 A2993 RMK AO2 RAE02 SLP122 P0000 60000 T01500006 10200 20139 51020,0,7.0,0,16090,0,0,0,
2026-04-14 04:56:00,METAR KLAS 140456Z 18010G20KT 9SM -RA FEW014 BKN100 OVC110 14/02 A2992 RMK AO2 PK WND 29030/0439 RAB40 SLP121 VIS LWR SW-NW MTNS OBSCURED DSNT SW-NW P0000 T01440022,0,10.0,1,14481,0,0,0,"-RA,DS"
2026-04-14 03:56:00,METAR KLAS 140356Z 24011KT 10SM SCT060 BKN100 16/00 A2991 RMK AO2 WSHFT 0307 SLP117 T01560000,0,11.0,0,16090,0,0,0,
2026-04-14 03:27:00,SPECI KLAS 140327Z 23011G22KT 10SM SCT095 16/00 A2989 RMK AO2 WSHFT 0307 T01560000,0,11.0,1,16090,0,0,0,
2026-04-14 02:56:00,METAR KLAS 140256Z 36006KT 10SM SCT050 BKN100 BKN150 16/M01 A2987 RMK AO2 WSHFT 0143 SLP104 T01611011 53007,0,6.0,0,16090,0,0,0,
2026-04-14 02:33:00,SPECI KLAS 140233Z 33009KT 10SM SCT060 BKN100 BKN150 16/M01 A2986 RMK AO2 WSHFT 0143 T01611006,0,9.0,0,16090,0,0,0,
2026-04-14 02:03:00,SPECI KLAS 140203Z 34017G21KT 10SM SCT060 BKN100 BKN150 17/M01 A2985 RMK AO2 WSHFT 0143 T01671006,0,17.0,1,16090,0,0,0,
2026-04-14 01:56:00,METAR KLAS 140156Z 31010G21KT 10SM SCT060 BKN100 BKN150 17/M01 A2984 RMK AO2 WSHFT 0137 SLP094 T01671011,0,10.0,1,16090,0,0,0,
2026-04-14 00:56:00,METAR KLAS 140056Z 22010KT 10SM BKN070 BKN100 OVC200 19/M06 A2983 RMK AO2 SLP090 T01891061,0,10.0,0,16090,0,0,0,
2026-04-13 23:56:00,METAR KLAS 132356Z 20009G19KT 10SM BKN070 BKN100 OVC200 19/M05 A2984 RMK AO2 SLP094 T01941050 10211 20178 56014,0,9.0,1,16090,0,0,0,
2026-04-13 22:56:00,METAR KLAS 132256Z 20012G25KT 10SM SCT070 BKN100 BKN200 19/M04 A2985 RMK AO2 SLP096 T01891044,0,12.0,1,16090,0,0,0,
2026-04-13 21:56:00,METAR KLAS 132156Z 24009G18KT 10SM SCT070 SCT100 BKN200 20/M04 A2987 RMK AO2 SLP101 T02001039,0,9.0,1,16090,0,0,0,
2026-04-13 20:56:00,METAR KLAS 132056Z 18006KT 10SM FEW070 SCT100 BKN200 20/M03 A2989 RMK AO2 SLP108 T02001033 58021,0,6.0,0,16090,0,0,0,
2026-04-13 19:56:00,METAR KLAS 131956Z 18009G16KT 150V210 10SM FEW070 SCT100 BKN200 19/M03 A2991 RMK AO2 SLP117 T01941028,0,9.0,1,16090,0,0,0,
2026-04-13 18:56:00,METAR KLAS 131856Z 20010G18KT 10SM FEW070 FEW100 SCT200 19/M02 A2994 RMK AO2 SLP124 T01891022,0,10.0,1,16090,0,0,0,
2026-04-13 17:56:00,METAR KLAS 131756Z 20008G17KT 10SM FEW070 FEW100 18/M03 A2995 RMK AO2 SLP130 T01831033 10183 20122 50000,0,8.0,1,16090,0,0,0,
2026-04-13 16:56:00,METAR KLAS 131656Z 20008G15KT 10SM FEW065 FEW100 17/M01 A2996 RMK AO2 SLP132 T01671011,0,8.0,1,16090,0,0,0,
2026-04-13 15:56:00,METAR KLAS 131556Z 20005KT 10SM FEW065 FEW100 15/01 A2996 RMK AO2 SLP133 T01500006,0,5.0,0,16090,0,0,0,
2026-04-13 14:56:00,METAR KLAS 131456Z 18006KT 10SM FEW065 SCT100 13/01 A2995 RMK AO2 SLP133 T01280011 51012,0,6.0,0,16090,0,0,0,
2026-04-13 13:56:00,METAR KLAS 131356Z VRB05KT 10SM FEW110 13/01 A2994 RMK AO2 SLP128 T01280006,0,5.0,0,16090,0,0,0,
2026-04-13 12:56:00,METAR KLAS 131256Z 19007KT 10SM FEW110 13/01 A2993 RMK AO2 SLP124 T01280011,0,7.0,0,16090,0,0,0,
2026-04-13 11:56:00,METAR KLAS 131156Z 21010KT 10SM FEW140 FEW180 13/01 A2991 RMK AO2 SLP119 T01280011 10167 20128 56006,0,10.0,0,16090,0,0,0,
2026-04-13 10:56:00,METAR KLAS 131056Z 20010G16KT 10SM FEW140 FEW180 13/01 A2992 RMK AO2 SLP117 T01330006,0,10.0,1,16090,0,0,0,
2026-04-13 09:56:00,METAR KLAS 130956Z 21013KT 10SM FEW140 13/00 A2991 RMK AO2 SLP115 T01330000,0,13.0,0,16090,0,0,0,
2026-04-13 08:56:00,METAR KLAS 130856Z 09008KT 10SM FEW120 14/M03 A2993 RMK AO2 PK WND 25026/0826 SLP123 T01441033 51011,0,8.0,0,16090,0,0,0,
2026-04-13 07:56:00,METAR KLAS 130756Z 23013G21KT 10SM FEW120 15/M04 A2993 RMK AO2 SLP122 T01501044 402330150,0,13.0,1,16090,0,0,0,
2026-04-13 06:56:00,METAR KLAS 130656Z 23017G28KT 10SM CLR 16/M05 A2991 RMK AO2 PK WND 21030/0638 PRESRR SLP114 T01611050,0,17.0,1,16090,0,0,0,
2026-04-13 05:56:00,METAR KLAS 130556Z 21008G19KT 10SM CLR 17/M04 A2990 RMK AO2 PK WND 21029/0503 SLP111 T01671039 10206 20167 51018,0,8.0,1,16090,0,0,0,
2026-04-13 04:56:00,METAR KLAS 130456Z 21020G29KT 10SM FEW100 17/00 A2988 RMK AO2 PK WND 22029/0451 SLP104 T01720000,0,20.0,1,16090,0,0,0,
2026-04-13 03:56:00,METAR KLAS 130356Z 21011G20KT 10SM FEW050 BKN100 18/M02 A2987 RMK AO2 PK WND 23029/0257 SLP102 T01781017,0,11.0,1,16090,0,0,0,
2026-04-13 02:56:00,METAR KLAS 130256Z 22014G24KT 10SM FEW060 BKN100 18/02 A2984 RMK AO2 PK WND 22027/0211 SLP092 T01830022 53002,0,14.0,1,16090,0,0,0,
2026-04-13 01:56:00,METAR KLAS 130156Z 21016G23KT 10SM FEW060 BKN100 18/04 A2983 RMK AO2 PK WND 23037/0106 SLP090 T01830039,0,16.0,1,16090,0,0,0,
2026-04-13 00:56:00,METAR KLAS 130056Z 24026G38KT 10SM FEW080 BKN120 19/02 A2983 RMK AO2 PK WND 25038/0053 SLP089 T01890022,0,26.0,1,16090,0,0,0,
2026-04-12 23:56:00,METAR KLAS 122356Z 22019G33KT 10SM FEW080 BKN100 19/03 A2984 RMK AO2 PK WND 24035/2320 SLP091 T01940028 10233 20194 55003,0,19.0,1,16090,0,0,0,
2026-04-12 22:56:00,METAR KLAS 122256Z 22016G27KT 10SM SCT080 SCT150 23/01 A2982 RMK AO2 PK WND 23034/2233 SLP081 T02330006,0,16.0,1,16090,0,0,0,
2026-04-12 21:56:00,METAR KLAS 122156Z 25017G27KT 10SM SCT095 23/01 A2984 RMK AO2 PK WND 23029/2109 SLP087 T02280011,0,17.0,1,16090,0,0,0,
2026-04-12 20:56:00,METAR KLAS 122056Z 23017G29KT 10SM FEW090 SCT150 22/01 A2985 RMK AO2 PK WND 21034/2037 SLP091 T02170011 55006,0,17.0,1,16090,0,0,0,
2026-04-12 19:56:00,METAR KLAS 121956Z 22017G36KT 10SM FEW090 SCT150 22/01 A2984 RMK AO2 PK WND 23036/1947 SLP090 T02170011,0,17.0,1,16090,0,0,0,
2026-04-12 18:56:00,METAR KLAS 121856Z 24018G28KT 10SM FEW100 SCT200 22/01 A2985 RMK AO2 PK WND 21030/1828 SLP091 T02170006,0,18.0,1,16090,0,0,0,
2026-04-12 17:56:00,METAR KLAS 121756Z 21018G28KT 10SM FEW100 SCT200 20/01 A2986 RMK AO2 PK WND 22031/1701 SLP096 T02000006 10200 20156 53002,0,18.0,1,16090,0,0,0,
2026-04-12 16:56:00,METAR KLAS 121656Z 23022G31KT 10SM FEW200 19/00 A2985 RMK AO2 PK WND 24031/1647 SLP092 T01940000,0,22.0,1,16090,0,0,0,
2026-04-12 15:56:00,METAR KLAS 121556Z 19015G25KT 10SM CLR 18/M02 A2986 RMK AO2 PK WND 20027/1522 SLP095 T01781017,0,15.0,1,16090,0,0,0,
2026-04-12 14:56:00,METAR KLAS 121456Z 23014G26KT 10SM FEW200 17/M02 A2986 RMK AO2 PK WND 24029/1422 SLP096 T01671017 53028,0,14.0,1,16090,0,0,0,
2026-04-12 13:56:00,METAR KLAS 121356Z 21017G28KT 10SM FEW200 16/M03 A2982 RMK AO2 PK WND 23036/1258 SLP082 T01611028,0,17.0,1,16090,0,0,0,
2026-04-12 12:56:00,METAR KLAS 121256Z 23023G34KT 10SM FEW200 17/M04 A2979 RMK AO2 PK WND 23034/1254 SLP072 T01671044,0,23.0,1,16090,0,0,0,
2026-04-12 11:56:00,METAR KLAS 121156Z 18009G17KT 10SM CLR 16/M01 A2977 RMK AO2 SLP063 T01611006 10206 20161 57008,0,9.0,1,16090,0,0,0,
2026-04-12 10:56:00,METAR KLAS 121056Z 20005KT 10SM CLR 17/00 A2978 RMK AO2 PK WND 22026/1024 SLP068 T01670000,0,5.0,0,16090,0,0,0,
2026-04-12 09:56:00,METAR KLAS 120956Z 23014G22KT 10SM CLR 17/01 A2978 RMK AO2 SLP068 T01670011,0,14.0,1,16090,0,0,0,
2026-04-12 08:56:00,METAR KLAS 120856Z 22011KT 10SM SCT200 18/01 A2980 RMK AO2 SLP072 T01780011 58007,0,11.0,0,16090,0,0,0,
2026-04-12 07:56:00,METAR KLAS 120756Z 21005KT 10SM FEW200 18/01 A2981 RMK AO2 SLP075 T01830006 402560161,0,5.0,0,16090,0,0,0,
2026-04-12 06:56:00,METAR KLAS 120656Z 19008G17KT 10SM SCT200 20/M01 A2982 RMK AO2 SLP079 T02001006,0,8.0,1,16090,0,0,0,
2026-04-12 05:56:00,METAR KLAS 120556Z 26012KT 10SM FEW200 21/M02 A2982 RMK AO2 SLP079 T02061017 10250 20206 51008,0,12.0,0,16090,0,0,0,
2026-04-12 04:56:00,METAR KLAS 120456Z 24008KT 10SM FEW150 21/M01 A2981 RMK AO2 SLP079 T02111011,0,8.0,0,16090,0,0,0,
2026-04-12 03:56:00,METAR KLAS 120356Z 20007KT 10SM FEW150 22/M02 A2981 RMK AO2 SLP076 T02221017,0,7.0,0,16090,0,0,0,
2026-04-12 02:56:00,METAR KLAS 120256Z 21009KT 10SM FEW150 22/M03 A2979 RMK AO2 SLP072 T02221033 53002,0,9.0,0,16090,0,0,0,
2026-04-12 01:56:00,METAR KLAS 120156Z 23009G19KT 10SM FEW150 23/M05 A2978 RMK AO2 PK WND 23029/0113 SLP067 T02331050,0,9.0,1,16090,0,0,0,
2026-04-12 00:56:00,METAR KLAS 120056Z 24017G25KT 10SM FEW150 FEW250 24/M05 A2978 RMK AO2 PK WND 24026/0033 SLP066 T02441050,0,17.0,1,16090,0,0,0,
2026-04-11 23:56:00,METAR KLAS 112356Z 23016G28KT 10SM FEW150 SCT250 26/M05 A2979 RMK AO2 PK WND 24030/2313 SLP068 T02561050 10256 20217 56013,0,16.0,1,16090,0,0,0,
2026-04-11 22:56:00,METAR KLAS 112256Z 23015G25KT 10SM FEW150 SCT250 25/M05 A2980 RMK AO2 PK WND 20028/2214 SLP072 T02501050,0,15.0,1,16090,0,0,0,
2026-04-11 21:56:00,METAR KLAS 112156Z 21019G32KT 10SM FEW150 SCT250 25/M04 A2981 RMK AO2 PK WND 23033/2106 SLP078 T02501044,0,19.0,1,16090,0,0,0,
2026-04-11 20:56:00,METAR KLAS 112056Z 21019G31KT 10SM FEW150 SCT250 24/M04 A2983 RMK AO2 PK WND 21031/2013 SLP083 T02441044 56028,0,19.0,1,16090,0,0,0,
2026-04-11 19:56:00,METAR KLAS 111956Z 22018G32KT 10SM FEW150 FEW250 24/M04 A2985 RMK AO2 PK WND 21032/1951 SLP089 T02391039,0,18.0,1,16090,0,0,0,
2026-04-11 18:56:00,METAR KLAS 111856Z 21017G26KT 10SM FEW150 SCT250 23/M04 A2988 RMK AO2 PK WND 21026/1854 SLP100 T02281039,0,17.0,1,16090,0,0,0,
2026-04-11 17:56:00,METAR KLAS 111756Z 23018G24KT 10SM FEW150 FEW250 22/M03 A2992 RMK AO2 PK WND 22029/1659 SLP112 T02171033 10217 20161 53012,0,18.0,1,16090,0,0,0,
2026-04-11 16:56:00,METAR KLAS 111656Z 21016G32KT 10SM FEW150 SCT250 20/M02 A2988 RMK AO2 PK WND 21032/1654 SLP101 T02001017,0,16.0,1,16090,0,0,0,
2026-04-11 15:56:00,METAR KLAS 111556Z 20018G31KT 10SM CLR 19/M01 A2987 RMK AO2 PK WND 22031/1553 SLP098 T01891006,0,18.0,1,16090,0,0,0,
2026-04-11 14:56:00,METAR KLAS 111456Z 21009KT 10SM CLR 17/03 A2988 RMK AO2 SLP100 T01720033 53007,0,9.0,0,16090,0,0,0,
2026-04-11 13:56:00,METAR KLAS 111356Z COR 25009G17KT 10SM FEW150 SCT250 17/03 A2988 RMK AO2 PK WND 20026/1302 SLP101 T01670033,0,9.0,1,16090,0,0,0,
2026-04-11 12:56:00,METAR KLAS 111256Z 21012G22KT 10SM FEW120 FEW250 17/03 A2984 RMK AO2 SLP088 T01670033,0,12.0,1,16090,0,0,0,
2026-04-11 11:56:00,METAR KLAS 111156Z 24008G18KT 10SM FEW120 FEW250 17/03 A2986 RMK AO2 SLP090 T01720028 10217 20172 53004,0,8.0,1,16090,0,0,0,
2026-04-11 10:56:00,METAR KLAS 111056Z 23013G24KT 10SM FEW250 18/02 A2983 RMK AO2 SLP081 T01830022,0,13.0,1,16090,0,0,0,
2026-04-11 09:56:00,METAR KLAS 110956Z 24005KT 10SM FEW120 SCT180 BKN250 18/04 A2983 RMK AO2 SLP082 T01830039,0,5.0,0,16090,0,0,0,
2026-04-11 08:56:00,METAR KLAS 110856Z 23007KT 10SM FEW120 FEW180 SCT250 19/03 A2984 RMK AO2 SLP085 T01890028 53007,0,7.0,0,16090,0,0,0,
2026-04-11 07:56:00,METAR KLAS 110756Z 22018G26KT 10SM FEW160 FEW250 20/03 A2984 RMK AO2 PK WND 23027/0739 SLP083 T02000028 402830200,0,18.0,1,16090,0,0,0,
2026-04-11 06:56:00,METAR KLAS 110656Z 21012G18KT 10SM FEW250 21/03 A2982 RMK AO2 SLP078 T02060033,0,12.0,1,16090,0,0,0,
2026-04-11 05:56:00,METAR KLAS 110556Z 20008KT 10SM FEW110 SCT250 22/03 A2982 RMK AO2 SLP076 T02220028 10283 20222 51014,0,8.0,0,16090,0,0,0,
2026-04-11 04:56:00,METAR KLAS 110456Z 24009KT 10SM FEW090 FEW110 SCT250 23/03 A2982 RMK AO2 SLP076 T02280028,0,9.0,0,16090,0,0,0,
2026-04-11 03:56:00,METAR KLAS 110356Z 24014KT 10SM FEW090 SCT110 SCT250 24/03 A2980 RMK AO2 SLP071 T02390033,0,14.0,0,16090,0,0,0,
2026-04-11 02:56:00,METAR KLAS 110256Z 22009KT 10SM BKN090 BKN110 BKN250 25/02 A2977 RMK AO2 SLP062 T02500017 55006,0,9.0,0,16090,0,0,0,
2026-04-11 01:56:00,METAR KLAS 110156Z 22014G23KT 10SM BKN090 BKN110 BKN250 27/M01 A2977 RMK AO2 SLP060 VIRGA S-W-N CB DSNT NE AND S-SW T02671006,0,14.0,1,16090,0,0,0,DS
2026-04-11 00:56:00,METAR KLAS 110056Z 23011G18KT 10SM SCT090CB SCT250 28/M01 A2978 RMK AO2 SLP062 VCSH NE-E CB OHD-NE-E MOV N T02781006,0,11.0,1,16090,0,0,0,"SH,VC"
2026-04-10 23:56:00,METAR KLAS 102356Z 22009G19KT 10SM FEW090 SCT250 28/00 A2979 RMK AO2 SLP068 T02830000 10283 20256 56020,0,9.0,1,16090,0,0,0,
2026-04-10 22:56:00,METAR KLAS 102256Z 24010G20KT 10SM FEW090 SCT250 28/01 A2981 RMK AO2 SLP072 T02830006,0,10.0,1,16090,0,0,0,
2026-04-10 22:23:00,SPECI KLAS 102223Z 24015G25KT 10SM FEW090 SCT250 28/00 A2982 RMK AO2 T02830000,0,15.0,1,16090,0,0,0,
2026-04-10 21:56:00,METAR KLAS 102156Z 20010G28KT 10SM FEW090 SCT250 28/00 A2984 RMK AO2 PK WND 23032/2115 SLP082 T02780000,0,10.0,1,16090,0,0,0,
2026-04-10 20:56:00,METAR KLAS 102056Z 23013G22KT 10SM FEW090 SCT250 27/02 A2986 RMK AO2 PK WND 24026/2004 SLP089 T02720022 58014,0,13.0,1,16090,0,0,0,
2026-04-10 19:56:00,METAR KLAS 101956Z 22018G24KT 10SM FEW120 FEW200 SCT250 27/02 A2988 RMK AO2 SLP097 T02670022,0,18.0,1,16090,0,0,0,
2026-04-10 18:56:00,METAR KLAS 101856Z 24013G29KT 10SM FEW120 FEW200 SCT250 26/03 A2990 RMK AO2 PK WND 26031/1806 SLP104 T02610028,0,13.0,1,16090,0,0,0,
2026-04-10 17:56:00,METAR KLAS 101756Z 21015G25KT 10SM FEW120 FEW200 SCT250 26/02 A2990 RMK AO2 PK WND 19029/1734 SLP103 T02560022 10256 20206 53002,0,15.0,1,16090,0,0,0,
2026-04-10 16:56:00,METAR KLAS 101656Z 22017G26KT 10SM FEW150 FEW200 24/03 A2990 RMK AO2 PK WND 21028/1644 SLP103 ACSL DSNT NW T02440028,0,17.0,1,16090,0,0,0,DS
2026-04-10 15:56:00,METAR KLAS 101556Z 21017G24KT 10SM FEW150 FEW200 23/04 A2989 RMK AO2 PK WND 22026/1537 SLP100 ACSL DSNT NW T02280044,0,17.0,1,16090,0,0,0,DS
2026-04-10 14:56:00,METAR KLAS 101456Z 20011G19KT 10SM FEW150 SCT200 21/06 A2989 RMK AO2 SLP102 ACSL DSNT NW T02110056 53014,0,11.0,1,16090,0,0,0,DS
2026-04-10 13:56:00,METAR KLAS 101356Z 21011G22KT 10SM SCT150 BKN200 21/05 A2986 RMK AO2 SLP091 ACSL DSNT NW T02060050,0,11.0,1,16090,0,0,0,DS
2026-04-10 13:14:00,SPECI KLAS 101314Z 21010G20KT 10SM FEW150 BKN200 21/05 A2984 RMK AO2 T02060050,0,10.0,1,16090,0,0,0,
2026-04-10 12:56:00,METAR KLAS 101256Z 13007KT 10SM FEW150 BKN200 21/06 A2984 RMK AO2 SLP084 T02060056,0,7.0,0,16090,0,0,0,
2026-04-10 11:56:00,METAR KLAS 101156Z 14003KT 10SM FEW150 BKN210 21/06 A2985 RMK AO2 SLP085 T02060056 10244 20206 55003,0,3.0,0,16090,0,0,0,
2026-04-10 10:56:00,METAR KLAS 101056Z 24013KT 10SM FEW150 BKN200 21/06 A2983 RMK AO2 SLP079 T02110056,0,13.0,0,16090,0,0,0,
2026-04-10 09:56:00,METAR KLAS 100956Z 22007KT 10SM FEW150 BKN190 22/06 A2986 RMK AO2 SLP087 T02170056,0,7.0,0,16090,0,0,0,
2026-04-10 08:56:00,METAR KLAS 100856Z 21013G21KT 10SM FEW180 BKN220 22/06 A2986 RMK AO2 SLP087 T02220056 51006,0,13.0,1,16090,0,0,0,
2026-04-10 07:56:00,METAR KLAS 100756Z 21008KT 10SM BKN180 23/06 A2986 RMK AO2 SLP087 T02330061 403170206,0,8.0,0,16090,0,0,0,
2026-04-10 06:56:00,METAR KLAS 100656Z 21012G24KT 10SM BKN180 24/06 A2985 RMK AO2 SLP085 T02390056,0,12.0,1,16090,0,0,0,
2026-04-10 05:56:00,METAR KLAS 100556Z COR 19010G23KT 10SM BKN200 24/03 A2984 RMK AO2 PK WND 21030/0543 SLP081 T02440033 10294 20244 51015,0,10.0,1,16090,0,0,0,
2026-04-10 04:56:00,METAR KLAS 100456Z 23019G29KT 10SM FEW180 BKN220 25/02 A2983 RMK AO2 PK WND 23029/0450 SLP077 T02500022,0,19.0,1,16090,0,0,0,
2026-04-10 03:56:00,METAR KLAS 100356Z 22016G24KT 10SM FEW180 BKN220 27/02 A2981 RMK AO2 SLP071 T02670022,0,16.0,1,16090,0,0,0,
2026-04-10 02:56:00,METAR KLAS 100256Z 20012G20KT 10SM FEW180 BKN220 27/00 A2979 RMK AO2 SLP066 T02720000 58004,0,12.0,1,16090,0,0,0,
2026-04-10 01:56:00,METAR KLAS 100156Z 21013G21KT 10SM FEW180 BKN220 28/00 A2979 RMK AO2 SLP068 T02780000,0,13.0,1,16090,0,0,0,
2026-04-10 00:56:00,METAR KLAS 100056Z 23014KT 10SM FEW200 BKN220 28/M04 A2981 RMK AO2 SLP071 T02831039,0,14.0,0,16090,0,0,0,
2026-04-09 23:56:00,METAR KLAS 092356Z 24014G28KT 10SM FEW200 BKN250 29/M04 A2980 RMK AO2 PK WND 26028/2352 SLP069 T02941039 10317 20272 56010,0,14.0,1,16090,0,0,0,
2026-04-09 22:56:00,METAR KLAS 092256Z 21012G22KT 10SM FEW200 BKN250 30/M06 A2980 RMK AO2 SLP068 T03001056,0,12.0,1,16090,0,0,0,
2026-04-09 21:56:00,METAR KLAS 092156Z 22013G22KT 200V260 10SM FEW200 SCT250 31/M04 A2981 RMK AO2 SLP070 T03111044,0,13.0,1,16090,0,0,0,
2026-04-09 20:56:00,METAR KLAS 092056Z 22014G24KT 10SM FEW200 SCT250 31/M03 A2983 RMK AO2 SLP077 T03061033 58019,0,14.0,1,16090,0,0,0,
2026-04-09 19:56:00,METAR KLAS 091956Z 16005KT 10SM FEW200 BKN250 29/M03 A2985 RMK AO2 SLP086 T02941028,0,5.0,0,16090,0,0,0,
2026-04-09 18:56:00,METAR KLAS 091856Z 17008G17KT 10SM FEW200 BKN250 29/M03 A2988 RMK AO2 SLP095 T02891033,0,8.0,1,16090,0,0,0,
2026-04-09 17:56:00,METAR KLAS 091756Z 19007KT 160V220 10SM FEW200 BKN250 27/M04 A2989 RMK AO2 SLP100 T02671039 10272 20206 53004,0,7.0,0,16090,0,0,0,
2026-04-09 16:56:00,METAR KLAS 091656Z 19011G19KT 10SM FEW200 BKN250 26/M03 A2988 RMK AO2 SLP096 T02611033,0,11.0,1,16090,0,0,0,
2026-04-09 15:56:00,METAR KLAS 091556Z 19011G22KT 10SM FEW200 BKN250 24/M03 A2988 RMK AO2 SLP095 T02441033,0,11.0,1,16090,0,0,0,
2026-04-09 14:56:00,METAR KLAS 091456Z 19005KT 10SM FEW200 BKN250 22/M03 A2988 RMK AO2 SLP096 T02221028 53017,0,5.0,0,16090,0,0,0,
2026-04-09 13:56:00,METAR KLAS 091356Z 19007KT 10SM FEW200 BKN250 21/M03 A2986 RMK AO2 SLP088 T02061033,0,7.0,0,16090,0,0,0,
2026-04-09 12:56:00,METAR KLAS 091256Z 21010KT 10SM BKN250 22/M03 A2983 RMK AO2 SLP077 T02171033,0,10.0,0,16090,0,0,0,
2026-04-09 11:56:00,METAR KLAS 091156Z 18010KT 10SM BKN250 22/M04 A2983 RMK AO2 SLP075 T02171039 10256 20217 55001,0,10.0,0,16090,0,0,0,
2026-04-09 10:56:00,METAR KLAS 091056Z 19007KT 10SM BKN250 23/M03 A2982 RMK AO2 SLP074 T02281033,0,7.0,0,16090,0,0,0,
2026-04-09 09:56:00,METAR KLAS 090956Z 20007KT 10SM BKN250 23/M04 A2983 RMK AO2 SLP075 T02331039,0,7.0,0,16090,0,0,0,
2026-04-09 08:56:00,METAR KLAS 090856Z 19008KT 10SM BKN250 23/M04 A2983 RMK AO2 SLP076 T02331044 50002,0,8.0,0,16090,0,0,0,
2026-04-09 07:56:00,METAR KLAS 090756Z 21010KT 10SM SCT250 24/M06 A2983 RMK AO2 SLP078 T02391056 403280189,0,10.0,0,16090,0,0,0,
2026-04-09 06:56:00,METAR KLAS 090656Z 19008KT 10SM FEW250 24/M07 A2983 RMK AO2 SLP076 T02441072,0,8.0,0,16090,0,0,0,
2026-04-09 05:56:00,METAR KLAS 090556Z 18007KT 10SM FEW250 26/M07 A2982 RMK AO2 SLP076 T02561067 10328 20256 51014,0,7.0,0,16090,0,0,0,
2026-04-09 04:56:00,METAR KLAS 090456Z 19006KT 10SM CLR 27/M06 A2982 RMK AO2 SLP076 T02671061,0,6.0,0,16090,0,0,0,
2026-04-09 03:56:00,METAR KLAS 090356Z 22007KT 10SM CLR 27/M07 A2981 RMK AO2 SLP071 T02721072,0,7.0,0,16090,0,0,0,
2026-04-09 02:56:00,METAR KLAS 090256Z 24011KT 10SM CLR 29/M07 A2978 RMK AO2 SLP062 T02941072 55003,0,11.0,0,16090,0,0,0,
2026-04-09 02:01:00,SPECI KLAS 090201Z 23011KT 10SM CLR 31/M05 A2977 RMK AO2 T03061050,0,11.0,0,16090,0,0,0,
2026-04-09 01:56:00,METAR KLAS 090156Z 24010G19KT 10SM FEW140 FEW250 31/M05 A2977 RMK AO2 SLP059 T03111050,0,10.0,1,16090,0,0,0,
2026-04-09 01:05:00,SPECI KLAS 090105Z 02006KT 10SM FEW140 FEW250 32/M07 A2977 RMK AO2 T03171067,0,6.0,0,16090,0,0,0,
2026-04-09 00:56:00,METAR KLAS 090056Z 03012G17KT 10SM FEW140 FEW250 32/M07 A2977 RMK AO2 SLP058 T03221067,0,12.0,1,16090,0,0,0,
2026-04-08 23:56:00,METAR KLAS 082356Z 08010KT 10SM FEW140 SCT250 33/M07 A2979 RMK AO2 SLP064 T03281067 10328 20272 56021,0,10.0,0,16090,0,0,0,
2026-04-08 22:56:00,METAR KLAS 082256Z 07007KT 10SM FEW140 FEW250 32/M07 A2981 RMK AO2 SLP069 T03221067,0,7.0,0,16090,0,0,0,
2026-04-08 21:56:00,METAR KLAS 082156Z VRB03KT 10SM FEW140 FEW250 32/M07 A2983 RMK AO2 SLP077 T03171067,0,3.0,0,16090,0,0,0,
2026-04-08 20:56:00,METAR KLAS 082056Z VRB03KT 10SM FEW140 FEW250 32/M06 A2986 RMK AO2 SLP086 T03171061 58024,0,3.0,0,16090,0,0,0,
2026-04-08 19:56:00,METAR KLAS 081956Z VRB03KT 10SM FEW140 FEW250 30/M06 A2988 RMK AO2 SLP095 T03001061,0,3.0,0,16090,0,0,0,
2026-04-08 18:56:00,METAR KLAS 081856Z 06003KT 10SM FEW250 28/M07 A2991 RMK AO2 SLP107 T02831067,0,3.0,0,16090,0,0,0,
2026-04-08 17:56:00,METAR KLAS 081756Z VRB03KT 10SM CLR 27/M07 A2993 RMK AO2 SLP113 T02721067 10272 20189 51005,0,3.0,0,16090,0,0,0,
2026-04-08 16:56:00,METAR KLAS 081656Z 00000KT 10SM FEW250 26/M06 A2993 RMK AO2 SLP113 T02561056,0,0.0,0,16090,0,0,0,
2026-04-08 15:56:00,METAR KLAS 081556Z 04005KT 10SM FEW250 24/M07 A2992 RMK AO2 SLP109 T02391067,0,5.0,0,16090,0,0,0,
2026-04-08 14:56:00,METAR KLAS 081456Z 04005KT 10SM FEW250 22/M05 A2992 RMK AO2 SLP108 T02171050 53017,0,5.0,0,16090,0,0,0,
2026-04-08 13:56:00,METAR KLAS 081356Z 00000KT 10SM SCT250 19/M05 A2989 RMK AO2 SLP101 T01941050,0,0.0,0,16090,0,0,0,
2026-04-08 12:56:00,METAR KLAS 081256Z 20006KT 10SM FEW250 19/M06 A2988 RMK AO2 SLP095 T01941056,0,6.0,0,16090,0,0,0,
2026-04-08 11:56:00,METAR KLAS 081156Z 16003KT 10SM FEW250 20/M06 A2986 RMK AO2 SLP090 T02001056 10250 20200 53001,0,3.0,0,16090,0,0,0,
2026-04-08 10:56:00,METAR KLAS 081056Z VRB06KT 10SM FEW250 22/M07 A2986 RMK AO2 SLP088 T02171072,0,6.0,0,16090,0,0,0,
2026-04-08 09:56:00,METAR KLAS 080956Z 21006KT 10SM CLR 21/M07 A2986 RMK AO2 SLP089 T02111067,0,6.0,0,16090,0,0,0,
2026-04-08 08:56:00,METAR KLAS 080856Z 28003KT 10SM CLR 23/M07 A2986 RMK AO2 SLP089 T02281072 58000,0,3.0,0,16090,0,0,0,
2026-04-08 07:56:00,METAR KLAS 080756Z 20007KT 10SM CLR 23/M07 A2986 RMK AO2 SLP089 T02331072 403220167,0,7.0,0,16090,0,0,0,
2026-04-08 06:56:00,METAR KLAS 080656Z 22006KT 10SM CLR 23/M09 A2987 RMK AO2 SLP092 T02331089,0,6.0,0,16090,0,0,0,
2026-04-08 05:56:00,METAR KLAS 080556Z 18005KT 10SM CLR 25/M08 A2986 RMK AO2 SLP090 T02501083 10322 20250 51011,0,5.0,0,16090,0,0,0,
2026-04-08 04:56:00,METAR KLAS 080456Z 18005KT 10SM CLR 26/M08 A2986 RMK AO2 SLP091 T02611083,0,5.0,0,16090,0,0,0,
2026-04-08 03:56:00,METAR KLAS 080356Z 27006KT 10SM CLR 27/M09 A2985 RMK AO2 SLP086 T02721089,0,6.0,0,16090,0,0,0,
2026-04-08 02:56:00,METAR KLAS 080256Z 27008KT 10SM CLR 29/M08 A2983 RMK AO2 SLP080 T02891083 55001,0,8.0,0,16090,0,0,0,
2026-04-08 01:56:00,METAR KLAS 080156Z 26007KT 10SM FEW250 31/M08 A2983 RMK AO2 SLP079 T03061083,0,7.0,0,16090,0,0,0,
2026-04-08 00:56:00,METAR KLAS 080056Z 17008KT 10SM FEW250 32/M09 A2983 RMK AO2 SLP079 T03171089,0,8.0,0,16090,0,0,0,
2026-04-07 23:56:00,METAR KLAS 072356Z 10005KT 10SM FEW250 32/M09 A2983 RMK AO2 SLP082 T03171094 10322 20256 56025,0,5.0,0,16090,0,0,0,
2026-04-07 22:56:00,METAR KLAS 072256Z 06004KT 10SM FEW250 32/M09 A2985 RMK AO2 SLP087 T03171089,0,4.0,0,16090,0,0,0,
2026-04-07 21:56:00,METAR KLAS 072156Z 07006KT 10SM SCT250 31/M08 A2988 RMK AO2 SLP096 T03111083,0,6.0,0,16090,0,0,0,
2026-04-07 20:56:00,METAR KLAS 072056Z 36006KT 10SM FEW140 BKN250 30/M09 A2991 RMK AO2 SLP106 T03001094 58024,0,6.0,0,16090,0,0,0,
2026-04-07 19:56:00,METAR KLAS 071956Z VRB04KT 10SM FEW140 SCT250 28/M09 A2994 RMK AO2 SLP116 T02831094,0,4.0,0,16090,0,0,0,
2026-04-07 18:56:00,METAR KLAS 071856Z 03004KT 10SM FEW140 FEW250 27/M08 A2997 RMK AO2 SLP127 T02671083,0,4.0,0,16090,0,0,0,
2026-04-07 17:56:00,METAR KLAS 071756Z 01003KT 10SM FEW250 26/M08 A2999 RMK AO2 SLP135 T02561083 10256 20167 50002,0,3.0,0,16090,0,0,0,
2026-04-07 16:56:00,METAR KLAS 071656Z 00000KT 10SM FEW250 24/M07 A2999 RMK AO2 SLP136 T02391072,0,0.0,0,16090,0,0,0,
2026-04-07 15:56:00,METAR KLAS 071556Z 31004KT 10SM FEW250 22/M08 A2999 RMK AO2 SLP135 T02171078,0,4.0,0,16090,0,0,0,
2026-04-07 14:56:00,METAR KLAS 071456Z 21004KT 10SM CLR 19/M06 A2998 RMK AO2 SLP133 T01941061 53019,0,4.0,0,16090,0,0,0,
2026-04-07 13:56:00,METAR KLAS 071356Z 00000KT 10SM CLR 17/M07 A2996 RMK AO2 SLP127 T01721067,0,0.0,0,16090,0,0,0,
2026-04-07 12:56:00,METAR KLAS 071256Z 23004KT 10SM CLR 17/M07 A2994 RMK AO2 SLP119 T01671072,0,4.0,0,16090,0,0,0,
2026-04-07 11:56:00,METAR KLAS 071156Z 00000KT 10SM CLR 17/M06 A2992 RMK AO2 SLP113 T01721056 10228 20172 53003,0,0.0,0,16090,0,0,0,
2026-04-07 10:56:00,METAR KLAS 071056Z 30003KT 10SM CLR 18/M07 A2992 RMK AO2 SLP110 T01781067,0,3.0,0,16090,0,0,0,
2026-04-07 09:56:00,METAR KLAS 070956Z 20004KT 10SM CLR 19/M05 A2991 RMK AO2 SLP108 T01941050,0,4.0,0,16090,0,0,0,
2026-04-07 08:56:00,METAR KLAS 070856Z 19006KT 10SM CLR 21/M10 A2992 RMK AO2 SLP109 T02111100 53004,0,6.0,0,16090,0,0,0,
2026-04-07 07:56:00,METAR KLAS 070756Z 21006KT 10SM FEW250 21/M12 A2991 RMK AO2 SLP108 T02111117 403060172,0,6.0,0,16090,0,0,0,
2026-04-07 06:56:00,METAR KLAS 070656Z 20004KT 10SM FEW250 22/M12 A2990 RMK AO2 SLP105 T02221122,0,4.0,0,16090,0,0,0,
2026-04-07 05:56:00,METAR KLAS 070556Z 18004KT 10SM FEW250 23/M11 A2990 RMK AO2 SLP105 T02281111 10306 20228 51011,0,4.0,0,16090,0,0,0,
2026-04-07 04:56:00,METAR KLAS 070456Z 19004KT 10SM SCT250 24/M12 A2990 RMK AO2 SLP104 T02391117,0,4.0,0,16090,0,0,0,
2026-04-07 03:56:00,METAR KLAS 070356Z 23008KT 10SM SCT250 26/M12 A2989 RMK AO2 SLP101 T02561122,0,8.0,0,16090,0,0,0,
2026-04-07 02:56:00,METAR KLAS 070256Z 26010KT 10SM FEW150 BKN250 28/M12 A2987 RMK AO2 SLP094 T02781122 53003,0,10.0,0,16090,0,0,0,
2026-04-07 01:56:00,METAR KLAS 070156Z 26011KT 10SM SCT150 BKN250 29/M12 A2985 RMK AO2 SLP089 T02891117,0,11.0,0,16090,0,0,0,
2026-04-07 00:56:00,METAR KLAS 070056Z 17007KT 10SM FEW150 OVC220 30/M11 A2985 RMK AO2 SLP089 T03001111,0,7.0,0,16090,0,0,0,
2026-04-06 23:56:00,METAR KLAS 062356Z 24008KT 10SM FEW100 FEW130 BKN200 31/M12 A2986 RMK AO2 SLP091 T03061122 10306 20250 56022,0,8.0,0,16090,0,0,0,
2026-04-06 22:56:00,METAR KLAS 062256Z VRB03KT 10SM FEW100 FEW130 BKN200 29/M12 A2987 RMK AO2 SLP096 T02941122,0,3.0,0,16090,0,0,0,
2026-04-06 21:56:00,METAR KLAS 062156Z 16007KT 10SM FEW100 SCT130 BKN200 29/M11 A2990 RMK AO2 SLP105 T02941106,0,7.0,0,16090,0,0,0,
2026-04-06 20:56:00,METAR KLAS 062056Z 09005KT 10SM FEW100 SCT130 BKN200 28/M08 A2993 RMK AO2 SLP114 T02831083 58018,0,5.0,0,16090,0,0,0,
2026-04-06 19:56:00,METAR KLAS 061956Z 06004KT 10SM FEW100 FEW130 BKN200 27/M09 A2995 RMK AO2 SLP122 T02671094,0,4.0,0,16090,0,0,0,
2026-04-06 18:56:00,METAR KLAS 061856Z 08003KT 10SM FEW130 BKN200 26/M09 A2997 RMK AO2 SLP128 T02611094,0,3.0,0,16090,0,0,0,
2026-04-06 17:56:00,METAR KLAS 061756Z 03003KT 10SM FEW130 BKN200 25/M08 A2999 RMK AO2 SLP135 T02501078 10256 20178 50002,0,3.0,0,16090,0,0,0,
2026-04-06 16:56:00,METAR KLAS 061656Z 00000KT 10SM FEW130 BKN200 24/M08 A2999 RMK AO2 SLP136 T02391078,0,0.0,0,16090,0,0,0,
2026-04-06 15:56:00,METAR KLAS 061556Z 00000KT 10SM SCT130 OVC200 21/M06 A2999 RMK AO2 SLP135 T02111056,0,0.0,0,16090,0,0,0,
2026-04-06 14:56:00,METAR KLAS 061456Z 00000KT 10SM BKN130 OVC200 19/M06 A2998 RMK AO2 SLP133 T01941061 53007,0,0.0,0,16090,0,0,0,
2026-04-06 13:56:00,METAR KLAS 061356Z 21003KT 10SM SCT130 OVC200 18/M07 A2996 RMK AO2 SLP127 T01831072,0,3.0,0,16090,0,0,0,
2026-04-06 12:56:00,METAR KLAS 061256Z 21004KT 10SM OVC200 18/M08 A2995 RMK AO2 SLP123 T01831078,0,4.0,0,16090,0,0,0,
2026-04-06 11:56:00,METAR KLAS 061156Z 21005KT 10SM OVC230 17/M08 A2996 RMK AO2 SLP126 T01721078 10217 20172 56006,0,5.0,0,16090,0,0,0,
2026-04-06 10:56:00,METAR KLAS 061056Z 21005KT 10SM OVC230 18/M08 A2996 RMK AO2 SLP127 T01831083,0,5.0,0,16090,0,0,0,
2026-04-06 09:56:00,METAR KLAS 060956Z 00000KT 10SM BKN230 19/M07 A2997 RMK AO2 SLP130 T01891072,0,0.0,0,16090,0,0,0,
2026-04-06 08:56:00,METAR KLAS 060856Z 22003KT 10SM BKN250 19/M08 A2998 RMK AO2 SLP133 T01891078 58001,0,3.0,0,16090,0,0,0,
2026-04-06 07:56:00,METAR KLAS 060756Z 23004KT 10SM BKN250 19/M09 A2999 RMK AO2 SLP136 T01941089 402890128,0,4.0,0,16090,0,0,0,
2026-04-06 06:56:00,METAR KLAS 060656Z 21005KT 10SM SCT250 21/M09 A2998 RMK AO2 SLP133 T02061089,0,5.0,0,16090,0,0,0,
2026-04-06 05:56:00,METAR KLAS 060556Z 23005KT 10SM FEW250 21/M09 A2998 RMK AO2 SLP134 T02111089 10289 20211 50004,0,5.0,0,16090,0,0,0,
2026-04-06 04:56:00,METAR KLAS 060456Z 22005KT 10SM FEW250 22/M08 A2999 RMK AO2 SLP137 T02171083,0,5.0,0,16090,0,0,0,
2026-04-06 03:56:00,METAR KLAS 060356Z 22003KT 10SM FEW250 25/M09 A2998 RMK AO2 SLP135 T02501094,0,3.0,0,16090,0,0,0,
2026-04-06 02:56:00,METAR KLAS 060256Z VRB03KT 10SM FEW250 27/M11 A2997 RMK AO2 SLP131 T02671106 56009,0,3.0,0,16090,0,0,0,
2026-04-06 01:56:00,METAR KLAS 060156Z 28004KT 10SM FEW250 28/M11 A2997 RMK AO2 SLP132 T02781106,0,4.0,0,16090,0,0,0,
2026-04-06 00:56:00,METAR KLAS 060056Z 30003KT 10SM SCT250 28/M11 A2998 RMK AO2 SLP135 T02831106,0,3.0,0,16090,0,0,0,
2026-04-05 23:56:00,METAR KLAS 052356Z VRB03KT 10SM FEW200 SCT250 28/M10 A3000 RMK AO2 SLP140 T02831100 10289 20239 56021,0,3.0,0,16090,0,0,0,
2026-04-05 22:56:00,METAR KLAS 052256Z 01005KT 10SM FEW200 BKN250 29/M10 A3001 RMK AO2 SLP145 T02891100,0,5.0,0,16090,0,0,0,
2026-04-05 21:56:00,METAR KLAS 052156Z COR VRB03KT 10SM FEW200 FEW250 28/M10 A3003 RMK AO2 SLP154 T02781100,0,3.0,0,16090,0,0,0,
2026-04-05 21:09:00,SPECI KLAS 052109Z 07006KT 10SM FEW200 28/M10 A3006 RMK AO2 T02831100,0,6.0,0,16090,0,0,0,
2026-04-05 21:03:00,SPECI KLAS 052103Z VRB06G14KT 10SM FEW200 27/M09 A3006 RMK AO2 T02721094,0,6.0,1,16090,0,0,0,
2026-04-05 20:56:00,METAR KLAS 052056Z 04009G16KT 10SM FEW200 27/M09 A3006 RMK AO2 SLP163 T02721094 58026,0,9.0,1,16090,0,0,0,
2026-04-05 19:56:00,METAR KLAS 051956Z VRB05KT 10SM FEW200 26/M09 A3009 RMK AO2 SLP172 T02611094,0,5.0,0,16090,0,0,0,
2026-04-05 18:56:00,METAR KLAS 051856Z 07008KT 10SM FEW200 26/M09 A3012 RMK AO2 SLP184 T02561094,0,8.0,0,16090,0,0,0,
2026-04-05 17:56:00,METAR KLAS 051756Z 01008KT 10SM FEW200 24/M08 A3014 RMK AO2 SLP191 T02391078 10239 20128 58002,0,8.0,0,16090,0,0,0,
2026-04-05 16:56:00,METAR KLAS 051656Z VRB03KT 10SM FEW200 22/M08 A3015 RMK AO2 SLP195 T02171083,0,3.0,0,16090,0,0,0,
2026-04-05 15:56:00,METAR KLAS 051556Z 00000KT 10SM FEW200 19/M08 A3016 RMK AO2 SLP196 T01941078,0,0.0,0,16090,0,0,0,
2026-04-05 14:56:00,METAR KLAS 051456Z 20003KT 10SM FEW200 17/M07 A3015 RMK AO2 SLP195 T01671072 53014,0,3.0,0,16090,0,0,0,
2026-04-05 12:56:00,METAR KLAS 051256Z 20004KT 10SM CLR 13/M09 A3012 RMK AO2 SLP184 T01331094,0,4.0,0,16090,0,0,0,
2026-04-05 11:56:00,METAR KLAS 051156Z 20004KT 10SM CLR 13/M08 A3011 RMK AO2 SLP181 T01331083 10200 20133 56005,0,4.0,0,16090,0,0,0,
2026-04-05 10:56:00,METAR KLAS 051056Z 22004KT 10SM CLR 14/M09 A3011 RMK AO2 SLP182 T01441094,0,4.0,0,16090,0,0,0,
2026-04-05 09:56:00,METAR KLAS 050956Z 23005KT 10SM CLR 16/M09 A3011 RMK AO2 SLP182 T01561089,0,5.0,0,16090,0,0,0,
2026-04-05 08:56:00,METAR KLAS 050856Z 25003KT 10SM CLR 16/M09 A3012 RMK AO2 SLP186 T01611089 51008,0,3.0,0,16090,0,0,0,
2026-04-05 07:56:00,METAR KLAS 050756Z 22004KT 10SM FEW250 17/M11 A3012 RMK AO2 SLP185 T01671106 402610122,0,4.0,0,16090,0,0,0,
2026-04-05 06:56:00,METAR KLAS 050656Z 21003KT 10SM FEW250 18/M10 A3011 RMK AO2 SLP180 T01781100,0,3.0,0,16090,0,0,0,
2026-04-05 05:56:00,METAR KLAS 050556Z 20004KT 10SM FEW250 19/M09 A3010 RMK AO2 SLP176 T01941094 10261 20194 51007,0,4.0,0,16090,0,0,0,
2026-04-05 04:56:00,METAR KLAS 050456Z 29006KT 10SM FEW250 21/M08 A3009 RMK AO2 SLP176 T02061083,0,6.0,0,16090,0,0,0,
2026-04-05 03:56:00,METAR KLAS 050356Z 32005KT 10SM FEW250 23/M13 A3009 RMK AO2 SLP175 T02281133,0,5.0,0,16090,0,0,0,
2026-04-05 02:56:00,METAR KLAS 050256Z 02006KT 10SM BKN250 23/M13 A3007 RMK AO2 SLP170 T02331133 56005,0,6.0,0,16090,0,0,0,
2026-04-05 01:56:00,METAR KLAS 050156Z 04006KT 10SM BKN250 24/M15 A3007 RMK AO2 SLP170 T02441150,0,6.0,0,16090,0,0,0,
2026-04-05 00:56:00,METAR KLAS 050056Z 36008KT 10SM BKN250 26/M16 A3007 RMK AO2 SLP170 T02561156,0,8.0,0,16090,0,0,0,
2026-04-04 23:56:00,METAR KLAS 042356Z 05012KT 10SM BKN250 26/M14 A3009 RMK AO2 SLP176 T02561139 10256 20200 56027,0,12.0,0,16090,0,0,0,
2026-04-04 22:56:00,METAR KLAS 042256Z 05011KT 10SM BKN250 26/M14 A3011 RMK AO2 SLP181 T02561139,0,11.0,0,16090,0,0,0,
2026-04-04 21:56:00,METAR KLAS 042156Z 02013G18KT 10SM BKN250 25/M12 A3014 RMK AO2 WSHFT 2052 SLP191 T02501122,0,13.0,1,16090,0,0,0,
2026-04-04 21:12:00,SPECI KLAS 042112Z 04012G22KT 10SM SCT250 24/M11 A3016 RMK AO2 WSHFT 2052 T02441106,0,12.0,1,16090,0,0,0,
2026-04-04 20:56:00,METAR KLAS 042056Z 06012G20KT 10SM SCT250 24/M11 A3018 RMK AO2 SLP204 T02391106 58024,0,12.0,1,16090,0,0,0,
2026-04-04 19:56:00,METAR KLAS 041956Z 06011G21KT 10SM SCT250 23/M10 A3021 RMK AO2 SLP216 T02281100,0,11.0,1,16090,0,0,0,
2026-04-04 18:56:00,METAR KLAS 041856Z 06012G21KT 10SM FEW250 22/M10 A3023 RMK AO2 SLP225 T02171100,0,12.0,1,16090,0,0,0,
2026-04-04 18:03:00,SPECI KLAS 041803Z 36014G20KT 10SM FEW250 21/M09 A3025 RMK AO2 T02061094,0,14.0,1,16090,0,0,0,
2026-04-04 17:56:00,METAR KLAS 041756Z 03010G17KT 10SM FEW250 20/M09 A3025 RMK AO2 SLP231 T02001094 10200 20122 58004,0,10.0,1,16090,0,0,0,
2026-04-04 16:56:00,METAR KLAS 041656Z VRB04KT 10SM FEW250 18/M08 A3026 RMK AO2 SLP237 T01781078,0,4.0,0,16090,0,0,0,
2026-04-04 15:56:00,METAR KLAS 041556Z 00000KT 10SM FEW250 16/M08 A3027 RMK AO2 SLP239 T01561078,0,0.0,0,16090,0,0,0,
2026-04-04 14:56:00,METAR KLAS 041456Z VRB03KT 10SM FEW250 15/M08 A3026 RMK AO2 SLP237 T01501083 52011,0,3.0,0,16090,0,0,0,
2026-04-04 13:56:00,METAR KLAS 041356Z 05005KT 10SM FEW250 14/M09 A3026 RMK AO2 SLP235 T01391094,0,5.0,0,16090,0,0,0,
2026-04-04 12:56:00,METAR KLAS 041256Z 06007KT 10SM FEW250 13/M09 A3024 RMK AO2 SLP229 T01281094,0,7.0,0,16090,0,0,0,
2026-04-04 11:56:00,METAR KLAS 041156Z 07007KT 10SM CLR 13/M09 A3023 RMK AO2 SLP225 T01331089 10178 20133 55003,0,7.0,0,16090,0,0,0,
2026-04-04 10:56:00,METAR KLAS 041056Z 05005KT 10SM CLR 14/M09 A3023 RMK AO2 SLP224 T01391094,0,5.0,0,16090,0,0,0,
2026-04-04 09:56:00,METAR KLAS 040956Z 07010KT 10SM CLR 14/M09 A3023 RMK AO2 SLP227 T01441094,0,10.0,0,16090,0,0,0,
2026-04-04 08:56:00,METAR KLAS 040856Z 10003KT 10SM CLR 16/M09 A3024 RMK AO2 SLP228 T01561094 50004,0,3.0,0,16090,0,0,0,
2026-04-04 07:56:00,METAR KLAS 040756Z 00000KT 10SM CLR 16/M09 A3024 RMK AO2 SLP231 T01561094 402170122,0,0.0,0,16090,0,0,0,
2026-04-04 06:56:00,METAR KLAS 040656Z 05008KT 10SM CLR 17/M09 A3024 RMK AO2 SLP228 T01671094,0,8.0,0,16090,0,0,0,
2026-04-04 05:56:00,METAR KLAS 040556Z 05008KT 10SM CLR 17/M10 A3023 RMK AO2 SLP225 T01721100 10217 20172 51016,0,8.0,0,16090,0,0,0,
2026-04-04 04:56:00,METAR KLAS 040456Z 02007KT 10SM CLR 18/M11 A3022 RMK AO2 SLP221 T01781111,0,7.0,0,16090,0,0,0,
2026-04-04 03:56:00,METAR KLAS 040356Z 05008KT 10SM CLR 19/M11 A3020 RMK AO2 SLP214 T01891111,0,8.0,0,16090,0,0,0,
2026-04-04 02:56:00,METAR KLAS 040256Z 01010KT 10SM FEW250 20/M12 A3017 RMK AO2 SLP207 T02001122 53002,0,10.0,0,16090,0,0,0,
2026-04-04 01:56:00,METAR KLAS 040156Z 04014KT 10SM FEW250 21/M12 A3017 RMK AO2 SLP204 T02061122,0,14.0,0,16090,0,0,0,
2026-04-04 00:56:00,METAR KLAS 040056Z 03015G22KT 10SM FEW250 21/M13 A3016 RMK AO2 SLP203 T02111128,0,15.0,1,16090,0,0,0,
2026-04-03 23:56:00,METAR KLAS 032356Z 03012G22KT 10SM FEW250 22/M14 A3017 RMK AO2 PK WND 04026/2310 SLP204 T02171139 10217 20167 56016,0,12.0,1,16090,0,0,0,
2026-04-03 22:56:00,METAR KLAS 032256Z 03014G26KT 10SM FEW250 21/M14 A3018 RMK AO2 PK WND 03026/2252 SLP207 T02111139,0,14.0,1,16090,0,0,0,
2026-04-03 21:56:00,METAR KLAS 032156Z 05021G27KT 10SM FEW250 21/M15 A3020 RMK AO2 PK WND 06027/2149 SLP215 T02061150,0,21.0,1,16090,0,0,0,
2026-04-03 20:56:00,METAR KLAS 032056Z 05020G26KT 10SM FEW250 20/M14 A3022 RMK AO2 PK WND 05026/2015 SLP221 T02001144 58015,0,20.0,1,16090,0,0,0,
2026-04-03 19:56:00,METAR KLAS 031956Z 05020G27KT 10SM FEW250 18/M14 A3024 RMK AO2 PK WND 04029/1902 SLP229 T01831139,0,20.0,1,16090,0,0,0,
2026-04-03 18:56:00,METAR KLAS 031856Z 04020G29KT 10SM CLR 17/M13 A3026 RMK AO2 PK WND 04034/1822 SLP233 T01721133,0,20.0,1,16090,0,0,0,
2026-04-03 17:56:00,METAR KLAS 031756Z 04018G27KT 10SM CLR 17/M15 A3027 RMK AO2 PK WND 02029/1738 SLP236 T01671150 10167 20122 53007,0,18.0,1,16090,0,0,0,
2026-04-03 17:01:00,SPECI KLAS 031701Z 34015G22KT 10SM CLR 15/M13 A3026 RMK AO2 T01501128,0,15.0,1,16090,0,0,0,
2026-04-03 16:56:00,METAR KLAS 031656Z 01015G22KT 10SM CLR 15/M12 A3026 RMK AO2 PK WND 34027/1641 SLP236 T01501122,0,15.0,1,16090,0,0,0,
2026-04-03 16:02:00,SPECI KLAS 031602Z 36016G24KT 10SM CLR 14/M12 A3025 RMK AO2 T01391122,0,16.0,1,16090,0,0,0,
2026-04-03 15:56:00,METAR KLAS 031556Z 01014G24KT 10SM CLR 14/M12 A3025 RMK AO2 SLP234 T01391122,0,14.0,1,16090,0,0,0,
2026-04-03 14:56:00,METAR KLAS 031456Z 35014G27KT 10SM CLR 13/M12 A3024 RMK AO2 PK WND 32027/1452 SLP231 T01281117 51031,0,14.0,1,16090,0,0,0,
2026-04-03 13:56:00,METAR KLAS 031356Z 35016G23KT 10SM CLR 12/M13 A3022 RMK AO2 PK WND 02027/1301 SLP221 T01221128,0,16.0,1,16090,0,0,0,
2026-04-03 12:56:00,METAR KLAS 031256Z 36019G26KT 10SM CLR 13/M13 A3018 RMK AO2 PK WND 34028/1217 SLP208 T01281133,0,19.0,1,16090,0,0,0,
2026-04-03 11:56:00,METAR KLAS 031156Z 01017KT 10SM CLR 13/M14 A3015 RMK AO2 PK WND 01031/1100 SLP196 T01331139 10211 20133 53030,0,17.0,0,16090,0,0,0,
2026-04-03 08:56:00,METAR KLAS 030856Z 36021G30KT 10SM CLR 16/M09 A3005 RMK AO2 PK WND 36040/0824 SLP163 T01611094 51046,0,21.0,1,16090,0,0,0,
2026-04-03 05:56:00,METAR KLAS 030556Z 34020G27KT 10SM CLR 21/M11 A2991 RMK AO2 PK WND 31029/0518 SLP111 T02111111 10239 20194 51033,0,20.0,1,16090,0,0,0,
2026-04-03 04:56:00,METAR KLAS 030456Z COR 21004KT 10SM CLR 19/03 A2988 RMK AO2 SLP104 T01940028,0,4.0,0,16090,0,0,0,
2026-04-03 03:56:00,METAR KLAS 030356Z 21006KT 10SM CLR 21/03 A2984 RMK AO2 SLP090 T02060028,0,6.0,0,16090,0,0,0,
2026-04-03 02:56:00,METAR KLAS 030256Z 21010KT 10SM CLR 22/03 A2981 RMK AO2 SLP078 T02170028 53012,0,10.0,0,16090,0,0,0,
2026-04-03 01:56:00,METAR KLAS 030156Z 20009KT 10SM FEW140 FEW200 23/03 A2978 RMK AO2 SLP070 T02280028,0,9.0,0,16090,0,0,0,
2026-04-03 00:56:00,METAR KLAS 030056Z 18009KT 10SM FEW140 FEW200 23/03 A2977 RMK AO2 SLP066 T02330028,0,9.0,0,16090,0,0,0,
2026-04-02 23:56:00,METAR KLAS 022356Z 17010G16KT 10SM FEW140 FEW200 23/03 A2977 RMK AO2 SLP065 T02330028 10233 20194 55008,0,10.0,1,16090,0,0,0,
2026-04-02 22:56:00,METAR KLAS 022256Z 17012G24KT 10SM FEW140 SCT200 23/03 A2976 RMK AO2 SLP062 T02280033,0,12.0,1,16090,0,0,0,
2026-04-02 21:56:00,METAR KLAS 022156Z 17009G17KT 100V190 10SM FEW140 BKN200 22/03 A2977 RMK AO2 SLP065 T02220033,0,9.0,1,16090,0,0,0,
2026-04-02 20:56:00,METAR KLAS 022056Z 19007G15KT 10SM FEW140 BKN200 21/03 A2979 RMK AO2 SLP074 T02110033 58011,0,7.0,1,16090,0,0,0,
2026-04-02 19:56:00,METAR KLAS 021956Z 15008KT 10SM BKN200 20/04 A2981 RMK AO2 SLP081 T02000039 $,0,8.0,0,16090,0,0,0,
2026-04-02 18:56:00,METAR KLAS 021856Z 20010G15KT 10SM BKN200 20/04 A2982 RMK AO2 SLP083 T02000039 $,0,10.0,1,16090,0,0,0,
2026-04-02 17:56:00,METAR KLAS 021756Z 20011KT 10SM BKN200 20/04 A2983 RMK AO2 SLP085 T02000039 10200 20144 51014 $,0,11.0,0,16090,0,0,0,
2026-04-02 16:56:00,METAR KLAS 021656Z 20012G21KT 10SM FEW070 BKN200 17/04 A2982 RMK AO2 PK WND 21026/1605 SLP083 T01720044,0,12.0,1,16090,0,0,0,
2026-04-02 15:56:00,METAR KLAS 021556Z 20012G22KT 10SM FEW070 BKN200 17/04 A2980 RMK AO2 PK WND 20029/1500 SLP076 T01670044,0,12.0,1,16090,0,0,0,
2026-04-02 14:56:00,METAR KLAS 021456Z 21015G23KT 10SM FEW070 BKN200 16/04 A2978 RMK AO2 SLP071 T01560044 53019,0,15.0,1,16090,0,0,0,
2026-04-02 13:56:00,METAR KLAS 021356Z 21016G22KT 10SM FEW070 BKN200 14/04 A2976 RMK AO2 PK WND 21027/1341 SLP061 T01440044,0,16.0,1,16090,0,0,0,
2026-04-02 12:56:00,METAR KLAS 021256Z 20013G26KT 10SM FEW070 FEW200 15/04 A2974 RMK AO2 PK WND 21028/1236 SLP055 T01500044,0,13.0,1,16090,0,0,0,
2026-04-02 11:56:00,METAR KLAS 021156Z 22018G28KT 10SM FEW070 FEW250 15/04 A2973 RMK AO2 PK WND 21032/1142 SLP050 T01500044 10189 20150 56004,0,18.0,1,16090,0,0,0,
2026-04-02 10:56:00,METAR KLAS 021056Z 22022G31KT 10SM FEW060 FEW250 16/04 A2973 RMK AO2 PK WND 21032/1015 SLP050 T01560044,0,22.0,1,16090,0,0,0,
2026-04-02 09:56:00,METAR KLAS 020956Z 22019KT 10SM FEW070 FEW250 16/05 A2973 RMK AO2 PK WND 21034/0937 SLP049 T01560050,0,19.0,0,16090,0,0,0,
2026-04-02 08:56:00,METAR KLAS 020856Z 21022G31KT 10SM FEW075 FEW250 16/06 A2974 RMK AO2 PK WND 21032/0833 SLP054 T01610056 58009,0,22.0,1,16090,0,0,0,
2026-04-02 07:56:00,METAR KLAS 020756Z 21012G26KT 10SM FEW250 17/05 A2977 RMK AO2 PK WND 22027/0705 SLP065 T01670050 402440156,0,12.0,1,16090,0,0,0,
2026-04-02 06:56:00,METAR KLAS 020656Z 21013G27KT 10SM CLR 18/04 A2978 RMK AO2 PK WND 24031/0608 SLP069 T01780044,0,13.0,1,16090,0,0,0,
2026-04-02 05:56:00,METAR KLAS 020556Z 23024G34KT 10SM CLR 19/03 A2977 RMK AO2 PK WND 23034/0555 SLP065 T01890033 10244 20189 50003,0,24.0,1,16090,0,0,0,
2026-04-02 04:56:00,METAR KLAS 020456Z 21012G22KT 10SM CLR 20/03 A2977 RMK AO2 SLP066 T02000028,0,12.0,1,16090,0,0,0,
2026-04-02 03:56:00,METAR KLAS 020356Z 21009G18KT 10SM CLR 21/01 A2978 RMK AO2 SLP067 T02110011,0,9.0,1,16090,0,0,0,
2026-04-02 02:56:00,METAR KLAS 020256Z 22011G18KT 10SM FEW080 FEW250 22/01 A2976 RMK AO2 SLP061 T02220006 57003,0,11.0,1,16090,0,0,0,
2026-04-02 01:56:00,METAR KLAS 020156Z 23015G25KT 10SM FEW080 FEW250 23/01 A2976 RMK AO2 SLP063 T02280011,0,15.0,1,16090,0,0,0,
2026-04-02 00:56:00,METAR KLAS 020056Z 22016G25KT 10SM FEW080 23/01 A2976 RMK AO2 SLP062 T02330006,0,16.0,1,16090,0,0,0,
2026-04-01 23:56:00,METAR KLAS 012356Z 21015G20KT 10SM FEW080 24/M01 A2977 RMK AO2 PK WND 24026/2307 SLP063 T02391006 10244 20200 56022,0,15.0,1,16090,0,0,0,
2026-04-01 22:58:00,SPECI KLAS 012258Z 25012G17KT 10SM FEW080 FEW200 24/M01 A2978 RMK AO2 T02441006,0,12.0,1,16090,0,0,0,
2026-04-01 22:56:00,METAR KLAS 012256Z VRB05G15KT 10SM FEW080 FEW200 24/M01 A2978 RMK AO2 SLP068 T02441006,0,5.0,1,16090,0,0,0,
2026-04-01 21:56:00,METAR KLAS 012156Z 22008G14KT 10SM FEW080 SCT200 24/01 A2981 RMK AO2 SLP079 T02390011,0,8.0,1,16090,0,0,0,
2026-04-01 20:56:00,METAR KLAS 012056Z 19007G16KT 10SM FEW080 SCT200 23/02 A2984 RMK AO2 SLP087 T02330022 58014,0,7.0,1,16090,0,0,0,
2026-04-01 19:56:00,METAR KLAS 011956Z VRB03KT 10SM FEW110 FEW200 22/03 A2985 RMK AO2 SLP094 T02220028,0,3.0,0,16090,0,0,0,
2026-04-01 18:56:00,METAR KLAS 011856Z 23004KT 10SM FEW110 FEW200 21/02 A2987 RMK AO2 SLP098 T02110022,0,4.0,0,16090,0,0,0,
2026-04-01 17:56:00,METAR KLAS 011756Z 17005G22KT 10SM FEW110 FEW200 20/03 A2988 RMK AO2 SLP104 T02000033 10206 20156 51013,0,5.0,1,16090,0,0,0,
2026-04-01 16:56:00,METAR KLAS 011656Z 23007KT 10SM FEW070 FEW110 SCT200 19/03 A2987 RMK AO2 SLP101 T01890028,0,7.0,0,16090,0,0,0,
2026-04-01 15:56:00,METAR KLAS 011556Z 23007KT 10SM FEW070 FEW110 18/03 A2986 RMK AO2 SLP097 T01780033,0,7.0,0,16090,0,0,0,
2026-04-01 14:56:00,METAR KLAS 011456Z 23011KT 10SM FEW070 FEW110 17/03 A2984 RMK AO2 SLP090 T01670033 53022,0,11.0,0,16090,0,0,0,
2026-04-01 13:56:00,METAR KLAS 011356Z 21009KT 10SM FEW070 FEW110 16/04 A2981 RMK AO2 SLP079 T01560044,0,9.0,0,16090,0,0,0,
2026-04-01 12:56:00,METAR KLAS 011256Z 22006KT 10SM FEW080 SCT110 16/04 A2979 RMK AO2 PK WND 23030/1208 SLP069 T01610039,0,6.0,0,16090,0,0,0,
2026-04-01 11:56:00,METAR KLAS 011156Z 25012G22KT 10SM SCT080 BKN120 OVC170 17/04 A2977 RMK AO2 PK WND 26029/1141 SLP063 T01670044 10167 20156 55003,0,12.0,1,16090,0,0,0,
2026-04-01 10:56:00,METAR KLAS 011056Z 25014G22KT 10SM SCT060 BKN150 OVC200 17/04 A2976 RMK AO2 SLP059 TOPS OF MTNS OBSCURED DSNT W T01670044,0,14.0,1,16090,0,0,0,DS
2026-04-01 09:56:00,METAR KLAS 010956Z 23014KT 10SM BKN060 BKN100 OVC170 16/05 A2976 RMK AO2 PK WND 22030/0911 SLP059 TOPS OF MTNS OBSCURED DSNT W T01610050,0,14.0,0,16090,0,0,0,DS
2026-04-01 08:56:00,METAR KLAS 010856Z 22020G32KT 10SM FEW055 SCT110 BKN140 OVC190 16/06 A2978 RMK AO2 PK WND 21032/0849 SLP066 TOPS OF MTNS OBSCURED DSNT W T01610056 58019,0,20.0,1,16090,0,0,0,DS
2026-04-01 07:56:00,METAR KLAS 010756Z 18007KT 140V230 10SM FEW046 BKN055 OVC100 16/06 A2981 RMK AO2 PK WND 22026/0658 SLP077 TOPS OF MTNS OBSCURED DSNT W T01610061 402670161,0,7.0,0,16090,0,0,0,DS
2026-04-01 06:56:00,METAR KLAS 010656Z 22015G25KT 10SM OVC100 16/06 A2982 RMK AO2 PK WND 22035/0606 SLP081 T01610061,0,15.0,1,16090,0,0,0,
2026-04-01 05:56:00,METAR KLAS 010556Z 23020G30KT 10SM BKN100 17/05 A2984 RMK AO2 PK WND 23030/0551 SLP087 T01670050 10256 20167 50005,0,20.0,1,16090,0,0,0,
2026-04-01 04:56:00,METAR KLAS 010456Z 22014KT 10SM SCT085 18/05 A2985 RMK AO2 PK WND 21027/0442 SLP089 T01830050,0,14.0,0,16090,0,0,0,
2026-04-01 03:56:00,METAR KLAS 010356Z 21013G21KT 10SM FEW100 BKN120 OVC200 19/06 A2984 RMK AO2 PK WND 25028/0318 SLP085 T01940056,0,13.0,1,16090,0,0,0,
2026-04-01 02:56:00,METAR KLAS 010256Z 25019G32KT 10SM BKN100 BKN120 OVC200 21/04 A2982 RMK AO2 PK WND 24033/0206 SLP080 T02060039 51008,0,19.0,1,16090,0,0,0,
2026-04-01 01:56:00,METAR KLAS 010156Z 22015G30KT 10SM FEW100 BKN120 OVC200 22/03 A2982 RMK AO2 PK WND 22030/0156 SLP078 T02220028,0,15.0,1,16090,0,0,0,
2026-04-01 00:56:00,METAR KLAS 010056Z 24019G26KT 10SM FEW100 SCT120 OVC200 24/01 A2981 RMK AO2 PK WND 23032/2357 SLP073 T02440006,0,19.0,1,16090,0,0,0,
2026-03-31 23:56:00,METAR KLAS 312356Z 24022G34KT 10SM SCT100 BKN120 OVC200 26/00 A2980 RMK AO2 PK WND 26046/2300 SLP070 T02560000 10267 20244 58016,0,22.0,1,16090,0,0,0,
2026-03-31 22:56:00,METAR KLAS 312256Z 22022G35KT 10SM SCT100 BKN120 OVC200 26/00 A2982 RMK AO2 PK WND 24036/2203 SLP077 ACSL DSNT S AND W-NW T02560000,0,22.0,1,16090,0,0,0,DS
2026-03-31 22:05:00,SPECI KLAS 312205Z 25022G36KT 10SM FEW100 BKN120 OVC200 26/M01 A2984 RMK AO2 PK WND 24036/2203 ACSL DSNT S AND W-NW T02611006,0,22.0,1,16090,0,0,0,DS
2026-03-31 21:56:00,METAR KLAS 312156Z 24017G40KT 10SM FEW100 BKN120 OVC200 26/M01 A2984 RMK AO2 PK WND 24040/2151 SLP084 ACSL DSNT S AND W-NW T02611006,0,17.0,1,16090,0,0,0,DS
2026-03-31 20:56:00,METAR KLAS 312056Z 21029G41KT 9SM FEW100 BKN120 OVC200 27/M01 A2985 RMK AO2 PK WND 21041/2055 SLP085 ACSL DSNT S AND W-NW T02671006 58027,0,29.0,1,14481,0,0,0,DS
2026-03-31 19:56:00,METAR KLAS 311956Z 24012G21KT 10SM FEW100 BKN130 OVC200 26/M01 A2989 RMK AO2 PK WND 19034/1928 SLP100 ACSL DSNT W-NW T02561006,0,12.0,1,16090,0,0,0,DS
2026-03-31 18:56:00,METAR KLAS 311856Z 22017G25KT 10SM SCT100 BKN130 OVC200 26/01 A2990 RMK AO2 PK WND 19038/1808 SLP103 ACSL DSNT NW T02560006,0,17.0,1,16090,0,0,0,DS
2026-03-31 17:56:00,METAR KLAS 311756Z 22017G35KT 10SM SCT100 BKN150 OVC200 24/01 A2993 RMK AO2 PK WND 21036/1700 SLP115 VIRGA DSNT W ACSL DSNT NE T02440011 10250 20222 51016,0,17.0,1,16090,0,0,0,DS
2026-03-31 16:56:00,METAR KLAS 311656Z 21028G39KT 10SM SCT100 BKN150 OVC200 24/M01 A2992 RMK AO2 PK WND 21039/1656 SLP111 ACSL DSNT W-N T02441011,0,28.0,1,16090,0,0,0,DS
2026-03-31 15:56:00,METAR KLAS 311556Z 22015G25KT 10SM FEW110 BKN150 OVC200 25/M03 A2990 RMK AO2 PK WND 24032/1538 SLP101 ACSL DSNT SE AND NW T02501028,0,15.0,1,16090,0,0,0,DS
2026-03-31 14:56:00,METAR KLAS 311456Z 20006KT 10SM FEW110 BKN160 OVC200 23/M02 A2988 RMK AO2 SLP097 ACSL DSNT NW-N T02331022 51016 $,0,6.0,0,16090,0,0,0,DS
2026-03-31 13:56:00,METAR KLAS 311356Z 22012KT 10SM FEW100 BKN160 OVC200 22/M02 A2987 RMK AO2 SLP093 ACSL DSNT SE AND NW T02221017 $,0,12.0,0,16090,0,0,0,DS
2026-03-31 12:56:00,METAR KLAS 311256Z 23009KT 10SM BKN160 OVC200 22/M01 A2986 RMK AO2 SLP088 T02221011 $,0,9.0,0,16090,0,0,0,
2026-03-31 11:56:00,METAR KLAS 311156Z 22012KT 10SM BKN170 22/M02 A2983 RMK AO2 SLP079 T02221022 10256 20222 55003 $,0,12.0,0,16090,0,0,0,
2026-03-31 10:56:00,METAR KLAS 311056Z 21015KT 10SM FEW150 BKN190 22/M03 A2982 RMK AO2 PK WND 21027/0958 SLP077 T02221028 $,0,15.0,0,16090,0,0,0,
2026-03-31 09:56:00,METAR KLAS 310956Z 22021G30KT 10SM FEW150 BKN200 23/M04 A2983 RMK AO2 PK WND 20030/0949 SLP077 T02281039 $,0,21.0,1,16090,0,0,0,
2026-03-31 08:56:00,METAR KLAS 310856Z 22019G30KT 10SM BKN180 BKN220 24/M03 A2984 RMK AO2 PK WND 21030/0848 SLP080 T02391028 56003 $,0,19.0,1,16090,0,0,0,
2026-03-31 07:56:00,METAR KLAS 310756Z 21010G20KT 10SM SCT180 BKN220 24/M06 A2984 RMK AO2 SLP081 T02391056 403110217,0,10.0,1,16090,0,0,0,
2026-03-31 06:56:00,METAR KLAS 310656Z 22019G31KT 10SM SCT180 BKN220 25/M07 A2985 RMK AO2 PK WND 23032/0646 SLP083 T02501067,0,19.0,1,16090,0,0,0,
2026-03-31 05:56:00,METAR KLAS 310556Z 22018G33KT 10SM SCT170 OVC220 26/M08 A2985 RMK AO2 PK WND 21037/0515 SLP084 T02561083 10289 20256 50007,0,18.0,1,16090,0,0,0,
2026-03-31 04:56:00,METAR KLAS 310456Z 23020G31KT 10SM FEW150 SCT170 OVC220 27/M08 A2986 RMK AO2 PK WND 23031/0454 SLP085 T02671083,0,20.0,1,16090,0,0,0,
2026-03-31 03:56:00,METAR KLAS 310356Z 23016G28KT 10SM FEW150 BKN170 OVC220 27/M08 A2986 RMK AO2 PK WND 23028/0350 SLP088 T02721078,0,16.0,1,16090,0,0,0,
2026-03-31 02:56:00,METAR KLAS 310256Z 22015G23KT 10SM FEW150 BKN170 BKN220 28/M09 A2983 RMK AO2 SLP079 T02781089 55005,0,15.0,1,16090,0,0,0,
2026-03-31 01:56:00,METAR KLAS 310156Z 22012KT 10SM FEW150 BKN170 BKN220 28/M10 A2983 RMK AO2 SLP078 T02831100,0,12.0,0,16090,0,0,0,
2026-03-31 00:56:00,METAR KLAS 310056Z 22016KT 10SM FEW150 BKN170 BKN220 29/M12 A2984 RMK AO2 PK WND 22027/0035 SLP081 T02891122,0,16.0,0,16090,0,0,0,
2026-03-30 23:56:00,METAR KLAS 302356Z 23017G26KT 10SM BKN170 BKN220 29/M14 A2985 RMK AO2 PK WND 21028/2345 SLP084 T02891139 10311 20283 56013,0,17.0,1,16090,0,0,0,
2026-03-30 22:56:00,METAR KLAS 302256Z 23016G23KT 10SM SCT170 BKN220 30/M14 A2985 RMK AO2 PK WND 21026/2216 SLP085 T03001139,0,16.0,1,16090,0,0,0,
2026-03-30 21:56:00,METAR KLAS 302156Z 21016G24KT 10SM SCT170 BKN220 30/M14 A2988 RMK AO2 PK WND 21027/2121 SLP093 T03001139,0,16.0,1,16090,0,0,0,
2026-03-30 20:56:00,METAR KLAS 302056Z 21016G23KT 10SM SCT170 BKN220 31/M13 A2989 RMK AO2 PK WND 21029/2037 SLP095 T03111128 58021,0,16.0,1,16090,0,0,0,
2026-03-30 19:56:00,METAR KLAS 301956Z 23017G26KT 10SM SCT170 OVC250 30/M14 A2992 RMK AO2 PK WND 23030/1946 SLP106 T03001139,0,17.0,1,16090,0,0,0,
2026-03-30 18:56:00,METAR KLAS 301856Z 23016G25KT 10SM SCT170 OVC250 29/M13 A2994 RMK AO2 PK WND 20026/1845 SLP113 T02941128,0,16.0,1,16090,0,0,0,
2026-03-30 17:56:00,METAR KLAS 301756Z 21018G27KT 10SM FEW190 OVC250 28/M11 A2995 RMK AO2 PK WND 21027/1756 SLP118 T02831111 10289 20217 53009,0,18.0,1,16090,0,0,0,
2026-03-30 16:56:00,METAR KLAS 301656Z 18014G21KT 10SM OVC250 27/M06 A2994 RMK AO2 SLP114 T02721056,0,14.0,1,16090,0,0,0,
2026-03-30 15:56:00,METAR KLAS 301556Z 18009G18KT 10SM BKN250 25/M02 A2993 RMK AO2 SLP112 T02501022,0,9.0,1,16090,0,0,0,
2026-03-30 14:56:00,METAR KLAS 301456Z 18011KT 10SM FEW200 BKN250 23/M03 A2992 RMK AO2 SLP111 T02281028 51014 $,0,11.0,0,16090,0,0,0,
2026-03-30 13:56:00,METAR KLAS 301356Z 17009G16KT 10SM FEW200 BKN250 22/M03 A2992 RMK AO2 PK WND 20029/1304 SLP109 T02171033 $,0,9.0,1,16090,0,0,0,
2026-03-30 12:56:00,METAR KLAS 301256Z 20015G26KT 10SM FEW200 22/M05 A2989 RMK AO2 PK WND 19030/1239 SLP100 T02221050 $,0,15.0,1,16090,0,0,0,
2026-03-30 11:56:00,METAR KLAS 301156Z 19013G22KT 10SM FEW180 22/M09 A2988 RMK AO2 SLP094 T02221089 10261 20217 58001 $,0,13.0,1,16090,0,0,0,
2026-03-30 10:56:00,METAR KLAS 301056Z 21010G17KT 10SM CLR 23/M11 A2988 RMK AO2 SLP094 T02281111 $,0,10.0,1,16090,0,0,0,
2026-03-30 09:56:00,METAR KLAS 300956Z 21014KT 10SM SCT180 24/M12 A2988 RMK AO2 SLP093 T02391117 $,0,14.0,0,16090,0,0,0,
2026-03-30 08:56:00,METAR KLAS 300856Z 20012KT 10SM FEW180 24/M11 A2988 RMK AO2 SLP095 T02391111 50000 $,0,12.0,0,16090,0,0,0,
2026-03-30 07:56:00,METAR KLAS 300756Z 20008KT 10SM FEW130 SCT180 25/M11 A2989 RMK AO2 SLP097 T02501106 403330194 $,0,8.0,0,16090,0,0,0,
2026-03-30 06:56:00,METAR KLAS 300656Z 18007KT 10SM FEW130 SCT180 25/M12 A2989 RMK AO2 SLP099 T02501117 $,0,7.0,0,16090,0,0,0,
2026-03-30 05:56:00,METAR KLAS 300556Z 20005KT 10SM FEW130 SCT200 26/M11 A2989 RMK AO2 SLP097 T02561106 10322 20256 51010 $,0,5.0,0,16090,0,0,0,
2026-03-30 04:56:00,METAR KLAS 300456Z 23007KT 10SM FEW130 BKN200 27/M11 A2987 RMK AO2 SLP094 T02671111 $,0,7.0,0,16090,0,0,0,
2026-03-30 03:56:00,METAR KLAS 300356Z 23008KT 10SM FEW130 BKN200 28/M12 A2986 RMK AO2 SLP090 T02781117 $,0,8.0,0,16090,0,0,0,
2026-03-30 02:56:00,METAR KLAS 300256Z 23010KT 10SM FEW130 BKN200 29/M13 A2985 RMK AO2 SLP087 T02941128 57004 $,0,10.0,0,16090,0,0,0,
2026-03-30 01:56:00,METAR KLAS 300156Z 24013KT 10SM FEW130 BKN200 31/M12 A2986 RMK AO2 PK WND 22026/0103 SLP088 T03061122 $,0,13.0,0,16090,0,0,0,
2026-03-30 00:56:00,METAR KLAS 300056Z 24016KT 10SM SCT130 BKN200 BKN250 31/M11 A2986 RMK AO2 PK WND 22026/0046 SLP089 T03111111 $,0,16.0,0,16090,0,0,0,
2026-03-29 23:56:00,METAR KLAS 292356Z 25018KT 10SM SCT130 BKN200 BKN250 32/M09 A2986 RMK AO2 PK WND 25027/2343 SLP090 T03221094 10333 20267 56020 $,0,18.0,0,16090,0,0,0,
2026-03-29 22:56:00,METAR KLAS 292256Z 23013G22KT 10SM FEW160 BKN200 BKN250 33/M09 A2988 RMK AO2 SLP093 T03331089 $,0,13.0,1,16090,0,0,0,
2026-03-29 21:56:00,METAR KLAS 292156Z 21014G19KT 10SM FEW160 SCT200 BKN250 33/M08 A2990 RMK AO2 SLP099 T03331078 $,0,14.0,1,16090,0,0,0,
2026-03-29 20:56:00,METAR KLAS 292056Z 22011G22KT 10SM FEW160 FEW200 BKN250 33/M07 A2993 RMK AO2 SLP109 T03281072 58022 $,0,11.0,1,16090,0,0,0,
2026-03-29 19:56:00,METAR KLAS 291956Z 08008KT 10SM FEW160 FEW200 BKN250 31/M06 A2996 RMK AO2 SLP119 T03111061 $,0,8.0,0,16090,0,0,0,
2026-03-29 18:56:00,METAR KLAS 291856Z 07005KT 10SM FEW160 FEW200 BKN250 28/M04 A2998 RMK AO2 SLP128 T02831039 $,0,5.0,0,16090,0,0,0,
2026-03-29 17:56:00,METAR KLAS 291756Z VRB04KT 10SM FEW160 BKN200 BKN250 27/M03 A3000 RMK AO2 SLP136 T02721028 10272 20194 51008 $,0,4.0,0,16090,0,0,0,
2026-03-29 16:56:00,METAR KLAS 291656Z 03003KT 10SM FEW160 BKN200 BKN250 25/M04 A2999 RMK AO2 SLP134 T02501039 $,0,3.0,0,16090,0,0,0,
2026-03-29 15:56:00,METAR KLAS 291556Z 00000KT 10SM FEW160 BKN200 BKN250 23/M04 A2998 RMK AO2 SLP130 T02331039 $,0,0.0,0,16090,0,0,0,
2026-03-29 14:56:00,METAR KLAS 291456Z 28004KT 10SM FEW160 BKN200 BKN250 21/M03 A2997 RMK AO2 SLP128 T02111033 53017 $,0,4.0,0,16090,0,0,0,
2026-03-29 13:56:00,METAR KLAS 291356Z 00000KT 10SM BKN200 BKN250 20/M03 A2995 RMK AO2 SLP120 T02001033 $,0,0.0,0,16090,0,0,0,
2026-03-29 12:56:00,METAR KLAS 291256Z 27003KT 10SM SCT200 21/M04 A2993 RMK AO2 SLP112 T02061044 $,0,3.0,0,16090,0,0,0,
2026-03-29 11:56:00,METAR KLAS 291156Z 28003KT 10SM FEW200 21/M04 A2992 RMK AO2 SLP107 T02061039 10256 20194 55000 $,0,3.0,0,16090,0,0,0,
2026-03-29 10:56:00,METAR KLAS 291056Z 25003KT 10SM CLR 22/M08 A2991 RMK AO2 SLP105 T02171078,0,3.0,0,16090,0,0,0,
2026-03-29 09:56:00,METAR KLAS 290956Z 20007KT 10SM FEW200 23/M09 A2991 RMK AO2 SLP104 T02331089,0,7.0,0,16090,0,0,0,
2026-03-29 08:56:00,METAR KLAS 290856Z 18004KT 10SM FEW200 24/M11 A2992 RMK AO2 SLP106 T02441106 58001,0,4.0,0,16090,0,0,0,
2026-03-29 07:56:00,METAR KLAS 290756Z 21008KT 10SM FEW200 24/M11 A2992 RMK AO2 SLP106 T02441111 403330206,0,8.0,0,16090,0,0,0,
2026-03-29 06:56:00,METAR KLAS 290656Z 22010KT 10SM CLR 26/M11 A2993 RMK AO2 SLP109 T02561111,0,10.0,0,16090,0,0,0,
2026-03-29 05:56:00,METAR KLAS 290556Z 18006KT 10SM CLR 25/M10 A2992 RMK AO2 SLP107 T02501100 10322 20244 51010,0,6.0,0,16090,0,0,0,
2026-03-29 04:56:00,METAR KLAS 290456Z 23008KT 10SM CLR 26/M08 A2992 RMK AO2 SLP109 T02561083,0,8.0,0,16090,0,0,0,
2026-03-29 03:56:00,METAR KLAS 290356Z 22006KT 10SM CLR 27/M07 A2991 RMK AO2 SLP106 T02721072,0,6.0,0,16090,0,0,0,
2026-03-29 02:56:00,METAR KLAS 290256Z 22007KT 10SM CLR 29/M08 A2989 RMK AO2 SLP098 T02891078 53002,0,7.0,0,16090,0,0,0,
2026-03-29 01:56:00,METAR KLAS 290156Z 24011KT 10SM FEW200 31/M05 A2988 RMK AO2 SLP094 T03061050,0,11.0,0,16090,0,0,0,
2026-03-29 00:56:00,METAR KLAS 290056Z 22013KT 10SM FEW200 31/M08 A2987 RMK AO2 SLP093 T03111078,0,13.0,0,16090,0,0,0,
2026-03-28 23:56:00,METAR KLAS 282356Z 22010G23KT 10SM FEW200 32/M11 A2988 RMK AO2 SLP095 T03221106 10333 20300 56018,0,10.0,1,16090,0,0,0,
2026-03-28 22:56:00,METAR KLAS 282256Z 22015G31KT 10SM FEW200 32/M13 A2988 RMK AO2 PK WND 20031/2249 SLP096 T03221133,0,15.0,1,16090,0,0,0,
2026-03-28 21:56:00,METAR KLAS 282156Z COR 21016G22KT 10SM SCT200 33/M14 A2991 RMK AO2 SLP103 T03281144,0,16.0,1,16090,0,0,0,
2026-03-28 20:56:00,METAR KLAS 282056Z 22015G23KT 10SM FEW200 FEW250 32/M14 A2994 RMK AO2 SLP113 T03221139 58017,0,15.0,1,16090,0,0,0,
2026-03-28 19:56:00,METAR KLAS 281956Z 21013G25KT 10SM FEW200 FEW250 32/M13 A2996 RMK AO2 PK WND 22028/1858 SLP120 T03171133,0,13.0,1,16090,0,0,0,
2026-03-28 18:56:00,METAR KLAS 281856Z 21014G24KT 10SM FEW200 FEW250 31/M12 A2997 RMK AO2 PK WND 21026/1846 WSHFT 1743 SLP124 T03111122,0,14.0,1,16090,0,0,0,
2026-03-28 17:59:00,SPECI KLAS 281759Z 21014G22KT 10SM FEW200 FEW250 30/M09 A2999 RMK AO2 WSHFT 1743 T03001094,0,14.0,1,16090,0,0,0,
2026-03-28 17:56:00,METAR KLAS 281756Z 20010G18KT 10SM FEW200 FEW250 30/M09 A2999 RMK AO2 SLP131 T03001089 10300 20206 50006,0,10.0,1,16090,0,0,0,
2026-03-28 16:56:00,METAR KLAS 281656Z 03005KT 10SM FEW200 FEW250 27/M04 A2999 RMK AO2 SLP133 T02671039,0,5.0,0,16090,0,0,0,
2026-03-28 15:56:00,METAR KLAS 281556Z 00000KT 10SM FEW200 FEW250 24/M03 A2998 RMK AO2 SLP130 T02441028,0,0.0,0,16090,0,0,0,
2026-03-28 14:56:00,METAR KLAS 281456Z 19005KT 10SM FEW200 SCT250 23/M04 A2997 RMK AO2 SLP126 T02281039 53015,0,5.0,0,16090,0,0,0,
2026-03-28 13:56:00,METAR KLAS 281356Z 23005KT 10SM BKN250 21/M04 A2995 RMK AO2 SLP120 T02111044,0,5.0,0,16090,0,0,0,
2026-03-28 12:56:00,METAR KLAS 281256Z 18006KT 10SM BKN250 22/M04 A2992 RMK AO2 SLP109 T02221044,0,6.0,0,16090,0,0,0,
2026-03-28 11:56:00,METAR KLAS 281156Z 00000KT 10SM SCT250 21/M03 A2992 RMK AO2 SLP110 T02111028 10250 20206 55002,0,0.0,0,16090,0,0,0,
2026-03-28 10:56:00,METAR KLAS 281056Z 00000KT 10SM SCT250 22/M02 A2992 RMK AO2 SLP107 T02171017,0,0.0,0,16090,0,0,0,
2026-03-28 09:56:00,METAR KLAS 280956Z 00000KT 10SM SCT250 22/M02 A2993 RMK AO2 SLP111 T02171022,0,0.0,0,16090,0,0,0,
2026-03-28 08:56:00,METAR KLAS 280856Z 21004KT 10SM FEW250 22/M02 A2993 RMK AO2 SLP113 T02221022 58003,0,4.0,0,16090,0,0,0,
2026-03-28 07:56:00,METAR KLAS 280756Z 21005KT 10SM SCT250 23/M02 A2994 RMK AO2 SLP115 T02331017 403220206,0,5.0,0,16090,0,0,0,
2026-03-28 06:56:00,METAR KLAS 280656Z 00000KT 10SM BKN250 24/M02 A2994 RMK AO2 SLP118 T02441017,0,0.0,0,16090,0,0,0,
2026-03-28 05:56:00,METAR KLAS 280556Z 31004KT 10SM BKN250 24/00 A2994 RMK AO2 SLP117 T02440000 10322 20244 50008,0,4.0,0,16090,0,0,0,
2026-03-28 04:56:00,METAR KLAS 280456Z 22003KT 10SM BKN250 26/M02 A2994 RMK AO2 SLP118 T02611017,0,3.0,0,16090,0,0,0,
2026-03-28 03:56:00,METAR KLAS 280356Z 23006KT 10SM FEW250 27/M03 A2994 RMK AO2 SLP115 T02721033,0,6.0,0,16090,0,0,0,
2026-03-28 02:56:00,METAR KLAS 280256Z 00000KT 10SM SCT250 30/M04 A2992 RMK AO2 SLP108 T03001044 55002,0,0.0,0,16090,0,0,0,
2026-03-28 01:56:00,METAR KLAS 280156Z 00000KT 10SM SCT250 31/M06 A2991 RMK AO2 SLP106 T03111056,0,0.0,0,16090,0,0,0,
2026-03-28 00:56:00,METAR KLAS 280056Z 00000KT 10SM SCT250 32/M06 A2991 RMK AO2 SLP105 T03221061,0,0.0,0,16090,0,0,0,
2026-03-27 23:56:00,METAR KLAS 272356Z 09005KT 10SM FEW250 32/M06 A2992 RMK AO2 SLP109 T03171061 10322 20261 56027,0,5.0,0,16090,0,0,0,
2026-03-27 22:56:00,METAR KLAS 272256Z 10003KT 10SM FEW250 32/M06 A2995 RMK AO2 SLP116 T03221061,0,3.0,0,16090,0,0,0,
2026-03-27 21:56:00,METAR KLAS 272156Z 04006KT 10SM FEW250 32/M07 A2997 RMK AO2 SLP125 T03171067,0,6.0,0,16090,0,0,0,
2026-03-27 20:56:00,METAR KLAS 272056Z 02007KT 10SM FEW250 30/M07 A3001 RMK AO2 SLP138 T03001072 58028,0,7.0,0,16090,0,0,0,
2026-03-27 19:56:00,METAR KLAS 271956Z 00000KT 10SM FEW250 29/M08 A3004 RMK AO2 SLP148 T02891078,0,0.0,0,16090,0,0,0,
2026-03-27 18:56:00,METAR KLAS 271856Z 03007KT 360V060 10SM FEW250 27/M09 A3007 RMK AO2 SLP160 T02721089,0,7.0,0,16090,0,0,0,
2026-03-27 17:56:00,METAR KLAS 271756Z 01007KT 10SM FEW250 26/M07 A3010 RMK AO2 SLP170 T02611072 10261 20206 50001,0,7.0,0,16090,0,0,0,
2026-03-27 16:56:00,METAR KLAS 271656Z VRB06KT 10SM FEW250 25/M05 A3010 RMK AO2 SLP172 T02501050,0,6.0,0,16090,0,0,0,
2026-03-27 15:56:00,METAR KLAS 271556Z 03007KT 10SM FEW250 23/M04 A3010 RMK AO2 SLP170 T02331039,0,7.0,0,16090,0,0,0,
2026-03-25 14:56:00,METAR KLAS 251456Z 27006KT 10SM CLR 23/03 A3000 RMK AO2 SLP134 T02330028 53011,0,6.0,0,16090,0,0,0,
2026-03-25 13:56:00,METAR KLAS 251356Z 24003KT 10SM CLR 22/02 A2998 RMK AO2 SLP129 T02170022,0,3.0,0,16090,0,0,0,
2026-03-25 12:56:00,METAR KLAS 251256Z 00000KT 10SM CLR 21/02 A2997 RMK AO2 SLP125 T02110022,0,0.0,0,16090,0,0,0,
2026-03-25 11:56:00,METAR KLAS 251156Z 24003KT 10SM CLR 22/02 A2996 RMK SLP121 T02170022 10272 20217 55002,0,3.0,0,16090,0,0,0,
2026-03-25 10:56:00,METAR KLAS 251056Z 25003KT 10SM CLR 22/02 A2995 RMK AO2 SLP118 T02220022,0,3.0,0,16090,0,0,0,
2026-03-25 09:56:00,METAR KLAS 250956Z 00000KT 10SM CLR 23/02 A2996 RMK AO2 SLP121 T02330017,0,0.0,0,16090,0,0,0,
2026-03-25 08:56:00,METAR KLAS 250856Z 23004KT 10SM CLR 23/02 A2997 RMK AO2 SLP124 T02330017 53003,0,4.0,0,16090,0,0,0,
2026-03-25 07:56:00,METAR KLAS 250756Z 26004KT 10SM CLR 24/02 A2996 RMK AO2 SLP122 T02440017 403560206,0,4.0,0,16090,0,0,0,
2026-03-25 06:56:00,METAR KLAS 250656Z 23006KT 10SM CLR 26/01 A2996 RMK AO2 SLP121 T02610011,0,6.0,0,16090,0,0,0,
2026-03-25 05:56:00,METAR KLAS 250556Z 21004KT 10SM CLR 27/01 A2996 RMK AO2 SLP120 T02720011 10356 20272 51014,0,4.0,0,16090,0,0,0,
2026-03-25 04:56:00,METAR KLAS 250456Z 21006KT 10SM CLR 28/02 A2996 RMK AO2 SLP119 T02830017,0,6.0,0,16090,0,0,0,
2026-03-25 03:56:00,METAR KLAS 250356Z 24006KT 10SM CLR 30/02 A2994 RMK AO2 SLP113 T03000017,0,6.0,0,16090,0,0,0,
2026-03-25 02:56:00,METAR KLAS 250256Z 00000KT 10SM CLR 32/00 A2992 RMK AO2 SLP106 T03170000 53000,0,0.0,0,16090,0,0,0,
2026-03-25 01:56:00,METAR KLAS 250156Z 09006KT 10SM FEW250 33/00 A2991 RMK AO2 SLP104 T03330000,0,6.0,0,16090,0,0,0,
2026-03-25 00:56:00,METAR KLAS 250056Z 11008KT 10SM FEW250 35/M01 A2991 RMK AO2 SLP102 T03501006,0,8.0,0,16090,0,0,0,
2026-03-24 23:56:00,METAR KLAS 242356Z 09011KT 10SM CLR 36/01 A2991 RMK AO2 SLP105 T03560006 10356 20289 56020,0,11.0,0,16090,0,0,0,
2026-03-24 22:56:00,METAR KLAS 242256Z 06007KT 10SM FEW250 35/01 A2993 RMK AO2 SLP110 T03500011,0,7.0,0,16090,0,0,0,
2026-03-24 21:56:00,METAR KLAS 242156Z VRB05KT 10SM FEW250 34/02 A2995 RMK AO2 SLP117 T03440017,0,5.0,0,16090,0,0,0,
2026-03-24 20:56:00,METAR KLAS 242056Z 09007KT 10SM FEW250 33/01 A2998 RMK AO2 SLP125 T03330011 58020,0,7.0,0,16090,0,0,0,
2026-03-24 19:56:00,METAR KLAS 241956Z 09005KT 10SM FEW250 32/01 A3001 RMK AO2 SLP136 T03170011,0,5.0,0,16090,0,0,0,
2026-03-24 18:56:00,METAR KLAS 241856Z 10003KT 10SM FEW250 30/01 A3003 RMK AO2 SLP144 T03000006,0,3.0,0,16090,0,0,0,
2026-03-24 17:56:00,METAR KLAS 241756Z 01004KT 10SM FEW250 29/01 A3004 RMK AO2 SLP148 T02890006 10289 20206 51008,0,4.0,0,16090,0,0,0,
2026-03-24 16:56:00,METAR KLAS 241656Z 27004KT 10SM FEW250 27/00 A3004 RMK AO2 SLP147 T02720000,0,4.0,0,16090,0,0,0,
2026-03-24 15:56:00,METAR KLAS 241556Z 00000KT 10SM FEW250 25/00 A3003 RMK AO2 SLP145 T02500000,0,0.0,0,16090,0,0,0,
2026-03-24 14:56:00,METAR KLAS 241456Z 22003KT 10SM FEW250 23/02 A3002 RMK AO2 SLP141 T02280017 52017,0,3.0,0,16090,0,0,0,
2026-03-24 13:56:00,METAR KLAS 241356Z 21004KT 10SM FEW250 21/01 A3000 RMK AO2 SLP135 T02110011,0,4.0,0,16090,0,0,0,
2026-03-24 12:56:00,METAR KLAS 241256Z 00000KT 10SM FEW250 22/02 A2998 RMK AO2 SLP129 T02170017,0,0.0,0,16090,0,0,0,
2026-03-24 11:56:00,METAR KLAS 241156Z 28003KT 10SM FEW250 21/02 A2997 RMK AO2 SLP122 T02110017 10278 20206 53004,0,3.0,0,16090,0,0,0,
2026-03-24 10:56:00,METAR KLAS 241056Z 21003KT 10SM FEW250 22/01 A2996 RMK AO2 SLP119 T02220006,0,3.0,0,16090,0,0,0,
2026-03-24 09:56:00,METAR KLAS 240956Z 00000KT 10SM CLR 23/01 A2995 RMK AO2 SLP117 T02280006,0,0.0,0,16090,0,0,0,
2026-03-24 08:56:00,METAR KLAS 240856Z 25004KT 10SM SCT250 24/M01 A2995 RMK AO2 SLP118 T02391006 53009,0,4.0,0,16090,0,0,0,
2026-03-24 07:56:00,METAR KLAS 240756Z 20008KT 10SM FEW200 BKN250 26/M02 A2994 RMK AO2 SLP112 T02611017 403560189,0,8.0,0,16090,0,0,0,
2026-03-24 06:56:00,METAR KLAS 240656Z 20006KT 10SM FEW200 BKN250 26/M02 A2993 RMK AO2 SLP111 T02611022,0,6.0,0,16090,0,0,0,
2026-03-24 05:56:00,METAR KLAS 240556Z 22006KT 10SM FEW200 BKN250 27/M02 A2992 RMK AO2 SLP108 T02721022 10350 20267 51014,0,6.0,0,16090,0,0,0,
2026-03-24 04:56:00,METAR KLAS 240456Z 21007KT 10SM FEW200 BKN250 28/M01 A2991 RMK AO2 SLP106 T02831011,0,7.0,0,16090,0,0,0,
2026-03-24 03:56:00,METAR KLAS 240356Z 22007KT 10SM FEW200 BKN250 29/M01 A2991 RMK AO2 SLP105 T02941006,0,7.0,0,16090,0,0,0,
2026-03-24 02:56:00,METAR KLAS 240256Z 24009KT 10SM SCT200 BKN250 31/M01 A2988 RMK AO2 SLP095 T03111006 53010,0,9.0,0,16090,0,0,0,
2026-03-24 01:56:00,METAR KLAS 240156Z 26012KT 10SM SCT200 BKN250 33/M01 A2987 RMK AO2 SLP091 T03281011,0,12.0,0,16090,0,0,0,
2026-03-24 00:56:00,METAR KLAS 240056Z 27009KT 10SM SCT200 BKN250 34/M01 A2986 RMK AO2 SLP087 T03391011,0,9.0,0,16090,0,0,0,
2026-03-23 23:56:00,METAR KLAS 232356Z VRB03KT 10SM SCT200 BKN250 35/M03 A2985 RMK AO2 SLP083 T03501028 10356 20283 56017,0,3.0,0,16090,0,0,0,
2026-03-23 22:56:00,METAR KLAS 232256Z VRB03KT 10SM FEW200 BKN250 35/M04 A2986 RMK AO2 SLP086 T03501039,0,3.0,0,16090,0,0,0,
2026-03-23 21:56:00,METAR KLAS 232156Z 03006KT 10SM SCT200 BKN250 35/M03 A2988 RMK AO2 SLP092 T03501028,0,6.0,0,16090,0,0,0,
2026-03-23 20:56:00,METAR KLAS 232056Z VRB04KT 10SM SCT200 BKN250 33/M01 A2990 RMK AO2 SLP101 T03281011 58024,0,4.0,0,16090,0,0,0,
2026-03-23 19:56:00,METAR KLAS 231956Z 04005KT 10SM BKN250 32/M01 A2993 RMK AO2 SLP111 T03171006,0,5.0,0,16090,0,0,0,
2026-03-23 18:56:00,METAR KLAS 231856Z 16004KT 10SM SCT250 31/M02 A2996 RMK AO2 SLP119 T03061017,0,4.0,0,16090,0,0,0,
2026-03-23 17:56:00,METAR KLAS 231756Z 36004KT 10SM FEW250 29/M01 A2998 RMK AO2 SLP127 T02891011 10289 20189 50010,0,4.0,0,16090,0,0,0,
2026-03-23 16:56:00,METAR KLAS 231656Z 08003KT 10SM SCT250 26/M01 A2998 RMK AO2 SLP130 T02611006,0,3.0,0,16090,0,0,0,
2026-03-23 15:56:00,METAR KLAS 231556Z 08003KT 10SM FEW250 24/00 A2996 RMK AO2 SLP123 T02390000,0,3.0,0,16090,0,0,0,
2026-03-23 14:56:00,METAR KLAS 231456Z 15003KT 10SM FEW250 22/01 A2995 RMK AO2 SLP118 T02220006 53021,0,3.0,0,16090,0,0,0,
2026-03-23 13:56:00,METAR KLAS 231356Z 00000KT 10SM SCT250 20/00 A2992 RMK AO2 SLP108 T02000000,0,0.0,0,16090,0,0,0,
2026-03-23 12:56:00,METAR KLAS 231256Z 21003KT 10SM FEW250 20/M01 A2990 RMK AO2 SLP101 T02001006,0,3.0,0,16090,0,0,0,
2026-03-23 11:56:00,METAR KLAS 231156Z 20004KT 10SM FEW250 21/M01 A2988 RMK AO2 SLP094 T02061006 10272 20200 55002,0,4.0,0,16090,0,0,0,
2026-03-23 10:56:00,METAR KLAS 231056Z 22003KT 10SM SCT250 21/00 A2987 RMK AO2 SLP090 T02110000,0,3.0,0,16090,0,0,0,
2026-03-23 09:56:00,METAR KLAS 230956Z 24004KT 10SM SCT250 22/M01 A2987 RMK AO2 SLP091 T02221006,0,4.0,0,16090,0,0,0,
2026-03-23 08:56:00,METAR KLAS 230856Z 25004KT 10SM SCT250 23/M01 A2989 RMK AO2 SLP096 T02281011 53002,0,4.0,0,16090,0,0,0,
2026-03-23 07:56:00,METAR KLAS 230756Z 21006KT 10SM BKN250 24/M01 A2987 RMK AO2 SLP092 T02391011 403390206,0,6.0,0,16090,0,0,0,
2026-03-23 06:56:00,METAR KLAS 230656Z 20005KT 10SM BKN250 25/M01 A2988 RMK AO2 SLP092 T02501011,0,5.0,0,16090,0,0,0,
2026-03-23 05:56:00,METAR KLAS 230556Z 20007KT 10SM BKN250 27/M01 A2988 RMK AO2 SLP094 T02671011 10339 20267 51013,0,7.0,0,16090,0,0,0,
2026-03-23 04:56:00,METAR KLAS 230456Z 23006KT 10SM BKN250 27/M02 A2988 RMK AO2 SLP094 T02721022,0,6.0,0,16090,0,0,0,
2026-03-23 03:56:00,METAR KLAS 230356Z 24009KT 10SM BKN250 29/M02 A2986 RMK AO2 SLP087 T02891022,0,9.0,0,16090,0,0,0,
2026-03-23 02:56:00,METAR KLAS 230256Z 14003KT 10SM BKN250 31/M02 A2984 RMK AO2 SLP080 T03061022 55002,0,3.0,0,16090,0,0,0,
2026-03-23 01:56:00,METAR KLAS 230156Z 10003KT 10SM BKN250 32/M04 A2984 RMK AO2 SLP081 T03221039,0,3.0,0,16090,0,0,0,
2026-03-23 00:56:00,METAR KLAS 230056Z 00000KT 10SM SCT250 33/M04 A2984 RMK AO2 SLP079 T03331039,0,0.0,0,16090,0,0,0,
2026-03-22 23:56:00,METAR KLAS 222356Z 00000KT 10SM FEW250 33/M04 A2985 RMK AO2 SLP082 T03331039 10339 20272 56016,0,0.0,0,16090,0,0,0,
2026-03-22 22:56:00,METAR KLAS 222256Z VRB04KT 10SM FEW250 33/M03 A2986 RMK AO2 SLP086 T03331033,0,4.0,0,16090,0,0,0,
2026-03-22 21:56:00,METAR KLAS 222156Z 00000KT 10SM SCT250 33/M03 A2987 RMK AO2 SLP090 T03281033,0,0.0,0,16090,0,0,0,
2026-03-22 20:56:00,METAR KLAS 222056Z 00000KT 10SM FEW150 SCT250 32/M03 A2990 RMK AO2 SLP098 T03171033 58017,0,0.0,0,16090,0,0,0,
2026-03-22 19:56:00,METAR KLAS 221956Z 02003KT 10SM FEW150 SCT250 31/M03 A2993 RMK AO2 SLP110 T03061028,0,3.0,0,16090,0,0,0,
2026-03-22 18:56:00,METAR KLAS 221856Z VRB04KT 10SM FEW200 SCT250 29/M03 A2994 RMK AO2 SLP115 T02941028,0,4.0,0,16090,0,0,0,
2026-03-22 17:56:00,METAR KLAS 221756Z VRB03KT 10SM FEW200 BKN250 27/M03 A2995 RMK AO2 SLP118 T02721028 10272 20206 51011,0,3.0,0,16090,0,0,0,
2026-03-22 16:56:00,METAR KLAS 221656Z 31005KT 10SM SCT200 BKN250 26/M02 A2995 RMK AO2 SLP119 T02611017,0,5.0,0,16090,0,0,0,
2026-03-22 15:56:00,METAR KLAS 221556Z VRB05KT 10SM SCT200 BKN250 25/M01 A2994 RMK AO2 SLP113 T02501011,0,5.0,0,16090,0,0,0,
2026-03-22 14:56:00,METAR KLAS 221456Z 32005KT 10SM SCT200 BKN250 24/M02 A2992 RMK AO2 SLP106 T02441022 53017,0,5.0,0,16090,0,0,0,
2026-03-22 13:56:00,METAR KLAS 221356Z 00000KT 10SM SCT200 BKN250 21/00 A2990 RMK AO2 SLP100 T02110000,0,0.0,0,16090,0,0,0,
2026-03-22 12:56:00,METAR KLAS 221256Z 24005KT 10SM FEW150 SCT200 22/M01 A2987 RMK AO2 SLP091 T02221006,0,5.0,0,16090,0,0,0,
2026-03-22 11:56:00,METAR KLAS 221156Z 22003KT 10SM FEW150 SCT200 SCT250 23/00 A2986 RMK AO2 SLP086 T02330000 10272 20233 55000,0,3.0,0,16090,0,0,0,
2026-03-22 10:56:00,METAR KLAS 221056Z 04004KT 10SM FEW150 BKN200 BKN250 24/M01 A2986 RMK AO2 SLP082 T02391011,0,4.0,0,16090,0,0,0,
2026-03-22 09:56:00,METAR KLAS 220956Z COR 20007KT 10SM FEW150 BKN200 BKN250 24/M02 A2985 RMK AO2 SLP081 T02441017,0,7.0,0,16090,0,0,0,
2026-03-22 08:56:00,METAR KLAS 220856Z 20008KT 10SM FEW150 BKN200 BKN250 26/M02 A2986 RMK AO2 SLP085 T02561022 55002,0,8.0,0,16090,0,0,0,
2026-03-22 07:56:00,METAR KLAS 220756Z 20007KT 10SM FEW150 BKN200 BKN259 26/M03 A2986 RMK AO2 SLP084 T02561033 403560200,0,7.0,0,16090,0,0,0,
2026-03-22 06:56:00,METAR KLAS 220656Z 19004KT 10SM FEW170 BKN200 BKN250 27/M03 A2986 RMK AO2 SLP084 T02721028,0,4.0,0,16090,0,0,0,
2026-03-22 05:56:00,METAR KLAS 220556Z 20004KT 10SM FEW170 BKN200 BKN250 27/M06 A2987 RMK AO2 SLP089 T02721061 10344 20267 51008,0,4.0,0,16090,0,0,0,
2026-03-22 04:56:00,METAR KLAS 220456Z 21006KT 10SM FEW170 BKN200 BKN250 28/M07 A2987 RMK AO2 SLP088 T02831072,0,6.0,0,16090,0,0,0,
2026-03-22 03:56:00,METAR KLAS 220356Z 22006KT 10SM FEW170 BKN200 BKN250 29/M07 A2985 RMK AO2 SLP085 T02891072,0,6.0,0,16090,0,0,0,
2026-03-22 02:56:00,METAR KLAS 220256Z 22008KT 10SM BKN200 BKN250 31/M07 A2985 RMK AO2 SLP083 T03061067 53003,0,8.0,0,16090,0,0,0,
2026-03-22 01:56:00,METAR KLAS 220156Z 23008KT 10SM FEW170 BKN200 BKN250 32/M07 A2983 RMK AO2 SLP078 T03221067,0,8.0,0,16090,0,0,0,
2026-03-22 00:56:00,METAR KLAS 220056Z 23009G19KT 10SM FEW170 FEW200 BKN250 34/M04 A2983 RMK AO2 SLP078 T03391039,0,9.0,1,16090,0,0,0,
2026-03-21 23:56:00,METAR KLAS 212356Z 24008G20KT 10SM FEW170 FEW200 BKN250 34/M04 A2984 RMK AO2 SLP078 T03441039 10356 20300 56015,0,8.0,1,16090,0,0,0,
2026-03-21 22:56:00,METAR KLAS 212256Z 21016G26KT 10SM FEW170 SCT200 BKN250 36/M07 A2985 RMK AO2 PK WND 21026/2250 SLP081 T03561072,0,16.0,1,16090,0,0,0,
2026-03-21 21:56:00,METAR KLAS 212156Z 24012G28KT 10SM FEW170 BKN200 BKN250 35/M07 A2986 RMK AO2 PK WND 25028/2149 SLP086 T03501067,0,12.0,1,16090,0,0,0,
2026-03-21 20:56:00,METAR KLAS 212056Z 25010G22KT 10SM FEW170 BKN250 34/M05 A2989 RMK AO2 SLP093 T03441050 58022,0,10.0,1,16090,0,0,0,
2026-03-21 19:56:00,METAR KLAS 211956Z 25011G18KT 230V290 10SM FEW170 BKN250 35/M04 A2991 RMK AO2 SLP101 T03501044,0,11.0,1,16090,0,0,0,
2026-03-21 19:34:00,SPECI KLAS 211934Z 22006G14KT 10SM FEW002 FEW170 BKN250 35/M04 A2991 RMK AO2 FU FEW002 T03501039,0,6.0,1,16090,0,0,0,
2026-03-21 18:56:00,METAR KLAS 211856Z 08009KT 10SM FEW170 BKN250 33/M01 A2994 RMK AO2 SLP111 T03281011,0,9.0,0,16090,0,0,0,
2026-03-21 17:56:00,METAR KLAS 211756Z 09007KT 10SM FEW170 BKN250 30/M01 A2995 RMK AO2 SLP118 T03001011 10300 20200 50000,0,7.0,0,16090,0,0,0,
2026-03-21 16:56:00,METAR KLAS 211656Z 01004KT 10SM FEW170 FEW250 27/M01 A2996 RMK AO2 SLP121 T02721006,0,4.0,0,16090,0,0,0,
2026-03-21 15:56:00,METAR KLAS 211556Z 00000KT 10SM FEW200 BKN250 26/M02 A2996 RMK AO2 SLP121 T02561017,0,0.0,0,16090,0,0,0,
2026-03-21 14:56:00,METAR KLAS 211456Z 00000KT 10SM FEW200 SCT250 23/00 A2995 RMK AO2 SLP118 T02280000 53008,0,0.0,0,16090,0,0,0,
2026-03-21 13:56:00,METAR KLAS 211356Z 00000KT 10SM FEW200 FEW250 22/M02 A2994 RMK AO2 SLP113 T02171022,0,0.0,0,16090,0,0,0,
2026-03-21 12:56:00,METAR KLAS 211256Z 00000KT 10SM CLR 20/M01 A2993 RMK AO2 SLP110 T02001006,0,0.0,0,16090,0,0,0,
2026-03-21 11:56:00,METAR KLAS 211156Z 00000KT 10SM CLR 22/M02 A2993 RMK AO2 SLP109 T02171022 10267 20211 56004,0,0.0,0,16090,0,0,0,
2026-03-21 10:56:00,METAR KLAS 211056Z 00000KT 10SM CLR 22/M01 A2993 RMK AO2 SLP109 T02171011,0,0.0,0,16090,0,0,0,
2026-03-21 09:56:00,METAR KLAS 210956Z 00000KT 10SM CLR 22/M02 A2994 RMK AO2 SLP113 T02221022,0,0.0,0,16090,0,0,0,
2026-03-21 08:56:00,METAR KLAS 210856Z 25005KT 10SM CLR 24/M03 A2994 RMK AO2 SLP113 T02391028 55003,0,5.0,0,16090,0,0,0,
2026-03-21 07:56:00,METAR KLAS 210756Z 20004KT 10SM CLR 23/M02 A2994 RMK AO2 SLP114 T02331022 403610194,0,4.0,0,16090,0,0,0,
2026-03-21 06:56:00,METAR KLAS 210656Z 00000KT 10SM CLR 25/M03 A2994 RMK AO2 SLP115 T02501033,0,0.0,0,16090,0,0,0,
2026-03-21 05:56:00,METAR KLAS 210556Z 00000KT 10SM CLR 27/M03 A2995 RMK AO2 SLP117 T02671028 10361 20261 53004,0,0.0,0,16090,0,0,0,
2026-03-21 04:56:00,METAR KLAS 210456Z 27010KT 10SM CLR 27/M02 A2994 RMK AO2 SLP114 T02721022,0,10.0,0,16090,0,0,0,
2026-03-21 03:56:00,METAR KLAS 210356Z 26005KT 10SM CLR 29/M02 A2994 RMK AO2 SLP116 T02941022,0,5.0,0,16090,0,0,0,
2026-03-21 02:56:00,METAR KLAS 210256Z 10003KT 10SM CLR 32/M03 A2994 RMK AO2 SLP114 T03221033 55005,0,3.0,0,16090,0,0,0,
2026-03-21 01:56:00,METAR KLAS 210156Z 10005KT 10SM CLR 33/M03 A2994 RMK AO2 SLP114 T03331033,0,5.0,0,16090,0,0,0,
2026-03-21 00:56:00,METAR KLAS 210056Z 08007KT 10SM CLR 36/M04 A2994 RMK AO2 SLP113 T03561039,0,7.0,0,16090,0,0,0,
2026-03-20 23:56:00,METAR KLAS 202356Z 08004KT 10SM CLR 36/M04 A2995 RMK AO2 SLP118 T03611044 10361 20289 56029,0,4.0,0,16090,0,0,0,
2026-03-20 22:56:00,METAR KLAS 202256Z 00000KT 10SM CLR 36/M04 A2998 RMK AO2 SLP128 T03561039,0,0.0,0,16090,0,0,0,
2026-03-20 21:56:00,METAR KLAS 202156Z 00000KT 10SM CLR 34/M03 A3001 RMK AO2 SLP138 T03391033,0,0.0,0,16090,0,0,0,
2026-03-20 20:56:00,METAR KLAS 202056Z VRB03KT 10SM CLR 33/M03 A3005 RMK AO2 SLP150 T03331033 58024,0,3.0,0,16090,0,0,0,
2026-03-20 19:56:00,METAR KLAS 201956Z VRB03KT 10SM CLR 32/M03 A3009 RMK AO2 SLP163 T03171033,0,3.0,0,16090,0,0,0,
2026-03-20 18:56:00,METAR KLAS 201856Z 08007KT 10SM CLR 31/M03 A3011 RMK AO2 SLP171 T03061033,0,7.0,0,16090,0,0,0,
2026-03-20 17:56:00,METAR KLAS 201756Z 02006KT 10SM CLR 29/M02 A3012 RMK AO2 SLP177 T02891022 10289 20194 50003,0,6.0,0,16090,0,0,0,
2026-03-20 16:56:00,METAR KLAS 201656Z 00000KT 10SM CLR 27/M02 A3012 RMK AO2 SLP179 T02671017,0,0.0,0,16090,0,0,0,
2026-03-20 15:56:00,METAR KLAS 201556Z 00000KT 10SM CLR 24/M01 A3012 RMK AO2 SLP178 T02441011,0,0.0,0,16090,0,0,0,
2026-03-20 13:56:00,METAR KLAS 201356Z 22004KT 10SM CLR 20/00 A3010 RMK AO2 SLP170 T02000000,0,4.0,0,16090,0,0,0,
2026-03-20 12:56:00,METAR KLAS 201256Z 26003KT 10SM CLR 21/M01 A3009 RMK AO2 SLP165 T02111011,0,3.0,0,16090,0,0,0,
2026-03-20 11:56:00,METAR KLAS 201156Z 00000KT 10SM CLR 21/M01 A3008 RMK AO2 SLP163 T02061006 10261 20200 55001,0,0.0,0,16090,0,0,0,
2026-03-20 10:56:00,METAR KLAS 201056Z 22004KT 10SM CLR 21/M01 A3007 RMK AO2 SLP160 T02061011,0,4.0,0,16090,0,0,0,
2026-03-20 09:56:00,METAR KLAS 200956Z 22004KT 10SM CLR 21/M02 A3008 RMK AO2 SLP162 T02111017,0,4.0,0,16090,0,0,0,
2026-03-20 08:56:00,METAR KLAS 200856Z 19004KT 10SM CLR 22/M02 A3009 RMK AO2 SLP164 T02221017 53002,0,4.0,0,16090,0,0,0,
2026-03-20 07:56:00,METAR KLAS 200756Z 21007KT 10SM CLR 24/M02 A3008 RMK AO2 SLP162 T02391022 403500189,0,7.0,0,16090,0,0,0,
2026-03-20 06:56:00,METAR KLAS 200656Z 20005KT 10SM CLR 24/M02 A3008 RMK AO2 SLP163 T02441017,0,5.0,0,16090,0,0,0,
2026-03-20 05:56:00,METAR KLAS 200556Z 24007KT 10SM CLR 26/M02 A3008 RMK AO2 SLP163 T02561022 10350 20256 51007,0,7.0,0,16090,0,0,0,
2026-03-20 04:56:00,METAR KLAS 200456Z 22007KT 10SM CLR 27/M02 A3007 RMK AO2 SLP163 T02671022,0,7.0,0,16090,0,0,0,
2026-03-20 03:56:00,METAR KLAS 200356Z 25006KT 10SM CLR 29/M01 A3007 RMK AO2 SLP161 T02891006,0,6.0,0,16090,0,0,0,
2026-03-20 02:56:00,METAR KLAS 200256Z 00000KT 10SM CLR 31/M01 A3006 RMK AO2 SLP156 T03061006 55001,0,0.0,0,16090,0,0,0,
2026-03-20 01:56:00,METAR KLAS 200156Z 01003KT 10SM CLR 33/M03 A3005 RMK AO2 SLP154 T03331028,0,3.0,0,16090,0,0,0,
2026-03-20 00:56:00,METAR KLAS 200056Z 02004KT 10SM CLR 34/M03 A3005 RMK AO2 SLP153 T03441033,0,4.0,0,16090,0,0,0,
2026-03-19 23:56:00,METAR KLAS 192356Z VRB03KT 10SM CLR 34/M03 A3006 RMK AO2 SLP156 T03441033 10350 20278 56024,0,3.0,0,16090,0,0,0,
2026-03-19 22:56:00,METAR KLAS 192256Z 02003KT 10SM CLR 34/M03 A3008 RMK AO2 SLP162 T03391033,0,3.0,0,16090,0,0,0,
2026-03-19 21:56:00,METAR KLAS 192156Z VRB05KT 10SM CLR 34/M03 A3010 RMK AO2 SLP170 T03391033,0,5.0,0,16090,0,0,0,
2026-03-19 20:56:00,METAR KLAS 192056Z 00000KT 10SM CLR 33/M02 A3013 RMK AO2 SLP181 T03281022 58021,0,0.0,0,16090,0,0,0,
2026-03-19 19:56:00,METAR KLAS 191956Z VRB03KT 10SM CLR 31/M02 A3016 RMK AO2 SLP192 T03111022,0,3.0,0,16090,0,0,0,
2026-03-19 18:56:00,METAR KLAS 191856Z 00000KT 10SM CLR 30/M02 A3019 RMK AO2 SLP200 T03001022,0,0.0,0,16090,0,0,0,
2026-03-19 17:56:00,METAR KLAS 191756Z VRB03KT 10SM CLR 28/M02 A3020 RMK AO2 SLP205 T02781022 10278 20189 50005,0,3.0,0,16090,0,0,0,
2026-03-19 16:56:00,METAR KLAS 191656Z 21003KT 10SM CLR 26/M01 A3021 RMK AO2 SLP208 T02561011,0,3.0,0,16090,0,0,0,
2026-03-19 15:56:00,METAR KLAS 191556Z 00000KT 10SM CLR 23/M02 A3020 RMK AO2 SLP207 T02281017,0,0.0,0,16090,0,0,0,
2026-03-19 14:56:00,METAR KLAS 191456Z 26003KT 10SM FEW250 21/M02 A3018 RMK AO2 SLP199 T02111017 53019,0,3.0,0,16090,0,0,0,
2026-03-19 13:56:00,METAR KLAS 191356Z 21004KT 10SM FEW250 19/M02 A3016 RMK AO2 SLP190 T01891022,0,4.0,0,16090,0,0,0,
2026-03-19 12:56:00,METAR KLAS 191256Z 21004KT 10SM CLR 19/M02 A3014 RMK AO2 SLP183 T01891022,0,4.0,0,16090,0,0,0,
2026-03-19 11:56:00,METAR KLAS 191156Z 21004KT 10SM CLR 19/M02 A3012 RMK AO2 SLP178 T01891017 10239 20189 53000,0,4.0,0,16090,0,0,0,
2026-03-19 10:56:00,METAR KLAS 191056Z 19003KT 10SM CLR 20/M01 A3011 RMK AO2 SLP174 T02001011,0,3.0,0,16090,0,0,0,
2026-03-19 09:56:00,METAR KLAS 190956Z 22005KT 10SM CLR 21/M02 A3011 RMK AO2 SLP175 T02061017,0,5.0,0,16090,0,0,0,
2026-03-19 08:56:00,METAR KLAS 190856Z 20004KT 10SM CLR 21/M01 A3012 RMK AO2 SLP178 T02111011 50002,0,4.0,0,16090,0,0,0,
2026-03-19 07:56:00,METAR KLAS 190756Z 00000KT 10SM CLR 23/M02 A3012 RMK AO2 SLP179 T02281017 403440172,0,0.0,0,16090,0,0,0,
2026-03-19 06:56:00,METAR KLAS 190656Z 22005KT 10SM CLR 23/M01 A3012 RMK AO2 SLP179 T02331011,0,5.0,0,16090,0,0,0,
2026-03-19 05:56:00,METAR KLAS 190556Z 21005KT 10SM CLR 24/M01 A3012 RMK AO2 SLP177 T02391011 10339 20239 51014,0,5.0,0,16090,0,0,0,
2026-03-19 04:56:00,METAR KLAS 190456Z 27003KT 10SM CLR 26/00 A3011 RMK AO2 SLP174 T02560000,0,3.0,0,16090,0,0,0,
2026-03-19 03:56:00,METAR KLAS 190356Z 27005KT 10SM CLR 27/00 A3009 RMK AO2 SLP170 T02670000,0,5.0,0,16090,0,0,0,
2026-03-19 02:56:00,METAR KLAS 190256Z 00000KT 10SM SCT250 31/M06 A3007 RMK AO2 SLP162 T03111056 53003,0,0.0,0,16090,0,0,0,
2026-03-19 01:56:00,METAR KLAS 190156Z 02004KT 10SM SCT250 32/M04 A3006 RMK AO2 SLP156 T03221044,0,4.0,0,16090,0,0,0,
2026-03-19 00:56:00,METAR KLAS 190056Z 00000KT 10SM CLR 34/M04 A3005 RMK AO2 SLP155 T03391044,0,0.0,0,16090,0,0,0,
2026-03-18 23:56:00,METAR KLAS 182356Z 00000KT 10SM FEW250 34/M06 A3006 RMK AO2 SLP158 T03391056 10344 20272 56020,0,0.0,0,16090,0,0,0,
2026-03-18 22:56:00,METAR KLAS 182256Z 07005KT 10SM FEW250 33/M04 A3008 RMK AO2 SLP162 T03331044,0,5.0,0,16090,0,0,0,
2026-03-18 21:56:00,METAR KLAS 182156Z 08004KT 10SM FEW250 33/M03 A3010 RMK AO2 SLP170 T03281028,0,4.0,0,16090,0,0,0,
2026-03-18 20:56:00,METAR KLAS 182056Z VRB03KT 10SM CLR 32/M01 A3012 RMK AO2 SLP179 T03171006 58019,0,3.0,0,16090,0,0,0,
2026-03-18 19:56:00,METAR KLAS 181956Z 03004KT 10SM CLR 31/M01 A3015 RMK AO2 SLP189 T03061006,0,4.0,0,16090,0,0,0,
2026-03-18 18:56:00,METAR KLAS 181856Z VRB03KT 10SM CLR 29/00 A3017 RMK AO2 SLP196 T02940000,0,3.0,0,16090,0,0,0,
2026-03-18 17:56:00,METAR KLAS 181756Z 00000KT 10SM CLR 27/01 A3018 RMK AO2 SLP200 T02720006 10272 20172 51011,0,0.0,0,16090,0,0,0,
2026-03-18 16:56:00,METAR KLAS 181656Z 06004KT 10SM CLR 26/01 A3018 RMK AO2 SLP198 T02560006,0,4.0,0,16090,0,0,0,
2026-03-18 15:56:00,METAR KLAS 181556Z 00000KT 10SM FEW250 23/01 A3016 RMK AO2 SLP193 T02280011,0,0.0,0,16090,0,0,0,
2026-03-18 14:56:00,METAR KLAS 181456Z 22003KT 10SM FEW250 19/01 A3015 RMK AO2 SLP189 T01940006 51017,0,3.0,0,16090,0,0,0,
2026-03-18 13:56:00,METAR KLAS 181356Z 21004KT 10SM FEW250 18/01 A3013 RMK AO2 SLP183 T01830006,0,4.0,0,16090,0,0,0,
2026-03-18 12:56:00,METAR KLAS 181256Z 22004KT 10SM FEW250 18/01 A3011 RMK AO2 SLP178 T01780006,0,4.0,0,16090,0,0,0,
2026-03-18 11:56:00,METAR KLAS 181156Z 21003KT 10SM SCT250 18/01 A3009 RMK AO2 SLP171 T01830006 10239 20183 53006,0,3.0,0,16090,0,0,0,
2026-03-18 10:56:00,METAR KLAS 181056Z 21005KT 10SM SCT250 19/00 A3008 RMK AO2 SLP167 T01940000,0,5.0,0,16090,0,0,0,
2026-03-18 09:56:00,METAR KLAS 180956Z 00000KT 10SM SCT250 19/01 A3008 RMK AO2 SLP167 T01940006,0,0.0,0,16090,0,0,0,
2026-03-18 08:56:00,METAR KLAS 180856Z 22005KT 10SM SCT250 21/01 A3007 RMK AO2 SLP162 T02110011 53004,0,5.0,0,16090,0,0,0,
2026-03-18 07:56:00,METAR KLAS 180756Z 22006KT 10SM SCT250 21/02 A3006 RMK AO2 SLP161 T02110022 403110156,0,6.0,0,16090,0,0,0,
2026-03-18 06:56:00,METAR KLAS 180656Z 00000KT 10SM SCT250 23/02 A3006 RMK AO2 SLP160 T02280022,0,0.0,0,16090,0,0,0,
2026-03-18 05:56:00,METAR KLAS 180556Z 24007KT 10SM FEW250 24/03 A3006 RMK AO2 SLP160 T02390028 10311 20239 51010,0,7.0,0,16090,0,0,0,
2026-03-18 04:56:00,METAR KLAS 180456Z 24006KT 10SM FEW250 25/02 A3005 RMK AO2 SLP156 T02500022,0,6.0,0,16090,0,0,0,
2026-03-18 03:56:00,METAR KLAS 180356Z 24005KT 10SM FEW250 26/03 A3004 RMK AO2 SLP154 T02610033,0,5.0,0,16090,0,0,0,
2026-03-18 02:56:00,METAR KLAS 180256Z 20003KT 10SM FEW250 28/02 A3003 RMK AO2 SLP149 T02780017 53004,0,3.0,0,16090,0,0,0,
2026-03-18 01:56:00,METAR KLAS 180156Z 11003KT 10SM SCT250 30/01 A3001 RMK AO2 SLP145 T03000011,0,3.0,0,16090,0,0,0,
2026-03-18 00:56:00,METAR KLAS 180056Z 00000KT 10SM BKN250 31/01 A3001 RMK AO2 SLP142 T03110006,0,0.0,0,16090,0,0,0,
2026-03-17 23:56:00,METAR KLAS 172356Z 09003KT 10SM BKN250 31/01 A3001 RMK AO2 SLP144 T03060006 10311 20244 56024,0,3.0,0,16090,0,0,0,
2026-03-17 22:56:00,METAR KLAS 172256Z 00000KT 10SM BKN250 30/00 A3004 RMK AO2 SLP153 T03000000,0,0.0,0,16090,0,0,0,
2026-03-17 21:56:00,METAR KLAS 172156Z VRB04KT 10SM SCT250 29/00 A3006 RMK AO2 SLP160 T02940000,0,4.0,0,16090,0,0,0,
2026-03-17 20:56:00,METAR KLAS 172056Z 08006KT 10SM FEW250 29/M01 A3009 RMK AO2 SLP170 T02941006 58020,0,6.0,0,16090,0,0,0,
2026-03-17 19:56:00,METAR KLAS 171956Z 09005KT 10SM FEW250 28/M01 A3013 RMK AO2 SLP182 T02781006,0,5.0,0,16090,0,0,0,
2026-03-17 18:56:00,METAR KLAS 171856Z VRB05KT 10SM FEW250 26/M01 A3015 RMK AO2 SLP190 T02611006,0,5.0,0,16090,0,0,0,
2026-03-17 17:56:00,METAR KLAS 171756Z 00000KT 10SM FEW250 24/M01 A3016 RMK AO2 SLP194 T02441006 10250 20156 51003,0,0.0,0,16090,0,0,0,
2026-03-17 16:56:00,METAR KLAS 171656Z 00000KT 10SM FEW250 23/M01 A3016 RMK AO2 SLP194 T02281006,0,0.0,0,16090,0,0,0,
2026-03-17 15:56:00,METAR KLAS 171556Z 07003KT 10SM SCT250 21/M01 A3015 RMK AO2 SLP194 T02061006,0,3.0,0,16090,0,0,0,
2026-03-17 14:56:00,METAR KLAS 171456Z 27004KT 10SM SCT250 18/M01 A3015 RMK AO2 SLP192 T01781006 53011,0,4.0,0,16090,0,0,0,
2026-03-17 13:56:00,METAR KLAS 171356Z 23003KT 10SM FEW250 16/M01 A3013 RMK AO2 SLP187 T01611006,0,3.0,0,16090,0,0,0,
2026-03-17 12:56:00,METAR KLAS 171256Z 22003KT 10SM FEW250 17/00 A3012 RMK AO2 SLP184 T01670000,0,3.0,0,16090,0,0,0,
2026-03-17 11:56:00,METAR KLAS 171156Z 22005KT 10SM BKN250 17/M01 A3011 RMK AO2 SLP180 T01671006 10206 20161 55002,0,5.0,0,16090,0,0,0,
2026-03-17 10:56:00,METAR KLAS 171056Z 23004KT 10SM BKN250 17/M01 A3010 RMK AO2 SLP177 T01721011,0,4.0,0,16090,0,0,0,
2026-03-17 09:56:00,METAR KLAS 170956Z 21004KT 10SM BKN250 18/M01 A3011 RMK AO2 SLP179 T01781011,0,4.0,0,16090,0,0,0,
2026-03-17 08:56:00,METAR KLAS 170856Z 21003KT 10SM SCT250 18/M01 A3012 RMK AO2 SLP181 T01831011 53002,0,3.0,0,16090,0,0,0,
2026-03-17 07:56:00,METAR KLAS 170756Z 25003KT 10SM FEW250 19/M01 A3011 RMK AO2 SLP179 T01941011 402720139,0,3.0,0,16090,0,0,0,
2026-03-17 06:56:00,METAR KLAS 170656Z 17006KT 10SM FEW250 20/M01 A3011 RMK AO2 SLP181 T02001011,0,6.0,0,16090,0,0,0,
2026-03-17 05:56:00,METAR KLAS 170556Z 23004KT 10SM FEW250 20/M02 A3011 RMK AO2 SLP180 T02001017 10272 20200 51017,0,4.0,0,16090,0,0,0,
2026-03-17 04:56:00,METAR KLAS 170456Z 21004KT 10SM CLR 21/M01 A3010 RMK AO2 SLP176 T02111011,0,4.0,0,16090,0,0,0,
2026-03-17 03:56:00,METAR KLAS 170356Z 28005KT 10SM CLR 23/M03 A3008 RMK AO2 SLP169 T02331028,0,5.0,0,16090,0,0,0,
2026-03-17 02:56:00,METAR KLAS 170256Z 26004KT 10SM FEW250 24/M03 A3006 RMK AO2 SLP163 T02441033 53002,0,4.0,0,16090,0,0,0,
2026-03-17 01:56:00,METAR KLAS 170156Z 13003KT 10SM FEW250 26/M03 A3005 RMK AO2 SLP160 T02561033,0,3.0,0,16090,0,0,0,
2026-03-17 00:56:00,METAR KLAS 170056Z 08006KT 10SM SCT250 27/M04 A3005 RMK AO2 SLP158 T02671039,0,6.0,0,16090,0,0,0,
2026-03-16 23:56:00,METAR KLAS 162356Z 07006KT 10SM SCT250 27/M04 A3005 RMK AO2 SLP159 T02671039 10272 20217 56022,0,6.0,0,16090,0,0,0,
2026-03-16 22:56:00,METAR KLAS 162256Z 09008KT 10SM BKN250 27/M04 A3007 RMK AO2 SLP166 T02671039,0,8.0,0,16090,0,0,0,
2026-03-16 22:05:00,SPECI KLAS 162205Z 08008KT 10SM BKN250 27/M04 A3009 RMK AO2 T02671044,0,8.0,0,16090,0,0,0,
2026-03-16 21:56:00,METAR KLAS 162156Z 06008G16KT 10SM BKN250 26/M04 A3009 RMK AO2 SLP173 T02611044,0,8.0,1,16090,0,0,0,
2026-03-16 20:56:00,METAR KLAS 162056Z 06011KT 10SM BKN250 26/M04 A3012 RMK AO2 SLP182 T02611039 58024,0,11.0,0,16090,0,0,0,
2026-03-16 19:56:00,METAR KLAS 161956Z 07009KT 10SM BKN250 25/M06 A3015 RMK AO2 SLP193 T02501056,0,9.0,0,16090,0,0,0,
2026-03-16 18:56:00,METAR KLAS 161856Z 11007KT 10SM BKN250 23/M07 A3018 RMK AO2 SLP204 T02281072,0,7.0,0,16090,0,0,0,
2026-03-16 17:56:00,METAR KLAS 161756Z 04009KT 10SM BKN250 21/M08 A3019 RMK AO2 SLP210 T02111078 10217 20139 58002,0,9.0,0,16090,0,0,0,
2026-03-16 16:56:00,METAR KLAS 161656Z 05003KT 10SM BKN250 19/M09 A3021 RMK AO2 SLP215 T01941089,0,3.0,0,16090,0,0,0,
2026-03-16 15:56:00,METAR KLAS 161556Z 00000KT 10SM BKN250 18/M09 A3022 RMK AO2 SLP218 T01781089,0,0.0,0,16090,0,0,0,
2026-03-16 14:56:00,METAR KLAS 161456Z 24003KT 10SM BKN250 16/M07 A3020 RMK AO2 SLP213 T01561072 53017 $,0,3.0,0,16090,0,0,0,
2026-03-16 13:56:00,METAR KLAS 161356Z 12003KT 10SM BKN250 15/M07 A3018 RMK AO2 SLP205 T01501072 $,0,3.0,0,16090,0,0,0,
2026-03-16 12:56:00,METAR KLAS 161256Z 21004KT 10SM SCT250 15/M08 A3015 RMK AO2 SLP193 T01501078 $,0,4.0,0,16090,0,0,0,
2026-03-16 11:56:00,METAR KLAS 161156Z 21004KT 10SM SCT250 16/M09 A3015 RMK AO2 SLP192 T01561089 10206 20156 55000 $,0,4.0,0,16090,0,0,0,
2026-03-16 10:56:00,METAR KLAS 161056Z 00000KT 10SM FEW150 SCT250 17/M10 A3013 RMK AO2 SLP188 T01671100 $,0,0.0,0,16090,0,0,0,
2026-03-16 09:56:00,METAR KLAS 160956Z 01008KT 10SM FEW150 SCT250 18/M11 A3015 RMK AO2 SLP192 T01781111 $,0,8.0,0,16090,0,0,0,
2026-03-16 08:56:00,METAR KLAS 160856Z 03006KT 10SM FEW150 SCT250 18/M11 A3015 RMK AO2 SLP191 T01831111 51007 $,0,6.0,0,16090,0,0,0,
2026-03-16 07:56:00,METAR KLAS 160756Z VRB03KT 10SM FEW150 SCT250 19/M11 A3014 RMK AO2 SLP189 T01891111 402720189 $,0,3.0,0,16090,0,0,0,
2026-03-16 06:56:00,METAR KLAS 160656Z 03010KT 10SM FEW150 SCT250 20/M11 A3013 RMK AO2 SLP185 T02001111 $,0,10.0,0,16090,0,0,0,
2026-03-16 05:56:00,METAR KLAS 160556Z 01005KT 10SM FEW160 SCT250 20/M09 A3013 RMK AO2 SLP183 T02001094 10267 20200 53018 $,0,5.0,0,16090,0,0,0,
2026-03-16 04:56:00,METAR KLAS 160456Z 36007KT 10SM FEW160 SCT250 21/M09 A3011 RMK AO2 SLP177 T02111089 $,0,7.0,0,16090,0,0,0,
2026-03-16 03:56:00,METAR KLAS 160356Z 00000KT 10SM FEW160 SCT250 22/M08 A3008 RMK AO2 SLP168 T02221078 $,0,0.0,0,16090,0,0,0,
2026-03-16 02:56:00,METAR KLAS 160256Z 11004KT 10SM FEW160 FEW250 23/M08 A3007 RMK AO2 SLP165 T02331083 53004 $,0,4.0,0,16090,0,0,0,
2026-03-16 01:56:00,METAR KLAS 160156Z 07010KT 10SM FEW160 SCT250 24/M08 A3006 RMK AO2 SLP161 T02391078 $,0,10.0,0,16090,0,0,0,
2026-03-16 00:56:00,METAR KLAS 160056Z 10007KT 10SM FEW160 BKN250 26/M08 A3005 RMK AO2 SLP157 T02561078 $,0,7.0,0,16090,0,0,0,
2026-03-15 23:56:00,METAR KLAS 152356Z 09009KT 10SM FEW180 BKN250 27/M08 A3006 RMK AO2 SLP157 T02671078 10272 20244 58014 $,0,9.0,0,16090,0,0,0,
2026-03-15 22:56:00,METAR KLAS 152256Z 02008KT 10SM FEW180 BKN250 27/M07 A3007 RMK AO2 SLP162 T02671072 $,0,8.0,0,16090,0,0,0,
2026-03-15 21:56:00,METAR KLAS 152156Z 07007KT 10SM FEW180 BKN250 26/M07 A3009 RMK AO2 SLP168 T02611067 $,0,7.0,0,16090,0,0,0,
2026-03-15 20:56:00,METAR KLAS 152056Z 06004G17KT 10SM BKN250 26/M07 A3010 RMK AO2 SLP172 T02561067 58009 $,0,4.0,1,16090,0,0,0,
2026-03-15 19:56:00,METAR KLAS 151956Z 07009G16KT 030V100 10SM SCT250 26/M06 A3011 RMK AO2 SLP174 T02561061 $,0,9.0,1,16090,0,0,0,
2026-03-15 18:56:00,METAR KLAS 151856Z 07013KT 10SM FEW250 26/M06 A3013 RMK AO2 SLP181 T02561056 $,0,13.0,0,16090,0,0,0,
2026-03-15 17:56:00,METAR KLAS 151756Z 07012G19KT 10SM FEW250 25/M06 A3013 RMK AO2 SLP183 T02501056 10250 20189 51022 $,0,12.0,1,16090,0,0,0,
2026-03-15 16:56:00,METAR KLAS 151656Z 06011KT 10SM BKN250 23/M06 A3012 RMK AO2 SLP180 T02331056 $,0,11.0,0,16090,0,0,0,
2026-03-15 15:56:00,METAR KLAS 151556Z 03017G21KT 10SM BKN250 22/M06 A3009 RMK AO2 WSHFT 1522 SLP170 T02221056 $,0,17.0,1,16090,0,0,0,
2026-03-15 15:42:00,SPECI KLAS 151542Z 35009KT 10SM BKN250 21/M05 A3009 RMK AO2 WSHFT 1522 T02111050 $,0,9.0,0,16090,0,0,0,
2026-03-15 14:56:00,METAR KLAS 151456Z 07009KT 10SM BKN250 20/M06 A3006 RMK AO2 SLP161 T02001056 51034 $,0,9.0,0,16090,0,0,0,
2026-03-15 13:56:00,METAR KLAS 151356Z 04014KT 10SM SCT250 19/M06 A3003 RMK AO2 SLP148 T01941056 $,0,14.0,0,16090,0,0,0,
2026-03-15 12:56:00,METAR KLAS 151256Z 03008KT 10SM SCT250 20/M05 A2999 RMK AO2 SLP136 T02001050 $,0,8.0,0,16090,0,0,0,
2026-03-15 11:56:00,METAR KLAS 151156Z 01014KT 10SM SCT250 23/M05 A2995 RMK AO2 PK WND 34027/1115 SLP120 T02281050 10256 20228 53007 $,0,14.0,0,16090,0,0,0,
2026-03-15 10:56:00,METAR KLAS 151056Z 36014G23KT 10SM SCT250 23/M05 A2994 RMK AO2 PK WND 34029/1014 SLP116 T02331050 $,0,14.0,1,16090,0,0,0,
2026-03-15 09:56:00,METAR KLAS 150956Z 35017KT 10SM SCT250 24/M06 A2994 RMK AO2 SLP114 T02391056 $,0,17.0,0,16090,0,0,0,
2026-03-15 08:56:00,METAR KLAS 150856Z 33011G17KT 10SM SCT250 24/M06 A2993 RMK AO2 SLP111 T02441056 52010 $,0,11.0,1,16090,0,0,0,
